station,valid,metar
ZJHK,2016-01-01 00:00,ZJHK 010000Z 03004MPS 5000 BR SCT016 OVC030 18/14 Q1025 NOSIG
ZJHK,2016-01-01 01:00,ZJHK 010100Z 02004MPS 340V050 5000 BR SCT016 OVC030 18/14 Q1026 NOSIG
ZJHK,2016-01-01 02:00,ZJHK 010200Z 01005MPS 5000 BR SCT016 OVC030 18/14 Q1026 NOSIG
ZJHK,2016-01-01 03:00,ZJHK 010300Z 02006MPS 350V060 6000 SCT016 OVC030 18/13 Q1026 NOSIG
ZJHK,2016-01-01 04:00,ZJHK 010400Z 02006MPS 6000 SCT016 OVC030 18/13 Q1026 NOSIG
ZJHK,2016-01-01 05:00,ZJHK 010500Z 02005MPS 6000 SCT016 OVC030 17/14 Q1025 NOSIG
ZJHK,2016-01-01 06:00,ZJHK 010600Z 02005MPS 6000 SCT016 OVC030 19/14 Q1024 NOSIG
ZJHK,2016-01-01 07:00,ZJHK 010700Z 01004MPS 340V040 6000 SCT014 OVC030 18/14 Q1023 NOSIG
ZJHK,2016-01-01 08:00,ZJHK 010800Z 02004MPS 340V070 6000 SCT014 OVC030 18/14 Q1023 NOSIG
ZJHK,2016-01-01 09:00,ZJHK 010900Z 03005MPS 5000 BR SCT014 OVC030 18/14 Q1023 NOSIG
ZJHK,2016-01-01 10:00,ZJHK 011000Z 03005MPS 5000 BR SCT014 OVC030 18/14 Q1024 NOSIG
ZJHK,2016-01-01 11:00,ZJHK 011100Z 04004MPS 5000 BR SCT014 OVC040 18/14 Q1024 NOSIG
ZJHK,2016-01-01 12:00,ZJHK 011200Z 04004MPS 010V070 5000 BR OVC040 18/14 Q1024 NOSIG
ZJHK,2016-01-01 13:00,ZJHK 011300Z 04003MPS 6000 OVC040 18/14 Q1024 NOSIG
ZJHK,2016-01-01 14:00,ZJHK 011400Z 04005MPS 6000 OVC040 18/13 Q1024 NOSIG
ZJHK,2016-01-01 15:00,ZJHK 011500Z 03003MPS 360V060 6000 OVC033 18/13 Q1024 NOSIG
ZJHK,2016-01-01 16:00,ZJHK 011600Z 04003MPS 360V090 7000 OVC033 18/13 Q1024 NOSIG
ZJHK,2016-01-01 17:00,ZJHK 011700Z 01003MPS 7000 BKN040 18/12 Q1023 NOSIG
ZJHK,2016-01-01 18:00,ZJHK 011800Z 10002MPS 7000 SCT040 17/13 Q1023 NOSIG
ZJHK,2016-01-01 19:00,ZJHK 011900Z 01002MPS 6000 BKN040 17/13 Q1022 NOSIG
ZJHK,2016-01-01 20:00,ZJHK 012000Z 05002MPS 7000 OVC040 17/14 Q1022 NOSIG
ZJHK,2016-01-01 21:00,ZJHK 012100Z 01003MPS 7000 OVC040 18/14 Q1021 NOSIG
ZJHK,2016-01-01 22:00,ZJHK 012200Z 02002MPS 6000 OVC040 18/14 Q1022 NOSIG
ZJHK,2016-01-01 23:00,ZJHK 012300Z 36002MPS 340V060 4500 BR OVC033 18/14 Q1022 NOSIG
ZJHK,2016-01-02 00:00,ZJHK 020000Z 36003MPS 4500 BR BKN015 OVC033 18/14 Q1023 NOSIG
ZJHK,2016-01-02 01:00,ZJHK 020100Z 02003MPS 4000 BR BKN015 OVC033 18/15 Q1023 NOSIG
ZJHK,2016-01-02 02:00,ZJHK 020200Z 03004MPS 4000 BR BKN015 OVC033 18/14 Q1024 NOSIG
ZJHK,2016-01-02 03:00,ZJHK 020300Z 02004MPS 7000 BKN015 OVC033 19/13 Q1024 NOSIG
ZJHK,2016-01-02 04:00,ZJHK 020400Z 01004MPS 7000 SCT015 OVC033 18/14 Q1023 NOSIG
ZJHK,2016-01-02 05:00,ZJHK 020500Z 03004MPS 360V060 9999 FEW015 OVC033 20/12 Q1021 NOSIG
ZJHK,2016-01-02 06:00,ZJHK 020600Z 04005MPS 010V070 9999 FEW015 OVC033 20/12 Q1020 NOSIG
ZJHK,2016-01-02 07:00,ZJHK 020700Z 06005MPS 9999 FEW015 BKN046 21/12 Q1019 NOSIG
ZJHK,2016-01-02 08:00,ZJHK 020800Z 06003MPS 020V080 9999 FEW015 BKN046 20/12 Q1019 NOSIG
ZJHK,2016-01-02 09:00,ZJHK 020900Z 05003MPS 9999 FEW015 BKN040 19/13 Q1019 NOSIG
ZJHK,2016-01-02 10:00,ZJHK 021000Z 06002MPS 9999 BKN040 19/13 Q1020 NOSIG
ZJHK,2016-01-02 11:00,ZJHK 021100Z 05002MPS 7000 BKN040 19/14 Q1020 NOSIG
ZJHK,2016-01-02 12:00,ZJHK 021200Z 06003MPS 7000 FEW020 BKN040 18/14 Q1020 NOSIG
ZJHK,2016-01-02 13:00,ZJHK 021300Z 03002MPS 010V070 7000 FEW020 BKN046 18/14 Q1021 NOSIG
ZJHK,2016-01-02 14:00,ZJHK 021400Z 35001MPS 6000 SCT020 BKN046 18/15 Q1021 NOSIG
ZJHK,2016-01-02 15:00,ZJHK 021500Z 03001MPS 6000 SCT016 BKN046 18/15 Q1021 NOSIG
ZJHK,2016-01-02 16:00,ZJHK 021600Z 00000MPS 6000 SCT016 BKN046 18/15 Q1020 NOSIG
ZJHK,2016-01-02 17:00,ZJHK 021700Z 36001MPS 6000 SCT015 18/15 Q1020 NOSIG
ZJHK,2016-01-02 18:00,ZJHK 021800Z 36002MPS 6000 SCT015 18/16 Q1019 NOSIG
ZJHK,2016-01-02 19:00,ZJHK 021900Z 01002MPS 5000 BR SCT015 18/16 Q1018 NOSIG
ZJHK,2016-01-02 20:00,ZJHK 022000Z 36002MPS 340V040 5000 BR SCT012 18/16 Q1018 NOSIG
ZJHK,2016-01-02 21:00,ZJHK 022100Z 36001MPS 5000 BR SCT012 19/17 Q1018 NOSIG
ZJHK,2016-01-02 22:00,ZJHK 022200Z 01001MPS 5000 BR BKN012 19/17 Q1018 NOSIG
ZJHK,2016-01-02 23:00,ZJHK 022300Z 03002MPS 5000 BR BKN012 19/17 Q1019 BECMG BKN015
ZJHK,2016-01-03 00:00,ZJHK 030000Z 02001MPS 5000 BR BKN012 19/17 Q1019 BECMG BKN015
ZJHK,2016-01-03 01:00,ZJHK 030100Z 02002MPS 350V050 3500 BR BKN010 OVC030 19/17 Q1020 NOSIG
ZJHK,2016-01-03 02:00,ZJHK 030200Z 03002MPS 360V060 1000 R09/1200N -DZ BR BKN003 OVC020 19/18 Q1020 BECMG AT0340 1600 BR BKN006 OVC020
ZJHK,2016-01-03 03:00,ZJHK 030300Z 36001MPS 1800 BR BKN004 OVC020 20/18 Q1020 BECMG AT0400 3000 BR BKN006 OVC020
ZJHK,2016-01-03 04:00,ZJHK 030400Z 35002MPS 310V040 1800 -DZ BR BKN004 OVC020 20/18 Q1019 BECMG AT0450 1300 -DZ BR
ZJHK,2016-01-03 05:00,ZJHK 030500Z 03004MPS 4000 BR BKN006 OVC020 21/18 Q1018 BECMG AT0640 BKN010 OVC023
ZJHK,2016-01-03 06:00,ZJHK 030600Z 01003MPS 6000 BKN007 OVC020 21/18 Q1017 BECMG AT0750 BKN010 OVC023
ZJHK,2016-01-03 07:00,ZJHK 030700Z 01003MPS 350V060 6000 BKN007 OVC020 21/18 Q1017 NOSIG
ZJHK,2016-01-03 08:00,ZJHK 030800Z 02003MPS 350V050 4000 BR BKN007 OVC020 20/18 Q1016 NOSIG
ZJHK,2016-01-03 09:00,ZJHK 030900Z 02003MPS 2000 BR BKN007 OVC020 20/18 Q1017 NOSIG
ZJHK,2016-01-03 10:00,ZJHK 031000Z 03003MPS 1300 R09/P2000 BR BKN005 OVC020 20/18 Q1017 NOSIG
ZJHK,2016-01-03 11:00,ZJHK 031100Z 03003MPS 2000 BR BKN005 OVC020 19/18 Q1018 NOSIG
ZJHK,2016-01-03 12:00,ZJHK 031200Z 03002MPS 360V060 1000 R09/1200N BR BKN002 OVC020 19/18 Q1018 NOSIG
ZJHK,2016-01-03 13:00,ZJHK 031300Z 06003MPS 1200 R09/P2000 BR BKN002 OVC020 20/18 Q1018 NOSIG
ZJHK,2016-01-03 14:00,ZJHK 031400Z 07001MPS 1700 BR BKN005 OVC020 20/18 Q1018 NOSIG
ZJHK,2016-01-03 15:00,ZJHK 031500Z 09002MPS 1700 BR BKN005 OVC020 20/18 Q1018 NOSIG
ZJHK,2016-01-03 16:00,ZJHK 031600Z 10002MPS 2000 BR BKN005 OVC020 20/18 Q1017 NOSIG
ZJHK,2016-01-03 17:00,ZJHK 031700Z 06002MPS 2000 BR BKN005 OVC020 20/19 Q1017 NOSIG
ZJHK,2016-01-03 18:00,ZJHK 031800Z 05002MPS 020V080 2000 -DZ BR BKN003 OVC020 20/19 Q1017 NOSIG
ZJHK,2016-01-03 19:00,ZJHK 031900Z 03002MPS 1600 -DZ BR BKN003 OVC020 20/19 Q1017 NOSIG
ZJHK,2016-01-03 20:00,ZJHK 032000Z 01001MPS 1600 -DZ BR BKN003 OVC020 20/18 Q1017 NOSIG
ZJHK,2016-01-03 21:00,ZJHK 032100Z 04002MPS 1600 -DZ BR BKN003 OVC020 20/19 Q1017 NOSIG
ZJHK,2016-01-03 22:00,ZJHK 032200Z 06003MPS 2000 -DZ BR BKN003 OVC020 20/19 Q1017 BECMG 3000 BR BKN006 OVC026
ZJHK,2016-01-03 23:00,ZJHK 032300Z 07003MPS 3000 BR BKN004 OVC020 20/19 Q1017 NOSIG
ZJHK,2016-01-04 00:00,ZJHK 040000Z 06004MPS 2000 -DZ BR BKN004 OVC020 21/19 Q1018 BECMG 3000 BR BKN006 OVC026
ZJHK,2016-01-04 01:00,ZJHK 040100Z 07003MPS 4000 BR BKN005 OVC020 21/19 Q1019 NOSIG
ZJHK,2016-01-04 02:00,ZJHK 040200Z 07004MPS 8000 BKN008 OVC023 22/20 Q1019 BECMG BKN010 OVC026
ZJHK,2016-01-04 03:00,ZJHK 040300Z 08004MPS 9999 BKN012 OVC026 22/20 Q1019 NOSIG
ZJHK,2016-01-04 04:00,ZJHK 040400Z 10003MPS 070V130 9999 BKN015 OVC033 23/20 Q1018 NOSIG
ZJHK,2016-01-04 05:00,ZJHK 040500Z VRB03MPS 5000 RA BKN010 OVC030 22/20 Q1017 BECMG -RA BKN009 OVC020
ZJHK,2016-01-04 06:00,ZJHK 040600Z 36001MPS 7000 -RA BKN007 OVC030 22/20 Q1016 RERA BECMG RA
ZJHK,2016-01-04 07:00,ZJHK 040700Z 30002MPS 270V020 2000 RA BR BKN005 OVC026 22/20 Q1015 BECMG 1000 RA BR BKN003 OVC020
ZJHK,2016-01-04 08:00,ZJHK 040800Z 35003MPS 310V030 3000 -RA BR BKN005 OVC026 21/20 Q1015 RERA BECMG 2000 -RA BR
ZJHK,2016-01-04 09:00,ZJHK 040900Z 36002MPS 2500 -RA BR BKN004 OVC020 21/20 Q1015 BECMG AT1050 3000 -RA BR BKN005 OVC023
ZJHK,2016-01-04 10:00,ZJHK 041000Z 02002MPS 350V060 2000 -RA BR BKN004 OVC020 21/19 Q1015 BECMG AT1100 1200 -RA BR
ZJHK,2016-01-04 11:00,ZJHK 041100Z 02001MPS 3500 BR BKN003 OVC020 21/19 Q1015 BECMG AT1200 2500 -RA BR
ZJHK,2016-01-04 12:00,ZJHK 041200Z 25001MPS 3500 -RA BR BKN010 OVC030 21/19 Q1016 NOSIG
ZJHK,2016-01-04 13:00,ZJHK 041300Z 33001MPS 5000 -RA BR BKN010 OVC030 21/20 Q1016 NOSIG
ZJHK,2016-01-04 14:00,ZJHK 041400Z 31001MPS 1000 R09/P2000 -RA BR BKN003 OVC023 21/19 Q1017 BECMG AT1550 1600 -RA BR
ZJHK,2016-01-04 15:00,ZJHK 041500Z 33002MPS 300V020 1000 R09/P2000 -RA BR BKN002 OVC023 21/19 Q1017 NOSIG
ZJHK,2016-01-04 16:00,ZJHK 041600Z 36002MPS 1600 -RA BR BKN002 OVC023 21/19 Q1016 NOSIG
ZJHK,2016-01-04 17:00,ZJHK 041700Z 08002MPS 2800 BR SCT003 OVC023 21/19 Q1015 NOSIG
ZJHK,2016-01-04 18:00,ZJHK 041800Z 12002MPS CAVOK 21/19 Q1014 NOSIG
ZJHK,2016-01-04 19:00,ZJHK 041900Z 26001MPS 4000 BR BKN003 20/19 Q1014 NOSIG
ZJHK,2016-01-04 20:00,ZJHK 042000Z 29002MPS 0600 R09/0500N FG OVC003 20/19 Q1014 NOSIG
ZJHK,2016-01-04 21:00,ZJHK 042100Z 28002MPS 0600 R09/0650N FG OVC002 20/19 Q1014 NOSIG
ZJHK,2016-01-04 22:00,ZJHK 042200Z 27001MPS 1600 BR OVC003 20/19 Q1014 BECMG 3000 BR BKN005
ZJHK,2016-01-04 23:00,ZJHK 042300Z 20001MPS 1200 R09/P2000 BR OVC003 20/19 Q1015 BECMG 2500 BR BKN005
ZJHK,2016-01-05 00:00,ZJHK 050000Z 24002MPS 5000 BR BKN008 BKN020 21/19 Q1016 NOSIG
ZJHK,2016-01-05 01:00,ZJHK 050100Z 24003MPS 210V270 7000 BKN010 BKN026 21/19 Q1016 NOSIG
ZJHK,2016-01-05 02:00,ZJHK 050200Z 27004MPS 240V300 6000 BKN010 BKN026 22/19 Q1017 BECMG BKN008 BKN026
ZJHK,2016-01-05 03:00,ZJHK 050300Z 24002MPS 9999 SCT010 BKN026 23/19 Q1017 NOSIG
ZJHK,2016-01-05 04:00,ZJHK 050400Z 28003MPS 220V300 9999 SCT013 BKN026 23/19 Q1016 NOSIG
ZJHK,2016-01-05 05:00,ZJHK 050500Z 28003MPS 230V330 9999 FEW016 SCT040 25/19 Q1015 NOSIG
ZJHK,2016-01-05 06:00,ZJHK 050600Z 32005MPS 290V350 9999 SCT016 BKN040 23/19 Q1014 NOSIG
ZJHK,2016-01-05 07:00,ZJHK 050700Z 32003MPS 280V360 9999 FEW016 23/19 Q1013 NOSIG
ZJHK,2016-01-05 08:00,ZJHK 050800Z 32003MPS 280V350 9999 FEW016 BKN040 23/18 Q1013 NOSIG
ZJHK,2016-01-05 09:00,ZJHK 050900Z 32003MPS 9999 SCT013 22/18 Q1013 NOSIG
ZJHK,2016-01-05 10:00,ZJHK 051000Z 28001MPS CAVOK 21/18 Q1014 NOSIG
ZJHK,2016-01-05 11:00,ZJHK 051100Z 21002MPS 8000 NSC 20/18 Q1015 NOSIG
ZJHK,2016-01-05 12:00,ZJHK 051200Z 22002MPS 8000 NSC 19/18 Q1015 NOSIG
ZJHK,2016-01-05 13:00,ZJHK 051300Z 19001MPS 7000 NSC 19/17 Q1016 NOSIG
ZJHK,2016-01-05 14:00,ZJHK 051400Z 13001MPS 6000 NSC 19/17 Q1017 NOSIG
ZJHK,2016-01-05 15:00,ZJHK 051500Z 13001MPS 5000 R09/0800N BR BCFG NSC 18/16 Q1016 BECMG 2000 BR
ZJHK,2016-01-05 16:00,ZJHK 051600Z 00000MPS 4500 R09/0550V0800 BR BCFG NSC 18/17 Q1016 BECMG 2000 BR BCFG
ZJHK,2016-01-05 17:00,ZJHK 051700Z 12001MPS 0600 R09/0650 FG NSC 17/16 Q1016 BECMG 0500 FG
ZJHK,2016-01-05 18:00,ZJHK 051800Z 00000MPS 3000 R09/0350V0500U BR BCFG NSC 17/16 Q1016 BECMG 0700 FG
ZJHK,2016-01-05 19:00,ZJHK 051900Z 00000MPS 0700 R09/0450V1300 FG NSC 16/15 Q1015 NOSIG
ZJHK,2016-01-05 20:00,ZJHK 052000Z 00000MPS 0300 R09/0500N FG VV/// 17/16 Q1016 NOSIG
ZJHK,2016-01-05 21:00,ZJHK 052100Z 32001MPS 0700 R09/0500V1000 FG NSC 18/17 Q1016 NOSIG
ZJHK,2016-01-05 22:00,ZJHK 052200Z 00000MPS 1600 R09/0375 BR BKN023 18/17 Q1016 BECMG 2000 BR
ZJHK,2016-01-05 23:00,ZJHK 052300Z 00000MPS 2500 R09/1000 BR BKN025 18/17 Q1017 BECMG 3000 BR
ZJHK,2016-01-06 00:00,ZJHK 060000Z 00000MPS 2500 BR BKN028 18/17 Q1018 BECMG 3000 BR
ZJHK,2016-01-06 01:00,ZJHK 060100Z 11001MPS 2000 BR BCFG FEW004 20/19 Q1019 BECMG 4000 BR
ZJHK,2016-01-06 02:00,ZJHK 060200Z 05002MPS 6000 FEW005 22/20 Q1020 NOSIG
ZJHK,2016-01-06 03:00,ZJHK 060300Z 03005MPS 4000 BR BKN005 21/18 Q1020 BECMG 2000 BR
ZJHK,2016-01-06 04:00,ZJHK 060400Z 05003MPS 020V100 7000 BKN010 SCT020 22/18 Q1019 NOSIG
ZJHK,2016-01-06 05:00,ZJHK 060500Z 06002MPS 350V100 8000 FEW010 BKN020 23/18 Q1018 NOSIG
ZJHK,2016-01-06 06:00,ZJHK 060600Z 05003MPS 020V080 9999 FEW010 SCT020 24/18 Q1017 NOSIG
ZJHK,2016-01-06 07:00,ZJHK 060700Z 01005MPS 350V050 9999 FEW020 23/18 Q1016 NOSIG
ZJHK,2016-01-06 08:00,ZJHK 060800Z 02005MPS 5000 BR SCT016 22/18 Q1016 NOSIG
ZJHK,2016-01-06 09:00,ZJHK 060900Z 04004MPS 360V070 9999 FEW016 BKN040 22/18 Q1017 NOSIG
ZJHK,2016-01-06 10:00,ZJHK 061000Z 05005MPS 9999 SCT016 BKN040 21/18 Q1017 NOSIG
ZJHK,2016-01-06 11:00,ZJHK 061100Z 05004MPS 9999 SCT016 SCT040 20/18 Q1017 NOSIG
ZJHK,2016-01-06 12:00,ZJHK 061200Z 05004MPS 6000 FEW016 SCT040 20/17 Q1018 NOSIG
ZJHK,2016-01-06 13:00,ZJHK 061300Z 06004MPS 6000 NSC 19/17 Q1019 NOSIG
ZJHK,2016-01-06 14:00,ZJHK 061400Z 12002MPS 5000 BR NSC 18/17 Q1019 NOSIG
ZJHK,2016-01-06 15:00,ZJHK 061500Z 13001MPS 4000 R09/0900V1400D BR BCFG NSC 17/16 Q1020 NOSIG
ZJHK,2016-01-06 16:00,ZJHK 061600Z 10002MPS 3000 R09/1200N BR BCFG NSC 18/16 Q1019 NOSIG
ZJHK,2016-01-06 17:00,ZJHK 061700Z 14001MPS 3000 R09/0225U BR BCFG NSC 17/16 Q1019 NOSIG
ZJHK,2016-01-06 18:00,ZJHK 061800Z 19001MPS 1600 R09/0550V0800 BR BCFG NSC 17/16 Q1019 NOSIG
ZJHK,2016-01-06 19:00,ZJHK 061900Z 10001MPS 1600 R09/0250N BR BCFG NSC 16/15 Q1018 NOSIG
ZJHK,2016-01-06 20:00,ZJHK 062000Z 00000MPS 1600 R09/0400V0650 BR BCFG SCT020 16/15 Q1018 NOSIG
ZJHK,2016-01-06 21:00,ZJHK 062100Z 00000MPS 1600 R09/0500V1400 BR BCFG SCT020 16/15 Q1018 NOSIG
ZJHK,2016-01-06 22:00,ZJHK 062200Z 00000MPS 3000 BR SCT016 17/16 Q1019 NOSIG
ZJHK,2016-01-06 23:00,ZJHK 062300Z 00000MPS 3000 R09/0550D BR BCFG BKN020 16/15 Q1019 NOSIG
ZJHK,2016-01-07 00:00,ZJHK 070000Z 04001MPS 3000 BR SCT015 SCT020 18/17 Q1020 NOSIG
ZJHK,2016-01-07 01:00,ZJHK 070100Z 08003MPS 4000 BR SCT015 SCT026 19/18 Q1021 NOSIG
ZJHK,2016-01-07 02:00,ZJHK 070200Z 06005MPS 8000 SCT012 SCT020 21/18 Q1021 NOSIG
ZJHK,2016-01-07 03:00,ZJHK 070300Z 06006MPS 9999 SCT013 BKN023 22/17 Q1021 NOSIG
ZJHK,2016-01-07 04:00,ZJHK 070400Z 06007MPS 9999 SCT015 BKN023 22/17 Q1021 NOSIG
ZJHK,2016-01-07 05:00,ZJHK 070500Z 06007MPS 9999 SCT015 BKN023 22/17 Q1020 NOSIG
ZJHK,2016-01-07 06:00,ZJHK 070600Z 07008MPS 9999 SCT015 BKN023 22/16 Q1019 NOSIG
ZJHK,2016-01-07 07:00,ZJHK 070700Z 07007MPS 9999 SCT016 BKN023 22/16 Q1018 NOSIG
ZJHK,2016-01-07 08:00,ZJHK 070800Z 07007MPS 9999 SCT015 BKN030 21/16 Q1018 NOSIG
ZJHK,2016-01-07 09:00,ZJHK 070900Z 06006MPS 8000 BKN015 OVC030 20/16 Q1018 NOSIG
ZJHK,2016-01-07 10:00,ZJHK 071000Z 07006MPS 8000 BKN015 OVC030 20/16 Q1018 NOSIG
ZJHK,2016-01-07 11:00,ZJHK 071100Z 07004MPS 8000 -RA BKN008 OVC046 19/17 Q1019 BECMG BKN010 BKN026
ZJHK,2016-01-07 12:00,ZJHK 071200Z 09003MPS 8000 BKN010 OVC046 19/17 Q1019 NOSIG
ZJHK,2016-01-07 13:00,ZJHK 071300Z 09002MPS 8000 BKN010 OVC046 19/17 Q1020 BECMG BKN016 OVC030
ZJHK,2016-01-07 14:00,ZJHK 071400Z 10001MPS 8000 BKN020 19/17 Q1020 NOSIG
ZJHK,2016-01-07 15:00,ZJHK 071500Z 08003MPS 8000 BKN023 19/17 Q1020 NOSIG
ZJHK,2016-01-07 16:00,ZJHK 071600Z 09003MPS 8000 OVC046 19/17 Q1019 NOSIG
ZJHK,2016-01-07 17:00,ZJHK 071700Z 06004MPS 8000 OVC046 20/17 Q1019 NOSIG
ZJHK,2016-01-07 18:00,ZJHK 071800Z 06003MPS 9999 OVC046 20/17 Q1019 NOSIG
ZJHK,2016-01-07 19:00,ZJHK 071900Z 05003MPS 9999 OVC046 20/17 Q1018 NOSIG
ZJHK,2016-01-07 20:00,ZJHK 072000Z 10002MPS 9999 OVC046 19/16 Q1018 NOSIG
ZJHK,2016-01-07 21:00,ZJHK 072100Z 07002MPS 9999 OVC046 18/16 Q1018 NOSIG
ZJHK,2016-01-07 22:00,ZJHK 072200Z 07002MPS CAVOK 18/16 Q1018 NOSIG
ZJHK,2016-01-07 23:00,ZJHK 072300Z 04002MPS CAVOK 18/16 Q1019 NOSIG
ZJHK,2016-01-08 00:00,ZJHK 080000Z 05003MPS CAVOK 19/17 Q1019 NOSIG
ZJHK,2016-01-08 01:00,ZJHK 080100Z 07003MPS CAVOK 20/17 Q1020 NOSIG
ZJHK,2016-01-08 02:00,ZJHK 080200Z 08006MPS 9999 SCT016 22/17 Q1020 NOSIG
ZJHK,2016-01-08 03:00,ZJHK 080300Z 07006MPS 9999 SCT023 BKN033 23/16 Q1021 NOSIG
ZJHK,2016-01-08 04:00,ZJHK 080400Z 09006MPS 9999 SCT023 BKN033 24/16 Q1020 NOSIG
ZJHK,2016-01-08 05:00,ZJHK 080500Z 09005MPS 9999 SCT023 23/16 Q1019 NOSIG
ZJHK,2016-01-08 06:00,ZJHK 080600Z 08006MPS 9999 FEW023 SCT033 23/15 Q1017 NOSIG
ZJHK,2016-01-08 07:00,ZJHK 080700Z 10004MPS 060V120 9999 FEW023 BKN040 23/15 Q1017 NOSIG
ZJHK,2016-01-08 08:00,ZJHK 080800Z 09005MPS 9999 SCT023 23/16 Q1016 NOSIG
ZJHK,2016-01-08 09:00,ZJHK 080900Z 11005MPS 080V140 9999 FEW023 22/15 Q1016 NOSIG
ZJHK,2016-01-08 10:00,ZJHK 081000Z 09004MPS CAVOK 21/16 Q1017 NOSIG
ZJHK,2016-01-08 11:00,ZJHK 081100Z 10003MPS CAVOK 20/16 Q1017 NOSIG
ZJHK,2016-01-08 12:00,ZJHK 081200Z 10002MPS CAVOK 19/16 Q1018 NOSIG
ZJHK,2016-01-08 13:00,ZJHK 081300Z 10002MPS 8000 NSC 18/16 Q1018 NOSIG
ZJHK,2016-01-08 14:00,ZJHK 081400Z 09002MPS 7000 NSC 18/16 Q1019 NOSIG
ZJHK,2016-01-08 15:00,ZJHK 081500Z 10002MPS 6000 SCT026 18/16 Q1018 NOSIG
ZJHK,2016-01-08 16:00,ZJHK 081600Z 10002MPS 6000 FEW033 18/16 Q1018 NOSIG
ZJHK,2016-01-08 17:00,ZJHK 081700Z 10002MPS 6000 BKN040 18/16 Q1018 NOSIG
ZJHK,2016-01-08 18:00,ZJHK 081800Z 10003MPS 7000 NSC 18/16 Q1017 NOSIG
ZJHK,2016-01-08 19:00,ZJHK 081900Z 09002MPS 7000 SCT043 18/16 Q1017 NOSIG
ZJHK,2016-01-08 20:00,ZJHK 082000Z 10002MPS 7000 NSC 17/15 Q1017 NOSIG
ZJHK,2016-01-08 21:00,ZJHK 082100Z 09002MPS 6000 SCT020 17/16 Q1017 NOSIG
ZJHK,2016-01-08 22:00,ZJHK 082200Z 08002MPS 6000 SCT033 17/16 Q1017 NOSIG
ZJHK,2016-01-08 23:00,ZJHK 082300Z 07003MPS 7000 SCT020 BKN030 18/16 Q1018 NOSIG
ZJHK,2016-01-09 00:00,ZJHK 090000Z 08003MPS 7000 SCT020 SCT040 19/16 Q1018 NOSIG
ZJHK,2016-01-09 01:00,ZJHK 090100Z 10005MPS CAVOK 20/16 Q1018 NOSIG
ZJHK,2016-01-09 02:00,ZJHK 090200Z 11006MPS 9999 FEW020 22/16 Q1018 NOSIG
ZJHK,2016-01-09 03:00,ZJHK 090300Z 11007MPS 080V140 9999 SCT020 23/16 Q1019 NOSIG
ZJHK,2016-01-09 04:00,ZJHK 090400Z 12005MPS 080V160 9999 SCT020 24/16 Q1018 NOSIG
ZJHK,2016-01-09 05:00,ZJHK 090500Z 11005MPS 9999 SCT020 SCT040 23/16 Q1017 NOSIG
ZJHK,2016-01-09 06:00,ZJHK 090600Z 12005MPS 9999 SCT020 BKN040 24/15 Q1016 NOSIG
ZJHK,2016-01-09 07:00,ZJHK 090700Z 11005MPS 9999 FEW020 SCT040 24/16 Q1015 NOSIG
ZJHK,2016-01-09 08:00,ZJHK 090800Z 10005MPS 9999 FEW020 SCT040 24/16 Q1015 NOSIG
ZJHK,2016-01-09 09:00,ZJHK 090900Z 12005MPS 9999 FEW020 SCT040 23/16 Q1015 NOSIG
ZJHK,2016-01-09 10:00,ZJHK 091000Z 10004MPS CAVOK 22/16 Q1016 NOSIG
ZJHK,2016-01-09 11:00,ZJHK 091100Z 11003MPS CAVOK 21/16 Q1016 NOSIG
ZJHK,2016-01-09 12:00,ZJHK 091200Z 10003MPS CAVOK 20/16 Q1017 NOSIG
ZJHK,2016-01-09 13:00,ZJHK 091300Z 11002MPS 9999 FEW040 20/17 Q1017 NOSIG
ZJHK,2016-01-09 14:00,ZJHK 091400Z 11003MPS 9999 FEW026 20/16 Q1017 NOSIG
ZJHK,2016-01-09 15:00,ZJHK 091500Z 09003MPS CAVOK 19/17 Q1017 NOSIG
ZJHK,2016-01-09 16:00,ZJHK 091600Z 10001MPS CAVOK 19/17 Q1017 NOSIG
ZJHK,2016-01-09 17:00,ZJHK 091700Z 12002MPS CAVOK 19/17 Q1017 NOSIG
ZJHK,2016-01-09 18:00,ZJHK 091800Z 10001MPS CAVOK 19/17 Q1016 NOSIG
ZJHK,2016-01-09 19:00,ZJHK 091900Z 11003MPS CAVOK 19/17 Q1015 NOSIG
ZJHK,2016-01-09 20:00,ZJHK 092000Z 10002MPS 070V140 CAVOK 19/17 Q1014 NOSIG
ZJHK,2016-01-09 21:00,ZJHK 092100Z 11003MPS CAVOK 19/17 Q1014 NOSIG
ZJHK,2016-01-09 22:00,ZJHK 092200Z 11002MPS CAVOK 20/17 Q1014 NOSIG
ZJHK,2016-01-09 23:00,ZJHK 092300Z 12001MPS CAVOK 19/17 Q1015 NOSIG
ZJHK,2016-01-10 00:00,ZJHK 100000Z 10001MPS 7000 NSC 19/18 Q1015 NOSIG
ZJHK,2016-01-10 01:00,ZJHK 100100Z 12003MPS 7000 NSC 21/18 Q1015 NOSIG
ZJHK,2016-01-10 02:00,ZJHK 100200Z 13005MPS 100V160 CAVOK 23/19 Q1015 NOSIG
ZJHK,2016-01-10 03:00,ZJHK 100300Z 14006MPS 9999 SCT016 24/18 Q1015 NOSIG
ZJHK,2016-01-10 04:00,ZJHK 100400Z 15005MPS 120V180 9999 SCT016 FEW033TCU BKN033 24/17 Q1014 NOSIG
ZJHK,2016-01-10 05:00,ZJHK 100500Z 14004MPS 100V170 9999 SCT016 BKN046 24/18 Q1013 NOSIG
ZJHK,2016-01-10 06:00,ZJHK 100600Z 15004MPS 9999 SCT016 FEW046TCU BKN046 24/17 Q1012 NOSIG
ZJHK,2016-01-10 07:00,ZJHK 100700Z 15004MPS 120V180 9999 -SHRA SCT016 FEW046TCU BKN046 23/18 Q1012 NOSIG
ZJHK,2016-01-10 08:00,ZJHK 100800Z 13002MPS 100V160 9999 -SHRA SCT016 FEW046TCU BKN046 21/19 Q1012 NOSIG
ZJHK,2016-01-10 09:00,ZJHK 100900Z 13003MPS 9999 SCT016 FEW046TCU BKN046 21/19 Q1011 NOSIG
ZJHK,2016-01-10 10:00,ZJHK 101000Z 13003MPS 100V160 9999 FEW016 FEW046TCU BKN046 21/19 Q1012 NOSIG
ZJHK,2016-01-10 11:00,ZJHK 101100Z 13004MPS 9999 BKN046 22/19 Q1012 NOSIG
ZJHK,2016-01-10 12:00,ZJHK 101200Z 14004MPS 110V180 CAVOK 22/19 Q1012 NOSIG
ZJHK,2016-01-10 13:00,ZJHK 101300Z 15004MPS CAVOK 22/19 Q1013 NOSIG
ZJHK,2016-01-10 14:00,ZJHK 101400Z 16004MPS 130V190 CAVOK 22/19 Q1013 NOSIG
ZJHK,2016-01-10 15:00,ZJHK 101500Z 18002MPS CAVOK 22/19 Q1014 NOSIG
ZJHK,2016-01-10 16:00,ZJHK 101600Z 26002MPS CAVOK 20/19 Q1014 NOSIG
ZJHK,2016-01-10 17:00,ZJHK 101700Z 17001MPS 8000 NSC 20/18 Q1014 NOSIG
ZJHK,2016-01-10 18:00,ZJHK 101800Z 17003MPS CAVOK 20/18 Q1013 NOSIG
ZJHK,2016-01-10 19:00,ZJHK 101900Z 00000MPS CAVOK 21/18 Q1013 NOSIG
ZJHK,2016-01-10 20:00,ZJHK 102000Z 00000MPS 7000 NSC 19/18 Q1012 NOSIG
ZJHK,2016-01-10 21:00,ZJHK 102100Z 34002MPS 5000 BR NSC 19/18 Q1012 NOSIG
ZJHK,2016-01-10 22:00,ZJHK 102200Z 36003MPS 3000 BR BKN005 20/18 Q1013 NOSIG
ZJHK,2016-01-10 23:00,ZJHK 102300Z 02003MPS 350V050 0400 R09/0900D FG BKN003 19/18 Q1013 BECMG 0800 FG
ZJHK,2016-01-11 00:00,ZJHK 110000Z 05003MPS 0500 R09/0900U FG BKN003 19/18 Q1014 BECMG 2000 BR BKN005
ZJHK,2016-01-11 01:00,ZJHK 110100Z 07004MPS 3500 BR BKN004 OVC026 20/19 Q1014 BECMG BKN010
ZJHK,2016-01-11 02:00,ZJHK 110200Z 05004MPS 020V080 8000 BKN008 OVC030 20/18 Q1015 BECMG BKN010
ZJHK,2016-01-11 03:00,ZJHK 110300Z 04004MPS 9999 BKN008 OVC026 21/18 Q1016 NOSIG
ZJHK,2016-01-11 04:00,ZJHK 110400Z 02005MPS 6000 -RA BKN006 OVC023 20/17 Q1015 BECMG BKN004 OVC020
ZJHK,2016-01-11 05:00,ZJHK 110500Z 01004MPS 340V040 3000 -DZ BR BKN004 OVC023 19/17 Q1015 BECMG 2000 -DZ BR
ZJHK,2016-01-11 06:00,ZJHK 110600Z 02004MPS 350V050 5000 -DZ BR BKN004 OVC023 19/17 Q1015 BECMG BKN006 OVC026
ZJHK,2016-01-11 07:00,ZJHK 110700Z 02005MPS 360V060 8000 -DZ BKN005 OVC023 18/17 Q1014 NOSIG
ZJHK,2016-01-11 08:00,ZJHK 110800Z 02005MPS 360V060 9999 BKN006 OVC023 18/16 Q1014 NOSIG
ZJHK,2016-01-11 09:00,ZJHK 110900Z 03006MPS 360V060 9999 BKN008 OVC023 18/16 Q1015 NOSIG
ZJHK,2016-01-11 10:00,ZJHK 111000Z 03004MPS 9999 BKN008 OVC023 18/16 Q1016 NOSIG
ZJHK,2016-01-11 11:00,ZJHK 111100Z 03003MPS 010V070 6000 -DZ BKN008 OVC023 18/16 Q1016 NOSIG
ZJHK,2016-01-11 12:00,ZJHK 111200Z 04004MPS 9999 BKN008 OVC023 18/16 Q1017 NOSIG
ZJHK,2016-01-11 13:00,ZJHK 111300Z 04004MPS 9999 BKN008 OVC023 18/15 Q1017 NOSIG
ZJHK,2016-01-11 14:00,ZJHK 111400Z 04003MPS 9999 SCT013 OVC023 18/15 Q1017 NOSIG
ZJHK,2016-01-11 15:00,ZJHK 111500Z 03002MPS 9999 SCT013 OVC023 18/16 Q1017 NOSIG
ZJHK,2016-01-11 16:00,ZJHK 111600Z 03002MPS 360V070 9999 SCT013 OVC023 18/16 Q1017 NOSIG
ZJHK,2016-01-11 17:00,ZJHK 111700Z 03002MPS 9999 SCT013 OVC023 18/16 Q1017 NOSIG
ZJHK,2016-01-11 18:00,ZJHK 111800Z 03003MPS 9999 SCT013 OVC023 19/16 Q1017 NOSIG
ZJHK,2016-01-11 19:00,ZJHK 111900Z 04004MPS 8000 SCT010 OVC023 19/16 Q1016 NOSIG
ZJHK,2016-01-11 20:00,ZJHK 112000Z 04004MPS 8000 SCT010 OVC023 18/16 Q1016 NOSIG
ZJHK,2016-01-11 21:00,ZJHK 112100Z 03006MPS 6000 SCT007 OVC023 18/15 Q1017 NOSIG
ZJHK,2016-01-11 22:00,ZJHK 112200Z 04006MPS 8000 SCT008 OVC023 18/15 Q1017 NOSIG
ZJHK,2016-01-11 23:00,ZJHK 112300Z 04005MPS 9999 SCT012 OVC030 18/15 Q1018 BECMG BKN015
ZJHK,2016-01-12 00:00,ZJHK 120000Z 04005MPS 9999 SCT013 OVC030 18/15 Q1018 NOSIG
ZJHK,2016-01-12 01:00,ZJHK 120100Z 04005MPS 9999 SCT012 OVC030 18/15 Q1019 NOSIG
ZJHK,2016-01-12 02:00,ZJHK 120200Z 04004MPS 9999 SCT012 OVC030 19/15 Q1020 NOSIG
ZJHK,2016-01-12 03:00,ZJHK 120300Z 05004MPS 9999 SCT012 OVC030 19/15 Q1020 NOSIG
ZJHK,2016-01-12 04:00,ZJHK 120400Z 04004MPS 010V070 9999 SCT014 OVC030 19/15 Q1019 NOSIG
ZJHK,2016-01-12 05:00,ZJHK 120500Z 06005MPS 9999 SCT014 OVC030 19/15 Q1018 NOSIG
ZJHK,2016-01-12 06:00,ZJHK 120600Z 05006MPS 9999 SCT015 BKN030 20/15 Q1017 NOSIG
ZJHK,2016-01-12 07:00,ZJHK 120700Z 06006MPS 9999 SCT013 OVC030 19/15 Q1016 NOSIG
ZJHK,2016-01-12 08:00,ZJHK 120800Z 05006MPS 9999 SCT013 OVC030 19/15 Q1016 NOSIG
ZJHK,2016-01-12 09:00,ZJHK 120900Z 05005MPS 9999 BKN012 OVC030 19/15 Q1017 NOSIG
ZJHK,2016-01-12 10:00,ZJHK 121000Z 05005MPS 7000 BKN012 OVC023 18/15 Q1017 NOSIG
ZJHK,2016-01-12 11:00,ZJHK 121100Z 05005MPS 4000 -DZ BR BKN009 OVC023 18/15 Q1018 BECMG 2000 -DZ BR
ZJHK,2016-01-12 12:00,ZJHK 121200Z 05005MPS 4000 -DZ BR BKN009 OVC023 18/15 Q1018 BECMG BKN010 OVC023
ZJHK,2016-01-12 13:00,ZJHK 121300Z 05005MPS 6000 BKN011 OVC023 18/15 Q1018 NOSIG
ZJHK,2016-01-12 14:00,ZJHK 121400Z 06004MPS 6000 BKN011 OVC023 18/15 Q1019 NOSIG
ZJHK,2016-01-12 15:00,ZJHK 121500Z 06006MPS 6000 BKN011 OVC023 18/15 Q1018 NOSIG
ZJHK,2016-01-12 16:00,ZJHK 121600Z 05005MPS 6000 BKN011 OVC023 18/15 Q1018 NOSIG
ZJHK,2016-01-12 17:00,ZJHK 121700Z 05004MPS 7000 BKN013 OVC023 18/15 Q1018 NOSIG
ZJHK,2016-01-12 18:00,ZJHK 121800Z 05005MPS 7000 BKN013 OVC023 18/15 Q1018 NOSIG
ZJHK,2016-01-12 19:00,ZJHK 121900Z 05004MPS 6000 SCT013 OVC023 18/15 Q1018 NOSIG
ZJHK,2016-01-12 20:00,ZJHK 122000Z 06005MPS 7000 SCT013 BKN023 18/15 Q1017 NOSIG
ZJHK,2016-01-12 21:00,ZJHK 122100Z 04004MPS 7000 BKN012 OVC026 18/15 Q1017 NOSIG
ZJHK,2016-01-12 22:00,ZJHK 122200Z 04005MPS 010V070 7000 BKN012 OVC026 18/15 Q1017 NOSIG
ZJHK,2016-01-12 23:00,ZJHK 122300Z 06006MPS 6000 BKN012 OVC026 18/15 Q1018 NOSIG
ZJHK,2016-01-13 00:00,ZJHK 130000Z 05005MPS 6000 BKN013 OVC023 18/15 Q1019 NOSIG
ZJHK,2016-01-13 01:00,ZJHK 130100Z 06006MPS 8000 BKN010 OVC023 19/15 Q1019 NOSIG
ZJHK,2016-01-13 02:00,ZJHK 130200Z 06007MPS 8000 BKN012 OVC023 19/15 Q1020 NOSIG
ZJHK,2016-01-13 03:00,ZJHK 130300Z 05006MPS 8000 BKN012 OVC023 19/15 Q1020 NOSIG
ZJHK,2016-01-13 04:00,ZJHK 130400Z 06006MPS 7000 -RA BKN013 OVC023 18/16 Q1019 NOSIG
ZJHK,2016-01-13 05:00,ZJHK 130500Z 05006MPS 7000 BKN013 OVC023 19/15 Q1018 NOSIG
ZJHK,2016-01-13 06:00,ZJHK 130600Z 05006MPS 8000 BKN013 OVC023 19/15 Q1017 NOSIG
ZJHK,2016-01-13 07:00,ZJHK 130700Z 06006MPS 8000 BKN013 OVC023 19/15 Q1016 NOSIG
ZJHK,2016-01-13 08:00,ZJHK 130800Z 07006MPS 6000 -RA BKN013 OVC023 18/15 Q1016 NOSIG
ZJHK,2016-01-13 09:00,ZJHK 130900Z 04004MPS 3500 -RA BR BKN010 OVC023 18/16 Q1017 NOSIG
ZJHK,2016-01-13 10:00,ZJHK 131000Z 05004MPS 010V070 1800 -RA BR BKN007 OVC023 17/16 Q1017 BECMG 3000 BR BKN010 OVC023
ZJHK,2016-01-13 11:00,ZJHK 131100Z 07006MPS 3000 BR BKN007 OVC023 18/16 Q1017 NOSIG
ZJHK,2016-01-13 12:00,ZJHK 131200Z 07005MPS 3000 -RA BR BKN007 OVC023 18/16 Q1017 NOSIG
ZJHK,2016-01-13 13:00,ZJHK 131300Z 07004MPS 4000 -RA BR BKN007 OVC023 18/16 Q1018 NOSIG
ZJHK,2016-01-13 14:00,ZJHK 131400Z 07005MPS 3000 -RA BR BKN007 OVC023 17/16 Q1018 NOSIG
ZJHK,2016-01-13 15:00,ZJHK 131500Z 08005MPS 4000 -RA BR BKN006 OVC023 17/16 Q1018 NOSIG
ZJHK,2016-01-13 16:00,ZJHK 131600Z 07005MPS 7000 SCT006 OVC033 18/16 Q1018 NOSIG
ZJHK,2016-01-13 17:00,ZJHK 131700Z 07005MPS 8000 OVC033 17/15 Q1017 NOSIG
ZJHK,2016-01-13 18:00,ZJHK 131800Z 08002MPS 040V110 8000 OVC033 17/15 Q1017 NOSIG
ZJHK,2016-01-13 19:00,ZJHK 131900Z 07004MPS 8000 OVC033 17/15 Q1017 NOSIG
ZJHK,2016-01-13 20:00,ZJHK 132000Z 08005MPS 4000 -RA BR SCT008 OVC033 17/16 Q1016 NOSIG
ZJHK,2016-01-13 21:00,ZJHK 132100Z 07004MPS 6000 SCT008 OVC033 17/16 Q1016 NOSIG
ZJHK,2016-01-13 22:00,ZJHK 132200Z 07004MPS 7000 FEW008 OVC033 17/16 Q1017 NOSIG
ZJHK,2016-01-13 23:00,ZJHK 132300Z 07004MPS 7000 FEW008 OVC040 17/16 Q1017 NOSIG
ZJHK,2016-01-14 00:00,ZJHK 140000Z 06005MPS 8000 SCT010 OVC040 18/16 Q1018 NOSIG
ZJHK,2016-01-14 01:00,ZJHK 140100Z 08006MPS 9000 SCT026 BKN046 19/16 Q1018 NOSIG
ZJHK,2016-01-14 02:00,ZJHK 140200Z 09006MPS 9999 BKN026 20/16 Q1018 NOSIG
ZJHK,2016-01-14 03:00,ZJHK 140300Z 08006MPS 9999 FEW015 BKN040 20/16 Q1018 NOSIG
ZJHK,2016-01-14 04:00,ZJHK 140400Z 09005MPS 9999 SCT016 OVC033 21/16 Q1017 NOSIG
ZJHK,2016-01-14 05:00,ZJHK 140500Z 10004MPS 070V130 9999 BKN020 OVC040 21/16 Q1016 NOSIG
ZJHK,2016-01-14 06:00,ZJHK 140600Z 08004MPS 9999 BKN020 OVC033 21/16 Q1015 NOSIG
ZJHK,2016-01-14 07:00,ZJHK 140700Z 09003MPS 9999 BKN020 OVC033 21/16 Q1014 NOSIG
ZJHK,2016-01-14 08:00,ZJHK 140800Z 11004MPS 9999 BKN020 OVC033 21/16 Q1014 NOSIG
ZJHK,2016-01-14 09:00,ZJHK 140900Z 10003MPS 070V130 9999 BKN020 OVC033 21/17 Q1014 NOSIG
ZJHK,2016-01-14 10:00,ZJHK 141000Z 11003MPS 9999 BKN040 20/17 Q1014 NOSIG
ZJHK,2016-01-14 11:00,ZJHK 141100Z 12001MPS 9999 SCT040 19/17 Q1014 NOSIG
ZJHK,2016-01-14 12:00,ZJHK 141200Z 09002MPS 9999 SCT040 19/17 Q1015 NOSIG
ZJHK,2016-01-14 13:00,ZJHK 141300Z 10002MPS 9999 SCT023 BKN040 19/17 Q1015 NOSIG
ZJHK,2016-01-14 14:00,ZJHK 141400Z 09002MPS 8000 SCT026 BKN043 19/17 Q1016 NOSIG
ZJHK,2016-01-14 15:00,ZJHK 141500Z 11003MPS 8000 FEW043 19/17 Q1015 NOSIG
ZJHK,2016-01-14 16:00,ZJHK 141600Z 12003MPS CAVOK 19/17 Q1014 NOSIG
ZJHK,2016-01-14 17:00,ZJHK 141700Z 11003MPS 8000 NSC 19/17 Q1013 NOSIG
ZJHK,2016-01-14 18:00,ZJHK 141800Z 12001MPS 8000 SCT040 18/17 Q1013 NOSIG
ZJHK,2016-01-14 19:00,ZJHK 141900Z 11001MPS 7000 BKN040 18/17 Q1012 NOSIG
ZJHK,2016-01-14 20:00,ZJHK 142000Z 13002MPS 7000 BKN040 19/17 Q1011 NOSIG
ZJHK,2016-01-14 21:00,ZJHK 142100Z 12002MPS 7000 BKN040 19/17 Q1011 NOSIG
ZJHK,2016-01-14 22:00,ZJHK 142200Z 00000MPS 7000 BKN040 19/17 Q1011 NOSIG
ZJHK,2016-01-14 23:00,ZJHK 142300Z 11001MPS 7000 BKN046 19/17 Q1011 NOSIG
ZJHK,2016-01-15 00:00,ZJHK 150000Z 10001MPS 7000 BKN046 19/18 Q1012 NOSIG
ZJHK,2016-01-15 01:00,ZJHK 150100Z 08001MPS 7000 BKN046 20/18 Q1012 NOSIG
ZJHK,2016-01-15 02:00,ZJHK 150200Z 00000MPS 8000 BKN046 21/19 Q1013 NOSIG
ZJHK,2016-01-15 03:00,ZJHK 150300Z 16003MPS 130V200 9999 SCT010 24/20 Q1013 NOSIG
ZJHK,2016-01-15 04:00,ZJHK 150400Z 20002MPS 160V260 9999 SCT015 BKN046 25/20 Q1012 NOSIG
ZJHK,2016-01-15 05:00,ZJHK 150500Z 36004MPS 8000 SCT006 BKN020 BKN046 20/18 Q1012 BECMG 2800 BR BKN006 OVC030
ZJHK,2016-01-15 06:00,ZJHK 150600Z 36004MPS 320V040 7000 BKN006 OVC026 20/17 Q1011 NOSIG
ZJHK,2016-01-15 07:00,ZJHK 150700Z 02007MPS 8000 BKN006 OVC026 19/16 Q1010 BECMG 07004MPS
ZJHK,2016-01-15 08:00,ZJHK 150800Z 02006MPS 8000 BKN006 OVC026 18/16 Q1010 BECMG 09004MPS BKN010 OVC030
ZJHK,2016-01-15 09:00,ZJHK 150900Z 02005MPS 360V080 8000 BKN006 OVC026 18/15 Q1011 NOSIG
ZJHK,2016-01-15 10:00,ZJHK 151000Z 03005MPS 360V060 8000 BKN006 OVC026 18/16 Q1011 NOSIG
ZJHK,2016-01-15 11:00,ZJHK 151100Z 04005MPS 8000 BKN006 OVC026 18/16 Q1012 BECMG 2500 -RA BR BKN004 OVC026
ZJHK,2016-01-15 12:00,ZJHK 151200Z 04004MPS 4000 -RA BR BKN004 OVC026 18/16 Q1012 BECMG 2500 -RA BR
ZJHK,2016-01-15 13:00,ZJHK 151300Z 04004MPS 5000 -RA BR BKN004 OVC026 18/16 Q1012 NOSIG
ZJHK,2016-01-15 14:00,ZJHK 151400Z 05005MPS 2000 -SHRA BR BKN003 FEW026CB BKN026 18/17 Q1012 BECMG TL1540 3000 BR BKN005 OVC023
ZJHK,2016-01-15 15:00,ZJHK 151500Z 03005MPS 360V060 9999 -SHRA FEW010 FEW033CB BKN040 18/16 Q1013 RESHRA BECMG SHRA
ZJHK,2016-01-15 16:00,ZJHK 151600Z 02004MPS 8000 -SHRA SCT006 FEW033CB BKN046 18/16 Q1012 RESHRA BECMG BKN006 OVC030
ZJHK,2016-01-15 17:00,ZJHK 151700Z 05003MPS 8000 SCT004 OVC033 18/17 Q1012 NOSIG
ZJHK,2016-01-15 18:00,ZJHK 151800Z 03003MPS 360V060 8000 SCT004 OVC026 18/17 Q1012 NOSIG
ZJHK,2016-01-15 19:00,ZJHK 151900Z 03004MPS 010V070 8000 SCT004 OVC026 18/17 Q1011 NOSIG
ZJHK,2016-01-15 20:00,ZJHK 152000Z 05004MPS 8000 SCT004 OVC026 18/16 Q1011 NOSIG
ZJHK,2016-01-15 21:00,ZJHK 152100Z 05004MPS 6000 SCT004 OVC026 18/16 Q1011 NOSIG
ZJHK,2016-01-15 22:00,ZJHK 152200Z 06004MPS 6000 SCT004 OVC026 18/17 Q1011 NOSIG
ZJHK,2016-01-15 23:00,ZJHK 152300Z 03003MPS 6000 SCT003 OVC026 18/17 Q1011 NOSIG
ZJHK,2016-01-16 00:00,ZJHK 160000Z 05003MPS 2000 BR SCT003 OVC026 18/17 Q1012 NOSIG
ZJHK,2016-01-16 01:00,ZJHK 160100Z 08004MPS 3500 BR SCT003 OVC026 19/18 Q1012 NOSIG
ZJHK,2016-01-16 02:00,ZJHK 160200Z 08003MPS 060V120 6000 SCT004 OVC026 20/18 Q1013 NOSIG
ZJHK,2016-01-16 03:00,ZJHK 160300Z 09002MPS 8000 SCT007 OVC026 21/19 Q1013 NOSIG
ZJHK,2016-01-16 04:00,ZJHK 160400Z 05002MPS 010V080 8000 SCT007 OVC026 21/19 Q1012 NOSIG
ZJHK,2016-01-16 05:00,ZJHK 160500Z 03002MPS 6000 SCT007 OVC026 21/19 Q1011 NOSIG
ZJHK,2016-01-16 06:00,ZJHK 160600Z 33002MPS 3500 BR SCT004 OVC026 21/19 Q1010 NOSIG
ZJHK,2016-01-16 07:00,ZJHK 160700Z 01002MPS 5000 BR SCT004 OVC026 22/19 Q1009 NOSIG
ZJHK,2016-01-16 08:00,ZJHK 160800Z 34002MPS 280V050 7000 SCT010 OVC026 23/20 Q1008 NOSIG
ZJHK,2016-01-16 09:00,ZJHK 160900Z 01002MPS 320V060 6000 BKN009 OVC026 22/19 Q1009 NOSIG
ZJHK,2016-01-16 10:00,ZJHK 161000Z 03002MPS 4000 BR SCT009 SCT020 21/19 Q1009 BECMG 2800 BR
ZJHK,2016-01-16 11:00,ZJHK 161100Z 00000MPS 3500 BR BKN020 21/19 Q1009 BECMG 2800 BR
ZJHK,2016-01-16 12:00,ZJHK 161200Z 10001MPS 4000 BR SCT010 BKN020 22/20 Q1009 BECMG BKN010 BKN026
ZJHK,2016-01-16 13:00,ZJHK 161300Z 13001MPS 7000 BKN010 BKN026 22/20 Q1009 NOSIG
ZJHK,2016-01-16 14:00,ZJHK 161400Z 14002MPS 6000 FEW010 SCT026 21/20 Q1010 NOSIG
ZJHK,2016-01-16 15:00,ZJHK 161500Z 14001MPS 6000 FEW010 21/19 Q1010 NOSIG
ZJHK,2016-01-16 16:00,ZJHK 161600Z 15002MPS 5000 BR NSC 21/19 Q1009 NOSIG
ZJHK,2016-01-16 17:00,ZJHK 161700Z 19001MPS 5000 BR NSC 21/19 Q1009 NOSIG
ZJHK,2016-01-16 18:00,ZJHK 161800Z 24001MPS 4500 R09/0700D BR BCFG NSC 20/19 Q1009 BECMG 2000 BR
ZJHK,2016-01-16 19:00,ZJHK 161900Z 19002MPS 4000 R09/0800 BR BCFG NSC 20/18 Q1008 BECMG 2000 BR
ZJHK,2016-01-16 20:00,ZJHK 162000Z 28002MPS 0200 R09/0175V0325 FG BKN001 19/18 Q1008 NOSIG
ZJHK,2016-01-16 21:00,ZJHK 162100Z 33001MPS 0300 R09/0500N FG BKN001 20/18 Q1008 NOSIG
ZJHK,2016-01-16 22:00,ZJHK 162200Z 00000MPS 0200 R09/0200N FG BKN001 20/19 Q1009 BECMG 0500 FG
ZJHK,2016-01-16 23:00,ZJHK 162300Z 01001MPS 0200 R09/0500U FG BKN001 19/18 Q1009 BECMG TL0030 0600 FG BKN003
ZJHK,2016-01-17 00:00,ZJHK 170000Z 00000MPS 0200 R09/0400V0600U FG BKN001 19/18 Q1010 BECMG TL0100 0700 FG BKN003
ZJHK,2016-01-17 01:00,ZJHK 170100Z 36001MPS 0400 R09/P2000 FG BKN001 19/18 Q1011 BECMG TL0140 0800 FG BKN002
ZJHK,2016-01-17 02:00,ZJHK 170200Z 18001MPS 1600 -SHRA BR BKN002 FEW023CB BKN023 20/19 Q1011 RESHRA BECMG 3000 BR BKN005
ZJHK,2016-01-17 03:00,ZJHK 170300Z 15001MPS 3000 -SHRA BR BKN003 FEW023CB BKN023 20/19 Q1011 BECMG BKN010
ZJHK,2016-01-17 04:00,ZJHK 170400Z 36004MPS 4000 -SHRA BR BKN004 FEW023CB BKN023 20/19 Q1012 BECMG BKN005
ZJHK,2016-01-17 05:00,ZJHK 170500Z 36004MPS 330V040 9999 SCT008 BKN023 20/18 Q1011 NOSIG
ZJHK,2016-01-17 06:00,ZJHK 170600Z 01003MPS 350V060 9999 SCT013 BKN033 21/17 Q1010 NOSIG
ZJHK,2016-01-17 07:00,ZJHK 170700Z 02003MPS 9999 FEW013 BKN033 21/17 Q1010 NOSIG
ZJHK,2016-01-17 08:00,ZJHK 170800Z 01002MPS 320V070 9999 BKN046 21/17 Q1010 NOSIG
ZJHK,2016-01-17 09:00,ZJHK 170900Z 01002MPS 8000 BKN046 20/16 Q1010 NOSIG
ZJHK,2016-01-17 10:00,ZJHK 171000Z 01003MPS 340V040 8000 BKN046 20/15 Q1011 NOSIG
ZJHK,2016-01-17 11:00,ZJHK 171100Z 03002MPS 360V060 9999 BKN046 19/15 Q1012 NOSIG
ZJHK,2016-01-17 12:00,ZJHK 171200Z 35002MPS 9999 BKN046 20/16 Q1013 NOSIG
ZJHK,2016-01-17 13:00,ZJHK 171300Z 36003MPS 330V040 9999 BKN046 19/14 Q1014 NOSIG
ZJHK,2016-01-17 14:00,ZJHK 171400Z 36004MPS 320V030 9999 SCT026 BKN033 18/13 Q1014 NOSIG
ZJHK,2016-01-17 15:00,ZJHK 171500Z 01003MPS 330V050 9999 SCT026 BKN033 18/14 Q1014 NOSIG
ZJHK,2016-01-17 16:00,ZJHK 171600Z 36003MPS 330V040 9999 SCT013 BKN033 17/14 Q1014 NOSIG
ZJHK,2016-01-17 17:00,ZJHK 171700Z 36003MPS 9999 SCT013 BKN026 17/14 Q1014 NOSIG
ZJHK,2016-01-17 18:00,ZJHK 171800Z 04005MPS 9999 SCT013 BKN026 18/14 Q1014 NOSIG
ZJHK,2016-01-17 19:00,ZJHK 171900Z 03004MPS 9999 BKN026 17/13 Q1013 NOSIG
ZJHK,2016-01-17 20:00,ZJHK 172000Z 04005MPS 9999 BKN023 17/13 Q1013 NOSIG
ZJHK,2016-01-17 21:00,ZJHK 172100Z 04005MPS 9999 FEW020 BKN033 17/13 Q1013 NOSIG
ZJHK,2016-01-17 22:00,ZJHK 172200Z 05005MPS 9999 SCT020 BKN033 17/13 Q1014 NOSIG
ZJHK,2016-01-17 23:00,ZJHK 172300Z 05006MPS 010V070 9999 BKN023 17/13 Q1015 NOSIG
ZJHK,2016-01-18 00:00,ZJHK 180000Z 04005MPS 9999 BKN023 16/12 Q1016 NOSIG
ZJHK,2016-01-18 01:00,ZJHK 180100Z 04006MPS 9999 SCT023 OVC046 16/11 Q1017 NOSIG
ZJHK,2016-01-18 02:00,ZJHK 180200Z 04008MPS 9999 SCT026 OVC046 16/12 Q1017 NOSIG
ZJHK,2016-01-18 03:00,ZJHK 180300Z 05006MPS 9999 SCT026 BKN046 17/12 Q1017 NOSIG
ZJHK,2016-01-18 04:00,ZJHK 180400Z 06006MPS 9999 SCT026 BKN046 18/12 Q1017 NOSIG
ZJHK,2016-01-18 05:00,ZJHK 180500Z 06005MPS 040V100 9999 SCT026 BKN046 17/12 Q1016 NOSIG
ZJHK,2016-01-18 06:00,ZJHK 180600Z 05004MPS 020V090 9999 SCT026 BKN046 17/12 Q1015 NOSIG
ZJHK,2016-01-18 07:00,ZJHK 180700Z 05004MPS 9999 -RA SCT020 OVC033 16/13 Q1015 NOSIG
ZJHK,2016-01-18 08:00,ZJHK 180800Z 04005MPS 9999 SCT020 OVC033 17/13 Q1014 NOSIG
ZJHK,2016-01-18 09:00,ZJHK 180900Z 05005MPS 9999 SCT020 OVC040 17/12 Q1014 NOSIG
ZJHK,2016-01-18 10:00,ZJHK 181000Z 06005MPS 9999 SCT016 16/12 Q1015 NOSIG
ZJHK,2016-01-18 11:00,ZJHK 181100Z 06004MPS 9999 FEW016 16/12 Q1015 NOSIG
ZJHK,2016-01-18 12:00,ZJHK 181200Z 06004MPS 9999 FEW016 16/13 Q1016 NOSIG
ZJHK,2016-01-18 13:00,ZJHK 181300Z 04003MPS 9999 SCT014 16/13 Q1016 NOSIG
ZJHK,2016-01-18 14:00,ZJHK 181400Z 05004MPS 8000 BKN016 17/14 Q1017 NOSIG
ZJHK,2016-01-18 15:00,ZJHK 181500Z 05004MPS 8000 BKN016 17/14 Q1017 NOSIG
ZJHK,2016-01-18 16:00,ZJHK 181600Z 03003MPS 360V070 8000 BKN016 17/14 Q1017 NOSIG
ZJHK,2016-01-18 17:00,ZJHK 181700Z 03003MPS 360V060 8000 BKN016 17/14 Q1017 NOSIG
ZJHK,2016-01-18 18:00,ZJHK 181800Z 04004MPS 6000 -RA BKN013 17/15 Q1016 NOSIG
ZJHK,2016-01-18 19:00,ZJHK 181900Z 04004MPS 5000 -RA BR BKN010 17/15 Q1016 NOSIG
ZJHK,2016-01-18 20:00,ZJHK 182000Z 04004MPS 2500 -RA BR BKN006 OVC020 16/15 Q1015 NOSIG
ZJHK,2016-01-18 21:00,ZJHK 182100Z 04004MPS 4000 BR BKN009 OVC020 16/15 Q1015 NOSIG
ZJHK,2016-01-18 22:00,ZJHK 182200Z 03004MPS 3000 RA BR BKN009 OVC020 16/15 Q1016 BECMG -RA BKN011
ZJHK,2016-01-18 23:00,ZJHK 182300Z 03004MPS 3500 -RA BR BKN010 OVC020 17/15 Q1016 RERA NOSIG
ZJHK,2016-01-19 00:00,ZJHK 190000Z 03004MPS 3500 -RA BR BKN010 OVC020 17/15 Q1017 NOSIG
ZJHK,2016-01-19 01:00,ZJHK 190100Z 06005MPS 3000 -RA BR BKN010 OVC020 17/16 Q1018 NOSIG
ZJHK,2016-01-19 02:00,ZJHK 190200Z 04005MPS 3000 -RA BR BKN008 OVC020 17/15 Q1019 BECMG BKN010 OVC020
ZJHK,2016-01-19 03:00,ZJHK 190300Z 04005MPS 4000 -RA BR BKN009 OVC020 18/16 Q1019 BECMG TL0400 BKN010 OVC020
ZJHK,2016-01-19 04:00,ZJHK 190400Z 04005MPS 2500 R09/1400D -RA BR BKN007 OVC020 17/16 Q1018 BECMG 3000 BR
ZJHK,2016-01-19 05:00,ZJHK 190500Z 05006MPS 3000 -RA BR BKN007 OVC020 18/16 Q1017 NOSIG
ZJHK,2016-01-19 06:00,ZJHK 190600Z 06006MPS 3500 -RA BR BKN007 OVC020 18/16 Q1016 NOSIG
ZJHK,2016-01-19 07:00,ZJHK 190700Z 06006MPS 3000 -RA BR BKN007 OVC020 18/16 Q1015 NOSIG
ZJHK,2016-01-19 08:00,ZJHK 190800Z 05005MPS 2500 -RA BR BKN007 OVC020 18/16 Q1015 BECMG 3000 BR
ZJHK,2016-01-19 09:00,ZJHK 190900Z 06006MPS 2000 -RA BR BKN007 OVC020 18/16 Q1015 BECMG 3000 BR
ZJHK,2016-01-19 10:00,ZJHK 191000Z 06006MPS 020V080 3000 -RA BR BKN010 OVC020 18/16 Q1016 NOSIG
ZJHK,2016-01-19 11:00,ZJHK 191100Z 07005MPS 3000 -RA BR BKN010 OVC020 18/16 Q1016 NOSIG
ZJHK,2016-01-19 12:00,ZJHK 191200Z 08006MPS 3000 -RA BR BKN010 OVC020 18/16 Q1017 NOSIG
ZJHK,2016-01-19 13:00,ZJHK 191300Z 07005MPS 2000 R09/1300N -RA BR BKN006 OVC020 18/17 Q1018 NOSIG
ZJHK,2016-01-19 14:00,ZJHK 191400Z 07006MPS 1800 R09/0900N -RA BR BKN006 OVC020 18/17 Q1018 NOSIG
ZJHK,2016-01-19 15:00,ZJHK 191500Z 07005MPS 1800 R09/1300N -RA BR BKN006 OVC020 18/17 Q1017 BECMG 3000 BR
ZJHK,2016-01-19 16:00,ZJHK 191600Z 07005MPS 1800 R09/1400N -RA BR BKN006 OVC020 19/17 Q1017 BECMG 3000 BR
ZJHK,2016-01-19 17:00,ZJHK 191700Z 07005MPS 1800 R09/1400N -RA BR BKN006 OVC020 19/17 Q1017 NOSIG
ZJHK,2016-01-19 18:00,ZJHK 191800Z 06004MPS 2200 RA BR BKN006 OVC020 19/18 Q1016 NOSIG
ZJHK,2016-01-19 19:00,ZJHK 191900Z 06003MPS 2800 -RA BR BKN006 OVC020 19/18 Q1016 RERA NOSIG
ZJHK,2016-01-19 20:00,ZJHK 192000Z 09002MPS 3000 -RA BR BKN005 OVC020 19/18 Q1015 NOSIG
ZJHK,2016-01-19 21:00,ZJHK 192100Z 04003MPS 3000 -RA BR BKN005 OVC020 19/18 Q1015 NOSIG
ZJHK,2016-01-19 22:00,ZJHK 192200Z 04003MPS 3000 -RA BR BKN004 OVC020 19/18 Q1016 NOSIG
ZJHK,2016-01-19 23:00,ZJHK 192300Z 05003MPS 020V080 2000 -RA BR BKN003 OVC020 20/18 Q1016 BECMG TL0040 3000 BR BKN005 OVC030
ZJHK,2016-01-20 00:00,ZJHK 200000Z 05003MPS 010V070 1600 -RA BR BKN003 OVC020 20/18 Q1017 BECMG 3000 BR BKN005 OVC030
ZJHK,2016-01-20 01:00,ZJHK 200100Z 02002MPS 350V050 1000 R09/1300N -RA BR BKN003 OVC020 20/18 Q1018 BECMG AT0200 1600 -RA BR
ZJHK,2016-01-20 02:00,ZJHK 200200Z 05004MPS 2000 -RA BR BKN003 OVC020 20/19 Q1019 BECMG AT0300 3000 -RA BR BKN006 OVC020
ZJHK,2016-01-20 03:00,ZJHK 200300Z 06004MPS 3000 -RA BR BKN005 OVC020 20/18 Q1019 BECMG AT0400 2500 -RA BR
ZJHK,2016-01-20 04:00,ZJHK 200400Z 07004MPS 3000 -RA BR BKN005 OVC020 20/19 Q1018 NOSIG
ZJHK,2016-01-20 05:00,ZJHK 200500Z 07004MPS 4000 BR BKN005 OVC020 21/19 Q1016 NOSIG
ZJHK,2016-01-20 06:00,ZJHK 200600Z 07003MPS 1600 R09/1300N -RA BR BKN003 OVC020 21/19 Q1015 BECMG AT0700 1200 -RA BR
ZJHK,2016-01-20 07:00,ZJHK 200700Z 04003MPS 1200 R09/P2000 -RA BR BKN003 OVC020 21/19 Q1014 BECMG AT0800 1600 -RA BR
ZJHK,2016-01-20 08:00,ZJHK 200800Z 05002MPS 010V070 1600 R09/1400D -RA BR BKN005 OVC020 20/19 Q1014 BECMG AT0900 1200 -RA BR BKN003 OVC020
ZJHK,2016-01-20 09:00,ZJHK 200900Z 07004MPS 2000 -RA BR BKN003 OVC020 20/19 Q1014 NOSIG
ZJHK,2016-01-20 10:00,ZJHK 201000Z 05004MPS 5000 BR BKN004 OVC020 20/18 Q1014 BECMG BKN005 OVC020
ZJHK,2016-01-20 11:00,ZJHK 201100Z 06003MPS 1600 -RA BR BKN002 OVC020 19/18 Q1015 BECMG 3000 BR
ZJHK,2016-01-20 12:00,ZJHK 201200Z 08003MPS 3000 -RA BR BKN002 OVC020 20/18 Q1015 NOSIG
ZJHK,2016-01-20 13:00,ZJHK 201300Z 08003MPS 3000 BR BKN002 OVC020 19/18 Q1015 NOSIG
ZJHK,2016-01-20 14:00,ZJHK 201400Z 04002MPS 010V070 1600 BR BKN002 OVC020 20/18 Q1016 NOSIG
ZJHK,2016-01-20 15:00,ZJHK 201500Z 07003MPS 0600 R09/P2000 FG BKN001 OVC020 20/18 Q1016 NOSIG
ZJHK,2016-01-20 16:00,ZJHK 201600Z 05003MPS 010V080 0700 R09/P2000 FG BKN001 OVC020 19/18 Q1016 NOSIG
ZJHK,2016-01-20 17:00,ZJHK 201700Z 09003MPS 0700 R09/P2000 FG BKN001 OVC020 19/18 Q1015 NOSIG
ZJHK,2016-01-20 18:00,ZJHK 201800Z 08003MPS 0900 R09/P2000 FG BKN001 OVC020 19/18 Q1015 NOSIG
ZJHK,2016-01-20 19:00,ZJHK 201900Z 02002MPS 0700 R09/P2000 FG BKN001 OVC020 20/18 Q1014 NOSIG
ZJHK,2016-01-20 20:00,ZJHK 202000Z 35002MPS 0600 R09/0900D FG BKN001 OVC020 19/18 Q1014 NOSIG
ZJHK,2016-01-20 21:00,ZJHK 202100Z 04002MPS 0300 R09/0500 FG BKN001 OVC020 19/18 Q1014 BECMG 0600 FG
ZJHK,2016-01-20 22:00,ZJHK 202200Z 09002MPS 0300 R09/0400V0750N FG BKN001 OVC020 19/18 Q1014 BECMG 0600 FG
ZJHK,2016-01-20 23:00,ZJHK 202300Z 08002MPS 0300 R09/0650N FG BKN001 OVC020 19/18 Q1015 BECMG 0600 FG
ZJHK,2016-01-21 00:00,ZJHK 210000Z 36001MPS 0300 R09/0500 FG BKN001 OVC020 19/18 Q1016 BECMG 0800 FG BKN002 OVC020
ZJHK,2016-01-21 01:00,ZJHK 210100Z 36003MPS 0150 R09/0375N FG VV001 19/18 Q1017 BECMG 0800 FG BKN002 OVC020
ZJHK,2016-01-21 02:00,ZJHK 210200Z 03003MPS 0200 R09/0450N FG VV001 19/18 Q1017 BECMG 0800 FG BKN002 OVC020
ZJHK,2016-01-21 03:00,ZJHK 210300Z 05003MPS 1000 R09/P2000 BR VV003 20/19 Q1017 BECMG 3000 BR BKN010 OVC026
ZJHK,2016-01-21 04:00,ZJHK 210400Z 04003MPS 360V070 0800 R09/P2000 FG OVC003 20/19 Q1016 BECMG 1600 BR BKN010 OVC026
ZJHK,2016-01-21 05:00,ZJHK 210500Z 07003MPS 2000 BR OVC004 21/19 Q1015 BECMG 3000 BR BKN010 OVC026
ZJHK,2016-01-21 06:00,ZJHK 210600Z 06003MPS 030V110 5000 BR OVC004 21/20 Q1014 NOSIG
ZJHK,2016-01-21 07:00,ZJHK 210700Z 04003MPS 360V070 3000 BR OVC003 21/19 Q1013 BECMG 1200 BR
ZJHK,2016-01-21 08:00,ZJHK 210800Z 02003MPS 340V070 0700 R09/P2000 FG VV002 21/19 Q1013 BECMG AT0900 0500 FG
ZJHK,2016-01-21 09:00,ZJHK 210900Z 01004MPS 0200 R09/0900N FG VV001 20/18 Q1013 NOSIG
ZJHK,2016-01-21 10:00,ZJHK 211000Z 03005MPS 0200 R09/P2000 FG VV002 19/18 Q1013 NOSIG
ZJHK,2016-01-21 11:00,ZJHK 211100Z 01002MPS 0700 R09/P2000 FG VV002 19/18 Q1014 BECMG AT1130 0800 FG
ZJHK,2016-01-21 12:00,ZJHK 211200Z 02003MPS 0700 R09/P2000 FG VV002 19/18 Q1014 NOSIG
ZJHK,2016-01-21 13:00,ZJHK 211300Z 02003MPS 0550 R09/1300N DZ FG VV002 19/17 Q1015 NOSIG
ZJHK,2016-01-21 14:00,ZJHK 211400Z 03004MPS 0400 R09/1100N FG VV001 19/17 Q1015 BECMG AT1500 0600 FG
ZJHK,2016-01-21 15:00,ZJHK 211500Z 03004MPS 010V070 0400 R09/1400U FG VV002 19/17 Q1016 NOSIG
ZJHK,2016-01-21 16:00,ZJHK 211600Z 02004MPS 0700 R09/P2000 DZ FG VV002 18/17 Q1016 NOSIG
ZJHK,2016-01-21 17:00,ZJHK 211700Z 05004MPS 1200 R09/P2000 -DZ BR OVC003 18/17 Q1015 REDZ NOSIG
ZJHK,2016-01-21 18:00,ZJHK 211800Z 03004MPS 1100 R09/P2000 BR OVC002 18/17 Q1015 NOSIG
ZJHK,2016-01-21 19:00,ZJHK 211900Z 04005MPS 1500 BR OVC002 18/17 Q1015 NOSIG
ZJHK,2016-01-21 20:00,ZJHK 212000Z 06005MPS 1500 BR OVC002 18/16 Q1014 NOSIG
ZJHK,2016-01-21 21:00,ZJHK 212100Z 06004MPS 1500 BR OVC002 18/16 Q1015 NOSIG
ZJHK,2016-01-21 22:00,ZJHK 212200Z 05003MPS 1500 BR OVC002 18/17 Q1015 NOSIG
ZJHK,2016-01-21 23:00,ZJHK 212300Z 05003MPS 1500 BR OVC002 18/17 Q1015 NOSIG
ZJHK,2016-01-22 00:00,ZJHK 220000Z 06003MPS 1700 BR OVC003 18/17 Q1016 BECMG 3000 BR
ZJHK,2016-01-22 01:00,ZJHK 220100Z 05003MPS 2500 BR OVC003 19/17 Q1017 BECMG TL0200 3000 BR OVC005
ZJHK,2016-01-22 02:00,ZJHK 220200Z 06004MPS 3000 BR OVC004 19/18 Q1017 BECMG OVC005
ZJHK,2016-01-22 03:00,ZJHK 220300Z 04003MPS 360V070 4000 BR OVC004 19/18 Q1017 NOSIG
ZJHK,2016-01-22 04:00,ZJHK 220400Z 05004MPS 3000 -DZ BR OVC004 19/18 Q1017 NOSIG
ZJHK,2016-01-22 05:00,ZJHK 220500Z 03004MPS 350V050 1000 R09/P2000 -DZ BR OVC003 19/17 Q1016 BECMG TL0540 2000 -RA BR
ZJHK,2016-01-22 06:00,ZJHK 220600Z 01004MPS 340V040 1000 R09/P2000 -DZ BR OVC003 18/16 Q1016 BECMG RA
ZJHK,2016-01-22 07:00,ZJHK 220700Z 03004MPS 360V060 1600 -RA BR BKN003 OVC020 18/16 Q1015 BECMG 3000 -RA BR OVC005
ZJHK,2016-01-22 08:00,ZJHK 220800Z 02005MPS 3000 -RA BR BKN004 OVC020 17/16 Q1015 BECMG BKN005 OVC020
ZJHK,2016-01-22 09:00,ZJHK 220900Z 03005MPS 360V060 2500 -RA BR BKN004 OVC020 16/15 Q1016 NOSIG
ZJHK,2016-01-22 10:00,ZJHK 221000Z 04005MPS 4000 BR BKN004 OVC020 16/15 Q1016 NOSIG
ZJHK,2016-01-22 11:00,ZJHK 221100Z 04005MPS 3000 -RA BR BKN003 OVC020 16/15 Q1017 NOSIG
ZJHK,2016-01-22 12:00,ZJHK 221200Z 04005MPS 4500 BR BKN003 OVC020 16/14 Q1017 NOSIG
ZJHK,2016-01-22 13:00,ZJHK 221300Z 01005MPS 2500 -RA BR BKN003 OVC020 15/14 Q1019 NOSIG
ZJHK,2016-01-22 14:00,ZJHK 221400Z 01005MPS 2500 -RA BR BKN003 OVC020 15/13 Q1020 NOSIG
ZJHK,2016-01-22 15:00,ZJHK 221500Z 01004MPS 350V050 2500 -RA BR BKN003 OVC020 14/13 Q1021 NOSIG
ZJHK,2016-01-22 16:00,ZJHK 221600Z 04005MPS 3000 -RA BR BKN003 OVC020 15/13 Q1021 NOSIG
ZJHK,2016-01-22 17:00,ZJHK 221700Z 05005MPS 4000 -RA BR BKN004 OVC020 14/13 Q1021 NOSIG
ZJHK,2016-01-22 18:00,ZJHK 221800Z 04005MPS 5000 -RA BR BKN005 OVC020 14/12 Q1021 NOSIG
ZJHK,2016-01-22 19:00,ZJHK 221900Z 04005MPS 9000 -RA BKN008 BKN023 13/12 Q1021 NOSIG
ZJHK,2016-01-22 20:00,ZJHK 222000Z 04004MPS 350V060 5000 -RA BR BKN008 BKN023 13/12 Q1021 NOSIG
ZJHK,2016-01-22 21:00,ZJHK 222100Z 04005MPS 9000 -RA BKN008 BKN023 13/11 Q1022 NOSIG
ZJHK,2016-01-22 22:00,ZJHK 222200Z 36005MPS 6000 -RA BKN006 OVC023 12/10 Q1023 NOSIG
ZJHK,2016-01-22 23:00,ZJHK 222300Z 36005MPS 4000 -RA BR BKN006 OVC023 11/10 Q1024 NOSIG
ZJHK,2016-01-23 00:00,ZJHK 230000Z 35005MPS 310V030 4000 -RA BR BKN005 OVC023 10/09 Q1025 NOSIG
ZJHK,2016-01-23 01:00,ZJHK 230100Z 35005MPS 2000 -RA BR BKN004 OVC020 10/09 Q1026 BECMG 3000 -RA BR BKN005 OVC026
ZJHK,2016-01-23 02:00,ZJHK 230200Z 02005MPS 3000 -RA BR BKN004 OVC020 10/09 Q1027 BECMG BKN005 OVC023
ZJHK,2016-01-23 03:00,ZJHK 230300Z 04008MPS 9999 BKN013 OVC023 11/08 Q1027 BECMG BKN015 OVC030
ZJHK,2016-01-23 04:00,ZJHK 230400Z 04008MPS 6000 -RA BKN012 OVC023 10/08 Q1027 BECMG BKN015 OVC030
ZJHK,2016-01-23 05:00,ZJHK 230500Z 03008MPS 8000 -RA BKN012 OVC023 10/08 Q1027 NOSIG
ZJHK,2016-01-23 06:00,ZJHK 230600Z 03008MPS 9000 -RA BKN012 OVC023 10/07 Q1026 BECMG BKN015 OVC026
ZJHK,2016-01-23 07:00,ZJHK 230700Z 02009MPS 7000 -RA BKN013 OVC026 09/07 Q1026 NOSIG
ZJHK,2016-01-23 08:00,ZJHK 230800Z 03006MPS 360V060 7000 -RA BKN006 OVC023 09/07 Q1026 NOSIG
ZJHK,2016-01-23 09:00,ZJHK 230900Z 02006MPS 9999 BKN008 OVC026 10/06 Q1026 BECMG TL1040 BKN010 OVC026
ZJHK,2016-01-23 10:00,ZJHK 231000Z 03008MPS 360V060 9999 BKN016 OVC030 10/05 Q1026 NOSIG
ZJHK,2016-01-23 11:00,ZJHK 231100Z 36003MPS 330V050 9999 BKN016 OVC030 09/06 Q1027 NOSIG
ZJHK,2016-01-23 12:00,ZJHK 231200Z 35004MPS 300V040 9999 BKN016 OVC030 09/06 Q1028 NOSIG
ZJHK,2016-01-23 13:00,ZJHK 231300Z 35003MPS 330V030 5000 -RA SCT013 OVC030 08/06 Q1029 BECMG BKN008 OVC026
ZJHK,2016-01-23 14:00,ZJHK 231400Z 32004MPS 290V350 9999 SCT008 OVC026 08/06 Q1030 BECMG BKN008 OVC026
ZJHK,2016-01-23 15:00,ZJHK 231500Z 34004MPS 310V010 6000 -RA SCT008 OVC026 08/06 Q1030 NOSIG
ZJHK,2016-01-23 16:00,ZJHK 231600Z 04006MPS 9999 SCT016 OVC030 09/06 Q1029 NOSIG
ZJHK,2016-01-23 17:00,ZJHK 231700Z 02006MPS 6000 -RA SCT016 OVC030 09/06 Q1030 NOSIG
ZJHK,2016-01-23 18:00,ZJHK 231800Z 04005MPS 9999 SCT020 OVC030 09/06 Q1029 NOSIG
ZJHK,2016-01-23 19:00,ZJHK 231900Z 03006MPS 9999 SCT020 OVC030 09/05 Q1029 NOSIG
ZJHK,2016-01-23 20:00,ZJHK 232000Z 03006MPS 9999 -RA SCT020 OVC030 08/06 Q1029 NOSIG
ZJHK,2016-01-23 21:00,ZJHK 232100Z 03007MPS 360V060 9999 -RA SCT013 OVC030 08/05 Q1030 NOSIG
ZJHK,2016-01-23 22:00,ZJHK 232200Z 03006MPS 6000 -RA SCT013 OVC030 08/06 Q1031 NOSIG
ZJHK,2016-01-23 23:00,ZJHK 232300Z 04008MPS 6000 R09/1400N -RA SCT013 OVC030 08/05 Q1032 NOSIG
ZJHK,2016-01-24 00:00,ZJHK 240000Z 03008MPS 6000 -RA SCT013 OVC030 07/06 Q1033 NOSIG
ZJHK,2016-01-24 01:00,ZJHK 240100Z 04008MPS 3000 R09/1300N -RA BR SCT010 OVC030 07/06 Q1034 NOSIG
ZJHK,2016-01-24 02:00,ZJHK 240200Z 04009MPS 8000 R09/1100N -RA SCT013 OVC030 08/05 Q1035 NOSIG
ZJHK,2016-01-24 03:00,ZJHK 240300Z 04010G15MPS 9999 R09/1200N SCT020 OVC030 07/04 Q1035 NOSIG
ZJHK,2016-01-24 04:00,ZJHK 240400Z 05009MPS 6000 R09/1000N SCT020 OVC030 07/04 Q1035 NOSIG
ZJHK,2016-01-24 05:00,ZJHK 240500Z 04008G15MPS 360V070 3500 R09/0900N -RA BR SCT010 OVC030 07/05 Q1034 NOSIG
ZJHK,2016-01-24 06:00,ZJHK 240600Z 03008MPS 6000 R09/1100N -RA SCT010 OVC030 07/04 Q1034 NOSIG
ZJHK,2016-01-24 07:00,ZJHK 240700Z 02007MPS 6000 R09/1100N -RA SCT010 OVC030 07/04 Q1033 NOSIG
ZJHK,2016-01-24 08:00,ZJHK 240800Z 03008MPS 6000 R09/1000N SCT013 OVC030 07/03 Q1032 NOSIG
ZJHK,2016-01-24 09:00,ZJHK 240900Z 03008MPS 7000 R09/1400U BKN016 OVC033 07/02 Q1033 NOSIG
ZJHK,2016-01-24 10:00,ZJHK 241000Z 04006MPS 9999 BKN020 OVC033 07/03 Q1033 NOSIG
ZJHK,2016-01-24 11:00,ZJHK 241100Z 03007MPS 9999 BKN016 OVC033 07/03 Q1034 NOSIG
ZJHK,2016-01-24 12:00,ZJHK 241200Z 03006MPS 9999 BKN016 OVC030 07/03 Q1034 NOSIG
ZJHK,2016-01-24 13:00,ZJHK 241300Z 04007MPS 9999 BKN020 OVC033 07/03 Q1035 NOSIG
ZJHK,2016-01-24 14:00,ZJHK 241400Z 03005MPS 9999 BKN020 OVC033 07/03 Q1035 NOSIG
ZJHK,2016-01-24 15:00,ZJHK 241500Z 03006MPS 9999 BKN020 OVC033 07/03 Q1035 NOSIG
ZJHK,2016-01-24 16:00,ZJHK 241600Z 03005MPS 9999 -RA BKN020 OVC033 07/03 Q1035 NOSIG
ZJHK,2016-01-24 17:00,ZJHK 241700Z 02006MPS 9999 BKN020 OVC033 07/02 Q1034 NOSIG
ZJHK,2016-01-24 18:00,ZJHK 241800Z 03005MPS 9999 BKN023 OVC040 07/02 Q1033 NOSIG
ZJHK,2016-01-24 19:00,ZJHK 241900Z 03006MPS 9999 BKN023 OVC040 07/02 Q1033 NOSIG
ZJHK,2016-01-24 20:00,ZJHK 242000Z 04005MPS 9999 BKN023 OVC040 07/02 Q1032 NOSIG
ZJHK,2016-01-24 21:00,ZJHK 242100Z 03006MPS 9999 OVC033 07/01 Q1032 NOSIG
ZJHK,2016-01-24 22:00,ZJHK 242200Z 03005MPS 9999 OVC033 07/01 Q1032 NOSIG
ZJHK,2016-01-24 23:00,ZJHK 242300Z 05006MPS 9999 OVC033 08/01 Q1033 NOSIG
ZJHK,2016-01-25 00:00,ZJHK 250000Z 05005MPS 9999 SCT026 OVC040 08/01 Q1033 NOSIG
ZJHK,2016-01-25 01:00,ZJHK 250100Z 04005MPS 9999 SCT026 OVC040 08/02 Q1034 NOSIG
ZJHK,2016-01-25 02:00,ZJHK 250200Z 04005MPS 9999 SCT026 OVC040 08/02 Q1034 NOSIG
ZJHK,2016-01-25 03:00,ZJHK 250300Z 05005MPS 9999 SCT026 OVC040 09/02 Q1034 NOSIG
ZJHK,2016-01-25 04:00,ZJHK 250400Z 03006MPS 9999 SCT026 OVC040 09/03 Q1033 NOSIG
ZJHK,2016-01-25 05:00,ZJHK 250500Z 03006MPS 9999 SCT026 OVC040 10/03 Q1032 NOSIG
ZJHK,2016-01-25 06:00,ZJHK 250600Z 03005MPS 360V060 9999 SCT026 OVC040 10/03 Q1030 NOSIG
ZJHK,2016-01-25 07:00,ZJHK 250700Z 03005MPS 360V070 9999 SCT026 BKN040 10/03 Q1029 NOSIG
ZJHK,2016-01-25 08:00,ZJHK 250800Z 03005MPS 9999 BKN026 BKN040 10/03 Q1029 NOSIG
ZJHK,2016-01-25 09:00,ZJHK 250900Z 04005MPS 9999 BKN033 10/03 Q1028 NOSIG
ZJHK,2016-01-25 10:00,ZJHK 251000Z 04005MPS 9999 SCT033 09/03 Q1028 NOSIG
ZJHK,2016-01-25 11:00,ZJHK 251100Z 03003MPS 360V070 9999 SCT033 08/03 Q1029 NOSIG
ZJHK,2016-01-25 12:00,ZJHK 251200Z 04003MPS 360V070 9999 SCT033 08/03 Q1029 NOSIG
ZJHK,2016-01-25 13:00,ZJHK 251300Z 03003MPS 9999 FEW033 08/03 Q1029 NOSIG
ZJHK,2016-01-25 14:00,ZJHK 251400Z 03003MPS CAVOK 08/03 Q1030 NOSIG
ZJHK,2016-01-25 15:00,ZJHK 251500Z 04003MPS CAVOK 08/04 Q1029 NOSIG
ZJHK,2016-01-25 16:00,ZJHK 251600Z 02002MPS 360V060 CAVOK 09/04 Q1029 NOSIG
ZJHK,2016-01-25 17:00,ZJHK 251700Z 04003MPS CAVOK 09/04 Q1028 NOSIG
ZJHK,2016-01-25 18:00,ZJHK 251800Z 03003MPS 010V070 CAVOK 09/04 Q1028 NOSIG
ZJHK,2016-01-25 19:00,ZJHK 251900Z 03003MPS CAVOK 10/05 Q1027 NOSIG
ZJHK,2016-01-25 20:00,ZJHK 252000Z 03004MPS 9999 SCT040 11/05 Q1026 NOSIG
ZJHK,2016-01-25 21:00,ZJHK 252100Z 04004MPS CAVOK 11/04 Q1026 NOSIG
ZJHK,2016-01-25 22:00,ZJHK 252200Z 04005MPS 9999 BKN040 11/04 Q1026 NOSIG
ZJHK,2016-01-25 23:00,ZJHK 252300Z 05005MPS 9999 SCT040 10/03 Q1026 NOSIG
ZJHK,2016-01-26 00:00,ZJHK 260000Z 04004MPS CAVOK 10/03 Q1026 NOSIG
ZJHK,2016-01-26 01:00,ZJHK 260100Z 03005MPS 010V070 CAVOK 11/04 Q1027 NOSIG
ZJHK,2016-01-26 02:00,ZJHK 260200Z 04005MPS CAVOK 12/04 Q1028 NOSIG
ZJHK,2016-01-26 03:00,ZJHK 260300Z 04005MPS CAVOK 12/05 Q1028 NOSIG
ZJHK,2016-01-26 04:00,ZJHK 260400Z 04005MPS 010V070 CAVOK 13/06 Q1027 NOSIG
ZJHK,2016-01-26 05:00,ZJHK 260500Z 04006MPS 010V070 9999 SCT030 13/06 Q1026 NOSIG
ZJHK,2016-01-26 06:00,ZJHK 260600Z 02006MPS 350V050 9999 SCT030 13/06 Q1025 NOSIG
ZJHK,2016-01-26 07:00,ZJHK 260700Z 02005MPS 350V050 9999 SCT026 12/06 Q1024 NOSIG
ZJHK,2016-01-26 08:00,ZJHK 260800Z 02005MPS 360V060 9999 SCT026 11/05 Q1024 NOSIG
ZJHK,2016-01-26 09:00,ZJHK 260900Z 02004MPS 350V050 9999 SCT040 11/06 Q1023 NOSIG
ZJHK,2016-01-26 10:00,ZJHK 261000Z 03004MPS 9999 SCT026 11/07 Q1024 NOSIG
ZJHK,2016-01-26 11:00,ZJHK 261100Z 34003MPS 300V020 7000 -RA BKN010 OVC026 09/08 Q1024 NOSIG
ZJHK,2016-01-26 12:00,ZJHK 261200Z 34004MPS 310V010 7000 -RA BKN006 OVC026 08/07 Q1024 BECMG TL1330 BKN004
ZJHK,2016-01-26 13:00,ZJHK 261300Z 34004MPS 300V020 7000 -RA BKN004 OVC026 08/06 Q1025 BECMG TL1400 BKN005
ZJHK,2016-01-26 14:00,ZJHK 261400Z 34003MPS 320V020 9999 BKN008 OVC026 08/06 Q1025 NOSIG
ZJHK,2016-01-26 15:00,ZJHK 261500Z 32003MPS 300V360 9999 BKN008 OVC026 08/07 Q1025 NOSIG
ZJHK,2016-01-26 16:00,ZJHK 261600Z 31003MPS 280V350 8000 -RA BKN008 OVC026 09/07 Q1025 NOSIG
ZJHK,2016-01-26 17:00,ZJHK 261700Z 30003MPS 270V330 8000 -RA BKN008 OVC026 09/08 Q1025 NOSIG
ZJHK,2016-01-26 18:00,ZJHK 261800Z 30004MPS 280V340 9999 BKN008 OVC026 09/08 Q1025 NOSIG
ZJHK,2016-01-26 19:00,ZJHK 261900Z 32003MPS 290V360 9000 -RA BKN006 OVC026 09/08 Q1024 NOSIG
ZJHK,2016-01-26 20:00,ZJHK 262000Z 03001MPS 8000 BKN005 OVC026 09/08 Q1022 NOSIG
ZJHK,2016-01-26 21:00,ZJHK 262100Z 24002MPS 8000 BKN005 OVC026 09/08 Q1022 NOSIG
ZJHK,2016-01-26 22:00,ZJHK 262200Z 26002MPS 5000 BR BKN005 OVC026 09/08 Q1022 NOSIG
ZJHK,2016-01-26 23:00,ZJHK 262300Z 07003MPS 030V100 5000 BR BKN005 OVC026 10/09 Q1021 NOSIG
ZJHK,2016-01-27 00:00,ZJHK 270000Z 35001MPS 8000 BKN008 OVC026 12/10 Q1021 NOSIG
ZJHK,2016-01-27 01:00,ZJHK 270100Z 35001MPS 8000 BKN008 OVC026 13/11 Q1022 NOSIG
ZJHK,2016-01-27 02:00,ZJHK 270200Z 23002MPS 6000 BKN013 OVC026 12/11 Q1023 NOSIG
ZJHK,2016-01-27 03:00,ZJHK 270300Z 27003MPS 240V300 6000 BKN013 OVC026 13/11 Q1023 NOSIG
ZJHK,2016-01-27 04:00,ZJHK 270400Z 28003MPS 250V320 6000 -DZ BKN013 OVC026 14/12 Q1022 NOSIG
ZJHK,2016-01-27 05:00,ZJHK 270500Z 29002MPS 1600 -DZ BR BKN006 OVC026 14/12 Q1021 BECMG BKN004 OVC020
ZJHK,2016-01-27 06:00,ZJHK 270600Z 33001MPS 4000 -DZ BR BKN006 OVC026 14/13 Q1020 NOSIG
ZJHK,2016-01-27 07:00,ZJHK 270700Z 01003MPS 340V050 4000 -DZ BR BKN006 OVC026 14/13 Q1019 NOSIG
ZJHK,2016-01-27 08:00,ZJHK 270800Z 04004MPS 1600 -DZ BR BKN005 OVC026 14/13 Q1018 BECMG 3000 -DZ BR
ZJHK,2016-01-27 09:00,ZJHK 270900Z 01003MPS 340V040 1600 BR BKN005 OVC026 14/12 Q1019 NOSIG
ZJHK,2016-01-27 10:00,ZJHK 271000Z 03003MPS 350V060 1300 R09/P2000 BR BKN005 OVC026 13/12 Q1019 NOSIG
ZJHK,2016-01-27 11:00,ZJHK 271100Z 04003MPS 2000 -RA BR BKN004 OVC026 14/12 Q1019 NOSIG
ZJHK,2016-01-27 12:00,ZJHK 271200Z 03003MPS 360V060 3000 BR BKN004 OVC026 14/12 Q1019 NOSIG
ZJHK,2016-01-27 13:00,ZJHK 271300Z 04002MPS 4000 BR BKN005 OVC026 14/12 Q1020 BECMG 2000 BR
ZJHK,2016-01-27 14:00,ZJHK 271400Z 05003MPS 4000 BR BKN005 OVC026 14/13 Q1019 BECMG 2000 BR
ZJHK,2016-01-27 15:00,ZJHK 271500Z 02002MPS 360V070 0700 R09/P2000 -RA FG OVC003 14/13 Q1019 BECMG 1100 RA BR
ZJHK,2016-01-27 16:00,ZJHK 271600Z 36001MPS 0700 R09/P2000 -RA FG BKN002 OVC020 14/13 Q1019 RERA BECMG 1100 -RA BR
ZJHK,2016-01-27 17:00,ZJHK 271700Z 30002MPS 0800 R09/P2000 -RA FG BKN002 OVC020 15/14 Q1018 NOSIG
ZJHK,2016-01-27 18:00,ZJHK 271800Z 29002MPS 1600 BR BKN002 OVC020 15/14 Q1018 NOSIG
ZJHK,2016-01-27 19:00,ZJHK 271900Z 28003MPS 250V310 1600 -RA BR BKN001 OVC020 15/14 Q1017 NOSIG
ZJHK,2016-01-27 20:00,ZJHK 272000Z 32003MPS 280V350 3000 -RA BR BKN003 OVC020 14/13 Q1017 NOSIG
ZJHK,2016-01-27 21:00,ZJHK 272100Z 34004MPS 4000 -RA BR BKN004 OVC020 13/12 Q1017 NOSIG
ZJHK,2016-01-27 22:00,ZJHK 272200Z 33002MPS 6000 BKN004 OVC020 13/11 Q1017 NOSIG
ZJHK,2016-01-27 23:00,ZJHK 272300Z 33002MPS 9999 BKN005 OVC020 13/11 Q1017 NOSIG
ZJHK,2016-01-28 00:00,ZJHK 280000Z 32001MPS 8000 BKN008 OVC020 13/12 Q1017 NOSIG
ZJHK,2016-01-28 01:00,ZJHK 280100Z 01001MPS 9999 SCT012 OVC023 14/12 Q1017 NOSIG
ZJHK,2016-01-28 02:00,ZJHK 280200Z 04001MPS 9999 SCT012 OVC023 15/13 Q1018 NOSIG
ZJHK,2016-01-28 03:00,ZJHK 280300Z 04003MPS 9999 SCT012 OVC023 16/14 Q1017 NOSIG
ZJHK,2016-01-28 04:00,ZJHK 280400Z 08002MPS 030V120 9999 SCT012 OVC023 17/14 Q1017 NOSIG
ZJHK,2016-01-28 05:00,ZJHK 280500Z 09001MPS 9999 SCT008 OVC023 17/14 Q1016 NOSIG
ZJHK,2016-01-28 06:00,ZJHK 280600Z 11001MPS 8000 SCT008 OVC023 17/15 Q1014 NOSIG
ZJHK,2016-01-28 07:00,ZJHK 280700Z 04002MPS 8000 SCT008 OVC023 18/15 Q1013 BECMG AT0850 BKN008 OVC023
ZJHK,2016-01-28 08:00,ZJHK 280800Z 01002MPS 340V050 8000 SCT009 OVC030 19/16 Q1013 NOSIG
ZJHK,2016-01-28 09:00,ZJHK 280900Z 34003MPS 2000 -SHRA BR SCT009 FEW030CB BKN030 18/16 Q1014 BECMG TL1000 3000 BR
ZJHK,2016-01-28 10:00,ZJHK 281000Z 35002MPS 300V030 3000 BR SCT005 OVC030 17/15 Q1014 NOSIG
ZJHK,2016-01-28 11:00,ZJHK 281100Z 02002MPS 3000 BR SCT005 OVC030 17/15 Q1014 NOSIG
ZJHK,2016-01-28 12:00,ZJHK 281200Z 36003MPS 330V050 8000 SCT008 OVC030 16/14 Q1015 NOSIG
ZJHK,2016-01-28 13:00,ZJHK 281300Z 01003MPS 340V040 9999 SCT010 OVC030 16/14 Q1015 NOSIG
ZJHK,2016-01-28 14:00,ZJHK 281400Z 02002MPS 350V050 9999 SCT010 OVC030 16/14 Q1016 NOSIG
ZJHK,2016-01-28 15:00,ZJHK 281500Z 03003MPS 6000 SCT006 OVC030 16/14 Q1016 NOSIG
ZJHK,2016-01-28 16:00,ZJHK 281600Z 35002MPS 300V020 3000 BR SCT005 OVC030 16/14 Q1016 NOSIG
ZJHK,2016-01-28 17:00,ZJHK 281700Z 01002MPS 350V050 4000 BR SCT005 OVC030 16/14 Q1016 NOSIG
ZJHK,2016-01-28 18:00,ZJHK 281800Z 02002MPS 4000 BR SCT005 OVC030 16/14 Q1015 NOSIG
ZJHK,2016-01-28 19:00,ZJHK 281900Z 34002MPS 2600 BR SCT003 OVC030 16/15 Q1015 NOSIG
ZJHK,2016-01-28 20:00,ZJHK 282000Z 36003MPS 340V040 2000 BR BKN002 OVC020 16/15 Q1015 BECMG 1400 BR
ZJHK,2016-01-28 21:00,ZJHK 282100Z 34002MPS 310V020 2000 BR BKN002 OVC020 16/15 Q1015 NOSIG
ZJHK,2016-01-28 22:00,ZJHK 282200Z 01002MPS 1600 BR OVC002 16/15 Q1015 BECMG 0700 FG
ZJHK,2016-01-28 23:00,ZJHK 282300Z 36002MPS 1600 BR OVC002 16/15 Q1016 NOSIG
ZJHK,2016-01-29 00:00,ZJHK 290000Z 35002MPS 0600 R09/1200D FG OVC002 16/15 Q1017 BECMG 0900 FG
ZJHK,2016-01-29 01:00,ZJHK 290100Z 02002MPS 350V050 1600 BR OVC002 17/15 Q1017 BECMG 3000 BR
ZJHK,2016-01-29 02:00,ZJHK 290200Z 03003MPS 1600 -DZ BR OVC003 17/16 Q1018 BECMG 3000 BR
ZJHK,2016-01-29 03:00,ZJHK 290300Z 05002MPS 020V090 4000 BR OVC004 18/16 Q1018 BECMG BKN006 OVC026
ZJHK,2016-01-29 04:00,ZJHK 290400Z 05003MPS 9999 BKN006 OVC020 18/16 Q1017 NOSIG
ZJHK,2016-01-29 05:00,ZJHK 290500Z 01002MPS 300V070 9999 SCT007 OVC020 18/16 Q1017 NOSIG
ZJHK,2016-01-29 06:00,ZJHK 290600Z 36002MPS 320V040 9999 SCT007 OVC020 18/16 Q1016 NOSIG
ZJHK,2016-01-29 07:00,ZJHK 290700Z 02003MPS 350V050 6000 BKN005 OVC020 17/16 Q1015 NOSIG
ZJHK,2016-01-29 08:00,ZJHK 290800Z 02003MPS 340V050 4000 BR BKN005 OVC020 17/15 Q1015 NOSIG
ZJHK,2016-01-29 09:00,ZJHK 290900Z 36003MPS 270V010 2500 BR BKN004 OVC020 16/15 Q1015 NOSIG
ZJHK,2016-01-29 10:00,ZJHK 291000Z 01003MPS 350V060 0500 R09/P2000 FG BKN002 OVC020 16/15 Q1016 BECMG AT1100 0700 FG
ZJHK,2016-01-29 11:00,ZJHK 291100Z 03003MPS 360V070 0400 R09/P2000 FG BKN001 OVC020 16/15 Q1016 BECMG AT1250 0700 FG BKN002
ZJHK,2016-01-29 12:00,ZJHK 291200Z 01002MPS 0600 R09/P2000 FG BKN001 OVC020 16/15 Q1016 BECMG AT1350 0800 FG BKN002 OVC020
ZJHK,2016-01-29 13:00,ZJHK 291300Z 04002MPS 360V070 0600 R09/P2000 FG BKN001 OVC020 17/16 Q1017 BECMG AT1430 0800 FG BKN002 OVC020
ZJHK,2016-01-29 14:00,ZJHK 291400Z 04002MPS 010V070 0500 R09/1000N FG BKN001 OVC020 17/16 Q1017 NOSIG
ZJHK,2016-01-29 15:00,ZJHK 291500Z 04003MPS 010V070 0700 R09/P2000 FG BKN001 OVC020 17/16 Q1017 NOSIG
ZJHK,2016-01-29 16:00,ZJHK 291600Z 04003MPS 360V060 1800 BR BKN002 OVC020 18/16 Q1017 NOSIG
ZJHK,2016-01-29 17:00,ZJHK 291700Z 01002MPS 0700 R09/P2000 FG BKN002 OVC020 17/16 Q1017 NOSIG
ZJHK,2016-01-29 18:00,ZJHK 291800Z 36002MPS 1200 R09/P2000 BR BKN002 OVC020 17/16 Q1017 NOSIG
ZJHK,2016-01-29 19:00,ZJHK 291900Z 01004MPS 1200 R09/P2000 -RA BR BKN002 OVC020 16/15 Q1017 NOSIG
ZJHK,2016-01-29 20:00,ZJHK 292000Z 04004MPS 1500 -RA BR BKN002 OVC020 17/16 Q1017 NOSIG
ZJHK,2016-01-29 21:00,ZJHK 292100Z 04005MPS 1800 BR BKN003 OVC020 17/16 Q1017 NOSIG
ZJHK,2016-01-29 22:00,ZJHK 292200Z 05004MPS 2100 BR BKN006 OVC020 17/15 Q1017 NOSIG
ZJHK,2016-01-29 23:00,ZJHK 292300Z 05004MPS 5000 BR BKN013 OVC020 17/15 Q1018 NOSIG
ZJHK,2016-01-30 00:00,ZJHK 300000Z 04004MPS 6000 BKN013 OVC023 17/15 Q1018 NOSIG
ZJHK,2016-01-30 01:00,ZJHK 300100Z 04003MPS 8000 BKN012 OVC026 18/15 Q1019 NOSIG
ZJHK,2016-01-30 02:00,ZJHK 300200Z 03005MPS 4000 BR BKN007 OVC026 17/16 Q1019 NOSIG
ZJHK,2016-01-30 03:00,ZJHK 300300Z 01003MPS 340V040 3000 BR BKN007 OVC026 17/15 Q1020 NOSIG
ZJHK,2016-01-30 04:00,ZJHK 300400Z 05005MPS 020V080 2500 -DZ BR BKN006 OVC020 18/16 Q1019 BECMG 3000 BR
ZJHK,2016-01-30 05:00,ZJHK 300500Z 05005MPS 3000 BR BKN006 OVC020 18/16 Q1018 BECMG BKN010 OVC026
ZJHK,2016-01-30 06:00,ZJHK 300600Z 03004MPS 3500 BR BKN008 OVC023 18/15 Q1017 NOSIG
ZJHK,2016-01-30 07:00,ZJHK 300700Z 05005MPS 010V070 5000 BR BKN008 OVC023 18/16 Q1016 BECMG BKN010 OVC026
ZJHK,2016-01-30 08:00,ZJHK 300800Z 05004MPS 3500 -DZ BR BKN006 OVC023 18/15 Q1016 NOSIG
ZJHK,2016-01-30 09:00,ZJHK 300900Z 06005MPS 3500 -DZ BR BKN007 OVC023 18/16 Q1016 NOSIG
ZJHK,2016-01-30 10:00,ZJHK 301000Z 06004MPS 030V090 1100 R09/P2000 -DZ BR BKN005 OVC020 17/16 Q1017 NOSIG
ZJHK,2016-01-30 11:00,ZJHK 301100Z 07004MPS 1300 R09/P2000 -DZ BR BKN004 OVC020 17/16 Q1017 NOSIG
ZJHK,2016-01-30 12:00,ZJHK 301200Z 05004MPS 1600 BR BKN004 OVC020 17/16 Q1017 NOSIG
ZJHK,2016-01-30 13:00,ZJHK 301300Z 06004MPS 1600 BR BKN005 OVC020 18/16 Q1017 NOSIG
ZJHK,2016-01-30 14:00,ZJHK 301400Z 07004MPS 2000 BR BKN006 OVC020 18/16 Q1017 NOSIG
ZJHK,2016-01-30 15:00,ZJHK 301500Z 07005MPS 1800 -RA BR BKN006 OVC020 18/16 Q1017 NOSIG
ZJHK,2016-01-30 16:00,ZJHK 301600Z 09006MPS 2500 BR BKN006 OVC020 18/17 Q1017 NOSIG
ZJHK,2016-01-30 17:00,ZJHK 301700Z 07005MPS 3000 BR BKN006 OVC020 18/17 Q1017 NOSIG
ZJHK,2016-01-30 18:00,ZJHK 301800Z 08004MPS 4000 -RA BR SCT006 OVC020 19/17 Q1017 NOSIG
ZJHK,2016-01-30 19:00,ZJHK 301900Z 07004MPS 6000 SCT008 OVC020 19/17 Q1016 NOSIG
ZJHK,2016-01-30 20:00,ZJHK 302000Z 08003MPS 7000 SCT010 OVC020 19/17 Q1015 NOSIG
ZJHK,2016-01-30 21:00,ZJHK 302100Z 11003MPS 8000 SCT010 OVC020 19/18 Q1015 NOSIG
ZJHK,2016-01-30 22:00,ZJHK 302200Z 10003MPS 7000 SCT010 OVC020 19/18 Q1015 NOSIG
ZJHK,2016-01-30 23:00,ZJHK 302300Z 09003MPS 7000 BKN012 OVC020 20/18 Q1016 BECMG TL0020 BKN009
ZJHK,2016-01-31 00:00,ZJHK 310000Z 09003MPS 7000 BKN009 OVC020 20/18 Q1016 BECMG TL0130 BKN010
ZJHK,2016-01-31 01:00,ZJHK 310100Z 11003MPS 9000 -RA BKN007 OVC020 20/18 Q1017 NOSIG
ZJHK,2016-01-31 02:00,ZJHK 310200Z 10003MPS 070V130 8000 -RA BKN007 OVC020 20/18 Q1017 BECMG BKN010 OVC030
ZJHK,2016-01-31 03:00,ZJHK 310300Z 10004MPS 5000 -RA BR BKN007 OVC020 20/19 Q1017 NOSIG
ZJHK,2016-01-31 04:00,ZJHK 310400Z 11004MPS 8000 BKN010 BKN026 21/19 Q1016 BECMG BKN015 OVC030
ZJHK,2016-01-31 05:00,ZJHK 310500Z 12006MPS 9999 BKN015 OVC026 22/19 Q1015 BECMG BKN009 OVC030
ZJHK,2016-01-31 06:00,ZJHK 310600Z 12005MPS 9999 BKN009 BKN040 23/19 Q1014 NOSIG
ZJHK,2016-01-31 07:00,ZJHK 310700Z 12006MPS 090V150 9999 SCT010 BKN040 23/19 Q1013 NOSIG
ZJHK,2016-01-31 08:00,ZJHK 310800Z 12004MPS 9999 SCT020 OVC040 22/19 Q1013 NOSIG
ZJHK,2016-01-31 09:00,ZJHK 310900Z 12004MPS 9999 FEW013 SCT020 BKN040 23/19 Q1013 NOSIG
ZJHK,2016-01-31 10:00,ZJHK 311000Z 12004MPS 9999 FEW013 BKN040 22/19 Q1013 NOSIG
ZJHK,2016-01-31 11:00,ZJHK 311100Z 11004MPS 9999 FEW013 SCT030 21/19 Q1014 NOSIG
ZJHK,2016-01-31 12:00,ZJHK 311200Z 12004MPS 9999 FEW013 BKN030 21/19 Q1015 NOSIG
ZJHK,2016-01-31 13:00,ZJHK 311300Z 12003MPS 100V160 9999 FEW010 BKN040 21/19 Q1016 NOSIG
ZJHK,2016-01-31 14:00,ZJHK 311400Z 11003MPS 080V140 8000 FEW010 BKN040 21/19 Q1016 NOSIG
ZJHK,2016-01-31 15:00,ZJHK 311500Z 11003MPS 7000 BKN040 21/19 Q1016 NOSIG
ZJHK,2016-01-31 16:00,ZJHK 311600Z 06001MPS 6000 BKN005 BKN033 21/19 Q1016 NOSIG
ZJHK,2016-01-31 17:00,ZJHK 311700Z 36002MPS 3500 BR BKN004 OVC020 18/17 Q1017 BECMG 2500 -RA BR
ZJHK,2016-01-31 18:00,ZJHK 311800Z 36005MPS 3500 BR BKN003 FEW020TCU BKN020 17/16 Q1016 BECMG 2500 -RA BR
ZJHK,2016-01-31 19:00,ZJHK 311900Z 34006MPS 310V010 2500 -SHRA BR BKN004 FEW020TCU BKN020 16/15 Q1017 RESHRA BECMG 3000 -RA BR BKN005 OVC020
ZJHK,2016-01-31 20:00,ZJHK 312000Z 01008MPS 330V040 9999 -SHRA BKN005 FEW020TCU BKN020 15/14 Q1017 NOSIG
ZJHK,2016-01-31 21:00,ZJHK 312100Z 02008MPS 9999 -SHRA BKN007 FEW026TCU BKN026 15/13 Q1017 NOSIG
ZJHK,2016-01-31 22:00,ZJHK 312200Z 02006MPS 9999 BKN007 BKN026 14/13 Q1018 NOSIG
ZJHK,2016-01-31 23:00,ZJHK 312300Z 03006MPS 9999 BKN010 BKN026 15/13 Q1019 NOSIG
ZJHK,2016-02-01 00:00,ZJHK 010000Z 04006MPS 9999 -SHRA BKN010 FEW020TCU BKN020 14/12 Q1020 NOSIG
ZJHK,2016-02-01 01:00,ZJHK 010100Z 04005MPS 7000 BKN010 FEW020TCU BKN020 14/13 Q1021 NOSIG
ZJHK,2016-02-01 02:00,ZJHK 010200Z 04007MPS 8000 BKN010 OVC023 14/12 Q1022 NOSIG
ZJHK,2016-02-01 03:00,ZJHK 010300Z 03006MPS 5000 -RA BR BKN010 OVC023 14/13 Q1022 NOSIG
ZJHK,2016-02-01 04:00,ZJHK 010400Z 02005MPS 340V050 3500 -RA BR BKN006 OVC023 14/13 Q1022 NOSIG
ZJHK,2016-02-01 05:00,ZJHK 010500Z 02006MPS 3500 -RA BR BKN006 OVC023 14/12 Q1021 NOSIG
ZJHK,2016-02-01 06:00,ZJHK 010600Z 01005MPS 3100 -RA BR BKN006 OVC023 13/12 Q1020 NOSIG
ZJHK,2016-02-01 07:00,ZJHK 010700Z 02006MPS 350V050 3100 -RA BR BKN006 OVC023 13/12 Q1020 NOSIG
ZJHK,2016-02-01 08:00,ZJHK 010800Z 01006MPS 330V050 3100 -RA BR BKN006 OVC023 13/11 Q1019 NOSIG
ZJHK,2016-02-01 09:00,ZJHK 010900Z 35004G09MPS 310V030 2000 -RA BR BKN004 OVC023 12/11 Q1020 NOSIG
ZJHK,2016-02-01 10:00,ZJHK 011000Z 35004MPS 2000 -RA BR BKN004 OVC020 11/10 Q1021 NOSIG
ZJHK,2016-02-01 11:00,ZJHK 011100Z 36004MPS 330V030 2000 -RA BR BKN004 OVC020 12/10 Q1021 NOSIG
ZJHK,2016-02-01 12:00,ZJHK 011200Z 01005MPS 2100 -RA BR BKN004 OVC020 11/10 Q1022 NOSIG
ZJHK,2016-02-01 13:00,ZJHK 011300Z 36004MPS 340V040 2100 -RA BR BKN004 OVC020 12/10 Q1022 NOSIG
ZJHK,2016-02-01 14:00,ZJHK 011400Z 35004MPS 320V020 2100 -RA BR BKN004 OVC020 11/10 Q1023 NOSIG
ZJHK,2016-02-01 15:00,ZJHK 011500Z 36004MPS 330V030 2100 -RA BR BKN004 OVC020 11/10 Q1023 NOSIG
ZJHK,2016-02-01 16:00,ZJHK 011600Z 35004MPS 310V010 2100 -RA BR BKN004 OVC020 11/10 Q1023 NOSIG
ZJHK,2016-02-01 17:00,ZJHK 011700Z 35004MPS 2500 -RA BR BKN004 OVC020 10/09 Q1023 NOSIG
ZJHK,2016-02-01 18:00,ZJHK 011800Z 35004MPS 2500 -RA BR BKN004 OVC020 10/09 Q1023 NOSIG
ZJHK,2016-02-01 19:00,ZJHK 011900Z 35004MPS 320V020 2500 -RA BR BKN004 OVC020 10/09 Q1022 NOSIG
ZJHK,2016-02-01 20:00,ZJHK 012000Z 35004MPS 2500 -RA BR BKN004 OVC020 10/09 Q1022 NOSIG
ZJHK,2016-02-01 21:00,ZJHK 012100Z 34004MPS 2500 -RA BR BKN004 OVC020 10/09 Q1023 NOSIG
ZJHK,2016-02-01 22:00,ZJHK 012200Z 33004MPS 2500 -RA BR BKN004 OVC020 09/08 Q1023 BECMG 3000 -RA BR BKN005 OVC020
ZJHK,2016-02-01 23:00,ZJHK 012300Z 34004MPS 310V020 3000 -RA BR BKN004 OVC020 09/08 Q1024 BECMG BKN005 OVC023
ZJHK,2016-02-02 00:00,ZJHK 020000Z 34005MPS 6000 -RA BKN005 OVC020 09/08 Q1025 NOSIG
ZJHK,2016-02-02 01:00,ZJHK 020100Z 35004MPS 7000 -RA BKN005 OVC020 09/08 Q1025 NOSIG
ZJHK,2016-02-02 02:00,ZJHK 020200Z 35004MPS 320V030 9000 -RA BKN006 OVC020 09/08 Q1026 NOSIG
ZJHK,2016-02-02 03:00,ZJHK 020300Z 35003MPS 320V030 9999 BKN008 OVC020 10/08 Q1026 NOSIG
ZJHK,2016-02-02 04:00,ZJHK 020400Z 36005MPS 340V040 9999 BKN008 OVC020 10/08 Q1025 NOSIG
ZJHK,2016-02-02 05:00,ZJHK 020500Z 35004MPS 9999 BKN010 OVC020 10/08 Q1024 NOSIG
ZJHK,2016-02-02 06:00,ZJHK 020600Z 34004MPS 320V030 9999 BKN010 OVC020 11/09 Q1023 NOSIG
ZJHK,2016-02-02 07:00,ZJHK 020700Z 34003MPS 310V020 9999 BKN010 OVC020 11/09 Q1022 NOSIG
ZJHK,2016-02-02 08:00,ZJHK 020800Z 35004MPS 320V030 6000 -RA BKN008 OVC020 10/08 Q1022 NOSIG
ZJHK,2016-02-02 09:00,ZJHK 020900Z 35003MPS 310V020 5000 -RA BR BKN008 OVC020 10/08 Q1022 NOSIG
ZJHK,2016-02-02 10:00,ZJHK 021000Z 34003MPS 4000 BR BKN008 OVC020 10/08 Q1022 NOSIG
ZJHK,2016-02-02 11:00,ZJHK 021100Z 36003MPS 330V060 6000 BKN008 OVC020 11/08 Q1022 NOSIG
ZJHK,2016-02-02 12:00,ZJHK 021200Z 01003MPS 340V050 6000 BKN008 OVC020 11/09 Q1023 NOSIG
ZJHK,2016-02-02 13:00,ZJHK 021300Z 02004MPS 350V060 8000 BKN010 OVC023 11/09 Q1023 NOSIG
ZJHK,2016-02-02 14:00,ZJHK 021400Z 02003MPS 360V060 8000 BKN010 OVC023 11/09 Q1023 NOSIG
ZJHK,2016-02-02 15:00,ZJHK 021500Z 36003MPS 330V060 8000 BKN010 OVC023 11/09 Q1024 NOSIG
ZJHK,2016-02-02 16:00,ZJHK 021600Z 36002MPS 320V040 7000 BKN010 OVC023 12/09 Q1023 NOSIG
ZJHK,2016-02-02 17:00,ZJHK 021700Z 03003MPS 360V080 8000 BKN010 OVC023 12/09 Q1023 NOSIG
ZJHK,2016-02-02 18:00,ZJHK 021800Z 03003MPS 8000 BKN010 OVC023 12/09 Q1022 NOSIG
ZJHK,2016-02-02 19:00,ZJHK 021900Z 01003MPS 2500 -RA BR BKN010 OVC023 11/10 Q1022 NOSIG
ZJHK,2016-02-02 20:00,ZJHK 022000Z 01003MPS 2800 BR BKN006 OVC020 11/10 Q1022 NOSIG
ZJHK,2016-02-02 21:00,ZJHK 022100Z 02003MPS 2800 -DZ BR BKN006 OVC020 11/10 Q1022 NOSIG
ZJHK,2016-02-02 22:00,ZJHK 022200Z 02003MPS 4000 -DZ BR BKN007 OVC020 11/10 Q1022 NOSIG
ZJHK,2016-02-02 23:00,ZJHK 022300Z 03005MPS 4000 -DZ BR BKN007 OVC020 12/10 Q1022 NOSIG
ZJHK,2016-02-03 00:00,ZJHK 030000Z 04005MPS 6000 BKN012 OVC023 12/10 Q1023 NOSIG
ZJHK,2016-02-03 01:00,ZJHK 030100Z 04005MPS 8000 BKN012 OVC023 12/10 Q1023 NOSIG
ZJHK,2016-02-03 02:00,ZJHK 030200Z 04005MPS 9999 BKN012 OVC023 13/10 Q1024 NOSIG
ZJHK,2016-02-03 03:00,ZJHK 030300Z 05004MPS 010V070 9999 BKN013 OVC023 14/11 Q1023 NOSIG
ZJHK,2016-02-03 04:00,ZJHK 030400Z 04004MPS 010V070 9999 BKN013 OVC023 15/11 Q1023 NOSIG
ZJHK,2016-02-03 05:00,ZJHK 030500Z 05004MPS 010V070 9999 BKN013 OVC023 15/11 Q1022 NOSIG
ZJHK,2016-02-03 06:00,ZJHK 030600Z 03004MPS 010V070 7000 BKN013 OVC023 15/11 Q1021 NOSIG
ZJHK,2016-02-03 07:00,ZJHK 030700Z 03004MPS 6000 BKN013 OVC023 14/11 Q1020 NOSIG
ZJHK,2016-02-03 08:00,ZJHK 030800Z 03005MPS 5000 BR BKN010 OVC023 14/12 Q1019 NOSIG
ZJHK,2016-02-03 09:00,ZJHK 030900Z 05005MPS 020V080 5000 BR BKN008 OVC023 14/12 Q1019 NOSIG
ZJHK,2016-02-03 10:00,ZJHK 031000Z 04004MPS 360V060 4000 BR BKN008 OVC023 14/12 Q1019 NOSIG
ZJHK,2016-02-03 11:00,ZJHK 031100Z 03002MPS 360V090 4000 BR BKN008 OVC023 14/12 Q1020 NOSIG
ZJHK,2016-02-03 12:00,ZJHK 031200Z 03003MPS 010V070 5000 BR BKN009 OVC023 15/12 Q1020 BECMG TL1320 BKN010
ZJHK,2016-02-03 13:00,ZJHK 031300Z 06004MPS 5000 BR BKN009 OVC023 15/13 Q1021 NOSIG
ZJHK,2016-02-03 14:00,ZJHK 031400Z 06004MPS 6000 BKN011 OVC026 15/13 Q1021 NOSIG
ZJHK,2016-02-03 15:00,ZJHK 031500Z 05003MPS 6000 BKN011 OVC026 15/13 Q1021 NOSIG
ZJHK,2016-02-03 16:00,ZJHK 031600Z 05003MPS 6000 BKN011 OVC026 15/13 Q1020 NOSIG
ZJHK,2016-02-03 17:00,ZJHK 031700Z 03003MPS 6000 BKN011 OVC026 15/13 Q1020 NOSIG
ZJHK,2016-02-03 18:00,ZJHK 031800Z 02002MPS 340V090 6000 BKN011 OVC026 15/13 Q1020 NOSIG
ZJHK,2016-02-03 19:00,ZJHK 031900Z 02003MPS 6000 BKN011 OVC026 16/14 Q1020 NOSIG
ZJHK,2016-02-03 20:00,ZJHK 032000Z 02004MPS 340V040 6000 BKN007 OVC026 16/13 Q1020 NOSIG
ZJHK,2016-02-03 21:00,ZJHK 032100Z 02005MPS 6000 BKN007 OVC026 15/13 Q1020 NOSIG
ZJHK,2016-02-03 22:00,ZJHK 032200Z 03003MPS 6000 BKN007 OVC026 15/13 Q1021 NOSIG
ZJHK,2016-02-03 23:00,ZJHK 032300Z 04004MPS 3000 BR FEW011 OVC033 15/13 Q1021 NOSIG
ZJHK,2016-02-04 00:00,ZJHK 040000Z 05004MPS 6000 BKN010 BKN023 16/13 Q1021 NOSIG
ZJHK,2016-02-04 01:00,ZJHK 040100Z 03004MPS 010V080 6000 BKN010 OVC023 16/14 Q1022 NOSIG
ZJHK,2016-02-04 02:00,ZJHK 040200Z 03004MPS 360V070 6000 BKN010 OVC023 17/14 Q1023 NOSIG
ZJHK,2016-02-04 03:00,ZJHK 040300Z 01004MPS 6000 BKN010 OVC023 17/14 Q1022 NOSIG
ZJHK,2016-02-04 04:00,ZJHK 040400Z 02005MPS 6000 BKN010 OVC023 17/14 Q1022 NOSIG
ZJHK,2016-02-04 05:00,ZJHK 040500Z 01005MPS 6000 BKN010 OVC023 17/14 Q1021 NOSIG
ZJHK,2016-02-04 06:00,ZJHK 040600Z 02005MPS 350V060 4000 BR BKN010 OVC023 16/13 Q1019 NOSIG
ZJHK,2016-02-04 07:00,ZJHK 040700Z 02006MPS 6000 BKN013 BKN023 16/13 Q1019 NOSIG
ZJHK,2016-02-04 08:00,ZJHK 040800Z 02005MPS 6000 BKN013 BKN023 17/13 Q1018 BECMG BKN015 BKN030
ZJHK,2016-02-04 09:00,ZJHK 040900Z 02005MPS 350V050 5000 BR BKN013 BKN023 16/12 Q1018 BECMG BKN015 BKN030
ZJHK,2016-02-04 10:00,ZJHK 041000Z 01005MPS 340V040 5000 BR BKN011 BKN023 15/12 Q1019 NOSIG
ZJHK,2016-02-04 11:00,ZJHK 041100Z 02004MPS 350V050 5000 BR BKN012 BKN023 14/11 Q1019 NOSIG
ZJHK,2016-02-04 12:00,ZJHK 041200Z 01004MPS 340V050 5000 BR BKN012 BKN023 15/12 Q1019 NOSIG
ZJHK,2016-02-04 13:00,ZJHK 041300Z 01003MPS 340V040 5000 BR BKN013 BKN023 15/12 Q1020 BECMG BKN015 BKN030
ZJHK,2016-02-04 14:00,ZJHK 041400Z 01004MPS 340V050 6000 BKN016 BKN026 15/12 Q1021 NOSIG
ZJHK,2016-02-04 15:00,ZJHK 041500Z 36004MPS 6000 BKN020 BKN040 15/11 Q1021 NOSIG
ZJHK,2016-02-04 16:00,ZJHK 041600Z 36003MPS 310V050 9999 BKN020 BKN040 14/11 Q1021 NOSIG
ZJHK,2016-02-04 17:00,ZJHK 041700Z 02004MPS 340V050 9999 BKN026 BKN040 14/10 Q1021 NOSIG
ZJHK,2016-02-04 18:00,ZJHK 041800Z 01004MPS 9999 BKN026 BKN040 14/10 Q1022 NOSIG
ZJHK,2016-02-04 19:00,ZJHK 041900Z 36002MPS 9999 SCT013 BKN040 13/10 Q1021 NOSIG
ZJHK,2016-02-04 20:00,ZJHK 042000Z 35002MPS 9999 BKN010 BKN033 13/10 Q1021 NOSIG
ZJHK,2016-02-04 21:00,ZJHK 042100Z 34002MPS 8000 BKN010 BKN033 13/11 Q1021 NOSIG
ZJHK,2016-02-04 22:00,ZJHK 042200Z 36002MPS 8000 BKN010 BKN033 14/11 Q1021 BECMG BKN008 BKN033
ZJHK,2016-02-04 23:00,ZJHK 042300Z 34003MPS 320V020 9999 BKN010 BKN026 13/11 Q1021 BECMG BKN008 BKN033
ZJHK,2016-02-05 00:00,ZJHK 050000Z 34003MPS 320V030 9999 BKN009 BKN033 13/10 Q1022 NOSIG
ZJHK,2016-02-05 01:00,ZJHK 050100Z 35003MPS 290V040 9999 BKN013 BKN033 13/10 Q1023 BECMG AT0200 BKN016 BKN033
ZJHK,2016-02-05 02:00,ZJHK 050200Z 36004MPS 330V040 9999 SCT015 OVC033 14/11 Q1023 NOSIG
ZJHK,2016-02-05 03:00,ZJHK 050300Z 01004MPS 340V050 9999 SCT015 OVC033 15/11 Q1023 NOSIG
ZJHK,2016-02-05 04:00,ZJHK 050400Z 35004MPS 320V040 9999 BKN015 OVC030 14/10 Q1022 NOSIG
ZJHK,2016-02-05 05:00,ZJHK 050500Z 36005MPS 330V030 9999 BKN015 OVC030 15/10 Q1021 NOSIG
ZJHK,2016-02-05 06:00,ZJHK 050600Z 01004MPS 340V040 9999 BKN015 OVC030 15/10 Q1020 NOSIG
ZJHK,2016-02-05 07:00,ZJHK 050700Z 02004MPS 340V050 9999 BKN016 OVC030 15/10 Q1019 NOSIG
ZJHK,2016-02-05 08:00,ZJHK 050800Z 01003MPS 340V050 9999 SCT020 OVC033 15/10 Q1018 NOSIG
ZJHK,2016-02-05 09:00,ZJHK 050900Z 01004MPS 350V060 9999 SCT020 OVC033 14/10 Q1019 NOSIG
ZJHK,2016-02-05 10:00,ZJHK 051000Z 03003MPS 9999 BKN046 14/10 Q1019 NOSIG
ZJHK,2016-02-05 11:00,ZJHK 051100Z 02002MPS 9999 BKN046 14/10 Q1019 NOSIG
ZJHK,2016-02-05 12:00,ZJHK 051200Z 03002MPS CAVOK 14/10 Q1020 NOSIG
ZJHK,2016-02-05 13:00,ZJHK 051300Z 35001MPS CAVOK 14/10 Q1021 NOSIG
ZJHK,2016-02-05 14:00,ZJHK 051400Z 33002MPS CAVOK 15/10 Q1022 NOSIG
ZJHK,2016-02-05 15:00,ZJHK 051500Z VRB03MPS CAVOK 14/08 Q1023 NOSIG
ZJHK,2016-02-05 16:00,ZJHK 051600Z 34002MPS 310V050 CAVOK 14/09 Q1023 NOSIG
ZJHK,2016-02-05 17:00,ZJHK 051700Z 35005MPS 330V030 CAVOK 14/08 Q1023 NOSIG
ZJHK,2016-02-05 18:00,ZJHK 051800Z 02006MPS CAVOK 14/08 Q1023 NOSIG
ZJHK,2016-02-05 19:00,ZJHK 051900Z 04007MPS CAVOK 14/06 Q1023 NOSIG
ZJHK,2016-02-05 20:00,ZJHK 052000Z 36005MPS 9999 SCT026 OVC040 14/08 Q1023 NOSIG
ZJHK,2016-02-05 21:00,ZJHK 052100Z 03006MPS 9999 OVC033 14/06 Q1023 NOSIG
ZJHK,2016-02-05 22:00,ZJHK 052200Z 02006MPS 9999 OVC040 13/05 Q1024 NOSIG
ZJHK,2016-02-05 23:00,ZJHK 052300Z 03006MPS 9999 BKN046 12/04 Q1024 NOSIG
ZJHK,2016-02-06 00:00,ZJHK 060000Z 02005MPS 9999 SCT046 13/04 Q1025 NOSIG
ZJHK,2016-02-06 01:00,ZJHK 060100Z 02008MPS 9999 SCT046 14/03 Q1026 NOSIG
ZJHK,2016-02-06 02:00,ZJHK 060200Z 02008MPS 350V050 CAVOK 15/03 Q1027 NOSIG
ZJHK,2016-02-06 03:00,ZJHK 060300Z 03007MPS 360V060 CAVOK 15/03 Q1027 NOSIG
ZJHK,2016-02-06 04:00,ZJHK 060400Z 02008MPS 350V060 CAVOK 16/03 Q1026 NOSIG
ZJHK,2016-02-06 05:00,ZJHK 060500Z 02008MPS 350V050 CAVOK 15/02 Q1025 NOSIG
ZJHK,2016-02-06 06:00,ZJHK 060600Z 02008MPS 350V060 CAVOK 16/02 Q1024 NOSIG
ZJHK,2016-02-06 07:00,ZJHK 060700Z 02009MPS 350V050 CAVOK 15/01 Q1024 NOSIG
ZJHK,2016-02-06 08:00,ZJHK 060800Z 03009MPS CAVOK 16/M01 Q1024 NOSIG
ZJHK,2016-02-06 09:00,ZJHK 060900Z 01005MPS 350V060 CAVOK 15/03 Q1024 NOSIG
ZJHK,2016-02-06 10:00,ZJHK 061000Z 02004MPS 320V050 CAVOK 14/01 Q1024 NOSIG
ZJHK,2016-02-06 11:00,ZJHK 061100Z 02003MPS 340V050 CAVOK 13/02 Q1025 NOSIG
ZJHK,2016-02-06 12:00,ZJHK 061200Z 34002MPS 300V030 CAVOK 13/03 Q1026 NOSIG
ZJHK,2016-02-06 13:00,ZJHK 061300Z 02002MPS 360V060 CAVOK 13/03 Q1026 NOSIG
ZJHK,2016-02-06 14:00,ZJHK 061400Z 36001MPS CAVOK 12/04 Q1027 NOSIG
ZJHK,2016-02-06 15:00,ZJHK 061500Z 32002MPS 280V010 CAVOK 12/05 Q1027 NOSIG
ZJHK,2016-02-06 16:00,ZJHK 061600Z 31002MPS 270V010 CAVOK 12/06 Q1027 NOSIG
ZJHK,2016-02-06 17:00,ZJHK 061700Z 33003MPS 280V360 CAVOK 12/06 Q1027 NOSIG
ZJHK,2016-02-06 18:00,ZJHK 061800Z 33003MPS 300V360 CAVOK 11/05 Q1026 NOSIG
ZJHK,2016-02-06 19:00,ZJHK 061900Z 03006MPS CAVOK 12/01 Q1026 NOSIG
ZJHK,2016-02-06 20:00,ZJHK 062000Z 04005MPS CAVOK 12/01 Q1025 NOSIG
ZJHK,2016-02-06 21:00,ZJHK 062100Z 03004MPS CAVOK 11/01 Q1025 NOSIG
ZJHK,2016-02-06 22:00,ZJHK 062200Z 04004MPS CAVOK 11/02 Q1026 NOSIG
ZJHK,2016-02-06 23:00,ZJHK 062300Z 04003MPS CAVOK 11/03 Q1026 NOSIG
ZJHK,2016-02-07 00:00,ZJHK 070000Z 03003MPS CAVOK 11/02 Q1027 NOSIG
ZJHK,2016-02-07 01:00,ZJHK 070100Z 04008MPS CAVOK 14/01 Q1028 NOSIG
ZJHK,2016-02-07 02:00,ZJHK 070200Z 03008MPS CAVOK 15/M00 Q1029 NOSIG
ZJHK,2016-02-07 03:00,ZJHK 070300Z 02008MPS CAVOK 15/M01 Q1029 NOSIG
ZJHK,2016-02-07 04:00,ZJHK 070400Z 02006MPS 350V050 CAVOK 15/M01 Q1028 NOSIG
ZJHK,2016-02-07 05:00,ZJHK 070500Z 02007MPS CAVOK 15/M01 Q1027 NOSIG
ZJHK,2016-02-07 06:00,ZJHK 070600Z 01005MPS CAVOK 15/M01 Q1026 NOSIG
ZJHK,2016-02-07 07:00,ZJHK 070700Z 02005MPS 350V050 CAVOK 15/M02 Q1025 NOSIG
ZJHK,2016-02-07 08:00,ZJHK 070800Z 02005MPS 350V060 CAVOK 15/M02 Q1025 NOSIG
ZJHK,2016-02-07 09:00,ZJHK 070900Z 01005MPS 340V040 CAVOK 14/M02 Q1025 NOSIG
ZJHK,2016-02-07 10:00,ZJHK 071000Z 03005MPS 360V060 CAVOK 13/M02 Q1025 NOSIG
ZJHK,2016-02-07 11:00,ZJHK 071100Z 04003MPS 010V070 CAVOK 12/M02 Q1025 NOSIG
ZJHK,2016-02-07 12:00,ZJHK 071200Z 05002MPS CAVOK 12/M01 Q1025 NOSIG
ZJHK,2016-02-07 13:00,ZJHK 071300Z 00000MPS CAVOK 08/03 Q1026 NOSIG
ZJHK,2016-02-07 14:00,ZJHK 071400Z 20001MPS CAVOK 08/05 Q1026 NOSIG
ZJHK,2016-02-07 15:00,ZJHK 071500Z 21001MPS 8000 NSC 06/04 Q1026 NOSIG
ZJHK,2016-02-07 16:00,ZJHK 071600Z 23002MPS 8000 NSC 06/03 Q1025 NOSIG
ZJHK,2016-02-07 17:00,ZJHK 071700Z 23001MPS 7000 NSC 05/03 Q1025 NOSIG
ZJHK,2016-02-07 18:00,ZJHK 071800Z 22001MPS 5000 R09/1100N BR BCFG NSC 06/03 Q1024 NOSIG
ZJHK,2016-02-07 19:00,ZJHK 071900Z 23001MPS 3000 R09/1200N BR BCFG NSC 05/03 Q1024 NOSIG
ZJHK,2016-02-07 20:00,ZJHK 072000Z 23001MPS 3000 R09/0900N BR BCFG NSC 05/04 Q1023 NOSIG
ZJHK,2016-02-07 21:00,ZJHK 072100Z 22001MPS 3000 BR BCFG NSC 05/03 Q1023 NOSIG
ZJHK,2016-02-07 22:00,ZJHK 072200Z 22002MPS 2800 BR BCFG NSC 06/04 Q1023 BECMG TL2320 3200 BR
ZJHK,2016-02-07 23:00,ZJHK 072300Z 21001MPS 2800 BR BCFG NSC 06/04 Q1023 BECMG TL0020 3200 BR
ZJHK,2016-02-08 00:00,ZJHK 080000Z 23001MPS 3000 R09/1100N BR BCFG NSC 07/05 Q1024 NOSIG
ZJHK,2016-02-08 01:00,ZJHK 080100Z 24001MPS 3500 BR NSC 11/07 Q1024 NOSIG
ZJHK,2016-02-08 02:00,ZJHK 080200Z 03004MPS 350V070 CAVOK 16/08 Q1025 NOSIG
ZJHK,2016-02-08 03:00,ZJHK 080300Z 02004MPS 340V050 CAVOK 18/07 Q1025 NOSIG
ZJHK,2016-02-08 04:00,ZJHK 080400Z 01005MPS 350V050 CAVOK 18/07 Q1024 NOSIG
ZJHK,2016-02-08 05:00,ZJHK 080500Z 02004MPS 340V060 CAVOK 18/07 Q1023 NOSIG
ZJHK,2016-02-08 06:00,ZJHK 080600Z 36004MPS 330V040 CAVOK 19/07 Q1022 NOSIG
ZJHK,2016-02-08 07:00,ZJHK 080700Z 07006MPS 030V110 CAVOK 20/07 Q1021 NOSIG
ZJHK,2016-02-08 08:00,ZJHK 080800Z 06006MPS 030V090 CAVOK 20/08 Q1020 NOSIG
ZJHK,2016-02-08 09:00,ZJHK 080900Z 05006MPS CAVOK 19/08 Q1020 NOSIG
ZJHK,2016-02-08 10:00,ZJHK 081000Z 05005MPS CAVOK 17/08 Q1020 NOSIG
ZJHK,2016-02-08 11:00,ZJHK 081100Z 05004MPS CAVOK 16/08 Q1021 NOSIG
ZJHK,2016-02-08 12:00,ZJHK 081200Z 02003MPS 340V080 CAVOK 15/09 Q1021 NOSIG
ZJHK,2016-02-08 13:00,ZJHK 081300Z 36002MPS 8000 NSC 14/10 Q1021 NOSIG
ZJHK,2016-02-08 14:00,ZJHK 081400Z 34002MPS 7000 NSC 14/11 Q1022 NOSIG
ZJHK,2016-02-08 15:00,ZJHK 081500Z 34002MPS 310V040 7000 NSC 14/11 Q1022 NOSIG
ZJHK,2016-02-08 16:00,ZJHK 081600Z 35002MPS 310V050 6000 NSC 14/12 Q1021 NOSIG
ZJHK,2016-02-08 17:00,ZJHK 081700Z 36002MPS 5000 BR NSC 14/12 Q1021 NOSIG
ZJHK,2016-02-08 18:00,ZJHK 081800Z 03003MPS 5000 BR NSC 13/11 Q1021 NOSIG
ZJHK,2016-02-08 19:00,ZJHK 081900Z 04003MPS 6000 NSC 13/10 Q1020 NOSIG
ZJHK,2016-02-08 20:00,ZJHK 082000Z 08002MPS 6000 NSC 11/09 Q1019 NOSIG
ZJHK,2016-02-08 21:00,ZJHK 082100Z 00000MPS 6000 R09/0275 BCFG NSC 09/08 Q1019 NOSIG
ZJHK,2016-02-08 22:00,ZJHK 082200Z 00000MPS 6000 BCFG NSC 09/08 Q1020 NOSIG
ZJHK,2016-02-08 23:00,ZJHK 082300Z 03001MPS 4000 R09/0900 BR BCFG NSC 08/07 Q1020 NOSIG
ZJHK,2016-02-09 00:00,ZJHK 090000Z 34001MPS 4000 BR NSC 11/10 Q1021 NOSIG
ZJHK,2016-02-09 01:00,ZJHK 090100Z 36002MPS 320V060 6000 NSC 15/13 Q1021 NOSIG
ZJHK,2016-02-09 02:00,ZJHK 090200Z 04005MPS CAVOK 18/11 Q1022 NOSIG
ZJHK,2016-02-09 03:00,ZJHK 090300Z 07005MPS 030V100 CAVOK 20/10 Q1022 NOSIG
ZJHK,2016-02-09 04:00,ZJHK 090400Z 05005MPS 010V090 9999 FEW020 21/11 Q1021 NOSIG
ZJHK,2016-02-09 05:00,ZJHK 090500Z 02005MPS 340V050 9999 SCT020 20/12 Q1020 NOSIG
ZJHK,2016-02-09 06:00,ZJHK 090600Z 01005MPS 350V060 9999 FEW020 20/12 Q1018 NOSIG
ZJHK,2016-02-09 07:00,ZJHK 090700Z 03006MPS 9999 FEW020 20/12 Q1018 NOSIG
ZJHK,2016-02-09 08:00,ZJHK 090800Z 02006MPS 9999 FEW020 19/12 Q1017 NOSIG
ZJHK,2016-02-09 09:00,ZJHK 090900Z 05005MPS 020V090 9999 FEW020 20/13 Q1017 NOSIG
ZJHK,2016-02-09 10:00,ZJHK 091000Z 06006MPS CAVOK 18/12 Q1017 NOSIG
ZJHK,2016-02-09 11:00,ZJHK 091100Z 06004MPS CAVOK 16/12 Q1017 NOSIG
ZJHK,2016-02-09 12:00,ZJHK 091200Z 04003MPS 010V070 CAVOK 16/12 Q1018 NOSIG
ZJHK,2016-02-09 13:00,ZJHK 091300Z 06002MPS 020V100 CAVOK 15/12 Q1018 NOSIG
ZJHK,2016-02-09 14:00,ZJHK 091400Z 06002MPS 8000 NSC 15/12 Q1018 NOSIG
ZJHK,2016-02-09 15:00,ZJHK 091500Z 08001MPS 6000 NSC 14/12 Q1018 NOSIG
ZJHK,2016-02-09 16:00,ZJHK 091600Z 18001MPS 5000 BR SCT015 13/12 Q1017 NOSIG
ZJHK,2016-02-09 17:00,ZJHK 091700Z 09001MPS 5000 BR BKN015 14/13 Q1017 NOSIG
ZJHK,2016-02-09 18:00,ZJHK 091800Z 17001MPS 4500 BR NSC 13/12 Q1016 NOSIG
ZJHK,2016-02-09 19:00,ZJHK 091900Z 00000MPS 4000 BR BKN010 14/13 Q1016 NOSIG
ZJHK,2016-02-09 20:00,ZJHK 092000Z 26001MPS 4000 BR BCFG SCT013 13/12 Q1015 NOSIG
ZJHK,2016-02-09 21:00,ZJHK 092100Z 00000MPS 4000 R09/0275V0500 BR BCFG NSC 12/11 Q1015 NOSIG
ZJHK,2016-02-09 22:00,ZJHK 092200Z 22001MPS 2100 R09/0750V1000 BR BCFG NSC 12/11 Q1016 BECMG TL2330 3000 BR
ZJHK,2016-02-09 23:00,ZJHK 092300Z 23001MPS 2100 BR BCFG BKN004 13/12 Q1016 BECMG TL0010 3000 BR
ZJHK,2016-02-10 00:00,ZJHK 100000Z 21001MPS 0400 R09/0550 FG OVC003 14/13 Q1017 BECMG TL0100 1000 BR BKN005
ZJHK,2016-02-10 01:00,ZJHK 100100Z 25002MPS 0400 R09/0700N FG OVC003 15/14 Q1018 BECMG TL0140 1200 BR BKN005
ZJHK,2016-02-10 02:00,ZJHK 100200Z 35001MPS 0800 R09/P2000 FG BKN003 OVC020 17/16 Q1018 BECMG TL0250 2000 BR BKN005
ZJHK,2016-02-10 03:00,ZJHK 100300Z 05002MPS 2100 BR BKN006 OVC020 19/17 Q1018 BECMG TL0410 3000 BR BKN010
ZJHK,2016-02-10 04:00,ZJHK 100400Z 10002MPS 6000 BKN009 BKN023 21/17 Q1017 BECMG TL0510 BKN010
ZJHK,2016-02-10 05:00,ZJHK 100500Z 15003MPS 100V170 9999 BKN023 23/16 Q1015 NOSIG
ZJHK,2016-02-10 06:00,ZJHK 100600Z VRB03MPS 9999 BKN023 24/17 Q1014 NOSIG
ZJHK,2016-02-10 07:00,ZJHK 100700Z 01004MPS 320V050 9999 BKN026 22/17 Q1013 NOSIG
ZJHK,2016-02-10 08:00,ZJHK 100800Z 02004MPS 340V050 9999 SCT026 22/17 Q1013 NOSIG
ZJHK,2016-02-10 09:00,ZJHK 100900Z 03004MPS 360V070 CAVOK 21/17 Q1013 NOSIG
ZJHK,2016-02-10 10:00,ZJHK 101000Z 08003MPS CAVOK 21/17 Q1013 NOSIG
ZJHK,2016-02-10 11:00,ZJHK 101100Z 13003MPS CAVOK 21/16 Q1013 NOSIG
ZJHK,2016-02-10 12:00,ZJHK 101200Z 14004MPS CAVOK 20/17 Q1013 NOSIG
ZJHK,2016-02-10 13:00,ZJHK 101300Z 14002MPS 110V170 CAVOK 19/17 Q1013 NOSIG
ZJHK,2016-02-10 14:00,ZJHK 101400Z 14002MPS CAVOK 19/17 Q1013 NOSIG
ZJHK,2016-02-10 15:00,ZJHK 101500Z 13002MPS 8000 NSC 18/17 Q1014 NOSIG
ZJHK,2016-02-10 16:00,ZJHK 101600Z 14001MPS 6000 NSC 18/16 Q1013 NOSIG
ZJHK,2016-02-10 17:00,ZJHK 101700Z 13001MPS 3000 BR BCFG NSC 17/16 Q1013 BECMG 1000 BR BCFG
ZJHK,2016-02-10 18:00,ZJHK 101800Z 00000MPS 0600 R09/0600 FG SCT002 16/15 Q1013 BECMG 0400 FG
ZJHK,2016-02-10 19:00,ZJHK 101900Z 10001MPS 0200 R09/0375 FG BKN002 16/15 Q1013 NOSIG
ZJHK,2016-02-10 20:00,ZJHK 102000Z 10001MPS 3000 R09/0400D BR BCFG FEW008 16/15 Q1013 NOSIG
ZJHK,2016-02-10 21:00,ZJHK 102100Z 10003MPS 3000 BR NSC 16/15 Q1013 NOSIG
ZJHK,2016-02-10 22:00,ZJHK 102200Z 13002MPS 4000 BR NSC 17/16 Q1013 NOSIG
ZJHK,2016-02-10 23:00,ZJHK 102300Z 13001MPS 3500 R09/0450 BR BCFG NSC 16/15 Q1013 NOSIG
ZJHK,2016-02-11 00:00,ZJHK 110000Z 10001MPS 3500 R09/0650 BR BCFG NSC 16/15 Q1014 NOSIG
ZJHK,2016-02-11 01:00,ZJHK 110100Z 12001MPS 2000 BR BKN005 18/17 Q1014 BECMG AT0200 3000 BR
ZJHK,2016-02-11 02:00,ZJHK 110200Z 17003MPS 140V210 9999 FEW010 22/19 Q1014 NOSIG
ZJHK,2016-02-11 03:00,ZJHK 110300Z 23003MPS 180V270 CAVOK 25/18 Q1014 NOSIG
ZJHK,2016-02-11 04:00,ZJHK 110400Z 21004MPS 160V230 9999 FEW020 26/17 Q1013 NOSIG
ZJHK,2016-02-11 05:00,ZJHK 110500Z 20003MPS 160V230 9999 SCT026 28/16 Q1012 NOSIG
ZJHK,2016-02-11 06:00,ZJHK 110600Z 01004MPS 340V050 9999 SCT040 26/18 Q1011 NOSIG
ZJHK,2016-02-11 07:00,ZJHK 110700Z 01004MPS 9999 SCT040 26/18 Q1010 NOSIG
ZJHK,2016-02-11 08:00,ZJHK 110800Z 36004MPS 340V040 9999 FEW040TCU SCT040 27/17 Q1010 NOSIG
ZJHK,2016-02-11 09:00,ZJHK 110900Z 01003MPS 340V050 9999 SCT046 27/16 Q1009 NOSIG
ZJHK,2016-02-11 10:00,ZJHK 111000Z 32002MPS 9999 SCT046 25/17 Q1010 NOSIG
ZJHK,2016-02-11 11:00,ZJHK 111100Z 12002MPS 9999 SCT046 24/18 Q1010 NOSIG
ZJHK,2016-02-11 12:00,ZJHK 111200Z 12003MPS 9999 FEW046 22/18 Q1011 NOSIG
ZJHK,2016-02-11 13:00,ZJHK 111300Z 13002MPS 9999 FEW046 21/18 Q1011 NOSIG
ZJHK,2016-02-11 14:00,ZJHK 111400Z 15004MPS 9999 FEW046 21/18 Q1011 NOSIG
ZJHK,2016-02-11 15:00,ZJHK 111500Z 16004MPS 130V190 9999 FEW046 21/18 Q1012 NOSIG
ZJHK,2016-02-11 16:00,ZJHK 111600Z 16005MPS 9999 FEW046 21/18 Q1012 NOSIG
ZJHK,2016-02-11 17:00,ZJHK 111700Z 17003MPS CAVOK 20/18 Q1012 NOSIG
ZJHK,2016-02-11 18:00,ZJHK 111800Z 17003MPS CAVOK 20/18 Q1011 NOSIG
ZJHK,2016-02-11 19:00,ZJHK 111900Z 17003MPS CAVOK 20/18 Q1011 NOSIG
ZJHK,2016-02-11 20:00,ZJHK 112000Z 16003MPS CAVOK 20/18 Q1011 NOSIG
ZJHK,2016-02-11 21:00,ZJHK 112100Z 16003MPS CAVOK 20/18 Q1011 NOSIG
ZJHK,2016-02-11 22:00,ZJHK 112200Z 16004MPS CAVOK 20/18 Q1011 NOSIG
ZJHK,2016-02-11 23:00,ZJHK 112300Z 17004MPS 140V200 CAVOK 20/18 Q1012 NOSIG
ZJHK,2016-02-12 00:00,ZJHK 120000Z 17004MPS CAVOK 21/18 Q1012 NOSIG
ZJHK,2016-02-12 01:00,ZJHK 120100Z 17005MPS 150V210 CAVOK 23/18 Q1013 NOSIG
ZJHK,2016-02-12 02:00,ZJHK 120200Z 18004MPS CAVOK 25/18 Q1013 NOSIG
ZJHK,2016-02-12 03:00,ZJHK 120300Z 18006MPS CAVOK 27/17 Q1013 NOSIG
ZJHK,2016-02-12 04:00,ZJHK 120400Z 20006MPS CAVOK 28/16 Q1012 NOSIG
ZJHK,2016-02-12 05:00,ZJHK 120500Z 17005MPS 140V200 CAVOK 30/16 Q1011 NOSIG
ZJHK,2016-02-12 06:00,ZJHK 120600Z 21005MPS 160V240 CAVOK 30/15 Q1009 NOSIG
ZJHK,2016-02-12 07:00,ZJHK 120700Z 20005MPS 160V220 9999 FEW026 30/14 Q1008 NOSIG
ZJHK,2016-02-12 08:00,ZJHK 120800Z 19005MPS 150V220 CAVOK 31/13 Q1007 NOSIG
ZJHK,2016-02-12 09:00,ZJHK 120900Z 16005MPS CAVOK 29/19 Q1007 NOSIG
ZJHK,2016-02-12 10:00,ZJHK 121000Z 15005MPS CAVOK 27/20 Q1008 NOSIG
ZJHK,2016-02-12 11:00,ZJHK 121100Z 11001MPS CAVOK 25/19 Q1008 NOSIG
ZJHK,2016-02-12 12:00,ZJHK 121200Z 15003MPS CAVOK 24/19 Q1008 NOSIG
ZJHK,2016-02-12 13:00,ZJHK 121300Z 17004MPS CAVOK 23/19 Q1009 NOSIG
ZJHK,2016-02-12 14:00,ZJHK 121400Z 17004MPS CAVOK 22/19 Q1009 NOSIG
ZJHK,2016-02-12 15:00,ZJHK 121500Z 18004MPS CAVOK 22/18 Q1010 NOSIG
ZJHK,2016-02-12 16:00,ZJHK 121600Z 17004MPS CAVOK 21/18 Q1009 NOSIG
ZJHK,2016-02-12 17:00,ZJHK 121700Z 17004MPS CAVOK 21/18 Q1010 NOSIG
ZJHK,2016-02-12 18:00,ZJHK 121800Z 17004MPS CAVOK 21/18 Q1009 NOSIG
ZJHK,2016-02-12 19:00,ZJHK 121900Z 17004MPS CAVOK 21/18 Q1009 NOSIG
ZJHK,2016-02-12 20:00,ZJHK 122000Z 17004MPS 140V200 CAVOK 21/18 Q1009 NOSIG
ZJHK,2016-02-12 21:00,ZJHK 122100Z 17004MPS 140V200 CAVOK 21/17 Q1009 NOSIG
ZJHK,2016-02-12 22:00,ZJHK 122200Z 17004MPS 140V200 CAVOK 21/17 Q1009 NOSIG
ZJHK,2016-02-12 23:00,ZJHK 122300Z 16004MPS CAVOK 21/17 Q1010 NOSIG
ZJHK,2016-02-13 00:00,ZJHK 130000Z 16003MPS 130V190 CAVOK 21/17 Q1010 NOSIG
ZJHK,2016-02-13 01:00,ZJHK 130100Z 17004MPS CAVOK 23/18 Q1011 NOSIG
ZJHK,2016-02-13 02:00,ZJHK 130200Z 18005MPS CAVOK 25/17 Q1012 NOSIG
ZJHK,2016-02-13 03:00,ZJHK 130300Z 20005MPS CAVOK 27/17 Q1012 NOSIG
ZJHK,2016-02-13 04:00,ZJHK 130400Z 20005MPS CAVOK 29/16 Q1011 NOSIG
ZJHK,2016-02-13 05:00,ZJHK 130500Z 19005MPS CAVOK 30/14 Q1010 NOSIG
ZJHK,2016-02-13 06:00,ZJHK 130600Z 19004MPS 150V230 CAVOK 31/14 Q1008 NOSIG
ZJHK,2016-02-13 07:00,ZJHK 130700Z 29003MPS 250V330 9999 FEW026 32/12 Q1008 NOSIG
ZJHK,2016-02-13 08:00,ZJHK 130800Z 28005MPS 9999 FEW026 32/09 Q1007 NOSIG
ZJHK,2016-02-13 09:00,ZJHK 130900Z 28004MPS 9999 FEW026 31/08 Q1008 NOSIG
ZJHK,2016-02-13 10:00,ZJHK 131000Z 20002MPS CAVOK 28/08 Q1008 NOSIG
ZJHK,2016-02-13 11:00,ZJHK 131100Z 08001MPS CAVOK 25/17 Q1009 NOSIG
ZJHK,2016-02-13 12:00,ZJHK 131200Z 13002MPS CAVOK 23/19 Q1010 NOSIG
ZJHK,2016-02-13 13:00,ZJHK 131300Z 13002MPS CAVOK 23/20 Q1010 NOSIG
ZJHK,2016-02-13 14:00,ZJHK 131400Z 00000MPS CAVOK 21/19 Q1010 NOSIG
ZJHK,2016-02-13 15:00,ZJHK 131500Z 14001MPS CAVOK 20/18 Q1010 NOSIG
ZJHK,2016-02-13 16:00,ZJHK 131600Z 00000MPS CAVOK 19/18 Q1010 NOSIG
ZJHK,2016-02-13 17:00,ZJHK 131700Z 15001MPS 9999 BCFG NSC 18/17 Q1010 NOSIG
ZJHK,2016-02-13 18:00,ZJHK 131800Z 00000MPS 9999 BCFG NSC 18/17 Q1009 NOSIG
ZJHK,2016-02-13 19:00,ZJHK 131900Z 14001MPS 9999 BCFG NSC 18/17 Q1009 NOSIG
ZJHK,2016-02-13 20:00,ZJHK 132000Z 10001MPS 7000 R09/0450 BCFG NSC 18/16 Q1009 NOSIG
ZJHK,2016-02-13 21:00,ZJHK 132100Z 08002MPS 7000 R09/0275D BCFG NSC 17/15 Q1009 NOSIG
ZJHK,2016-02-13 22:00,ZJHK 132200Z 00000MPS 6000 R09/0125V0300N BCFG NSC 16/15 Q1010 NOSIG
ZJHK,2016-02-13 23:00,ZJHK 132300Z 00000MPS 2500 BR BCFG NSC 16/15 Q1011 BECMG 3000 BR
ZJHK,2016-02-14 00:00,ZJHK 140000Z 10002MPS 4500 R09/0800U BR BCFG NSC 16/16 Q1011 NOSIG
ZJHK,2016-02-14 01:00,ZJHK 140100Z 09002MPS 7000 NSC 19/18 Q1012 NOSIG
ZJHK,2016-02-14 02:00,ZJHK 140200Z 10001MPS CAVOK 22/18 Q1013 NOSIG
ZJHK,2016-02-14 03:00,ZJHK 140300Z 10001MPS CAVOK 25/18 Q1013 NOSIG
ZJHK,2016-02-14 04:00,ZJHK 140400Z 36003MPS CAVOK 25/18 Q1012 NOSIG
ZJHK,2016-02-14 05:00,ZJHK 140500Z 35003MPS 320V030 CAVOK 24/18 Q1012 NOSIG
ZJHK,2016-02-14 06:00,ZJHK 140600Z 01004MPS CAVOK 24/18 Q1011 NOSIG
ZJHK,2016-02-14 07:00,ZJHK 140700Z 36004MPS 320V040 CAVOK 25/17 Q1010 NOSIG
ZJHK,2016-02-14 08:00,ZJHK 140800Z 04004MPS CAVOK 23/17 Q1010 NOSIG
ZJHK,2016-02-14 09:00,ZJHK 140900Z 02004MPS 350V060 CAVOK 21/17 Q1011 NOSIG
ZJHK,2016-02-14 10:00,ZJHK 141000Z 35004MPS 320V030 7000 BKN004 19/17 Q1012 BECMG AT1100 2800 BR
ZJHK,2016-02-14 11:00,ZJHK 141100Z 36004MPS 7000 BKN004 19/17 Q1013 BECMG AT1250 BKN006
ZJHK,2016-02-14 12:00,ZJHK 141200Z 35004MPS 330V030 0600 R09/P2000 FG BKN002 19/18 Q1013 NOSIG
ZJHK,2016-02-14 13:00,ZJHK 141300Z 35003MPS 1000 R09/P2000 BR BKN002 19/18 Q1014 NOSIG
ZJHK,2016-02-14 14:00,ZJHK 141400Z 35003MPS 320V020 0500 R09/1000N FG BKN001 19/18 Q1015 NOSIG
ZJHK,2016-02-14 15:00,ZJHK 141500Z 36004MPS 340V050 0500 R09/P2000 FG VV001 18/17 Q1016 NOSIG
ZJHK,2016-02-14 16:00,ZJHK 141600Z 03008MPS 7000 BKN012 17/15 Q1017 NOSIG
ZJHK,2016-02-14 17:00,ZJHK 141700Z 03008MPS 9999 BKN016 18/14 Q1018 NOSIG
ZJHK,2016-02-14 18:00,ZJHK 141800Z 03006MPS 9999 BKN015 17/14 Q1018 NOSIG
ZJHK,2016-02-14 19:00,ZJHK 141900Z 03008MPS 9999 BKN016 OVC026 17/12 Q1018 NOSIG
ZJHK,2016-02-14 20:00,ZJHK 142000Z 03008MPS 9999 BKN018 OVC026 17/12 Q1019 NOSIG
ZJHK,2016-02-14 21:00,ZJHK 142100Z 04009MPS 9999 SCT018 OVC026 16/11 Q1019 NOSIG
ZJHK,2016-02-14 22:00,ZJHK 142200Z 02007MPS 9999 BKN020 OVC026 16/11 Q1021 NOSIG
ZJHK,2016-02-14 23:00,ZJHK 142300Z 03008MPS 9999 BKN020 OVC026 15/10 Q1022 NOSIG
ZJHK,2016-02-15 00:00,ZJHK 150000Z 02008MPS 9999 BKN020 OVC026 14/10 Q1023 NOSIG
ZJHK,2016-02-15 01:00,ZJHK 150100Z 03008MPS 9999 BKN015 OVC026 14/10 Q1024 NOSIG
ZJHK,2016-02-15 02:00,ZJHK 150200Z 03006MPS 9999 FEW020 OVC026 14/09 Q1025 NOSIG
ZJHK,2016-02-15 03:00,ZJHK 150300Z 03006MPS 9999 BKN020 OVC026 14/09 Q1025 NOSIG
ZJHK,2016-02-15 04:00,ZJHK 150400Z 02005MPS 350V060 9999 BKN020 OVC026 14/09 Q1025 NOSIG
ZJHK,2016-02-15 05:00,ZJHK 150500Z 03005MPS 9999 BKN020 OVC026 14/09 Q1024 NOSIG
ZJHK,2016-02-15 06:00,ZJHK 150600Z 03006MPS 9999 BKN020 OVC026 14/09 Q1023 NOSIG
ZJHK,2016-02-15 07:00,ZJHK 150700Z 02005MPS 9999 BKN020 OVC026 14/09 Q1022 NOSIG
ZJHK,2016-02-15 08:00,ZJHK 150800Z 04005MPS 010V070 9999 BKN020 OVC026 13/08 Q1022 NOSIG
ZJHK,2016-02-15 09:00,ZJHK 150900Z 04005MPS 9999 OVC020 13/08 Q1022 NOSIG
ZJHK,2016-02-15 10:00,ZJHK 151000Z 05005MPS 010V080 9999 OVC020 13/08 Q1022 NOSIG
ZJHK,2016-02-15 11:00,ZJHK 151100Z 05005MPS 9999 OVC020 13/08 Q1022 NOSIG
ZJHK,2016-02-15 12:00,ZJHK 151200Z 03005MPS 9999 OVC020 13/08 Q1023 NOSIG
ZJHK,2016-02-15 13:00,ZJHK 151300Z 03005MPS 9999 OVC020 13/09 Q1024 NOSIG
ZJHK,2016-02-15 14:00,ZJHK 151400Z 04004MPS 360V060 9999 OVC020 13/09 Q1025 NOSIG
ZJHK,2016-02-15 15:00,ZJHK 151500Z 04005MPS 9999 SCT013 OVC023 13/09 Q1025 NOSIG
ZJHK,2016-02-15 16:00,ZJHK 151600Z 04004MPS 010V070 7000 SCT008 OVC020 12/10 Q1025 NOSIG
ZJHK,2016-02-15 17:00,ZJHK 151700Z 03005MPS 4000 -DZ BR OVC008 12/11 Q1024 NOSIG
ZJHK,2016-02-15 18:00,ZJHK 151800Z 02006MPS 3000 -RA BR BKN006 OVC020 12/10 Q1024 NOSIG
ZJHK,2016-02-15 19:00,ZJHK 151900Z 03006MPS 7000 BKN008 OVC020 12/10 Q1024 NOSIG
ZJHK,2016-02-15 20:00,ZJHK 152000Z 04006MPS 8000 BKN012 OVC020 12/09 Q1024 NOSIG
ZJHK,2016-02-15 21:00,ZJHK 152100Z 04006MPS 9999 BKN013 OVC020 12/09 Q1024 NOSIG
ZJHK,2016-02-15 22:00,ZJHK 152200Z 05005MPS 9999 BKN013 OVC020 12/09 Q1024 NOSIG
ZJHK,2016-02-15 23:00,ZJHK 152300Z 04005MPS 9999 BKN013 OVC020 12/09 Q1025 NOSIG
ZJHK,2016-02-16 00:00,ZJHK 160000Z 04005MPS 9999 BKN013 OVC020 12/09 Q1026 NOSIG
ZJHK,2016-02-16 01:00,ZJHK 160100Z 03005MPS 5000 -DZ BR BKN012 OVC020 12/09 Q1026 NOSIG
ZJHK,2016-02-16 02:00,ZJHK 160200Z 03005MPS 5000 BR BKN010 OVC020 12/10 Q1026 NOSIG
ZJHK,2016-02-16 03:00,ZJHK 160300Z 02006MPS 5000 BR BKN012 OVC020 12/09 Q1026 NOSIG
ZJHK,2016-02-16 04:00,ZJHK 160400Z 02005MPS 350V060 8000 BKN015 OVC020 13/09 Q1026 NOSIG
ZJHK,2016-02-16 05:00,ZJHK 160500Z 03005MPS 9000 BKN016 OVC030 13/08 Q1025 NOSIG
ZJHK,2016-02-16 06:00,ZJHK 160600Z 03006MPS 9999 BKN016 OVC030 13/08 Q1024 NOSIG
ZJHK,2016-02-16 07:00,ZJHK 160700Z 02005MPS 360V060 9000 BKN016 OVC030 13/08 Q1023 NOSIG
ZJHK,2016-02-16 08:00,ZJHK 160800Z 01005MPS 350V050 8000 BKN016 OVC030 13/08 Q1022 NOSIG
ZJHK,2016-02-16 09:00,ZJHK 160900Z 02004MPS 310V060 8000 BKN016 OVC030 13/08 Q1022 BECMG BKN012 OVC026
ZJHK,2016-02-16 10:00,ZJHK 161000Z 03004MPS 360V060 7000 BKN013 OVC026 13/09 Q1022 NOSIG
ZJHK,2016-02-16 11:00,ZJHK 161100Z 03004MPS 7000 BKN013 OVC026 12/09 Q1022 NOSIG
ZJHK,2016-02-16 12:00,ZJHK 161200Z 03004MPS 350V060 7000 BKN013 OVC026 13/09 Q1023 NOSIG
ZJHK,2016-02-16 13:00,ZJHK 161300Z 03003MPS 7000 BKN013 OVC026 13/09 Q1024 NOSIG
ZJHK,2016-02-16 14:00,ZJHK 161400Z 03003MPS 360V060 7000 BKN013 OVC026 13/09 Q1024 NOSIG
ZJHK,2016-02-16 15:00,ZJHK 161500Z 03003MPS 360V070 7000 BKN013 OVC026 13/09 Q1024 NOSIG
ZJHK,2016-02-16 16:00,ZJHK 161600Z 03003MPS 360V060 7000 BKN013 OVC026 13/10 Q1024 NOSIG
ZJHK,2016-02-16 17:00,ZJHK 161700Z 04004MPS 7000 BKN013 OVC026 13/09 Q1024 NOSIG
ZJHK,2016-02-16 18:00,ZJHK 161800Z 02005MPS 6000 BKN013 OVC026 13/09 Q1024 NOSIG
ZJHK,2016-02-16 19:00,ZJHK 161900Z 03004MPS 6000 -RA BKN013 OVC026 12/10 Q1023 NOSIG
ZJHK,2016-02-16 20:00,ZJHK 162000Z 04004MPS 6000 BKN013 OVC026 12/10 Q1023 NOSIG
ZJHK,2016-02-16 21:00,ZJHK 162100Z 05004MPS 6000 BKN013 OVC026 12/10 Q1023 NOSIG
ZJHK,2016-02-16 22:00,ZJHK 162200Z 04004MPS 6000 BKN013 OVC026 12/10 Q1023 NOSIG
ZJHK,2016-02-16 23:00,ZJHK 162300Z 04004MPS 6000 BKN012 OVC026 13/10 Q1024 NOSIG
ZJHK,2016-02-17 00:00,ZJHK 170000Z 04004MPS 7000 BKN010 OVC026 13/10 Q1024 BECMG BKN015 OVC030
ZJHK,2016-02-17 01:00,ZJHK 170100Z 04004MPS 8000 -RA BKN014 OVC026 13/10 Q1025 BECMG AT0200 BKN016 OVC030
ZJHK,2016-02-17 02:00,ZJHK 170200Z 03004MPS 350V070 8000 -RA BKN014 OVC026 13/10 Q1025 NOSIG
ZJHK,2016-02-17 03:00,ZJHK 170300Z 04004MPS 7000 -RA BKN014 OVC026 13/11 Q1026 NOSIG
ZJHK,2016-02-17 04:00,ZJHK 170400Z 03005MPS 360V060 7000 -RA BKN011 OVC026 13/11 Q1025 NOSIG
ZJHK,2016-02-17 05:00,ZJHK 170500Z 02005MPS 9000 BKN012 OVC026 13/10 Q1023 NOSIG
ZJHK,2016-02-17 06:00,ZJHK 170600Z 02004MPS 350V060 9999 BKN012 OVC026 14/10 Q1022 NOSIG
ZJHK,2016-02-17 07:00,ZJHK 170700Z 05002MPS 360V120 9999 BKN014 OVC026 15/10 Q1021 BECMG AT0800 BKN016 OVC030
ZJHK,2016-02-17 08:00,ZJHK 170800Z 02004MPS 360V060 9000 BKN016 OVC026 15/10 Q1021 NOSIG
ZJHK,2016-02-17 09:00,ZJHK 170900Z 01004MPS 350V050 8000 BKN015 OVC026 14/10 Q1021 NOSIG
ZJHK,2016-02-17 10:00,ZJHK 171000Z 03004MPS 8000 BKN013 OVC026 13/09 Q1021 BECMG BKN012 OVC026
ZJHK,2016-02-17 11:00,ZJHK 171100Z 04003MPS 360V070 8000 BKN013 OVC026 13/09 Q1021 NOSIG
ZJHK,2016-02-17 12:00,ZJHK 171200Z 05003MPS 020V080 7000 BKN013 OVC026 13/10 Q1021 NOSIG
ZJHK,2016-02-17 13:00,ZJHK 171300Z 03003MPS 8000 BKN013 OVC026 14/09 Q1022 NOSIG
ZJHK,2016-02-17 14:00,ZJHK 171400Z 03003MPS 360V070 9999 BKN016 OVC026 14/10 Q1022 NOSIG
ZJHK,2016-02-17 15:00,ZJHK 171500Z 03002MPS 360V070 9999 BKN016 OVC026 14/10 Q1022 NOSIG
ZJHK,2016-02-17 16:00,ZJHK 171600Z 03003MPS 9999 BKN020 OVC040 14/10 Q1022 NOSIG
ZJHK,2016-02-17 17:00,ZJHK 171700Z 04003MPS 9999 BKN020 OVC040 14/11 Q1022 NOSIG
ZJHK,2016-02-17 18:00,ZJHK 171800Z 03004MPS 6000 -RA BKN016 OVC026 14/11 Q1022 NOSIG
ZJHK,2016-02-17 19:00,ZJHK 171900Z 03004MPS 8000 BKN016 OVC026 14/11 Q1021 NOSIG
ZJHK,2016-02-17 20:00,ZJHK 172000Z 02004MPS 6000 BKN010 OVC026 14/11 Q1021 NOSIG
ZJHK,2016-02-17 21:00,ZJHK 172100Z 02004MPS 2500 -RA BR BKN005 OVC026 13/11 Q1021 NOSIG
ZJHK,2016-02-17 22:00,ZJHK 172200Z 03005MPS 1800 -RA BR BKN005 OVC023 13/12 Q1021 NOSIG
ZJHK,2016-02-17 23:00,ZJHK 172300Z 03004MPS 1800 -RA BR BKN003 OVC023 13/12 Q1022 NOSIG
ZJHK,2016-02-18 00:00,ZJHK 180000Z 04004MPS 1800 BR BKN003 OVC023 13/12 Q1022 BECMG 3000 BR BKN005 OVC026
ZJHK,2016-02-18 01:00,ZJHK 180100Z 04003MPS 1600 R09/1300N -RA BR BKN003 OVC023 14/13 Q1023 BECMG TL0250 3000 BR BKN005
ZJHK,2016-02-18 02:00,ZJHK 180200Z 04003MPS 010V070 1800 BR BKN004 OVC023 14/13 Q1023 BECMG TL0350 3000 BR BKN005
ZJHK,2016-02-18 03:00,ZJHK 180300Z 04003MPS 360V090 3500 BR BKN007 OVC026 15/13 Q1023 BECMG TL0450 BKN010
ZJHK,2016-02-18 04:00,ZJHK 180400Z 04003MPS 010V070 2400 -RA BR BKN007 OVC026 15/13 Q1022 BECMG 3000 BR BKN010
ZJHK,2016-02-18 05:00,ZJHK 180500Z 02003MPS 330V050 1600 R09/1300N -RA BR BKN005 OVC023 15/13 Q1021 NOSIG
ZJHK,2016-02-18 06:00,ZJHK 180600Z 03003MPS 1800 -RA BR BKN005 OVC023 15/13 Q1019 NOSIG
ZJHK,2016-02-18 07:00,ZJHK 180700Z 01003MPS 350V050 1800 -RA BR BKN005 OVC023 15/13 Q1019 NOSIG
ZJHK,2016-02-18 08:00,ZJHK 180800Z 02003MPS 1600 -RA BR BKN004 OVC023 15/13 Q1018 BECMG 1200 BR -RA
ZJHK,2016-02-18 09:00,ZJHK 180900Z 02003MPS 1100 R09/P2000 -RA BR BKN004 OVC020 14/13 Q1018 NOSIG
ZJHK,2016-02-18 10:00,ZJHK 181000Z 02003MPS 350V060 1000 R09/P2000 -RA BR BKN003 OVC020 14/13 Q1018 NOSIG
ZJHK,2016-02-18 11:00,ZJHK 181100Z 03003MPS 360V060 1200 R09/P2000 -RA BR BKN003 OVC020 14/13 Q1018 NOSIG
ZJHK,2016-02-18 12:00,ZJHK 181200Z 03003MPS 350V060 1600 -RA BR BKN003 OVC020 14/13 Q1018 NOSIG
ZJHK,2016-02-18 13:00,ZJHK 181300Z 03003MPS 1600 -RA BR BKN003 OVC020 14/13 Q1019 NOSIG
ZJHK,2016-02-18 14:00,ZJHK 181400Z 03003MPS 350V080 1600 BR BKN003 OVC020 14/13 Q1019 NOSIG
ZJHK,2016-02-18 15:00,ZJHK 181500Z 03003MPS 360V060 1800 BR BKN003 OVC020 14/13 Q1019 NOSIG
ZJHK,2016-02-18 16:00,ZJHK 181600Z 04003MPS 360V070 2000 BR BKN004 OVC020 15/13 Q1019 NOSIG
ZJHK,2016-02-18 17:00,ZJHK 181700Z 04003MPS 2800 BR BKN004 OVC020 15/14 Q1019 NOSIG
ZJHK,2016-02-18 18:00,ZJHK 181800Z 03004MPS 010V070 2800 BR BKN004 OVC020 15/14 Q1019 NOSIG
ZJHK,2016-02-18 19:00,ZJHK 181900Z 04004MPS 2800 BR BKN004 OVC020 15/14 Q1018 NOSIG
ZJHK,2016-02-18 20:00,ZJHK 182000Z 01002MPS 1600 R09/1300N BR BKN003 OVC020 15/14 Q1018 NOSIG
ZJHK,2016-02-18 21:00,ZJHK 182100Z 01001MPS 0700 R09/1000N FG BKN003 OVC020 15/14 Q1018 NOSIG
ZJHK,2016-02-18 22:00,ZJHK 182200Z 03002MPS 0600 R09/1300N FG BKN002 OVC020 15/14 Q1019 BECMG AT2230 0500 FG BKN001 OVC020
ZJHK,2016-02-18 23:00,ZJHK 182300Z 06003MPS 020V080 0600 R09/P2000 FG BKN002 OVC020 15/14 Q1019 BECMG AT2350 0500 FG BKN001 OVC020
ZJHK,2016-02-19 00:00,ZJHK 190000Z 10002MPS 0600 R09/0750 FG BKN002 OVC020 16/15 Q1019 BECMG AT0130 0800 FG
ZJHK,2016-02-19 01:00,ZJHK 190100Z 03002MPS 0300 R09/0550 FG VV002 16/15 Q1020 BECMG AT0230 0800 FG
ZJHK,2016-02-19 02:00,ZJHK 190200Z 02002MPS 0300 R09/0500V0800U FG VV002 16/15 Q1020 BECMG AT0230 0800 FG
ZJHK,2016-02-19 03:00,ZJHK 190300Z 01002MPS 320V050 0700 R09/P2000 FG VV003 17/16 Q1020 BECMG AT0330 0800 FG
ZJHK,2016-02-19 04:00,ZJHK 190400Z 35002MPS 290V020 0400 R09/0900V1200N FG VV002 16/15 Q1020 BECMG 0800 FG
ZJHK,2016-02-19 05:00,ZJHK 190500Z 01003MPS 330V060 0200 R09/0700U FG VV002 16/15 Q1019 NOSIG
ZJHK,2016-02-19 06:00,ZJHK 190600Z 03003MPS 350V070 0200 R09/0800V1200N FG VV002 16/15 Q1018 NOSIG
ZJHK,2016-02-19 07:00,ZJHK 190700Z 01004MPS 340V040 0200 R09/0800V1100N FG VV002 16/15 Q1017 NOSIG
ZJHK,2016-02-19 08:00,ZJHK 190800Z 02005MPS 0400 R09/1000N FG VV002 15/14 Q1017 NOSIG
ZJHK,2016-02-19 09:00,ZJHK 190900Z 02005MPS 0600 R09/1400N FG VV002 15/14 Q1016 BECMG TL1050 0800 FG
ZJHK,2016-02-19 10:00,ZJHK 191000Z 02006MPS 0600 R09/P2000 FG VV002 14/13 Q1017 BECMG TL1150 0800 FG
ZJHK,2016-02-19 11:00,ZJHK 191100Z 02004MPS 350V050 0900 R09/P2000 -RA FG VV002 14/13 Q1018 BECMG TL1250 1500 BR
ZJHK,2016-02-19 12:00,ZJHK 191200Z 01004MPS 1600 -RA BR BKN003 OVC020 14/13 Q1018 BECMG TL1350 3000 BR BKN005
ZJHK,2016-02-19 13:00,ZJHK 191300Z 01004MPS 5000 -RA BR BKN004 OVC020 15/13 Q1019 BECMG BKN005
ZJHK,2016-02-19 14:00,ZJHK 191400Z 03005MPS 4500 -RA BR BKN004 OVC020 15/13 Q1020 NOSIG
ZJHK,2016-02-19 15:00,ZJHK 191500Z 02005MPS 4500 -RA BR BKN004 OVC020 15/13 Q1021 NOSIG
ZJHK,2016-02-19 16:00,ZJHK 191600Z 03005MPS 4500 -RA BR BKN004 OVC020 14/13 Q1022 NOSIG
ZJHK,2016-02-19 17:00,ZJHK 191700Z 02005MPS 350V050 6000 -RA BKN004 OVC020 14/13 Q1022 NOSIG
ZJHK,2016-02-19 18:00,ZJHK 191800Z 02005MPS 8000 -RA BKN005 OVC020 14/13 Q1022 NOSIG
ZJHK,2016-02-19 19:00,ZJHK 191900Z 03004MPS 5000 -RA BR BKN005 OVC020 14/13 Q1022 NOSIG
ZJHK,2016-02-19 20:00,ZJHK 192000Z 04003MPS 9999 BKN009 OVC023 14/12 Q1021 NOSIG
ZJHK,2016-02-19 21:00,ZJHK 192100Z 03005MPS 9999 BKN009 OVC023 14/12 Q1022 NOSIG
ZJHK,2016-02-19 22:00,ZJHK 192200Z 03004MPS 360V060 6000 -RA BKN012 OVC023 14/12 Q1022 NOSIG
ZJHK,2016-02-19 23:00,ZJHK 192300Z 04005MPS 8000 SCT015 OVC033 14/11 Q1023 NOSIG
ZJHK,2016-02-20 00:00,ZJHK 200000Z 03006MPS 9000 SCT015 OVC033 14/10 Q1024 NOSIG
ZJHK,2016-02-20 01:00,ZJHK 200100Z 04005MPS 9000 SCT015 OVC033 15/10 Q1024 NOSIG
ZJHK,2016-02-20 02:00,ZJHK 200200Z 03006MPS 9000 SCT025 OVC033 16/10 Q1025 NOSIG
ZJHK,2016-02-20 03:00,ZJHK 200300Z 04006MPS 9000 OVC040 17/09 Q1025 NOSIG
ZJHK,2016-02-20 04:00,ZJHK 200400Z 02008MPS 350V050 9000 OVC046 16/09 Q1025 NOSIG
ZJHK,2016-02-20 05:00,ZJHK 200500Z 02007MPS 350V050 9999 OVC046 17/08 Q1023 NOSIG
ZJHK,2016-02-20 06:00,ZJHK 200600Z 02007MPS 360V060 9999 SCT046 18/08 Q1022 NOSIG
ZJHK,2016-02-20 07:00,ZJHK 200700Z 03005MPS 360V080 9999 BKN046 17/08 Q1021 NOSIG
ZJHK,2016-02-20 08:00,ZJHK 200800Z 05006MPS 9999 FEW046 18/06 Q1021 NOSIG
ZJHK,2016-02-20 09:00,ZJHK 200900Z 05005MPS 9999 FEW046 17/06 Q1021 NOSIG
ZJHK,2016-02-20 10:00,ZJHK 201000Z 05004MPS CAVOK 16/07 Q1022 NOSIG
ZJHK,2016-02-20 11:00,ZJHK 201100Z 03003MPS CAVOK 16/08 Q1022 NOSIG
ZJHK,2016-02-20 12:00,ZJHK 201200Z 04003MPS 010V070 CAVOK 16/07 Q1022 NOSIG
ZJHK,2016-02-20 13:00,ZJHK 201300Z 01002MPS CAVOK 16/08 Q1023 NOSIG
ZJHK,2016-02-20 14:00,ZJHK 201400Z 03002MPS 010V070 CAVOK 16/08 Q1023 NOSIG
ZJHK,2016-02-20 15:00,ZJHK 201500Z 36002MPS 9999 SCT033 16/09 Q1023 NOSIG
ZJHK,2016-02-20 16:00,ZJHK 201600Z 06003MPS CAVOK 16/10 Q1022 NOSIG
ZJHK,2016-02-20 17:00,ZJHK 201700Z 00000MPS CAVOK 15/11 Q1022 NOSIG
ZJHK,2016-02-20 18:00,ZJHK 201800Z 35001MPS 9999 BKN030 15/11 Q1021 NOSIG
ZJHK,2016-02-20 19:00,ZJHK 201900Z 02001MPS 9999 BKN030 16/12 Q1020 NOSIG
ZJHK,2016-02-20 20:00,ZJHK 202000Z 36001MPS 9999 BKN026 16/12 Q1020 NOSIG
ZJHK,2016-02-20 21:00,ZJHK 202100Z 01003MPS 9999 BKN023 OVC040 16/12 Q1019 NOSIG
ZJHK,2016-02-20 22:00,ZJHK 202200Z 04003MPS 8000 -RA BKN018 OVC030 15/12 Q1019 NOSIG
ZJHK,2016-02-20 23:00,ZJHK 202300Z 08004MPS 5000 BR BKN006 OVC020 15/13 Q1019 BECMG BKN010 OVC026
ZJHK,2016-02-21 00:00,ZJHK 210000Z 06004MPS 5000 BR BKN005 OVC020 16/14 Q1020 NOSIG
ZJHK,2016-02-21 01:00,ZJHK 210100Z 06003MPS 030V090 5000 BR BKN005 OVC020 17/14 Q1021 NOSIG
ZJHK,2016-02-21 02:00,ZJHK 210200Z 09003MPS 6000 BKN006 OVC020 18/15 Q1021 NOSIG
ZJHK,2016-02-21 03:00,ZJHK 210300Z 10004MPS 080V140 9999 BKN013 OVC030 19/16 Q1021 BECMG BKN015 OVC040
ZJHK,2016-02-21 04:00,ZJHK 210400Z 11004MPS 9999 BKN020 OVC040 20/15 Q1020 NOSIG
ZJHK,2016-02-21 05:00,ZJHK 210500Z 10003MPS 9999 BKN020 OVC040 20/16 Q1019 NOSIG
ZJHK,2016-02-21 06:00,ZJHK 210600Z 11003MPS 3000 -RA BR BKN013 OVC030 19/16 Q1018 BECMG BKN007 OVC025
ZJHK,2016-02-21 07:00,ZJHK 210700Z 10003MPS 8000 BKN013 OVC030 19/17 Q1017 NOSIG
ZJHK,2016-02-21 08:00,ZJHK 210800Z 13002MPS 4000 BR BKN013 OVC030 19/17 Q1016 BECMG BKN007 OVC030
ZJHK,2016-02-21 09:00,ZJHK 210900Z 10002MPS 5000 BR BKN010 OVC030 19/17 Q1016 BECMG TL1000 BKN007 OVC026
ZJHK,2016-02-21 10:00,ZJHK 211000Z 09002MPS 5000 BR FEW026 BKN040 19/18 Q1017 NOSIG
ZJHK,2016-02-21 11:00,ZJHK 211100Z 10002MPS 5000 BR FEW026 BKN046 19/17 Q1017 NOSIG
ZJHK,2016-02-21 12:00,ZJHK 211200Z 11002MPS 5000 BR BKN046 19/17 Q1017 NOSIG
ZJHK,2016-02-21 13:00,ZJHK 211300Z 11002MPS 5000 BR NSC 18/17 Q1018 NOSIG
ZJHK,2016-02-21 14:00,ZJHK 211400Z 11002MPS 4000 BR NSC 19/17 Q1018 NOSIG
ZJHK,2016-02-21 15:00,ZJHK 211500Z 13002MPS 4000 BR FEW008 BKN046 19/17 Q1018 NOSIG
ZJHK,2016-02-21 16:00,ZJHK 211600Z 14002MPS 4000 BR FEW023 19/17 Q1018 NOSIG
ZJHK,2016-02-21 17:00,ZJHK 211700Z 12003MPS 090V150 5000 BR SCT033 19/17 Q1018 NOSIG
ZJHK,2016-02-21 18:00,ZJHK 211800Z 12003MPS 7000 BKN040 19/18 Q1018 NOSIG
ZJHK,2016-02-21 19:00,ZJHK 211900Z 12002MPS 6000 NSC 19/17 Q1017 NOSIG
ZJHK,2016-02-21 20:00,ZJHK 212000Z 16002MPS 3000 BR SCT004 19/18 Q1016 NOSIG
ZJHK,2016-02-21 21:00,ZJHK 212100Z 13003MPS 2000 BR BKN003 19/18 Q1016 NOSIG
ZJHK,2016-02-21 22:00,ZJHK 212200Z 12002MPS 2500 BR BKN003 19/18 Q1017 BECMG AT2350 3000 BR
ZJHK,2016-02-21 23:00,ZJHK 212300Z 11002MPS 3500 BR BKN005 OVC020 19/19 Q1017 BECMG AT0050 BKN010 OVC030
ZJHK,2016-02-22 00:00,ZJHK 220000Z 12002MPS 5000 BR SCT009 19/18 Q1018 NOSIG
ZJHK,2016-02-22 01:00,ZJHK 220100Z 11002MPS 070V140 8000 SCT009 20/18 Q1019 NOSIG
ZJHK,2016-02-22 02:00,ZJHK 220200Z 13003MPS 090V160 9999 SCT010 SCT020 23/18 Q1020 NOSIG
ZJHK,2016-02-22 03:00,ZJHK 220300Z 12004MPS 9999 SCT020 SCT026 23/18 Q1020 NOSIG
ZJHK,2016-02-22 04:00,ZJHK 220400Z 14003MPS 070V170 9999 SCT020 BKN033 24/18 Q1019 NOSIG
ZJHK,2016-02-22 05:00,ZJHK 220500Z 06003MPS 320V120 9999 SCT023 BKN040 23/18 Q1018 NOSIG
ZJHK,2016-02-22 06:00,ZJHK 220600Z 01004MPS 340V040 8000 SCT023 BKN040 20/18 Q1017 NOSIG
ZJHK,2016-02-22 07:00,ZJHK 220700Z 03004MPS 350V060 8000 BKN046 21/18 Q1016 NOSIG
ZJHK,2016-02-22 08:00,ZJHK 220800Z 35003MPS 320V060 8000 SCT023 BKN046 21/18 Q1016 NOSIG
ZJHK,2016-02-22 09:00,ZJHK 220900Z 35003MPS 300V030 8000 SCT023 BKN046 20/17 Q1016 NOSIG
ZJHK,2016-02-22 10:00,ZJHK 221000Z 01002MPS 330V060 4000 BR SCT016 BKN046 20/18 Q1016 BECMG 2000 BR BKN010 OVC030
ZJHK,2016-02-22 11:00,ZJHK 221100Z 28001MPS 4000 BR SCT016 BKN046 19/18 Q1017 NOSIG
ZJHK,2016-02-22 12:00,ZJHK 221200Z 15001MPS 6000 FEW016 BKN046 19/18 Q1017 BECMG 2000 BR
ZJHK,2016-02-22 13:00,ZJHK 221300Z 11001MPS CAVOK 20/18 Q1018 NOSIG
ZJHK,2016-02-22 14:00,ZJHK 221400Z 11002MPS 8000 NSC 20/18 Q1019 NOSIG
ZJHK,2016-02-22 15:00,ZJHK 221500Z 09002MPS 4000 BR SCT010 20/19 Q1019 BECMG 2000 BR BKN007 OVC030
ZJHK,2016-02-22 16:00,ZJHK 221600Z 35002MPS 3000 BR BKN006 BKN026 18/17 Q1019 BECMG 1000 BR BKN004 OVC025
ZJHK,2016-02-22 17:00,ZJHK 221700Z 36002MPS 0800 R09/1400D FG BKN002 BKN026 17/16 Q1019 BECMG 0600 FG
ZJHK,2016-02-22 18:00,ZJHK 221800Z 33001MPS 0600 R09/0750V1100D FG BKN002 BKN026 17/17 Q1019 NOSIG
ZJHK,2016-02-22 19:00,ZJHK 221900Z 06003MPS 0600 R09/0900N FG VV001 18/18 Q1018 NOSIG
ZJHK,2016-02-22 20:00,ZJHK 222000Z 06004MPS 0600 R09/0750N FG VV001 18/17 Q1018 NOSIG
ZJHK,2016-02-22 21:00,ZJHK 222100Z 07004MPS 0400 R09/0800N FG VV001 17/17 Q1018 NOSIG
ZJHK,2016-02-22 22:00,ZJHK 222200Z 05004MPS 0400 R09/1000N FG VV001 17/17 Q1019 NOSIG
ZJHK,2016-02-22 23:00,ZJHK 222300Z 06004MPS 0600 R09/1200U -RA FG VV001 17/16 Q1019 NOSIG
ZJHK,2016-02-23 00:00,ZJHK 230000Z 07004MPS 0300 R09/0750V1400D FG VV001 17/17 Q1019 NOSIG
ZJHK,2016-02-23 01:00,ZJHK 230100Z 06004MPS 0300 R09/0800N FG VV002 17/17 Q1021 BECMG TL0200 0600 FG
ZJHK,2016-02-23 02:00,ZJHK 230200Z 05004MPS 0300 R09/0800 FG VV002 17/17 Q1021 BECMG TL0300 0800 FG
ZJHK,2016-02-23 03:00,ZJHK 230300Z 07004MPS 0800 R09/1000N FG VV003 17/17 Q1021 BECMG 1500 BR -RA
ZJHK,2016-02-23 04:00,ZJHK 230400Z 02004MPS 350V070 0800 R09/1000V1400N FG OVC003 17/16 Q1021 BECMG 1500 BR
ZJHK,2016-02-23 05:00,ZJHK 230500Z 02004MPS 0500 R09/1100N DZ FG VV003 16/16 Q1020 BECMG 1000 BR -RA
ZJHK,2016-02-23 06:00,ZJHK 230600Z 02005MPS 0800 R09/P2000 -RA FG BKN003 OVC015 15/15 Q1020 BECMG 1500 BR -RA
ZJHK,2016-02-23 07:00,ZJHK 230700Z 02006MPS 1000 R09/P2000 -RA BR BKN003 OVC015 15/15 Q1019 BECMG 1500 BR -RA
ZJHK,2016-02-23 08:00,ZJHK 230800Z 03005MPS 2000 BR BKN004 OVC015 15/14 Q1019 BECMG 3000 BR BKN005 OVC020
ZJHK,2016-02-23 09:00,ZJHK 230900Z 04005MPS 010V070 3000 -RA BR BKN005 OVC020 15/14 Q1019 NOSIG
ZJHK,2016-02-23 10:00,ZJHK 231000Z 04005MPS 3500 -RA BR BKN005 OVC020 15/14 Q1020 NOSIG
ZJHK,2016-02-23 11:00,ZJHK 231100Z 04005MPS 5000 BR BKN005 OVC020 14/14 Q1021 NOSIG
ZJHK,2016-02-23 12:00,ZJHK 231200Z 03006MPS 360V060 5000 -RA BR BKN005 OVC020 14/14 Q1021 NOSIG
ZJHK,2016-02-23 13:00,ZJHK 231300Z 03004MPS 4000 -RA BR BKN005 OVC020 14/14 Q1022 NOSIG
ZJHK,2016-02-23 14:00,ZJHK 231400Z 03006MPS 4000 -RA BR BKN005 OVC016 14/14 Q1023 NOSIG
ZJHK,2016-02-23 15:00,ZJHK 231500Z 05005MPS 4000 -RA BR BKN005 OVC016 14/13 Q1023 NOSIG
ZJHK,2016-02-23 16:00,ZJHK 231600Z 04005MPS 4000 -RA BR BKN005 OVC016 14/13 Q1024 NOSIG
ZJHK,2016-02-23 17:00,ZJHK 231700Z 03004MPS 3500 -RA BR BKN005 OVC016 14/13 Q1024 NOSIG
ZJHK,2016-02-23 18:00,ZJHK 231800Z 03004MPS 4000 -RA BR BKN005 OVC016 13/13 Q1024 NOSIG
ZJHK,2016-02-23 19:00,ZJHK 231900Z 03006MPS 4000 -RA BR BKN005 OVC016 13/13 Q1023 NOSIG
ZJHK,2016-02-23 20:00,ZJHK 232000Z 03006MPS 4000 -RA BR BKN005 OVC016 13/12 Q1023 NOSIG
ZJHK,2016-02-23 21:00,ZJHK 232100Z 03007MPS 5000 -RA BR BKN005 OVC020 12/12 Q1023 NOSIG
ZJHK,2016-02-23 22:00,ZJHK 232200Z 04005MPS 8000 -RA BKN005 OVC020 12/12 Q1024 NOSIG
ZJHK,2016-02-23 23:00,ZJHK 232300Z 03006MPS 7000 -RA BKN005 OVC020 12/12 Q1025 NOSIG
ZJHK,2016-02-24 00:00,ZJHK 240000Z 03006MPS 360V060 8000 -RA BKN005 OVC020 12/12 Q1026 NOSIG
ZJHK,2016-02-24 01:00,ZJHK 240100Z 03006MPS 6000 -RA BKN006 OVC020 12/12 Q1027 NOSIG
ZJHK,2016-02-24 02:00,ZJHK 240200Z 03006MPS 3000 -RA BR BKN005 OVC020 12/12 Q1027 NOSIG
ZJHK,2016-02-24 03:00,ZJHK 240300Z 03006MPS 5000 BR BKN007 OVC020 12/12 Q1028 NOSIG
ZJHK,2016-02-24 04:00,ZJHK 240400Z 02006MPS 3500 -RA BR BKN006 OVC020 12/11 Q1027 NOSIG
ZJHK,2016-02-24 05:00,ZJHK 240500Z 02006MPS 3500 -RA BR BKN006 OVC020 12/11 Q1026 NOSIG
ZJHK,2016-02-24 06:00,ZJHK 240600Z 02006MPS 3000 -RA BR BKN006 OVC020 12/11 Q1026 NOSIG
ZJHK,2016-02-24 07:00,ZJHK 240700Z 02005MPS 2500 -RA BR BKN005 OVC020 12/11 Q1026 BECMG AT0850 3000 -RA BR
ZJHK,2016-02-24 08:00,ZJHK 240800Z 02005MPS 4000 -RA BR BKN006 OVC020 11/11 Q1025 NOSIG
ZJHK,2016-02-24 09:00,ZJHK 240900Z 02005MPS 6000 BKN008 OVC020 11/10 Q1026 BECMG BKN012 OVC026
ZJHK,2016-02-24 10:00,ZJHK 241000Z 03006MPS 7000 BKN013 OVC020 11/10 Q1026 NOSIG
ZJHK,2016-02-24 11:00,ZJHK 241100Z 02005MPS 6000 BKN013 OVC020 11/10 Q1027 NOSIG
ZJHK,2016-02-24 12:00,ZJHK 241200Z 03005MPS 7000 BKN013 OVC020 12/10 Q1027 NOSIG
ZJHK,2016-02-24 13:00,ZJHK 241300Z 03005MPS 7000 BKN013 OVC020 12/10 Q1028 NOSIG
ZJHK,2016-02-24 14:00,ZJHK 241400Z 04005MPS 9999 BKN013 OVC020 12/10 Q1028 NOSIG
ZJHK,2016-02-24 15:00,ZJHK 241500Z 04005MPS 9999 BKN013 OVC020 12/10 Q1028 NOSIG
ZJHK,2016-02-24 16:00,ZJHK 241600Z 04004MPS 010V070 9999 BKN013 OVC020 12/10 Q1028 NOSIG
ZJHK,2016-02-24 17:00,ZJHK 241700Z 03005MPS 9999 BKN013 OVC020 12/10 Q1028 NOSIG
ZJHK,2016-02-24 18:00,ZJHK 241800Z 03005MPS 4000 -RA BKN010 OVC020 12/11 Q1028 NOSIG
ZJHK,2016-02-24 19:00,ZJHK 241900Z 02004MPS 4000 -RA BKN010 OVC020 11/11 Q1027 NOSIG
ZJHK,2016-02-24 20:00,ZJHK 242000Z 02004MPS 6000 BKN010 OVC020 12/11 Q1027 NOSIG
ZJHK,2016-02-24 21:00,ZJHK 242100Z 02005MPS 6000 BKN013 OVC020 12/10 Q1027 NOSIG
ZJHK,2016-02-24 22:00,ZJHK 242200Z 04004MPS 6000 BKN013 OVC020 12/10 Q1027 NOSIG
ZJHK,2016-02-24 23:00,ZJHK 242300Z 04005MPS 7000 BKN013 OVC020 12/10 Q1028 NOSIG
ZJHK,2016-02-25 00:00,ZJHK 250000Z 03005MPS 6000 BKN010 OVC020 12/11 Q1028 NOSIG
ZJHK,2016-02-25 01:00,ZJHK 250100Z 03005MPS 5000 BR BKN010 OVC020 12/11 Q1029 NOSIG
ZJHK,2016-02-25 02:00,ZJHK 250200Z 03005MPS 8000 BKN010 OVC023 13/11 Q1029 NOSIG
ZJHK,2016-02-25 03:00,ZJHK 250300Z 03006MPS 8000 BKN010 OVC023 13/12 Q1029 NOSIG
ZJHK,2016-02-25 04:00,ZJHK 250400Z 02006MPS 3000 -RA BR BKN008 OVC020 12/12 Q1029 NOSIG
ZJHK,2016-02-25 05:00,ZJHK 250500Z 02005MPS 350V050 5000 BR BKN010 OVC023 13/11 Q1028 NOSIG
ZJHK,2016-02-25 06:00,ZJHK 250600Z 02006MPS 6000 BKN010 OVC023 13/11 Q1027 NOSIG
ZJHK,2016-02-25 07:00,ZJHK 250700Z 04005MPS 6000 BKN010 OVC023 13/11 Q1026 NOSIG
ZJHK,2016-02-25 08:00,ZJHK 250800Z 03006MPS 5000 BR BKN009 OVC023 12/11 Q1026 NOSIG
ZJHK,2016-02-25 09:00,ZJHK 250900Z 02005MPS 340V050 3000 -RA BR BKN009 OVC023 12/11 Q1026 BECMG 2000 -RA BR
ZJHK,2016-02-25 10:00,ZJHK 251000Z 02006MPS 360V060 3000 -RA BR BKN009 OVC023 12/11 Q1026 NOSIG
ZJHK,2016-02-25 11:00,ZJHK 251100Z 03005MPS 3000 BR BKN007 OVC020 12/11 Q1027 NOSIG
ZJHK,2016-02-25 12:00,ZJHK 251200Z 03005MPS 4000 BR BKN007 OVC020 12/11 Q1027 NOSIG
ZJHK,2016-02-25 13:00,ZJHK 251300Z 03005MPS 5000 BR BKN007 OVC020 13/11 Q1028 BECMG BKN011 OVC026
ZJHK,2016-02-25 14:00,ZJHK 251400Z 03006MPS 6000 BKN011 OVC020 13/11 Q1028 NOSIG
ZJHK,2016-02-25 15:00,ZJHK 251500Z 02005MPS 6000 BKN011 OVC020 13/11 Q1029 NOSIG
ZJHK,2016-02-25 16:00,ZJHK 251600Z 03004MPS 3500 -RA BR BKN011 OVC020 12/11 Q1029 NOSIG
ZJHK,2016-02-25 17:00,ZJHK 251700Z 02005MPS 3500 -RA BR BKN011 OVC020 12/11 Q1028 NOSIG
ZJHK,2016-02-25 18:00,ZJHK 251800Z 02004MPS 350V050 4000 -RA BR BKN011 OVC020 12/11 Q1028 NOSIG
ZJHK,2016-02-25 19:00,ZJHK 251900Z 02004MPS 5000 BR BKN011 OVC020 12/11 Q1027 NOSIG
ZJHK,2016-02-25 20:00,ZJHK 252000Z 02004MPS 6000 BKN011 OVC020 12/11 Q1026 NOSIG
ZJHK,2016-02-25 21:00,ZJHK 252100Z 02004MPS 8000 BKN011 OVC020 12/11 Q1026 NOSIG
ZJHK,2016-02-25 22:00,ZJHK 252200Z 03003MPS 8000 BKN011 OVC020 12/11 Q1027 NOSIG
ZJHK,2016-02-25 23:00,ZJHK 252300Z 02005MPS 8000 BKN011 OVC020 12/11 Q1027 NOSIG
ZJHK,2016-02-26 00:00,ZJHK 260000Z 02004MPS 8000 BKN011 OVC020 12/11 Q1028 NOSIG
ZJHK,2016-02-26 01:00,ZJHK 260100Z 01004MPS 330V030 4000 -RA BR BKN008 OVC020 12/11 Q1028 NOSIG
ZJHK,2016-02-26 02:00,ZJHK 260200Z 36004MPS 330V040 2100 -RA BR BKN006 OVC020 12/11 Q1029 NOSIG
ZJHK,2016-02-26 03:00,ZJHK 260300Z 01004MPS 350V050 2100 -RA BR BKN005 OVC020 12/12 Q1029 NOSIG
ZJHK,2016-02-26 04:00,ZJHK 260400Z 34004MPS 310V020 3000 R09/1300D -RA BR BKN005 OVC020 12/11 Q1028 NOSIG
ZJHK,2016-02-26 05:00,ZJHK 260500Z 36004MPS 2300 -RA BR BKN005 OVC020 12/12 Q1027 BECMG 3000 BR
ZJHK,2016-02-26 06:00,ZJHK 260600Z 35003MPS 330V040 2300 -RA BR BKN005 OVC020 12/11 Q1026 BECMG 3000 BR
ZJHK,2016-02-26 07:00,ZJHK 260700Z 34003MPS 300V010 1800 R09/1400N -RA BR BKN005 OVC020 12/11 Q1026 BECMG 3000 BR
ZJHK,2016-02-26 08:00,ZJHK 260800Z 34003MPS 310V020 3000 -RA BR BKN007 OVC020 12/11 Q1025 NOSIG
ZJHK,2016-02-26 09:00,ZJHK 260900Z 35003MPS 320V030 4000 BR BKN010 OVC020 12/11 Q1025 NOSIG
ZJHK,2016-02-26 10:00,ZJHK 261000Z 36003MPS 330V050 5000 BR BKN013 OVC020 12/10 Q1026 NOSIG
ZJHK,2016-02-26 11:00,ZJHK 261100Z 02002MPS 340V060 6000 BKN014 OVC020 12/10 Q1026 NOSIG
ZJHK,2016-02-26 12:00,ZJHK 261200Z 02002MPS 8000 SCT016 OVC033 12/10 Q1026 NOSIG
ZJHK,2016-02-26 13:00,ZJHK 261300Z 34002MPS 300V030 8000 BKN011 OVC026 12/11 Q1027 NOSIG
ZJHK,2016-02-26 14:00,ZJHK 261400Z 33002MPS 300V060 8000 BKN011 OVC026 12/10 Q1028 NOSIG
ZJHK,2016-02-26 15:00,ZJHK 261500Z 31001MPS 8000 BKN013 OVC026 12/10 Q1027 NOSIG
ZJHK,2016-02-26 16:00,ZJHK 261600Z 30002MPS 8000 BKN013 OVC030 12/10 Q1027 NOSIG
ZJHK,2016-02-26 17:00,ZJHK 261700Z 31002MPS 7000 BKN013 OVC030 12/10 Q1026 NOSIG
ZJHK,2016-02-26 18:00,ZJHK 261800Z 34002MPS 290V020 7000 BKN010 OVC030 12/10 Q1026 NOSIG
ZJHK,2016-02-26 19:00,ZJHK 261900Z 35003MPS 8000 BKN010 OVC030 11/10 Q1025 NOSIG
ZJHK,2016-02-26 20:00,ZJHK 262000Z 34004MPS 8000 BKN010 OVC030 11/09 Q1025 NOSIG
ZJHK,2016-02-26 21:00,ZJHK 262100Z 34002MPS 310V020 8000 BKN010 OVC030 11/09 Q1025 NOSIG
ZJHK,2016-02-26 22:00,ZJHK 262200Z 33002MPS 8000 BKN010 OVC030 11/10 Q1025 NOSIG
ZJHK,2016-02-26 23:00,ZJHK 262300Z 30002MPS 8000 BKN010 OVC030 11/10 Q1026 NOSIG
ZJHK,2016-02-27 00:00,ZJHK 270000Z 30001MPS 8000 BKN010 BKN030 11/10 Q1026 NOSIG
ZJHK,2016-02-27 01:00,ZJHK 270100Z 19001MPS 8000 SCT010 BKN030 13/11 Q1026 NOSIG
ZJHK,2016-02-27 02:00,ZJHK 270200Z 34002MPS 9999 FEW012 14/11 Q1026 NOSIG
ZJHK,2016-02-27 03:00,ZJHK 270300Z 34003MPS 310V030 9999 SCT013 15/12 Q1026 NOSIG
ZJHK,2016-02-27 04:00,ZJHK 270400Z 02004MPS 340V050 8000 BKN012 BKN033 14/11 Q1025 NOSIG
ZJHK,2016-02-27 05:00,ZJHK 270500Z 36003MPS 330V040 8000 BKN012 BKN033 14/11 Q1025 NOSIG
ZJHK,2016-02-27 06:00,ZJHK 270600Z 02003MPS 330V060 8000 BKN013 BKN040 15/11 Q1023 NOSIG
ZJHK,2016-02-27 07:00,ZJHK 270700Z 08001MPS 9999 SCT015 BKN023 15/11 Q1023 NOSIG
ZJHK,2016-02-27 08:00,ZJHK 270800Z 36002MPS 9999 SCT015 BKN023 15/11 Q1022 NOSIG
ZJHK,2016-02-27 09:00,ZJHK 270900Z 03004MPS 9999 SCT016 BKN023 14/11 Q1022 NOSIG
ZJHK,2016-02-27 10:00,ZJHK 271000Z 03004MPS 360V060 7000 SCT015 OVC023 13/10 Q1023 NOSIG
ZJHK,2016-02-27 11:00,ZJHK 271100Z 05003MPS 020V080 7000 SCT015 OVC023 13/10 Q1023 NOSIG
ZJHK,2016-02-27 12:00,ZJHK 271200Z 07003MPS 040V100 8000 SCT015 OVC023 12/10 Q1023 NOSIG
ZJHK,2016-02-27 13:00,ZJHK 271300Z 09002MPS 060V120 8000 SCT015 OVC023 12/10 Q1024 NOSIG
ZJHK,2016-02-27 14:00,ZJHK 271400Z 19001MPS 5000 BR SCT020 11/09 Q1024 NOSIG
ZJHK,2016-02-27 15:00,ZJHK 271500Z 00000MPS 4000 BR SCT020 10/10 Q1024 NOSIG
ZJHK,2016-02-27 16:00,ZJHK 271600Z 21001MPS 4000 BR FEW020 09/08 Q1024 NOSIG
ZJHK,2016-02-27 17:00,ZJHK 271700Z 00000MPS 4000 BR FEW020 09/09 Q1024 NOSIG
ZJHK,2016-02-27 18:00,ZJHK 271800Z 34001MPS 4000 BR FEW020 10/09 Q1023 NOSIG
ZJHK,2016-02-27 19:00,ZJHK 271900Z 35001MPS 3500 BR BCFG FEW020 09/09 Q1023 NOSIG
ZJHK,2016-02-27 20:00,ZJHK 272000Z 00000MPS 3500 R09/0600V0900 BR BCFG NSC 09/09 Q1022 NOSIG
ZJHK,2016-02-27 21:00,ZJHK 272100Z 00000MPS 3500 R09/0300 BR BCFG NSC 08/07 Q1022 NOSIG
ZJHK,2016-02-27 22:00,ZJHK 272200Z 30001MPS 3500 BR BCFG NSC 09/08 Q1023 NOSIG
ZJHK,2016-02-27 23:00,ZJHK 272300Z 36001MPS 3000 BR BCFG SCT004 10/10 Q1023 NOSIG
ZJHK,2016-02-28 00:00,ZJHK 280000Z 01002MPS 3500 BR BCFG SCT005 11/10 Q1024 NOSIG
ZJHK,2016-02-28 01:00,ZJHK 280100Z 36002MPS 340V040 7000 SCT010 16/15 Q1025 BECMG AT0200 BKN012
ZJHK,2016-02-28 02:00,ZJHK 280200Z 02004MPS 350V050 9999 FEW013 19/15 Q1025 NOSIG
ZJHK,2016-02-28 03:00,ZJHK 280300Z 01004MPS 330V050 9999 SCT016 19/14 Q1026 NOSIG
ZJHK,2016-02-28 04:00,ZJHK 280400Z 01003MPS 300V050 9999 FEW016 19/13 Q1025 NOSIG
ZJHK,2016-02-28 05:00,ZJHK 280500Z 02003MPS 310V070 9999 FEW016 20/14 Q1024 NOSIG
ZJHK,2016-02-28 06:00,ZJHK 280600Z 36004MPS 310V050 9999 FEW016 20/14 Q1023 NOSIG
ZJHK,2016-02-28 07:00,ZJHK 280700Z 03003MPS 360V080 CAVOK 20/14 Q1022 NOSIG
ZJHK,2016-02-28 08:00,ZJHK 280800Z 01003MPS 340V050 CAVOK 20/14 Q1021 NOSIG
ZJHK,2016-02-28 09:00,ZJHK 280900Z 36004MPS 320V050 CAVOK 20/14 Q1022 NOSIG
ZJHK,2016-02-28 10:00,ZJHK 281000Z 02005MPS CAVOK 18/12 Q1022 NOSIG
ZJHK,2016-02-28 11:00,ZJHK 281100Z 02003MPS 340V070 CAVOK 16/13 Q1022 NOSIG
ZJHK,2016-02-28 12:00,ZJHK 281200Z 02002MPS 350V060 CAVOK 15/12 Q1023 NOSIG
ZJHK,2016-02-28 13:00,ZJHK 281300Z 03002MPS CAVOK 16/13 Q1024 NOSIG
ZJHK,2016-02-28 14:00,ZJHK 281400Z 36001MPS CAVOK 16/12 Q1024 NOSIG
ZJHK,2016-02-28 15:00,ZJHK 281500Z 00000MPS 8000 NSC 13/12 Q1024 NOSIG
ZJHK,2016-02-28 16:00,ZJHK 281600Z 00000MPS 8000 NSC 14/13 Q1024 NOSIG
ZJHK,2016-02-28 17:00,ZJHK 281700Z 00000MPS 5000 BR BCFG NSC 13/12 Q1024 NOSIG
ZJHK,2016-02-28 18:00,ZJHK 281800Z 00000MPS 5000 BR BCFG NSC 12/12 Q1023 NOSIG
ZJHK,2016-02-28 19:00,ZJHK 281900Z 25001MPS 5000 BR NSC 12/12 Q1023 NOSIG
ZJHK,2016-02-28 20:00,ZJHK 282000Z 00000MPS 5000 BR NSC 13/13 Q1023 NOSIG
ZJHK,2016-02-28 21:00,ZJHK 282100Z 27001MPS 5000 BR NSC 12/11 Q1022 NOSIG
ZJHK,2016-02-28 22:00,ZJHK 282200Z 27001MPS 4000 R09/0650 BR BCFG NSC 11/11 Q1023 NOSIG
ZJHK,2016-02-28 23:00,ZJHK 282300Z 34001MPS 5000 BR NSC 12/11 Q1023 NOSIG
ZJHK,2016-02-29 00:00,ZJHK 290000Z 20001MPS 5000 BR NSC 14/13 Q1024 NOSIG
ZJHK,2016-02-29 01:00,ZJHK 290100Z 36001MPS 8000 NSC 18/13 Q1025 NOSIG
ZJHK,2016-02-29 02:00,ZJHK 290200Z 02004MPS CAVOK 20/12 Q1025 NOSIG
ZJHK,2016-02-29 03:00,ZJHK 290300Z 02005MPS 350V060 CAVOK 21/11 Q1025 NOSIG
ZJHK,2016-02-29 04:00,ZJHK 290400Z 02004MPS 350V060 CAVOK 22/11 Q1025 NOSIG
ZJHK,2016-02-29 05:00,ZJHK 290500Z 03005MPS CAVOK 21/08 Q1024 NOSIG
ZJHK,2016-02-29 06:00,ZJHK 290600Z 04005MPS 010V070 CAVOK 23/11 Q1024 NOSIG
ZJHK,2016-02-29 07:00,ZJHK 290700Z 03005MPS 350V070 CAVOK 22/08 Q1023 NOSIG
ZJHK,2016-02-29 08:00,ZJHK 290800Z 02004MPS 350V050 CAVOK 21/08 Q1022 NOSIG
ZJHK,2016-02-29 09:00,ZJHK 290900Z 03005MPS CAVOK 21/08 Q1022 NOSIG
ZJHK,2016-02-29 10:00,ZJHK 291000Z 03003MPS 360V070 CAVOK 19/09 Q1023 NOSIG
ZJHK,2016-02-29 11:00,ZJHK 291100Z 07004MPS CAVOK 16/09 Q1023 NOSIG
ZJHK,2016-02-29 12:00,ZJHK 291200Z 09002MPS CAVOK 15/09 Q1023 NOSIG
ZJHK,2016-02-29 13:00,ZJHK 291300Z 07002MPS CAVOK 14/10 Q1024 NOSIG
ZJHK,2016-02-29 14:00,ZJHK 291400Z 36001MPS CAVOK 15/10 Q1025 NOSIG
ZJHK,2016-02-29 15:00,ZJHK 291500Z 10001MPS 8000 NSC 12/10 Q1024 NOSIG
ZJHK,2016-02-29 16:00,ZJHK 291600Z 12001MPS 8000 NSC 12/10 Q1024 NOSIG
ZJHK,2016-02-29 17:00,ZJHK 291700Z 21001MPS 4000 BR NSC 11/10 Q1024 NOSIG
ZJHK,2016-02-29 18:00,ZJHK 291800Z 21001MPS 3000 BR BCFG NSC 11/10 Q1023 NOSIG
ZJHK,2016-02-29 19:00,ZJHK 291900Z 19001MPS 3000 BR BCFG NSC 11/11 Q1022 NOSIG
ZJHK,2016-02-29 20:00,ZJHK 292000Z 26001MPS 3000 BR BCFG NSC 10/09 Q1022 NOSIG
ZJHK,2016-02-29 21:00,ZJHK 292100Z 00000MPS 3000 BR BCFG NSC 10/10 Q1022 NOSIG
ZJHK,2016-02-29 22:00,ZJHK 292200Z 24001MPS 3000 BR BCFG NSC 10/09 Q1022 NOSIG
ZJHK,2016-02-29 23:00,ZJHK 292300Z 00000MPS 3000 BR BCFG NSC 10/10 Q1023 NOSIG
ZJHK,2016-03-01 00:00,ZJHK 010000Z 01001MPS 3000 BR BCFG BKN020 14/13 Q1023 NOSIG
ZJHK,2016-03-01 01:00,ZJHK 010100Z 02002MPS 350V050 6000 SCT023 17/16 Q1024 NOSIG
ZJHK,2016-03-01 02:00,ZJHK 010200Z 04004MPS 350V070 7000 SCT016 19/16 Q1024 NOSIG
ZJHK,2016-03-01 03:00,ZJHK 010300Z 06007MPS 7000 FEW020 SCT030 20/15 Q1024 NOSIG
ZJHK,2016-03-01 04:00,ZJHK 010400Z 07008MPS 9999 FEW023 BKN040 21/14 Q1023 NOSIG
ZJHK,2016-03-01 05:00,ZJHK 010500Z 07008MPS 9999 SCT030 21/14 Q1022 NOSIG
ZJHK,2016-03-01 06:00,ZJHK 010600Z 06009MPS 9999 SCT030 21/14 Q1021 NOSIG
ZJHK,2016-03-01 07:00,ZJHK 010700Z 07008MPS 9999 SCT030 20/14 Q1021 NOSIG
ZJHK,2016-03-01 08:00,ZJHK 010800Z 06007MPS 9999 BKN030 19/14 Q1021 NOSIG
ZJHK,2016-03-01 09:00,ZJHK 010900Z 07007MPS 8000 BKN023 BKN040 19/14 Q1020 NOSIG
ZJHK,2016-03-01 10:00,ZJHK 011000Z 07006MPS 8000 BKN023 OVC040 18/14 Q1021 NOSIG
ZJHK,2016-03-01 11:00,ZJHK 011100Z 07006MPS 8000 NSC 18/14 Q1021 NOSIG
ZJHK,2016-03-01 12:00,ZJHK 011200Z 07004MPS 8000 NSC 17/14 Q1022 NOSIG
ZJHK,2016-03-01 13:00,ZJHK 011300Z 09003MPS 8000 NSC 16/14 Q1022 NOSIG
ZJHK,2016-03-01 14:00,ZJHK 011400Z 08003MPS 8000 NSC 16/14 Q1022 NOSIG
ZJHK,2016-03-01 15:00,ZJHK 011500Z 08004MPS 8000 NSC 16/15 Q1022 NOSIG
ZJHK,2016-03-01 16:00,ZJHK 011600Z 09002MPS 8000 NSC 16/15 Q1022 NOSIG
ZJHK,2016-03-01 17:00,ZJHK 011700Z 09002MPS 6000 NSC 15/15 Q1021 NOSIG
ZJHK,2016-03-01 18:00,ZJHK 011800Z 36001MPS 5000 BR NSC 15/15 Q1021 NOSIG
ZJHK,2016-03-01 19:00,ZJHK 011900Z 19001MPS 5000 BR BKN046 15/15 Q1020 NOSIG
ZJHK,2016-03-01 20:00,ZJHK 012000Z 00000MPS 5000 R09/0375V0650 BR BCFG BKN046 14/14 Q1020 NOSIG
ZJHK,2016-03-01 21:00,ZJHK 012100Z 28001MPS 5000 BR BCFG NSC 13/13 Q1020 NOSIG
ZJHK,2016-03-01 22:00,ZJHK 012200Z 03001MPS 5000 BR NSC 14/14 Q1021 NOSIG
ZJHK,2016-03-01 23:00,ZJHK 012300Z 02001MPS 3000 BR BKN033 15/15 Q1022 NOSIG
ZJHK,2016-03-02 00:00,ZJHK 020000Z 01001MPS 3000 BR BKN023 16/16 Q1022 NOSIG
ZJHK,2016-03-02 01:00,ZJHK 020100Z 06003MPS 6000 FEW016 18/17 Q1023 NOSIG
ZJHK,2016-03-02 02:00,ZJHK 020200Z 08005MPS 9999 BKN016 SCT033 20/16 Q1023 NOSIG
ZJHK,2016-03-02 03:00,ZJHK 020300Z 06005MPS 9999 BKN016 SCT033 21/16 Q1023 NOSIG
ZJHK,2016-03-02 04:00,ZJHK 020400Z 06006MPS 9999 BKN020 SCT033 20/16 Q1023 NOSIG
ZJHK,2016-03-02 05:00,ZJHK 020500Z 06006MPS 030V090 9999 SCT020 BKN040 21/16 Q1022 NOSIG
ZJHK,2016-03-02 06:00,ZJHK 020600Z 06006MPS 9999 SCT020 BKN033 21/16 Q1021 NOSIG
ZJHK,2016-03-02 07:00,ZJHK 020700Z 06005MPS 9999 SCT023 BKN033 20/15 Q1020 NOSIG
ZJHK,2016-03-02 08:00,ZJHK 020800Z 09006MPS 9999 SCT023 BKN033 21/15 Q1020 NOSIG
ZJHK,2016-03-02 09:00,ZJHK 020900Z 07005MPS 9999 SCT023 BKN033 21/15 Q1020 NOSIG
ZJHK,2016-03-02 10:00,ZJHK 021000Z 07005MPS 9999 SCT033 20/15 Q1020 NOSIG
ZJHK,2016-03-02 11:00,ZJHK 021100Z 08005MPS 9999 FEW033 18/14 Q1020 NOSIG
ZJHK,2016-03-02 12:00,ZJHK 021200Z 09003MPS CAVOK 17/14 Q1021 NOSIG
ZJHK,2016-03-02 13:00,ZJHK 021300Z 11002MPS CAVOK 16/14 Q1021 NOSIG
ZJHK,2016-03-02 14:00,ZJHK 021400Z 00000MPS 8000 NSC 14/13 Q1022 NOSIG
ZJHK,2016-03-02 15:00,ZJHK 021500Z 09001MPS 8000 NSC 14/13 Q1022 NOSIG
ZJHK,2016-03-02 16:00,ZJHK 021600Z 10001MPS 6000 FEW016 14/13 Q1021 NOSIG
ZJHK,2016-03-02 17:00,ZJHK 021700Z 03001MPS 6000 FEW016 15/14 Q1021 NOSIG
ZJHK,2016-03-02 18:00,ZJHK 021800Z 10002MPS 6000 FEW016 15/14 Q1020 NOSIG
ZJHK,2016-03-02 19:00,ZJHK 021900Z 11002MPS 6000 NSC 14/14 Q1019 NOSIG
ZJHK,2016-03-02 20:00,ZJHK 022000Z 10001MPS 3500 R09/0325 BR BCFG NSC 13/13 Q1019 NOSIG
ZJHK,2016-03-02 21:00,ZJHK 022100Z 00000MPS 0600 R09/0225N FG NSC 12/11 Q1020 NOSIG
ZJHK,2016-03-02 22:00,ZJHK 022200Z 00000MPS 0900 R09/0450U FG FEW001 SCT016 13/13 Q1020 BECMG FM2330 1500 BR
ZJHK,2016-03-02 23:00,ZJHK 022300Z 09001MPS 1600 R09/0600U BR BCFG FEW003 SCT016 14/14 Q1020 BECMG TL2350 3000 BR
ZJHK,2016-03-03 00:00,ZJHK 030000Z 02002MPS 1800 BR BCFG SCT003 SCT016 16/16 Q1021 BECMG TL0100 3000 BR
ZJHK,2016-03-03 01:00,ZJHK 030100Z 04002MPS 3500 BR SCT016 17/17 Q1022 NOSIG
ZJHK,2016-03-03 02:00,ZJHK 030200Z 01002MPS 6000 BKN013 19/17 Q1022 NOSIG
ZJHK,2016-03-03 03:00,ZJHK 030300Z 13002MPS 9999 BKN016 22/16 Q1022 NOSIG
ZJHK,2016-03-03 04:00,ZJHK 030400Z 01004MPS 340V040 9999 SCT023 21/17 Q1021 NOSIG
ZJHK,2016-03-03 05:00,ZJHK 030500Z 02003MPS 310V060 9999 BKN020 22/17 Q1020 NOSIG
ZJHK,2016-03-03 06:00,ZJHK 030600Z 02004MPS 330V080 9999 SCT020 22/17 Q1018 NOSIG
ZJHK,2016-03-03 07:00,ZJHK 030700Z 06005MPS 040V100 9999 FEW020 23/17 Q1017 NOSIG
ZJHK,2016-03-03 08:00,ZJHK 030800Z 06005MPS 020V090 CAVOK 22/17 Q1017 NOSIG
ZJHK,2016-03-03 09:00,ZJHK 030900Z 08006MPS CAVOK 22/17 Q1017 NOSIG
ZJHK,2016-03-03 10:00,ZJHK 031000Z 07005MPS CAVOK 20/17 Q1017 NOSIG
ZJHK,2016-03-03 11:00,ZJHK 031100Z 09004MPS CAVOK 19/16 Q1017 NOSIG
ZJHK,2016-03-03 12:00,ZJHK 031200Z 09003MPS CAVOK 18/16 Q1018 NOSIG
ZJHK,2016-03-03 13:00,ZJHK 031300Z 10002MPS CAVOK 17/16 Q1018 NOSIG
ZJHK,2016-03-03 14:00,ZJHK 031400Z 10001MPS 6000 FEW015 17/16 Q1019 NOSIG
ZJHK,2016-03-03 15:00,ZJHK 031500Z 01002MPS 5000 BR SCT015 17/16 Q1019 NOSIG
ZJHK,2016-03-03 16:00,ZJHK 031600Z 07001MPS 3000 BR SCT005 17/16 Q1019 BECMG 1000 BR
ZJHK,2016-03-03 17:00,ZJHK 031700Z 10001MPS 2000 BR SCT005 17/16 Q1018 BECMG 0700 FG
ZJHK,2016-03-03 18:00,ZJHK 031800Z 10001MPS 2000 BR BKN004 BKN046 16/16 Q1017 BECMG 0700 FG
ZJHK,2016-03-03 19:00,ZJHK 031900Z 09002MPS 1700 BR OVC003 16/15 Q1016 NOSIG
ZJHK,2016-03-03 20:00,ZJHK 032000Z 00000MPS 0400 FG VV001 16/16 Q1016 NOSIG
ZJHK,2016-03-03 21:00,ZJHK 032100Z 00000MPS 0400 FG VV001 16/16 Q1017 NOSIG
ZJHK,2016-03-03 22:00,ZJHK 032200Z 13001MPS 0400 R27/0400N FG VV001 16/16 Q1017 BECMG AT2350 1600 BR BKN003
ZJHK,2016-03-03 23:00,ZJHK 032300Z 09001MPS 0400 R27/0375N FG VV002 16/16 Q1017 BECMG AT0010 1600 BR BKN006
ZJHK,2016-03-04 00:00,ZJHK 040000Z 10001MPS 0300 R27/0500 FG VV002 17/17 Q1017 BECMG AT0030 1600 BR BKN006
ZJHK,2016-03-04 01:00,ZJHK 040100Z 09002MPS 1600 BR OVC003 18/17 Q1018 BECMG AT0130 3000 BR BKN006
ZJHK,2016-03-04 02:00,ZJHK 040200Z 07002MPS 040V100 6000 BKN007 BKN020 18/18 Q1018 NOSIG
ZJHK,2016-03-04 03:00,ZJHK 040300Z 12003MPS 090V170 9999 BKN020 21/18 Q1018 NOSIG
ZJHK,2016-03-04 04:00,ZJHK 040400Z 09003MPS 040V180 9999 BKN023 23/17 Q1017 NOSIG
ZJHK,2016-03-04 05:00,ZJHK 040500Z 14003MPS 110V170 9999 BKN023 23/17 Q1016 NOSIG
ZJHK,2016-03-04 06:00,ZJHK 040600Z 36005MPS 9999 BKN026 21/17 Q1016 NOSIG
ZJHK,2016-03-04 07:00,ZJHK 040700Z 35004MPS 320V030 9000 BKN026 22/18 Q1015 NOSIG
ZJHK,2016-03-04 08:00,ZJHK 040800Z 36003MPS 340V050 9000 BKN026 23/18 Q1014 NOSIG
ZJHK,2016-03-04 09:00,ZJHK 040900Z 07005MPS CAVOK 23/18 Q1014 NOSIG
ZJHK,2016-03-04 10:00,ZJHK 041000Z 09005MPS CAVOK 22/17 Q1014 NOSIG
ZJHK,2016-03-04 11:00,ZJHK 041100Z 11003MPS CAVOK 21/16 Q1015 NOSIG
ZJHK,2016-03-04 12:00,ZJHK 041200Z 10003MPS 9999 FEW013 19/17 Q1015 NOSIG
ZJHK,2016-03-04 13:00,ZJHK 041300Z 09003MPS 9999 FEW013 19/18 Q1016 NOSIG
ZJHK,2016-03-04 14:00,ZJHK 041400Z 10003MPS 6000 SCT013 19/18 Q1016 NOSIG
ZJHK,2016-03-04 15:00,ZJHK 041500Z 09001MPS 4000 BR SCT011 18/18 Q1017 NOSIG
ZJHK,2016-03-04 16:00,ZJHK 041600Z 09001MPS 4000 BR BKN020 18/17 Q1016 NOSIG
ZJHK,2016-03-04 17:00,ZJHK 041700Z 08003MPS 4000 BR BKN023 18/18 Q1016 NOSIG
ZJHK,2016-03-04 18:00,ZJHK 041800Z 08002MPS 4500 BR SCT023 18/17 Q1016 NOSIG
ZJHK,2016-03-04 19:00,ZJHK 041900Z 09001MPS 0600 R09/0400D FG VV001 17/17 Q1015 NOSIG
ZJHK,2016-03-04 20:00,ZJHK 042000Z 11001MPS 0900 R09/0375N FG VV002 17/17 Q1015 NOSIG
ZJHK,2016-03-04 21:00,ZJHK 042100Z 09001MPS 0900 R09/0500 FG VV002 17/17 Q1015 NOSIG
ZJHK,2016-03-04 22:00,ZJHK 042200Z 07002MPS 0600 R09/P2000 FG VV002 18/17 Q1015 NOSIG
ZJHK,2016-03-04 23:00,ZJHK 042300Z 06003MPS 0600 R09/P2000 FG VV002 18/18 Q1016 BECMG 3000 BR
ZJHK,2016-03-05 00:00,ZJHK 050000Z 09003MPS 0600 R09/P2000 FG VV002 18/18 Q1016 NOSIG
ZJHK,2016-03-05 01:00,ZJHK 050100Z 11002MPS 6000 BKN006 BKN026 19/18 Q1017 BECMG TL0200 BKN015
ZJHK,2016-03-05 02:00,ZJHK 050200Z 08003MPS 050V120 9999 SCT009 BKN026 21/19 Q1017 NOSIG
ZJHK,2016-03-05 03:00,ZJHK 050300Z 10003MPS 070V140 9999 SCT015 BKN026 23/18 Q1017 NOSIG
ZJHK,2016-03-05 04:00,ZJHK 050400Z 13003MPS 080V160 9999 SCT016 BKN033 23/17 Q1016 NOSIG
ZJHK,2016-03-05 05:00,ZJHK 050500Z 36004MPS 340V040 9999 SCT020 BKN033 22/19 Q1015 NOSIG
ZJHK,2016-03-05 06:00,ZJHK 050600Z 36004MPS 9999 SCT020 BKN033 23/19 Q1014 NOSIG
ZJHK,2016-03-05 07:00,ZJHK 050700Z 01004MPS 340V050 9999 SCT030 23/19 Q1013 NOSIG
ZJHK,2016-03-05 08:00,ZJHK 050800Z 01004MPS 340V050 9999 SCT040 22/18 Q1013 NOSIG
ZJHK,2016-03-05 09:00,ZJHK 050900Z 03004MPS 360V060 9999 SCT046 23/19 Q1013 NOSIG
ZJHK,2016-03-05 10:00,ZJHK 051000Z 35003MPS 330V040 9000 NSC 20/18 Q1014 NOSIG
ZJHK,2016-03-05 11:00,ZJHK 051100Z 07005MPS 5000 BR BKN010 19/18 Q1014 BECMG AT1200 BKN007
ZJHK,2016-03-05 12:00,ZJHK 051200Z 06004MPS 5000 BR BKN006 19/18 Q1015 BECMG BKN004
ZJHK,2016-03-05 13:00,ZJHK 051300Z 05003MPS 1200 R09/P2000 BR BKN002 OVC020 18/18 Q1016 BECMG AT1430 0700 FG
ZJHK,2016-03-05 14:00,ZJHK 051400Z 08002MPS 0400 R09/P2000 FG VV002 18/18 Q1017 NOSIG
ZJHK,2016-03-05 15:00,ZJHK 051500Z 08002MPS 0400 R09/0700 FG VV002 18/18 Q1017 NOSIG
ZJHK,2016-03-05 16:00,ZJHK 051600Z 09002MPS 1200 R09/P2000 BR BKN002 OVC020 18/18 Q1017 NOSIG
ZJHK,2016-03-05 17:00,ZJHK 051700Z 12001MPS 0500 R09/0800V1200U FG VV002 18/18 Q1016 NOSIG
ZJHK,2016-03-05 18:00,ZJHK 051800Z 08001MPS 0700 R09/P2000 FG VV002 18/18 Q1016 NOSIG
ZJHK,2016-03-05 19:00,ZJHK 051900Z 00000MPS 1100 R09/0750 BR BKN002 OVC020 18/18 Q1015 NOSIG
ZJHK,2016-03-05 20:00,ZJHK 052000Z 16001MPS 2000 BR BKN004 OVC020 18/18 Q1015 NOSIG
ZJHK,2016-03-05 21:00,ZJHK 052100Z 11002MPS 2800 BR BKN005 OVC020 19/18 Q1015 NOSIG
ZJHK,2016-03-05 22:00,ZJHK 052200Z 15001MPS 5000 BR BKN005 OVC020 18/18 Q1015 BECMG TL2340 BKN010 BKN030
ZJHK,2016-03-05 23:00,ZJHK 052300Z 14001MPS 7000 BKN007 OVC020 19/18 Q1016 BECMG TL2350 BKN010 BKN030
ZJHK,2016-03-06 00:00,ZJHK 060000Z 03001MPS 9000 BKN010 OVC023 19/18 Q1017 NOSIG
ZJHK,2016-03-06 01:00,ZJHK 060100Z 36002MPS 330V040 4000 BR BKN004 OVC020 18/17 Q1018 BECMG AT0250 BKN006 OVC020
ZJHK,2016-03-06 02:00,ZJHK 060200Z 03002MPS 6000 BKN007 OVC020 19/18 Q1018 BECMG AT0300 BKN010 OVC023
ZJHK,2016-03-06 03:00,ZJHK 060300Z 01003MPS 330V060 9999 SCT008 BKN023 20/18 Q1018 NOSIG
ZJHK,2016-03-06 04:00,ZJHK 060400Z 12001MPS 9999 BKN020 23/18 Q1017 NOSIG
ZJHK,2016-03-06 05:00,ZJHK 060500Z 10001MPS 9999 BKN023 24/18 Q1016 NOSIG
ZJHK,2016-03-06 06:00,ZJHK 060600Z 01003MPS 330V060 9999 BKN023 24/19 Q1015 NOSIG
ZJHK,2016-03-06 07:00,ZJHK 060700Z 02004MPS 340V050 9999 FEW013 24/19 Q1014 NOSIG
ZJHK,2016-03-06 08:00,ZJHK 060800Z 02004MPS 350V050 9999 FEW020 23/19 Q1013 NOSIG
ZJHK,2016-03-06 09:00,ZJHK 060900Z 01004MPS 340V050 9999 SCT046 23/18 Q1013 NOSIG
ZJHK,2016-03-06 10:00,ZJHK 061000Z 07005MPS 9999 BKN046 22/18 Q1013 NOSIG
ZJHK,2016-03-06 11:00,ZJHK 061100Z 08003MPS 9999 SCT046 20/18 Q1014 NOSIG
ZJHK,2016-03-06 12:00,ZJHK 061200Z 09003MPS 8000 SCT046 19/18 Q1014 NOSIG
ZJHK,2016-03-06 13:00,ZJHK 061300Z 11002MPS 7000 FEW046 19/18 Q1014 NOSIG
ZJHK,2016-03-06 14:00,ZJHK 061400Z 11001MPS 5000 BR SCT008 19/18 Q1015 BECMG AT1500 BKN007
ZJHK,2016-03-06 15:00,ZJHK 061500Z 14002MPS 5000 BR BKN008 19/19 Q1015 NOSIG
ZJHK,2016-03-06 16:00,ZJHK 061600Z 13002MPS 6000 BKN012 20/18 Q1015 NOSIG
ZJHK,2016-03-06 17:00,ZJHK 061700Z 14001MPS 6000 SCT012 19/18 Q1014 NOSIG
ZJHK,2016-03-06 18:00,ZJHK 061800Z 09001MPS 4000 BR BCFG FEW012 SCT040 18/17 Q1014 NOSIG
ZJHK,2016-03-06 19:00,ZJHK 061900Z 12002MPS 4000 BR BCFG BKN040 18/18 Q1013 NOSIG
ZJHK,2016-03-06 20:00,ZJHK 062000Z 12002MPS 4000 BR BCFG SCT006 BKN040 18/18 Q1012 NOSIG
ZJHK,2016-03-06 21:00,ZJHK 062100Z 11002MPS 4000 BR BCFG SCT040 18/17 Q1012 NOSIG
ZJHK,2016-03-06 22:00,ZJHK 062200Z 12001MPS 3000 BR BCFG SCT006 17/17 Q1013 NOSIG
ZJHK,2016-03-06 23:00,ZJHK 062300Z 09001MPS 3000 BR BCFG SCT006 17/17 Q1013 NOSIG
ZJHK,2016-03-07 00:00,ZJHK 070000Z 00000MPS 5000 BR SCT006 18/18 Q1014 NOSIG
ZJHK,2016-03-07 01:00,ZJHK 070100Z 13002MPS 9999 FEW013 20/19 Q1015 NOSIG
ZJHK,2016-03-07 02:00,ZJHK 070200Z 17003MPS 140V200 9999 SCT016 23/19 Q1015 NOSIG
ZJHK,2016-03-07 03:00,ZJHK 070300Z 14004MPS 100V200 9999 BKN020 25/19 Q1015 NOSIG
ZJHK,2016-03-07 04:00,ZJHK 070400Z 14003MPS 110V180 9999 BKN020 25/18 Q1014 NOSIG
ZJHK,2016-03-07 05:00,ZJHK 070500Z 14004MPS 080V210 9999 BKN020 27/18 Q1013 NOSIG
ZJHK,2016-03-07 06:00,ZJHK 070600Z 12004MPS 090V150 9999 FEW020 27/18 Q1011 NOSIG
ZJHK,2016-03-07 07:00,ZJHK 070700Z 13004MPS 100V170 9999 FEW020 28/18 Q1010 NOSIG
ZJHK,2016-03-07 08:00,ZJHK 070800Z 13005MPS 100V160 9999 FEW020 27/17 Q1009 NOSIG
ZJHK,2016-03-07 09:00,ZJHK 070900Z 14005MPS 100V170 CAVOK 26/17 Q1009 NOSIG
ZJHK,2016-03-07 10:00,ZJHK 071000Z 13005MPS CAVOK 24/18 Q1009 NOSIG
ZJHK,2016-03-07 11:00,ZJHK 071100Z 13004MPS 110V180 CAVOK 22/18 Q1010 NOSIG
ZJHK,2016-03-07 12:00,ZJHK 071200Z 13004MPS CAVOK 21/19 Q1010 NOSIG
ZJHK,2016-03-07 13:00,ZJHK 071300Z 13003MPS 090V160 CAVOK 21/19 Q1011 NOSIG
ZJHK,2016-03-07 14:00,ZJHK 071400Z 14003MPS 110V170 9999 FEW013 21/19 Q1011 NOSIG
ZJHK,2016-03-07 15:00,ZJHK 071500Z 15004MPS 9999 SCT013 21/19 Q1011 NOSIG
ZJHK,2016-03-07 16:00,ZJHK 071600Z 13003MPS 100V160 CAVOK 20/19 Q1011 NOSIG
ZJHK,2016-03-07 17:00,ZJHK 071700Z 15004MPS 120V180 CAVOK 21/19 Q1011 NOSIG
ZJHK,2016-03-07 18:00,ZJHK 071800Z 15004MPS 120V190 CAVOK 21/19 Q1010 NOSIG
ZJHK,2016-03-07 19:00,ZJHK 071900Z 15004MPS 110V180 CAVOK 21/19 Q1009 NOSIG
ZJHK,2016-03-07 20:00,ZJHK 072000Z 15005MPS CAVOK 21/19 Q1009 NOSIG
ZJHK,2016-03-07 21:00,ZJHK 072100Z 16003MPS 120V190 CAVOK 21/19 Q1009 NOSIG
ZJHK,2016-03-07 22:00,ZJHK 072200Z 13002MPS CAVOK 20/19 Q1009 NOSIG
ZJHK,2016-03-07 23:00,ZJHK 072300Z 14001MPS CAVOK 20/19 Q1011 NOSIG
ZJHK,2016-03-08 00:00,ZJHK 080000Z 14002MPS CAVOK 21/19 Q1011 NOSIG
ZJHK,2016-03-08 01:00,ZJHK 080100Z 15004MPS CAVOK 23/20 Q1011 NOSIG
ZJHK,2016-03-08 02:00,ZJHK 080200Z 15004MPS 120V180 CAVOK 25/20 Q1011 NOSIG
ZJHK,2016-03-08 03:00,ZJHK 080300Z 15005MPS CAVOK 26/20 Q1011 NOSIG
ZJHK,2016-03-08 04:00,ZJHK 080400Z 15006MPS CAVOK 28/19 Q1010 NOSIG
ZJHK,2016-03-08 05:00,ZJHK 080500Z 15004MPS 120V190 CAVOK 29/20 Q1009 NOSIG
ZJHK,2016-03-08 06:00,ZJHK 080600Z 19005MPS 130V220 CAVOK 30/20 Q1008 NOSIG
ZJHK,2016-03-08 07:00,ZJHK 080700Z 15004MPS 120V190 CAVOK 30/20 Q1006 NOSIG
ZJHK,2016-03-08 08:00,ZJHK 080800Z 14005MPS 110V170 CAVOK 29/20 Q1006 NOSIG
ZJHK,2016-03-08 09:00,ZJHK 080900Z 14006MPS CAVOK 27/20 Q1006 NOSIG
ZJHK,2016-03-08 10:00,ZJHK 081000Z 14006MPS 110V180 CAVOK 25/20 Q1006 NOSIG
ZJHK,2016-03-08 11:00,ZJHK 081100Z 16002MPS 140V200 CAVOK 24/20 Q1007 NOSIG
ZJHK,2016-03-08 12:00,ZJHK 081200Z 14002MPS 110V170 CAVOK 23/20 Q1007 NOSIG
ZJHK,2016-03-08 13:00,ZJHK 081300Z 11001MPS CAVOK 21/19 Q1008 NOSIG
ZJHK,2016-03-08 14:00,ZJHK 081400Z 14002MPS CAVOK 21/20 Q1008 NOSIG
ZJHK,2016-03-08 15:00,ZJHK 081500Z 17002MPS CAVOK 22/19 Q1008 NOSIG
ZJHK,2016-03-08 16:00,ZJHK 081600Z 17002MPS 130V210 CAVOK 22/19 Q1008 NOSIG
ZJHK,2016-03-08 17:00,ZJHK 081700Z 17002MPS CAVOK 21/19 Q1008 NOSIG
ZJHK,2016-03-08 18:00,ZJHK 081800Z 16002MPS 130V190 CAVOK 21/19 Q1007 NOSIG
ZJHK,2016-03-08 19:00,ZJHK 081900Z 18002MPS CAVOK 21/19 Q1007 NOSIG
ZJHK,2016-03-08 20:00,ZJHK 082000Z 00000MPS CAVOK 20/18 Q1007 NOSIG
ZJHK,2016-03-08 21:00,ZJHK 082100Z 13001MPS 7000 NSC 19/18 Q1007 NOSIG
ZJHK,2016-03-08 22:00,ZJHK 082200Z 14002MPS 7000 NSC 19/18 Q1007 NOSIG
ZJHK,2016-03-08 23:00,ZJHK 082300Z 33001MPS 7000 NSC 20/18 Q1008 NOSIG
ZJHK,2016-03-09 00:00,ZJHK 090000Z 00000MPS 8000 NSC 20/19 Q1009 NOSIG
ZJHK,2016-03-09 01:00,ZJHK 090100Z 19001MPS CAVOK 22/19 Q1009 NOSIG
ZJHK,2016-03-09 02:00,ZJHK 090200Z 19001MPS CAVOK 24/20 Q1010 NOSIG
ZJHK,2016-03-09 03:00,ZJHK 090300Z 20002MPS CAVOK 26/19 Q1010 NOSIG
ZJHK,2016-03-09 04:00,ZJHK 090400Z 22001MPS CAVOK 28/20 Q1009 NOSIG
ZJHK,2016-03-09 05:00,ZJHK 090500Z 23002MPS CAVOK 30/19 Q1008 NOSIG
ZJHK,2016-03-09 06:00,ZJHK 090600Z 02003MPS 330V060 CAVOK 30/21 Q1007 NOSIG
ZJHK,2016-03-09 07:00,ZJHK 090700Z 36003MPS 330V040 CAVOK 28/20 Q1006 NOSIG
ZJHK,2016-03-09 08:00,ZJHK 090800Z 36004MPS 340V040 CAVOK 27/20 Q1006 NOSIG
ZJHK,2016-03-09 09:00,ZJHK 090900Z 35003MPS 320V050 CAVOK 27/19 Q1006 NOSIG
ZJHK,2016-03-09 10:00,ZJHK 091000Z 34003MPS 310V040 CAVOK 26/19 Q1006 NOSIG
ZJHK,2016-03-09 11:00,ZJHK 091100Z 35002MPS 310V030 CAVOK 23/19 Q1007 NOSIG
ZJHK,2016-03-09 12:00,ZJHK 091200Z 35003MPS CAVOK 21/19 Q1008 NOSIG
ZJHK,2016-03-09 13:00,ZJHK 091300Z 34002MPS 310V040 CAVOK 20/19 Q1009 NOSIG
ZJHK,2016-03-09 14:00,ZJHK 091400Z 01001MPS CAVOK 20/19 Q1010 NOSIG
ZJHK,2016-03-09 15:00,ZJHK 091500Z 00000MPS CAVOK 20/19 Q1010 NOSIG
ZJHK,2016-03-09 16:00,ZJHK 091600Z 01001MPS CAVOK 20/19 Q1010 NOSIG
ZJHK,2016-03-09 17:00,ZJHK 091700Z 35001MPS 8000 NSC 19/18 Q1010 NOSIG
ZJHK,2016-03-09 18:00,ZJHK 091800Z 35002MPS 7000 NSC 19/18 Q1010 NOSIG
ZJHK,2016-03-09 19:00,ZJHK 091900Z 36002MPS 6000 NSC 19/18 Q1010 NOSIG
ZJHK,2016-03-09 20:00,ZJHK 092000Z 00000MPS 6000 NSC 18/18 Q1010 NOSIG
ZJHK,2016-03-09 21:00,ZJHK 092100Z 30002MPS 6000 NSC 18/17 Q1010 NOSIG
ZJHK,2016-03-09 22:00,ZJHK 092200Z 33001MPS 7000 NSC 18/17 Q1010 NOSIG
ZJHK,2016-03-09 23:00,ZJHK 092300Z 34001MPS 6000 NSC 19/18 Q1012 NOSIG
ZJHK,2016-03-10 00:00,ZJHK 100000Z 33002MPS 6000 NSC 20/19 Q1013 NOSIG
ZJHK,2016-03-10 01:00,ZJHK 100100Z 36001MPS 6000 SCT010 BKN033 22/20 Q1014 BECMG AT0200 BKN010 BKN030
ZJHK,2016-03-10 02:00,ZJHK 100200Z 32002MPS 7000 SCT010 BKN033 22/20 Q1015 BECMG AT0300 BKN010 OVC030
ZJHK,2016-03-10 03:00,ZJHK 100300Z 02009MPS 6000 BKN004 BKN033 18/17 Q1016 NOSIG
ZJHK,2016-03-10 04:00,ZJHK 100400Z 02009G14MPS 360V060 3500 -RA BR BKN004 BKN033 16/15 Q1017 BECMG AT0500 BKN005 OVC030
ZJHK,2016-03-10 05:00,ZJHK 100500Z 03009MPS 3500 -RA BR BKN005 BKN033 15/15 Q1017 NOSIG
ZJHK,2016-03-10 06:00,ZJHK 100600Z 03009MPS 5000 BR BKN007 BKN033 15/14 Q1017 NOSIG
ZJHK,2016-03-10 07:00,ZJHK 100700Z 03008MPS 4000 -RA BR BKN007 BKN023 14/13 Q1017 NOSIG
ZJHK,2016-03-10 08:00,ZJHK 100800Z 02006MPS 3000 -RA BR BKN007 BKN023 14/13 Q1017 NOSIG
ZJHK,2016-03-10 09:00,ZJHK 100900Z 02006MPS 3000 -RA BR BKN007 BKN020 14/13 Q1018 NOSIG
ZJHK,2016-03-10 10:00,ZJHK 101000Z 03005MPS 7000 -RA BKN007 BKN020 13/13 Q1018 NOSIG
ZJHK,2016-03-10 11:00,ZJHK 101100Z 04006MPS 9999 BKN007 BKN026 13/12 Q1019 NOSIG
ZJHK,2016-03-10 12:00,ZJHK 101200Z 03005MPS 6000 -RA BKN007 BKN026 13/12 Q1020 NOSIG
ZJHK,2016-03-10 13:00,ZJHK 101300Z 04005MPS 8000 -RA BKN007 BKN026 13/12 Q1021 NOSIG
ZJHK,2016-03-10 14:00,ZJHK 101400Z 05005MPS 8000 BKN007 BKN026 13/11 Q1022 NOSIG
ZJHK,2016-03-10 15:00,ZJHK 101500Z 04005MPS 8000 BKN010 BKN026 13/12 Q1022 NOSIG
ZJHK,2016-03-10 16:00,ZJHK 101600Z 04005MPS 7000 -RA BKN010 BKN020 13/12 Q1022 NOSIG
ZJHK,2016-03-10 17:00,ZJHK 101700Z 05005MPS 7000 BKN010 BKN020 13/12 Q1021 NOSIG
ZJHK,2016-03-10 18:00,ZJHK 101800Z 05006MPS 9999 BKN013 BKN020 13/11 Q1021 NOSIG
ZJHK,2016-03-10 19:00,ZJHK 101900Z 03005MPS 9999 -RA BKN013 BKN020 13/11 Q1021 NOSIG
ZJHK,2016-03-10 20:00,ZJHK 102000Z 04005MPS 5000 -RA BR BKN013 BKN020 12/11 Q1021 NOSIG
ZJHK,2016-03-10 21:00,ZJHK 102100Z 04005MPS 020V080 6000 BKN013 BKN020 12/11 Q1020 NOSIG
ZJHK,2016-03-10 22:00,ZJHK 102200Z 04004MPS 6000 -RA BKN008 OVC020 12/11 Q1021 NOSIG
ZJHK,2016-03-10 23:00,ZJHK 102300Z 04005MPS 9999 BKN008 OVC020 12/11 Q1021 NOSIG
ZJHK,2016-03-11 00:00,ZJHK 110000Z 04006MPS 9999 BKN011 OVC020 12/11 Q1022 NOSIG
ZJHK,2016-03-11 01:00,ZJHK 110100Z 04006MPS 9999 BKN013 OVC026 12/11 Q1023 NOSIG
ZJHK,2016-03-11 02:00,ZJHK 110200Z 04005MPS 8000 BKN010 OVC026 12/11 Q1023 NOSIG
ZJHK,2016-03-11 03:00,ZJHK 110300Z 03005MPS 3000 -RA BR BKN006 OVC020 12/11 Q1024 BECMG TL0450 BKN010
ZJHK,2016-03-11 04:00,ZJHK 110400Z 03005MPS 3500 -RA BR BKN007 OVC020 12/11 Q1023 BECMG TL0540 BKN010
ZJHK,2016-03-11 05:00,ZJHK 110500Z 03006MPS 5000 -RA BR BKN007 OVC020 12/11 Q1022 BECMG TL0650 BKN010
ZJHK,2016-03-11 06:00,ZJHK 110600Z 03006MPS 8000 BKN010 OVC020 12/11 Q1021 NOSIG
ZJHK,2016-03-11 07:00,ZJHK 110700Z 03005MPS 8000 BKN012 OVC020 12/11 Q1020 NOSIG
ZJHK,2016-03-11 08:00,ZJHK 110800Z 03005MPS 010V070 6000 -RA BKN010 OVC020 12/11 Q1019 NOSIG
ZJHK,2016-03-11 09:00,ZJHK 110900Z 04004MPS 010V070 5000 BR BKN010 OVC020 12/11 Q1019 NOSIG
ZJHK,2016-03-11 10:00,ZJHK 111000Z 03004MPS 4000 -RA BR BKN010 OVC020 12/11 Q1020 BECMG AT1100 BKN008 OVC020
ZJHK,2016-03-11 11:00,ZJHK 111100Z 04004MPS 4000 BR BKN008 OVC020 12/11 Q1020 NOSIG
ZJHK,2016-03-11 12:00,ZJHK 111200Z 04004MPS 4000 BR BKN008 OVC020 12/11 Q1020 NOSIG
ZJHK,2016-03-11 13:00,ZJHK 111300Z 04004MPS 6000 BKN008 OVC020 12/11 Q1020 BECMG AT1400 BKN010 OVC020
ZJHK,2016-03-11 14:00,ZJHK 111400Z 05004MPS 8000 BKN012 OVC020 12/11 Q1020 NOSIG
ZJHK,2016-03-11 15:00,ZJHK 111500Z 03003MPS 360V060 4000 -RA BR BKN012 OVC020 12/11 Q1020 NOSIG
ZJHK,2016-03-11 16:00,ZJHK 111600Z 03002MPS 350V080 2100 -RA BR BKN004 OVC020 12/12 Q1020 NOSIG
ZJHK,2016-03-11 17:00,ZJHK 111700Z 03003MPS 2100 -RA BR BKN004 OVC020 13/12 Q1019 NOSIG
ZJHK,2016-03-11 18:00,ZJHK 111800Z 03003MPS 2100 -RA BR BKN004 OVC020 13/13 Q1018 NOSIG
ZJHK,2016-03-11 19:00,ZJHK 111900Z 04003MPS 3000 -RA BR BKN004 OVC020 13/13 Q1018 NOSIG
ZJHK,2016-03-11 20:00,ZJHK 112000Z 06004MPS 3000 BR BKN006 OVC020 13/13 Q1017 NOSIG
ZJHK,2016-03-11 21:00,ZJHK 112100Z 02002MPS 3000 BR BKN006 OVC020 13/13 Q1017 NOSIG
ZJHK,2016-03-11 22:00,ZJHK 112200Z 05003MPS 1200 R09/P2000 -RA BR BKN003 OVC020 13/13 Q1017 BECMG AT2350 1600 BR BKN006 OVC020
ZJHK,2016-03-11 23:00,ZJHK 112300Z 05003MPS 1500 -RA BR BKN003 OVC020 14/13 Q1017 BECMG AT0050 3000 BR BKN006 OVC020
ZJHK,2016-03-12 00:00,ZJHK 120000Z 05004MPS 1300 R09/P2000 -RA BR BKN003 OVC020 14/14 Q1017 BECMG AT0100 1600 -RA BR
ZJHK,2016-03-12 01:00,ZJHK 120100Z 04003MPS 1300 R09/P2000 -RA BR BKN003 OVC020 14/14 Q1018 BECMG AT0130 1600 -RA BR
ZJHK,2016-03-12 02:00,ZJHK 120200Z 03002MPS 1600 R09/1400N -RA BR BKN003 OVC020 15/14 Q1018 NOSIG
ZJHK,2016-03-12 03:00,ZJHK 120300Z 03003MPS 1600 -RA BR BKN003 OVC020 15/15 Q1017 NOSIG
ZJHK,2016-03-12 04:00,ZJHK 120400Z 04003MPS 010V070 2500 -RA BR BKN005 OVC020 15/15 Q1017 BECMG AT0500 3000 BR
ZJHK,2016-03-12 05:00,ZJHK 120500Z 06004MPS 4000 BR BKN005 OVC020 16/15 Q1015 NOSIG
ZJHK,2016-03-12 06:00,ZJHK 120600Z 04003MPS 3000 BR BKN005 OVC020 16/16 Q1014 NOSIG
ZJHK,2016-03-12 07:00,ZJHK 120700Z 03002MPS 360V060 3000 BR BKN004 OVC020 16/16 Q1013 NOSIG
ZJHK,2016-03-12 08:00,ZJHK 120800Z 01003MPS 350V050 1100 R09/1100N -RA BR BKN003 OVC020 16/15 Q1012 NOSIG
ZJHK,2016-03-12 09:00,ZJHK 120900Z 02002MPS 350V070 0800 R09/1100N -DZ FG VV003 15/15 Q1012 BECMG TL1050 0700 FG
ZJHK,2016-03-12 10:00,ZJHK 121000Z 36003MPS 320V040 0900 R09/P2000 -DZ FG VV003 15/15 Q1012 BECMG TL1050 0700 FG
ZJHK,2016-03-12 11:00,ZJHK 121100Z 03003MPS 360V070 1100 R09/P2000 -DZ BR OVC003 15/15 Q1012 BECMG TL1250 0700 FG
ZJHK,2016-03-12 12:00,ZJHK 121200Z 01002MPS 0900 R09/P2000 FG VV002 15/15 Q1013 BECMG TL1350 0700 FG
ZJHK,2016-03-12 13:00,ZJHK 121300Z 03002MPS 0500 R09/0900V1200D FG VV002 15/15 Q1013 BECMG BKN001
ZJHK,2016-03-12 14:00,ZJHK 121400Z 04002MPS 0400 R09/0600U FG VV001 16/15 Q1013 NOSIG
ZJHK,2016-03-12 15:00,ZJHK 121500Z 02001MPS 0300 R09/0400 FG VV001 16/16 Q1013 NOSIG
ZJHK,2016-03-12 16:00,ZJHK 121600Z 35002MPS 0300 R09/0400N FG VV001 16/16 Q1013 NOSIG
ZJHK,2016-03-12 17:00,ZJHK 121700Z 02001MPS 0250 R09/0400N FG VV001 16/16 Q1013 NOSIG
ZJHK,2016-03-12 18:00,ZJHK 121800Z 00000MPS 0250 R09/0400N FG VV001 16/16 Q1012 NOSIG
ZJHK,2016-03-12 19:00,ZJHK 121900Z 00000MPS 0250 R09/0325N FG VV001 16/16 Q1011 NOSIG
ZJHK,2016-03-12 20:00,ZJHK 122000Z 00000MPS 0100 R09/0300N FG VV001 16/16 Q1011 NOSIG
ZJHK,2016-03-12 21:00,ZJHK 122100Z 33003MPS 0100 R09/0325N FG VV001 16/16 Q1011 NOSIG
ZJHK,2016-03-12 22:00,ZJHK 122200Z 02001MPS 0200 R09/0250V0600N FG VV001 17/16 Q1012 BECMG TL2350 0500 FG
ZJHK,2016-03-12 23:00,ZJHK 122300Z 00000MPS 0300 R09/0800U FG VV002 17/16 Q1012 BECMG TL0050 0700 FG
ZJHK,2016-03-13 00:00,ZJHK 130000Z 35001MPS 0900 R09/P2000 FG OVC003 17/17 Q1013 BECMG TL0150 1500 BR BKN005
ZJHK,2016-03-13 01:00,ZJHK 130100Z 31001MPS 1100 R09/P2000 BR OVC003 18/17 Q1014 BECMG 3000 BR BKN005
ZJHK,2016-03-13 03:00,ZJHK 130300Z 32002MPS 0800 R09/1400N FG OVC003 18/18 Q1014 NOSIG
ZJHK,2016-03-13 04:00,ZJHK 130400Z 30002MPS 2500 BR OVC005 19/19 Q1013 NOSIG
ZJHK,2016-03-13 05:00,ZJHK 130500Z 31004MPS 260V360 4000 BR BKN007 OVC016 21/19 Q1013 NOSIG
ZJHK,2016-03-13 06:00,ZJHK 130600Z 30004MPS 270V040 6000 SCT010 OVC020 22/18 Q1012 NOSIG
ZJHK,2016-03-13 07:00,ZJHK 130700Z 31005MPS 9999 OVC020 22/18 Q1011 NOSIG
ZJHK,2016-03-13 08:00,ZJHK 130800Z 32005MPS 9999 OVC023 22/18 Q1011 NOSIG
ZJHK,2016-03-13 09:00,ZJHK 130900Z 03004MPS 6000 BKN013 OVC020 18/17 Q1012 NOSIG
ZJHK,2016-03-13 10:00,ZJHK 131000Z 03005MPS 2800 BR BKN006 OVC020 17/16 Q1013 NOSIG
ZJHK,2016-03-13 11:00,ZJHK 131100Z 01004MPS 340V040 1300 R09/P2000 -RA BR BKN004 OVC020 17/16 Q1014 BECMG 2000 BR BKN006
ZJHK,2016-03-13 12:00,ZJHK 131200Z 36003MPS 320V030 2800 BR BKN009 OVC020 16/15 Q1015 BECMG 3000 BR
ZJHK,2016-03-13 13:00,ZJHK 131300Z 35003MPS 320V040 9999 BKN013 OVC020 16/15 Q1016 BECMG AT1330 BKN015
ZJHK,2016-03-13 14:00,ZJHK 131400Z 33002MPS 300V030 9999 BKN016 OVC020 16/14 Q1016 NOSIG
ZJHK,2016-03-13 15:00,ZJHK 131500Z 33002MPS 290V020 9999 BKN016 OVC023 16/14 Q1016 NOSIG
ZJHK,2016-03-13 16:00,ZJHK 131600Z 34003MPS 320V020 9999 BKN016 OVC023 16/14 Q1017 NOSIG
ZJHK,2016-03-13 17:00,ZJHK 131700Z 33004MPS 9999 OVC026 16/13 Q1016 NOSIG
ZJHK,2016-03-13 18:00,ZJHK 131800Z 35003MPS 310V010 9999 OVC026 15/13 Q1016 NOSIG
ZJHK,2016-03-13 19:00,ZJHK 131900Z 34003MPS 9999 SCT016 OVC033 15/13 Q1016 NOSIG
ZJHK,2016-03-13 20:00,ZJHK 132000Z 30002MPS 9999 SCT016 OVC033 15/13 Q1016 NOSIG
ZJHK,2016-03-13 21:00,ZJHK 132100Z 32003MPS 300V360 9999 SCT016 OVC033 15/13 Q1016 NOSIG
ZJHK,2016-03-13 22:00,ZJHK 132200Z 33002MPS 9999 SCT016 OVC033 15/13 Q1017 NOSIG
ZJHK,2016-03-13 23:00,ZJHK 132300Z 36002MPS 9999 SCT016 OVC033 15/13 Q1017 NOSIG
ZJHK,2016-03-14 00:00,ZJHK 140000Z 34002MPS 320V030 9999 SCT013 OVC026 15/13 Q1019 NOSIG
ZJHK,2016-03-14 01:00,ZJHK 140100Z 32003MPS 9999 SCT016 OVC026 15/13 Q1019 NOSIG
ZJHK,2016-03-14 02:00,ZJHK 140200Z 36003MPS 310V040 9999 BKN015 OVC026 16/13 Q1020 NOSIG
ZJHK,2016-03-14 03:00,ZJHK 140300Z 36003MPS 340V050 9999 BKN015 OVC026 16/13 Q1020 NOSIG
ZJHK,2016-03-14 04:00,ZJHK 140400Z 01003MPS 340V040 9999 BKN016 OVC026 16/13 Q1019 NOSIG
ZJHK,2016-03-14 05:00,ZJHK 140500Z 36003MPS 340V040 9999 SCT020 OVC030 16/13 Q1018 NOSIG
ZJHK,2016-03-14 06:00,ZJHK 140600Z 02003MPS 9999 SCT020 OVC030 16/13 Q1017 NOSIG
ZJHK,2016-03-14 07:00,ZJHK 140700Z 03004MPS 360V070 9999 SCT020 OVC030 16/13 Q1016 NOSIG
ZJHK,2016-03-14 08:00,ZJHK 140800Z 03003MPS 9999 SCT020 OVC030 16/13 Q1016 NOSIG
ZJHK,2016-03-14 09:00,ZJHK 140900Z 05004MPS 9999 SCT016 OVC030 16/13 Q1016 NOSIG
ZJHK,2016-03-14 10:00,ZJHK 141000Z 04004MPS 9999 SCT016 OVC030 16/12 Q1016 NOSIG
ZJHK,2016-03-14 11:00,ZJHK 141100Z 03003MPS 360V060 9999 SCT016 OVC040 15/12 Q1017 NOSIG
ZJHK,2016-03-14 12:00,ZJHK 141200Z 05003MPS 020V080 9999 SCT018 OVC040 15/12 Q1017 NOSIG
ZJHK,2016-03-14 13:00,ZJHK 141300Z 07002MPS 9999 FEW020 OVC046 15/13 Q1017 NOSIG
ZJHK,2016-03-14 14:00,ZJHK 141400Z 08003MPS 9999 SCT016 OVC040 16/13 Q1017 NOSIG
ZJHK,2016-03-14 15:00,ZJHK 141500Z 10001MPS 9999 BKN013 OVC040 16/14 Q1017 NOSIG
ZJHK,2016-03-14 16:00,ZJHK 141600Z 07003MPS 2000 BR BKN007 OVC026 16/15 Q1017 NOSIG
ZJHK,2016-03-14 17:00,ZJHK 141700Z 04002MPS 010V070 0800 R09/1400D -DZ FG OVC003 16/15 Q1017 NOSIG
ZJHK,2016-03-14 18:00,ZJHK 141800Z 04003MPS 1100 R09/P2000 -DZ BR OVC003 16/15 Q1016 REDZ NOSIG
ZJHK,2016-03-14 19:00,ZJHK 141900Z 05004MPS 1600 -DZ BR OVC003 16/15 Q1015 NOSIG
ZJHK,2016-03-14 20:00,ZJHK 142000Z 04003MPS 2600 -DZ BR OVC003 16/15 Q1015 NOSIG
ZJHK,2016-03-14 21:00,ZJHK 142100Z 05003MPS 1700 -DZ BR OVC003 16/15 Q1015 NOSIG
ZJHK,2016-03-14 22:00,ZJHK 142200Z 04004MPS 2400 -DZ BR OVC003 15/15 Q1015 NOSIG
ZJHK,2016-03-14 23:00,ZJHK 142300Z 04003MPS 2100 -DZ BR OVC003 15/15 Q1015 NOSIG
ZJHK,2016-03-15 00:00,ZJHK 150000Z 07005MPS 2100 -DZ BR OVC005 16/16 Q1016 NOSIG
ZJHK,2016-03-15 01:00,ZJHK 150100Z 08006MPS 2000 R09/0500N -DZ BR OVC005 16/16 Q1016 BECMG TL0240 3000 BR
ZJHK,2016-03-15 02:00,ZJHK 150200Z 06004MPS 1600 R09/1200N -DZ BR OVC005 17/16 Q1016 BECMG TL0240 3000 BR
ZJHK,2016-03-15 03:00,ZJHK 150300Z 06004MPS 1600 -DZ BR OVC005 17/17 Q1016 BECMG 3000 BR
ZJHK,2016-03-15 04:00,ZJHK 150400Z 06004MPS 1600 -DZ BR OVC005 18/17 Q1016 NOSIG
ZJHK,2016-03-15 05:00,ZJHK 150500Z 07004MPS 2000 -DZ BR BKN004 OVC010 18/18 Q1014 NOSIG
ZJHK,2016-03-15 06:00,ZJHK 150600Z 06004MPS 2000 -DZ BR BKN004 OVC016 18/18 Q1013 NOSIG
ZJHK,2016-03-15 07:00,ZJHK 150700Z 06003MPS 2000 -DZ BR BKN004 OVC016 19/18 Q1012 NOSIG
ZJHK,2016-03-15 08:00,ZJHK 150800Z 05003MPS 2000 -DZ BR BKN004 OVC016 19/18 Q1012 NOSIG
ZJHK,2016-03-15 09:00,ZJHK 150900Z 04003MPS 1500 -DZ BR BKN004 OVC016 19/18 Q1012 BECMG AT1000 1200 -DZ BR
ZJHK,2016-03-15 10:00,ZJHK 151000Z 36002MPS 330V050 1000 R09/P2000 -RA BR BKN003 OVC016 17/17 Q1012 NOSIG
ZJHK,2016-03-15 11:00,ZJHK 151100Z 02002MPS 350V050 1000 R09/P2000 -RA BR BKN002 OVC016 17/17 Q1012 NOSIG
ZJHK,2016-03-15 12:00,ZJHK 151200Z 02002MPS 350V070 1200 R09/P2000 -RA BR BKN002 OVC016 17/17 Q1012 NOSIG
ZJHK,2016-03-15 13:00,ZJHK 151300Z 05002MPS 1000 R09/P2000 -RA BR BKN002 OVC016 18/18 Q1013 NOSIG
ZJHK,2016-03-15 14:00,ZJHK 151400Z 04002MPS 0500 R09/1400N FG VV001 18/18 Q1013 NOSIG
ZJHK,2016-03-15 15:00,ZJHK 151500Z 09002MPS 1000 R09/P2000 BR BKN002 OVC016 19/18 Q1013 NOSIG
ZJHK,2016-03-15 16:00,ZJHK 151600Z 09002MPS 1600 BR BKN002 OVC016 19/19 Q1012 NOSIG
ZJHK,2016-03-15 17:00,ZJHK 151700Z 07002MPS 0400 R09/1100D FG VV001 19/19 Q1012 NOSIG
ZJHK,2016-03-15 18:00,ZJHK 151800Z 10001MPS 0300 R09/0500N FG VV001 19/19 Q1011 NOSIG
ZJHK,2016-03-15 19:00,ZJHK 151900Z 02001MPS 0200 R09/0375N FG VV001 19/19 Q1011 NOSIG
ZJHK,2016-03-15 20:00,ZJHK 152000Z 04002MPS 0200 R09/0450N FG VV001 18/18 Q1011 NOSIG
ZJHK,2016-03-15 21:00,ZJHK 152100Z 04002MPS 0200 R09/0500N -DZ FG VV001 18/18 Q1011 NOSIG
ZJHK,2016-03-15 22:00,ZJHK 152200Z 04002MPS 0200 R09/0650N -DZ FG VV001 18/18 Q1011 BECMG 0500 FG
ZJHK,2016-03-15 23:00,ZJHK 152300Z 02002MPS 0250 R09/0700 FG VV001 18/18 Q1012 BECMG TL2350 0500 FG BKN002 OVC020
ZJHK,2016-03-16 00:00,ZJHK 160000Z 36002MPS 340V040 0200 R09/0600V1000 FG VV001 19/18 Q1013 BECMG TL0100 0500 FG BKN002 OVC020
ZJHK,2016-03-16 01:00,ZJHK 160100Z 35002MPS 330V030 0150 R09/0400N FG VV001 18/18 Q1014 BECMG AT0250 0600 FG BKN002 OVC020
ZJHK,2016-03-16 02:00,ZJHK 160200Z 01002MPS 340V040 0200 R09/0500V0750N FG VV002 18/18 Q1014 BECMG AT0300 0600 FG
ZJHK,2016-03-16 03:00,ZJHK 160300Z 06002MPS 0500 R09/0600 FG VV003 19/19 Q1013 BECMG AT0400 1000 BR BKN005 OVC023
ZJHK,2016-03-16 04:00,ZJHK 160400Z 09002MPS 070V130 0600 R09/1200D FG VV003 20/20 Q1012 BECMG AT0530 1600 BR BKN005 OVC023
ZJHK,2016-03-16 05:00,ZJHK 160500Z 10003MPS 6000 BKN005 OVC020 21/21 Q1011 BECMG AT0600 BKN010 BKN030
ZJHK,2016-03-16 06:00,ZJHK 160600Z 11002MPS 080V150 8000 BKN010 OVC023 23/21 Q1010 BECMG AT0750 SCT012 BKN033
ZJHK,2016-03-16 07:00,ZJHK 160700Z 11003MPS 8000 SCT013 OVC023 23/21 Q1009 NOSIG
ZJHK,2016-03-16 08:00,ZJHK 160800Z 08002MPS 8000 BKN016 OVC030 24/22 Q1009 NOSIG
ZJHK,2016-03-16 09:00,ZJHK 160900Z 12003MPS 090V150 9999 SCT016 BKN040 25/22 Q1009 NOSIG
ZJHK,2016-03-16 10:00,ZJHK 161000Z 13003MPS 9999 SCT016 BKN040 24/22 Q1009 NOSIG
ZJHK,2016-03-16 11:00,ZJHK 161100Z 13003MPS 9999 BKN040 23/21 Q1009 NOSIG
ZJHK,2016-03-16 12:00,ZJHK 161200Z 13002MPS 9999 SCT040 23/21 Q1010 NOSIG
ZJHK,2016-03-16 13:00,ZJHK 161300Z 15004MPS 9999 FEW040 23/20 Q1010 NOSIG
ZJHK,2016-03-16 14:00,ZJHK 161400Z 15003MPS 120V180 CAVOK 22/20 Q1011 NOSIG
ZJHK,2016-03-16 15:00,ZJHK 161500Z 16003MPS 120V190 CAVOK 23/20 Q1011 NOSIG
ZJHK,2016-03-16 16:00,ZJHK 161600Z 16004MPS CAVOK 23/20 Q1011 NOSIG
ZJHK,2016-03-16 17:00,ZJHK 161700Z 16002MPS 120V180 CAVOK 22/20 Q1011 NOSIG
ZJHK,2016-03-16 18:00,ZJHK 161800Z 13002MPS CAVOK 21/20 Q1010 NOSIG
ZJHK,2016-03-16 19:00,ZJHK 161900Z 12001MPS CAVOK 21/19 Q1010 NOSIG
ZJHK,2016-03-16 20:00,ZJHK 162000Z 13001MPS CAVOK 19/19 Q1010 NOSIG
ZJHK,2016-03-16 21:00,ZJHK 162100Z 15001MPS 8000 BCFG NSC 19/19 Q1010 NOSIG
ZJHK,2016-03-16 22:00,ZJHK 162200Z 23001MPS 6000 R09/1400D BCFG NSC 19/18 Q1010 NOSIG
ZJHK,2016-03-16 23:00,ZJHK 162300Z 22001MPS 0300 R09/0300 FG FEW006 18/18 Q1011 BECMG AT0040 1000 BR
ZJHK,2016-03-17 00:00,ZJHK 170000Z 21001MPS 0900 R09/0400N FG NSC 18/18 Q1012 BECMG AT0100 3000 BR
ZJHK,2016-03-17 01:00,ZJHK 170100Z 00000MPS 5000 BR NSC 21/21 Q1012 NOSIG
ZJHK,2016-03-17 02:00,ZJHK 170200Z 15005MPS 9999 SCT017 26/21 Q1012 NOSIG
ZJHK,2016-03-17 03:00,ZJHK 170300Z 15005MPS 9999 SCT020 27/22 Q1012 NOSIG
ZJHK,2016-03-17 04:00,ZJHK 170400Z 15004MPS 120V200 9999 FEW023 28/22 Q1011 NOSIG
ZJHK,2016-03-17 05:00,ZJHK 170500Z 15004MPS 110V200 9999 SCT023 29/22 Q1010 NOSIG
ZJHK,2016-03-17 06:00,ZJHK 170600Z 15005MPS 110V190 9999 FEW023 30/22 Q1009 NOSIG
ZJHK,2016-03-17 07:00,ZJHK 170700Z 16005MPS 130V200 9999 FEW023 30/22 Q1008 NOSIG
ZJHK,2016-03-17 08:00,ZJHK 170800Z 14006MPS CAVOK 29/22 Q1008 NOSIG
ZJHK,2016-03-17 09:00,ZJHK 170900Z 15004MPS 110V190 CAVOK 28/22 Q1008 NOSIG
ZJHK,2016-03-17 10:00,ZJHK 171000Z 14004MPS 110V170 CAVOK 27/21 Q1008 NOSIG
ZJHK,2016-03-17 11:00,ZJHK 171100Z 14004MPS 120V180 CAVOK 25/21 Q1008 NOSIG
ZJHK,2016-03-17 12:00,ZJHK 171200Z 15004MPS CAVOK 24/21 Q1009 NOSIG
ZJHK,2016-03-17 13:00,ZJHK 171300Z 16005MPS CAVOK 24/21 Q1010 NOSIG
ZJHK,2016-03-17 14:00,ZJHK 171400Z 16004MPS CAVOK 24/20 Q1010 NOSIG
ZJHK,2016-03-17 15:00,ZJHK 171500Z 17004MPS 140V200 CAVOK 23/20 Q1010 NOSIG
ZJHK,2016-03-17 16:00,ZJHK 171600Z 16004MPS 140V200 CAVOK 23/20 Q1009 NOSIG
ZJHK,2016-03-17 17:00,ZJHK 171700Z 16004MPS CAVOK 23/20 Q1009 NOSIG
ZJHK,2016-03-17 18:00,ZJHK 171800Z 16004MPS 130V190 CAVOK 22/20 Q1008 NOSIG
ZJHK,2016-03-17 19:00,ZJHK 171900Z 16004MPS 130V190 CAVOK 22/20 Q1007 NOSIG
ZJHK,2016-03-17 20:00,ZJHK 172000Z 28003MPS 250V310 CAVOK 21/19 Q1008 NOSIG
ZJHK,2016-03-17 21:00,ZJHK 172100Z 17002MPS CAVOK 21/19 Q1008 NOSIG
ZJHK,2016-03-17 22:00,ZJHK 172200Z 24001MPS CAVOK 20/19 Q1008 NOSIG
ZJHK,2016-03-17 23:00,ZJHK 172300Z 27002MPS 230V300 4000 BR NSC 20/19 Q1009 NOSIG
ZJHK,2016-03-18 00:00,ZJHK 180000Z 24002MPS 4000 BR NSC 20/19 Q1010 NOSIG
ZJHK,2016-03-18 01:00,ZJHK 180100Z 26003MPS 4000 BR NSC 21/19 Q1011 NOSIG
ZJHK,2016-03-18 02:00,ZJHK 180200Z 27001MPS 5000 BR NSC 23/20 Q1011 NOSIG
ZJHK,2016-03-18 03:00,ZJHK 180300Z 03001MPS 6000 NSC 25/20 Q1011 NOSIG
ZJHK,2016-03-18 04:00,ZJHK 180400Z 36004MPS 330V040 8000 NSC 25/20 Q1010 NOSIG
ZJHK,2016-03-18 05:00,ZJHK 180500Z 36004MPS CAVOK 25/20 Q1009 NOSIG
ZJHK,2016-03-18 06:00,ZJHK 180600Z 04005MPS 010V070 CAVOK 25/20 Q1008 NOSIG
ZJHK,2016-03-18 07:00,ZJHK 180700Z 03004MPS CAVOK 26/21 Q1007 NOSIG
ZJHK,2016-03-18 08:00,ZJHK 180800Z 02004MPS CAVOK 25/21 Q1007 NOSIG
ZJHK,2016-03-18 09:00,ZJHK 180900Z 36003MPS 330V060 CAVOK 23/19 Q1007 NOSIG
ZJHK,2016-03-18 10:00,ZJHK 181000Z 36003MPS 340V040 CAVOK 21/18 Q1007 NOSIG
ZJHK,2016-03-18 11:00,ZJHK 181100Z 36002MPS 330V050 8000 NSC 20/18 Q1007 NOSIG
ZJHK,2016-03-18 12:00,ZJHK 181200Z VRB02MPS 8000 SCT013 19/18 Q1008 NOSIG
ZJHK,2016-03-18 13:00,ZJHK 181300Z 35003MPS 310V040 6000 BKN012 19/18 Q1009 NOSIG
ZJHK,2016-03-18 14:00,ZJHK 181400Z 02001MPS 6000 NSC 19/18 Q1009 NOSIG
ZJHK,2016-03-18 15:00,ZJHK 181500Z 34001MPS 6000 NSC 19/18 Q1009 NOSIG
ZJHK,2016-03-18 16:00,ZJHK 181600Z 00000MPS 6000 NSC 19/18 Q1009 NOSIG
ZJHK,2016-03-18 17:00,ZJHK 181700Z 00000MPS 6000 R09/1400N BCFG NSC 18/18 Q1009 NOSIG
ZJHK,2016-03-18 18:00,ZJHK 181800Z 35002MPS 6000 BCFG NSC 19/18 Q1009 NOSIG
ZJHK,2016-03-18 19:00,ZJHK 181900Z 00000MPS 4000 BR BCFG NSC 18/17 Q1008 NOSIG
ZJHK,2016-03-18 20:00,ZJHK 182000Z 06001MPS 4000 BR BCFG NSC 18/17 Q1008 NOSIG
ZJHK,2016-03-18 21:00,ZJHK 182100Z 00000MPS 3500 BR BCFG NSC 17/17 Q1008 NOSIG
ZJHK,2016-03-18 22:00,ZJHK 182200Z 34001MPS 0500 R09/0450 FG VV001 18/17 Q1009 BECMG TL2340 0800 FG BKN002
ZJHK,2016-03-18 23:00,ZJHK 182300Z 09001MPS 0700 R09/0300 FG NSC 17/17 Q1010 BECMG TL2340 0800 FG
ZJHK,2016-03-19 00:00,ZJHK 190000Z 32001MPS 1500 R09/0800 BR NSC 18/18 Q1011 BECMG TL0120 3000 BR
ZJHK,2016-03-19 01:00,ZJHK 190100Z 26001MPS 3500 BR NSC 20/19 Q1011 NOSIG
ZJHK,2016-03-19 02:00,ZJHK 190200Z 29001MPS 7000 NSC 23/21 Q1012 NOSIG
ZJHK,2016-03-19 03:00,ZJHK 190300Z 17001MPS CAVOK 26/20 Q1012 NOSIG
ZJHK,2016-03-19 04:00,ZJHK 190400Z 15002MPS CAVOK 28/20 Q1011 NOSIG
ZJHK,2016-03-19 05:00,ZJHK 190500Z 07002MPS 010V160 CAVOK 30/21 Q1010 NOSIG
ZJHK,2016-03-19 06:00,ZJHK 190600Z 01003MPS 330V060 CAVOK 29/21 Q1009 NOSIG
ZJHK,2016-03-19 07:00,ZJHK 190700Z 03004MPS CAVOK 29/22 Q1008 NOSIG
ZJHK,2016-03-19 08:00,ZJHK 190800Z VRB02MPS CAVOK 31/23 Q1007 NOSIG
ZJHK,2016-03-19 09:00,ZJHK 190900Z 13005MPS 100V160 CAVOK 29/22 Q1007 NOSIG
ZJHK,2016-03-19 10:00,ZJHK 191000Z 13005MPS CAVOK 27/21 Q1007 NOSIG
ZJHK,2016-03-19 11:00,ZJHK 191100Z 14003MPS CAVOK 25/21 Q1008 NOSIG
ZJHK,2016-03-19 12:00,ZJHK 191200Z 14004MPS 110V180 CAVOK 24/21 Q1009 NOSIG
ZJHK,2016-03-19 13:00,ZJHK 191300Z 14002MPS CAVOK 23/21 Q1010 NOSIG
ZJHK,2016-03-19 14:00,ZJHK 191400Z 14002MPS 120V180 CAVOK 23/21 Q1010 NOSIG
ZJHK,2016-03-19 15:00,ZJHK 191500Z 15003MPS CAVOK 23/21 Q1011 NOSIG
ZJHK,2016-03-19 16:00,ZJHK 191600Z 15004MPS 110V170 CAVOK 23/21 Q1010 NOSIG
ZJHK,2016-03-19 17:00,ZJHK 191700Z 16004MPS CAVOK 23/20 Q1010 NOSIG
ZJHK,2016-03-19 18:00,ZJHK 191800Z 16005MPS CAVOK 23/21 Q1009 NOSIG
ZJHK,2016-03-19 19:00,ZJHK 191900Z 17004MPS CAVOK 22/20 Q1009 NOSIG
ZJHK,2016-03-19 20:00,ZJHK 192000Z 17002MPS CAVOK 22/20 Q1009 NOSIG
ZJHK,2016-03-19 21:00,ZJHK 192100Z 13003MPS 100V160 CAVOK 21/20 Q1009 NOSIG
ZJHK,2016-03-19 22:00,ZJHK 192200Z 12002MPS CAVOK 21/20 Q1010 NOSIG
ZJHK,2016-03-19 23:00,ZJHK 192300Z 14002MPS CAVOK 21/20 Q1011 NOSIG
ZJHK,2016-03-20 00:00,ZJHK 200000Z 15002MPS 110V190 CAVOK 23/21 Q1011 NOSIG
ZJHK,2016-03-20 01:00,ZJHK 200100Z 17003MPS 130V200 CAVOK 24/21 Q1012 NOSIG
ZJHK,2016-03-20 02:00,ZJHK 200200Z 18004MPS 140V210 CAVOK 27/20 Q1012 NOSIG
ZJHK,2016-03-20 03:00,ZJHK 200300Z 15004MPS 120V180 CAVOK 28/20 Q1011 NOSIG
ZJHK,2016-03-20 04:00,ZJHK 200400Z 15005MPS 110V190 CAVOK 30/20 Q1011 NOSIG
ZJHK,2016-03-20 05:00,ZJHK 200500Z 16005MPS 130V190 CAVOK 30/20 Q1010 NOSIG
ZJHK,2016-03-20 06:00,ZJHK 200600Z 15006MPS 120V180 CAVOK 31/20 Q1008 NOSIG
ZJHK,2016-03-20 07:00,ZJHK 200700Z 15006MPS 110V180 CAVOK 31/20 Q1007 NOSIG
ZJHK,2016-03-20 08:00,ZJHK 200800Z 14007MPS CAVOK 30/20 Q1007 NOSIG
ZJHK,2016-03-20 09:00,ZJHK 200900Z 14006MPS CAVOK 28/20 Q1007 NOSIG
ZJHK,2016-03-20 10:00,ZJHK 201000Z 15006MPS 110V170 CAVOK 27/20 Q1007 NOSIG
ZJHK,2016-03-20 11:00,ZJHK 201100Z 16005MPS CAVOK 25/20 Q1008 NOSIG
ZJHK,2016-03-20 12:00,ZJHK 201200Z 16005MPS CAVOK 24/20 Q1008 NOSIG
ZJHK,2016-03-20 13:00,ZJHK 201300Z 17004MPS CAVOK 23/20 Q1009 NOSIG
ZJHK,2016-03-20 14:00,ZJHK 201400Z 17003MPS 140V200 CAVOK 23/20 Q1010 NOSIG
ZJHK,2016-03-20 15:00,ZJHK 201500Z 16004MPS CAVOK 23/20 Q1010 NOSIG
ZJHK,2016-03-20 16:00,ZJHK 201600Z 15005MPS 120V180 CAVOK 23/20 Q1010 NOSIG
ZJHK,2016-03-20 17:00,ZJHK 201700Z 15006MPS CAVOK 23/20 Q1009 NOSIG
ZJHK,2016-03-20 18:00,ZJHK 201800Z 16006MPS CAVOK 23/20 Q1008 NOSIG
ZJHK,2016-03-20 19:00,ZJHK 201900Z 16006MPS 130V190 CAVOK 23/20 Q1008 NOSIG
ZJHK,2016-03-20 20:00,ZJHK 202000Z 16004MPS 140V200 CAVOK 23/20 Q1008 NOSIG
ZJHK,2016-03-20 21:00,ZJHK 202100Z 16005MPS 140V210 CAVOK 23/20 Q1008 NOSIG
ZJHK,2016-03-20 22:00,ZJHK 202200Z 17003MPS CAVOK 23/20 Q1009 NOSIG
ZJHK,2016-03-20 23:00,ZJHK 202300Z 16002MPS CAVOK 23/20 Q1009 NOSIG
ZJHK,2016-03-21 00:00,ZJHK 210000Z 15004MPS 120V180 CAVOK 24/20 Q1010 NOSIG
ZJHK,2016-03-21 01:00,ZJHK 210100Z 16004MPS 130V210 CAVOK 25/21 Q1010 NOSIG
ZJHK,2016-03-21 02:00,ZJHK 210200Z 16006MPS 130V190 9999 FEW020 27/20 Q1011 NOSIG
ZJHK,2016-03-21 03:00,ZJHK 210300Z 15005MPS 120V180 9999 FEW020 28/21 Q1011 NOSIG
ZJHK,2016-03-21 04:00,ZJHK 210400Z 15005MPS 130V190 9999 SCT023 29/20 Q1010 NOSIG
ZJHK,2016-03-21 05:00,ZJHK 210500Z 14005MPS 120V180 9999 SCT026 30/21 Q1009 NOSIG
ZJHK,2016-03-21 06:00,ZJHK 210600Z 13005MPS 9999 BKN026 29/21 Q1008 NOSIG
ZJHK,2016-03-21 07:00,ZJHK 210700Z 14007G12MPS 100V170 9999 FEW026 29/21 Q1007 NOSIG
ZJHK,2016-03-21 08:00,ZJHK 210800Z 14006MPS 090V180 9999 SCT033 29/21 Q1007 NOSIG
ZJHK,2016-03-21 09:00,ZJHK 210900Z 13007MPS 9999 SCT026 27/21 Q1007 NOSIG
ZJHK,2016-03-21 10:00,ZJHK 211000Z 14006MPS 110V170 9999 FEW023 26/20 Q1008 NOSIG
ZJHK,2016-03-21 11:00,ZJHK 211100Z 14006MPS 110V170 CAVOK 25/21 Q1008 NOSIG
ZJHK,2016-03-21 12:00,ZJHK 211200Z 13004MPS 100V170 9999 FEW013 24/21 Q1009 NOSIG
ZJHK,2016-03-21 13:00,ZJHK 211300Z 14005MPS 9999 SCT013 24/21 Q1009 NOSIG
ZJHK,2016-03-21 14:00,ZJHK 211400Z 12002MPS 080V160 9999 SCT013 23/21 Q1010 NOSIG
ZJHK,2016-03-21 15:00,ZJHK 211500Z 13004MPS 100V160 9999 BKN017 23/21 Q1010 NOSIG
ZJHK,2016-03-21 16:00,ZJHK 211600Z 14004MPS 9999 BKN017 24/21 Q1010 NOSIG
ZJHK,2016-03-21 17:00,ZJHK 211700Z 12003MPS 090V150 9999 BKN017 23/21 Q1010 NOSIG
ZJHK,2016-03-21 18:00,ZJHK 211800Z 13003MPS 100V160 9999 BKN017 23/21 Q1009 NOSIG
ZJHK,2016-03-21 19:00,ZJHK 211900Z 14003MPS 9999 BKN017 23/21 Q1009 NOSIG
ZJHK,2016-03-21 20:00,ZJHK 212000Z 14003MPS 9999 FEW016 23/21 Q1009 NOSIG
ZJHK,2016-03-21 21:00,ZJHK 212100Z 13002MPS 100V180 9999 FEW016 23/21 Q1009 NOSIG
ZJHK,2016-03-21 22:00,ZJHK 212200Z 14003MPS 9999 SCT013 23/21 Q1009 NOSIG
ZJHK,2016-03-21 23:00,ZJHK 212300Z 15002MPS 9999 SCT016 23/21 Q1010 NOSIG
ZJHK,2016-03-22 00:00,ZJHK 220000Z 12003MPS 090V150 9999 SCT015 BKN040 23/21 Q1011 NOSIG
ZJHK,2016-03-22 01:00,ZJHK 220100Z 14004MPS 110V170 9999 SCT016 BKN046 25/22 Q1011 NOSIG
ZJHK,2016-03-22 02:00,ZJHK 220200Z 14005MPS 9999 FEW016 BKN046 25/22 Q1012 NOSIG
ZJHK,2016-03-22 03:00,ZJHK 220300Z 15005MPS 110V180 9999 FEW016 26/21 Q1011 NOSIG
ZJHK,2016-03-22 04:00,ZJHK 220400Z 16008MPS 130V190 9999 FEW016 28/20 Q1010 NOSIG
ZJHK,2016-03-22 05:00,ZJHK 220500Z 15006MPS 120V200 9999 FEW016 28/21 Q1009 NOSIG
ZJHK,2016-03-22 06:00,ZJHK 220600Z 15006MPS 130V190 9999 SCT030 28/20 Q1008 NOSIG
ZJHK,2016-03-22 07:00,ZJHK 220700Z 14006MPS 110V180 9999 SCT030 28/20 Q1007 NOSIG
ZJHK,2016-03-22 08:00,ZJHK 220800Z 15005MPS 110V190 9999 FEW030 28/21 Q1007 NOSIG
ZJHK,2016-03-22 09:00,ZJHK 220900Z 14006MPS CAVOK 27/21 Q1007 NOSIG
ZJHK,2016-03-22 10:00,ZJHK 221000Z 14006MPS 120V180 CAVOK 26/21 Q1007 NOSIG
ZJHK,2016-03-22 11:00,ZJHK 221100Z 14006MPS CAVOK 25/21 Q1007 NOSIG
ZJHK,2016-03-22 12:00,ZJHK 221200Z 15005MPS CAVOK 24/21 Q1008 NOSIG
ZJHK,2016-03-22 14:00,ZJHK 221400Z 16005MPS 120V190 CAVOK 24/21 Q1009 NOSIG
ZJHK,2016-03-22 15:00,ZJHK 221500Z 16005MPS CAVOK 24/21 Q1009 NOSIG
ZJHK,2016-03-22 16:00,ZJHK 221600Z 16005MPS 140V200 CAVOK 23/21 Q1008 NOSIG
ZJHK,2016-03-22 17:00,ZJHK 221700Z 17004MPS 140V200 CAVOK 23/21 Q1008 NOSIG
ZJHK,2016-03-22 18:00,ZJHK 221800Z 17003MPS 140V200 CAVOK 23/21 Q1008 NOSIG
ZJHK,2016-03-22 19:00,ZJHK 221900Z 18001MPS CAVOK 22/21 Q1008 NOSIG
ZJHK,2016-03-22 20:00,ZJHK 222000Z 15002MPS CAVOK 22/21 Q1008 NOSIG
ZJHK,2016-03-22 21:00,ZJHK 222100Z 14002MPS CAVOK 21/20 Q1008 NOSIG
ZJHK,2016-03-22 22:00,ZJHK 222200Z 18001MPS 7000 NSC 21/20 Q1009 NOSIG
ZJHK,2016-03-22 23:00,ZJHK 222300Z 13001MPS 5000 BR NSC 20/20 Q1009 NOSIG
ZJHK,2016-03-23 00:00,ZJHK 230000Z 00000MPS 6000 NSC 22/21 Q1010 NOSIG
ZJHK,2016-03-23 01:00,ZJHK 230100Z 25001MPS CAVOK 23/21 Q1011 NOSIG
ZJHK,2016-03-23 02:00,ZJHK 230200Z 00000MPS CAVOK 25/21 Q1011 NOSIG
ZJHK,2016-03-23 03:00,ZJHK 230300Z 20001MPS CAVOK 27/21 Q1011 NOSIG
ZJHK,2016-03-23 04:00,ZJHK 230400Z 17001MPS 9999 FEW026 28/20 Q1011 NOSIG
ZJHK,2016-03-23 05:00,ZJHK 230500Z 02004MPS 340V070 9999 FEW026 28/21 Q1011 NOSIG
ZJHK,2016-03-23 06:00,ZJHK 230600Z 36004MPS 330V030 CAVOK 27/21 Q1010 NOSIG
ZJHK,2016-03-23 07:00,ZJHK 230700Z 36003MPS 330V050 9999 SCT046 27/21 Q1010 NOSIG
ZJHK,2016-03-23 08:00,ZJHK 230800Z 04003MPS 010V070 9999 SCT033 25/21 Q1009 NOSIG
ZJHK,2016-03-23 09:00,ZJHK 230900Z 02005MPS 360V060 9999 FEW030TCU SCT040 23/20 Q1009 NOSIG
ZJHK,2016-03-23 10:00,ZJHK 231000Z 02004MPS 350V070 9999 SCT040 23/20 Q1010 NOSIG
ZJHK,2016-03-23 11:00,ZJHK 231100Z 36002MPS 330V040 8000 NSC 22/20 Q1010 NOSIG
ZJHK,2016-03-23 12:00,ZJHK 231200Z 35002MPS 8000 NSC 22/20 Q1011 NOSIG
ZJHK,2016-03-23 13:00,ZJHK 231300Z 35002MPS 8000 NSC 22/20 Q1012 NOSIG
ZJHK,2016-03-23 14:00,ZJHK 231400Z 36001MPS 8000 NSC 21/20 Q1013 NOSIG
ZJHK,2016-03-23 15:00,ZJHK 231500Z 35002MPS 8000 NSC 21/19 Q1013 BECMG TL1650 02006MPS -TSRA BKN007 FEW030CB
ZJHK,2016-03-23 16:00,ZJHK 231600Z 34003MPS 310V020 4000 BR BKN003 BKN040 20/19 Q1014 NOSIG
ZJHK,2016-03-23 17:00,ZJHK 231700Z 34003MPS 2500 BR BKN003 20/19 Q1014 NOSIG
ZJHK,2016-03-23 18:00,ZJHK 231800Z 01005MPS 0300 R09/0800 FG VV001 19/19 Q1014 NOSIG
ZJHK,2016-03-23 19:00,ZJHK 231900Z 03005MPS 1600 BR OVC003 19/19 Q1013 NOSIG
ZJHK,2016-03-23 20:00,ZJHK 232000Z 05005MPS 5000 BR OVC005 19/19 Q1014 NOSIG
ZJHK,2016-03-23 21:00,ZJHK 232100Z 01007MPS 3000 -RA BR BKN006 OVC020 19/18 Q1014 NOSIG
ZJHK,2016-03-23 22:00,ZJHK 232200Z 05009MPS 5000 -RA BR BKN008 OVC020 17/17 Q1015 BECMG BKN004
ZJHK,2016-03-23 23:00,ZJHK 232300Z 03006MPS 8000 BKN008 OVC020 18/17 Q1016 BECMG BKN010
ZJHK,2016-03-24 00:00,ZJHK 240000Z 04006MPS 9999 BKN011 OVC020 18/16 Q1017 NOSIG
ZJHK,2016-03-24 01:00,ZJHK 240100Z 04008MPS 8000 BKN010 OVC020 17/16 Q1018 NOSIG
ZJHK,2016-03-24 02:00,ZJHK 240200Z 03006MPS 3000 -RA BR BKN008 OVC020 17/16 Q1019 BECMG 2000 -RA BR BKN004 OVC020
ZJHK,2016-03-24 03:00,ZJHK 240300Z 02008MPS 3000 -RA BR BKN005 OVC020 16/16 Q1019 BECMG 2000 -RA BR BKN004 OVC020
ZJHK,2016-03-24 04:00,ZJHK 240400Z 02008MPS 4000 -SHRA BR BKN006 SCT020CB BKN020 16/15 Q1020 BECMG 2000 RA BKN004 OVC030
ZJHK,2016-03-24 05:00,ZJHK 240500Z 02008MPS 4000 -SHRA BR BKN006 SCT020CB BKN020 16/15 Q1019 NOSIG
ZJHK,2016-03-24 06:00,ZJHK 240600Z 05006MPS 9999 BKN008 FEW026CB BKN040 17/16 Q1017 BECMG -TSRA
ZJHK,2016-03-24 07:00,ZJHK 240700Z 06008MPS 9999 BKN008 OVC040 17/15 Q1017 BECMG BKN010 OVC040
ZJHK,2016-03-24 08:00,ZJHK 240800Z 07007MPS 9999 BKN012 OVC040 17/16 Q1016 BECMG 2000 TSRA
ZJHK,2016-03-24 09:00,ZJHK 240900Z 01004MPS 330V050 5000 -SHRA BKN012 FEW023CB BKN033 17/16 Q1018 BECMG -TSRA
ZJHK,2016-03-24 10:00,ZJHK 241000Z 35005MPS 330V030 7000 -SHRA BKN006 FEW023CB BKN030 16/15 Q1019 BECMG -TSRA
ZJHK,2016-03-24 11:00,ZJHK 241100Z 02007MPS 6000 -SHRA BKN006 FEW023CB BKN026 15/15 Q1020 NOSIG
ZJHK,2016-03-24 12:00,ZJHK 241200Z 03008MPS 6000 -SHRA BKN007 FEW023CB BKN026 15/14 Q1020 NOSIG
ZJHK,2016-03-24 13:00,ZJHK 241300Z 36005MPS 320V030 6000 -SHRA BKN007 FEW023CB BKN026 15/14 Q1022 NOSIG
ZJHK,2016-03-24 14:00,ZJHK 241400Z 02006MPS 9999 BKN010 OVC040 15/14 Q1023 NOSIG
ZJHK,2016-03-24 15:00,ZJHK 241500Z 04006MPS 9999 BKN012 OVC040 15/14 Q1023 NOSIG
ZJHK,2016-03-24 16:00,ZJHK 241600Z 05006MPS 9999 BKN012 OVC040 15/13 Q1022 NOSIG
ZJHK,2016-03-24 17:00,ZJHK 241700Z 03005MPS 360V060 9999 BKN012 OVC040 15/14 Q1022 NOSIG
ZJHK,2016-03-24 18:00,ZJHK 241800Z 02004MPS 7000 -SHRA BKN008 FEW023TCU BKN030 15/14 Q1022 NOSIG
ZJHK,2016-03-24 19:00,ZJHK 241900Z 03006MPS 7000 -SHRA BKN008 FEW023TCU BKN030 15/14 Q1021 NOSIG
ZJHK,2016-03-24 20:00,ZJHK 242000Z 02005MPS 8000 -SHRA BKN008 FEW023TCU BKN030 15/13 Q1022 NOSIG
ZJHK,2016-03-24 21:00,ZJHK 242100Z 03007MPS 9999 BKN010 FEW023TCU BKN030 15/12 Q1022 NOSIG
ZJHK,2016-03-24 22:00,ZJHK 242200Z 04005MPS 9999 BKN012 BKN020 15/12 Q1022 NOSIG
ZJHK,2016-03-24 23:00,ZJHK 242300Z 03007MPS 9999 BKN012 BKN023 15/12 Q1023 NOSIG
ZJHK,2016-03-25 00:00,ZJHK 250000Z 03005MPS 9999 SCT014 OVC030 15/13 Q1024 NOSIG
ZJHK,2016-03-25 01:00,ZJHK 250100Z 03005MPS 9999 FEW016 OVC026 15/12 Q1025 NOSIG
ZJHK,2016-03-25 02:00,ZJHK 250200Z 03005MPS 9999 SCT018 OVC026 15/12 Q1026 BECMG TL0350 BKN012 OVC030
ZJHK,2016-03-25 03:00,ZJHK 250300Z 03004MPS 9999 -RA BKN016 OVC026 15/12 Q1026 BECMG AT0400 BKN012 OVC026
ZJHK,2016-03-25 04:00,ZJHK 250400Z 05004MPS 010V070 9999 -RA SCT016 OVC026 14/12 Q1025 NOSIG
ZJHK,2016-03-25 05:00,ZJHK 250500Z 03005MPS 9999 -RA SCT016 OVC026 14/12 Q1025 NOSIG
ZJHK,2016-03-25 06:00,ZJHK 250600Z 04003MPS 010V070 9999 -RA SCT016 OVC026 14/12 Q1024 NOSIG
ZJHK,2016-03-25 07:00,ZJHK 250700Z 05004MPS 8000 -RA SCT016 OVC026 14/12 Q1024 NOSIG
ZJHK,2016-03-25 08:00,ZJHK 250800Z 04004MPS 8000 SCT016 OVC026 14/12 Q1023 NOSIG
ZJHK,2016-03-25 09:00,ZJHK 250900Z 04003MPS 5000 -RA BR SCT014 OVC026 13/12 Q1023 NOSIG
ZJHK,2016-03-25 10:00,ZJHK 251000Z 06004MPS 6000 SCT016 OVC026 14/11 Q1023 NOSIG
ZJHK,2016-03-25 11:00,ZJHK 251100Z 04003MPS 7000 SCT016 OVC026 14/12 Q1023 NOSIG
ZJHK,2016-03-25 12:00,ZJHK 251200Z 05003MPS 8000 SCT020 OVC026 15/11 Q1023 NOSIG
ZJHK,2016-03-25 13:00,ZJHK 251300Z 05003MPS 8000 FEW020 OVC026 14/11 Q1024 NOSIG
ZJHK,2016-03-25 14:00,ZJHK 251400Z 05003MPS 8000 FEW020 OVC026 15/11 Q1024 NOSIG
ZJHK,2016-03-25 15:00,ZJHK 251500Z 03002MPS 360V060 8000 FEW020 OVC026 15/11 Q1025 NOSIG
ZJHK,2016-03-25 16:00,ZJHK 251600Z 01002MPS 8000 FEW020 OVC026 15/11 Q1025 NOSIG
ZJHK,2016-03-25 17:00,ZJHK 251700Z 36001MPS 9999 FEW020 OVC026 15/11 Q1025 NOSIG
ZJHK,2016-03-25 18:00,ZJHK 251800Z 04002MPS 9999 FEW020 OVC026 13/11 Q1024 NOSIG
ZJHK,2016-03-25 19:00,ZJHK 251900Z 02002MPS 9999 FEW020 OVC026 12/11 Q1023 NOSIG
ZJHK,2016-03-25 20:00,ZJHK 252000Z 12001MPS 9999 SCT040 11/10 Q1022 NOSIG
ZJHK,2016-03-25 21:00,ZJHK 252100Z 00000MPS 9999 SCT030 11/10 Q1022 NOSIG
ZJHK,2016-03-25 22:00,ZJHK 252200Z 00000MPS 8000 SCT030 12/11 Q1022 NOSIG
ZJHK,2016-03-25 23:00,ZJHK 252300Z 23001MPS 8000 R09/1300N NSC 11/10 Q1023 NOSIG
ZJHK,2016-03-26 00:00,ZJHK 260000Z 00000MPS 8000 NSC 13/13 Q1023 NOSIG
ZJHK,2016-03-26 01:00,ZJHK 260100Z 05003MPS 010V070 CAVOK 17/12 Q1024 NOSIG
ZJHK,2016-03-26 02:00,ZJHK 260200Z 07005MPS 9999 SCT020 19/11 Q1024 NOSIG
ZJHK,2016-03-26 03:00,ZJHK 260300Z 07006MPS 9999 BKN033 19/11 Q1024 NOSIG
ZJHK,2016-03-26 04:00,ZJHK 260400Z 07005MPS 040V100 9999 BKN033 20/11 Q1023 NOSIG
ZJHK,2016-03-26 05:00,ZJHK 260500Z 08005MPS 9999 BKN033 20/11 Q1022 NOSIG
ZJHK,2016-03-26 06:00,ZJHK 260600Z 06005MPS 030V090 9999 BKN033 20/11 Q1021 NOSIG
ZJHK,2016-03-26 07:00,ZJHK 260700Z 06005MPS 030V100 9999 BKN033 20/11 Q1021 NOSIG
ZJHK,2016-03-26 08:00,ZJHK 260800Z 07004MPS 050V110 9999 BKN040 20/11 Q1021 NOSIG
ZJHK,2016-03-26 09:00,ZJHK 260900Z 05005MPS 020V100 CAVOK 19/11 Q1021 NOSIG
ZJHK,2016-03-26 10:00,ZJHK 261000Z 05006MPS CAVOK 18/10 Q1021 NOSIG
ZJHK,2016-03-26 11:00,ZJHK 261100Z 05005MPS CAVOK 17/12 Q1022 NOSIG
ZJHK,2016-03-26 12:00,ZJHK 261200Z 04005MPS 8000 NSC 16/12 Q1023 NOSIG
ZJHK,2016-03-26 13:00,ZJHK 261300Z 05005MPS 8000 NSC 16/12 Q1023 NOSIG
ZJHK,2016-03-26 14:00,ZJHK 261400Z 04003MPS 8000 NSC 16/13 Q1024 NOSIG
ZJHK,2016-03-26 15:00,ZJHK 261500Z 04004MPS 010V070 8000 NSC 16/13 Q1024 NOSIG
ZJHK,2016-03-26 16:00,ZJHK 261600Z 05004MPS CAVOK 16/13 Q1024 NOSIG
ZJHK,2016-03-26 17:00,ZJHK 261700Z 05003MPS CAVOK 15/13 Q1024 NOSIG
ZJHK,2016-03-26 18:00,ZJHK 261800Z 06002MPS CAVOK 15/13 Q1023 NOSIG
ZJHK,2016-03-26 19:00,ZJHK 261900Z 00000MPS 8000 NSC 14/13 Q1023 NOSIG
ZJHK,2016-03-26 20:00,ZJHK 262000Z 00000MPS 4000 BR BCFG NSC 12/12 Q1022 NOSIG
ZJHK,2016-03-26 21:00,ZJHK 262100Z 28001MPS 4000 BR BCFG NSC 13/12 Q1023 NOSIG
ZJHK,2016-03-26 22:00,ZJHK 262200Z 00000MPS 4000 R09/0450 BR BCFG NSC 12/11 Q1023 NOSIG
ZJHK,2016-03-26 23:00,ZJHK 262300Z 01001MPS 3000 BR BCFG NSC 13/12 Q1024 NOSIG
ZJHK,2016-03-27 00:00,ZJHK 270000Z 01002MPS 5000 BR NSC 16/14 Q1025 NOSIG
ZJHK,2016-03-27 01:00,ZJHK 270100Z 02005MPS 350V050 9999 SCT013 18/14 Q1026 NOSIG
ZJHK,2016-03-27 02:00,ZJHK 270200Z 02004MPS 340V060 9999 SCT020 19/14 Q1026 NOSIG
ZJHK,2016-03-27 03:00,ZJHK 270300Z 03005MPS 360V060 9999 SCT020 20/12 Q1025 NOSIG
ZJHK,2016-03-27 04:00,ZJHK 270400Z 01006MPS 330V040 9999 FEW033 21/10 Q1025 NOSIG
ZJHK,2016-03-27 05:00,ZJHK 270500Z 02006MPS 360V060 9999 FEW033 21/12 Q1024 NOSIG
ZJHK,2016-03-27 06:00,ZJHK 270600Z 02006MPS 330V050 9999 FEW033 20/11 Q1023 NOSIG
ZJHK,2016-03-27 07:00,ZJHK 270700Z 05006MPS 010V070 9999 FEW033 21/10 Q1022 NOSIG
ZJHK,2016-03-27 08:00,ZJHK 270800Z 06006MPS 030V090 9999 FEW033 20/11 Q1022 NOSIG
ZJHK,2016-03-27 09:00,ZJHK 270900Z 06006MPS 9999 FEW026 19/12 Q1022 NOSIG
ZJHK,2016-03-27 10:00,ZJHK 271000Z 06005MPS CAVOK 18/11 Q1022 NOSIG
ZJHK,2016-03-27 11:00,ZJHK 271100Z 06005MPS CAVOK 18/12 Q1023 NOSIG
ZJHK,2016-03-27 12:00,ZJHK 271200Z 09003MPS CAVOK 16/12 Q1023 NOSIG
ZJHK,2016-03-27 13:00,ZJHK 271300Z 10002MPS 8000 NSC 15/13 Q1024 NOSIG
ZJHK,2016-03-27 14:00,ZJHK 271400Z 11002MPS 7000 NSC 16/13 Q1024 NOSIG
ZJHK,2016-03-27 15:00,ZJHK 271500Z 12001MPS 7000 NSC 15/12 Q1024 NOSIG
ZJHK,2016-03-27 16:00,ZJHK 271600Z 13001MPS 6000 NSC 14/13 Q1024 NOSIG
ZJHK,2016-03-27 17:00,ZJHK 271700Z 14001MPS 6000 NSC 15/13 Q1023 NOSIG
ZJHK,2016-03-27 18:00,ZJHK 271800Z 14001MPS 6000 NSC 15/13 Q1023 NOSIG
ZJHK,2016-03-27 19:00,ZJHK 271900Z 00000MPS 6000 NSC 14/13 Q1022 NOSIG
ZJHK,2016-03-27 20:00,ZJHK 272000Z 00000MPS 6000 NSC 15/13 Q1022 NOSIG
ZJHK,2016-03-27 21:00,ZJHK 272100Z 00000MPS 6000 NSC 15/14 Q1022 NOSIG
ZJHK,2016-03-27 22:00,ZJHK 272200Z 11001MPS 6000 NSC 15/13 Q1022 NOSIG
ZJHK,2016-03-27 23:00,ZJHK 272300Z 13001MPS 7000 NSC 15/14 Q1022 NOSIG
ZJHK,2016-03-28 00:00,ZJHK 280000Z 10002MPS 8000 NSC 16/13 Q1023 NOSIG
ZJHK,2016-03-28 01:00,ZJHK 280100Z 05003MPS 8000 NSC 18/13 Q1024 NOSIG
ZJHK,2016-03-28 02:00,ZJHK 280200Z 08005MPS 060V120 CAVOK 19/12 Q1024 NOSIG
ZJHK,2016-03-28 03:00,ZJHK 280300Z 09006MPS CAVOK 20/11 Q1024 NOSIG
ZJHK,2016-03-28 04:00,ZJHK 280400Z 09005MPS 9999 BKN016 22/11 Q1023 NOSIG
ZJHK,2016-03-28 05:00,ZJHK 280500Z 10004MPS 060V130 9999 SCT016 22/11 Q1022 NOSIG
ZJHK,2016-03-28 06:00,ZJHK 280600Z 10005MPS 070V140 9999 SCT016 22/11 Q1021 NOSIG
ZJHK,2016-03-28 07:00,ZJHK 280700Z 10005MPS 9999 SCT016 BKN046 21/11 Q1021 NOSIG
ZJHK,2016-03-28 08:00,ZJHK 280800Z 08007MPS 9999 SCT023 21/12 Q1020 NOSIG
ZJHK,2016-03-28 09:00,ZJHK 280900Z 08006MPS 9999 BKN040 20/12 Q1020 NOSIG
ZJHK,2016-03-28 10:00,ZJHK 281000Z 09005MPS 9999 BKN040 19/13 Q1021 NOSIG
ZJHK,2016-03-28 11:00,ZJHK 281100Z 09004MPS CAVOK 19/13 Q1020 NOSIG
ZJHK,2016-03-28 12:00,ZJHK 281200Z 08003MPS CAVOK 18/13 Q1021 NOSIG
ZJHK,2016-03-28 13:00,ZJHK 281300Z 09003MPS CAVOK 17/13 Q1021 NOSIG
ZJHK,2016-03-28 14:00,ZJHK 281400Z 10002MPS CAVOK 16/13 Q1022 NOSIG
ZJHK,2016-03-28 15:00,ZJHK 281500Z 08001MPS CAVOK 16/14 Q1022 NOSIG
ZJHK,2016-03-28 16:00,ZJHK 281600Z 05002MPS CAVOK 17/14 Q1022 NOSIG
ZJHK,2016-03-28 17:00,ZJHK 281700Z 09003MPS CAVOK 17/14 Q1021 NOSIG
ZJHK,2016-03-28 18:00,ZJHK 281800Z 09002MPS CAVOK 17/15 Q1021 NOSIG
ZJHK,2016-03-28 19:00,ZJHK 281900Z 09003MPS CAVOK 16/14 Q1020 NOSIG
ZJHK,2016-03-28 20:00,ZJHK 282000Z 10002MPS 8000 NSC 16/14 Q1019 NOSIG
ZJHK,2016-03-28 21:00,ZJHK 282100Z 09001MPS 8000 NSC 15/14 Q1020 NOSIG
ZJHK,2016-03-28 22:00,ZJHK 282200Z 13001MPS 8000 NSC 15/14 Q1020 NOSIG
ZJHK,2016-03-28 23:00,ZJHK 282300Z 00000MPS 5000 BR NSC 14/14 Q1021 NOSIG
ZJHK,2016-03-29 00:00,ZJHK 290000Z 00000MPS 6000 NSC 17/15 Q1021 NOSIG
ZJHK,2016-03-29 01:00,ZJHK 290100Z 10002MPS 7000 SCT020 19/16 Q1022 NOSIG
ZJHK,2016-03-29 02:00,ZJHK 290200Z 10004MPS 070V140 9999 BKN020 21/16 Q1022 NOSIG
ZJHK,2016-03-29 03:00,ZJHK 290300Z 09003MPS 9999 SCT023 SCT040 22/16 Q1022 NOSIG
ZJHK,2016-03-29 04:00,ZJHK 290400Z 10003MPS 050V160 9999 SCT023 SCT040 23/16 Q1021 NOSIG
ZJHK,2016-03-29 05:00,ZJHK 290500Z 11003MPS 080V140 9999 BKN030 22/16 Q1020 NOSIG
ZJHK,2016-03-29 06:00,ZJHK 290600Z 08003MPS 9999 FEW026TCU BKN026 22/16 Q1019 NOSIG
ZJHK,2016-03-29 07:00,ZJHK 290700Z 05005MPS 9999 FEW026TCU BKN040 22/17 Q1018 NOSIG
ZJHK,2016-03-29 08:00,ZJHK 290800Z 06004MPS 9999 SCT040 22/17 Q1017 NOSIG
ZJHK,2016-03-29 09:00,ZJHK 290900Z 06005MPS 9999 SCT040 22/17 Q1017 NOSIG
ZJHK,2016-03-29 10:00,ZJHK 291000Z 06005MPS 8000 SCT040 20/17 Q1017 NOSIG
ZJHK,2016-03-29 11:00,ZJHK 291100Z 09004MPS 6000 FEW040 19/17 Q1018 NOSIG
ZJHK,2016-03-29 12:00,ZJHK 291200Z 09004MPS 6000 NSC 18/17 Q1018 NOSIG
ZJHK,2016-03-29 13:00,ZJHK 291300Z 09003MPS 4000 BR NSC 18/17 Q1019 NOSIG
ZJHK,2016-03-29 14:00,ZJHK 291400Z 11002MPS 4000 BR NSC 17/17 Q1019 NOSIG
ZJHK,2016-03-29 15:00,ZJHK 291500Z 09002MPS 3000 BR NSC 17/16 Q1019 NOSIG
ZJHK,2016-03-29 16:00,ZJHK 291600Z 11002MPS 3000 BR NSC 17/17 Q1019 NOSIG
ZJHK,2016-03-29 17:00,ZJHK 291700Z 11002MPS 3000 BR NSC 17/16 Q1018 NOSIG
ZJHK,2016-03-29 18:00,ZJHK 291800Z 00000MPS 2000 R09/0900V1300N BR NSC 16/16 Q1018 NOSIG
ZJHK,2016-03-29 19:00,ZJHK 291900Z 19001MPS 2000 BR SCT004 17/17 Q1017 NOSIG
ZJHK,2016-03-29 20:00,ZJHK 292000Z 26001MPS 2000 BR BKN004 17/17 Q1018 NOSIG
ZJHK,2016-03-29 21:00,ZJHK 292100Z 27001MPS 3000 BR BKN008 18/17 Q1017 NOSIG
ZJHK,2016-03-29 22:00,ZJHK 292200Z 00000MPS 3000 BR BKN008 18/17 Q1018 NOSIG
ZJHK,2016-03-29 23:00,ZJHK 292300Z 11001MPS 3000 BR SCT012 BKN020 18/17 Q1019 NOSIG
ZJHK,2016-03-30 00:00,ZJHK 300000Z 09002MPS 5000 BR SCT013 BKN030 19/18 Q1019 NOSIG
ZJHK,2016-03-30 01:00,ZJHK 300100Z 11003MPS 7000 BKN010 20/18 Q1019 NOSIG
ZJHK,2016-03-30 02:00,ZJHK 300200Z 12003MPS 080V150 9999 BKN013 OVC040 21/18 Q1019 NOSIG
ZJHK,2016-03-30 03:00,ZJHK 300300Z 09003MPS 050V120 9999 BKN016 OVC040 22/18 Q1019 NOSIG
ZJHK,2016-03-30 04:00,ZJHK 300400Z 06002MPS 030V100 9999 BKN016 BKN040 22/19 Q1018 NOSIG
ZJHK,2016-03-30 05:00,ZJHK 300500Z 04003MPS 350V080 9999 BKN023 24/19 Q1017 NOSIG
ZJHK,2016-03-30 06:00,ZJHK 300600Z 01003MPS 320V060 9999 BKN023 24/19 Q1016 NOSIG
ZJHK,2016-03-30 07:00,ZJHK 300700Z 01005MPS 9000 BKN023 BKN040 22/19 Q1016 NOSIG
ZJHK,2016-03-30 08:00,ZJHK 300800Z 02004MPS 360V060 9000 SCT023 BKN040 23/19 Q1015 NOSIG
ZJHK,2016-03-30 09:00,ZJHK 300900Z 04006MPS 7000 SCT011 BKN040 22/19 Q1015 NOSIG
ZJHK,2016-03-30 10:00,ZJHK 301000Z 05005MPS 6000 SCT010 BKN030 21/19 Q1015 NOSIG
ZJHK,2016-03-30 11:00,ZJHK 301100Z 05005MPS 5000 BR SCT007 BKN026 20/18 Q1016 NOSIG
ZJHK,2016-03-30 12:00,ZJHK 301200Z 07004MPS 4000 BR SCT007 BKN026 20/19 Q1017 NOSIG
ZJHK,2016-03-30 13:00,ZJHK 301300Z 08004MPS 4000 BR BKN007 OVC026 20/18 Q1017 NOSIG
ZJHK,2016-03-30 14:00,ZJHK 301400Z 07004MPS 4000 BR BKN007 OVC026 20/18 Q1017 NOSIG
ZJHK,2016-03-30 15:00,ZJHK 301500Z 07003MPS 4000 BR BKN007 OVC040 20/18 Q1017 NOSIG
ZJHK,2016-03-30 16:00,ZJHK 301600Z 08003MPS 4000 BR BKN006 OVC040 20/19 Q1017 NOSIG
ZJHK,2016-03-30 17:00,ZJHK 301700Z 08002MPS 4000 BR BKN006 OVC040 20/19 Q1017 NOSIG
ZJHK,2016-03-30 18:00,ZJHK 301800Z 08002MPS 4000 BR BKN016 OVC040 20/19 Q1016 NOSIG
ZJHK,2016-03-30 19:00,ZJHK 301900Z 09001MPS 4000 BR BKN016 OVC040 20/19 Q1015 NOSIG
ZJHK,2016-03-30 20:00,ZJHK 302000Z 00000MPS 3500 BR SCT016 OVC026 19/19 Q1015 NOSIG
ZJHK,2016-03-30 21:00,ZJHK 302100Z 01001MPS 3500 BR BKN004 OVC026 20/19 Q1015 NOSIG
ZJHK,2016-03-30 22:00,ZJHK 302200Z 04001MPS 3000 BR SCT013 OVC026 19/18 Q1015 NOSIG
ZJHK,2016-03-30 23:00,ZJHK 302300Z 08001MPS 3000 BR BKN016 OVC040 19/19 Q1016 NOSIG
ZJHK,2016-03-31 00:00,ZJHK 310000Z 36001MPS 2800 BR SCT006 BKN016 OVC040 20/19 Q1017 NOSIG
ZJHK,2016-03-31 01:00,ZJHK 310100Z 02001MPS 2800 BR SCT006 OVC023 20/19 Q1017 NOSIG
ZJHK,2016-03-31 02:00,ZJHK 310200Z 03002MPS 3500 BR SCT006 OVC023 21/19 Q1017 NOSIG
ZJHK,2016-03-31 03:00,ZJHK 310300Z 07001MPS 3500 BR SCT010 OVC023 22/19 Q1017 NOSIG
ZJHK,2016-03-31 04:00,ZJHK 310400Z 35002MPS 320V020 4000 BR SCT010 OVC026 22/20 Q1017 NOSIG
ZJHK,2016-03-31 05:00,ZJHK 310500Z 04001MPS 4000 BR SCT010 OVC026 24/20 Q1015 NOSIG
ZJHK,2016-03-31 06:00,ZJHK 310600Z 02003MPS 330V060 5000 BR FEW010 OVC026 24/20 Q1014 NOSIG
ZJHK,2016-03-31 07:00,ZJHK 310700Z 02004MPS 5000 BR FEW013 OVC033 23/20 Q1014 NOSIG
ZJHK,2016-03-31 08:00,ZJHK 310800Z 02004MPS 6000 BKN040 22/19 Q1013 NOSIG
ZJHK,2016-03-31 09:00,ZJHK 310900Z 02003MPS 360V060 6000 NSC 22/20 Q1013 NOSIG
ZJHK,2016-03-31 10:00,ZJHK 311000Z 02003MPS 350V050 3500 BR FEW013 21/19 Q1013 NOSIG
ZJHK,2016-03-31 11:00,ZJHK 311100Z 06005MPS 4500 BR SCT008 OVC030 21/19 Q1013 BECMG TL1200 BKN006
ZJHK,2016-03-31 12:00,ZJHK 311200Z 08003MPS 4000 BR FEW008 20/19 Q1014 NOSIG
ZJHK,2016-03-31 13:00,ZJHK 311300Z 10002MPS 4000 BR NSC 20/19 Q1014 NOSIG
ZJHK,2016-03-31 14:00,ZJHK 311400Z 14002MPS 6000 FEW015 20/19 Q1014 BECMG TL1540 BKN008
ZJHK,2016-03-31 15:00,ZJHK 311500Z 09001MPS 5000 BR BKN013 20/19 Q1014 BECMG TL1540 BKN008
ZJHK,2016-03-31 16:00,ZJHK 311600Z 09001MPS 3000 BR BKN008 20/19 Q1014 BECMG TL1740 2000 BR
ZJHK,2016-03-31 17:00,ZJHK 311700Z 09002MPS 3000 BR BKN008 20/20 Q1014 NOSIG
ZJHK,2016-03-31 18:00,ZJHK 311800Z 10001MPS 2000 BR SCT005 20/19 Q1013 NOSIG
ZJHK,2016-03-31 19:00,ZJHK 311900Z 09002MPS 1800 BR BKN003 20/20 Q1012 NOSIG
ZJHK,2016-03-31 20:00,ZJHK 312000Z 09001MPS 1800 R09/0900V1300U BR BKN004 20/19 Q1012 NOSIG
ZJHK,2016-03-31 21:00,ZJHK 312100Z 12002MPS 2500 BR BKN004 20/20 Q1012 NOSIG
ZJHK,2016-03-31 22:00,ZJHK 312200Z 08001MPS 2500 BR BKN004 20/20 Q1013 BECMG TL2320 3000 BR BKN006
ZJHK,2016-03-31 23:00,ZJHK 312300Z 09002MPS 2500 BR BKN004 OVC023 20/20 Q1014 BECMG TL2350 3000 BR BKN006 BKN023
ZJHK,2016-04-01 00:00,ZJHK 010000Z 11002MPS 3000 BR SCT007 21/20 Q1014 NOSIG
ZJHK,2016-04-01 01:00,ZJHK 010100Z 13003MPS 090V160 5000 BR SCT007 23/21 Q1015 NOSIG
ZJHK,2016-04-01 02:00,ZJHK 010200Z 12004MPS 060V150 8000 SCT010 BKN030 24/21 Q1015 NOSIG
ZJHK,2016-04-01 03:00,ZJHK 010300Z 14004MPS 100V180 8000 SCT016 BKN040 25/21 Q1014 NOSIG
ZJHK,2016-04-01 04:00,ZJHK 010400Z 13003MPS 100V160 9999 SCT020 BKN040 26/21 Q1014 NOSIG
ZJHK,2016-04-01 05:00,ZJHK 010500Z 14004MPS 090V170 9999 FEW026 27/20 Q1013 NOSIG
ZJHK,2016-04-01 06:00,ZJHK 010600Z 14004MPS 110V180 9999 FEW026 27/21 Q1012 NOSIG
ZJHK,2016-04-01 07:00,ZJHK 010700Z 15004MPS 120V190 9999 FEW026 27/20 Q1011 NOSIG
ZJHK,2016-04-01 08:00,ZJHK 010800Z 13004MPS 100V170 9999 FEW026 27/20 Q1010 NOSIG
ZJHK,2016-04-01 09:00,ZJHK 010900Z 13005MPS 100V160 9999 FEW026 27/20 Q1010 NOSIG
ZJHK,2016-04-01 10:00,ZJHK 011000Z 13006MPS 9999 FEW026 25/20 Q1010 NOSIG
ZJHK,2016-04-01 11:00,ZJHK 011100Z 14004MPS 100V160 CAVOK 24/20 Q1011 NOSIG
ZJHK,2016-04-01 12:00,ZJHK 011200Z 14004MPS 110V170 CAVOK 23/21 Q1011 NOSIG
ZJHK,2016-04-01 13:00,ZJHK 011300Z 15004MPS 120V180 CAVOK 23/21 Q1012 NOSIG
ZJHK,2016-04-01 14:00,ZJHK 011400Z 14005MPS CAVOK 23/21 Q1012 NOSIG
ZJHK,2016-04-01 15:00,ZJHK 011500Z 15004MPS CAVOK 23/21 Q1013 NOSIG
ZJHK,2016-04-01 16:00,ZJHK 011600Z 16004MPS CAVOK 23/21 Q1013 NOSIG
ZJHK,2016-04-01 17:00,ZJHK 011700Z 15003MPS 110V180 CAVOK 22/21 Q1013 NOSIG
ZJHK,2016-04-01 18:00,ZJHK 011800Z 14002MPS 110V170 CAVOK 22/21 Q1012 NOSIG
ZJHK,2016-04-01 19:00,ZJHK 011900Z 15002MPS CAVOK 22/21 Q1012 NOSIG
ZJHK,2016-04-01 20:00,ZJHK 012000Z 15002MPS 9999 BKN020 22/21 Q1011 NOSIG
ZJHK,2016-04-01 21:00,ZJHK 012100Z 15002MPS 9999 BKN020 23/21 Q1012 NOSIG
ZJHK,2016-04-01 22:00,ZJHK 012200Z 13001MPS 9999 FEW015 BKN020 22/21 Q1012 NOSIG
ZJHK,2016-04-01 23:00,ZJHK 012300Z 14002MPS 9999 FEW020 22/21 Q1013 NOSIG
ZJHK,2016-04-02 00:00,ZJHK 020000Z 14002MPS 100V170 9999 FEW013 23/21 Q1014 NOSIG
ZJHK,2016-04-02 01:00,ZJHK 020100Z 15004MPS 9999 SCT016 24/21 Q1014 NOSIG
ZJHK,2016-04-02 02:00,ZJHK 020200Z 15005MPS 120V180 9999 SCT016 26/21 Q1015 NOSIG
ZJHK,2016-04-02 03:00,ZJHK 020300Z 15006MPS 120V190 9999 SCT016 27/20 Q1014 NOSIG
ZJHK,2016-04-02 04:00,ZJHK 020400Z 14005MPS 9999 SCT016 28/20 Q1014 NOSIG
ZJHK,2016-04-02 05:00,ZJHK 020500Z 16006MPS 130V190 9999 SCT016 28/21 Q1013 NOSIG
ZJHK,2016-04-02 06:00,ZJHK 020600Z 15005MPS 120V200 9999 SCT016 29/20 Q1012 NOSIG
ZJHK,2016-04-02 07:00,ZJHK 020700Z 14005MPS 100V180 9999 FEW016 30/19 Q1011 NOSIG
ZJHK,2016-04-02 08:00,ZJHK 020800Z 14006MPS 9999 FEW016 29/20 Q1010 NOSIG
ZJHK,2016-04-02 09:00,ZJHK 020900Z 14005MPS 110V180 CAVOK 28/20 Q1010 NOSIG
ZJHK,2016-04-02 10:00,ZJHK 021000Z 13004MPS 100V160 CAVOK 27/19 Q1010 NOSIG
ZJHK,2016-04-02 11:00,ZJHK 021100Z 13004MPS 100V160 CAVOK 25/20 Q1011 NOSIG
ZJHK,2016-04-02 12:00,ZJHK 021200Z 13004MPS CAVOK 23/21 Q1012 NOSIG
ZJHK,2016-04-02 13:00,ZJHK 021300Z 15004MPS 120V190 9999 FEW013 23/21 Q1013 NOSIG
ZJHK,2016-04-02 14:00,ZJHK 021400Z 15004MPS 120V180 CAVOK 23/21 Q1013 NOSIG
ZJHK,2016-04-02 15:00,ZJHK 021500Z 14004MPS CAVOK 23/21 Q1014 NOSIG
ZJHK,2016-04-02 16:00,ZJHK 021600Z 15004MPS CAVOK 23/21 Q1014 NOSIG
ZJHK,2016-04-02 17:00,ZJHK 021700Z 16003MPS 130V210 CAVOK 23/21 Q1014 NOSIG
ZJHK,2016-04-02 18:00,ZJHK 021800Z 18003MPS 140V210 CAVOK 23/21 Q1013 NOSIG
ZJHK,2016-04-02 19:00,ZJHK 021900Z 16002MPS 130V200 CAVOK 23/21 Q1012 NOSIG
ZJHK,2016-04-02 20:00,ZJHK 022000Z 13002MPS CAVOK 22/21 Q1011 NOSIG
ZJHK,2016-04-02 21:00,ZJHK 022100Z 19001MPS CAVOK 22/21 Q1012 NOSIG
ZJHK,2016-04-02 22:00,ZJHK 022200Z 14001MPS CAVOK 22/21 Q1012 NOSIG
ZJHK,2016-04-02 23:00,ZJHK 022300Z 26001MPS 7000 NSC 21/21 Q1013 NOSIG
ZJHK,2016-04-03 00:00,ZJHK 030000Z 13001MPS 7000 NSC 22/21 Q1014 NOSIG
ZJHK,2016-04-03 01:00,ZJHK 030100Z 16003MPS 130V210 CAVOK 24/22 Q1014 NOSIG
ZJHK,2016-04-03 02:00,ZJHK 030200Z 14003MPS 110V180 CAVOK 26/22 Q1014 NOSIG
ZJHK,2016-04-03 03:00,ZJHK 030300Z 17004MPS 130V190 9999 SCT023 28/21 Q1014 NOSIG
ZJHK,2016-04-03 04:00,ZJHK 030400Z 16004MPS 110V200 9999 SCT026 28/20 Q1014 NOSIG
ZJHK,2016-04-03 05:00,ZJHK 030500Z 15004MPS 110V190 9999 SCT033 30/20 Q1012 NOSIG
ZJHK,2016-04-03 06:00,ZJHK 030600Z 14003MPS 100V200 9999 SCT033 30/21 Q1011 NOSIG
ZJHK,2016-04-03 07:00,ZJHK 030700Z 13004MPS 090V170 9999 SCT030 31/21 Q1010 NOSIG
ZJHK,2016-04-03 08:00,ZJHK 030800Z 13005MPS 110V170 9999 SCT030 29/21 Q1009 NOSIG
ZJHK,2016-04-03 09:00,ZJHK 030900Z 14006MPS 9999 FEW030 28/21 Q1009 NOSIG
ZJHK,2016-04-03 10:00,ZJHK 031000Z 14004MPS 100V170 CAVOK 27/21 Q1009 NOSIG
ZJHK,2016-04-03 11:00,ZJHK 031100Z 13003MPS CAVOK 25/21 Q1010 NOSIG
ZJHK,2016-04-03 12:00,ZJHK 031200Z 15002MPS 110V180 CAVOK 24/21 Q1010 NOSIG
ZJHK,2016-04-03 13:00,ZJHK 031300Z 12002MPS CAVOK 23/21 Q1011 NOSIG
ZJHK,2016-04-03 14:00,ZJHK 031400Z 14003MPS CAVOK 23/21 Q1012 NOSIG
ZJHK,2016-04-03 15:00,ZJHK 031500Z 16002MPS CAVOK 23/21 Q1012 NOSIG
ZJHK,2016-04-03 16:00,ZJHK 031600Z 16002MPS 140V200 CAVOK 23/21 Q1011 NOSIG
ZJHK,2016-04-03 17:00,ZJHK 031700Z 15002MPS CAVOK 23/21 Q1011 NOSIG
ZJHK,2016-04-03 18:00,ZJHK 031800Z 16002MPS 140V200 CAVOK 23/21 Q1011 NOSIG
ZJHK,2016-04-03 19:00,ZJHK 031900Z 13001MPS CAVOK 22/21 Q1010 NOSIG
ZJHK,2016-04-03 20:00,ZJHK 032000Z 16002MPS 130V190 CAVOK 22/21 Q1010 NOSIG
ZJHK,2016-04-03 21:00,ZJHK 032100Z 16003MPS 130V200 CAVOK 22/21 Q1010 NOSIG
ZJHK,2016-04-03 22:00,ZJHK 032200Z 18002MPS CAVOK 22/21 Q1010 NOSIG
ZJHK,2016-04-03 23:00,ZJHK 032300Z 17003MPS 9999 SCT040 22/21 Q1011 NOSIG
ZJHK,2016-04-04 00:00,ZJHK 040000Z 18002MPS 9999 SCT040 23/21 Q1011 NOSIG
ZJHK,2016-04-04 01:00,ZJHK 040100Z 17004MPS CAVOK 25/21 Q1011 NOSIG
ZJHK,2016-04-04 02:00,ZJHK 040200Z 19003MPS 150V230 CAVOK 27/21 Q1012 NOSIG
ZJHK,2016-04-04 03:00,ZJHK 040300Z 19003MPS 150V220 CAVOK 28/21 Q1011 NOSIG
ZJHK,2016-04-04 04:00,ZJHK 040400Z 17003MPS 130V210 CAVOK 30/21 Q1011 NOSIG
ZJHK,2016-04-04 05:00,ZJHK 040500Z 19003MPS 150V220 CAVOK 31/21 Q1009 NOSIG
ZJHK,2016-04-04 06:00,ZJHK 040600Z 18004MPS 150V220 CAVOK 32/21 Q1008 NOSIG
ZJHK,2016-04-04 07:00,ZJHK 040700Z 22003MPS 170V260 9999 FEW023 32/21 Q1007 NOSIG
ZJHK,2016-04-04 08:00,ZJHK 040800Z 34004MPS 9999 FEW023 29/21 Q1007 NOSIG
ZJHK,2016-04-04 09:00,ZJHK 040900Z 34003MPS 320V020 CAVOK 28/21 Q1006 NOSIG
ZJHK,2016-04-04 10:00,ZJHK 041000Z 36001MPS CAVOK 27/22 Q1006 NOSIG
ZJHK,2016-04-04 11:00,ZJHK 041100Z 17004MPS 140V200 CAVOK 27/20 Q1007 NOSIG
ZJHK,2016-04-04 12:00,ZJHK 041200Z 16004MPS CAVOK 26/20 Q1008 NOSIG
ZJHK,2016-04-04 13:00,ZJHK 041300Z 16005MPS CAVOK 25/20 Q1009 NOSIG
ZJHK,2016-04-04 14:00,ZJHK 041400Z 16004MPS 130V190 CAVOK 25/20 Q1010 NOSIG
ZJHK,2016-04-04 15:00,ZJHK 041500Z 16005MPS CAVOK 24/20 Q1010 NOSIG
ZJHK,2016-04-04 16:00,ZJHK 041600Z 16004MPS CAVOK 24/20 Q1010 NOSIG
ZJHK,2016-04-04 17:00,ZJHK 041700Z 16004MPS CAVOK 24/20 Q1009 NOSIG
ZJHK,2016-04-04 18:00,ZJHK 041800Z 16005MPS CAVOK 24/21 Q1009 NOSIG
ZJHK,2016-04-04 19:00,ZJHK 041900Z 14004MPS CAVOK 24/21 Q1008 NOSIG
ZJHK,2016-04-04 20:00,ZJHK 042000Z 14003MPS 100V180 CAVOK 23/21 Q1009 NOSIG
ZJHK,2016-04-04 21:00,ZJHK 042100Z 15005MPS 120V180 CAVOK 24/21 Q1009 NOSIG
ZJHK,2016-04-04 22:00,ZJHK 042200Z 15005MPS 120V180 CAVOK 24/21 Q1010 NOSIG
ZJHK,2016-04-04 23:00,ZJHK 042300Z 16005MPS CAVOK 24/21 Q1010 NOSIG
ZJHK,2016-04-05 00:00,ZJHK 050000Z 16006MPS CAVOK 24/21 Q1011 NOSIG
ZJHK,2016-04-05 01:00,ZJHK 050100Z 16006MPS CAVOK 26/22 Q1012 NOSIG
ZJHK,2016-04-05 02:00,ZJHK 050200Z 17007MPS 140V200 CAVOK 28/21 Q1012 NOSIG
ZJHK,2016-04-05 03:00,ZJHK 050300Z 16006MPS 130V190 CAVOK 29/21 Q1011 NOSIG
ZJHK,2016-04-05 04:00,ZJHK 050400Z 16006MPS 130V200 CAVOK 31/21 Q1011 NOSIG
ZJHK,2016-04-05 05:00,ZJHK 050500Z 16008MPS 130V200 CAVOK 31/20 Q1010 NOSIG
ZJHK,2016-04-05 06:00,ZJHK 050600Z 16007MPS 120V190 CAVOK 32/20 Q1008 NOSIG
ZJHK,2016-04-05 07:00,ZJHK 050700Z 16007MPS 120V190 CAVOK 32/19 Q1007 NOSIG
ZJHK,2016-04-05 08:00,ZJHK 050800Z 15006MPS 120V180 CAVOK 31/19 Q1007 NOSIG
ZJHK,2016-04-05 09:00,ZJHK 050900Z 15006MPS 120V180 CAVOK 30/18 Q1007 NOSIG
ZJHK,2016-04-05 10:00,ZJHK 051000Z 15006MPS CAVOK 29/18 Q1007 NOSIG
ZJHK,2016-04-05 11:00,ZJHK 051100Z 15005MPS CAVOK 27/20 Q1008 NOSIG
ZJHK,2016-04-05 12:00,ZJHK 051200Z 15005MPS 120V180 CAVOK 25/21 Q1009 NOSIG
ZJHK,2016-04-05 13:00,ZJHK 051300Z 15005MPS CAVOK 25/20 Q1009 NOSIG
ZJHK,2016-04-05 14:00,ZJHK 051400Z 15005MPS CAVOK 24/21 Q1010 NOSIG
ZJHK,2016-04-05 15:00,ZJHK 051500Z 15004MPS CAVOK 24/21 Q1011 NOSIG
ZJHK,2016-04-05 16:00,ZJHK 051600Z 16004MPS 130V190 CAVOK 23/21 Q1011 NOSIG
ZJHK,2016-04-05 17:00,ZJHK 051700Z 16004MPS 140V200 CAVOK 23/21 Q1010 NOSIG
ZJHK,2016-04-05 18:00,ZJHK 051800Z 16005MPS 120V180 CAVOK 23/21 Q1010 NOSIG
ZJHK,2016-04-05 19:00,ZJHK 051900Z 16005MPS CAVOK 23/20 Q1009 NOSIG
ZJHK,2016-04-05 20:00,ZJHK 052000Z 16005MPS CAVOK 23/20 Q1009 NOSIG
ZJHK,2016-04-05 21:00,ZJHK 052100Z 16005MPS 130V190 CAVOK 23/20 Q1009 NOSIG
ZJHK,2016-04-05 22:00,ZJHK 052200Z 16005MPS CAVOK 23/20 Q1010 NOSIG
ZJHK,2016-04-05 23:00,ZJHK 052300Z 16005MPS 130V190 CAVOK 23/20 Q1010 NOSIG
ZJHK,2016-04-06 00:00,ZJHK 060000Z 16006MPS 130V200 CAVOK 25/21 Q1011 NOSIG
ZJHK,2016-04-06 01:00,ZJHK 060100Z 16008MPS 110V180 CAVOK 26/21 Q1012 NOSIG
ZJHK,2016-04-06 02:00,ZJHK 060200Z 16006MPS 130V190 CAVOK 28/21 Q1012 NOSIG
ZJHK,2016-04-06 03:00,ZJHK 060300Z 16008MPS 130V190 CAVOK 29/20 Q1012 NOSIG
ZJHK,2016-04-06 04:00,ZJHK 060400Z 15009MPS 120V180 CAVOK 30/19 Q1011 NOSIG
ZJHK,2016-04-06 05:00,ZJHK 060500Z 16008MPS 130V210 CAVOK 31/19 Q1010 NOSIG
ZJHK,2016-04-06 06:00,ZJHK 060600Z 16006G12MPS 130V200 CAVOK 32/20 Q1009 NOSIG
ZJHK,2016-04-06 07:00,ZJHK 060700Z 15007MPS CAVOK 31/19 Q1008 NOSIG
ZJHK,2016-04-06 08:00,ZJHK 060800Z 15005MPS 120V210 CAVOK 31/19 Q1008 NOSIG
ZJHK,2016-04-06 09:00,ZJHK 060900Z 16008MPS 130V190 CAVOK 30/19 Q1007 NOSIG
ZJHK,2016-04-06 10:00,ZJHK 061000Z 17006MPS 140V200 CAVOK 28/18 Q1008 NOSIG
ZJHK,2016-04-06 11:00,ZJHK 061100Z 16005MPS CAVOK 27/18 Q1008 NOSIG
ZJHK,2016-04-06 12:00,ZJHK 061200Z 15004MPS 120V180 CAVOK 25/20 Q1009 NOSIG
ZJHK,2016-04-06 13:00,ZJHK 061300Z 16004MPS 120V190 CAVOK 25/20 Q1009 NOSIG
ZJHK,2016-04-06 14:00,ZJHK 061400Z 16005MPS 130V190 CAVOK 24/20 Q1010 NOSIG
ZJHK,2016-04-06 15:00,ZJHK 061500Z 16005MPS 130V190 CAVOK 24/20 Q1010 NOSIG
ZJHK,2016-04-06 16:00,ZJHK 061600Z 16005MPS 130V190 CAVOK 24/21 Q1010 NOSIG
ZJHK,2016-04-06 17:00,ZJHK 061700Z 16005MPS 140V200 CAVOK 24/20 Q1010 NOSIG
ZJHK,2016-04-06 18:00,ZJHK 061800Z 17005MPS 140V200 CAVOK 23/20 Q1009 NOSIG
ZJHK,2016-04-06 19:00,ZJHK 061900Z 17005MPS CAVOK 23/20 Q1008 NOSIG
ZJHK,2016-04-06 20:00,ZJHK 062000Z 17003MPS 130V200 CAVOK 23/20 Q1008 NOSIG
ZJHK,2016-04-06 21:00,ZJHK 062100Z 16003MPS CAVOK 22/20 Q1008 NOSIG
ZJHK,2016-04-06 22:00,ZJHK 062200Z 17003MPS 140V210 CAVOK 22/20 Q1009 NOSIG
ZJHK,2016-04-06 23:00,ZJHK 062300Z 17002MPS CAVOK 22/20 Q1009 NOSIG
ZJHK,2016-04-07 00:00,ZJHK 070000Z 16004MPS CAVOK 24/20 Q1010 NOSIG
ZJHK,2016-04-07 01:00,ZJHK 070100Z 17004MPS 140V200 CAVOK 26/20 Q1011 NOSIG
ZJHK,2016-04-07 02:00,ZJHK 070200Z 16005MPS 130V200 CAVOK 28/20 Q1011 NOSIG
ZJHK,2016-04-07 03:00,ZJHK 070300Z 16005MPS 130V200 CAVOK 30/19 Q1011 NOSIG
ZJHK,2016-04-07 04:00,ZJHK 070400Z 16005MPS 130V200 CAVOK 31/20 Q1011 NOSIG
ZJHK,2016-04-07 05:00,ZJHK 070500Z 17005MPS 140V210 CAVOK 32/20 Q1010 NOSIG
ZJHK,2016-04-07 06:00,ZJHK 070600Z 17003MPS 120V200 CAVOK 33/21 Q1009 NOSIG
ZJHK,2016-04-07 07:00,ZJHK 070700Z 16005MPS 130V210 CAVOK 33/20 Q1008 NOSIG
ZJHK,2016-04-07 08:00,ZJHK 070800Z 15005MPS 120V180 CAVOK 31/22 Q1007 NOSIG
ZJHK,2016-04-07 09:00,ZJHK 070900Z 15006MPS CAVOK 30/21 Q1008 NOSIG
ZJHK,2016-04-07 10:00,ZJHK 071000Z 16004MPS CAVOK 28/21 Q1008 NOSIG
ZJHK,2016-04-07 11:00,ZJHK 071100Z 15004MPS CAVOK 27/21 Q1009 NOSIG
ZJHK,2016-04-07 12:00,ZJHK 071200Z 13003MPS 100V160 CAVOK 25/21 Q1010 NOSIG
ZJHK,2016-04-07 13:00,ZJHK 071300Z 13001MPS CAVOK 24/21 Q1010 NOSIG
ZJHK,2016-04-07 14:00,ZJHK 071400Z 13001MPS CAVOK 24/20 Q1011 NOSIG
ZJHK,2016-04-07 15:00,ZJHK 071500Z 16003MPS 140V200 CAVOK 24/20 Q1011 NOSIG
ZJHK,2016-04-07 16:00,ZJHK 071600Z 16003MPS CAVOK 24/20 Q1011 NOSIG
ZJHK,2016-04-07 17:00,ZJHK 071700Z 16003MPS 140V200 CAVOK 24/21 Q1011 NOSIG
ZJHK,2016-04-07 18:00,ZJHK 071800Z 16003MPS CAVOK 23/21 Q1010 NOSIG
ZJHK,2016-04-07 19:00,ZJHK 071900Z 16003MPS 130V190 CAVOK 23/21 Q1010 NOSIG
ZJHK,2016-04-07 20:00,ZJHK 072000Z 18002MPS CAVOK 23/21 Q1010 NOSIG
ZJHK,2016-04-07 21:00,ZJHK 072100Z 16002MPS 130V190 CAVOK 23/21 Q1010 NOSIG
ZJHK,2016-04-07 22:00,ZJHK 072200Z 16003MPS CAVOK 23/21 Q1011 NOSIG
ZJHK,2016-04-07 23:00,ZJHK 072300Z 15003MPS CAVOK 23/21 Q1012 NOSIG
ZJHK,2016-04-08 00:00,ZJHK 080000Z 16003MPS 130V190 CAVOK 24/21 Q1012 NOSIG
ZJHK,2016-04-08 01:00,ZJHK 080100Z 18004MPS 160V220 CAVOK 25/21 Q1013 NOSIG
ZJHK,2016-04-08 02:00,ZJHK 080200Z 21003MPS 170V260 CAVOK 27/21 Q1013 NOSIG
ZJHK,2016-04-08 03:00,ZJHK 080300Z 21004MPS 160V240 CAVOK 29/20 Q1013 NOSIG
ZJHK,2016-04-08 04:00,ZJHK 080400Z 21003MPS 180V250 CAVOK 30/20 Q1013 NOSIG
ZJHK,2016-04-08 05:00,ZJHK 080500Z 16002MPS 9999 FEW040 31/20 Q1012 NOSIG
ZJHK,2016-04-08 06:00,ZJHK 080600Z 16003MPS 130V200 9999 FEW040 32/19 Q1010 NOSIG
ZJHK,2016-04-08 07:00,ZJHK 080700Z 12001MPS 9999 SCT040 32/20 Q1009 NOSIG
ZJHK,2016-04-08 08:00,ZJHK 080800Z 35004MPS 310V020 9999 SCT040 30/20 Q1009 NOSIG
ZJHK,2016-04-08 09:00,ZJHK 080900Z 05003MPS 010V090 9999 SCT040 29/20 Q1009 NOSIG
ZJHK,2016-04-08 10:00,ZJHK 081000Z 04003MPS 010V080 9999 SCT040 28/20 Q1009 NOSIG
ZJHK,2016-04-08 11:00,ZJHK 081100Z 15003MPS 9999 SCT040 27/21 Q1010 NOSIG
ZJHK,2016-04-08 12:00,ZJHK 081200Z 14003MPS 110V170 9999 BKN040 26/21 Q1010 NOSIG
ZJHK,2016-04-08 13:00,ZJHK 081300Z 15003MPS 120V180 9999 FEW040 25/21 Q1011 NOSIG
ZJHK,2016-04-08 14:00,ZJHK 081400Z 15002MPS 130V190 9999 FEW040 24/21 Q1012 NOSIG
ZJHK,2016-04-08 15:00,ZJHK 081500Z 13002MPS CAVOK 23/21 Q1012 NOSIG
ZJHK,2016-04-08 16:00,ZJHK 081600Z 13003MPS 110V170 CAVOK 23/21 Q1012 NOSIG
ZJHK,2016-04-08 17:00,ZJHK 081700Z 16002MPS CAVOK 23/21 Q1011 NOSIG
ZJHK,2016-04-08 18:00,ZJHK 081800Z 14002MPS CAVOK 22/21 Q1011 NOSIG
ZJHK,2016-04-08 19:00,ZJHK 081900Z 12001MPS CAVOK 22/21 Q1010 NOSIG
ZJHK,2016-04-08 20:00,ZJHK 082000Z 15001MPS CAVOK 22/21 Q1010 NOSIG
ZJHK,2016-04-08 21:00,ZJHK 082100Z 13002MPS CAVOK 22/21 Q1010 NOSIG
ZJHK,2016-04-08 22:00,ZJHK 082200Z 14002MPS CAVOK 22/21 Q1010 NOSIG
ZJHK,2016-04-08 23:00,ZJHK 082300Z 15002MPS 120V180 CAVOK 23/21 Q1011 NOSIG
ZJHK,2016-04-09 00:00,ZJHK 090000Z 17003MPS 130V210 CAVOK 24/22 Q1012 NOSIG
ZJHK,2016-04-09 01:00,ZJHK 090100Z 18005MPS CAVOK 25/21 Q1012 NOSIG
ZJHK,2016-04-09 02:00,ZJHK 090200Z 18006MPS 140V200 CAVOK 27/21 Q1012 NOSIG
ZJHK,2016-04-09 03:00,ZJHK 090300Z 22004MPS 180V250 CAVOK 29/20 Q1012 NOSIG
ZJHK,2016-04-09 04:00,ZJHK 090400Z 22003MPS 140V260 9999 FEW023 30/19 Q1012 NOSIG
ZJHK,2016-04-09 05:00,ZJHK 090500Z 29004MPS 260V320 9999 FEW023 29/20 Q1011 NOSIG
ZJHK,2016-04-09 06:00,ZJHK 090600Z 29004MPS 270V330 9999 SCT040 30/19 Q1010 NOSIG
ZJHK,2016-04-09 07:00,ZJHK 090700Z 30004MPS 9999 SCT040 29/20 Q1009 NOSIG
ZJHK,2016-04-09 08:00,ZJHK 090800Z 01001MPS 9999 FEW046 29/20 Q1008 NOSIG
ZJHK,2016-04-09 09:00,ZJHK 090900Z 10003MPS 070V130 9999 FEW046 28/20 Q1007 NOSIG
ZJHK,2016-04-09 10:00,ZJHK 091000Z 06002MPS 010V090 9999 BKN033 28/20 Q1007 NOSIG
ZJHK,2016-04-09 11:00,ZJHK 091100Z 36002MPS 340V050 9999 FEW033 26/20 Q1008 NOSIG
ZJHK,2016-04-09 12:00,ZJHK 091200Z 12003MPS CAVOK 25/21 Q1008 NOSIG
ZJHK,2016-04-09 13:00,ZJHK 091300Z 15004MPS 110V170 CAVOK 25/21 Q1009 NOSIG
ZJHK,2016-04-09 14:00,ZJHK 091400Z 16004MPS CAVOK 24/21 Q1008 NOSIG
ZJHK,2016-04-09 15:00,ZJHK 091500Z 16005MPS 130V190 CAVOK 24/21 Q1008 NOSIG
ZJHK,2016-04-09 16:00,ZJHK 091600Z 18005MPS CAVOK 24/21 Q1008 NOSIG
ZJHK,2016-04-09 17:00,ZJHK 091700Z 18005MPS 150V210 CAVOK 24/21 Q1008 NOSIG
ZJHK,2016-04-09 18:00,ZJHK 091800Z 17004MPS 140V200 CAVOK 24/20 Q1007 NOSIG
ZJHK,2016-04-09 19:00,ZJHK 091900Z 17004MPS CAVOK 23/20 Q1006 NOSIG
ZJHK,2016-04-09 20:00,ZJHK 092000Z 17004MPS CAVOK 23/19 Q1006 NOSIG
ZJHK,2016-04-09 21:00,ZJHK 092100Z 21002MPS CAVOK 23/19 Q1007 NOSIG
ZJHK,2016-04-09 22:00,ZJHK 092200Z 18001MPS CAVOK 22/19 Q1007 NOSIG
ZJHK,2016-04-09 23:00,ZJHK 092300Z 21001MPS CAVOK 22/20 Q1008 NOSIG
ZJHK,2016-04-10 00:00,ZJHK 100000Z 24002MPS CAVOK 24/20 Q1008 NOSIG
ZJHK,2016-04-10 01:00,ZJHK 100100Z 18002MPS CAVOK 25/19 Q1009 NOSIG
ZJHK,2016-04-10 02:00,ZJHK 100200Z 28001MPS CAVOK 26/19 Q1009 NOSIG
ZJHK,2016-04-10 03:00,ZJHK 100300Z 21001MPS CAVOK 26/19 Q1009 NOSIG
ZJHK,2016-04-10 04:00,ZJHK 100400Z 19003MPS 160V240 CAVOK 28/19 Q1008 NOSIG
ZJHK,2016-04-10 05:00,ZJHK 100500Z 20003MPS 160V230 CAVOK 29/19 Q1007 NOSIG
ZJHK,2016-04-10 06:00,ZJHK 100600Z 18003MPS 130V220 CAVOK 31/19 Q1006 NOSIG
ZJHK,2016-04-10 07:00,ZJHK 100700Z 02005MPS 350V050 CAVOK 29/20 Q1005 NOSIG
ZJHK,2016-04-10 08:00,ZJHK 100800Z 03004MPS CAVOK 28/19 Q1005 NOSIG
ZJHK,2016-04-10 09:00,ZJHK 100900Z 02004MPS CAVOK 28/20 Q1004 NOSIG
ZJHK,2016-04-10 10:00,ZJHK 101000Z 04004MPS CAVOK 27/20 Q1005 NOSIG
ZJHK,2016-04-10 11:00,ZJHK 101100Z 04003MPS 010V070 CAVOK 25/19 Q1005 NOSIG
ZJHK,2016-04-10 12:00,ZJHK 101200Z 05003MPS 020V080 CAVOK 24/19 Q1006 NOSIG
ZJHK,2016-04-10 13:00,ZJHK 101300Z 04003MPS 010V080 CAVOK 24/20 Q1007 NOSIG
ZJHK,2016-04-10 14:00,ZJHK 101400Z 08003MPS 050V110 CAVOK 24/21 Q1007 NOSIG
ZJHK,2016-04-10 15:00,ZJHK 101500Z 10002MPS CAVOK 23/21 Q1008 NOSIG
ZJHK,2016-04-10 16:00,ZJHK 101600Z 11001MPS CAVOK 22/21 Q1007 NOSIG
ZJHK,2016-04-10 17:00,ZJHK 101700Z 04001MPS CAVOK 22/21 Q1006 NOSIG
ZJHK,2016-04-10 18:00,ZJHK 101800Z 11002MPS CAVOK 22/21 Q1006 NOSIG
ZJHK,2016-04-10 19:00,ZJHK 101900Z 05002MPS 010V090 9999 FEW023TCU 22/21 Q1006 BECMG -TSRA
ZJHK,2016-04-10 20:00,ZJHK 102000Z 02008MPS 9999 -TSRA SCT012 FEW023CB BKN040 19/18 Q1006 RESHRA NOSIG
ZJHK,2016-04-10 21:00,ZJHK 102100Z 04004MPS 9999 FEW015 FEW026CB 20/19 Q1007 RETS NOSIG
ZJHK,2016-04-10 22:00,ZJHK 102200Z 12003MPS 080V150 9999 TS SCT015 FEW026CB 20/19 Q1007 BECMG NSW
ZJHK,2016-04-10 23:00,ZJHK 102300Z 09004MPS 050V110 8000 -SHRA SCT015 FEW026CB 21/19 Q1006 RETS NOSIG
ZJHK,2016-04-11 00:00,ZJHK 110000Z 35001MPS 9999 SCT023 FEW033CB 21/20 Q1008 NOSIG
ZJHK,2016-04-11 01:00,ZJHK 110100Z 12001MPS 9999 FEW033CB 22/20 Q1009 NOSIG
ZJHK,2016-04-11 02:00,ZJHK 110200Z 09002MPS 060V120 9999 FEW033CB 24/21 Q1010 NOSIG
ZJHK,2016-04-11 03:00,ZJHK 110300Z 14002MPS 9999 FEW023 26/21 Q1008 NOSIG
ZJHK,2016-04-11 04:00,ZJHK 110400Z 14002MPS 090V190 CAVOK 27/21 Q1008 NOSIG
ZJHK,2016-04-11 05:00,ZJHK 110500Z 17002MPS CAVOK 28/20 Q1007 NOSIG
ZJHK,2016-04-11 06:00,ZJHK 110600Z 11003MPS 070V150 CAVOK 30/20 Q1006 NOSIG
ZJHK,2016-04-11 07:00,ZJHK 110700Z 12003MPS 9999 SCT040 30/20 Q1006 NOSIG
ZJHK,2016-04-11 08:00,ZJHK 110800Z 11004MPS 080V150 9999 BKN040 29/20 Q1006 NOSIG
ZJHK,2016-04-11 09:00,ZJHK 110900Z 12004MPS 9999 FEW040 28/21 Q1006 NOSIG
ZJHK,2016-04-11 10:00,ZJHK 111000Z 13004MPS 9999 BKN030 26/20 Q1006 NOSIG
ZJHK,2016-04-11 11:00,ZJHK 111100Z 12004MPS 9999 BKN026 24/20 Q1007 NOSIG
ZJHK,2016-04-11 12:00,ZJHK 111200Z 11003MPS 9999 SCT020 BKN026 23/21 Q1007 NOSIG
ZJHK,2016-04-11 13:00,ZJHK 111300Z 11003MPS 9999 SCT020 BKN026 23/20 Q1008 NOSIG
ZJHK,2016-04-11 14:00,ZJHK 111400Z 10004MPS 9999 FEW020 BKN033 23/20 Q1009 NOSIG
ZJHK,2016-04-11 15:00,ZJHK 111500Z 10004MPS 9999 FEW020 BKN033 23/20 Q1009 NOSIG
ZJHK,2016-04-11 16:00,ZJHK 111600Z 10004MPS 9999 FEW020 BKN026 23/21 Q1009 NOSIG
ZJHK,2016-04-11 17:00,ZJHK 111700Z 10003MPS 9999 SCT013 BKN026 23/21 Q1009 NOSIG
ZJHK,2016-04-11 18:00,ZJHK 111800Z 10003MPS 9999 SCT010 BKN026 23/21 Q1008 NOSIG
ZJHK,2016-04-11 19:00,ZJHK 111900Z 10003MPS 8000 SCT010 BKN026 23/22 Q1007 NOSIG
ZJHK,2016-04-11 20:00,ZJHK 112000Z 09002MPS 6000 SCT004 BKN020 23/22 Q1006 NOSIG
ZJHK,2016-04-11 21:00,ZJHK 112100Z 08002MPS 6000 BKN015 BKN023 23/22 Q1007 NOSIG
ZJHK,2016-04-11 22:00,ZJHK 112200Z 13002MPS 8000 BKN015 24/22 Q1007 NOSIG
ZJHK,2016-04-11 23:00,ZJHK 112300Z 14002MPS CAVOK 24/22 Q1008 NOSIG
ZJHK,2016-04-12 00:00,ZJHK 120000Z 15003MPS 110V180 CAVOK 25/23 Q1008 NOSIG
ZJHK,2016-04-12 01:00,ZJHK 120100Z 16004MPS 100V200 CAVOK 26/22 Q1008 NOSIG
ZJHK,2016-04-12 02:00,ZJHK 120200Z 17006MPS 130V200 CAVOK 28/22 Q1007 NOSIG
ZJHK,2016-04-12 03:00,ZJHK 120300Z 18006MPS 150V210 9999 FEW020 29/22 Q1007 NOSIG
ZJHK,2016-04-12 04:00,ZJHK 120400Z 17005MPS 9999 FEW026 30/22 Q1006 NOSIG
ZJHK,2016-04-12 05:00,ZJHK 120500Z 17005MPS 140V220 9999 SCT030 30/22 Q1005 NOSIG
ZJHK,2016-04-12 06:00,ZJHK 120600Z 17005MPS 130V210 9999 SCT030 30/22 Q1004 NOSIG
ZJHK,2016-04-12 07:00,ZJHK 120700Z 16005MPS 140V200 9999 SCT033 30/22 Q1003 NOSIG
ZJHK,2016-04-12 08:00,ZJHK 120800Z 28002MPS 250V320 9999 BKN030 28/23 Q1002 NOSIG
ZJHK,2016-04-12 09:00,ZJHK 120900Z 17003MPS 120V220 9999 BKN033 29/22 Q1001 NOSIG
ZJHK,2016-04-12 10:00,ZJHK 121000Z 17004MPS 140V200 9999 FEW026 28/22 Q1002 NOSIG
ZJHK,2016-04-12 11:00,ZJHK 121100Z 16004MPS 120V180 CAVOK 27/21 Q1002 NOSIG
ZJHK,2016-04-12 12:00,ZJHK 121200Z 17004MPS CAVOK 26/21 Q1002 NOSIG
ZJHK,2016-04-12 13:00,ZJHK 121300Z 17004MPS 130V190 CAVOK 25/21 Q1002 NOSIG
ZJHK,2016-04-12 14:00,ZJHK 121400Z 17004MPS 130V190 CAVOK 25/21 Q1003 NOSIG
ZJHK,2016-04-12 15:00,ZJHK 121500Z 16003MPS 130V190 CAVOK 24/21 Q1003 NOSIG
ZJHK,2016-04-12 16:00,ZJHK 121600Z 16003MPS CAVOK 24/21 Q1003 NOSIG
ZJHK,2016-04-12 17:00,ZJHK 121700Z 17003MPS CAVOK 24/21 Q1003 NOSIG
ZJHK,2016-04-12 18:00,ZJHK 121800Z 17003MPS 140V200 CAVOK 24/21 Q1002 NOSIG
ZJHK,2016-04-12 19:00,ZJHK 121900Z 18002MPS CAVOK 23/21 Q1002 NOSIG
ZJHK,2016-04-12 20:00,ZJHK 122000Z 13002MPS CAVOK 23/21 Q1001 NOSIG
ZJHK,2016-04-12 21:00,ZJHK 122100Z 00000MPS 8000 NSC 22/21 Q1002 NOSIG
ZJHK,2016-04-12 22:00,ZJHK 122200Z 00000MPS 8000 NSC 22/21 Q1003 NOSIG
ZJHK,2016-04-12 23:00,ZJHK 122300Z 35001MPS 8000 NSC 22/21 Q1003 NOSIG
ZJHK,2016-04-13 00:00,ZJHK 130000Z 35003MPS 320V040 8000 NSC 23/21 Q1004 NOSIG
ZJHK,2016-04-13 01:00,ZJHK 130100Z 36003MPS 330V040 2000 BR BKN004 22/21 Q1005 BECMG TL0250 3000 BR BKN010
ZJHK,2016-04-13 02:00,ZJHK 130200Z 01002MPS 340V040 2000 BR BKN004 23/21 Q1005 BECMG TL0250 3000 BR BKN010
ZJHK,2016-04-13 03:00,ZJHK 130300Z 03003MPS 350V060 3000 BR SCT009 25/22 Q1005 NOSIG
ZJHK,2016-04-13 04:00,ZJHK 130400Z 01004MPS 340V040 5000 BR SCT014 26/22 Q1004 NOSIG
ZJHK,2016-04-13 05:00,ZJHK 130500Z 36003MPS 320V040 5000 BR FEW016 27/22 Q1004 NOSIG
ZJHK,2016-04-13 06:00,ZJHK 130600Z 03004MPS 350V060 6000 NSC 27/22 Q1003 NOSIG
ZJHK,2016-04-13 07:00,ZJHK 130700Z 05003MPS 010V090 6000 NSC 27/22 Q1002 NOSIG
ZJHK,2016-04-13 08:00,ZJHK 130800Z 04003MPS 010V070 CAVOK 28/21 Q1001 NOSIG
ZJHK,2016-04-13 09:00,ZJHK 130900Z 02003MPS CAVOK 27/22 Q1001 NOSIG
ZJHK,2016-04-13 10:00,ZJHK 131000Z 02003MPS 8000 NSC 26/22 Q1001 NOSIG
ZJHK,2016-04-13 11:00,ZJHK 131100Z 06003MPS 8000 NSC 25/22 Q1002 NOSIG
ZJHK,2016-04-13 12:00,ZJHK 131200Z 04003MPS 010V070 7000 NSC 24/22 Q1003 NOSIG
ZJHK,2016-04-13 13:00,ZJHK 131300Z 06003MPS 6000 NSC 23/22 Q1003 NOSIG
ZJHK,2016-04-13 14:00,ZJHK 131400Z 09002MPS 6000 NSC 23/22 Q1004 NOSIG
ZJHK,2016-04-13 15:00,ZJHK 131500Z 11001MPS 5000 BR NSC 23/22 Q1004 NOSIG
ZJHK,2016-04-13 16:00,ZJHK 131600Z 11001MPS 4500 BR NSC 23/22 Q1004 NOSIG
ZJHK,2016-04-13 17:00,ZJHK 131700Z 11002MPS 4500 BR NSC 22/22 Q1004 NOSIG
ZJHK,2016-04-13 18:00,ZJHK 131800Z 14002MPS 4500 BR NSC 23/22 Q1003 NOSIG
ZJHK,2016-04-13 19:00,ZJHK 131900Z 12002MPS 5000 BR NSC 22/21 Q1003 NOSIG
ZJHK,2016-04-13 20:00,ZJHK 132000Z 14001MPS 5000 BR NSC 22/21 Q1003 NOSIG
ZJHK,2016-04-13 21:00,ZJHK 132100Z 15003MPS 6000 NSC 23/21 Q1003 NOSIG
ZJHK,2016-04-13 22:00,ZJHK 132200Z 16003MPS 7000 NSC 23/21 Q1004 NOSIG
ZJHK,2016-04-13 23:00,ZJHK 132300Z 18002MPS 7000 NSC 23/21 Q1005 NOSIG
ZJHK,2016-04-14 00:00,ZJHK 140000Z 20003MPS 160V220 7000 NSC 24/21 Q1006 NOSIG
ZJHK,2016-04-14 01:00,ZJHK 140100Z 19002MPS CAVOK 25/22 Q1006 NOSIG
ZJHK,2016-04-14 02:00,ZJHK 140200Z 18004MPS 150V210 CAVOK 28/22 Q1007 NOSIG
ZJHK,2016-04-14 03:00,ZJHK 140300Z 17003MPS 140V200 CAVOK 30/22 Q1006 NOSIG
ZJHK,2016-04-14 04:00,ZJHK 140400Z 16005MPS 130V200 CAVOK 31/22 Q1006 NOSIG
ZJHK,2016-04-14 05:00,ZJHK 140500Z 15004MPS 120V190 CAVOK 32/22 Q1005 NOSIG
ZJHK,2016-04-14 06:00,ZJHK 140600Z 16004MPS 130V210 CAVOK 32/23 Q1004 NOSIG
ZJHK,2016-04-14 07:00,ZJHK 140700Z 15003MPS 100V190 CAVOK 32/23 Q1004 NOSIG
ZJHK,2016-04-14 08:00,ZJHK 140800Z 15003MPS 120V190 CAVOK 31/23 Q1004 NOSIG
ZJHK,2016-04-14 09:00,ZJHK 140900Z 14003MPS 100V170 CAVOK 30/23 Q1004 NOSIG
ZJHK,2016-04-14 10:00,ZJHK 141000Z 13003MPS CAVOK 28/22 Q1004 NOSIG
ZJHK,2016-04-14 11:00,ZJHK 141100Z 13003MPS CAVOK 26/22 Q1005 NOSIG
ZJHK,2016-04-14 12:00,ZJHK 141200Z 13003MPS 8000 NSC 25/22 Q1006 NOSIG
ZJHK,2016-04-14 13:00,ZJHK 141300Z 14003MPS 8000 NSC 24/22 Q1006 NOSIG
ZJHK,2016-04-14 14:00,ZJHK 141400Z 14002MPS 110V170 6000 NSC 24/22 Q1007 NOSIG
ZJHK,2016-04-14 15:00,ZJHK 141500Z 14003MPS 6000 NSC 23/22 Q1007 NOSIG
ZJHK,2016-04-14 16:00,ZJHK 141600Z 14002MPS 100V160 6000 NSC 23/22 Q1007 NOSIG
ZJHK,2016-04-14 17:00,ZJHK 141700Z 15003MPS 130V190 6000 NSC 23/22 Q1006 NOSIG
ZJHK,2016-04-14 18:00,ZJHK 141800Z 15003MPS 6000 NSC 23/22 Q1006 NOSIG
ZJHK,2016-04-14 19:00,ZJHK 141900Z 16003MPS 5000 BR NSC 23/21 Q1006 NOSIG
ZJHK,2016-04-14 20:00,ZJHK 142000Z 16002MPS 130V190 5000 BR NSC 23/21 Q1005 NOSIG
ZJHK,2016-04-14 21:00,ZJHK 142100Z 15002MPS 6000 NSC 23/21 Q1006 NOSIG
ZJHK,2016-04-14 22:00,ZJHK 142200Z 16003MPS 5000 BR NSC 23/21 Q1006 NOSIG
ZJHK,2016-04-14 23:00,ZJHK 142300Z 16004MPS 5000 BR NSC 23/20 Q1007 NOSIG
ZJHK,2016-04-15 00:00,ZJHK 150000Z 16004MPS 8000 NSC 24/20 Q1007 NOSIG
ZJHK,2016-04-15 01:00,ZJHK 150100Z 17006MPS 140V200 CAVOK 26/21 Q1008 NOSIG
ZJHK,2016-04-15 02:00,ZJHK 150200Z 17005MPS 140V200 CAVOK 28/21 Q1008 NOSIG
ZJHK,2016-04-15 03:00,ZJHK 150300Z 17005MPS 120V200 CAVOK 30/20 Q1008 NOSIG
ZJHK,2016-04-15 04:00,ZJHK 150400Z 18005MPS 140V210 CAVOK 31/20 Q1007 NOSIG
ZJHK,2016-04-15 05:00,ZJHK 150500Z 15005MPS 130V190 CAVOK 32/20 Q1006 NOSIG
ZJHK,2016-04-15 06:00,ZJHK 150600Z 16005MPS CAVOK 32/20 Q1006 NOSIG
ZJHK,2016-04-15 07:00,ZJHK 150700Z 16005MPS 120V200 CAVOK 33/20 Q1005 NOSIG
ZJHK,2016-04-15 08:00,ZJHK 150800Z 13005MPS 110V170 CAVOK 31/21 Q1005 NOSIG
ZJHK,2016-04-15 09:00,ZJHK 150900Z 13004MPS CAVOK 29/21 Q1005 NOSIG
ZJHK,2016-04-15 10:00,ZJHK 151000Z 14004MPS 120V180 CAVOK 27/21 Q1005 NOSIG
ZJHK,2016-04-15 11:00,ZJHK 151100Z 13003MPS 100V160 CAVOK 26/21 Q1006 NOSIG
ZJHK,2016-04-15 12:00,ZJHK 151200Z 14003MPS 110V170 CAVOK 24/21 Q1007 NOSIG
ZJHK,2016-04-15 13:00,ZJHK 151300Z 15003MPS 120V180 CAVOK 24/21 Q1007 NOSIG
ZJHK,2016-04-15 14:00,ZJHK 151400Z 16004MPS 130V200 CAVOK 24/20 Q1008 NOSIG
ZJHK,2016-04-15 15:00,ZJHK 151500Z 16004MPS 130V190 CAVOK 23/20 Q1008 NOSIG
ZJHK,2016-04-15 16:00,ZJHK 151600Z 16005MPS CAVOK 23/20 Q1008 NOSIG
ZJHK,2016-04-15 17:00,ZJHK 151700Z 16005MPS 130V190 CAVOK 23/20 Q1007 NOSIG
ZJHK,2016-04-15 18:00,ZJHK 151800Z 16005MPS CAVOK 23/20 Q1007 NOSIG
ZJHK,2016-04-15 19:00,ZJHK 151900Z 16005MPS 140V200 CAVOK 23/20 Q1006 NOSIG
ZJHK,2016-04-15 20:00,ZJHK 152000Z 17005MPS 8000 NSC 23/20 Q1006 NOSIG
ZJHK,2016-04-15 21:00,ZJHK 152100Z 16005MPS 8000 NSC 22/20 Q1006 NOSIG
ZJHK,2016-04-15 22:00,ZJHK 152200Z 17005MPS 140V200 8000 NSC 23/20 Q1006 NOSIG
ZJHK,2016-04-15 23:00,ZJHK 152300Z 17005MPS 8000 NSC 23/20 Q1007 NOSIG
ZJHK,2016-04-16 00:00,ZJHK 160000Z 17005MPS CAVOK 24/20 Q1008 NOSIG
ZJHK,2016-04-16 01:00,ZJHK 160100Z 19004MPS 160V230 CAVOK 26/20 Q1008 NOSIG
ZJHK,2016-04-16 02:00,ZJHK 160200Z 20003MPS 160V230 CAVOK 27/20 Q1009 NOSIG
ZJHK,2016-04-16 03:00,ZJHK 160300Z 17003MPS 110V210 CAVOK 29/20 Q1008 NOSIG
ZJHK,2016-04-16 04:00,ZJHK 160400Z 18003MPS 120V230 CAVOK 30/20 Q1008 NOSIG
ZJHK,2016-04-16 05:00,ZJHK 160500Z 19002MPS 120V250 CAVOK 31/20 Q1007 NOSIG
ZJHK,2016-04-16 06:00,ZJHK 160600Z 17002MPS 090V220 CAVOK 32/20 Q1006 NOSIG
ZJHK,2016-04-16 07:00,ZJHK 160700Z 36004MPS CAVOK 29/21 Q1005 NOSIG
ZJHK,2016-04-16 08:00,ZJHK 160800Z 35002MPS 320V040 CAVOK 28/21 Q1004 NOSIG
ZJHK,2016-04-16 09:00,ZJHK 160900Z 16003MPS 100V190 CAVOK 29/21 Q1005 NOSIG
ZJHK,2016-04-16 10:00,ZJHK 161000Z 13002MPS 100V170 CAVOK 27/20 Q1005 NOSIG
ZJHK,2016-04-16 11:00,ZJHK 161100Z 12003MPS CAVOK 25/20 Q1006 NOSIG
ZJHK,2016-04-16 12:00,ZJHK 161200Z 12003MPS CAVOK 24/21 Q1007 NOSIG
ZJHK,2016-04-16 13:00,ZJHK 161300Z 13002MPS CAVOK 23/21 Q1008 NOSIG
ZJHK,2016-04-16 14:00,ZJHK 161400Z 12002MPS CAVOK 23/21 Q1009 NOSIG
ZJHK,2016-04-16 15:00,ZJHK 161500Z 12002MPS CAVOK 23/21 Q1009 NOSIG
ZJHK,2016-04-16 16:00,ZJHK 161600Z 16002MPS 130V190 CAVOK 23/21 Q1008 NOSIG
ZJHK,2016-04-16 17:00,ZJHK 161700Z 15002MPS CAVOK 22/21 Q1008 NOSIG
ZJHK,2016-04-16 18:00,ZJHK 161800Z 16002MPS 130V190 CAVOK 22/20 Q1007 NOSIG
ZJHK,2016-04-16 19:00,ZJHK 161900Z 14002MPS CAVOK 22/20 Q1007 NOSIG
ZJHK,2016-04-16 20:00,ZJHK 162000Z 16003MPS 130V190 CAVOK 22/20 Q1007 NOSIG
ZJHK,2016-04-16 21:00,ZJHK 162100Z 16003MPS CAVOK 22/19 Q1007 NOSIG
ZJHK,2016-04-16 22:00,ZJHK 162200Z 16003MPS 130V190 CAVOK 22/18 Q1008 NOSIG
ZJHK,2016-04-16 23:00,ZJHK 162300Z 16003MPS 130V200 CAVOK 22/18 Q1008 NOSIG
ZJHK,2016-04-17 00:00,ZJHK 170000Z 16004MPS CAVOK 23/18 Q1009 NOSIG
ZJHK,2016-04-17 01:00,ZJHK 170100Z 18004MPS 150V210 CAVOK 25/18 Q1009 NOSIG
ZJHK,2016-04-17 02:00,ZJHK 170200Z 17004MPS CAVOK 27/18 Q1009 NOSIG
ZJHK,2016-04-17 03:00,ZJHK 170300Z 18005MPS CAVOK 29/16 Q1009 NOSIG
ZJHK,2016-04-17 04:00,ZJHK 170400Z 17005MPS 140V200 CAVOK 30/17 Q1008 NOSIG
ZJHK,2016-04-17 05:00,ZJHK 170500Z 17005MPS 130V210 CAVOK 31/17 Q1008 NOSIG
ZJHK,2016-04-17 06:00,ZJHK 170600Z 17006MPS 140V200 CAVOK 32/17 Q1006 NOSIG
ZJHK,2016-04-17 07:00,ZJHK 170700Z 15006MPS 120V180 CAVOK 31/18 Q1005 NOSIG
ZJHK,2016-04-17 08:00,ZJHK 170800Z 15006MPS CAVOK 29/18 Q1005 NOSIG
ZJHK,2016-04-17 09:00,ZJHK 170900Z 15006MPS CAVOK 28/18 Q1005 NOSIG
ZJHK,2016-04-17 10:00,ZJHK 171000Z 16005MPS 140V200 CAVOK 26/18 Q1006 NOSIG
ZJHK,2016-04-17 11:00,ZJHK 171100Z 15005MPS CAVOK 25/18 Q1006 NOSIG
ZJHK,2016-04-17 12:00,ZJHK 171200Z 17005MPS 140V200 CAVOK 24/17 Q1008 NOSIG
ZJHK,2016-04-17 13:00,ZJHK 171300Z 17003MPS 140V200 CAVOK 23/18 Q1008 NOSIG
ZJHK,2016-04-17 14:00,ZJHK 171400Z 17003MPS CAVOK 23/18 Q1009 NOSIG
ZJHK,2016-04-17 15:00,ZJHK 171500Z 17003MPS 140V200 CAVOK 22/19 Q1010 NOSIG
ZJHK,2016-04-17 16:00,ZJHK 171600Z 16004MPS 130V190 CAVOK 22/18 Q1009 NOSIG
ZJHK,2016-04-17 17:00,ZJHK 171700Z 31004MPS CAVOK 22/18 Q1010 NOSIG
ZJHK,2016-04-17 18:00,ZJHK 171800Z 02003MPS 340V110 9999 FEW030 22/18 Q1011 NOSIG
ZJHK,2016-04-17 19:00,ZJHK 171900Z 36004MPS 330V030 9999 FEW015 SCT033 22/20 Q1010 NOSIG
ZJHK,2016-04-17 20:00,ZJHK 172000Z 32005MPS 9999 BKN016 22/19 Q1011 NOSIG
ZJHK,2016-04-17 21:00,ZJHK 172100Z 31005MPS 280V340 9999 BKN015 22/18 Q1012 NOSIG
ZJHK,2016-04-17 22:00,ZJHK 172200Z 34004MPS 9999 BKN018 21/17 Q1012 NOSIG
ZJHK,2016-04-17 23:00,ZJHK 172300Z 34004MPS 9999 OVC020 21/16 Q1014 NOSIG
ZJHK,2016-04-18 00:00,ZJHK 180000Z 31002MPS 9999 SCT020 21/16 Q1014 NOSIG
ZJHK,2016-04-18 01:00,ZJHK 180100Z 35003MPS 320V040 9999 SCT020 21/16 Q1015 NOSIG
ZJHK,2016-04-18 02:00,ZJHK 180200Z 01004MPS 330V050 9999 SCT020 21/16 Q1015 NOSIG
ZJHK,2016-04-18 03:00,ZJHK 180300Z 02002MPS 9999 SCT020 19/13 Q1016 NOSIG
ZJHK,2016-04-18 04:00,ZJHK 180400Z 35003MPS 320V030 9999 SCT020 SCT033 23/18 Q1015 NOSIG
ZJHK,2016-04-18 05:00,ZJHK 180500Z 02003MPS 330V050 9999 SCT020 SCT033 23/19 Q1014 NOSIG
ZJHK,2016-04-18 06:00,ZJHK 180600Z 02003MPS 350V050 9999 SCT020 SCT026 22/19 Q1014 NOSIG
ZJHK,2016-04-18 07:00,ZJHK 180700Z 01003MPS 340V040 9999 SCT012 OVC026 22/19 Q1013 BECMG TL0750 BKN012
ZJHK,2016-04-18 08:00,ZJHK 180800Z 02004MPS 340V050 9999 BKN012 OVC026 21/19 Q1013 NOSIG
ZJHK,2016-04-18 09:00,ZJHK 180900Z 03004MPS 9999 BKN010 OVC020 22/19 Q1013 NOSIG
ZJHK,2016-04-18 10:00,ZJHK 181000Z 05004MPS 020V080 9999 BKN010 OVC020 22/19 Q1013 BECMG TL1150 BKN009
ZJHK,2016-04-18 11:00,ZJHK 181100Z 03004MPS 9999 BKN010 OVC020 21/19 Q1014 BECMG TL1250 BKN009
ZJHK,2016-04-18 12:00,ZJHK 181200Z 04004MPS 010V070 9999 BKN009 OVC020 21/18 Q1014 BECMG TL1250 BKN012
ZJHK,2016-04-18 13:00,ZJHK 181300Z 07004MPS 9999 BKN012 OVC020 21/19 Q1015 NOSIG
ZJHK,2016-04-18 14:00,ZJHK 181400Z 07004MPS 040V100 9999 BKN012 OVC020 21/19 Q1015 NOSIG
ZJHK,2016-04-18 15:00,ZJHK 181500Z 08005MPS 9999 BKN012 OVC020 21/19 Q1015 NOSIG
ZJHK,2016-04-18 16:00,ZJHK 181600Z 09003MPS 7000 BKN010 OVC020 21/19 Q1014 NOSIG
ZJHK,2016-04-18 17:00,ZJHK 181700Z 09002MPS 7000 BKN010 OVC020 21/19 Q1014 NOSIG
ZJHK,2016-04-18 18:00,ZJHK 181800Z 07002MPS 030V090 5000 BR BKN008 OVC020 21/20 Q1014 NOSIG
ZJHK,2016-04-18 19:00,ZJHK 181900Z 08002MPS 4000 BR BKN006 OVC020 21/20 Q1013 NOSIG
ZJHK,2016-04-18 20:00,ZJHK 182000Z 05002MPS 1600 BR BKN004 OVC020 21/21 Q1013 NOSIG
ZJHK,2016-04-18 21:00,ZJHK 182100Z 07004MPS 1600 BR BKN004 OVC020 22/21 Q1013 NOSIG
ZJHK,2016-04-18 22:00,ZJHK 182200Z 06003MPS 2800 BR BKN004 OVC020 22/21 Q1014 BECMG 3000 BR BKN005
ZJHK,2016-04-18 23:00,ZJHK 182300Z 03002MPS 3500 BR BKN005 OVC020 22/21 Q1015 BECMG TL0050 BKN010
ZJHK,2016-04-19 00:00,ZJHK 190000Z 02002MPS 3500 BR BKN005 OVC020 22/21 Q1016 BECMG BKN010
ZJHK,2016-04-19 01:00,ZJHK 190100Z 07002MPS 030V100 3000 BR FEW007 OVC020 23/22 Q1016 NOSIG
ZJHK,2016-04-19 02:00,ZJHK 190200Z 10003MPS 070V140 8000 BKN016 OVC030 24/22 Q1016 NOSIG
ZJHK,2016-04-19 03:00,ZJHK 190300Z 10004MPS 070V130 8000 SCT013 BKN030 26/23 Q1016 NOSIG
ZJHK,2016-04-19 04:00,ZJHK 190400Z 12004MPS 090V150 9999 BKN016 BKN033 27/23 Q1015 NOSIG
ZJHK,2016-04-19 05:00,ZJHK 190500Z 12003MPS 090V150 9999 BKN016 FEW023TCU BKN040 28/23 Q1015 NOSIG
ZJHK,2016-04-19 06:00,ZJHK 190600Z 13005MPS 110V170 9999 FEW023CB BKN023 BKN040 28/23 Q1013 NOSIG
ZJHK,2016-04-19 07:00,ZJHK 190700Z 13003MPS 9999 FEW023CB SCT023 BKN046 27/24 Q1013 RETS NOSIG
ZJHK,2016-04-19 08:00,ZJHK 190800Z 16004MPS 9999 FEW020TCU SCT020 BKN030 28/22 Q1012 NOSIG
ZJHK,2016-04-19 09:00,ZJHK 190900Z 13004MPS 100V160 9999 FEW020TCU SCT020 BKN030 27/22 Q1012 NOSIG
ZJHK,2016-04-19 10:00,ZJHK 191000Z 13003MPS 100V160 9999 FEW020TCU SCT020 26/22 Q1012 NOSIG
ZJHK,2016-04-19 11:00,ZJHK 191100Z 13004MPS 100V170 9999 FEW020 26/22 Q1012 NOSIG
ZJHK,2016-04-19 12:00,ZJHK 191200Z 13003MPS 100V160 9999 FEW020 25/22 Q1013 NOSIG
ZJHK,2016-04-19 13:00,ZJHK 191300Z 14002MPS 110V180 9999 FEW020 24/23 Q1013 NOSIG
ZJHK,2016-04-19 14:00,ZJHK 191400Z 12002MPS 100V160 9999 FEW020 24/23 Q1014 NOSIG
ZJHK,2016-04-19 15:00,ZJHK 191500Z 12003MPS 9999 SCT018 24/23 Q1015 NOSIG
ZJHK,2016-04-19 16:00,ZJHK 191600Z 12003MPS 090V150 9999 SCT018 24/23 Q1014 NOSIG
ZJHK,2016-04-19 17:00,ZJHK 191700Z 11003MPS 9999 SCT016 24/23 Q1013 NOSIG
ZJHK,2016-04-19 18:00,ZJHK 191800Z 11003MPS 9999 FEW016 24/23 Q1013 NOSIG
ZJHK,2016-04-19 19:00,ZJHK 191900Z 13002MPS 9999 FEW016 24/23 Q1012 NOSIG
ZJHK,2016-04-19 20:00,ZJHK 192000Z 11003MPS 9999 BKN030 24/22 Q1012 NOSIG
ZJHK,2016-04-19 21:00,ZJHK 192100Z 12002MPS 9999 FEW015 23/23 Q1012 NOSIG
ZJHK,2016-04-19 22:00,ZJHK 192200Z 13003MPS CAVOK 23/22 Q1012 NOSIG
ZJHK,2016-04-19 23:00,ZJHK 192300Z 14003MPS CAVOK 24/23 Q1012 NOSIG
ZJHK,2016-04-20 00:00,ZJHK 200000Z 14004MPS 110V170 9999 FEW015 25/23 Q1013 NOSIG
ZJHK,2016-04-20 01:00,ZJHK 200100Z 15004MPS 120V180 9999 BKN020 26/22 Q1013 NOSIG
ZJHK,2016-04-20 02:00,ZJHK 200200Z 15005MPS 130V190 9999 SCT020 27/22 Q1014 NOSIG
ZJHK,2016-04-20 03:00,ZJHK 200300Z 16004MPS 120V190 9999 SCT026 28/22 Q1014 NOSIG
ZJHK,2016-04-20 04:00,ZJHK 200400Z 19003MPS 9999 FEW020TCU BKN026 28/22 Q1014 NOSIG
ZJHK,2016-04-20 05:00,ZJHK 200500Z 27007MPS 8000 -SHRA FEW014 FEW026CB BKN033 24/22 Q1014 NOSIG
ZJHK,2016-04-20 06:00,ZJHK 200600Z 29006MPS 260V320 9999 FEW026CB SCT033 27/18 Q1013 NOSIG
ZJHK,2016-04-20 07:00,ZJHK 200700Z 31005MPS 270V330 9999 FEW026TCU SCT033 27/18 Q1012 NOSIG
ZJHK,2016-04-20 08:00,ZJHK 200800Z 04001MPS CAVOK 28/18 Q1011 NOSIG
ZJHK,2016-04-20 09:00,ZJHK 200900Z 13003MPS 100V160 CAVOK 27/19 Q1010 NOSIG
ZJHK,2016-04-20 10:00,ZJHK 201000Z 13003MPS 090V150 CAVOK 26/21 Q1009 NOSIG
ZJHK,2016-04-20 11:00,ZJHK 201100Z 13002MPS CAVOK 25/21 Q1010 NOSIG
ZJHK,2016-04-20 12:00,ZJHK 201200Z 14002MPS CAVOK 24/21 Q1011 NOSIG
ZJHK,2016-04-20 13:00,ZJHK 201300Z 13002MPS CAVOK 23/21 Q1012 NOSIG
ZJHK,2016-04-20 14:00,ZJHK 201400Z 10002MPS CAVOK 23/21 Q1012 NOSIG
ZJHK,2016-04-20 15:00,ZJHK 201500Z 09002MPS CAVOK 22/21 Q1012 NOSIG
ZJHK,2016-04-20 16:00,ZJHK 201600Z 08003MPS 7000 BKN013 22/21 Q1012 BECMG BKN008
ZJHK,2016-04-20 17:00,ZJHK 201700Z 10002MPS 7000 BKN013 22/22 Q1011 NOSIG
ZJHK,2016-04-20 18:00,ZJHK 201800Z 12002MPS 7000 NSC 22/22 Q1011 NOSIG
ZJHK,2016-04-20 19:00,ZJHK 201900Z 12002MPS 7000 BCFG NSC 22/21 Q1010 NOSIG
ZJHK,2016-04-20 20:00,ZJHK 202000Z 12001MPS 7000 NSC 22/22 Q1010 NOSIG
ZJHK,2016-04-20 21:00,ZJHK 202100Z 11001MPS 7000 NSC 22/21 Q1010 NOSIG
ZJHK,2016-04-20 22:00,ZJHK 202200Z 31001MPS 7000 NSC 22/21 Q1011 NOSIG
ZJHK,2016-04-20 23:00,ZJHK 202300Z 00000MPS 7000 NSC 23/22 Q1012 NOSIG
ZJHK,2016-04-21 00:00,ZJHK 210000Z 00000MPS CAVOK 24/23 Q1013 NOSIG
ZJHK,2016-04-21 01:00,ZJHK 210100Z 18002MPS 9999 FEW010 26/23 Q1013 NOSIG
ZJHK,2016-04-21 02:00,ZJHK 210200Z 20003MPS 170V230 9999 FEW020 28/22 Q1013 NOSIG
ZJHK,2016-04-21 03:00,ZJHK 210300Z 20002MPS 160V230 9999 FEW020 29/22 Q1013 NOSIG
ZJHK,2016-04-21 04:00,ZJHK 210400Z 17002MPS CAVOK 30/21 Q1012 NOSIG
ZJHK,2016-04-21 05:00,ZJHK 210500Z 22002MPS 130V270 CAVOK 31/21 Q1011 NOSIG
ZJHK,2016-04-21 06:00,ZJHK 210600Z 20002MPS 9999 SCT040 32/20 Q1010 NOSIG
ZJHK,2016-04-21 07:00,ZJHK 210700Z 22002MPS 9999 SCT040 32/20 Q1009 NOSIG
ZJHK,2016-04-21 08:00,ZJHK 210800Z 02004MPS 330V050 9999 FEW030TCU 30/20 Q1009 NOSIG
ZJHK,2016-04-21 09:00,ZJHK 210900Z 01004MPS 9999 FEW030TCU FEW030 29/19 Q1009 NOSIG
ZJHK,2016-04-21 10:00,ZJHK 211000Z 01003MPS CAVOK 28/19 Q1008 NOSIG
ZJHK,2016-04-21 11:00,ZJHK 211100Z 16003MPS CAVOK 27/21 Q1009 NOSIG
ZJHK,2016-04-21 12:00,ZJHK 211200Z 13002MPS CAVOK 26/21 Q1009 NOSIG
ZJHK,2016-04-21 13:00,ZJHK 211300Z 15002MPS 9999 FEW023 25/21 Q1010 NOSIG
ZJHK,2016-04-21 14:00,ZJHK 211400Z 15002MPS 9999 FEW023 25/21 Q1010 NOSIG
ZJHK,2016-04-21 15:00,ZJHK 211500Z 16004MPS 130V190 9999 FEW023 25/21 Q1010 NOSIG
ZJHK,2016-04-21 16:00,ZJHK 211600Z 17003MPS 130V190 9999 FEW023 24/21 Q1010 NOSIG
ZJHK,2016-04-21 17:00,ZJHK 211700Z 16003MPS 140V200 CAVOK 24/21 Q1009 NOSIG
ZJHK,2016-04-21 18:00,ZJHK 211800Z 16003MPS CAVOK 24/21 Q1009 NOSIG
ZJHK,2016-04-21 19:00,ZJHK 211900Z 15003MPS 130V190 CAVOK 24/21 Q1008 NOSIG
ZJHK,2016-04-21 20:00,ZJHK 212000Z 16002MPS CAVOK 24/21 Q1008 NOSIG
ZJHK,2016-04-21 21:00,ZJHK 212100Z 17003MPS CAVOK 23/21 Q1008 NOSIG
ZJHK,2016-04-21 22:00,ZJHK 212200Z 00000MPS CAVOK 23/20 Q1008 NOSIG
ZJHK,2016-04-21 23:00,ZJHK 212300Z 21001MPS CAVOK 23/21 Q1009 NOSIG
ZJHK,2016-04-22 00:00,ZJHK 220000Z 19002MPS CAVOK 25/21 Q1010 NOSIG
ZJHK,2016-04-22 01:00,ZJHK 220100Z 18003MPS 160V220 CAVOK 27/21 Q1011 NOSIG
ZJHK,2016-04-22 02:00,ZJHK 220200Z 25002MPS CAVOK 28/20 Q1011 NOSIG
ZJHK,2016-04-22 03:00,ZJHK 220300Z 18002MPS 140V220 9999 SCT026 28/19 Q1011 NOSIG
ZJHK,2016-04-22 04:00,ZJHK 220400Z 02006MPS 350V070 9999 FEW023 27/20 Q1011 NOSIG
ZJHK,2016-04-22 05:00,ZJHK 220500Z 01005MPS CAVOK 28/20 Q1010 NOSIG
ZJHK,2016-04-22 06:00,ZJHK 220600Z 36006MPS 9999 FEW026TCU BKN033 26/19 Q1010 NOSIG
ZJHK,2016-04-22 07:00,ZJHK 220700Z 03007MPS 9999 FEW026TCU BKN040 26/18 Q1009 NOSIG
ZJHK,2016-04-22 08:00,ZJHK 220800Z 03005MPS 9999 FEW026CB BKN040 24/17 Q1009 BECMG AT0940 32011G20MPS 1000 +TSRA BKN006 SCT020CB BKN030
ZJHK,2016-04-22 09:00,ZJHK 220900Z 07006MPS 9999 FEW026CB BKN040 24/18 Q1008 BECMG AT1030 30009G15MPS 2000 TSRA BKN007 SCT026CB BKN030
ZJHK,2016-04-22 10:00,ZJHK 221000Z VRB06MPS 9999 FEW012 SCT023CB BKN023 23/19 Q1010 BECMG AT1020 32009G15MPS 2000 TSRA BKN007 FEW026CB BKN030
ZJHK,2016-04-22 11:00,ZJHK 221100Z 32006MPS 9999 -SHRA FEW012 FEW030CB BKN046 20/18 Q1011 NOSIG
ZJHK,2016-04-22 12:00,ZJHK 221200Z 35003MPS 330V030 9999 SCT046 20/18 Q1010 NOSIG
ZJHK,2016-04-22 13:00,ZJHK 221300Z 14003MPS CAVOK 20/18 Q1010 NOSIG
ZJHK,2016-04-22 14:00,ZJHK 221400Z 16003MPS 130V190 CAVOK 19/18 Q1010 NOSIG
ZJHK,2016-04-22 15:00,ZJHK 221500Z 20005MPS 160V240 9999 FEW010 20/19 Q1011 NOSIG
ZJHK,2016-04-22 16:00,ZJHK 221600Z 14004MPS CAVOK 20/18 Q1008 NOSIG
ZJHK,2016-04-22 17:00,ZJHK 221700Z 16005MPS 130V190 CAVOK 21/18 Q1007 NOSIG
ZJHK,2016-04-22 18:00,ZJHK 221800Z 16004MPS 130V190 CAVOK 21/18 Q1007 NOSIG
ZJHK,2016-04-22 19:00,ZJHK 221900Z 15003MPS 120V200 CAVOK 21/18 Q1007 NOSIG
ZJHK,2016-04-22 20:00,ZJHK 222000Z 15005MPS CAVOK 21/18 Q1006 NOSIG
ZJHK,2016-04-22 21:00,ZJHK 222100Z 17004MPS CAVOK 21/18 Q1006 NOSIG
ZJHK,2016-04-22 22:00,ZJHK 222200Z 16003MPS CAVOK 21/18 Q1006 NOSIG
ZJHK,2016-04-22 23:00,ZJHK 222300Z 22003MPS 190V260 CAVOK 22/18 Q1007 NOSIG
ZJHK,2016-04-23 00:00,ZJHK 230000Z 26004MPS CAVOK 23/18 Q1009 NOSIG
ZJHK,2016-04-23 01:00,ZJHK 230100Z 20002MPS CAVOK 24/19 Q1008 NOSIG
ZJHK,2016-04-23 02:00,ZJHK 230200Z 20004MPS CAVOK 24/19 Q1009 NOSIG
ZJHK,2016-04-23 03:00,ZJHK 230300Z 18005MPS 9999 -RA SCT040 24/19 Q1008 NOSIG
ZJHK,2016-04-23 04:00,ZJHK 230400Z 16005MPS 130V190 CAVOK 25/19 Q1008 NOSIG
ZJHK,2016-04-23 05:00,ZJHK 230500Z 18005MPS CAVOK 25/19 Q1007 NOSIG
ZJHK,2016-04-23 06:00,ZJHK 230600Z 19004MPS 160V220 CAVOK 25/19 Q1007 NOSIG
ZJHK,2016-04-23 07:00,ZJHK 230700Z 19004MPS 150V210 CAVOK 27/19 Q1006 NOSIG
ZJHK,2016-04-23 08:00,ZJHK 230800Z 18004MPS 140V230 CAVOK 28/19 Q1005 NOSIG
ZJHK,2016-04-23 09:00,ZJHK 230900Z 19004MPS CAVOK 28/19 Q1005 NOSIG
ZJHK,2016-04-23 10:00,ZJHK 231000Z 17002MPS 150V210 CAVOK 27/20 Q1005 NOSIG
ZJHK,2016-04-23 11:00,ZJHK 231100Z 13001MPS CAVOK 25/20 Q1005 NOSIG
ZJHK,2016-04-23 12:00,ZJHK 231200Z 12002MPS CAVOK 24/20 Q1006 NOSIG
ZJHK,2016-04-23 13:00,ZJHK 231300Z 14002MPS CAVOK 23/20 Q1007 NOSIG
ZJHK,2016-04-23 14:00,ZJHK 231400Z 08001MPS CAVOK 22/20 Q1008 NOSIG
ZJHK,2016-04-23 15:00,ZJHK 231500Z 09001MPS CAVOK 21/19 Q1008 NOSIG
ZJHK,2016-04-23 16:00,ZJHK 231600Z 14001MPS CAVOK 21/19 Q1007 NOSIG
ZJHK,2016-04-23 17:00,ZJHK 231700Z 14001MPS CAVOK 21/19 Q1007 NOSIG
ZJHK,2016-04-23 18:00,ZJHK 231800Z 16002MPS CAVOK 22/19 Q1006 NOSIG
ZJHK,2016-04-23 19:00,ZJHK 231900Z 09001MPS CAVOK 21/19 Q1006 NOSIG
ZJHK,2016-04-23 20:00,ZJHK 232000Z 36001MPS CAVOK 20/19 Q1005 NOSIG
ZJHK,2016-04-23 21:00,ZJHK 232100Z 09001MPS CAVOK 21/20 Q1005 NOSIG
ZJHK,2016-04-23 22:00,ZJHK 232200Z 31001MPS CAVOK 21/19 Q1006 NOSIG
ZJHK,2016-04-23 23:00,ZJHK 232300Z 34001MPS CAVOK 22/20 Q1007 NOSIG
ZJHK,2016-04-24 00:00,ZJHK 240000Z 36002MPS CAVOK 23/21 Q1008 NOSIG
ZJHK,2016-04-24 01:00,ZJHK 240100Z 01002MPS 330V060 CAVOK 24/21 Q1008 NOSIG
ZJHK,2016-04-24 02:00,ZJHK 240200Z 13002MPS CAVOK 26/22 Q1008 NOSIG
ZJHK,2016-04-24 03:00,ZJHK 240300Z 16002MPS 100V270 9999 SCT023 29/22 Q1008 NOSIG
ZJHK,2016-04-24 04:00,ZJHK 240400Z 19004MPS 160V220 9999 BKN023 29/22 Q1008 NOSIG
ZJHK,2016-04-24 05:00,ZJHK 240500Z 20003MPS 160V250 9999 FEW023TCU FEW023 28/22 Q1007 NOSIG
ZJHK,2016-04-24 06:00,ZJHK 240600Z 26006MPS 230V290 9999 FEW023TCU SCT023 29/22 Q1007 NOSIG
ZJHK,2016-04-24 07:00,ZJHK 240700Z 27005MPS 230V300 9999 FEW023 29/22 Q1006 NOSIG
ZJHK,2016-04-24 08:00,ZJHK 240800Z 23002MPS 150V270 CAVOK 28/21 Q1005 NOSIG
ZJHK,2016-04-24 09:00,ZJHK 240900Z 24001MPS CAVOK 29/21 Q1005 NOSIG
ZJHK,2016-04-24 10:00,ZJHK 241000Z 15001MPS CAVOK 28/22 Q1006 NOSIG
ZJHK,2016-04-24 11:00,ZJHK 241100Z 03003MPS CAVOK 25/20 Q1007 NOSIG
ZJHK,2016-04-24 12:00,ZJHK 241200Z 09003MPS CAVOK 25/20 Q1007 NOSIG
ZJHK,2016-04-24 13:00,ZJHK 241300Z 10002MPS CAVOK 24/21 Q1007 NOSIG
ZJHK,2016-04-24 14:00,ZJHK 241400Z 10002MPS CAVOK 23/21 Q1008 NOSIG
ZJHK,2016-04-24 15:00,ZJHK 241500Z 12002MPS CAVOK 22/20 Q1008 NOSIG
ZJHK,2016-04-24 16:00,ZJHK 241600Z 09001MPS CAVOK 22/20 Q1008 NOSIG
ZJHK,2016-04-24 17:00,ZJHK 241700Z 12001MPS CAVOK 22/20 Q1007 NOSIG
ZJHK,2016-04-24 18:00,ZJHK 241800Z 00000MPS CAVOK 21/20 Q1007 NOSIG
ZJHK,2016-04-24 19:00,ZJHK 241900Z 00000MPS CAVOK 21/20 Q1007 NOSIG
ZJHK,2016-04-24 20:00,ZJHK 242000Z 10001MPS CAVOK 21/20 Q1007 NOSIG
ZJHK,2016-04-24 21:00,ZJHK 242100Z 10001MPS CAVOK 21/20 Q1007 NOSIG
ZJHK,2016-04-24 22:00,ZJHK 242200Z 29001MPS CAVOK 21/21 Q1008 NOSIG
ZJHK,2016-04-24 23:00,ZJHK 242300Z 24003MPS 9999 -SHRA FEW023TCU BKN046 22/21 Q1009 NOSIG
ZJHK,2016-04-25 00:00,ZJHK 250000Z 25004MPS 210V270 4000 BR BKN007 FEW023TCU BKN023 23/21 Q1010 NOSIG
ZJHK,2016-04-25 01:00,ZJHK 250100Z 21003MPS 150V260 4000 BR BKN007 FEW023TCU SCT040 24/22 Q1009 BECMG TL0250 BKN020
ZJHK,2016-04-25 02:00,ZJHK 250200Z 21002MPS 5000 BR BKN007 SCT040 26/22 Q1010 BECMG TL0250 BKN020
ZJHK,2016-04-25 03:00,ZJHK 250300Z 20002MPS 160V260 7000 SCT020 27/22 Q1010 NOSIG
ZJHK,2016-04-25 04:00,ZJHK 250400Z 17001MPS 9999 SCT023 28/22 Q1010 NOSIG
ZJHK,2016-04-25 05:00,ZJHK 250500Z 22002MPS 170V250 9999 SCT023 29/21 Q1009 NOSIG
ZJHK,2016-04-25 06:00,ZJHK 250600Z 22001MPS 9999 SCT023 31/21 Q1008 NOSIG
ZJHK,2016-04-25 07:00,ZJHK 250700Z 02004MPS 360V070 9999 SCT023 30/22 Q1007 NOSIG
ZJHK,2016-04-25 08:00,ZJHK 250800Z 04005MPS 9999 SCT023 29/22 Q1007 NOSIG
ZJHK,2016-04-25 09:00,ZJHK 250900Z 06004MPS 020V100 CAVOK 29/23 Q1006 NOSIG
ZJHK,2016-04-25 10:00,ZJHK 251000Z 06003MPS 030V100 CAVOK 29/23 Q1006 NOSIG
ZJHK,2016-04-25 11:00,ZJHK 251100Z 11003MPS CAVOK 27/22 Q1007 NOSIG
ZJHK,2016-04-25 12:00,ZJHK 251200Z 12003MPS 080V140 CAVOK 26/23 Q1008 NOSIG
ZJHK,2016-04-25 13:00,ZJHK 251300Z 13003MPS CAVOK 25/23 Q1008 NOSIG
ZJHK,2016-04-25 14:00,ZJHK 251400Z 14003MPS CAVOK 25/23 Q1009 NOSIG
ZJHK,2016-04-25 15:00,ZJHK 251500Z 15002MPS 120V180 CAVOK 25/23 Q1009 NOSIG
ZJHK,2016-04-25 16:00,ZJHK 251600Z 15002MPS CAVOK 24/23 Q1009 NOSIG
ZJHK,2016-04-25 17:00,ZJHK 251700Z 16003MPS CAVOK 24/23 Q1008 NOSIG
ZJHK,2016-04-25 18:00,ZJHK 251800Z 17004MPS 130V190 CAVOK 24/23 Q1008 NOSIG
ZJHK,2016-04-25 19:00,ZJHK 251900Z 16004MPS 130V190 CAVOK 24/23 Q1007 NOSIG
ZJHK,2016-04-25 20:00,ZJHK 252000Z 17003MPS 130V200 CAVOK 24/23 Q1007 NOSIG
ZJHK,2016-04-25 21:00,ZJHK 252100Z 17003MPS 140V200 CAVOK 24/22 Q1007 NOSIG
ZJHK,2016-04-25 22:00,ZJHK 252200Z 17004MPS CAVOK 24/22 Q1007 NOSIG
ZJHK,2016-04-25 23:00,ZJHK 252300Z 17003MPS CAVOK 24/21 Q1008 NOSIG
ZJHK,2016-04-26 00:00,ZJHK 260000Z 17003MPS 120V210 CAVOK 26/22 Q1008 NOSIG
ZJHK,2016-04-26 01:00,ZJHK 260100Z 19003MPS 160V230 CAVOK 28/21 Q1009 NOSIG
ZJHK,2016-04-26 02:00,ZJHK 260200Z 18004MPS 140V220 CAVOK 30/21 Q1009 NOSIG
ZJHK,2016-04-26 03:00,ZJHK 260300Z 19004MPS 160V220 CAVOK 31/21 Q1008 NOSIG
ZJHK,2016-04-26 04:00,ZJHK 260400Z 20004MPS 160V220 CAVOK 33/21 Q1008 NOSIG
ZJHK,2016-04-26 05:00,ZJHK 260500Z 18003MPS 140V220 CAVOK 34/21 Q1007 NOSIG
ZJHK,2016-04-26 06:00,ZJHK 260600Z 29008MPS CAVOK 32/22 Q1007 NOSIG
ZJHK,2016-04-26 07:00,ZJHK 260700Z 28006MPS CAVOK 27/22 Q1006 NOSIG
ZJHK,2016-04-26 08:00,ZJHK 260800Z 24001MPS CAVOK 28/22 Q1006 NOSIG
ZJHK,2016-04-26 09:00,ZJHK 260900Z 14002MPS CAVOK 29/22 Q1005 NOSIG
ZJHK,2016-04-26 10:00,ZJHK 261000Z 14003MPS CAVOK 29/23 Q1005 NOSIG
ZJHK,2016-04-26 11:00,ZJHK 261100Z 12002MPS CAVOK 28/23 Q1006 NOSIG
ZJHK,2016-04-26 12:00,ZJHK 261200Z 14002MPS 120V180 CAVOK 27/23 Q1006 NOSIG
ZJHK,2016-04-26 13:00,ZJHK 261300Z 16003MPS 120V190 CAVOK 27/22 Q1006 NOSIG
ZJHK,2016-04-26 14:00,ZJHK 261400Z 14002MPS CAVOK 26/21 Q1007 NOSIG
ZJHK,2016-04-26 15:00,ZJHK 261500Z 15002MPS CAVOK 25/21 Q1007 NOSIG
ZJHK,2016-04-26 16:00,ZJHK 261600Z 16002MPS CAVOK 25/21 Q1007 NOSIG
ZJHK,2016-04-26 17:00,ZJHK 261700Z 00000MPS CAVOK 24/22 Q1007 NOSIG
ZJHK,2016-04-26 18:00,ZJHK 261800Z 00000MPS CAVOK 23/21 Q1006 NOSIG
ZJHK,2016-04-26 19:00,ZJHK 261900Z 00000MPS CAVOK 23/21 Q1006 NOSIG
ZJHK,2016-04-26 20:00,ZJHK 262000Z 00000MPS CAVOK 24/21 Q1006 NOSIG
ZJHK,2016-04-26 21:00,ZJHK 262100Z 00000MPS CAVOK 23/21 Q1007 NOSIG
ZJHK,2016-04-26 22:00,ZJHK 262200Z 06001MPS CAVOK 23/22 Q1007 NOSIG
ZJHK,2016-04-26 23:00,ZJHK 262300Z 00000MPS CAVOK 24/22 Q1008 NOSIG
ZJHK,2016-04-27 00:00,ZJHK 270000Z 03001MPS CAVOK 26/22 Q1008 NOSIG
ZJHK,2016-04-27 01:00,ZJHK 270100Z 33001MPS 9999 SCT033 28/21 Q1009 NOSIG
ZJHK,2016-04-27 02:00,ZJHK 270200Z 35003MPS 310V030 CAVOK 28/22 Q1009 BECMG 34005G12MPS -TSRA
ZJHK,2016-04-27 03:00,ZJHK 270300Z 30004MPS 280V340 9999 TS FEW026CB BKN040 26/23 Q1010 BECMG FM0400 NSW
ZJHK,2016-04-27 04:00,ZJHK 270400Z 01002MPS 6000 TS FEW026CB BKN040 22/21 Q1010 RESHRA NOSIG
ZJHK,2016-04-27 05:00,ZJHK 270500Z 06002MPS 9999 FEW033CB 22/21 Q1009 RETS NOSIG
ZJHK,2016-04-27 06:00,ZJHK 270600Z 30001MPS CAVOK 25/21 Q1008 NOSIG
ZJHK,2016-04-27 07:00,ZJHK 270700Z 29001MPS CAVOK 27/21 Q1007 NOSIG
ZJHK,2016-04-27 08:00,ZJHK 270800Z 23001MPS 9999 FEW020 28/21 Q1007 NOSIG
ZJHK,2016-04-27 09:00,ZJHK 270900Z 01002MPS 9999 FEW020 28/21 Q1006 NOSIG
ZJHK,2016-04-27 10:00,ZJHK 271000Z 05002MPS 010V080 9999 FEW020 27/22 Q1006 NOSIG
ZJHK,2016-04-27 11:00,ZJHK 271100Z 10002MPS CAVOK 25/22 Q1007 NOSIG
ZJHK,2016-04-27 12:00,ZJHK 271200Z 11001MPS CAVOK 25/23 Q1008 NOSIG
ZJHK,2016-04-27 13:00,ZJHK 271300Z 00000MPS CAVOK 24/23 Q1008 NOSIG
ZJHK,2016-04-27 14:00,ZJHK 271400Z 16002MPS CAVOK 24/23 Q1008 NOSIG
ZJHK,2016-04-27 15:00,ZJHK 271500Z 19001MPS CAVOK 24/22 Q1009 NOSIG
ZJHK,2016-04-27 16:00,ZJHK 271600Z 17001MPS CAVOK 24/22 Q1009 NOSIG
ZJHK,2016-04-27 17:00,ZJHK 271700Z 00000MPS CAVOK 23/22 Q1008 NOSIG
ZJHK,2016-04-27 18:00,ZJHK 271800Z 35001MPS 9999 FEW020TCU FEW020 24/23 Q1008 NOSIG
ZJHK,2016-04-27 19:00,ZJHK 271900Z 33004MPS 270V030 6000 -TSRA SCT010 FEW020CB BKN046 24/23 Q1008 BECMG NSW
ZJHK,2016-04-27 20:00,ZJHK 272000Z 26001MPS 8000 TS FEW013 FEW023CB 22/22 Q1008 NOSIG
ZJHK,2016-04-27 21:00,ZJHK 272100Z 36001MPS 6000 TS FEW010 FEW023CB 23/22 Q1008 NOSIG
ZJHK,2016-04-27 22:00,ZJHK 272200Z 00000MPS 4000 BR FEW007 22/22 Q1008 RETS NOSIG
ZJHK,2016-04-27 23:00,ZJHK 272300Z 00000MPS 2100 BR BKN004 OVC026 23/22 Q1009 BECMG AT0000 3000 BR SCT010
ZJHK,2016-04-28 00:00,ZJHK 280000Z 00000MPS 3000 BR SCT007 BKN026 23/22 Q1010 NOSIG
ZJHK,2016-04-28 01:00,ZJHK 280100Z 14001MPS 3000 BR SCT007 BKN026 24/22 Q1011 NOSIG
ZJHK,2016-04-28 02:00,ZJHK 280200Z 16001MPS 5000 BR SCT007 BKN026 25/23 Q1011 BECMG BKN010
ZJHK,2016-04-28 03:00,ZJHK 280300Z 24002MPS 7000 BKN010 BKN026 26/23 Q1011 BECMG BKN020
ZJHK,2016-04-28 04:00,ZJHK 280400Z 21001MPS 9999 BKN020 29/23 Q1011 NOSIG
ZJHK,2016-04-28 05:00,ZJHK 280500Z 29001MPS 9999 SCT020 SCT030 29/22 Q1010 NOSIG
ZJHK,2016-04-28 06:00,ZJHK 280600Z 36003MPS 330V030 9999 FEW030 29/23 Q1009 NOSIG
ZJHK,2016-04-28 07:00,ZJHK 280700Z 03004MPS CAVOK 28/22 Q1009 NOSIG
ZJHK,2016-04-28 08:00,ZJHK 280800Z 03003MPS 340V060 CAVOK 29/22 Q1008 NOSIG
ZJHK,2016-04-28 09:00,ZJHK 280900Z 03004MPS 360V070 CAVOK 29/23 Q1008 NOSIG
ZJHK,2016-04-28 10:00,ZJHK 281000Z 11003MPS 080V160 9999 FEW018 SCT030 27/23 Q1009 NOSIG
ZJHK,2016-04-28 11:00,ZJHK 281100Z 08002MPS 9999 SCT018 BKN030 26/23 Q1009 NOSIG
ZJHK,2016-04-28 12:00,ZJHK 281200Z 05004MPS 010V070 9999 FEW023 25/23 Q1009 NOSIG
ZJHK,2016-04-28 13:00,ZJHK 281300Z 05004MPS 9999 SCT013 SCT026 24/23 Q1010 NOSIG
ZJHK,2016-04-28 14:00,ZJHK 281400Z 08004MPS 9999 SCT007 SCT013 24/23 Q1011 NOSIG
ZJHK,2016-04-28 15:00,ZJHK 281500Z 08005MPS 9999 FEW007 BKN030 24/22 Q1012 NOSIG
ZJHK,2016-04-28 16:00,ZJHK 281600Z 09004MPS 9999 FEW007 BKN030 24/22 Q1011 NOSIG
ZJHK,2016-04-28 17:00,ZJHK 281700Z 09002MPS 9999 FEW007 BKN030 24/22 Q1011 NOSIG
ZJHK,2016-04-28 18:00,ZJHK 281800Z 08003MPS 9999 BKN040 24/22 Q1011 NOSIG
ZJHK,2016-04-28 19:00,ZJHK 281900Z 08003MPS 9999 FEW007 BKN040 24/22 Q1010 NOSIG
ZJHK,2016-04-28 20:00,ZJHK 282000Z 09002MPS 9999 SCT010 23/22 Q1010 NOSIG
ZJHK,2016-04-28 21:00,ZJHK 282100Z 08002MPS 8000 BKN009 23/23 Q1010 NOSIG
ZJHK,2016-04-28 22:00,ZJHK 282200Z 05004MPS 6000 BKN006 23/22 Q1011 NOSIG
ZJHK,2016-04-28 23:00,ZJHK 282300Z 08004MPS 3000 BR BKN006 24/22 Q1012 NOSIG
ZJHK,2016-04-29 00:00,ZJHK 290000Z 09004MPS 3000 BR BKN006 24/23 Q1012 NOSIG
ZJHK,2016-04-29 01:00,ZJHK 290100Z 09004MPS 7000 BKN009 25/23 Q1013 BECMG TL0250 BKN012
ZJHK,2016-04-29 02:00,ZJHK 290200Z 10003MPS 070V130 8000 BKN012 25/23 Q1013 BECMG BKN020
ZJHK,2016-04-29 03:00,ZJHK 290300Z 09003MPS 060V140 9999 BKN018 27/23 Q1013 NOSIG
ZJHK,2016-04-29 04:00,ZJHK 290400Z 07003MPS 040V120 9999 BKN018 27/23 Q1013 NOSIG
ZJHK,2016-04-29 05:00,ZJHK 290500Z 07004MPS 040V100 9999 SCT018 FEW026TCU BKN030 27/23 Q1012 NOSIG
ZJHK,2016-04-29 06:00,ZJHK 290600Z 07006MPS 7000 -SHRA SCT012 FEW020TCU BKN026 25/23 Q1011 NOSIG
ZJHK,2016-04-29 07:00,ZJHK 290700Z 08005MPS 9999 SCT015 FEW020TCU BKN026 26/23 Q1011 NOSIG
ZJHK,2016-04-29 08:00,ZJHK 290800Z 08005MPS 9999 BKN008 OVC026 26/23 Q1010 BECMG TL0900 SCT008 BKN026
ZJHK,2016-04-29 09:00,ZJHK 290900Z 07006MPS 9999 BKN008 OVC026 25/23 Q1010 NOSIG
ZJHK,2016-04-29 10:00,ZJHK 291000Z 07005MPS 6000 BKN006 OVC026 24/23 Q1011 NOSIG
ZJHK,2016-04-29 11:00,ZJHK 291100Z 09006MPS 6000 BKN006 OVC026 24/22 Q1010 NOSIG
ZJHK,2016-04-29 12:00,ZJHK 291200Z 09004MPS 6000 BKN006 OVC020 24/22 Q1011 NOSIG
ZJHK,2016-04-29 13:00,ZJHK 291300Z 10004MPS 6000 BKN006 FEW020CB BKN020 24/22 Q1011 NOSIG
ZJHK,2016-04-29 14:00,ZJHK 291400Z 09004MPS 6000 BKN006 OVC020 24/22 Q1012 NOSIG
ZJHK,2016-04-29 15:00,ZJHK 291500Z 10004MPS 6000 BKN006 OVC020 24/22 Q1012 NOSIG
ZJHK,2016-04-29 16:00,ZJHK 291600Z 09004MPS 6000 BKN006 OVC020 24/22 Q1012 NOSIG
ZJHK,2016-04-29 17:00,ZJHK 291700Z 08005MPS 7000 BKN006 OVC020 24/22 Q1011 NOSIG
ZJHK,2016-04-29 18:00,ZJHK 291800Z 08005MPS 7000 BKN006 OVC020 24/22 Q1010 NOSIG
ZJHK,2016-04-29 19:00,ZJHK 291900Z 11002MPS 080V140 7000 BKN008 FEW020CB BKN020 24/22 Q1010 NOSIG
ZJHK,2016-04-29 20:00,ZJHK 292000Z 12003MPS 090V150 7000 TS BKN008 FEW023CB BKN023 23/22 Q1010 BECMG AT2120 NSW
ZJHK,2016-04-29 21:00,ZJHK 292100Z 12003MPS 9999 TS FEW016 FEW026CB 22/21 Q1009 NOSIG
ZJHK,2016-04-29 22:00,ZJHK 292200Z 12002MPS 9999 FEW026TCU 22/21 Q1010 RETS NOSIG
ZJHK,2016-04-29 23:00,ZJHK 292300Z 13001MPS 9999 SCT016 BKN033 23/23 Q1010 NOSIG
ZJHK,2016-04-30 00:00,ZJHK 300000Z 15003MPS 110V180 9999 SCT008 25/23 Q1011 NOSIG
ZJHK,2016-04-30 01:00,ZJHK 300100Z 15003MPS 9999 BKN012 25/23 Q1012 BECMG BKN016
ZJHK,2016-04-30 02:00,ZJHK 300200Z 16003MPS 120V210 9999 BKN015 27/23 Q1011 NOSIG
ZJHK,2016-04-30 03:00,ZJHK 300300Z 21004MPS 170V240 CAVOK 29/22 Q1010 NOSIG
ZJHK,2016-04-30 04:00,ZJHK 300400Z 21002MPS 140V280 9999 FEW025 30/23 Q1010 NOSIG
ZJHK,2016-04-30 05:00,ZJHK 300500Z 20003MPS 150V240 9999 SCT025 31/22 Q1009 NOSIG
ZJHK,2016-04-30 06:00,ZJHK 300600Z 35004MPS 320V020 9999 BKN025 30/23 Q1009 NOSIG
ZJHK,2016-04-30 07:00,ZJHK 300700Z 34004MPS 9999 FEW025TCU BKN025 28/22 Q1008 BECMG TS BKN020 FEW025CB
ZJHK,2016-04-30 08:00,ZJHK 300800Z 04002MPS 350V090 9999 SCT023CB SCT023 28/22 Q1008 BECMG TS BKN020 FEW025CB
ZJHK,2016-04-30 09:00,ZJHK 300900Z 11003MPS 080V140 9999 FEW023CB SCT026 27/22 Q1007 BECMG TS
ZJHK,2016-04-30 10:00,ZJHK 301000Z 11003MPS 9999 FEW023CB BKN026 27/22 Q1007 BECMG TS
ZJHK,2016-04-30 11:00,ZJHK 301100Z 29002MPS 9999 FEW026 25/23 Q1008 NOSIG
ZJHK,2016-04-30 12:00,ZJHK 301200Z 00000MPS 8000 NSC 24/23 Q1008 NOSIG
ZJHK,2016-04-30 13:00,ZJHK 301300Z 15001MPS 6000 NSC 24/23 Q1009 NOSIG
ZJHK,2016-04-30 14:00,ZJHK 301400Z 15001MPS 6000 NSC 24/23 Q1009 NOSIG
ZJHK,2016-04-30 15:00,ZJHK 301500Z 16001MPS 6000 NSC 24/23 Q1009 NOSIG
ZJHK,2016-04-30 16:00,ZJHK 301600Z 14002MPS 8000 NSC 23/22 Q1009 NOSIG
ZJHK,2016-04-30 17:00,ZJHK 301700Z 15001MPS CAVOK 23/22 Q1009 NOSIG
ZJHK,2016-04-30 18:00,ZJHK 301800Z 14001MPS CAVOK 22/21 Q1009 NOSIG
ZJHK,2016-04-30 19:00,ZJHK 301900Z 13002MPS 8000 NSC 22/21 Q1008 NOSIG
ZJHK,2016-04-30 20:00,ZJHK 302000Z 14001MPS 8000 NSC 22/21 Q1008 NOSIG
ZJHK,2016-04-30 21:00,ZJHK 302100Z 00000MPS 8000 NSC 21/20 Q1008 NOSIG
ZJHK,2016-04-30 22:00,ZJHK 302200Z 13001MPS 8000 NSC 21/20 Q1008 NOSIG
ZJHK,2016-04-30 23:00,ZJHK 302300Z 14002MPS 8000 NSC 22/21 Q1009 NOSIG
ZJHK,2016-05-01 00:00,ZJHK 010000Z 15003MPS 120V180 CAVOK 24/22 Q1010 NOSIG
ZJHK,2016-05-01 01:00,ZJHK 010100Z 17004MPS 130V210 CAVOK 27/23 Q1010 NOSIG
ZJHK,2016-05-01 02:00,ZJHK 010200Z 17005MPS 140V200 9999 FEW020 28/22 Q1010 NOSIG
ZJHK,2016-05-01 03:00,ZJHK 010300Z 16004MPS 120V200 9999 FEW020 30/22 Q1009 NOSIG
ZJHK,2016-05-01 04:00,ZJHK 010400Z 16005MPS 130V190 9999 FEW020 30/22 Q1009 NOSIG
ZJHK,2016-05-01 05:00,ZJHK 010500Z 17005MPS 130V200 9999 SCT020 32/22 Q1008 NOSIG
ZJHK,2016-05-01 06:00,ZJHK 010600Z 18005MPS 140V220 9999 SCT026 32/22 Q1007 NOSIG
ZJHK,2016-05-01 07:00,ZJHK 010700Z 16004MPS 120V190 9999 SCT026 32/22 Q1006 NOSIG
ZJHK,2016-05-01 08:00,ZJHK 010800Z 13004MPS 100V160 9999 SCT026 31/23 Q1005 NOSIG
ZJHK,2016-05-01 09:00,ZJHK 010900Z 13005MPS CAVOK 31/22 Q1005 NOSIG
ZJHK,2016-05-01 10:00,ZJHK 011000Z 13004MPS CAVOK 29/22 Q1006 NOSIG
ZJHK,2016-05-01 11:00,ZJHK 011100Z 13003MPS 100V160 CAVOK 27/22 Q1006 NOSIG
ZJHK,2016-05-01 12:00,ZJHK 011200Z 14003MPS 100V160 CAVOK 26/22 Q1007 NOSIG
ZJHK,2016-05-01 13:00,ZJHK 011300Z 16004MPS CAVOK 26/22 Q1008 NOSIG
ZJHK,2016-05-01 14:00,ZJHK 011400Z 16003MPS CAVOK 25/21 Q1009 NOSIG
ZJHK,2016-05-01 15:00,ZJHK 011500Z 16004MPS CAVOK 25/21 Q1009 NOSIG
ZJHK,2016-05-01 16:00,ZJHK 011600Z 17004MPS CAVOK 25/21 Q1008 NOSIG
ZJHK,2016-05-01 17:00,ZJHK 011700Z 17004MPS CAVOK 25/21 Q1008 NOSIG
ZJHK,2016-05-01 18:00,ZJHK 011800Z 16004MPS CAVOK 25/22 Q1008 NOSIG
ZJHK,2016-05-01 19:00,ZJHK 011900Z 16005MPS CAVOK 25/22 Q1007 NOSIG
ZJHK,2016-05-01 20:00,ZJHK 012000Z 16005MPS CAVOK 24/22 Q1007 NOSIG
ZJHK,2016-05-01 21:00,ZJHK 012100Z 16004MPS 130V190 CAVOK 24/22 Q1007 NOSIG
ZJHK,2016-05-01 22:00,ZJHK 012200Z 16004MPS CAVOK 24/22 Q1008 NOSIG
ZJHK,2016-05-01 23:00,ZJHK 012300Z 15004MPS 120V180 CAVOK 25/22 Q1009 NOSIG
ZJHK,2016-05-02 00:00,ZJHK 020000Z 16005MPS 130V190 CAVOK 27/22 Q1009 NOSIG
ZJHK,2016-05-02 01:00,ZJHK 020100Z 17006MPS 140V210 CAVOK 28/22 Q1010 NOSIG
ZJHK,2016-05-02 02:00,ZJHK 020200Z 18006MPS 150V210 CAVOK 30/22 Q1010 NOSIG
ZJHK,2016-05-02 03:00,ZJHK 020300Z 17005MPS 130V210 CAVOK 31/22 Q1009 NOSIG
ZJHK,2016-05-02 04:00,ZJHK 020400Z 16006MPS 130V200 CAVOK 32/22 Q1009 NOSIG
ZJHK,2016-05-02 05:00,ZJHK 020500Z 17005MPS 140V230 CAVOK 33/22 Q1008 NOSIG
ZJHK,2016-05-02 06:00,ZJHK 020600Z 16005MPS 130V200 CAVOK 34/22 Q1007 NOSIG
ZJHK,2016-05-02 07:00,ZJHK 020700Z 18004MPS 140V220 9999 SCT023 34/22 Q1006 NOSIG
ZJHK,2016-05-02 08:00,ZJHK 020800Z 17004MPS 140V200 9999 FEW023 33/22 Q1006 NOSIG
ZJHK,2016-05-02 09:00,ZJHK 020900Z 14004MPS 110V170 9999 FEW023CB 31/24 Q1006 NOSIG
ZJHK,2016-05-02 10:00,ZJHK 021000Z 14003MPS 110V170 9999 -TSRA FEW030CB SCT030 29/23 Q1007 BECMG TL1050 NSW
ZJHK,2016-05-02 11:00,ZJHK 021100Z 13003MPS 9999 FEW030CB 28/23 Q1008 RETS NOSIG
ZJHK,2016-05-02 12:00,ZJHK 021200Z 15004MPS CAVOK 27/23 Q1009 NOSIG
ZJHK,2016-05-02 13:00,ZJHK 021300Z 15002MPS CAVOK 26/23 Q1009 NOSIG
ZJHK,2016-05-02 14:00,ZJHK 021400Z 14002MPS 110V170 CAVOK 26/23 Q1010 NOSIG
ZJHK,2016-05-02 15:00,ZJHK 021500Z 16004MPS CAVOK 26/23 Q1010 NOSIG
ZJHK,2016-05-02 16:00,ZJHK 021600Z 16003MPS CAVOK 25/23 Q1010 NOSIG
ZJHK,2016-05-02 17:00,ZJHK 021700Z 15003MPS 120V180 CAVOK 25/23 Q1008 NOSIG
ZJHK,2016-05-02 18:00,ZJHK 021800Z 15004MPS 120V180 CAVOK 25/23 Q1008 NOSIG
ZJHK,2016-05-02 19:00,ZJHK 021900Z 18002MPS 150V210 CAVOK 25/23 Q1008 NOSIG
ZJHK,2016-05-02 20:00,ZJHK 022000Z 16002MPS CAVOK 24/23 Q1008 NOSIG
ZJHK,2016-05-02 21:00,ZJHK 022100Z 14002MPS CAVOK 24/23 Q1008 NOSIG
ZJHK,2016-05-02 22:00,ZJHK 022200Z 14002MPS CAVOK 24/23 Q1008 NOSIG
ZJHK,2016-05-02 23:00,ZJHK 022300Z 13002MPS 100V180 CAVOK 25/23 Q1009 NOSIG
ZJHK,2016-05-03 00:00,ZJHK 030000Z 18003MPS 140V210 CAVOK 26/23 Q1009 NOSIG
ZJHK,2016-05-03 01:00,ZJHK 030100Z 18004MPS CAVOK 28/23 Q1010 NOSIG
ZJHK,2016-05-03 02:00,ZJHK 030200Z 20003MPS 160V230 CAVOK 30/23 Q1010 NOSIG
ZJHK,2016-05-03 03:00,ZJHK 030300Z 21003MPS 150V240 CAVOK 32/23 Q1010 NOSIG
ZJHK,2016-05-03 04:00,ZJHK 030400Z 11001MPS CAVOK 33/23 Q1010 NOSIG
ZJHK,2016-05-03 05:00,ZJHK 030500Z 36002MPS 9999 FEW023 33/24 Q1009 NOSIG
ZJHK,2016-05-03 06:00,ZJHK 030600Z 02004MPS 350V050 9999 FEW023 33/23 Q1008 NOSIG
ZJHK,2016-05-03 07:00,ZJHK 030700Z 35005MPS 9999 FEW026CB FEW026 31/22 Q1007 BECMG TS
ZJHK,2016-05-03 08:00,ZJHK 030800Z 36004MPS 330V030 9999 -SHRA FEW026CB FEW026 26/22 Q1007 BECMG TS
ZJHK,2016-05-03 09:00,ZJHK 030900Z 05004MPS 8000 -TSRA FEW013 FEW030CB SCT040 27/22 Q1008 BECMG AT0930 16008G18MPS 2000 TSRA BKN012 BKN020 FEW026CB
ZJHK,2016-05-03 10:00,ZJHK 031000Z 18006MPS 4000 -TSRA SCT010 FEW033CB SCT033 21/20 Q1009 RESHRA BECMG AT1100 NSW
ZJHK,2016-05-03 11:00,ZJHK 031100Z 02003MPS 8000 -TSRA FEW010 FEW033CB SCT046 22/21 Q1009 BECMG AT1140 NSW
ZJHK,2016-05-03 12:00,ZJHK 031200Z 14001MPS CAVOK 21/20 Q1010 RETS NOSIG
ZJHK,2016-05-03 13:00,ZJHK 031300Z 17003MPS 140V200 CAVOK 21/20 Q1010 NOSIG
ZJHK,2016-05-03 14:00,ZJHK 031400Z 16003MPS CAVOK 22/21 Q1011 NOSIG
ZJHK,2016-05-03 15:00,ZJHK 031500Z 14002MPS CAVOK 22/20 Q1012 NOSIG
ZJHK,2016-05-03 16:00,ZJHK 031600Z 12002MPS CAVOK 22/21 Q1011 NOSIG
ZJHK,2016-05-03 17:00,ZJHK 031700Z 12002MPS CAVOK 22/21 Q1011 NOSIG
ZJHK,2016-05-03 18:00,ZJHK 031800Z 12002MPS CAVOK 22/21 Q1010 NOSIG
ZJHK,2016-05-03 19:00,ZJHK 031900Z 11002MPS 8000 NSC 22/22 Q1009 NOSIG
ZJHK,2016-05-03 20:00,ZJHK 032000Z 15001MPS 6000 NSC 23/22 Q1009 NOSIG
ZJHK,2016-05-03 21:00,ZJHK 032100Z 17002MPS 6000 FEW013 24/23 Q1009 NOSIG
ZJHK,2016-05-03 22:00,ZJHK 032200Z 16002MPS 130V190 7000 FEW013 24/23 Q1009 NOSIG
ZJHK,2016-05-03 23:00,ZJHK 032300Z 15002MPS 130V190 CAVOK 25/23 Q1010 NOSIG
ZJHK,2016-05-04 00:00,ZJHK 040000Z 16003MPS 130V190 9999 FEW016 26/24 Q1010 NOSIG
ZJHK,2016-05-04 01:00,ZJHK 040100Z 18004MPS 150V210 9999 FEW016 27/24 Q1011 NOSIG
ZJHK,2016-05-04 02:00,ZJHK 040200Z 20005MPS 160V230 9999 SCT020 28/23 Q1011 NOSIG
ZJHK,2016-05-04 03:00,ZJHK 040300Z 18004MPS 150V230 9999 SCT020 30/24 Q1011 NOSIG
ZJHK,2016-05-04 04:00,ZJHK 040400Z 21004MPS 9999 SCT020 31/23 Q1011 NOSIG
ZJHK,2016-05-04 05:00,ZJHK 040500Z 20004MPS 160V230 9999 SCT020 32/23 Q1010 NOSIG
ZJHK,2016-05-04 06:00,ZJHK 040600Z 20003MPS 160V260 9999 SCT020 33/23 Q1009 NOSIG
ZJHK,2016-05-04 07:00,ZJHK 040700Z 16003MPS 120V210 9999 SCT020 32/23 Q1008 NOSIG
ZJHK,2016-05-04 08:00,ZJHK 040800Z 19002MPS 130V250 9999 FEW026TCU SCT026 33/23 Q1007 NOSIG
ZJHK,2016-05-04 09:00,ZJHK 040900Z 15001MPS 9999 FEW026CB SCT026 30/24 Q1007 BECMG TS
ZJHK,2016-05-04 10:00,ZJHK 041000Z 14004MPS 9999 FEW026CB FEW026 SCT046 28/24 Q1007 BECMG TS
ZJHK,2016-05-04 11:00,ZJHK 041100Z 16003MPS 130V190 9999 FEW020 FEW026CB 27/24 Q1008 NOSIG
ZJHK,2016-05-04 12:00,ZJHK 041200Z 17002MPS 140V200 9999 FEW026CB 25/22 Q1008 NOSIG
ZJHK,2016-05-04 13:00,ZJHK 041300Z 16001MPS CAVOK 24/22 Q1009 NOSIG
ZJHK,2016-05-04 14:00,ZJHK 041400Z 00000MPS CAVOK 24/22 Q1010 NOSIG
ZJHK,2016-05-04 15:00,ZJHK 041500Z 00000MPS CAVOK 24/22 Q1011 NOSIG
ZJHK,2016-05-04 16:00,ZJHK 041600Z 14002MPS CAVOK 24/23 Q1010 NOSIG
ZJHK,2016-05-04 17:00,ZJHK 041700Z 17004MPS 120V200 CAVOK 25/23 Q1009 NOSIG
ZJHK,2016-05-04 18:00,ZJHK 041800Z 15004MPS 120V180 CAVOK 24/23 Q1009 NOSIG
ZJHK,2016-05-04 19:00,ZJHK 041900Z 16004MPS 130V200 CAVOK 24/23 Q1009 NOSIG
ZJHK,2016-05-04 20:00,ZJHK 042000Z 16005MPS CAVOK 25/23 Q1008 NOSIG
ZJHK,2016-05-04 21:00,ZJHK 042100Z 16004MPS CAVOK 25/23 Q1008 NOSIG
ZJHK,2016-05-04 22:00,ZJHK 042200Z 16004MPS 130V190 CAVOK 25/23 Q1009 NOSIG
ZJHK,2016-05-04 23:00,ZJHK 042300Z 16005MPS CAVOK 25/23 Q1009 NOSIG
ZJHK,2016-05-05 00:00,ZJHK 050000Z 17005MPS 130V190 CAVOK 27/23 Q1009 NOSIG
ZJHK,2016-05-05 01:00,ZJHK 050100Z 17006MPS 9999 FEW020 28/23 Q1010 NOSIG
ZJHK,2016-05-05 02:00,ZJHK 050200Z 17006MPS 140V200 9999 FEW020 30/23 Q1010 NOSIG
ZJHK,2016-05-05 03:00,ZJHK 050300Z 18006MPS 150V210 9999 FEW020 31/23 Q1010 NOSIG
ZJHK,2016-05-05 04:00,ZJHK 050400Z 17006MPS 9999 FEW020 32/23 Q1009 NOSIG
ZJHK,2016-05-05 05:00,ZJHK 050500Z 18005MPS 140V220 9999 FEW020 33/24 Q1008 NOSIG
ZJHK,2016-05-05 06:00,ZJHK 050600Z 18005MPS 150V210 9999 FEW026 33/23 Q1007 NOSIG
ZJHK,2016-05-05 07:00,ZJHK 050700Z 16005MPS 130V190 9999 FEW026 33/23 Q1006 NOSIG
ZJHK,2016-05-05 08:00,ZJHK 050800Z 16004MPS 130V200 9999 FEW026 33/23 Q1006 NOSIG
ZJHK,2016-05-05 09:00,ZJHK 050900Z 14005MPS 9999 FEW026CB FEW026 31/23 Q1005 NOSIG
ZJHK,2016-05-05 10:00,ZJHK 051000Z 14005MPS 110V180 9999 FEW026 30/23 Q1005 NOSIG
ZJHK,2016-05-05 11:00,ZJHK 051100Z 15003MPS CAVOK 29/23 Q1006 NOSIG
ZJHK,2016-05-05 12:00,ZJHK 051200Z 15003MPS 120V180 CAVOK 27/23 Q1007 NOSIG
ZJHK,2016-05-05 13:00,ZJHK 051300Z 15003MPS 130V190 CAVOK 27/23 Q1007 NOSIG
ZJHK,2016-05-05 14:00,ZJHK 051400Z 16004MPS CAVOK 26/22 Q1008 NOSIG
ZJHK,2016-05-05 15:00,ZJHK 051500Z 16003MPS 130V190 CAVOK 26/22 Q1008 NOSIG
ZJHK,2016-05-05 16:00,ZJHK 051600Z 16004MPS 130V190 CAVOK 26/22 Q1008 NOSIG
ZJHK,2016-05-05 17:00,ZJHK 051700Z 16004MPS 140V200 CAVOK 25/22 Q1008 NOSIG
ZJHK,2016-05-05 18:00,ZJHK 051800Z 16004MPS CAVOK 25/22 Q1007 NOSIG
ZJHK,2016-05-05 19:00,ZJHK 051900Z 16003MPS CAVOK 25/22 Q1007 NOSIG
ZJHK,2016-05-05 20:00,ZJHK 052000Z 16004MPS CAVOK 24/22 Q1007 NOSIG
ZJHK,2016-05-05 21:00,ZJHK 052100Z 16004MPS 130V190 CAVOK 24/22 Q1007 NOSIG
ZJHK,2016-05-05 22:00,ZJHK 052200Z 17004MPS 140V200 CAVOK 24/22 Q1007 NOSIG
ZJHK,2016-05-05 23:00,ZJHK 052300Z 17004MPS 140V210 CAVOK 25/22 Q1008 NOSIG
ZJHK,2016-05-06 00:00,ZJHK 060000Z 18004MPS CAVOK 26/22 Q1008 NOSIG
ZJHK,2016-05-06 01:00,ZJHK 060100Z 18005MPS 140V210 CAVOK 28/22 Q1008 NOSIG
ZJHK,2016-05-06 02:00,ZJHK 060200Z 19004MPS 160V230 CAVOK 30/22 Q1009 NOSIG
ZJHK,2016-05-06 03:00,ZJHK 060300Z 19004MPS 160V230 CAVOK 31/23 Q1009 NOSIG
ZJHK,2016-05-06 04:00,ZJHK 060400Z 17004MPS 130V200 CAVOK 33/23 Q1008 NOSIG
ZJHK,2016-05-06 05:00,ZJHK 060500Z 16005MPS 120V210 CAVOK 33/23 Q1008 NOSIG
ZJHK,2016-05-06 06:00,ZJHK 060600Z 19005MPS CAVOK 34/23 Q1007 NOSIG
ZJHK,2016-05-06 07:00,ZJHK 060700Z 17004MPS 130V210 9999 FEW023 34/23 Q1006 NOSIG
ZJHK,2016-05-06 08:00,ZJHK 060800Z 16004MPS 130V200 9999 FEW040CB 33/22 Q1005 NOSIG
ZJHK,2016-05-06 09:00,ZJHK 060900Z 16006MPS 130V190 9999 FEW030CB 30/23 Q1005 NOSIG
ZJHK,2016-05-06 10:00,ZJHK 061000Z 16005MPS 130V190 CAVOK 29/23 Q1005 NOSIG
ZJHK,2016-05-06 11:00,ZJHK 061100Z 14003MPS 110V170 CAVOK 28/23 Q1006 NOSIG
ZJHK,2016-05-06 12:00,ZJHK 061200Z 15004MPS CAVOK 27/23 Q1007 NOSIG
ZJHK,2016-05-06 13:00,ZJHK 061300Z 14004MPS 110V180 CAVOK 27/22 Q1007 NOSIG
ZJHK,2016-05-06 14:00,ZJHK 061400Z 15004MPS CAVOK 26/22 Q1008 NOSIG
ZJHK,2016-05-06 15:00,ZJHK 061500Z 16004MPS 130V190 CAVOK 26/22 Q1009 NOSIG
ZJHK,2016-05-06 16:00,ZJHK 061600Z 16004MPS 130V200 CAVOK 25/22 Q1008 NOSIG
ZJHK,2016-05-06 17:00,ZJHK 061700Z 16005MPS 130V190 CAVOK 25/22 Q1008 NOSIG
ZJHK,2016-05-06 18:00,ZJHK 061800Z 16005MPS 130V200 CAVOK 25/22 Q1007 NOSIG
ZJHK,2016-05-06 19:00,ZJHK 061900Z 17005MPS CAVOK 25/22 Q1007 NOSIG
ZJHK,2016-05-06 20:00,ZJHK 062000Z 16005MPS 130V190 CAVOK 25/22 Q1007 NOSIG
ZJHK,2016-05-06 21:00,ZJHK 062100Z 17004MPS CAVOK 24/22 Q1006 NOSIG
ZJHK,2016-05-06 22:00,ZJHK 062200Z 16005MPS CAVOK 24/22 Q1007 NOSIG
ZJHK,2016-05-06 23:00,ZJHK 062300Z 16004MPS CAVOK 25/22 Q1007 NOSIG
ZJHK,2016-05-07 00:00,ZJHK 070000Z 17005MPS 140V200 CAVOK 26/22 Q1008 NOSIG
ZJHK,2016-05-07 01:00,ZJHK 070100Z 17006MPS 140V200 CAVOK 28/22 Q1008 NOSIG
ZJHK,2016-05-07 02:00,ZJHK 070200Z 18004MPS 150V210 CAVOK 30/22 Q1009 NOSIG
ZJHK,2016-05-07 03:00,ZJHK 070300Z 17004MPS 140V210 CAVOK 31/21 Q1009 NOSIG
ZJHK,2016-05-07 04:00,ZJHK 070400Z 16005MPS 120V210 CAVOK 32/21 Q1008 NOSIG
ZJHK,2016-05-07 05:00,ZJHK 070500Z 17004MPS 130V200 CAVOK 33/21 Q1008 NOSIG
ZJHK,2016-05-07 06:00,ZJHK 070600Z 14005MPS 100V170 9999 FEW020 33/23 Q1007 NOSIG
ZJHK,2016-05-07 07:00,ZJHK 070700Z 16005MPS 120V190 9999 FEW020 32/23 Q1006 NOSIG
ZJHK,2016-05-07 08:00,ZJHK 070800Z 13006MPS 100V160 9999 FEW020 31/23 Q1006 NOSIG
ZJHK,2016-05-07 09:00,ZJHK 070900Z 14005MPS 100V180 CAVOK 30/23 Q1006 NOSIG
ZJHK,2016-05-07 10:00,ZJHK 071000Z 15006MPS CAVOK 29/22 Q1006 NOSIG
ZJHK,2016-05-07 11:00,ZJHK 071100Z 14005MPS 120V180 CAVOK 27/21 Q1007 NOSIG
ZJHK,2016-05-07 12:00,ZJHK 071200Z 14004MPS 110V180 CAVOK 26/21 Q1008 NOSIG
ZJHK,2016-05-07 13:00,ZJHK 071300Z 15004MPS 120V180 CAVOK 25/22 Q1009 NOSIG
ZJHK,2016-05-07 14:00,ZJHK 071400Z 14004MPS CAVOK 25/22 Q1009 NOSIG
ZJHK,2016-05-07 15:00,ZJHK 071500Z 15005MPS 120V180 CAVOK 25/22 Q1009 NOSIG
ZJHK,2016-05-07 16:00,ZJHK 071600Z 16005MPS 120V180 CAVOK 25/22 Q1009 NOSIG
ZJHK,2016-05-07 17:00,ZJHK 071700Z 16004MPS 140V200 CAVOK 24/22 Q1009 NOSIG
ZJHK,2016-05-07 18:00,ZJHK 071800Z 16004MPS 120V190 CAVOK 25/22 Q1009 NOSIG
ZJHK,2016-05-07 19:00,ZJHK 071900Z 16005MPS 130V190 CAVOK 24/22 Q1008 NOSIG
ZJHK,2016-05-07 20:00,ZJHK 072000Z 15004MPS 120V180 CAVOK 24/22 Q1008 NOSIG
ZJHK,2016-05-07 21:00,ZJHK 072100Z 15004MPS CAVOK 24/22 Q1009 NOSIG
ZJHK,2016-05-07 22:00,ZJHK 072200Z 16005MPS 140V200 CAVOK 24/22 Q1009 NOSIG
ZJHK,2016-05-07 23:00,ZJHK 072300Z 16004MPS CAVOK 25/22 Q1009 NOSIG
ZJHK,2016-05-08 00:00,ZJHK 080000Z 17006MPS CAVOK 27/22 Q1009 NOSIG
ZJHK,2016-05-08 01:00,ZJHK 080100Z 17006MPS CAVOK 28/22 Q1010 NOSIG
ZJHK,2016-05-08 02:00,ZJHK 080200Z 17007MPS 140V200 CAVOK 30/22 Q1010 NOSIG
ZJHK,2016-05-08 03:00,ZJHK 080300Z 18006MPS CAVOK 31/21 Q1010 NOSIG
ZJHK,2016-05-08 04:00,ZJHK 080400Z 16005MPS 130V190 CAVOK 32/21 Q1010 NOSIG
ZJHK,2016-05-08 05:00,ZJHK 080500Z 18005MPS 150V220 CAVOK 33/20 Q1009 NOSIG
ZJHK,2016-05-08 06:00,ZJHK 080600Z 17005MPS 130V220 CAVOK 33/21 Q1008 NOSIG
ZJHK,2016-05-08 07:00,ZJHK 080700Z 18004MPS 140V220 CAVOK 34/19 Q1007 NOSIG
ZJHK,2016-05-08 08:00,ZJHK 080800Z 14005MPS 110V170 CAVOK 33/22 Q1007 NOSIG
ZJHK,2016-05-08 09:00,ZJHK 080900Z 15006MPS 110V180 CAVOK 31/22 Q1006 NOSIG
ZJHK,2016-05-08 10:00,ZJHK 081000Z 15005MPS 110V180 CAVOK 29/22 Q1006 NOSIG
ZJHK,2016-05-08 11:00,ZJHK 081100Z 15005MPS 120V180 CAVOK 28/22 Q1007 NOSIG
ZJHK,2016-05-08 12:00,ZJHK 081200Z 14004MPS 100V170 CAVOK 26/22 Q1008 NOSIG
ZJHK,2016-05-08 13:00,ZJHK 081300Z 16004MPS CAVOK 26/22 Q1009 NOSIG
ZJHK,2016-05-08 14:00,ZJHK 081400Z 15004MPS 120V180 CAVOK 26/22 Q1009 NOSIG
ZJHK,2016-05-08 15:00,ZJHK 081500Z 16004MPS CAVOK 25/22 Q1010 NOSIG
ZJHK,2016-05-08 16:00,ZJHK 081600Z 16005MPS 130V190 CAVOK 25/22 Q1010 NOSIG
ZJHK,2016-05-08 17:00,ZJHK 081700Z 16006MPS CAVOK 25/22 Q1009 NOSIG
ZJHK,2016-05-08 18:00,ZJHK 081800Z 16005MPS 140V200 CAVOK 25/22 Q1009 NOSIG
ZJHK,2016-05-08 19:00,ZJHK 081900Z 16005MPS CAVOK 25/22 Q1008 NOSIG
ZJHK,2016-05-08 20:00,ZJHK 082000Z 16005MPS CAVOK 25/22 Q1008 NOSIG
ZJHK,2016-05-08 21:00,ZJHK 082100Z 15004MPS CAVOK 24/22 Q1008 NOSIG
ZJHK,2016-05-08 22:00,ZJHK 082200Z 15004MPS 120V180 CAVOK 24/22 Q1009 NOSIG
ZJHK,2016-05-08 23:00,ZJHK 082300Z 16005MPS CAVOK 25/22 Q1009 NOSIG
ZJHK,2016-05-09 00:00,ZJHK 090000Z 16005MPS CAVOK 26/22 Q1010 NOSIG
ZJHK,2016-05-09 01:00,ZJHK 090100Z 17006MPS 140V200 CAVOK 28/22 Q1010 NOSIG
ZJHK,2016-05-09 02:00,ZJHK 090200Z 17005MPS 130V210 CAVOK 29/21 Q1010 NOSIG
ZJHK,2016-05-09 03:00,ZJHK 090300Z 19006MPS CAVOK 30/21 Q1009 NOSIG
ZJHK,2016-05-09 04:00,ZJHK 090400Z 18004MPS 140V230 CAVOK 32/21 Q1009 NOSIG
ZJHK,2016-05-09 05:00,ZJHK 090500Z 18005MPS 140V210 CAVOK 32/21 Q1008 NOSIG
ZJHK,2016-05-09 06:00,ZJHK 090600Z 17004MPS 150V210 CAVOK 33/21 Q1007 NOSIG
ZJHK,2016-05-09 07:00,ZJHK 090700Z 18004MPS 130V210 CAVOK 33/21 Q1006 NOSIG
ZJHK,2016-05-09 08:00,ZJHK 090800Z 15004MPS 110V190 9999 FEW020 32/22 Q1005 NOSIG
ZJHK,2016-05-09 09:00,ZJHK 090900Z 14005MPS 100V170 9999 FEW020 31/22 Q1004 NOSIG
ZJHK,2016-05-09 10:00,ZJHK 091000Z 14004MPS 110V170 CAVOK 29/22 Q1005 NOSIG
ZJHK,2016-05-09 11:00,ZJHK 091100Z 14004MPS CAVOK 27/22 Q1005 NOSIG
ZJHK,2016-05-09 12:00,ZJHK 091200Z 15003MPS 120V180 CAVOK 26/22 Q1006 NOSIG
ZJHK,2016-05-09 13:00,ZJHK 091300Z 15003MPS 110V190 CAVOK 26/21 Q1006 NOSIG
ZJHK,2016-05-09 14:00,ZJHK 091400Z 16003MPS CAVOK 25/20 Q1007 NOSIG
ZJHK,2016-05-09 15:00,ZJHK 091500Z 17003MPS 130V210 CAVOK 25/20 Q1008 NOSIG
ZJHK,2016-05-09 16:00,ZJHK 091600Z 17002MPS CAVOK 24/20 Q1008 NOSIG
ZJHK,2016-05-09 17:00,ZJHK 091700Z 16004MPS CAVOK 24/21 Q1007 NOSIG
ZJHK,2016-05-09 18:00,ZJHK 091800Z 17004MPS CAVOK 24/21 Q1006 NOSIG
ZJHK,2016-05-09 19:00,ZJHK 091900Z 18003MPS CAVOK 24/21 Q1006 NOSIG
ZJHK,2016-05-09 20:00,ZJHK 092000Z 16003MPS CAVOK 23/21 Q1006 NOSIG
ZJHK,2016-05-09 21:00,ZJHK 092100Z 15002MPS 120V200 CAVOK 23/20 Q1006 NOSIG
ZJHK,2016-05-09 22:00,ZJHK 092200Z 22001MPS CAVOK 23/20 Q1007 NOSIG
ZJHK,2016-05-09 23:00,ZJHK 092300Z 26002MPS CAVOK 23/21 Q1008 NOSIG
ZJHK,2016-05-10 00:00,ZJHK 100000Z 24003MPS CAVOK 24/20 Q1009 NOSIG
ZJHK,2016-05-10 01:00,ZJHK 100100Z 26005MPS 230V290 CAVOK 26/20 Q1009 NOSIG
ZJHK,2016-05-10 02:00,ZJHK 100200Z 26005MPS 220V290 CAVOK 26/20 Q1010 NOSIG
ZJHK,2016-05-10 03:00,ZJHK 100300Z 28007MPS 9999 FEW023 25/19 Q1010 NOSIG
ZJHK,2016-05-10 04:00,ZJHK 100400Z 28006MPS 9999 SCT015 BKN026 23/19 Q1010 NOSIG
ZJHK,2016-05-10 05:00,ZJHK 100500Z 27006MPS 240V300 9999 FEW016 SCT023 24/18 Q1009 NOSIG
ZJHK,2016-05-10 06:00,ZJHK 100600Z 26005MPS CAVOK 24/17 Q1008 NOSIG
ZJHK,2016-05-10 07:00,ZJHK 100700Z 27004MPS 220V290 CAVOK 26/17 Q1008 NOSIG
ZJHK,2016-05-10 08:00,ZJHK 100800Z 28004MPS CAVOK 26/17 Q1007 NOSIG
ZJHK,2016-05-10 09:00,ZJHK 100900Z 31003MPS 260V340 CAVOK 25/17 Q1007 NOSIG
ZJHK,2016-05-10 10:00,ZJHK 101000Z 23002MPS CAVOK 24/18 Q1007 NOSIG
ZJHK,2016-05-10 11:00,ZJHK 101100Z 25002MPS 200V270 9999 FEW046 23/18 Q1008 NOSIG
ZJHK,2016-05-10 12:00,ZJHK 101200Z 25002MPS CAVOK 22/18 Q1008 NOSIG
ZJHK,2016-05-10 13:00,ZJHK 101300Z 25002MPS CAVOK 22/19 Q1009 NOSIG
ZJHK,2016-05-10 14:00,ZJHK 101400Z 28003MPS CAVOK 22/18 Q1009 NOSIG
ZJHK,2016-05-10 15:00,ZJHK 101500Z 27002MPS CAVOK 19/15 Q1010 NOSIG
ZJHK,2016-05-10 16:00,ZJHK 101600Z 25002MPS CAVOK 19/14 Q1009 NOSIG
ZJHK,2016-05-10 17:00,ZJHK 101700Z 27002MPS CAVOK 25/21 Q1009 NOSIG
ZJHK,2016-05-10 18:00,ZJHK 101800Z 26001MPS CAVOK 25/22 Q1008 NOSIG
ZJHK,2016-05-10 19:00,ZJHK 101900Z 23001MPS CAVOK 25/22 Q1007 NOSIG
ZJHK,2016-05-10 20:00,ZJHK 102000Z 27001MPS CAVOK 24/21 Q1007 NOSIG
ZJHK,2016-05-10 21:00,ZJHK 102100Z 00000MPS CAVOK 24/21 Q1008 NOSIG
ZJHK,2016-05-10 22:00,ZJHK 102200Z 00000MPS CAVOK 23/22 Q1008 NOSIG
ZJHK,2016-05-10 23:00,ZJHK 102300Z 24001MPS CAVOK 25/23 Q1008 NOSIG
ZJHK,2016-05-11 00:00,ZJHK 110000Z 34002MPS CAVOK 28/23 Q1009 NOSIG
ZJHK,2016-05-11 01:00,ZJHK 110100Z 36003MPS 9999 SCT016 BKN046 28/24 Q1009 NOSIG
ZJHK,2016-05-11 02:00,ZJHK 110200Z 01003MPS 340V040 9999 SCT017 SCT046 30/25 Q1009 NOSIG
ZJHK,2016-05-11 03:00,ZJHK 110300Z 35002MPS 310V040 9999 SCT017 BKN046 30/25 Q1009 NOSIG
ZJHK,2016-05-11 04:00,ZJHK 110400Z 01003MPS 330V080 9999 FEW020 BKN046 31/24 Q1009 NOSIG
ZJHK,2016-05-11 05:00,ZJHK 110500Z 35002MPS 9999 FEW020 BKN046 32/25 Q1008 NOSIG
ZJHK,2016-05-11 06:00,ZJHK 110600Z 03004MPS 350V060 9999 SCT020 SCT030 31/25 Q1007 NOSIG
ZJHK,2016-05-11 07:00,ZJHK 110700Z 07005MPS 9999 FEW020 SCT030 30/25 Q1007 NOSIG
ZJHK,2016-05-11 08:00,ZJHK 110800Z 07004MPS 040V100 9999 FEW020 SCT040 30/25 Q1006 NOSIG
ZJHK,2016-05-11 09:00,ZJHK 110900Z 07006MPS 9999 FEW020 28/22 Q1006 NOSIG
ZJHK,2016-05-11 10:00,ZJHK 111000Z 10004MPS 070V130 9999 FEW020 27/22 Q1006 NOSIG
ZJHK,2016-05-11 11:00,ZJHK 111100Z 09003MPS 9999 BKN017 BKN040 26/22 Q1007 NOSIG
ZJHK,2016-05-11 12:00,ZJHK 111200Z 09003MPS 9999 SCT017 25/22 Q1007 NOSIG
ZJHK,2016-05-11 13:00,ZJHK 111300Z 10003MPS 8000 SCT033 25/22 Q1008 NOSIG
ZJHK,2016-05-11 14:00,ZJHK 111400Z 09002MPS 8000 SCT033 25/22 Q1008 NOSIG
ZJHK,2016-05-11 15:00,ZJHK 111500Z 11002MPS 7000 SCT033 25/22 Q1009 NOSIG
ZJHK,2016-05-11 16:00,ZJHK 111600Z 11002MPS 5000 BR SCT020 24/23 Q1008 NOSIG
ZJHK,2016-05-11 17:00,ZJHK 111700Z 12002MPS 4000 BR NSC 24/23 Q1007 NOSIG
ZJHK,2016-05-11 18:00,ZJHK 111800Z 11002MPS 080V140 3500 BR NSC 24/23 Q1007 NOSIG
ZJHK,2016-05-11 19:00,ZJHK 111900Z 12002MPS 3500 BR BKN005 24/23 Q1006 NOSIG
ZJHK,2016-05-11 20:00,ZJHK 112000Z 09002MPS 3500 BR SCT013 BKN030 24/23 Q1006 NOSIG
ZJHK,2016-05-11 21:00,ZJHK 112100Z 10002MPS 3500 BR NSC 24/24 Q1006 NOSIG
ZJHK,2016-05-11 22:00,ZJHK 112200Z 09003MPS 3500 BR SCT006 25/24 Q1007 NOSIG
ZJHK,2016-05-11 23:00,ZJHK 112300Z 09003MPS 2100 BR BKN007 BKN020 25/24 Q1007 NOSIG
ZJHK,2016-05-12 00:00,ZJHK 120000Z 10002MPS 070V130 3000 BR BKN007 BKN020 26/24 Q1008 NOSIG
ZJHK,2016-05-12 01:00,ZJHK 120100Z 10002MPS 8000 BKN009 OVC026 27/25 Q1008 BECMG TL0150 BKN012
ZJHK,2016-05-12 02:00,ZJHK 120200Z 10002MPS 060V120 8000 BKN012 OVC026 28/25 Q1008 BECMG TL0350 BKN015
ZJHK,2016-05-12 03:00,ZJHK 120300Z 15002MPS 9999 BKN016 FEW023CB BKN030 28/24 Q1008 BECMG AT0320 TS
ZJHK,2016-05-12 04:00,ZJHK 120400Z 19003MPS 9999 SCT016 FEW023CB BKN040 28/24 Q1008 RETS NOSIG
ZJHK,2016-05-12 05:00,ZJHK 120500Z 22001MPS 9999 -TSRA SCT016 FEW023CB BKN040 26/24 Q1007 BECMG TL0520 NSW
ZJHK,2016-05-12 06:00,ZJHK 120600Z 25002MPS 9999 FEW016 FEW023CB BKN040 27/24 Q1006 RETS NOSIG
ZJHK,2016-05-12 07:00,ZJHK 120700Z 15002MPS 9999 FEW016 FEW023CB BKN040 27/25 Q1006 NOSIG
ZJHK,2016-05-12 08:00,ZJHK 120800Z 12003MPS 100V160 9999 FEW023CB SCT040 27/24 Q1005 NOSIG
ZJHK,2016-05-12 09:00,ZJHK 120900Z 10003MPS 9999 SCT040 27/24 Q1005 NOSIG
ZJHK,2016-05-12 10:00,ZJHK 121000Z 12003MPS 9999 SCT040 27/24 Q1006 NOSIG
ZJHK,2016-05-12 11:00,ZJHK 121100Z 09004MPS 9999 BKN016 BKN040 27/25 Q1006 NOSIG
ZJHK,2016-05-12 12:00,ZJHK 121200Z 11004MPS 090V160 9999 SCT026 BKN046 25/23 Q1007 NOSIG
ZJHK,2016-05-12 13:00,ZJHK 121300Z 13003MPS 9999 BKN046 25/23 Q1007 NOSIG
ZJHK,2016-05-12 14:00,ZJHK 121400Z 13003MPS 100V170 9999 SCT046 25/23 Q1008 NOSIG
ZJHK,2016-05-12 15:00,ZJHK 121500Z 15005MPS 120V180 9999 FEW026CB BKN046 25/23 Q1008 NOSIG
ZJHK,2016-05-12 16:00,ZJHK 121600Z 35005G11MPS 330V030 9999 -TSRA BKN010 FEW023CB BKN040 25/23 Q1009 BECMG AT1620 34013G20MPS 1600 +SHRA
ZJHK,2016-05-12 17:00,ZJHK 121700Z 10011MPS 1000 R09/0900 +TSRA BKN004 SCT023CB BKN040 21/21 Q1009 BECMG AT1720 3000 -TSRA
ZJHK,2016-05-12 18:00,ZJHK 121800Z 13004MPS 080V170 9999 -TSRA SCT010 FEW023CB BKN046 21/20 Q1009 RESHRA NOSIG
ZJHK,2016-05-12 19:00,ZJHK 121900Z 15003MPS 9999 TS FEW026CB 20/20 Q1007 NOSIG
ZJHK,2016-05-12 20:00,ZJHK 122000Z 18003MPS 9999 -TSRA FEW026CB 21/20 Q1009 NOSIG
ZJHK,2016-05-12 21:00,ZJHK 122100Z 19003MPS 150V230 9999 -TSRA SCT026CB BKN046 21/20 Q1009 NOSIG
ZJHK,2016-05-12 22:00,ZJHK 122200Z 22002MPS 9999 -TSRA FEW026CB BKN046 21/20 Q1010 NOSIG
ZJHK,2016-05-12 23:00,ZJHK 122300Z 21004MPS 9999 -TSRA FEW026CB BKN046 21/20 Q1009 NOSIG
ZJHK,2016-05-13 00:00,ZJHK 130000Z 21005MPS 9999 -TSRA FEW026CB BKN046 21/21 Q1011 NOSIG
ZJHK,2016-05-13 01:00,ZJHK 130100Z 20003MPS 170V260 9999 -SHRA FEW026CB OVC046 22/21 Q1011 RETS NOSIG
ZJHK,2016-05-13 02:00,ZJHK 130200Z 36003MPS 9999 -SHRA FEW026TCU BKN046 22/21 Q1012 NOSIG
ZJHK,2016-05-13 03:00,ZJHK 130300Z 34002MPS 310V050 9999 -SHRA FEW026TCU FEW046 22/21 Q1012 NOSIG
ZJHK,2016-05-13 04:00,ZJHK 130400Z 16001MPS 9999 -SHRA FEW020TCU SCT020 23/22 Q1013 NOSIG
ZJHK,2016-05-13 05:00,ZJHK 130500Z 36002MPS 9999 FEW020 24/21 Q1013 NOSIG
ZJHK,2016-05-13 06:00,ZJHK 130600Z 14003MPS 120V180 9999 FEW020 25/22 Q1011 NOSIG
ZJHK,2016-05-13 07:00,ZJHK 130700Z 20001MPS CAVOK 25/22 Q1010 NOSIG
ZJHK,2016-05-13 08:00,ZJHK 130800Z 01002MPS 350V060 CAVOK 25/21 Q1010 NOSIG
ZJHK,2016-05-13 09:00,ZJHK 130900Z 36003MPS 330V030 CAVOK 25/22 Q1011 NOSIG
ZJHK,2016-05-13 10:00,ZJHK 131000Z 02003MPS 350V060 CAVOK 24/21 Q1011 NOSIG
ZJHK,2016-05-13 11:00,ZJHK 131100Z 03002MPS CAVOK 24/21 Q1011 NOSIG
ZJHK,2016-05-13 12:00,ZJHK 131200Z 07002MPS CAVOK 23/22 Q1012 NOSIG
ZJHK,2016-05-13 13:00,ZJHK 131300Z 00000MPS CAVOK 23/21 Q1012 NOSIG
ZJHK,2016-05-13 14:00,ZJHK 131400Z 08002MPS 8000 NSC 22/21 Q1012 NOSIG
ZJHK,2016-05-13 15:00,ZJHK 131500Z 11001MPS 7000 NSC 22/21 Q1012 NOSIG
ZJHK,2016-05-13 16:00,ZJHK 131600Z 00000MPS 6000 NSC 22/21 Q1013 NOSIG
ZJHK,2016-05-13 17:00,ZJHK 131700Z 13001MPS 5000 BR NSC 22/21 Q1012 NOSIG
ZJHK,2016-05-13 18:00,ZJHK 131800Z 09001MPS 4000 BR BCFG NSC 21/21 Q1011 NOSIG
ZJHK,2016-05-13 19:00,ZJHK 131900Z 28001MPS 4000 BR BCFG NSC 21/21 Q1012 NOSIG
ZJHK,2016-05-13 20:00,ZJHK 132000Z 14001MPS 4000 BR BCFG SCT004 BKN033 21/21 Q1011 NOSIG
ZJHK,2016-05-13 21:00,ZJHK 132100Z 00000MPS 1600 R09/0900 BR BCFG BKN004 21/21 Q1012 NOSIG
ZJHK,2016-05-13 22:00,ZJHK 132200Z 13001MPS 1600 BR NSC 22/21 Q1012 BECMG TL2320 3000 BR
ZJHK,2016-05-13 23:00,ZJHK 132300Z 00000MPS 0800 R09/0500N FG VV004 22/22 Q1013 BECMG TL2350 1500 BR BKN006
ZJHK,2016-05-14 00:00,ZJHK 140000Z 27001MPS 0300 R09/0500N FG VV003 23/23 Q1014 BECMG TL0100 1000 BR BKN006
ZJHK,2016-05-14 01:00,ZJHK 140100Z 14001MPS 0900 R09/0900U FG VV004 24/23 Q1014 BECMG TL0150 1500 BR BKN007
ZJHK,2016-05-14 02:00,ZJHK 140200Z 11003MPS 070V150 9999 BKN015 BKN026 26/25 Q1014 NOSIG
ZJHK,2016-05-14 03:00,ZJHK 140300Z 12003MPS 090V180 9999 BKN023 29/24 Q1014 NOSIG
ZJHK,2016-05-14 04:00,ZJHK 140400Z 12004MPS 9999 BKN023 30/22 Q1013 NOSIG
ZJHK,2016-05-14 05:00,ZJHK 140500Z 11003MPS 070V150 9999 BKN023 31/22 Q1013 NOSIG
ZJHK,2016-05-14 06:00,ZJHK 140600Z 10002MPS 040V160 9999 BKN023 31/22 Q1012 NOSIG
ZJHK,2016-05-14 07:00,ZJHK 140700Z 14003MPS 110V180 9999 BKN025 31/23 Q1011 NOSIG
ZJHK,2016-05-14 08:00,ZJHK 140800Z 11003MPS 060V170 9999 SCT026 32/23 Q1011 NOSIG
ZJHK,2016-05-14 09:00,ZJHK 140900Z 12003MPS 080V150 9999 SCT026 SCT040 30/23 Q1011 NOSIG
ZJHK,2016-05-14 10:00,ZJHK 141000Z 11003MPS 9999 FEW026 29/23 Q1011 NOSIG
ZJHK,2016-05-14 11:00,ZJHK 141100Z 10004MPS 9999 FEW026 SCT040 27/23 Q1011 NOSIG
ZJHK,2016-05-14 12:00,ZJHK 141200Z 09004MPS 9999 FEW026 SCT046 26/23 Q1012 NOSIG
ZJHK,2016-05-14 13:00,ZJHK 141300Z 10003MPS 9999 FEW026 SCT046 25/23 Q1012 NOSIG
ZJHK,2016-05-14 14:00,ZJHK 141400Z 12002MPS 9999 SCT010 25/24 Q1013 BECMG BKN007
ZJHK,2016-05-14 15:00,ZJHK 141500Z 11001MPS 8000 SCT010 25/24 Q1013 NOSIG
ZJHK,2016-05-14 16:00,ZJHK 141600Z 12001MPS 8000 BKN007 24/24 Q1013 NOSIG
ZJHK,2016-05-14 17:00,ZJHK 141700Z 11001MPS 8000 BKN007 24/24 Q1012 NOSIG
ZJHK,2016-05-14 18:00,ZJHK 141800Z 12001MPS 8000 SCT010 24/23 Q1012 NOSIG
ZJHK,2016-05-14 19:00,ZJHK 141900Z 12001MPS 8000 BCFG SCT010 24/23 Q1011 NOSIG
ZJHK,2016-05-14 20:00,ZJHK 142000Z 00000MPS 4000 R09/0750V1400D BR BCFG SCT007 24/23 Q1011 NOSIG
ZJHK,2016-05-14 21:00,ZJHK 142100Z 11002MPS 5000 BR BCFG SCT007 24/24 Q1011 NOSIG
ZJHK,2016-05-14 22:00,ZJHK 142200Z 10001MPS 4000 R09/0750V1400N BR BCFG SCT006 24/23 Q1012 NOSIG
ZJHK,2016-05-14 23:00,ZJHK 142300Z 13001MPS 5000 BR FEW006 24/24 Q1012 NOSIG
ZJHK,2016-05-15 00:00,ZJHK 150000Z 14002MPS 8000 BKN007 25/24 Q1013 BECMG TL0130 BKN015
ZJHK,2016-05-15 01:00,ZJHK 150100Z 12002MPS 9999 SCT013 SCT020 27/24 Q1013 NOSIG
ZJHK,2016-05-15 02:00,ZJHK 150200Z 21002MPS 140V260 9999 BKN020 29/23 Q1013 NOSIG
ZJHK,2016-05-15 03:00,ZJHK 150300Z 22001MPS 9999 BKN020 29/23 Q1013 NOSIG
ZJHK,2016-05-15 04:00,ZJHK 150400Z 01003MPS 320V050 9999 SCT020 FEW026TCU SCT046 29/24 Q1013 NOSIG
ZJHK,2016-05-15 05:00,ZJHK 150500Z 01003MPS 9999 SCT020 FEW026CB SCT046 29/24 Q1012 NOSIG
ZJHK,2016-05-15 06:00,ZJHK 150600Z 36004MPS 330V030 9999 SCT020 FEW026CB SCT046 29/24 Q1011 BECMG TSRA
ZJHK,2016-05-15 07:00,ZJHK 150700Z 36002MPS 300V070 9999 SCT020 FEW025CB SCT040 30/24 Q1010 NOSIG
ZJHK,2016-05-15 08:00,ZJHK 150800Z 08003MPS 030V110 9999 SCT020 FEW025CB SCT040 29/24 Q1010 NOSIG
ZJHK,2016-05-15 09:00,ZJHK 150900Z 04003MPS 010V090 9999 TS FEW023CB BKN023 28/24 Q1009 BECMG TL1010 NSW
ZJHK,2016-05-15 10:00,ZJHK 151000Z 16005MPS 080V210 3000 R27/1000D +TSRA SCT015 FEW023CB BKN023 25/24 Q1010 BECMG TL1040 NSW
ZJHK,2016-05-15 11:00,ZJHK 151100Z 10002MPS 9999 TS BKN019 FEW023CB BKN030 25/23 Q1011 RESHRA BECMG TL1130 NSW
ZJHK,2016-05-15 12:00,ZJHK 151200Z 00000MPS 9999 BKN019 BKN030 25/23 Q1011 RETS NOSIG
ZJHK,2016-05-15 13:00,ZJHK 151300Z 14001MPS 9999 SCT020 SCT040 25/24 Q1012 NOSIG
ZJHK,2016-05-15 14:00,ZJHK 151400Z 01003MPS 340V060 9999 BKN020 SCT033 24/23 Q1012 NOSIG
ZJHK,2016-05-15 15:00,ZJHK 151500Z 35004MPS 9999 BKN010 BKN030 24/23 Q1013 NOSIG
ZJHK,2016-05-15 16:00,ZJHK 151600Z 35004MPS 9999 SCT012 BKN017 BKN040 23/21 Q1013 NOSIG
ZJHK,2016-05-15 17:00,ZJHK 151700Z 33004MPS 310V010 9999 BKN015 BKN040 23/20 Q1013 NOSIG
ZJHK,2016-05-15 18:00,ZJHK 151800Z 33005MPS 9999 OVC015 22/19 Q1013 NOSIG
ZJHK,2016-05-15 19:00,ZJHK 151900Z 34003MPS 9999 FEW015 21/19 Q1012 NOSIG
ZJHK,2016-05-15 20:00,ZJHK 152000Z 33003MPS 9999 FEW015 SCT046 21/18 Q1012 NOSIG
ZJHK,2016-05-15 21:00,ZJHK 152100Z 32004MPS 9999 BKN018 21/18 Q1012 NOSIG
ZJHK,2016-05-15 22:00,ZJHK 152200Z 32004MPS 9999 OVC018 21/17 Q1012 NOSIG
ZJHK,2016-05-15 23:00,ZJHK 152300Z 32005MPS 9999 OVC018 21/17 Q1013 NOSIG
ZJHK,2016-05-16 00:00,ZJHK 160000Z 32004MPS 280V020 9999 OVC017 21/17 Q1014 NOSIG
ZJHK,2016-05-16 01:00,ZJHK 160100Z 36004MPS 320V020 9999 OVC023 21/17 Q1014 NOSIG
ZJHK,2016-05-16 02:00,ZJHK 160200Z 34002MPS 300V030 9999 OVC023 22/18 Q1014 NOSIG
ZJHK,2016-05-16 03:00,ZJHK 160300Z 03003MPS 350V060 9999 OVC023 23/18 Q1014 NOSIG
ZJHK,2016-05-16 04:00,ZJHK 160400Z 35003MPS 310V040 9999 OVC023 23/19 Q1013 NOSIG
ZJHK,2016-05-16 05:00,ZJHK 160500Z 01004MPS 340V050 9999 OVC023 23/19 Q1013 NOSIG
ZJHK,2016-05-16 06:00,ZJHK 160600Z 04004MPS 010V070 9999 OVC023 24/19 Q1012 NOSIG
ZJHK,2016-05-16 07:00,ZJHK 160700Z 04004MPS 360V070 9999 OVC023 24/19 Q1011 NOSIG
ZJHK,2016-05-16 08:00,ZJHK 160800Z 02003MPS 340V060 9999 OVC023 24/19 Q1011 NOSIG
ZJHK,2016-05-16 09:00,ZJHK 160900Z 02003MPS 360V060 9999 SCT018 SCT033 24/19 Q1010 NOSIG
ZJHK,2016-05-16 10:00,ZJHK 161000Z 01003MPS 350V050 9999 FEW018 SCT033 23/19 Q1010 NOSIG
ZJHK,2016-05-16 11:00,ZJHK 161100Z 03002MPS 360V060 9999 FEW033 22/19 Q1011 NOSIG
ZJHK,2016-05-16 12:00,ZJHK 161200Z 03002MPS 9999 FEW033 23/19 Q1011 NOSIG
ZJHK,2016-05-16 13:00,ZJHK 161300Z 04002MPS 010V070 9999 BKN033 23/19 Q1012 NOSIG
ZJHK,2016-05-16 14:00,ZJHK 161400Z 08001MPS 9999 FEW033 22/19 Q1012 NOSIG
ZJHK,2016-05-16 15:00,ZJHK 161500Z 00000MPS CAVOK 21/19 Q1013 NOSIG
ZJHK,2016-05-16 16:00,ZJHK 161600Z 00000MPS CAVOK 21/20 Q1012 NOSIG
ZJHK,2016-05-16 17:00,ZJHK 161700Z 00000MPS CAVOK 20/19 Q1012 NOSIG
ZJHK,2016-05-16 18:00,ZJHK 161800Z 00000MPS CAVOK 20/19 Q1011 NOSIG
ZJHK,2016-05-16 19:00,ZJHK 161900Z 00000MPS CAVOK 20/19 Q1011 NOSIG
ZJHK,2016-05-16 20:00,ZJHK 162000Z 00000MPS CAVOK 20/19 Q1011 NOSIG
ZJHK,2016-05-16 21:00,ZJHK 162100Z 21001MPS 6000 BCFG NSC 20/19 Q1011 NOSIG
ZJHK,2016-05-16 22:00,ZJHK 162200Z 00000MPS 5000 BR BCFG NSC 20/19 Q1011 NOSIG
ZJHK,2016-05-16 23:00,ZJHK 162300Z 30001MPS 7000 BCFG NSC 21/20 Q1012 NOSIG
ZJHK,2016-05-17 00:00,ZJHK 170000Z 00000MPS 8000 NSC 22/20 Q1012 NOSIG
ZJHK,2016-05-17 01:00,ZJHK 170100Z 01001MPS CAVOK 24/20 Q1013 NOSIG
ZJHK,2016-05-17 02:00,ZJHK 170200Z 06002MPS 010V100 9999 SCT026 25/20 Q1013 NOSIG
ZJHK,2016-05-17 03:00,ZJHK 170300Z 11003MPS 030V150 9999 SCT026 27/20 Q1013 NOSIG
ZJHK,2016-05-17 04:00,ZJHK 170400Z 36002MPS 9999 SCT026 27/20 Q1012 NOSIG
ZJHK,2016-05-17 05:00,ZJHK 170500Z 03004MPS 350V060 9999 SCT026 BKN046 27/21 Q1011 NOSIG
ZJHK,2016-05-17 06:00,ZJHK 170600Z 03005MPS 9999 FEW033 28/21 Q1011 NOSIG
ZJHK,2016-05-17 07:00,ZJHK 170700Z 04004MPS 360V080 9999 FEW033 28/21 Q1010 NOSIG
ZJHK,2016-05-17 08:00,ZJHK 170800Z 07004MPS 040V110 9999 SCT033 28/20 Q1009 NOSIG
ZJHK,2016-05-17 09:00,ZJHK 170900Z 07005MPS 030V090 9999 SCT033 27/20 Q1009 NOSIG
ZJHK,2016-05-17 10:00,ZJHK 171000Z 06005MPS 9999 FEW033 26/20 Q1009 NOSIG
ZJHK,2016-05-17 11:00,ZJHK 171100Z 09003MPS CAVOK 25/20 Q1009 NOSIG
ZJHK,2016-05-17 12:00,ZJHK 171200Z 09002MPS CAVOK 24/20 Q1010 NOSIG
ZJHK,2016-05-17 13:00,ZJHK 171300Z 12002MPS CAVOK 23/20 Q1011 NOSIG
ZJHK,2016-05-17 14:00,ZJHK 171400Z 13001MPS CAVOK 23/20 Q1011 NOSIG
ZJHK,2016-05-17 15:00,ZJHK 171500Z 14001MPS CAVOK 23/21 Q1012 NOSIG
ZJHK,2016-05-17 16:00,ZJHK 171600Z 16002MPS CAVOK 23/21 Q1011 NOSIG
ZJHK,2016-05-17 17:00,ZJHK 171700Z 14001MPS CAVOK 22/21 Q1011 NOSIG
ZJHK,2016-05-17 18:00,ZJHK 171800Z 26001MPS 7000 NSC 22/21 Q1010 NOSIG
ZJHK,2016-05-17 19:00,ZJHK 171900Z 16001MPS 7000 NSC 22/21 Q1009 NOSIG
ZJHK,2016-05-17 20:00,ZJHK 172000Z 00000MPS 6000 NSC 21/21 Q1009 NOSIG
ZJHK,2016-05-17 21:00,ZJHK 172100Z 11001MPS 5000 BR NSC 21/21 Q1009 NOSIG
ZJHK,2016-05-17 22:00,ZJHK 172200Z 09002MPS 3500 BR NSC 21/21 Q1010 BECMG TL2300 2500 BR
ZJHK,2016-05-17 23:00,ZJHK 172300Z 09001MPS 2800 BR NSC 22/22 Q1010 BECMG TL2350 4000 BR
ZJHK,2016-05-18 00:00,ZJHK 180000Z 11002MPS 5000 BR NSC 25/23 Q1011 NOSIG
ZJHK,2016-05-18 01:00,ZJHK 180100Z 13002MPS 090V170 9999 SCT012 27/23 Q1012 NOSIG
ZJHK,2016-05-18 02:00,ZJHK 180200Z 14002MPS 090V170 9999 SCT017 28/23 Q1012 NOSIG
ZJHK,2016-05-18 03:00,ZJHK 180300Z 18001MPS 9999 FEW023TCU BKN023 29/22 Q1012 NOSIG
ZJHK,2016-05-18 04:00,ZJHK 180400Z 21002MPS 170V250 9999 SCT023 FEW026TCU 30/23 Q1011 NOSIG
ZJHK,2016-05-18 05:00,ZJHK 180500Z 10001MPS 9999 SCT026 31/22 Q1010 NOSIG
ZJHK,2016-05-18 06:00,ZJHK 180600Z 18001MPS 9999 BKN026 31/22 Q1010 NOSIG
ZJHK,2016-05-18 07:00,ZJHK 180700Z 02004MPS 9999 SCT026 30/23 Q1009 NOSIG
ZJHK,2016-05-18 08:00,ZJHK 180800Z 07006MPS 9999 SCT026 31/23 Q1008 NOSIG
ZJHK,2016-05-18 09:00,ZJHK 180900Z 08007MPS 9999 SCT026 31/23 Q1007 NOSIG
ZJHK,2016-05-18 10:00,ZJHK 181000Z 11004MPS 9999 FEW026CB SCT026 29/23 Q1008 NOSIG
ZJHK,2016-05-18 11:00,ZJHK 181100Z 12003MPS 090V150 CAVOK 27/23 Q1008 NOSIG
ZJHK,2016-05-18 12:00,ZJHK 181200Z 12003MPS CAVOK 26/22 Q1009 NOSIG
ZJHK,2016-05-18 13:00,ZJHK 181300Z 10002MPS CAVOK 25/22 Q1009 NOSIG
ZJHK,2016-05-18 14:00,ZJHK 181400Z 10002MPS CAVOK 24/22 Q1010 NOSIG
ZJHK,2016-05-18 15:00,ZJHK 181500Z 11001MPS CAVOK 24/22 Q1010 NOSIG
ZJHK,2016-05-18 16:00,ZJHK 181600Z 11002MPS CAVOK 24/22 Q1011 NOSIG
ZJHK,2016-05-18 17:00,ZJHK 181700Z 12001MPS 8000 NSC 23/22 Q1010 NOSIG
ZJHK,2016-05-18 18:00,ZJHK 181800Z 12002MPS 6000 NSC 23/22 Q1009 NOSIG
ZJHK,2016-05-18 19:00,ZJHK 181900Z 13002MPS 6000 NSC 23/23 Q1009 NOSIG
ZJHK,2016-05-18 20:00,ZJHK 182000Z 11002MPS 6000 NSC 23/22 Q1009 NOSIG
ZJHK,2016-05-18 21:00,ZJHK 182100Z 10002MPS 6000 NSC 23/22 Q1009 NOSIG
ZJHK,2016-05-18 22:00,ZJHK 182200Z 11002MPS 6000 NSC 23/23 Q1009 NOSIG
ZJHK,2016-05-18 23:00,ZJHK 182300Z 13002MPS 100V160 7000 NSC 24/23 Q1009 NOSIG
ZJHK,2016-05-19 00:00,ZJHK 190000Z 13003MPS 090V150 CAVOK 26/24 Q1009 NOSIG
ZJHK,2016-05-19 01:00,ZJHK 190100Z 13003MPS 100V170 9999 BKN016 28/24 Q1010 NOSIG
ZJHK,2016-05-19 02:00,ZJHK 190200Z 14004MPS 9999 SCT020 29/23 Q1010 NOSIG
ZJHK,2016-05-19 03:00,ZJHK 190300Z 15004MPS 100V200 9999 SCT026 30/23 Q1009 NOSIG
ZJHK,2016-05-19 04:00,ZJHK 190400Z 14004MPS 100V170 9999 SCT026 31/23 Q1008 NOSIG
ZJHK,2016-05-19 05:00,ZJHK 190500Z 14003MPS 120V180 9999 SCT026 31/23 Q1008 NOSIG
ZJHK,2016-05-19 06:00,ZJHK 190600Z 15003MPS 100V200 9999 SCT033 32/23 Q1006 NOSIG
ZJHK,2016-05-19 07:00,ZJHK 190700Z 14004MPS 110V170 9999 SCT033 32/24 Q1006 NOSIG
ZJHK,2016-05-19 08:00,ZJHK 190800Z 13003MPS 090V180 9999 FEW033 32/24 Q1004 NOSIG
ZJHK,2016-05-19 09:00,ZJHK 190900Z 12004MPS 9999 FEW033 31/23 Q1004 NOSIG
ZJHK,2016-05-19 10:00,ZJHK 191000Z 15004MPS 9999 FEW023CB FEW023 29/23 Q1005 NOSIG
ZJHK,2016-05-19 11:00,ZJHK 191100Z 00000MPS 9999 SCT033 27/21 Q1005 NOSIG
ZJHK,2016-05-19 12:00,ZJHK 191200Z 14001MPS CAVOK 26/22 Q1006 NOSIG
ZJHK,2016-05-19 13:00,ZJHK 191300Z 13002MPS CAVOK 26/24 Q1006 NOSIG
ZJHK,2016-05-19 14:00,ZJHK 191400Z 14003MPS 110V170 CAVOK 26/24 Q1006 NOSIG
ZJHK,2016-05-19 15:00,ZJHK 191500Z 14002MPS 110V170 CAVOK 26/24 Q1007 NOSIG
ZJHK,2016-05-19 16:00,ZJHK 191600Z 14002MPS CAVOK 25/24 Q1007 NOSIG
ZJHK,2016-05-19 17:00,ZJHK 191700Z 15003MPS 120V180 CAVOK 26/24 Q1006 NOSIG
ZJHK,2016-05-19 18:00,ZJHK 191800Z 15002MPS 120V180 CAVOK 26/24 Q1005 NOSIG
ZJHK,2016-05-19 19:00,ZJHK 191900Z 15004MPS CAVOK 25/24 Q1005 NOSIG
ZJHK,2016-05-19 20:00,ZJHK 192000Z 15003MPS CAVOK 26/24 Q1004 NOSIG
ZJHK,2016-05-19 21:00,ZJHK 192100Z 15003MPS CAVOK 25/24 Q1004 NOSIG
ZJHK,2016-05-19 22:00,ZJHK 192200Z 14003MPS CAVOK 25/24 Q1004 NOSIG
ZJHK,2016-05-19 23:00,ZJHK 192300Z 15004MPS 120V180 CAVOK 26/24 Q1004 NOSIG
ZJHK,2016-05-20 00:00,ZJHK 200000Z 17004MPS 140V210 CAVOK 28/24 Q1005 NOSIG
ZJHK,2016-05-20 01:00,ZJHK 200100Z 17004MPS 140V200 CAVOK 28/24 Q1006 NOSIG
ZJHK,2016-05-20 02:00,ZJHK 200200Z 16004MPS CAVOK 28/24 Q1006 NOSIG
ZJHK,2016-05-20 03:00,ZJHK 200300Z 17004MPS 140V200 CAVOK 28/24 Q1006 NOSIG
ZJHK,2016-05-20 04:00,ZJHK 200400Z 16003MPS CAVOK 28/24 Q1005 NOSIG
ZJHK,2016-05-20 05:00,ZJHK 200500Z 16003MPS CAVOK 29/25 Q1005 NOSIG
ZJHK,2016-05-20 06:00,ZJHK 200600Z 17003MPS 140V210 9999 FEW020 SCT026 30/25 Q1004 NOSIG
ZJHK,2016-05-20 07:00,ZJHK 200700Z 16004MPS 140V200 9999 FEW020 31/24 Q1002 NOSIG
ZJHK,2016-05-20 08:00,ZJHK 200800Z 17003MPS 9999 FEW020 SCT026 30/24 Q1002 NOSIG
ZJHK,2016-05-20 09:00,ZJHK 200900Z 15002MPS CAVOK 30/24 Q1002 NOSIG
ZJHK,2016-05-20 10:00,ZJHK 201000Z 12002MPS 9999 -RA FEW030 29/25 Q1002 NOSIG
ZJHK,2016-05-20 11:00,ZJHK 201100Z 13003MPS 9999 -RA SCT026 28/25 Q1003 NOSIG
ZJHK,2016-05-20 12:00,ZJHK 201200Z 15003MPS 9999 FEW026CB FEW026 27/25 Q1003 NOSIG
ZJHK,2016-05-20 13:00,ZJHK 201300Z 16003MPS 130V190 9999 -TSRA FEW026CB SCT033 27/25 Q1003 BECMG TL1400 NSW
ZJHK,2016-05-20 14:00,ZJHK 201400Z 35002MPS 310V040 9999 TS BKN009 FEW026CB BKN046 27/25 Q1005 BECMG TL1500 NSW BKN012 BKN046
ZJHK,2016-05-20 15:00,ZJHK 201500Z 35002MPS 9999 BKN011 FEW026CB BKN046 26/24 Q1006 RETS NOSIG
ZJHK,2016-05-20 16:00,ZJHK 201600Z 00000MPS 8000 -SHRA SCT011 FEW030CB SCT040 25/24 Q1005 NOSIG
ZJHK,2016-05-20 17:00,ZJHK 201700Z 00000MPS 7000 SCT046 25/24 Q1005 NOSIG
ZJHK,2016-05-20 18:00,ZJHK 201800Z 26002MPS 6000 FEW012 SCT046 25/24 Q1004 NOSIG
ZJHK,2016-05-20 19:00,ZJHK 201900Z 00000MPS 6000 FEW046 25/24 Q1005 NOSIG
ZJHK,2016-05-20 20:00,ZJHK 202000Z 28002MPS 6000 FEW046 25/24 Q1005 NOSIG
ZJHK,2016-05-20 21:00,ZJHK 202100Z 00000MPS 7000 NSC 24/23 Q1005 NOSIG
ZJHK,2016-05-20 22:00,ZJHK 202200Z 27002MPS 7000 SCT046 25/24 Q1006 NOSIG
ZJHK,2016-05-20 23:00,ZJHK 202300Z 23002MPS 7000 SCT046 25/24 Q1006 NOSIG
ZJHK,2016-05-21 00:00,ZJHK 210000Z 27002MPS 7000 SCT046 26/24 Q1007 NOSIG
ZJHK,2016-05-21 01:00,ZJHK 210100Z 29002MPS 250V360 9999 SCT040 27/23 Q1007 NOSIG
ZJHK,2016-05-21 02:00,ZJHK 210200Z 28002MPS 210V020 9999 FEW020 29/23 Q1008 NOSIG
ZJHK,2016-05-21 03:00,ZJHK 210300Z VRB03MPS 9999 FEW020 30/23 Q1008 NOSIG
ZJHK,2016-05-21 04:00,ZJHK 210400Z 27004MPS 240V300 9999 FEW026 30/24 Q1007 NOSIG
ZJHK,2016-05-21 05:00,ZJHK 210500Z 28004MPS 240V310 9999 FEW026TCU SCT026 30/24 Q1006 NOSIG
ZJHK,2016-05-21 06:00,ZJHK 210600Z 28004MPS 250V310 9999 SCT026 31/23 Q1005 NOSIG
ZJHK,2016-05-21 07:00,ZJHK 210700Z 33003MPS 270V010 9999 SCT026 31/22 Q1005 NOSIG
ZJHK,2016-05-21 08:00,ZJHK 210800Z 02005MPS 350V050 9999 FEW026 29/24 Q1005 NOSIG
ZJHK,2016-05-21 09:00,ZJHK 210900Z 02005MPS 350V070 CAVOK 28/23 Q1005 NOSIG
ZJHK,2016-05-21 10:00,ZJHK 211000Z 01003MPS 340V050 CAVOK 28/22 Q1005 NOSIG
ZJHK,2016-05-21 11:00,ZJHK 211100Z 35002MPS 260V050 9999 BKN040 27/22 Q1006 NOSIG
ZJHK,2016-05-21 12:00,ZJHK 211200Z 09001MPS 9999 SCT040 26/22 Q1007 NOSIG
ZJHK,2016-05-21 13:00,ZJHK 211300Z 23002MPS 9999 BKN030 26/23 Q1008 NOSIG
ZJHK,2016-05-21 14:00,ZJHK 211400Z 23002MPS 9999 SCT040 26/23 Q1008 NOSIG
ZJHK,2016-05-21 15:00,ZJHK 211500Z 26002MPS CAVOK 25/23 Q1009 NOSIG
ZJHK,2016-05-21 16:00,ZJHK 211600Z 27002MPS CAVOK 25/23 Q1008 NOSIG
ZJHK,2016-05-21 17:00,ZJHK 211700Z 21002MPS 180V240 CAVOK 25/23 Q1008 NOSIG
ZJHK,2016-05-21 18:00,ZJHK 211800Z 00000MPS CAVOK 25/23 Q1008 NOSIG
ZJHK,2016-05-21 19:00,ZJHK 211900Z 34002MPS 9999 FEW040 25/22 Q1008 NOSIG
ZJHK,2016-05-21 20:00,ZJHK 212000Z 35002MPS CAVOK 24/22 Q1007 NOSIG
ZJHK,2016-05-21 21:00,ZJHK 212100Z 33003MPS CAVOK 24/22 Q1007 NOSIG
ZJHK,2016-05-21 22:00,ZJHK 212200Z 35002MPS CAVOK 24/22 Q1007 NOSIG
ZJHK,2016-05-21 23:00,ZJHK 212300Z 36002MPS 340V040 CAVOK 24/22 Q1007 NOSIG
ZJHK,2016-05-22 00:00,ZJHK 220000Z 01002MPS 330V040 9999 SCT010 SCT033 26/24 Q1008 NOSIG
ZJHK,2016-05-22 01:00,ZJHK 220100Z 07006MPS 9999 SCT013 FEW023TCU BKN023 27/23 Q1009 NOSIG
ZJHK,2016-05-22 02:00,ZJHK 220200Z 06005MPS 9999 SCT020 BKN033 29/23 Q1009 NOSIG
ZJHK,2016-05-22 03:00,ZJHK 220300Z 05005MPS 010V080 9999 SCT020 BKN033 28/22 Q1009 NOSIG
ZJHK,2016-05-22 04:00,ZJHK 220400Z 04005MPS 010V080 9999 BKN030 29/22 Q1009 NOSIG
ZJHK,2016-05-22 05:00,ZJHK 220500Z 03005MPS 360V070 9999 BKN030 29/23 Q1008 NOSIG
ZJHK,2016-05-22 06:00,ZJHK 220600Z 05005MPS 020V080 9999 SCT030 29/22 Q1008 NOSIG
ZJHK,2016-05-22 07:00,ZJHK 220700Z 06005MPS 9999 FEW030 29/22 Q1007 NOSIG
ZJHK,2016-05-22 08:00,ZJHK 220800Z 05005MPS 010V090 9999 SCT030 28/22 Q1006 NOSIG
ZJHK,2016-05-22 09:00,ZJHK 220900Z 05005MPS 9999 FEW030 28/22 Q1006 NOSIG
ZJHK,2016-05-22 10:00,ZJHK 221000Z 07005MPS 030V090 9999 FEW016 27/22 Q1007 NOSIG
ZJHK,2016-05-22 11:00,ZJHK 221100Z 07004MPS CAVOK 26/22 Q1008 NOSIG
ZJHK,2016-05-22 12:00,ZJHK 221200Z 09003MPS CAVOK 25/22 Q1008 NOSIG
ZJHK,2016-05-22 13:00,ZJHK 221300Z 13002MPS CAVOK 24/22 Q1009 NOSIG
ZJHK,2016-05-22 14:00,ZJHK 221400Z 10001MPS CAVOK 24/22 Q1009 NOSIG
ZJHK,2016-05-22 15:00,ZJHK 221500Z 00000MPS CAVOK 24/23 Q1010 NOSIG
ZJHK,2016-05-22 16:00,ZJHK 221600Z 00000MPS CAVOK 23/22 Q1010 NOSIG
ZJHK,2016-05-22 17:00,ZJHK 221700Z 16001MPS 8000 NSC 23/22 Q1009 NOSIG
ZJHK,2016-05-22 18:00,ZJHK 221800Z 14001MPS 7000 NSC 23/22 Q1009 NOSIG
ZJHK,2016-05-22 19:00,ZJHK 221900Z 17001MPS 6000 NSC 23/22 Q1008 NOSIG
ZJHK,2016-05-22 20:00,ZJHK 222000Z 00000MPS 5000 BR NSC 22/22 Q1008 NOSIG
ZJHK,2016-05-22 21:00,ZJHK 222100Z 00000MPS 4000 R09/0600 BR BCFG NSC 22/22 Q1008 NOSIG
ZJHK,2016-05-22 22:00,ZJHK 222200Z 00000MPS 3500 BR BCFG NSC 22/22 Q1008 NOSIG
ZJHK,2016-05-22 23:00,ZJHK 222300Z 00000MPS 4000 BR NSC 24/23 Q1009 NOSIG
ZJHK,2016-05-23 00:00,ZJHK 230000Z 12001MPS 5000 BR NSC 25/24 Q1009 NOSIG
ZJHK,2016-05-23 01:00,ZJHK 230100Z 11002MPS 7000 NSC 27/24 Q1009 NOSIG
ZJHK,2016-05-23 02:00,ZJHK 230200Z 08003MPS 030V120 9999 FEW019 28/22 Q1010 NOSIG
ZJHK,2016-05-23 03:00,ZJHK 230300Z 09002MPS 040V130 9999 FEW026 29/23 Q1009 NOSIG
ZJHK,2016-05-23 04:00,ZJHK 230400Z 08003MPS 040V120 9999 SCT026 29/23 Q1009 NOSIG
ZJHK,2016-05-23 05:00,ZJHK 230500Z 05004MPS 020V080 9999 BKN026 29/23 Q1008 NOSIG
ZJHK,2016-05-23 06:00,ZJHK 230600Z 08005MPS 040V110 9999 BKN026 29/23 Q1008 NOSIG
ZJHK,2016-05-23 07:00,ZJHK 230700Z 06006MPS 030V100 9999 SCT026 30/23 Q1007 NOSIG
ZJHK,2016-05-23 08:00,ZJHK 230800Z 06006MPS 030V090 9999 SCT026 29/23 Q1007 NOSIG
ZJHK,2016-05-23 09:00,ZJHK 230900Z 08006MPS 050V110 9999 SCT026 29/23 Q1006 NOSIG
ZJHK,2016-05-23 10:00,ZJHK 231000Z 08005MPS 9999 FEW026 28/22 Q1007 NOSIG
ZJHK,2016-05-23 11:00,ZJHK 231100Z 09003MPS CAVOK 27/22 Q1008 NOSIG
ZJHK,2016-05-23 12:00,ZJHK 231200Z 10003MPS 070V130 CAVOK 26/23 Q1008 NOSIG
ZJHK,2016-05-23 13:00,ZJHK 231300Z 12002MPS 080V140 CAVOK 26/23 Q1009 NOSIG
ZJHK,2016-05-23 14:00,ZJHK 231400Z 11002MPS CAVOK 25/23 Q1009 NOSIG
ZJHK,2016-05-23 15:00,ZJHK 231500Z 12002MPS CAVOK 25/23 Q1010 NOSIG
ZJHK,2016-05-23 16:00,ZJHK 231600Z 13001MPS 7000 NSC 24/23 Q1010 NOSIG
ZJHK,2016-05-23 17:00,ZJHK 231700Z 20001MPS 6000 NSC 25/23 Q1009 NOSIG
ZJHK,2016-05-23 18:00,ZJHK 231800Z 17001MPS 6000 NSC 24/23 Q1009 NOSIG
ZJHK,2016-05-23 19:00,ZJHK 231900Z 20001MPS 5000 BR NSC 25/23 Q1008 NOSIG
ZJHK,2016-05-23 20:00,ZJHK 232000Z 20003MPS 170V230 6000 FEW006 SCT020 25/23 Q1008 NOSIG
ZJHK,2016-05-23 21:00,ZJHK 232100Z 16001MPS 8000 NSC 24/23 Q1008 NOSIG
ZJHK,2016-05-23 22:00,ZJHK 232200Z 16002MPS 9999 FEW013 24/22 Q1008 NOSIG
ZJHK,2016-05-23 23:00,ZJHK 232300Z 14001MPS 8000 -RA FEW016 SCT030 24/23 Q1008 NOSIG
ZJHK,2016-05-24 00:00,ZJHK 240000Z 03001MPS 8000 -RA SCT030 24/23 Q1008 NOSIG
ZJHK,2016-05-24 01:00,ZJHK 240100Z 05002MPS 8000 -RA SCT030 25/23 Q1008 NOSIG
ZJHK,2016-05-24 02:00,ZJHK 240200Z 11001MPS 9999 SCT030 26/25 Q1008 NOSIG
ZJHK,2016-05-24 03:00,ZJHK 240300Z 14002MPS 9999 BKN020 30/25 Q1007 NOSIG
ZJHK,2016-05-24 04:00,ZJHK 240400Z 36003MPS 330V030 9999 BKN030 29/25 Q1007 NOSIG
ZJHK,2016-05-24 05:00,ZJHK 240500Z 35004MPS 300V030 9999 BKN030 FEW040CB 30/25 Q1006 NOSIG
ZJHK,2016-05-24 06:00,ZJHK 240600Z 01004MPS 330V050 8000 -TSRA SCT013 BKN030 FEW040CB 25/24 Q1006 RESHRA BECMG AT0620 NSW
ZJHK,2016-05-24 07:00,ZJHK 240700Z 06005MPS 8000 -TSRA SCT013 BKN030 FEW040CB 25/24 Q1006 RESHRA BECMG AT0740 NSW
ZJHK,2016-05-24 08:00,ZJHK 240800Z 04005MPS 010V080 9999 TS SCT013 BKN030 FEW040CB 25/24 Q1005 BECMG NSW
ZJHK,2016-05-24 09:00,ZJHK 240900Z 05006MPS 7000 -TSRA SCT013 BKN030 FEW033CB 26/24 Q1005 BECMG FM0950 NSW
ZJHK,2016-05-24 10:00,ZJHK 241000Z 09003MPS 060V120 7000 -TSRA SCT013 BKN030 FEW033CB 26/24 Q1005 BECMG NSW
ZJHK,2016-05-24 11:00,ZJHK 241100Z 10002MPS 7000 -TSRA SCT013 BKN033 FEW040CB 26/24 Q1006 BECMG NSW
ZJHK,2016-05-24 12:00,ZJHK 241200Z 11002MPS 7000 SCT040 25/24 Q1007 RETS NOSIG
ZJHK,2016-05-24 13:00,ZJHK 241300Z 09002MPS 7000 FEW040 25/24 Q1007 NOSIG
ZJHK,2016-05-24 14:00,ZJHK 241400Z 10001MPS 7000 SCT033 25/24 Q1008 NOSIG
ZJHK,2016-05-24 15:00,ZJHK 241500Z 13001MPS 7000 FEW020 25/24 Q1008 NOSIG
ZJHK,2016-05-24 16:00,ZJHK 241600Z 11001MPS 6000 NSC 25/24 Q1007 NOSIG
ZJHK,2016-05-24 17:00,ZJHK 241700Z 11002MPS 6000 SCT016 25/24 Q1006 NOSIG
ZJHK,2016-05-24 18:00,ZJHK 241800Z 10002MPS 6000 FEW013 25/24 Q1006 NOSIG
ZJHK,2016-05-24 19:00,ZJHK 241900Z 09001MPS 6000 SCT013 SCT033 25/24 Q1005 NOSIG
ZJHK,2016-05-24 20:00,ZJHK 242000Z 10001MPS 8000 FEW016 BKN040 25/24 Q1005 NOSIG
ZJHK,2016-05-24 21:00,ZJHK 242100Z 11001MPS 8000 BKN040 25/24 Q1005 NOSIG
ZJHK,2016-05-24 22:00,ZJHK 242200Z 09002MPS 4000 BR SCT004 BKN020 24/24 Q1005 NOSIG
ZJHK,2016-05-24 23:00,ZJHK 242300Z 13001MPS 2100 R09/1000V1400N BR BKN004 25/25 Q1006 BECMG 3000 BR BKN005
ZJHK,2016-05-25 00:00,ZJHK 250000Z 12003MPS 090V150 8000 SCT008 26/25 Q1006 NOSIG
ZJHK,2016-05-25 01:00,ZJHK 250100Z 13003MPS 100V160 9999 SCT015 28/25 Q1007 NOSIG
ZJHK,2016-05-25 02:00,ZJHK 250200Z 14004MPS 110V170 9999 SCT020 30/24 Q1007 NOSIG
ZJHK,2016-05-25 03:00,ZJHK 250300Z 13003MPS 090V170 9999 FEW023TCU BKN023 31/24 Q1006 NOSIG
ZJHK,2016-05-25 04:00,ZJHK 250400Z 13004MPS 090V160 9999 SCT025 32/24 Q1006 NOSIG
ZJHK,2016-05-25 05:00,ZJHK 250500Z 13004MPS 100V170 9999 BKN025 32/24 Q1005 NOSIG
ZJHK,2016-05-25 06:00,ZJHK 250600Z 12004MPS 9999 FEW025TCU BKN025 32/24 Q1004 NOSIG
ZJHK,2016-05-25 07:00,ZJHK 250700Z 11005MPS 9999 FEW025TCU SCT025 32/24 Q1004 NOSIG
ZJHK,2016-05-25 08:00,ZJHK 250800Z 13004MPS 9999 SCT025 32/24 Q1003 NOSIG
ZJHK,2016-05-25 09:00,ZJHK 250900Z 12006MPS 090V150 9999 SCT025 31/23 Q1003 NOSIG
ZJHK,2016-05-25 10:00,ZJHK 251000Z 12005MPS 090V150 9999 SCT030 30/23 Q1004 NOSIG
ZJHK,2016-05-25 11:00,ZJHK 251100Z 13003MPS 9999 SCT030 28/24 Q1005 NOSIG
ZJHK,2016-05-25 12:00,ZJHK 251200Z 12002MPS 9999 SCT030 27/24 Q1006 NOSIG
ZJHK,2016-05-25 13:00,ZJHK 251300Z 12002MPS 9999 FEW030 26/24 Q1006 NOSIG
ZJHK,2016-05-25 14:00,ZJHK 251400Z 10003MPS 9999 FEW016 26/25 Q1007 NOSIG
ZJHK,2016-05-25 15:00,ZJHK 251500Z 11001MPS 9999 FEW016 26/25 Q1007 NOSIG
ZJHK,2016-05-25 16:00,ZJHK 251600Z 09002MPS 9999 FEW016 26/24 Q1007 NOSIG
ZJHK,2016-05-25 17:00,ZJHK 251700Z 08003MPS 9999 FEW030 26/25 Q1006 NOSIG
ZJHK,2016-05-25 18:00,ZJHK 251800Z 08002MPS 9999 FEW030 26/25 Q1006 NOSIG
ZJHK,2016-05-25 19:00,ZJHK 251900Z 08003MPS 9999 FEW030 26/25 Q1006 NOSIG
ZJHK,2016-05-25 20:00,ZJHK 252000Z 10002MPS 9999 FEW010 25/24 Q1006 NOSIG
ZJHK,2016-05-25 21:00,ZJHK 252100Z 12002MPS CAVOK 25/24 Q1006 NOSIG
ZJHK,2016-05-25 22:00,ZJHK 252200Z 10002MPS 9999 FEW033TCU FEW033 25/24 Q1005 NOSIG
ZJHK,2016-05-25 23:00,ZJHK 252300Z 09002MPS 070V130 9999 FEW033TCU 26/24 Q1006 NOSIG
ZJHK,2016-05-26 00:00,ZJHK 260000Z 10003MPS 070V130 9999 SCT016 27/25 Q1006 NOSIG
ZJHK,2016-05-26 01:00,ZJHK 260100Z 10003MPS 9999 FEW012 BKN020 28/25 Q1007 NOSIG
ZJHK,2016-05-26 02:00,ZJHK 260200Z 09002MPS 050V130 9999 FEW020CB SCT020 29/25 Q1007 NOSIG
ZJHK,2016-05-26 03:00,ZJHK 260300Z 05005MPS 9999 FEW020TCU SCT020 30/25 Q1006 NOSIG
ZJHK,2016-05-26 04:00,ZJHK 260400Z 07005MPS 9999 FEW020CB SCT020 31/25 Q1006 NOSIG
ZJHK,2016-05-26 05:00,ZJHK 260500Z 06006MPS 030V090 9999 FEW020CB BKN020 31/25 Q1005 NOSIG
ZJHK,2016-05-26 06:00,ZJHK 260600Z 07005MPS 040V100 9999 FEW020CB SCT020 31/25 Q1005 BECMG TS
ZJHK,2016-05-26 07:00,ZJHK 260700Z 07005MPS 030V090 9999 FEW020CB SCT020 30/24 Q1004 BECMG TS
ZJHK,2016-05-26 08:00,ZJHK 260800Z 04006MPS 9999 FEW020CB SCT026 30/24 Q1004 BECMG TS
ZJHK,2016-05-26 09:00,ZJHK 260900Z 06006MPS 9999 SCT016 FEW020CB 29/24 Q1004 BECMG AT0940 TS
ZJHK,2016-05-26 10:00,ZJHK 261000Z 07005MPS 9999 SCT016 FEW020TCU 28/24 Q1003 NOSIG
ZJHK,2016-05-26 11:00,ZJHK 261100Z 09003MPS 9999 FEW016 27/24 Q1004 NOSIG
ZJHK,2016-05-26 12:00,ZJHK 261200Z 06005MPS 9999 FEW016 27/24 Q1005 NOSIG
ZJHK,2016-05-26 13:00,ZJHK 261300Z 10002MPS 9999 FEW016 26/24 Q1006 NOSIG
ZJHK,2016-05-26 14:00,ZJHK 261400Z 09001MPS 9999 FEW016 26/24 Q1006 NOSIG
ZJHK,2016-05-26 15:00,ZJHK 261500Z 07003MPS 9999 FEW013 27/25 Q1006 NOSIG
ZJHK,2016-05-26 16:00,ZJHK 261600Z 13001MPS 9999 SCT010 26/25 Q1006 NOSIG
ZJHK,2016-05-26 17:00,ZJHK 261700Z 00000MPS 9999 -RA SCT010 26/25 Q1006 NOSIG
ZJHK,2016-05-26 18:00,ZJHK 261800Z 00000MPS 9999 -RA SCT010 26/25 Q1006 NOSIG
ZJHK,2016-05-26 19:00,ZJHK 261900Z 26001MPS 8000 -RA SCT010 26/25 Q1005 NOSIG
ZJHK,2016-05-26 20:00,ZJHK 262000Z 34002MPS 6000 -RA SCT006 26/25 Q1004 NOSIG
ZJHK,2016-05-26 21:00,ZJHK 262100Z 32002MPS 6000 -RA SCT006 26/25 Q1004 NOSIG
ZJHK,2016-05-26 22:00,ZJHK 262200Z 30002MPS 6000 -SHRA FEW033CB 25/24 Q1005 NOSIG
ZJHK,2016-05-26 23:00,ZJHK 262300Z 35002MPS 6000 -RA FEW006 SCT026 26/25 Q1005 NOSIG
ZJHK,2016-05-27 00:00,ZJHK 270000Z 01002MPS 330V050 9999 FEW006 25/24 Q1006 NOSIG
ZJHK,2016-05-27 01:00,ZJHK 270100Z 26002MPS 9999 -RA FEW006 25/24 Q1006 NOSIG
ZJHK,2016-05-27 02:00,ZJHK 270200Z 00000MPS 4000 -RA BR SCT016 26/24 Q1006 NOSIG
ZJHK,2016-05-27 03:00,ZJHK 270300Z 36001MPS 8000 -SHRA FEW023TCU FEW023 26/24 Q1006 NOSIG
ZJHK,2016-05-27 04:00,ZJHK 270400Z 23004MPS 6000 -SHRA BKN010 FEW023TCU 25/23 Q1006 BECMG -TSRA SCT016
ZJHK,2016-05-27 05:00,ZJHK 270500Z 22001MPS 8000 -SHRA FEW012 FEW023TCU OVC040 25/24 Q1006 NOSIG
ZJHK,2016-05-27 06:00,ZJHK 270600Z 19002MPS 8000 -SHRA FEW012 FEW023TCU OVC040 25/25 Q1005 NOSIG
ZJHK,2016-05-27 07:00,ZJHK 270700Z 20002MPS 8000 -RA FEW012 SCT023 OVC040 25/24 Q1005 NOSIG
ZJHK,2016-05-27 08:00,ZJHK 270800Z 18002MPS 150V210 8000 -RA FEW012 OVC040 25/24 Q1004 NOSIG
ZJHK,2016-05-27 09:00,ZJHK 270900Z 17002MPS 8000 -RA FEW012 OVC040 26/24 Q1004 NOSIG
ZJHK,2016-05-27 10:00,ZJHK 271000Z 13001MPS 9000 -RA SCT033 26/25 Q1004 NOSIG
ZJHK,2016-05-27 11:00,ZJHK 271100Z 12002MPS 8000 SCT046 25/24 Q1004 NOSIG
ZJHK,2016-05-27 12:00,ZJHK 271200Z 10002MPS 7000 FEW046 25/24 Q1005 NOSIG
ZJHK,2016-05-27 13:00,ZJHK 271300Z 11001MPS 7000 FEW046 25/24 Q1006 NOSIG
ZJHK,2016-05-27 14:00,ZJHK 271400Z 14002MPS 7000 FEW046 25/25 Q1007 NOSIG
ZJHK,2016-05-27 15:00,ZJHK 271500Z 17002MPS 7000 -RA SCT046 26/25 Q1008 NOSIG
ZJHK,2016-05-27 16:00,ZJHK 271600Z 16003MPS 7000 -RA SCT046 26/25 Q1007 NOSIG
ZJHK,2016-05-27 17:00,ZJHK 271700Z 16002MPS 7000 -RA SCT046 26/25 Q1006 NOSIG
ZJHK,2016-05-27 18:00,ZJHK 271800Z 17002MPS 7000 NSC 26/25 Q1006 NOSIG
ZJHK,2016-05-27 19:00,ZJHK 271900Z 17002MPS 8000 NSC 26/25 Q1005 NOSIG
ZJHK,2016-05-27 20:00,ZJHK 272000Z 16002MPS 8000 NSC 26/25 Q1005 NOSIG
ZJHK,2016-05-27 21:00,ZJHK 272100Z 15002MPS 8000 NSC 26/25 Q1005 NOSIG
ZJHK,2016-05-27 22:00,ZJHK 272200Z 15002MPS 8000 NSC 26/25 Q1005 NOSIG
ZJHK,2016-05-27 23:00,ZJHK 272300Z 16003MPS 8000 NSC 26/25 Q1006 NOSIG
ZJHK,2016-05-28 00:00,ZJHK 280000Z 14003MPS CAVOK 27/25 Q1007 NOSIG
ZJHK,2016-05-28 01:00,ZJHK 280100Z 16003MPS 130V190 CAVOK 29/25 Q1007 NOSIG
ZJHK,2016-05-28 02:00,ZJHK 280200Z 19004MPS CAVOK 30/25 Q1007 NOSIG
ZJHK,2016-05-28 03:00,ZJHK 280300Z 15004MPS 120V190 CAVOK 31/24 Q1007 NOSIG
ZJHK,2016-05-28 04:00,ZJHK 280400Z 17004MPS 140V210 CAVOK 31/25 Q1006 NOSIG
ZJHK,2016-05-28 05:00,ZJHK 280500Z 17004MPS 130V200 9999 FEW026 33/25 Q1006 NOSIG
ZJHK,2016-05-28 06:00,ZJHK 280600Z 16005MPS 120V180 9999 FEW026 32/25 Q1005 NOSIG
ZJHK,2016-05-28 07:00,ZJHK 280700Z 17005MPS 130V210 9999 SCT026 32/25 Q1004 NOSIG
ZJHK,2016-05-28 08:00,ZJHK 280800Z 16004MPS 130V200 9999 FEW026TCU SCT026 32/25 Q1004 NOSIG
ZJHK,2016-05-28 09:00,ZJHK 280900Z 17004MPS 140V210 9999 FEW026CB SCT026 32/24 Q1003 BECMG TS
ZJHK,2016-05-28 10:00,ZJHK 281000Z 26006MPS 240V300 9999 BKN030 FEW040CB 27/23 Q1006 BECMG 18004MPS
ZJHK,2016-05-28 11:00,ZJHK 281100Z 25001MPS 9999 SCT030 FEW040TCU 25/23 Q1006 NOSIG
ZJHK,2016-05-28 12:00,ZJHK 281200Z 00000MPS 9999 FEW030 25/23 Q1006 NOSIG
ZJHK,2016-05-28 13:00,ZJHK 281300Z 17001MPS 9999 FEW030 25/23 Q1006 NOSIG
ZJHK,2016-05-28 14:00,ZJHK 281400Z 00000MPS CAVOK 25/23 Q1007 NOSIG
ZJHK,2016-05-28 15:00,ZJHK 281500Z 00000MPS CAVOK 25/23 Q1007 NOSIG
ZJHK,2016-05-28 16:00,ZJHK 281600Z 09001MPS CAVOK 24/23 Q1007 NOSIG
ZJHK,2016-05-28 17:00,ZJHK 281700Z 12001MPS CAVOK 24/23 Q1006 NOSIG
ZJHK,2016-05-28 18:00,ZJHK 281800Z 13002MPS CAVOK 24/23 Q1006 NOSIG
ZJHK,2016-05-28 19:00,ZJHK 281900Z 11001MPS CAVOK 24/23 Q1006 NOSIG
ZJHK,2016-05-28 20:00,ZJHK 282000Z 16001MPS CAVOK 24/24 Q1006 NOSIG
ZJHK,2016-05-28 21:00,ZJHK 282100Z 12001MPS CAVOK 24/24 Q1006 NOSIG
ZJHK,2016-05-28 22:00,ZJHK 282200Z 16002MPS CAVOK 25/24 Q1006 NOSIG
ZJHK,2016-05-28 23:00,ZJHK 282300Z 16002MPS 140V200 CAVOK 26/24 Q1007 NOSIG
ZJHK,2016-05-29 00:00,ZJHK 290000Z 16003MPS 140V200 CAVOK 28/24 Q1008 NOSIG
ZJHK,2016-05-29 01:00,ZJHK 290100Z 17004MPS 140V200 CAVOK 30/24 Q1008 NOSIG
ZJHK,2016-05-29 02:00,ZJHK 290200Z 18004MPS 140V210 CAVOK 31/24 Q1008 NOSIG
ZJHK,2016-05-29 03:00,ZJHK 290300Z 16004MPS 130V200 CAVOK 31/24 Q1008 NOSIG
ZJHK,2016-05-29 04:00,ZJHK 290400Z 17004MPS 130V200 9999 FEW020 32/24 Q1007 NOSIG
ZJHK,2016-05-29 05:00,ZJHK 290500Z 18003MPS 150V220 9999 SCT026 33/24 Q1007 NOSIG
ZJHK,2016-05-29 06:00,ZJHK 290600Z 15003MPS 110V210 9999 SCT026 34/24 Q1005 NOSIG
ZJHK,2016-05-29 07:00,ZJHK 290700Z 13003MPS 090V180 9999 FEW033TCU SCT033 34/24 Q1004 NOSIG
ZJHK,2016-05-29 08:00,ZJHK 290800Z 14005MPS 110V180 9999 FEW033CB SCT033 33/25 Q1004 BECMG AT0830 TS
ZJHK,2016-05-29 09:00,ZJHK 290900Z 27008MPS 9999 TS SCT013 FEW033CB SCT033 25/23 Q1006 BECMG TL1010 NSW
ZJHK,2016-05-29 10:00,ZJHK 291000Z 15005MPS 6000 TSRA SCT013 FEW033CB SCT033 23/21 Q1007 BECMG TL1030 NSW
ZJHK,2016-05-29 11:00,ZJHK 291100Z 22002MPS 9999 FEW033 24/22 Q1006 RETSRA NOSIG
ZJHK,2016-05-29 12:00,ZJHK 291200Z 18002MPS 9999 FEW033 24/22 Q1006 NOSIG
ZJHK,2016-05-29 13:00,ZJHK 291300Z 15001MPS CAVOK 24/22 Q1007 NOSIG
ZJHK,2016-05-29 14:00,ZJHK 291400Z 01001MPS CAVOK 24/22 Q1008 NOSIG
ZJHK,2016-05-29 15:00,ZJHK 291500Z 11001MPS CAVOK 24/23 Q1008 NOSIG
ZJHK,2016-05-29 16:00,ZJHK 291600Z 11002MPS CAVOK 24/23 Q1008 NOSIG
ZJHK,2016-05-29 17:00,ZJHK 291700Z 11002MPS CAVOK 24/23 Q1007 NOSIG
ZJHK,2016-05-29 18:00,ZJHK 291800Z 13002MPS CAVOK 24/24 Q1007 NOSIG
ZJHK,2016-05-29 19:00,ZJHK 291900Z 16003MPS CAVOK 26/25 Q1007 NOSIG
ZJHK,2016-05-29 20:00,ZJHK 292000Z 16004MPS CAVOK 26/25 Q1006 NOSIG
ZJHK,2016-05-29 21:00,ZJHK 292100Z 15004MPS CAVOK 26/25 Q1007 NOSIG
ZJHK,2016-05-29 22:00,ZJHK 292200Z 16004MPS CAVOK 26/25 Q1007 NOSIG
ZJHK,2016-05-29 23:00,ZJHK 292300Z 15003MPS CAVOK 26/25 Q1007 NOSIG
ZJHK,2016-05-30 00:00,ZJHK 300000Z 18004MPS 150V220 9999 FEW010 28/25 Q1008 NOSIG
ZJHK,2016-05-30 01:00,ZJHK 300100Z 18005MPS CAVOK 29/25 Q1008 NOSIG
ZJHK,2016-05-30 02:00,ZJHK 300200Z 17005MPS 140V210 9999 FEW023 31/25 Q1008 NOSIG
ZJHK,2016-05-30 03:00,ZJHK 300300Z 18004MPS 130V210 9999 FEW023 31/25 Q1008 NOSIG
ZJHK,2016-05-30 04:00,ZJHK 300400Z 18005MPS 150V220 9999 SCT023 32/24 Q1008 NOSIG
ZJHK,2016-05-30 05:00,ZJHK 300500Z 20004MPS 170V240 9999 SCT023 33/24 Q1008 NOSIG
ZJHK,2016-05-30 06:00,ZJHK 300600Z 20003MPS 150V260 9999 SCT023 34/24 Q1007 NOSIG
ZJHK,2016-05-30 07:00,ZJHK 300700Z 17002MPS 140V210 9999 FEW025TCU SCT025 33/24 Q1006 BECMG AT0730 TSRA
ZJHK,2016-05-30 08:00,ZJHK 300800Z VRB02MPS 9999 -TSRA SCT025CB FEW025 29/23 Q1007 BECMG NSW
ZJHK,2016-05-30 09:00,ZJHK 300900Z 11001MPS 9999 FEW025CB 26/24 Q1006 RETS NOSIG
ZJHK,2016-05-30 10:00,ZJHK 301000Z 00000MPS CAVOK 26/24 Q1006 NOSIG
ZJHK,2016-05-30 11:00,ZJHK 301100Z 08002MPS CAVOK 26/24 Q1007 NOSIG
ZJHK,2016-05-30 12:00,ZJHK 301200Z 09002MPS CAVOK 25/24 Q1008 NOSIG
ZJHK,2016-05-30 13:00,ZJHK 301300Z 14001MPS CAVOK 25/24 Q1009 NOSIG
ZJHK,2016-05-30 14:00,ZJHK 301400Z 15003MPS CAVOK 26/25 Q1009 NOSIG
ZJHK,2016-05-30 15:00,ZJHK 301500Z 14003MPS CAVOK 26/25 Q1009 NOSIG
ZJHK,2016-05-30 16:00,ZJHK 301600Z 16004MPS CAVOK 26/25 Q1009 NOSIG
ZJHK,2016-05-30 17:00,ZJHK 301700Z 17003MPS CAVOK 26/25 Q1009 NOSIG
ZJHK,2016-05-30 18:00,ZJHK 301800Z 17003MPS CAVOK 26/25 Q1009 NOSIG
ZJHK,2016-05-30 19:00,ZJHK 301900Z 16003MPS CAVOK 26/25 Q1008 NOSIG
ZJHK,2016-05-30 20:00,ZJHK 302000Z 16003MPS CAVOK 26/25 Q1008 NOSIG
ZJHK,2016-05-30 21:00,ZJHK 302100Z 15002MPS CAVOK 26/24 Q1008 NOSIG
ZJHK,2016-05-30 22:00,ZJHK 302200Z 15003MPS CAVOK 26/24 Q1008 NOSIG
ZJHK,2016-05-30 23:00,ZJHK 302300Z 16003MPS 140V200 CAVOK 26/25 Q1008 NOSIG
ZJHK,2016-05-31 00:00,ZJHK 310000Z 17004MPS 140V210 9999 FEW013 28/25 Q1009 NOSIG
ZJHK,2016-05-31 01:00,ZJHK 310100Z 18004MPS 140V210 9999 FEW013 29/25 Q1009 NOSIG
ZJHK,2016-05-31 02:00,ZJHK 310200Z 19004MPS 160V220 9999 FEW020 31/25 Q1009 NOSIG
ZJHK,2016-05-31 03:00,ZJHK 310300Z 17004MPS 140V200 CAVOK 32/25 Q1009 NOSIG
ZJHK,2016-05-31 04:00,ZJHK 310400Z 17003MPS 140V210 9999 SCT020 33/26 Q1009 NOSIG
ZJHK,2016-05-31 05:00,ZJHK 310500Z 20003MPS 150V230 9999 SCT020 33/25 Q1008 NOSIG
ZJHK,2016-05-31 06:00,ZJHK 310600Z 19003MPS 160V230 9999 SCT020 34/24 Q1008 NOSIG
ZJHK,2016-05-31 07:00,ZJHK 310700Z 23002MPS 9999 SCT020 SCT033 35/24 Q1007 NOSIG
ZJHK,2016-05-31 08:00,ZJHK 310800Z 35003MPS 320V020 9999 FEW020 FEW033CB SCT040 33/26 Q1006 NOSIG
ZJHK,2016-05-31 09:00,ZJHK 310900Z 31004MPS 5000 TSRA BKN012 SCT023CB BKN030 27/25 Q1008 BECMG NSW SCT015
ZJHK,2016-05-31 10:00,ZJHK 311000Z 08002MPS 9999 TS FEW023CB SCT030 24/22 Q1008 RESHRA BECMG TL1030 NSW
ZJHK,2016-05-31 11:00,ZJHK 311100Z 13002MPS 110V170 CAVOK 24/23 Q1008 RETS NOSIG
ZJHK,2016-05-31 12:00,ZJHK 311200Z 19003MPS 160V220 CAVOK 24/22 Q1008 NOSIG
ZJHK,2016-05-31 13:00,ZJHK 311300Z 17002MPS CAVOK 24/22 Q1009 NOSIG
ZJHK,2016-05-31 14:00,ZJHK 311400Z 19002MPS 160V220 9999 FEW040 25/22 Q1010 NOSIG
ZJHK,2016-05-31 15:00,ZJHK 311500Z 16003MPS CAVOK 25/22 Q1010 NOSIG
ZJHK,2016-05-31 16:00,ZJHK 311600Z 24001MPS CAVOK 25/23 Q1010 NOSIG
ZJHK,2016-05-31 17:00,ZJHK 311700Z 18002MPS CAVOK 25/23 Q1010 NOSIG
ZJHK,2016-05-31 18:00,ZJHK 311800Z 18003MPS CAVOK 25/24 Q1009 NOSIG
ZJHK,2016-05-31 19:00,ZJHK 311900Z 18001MPS CAVOK 25/24 Q1009 NOSIG
ZJHK,2016-05-31 20:00,ZJHK 312000Z 09001MPS 6000 NSC 24/23 Q1008 NOSIG
ZJHK,2016-05-31 21:00,ZJHK 312100Z 16002MPS 8000 NSC 25/24 Q1008 NOSIG
ZJHK,2016-05-31 22:00,ZJHK 312200Z 16003MPS CAVOK 25/24 Q1008 NOSIG
ZJHK,2016-05-31 23:00,ZJHK 312300Z 17004MPS CAVOK 26/24 Q1009 NOSIG
ZJHK,2016-06-01 00:00,ZJHK 010000Z 20003MPS 170V230 CAVOK 27/25 Q1009 NOSIG
ZJHK,2016-06-01 01:00,ZJHK 010100Z 19004MPS 160V220 CAVOK 29/24 Q1009 NOSIG
ZJHK,2016-06-01 02:00,ZJHK 010200Z 21003MPS 180V240 CAVOK 31/25 Q1009 NOSIG
ZJHK,2016-06-01 03:00,ZJHK 010300Z 19003MPS 150V230 CAVOK 32/25 Q1009 NOSIG
ZJHK,2016-06-01 04:00,ZJHK 010400Z 19002MPS 160V230 CAVOK 33/25 Q1008 NOSIG
ZJHK,2016-06-01 05:00,ZJHK 010500Z 26003MPS 200V300 9999 FEW023 35/25 Q1007 NOSIG
ZJHK,2016-06-01 06:00,ZJHK 010600Z 26002MPS 220V290 9999 SCT026 35/24 Q1006 NOSIG
ZJHK,2016-06-01 07:00,ZJHK 010700Z 01003MPS 330V030 9999 FEW033TCU SCT033 34/25 Q1006 NOSIG
ZJHK,2016-06-01 08:00,ZJHK 010800Z 18004MPS 150V230 8000 -TSRA FEW010 FEW033CB SCT033 27/24 Q1006 BECMG AT0830 NSW
ZJHK,2016-06-01 09:00,ZJHK 010900Z 28002MPS 9999 FEW033CB SCT033 29/25 Q1005 RETS NOSIG
ZJHK,2016-06-01 10:00,ZJHK 011000Z 13001MPS 9999 FEW033CB SCT033 29/26 Q1006 NOSIG
ZJHK,2016-06-01 11:00,ZJHK 011100Z 12004MPS CAVOK 28/25 Q1006 NOSIG
ZJHK,2016-06-01 12:00,ZJHK 011200Z 17003MPS CAVOK 27/24 Q1007 NOSIG
ZJHK,2016-06-01 13:00,ZJHK 011300Z 19002MPS CAVOK 26/23 Q1007 NOSIG
ZJHK,2016-06-01 14:00,ZJHK 011400Z 14001MPS CAVOK 25/22 Q1008 NOSIG
ZJHK,2016-06-01 15:00,ZJHK 011500Z 15002MPS CAVOK 25/22 Q1008 NOSIG
ZJHK,2016-06-01 16:00,ZJHK 011600Z 16002MPS 130V190 CAVOK 25/22 Q1008 NOSIG
ZJHK,2016-06-01 17:00,ZJHK 011700Z 17002MPS CAVOK 25/23 Q1007 NOSIG
ZJHK,2016-06-01 18:00,ZJHK 011800Z 18003MPS 140V210 CAVOK 25/24 Q1006 NOSIG
ZJHK,2016-06-01 19:00,ZJHK 011900Z 18002MPS 140V220 CAVOK 26/24 Q1006 NOSIG
ZJHK,2016-06-01 20:00,ZJHK 012000Z 15002MPS CAVOK 25/24 Q1005 NOSIG
ZJHK,2016-06-01 21:00,ZJHK 012100Z 13001MPS 8000 NSC 24/24 Q1005 NOSIG
ZJHK,2016-06-01 22:00,ZJHK 012200Z 16001MPS 7000 NSC 24/24 Q1006 NOSIG
ZJHK,2016-06-01 23:00,ZJHK 012300Z 15001MPS 7000 NSC 25/24 Q1006 NOSIG
ZJHK,2016-06-02 00:00,ZJHK 020000Z 18002MPS 150V220 CAVOK 28/25 Q1006 NOSIG
ZJHK,2016-06-02 01:00,ZJHK 020100Z 19002MPS 160V230 CAVOK 29/25 Q1007 NOSIG
ZJHK,2016-06-02 02:00,ZJHK 020200Z 21003MPS 160V230 CAVOK 31/25 Q1007 NOSIG
ZJHK,2016-06-02 03:00,ZJHK 020300Z 23003MPS 190V260 CAVOK 33/25 Q1006 NOSIG
ZJHK,2016-06-02 04:00,ZJHK 020400Z 21003MPS 170V250 CAVOK 34/25 Q1006 NOSIG
ZJHK,2016-06-02 05:00,ZJHK 020500Z 21003MPS 170V260 9999 SCT023 35/25 Q1005 NOSIG
ZJHK,2016-06-02 06:00,ZJHK 020600Z 24003MPS 200V280 9999 SCT023 35/24 Q1004 NOSIG
ZJHK,2016-06-02 07:00,ZJHK 020700Z 01003MPS 9999 FEW023TCU SCT023 34/25 Q1004 NOSIG
ZJHK,2016-06-02 08:00,ZJHK 020800Z 35003MPS 330V030 9999 FEW023TCU SCT023 33/24 Q1004 NOSIG
ZJHK,2016-06-02 09:00,ZJHK 020900Z 32003MPS 290V350 9999 FEW026TCU FEW026 34/24 Q1003 NOSIG
ZJHK,2016-06-02 10:00,ZJHK 021000Z 30002MPS 9999 FEW033TCU SCT033 34/23 Q1003 NOSIG
ZJHK,2016-06-02 11:00,ZJHK 021100Z 09003MPS 9999 SCT040 31/24 Q1004 NOSIG
ZJHK,2016-06-02 12:00,ZJHK 021200Z 12002MPS CAVOK 29/25 Q1005 NOSIG
ZJHK,2016-06-02 13:00,ZJHK 021300Z 11002MPS CAVOK 28/25 Q1005 NOSIG
ZJHK,2016-06-02 14:00,ZJHK 021400Z 11003MPS CAVOK 27/25 Q1006 NOSIG
ZJHK,2016-06-02 15:00,ZJHK 021500Z 13002MPS CAVOK 27/25 Q1006 NOSIG
ZJHK,2016-06-02 16:00,ZJHK 021600Z 12001MPS CAVOK 26/25 Q1006 NOSIG
ZJHK,2016-06-02 17:00,ZJHK 021700Z 00000MPS CAVOK 26/25 Q1006 NOSIG
ZJHK,2016-06-02 18:00,ZJHK 021800Z 12002MPS CAVOK 26/25 Q1006 NOSIG
ZJHK,2016-06-02 19:00,ZJHK 021900Z 15003MPS 120V180 CAVOK 26/25 Q1005 NOSIG
ZJHK,2016-06-02 20:00,ZJHK 022000Z 19002MPS 160V220 CAVOK 26/25 Q1005 NOSIG
ZJHK,2016-06-02 21:00,ZJHK 022100Z 19002MPS CAVOK 26/25 Q1006 NOSIG
ZJHK,2016-06-02 22:00,ZJHK 022200Z 16002MPS CAVOK 26/25 Q1006 NOSIG
ZJHK,2016-06-02 23:00,ZJHK 022300Z 19003MPS 150V210 CAVOK 27/25 Q1006 NOSIG
ZJHK,2016-06-03 00:00,ZJHK 030000Z 19003MPS 150V220 CAVOK 28/25 Q1007 NOSIG
ZJHK,2016-06-03 01:00,ZJHK 030100Z 20003MPS 170V230 CAVOK 30/25 Q1007 NOSIG
ZJHK,2016-06-03 02:00,ZJHK 030200Z 19003MPS 170V230 CAVOK 32/25 Q1007 NOSIG
ZJHK,2016-06-03 03:00,ZJHK 030300Z 22003MPS 180V250 CAVOK 33/25 Q1007 NOSIG
ZJHK,2016-06-03 04:00,ZJHK 030400Z 22003MPS 160V270 9999 FEW023 34/24 Q1006 NOSIG
ZJHK,2016-06-03 05:00,ZJHK 030500Z 21004MPS 170V270 9999 SCT023 35/24 Q1006 NOSIG
ZJHK,2016-06-03 06:00,ZJHK 030600Z 24003MPS 200V280 9999 FEW026TCU SCT026 36/24 Q1005 NOSIG
ZJHK,2016-06-03 07:00,ZJHK 030700Z 01002MPS 300V070 9999 FEW026CB SCT046 33/25 Q1005 BECMG AT0730 TS
ZJHK,2016-06-03 08:00,ZJHK 030800Z 11003MPS 070V140 9999 FEW026CB 33/24 Q1004 NOSIG
ZJHK,2016-06-03 09:00,ZJHK 030900Z 09005MPS 9999 FEW026CB 32/24 Q1004 NOSIG
ZJHK,2016-06-03 10:00,ZJHK 031000Z 09003MPS 9999 FEW026CB 30/25 Q1004 NOSIG
ZJHK,2016-06-03 11:00,ZJHK 031100Z 14004MPS 9999 FEW040 28/22 Q1004 NOSIG
ZJHK,2016-06-03 12:00,ZJHK 031200Z 12003MPS 090V150 9999 FEW040 27/24 Q1005 NOSIG
ZJHK,2016-06-03 13:00,ZJHK 031300Z 12002MPS CAVOK 27/25 Q1006 NOSIG
ZJHK,2016-06-03 14:00,ZJHK 031400Z 12002MPS CAVOK 27/26 Q1007 NOSIG
ZJHK,2016-06-03 15:00,ZJHK 031500Z 00000MPS CAVOK 27/26 Q1007 NOSIG
ZJHK,2016-06-03 16:00,ZJHK 031600Z 13001MPS CAVOK 27/26 Q1007 NOSIG
ZJHK,2016-06-03 17:00,ZJHK 031700Z 15001MPS CAVOK 27/26 Q1007 NOSIG
ZJHK,2016-06-03 18:00,ZJHK 031800Z 13001MPS 9999 TS FEW040CB SCT040 27/26 Q1007 BECMG AT1840 NSW
ZJHK,2016-06-03 19:00,ZJHK 031900Z 11001MPS 9999 TS FEW040CB SCT040 26/25 Q1007 NOSIG
ZJHK,2016-06-03 20:00,ZJHK 032000Z 21002MPS 9999 TS FEW040CB SCT040 26/24 Q1006 NOSIG
ZJHK,2016-06-03 21:00,ZJHK 032100Z 22001MPS CAVOK 26/22 Q1006 RETS NOSIG
ZJHK,2016-06-03 22:00,ZJHK 032200Z 07001MPS CAVOK 25/23 Q1006 NOSIG
ZJHK,2016-06-03 23:00,ZJHK 032300Z 16002MPS CAVOK 27/25 Q1007 NOSIG
ZJHK,2016-06-04 00:00,ZJHK 040000Z 20003MPS 160V230 CAVOK 29/25 Q1007 NOSIG
ZJHK,2016-06-04 01:00,ZJHK 040100Z 20003MPS 160V240 CAVOK 30/25 Q1007 NOSIG
ZJHK,2016-06-04 02:00,ZJHK 040200Z 22003MPS CAVOK 32/24 Q1008 NOSIG
ZJHK,2016-06-04 03:00,ZJHK 040300Z 20002MPS 9999 FEW040 33/24 Q1008 NOSIG
ZJHK,2016-06-04 04:00,ZJHK 040400Z 27004MPS 220V300 9999 SCT046 34/23 Q1007 NOSIG
ZJHK,2016-06-04 05:00,ZJHK 040500Z 28003MPS 210V330 9999 SCT046 34/24 Q1007 BECMG TL0650 TS
ZJHK,2016-06-04 06:00,ZJHK 040600Z 36005MPS 8000 TSRA FEW026CB SCT046 30/23 Q1007 WS RWY09 BECMG TL0710 NSW
ZJHK,2016-06-04 07:00,ZJHK 040700Z 36002MPS 340V040 9999 FEW023CB 31/25 Q1006 RETSRA BECMG TL0850 TS
ZJHK,2016-06-04 08:00,ZJHK 040800Z 01005MPS 340V060 9999 FEW023CB SCT046 32/24 Q1006 NOSIG
ZJHK,2016-06-04 09:00,ZJHK 040900Z 12003MPS 9999 FEW026TCU FEW026 29/24 Q1006 NOSIG
ZJHK,2016-06-04 10:00,ZJHK 041000Z 17006MPS 9999 FEW026TCU SCT026 24/20 Q1008 NOSIG
ZJHK,2016-06-04 11:00,ZJHK 041100Z 17002MPS 9999 FEW026 24/21 Q1006 NOSIG
ZJHK,2016-06-04 12:00,ZJHK 041200Z 17003MPS CAVOK 24/21 Q1006 NOSIG
ZJHK,2016-06-04 13:00,ZJHK 041300Z 19002MPS 150V220 CAVOK 24/22 Q1007 NOSIG
ZJHK,2016-06-04 14:00,ZJHK 041400Z 18002MPS CAVOK 24/22 Q1008 NOSIG
ZJHK,2016-06-04 15:00,ZJHK 041500Z 16002MPS 140V200 CAVOK 24/21 Q1008 NOSIG
ZJHK,2016-06-04 16:00,ZJHK 041600Z 20002MPS CAVOK 25/21 Q1008 NOSIG
ZJHK,2016-06-04 17:00,ZJHK 041700Z 27002MPS CAVOK 24/21 Q1008 NOSIG
ZJHK,2016-06-04 18:00,ZJHK 041800Z 16001MPS CAVOK 24/21 Q1007 NOSIG
ZJHK,2016-06-04 19:00,ZJHK 041900Z 09001MPS CAVOK 23/22 Q1007 NOSIG
ZJHK,2016-06-04 20:00,ZJHK 042000Z 11001MPS CAVOK 23/22 Q1007 NOSIG
ZJHK,2016-06-04 21:00,ZJHK 042100Z 00000MPS CAVOK 23/22 Q1007 NOSIG
ZJHK,2016-06-04 22:00,ZJHK 042200Z 00000MPS CAVOK 23/22 Q1007 NOSIG
ZJHK,2016-06-04 23:00,ZJHK 042300Z 21001MPS CAVOK 25/23 Q1008 NOSIG
ZJHK,2016-06-05 00:00,ZJHK 050000Z 17002MPS 140V200 CAVOK 27/24 Q1008 NOSIG
ZJHK,2016-06-05 01:00,ZJHK 050100Z 21003MPS 180V240 CAVOK 29/24 Q1008 NOSIG
ZJHK,2016-06-05 02:00,ZJHK 050200Z 19002MPS 160V220 CAVOK 31/24 Q1008 NOSIG
ZJHK,2016-06-05 03:00,ZJHK 050300Z 21002MPS CAVOK 32/24 Q1008 NOSIG
ZJHK,2016-06-05 04:00,ZJHK 050400Z 17002MPS 110V250 CAVOK 33/24 Q1008 NOSIG
ZJHK,2016-06-05 05:00,ZJHK 050500Z 16002MPS 9999 FEW023TCU 34/23 Q1007 NOSIG
ZJHK,2016-06-05 06:00,ZJHK 050600Z 17002MPS 9999 FEW023TCU SCT023 35/23 Q1006 BECMG TL0700 TS
ZJHK,2016-06-05 07:00,ZJHK 050700Z 04007MPS 310V070 2000 +TSRA SCT023CB SCT033 27/22 Q1005 BECMG TL0830 18004MPS 9999 -TSRA
ZJHK,2016-06-05 08:00,ZJHK 050800Z 13003MPS 100V160 8000 -TSRA FEW023CB BKN046 23/22 Q1008 RESHRA BECMG TL0930 NSW
ZJHK,2016-06-05 09:00,ZJHK 050900Z 20004MPS 8000 -TSRA FEW023CB BKN033 23/23 Q1008 BECMG TL0950 NSW
ZJHK,2016-06-05 10:00,ZJHK 051000Z 08002MPS 050V110 9999 -SHRA FEW030TCU SCT046 23/23 Q1006 RETS NOSIG
ZJHK,2016-06-05 11:00,ZJHK 051100Z 00000MPS 9999 SCT046 23/23 Q1007 NOSIG
ZJHK,2016-06-05 12:00,ZJHK 051200Z 12001MPS 9999 FEW046 23/23 Q1007 NOSIG
ZJHK,2016-06-05 13:00,ZJHK 051300Z 16002MPS 9999 FEW046 23/23 Q1008 NOSIG
ZJHK,2016-06-05 14:00,ZJHK 051400Z 00000MPS CAVOK 24/23 Q1008 NOSIG
ZJHK,2016-06-05 15:00,ZJHK 051500Z 02001MPS 9999 SCT023 24/23 Q1009 NOSIG
ZJHK,2016-06-05 16:00,ZJHK 051600Z 11001MPS 9999 SCT023 24/23 Q1009 NOSIG
ZJHK,2016-06-05 17:00,ZJHK 051700Z 09002MPS CAVOK 24/23 Q1008 NOSIG
ZJHK,2016-06-05 18:00,ZJHK 051800Z 36001MPS 9999 SCT015 24/23 Q1008 NOSIG
ZJHK,2016-06-05 19:00,ZJHK 051900Z 13001MPS 9999 SCT012 24/23 Q1007 NOSIG
ZJHK,2016-06-05 20:00,ZJHK 052000Z 00000MPS 9999 SCT012 24/23 Q1007 NOSIG
ZJHK,2016-06-05 21:00,ZJHK 052100Z 13001MPS 9999 SCT008 24/23 Q1007 NOSIG
ZJHK,2016-06-05 22:00,ZJHK 052200Z 00000MPS 9999 SCT008 24/23 Q1008 BECMG TL2350 BKN010
ZJHK,2016-06-05 23:00,ZJHK 052300Z 13001MPS 9999 FEW008 24/23 Q1008 BECMG TL2350 BKN010
ZJHK,2016-06-06 00:00,ZJHK 060000Z 00000MPS 9999 FEW008 26/24 Q1008 NOSIG
ZJHK,2016-06-06 01:00,ZJHK 060100Z 00000MPS CAVOK 28/25 Q1008 NOSIG
ZJHK,2016-06-06 02:00,ZJHK 060200Z 23001MPS CAVOK 29/25 Q1009 NOSIG
ZJHK,2016-06-06 03:00,ZJHK 060300Z 17001MPS CAVOK 31/25 Q1009 NOSIG
ZJHK,2016-06-06 04:00,ZJHK 060400Z 25002MPS 9999 -TSRA SCT030CB SCT046 31/25 Q1008 BECMG AT0420 TSRA
ZJHK,2016-06-06 05:00,ZJHK 060500Z 35002MPS 320V020 9999 FEW030TCU SCT046 29/24 Q1008 RETSRA BECMG AT0530 TSRA
ZJHK,2016-06-06 06:00,ZJHK 060600Z 25010G16MPS 6000 TSRA FEW026CB BKN040 25/21 Q1009 BECMG AT0730 -SHRA
ZJHK,2016-06-06 07:00,ZJHK 060700Z 10005MPS 9999 -TSRA FEW013 FEW026CB BKN040 22/21 Q1009 RESHRA BECMG AT0730 TSRA
ZJHK,2016-06-06 08:00,ZJHK 060800Z VRB02MPS 5000 TSRA FEW013 FEW026CB BKN040 22/22 Q1009 BECMG AT0840 -SHRA
ZJHK,2016-06-06 09:00,ZJHK 060900Z 16002MPS 8000 -TSRA FEW013 FEW026CB BKN046 23/22 Q1007 RESHRA BECMG TL0940 NSW
ZJHK,2016-06-06 10:00,ZJHK 061000Z 17002MPS 9999 -SHRA FEW013 FEW030CB SCT046 23/22 Q1006 RETS NOSIG
ZJHK,2016-06-06 11:00,ZJHK 061100Z 20002MPS 9999 -RA FEW013 23/22 Q1007 NOSIG
ZJHK,2016-06-06 12:00,ZJHK 061200Z 05001MPS CAVOK 23/22 Q1008 NOSIG
ZJHK,2016-06-06 13:00,ZJHK 061300Z 13001MPS CAVOK 23/22 Q1008 NOSIG
ZJHK,2016-06-06 14:00,ZJHK 061400Z 12001MPS CAVOK 23/22 Q1008 NOSIG
ZJHK,2016-06-06 15:00,ZJHK 061500Z 14001MPS CAVOK 23/22 Q1009 NOSIG
ZJHK,2016-06-06 16:00,ZJHK 061600Z 17001MPS CAVOK 23/22 Q1009 NOSIG
ZJHK,2016-06-06 17:00,ZJHK 061700Z 00000MPS CAVOK 23/22 Q1008 NOSIG
ZJHK,2016-06-06 18:00,ZJHK 061800Z 19002MPS CAVOK 23/22 Q1008 NOSIG
ZJHK,2016-06-06 19:00,ZJHK 061900Z 00000MPS CAVOK 23/22 Q1007 NOSIG
ZJHK,2016-06-06 20:00,ZJHK 062000Z 00000MPS CAVOK 23/21 Q1008 NOSIG
ZJHK,2016-06-06 21:00,ZJHK 062100Z 00000MPS CAVOK 22/22 Q1008 NOSIG
ZJHK,2016-06-06 22:00,ZJHK 062200Z 00000MPS CAVOK 23/22 Q1008 NOSIG
ZJHK,2016-06-06 23:00,ZJHK 062300Z 20001MPS CAVOK 24/22 Q1008 NOSIG
ZJHK,2016-06-07 00:00,ZJHK 070000Z 21002MPS 170V240 CAVOK 25/23 Q1009 NOSIG
ZJHK,2016-06-07 01:00,ZJHK 070100Z 22002MPS 180V250 CAVOK 27/24 Q1009 NOSIG
ZJHK,2016-06-07 02:00,ZJHK 070200Z 21002MPS CAVOK 29/24 Q1009 NOSIG
ZJHK,2016-06-07 03:00,ZJHK 070300Z 23002MPS 9999 FEW023 31/24 Q1009 NOSIG
ZJHK,2016-06-07 04:00,ZJHK 070400Z 28001MPS 9999 SCT040 32/24 Q1008 NOSIG
ZJHK,2016-06-07 05:00,ZJHK 070500Z 03004MPS 010V070 9999 FEW026 SCT040 31/25 Q1007 NOSIG
ZJHK,2016-06-07 06:00,ZJHK 070600Z 02003MPS 350V080 9999 FEW026CB FEW026 SCT040 30/24 Q1006 RESHRA BECMG AT0730 TS
ZJHK,2016-06-07 07:00,ZJHK 070700Z 03003MPS 320V100 9999 SCT023CB FEW023 SCT046 30/24 Q1006 BECMG AT0730 -TSRA
ZJHK,2016-06-07 08:00,ZJHK 070800Z 16004MPS 130V190 2500 +TSRA SCT010 SCT020CB 23/22 Q1007 BECMG AT0930 8000 TS
ZJHK,2016-06-07 09:00,ZJHK 070900Z 29001MPS 9999 -TSRA SCT010 SCT020CB 23/23 Q1006 RESHRA BECMG AT1010 NSW
ZJHK,2016-06-07 10:00,ZJHK 071000Z 14001MPS 9999 -SHRA FEW020CB SCT046 24/23 Q1006 RETS NOSIG
ZJHK,2016-06-07 11:00,ZJHK 071100Z 21003MPS 180V240 9999 -SHRA FEW010 FEW020CB SCT046 24/23 Q1007 NOSIG
ZJHK,2016-06-07 12:00,ZJHK 071200Z 20003MPS 9999 SCT046 24/23 Q1007 NOSIG
ZJHK,2016-06-07 13:00,ZJHK 071300Z 15001MPS 9999 SCT046 24/23 Q1007 NOSIG
ZJHK,2016-06-07 14:00,ZJHK 071400Z 21002MPS 180V250 CAVOK 24/23 Q1008 NOSIG
ZJHK,2016-06-07 15:00,ZJHK 071500Z 23003MPS CAVOK 24/23 Q1008 NOSIG
ZJHK,2016-06-07 16:00,ZJHK 071600Z 19002MPS 8000 NSC 24/23 Q1007 NOSIG
ZJHK,2016-06-07 17:00,ZJHK 071700Z 10001MPS 8000 NSC 23/22 Q1007 NOSIG
ZJHK,2016-06-07 18:00,ZJHK 071800Z 12001MPS 8000 NSC 23/23 Q1006 NOSIG
ZJHK,2016-06-07 19:00,ZJHK 071900Z 15001MPS 8000 NSC 23/23 Q1006 NOSIG
ZJHK,2016-06-07 20:00,ZJHK 072000Z 14001MPS 8000 NSC 23/22 Q1006 NOSIG
ZJHK,2016-06-07 21:00,ZJHK 072100Z 21001MPS 8000 NSC 23/23 Q1005 NOSIG
ZJHK,2016-06-07 22:00,ZJHK 072200Z 00000MPS 5000 BR NSC 23/22 Q1004 NOSIG
ZJHK,2016-06-07 23:00,ZJHK 072300Z 24001MPS 8000 NSC 24/23 Q1006 NOSIG
ZJHK,2016-06-08 00:00,ZJHK 080000Z 21001MPS CAVOK 26/24 Q1006 NOSIG
ZJHK,2016-06-08 01:00,ZJHK 080100Z 23002MPS CAVOK 28/24 Q1006 NOSIG
ZJHK,2016-06-08 02:00,ZJHK 080200Z 26002MPS 230V290 CAVOK 29/24 Q1006 NOSIG
ZJHK,2016-06-08 03:00,ZJHK 080300Z 24001MPS 9999 SCT023 30/24 Q1006 NOSIG
ZJHK,2016-06-08 04:00,ZJHK 080400Z 26003MPS 220V300 9999 SCT023 32/23 Q1006 NOSIG
ZJHK,2016-06-08 05:00,ZJHK 080500Z 30002MPS 9999 FEW023 32/23 Q1005 NOSIG
ZJHK,2016-06-08 06:00,ZJHK 080600Z 20002MPS 9999 FEW023TCU SCT023 32/23 Q1005 NOSIG
ZJHK,2016-06-08 07:00,ZJHK 080700Z 03003MPS 360V060 9999 FEW023TCU SCT023 29/23 Q1004 NOSIG
ZJHK,2016-06-08 08:00,ZJHK 080800Z 04003MPS 360V060 9999 FEW026CB FEW026 31/23 Q1003 NOSIG
ZJHK,2016-06-08 09:00,ZJHK 080900Z 16005G11MPS 130V210 9999 -SHRA FEW010 SCT020CB BKN033 26/24 Q1004 BECMG AT0920 TSRA
ZJHK,2016-06-08 10:00,ZJHK 081000Z 26002MPS 9999 -TSRA SCT006 FEW020CB SCT026 25/23 Q1003 RESHRA BECMG TL1030 NSW
ZJHK,2016-06-08 11:00,ZJHK 081100Z 23001MPS 9999 BKN040 25/23 Q1004 RETS NOSIG
ZJHK,2016-06-08 12:00,ZJHK 081200Z 26002MPS 9999 SCT040 24/23 Q1005 NOSIG
ZJHK,2016-06-08 13:00,ZJHK 081300Z 23003MPS 9999 BKN040 24/23 Q1006 NOSIG
ZJHK,2016-06-08 14:00,ZJHK 081400Z 23002MPS 9999 FEW040 24/23 Q1006 NOSIG
ZJHK,2016-06-08 15:00,ZJHK 081500Z 22003MPS CAVOK 24/23 Q1006 NOSIG
ZJHK,2016-06-08 16:00,ZJHK 081600Z 24003MPS CAVOK 24/23 Q1006 NOSIG
ZJHK,2016-06-08 17:00,ZJHK 081700Z 24003MPS CAVOK 24/23 Q1005 NOSIG
ZJHK,2016-06-08 18:00,ZJHK 081800Z 21002MPS CAVOK 24/23 Q1005 NOSIG
ZJHK,2016-06-08 19:00,ZJHK 081900Z 22001MPS CAVOK 24/23 Q1004 NOSIG
ZJHK,2016-06-08 20:00,ZJHK 082000Z 23002MPS CAVOK 24/23 Q1004 NOSIG
ZJHK,2016-06-08 21:00,ZJHK 082100Z 27001MPS CAVOK 24/23 Q1005 NOSIG
ZJHK,2016-06-08 22:00,ZJHK 082200Z 22001MPS CAVOK 24/23 Q1005 NOSIG
ZJHK,2016-06-08 23:00,ZJHK 082300Z 18001MPS CAVOK 24/23 Q1005 NOSIG
ZJHK,2016-06-09 00:00,ZJHK 090000Z 19001MPS CAVOK 26/24 Q1005 NOSIG
ZJHK,2016-06-09 01:00,ZJHK 090100Z 23001MPS CAVOK 27/24 Q1006 NOSIG
ZJHK,2016-06-09 02:00,ZJHK 090200Z 02001MPS 9999 BKN046 28/24 Q1006 NOSIG
ZJHK,2016-06-09 03:00,ZJHK 090300Z 24001MPS 9999 SCT046 29/24 Q1006 NOSIG
ZJHK,2016-06-09 04:00,ZJHK 090400Z 21001MPS 9999 FEW020 SCT046 30/24 Q1005 NOSIG
ZJHK,2016-06-09 05:00,ZJHK 090500Z 26002MPS 220V290 9999 SCT023 SCT033 30/24 Q1005 NOSIG
ZJHK,2016-06-09 06:00,ZJHK 090600Z 03003MPS 350V050 9999 SCT033 30/24 Q1004 NOSIG
ZJHK,2016-06-09 07:00,ZJHK 090700Z 03003MPS 9999 FEW023 29/24 Q1004 NOSIG
ZJHK,2016-06-09 08:00,ZJHK 090800Z 03003MPS 360V060 9999 FEW026CB 29/23 Q1003 BECMG AT0840 -TSRA
ZJHK,2016-06-09 09:00,ZJHK 090900Z 18002MPS 7000 -SHRA SCT012 FEW023CB SCT040 26/24 Q1004 RESHRA NOSIG
ZJHK,2016-06-09 10:00,ZJHK 091000Z 19002MPS 9999 -SHRA FEW026TCU SCT030 25/24 Q1005 NOSIG
ZJHK,2016-06-09 11:00,ZJHK 091100Z 18002MPS 140V210 CAVOK 24/23 Q1005 NOSIG
ZJHK,2016-06-09 12:00,ZJHK 091200Z 20002MPS CAVOK 24/23 Q1005 NOSIG
ZJHK,2016-06-09 13:00,ZJHK 091300Z 16001MPS CAVOK 24/23 Q1006 NOSIG
ZJHK,2016-06-09 14:00,ZJHK 091400Z 19001MPS 9999 FEW033 24/23 Q1006 NOSIG
ZJHK,2016-06-09 15:00,ZJHK 091500Z 19001MPS CAVOK 24/23 Q1006 NOSIG
ZJHK,2016-06-09 16:00,ZJHK 091600Z 21001MPS CAVOK 24/23 Q1006 NOSIG
ZJHK,2016-06-09 17:00,ZJHK 091700Z 00000MPS CAVOK 24/23 Q1006 NOSIG
ZJHK,2016-06-09 18:00,ZJHK 091800Z 21001MPS CAVOK 25/23 Q1005 NOSIG
ZJHK,2016-06-09 19:00,ZJHK 091900Z 21001MPS CAVOK 25/23 Q1004 NOSIG
ZJHK,2016-06-09 20:00,ZJHK 092000Z 21001MPS CAVOK 25/23 Q1004 NOSIG
ZJHK,2016-06-09 21:00,ZJHK 092100Z 12002MPS CAVOK 24/23 Q1004 NOSIG
ZJHK,2016-06-09 22:00,ZJHK 092200Z 17001MPS CAVOK 24/23 Q1005 NOSIG
ZJHK,2016-06-09 23:00,ZJHK 092300Z 16002MPS CAVOK 24/23 Q1005 NOSIG
ZJHK,2016-06-10 00:00,ZJHK 100000Z 21002MPS CAVOK 27/24 Q1006 NOSIG
ZJHK,2016-06-10 01:00,ZJHK 100100Z 21001MPS CAVOK 29/24 Q1005 NOSIG
ZJHK,2016-06-10 02:00,ZJHK 100200Z 23002MPS CAVOK 30/25 Q1006 NOSIG
ZJHK,2016-06-10 03:00,ZJHK 100300Z 22001MPS CAVOK 31/24 Q1005 NOSIG
ZJHK,2016-06-10 04:00,ZJHK 100400Z 21002MPS 9999 SCT023 32/24 Q1005 NOSIG
ZJHK,2016-06-10 05:00,ZJHK 100500Z 19001MPS 9999 FEW023CB SCT023 31/23 Q1005 BECMG AT0620 TS
ZJHK,2016-06-10 06:00,ZJHK 100600Z 02005MPS 9999 FEW023CB BKN033 31/24 Q1004 BECMG AT0640 26007G15MPS TSRA
ZJHK,2016-06-10 07:00,ZJHK 100700Z 02002MPS 310V080 6000 -TSRA SCT007 SCT023CB BKN033 24/23 Q1005 RESHRA BECMG AT0850 NSW
ZJHK,2016-06-10 08:00,ZJHK 100800Z 17003MPS 9999 -TSRA FEW023CB BKN033 24/24 Q1005 BECMG AT0900 NSW
ZJHK,2016-06-10 09:00,ZJHK 100900Z 14003MPS 9999 -SHRA FEW033CB FEW033 24/23 Q1004 RETS NOSIG
ZJHK,2016-06-10 10:00,ZJHK 101000Z 16003MPS 140V200 9999 -RA FEW006 24/24 Q1004 NOSIG
ZJHK,2016-06-10 11:00,ZJHK 101100Z 20002MPS 9999 -RA FEW006 25/24 Q1004 NOSIG
ZJHK,2016-06-10 12:00,ZJHK 101200Z 19002MPS CAVOK 25/24 Q1005 NOSIG
ZJHK,2016-06-10 13:00,ZJHK 101300Z 20001MPS CAVOK 25/24 Q1005 NOSIG
ZJHK,2016-06-10 14:00,ZJHK 101400Z 23001MPS CAVOK 25/24 Q1005 NOSIG
ZJHK,2016-06-10 15:00,ZJHK 101500Z 20002MPS CAVOK 25/24 Q1006 NOSIG
ZJHK,2016-06-10 16:00,ZJHK 101600Z 15001MPS CAVOK 24/24 Q1005 NOSIG
ZJHK,2016-06-10 17:00,ZJHK 101700Z 20001MPS CAVOK 25/24 Q1005 NOSIG
ZJHK,2016-06-10 18:00,ZJHK 101800Z 00000MPS CAVOK 24/23 Q1005 NOSIG
ZJHK,2016-06-10 19:00,ZJHK 101900Z 17001MPS CAVOK 24/23 Q1004 NOSIG
ZJHK,2016-06-10 20:00,ZJHK 102000Z 00000MPS 9999 FEW046 24/23 Q1004 NOSIG
ZJHK,2016-06-10 21:00,ZJHK 102100Z 19001MPS 9999 FEW046 25/24 Q1004 NOSIG
ZJHK,2016-06-10 22:00,ZJHK 102200Z 17001MPS CAVOK 24/23 Q1004 NOSIG
ZJHK,2016-06-10 23:00,ZJHK 102300Z 21001MPS CAVOK 25/24 Q1005 NOSIG
ZJHK,2016-06-11 00:00,ZJHK 110000Z 19002MPS 160V220 CAVOK 26/24 Q1005 NOSIG
ZJHK,2016-06-11 01:00,ZJHK 110100Z 21003MPS 170V230 9999 -RA BKN046 27/24 Q1006 NOSIG
ZJHK,2016-06-11 02:00,ZJHK 110200Z 17002MPS 140V200 9999 FEW026TCU FEW026 29/25 Q1006 NOSIG
ZJHK,2016-06-11 03:00,ZJHK 110300Z 17003MPS 130V200 9999 FEW026 30/24 Q1005 NOSIG
ZJHK,2016-06-11 04:00,ZJHK 110400Z 17003MPS 130V220 9999 FEW026 31/25 Q1005 NOSIG
ZJHK,2016-06-11 05:00,ZJHK 110500Z 17003MPS 140V200 9999 FEW026 32/25 Q1004 NOSIG
ZJHK,2016-06-11 06:00,ZJHK 110600Z 16003MPS 120V220 9999 FEW026 32/26 Q1003 NOSIG
ZJHK,2016-06-11 07:00,ZJHK 110700Z 20003MPS 160V240 9999 FEW023 33/25 Q1003 NOSIG
ZJHK,2016-06-11 08:00,ZJHK 110800Z 23002MPS 180V250 9999 SCT023 33/25 Q1002 NOSIG
ZJHK,2016-06-11 09:00,ZJHK 110900Z 16001MPS 9999 FEW023CB SCT033 32/25 Q1002 BECMG AT1000 TSRA
ZJHK,2016-06-11 10:00,ZJHK 111000Z VRB03MPS 6000 TSRA SCT023CB BKN033 28/24 Q1004 BECMG AT1100 NSW
ZJHK,2016-06-11 11:00,ZJHK 111100Z 10003MPS 9999 -TSRA FEW023CB BKN033 25/24 Q1004 RESHRA BECMG AT1200 NSW
ZJHK,2016-06-11 12:00,ZJHK 111200Z 14001MPS 9999 FEW023CB SCT033 26/24 Q1005 RETS NOSIG
ZJHK,2016-06-11 13:00,ZJHK 111300Z 14002MPS 9999 -SHRA FEW023CB SCT033 25/24 Q1005 NOSIG
ZJHK,2016-06-11 14:00,ZJHK 111400Z 12001MPS 9999 SCT033 25/24 Q1006 NOSIG
ZJHK,2016-06-11 15:00,ZJHK 111500Z 14002MPS 9999 FEW033 25/24 Q1006 NOSIG
ZJHK,2016-06-11 16:00,ZJHK 111600Z 15001MPS 9999 FEW033 25/24 Q1006 NOSIG
ZJHK,2016-06-11 17:00,ZJHK 111700Z 21001MPS CAVOK 25/24 Q1005 NOSIG
ZJHK,2016-06-11 18:00,ZJHK 111800Z 21001MPS CAVOK 26/24 Q1005 NOSIG
ZJHK,2016-06-11 19:00,ZJHK 111900Z 21003MPS 180V250 CAVOK 26/24 Q1004 NOSIG
ZJHK,2016-06-11 20:00,ZJHK 112000Z 19002MPS CAVOK 25/24 Q1004 NOSIG
ZJHK,2016-06-11 21:00,ZJHK 112100Z 19002MPS CAVOK 25/23 Q1004 NOSIG
ZJHK,2016-06-11 22:00,ZJHK 112200Z 18002MPS CAVOK 25/23 Q1005 NOSIG
ZJHK,2016-06-11 23:00,ZJHK 112300Z 19003MPS 160V220 CAVOK 26/23 Q1005 NOSIG
ZJHK,2016-06-12 00:00,ZJHK 120000Z 19003MPS CAVOK 27/24 Q1005 NOSIG
ZJHK,2016-06-12 01:00,ZJHK 120100Z 20004MPS 170V240 CAVOK 30/24 Q1006 NOSIG
ZJHK,2016-06-12 02:00,ZJHK 120200Z 19004MPS 160V230 CAVOK 31/24 Q1005 NOSIG
ZJHK,2016-06-12 03:00,ZJHK 120300Z 21003MPS 180V240 CAVOK 32/24 Q1005 NOSIG
ZJHK,2016-06-12 04:00,ZJHK 120400Z 22003MPS 190V250 CAVOK 33/24 Q1005 NOSIG
ZJHK,2016-06-12 05:00,ZJHK 120500Z 21003MPS 180V250 9999 FEW026 34/24 Q1004 NOSIG
ZJHK,2016-06-12 06:00,ZJHK 120600Z 21002MPS 9999 SCT026 34/24 Q1004 NOSIG
ZJHK,2016-06-12 07:00,ZJHK 120700Z 17002MPS 9999 FEW026TCU FEW026 35/24 Q1003 NOSIG
ZJHK,2016-06-12 08:00,ZJHK 120800Z 01003MPS 340V050 9999 FEW030CB SCT040 33/24 Q1003 BECMG TL0830 27010G17MPS 2000 TSRA
ZJHK,2016-06-12 09:00,ZJHK 120900Z 32003MPS 260V010 9999 -TSRA SCT013 FEW023CB BKN040 29/24 Q1003 RESHRA BECMG TL1020 NSW
ZJHK,2016-06-12 10:00,ZJHK 121000Z 14004MPS 9999 -TSRA FEW013 FEW023CB SCT040 24/22 Q1004 BECMG TL1040 NSW
ZJHK,2016-06-12 11:00,ZJHK 121100Z 13002MPS 9999 FEW023CB FEW023 24/23 Q1005 RETS NOSIG
ZJHK,2016-06-12 12:00,ZJHK 121200Z 18002MPS 9999 -RA FEW023 24/23 Q1005 RETS NOSIG
ZJHK,2016-06-12 13:00,ZJHK 121300Z 00000MPS 9999 FEW040 24/22 Q1005 NOSIG
ZJHK,2016-06-12 14:00,ZJHK 121400Z 18002MPS CAVOK 24/23 Q1006 NOSIG
ZJHK,2016-06-12 15:00,ZJHK 121500Z 18002MPS CAVOK 24/22 Q1006 NOSIG
ZJHK,2016-06-12 16:00,ZJHK 121600Z 19001MPS CAVOK 24/23 Q1006 NOSIG
ZJHK,2016-06-12 17:00,ZJHK 121700Z 20002MPS CAVOK 24/23 Q1005 NOSIG
ZJHK,2016-06-12 18:00,ZJHK 121800Z 20001MPS CAVOK 25/23 Q1005 NOSIG
ZJHK,2016-06-12 19:00,ZJHK 121900Z 19002MPS CAVOK 25/23 Q1005 NOSIG
ZJHK,2016-06-12 20:00,ZJHK 122000Z 17001MPS CAVOK 24/23 Q1005 NOSIG
ZJHK,2016-06-12 21:00,ZJHK 122100Z 18002MPS CAVOK 25/23 Q1005 NOSIG
ZJHK,2016-06-12 22:00,ZJHK 122200Z 18003MPS CAVOK 25/23 Q1005 NOSIG
ZJHK,2016-06-12 23:00,ZJHK 122300Z 18002MPS 150V210 CAVOK 26/23 Q1006 NOSIG
ZJHK,2016-06-13 00:00,ZJHK 130000Z 19003MPS 9999 FEW023 27/24 Q1006 NOSIG
ZJHK,2016-06-13 01:00,ZJHK 130100Z 19003MPS 160V220 CAVOK 29/24 Q1006 NOSIG
ZJHK,2016-06-13 02:00,ZJHK 130200Z 21003MPS 170V250 CAVOK 30/24 Q1006 NOSIG
ZJHK,2016-06-13 03:00,ZJHK 130300Z 22003MPS 190V250 CAVOK 31/25 Q1005 NOSIG
ZJHK,2016-06-13 04:00,ZJHK 130400Z 21004MPS 180V240 CAVOK 33/24 Q1005 NOSIG
ZJHK,2016-06-13 05:00,ZJHK 130500Z 21003MPS 150V240 9999 FEW023 33/24 Q1004 NOSIG
ZJHK,2016-06-13 06:00,ZJHK 130600Z 22003MPS 180V260 9999 FEW023 34/24 Q1003 NOSIG
ZJHK,2016-06-13 07:00,ZJHK 130700Z 22002MPS 160V260 9999 SCT023 34/24 Q1002 NOSIG
ZJHK,2016-06-13 08:00,ZJHK 130800Z VRB04MPS 9999 FEW023TCU FEW023 34/23 Q1002 NOSIG
ZJHK,2016-06-13 09:00,ZJHK 130900Z 36003MPS 9999 FEW023TCU 33/23 Q1002 NOSIG
ZJHK,2016-06-13 10:00,ZJHK 131000Z 01002MPS 340V050 9999 FEW023CB 33/23 Q1002 NOSIG
ZJHK,2016-06-13 11:00,ZJHK 131100Z 13002MPS 100V190 9999 FEW046 31/24 Q1003 NOSIG
ZJHK,2016-06-13 12:00,ZJHK 131200Z 10003MPS 9999 FEW030TCU FEW046 29/24 Q1003 NOSIG
ZJHK,2016-06-13 13:00,ZJHK 131300Z 12002MPS 9999 FEW040CB FEW046 28/26 Q1004 NOSIG
ZJHK,2016-06-13 14:00,ZJHK 131400Z 10002MPS CAVOK 27/26 Q1005 NOSIG
ZJHK,2016-06-13 15:00,ZJHK 131500Z 09002MPS 9999 FEW033TCU 27/25 Q1005 NOSIG
ZJHK,2016-06-13 16:00,ZJHK 131600Z 15001MPS 9999 SCT046 27/26 Q1005 NOSIG
ZJHK,2016-06-13 17:00,ZJHK 131700Z 16001MPS 8000 NSC 27/26 Q1004 NOSIG
ZJHK,2016-06-13 18:00,ZJHK 131800Z 00000MPS CAVOK 26/25 Q1004 NOSIG
ZJHK,2016-06-13 19:00,ZJHK 131900Z 22002MPS CAVOK 26/24 Q1004 NOSIG
ZJHK,2016-06-13 20:00,ZJHK 132000Z 19001MPS CAVOK 25/23 Q1003 NOSIG
ZJHK,2016-06-13 21:00,ZJHK 132100Z 19002MPS CAVOK 26/23 Q1003 NOSIG
ZJHK,2016-06-13 22:00,ZJHK 132200Z 18002MPS CAVOK 25/22 Q1003 NOSIG
ZJHK,2016-06-13 23:00,ZJHK 132300Z 17003MPS CAVOK 26/23 Q1004 NOSIG
ZJHK,2016-06-14 00:00,ZJHK 140000Z 19004MPS CAVOK 28/23 Q1004 NOSIG
ZJHK,2016-06-14 01:00,ZJHK 140100Z 21004MPS 170V240 CAVOK 29/24 Q1004 NOSIG
ZJHK,2016-06-14 02:00,ZJHK 140200Z 20004MPS 170V240 CAVOK 31/24 Q1004 NOSIG
ZJHK,2016-06-14 03:00,ZJHK 140300Z 21005MPS CAVOK 32/24 Q1004 NOSIG
ZJHK,2016-06-14 04:00,ZJHK 140400Z 22003MPS 170V260 CAVOK 33/25 Q1004 NOSIG
ZJHK,2016-06-14 05:00,ZJHK 140500Z 21003MPS 170V240 9999 FEW026 34/25 Q1003 NOSIG
ZJHK,2016-06-14 06:00,ZJHK 140600Z 23002MPS 190V280 9999 SCT026 35/24 Q1002 NOSIG
ZJHK,2016-06-14 07:00,ZJHK 140700Z 20003MPS 150V240 9999 SCT026 34/24 Q1002 NOSIG
ZJHK,2016-06-14 08:00,ZJHK 140800Z 22001MPS 9999 SCT026 35/24 Q1001 NOSIG
ZJHK,2016-06-14 09:00,ZJHK 140900Z 02004MPS 350V060 9999 FEW026TCU FEW026 33/24 Q1001 NOSIG
ZJHK,2016-06-14 10:00,ZJHK 141000Z 03003MPS 350V060 9999 FEW026CB SCT033 32/24 Q1001 NOSIG
ZJHK,2016-06-14 11:00,ZJHK 141100Z 17003MPS 140V210 9999 -TSRA FEW026CB SCT033 28/23 Q1002 BECMG AT1120 NSW
ZJHK,2016-06-14 12:00,ZJHK 141200Z 19001MPS 9999 BKN033 28/22 Q1003 RETS NOSIG
ZJHK,2016-06-14 13:00,ZJHK 141300Z 24002MPS 9999 BKN033 27/23 Q1004 NOSIG
ZJHK,2016-06-14 14:00,ZJHK 141400Z 21003MPS 9999 SCT040 26/23 Q1004 NOSIG
ZJHK,2016-06-14 15:00,ZJHK 141500Z 21002MPS 170V240 9999 FEW040 26/23 Q1004 NOSIG
ZJHK,2016-06-14 16:00,ZJHK 141600Z 00000MPS 9999 FEW026TCU BKN040 26/22 Q1004 NOSIG
ZJHK,2016-06-14 17:00,ZJHK 141700Z 17001MPS 9999 BKN040 25/22 Q1004 NOSIG
ZJHK,2016-06-14 18:00,ZJHK 141800Z 22003MPS 190V250 9999 BKN040 26/22 Q1003 NOSIG
ZJHK,2016-06-14 19:00,ZJHK 141900Z 21002MPS CAVOK 25/22 Q1003 NOSIG
ZJHK,2016-06-14 20:00,ZJHK 142000Z 20001MPS CAVOK 25/22 Q1003 NOSIG
ZJHK,2016-06-14 21:00,ZJHK 142100Z 19002MPS CAVOK 25/23 Q1003 NOSIG
ZJHK,2016-06-14 22:00,ZJHK 142200Z 18003MPS CAVOK 26/24 Q1004 NOSIG
ZJHK,2016-06-14 23:00,ZJHK 142300Z 19003MPS 140V210 CAVOK 26/23 Q1004 NOSIG
ZJHK,2016-06-15 00:00,ZJHK 150000Z 19004MPS CAVOK 28/24 Q1004 NOSIG
ZJHK,2016-06-15 01:00,ZJHK 150100Z 19004MPS 160V220 CAVOK 30/24 Q1005 NOSIG
ZJHK,2016-06-15 02:00,ZJHK 150200Z 20004MPS 170V240 CAVOK 32/23 Q1005 NOSIG
ZJHK,2016-06-15 03:00,ZJHK 150300Z 21004MPS 170V240 CAVOK 33/24 Q1005 NOSIG
ZJHK,2016-06-15 04:00,ZJHK 150400Z 21004MPS CAVOK 33/24 Q1005 NOSIG
ZJHK,2016-06-15 05:00,ZJHK 150500Z 20004MPS 160V230 CAVOK 34/24 Q1004 NOSIG
ZJHK,2016-06-15 06:00,ZJHK 150600Z 22004MPS 9999 SCT030 34/24 Q1004 NOSIG
ZJHK,2016-06-15 07:00,ZJHK 150700Z 20003MPS 160V310 9999 SCT030 35/24 Q1003 NOSIG
ZJHK,2016-06-15 08:00,ZJHK 150800Z 21003MPS 9999 FEW033TCU BKN033 34/23 Q1002 NOSIG
ZJHK,2016-06-15 09:00,ZJHK 150900Z 17003MPS 120V210 9999 FEW026CB SCT026 31/26 Q1002 BECMG AT0920 TS
ZJHK,2016-06-15 10:00,ZJHK 151000Z VRB03MPS 9999 TS FEW026CB BKN026 29/22 Q1003 BECMG TL1100 NSW
ZJHK,2016-06-15 11:00,ZJHK 151100Z 32001MPS 9999 TS FEW026CB SCT040 27/23 Q1003 BECMG NSW
ZJHK,2016-06-15 12:00,ZJHK 151200Z 22005MPS 170V240 9999 -TSRA FEW026CB SCT040 26/22 Q1004 BECMG TL1300 NSW
ZJHK,2016-06-15 13:00,ZJHK 151300Z 17002MPS CAVOK 26/23 Q1004 RETS NOSIG
ZJHK,2016-06-15 14:00,ZJHK 151400Z 16002MPS CAVOK 26/25 Q1005 NOSIG
ZJHK,2016-06-15 15:00,ZJHK 151500Z 14001MPS CAVOK 27/26 Q1006 NOSIG
ZJHK,2016-06-15 16:00,ZJHK 151600Z 17003MPS 140V200 CAVOK 27/26 Q1006 NOSIG
ZJHK,2016-06-15 17:00,ZJHK 151700Z 17003MPS CAVOK 27/26 Q1006 NOSIG
ZJHK,2016-06-15 18:00,ZJHK 151800Z 19003MPS 160V230 CAVOK 27/26 Q1005 NOSIG
ZJHK,2016-06-15 19:00,ZJHK 151900Z 21002MPS 180V240 CAVOK 27/26 Q1005 NOSIG
ZJHK,2016-06-15 20:00,ZJHK 152000Z 19002MPS CAVOK 26/25 Q1004 NOSIG
ZJHK,2016-06-15 21:00,ZJHK 152100Z 20001MPS CAVOK 26/25 Q1004 NOSIG
ZJHK,2016-06-15 22:00,ZJHK 152200Z 18002MPS 9999 FEW020 26/25 Q1004 NOSIG
ZJHK,2016-06-15 23:00,ZJHK 152300Z 18002MPS CAVOK 26/25 Q1005 NOSIG
ZJHK,2016-06-16 00:00,ZJHK 160000Z 20002MPS CAVOK 28/25 Q1006 NOSIG
ZJHK,2016-06-16 01:00,ZJHK 160100Z 21002MPS 180V240 CAVOK 29/25 Q1006 NOSIG
ZJHK,2016-06-16 02:00,ZJHK 160200Z 19003MPS 160V220 CAVOK 30/24 Q1007 NOSIG
ZJHK,2016-06-16 03:00,ZJHK 160300Z 23003MPS 210V270 CAVOK 31/25 Q1007 NOSIG
ZJHK,2016-06-16 04:00,ZJHK 160400Z 19002MPS 9999 FEW020 32/25 Q1007 NOSIG
ZJHK,2016-06-16 05:00,ZJHK 160500Z 25001MPS 9999 FEW023TCU FEW023 33/24 Q1006 NOSIG
ZJHK,2016-06-16 06:00,ZJHK 160600Z 21001MPS 9999 FEW026CB FEW026 33/23 Q1006 NOSIG
ZJHK,2016-06-16 07:00,ZJHK 160700Z 35005MPS 310V030 9999 FEW013 FEW026CB 31/22 Q1005 BECMG TS
ZJHK,2016-06-16 08:00,ZJHK 160800Z 01003MPS 330V050 9999 FEW015 FEW026CB SCT040 30/22 Q1005 NOSIG
ZJHK,2016-06-16 09:00,ZJHK 160900Z 14003MPS 100V180 9999 FEW026CB SCT040 25/22 Q1006 NOSIG
ZJHK,2016-06-16 10:00,ZJHK 161000Z 21003MPS 9999 -SHRA FEW020 FEW026CB SCT040 25/22 Q1006 NOSIG
ZJHK,2016-06-16 11:00,ZJHK 161100Z 15002MPS 080V190 9999 -SHRA FEW033CB SCT040 24/23 Q1005 NOSIG
ZJHK,2016-06-16 12:00,ZJHK 161200Z 22002MPS 9999 SCT040 24/23 Q1006 NOSIG
ZJHK,2016-06-16 13:00,ZJHK 161300Z 26003MPS 9999 FEW006 24/23 Q1007 NOSIG
ZJHK,2016-06-16 14:00,ZJHK 161400Z 26002MPS CAVOK 24/22 Q1008 NOSIG
ZJHK,2016-06-16 15:00,ZJHK 161500Z 24002MPS CAVOK 24/23 Q1008 NOSIG
ZJHK,2016-06-16 16:00,ZJHK 161600Z 20001MPS CAVOK 24/23 Q1008 NOSIG
ZJHK,2016-06-16 17:00,ZJHK 161700Z 22002MPS CAVOK 24/23 Q1008 NOSIG
ZJHK,2016-06-16 18:00,ZJHK 161800Z 28001MPS CAVOK 24/23 Q1007 NOSIG
ZJHK,2016-06-16 19:00,ZJHK 161900Z 27001MPS CAVOK 23/23 Q1007 NOSIG
ZJHK,2016-06-16 20:00,ZJHK 162000Z 00000MPS CAVOK 23/23 Q1006 NOSIG
ZJHK,2016-06-16 21:00,ZJHK 162100Z 00000MPS CAVOK 23/23 Q1007 NOSIG
ZJHK,2016-06-16 22:00,ZJHK 162200Z 22001MPS CAVOK 24/23 Q1008 NOSIG
ZJHK,2016-06-16 23:00,ZJHK 162300Z 24002MPS CAVOK 25/23 Q1008 NOSIG
ZJHK,2016-06-17 00:00,ZJHK 170000Z 22002MPS CAVOK 26/24 Q1008 NOSIG
ZJHK,2016-06-17 01:00,ZJHK 170100Z 19001MPS CAVOK 28/25 Q1009 NOSIG
ZJHK,2016-06-17 02:00,ZJHK 170200Z 22002MPS 9999 FEW023 29/24 Q1009 NOSIG
ZJHK,2016-06-17 03:00,ZJHK 170300Z 24002MPS 190V270 9999 FEW023 30/24 Q1009 NOSIG
ZJHK,2016-06-17 04:00,ZJHK 170400Z 22001MPS 9999 FEW023 31/25 Q1008 NOSIG
ZJHK,2016-06-17 05:00,ZJHK 170500Z 20002MPS 9999 FEW023TCU SCT023 32/24 Q1008 BECMG TL0650 TS
ZJHK,2016-06-17 06:00,ZJHK 170600Z 02003MPS 340V070 9999 FEW023CB SCT023 30/24 Q1008 BECMG AT0700 TS
ZJHK,2016-06-17 07:00,ZJHK 170700Z 07004MPS 030V120 9999 FEW023CB SCT023 30/24 Q1007 BECMG AT0800 TSRA
ZJHK,2016-06-17 08:00,ZJHK 170800Z 23004MPS 180V260 5000 SHRA FEW023CB BKN033 26/23 Q1007 BECMG AT0820 19008G13MPS 2500 TSRA
ZJHK,2016-06-17 09:00,ZJHK 170900Z 28003MPS 220V300 9999 -SHRA FEW015 FEW023CB SCT040 24/23 Q1007 RETSRA NOSIG
ZJHK,2016-06-17 10:00,ZJHK 171000Z 23002MPS 9999 SCT040 25/22 Q1007 NOSIG
ZJHK,2016-06-17 11:00,ZJHK 171100Z 15001MPS 9999 FEW046 25/23 Q1007 NOSIG
ZJHK,2016-06-17 12:00,ZJHK 171200Z 17002MPS CAVOK 24/23 Q1007 NOSIG
ZJHK,2016-06-17 13:00,ZJHK 171300Z 20002MPS CAVOK 24/23 Q1008 NOSIG
ZJHK,2016-06-17 14:00,ZJHK 171400Z 23001MPS CAVOK 24/23 Q1009 NOSIG
ZJHK,2016-06-17 15:00,ZJHK 171500Z 16002MPS 130V190 CAVOK 24/23 Q1009 NOSIG
ZJHK,2016-06-17 16:00,ZJHK 171600Z 17004MPS CAVOK 25/24 Q1009 NOSIG
ZJHK,2016-06-17 17:00,ZJHK 171700Z 17003MPS 140V200 CAVOK 26/24 Q1009 NOSIG
ZJHK,2016-06-17 18:00,ZJHK 171800Z 17003MPS 140V200 CAVOK 26/24 Q1008 NOSIG
ZJHK,2016-06-17 19:00,ZJHK 171900Z 19003MPS CAVOK 25/24 Q1008 NOSIG
ZJHK,2016-06-17 20:00,ZJHK 172000Z 19002MPS CAVOK 25/24 Q1008 NOSIG
ZJHK,2016-06-17 21:00,ZJHK 172100Z 18002MPS CAVOK 27/27 Q1009 NOSIG
ZJHK,2016-06-17 22:00,ZJHK 172200Z 20002MPS CAVOK 27/27 Q1009 NOSIG
ZJHK,2016-06-17 23:00,ZJHK 172300Z 19003MPS CAVOK 27/27 Q1009 NOSIG
ZJHK,2016-06-18 02:00,ZJHK 180200Z 19003MPS 160V220 CAVOK 30/24 Q1009 NOSIG
ZJHK,2016-06-18 03:00,ZJHK 180300Z 21003MPS 170V240 9999 FEW020 32/24 Q1010 NOSIG
ZJHK,2016-06-18 04:00,ZJHK 180400Z 17002MPS 9999 SCT023 32/24 Q1009 NOSIG
ZJHK,2016-06-18 05:00,ZJHK 180500Z 20003MPS 160V230 9999 SCT023 33/24 Q1009 NOSIG
ZJHK,2016-06-18 06:00,ZJHK 180600Z 21003MPS 180V250 9999 FEW026TCU SCT026 33/24 Q1008 NOSIG
ZJHK,2016-06-18 07:00,ZJHK 180700Z 15004MPS 110V180 9999 FEW026TCU SCT026 32/25 Q1008 BECMG TL0800 TS
ZJHK,2016-06-18 08:00,ZJHK 180800Z 15004MPS 120V190 9999 FEW026CB SCT026 32/25 Q1007 BECMG TL0900 TS
ZJHK,2016-06-18 09:00,ZJHK 180900Z 14003MPS 110V170 9999 FEW026CB SCT026 30/25 Q1007 NOSIG
ZJHK,2016-06-18 10:00,ZJHK 181000Z 18003MPS 140V220 9999 FEW026CB SCT040 29/23 Q1009 BECMG AT1040 27008G13MPS 2500 TSRA
ZJHK,2016-06-18 11:00,ZJHK 181100Z 28002MPS 250V310 9999 FEW023CB FEW040 24/21 Q1008 RETS NOSIG
ZJHK,2016-06-18 12:00,ZJHK 181200Z 16004MPS 9999 FEW040 24/21 Q1009 NOSIG
ZJHK,2016-06-18 13:00,ZJHK 181300Z 21001MPS CAVOK 24/22 Q1009 NOSIG
ZJHK,2016-06-18 14:00,ZJHK 181400Z 13001MPS CAVOK 24/22 Q1010 NOSIG
ZJHK,2016-06-18 15:00,ZJHK 181500Z 27001MPS CAVOK 24/22 Q1011 NOSIG
ZJHK,2016-06-18 16:00,ZJHK 181600Z 00000MPS CAVOK 24/23 Q1010 NOSIG
ZJHK,2016-06-18 17:00,ZJHK 181700Z 15002MPS CAVOK 25/24 Q1010 NOSIG
ZJHK,2016-06-18 18:00,ZJHK 181800Z 16003MPS CAVOK 25/24 Q1009 NOSIG
ZJHK,2016-06-18 19:00,ZJHK 181900Z 14002MPS 110V190 CAVOK 25/24 Q1009 NOSIG
ZJHK,2016-06-18 20:00,ZJHK 182000Z 14002MPS CAVOK 25/24 Q1009 NOSIG
ZJHK,2016-06-18 21:00,ZJHK 182100Z 15002MPS 9999 FEW003 25/24 Q1009 NOSIG
ZJHK,2016-06-18 22:00,ZJHK 182200Z 15003MPS CAVOK 25/24 Q1009 NOSIG
ZJHK,2016-06-18 23:00,ZJHK 182300Z 16003MPS CAVOK 26/23 Q1010 NOSIG
ZJHK,2016-06-19 00:00,ZJHK 190000Z 16004MPS 130V190 CAVOK 27/24 Q1010 NOSIG
ZJHK,2016-06-19 01:00,ZJHK 190100Z 16005MPS 9999 SCT018 29/24 Q1010 NOSIG
ZJHK,2016-06-19 02:00,ZJHK 190200Z 17005MPS 140V200 9999 SCT020 30/24 Q1010 NOSIG
ZJHK,2016-06-19 03:00,ZJHK 190300Z 16004MPS 120V210 9999 BKN023 31/24 Q1010 NOSIG
ZJHK,2016-06-19 04:00,ZJHK 190400Z 16004MPS 120V190 9999 SCT023 32/24 Q1009 NOSIG
ZJHK,2016-06-19 05:00,ZJHK 190500Z 18003MPS 140V250 9999 SCT023 33/24 Q1009 NOSIG
ZJHK,2016-06-19 06:00,ZJHK 190600Z 16004MPS 120V210 9999 SCT023 33/24 Q1008 NOSIG
ZJHK,2016-06-19 07:00,ZJHK 190700Z 15004MPS 110V200 9999 SCT023 33/23 Q1007 NOSIG
ZJHK,2016-06-19 08:00,ZJHK 190800Z 16004MPS 120V200 9999 SCT023 33/24 Q1007 NOSIG
ZJHK,2016-06-19 09:00,ZJHK 190900Z 14004MPS 120V180 9999 FEW023 32/23 Q1006 NOSIG
ZJHK,2016-06-19 10:00,ZJHK 191000Z 15004MPS 9999 FEW023 30/23 Q1006 NOSIG
ZJHK,2016-06-19 11:00,ZJHK 191100Z 15003MPS 9999 FEW023TCU FEW023 29/23 Q1007 NOSIG
ZJHK,2016-06-19 12:00,ZJHK 191200Z 14003MPS 9999 FEW023TCU 27/23 Q1008 NOSIG
ZJHK,2016-06-19 13:00,ZJHK 191300Z 14003MPS 9999 FEW023CB 26/23 Q1009 NOSIG
ZJHK,2016-06-19 14:00,ZJHK 191400Z 15002MPS 130V190 CAVOK 26/24 Q1010 NOSIG
ZJHK,2016-06-19 15:00,ZJHK 191500Z 14001MPS CAVOK 25/24 Q1010 NOSIG
ZJHK,2016-06-19 16:00,ZJHK 191600Z 15002MPS CAVOK 25/24 Q1009 NOSIG
ZJHK,2016-06-19 17:00,ZJHK 191700Z 17002MPS CAVOK 25/24 Q1009 NOSIG
ZJHK,2016-06-19 18:00,ZJHK 191800Z 18003MPS CAVOK 25/24 Q1009 NOSIG
ZJHK,2016-06-19 19:00,ZJHK 191900Z 15001MPS CAVOK 25/24 Q1008 NOSIG
ZJHK,2016-06-19 20:00,ZJHK 192000Z 19002MPS CAVOK 25/24 Q1008 NOSIG
ZJHK,2016-06-19 21:00,ZJHK 192100Z 17001MPS CAVOK 25/24 Q1008 NOSIG
ZJHK,2016-06-19 22:00,ZJHK 192200Z 13001MPS CAVOK 24/23 Q1008 NOSIG
ZJHK,2016-06-19 23:00,ZJHK 192300Z 16002MPS 130V190 CAVOK 25/24 Q1008 NOSIG
ZJHK,2016-06-20 00:00,ZJHK 200000Z 17003MPS 150V210 CAVOK 27/25 Q1009 NOSIG
ZJHK,2016-06-20 01:00,ZJHK 200100Z 17004MPS 140V210 9999 SCT023 28/24 Q1009 NOSIG
ZJHK,2016-06-20 02:00,ZJHK 200200Z 17004MPS 140V200 9999 FEW023 30/23 Q1009 NOSIG
ZJHK,2016-06-20 03:00,ZJHK 200300Z 17004MPS 130V210 9999 FEW023 31/24 Q1009 NOSIG
ZJHK,2016-06-20 04:00,ZJHK 200400Z 17004MPS 130V220 9999 SCT026 32/24 Q1008 NOSIG
ZJHK,2016-06-20 05:00,ZJHK 200500Z 17003MPS 130V220 9999 BKN026 32/23 Q1008 NOSIG
ZJHK,2016-06-20 06:00,ZJHK 200600Z 15003MPS 110V190 9999 SCT026 33/23 Q1007 NOSIG
ZJHK,2016-06-20 07:00,ZJHK 200700Z 16003MPS 110V190 9999 SCT026 33/23 Q1006 NOSIG
ZJHK,2016-06-20 08:00,ZJHK 200800Z 14004MPS 110V170 9999 SCT026 33/24 Q1006 NOSIG
ZJHK,2016-06-20 09:00,ZJHK 200900Z 15005MPS 130V190 9999 FEW026 32/24 Q1005 NOSIG
ZJHK,2016-06-20 10:00,ZJHK 201000Z 14005MPS 9999 FEW026 31/24 Q1005 NOSIG
ZJHK,2016-06-20 11:00,ZJHK 201100Z 14004MPS 9999 FEW026 29/23 Q1006 NOSIG
ZJHK,2016-06-20 12:00,ZJHK 201200Z 15004MPS 9999 FEW030CB FEW030 27/24 Q1007 NOSIG
ZJHK,2016-06-20 13:00,ZJHK 201300Z 15002MPS CAVOK 26/24 Q1008 NOSIG
ZJHK,2016-06-20 14:00,ZJHK 201400Z 15002MPS CAVOK 26/24 Q1008 NOSIG
ZJHK,2016-06-20 15:00,ZJHK 201500Z 17001MPS CAVOK 26/24 Q1009 NOSIG
ZJHK,2016-06-20 16:00,ZJHK 201600Z 16002MPS CAVOK 25/24 Q1008 NOSIG
ZJHK,2016-06-20 17:00,ZJHK 201700Z 18002MPS CAVOK 26/24 Q1008 NOSIG
ZJHK,2016-06-20 18:00,ZJHK 201800Z 19002MPS CAVOK 25/24 Q1007 NOSIG
ZJHK,2016-06-20 19:00,ZJHK 201900Z 14002MPS CAVOK 25/24 Q1007 NOSIG
ZJHK,2016-06-20 20:00,ZJHK 202000Z 14002MPS CAVOK 25/24 Q1007 NOSIG
ZJHK,2016-06-20 21:00,ZJHK 202100Z 14002MPS CAVOK 25/24 Q1007 NOSIG
ZJHK,2016-06-20 22:00,ZJHK 202200Z 13001MPS 9999 FEW023 24/24 Q1008 NOSIG
ZJHK,2016-06-20 23:00,ZJHK 202300Z 14001MPS 9999 FEW023 26/24 Q1008 NOSIG
ZJHK,2016-06-21 00:00,ZJHK 210000Z 14002MPS 110V170 9999 FEW023 28/25 Q1009 NOSIG
ZJHK,2016-06-21 01:00,ZJHK 210100Z 16003MPS 120V200 9999 SCT023 29/25 Q1009 NOSIG
ZJHK,2016-06-21 02:00,ZJHK 210200Z 22003MPS 190V250 9999 BKN023 30/24 Q1009 NOSIG
ZJHK,2016-06-21 03:00,ZJHK 210300Z 23003MPS 190V270 9999 SCT023 30/24 Q1009 NOSIG
ZJHK,2016-06-21 04:00,ZJHK 210400Z 18004MPS 140V220 9999 FEW023TCU SCT023 SCT033 30/24 Q1009 NOSIG
ZJHK,2016-06-21 05:00,ZJHK 210500Z 16004MPS 120V200 9999 FEW023TCU SCT023 33/23 Q1008 NOSIG
ZJHK,2016-06-21 06:00,ZJHK 210600Z 17004MPS 120V200 9999 SCT023 33/23 Q1008 NOSIG
ZJHK,2016-06-21 07:00,ZJHK 210700Z 16005MPS 120V190 9999 SCT023 33/22 Q1007 NOSIG
ZJHK,2016-06-21 08:00,ZJHK 210800Z 17005MPS 9999 SCT023 32/22 Q1006 NOSIG
ZJHK,2016-06-21 09:00,ZJHK 210900Z 14005MPS 9999 FEW023 31/22 Q1006 NOSIG
ZJHK,2016-06-21 10:00,ZJHK 211000Z 15005MPS 120V190 9999 FEW023 30/23 Q1007 NOSIG
ZJHK,2016-06-21 11:00,ZJHK 211100Z 14003MPS CAVOK 29/23 Q1007 NOSIG
ZJHK,2016-06-21 12:00,ZJHK 211200Z 16002MPS CAVOK 27/23 Q1007 NOSIG
ZJHK,2016-06-21 13:00,ZJHK 211300Z 15002MPS CAVOK 26/23 Q1007 NOSIG
ZJHK,2016-06-21 14:00,ZJHK 211400Z 14002MPS CAVOK 26/24 Q1009 NOSIG
ZJHK,2016-06-21 15:00,ZJHK 211500Z 15002MPS CAVOK 26/24 Q1010 NOSIG
ZJHK,2016-06-21 16:00,ZJHK 211600Z 16002MPS CAVOK 25/24 Q1010 NOSIG
ZJHK,2016-06-21 17:00,ZJHK 211700Z 14002MPS CAVOK 25/24 Q1010 NOSIG
ZJHK,2016-06-21 18:00,ZJHK 211800Z 16002MPS CAVOK 25/24 Q1009 NOSIG
ZJHK,2016-06-21 19:00,ZJHK 211900Z 15002MPS CAVOK 25/24 Q1009 NOSIG
ZJHK,2016-06-21 20:00,ZJHK 212000Z 13002MPS CAVOK 25/24 Q1009 NOSIG
ZJHK,2016-06-21 21:00,ZJHK 212100Z 15002MPS CAVOK 24/24 Q1009 NOSIG
ZJHK,2016-06-21 22:00,ZJHK 212200Z 15002MPS CAVOK 24/23 Q1009 NOSIG
ZJHK,2016-06-21 23:00,ZJHK 212300Z 15002MPS 110V170 CAVOK 25/24 Q1009 NOSIG
ZJHK,2016-06-22 00:00,ZJHK 220000Z 18002MPS 140V240 CAVOK 28/24 Q1009 NOSIG
ZJHK,2016-06-22 01:00,ZJHK 220100Z 15003MPS 110V180 9999 SCT030 29/24 Q1010 NOSIG
ZJHK,2016-06-22 02:00,ZJHK 220200Z 16004MPS 110V190 9999 SCT030 31/24 Q1010 NOSIG
ZJHK,2016-06-22 03:00,ZJHK 220300Z 17003MPS 120V210 9999 SCT030 30/23 Q1010 NOSIG
ZJHK,2016-06-22 04:00,ZJHK 220400Z 14004MPS 110V190 9999 SCT030 32/23 Q1009 NOSIG
ZJHK,2016-06-22 05:00,ZJHK 220500Z 15004MPS 9999 FEW030TCU SCT030 32/23 Q1008 NOSIG
ZJHK,2016-06-22 06:00,ZJHK 220600Z 15005MPS 120V180 9999 FEW030TCU SCT030 33/23 Q1008 NOSIG
ZJHK,2016-06-22 07:00,ZJHK 220700Z 14005MPS 110V170 9999 FEW030TCU SCT030 32/22 Q1007 NOSIG
ZJHK,2016-06-22 08:00,ZJHK 220800Z 16005MPS 9999 FEW030TCU SCT030 31/23 Q1007 NOSIG
ZJHK,2016-06-22 09:00,ZJHK 220900Z 14005MPS 110V170 9999 FEW030TCU SCT030 31/22 Q1007 NOSIG
ZJHK,2016-06-22 10:00,ZJHK 221000Z 16005MPS 9999 FEW026TCU FEW026 30/22 Q1007 NOSIG
ZJHK,2016-06-22 11:00,ZJHK 221100Z 14004MPS 9999 FEW026CB FEW040 28/22 Q1007 NOSIG
ZJHK,2016-06-22 12:00,ZJHK 221200Z 15002MPS 130V190 CAVOK 27/22 Q1007 NOSIG
ZJHK,2016-06-22 13:00,ZJHK 221300Z 14001MPS CAVOK 26/23 Q1008 NOSIG
ZJHK,2016-06-22 14:00,ZJHK 221400Z 15001MPS CAVOK 26/23 Q1008 NOSIG
ZJHK,2016-06-22 15:00,ZJHK 221500Z 18001MPS 9999 SCT026 26/23 Q1009 NOSIG
ZJHK,2016-06-22 16:00,ZJHK 221600Z 13001MPS 9999 SCT026 25/23 Q1009 NOSIG
ZJHK,2016-06-22 17:00,ZJHK 221700Z 18001MPS 9999 -SHRA FEW020TCU SCT020 SCT030 25/23 Q1009 NOSIG
ZJHK,2016-06-22 18:00,ZJHK 221800Z 12002MPS 9999 FEW020TCU SCT020 SCT030 25/24 Q1008 NOSIG
ZJHK,2016-06-22 19:00,ZJHK 221900Z 13001MPS 9999 SCT040 24/23 Q1008 NOSIG
ZJHK,2016-06-22 20:00,ZJHK 222000Z 10002MPS 9999 FEW020CB SCT033 24/23 Q1008 NOSIG
ZJHK,2016-06-22 21:00,ZJHK 222100Z 13001MPS 9999 FEW033 24/23 Q1008 NOSIG
ZJHK,2016-06-22 22:00,ZJHK 222200Z 18001MPS 9999 FEW033 24/24 Q1008 NOSIG
ZJHK,2016-06-22 23:00,ZJHK 222300Z 10001MPS CAVOK 25/24 Q1008 NOSIG
ZJHK,2016-06-23 00:00,ZJHK 230000Z 14001MPS CAVOK 27/24 Q1009 NOSIG
ZJHK,2016-06-23 01:00,ZJHK 230100Z 15002MPS 110V200 9999 SCT016 29/24 Q1009 NOSIG
ZJHK,2016-06-23 02:00,ZJHK 230200Z 18003MPS 130V250 9999 SCT020 30/24 Q1009 NOSIG
ZJHK,2016-06-23 03:00,ZJHK 230300Z 17003MPS 130V200 9999 FEW026CB SCT026 30/24 Q1009 NOSIG
ZJHK,2016-06-23 04:00,ZJHK 230400Z 23002MPS 150V270 9999 FEW026CB SCT026 30/24 Q1009 BECMG TSRA
ZJHK,2016-06-23 05:00,ZJHK 230500Z 11001MPS 9999 FEW030CB BKN030 30/24 Q1008 NOSIG
ZJHK,2016-06-23 06:00,ZJHK 230600Z 15003MPS 100V190 9999 FEW033TCU SCT033 32/22 Q1007 NOSIG
ZJHK,2016-06-23 07:00,ZJHK 230700Z 15004MPS 110V190 9999 SCT040 33/23 Q1006 NOSIG
ZJHK,2016-06-23 08:00,ZJHK 230800Z 16004MPS 120V200 9999 SCT033 32/23 Q1005 NOSIG
ZJHK,2016-06-23 09:00,ZJHK 230900Z 14005MPS 110V180 9999 SCT030 32/23 Q1005 NOSIG
ZJHK,2016-06-23 10:00,ZJHK 231000Z 16004MPS 120V190 9999 SCT030 30/23 Q1005 NOSIG
ZJHK,2016-06-23 11:00,ZJHK 231100Z 14003MPS 9999 FEW030 29/23 Q1005 NOSIG
ZJHK,2016-06-23 12:00,ZJHK 231200Z 15002MPS 110V180 9999 FEW030CB FEW030 27/23 Q1006 NOSIG
ZJHK,2016-06-23 13:00,ZJHK 231300Z 15002MPS 9999 FEW030 27/24 Q1006 NOSIG
ZJHK,2016-06-23 14:00,ZJHK 231400Z 15002MPS 9999 FEW030 26/24 Q1007 NOSIG
ZJHK,2016-06-23 15:00,ZJHK 231500Z 14002MPS 9999 FEW030 26/24 Q1007 NOSIG
ZJHK,2016-06-23 16:00,ZJHK 231600Z 14002MPS CAVOK 25/24 Q1008 NOSIG
ZJHK,2016-06-23 17:00,ZJHK 231700Z 15001MPS CAVOK 25/24 Q1007 NOSIG
ZJHK,2016-06-23 18:00,ZJHK 231800Z 18002MPS CAVOK 25/24 Q1007 NOSIG
ZJHK,2016-06-23 19:00,ZJHK 231900Z 00000MPS CAVOK 24/23 Q1007 NOSIG
ZJHK,2016-06-23 20:00,ZJHK 232000Z 13001MPS CAVOK 24/23 Q1007 NOSIG
ZJHK,2016-06-23 21:00,ZJHK 232100Z 12001MPS CAVOK 24/23 Q1007 NOSIG
ZJHK,2016-06-23 22:00,ZJHK 232200Z 00000MPS 9999 FEW023TCU 24/24 Q1008 NOSIG
ZJHK,2016-06-23 23:00,ZJHK 232300Z 12002MPS CAVOK 26/24 Q1008 NOSIG
ZJHK,2016-06-24 00:00,ZJHK 240000Z 16003MPS 130V190 CAVOK 28/24 Q1008 NOSIG
ZJHK,2016-06-24 01:00,ZJHK 240100Z 16003MPS 130V200 9999 SCT023 29/24 Q1008 NOSIG
ZJHK,2016-06-24 02:00,ZJHK 240200Z 20003MPS 150V230 9999 SCT023 30/24 Q1008 NOSIG
ZJHK,2016-06-24 03:00,ZJHK 240300Z 19003MPS 140V230 9999 SCT026 31/23 Q1007 NOSIG
ZJHK,2016-06-24 04:00,ZJHK 240400Z 16002MPS 120V230 9999 SCT026 33/23 Q1007 NOSIG
ZJHK,2016-06-24 05:00,ZJHK 240500Z 14002MPS 9999 FEW026TCU BKN026 34/23 Q1006 NOSIG
ZJHK,2016-06-24 06:00,ZJHK 240600Z 03004MPS 360V070 9999 FEW026CB SCT026 31/24 Q1006 NOSIG
ZJHK,2016-06-24 07:00,ZJHK 240700Z 01005MPS 9999 -SHRA FEW010 FEW026CB SCT033 26/24 Q1006 RESHRA BECMG FM0720 TS
ZJHK,2016-06-24 08:00,ZJHK 240800Z 01005MPS 340V060 9999 TS FEW010 FEW026CB 25/22 Q1006 BECMG TL0820 NSW
ZJHK,2016-06-24 09:00,ZJHK 240900Z 01003MPS 340V130 9999 SCT026 29/23 Q1005 RETS NOSIG
ZJHK,2016-06-24 10:00,ZJHK 241000Z 14005MPS 110V170 9999 SCT030 30/23 Q1006 NOSIG
ZJHK,2016-06-24 11:00,ZJHK 241100Z 14003MPS 9999 FEW030 29/23 Q1007 NOSIG
ZJHK,2016-06-24 12:00,ZJHK 241200Z 15001MPS CAVOK 27/23 Q1007 NOSIG
ZJHK,2016-06-24 13:00,ZJHK 241300Z 18001MPS CAVOK 27/24 Q1007 NOSIG
ZJHK,2016-06-24 14:00,ZJHK 241400Z 14001MPS CAVOK 25/24 Q1007 NOSIG
ZJHK,2016-06-24 15:00,ZJHK 241500Z 13002MPS CAVOK 25/24 Q1008 NOSIG
ZJHK,2016-06-24 16:00,ZJHK 241600Z 14003MPS CAVOK 26/24 Q1008 NOSIG
ZJHK,2016-06-24 17:00,ZJHK 241700Z 14002MPS CAVOK 26/24 Q1008 NOSIG
ZJHK,2016-06-24 18:00,ZJHK 241800Z 15001MPS CAVOK 25/24 Q1008 NOSIG
ZJHK,2016-06-24 19:00,ZJHK 241900Z 00000MPS CAVOK 25/24 Q1008 NOSIG
ZJHK,2016-06-24 20:00,ZJHK 242000Z 16001MPS CAVOK 25/24 Q1007 NOSIG
ZJHK,2016-06-24 21:00,ZJHK 242100Z 00000MPS CAVOK 25/24 Q1007 NOSIG
ZJHK,2016-06-24 22:00,ZJHK 242200Z 00000MPS CAVOK 24/24 Q1008 NOSIG
ZJHK,2016-06-24 23:00,ZJHK 242300Z 11001MPS CAVOK 25/24 Q1008 NOSIG
ZJHK,2016-06-25 00:00,ZJHK 250000Z 10001MPS 9999 FEW020 FEW026TCU 28/24 Q1009 NOSIG
ZJHK,2016-06-25 01:00,ZJHK 250100Z 27001MPS 9999 FEW023TCU SCT023 28/24 Q1009 NOSIG
ZJHK,2016-06-25 02:00,ZJHK 250200Z 21003MPS 180V250 5000 SHRA FEW023CB BKN033 25/23 Q1009 BECMG AT0230 -SHRA
ZJHK,2016-06-25 03:00,ZJHK 250300Z 32004MPS 9999 TS SCT023CB BKN033 24/23 Q1009 RESHRA BECMG AT0340 TSRA
ZJHK,2016-06-25 04:00,ZJHK 250400Z 03003MPS 360V060 9999 TS SCT023CB BKN033 25/24 Q1009 BECMG AT0420 TSRA
ZJHK,2016-06-25 05:00,ZJHK 250500Z 19001MPS 9999 -SHRA FEW023CB BKN033 26/24 Q1009 RETS NOSIG
ZJHK,2016-06-25 06:00,ZJHK 250600Z 15001MPS 9999 -SHRA FEW023CB BKN033 25/24 Q1008 NOSIG
ZJHK,2016-06-25 07:00,ZJHK 250700Z 20001MPS 9999 FEW023CB SCT033 25/24 Q1008 NOSIG
ZJHK,2016-06-25 08:00,ZJHK 250800Z 10003MPS 060V140 9999 SCT023 26/24 Q1008 NOSIG
ZJHK,2016-06-25 09:00,ZJHK 250900Z 08002MPS 030V120 9999 SCT040 26/23 Q1007 NOSIG
ZJHK,2016-06-25 10:00,ZJHK 251000Z 08003MPS CAVOK 26/23 Q1007 NOSIG
ZJHK,2016-06-25 11:00,ZJHK 251100Z 07003MPS 040V100 CAVOK 26/24 Q1007 NOSIG
ZJHK,2016-06-25 12:00,ZJHK 251200Z 12002MPS CAVOK 25/24 Q1008 NOSIG
ZJHK,2016-06-25 13:00,ZJHK 251300Z 10002MPS CAVOK 25/24 Q1008 NOSIG
ZJHK,2016-06-25 14:00,ZJHK 251400Z 10002MPS CAVOK 25/24 Q1008 NOSIG
ZJHK,2016-06-25 15:00,ZJHK 251500Z 12001MPS CAVOK 25/24 Q1009 NOSIG
ZJHK,2016-06-25 16:00,ZJHK 251600Z 12001MPS 8000 NSC 25/24 Q1009 NOSIG
ZJHK,2016-06-25 17:00,ZJHK 251700Z 12001MPS 7000 NSC 24/24 Q1009 NOSIG
ZJHK,2016-06-25 18:00,ZJHK 251800Z 11001MPS 7000 NSC 24/24 Q1008 NOSIG
ZJHK,2016-06-25 19:00,ZJHK 251900Z 10001MPS 6000 NSC 24/24 Q1008 NOSIG
ZJHK,2016-06-25 20:00,ZJHK 252000Z 10001MPS 6000 NSC 24/24 Q1008 NOSIG
ZJHK,2016-06-25 21:00,ZJHK 252100Z 00000MPS 6000 FEW020 24/24 Q1008 NOSIG
ZJHK,2016-06-25 22:00,ZJHK 252200Z 00000MPS 6000 FEW020 24/24 Q1008 NOSIG
ZJHK,2016-06-25 23:00,ZJHK 252300Z 04001MPS 9999 FEW023 SCT033 25/25 Q1008 NOSIG
ZJHK,2016-06-26 00:00,ZJHK 260000Z 04002MPS 9999 SCT023 26/25 Q1008 NOSIG
ZJHK,2016-06-26 01:00,ZJHK 260100Z 09003MPS 030V140 9999 SCT016 FEW023TCU 28/25 Q1008 NOSIG
ZJHK,2016-06-26 02:00,ZJHK 260200Z 08003MPS 9999 FEW020CB SCT020 28/24 Q1009 BECMG AT0300 TSRA
ZJHK,2016-06-26 03:00,ZJHK 260300Z VRB03MPS 5000 R09/0700D -TSRA SCT006 SCT020CB BKN030 25/23 Q1009 RESHRA BECMG TL0340 NSW
ZJHK,2016-06-26 04:00,ZJHK 260400Z 06003MPS 9999 FEW023CB SCT033 29/25 Q1008 RETS NOSIG
ZJHK,2016-06-26 05:00,ZJHK 260500Z 08004MPS 050V110 9999 FEW023CB SCT033 30/25 Q1007 NOSIG
ZJHK,2016-06-26 06:00,ZJHK 260600Z 06004MPS 020V110 9999 FEW023CB SCT026 30/25 Q1007 NOSIG
ZJHK,2016-06-26 07:00,ZJHK 260700Z 07006MPS 9999 FEW023CB SCT033 29/25 Q1006 BECMG AT0720 TS
ZJHK,2016-06-26 08:00,ZJHK 260800Z 04004MPS 010V070 9999 FEW026TCU SCT040 29/25 Q1006 NOSIG
ZJHK,2016-06-26 09:00,ZJHK 260900Z 08006MPS 9999 -SHRA FEW026CB SCT040 29/25 Q1006 NOSIG
ZJHK,2016-06-26 10:00,ZJHK 261000Z 10005MPS 9999 FEW023 29/25 Q1006 NOSIG
ZJHK,2016-06-26 11:00,ZJHK 261100Z 11004MPS 9999 FEW023 28/25 Q1006 NOSIG
ZJHK,2016-06-26 12:00,ZJHK 261200Z 11003MPS 9999 FEW033 27/25 Q1007 NOSIG
ZJHK,2016-06-26 13:00,ZJHK 261300Z 11002MPS 9999 FEW033 26/25 Q1007 NOSIG
ZJHK,2016-06-26 14:00,ZJHK 261400Z 12002MPS CAVOK 26/24 Q1008 NOSIG
ZJHK,2016-06-26 15:00,ZJHK 261500Z 12002MPS CAVOK 25/24 Q1008 NOSIG
ZJHK,2016-06-26 16:00,ZJHK 261600Z 11001MPS CAVOK 25/24 Q1008 NOSIG
ZJHK,2016-06-26 17:00,ZJHK 261700Z 12001MPS CAVOK 25/24 Q1008 NOSIG
ZJHK,2016-06-26 18:00,ZJHK 261800Z 11002MPS CAVOK 25/24 Q1007 NOSIG
ZJHK,2016-06-26 19:00,ZJHK 261900Z 11002MPS CAVOK 25/24 Q1007 NOSIG
ZJHK,2016-06-26 20:00,ZJHK 262000Z 11001MPS CAVOK 25/24 Q1006 NOSIG
ZJHK,2016-06-26 21:00,ZJHK 262100Z 10001MPS 9999 SCT033 25/24 Q1006 NOSIG
ZJHK,2016-06-26 22:00,ZJHK 262200Z 10002MPS 9999 FEW026TCU SCT026 25/24 Q1006 NOSIG
ZJHK,2016-06-26 23:00,ZJHK 262300Z 10002MPS 9999 FEW026TCU FEW026 26/25 Q1007 NOSIG
ZJHK,2016-06-27 00:00,ZJHK 270000Z 11003MPS 9999 FEW026 28/25 Q1007 NOSIG
ZJHK,2016-06-27 01:00,ZJHK 270100Z 12004MPS 090V150 9999 SCT020 29/25 Q1007 NOSIG
ZJHK,2016-06-27 02:00,ZJHK 270200Z 12004MPS 9999 FEW023TCU SCT023 30/24 Q1007 NOSIG
ZJHK,2016-06-27 03:00,ZJHK 270300Z 11005MPS 090V150 9999 FEW023CB SCT023 30/25 Q1007 NOSIG
ZJHK,2016-06-27 04:00,ZJHK 270400Z 15002MPS 100V180 9999 FEW023CB SCT040 27/24 Q1007 NOSIG
ZJHK,2016-06-27 05:00,ZJHK 270500Z 18005MPS 130V230 6000 TSRA SCT010 FEW023CB BKN040 25/24 Q1007 BECMG TL0540 19003MPS NSW
ZJHK,2016-06-27 06:00,ZJHK 270600Z 23002MPS 9999 FEW023CB SCT023 28/25 Q1007 RETSRA NOSIG
ZJHK,2016-06-27 07:00,ZJHK 270700Z 11003MPS 040V150 9999 FEW023CB SCT023 30/25 Q1006 BECMG AT0730 SHRA
ZJHK,2016-06-27 08:00,ZJHK 270800Z 12004MPS 9999 FEW023TCU FEW023 27/25 Q1005 NOSIG
ZJHK,2016-06-27 09:00,ZJHK 270900Z 12004MPS 090V160 9999 FEW023TCU FEW023 29/23 Q1005 NOSIG
ZJHK,2016-06-27 10:00,ZJHK 271000Z 12003MPS 9999 FEW023TCU FEW023 29/24 Q1005 NOSIG
ZJHK,2016-06-27 11:00,ZJHK 271100Z 12002MPS 9999 FEW023 28/24 Q1005 NOSIG
ZJHK,2016-06-27 12:00,ZJHK 271200Z 13002MPS 9999 FEW023 27/24 Q1005 NOSIG
ZJHK,2016-06-27 13:00,ZJHK 271300Z 12002MPS 9999 FEW023 26/24 Q1006 NOSIG
ZJHK,2016-06-27 14:00,ZJHK 271400Z 14002MPS CAVOK 25/24 Q1006 NOSIG
ZJHK,2016-06-27 15:00,ZJHK 271500Z 16002MPS CAVOK 25/24 Q1007 NOSIG
ZJHK,2016-06-27 16:00,ZJHK 271600Z 14002MPS CAVOK 25/24 Q1008 NOSIG
ZJHK,2016-06-27 17:00,ZJHK 271700Z 13001MPS CAVOK 25/24 Q1007 NOSIG
ZJHK,2016-06-27 18:00,ZJHK 271800Z 14001MPS CAVOK 25/24 Q1006 NOSIG
ZJHK,2016-06-27 19:00,ZJHK 271900Z 00000MPS CAVOK 25/24 Q1006 NOSIG
ZJHK,2016-06-27 20:00,ZJHK 272000Z 00000MPS CAVOK 24/24 Q1005 NOSIG
ZJHK,2016-06-27 21:00,ZJHK 272100Z 00000MPS 8000 NSC 24/23 Q1006 NOSIG
ZJHK,2016-06-27 22:00,ZJHK 272200Z 11001MPS 5000 BR NSC 24/24 Q1006 NOSIG
ZJHK,2016-06-27 23:00,ZJHK 272300Z 09001MPS 8000 NSC 24/24 Q1006 NOSIG
ZJHK,2016-06-28 00:00,ZJHK 280000Z 14001MPS CAVOK 26/25 Q1007 NOSIG
ZJHK,2016-06-28 01:00,ZJHK 280100Z 11001MPS 9999 FEW020 28/25 Q1007 NOSIG
ZJHK,2016-06-28 02:00,ZJHK 280200Z 12002MPS 070V140 9999 FEW020TCU SCT020 29/24 Q1007 NOSIG
ZJHK,2016-06-28 03:00,ZJHK 280300Z 16003MPS 130V190 9999 FEW016 SCT023CB SCT023 29/24 Q1007 BECMG FM0340 -TSRA
ZJHK,2016-06-28 04:00,ZJHK 280400Z 12003MPS 090V150 9999 SCT023CB FEW023 28/25 Q1007 NOSIG
ZJHK,2016-06-28 05:00,ZJHK 280500Z 10003MPS 050V140 9999 FEW023CB SCT023 29/24 Q1007 BECMG FM0520 18005MPS TSRA
ZJHK,2016-06-28 06:00,ZJHK 280600Z 07003MPS 010V120 9999 FEW025CB FEW025 27/25 Q1007 RETSRA NOSIG
ZJHK,2016-06-28 07:00,ZJHK 280700Z 12006MPS 060V150 4500 SHRA SCT013 SCT023CB 26/23 Q1006 BECMG TL0740 NSW
ZJHK,2016-06-28 08:00,ZJHK 280800Z 06004MPS 9999 FEW023CB FEW023 27/24 Q1006 RESHRA NOSIG
ZJHK,2016-06-28 09:00,ZJHK 280900Z 08005MPS 9999 SCT015 FEW023TCU 28/25 Q1005 NOSIG
ZJHK,2016-06-28 10:00,ZJHK 281000Z 09005MPS 9999 SCT015 FEW023TCU 28/25 Q1006 NOSIG
ZJHK,2016-06-28 11:00,ZJHK 281100Z 09005MPS 9999 SCT015 FEW023TCU 27/24 Q1006 NOSIG
ZJHK,2016-06-28 12:00,ZJHK 281200Z 08004MPS 9999 FEW023 26/25 Q1007 NOSIG
ZJHK,2016-06-28 13:00,ZJHK 281300Z 09004MPS CAVOK 26/24 Q1008 NOSIG
ZJHK,2016-06-28 14:00,ZJHK 281400Z 08003MPS 050V110 9999 FEW020 26/24 Q1008 NOSIG
ZJHK,2016-06-28 15:00,ZJHK 281500Z 11003MPS 9999 SCT016 26/24 Q1008 NOSIG
ZJHK,2016-06-28 16:00,ZJHK 281600Z 11002MPS CAVOK 25/24 Q1008 NOSIG
ZJHK,2016-06-28 17:00,ZJHK 281700Z 12002MPS CAVOK 25/24 Q1008 NOSIG
ZJHK,2016-06-28 18:00,ZJHK 281800Z 00000MPS CAVOK 24/24 Q1007 NOSIG
ZJHK,2016-06-28 19:00,ZJHK 281900Z 12002MPS CAVOK 24/24 Q1007 NOSIG
ZJHK,2016-06-28 20:00,ZJHK 282000Z 14001MPS CAVOK 24/24 Q1007 NOSIG
ZJHK,2016-06-28 21:00,ZJHK 282100Z 11001MPS CAVOK 24/23 Q1007 NOSIG
ZJHK,2016-06-28 22:00,ZJHK 282200Z 00000MPS 9999 FEW020 24/23 Q1007 NOSIG
ZJHK,2016-06-28 23:00,ZJHK 282300Z 12001MPS 9999 FEW020 25/24 Q1008 NOSIG
ZJHK,2016-06-29 00:00,ZJHK 290000Z 12002MPS 090V150 9999 FEW020 27/25 Q1008 NOSIG
ZJHK,2016-06-29 01:00,ZJHK 290100Z 16002MPS 110V190 9999 BKN020 28/24 Q1008 NOSIG
ZJHK,2016-06-29 02:00,ZJHK 290200Z 22003MPS 9999 BKN020 FEW023CB 26/23 Q1008 NOSIG
ZJHK,2016-06-29 03:00,ZJHK 290300Z 11003MPS 080V140 9999 FEW020 FEW023CB 28/26 Q1008 RETSRA NOSIG
ZJHK,2016-06-29 04:00,ZJHK 290400Z 12003MPS 070V180 9999 SCT023 30/25 Q1008 NOSIG
ZJHK,2016-06-29 05:00,ZJHK 290500Z 15005MPS 100V190 9999 SCT023 FEW033CB 31/24 Q1007 NOSIG
ZJHK,2016-06-29 06:00,ZJHK 290600Z 16005MPS 120V190 9999 SCT023 31/24 Q1007 NOSIG
ZJHK,2016-06-29 07:00,ZJHK 290700Z 15004MPS 9999 FEW023 FEW026CB 29/24 Q1006 NOSIG
ZJHK,2016-06-29 08:00,ZJHK 290800Z 16005MPS 140V210 9999 SCT023 29/23 Q1006 NOSIG
ZJHK,2016-06-29 09:00,ZJHK 290900Z 17003MPS 140V200 9999 FEW023TCU SCT023 30/24 Q1006 BECMG FM0920 SHRA
ZJHK,2016-06-29 10:00,ZJHK 291000Z 14002MPS 110V170 9999 FEW023TCU FEW023 27/24 Q1006 RESHRA NOSIG
ZJHK,2016-06-29 11:00,ZJHK 291100Z 15002MPS CAVOK 26/24 Q1007 NOSIG
ZJHK,2016-06-29 12:00,ZJHK 291200Z 12002MPS CAVOK 26/24 Q1007 NOSIG
ZJHK,2016-06-29 13:00,ZJHK 291300Z 15002MPS CAVOK 25/24 Q1008 NOSIG
ZJHK,2016-06-29 14:00,ZJHK 291400Z 15002MPS CAVOK 25/24 Q1008 NOSIG
ZJHK,2016-06-29 15:00,ZJHK 291500Z 15002MPS CAVOK 25/24 Q1009 NOSIG
ZJHK,2016-06-29 16:00,ZJHK 291600Z 16002MPS 130V190 CAVOK 25/24 Q1009 NOSIG
ZJHK,2016-06-29 17:00,ZJHK 291700Z 16002MPS CAVOK 26/24 Q1009 NOSIG
ZJHK,2016-06-29 18:00,ZJHK 291800Z 16002MPS 130V190 CAVOK 26/24 Q1008 NOSIG
ZJHK,2016-06-29 19:00,ZJHK 291900Z 15002MPS 9999 FEW013 25/24 Q1008 NOSIG
ZJHK,2016-06-29 20:00,ZJHK 292000Z 18003MPS 150V220 9999 SCT016 26/24 Q1008 NOSIG
ZJHK,2016-06-29 21:00,ZJHK 292100Z 16003MPS 130V200 9999 FEW040 25/23 Q1008 NOSIG
ZJHK,2016-06-29 22:00,ZJHK 292200Z 17003MPS CAVOK 25/23 Q1008 NOSIG
ZJHK,2016-06-29 23:00,ZJHK 292300Z 18002MPS 140V200 CAVOK 25/24 Q1008 NOSIG
ZJHK,2016-06-30 00:00,ZJHK 300000Z 17004MPS CAVOK 27/24 Q1009 NOSIG
ZJHK,2016-06-30 01:00,ZJHK 300100Z 18004MPS 150V210 9999 FEW023 28/24 Q1009 NOSIG
ZJHK,2016-06-30 02:00,ZJHK 300200Z 17005MPS 9999 SCT023 30/24 Q1009 NOSIG
ZJHK,2016-06-30 03:00,ZJHK 300300Z 18005MPS 150V210 9999 SCT030 30/24 Q1009 NOSIG
ZJHK,2016-06-30 04:00,ZJHK 300400Z 17005MPS 9999 FEW030TCU SCT030 30/23 Q1008 NOSIG
ZJHK,2016-06-30 05:00,ZJHK 300500Z 17006MPS 140V210 9999 -SHRA FEW030CB SCT030 30/24 Q1008 BECMG AT0520 TSRA
ZJHK,2016-06-30 06:00,ZJHK 300600Z 18004MPS 160V220 9999 FEW030TCU SCT030 31/25 Q1007 NOSIG
ZJHK,2016-06-30 07:00,ZJHK 300700Z 17005MPS 130V200 9999 FEW030TCU SCT030 31/24 Q1006 NOSIG
ZJHK,2016-06-30 08:00,ZJHK 300800Z 16005MPS 130V200 9999 FEW030 30/24 Q1006 NOSIG
ZJHK,2016-06-30 09:00,ZJHK 300900Z 18005MPS 150V210 9999 FEW030 FEW033CB 30/23 Q1006 NOSIG
ZJHK,2016-06-30 10:00,ZJHK 301000Z 16003MPS 130V190 9999 FEW030 FEW033CB 29/23 Q1006 NOSIG
ZJHK,2016-06-30 11:00,ZJHK 301100Z 14002MPS 9999 FEW030CB 28/24 Q1007 NOSIG
ZJHK,2016-06-30 12:00,ZJHK 301200Z 13003MPS 100V160 CAVOK 27/24 Q1007 NOSIG
ZJHK,2016-06-30 13:00,ZJHK 301300Z 14002MPS 110V170 CAVOK 26/24 Q1008 NOSIG
ZJHK,2016-06-30 14:00,ZJHK 301400Z 15002MPS CAVOK 26/24 Q1008 NOSIG
ZJHK,2016-06-30 15:00,ZJHK 301500Z 15002MPS 130V190 CAVOK 26/24 Q1009 NOSIG
ZJHK,2016-06-30 16:00,ZJHK 301600Z 16003MPS CAVOK 26/24 Q1009 NOSIG
ZJHK,2016-06-30 17:00,ZJHK 301700Z 16002MPS 130V190 CAVOK 26/24 Q1008 NOSIG
ZJHK,2016-06-30 18:00,ZJHK 301800Z 19002MPS CAVOK 26/24 Q1008 NOSIG
ZJHK,2016-06-30 19:00,ZJHK 301900Z 14002MPS 110V170 CAVOK 25/24 Q1007 NOSIG
ZJHK,2016-06-30 20:00,ZJHK 302000Z 19002MPS 150V210 CAVOK 25/24 Q1007 NOSIG
ZJHK,2016-06-30 21:00,ZJHK 302100Z 18004MPS 150V210 CAVOK 26/24 Q1007 NOSIG
ZJHK,2016-06-30 22:00,ZJHK 302200Z 17003MPS CAVOK 25/23 Q1007 NOSIG
ZJHK,2016-06-30 23:00,ZJHK 302300Z 17003MPS 140V210 CAVOK 26/23 Q1007 NOSIG
ZJHK,2016-07-01 00:00,ZJHK 010000Z 18004MPS 150V220 CAVOK 27/24 Q1007 NOSIG
ZJHK,2016-07-01 01:00,ZJHK 010100Z 19005MPS 160V230 9999 FEW020 29/24 Q1008 NOSIG
ZJHK,2016-07-01 02:00,ZJHK 010200Z 19006MPS 160V220 9999 FEW020 29/24 Q1008 NOSIG
ZJHK,2016-07-01 03:00,ZJHK 010300Z 18005MPS 150V210 9999 FEW020 30/24 Q1008 NOSIG
ZJHK,2016-07-01 04:00,ZJHK 010400Z 18004MPS 140V210 9999 BKN026 31/24 Q1008 NOSIG
ZJHK,2016-07-01 05:00,ZJHK 010500Z 17005MPS 140V230 9999 FEW030CB SCT030 31/24 Q1007 NOSIG
ZJHK,2016-07-01 06:00,ZJHK 010600Z 16005MPS 120V200 9999 FEW030CB SCT030 31/24 Q1006 NOSIG
ZJHK,2016-07-01 07:00,ZJHK 010700Z 18004MPS 9999 FEW030CB SCT030 31/24 Q1006 NOSIG
ZJHK,2016-07-01 08:00,ZJHK 010800Z 16006MPS 9999 SCT030 31/24 Q1005 NOSIG
ZJHK,2016-07-01 09:00,ZJHK 010900Z 16004MPS 120V190 9999 SCT030 31/24 Q1004 NOSIG
ZJHK,2016-07-01 10:00,ZJHK 011000Z 16004MPS 9999 FEW030 30/24 Q1005 NOSIG
ZJHK,2016-07-01 11:00,ZJHK 011100Z 16004MPS 130V190 9999 FEW030 28/23 Q1005 NOSIG
ZJHK,2016-07-01 12:00,ZJHK 011200Z 16004MPS 140V200 9999 FEW030 27/23 Q1006 NOSIG
ZJHK,2016-07-01 13:00,ZJHK 011300Z 16004MPS 9999 FEW030 26/23 Q1007 NOSIG
ZJHK,2016-07-01 14:00,ZJHK 011400Z 18004MPS 9999 FEW030 26/23 Q1007 NOSIG
ZJHK,2016-07-01 15:00,ZJHK 011500Z 18004MPS 160V220 9999 FEW030 26/23 Q1008 NOSIG
ZJHK,2016-07-01 16:00,ZJHK 011600Z 18004MPS CAVOK 26/24 Q1008 NOSIG
ZJHK,2016-07-01 17:00,ZJHK 011700Z 18003MPS CAVOK 26/24 Q1008 NOSIG
ZJHK,2016-07-01 18:00,ZJHK 011800Z 17003MPS CAVOK 25/24 Q1007 NOSIG
ZJHK,2016-07-01 19:00,ZJHK 011900Z 16003MPS CAVOK 25/24 Q1007 NOSIG
ZJHK,2016-07-01 20:00,ZJHK 012000Z 17003MPS 140V200 CAVOK 25/23 Q1007 NOSIG
ZJHK,2016-07-01 21:00,ZJHK 012100Z 17003MPS CAVOK 25/23 Q1007 NOSIG
ZJHK,2016-07-01 22:00,ZJHK 012200Z 17003MPS 140V210 CAVOK 25/23 Q1007 NOSIG
ZJHK,2016-07-01 23:00,ZJHK 012300Z 17003MPS CAVOK 26/24 Q1007 NOSIG
ZJHK,2016-07-02 00:00,ZJHK 020000Z 19004MPS 140V220 CAVOK 27/24 Q1008 NOSIG
ZJHK,2016-07-02 01:00,ZJHK 020100Z 18007MPS CAVOK 29/24 Q1009 NOSIG
ZJHK,2016-07-02 02:00,ZJHK 020200Z 19005MPS 160V220 9999 FEW023 30/24 Q1009 NOSIG
ZJHK,2016-07-02 03:00,ZJHK 020300Z 18005MPS 150V230 9999 FEW023 31/24 Q1009 NOSIG
ZJHK,2016-07-02 04:00,ZJHK 020400Z 18005MPS 150V210 9999 -SHRA FEW023TCU FEW023 30/24 Q1008 NOSIG
ZJHK,2016-07-02 05:00,ZJHK 020500Z 15004MPS 110V180 9999 FEW023TCU FEW023 31/25 Q1008 NOSIG
ZJHK,2016-07-02 06:00,ZJHK 020600Z 19004MPS 140V220 9999 FEW023TCU FEW023 32/24 Q1007 NOSIG
ZJHK,2016-07-02 07:00,ZJHK 020700Z 17005MPS 140V200 9999 FEW023TCU 32/23 Q1006 NOSIG
ZJHK,2016-07-02 08:00,ZJHK 020800Z 17004MPS 130V200 9999 FEW023TCU FEW023 31/24 Q1005 NOSIG
ZJHK,2016-07-02 09:00,ZJHK 020900Z 25003MPS 190V290 9999 -TSRA FEW026CB SCT026 26/23 Q1006 BECMG AT0950 NSW
ZJHK,2016-07-02 10:00,ZJHK 021000Z 33001MPS 9999 FEW030CB SCT040 27/23 Q1006 RETS NOSIG
ZJHK,2016-07-02 11:00,ZJHK 021100Z 17001MPS 9999 SCT040 26/24 Q1006 NOSIG
ZJHK,2016-07-02 12:00,ZJHK 021200Z 15002MPS CAVOK 26/24 Q1007 NOSIG
ZJHK,2016-07-02 13:00,ZJHK 021300Z 15002MPS 130V190 CAVOK 26/24 Q1007 NOSIG
ZJHK,2016-07-02 14:00,ZJHK 021400Z 15002MPS CAVOK 25/24 Q1008 NOSIG
ZJHK,2016-07-02 15:00,ZJHK 021500Z 17003MPS 140V200 CAVOK 26/24 Q1008 NOSIG
ZJHK,2016-07-02 16:00,ZJHK 021600Z 16002MPS CAVOK 26/24 Q1008 NOSIG
ZJHK,2016-07-02 17:00,ZJHK 021700Z 19003MPS 150V210 CAVOK 26/24 Q1008 NOSIG
ZJHK,2016-07-02 18:00,ZJHK 021800Z 17003MPS CAVOK 25/24 Q1008 NOSIG
ZJHK,2016-07-02 19:00,ZJHK 021900Z 18002MPS CAVOK 25/24 Q1007 NOSIG
ZJHK,2016-07-02 20:00,ZJHK 022000Z 18003MPS 150V210 CAVOK 25/24 Q1007 NOSIG
ZJHK,2016-07-02 21:00,ZJHK 022100Z 18003MPS CAVOK 25/24 Q1007 NOSIG
ZJHK,2016-07-02 22:00,ZJHK 022200Z 18003MPS CAVOK 25/24 Q1007 NOSIG
ZJHK,2016-07-02 23:00,ZJHK 022300Z 17003MPS 140V200 CAVOK 25/24 Q1007 NOSIG
ZJHK,2016-07-03 00:00,ZJHK 030000Z 18004MPS CAVOK 27/23 Q1008 NOSIG
ZJHK,2016-07-03 01:00,ZJHK 030100Z 18004MPS 140V210 CAVOK 29/23 Q1008 NOSIG
ZJHK,2016-07-03 02:00,ZJHK 030200Z 19005MPS 160V220 9999 FEW023 30/23 Q1008 NOSIG
ZJHK,2016-07-03 03:00,ZJHK 030300Z 20005MPS 140V240 9999 FEW023 31/23 Q1008 NOSIG
ZJHK,2016-07-03 04:00,ZJHK 030400Z 17004MPS 140V200 9999 SCT023 31/23 Q1008 NOSIG
ZJHK,2016-07-03 05:00,ZJHK 030500Z 22003MPS 180V250 9999 FEW023CB SCT023 31/23 Q1007 NOSIG
ZJHK,2016-07-03 06:00,ZJHK 030600Z 20003MPS 160V230 9999 FEW023CB SCT023 31/23 Q1006 BECMG AT0750 TS
ZJHK,2016-07-03 07:00,ZJHK 030700Z 15005MPS 9999 FEW023CB BKN040 29/23 Q1005 BECMG AT0750 TS
ZJHK,2016-07-03 08:00,ZJHK 030800Z 29007MPS 250V310 1800 +TSRA SCT023CB BKN040 24/22 Q1007 BECMG TL0900 NSW
ZJHK,2016-07-03 09:00,ZJHK 030900Z 06002MPS 9999 -TSRA FEW023CB BKN040 24/22 Q1006 RESHRA BECMG AT0930 NSW
ZJHK,2016-07-03 10:00,ZJHK 031000Z 14002MPS 9999 FEW040 24/23 Q1005 RETS NOSIG
ZJHK,2016-07-03 11:00,ZJHK 031100Z 14001MPS CAVOK 24/23 Q1005 NOSIG
ZJHK,2016-07-03 12:00,ZJHK 031200Z 11003MPS CAVOK 24/23 Q1005 NOSIG
ZJHK,2016-07-03 13:00,ZJHK 031300Z 12002MPS CAVOK 24/23 Q1006 NOSIG
ZJHK,2016-07-03 14:00,ZJHK 031400Z 19001MPS CAVOK 25/23 Q1006 NOSIG
ZJHK,2016-07-03 15:00,ZJHK 031500Z 18001MPS CAVOK 25/23 Q1006 NOSIG
ZJHK,2016-07-03 16:00,ZJHK 031600Z 16001MPS CAVOK 24/23 Q1006 NOSIG
ZJHK,2016-07-03 17:00,ZJHK 031700Z 12001MPS CAVOK 24/23 Q1006 NOSIG
ZJHK,2016-07-03 18:00,ZJHK 031800Z 21002MPS CAVOK 25/23 Q1005 NOSIG
ZJHK,2016-07-03 19:00,ZJHK 031900Z 17001MPS CAVOK 24/23 Q1005 NOSIG
ZJHK,2016-07-03 20:00,ZJHK 032000Z 20002MPS CAVOK 24/23 Q1004 NOSIG
ZJHK,2016-07-03 21:00,ZJHK 032100Z 17001MPS CAVOK 24/23 Q1004 NOSIG
ZJHK,2016-07-03 22:00,ZJHK 032200Z 00000MPS CAVOK 23/22 Q1005 NOSIG
ZJHK,2016-07-03 23:00,ZJHK 032300Z 19002MPS CAVOK 24/21 Q1005 NOSIG
ZJHK,2016-07-04 00:00,ZJHK 040000Z 19002MPS 160V220 CAVOK 26/22 Q1005 NOSIG
ZJHK,2016-07-04 01:00,ZJHK 040100Z 20002MPS 170V240 CAVOK 28/22 Q1005 NOSIG
ZJHK,2016-07-04 02:00,ZJHK 040200Z 20003MPS 160V230 CAVOK 29/22 Q1005 NOSIG
ZJHK,2016-07-04 03:00,ZJHK 040300Z 19004MPS CAVOK 30/22 Q1005 NOSIG
ZJHK,2016-07-04 04:00,ZJHK 040400Z 19004MPS 140V220 9999 FEW023 31/22 Q1004 NOSIG
ZJHK,2016-07-04 05:00,ZJHK 040500Z 19004MPS 140V240 9999 FEW023 31/22 Q1003 NOSIG
ZJHK,2016-07-04 06:00,ZJHK 040600Z 16003MPS 120V190 9999 FEW023CB SCT033 31/22 Q1003 BECMG AT0640 TS
ZJHK,2016-07-04 07:00,ZJHK 040700Z 22005MPS 170V270 7000 -TSRA SCT005 SCT023CB BKN030 25/22 Q1003 BECMG AT0710 TSRA
ZJHK,2016-07-04 08:00,ZJHK 040800Z 18003MPS 150V210 9999 -TSRA FEW030CB SCT040 22/21 Q1004 RESHRA NOSIG
ZJHK,2016-07-04 09:00,ZJHK 040900Z 28001MPS 9999 -TSRA FEW030CB SCT040 22/22 Q1004 BECMG TL0940 NSW
ZJHK,2016-07-04 10:00,ZJHK 041000Z 08002MPS 9999 -TSRA FEW033CB SCT046 23/22 Q1004 BECMG TL1030 NSW
ZJHK,2016-07-04 11:00,ZJHK 041100Z 13002MPS 9999 -SHRA FEW033CB SCT046 23/22 Q1003 RETS NOSIG
ZJHK,2016-07-04 12:00,ZJHK 041200Z 13002MPS 9999 SCT046 23/22 Q1004 NOSIG
ZJHK,2016-07-04 13:00,ZJHK 041300Z 15003MPS 110V180 CAVOK 23/23 Q1004 NOSIG
ZJHK,2016-07-04 14:00,ZJHK 041400Z 13002MPS CAVOK 24/22 Q1004 NOSIG
ZJHK,2016-07-04 15:00,ZJHK 041500Z 14002MPS CAVOK 23/22 Q1005 NOSIG
ZJHK,2016-07-04 16:00,ZJHK 041600Z 15002MPS CAVOK 24/23 Q1005 NOSIG
ZJHK,2016-07-04 17:00,ZJHK 041700Z 17002MPS CAVOK 24/23 Q1004 NOSIG
ZJHK,2016-07-04 18:00,ZJHK 041800Z 18003MPS 140V200 CAVOK 24/23 Q1003 NOSIG
ZJHK,2016-07-04 19:00,ZJHK 041900Z 16002MPS 120V200 CAVOK 24/22 Q1003 NOSIG
ZJHK,2016-07-04 20:00,ZJHK 042000Z 18002MPS CAVOK 24/22 Q1003 NOSIG
ZJHK,2016-07-04 21:00,ZJHK 042100Z 16002MPS 130V200 CAVOK 24/22 Q1003 NOSIG
ZJHK,2016-07-04 22:00,ZJHK 042200Z 17002MPS CAVOK 24/22 Q1003 NOSIG
ZJHK,2016-07-04 23:00,ZJHK 042300Z 18002MPS CAVOK 23/21 Q1004 NOSIG
ZJHK,2016-07-05 00:00,ZJHK 050000Z 18003MPS CAVOK 24/22 Q1004 NOSIG
ZJHK,2016-07-05 01:00,ZJHK 050100Z 19003MPS 160V220 CAVOK 25/22 Q1005 NOSIG
ZJHK,2016-07-05 02:00,ZJHK 050200Z 19002MPS 160V220 9999 FEW020 26/22 Q1005 NOSIG
ZJHK,2016-07-05 03:00,ZJHK 050300Z 16004MPS 130V190 9999 FEW016 27/22 Q1005 NOSIG
ZJHK,2016-07-05 04:00,ZJHK 050400Z 17005MPS 140V200 9999 SCT016 FEW023CB 27/22 Q1005 BECMG AT0430 SHRA
ZJHK,2016-07-05 05:00,ZJHK 050500Z 18003MPS 130V230 9999 FEW020TCU SCT020 27/22 Q1005 NOSIG
ZJHK,2016-07-05 06:00,ZJHK 050600Z 15006MPS 9999 FEW023CB SCT023 28/22 Q1005 BECMG AT0630 TS
ZJHK,2016-07-05 07:00,ZJHK 050700Z 15006MPS 120V200 9999 FEW020 27/21 Q1004 NOSIG
ZJHK,2016-07-05 08:00,ZJHK 050800Z 16005MPS 110V180 9999 SCT020 27/21 Q1004 NOSIG
ZJHK,2016-07-05 09:00,ZJHK 050900Z 14006MPS 110V180 9999 SCT026 32/25 Q1003 NOSIG
ZJHK,2016-07-05 10:00,ZJHK 051000Z 15005MPS 9999 SCT026 31/25 Q1004 NOSIG
ZJHK,2016-07-05 11:00,ZJHK 051100Z 14003MPS 110V180 9999 FEW026 29/26 Q1004 NOSIG
ZJHK,2016-07-05 12:00,ZJHK 051200Z 14003MPS 9999 FEW030 29/26 Q1005 NOSIG
ZJHK,2016-07-05 13:00,ZJHK 051300Z 14003MPS CAVOK 28/26 Q1006 NOSIG
ZJHK,2016-07-05 14:00,ZJHK 051400Z 14002MPS CAVOK 28/26 Q1006 NOSIG
ZJHK,2016-07-05 15:00,ZJHK 051500Z 12003MPS CAVOK 27/26 Q1007 NOSIG
ZJHK,2016-07-05 16:00,ZJHK 051600Z 14002MPS CAVOK 27/26 Q1007 NOSIG
ZJHK,2016-07-05 17:00,ZJHK 051700Z 12002MPS 8000 NSC 27/26 Q1007 NOSIG
ZJHK,2016-07-05 18:00,ZJHK 051800Z 12001MPS 7000 SCT012 27/26 Q1006 NOSIG
ZJHK,2016-07-05 19:00,ZJHK 051900Z 00000MPS 6000 NSC 26/26 Q1006 NOSIG
ZJHK,2016-07-05 20:00,ZJHK 052000Z 00000MPS 8000 NSC 26/26 Q1005 NOSIG
ZJHK,2016-07-05 21:00,ZJHK 052100Z 12001MPS 8000 NSC 26/26 Q1005 NOSIG
ZJHK,2016-07-05 22:00,ZJHK 052200Z 10002MPS 4000 BR FEW023 26/26 Q1005 NOSIG
ZJHK,2016-07-05 23:00,ZJHK 052300Z 10002MPS 7000 FEW023 27/26 Q1006 NOSIG
ZJHK,2016-07-06 00:00,ZJHK 060000Z 12002MPS 090V150 9999 FEW023 29/26 Q1006 NOSIG
ZJHK,2016-07-06 01:00,ZJHK 060100Z 12003MPS 080V160 9999 FEW023TCU FEW023 30/26 Q1007 NOSIG
ZJHK,2016-07-06 02:00,ZJHK 060200Z 12003MPS 090V150 9999 FEW023TCU FEW023 30/26 Q1007 NOSIG
ZJHK,2016-07-06 03:00,ZJHK 060300Z 13003MPS 080V170 9999 FEW023TCU SCT023 32/25 Q1007 NOSIG
ZJHK,2016-07-06 04:00,ZJHK 060400Z 12004MPS 080V160 9999 FEW023TCU SCT023 33/26 Q1007 NOSIG
ZJHK,2016-07-06 05:00,ZJHK 060500Z 06004MPS 030V110 9999 -TSRA FEW023CB SCT023 31/26 Q1007 BECMG AT0540 -SHRA
ZJHK,2016-07-06 06:00,ZJHK 060600Z 03005MPS 9999 TS FEW023CB FEW023 32/27 Q1006 NOSIG
ZJHK,2016-07-06 07:00,ZJHK 060700Z 09006MPS 8000 -TSRA FEW023CB SCT023 28/25 Q1006 RESHRA BECMG AT0740 NSW
ZJHK,2016-07-06 08:00,ZJHK 060800Z 11005MPS 080V150 9999 TS FEW023CB SCT023 31/25 Q1004 NOSIG
ZJHK,2016-07-06 09:00,ZJHK 060900Z 09005MPS 9999 TS FEW026CB FEW026 30/25 Q1005 BECMG TL0920 NSW
ZJHK,2016-07-06 10:00,ZJHK 061000Z 08004MPS 050V110 9999 FEW026 29/26 Q1005 RETS NOSIG
ZJHK,2016-07-06 11:00,ZJHK 061100Z 08005MPS 9999 FEW046 28/25 Q1005 NOSIG
ZJHK,2016-07-06 12:00,ZJHK 061200Z 10003MPS CAVOK 28/25 Q1005 NOSIG
ZJHK,2016-07-06 13:00,ZJHK 061300Z 11002MPS CAVOK 27/25 Q1006 NOSIG
ZJHK,2016-07-06 14:00,ZJHK 061400Z 10003MPS CAVOK 27/25 Q1007 NOSIG
ZJHK,2016-07-06 15:00,ZJHK 061500Z 08001MPS CAVOK 26/25 Q1007 NOSIG
ZJHK,2016-07-06 16:00,ZJHK 061600Z 07003MPS 030V120 CAVOK 27/25 Q1008 NOSIG
ZJHK,2016-07-06 17:00,ZJHK 061700Z 06002MPS 9999 SCT010 27/25 Q1007 NOSIG
ZJHK,2016-07-06 18:00,ZJHK 061800Z 05002MPS 9999 FEW010 26/26 Q1007 NOSIG
ZJHK,2016-07-06 19:00,ZJHK 061900Z 09002MPS 9999 FEW010 26/25 Q1006 NOSIG
ZJHK,2016-07-06 20:00,ZJHK 062000Z 13001MPS CAVOK 26/25 Q1005 NOSIG
ZJHK,2016-07-06 21:00,ZJHK 062100Z 13001MPS CAVOK 26/25 Q1005 NOSIG
ZJHK,2016-07-06 22:00,ZJHK 062200Z 00000MPS 7000 FEW006 26/25 Q1005 NOSIG
ZJHK,2016-07-06 23:00,ZJHK 062300Z 35001MPS 9999 SCT020 26/26 Q1006 NOSIG
ZJHK,2016-07-07 00:00,ZJHK 070000Z 04002MPS 9999 SCT015 28/26 Q1006 NOSIG
ZJHK,2016-07-07 01:00,ZJHK 070100Z 10002MPS 9999 BKN015 30/26 Q1007 NOSIG
ZJHK,2016-07-07 02:00,ZJHK 070200Z 07002MPS 030V120 9999 BKN016 31/26 Q1007 NOSIG
ZJHK,2016-07-07 03:00,ZJHK 070300Z 03003MPS 360V070 9999 FEW023TCU BKN023 31/26 Q1007 NOSIG
ZJHK,2016-07-07 04:00,ZJHK 070400Z 03003MPS 010V080 9999 FEW023CB SCT023 32/26 Q1006 NOSIG
ZJHK,2016-07-07 05:00,ZJHK 070500Z 05005MPS 4000 +SHRA FEW023CB SCT023 32/26 Q1006 BECMG TL0530 NSW
ZJHK,2016-07-07 06:00,ZJHK 070600Z 05004MPS 9999 FEW026CB FEW026 31/26 Q1005 RESHRA NOSIG
ZJHK,2016-07-07 07:00,ZJHK 070700Z 05005MPS 9999 FEW026CB FEW026 32/27 Q1005 NOSIG
ZJHK,2016-07-07 08:00,ZJHK 070800Z 07005MPS 9999 FEW026TCU FEW026 31/26 Q1004 NOSIG
ZJHK,2016-07-07 09:00,ZJHK 070900Z 08005MPS 050V110 9999 FEW023TCU FEW023 31/26 Q1004 NOSIG
ZJHK,2016-07-07 10:00,ZJHK 071000Z 08005MPS 9999 FEW023TCU FEW023 30/26 Q1004 NOSIG
ZJHK,2016-07-07 11:00,ZJHK 071100Z 12002MPS CAVOK 29/26 Q1005 NOSIG
ZJHK,2016-07-07 12:00,ZJHK 071200Z 15001MPS CAVOK 28/26 Q1005 NOSIG
ZJHK,2016-07-07 13:00,ZJHK 071300Z 11001MPS CAVOK 28/27 Q1006 NOSIG
ZJHK,2016-07-07 14:00,ZJHK 071400Z 12002MPS CAVOK 28/26 Q1006 NOSIG
ZJHK,2016-07-07 15:00,ZJHK 071500Z 22001MPS 9999 FEW014 27/26 Q1006 NOSIG
ZJHK,2016-07-07 16:00,ZJHK 071600Z 26001MPS 9999 FEW010 27/26 Q1005 NOSIG
ZJHK,2016-07-07 17:00,ZJHK 071700Z 24002MPS 9999 FEW016 27/26 Q1005 NOSIG
ZJHK,2016-07-07 18:00,ZJHK 071800Z 25001MPS CAVOK 27/26 Q1005 NOSIG
ZJHK,2016-07-07 19:00,ZJHK 071900Z 23002MPS CAVOK 26/25 Q1004 NOSIG
ZJHK,2016-07-07 20:00,ZJHK 072000Z 00000MPS CAVOK 26/25 Q1004 NOSIG
ZJHK,2016-07-07 21:00,ZJHK 072100Z 25002MPS CAVOK 25/25 Q1004 NOSIG
ZJHK,2016-07-07 22:00,ZJHK 072200Z 29001MPS CAVOK 25/24 Q1004 NOSIG
ZJHK,2016-07-07 23:00,ZJHK 072300Z 00000MPS CAVOK 27/25 Q1005 NOSIG
ZJHK,2016-07-08 00:00,ZJHK 080000Z 25002MPS CAVOK 29/25 Q1005 NOSIG
ZJHK,2016-07-08 01:00,ZJHK 080100Z 26002MPS CAVOK 30/26 Q1005 NOSIG
ZJHK,2016-07-08 02:00,ZJHK 080200Z 29003MPS 250V330 9999 FEW026 32/26 Q1005 NOSIG
ZJHK,2016-07-08 03:00,ZJHK 080300Z 29004MPS 250V320 9999 SCT026 33/25 Q1005 NOSIG
ZJHK,2016-07-08 04:00,ZJHK 080400Z 30004MPS 9999 SCT026 33/26 Q1004 NOSIG
ZJHK,2016-07-08 05:00,ZJHK 080500Z 31004MPS 280V340 9999 SCT026 34/26 Q1003 NOSIG
ZJHK,2016-07-08 06:00,ZJHK 080600Z 30004MPS 250V350 9999 SCT026 34/26 Q1003 NOSIG
ZJHK,2016-07-08 07:00,ZJHK 080700Z 28005MPS 250V310 9999 FEW026 34/25 Q1002 NOSIG
ZJHK,2016-07-08 08:00,ZJHK 080800Z 30005MPS 260V330 9999 FEW026 34/25 Q1002 NOSIG
ZJHK,2016-07-08 09:00,ZJHK 080900Z 28005MPS 9999 FEW026 33/25 Q1001 NOSIG
ZJHK,2016-07-08 10:00,ZJHK 081000Z 30005MPS 9999 FEW026 32/26 Q1001 NOSIG
ZJHK,2016-07-08 11:00,ZJHK 081100Z 28003MPS CAVOK 30/26 Q1001 NOSIG
ZJHK,2016-07-08 12:00,ZJHK 081200Z 28003MPS CAVOK 29/26 Q1001 NOSIG
ZJHK,2016-07-08 13:00,ZJHK 081300Z 28002MPS CAVOK 28/25 Q1002 NOSIG
ZJHK,2016-07-08 14:00,ZJHK 081400Z 27002MPS CAVOK 27/26 Q1003 NOSIG
ZJHK,2016-07-08 15:00,ZJHK 081500Z 26002MPS CAVOK 28/26 Q1003 NOSIG
ZJHK,2016-07-08 16:00,ZJHK 081600Z 23002MPS CAVOK 27/26 Q1003 NOSIG
ZJHK,2016-07-08 17:00,ZJHK 081700Z 23002MPS CAVOK 27/26 Q1002 NOSIG
ZJHK,2016-07-08 18:00,ZJHK 081800Z 26002MPS CAVOK 27/26 Q1002 NOSIG
ZJHK,2016-07-08 19:00,ZJHK 081900Z 24002MPS CAVOK 27/26 Q1002 NOSIG
ZJHK,2016-07-08 20:00,ZJHK 082000Z 25002MPS CAVOK 27/26 Q1002 NOSIG
ZJHK,2016-07-08 21:00,ZJHK 082100Z 26002MPS 7000 NSC 26/25 Q1002 NOSIG
ZJHK,2016-07-08 22:00,ZJHK 082200Z 27002MPS CAVOK 26/25 Q1002 NOSIG
ZJHK,2016-07-08 23:00,ZJHK 082300Z 27002MPS CAVOK 27/26 Q1003 NOSIG
ZJHK,2016-07-09 00:00,ZJHK 090000Z 27003MPS CAVOK 29/26 Q1003 NOSIG
ZJHK,2016-07-09 01:00,ZJHK 090100Z 28005MPS CAVOK 31/25 Q1003 NOSIG
ZJHK,2016-07-09 02:00,ZJHK 090200Z 28005MPS CAVOK 32/24 Q1003 NOSIG
ZJHK,2016-07-09 03:00,ZJHK 090300Z 28004MPS 250V310 CAVOK 34/25 Q1002 NOSIG
ZJHK,2016-07-09 04:00,ZJHK 090400Z 31005MPS 270V340 CAVOK 35/25 Q1002 NOSIG
ZJHK,2016-07-09 05:00,ZJHK 090500Z 30005MPS 260V330 9999 FEW030 35/25 Q1001 NOSIG
ZJHK,2016-07-09 06:00,ZJHK 090600Z 33005MPS 9999 FEW030 34/26 Q1001 NOSIG
ZJHK,2016-07-09 07:00,ZJHK 090700Z 32005MPS 290V360 9999 FEW030 34/26 Q1000 NOSIG
ZJHK,2016-07-09 08:00,ZJHK 090800Z 33005MPS 9999 FEW030 34/26 Q1000 NOSIG
ZJHK,2016-07-09 09:00,ZJHK 090900Z 33004MPS 9999 FEW030 33/26 Q1000 NOSIG
ZJHK,2016-07-09 10:00,ZJHK 091000Z 31003MPS 9999 FEW030 32/25 Q0999 NOSIG
ZJHK,2016-07-09 11:00,ZJHK 091100Z 30002MPS 9999 FEW030 31/25 Q0999 NOSIG
ZJHK,2016-07-09 12:00,ZJHK 091200Z 25002MPS 9999 FEW030 30/26 Q1000 NOSIG
ZJHK,2016-07-09 13:00,ZJHK 091300Z 26001MPS CAVOK 29/27 Q1001 NOSIG
ZJHK,2016-07-09 14:00,ZJHK 091400Z 22002MPS 9999 FEW033 29/27 Q1001 NOSIG
ZJHK,2016-07-09 15:00,ZJHK 091500Z 25002MPS 9999 SCT033 29/27 Q1002 NOSIG
ZJHK,2016-07-09 16:00,ZJHK 091600Z 29002MPS 9999 SCT020 BKN046 29/26 Q1001 NOSIG
ZJHK,2016-07-09 17:00,ZJHK 091700Z 32001MPS 9999 SCT020 BKN046 28/27 Q1001 NOSIG
ZJHK,2016-07-09 18:00,ZJHK 091800Z 00000MPS 9999 SCT046 29/27 Q1000 NOSIG
ZJHK,2016-07-09 19:00,ZJHK 091900Z 00000MPS CAVOK 28/27 Q1000 NOSIG
ZJHK,2016-07-09 20:00,ZJHK 092000Z 00000MPS CAVOK 27/27 Q1000 NOSIG
ZJHK,2016-07-09 21:00,ZJHK 092100Z 27001MPS CAVOK 27/26 Q1000 NOSIG
ZJHK,2016-07-09 22:00,ZJHK 092200Z 20002MPS 9999 FEW020 28/26 Q1000 NOSIG
ZJHK,2016-07-09 23:00,ZJHK 092300Z 11001MPS 9999 FEW040 28/27 Q1001 NOSIG
ZJHK,2016-07-10 00:00,ZJHK 100000Z 00000MPS CAVOK 30/26 Q1001 NOSIG
ZJHK,2016-07-10 01:00,ZJHK 100100Z 15001MPS CAVOK 31/27 Q1001 NOSIG
ZJHK,2016-07-10 02:00,ZJHK 100200Z 10001MPS 9999 FEW023 32/27 Q1001 NOSIG
ZJHK,2016-07-10 03:00,ZJHK 100300Z 20001MPS 9999 FEW026 34/27 Q1001 NOSIG
ZJHK,2016-07-10 04:00,ZJHK 100400Z 22001MPS 9999 FEW026 34/26 Q1001 NOSIG
ZJHK,2016-07-10 05:00,ZJHK 100500Z 22001MPS 9999 SCT026 35/25 Q1000 NOSIG
ZJHK,2016-07-10 06:00,ZJHK 100600Z 01003MPS 330V070 9999 SCT026 35/27 Q0999 NOSIG
ZJHK,2016-07-10 07:00,ZJHK 100700Z 01003MPS 9999 FEW026TCU 35/27 Q0999 NOSIG
ZJHK,2016-07-10 08:00,ZJHK 100800Z 06004MPS 9999 FEW026TCU 35/26 Q0998 NOSIG
ZJHK,2016-07-10 09:00,ZJHK 100900Z 03003MPS 9999 FEW033 34/26 Q0998 NOSIG
ZJHK,2016-07-10 10:00,ZJHK 101000Z 05002MPS 020V090 9999 FEW040 34/26 Q0999 NOSIG
ZJHK,2016-07-10 11:00,ZJHK 101100Z 05003MPS 9999 FEW040TCU FEW040 33/25 Q0999 NOSIG
ZJHK,2016-07-10 12:00,ZJHK 101200Z 14003MPS 9999 FEW023TCU SCT033 31/26 Q1000 NOSIG
ZJHK,2016-07-10 13:00,ZJHK 101300Z 00000MPS 9999 SCT033 30/26 Q1001 NOSIG
ZJHK,2016-07-10 14:00,ZJHK 101400Z 00000MPS 9999 SCT033 30/26 Q1001 NOSIG
ZJHK,2016-07-10 15:00,ZJHK 101500Z 00000MPS 9999 FEW040 29/26 Q1002 NOSIG
ZJHK,2016-07-10 16:00,ZJHK 101600Z 16001MPS 9999 SCT040 29/27 Q1002 NOSIG
ZJHK,2016-07-10 17:00,ZJHK 101700Z 18002MPS 9999 FEW040 29/26 Q1001 NOSIG
ZJHK,2016-07-10 18:00,ZJHK 101800Z 13001MPS 9999 FEW040 28/27 Q1001 NOSIG
ZJHK,2016-07-10 19:00,ZJHK 101900Z 14002MPS CAVOK 28/27 Q1001 NOSIG
ZJHK,2016-07-10 20:00,ZJHK 102000Z 14002MPS 110V170 CAVOK 28/27 Q1000 NOSIG
ZJHK,2016-07-10 21:00,ZJHK 102100Z 21003MPS CAVOK 28/26 Q1000 NOSIG
ZJHK,2016-07-10 22:00,ZJHK 102200Z 23002MPS 190V270 CAVOK 28/25 Q1000 NOSIG
ZJHK,2016-07-10 23:00,ZJHK 102300Z 25003MPS CAVOK 28/26 Q1001 NOSIG
ZJHK,2016-07-11 00:00,ZJHK 110000Z 26002MPS CAVOK 30/26 Q1001 NOSIG
ZJHK,2016-07-11 01:00,ZJHK 110100Z 27002MPS 230V320 CAVOK 32/26 Q1002 NOSIG
ZJHK,2016-07-11 02:00,ZJHK 110200Z 30002MPS CAVOK 34/26 Q1002 NOSIG
ZJHK,2016-07-11 03:00,ZJHK 110300Z 29002MPS 210V360 CAVOK 35/26 Q1002 NOSIG
ZJHK,2016-07-11 04:00,ZJHK 110400Z 20002MPS 9999 FEW023TCU FEW023 35/25 Q1002 NOSIG
ZJHK,2016-07-11 05:00,ZJHK 110500Z 04003MPS 360V090 9999 FEW023TCU FEW023 36/26 Q1001 NOSIG
ZJHK,2016-07-11 06:00,ZJHK 110600Z 01003MPS 300V060 9999 FEW023TCU SCT023 SCT046 36/26 Q1001 NOSIG
ZJHK,2016-07-11 07:00,ZJHK 110700Z 08004MPS 040V130 9999 TS FEW023CB SCT023 SCT046 33/26 Q1000 BECMG AT0730 10009G14MPS TSRA
ZJHK,2016-07-11 08:00,ZJHK 110800Z 11004MPS 9999 TS FEW023CB SCT023 SCT026 30/26 Q1000 RESHRA BECMG AT0830 NSW
ZJHK,2016-07-11 09:00,ZJHK 110900Z 17002MPS 9999 FEW026CB 31/25 Q1000 RETS NOSIG
ZJHK,2016-07-11 10:00,ZJHK 111000Z 15003MPS 120V180 CAVOK 32/26 Q1000 NOSIG
ZJHK,2016-07-11 11:00,ZJHK 111100Z 22007MPS 9999 FEW023CB SCT040 27/24 Q1002 BECMG AT1120 TSRA
ZJHK,2016-07-11 12:00,ZJHK 111200Z 20003MPS 170V270 9999 -TSRA FEW023CB BKN046 26/24 Q1001 BECMG TL1230 NSW
ZJHK,2016-07-11 13:00,ZJHK 111300Z 16002MPS 9999 BKN046 26/24 Q1002 RETS NOSIG
ZJHK,2016-07-11 14:00,ZJHK 111400Z 11003MPS 9999 BKN046 26/25 Q1003 NOSIG
ZJHK,2016-07-11 15:00,ZJHK 111500Z 13001MPS 9999 SCT046 26/24 Q1003 NOSIG
ZJHK,2016-07-11 16:00,ZJHK 111600Z 19001MPS CAVOK 26/24 Q1002 NOSIG
ZJHK,2016-07-11 17:00,ZJHK 111700Z 19002MPS CAVOK 26/23 Q1002 NOSIG
ZJHK,2016-07-11 18:00,ZJHK 111800Z 13001MPS CAVOK 26/24 Q1002 NOSIG
ZJHK,2016-07-11 19:00,ZJHK 111900Z 12001MPS CAVOK 26/24 Q1002 NOSIG
ZJHK,2016-07-11 20:00,ZJHK 112000Z 00000MPS CAVOK 26/24 Q1002 NOSIG
ZJHK,2016-07-11 21:00,ZJHK 112100Z 24001MPS CAVOK 26/24 Q1002 NOSIG
ZJHK,2016-07-11 22:00,ZJHK 112200Z 24002MPS CAVOK 26/24 Q1002 NOSIG
ZJHK,2016-07-11 23:00,ZJHK 112300Z 21001MPS CAVOK 26/25 Q1003 NOSIG
ZJHK,2016-07-12 00:00,ZJHK 120000Z 21002MPS CAVOK 27/25 Q1003 NOSIG
ZJHK,2016-07-12 01:00,ZJHK 120100Z 20002MPS CAVOK 29/26 Q1003 NOSIG
ZJHK,2016-07-12 02:00,ZJHK 120200Z 21002MPS 180V240 CAVOK 30/26 Q1003 NOSIG
ZJHK,2016-07-12 03:00,ZJHK 120300Z 19002MPS CAVOK 32/25 Q1003 NOSIG
ZJHK,2016-07-12 04:00,ZJHK 120400Z 00000MPS CAVOK 32/24 Q1003 NOSIG
ZJHK,2016-07-12 05:00,ZJHK 120500Z 11002MPS CAVOK 33/25 Q1002 NOSIG
ZJHK,2016-07-12 06:00,ZJHK 120600Z 12003MPS 070V150 CAVOK 33/26 Q1002 NOSIG
ZJHK,2016-07-12 07:00,ZJHK 120700Z 10003MPS 080V150 CAVOK 33/27 Q1001 NOSIG
ZJHK,2016-07-12 08:00,ZJHK 120800Z 11003MPS 080V140 9999 FEW026 32/26 Q1001 NOSIG
ZJHK,2016-07-12 09:00,ZJHK 120900Z 14003MPS 110V170 9999 FEW026TCU FEW026 31/27 Q1001 BECMG AT0940 TS
ZJHK,2016-07-12 10:00,ZJHK 121000Z 14003MPS 9999 FEW026TCU FEW040 31/27 Q1002 BECMG AT1040 TS
ZJHK,2016-07-12 11:00,ZJHK 121100Z 13002MPS 9999 SCT040 30/27 Q1002 NOSIG
ZJHK,2016-07-12 12:00,ZJHK 121200Z 14002MPS 9999 SCT040 29/27 Q1003 NOSIG
ZJHK,2016-07-12 13:00,ZJHK 121300Z 14001MPS 9999 SCT040 29/26 Q1002 NOSIG
ZJHK,2016-07-12 14:00,ZJHK 121400Z 19002MPS 9999 FEW046 29/27 Q1003 NOSIG
ZJHK,2016-07-12 15:00,ZJHK 121500Z 17001MPS 9999 FEW046 28/27 Q1003 NOSIG
ZJHK,2016-07-12 16:00,ZJHK 121600Z 14002MPS 9999 FEW046 28/27 Q1003 NOSIG
ZJHK,2016-07-12 17:00,ZJHK 121700Z 15002MPS CAVOK 28/27 Q1003 NOSIG
ZJHK,2016-07-12 18:00,ZJHK 121800Z 16002MPS CAVOK 28/26 Q1002 NOSIG
ZJHK,2016-07-12 19:00,ZJHK 121900Z 20002MPS CAVOK 27/26 Q1002 NOSIG
ZJHK,2016-07-12 20:00,ZJHK 122000Z 28002MPS 9999 SCT010 27/26 Q1002 NOSIG
ZJHK,2016-07-12 21:00,ZJHK 122100Z 18002MPS CAVOK 27/26 Q1002 NOSIG
ZJHK,2016-07-12 22:00,ZJHK 122200Z 20002MPS 170V240 CAVOK 27/26 Q1002 NOSIG
ZJHK,2016-07-12 23:00,ZJHK 122300Z 20003MPS CAVOK 27/26 Q1003 NOSIG
ZJHK,2016-07-13 00:00,ZJHK 130000Z 19003MPS 160V230 CAVOK 30/26 Q1003 NOSIG
ZJHK,2016-07-13 01:00,ZJHK 130100Z 20003MPS 170V230 CAVOK 31/25 Q1004 NOSIG
ZJHK,2016-07-13 02:00,ZJHK 130200Z 20003MPS 140V250 9999 FEW023 32/25 Q1004 NOSIG
ZJHK,2016-07-13 03:00,ZJHK 130300Z 20003MPS 150V230 9999 BKN023 34/26 Q1004 NOSIG
ZJHK,2016-07-13 04:00,ZJHK 130400Z 22003MPS 160V270 9999 FEW025TCU BKN025 34/26 Q1004 NOSIG
ZJHK,2016-07-13 05:00,ZJHK 130500Z 22003MPS 170V250 9999 FEW025TCU BKN025 35/25 Q1003 NOSIG
ZJHK,2016-07-13 06:00,ZJHK 130600Z 23003MPS 190V280 9999 FEW025CB FEW025 34/26 Q1002 BECMG AT0630 TS
ZJHK,2016-07-13 07:00,ZJHK 130700Z 03005MPS 9999 FEW025TCU FEW025 33/26 Q1001 BECMG AT0730 TS
ZJHK,2016-07-13 08:00,ZJHK 130800Z 30009MPS 1000 R27/0300V0400 +SHRA SCT010 SCT023CB SCT023 26/24 Q1002 BECMG AT0900 18004MPS 3000 -SHRA
ZJHK,2016-07-13 09:00,ZJHK 130900Z 12002MPS 5000 -TSRA SCT008 SCT023CB SCT023 24/24 Q1002 RESHRA BECMG AT0930 NSW
ZJHK,2016-07-13 10:00,ZJHK 131000Z 12003MPS 9999 -SHRA FEW026TCU SCT040 25/25 Q1002 RETS NOSIG
ZJHK,2016-07-13 11:00,ZJHK 131100Z 13002MPS 9999 -SHRA FEW026TCU SCT040 25/24 Q1002 NOSIG
ZJHK,2016-07-13 12:00,ZJHK 131200Z VRB01MPS CAVOK 25/25 Q1003 NOSIG
ZJHK,2016-07-13 13:00,ZJHK 131300Z 12001MPS CAVOK 25/25 Q1003 NOSIG
ZJHK,2016-07-13 14:00,ZJHK 131400Z 14001MPS CAVOK 25/25 Q1004 NOSIG
ZJHK,2016-07-13 15:00,ZJHK 131500Z 16003MPS 9999 FEW016 26/25 Q1005 NOSIG
ZJHK,2016-07-13 16:00,ZJHK 131600Z 15002MPS CAVOK 26/25 Q1005 NOSIG
ZJHK,2016-07-13 17:00,ZJHK 131700Z 14002MPS CAVOK 26/25 Q1005 NOSIG
ZJHK,2016-07-13 18:00,ZJHK 131800Z 14002MPS CAVOK 26/25 Q1004 NOSIG
ZJHK,2016-07-13 19:00,ZJHK 131900Z 17001MPS CAVOK 26/26 Q1004 NOSIG
ZJHK,2016-07-13 20:00,ZJHK 132000Z 17002MPS CAVOK 27/26 Q1003 NOSIG
ZJHK,2016-07-13 21:00,ZJHK 132100Z 16002MPS 130V190 CAVOK 27/26 Q1004 NOSIG
ZJHK,2016-07-13 22:00,ZJHK 132200Z 16002MPS CAVOK 27/26 Q1004 NOSIG
ZJHK,2016-07-13 23:00,ZJHK 132300Z 17001MPS CAVOK 28/26 Q1004 NOSIG
ZJHK,2016-07-14 00:00,ZJHK 140000Z 18003MPS 150V210 CAVOK 29/26 Q1005 NOSIG
ZJHK,2016-07-14 01:00,ZJHK 140100Z 20003MPS 170V230 CAVOK 29/26 Q1006 NOSIG
ZJHK,2016-07-14 02:00,ZJHK 140200Z 21004MPS 180V250 9999 FEW020 32/26 Q1006 NOSIG
ZJHK,2016-07-14 03:00,ZJHK 140300Z 22005MPS 9999 SCT020 32/26 Q1006 NOSIG
ZJHK,2016-07-14 04:00,ZJHK 140400Z 20005MPS 160V240 9999 SCT020 33/26 Q1005 NOSIG
ZJHK,2016-07-14 05:00,ZJHK 140500Z 19004MPS 160V230 9999 BKN020 34/26 Q1005 NOSIG
ZJHK,2016-07-14 06:00,ZJHK 140600Z 18003MPS 150V230 9999 FEW023TCU BKN023 34/26 Q1004 NOSIG
ZJHK,2016-07-14 07:00,ZJHK 140700Z 17003MPS 140V200 9999 SCT023 FEW026CB 33/26 Q1003 NOSIG
ZJHK,2016-07-14 08:00,ZJHK 140800Z 16001MPS 9999 FEW023CB SCT023 BKN033 34/27 Q1003 BECMG AT0840 -TSRA
ZJHK,2016-07-14 09:00,ZJHK 140900Z VRB02MPS 1000 R27/P2000 +TSRA SCT007 SCT023CB 28/25 Q1004 BECMG AT0920 3000 -SHRA
ZJHK,2016-07-14 10:00,ZJHK 141000Z 12002MPS 9999 -TSRA FEW016 FEW023CB 26/25 Q1004 RESHRA BECMG AT1030 NSW
ZJHK,2016-07-14 11:00,ZJHK 141100Z 14002MPS CAVOK 27/25 Q1004 RETS NOSIG
ZJHK,2016-07-14 12:00,ZJHK 141200Z 12002MPS CAVOK 26/25 Q1005 NOSIG
ZJHK,2016-07-14 13:00,ZJHK 141300Z 12002MPS CAVOK 27/25 Q1005 NOSIG
ZJHK,2016-07-14 14:00,ZJHK 141400Z 13002MPS CAVOK 27/26 Q1006 NOSIG
ZJHK,2016-07-14 15:00,ZJHK 141500Z 16001MPS CAVOK 27/27 Q1006 NOSIG
ZJHK,2016-07-14 16:00,ZJHK 141600Z 19002MPS CAVOK 28/26 Q1006 NOSIG
ZJHK,2016-07-14 17:00,ZJHK 141700Z 20002MPS CAVOK 27/26 Q1006 NOSIG
ZJHK,2016-07-14 18:00,ZJHK 141800Z 20002MPS CAVOK 27/26 Q1006 NOSIG
ZJHK,2016-07-14 19:00,ZJHK 141900Z 19002MPS CAVOK 27/25 Q1006 NOSIG
ZJHK,2016-07-14 20:00,ZJHK 142000Z 19002MPS CAVOK 27/25 Q1005 NOSIG
ZJHK,2016-07-14 21:00,ZJHK 142100Z 18002MPS CAVOK 27/25 Q1005 NOSIG
ZJHK,2016-07-14 22:00,ZJHK 142200Z 18003MPS CAVOK 27/25 Q1006 NOSIG
ZJHK,2016-07-14 23:00,ZJHK 142300Z 19003MPS CAVOK 27/25 Q1006 NOSIG
ZJHK,2016-07-15 00:00,ZJHK 150000Z 19003MPS 150V210 CAVOK 29/26 Q1007 NOSIG
ZJHK,2016-07-15 01:00,ZJHK 150100Z 20004MPS CAVOK 31/26 Q1007 NOSIG
ZJHK,2016-07-15 02:00,ZJHK 150200Z 19003MPS 140V240 CAVOK 32/27 Q1007 NOSIG
ZJHK,2016-07-15 03:00,ZJHK 150300Z 21003MPS 160V240 9999 FEW020 33/27 Q1007 NOSIG
ZJHK,2016-07-15 04:00,ZJHK 150400Z 20003MPS 150V230 9999 FEW023TCU SCT023 33/26 Q1007 NOSIG
ZJHK,2016-07-15 05:00,ZJHK 150500Z 19003MPS 160V220 9999 FEW023TCU SCT023 34/27 Q1006 NOSIG
ZJHK,2016-07-15 06:00,ZJHK 150600Z 20003MPS 170V240 9999 FEW023CB FEW023 35/27 Q1005 BECMG TL0700 TS
ZJHK,2016-07-15 07:00,ZJHK 150700Z 15005MPS 120V180 9999 -SHRA FEW023CB FEW023 30/26 Q1005 BECMG TL0800 21003MPS
ZJHK,2016-07-15 08:00,ZJHK 150800Z 15004MPS 120V180 9999 FEW023 32/25 Q1004 NOSIG
ZJHK,2016-07-15 09:00,ZJHK 150900Z 16004MPS CAVOK 33/26 Q1004 NOSIG
ZJHK,2016-07-15 10:00,ZJHK 151000Z 15003MPS CAVOK 33/27 Q1004 NOSIG
ZJHK,2016-07-15 11:00,ZJHK 151100Z 16003MPS 130V190 CAVOK 31/27 Q1004 NOSIG
ZJHK,2016-07-15 12:00,ZJHK 151200Z 15002MPS 9999 FEW033CB 29/27 Q1005 NOSIG
ZJHK,2016-07-15 13:00,ZJHK 151300Z 15002MPS 120V180 CAVOK 29/27 Q1006 NOSIG
ZJHK,2016-07-15 14:00,ZJHK 151400Z 19002MPS CAVOK 29/27 Q1007 NOSIG
ZJHK,2016-07-15 15:00,ZJHK 151500Z 21001MPS CAVOK 28/27 Q1007 NOSIG
ZJHK,2016-07-15 16:00,ZJHK 151600Z 25001MPS 9999 SCT046 28/27 Q1007 NOSIG
ZJHK,2016-07-15 17:00,ZJHK 151700Z 18002MPS 9999 FEW046 28/27 Q1007 NOSIG
ZJHK,2016-07-15 18:00,ZJHK 151800Z 17002MPS CAVOK 28/27 Q1006 NOSIG
ZJHK,2016-07-15 19:00,ZJHK 151900Z 15002MPS CAVOK 28/26 Q1006 NOSIG
ZJHK,2016-07-15 20:00,ZJHK 152000Z 18002MPS CAVOK 27/26 Q1006 NOSIG
ZJHK,2016-07-15 21:00,ZJHK 152100Z 19002MPS CAVOK 27/26 Q1006 NOSIG
ZJHK,2016-07-15 22:00,ZJHK 152200Z 20002MPS CAVOK 27/26 Q1007 NOSIG
ZJHK,2016-07-15 23:00,ZJHK 152300Z 19003MPS 160V220 CAVOK 28/26 Q1007 NOSIG
ZJHK,2016-07-16 00:00,ZJHK 160000Z 18003MPS CAVOK 30/26 Q1007 NOSIG
ZJHK,2016-07-16 01:00,ZJHK 160100Z 19004MPS 160V230 CAVOK 31/26 Q1007 NOSIG
ZJHK,2016-07-16 02:00,ZJHK 160200Z 19004MPS 160V220 CAVOK 32/26 Q1008 NOSIG
ZJHK,2016-07-16 03:00,ZJHK 160300Z 19004MPS 160V230 CAVOK 33/26 Q1008 NOSIG
ZJHK,2016-07-16 04:00,ZJHK 160400Z 22004MPS 170V250 CAVOK 34/26 Q1007 NOSIG
ZJHK,2016-07-16 05:00,ZJHK 160500Z 22003MPS 190V260 9999 FEW030 35/26 Q1007 NOSIG
ZJHK,2016-07-16 06:00,ZJHK 160600Z 21002MPS 9999 FEW030 36/25 Q1007 NOSIG
ZJHK,2016-07-16 07:00,ZJHK 160700Z 19001MPS 9999 SCT030 37/25 Q1006 NOSIG
ZJHK,2016-07-16 08:00,ZJHK 160800Z 14001MPS 9999 FEW030TCU SCT030 36/26 Q1006 NOSIG
ZJHK,2016-07-16 09:00,ZJHK 160900Z 15004MPS 110V180 9999 FEW026CB FEW026 34/28 Q1005 NOSIG
ZJHK,2016-07-16 10:00,ZJHK 161000Z 01003MPS 9999 TS FEW026CB SCT046 31/25 Q1006 BECMG TL1100 NSW
ZJHK,2016-07-16 11:00,ZJHK 161100Z 22002MPS 150V290 9999 FEW023 27/23 Q1005 RETS NOSIG
ZJHK,2016-07-16 12:00,ZJHK 161200Z 19001MPS 9999 FEW023 27/24 Q1006 NOSIG
ZJHK,2016-07-16 13:00,ZJHK 161300Z 16002MPS 9999 FEW030 28/27 Q1007 NOSIG
ZJHK,2016-07-16 14:00,ZJHK 161400Z 15003MPS CAVOK 28/27 Q1008 NOSIG
ZJHK,2016-07-16 15:00,ZJHK 161500Z 14002MPS CAVOK 28/27 Q1008 NOSIG
ZJHK,2016-07-16 16:00,ZJHK 161600Z 15001MPS 9999 FEW040 28/27 Q1008 NOSIG
ZJHK,2016-07-16 17:00,ZJHK 161700Z 16001MPS CAVOK 28/27 Q1008 NOSIG
ZJHK,2016-07-16 18:00,ZJHK 161800Z 18001MPS CAVOK 28/26 Q1008 NOSIG
ZJHK,2016-07-16 19:00,ZJHK 161900Z 18002MPS CAVOK 28/26 Q1007 NOSIG
ZJHK,2016-07-16 20:00,ZJHK 162000Z 15002MPS CAVOK 27/26 Q1007 NOSIG
ZJHK,2016-07-16 21:00,ZJHK 162100Z 17002MPS CAVOK 27/26 Q1007 NOSIG
ZJHK,2016-07-16 22:00,ZJHK 162200Z 18002MPS CAVOK 27/26 Q1008 NOSIG
ZJHK,2016-07-16 23:00,ZJHK 162300Z 18002MPS 150V210 CAVOK 28/26 Q1008 NOSIG
ZJHK,2016-07-17 00:00,ZJHK 170000Z 20003MPS CAVOK 29/26 Q1008 NOSIG
ZJHK,2016-07-17 01:00,ZJHK 170100Z 21004MPS CAVOK 31/26 Q1008 NOSIG
ZJHK,2016-07-17 02:00,ZJHK 170200Z 20003MPS 160V230 CAVOK 33/27 Q1008 NOSIG
ZJHK,2016-07-17 03:00,ZJHK 170300Z 20002MPS 140V270 CAVOK 34/26 Q1008 NOSIG
ZJHK,2016-07-17 04:00,ZJHK 170400Z 23002MPS 160V260 9999 FEW030 35/25 Q1007 NOSIG
ZJHK,2016-07-17 05:00,ZJHK 170500Z 21002MPS 150V290 9999 FEW030 35/25 Q1007 NOSIG
ZJHK,2016-07-17 06:00,ZJHK 170600Z 19002MPS 9999 FEW030TCU SCT030 36/25 Q1006 NOSIG
ZJHK,2016-07-17 07:00,ZJHK 170700Z 18001MPS 9999 FEW030CB SCT030 35/25 Q1005 NOSIG
ZJHK,2016-07-17 08:00,ZJHK 170800Z 12003MPS 9999 FEW030CB SCT030 32/28 Q1005 NOSIG
ZJHK,2016-07-17 09:00,ZJHK 170900Z 11002MPS 9999 FEW030TCU FEW030 32/28 Q1005 NOSIG
ZJHK,2016-07-17 10:00,ZJHK 171000Z 13003MPS 9999 FEW023 33/28 Q1004 NOSIG
ZJHK,2016-07-17 11:00,ZJHK 171100Z 13003MPS 9999 FEW030CB SCT030 31/27 Q1005 BECMG AT1120 TS
ZJHK,2016-07-17 12:00,ZJHK 171200Z 14003MPS 9999 TS FEW030CB SCT040 30/27 Q1006 BECMG AT1230 NSW
ZJHK,2016-07-17 13:00,ZJHK 171300Z 14003MPS CAVOK 29/27 Q1007 RETS NOSIG
ZJHK,2016-07-17 14:00,ZJHK 171400Z 16003MPS 130V190 9999 FEW023CB SCT040 29/26 Q1007 NOSIG
ZJHK,2016-07-17 15:00,ZJHK 171500Z 16003MPS 140V200 9999 FEW040 28/26 Q1007 NOSIG
ZJHK,2016-07-17 16:00,ZJHK 171600Z 16003MPS 130V190 CAVOK 28/26 Q1007 NOSIG
ZJHK,2016-07-17 17:00,ZJHK 171700Z 16003MPS CAVOK 28/26 Q1007 NOSIG
ZJHK,2016-07-17 18:00,ZJHK 171800Z 16003MPS CAVOK 28/26 Q1006 NOSIG
ZJHK,2016-07-17 19:00,ZJHK 171900Z 18003MPS CAVOK 28/26 Q1006 NOSIG
ZJHK,2016-07-17 20:00,ZJHK 172000Z 18004MPS CAVOK 28/26 Q1005 NOSIG
ZJHK,2016-07-17 21:00,ZJHK 172100Z 19003MPS CAVOK 28/26 Q1005 NOSIG
ZJHK,2016-07-17 22:00,ZJHK 172200Z 18003MPS 150V210 CAVOK 27/25 Q1006 NOSIG
ZJHK,2016-07-17 23:00,ZJHK 172300Z 18004MPS CAVOK 28/26 Q1006 NOSIG
ZJHK,2016-07-18 00:00,ZJHK 180000Z 19004MPS 160V230 CAVOK 30/26 Q1006 NOSIG
ZJHK,2016-07-18 01:00,ZJHK 180100Z 19005MPS 160V230 CAVOK 31/26 Q1007 NOSIG
ZJHK,2016-07-18 02:00,ZJHK 180200Z 20005MPS CAVOK 32/25 Q1007 NOSIG
ZJHK,2016-07-18 03:00,ZJHK 180300Z 19004MPS 150V220 CAVOK 34/26 Q1006 NOSIG
ZJHK,2016-07-18 04:00,ZJHK 180400Z 19004MPS 160V230 CAVOK 34/26 Q1005 NOSIG
ZJHK,2016-07-18 05:00,ZJHK 180500Z 16003MPS 120V200 9999 FEW023 35/26 Q1005 NOSIG
ZJHK,2016-07-18 06:00,ZJHK 180600Z 16004MPS 120V210 9999 FEW023TCU FEW023 35/26 Q1004 NOSIG
ZJHK,2016-07-18 07:00,ZJHK 180700Z 16005MPS 9999 FEW026TCU SCT026 35/27 Q1004 NOSIG
ZJHK,2016-07-18 08:00,ZJHK 180800Z 15005MPS 9999 FEW026TCU FEW026 34/27 Q1003 NOSIG
ZJHK,2016-07-18 09:00,ZJHK 180900Z 16005MPS 130V190 9999 FEW026TCU FEW026 34/26 Q1003 NOSIG
ZJHK,2016-07-18 10:00,ZJHK 181000Z 16006MPS 130V190 9999 FEW026TCU 32/26 Q1003 NOSIG
ZJHK,2016-07-18 11:00,ZJHK 181100Z 16004MPS 9999 FEW026TCU 31/26 Q1004 NOSIG
ZJHK,2016-07-18 12:00,ZJHK 181200Z 16004MPS 9999 FEW030 30/25 Q1005 NOSIG
ZJHK,2016-07-18 13:00,ZJHK 181300Z 17005MPS 140V200 9999 FEW030 29/25 Q1005 NOSIG
ZJHK,2016-07-18 14:00,ZJHK 181400Z 17005MPS 140V200 CAVOK 29/26 Q1005 NOSIG
ZJHK,2016-07-18 15:00,ZJHK 181500Z 18004MPS 150V220 CAVOK 29/26 Q1006 NOSIG
ZJHK,2016-07-18 16:00,ZJHK 181600Z 18004MPS 150V220 CAVOK 28/26 Q1006 NOSIG
ZJHK,2016-07-18 17:00,ZJHK 181700Z 19003MPS 150V210 CAVOK 28/26 Q1005 NOSIG
ZJHK,2016-07-18 18:00,ZJHK 181800Z 17004MPS 140V200 CAVOK 28/26 Q1005 NOSIG
ZJHK,2016-07-18 19:00,ZJHK 181900Z 17004MPS CAVOK 28/26 Q1004 NOSIG
ZJHK,2016-07-18 20:00,ZJHK 182000Z 17003MPS CAVOK 28/26 Q1004 NOSIG
ZJHK,2016-07-18 21:00,ZJHK 182100Z 18002MPS 140V210 CAVOK 28/26 Q1004 NOSIG
ZJHK,2016-07-18 22:00,ZJHK 182200Z 18003MPS 9999 FEW026TCU 28/26 Q1005 NOSIG
ZJHK,2016-07-18 23:00,ZJHK 182300Z 18003MPS 140V210 CAVOK 28/26 Q1006 NOSIG
ZJHK,2016-07-19 00:00,ZJHK 190000Z 18004MPS CAVOK 30/26 Q1006 NOSIG
ZJHK,2016-07-19 01:00,ZJHK 190100Z 18005MPS 160V220 9999 FEW023 31/25 Q1007 NOSIG
ZJHK,2016-07-19 02:00,ZJHK 190200Z 20004MPS 160V230 CAVOK 32/25 Q1007 NOSIG
ZJHK,2016-07-19 03:00,ZJHK 190300Z 21004MPS 170V240 CAVOK 33/26 Q1006 NOSIG
ZJHK,2016-07-19 04:00,ZJHK 190400Z 20004MPS 160V240 CAVOK 34/25 Q1006 NOSIG
ZJHK,2016-07-19 05:00,ZJHK 190500Z 19004MPS 150V230 9999 FEW026 35/25 Q1005 NOSIG
ZJHK,2016-07-19 06:00,ZJHK 190600Z 20003MPS 160V230 9999 FEW026 35/25 Q1004 NOSIG
ZJHK,2016-07-19 07:00,ZJHK 190700Z 16004MPS 120V190 9999 SCT026 34/26 Q1004 NOSIG
ZJHK,2016-07-19 08:00,ZJHK 190800Z 15005MPS 120V180 9999 FEW026 34/27 Q1003 NOSIG
ZJHK,2016-07-19 09:00,ZJHK 190900Z 15006MPS 9999 FEW026 33/27 Q1003 NOSIG
ZJHK,2016-07-19 10:00,ZJHK 191000Z 15006MPS 130V190 9999 FEW026TCU 32/26 Q1003 NOSIG
ZJHK,2016-07-19 11:00,ZJHK 191100Z 17004MPS 9999 FEW026CB 30/26 Q1004 NOSIG
ZJHK,2016-07-19 12:00,ZJHK 191200Z 19004MPS 9999 FEW026CB FEW026 30/26 Q1006 NOSIG
ZJHK,2016-07-19 13:00,ZJHK 191300Z 16003MPS 120V190 CAVOK 29/26 Q1006 NOSIG
ZJHK,2016-07-19 14:00,ZJHK 191400Z 18004MPS 150V210 CAVOK 29/26 Q1007 NOSIG
ZJHK,2016-07-19 15:00,ZJHK 191500Z 19003MPS 160V220 CAVOK 29/26 Q1007 NOSIG
ZJHK,2016-07-19 16:00,ZJHK 191600Z 17004MPS CAVOK 28/26 Q1007 NOSIG
ZJHK,2016-07-19 17:00,ZJHK 191700Z 17003MPS 140V210 CAVOK 28/26 Q1007 NOSIG
ZJHK,2016-07-19 18:00,ZJHK 191800Z 18004MPS 160V220 CAVOK 28/26 Q1007 NOSIG
ZJHK,2016-07-19 19:00,ZJHK 191900Z 18003MPS CAVOK 28/26 Q1007 NOSIG
ZJHK,2016-07-19 20:00,ZJHK 192000Z 17004MPS 140V200 CAVOK 28/26 Q1006 NOSIG
ZJHK,2016-07-19 21:00,ZJHK 192100Z 19004MPS 160V220 CAVOK 28/25 Q1007 NOSIG
ZJHK,2016-07-19 22:00,ZJHK 192200Z 18003MPS CAVOK 28/25 Q1007 NOSIG
ZJHK,2016-07-19 23:00,ZJHK 192300Z 17003MPS 140V200 CAVOK 28/25 Q1007 NOSIG
ZJHK,2016-07-20 00:00,ZJHK 200000Z 18004MPS 150V240 CAVOK 29/26 Q1008 NOSIG
ZJHK,2016-07-20 01:00,ZJHK 200100Z 19006MPS CAVOK 31/25 Q1008 NOSIG
ZJHK,2016-07-20 02:00,ZJHK 200200Z 19005MPS 160V220 CAVOK 32/25 Q1008 NOSIG
ZJHK,2016-07-20 03:00,ZJHK 200300Z 19005MPS 160V240 9999 FEW016 33/24 Q1008 NOSIG
ZJHK,2016-07-20 04:00,ZJHK 200400Z 19005MPS 170V230 9999 FEW016 34/24 Q1008 NOSIG
ZJHK,2016-07-20 05:00,ZJHK 200500Z 18005MPS 9999 FEW016 35/24 Q1008 NOSIG
ZJHK,2016-07-20 06:00,ZJHK 200600Z 18005MPS 150V230 9999 SCT016 35/24 Q1007 NOSIG
ZJHK,2016-07-20 07:00,ZJHK 200700Z 20003MPS 130V240 9999 SCT016 35/26 Q1006 NOSIG
ZJHK,2016-07-20 08:00,ZJHK 200800Z 16004MPS 120V190 9999 SCT026 35/26 Q1006 NOSIG
ZJHK,2016-07-20 09:00,ZJHK 200900Z 15004MPS 120V180 9999 SCT026 33/26 Q1006 NOSIG
ZJHK,2016-07-20 10:00,ZJHK 201000Z 15005MPS 120V180 9999 FEW033CB 32/26 Q1006 NOSIG
ZJHK,2016-07-20 11:00,ZJHK 201100Z 16003MPS 130V200 9999 FEW033CB 30/26 Q1006 NOSIG
ZJHK,2016-07-20 12:00,ZJHK 201200Z 26004MPS 240V300 9999 BKN026 FEW033CB 29/24 Q1008 NOSIG
ZJHK,2016-07-20 13:00,ZJHK 201300Z 18001MPS 9999 FEW040 28/23 Q1008 NOSIG
ZJHK,2016-07-20 14:00,ZJHK 201400Z 16002MPS 130V200 CAVOK 28/25 Q1008 NOSIG
ZJHK,2016-07-20 15:00,ZJHK 201500Z 17004MPS 140V200 CAVOK 28/25 Q1009 NOSIG
ZJHK,2016-07-20 16:00,ZJHK 201600Z 18002MPS 160V220 CAVOK 28/25 Q1009 NOSIG
ZJHK,2016-07-20 17:00,ZJHK 201700Z 18003MPS 150V210 CAVOK 28/26 Q1009 NOSIG
ZJHK,2016-07-20 18:00,ZJHK 201800Z 17003MPS 140V200 CAVOK 27/25 Q1009 NOSIG
ZJHK,2016-07-20 19:00,ZJHK 201900Z 16004MPS 130V190 CAVOK 27/25 Q1008 NOSIG
ZJHK,2016-07-20 20:00,ZJHK 202000Z 17004MPS CAVOK 27/25 Q1008 NOSIG
ZJHK,2016-07-20 21:00,ZJHK 202100Z 17003MPS 130V210 CAVOK 27/25 Q1008 NOSIG
ZJHK,2016-07-20 22:00,ZJHK 202200Z 17004MPS 140V200 CAVOK 27/25 Q1009 NOSIG
ZJHK,2016-07-20 23:00,ZJHK 202300Z 17004MPS 130V190 9999 FEW033CB 28/26 Q1010 NOSIG
ZJHK,2016-07-21 00:00,ZJHK 210000Z 19003MPS 140V220 9999 FEW013 29/26 Q1010 NOSIG
ZJHK,2016-07-21 01:00,ZJHK 210100Z 19004MPS 160V230 9999 FEW023 31/26 Q1010 NOSIG
ZJHK,2016-07-21 02:00,ZJHK 210200Z 19005MPS 160V230 9999 FEW023 32/25 Q1011 NOSIG
ZJHK,2016-07-21 03:00,ZJHK 210300Z 20004MPS 130V220 9999 FEW023 33/25 Q1010 NOSIG
ZJHK,2016-07-21 04:00,ZJHK 210400Z 20005MPS 170V230 9999 SCT023 34/25 Q1010 NOSIG
ZJHK,2016-07-21 05:00,ZJHK 210500Z 18004MPS 150V220 9999 FEW023TCU BKN030 35/26 Q1010 NOSIG
ZJHK,2016-07-21 06:00,ZJHK 210600Z 19003MPS 150V230 9999 FEW030TCU SCT030 35/25 Q1009 NOSIG
ZJHK,2016-07-21 07:00,ZJHK 210700Z 22003MPS 160V270 9999 FEW030TCU SCT030 36/25 Q1009 NOSIG
ZJHK,2016-07-21 08:00,ZJHK 210800Z 13003MPS 090V170 9999 FEW030TCU SCT030 36/26 Q1008 NOSIG
ZJHK,2016-07-21 09:00,ZJHK 210900Z 15004MPS 120V190 9999 FEW030TCU SCT030 33/26 Q1007 NOSIG
ZJHK,2016-07-21 10:00,ZJHK 211000Z 14004MPS 110V170 9999 FEW030CB SCT040 31/25 Q1007 NOSIG
ZJHK,2016-07-21 11:00,ZJHK 211100Z 26008MPS 9999 FEW030CB BKN040 26/22 Q1009 NOSIG
ZJHK,2016-07-21 12:00,ZJHK 211200Z 20002MPS 9999 FEW040 26/22 Q1009 NOSIG
ZJHK,2016-07-21 13:00,ZJHK 211300Z 22001MPS 9999 FEW040 26/22 Q1009 NOSIG
ZJHK,2016-07-21 14:00,ZJHK 211400Z 00000MPS CAVOK 26/23 Q1010 NOSIG
ZJHK,2016-07-21 15:00,ZJHK 211500Z 15002MPS 120V180 CAVOK 27/25 Q1011 NOSIG
ZJHK,2016-07-21 16:00,ZJHK 211600Z 17003MPS 140V200 CAVOK 28/25 Q1011 NOSIG
ZJHK,2016-07-21 17:00,ZJHK 211700Z 17003MPS 140V200 CAVOK 27/25 Q1011 NOSIG
ZJHK,2016-07-21 18:00,ZJHK 211800Z 18002MPS CAVOK 27/25 Q1010 NOSIG
ZJHK,2016-07-21 19:00,ZJHK 211900Z 19002MPS CAVOK 27/25 Q1010 NOSIG
ZJHK,2016-07-21 20:00,ZJHK 212000Z 18003MPS 150V220 CAVOK 27/25 Q1010 NOSIG
ZJHK,2016-07-21 21:00,ZJHK 212100Z 18003MPS CAVOK 27/25 Q1010 NOSIG
ZJHK,2016-07-21 22:00,ZJHK 212200Z 18002MPS CAVOK 26/25 Q1010 NOSIG
ZJHK,2016-07-21 23:00,ZJHK 212300Z 18003MPS 150V210 CAVOK 27/25 Q1010 NOSIG
ZJHK,2016-07-22 00:00,ZJHK 220000Z 20003MPS 160V220 CAVOK 29/26 Q1011 NOSIG
ZJHK,2016-07-22 01:00,ZJHK 220100Z 19003MPS 160V220 9999 FEW033TCU 30/25 Q1011 NOSIG
ZJHK,2016-07-22 02:00,ZJHK 220200Z 20003MPS 170V250 CAVOK 32/25 Q1011 NOSIG
ZJHK,2016-07-22 03:00,ZJHK 220300Z 25002MPS 9999 FEW033TCU 33/24 Q1011 NOSIG
ZJHK,2016-07-22 04:00,ZJHK 220400Z VRB02MPS 9999 SCT023 34/24 Q1010 NOSIG
ZJHK,2016-07-22 05:00,ZJHK 220500Z 22001MPS 9999 SCT030 35/25 Q1009 NOSIG
ZJHK,2016-07-22 06:00,ZJHK 220600Z 05002MPS 9999 FEW033TCU FEW033 35/26 Q1009 NOSIG
ZJHK,2016-07-22 07:00,ZJHK 220700Z 02003MPS 340V060 9999 FEW033CB FEW033 36/25 Q1008 NOSIG
ZJHK,2016-07-22 08:00,ZJHK 220800Z 12003MPS 090V150 9999 -SHRA FEW010 FEW026CB SCT026 34/25 Q1008 BECMG TL0830 TS
ZJHK,2016-07-22 09:00,ZJHK 220900Z 17003MPS 140V200 9999 -TSRA FEW026CB SCT026 SCT033 27/24 Q1008 RESHRA BECMG AT0940 NSW
ZJHK,2016-07-22 10:00,ZJHK 221000Z 14002MPS 9999 SCT026 25/23 Q1007 RETS NOSIG
ZJHK,2016-07-22 11:00,ZJHK 221100Z 11001MPS 9999 FEW026 26/24 Q1007 NOSIG
ZJHK,2016-07-22 12:00,ZJHK 221200Z 13002MPS CAVOK 26/24 Q1007 NOSIG
ZJHK,2016-07-22 13:00,ZJHK 221300Z 15002MPS 9999 FEW040 26/24 Q1008 NOSIG
ZJHK,2016-07-22 14:00,ZJHK 221400Z 17002MPS 9999 SCT040 27/25 Q1009 NOSIG
ZJHK,2016-07-22 15:00,ZJHK 221500Z 15002MPS 9999 SCT040 27/25 Q1010 NOSIG
ZJHK,2016-07-22 16:00,ZJHK 221600Z 13001MPS 9999 BKN040 27/26 Q1010 NOSIG
ZJHK,2016-07-22 17:00,ZJHK 221700Z 19001MPS CAVOK 26/26 Q1010 NOSIG
ZJHK,2016-07-22 18:00,ZJHK 221800Z 17001MPS CAVOK 26/25 Q1009 NOSIG
ZJHK,2016-07-22 19:00,ZJHK 221900Z 19002MPS CAVOK 26/25 Q1009 NOSIG
ZJHK,2016-07-22 20:00,ZJHK 222000Z 22002MPS CAVOK 26/25 Q1009 NOSIG
ZJHK,2016-07-22 21:00,ZJHK 222100Z 18002MPS CAVOK 26/25 Q1009 NOSIG
ZJHK,2016-07-22 22:00,ZJHK 222200Z 19002MPS CAVOK 25/24 Q1009 NOSIG
ZJHK,2016-07-22 23:00,ZJHK 222300Z 20001MPS CAVOK 26/25 Q1009 NOSIG
ZJHK,2016-07-23 00:00,ZJHK 230000Z 20002MPS 170V230 9999 FEW026TCU 27/25 Q1010 NOSIG
ZJHK,2016-07-23 01:00,ZJHK 230100Z 18002MPS 9999 FEW026TCU 29/25 Q1010 NOSIG
ZJHK,2016-07-23 02:00,ZJHK 230200Z 22002MPS 170V250 9999 FEW026TCU 32/26 Q1010 NOSIG
ZJHK,2016-07-23 03:00,ZJHK 230300Z 21002MPS 160V270 9999 FEW025 33/24 Q1010 NOSIG
ZJHK,2016-07-23 04:00,ZJHK 230400Z 21002MPS 9999 FEW025 33/25 Q1010 NOSIG
ZJHK,2016-07-23 05:00,ZJHK 230500Z 16001MPS 9999 FEW025 34/24 Q1009 NOSIG
ZJHK,2016-07-23 06:00,ZJHK 230600Z 16001MPS 9999 FEW025TCU FEW025 35/24 Q1008 BECMG AT0730 TS
ZJHK,2016-07-23 07:00,ZJHK 230700Z 29002MPS 9999 FEW025TCU FEW025 36/24 Q1007 BECMG AT0800 TS
ZJHK,2016-07-23 08:00,ZJHK 230800Z 36005MPS 320V020 9999 FEW025CB FEW025 34/26 Q1007 BECMG TS
ZJHK,2016-07-23 09:00,ZJHK 230900Z 04005MPS 010V070 9999 FEW026CB FEW026 31/25 Q1006 BECMG TS
ZJHK,2016-07-23 10:00,ZJHK 231000Z 08002MPS 040V120 9999 FEW040 30/25 Q1006 NOSIG
ZJHK,2016-07-23 11:00,ZJHK 231100Z 18002MPS CAVOK 28/26 Q1006 NOSIG
ZJHK,2016-07-23 12:00,ZJHK 231200Z 16002MPS CAVOK 28/24 Q1007 NOSIG
ZJHK,2016-07-23 13:00,ZJHK 231300Z 17001MPS CAVOK 27/24 Q1008 NOSIG
ZJHK,2016-07-23 14:00,ZJHK 231400Z 19001MPS CAVOK 27/25 Q1008 NOSIG
ZJHK,2016-07-23 15:00,ZJHK 231500Z 15001MPS CAVOK 27/25 Q1009 NOSIG
ZJHK,2016-07-23 16:00,ZJHK 231600Z 00000MPS CAVOK 26/25 Q1009 NOSIG
ZJHK,2016-07-23 17:00,ZJHK 231700Z 20001MPS CAVOK 27/25 Q1009 NOSIG
ZJHK,2016-07-23 18:00,ZJHK 231800Z 18001MPS CAVOK 26/25 Q1008 NOSIG
ZJHK,2016-07-23 19:00,ZJHK 231900Z 13001MPS CAVOK 25/25 Q1008 NOSIG
ZJHK,2016-07-23 20:00,ZJHK 232000Z 13001MPS CAVOK 25/25 Q1008 NOSIG
ZJHK,2016-07-23 21:00,ZJHK 232100Z 15002MPS CAVOK 25/25 Q1007 NOSIG
ZJHK,2016-07-23 22:00,ZJHK 232200Z 20001MPS CAVOK 25/25 Q1008 NOSIG
ZJHK,2016-07-23 23:00,ZJHK 232300Z 25001MPS CAVOK 27/25 Q1009 NOSIG
ZJHK,2016-07-24 00:00,ZJHK 240000Z 23001MPS CAVOK 28/26 Q1009 NOSIG
ZJHK,2016-07-24 01:00,ZJHK 240100Z 21002MPS CAVOK 30/26 Q1009 NOSIG
ZJHK,2016-07-24 02:00,ZJHK 240200Z 23002MPS 160V290 9999 FEW018 31/26 Q1009 NOSIG
ZJHK,2016-07-24 03:00,ZJHK 240300Z 25002MPS 200V310 9999 FEW020 33/26 Q1009 NOSIG
ZJHK,2016-07-24 04:00,ZJHK 240400Z 26002MPS 9999 SCT020 34/23 Q1008 NOSIG
ZJHK,2016-07-24 05:00,ZJHK 240500Z 21002MPS 9999 SCT020 34/23 Q1007 NOSIG
ZJHK,2016-07-24 06:00,ZJHK 240600Z 35002MPS 300V060 9999 FEW023TCU SCT023 35/25 Q1007 NOSIG
ZJHK,2016-07-24 07:00,ZJHK 240700Z 03003MPS 340V100 9999 FEW023CB SCT023 35/24 Q1006 NOSIG
ZJHK,2016-07-24 08:00,ZJHK 240800Z 01003MPS 340V080 9999 FEW026CB 35/23 Q1006 NOSIG
ZJHK,2016-07-24 09:00,ZJHK 240900Z 03004MPS 350V060 9999 FEW033CB 35/22 Q1006 NOSIG
ZJHK,2016-07-24 10:00,ZJHK 241000Z 06005MPS CAVOK 33/23 Q1006 BECMG AT1100 15003MPS
ZJHK,2016-07-24 11:00,ZJHK 241100Z 14003MPS CAVOK 31/24 Q1006 NOSIG
ZJHK,2016-07-24 12:00,ZJHK 241200Z 15002MPS CAVOK 29/24 Q1007 NOSIG
ZJHK,2016-07-24 13:00,ZJHK 241300Z 15002MPS CAVOK 28/25 Q1008 NOSIG
ZJHK,2016-07-24 14:00,ZJHK 241400Z 16002MPS CAVOK 27/26 Q1008 NOSIG
ZJHK,2016-07-24 15:00,ZJHK 241500Z 18002MPS CAVOK 28/26 Q1009 NOSIG
ZJHK,2016-07-24 16:00,ZJHK 241600Z 18002MPS CAVOK 27/26 Q1009 NOSIG
ZJHK,2016-07-24 17:00,ZJHK 241700Z 17002MPS CAVOK 27/25 Q1008 NOSIG
ZJHK,2016-07-24 18:00,ZJHK 241800Z 17002MPS CAVOK 27/25 Q1008 NOSIG
ZJHK,2016-07-24 19:00,ZJHK 241900Z 15001MPS CAVOK 26/25 Q1008 NOSIG
ZJHK,2016-07-24 20:00,ZJHK 242000Z 00000MPS CAVOK 26/25 Q1008 NOSIG
ZJHK,2016-07-24 21:00,ZJHK 242100Z 00000MPS CAVOK 25/24 Q1008 NOSIG
ZJHK,2016-07-24 22:00,ZJHK 242200Z 00000MPS CAVOK 25/25 Q1008 NOSIG
ZJHK,2016-07-24 23:00,ZJHK 242300Z 00000MPS CAVOK 27/25 Q1009 NOSIG
ZJHK,2016-07-25 00:00,ZJHK 250000Z 20002MPS CAVOK 29/25 Q1009 NOSIG
ZJHK,2016-07-25 01:00,ZJHK 250100Z 21002MPS CAVOK 30/25 Q1009 NOSIG
ZJHK,2016-07-25 02:00,ZJHK 250200Z 27002MPS 9999 FEW023 32/24 Q1009 NOSIG
ZJHK,2016-07-25 03:00,ZJHK 250300Z 19001MPS 9999 FEW023 33/24 Q1009 NOSIG
ZJHK,2016-07-25 04:00,ZJHK 250400Z 28002MPS 9999 SCT023 34/23 Q1008 NOSIG
ZJHK,2016-07-25 05:00,ZJHK 250500Z VRB03MPS 9999 SCT023 34/25 Q1008 NOSIG
ZJHK,2016-07-25 06:00,ZJHK 250600Z 05004MPS 010V080 9999 SCT023 35/25 Q1007 NOSIG
ZJHK,2016-07-25 07:00,ZJHK 250700Z 21002MPS 9999 SCT023 35/24 Q1006 NOSIG
ZJHK,2016-07-25 08:00,ZJHK 250800Z 06003MPS 010V110 9999 FEW023 34/25 Q1006 NOSIG
ZJHK,2016-07-25 09:00,ZJHK 250900Z 06004MPS 030V090 9999 FEW023 33/25 Q1006 NOSIG
ZJHK,2016-07-25 10:00,ZJHK 251000Z 08005MPS CAVOK 32/24 Q1006 NOSIG
ZJHK,2016-07-25 11:00,ZJHK 251100Z 08005MPS CAVOK 30/23 Q1007 NOSIG
ZJHK,2016-07-25 12:00,ZJHK 251200Z 11003MPS CAVOK 29/24 Q1007 NOSIG
ZJHK,2016-07-25 13:00,ZJHK 251300Z 11002MPS CAVOK 28/25 Q1008 NOSIG
ZJHK,2016-07-25 14:00,ZJHK 251400Z 16001MPS CAVOK 27/25 Q1008 NOSIG
ZJHK,2016-07-25 15:00,ZJHK 251500Z 15001MPS CAVOK 26/25 Q1008 NOSIG
ZJHK,2016-07-25 16:00,ZJHK 251600Z 19001MPS CAVOK 27/25 Q1008 NOSIG
ZJHK,2016-07-25 17:00,ZJHK 251700Z 21001MPS CAVOK 27/26 Q1008 NOSIG
ZJHK,2016-07-25 18:00,ZJHK 251800Z 00000MPS CAVOK 26/25 Q1007 NOSIG
ZJHK,2016-07-25 19:00,ZJHK 251900Z 27001MPS CAVOK 26/26 Q1007 NOSIG
ZJHK,2016-07-25 20:00,ZJHK 252000Z 28001MPS CAVOK 26/26 Q1007 NOSIG
ZJHK,2016-07-25 21:00,ZJHK 252100Z 00000MPS CAVOK 26/25 Q1007 NOSIG
ZJHK,2016-07-25 22:00,ZJHK 252200Z 31001MPS 6000 NSC 26/26 Q1006 NOSIG
ZJHK,2016-07-25 23:00,ZJHK 252300Z 02002MPS 9999 FEW020 SCT046 28/26 Q1006 NOSIG
ZJHK,2016-07-26 00:00,ZJHK 260000Z 36002MPS 9999 SCT020 30/27 Q1007 NOSIG
ZJHK,2016-07-26 01:00,ZJHK 260100Z 04005MPS 360V060 9999 SCT012 FEW020CB SCT020 30/26 Q1007 NOSIG
ZJHK,2016-07-26 02:00,ZJHK 260200Z 03004MPS 360V070 9999 SCT013 FEW020CB BKN026 29/26 Q1008 NOSIG
ZJHK,2016-07-26 03:00,ZJHK 260300Z 02004MPS 350V050 9999 -SHRA SCT013 FEW020CB BKN026 30/26 Q1007 NOSIG
ZJHK,2016-07-26 04:00,ZJHK 260400Z 03006MPS 360V060 9999 SCT015 BKN023 32/25 Q1006 NOSIG
ZJHK,2016-07-26 05:00,ZJHK 260500Z 04008MPS 360V060 9999 FEW015 FEW026CB BKN026 31/25 Q1006 NOSIG
ZJHK,2016-07-26 06:00,ZJHK 260600Z 04005MPS 9999 -SHRA SCT013 FEW026CB BKN026 28/26 Q1005 RESHRA NOSIG
ZJHK,2016-07-26 07:00,ZJHK 260700Z 03006MPS 360V060 9999 SCT013 FEW026CB BKN026 29/26 Q1004 NOSIG
ZJHK,2016-07-26 08:00,ZJHK 260800Z 04006MPS 9999 FEW023 FEW026CB 28/24 Q1004 NOSIG
ZJHK,2016-07-26 09:00,ZJHK 260900Z 04005MPS 9999 FEW015 FEW023TCU 28/25 Q1004 NOSIG
ZJHK,2016-07-26 10:00,ZJHK 261000Z 04006MPS 360V060 9999 FEW023CB FEW023 28/25 Q1003 NOSIG
ZJHK,2016-07-26 11:00,ZJHK 261100Z 05006MPS 9999 -TSRA SCT015 FEW023CB BKN046 27/26 Q1004 BECMG AT1120 -SHRA
ZJHK,2016-07-26 12:00,ZJHK 261200Z 07006MPS 9999 FEW015 FEW023CB 27/25 Q1004 RETS NOSIG
ZJHK,2016-07-26 13:00,ZJHK 261300Z 08006MPS 9999 SCT015 FEW023CB 27/25 Q1005 NOSIG
ZJHK,2016-07-26 14:00,ZJHK 261400Z 09008MPS 9999 SCT014 FEW023CB SCT046 26/25 Q1005 NOSIG
ZJHK,2016-07-26 15:00,ZJHK 261500Z 10005MPS 9999 SCT014 FEW023CB 26/25 Q1005 NOSIG
ZJHK,2016-07-26 16:00,ZJHK 261600Z 11004MPS 9999 SCT014 FEW023CB SCT046 26/25 Q1005 NOSIG
ZJHK,2016-07-26 17:00,ZJHK 261700Z 11002MPS 080V140 9999 -SHRA SCT014 FEW023CB BKN046 25/24 Q1005 NOSIG
ZJHK,2016-07-26 18:00,ZJHK 261800Z 12005MPS 9999 SCT016 25/24 Q1004 NOSIG
ZJHK,2016-07-26 19:00,ZJHK 261900Z 12004MPS CAVOK 25/24 Q1004 NOSIG
ZJHK,2016-07-26 20:00,ZJHK 262000Z 13005MPS 100V170 9999 SCT020 25/23 Q1004 NOSIG
ZJHK,2016-07-26 21:00,ZJHK 262100Z 14006MPS 8000 -SHRA SCT015 FEW026CB SCT040 25/23 Q1005 NOSIG
ZJHK,2016-07-26 22:00,ZJHK 262200Z 13003MPS 090V160 9999 FEW026CB SCT046 24/23 Q1005 NOSIG
ZJHK,2016-07-26 23:00,ZJHK 262300Z 11004MPS 9999 -SHRA FEW026TCU 24/23 Q1006 NOSIG
ZJHK,2016-07-27 00:00,ZJHK 270000Z 11004MPS 9999 -SHRA FEW026TCU FEW026 SCT046 25/24 Q1007 NOSIG
ZJHK,2016-07-27 01:00,ZJHK 270100Z 11004MPS 9999 FEW026TCU FEW026 SCT046 25/24 Q1006 NOSIG
ZJHK,2016-07-27 02:00,ZJHK 270200Z 13004MPS 9999 FEW046 27/25 Q1007 NOSIG
ZJHK,2016-07-27 03:00,ZJHK 270300Z 15004MPS 130V190 9999 FEW023 BKN046 29/25 Q1007 NOSIG
ZJHK,2016-07-27 04:00,ZJHK 270400Z 15004MPS 110V170 9999 FEW023CB FEW023 BKN046 29/25 Q1007 NOSIG
ZJHK,2016-07-27 05:00,ZJHK 270500Z 12003MPS 9999 -SHRA FEW023CB 27/24 Q1007 NOSIG
ZJHK,2016-07-27 06:00,ZJHK 270600Z 12003MPS 9999 SCT040 27/24 Q1007 NOSIG
ZJHK,2016-07-27 07:00,ZJHK 270700Z 14004MPS 9999 -RA SCT040 27/25 Q1007 NOSIG
ZJHK,2016-07-27 08:00,ZJHK 270800Z 13003MPS 110V170 9999 SCT046 28/25 Q1007 NOSIG
ZJHK,2016-07-27 09:00,ZJHK 270900Z 15003MPS 9999 SCT046 28/23 Q1007 NOSIG
ZJHK,2016-07-27 10:00,ZJHK 271000Z 14003MPS 110V170 9999 -RA SCT046 26/24 Q1007 NOSIG
ZJHK,2016-07-27 11:00,ZJHK 271100Z 13002MPS 9999 SCT046 26/24 Q1007 NOSIG
ZJHK,2016-07-27 12:00,ZJHK 271200Z 11002MPS CAVOK 25/24 Q1008 NOSIG
ZJHK,2016-07-27 13:00,ZJHK 271300Z 14001MPS CAVOK 25/24 Q1009 NOSIG
ZJHK,2016-07-27 14:00,ZJHK 271400Z 11002MPS CAVOK 25/24 Q1008 NOSIG
ZJHK,2016-07-27 15:00,ZJHK 271500Z 11002MPS CAVOK 25/24 Q1009 NOSIG
ZJHK,2016-07-27 16:00,ZJHK 271600Z 11002MPS CAVOK 25/24 Q1009 NOSIG
ZJHK,2016-07-27 17:00,ZJHK 271700Z 11003MPS CAVOK 25/24 Q1008 NOSIG
ZJHK,2016-07-27 18:00,ZJHK 271800Z 13001MPS CAVOK 25/24 Q1007 NOSIG
ZJHK,2016-07-27 19:00,ZJHK 271900Z 12002MPS CAVOK 25/24 Q1007 NOSIG
ZJHK,2016-07-27 20:00,ZJHK 272000Z 12002MPS CAVOK 25/25 Q1007 NOSIG
ZJHK,2016-07-27 21:00,ZJHK 272100Z 13001MPS CAVOK 25/25 Q1007 NOSIG
ZJHK,2016-07-27 22:00,ZJHK 272200Z 13001MPS 9999 FEW016 25/24 Q1007 NOSIG
ZJHK,2016-07-27 23:00,ZJHK 272300Z 12001MPS 9999 FEW016 25/25 Q1008 NOSIG
ZJHK,2016-07-28 00:00,ZJHK 280000Z 12002MPS 9999 FEW016 27/26 Q1008 NOSIG
ZJHK,2016-07-28 01:00,ZJHK 280100Z 15003MPS 110V170 9999 SCT016 29/26 Q1009 NOSIG
ZJHK,2016-07-28 02:00,ZJHK 280200Z 15004MPS 110V170 9999 FEW020CB SCT020 30/26 Q1009 NOSIG
ZJHK,2016-07-28 03:00,ZJHK 280300Z 16004MPS 130V190 9999 FEW020CB SCT020 30/26 Q1009 RESHRA NOSIG
ZJHK,2016-07-28 04:00,ZJHK 280400Z 14005MPS 110V170 9999 FEW020CB SCT020 31/25 Q1009 NOSIG
ZJHK,2016-07-28 05:00,ZJHK 280500Z 15004MPS 120V190 9999 FEW020TCU BKN020 31/25 Q1008 NOSIG
ZJHK,2016-07-28 06:00,ZJHK 280600Z 16005MPS 130V190 9999 FEW020TCU BKN030 31/25 Q1008 NOSIG
ZJHK,2016-07-28 07:00,ZJHK 280700Z 16004MPS 130V190 9999 FEW020TCU SCT030 31/25 Q1007 NOSIG
ZJHK,2016-07-28 08:00,ZJHK 280800Z 15004MPS 9999 FEW020TCU SCT020 31/25 Q1007 NOSIG
ZJHK,2016-07-28 09:00,ZJHK 280900Z 15004MPS 110V190 9999 FEW020TCU SCT020 30/25 Q1007 NOSIG
ZJHK,2016-07-28 10:00,ZJHK 281000Z 15003MPS 110V180 9999 FEW020TCU FEW020 29/25 Q1008 NOSIG
ZJHK,2016-07-28 11:00,ZJHK 281100Z 14003MPS 9999 FEW020 29/25 Q1008 NOSIG
ZJHK,2016-07-28 12:00,ZJHK 281200Z 14002MPS 9999 FEW020 28/25 Q1009 NOSIG
ZJHK,2016-07-28 13:00,ZJHK 281300Z 12002MPS 9999 FEW020 27/26 Q1009 NOSIG
ZJHK,2016-07-28 14:00,ZJHK 281400Z 14002MPS CAVOK 26/25 Q1010 NOSIG
ZJHK,2016-07-28 15:00,ZJHK 281500Z 12002MPS CAVOK 26/25 Q1010 NOSIG
ZJHK,2016-07-28 16:00,ZJHK 281600Z 12002MPS CAVOK 26/25 Q1010 NOSIG
ZJHK,2016-07-28 17:00,ZJHK 281700Z 14001MPS 9999 FEW040 26/25 Q1009 NOSIG
ZJHK,2016-07-28 18:00,ZJHK 281800Z 15001MPS CAVOK 26/25 Q1009 NOSIG
ZJHK,2016-07-28 19:00,ZJHK 281900Z 14001MPS CAVOK 25/25 Q1008 NOSIG
ZJHK,2016-07-28 20:00,ZJHK 282000Z 10001MPS CAVOK 25/25 Q1008 NOSIG
ZJHK,2016-07-28 21:00,ZJHK 282100Z 11001MPS 9999 BCFG NSC 25/25 Q1008 NOSIG
ZJHK,2016-07-28 22:00,ZJHK 282200Z 12001MPS 9999 R09/1200 BCFG NSC 25/24 Q1008 NOSIG
ZJHK,2016-07-28 23:00,ZJHK 282300Z 13001MPS CAVOK 26/25 Q1009 NOSIG
ZJHK,2016-07-29 00:00,ZJHK 290000Z 17002MPS CAVOK 28/26 Q1009 NOSIG
ZJHK,2016-07-29 01:00,ZJHK 290100Z 15002MPS 110V190 9999 FEW013 30/26 Q1009 NOSIG
ZJHK,2016-07-29 02:00,ZJHK 290200Z 17003MPS 130V200 9999 SCT020 31/25 Q1010 NOSIG
ZJHK,2016-07-29 03:00,ZJHK 290300Z 16003MPS 130V200 9999 SCT026 32/25 Q1010 NOSIG
ZJHK,2016-07-29 04:00,ZJHK 290400Z 17003MPS 120V220 9999 SCT033 33/24 Q1009 NOSIG
ZJHK,2016-07-29 05:00,ZJHK 290500Z 21002MPS 160V260 9999 SCT033 34/25 Q1009 NOSIG
ZJHK,2016-07-29 06:00,ZJHK 290600Z 16001MPS 9999 FEW033TCU SCT033 34/25 Q1008 NOSIG
ZJHK,2016-07-29 07:00,ZJHK 290700Z 04005MPS 9999 FEW026CB SCT033 34/27 Q1008 BECMG AT0840 13003MPS
ZJHK,2016-07-29 08:00,ZJHK 290800Z 35004MPS 330V050 9999 FEW026CB SCT033 29/25 Q1008 RESHRA NOSIG
ZJHK,2016-07-29 09:00,ZJHK 290900Z 13002MPS 9999 FEW026CB BKN033 31/27 Q1007 NOSIG
ZJHK,2016-07-29 10:00,ZJHK 291000Z 12002MPS 9999 FEW026CB SCT033 30/26 Q1007 NOSIG
ZJHK,2016-07-29 11:00,ZJHK 291100Z 14003MPS CAVOK 29/25 Q1007 NOSIG
ZJHK,2016-07-29 12:00,ZJHK 291200Z 12002MPS CAVOK 28/25 Q1008 NOSIG
ZJHK,2016-07-29 13:00,ZJHK 291300Z 14001MPS CAVOK 27/25 Q1009 NOSIG
ZJHK,2016-07-29 14:00,ZJHK 291400Z 00000MPS CAVOK 26/25 Q1009 NOSIG
ZJHK,2016-07-29 15:00,ZJHK 291500Z 13002MPS CAVOK 26/25 Q1010 NOSIG
ZJHK,2016-07-29 16:00,ZJHK 291600Z 16002MPS CAVOK 26/25 Q1010 NOSIG
ZJHK,2016-07-29 17:00,ZJHK 291700Z 19002MPS CAVOK 27/25 Q1009 NOSIG
ZJHK,2016-07-29 18:00,ZJHK 291800Z 19002MPS CAVOK 26/25 Q1008 NOSIG
ZJHK,2016-07-29 19:00,ZJHK 291900Z 18002MPS CAVOK 26/25 Q1008 NOSIG
ZJHK,2016-07-29 20:00,ZJHK 292000Z 20001MPS CAVOK 26/25 Q1007 NOSIG
ZJHK,2016-07-29 21:00,ZJHK 292100Z 21002MPS CAVOK 26/25 Q1007 NOSIG
ZJHK,2016-07-29 22:00,ZJHK 292200Z 22002MPS CAVOK 26/25 Q1007 NOSIG
ZJHK,2016-07-29 23:00,ZJHK 292300Z 23002MPS CAVOK 26/25 Q1008 NOSIG
ZJHK,2016-07-30 00:00,ZJHK 300000Z 23002MPS CAVOK 28/25 Q1009 NOSIG
ZJHK,2016-07-30 01:00,ZJHK 300100Z 27003MPS 230V300 CAVOK 30/26 Q1009 NOSIG
ZJHK,2016-07-30 02:00,ZJHK 300200Z 30004MPS 9999 FEW016 SCT020 31/27 Q1009 NOSIG
ZJHK,2016-07-30 03:00,ZJHK 300300Z 30004MPS 260V340 9999 BKN023 33/27 Q1009 NOSIG
ZJHK,2016-07-30 04:00,ZJHK 300400Z 31004MPS 9999 BKN023 34/27 Q1009 NOSIG
ZJHK,2016-07-30 05:00,ZJHK 300500Z 33003MPS 250V050 9999 SCT023 34/25 Q1008 NOSIG
ZJHK,2016-07-30 06:00,ZJHK 300600Z 34003MPS 290V090 9999 FEW023 35/26 Q1007 NOSIG
ZJHK,2016-07-30 07:00,ZJHK 300700Z 02004MPS 350V060 9999 FEW023TCU FEW023 33/27 Q1006 NOSIG
ZJHK,2016-07-30 08:00,ZJHK 300800Z 01004MPS 350V050 9999 FEW023CB FEW023 33/25 Q1006 NOSIG
ZJHK,2016-07-30 09:00,ZJHK 300900Z 01003MPS 350V050 9999 FEW023CB FEW023 33/24 Q1005 NOSIG
ZJHK,2016-07-30 10:00,ZJHK 301000Z 01003MPS 340V060 CAVOK 32/24 Q1005 NOSIG
ZJHK,2016-07-30 11:00,ZJHK 301100Z 04002MPS CAVOK 30/25 Q1005 NOSIG
ZJHK,2016-07-30 12:00,ZJHK 301200Z 02001MPS CAVOK 30/25 Q1006 NOSIG
ZJHK,2016-07-30 13:00,ZJHK 301300Z 17001MPS CAVOK 28/26 Q1006 NOSIG
ZJHK,2016-07-30 14:00,ZJHK 301400Z 19001MPS CAVOK 27/24 Q1007 NOSIG
ZJHK,2016-07-30 15:00,ZJHK 301500Z 21002MPS CAVOK 28/25 Q1007 NOSIG
ZJHK,2016-07-30 16:00,ZJHK 301600Z 23001MPS CAVOK 27/26 Q1007 NOSIG
ZJHK,2016-07-30 17:00,ZJHK 301700Z 24003MPS CAVOK 27/26 Q1007 NOSIG
ZJHK,2016-07-30 18:00,ZJHK 301800Z 25003MPS 8000 NSC 27/26 Q1006 NOSIG
ZJHK,2016-07-30 19:00,ZJHK 301900Z 27002MPS 7000 NSC 27/26 Q1006 NOSIG
ZJHK,2016-07-30 20:00,ZJHK 302000Z 27003MPS 7000 NSC 27/26 Q1006 NOSIG
ZJHK,2016-07-30 21:00,ZJHK 302100Z 27002MPS 7000 NSC 27/26 Q1005 NOSIG
ZJHK,2016-07-30 22:00,ZJHK 302200Z 27002MPS 8000 NSC 27/26 Q1005 NOSIG
ZJHK,2016-07-30 23:00,ZJHK 302300Z 25002MPS 8000 FEW023 27/26 Q1006 NOSIG
ZJHK,2016-07-31 00:00,ZJHK 310000Z 26003MPS 9999 FEW023 29/27 Q1006 NOSIG
ZJHK,2016-07-31 01:00,ZJHK 310100Z 29004MPS 9999 FEW023 31/27 Q1006 NOSIG
ZJHK,2016-07-31 02:00,ZJHK 310200Z 29004MPS 260V330 9999 FEW023 32/26 Q1006 NOSIG
ZJHK,2016-07-31 03:00,ZJHK 310300Z 31004MPS 280V360 9999 FEW023 34/25 Q1006 NOSIG
ZJHK,2016-07-31 04:00,ZJHK 310400Z 32005MPS 290V360 9999 FEW030 34/25 Q1006 NOSIG
ZJHK,2016-07-31 05:00,ZJHK 310500Z 34007MPS 9999 FEW026CB SCT033 34/26 Q1005 BECMG AT0530 TSRA
ZJHK,2016-07-31 06:00,ZJHK 310600Z 36003MPS 320V030 9999 FEW026CB 30/26 Q1005 RETSRA NOSIG
ZJHK,2016-07-31 07:00,ZJHK 310700Z 32004MPS 9999 FEW026CB 30/26 Q1004 NOSIG
ZJHK,2016-07-31 08:00,ZJHK 310800Z 29004MPS 9999 FEW026CB 29/23 Q1004 NOSIG
ZJHK,2016-07-31 09:00,ZJHK 310900Z 24002MPS 9999 FEW040 28/24 Q1003 NOSIG
ZJHK,2016-07-31 10:00,ZJHK 311000Z 24003MPS CAVOK 28/24 Q1003 NOSIG
ZJHK,2016-07-31 11:00,ZJHK 311100Z 23003MPS CAVOK 28/24 Q1003 NOSIG
ZJHK,2016-07-31 12:00,ZJHK 311200Z 22003MPS CAVOK 27/25 Q1003 NOSIG
ZJHK,2016-07-31 13:00,ZJHK 311300Z 23002MPS CAVOK 27/25 Q1004 NOSIG
ZJHK,2016-07-31 14:00,ZJHK 311400Z 22002MPS CAVOK 26/25 Q1005 NOSIG
ZJHK,2016-07-31 15:00,ZJHK 311500Z 26001MPS CAVOK 26/25 Q1005 NOSIG
ZJHK,2016-07-31 16:00,ZJHK 311600Z 22003MPS CAVOK 26/24 Q1005 NOSIG
ZJHK,2016-07-31 17:00,ZJHK 311700Z 24002MPS CAVOK 26/24 Q1005 NOSIG
ZJHK,2016-07-31 18:00,ZJHK 311800Z 24001MPS CAVOK 25/24 Q1004 NOSIG
ZJHK,2016-07-31 19:00,ZJHK 311900Z 23003MPS CAVOK 25/24 Q1003 NOSIG
ZJHK,2016-07-31 20:00,ZJHK 312000Z 25002MPS CAVOK 25/24 Q1003 NOSIG
ZJHK,2016-07-31 21:00,ZJHK 312100Z 27001MPS CAVOK 25/24 Q1003 NOSIG
ZJHK,2016-07-31 22:00,ZJHK 312200Z 25002MPS CAVOK 25/24 Q1003 NOSIG
ZJHK,2016-07-31 23:00,ZJHK 312300Z 23001MPS CAVOK 26/25 Q1003 NOSIG
ZJHK,2016-08-01 00:00,ZJHK 010000Z 27002MPS CAVOK 27/25 Q1003 NOSIG
ZJHK,2016-08-01 01:00,ZJHK 010100Z 27002MPS 9999 FEW023 29/26 Q1003 NOSIG
ZJHK,2016-08-01 02:00,ZJHK 010200Z 27003MPS 9999 SCT023 31/27 Q1003 NOSIG
ZJHK,2016-08-01 03:00,ZJHK 010300Z 28004MPS 9999 BKN020 32/26 Q1003 NOSIG
ZJHK,2016-08-01 04:00,ZJHK 010400Z 30006MPS 9999 FEW020 32/25 Q1003 NOSIG
ZJHK,2016-08-01 05:00,ZJHK 010500Z 28006MPS 9999 FEW020 32/24 Q1002 NOSIG
ZJHK,2016-08-01 06:00,ZJHK 010600Z 29006MPS CAVOK 32/24 Q1001 NOSIG
ZJHK,2016-08-01 07:00,ZJHK 010700Z 29005MPS 250V320 CAVOK 32/24 Q1000 NOSIG
ZJHK,2016-08-01 08:00,ZJHK 010800Z 29005MPS 260V320 CAVOK 32/25 Q1000 NOSIG
ZJHK,2016-08-01 09:00,ZJHK 010900Z 28005MPS 250V310 CAVOK 32/24 Q0999 NOSIG
ZJHK,2016-08-01 10:00,ZJHK 011000Z 28004MPS CAVOK 30/24 Q0999 NOSIG
ZJHK,2016-08-01 11:00,ZJHK 011100Z 28004MPS CAVOK 29/24 Q0999 NOSIG
ZJHK,2016-08-01 12:00,ZJHK 011200Z 27004MPS CAVOK 28/24 Q0999 NOSIG
ZJHK,2016-08-01 13:00,ZJHK 011300Z 29003MPS CAVOK 27/24 Q1000 NOSIG
ZJHK,2016-08-01 14:00,ZJHK 011400Z 28003MPS CAVOK 26/24 Q1000 NOSIG
ZJHK,2016-08-01 15:00,ZJHK 011500Z 25003MPS CAVOK 27/23 Q1000 NOSIG
ZJHK,2016-08-01 16:00,ZJHK 011600Z 25003MPS CAVOK 26/23 Q1000 NOSIG
ZJHK,2016-08-01 17:00,ZJHK 011700Z 26003MPS CAVOK 27/22 Q1000 NOSIG
ZJHK,2016-08-01 18:00,ZJHK 011800Z 25003MPS CAVOK 26/21 Q0998 NOSIG
ZJHK,2016-08-01 19:00,ZJHK 011900Z 25003MPS CAVOK 26/22 Q0998 NOSIG
ZJHK,2016-08-01 20:00,ZJHK 012000Z 27002MPS CAVOK 25/22 Q0998 NOSIG
ZJHK,2016-08-01 21:00,ZJHK 012100Z 07008MPS 9999 -TSRA FEW023CB BKN030 24/22 Q1000 BECMG AT2130 SHRA
ZJHK,2016-08-01 22:00,ZJHK 012200Z 03006MPS 010V070 7000 TSRA FEW007 SCT023CB BKN030 23/23 Q1000 BECMG AT2300 -SHRA
ZJHK,2016-08-01 23:00,ZJHK 012300Z 20002MPS 180V240 7000 -SHRA FEW007 FEW023CB BKN046 23/22 Q0998 RETSRA NOSIG
ZJHK,2016-08-02 00:00,ZJHK 020000Z 23004MPS 7000 -SHRA FEW007 FEW023CB BKN046 24/23 Q0998 NOSIG
ZJHK,2016-08-02 01:00,ZJHK 020100Z 28002MPS 230V310 7000 -SHRA FEW007 FEW026CB BKN046 24/23 Q0999 NOSIG
ZJHK,2016-08-02 02:00,ZJHK 020200Z 36003MPS 5000 SHRA FEW018 FEW026CB BKN046 24/23 Q1001 BECMG AT0240 -SHRA
ZJHK,2016-08-02 03:00,ZJHK 020300Z 31004MPS 5000 -TSRA FEW018 FEW026CB BKN046 23/22 Q1001 RESHRA BECMG AT0340 SHRA
ZJHK,2016-08-02 04:00,ZJHK 020400Z 27003MPS 240V300 6000 -SHRA FEW014 FEW026CB BKN046 24/23 Q1001 RETS NOSIG
ZJHK,2016-08-02 05:00,ZJHK 020500Z 26005MPS 6000 -SHRA FEW014 FEW026CB BKN046 23/22 Q1000 NOSIG
ZJHK,2016-08-02 06:00,ZJHK 020600Z 22005MPS 8000 -SHRA FEW033CB BKN046 23/22 Q0999 NOSIG
ZJHK,2016-08-02 07:00,ZJHK 020700Z 23005MPS 200V260 9999 BKN046 24/22 Q0997 NOSIG
ZJHK,2016-08-02 08:00,ZJHK 020800Z 23004MPS 9999 SCT046 25/22 Q0997 NOSIG
ZJHK,2016-08-02 09:00,ZJHK 020900Z 21004MPS CAVOK 25/23 Q0997 NOSIG
ZJHK,2016-08-02 10:00,ZJHK 021000Z 19004MPS 160V220 CAVOK 26/22 Q0997 NOSIG
ZJHK,2016-08-02 11:00,ZJHK 021100Z 18004MPS CAVOK 26/22 Q0997 NOSIG
ZJHK,2016-08-02 12:00,ZJHK 021200Z 19002MPS 150V220 CAVOK 25/22 Q0997 NOSIG
ZJHK,2016-08-02 13:00,ZJHK 021300Z 18001MPS CAVOK 24/23 Q0999 NOSIG
ZJHK,2016-08-02 14:00,ZJHK 021400Z 18003MPS 150V210 CAVOK 26/24 Q0999 NOSIG
ZJHK,2016-08-02 15:00,ZJHK 021500Z 17003MPS 130V200 CAVOK 26/24 Q1000 NOSIG
ZJHK,2016-08-02 16:00,ZJHK 021600Z 18003MPS CAVOK 26/25 Q1000 NOSIG
ZJHK,2016-08-02 17:00,ZJHK 021700Z 17003MPS 140V220 CAVOK 27/24 Q1000 NOSIG
ZJHK,2016-08-02 18:00,ZJHK 021800Z 17004MPS 140V200 CAVOK 26/24 Q0999 NOSIG
ZJHK,2016-08-02 19:00,ZJHK 021900Z 17005MPS CAVOK 26/24 Q0999 NOSIG
ZJHK,2016-08-02 20:00,ZJHK 022000Z 18005MPS 150V210 CAVOK 26/24 Q0999 NOSIG
ZJHK,2016-08-02 21:00,ZJHK 022100Z 19004MPS 160V220 CAVOK 26/24 Q1000 NOSIG
ZJHK,2016-08-02 22:00,ZJHK 022200Z 18004MPS 150V210 CAVOK 26/25 Q1000 NOSIG
ZJHK,2016-08-02 23:00,ZJHK 022300Z 17003MPS 130V200 CAVOK 27/25 Q1001 NOSIG
ZJHK,2016-08-03 00:00,ZJHK 030000Z 16004MPS 140V200 CAVOK 27/25 Q1001 NOSIG
ZJHK,2016-08-03 01:00,ZJHK 030100Z 17004MPS CAVOK 28/25 Q1002 NOSIG
ZJHK,2016-08-03 02:00,ZJHK 030200Z 18004MPS 140V210 9999 FEW020 30/25 Q1002 NOSIG
ZJHK,2016-08-03 03:00,ZJHK 030300Z 20005MPS 160V230 9999 SCT020 31/25 Q1002 NOSIG
ZJHK,2016-08-03 04:00,ZJHK 030400Z 19003MPS 150V220 9999 FEW020TCU SCT020 31/25 Q1003 NOSIG
ZJHK,2016-08-03 05:00,ZJHK 030500Z 19003MPS 140V230 9999 FEW023TCU SCT023 32/25 Q1002 NOSIG
ZJHK,2016-08-03 06:00,ZJHK 030600Z 15003MPS 100V190 9999 FEW023CB BKN040 31/25 Q1002 BECMG TSRA
ZJHK,2016-08-03 07:00,ZJHK 030700Z VRB04MPS 9999 FEW016 FEW023CB SCT023 BKN040 30/25 Q1003 NOSIG
ZJHK,2016-08-03 08:00,ZJHK 030800Z 35002MPS 270V060 9999 FEW023CB SCT023 BKN040 26/23 Q1003 NOSIG
ZJHK,2016-08-03 09:00,ZJHK 030900Z 10001MPS 9999 -SHRA FEW023CB SCT023 BKN040 26/24 Q1002 NOSIG
ZJHK,2016-08-03 10:00,ZJHK 031000Z 14003MPS 100V180 9999 FEW023TCU FEW023 28/25 Q1002 NOSIG
ZJHK,2016-08-03 11:00,ZJHK 031100Z 17005MPS 9999 FEW023 FEW033CB 28/24 Q1003 NOSIG
ZJHK,2016-08-03 12:00,ZJHK 031200Z 15003MPS CAVOK 27/25 Q1004 NOSIG
ZJHK,2016-08-03 13:00,ZJHK 031300Z 14003MPS CAVOK 27/25 Q1004 NOSIG
ZJHK,2016-08-03 14:00,ZJHK 031400Z 15002MPS 120V190 CAVOK 26/25 Q1005 NOSIG
ZJHK,2016-08-03 15:00,ZJHK 031500Z 16002MPS 9999 FEW013 26/25 Q1006 NOSIG
ZJHK,2016-08-03 16:00,ZJHK 031600Z 16002MPS CAVOK 26/25 Q1006 NOSIG
ZJHK,2016-08-03 17:00,ZJHK 031700Z 14001MPS CAVOK 26/25 Q1005 NOSIG
ZJHK,2016-08-03 18:00,ZJHK 031800Z 14001MPS CAVOK 25/25 Q1005 NOSIG
ZJHK,2016-08-03 19:00,ZJHK 031900Z 13002MPS CAVOK 25/25 Q1004 NOSIG
ZJHK,2016-08-03 20:00,ZJHK 032000Z 13002MPS CAVOK 25/25 Q1004 NOSIG
ZJHK,2016-08-03 21:00,ZJHK 032100Z 12002MPS CAVOK 25/24 Q1004 NOSIG
ZJHK,2016-08-03 22:00,ZJHK 032200Z 12002MPS CAVOK 25/24 Q1004 NOSIG
ZJHK,2016-08-03 23:00,ZJHK 032300Z 16001MPS 9999 FEW023 25/24 Q1005 NOSIG
ZJHK,2016-08-04 00:00,ZJHK 040000Z 14002MPS 9999 FEW023 27/26 Q1006 NOSIG
ZJHK,2016-08-04 01:00,ZJHK 040100Z 17003MPS 120V190 9999 FEW023 28/26 Q1006 NOSIG
ZJHK,2016-08-04 02:00,ZJHK 040200Z 14004MPS 110V170 9999 FEW030CB SCT046 28/25 Q1006 BECMG AT0220 SHRA
ZJHK,2016-08-04 03:00,ZJHK 040300Z 15001MPS 9999 FEW030 27/23 Q1006 NOSIG
ZJHK,2016-08-04 04:00,ZJHK 040400Z 14002MPS 090V170 9999 FEW030 29/24 Q1006 NOSIG
ZJHK,2016-08-04 05:00,ZJHK 040500Z 13002MPS 100V160 9999 SCT030 29/24 Q1006 NOSIG
ZJHK,2016-08-04 06:00,ZJHK 040600Z 11002MPS 9999 FEW030 29/24 Q1006 NOSIG
ZJHK,2016-08-04 07:00,ZJHK 040700Z 03002MPS 9999 FEW030 30/25 Q1005 NOSIG
ZJHK,2016-08-04 08:00,ZJHK 040800Z 14001MPS 9999 FEW030 31/24 Q1004 NOSIG
ZJHK,2016-08-04 09:00,ZJHK 040900Z 07005MPS 9999 FEW023TCU SCT023 29/25 Q1004 NOSIG
ZJHK,2016-08-04 10:00,ZJHK 041000Z 09005MPS 9999 FEW023TCU FEW023 28/25 Q1005 NOSIG
ZJHK,2016-08-04 11:00,ZJHK 041100Z 10004MPS 9999 FEW030 27/25 Q1005 NOSIG
ZJHK,2016-08-04 12:00,ZJHK 041200Z 08004MPS CAVOK 27/25 Q1006 NOSIG
ZJHK,2016-08-04 13:00,ZJHK 041300Z 11003MPS CAVOK 26/25 Q1007 NOSIG
ZJHK,2016-08-04 14:00,ZJHK 041400Z 12002MPS CAVOK 26/25 Q1008 NOSIG
ZJHK,2016-08-04 15:00,ZJHK 041500Z 10002MPS CAVOK 25/25 Q1008 NOSIG
ZJHK,2016-08-04 16:00,ZJHK 041600Z 12002MPS CAVOK 25/25 Q1008 NOSIG
ZJHK,2016-08-04 17:00,ZJHK 041700Z 11002MPS CAVOK 25/25 Q1008 NOSIG
ZJHK,2016-08-04 18:00,ZJHK 041800Z 12002MPS CAVOK 25/25 Q1007 NOSIG
ZJHK,2016-08-04 19:00,ZJHK 041900Z 12001MPS 9999 FEW016 25/25 Q1007 NOSIG
ZJHK,2016-08-04 20:00,ZJHK 042000Z 11001MPS CAVOK 25/25 Q1007 NOSIG
ZJHK,2016-08-04 21:00,ZJHK 042100Z 08001MPS 7000 FEW016 25/25 Q1006 NOSIG
ZJHK,2016-08-04 22:00,ZJHK 042200Z 11002MPS 6000 FEW023 25/25 Q1007 NOSIG
ZJHK,2016-08-04 23:00,ZJHK 042300Z 12001MPS 8000 FEW026TCU SCT026 25/25 Q1007 NOSIG
ZJHK,2016-08-05 00:00,ZJHK 050000Z 15002MPS 090V180 9999 FEW026 27/26 Q1007 NOSIG
ZJHK,2016-08-05 01:00,ZJHK 050100Z 18004MPS 150V220 9999 FEW023TCU SCT023 29/25 Q1008 NOSIG
ZJHK,2016-08-05 02:00,ZJHK 050200Z 21004MPS 170V240 9999 SCT023 30/24 Q1008 NOSIG
ZJHK,2016-08-05 03:00,ZJHK 050300Z 19003MPS 140V240 9999 FEW026TCU SCT026 31/24 Q1007 NOSIG
ZJHK,2016-08-05 04:00,ZJHK 050400Z 18002MPS 130V260 9999 FEW026 SCT040 32/24 Q1007 NOSIG
ZJHK,2016-08-05 05:00,ZJHK 050500Z 16002MPS 090V240 9999 FEW026TCU SCT026 32/24 Q1007 NOSIG
ZJHK,2016-08-05 06:00,ZJHK 050600Z 20006MPS 160V240 9999 -SHRA FEW023 FEW030CB BKN030 29/25 Q1007 BECMG FM0610 TS
ZJHK,2016-08-05 07:00,ZJHK 050700Z 17001MPS 9999 FEW023TCU SCT046 30/26 Q1006 RESHRA NOSIG
ZJHK,2016-08-05 09:00,ZJHK 050900Z 14002MPS 9999 FEW023CB SCT046 30/24 Q1005 NOSIG
ZJHK,2016-08-05 10:00,ZJHK 051000Z 27003MPS 9999 FEW023CB BKN046 28/24 Q1005 NOSIG
ZJHK,2016-08-05 11:00,ZJHK 051100Z 27002MPS CAVOK 26/23 Q1006 NOSIG
ZJHK,2016-08-05 12:00,ZJHK 051200Z 13001MPS CAVOK 25/24 Q1006 NOSIG
ZJHK,2016-08-05 13:00,ZJHK 051300Z 15002MPS CAVOK 26/24 Q1007 NOSIG
ZJHK,2016-08-05 14:00,ZJHK 051400Z 20001MPS CAVOK 26/24 Q1008 NOSIG
ZJHK,2016-08-05 15:00,ZJHK 051500Z 00000MPS CAVOK 26/25 Q1008 NOSIG
ZJHK,2016-08-05 16:00,ZJHK 051600Z 17001MPS CAVOK 26/25 Q1008 NOSIG
ZJHK,2016-08-05 17:00,ZJHK 051700Z 15001MPS CAVOK 25/25 Q1008 NOSIG
ZJHK,2016-08-05 18:00,ZJHK 051800Z 14001MPS CAVOK 25/24 Q1007 NOSIG
ZJHK,2016-08-05 19:00,ZJHK 051900Z 14002MPS 6000 NSC 25/24 Q1007 NOSIG
ZJHK,2016-08-05 20:00,ZJHK 052000Z 17001MPS 6000 NSC 25/24 Q1006 NOSIG
ZJHK,2016-08-05 21:00,ZJHK 052100Z 14001MPS 6000 NSC 25/24 Q1006 NOSIG
ZJHK,2016-08-05 22:00,ZJHK 052200Z 19002MPS 6000 NSC 25/25 Q1006 NOSIG
ZJHK,2016-08-05 23:00,ZJHK 052300Z 21002MPS 6000 NSC 26/25 Q1007 NOSIG
ZJHK,2016-08-06 00:00,ZJHK 060000Z 22002MPS 180V260 6000 SCT005 26/25 Q1007 NOSIG
ZJHK,2016-08-06 01:00,ZJHK 060100Z 23002MPS CAVOK 28/25 Q1007 NOSIG
ZJHK,2016-08-06 02:00,ZJHK 060200Z 28002MPS 9999 SCT016 30/25 Q1007 NOSIG
ZJHK,2016-08-06 03:00,ZJHK 060300Z 28002MPS 240V300 9999 SCT016 31/25 Q1006 NOSIG
ZJHK,2016-08-06 04:00,ZJHK 060400Z 29003MPS 260V350 9999 SCT016 32/25 Q1006 NOSIG
ZJHK,2016-08-06 05:00,ZJHK 060500Z 28003MPS 240V300 9999 SCT016 32/25 Q1006 NOSIG
ZJHK,2016-08-06 06:00,ZJHK 060600Z 30004MPS 260V340 9999 SCT016 33/25 Q1005 NOSIG
ZJHK,2016-08-06 07:00,ZJHK 060700Z 31003MPS 270V010 9999 FEW023 33/25 Q1004 NOSIG
ZJHK,2016-08-06 08:00,ZJHK 060800Z 32004MPS 280V350 9999 FEW023CB FEW023 33/25 Q1004 NOSIG
ZJHK,2016-08-06 09:00,ZJHK 060900Z 32003MPS 280V010 9999 FEW023CB FEW023 32/24 Q1003 NOSIG
ZJHK,2016-08-06 10:00,ZJHK 061000Z 33004MPS 9999 FEW023TCU 31/25 Q1003 NOSIG
ZJHK,2016-08-06 11:00,ZJHK 061100Z 36002MPS 330V030 9999 FEW023TCU 30/25 Q1003 NOSIG
ZJHK,2016-08-06 12:00,ZJHK 061200Z 16002MPS 9999 FEW046 28/25 Q1003 NOSIG
ZJHK,2016-08-06 13:00,ZJHK 061300Z 16002MPS 9999 FEW040 27/25 Q1004 NOSIG
ZJHK,2016-08-06 14:00,ZJHK 061400Z 19002MPS 9999 BKN030 27/25 Q1005 NOSIG
ZJHK,2016-08-06 15:00,ZJHK 061500Z 19002MPS 9999 FEW046 27/25 Q1005 NOSIG
ZJHK,2016-08-06 16:00,ZJHK 061600Z 00000MPS 9999 FEW046 27/25 Q1005 NOSIG
ZJHK,2016-08-06 17:00,ZJHK 061700Z 22001MPS CAVOK 26/25 Q1005 NOSIG
ZJHK,2016-08-06 18:00,ZJHK 061800Z 20002MPS CAVOK 26/25 Q1004 NOSIG
ZJHK,2016-08-06 19:00,ZJHK 061900Z 22002MPS CAVOK 26/25 Q1004 NOSIG
ZJHK,2016-08-06 20:00,ZJHK 062000Z 20001MPS CAVOK 26/25 Q1004 NOSIG
ZJHK,2016-08-06 21:00,ZJHK 062100Z 18001MPS CAVOK 26/25 Q1003 NOSIG
ZJHK,2016-08-06 22:00,ZJHK 062200Z 23002MPS CAVOK 26/25 Q1003 NOSIG
ZJHK,2016-08-06 23:00,ZJHK 062300Z 24002MPS CAVOK 26/25 Q1004 NOSIG
ZJHK,2016-08-07 00:00,ZJHK 070000Z 22002MPS CAVOK 27/25 Q1004 NOSIG
ZJHK,2016-08-07 01:00,ZJHK 070100Z 22002MPS 180V250 CAVOK 29/26 Q1004 NOSIG
ZJHK,2016-08-07 02:00,ZJHK 070200Z 27002MPS 230V320 CAVOK 31/26 Q1004 NOSIG
ZJHK,2016-08-07 03:00,ZJHK 070300Z 30005MPS 260V330 9999 FEW026 32/25 Q1004 NOSIG
ZJHK,2016-08-07 04:00,ZJHK 070400Z 30005MPS 270V330 9999 FEW026 32/24 Q1004 NOSIG
ZJHK,2016-08-07 05:00,ZJHK 070500Z 29004MPS 260V320 CAVOK 33/24 Q1003 NOSIG
ZJHK,2016-08-07 06:00,ZJHK 070600Z 30004MPS 270V340 CAVOK 33/25 Q1002 NOSIG
ZJHK,2016-08-07 07:00,ZJHK 070700Z 33005MPS CAVOK 33/24 Q1002 NOSIG
ZJHK,2016-08-07 08:00,ZJHK 070800Z 31005MPS 280V340 CAVOK 33/24 Q1001 NOSIG
ZJHK,2016-08-07 09:00,ZJHK 070900Z 33004MPS 290V360 CAVOK 33/23 Q1001 NOSIG
ZJHK,2016-08-07 10:00,ZJHK 071000Z 33003MPS 300V010 9999 FEW030TCU 31/23 Q1002 NOSIG
ZJHK,2016-08-07 11:00,ZJHK 071100Z 32002MPS CAVOK 30/23 Q1002 NOSIG
ZJHK,2016-08-07 12:00,ZJHK 071200Z 16002MPS CAVOK 29/26 Q1003 NOSIG
ZJHK,2016-08-07 13:00,ZJHK 071300Z 18001MPS CAVOK 28/26 Q1004 NOSIG
ZJHK,2016-08-07 14:00,ZJHK 071400Z 19001MPS CAVOK 28/25 Q1005 NOSIG
ZJHK,2016-08-07 15:00,ZJHK 071500Z 20001MPS CAVOK 27/25 Q1005 NOSIG
ZJHK,2016-08-07 16:00,ZJHK 071600Z 00000MPS CAVOK 27/25 Q1005 NOSIG
ZJHK,2016-08-07 17:00,ZJHK 071700Z 20001MPS CAVOK 27/26 Q1004 NOSIG
ZJHK,2016-08-07 18:00,ZJHK 071800Z 20001MPS CAVOK 27/25 Q1004 NOSIG
ZJHK,2016-08-07 19:00,ZJHK 071900Z 20002MPS CAVOK 27/25 Q1004 NOSIG
ZJHK,2016-08-07 20:00,ZJHK 072000Z 21002MPS CAVOK 27/25 Q1003 NOSIG
ZJHK,2016-08-07 21:00,ZJHK 072100Z 21002MPS CAVOK 26/25 Q1003 NOSIG
ZJHK,2016-08-07 22:00,ZJHK 072200Z 26002MPS CAVOK 26/25 Q1003 NOSIG
ZJHK,2016-08-07 23:00,ZJHK 072300Z 26002MPS 210V300 7000 NSC 26/25 Q1004 NOSIG
ZJHK,2016-08-08 00:00,ZJHK 080000Z 27002MPS CAVOK 28/25 Q1004 NOSIG
ZJHK,2016-08-08 01:00,ZJHK 080100Z 26002MPS 230V290 CAVOK 30/24 Q1004 NOSIG
ZJHK,2016-08-08 02:00,ZJHK 080200Z 29003MPS 250V310 CAVOK 32/24 Q1004 NOSIG
ZJHK,2016-08-08 03:00,ZJHK 080300Z 27005MPS CAVOK 33/24 Q1004 NOSIG
ZJHK,2016-08-08 04:00,ZJHK 080400Z 27003MPS 240V300 9999 FEW026 34/24 Q1004 NOSIG
ZJHK,2016-08-08 05:00,ZJHK 080500Z 28003MPS 240V330 9999 FEW026TCU BKN026 34/24 Q1003 NOSIG
ZJHK,2016-08-08 06:00,ZJHK 080600Z 33005MPS 9999 FEW026TCU SCT026 34/25 Q1003 NOSIG
ZJHK,2016-08-08 07:00,ZJHK 080700Z 33005MPS 280V360 9999 FEW026TCU FEW026 34/25 Q1002 NOSIG
ZJHK,2016-08-08 08:00,ZJHK 080800Z 32004MPS 290V350 9999 FEW026TCU FEW026 34/24 Q1002 NOSIG
ZJHK,2016-08-08 09:00,ZJHK 080900Z 32004MPS 280V340 9999 FEW026 33/24 Q1001 NOSIG
ZJHK,2016-08-08 10:00,ZJHK 081000Z 31004MPS 9999 FEW026 32/25 Q1002 NOSIG
ZJHK,2016-08-08 11:00,ZJHK 081100Z 31003MPS 9999 FEW033TCU SCT046 31/25 Q1002 NOSIG
ZJHK,2016-08-08 12:00,ZJHK 081200Z 19001MPS 9999 FEW033TCU SCT046 30/25 Q1004 NOSIG
ZJHK,2016-08-08 13:00,ZJHK 081300Z 23002MPS 9999 SCT046 29/26 Q1004 NOSIG
ZJHK,2016-08-08 14:00,ZJHK 081400Z 23002MPS 190V270 9999 FEW046 29/25 Q1004 NOSIG
ZJHK,2016-08-08 15:00,ZJHK 081500Z 21002MPS CAVOK 27/24 Q1005 NOSIG
ZJHK,2016-08-08 16:00,ZJHK 081600Z 23002MPS CAVOK 27/24 Q1004 NOSIG
ZJHK,2016-08-08 17:00,ZJHK 081700Z 25002MPS CAVOK 26/25 Q1004 NOSIG
ZJHK,2016-08-08 18:00,ZJHK 081800Z 22002MPS CAVOK 26/24 Q1004 NOSIG
ZJHK,2016-08-08 19:00,ZJHK 081900Z 23003MPS CAVOK 26/24 Q1003 NOSIG
ZJHK,2016-08-08 20:00,ZJHK 082000Z 24002MPS CAVOK 25/24 Q1002 NOSIG
ZJHK,2016-08-08 21:00,ZJHK 082100Z 24001MPS CAVOK 25/24 Q1002 NOSIG
ZJHK,2016-08-08 22:00,ZJHK 082200Z 20002MPS CAVOK 25/24 Q1002 NOSIG
ZJHK,2016-08-08 23:00,ZJHK 082300Z 20001MPS CAVOK 25/24 Q1002 NOSIG
ZJHK,2016-08-09 00:00,ZJHK 090000Z 25002MPS 220V280 CAVOK 28/24 Q1003 NOSIG
ZJHK,2016-08-09 01:00,ZJHK 090100Z 28002MPS 250V310 CAVOK 30/24 Q1003 NOSIG
ZJHK,2016-08-09 02:00,ZJHK 090200Z 31003MPS 250V330 CAVOK 32/24 Q1003 NOSIG
ZJHK,2016-08-09 03:00,ZJHK 090300Z 31003MPS 270V350 9999 FEW026 33/24 Q1003 NOSIG
ZJHK,2016-08-09 04:00,ZJHK 090400Z 32003MPS 270V360 9999 FEW040 34/24 Q1003 NOSIG
ZJHK,2016-08-09 05:00,ZJHK 090500Z 33004MPS 300V360 9999 FEW033 34/24 Q1002 NOSIG
ZJHK,2016-08-09 06:00,ZJHK 090600Z 34004MPS 300V010 9999 FEW033TCU FEW033 34/25 Q1001 NOSIG
ZJHK,2016-08-09 07:00,ZJHK 090700Z 34005MPS 9999 FEW033TCU FEW033 34/24 Q1000 NOSIG
ZJHK,2016-08-09 08:00,ZJHK 090800Z 34006MPS 9999 FEW033TCU FEW033 34/23 Q1000 NOSIG
ZJHK,2016-08-09 09:00,ZJHK 090900Z 31004MPS 280V340 9999 FEW033TCU FEW033 33/23 Q1000 NOSIG
ZJHK,2016-08-09 10:00,ZJHK 091000Z 29003MPS 9999 FEW033TCU FEW033 33/23 Q1000 NOSIG
ZJHK,2016-08-09 11:00,ZJHK 091100Z 22001MPS 9999 FEW046 31/24 Q1001 NOSIG
ZJHK,2016-08-09 13:00,ZJHK 091300Z 22002MPS 9999 FEW046 29/25 Q1003 NOSIG
ZJHK,2016-08-09 14:00,ZJHK 091400Z 26001MPS 9999 FEW046 27/25 Q1003 NOSIG
ZJHK,2016-08-09 15:00,ZJHK 091500Z 22001MPS 9999 FEW046 28/25 Q1003 NOSIG
ZJHK,2016-08-09 16:00,ZJHK 091600Z 23001MPS CAVOK 28/25 Q1003 NOSIG
ZJHK,2016-08-09 17:00,ZJHK 091700Z 00000MPS CAVOK 27/24 Q1002 NOSIG
ZJHK,2016-08-09 18:00,ZJHK 091800Z 27001MPS CAVOK 26/25 Q1002 NOSIG
ZJHK,2016-08-09 19:00,ZJHK 091900Z 00000MPS CAVOK 27/25 Q1001 NOSIG
ZJHK,2016-08-09 20:00,ZJHK 092000Z 00000MPS CAVOK 26/25 Q1001 NOSIG
ZJHK,2016-08-09 21:00,ZJHK 092100Z 00000MPS CAVOK 27/25 Q1001 NOSIG
ZJHK,2016-08-09 22:00,ZJHK 092200Z 23002MPS CAVOK 27/25 Q1001 NOSIG
ZJHK,2016-08-09 23:00,ZJHK 092300Z 23002MPS CAVOK 27/25 Q1001 NOSIG
ZJHK,2016-08-10 00:00,ZJHK 100000Z 23002MPS CAVOK 28/25 Q1002 NOSIG
ZJHK,2016-08-10 01:00,ZJHK 100100Z 26001MPS CAVOK 30/25 Q1002 NOSIG
ZJHK,2016-08-10 02:00,ZJHK 100200Z 29003MPS 260V340 CAVOK 32/25 Q1002 NOSIG
ZJHK,2016-08-10 03:00,ZJHK 100300Z 30004MPS 270V330 9999 FEW023TCU 33/23 Q1003 NOSIG
ZJHK,2016-08-10 04:00,ZJHK 100400Z 30004MPS 260V340 9999 FEW023TCU 33/24 Q1002 NOSIG
ZJHK,2016-08-10 05:00,ZJHK 100500Z 32004MPS 280V350 9999 FEW023TCU 33/25 Q1002 NOSIG
ZJHK,2016-08-10 06:00,ZJHK 100600Z 33003MPS 290V360 9999 FEW023TCU 33/25 Q1000 NOSIG
ZJHK,2016-08-10 07:00,ZJHK 100700Z 30002MPS 260V010 9999 FEW023TCU 33/25 Q1000 NOSIG
ZJHK,2016-08-10 08:00,ZJHK 100800Z 34002MPS 290V010 9999 FEW023TCU 32/25 Q0999 NOSIG
ZJHK,2016-08-10 09:00,ZJHK 100900Z 31001MPS 9999 FEW023TCU 32/24 Q1000 NOSIG
ZJHK,2016-08-10 10:00,ZJHK 101000Z 04003MPS 9999 FEW023TCU 32/24 Q1000 NOSIG
ZJHK,2016-08-10 11:00,ZJHK 101100Z 10004MPS 9999 FEW023TCU 29/26 Q1001 NOSIG
ZJHK,2016-08-10 12:00,ZJHK 101200Z 15002MPS 9999 FEW023 28/26 Q1002 NOSIG
ZJHK,2016-08-10 13:00,ZJHK 101300Z 13002MPS CAVOK 27/25 Q1002 NOSIG
ZJHK,2016-08-10 14:00,ZJHK 101400Z 20002MPS 9999 FEW040 27/24 Q1003 NOSIG
ZJHK,2016-08-10 15:00,ZJHK 101500Z 18001MPS 9999 FEW040 27/24 Q1003 NOSIG
ZJHK,2016-08-10 16:00,ZJHK 101600Z 20001MPS CAVOK 26/24 Q1002 NOSIG
ZJHK,2016-08-10 17:00,ZJHK 101700Z 23002MPS CAVOK 27/24 Q1002 NOSIG
ZJHK,2016-08-10 18:00,ZJHK 101800Z 22001MPS 9999 FEW033CB 26/24 Q1002 NOSIG
ZJHK,2016-08-10 19:00,ZJHK 101900Z 00000MPS 9999 FEW033CB 26/25 Q1001 NOSIG
ZJHK,2016-08-10 20:00,ZJHK 102000Z 00000MPS 9999 FEW033CB 26/25 Q1001 NOSIG
ZJHK,2016-08-10 21:00,ZJHK 102100Z 08001MPS CAVOK 26/25 Q1001 NOSIG
ZJHK,2016-08-10 22:00,ZJHK 102200Z 00000MPS CAVOK 26/25 Q1001 NOSIG
ZJHK,2016-08-10 23:00,ZJHK 102300Z 00000MPS CAVOK 26/25 Q1002 NOSIG
ZJHK,2016-08-11 00:00,ZJHK 110000Z 09002MPS 9999 FEW026TCU 28/26 Q1002 NOSIG
ZJHK,2016-08-11 01:00,ZJHK 110100Z 08003MPS 060V120 9999 FEW026CB 29/26 Q1003 BECMG AT0130 SHRA
ZJHK,2016-08-11 02:00,ZJHK 110200Z 04003MPS 9999 SCT020 FEW026TCU 28/26 Q1003 NOSIG
ZJHK,2016-08-11 03:00,ZJHK 110300Z 06004MPS 9999 SCT013 FEW026TCU 29/26 Q1003 NOSIG
ZJHK,2016-08-11 04:00,ZJHK 110400Z 05003MPS 9999 SCT018 FEW026TCU BKN046 29/26 Q1003 NOSIG
ZJHK,2016-08-11 05:00,ZJHK 110500Z 07004MPS 9999 SCT018 FEW026TCU BKN046 28/25 Q1003 NOSIG
ZJHK,2016-08-11 06:00,ZJHK 110600Z 05005MPS 9999 SCT013 FEW026CB BKN046 29/25 Q1002 BECMG AT0640 SHRA
ZJHK,2016-08-11 07:00,ZJHK 110700Z 36003MPS 330V030 9999 -SHRA SCT013 FEW026CB BKN046 26/25 Q1002 NOSIG
ZJHK,2016-08-11 08:00,ZJHK 110800Z 08001MPS 9999 FEW033CB SCT046 28/24 Q1002 NOSIG
ZJHK,2016-08-11 09:00,ZJHK 110900Z 19002MPS 9999 FEW020 SCT033 27/25 Q1003 NOSIG
ZJHK,2016-08-11 10:00,ZJHK 111000Z 19001MPS CAVOK 27/25 Q1002 NOSIG
ZJHK,2016-08-11 11:00,ZJHK 111100Z 12001MPS CAVOK 26/25 Q1001 NOSIG
ZJHK,2016-08-11 12:00,ZJHK 111200Z 21001MPS CAVOK 26/25 Q1002 NOSIG
ZJHK,2016-08-11 13:00,ZJHK 111300Z 24004MPS 9999 FEW013 24/23 Q1003 NOSIG
ZJHK,2016-08-11 14:00,ZJHK 111400Z 26002MPS 9999 BKN016 24/23 Q1003 NOSIG
ZJHK,2016-08-11 15:00,ZJHK 111500Z 26001MPS CAVOK 24/23 Q1004 NOSIG
ZJHK,2016-08-11 16:00,ZJHK 111600Z 34001MPS CAVOK 24/23 Q1003 NOSIG
ZJHK,2016-08-11 17:00,ZJHK 111700Z 20002MPS CAVOK 24/23 Q1002 NOSIG
ZJHK,2016-08-11 18:00,ZJHK 111800Z 22002MPS CAVOK 24/24 Q1002 NOSIG
ZJHK,2016-08-11 19:00,ZJHK 111900Z 24002MPS CAVOK 24/23 Q1002 NOSIG
ZJHK,2016-08-11 20:00,ZJHK 112000Z 22001MPS CAVOK 24/23 Q1002 NOSIG
ZJHK,2016-08-11 21:00,ZJHK 112100Z 00000MPS CAVOK 24/23 Q1002 NOSIG
ZJHK,2016-08-11 22:00,ZJHK 112200Z 17001MPS CAVOK 24/23 Q1002 NOSIG
ZJHK,2016-08-11 23:00,ZJHK 112300Z 24001MPS CAVOK 24/24 Q1002 NOSIG
ZJHK,2016-08-12 00:00,ZJHK 120000Z 25001MPS CAVOK 26/24 Q1002 NOSIG
ZJHK,2016-08-12 01:00,ZJHK 120100Z 22001MPS 9999 FEW020 27/24 Q1002 NOSIG
ZJHK,2016-08-12 02:00,ZJHK 120200Z 21001MPS 9999 SCT017 29/25 Q1003 NOSIG
ZJHK,2016-08-12 03:00,ZJHK 120300Z 27002MPS 9999 SCT023 30/25 Q1002 NOSIG
ZJHK,2016-08-12 04:00,ZJHK 120400Z 31002MPS 9999 FEW023TCU SCT023 31/25 Q1002 NOSIG
ZJHK,2016-08-12 05:00,ZJHK 120500Z 36002MPS 9999 FEW023CB SCT023 32/25 Q1001 BECMG AT0530 TS
ZJHK,2016-08-12 06:00,ZJHK 120600Z 30003MPS 260V010 9999 FEW023CB FEW023 33/24 Q1000 NOSIG
ZJHK,2016-08-12 07:00,ZJHK 120700Z 26003MPS 220V290 9999 FEW023TCU FEW023 32/25 Q0999 NOSIG
ZJHK,2016-08-12 08:00,ZJHK 120800Z 32004MPS 280V360 9999 FEW023TCU FEW023 33/22 Q0999 BECMG AT0930 TS
ZJHK,2016-08-12 09:00,ZJHK 120900Z 23008MPS 9999 SCT020 SCT023CB BKN046 28/23 Q1000 BECMG AT0920 TSRA
ZJHK,2016-08-12 10:00,ZJHK 121000Z 20004MPS 160V220 9999 FEW020 FEW030CB SCT046 26/22 Q1000 NOSIG
ZJHK,2016-08-12 11:00,ZJHK 121100Z 22003MPS 180V270 9999 SCT007 SCT046 25/23 Q1000 NOSIG
ZJHK,2016-08-12 12:00,ZJHK 121200Z 20002MPS 160V230 CAVOK 25/23 Q1001 NOSIG
ZJHK,2016-08-12 13:00,ZJHK 121300Z 23003MPS CAVOK 25/24 Q1001 NOSIG
ZJHK,2016-08-12 14:00,ZJHK 121400Z 25003MPS CAVOK 25/23 Q1002 NOSIG
ZJHK,2016-08-12 15:00,ZJHK 121500Z 23002MPS CAVOK 25/24 Q1002 NOSIG
ZJHK,2016-08-12 16:00,ZJHK 121600Z 25002MPS CAVOK 25/24 Q1001 NOSIG
ZJHK,2016-08-12 17:00,ZJHK 121700Z 26002MPS CAVOK 25/24 Q1001 NOSIG
ZJHK,2016-08-12 18:00,ZJHK 121800Z 24002MPS CAVOK 25/24 Q1000 NOSIG
ZJHK,2016-08-12 19:00,ZJHK 121900Z 24001MPS CAVOK 25/24 Q0999 NOSIG
ZJHK,2016-08-12 20:00,ZJHK 122000Z 20002MPS CAVOK 25/23 Q0999 NOSIG
ZJHK,2016-08-12 21:00,ZJHK 122100Z 22001MPS CAVOK 25/24 Q0998 NOSIG
ZJHK,2016-08-12 22:00,ZJHK 122200Z 23001MPS CAVOK 25/24 Q0999 NOSIG
ZJHK,2016-08-12 23:00,ZJHK 122300Z 00000MPS CAVOK 25/24 Q1000 NOSIG
ZJHK,2016-08-13 00:00,ZJHK 130000Z 20001MPS CAVOK 26/24 Q1000 NOSIG
ZJHK,2016-08-13 01:00,ZJHK 130100Z 19002MPS 9999 FEW033TCU 27/24 Q1000 NOSIG
ZJHK,2016-08-13 02:00,ZJHK 130200Z 21002MPS 180V240 9999 FEW033TCU 29/24 Q1000 NOSIG
ZJHK,2016-08-13 03:00,ZJHK 130300Z 26007MPS 9999 FEW033CB SCT033 30/24 Q1000 BECMG AT0330 28011G19MPS 1600 +TSRA
ZJHK,2016-08-13 04:00,ZJHK 130400Z 28007MPS 9999 FEW033CB SCT033 28/24 Q1000 NOSIG
ZJHK,2016-08-13 05:00,ZJHK 130500Z 30005MPS 9999 FEW033TCU SCT033 30/24 Q0998 NOSIG
ZJHK,2016-08-13 06:00,ZJHK 130600Z 28004MPS 250V310 9999 FEW026TCU SCT026 30/24 Q0998 NOSIG
ZJHK,2016-08-13 07:00,ZJHK 130700Z 30004MPS 9999 FEW026TCU SCT026 30/25 Q0997 NOSIG
ZJHK,2016-08-13 08:00,ZJHK 130800Z 30004MPS 270V330 9999 FEW026TCU SCT026 31/24 Q0997 NOSIG
ZJHK,2016-08-13 09:00,ZJHK 130900Z 32003MPS 9999 FEW026TCU SCT026 30/24 Q0997 NOSIG
ZJHK,2016-08-13 10:00,ZJHK 131000Z 14002MPS 4000 TSRA SCT015 FEW023CB BKN033 27/25 Q0998 BECMG TL1040 NSW
ZJHK,2016-08-13 11:00,ZJHK 131100Z 13003MPS 9999 -TSRA SCT015 FEW023CB BKN033 25/24 Q0998 RESHRA BECMG TL1200 NSW
ZJHK,2016-08-13 12:00,ZJHK 131200Z 13002MPS 9999 -SHRA SCT016 FEW023CB 25/24 Q0999 RETS NOSIG
ZJHK,2016-08-13 13:00,ZJHK 131300Z 11002MPS 9999 FEW016 25/24 Q0999 NOSIG
ZJHK,2016-08-13 14:00,ZJHK 131400Z 16002MPS 9999 FEW046 25/24 Q1000 NOSIG
ZJHK,2016-08-13 15:00,ZJHK 131500Z 13001MPS CAVOK 25/24 Q1000 NOSIG
ZJHK,2016-08-13 16:00,ZJHK 131600Z 12001MPS CAVOK 25/24 Q1000 NOSIG
ZJHK,2016-08-13 17:00,ZJHK 131700Z 00000MPS CAVOK 25/24 Q0999 NOSIG
ZJHK,2016-08-13 18:00,ZJHK 131800Z 19001MPS CAVOK 25/24 Q0998 NOSIG
ZJHK,2016-08-13 19:00,ZJHK 131900Z 00000MPS CAVOK 25/24 Q0998 NOSIG
ZJHK,2016-08-13 20:00,ZJHK 132000Z 13001MPS 9999 FEW046 25/24 Q0997 NOSIG
ZJHK,2016-08-13 21:00,ZJHK 132100Z 00000MPS 9999 FEW046 24/24 Q0997 NOSIG
ZJHK,2016-08-13 22:00,ZJHK 132200Z 00000MPS 6000 FEW046 24/24 Q0997 NOSIG
ZJHK,2016-08-13 23:00,ZJHK 132300Z 21001MPS 8000 FEW030TCU FEW046 25/24 Q0998 NOSIG
ZJHK,2016-08-14 00:00,ZJHK 140000Z 23002MPS 8000 FEW030TCU 26/25 Q0998 NOSIG
ZJHK,2016-08-14 01:00,ZJHK 140100Z 26002MPS 220V290 9999 FEW030TCU 27/25 Q0999 NOSIG
ZJHK,2016-08-14 02:00,ZJHK 140200Z 27004MPS 9999 FEW023TCU SCT033 28/24 Q0998 NOSIG
ZJHK,2016-08-14 03:00,ZJHK 140300Z 26005MPS 230V290 9999 FEW020TCU SCT020 28/24 Q0999 NOSIG
ZJHK,2016-08-14 04:00,ZJHK 140400Z 28005MPS 9999 FEW020TCU SCT020 SCT040 29/25 Q0998 NOSIG
ZJHK,2016-08-14 05:00,ZJHK 140500Z 30003MPS 9999 FEW020CB BKN040 29/25 Q0998 BECMG FM0510 SHRA
ZJHK,2016-08-14 06:00,ZJHK 140600Z 30005MPS 9999 FEW020CB SCT040 29/24 Q0997 NOSIG
ZJHK,2016-08-14 07:00,ZJHK 140700Z 30005MPS 9999 FEW020CB SCT040 29/24 Q0997 NOSIG
ZJHK,2016-08-14 08:00,ZJHK 140800Z 31006MPS 280V360 9999 FEW020TCU SCT020 BKN040 29/24 Q0996 NOSIG
ZJHK,2016-08-14 09:00,ZJHK 140900Z 31004MPS 280V340 9999 FEW026TCU SCT026 28/24 Q0996 NOSIG
ZJHK,2016-08-14 10:00,ZJHK 141000Z 29002MPS 9999 FEW026TCU SCT026 28/25 Q0997 NOSIG
ZJHK,2016-08-14 11:00,ZJHK 141100Z 25003MPS 9999 SCT026 27/24 Q0997 NOSIG
ZJHK,2016-08-14 12:00,ZJHK 141200Z 24003MPS 9999 SCT026 26/24 Q0998 NOSIG
ZJHK,2016-08-14 13:00,ZJHK 141300Z 25002MPS 9999 FEW026 26/23 Q0998 NOSIG
ZJHK,2016-08-14 14:00,ZJHK 141400Z 25002MPS 9999 FEW026 25/23 Q0999 NOSIG
ZJHK,2016-08-14 15:00,ZJHK 141500Z 26001MPS 9999 FEW026 25/23 Q0999 NOSIG
ZJHK,2016-08-14 16:00,ZJHK 141600Z 26001MPS CAVOK 25/23 Q0999 NOSIG
ZJHK,2016-08-14 17:00,ZJHK 141700Z 00000MPS CAVOK 24/23 Q0998 NOSIG
ZJHK,2016-08-14 18:00,ZJHK 141800Z 17001MPS CAVOK 24/23 Q0998 NOSIG
ZJHK,2016-08-14 19:00,ZJHK 141900Z 21001MPS CAVOK 24/23 Q0997 NOSIG
ZJHK,2016-08-14 20:00,ZJHK 142000Z 00000MPS CAVOK 24/23 Q0997 NOSIG
ZJHK,2016-08-14 21:00,ZJHK 142100Z 00000MPS CAVOK 24/24 Q0997 NOSIG
ZJHK,2016-08-14 22:00,ZJHK 142200Z 22001MPS CAVOK 25/24 Q0997 NOSIG
ZJHK,2016-08-14 23:00,ZJHK 142300Z 22001MPS CAVOK 25/24 Q0998 NOSIG
ZJHK,2016-08-15 00:00,ZJHK 150000Z 27001MPS 9999 FEW033TCU 26/24 Q0998 NOSIG
ZJHK,2016-08-15 01:00,ZJHK 150100Z 22001MPS CAVOK 27/24 Q0998 NOSIG
ZJHK,2016-08-15 02:00,ZJHK 150200Z 25002MPS 180V310 9999 FEW046 29/23 Q0999 NOSIG
ZJHK,2016-08-15 03:00,ZJHK 150300Z 22002MPS 170V280 9999 FEW030CB SCT040 31/24 Q0998 BECMG AT0330 TSRA
ZJHK,2016-08-15 04:00,ZJHK 150400Z 26005MPS 220V290 5000 SHRA SCT030CB BKN040 25/24 Q0999 BECMG TL0430 NSW
ZJHK,2016-08-15 05:00,ZJHK 150500Z 26002MPS 9999 FEW030CB SCT040 26/25 Q0998 RESHRA NOSIG
ZJHK,2016-08-15 06:00,ZJHK 150600Z 26004MPS 220V290 9999 -SHRA FEW030CB BKN040 27/24 Q0997 NOSIG
ZJHK,2016-08-15 07:00,ZJHK 150700Z 25003MPS 210V270 9999 -SHRA FEW030CB SCT040 26/24 Q0997 NOSIG
ZJHK,2016-08-15 08:00,ZJHK 150800Z 22002MPS 9999 BKN023 FEW030CB 25/24 Q0997 NOSIG
ZJHK,2016-08-15 09:00,ZJHK 150900Z 23002MPS 190V250 9999 FEW033CB FEW033 26/24 Q0997 NOSIG
ZJHK,2016-08-15 10:00,ZJHK 151000Z 24002MPS 200V270 9999 FEW046 26/24 Q0997 NOSIG
ZJHK,2016-08-15 11:00,ZJHK 151100Z 19002MPS CAVOK 25/24 Q0997 NOSIG
ZJHK,2016-08-15 12:00,ZJHK 151200Z 16001MPS CAVOK 25/24 Q0998 NOSIG
ZJHK,2016-08-15 13:00,ZJHK 151300Z 22002MPS CAVOK 25/24 Q0998 NOSIG
ZJHK,2016-08-15 14:00,ZJHK 151400Z 23002MPS CAVOK 25/24 Q0998 NOSIG
ZJHK,2016-08-15 15:00,ZJHK 151500Z 20001MPS CAVOK 25/24 Q0999 NOSIG
ZJHK,2016-08-15 16:00,ZJHK 151600Z 18001MPS CAVOK 25/24 Q0998 NOSIG
ZJHK,2016-08-15 17:00,ZJHK 151700Z 19001MPS CAVOK 25/24 Q0998 NOSIG
ZJHK,2016-08-15 18:00,ZJHK 151800Z 21002MPS 9999 BKN046 25/24 Q0997 NOSIG
ZJHK,2016-08-15 19:00,ZJHK 151900Z 19002MPS 9999 BKN040 25/24 Q0997 NOSIG
ZJHK,2016-08-15 20:00,ZJHK 152000Z 20002MPS 170V230 9999 BKN040 25/24 Q0996 NOSIG
ZJHK,2016-08-15 21:00,ZJHK 152100Z 26003MPS CAVOK 25/24 Q0996 NOSIG
ZJHK,2016-08-15 22:00,ZJHK 152200Z 28002MPS 9999 -SHRA FEW015 FEW023TCU 24/24 Q0996 NOSIG
ZJHK,2016-08-15 23:00,ZJHK 152300Z 26002MPS 230V290 8000 -RA FEW015 BKN033 24/24 Q0997 NOSIG
ZJHK,2016-08-16 00:00,ZJHK 160000Z 27004MPS 9999 BKN046 25/24 Q0997 NOSIG
ZJHK,2016-08-16 01:00,ZJHK 160100Z 28004MPS 7000 -SHRA FEW016 FEW023TCU BKN040 25/24 Q0997 NOSIG
ZJHK,2016-08-16 02:00,ZJHK 160200Z 28005MPS 9000 -SHRA SCT020 FEW023CB 26/24 Q0997 NOSIG
ZJHK,2016-08-16 03:00,ZJHK 160300Z 27007MPS 6000 -SHRA FEW015 FEW023CB BKN040 24/24 Q0998 NOSIG
ZJHK,2016-08-16 04:00,ZJHK 160400Z 24003MPS 200V280 9999 SCT016 FEW023TCU BKN046 26/25 Q0997 NOSIG
ZJHK,2016-08-16 05:00,ZJHK 160500Z 26007MPS 9999 FEW023TCU BKN030 28/24 Q0996 NOSIG
ZJHK,2016-08-16 06:00,ZJHK 160600Z 27006MPS 9999 FEW023TCU SCT030 28/24 Q0996 NOSIG
ZJHK,2016-08-16 07:00,ZJHK 160700Z 29007MPS 9999 FEW023TCU SCT030 28/24 Q0995 NOSIG
ZJHK,2016-08-16 08:00,ZJHK 160800Z 30006MPS 9000 -SHRA FEW023TCU BKN030 26/24 Q0995 NOSIG
ZJHK,2016-08-16 09:00,ZJHK 160900Z 28004MPS 9999 SCT013 BKN030 27/24 Q0995 NOSIG
ZJHK,2016-08-16 10:00,ZJHK 161000Z 28003MPS 9999 FEW030CB BKN040 26/24 Q0995 NOSIG
ZJHK,2016-08-16 11:00,ZJHK 161100Z 26003MPS 6000 -SHRA FEW023CB SCT033 26/25 Q0996 NOSIG
ZJHK,2016-08-16 12:00,ZJHK 161200Z 27003MPS 9999 -SHRA FEW023CB SCT040 26/25 Q0996 NOSIG
ZJHK,2016-08-16 13:00,ZJHK 161300Z 28004MPS 7000 -TSRA FEW010 FEW020CB SCT040 25/24 Q0997 RESHRA BECMG AT1340 NSW
ZJHK,2016-08-16 14:00,ZJHK 161400Z 29002MPS 9999 -SHRA FEW010 FEW020CB BKN040 25/24 Q0997 RETS NOSIG
ZJHK,2016-08-16 15:00,ZJHK 161500Z 27004MPS 9999 SCT040 25/24 Q0997 NOSIG
ZJHK,2016-08-16 16:00,ZJHK 161600Z 25003MPS 220V280 9999 -SHRA SCT010 FEW033CB SCT040 25/24 Q0997 NOSIG
ZJHK,2016-08-16 17:00,ZJHK 161700Z 26004MPS 9999 SCT010 FEW033CB SCT040 25/24 Q0996 NOSIG
ZJHK,2016-08-16 18:00,ZJHK 161800Z 27003MPS 9999 -SHRA SCT010 FEW033CB SCT040 25/24 Q0996 NOSIG
ZJHK,2016-08-16 19:00,ZJHK 161900Z 25002MPS 9999 BKN033 25/24 Q0995 NOSIG
ZJHK,2016-08-16 20:00,ZJHK 162000Z 25002MPS 9999 FEW020 SCT033 25/24 Q0995 NOSIG
ZJHK,2016-08-16 21:00,ZJHK 162100Z 24003MPS 9999 SCT012 FEW030CB BKN040 25/24 Q0994 NOSIG
ZJHK,2016-08-16 22:00,ZJHK 162200Z 23004MPS 200V270 9999 -SHRA SCT012 FEW026CB BKN040 25/24 Q0994 NOSIG
ZJHK,2016-08-16 23:00,ZJHK 162300Z 27004MPS 3000 SHRA SCT007 FEW023CB BKN033 24/24 Q0994 NOSIG
ZJHK,2016-08-17 00:00,ZJHK 170000Z 27004MPS 7000 -SHRA SCT007 FEW023CB BKN033 24/24 Q0994 RESHRA NOSIG
ZJHK,2016-08-17 01:00,ZJHK 170100Z 25003MPS 9999 SCT010 FEW023CB BKN033 25/24 Q0995 NOSIG
ZJHK,2016-08-17 02:00,ZJHK 170200Z 25004MPS 7000 -SHRA SCT010 FEW023CB BKN033 24/24 Q0995 NOSIG
ZJHK,2016-08-17 03:00,ZJHK 170300Z 27003MPS 6000 -SHRA SCT010 FEW023CB BKN033 24/24 Q0995 RESHRA NOSIG
ZJHK,2016-08-17 04:00,ZJHK 170400Z 27002MPS 240V300 9999 FEW023CB FEW023 SCT046 26/25 Q0994 BECMG AT0410 2000 SHRA
ZJHK,2016-08-17 05:00,ZJHK 170500Z 18002MPS 5000 +TSRA SCT010 FEW023CB BKN040 25/24 Q0994 BECMG AT0530 -SHRA
ZJHK,2016-08-17 06:00,ZJHK 170600Z 07002MPS 040V120 9999 -SHRA SCT010 FEW023CB BKN040 25/24 Q0994 RETSRA NOSIG
ZJHK,2016-08-17 07:00,ZJHK 170700Z 22002MPS 9999 SCT010 FEW023CB BKN046 25/25 Q0993 NOSIG
ZJHK,2016-08-17 08:00,ZJHK 170800Z 23003MPS 9999 SCT010 FEW023CB BKN046 25/25 Q0992 BECMG AT0840 SHRA
ZJHK,2016-08-17 09:00,ZJHK 170900Z 24002MPS 210V270 9999 FEW006 FEW023TCU SCT046 25/24 Q0992 NOSIG
ZJHK,2016-08-17 10:00,ZJHK 171000Z 27003MPS 4500 SHRA SCT006 FEW023CB BKN026 25/24 Q0992 NOSIG
ZJHK,2016-08-17 11:00,ZJHK 171100Z 27003MPS 7000 -SHRA SCT006 FEW023CB BKN023 24/24 Q0992 RESHRA NOSIG
ZJHK,2016-08-17 12:00,ZJHK 171200Z 26005MPS 9999 -SHRA FEW010 FEW023CB BKN040 24/24 Q0992 NOSIG
ZJHK,2016-08-17 13:00,ZJHK 171300Z 26004MPS 4500 SHRA FEW006 FEW023CB BKN030 24/24 Q0993 BECMG AT1330 -SHRA
ZJHK,2016-08-17 14:00,ZJHK 171400Z 27004MPS 9999 -SHRA SCT010 FEW023CB BKN040 24/24 Q0993 RESHRA NOSIG
ZJHK,2016-08-17 15:00,ZJHK 171500Z 25007MPS 220V280 4000 SHRA SCT006 FEW023CB BKN030 24/24 Q0993 NOSIG
ZJHK,2016-08-17 16:00,ZJHK 171600Z 25005MPS 3500 SHRA SCT006 FEW023CB BKN023 24/24 Q0992 BECMG AT1640 -SHRA
ZJHK,2016-08-17 17:00,ZJHK 171700Z 24004MPS 200V270 3000 SHRA SCT006 FEW023CB BKN023 24/24 Q0992 BECMG AT1740 -SHRA
ZJHK,2016-08-17 18:00,ZJHK 171800Z 26002MPS 9999 -SHRA SCT006 FEW023CB BKN023 24/24 Q0991 RESHRA NOSIG
ZJHK,2016-08-17 19:00,ZJHK 171900Z 26006MPS 9999 -SHRA SCT008 FEW023CB BKN030 24/24 Q0990 NOSIG
ZJHK,2016-08-17 20:00,ZJHK 172000Z 25007G13MPS 210V280 6000 -SHRA SCT008 FEW023CB BKN030 24/23 Q0989 NOSIG
ZJHK,2016-08-17 21:00,ZJHK 172100Z 25005MPS 2000 +TSRA SCT006 FEW023CB BKN030 23/23 Q0990 NOSIG
ZJHK,2016-08-17 22:00,ZJHK 172200Z 23005MPS 190V250 9999 -SHRA SCT010 FEW023CB BKN026 23/22 Q0989 RETSRA BECMG AT2300 +TSRA
ZJHK,2016-08-17 23:00,ZJHK 172300Z 22005MPS 180V240 3500 SHRA BKN009 FEW020CB BKN023 23/23 Q0989 BECMG AT0030 -SHRA
ZJHK,2016-08-18 00:00,ZJHK 180000Z 21007MPS 2000 +SHRA BKN009 FEW020CB BKN023 23/23 Q0988 BECMG AT0130 3000 -SHRA
ZJHK,2016-08-18 01:00,ZJHK 180100Z 27008MPS 1000 R27/P2000 +SHRA BKN005 FEW020CB BKN023 23/23 Q0989 BECMG 25013G18MPS 1600 SHRA
ZJHK,2016-08-18 02:00,ZJHK 180200Z 22005MPS 190V270 1600 +SHRA BKN005 FEW020CB BKN023 23/23 Q0989 BECMG FM0340 1000 +SHRA
ZJHK,2016-08-18 03:00,ZJHK 180300Z 30002MPS 2000 +SHRA BKN005 FEW020CB BKN023 24/23 Q0989 BECMG FM0420 27008G13MPS 1000 +SHRA
ZJHK,2016-08-18 04:00,ZJHK 180400Z 26003MPS 6000 -SHRA BKN009 FEW023CB BKN030 25/24 Q0989 RESHRA BECMG 27010G15MPS 2000 SHRA
ZJHK,2016-08-18 05:00,ZJHK 180500Z 26004MPS 2500 SHRA BKN009 FEW020CB BKN023 25/24 Q0989 BECMG FM0540 27008G17MPS 3500 -SHRA
ZJHK,2016-08-18 06:00,ZJHK 180600Z 23004MPS 150V290 1600 +SHRA BKN005 FEW020CB BKN023 24/24 Q0988 BECMG FM0640 3500 -SHRA
ZJHK,2016-08-18 07:00,ZJHK 180700Z 22004MPS 7000 -SHRA BKN005 FEW020CB BKN023 24/24 Q0987 RESHRA BECMG FM0730 2500 SHRA
ZJHK,2016-08-18 08:00,ZJHK 180800Z 21004MPS 170V240 7000 -SHRA BKN005 FEW020CB BKN023 24/24 Q0987 BECMG FM0830 2500 SHRA
ZJHK,2016-08-18 09:00,ZJHK 180900Z 20006MPS 170V230 9999 -SHRA BKN009 FEW020CB BKN023 24/24 Q0986 RESHRA BECMG AT1030 2000 SHRA
ZJHK,2016-08-18 10:00,ZJHK 181000Z 23005MPS 3000 SHRA BKN005 FEW020CB BKN023 24/24 Q0987 BECMG AT1110 -SHRA
ZJHK,2016-08-18 11:00,ZJHK 181100Z 19004MPS 160V220 8000 -SHRA BKN006 FEW020CB BKN023 24/23 Q0988 RESHRA BECMG AT1230 SHRA
ZJHK,2016-08-18 12:00,ZJHK 181200Z 17005MPS 9999 -SHRA SCT012 FEW020TCU BKN026 24/23 Q0988 NOSIG
ZJHK,2016-08-18 13:00,ZJHK 181300Z 15004MPS 9999 -SHRA SCT012 FEW020TCU BKN033 24/23 Q0989 NOSIG
ZJHK,2016-08-18 14:00,ZJHK 181400Z 16005MPS 8000 -SHRA SCT012 FEW020CB BKN026 23/23 Q0991 BECMG SHRA
ZJHK,2016-08-18 15:00,ZJHK 181500Z 16004MPS 120V190 6000 SHRA SCT012 FEW020CB BKN026 23/23 Q0993 BECMG AT1530 -SHRA
ZJHK,2016-08-18 16:00,ZJHK 181600Z 16004MPS 130V190 8000 -SHRA SCT012 FEW020CB BKN033 23/23 Q0993 RESHRA NOSIG
ZJHK,2016-08-18 17:00,ZJHK 181700Z 16004MPS 130V200 8000 -SHRA SCT012 FEW020CB BKN033 23/22 Q0993 NOSIG
ZJHK,2016-08-18 18:00,ZJHK 181800Z 11002MPS 9999 SCT013 OVC040 23/22 Q0993 NOSIG
ZJHK,2016-08-18 19:00,ZJHK 181900Z 14004MPS 9999 -SHRA SCT013 FEW023TCU BKN046 24/23 Q0993 NOSIG
ZJHK,2016-08-18 20:00,ZJHK 182000Z 15005MPS 9999 SCT013 FEW023TCU BKN046 23/22 Q0993 NOSIG
ZJHK,2016-08-18 21:00,ZJHK 182100Z 17004MPS 9999 SCT015 BKN046 23/22 Q0994 NOSIG
ZJHK,2016-08-18 22:00,ZJHK 182200Z 13003MPS 9999 BKN046 23/22 Q0994 NOSIG
ZJHK,2016-08-18 23:00,ZJHK 182300Z 14004MPS 110V170 9999 -SHRA SCT015 FEW030CB BKN046 24/23 Q0995 NOSIG
ZJHK,2016-08-19 00:00,ZJHK 190000Z 14005MPS 110V170 9999 FEW030TCU SCT046 25/24 Q0995 NOSIG
ZJHK,2016-08-19 01:00,ZJHK 190100Z 16006MPS 130V190 9999 FEW030TCU SCT046 27/25 Q0996 NOSIG
ZJHK,2016-08-19 02:00,ZJHK 190200Z 17005MPS 140V200 7000 -SHRA FEW011 FEW023TCU SCT046 26/25 Q0998 NOSIG
ZJHK,2016-08-19 03:00,ZJHK 190300Z 13002MPS 110V170 9999 FEW030CB BKN040 26/25 Q0998 RESHRA NOSIG
ZJHK,2016-08-19 04:00,ZJHK 190400Z 17004MPS 140V200 6000 -SHRA SCT011 FEW026CB BKN040 27/25 Q0999 BECMG AT0430 SHRA
ZJHK,2016-08-19 05:00,ZJHK 190500Z 19004MPS 150V220 8000 -SHRA SCT011 FEW026CB BKN040 27/25 Q0999 RESHRA NOSIG
ZJHK,2016-08-19 06:00,ZJHK 190600Z 14004MPS 9999 FEW020 25/24 Q0999 NOSIG
ZJHK,2016-08-19 07:00,ZJHK 190700Z 16005MPS 130V190 CAVOK 29/25 Q0998 NOSIG
ZJHK,2016-08-19 08:00,ZJHK 190800Z 17003MPS 120V220 CAVOK 29/24 Q0998 NOSIG
ZJHK,2016-08-19 09:00,ZJHK 190900Z 15004MPS 120V180 CAVOK 29/25 Q0998 NOSIG
ZJHK,2016-08-19 10:00,ZJHK 191000Z 16004MPS 130V190 CAVOK 28/25 Q0999 NOSIG
ZJHK,2016-08-19 11:00,ZJHK 191100Z 15003MPS CAVOK 27/25 Q1000 NOSIG
ZJHK,2016-08-19 12:00,ZJHK 191200Z 14002MPS CAVOK 26/24 Q1001 NOSIG
ZJHK,2016-08-19 13:00,ZJHK 191300Z 13002MPS 100V160 CAVOK 25/24 Q1002 NOSIG
ZJHK,2016-08-19 14:00,ZJHK 191400Z 13002MPS CAVOK 25/24 Q1003 NOSIG
ZJHK,2016-08-19 15:00,ZJHK 191500Z 13001MPS CAVOK 25/24 Q1004 NOSIG
ZJHK,2016-08-19 16:00,ZJHK 191600Z 12001MPS CAVOK 25/25 Q1004 NOSIG
ZJHK,2016-08-19 17:00,ZJHK 191700Z 14002MPS 9999 SCT004 25/25 Q1004 BECMG BKN004
ZJHK,2016-08-19 18:00,ZJHK 191800Z 14002MPS 7000 BKN004 25/25 Q1003 NOSIG
ZJHK,2016-08-19 19:00,ZJHK 191900Z 14002MPS 6000 BKN004 26/25 Q1003 BECMG AT2040 BKN010
ZJHK,2016-08-19 20:00,ZJHK 192000Z 14002MPS 6000 SCT006 26/25 Q1003 NOSIG
ZJHK,2016-08-19 21:00,ZJHK 192100Z 16001MPS 6000 SCT010 25/25 Q1003 NOSIG
ZJHK,2016-08-19 22:00,ZJHK 192200Z 13001MPS 6000 SCT007 25/25 Q1003 NOSIG
ZJHK,2016-08-19 23:00,ZJHK 192300Z 12002MPS 7000 FEW007 25/25 Q1004 NOSIG
ZJHK,2016-08-20 00:00,ZJHK 200000Z 15002MPS 100V180 7000 SCT006 26/26 Q1004 NOSIG
ZJHK,2016-08-20 01:00,ZJHK 200100Z 16002MPS 9999 FEW009 29/26 Q1005 NOSIG
ZJHK,2016-08-20 02:00,ZJHK 200200Z 11001MPS 9999 SCT015 30/26 Q1005 NOSIG
ZJHK,2016-08-20 03:00,ZJHK 200300Z 16001MPS 9999 FEW020 31/25 Q1005 NOSIG
ZJHK,2016-08-20 04:00,ZJHK 200400Z 04003MPS 350V060 9999 SCT023 32/26 Q1005 NOSIG
ZJHK,2016-08-20 05:00,ZJHK 200500Z 03004MPS 360V070 9999 FEW023TCU SCT023 32/27 Q1004 NOSIG
ZJHK,2016-08-20 06:00,ZJHK 200600Z 08003MPS 010V140 9999 FEW023TCU SCT023 33/27 Q1004 NOSIG
ZJHK,2016-08-20 07:00,ZJHK 200700Z 02004MPS 350V060 9999 FEW023TCU SCT023 32/27 Q1003 NOSIG
ZJHK,2016-08-20 08:00,ZJHK 200800Z 12004MPS 100V160 9999 FEW023CB SCT023 28/24 Q1003 NOSIG
ZJHK,2016-08-20 09:00,ZJHK 200900Z 21003MPS 170V240 9999 FEW023CB SCT023 28/24 Q1003 NOSIG
ZJHK,2016-08-20 10:00,ZJHK 201000Z 14002MPS CAVOK 27/25 Q1003 NOSIG
ZJHK,2016-08-20 11:00,ZJHK 201100Z 13001MPS CAVOK 27/25 Q1004 NOSIG
ZJHK,2016-08-20 12:00,ZJHK 201200Z 00000MPS CAVOK 26/25 Q1004 NOSIG
ZJHK,2016-08-20 13:00,ZJHK 201300Z 00000MPS CAVOK 26/25 Q1005 NOSIG
ZJHK,2016-08-20 14:00,ZJHK 201400Z 16002MPS CAVOK 26/25 Q1005 NOSIG
ZJHK,2016-08-20 15:00,ZJHK 201500Z 18001MPS CAVOK 26/25 Q1005 NOSIG
ZJHK,2016-08-20 16:00,ZJHK 201600Z 23002MPS CAVOK 26/25 Q1005 NOSIG
ZJHK,2016-08-20 17:00,ZJHK 201700Z 21002MPS 180V240 7000 SCT004 26/25 Q1004 NOSIG
ZJHK,2016-08-20 18:00,ZJHK 201800Z 24002MPS 210V270 7000 SCT004 25/25 Q1004 NOSIG
ZJHK,2016-08-20 19:00,ZJHK 201900Z 24002MPS 7000 BKN004 25/25 Q1004 NOSIG
ZJHK,2016-08-20 20:00,ZJHK 202000Z 26002MPS 7000 SCT004 25/25 Q1003 NOSIG
ZJHK,2016-08-20 21:00,ZJHK 202100Z 23001MPS 7000 NSC 25/24 Q1003 NOSIG
ZJHK,2016-08-20 22:00,ZJHK 202200Z 25002MPS 7000 NSC 25/24 Q1003 NOSIG
ZJHK,2016-08-20 23:00,ZJHK 202300Z 00000MPS CAVOK 25/24 Q1004 NOSIG
ZJHK,2016-08-21 00:00,ZJHK 210000Z 00000MPS CAVOK 27/24 Q1004 NOSIG
ZJHK,2016-08-21 01:00,ZJHK 210100Z 32001MPS CAVOK 29/25 Q1004 NOSIG
ZJHK,2016-08-21 02:00,ZJHK 210200Z 33002MPS 280V010 9999 SCT023 30/25 Q1004 NOSIG
ZJHK,2016-08-21 03:00,ZJHK 210300Z 33002MPS 270V050 9999 SCT023 31/25 Q1004 NOSIG
ZJHK,2016-08-21 04:00,ZJHK 210400Z 30004MPS 270V330 9999 SCT030 32/26 Q1004 NOSIG
ZJHK,2016-08-21 05:00,ZJHK 210500Z 29004MPS 250V310 9999 SCT030 32/25 Q1003 NOSIG
ZJHK,2016-08-21 06:00,ZJHK 210600Z 32004MPS 9999 FEW030 32/24 Q1002 NOSIG
ZJHK,2016-08-21 07:00,ZJHK 210700Z 31004MPS 9999 FEW030 32/23 Q1002 NOSIG
ZJHK,2016-08-21 08:00,ZJHK 210800Z 33005MPS 9999 FEW030 31/23 Q1001 NOSIG
ZJHK,2016-08-21 09:00,ZJHK 210900Z 31004MPS 9999 FEW026 31/23 Q1002 NOSIG
ZJHK,2016-08-21 10:00,ZJHK 211000Z 33004MPS CAVOK 30/24 Q1002 NOSIG
ZJHK,2016-08-21 11:00,ZJHK 211100Z 01004MPS 9999 FEW030TCU BKN030 28/23 Q1002 NOSIG
ZJHK,2016-08-21 12:00,ZJHK 211200Z 35003MPS 310V020 CAVOK 27/23 Q1003 NOSIG
ZJHK,2016-08-21 13:00,ZJHK 211300Z 01002MPS CAVOK 26/23 Q1003 NOSIG
ZJHK,2016-08-21 14:00,ZJHK 211400Z 04002MPS 9999 FEW012 25/23 Q1004 NOSIG
ZJHK,2016-08-21 15:00,ZJHK 211500Z 00000MPS CAVOK 25/24 Q1004 NOSIG
ZJHK,2016-08-21 16:00,ZJHK 211600Z 21002MPS CAVOK 25/24 Q1004 NOSIG
ZJHK,2016-08-21 17:00,ZJHK 211700Z 32002MPS CAVOK 25/24 Q1004 NOSIG
ZJHK,2016-08-21 18:00,ZJHK 211800Z 34002MPS CAVOK 26/24 Q1003 NOSIG
ZJHK,2016-08-21 19:00,ZJHK 211900Z 36002MPS 9999 -RA FEW020 25/24 Q1003 NOSIG
ZJHK,2016-08-21 20:00,ZJHK 212000Z 01001MPS 9999 FEW007 FEW023TCU 25/24 Q1003 NOSIG
ZJHK,2016-08-21 21:00,ZJHK 212100Z 08002MPS 050V110 9999 -SHRA FEW007 FEW023TCU 25/24 Q1003 NOSIG
ZJHK,2016-08-21 22:00,ZJHK 212200Z 15001MPS 9999 FEW023TCU SCT046 24/23 Q1003 NOSIG
ZJHK,2016-08-21 23:00,ZJHK 212300Z 10002MPS 070V130 9999 FEW023TCU SCT046 25/24 Q1003 NOSIG
ZJHK,2016-08-22 00:00,ZJHK 220000Z 05001MPS 9999 BKN046 26/24 Q1003 NOSIG
ZJHK,2016-08-22 01:00,ZJHK 220100Z 23001MPS 9999 BKN046 26/24 Q1004 NOSIG
ZJHK,2016-08-22 02:00,ZJHK 220200Z 01002MPS 290V070 9999 FEW026TCU BKN046 28/24 Q1004 NOSIG
ZJHK,2016-08-22 03:00,ZJHK 220300Z 05003MPS 350V140 9999 FEW020TCU SCT020 BKN046 29/25 Q1004 NOSIG
ZJHK,2016-08-22 04:00,ZJHK 220400Z 04004MPS 020V080 9999 FEW020TCU BKN020 28/24 Q1004 NOSIG
ZJHK,2016-08-22 05:00,ZJHK 220500Z 04004MPS 020V080 9999 FEW020TCU SCT020 SCT033 29/25 Q1003 NOSIG
ZJHK,2016-08-22 06:00,ZJHK 220600Z 08004MPS 040V120 9999 FEW020CB SCT020 SCT040 28/24 Q1003 NOSIG
ZJHK,2016-08-22 07:00,ZJHK 220700Z 09003MPS 9999 FEW023TCU FEW023 BKN040 27/25 Q1003 NOSIG
ZJHK,2016-08-22 08:00,ZJHK 220800Z 12003MPS 090V160 9999 FEW023TCU SCT023 28/25 Q1002 NOSIG
ZJHK,2016-08-22 09:00,ZJHK 220900Z 13003MPS 9999 FEW023TCU SCT023 27/25 Q1002 NOSIG
ZJHK,2016-08-22 10:00,ZJHK 221000Z 13003MPS 100V160 9999 FEW023TCU SCT046 27/24 Q1003 NOSIG
ZJHK,2016-08-22 11:00,ZJHK 221100Z 13002MPS 9999 FEW023CB SCT046 26/25 Q1003 NOSIG
ZJHK,2016-08-22 12:00,ZJHK 221200Z 14002MPS 9999 SCT046 26/25 Q1003 NOSIG
ZJHK,2016-08-22 13:00,ZJHK 221300Z 11001MPS CAVOK 26/25 Q1004 NOSIG
ZJHK,2016-08-22 14:00,ZJHK 221400Z 12001MPS 9999 FEW040 26/25 Q1005 NOSIG
ZJHK,2016-08-22 15:00,ZJHK 221500Z 12001MPS 9999 FEW040 25/25 Q1005 NOSIG
ZJHK,2016-08-22 16:00,ZJHK 221600Z 12001MPS 9999 FEW040 25/25 Q1005 NOSIG
ZJHK,2016-08-22 17:00,ZJHK 221700Z 12002MPS 9999 FEW040 25/25 Q1004 NOSIG
ZJHK,2016-08-22 18:00,ZJHK 221800Z 10001MPS 9999 FEW046 25/24 Q1004 NOSIG
ZJHK,2016-08-22 19:00,ZJHK 221900Z 00000MPS 8000 FEW046 24/24 Q1004 NOSIG
ZJHK,2016-08-22 20:00,ZJHK 222000Z 00000MPS 8000 FEW046 24/24 Q1004 NOSIG
ZJHK,2016-08-22 21:00,ZJHK 222100Z 00000MPS 7000 R09/0750V1300 BCFG NSC 24/24 Q1004 NOSIG
ZJHK,2016-08-22 22:00,ZJHK 222200Z 00000MPS 4000 R09/0550 BR BCFG FEW011 24/24 Q1005 NOSIG
ZJHK,2016-08-22 23:00,ZJHK 222300Z 07001MPS 5000 BR FEW020TCU FEW033 25/25 Q1005 NOSIG
ZJHK,2016-08-23 00:00,ZJHK 230000Z 10003MPS 070V130 9999 SCT023 27/26 Q1005 NOSIG
ZJHK,2016-08-23 01:00,ZJHK 230100Z 10003MPS 070V130 9999 SCT023 29/25 Q1006 NOSIG
ZJHK,2016-08-23 02:00,ZJHK 230200Z 10002MPS 060V160 9999 SCT023 30/25 Q1006 NOSIG
ZJHK,2016-08-23 03:00,ZJHK 230300Z 02004MPS 9999 FEW023CB BKN023 29/26 Q1006 NOSIG
ZJHK,2016-08-23 04:00,ZJHK 230400Z 08004MPS 040V100 9999 FEW023TCU BKN023 30/24 Q1005 NOSIG
ZJHK,2016-08-23 05:00,ZJHK 230500Z 08004MPS 040V110 9999 FEW023CB BKN023 30/24 Q1004 NOSIG
ZJHK,2016-08-23 06:00,ZJHK 230600Z 06005MPS 010V090 9999 FEW023TCU SCT023 31/24 Q1004 NOSIG
ZJHK,2016-08-23 07:00,ZJHK 230700Z 04005MPS 360V080 9999 FEW023TCU SCT023 30/25 Q1003 NOSIG
ZJHK,2016-08-23 08:00,ZJHK 230800Z 07005MPS 040V100 9999 FEW023TCU SCT023 30/25 Q1003 NOSIG
ZJHK,2016-08-23 09:00,ZJHK 230900Z 08006MPS 9999 SCT023 30/24 Q1003 NOSIG
ZJHK,2016-08-23 10:00,ZJHK 231000Z 08005MPS 9999 FEW023 29/24 Q1003 NOSIG
ZJHK,2016-08-23 11:00,ZJHK 231100Z 08004MPS CAVOK 28/24 Q1004 NOSIG
ZJHK,2016-08-23 12:00,ZJHK 231200Z 09003MPS CAVOK 27/25 Q1004 NOSIG
ZJHK,2016-08-23 13:00,ZJHK 231300Z 12001MPS CAVOK 26/25 Q1004 NOSIG
ZJHK,2016-08-23 14:00,ZJHK 231400Z 11002MPS CAVOK 26/25 Q1004 NOSIG
ZJHK,2016-08-23 15:00,ZJHK 231500Z 00000MPS 7000 NSC 25/25 Q1004 NOSIG
ZJHK,2016-08-23 16:00,ZJHK 231600Z 18001MPS 6000 NSC 25/25 Q1004 NOSIG
ZJHK,2016-08-23 17:00,ZJHK 231700Z 00000MPS 4000 BR BCFG FEW007 25/25 Q1004 NOSIG
ZJHK,2016-08-23 18:00,ZJHK 231800Z 27001MPS 4000 R09/0700 BR BCFG FEW006 24/24 Q1004 NOSIG
ZJHK,2016-08-23 19:00,ZJHK 231900Z 26001MPS 0900 R09/0250N FG NSC 25/24 Q1004 NOSIG
ZJHK,2016-08-23 20:00,ZJHK 232000Z 28001MPS 0900 R09/0375 FG NSC 25/25 Q1003 NOSIG
ZJHK,2016-08-23 21:00,ZJHK 232100Z 28002MPS 1100 R09/0600V0900 BR SCT003 24/24 Q1003 NOSIG
ZJHK,2016-08-23 22:00,ZJHK 232200Z 27001MPS 1100 R27/P2000 BR BKN003 24/24 Q1003 BECMG AT2310 3000 BR
ZJHK,2016-08-23 23:00,ZJHK 232300Z 00000MPS 2500 BR SCT003 SCT020 25/25 Q1004 NOSIG
ZJHK,2016-08-24 00:00,ZJHK 240000Z 25001MPS 6000 SCT020 25/25 Q1004 NOSIG
ZJHK,2016-08-24 01:00,ZJHK 240100Z 28001MPS 9999 FEW015 27/25 Q1004 NOSIG
ZJHK,2016-08-24 02:00,ZJHK 240200Z 30002MPS 9999 SCT016 29/24 Q1005 NOSIG
ZJHK,2016-08-24 03:00,ZJHK 240300Z 02003MPS 290V060 9999 SCT020 30/24 Q1005 NOSIG
ZJHK,2016-08-24 04:00,ZJHK 240400Z 36003MPS 320V040 9999 FEW020 31/23 Q1004 NOSIG
ZJHK,2016-08-24 05:00,ZJHK 240500Z 36003MPS 310V060 9999 FEW020 31/22 Q1004 NOSIG
ZJHK,2016-08-24 06:00,ZJHK 240600Z 01004MPS 9999 FEW020 32/22 Q1003 NOSIG
ZJHK,2016-08-24 07:00,ZJHK 240700Z 02003MPS 350V080 9999 FEW020 31/24 Q1002 NOSIG
ZJHK,2016-08-24 08:00,ZJHK 240800Z 02003MPS 340V050 9999 FEW020 30/24 Q1002 NOSIG
ZJHK,2016-08-24 09:00,ZJHK 240900Z 05003MPS 010V080 CAVOK 31/23 Q1002 NOSIG
ZJHK,2016-08-24 10:00,ZJHK 241000Z 03002MPS 350V080 CAVOK 30/23 Q1002 NOSIG
ZJHK,2016-08-24 11:00,ZJHK 241100Z 05003MPS 010V070 CAVOK 29/23 Q1003 NOSIG
ZJHK,2016-08-24 12:00,ZJHK 241200Z 12001MPS CAVOK 28/24 Q1003 NOSIG
ZJHK,2016-08-24 13:00,ZJHK 241300Z 13002MPS CAVOK 27/24 Q1004 NOSIG
ZJHK,2016-08-24 14:00,ZJHK 241400Z 00000MPS CAVOK 26/24 Q1004 NOSIG
ZJHK,2016-08-24 15:00,ZJHK 241500Z 00000MPS CAVOK 26/24 Q1004 NOSIG
ZJHK,2016-08-24 16:00,ZJHK 241600Z 17001MPS CAVOK 25/24 Q1004 NOSIG
ZJHK,2016-08-24 17:00,ZJHK 241700Z 18001MPS CAVOK 25/24 Q1004 NOSIG
ZJHK,2016-08-24 18:00,ZJHK 241800Z 21002MPS CAVOK 25/24 Q1004 NOSIG
ZJHK,2016-08-24 19:00,ZJHK 241900Z 27001MPS 5000 BR NSC 24/24 Q1003 NOSIG
ZJHK,2016-08-24 20:00,ZJHK 242000Z 24002MPS 5000 BR NSC 25/24 Q1003 NOSIG
ZJHK,2016-08-24 21:00,ZJHK 242100Z 29001MPS 5000 BR NSC 24/24 Q1003 NOSIG
ZJHK,2016-08-24 22:00,ZJHK 242200Z 29001MPS 5000 BR NSC 24/24 Q1004 NOSIG
ZJHK,2016-08-24 23:00,ZJHK 242300Z 00000MPS 5000 BR NSC 25/24 Q1004 NOSIG
ZJHK,2016-08-25 00:00,ZJHK 250000Z 32002MPS 270V020 7000 NSC 27/24 Q1005 NOSIG
ZJHK,2016-08-25 01:00,ZJHK 250100Z 34004MPS 310V010 CAVOK 29/24 Q1006 NOSIG
ZJHK,2016-08-25 02:00,ZJHK 250200Z 33004MPS 300V020 CAVOK 30/24 Q1006 NOSIG
ZJHK,2016-08-25 03:00,ZJHK 250300Z 35004MPS 320V030 CAVOK 30/24 Q1005 NOSIG
ZJHK,2016-08-25 04:00,ZJHK 250400Z 35004MPS 310V040 CAVOK 31/24 Q1005 NOSIG
ZJHK,2016-08-25 05:00,ZJHK 250500Z 02004MPS 350V050 9999 FEW023 31/23 Q1004 NOSIG
ZJHK,2016-08-25 06:00,ZJHK 250600Z 04004MPS 360V090 CAVOK 32/24 Q1004 NOSIG
ZJHK,2016-08-25 07:00,ZJHK 250700Z 05004MPS 9999 FEW026TCU 32/23 Q1004 NOSIG
ZJHK,2016-08-25 08:00,ZJHK 250800Z 03004MPS 010V070 CAVOK 31/24 Q1003 NOSIG
ZJHK,2016-08-25 09:00,ZJHK 250900Z 01003MPS 340V060 CAVOK 30/24 Q1003 NOSIG
ZJHK,2016-08-25 10:00,ZJHK 251000Z 35003MPS 320V040 CAVOK 30/24 Q1003 NOSIG
ZJHK,2016-08-25 11:00,ZJHK 251100Z 03003MPS 020V080 9999 FEW026 29/24 Q1003 NOSIG
ZJHK,2016-08-25 12:00,ZJHK 251200Z 04002MPS CAVOK 28/24 Q1004 NOSIG
ZJHK,2016-08-25 13:00,ZJHK 251300Z 01002MPS CAVOK 28/25 Q1005 NOSIG
ZJHK,2016-08-25 14:00,ZJHK 251400Z 00000MPS CAVOK 26/25 Q1005 NOSIG
ZJHK,2016-08-25 15:00,ZJHK 251500Z 00000MPS 8000 NSC 26/24 Q1005 NOSIG
ZJHK,2016-08-25 16:00,ZJHK 251600Z 16001MPS 7000 NSC 26/25 Q1005 NOSIG
ZJHK,2016-08-25 17:00,ZJHK 251700Z 00000MPS 7000 NSC 25/24 Q1005 NOSIG
ZJHK,2016-08-25 18:00,ZJHK 251800Z 00000MPS 6000 NSC 25/24 Q1005 NOSIG
ZJHK,2016-08-25 19:00,ZJHK 251900Z 22002MPS 6000 NSC 25/24 Q1004 NOSIG
ZJHK,2016-08-25 20:00,ZJHK 252000Z 24001MPS 3000 BR NSC 25/24 Q1004 NOSIG
ZJHK,2016-08-25 21:00,ZJHK 252100Z 22002MPS 3000 BR NSC 25/24 Q1004 NOSIG
ZJHK,2016-08-25 22:00,ZJHK 252200Z 25001MPS 2500 BR NSC 25/24 Q1004 BECMG AT2340 4000 BR
ZJHK,2016-08-25 23:00,ZJHK 252300Z 25001MPS 3500 BR NSC 25/24 Q1005 NOSIG
ZJHK,2016-08-26 00:00,ZJHK 260000Z 28002MPS 6000 NSC 27/25 Q1006 NOSIG
ZJHK,2016-08-26 01:00,ZJHK 260100Z 30002MPS 260V340 CAVOK 29/25 Q1006 NOSIG
ZJHK,2016-08-26 02:00,ZJHK 260200Z 27002MPS 9999 FEW030 31/25 Q1006 NOSIG
ZJHK,2016-08-26 03:00,ZJHK 260300Z VRB02MPS 9999 SCT030 31/25 Q1005 NOSIG
ZJHK,2016-08-26 04:00,ZJHK 260400Z 31003MPS 290V360 9999 SCT030 31/25 Q1005 NOSIG
ZJHK,2016-08-26 05:00,ZJHK 260500Z 32003MPS 270V350 9999 SCT030 33/25 Q1004 NOSIG
ZJHK,2016-08-26 06:00,ZJHK 260600Z 31004MPS 270V350 9999 FEW033CB SCT033 33/25 Q1004 NOSIG
ZJHK,2016-08-26 07:00,ZJHK 260700Z 30004MPS 260V330 9999 SCT033 33/26 Q1003 NOSIG
ZJHK,2016-08-26 08:00,ZJHK 260800Z 30003MPS 270V340 9999 FEW033 33/25 Q1003 NOSIG
ZJHK,2016-08-26 09:00,ZJHK 260900Z 29004MPS 9999 FEW026CB 32/24 Q1003 BECMG TS
ZJHK,2016-08-26 10:00,ZJHK 261000Z 30002MPS 260V340 9999 FEW026CB 31/24 Q1003 NOSIG
ZJHK,2016-08-26 11:00,ZJHK 261100Z 31002MPS CAVOK 30/24 Q1003 NOSIG
ZJHK,2016-08-26 12:00,ZJHK 261200Z 28001MPS 8000 NSC 28/25 Q1004 NOSIG
ZJHK,2016-08-26 13:00,ZJHK 261300Z 23002MPS 8000 BKN040 28/26 Q1006 NOSIG
ZJHK,2016-08-26 14:00,ZJHK 261400Z 20002MPS 8000 NSC 28/25 Q1008 NOSIG
ZJHK,2016-08-26 15:00,ZJHK 261500Z 21002MPS 8000 NSC 27/25 Q1007 NOSIG
ZJHK,2016-08-26 16:00,ZJHK 261600Z 18001MPS 7000 FEW026CB BKN040 27/25 Q1008 BECMG -TSRA
ZJHK,2016-08-26 17:00,ZJHK 261700Z 14003MPS 050V180 9999 -TSRA FEW020CB BKN033 25/23 Q1007 BECMG AT1800 NSW
ZJHK,2016-08-26 18:00,ZJHK 261800Z 24002MPS 210V280 CAVOK 25/23 Q1006 RETS NOSIG
ZJHK,2016-08-26 19:00,ZJHK 261900Z 36003MPS 330V030 CAVOK 26/24 Q1007 NOSIG
ZJHK,2016-08-26 20:00,ZJHK 262000Z 05001MPS CAVOK 25/23 Q1006 NOSIG
ZJHK,2016-08-26 21:00,ZJHK 262100Z 16002MPS 7000 NSC 25/24 Q1005 NOSIG
ZJHK,2016-08-26 22:00,ZJHK 262200Z 31002MPS 7000 NSC 24/24 Q1005 NOSIG
ZJHK,2016-08-26 23:00,ZJHK 262300Z 26002MPS CAVOK 25/23 Q1006 NOSIG
ZJHK,2016-08-27 00:00,ZJHK 270000Z 23002MPS CAVOK 26/24 Q1007 NOSIG
ZJHK,2016-08-27 01:00,ZJHK 270100Z 28002MPS 250V330 CAVOK 28/24 Q1007 NOSIG
ZJHK,2016-08-27 02:00,ZJHK 270200Z 33003MPS 300V020 CAVOK 30/24 Q1007 NOSIG
ZJHK,2016-08-27 03:00,ZJHK 270300Z 34003MPS 300V010 9999 SCT023 31/24 Q1007 NOSIG
ZJHK,2016-08-27 04:00,ZJHK 270400Z 35003MPS 260V040 9999 SCT023 31/25 Q1007 NOSIG
ZJHK,2016-08-27 05:00,ZJHK 270500Z 33003MPS 290V030 9999 FEW023TCU SCT023 32/24 Q1007 NOSIG
ZJHK,2016-08-27 06:00,ZJHK 270600Z 30003MPS 240V340 9999 FEW023TCU SCT023 32/24 Q1005 BECMG AT0720 01005MPS TSRA
ZJHK,2016-08-27 07:00,ZJHK 270700Z 03004MPS 9999 FEW023TCU SCT023 32/25 Q1005 NOSIG
ZJHK,2016-08-27 08:00,ZJHK 270800Z 33004MPS 300V360 9999 FEW023CB SCT023 33/24 Q1004 NOSIG
ZJHK,2016-08-27 09:00,ZJHK 270900Z 02004MPS 340V070 9999 FEW023CB SCT023 30/26 Q1004 NOSIG
ZJHK,2016-08-27 10:00,ZJHK 271000Z 34004MPS 310V040 9999 FEW023CB FEW023 31/25 Q1005 NOSIG
ZJHK,2016-08-27 11:00,ZJHK 271100Z 33004MPS 300V010 9999 FEW023CB 30/25 Q1006 BECMG AT1200 TS
ZJHK,2016-08-27 12:00,ZJHK 271200Z 01002MPS 9999 FEW023CB 29/25 Q1007 NOSIG
ZJHK,2016-08-27 13:00,ZJHK 271300Z 04002MPS 360V070 9999 FEW020 27/24 Q1007 NOSIG
ZJHK,2016-08-27 14:00,ZJHK 271400Z 06001MPS 9999 FEW020 27/24 Q1008 NOSIG
ZJHK,2016-08-27 15:00,ZJHK 271500Z 14001MPS 9999 FEW020 26/25 Q1008 NOSIG
ZJHK,2016-08-27 16:00,ZJHK 271600Z 36001MPS 9999 SCT020 26/24 Q1007 NOSIG
ZJHK,2016-08-27 17:00,ZJHK 271700Z 02002MPS 9999 SCT020 26/24 Q1007 NOSIG
ZJHK,2016-08-27 18:00,ZJHK 271800Z 00000MPS 9999 FEW010 26/24 Q1006 NOSIG
ZJHK,2016-08-27 19:00,ZJHK 271900Z 00000MPS CAVOK 25/24 Q1006 NOSIG
ZJHK,2016-08-27 20:00,ZJHK 272000Z 27001MPS 9999 SCT012 BKN033 25/24 Q1006 NOSIG
ZJHK,2016-08-27 21:00,ZJHK 272100Z 24001MPS 9999 BKN040 26/24 Q1006 NOSIG
ZJHK,2016-08-27 22:00,ZJHK 272200Z 26001MPS 9999 FEW023CB BKN040 25/24 Q1006 BECMG AT2230 TSRA
ZJHK,2016-08-27 23:00,ZJHK 272300Z 23002MPS 7000 TS FEW013 FEW023CB BKN040 25/24 Q1006 BECMG TL2350 NSW
ZJHK,2016-08-28 00:00,ZJHK 280000Z 28002MPS 7000 TS SCT015 FEW023CB BKN040 26/25 Q1007 BECMG TL0130 NSW
ZJHK,2016-08-28 01:00,ZJHK 280100Z 29001MPS 7000 SCT015 FEW023CB 26/25 Q1007 RETS NOSIG
ZJHK,2016-08-28 02:00,ZJHK 280200Z 11001MPS 8000 SCT015 27/25 Q1007 NOSIG
ZJHK,2016-08-28 03:00,ZJHK 280300Z 35001MPS 8000 SCT015 28/25 Q1007 NOSIG
ZJHK,2016-08-28 04:00,ZJHK 280400Z 35002MPS 300V040 9999 SCT015 30/26 Q1007 NOSIG
ZJHK,2016-08-28 05:00,ZJHK 280500Z 02004MPS 340V060 9999 FEW015 FEW023TCU 28/25 Q1006 NOSIG
ZJHK,2016-08-28 06:00,ZJHK 280600Z 03005MPS 9999 FEW020TCU SCT020 29/25 Q1006 BECMG FM0740 -TSRA
ZJHK,2016-08-28 07:00,ZJHK 280700Z 02004MPS 350V060 9999 FEW020TCU SCT020 27/24 Q1006 BECMG AT0740 -TSRA
ZJHK,2016-08-28 08:00,ZJHK 280800Z 01003MPS 350V060 9999 FEW020TCU SCT020 28/24 Q1005 NOSIG
ZJHK,2016-08-28 09:00,ZJHK 280900Z 35002MPS 330V030 9999 FEW023CB SCT040 28/24 Q1005 BECMG AT0930 -TSRA
ZJHK,2016-08-28 10:00,ZJHK 281000Z 27005MPS 7000 -SHRA SCT023CB BKN040 25/23 Q1006 BECMG AT1020 -TSRA
ZJHK,2016-08-28 11:00,ZJHK 281100Z 28003MPS 260V320 7000 -SHRA SCT023CB BKN040 24/23 Q1006 BECMG AT1120 SHRA
ZJHK,2016-08-28 12:00,ZJHK 281200Z 02002MPS 340V080 5000 -SHRA SCT023CB BKN040 24/24 Q1006 NOSIG
ZJHK,2016-08-28 13:00,ZJHK 281300Z 34002MPS 9999 FEW023TCU SCT040 24/24 Q1006 NOSIG
ZJHK,2016-08-28 14:00,ZJHK 281400Z 26001MPS 7000 SCT008 25/24 Q1006 NOSIG
ZJHK,2016-08-28 15:00,ZJHK 281500Z 34001MPS 7000 FEW040 25/24 Q1007 NOSIG
ZJHK,2016-08-28 16:00,ZJHK 281600Z 27001MPS 7000 FEW040 25/24 Q1007 NOSIG
ZJHK,2016-08-28 17:00,ZJHK 281700Z 24001MPS 7000 SCT030 25/24 Q1006 NOSIG
ZJHK,2016-08-28 18:00,ZJHK 281800Z 24002MPS 7000 SCT030 25/24 Q1006 NOSIG
ZJHK,2016-08-28 19:00,ZJHK 281900Z 25002MPS 7000 SCT030 24/24 Q1005 NOSIG
ZJHK,2016-08-28 20:00,ZJHK 282000Z 23002MPS 6000 SCT013 BKN030 25/24 Q1005 NOSIG
ZJHK,2016-08-28 21:00,ZJHK 282100Z 23002MPS 6000 SCT013 BKN030 25/24 Q1005 NOSIG
ZJHK,2016-08-28 22:00,ZJHK 282200Z 26002MPS 6000 SCT033 25/24 Q1006 NOSIG
ZJHK,2016-08-28 23:00,ZJHK 282300Z 29001MPS 5000 BR SCT033 24/24 Q1006 NOSIG
ZJHK,2016-08-29 00:00,ZJHK 290000Z 26001MPS 5000 -SHRA BR FEW011 FEW026TCU BKN033 25/25 Q1006 NOSIG
ZJHK,2016-08-29 01:00,ZJHK 290100Z 03002MPS 6000 FEW010 FEW026TCU BKN033 26/25 Q1007 NOSIG
ZJHK,2016-08-29 02:00,ZJHK 290200Z 16001MPS 7000 -SHRA FEW009 FEW026TCU BKN033 26/25 Q1008 NOSIG
ZJHK,2016-08-29 03:00,ZJHK 290300Z 25001MPS 7000 FEW009 FEW026TCU BKN040 27/25 Q1007 NOSIG
ZJHK,2016-08-29 04:00,ZJHK 290400Z 07003MPS 020V110 9000 FEW026TCU BKN040 26/25 Q1008 NOSIG
ZJHK,2016-08-29 05:00,ZJHK 290500Z 08004MPS 9999 FEW020 SCT040 27/25 Q1007 NOSIG
ZJHK,2016-08-29 06:00,ZJHK 290600Z 07005MPS 9999 FEW020 SCT040 27/25 Q1006 NOSIG
ZJHK,2016-08-29 07:00,ZJHK 290700Z 07004MPS 9000 FEW020 SCT040 27/24 Q1006 NOSIG
ZJHK,2016-08-29 08:00,ZJHK 290800Z 09004MPS 9999 FEW016 SCT040 27/24 Q1005 NOSIG
ZJHK,2016-08-29 09:00,ZJHK 290900Z 09003MPS 9999 SCT015 27/24 Q1005 NOSIG
ZJHK,2016-08-29 10:00,ZJHK 291000Z 07003MPS 030V090 9999 FEW020 27/24 Q1005 NOSIG
ZJHK,2016-08-29 11:00,ZJHK 291100Z 04002MPS 020V080 9999 FEW020 27/25 Q1006 NOSIG
ZJHK,2016-08-29 12:00,ZJHK 291200Z 06003MPS 9999 SCT020 26/24 Q1006 NOSIG
ZJHK,2016-08-29 13:00,ZJHK 291300Z 08003MPS 6000 FEW023CB 26/24 Q1007 NOSIG
ZJHK,2016-08-29 14:00,ZJHK 291400Z 14001MPS 4000 BR FEW023CB 25/24 Q1008 NOSIG
ZJHK,2016-08-29 15:00,ZJHK 291500Z 19001MPS 4000 BR FEW040 25/24 Q1008 NOSIG
ZJHK,2016-08-29 16:00,ZJHK 291600Z 00000MPS 3000 BR NSC 25/24 Q1008 NOSIG
ZJHK,2016-08-29 17:00,ZJHK 291700Z 22002MPS 3000 BR NSC 25/24 Q1007 NOSIG
ZJHK,2016-08-29 18:00,ZJHK 291800Z 26002MPS 3000 BR NSC 25/24 Q1007 NOSIG
ZJHK,2016-08-29 19:00,ZJHK 291900Z 25001MPS 4500 BR NSC 25/24 Q1007 NOSIG
ZJHK,2016-08-29 20:00,ZJHK 292000Z 30001MPS 4000 BR NSC 24/24 Q1007 NOSIG
ZJHK,2016-08-29 21:00,ZJHK 292100Z 25002MPS 4000 BR NSC 24/24 Q1007 NOSIG
ZJHK,2016-08-29 22:00,ZJHK 292200Z 00000MPS 5000 BR FEW026TCU 24/24 Q1007 NOSIG
ZJHK,2016-08-29 23:00,ZJHK 292300Z 25001MPS 4000 BR NSC 24/24 Q1007 NOSIG
ZJHK,2016-08-30 00:00,ZJHK 300000Z 22002MPS 4500 BR NSC 25/24 Q1008 NOSIG
ZJHK,2016-08-30 01:00,ZJHK 300100Z 25002MPS 6000 FEW016 BKN046 27/25 Q1008 NOSIG
ZJHK,2016-08-30 02:00,ZJHK 300200Z 28001MPS 8000 FEW023TCU FEW023 28/24 Q1008 NOSIG
ZJHK,2016-08-30 03:00,ZJHK 300300Z 36003MPS 340V040 9999 SCT020TCU FEW020 BKN040 28/25 Q1008 NOSIG
ZJHK,2016-08-30 04:00,ZJHK 300400Z 30002MPS 9999 FEW020TCU FEW020 SCT040 29/24 Q1008 NOSIG
ZJHK,2016-08-30 05:00,ZJHK 300500Z 33002MPS 280V030 9999 FEW023CB 30/24 Q1007 NOSIG
ZJHK,2016-08-30 06:00,ZJHK 300600Z 35003MPS 310V030 9999 FEW023CB SCT040 30/24 Q1006 NOSIG
ZJHK,2016-08-30 07:00,ZJHK 300700Z 01004MPS 340V060 9999 FEW023TCU FEW023 30/24 Q1006 NOSIG
ZJHK,2016-08-30 08:00,ZJHK 300800Z 03004MPS 360V070 9999 FEW023CB FEW023 30/25 Q1005 NOSIG
ZJHK,2016-08-30 09:00,ZJHK 300900Z 02003MPS 340V060 9999 FEW023CB FEW023 29/24 Q1006 NOSIG
ZJHK,2016-08-30 10:00,ZJHK 301000Z 04003MPS 010V070 9999 FEW023CB SCT040 28/24 Q1006 NOSIG
ZJHK,2016-08-30 11:00,ZJHK 301100Z 14003MPS 110V170 9999 SCT040 27/24 Q1006 NOSIG
ZJHK,2016-08-30 12:00,ZJHK 301200Z 00000MPS 9999 SCT040 26/24 Q1006 NOSIG
ZJHK,2016-08-30 13:00,ZJHK 301300Z 00000MPS 9999 SCT040 25/24 Q1008 NOSIG
ZJHK,2016-08-30 14:00,ZJHK 301400Z 18001MPS 9999 SCT040 25/24 Q1008 NOSIG
ZJHK,2016-08-30 15:00,ZJHK 301500Z 23002MPS CAVOK 25/24 Q1008 NOSIG
ZJHK,2016-08-30 16:00,ZJHK 301600Z 23003MPS CAVOK 25/24 Q1008 NOSIG
ZJHK,2016-08-30 17:00,ZJHK 301700Z 23002MPS CAVOK 24/23 Q1008 NOSIG
ZJHK,2016-08-30 18:00,ZJHK 301800Z 24002MPS CAVOK 24/23 Q1007 NOSIG
ZJHK,2016-08-30 19:00,ZJHK 301900Z 23002MPS CAVOK 24/24 Q1007 NOSIG
ZJHK,2016-08-30 20:00,ZJHK 302000Z 22002MPS CAVOK 24/24 Q1006 NOSIG
ZJHK,2016-08-30 21:00,ZJHK 302100Z 22002MPS CAVOK 24/24 Q1006 NOSIG
ZJHK,2016-08-30 22:00,ZJHK 302200Z 22002MPS CAVOK 24/24 Q1007 NOSIG
ZJHK,2016-08-30 23:00,ZJHK 302300Z 22001MPS 7000 FEW026TCU 24/24 Q1007 NOSIG
ZJHK,2016-08-31 00:00,ZJHK 310000Z 22002MPS 9999 FEW026TCU 26/24 Q1008 NOSIG
ZJHK,2016-08-31 01:00,ZJHK 310100Z 22003MPS 180V240 CAVOK 28/24 Q1008 NOSIG
ZJHK,2016-08-31 02:00,ZJHK 310200Z 22003MPS 180V250 CAVOK 30/24 Q1007 NOSIG
ZJHK,2016-08-31 03:00,ZJHK 310300Z 26003MPS 210V300 9999 SCT023 31/24 Q1007 NOSIG
ZJHK,2016-08-31 04:00,ZJHK 310400Z 25004MPS 220V290 9999 SCT023 33/24 Q1007 NOSIG
ZJHK,2016-08-31 05:00,ZJHK 310500Z 28004MPS 260V320 9999 SCT023 33/24 Q1006 NOSIG
ZJHK,2016-08-31 06:00,ZJHK 310600Z 02004MPS 9999 FEW023CB BKN040 30/24 Q1005 BECMG AT0620 SHRA
ZJHK,2016-08-31 07:00,ZJHK 310700Z 09003MPS 060V120 9999 FEW023CB SCT040 30/25 Q1004 RESHRA NOSIG
ZJHK,2016-08-31 08:00,ZJHK 310800Z 12003MPS 070V170 9999 FEW023CB SCT040 29/25 Q1004 NOSIG
ZJHK,2016-08-31 09:00,ZJHK 310900Z 16003MPS 130V200 9999 FEW023TCU BKN040 29/25 Q1004 NOSIG
ZJHK,2016-08-31 10:00,ZJHK 311000Z 15004MPS 9999 FEW023CB BKN033 27/24 Q1005 NOSIG
ZJHK,2016-08-31 11:00,ZJHK 311100Z 17002MPS 140V220 9999 FEW023TCU SCT040 26/24 Q1004 NOSIG
ZJHK,2016-08-31 12:00,ZJHK 311200Z 00000MPS 9999 BKN046 25/24 Q1005 NOSIG
ZJHK,2016-08-31 13:00,ZJHK 311300Z 15001MPS CAVOK 25/24 Q1005 NOSIG
ZJHK,2016-08-31 14:00,ZJHK 311400Z 22001MPS CAVOK 25/24 Q1006 NOSIG
ZJHK,2016-08-31 15:00,ZJHK 311500Z 26001MPS 9999 BKN040 25/24 Q1006 NOSIG
ZJHK,2016-08-31 16:00,ZJHK 311600Z 21002MPS CAVOK 25/25 Q1006 NOSIG
ZJHK,2016-08-31 17:00,ZJHK 311700Z 22001MPS 9999 BKN046 25/25 Q1006 NOSIG
ZJHK,2016-08-31 18:00,ZJHK 311800Z 20001MPS CAVOK 25/25 Q1005 NOSIG
ZJHK,2016-08-31 19:00,ZJHK 311900Z 21002MPS CAVOK 26/24 Q1004 NOSIG
ZJHK,2016-08-31 20:00,ZJHK 312000Z 21002MPS CAVOK 26/24 Q1004 NOSIG
ZJHK,2016-08-31 21:00,ZJHK 312100Z 18001MPS CAVOK 25/24 Q1004 NOSIG
ZJHK,2016-08-31 22:00,ZJHK 312200Z 18002MPS CAVOK 25/24 Q1004 NOSIG
ZJHK,2016-08-31 23:00,ZJHK 312300Z 18002MPS CAVOK 25/24 Q1004 NOSIG
ZJHK,2016-09-01 00:00,ZJHK 010000Z 19003MPS 160V220 CAVOK 27/24 Q1004 NOSIG
ZJHK,2016-09-01 01:00,ZJHK 010100Z 19004MPS 9999 FEW040 28/24 Q1004 NOSIG
ZJHK,2016-09-01 02:00,ZJHK 010200Z 21004MPS CAVOK 30/25 Q1004 NOSIG
ZJHK,2016-09-01 03:00,ZJHK 010300Z 22003MPS 180V250 CAVOK 31/25 Q1003 NOSIG
ZJHK,2016-09-01 04:00,ZJHK 010400Z 24003MPS 190V290 CAVOK 33/25 Q1003 NOSIG
ZJHK,2016-09-01 05:00,ZJHK 010500Z 24003MPS 200V280 9999 FEW026 34/25 Q1002 NOSIG
ZJHK,2016-09-01 06:00,ZJHK 010600Z 25004MPS 210V280 9999 SCT040 33/24 Q1001 NOSIG
ZJHK,2016-09-01 07:00,ZJHK 010700Z 25003MPS 210V280 9999 SCT040 34/24 Q1000 NOSIG
ZJHK,2016-09-01 08:00,ZJHK 010800Z 28003MPS 220V330 9999 FEW040TCU SCT040 33/25 Q1000 NOSIG
ZJHK,2016-09-01 09:00,ZJHK 010900Z 32002MPS 290V350 9999 FEW040TCU FEW040 32/25 Q1000 NOSIG
ZJHK,2016-09-01 10:00,ZJHK 011000Z 30002MPS 9999 FEW040TCU FEW040 31/24 Q1000 NOSIG
ZJHK,2016-09-01 11:00,ZJHK 011100Z 24002MPS 9999 FEW023 30/25 Q1000 NOSIG
ZJHK,2016-09-01 12:00,ZJHK 011200Z 28002MPS CAVOK 28/24 Q1001 NOSIG
ZJHK,2016-09-01 13:00,ZJHK 011300Z 23001MPS CAVOK 28/23 Q1002 NOSIG
ZJHK,2016-09-01 14:00,ZJHK 011400Z 19001MPS CAVOK 28/23 Q1002 NOSIG
ZJHK,2016-09-01 15:00,ZJHK 011500Z 19001MPS CAVOK 27/24 Q1002 NOSIG
ZJHK,2016-09-01 16:00,ZJHK 011600Z 20001MPS CAVOK 27/24 Q1002 NOSIG
ZJHK,2016-09-01 17:00,ZJHK 011700Z 20002MPS CAVOK 27/24 Q1002 NOSIG
ZJHK,2016-09-01 18:00,ZJHK 011800Z 22002MPS CAVOK 26/24 Q1001 NOSIG
ZJHK,2016-09-01 19:00,ZJHK 011900Z 22002MPS CAVOK 26/24 Q1001 NOSIG
ZJHK,2016-09-01 20:00,ZJHK 012000Z 22002MPS CAVOK 26/24 Q1001 NOSIG
ZJHK,2016-09-01 21:00,ZJHK 012100Z 22002MPS CAVOK 26/24 Q1001 NOSIG
ZJHK,2016-09-01 22:00,ZJHK 012200Z 20002MPS CAVOK 26/23 Q1001 NOSIG
ZJHK,2016-09-01 23:00,ZJHK 012300Z 22002MPS CAVOK 26/23 Q1001 NOSIG
ZJHK,2016-09-02 00:00,ZJHK 020000Z 22002MPS CAVOK 27/24 Q1002 NOSIG
ZJHK,2016-09-02 01:00,ZJHK 020100Z 20002MPS CAVOK 28/24 Q1002 NOSIG
ZJHK,2016-09-02 02:00,ZJHK 020200Z 22002MPS 190V250 CAVOK 29/24 Q1002 NOSIG
ZJHK,2016-09-02 03:00,ZJHK 020300Z 25002MPS CAVOK 31/25 Q1002 NOSIG
ZJHK,2016-09-02 04:00,ZJHK 020400Z 26005MPS 220V300 9999 FEW020 FEW026TCU SCT033 33/24 Q1002 NOSIG
ZJHK,2016-09-02 05:00,ZJHK 020500Z 33005MPS 9999 FEW023TCU BKN023 30/25 Q1001 BECMG AT0530 27008MPS TSRA
ZJHK,2016-09-02 06:00,ZJHK 020600Z 29006MPS 270V340 9999 FEW021TCU BKN021 30/25 Q1001 NOSIG
ZJHK,2016-09-02 07:00,ZJHK 020700Z 28004MPS 9999 FEW023TCU 28/25 Q1000 NOSIG
ZJHK,2016-09-02 08:00,ZJHK 020800Z 29004MPS 260V320 9999 FEW023TCU 28/24 Q1000 NOSIG
ZJHK,2016-09-02 09:00,ZJHK 020900Z 26003MPS CAVOK 27/24 Q1000 NOSIG
ZJHK,2016-09-02 10:00,ZJHK 021000Z 26002MPS CAVOK 26/25 Q1000 NOSIG
ZJHK,2016-09-02 11:00,ZJHK 021100Z 24002MPS CAVOK 26/25 Q1001 NOSIG
ZJHK,2016-09-02 12:00,ZJHK 021200Z 22002MPS CAVOK 26/25 Q1002 NOSIG
ZJHK,2016-09-02 13:00,ZJHK 021300Z 26002MPS 210V280 CAVOK 26/25 Q1002 NOSIG
ZJHK,2016-09-02 14:00,ZJHK 021400Z 23002MPS CAVOK 25/25 Q1003 NOSIG
ZJHK,2016-09-02 15:00,ZJHK 021500Z 24002MPS CAVOK 25/24 Q1003 NOSIG
ZJHK,2016-09-02 16:00,ZJHK 021600Z 25002MPS CAVOK 25/24 Q1003 NOSIG
ZJHK,2016-09-02 17:00,ZJHK 021700Z 24002MPS CAVOK 25/24 Q1002 NOSIG
ZJHK,2016-09-02 18:00,ZJHK 021800Z 25002MPS CAVOK 25/24 Q1002 NOSIG
ZJHK,2016-09-02 19:00,ZJHK 021900Z 25002MPS CAVOK 25/24 Q1002 NOSIG
ZJHK,2016-09-02 20:00,ZJHK 022000Z 24002MPS CAVOK 25/24 Q1001 NOSIG
ZJHK,2016-09-02 21:00,ZJHK 022100Z 24001MPS 7000 NSC 25/24 Q1002 NOSIG
ZJHK,2016-09-02 22:00,ZJHK 022200Z 23002MPS 7000 BKN040 25/24 Q1002 NOSIG
ZJHK,2016-09-02 23:00,ZJHK 022300Z 23002MPS 7000 BKN040 25/24 Q1003 NOSIG
ZJHK,2016-09-03 00:00,ZJHK 030000Z 27003MPS 6000 -SHRA SCT015 FEW023CB BKN033 25/24 Q1004 BECMG AT0020 -TSRA
ZJHK,2016-09-03 01:00,ZJHK 030100Z 29004MPS 9999 SCT015 FEW023CB BKN033 25/24 Q1004 NOSIG
ZJHK,2016-09-03 02:00,ZJHK 030200Z 28003MPS 9999 FEW023CB SCT026 BKN046 25/24 Q1004 NOSIG
ZJHK,2016-09-03 03:00,ZJHK 030300Z 25003MPS 220V280 9999 FEW026 26/24 Q1004 NOSIG
ZJHK,2016-09-03 04:00,ZJHK 030400Z 25002MPS 180V320 9999 BKN020 29/25 Q1004 NOSIG
ZJHK,2016-09-03 05:00,ZJHK 030500Z 30004MPS 250V330 9999 FEW020TCU SCT020 31/24 Q1003 NOSIG
ZJHK,2016-09-03 06:00,ZJHK 030600Z 27004MPS 230V300 9999 FEW026TCU SCT026 32/24 Q1002 NOSIG
ZJHK,2016-09-03 07:00,ZJHK 030700Z 30005MPS 9999 FEW026TCU SCT026 31/24 Q1002 NOSIG
ZJHK,2016-09-03 08:00,ZJHK 030800Z 29006MPS 260V320 9999 FEW026CB 31/24 Q1002 NOSIG
ZJHK,2016-09-03 09:00,ZJHK 030900Z 29006MPS CAVOK 30/23 Q1002 NOSIG
ZJHK,2016-09-03 10:00,ZJHK 031000Z 27004MPS CAVOK 29/23 Q1002 NOSIG
ZJHK,2016-09-03 11:00,ZJHK 031100Z 26002MPS 9999 FEW030TCU 28/23 Q1002 NOSIG
ZJHK,2016-09-03 12:00,ZJHK 031200Z 27002MPS CAVOK 26/24 Q1003 NOSIG
ZJHK,2016-09-03 13:00,ZJHK 031300Z 27002MPS CAVOK 26/24 Q1004 NOSIG
ZJHK,2016-09-03 14:00,ZJHK 031400Z 24002MPS CAVOK 26/25 Q1004 NOSIG
ZJHK,2016-09-03 15:00,ZJHK 031500Z 23001MPS CAVOK 26/24 Q1004 NOSIG
ZJHK,2016-09-03 16:00,ZJHK 031600Z 24002MPS CAVOK 26/24 Q1004 NOSIG
ZJHK,2016-09-03 17:00,ZJHK 031700Z 25002MPS CAVOK 26/24 Q1004 NOSIG
ZJHK,2016-09-03 18:00,ZJHK 031800Z 25002MPS CAVOK 26/24 Q1004 NOSIG
ZJHK,2016-09-03 19:00,ZJHK 031900Z 24002MPS CAVOK 25/24 Q1004 NOSIG
ZJHK,2016-09-03 20:00,ZJHK 032000Z 24001MPS CAVOK 25/24 Q1004 NOSIG
ZJHK,2016-09-03 21:00,ZJHK 032100Z 25002MPS CAVOK 26/24 Q1003 NOSIG
ZJHK,2016-09-03 22:00,ZJHK 032200Z 28002MPS CAVOK 25/24 Q1004 NOSIG
ZJHK,2016-09-03 23:00,ZJHK 032300Z 27001MPS CAVOK 26/24 Q1004 NOSIG
ZJHK,2016-09-04 00:00,ZJHK 040000Z 26002MPS 9999 FEW023TCU 27/25 Q1004 NOSIG
ZJHK,2016-09-04 01:00,ZJHK 040100Z 25002MPS 9999 FEW023TCU 28/25 Q1005 NOSIG
ZJHK,2016-09-04 02:00,ZJHK 040200Z 29003MPS 220V350 9999 SCT020 FEW023CB 30/26 Q1005 NOSIG
ZJHK,2016-09-04 03:00,ZJHK 040300Z 01002MPS 340V040 9999 -SHRA SCT020 FEW023CB 28/25 Q1005 NOSIG
ZJHK,2016-09-04 04:00,ZJHK 040400Z 36002MPS 310V060 9999 SCT020 FEW023CB 29/25 Q1005 NOSIG
ZJHK,2016-09-04 05:00,ZJHK 040500Z 25002MPS 9999 FEW026CB FEW026 28/24 Q1004 NOSIG
ZJHK,2016-09-04 06:00,ZJHK 040600Z 35003MPS 300V020 9999 SCT026 30/24 Q1003 NOSIG
ZJHK,2016-09-04 07:00,ZJHK 040700Z 32003MPS 9999 FEW026CB SCT026 32/23 Q1002 NOSIG
ZJHK,2016-09-04 08:00,ZJHK 040800Z 05003MPS 9999 SCT033 31/24 Q1003 NOSIG
ZJHK,2016-09-04 09:00,ZJHK 040900Z 11002MPS 030V190 9999 -SHRA FEW023CB FEW023 BKN033 29/25 Q1003 NOSIG
ZJHK,2016-09-04 10:00,ZJHK 041000Z 19003MPS 140V230 9999 FEW023CB SCT040 25/24 Q1003 NOSIG
ZJHK,2016-09-04 11:00,ZJHK 041100Z 25002MPS CAVOK 25/24 Q1003 NOSIG
ZJHK,2016-09-04 12:00,ZJHK 041200Z 20002MPS 8000 NSC 24/24 Q1004 NOSIG
ZJHK,2016-09-04 13:00,ZJHK 041300Z 22002MPS 180V250 CAVOK 25/24 Q1005 NOSIG
ZJHK,2016-09-04 14:00,ZJHK 041400Z 22002MPS CAVOK 25/24 Q1005 NOSIG
ZJHK,2016-09-04 15:00,ZJHK 041500Z 24002MPS CAVOK 25/24 Q1006 NOSIG
ZJHK,2016-09-04 16:00,ZJHK 041600Z 25002MPS CAVOK 25/24 Q1005 NOSIG
ZJHK,2016-09-04 17:00,ZJHK 041700Z 26001MPS CAVOK 25/24 Q1005 NOSIG
ZJHK,2016-09-04 18:00,ZJHK 041800Z 00000MPS CAVOK 25/24 Q1004 NOSIG
ZJHK,2016-09-04 19:00,ZJHK 041900Z 00000MPS CAVOK 24/24 Q1003 NOSIG
ZJHK,2016-09-04 20:00,ZJHK 042000Z 28001MPS CAVOK 24/24 Q1003 NOSIG
ZJHK,2016-09-04 21:00,ZJHK 042100Z 22002MPS CAVOK 25/24 Q1004 NOSIG
ZJHK,2016-09-04 22:00,ZJHK 042200Z 22002MPS 9999 SCT015 25/24 Q1004 NOSIG
ZJHK,2016-09-04 23:00,ZJHK 042300Z 22002MPS 9999 FEW033 25/24 Q1004 NOSIG
ZJHK,2016-09-05 00:00,ZJHK 050000Z 24002MPS 9999 SCT033 25/24 Q1004 NOSIG
ZJHK,2016-09-05 01:00,ZJHK 050100Z 26002MPS CAVOK 27/25 Q1005 NOSIG
ZJHK,2016-09-05 02:00,ZJHK 050200Z 36002MPS 320V050 9999 SCT020 28/25 Q1005 NOSIG
ZJHK,2016-09-05 03:00,ZJHK 050300Z 01003MPS 320V040 9999 FEW030TCU 29/25 Q1005 NOSIG
ZJHK,2016-09-05 04:00,ZJHK 050400Z 35003MPS 290V060 9999 SCT021 FEW030TCU 30/25 Q1004 NOSIG
ZJHK,2016-09-05 05:00,ZJHK 050500Z 01003MPS 340V040 9999 FEW021 FEW033TCU 30/25 Q1004 NOSIG
ZJHK,2016-09-05 06:00,ZJHK 050600Z 36003MPS 9999 FEW030 FEW033CB 30/24 Q1003 NOSIG
ZJHK,2016-09-05 07:00,ZJHK 050700Z 20001MPS 9999 FEW030CB SCT030 28/24 Q1003 NOSIG
ZJHK,2016-09-05 08:00,ZJHK 050800Z 04002MPS 350V090 9999 FEW030CB 28/24 Q1003 NOSIG
ZJHK,2016-09-05 09:00,ZJHK 050900Z 15002MPS 9999 FEW030CB 26/24 Q1003 NOSIG
ZJHK,2016-09-05 10:00,ZJHK 051000Z 05002MPS 9999 FEW030CB 27/24 Q1003 NOSIG
ZJHK,2016-09-05 11:00,ZJHK 051100Z 06003MPS 020V090 9999 FEW023 27/25 Q1004 NOSIG
ZJHK,2016-09-05 12:00,ZJHK 051200Z 00000MPS 8000 NSC 26/25 Q1004 NOSIG
ZJHK,2016-09-05 13:00,ZJHK 051300Z 12002MPS 8000 NSC 26/25 Q1005 NOSIG
ZJHK,2016-09-05 14:00,ZJHK 051400Z 05002MPS CAVOK 27/25 Q1005 NOSIG
ZJHK,2016-09-05 15:00,ZJHK 051500Z 19001MPS CAVOK 26/25 Q1006 NOSIG
ZJHK,2016-09-05 16:00,ZJHK 051600Z 22002MPS 7000 NSC 26/25 Q1006 NOSIG
ZJHK,2016-09-05 17:00,ZJHK 051700Z 25002MPS 4000 BR SCT020 25/25 Q1005 NOSIG
ZJHK,2016-09-05 18:00,ZJHK 051800Z 25002MPS 4000 BR NSC 25/24 Q1005 NOSIG
ZJHK,2016-09-05 19:00,ZJHK 051900Z 24001MPS 4000 BR NSC 25/24 Q1005 NOSIG
ZJHK,2016-09-05 20:00,ZJHK 052000Z 27001MPS 4000 BR NSC 25/24 Q1004 NOSIG
ZJHK,2016-09-05 21:00,ZJHK 052100Z 15001MPS 4000 -RA BR SCT040 25/24 Q1004 NOSIG
ZJHK,2016-09-05 22:00,ZJHK 052200Z 20001MPS 3000 -RA BR BKN040 25/24 Q1004 NOSIG
ZJHK,2016-09-05 23:00,ZJHK 052300Z 27001MPS 3000 -RA BR SCT040 25/24 Q1005 NOSIG
ZJHK,2016-09-06 00:00,ZJHK 060000Z 32002MPS 5000 BR NSC 25/24 Q1005 NOSIG
ZJHK,2016-09-06 01:00,ZJHK 060100Z 20001MPS 6000 NSC 27/25 Q1006 NOSIG
ZJHK,2016-09-06 02:00,ZJHK 060200Z 15002MPS 6000 NSC 27/25 Q1006 NOSIG
ZJHK,2016-09-06 03:00,ZJHK 060300Z 15001MPS 6000 FEW023TCU 28/25 Q1006 NOSIG
ZJHK,2016-09-06 04:00,ZJHK 060400Z 03003MPS 350V080 8000 FEW015 28/25 Q1006 NOSIG
ZJHK,2016-09-06 05:00,ZJHK 060500Z 04002MPS 360V080 8000 -SHRA FEW015 FEW046TCU BKN046 28/25 Q1006 BECMG AT0530 TS
ZJHK,2016-09-06 06:00,ZJHK 060600Z 36002MPS 9999 FEW015 FEW046CB BKN046 29/25 Q1005 NOSIG
ZJHK,2016-09-06 07:00,ZJHK 060700Z 36002MPS 9999 FEW015 FEW026TCU BKN046 28/25 Q1004 RETS NOSIG
ZJHK,2016-09-06 08:00,ZJHK 060800Z 01003MPS 330V050 9999 FEW015 FEW026TCU 29/24 Q1004 NOSIG
ZJHK,2016-09-06 09:00,ZJHK 060900Z 01001MPS CAVOK 29/24 Q1004 NOSIG
ZJHK,2016-09-06 10:00,ZJHK 061000Z 09001MPS 8000 FEW023 28/24 Q1004 NOSIG
ZJHK,2016-09-06 11:00,ZJHK 061100Z 26002MPS 8000 SCT018 26/22 Q1005 NOSIG
ZJHK,2016-09-06 12:00,ZJHK 061200Z 26002MPS CAVOK 24/23 Q1005 NOSIG
ZJHK,2016-09-06 13:00,ZJHK 061300Z 27001MPS CAVOK 24/23 Q1006 NOSIG
ZJHK,2016-09-06 14:00,ZJHK 061400Z 27001MPS 9999 SCT011 24/24 Q1007 NOSIG
ZJHK,2016-09-06 15:00,ZJHK 061500Z 29001MPS CAVOK 24/24 Q1007 NOSIG
ZJHK,2016-09-06 16:00,ZJHK 061600Z 25001MPS CAVOK 24/24 Q1006 NOSIG
ZJHK,2016-09-06 17:00,ZJHK 061700Z 20001MPS CAVOK 24/24 Q1006 NOSIG
ZJHK,2016-09-06 18:00,ZJHK 061800Z 21001MPS 7000 NSC 25/24 Q1006 NOSIG
ZJHK,2016-09-06 19:00,ZJHK 061900Z 24002MPS 7000 NSC 24/24 Q1005 NOSIG
ZJHK,2016-09-06 20:00,ZJHK 062000Z 21001MPS 7000 FEW010 24/24 Q1005 NOSIG
ZJHK,2016-09-06 21:00,ZJHK 062100Z 17001MPS 6000 NSC 24/23 Q1005 NOSIG
ZJHK,2016-09-06 22:00,ZJHK 062200Z 00000MPS 6000 NSC 23/23 Q1006 NOSIG
ZJHK,2016-09-06 23:00,ZJHK 062300Z 00000MPS 6000 NSC 23/23 Q1006 NOSIG
ZJHK,2016-09-07 00:00,ZJHK 070000Z 24001MPS 7000 NSC 25/24 Q1006 NOSIG
ZJHK,2016-09-07 01:00,ZJHK 070100Z 25002MPS 9999 FEW020 28/24 Q1006 NOSIG
ZJHK,2016-09-07 02:00,ZJHK 070200Z 24003MPS 160V290 9999 FEW020 29/24 Q1007 NOSIG
ZJHK,2016-09-07 03:00,ZJHK 070300Z 21002MPS 9999 FEW020 30/24 Q1007 NOSIG
ZJHK,2016-09-07 04:00,ZJHK 070400Z 22002MPS 9999 FEW020 31/25 Q1006 NOSIG
ZJHK,2016-09-07 05:00,ZJHK 070500Z 35002MPS 320V030 9999 -SHRA FEW023CB SCT023 29/25 Q1006 BECMG AT0530 SHRA
ZJHK,2016-09-07 06:00,ZJHK 070600Z 04002MPS 360V060 9999 FEW023CB SCT023 29/24 Q1005 NOSIG
ZJHK,2016-09-07 07:00,ZJHK 070700Z 02002MPS 9999 SCT023 31/24 Q1004 NOSIG
ZJHK,2016-09-07 08:00,ZJHK 070800Z 15001MPS 9999 -SHRA FEW023CB SCT023 30/24 Q1004 BECMG AT0900 TSRA
ZJHK,2016-09-07 09:00,ZJHK 070900Z 10001MPS 9999 FEW017 FEW023CB BKN030 27/23 Q1005 RETSRA NOSIG
ZJHK,2016-09-07 10:00,ZJHK 071000Z 14003MPS 9999 -SHRA FEW017 FEW023CB BKN040 26/24 Q1006 NOSIG
ZJHK,2016-09-07 11:00,ZJHK 071100Z 12002MPS 9999 -SHRA FEW017 FEW023CB SCT040 25/24 Q1006 NOSIG
ZJHK,2016-09-07 12:00,ZJHK 071200Z 16001MPS 9999 FEW016 25/24 Q1006 NOSIG
ZJHK,2016-09-07 13:00,ZJHK 071300Z 20002MPS CAVOK 25/23 Q1006 NOSIG
ZJHK,2016-09-07 14:00,ZJHK 071400Z 22002MPS CAVOK 25/23 Q1007 NOSIG
ZJHK,2016-09-07 15:00,ZJHK 071500Z 25002MPS 9999 FEW040 25/23 Q1007 NOSIG
ZJHK,2016-09-07 16:00,ZJHK 071600Z 20002MPS CAVOK 25/24 Q1007 NOSIG
ZJHK,2016-09-07 17:00,ZJHK 071700Z 24001MPS CAVOK 25/24 Q1007 NOSIG
ZJHK,2016-09-07 18:00,ZJHK 071800Z 26001MPS CAVOK 24/24 Q1007 NOSIG
ZJHK,2016-09-07 19:00,ZJHK 071900Z 24002MPS CAVOK 25/24 Q1006 NOSIG
ZJHK,2016-09-07 20:00,ZJHK 072000Z 22002MPS 9999 FEW040 25/24 Q1006 NOSIG
ZJHK,2016-09-07 21:00,ZJHK 072100Z 29001MPS CAVOK 25/24 Q1006 NOSIG
ZJHK,2016-09-07 22:00,ZJHK 072200Z 24002MPS CAVOK 24/24 Q1006 NOSIG
ZJHK,2016-09-07 23:00,ZJHK 072300Z 23001MPS CAVOK 25/24 Q1006 NOSIG
ZJHK,2016-09-08 00:00,ZJHK 080000Z 26001MPS CAVOK 26/24 Q1007 NOSIG
ZJHK,2016-09-08 01:00,ZJHK 080100Z 18001MPS 9999 SCT046 27/25 Q1008 NOSIG
ZJHK,2016-09-08 02:00,ZJHK 080200Z 21001MPS CAVOK 28/25 Q1008 NOSIG
ZJHK,2016-09-08 03:00,ZJHK 080300Z 25001MPS 9999 FEW016 31/24 Q1008 NOSIG
ZJHK,2016-09-08 04:00,ZJHK 080400Z 33002MPS 9999 FEW023TCU SCT023 BKN033 30/24 Q1007 NOSIG
ZJHK,2016-09-08 05:00,ZJHK 080500Z 01002MPS 330V050 9999 FEW023CB SCT023 30/25 Q1007 NOSIG
ZJHK,2016-09-08 06:00,ZJHK 080600Z 30001MPS 9999 -SHRA FEW023CB SCT040 29/25 Q1006 BECMG AT0730 TS
ZJHK,2016-09-08 07:00,ZJHK 080700Z 02004MPS 360V060 9999 FEW023CB 30/26 Q1006 BECMG AT0730 TS
ZJHK,2016-09-08 08:00,ZJHK 080800Z 21005MPS 130V280 8000 -TSRA SCT020CB SCT033 27/24 Q1007 BECMG AT0810 1200 TSRA
ZJHK,2016-09-08 09:00,ZJHK 080900Z 15003MPS 120V180 9999 -TSRA FEW020CB SCT033 24/23 Q1007 RESHRA BECMG AT0940 NSW
ZJHK,2016-09-08 10:00,ZJHK 081000Z 18002MPS 9999 FEW020CB SCT033 24/23 Q1006 RETS NOSIG
ZJHK,2016-09-08 11:00,ZJHK 081100Z 27001MPS 9999 SCT033 24/23 Q1006 NOSIG
ZJHK,2016-09-08 12:00,ZJHK 081200Z 19002MPS 9999 SCT033 24/23 Q1007 NOSIG
ZJHK,2016-09-08 13:00,ZJHK 081300Z 15001MPS 9999 SCT033 24/23 Q1008 NOSIG
ZJHK,2016-09-08 14:00,ZJHK 081400Z 18002MPS 9999 SCT033 24/23 Q1008 NOSIG
ZJHK,2016-09-08 15:00,ZJHK 081500Z 19002MPS CAVOK 24/23 Q1008 NOSIG
ZJHK,2016-09-08 16:00,ZJHK 081600Z 22001MPS CAVOK 24/23 Q1008 NOSIG
ZJHK,2016-09-08 17:00,ZJHK 081700Z 20002MPS CAVOK 24/23 Q1008 NOSIG
ZJHK,2016-09-08 18:00,ZJHK 081800Z 22001MPS CAVOK 25/24 Q1008 NOSIG
ZJHK,2016-09-08 19:00,ZJHK 081900Z 00000MPS CAVOK 24/24 Q1007 NOSIG
ZJHK,2016-09-08 20:00,ZJHK 082000Z 00000MPS CAVOK 24/24 Q1007 NOSIG
ZJHK,2016-09-08 21:00,ZJHK 082100Z 19001MPS CAVOK 24/24 Q1006 NOSIG
ZJHK,2016-09-08 22:00,ZJHK 082200Z 34001MPS CAVOK 24/24 Q1007 NOSIG
ZJHK,2016-09-08 23:00,ZJHK 082300Z 18001MPS CAVOK 24/24 Q1007 NOSIG
ZJHK,2016-09-09 00:00,ZJHK 090000Z 21001MPS CAVOK 25/24 Q1008 NOSIG
ZJHK,2016-09-09 01:00,ZJHK 090100Z 22002MPS CAVOK 26/25 Q1008 NOSIG
ZJHK,2016-09-09 02:00,ZJHK 090200Z 19001MPS CAVOK 28/25 Q1008 NOSIG
ZJHK,2016-09-09 03:00,ZJHK 090300Z 20001MPS CAVOK 29/25 Q1008 NOSIG
ZJHK,2016-09-09 04:00,ZJHK 090400Z 26002MPS CAVOK 30/25 Q1007 NOSIG
ZJHK,2016-09-09 05:00,ZJHK 090500Z 29002MPS 9999 SCT030 31/25 Q1007 NOSIG
ZJHK,2016-09-09 06:00,ZJHK 090600Z VRB02MPS 9999 FEW030CB SCT030 31/25 Q1006 NOSIG
ZJHK,2016-09-09 07:00,ZJHK 090700Z 15002MPS 9999 FEW030TCU SCT030 30/26 Q1005 NOSIG
ZJHK,2016-09-09 08:00,ZJHK 090800Z 13002MPS 9999 FEW030 30/25 Q1005 NOSIG
ZJHK,2016-09-09 09:00,ZJHK 090900Z 06003MPS 040V170 9999 FEW026TCU 30/25 Q1005 NOSIG
ZJHK,2016-09-09 10:00,ZJHK 091000Z 05003MPS 020V080 9999 FEW026CB 30/24 Q1005 NOSIG
ZJHK,2016-09-09 11:00,ZJHK 091100Z 12005MPS 9999 FEW026TCU BKN040 27/24 Q1006 BECMG AT1120 18004MPS TS
ZJHK,2016-09-09 12:00,ZJHK 091200Z 15002MPS 120V180 9999 TS FEW026CB BKN040 25/24 Q1007 BECMG TL1230 NSW
ZJHK,2016-09-09 13:00,ZJHK 091300Z 20002MPS 9999 BKN046 26/24 Q1007 RETS NOSIG
ZJHK,2016-09-09 14:00,ZJHK 091400Z 21001MPS 9999 BKN046 25/24 Q1007 NOSIG
ZJHK,2016-09-09 15:00,ZJHK 091500Z 15001MPS CAVOK 26/25 Q1007 NOSIG
ZJHK,2016-09-09 16:00,ZJHK 091600Z 15001MPS CAVOK 26/25 Q1007 NOSIG
ZJHK,2016-09-09 17:00,ZJHK 091700Z 12002MPS CAVOK 25/25 Q1006 NOSIG
ZJHK,2016-09-09 18:00,ZJHK 091800Z 11002MPS CAVOK 25/25 Q1005 NOSIG
ZJHK,2016-09-09 19:00,ZJHK 091900Z 14002MPS 8000 NSC 25/25 Q1005 NOSIG
ZJHK,2016-09-09 20:00,ZJHK 092000Z 14001MPS 8000 NSC 25/25 Q1005 NOSIG
ZJHK,2016-09-09 21:00,ZJHK 092100Z 17002MPS CAVOK 26/25 Q1005 NOSIG
ZJHK,2016-09-09 22:00,ZJHK 092200Z 18001MPS CAVOK 26/25 Q1005 NOSIG
ZJHK,2016-09-09 23:00,ZJHK 092300Z 17002MPS CAVOK 26/25 Q1006 NOSIG
ZJHK,2016-09-10 00:00,ZJHK 100000Z 18003MPS CAVOK 27/25 Q1006 NOSIG
ZJHK,2016-09-10 01:00,ZJHK 100100Z 20003MPS 170V230 CAVOK 28/25 Q1006 NOSIG
ZJHK,2016-09-10 02:00,ZJHK 100200Z 21003MPS 180V240 CAVOK 30/26 Q1006 NOSIG
ZJHK,2016-09-10 03:00,ZJHK 100300Z 17002MPS 140V230 9999 FEW026 31/25 Q1006 NOSIG
ZJHK,2016-09-10 04:00,ZJHK 100400Z 18002MPS 140V240 9999 FEW026 31/25 Q1006 NOSIG
ZJHK,2016-09-10 05:00,ZJHK 100500Z 24002MPS 9999 FEW026TCU SCT026 32/23 Q1005 NOSIG
ZJHK,2016-09-10 06:00,ZJHK 100600Z 21003MPS 130V250 9999 FEW026CB FEW026 32/25 Q1004 NOSIG
ZJHK,2016-09-10 07:00,ZJHK 100700Z 16002MPS 9999 FEW026CB FEW026 32/24 Q1004 NOSIG
ZJHK,2016-09-10 08:00,ZJHK 100800Z 14003MPS 9999 FEW026TCU FEW026 31/25 Q1003 NOSIG
ZJHK,2016-09-10 09:00,ZJHK 100900Z 11002MPS 080V140 9999 FEW026TCU FEW026 32/25 Q1003 NOSIG
ZJHK,2016-09-10 10:00,ZJHK 101000Z 11003MPS 9999 FEW026TCU FEW026 30/25 Q1003 NOSIG
ZJHK,2016-09-10 11:00,ZJHK 101100Z 14003MPS 9999 FEW026CB SCT026 28/25 Q1004 BECMG AT1130 -TSRA
ZJHK,2016-09-10 12:00,ZJHK 101200Z 14002MPS 9999 TS FEW026CB FEW026 27/25 Q1005 BECMG AT1230 NSW
ZJHK,2016-09-10 13:00,ZJHK 101300Z 15001MPS 9999 FEW026CB SCT040 27/25 Q1006 RETS NOSIG
ZJHK,2016-09-10 14:00,ZJHK 101400Z 16003MPS 120V180 9999 FEW026CB SCT040 27/26 Q1006 NOSIG
ZJHK,2016-09-10 15:00,ZJHK 101500Z 17002MPS 9999 FEW040 27/25 Q1006 NOSIG
ZJHK,2016-09-10 16:00,ZJHK 101600Z 00000MPS CAVOK 26/25 Q1007 NOSIG
ZJHK,2016-09-10 17:00,ZJHK 101700Z 18001MPS CAVOK 26/25 Q1006 NOSIG
ZJHK,2016-09-10 18:00,ZJHK 101800Z 16001MPS CAVOK 26/25 Q1005 NOSIG
ZJHK,2016-09-10 19:00,ZJHK 101900Z 18001MPS CAVOK 26/25 Q1005 NOSIG
ZJHK,2016-09-10 20:00,ZJHK 102000Z 17001MPS 9999 SCT046 26/25 Q1005 NOSIG
ZJHK,2016-09-10 21:00,ZJHK 102100Z 15002MPS 9999 FEW046 25/25 Q1005 NOSIG
ZJHK,2016-09-10 22:00,ZJHK 102200Z 14001MPS 9999 FEW046 25/25 Q1006 NOSIG
ZJHK,2016-09-10 23:00,ZJHK 102300Z 17002MPS 9999 FEW046 26/25 Q1006 NOSIG
ZJHK,2016-09-11 00:00,ZJHK 110000Z 15002MPS 130V190 9999 FEW016 27/25 Q1007 NOSIG
ZJHK,2016-09-11 01:00,ZJHK 110100Z 17003MPS 130V200 9999 FEW020 29/25 Q1007 NOSIG
ZJHK,2016-09-11 02:00,ZJHK 110200Z 16003MPS 140V200 9999 SCT020 30/25 Q1007 NOSIG
ZJHK,2016-09-11 03:00,ZJHK 110300Z 15003MPS 100V190 9999 BKN020 32/25 Q1007 NOSIG
ZJHK,2016-09-11 04:00,ZJHK 110400Z 14003MPS 080V180 9999 BKN023 32/25 Q1006 NOSIG
ZJHK,2016-09-11 05:00,ZJHK 110500Z 17004MPS 130V210 9999 FEW025TCU BKN025 32/24 Q1005 NOSIG
ZJHK,2016-09-11 06:00,ZJHK 110600Z 19003MPS 150V240 9999 FEW025TCU SCT025 33/24 Q1004 NOSIG
ZJHK,2016-09-11 07:00,ZJHK 110700Z 15003MPS 120V180 9999 FEW025TCU SCT025 32/24 Q1004 NOSIG
ZJHK,2016-09-11 08:00,ZJHK 110800Z 14003MPS 110V180 9999 FEW025TCU FEW025 33/24 Q1004 NOSIG
ZJHK,2016-09-11 09:00,ZJHK 110900Z 14002MPS 100V170 9999 FEW026TCU SCT026 32/23 Q1004 NOSIG
ZJHK,2016-09-11 10:00,ZJHK 111000Z 12004MPS 9999 FEW026CB 30/24 Q1004 NOSIG
ZJHK,2016-09-11 11:00,ZJHK 111100Z 14003MPS 090V170 9999 TS FEW026CB 28/24 Q1006 BECMG AT1140 NSW
ZJHK,2016-09-11 12:00,ZJHK 111200Z 33005MPS 290V360 9999 TS SCT016 FEW023CB 27/23 Q1008 BECMG AT1230 NSW
ZJHK,2016-09-11 13:00,ZJHK 111300Z 05002MPS 9999 FEW020 25/23 Q1008 RETS NOSIG
ZJHK,2016-09-11 14:00,ZJHK 111400Z 03001MPS 9999 FEW020 25/22 Q1008 NOSIG
ZJHK,2016-09-11 15:00,ZJHK 111500Z 07001MPS CAVOK 25/23 Q1008 NOSIG
ZJHK,2016-09-11 16:00,ZJHK 111600Z 04002MPS 9999 SCT020 26/23 Q1008 NOSIG
ZJHK,2016-09-11 17:00,ZJHK 111700Z 00000MPS 9999 FEW020 25/23 Q1007 NOSIG
ZJHK,2016-09-11 18:00,ZJHK 111800Z 13001MPS 9999 FEW020 25/24 Q1007 NOSIG
ZJHK,2016-09-11 19:00,ZJHK 111900Z 09002MPS CAVOK 25/24 Q1006 NOSIG
ZJHK,2016-09-11 20:00,ZJHK 112000Z 08002MPS CAVOK 26/25 Q1006 NOSIG
ZJHK,2016-09-11 21:00,ZJHK 112100Z 10002MPS 9999 FEW017 25/24 Q1006 NOSIG
ZJHK,2016-09-11 22:00,ZJHK 112200Z 10002MPS 9999 FEW017 25/24 Q1007 NOSIG
ZJHK,2016-09-11 23:00,ZJHK 112300Z 09003MPS 9999 FEW020TCU 26/24 Q1007 NOSIG
ZJHK,2016-09-12 00:00,ZJHK 120000Z 08004MPS 9999 FEW020TCU SCT020 SCT040 27/25 Q1008 NOSIG
ZJHK,2016-09-12 01:00,ZJHK 120100Z 09005MPS 9999 FEW020TCU BKN020 28/25 Q1008 NOSIG
ZJHK,2016-09-12 02:00,ZJHK 120200Z 07005MPS 9999 FEW020TCU BKN020 30/25 Q1008 NOSIG
ZJHK,2016-09-12 03:00,ZJHK 120300Z 07006MPS 9999 FEW020TCU BKN020 30/25 Q1008 NOSIG
ZJHK,2016-09-12 04:00,ZJHK 120400Z 07007MPS 9999 FEW020TCU BKN020 31/25 Q1008 NOSIG
ZJHK,2016-09-12 05:00,ZJHK 120500Z 06008MPS 9999 FEW020CB BKN020 31/25 Q1008 NOSIG
ZJHK,2016-09-12 06:00,ZJHK 120600Z 07008MPS 9999 FEW020CB SCT023 29/24 Q1007 NOSIG
ZJHK,2016-09-12 07:00,ZJHK 120700Z 07009MPS 9999 FEW020TCU SCT020 31/25 Q1006 NOSIG
ZJHK,2016-09-12 08:00,ZJHK 120800Z 07008MPS 040V100 9999 FEW020TCU SCT020 30/25 Q1007 NOSIG
ZJHK,2016-09-12 09:00,ZJHK 120900Z 07007MPS 9999 SCT016 FEW023CB SCT023 29/25 Q1007 NOSIG
ZJHK,2016-09-12 10:00,ZJHK 121000Z 08008MPS 9999 SCT016 FEW023TCU SCT023 29/24 Q1007 NOSIG
ZJHK,2016-09-12 11:00,ZJHK 121100Z 08006MPS 9999 FEW023TCU FEW023 28/25 Q1008 NOSIG
ZJHK,2016-09-12 12:00,ZJHK 121200Z 08005MPS CAVOK 28/25 Q1008 NOSIG
ZJHK,2016-09-12 13:00,ZJHK 121300Z 08005MPS CAVOK 27/25 Q1008 NOSIG
ZJHK,2016-09-12 14:00,ZJHK 121400Z 08005MPS 9999 SCT016 27/25 Q1010 NOSIG
ZJHK,2016-09-12 15:00,ZJHK 121500Z 10004MPS CAVOK 27/24 Q1010 NOSIG
ZJHK,2016-09-12 16:00,ZJHK 121600Z 07004MPS CAVOK 27/25 Q1009 NOSIG
ZJHK,2016-09-12 17:00,ZJHK 121700Z 07005MPS CAVOK 27/25 Q1008 NOSIG
ZJHK,2016-09-12 18:00,ZJHK 121800Z 07005MPS CAVOK 27/25 Q1008 NOSIG
ZJHK,2016-09-12 19:00,ZJHK 121900Z 08005MPS 9999 FEW015 27/25 Q1007 NOSIG
ZJHK,2016-09-12 20:00,ZJHK 122000Z 09005MPS 9999 FEW015 27/25 Q1007 NOSIG
ZJHK,2016-09-12 21:00,ZJHK 122100Z 09004MPS 9999 FEW015 26/25 Q1008 NOSIG
ZJHK,2016-09-12 22:00,ZJHK 122200Z 09004MPS 9999 FEW030 27/25 Q1008 NOSIG
ZJHK,2016-09-12 23:00,ZJHK 122300Z 09005MPS 9999 FEW023TCU SCT033 27/24 Q1008 NOSIG
ZJHK,2016-09-13 00:00,ZJHK 130000Z 08004MPS 040V100 9999 FEW023TCU SCT033 28/25 Q1009 NOSIG
ZJHK,2016-09-13 01:00,ZJHK 130100Z 08006MPS 9999 FEW020TCU SCT020 29/25 Q1009 NOSIG
ZJHK,2016-09-13 02:00,ZJHK 130200Z 08007MPS 9999 BKN020 30/25 Q1009 NOSIG
ZJHK,2016-09-13 03:00,ZJHK 130300Z 08008MPS 9999 BKN020 30/25 Q1009 NOSIG
ZJHK,2016-09-13 04:00,ZJHK 130400Z 07008MPS 9999 FEW026TCU SCT026 31/24 Q1009 NOSIG
ZJHK,2016-09-13 05:00,ZJHK 130500Z 08008MPS 9999 FEW026TCU BKN026 32/24 Q1008 NOSIG
ZJHK,2016-09-13 06:00,ZJHK 130600Z 08008MPS 9999 FEW026TCU SCT026 32/24 Q1007 NOSIG
ZJHK,2016-09-13 07:00,ZJHK 130700Z 08009MPS 9999 FEW026TCU SCT026 32/23 Q1006 NOSIG
ZJHK,2016-09-13 08:00,ZJHK 130800Z 08008MPS 050V110 9999 FEW023TCU SCT023 31/24 Q1007 NOSIG
ZJHK,2016-09-13 09:00,ZJHK 130900Z 08008MPS 9999 FEW023TCU SCT023 30/24 Q1006 NOSIG
ZJHK,2016-09-13 10:00,ZJHK 131000Z 08006MPS 9999 SCT023 29/24 Q1007 NOSIG
ZJHK,2016-09-13 11:00,ZJHK 131100Z 09005MPS 9999 SCT023 28/24 Q1007 NOSIG
ZJHK,2016-09-13 12:00,ZJHK 131200Z 11003MPS 9999 FEW023 27/25 Q1008 NOSIG
ZJHK,2016-09-13 13:00,ZJHK 131300Z 12002MPS 9999 FEW023 26/24 Q1009 NOSIG
ZJHK,2016-09-13 14:00,ZJHK 131400Z 10003MPS CAVOK 26/24 Q1009 NOSIG
ZJHK,2016-09-13 15:00,ZJHK 131500Z 10002MPS CAVOK 26/25 Q1009 NOSIG
ZJHK,2016-09-13 16:00,ZJHK 131600Z 12001MPS CAVOK 25/24 Q1009 NOSIG
ZJHK,2016-09-13 17:00,ZJHK 131700Z 12001MPS CAVOK 25/24 Q1008 NOSIG
ZJHK,2016-09-13 18:00,ZJHK 131800Z 12001MPS 7000 NSC 25/24 Q1008 NOSIG
ZJHK,2016-09-13 19:00,ZJHK 131900Z 00000MPS 6000 BCFG NSC 24/24 Q1007 NOSIG
ZJHK,2016-09-13 20:00,ZJHK 132000Z 00000MPS 6000 BCFG NSC 24/24 Q1007 NOSIG
ZJHK,2016-09-13 21:00,ZJHK 132100Z 02001MPS 6000 BCFG NSC 24/24 Q1007 NOSIG
ZJHK,2016-09-13 22:00,ZJHK 132200Z 00000MPS 5000 BR BCFG NSC 24/24 Q1007 NOSIG
ZJHK,2016-09-13 23:00,ZJHK 132300Z 07001MPS 8000 NSC 25/24 Q1008 NOSIG
ZJHK,2016-09-14 00:00,ZJHK 140000Z 05002MPS CAVOK 27/24 Q1008 NOSIG
ZJHK,2016-09-14 01:00,ZJHK 140100Z 05002MPS 010V070 9999 SCT020 FEW023TCU 28/24 Q1008 NOSIG
ZJHK,2016-09-14 02:00,ZJHK 140200Z 02002MPS 340V070 9999 FEW020 FEW023TCU 30/23 Q1008 NOSIG
ZJHK,2016-09-14 03:00,ZJHK 140300Z 03001MPS 9999 FEW023TCU FEW023 30/23 Q1008 NOSIG
ZJHK,2016-09-14 04:00,ZJHK 140400Z 03003MPS 340V110 9999 FEW023TCU FEW023 32/23 Q1007 NOSIG
ZJHK,2016-09-14 05:00,ZJHK 140500Z 02004MPS 330V060 9999 FEW023TCU 32/22 Q1006 NOSIG
ZJHK,2016-09-14 06:00,ZJHK 140600Z 05004MPS 360V090 CAVOK 32/22 Q1005 NOSIG
ZJHK,2016-09-14 07:00,ZJHK 140700Z 03003MPS 360V070 CAVOK 32/22 Q1004 NOSIG
ZJHK,2016-09-14 08:00,ZJHK 140800Z 02003MPS 330V060 9999 FEW040CB 32/22 Q1004 NOSIG
ZJHK,2016-09-14 09:00,ZJHK 140900Z 02002MPS 340V060 CAVOK 31/21 Q1004 NOSIG
ZJHK,2016-09-14 10:00,ZJHK 141000Z 36002MPS 340V060 CAVOK 29/23 Q1004 NOSIG
ZJHK,2016-09-14 11:00,ZJHK 141100Z 32002MPS CAVOK 29/23 Q1005 NOSIG
ZJHK,2016-09-14 12:00,ZJHK 141200Z 32002MPS CAVOK 28/23 Q1005 NOSIG
ZJHK,2016-09-14 13:00,ZJHK 141300Z 31002MPS CAVOK 27/24 Q1005 NOSIG
ZJHK,2016-09-14 14:00,ZJHK 141400Z 26001MPS CAVOK 26/25 Q1006 NOSIG
ZJHK,2016-09-14 15:00,ZJHK 141500Z 27001MPS 6000 BCFG NSC 26/24 Q1005 NOSIG
ZJHK,2016-09-14 16:00,ZJHK 141600Z 26002MPS 6000 BCFG NSC 26/25 Q1005 NOSIG
ZJHK,2016-09-14 17:00,ZJHK 141700Z 24002MPS 5000 BR BCFG NSC 26/25 Q1005 NOSIG
ZJHK,2016-09-14 18:00,ZJHK 141800Z 22003MPS 5000 BR BCFG NSC 26/25 Q1005 NOSIG
ZJHK,2016-09-14 19:00,ZJHK 141900Z 24002MPS 5000 BR BCFG NSC 25/25 Q1005 NOSIG
ZJHK,2016-09-14 20:00,ZJHK 142000Z 23002MPS 5000 BR BCFG NSC 25/25 Q1004 NOSIG
ZJHK,2016-09-14 21:00,ZJHK 142100Z 25003MPS 5000 BR FEW026TCU FEW040 25/24 Q1004 NOSIG
ZJHK,2016-09-14 22:00,ZJHK 142200Z 23002MPS 4000 BR FEW040 25/24 Q1005 NOSIG
ZJHK,2016-09-14 23:00,ZJHK 142300Z 27002MPS 4000 BR NSC 25/24 Q1005 NOSIG
ZJHK,2016-09-15 00:00,ZJHK 150000Z 28002MPS 6000 NSC 26/25 Q1005 NOSIG
ZJHK,2016-09-15 01:00,ZJHK 150100Z 28003MPS 9999 SCT020 29/24 Q1006 NOSIG
ZJHK,2016-09-15 02:00,ZJHK 150200Z 31005MPS 9999 SCT020 30/24 Q1006 NOSIG
ZJHK,2016-09-15 03:00,ZJHK 150300Z 31004MPS 270V340 9999 FEW020 32/23 Q1005 NOSIG
ZJHK,2016-09-15 04:00,ZJHK 150400Z 32006MPS 9999 FEW020 32/21 Q1005 NOSIG
ZJHK,2016-09-15 05:00,ZJHK 150500Z 31006MPS 280V350 9999 FEW020 32/21 Q1004 NOSIG
ZJHK,2016-09-15 06:00,ZJHK 150600Z 33005MPS 290V360 CAVOK 33/21 Q1003 NOSIG
ZJHK,2016-09-15 07:00,ZJHK 150700Z 30005MPS 260V330 CAVOK 33/19 Q1003 NOSIG
ZJHK,2016-09-15 08:00,ZJHK 150800Z 28005MPS 250V310 CAVOK 32/20 Q1003 NOSIG
ZJHK,2016-09-15 09:00,ZJHK 150900Z 27005MPS CAVOK 31/19 Q1003 NOSIG
ZJHK,2016-09-15 10:00,ZJHK 151000Z 27003MPS CAVOK 29/21 Q1003 NOSIG
ZJHK,2016-09-15 11:00,ZJHK 151100Z 27003MPS CAVOK 27/21 Q1004 NOSIG
ZJHK,2016-09-15 12:00,ZJHK 151200Z 28003MPS CAVOK 26/23 Q1004 NOSIG
ZJHK,2016-09-15 13:00,ZJHK 151300Z 26002MPS CAVOK 26/23 Q1006 NOSIG
ZJHK,2016-09-15 14:00,ZJHK 151400Z 24002MPS 7000 NSC 26/23 Q1006 NOSIG
ZJHK,2016-09-15 15:00,ZJHK 151500Z 26002MPS 7000 NSC 26/23 Q1006 NOSIG
ZJHK,2016-09-15 16:00,ZJHK 151600Z 26002MPS 6000 NSC 25/23 Q1005 NOSIG
ZJHK,2016-09-15 17:00,ZJHK 151700Z 24002MPS 6000 NSC 25/23 Q1005 NOSIG
ZJHK,2016-09-15 18:00,ZJHK 151800Z 24003MPS 6000 NSC 24/23 Q1005 NOSIG
ZJHK,2016-09-15 19:00,ZJHK 151900Z 27002MPS 6000 NSC 24/22 Q1004 NOSIG
ZJHK,2016-09-15 20:00,ZJHK 152000Z 27003MPS 6000 NSC 24/22 Q1004 NOSIG
ZJHK,2016-09-15 21:00,ZJHK 152100Z 28003MPS 6000 NSC 24/22 Q1004 NOSIG
ZJHK,2016-09-15 22:00,ZJHK 152200Z 26003MPS 6000 NSC 25/23 Q1005 NOSIG
ZJHK,2016-09-15 23:00,ZJHK 152300Z 27002MPS 5000 BR NSC 25/23 Q1005 NOSIG
ZJHK,2016-09-16 00:00,ZJHK 160000Z 27001MPS 6000 NSC 26/24 Q1006 NOSIG
ZJHK,2016-09-16 01:00,ZJHK 160100Z 35002MPS 280V030 CAVOK 29/24 Q1006 NOSIG
ZJHK,2016-09-16 02:00,ZJHK 160200Z 01003MPS 310V060 CAVOK 30/24 Q1006 NOSIG
ZJHK,2016-09-16 03:00,ZJHK 160300Z 04004MPS 360V120 CAVOK 31/24 Q1006 NOSIG
ZJHK,2016-09-16 04:00,ZJHK 160400Z 03004MPS 360V070 CAVOK 32/24 Q1006 NOSIG
ZJHK,2016-09-16 05:00,ZJHK 160500Z 03005MPS CAVOK 32/23 Q1005 NOSIG
ZJHK,2016-09-16 06:00,ZJHK 160600Z 04006MPS CAVOK 32/23 Q1004 NOSIG
ZJHK,2016-09-16 07:00,ZJHK 160700Z 04005MPS 010V080 CAVOK 32/23 Q1004 NOSIG
ZJHK,2016-09-16 08:00,ZJHK 160800Z 04005MPS 360V070 9999 FEW020 31/23 Q1004 NOSIG
ZJHK,2016-09-16 09:00,ZJHK 160900Z 08005MPS 9999 FEW020 30/23 Q1003 NOSIG
ZJHK,2016-09-16 10:00,ZJHK 161000Z 08004MPS CAVOK 29/23 Q1004 NOSIG
ZJHK,2016-09-16 11:00,ZJHK 161100Z 09004MPS 7000 NSC 28/23 Q1004 NOSIG
ZJHK,2016-09-16 12:00,ZJHK 161200Z 11002MPS 7000 NSC 27/24 Q1005 NOSIG
ZJHK,2016-09-16 13:00,ZJHK 161300Z 14002MPS 6000 NSC 26/24 Q1006 NOSIG
ZJHK,2016-09-16 14:00,ZJHK 161400Z 17001MPS 6000 NSC 26/24 Q1006 NOSIG
ZJHK,2016-09-16 15:00,ZJHK 161500Z 20001MPS 5000 BR NSC 26/24 Q1006 NOSIG
ZJHK,2016-09-16 16:00,ZJHK 161600Z 24002MPS 5000 BR NSC 25/24 Q1006 NOSIG
ZJHK,2016-09-16 17:00,ZJHK 161700Z 24001MPS 3000 BR NSC 25/25 Q1006 NOSIG
ZJHK,2016-09-16 18:00,ZJHK 161800Z 26001MPS 3000 BR NSC 25/24 Q1005 NOSIG
ZJHK,2016-09-16 19:00,ZJHK 161900Z 25001MPS 3000 BR NSC 25/24 Q1005 NOSIG
ZJHK,2016-09-16 20:00,ZJHK 162000Z 27002MPS 3000 BR NSC 24/23 Q1005 NOSIG
ZJHK,2016-09-16 21:00,ZJHK 162100Z 29002MPS 3000 BR NSC 25/24 Q1005 NOSIG
ZJHK,2016-09-16 22:00,ZJHK 162200Z 25001MPS 3000 BR NSC 25/24 Q1005 NOSIG
ZJHK,2016-09-16 23:00,ZJHK 162300Z 25001MPS 2600 BR NSC 26/25 Q1006 NOSIG
ZJHK,2016-09-17 00:00,ZJHK 170000Z 27002MPS 3500 BR NSC 27/25 Q1006 NOSIG
ZJHK,2016-09-17 01:00,ZJHK 170100Z 32001MPS 6000 NSC 29/24 Q1006 NOSIG
ZJHK,2016-09-17 02:00,ZJHK 170200Z 36003MPS 310V060 9999 SCT026 31/23 Q1007 NOSIG
ZJHK,2016-09-17 03:00,ZJHK 170300Z 05003MPS 010V080 9999 FEW026TCU SCT026 32/22 Q1007 NOSIG
ZJHK,2016-09-17 04:00,ZJHK 170400Z 01004MPS 330V080 9999 FEW026TCU FEW026 SCT040 32/23 Q1006 NOSIG
ZJHK,2016-09-17 05:00,ZJHK 170500Z 35004MPS 300V070 9999 FEW026TCU FEW026 SCT040 31/24 Q1006 NOSIG
ZJHK,2016-09-17 06:00,ZJHK 170600Z 06004MPS 010V100 9999 FEW026TCU SCT040 31/23 Q1005 NOSIG
ZJHK,2016-09-17 07:00,ZJHK 170700Z 02003MPS 350V070 9999 FEW026TCU SCT046 31/23 Q1005 NOSIG
ZJHK,2016-09-17 08:00,ZJHK 170800Z 05003MPS 020V090 CAVOK 31/23 Q1005 NOSIG
ZJHK,2016-09-17 09:00,ZJHK 170900Z 04003MPS 360V080 CAVOK 31/22 Q1004 NOSIG
ZJHK,2016-09-17 10:00,ZJHK 171000Z 04003MPS 010V070 CAVOK 29/22 Q1005 NOSIG
ZJHK,2016-09-17 11:00,ZJHK 171100Z 04003MPS 360V070 CAVOK 28/23 Q1005 NOSIG
ZJHK,2016-09-17 12:00,ZJHK 171200Z 10002MPS CAVOK 27/23 Q1006 NOSIG
ZJHK,2016-09-17 13:00,ZJHK 171300Z 14002MPS CAVOK 26/23 Q1007 NOSIG
ZJHK,2016-09-17 14:00,ZJHK 171400Z 16002MPS CAVOK 25/24 Q1007 NOSIG
ZJHK,2016-09-17 15:00,ZJHK 171500Z 20001MPS 8000 NSC 25/24 Q1007 NOSIG
ZJHK,2016-09-17 16:00,ZJHK 171600Z 23001MPS 6000 NSC 25/24 Q1007 NOSIG
ZJHK,2016-09-17 17:00,ZJHK 171700Z 22001MPS 6000 NSC 25/24 Q1007 NOSIG
ZJHK,2016-09-17 18:00,ZJHK 171800Z 23002MPS 6000 NSC 25/24 Q1007 NOSIG
ZJHK,2016-09-17 19:00,ZJHK 171900Z 21001MPS 6000 NSC 25/24 Q1006 NOSIG
ZJHK,2016-09-17 20:00,ZJHK 172000Z 26001MPS 6000 NSC 24/23 Q1006 NOSIG
ZJHK,2016-09-17 21:00,ZJHK 172100Z 26001MPS 6000 NSC 24/23 Q1006 NOSIG
ZJHK,2016-09-17 22:00,ZJHK 172200Z 24001MPS 7000 NSC 25/24 Q1007 NOSIG
ZJHK,2016-09-17 23:00,ZJHK 172300Z 24002MPS 5000 BR NSC 25/24 Q1007 NOSIG
ZJHK,2016-09-18 00:00,ZJHK 180000Z 27002MPS 7000 NSC 26/23 Q1008 NOSIG
ZJHK,2016-09-18 01:00,ZJHK 180100Z 29002MPS 240V350 CAVOK 29/23 Q1008 NOSIG
ZJHK,2016-09-18 02:00,ZJHK 180200Z 28002MPS CAVOK 29/22 Q1008 NOSIG
ZJHK,2016-09-18 03:00,ZJHK 180300Z 04002MPS 360V070 CAVOK 30/22 Q1008 NOSIG
ZJHK,2016-09-18 04:00,ZJHK 180400Z 04005MPS 010V070 CAVOK 28/24 Q1008 NOSIG
ZJHK,2016-09-18 05:00,ZJHK 180500Z 04005MPS 010V070 CAVOK 30/23 Q1007 NOSIG
ZJHK,2016-09-18 06:00,ZJHK 180600Z 03005MPS 360V070 CAVOK 29/22 Q1007 NOSIG
ZJHK,2016-09-18 07:00,ZJHK 180700Z 03004MPS 010V070 CAVOK 29/22 Q1006 NOSIG
ZJHK,2016-09-18 08:00,ZJHK 180800Z 04003MPS 020V080 CAVOK 28/22 Q1006 NOSIG
ZJHK,2016-09-18 09:00,ZJHK 180900Z 08003MPS 040V110 CAVOK 29/22 Q1005 NOSIG
ZJHK,2016-09-18 10:00,ZJHK 181000Z 05003MPS 020V080 CAVOK 28/22 Q1005 NOSIG
ZJHK,2016-09-18 11:00,ZJHK 181100Z 08002MPS CAVOK 28/20 Q1006 NOSIG
ZJHK,2016-09-18 12:00,ZJHK 181200Z 00000MPS CAVOK 27/22 Q1006 NOSIG
ZJHK,2016-09-18 13:00,ZJHK 181300Z 14001MPS CAVOK 26/23 Q1007 NOSIG
ZJHK,2016-09-18 14:00,ZJHK 181400Z 16001MPS CAVOK 26/23 Q1008 NOSIG
ZJHK,2016-09-18 15:00,ZJHK 181500Z 24001MPS CAVOK 26/23 Q1008 NOSIG
ZJHK,2016-09-18 16:00,ZJHK 181600Z 22001MPS CAVOK 25/23 Q1008 NOSIG
ZJHK,2016-09-18 17:00,ZJHK 181700Z 22001MPS 9999 SCT046 25/23 Q1008 NOSIG
ZJHK,2016-09-18 18:00,ZJHK 181800Z 29001MPS 9999 SCT046 25/23 Q1007 NOSIG
ZJHK,2016-09-18 19:00,ZJHK 181900Z 27001MPS CAVOK 25/23 Q1007 NOSIG
ZJHK,2016-09-18 20:00,ZJHK 182000Z 30001MPS CAVOK 25/23 Q1006 NOSIG
ZJHK,2016-09-18 21:00,ZJHK 182100Z 21001MPS CAVOK 24/23 Q1007 NOSIG
ZJHK,2016-09-18 22:00,ZJHK 182200Z 25001MPS CAVOK 24/23 Q1007 NOSIG
ZJHK,2016-09-18 23:00,ZJHK 182300Z 27001MPS CAVOK 25/23 Q1007 NOSIG
ZJHK,2016-09-19 00:00,ZJHK 190000Z 27001MPS CAVOK 26/23 Q1008 NOSIG
ZJHK,2016-09-19 01:00,ZJHK 190100Z 01002MPS CAVOK 28/24 Q1008 NOSIG
ZJHK,2016-09-19 02:00,ZJHK 190200Z 04003MPS 360V080 9999 BKN016 29/23 Q1008 NOSIG
ZJHK,2016-09-19 03:00,ZJHK 190300Z 03005MPS 340V090 9999 SCT016 31/23 Q1008 NOSIG
ZJHK,2016-09-19 04:00,ZJHK 190400Z 03005MPS 010V070 9999 FEW016 31/22 Q1008 NOSIG
ZJHK,2016-09-19 05:00,ZJHK 190500Z 04005MPS 360V080 9999 FEW020 32/22 Q1007 NOSIG
ZJHK,2016-09-19 06:00,ZJHK 190600Z 04005MPS 010V070 9999 FEW026 31/22 Q1006 NOSIG
ZJHK,2016-09-19 07:00,ZJHK 190700Z 03005MPS 360V060 9999 FEW026 31/22 Q1006 NOSIG
ZJHK,2016-09-19 08:00,ZJHK 190800Z 04006MPS 9999 FEW026 30/22 Q1006 NOSIG
ZJHK,2016-09-19 09:00,ZJHK 190900Z 06004MPS 030V090 CAVOK 29/22 Q1006 NOSIG
ZJHK,2016-09-19 10:00,ZJHK 191000Z 06004MPS CAVOK 28/22 Q1006 NOSIG
ZJHK,2016-09-19 11:00,ZJHK 191100Z 07004MPS CAVOK 27/22 Q1006 NOSIG
ZJHK,2016-09-19 12:00,ZJHK 191200Z 09003MPS 070V140 CAVOK 27/23 Q1007 NOSIG
ZJHK,2016-09-19 13:00,ZJHK 191300Z 11002MPS CAVOK 26/23 Q1008 NOSIG
ZJHK,2016-09-19 14:00,ZJHK 191400Z 07002MPS CAVOK 26/23 Q1008 NOSIG
ZJHK,2016-09-19 15:00,ZJHK 191500Z 18001MPS CAVOK 25/23 Q1009 NOSIG
ZJHK,2016-09-19 16:00,ZJHK 191600Z 14001MPS CAVOK 25/23 Q1009 NOSIG
ZJHK,2016-09-19 17:00,ZJHK 191700Z 14001MPS CAVOK 24/23 Q1009 NOSIG
ZJHK,2016-09-19 18:00,ZJHK 191800Z 03001MPS CAVOK 25/23 Q1008 NOSIG
ZJHK,2016-09-19 19:00,ZJHK 191900Z 31001MPS 6000 NSC 24/23 Q1008 NOSIG
ZJHK,2016-09-19 20:00,ZJHK 192000Z 31001MPS 6000 NSC 25/23 Q1008 NOSIG
ZJHK,2016-09-19 21:00,ZJHK 192100Z 05003MPS 6000 NSC 26/24 Q1008 NOSIG
ZJHK,2016-09-19 22:00,ZJHK 192200Z 06003MPS 9999 FEW013 26/24 Q1008 NOSIG
ZJHK,2016-09-19 23:00,ZJHK 192300Z 05003MPS 010V100 9999 FEW013 27/23 Q1009 NOSIG
ZJHK,2016-09-20 00:00,ZJHK 200000Z 05005MPS 9999 FEW017 27/23 Q1009 NOSIG
ZJHK,2016-09-20 01:00,ZJHK 200100Z 06005MPS CAVOK 28/22 Q1010 NOSIG
ZJHK,2016-09-20 02:00,ZJHK 200200Z 07007MPS 9999 SCT020 29/23 Q1010 NOSIG
ZJHK,2016-09-20 03:00,ZJHK 200300Z 07006MPS 040V100 8000 SCT020 FEW046CB BKN046 28/23 Q1011 NOSIG
ZJHK,2016-09-20 04:00,ZJHK 200400Z VRB05MPS 8000 SCT020 FEW030TCU BKN046 28/23 Q1010 NOSIG
ZJHK,2016-09-20 05:00,ZJHK 200500Z 07007MPS 9999 BKN020 FEW023TCU 28/24 Q1010 NOSIG
ZJHK,2016-09-20 06:00,ZJHK 200600Z 08006MPS 050V110 9999 -SHRA BKN015 FEW023CB 27/24 Q1009 NOSIG
ZJHK,2016-09-20 07:00,ZJHK 200700Z 07009MPS 9999 FEW015 28/24 Q1009 NOSIG
ZJHK,2016-09-20 08:00,ZJHK 200800Z 08008MPS 9999 FEW020TCU SCT020 27/23 Q1009 NOSIG
ZJHK,2016-09-20 09:00,ZJHK 200900Z 07007MPS 040V100 9999 FEW023TCU SCT023 SCT040 28/23 Q1009 NOSIG
ZJHK,2016-09-20 10:00,ZJHK 201000Z 07008MPS 9999 FEW023 27/23 Q1009 NOSIG
ZJHK,2016-09-20 11:00,ZJHK 201100Z 07008MPS 9999 FEW020 27/23 Q1009 NOSIG
ZJHK,2016-09-20 12:00,ZJHK 201200Z 07008MPS 9999 FEW020 27/23 Q1010 NOSIG
ZJHK,2016-09-20 13:00,ZJHK 201300Z 07006MPS 030V090 9999 FEW020 27/23 Q1011 NOSIG
ZJHK,2016-09-20 14:00,ZJHK 201400Z 06005MPS 9999 BKN023 27/23 Q1012 NOSIG
ZJHK,2016-09-20 15:00,ZJHK 201500Z 06006MPS 8000 -SHRA FEW023CB BKN030 27/23 Q1011 NOSIG
ZJHK,2016-09-20 16:00,ZJHK 201600Z 07008G15MPS 7000 -SHRA FEW023CB BKN030 26/23 Q1011 NOSIG
ZJHK,2016-09-20 17:00,ZJHK 201700Z 05004MPS 8000 FEW023TCU SCT030 25/23 Q1011 NOSIG
ZJHK,2016-09-20 18:00,ZJHK 201800Z 05005MPS 8000 SCT026 26/23 Q1011 NOSIG
ZJHK,2016-09-20 19:00,ZJHK 201900Z 06007MPS 8000 SCT026 26/23 Q1011 NOSIG
ZJHK,2016-09-20 20:00,ZJHK 202000Z 06006MPS 8000 NSC 26/23 Q1011 NOSIG
ZJHK,2016-09-20 21:00,ZJHK 202100Z 05005MPS 8000 NSC 26/22 Q1010 NOSIG
ZJHK,2016-09-20 22:00,ZJHK 202200Z 06005MPS 8000 NSC 26/22 Q1011 NOSIG
ZJHK,2016-09-20 23:00,ZJHK 202300Z 06006MPS 9999 SCT026 27/22 Q1011 NOSIG
ZJHK,2016-09-21 00:00,ZJHK 210000Z 07008MPS 9999 FEW026TCU SCT033 27/22 Q1012 NOSIG
ZJHK,2016-09-21 01:00,ZJHK 210100Z 07008MPS 9999 FEW026TCU 27/22 Q1013 NOSIG
ZJHK,2016-09-21 02:00,ZJHK 210200Z 06008G13MPS 9999 FEW016 FEW026TCU BKN043 27/22 Q1013 NOSIG
ZJHK,2016-09-21 03:00,ZJHK 210300Z 07008MPS 9999 FEW016 FEW026TCU BKN043 28/23 Q1013 NOSIG
ZJHK,2016-09-21 04:00,ZJHK 210400Z 08008MPS 9999 FEW016 FEW026TCU BKN043 27/22 Q1013 BECMG AT0520 SHRA
ZJHK,2016-09-21 05:00,ZJHK 210500Z 11006MPS 080V140 6000 -SHRA SCT010 FEW026CB BKN033 24/23 Q1013 RESHRA NOSIG
ZJHK,2016-09-21 06:00,ZJHK 210600Z 13002MPS 9999 FEW010 FEW026CB BKN040 24/23 Q1013 NOSIG
ZJHK,2016-09-21 07:00,ZJHK 210700Z 06003MPS 030V090 9999 FEW026CB SCT040 26/24 Q1011 NOSIG
ZJHK,2016-09-21 08:00,ZJHK 210800Z 06003MPS 9999 FEW023CB SCT040 26/23 Q1011 NOSIG
ZJHK,2016-09-21 09:00,ZJHK 210900Z 08005MPS 9999 FEW030CB 25/23 Q1011 NOSIG
ZJHK,2016-09-21 10:00,ZJHK 211000Z 07003MPS CAVOK 25/22 Q1011 NOSIG
ZJHK,2016-09-21 11:00,ZJHK 211100Z 07004MPS 9999 SCT016 SCT040 25/23 Q1011 NOSIG
ZJHK,2016-09-21 12:00,ZJHK 211200Z 08004MPS 050V110 9999 SCT016 SCT046 25/23 Q1012 NOSIG
ZJHK,2016-09-21 13:00,ZJHK 211300Z 06005MPS CAVOK 26/23 Q1013 NOSIG
ZJHK,2016-09-21 14:00,ZJHK 211400Z 10006MPS 9999 SCT012 24/23 Q1013 NOSIG
ZJHK,2016-09-21 15:00,ZJHK 211500Z 10005MPS 9999 FEW012 FEW023TCU 23/22 Q1014 NOSIG
ZJHK,2016-09-21 16:00,ZJHK 211600Z 11004MPS 7000 -SHRA BKN013 FEW023TCU BKN040 22/21 Q1013 BECMG TL1630 SCT020
ZJHK,2016-09-21 17:00,ZJHK 211700Z 11004MPS 9999 FEW016 FEW023TCU BKN040 23/22 Q1013 NOSIG
ZJHK,2016-09-21 18:00,ZJHK 211800Z 11002MPS 8000 FEW030TCU 23/22 Q1012 NOSIG
ZJHK,2016-09-21 19:00,ZJHK 211900Z 00000MPS 8000 NSC 23/22 Q1011 NOSIG
ZJHK,2016-09-21 20:00,ZJHK 212000Z 30001MPS 8000 NSC 23/22 Q1011 NOSIG
ZJHK,2016-09-21 21:00,ZJHK 212100Z 00000MPS 8000 NSC 23/22 Q1011 NOSIG
ZJHK,2016-09-21 22:00,ZJHK 212200Z 05001MPS 8000 FEW033TCU SCT040 24/23 Q1011 NOSIG
ZJHK,2016-09-21 23:00,ZJHK 212300Z 06003MPS 8000 FEW033TCU SCT040 25/22 Q1011 NOSIG
ZJHK,2016-09-22 00:00,ZJHK 220000Z 06002MPS 030V090 8000 SCT040 26/23 Q1011 NOSIG
ZJHK,2016-09-22 01:00,ZJHK 220100Z 08005MPS CAVOK 27/24 Q1012 NOSIG
ZJHK,2016-09-22 02:00,ZJHK 220200Z 07006MPS 9999 FEW030TCU SCT046 28/23 Q1012 BECMG AT0300 SHRA
ZJHK,2016-09-22 03:00,ZJHK 220300Z 12005G11MPS 070V150 8000 SHRA SCT010 FEW033CB BKN033 26/24 Q1012 BECMG AT0330 NSW
ZJHK,2016-09-22 04:00,ZJHK 220400Z 06006MPS 9999 -SHRA FEW046CB SCT046 25/24 Q1012 RESHRA NOSIG
ZJHK,2016-09-22 05:00,ZJHK 220500Z 06006MPS 9999 FEW046CB SCT046 27/24 Q1011 NOSIG
ZJHK,2016-09-22 06:00,ZJHK 220600Z 07006MPS 9999 FEW013 FEW033CB BKN040 27/24 Q1010 BECMG AT0620 SHRA
ZJHK,2016-09-22 07:00,ZJHK 220700Z 10003MPS 070V130 7000 -SHRA FEW016 FEW033CB BKN040 26/24 Q1010 RESHRA NOSIG
ZJHK,2016-09-22 08:00,ZJHK 220800Z 09004MPS 9999 FEW033CB BKN040 26/23 Q1010 BECMG AT0810 SHRA
ZJHK,2016-09-22 09:00,ZJHK 220900Z 19002MPS 7000 -SHRA FEW011 FEW023CB SCT033 24/23 Q1010 RESHRA NOSIG
ZJHK,2016-09-22 10:00,ZJHK 221000Z 22001MPS 7000 -SHRA FEW023CB BKN033 24/24 Q1010 NOSIG
ZJHK,2016-09-22 11:00,ZJHK 221100Z 16001MPS 7000 -SHRA FEW007 FEW023CB BKN033 24/24 Q1011 BECMG AT1240 BKN007 BKN030
ZJHK,2016-09-22 12:00,ZJHK 221200Z 08002MPS 9999 FEW007 FEW023CB SCT033 24/23 Q1011 BECMG AT1240 BKN007 BKN030
ZJHK,2016-09-22 13:00,ZJHK 221300Z 05003MPS 9999 BKN007 FEW023TCU SCT033 24/23 Q1011 BECMG AT1350 BKN030
ZJHK,2016-09-22 14:00,ZJHK 221400Z 12002MPS 9999 -SHRA FEW023TCU SCT040 23/23 Q1012 NOSIG
ZJHK,2016-09-22 15:00,ZJHK 221500Z 13001MPS 9999 -SHRA SCT010 FEW023TCU SCT040 23/23 Q1011 NOSIG
ZJHK,2016-09-22 16:00,ZJHK 221600Z 10001MPS 9999 FEW010 23/23 Q1011 NOSIG
ZJHK,2016-09-22 17:00,ZJHK 221700Z 10001MPS CAVOK 23/23 Q1010 NOSIG
ZJHK,2016-09-22 18:00,ZJHK 221800Z 07001MPS 9999 FEW030TCU 23/23 Q1010 NOSIG
ZJHK,2016-09-22 19:00,ZJHK 221900Z 00000MPS 9999 FEW012 BKN033 22/22 Q1010 NOSIG
ZJHK,2016-09-22 20:00,ZJHK 222000Z 10002MPS 9999 BKN030 24/23 Q1009 NOSIG
ZJHK,2016-09-22 21:00,ZJHK 222100Z 11002MPS 9999 BKN030 24/23 Q1009 NOSIG
ZJHK,2016-09-22 22:00,ZJHK 222200Z 11002MPS 9999 BKN030 24/23 Q1009 NOSIG
ZJHK,2016-09-22 23:00,ZJHK 222300Z 14002MPS 9999 FEW030CB SCT030 24/23 Q1009 NOSIG
ZJHK,2016-09-23 00:00,ZJHK 230000Z 12002MPS 9999 FEW030TCU BKN030 25/24 Q1010 NOSIG
ZJHK,2016-09-23 01:00,ZJHK 230100Z 12003MPS 9999 FEW030TCU BKN030 24/23 Q1011 NOSIG
ZJHK,2016-09-23 02:00,ZJHK 230200Z 11002MPS 9999 -SHRA FEW030TCU BKN030 24/23 Q1011 NOSIG
ZJHK,2016-09-23 03:00,ZJHK 230300Z 13002MPS 9999 -SHRA FEW006 FEW030TCU BKN030 23/23 Q1011 NOSIG
ZJHK,2016-09-23 04:00,ZJHK 230400Z 10001MPS 9999 -SHRA FEW006 FEW030TCU BKN030 24/23 Q1010 NOSIG
ZJHK,2016-09-23 05:00,ZJHK 230500Z 11002MPS 9999 -SHRA FEW006 FEW030TCU BKN030 24/23 Q1010 NOSIG
ZJHK,2016-09-23 06:00,ZJHK 230600Z 11002MPS 9999 -SHRA FEW006 FEW030TCU BKN040 25/24 Q1009 NOSIG
ZJHK,2016-09-23 07:00,ZJHK 230700Z 10003MPS 080V140 9999 -SHRA FEW006 FEW030TCU BKN046 26/24 Q1008 NOSIG
ZJHK,2016-09-23 08:00,ZJHK 230800Z 11003MPS 080V140 9999 FEW010 FEW023TCU SCT046 26/24 Q1008 NOSIG
ZJHK,2016-09-23 09:00,ZJHK 230900Z 12003MPS 9999 -SHRA FEW010 FEW026CB SCT046 25/23 Q1009 NOSIG
ZJHK,2016-09-23 10:00,ZJHK 231000Z 11003MPS 9999 -SHRA FEW023 FEW046TCU SCT046 24/23 Q1009 NOSIG
ZJHK,2016-09-23 11:00,ZJHK 231100Z 09003MPS CAVOK 23/23 Q1008 NOSIG
ZJHK,2016-09-23 12:00,ZJHK 231200Z 09003MPS CAVOK 23/23 Q1008 NOSIG
ZJHK,2016-09-23 13:00,ZJHK 231300Z 12001MPS CAVOK 23/23 Q1009 NOSIG
ZJHK,2016-09-23 14:00,ZJHK 231400Z 22001MPS CAVOK 23/23 Q1010 NOSIG
ZJHK,2016-09-23 15:00,ZJHK 231500Z 21001MPS 9999 FEW013 23/23 Q1010 NOSIG
ZJHK,2016-09-23 16:00,ZJHK 231600Z 23001MPS 9999 FEW013 23/23 Q1010 NOSIG
ZJHK,2016-09-23 17:00,ZJHK 231700Z 00000MPS 9999 FEW018 23/22 Q1010 NOSIG
ZJHK,2016-09-23 18:00,ZJHK 231800Z 16001MPS 7000 -SHRA SCT016 FEW033TCU SCT040 23/23 Q1009 NOSIG
ZJHK,2016-09-23 19:00,ZJHK 231900Z 13001MPS CAVOK 23/23 Q1008 NOSIG
ZJHK,2016-09-23 20:00,ZJHK 232000Z 00000MPS CAVOK 23/23 Q1008 NOSIG
ZJHK,2016-09-23 21:00,ZJHK 232100Z 09001MPS CAVOK 23/23 Q1008 NOSIG
ZJHK,2016-09-23 22:00,ZJHK 232200Z 00000MPS CAVOK 23/23 Q1008 NOSIG
ZJHK,2016-09-23 23:00,ZJHK 232300Z 00000MPS CAVOK 23/23 Q1009 NOSIG
ZJHK,2016-09-24 00:00,ZJHK 240000Z 10001MPS 9999 FEW023 24/23 Q1009 NOSIG
ZJHK,2016-09-24 01:00,ZJHK 240100Z 10003MPS 080V140 9999 FEW023 27/24 Q1010 NOSIG
ZJHK,2016-09-24 02:00,ZJHK 240200Z 15004MPS 090V200 9999 FEW026CB SCT026 BKN040 26/23 Q1010 BECMG AT0210 SHRA
ZJHK,2016-09-24 03:00,ZJHK 240300Z 19001MPS 9999 FEW010 FEW026CB BKN040 25/24 Q1010 RESHRA NOSIG
ZJHK,2016-09-24 04:00,ZJHK 240400Z 01002MPS 9999 FEW026CB SCT040 26/25 Q1010 NOSIG
ZJHK,2016-09-24 05:00,ZJHK 240500Z 05002MPS 020V080 9999 -SHRA FEW026CB SCT040 25/23 Q1009 NOSIG
ZJHK,2016-09-24 06:00,ZJHK 240600Z 05003MPS 020V080 9999 -SHRA FEW026CB SCT040 25/24 Q1008 NOSIG
ZJHK,2016-09-24 07:00,ZJHK 240700Z 07005MPS 9999 -SHRA FEW026TCU SCT040 24/23 Q1008 NOSIG
ZJHK,2016-09-24 08:00,ZJHK 240800Z 07003MPS 9999 -SHRA FEW026TCU SCT040 24/23 Q1008 NOSIG
ZJHK,2016-09-24 09:00,ZJHK 240900Z 07003MPS 9999 FEW026TCU SCT040 25/23 Q1007 NOSIG
ZJHK,2016-09-24 10:00,ZJHK 241000Z 08003MPS 9999 FEW026TCU SCT040 25/24 Q1007 NOSIG
ZJHK,2016-09-24 11:00,ZJHK 241100Z 13001MPS 9999 FEW026TCU 24/24 Q1008 NOSIG
ZJHK,2016-09-24 12:00,ZJHK 241200Z 14001MPS CAVOK 24/23 Q1008 NOSIG
ZJHK,2016-09-24 13:00,ZJHK 241300Z 12002MPS CAVOK 24/23 Q1008 NOSIG
ZJHK,2016-09-24 14:00,ZJHK 241400Z 11001MPS CAVOK 24/24 Q1009 NOSIG
ZJHK,2016-09-24 15:00,ZJHK 241500Z 20001MPS 8000 NSC 24/23 Q1009 NOSIG
ZJHK,2016-09-24 16:00,ZJHK 241600Z 18001MPS 3000 BR BCFG FEW026 23/23 Q1009 NOSIG
ZJHK,2016-09-24 17:00,ZJHK 241700Z 20001MPS 8000 FEW026 23/23 Q1009 NOSIG
ZJHK,2016-09-24 18:00,ZJHK 241800Z 30001MPS 3000 R09/0900 BR BCFG NSC 23/23 Q1008 NOSIG
ZJHK,2016-09-24 19:00,ZJHK 241900Z 29001MPS 3000 R09/0450 BR BCFG FEW010 22/22 Q1008 NOSIG
ZJHK,2016-09-24 20:00,ZJHK 242000Z 28001MPS 3000 R09/0800D BR BCFG NSC 23/23 Q1008 NOSIG
ZJHK,2016-09-24 21:00,ZJHK 242100Z 00000MPS 3000 R09/0650N BR BCFG FEW006 23/23 Q1007 NOSIG
ZJHK,2016-09-24 22:00,ZJHK 242200Z 08001MPS 3000 BR BCFG FEW010 FEW023TCU 23/23 Q1008 NOSIG
ZJHK,2016-09-24 23:00,ZJHK 242300Z 12001MPS 4500 BR BCFG FEW023TCU FEW023 23/23 Q1009 NOSIG
ZJHK,2016-09-25 00:00,ZJHK 250000Z 09002MPS 8000 -SHRA FEW023TCU FEW023 24/24 Q1010 NOSIG
ZJHK,2016-09-25 01:00,ZJHK 250100Z 11001MPS 8000 -SHRA FEW023TCU FEW023 BKN046 24/24 Q1011 NOSIG
ZJHK,2016-09-25 02:00,ZJHK 250200Z 11002MPS 9999 -SHRA FEW023TCU BKN040 25/24 Q1011 NOSIG
ZJHK,2016-09-25 03:00,ZJHK 250300Z 10003MPS 9999 -SHRA FEW023TCU FEW023 BKN046 25/24 Q1011 NOSIG
ZJHK,2016-09-25 04:00,ZJHK 250400Z 09003MPS 050V120 CAVOK 27/24 Q1010 NOSIG
ZJHK,2016-09-25 05:00,ZJHK 250500Z 10004MPS 060V130 9999 FEW023 29/24 Q1009 NOSIG
ZJHK,2016-09-25 06:00,ZJHK 250600Z 07005MPS 030V090 9999 FEW023TCU FEW023 SCT033 29/24 Q1008 NOSIG
ZJHK,2016-09-25 07:00,ZJHK 250700Z 07005MPS 030V100 9999 FEW023TCU SCT023 30/23 Q1008 NOSIG
ZJHK,2016-09-25 08:00,ZJHK 250800Z 07006MPS 9999 FEW023 30/24 Q1007 NOSIG
ZJHK,2016-09-25 09:00,ZJHK 250900Z 08006MPS 9999 FEW023 29/23 Q1008 NOSIG
ZJHK,2016-09-25 10:00,ZJHK 251000Z 08005MPS 9999 FEW023 28/24 Q1008 NOSIG
ZJHK,2016-09-25 11:00,ZJHK 251100Z 11003MPS 9999 FEW023 26/24 Q1008 NOSIG
ZJHK,2016-09-25 12:00,ZJHK 251200Z 12001MPS 9999 FEW023 25/24 Q1009 NOSIG
ZJHK,2016-09-25 13:00,ZJHK 251300Z 08001MPS CAVOK 25/23 Q1009 NOSIG
ZJHK,2016-09-25 14:00,ZJHK 251400Z 12003MPS CAVOK 25/24 Q1009 NOSIG
ZJHK,2016-09-25 15:00,ZJHK 251500Z 15001MPS CAVOK 24/23 Q1009 NOSIG
ZJHK,2016-09-25 16:00,ZJHK 251600Z 15001MPS 8000 NSC 24/23 Q1008 NOSIG
ZJHK,2016-09-25 17:00,ZJHK 251700Z 20002MPS 8000 NSC 24/23 Q1008 NOSIG
ZJHK,2016-09-25 18:00,ZJHK 251800Z 22001MPS 8000 NSC 23/23 Q1008 NOSIG
ZJHK,2016-09-25 19:00,ZJHK 251900Z 25002MPS 8000 BCFG NSC 23/23 Q1008 NOSIG
ZJHK,2016-09-25 20:00,ZJHK 252000Z 28001MPS 5000 BR NSC 23/22 Q1008 NOSIG
ZJHK,2016-09-25 21:00,ZJHK 252100Z 00000MPS 5000 BR NSC 23/23 Q1008 NOSIG
ZJHK,2016-09-25 22:00,ZJHK 252200Z 35001MPS 3000 R09/0300 BR BCFG NSC 22/21 Q1008 NOSIG
ZJHK,2016-09-25 23:00,ZJHK 252300Z 36001MPS 2600 BR NSC 23/23 Q1008 NOSIG
ZJHK,2016-09-26 00:00,ZJHK 260000Z 01001MPS 5000 BR NSC 25/24 Q1009 NOSIG
ZJHK,2016-09-26 01:00,ZJHK 260100Z 06002MPS 9999 SCT013 27/24 Q1010 NOSIG
ZJHK,2016-09-26 02:00,ZJHK 260200Z 05002MPS 9999 SCT020 29/23 Q1010 NOSIG
ZJHK,2016-09-26 03:00,ZJHK 260300Z 08002MPS 010V150 9999 SCT020 29/23 Q1010 NOSIG
ZJHK,2016-09-26 04:00,ZJHK 260400Z 05002MPS 340V090 9999 SCT020 29/24 Q1009 NOSIG
ZJHK,2016-09-26 05:00,ZJHK 260500Z 02004MPS 340V050 9999 SCT020 29/24 Q1008 NOSIG
ZJHK,2016-09-26 06:00,ZJHK 260600Z 05003MPS 340V090 9999 SCT020 29/24 Q1007 NOSIG
ZJHK,2016-09-26 07:00,ZJHK 260700Z 05001MPS 9999 FEW030TCU 30/24 Q1007 NOSIG
ZJHK,2016-09-26 08:00,ZJHK 260800Z 05003MPS 010V080 9999 FEW020 30/24 Q1006 NOSIG
ZJHK,2016-09-26 09:00,ZJHK 260900Z 04004MPS 010V080 CAVOK 30/24 Q1006 NOSIG
ZJHK,2016-09-26 10:00,ZJHK 261000Z 06004MPS 030V090 CAVOK 28/24 Q1006 NOSIG
ZJHK,2016-09-26 11:00,ZJHK 261100Z 07004MPS 040V100 CAVOK 27/23 Q1006 NOSIG
ZJHK,2016-09-26 12:00,ZJHK 261200Z 11003MPS CAVOK 26/24 Q1007 NOSIG
ZJHK,2016-09-26 13:00,ZJHK 261300Z 13001MPS CAVOK 25/24 Q1008 NOSIG
ZJHK,2016-09-26 14:00,ZJHK 261400Z 22001MPS 7000 NSC 24/23 Q1008 NOSIG
ZJHK,2016-09-26 15:00,ZJHK 261500Z 20001MPS 7000 NSC 25/24 Q1008 NOSIG
ZJHK,2016-09-26 16:00,ZJHK 261600Z 24001MPS 7000 NSC 25/24 Q1008 NOSIG
ZJHK,2016-09-26 17:00,ZJHK 261700Z 24002MPS 5000 BR NSC 24/24 Q1007 NOSIG
ZJHK,2016-09-26 18:00,ZJHK 261800Z 26001MPS 5000 BR NSC 24/23 Q1007 NOSIG
ZJHK,2016-09-26 19:00,ZJHK 261900Z 26001MPS 5000 BR NSC 23/23 Q1006 NOSIG
ZJHK,2016-09-26 20:00,ZJHK 262000Z 24002MPS 5000 BR NSC 24/23 Q1006 NOSIG
ZJHK,2016-09-26 21:00,ZJHK 262100Z 23001MPS 6000 NSC 23/23 Q1006 NOSIG
ZJHK,2016-09-26 22:00,ZJHK 262200Z 25001MPS 6000 NSC 23/23 Q1006 NOSIG
ZJHK,2016-09-26 23:00,ZJHK 262300Z 24002MPS 6000 NSC 23/23 Q1007 NOSIG
ZJHK,2016-09-27 00:00,ZJHK 270000Z 26002MPS CAVOK 25/23 Q1007 NOSIG
ZJHK,2016-09-27 01:00,ZJHK 270100Z 28004MPS 250V310 CAVOK 27/25 Q1008 NOSIG
ZJHK,2016-09-27 02:00,ZJHK 270200Z 29005MPS 250V320 9999 FEW016 29/25 Q1008 NOSIG
ZJHK,2016-09-27 03:00,ZJHK 270300Z 31006MPS 9999 SCT020 30/24 Q1007 NOSIG
ZJHK,2016-09-27 04:00,ZJHK 270400Z 30006MPS 260V330 9999 SCT020 32/25 Q1007 NOSIG
ZJHK,2016-09-27 05:00,ZJHK 270500Z 30006MPS 9999 SCT020 31/25 Q1006 NOSIG
ZJHK,2016-09-27 06:00,ZJHK 270600Z 31006MPS 280V340 9999 FEW020 31/25 Q1004 NOSIG
ZJHK,2016-09-27 07:00,ZJHK 270700Z 31006MPS 9999 FEW020 31/24 Q1004 NOSIG
ZJHK,2016-09-27 08:00,ZJHK 270800Z 31006MPS CAVOK 31/24 Q1003 NOSIG
ZJHK,2016-09-27 09:00,ZJHK 270900Z 29006MPS 250V310 CAVOK 30/24 Q1003 NOSIG
ZJHK,2016-09-27 10:00,ZJHK 271000Z 28005MPS CAVOK 28/24 Q1004 NOSIG
ZJHK,2016-09-27 11:00,ZJHK 271100Z 28004MPS CAVOK 27/24 Q1003 NOSIG
ZJHK,2016-09-27 12:00,ZJHK 271200Z 28004MPS CAVOK 26/24 Q1004 NOSIG
ZJHK,2016-09-27 13:00,ZJHK 271300Z 26002MPS CAVOK 26/24 Q1005 NOSIG
ZJHK,2016-09-27 14:00,ZJHK 271400Z 26003MPS CAVOK 25/24 Q1005 NOSIG
ZJHK,2016-09-27 15:00,ZJHK 271500Z 25003MPS CAVOK 25/23 Q1005 NOSIG
ZJHK,2016-09-27 16:00,ZJHK 271600Z 25002MPS CAVOK 25/23 Q1005 NOSIG
ZJHK,2016-09-27 17:00,ZJHK 271700Z 26002MPS CAVOK 24/22 Q1004 NOSIG
ZJHK,2016-09-27 18:00,ZJHK 271800Z 26002MPS CAVOK 24/22 Q1004 NOSIG
ZJHK,2016-09-27 19:00,ZJHK 271900Z 27003MPS CAVOK 24/21 Q1003 NOSIG
ZJHK,2016-09-27 20:00,ZJHK 272000Z 27003MPS CAVOK 24/21 Q1003 NOSIG
ZJHK,2016-09-27 21:00,ZJHK 272100Z 26003MPS CAVOK 24/21 Q1003 NOSIG
ZJHK,2016-09-27 22:00,ZJHK 272200Z 26003MPS CAVOK 24/21 Q1003 NOSIG
ZJHK,2016-09-27 23:00,ZJHK 272300Z 27003MPS CAVOK 25/23 Q1004 NOSIG
ZJHK,2016-09-28 00:00,ZJHK 280000Z 28005MPS CAVOK 27/25 Q1004 NOSIG
ZJHK,2016-09-28 01:00,ZJHK 280100Z 29006MPS 9999 FEW012 28/25 Q1005 NOSIG
ZJHK,2016-09-28 02:00,ZJHK 280200Z 29007MPS 9999 SCT015 29/25 Q1005 NOSIG
ZJHK,2016-09-28 03:00,ZJHK 280300Z 29008MPS 9999 FEW015 31/26 Q1004 NOSIG
ZJHK,2016-09-28 04:00,ZJHK 280400Z 30007MPS 9999 SCT020 32/26 Q1004 NOSIG
ZJHK,2016-09-28 05:00,ZJHK 280500Z 30007MPS 9999 SCT015 32/26 Q1003 NOSIG
ZJHK,2016-09-28 06:00,ZJHK 280600Z 29007MPS 9999 FEW016 32/26 Q1002 NOSIG
ZJHK,2016-09-28 07:00,ZJHK 280700Z 29008MPS 9999 FEW020 31/26 Q1001 NOSIG
ZJHK,2016-09-28 08:00,ZJHK 280800Z 29008MPS 9000 NSC 31/25 Q1001 NOSIG
ZJHK,2016-09-28 09:00,ZJHK 280900Z 29006MPS 8000 FEW033 30/25 Q1001 NOSIG
ZJHK,2016-09-28 10:00,ZJHK 281000Z 27004MPS 7000 FEW033 29/25 Q1001 NOSIG
ZJHK,2016-09-28 11:00,ZJHK 281100Z 27003MPS 6000 FEW033 28/25 Q1002 NOSIG
ZJHK,2016-09-28 12:00,ZJHK 281200Z 27003MPS 6000 NSC 27/25 Q1002 NOSIG
ZJHK,2016-09-28 13:00,ZJHK 281300Z 26003MPS 6000 NSC 27/25 Q1003 NOSIG
ZJHK,2016-09-28 14:00,ZJHK 281400Z 26002MPS 5000 BR NSC 27/25 Q1004 NOSIG
ZJHK,2016-09-28 15:00,ZJHK 281500Z 24003MPS 5000 BR NSC 26/25 Q1004 NOSIG
ZJHK,2016-09-28 16:00,ZJHK 281600Z 26002MPS 5000 BR NSC 26/25 Q1004 NOSIG
ZJHK,2016-09-28 17:00,ZJHK 281700Z 28002MPS 5000 BR NSC 26/24 Q1003 NOSIG
ZJHK,2016-09-28 18:00,ZJHK 281800Z 31002MPS 6000 NSC 26/23 Q1003 NOSIG
ZJHK,2016-09-28 19:00,ZJHK 281900Z 32002MPS 7000 NSC 26/22 Q1003 NOSIG
ZJHK,2016-09-28 20:00,ZJHK 282000Z 34004MPS 8000 NSC 27/22 Q1002 NOSIG
ZJHK,2016-09-28 21:00,ZJHK 282100Z 32003MPS 8000 NSC 26/22 Q1003 NOSIG
ZJHK,2016-09-28 22:00,ZJHK 282200Z 32003MPS 8000 NSC 26/21 Q1003 NOSIG
ZJHK,2016-09-28 23:00,ZJHK 282300Z 33004MPS 8000 NSC 26/21 Q1004 NOSIG
ZJHK,2016-09-29 00:00,ZJHK 290000Z 34006MPS CAVOK 26/21 Q1004 NOSIG
ZJHK,2016-09-29 01:00,ZJHK 290100Z 35005MPS 310V010 CAVOK 27/21 Q1005 NOSIG
ZJHK,2016-09-29 02:00,ZJHK 290200Z 35004MPS CAVOK 28/21 Q1005 NOSIG
ZJHK,2016-09-29 03:00,ZJHK 290300Z 34005MPS CAVOK 28/21 Q1005 NOSIG
ZJHK,2016-09-29 04:00,ZJHK 290400Z 36003MPS 320V030 CAVOK 29/21 Q1005 NOSIG
ZJHK,2016-09-29 05:00,ZJHK 290500Z 34003MPS 290V030 9999 SCT046 30/21 Q1004 NOSIG
ZJHK,2016-09-29 06:00,ZJHK 290600Z 03003MPS 350V060 9999 SCT046 29/21 Q1004 NOSIG
ZJHK,2016-09-29 07:00,ZJHK 290700Z 06004MPS 030V090 9999 SCT046 30/21 Q1003 NOSIG
ZJHK,2016-09-29 08:00,ZJHK 290800Z 05004MPS 020V080 9999 BKN046 29/21 Q1003 NOSIG
ZJHK,2016-09-29 09:00,ZJHK 290900Z 04004MPS 010V070 9999 FEW020 28/21 Q1003 NOSIG
ZJHK,2016-09-29 10:00,ZJHK 291000Z 05003MPS 9999 SCT040 28/21 Q1003 NOSIG
ZJHK,2016-09-29 11:00,ZJHK 291100Z 03002MPS 360V070 9999 BKN040 28/22 Q1004 NOSIG
ZJHK,2016-09-29 12:00,ZJHK 291200Z 12002MPS 9999 BKN040 27/22 Q1005 NOSIG
ZJHK,2016-09-29 13:00,ZJHK 291300Z 15001MPS 9999 BKN046 26/23 Q1006 NOSIG
ZJHK,2016-09-29 14:00,ZJHK 291400Z 17001MPS 9999 BKN033 26/23 Q1006 NOSIG
ZJHK,2016-09-29 15:00,ZJHK 291500Z 35002MPS 9000 -SHRA FEW026TCU BKN030 25/23 Q1007 NOSIG
ZJHK,2016-09-29 16:00,ZJHK 291600Z 05001MPS 9999 FEW023TCU BKN023 BKN040 25/23 Q1007 NOSIG
ZJHK,2016-09-29 17:00,ZJHK 291700Z 06005MPS 8000 -SHRA FEW020TCU BKN020 BKN040 24/23 Q1007 NOSIG
ZJHK,2016-09-29 18:00,ZJHK 291800Z 07004MPS 9999 BKN020 OVC040 24/22 Q1006 NOSIG
ZJHK,2016-09-29 19:00,ZJHK 291900Z 10004MPS 9999 OVC030 23/22 Q1006 NOSIG
ZJHK,2016-09-29 20:00,ZJHK 292000Z 10002MPS 9999 BKN030 23/21 Q1006 NOSIG
ZJHK,2016-09-29 21:00,ZJHK 292100Z 13001MPS 9999 BKN030 23/22 Q1006 NOSIG
ZJHK,2016-09-29 22:00,ZJHK 292200Z 35002MPS 8000 BKN030 24/22 Q1007 NOSIG
ZJHK,2016-09-29 23:00,ZJHK 292300Z 36003MPS 330V050 6000 -SHRA FEW030TCU BKN030 23/22 Q1007 NOSIG
ZJHK,2016-09-30 00:00,ZJHK 300000Z 04003MPS 010V070 9999 FEW030TCU BKN040 23/21 Q1007 NOSIG
ZJHK,2016-09-30 01:00,ZJHK 300100Z 36002MPS 320V050 9999 FEW025TCU SCT025 BKN040 24/20 Q1008 NOSIG
ZJHK,2016-09-30 02:00,ZJHK 300200Z 36004MPS 320V030 9999 SCT025 BKN040 25/20 Q1008 NOSIG
ZJHK,2016-09-30 03:00,ZJHK 300300Z 36003MPS 330V040 9999 SCT025 BKN040 25/18 Q1008 NOSIG
ZJHK,2016-09-30 04:00,ZJHK 300400Z 35002MPS 300V030 9999 FEW025 BKN040 25/18 Q1008 NOSIG
ZJHK,2016-09-30 05:00,ZJHK 300500Z 03003MPS 360V070 9999 BKN040 25/18 Q1007 NOSIG
ZJHK,2016-09-30 06:00,ZJHK 300600Z 05004MPS 030V090 9999 BKN040 25/18 Q1006 NOSIG
ZJHK,2016-09-30 07:00,ZJHK 300700Z 06003MPS 020V080 9999 BKN046 25/18 Q1006 NOSIG
ZJHK,2016-09-30 08:00,ZJHK 300800Z 06003MPS 9999 BKN046 25/19 Q1006 NOSIG
ZJHK,2016-09-30 09:00,ZJHK 300900Z 07003MPS 9999 BKN046 25/19 Q1006 NOSIG
ZJHK,2016-09-30 10:00,ZJHK 301000Z 04002MPS 360V080 9999 BKN040 24/19 Q1006 NOSIG
ZJHK,2016-09-30 11:00,ZJHK 301100Z 07001MPS 9999 BKN046 24/20 Q1006 NOSIG
ZJHK,2016-09-30 12:00,ZJHK 301200Z 08002MPS 9999 BKN046 24/20 Q1007 NOSIG
ZJHK,2016-09-30 13:00,ZJHK 301300Z 12001MPS 9999 BKN046 24/21 Q1008 NOSIG
ZJHK,2016-09-30 14:00,ZJHK 301400Z 05002MPS 020V080 9999 BKN046 24/21 Q1008 NOSIG
ZJHK,2016-09-30 15:00,ZJHK 301500Z 07002MPS 9999 SCT030 BKN046 25/20 Q1009 NOSIG
ZJHK,2016-09-30 16:00,ZJHK 301600Z 17001MPS 9999 SCT040 23/21 Q1009 NOSIG
ZJHK,2016-09-30 17:00,ZJHK 301700Z 03001MPS CAVOK 24/21 Q1009 NOSIG
ZJHK,2016-09-30 18:00,ZJHK 301800Z 05002MPS CAVOK 24/21 Q1008 NOSIG
ZJHK,2016-09-30 19:00,ZJHK 301900Z 06002MPS CAVOK 24/20 Q1008 NOSIG
ZJHK,2016-09-30 20:00,ZJHK 302000Z 07002MPS 9999 BKN040 24/20 Q1008 NOSIG
ZJHK,2016-09-30 21:00,ZJHK 302100Z 03001MPS 9999 BKN046 24/20 Q1008 NOSIG
ZJHK,2016-09-30 22:00,ZJHK 302200Z 07003MPS CAVOK 24/21 Q1008 NOSIG
ZJHK,2016-09-30 23:00,ZJHK 302300Z 06003MPS 040V100 CAVOK 24/21 Q1008 NOSIG
ZJHK,2016-10-01 00:00,ZJHK 010000Z 07004MPS 9999 BKN040 25/21 Q1009 NOSIG
ZJHK,2016-10-01 01:00,ZJHK 010100Z 07004MPS 9999 BKN040 25/21 Q1010 NOSIG
ZJHK,2016-10-01 02:00,ZJHK 010200Z 06004MPS 030V090 9999 BKN040 26/21 Q1010 NOSIG
ZJHK,2016-10-01 03:00,ZJHK 010300Z 06003MPS 030V110 9999 SCT023 BKN040 27/21 Q1010 NOSIG
ZJHK,2016-10-01 04:00,ZJHK 010400Z 03003MPS 350V060 9999 SCT023 BKN046 27/21 Q1010 NOSIG
ZJHK,2016-10-01 05:00,ZJHK 010500Z 04004MPS 010V080 9999 SCT023 SCT033 28/21 Q1009 NOSIG
ZJHK,2016-10-01 06:00,ZJHK 010600Z 02004MPS 9999 SCT023 28/21 Q1008 NOSIG
ZJHK,2016-10-01 07:00,ZJHK 010700Z 02004MPS 350V070 9999 SCT023 BKN040 27/21 Q1008 NOSIG
ZJHK,2016-10-01 08:00,ZJHK 010800Z 05005MPS 9999 FEW033 27/21 Q1007 NOSIG
ZJHK,2016-10-01 09:00,ZJHK 010900Z 05005MPS 010V070 CAVOK 26/21 Q1007 NOSIG
ZJHK,2016-10-01 10:00,ZJHK 011000Z 05004MPS CAVOK 26/21 Q1008 NOSIG
ZJHK,2016-10-01 11:00,ZJHK 011100Z 05003MPS 020V080 CAVOK 25/21 Q1008 NOSIG
ZJHK,2016-10-01 12:00,ZJHK 011200Z 05003MPS 010V080 CAVOK 25/21 Q1009 NOSIG
ZJHK,2016-10-01 13:00,ZJHK 011300Z 07004MPS CAVOK 25/21 Q1009 NOSIG
ZJHK,2016-10-01 14:00,ZJHK 011400Z 06003MPS CAVOK 25/21 Q1010 NOSIG
ZJHK,2016-10-01 15:00,ZJHK 011500Z 04002MPS 8000 NSC 25/22 Q1010 NOSIG
ZJHK,2016-10-01 16:00,ZJHK 011600Z 03002MPS 5000 BR SCT017 BKN046 25/23 Q1010 NOSIG
ZJHK,2016-10-01 17:00,ZJHK 011700Z 05003MPS 010V140 6000 SCT017 BKN046 25/23 Q1009 NOSIG
ZJHK,2016-10-01 18:00,ZJHK 011800Z 04002MPS 360V060 6000 SCT015 FEW023CB BKN040 25/22 Q1009 NOSIG
ZJHK,2016-10-01 19:00,ZJHK 011900Z 10002MPS 6000 -SHRA SCT015 FEW023CB BKN033 24/24 Q1009 NOSIG
ZJHK,2016-10-01 20:00,ZJHK 012000Z 07002MPS 6000 -SHRA SCT015 FEW023TCU BKN033 24/23 Q1008 NOSIG
ZJHK,2016-10-01 21:00,ZJHK 012100Z 11001MPS 6000 FEW023TCU 23/23 Q1008 NOSIG
ZJHK,2016-10-01 22:00,ZJHK 012200Z 06002MPS 6000 FEW023TCU BKN033 24/24 Q1008 NOSIG
ZJHK,2016-10-01 23:00,ZJHK 012300Z 11002MPS 9999 FEW023TCU SCT033 24/23 Q1008 NOSIG
ZJHK,2016-10-02 00:00,ZJHK 020000Z 13002MPS 9999 FEW023TCU BKN046 24/24 Q1009 NOSIG
ZJHK,2016-10-02 01:00,ZJHK 020100Z 10003MPS 070V140 9999 FEW023TCU BKN046 26/24 Q1010 NOSIG
ZJHK,2016-10-02 02:00,ZJHK 020200Z 06004MPS 8000 -SHRA SCT010 FEW023CB BKN046 24/23 Q1010 RESHRA NOSIG
ZJHK,2016-10-02 03:00,ZJHK 020300Z 01001MPS 9999 SCT010 FEW023TCU BKN046 26/24 Q1010 NOSIG
ZJHK,2016-10-02 04:00,ZJHK 020400Z 06004MPS 030V110 9999 BKN046 28/24 Q1009 NOSIG
ZJHK,2016-10-02 05:00,ZJHK 020500Z 06005MPS 020V090 9999 FEW026TCU BKN046 30/25 Q1008 NOSIG
ZJHK,2016-10-02 06:00,ZJHK 020600Z 03004MPS 010V070 9999 FEW026TCU BKN046 27/24 Q1007 NOSIG
ZJHK,2016-10-02 07:00,ZJHK 020700Z 07005MPS 9999 FEW026CB BKN046 27/23 Q1007 NOSIG
ZJHK,2016-10-02 08:00,ZJHK 020800Z 07003MPS 9999 FEW026TCU BKN046 27/24 Q1007 NOSIG
ZJHK,2016-10-02 09:00,ZJHK 020900Z 08003MPS 9999 -SHRA FEW015 FEW026TCU BKN046 26/24 Q1007 NOSIG
ZJHK,2016-10-02 10:00,ZJHK 021000Z 08003MPS 7000 -SHRA FEW015 FEW026TCU BKN046 26/24 Q1007 NOSIG
ZJHK,2016-10-02 11:00,ZJHK 021100Z 07003MPS 040V100 7000 FEW026 26/24 Q1007 NOSIG
ZJHK,2016-10-02 12:00,ZJHK 021200Z 07002MPS 040V120 7000 NSC 26/24 Q1008 NOSIG
ZJHK,2016-10-02 13:00,ZJHK 021300Z 04002MPS 7000 NSC 25/24 Q1009 NOSIG
ZJHK,2016-10-02 14:00,ZJHK 021400Z 06001MPS 7000 NSC 25/24 Q1009 NOSIG
ZJHK,2016-10-02 15:00,ZJHK 021500Z 05002MPS 7000 NSC 25/24 Q1009 NOSIG
ZJHK,2016-10-02 16:00,ZJHK 021600Z 06002MPS 7000 NSC 25/24 Q1009 NOSIG
ZJHK,2016-10-02 17:00,ZJHK 021700Z 00000MPS 6000 BCFG NSC 23/23 Q1008 NOSIG
ZJHK,2016-10-02 18:00,ZJHK 021800Z 26001MPS 6000 NSC 24/23 Q1008 NOSIG
ZJHK,2016-10-02 19:00,ZJHK 021900Z 22001MPS 4000 BR NSC 23/23 Q1008 NOSIG
ZJHK,2016-10-02 20:00,ZJHK 022000Z 30001MPS 3000 BR BCFG NSC 23/23 Q1008 NOSIG
ZJHK,2016-10-02 21:00,ZJHK 022100Z 00000MPS 3000 BR BCFG NSC 23/23 Q1007 NOSIG
ZJHK,2016-10-02 22:00,ZJHK 022200Z 29001MPS 3000 R09/1400D BR BCFG FEW023TCU 23/23 Q1007 NOSIG
ZJHK,2016-10-02 23:00,ZJHK 022300Z 23001MPS 3000 R09/1400N BR BCFG FEW023TCU 24/24 Q1008 NOSIG
ZJHK,2016-10-03 00:00,ZJHK 030000Z 00000MPS 4500 BR FEW023TCU SCT033 25/25 Q1008 NOSIG
ZJHK,2016-10-03 01:00,ZJHK 030100Z 05002MPS 6000 FEW023TCU FEW023 26/24 Q1009 NOSIG
ZJHK,2016-10-03 02:00,ZJHK 030200Z 05003MPS 020V080 9999 BKN020 28/24 Q1009 NOSIG
ZJHK,2016-10-03 03:00,ZJHK 030300Z 05004MPS 020V090 9999 FEW020 28/24 Q1009 NOSIG
ZJHK,2016-10-03 04:00,ZJHK 030400Z 04004MPS 9999 FEW020 29/24 Q1008 NOSIG
ZJHK,2016-10-03 05:00,ZJHK 030500Z 04004MPS 010V080 9999 FEW020 29/24 Q1007 NOSIG
ZJHK,2016-10-03 06:00,ZJHK 030600Z 04004MPS 010V070 9999 SCT020 29/24 Q1006 NOSIG
ZJHK,2016-10-03 07:00,ZJHK 030700Z 05005MPS 020V080 9999 FEW020 30/24 Q1006 NOSIG
ZJHK,2016-10-03 08:00,ZJHK 030800Z 05005MPS 360V090 9999 FEW020 30/24 Q1006 NOSIG
ZJHK,2016-10-03 09:00,ZJHK 030900Z 08004MPS 040V110 9999 FEW020 29/23 Q1006 NOSIG
ZJHK,2016-10-03 10:00,ZJHK 031000Z 13002MPS 100V160 9999 FEW020 27/24 Q1006 NOSIG
ZJHK,2016-10-03 11:00,ZJHK 031100Z 19001MPS 9999 FEW020 26/24 Q1007 NOSIG
ZJHK,2016-10-03 12:00,ZJHK 031200Z 22001MPS 8000 FEW020 25/24 Q1007 NOSIG
ZJHK,2016-10-03 13:00,ZJHK 031300Z 24001MPS 8000 NSC 25/24 Q1008 NOSIG
ZJHK,2016-10-03 14:00,ZJHK 031400Z 23002MPS 200V260 7000 NSC 25/24 Q1008 NOSIG
ZJHK,2016-10-03 15:00,ZJHK 031500Z 23001MPS 7000 NSC 24/23 Q1008 NOSIG
ZJHK,2016-10-03 16:00,ZJHK 031600Z 31001MPS 7000 NSC 23/23 Q1008 NOSIG
ZJHK,2016-10-03 17:00,ZJHK 031700Z 25001MPS 6000 NSC 23/23 Q1007 NOSIG
ZJHK,2016-10-03 18:00,ZJHK 031800Z 26001MPS 6000 NSC 23/23 Q1007 NOSIG
ZJHK,2016-10-03 19:00,ZJHK 031900Z 27002MPS 6000 NSC 23/23 Q1007 NOSIG
ZJHK,2016-10-03 20:00,ZJHK 032000Z 26001MPS 5000 BR NSC 23/23 Q1007 NOSIG
ZJHK,2016-10-03 21:00,ZJHK 032100Z 00000MPS 5000 BR NSC 23/23 Q1007 NOSIG
ZJHK,2016-10-03 22:00,ZJHK 032200Z 00000MPS 5000 R09/1300D BR BCFG NSC 23/23 Q1007 NOSIG
ZJHK,2016-10-03 23:00,ZJHK 032300Z 00000MPS 3000 R09/1300N BR BCFG NSC 23/23 Q1007 NOSIG
ZJHK,2016-10-04 00:00,ZJHK 040000Z 23001MPS 3000 BR FEW012 25/24 Q1008 NOSIG
ZJHK,2016-10-04 01:00,ZJHK 040100Z 05002MPS 360V080 6000 SCT012 27/25 Q1008 NOSIG
ZJHK,2016-10-04 02:00,ZJHK 040200Z 03002MPS 360V060 8000 SCT016 28/25 Q1008 NOSIG
ZJHK,2016-10-04 03:00,ZJHK 040300Z 04003MPS 010V080 9999 FEW016 29/24 Q1008 NOSIG
ZJHK,2016-10-04 04:00,ZJHK 040400Z 05003MPS 350V100 9999 SCT016 29/24 Q1008 NOSIG
ZJHK,2016-10-04 05:00,ZJHK 040500Z 03003MPS 350V080 9999 FEW016 30/25 Q1006 NOSIG
ZJHK,2016-10-04 06:00,ZJHK 040600Z 04004MPS 360V070 9999 FEW016 30/24 Q1006 NOSIG
ZJHK,2016-10-04 07:00,ZJHK 040700Z 05004MPS 010V080 9999 FEW016 FEW030TCU 30/24 Q1005 NOSIG
ZJHK,2016-10-04 08:00,ZJHK 040800Z 04004MPS 9999 FEW016 FEW030CB 29/24 Q1005 NOSIG
ZJHK,2016-10-04 09:00,ZJHK 040900Z 12002MPS 9999 FEW030CB FEW046 28/24 Q1006 NOSIG
ZJHK,2016-10-04 10:00,ZJHK 041000Z 15002MPS 8000 -RA FEW023 27/25 Q1006 NOSIG
ZJHK,2016-10-04 11:00,ZJHK 041100Z 20001MPS 6000 NSC 26/25 Q1006 NOSIG
ZJHK,2016-10-04 12:00,ZJHK 041200Z 11002MPS 6000 NSC 26/24 Q1007 NOSIG
ZJHK,2016-10-04 13:00,ZJHK 041300Z 21001MPS 6000 NSC 25/25 Q1008 NOSIG
ZJHK,2016-10-04 14:00,ZJHK 041400Z 16001MPS 6000 NSC 25/24 Q1008 NOSIG
ZJHK,2016-10-04 15:00,ZJHK 041500Z 11001MPS 5000 BR NSC 25/24 Q1008 NOSIG
ZJHK,2016-10-04 16:00,ZJHK 041600Z 00000MPS 5000 BR NSC 25/24 Q1008 NOSIG
ZJHK,2016-10-04 17:00,ZJHK 041700Z 22001MPS 4000 BR BCFG NSC 24/24 Q1008 NOSIG
ZJHK,2016-10-04 18:00,ZJHK 041800Z 18001MPS 4000 BR BCFG NSC 24/24 Q1007 NOSIG
ZJHK,2016-10-04 19:00,ZJHK 041900Z 28002MPS 3000 BR BCFG FEW016 24/23 Q1007 NOSIG
ZJHK,2016-10-04 20:00,ZJHK 042000Z 24001MPS 3000 BR BCFG FEW016 24/24 Q1007 NOSIG
ZJHK,2016-10-04 21:00,ZJHK 042100Z 25001MPS 3000 BR BCFG FEW016 24/24 Q1007 NOSIG
ZJHK,2016-10-04 22:00,ZJHK 042200Z 25001MPS 3000 BR BCFG SCT016 24/24 Q1008 NOSIG
ZJHK,2016-10-04 23:00,ZJHK 042300Z 22001MPS 3000 R27/1400D BR BCFG FEW030CB SCT030 24/24 Q1008 NOSIG
ZJHK,2016-10-05 00:00,ZJHK 050000Z 36002MPS 7000 FEW015 FEW023CB SCT030 26/25 Q1008 NOSIG
ZJHK,2016-10-05 01:00,ZJHK 050100Z 03005MPS 9999 SCT015 FEW023CB 28/25 Q1009 NOSIG
ZJHK,2016-10-05 02:00,ZJHK 050200Z 04004MPS 010V070 9999 SCT015 FEW030CB 28/25 Q1009 NOSIG
ZJHK,2016-10-05 03:00,ZJHK 050300Z 05006MPS 010V080 9999 SCT015 FEW030CB 28/24 Q1009 NOSIG
ZJHK,2016-10-05 04:00,ZJHK 050400Z 06004MPS 9999 SCT015 FEW030CB 27/23 Q1008 NOSIG
ZJHK,2016-10-05 05:00,ZJHK 050500Z 05006MPS 020V080 9999 FEW020 FEW040CB 29/24 Q1007 NOSIG
ZJHK,2016-10-05 06:00,ZJHK 050600Z 05006MPS 9999 SCT020 FEW040CB 28/24 Q1007 NOSIG
ZJHK,2016-10-05 07:00,ZJHK 050700Z 06006MPS 9999 SCT020 FEW040CB 28/23 Q1006 NOSIG
ZJHK,2016-10-05 08:00,ZJHK 050800Z 08008MPS 9999 FEW020 FEW040CB 28/23 Q1006 NOSIG
ZJHK,2016-10-05 09:00,ZJHK 050900Z 08006MPS 9999 SCT020 FEW040TCU 27/23 Q1006 NOSIG
ZJHK,2016-10-05 10:00,ZJHK 051000Z 07004MPS 9999 SCT020 FEW040TCU 27/24 Q1006 NOSIG
ZJHK,2016-10-05 11:00,ZJHK 051100Z 09004MPS 060V120 9999 FEW020 26/23 Q1007 NOSIG
ZJHK,2016-10-05 12:00,ZJHK 051200Z 11002MPS CAVOK 25/23 Q1008 NOSIG
ZJHK,2016-10-05 13:00,ZJHK 051300Z 12002MPS CAVOK 24/23 Q1008 NOSIG
ZJHK,2016-10-05 14:00,ZJHK 051400Z 12001MPS CAVOK 24/23 Q1008 NOSIG
ZJHK,2016-10-05 15:00,ZJHK 051500Z 12001MPS CAVOK 24/23 Q1009 NOSIG
ZJHK,2016-10-05 16:00,ZJHK 051600Z 10002MPS CAVOK 25/23 Q1008 NOSIG
ZJHK,2016-10-05 17:00,ZJHK 051700Z 09002MPS CAVOK 24/23 Q1008 NOSIG
ZJHK,2016-10-05 18:00,ZJHK 051800Z 11001MPS CAVOK 24/23 Q1008 NOSIG
ZJHK,2016-10-05 19:00,ZJHK 051900Z 00000MPS 7000 SCT046 23/23 Q1007 NOSIG
ZJHK,2016-10-05 20:00,ZJHK 052000Z 31001MPS 7000 FEW046 24/23 Q1008 NOSIG
ZJHK,2016-10-05 21:00,ZJHK 052100Z 22001MPS 6000 NSC 24/23 Q1008 NOSIG
ZJHK,2016-10-05 22:00,ZJHK 052200Z 00000MPS 6000 NSC 23/23 Q1008 NOSIG
ZJHK,2016-10-05 23:00,ZJHK 052300Z 03002MPS 8000 FEW023TCU FEW023 25/23 Q1009 NOSIG
ZJHK,2016-10-06 00:00,ZJHK 060000Z 06003MPS 8000 FEW023TCU SCT023 26/24 Q1009 NOSIG
ZJHK,2016-10-06 01:00,ZJHK 060100Z 06005MPS 9999 FEW023TCU SCT023 27/24 Q1009 NOSIG
ZJHK,2016-10-06 02:00,ZJHK 060200Z 07006MPS 9999 FEW023TCU SCT023 28/23 Q1010 NOSIG
ZJHK,2016-10-06 03:00,ZJHK 060300Z 08008MPS 9999 FEW023TCU BKN023 29/23 Q1010 NOSIG
ZJHK,2016-10-06 04:00,ZJHK 060400Z 06008MPS 9999 -SHRA SCT013 FEW030CB 28/24 Q1009 NOSIG
ZJHK,2016-10-06 05:00,ZJHK 060500Z 09006MPS 9999 FEW016 FEW030CB 27/24 Q1009 NOSIG
ZJHK,2016-10-06 06:00,ZJHK 060600Z 08006MPS 9999 FEW016 FEW030CB 27/23 Q1008 NOSIG
ZJHK,2016-10-06 07:00,ZJHK 060700Z 09008MPS 9999 SCT016 FEW030CB 27/23 Q1008 BECMG AT0730 SHRA
ZJHK,2016-10-06 08:00,ZJHK 060800Z 09005MPS 9999 -SHRA SCT016 FEW030CB SCT046 25/24 Q1008 RESHRA NOSIG
ZJHK,2016-10-06 09:00,ZJHK 060900Z 07004MPS 9999 FEW016 25/24 Q1008 NOSIG
ZJHK,2016-10-06 10:00,ZJHK 061000Z 07003MPS 9999 FEW016 25/23 Q1008 NOSIG
ZJHK,2016-10-06 11:00,ZJHK 061100Z 10002MPS 070V130 9999 FEW016 25/23 Q1008 NOSIG
ZJHK,2016-10-06 12:00,ZJHK 061200Z 06002MPS CAVOK 25/23 Q1008 NOSIG
ZJHK,2016-10-06 13:00,ZJHK 061300Z 06002MPS CAVOK 25/24 Q1008 NOSIG
ZJHK,2016-10-06 14:00,ZJHK 061400Z 03002MPS 8000 NSC 25/23 Q1008 NOSIG
ZJHK,2016-10-06 15:00,ZJHK 061500Z 10001MPS 6000 NSC 24/23 Q1008 NOSIG
ZJHK,2016-10-06 16:00,ZJHK 061600Z 21001MPS 6000 NSC 23/23 Q1008 NOSIG
ZJHK,2016-10-06 17:00,ZJHK 061700Z 22001MPS 6000 BCFG NSC 23/23 Q1008 NOSIG
ZJHK,2016-10-06 18:00,ZJHK 061800Z 23001MPS 5000 BR BCFG NSC 23/23 Q1007 NOSIG
ZJHK,2016-10-06 19:00,ZJHK 061900Z 27001MPS 4500 BR BCFG NSC 23/22 Q1007 NOSIG
ZJHK,2016-10-06 20:00,ZJHK 062000Z 23001MPS 4500 BR NSC 23/23 Q1007 NOSIG
ZJHK,2016-10-06 21:00,ZJHK 062100Z 26001MPS 4500 BR NSC 23/23 Q1007 NOSIG
ZJHK,2016-10-06 22:00,ZJHK 062200Z 24002MPS 4500 BR NSC 23/23 Q1008 NOSIG
ZJHK,2016-10-06 23:00,ZJHK 062300Z 29001MPS 4500 BR FEW046 23/23 Q1008 NOSIG
ZJHK,2016-10-07 00:00,ZJHK 070000Z 30003MPS 4500 BR NSC 24/24 Q1009 NOSIG
ZJHK,2016-10-07 01:00,ZJHK 070100Z 35003MPS CAVOK 28/24 Q1009 NOSIG
ZJHK,2016-10-07 02:00,ZJHK 070200Z 36004MPS CAVOK 29/23 Q1009 NOSIG
ZJHK,2016-10-07 03:00,ZJHK 070300Z 35004MPS 320V020 9999 FEW023 30/23 Q1009 NOSIG
ZJHK,2016-10-07 04:00,ZJHK 070400Z 03003MPS 350V090 9999 FEW023 30/22 Q1008 NOSIG
ZJHK,2016-10-07 05:00,ZJHK 070500Z 03004MPS 320V090 9999 FEW023 31/23 Q1007 NOSIG
ZJHK,2016-10-07 06:00,ZJHK 070600Z 03004MPS 360V060 9999 FEW023 30/23 Q1007 NOSIG
ZJHK,2016-10-07 07:00,ZJHK 070700Z 06004MPS 030V130 CAVOK 30/22 Q1006 NOSIG
ZJHK,2016-10-07 08:00,ZJHK 070800Z 01003MPS 330V040 CAVOK 30/22 Q1006 NOSIG
ZJHK,2016-10-07 09:00,ZJHK 070900Z 01002MPS 340V040 CAVOK 29/22 Q1006 NOSIG
ZJHK,2016-10-07 10:00,ZJHK 071000Z 02002MPS 350V050 CAVOK 28/22 Q1006 NOSIG
ZJHK,2016-10-07 11:00,ZJHK 071100Z 04001MPS 7000 NSC 27/23 Q1007 NOSIG
ZJHK,2016-10-07 12:00,ZJHK 071200Z 25001MPS 7000 NSC 25/23 Q1007 NOSIG
ZJHK,2016-10-07 13:00,ZJHK 071300Z 21001MPS 6000 NSC 25/24 Q1008 NOSIG
ZJHK,2016-10-07 14:00,ZJHK 071400Z 16001MPS 6000 NSC 24/23 Q1008 NOSIG
ZJHK,2016-10-07 15:00,ZJHK 071500Z 21002MPS 6000 NSC 24/23 Q1008 NOSIG
ZJHK,2016-10-07 16:00,ZJHK 071600Z 23002MPS 5000 BR NSC 25/24 Q1008 NOSIG
ZJHK,2016-10-07 17:00,ZJHK 071700Z 25002MPS 5000 BR NSC 24/23 Q1008 NOSIG
ZJHK,2016-10-07 18:00,ZJHK 071800Z 25002MPS 5000 BR NSC 24/23 Q1008 NOSIG
ZJHK,2016-10-07 19:00,ZJHK 071900Z 25001MPS 5000 BR NSC 24/23 Q1008 NOSIG
ZJHK,2016-10-07 20:00,ZJHK 072000Z 24001MPS 5000 BR NSC 23/22 Q1007 NOSIG
ZJHK,2016-10-07 21:00,ZJHK 072100Z 25002MPS 5000 BR NSC 23/22 Q1008 NOSIG
ZJHK,2016-10-07 22:00,ZJHK 072200Z 23002MPS 5000 BR NSC 23/22 Q1008 NOSIG
ZJHK,2016-10-07 23:00,ZJHK 072300Z 25002MPS 5000 BR NSC 24/22 Q1009 NOSIG
ZJHK,2016-10-08 00:00,ZJHK 080000Z 27002MPS 6000 NSC 25/23 Q1009 NOSIG
ZJHK,2016-10-08 01:00,ZJHK 080100Z 29003MPS 260V330 6000 NSC 27/24 Q1009 NOSIG
ZJHK,2016-10-08 02:00,ZJHK 080200Z 32003MPS 300V360 7000 NSC 29/24 Q1009 NOSIG
ZJHK,2016-10-08 03:00,ZJHK 080300Z 02003MPS 350V060 9999 FEW020 30/24 Q1009 NOSIG
ZJHK,2016-10-08 04:00,ZJHK 080400Z 03003MPS 350V090 9999 SCT020 31/23 Q1008 NOSIG
ZJHK,2016-10-08 05:00,ZJHK 080500Z 03003MPS 330V100 9999 SCT020 31/23 Q1008 NOSIG
ZJHK,2016-10-08 06:00,ZJHK 080600Z 05003MPS 010V100 9999 FEW023 31/22 Q1006 NOSIG
ZJHK,2016-10-08 07:00,ZJHK 080700Z 04003MPS 360V090 9999 FEW023 32/23 Q1006 NOSIG
ZJHK,2016-10-08 08:00,ZJHK 080800Z 02004MPS 9999 FEW023 31/22 Q1005 NOSIG
ZJHK,2016-10-08 09:00,ZJHK 080900Z 05004MPS CAVOK 30/21 Q1006 NOSIG
ZJHK,2016-10-08 10:00,ZJHK 081000Z 04003MPS CAVOK 28/22 Q1006 NOSIG
ZJHK,2016-10-08 11:00,ZJHK 081100Z 12001MPS 9999 SCT040 27/23 Q1007 NOSIG
ZJHK,2016-10-08 12:00,ZJHK 081200Z 16001MPS 9999 FEW046 25/23 Q1008 NOSIG
ZJHK,2016-10-08 13:00,ZJHK 081300Z 23001MPS 7000 NSC 24/23 Q1009 NOSIG
ZJHK,2016-10-08 14:00,ZJHK 081400Z 21001MPS 7000 NSC 24/23 Q1009 NOSIG
ZJHK,2016-10-08 15:00,ZJHK 081500Z 23001MPS 6000 NSC 25/24 Q1009 NOSIG
ZJHK,2016-10-08 16:00,ZJHK 081600Z 24002MPS 6000 FEW040CB SCT046 25/24 Q1009 NOSIG
ZJHK,2016-10-08 17:00,ZJHK 081700Z 33002MPS 300V360 6000 FEW033CB BKN040 25/23 Q1008 NOSIG
ZJHK,2016-10-08 18:00,ZJHK 081800Z 12001MPS 6000 FEW033CB BKN046 24/23 Q1008 NOSIG
ZJHK,2016-10-08 19:00,ZJHK 081900Z 24002MPS 6000 FEW040CB 25/23 Q1008 NOSIG
ZJHK,2016-10-08 20:00,ZJHK 082000Z 32002MPS 5000 BR FEW026CB SCT040 24/23 Q1008 NOSIG
ZJHK,2016-10-08 21:00,ZJHK 082100Z 03002MPS 360V060 5000 BR FEW026CB SCT040 24/23 Q1008 NOSIG
ZJHK,2016-10-08 22:00,ZJHK 082200Z 10001MPS 7000 FEW026TCU SCT040 24/23 Q1008 NOSIG
ZJHK,2016-10-08 23:00,ZJHK 082300Z 08002MPS 020V120 9999 FEW040 25/23 Q1008 NOSIG
ZJHK,2016-10-09 00:00,ZJHK 090000Z 13001MPS CAVOK 25/24 Q1009 NOSIG
ZJHK,2016-10-09 01:00,ZJHK 090100Z 05003MPS 9999 FEW020 27/23 Q1009 NOSIG
ZJHK,2016-10-09 02:00,ZJHK 090200Z 05004MPS 020V080 9999 FEW020 FEW026TCU SCT026 28/22 Q1010 NOSIG
ZJHK,2016-10-09 03:00,ZJHK 090300Z 04005MPS 010V070 9999 SCT023 29/21 Q1009 NOSIG
ZJHK,2016-10-09 04:00,ZJHK 090400Z 04006MPS 010V080 9999 SCT023 30/21 Q1009 NOSIG
ZJHK,2016-10-09 05:00,ZJHK 090500Z 04005MPS 360V080 9999 SCT023 30/21 Q1009 NOSIG
ZJHK,2016-10-09 06:00,ZJHK 090600Z 05005MPS 010V090 9999 FEW023 30/21 Q1008 NOSIG
ZJHK,2016-10-09 07:00,ZJHK 090700Z 05005MPS 010V090 9999 FEW023 29/21 Q1007 NOSIG
ZJHK,2016-10-09 08:00,ZJHK 090800Z 06005MPS 9999 FEW023 29/21 Q1007 NOSIG
ZJHK,2016-10-09 09:00,ZJHK 090900Z 08006MPS 050V110 9999 SCT023 28/21 Q1007 NOSIG
ZJHK,2016-10-09 10:00,ZJHK 091000Z 08005MPS CAVOK 27/21 Q1007 NOSIG
ZJHK,2016-10-09 11:00,ZJHK 091100Z 08004MPS CAVOK 26/21 Q1008 NOSIG
ZJHK,2016-10-09 12:00,ZJHK 091200Z 08004MPS CAVOK 25/21 Q1008 NOSIG
ZJHK,2016-10-09 13:00,ZJHK 091300Z 09004MPS CAVOK 25/22 Q1009 NOSIG
ZJHK,2016-10-09 14:00,ZJHK 091400Z 05002MPS CAVOK 25/22 Q1010 NOSIG
ZJHK,2016-10-09 15:00,ZJHK 091500Z 19001MPS 9999 FEW020 24/22 Q1010 NOSIG
ZJHK,2016-10-09 16:00,ZJHK 091600Z 11002MPS 9999 FEW020 24/22 Q1009 NOSIG
ZJHK,2016-10-09 17:00,ZJHK 091700Z 06003MPS 020V080 8000 SCT017 25/22 Q1009 NOSIG
ZJHK,2016-10-09 18:00,ZJHK 091800Z 07003MPS 8000 BKN030 25/22 Q1009 NOSIG
ZJHK,2016-10-09 19:00,ZJHK 091900Z 05003MPS 8000 NSC 25/22 Q1008 NOSIG
ZJHK,2016-10-09 20:00,ZJHK 092000Z 06003MPS 8000 NSC 25/22 Q1008 NOSIG
ZJHK,2016-10-09 21:00,ZJHK 092100Z 07004MPS 8000 NSC 25/21 Q1008 NOSIG
ZJHK,2016-10-09 22:00,ZJHK 092200Z 06004MPS 8000 NSC 25/21 Q1009 NOSIG
ZJHK,2016-10-09 23:00,ZJHK 092300Z 06004MPS 8000 NSC 25/21 Q1009 NOSIG
ZJHK,2016-10-10 00:00,ZJHK 100000Z 06004MPS 8000 BKN033 25/21 Q1010 NOSIG
ZJHK,2016-10-10 01:00,ZJHK 100100Z 06006MPS 9999 SCT013 27/21 Q1010 NOSIG
ZJHK,2016-10-10 02:00,ZJHK 100200Z 06005MPS 9999 SCT020 BKN033 27/21 Q1011 NOSIG
ZJHK,2016-10-10 03:00,ZJHK 100300Z 08006MPS 9999 SCT020 BKN033 27/21 Q1011 NOSIG
ZJHK,2016-10-10 04:00,ZJHK 100400Z 07006MPS 030V090 9999 SCT020 BKN043 27/21 Q1010 NOSIG
ZJHK,2016-10-10 05:00,ZJHK 100500Z 07006MPS 040V100 9999 FEW020 28/21 Q1009 NOSIG
ZJHK,2016-10-10 06:00,ZJHK 100600Z 07005G10MPS 040V110 9999 SCT020 28/21 Q1008 NOSIG
ZJHK,2016-10-10 07:00,ZJHK 100700Z 08005MPS 040V110 9999 SCT020 28/21 Q1008 NOSIG
ZJHK,2016-10-10 08:00,ZJHK 100800Z 08005MPS 040V100 9999 FEW020 27/21 Q1008 NOSIG
ZJHK,2016-10-10 09:00,ZJHK 100900Z 08006MPS 9999 SCT023 27/21 Q1008 NOSIG
ZJHK,2016-10-10 10:00,ZJHK 101000Z 07005MPS 9999 SCT026 26/21 Q1008 NOSIG
ZJHK,2016-10-10 11:00,ZJHK 101100Z 08003MPS 9999 FEW026 25/21 Q1009 NOSIG
ZJHK,2016-10-10 12:00,ZJHK 101200Z 09003MPS CAVOK 24/21 Q1009 NOSIG
ZJHK,2016-10-10 13:00,ZJHK 101300Z 11002MPS CAVOK 23/21 Q1010 NOSIG
ZJHK,2016-10-10 14:00,ZJHK 101400Z 14001MPS CAVOK 23/21 Q1010 NOSIG
ZJHK,2016-10-10 15:00,ZJHK 101500Z 16001MPS CAVOK 22/21 Q1011 NOSIG
ZJHK,2016-10-10 16:00,ZJHK 101600Z 16001MPS CAVOK 22/21 Q1010 NOSIG
ZJHK,2016-10-10 17:00,ZJHK 101700Z 00000MPS 7000 NSC 22/21 Q1010 NOSIG
ZJHK,2016-10-10 18:00,ZJHK 101800Z 28001MPS 7000 NSC 22/21 Q1009 NOSIG
ZJHK,2016-10-10 19:00,ZJHK 101900Z 27001MPS 7000 NSC 21/21 Q1009 NOSIG
ZJHK,2016-10-10 20:00,ZJHK 102000Z 00000MPS 6000 NSC 21/21 Q1008 NOSIG
ZJHK,2016-10-10 21:00,ZJHK 102100Z 26001MPS 6000 NSC 21/21 Q1009 NOSIG
ZJHK,2016-10-10 22:00,ZJHK 102200Z 24001MPS 6000 SCT033 22/22 Q1009 NOSIG
ZJHK,2016-10-10 23:00,ZJHK 102300Z 04001MPS 6000 SCT033 23/21 Q1010 NOSIG
ZJHK,2016-10-11 00:00,ZJHK 110000Z 06004MPS 8000 SCT033 26/20 Q1011 NOSIG
ZJHK,2016-10-11 01:00,ZJHK 110100Z 06006MPS CAVOK 27/19 Q1011 NOSIG
ZJHK,2016-10-11 02:00,ZJHK 110200Z 06007MPS CAVOK 28/19 Q1011 NOSIG
ZJHK,2016-10-11 03:00,ZJHK 110300Z 05006MPS 020V080 9999 FEW020 28/20 Q1011 NOSIG
ZJHK,2016-10-11 04:00,ZJHK 110400Z 04006MPS 9999 FEW020 28/19 Q1010 NOSIG
ZJHK,2016-10-11 05:00,ZJHK 110500Z 04006MPS 360V070 CAVOK 28/20 Q1009 NOSIG
ZJHK,2016-10-11 06:00,ZJHK 110600Z 04005MPS 020V080 CAVOK 28/19 Q1009 NOSIG
ZJHK,2016-10-11 07:00,ZJHK 110700Z 04006MPS 010V070 9999 FEW020 28/20 Q1008 NOSIG
ZJHK,2016-10-11 08:00,ZJHK 110800Z 07006MPS 9999 FEW020 27/20 Q1008 NOSIG
ZJHK,2016-10-11 09:00,ZJHK 110900Z 07005MPS 040V100 9999 BKN030 26/20 Q1008 NOSIG
ZJHK,2016-10-11 10:00,ZJHK 111000Z 09005MPS 9999 BKN026 25/20 Q1008 NOSIG
ZJHK,2016-10-11 11:00,ZJHK 111100Z 06003MPS 9999 SCT026 25/21 Q1009 NOSIG
ZJHK,2016-10-11 12:00,ZJHK 111200Z 11002MPS 9999 SCT033 24/21 Q1010 NOSIG
ZJHK,2016-10-11 13:00,ZJHK 111300Z 05002MPS 010V080 9999 BKN040 25/21 Q1010 NOSIG
ZJHK,2016-10-11 14:00,ZJHK 111400Z 05002MPS 9999 BKN033 25/21 Q1011 NOSIG
ZJHK,2016-10-11 15:00,ZJHK 111500Z 04002MPS 020V080 9999 BKN033 25/21 Q1011 NOSIG
ZJHK,2016-10-11 16:00,ZJHK 111600Z 07005MPS 9999 BKN040 26/21 Q1010 NOSIG
ZJHK,2016-10-11 17:00,ZJHK 111700Z 04004MPS 010V070 8000 -RA BKN040 24/22 Q1010 NOSIG
ZJHK,2016-10-11 18:00,ZJHK 111800Z 01002MPS 9999 SCT023 BKN040 24/22 Q1009 NOSIG
ZJHK,2016-10-11 19:00,ZJHK 111900Z 05005MPS 9999 SCT023 BKN040 25/21 Q1009 NOSIG
ZJHK,2016-10-11 20:00,ZJHK 112000Z 04005MPS 9999 SCT023 BKN040 25/21 Q1009 NOSIG
ZJHK,2016-10-11 21:00,ZJHK 112100Z 05006MPS 9999 SCT023 BKN040 25/21 Q1009 NOSIG
ZJHK,2016-10-11 22:00,ZJHK 112200Z 06006MPS 9999 SCT023 BKN040 25/21 Q1010 NOSIG
ZJHK,2016-10-11 23:00,ZJHK 112300Z 05006MPS 9999 SCT020 BKN040 25/21 Q1010 NOSIG
ZJHK,2016-10-12 00:00,ZJHK 120000Z 06006MPS 9999 SCT020 BKN040 26/21 Q1011 NOSIG
ZJHK,2016-10-12 01:00,ZJHK 120100Z 06005MPS 9999 SCT020 BKN040 25/21 Q1012 NOSIG
ZJHK,2016-10-12 02:00,ZJHK 120200Z 06005MPS 020V080 9999 SCT020 BKN040 26/21 Q1012 NOSIG
ZJHK,2016-10-12 03:00,ZJHK 120300Z 05005MPS 9999 SCT020 BKN040 26/22 Q1012 NOSIG
ZJHK,2016-10-12 04:00,ZJHK 120400Z 05006MPS 020V080 9999 SCT020 OVC040 25/22 Q1011 NOSIG
ZJHK,2016-10-12 05:00,ZJHK 120500Z 05007MPS 9999 SCT013 OVC040 25/22 Q1010 NOSIG
ZJHK,2016-10-12 06:00,ZJHK 120600Z 05005MPS 9999 SCT016 OVC033 25/22 Q1009 NOSIG
ZJHK,2016-10-12 07:00,ZJHK 120700Z 06006MPS 9999 SCT016 OVC033 25/22 Q1009 NOSIG
ZJHK,2016-10-12 08:00,ZJHK 120800Z 06008MPS 9999 SCT016 OVC033 25/22 Q1008 NOSIG
ZJHK,2016-10-12 09:00,ZJHK 120900Z 06006MPS 7000 -RA SCT016 OVC033 25/22 Q1008 NOSIG
ZJHK,2016-10-12 10:00,ZJHK 121000Z 06007MPS 9999 SCT016 OVC033 25/22 Q1009 NOSIG
ZJHK,2016-10-12 11:00,ZJHK 121100Z 06008MPS 9999 SCT016 OVC033 25/22 Q1009 NOSIG
ZJHK,2016-10-12 12:00,ZJHK 121200Z 05007MPS 6000 -RA SCT016 OVC033 24/22 Q1010 NOSIG
ZJHK,2016-10-12 13:00,ZJHK 121300Z 06008MPS 6000 -RA SCT016 OVC033 25/22 Q1010 BECMG TL1420 SHRA
ZJHK,2016-10-12 14:00,ZJHK 121400Z 05007MPS 7000 -SHRA SCT016 FEW033TCU BKN033 25/22 Q1010 NOSIG
ZJHK,2016-10-12 15:00,ZJHK 121500Z 06007MPS 7000 -SHRA SCT016 FEW033TCU BKN033 25/23 Q1010 NOSIG
ZJHK,2016-10-12 16:00,ZJHK 121600Z 05007MPS 9999 SCT016 OVC033 25/22 Q1010 NOSIG
ZJHK,2016-10-12 17:00,ZJHK 121700Z 05008MPS 8000 -RA SCT016 OVC033 25/22 Q1009 NOSIG
ZJHK,2016-10-12 18:00,ZJHK 121800Z 06008MPS 9999 SCT016 OVC033 25/22 Q1009 NOSIG
ZJHK,2016-10-12 19:00,ZJHK 121900Z 05008MPS 9999 SCT016 OVC033 25/22 Q1009 NOSIG
ZJHK,2016-10-12 20:00,ZJHK 122000Z 05008MPS 010V070 9999 SCT016 25/22 Q1008 NOSIG
ZJHK,2016-10-12 21:00,ZJHK 122100Z 05009MPS 9999 BKN016 OVC040 24/22 Q1008 NOSIG
ZJHK,2016-10-12 22:00,ZJHK 122200Z 05009MPS 9999 BKN016 OVC040 24/22 Q1009 NOSIG
ZJHK,2016-10-12 23:00,ZJHK 122300Z 05009MPS 7000 -SHRA BKN015 FEW023TCU BKN033 24/22 Q1009 BECMG SHRA
ZJHK,2016-10-13 00:00,ZJHK 130000Z 05008G14MPS 7000 -SHRA BKN015 FEW023TCU BKN033 24/22 Q1010 NOSIG
ZJHK,2016-10-13 01:00,ZJHK 130100Z 05009MPS 7000 -SHRA BKN015 FEW023TCU BKN033 24/22 Q1011 NOSIG
ZJHK,2016-10-13 02:00,ZJHK 130200Z 06009MPS 8000 -SHRA BKN015 FEW023TCU BKN033 24/22 Q1011 NOSIG
ZJHK,2016-10-13 03:00,ZJHK 130300Z 06008MPS 8000 -SHRA BKN015 FEW023TCU BKN033 24/22 Q1011 NOSIG
ZJHK,2016-10-13 04:00,ZJHK 130400Z 06009MPS 8000 -SHRA BKN015 FEW033CB BKN033 25/22 Q1011 NOSIG
ZJHK,2016-10-13 05:00,ZJHK 130500Z 06009G15MPS 8000 -SHRA BKN015 FEW033CB BKN033 24/22 Q1010 NOSIG
ZJHK,2016-10-13 06:00,ZJHK 130600Z 06010MPS 9999 -SHRA BKN015 FEW033CB BKN033 25/22 Q1009 NOSIG
ZJHK,2016-10-13 07:00,ZJHK 130700Z 07010MPS 7000 -SHRA BKN015 FEW033CB BKN033 24/22 Q1008 NOSIG
ZJHK,2016-10-13 08:00,ZJHK 130800Z 07010MPS 9999 BKN015 FEW033CB BKN046 25/22 Q1008 NOSIG
ZJHK,2016-10-13 09:00,ZJHK 130900Z 08008MPS 8000 -SHRA BKN015 FEW026CB BKN033 24/22 Q1008 NOSIG
ZJHK,2016-10-13 10:00,ZJHK 131000Z 07009MPS 9999 BKN015 FEW026CB BKN033 25/22 Q1008 NOSIG
ZJHK,2016-10-13 11:00,ZJHK 131100Z 07009MPS 9999 BKN015 FEW026TCU BKN033 25/22 Q1009 NOSIG
ZJHK,2016-10-13 12:00,ZJHK 131200Z 07009MPS 9999 BKN015 FEW026TCU BKN033 25/22 Q1010 NOSIG
ZJHK,2016-10-13 13:00,ZJHK 131300Z 06009MPS 9999 BKN020 FEW030TCU BKN040 25/22 Q1010 NOSIG
ZJHK,2016-10-13 14:00,ZJHK 131400Z 07008MPS 8000 -SHRA BKN019 FEW030TCU BKN040 25/22 Q1011 NOSIG
ZJHK,2016-10-13 15:00,ZJHK 131500Z 07010MPS 9999 BKN019 FEW030TCU BKN040 25/22 Q1010 NOSIG
ZJHK,2016-10-13 16:00,ZJHK 131600Z 07008MPS 9999 -SHRA BKN019 FEW030TCU BKN040 25/22 Q1010 NOSIG
ZJHK,2016-10-13 17:00,ZJHK 131700Z 07010MPS 9999 BKN020 BKN033 25/22 Q1009 NOSIG
ZJHK,2016-10-13 18:00,ZJHK 131800Z 07009MPS 9999 BKN020 BKN033 25/22 Q1009 NOSIG
ZJHK,2016-10-13 19:00,ZJHK 131900Z 07009MPS 9999 BKN020 FEW026TCU BKN033 25/22 Q1008 NOSIG
ZJHK,2016-10-13 20:00,ZJHK 132000Z 07011G17MPS 9999 -SHRA BKN020 FEW026TCU BKN033 25/22 Q1008 NOSIG
ZJHK,2016-10-13 21:00,ZJHK 132100Z 07009MPS 9999 -SHRA SCT020 FEW033TCU BKN033 24/22 Q1008 NOSIG
ZJHK,2016-10-13 22:00,ZJHK 132200Z 06008MPS 9999 -SHRA SCT020 FEW033TCU BKN033 24/23 Q1008 NOSIG
ZJHK,2016-10-13 23:00,ZJHK 132300Z 07008MPS 5000 -SHRA BR SCT010 FEW033TCU BKN033 24/23 Q1009 NOSIG
ZJHK,2016-10-14 00:00,ZJHK 140000Z 08011MPS 040V100 3500 -SHRA BR SCT010 FEW026TCU BKN033 24/23 Q1010 NOSIG
ZJHK,2016-10-14 01:00,ZJHK 140100Z 07004MPS 6000 -SHRA SCT010 FEW023TCU BKN030 23/22 Q1011 NOSIG
ZJHK,2016-10-14 02:00,ZJHK 140200Z 07006MPS 6000 -SHRA SCT010 FEW023TCU BKN030 24/23 Q1011 NOSIG
ZJHK,2016-10-14 03:00,ZJHK 140300Z 07006MPS 3000 SHRA BKN007 FEW023TCU BKN030 24/23 Q1011 BECMG AT0340 -SHRA
ZJHK,2016-10-14 04:00,ZJHK 140400Z 08007MPS 3000 SHRA BKN007 SCT020TCU BKN026 24/23 Q1011 BECMG AT0440 -SHRA
ZJHK,2016-10-14 05:00,ZJHK 140500Z 08006MPS 5000 -SHRA BKN010 FEW020TCU BKN026 24/23 Q1010 RESHRA NOSIG
ZJHK,2016-10-14 06:00,ZJHK 140600Z 07008MPS 5000 -SHRA BKN013 FEW023TCU BKN030 24/23 Q1009 NOSIG
ZJHK,2016-10-14 07:00,ZJHK 140700Z 09009MPS 5000 -SHRA BKN010 FEW023TCU BKN030 24/23 Q1008 NOSIG
ZJHK,2016-10-14 08:00,ZJHK 140800Z 10006MPS 9999 -SHRA SCT012 FEW023TCU BKN046 23/23 Q1008 NOSIG
ZJHK,2016-10-14 09:00,ZJHK 140900Z 07004MPS 9999 FEW030CB BKN046 23/22 Q1008 NOSIG
ZJHK,2016-10-14 10:00,ZJHK 141000Z 09006MPS 7000 FEW030CB BKN033 24/23 Q1009 NOSIG
ZJHK,2016-10-14 11:00,ZJHK 141100Z 11004MPS 9999 BKN040 23/22 Q1009 NOSIG
ZJHK,2016-10-14 12:00,ZJHK 141200Z 08005MPS 9999 FEW033CB BKN040 24/23 Q1010 NOSIG
ZJHK,2016-10-14 13:00,ZJHK 141300Z 10003MPS 8000 -SHRA FEW013 FEW033CB BKN040 23/22 Q1011 NOSIG
ZJHK,2016-10-14 14:00,ZJHK 141400Z 08005MPS 9999 SCT020 BKN033 24/22 Q1011 NOSIG
ZJHK,2016-10-14 15:00,ZJHK 141500Z 09008MPS 9999 FEW020 BKN030 25/23 Q1010 NOSIG
ZJHK,2016-10-14 16:00,ZJHK 141600Z 10006MPS 9999 SCT026 25/22 Q1010 NOSIG
ZJHK,2016-10-14 17:00,ZJHK 141700Z 10005MPS 9999 BKN020 25/22 Q1010 NOSIG
ZJHK,2016-10-14 18:00,ZJHK 141800Z 08005MPS 9999 BKN033 25/23 Q1010 NOSIG
ZJHK,2016-10-14 19:00,ZJHK 141900Z 08005MPS 9999 FEW020 BKN033 25/23 Q1009 NOSIG
ZJHK,2016-10-14 20:00,ZJHK 142000Z 09006MPS 9999 FEW033CB BKN033 25/22 Q1010 NOSIG
ZJHK,2016-10-14 21:00,ZJHK 142100Z 08006MPS 9999 BKN046 25/22 Q1009 NOSIG
ZJHK,2016-10-14 22:00,ZJHK 142200Z 08005MPS 9999 BKN046 24/22 Q1010 NOSIG
ZJHK,2016-10-14 23:00,ZJHK 142300Z 08006MPS 9999 BKN046 25/22 Q1010 NOSIG
ZJHK,2016-10-15 00:00,ZJHK 150000Z 08008MPS 9999 FEW033 26/22 Q1011 NOSIG
ZJHK,2016-10-15 01:00,ZJHK 150100Z 09009MPS 9999 FEW020 27/22 Q1012 NOSIG
ZJHK,2016-10-15 02:00,ZJHK 150200Z 09009MPS 9999 FEW020 28/22 Q1012 NOSIG
ZJHK,2016-10-15 03:00,ZJHK 150300Z 09010MPS 9999 FEW020 28/22 Q1012 NOSIG
ZJHK,2016-10-15 04:00,ZJHK 150400Z 09010MPS 9999 SCT043 28/22 Q1012 NOSIG
ZJHK,2016-10-15 05:00,ZJHK 150500Z 08010MPS 9999 FEW043 29/21 Q1011 NOSIG
ZJHK,2016-10-15 06:00,ZJHK 150600Z 07010MPS 9999 FEW033 29/21 Q1010 NOSIG
ZJHK,2016-10-15 07:00,ZJHK 150700Z 08009MPS 9999 FEW033 28/22 Q1010 NOSIG
ZJHK,2016-10-15 08:00,ZJHK 150800Z 07008MPS 9999 FEW020 BKN043 27/22 Q1009 NOSIG
ZJHK,2016-10-15 09:00,ZJHK 150900Z 08008MPS 9999 SCT023 SCT043 26/21 Q1010 NOSIG
ZJHK,2016-10-15 10:00,ZJHK 151000Z 07005MPS 9999 FEW023 BKN040 26/22 Q1010 NOSIG
ZJHK,2016-10-15 11:00,ZJHK 151100Z 07005MPS 9999 BKN040 25/22 Q1010 NOSIG
ZJHK,2016-10-15 12:00,ZJHK 151200Z 07005MPS 9999 BKN040 25/21 Q1011 NOSIG
ZJHK,2016-10-15 13:00,ZJHK 151300Z 08005MPS 9999 SCT033 25/21 Q1011 NOSIG
ZJHK,2016-10-15 14:00,ZJHK 151400Z 07004MPS 9999 FEW033 25/22 Q1012 NOSIG
ZJHK,2016-10-15 15:00,ZJHK 151500Z 08003MPS 9999 FEW033 24/22 Q1012 NOSIG
ZJHK,2016-10-15 16:00,ZJHK 151600Z 10003MPS 9999 BKN046 24/22 Q1011 NOSIG
ZJHK,2016-10-15 17:00,ZJHK 151700Z 12001MPS 9999 BKN026 23/22 Q1011 NOSIG
ZJHK,2016-10-15 18:00,ZJHK 151800Z 10001MPS 9999 BKN026 23/22 Q1011 NOSIG
ZJHK,2016-10-15 19:00,ZJHK 151900Z 05002MPS 9999 SCT023 24/22 Q1010 NOSIG
ZJHK,2016-10-15 20:00,ZJHK 152000Z 05003MPS CAVOK 24/22 Q1010 NOSIG
ZJHK,2016-10-15 21:00,ZJHK 152100Z 04002MPS CAVOK 23/22 Q1010 NOSIG
ZJHK,2016-10-15 22:00,ZJHK 152200Z 05003MPS 9999 SCT040 24/22 Q1010 NOSIG
ZJHK,2016-10-15 23:00,ZJHK 152300Z 05003MPS 6000 BKN040 24/22 Q1011 NOSIG
ZJHK,2016-10-16 00:00,ZJHK 160000Z 04003MPS 020V080 9999 SCT010 26/22 Q1011 NOSIG
ZJHK,2016-10-16 01:00,ZJHK 160100Z 03006MPS 9999 FEW013 27/22 Q1012 NOSIG
ZJHK,2016-10-16 02:00,ZJHK 160200Z 04006MPS 9999 SCT026 BKN046 27/22 Q1012 NOSIG
ZJHK,2016-10-16 03:00,ZJHK 160300Z 03006MPS 010V070 9999 SCT026 BKN046 28/22 Q1012 NOSIG
ZJHK,2016-10-16 04:00,ZJHK 160400Z 04007MPS 360V070 9999 FEW023 SCT046 28/22 Q1011 NOSIG
ZJHK,2016-10-16 05:00,ZJHK 160500Z 04006MPS 9999 SCT028 29/22 Q1011 NOSIG
ZJHK,2016-10-16 06:00,ZJHK 160600Z 03007MPS 9999 FEW028 28/22 Q1010 NOSIG
ZJHK,2016-10-16 07:00,ZJHK 160700Z 03006MPS 010V070 9999 FEW026 28/22 Q1009 NOSIG
ZJHK,2016-10-16 08:00,ZJHK 160800Z 04005MPS 9999 FEW026 28/22 Q1009 NOSIG
ZJHK,2016-10-16 09:00,ZJHK 160900Z 06006MPS 9999 FEW026 28/21 Q1009 NOSIG
ZJHK,2016-10-16 10:00,ZJHK 161000Z 07006MPS CAVOK 27/20 Q1009 NOSIG
ZJHK,2016-10-16 11:00,ZJHK 161100Z 07003MPS CAVOK 26/21 Q1009 NOSIG
ZJHK,2016-10-16 12:00,ZJHK 161200Z 09004MPS CAVOK 26/21 Q1009 NOSIG
ZJHK,2016-10-16 13:00,ZJHK 161300Z 11003MPS CAVOK 25/22 Q1010 NOSIG
ZJHK,2016-10-16 14:00,ZJHK 161400Z 11001MPS CAVOK 25/22 Q1010 NOSIG
ZJHK,2016-10-16 15:00,ZJHK 161500Z 33001MPS CAVOK 24/22 Q1010 NOSIG
ZJHK,2016-10-16 16:00,ZJHK 161600Z 01002MPS CAVOK 25/22 Q1009 NOSIG
ZJHK,2016-10-16 17:00,ZJHK 161700Z 33001MPS 7000 NSC 24/23 Q1009 NOSIG
ZJHK,2016-10-16 18:00,ZJHK 161800Z 36001MPS 6000 NSC 24/23 Q1009 NOSIG
ZJHK,2016-10-16 19:00,ZJHK 161900Z 36002MPS 6000 NSC 24/23 Q1008 NOSIG
ZJHK,2016-10-16 20:00,ZJHK 162000Z 34003MPS 6000 NSC 24/22 Q1007 NOSIG
ZJHK,2016-10-16 21:00,ZJHK 162100Z 36003MPS 7000 NSC 24/22 Q1007 NOSIG
ZJHK,2016-10-16 22:00,ZJHK 162200Z 36002MPS 7000 NSC 24/22 Q1007 NOSIG
ZJHK,2016-10-16 23:00,ZJHK 162300Z 02004MPS CAVOK 25/21 Q1007 NOSIG
ZJHK,2016-10-17 00:00,ZJHK 170000Z 03005MPS CAVOK 26/21 Q1008 NOSIG
ZJHK,2016-10-17 01:00,ZJHK 170100Z 03006MPS 350V050 CAVOK 26/22 Q1008 NOSIG
ZJHK,2016-10-17 02:00,ZJHK 170200Z 04006MPS 010V070 CAVOK 27/22 Q1008 NOSIG
ZJHK,2016-10-17 03:00,ZJHK 170300Z 04008MPS 9999 FEW020 28/22 Q1008 NOSIG
ZJHK,2016-10-17 04:00,ZJHK 170400Z 03008MPS 9999 SCT033 27/21 Q1007 NOSIG
ZJHK,2016-10-17 05:00,ZJHK 170500Z 04007MPS 360V060 9999 SCT033 27/21 Q1006 NOSIG
ZJHK,2016-10-17 06:00,ZJHK 170600Z 03008MPS CAVOK 27/21 Q1005 NOSIG
ZJHK,2016-10-17 07:00,ZJHK 170700Z 03008MPS 9999 SCT033 27/21 Q1004 NOSIG
ZJHK,2016-10-17 08:00,ZJHK 170800Z 04007MPS 9999 -SHRA FEW033TCU BKN033 27/21 Q1004 NOSIG
ZJHK,2016-10-17 09:00,ZJHK 170900Z 03009G15MPS 6000 -SHRA FEW030TCU BKN033 26/22 Q1004 NOSIG
ZJHK,2016-10-17 10:00,ZJHK 171000Z 04009MPS 010V070 5000 -SHRA FEW030TCU BKN033 24/22 Q1004 NOSIG
ZJHK,2016-10-17 11:00,ZJHK 171100Z 03010MPS 6000 -SHRA FEW030TCU BKN033 25/23 Q1003 NOSIG
ZJHK,2016-10-17 12:00,ZJHK 171200Z 04009G15MPS 6000 -SHRA SCT018 FEW026TCU BKN033 24/23 Q1004 NOSIG
ZJHK,2016-10-17 13:00,ZJHK 171300Z 03009G15MPS 350V060 5000 -SHRA SCT015 FEW026TCU BKN030 25/23 Q1004 NOSIG
ZJHK,2016-10-17 14:00,ZJHK 171400Z 03010MPS 5000 -SHRA SCT015 FEW026TCU BKN030 24/22 Q1003 NOSIG
ZJHK,2016-10-17 15:00,ZJHK 171500Z 03011G19MPS 5000 -SHRA SCT015 FEW026TCU BKN030 24/23 Q1002 NOSIG
ZJHK,2016-10-17 16:00,ZJHK 171600Z 04011G17MPS 2700 SHRA SCT010 FEW023TCU BKN026 24/23 Q1001 NOSIG
ZJHK,2016-10-17 17:00,ZJHK 171700Z 03013G18MPS 2700 -SHRA SCT010 FEW023TCU BKN026 24/23 Q1000 RESHRA BECMG AT1830 SHRA BKN010
ZJHK,2016-10-17 18:00,ZJHK 171800Z 03014G22MPS 2700 SHRA BKN010 SCT020TCU BKN023 24/23 Q0999 NOSIG
ZJHK,2016-10-17 19:00,ZJHK 171900Z 03013G21MPS 2700 SHRA BKN010 SCT020TCU BKN023 24/23 Q0997 NOSIG
ZJHK,2016-10-17 20:00,ZJHK 172000Z 03015G23MPS 2700 SHRA BKN010 SCT020TCU BKN023 23/23 Q0996 NOSIG
ZJHK,2016-10-17 21:00,ZJHK 172100Z 03017G25MPS 2700 SHRA BKN010 SCT020TCU BKN023 24/23 Q0994 NOSIG
ZJHK,2016-10-17 22:00,ZJHK 172200Z 04016G24MPS 2700 SHRA BKN010 SCT020TCU BKN023 23/23 Q0995 NOSIG
ZJHK,2016-10-17 23:00,ZJHK 172300Z 05015G22MPS 2700 R09/0750U SHRA BKN010 SCT020TCU BKN023 23/23 Q0995 NOSIG
ZJHK,2016-10-18 00:00,ZJHK 180000Z 05014G23MPS 3500 SHRA BKN010 SCT020TCU BKN023 24/24 Q0994 NOSIG
ZJHK,2016-10-18 01:00,ZJHK 180100Z 05016G24MPS 3500 R09/1000D SHRA BKN010 SCT020CB BKN023 24/24 Q0993 NOSIG
ZJHK,2016-10-18 02:00,ZJHK 180200Z 07019G29MPS 1500 R09/0550 +SHRA BKN010 SCT020CB BKN023 24/24 Q0993 NOSIG
ZJHK,2016-10-18 03:00,ZJHK 180300Z 09017G23MPS 1000 R09/0650 +SHRA BKN010 SCT020CB BKN023 24/24 Q0992 BECMG 2000 SHRA
ZJHK,2016-10-18 04:00,ZJHK 180400Z 09021G28MPS 1600 R09/0700 SHRA BKN010 SCT020CB BKN023 24/23 Q0991 BECMG AT0500 1000 +SHRA
ZJHK,2016-10-18 05:00,ZJHK 180500Z 09018G24MPS 1600 R09/1000U SHRA BKN010 SCT020CB BKN023 24/24 Q0990 BECMG AT0600 1000 +SHRA
ZJHK,2016-10-18 06:00,ZJHK 180600Z 10018G25MPS 1600 R09/0900 SHRA BKN010 SCT020CB BKN023 24/23 Q0988 NOSIG
ZJHK,2016-10-18 07:00,ZJHK 180700Z 10016G24MPS 1600 R09/0900 SHRA BKN010 SCT020CB BKN023 24/23 Q0988 NOSIG
ZJHK,2016-10-18 08:00,ZJHK 180800Z 11014G22MPS 4000 SHRA BKN010 SCT020CB BKN023 24/23 Q0988 NOSIG
ZJHK,2016-10-18 09:00,ZJHK 180900Z 11012G18MPS 3000 R09/1100N SHRA BKN010 SCT020CB BKN023 24/23 Q0988 NOSIG
ZJHK,2016-10-18 10:00,ZJHK 181000Z 12012G19MPS 4000 SHRA BKN010 SCT020CB BKN023 24/23 Q0989 BECMG -SHRA SCT012 FEW020CB BKN030
ZJHK,2016-10-18 11:00,ZJHK 181100Z 12009G15MPS 5000 -SHRA BKN013 SCT020CB BKN023 24/23 Q0990 RESHRA BECMG SCT012 FEW020CB BKN030
ZJHK,2016-10-18 12:00,ZJHK 181200Z 13009G15MPS 100V160 5000 -SHRA SCT013 SCT023CB BKN030 24/23 Q0990 NOSIG
ZJHK,2016-10-18 13:00,ZJHK 181300Z 14009G15MPS 9999 SCT013 FEW030CB BKN040 25/22 Q0992 NOSIG
ZJHK,2016-10-18 14:00,ZJHK 181400Z 14009G15MPS 110V170 9999 SCT013 FEW030CB BKN040 25/23 Q0993 NOSIG
ZJHK,2016-10-18 15:00,ZJHK 181500Z 15009G15MPS 9999 FEW013 FEW030CB BKN046 25/23 Q0994 NOSIG
ZJHK,2016-10-18 16:00,ZJHK 181600Z 15009G16MPS 9999 FEW013 FEW030CB BKN046 25/22 Q0995 NOSIG
ZJHK,2016-10-18 17:00,ZJHK 181700Z 16008G13MPS 130V200 9999 BKN046 25/22 Q0996 NOSIG
ZJHK,2016-10-18 18:00,ZJHK 181800Z 16009G16MPS 9999 -RA FEW013 BKN040 25/23 Q0996 NOSIG
ZJHK,2016-10-18 19:00,ZJHK 181900Z 16009G16MPS 130V190 9999 -RA FEW013 BKN040 25/22 Q0997 NOSIG
ZJHK,2016-10-18 20:00,ZJHK 182000Z 16006MPS 130V190 9999 -RA FEW013 BKN040 24/22 Q0998 NOSIG
ZJHK,2016-10-18 21:00,ZJHK 182100Z 16008MPS 130V190 9999 -RA SCT040 25/22 Q0998 NOSIG
ZJHK,2016-10-18 22:00,ZJHK 182200Z 17007G12MPS 140V200 9999 FEW040 25/22 Q0999 NOSIG
ZJHK,2016-10-18 23:00,ZJHK 182300Z 17005MPS 9999 BKN046 25/22 Q1001 NOSIG
ZJHK,2016-10-19 00:00,ZJHK 190000Z 18004MPS 130V210 9999 -RA NSC 25/22 Q1002 NOSIG
ZJHK,2016-10-19 01:00,ZJHK 190100Z 17004MPS 130V210 CAVOK 25/22 Q1003 NOSIG
ZJHK,2016-10-19 02:00,ZJHK 190200Z 18006MPS 140V210 CAVOK 27/23 Q1004 NOSIG
ZJHK,2016-10-19 03:00,ZJHK 190300Z 19006MPS 160V220 9999 SCT023 28/23 Q1004 NOSIG
ZJHK,2016-10-19 04:00,ZJHK 190400Z 18005MPS 140V210 9999 SCT023 28/23 Q1004 NOSIG
ZJHK,2016-10-19 05:00,ZJHK 190500Z 18006MPS 140V210 9999 SCT023 28/23 Q1003 NOSIG
ZJHK,2016-10-19 06:00,ZJHK 190600Z 17004MPS 140V210 9999 SCT023 29/23 Q1002 NOSIG
ZJHK,2016-10-19 07:00,ZJHK 190700Z 17003MPS 130V210 9999 SCT026 29/23 Q1001 NOSIG
ZJHK,2016-10-19 08:00,ZJHK 190800Z 17004MPS 130V200 9999 SCT030 30/23 Q1001 NOSIG
ZJHK,2016-10-19 09:00,ZJHK 190900Z 19002MPS 140V230 9999 FEW030TCU BKN030 29/23 Q1002 NOSIG
ZJHK,2016-10-19 10:00,ZJHK 191000Z 14003MPS 110V170 9999 FEW030TCU SCT030 27/24 Q1002 NOSIG
ZJHK,2016-10-19 11:00,ZJHK 191100Z 22002MPS 170V300 4000 SHRA FEW015 FEW030TCU BKN030 25/24 Q1004 BECMG NSW
ZJHK,2016-10-19 12:00,ZJHK 191200Z 16001MPS 9999 SCT016 FEW030TCU BKN040 25/23 Q1005 RESHRA NOSIG
ZJHK,2016-10-19 13:00,ZJHK 191300Z 14001MPS 9999 SCT020 FEW030TCU BKN040 25/23 Q1006 NOSIG
ZJHK,2016-10-19 14:00,ZJHK 191400Z 16001MPS 9999 BKN023 24/23 Q1006 NOSIG
ZJHK,2016-10-19 15:00,ZJHK 191500Z 16002MPS 9999 FEW046 24/23 Q1006 NOSIG
ZJHK,2016-10-19 16:00,ZJHK 191600Z 16002MPS 130V190 CAVOK 24/23 Q1006 NOSIG
ZJHK,2016-10-19 17:00,ZJHK 191700Z 18002MPS 150V210 CAVOK 24/23 Q1006 NOSIG
ZJHK,2016-10-19 18:00,ZJHK 191800Z 18002MPS CAVOK 23/23 Q1006 NOSIG
ZJHK,2016-10-19 19:00,ZJHK 191900Z 17002MPS 8000 NSC 23/23 Q1005 NOSIG
ZJHK,2016-10-19 20:00,ZJHK 192000Z 22001MPS 8000 NSC 23/23 Q1004 NOSIG
ZJHK,2016-10-19 21:00,ZJHK 192100Z 21002MPS 8000 NSC 23/23 Q1004 NOSIG
ZJHK,2016-10-19 22:00,ZJHK 192200Z 18001MPS CAVOK 23/23 Q1004 NOSIG
ZJHK,2016-10-19 23:00,ZJHK 192300Z 19001MPS CAVOK 22/22 Q1005 NOSIG
ZJHK,2016-10-20 00:00,ZJHK 200000Z 22002MPS CAVOK 24/23 Q1006 NOSIG
ZJHK,2016-10-20 01:00,ZJHK 200100Z 24001MPS CAVOK 26/23 Q1006 NOSIG
ZJHK,2016-10-20 02:00,ZJHK 200200Z 21002MPS CAVOK 27/21 Q1006 NOSIG
ZJHK,2016-10-20 03:00,ZJHK 200300Z 23001MPS 9999 FEW023 29/22 Q1006 NOSIG
ZJHK,2016-10-20 04:00,ZJHK 200400Z 35001MPS 9999 SCT023 29/20 Q1005 NOSIG
ZJHK,2016-10-20 05:00,ZJHK 200500Z 36003MPS 9999 FEW023 28/22 Q1004 NOSIG
ZJHK,2016-10-20 06:00,ZJHK 200600Z 36003MPS 9999 BKN046 27/21 Q1004 NOSIG
ZJHK,2016-10-20 07:00,ZJHK 200700Z 36002MPS 9999 SCT046 27/21 Q1003 NOSIG
ZJHK,2016-10-20 08:00,ZJHK 200800Z 02001MPS CAVOK 28/22 Q1003 NOSIG
ZJHK,2016-10-20 09:00,ZJHK 200900Z 34003MPS CAVOK 28/21 Q1003 NOSIG
ZJHK,2016-10-20 10:00,ZJHK 201000Z 32003MPS CAVOK 26/22 Q1003 NOSIG
ZJHK,2016-10-20 11:00,ZJHK 201100Z 32002MPS CAVOK 25/22 Q1003 NOSIG
ZJHK,2016-10-20 12:00,ZJHK 201200Z 30001MPS CAVOK 24/22 Q1004 NOSIG
ZJHK,2016-10-20 13:00,ZJHK 201300Z 00000MPS CAVOK 23/22 Q1004 NOSIG
ZJHK,2016-10-20 14:00,ZJHK 201400Z 27001MPS CAVOK 23/22 Q1005 NOSIG
ZJHK,2016-10-20 15:00,ZJHK 201500Z 27002MPS CAVOK 23/22 Q1004 NOSIG
ZJHK,2016-10-20 16:00,ZJHK 201600Z 27002MPS CAVOK 22/22 Q1004 NOSIG
ZJHK,2016-10-20 17:00,ZJHK 201700Z 26001MPS CAVOK 23/22 Q1003 NOSIG
ZJHK,2016-10-20 18:00,ZJHK 201800Z 25002MPS CAVOK 23/22 Q1003 NOSIG
ZJHK,2016-10-20 19:00,ZJHK 201900Z 26001MPS 8000 NSC 23/22 Q1004 NOSIG
ZJHK,2016-10-20 20:00,ZJHK 202000Z 25002MPS 7000 FEW020 23/22 Q1003 NOSIG
ZJHK,2016-10-20 21:00,ZJHK 202100Z 27001MPS 7000 FEW020 23/22 Q1003 NOSIG
ZJHK,2016-10-20 22:00,ZJHK 202200Z 25003MPS 7000 FEW020 23/22 Q1003 NOSIG
ZJHK,2016-10-20 23:00,ZJHK 202300Z 27003MPS 6000 FEW016 23/22 Q1003 NOSIG
ZJHK,2016-10-21 00:00,ZJHK 210000Z 25002MPS 6000 FEW016 24/23 Q1004 NOSIG
ZJHK,2016-10-21 01:00,ZJHK 210100Z 26003MPS 9999 SCT020 25/23 Q1004 NOSIG
ZJHK,2016-10-21 02:00,ZJHK 210200Z 29005MPS 9999 SCT020 26/23 Q1004 NOSIG
ZJHK,2016-10-21 03:00,ZJHK 210300Z 28005MPS 9999 SCT020 26/23 Q1004 NOSIG
ZJHK,2016-10-21 04:00,ZJHK 210400Z 28008MPS 9999 SCT020 28/23 Q1003 NOSIG
ZJHK,2016-10-21 05:00,ZJHK 210500Z 29008MPS 9999 SCT020 27/23 Q1002 NOSIG
ZJHK,2016-10-21 06:00,ZJHK 210600Z 29008MPS 9999 FEW020 28/23 Q1002 NOSIG
ZJHK,2016-10-21 07:00,ZJHK 210700Z 29006MPS 9999 SCT020 27/22 Q1002 NOSIG
ZJHK,2016-10-21 08:00,ZJHK 210800Z 28005MPS 9999 FEW020 26/22 Q1002 NOSIG
ZJHK,2016-10-21 09:00,ZJHK 210900Z 28005MPS 9999 FEW020 25/21 Q1002 NOSIG
ZJHK,2016-10-21 10:00,ZJHK 211000Z 28004MPS 9999 FEW046 24/22 Q1003 NOSIG
ZJHK,2016-10-21 11:00,ZJHK 211100Z 26002MPS 9999 FEW046 24/22 Q1004 NOSIG
ZJHK,2016-10-21 12:00,ZJHK 211200Z 26002MPS 9999 FEW046 24/22 Q1005 NOSIG
ZJHK,2016-10-21 13:00,ZJHK 211300Z 25003MPS CAVOK 24/22 Q1005 NOSIG
ZJHK,2016-10-21 14:00,ZJHK 211400Z 25003MPS 220V280 CAVOK 23/22 Q1006 NOSIG
ZJHK,2016-10-21 15:00,ZJHK 211500Z 25002MPS CAVOK 23/22 Q1006 NOSIG
ZJHK,2016-10-21 16:00,ZJHK 211600Z 25002MPS CAVOK 23/22 Q1006 NOSIG
ZJHK,2016-10-21 17:00,ZJHK 211700Z 22001MPS 8000 NSC 22/22 Q1006 NOSIG
ZJHK,2016-10-21 18:00,ZJHK 211800Z 23002MPS 8000 NSC 23/22 Q1006 NOSIG
ZJHK,2016-10-21 19:00,ZJHK 211900Z 23002MPS 8000 NSC 23/22 Q1005 NOSIG
ZJHK,2016-10-21 20:00,ZJHK 212000Z 23002MPS 6000 NSC 23/22 Q1006 NOSIG
ZJHK,2016-10-21 21:00,ZJHK 212100Z 23002MPS 6000 NSC 22/22 Q1006 NOSIG
ZJHK,2016-10-21 22:00,ZJHK 212200Z 22002MPS 6000 NSC 22/22 Q1006 NOSIG
ZJHK,2016-10-21 23:00,ZJHK 212300Z 22002MPS 8000 NSC 22/22 Q1007 NOSIG
ZJHK,2016-10-22 00:00,ZJHK 220000Z 22002MPS CAVOK 24/22 Q1008 NOSIG
ZJHK,2016-10-22 01:00,ZJHK 220100Z 26002MPS CAVOK 26/22 Q1009 NOSIG
ZJHK,2016-10-22 02:00,ZJHK 220200Z 29002MPS CAVOK 28/23 Q1009 NOSIG
ZJHK,2016-10-22 03:00,ZJHK 220300Z 31002MPS 9999 SCT030 29/23 Q1008 NOSIG
ZJHK,2016-10-22 04:00,ZJHK 220400Z 32003MPS 270V360 9999 SCT030 29/22 Q1008 NOSIG
ZJHK,2016-10-22 05:00,ZJHK 220500Z 27002MPS 210V320 9999 SCT040 30/22 Q1007 NOSIG
ZJHK,2016-10-22 06:00,ZJHK 220600Z 28002MPS 240V320 9999 SCT040 30/22 Q1006 NOSIG
ZJHK,2016-10-22 07:00,ZJHK 220700Z 27002MPS 190V300 9999 SCT040 30/22 Q1006 NOSIG
ZJHK,2016-10-22 08:00,ZJHK 220800Z 29003MPS 250V320 9999 SCT040 30/22 Q1005 NOSIG
ZJHK,2016-10-22 09:00,ZJHK 220900Z 29003MPS 9999 FEW040 29/22 Q1005 NOSIG
ZJHK,2016-10-22 10:00,ZJHK 221000Z 27002MPS 9999 FEW040 27/22 Q1006 NOSIG
ZJHK,2016-10-22 11:00,ZJHK 221100Z 11003MPS 9999 FEW040 26/23 Q1006 NOSIG
ZJHK,2016-10-22 12:00,ZJHK 221200Z 12002MPS CAVOK 25/23 Q1007 NOSIG
ZJHK,2016-10-22 13:00,ZJHK 221300Z 12001MPS CAVOK 25/23 Q1008 NOSIG
ZJHK,2016-10-22 14:00,ZJHK 221400Z 12002MPS 9999 SCT040 24/23 Q1008 NOSIG
ZJHK,2016-10-22 15:00,ZJHK 221500Z 12001MPS 9999 SCT040 25/23 Q1008 NOSIG
ZJHK,2016-10-22 16:00,ZJHK 221600Z 12001MPS CAVOK 24/23 Q1008 NOSIG
ZJHK,2016-10-22 17:00,ZJHK 221700Z 11001MPS 6000 NSC 23/23 Q1008 NOSIG
ZJHK,2016-10-22 18:00,ZJHK 221800Z 12001MPS 5000 BR NSC 23/23 Q1007 NOSIG
ZJHK,2016-10-22 19:00,ZJHK 221900Z 10001MPS 5000 BR NSC 23/22 Q1007 NOSIG
ZJHK,2016-10-22 20:00,ZJHK 222000Z 00000MPS 4000 R09/0800D BR BCFG NSC 22/22 Q1007 NOSIG
ZJHK,2016-10-22 21:00,ZJHK 222100Z 12001MPS 2000 R09/0325 BR BCFG SCT003 23/23 Q1008 BECMG TL2130 0700 FG
ZJHK,2016-10-22 22:00,ZJHK 222200Z 00000MPS 0600 R09/0350N FG SCT003 23/23 Q1008 NOSIG
ZJHK,2016-10-22 23:00,ZJHK 222300Z 00000MPS 1600 BR SCT004 23/23 Q1009 BECMG TL0020 3000 BR
ZJHK,2016-10-23 00:00,ZJHK 230000Z 12001MPS 0600 R09/0400 FG BKN003 24/24 Q1009 BECMG TL0030 1600 BR SCT005
ZJHK,2016-10-23 01:00,ZJHK 230100Z 12001MPS 1600 BR BKN004 24/24 Q1010 BECMG TL0200 3000 BR SCT005
ZJHK,2016-10-23 02:00,ZJHK 230200Z 12001MPS 6000 SCT010 26/24 Q1010 NOSIG
ZJHK,2016-10-23 03:00,ZJHK 230300Z 21001MPS 9999 SCT020 29/25 Q1010 NOSIG
ZJHK,2016-10-23 04:00,ZJHK 230400Z 06001MPS 9999 SCT020 29/23 Q1009 NOSIG
ZJHK,2016-10-23 05:00,ZJHK 230500Z 04003MPS 340V080 9999 SCT020 FEW026TCU 29/24 Q1008 BECMG SHRA
ZJHK,2016-10-23 06:00,ZJHK 230600Z 11005MPS 9999 SCT016 FEW026TCU BKN040 25/24 Q1008 NOSIG
ZJHK,2016-10-23 07:00,ZJHK 230700Z 09004MPS CAVOK 26/24 Q1006 NOSIG
ZJHK,2016-10-23 08:00,ZJHK 230800Z 08005MPS CAVOK 27/24 Q1006 NOSIG
ZJHK,2016-10-23 09:00,ZJHK 230900Z 10004MPS CAVOK 27/24 Q1007 NOSIG
ZJHK,2016-10-23 10:00,ZJHK 231000Z 11003MPS CAVOK 26/24 Q1007 NOSIG
ZJHK,2016-10-23 11:00,ZJHK 231100Z 12002MPS CAVOK 25/23 Q1008 NOSIG
ZJHK,2016-10-23 12:00,ZJHK 231200Z 11001MPS CAVOK 24/23 Q1008 NOSIG
ZJHK,2016-10-23 13:00,ZJHK 231300Z 12002MPS CAVOK 24/23 Q1009 NOSIG
ZJHK,2016-10-23 14:00,ZJHK 231400Z 14001MPS CAVOK 24/23 Q1009 NOSIG
ZJHK,2016-10-23 15:00,ZJHK 231500Z 14002MPS 7000 NSC 24/23 Q1009 NOSIG
ZJHK,2016-10-23 16:00,ZJHK 231600Z 11002MPS 7000 NSC 23/23 Q1008 NOSIG
ZJHK,2016-10-23 17:00,ZJHK 231700Z 16001MPS 6000 SCT016 23/23 Q1009 NOSIG
ZJHK,2016-10-23 18:00,ZJHK 231800Z 12001MPS 6000 SCT016 23/23 Q1008 NOSIG
ZJHK,2016-10-23 19:00,ZJHK 231900Z 00000MPS 5000 BR BCFG SCT016 23/23 Q1008 NOSIG
ZJHK,2016-10-23 20:00,ZJHK 232000Z 30001MPS 4000 BR BCFG SCT046 23/23 Q1008 NOSIG
ZJHK,2016-10-23 21:00,ZJHK 232100Z 10001MPS 4000 BR BCFG SCT046 23/23 Q1008 NOSIG
ZJHK,2016-10-23 22:00,ZJHK 232200Z 00000MPS 4000 BR BCFG FEW015 SCT046 23/23 Q1009 NOSIG
ZJHK,2016-10-23 23:00,ZJHK 232300Z 11001MPS 3500 R09/0800 BR BCFG FEW015 SCT046 23/22 Q1009 NOSIG
ZJHK,2016-10-24 00:00,ZJHK 240000Z 11002MPS 7000 FEW010 25/25 Q1010 NOSIG
ZJHK,2016-10-24 01:00,ZJHK 240100Z 14002MPS 110V190 9999 FEW016 26/25 Q1010 NOSIG
ZJHK,2016-10-24 02:00,ZJHK 240200Z 16003MPS 130V200 9999 SCT016 28/24 Q1011 NOSIG
ZJHK,2016-10-24 03:00,ZJHK 240300Z 12003MPS 090V160 9999 SCT016 28/24 Q1010 NOSIG
ZJHK,2016-10-24 04:00,ZJHK 240400Z 15002MPS 9999 SCT016 29/24 Q1009 NOSIG
ZJHK,2016-10-24 05:00,ZJHK 240500Z 16004MPS 120V210 9999 BKN020 31/24 Q1009 NOSIG
ZJHK,2016-10-24 06:00,ZJHK 240600Z 16004MPS 130V190 9999 SCT020 30/23 Q1008 NOSIG
ZJHK,2016-10-24 07:00,ZJHK 240700Z 15004MPS 130V190 9999 SCT023 30/24 Q1007 NOSIG
ZJHK,2016-10-24 08:00,ZJHK 240800Z 15003MPS 120V190 9999 SCT023 30/24 Q1007 NOSIG
ZJHK,2016-10-24 09:00,ZJHK 240900Z 14005MPS 9999 FEW023 29/23 Q1007 NOSIG
ZJHK,2016-10-24 10:00,ZJHK 241000Z 14004MPS 9999 FEW040CB 27/23 Q1008 NOSIG
ZJHK,2016-10-24 11:00,ZJHK 241100Z 15003MPS 110V170 CAVOK 26/24 Q1008 NOSIG
ZJHK,2016-10-24 12:00,ZJHK 241200Z 14004MPS CAVOK 26/24 Q1009 NOSIG
ZJHK,2016-10-24 13:00,ZJHK 241300Z 16003MPS 130V190 CAVOK 26/24 Q1010 NOSIG
ZJHK,2016-10-24 14:00,ZJHK 241400Z 15002MPS 110V180 CAVOK 25/24 Q1010 NOSIG
ZJHK,2016-10-24 15:00,ZJHK 241500Z 17001MPS CAVOK 25/24 Q1011 NOSIG
ZJHK,2016-10-24 16:00,ZJHK 241600Z 17001MPS CAVOK 25/24 Q1011 NOSIG
ZJHK,2016-10-24 17:00,ZJHK 241700Z 16001MPS CAVOK 24/24 Q1011 NOSIG
ZJHK,2016-10-24 18:00,ZJHK 241800Z 14001MPS CAVOK 24/24 Q1010 NOSIG
ZJHK,2016-10-24 19:00,ZJHK 241900Z 14001MPS CAVOK 24/24 Q1010 NOSIG
ZJHK,2016-10-24 20:00,ZJHK 242000Z 12001MPS CAVOK 24/24 Q1009 NOSIG
ZJHK,2016-10-24 21:00,ZJHK 242100Z 12001MPS CAVOK 24/24 Q1009 NOSIG
ZJHK,2016-10-24 22:00,ZJHK 242200Z 15001MPS 9999 -SHRA FEW023TCU SCT023 25/24 Q1010 BECMG SHRA
ZJHK,2016-10-24 23:00,ZJHK 242300Z 00000MPS 9999 SCT040 25/25 Q1011 RETSRA NOSIG
ZJHK,2016-10-25 00:00,ZJHK 250000Z 13002MPS 9999 SCT046 26/25 Q1012 NOSIG
ZJHK,2016-10-25 01:00,ZJHK 250100Z 14002MPS 110V180 9999 SCT015 27/25 Q1012 NOSIG
ZJHK,2016-10-25 02:00,ZJHK 250200Z 16003MPS 9999 SCT020 28/25 Q1012 NOSIG
ZJHK,2016-10-25 03:00,ZJHK 250300Z 17003MPS 130V210 9999 SCT033 28/25 Q1012 NOSIG
ZJHK,2016-10-25 04:00,ZJHK 250400Z 18003MPS 130V210 9999 -SHRA FEW026TCU SCT026 28/25 Q1012 NOSIG
ZJHK,2016-10-25 05:00,ZJHK 250500Z 20002MPS 9999 SCT020 FEW026TCU 27/25 Q1011 NOSIG
ZJHK,2016-10-25 06:00,ZJHK 250600Z 16003MPS 130V230 9999 SCT020 FEW026TCU 29/25 Q1010 NOSIG
ZJHK,2016-10-25 07:00,ZJHK 250700Z 15005MPS 120V180 9999 SCT020 FEW026TCU 30/24 Q1009 NOSIG
ZJHK,2016-10-25 08:00,ZJHK 250800Z 15004MPS 9999 FEW020 FEW026TCU 29/24 Q1010 NOSIG
ZJHK,2016-10-25 09:00,ZJHK 250900Z 15003MPS 100V200 9999 FEW020 28/24 Q1010 NOSIG
ZJHK,2016-10-25 10:00,ZJHK 251000Z 14003MPS 9999 FEW020 27/23 Q1010 NOSIG
ZJHK,2016-10-25 11:00,ZJHK 251100Z 14003MPS 110V170 CAVOK 26/24 Q1010 NOSIG
ZJHK,2016-10-25 12:00,ZJHK 251200Z 15002MPS CAVOK 25/24 Q1012 NOSIG
ZJHK,2016-10-25 13:00,ZJHK 251300Z 15002MPS CAVOK 25/24 Q1012 NOSIG
ZJHK,2016-10-25 14:00,ZJHK 251400Z 15001MPS 8000 NSC 24/24 Q1013 NOSIG
ZJHK,2016-10-25 15:00,ZJHK 251500Z 15001MPS 7000 NSC 24/24 Q1013 NOSIG
ZJHK,2016-10-25 16:00,ZJHK 251600Z 16001MPS 6000 NSC 24/23 Q1013 NOSIG
ZJHK,2016-10-25 17:00,ZJHK 251700Z 16001MPS 6000 NSC 24/23 Q1013 NOSIG
ZJHK,2016-10-25 18:00,ZJHK 251800Z 00000MPS 5000 BR BCFG NSC 24/23 Q1013 NOSIG
ZJHK,2016-10-25 19:00,ZJHK 251900Z 11001MPS 4000 BR BCFG NSC 23/23 Q1013 NOSIG
ZJHK,2016-10-25 20:00,ZJHK 252000Z 09001MPS 4000 R09/0375N BR BCFG NSC 23/23 Q1013 NOSIG
ZJHK,2016-10-25 21:00,ZJHK 252100Z 03001MPS 4000 BR BCFG NSC 22/22 Q1013 NOSIG
ZJHK,2016-10-25 22:00,ZJHK 252200Z 14002MPS 4000 BR NSC 23/23 Q1013 NOSIG
ZJHK,2016-10-25 23:00,ZJHK 252300Z 12001MPS 2100 R09/0325 BR BCFG NSC 23/23 Q1014 BECMG TL0010 4000 BR
ZJHK,2016-10-26 00:00,ZJHK 260000Z 12002MPS 5000 BR NSC 24/24 Q1015 NOSIG
ZJHK,2016-10-26 01:00,ZJHK 260100Z 12002MPS 080V150 9999 SCT016 26/25 Q1015 NOSIG
ZJHK,2016-10-26 02:00,ZJHK 260200Z 11004MPS 090V150 9999 SCT016 28/24 Q1016 NOSIG
ZJHK,2016-10-26 03:00,ZJHK 260300Z 12003MPS 080V150 9999 SCT020 29/24 Q1015 NOSIG
ZJHK,2016-10-26 04:00,ZJHK 260400Z 10004MPS 070V140 9999 SCT020 30/24 Q1014 NOSIG
ZJHK,2016-10-26 05:00,ZJHK 260500Z 10004MPS 070V130 9999 SCT020 30/23 Q1014 NOSIG
ZJHK,2016-10-26 06:00,ZJHK 260600Z 09005MPS 9999 FEW020 30/23 Q1013 NOSIG
ZJHK,2016-10-26 07:00,ZJHK 260700Z 06006MPS 9999 FEW020 29/23 Q1012 NOSIG
ZJHK,2016-10-26 08:00,ZJHK 260800Z 09006MPS 9999 FEW020 29/23 Q1012 NOSIG
ZJHK,2016-10-26 09:00,ZJHK 260900Z 08006MPS 9999 FEW020 28/23 Q1012 NOSIG
ZJHK,2016-10-26 10:00,ZJHK 261000Z 09005MPS 9999 FEW020 26/23 Q1013 NOSIG
ZJHK,2016-10-26 11:00,ZJHK 261100Z 10004MPS CAVOK 25/23 Q1013 NOSIG
ZJHK,2016-10-26 12:00,ZJHK 261200Z 11003MPS CAVOK 25/23 Q1014 NOSIG
ZJHK,2016-10-26 13:00,ZJHK 261300Z 12002MPS 9999 SCT015 24/23 Q1014 NOSIG
ZJHK,2016-10-26 14:00,ZJHK 261400Z 11002MPS CAVOK 24/23 Q1015 NOSIG
ZJHK,2016-10-26 15:00,ZJHK 261500Z 11002MPS CAVOK 24/23 Q1015 NOSIG
ZJHK,2016-10-26 16:00,ZJHK 261600Z 14001MPS 8000 NSC 23/23 Q1015 NOSIG
ZJHK,2016-10-26 17:00,ZJHK 261700Z 12001MPS 8000 NSC 23/23 Q1015 NOSIG
ZJHK,2016-10-26 18:00,ZJHK 261800Z 14001MPS 7000 NSC 23/22 Q1014 NOSIG
ZJHK,2016-10-26 19:00,ZJHK 261900Z 14001MPS 6000 BCFG NSC 22/22 Q1014 NOSIG
ZJHK,2016-10-26 20:00,ZJHK 262000Z 00000MPS 6000 R09/0375N BCFG NSC 21/21 Q1014 NOSIG
ZJHK,2016-10-26 21:00,ZJHK 262100Z 08001MPS 6000 R09/0550 BCFG NSC 21/21 Q1014 NOSIG
ZJHK,2016-10-26 22:00,ZJHK 262200Z 00000MPS 6000 BCFG FEW033 21/21 Q1015 NOSIG
ZJHK,2016-10-26 23:00,ZJHK 262300Z 08001MPS 9999 FEW033 23/22 Q1016 NOSIG
ZJHK,2016-10-27 00:00,ZJHK 270000Z 12001MPS 9999 FEW033 25/24 Q1016 NOSIG
ZJHK,2016-10-27 01:00,ZJHK 270100Z 07004MPS 9999 SCT020 27/23 Q1017 NOSIG
ZJHK,2016-10-27 02:00,ZJHK 270200Z 07004MPS 040V100 9999 SCT020 27/23 Q1017 NOSIG
ZJHK,2016-10-27 03:00,ZJHK 270300Z 06003MPS 020V110 9999 SCT020 28/24 Q1017 NOSIG
ZJHK,2016-10-27 04:00,ZJHK 270400Z 09005MPS 9999 SCT020 28/23 Q1016 NOSIG
ZJHK,2016-10-27 05:00,ZJHK 270500Z 07005MPS 9999 SCT020 29/23 Q1015 NOSIG
ZJHK,2016-10-27 06:00,ZJHK 270600Z 07005MPS 040V110 9999 SCT020 29/23 Q1013 NOSIG
ZJHK,2016-10-27 07:00,ZJHK 270700Z 07006MPS 9999 SCT020 28/23 Q1013 NOSIG
ZJHK,2016-10-27 08:00,ZJHK 270800Z 08006MPS 9999 SCT020 28/23 Q1012 NOSIG
ZJHK,2016-10-27 09:00,ZJHK 270900Z 07005MPS 9999 SCT026 27/23 Q1013 NOSIG
ZJHK,2016-10-27 10:00,ZJHK 271000Z 08004MPS 040V100 9999 FEW026 26/23 Q1013 NOSIG
ZJHK,2016-10-27 11:00,ZJHK 271100Z 10003MPS CAVOK 25/23 Q1013 NOSIG
ZJHK,2016-10-27 12:00,ZJHK 271200Z 11003MPS CAVOK 25/23 Q1014 NOSIG
ZJHK,2016-10-27 13:00,ZJHK 271300Z 11003MPS CAVOK 25/23 Q1014 NOSIG
ZJHK,2016-10-27 14:00,ZJHK 271400Z 10003MPS CAVOK 24/23 Q1014 NOSIG
ZJHK,2016-10-27 15:00,ZJHK 271500Z 11001MPS CAVOK 24/23 Q1015 NOSIG
ZJHK,2016-10-27 16:00,ZJHK 271600Z 18001MPS 8000 NSC 23/23 Q1015 NOSIG
ZJHK,2016-10-27 17:00,ZJHK 271700Z 00000MPS 8000 NSC 23/23 Q1014 NOSIG
ZJHK,2016-10-27 18:00,ZJHK 271800Z 18001MPS 8000 BCFG NSC 23/22 Q1014 NOSIG
ZJHK,2016-10-27 19:00,ZJHK 271900Z 28001MPS 8000 R09/0800 BCFG NSC 23/22 Q1013 NOSIG
ZJHK,2016-10-27 20:00,ZJHK 272000Z 33001MPS 8000 BCFG SCT013 23/23 Q1013 NOSIG
ZJHK,2016-10-27 21:00,ZJHK 272100Z 09001MPS 7000 NSC 23/23 Q1013 NOSIG
ZJHK,2016-10-27 22:00,ZJHK 272200Z 11001MPS 6000 BCFG NSC 23/22 Q1014 NOSIG
ZJHK,2016-10-27 23:00,ZJHK 272300Z 00000MPS 6000 R09/0400V1000 BCFG NSC 22/22 Q1014 NOSIG
ZJHK,2016-10-28 00:00,ZJHK 280000Z 11001MPS 7000 NSC 24/24 Q1015 NOSIG
ZJHK,2016-10-28 01:00,ZJHK 280100Z 11003MPS 9999 SCT016 26/24 Q1015 NOSIG
ZJHK,2016-10-28 02:00,ZJHK 280200Z 11003MPS 080V140 9999 SCT016 28/23 Q1015 NOSIG
ZJHK,2016-10-28 03:00,ZJHK 280300Z 10004MPS 080V140 9999 SCT016 29/23 Q1015 NOSIG
ZJHK,2016-10-28 04:00,ZJHK 280400Z 09004MPS 050V140 9999 SCT020 29/23 Q1014 NOSIG
ZJHK,2016-10-28 05:00,ZJHK 280500Z 07005MPS 040V100 9999 SCT020 30/22 Q1013 NOSIG
ZJHK,2016-10-28 06:00,ZJHK 280600Z 07005MPS 040V100 9999 FEW020 30/23 Q1012 NOSIG
ZJHK,2016-10-28 07:00,ZJHK 280700Z 09005MPS 9999 FEW020 30/22 Q1011 NOSIG
ZJHK,2016-10-28 08:00,ZJHK 280800Z 08005MPS 050V110 9999 FEW020 29/22 Q1011 NOSIG
ZJHK,2016-10-28 09:00,ZJHK 280900Z 08005MPS 040V100 9999 FEW023 28/22 Q1012 NOSIG
ZJHK,2016-10-28 10:00,ZJHK 281000Z 08005MPS 9999 FEW023 27/22 Q1012 NOSIG
ZJHK,2016-10-28 11:00,ZJHK 281100Z 09005MPS 9999 FEW023 26/23 Q1012 NOSIG
ZJHK,2016-10-28 12:00,ZJHK 281200Z 09003MPS CAVOK 25/23 Q1013 NOSIG
ZJHK,2016-10-28 13:00,ZJHK 281300Z 08003MPS 050V110 CAVOK 25/23 Q1014 NOSIG
ZJHK,2016-10-28 14:00,ZJHK 281400Z 10002MPS 9999 FEW016 25/23 Q1014 NOSIG
ZJHK,2016-10-28 15:00,ZJHK 281500Z 12001MPS 9999 FEW016 24/23 Q1015 NOSIG
ZJHK,2016-10-28 16:00,ZJHK 281600Z 11001MPS 9999 FEW033 24/23 Q1014 NOSIG
ZJHK,2016-10-28 17:00,ZJHK 281700Z 10003MPS 9999 FEW033 25/23 Q1014 NOSIG
ZJHK,2016-10-28 18:00,ZJHK 281800Z 10002MPS CAVOK 24/23 Q1014 NOSIG
ZJHK,2016-10-28 19:00,ZJHK 281900Z 11002MPS CAVOK 24/23 Q1013 NOSIG
ZJHK,2016-10-28 20:00,ZJHK 282000Z 09002MPS CAVOK 23/23 Q1013 NOSIG
ZJHK,2016-10-28 21:00,ZJHK 282100Z 09002MPS CAVOK 24/23 Q1014 NOSIG
ZJHK,2016-10-28 22:00,ZJHK 282200Z 08003MPS 9999 FEW023 24/23 Q1014 NOSIG
ZJHK,2016-10-28 23:00,ZJHK 282300Z 06002MPS 9999 FEW023 24/23 Q1015 NOSIG
ZJHK,2016-10-29 00:00,ZJHK 290000Z 07004MPS 9999 FEW023 26/23 Q1015 NOSIG
ZJHK,2016-10-29 01:00,ZJHK 290100Z 07005MPS 9999 FEW016 26/23 Q1016 NOSIG
ZJHK,2016-10-29 02:00,ZJHK 290200Z 09008MPS 9999 FEW016 28/22 Q1016 NOSIG
ZJHK,2016-10-29 03:00,ZJHK 290300Z 09007MPS 9999 FEW020 29/22 Q1015 NOSIG
ZJHK,2016-10-29 04:00,ZJHK 290400Z 08008MPS 050V110 9999 FEW023 29/21 Q1015 NOSIG
ZJHK,2016-10-29 05:00,ZJHK 290500Z 09006MPS 060V120 9999 FEW026TCU SCT026 29/23 Q1014 NOSIG
ZJHK,2016-10-29 06:00,ZJHK 290600Z 07006MPS 9999 FEW026TCU SCT026 28/22 Q1014 NOSIG
ZJHK,2016-10-29 07:00,ZJHK 290700Z 05006MPS 9999 FEW026TCU SCT026 27/23 Q1014 NOSIG
ZJHK,2016-10-29 08:00,ZJHK 290800Z 06006MPS 030V090 9999 FEW026TCU SCT026 28/22 Q1013 NOSIG
ZJHK,2016-10-29 09:00,ZJHK 290900Z 07006MPS 7000 SCT016 FEW026TCU SCT026 27/23 Q1014 NOSIG
ZJHK,2016-10-29 10:00,ZJHK 291000Z 07007MPS 5000 BR BKN016 FEW026TCU SCT026 27/23 Q1014 NOSIG
ZJHK,2016-10-29 11:00,ZJHK 291100Z 08006MPS 5000 BR BKN016 FEW026TCU SCT026 26/23 Q1014 NOSIG
ZJHK,2016-10-29 12:00,ZJHK 291200Z 08007MPS 6000 SCT016 FEW026TCU 26/23 Q1015 NOSIG
ZJHK,2016-10-29 13:00,ZJHK 291300Z 08007MPS 6000 FEW020 26/23 Q1016 NOSIG
ZJHK,2016-10-29 14:00,ZJHK 291400Z 08006MPS 8000 SCT020 FEW026TCU 26/23 Q1016 NOSIG
ZJHK,2016-10-29 15:00,ZJHK 291500Z 08007MPS 8000 -SHRA BKN016 FEW026TCU 26/24 Q1016 NOSIG
ZJHK,2016-10-29 16:00,ZJHK 291600Z 07006MPS 030V090 8000 -SHRA BKN015 FEW026TCU 25/23 Q1016 NOSIG
ZJHK,2016-10-29 17:00,ZJHK 291700Z 07006MPS 3000 -SHRA SCT007 FEW023CB BKN026 23/23 Q1016 RESHRA NOSIG
ZJHK,2016-10-29 18:00,ZJHK 291800Z 05006MPS 7000 SCT010 FEW023TCU BKN026 23/22 Q1016 NOSIG
ZJHK,2016-10-29 19:00,ZJHK 291900Z 05006MPS 010V080 7000 -SHRA FEW015 FEW023TCU BKN026 23/22 Q1015 NOSIG
ZJHK,2016-10-29 20:00,ZJHK 292000Z 06007MPS 7000 SCT015 FEW023TCU BKN026 23/22 Q1015 NOSIG
ZJHK,2016-10-29 21:00,ZJHK 292100Z 06008G13MPS 7000 FEW015 FEW023TCU BKN026 24/22 Q1015 NOSIG
ZJHK,2016-10-29 22:00,ZJHK 292200Z 06008MPS 7000 SCT016 BKN026 24/21 Q1015 NOSIG
ZJHK,2016-10-29 23:00,ZJHK 292300Z 06008MPS 7000 SCT016 BKN026 24/21 Q1016 NOSIG
ZJHK,2016-10-30 00:00,ZJHK 300000Z 06009MPS 7000 BKN016 BKN026 24/21 Q1017 NOSIG
ZJHK,2016-10-30 01:00,ZJHK 300100Z 07008MPS 8000 SCT016 BKN026 24/21 Q1017 NOSIG
ZJHK,2016-10-30 02:00,ZJHK 300200Z 07008MPS 9999 SCT016 SCT020 25/22 Q1018 NOSIG
ZJHK,2016-10-30 03:00,ZJHK 300300Z 07009MPS 9999 SCT016 BKN026 25/22 Q1018 NOSIG
ZJHK,2016-10-30 04:00,ZJHK 300400Z 08009MPS 9999 SCT016 BKN026 25/22 Q1017 NOSIG
ZJHK,2016-10-30 05:00,ZJHK 300500Z 08009MPS 9999 SCT016 BKN026 25/22 Q1016 NOSIG
ZJHK,2016-10-30 06:00,ZJHK 300600Z 08009MPS 9999 SCT016 FEW026TCU BKN026 25/22 Q1016 NOSIG
ZJHK,2016-10-30 07:00,ZJHK 300700Z 08009MPS 9999 SCT016 BKN030 25/22 Q1015 NOSIG
ZJHK,2016-10-30 08:00,ZJHK 300800Z 08008MPS 8000 -SHRA SCT015 FEW030TCU BKN030 25/22 Q1015 NOSIG
ZJHK,2016-10-30 09:00,ZJHK 300900Z 08006MPS 7000 -SHRA SCT015 FEW033TCU BKN033 25/22 Q1015 NOSIG
ZJHK,2016-10-30 10:00,ZJHK 301000Z 08005MPS 6000 -SHRA SCT015 FEW033TCU BKN033 24/22 Q1016 NOSIG
ZJHK,2016-10-30 11:00,ZJHK 301100Z 08006MPS 5000 -SHRA SCT015 FEW033TCU BKN033 23/22 Q1016 NOSIG
ZJHK,2016-10-30 12:00,ZJHK 301200Z 07005MPS 5000 -SHRA SCT011 FEW033TCU BKN033 23/22 Q1017 NOSIG
ZJHK,2016-10-30 13:00,ZJHK 301300Z 07005MPS 3000 -SHRA SCT010 FEW030TCU BKN030 23/22 Q1017 BECMG 2500 SHRA BKN010 FEW030CB BKN030
ZJHK,2016-10-30 14:00,ZJHK 301400Z 07006MPS 4000 -SHRA BKN010 FEW030TCU BKN030 23/22 Q1017 NOSIG
ZJHK,2016-10-30 15:00,ZJHK 301500Z 07006MPS 3000 SHRA BKN010 FEW030TCU BKN030 23/22 Q1017 NOSIG
ZJHK,2016-10-30 16:00,ZJHK 301600Z 06007MPS 4000 -SHRA BKN010 FEW030TCU BKN030 23/22 Q1017 RESHRA NOSIG
ZJHK,2016-10-30 17:00,ZJHK 301700Z 06007MPS 5000 -SHRA BKN010 FEW030TCU BKN030 23/22 Q1016 NOSIG
ZJHK,2016-10-30 18:00,ZJHK 301800Z 06006MPS 5000 -SHRA BKN010 FEW030TCU BKN030 23/22 Q1016 NOSIG
ZJHK,2016-10-30 19:00,ZJHK 301900Z 08005MPS 040V100 5000 -SHRA BKN010 FEW030TCU BKN030 23/22 Q1016 NOSIG
ZJHK,2016-10-30 20:00,ZJHK 302000Z 07006MPS 5000 -SHRA BR BKN010 FEW030TCU BKN030 23/22 Q1015 NOSIG
ZJHK,2016-10-30 21:00,ZJHK 302100Z 06007MPS 5000 -SHRA BR BKN010 FEW030TCU BKN030 24/22 Q1015 NOSIG
ZJHK,2016-10-30 22:00,ZJHK 302200Z 06007MPS 5000 -SHRA BR BKN010 FEW030TCU BKN030 24/22 Q1016 NOSIG
ZJHK,2016-10-30 23:00,ZJHK 302300Z 07008MPS 5000 -SHRA BR BKN010 FEW030TCU BKN030 24/22 Q1017 NOSIG
ZJHK,2016-10-31 00:00,ZJHK 310000Z 06006MPS 030V090 5000 -SHRA BR BKN012 FEW030TCU BKN030 24/22 Q1017 NOSIG
ZJHK,2016-10-31 01:00,ZJHK 310100Z 07008MPS 8000 BKN012 FEW030TCU BKN030 24/22 Q1018 NOSIG
ZJHK,2016-10-31 02:00,ZJHK 310200Z 08008MPS 9999 SCT013 SCT030 25/22 Q1018 NOSIG
ZJHK,2016-10-31 03:00,ZJHK 310300Z 08008MPS 9999 SCT013 BKN030 26/22 Q1018 NOSIG
ZJHK,2016-10-31 04:00,ZJHK 310400Z 08009MPS 9999 SCT013 BKN040 27/23 Q1017 NOSIG
ZJHK,2016-10-31 05:00,ZJHK 310500Z 07008MPS 9999 SCT013 BKN040 26/22 Q1017 NOSIG
ZJHK,2016-10-31 06:00,ZJHK 310600Z 08008MPS 8000 SCT013 BKN040 26/22 Q1016 NOSIG
ZJHK,2016-10-31 07:00,ZJHK 310700Z 08006MPS 8000 SCT013 FEW030TCU BKN040 25/22 Q1015 NOSIG
ZJHK,2016-10-31 08:00,ZJHK 310800Z 07006MPS 8000 SCT013 BKN040 25/22 Q1015 NOSIG
ZJHK,2016-10-31 09:00,ZJHK 310900Z 06006MPS 8000 SCT013 BKN040 25/22 Q1015 NOSIG
ZJHK,2016-10-31 10:00,ZJHK 311000Z 07004MPS 6000 SCT013 OVC030 25/22 Q1016 NOSIG
ZJHK,2016-10-31 11:00,ZJHK 311100Z 06005MPS 7000 SCT013 OVC026 24/22 Q1016 NOSIG
ZJHK,2016-10-31 12:00,ZJHK 311200Z 06005MPS 7000 SCT016 OVC033 25/22 Q1017 NOSIG
ZJHK,2016-10-31 13:00,ZJHK 311300Z 06005MPS 6000 SCT016 OVC033 24/22 Q1017 NOSIG
ZJHK,2016-10-31 14:00,ZJHK 311400Z 07005MPS 7000 SCT016 OVC033 25/22 Q1017 NOSIG
ZJHK,2016-10-31 15:00,ZJHK 311500Z 07005MPS 9999 SCT033 25/20 Q1017 NOSIG
ZJHK,2016-10-31 16:00,ZJHK 311600Z 09005MPS 9999 SCT033 25/20 Q1017 NOSIG
ZJHK,2016-10-31 17:00,ZJHK 311700Z 06004MPS 9999 SCT040 25/21 Q1017 NOSIG
ZJHK,2016-10-31 18:00,ZJHK 311800Z 07005MPS 8000 SCT040 24/21 Q1016 NOSIG
ZJHK,2016-10-31 19:00,ZJHK 311900Z 07004MPS 7000 SCT040 24/21 Q1016 NOSIG
ZJHK,2016-10-31 20:00,ZJHK 312000Z 07003MPS 7000 FEW040 24/21 Q1016 NOSIG
ZJHK,2016-10-31 21:00,ZJHK 312100Z 06005MPS 7000 FEW040 24/20 Q1016 NOSIG
ZJHK,2016-10-31 22:00,ZJHK 312200Z 06005MPS 7000 SCT040 24/21 Q1016 NOSIG
ZJHK,2016-10-31 23:00,ZJHK 312300Z 06005MPS 7000 NSC 24/21 Q1017 NOSIG
ZJHK,2016-11-01 00:00,ZJHK 010000Z 05006MPS 7000 SCT016 BKN040 24/21 Q1017 NOSIG
ZJHK,2016-11-01 01:00,ZJHK 010100Z 06006MPS 7000 SCT016 BKN040 24/21 Q1018 NOSIG
ZJHK,2016-11-01 02:00,ZJHK 010200Z 05007MPS 9999 SCT016 BKN046 24/21 Q1018 NOSIG
ZJHK,2016-11-01 03:00,ZJHK 010300Z 06006MPS 9999 SCT016 BKN046 25/21 Q1018 NOSIG
ZJHK,2016-11-01 04:00,ZJHK 010400Z 05006MPS 9999 SCT016 BKN046 24/21 Q1017 NOSIG
ZJHK,2016-11-01 05:00,ZJHK 010500Z 05007MPS 020V080 9999 SCT016 FEW030TCU BKN046 24/20 Q1017 NOSIG
ZJHK,2016-11-01 06:00,ZJHK 010600Z 05006MPS 9999 SCT016 BKN046 23/20 Q1017 NOSIG
ZJHK,2016-11-01 07:00,ZJHK 010700Z 06005MPS 9999 SCT016 BKN046 24/20 Q1016 NOSIG
ZJHK,2016-11-01 08:00,ZJHK 010800Z 06006MPS 9999 SCT016 BKN046 24/20 Q1016 NOSIG
ZJHK,2016-11-01 09:00,ZJHK 010900Z 06005MPS 9999 SCT016 BKN030 24/20 Q1017 NOSIG
ZJHK,2016-11-01 10:00,ZJHK 011000Z 07006MPS 9999 SCT016 BKN033 24/19 Q1017 NOSIG
ZJHK,2016-11-01 11:00,ZJHK 011100Z 06006MPS 9999 SCT020 BKN046 24/19 Q1017 NOSIG
ZJHK,2016-11-01 12:00,ZJHK 011200Z 07006MPS 9999 SCT020 BKN046 24/19 Q1018 NOSIG
ZJHK,2016-11-01 13:00,ZJHK 011300Z 06006MPS 9999 SCT023 BKN046 24/19 Q1019 NOSIG
ZJHK,2016-11-01 14:00,ZJHK 011400Z 06006MPS 9999 BKN023 24/19 Q1019 NOSIG
ZJHK,2016-11-01 15:00,ZJHK 011500Z 06006MPS 9999 SCT023 BKN040 24/19 Q1019 NOSIG
ZJHK,2016-11-01 16:00,ZJHK 011600Z 06005MPS 9999 SCT023 BKN040 23/20 Q1018 NOSIG
ZJHK,2016-11-01 17:00,ZJHK 011700Z 06005MPS 020V080 9999 SCT023 BKN040 23/20 Q1018 NOSIG
ZJHK,2016-11-01 18:00,ZJHK 011800Z 06006MPS 020V080 9999 BKN026 23/19 Q1018 NOSIG
ZJHK,2016-11-01 19:00,ZJHK 011900Z 06005MPS 030V090 9999 SCT026 23/19 Q1017 NOSIG
ZJHK,2016-11-01 20:00,ZJHK 012000Z 05007MPS 9999 SCT026 23/19 Q1017 NOSIG
ZJHK,2016-11-01 21:00,ZJHK 012100Z 06006MPS 9999 SCT026 23/18 Q1017 NOSIG
ZJHK,2016-11-01 22:00,ZJHK 012200Z 05006MPS 9999 SCT026 BKN040 23/19 Q1018 NOSIG
ZJHK,2016-11-01 23:00,ZJHK 012300Z 05006MPS 9999 SCT026 BKN040 23/19 Q1019 NOSIG
ZJHK,2016-11-02 00:00,ZJHK 020000Z 05006MPS 9999 SCT026 BKN040 23/19 Q1019 NOSIG
ZJHK,2016-11-02 01:00,ZJHK 020100Z 05007MPS 9999 SCT026 BKN040 23/19 Q1020 NOSIG
ZJHK,2016-11-02 02:00,ZJHK 020200Z 05009MPS 9999 SCT026 BKN040 24/19 Q1020 NOSIG
ZJHK,2016-11-02 03:00,ZJHK 020300Z 04008MPS 9999 FEW020 BKN040 23/19 Q1020 NOSIG
ZJHK,2016-11-02 04:00,ZJHK 020400Z 05006MPS 9999 FEW020 BKN040 24/19 Q1019 NOSIG
ZJHK,2016-11-02 05:00,ZJHK 020500Z 05007MPS 9999 FEW020 BKN040 24/19 Q1018 NOSIG
ZJHK,2016-11-02 06:00,ZJHK 020600Z 06006MPS 9999 FEW020 BKN040 23/19 Q1018 NOSIG
ZJHK,2016-11-02 07:00,ZJHK 020700Z 05006MPS 9999 FEW020 BKN033 23/19 Q1017 NOSIG
ZJHK,2016-11-02 08:00,ZJHK 020800Z 06006MPS 9999 FEW020 BKN033 23/18 Q1017 NOSIG
ZJHK,2016-11-02 09:00,ZJHK 020900Z 07006MPS 9999 FEW020 BKN040 23/18 Q1017 NOSIG
ZJHK,2016-11-02 10:00,ZJHK 021000Z 07005MPS 9999 FEW020 BKN033 23/18 Q1017 NOSIG
ZJHK,2016-11-02 11:00,ZJHK 021100Z 06005MPS CAVOK 22/18 Q1017 NOSIG
ZJHK,2016-11-02 12:00,ZJHK 021200Z 07004MPS CAVOK 22/18 Q1018 NOSIG
ZJHK,2016-11-02 13:00,ZJHK 021300Z 07004MPS CAVOK 22/18 Q1019 NOSIG
ZJHK,2016-11-02 14:00,ZJHK 021400Z 07004MPS CAVOK 22/18 Q1019 NOSIG
ZJHK,2016-11-02 15:00,ZJHK 021500Z 06004MPS CAVOK 22/18 Q1019 NOSIG
ZJHK,2016-11-02 16:00,ZJHK 021600Z 06005MPS CAVOK 23/18 Q1019 NOSIG
ZJHK,2016-11-02 17:00,ZJHK 021700Z 06005MPS CAVOK 22/17 Q1019 NOSIG
ZJHK,2016-11-02 18:00,ZJHK 021800Z 05004MPS CAVOK 22/18 Q1018 NOSIG
ZJHK,2016-11-02 19:00,ZJHK 021900Z 05004MPS CAVOK 22/18 Q1018 NOSIG
ZJHK,2016-11-02 20:00,ZJHK 022000Z 05005MPS 9999 FEW030 22/18 Q1018 NOSIG
ZJHK,2016-11-02 21:00,ZJHK 022100Z 05006MPS 9999 SCT030 22/17 Q1018 NOSIG
ZJHK,2016-11-02 22:00,ZJHK 022200Z 04005MPS 9999 SCT030 22/17 Q1019 NOSIG
ZJHK,2016-11-02 23:00,ZJHK 022300Z 05005MPS 9999 SCT030 22/17 Q1019 NOSIG
ZJHK,2016-11-03 00:00,ZJHK 030000Z 05005MPS 9999 SCT033 22/17 Q1020 NOSIG
ZJHK,2016-11-03 01:00,ZJHK 030100Z 05006MPS 9999 BKN040 22/17 Q1020 NOSIG
ZJHK,2016-11-03 02:00,ZJHK 030200Z 05006MPS 9999 BKN040 22/17 Q1020 NOSIG
ZJHK,2016-11-03 03:00,ZJHK 030300Z 06006MPS 9999 BKN040 22/17 Q1020 NOSIG
ZJHK,2016-11-03 04:00,ZJHK 030400Z 05005MPS 9999 BKN040 22/17 Q1019 NOSIG
ZJHK,2016-11-03 05:00,ZJHK 030500Z 06005MPS 9999 BKN033 22/17 Q1018 NOSIG
ZJHK,2016-11-03 06:00,ZJHK 030600Z 07005MPS 9999 BKN033 22/17 Q1017 NOSIG
ZJHK,2016-11-03 07:00,ZJHK 030700Z 05003MPS 020V080 9999 OVC033 22/18 Q1016 NOSIG
ZJHK,2016-11-03 08:00,ZJHK 030800Z 06004MPS 030V090 9999 OVC033 22/18 Q1016 NOSIG
ZJHK,2016-11-03 09:00,ZJHK 030900Z 06003MPS 9999 OVC033 22/18 Q1016 NOSIG
ZJHK,2016-11-03 10:00,ZJHK 031000Z 07004MPS 9999 OVC033 22/18 Q1016 NOSIG
ZJHK,2016-11-03 11:00,ZJHK 031100Z 09004MPS 9999 OVC033 21/18 Q1016 NOSIG
ZJHK,2016-11-03 12:00,ZJHK 031200Z 07003MPS 9999 OVC033 21/18 Q1016 NOSIG
ZJHK,2016-11-03 13:00,ZJHK 031300Z 06003MPS 9999 OVC033 22/18 Q1017 NOSIG
ZJHK,2016-11-03 14:00,ZJHK 031400Z 05002MPS 360V080 9999 OVC046 22/18 Q1017 NOSIG
ZJHK,2016-11-03 15:00,ZJHK 031500Z 05002MPS 020V080 9999 OVC046 22/18 Q1017 NOSIG
ZJHK,2016-11-03 16:00,ZJHK 031600Z 07002MPS 9999 OVC046 21/18 Q1017 NOSIG
ZJHK,2016-11-03 17:00,ZJHK 031700Z 05002MPS 9999 OVC046 21/18 Q1016 NOSIG
ZJHK,2016-11-03 18:00,ZJHK 031800Z 05002MPS 9999 OVC046 21/18 Q1016 NOSIG
ZJHK,2016-11-03 19:00,ZJHK 031900Z 06002MPS 9999 OVC046 21/17 Q1015 NOSIG
ZJHK,2016-11-03 20:00,ZJHK 032000Z 05002MPS 9999 BKN046 21/18 Q1015 NOSIG
ZJHK,2016-11-03 21:00,ZJHK 032100Z 05003MPS 9999 BKN046 21/18 Q1015 NOSIG
ZJHK,2016-11-03 22:00,ZJHK 032200Z 05003MPS 9999 BKN046 21/17 Q1015 NOSIG
ZJHK,2016-11-03 23:00,ZJHK 032300Z 06003MPS CAVOK 21/17 Q1015 NOSIG
ZJHK,2016-11-04 00:00,ZJHK 040000Z 07004MPS 9999 FEW023 22/17 Q1016 NOSIG
ZJHK,2016-11-04 01:00,ZJHK 040100Z 06005MPS 9999 FEW023 22/17 Q1016 NOSIG
ZJHK,2016-11-04 02:00,ZJHK 040200Z 05005MPS 020V080 9999 FEW023 24/18 Q1017 NOSIG
ZJHK,2016-11-04 03:00,ZJHK 040300Z 06005MPS 020V090 9999 SCT023 24/17 Q1016 NOSIG
ZJHK,2016-11-04 04:00,ZJHK 040400Z 05006MPS 020V080 9999 FEW023 25/18 Q1015 NOSIG
ZJHK,2016-11-04 05:00,ZJHK 040500Z 03004MPS 360V080 9999 SCT023 25/17 Q1014 NOSIG
ZJHK,2016-11-04 06:00,ZJHK 040600Z 06004MPS 030V100 9999 FEW016 25/17 Q1013 NOSIG
ZJHK,2016-11-04 07:00,ZJHK 040700Z 03004MPS 350V070 9999 FEW016 25/18 Q1012 NOSIG
ZJHK,2016-11-04 08:00,ZJHK 040800Z 04004MPS 010V070 CAVOK 25/17 Q1012 NOSIG
ZJHK,2016-11-04 09:00,ZJHK 040900Z 04004MPS 010V090 CAVOK 24/18 Q1012 NOSIG
ZJHK,2016-11-04 10:00,ZJHK 041000Z 09004MPS CAVOK 23/17 Q1012 NOSIG
ZJHK,2016-11-04 11:00,ZJHK 041100Z 09003MPS CAVOK 21/17 Q1012 NOSIG
ZJHK,2016-11-04 12:00,ZJHK 041200Z 12002MPS 7000 NSC 20/18 Q1013 NOSIG
ZJHK,2016-11-04 13:00,ZJHK 041300Z 15001MPS 6000 NSC 19/17 Q1013 NOSIG
ZJHK,2016-11-04 14:00,ZJHK 041400Z 15001MPS 5000 BR BCFG NSC 18/17 Q1013 NOSIG
ZJHK,2016-11-04 15:00,ZJHK 041500Z 16002MPS 6000 NSC 19/17 Q1013 NOSIG
ZJHK,2016-11-04 16:00,ZJHK 041600Z 20002MPS 6000 NSC 18/17 Q1013 NOSIG
ZJHK,2016-11-04 17:00,ZJHK 041700Z 23001MPS 5000 BR NSC 18/17 Q1013 NOSIG
ZJHK,2016-11-04 18:00,ZJHK 041800Z 24001MPS 5000 BR NSC 17/17 Q1012 NOSIG
ZJHK,2016-11-04 19:00,ZJHK 041900Z 00000MPS 4000 R09/1400N BR BCFG NSC 17/17 Q1012 NOSIG
ZJHK,2016-11-04 20:00,ZJHK 042000Z 32001MPS 4000 R09/1200 BR BCFG NSC 16/16 Q1012 NOSIG
ZJHK,2016-11-04 21:00,ZJHK 042100Z 27001MPS 3500 R09/0325V0550 BR BCFG NSC 17/17 Q1011 NOSIG
ZJHK,2016-11-04 22:00,ZJHK 042200Z 00000MPS 3500 R09/0450 BR BCFG NSC 16/16 Q1011 NOSIG
ZJHK,2016-11-04 23:00,ZJHK 042300Z 00000MPS 3500 R09/0600V1100 BR BCFG NSC 16/16 Q1012 NOSIG
ZJHK,2016-11-05 00:00,ZJHK 050000Z 14001MPS 4500 BR NSC 20/19 Q1012 NOSIG
ZJHK,2016-11-05 01:00,ZJHK 050100Z 12002MPS CAVOK 23/20 Q1013 NOSIG
ZJHK,2016-11-05 02:00,ZJHK 050200Z 12003MPS 080V150 CAVOK 25/20 Q1013 NOSIG
ZJHK,2016-11-05 03:00,ZJHK 050300Z 15002MPS 9999 FEW016 26/19 Q1013 NOSIG
ZJHK,2016-11-05 04:00,ZJHK 050400Z 15002MPS 9999 SCT026 26/19 Q1012 NOSIG
ZJHK,2016-11-05 05:00,ZJHK 050500Z 07002MPS 9999 SCT026 26/18 Q1011 NOSIG
ZJHK,2016-11-05 06:00,ZJHK 050600Z 06003MPS 360V120 9999 BKN040 27/19 Q1010 NOSIG
ZJHK,2016-11-05 07:00,ZJHK 050700Z 09004MPS 9999 BKN040 26/20 Q1009 NOSIG
ZJHK,2016-11-05 08:00,ZJHK 050800Z 09005MPS 9999 BKN040 26/20 Q1009 NOSIG
ZJHK,2016-11-05 09:00,ZJHK 050900Z 09005MPS 9999 BKN040 25/20 Q1009 NOSIG
ZJHK,2016-11-05 10:00,ZJHK 051000Z 10004MPS 9999 SCT046 24/20 Q1010 NOSIG
ZJHK,2016-11-05 11:00,ZJHK 051100Z 11003MPS CAVOK 23/20 Q1010 NOSIG
ZJHK,2016-11-05 12:00,ZJHK 051200Z 13002MPS CAVOK 22/20 Q1011 NOSIG
ZJHK,2016-11-05 13:00,ZJHK 051300Z 13002MPS CAVOK 22/20 Q1012 NOSIG
ZJHK,2016-11-05 14:00,ZJHK 051400Z 13002MPS CAVOK 21/20 Q1012 NOSIG
ZJHK,2016-11-05 15:00,ZJHK 051500Z 12001MPS CAVOK 20/20 Q1012 NOSIG
ZJHK,2016-11-05 16:00,ZJHK 051600Z 12001MPS CAVOK 21/20 Q1012 NOSIG
ZJHK,2016-11-05 17:00,ZJHK 051700Z 11002MPS CAVOK 21/20 Q1012 NOSIG
ZJHK,2016-11-05 18:00,ZJHK 051800Z 10003MPS CAVOK 21/20 Q1011 NOSIG
ZJHK,2016-11-05 19:00,ZJHK 051900Z 17001MPS CAVOK 21/20 Q1011 NOSIG
ZJHK,2016-11-05 20:00,ZJHK 052000Z 26001MPS 6000 NSC 20/20 Q1012 NOSIG
ZJHK,2016-11-05 21:00,ZJHK 052100Z 00000MPS 5000 R09/1400N BR BCFG NSC 20/20 Q1012 NOSIG
ZJHK,2016-11-05 22:00,ZJHK 052200Z 12001MPS 5000 BR BCFG NSC 19/19 Q1012 NOSIG
ZJHK,2016-11-05 23:00,ZJHK 052300Z 14002MPS 5000 BR NSC 20/20 Q1013 NOSIG
ZJHK,2016-11-06 00:00,ZJHK 060000Z 13001MPS 8000 NSC 22/21 Q1013 NOSIG
ZJHK,2016-11-06 01:00,ZJHK 060100Z 12003MPS 080V150 9999 SCT015 25/22 Q1014 NOSIG
ZJHK,2016-11-06 02:00,ZJHK 060200Z 12004MPS 090V170 9999 SCT020 26/22 Q1014 NOSIG
ZJHK,2016-11-06 03:00,ZJHK 060300Z 12004MPS 9999 SCT026 27/21 Q1014 NOSIG
ZJHK,2016-11-06 04:00,ZJHK 060400Z 10004G10MPS 070V150 9999 SCT026 27/21 Q1013 NOSIG
ZJHK,2016-11-06 05:00,ZJHK 060500Z 10004MPS 070V140 9999 BKN030 27/21 Q1012 NOSIG
ZJHK,2016-11-06 06:00,ZJHK 060600Z 10005MPS 9999 BKN033 26/21 Q1012 NOSIG
ZJHK,2016-11-06 07:00,ZJHK 060700Z 10004MPS 9999 BKN040 26/21 Q1011 NOSIG
ZJHK,2016-11-06 08:00,ZJHK 060800Z 11005MPS 9999 FEW030TCU BKN040 26/21 Q1011 NOSIG
ZJHK,2016-11-06 09:00,ZJHK 060900Z 09005MPS 9999 FEW030TCU BKN040 25/22 Q1012 NOSIG
ZJHK,2016-11-06 10:00,ZJHK 061000Z 10005MPS 9999 FEW030TCU BKN040 24/22 Q1012 NOSIG
ZJHK,2016-11-06 11:00,ZJHK 061100Z 11004MPS 9999 FEW030TCU BKN040 23/21 Q1013 NOSIG
ZJHK,2016-11-06 12:00,ZJHK 061200Z 12002MPS 7000 -SHRA SCT016 FEW030TCU BKN040 23/22 Q1014 NOSIG
ZJHK,2016-11-06 13:00,ZJHK 061300Z 14002MPS 9999 SCT016 FEW030TCU BKN040 23/22 Q1014 NOSIG
ZJHK,2016-11-06 14:00,ZJHK 061400Z 13002MPS 9999 SCT016 OVC040 23/22 Q1014 NOSIG
ZJHK,2016-11-06 15:00,ZJHK 061500Z 14002MPS 9999 SCT016 OVC040 23/22 Q1014 NOSIG
ZJHK,2016-11-06 16:00,ZJHK 061600Z 11002MPS 9999 OVC040 23/22 Q1014 NOSIG
ZJHK,2016-11-06 17:00,ZJHK 061700Z 11002MPS 9999 SCT040 22/22 Q1014 NOSIG
ZJHK,2016-11-06 18:00,ZJHK 061800Z 11001MPS 6000 NSC 22/21 Q1014 NOSIG
ZJHK,2016-11-06 19:00,ZJHK 061900Z 12002MPS 6000 NSC 21/21 Q1013 NOSIG
ZJHK,2016-11-06 20:00,ZJHK 062000Z 12002MPS 6000 NSC 21/21 Q1013 NOSIG
ZJHK,2016-11-06 21:00,ZJHK 062100Z 12002MPS 6000 NSC 21/21 Q1013 NOSIG
ZJHK,2016-11-06 22:00,ZJHK 062200Z 12002MPS 6000 NSC 21/21 Q1014 NOSIG
ZJHK,2016-11-06 23:00,ZJHK 062300Z 10001MPS 7000 NSC 21/21 Q1015 NOSIG
ZJHK,2016-11-07 00:00,ZJHK 070000Z 12001MPS 8000 NSC 23/22 Q1015 NOSIG
ZJHK,2016-11-07 01:00,ZJHK 070100Z 11003MPS 080V140 9999 FEW015 25/23 Q1015 NOSIG
ZJHK,2016-11-07 02:00,ZJHK 070200Z 11004MPS 090V150 9999 FEW015 27/23 Q1015 NOSIG
ZJHK,2016-11-07 03:00,ZJHK 070300Z 10006MPS 9999 SCT020 28/22 Q1015 NOSIG
ZJHK,2016-11-07 04:00,ZJHK 070400Z 11005MPS 080V150 9999 SCT023 28/22 Q1014 NOSIG
ZJHK,2016-11-07 05:00,ZJHK 070500Z 11005MPS 9999 SCT023 28/21 Q1014 NOSIG
ZJHK,2016-11-07 06:00,ZJHK 070600Z 08006MPS 9999 SCT026 29/22 Q1013 NOSIG
ZJHK,2016-11-07 07:00,ZJHK 070700Z 12005MPS 070V150 9999 SCT026 29/22 Q1012 NOSIG
ZJHK,2016-11-07 08:00,ZJHK 070800Z 11005MPS 9999 FEW026 27/21 Q1012 NOSIG
ZJHK,2016-11-07 09:00,ZJHK 070900Z 10004MPS CAVOK 26/21 Q1013 NOSIG
ZJHK,2016-11-07 10:00,ZJHK 071000Z 11004MPS CAVOK 25/21 Q1014 NOSIG
ZJHK,2016-11-07 11:00,ZJHK 071100Z 10003MPS CAVOK 24/22 Q1014 NOSIG
ZJHK,2016-11-07 12:00,ZJHK 071200Z 11002MPS CAVOK 23/22 Q1015 NOSIG
ZJHK,2016-11-07 13:00,ZJHK 071300Z 11003MPS 8000 NSC 23/22 Q1015 NOSIG
ZJHK,2016-11-07 14:00,ZJHK 071400Z 12002MPS 8000 NSC 23/22 Q1015 NOSIG
ZJHK,2016-11-07 15:00,ZJHK 071500Z 10003MPS 8000 NSC 23/22 Q1015 NOSIG
ZJHK,2016-11-07 16:00,ZJHK 071600Z 13002MPS 8000 NSC 23/22 Q1015 NOSIG
ZJHK,2016-11-07 17:00,ZJHK 071700Z 13002MPS 6000 NSC 22/22 Q1015 NOSIG
ZJHK,2016-11-07 18:00,ZJHK 071800Z 12001MPS 6000 NSC 22/22 Q1014 NOSIG
ZJHK,2016-11-07 19:00,ZJHK 071900Z 13001MPS 6000 NSC 22/22 Q1014 NOSIG
ZJHK,2016-11-07 20:00,ZJHK 072000Z 11001MPS 6000 NSC 21/21 Q1014 NOSIG
ZJHK,2016-11-07 21:00,ZJHK 072100Z 13001MPS 6000 NSC 21/21 Q1014 NOSIG
ZJHK,2016-11-07 22:00,ZJHK 072200Z 12001MPS 5000 R09/0900 BR BCFG NSC 20/20 Q1014 NOSIG
ZJHK,2016-11-07 23:00,ZJHK 072300Z 10002MPS 6000 SCT016 22/21 Q1015 NOSIG
ZJHK,2016-11-08 00:00,ZJHK 080000Z 13002MPS CAVOK 23/23 Q1015 NOSIG
ZJHK,2016-11-08 01:00,ZJHK 080100Z 11004MPS 080V140 9999 SCT020 26/23 Q1016 NOSIG
ZJHK,2016-11-08 02:00,ZJHK 080200Z 10005MPS 9999 SCT020 26/23 Q1016 NOSIG
ZJHK,2016-11-08 03:00,ZJHK 080300Z 10005MPS 9999 SCT020 27/22 Q1016 NOSIG
ZJHK,2016-11-08 04:00,ZJHK 080400Z 10005MPS 9999 SCT020 28/22 Q1015 NOSIG
ZJHK,2016-11-08 05:00,ZJHK 080500Z 11004MPS 070V140 9999 SCT020 29/21 Q1015 NOSIG
ZJHK,2016-11-08 06:00,ZJHK 080600Z 08007MPS 9999 SCT020 28/21 Q1014 NOSIG
ZJHK,2016-11-08 07:00,ZJHK 080700Z 08006MPS 9999 SCT020 28/22 Q1014 NOSIG
ZJHK,2016-11-08 08:00,ZJHK 080800Z 07006MPS 9999 SCT020 27/22 Q1014 NOSIG
ZJHK,2016-11-08 09:00,ZJHK 080900Z 06006MPS 9999 FEW026TCU BKN026 26/22 Q1014 NOSIG
ZJHK,2016-11-08 10:00,ZJHK 081000Z 07006MPS 9999 BKN046 25/22 Q1015 NOSIG
ZJHK,2016-11-08 11:00,ZJHK 081100Z 09006MPS 9999 FEW026 25/22 Q1015 NOSIG
ZJHK,2016-11-08 12:00,ZJHK 081200Z 10004MPS 9999 FEW040 24/22 Q1016 NOSIG
ZJHK,2016-11-08 13:00,ZJHK 081300Z 10004MPS 9999 FEW040 24/22 Q1017 NOSIG
ZJHK,2016-11-08 14:00,ZJHK 081400Z 09004MPS 9999 FEW040 25/22 Q1017 NOSIG
ZJHK,2016-11-08 15:00,ZJHK 081500Z 09004MPS 9999 FEW026 24/22 Q1017 NOSIG
ZJHK,2016-11-08 16:00,ZJHK 081600Z 11002MPS 9999 FEW020 24/22 Q1017 NOSIG
ZJHK,2016-11-08 17:00,ZJHK 081700Z 07006MPS 7000 FEW020 24/21 Q1016 NOSIG
ZJHK,2016-11-08 18:00,ZJHK 081800Z 06005MPS 7000 BKN016 23/21 Q1016 NOSIG
ZJHK,2016-11-08 19:00,ZJHK 081900Z 07006MPS 7000 BKN016 23/20 Q1016 NOSIG
ZJHK,2016-11-08 20:00,ZJHK 082000Z 07005MPS 6000 BKN016 23/20 Q1016 NOSIG
ZJHK,2016-11-08 21:00,ZJHK 082100Z 07005MPS 6000 BKN016 22/20 Q1016 NOSIG
ZJHK,2016-11-08 22:00,ZJHK 082200Z 06005MPS 6000 BKN016 22/20 Q1016 NOSIG
ZJHK,2016-11-08 23:00,ZJHK 082300Z 06003MPS 6000 BKN016 22/20 Q1017 NOSIG
ZJHK,2016-11-09 00:00,ZJHK 090000Z 07005MPS 7000 BKN020 SCT046 23/20 Q1017 NOSIG
ZJHK,2016-11-09 01:00,ZJHK 090100Z 07006MPS 7000 SCT020 BKN046 23/20 Q1018 NOSIG
ZJHK,2016-11-09 02:00,ZJHK 090200Z 07005MPS 7000 SCT020 OVC033 23/20 Q1019 NOSIG
ZJHK,2016-11-09 03:00,ZJHK 090300Z 07005MPS 7000 SCT020 OVC040 23/20 Q1018 NOSIG
ZJHK,2016-11-09 04:00,ZJHK 090400Z 08007MPS 7000 FEW020 OVC040 24/20 Q1017 NOSIG
ZJHK,2016-11-09 05:00,ZJHK 090500Z 09006MPS 9999 FEW020 BKN040 24/20 Q1017 NOSIG
ZJHK,2016-11-09 06:00,ZJHK 090600Z 09005MPS 050V110 9999 FEW020 BKN040 24/20 Q1016 NOSIG
ZJHK,2016-11-09 07:00,ZJHK 090700Z 06004MPS 7000 FEW020 BKN040 24/20 Q1016 NOSIG
ZJHK,2016-11-09 08:00,ZJHK 090800Z 04004MPS 7000 -RA FEW020 BKN040 23/21 Q1016 NOSIG
ZJHK,2016-11-09 09:00,ZJHK 090900Z 04004MPS 5000 -RA BR SCT015 BKN030 23/21 Q1016 NOSIG
ZJHK,2016-11-09 10:00,ZJHK 091000Z 04004MPS 010V070 5000 -RA BR SCT015 OVC023 23/21 Q1016 NOSIG
ZJHK,2016-11-09 11:00,ZJHK 091100Z 04005MPS 4000 -RA BR BKN012 OVC023 22/21 Q1016 NOSIG
ZJHK,2016-11-09 12:00,ZJHK 091200Z 05005MPS 020V080 6000 BKN012 OVC023 22/20 Q1017 NOSIG
ZJHK,2016-11-09 13:00,ZJHK 091300Z 01005MPS 310V050 5000 BR BKN013 OVC023 21/19 Q1018 NOSIG
ZJHK,2016-11-09 14:00,ZJHK 091400Z 02004MPS 350V050 4000 -RA BR BKN013 OVC023 20/18 Q1018 NOSIG
ZJHK,2016-11-09 15:00,ZJHK 091500Z 02005MPS 350V050 2000 -RA BR BKN007 OVC023 19/18 Q1019 NOSIG
ZJHK,2016-11-09 16:00,ZJHK 091600Z 01004MPS 1600 -RA BR BKN005 OVC020 19/19 Q1018 NOSIG
ZJHK,2016-11-09 17:00,ZJHK 091700Z 36004MPS 1600 -RA BR BKN005 OVC020 18/18 Q1018 NOSIG
ZJHK,2016-11-09 18:00,ZJHK 091800Z 36004MPS 1600 -RA BR BKN005 OVC020 17/17 Q1018 NOSIG
ZJHK,2016-11-09 19:00,ZJHK 091900Z 35004MPS 1600 -RA BR BKN004 OVC020 17/17 Q1018 NOSIG
ZJHK,2016-11-09 20:00,ZJHK 092000Z 35004MPS 1600 -RA BR BKN004 OVC020 17/16 Q1018 NOSIG
ZJHK,2016-11-09 21:00,ZJHK 092100Z 35004MPS 320V020 2000 -RA BR BKN004 OVC020 17/17 Q1017 NOSIG
ZJHK,2016-11-09 22:00,ZJHK 092200Z 35003MPS 2500 -RA BR BKN004 OVC020 17/17 Q1018 NOSIG
ZJHK,2016-11-09 23:00,ZJHK 092300Z 33004MPS 2500 -RA BR BKN005 OVC020 17/17 Q1019 NOSIG
ZJHK,2016-11-10 00:00,ZJHK 100000Z 34003MPS 310V020 2500 -RA BR BKN005 OVC020 17/17 Q1019 NOSIG
ZJHK,2016-11-10 01:00,ZJHK 100100Z 34005MPS 310V010 2100 -RA BR BKN005 OVC020 16/16 Q1020 NOSIG
ZJHK,2016-11-10 02:00,ZJHK 100200Z 34004MPS 3000 -RA BR BKN005 OVC020 16/16 Q1021 NOSIG
ZJHK,2016-11-10 03:00,ZJHK 100300Z 34005MPS 3000 -RA BR BKN005 OVC020 16/16 Q1021 NOSIG
ZJHK,2016-11-10 04:00,ZJHK 100400Z 35005MPS 3000 -RA BR BKN005 OVC020 16/16 Q1020 NOSIG
ZJHK,2016-11-10 05:00,ZJHK 100500Z 35004MPS 3000 -RA BR BKN005 OVC020 17/16 Q1019 NOSIG
ZJHK,2016-11-10 06:00,ZJHK 100600Z 36004MPS 3000 -RA BR BKN005 OVC020 17/17 Q1018 NOSIG
ZJHK,2016-11-10 07:00,ZJHK 100700Z 36004MPS 330V030 3000 -RA BR BKN005 OVC020 17/17 Q1018 NOSIG
ZJHK,2016-11-10 08:00,ZJHK 100800Z 35004MPS 3000 -RA BR BKN005 OVC020 16/16 Q1018 NOSIG
ZJHK,2016-11-10 09:00,ZJHK 100900Z 01003MPS 3000 -RA BR BKN005 OVC020 16/16 Q1018 NOSIG
ZJHK,2016-11-10 10:00,ZJHK 101000Z 36004MPS 7000 BKN008 OVC030 17/16 Q1018 NOSIG
ZJHK,2016-11-10 11:00,ZJHK 101100Z 01003MPS 5000 -RA BR BKN008 OVC023 16/16 Q1019 NOSIG
ZJHK,2016-11-10 12:00,ZJHK 101200Z 36003MPS 3500 -RA BR BKN008 OVC023 16/16 Q1019 NOSIG
ZJHK,2016-11-10 13:00,ZJHK 101300Z 35003MPS 3500 -RA BR BKN008 OVC023 17/16 Q1019 NOSIG
ZJHK,2016-11-10 14:00,ZJHK 101400Z 01002MPS 3500 -RA BR BKN008 OVC023 17/17 Q1019 NOSIG
ZJHK,2016-11-10 15:00,ZJHK 101500Z 04003MPS 3500 -RA BR BKN008 OVC023 18/18 Q1019 NOSIG
ZJHK,2016-11-10 16:00,ZJHK 101600Z 07004MPS 7000 BKN008 OVC023 18/18 Q1019 NOSIG
ZJHK,2016-11-10 17:00,ZJHK 101700Z 06003MPS 7000 BKN013 OVC023 18/18 Q1018 NOSIG
ZJHK,2016-11-10 18:00,ZJHK 101800Z 07003MPS 7000 BKN013 OVC023 18/18 Q1018 NOSIG
ZJHK,2016-11-10 19:00,ZJHK 101900Z 02003MPS 340V060 4000 -RA BR BKN005 OVC023 18/18 Q1017 NOSIG
ZJHK,2016-11-10 20:00,ZJHK 102000Z 03001MPS 4000 -RA BR BKN005 OVC020 18/17 Q1017 NOSIG
ZJHK,2016-11-10 21:00,ZJHK 102100Z 32002MPS 4000 BR BKN005 OVC020 18/18 Q1017 NOSIG
ZJHK,2016-11-10 22:00,ZJHK 102200Z 05002MPS 020V080 6000 BKN007 OVC020 19/18 Q1017 BECMG BKN010 OVC023
ZJHK,2016-11-10 23:00,ZJHK 102300Z 04002MPS 8000 BKN013 OVC023 19/19 Q1017 NOSIG
ZJHK,2016-11-11 00:00,ZJHK 110000Z 04002MPS 8000 BKN013 OVC030 20/19 Q1018 NOSIG
ZJHK,2016-11-11 01:00,ZJHK 110100Z 05001MPS 9999 SCT013 OVC030 21/19 Q1019 NOSIG
ZJHK,2016-11-11 02:00,ZJHK 110200Z 34003MPS 310V070 8000 SCT013 OVC030 20/19 Q1019 NOSIG
ZJHK,2016-11-11 03:00,ZJHK 110300Z 36002MPS 2000 -RA BR SCT010 OVC020 20/19 Q1019 NOSIG
ZJHK,2016-11-11 04:00,ZJHK 110400Z 06004MPS 3000 -RA BR SCT010 OVC020 21/20 Q1018 NOSIG
ZJHK,2016-11-11 05:00,ZJHK 110500Z 06003MPS 030V100 6000 SCT010 OVC020 21/20 Q1017 NOSIG
ZJHK,2016-11-11 06:00,ZJHK 110600Z 06003MPS 030V140 6000 SCT010 OVC020 21/20 Q1016 NOSIG
ZJHK,2016-11-11 07:00,ZJHK 110700Z 08004MPS 8000 SCT013 OVC020 22/20 Q1015 NOSIG
ZJHK,2016-11-11 08:00,ZJHK 110800Z 08003MPS 8000 SCT013 OVC030 22/20 Q1015 NOSIG
ZJHK,2016-11-11 09:00,ZJHK 110900Z 07003MPS 7000 SCT015 OVC030 22/20 Q1015 NOSIG
ZJHK,2016-11-11 10:00,ZJHK 111000Z 09003MPS 4000 BR SCT013 OVC030 21/20 Q1015 NOSIG
ZJHK,2016-11-11 11:00,ZJHK 111100Z 10003MPS 5000 BR SCT013 OVC033 21/20 Q1016 NOSIG
ZJHK,2016-11-11 12:00,ZJHK 111200Z 08003MPS 4000 BR SCT013 OVC040 21/20 Q1016 NOSIG
ZJHK,2016-11-11 13:00,ZJHK 111300Z 08004MPS 4000 BR OVC040 21/20 Q1017 NOSIG
ZJHK,2016-11-11 14:00,ZJHK 111400Z 07004MPS 4000 BR OVC040 21/20 Q1016 NOSIG
ZJHK,2016-11-11 15:00,ZJHK 111500Z 08003MPS 4000 BR OVC040 22/21 Q1017 NOSIG
ZJHK,2016-11-11 16:00,ZJHK 111600Z 11002MPS 4000 BR OVC046 22/21 Q1016 NOSIG
ZJHK,2016-11-11 17:00,ZJHK 111700Z 10002MPS 4000 BR OVC046 22/21 Q1016 NOSIG
ZJHK,2016-11-11 18:00,ZJHK 111800Z 07001MPS 4000 BR FEW046 22/21 Q1016 NOSIG
ZJHK,2016-11-11 19:00,ZJHK 111900Z 11001MPS 4000 BR NSC 21/21 Q1015 NOSIG
ZJHK,2016-11-11 20:00,ZJHK 112000Z 00000MPS 5000 BR NSC 21/21 Q1015 NOSIG
ZJHK,2016-11-11 21:00,ZJHK 112100Z 11001MPS 5000 BR NSC 22/21 Q1015 NOSIG
ZJHK,2016-11-11 22:00,ZJHK 112200Z 08002MPS 5000 BR NSC 22/21 Q1016 NOSIG
ZJHK,2016-11-11 23:00,ZJHK 112300Z 14001MPS 3500 BR NSC 22/21 Q1016 NOSIG
ZJHK,2016-11-12 00:00,ZJHK 120000Z 12001MPS 7000 NSC 23/22 Q1017 NOSIG
ZJHK,2016-11-12 01:00,ZJHK 120100Z 11004MPS 9999 SCT015 25/22 Q1017 NOSIG
ZJHK,2016-11-12 02:00,ZJHK 120200Z 13005MPS 100V160 9999 SCT015 26/22 Q1017 NOSIG
ZJHK,2016-11-12 03:00,ZJHK 120300Z 13004MPS 100V170 9999 SCT015 27/22 Q1017 NOSIG
ZJHK,2016-11-12 04:00,ZJHK 120400Z 13004MPS 100V170 9999 SCT023 28/22 Q1016 NOSIG
ZJHK,2016-11-12 05:00,ZJHK 120500Z 13005MPS 100V160 9999 SCT023 29/22 Q1015 NOSIG
ZJHK,2016-11-12 06:00,ZJHK 120600Z 13003MPS 100V170 9999 SCT023 27/22 Q1014 NOSIG
ZJHK,2016-11-12 07:00,ZJHK 120700Z 12005MPS 9999 SCT023 27/22 Q1013 NOSIG
ZJHK,2016-11-12 08:00,ZJHK 120800Z 13004MPS 100V160 9999 FEW026 27/22 Q1013 NOSIG
ZJHK,2016-11-12 09:00,ZJHK 120900Z 13003MPS 9999 FEW026 26/23 Q1013 NOSIG
ZJHK,2016-11-12 10:00,ZJHK 121000Z 11002MPS 9999 FEW016 25/22 Q1014 NOSIG
ZJHK,2016-11-12 11:00,ZJHK 121100Z 11002MPS CAVOK 24/22 Q1014 NOSIG
ZJHK,2016-11-12 12:00,ZJHK 121200Z 12002MPS CAVOK 23/22 Q1015 NOSIG
ZJHK,2016-11-12 13:00,ZJHK 121300Z 12001MPS 9999 SCT016 23/22 Q1016 NOSIG
ZJHK,2016-11-12 14:00,ZJHK 121400Z 13001MPS 6000 NSC 22/22 Q1016 NOSIG
ZJHK,2016-11-12 15:00,ZJHK 121500Z 00000MPS 4000 R09/0275V0700 BR BCFG SCT006 22/22 Q1016 BECMG FM1640 2000 BR
ZJHK,2016-11-12 16:00,ZJHK 121600Z 13001MPS 3000 R27/0450N BR BCFG SCT005 21/21 Q1016 BECMG FM1640 2000 BR
ZJHK,2016-11-12 17:00,ZJHK 121700Z 18001MPS 0900 R27/0500N FG SCT004 22/22 Q1015 NOSIG
ZJHK,2016-11-12 18:00,ZJHK 121800Z 27001MPS 1600 R27/0450V0650U BR BCFG SCT006 21/21 Q1015 NOSIG
ZJHK,2016-11-12 19:00,ZJHK 121900Z 31001MPS 0900 R27/0450 FG SCT006 22/22 Q1015 NOSIG
ZJHK,2016-11-12 20:00,ZJHK 122000Z 06001MPS 0900 R27/0375V0600N FG SCT005 21/21 Q1014 NOSIG
ZJHK,2016-11-12 21:00,ZJHK 122100Z 00000MPS 0500 R27/0300N FG SCT003 22/22 Q1015 NOSIG
ZJHK,2016-11-12 22:00,ZJHK 122200Z 05001MPS 0500 R27/0350 FG FEW003 22/22 Q1015 BECMG 0700 FG
ZJHK,2016-11-12 23:00,ZJHK 122300Z 13001MPS 0800 R09/0375 FG FEW003 22/22 Q1016 BECMG TL0010 3000 BR
ZJHK,2016-11-13 00:00,ZJHK 130000Z 14001MPS 1600 R09/0800 BR FEW003 22/22 Q1016 BECMG TL0100 5000 BR
ZJHK,2016-11-13 01:00,ZJHK 130100Z 11003MPS 080V140 9999 SCT007 24/24 Q1017 NOSIG
ZJHK,2016-11-13 02:00,ZJHK 130200Z 11003MPS 080V150 9999 SCT016 27/24 Q1017 NOSIG
ZJHK,2016-11-13 03:00,ZJHK 130300Z 12002MPS 080V170 9999 SCT020 27/23 Q1017 NOSIG
ZJHK,2016-11-13 04:00,ZJHK 130400Z 14004MPS 100V170 9999 SCT023 29/23 Q1016 NOSIG
ZJHK,2016-11-13 05:00,ZJHK 130500Z 11004MPS 060V150 9999 SCT023 30/23 Q1015 NOSIG
ZJHK,2016-11-13 06:00,ZJHK 130600Z 10005MPS 9999 SCT026 28/23 Q1014 NOSIG
ZJHK,2016-11-13 07:00,ZJHK 130700Z 12004MPS 090V160 9999 SCT026 29/23 Q1013 NOSIG
ZJHK,2016-11-13 08:00,ZJHK 130800Z 13004MPS 100V160 9999 SCT026 28/22 Q1013 NOSIG
ZJHK,2016-11-13 09:00,ZJHK 130900Z 12004MPS 9999 FEW026 27/22 Q1013 NOSIG
ZJHK,2016-11-13 10:00,ZJHK 131000Z 11004MPS 9999 FEW026 25/22 Q1013 NOSIG
ZJHK,2016-11-13 11:00,ZJHK 131100Z 11002MPS CAVOK 24/23 Q1014 NOSIG
ZJHK,2016-11-13 12:00,ZJHK 131200Z 13002MPS CAVOK 23/22 Q1015 NOSIG
ZJHK,2016-11-13 13:00,ZJHK 131300Z 12001MPS 8000 NSC 23/22 Q1015 NOSIG
ZJHK,2016-11-13 14:00,ZJHK 131400Z 11001MPS 8000 FEW013 23/22 Q1015 NOSIG
ZJHK,2016-11-13 15:00,ZJHK 131500Z 12001MPS 5000 R09/0550 BR BCFG NSC 22/22 Q1015 NOSIG
ZJHK,2016-11-13 16:00,ZJHK 131600Z 11001MPS 5000 BR BCFG NSC 22/22 Q1015 NOSIG
ZJHK,2016-11-13 17:00,ZJHK 131700Z 14001MPS 4500 R09/0650 BR BCFG NSC 22/22 Q1014 NOSIG
ZJHK,2016-11-13 18:00,ZJHK 131800Z 15001MPS 3500 R09/0375V0550N BR BCFG NSC 21/21 Q1013 BECMG 0700 FG
ZJHK,2016-11-13 19:00,ZJHK 131900Z 13001MPS 2800 R09/0500N BR BCFG NSC 21/21 Q1013 BECMG 0700 FG
ZJHK,2016-11-13 20:00,ZJHK 132000Z 10001MPS 1600 R09/0375N BR BCFG FEW005 21/21 Q1013 NOSIG
ZJHK,2016-11-13 21:00,ZJHK 132100Z 09001MPS 2500 R09/0500N BR BCFG FEW005 20/20 Q1013 NOSIG
ZJHK,2016-11-13 22:00,ZJHK 132200Z 14001MPS 2500 R09/0500N BR BCFG FEW005 20/20 Q1014 NOSIG
ZJHK,2016-11-13 23:00,ZJHK 132300Z 12001MPS 1600 R09/0600 BR BCFG SCT005 21/21 Q1014 BECMG AT0010 4000 BR
ZJHK,2016-11-14 00:00,ZJHK 140000Z 11002MPS 3000 R27/0800U BR BCFG NSC 22/22 Q1015 NOSIG
ZJHK,2016-11-14 01:00,ZJHK 140100Z 11003MPS 080V140 9999 SCT020 24/24 Q1015 NOSIG
ZJHK,2016-11-14 02:00,ZJHK 140200Z 11003MPS 080V140 9999 BKN016 26/22 Q1016 NOSIG
ZJHK,2016-11-14 03:00,ZJHK 140300Z 12002MPS 080V150 9999 SCT016 27/22 Q1015 NOSIG
ZJHK,2016-11-14 04:00,ZJHK 140400Z 12003MPS 080V160 9999 SCT016 28/21 Q1015 NOSIG
ZJHK,2016-11-14 05:00,ZJHK 140500Z 10004MPS 9999 SCT020 29/22 Q1014 NOSIG
ZJHK,2016-11-14 06:00,ZJHK 140600Z 10004MPS 9999 SCT023 29/21 Q1013 NOSIG
ZJHK,2016-11-14 07:00,ZJHK 140700Z 14004MPS 110V180 9999 SCT023 28/21 Q1012 NOSIG
ZJHK,2016-11-14 08:00,ZJHK 140800Z 13004MPS 090V160 9999 SCT023 28/21 Q1012 NOSIG
ZJHK,2016-11-14 09:00,ZJHK 140900Z 13004MPS 100V160 9999 SCT046 27/21 Q1012 NOSIG
ZJHK,2016-11-14 10:00,ZJHK 141000Z 12002MPS 9999 FEW040 25/22 Q1013 NOSIG
ZJHK,2016-11-14 11:00,ZJHK 141100Z 10003MPS 070V130 CAVOK 24/22 Q1013 NOSIG
ZJHK,2016-11-14 12:00,ZJHK 141200Z 11002MPS CAVOK 23/22 Q1014 NOSIG
ZJHK,2016-11-14 13:00,ZJHK 141300Z 10002MPS CAVOK 23/22 Q1015 NOSIG
ZJHK,2016-11-14 14:00,ZJHK 141400Z 07002MPS CAVOK 23/22 Q1015 NOSIG
ZJHK,2016-11-14 15:00,ZJHK 141500Z 11001MPS 9999 SCT033 22/22 Q1015 NOSIG
ZJHK,2016-11-14 16:00,ZJHK 141600Z 12001MPS 8000 NSC 22/22 Q1015 NOSIG
ZJHK,2016-11-14 17:00,ZJHK 141700Z 13002MPS 5000 BR NSC 22/21 Q1015 NOSIG
ZJHK,2016-11-14 18:00,ZJHK 141800Z 13001MPS 5000 BR BCFG NSC 21/21 Q1014 NOSIG
ZJHK,2016-11-14 19:00,ZJHK 141900Z 13001MPS 5000 R09/0350 BR BCFG NSC 20/20 Q1014 NOSIG
ZJHK,2016-11-14 20:00,ZJHK 142000Z 15001MPS 5000 R09/0300N BR BCFG NSC 19/19 Q1014 NOSIG
ZJHK,2016-11-14 21:00,ZJHK 142100Z 14001MPS 5000 R09/0375V0550N BR BCFG NSC 20/20 Q1014 NOSIG
ZJHK,2016-11-14 22:00,ZJHK 142200Z 00000MPS 5000 R09/0900 BR BCFG NSC 19/19 Q1014 NOSIG
ZJHK,2016-11-14 23:00,ZJHK 142300Z 00000MPS 2100 R09/1400 BR BCFG NSC 20/20 Q1015 BECMG TL0010 3000 BR
ZJHK,2016-11-15 00:00,ZJHK 150000Z 00000MPS 3000 BR FEW001 21/21 Q1016 NOSIG
ZJHK,2016-11-15 01:00,ZJHK 150100Z 22001MPS 9999 FEW010 24/23 Q1016 NOSIG
ZJHK,2016-11-15 02:00,ZJHK 150200Z 10003MPS 070V130 9999 SCT016 26/22 Q1016 NOSIG
ZJHK,2016-11-15 03:00,ZJHK 150300Z 10004MPS 080V140 9999 SCT016 27/21 Q1016 NOSIG
ZJHK,2016-11-15 04:00,ZJHK 150400Z 09005MPS 050V120 9999 SCT016 28/21 Q1016 NOSIG
ZJHK,2016-11-15 05:00,ZJHK 150500Z 08005MPS 030V110 9999 SCT016 28/21 Q1015 NOSIG
ZJHK,2016-11-15 06:00,ZJHK 150600Z 08005MPS 030V110 9999 SCT020 28/20 Q1014 NOSIG
ZJHK,2016-11-15 07:00,ZJHK 150700Z 06005MPS 030V090 9999 SCT020 28/21 Q1013 NOSIG
ZJHK,2016-11-15 08:00,ZJHK 150800Z 06004MPS 030V090 9999 SCT020 27/22 Q1013 NOSIG
ZJHK,2016-11-15 09:00,ZJHK 150900Z 08005MPS 9999 FEW020 26/21 Q1013 NOSIG
ZJHK,2016-11-15 10:00,ZJHK 151000Z 08005MPS CAVOK 24/21 Q1014 NOSIG
ZJHK,2016-11-15 11:00,ZJHK 151100Z 09003MPS CAVOK 23/22 Q1014 NOSIG
ZJHK,2016-11-15 12:00,ZJHK 151200Z 04002MPS 360V080 CAVOK 23/22 Q1015 NOSIG
ZJHK,2016-11-15 13:00,ZJHK 151300Z 06002MPS CAVOK 23/22 Q1015 NOSIG
ZJHK,2016-11-15 14:00,ZJHK 151400Z 11001MPS 7000 SCT016 22/22 Q1015 NOSIG
ZJHK,2016-11-15 15:00,ZJHK 151500Z 14001MPS 6000 R09/0300 BCFG FEW016 21/21 Q1015 NOSIG
ZJHK,2016-11-15 16:00,ZJHK 151600Z 00000MPS 6000 R09/0750U BCFG SCT016 21/21 Q1015 NOSIG
ZJHK,2016-11-15 17:00,ZJHK 151700Z 12001MPS 5000 BR BCFG SCT016 20/20 Q1015 NOSIG
ZJHK,2016-11-15 18:00,ZJHK 151800Z 13001MPS 5000 BR BCFG FEW016 20/20 Q1015 NOSIG
ZJHK,2016-11-15 19:00,ZJHK 151900Z 00000MPS 4000 R09/0175N BR BCFG FEW016 20/20 Q1014 NOSIG
ZJHK,2016-11-15 20:00,ZJHK 152000Z 00000MPS 4000 R09/0750 BR BCFG SCT040 20/20 Q1014 NOSIG
ZJHK,2016-11-15 21:00,ZJHK 152100Z 16002MPS 4000 BR BCFG SCT040 20/20 Q1014 NOSIG
ZJHK,2016-11-15 22:00,ZJHK 152200Z 00000MPS 4000 R09/0650 BR BCFG NSC 19/19 Q1014 NOSIG
ZJHK,2016-11-15 23:00,ZJHK 152300Z 07001MPS 2200 R09/0250N BR BCFG NSC 19/19 Q1015 NOSIG
ZJHK,2016-11-16 00:00,ZJHK 160000Z 00000MPS 5000 BR NSC 22/22 Q1016 NOSIG
ZJHK,2016-11-16 01:00,ZJHK 160100Z 10003MPS 070V130 9999 FEW040 25/23 Q1016 NOSIG
ZJHK,2016-11-16 02:00,ZJHK 160200Z 09004MPS 060V120 9999 SCT020 26/22 Q1017 NOSIG
ZJHK,2016-11-16 03:00,ZJHK 160300Z 10004MPS 070V130 9999 SCT020 26/22 Q1017 NOSIG
ZJHK,2016-11-16 04:00,ZJHK 160400Z 11004MPS 070V150 9999 SCT020 28/21 Q1016 NOSIG
ZJHK,2016-11-16 05:00,ZJHK 160500Z 11004MPS 080V150 9999 SCT023 28/22 Q1015 NOSIG
ZJHK,2016-11-16 06:00,ZJHK 160600Z 08005MPS 9999 SCT023 28/22 Q1014 NOSIG
ZJHK,2016-11-16 07:00,ZJHK 160700Z 08007MPS 9999 SCT023 27/22 Q1014 NOSIG
ZJHK,2016-11-16 08:00,ZJHK 160800Z 09005MPS 9999 SCT023 27/22 Q1014 NOSIG
ZJHK,2016-11-16 09:00,ZJHK 160900Z 09006MPS 9999 SCT020 26/22 Q1014 NOSIG
ZJHK,2016-11-16 10:00,ZJHK 161000Z 09006MPS 9999 FEW020 25/22 Q1014 NOSIG
ZJHK,2016-11-16 11:00,ZJHK 161100Z 10003MPS CAVOK 24/22 Q1015 NOSIG
ZJHK,2016-11-16 12:00,ZJHK 161200Z 11002MPS 070V130 7000 NSC 23/22 Q1015 NOSIG
ZJHK,2016-11-16 13:00,ZJHK 161300Z 11003MPS 7000 NSC 23/22 Q1016 NOSIG
ZJHK,2016-11-16 14:00,ZJHK 161400Z 11002MPS 6000 NSC 22/22 Q1016 NOSIG
ZJHK,2016-11-16 15:00,ZJHK 161500Z 08004MPS 6000 NSC 23/22 Q1016 NOSIG
ZJHK,2016-11-16 16:00,ZJHK 161600Z 09004MPS 7000 NSC 23/22 Q1015 NOSIG
ZJHK,2016-11-16 17:00,ZJHK 161700Z 09003MPS 7000 NSC 23/22 Q1015 NOSIG
ZJHK,2016-11-16 18:00,ZJHK 161800Z 10002MPS 6000 NSC 23/21 Q1015 NOSIG
ZJHK,2016-11-16 19:00,ZJHK 161900Z 09003MPS 5000 BR FEW015 22/21 Q1015 NOSIG
ZJHK,2016-11-16 20:00,ZJHK 162000Z 08002MPS 6000 NSC 22/21 Q1014 NOSIG
ZJHK,2016-11-16 21:00,ZJHK 162100Z 06003MPS 6000 NSC 22/21 Q1014 NOSIG
ZJHK,2016-11-16 22:00,ZJHK 162200Z 10003MPS 6000 NSC 22/21 Q1014 NOSIG
ZJHK,2016-11-16 23:00,ZJHK 162300Z 09004MPS 7000 NSC 22/21 Q1015 NOSIG
ZJHK,2016-11-17 00:00,ZJHK 170000Z 07004MPS CAVOK 24/21 Q1015 NOSIG
ZJHK,2016-11-17 01:00,ZJHK 170100Z 06004MPS 9999 FEW020 25/22 Q1016 NOSIG
ZJHK,2016-11-17 02:00,ZJHK 170200Z 08005MPS 9999 BKN020 25/21 Q1016 NOSIG
ZJHK,2016-11-17 03:00,ZJHK 170300Z 08006MPS 9999 FEW020 BKN046 26/22 Q1016 NOSIG
ZJHK,2016-11-17 04:00,ZJHK 170400Z 07006MPS 9999 FEW020 BKN046 27/22 Q1015 NOSIG
ZJHK,2016-11-17 05:00,ZJHK 170500Z 07007MPS 9999 FEW020 BKN040 27/21 Q1014 NOSIG
ZJHK,2016-11-17 06:00,ZJHK 170600Z 07006MPS 9999 FEW020 BKN040 26/21 Q1014 NOSIG
ZJHK,2016-11-17 07:00,ZJHK 170700Z 07007MPS 9999 SCT016 BKN040 26/21 Q1013 NOSIG
ZJHK,2016-11-17 08:00,ZJHK 170800Z 07006MPS 8000 SCT016 BKN040 25/21 Q1013 NOSIG
ZJHK,2016-11-17 09:00,ZJHK 170900Z 07006MPS 8000 SCT016 BKN040 25/21 Q1013 NOSIG
ZJHK,2016-11-17 10:00,ZJHK 171000Z 06005MPS 7000 SCT016 BKN040 24/21 Q1013 NOSIG
ZJHK,2016-11-17 11:00,ZJHK 171100Z 07005MPS 7000 FEW015 FEW026TCU BKN040 24/22 Q1013 NOSIG
ZJHK,2016-11-17 12:00,ZJHK 171200Z 08007MPS 3000 -SHRA SCT010 FEW026TCU BKN033 23/22 Q1014 NOSIG
ZJHK,2016-11-17 13:00,ZJHK 171300Z 06005MPS 5000 BR SCT010 BKN033 23/22 Q1014 NOSIG
ZJHK,2016-11-17 14:00,ZJHK 171400Z 06005MPS 4000 -RA BR SCT010 BKN033 23/22 Q1014 NOSIG
ZJHK,2016-11-17 15:00,ZJHK 171500Z 08004MPS 4000 BR SCT010 BKN033 23/23 Q1014 NOSIG
ZJHK,2016-11-17 16:00,ZJHK 171600Z 08004MPS 4000 BR SCT010 BKN033 24/23 Q1013 NOSIG
ZJHK,2016-11-17 17:00,ZJHK 171700Z 09004MPS 5000 BR BKN046 24/22 Q1013 NOSIG
ZJHK,2016-11-17 18:00,ZJHK 171800Z 09003MPS 6000 SCT015 BKN046 24/22 Q1012 NOSIG
ZJHK,2016-11-17 19:00,ZJHK 171900Z 08004MPS 6000 SCT013 SCT020 24/22 Q1012 NOSIG
ZJHK,2016-11-17 20:00,ZJHK 172000Z 09003MPS 8000 SCT015 BKN026 24/22 Q1011 NOSIG
ZJHK,2016-11-17 21:00,ZJHK 172100Z 08004MPS 8000 SCT015 BKN040 24/23 Q1011 NOSIG
ZJHK,2016-11-17 22:00,ZJHK 172200Z 09004MPS 8000 SCT015 BKN040 24/23 Q1011 NOSIG
ZJHK,2016-11-17 23:00,ZJHK 172300Z 09004MPS 8000 SCT015 BKN040 24/23 Q1012 NOSIG
ZJHK,2016-11-18 00:00,ZJHK 180000Z 09004MPS 8000 SCT016 SCT033 24/23 Q1012 NOSIG
ZJHK,2016-11-18 01:00,ZJHK 180100Z 10005MPS 8000 SCT016 SCT033 25/23 Q1013 NOSIG
ZJHK,2016-11-18 02:00,ZJHK 180200Z 10005MPS 9999 SCT016 SCT040 26/23 Q1013 NOSIG
ZJHK,2016-11-18 03:00,ZJHK 180300Z 11004MPS 080V140 9999 SCT016 26/24 Q1013 NOSIG
ZJHK,2016-11-18 04:00,ZJHK 180400Z 11005MPS 9999 SCT016 27/23 Q1012 NOSIG
ZJHK,2016-11-18 05:00,ZJHK 180500Z 11005MPS 9999 SCT016 27/24 Q1011 NOSIG
ZJHK,2016-11-18 06:00,ZJHK 180600Z 10005MPS 9999 SCT016 FEW030TCU 27/24 Q1011 NOSIG
ZJHK,2016-11-18 07:00,ZJHK 180700Z 10005MPS 9999 SCT016 FEW030TCU 27/23 Q1010 NOSIG
ZJHK,2016-11-18 08:00,ZJHK 180800Z 10005MPS 9999 SCT016 FEW030TCU 27/23 Q1010 NOSIG
ZJHK,2016-11-18 09:00,ZJHK 180900Z 10004MPS 080V140 9999 FEW030TCU SCT040 26/23 Q1010 NOSIG
ZJHK,2016-11-18 10:00,ZJHK 181000Z 11003MPS 9999 BKN016 FEW030TCU BKN040 25/23 Q1010 NOSIG
ZJHK,2016-11-18 11:00,ZJHK 181100Z 10003MPS 9999 SCT016 FEW030TCU BKN040 25/23 Q1011 NOSIG
ZJHK,2016-11-18 12:00,ZJHK 181200Z 09004MPS 9999 SCT016 25/23 Q1011 NOSIG
ZJHK,2016-11-18 13:00,ZJHK 181300Z 10002MPS 6000 FEW016 24/23 Q1012 NOSIG
ZJHK,2016-11-18 14:00,ZJHK 181400Z 11002MPS 6000 SCT010 24/23 Q1012 NOSIG
ZJHK,2016-11-18 15:00,ZJHK 181500Z 12001MPS 6000 -SHRA SCT016 FEW023CB BKN040 24/23 Q1012 NOSIG
ZJHK,2016-11-18 16:00,ZJHK 181600Z 12001MPS 6000 SCT010 FEW023TCU BKN040 24/24 Q1012 NOSIG
ZJHK,2016-11-18 17:00,ZJHK 181700Z 14001MPS 6000 FEW023TCU SCT040 24/24 Q1011 NOSIG
ZJHK,2016-11-18 18:00,ZJHK 181800Z 10001MPS 6000 FEW023TCU SCT040 24/24 Q1011 NOSIG
ZJHK,2016-11-18 19:00,ZJHK 181900Z 07001MPS 4000 BR SCT010 SCT040 24/24 Q1010 NOSIG
ZJHK,2016-11-18 20:00,ZJHK 182000Z 11002MPS 4000 BR BKN010 BKN033 24/24 Q1010 NOSIG
ZJHK,2016-11-18 21:00,ZJHK 182100Z 11001MPS 4000 BR BKN010 BKN046 24/24 Q1010 NOSIG
ZJHK,2016-11-18 22:00,ZJHK 182200Z 11002MPS 4000 BR SCT016 24/23 Q1010 NOSIG
ZJHK,2016-11-18 23:00,ZJHK 182300Z 11002MPS 4000 BR SCT013 24/24 Q1011 NOSIG
ZJHK,2016-11-19 00:00,ZJHK 190000Z 12001MPS 5000 BR SCT013 24/24 Q1012 NOSIG
ZJHK,2016-11-19 01:00,ZJHK 190100Z 11003MPS 080V150 9999 SCT013 25/24 Q1012 NOSIG
ZJHK,2016-11-19 02:00,ZJHK 190200Z 11004MPS 9999 FEW013 SCT020 26/24 Q1012 NOSIG
ZJHK,2016-11-19 03:00,ZJHK 190300Z 10004MPS 8000 -SHRA FEW015 FEW023TCU SCT023 27/24 Q1012 NOSIG
ZJHK,2016-11-19 04:00,ZJHK 190400Z 07004MPS 050V120 9999 FEW015 FEW023CB SCT023 27/24 Q1011 NOSIG
ZJHK,2016-11-19 05:00,ZJHK 190500Z 09005MPS 9999 FEW015 FEW026TCU SCT026 27/24 Q1010 NOSIG
ZJHK,2016-11-19 06:00,ZJHK 190600Z 10005MPS 070V130 9999 FEW015 FEW026TCU SCT026 28/24 Q1009 NOSIG
ZJHK,2016-11-19 07:00,ZJHK 190700Z 08006MPS 9999 FEW015 FEW030CB SCT030 27/23 Q1009 NOSIG
ZJHK,2016-11-19 08:00,ZJHK 190800Z 08005MPS 9999 FEW015 FEW030TCU SCT030 26/24 Q1009 NOSIG
ZJHK,2016-11-19 09:00,ZJHK 190900Z 10003MPS 9999 FEW030 25/24 Q1009 NOSIG
ZJHK,2016-11-19 10:00,ZJHK 191000Z 10002MPS 9999 -SHRA FEW030CB FEW030 25/24 Q1010 NOSIG
ZJHK,2016-11-19 11:00,ZJHK 191100Z 10004MPS 9999 -SHRA FEW013 FEW030CB 25/24 Q1010 NOSIG
ZJHK,2016-11-19 12:00,ZJHK 191200Z 11002MPS 7000 SCT013 25/24 Q1011 NOSIG
ZJHK,2016-11-19 13:00,ZJHK 191300Z 12002MPS 6000 SCT013 24/24 Q1012 NOSIG
ZJHK,2016-11-19 14:00,ZJHK 191400Z 10002MPS 070V130 6000 SCT006 24/24 Q1012 NOSIG
ZJHK,2016-11-19 15:00,ZJHK 191500Z 12001MPS 4000 BR SCT006 24/24 Q1012 NOSIG
ZJHK,2016-11-19 16:00,ZJHK 191600Z 12001MPS 4000 BR SCT006 24/24 Q1011 NOSIG
ZJHK,2016-11-19 17:00,ZJHK 191700Z 10001MPS 4000 BR BKN006 24/24 Q1011 NOSIG
ZJHK,2016-11-19 18:00,ZJHK 191800Z 12001MPS 4000 BR BKN006 24/24 Q1011 NOSIG
ZJHK,2016-11-19 19:00,ZJHK 191900Z 09001MPS 4000 BR BKN010 24/24 Q1010 NOSIG
ZJHK,2016-11-19 20:00,ZJHK 192000Z 09002MPS 6000 SCT010 24/24 Q1010 NOSIG
ZJHK,2016-11-19 21:00,ZJHK 192100Z 12001MPS 5000 BR FEW010 SCT030 24/23 Q1010 NOSIG
ZJHK,2016-11-19 22:00,ZJHK 192200Z 00000MPS 3500 BR SCT010 23/23 Q1011 NOSIG
ZJHK,2016-11-19 23:00,ZJHK 192300Z 11001MPS 4000 BR SCT007 24/24 Q1011 NOSIG
ZJHK,2016-11-20 00:00,ZJHK 200000Z 10001MPS 3500 BR BCFG SCT003 24/24 Q1012 NOSIG
ZJHK,2016-11-20 01:00,ZJHK 200100Z 11003MPS 9999 SCT006 SCT016 25/24 Q1012 NOSIG
ZJHK,2016-11-20 02:00,ZJHK 200200Z 11003MPS 070V150 9999 FEW010 SCT016 27/24 Q1013 NOSIG
ZJHK,2016-11-20 03:00,ZJHK 200300Z 08004MPS 9999 FEW010 SCT016 28/24 Q1012 NOSIG
ZJHK,2016-11-20 04:00,ZJHK 200400Z 07004MPS 9999 FEW015 FEW023TCU SCT023 28/24 Q1011 NOSIG
ZJHK,2016-11-20 05:00,ZJHK 200500Z 06004MPS 020V110 9999 FEW015 FEW023TCU SCT023 27/24 Q1010 NOSIG
ZJHK,2016-11-20 06:00,ZJHK 200600Z 10003MPS 060V130 9999 FEW015 FEW023TCU SCT023 29/24 Q1009 NOSIG
ZJHK,2016-11-20 07:00,ZJHK 200700Z 07003MPS 040V140 8000 -SHRA SCT015 FEW023CB SCT023 27/25 Q1009 RESHRA NOSIG
ZJHK,2016-11-20 08:00,ZJHK 200800Z 13003MPS 4000 SHRA SCT015 FEW023CB SCT023 25/24 Q1009 NOSIG
ZJHK,2016-11-20 09:00,ZJHK 200900Z 08004MPS 9999 -SHRA FEW020TCU FEW020 BKN040 26/24 Q1009 RESHRA NOSIG
ZJHK,2016-11-20 10:00,ZJHK 201000Z 10003MPS 9999 FEW020 SCT046 25/24 Q1009 NOSIG
ZJHK,2016-11-20 11:00,ZJHK 201100Z 11003MPS 9999 FEW026 BKN046 25/23 Q1010 NOSIG
ZJHK,2016-11-20 12:00,ZJHK 201200Z 10003MPS 9999 SCT023 BKN046 24/23 Q1010 NOSIG
ZJHK,2016-11-20 13:00,ZJHK 201300Z 15001MPS CAVOK 24/23 Q1011 NOSIG
ZJHK,2016-11-20 14:00,ZJHK 201400Z 12001MPS 9999 FEW020 23/23 Q1011 NOSIG
ZJHK,2016-11-20 15:00,ZJHK 201500Z 13001MPS 8000 FEW016 24/23 Q1011 NOSIG
ZJHK,2016-11-20 16:00,ZJHK 201600Z 12001MPS 5000 BR BCFG BKN004 24/23 Q1011 NOSIG
ZJHK,2016-11-20 17:00,ZJHK 201700Z 14001MPS 5000 BR BCFG BKN004 23/23 Q1011 NOSIG
ZJHK,2016-11-20 18:00,ZJHK 201800Z 12001MPS 2000 BR BCFG BKN003 24/24 Q1011 NOSIG
ZJHK,2016-11-20 19:00,ZJHK 201900Z 12001MPS 3000 R27/0650 BR BCFG SCT003 23/23 Q1010 NOSIG
ZJHK,2016-11-20 20:00,ZJHK 202000Z 10001MPS 0800 R27/0500N FG SCT003 23/23 Q1010 NOSIG
ZJHK,2016-11-20 21:00,ZJHK 202100Z 10001MPS 0800 R27/0750 FG SCT003 23/23 Q1010 NOSIG
ZJHK,2016-11-20 22:00,ZJHK 202200Z 00000MPS 1600 R27/0700 BR SCT003 23/23 Q1010 NOSIG
ZJHK,2016-11-20 23:00,ZJHK 202300Z 12001MPS 0600 R09/0750N FG BKN003 23/23 Q1011 BECMG 1600 BR SCT010
ZJHK,2016-11-21 00:00,ZJHK 210000Z 12001MPS 1700 BR SCT003 24/24 Q1011 BECMG 3000 BR SCT005
ZJHK,2016-11-21 02:00,ZJHK 210200Z 11003MPS 9999 SCT008 SCT023 26/25 Q1012 NOSIG
ZJHK,2016-11-21 03:00,ZJHK 210300Z 09003MPS 060V130 9999 SCT012 SCT023 27/24 Q1012 NOSIG
ZJHK,2016-11-21 04:00,ZJHK 210400Z 10003MPS 060V150 9999 SCT015 SCT023 28/24 Q1011 NOSIG
ZJHK,2016-11-21 05:00,ZJHK 210500Z 07004MPS 040V120 9999 FEW015 FEW026TCU SCT026 28/24 Q1010 NOSIG
ZJHK,2016-11-21 06:00,ZJHK 210600Z 06005MPS 9999 FEW015 FEW026TCU SCT026 27/24 Q1008 NOSIG
ZJHK,2016-11-21 07:00,ZJHK 210700Z 06004MPS 8000 -SHRA FEW015 FEW026CB SCT026 26/24 Q1008 RESHRA NOSIG
ZJHK,2016-11-21 08:00,ZJHK 210800Z 06005MPS 9999 FEW015 SCT026 27/25 Q1008 NOSIG
ZJHK,2016-11-21 09:00,ZJHK 210900Z 07004MPS 9999 FEW026CB SCT026 26/24 Q1008 NOSIG
ZJHK,2016-11-21 10:00,ZJHK 211000Z 09004MPS 9999 FEW026TCU SCT026 25/24 Q1009 NOSIG
ZJHK,2016-11-21 11:00,ZJHK 211100Z 10003MPS 9999 SCT046 25/22 Q1009 NOSIG
ZJHK,2016-11-21 12:00,ZJHK 211200Z 10002MPS 9999 -SHRA FEW030TCU SCT046 24/23 Q1010 NOSIG
ZJHK,2016-11-21 13:00,ZJHK 211300Z 14002MPS CAVOK 24/23 Q1010 NOSIG
ZJHK,2016-11-21 14:00,ZJHK 211400Z 11002MPS CAVOK 23/23 Q1010 NOSIG
ZJHK,2016-11-21 15:00,ZJHK 211500Z 11002MPS CAVOK 23/23 Q1010 NOSIG
ZJHK,2016-11-21 16:00,ZJHK 211600Z 10002MPS 9999 BKN011 23/23 Q1010 NOSIG
ZJHK,2016-11-21 17:00,ZJHK 211700Z 11002MPS 9999 BKN011 23/23 Q1010 NOSIG
ZJHK,2016-11-21 18:00,ZJHK 211800Z 12001MPS 9999 FEW011 23/23 Q1009 NOSIG
ZJHK,2016-11-21 19:00,ZJHK 211900Z 13002MPS 9999 SCT010 23/23 Q1009 NOSIG
ZJHK,2016-11-21 20:00,ZJHK 212000Z 13003MPS 9999 SCT010 FEW023TCU BKN040 23/23 Q1009 NOSIG
ZJHK,2016-11-21 21:00,ZJHK 212100Z 11002MPS 9999 -SHRA SCT010 FEW023TCU BKN040 23/23 Q1009 NOSIG
ZJHK,2016-11-21 22:00,ZJHK 212200Z 11001MPS 9999 FEW010 SCT040 23/23 Q1009 NOSIG
ZJHK,2016-11-21 23:00,ZJHK 212300Z 11001MPS 9999 FEW010 BKN040 23/23 Q1010 NOSIG
ZJHK,2016-11-22 00:00,ZJHK 220000Z 09002MPS 9999 FEW010 BKN040 24/24 Q1011 NOSIG
ZJHK,2016-11-22 01:00,ZJHK 220100Z 10003MPS 9999 FEW010 BKN033 25/24 Q1011 NOSIG
ZJHK,2016-11-22 02:00,ZJHK 220200Z 12004MPS 080V140 9999 FEW010 FEW026CB BKN033 25/23 Q1012 BECMG AT0220 SHRA
ZJHK,2016-11-22 03:00,ZJHK 220300Z 12003MPS 9999 SCT008 FEW026TCU BKN033 25/24 Q1011 RESHRA NOSIG
ZJHK,2016-11-22 04:00,ZJHK 220400Z 10004MPS 9999 SCT010 BKN033 26/24 Q1011 NOSIG
ZJHK,2016-11-22 05:00,ZJHK 220500Z 13004MPS 100V160 9999 SCT010 BKN033 27/24 Q1010 BECMG AT0620 SHRA
ZJHK,2016-11-22 06:00,ZJHK 220600Z 11004MPS 9999 -SHRA SCT010 FEW026TCU BKN033 26/24 Q1009 BECMG AT0620 SHRA
ZJHK,2016-11-22 07:00,ZJHK 220700Z 12003MPS 9999 SHRA SCT010 FEW033CB BKN033 24/23 Q1009 BECMG AT0720 -SHRA
ZJHK,2016-11-22 08:00,ZJHK 220800Z 10002MPS 9999 -SHRA FEW010 FEW033TCU 24/23 Q1009 RESHRA NOSIG
ZJHK,2016-11-22 09:00,ZJHK 220900Z 11003MPS 9999 FEW023TCU FEW023 25/24 Q1008 NOSIG
ZJHK,2016-11-22 10:00,ZJHK 221000Z 10003MPS 9999 FEW023 SCT040 24/24 Q1009 NOSIG
ZJHK,2016-11-22 11:00,ZJHK 221100Z 10002MPS 9999 SCT017 BKN046 24/24 Q1010 NOSIG
ZJHK,2016-11-22 12:00,ZJHK 221200Z 11002MPS 9999 SCT016 24/24 Q1011 NOSIG
ZJHK,2016-11-22 13:00,ZJHK 221300Z 11002MPS 9999 FEW015 24/24 Q1011 NOSIG
ZJHK,2016-11-22 14:00,ZJHK 221400Z 10003MPS 9999 FEW010 24/23 Q1012 NOSIG
ZJHK,2016-11-22 15:00,ZJHK 221500Z 10002MPS 9999 FEW007 24/24 Q1011 NOSIG
ZJHK,2016-11-22 16:00,ZJHK 221600Z 10002MPS 9999 SCT007 BKN033 24/24 Q1011 NOSIG
ZJHK,2016-11-22 17:00,ZJHK 221700Z 10003MPS 9999 SCT007 BKN026 24/23 Q1011 NOSIG
ZJHK,2016-11-22 18:00,ZJHK 221800Z 09003MPS 9999 SCT010 BKN040 24/23 Q1010 NOSIG
ZJHK,2016-11-22 19:00,ZJHK 221900Z 09003MPS 9999 SCT008 BKN030 24/23 Q1010 NOSIG
ZJHK,2016-11-22 20:00,ZJHK 222000Z 09003MPS 9999 SCT008 BKN030 24/23 Q1010 NOSIG
ZJHK,2016-11-22 21:00,ZJHK 222100Z 09004MPS 9999 SCT007 BKN030 24/23 Q1010 NOSIG
ZJHK,2016-11-22 22:00,ZJHK 222200Z 11003MPS 9999 SCT007 BKN030 23/23 Q1010 NOSIG
ZJHK,2016-11-22 23:00,ZJHK 222300Z 11002MPS 9999 SCT007 BKN030 23/23 Q1011 NOSIG
ZJHK,2016-11-23 00:00,ZJHK 230000Z 11003MPS 9999 SCT008 BKN030 24/23 Q1012 NOSIG
ZJHK,2016-11-23 01:00,ZJHK 230100Z 07005MPS 9999 SCT008 FEW030TCU BKN030 24/23 Q1013 NOSIG
ZJHK,2016-11-23 02:00,ZJHK 230200Z 08006MPS 8000 -SHRA SCT010 FEW030CB BKN030 24/23 Q1013 BECMG FM0210 SHRA
ZJHK,2016-11-23 03:00,ZJHK 230300Z 08008MPS 9999 SCT010 FEW030TCU BKN030 24/23 Q1013 NOSIG
ZJHK,2016-11-23 04:00,ZJHK 230400Z 07008MPS 9999 SCT010 FEW030TCU BKN030 24/22 Q1013 NOSIG
ZJHK,2016-11-23 05:00,ZJHK 230500Z 07007MPS 9999 SCT010 FEW030TCU BKN030 24/22 Q1012 NOSIG
ZJHK,2016-11-23 06:00,ZJHK 230600Z 07008MPS 9999 SCT010 FEW030TCU BKN030 23/22 Q1011 NOSIG
ZJHK,2016-11-23 07:00,ZJHK 230700Z 07007MPS 9999 SCT010 FEW030TCU BKN030 23/22 Q1011 NOSIG
ZJHK,2016-11-23 08:00,ZJHK 230800Z 08008MPS 9999 SCT010 FEW030TCU BKN030 23/21 Q1011 NOSIG
ZJHK,2016-11-23 09:00,ZJHK 230900Z 07006MPS 9999 BKN012 OVC020 23/21 Q1011 NOSIG
ZJHK,2016-11-23 10:00,ZJHK 231000Z 07008MPS 8000 -RA BKN012 OVC020 23/21 Q1012 NOSIG
ZJHK,2016-11-23 11:00,ZJHK 231100Z 06007MPS 6000 -RA BKN009 OVC020 22/21 Q1013 BECMG BKN010 OVC020
ZJHK,2016-11-23 12:00,ZJHK 231200Z 06008MPS 5000 -RA BR BKN006 OVC020 22/21 Q1014 NOSIG
ZJHK,2016-11-23 13:00,ZJHK 231300Z 05007MPS 4500 -RA BR BKN006 OVC020 21/20 Q1015 NOSIG
ZJHK,2016-11-23 14:00,ZJHK 231400Z 06008MPS 7000 -RA BKN009 OVC020 21/20 Q1015 BECMG BKN010 OVC020
ZJHK,2016-11-23 15:00,ZJHK 231500Z 05009MPS 4000 -RA BR BKN009 OVC020 20/19 Q1016 BECMG BKN010 OVC020
ZJHK,2016-11-23 16:00,ZJHK 231600Z 05007MPS 3500 -RA BR BKN007 OVC020 20/19 Q1016 NOSIG
ZJHK,2016-11-23 17:00,ZJHK 231700Z 06008MPS 3500 -RA BR BKN006 OVC020 19/19 Q1015 NOSIG
ZJHK,2016-11-23 18:00,ZJHK 231800Z 04008MPS 3500 -RA BR BKN006 OVC020 19/19 Q1015 NOSIG
ZJHK,2016-11-23 19:00,ZJHK 231900Z 04008MPS 3500 -RA BR BKN006 OVC020 18/18 Q1015 NOSIG
ZJHK,2016-11-23 20:00,ZJHK 232000Z 05006MPS 3500 -RA BR BKN006 OVC020 18/18 Q1015 NOSIG
ZJHK,2016-11-23 21:00,ZJHK 232100Z 05007MPS 3500 -RA BR BKN006 OVC020 18/18 Q1015 NOSIG
ZJHK,2016-11-23 22:00,ZJHK 232200Z 05006MPS 3500 -RA BR BKN006 OVC020 18/17 Q1016 NOSIG
ZJHK,2016-11-23 23:00,ZJHK 232300Z 06007MPS 3500 -RA BR BKN006 OVC020 18/17 Q1016 NOSIG
ZJHK,2016-11-24 00:00,ZJHK 240000Z 05005MPS 3500 -RA BR BKN006 OVC020 18/17 Q1017 NOSIG
ZJHK,2016-11-24 01:00,ZJHK 240100Z 05006MPS 3500 -RA BR BKN006 OVC020 17/17 Q1018 NOSIG
ZJHK,2016-11-24 02:00,ZJHK 240200Z 05007MPS 2500 -RA BR BKN006 OVC020 17/17 Q1018 BECMG AT0350 3000 -RA BR
ZJHK,2016-11-24 03:00,ZJHK 240300Z 05006MPS 2500 -RA BR BKN006 OVC020 17/17 Q1018 BECMG AT0400 3000 -RA BR
ZJHK,2016-11-24 04:00,ZJHK 240400Z 06005MPS 3000 -RA BR BKN006 OVC020 18/17 Q1017 NOSIG
ZJHK,2016-11-24 05:00,ZJHK 240500Z 05005MPS 3000 -RA BR BKN005 OVC020 18/17 Q1016 NOSIG
ZJHK,2016-11-24 06:00,ZJHK 240600Z 05006MPS 3000 -RA BR BKN005 OVC020 17/17 Q1015 NOSIG
ZJHK,2016-11-24 07:00,ZJHK 240700Z 05005MPS 3000 -RA BR BKN005 OVC020 18/17 Q1014 NOSIG
ZJHK,2016-11-24 08:00,ZJHK 240800Z 05005MPS 3000 -RA BR BKN005 OVC020 18/17 Q1014 NOSIG
ZJHK,2016-11-24 09:00,ZJHK 240900Z 05005MPS 2200 -RA BR BKN005 OVC020 18/17 Q1014 BECMG BKN004 OVC030
ZJHK,2016-11-24 10:00,ZJHK 241000Z 05005MPS 2500 -RA BR BKN005 OVC020 18/17 Q1014 NOSIG
ZJHK,2016-11-24 11:00,ZJHK 241100Z 05005MPS 2500 -RA BR BKN004 OVC020 18/18 Q1014 NOSIG
ZJHK,2016-11-24 12:00,ZJHK 241200Z 04005MPS 2200 -RA BR BKN004 OVC020 18/18 Q1015 NOSIG
ZJHK,2016-11-24 13:00,ZJHK 241300Z 05005MPS 2200 -RA BR BKN004 OVC020 19/18 Q1015 NOSIG
ZJHK,2016-11-24 14:00,ZJHK 241400Z 05006MPS 020V080 2200 -RA BR BKN004 OVC020 19/18 Q1015 NOSIG
ZJHK,2016-11-24 15:00,ZJHK 241500Z 05005MPS 2200 -RA BR BKN004 OVC020 19/19 Q1015 NOSIG
ZJHK,2016-11-24 16:00,ZJHK 241600Z 05005MPS 2200 -RA BR BKN004 OVC020 19/19 Q1014 NOSIG
ZJHK,2016-11-24 17:00,ZJHK 241700Z 04005MPS 2200 -RA BR BKN004 OVC020 19/19 Q1014 NOSIG
ZJHK,2016-11-24 18:00,ZJHK 241800Z 05005MPS 2200 -RA BR BKN004 OVC020 19/19 Q1013 NOSIG
ZJHK,2016-11-24 19:00,ZJHK 241900Z 05006MPS 2200 -RA BR BKN004 OVC020 19/19 Q1013 NOSIG
ZJHK,2016-11-24 20:00,ZJHK 242000Z 05004MPS 2200 -RA BR BKN004 OVC020 19/19 Q1013 NOSIG
ZJHK,2016-11-24 21:00,ZJHK 242100Z 05005MPS 2200 -RA BR BKN004 OVC020 19/19 Q1013 NOSIG
ZJHK,2016-11-24 22:00,ZJHK 242200Z 04006MPS 2500 -RA BR BKN004 OVC020 19/19 Q1013 NOSIG
ZJHK,2016-11-24 23:00,ZJHK 242300Z 04004MPS 2500 -RA BR BKN004 OVC020 19/19 Q1014 NOSIG
ZJHK,2016-11-25 00:00,ZJHK 250000Z 04005MPS 2800 -RA BR BKN004 OVC020 19/19 Q1014 BECMG 3500 -RA BR
ZJHK,2016-11-25 01:00,ZJHK 250100Z 03004MPS 010V070 2200 -RA BR BKN004 OVC020 20/20 Q1015 NOSIG
ZJHK,2016-11-25 02:00,ZJHK 250200Z 03004MPS 2200 -RA BR BKN004 OVC020 20/20 Q1015 NOSIG
ZJHK,2016-11-25 03:00,ZJHK 250300Z 30003MPS 260V330 2200 -RA BR BKN005 OVC020 17/17 Q1015 NOSIG
ZJHK,2016-11-25 04:00,ZJHK 250400Z 29004MPS 2000 -RA BR BKN005 OVC020 17/17 Q1014 NOSIG
ZJHK,2016-11-25 05:00,ZJHK 250500Z 33004MPS 2000 -RA BR BKN005 OVC020 17/17 Q1014 NOSIG
ZJHK,2016-11-25 06:00,ZJHK 250600Z 33004MPS 2000 -RA BR BKN005 OVC020 16/16 Q1012 NOSIG
ZJHK,2016-11-25 07:00,ZJHK 250700Z 34004MPS 310V010 2800 -RA BR BKN005 OVC020 17/17 Q1012 NOSIG
ZJHK,2016-11-25 08:00,ZJHK 250800Z 34004MPS 2800 -RA BR BKN005 OVC020 16/16 Q1012 NOSIG
ZJHK,2016-11-25 09:00,ZJHK 250900Z 34004MPS 4000 -RA BR BKN005 OVC020 16/16 Q1012 NOSIG
ZJHK,2016-11-25 10:00,ZJHK 251000Z 35004MPS 4000 -RA BR BKN005 OVC020 16/16 Q1012 RERA NOSIG
ZJHK,2016-11-25 11:00,ZJHK 251100Z 34003MPS 300V360 3000 -RA BR BKN005 OVC020 16/16 Q1013 NOSIG
ZJHK,2016-11-25 12:00,ZJHK 251200Z 33004MPS 3000 -RA BR BKN005 OVC020 16/16 Q1013 NOSIG
ZJHK,2016-11-25 13:00,ZJHK 251300Z 32003MPS 6000 -RA BKN005 OVC020 16/16 Q1014 NOSIG
ZJHK,2016-11-25 14:00,ZJHK 251400Z 28002MPS 4000 -RA BR BKN005 OVC020 16/16 Q1014 NOSIG
ZJHK,2016-11-25 15:00,ZJHK 251500Z 29003MPS 4000 -RA BR BKN005 OVC020 16/16 Q1014 NOSIG
ZJHK,2016-11-25 16:00,ZJHK 251600Z 32002MPS 6000 -RA BKN005 OVC020 16/16 Q1014 NOSIG
ZJHK,2016-11-25 17:00,ZJHK 251700Z 32003MPS 6000 BKN005 OVC020 16/16 Q1013 NOSIG
ZJHK,2016-11-25 18:00,ZJHK 251800Z 32002MPS 6000 -RA BKN005 OVC020 16/16 Q1013 NOSIG
ZJHK,2016-11-25 19:00,ZJHK 251900Z 33004MPS 6000 -RA BKN005 OVC020 16/16 Q1012 NOSIG
ZJHK,2016-11-25 20:00,ZJHK 252000Z 33004MPS 5000 -RA BR BKN005 OVC020 16/16 Q1013 NOSIG
ZJHK,2016-11-25 21:00,ZJHK 252100Z 34005MPS 6000 -RA BKN005 OVC020 16/16 Q1013 NOSIG
ZJHK,2016-11-25 22:00,ZJHK 252200Z 35004MPS 3500 -RA BR BKN005 OVC020 17/17 Q1013 NOSIG
ZJHK,2016-11-25 23:00,ZJHK 252300Z 36004MPS 4000 -RA BR BKN005 OVC020 17/17 Q1014 NOSIG
ZJHK,2016-11-26 00:00,ZJHK 260000Z 35006MPS 2500 -RA BR BKN004 OVC020 16/15 Q1015 BECMG 3000 -RA BR
ZJHK,2016-11-26 01:00,ZJHK 260100Z 34006MPS 7000 -RA BKN006 OVC020 15/14 Q1016 NOSIG
ZJHK,2016-11-26 02:00,ZJHK 260200Z 35005G11MPS 8000 -RA BKN006 OVC020 15/14 Q1017 NOSIG
ZJHK,2016-11-26 03:00,ZJHK 260300Z 36005MPS 320V030 6000 -RA BKN006 OVC020 15/14 Q1017 NOSIG
ZJHK,2016-11-26 04:00,ZJHK 260400Z 35004MPS 7000 -RA BKN006 OVC020 15/14 Q1017 NOSIG
ZJHK,2016-11-26 05:00,ZJHK 260500Z 36004G10MPS 3000 -RA BR BKN005 OVC020 15/15 Q1016 NOSIG
ZJHK,2016-11-26 06:00,ZJHK 260600Z 35004MPS 3000 -RA BR BKN005 OVC020 15/15 Q1015 NOSIG
ZJHK,2016-11-26 07:00,ZJHK 260700Z 35005MPS 4500 -RA BR BKN007 OVC020 16/15 Q1014 NOSIG
ZJHK,2016-11-26 08:00,ZJHK 260800Z 34005MPS 310V010 4000 -RA BR BKN007 OVC020 15/15 Q1014 NOSIG
ZJHK,2016-11-26 09:00,ZJHK 260900Z 36003MPS 330V030 8000 -RA BKN007 OVC020 15/14 Q1015 NOSIG
ZJHK,2016-11-26 10:00,ZJHK 261000Z 36004MPS 9999 BKN010 OVC020 15/14 Q1015 NOSIG
ZJHK,2016-11-26 11:00,ZJHK 261100Z 35004MPS 9999 BKN012 OVC020 15/14 Q1016 NOSIG
ZJHK,2016-11-26 12:00,ZJHK 261200Z 35004MPS 9999 -RA BKN010 OVC020 14/13 Q1016 NOSIG
ZJHK,2016-11-26 13:00,ZJHK 261300Z 34005MPS 8000 -RA BKN007 OVC020 14/13 Q1017 NOSIG
ZJHK,2016-11-26 14:00,ZJHK 261400Z 33004MPS 9999 -RA BKN010 OVC020 13/12 Q1017 NOSIG
ZJHK,2016-11-26 15:00,ZJHK 261500Z 33004MPS 9999 BKN012 OVC020 13/12 Q1017 NOSIG
ZJHK,2016-11-26 16:00,ZJHK 261600Z 33004MPS 9999 BKN012 OVC020 13/12 Q1017 NOSIG
ZJHK,2016-11-26 17:00,ZJHK 261700Z 34005MPS 9999 BKN012 OVC020 13/12 Q1017 NOSIG
ZJHK,2016-11-26 18:00,ZJHK 261800Z 34005MPS 9999 BKN012 OVC020 13/12 Q1016 NOSIG
ZJHK,2016-11-26 19:00,ZJHK 261900Z 33005MPS 9999 BKN012 OVC020 13/11 Q1016 NOSIG
ZJHK,2016-11-26 20:00,ZJHK 262000Z 33004MPS 4500 -RA BR BKN008 OVC020 12/12 Q1016 NOSIG
ZJHK,2016-11-26 21:00,ZJHK 262100Z 34004MPS 6000 BKN011 OVC020 13/12 Q1016 NOSIG
ZJHK,2016-11-26 22:00,ZJHK 262200Z 35004MPS 9999 SCT012 OVC020 13/11 Q1016 NOSIG
ZJHK,2016-11-26 23:00,ZJHK 262300Z 35003MPS 9999 SCT012 OVC020 14/11 Q1017 NOSIG
ZJHK,2016-11-27 00:00,ZJHK 270000Z 34003MPS 9999 SCT013 OVC020 14/12 Q1017 NOSIG
ZJHK,2016-11-27 01:00,ZJHK 270100Z 34004MPS 9999 OVC020 15/12 Q1018 NOSIG
ZJHK,2016-11-27 02:00,ZJHK 270200Z 36003MPS 9999 OVC020 15/12 Q1018 NOSIG
ZJHK,2016-11-27 03:00,ZJHK 270300Z 35004MPS 9999 FEW016 OVC023 16/12 Q1018 NOSIG
ZJHK,2016-11-27 04:00,ZJHK 270400Z 36004MPS 330V040 9999 FEW016 BKN026 17/13 Q1017 NOSIG
ZJHK,2016-11-27 05:00,ZJHK 270500Z 36003MPS 320V050 9999 FEW020 BKN033 18/13 Q1016 NOSIG
ZJHK,2016-11-27 06:00,ZJHK 270600Z VRB02MPS 9999 SCT023 SCT040 18/13 Q1015 NOSIG
ZJHK,2016-11-27 07:00,ZJHK 270700Z 35002MPS 9999 SCT023 18/13 Q1014 NOSIG
ZJHK,2016-11-27 08:00,ZJHK 270800Z 01002MPS 9999 FEW026 19/13 Q1014 NOSIG
ZJHK,2016-11-27 09:00,ZJHK 270900Z 04002MPS CAVOK 18/13 Q1014 NOSIG
ZJHK,2016-11-27 10:00,ZJHK 271000Z 04003MPS CAVOK 16/13 Q1015 NOSIG
ZJHK,2016-11-27 11:00,ZJHK 271100Z 03002MPS CAVOK 16/13 Q1015 NOSIG
ZJHK,2016-11-27 12:00,ZJHK 271200Z 03001MPS CAVOK 14/13 Q1016 NOSIG
ZJHK,2016-11-27 13:00,ZJHK 271300Z 35001MPS CAVOK 14/13 Q1017 NOSIG
ZJHK,2016-11-27 14:00,ZJHK 271400Z 08003MPS 9999 BKN030 17/14 Q1017 NOSIG
ZJHK,2016-11-27 15:00,ZJHK 271500Z 04001MPS 9999 BKN030 17/14 Q1018 NOSIG
ZJHK,2016-11-27 16:00,ZJHK 271600Z 31001MPS 9999 BKN030 16/15 Q1017 NOSIG
ZJHK,2016-11-27 17:00,ZJHK 271700Z 00000MPS 9999 BKN030 17/16 Q1018 NOSIG
ZJHK,2016-11-27 18:00,ZJHK 271800Z 06002MPS 9999 BKN030 18/15 Q1017 NOSIG
ZJHK,2016-11-27 19:00,ZJHK 271900Z 03003MPS 9999 BKN030 19/16 Q1017 NOSIG
ZJHK,2016-11-27 20:00,ZJHK 272000Z 05003MPS 9999 BKN030 19/16 Q1017 NOSIG
ZJHK,2016-11-27 21:00,ZJHK 272100Z 06003MPS 9999 BKN030 19/16 Q1017 NOSIG
ZJHK,2016-11-27 22:00,ZJHK 272200Z 06003MPS 9999 BKN030 19/16 Q1018 NOSIG
ZJHK,2016-11-27 23:00,ZJHK 272300Z 06003MPS 9999 SCT020 OVC030 19/16 Q1018 NOSIG
ZJHK,2016-11-28 00:00,ZJHK 280000Z 06003MPS 9999 FEW020 OVC033 19/16 Q1019 NOSIG
ZJHK,2016-11-28 01:00,ZJHK 280100Z 06004MPS 9999 OVC033 20/16 Q1020 NOSIG
ZJHK,2016-11-28 02:00,ZJHK 280200Z 06006MPS 9999 OVC033 20/16 Q1020 NOSIG
ZJHK,2016-11-28 03:00,ZJHK 280300Z 05006MPS 9999 SCT023 OVC040 20/16 Q1020 NOSIG
ZJHK,2016-11-28 04:00,ZJHK 280400Z 05006MPS 9999 SCT023 OVC040 21/16 Q1019 NOSIG
ZJHK,2016-11-28 05:00,ZJHK 280500Z 06006MPS 020V080 9999 SCT023 OVC040 20/16 Q1018 NOSIG
ZJHK,2016-11-28 06:00,ZJHK 280600Z 04005MPS 010V070 9999 SCT020 OVC030 20/16 Q1018 NOSIG
ZJHK,2016-11-28 07:00,ZJHK 280700Z 05004MPS 9999 SCT020 OVC040 20/17 Q1017 NOSIG
ZJHK,2016-11-28 08:00,ZJHK 280800Z 06004MPS 9999 SCT023 OVC040 20/16 Q1017 NOSIG
ZJHK,2016-11-28 09:00,ZJHK 280900Z 05004MPS 9999 OVC040 20/17 Q1017 NOSIG
ZJHK,2016-11-28 10:00,ZJHK 281000Z 05003MPS 9999 SCT023 OVC040 20/17 Q1017 NOSIG
ZJHK,2016-11-28 11:00,ZJHK 281100Z 05003MPS 020V080 9999 OVC030 20/17 Q1018 NOSIG
ZJHK,2016-11-28 12:00,ZJHK 281200Z 05004MPS 030V090 9999 OVC040 20/17 Q1019 NOSIG
ZJHK,2016-11-28 13:00,ZJHK 281300Z 06004MPS 9999 OVC040 20/17 Q1019 NOSIG
ZJHK,2016-11-28 14:00,ZJHK 281400Z 07004MPS 9999 BKN040 20/17 Q1020 NOSIG
ZJHK,2016-11-28 15:00,ZJHK 281500Z 07004MPS 9999 BKN046 20/16 Q1020 NOSIG
ZJHK,2016-11-28 16:00,ZJHK 281600Z 07005MPS CAVOK 20/16 Q1020 NOSIG
ZJHK,2016-11-28 17:00,ZJHK 281700Z 07004MPS CAVOK 19/16 Q1020 NOSIG
ZJHK,2016-11-28 18:00,ZJHK 281800Z 06004MPS CAVOK 19/16 Q1019 NOSIG
ZJHK,2016-11-28 19:00,ZJHK 281900Z 06004MPS CAVOK 19/16 Q1019 NOSIG
ZJHK,2016-11-28 20:00,ZJHK 282000Z 05003MPS 9999 FEW023 19/17 Q1019 NOSIG
ZJHK,2016-11-28 21:00,ZJHK 282100Z 05004MPS 9999 -RA FEW023 20/16 Q1019 NOSIG
ZJHK,2016-11-28 22:00,ZJHK 282200Z 05006MPS 9999 SCT023 20/16 Q1019 NOSIG
ZJHK,2016-11-28 23:00,ZJHK 282300Z 05005MPS 9999 SCT023 19/16 Q1020 NOSIG
ZJHK,2016-11-29 00:00,ZJHK 290000Z 05005MPS 9999 SCT023 20/16 Q1020 NOSIG
ZJHK,2016-11-29 01:00,ZJHK 290100Z 06004MPS 9999 SCT023 20/16 Q1021 NOSIG
ZJHK,2016-11-29 02:00,ZJHK 290200Z 05006MPS 020V080 9999 SCT023 20/16 Q1022 NOSIG
ZJHK,2016-11-29 03:00,ZJHK 290300Z 05006MPS 8000 SCT020 20/16 Q1022 NOSIG
ZJHK,2016-11-29 04:00,ZJHK 290400Z 04006MPS 8000 BKN020 20/16 Q1021 NOSIG
ZJHK,2016-11-29 05:00,ZJHK 290500Z 05006MPS 020V080 8000 BKN020 20/16 Q1020 NOSIG
ZJHK,2016-11-29 06:00,ZJHK 290600Z 06005MPS 020V080 8000 BKN020 20/16 Q1019 NOSIG
ZJHK,2016-11-29 07:00,ZJHK 290700Z 05006MPS 020V080 8000 BKN020 20/16 Q1019 NOSIG
ZJHK,2016-11-29 08:00,ZJHK 290800Z 05005MPS 020V080 8000 BKN020 20/16 Q1019 NOSIG
ZJHK,2016-11-29 09:00,ZJHK 290900Z 05006MPS 8000 BKN020 20/16 Q1019 NOSIG
ZJHK,2016-11-29 10:00,ZJHK 291000Z 05005MPS 8000 BKN020 20/16 Q1019 NOSIG
ZJHK,2016-11-29 11:00,ZJHK 291100Z 06006MPS 8000 BKN020 20/16 Q1020 NOSIG
ZJHK,2016-11-29 12:00,ZJHK 291200Z 06006MPS 7000 BKN020 20/16 Q1021 NOSIG
ZJHK,2016-11-29 13:00,ZJHK 291300Z 06006MPS 8000 BKN023 20/16 Q1021 NOSIG
ZJHK,2016-11-29 14:00,ZJHK 291400Z 05006MPS 8000 BKN023 20/16 Q1021 NOSIG
ZJHK,2016-11-29 15:00,ZJHK 291500Z 05006MPS 8000 BKN023 20/16 Q1021 NOSIG
ZJHK,2016-11-29 16:00,ZJHK 291600Z 05005MPS 8000 BKN023 20/16 Q1021 NOSIG
ZJHK,2016-11-29 17:00,ZJHK 291700Z 06004MPS 9999 BKN023 20/16 Q1021 NOSIG
ZJHK,2016-11-29 18:00,ZJHK 291800Z 05004MPS 9999 BKN023 20/15 Q1020 NOSIG
ZJHK,2016-11-29 19:00,ZJHK 291900Z 06004MPS 9999 BKN026 20/15 Q1020 NOSIG
ZJHK,2016-11-29 20:00,ZJHK 292000Z 05005MPS 9999 BKN033 20/15 Q1020 NOSIG
ZJHK,2016-11-29 21:00,ZJHK 292100Z 05004MPS 9999 BKN033 20/16 Q1019 NOSIG
ZJHK,2016-11-29 22:00,ZJHK 292200Z 05005MPS 9999 BKN040 20/15 Q1020 NOSIG
ZJHK,2016-11-29 23:00,ZJHK 292300Z 05004MPS 9999 BKN040 20/15 Q1020 NOSIG
ZJHK,2016-11-30 00:00,ZJHK 300000Z 04004MPS 9999 BKN040 20/15 Q1021 NOSIG
ZJHK,2016-11-30 01:00,ZJHK 300100Z 04006MPS 9999 BKN040 21/15 Q1022 NOSIG
ZJHK,2016-11-30 02:00,ZJHK 300200Z 04006MPS 9999 BKN040 21/16 Q1022 NOSIG
ZJHK,2016-11-30 03:00,ZJHK 300300Z 04006MPS 020V090 9999 BKN046 21/15 Q1022 NOSIG
ZJHK,2016-11-30 04:00,ZJHK 300400Z 05009MPS 9999 SCT046 22/15 Q1022 NOSIG
ZJHK,2016-11-30 05:00,ZJHK 300500Z 04008MPS CAVOK 22/15 Q1021 NOSIG
ZJHK,2016-11-30 06:00,ZJHK 300600Z 03008MPS 9999 FEW023 22/14 Q1020 NOSIG
ZJHK,2016-11-30 07:00,ZJHK 300700Z 04007MPS 010V070 9999 FEW023 22/14 Q1020 NOSIG
ZJHK,2016-11-30 08:00,ZJHK 300800Z 04005MPS 9999 FEW023 21/15 Q1020 NOSIG
ZJHK,2016-11-30 09:00,ZJHK 300900Z 04005MPS 9999 FEW040 20/14 Q1021 NOSIG
ZJHK,2016-11-30 10:00,ZJHK 301000Z 04004MPS 9999 FEW046 19/14 Q1021 NOSIG
ZJHK,2016-11-30 11:00,ZJHK 301100Z 04003MPS 9999 FEW046 19/14 Q1021 NOSIG
ZJHK,2016-11-30 12:00,ZJHK 301200Z 36004MPS 9999 FEW046 19/14 Q1022 NOSIG
ZJHK,2016-11-30 13:00,ZJHK 301300Z 01003MPS 340V040 CAVOK 19/13 Q1022 NOSIG
ZJHK,2016-11-30 14:00,ZJHK 301400Z 36003MPS 330V030 CAVOK 19/13 Q1022 NOSIG
ZJHK,2016-11-30 15:00,ZJHK 301500Z 01003MPS 330V030 CAVOK 18/13 Q1022 NOSIG
ZJHK,2016-11-30 16:00,ZJHK 301600Z 36004MPS CAVOK 18/13 Q1022 NOSIG
ZJHK,2016-11-30 17:00,ZJHK 301700Z 36004MPS 320V030 CAVOK 18/12 Q1022 NOSIG
ZJHK,2016-11-30 18:00,ZJHK 301800Z 35004MPS CAVOK 17/12 Q1021 NOSIG
ZJHK,2016-11-30 19:00,ZJHK 301900Z 36003MPS 320V020 CAVOK 17/13 Q1021 NOSIG
ZJHK,2016-11-30 20:00,ZJHK 302000Z 35004MPS 310V010 CAVOK 17/12 Q1021 NOSIG
ZJHK,2016-11-30 21:00,ZJHK 302100Z 35004MPS CAVOK 16/12 Q1021 NOSIG
ZJHK,2016-11-30 22:00,ZJHK 302200Z 35003MPS CAVOK 16/12 Q1021 NOSIG
ZJHK,2016-11-30 23:00,ZJHK 302300Z 36003MPS 340V040 CAVOK 15/12 Q1022 NOSIG
ZJHK,2016-12-01 00:00,ZJHK 010000Z 01004MPS CAVOK 16/12 Q1022 NOSIG
ZJHK,2016-12-01 01:00,ZJHK 010100Z 36004MPS CAVOK 17/12 Q1023 NOSIG
ZJHK,2016-12-01 02:00,ZJHK 010200Z 02004MPS CAVOK 18/13 Q1023 NOSIG
ZJHK,2016-12-01 03:00,ZJHK 010300Z 01005MPS 330V040 9999 SCT016 19/14 Q1022 NOSIG
ZJHK,2016-12-01 04:00,ZJHK 010400Z 02004MPS 340V070 9999 SCT016 19/14 Q1022 NOSIG
ZJHK,2016-12-01 05:00,ZJHK 010500Z 02005MPS 350V060 9999 SCT020 20/14 Q1021 NOSIG
ZJHK,2016-12-01 06:00,ZJHK 010600Z 02004MPS 340V060 9999 FEW020 20/15 Q1020 NOSIG
ZJHK,2016-12-01 07:00,ZJHK 010700Z 04006MPS 010V070 9999 FEW023 21/14 Q1019 NOSIG
ZJHK,2016-12-01 08:00,ZJHK 010800Z 04006MPS 010V070 CAVOK 20/14 Q1019 NOSIG
ZJHK,2016-12-01 09:00,ZJHK 010900Z 04005MPS 7000 BKN026 20/15 Q1019 NOSIG
ZJHK,2016-12-01 10:00,ZJHK 011000Z 05004MPS 020V080 7000 SCT026 19/15 Q1019 NOSIG
ZJHK,2016-12-01 11:00,ZJHK 011100Z 06003MPS 7000 BKN025 20/15 Q1020 NOSIG
ZJHK,2016-12-01 12:00,ZJHK 011200Z 05002MPS 7000 BKN025 20/16 Q1021 NOSIG
ZJHK,2016-12-01 13:00,ZJHK 011300Z 05002MPS 7000 SCT023 20/16 Q1021 NOSIG
ZJHK,2016-12-01 14:00,ZJHK 011400Z 05002MPS 7000 SCT023 20/17 Q1021 NOSIG
ZJHK,2016-12-01 15:00,ZJHK 011500Z 04002MPS 010V070 7000 SCT023 20/17 Q1021 NOSIG
ZJHK,2016-12-01 16:00,ZJHK 011600Z 05004MPS 020V080 7000 SCT023 20/16 Q1021 NOSIG
ZJHK,2016-12-01 17:00,ZJHK 011700Z 05004MPS 7000 SCT023 20/16 Q1021 NOSIG
ZJHK,2016-12-01 18:00,ZJHK 011800Z 05004MPS 7000 SCT030 20/16 Q1020 NOSIG
ZJHK,2016-12-01 19:00,ZJHK 011900Z 05004MPS 7000 BKN030 20/16 Q1020 NOSIG
ZJHK,2016-12-01 20:00,ZJHK 012000Z 04005MPS 6000 OVC030 20/16 Q1020 NOSIG
ZJHK,2016-12-01 21:00,ZJHK 012100Z 04005MPS 6000 OVC026 20/16 Q1020 NOSIG
ZJHK,2016-12-01 22:00,ZJHK 012200Z 05005MPS 6000 OVC026 20/15 Q1020 NOSIG
ZJHK,2016-12-01 23:00,ZJHK 012300Z 05004MPS 6000 OVC026 19/15 Q1021 NOSIG
ZJHK,2016-12-02 00:00,ZJHK 020000Z 05004MPS 6000 OVC023 20/16 Q1022 NOSIG
ZJHK,2016-12-02 01:00,ZJHK 020100Z 05005MPS 010V070 6000 BKN023 20/17 Q1022 NOSIG
ZJHK,2016-12-02 02:00,ZJHK 020200Z 06006MPS 6000 BKN023 21/17 Q1022 NOSIG
ZJHK,2016-12-02 03:00,ZJHK 020300Z 05005MPS 6000 BKN023 21/17 Q1022 NOSIG
ZJHK,2016-12-02 04:00,ZJHK 020400Z 05005MPS 020V090 6000 BKN023 21/17 Q1021 NOSIG
ZJHK,2016-12-02 05:00,ZJHK 020500Z 06004MPS 030V090 6000 BKN017 21/18 Q1020 NOSIG
ZJHK,2016-12-02 06:00,ZJHK 020600Z 05005MPS 6000 BKN017 21/18 Q1019 NOSIG
ZJHK,2016-12-02 07:00,ZJHK 020700Z 06005MPS 6000 BKN016 21/18 Q1018 NOSIG
ZJHK,2016-12-02 08:00,ZJHK 020800Z 06006MPS 6000 BKN017 21/18 Q1018 NOSIG
ZJHK,2016-12-02 09:00,ZJHK 020900Z 07006MPS 6000 BKN016 21/18 Q1019 NOSIG
ZJHK,2016-12-02 10:00,ZJHK 021000Z 07005MPS 6000 BKN016 21/18 Q1019 NOSIG
ZJHK,2016-12-02 11:00,ZJHK 021100Z 07005MPS 6000 BKN016 21/18 Q1019 NOSIG
ZJHK,2016-12-02 12:00,ZJHK 021200Z 06004MPS 6000 BKN016 21/18 Q1020 NOSIG
ZJHK,2016-12-02 13:00,ZJHK 021300Z 06005MPS 6000 BKN016 21/18 Q1020 NOSIG
ZJHK,2016-12-02 14:00,ZJHK 021400Z 06006MPS 6000 BKN015 OVC040 20/18 Q1020 NOSIG
ZJHK,2016-12-02 15:00,ZJHK 021500Z 05007MPS 6000 SCT010 BKN016 OVC040 20/18 Q1020 NOSIG
ZJHK,2016-12-02 16:00,ZJHK 021600Z 06005MPS 6000 SCT010 BKN016 OVC040 20/18 Q1020 NOSIG
ZJHK,2016-12-02 17:00,ZJHK 021700Z 07005MPS 8000 BKN020 OVC046 20/18 Q1020 NOSIG
ZJHK,2016-12-02 18:00,ZJHK 021800Z 05004MPS 8000 BKN016 OVC046 20/18 Q1019 NOSIG
ZJHK,2016-12-02 19:00,ZJHK 021900Z 06004MPS 8000 BKN016 OVC046 20/18 Q1019 NOSIG
ZJHK,2016-12-02 20:00,ZJHK 022000Z 05004MPS 020V080 5000 BR BKN016 OVC046 20/18 Q1019 NOSIG
ZJHK,2016-12-02 21:00,ZJHK 022100Z 06004MPS 5000 BR BKN016 OVC046 20/18 Q1019 NOSIG
ZJHK,2016-12-02 22:00,ZJHK 022200Z 05005MPS 5000 BR BKN017 20/17 Q1019 NOSIG
ZJHK,2016-12-02 23:00,ZJHK 022300Z 06006MPS 5000 BR BKN017 20/17 Q1020 NOSIG
ZJHK,2016-12-03 00:00,ZJHK 030000Z 05005MPS 6000 BKN017 20/17 Q1020 NOSIG
ZJHK,2016-12-03 01:00,ZJHK 030100Z 06005MPS 030V090 6000 BKN017 20/17 Q1021 NOSIG
ZJHK,2016-12-03 02:00,ZJHK 030200Z 06006MPS 5000 BR BKN017 21/18 Q1021 NOSIG
ZJHK,2016-12-03 03:00,ZJHK 030300Z 06005MPS 5000 BR BKN015 21/18 Q1021 NOSIG
ZJHK,2016-12-03 04:00,ZJHK 030400Z 06005MPS 5000 BR BKN015 21/18 Q1020 NOSIG
ZJHK,2016-12-03 05:00,ZJHK 030500Z 07005MPS 5000 BR BKN015 OVC046 21/19 Q1019 NOSIG
ZJHK,2016-12-03 06:00,ZJHK 030600Z 07005MPS 5000 BR BKN015 OVC046 21/19 Q1018 NOSIG
ZJHK,2016-12-03 07:00,ZJHK 030700Z 06004MPS 5000 BR BKN015 OVC046 21/19 Q1017 NOSIG
ZJHK,2016-12-03 08:00,ZJHK 030800Z 07004MPS 4000 BR BKN015 OVC046 21/19 Q1017 NOSIG
ZJHK,2016-12-03 09:00,ZJHK 030900Z 07005MPS 4000 BR BKN015 OVC046 21/19 Q1017 NOSIG
ZJHK,2016-12-03 10:00,ZJHK 031000Z 06004MPS 4000 BR BKN015 OVC046 21/19 Q1018 NOSIG
ZJHK,2016-12-03 11:00,ZJHK 031100Z 05003MPS 4000 BR BKN015 OVC046 21/19 Q1018 NOSIG
ZJHK,2016-12-03 12:00,ZJHK 031200Z 06004MPS 4000 BR BKN015 OVC046 21/19 Q1019 NOSIG
ZJHK,2016-12-03 13:00,ZJHK 031300Z 06004MPS 7000 BKN016 OVC046 22/19 Q1019 NOSIG
ZJHK,2016-12-03 14:00,ZJHK 031400Z 07004MPS 8000 BKN016 OVC046 21/19 Q1019 NOSIG
ZJHK,2016-12-03 15:00,ZJHK 031500Z 06004MPS 030V090 8000 BKN016 OVC046 21/19 Q1019 NOSIG
ZJHK,2016-12-03 16:00,ZJHK 031600Z 06004MPS 8000 BKN016 OVC046 21/19 Q1019 NOSIG
ZJHK,2016-12-03 17:00,ZJHK 031700Z 06004MPS 7000 BKN016 OVC046 21/19 Q1019 NOSIG
ZJHK,2016-12-03 18:00,ZJHK 031800Z 06004MPS 6000 BKN016 OVC046 21/18 Q1018 NOSIG
ZJHK,2016-12-03 19:00,ZJHK 031900Z 05002MPS 6000 SCT018 OVC046 20/18 Q1018 NOSIG
ZJHK,2016-12-03 20:00,ZJHK 032000Z 04003MPS 5000 BR SCT018 OVC046 20/18 Q1017 NOSIG
ZJHK,2016-12-03 21:00,ZJHK 032100Z 03002MPS 5000 BR SCT018 OVC046 19/18 Q1017 NOSIG
ZJHK,2016-12-03 22:00,ZJHK 032200Z 04002MPS 4000 BR FEW040 19/18 Q1017 NOSIG
ZJHK,2016-12-03 23:00,ZJHK 032300Z 03002MPS 360V070 4000 BR BKN040 20/18 Q1018 NOSIG
ZJHK,2016-12-04 00:00,ZJHK 040000Z 05003MPS 5000 BR BKN040 21/18 Q1019 NOSIG
ZJHK,2016-12-04 01:00,ZJHK 040100Z 07003MPS 040V100 5000 BR BKN040 22/18 Q1019 NOSIG
ZJHK,2016-12-04 02:00,ZJHK 040200Z 06003MPS 030V090 6000 BKN040 22/18 Q1019 NOSIG
ZJHK,2016-12-04 03:00,ZJHK 040300Z 03003MPS 360V080 6000 BKN040 23/18 Q1019 NOSIG
ZJHK,2016-12-04 04:00,ZJHK 040400Z 04004MPS 350V090 9999 FEW016 SCT046 24/18 Q1018 NOSIG
ZJHK,2016-12-04 05:00,ZJHK 040500Z 03003MPS 350V080 9999 BKN046 23/18 Q1017 NOSIG
ZJHK,2016-12-04 06:00,ZJHK 040600Z 05004MPS 010V070 9999 SCT046 24/18 Q1016 NOSIG
ZJHK,2016-12-04 07:00,ZJHK 040700Z 04004MPS 360V080 9999 SCT046 24/19 Q1016 NOSIG
ZJHK,2016-12-04 08:00,ZJHK 040800Z 03004MPS 360V060 9999 FEW046 23/18 Q1015 NOSIG
ZJHK,2016-12-04 09:00,ZJHK 040900Z 04004MPS CAVOK 23/18 Q1016 NOSIG
ZJHK,2016-12-04 10:00,ZJHK 041000Z 03003MPS 6000 NSC 21/18 Q1016 NOSIG
ZJHK,2016-12-04 11:00,ZJHK 041100Z 04003MPS 010V070 5000 BR SCT046 21/18 Q1017 NOSIG
ZJHK,2016-12-04 12:00,ZJHK 041200Z 04002MPS 5000 BR NSC 21/18 Q1017 NOSIG
ZJHK,2016-12-04 13:00,ZJHK 041300Z 05001MPS 5000 BR NSC 21/18 Q1017 NOSIG
ZJHK,2016-12-04 14:00,ZJHK 041400Z 00000MPS 4000 BR NSC 18/17 Q1017 NOSIG
ZJHK,2016-12-04 15:00,ZJHK 041500Z 18001MPS 4000 R09/1200N BR BCFG NSC 18/17 Q1017 NOSIG
ZJHK,2016-12-04 16:00,ZJHK 041600Z 25001MPS 3000 R27/0900V1400D BR BCFG NSC 17/17 Q1017 NOSIG
ZJHK,2016-12-04 17:00,ZJHK 041700Z 25001MPS 3000 R27/0900V1300N BR BCFG NSC 17/17 Q1017 NOSIG
ZJHK,2016-12-04 18:00,ZJHK 041800Z 24001MPS 2500 R27/1200N BR BCFG NSC 17/17 Q1016 NOSIG
ZJHK,2016-12-04 19:00,ZJHK 041900Z 25001MPS 2500 BR BCFG NSC 17/17 Q1016 NOSIG
ZJHK,2016-12-04 20:00,ZJHK 042000Z 26001MPS 2500 BR BCFG NSC 17/17 Q1015 NOSIG
ZJHK,2016-12-04 21:00,ZJHK 042100Z 27001MPS 2500 BR BCFG NSC 17/17 Q1015 NOSIG
ZJHK,2016-12-04 22:00,ZJHK 042200Z 00000MPS 2500 R09/0700V1200N BR BCFG NSC 16/16 Q1015 NOSIG
ZJHK,2016-12-04 23:00,ZJHK 042300Z 35001MPS 2500 BR BCFG NSC 18/17 Q1016 NOSIG
ZJHK,2016-12-05 00:00,ZJHK 050000Z 36002MPS 3000 BR NSC 20/19 Q1016 NOSIG
ZJHK,2016-12-05 01:00,ZJHK 050100Z 02002MPS 360V060 5000 BR NSC 21/19 Q1017 NOSIG
ZJHK,2016-12-05 02:00,ZJHK 050200Z 04004MPS CAVOK 23/18 Q1017 NOSIG
ZJHK,2016-12-05 03:00,ZJHK 050300Z 03004MPS CAVOK 24/18 Q1017 NOSIG
ZJHK,2016-12-05 04:00,ZJHK 050400Z 03004MPS 360V070 CAVOK 24/17 Q1017 NOSIG
ZJHK,2016-12-05 05:00,ZJHK 050500Z 04005MPS CAVOK 25/18 Q1016 NOSIG
ZJHK,2016-12-05 06:00,ZJHK 050600Z 05004MPS 010V080 CAVOK 25/17 Q1015 NOSIG
ZJHK,2016-12-05 07:00,ZJHK 050700Z 03004MPS 360V060 CAVOK 25/17 Q1015 NOSIG
ZJHK,2016-12-05 08:00,ZJHK 050800Z 04004MPS CAVOK 24/17 Q1015 NOSIG
ZJHK,2016-12-05 09:00,ZJHK 050900Z 04004MPS 010V070 CAVOK 23/18 Q1016 NOSIG
ZJHK,2016-12-05 10:00,ZJHK 051000Z 04003MPS 010V080 9000 NSC 22/18 Q1016 NOSIG
ZJHK,2016-12-05 11:00,ZJHK 051100Z 04002MPS 020V090 8000 NSC 21/18 Q1017 NOSIG
ZJHK,2016-12-05 12:00,ZJHK 051200Z 04002MPS 010V080 7000 NSC 21/18 Q1018 NOSIG
ZJHK,2016-12-05 13:00,ZJHK 051300Z 05002MPS 6000 NSC 21/19 Q1019 NOSIG
ZJHK,2016-12-05 14:00,ZJHK 051400Z 03002MPS 6000 NSC 21/19 Q1019 NOSIG
ZJHK,2016-12-05 15:00,ZJHK 051500Z 01001MPS 6000 NSC 21/19 Q1019 NOSIG
ZJHK,2016-12-05 16:00,ZJHK 051600Z 01002MPS 5000 BR NSC 21/19 Q1019 NOSIG
ZJHK,2016-12-05 17:00,ZJHK 051700Z 01002MPS 350V060 5000 BR NSC 21/20 Q1019 NOSIG
ZJHK,2016-12-05 18:00,ZJHK 051800Z 01002MPS 4500 BR NSC 21/20 Q1019 NOSIG
ZJHK,2016-12-05 19:00,ZJHK 051900Z 36002MPS 4000 BR NSC 20/20 Q1018 NOSIG
ZJHK,2016-12-05 20:00,ZJHK 052000Z 02002MPS 4000 BR NSC 21/20 Q1018 NOSIG
ZJHK,2016-12-05 21:00,ZJHK 052100Z 04004MPS 4000 BR NSC 21/19 Q1018 NOSIG
ZJHK,2016-12-05 22:00,ZJHK 052200Z 05007MPS 6000 NSC 21/16 Q1019 NOSIG
ZJHK,2016-12-05 23:00,ZJHK 052300Z 05007MPS 8000 SCT046 21/16 Q1019 NOSIG
ZJHK,2016-12-06 00:00,ZJHK 060000Z 05006MPS 8000 BKN030 21/16 Q1020 NOSIG
ZJHK,2016-12-06 01:00,ZJHK 060100Z 05008MPS 8000 BKN040 22/15 Q1020 NOSIG
ZJHK,2016-12-06 02:00,ZJHK 060200Z 05008MPS 9999 BKN040 22/14 Q1021 NOSIG
ZJHK,2016-12-06 03:00,ZJHK 060300Z 06007MPS 9999 SCT040 22/12 Q1021 NOSIG
ZJHK,2016-12-06 04:00,ZJHK 060400Z 05008MPS 010V080 9999 SCT040 22/13 Q1020 NOSIG
ZJHK,2016-12-06 05:00,ZJHK 060500Z 04008MPS CAVOK 23/13 Q1019 NOSIG
ZJHK,2016-12-06 06:00,ZJHK 060600Z 05008MPS 010V080 CAVOK 23/13 Q1018 NOSIG
ZJHK,2016-12-06 07:00,ZJHK 060700Z 04007MPS 010V070 CAVOK 23/13 Q1017 NOSIG
ZJHK,2016-12-06 08:00,ZJHK 060800Z 05007MPS 020V080 CAVOK 22/13 Q1017 NOSIG
ZJHK,2016-12-06 09:00,ZJHK 060900Z 05006MPS 9999 SCT040 21/13 Q1018 NOSIG
ZJHK,2016-12-06 10:00,ZJHK 061000Z 05005MPS 9999 BKN040 21/13 Q1018 NOSIG
ZJHK,2016-12-06 11:00,ZJHK 061100Z 05005MPS 020V080 9999 BKN040 21/14 Q1019 NOSIG
ZJHK,2016-12-06 12:00,ZJHK 061200Z 05004MPS 020V080 8000 BKN040 21/14 Q1019 NOSIG
ZJHK,2016-12-06 13:00,ZJHK 061300Z 05005MPS 8000 BKN040 20/15 Q1019 NOSIG
ZJHK,2016-12-06 14:00,ZJHK 061400Z 04004MPS 010V080 8000 BKN040 20/15 Q1019 NOSIG
ZJHK,2016-12-06 15:00,ZJHK 061500Z 06004MPS 8000 BKN040 20/15 Q1019 NOSIG
ZJHK,2016-12-06 16:00,ZJHK 061600Z 06005MPS 8000 BKN040 20/14 Q1019 NOSIG
ZJHK,2016-12-06 17:00,ZJHK 061700Z 07005MPS 8000 BKN040 20/14 Q1019 NOSIG
ZJHK,2016-12-06 18:00,ZJHK 061800Z 06004MPS 8000 BKN040 20/14 Q1018 NOSIG
ZJHK,2016-12-06 19:00,ZJHK 061900Z 05003MPS 8000 BKN040 19/14 Q1017 NOSIG
ZJHK,2016-12-06 20:00,ZJHK 062000Z 05003MPS 8000 BKN040 19/14 Q1017 NOSIG
ZJHK,2016-12-06 21:00,ZJHK 062100Z 05004MPS 8000 BKN040 20/15 Q1017 NOSIG
ZJHK,2016-12-06 22:00,ZJHK 062200Z 05004MPS 8000 BKN030 20/15 Q1017 NOSIG
ZJHK,2016-12-06 23:00,ZJHK 062300Z 06005MPS 8000 BKN030 20/15 Q1018 NOSIG
ZJHK,2016-12-07 00:00,ZJHK 070000Z 06005MPS 7000 BKN030 20/15 Q1018 NOSIG
ZJHK,2016-12-07 01:00,ZJHK 070100Z 06005MPS 7000 BKN030 20/15 Q1019 NOSIG
ZJHK,2016-12-07 02:00,ZJHK 070200Z 07005MPS 7000 BKN030 21/15 Q1019 NOSIG
ZJHK,2016-12-07 03:00,ZJHK 070300Z 05007MPS 7000 SCT026 22/15 Q1019 NOSIG
ZJHK,2016-12-07 04:00,ZJHK 070400Z 05008MPS 7000 SCT026 22/15 Q1018 NOSIG
ZJHK,2016-12-07 05:00,ZJHK 070500Z 06006MPS 7000 SCT026 22/15 Q1017 NOSIG
ZJHK,2016-12-07 06:00,ZJHK 070600Z 05005MPS 7000 SCT026 21/16 Q1016 NOSIG
ZJHK,2016-12-07 07:00,ZJHK 070700Z 04005MPS 360V070 7000 SCT026 22/16 Q1016 NOSIG
ZJHK,2016-12-07 08:00,ZJHK 070800Z 04005MPS 7000 SCT026 21/16 Q1016 NOSIG
ZJHK,2016-12-07 09:00,ZJHK 070900Z 04005MPS 010V070 7000 NSC 21/16 Q1016 NOSIG
ZJHK,2016-12-07 10:00,ZJHK 071000Z 06004MPS 6000 NSC 20/15 Q1016 NOSIG
ZJHK,2016-12-07 11:00,ZJHK 071100Z 06003MPS 020V090 6000 NSC 20/16 Q1017 NOSIG
ZJHK,2016-12-07 12:00,ZJHK 071200Z 05002MPS 6000 NSC 20/16 Q1017 NOSIG
ZJHK,2016-12-07 13:00,ZJHK 071300Z 05003MPS 030V100 5000 BR NSC 20/16 Q1018 NOSIG
ZJHK,2016-12-07 14:00,ZJHK 071400Z 05002MPS 020V090 5000 BR NSC 19/16 Q1018 NOSIG
ZJHK,2016-12-07 15:00,ZJHK 071500Z 05002MPS 020V080 5000 BR NSC 19/16 Q1017 NOSIG
ZJHK,2016-12-07 16:00,ZJHK 071600Z 04002MPS 5000 BR NSC 18/16 Q1017 NOSIG
ZJHK,2016-12-07 17:00,ZJHK 071700Z 06003MPS 5000 BR NSC 19/16 Q1016 NOSIG
ZJHK,2016-12-07 18:00,ZJHK 071800Z 03002MPS 5000 BR NSC 18/16 Q1016 NOSIG
ZJHK,2016-12-07 19:00,ZJHK 071900Z 04001MPS 5000 BR NSC 17/15 Q1016 NOSIG
ZJHK,2016-12-07 20:00,ZJHK 072000Z 04001MPS 6000 NSC 17/15 Q1016 NOSIG
ZJHK,2016-12-07 21:00,ZJHK 072100Z 05002MPS 6000 FEW040 18/15 Q1015 NOSIG
ZJHK,2016-12-07 22:00,ZJHK 072200Z 03001MPS 6000 NSC 15/15 Q1016 NOSIG
ZJHK,2016-12-07 23:00,ZJHK 072300Z 05003MPS 6000 NSC 18/14 Q1016 NOSIG
ZJHK,2016-12-08 00:00,ZJHK 080000Z 06003MPS 7000 NSC 19/14 Q1017 NOSIG
ZJHK,2016-12-08 01:00,ZJHK 080100Z 04005MPS CAVOK 21/14 Q1017 NOSIG
ZJHK,2016-12-08 02:00,ZJHK 080200Z 04006MPS CAVOK 22/13 Q1017 NOSIG
ZJHK,2016-12-08 03:00,ZJHK 080300Z 04006MPS CAVOK 22/13 Q1017 NOSIG
ZJHK,2016-12-08 04:00,ZJHK 080400Z 03005MPS 360V070 CAVOK 23/13 Q1016 NOSIG
ZJHK,2016-12-08 05:00,ZJHK 080500Z 02004MPS 350V060 CAVOK 23/14 Q1015 NOSIG
ZJHK,2016-12-08 06:00,ZJHK 080600Z 03005MPS 350V070 CAVOK 23/14 Q1014 NOSIG
ZJHK,2016-12-08 07:00,ZJHK 080700Z 04005MPS 360V090 CAVOK 23/13 Q1013 NOSIG
ZJHK,2016-12-08 08:00,ZJHK 080800Z 03005MPS 350V060 CAVOK 22/12 Q1013 NOSIG
ZJHK,2016-12-08 09:00,ZJHK 080900Z 05004MPS 7000 NSC 21/12 Q1013 NOSIG
ZJHK,2016-12-08 10:00,ZJHK 081000Z 04003MPS 010V070 7000 NSC 20/13 Q1014 NOSIG
ZJHK,2016-12-08 11:00,ZJHK 081100Z 07003MPS 7000 NSC 19/13 Q1014 NOSIG
ZJHK,2016-12-08 12:00,ZJHK 081200Z 05003MPS 7000 NSC 19/13 Q1015 NOSIG
ZJHK,2016-12-08 13:00,ZJHK 081300Z 05002MPS 020V080 8000 NSC 18/12 Q1015 NOSIG
ZJHK,2016-12-08 14:00,ZJHK 081400Z 07002MPS 8000 NSC 18/12 Q1016 NOSIG
ZJHK,2016-12-08 15:00,ZJHK 081500Z 18001MPS 8000 NSC 13/12 Q1016 NOSIG
ZJHK,2016-12-08 16:00,ZJHK 081600Z 24001MPS 8000 NSC 14/13 Q1015 NOSIG
ZJHK,2016-12-08 17:00,ZJHK 081700Z 00000MPS 6000 NSC 13/13 Q1015 NOSIG
ZJHK,2016-12-08 18:00,ZJHK 081800Z 23001MPS 6000 NSC 14/13 Q1014 NOSIG
ZJHK,2016-12-08 19:00,ZJHK 081900Z 23001MPS 6000 NSC 14/13 Q1014 NOSIG
ZJHK,2016-12-08 20:00,ZJHK 082000Z 00000MPS 5000 BR BCFG NSC 12/12 Q1014 NOSIG
ZJHK,2016-12-08 21:00,ZJHK 082100Z 00000MPS 5000 R09/0750V1400U BR BCFG NSC 13/13 Q1014 NOSIG
ZJHK,2016-12-08 22:00,ZJHK 082200Z 26001MPS 4500 BR BCFG NSC 12/12 Q1014 NOSIG
ZJHK,2016-12-08 23:00,ZJHK 082300Z 22001MPS 4500 BR NSC 12/12 Q1014 NOSIG
ZJHK,2016-12-09 00:00,ZJHK 090000Z 23001MPS 5000 BR NSC 14/14 Q1015 NOSIG
ZJHK,2016-12-09 01:00,ZJHK 090100Z 05002MPS 350V120 8000 NSC 19/14 Q1015 NOSIG
ZJHK,2016-12-09 02:00,ZJHK 090200Z 05004MPS 020V080 CAVOK 21/12 Q1015 NOSIG
ZJHK,2016-12-09 03:00,ZJHK 090300Z 07005MPS 020V100 CAVOK 23/11 Q1015 NOSIG
ZJHK,2016-12-09 04:00,ZJHK 090400Z 08005MPS 050V110 CAVOK 23/11 Q1014 NOSIG
ZJHK,2016-12-09 05:00,ZJHK 090500Z 07005MPS 030V100 CAVOK 23/12 Q1013 NOSIG
ZJHK,2016-12-09 06:00,ZJHK 090600Z 07004MPS 030V090 CAVOK 23/12 Q1012 NOSIG
ZJHK,2016-12-09 07:00,ZJHK 090700Z 08004MPS 030V110 CAVOK 23/12 Q1012 NOSIG
ZJHK,2016-12-09 08:00,ZJHK 090800Z 07004MPS 010V100 CAVOK 22/14 Q1012 NOSIG
ZJHK,2016-12-09 09:00,ZJHK 090900Z 06005MPS CAVOK 21/14 Q1012 NOSIG
ZJHK,2016-12-09 10:00,ZJHK 091000Z 06004MPS 8000 NSC 20/14 Q1013 NOSIG
ZJHK,2016-12-09 11:00,ZJHK 091100Z 06003MPS 020V080 8000 NSC 19/15 Q1013 NOSIG
ZJHK,2016-12-09 12:00,ZJHK 091200Z 06003MPS 010V080 8000 NSC 19/15 Q1014 NOSIG
ZJHK,2016-12-09 13:00,ZJHK 091300Z 06002MPS 030V090 8000 NSC 18/16 Q1014 NOSIG
ZJHK,2016-12-09 14:00,ZJHK 091400Z 09001MPS 7000 NSC 17/16 Q1015 NOSIG
ZJHK,2016-12-09 15:00,ZJHK 091500Z 09001MPS 7000 NSC 16/15 Q1015 NOSIG
ZJHK,2016-12-09 16:00,ZJHK 091600Z 06001MPS 7000 NSC 16/15 Q1015 NOSIG
ZJHK,2016-12-09 17:00,ZJHK 091700Z 05001MPS 7000 NSC 16/15 Q1014 NOSIG
ZJHK,2016-12-09 18:00,ZJHK 091800Z 36001MPS 7000 NSC 15/15 Q1014 NOSIG
ZJHK,2016-12-09 19:00,ZJHK 091900Z 00000MPS 7000 NSC 15/15 Q1014 NOSIG
ZJHK,2016-12-09 20:00,ZJHK 092000Z 03002MPS 7000 SCT040 17/16 Q1014 NOSIG
ZJHK,2016-12-09 21:00,ZJHK 092100Z 03002MPS 7000 SCT040 18/16 Q1014 NOSIG
ZJHK,2016-12-09 22:00,ZJHK 092200Z 05002MPS 7000 SCT040 19/15 Q1015 NOSIG
ZJHK,2016-12-09 23:00,ZJHK 092300Z 05002MPS 020V080 7000 NSC 18/15 Q1015 NOSIG
ZJHK,2016-12-10 00:00,ZJHK 100000Z 01001MPS CAVOK 19/16 Q1015 NOSIG
ZJHK,2016-12-10 01:00,ZJHK 100100Z 05006MPS 9999 SCT013 21/18 Q1016 NOSIG
ZJHK,2016-12-10 02:00,ZJHK 100200Z 04005MPS 9999 BKN026 21/17 Q1017 NOSIG
ZJHK,2016-12-10 03:00,ZJHK 100300Z 03006MPS 010V070 9999 FEW016 BKN023 21/18 Q1016 NOSIG
ZJHK,2016-12-10 04:00,ZJHK 100400Z 04006MPS 9999 SCT016 BKN030 21/17 Q1016 NOSIG
ZJHK,2016-12-10 05:00,ZJHK 100500Z 04006MPS 9999 SCT016 BKN033 21/17 Q1015 NOSIG
ZJHK,2016-12-10 06:00,ZJHK 100600Z 05006MPS 010V070 7000 SCT016 BKN033 21/18 Q1014 NOSIG
ZJHK,2016-12-10 07:00,ZJHK 100700Z 05005MPS 7000 SCT016 BKN033 21/18 Q1013 NOSIG
ZJHK,2016-12-10 08:00,ZJHK 100800Z 04006MPS 7000 SCT016 BKN033 21/18 Q1013 NOSIG
ZJHK,2016-12-10 09:00,ZJHK 100900Z 07005MPS 7000 SCT016 BKN033 21/17 Q1013 NOSIG
ZJHK,2016-12-10 10:00,ZJHK 101000Z 05005MPS 010V090 6000 SCT016 BKN040 20/17 Q1013 NOSIG
ZJHK,2016-12-10 11:00,ZJHK 101100Z 06003MPS 6000 BKN016 BKN040 21/17 Q1013 NOSIG
ZJHK,2016-12-10 12:00,ZJHK 101200Z 06003MPS 030V090 6000 BKN016 BKN040 20/18 Q1014 NOSIG
ZJHK,2016-12-10 13:00,ZJHK 101300Z 06003MPS 020V090 6000 SCT016 20/18 Q1014 NOSIG
ZJHK,2016-12-10 14:00,ZJHK 101400Z 06002MPS 6000 SCT016 20/18 Q1015 NOSIG
ZJHK,2016-12-10 15:00,ZJHK 101500Z 04003MPS 010V080 6000 SCT016 SCT040 20/18 Q1015 NOSIG
ZJHK,2016-12-10 16:00,ZJHK 101600Z 05003MPS 6000 FEW016 20/18 Q1015 NOSIG
ZJHK,2016-12-10 17:00,ZJHK 101700Z 05003MPS 6000 BKN020 20/19 Q1014 NOSIG
ZJHK,2016-12-10 18:00,ZJHK 101800Z 04004MPS 6000 BKN020 20/19 Q1014 NOSIG
ZJHK,2016-12-10 19:00,ZJHK 101900Z 05003MPS 6000 SCT020 20/19 Q1013 NOSIG
ZJHK,2016-12-10 20:00,ZJHK 102000Z 05003MPS 5000 BR SCT020 21/19 Q1013 NOSIG
ZJHK,2016-12-10 21:00,ZJHK 102100Z 08003MPS 5000 -RA BR SCT012 BKN040 21/20 Q1013 NOSIG
ZJHK,2016-12-10 22:00,ZJHK 102200Z 06005MPS 5000 BR SCT016 BKN040 21/19 Q1013 NOSIG
ZJHK,2016-12-10 23:00,ZJHK 102300Z 06005MPS 5000 BR SCT013 BKN033 21/19 Q1014 NOSIG
ZJHK,2016-12-11 00:00,ZJHK 110000Z 06003MPS 010V100 5000 BR SCT013 BKN033 21/19 Q1014 NOSIG
ZJHK,2016-12-11 01:00,ZJHK 110100Z 07006MPS 6000 SCT015 BKN033 22/19 Q1015 NOSIG
ZJHK,2016-12-11 02:00,ZJHK 110200Z 08008MPS 8000 BKN015 BKN033 22/19 Q1015 NOSIG
ZJHK,2016-12-11 03:00,ZJHK 110300Z 08008MPS 9999 SCT016 BKN033 24/19 Q1015 NOSIG
ZJHK,2016-12-11 04:00,ZJHK 110400Z 08008MPS 9999 SCT016 BKN033 24/19 Q1014 NOSIG
ZJHK,2016-12-11 05:00,ZJHK 110500Z 08009MPS 9999 SCT020 BKN040 24/19 Q1013 NOSIG
ZJHK,2016-12-11 06:00,ZJHK 110600Z 09009MPS 9999 SCT020 BKN040 24/19 Q1012 NOSIG
ZJHK,2016-12-11 07:00,ZJHK 110700Z 10009MPS 070V130 9999 BKN020 24/19 Q1012 NOSIG
ZJHK,2016-12-11 08:00,ZJHK 110800Z 10007MPS 9999 BKN020 23/19 Q1012 NOSIG
ZJHK,2016-12-11 09:00,ZJHK 110900Z 10007MPS 9999 FEW020 22/19 Q1011 NOSIG
ZJHK,2016-12-11 10:00,ZJHK 111000Z 11004MPS 9000 BKN020 22/19 Q1012 NOSIG
ZJHK,2016-12-11 11:00,ZJHK 111100Z 11003MPS 9000 FEW020 21/19 Q1012 NOSIG
ZJHK,2016-12-11 12:00,ZJHK 111200Z 10003MPS 8000 NSC 20/19 Q1012 NOSIG
ZJHK,2016-12-11 13:00,ZJHK 111300Z 11002MPS 8000 FEW033 20/19 Q1013 NOSIG
ZJHK,2016-12-11 14:00,ZJHK 111400Z 10002MPS 8000 NSC 20/19 Q1013 NOSIG
ZJHK,2016-12-11 15:00,ZJHK 111500Z 11002MPS 8000 FEW020 20/19 Q1013 NOSIG
ZJHK,2016-12-11 16:00,ZJHK 111600Z 10002MPS 8000 SCT020 20/19 Q1013 NOSIG
ZJHK,2016-12-11 17:00,ZJHK 111700Z 12002MPS 7000 FEW020 20/19 Q1012 NOSIG
ZJHK,2016-12-11 18:00,ZJHK 111800Z 10002MPS 7000 SCT020 20/19 Q1011 NOSIG
ZJHK,2016-12-11 19:00,ZJHK 111900Z 28002MPS 6000 SCT020 20/19 Q1012 NOSIG
ZJHK,2016-12-11 20:00,ZJHK 112000Z 21001MPS 5000 -RA BR BKN010 BKN020 20/20 Q1011 NOSIG
ZJHK,2016-12-11 21:00,ZJHK 112100Z 14002MPS 5000 BR FEW015 20/20 Q1011 NOSIG
ZJHK,2016-12-11 22:00,ZJHK 112200Z 10001MPS 4000 BR BCFG NSC 19/19 Q1011 NOSIG
ZJHK,2016-12-11 23:00,ZJHK 112300Z 10002MPS 6000 BCFG FEW020 19/19 Q1012 NOSIG
ZJHK,2016-12-12 00:00,ZJHK 120000Z 09002MPS 6000 FEW020 20/20 Q1013 NOSIG
ZJHK,2016-12-12 01:00,ZJHK 120100Z 10003MPS 080V140 9999 SCT020 23/21 Q1013 NOSIG
ZJHK,2016-12-12 02:00,ZJHK 120200Z 13004MPS 9999 FEW015 SCT023 24/21 Q1013 NOSIG
ZJHK,2016-12-12 03:00,ZJHK 120300Z 11005MPS 080V140 9999 BKN020 25/21 Q1013 NOSIG
ZJHK,2016-12-12 04:00,ZJHK 120400Z 11006MPS 070V140 9999 BKN023 25/20 Q1013 NOSIG
ZJHK,2016-12-12 05:00,ZJHK 120500Z 12005MPS 090V150 9999 FEW016 SCT023 25/20 Q1012 NOSIG
ZJHK,2016-12-12 06:00,ZJHK 120600Z 12007MPS 9999 FEW016 SCT023 26/20 Q1011 NOSIG
ZJHK,2016-12-12 07:00,ZJHK 120700Z 12005MPS 9999 FEW016 SCT023 26/20 Q1010 NOSIG
ZJHK,2016-12-12 08:00,ZJHK 120800Z 11005MPS 9999 FEW016 25/21 Q1010 NOSIG
ZJHK,2016-12-12 09:00,ZJHK 120900Z 11005MPS 9999 SCT023 24/21 Q1010 NOSIG
ZJHK,2016-12-12 10:00,ZJHK 121000Z 11003MPS CAVOK 23/21 Q1011 NOSIG
ZJHK,2016-12-12 11:00,ZJHK 121100Z 10003MPS CAVOK 22/21 Q1011 NOSIG
ZJHK,2016-12-12 12:00,ZJHK 121200Z 11003MPS 9999 SCT023 22/21 Q1012 NOSIG
ZJHK,2016-12-12 13:00,ZJHK 121300Z 11003MPS 9999 FEW023 22/21 Q1012 NOSIG
ZJHK,2016-12-12 14:00,ZJHK 121400Z 11001MPS 7000 BKN015 21/21 Q1013 NOSIG
ZJHK,2016-12-12 15:00,ZJHK 121500Z 00000MPS 7000 BKN015 21/21 Q1013 NOSIG
ZJHK,2016-12-12 16:00,ZJHK 121600Z 05002MPS 020V090 7000 BKN015 22/21 Q1013 NOSIG
ZJHK,2016-12-12 17:00,ZJHK 121700Z 07003MPS 7000 FEW015 22/21 Q1013 NOSIG
ZJHK,2016-12-12 18:00,ZJHK 121800Z 06003MPS 7000 FEW015 22/21 Q1012 NOSIG
ZJHK,2016-12-12 19:00,ZJHK 121900Z 07004MPS 7000 SCT007 22/21 Q1012 NOSIG
ZJHK,2016-12-12 20:00,ZJHK 122000Z 07004MPS 7000 SCT007 22/21 Q1011 NOSIG
ZJHK,2016-12-12 21:00,ZJHK 122100Z 08004MPS 7000 SCT007 22/21 Q1011 NOSIG
ZJHK,2016-12-12 22:00,ZJHK 122200Z 08004MPS 7000 BKN007 22/21 Q1012 BECMG TL2350 BKN010
ZJHK,2016-12-12 23:00,ZJHK 122300Z 08005MPS 7000 BKN008 22/21 Q1012 BECMG TL0050 BKN010
ZJHK,2016-12-13 00:00,ZJHK 130000Z 07005MPS 7000 BKN008 OVC046 22/21 Q1013 BECMG TL0050 BKN010
ZJHK,2016-12-13 01:00,ZJHK 130100Z 08005MPS 7000 BKN008 OVC030 23/21 Q1013 BECMG AT0230 SCT008
ZJHK,2016-12-13 02:00,ZJHK 130200Z 10005MPS 9999 BKN008 OVC033 24/21 Q1014 BECMG AT0320 BKN015
ZJHK,2016-12-13 03:00,ZJHK 130300Z 10004MPS 070V130 9999 BKN016 SCT040 26/22 Q1014 NOSIG
ZJHK,2016-12-13 04:00,ZJHK 130400Z 11005MPS 070V140 9999 SCT020 27/21 Q1013 NOSIG
ZJHK,2016-12-13 05:00,ZJHK 130500Z 11005MPS 9999 SCT020 BKN040 26/21 Q1012 NOSIG
ZJHK,2016-12-13 06:00,ZJHK 130600Z 08006MPS 9999 SCT020 BKN040 26/22 Q1012 NOSIG
ZJHK,2016-12-13 07:00,ZJHK 130700Z 03005MPS 7000 SCT015 BKN033 24/21 Q1011 NOSIG
ZJHK,2016-12-13 08:00,ZJHK 130800Z 04004MPS 4000 BR BKN006 OVC030 23/21 Q1011 NOSIG
ZJHK,2016-12-13 09:00,ZJHK 130900Z 07005MPS 030V090 5000 BR BKN006 OVC030 23/21 Q1011 NOSIG
ZJHK,2016-12-13 10:00,ZJHK 131000Z 07006MPS 5000 BR BKN008 OVC033 22/20 Q1012 NOSIG
ZJHK,2016-12-13 11:00,ZJHK 131100Z 08005MPS 7000 BKN008 OVC033 22/20 Q1012 NOSIG
ZJHK,2016-12-13 12:00,ZJHK 131200Z 09005MPS 7000 BKN013 BKN040 22/20 Q1013 NOSIG
ZJHK,2016-12-13 13:00,ZJHK 131300Z 09004MPS 7000 BKN013 BKN040 22/20 Q1013 NOSIG
ZJHK,2016-12-13 14:00,ZJHK 131400Z 08004MPS 7000 SCT010 SCT040 22/20 Q1014 NOSIG
ZJHK,2016-12-13 15:00,ZJHK 131500Z 09004MPS 7000 NSC 22/20 Q1014 NOSIG
ZJHK,2016-12-13 16:00,ZJHK 131600Z 08005MPS 7000 NSC 22/20 Q1014 NOSIG
ZJHK,2016-12-13 17:00,ZJHK 131700Z 10003MPS 7000 NSC 22/19 Q1014 NOSIG
ZJHK,2016-12-13 18:00,ZJHK 131800Z 10003MPS 7000 NSC 21/19 Q1014 NOSIG
ZJHK,2016-12-13 19:00,ZJHK 131900Z 11002MPS 7000 SCT033 21/19 Q1014 NOSIG
ZJHK,2016-12-13 20:00,ZJHK 132000Z 10003MPS 7000 -RA SCT033 21/19 Q1014 NOSIG
ZJHK,2016-12-13 21:00,ZJHK 132100Z 07005MPS 6000 -RA SCT033 20/19 Q1015 NOSIG
ZJHK,2016-12-13 22:00,ZJHK 132200Z 06005MPS 4000 -RA BR SCT013 BKN040 21/20 Q1015 NOSIG
ZJHK,2016-12-13 23:00,ZJHK 132300Z 05005MPS 3000 BR BKN007 BKN040 21/20 Q1015 NOSIG
ZJHK,2016-12-14 00:00,ZJHK 140000Z 06005MPS 3000 -RA BR BKN007 BKN040 21/20 Q1016 NOSIG
ZJHK,2016-12-14 01:00,ZJHK 140100Z 05006MPS 5000 BR SCT008 BKN046 21/19 Q1016 NOSIG
ZJHK,2016-12-14 02:00,ZJHK 140200Z 07006MPS 6000 SCT011 BKN046 21/19 Q1017 NOSIG
ZJHK,2016-12-14 03:00,ZJHK 140300Z 06006MPS 6000 SCT015 BKN046 22/19 Q1017 NOSIG
ZJHK,2016-12-14 04:00,ZJHK 140400Z 07008MPS 6000 SCT015 BKN046 22/18 Q1016 NOSIG
ZJHK,2016-12-14 05:00,ZJHK 140500Z 07006MPS 7000 SCT015 BKN046 22/19 Q1015 NOSIG
ZJHK,2016-12-14 06:00,ZJHK 140600Z 07007MPS 7000 BKN016 BKN046 21/18 Q1015 NOSIG
ZJHK,2016-12-14 07:00,ZJHK 140700Z 07006MPS 7000 BKN016 BKN046 21/18 Q1014 NOSIG
ZJHK,2016-12-14 08:00,ZJHK 140800Z 07007MPS 7000 BKN016 BKN046 21/17 Q1014 NOSIG
ZJHK,2016-12-14 09:00,ZJHK 140900Z 06006MPS 8000 BKN020 OVC046 20/17 Q1015 NOSIG
ZJHK,2016-12-14 10:00,ZJHK 141000Z 06006MPS 8000 SCT020 OVC046 20/17 Q1015 NOSIG
ZJHK,2016-12-14 11:00,ZJHK 141100Z 06005MPS 8000 -RA BKN020 OVC046 20/17 Q1016 NOSIG
ZJHK,2016-12-14 12:00,ZJHK 141200Z 07004MPS 8000 BKN020 OVC046 20/17 Q1017 NOSIG
ZJHK,2016-12-14 13:00,ZJHK 141300Z 06005MPS 8000 BKN020 OVC046 21/17 Q1018 NOSIG
ZJHK,2016-12-14 14:00,ZJHK 141400Z 06006MPS 9000 SCT023 21/16 Q1018 NOSIG
ZJHK,2016-12-14 15:00,ZJHK 141500Z 05005MPS 9000 BKN026 21/16 Q1018 NOSIG
ZJHK,2016-12-14 16:00,ZJHK 141600Z 05006MPS 9000 BKN026 20/16 Q1019 NOSIG
ZJHK,2016-12-14 17:00,ZJHK 141700Z 06006MPS 9000 BKN026 20/16 Q1018 NOSIG
ZJHK,2016-12-14 18:00,ZJHK 141800Z 06006MPS 9000 BKN026 20/15 Q1018 NOSIG
ZJHK,2016-12-14 19:00,ZJHK 141900Z 05007MPS 9999 BKN030 19/15 Q1017 NOSIG
ZJHK,2016-12-14 20:00,ZJHK 142000Z 05006MPS 9000 -RA BKN026 19/15 Q1017 NOSIG
ZJHK,2016-12-14 21:00,ZJHK 142100Z 05007MPS 9000 BKN023 18/15 Q1017 NOSIG
ZJHK,2016-12-14 22:00,ZJHK 142200Z 05008MPS 9000 BKN020 18/15 Q1018 NOSIG
ZJHK,2016-12-14 23:00,ZJHK 142300Z 05008MPS 9000 BKN020 18/14 Q1019 NOSIG
ZJHK,2016-12-15 00:00,ZJHK 150000Z 06007MPS 9999 BKN020 18/14 Q1019 NOSIG
ZJHK,2016-12-15 01:00,ZJHK 150100Z 06006MPS 9999 SCT016 18/14 Q1020 NOSIG
ZJHK,2016-12-15 02:00,ZJHK 150200Z 06006MPS 030V090 9999 SCT016 19/14 Q1021 NOSIG
ZJHK,2016-12-15 03:00,ZJHK 150300Z 06008MPS 9999 SCT020 19/14 Q1021 NOSIG
ZJHK,2016-12-15 04:00,ZJHK 150400Z 06008MPS 9999 BKN020 19/15 Q1021 NOSIG
ZJHK,2016-12-15 05:00,ZJHK 150500Z 06006MPS 020V090 9999 BKN020 19/15 Q1020 NOSIG
ZJHK,2016-12-15 06:00,ZJHK 150600Z 05006MPS 9999 BKN020 19/15 Q1019 NOSIG
ZJHK,2016-12-15 07:00,ZJHK 150700Z 05006MPS 9999 BKN020 19/15 Q1019 NOSIG
ZJHK,2016-12-15 08:00,ZJHK 150800Z 05007MPS 020V080 9999 BKN020 18/14 Q1019 NOSIG
ZJHK,2016-12-15 09:00,ZJHK 150900Z 05006MPS 9999 BKN033 18/14 Q1020 NOSIG
ZJHK,2016-12-15 10:00,ZJHK 151000Z 05006MPS 9999 BKN033 18/14 Q1020 NOSIG
ZJHK,2016-12-15 11:00,ZJHK 151100Z 06006MPS 030V090 9999 BKN026 18/14 Q1021 NOSIG
ZJHK,2016-12-15 12:00,ZJHK 151200Z 06006MPS 9999 BKN026 19/14 Q1021 NOSIG
ZJHK,2016-12-15 13:00,ZJHK 151300Z 05006MPS 9999 BKN026 19/14 Q1022 NOSIG
ZJHK,2016-12-15 14:00,ZJHK 151400Z 06006MPS 030V090 9999 BKN026 19/14 Q1022 NOSIG
ZJHK,2016-12-15 15:00,ZJHK 151500Z 06006MPS 9999 BKN026 19/13 Q1022 NOSIG
ZJHK,2016-12-15 16:00,ZJHK 151600Z 06006MPS 9999 BKN026 19/13 Q1022 NOSIG
ZJHK,2016-12-15 17:00,ZJHK 151700Z 06006MPS 9999 BKN026 18/12 Q1022 NOSIG
ZJHK,2016-12-15 18:00,ZJHK 151800Z 06007MPS 9999 BKN026 18/12 Q1022 NOSIG
ZJHK,2016-12-15 19:00,ZJHK 151900Z 06008MPS 9999 BKN026 17/12 Q1022 NOSIG
ZJHK,2016-12-15 20:00,ZJHK 152000Z 06006MPS 9999 SCT026 17/12 Q1022 NOSIG
ZJHK,2016-12-15 21:00,ZJHK 152100Z 05008MPS 9999 BKN026 17/12 Q1022 NOSIG
ZJHK,2016-12-15 22:00,ZJHK 152200Z 05008MPS 9999 BKN026 17/11 Q1022 NOSIG
ZJHK,2016-12-15 23:00,ZJHK 152300Z 05006MPS 9999 BKN023 OVC040 16/12 Q1023 NOSIG
ZJHK,2016-12-16 00:00,ZJHK 160000Z 05008MPS 9999 BKN023 OVC040 16/12 Q1024 NOSIG
ZJHK,2016-12-16 01:00,ZJHK 160100Z 06006MPS 010V090 9999 BKN023 OVC040 16/12 Q1024 NOSIG
ZJHK,2016-12-16 02:00,ZJHK 160200Z 06007MPS 030V090 9999 BKN023 OVC040 16/12 Q1025 NOSIG
ZJHK,2016-12-16 03:00,ZJHK 160300Z 05007MPS 9999 BKN023 OVC040 16/11 Q1025 NOSIG
ZJHK,2016-12-16 04:00,ZJHK 160400Z 05007MPS 9999 BKN026 OVC040 17/11 Q1024 NOSIG
ZJHK,2016-12-16 05:00,ZJHK 160500Z 04007MPS 360V070 9999 BKN026 16/11 Q1023 NOSIG
ZJHK,2016-12-16 06:00,ZJHK 160600Z 05006MPS 9999 BKN023 16/11 Q1023 NOSIG
ZJHK,2016-12-16 07:00,ZJHK 160700Z 04006MPS 9999 BKN023 16/12 Q1022 NOSIG
ZJHK,2016-12-16 08:00,ZJHK 160800Z 04006MPS 9999 BKN023 16/12 Q1022 NOSIG
ZJHK,2016-12-16 09:00,ZJHK 160900Z 04005MPS 8000 BKN023 16/12 Q1022 NOSIG
ZJHK,2016-12-16 10:00,ZJHK 161000Z 05005MPS 8000 BKN023 16/12 Q1023 NOSIG
ZJHK,2016-12-16 11:00,ZJHK 161100Z 05004MPS 8000 BKN023 16/12 Q1023 NOSIG
ZJHK,2016-12-16 12:00,ZJHK 161200Z 05006MPS 8000 BKN023 16/12 Q1023 NOSIG
ZJHK,2016-12-16 13:00,ZJHK 161300Z 06005MPS 8000 BKN026 17/12 Q1023 NOSIG
ZJHK,2016-12-16 14:00,ZJHK 161400Z 05004MPS 8000 BKN026 17/12 Q1023 NOSIG
ZJHK,2016-12-16 15:00,ZJHK 161500Z 06005MPS 8000 BKN033 17/12 Q1023 NOSIG
ZJHK,2016-12-16 16:00,ZJHK 161600Z 06005MPS 8000 BKN033 17/12 Q1023 NOSIG
ZJHK,2016-12-16 17:00,ZJHK 161700Z 05004MPS 030V090 8000 BKN033 16/13 Q1022 NOSIG
ZJHK,2016-12-16 18:00,ZJHK 161800Z 06005MPS 7000 BKN030 16/12 Q1022 NOSIG
ZJHK,2016-12-16 19:00,ZJHK 161900Z 05004MPS 020V080 7000 OVC030 16/12 Q1021 NOSIG
ZJHK,2016-12-16 20:00,ZJHK 162000Z 05005MPS 7000 OVC030 16/13 Q1021 NOSIG
ZJHK,2016-12-16 21:00,ZJHK 162100Z 05004MPS 9999 SCT030 17/13 Q1021 NOSIG
ZJHK,2016-12-16 22:00,ZJHK 162200Z 05005MPS 9999 SCT030 17/13 Q1021 NOSIG
ZJHK,2016-12-16 23:00,ZJHK 162300Z 06005MPS 030V090 9999 SCT030 17/13 Q1022 NOSIG
ZJHK,2016-12-17 00:00,ZJHK 170000Z 06004MPS CAVOK 17/13 Q1022 NOSIG
ZJHK,2016-12-17 01:00,ZJHK 170100Z 07006MPS CAVOK 18/13 Q1022 NOSIG
ZJHK,2016-12-17 02:00,ZJHK 170200Z 06008MPS 9999 FEW020 19/14 Q1022 NOSIG
ZJHK,2016-12-17 03:00,ZJHK 170300Z 07008MPS 9999 FEW020 20/14 Q1022 NOSIG
ZJHK,2016-12-17 04:00,ZJHK 170400Z 07006MPS 9999 BKN023 21/15 Q1021 NOSIG
ZJHK,2016-12-17 05:00,ZJHK 170500Z 08006MPS 050V120 9999 SCT020 BKN030 20/15 Q1020 NOSIG
ZJHK,2016-12-17 06:00,ZJHK 170600Z 09007MPS 9999 SCT020 BKN040 20/15 Q1019 NOSIG
ZJHK,2016-12-17 07:00,ZJHK 170700Z 07005MPS 040V100 9999 SCT020 BKN040 20/15 Q1018 NOSIG
ZJHK,2016-12-17 08:00,ZJHK 170800Z 07005MPS 9999 SCT018 BKN033 20/16 Q1018 NOSIG
ZJHK,2016-12-17 09:00,ZJHK 170900Z 07005MPS 9999 SCT018 OVC033 20/16 Q1018 NOSIG
ZJHK,2016-12-17 10:00,ZJHK 171000Z 08004MPS 9999 SCT018 OVC033 19/16 Q1018 NOSIG
ZJHK,2016-12-17 11:00,ZJHK 171100Z 06003MPS 9999 SCT018 OVC033 19/16 Q1019 NOSIG
ZJHK,2016-12-17 12:00,ZJHK 171200Z 06003MPS 9999 SCT016 BKN030 19/17 Q1019 NOSIG
ZJHK,2016-12-17 13:00,ZJHK 171300Z 05003MPS 030V090 8000 SCT016 BKN030 19/17 Q1019 NOSIG
ZJHK,2016-12-17 14:00,ZJHK 171400Z 06003MPS 7000 SCT015 BKN023 19/17 Q1019 NOSIG
ZJHK,2016-12-17 15:00,ZJHK 171500Z 05003MPS 7000 SCT015 BKN023 19/17 Q1019 NOSIG
ZJHK,2016-12-17 16:00,ZJHK 171600Z 04003MPS 7000 SCT015 OVC023 19/18 Q1019 NOSIG
ZJHK,2016-12-17 17:00,ZJHK 171700Z 03003MPS 7000 SCT015 OVC023 19/18 Q1020 NOSIG
ZJHK,2016-12-17 18:00,ZJHK 171800Z 04008MPS 6000 -RA SCT010 OVC020 19/18 Q1020 NOSIG
ZJHK,2016-12-17 19:00,ZJHK 171900Z 05006MPS 5000 -RA BR BKN010 OVC020 18/17 Q1020 NOSIG
ZJHK,2016-12-17 20:00,ZJHK 172000Z 05003MPS 5000 BR SCT023 18/17 Q1019 NOSIG
ZJHK,2016-12-17 21:00,ZJHK 172100Z 06004MPS 5000 BR BKN015 OVC040 18/17 Q1019 NOSIG
ZJHK,2016-12-17 22:00,ZJHK 172200Z 06004MPS 6000 SCT015 18/17 Q1019 NOSIG
ZJHK,2016-12-17 23:00,ZJHK 172300Z 09005MPS 6000 SCT015 19/17 Q1019 NOSIG
ZJHK,2016-12-18 00:00,ZJHK 180000Z 08005MPS 6000 SCT015 19/17 Q1020 NOSIG
ZJHK,2016-12-18 01:00,ZJHK 180100Z 08005MPS 8000 SCT015 BKN046 20/18 Q1020 NOSIG
ZJHK,2016-12-18 02:00,ZJHK 180200Z 08005MPS 8000 SCT015 BKN046 21/18 Q1021 NOSIG
ZJHK,2016-12-18 03:00,ZJHK 180300Z 08006MPS 8000 SCT015 BKN046 21/18 Q1020 NOSIG
ZJHK,2016-12-18 04:00,ZJHK 180400Z 09005MPS 8000 SCT015 BKN046 22/19 Q1019 NOSIG
ZJHK,2016-12-18 05:00,ZJHK 180500Z 09005MPS 8000 SCT015 BKN046 22/19 Q1018 NOSIG
ZJHK,2016-12-18 06:00,ZJHK 180600Z 08005MPS 6000 -RA BKN015 BKN046 21/19 Q1017 NOSIG
ZJHK,2016-12-18 07:00,ZJHK 180700Z 06005MPS 6000 SCT010 OVC033 20/19 Q1017 NOSIG
ZJHK,2016-12-18 08:00,ZJHK 180800Z 04004MPS 2100 -RA BR BKN005 OVC026 20/19 Q1017 NOSIG
ZJHK,2016-12-18 09:00,ZJHK 180900Z 07003MPS 2100 -RA BR BKN005 OVC026 19/19 Q1017 BECMG TL1000 BKN004 OVC025
ZJHK,2016-12-18 10:00,ZJHK 181000Z 09005MPS 2800 -RA BR BKN007 OVC026 20/19 Q1017 NOSIG
ZJHK,2016-12-18 11:00,ZJHK 181100Z 09005MPS 3000 BR BKN009 OVC026 20/19 Q1017 BECMG TL1200 BKN010 OVC026
ZJHK,2016-12-18 12:00,ZJHK 181200Z 10003MPS 5000 BR SCT011 OVC040 20/19 Q1017 NOSIG
ZJHK,2016-12-18 13:00,ZJHK 181300Z 06003MPS 6000 BKN011 OVC040 20/19 Q1018 NOSIG
ZJHK,2016-12-18 14:00,ZJHK 181400Z 05003MPS 6000 SCT011 20/19 Q1018 NOSIG
ZJHK,2016-12-18 15:00,ZJHK 181500Z 10003MPS 6000 SCT013 20/20 Q1018 NOSIG
ZJHK,2016-12-18 16:00,ZJHK 181600Z 11003MPS 080V140 6000 FEW013 20/19 Q1017 NOSIG
ZJHK,2016-12-18 17:00,ZJHK 181700Z 11004MPS 6000 FEW013 20/19 Q1017 NOSIG
ZJHK,2016-12-18 18:00,ZJHK 181800Z 12003MPS 6000 FEW013 19/19 Q1017 NOSIG
ZJHK,2016-12-18 19:00,ZJHK 181900Z 11003MPS 6000 FEW013 20/19 Q1016 NOSIG
ZJHK,2016-12-18 20:00,ZJHK 182000Z 10001MPS 6000 FEW016 19/19 Q1016 NOSIG
ZJHK,2016-12-18 21:00,ZJHK 182100Z 00000MPS 4000 BR BCFG SCT020 18/18 Q1016 NOSIG
ZJHK,2016-12-18 22:00,ZJHK 182200Z 00000MPS 4000 R09/0800V1400 BR BCFG NSC 17/17 Q1017 BECMG AT2300 2200 BR BCFG
ZJHK,2016-12-18 23:00,ZJHK 182300Z 11002MPS 6000 BCFG NSC 18/18 Q1017 NOSIG
ZJHK,2016-12-19 00:00,ZJHK 190000Z 10003MPS 8000 NSC 20/19 Q1017 NOSIG
ZJHK,2016-12-19 01:00,ZJHK 190100Z 11003MPS CAVOK 21/20 Q1017 NOSIG
ZJHK,2016-12-19 02:00,ZJHK 190200Z 12005MPS 9999 SCT016 23/20 Q1017 NOSIG
ZJHK,2016-12-19 03:00,ZJHK 190300Z 11005MPS 090V150 9999 SCT020 24/20 Q1017 NOSIG
ZJHK,2016-12-19 04:00,ZJHK 190400Z 12004MPS 9999 SCT023 25/19 Q1016 NOSIG
ZJHK,2016-12-19 05:00,ZJHK 190500Z 12005MPS 090V160 9999 SCT023 26/19 Q1015 NOSIG
ZJHK,2016-12-19 06:00,ZJHK 190600Z 11005MPS 9999 SCT023 25/20 Q1014 NOSIG
ZJHK,2016-12-19 07:00,ZJHK 190700Z 11004MPS 9999 BKN023 25/20 Q1014 NOSIG
ZJHK,2016-12-19 08:00,ZJHK 190800Z 12005MPS 9999 SCT023 24/19 Q1014 NOSIG
ZJHK,2016-12-19 09:00,ZJHK 190900Z 11005MPS 9999 SCT023 23/20 Q1014 NOSIG
ZJHK,2016-12-19 10:00,ZJHK 191000Z 11003MPS CAVOK 22/20 Q1014 NOSIG
ZJHK,2016-12-19 11:00,ZJHK 191100Z 11003MPS CAVOK 21/20 Q1014 NOSIG
ZJHK,2016-12-19 12:00,ZJHK 191200Z 11003MPS CAVOK 21/20 Q1015 NOSIG
ZJHK,2016-12-19 13:00,ZJHK 191300Z 12003MPS CAVOK 21/20 Q1015 NOSIG
ZJHK,2016-12-19 14:00,ZJHK 191400Z 11003MPS CAVOK 21/20 Q1016 NOSIG
ZJHK,2016-12-19 15:00,ZJHK 191500Z 10002MPS 080V140 CAVOK 21/20 Q1016 NOSIG
ZJHK,2016-12-19 16:00,ZJHK 191600Z 04002MPS 9999 FEW010 21/20 Q1016 NOSIG
ZJHK,2016-12-19 17:00,ZJHK 191700Z 36001MPS 9999 SCT013 21/20 Q1016 NOSIG
ZJHK,2016-12-19 18:00,ZJHK 191800Z 05002MPS 9999 SCT013 21/20 Q1015 NOSIG
ZJHK,2016-12-19 19:00,ZJHK 191900Z 04002MPS 7000 SCT013 BKN033 21/20 Q1015 NOSIG
ZJHK,2016-12-19 20:00,ZJHK 192000Z 08003MPS 7000 SCT013 BKN033 21/20 Q1015 NOSIG
ZJHK,2016-12-19 21:00,ZJHK 192100Z 08003MPS 7000 SCT013 BKN033 21/20 Q1014 NOSIG
ZJHK,2016-12-19 22:00,ZJHK 192200Z 10002MPS 7000 BKN012 BKN033 21/20 Q1015 BECMG SCT015 BKN040
ZJHK,2016-12-19 23:00,ZJHK 192300Z 07002MPS 7000 SCT012 BKN033 21/20 Q1015 NOSIG
ZJHK,2016-12-20 00:00,ZJHK 200000Z 10002MPS 7000 SCT046 21/21 Q1016 NOSIG
ZJHK,2016-12-20 01:00,ZJHK 200100Z 10004MPS 8000 FEW010 23/21 Q1017 NOSIG
ZJHK,2016-12-20 02:00,ZJHK 200200Z 09005MPS 9999 FEW010 BKN020 24/21 Q1017 NOSIG
ZJHK,2016-12-20 03:00,ZJHK 200300Z 08005MPS 9999 FEW010 SCT020 24/21 Q1016 NOSIG
ZJHK,2016-12-20 04:00,ZJHK 200400Z 09005MPS 9999 SCT020 25/21 Q1015 NOSIG
ZJHK,2016-12-20 05:00,ZJHK 200500Z 09005MPS 9999 FEW020 25/21 Q1014 NOSIG
ZJHK,2016-12-20 06:00,ZJHK 200600Z 10005MPS 060V120 9999 SCT020 25/21 Q1013 NOSIG
ZJHK,2016-12-20 07:00,ZJHK 200700Z 12005MPS 070V150 9999 SCT023 25/20 Q1012 NOSIG
ZJHK,2016-12-20 08:00,ZJHK 200800Z 09006MPS 9999 SCT023 25/20 Q1012 NOSIG
ZJHK,2016-12-20 09:00,ZJHK 200900Z 10006MPS 9999 SCT020 24/20 Q1013 NOSIG
ZJHK,2016-12-20 10:00,ZJHK 201000Z 10005MPS 9999 FEW016 23/20 Q1013 NOSIG
ZJHK,2016-12-20 11:00,ZJHK 201100Z 11004MPS 9999 SCT015 22/20 Q1014 NOSIG
ZJHK,2016-12-20 12:00,ZJHK 201200Z 11002MPS 8000 FEW016 BKN026 21/20 Q1014 NOSIG
ZJHK,2016-12-20 13:00,ZJHK 201300Z 11002MPS 7000 BKN008 OVC020 22/20 Q1015 NOSIG
ZJHK,2016-12-20 14:00,ZJHK 201400Z 11002MPS 6000 BKN008 BKN030 22/21 Q1015 NOSIG
ZJHK,2016-12-20 15:00,ZJHK 201500Z 10002MPS 5000 BR FEW008 BKN046 21/21 Q1015 NOSIG
ZJHK,2016-12-20 16:00,ZJHK 201600Z 07003MPS 5000 BR FEW009 BKN046 21/21 Q1015 NOSIG
ZJHK,2016-12-20 17:00,ZJHK 201700Z 08003MPS 5000 BR FEW008 BKN046 22/21 Q1015 NOSIG
ZJHK,2016-12-20 18:00,ZJHK 201800Z 06003MPS 6000 FEW006 BKN046 22/21 Q1015 NOSIG
ZJHK,2016-12-20 19:00,ZJHK 201900Z 04002MPS 6000 BKN006 BKN020 21/21 Q1015 NOSIG
ZJHK,2016-12-20 20:00,ZJHK 202000Z 03002MPS 6000 BKN006 BKN020 21/21 Q1015 NOSIG
ZJHK,2016-12-20 21:00,ZJHK 202100Z 04003MPS 6000 BKN006 BKN020 21/20 Q1014 NOSIG
ZJHK,2016-12-20 22:00,ZJHK 202200Z 07004MPS 6000 BKN006 BKN020 21/20 Q1014 NOSIG
ZJHK,2016-12-20 23:00,ZJHK 202300Z 10005MPS 6000 BKN006 BKN020 21/20 Q1015 NOSIG
ZJHK,2016-12-21 00:00,ZJHK 210000Z 08005MPS 6000 BKN006 BKN040 22/20 Q1015 NOSIG
ZJHK,2016-12-21 01:00,ZJHK 210100Z 08003MPS 6000 BKN010 OVC040 22/21 Q1016 BECMG TL0250 BKN015
ZJHK,2016-12-21 02:00,ZJHK 210200Z 10003MPS 070V130 8000 BKN015 BKN046 23/21 Q1016 NOSIG
ZJHK,2016-12-21 03:00,ZJHK 210300Z 09004MPS 8000 BKN015 BKN046 24/21 Q1016 NOSIG
ZJHK,2016-12-21 04:00,ZJHK 210400Z 04004MPS 9999 BKN015 BKN033 24/21 Q1016 NOSIG
ZJHK,2016-12-21 05:00,ZJHK 210500Z 02004MPS 360V060 9999 SCT016 24/21 Q1015 NOSIG
ZJHK,2016-12-21 06:00,ZJHK 210600Z 03004MPS 360V070 9999 SCT016 24/21 Q1014 NOSIG
ZJHK,2016-12-21 07:00,ZJHK 210700Z 04004MPS 360V070 9999 SCT016 24/21 Q1013 NOSIG
ZJHK,2016-12-21 08:00,ZJHK 210800Z 04005MPS 9999 SCT015 BKN040 23/21 Q1013 NOSIG
ZJHK,2016-12-21 09:00,ZJHK 210900Z 05004MPS 9000 BKN016 23/21 Q1014 NOSIG
ZJHK,2016-12-21 10:00,ZJHK 211000Z 04004MPS 360V070 7000 SCT010 BKN030 22/20 Q1014 BECMG AT1100 BKN010 BKN020
ZJHK,2016-12-21 11:00,ZJHK 211100Z 07004MPS 040V100 7000 BKN010 BKN030 22/20 Q1015 NOSIG
ZJHK,2016-12-21 12:00,ZJHK 211200Z 06004MPS 7000 BKN010 BKN030 22/20 Q1015 NOSIG
ZJHK,2016-12-21 13:00,ZJHK 211300Z 05003MPS 7000 BKN010 BKN030 21/20 Q1016 NOSIG
ZJHK,2016-12-21 14:00,ZJHK 211400Z 04003MPS 010V080 7000 BKN010 BKN030 21/20 Q1017 BECMG BKN007 BKN030
ZJHK,2016-12-21 15:00,ZJHK 211500Z 06003MPS 030V110 7000 BKN007 BKN023 21/20 Q1017 NOSIG
ZJHK,2016-12-21 16:00,ZJHK 211600Z 05003MPS 7000 BKN007 BKN023 21/20 Q1017 NOSIG
ZJHK,2016-12-21 17:00,ZJHK 211700Z 07003MPS 8000 BKN008 BKN023 21/20 Q1016 NOSIG
ZJHK,2016-12-21 18:00,ZJHK 211800Z 05002MPS 8000 BKN009 BKN023 21/20 Q1016 NOSIG
ZJHK,2016-12-21 19:00,ZJHK 211900Z 04002MPS 8000 BKN009 BKN023 21/20 Q1016 NOSIG
ZJHK,2016-12-21 20:00,ZJHK 212000Z 04002MPS 8000 SCT013 BKN026 21/20 Q1016 NOSIG
ZJHK,2016-12-21 21:00,ZJHK 212100Z 04002MPS 5000 BR SCT012 BKN026 21/20 Q1016 NOSIG
ZJHK,2016-12-21 22:00,ZJHK 212200Z 05003MPS 5000 BR SCT012 BKN026 21/20 Q1016 NOSIG
ZJHK,2016-12-21 23:00,ZJHK 212300Z 03002MPS 4000 BR SCT013 BKN030 21/20 Q1016 NOSIG
ZJHK,2016-12-22 00:00,ZJHK 220000Z 01002MPS 350V070 4000 BR SCT010 BKN030 21/20 Q1017 NOSIG
ZJHK,2016-12-22 01:00,ZJHK 220100Z 02003MPS 360V060 4000 BR SCT010 BKN030 21/20 Q1018 BECMG BKN013 BKN030
ZJHK,2016-12-22 02:00,ZJHK 220200Z 03003MPS 350V060 6000 BKN011 BKN030 22/19 Q1018 BECMG SCT015 BKN030
ZJHK,2016-12-22 03:00,ZJHK 220300Z 02005MPS 6000 BKN011 BKN030 22/19 Q1018 BECMG SCT015 BKN030
ZJHK,2016-12-22 04:00,ZJHK 220400Z 02004MPS 350V070 6000 SCT011 BKN030 22/20 Q1017 NOSIG
ZJHK,2016-12-22 05:00,ZJHK 220500Z 03005MPS 360V060 4000 BR SCT012 BKN030 22/19 Q1016 NOSIG
ZJHK,2016-12-22 06:00,ZJHK 220600Z 03005MPS 6000 SCT015 BKN040 23/19 Q1015 NOSIG
ZJHK,2016-12-22 07:00,ZJHK 220700Z 03005MPS 6000 BKN046 23/18 Q1015 NOSIG
ZJHK,2016-12-22 08:00,ZJHK 220800Z 04004MPS 010V070 6000 BKN046 23/18 Q1015 NOSIG
ZJHK,2016-12-22 09:00,ZJHK 220900Z 04004MPS 6000 NSC 22/18 Q1014 NOSIG
ZJHK,2016-12-22 10:00,ZJHK 221000Z 04003MPS 020V080 6000 NSC 21/18 Q1015 NOSIG
ZJHK,2016-12-22 11:00,ZJHK 221100Z 05003MPS 010V080 6000 NSC 21/18 Q1016 NOSIG
ZJHK,2016-12-22 12:00,ZJHK 221200Z 07003MPS 6000 NSC 21/18 Q1016 NOSIG
ZJHK,2016-12-22 13:00,ZJHK 221300Z 11002MPS 7000 NSC 20/18 Q1017 NOSIG
ZJHK,2016-12-22 14:00,ZJHK 221400Z 05002MPS 010V100 7000 NSC 21/18 Q1017 NOSIG
ZJHK,2016-12-22 15:00,ZJHK 221500Z 35002MPS 7000 FEW033 21/18 Q1017 NOSIG
ZJHK,2016-12-22 16:00,ZJHK 221600Z 01002MPS 7000 FEW033 21/19 Q1017 NOSIG
ZJHK,2016-12-22 17:00,ZJHK 221700Z 02002MPS 7000 BKN033 21/18 Q1017 NOSIG
ZJHK,2016-12-22 18:00,ZJHK 221800Z 01002MPS 7000 SCT016 BKN033 20/18 Q1016 NOSIG
ZJHK,2016-12-22 19:00,ZJHK 221900Z 03003MPS 7000 FEW016 BKN033 20/18 Q1016 NOSIG
ZJHK,2016-12-22 20:00,ZJHK 222000Z 05004MPS 9999 FEW016 20/17 Q1016 NOSIG
ZJHK,2016-12-22 21:00,ZJHK 222100Z 05004MPS 9999 FEW016 20/15 Q1016 NOSIG
ZJHK,2016-12-22 22:00,ZJHK 222200Z 07004MPS CAVOK 20/16 Q1017 NOSIG
ZJHK,2016-12-22 23:00,ZJHK 222300Z 06004MPS CAVOK 20/16 Q1017 NOSIG
ZJHK,2016-12-23 00:00,ZJHK 230000Z 06004MPS CAVOK 20/16 Q1018 NOSIG
ZJHK,2016-12-23 01:00,ZJHK 230100Z 07005MPS CAVOK 21/17 Q1018 NOSIG
ZJHK,2016-12-23 02:00,ZJHK 230200Z 07006MPS 9999 SCT015 BKN033 21/17 Q1019 NOSIG
ZJHK,2016-12-23 03:00,ZJHK 230300Z 07006MPS 9999 SCT020 BKN033 21/17 Q1019 NOSIG
ZJHK,2016-12-23 04:00,ZJHK 230400Z 06005MPS 020V100 9999 SCT020 BKN033 21/17 Q1018 NOSIG
ZJHK,2016-12-23 05:00,ZJHK 230500Z 06004MPS 030V090 9999 SCT020 BKN033 20/17 Q1017 NOSIG
ZJHK,2016-12-23 06:00,ZJHK 230600Z 06005MPS 9999 SCT020 BKN033 20/17 Q1016 NOSIG
ZJHK,2016-12-23 07:00,ZJHK 230700Z 07006MPS 7000 SCT016 BKN033 20/17 Q1015 NOSIG
ZJHK,2016-12-23 08:00,ZJHK 230800Z 06004MPS 030V090 7000 SCT016 BKN033 20/17 Q1015 NOSIG
ZJHK,2016-12-23 09:00,ZJHK 230900Z 07005MPS 7000 SCT013 BKN033 20/17 Q1015 NOSIG
ZJHK,2016-12-23 10:00,ZJHK 231000Z 09005MPS 6000 BKN013 BKN033 20/18 Q1015 NOSIG
ZJHK,2016-12-23 11:00,ZJHK 231100Z 07004MPS 040V110 6000 BKN013 BKN033 20/18 Q1016 NOSIG
ZJHK,2016-12-23 12:00,ZJHK 231200Z 07003MPS 6000 BKN013 BKN040 20/18 Q1016 NOSIG
ZJHK,2016-12-23 13:00,ZJHK 231300Z 05004MPS 9999 BKN013 BKN046 21/18 Q1017 NOSIG
ZJHK,2016-12-23 14:00,ZJHK 231400Z 07005MPS 9999 BKN013 BKN046 21/18 Q1017 NOSIG
ZJHK,2016-12-23 15:00,ZJHK 231500Z 08005MPS 9999 FEW013 20/18 Q1017 NOSIG
ZJHK,2016-12-23 16:00,ZJHK 231600Z 08006MPS 9999 SCT013 20/18 Q1016 NOSIG
ZJHK,2016-12-23 17:00,ZJHK 231700Z 08006MPS 9999 SCT010 20/18 Q1016 NOSIG
ZJHK,2016-12-23 18:00,ZJHK 231800Z 08005MPS 9999 SCT007 BKN030 20/18 Q1016 NOSIG
ZJHK,2016-12-23 19:00,ZJHK 231900Z 07005MPS 9999 BKN008 BKN030 20/19 Q1016 NOSIG
ZJHK,2016-12-23 20:00,ZJHK 232000Z 07005MPS 6000 -RA BKN008 BKN030 19/18 Q1016 NOSIG
ZJHK,2016-12-23 21:00,ZJHK 232100Z 06005MPS 6000 -RA BKN008 BKN030 19/18 Q1016 NOSIG
ZJHK,2016-12-23 22:00,ZJHK 232200Z 05004MPS 9999 SCT008 BKN030 19/18 Q1016 NOSIG
ZJHK,2016-12-23 23:00,ZJHK 232300Z 05005MPS 6000 BKN010 BKN030 19/18 Q1016 NOSIG
ZJHK,2016-12-24 00:00,ZJHK 240000Z 05005MPS 2500 -RA BR BKN007 BKN030 19/18 Q1017 NOSIG
ZJHK,2016-12-24 01:00,ZJHK 240100Z 05005MPS 2000 -RA BR BKN006 OVC023 19/18 Q1018 NOSIG
ZJHK,2016-12-24 02:00,ZJHK 240200Z 05004MPS 2100 -RA BR BKN006 OVC023 19/19 Q1018 NOSIG
ZJHK,2016-12-24 03:00,ZJHK 240300Z 06004MPS 2500 -RA BR BKN006 OVC023 19/19 Q1017 NOSIG
ZJHK,2016-12-24 04:00,ZJHK 240400Z 06004MPS 3200 BR BKN007 OVC023 20/19 Q1016 NOSIG
ZJHK,2016-12-24 05:00,ZJHK 240500Z 08005MPS 7000 BKN009 OVC023 21/20 Q1015 BECMG TL0600 BKN010 OVC026
ZJHK,2016-12-24 06:00,ZJHK 240600Z 08005MPS 6000 BKN010 OVC023 21/20 Q1014 NOSIG
ZJHK,2016-12-24 07:00,ZJHK 240700Z 08006MPS 6000 -RA BKN009 OVC023 21/20 Q1014 BECMG 2800 -RA BR
ZJHK,2016-12-24 08:00,ZJHK 240800Z 08005MPS 7000 BKN009 OVC023 21/20 Q1013 BECMG 2800 -RA BR
ZJHK,2016-12-24 09:00,ZJHK 240900Z 08006MPS 7000 BKN009 OVC023 21/20 Q1013 NOSIG
ZJHK,2016-12-24 10:00,ZJHK 241000Z 08006MPS 6000 BKN009 OVC023 21/20 Q1014 NOSIG
ZJHK,2016-12-24 11:00,ZJHK 241100Z 09006MPS 4000 -RA BR BKN007 OVC023 21/20 Q1014 NOSIG
ZJHK,2016-12-24 12:00,ZJHK 241200Z 08006MPS 4000 BR BKN007 OVC023 21/20 Q1015 NOSIG
ZJHK,2016-12-24 13:00,ZJHK 241300Z 09005MPS 4000 BR BKN007 OVC023 21/20 Q1015 NOSIG
ZJHK,2016-12-24 14:00,ZJHK 241400Z 08005MPS 050V110 4000 BR BKN007 OVC023 21/20 Q1015 NOSIG
ZJHK,2016-12-24 15:00,ZJHK 241500Z 08003MPS 4000 BR BKN007 OVC023 21/20 Q1016 NOSIG
ZJHK,2016-12-24 16:00,ZJHK 241600Z 07003MPS 4000 -RA BR BKN007 OVC023 21/20 Q1015 NOSIG
ZJHK,2016-12-24 17:00,ZJHK 241700Z 10002MPS 3000 BR BKN007 OVC023 21/20 Q1015 NOSIG
ZJHK,2016-12-24 18:00,ZJHK 241800Z 09002MPS 3000 -RA BR BKN007 OVC023 21/21 Q1015 NOSIG
ZJHK,2016-12-24 19:00,ZJHK 241900Z 07001MPS 3000 -RA BR BKN007 OVC023 21/20 Q1014 NOSIG
ZJHK,2016-12-24 20:00,ZJHK 242000Z 07003MPS 4000 BR BKN009 OVC030 21/20 Q1014 NOSIG
ZJHK,2016-12-24 21:00,ZJHK 242100Z 09002MPS 4000 BR SCT010 BKN033 21/20 Q1014 NOSIG
ZJHK,2016-12-24 22:00,ZJHK 242200Z 09002MPS 4000 BR FEW013 BKN046 21/20 Q1015 NOSIG
ZJHK,2016-12-24 23:00,ZJHK 242300Z 08002MPS 6000 SCT046 21/20 Q1015 NOSIG
ZJHK,2016-12-25 00:00,ZJHK 250000Z 08003MPS 6000 SCT016 21/20 Q1016 NOSIG
ZJHK,2016-12-25 01:00,ZJHK 250100Z 11003MPS CAVOK 22/21 Q1017 NOSIG
ZJHK,2016-12-25 02:00,ZJHK 250200Z 11006MPS 9999 SCT020 24/21 Q1017 NOSIG
ZJHK,2016-12-25 03:00,ZJHK 250300Z 12005MPS 080V150 9999 SCT020 25/21 Q1017 NOSIG
ZJHK,2016-12-25 04:00,ZJHK 250400Z 12005MPS 090V150 9999 BKN026 26/20 Q1016 NOSIG
ZJHK,2016-12-25 05:00,ZJHK 250500Z 12004MPS 9999 SCT026 BKN046 26/20 Q1015 NOSIG
ZJHK,2016-12-25 06:00,ZJHK 250600Z 11005MPS 9999 SCT026 BKN040 26/20 Q1014 NOSIG
ZJHK,2016-12-25 07:00,ZJHK 250700Z 13006MPS 090V150 9999 SCT026 SCT040 26/20 Q1013 NOSIG
ZJHK,2016-12-25 08:00,ZJHK 250800Z 12005MPS 080V150 9999 FEW026TCU SCT026 26/20 Q1013 NOSIG
ZJHK,2016-12-25 09:00,ZJHK 250900Z 13005MPS 100V160 9999 SCT033 24/20 Q1013 NOSIG
ZJHK,2016-12-25 10:00,ZJHK 251000Z 13003MPS 100V160 9999 SCT033 23/20 Q1014 NOSIG
ZJHK,2016-12-25 11:00,ZJHK 251100Z 10003MPS 9999 FEW033 22/20 Q1014 NOSIG
ZJHK,2016-12-25 12:00,ZJHK 251200Z 11002MPS CAVOK 21/20 Q1015 NOSIG
ZJHK,2016-12-25 13:00,ZJHK 251300Z 11002MPS CAVOK 21/20 Q1015 NOSIG
ZJHK,2016-12-25 14:00,ZJHK 251400Z 13001MPS 7000 NSC 20/20 Q1016 NOSIG
ZJHK,2016-12-25 15:00,ZJHK 251500Z 06002MPS 010V100 7000 SCT012 SCT033 21/20 Q1016 NOSIG
ZJHK,2016-12-25 16:00,ZJHK 251600Z 07002MPS 3000 BR BKN005 21/21 Q1016 BECMG 2000 BR
ZJHK,2016-12-25 17:00,ZJHK 251700Z 07002MPS 040V100 2600 BR OVC004 21/21 Q1016 BECMG 1400 BR
ZJHK,2016-12-25 18:00,ZJHK 251800Z 07003MPS 040V100 2600 BR OVC004 21/21 Q1015 BECMG 1400 BR
ZJHK,2016-12-25 19:00,ZJHK 251900Z 06004MPS 2600 BR OVC005 21/20 Q1015 NOSIG
ZJHK,2016-12-25 20:00,ZJHK 252000Z 08003MPS 050V110 2600 -RA BR BKN005 OVC023 21/20 Q1014 NOSIG
ZJHK,2016-12-25 21:00,ZJHK 252100Z 10004MPS 070V130 4000 BR BKN005 OVC023 21/20 Q1014 NOSIG
ZJHK,2016-12-25 22:00,ZJHK 252200Z 10004MPS 4000 BR BKN004 OVC023 21/20 Q1014 NOSIG
ZJHK,2016-12-25 23:00,ZJHK 252300Z 11004MPS 5000 BR BKN007 BKN023 21/20 Q1015 NOSIG
ZJHK,2016-12-26 00:00,ZJHK 260000Z 11002MPS 6000 BKN009 21/20 Q1015 BECMG AT0100 BKN016 BKN030
ZJHK,2016-12-26 01:00,ZJHK 260100Z 09004MPS 7000 BKN010 22/20 Q1016 NOSIG
ZJHK,2016-12-26 02:00,ZJHK 260200Z 09004MPS 9999 FEW010 BKN020 23/20 Q1016 NOSIG
ZJHK,2016-12-26 03:00,ZJHK 260300Z 06004MPS 020V100 9999 FEW013 BKN020 24/21 Q1016 NOSIG
ZJHK,2016-12-26 04:00,ZJHK 260400Z 02004MPS 350V060 9999 FEW015 BKN023 24/21 Q1016 NOSIG
ZJHK,2016-12-26 05:00,ZJHK 260500Z 04005MPS 9999 FEW015 BKN023 24/21 Q1015 NOSIG
ZJHK,2016-12-26 06:00,ZJHK 260600Z 04005MPS 9999 BKN023 24/21 Q1014 NOSIG
ZJHK,2016-12-26 07:00,ZJHK 260700Z 07006MPS 040V100 9999 SCT023 25/20 Q1013 NOSIG
ZJHK,2016-12-26 08:00,ZJHK 260800Z 04006MPS 9999 BKN023 23/20 Q1013 NOSIG
ZJHK,2016-12-26 09:00,ZJHK 260900Z 08005MPS 9999 FEW013 BKN020 23/20 Q1014 NOSIG
ZJHK,2016-12-26 10:00,ZJHK 261000Z 07005MPS 040V100 7000 SCT011 BKN020 22/19 Q1014 NOSIG
ZJHK,2016-12-26 11:00,ZJHK 261100Z 07005MPS 7000 SCT011 BKN020 21/19 Q1015 NOSIG
ZJHK,2016-12-26 12:00,ZJHK 261200Z 07004MPS 7000 SCT011 BKN020 21/19 Q1016 NOSIG
ZJHK,2016-12-26 13:00,ZJHK 261300Z 06004MPS 7000 SCT011 BKN020 21/19 Q1017 NOSIG
ZJHK,2016-12-26 14:00,ZJHK 261400Z 05003MPS 020V080 7000 SCT011 BKN020 21/19 Q1017 NOSIG
ZJHK,2016-12-26 15:00,ZJHK 261500Z 03003MPS 360V060 7000 SCT011 BKN040 21/19 Q1017 NOSIG
ZJHK,2016-12-26 16:00,ZJHK 261600Z 02003MPS 350V050 7000 BKN040 20/19 Q1017 NOSIG
ZJHK,2016-12-26 17:00,ZJHK 261700Z 02003MPS 330V060 7000 SCT010 BKN033 20/19 Q1018 NOSIG
ZJHK,2016-12-26 18:00,ZJHK 261800Z 02005MPS 350V050 7000 SCT010 BKN033 19/17 Q1019 NOSIG
ZJHK,2016-12-26 19:00,ZJHK 261900Z 01005MPS 340V040 9999 SCT013 BKN033 18/15 Q1019 NOSIG
ZJHK,2016-12-26 20:00,ZJHK 262000Z 36005MPS 9999 SCT013 BKN033 16/14 Q1019 NOSIG
ZJHK,2016-12-26 21:00,ZJHK 262100Z 01005MPS 9999 SCT013 BKN033 16/14 Q1019 NOSIG
ZJHK,2016-12-26 22:00,ZJHK 262200Z 01005MPS 9999 SCT013 BKN033 16/13 Q1019 NOSIG
ZJHK,2016-12-26 23:00,ZJHK 262300Z 01005MPS 9999 SCT013 BKN033 15/13 Q1019 NOSIG
ZJHK,2016-12-27 00:00,ZJHK 270000Z 02005MPS 350V050 9999 SCT013 BKN033 16/13 Q1020 NOSIG
ZJHK,2016-12-27 01:00,ZJHK 270100Z 02006MPS 9999 SCT015 OVC033 16/13 Q1021 NOSIG
ZJHK,2016-12-27 02:00,ZJHK 270200Z 02005MPS 9999 SCT015 BKN033 16/13 Q1021 NOSIG
ZJHK,2016-12-27 03:00,ZJHK 270300Z 02005MPS 350V060 9999 SCT015 BKN033 16/13 Q1021 NOSIG
ZJHK,2016-12-27 04:00,ZJHK 270400Z 01004MPS 340V040 9999 SCT015 BKN033 16/13 Q1021 NOSIG
ZJHK,2016-12-27 05:00,ZJHK 270500Z 01005MPS 340V040 9999 SCT015 BKN033 16/13 Q1020 NOSIG
ZJHK,2016-12-27 06:00,ZJHK 270600Z 36005MPS 9999 BKN020 17/12 Q1018 NOSIG
ZJHK,2016-12-27 07:00,ZJHK 270700Z 02005MPS 340V060 9999 SCT023 18/12 Q1018 NOSIG
ZJHK,2016-12-27 08:00,ZJHK 270800Z 03006MPS 360V060 9999 SCT023 18/10 Q1018 NOSIG
ZJHK,2016-12-27 09:00,ZJHK 270900Z 02004MPS 350V050 CAVOK 17/10 Q1018 NOSIG
ZJHK,2016-12-27 10:00,ZJHK 271000Z 02004MPS CAVOK 16/10 Q1018 NOSIG
ZJHK,2016-12-27 11:00,ZJHK 271100Z 02003MPS 350V070 CAVOK 16/09 Q1019 NOSIG
ZJHK,2016-12-27 12:00,ZJHK 271200Z 01003MPS 350V050 CAVOK 16/09 Q1019 NOSIG
ZJHK,2016-12-27 13:00,ZJHK 271300Z 35003MPS 330V030 CAVOK 15/09 Q1020 NOSIG
ZJHK,2016-12-27 14:00,ZJHK 271400Z 35004MPS 9999 SCT040 15/09 Q1021 NOSIG
ZJHK,2016-12-27 15:00,ZJHK 271500Z 35003MPS 310V040 9999 SCT040 15/09 Q1021 NOSIG
ZJHK,2016-12-27 16:00,ZJHK 271600Z 35003MPS 320V040 9999 SCT040 15/09 Q1021 NOSIG
ZJHK,2016-12-27 17:00,ZJHK 271700Z 34003MPS 310V020 9999 SCT033 15/10 Q1021 NOSIG
ZJHK,2016-12-27 18:00,ZJHK 271800Z 06005MPS 9999 FEW033 15/10 Q1021 NOSIG
ZJHK,2016-12-27 19:00,ZJHK 271900Z 07005MPS 9999 BKN033 15/10 Q1020 NOSIG
ZJHK,2016-12-27 20:00,ZJHK 272000Z 06006MPS 9999 BKN033 15/09 Q1020 NOSIG
ZJHK,2016-12-27 21:00,ZJHK 272100Z 06006MPS 9999 BKN033 15/09 Q1020 NOSIG
ZJHK,2016-12-27 22:00,ZJHK 272200Z 06004MPS 9999 BKN033 15/09 Q1020 NOSIG
ZJHK,2016-12-27 23:00,ZJHK 272300Z 06005MPS 9999 BKN033 15/09 Q1020 NOSIG
ZJHK,2016-12-28 00:00,ZJHK 280000Z 06006MPS 9999 BKN026 15/10 Q1020 NOSIG
ZJHK,2016-12-28 01:00,ZJHK 280100Z 06004MPS 9999 SCT015 OVC026 15/10 Q1021 NOSIG
ZJHK,2016-12-28 02:00,ZJHK 280200Z 05004MPS 020V080 9999 FEW015 OVC026 15/11 Q1022 NOSIG
ZJHK,2016-12-28 03:00,ZJHK 280300Z 05005MPS 9999 FEW015 OVC026 16/11 Q1022 NOSIG
ZJHK,2016-12-28 04:00,ZJHK 280400Z 07006MPS 9999 FEW015 OVC026 16/11 Q1022 NOSIG
ZJHK,2016-12-28 05:00,ZJHK 280500Z 05006MPS 9999 FEW015 OVC026 15/11 Q1021 NOSIG
ZJHK,2016-12-28 06:00,ZJHK 280600Z 05006MPS 9999 FEW015 OVC026 15/11 Q1020 NOSIG
ZJHK,2016-12-28 07:00,ZJHK 280700Z 04005MPS 010V070 9999 FEW015 OVC026 15/11 Q1020 NOSIG
ZJHK,2016-12-28 08:00,ZJHK 280800Z 05005MPS 9999 FEW015 OVC026 15/11 Q1019 NOSIG
ZJHK,2016-12-28 09:00,ZJHK 280900Z 05005MPS 9000 BKN026 OVC046 15/10 Q1020 NOSIG
ZJHK,2016-12-28 10:00,ZJHK 281000Z 06004MPS 9000 BKN026 15/10 Q1021 NOSIG
ZJHK,2016-12-28 11:00,ZJHK 281100Z 06004MPS 9999 BKN026 15/10 Q1021 NOSIG
ZJHK,2016-12-28 12:00,ZJHK 281200Z 06003MPS 9999 SCT033 15/10 Q1022 NOSIG
ZJHK,2016-12-28 13:00,ZJHK 281300Z 07004MPS CAVOK 16/11 Q1022 NOSIG
ZJHK,2016-12-28 14:00,ZJHK 281400Z 06004MPS CAVOK 16/11 Q1022 NOSIG
ZJHK,2016-12-28 15:00,ZJHK 281500Z 06004MPS CAVOK 16/11 Q1022 NOSIG
ZJHK,2016-12-28 16:00,ZJHK 281600Z 06004MPS CAVOK 17/10 Q1022 NOSIG
ZJHK,2016-12-28 17:00,ZJHK 281700Z 05004MPS CAVOK 17/10 Q1022 NOSIG
ZJHK,2016-12-28 18:00,ZJHK 281800Z 06005MPS CAVOK 17/08 Q1022 NOSIG
ZJHK,2016-12-28 19:00,ZJHK 281900Z 05005MPS CAVOK 17/07 Q1021 NOSIG
ZJHK,2016-12-28 20:00,ZJHK 282000Z 05004MPS CAVOK 16/08 Q1021 NOSIG
ZJHK,2016-12-28 21:00,ZJHK 282100Z 05005MPS CAVOK 16/08 Q1021 NOSIG
ZJHK,2016-12-28 22:00,ZJHK 282200Z 05005MPS CAVOK 16/08 Q1022 NOSIG
ZJHK,2016-12-28 23:00,ZJHK 282300Z 06005MPS CAVOK 16/07 Q1022 NOSIG
ZJHK,2016-12-29 00:00,ZJHK 290000Z 05005MPS CAVOK 16/09 Q1023 NOSIG
ZJHK,2016-12-29 01:00,ZJHK 290100Z 06007MPS 9999 FEW046 17/08 Q1024 NOSIG
ZJHK,2016-12-29 02:00,ZJHK 290200Z 05006MPS CAVOK 17/09 Q1025 NOSIG
ZJHK,2016-12-29 03:00,ZJHK 290300Z 05007MPS CAVOK 17/08 Q1025 NOSIG
ZJHK,2016-12-29 04:00,ZJHK 290400Z 04007MPS 010V080 CAVOK 18/08 Q1024 NOSIG
ZJHK,2016-12-29 05:00,ZJHK 290500Z 05007MPS CAVOK 19/10 Q1023 NOSIG
ZJHK,2016-12-29 06:00,ZJHK 290600Z 04008MPS CAVOK 18/09 Q1022 NOSIG
ZJHK,2016-12-29 07:00,ZJHK 290700Z 04007MPS CAVOK 18/09 Q1022 NOSIG
ZJHK,2016-12-29 08:00,ZJHK 290800Z 04007MPS 010V070 CAVOK 17/09 Q1021 NOSIG
ZJHK,2016-12-29 09:00,ZJHK 290900Z 05006MPS CAVOK 17/09 Q1020 NOSIG
ZJHK,2016-12-29 10:00,ZJHK 291000Z 06006MPS 030V090 CAVOK 16/09 Q1021 NOSIG
ZJHK,2016-12-29 11:00,ZJHK 291100Z 06005MPS CAVOK 16/09 Q1021 NOSIG
ZJHK,2016-12-29 12:00,ZJHK 291200Z 06005MPS CAVOK 16/09 Q1022 NOSIG
ZJHK,2016-12-29 13:00,ZJHK 291300Z 06005MPS CAVOK 16/10 Q1022 NOSIG
ZJHK,2016-12-29 14:00,ZJHK 291400Z 05004MPS CAVOK 16/10 Q1023 NOSIG
ZJHK,2016-12-29 15:00,ZJHK 291500Z 06004MPS CAVOK 16/10 Q1023 NOSIG
ZJHK,2016-12-29 16:00,ZJHK 291600Z 05003MPS 030V090 CAVOK 16/10 Q1023 NOSIG
ZJHK,2016-12-29 17:00,ZJHK 291700Z 05004MPS CAVOK 16/10 Q1022 NOSIG
ZJHK,2016-12-29 18:00,ZJHK 291800Z 06004MPS 9999 BKN030 16/10 Q1022 NOSIG
ZJHK,2016-12-29 19:00,ZJHK 291900Z 05004MPS 9999 BKN030 16/10 Q1021 NOSIG
ZJHK,2016-12-29 20:00,ZJHK 292000Z 06004MPS 9999 BKN030 16/11 Q1021 NOSIG
ZJHK,2016-12-29 21:00,ZJHK 292100Z 06006MPS 9999 BKN030 17/11 Q1021 NOSIG
ZJHK,2016-12-29 22:00,ZJHK 292200Z 05005MPS 9999 BKN030 16/10 Q1021 NOSIG
ZJHK,2016-12-29 23:00,ZJHK 292300Z 05005MPS 9999 BKN033 16/10 Q1022 NOSIG
ZJHK,2016-12-30 00:00,ZJHK 300000Z 05005MPS 9999 BKN033 17/10 Q1022 NOSIG
ZJHK,2016-12-30 01:00,ZJHK 300100Z 05005MPS 9999 BKN033 17/11 Q1023 NOSIG
ZJHK,2016-12-30 02:00,ZJHK 300200Z 06006MPS 9999 OVC030 17/11 Q1024 NOSIG
ZJHK,2016-12-30 03:00,ZJHK 300300Z 05006MPS 9999 BKN026 18/12 Q1024 NOSIG
ZJHK,2016-12-30 04:00,ZJHK 300400Z 05005MPS 9999 BKN026 18/12 Q1023 NOSIG
ZJHK,2016-12-30 05:00,ZJHK 300500Z 05006MPS 9999 BKN023 17/13 Q1023 NOSIG
ZJHK,2016-12-30 06:00,ZJHK 300600Z 05005MPS 9999 BKN023 18/13 Q1021 NOSIG
ZJHK,2016-12-30 07:00,ZJHK 300700Z 06006MPS 9999 BKN023 18/13 Q1021 NOSIG
ZJHK,2016-12-30 08:00,ZJHK 300800Z 07006MPS 030V090 9999 BKN023 17/13 Q1020 NOSIG
ZJHK,2016-12-30 09:00,ZJHK 300900Z 06005MPS 6000 BKN015 OVC030 16/14 Q1021 NOSIG
ZJHK,2016-12-30 10:00,ZJHK 301000Z 08004MPS 3500 BR BKN010 OVC023 15/15 Q1021 BECMG TL1100 BKN006 OVC030
ZJHK,2016-12-30 11:00,ZJHK 301100Z 06003MPS 030V090 4500 BR FEW010 OVC023 16/14 Q1021 NOSIG
ZJHK,2016-12-30 12:00,ZJHK 301200Z 05003MPS 010V080 5000 BR OVC030 17/13 Q1022 NOSIG
ZJHK,2016-12-30 13:00,ZJHK 301300Z 06003MPS 8000 OVC030 17/13 Q1022 NOSIG
ZJHK,2016-12-30 14:00,ZJHK 301400Z 06004MPS 9999 OVC046 18/13 Q1022 NOSIG
ZJHK,2016-12-30 15:00,ZJHK 301500Z 07004MPS 9999 BKN046 18/14 Q1022 NOSIG
ZJHK,2016-12-30 16:00,ZJHK 301600Z 06005MPS 9999 BKN046 18/14 Q1022 NOSIG
ZJHK,2016-12-30 17:00,ZJHK 301700Z 07005MPS 9999 SCT046 18/14 Q1021 NOSIG
ZJHK,2016-12-30 18:00,ZJHK 301800Z 06005MPS 9999 SCT046 18/13 Q1021 NOSIG
ZJHK,2016-12-30 19:00,ZJHK 301900Z 07005MPS 9999 SCT023 18/14 Q1020 NOSIG
ZJHK,2016-12-30 20:00,ZJHK 302000Z 06004MPS 8000 SCT023 BKN040 18/13 Q1020 NOSIG
ZJHK,2016-12-30 21:00,ZJHK 302100Z 07004MPS 8000 SCT023 BKN040 18/13 Q1020 NOSIG
ZJHK,2016-12-30 22:00,ZJHK 302200Z 06004MPS 9999 BKN040 18/13 Q1020 NOSIG
ZJHK,2016-12-30 23:00,ZJHK 302300Z 06004MPS 9999 SCT026 BKN043 18/13 Q1021 NOSIG
