station,valid,metar
ZJHK,2003-12-15 15:00,ZJHK 151500Z 04003MPS 5000 BR SKC 15/14 Q1020 NOSIG
ZJHK,2003-12-15 16:00,ZJHK 151600Z 05002MPS 5000 BR SKC 16/14 Q1019 NOSIG
ZJHK,2003-12-15 17:00,ZJHK 151700Z 06002MPS 6000 SKC 14/13 Q1019 NOSIG
ZJHK,2003-12-15 18:00,ZJHK 151800Z 05003MPS 6000 NSC 16/15 Q1019 NOSIG
ZJHK,2003-12-15 19:00,ZJHK 151900Z AUTO 05004MPS 7000 SKC 17/15 Q1018 NOSIG
ZJHK,2003-12-15 20:00,ZJHK 152000Z AUTO 06004MPS 7000 FEW090 18/15 Q1018 NOSIG
ZJHK,2003-12-15 21:00,ZJHK 152100Z 07006MPS 7000 BKN040 18/15 Q1018 NOSIG
ZJHK,2003-12-15 22:00,ZJHK 152200Z 05006MPS 6000 BKN040 18/15 Q1019 NOSIG
ZJHK,2003-12-15 23:00,ZJHK 152300Z 06005MPS 6000 NSC 18/15 Q1020 NOSIG
ZJHK,2003-12-16 00:00,ZJHK 160000Z 06006MPS 6000 BKN040 18/15 Q1021 NOSIG
ZJHK,2003-12-16 01:00,ZJHK 160100Z 06006MPS 6000 SCT016 BKN040 19/15 Q1021 NOSIG
ZJHK,2003-12-16 02:00,ZJHK 160200Z 06007MPS 5000 BR SCT020 BKN040 19/15 Q1022 NOSIG
ZJHK,2003-12-16 03:00,ZJHK 160300Z 06007MPS 7000 FEW016 BKN100 20/15 Q1021 NOSIG
ZJHK,2003-12-16 04:00,ZJHK 160400Z 07006MPS 7000 SCT015 BKN100 21/15 Q1020 NOSIG
ZJHK,2003-12-16 05:00,ZJHK 160500Z 06006MPS 7000 BKN020 21/15 Q1019 NOSIG
ZJHK,2003-12-16 06:00,ZJHK 160600Z 06006MPS 7000 SCT020 BKN053 20/15 Q1018 NOSIG
ZJHK,2003-12-16 07:00,ZJHK 160700Z 05007MPS 8000 FEW020 BKN100 21/15 Q1017 NOSIG
ZJHK,2003-12-16 08:00,ZJHK 160800Z 08006MPS 5000 HZ NSC 20/15 Q1017 NOSIG
ZJHK,2003-12-16 09:00,ZJHK 160900Z 07005MPS 6000 NSC 20/15 Q1017 NOSIG
ZJHK,2003-12-16 10:00,ZJHK 161000Z 07004MPS 6000 NSC 19/15 Q1017 NOSIG
ZJHK,2003-12-16 11:00,ZJHK 161100Z 07003MPS 030V090 5000 BR NSC 19/15 Q1018 NOSIG
ZJHK,2003-12-16 12:00,ZJHK 161200Z 07003MPS 5000 BR NSC 19/15 Q1018 NOSIG
ZJHK,2003-12-16 13:00,ZJHK 161300Z 06002MPS 5000 BR NSC 18/15 Q1019 NOSIG
ZJHK,2003-12-16 14:00,ZJHK 161400Z 10001MPS 5000 BR NSC 18/16 Q1019 NOSIG
ZJHK,2003-12-16 15:00,ZJHK 161500Z 04002MPS 5000 BR NSC 17/16 Q1018 NOSIG
ZJHK,2003-12-16 16:00,ZJHK 161600Z 00000MPS 4500 BR NSC 17/16 Q1019 NOSIG
ZJHK,2003-12-16 17:00,ZJHK 161700Z 06001MPS 3000 BR NSC 16/16 Q1018 NOSIG
ZJHK,2003-12-16 18:00,ZJHK 161800Z 00000MPS 3000 BR NSC 15/15 Q1018 NOSIG
ZJHK,2003-12-16 19:00,ZJHK 161900Z AUTO 00000MPS 5000 BR SCT060 OVC085 17/16 Q1017 NOSIG
ZJHK,2003-12-16 20:00,ZJHK 162000Z AUTO 04002MPS 7000 OVC087 18/16 Q1017 NOSIG
ZJHK,2003-12-16 21:00,ZJHK 162100Z 03002MPS 7000 NSC 18/16 Q1017 NOSIG
ZJHK,2003-12-16 22:00,ZJHK 162200Z 06003MPS 8000 NSC 18/15 Q1017 NOSIG
ZJHK,2003-12-16 23:00,ZJHK 162300Z 36002MPS 7000 NSC 17/15 Q1018 NOSIG
ZJHK,2003-12-17 00:00,ZJHK 170000Z 06003MPS 8000 NSC 19/16 Q1019 NOSIG
ZJHK,2003-12-17 02:00,ZJHK 170200Z 07005MPS 6000 NSC 20/16 Q1019 NOSIG
ZJHK,2003-12-17 03:00,ZJHK 170300Z 06005MPS 6000 SCT026 BKN080 21/16 Q1019 NOSIG
ZJHK,2003-12-17 04:00,ZJHK 170400Z 08005MPS 6000 SCT023 22/16 Q1018 NOSIG
ZJHK,2003-12-17 05:00,ZJHK 170500Z 05006MPS 020V080 5000 HZ BKN030 21/16 Q1017 NOSIG
ZJHK,2003-12-17 06:00,ZJHK 170600Z 06005MPS 6000 BKN030 22/16 Q1016 NOSIG
ZJHK,2003-12-17 07:00,ZJHK 170700Z 06004MPS 6000 BKN030 21/16 Q1016 NOSIG
ZJHK,2003-12-17 08:00,ZJHK 170800Z 07005MPS 5000 BR BKN030 21/17 Q1016 NOSIG
ZJHK,2003-12-17 09:00,ZJHK 170900Z 07004MPS 5000 BR BKN030 21/17 Q1016 NOSIG
ZJHK,2003-12-17 10:00,ZJHK 171000Z 06004MPS 4000 BR NSC 20/17 Q1016 NOSIG
ZJHK,2003-12-17 11:00,ZJHK 171100Z 08003MPS 4000 BR NSC 20/17 Q1016 NOSIG
ZJHK,2003-12-17 12:00,ZJHK 171200Z 06002MPS 3500 BR SCT024 BKN030 20/17 Q1017 NOSIG
ZJHK,2003-12-17 13:00,ZJHK 171300Z 07001MPS 4000 BR NSC 20/18 Q1018 NOSIG
ZJHK,2003-12-17 14:00,ZJHK 171400Z 10002MPS 4500 BR NSC 19/18 Q1018 NOSIG
ZJHK,2003-12-17 15:00,ZJHK 171500Z 07001MPS 4500 BR SKC 18/17 Q1018 NOSIG
ZJHK,2003-12-17 16:00,ZJHK 171600Z 09001MPS 3500 BR SKC 17/17 Q1018 NOSIG
ZJHK,2003-12-17 17:00,ZJHK 171700Z 00000MPS 2600 BR SKC 16/16 Q1017 NOSIG
ZJHK,2003-12-17 18:00,ZJHK 171800Z 00000MPS 2100 R09/P1500 BR BKN030 16/16 Q1017 NOSIG
ZJHK,2003-12-17 19:00,ZJHK 171900Z AUTO 00000MPS 0000 R09/P1500 // FEW065 17/17 Q1017 NOSIG
ZJHK,2003-12-17 20:00,ZJHK 172000Z AUTO 00000MPS 0000 R09/P1500 // OVC070 17/17 Q1017 NOSIG
ZJHK,2003-12-17 21:00,ZJHK 172100Z 06001MPS 2100 R09/P1500 BR NSC 17/17 Q1017 NOSIG
ZJHK,2003-12-17 22:00,ZJHK 172200Z 00000MPS 2100 R09/P1500 BR NSC 18/18 Q1017 NOSIG
ZJHK,2003-12-17 23:00,ZJHK 172300Z 00000MPS 2100 R09/P1500 BR NSC 18/18 Q1018 NOSIG
ZJHK,2003-12-18 00:00,ZJHK 180000Z 07002MPS 3500 R09/1100N BR NSC 19/18 Q1019 NOSIG
ZJHK,2003-12-18 01:00,ZJHK 180100Z 07005MPS 5000 R09/1100N BR NSC 20/19 Q1019 NOSIG
ZJHK,2003-12-18 02:00,ZJHK 180200Z 07006MPS 6000 SCT015 BKN070 21/19 Q1020 NOSIG
ZJHK,2003-12-18 03:00,ZJHK 180300Z 08007MPS 6000 BKN015 OVC030 21/19 Q1021 NOSIG
ZJHK,2003-12-18 04:00,ZJHK 180400Z 08006MPS 7000 BKN015 OVC030 21/19 Q1020 NOSIG
ZJHK,2003-12-18 05:00,ZJHK 180500Z 07006MPS 5000 BR BKN015 OVC030 22/19 Q1019 NOSIG
ZJHK,2003-12-18 06:00,ZJHK 180600Z 05006MPS 5000 BR BKN015 OVC026 21/18 Q1019 NOSIG
ZJHK,2003-12-18 07:00,ZJHK 180700Z 05005MPS 030V090 5000 BR BKN015 OVC026 21/18 Q1018 NOSIG
ZJHK,2003-12-18 14:00,ZJHK 181400Z 05003MPS 010V070 5000 BR NSC 20/16 Q1023 NOSIG
ZJHK,2003-12-18 15:00,ZJHK 181500Z 02004MPS 340V050 3500 BR NSC 20/17 Q1024 NOSIG
ZJHK,2003-12-18 17:00,ZJHK 181700Z 03003MPS 3500 BR NSC 19/15 Q1024 NOSIG
ZJHK,2003-12-18 18:00,ZJHK 181800Z 01005MPS 3500 BR NSC 18/13 Q1024 NOSIG
ZJHK,2003-12-18 19:00,ZJHK 181900Z AUTO 02007MPS 4500 BR SKC 17/12 Q1025 NOSIG
ZJHK,2003-12-18 20:00,ZJHK 182000Z AUTO 01005MPS 4500 BR SKC 16/11 Q1025 NOSIG
ZJHK,2003-12-18 21:00,ZJHK 182100Z 02006MPS 4000 BR NSC 16/11 Q1025 NOSIG
ZJHK,2003-12-18 22:00,ZJHK 182200Z 03006G12MPS 3500 HZ FEW026 15/11 Q1025 NOSIG
ZJHK,2003-12-18 23:00,ZJHK 182300Z 03005MPS 3500 BR SCT016 15/11 Q1026 NOSIG
ZJHK,2003-12-19 00:00,ZJHK 190000Z 04005MPS 3500 HZ SCT016 16/11 Q1027 NOSIG
ZJHK,2003-12-19 01:00,ZJHK 190100Z 03006MPS 3500 HZ SCT023 16/10 Q1028 NOSIG
ZJHK,2003-12-19 02:00,ZJHK 190200Z 02006MPS 350V050 3500 HZ BKN023 16/11 Q1028 NOSIG
ZJHK,2003-12-19 03:00,ZJHK 190300Z 03007MPS 360V060 4000 HZ BKN020 17/10 Q1028 NOSIG
ZJHK,2003-12-19 04:00,ZJHK 190400Z 05008MPS 020V080 6000 SCT020 17/09 Q1027 NOSIG
ZJHK,2003-12-19 05:00,ZJHK 190500Z 05009MPS 6000 SCT026 17/09 Q1026 NOSIG
ZJHK,2003-12-19 06:00,ZJHK 190600Z 05008MPS 6000 SCT030 17/08 Q1025 NOSIG
ZJHK,2003-12-19 07:00,ZJHK 190700Z 05008MPS 010V080 6000 SCT030 16/08 Q1024 NOSIG
ZJHK,2003-12-19 08:00,ZJHK 190800Z 05007MPS 020V090 7000 FEW040 16/08 Q1024 NOSIG
ZJHK,2003-12-19 09:00,ZJHK 190900Z 06005MPS 7000 SCT040 16/08 Q1024 NOSIG
ZJHK,2003-12-19 10:00,ZJHK 191000Z 06003MPS 6000 SKC 15/08 Q1025 NOSIG
ZJHK,2003-12-19 11:00,ZJHK 191100Z 06003MPS 7000 SKC 15/08 Q1026 NOSIG
ZJHK,2003-12-19 12:00,ZJHK 191200Z 04002MPS 7000 SKC 14/08 Q1026 NOSIG
ZJHK,2003-12-19 13:00,ZJHK 191300Z 06002MPS 7000 SKC 14/08 Q1027 NOSIG
ZJHK,2003-12-19 14:00,ZJHK 191400Z 07003MPS 7000 SKC 13/08 Q1027 NOSIG
ZJHK,2003-12-19 15:00,ZJHK 191500Z 36002MPS 7000 NSC 15/09 Q1028 NOSIG
ZJHK,2003-12-19 16:00,ZJHK 191600Z 36003MPS 330V040 8000 NSC 15/08 Q1027 NOSIG
ZJHK,2003-12-19 17:00,ZJHK 191700Z 36002MPS 9000 NSC 15/09 Q1027 NOSIG
ZJHK,2003-12-19 18:00,ZJHK 191800Z AUTO 07004MPS 9000 OVC053 15/08 Q1027 NOSIG
ZJHK,2003-12-19 19:00,ZJHK 191900Z AUTO 07004MPS CAVOK 15/07 Q1026 NOSIG
ZJHK,2003-12-19 20:00,ZJHK 192000Z AUTO 07003MPS CAVOK 14/07 Q1026 NOSIG
ZJHK,2003-12-19 21:00,ZJHK 192100Z 07004MPS CAVOK 14/07 Q1026 NOSIG
ZJHK,2003-12-19 22:00,ZJHK 192200Z 07005MPS CAVOK 14/07 Q1026 NOSIG
ZJHK,2003-12-19 23:00,ZJHK 192300Z 06005MPS CAVOK 14/07 Q1027 NOSIG
ZJHK,2003-12-20 00:00,ZJHK 200000Z 07005MPS CAVOK 14/07 Q1027 NOSIG
ZJHK,2003-12-20 01:00,ZJHK 200100Z 07006MPS CAVOK 15/07 Q1028 NOSIG
ZJHK,2003-12-20 02:00,ZJHK 200200Z 06006MPS 030V090 CAVOK 16/07 Q1029 NOSIG
ZJHK,2003-12-20 03:00,ZJHK 200300Z 05006MPS 020V090 CAVOK 16/07 Q1029 NOSIG
ZJHK,2003-12-20 04:00,ZJHK 200400Z 05006MPS 020V080 CAVOK 17/08 Q1028 NOSIG
ZJHK,2003-12-20 05:00,ZJHK 200500Z 05006MPS CAVOK 17/08 Q1027 NOSIG
ZJHK,2003-12-20 06:00,ZJHK 200600Z 04005MPS 360V080 CAVOK 18/08 Q1025 NOSIG
ZJHK,2003-12-20 07:00,ZJHK 200700Z 04006MPS CAVOK 17/08 Q1024 NOSIG
ZJHK,2003-12-20 08:00,ZJHK 200800Z 05006MPS 020V080 CAVOK 17/08 Q1024 NOSIG
ZJHK,2003-12-20 09:00,ZJHK 200900Z 06005MPS CAVOK 16/08 Q1024 NOSIG
ZJHK,2003-12-20 10:00,ZJHK 201000Z 07004MPS CAVOK 15/08 Q1025 NOSIG
ZJHK,2003-12-20 11:00,ZJHK 201100Z 07003MPS 8000 SKC 14/08 Q1025 NOSIG
ZJHK,2003-12-20 12:00,ZJHK 201200Z 06003MPS 8000 SKC 15/09 Q1026 NOSIG
ZJHK,2003-12-20 13:00,ZJHK 201300Z 05003MPS 7000 SKC 15/10 Q1026 NOSIG
ZJHK,2003-12-20 14:00,ZJHK 201400Z 06002MPS 7000 NSC 15/10 Q1026 NOSIG
ZJHK,2003-12-20 15:00,ZJHK 201500Z 05003MPS 7000 BKN040 16/11 Q1026 NOSIG
ZJHK,2003-12-20 16:00,ZJHK 201600Z 06003MPS 7000 BKN040 16/11 Q1026 NOSIG
ZJHK,2003-12-20 17:00,ZJHK 201700Z 06003MPS 7000 NSC 16/10 Q1026 NOSIG
ZJHK,2003-12-20 18:00,ZJHK 201800Z 06003MPS 7000 NSC 16/10 Q1025 NOSIG
ZJHK,2003-12-20 19:00,ZJHK 201900Z AUTO 07004MPS 7000 OVC060 16/09 Q1025 NOSIG
ZJHK,2003-12-20 20:00,ZJHK 202000Z AUTO 07004MPS 8000 OVC059 16/08 Q1025 NOSIG
ZJHK,2003-12-20 21:00,ZJHK 202100Z 06004MPS 8000 NSC 16/08 Q1025 NOSIG
ZJHK,2003-12-20 22:00,ZJHK 202200Z 07004MPS 8000 NSC 16/08 Q1025 NOSIG
ZJHK,2003-12-20 23:00,ZJHK 202300Z 06004MPS 7000 NSC 16/09 Q1025 NOSIG
ZJHK,2003-12-21 00:00,ZJHK 210000Z 06004MPS 7000 NSC 16/09 Q1026 NOSIG
ZJHK,2003-12-21 01:00,ZJHK 210100Z 06005MPS 7000 NSC 17/10 Q1026 NOSIG
ZJHK,2003-12-21 02:00,ZJHK 210200Z 07006MPS 7000 NSC 18/12 Q1026 NOSIG
ZJHK,2003-12-21 03:00,ZJHK 210300Z 07008MPS 030V100 7000 BKN030 18/13 Q1026 NOSIG
ZJHK,2003-12-21 04:00,ZJHK 210400Z 05006MPS 6000 BKN030 18/13 Q1025 NOSIG
ZJHK,2003-12-21 05:00,ZJHK 210500Z 06007MPS 6000 BKN027 18/13 Q1024 NOSIG
ZJHK,2003-12-21 06:00,ZJHK 210600Z 06008MPS 6000 BKN027 18/13 Q1023 NOSIG
ZJHK,2003-12-21 07:00,ZJHK 210700Z 05007MPS 030V090 6000 BKN027 19/14 Q1022 NOSIG
ZJHK,2003-12-21 08:00,ZJHK 210800Z 07006MPS 6000 NSC 18/13 Q1022 NOSIG
ZJHK,2003-12-21 09:00,ZJHK 210900Z 07006MPS 6000 NSC 18/13 Q1023 NOSIG
ZJHK,2003-12-21 10:00,ZJHK 211000Z 07004MPS 6000 NSC 17/13 Q1023 NOSIG
ZJHK,2003-12-21 11:00,ZJHK 211100Z 07002MPS 6000 NSC 17/13 Q1024 NOSIG
ZJHK,2003-12-21 12:00,ZJHK 211200Z 07002MPS 6000 NSC 17/13 Q1024 NOSIG
ZJHK,2003-12-21 13:00,ZJHK 211300Z 07002MPS 6000 NSC 17/13 Q1024 NOSIG
ZJHK,2003-12-21 14:00,ZJHK 211400Z 06002MPS 6000 NSC 17/13 Q1024 NOSIG
ZJHK,2003-12-21 15:00,ZJHK 211500Z 03001MPS 7000 NSC 17/14 Q1024 NOSIG
ZJHK,2003-12-21 16:00,ZJHK 211600Z 04002MPS CAVOK 17/14 Q1024 NOSIG
ZJHK,2003-12-21 17:00,ZJHK 211700Z 06003MPS 7000 NSC 17/14 Q1024 NOSIG
ZJHK,2003-12-21 18:00,ZJHK 211800Z AUTO 06003MPS 7000 OVC069 17/14 Q1023 NOSIG
ZJHK,2003-12-21 19:00,ZJHK 211900Z AUTO 08004MPS 8000 OVC069 17/13 Q1022 NOSIG
ZJHK,2003-12-21 20:00,ZJHK 212000Z AUTO 07003MPS 7000 ////// 16/13 Q1022 NOSIG
ZJHK,2003-12-21 21:00,ZJHK 212100Z 34002MPS 6000 SKC 15/12 Q1022 NOSIG
ZJHK,2003-12-21 22:00,ZJHK 212200Z 05002MPS 5000 BR SCT020 16/13 Q1022 NOSIG
ZJHK,2003-12-21 23:00,ZJHK 212300Z 05002MPS 4500 BR OVC030 16/13 Q1022 NOSIG
ZJHK,2003-12-22 00:00,ZJHK 220000Z 04002MPS 6000 OVC026 17/14 Q1023 NOSIG
ZJHK,2003-12-22 01:00,ZJHK 220100Z 06003MPS 5000 BR OVC030 18/14 Q1024 NOSIG
ZJHK,2003-12-22 02:00,ZJHK 220200Z 05005MPS 6000 OVC030 19/14 Q1024 NOSIG
ZJHK,2003-12-22 03:00,ZJHK 220300Z 04005MPS 6000 NSC 19/14 Q1024 NOSIG
ZJHK,2003-12-22 04:00,ZJHK 220400Z 06005MPS 030V100 7000 NSC 19/14 Q1023 NOSIG
ZJHK,2003-12-22 05:00,ZJHK 220500Z 04005MPS 010V080 7000 SCT025 BKN050 20/15 Q1022 NOSIG
ZJHK,2003-12-22 06:00,ZJHK 220600Z 04006MPS 7000 BKN025 20/15 Q1021 NOSIG
ZJHK,2003-12-22 07:00,ZJHK 220700Z 04005MPS 7000 BKN025 20/15 Q1020 NOSIG
ZJHK,2003-12-22 08:00,ZJHK 220800Z 04005MPS 7000 SCT025 20/15 Q1020 NOSIG
ZJHK,2003-12-22 09:00,ZJHK 220900Z 07004MPS 040V100 7000 SKC 20/15 Q1020 NOSIG
ZJHK,2003-12-22 10:00,ZJHK 221000Z 08003MPS 6000 SKC 19/15 Q1020 NOSIG
ZJHK,2003-12-22 11:00,ZJHK 221100Z 06002MPS 3500 R09/P1500 BR SKC 17/15 Q1020 NOSIG
ZJHK,2003-12-22 12:00,ZJHK 221200Z 05001MPS 3000 R09/P1500 BR BKN020 16/15 Q1021 NOSIG
ZJHK,2003-12-22 13:00,ZJHK 221300Z 05002MPS 3000 R09/P1500 BR SCT020 17/15 Q1021 NOSIG
ZJHK,2003-12-22 14:00,ZJHK 221400Z 06001MPS 3000 R09/P1500 BR SKC 15/14 Q1021 NOSIG
ZJHK,2003-12-22 15:00,ZJHK 221500Z 00000MPS 2300 R09/P1500 BR SKC 14/14 Q1021 NOSIG
ZJHK,2003-12-22 16:00,ZJHK 221600Z 00000MPS 1900 BR SKC 14/13 Q1020 NOSIG
ZJHK,2003-12-22 17:00,ZJHK 221700Z 26001MPS 1900 R09/P1500 BR SKC 14/14 Q1020 NOSIG
ZJHK,2003-12-22 18:00,ZJHK 221800Z AUTO 00000MPS 0000 R09/1000U // SKC 13/13 Q1020 NOSIG
ZJHK,2003-12-22 19:00,ZJHK 221900Z AUTO 00000MPS 0000 R09/0900V1400N // FEW027 14/14 Q1020 NOSIG
ZJHK,2003-12-22 20:00,ZJHK 222000Z AUTO 22001MPS 0000 R09/0800V1300U // SKC 14/14 Q1019 NOSIG
ZJHK,2003-12-22 21:00,ZJHK 222100Z 24001MPS 1000 R09/0900N BR SKC 14/14 Q1019 NOSIG
ZJHK,2003-12-22 22:00,ZJHK 222200Z 00000MPS 1900 R09/P1500 BR SKC 13/13 Q1019 NOSIG
ZJHK,2003-12-22 23:00,ZJHK 222300Z 00000MPS 1000 R09/1000 BR SKC 13/13 Q1019 NOSIG
ZJHK,2003-12-23 00:00,ZJHK 230000Z 00000MPS 1000 R09/0650N BR SKC 14/14 Q1020 NOSIG
ZJHK,2003-12-23 01:00,ZJHK 230100Z 04001MPS 3000 BR SKC 19/18 Q1020 NOSIG
ZJHK,2003-12-23 02:00,ZJHK 230200Z 02003MPS 5000 BR BKN020 21/18 Q1021 NOSIG
ZJHK,2003-12-23 03:00,ZJHK 230300Z 06004MPS 8000 BKN020 21/17 Q1021 NOSIG
ZJHK,2003-12-23 04:00,ZJHK 230400Z 10003MPS 050V160 9999 BKN020 23/17 Q1020 NOSIG
ZJHK,2003-12-23 05:00,ZJHK 230500Z 10004MPS 9999 BKN025 23/18 Q1019 NOSIG
ZJHK,2003-12-23 06:00,ZJHK 230600Z 08004MPS 9999 SCT025 24/18 Q1018 NOSIG
ZJHK,2003-12-23 07:00,ZJHK 230700Z 08004MPS 060V120 9999 SCT025 23/18 Q1017 NOSIG
ZJHK,2003-12-23 08:00,ZJHK 230800Z 07005MPS CAVOK 23/17 Q1017 NOSIG
ZJHK,2003-12-23 09:00,ZJHK 230900Z 08005MPS 9000 SKC 22/17 Q1017 NOSIG
ZJHK,2003-12-23 10:00,ZJHK 231000Z 07004MPS 8000 SKC 20/17 Q1018 NOSIG
ZJHK,2003-12-23 11:00,ZJHK 231100Z 08003MPS 6000 SKC 19/16 Q1018 NOSIG
ZJHK,2003-12-23 12:00,ZJHK 231200Z 11002MPS 5000 BR SKC 18/16 Q1018 NOSIG
ZJHK,2003-12-23 13:00,ZJHK 231300Z 11001MPS 5000 BR SKC 17/16 Q1019 NOSIG
ZJHK,2003-12-23 14:00,ZJHK 231400Z 13001MPS 4000 BR SKC 16/15 Q1018 NOSIG
ZJHK,2003-12-23 15:00,ZJHK 231500Z 14001MPS 3000 BR SKC 15/15 Q1018 NOSIG
ZJHK,2003-12-23 16:00,ZJHK 231600Z 15001MPS 3000 BR SKC 15/15 Q1018 NOSIG
ZJHK,2003-12-23 17:00,ZJHK 231700Z 00000MPS 2000 R09/0275V0600 BCFG SKC 14/14 Q1018 NOSIG
ZJHK,2003-12-23 18:00,ZJHK 231800Z 21001MPS 1700 BR SKC 14/14 Q1017 NOSIG
ZJHK,2003-12-23 19:00,ZJHK 231900Z 00000MPS 1500 R09/1100D BR SKC 14/14 Q1017 NOSIG
ZJHK,2003-12-23 21:00,ZJHK 232100Z 00000MPS 1700 R09/0275V0550 BR SKC 12/13 Q1017 NOSIG
ZJHK,2003-12-23 22:00,ZJHK 232200Z 00000MPS 1200 R09/0175 BR SKC 12/12 Q1017 NOSIG
ZJHK,2003-12-23 23:00,ZJHK 232300Z 00000MPS 0700 R09/0175V0300 FG SKC 12/12 Q1017 NOSIG
ZJHK,2003-12-24 00:00,ZJHK 240000Z 22001MPS 0400 R09/0175 FG NSC 13/13 Q1018 NOSIG
ZJHK,2003-12-24 01:00,ZJHK 240100Z 24001MPS 2500 R09/0800N BR NSC 16/16 Q1019 NOSIG
ZJHK,2003-12-24 02:00,ZJHK 240200Z 03001MPS 5000 BR NSC 20/19 Q1019 NOSIG
ZJHK,2003-12-24 03:00,ZJHK 240300Z 05002MPS 8000 BKN015 22/19 Q1019 NOSIG
ZJHK,2003-12-24 04:00,ZJHK 240400Z 08002MPS 9999 SCT020 23/19 Q1017 NOSIG
ZJHK,2003-12-24 05:00,ZJHK 240500Z 04004MPS 010V070 9999 SCT020 23/19 Q1016 NOSIG
ZJHK,2003-12-24 06:00,ZJHK 240600Z 04004MPS 010V070 9999 FEW020 24/20 Q1016 NOSIG
ZJHK,2003-12-24 07:00,ZJHK 240700Z 05005MPS 7000 FEW020 23/20 Q1015 NOSIG
ZJHK,2003-12-24 08:00,ZJHK 240800Z 04005MPS 8000 FEW020 23/19 Q1015 NOSIG
ZJHK,2003-12-24 09:00,ZJHK 240900Z 08005MPS CAVOK 22/19 Q1015 NOSIG
ZJHK,2003-12-24 10:00,ZJHK 241000Z 09004MPS 8000 SKC 21/19 Q1016 NOSIG
ZJHK,2003-12-24 11:00,ZJHK 241100Z 10004MPS 5000 BR SKC 20/19 Q1016 NOSIG
ZJHK,2003-12-24 12:00,ZJHK 241200Z 11002MPS 2500 BR SKC 19/19 Q1016 NOSIG
ZJHK,2003-12-24 13:00,ZJHK 241300Z 12001MPS 2100 BR SKC 18/18 Q1017 NOSIG
ZJHK,2003-12-24 14:00,ZJHK 241400Z 12001MPS 1600 BR SKC 18/18 Q1017 NOSIG
ZJHK,2003-12-24 15:00,ZJHK 241500Z 15001MPS 1000 R09/P1500 BR SKC 18/18 Q1017 NOSIG
ZJHK,2003-12-24 16:00,ZJHK 241600Z 00000MPS 0700 R09/0225V0500N FG SKC 16/16 Q1017 NOSIG
ZJHK,2003-12-24 17:00,ZJHK 241700Z AUTO 29001MPS 0000 R09/0500 // SKC 15/15 Q1017 NOSIG
ZJHK,2003-12-24 18:00,ZJHK 241800Z AUTO 00000MPS 0000 R09/0300N // SKC 16/17 Q1017 NOSIG
ZJHK,2003-12-24 19:00,ZJHK 241900Z AUTO 00000MPS 0000 R09/0200N // SKC 17/17 Q1017 NOSIG
ZJHK,2003-12-24 23:00,ZJHK 242300Z 03002MPS 1200 R09/P1500 BR BKN003 OVC030 19/19 Q1017 NOSIG
ZJHK,2003-12-25 00:00,ZJHK 250000Z 04003MPS 1800 BR BKN003 OVC030 19/19 Q1018 NOSIG
ZJHK,2003-12-25 01:00,ZJHK 250100Z 04004MPS 1700 BR BKN002 OVC023 19/20 Q1019 NOSIG
ZJHK,2003-12-25 02:00,ZJHK 250200Z 06004MPS 030V090 5000 BR BKN006 OVC023 21/20 Q1019 NOSIG
ZJHK,2003-12-25 03:00,ZJHK 250300Z 06003MPS 020V090 7000 SCT015 BKN066 22/20 Q1019 NOSIG
ZJHK,2003-12-25 04:00,ZJHK 250400Z 06004MPS 9999 FEW020 BKN070 23/20 Q1018 NOSIG
ZJHK,2003-12-25 05:00,ZJHK 250500Z 02004MPS 350V060 9999 BKN023 24/20 Q1017 NOSIG
ZJHK,2003-12-25 06:00,ZJHK 250600Z 04004MPS 010V070 9999 SCT023 25/20 Q1016 NOSIG
ZJHK,2003-12-25 07:00,ZJHK 250700Z 04004MPS 010V080 9999 FEW023 24/20 Q1016 NOSIG
ZJHK,2003-12-25 08:00,ZJHK 250800Z 03005MPS CAVOK 24/20 Q1015 NOSIG
ZJHK,2003-12-25 09:00,ZJHK 250900Z 04004MPS CAVOK 22/19 Q1016 NOSIG
ZJHK,2003-12-25 10:00,ZJHK 251000Z 04003MPS 7000 NSC 21/19 Q1017 NOSIG
ZJHK,2003-12-25 11:00,ZJHK 251100Z 05002MPS 7000 NSC 20/18 Q1017 NOSIG
ZJHK,2003-12-25 12:00,ZJHK 251200Z 06002MPS 8000 NSC 20/18 Q1017 NOSIG
ZJHK,2003-12-25 13:00,ZJHK 251300Z 09001MPS 9000 NSC 19/18 Q1017 NOSIG
ZJHK,2003-12-25 14:00,ZJHK 251400Z 14001MPS 5000 BR SKC 17/17 Q1017 NOSIG
ZJHK,2003-12-25 15:00,ZJHK 251500Z 00000MPS 5000 BR SKC 16/16 Q1017 NOSIG
ZJHK,2003-12-25 16:00,ZJHK 251600Z 28001MPS 3000 BR SKC 16/16 Q1017 NOSIG
ZJHK,2003-12-25 17:00,ZJHK 251700Z 26001MPS 2500 BR SKC 15/15 Q1017 NOSIG
ZJHK,2003-12-25 18:00,ZJHK 251800Z AUTO 30001MPS 0100 R09/0175V0325N FG SKC 15/15 Q1018 NOSIG
ZJHK,2003-12-25 19:00,ZJHK 251900Z AUTO 00000MPS 0100 R09/0225N FG SKC 16/16 Q1018 NOSIG
ZJHK,2003-12-25 20:00,ZJHK 252000Z AUTO 24001MPS 0200 R09/0175 BCFG SKC 16/16 Q1017 NOSIG
ZJHK,2003-12-25 21:00,ZJHK 252100Z 23001MPS 0050 R09/0150N FG SKC 15/15 Q1018 NOSIG
ZJHK,2003-12-25 22:00,ZJHK 252200Z 24001MPS 0200 R09/0175N FG SKC 15/15 Q1018 NOSIG
ZJHK,2003-12-25 23:00,ZJHK 252300Z 25001MPS 0050 R09/0200N FG SKC 14/14 Q1019 NOSIG
ZJHK,2003-12-26 00:00,ZJHK 260000Z 00000MPS 0800 R09/0400 FG NSC 14/14 Q1020 NOSIG
ZJHK,2003-12-26 01:00,ZJHK 260100Z 02001MPS 2000 BR SKC 17/17 Q1021 NOSIG
ZJHK,2003-12-26 02:00,ZJHK 260200Z 04004MPS 360V060 4000 BR SCT011 20/19 Q1021 NOSIG
ZJHK,2003-12-26 03:00,ZJHK 260300Z 05006MPS 5000 BR SKC 21/18 Q1021 NOSIG
ZJHK,2003-12-26 04:00,ZJHK 260400Z 05006MPS 020V080 4000 HZ SKC 22/16 Q1020 NOSIG
ZJHK,2003-12-26 05:00,ZJHK 260500Z 05006MPS 4000 HZ SKC 23/16 Q1019 NOSIG
ZJHK,2003-12-26 06:00,ZJHK 260600Z 04005MPS 4000 HZ SKC 23/14 Q1018 NOSIG
ZJHK,2003-12-26 07:00,ZJHK 260700Z 08008MPS 3000 R09/P1500 HZ SKC 23/14 Q1018 NOSIG
ZJHK,2003-12-26 08:00,ZJHK 260800Z 08008MPS 4000 HZ SKC 22/15 Q1018 NOSIG
ZJHK,2003-12-26 09:00,ZJHK 260900Z 08006MPS 4000 HZ SKC 21/15 Q1019 NOSIG
ZJHK,2003-12-26 10:00,ZJHK 261000Z 07004MPS 4000 HZ SKC 20/15 Q1020 NOSIG
ZJHK,2003-12-26 11:00,ZJHK 261100Z 06004MPS 4000 HZ SKC 19/15 Q1020 NOSIG
ZJHK,2003-12-26 12:00,ZJHK 261200Z 06004MPS 4000 HZ SKC 19/15 Q1021 NOSIG
ZJHK,2003-12-26 13:00,ZJHK 261300Z 07004MPS 4000 HZ SKC 20/15 Q1021 NOSIG
ZJHK,2003-12-26 15:00,ZJHK 261500Z 08005MPS 4500 HZ SKC 19/13 Q1022 NOSIG
ZJHK,2003-12-26 16:00,ZJHK 261600Z 07006MPS 4500 HZ SKC 19/11 Q1022 NOSIG
ZJHK,2003-12-26 17:00,ZJHK 261700Z 06006MPS 5000 HZ SKC 18/11 Q1022 NOSIG
ZJHK,2003-12-26 18:00,ZJHK 261800Z AUTO 07004MPS 4500 HZ SKC 18/12 Q1022 NOSIG
ZJHK,2003-12-26 19:00,ZJHK 261900Z AUTO 04004MPS 5000 HZ ////// 17/11 Q1022 NOSIG
ZJHK,2003-12-26 20:00,ZJHK 262000Z AUTO 04004MPS 4500 HZ ////// 17/11 Q1022 NOSIG
ZJHK,2003-12-26 21:00,ZJHK 262100Z 07005MPS 4500 HZ SKC 16/11 Q1022 NOSIG
ZJHK,2003-12-26 22:00,ZJHK 262200Z 07004MPS 4500 HZ SKC 16/12 Q1023 NOSIG
ZJHK,2003-12-26 23:00,ZJHK 262300Z 07003MPS 4500 HZ SKC 16/11 Q1023 NOSIG
ZJHK,2003-12-27 00:00,ZJHK 270000Z 07003MPS 5000 HZ SKC 16/11 Q1024 NOSIG
ZJHK,2003-12-27 01:00,ZJHK 270100Z 06004MPS 5000 HZ SKC 18/12 Q1025 NOSIG
ZJHK,2003-12-27 02:00,ZJHK 270200Z 08006MPS 5000 HZ SKC 19/12 Q1026 NOSIG
ZJHK,2003-12-27 03:00,ZJHK 270300Z 08008MPS 6000 SKC 19/12 Q1026 NOSIG
ZJHK,2003-12-27 04:00,ZJHK 270400Z 07007MPS 6000 SKC 20/13 Q1025 NOSIG
ZJHK,2003-12-27 05:00,ZJHK 270500Z 08006MPS 050V110 6000 SKC 21/13 Q1023 NOSIG
ZJHK,2003-12-27 06:00,ZJHK 270600Z 07006MPS 040V100 6000 SCT026 21/14 Q1023 NOSIG
ZJHK,2003-12-27 07:00,ZJHK 270700Z 07006MPS 040V100 6000 BKN030 20/14 Q1022 NOSIG
ZJHK,2003-12-27 08:00,ZJHK 270800Z 09006MPS 050V110 5000 HZ BKN030 20/14 Q1022 NOSIG
ZJHK,2003-12-27 09:00,ZJHK 270900Z 08006MPS 5000 HZ NSC 19/14 Q1023 NOSIG
ZJHK,2003-12-27 10:00,ZJHK 271000Z 08005MPS 5000 BR BKN027 18/14 Q1023 NOSIG
ZJHK,2003-12-27 11:00,ZJHK 271100Z 08005MPS 4000 R09/P1500 BR SKC 18/14 Q1024 NOSIG
ZJHK,2003-12-27 12:00,ZJHK 271200Z 07004MPS 4000 BR SKC 17/14 Q1024 NOSIG
ZJHK,2003-12-27 13:00,ZJHK 271300Z 08003MPS 3500 BR SKC 17/14 Q1024 NOSIG
ZJHK,2003-12-27 14:00,ZJHK 271400Z 08004MPS 3500 BR SKC 17/15 Q1024 NOSIG
ZJHK,2003-12-27 15:00,ZJHK 271500Z 09004MPS 3500 BR SKC 16/14 Q1023 NOSIG
ZJHK,2003-12-27 16:00,ZJHK 271600Z 11003MPS 3500 BR SKC 16/14 Q1023 NOSIG
ZJHK,2003-12-27 17:00,ZJHK 271700Z 11002MPS 3500 BR SKC 16/14 Q1023 NOSIG
ZJHK,2003-12-27 18:00,ZJHK 271800Z 09002MPS 4500 BR SKC 16/14 Q1023 NOSIG
ZJHK,2003-12-27 19:00,ZJHK 271900Z 08001MPS 5000 BR SKC 15/13 Q1023 NOSIG
ZJHK,2003-12-27 20:00,ZJHK 272000Z AUTO 07001MPS 4000 BR SKC 14/13 Q1023 NOSIG
ZJHK,2003-12-27 21:00,ZJHK 272100Z 08001MPS 4000 BR SKC 14/13 Q1023 NOSIG
ZJHK,2003-12-27 22:00,ZJHK 272200Z 10001MPS 5000 BR SKC 14/13 Q1023 NOSIG
ZJHK,2003-12-27 23:00,ZJHK 272300Z 11001MPS 6000 SKC 15/13 Q1024 NOSIG
ZJHK,2003-12-28 00:00,ZJHK 280000Z 09001MPS 6000 SKC 15/14 Q1025 NOSIG
ZJHK,2003-12-28 01:00,ZJHK 280100Z 09005MPS 9000 SKC 19/15 Q1025 NOSIG
ZJHK,2003-12-28 02:00,ZJHK 280200Z 09007MPS 9999 SCT020 21/15 Q1025 NOSIG
ZJHK,2003-12-28 03:00,ZJHK 280300Z 08006MPS 060V120 9999 BKN020 21/15 Q1025 NOSIG
ZJHK,2003-12-28 04:00,ZJHK 280400Z 08006MPS 9999 BKN020 22/16 Q1024 NOSIG
ZJHK,2003-12-28 05:00,ZJHK 280500Z 09006MPS 060V140 9999 BKN020 22/16 Q1023 NOSIG
ZJHK,2003-12-28 06:00,ZJHK 280600Z 07006MPS 040V110 9999 BKN020 22/17 Q1022 NOSIG
ZJHK,2003-12-28 07:00,ZJHK 280700Z 08006MPS 8000 BKN020 22/17 Q1022 NOSIG
ZJHK,2003-12-28 08:00,ZJHK 280800Z 07007MPS 8000 FEW020 21/17 Q1022 NOSIG
ZJHK,2003-12-28 09:00,ZJHK 280900Z 08008MPS 7000 BKN023 20/16 Q1022 NOSIG
ZJHK,2003-12-28 10:00,ZJHK 281000Z 09006MPS 7000 BKN019 20/17 Q1022 NOSIG
ZJHK,2003-12-28 11:00,ZJHK 281100Z 09005MPS 7000 BKN016 19/17 Q1023 NOSIG
ZJHK,2003-12-28 12:00,ZJHK 281200Z 09005MPS 6000 BKN016 18/17 Q1023 NOSIG
ZJHK,2003-12-28 13:00,ZJHK 281300Z 08004MPS 6000 SCT013 19/17 Q1023 NOSIG
ZJHK,2003-12-28 14:00,ZJHK 281400Z 08004MPS 5000 BR SCT013 19/17 Q1023 NOSIG
ZJHK,2003-12-28 15:00,ZJHK 281500Z 06002MPS 6000 SCT013 19/17 Q1023 NOSIG
ZJHK,2003-12-28 16:00,ZJHK 281600Z 08003MPS 6000 BKN013 19/18 Q1022 NOSIG
ZJHK,2003-12-28 17:00,ZJHK 281700Z AUTO 08002MPS 5000 SKC 18/18 Q1022 NOSIG
ZJHK,2003-12-28 18:00,ZJHK 281800Z AUTO 06002MPS 4500 BR SKC 18/18 Q1022 NOSIG
ZJHK,2003-12-28 19:00,ZJHK 281900Z AUTO 05003MPS 4000 BR FEW058 18/18 Q1021 NOSIG
ZJHK,2003-12-28 20:00,ZJHK 282000Z AUTO 06003MPS 0000 R09/P1500 // SKC 19/18 Q1021 NOSIG
ZJHK,2003-12-28 21:00,ZJHK 282100Z 06003MPS 3000 BR SCT020 19/18 Q1022 NOSIG
ZJHK,2003-12-28 22:00,ZJHK 282200Z 06003MPS 3000 BR SCT015 19/18 Q1022 NOSIG
ZJHK,2003-12-28 23:00,ZJHK 282300Z 06003MPS 6000 SCT015 BKN070 19/18 Q1023 NOSIG
ZJHK,2003-12-29 00:00,ZJHK 290000Z 06004MPS 5000 BR SCT015 BKN070 19/18 Q1024 NOSIG
ZJHK,2003-12-29 01:00,ZJHK 290100Z 06004MPS 6000 BKN012 BKN060 20/18 Q1024 NOSIG
ZJHK,2003-12-29 02:00,ZJHK 290200Z 07007MPS 7000 BKN012 BKN060 21/19 Q1024 NOSIG
ZJHK,2003-12-29 03:00,ZJHK 290300Z 08007MPS 9000 BKN013 BKN060 22/18 Q1024 NOSIG
ZJHK,2003-12-29 04:00,ZJHK 290400Z 08008MPS 9999 SCT015 BKN060 23/19 Q1023 NOSIG
ZJHK,2003-12-29 05:00,ZJHK 290500Z 09007MPS 9999 SCT015 BKN080 23/19 Q1022 NOSIG
ZJHK,2003-12-29 06:00,ZJHK 290600Z 08007MPS 9999 SCT015 BKN080 23/19 Q1021 NOSIG
ZJHK,2003-12-29 07:00,ZJHK 290700Z 09008MPS 9999 SCT015 BKN070 22/18 Q1020 NOSIG
ZJHK,2003-12-29 08:00,ZJHK 290800Z 07007MPS 9999 SCT015 BKN060 22/19 Q1020 NOSIG
ZJHK,2003-12-29 09:00,ZJHK 290900Z 07005MPS 8000 BKN015 BKN060 21/19 Q1021 NOSIG
ZJHK,2003-12-29 10:00,ZJHK 291000Z 08005MPS 8000 SCT015 BKN060 21/19 Q1021 NOSIG
ZJHK,2003-12-29 11:00,ZJHK 291100Z 09004MPS 7000 SCT015 BKN060 20/19 Q1022 NOSIG
ZJHK,2003-12-29 12:00,ZJHK 291200Z 07003MPS 040V100 7000 NSC 20/19 Q1022 NOSIG
ZJHK,2003-12-29 13:00,ZJHK 291300Z 07002MPS 6000 FEW020 OVC060 20/19 Q1023 NOSIG
ZJHK,2003-12-29 14:00,ZJHK 291400Z 08002MPS 6000 NSC 20/19 Q1022 NOSIG
ZJHK,2003-12-29 15:00,ZJHK 291500Z 11002MPS 5000 BR NSC 20/19 Q1022 NOSIG
ZJHK,2003-12-29 16:00,ZJHK 291600Z 04001MPS 5000 BR NSC 20/19 Q1022 NOSIG
ZJHK,2003-12-29 17:00,ZJHK 291700Z 08001MPS 4000 BR NSC 20/19 Q1022 NOSIG
ZJHK,2003-12-29 18:00,ZJHK 291800Z 11001MPS 4000 BR NSC 20/19 Q1021 NOSIG
ZJHK,2003-12-29 19:00,ZJHK 291900Z AUTO 11001MPS 0000 R09/P1500 // BKN072 OVC084 19/19 Q1021 NOSIG
ZJHK,2003-12-29 20:00,ZJHK 292000Z AUTO 09001MPS 0000 R09/P1500 // FEW077 OVC083 19/19 Q1020 NOSIG
ZJHK,2003-12-29 21:00,ZJHK 292100Z 09002MPS 4000 BR NSC 20/19 Q1020 NOSIG
ZJHK,2003-12-29 22:00,ZJHK 292200Z 06001MPS 4000 BR NSC 20/19 Q1021 NOSIG
ZJHK,2003-12-29 23:00,ZJHK 292300Z 11002MPS 4000 BR NSC 19/19 Q1021 NOSIG
ZJHK,2003-12-30 00:00,ZJHK 300000Z 12002MPS 5000 BR NSC 20/19 Q1021 NOSIG
ZJHK,2003-12-30 01:00,ZJHK 300100Z 05002MPS 7000 NSC 21/19 Q1022 NOSIG
ZJHK,2003-12-30 02:00,ZJHK 300200Z 08004MPS 9999 SCT015 BKN100 23/20 Q1022 NOSIG
ZJHK,2003-12-30 03:00,ZJHK 300300Z 08003MPS 050V130 9999 FEW016 BKN100 24/19 Q1022 NOSIG
ZJHK,2003-12-30 04:00,ZJHK 300400Z 09003MPS 040V120 9999 FEW020 BKN100 24/19 Q1021 NOSIG
ZJHK,2003-12-30 05:00,ZJHK 300500Z 09004MPS 040V200 9999 BKN023 25/19 Q1019 NOSIG
ZJHK,2003-12-30 06:00,ZJHK 300600Z 06004MPS 9999 BKN023 25/19 Q1018 NOSIG
ZJHK,2003-12-30 07:00,ZJHK 300700Z 05005MPS 9999 SCT023 24/20 Q1018 NOSIG
ZJHK,2003-12-30 08:00,ZJHK 300800Z 08007MPS 9999 SCT020 24/20 Q1018 NOSIG
ZJHK,2003-12-30 09:00,ZJHK 300900Z 06006MPS 9999 SCT015 23/20 Q1018 NOSIG
ZJHK,2003-12-30 10:00,ZJHK 301000Z 07005MPS 8000 SCT012 21/20 Q1019 NOSIG
ZJHK,2003-12-30 11:00,ZJHK 301100Z 08005MPS 6000 SCT012 21/20 Q1020 NOSIG
ZJHK,2003-12-30 12:00,ZJHK 301200Z 08005MPS 5000 BR SCT008 20/20 Q1021 NOSIG
ZJHK,2003-12-30 13:00,ZJHK 301300Z 08004MPS 5000 BR BKN010 20/19 Q1021 NOSIG
ZJHK,2003-12-30 14:00,ZJHK 301400Z 09004MPS 5000 BR SKC 20/19 Q1021 NOSIG
ZJHK,2003-12-30 15:00,ZJHK 301500Z 10002MPS 5000 BR SKC 19/19 Q1021 NOSIG
ZJHK,2003-12-30 16:00,ZJHK 301600Z 12001MPS 2000 BR SKC 19/19 Q1020 NOSIG
ZJHK,2003-12-30 18:00,ZJHK 301800Z AUTO 06001MPS 0000 R09/P1500 // OVC075 19/19 Q1020 NOSIG
ZJHK,2003-12-30 19:00,ZJHK 301900Z AUTO 00000MPS 0000 R09/P1500 // OVC076 18/18 Q1019 NOSIG
ZJHK,2003-12-30 20:00,ZJHK 302000Z AUTO 00000MPS 0000 R09/P1500 // OVC079 18/18 Q1019 NOSIG
ZJHK,2003-12-30 21:00,ZJHK 302100Z 00000MPS 2000 BR NSC 18/18 Q1019 NOSIG
ZJHK,2003-12-30 22:00,ZJHK 302200Z 09001MPS 0700 R09/0600 FG SCT007 17/17 Q1019 NOSIG
ZJHK,2003-12-30 23:00,ZJHK 302300Z 11002MPS 0900 R09/P1500 FG NSC 16/16 Q1020 NOSIG
