station,valid,metar
ZJHK,2020-01-01 00:00,ZJHK 010000Z 09006MPS 9999 SCT016 BKN026 21/18 Q1024 NOSIG
ZJHK,2020-01-01 01:00,ZJHK 010100Z 08006MPS 9999 BKN020 OVC030 22/18 Q1025 NOSIG
ZJHK,2020-01-01 02:00,ZJHK 010200Z 08008MPS 9999 SCT013 BKN030 22/18 Q1025 NOSIG
ZJHK,2020-01-01 03:00,ZJHK 010300Z 08008MPS 9999 SCT013 BKN030 22/18 Q1025 NOSIG
ZJHK,2020-01-01 04:00,ZJHK 010400Z 08006MPS 9999 SCT013 BKN030 22/18 Q1025 NOSIG
ZJHK,2020-01-01 05:00,ZJHK 010500Z 08007MPS 9999 -RA BKN016 OVC030 22/18 Q1023 NOSIG
ZJHK,2020-01-01 06:00,ZJHK 010600Z 07006MPS 9999 -RA SCT013 OVC026 22/19 Q1023 NOSIG
ZJHK,2020-01-01 07:00,ZJHK 010700Z 08006MPS 9999 -RA BKN013 OVC026 21/19 Q1022 NOSIG
ZJHK,2020-01-01 08:00,ZJHK 010800Z 08006MPS 9999 -RA BKN011 OVC023 21/19 Q1022 NOSIG
ZJHK,2020-01-01 09:00,ZJHK 010900Z 08006MPS 9999 BKN011 OVC023 21/19 Q1022 NOSIG
ZJHK,2020-01-01 10:00,ZJHK 011000Z 08006MPS 9999 BKN011 OVC023 21/18 Q1023 NOSIG
ZJHK,2020-01-01 11:00,ZJHK 011100Z 09005MPS 9999 BKN011 OVC023 21/18 Q1023 NOSIG
ZJHK,2020-01-01 12:00,ZJHK 011200Z 08004MPS 9999 BKN011 OVC023 21/19 Q1024 NOSIG
ZJHK,2020-01-01 13:00,ZJHK 011300Z 09005MPS 9999 BKN011 OVC023 21/18 Q1024 NOSIG
ZJHK,2020-01-01 14:00,ZJHK 011400Z 10005MPS 9999 FEW016 BKN046 21/18 Q1024 NOSIG
ZJHK,2020-01-01 15:00,ZJHK 011500Z 09005MPS 9999 FEW016 BKN046 21/18 Q1024 NOSIG
ZJHK,2020-01-01 16:00,ZJHK 011600Z 10004MPS 9999 SCT016 BKN046 21/18 Q1024 NOSIG
ZJHK,2020-01-01 17:00,ZJHK 011700Z 08005MPS 9999 SCT016 BKN046 21/18 Q1023 NOSIG
ZJHK,2020-01-01 18:00,ZJHK 011800Z 10004MPS 9999 SCT030 20/17 Q1023 NOSIG
ZJHK,2020-01-01 19:00,ZJHK 011900Z 08002MPS CAVOK 19/17 Q1022 NOSIG
ZJHK,2020-01-01 20:00,ZJHK 012000Z VRB01MPS 9999 SCT015 18/17 Q1022 NOSIG
ZJHK,2020-01-01 21:00,ZJHK 012100Z 01002MPS 9999 FEW015 SCT046 19/18 Q1022 NOSIG
ZJHK,2020-01-01 22:00,ZJHK 012200Z VRB01MPS 9999 FEW015 SCT046 18/17 Q1023 NOSIG
ZJHK,2020-01-01 23:00,ZJHK 012300Z 06002MPS 030V120 9999 FEW015 19/18 Q1023 NOSIG
ZJHK,2020-01-02 00:00,ZJHK 020000Z VRB01MPS 9999 FEW013 20/19 Q1024 NOSIG
ZJHK,2020-01-02 01:00,ZJHK 020100Z 09005MPS 9999 FEW013 21/19 Q1024 NOSIG
ZJHK,2020-01-02 02:00,ZJHK 020200Z 09006MPS CAVOK 23/19 Q1025 NOSIG
ZJHK,2020-01-02 03:00,ZJHK 020300Z 09009MPS 9999 FEW026 BKN046 23/19 Q1025 NOSIG
ZJHK,2020-01-02 04:00,ZJHK 020400Z 09007MPS 9999 BKN046 24/19 Q1024 NOSIG
ZJHK,2020-01-02 05:00,ZJHK 020500Z 08008MPS 9999 FEW023 BKN046 26/19 Q1023 NOSIG
ZJHK,2020-01-02 06:00,ZJHK 020600Z 10006MPS 070V130 9999 SCT023 25/18 Q1022 NOSIG
ZJHK,2020-01-02 07:00,ZJHK 020700Z 10006MPS 9999 SCT023 BKN043 24/18 Q1021 NOSIG
ZJHK,2020-01-02 08:00,ZJHK 020800Z 10006MPS 9999 FEW015 BKN043 24/18 Q1021 NOSIG
ZJHK,2020-01-02 09:00,ZJHK 020900Z 11005MPS 9999 FEW026 BKN046 23/18 Q1021 NOSIG
ZJHK,2020-01-02 10:00,ZJHK 021000Z 10005MPS 9999 FEW026 BKN046 22/18 Q1021 NOSIG
ZJHK,2020-01-02 11:00,ZJHK 021100Z 10005MPS 9999 FEW026 BKN046 21/18 Q1022 NOSIG
ZJHK,2020-01-02 12:00,ZJHK 021200Z 10005MPS 9999 SCT046 21/18 Q1022 NOSIG
ZJHK,2020-01-02 13:00,ZJHK 021300Z 12002MPS CAVOK 20/18 Q1023 NOSIG
ZJHK,2020-01-02 14:00,ZJHK 021400Z VRB01MPS CAVOK 19/18 Q1023 NOSIG
ZJHK,2020-01-02 15:00,ZJHK 021500Z 13001MPS CAVOK 18/17 Q1023 NOSIG
ZJHK,2020-01-02 16:00,ZJHK 021600Z 10002MPS CAVOK 18/17 Q1022 NOSIG
ZJHK,2020-01-02 17:00,ZJHK 021700Z 12002MPS CAVOK 18/17 Q1022 NOSIG
ZJHK,2020-01-02 18:00,ZJHK 021800Z VRB01MPS CAVOK 19/18 Q1022 NOSIG
ZJHK,2020-01-02 19:00,ZJHK 021900Z 00000MPS CAVOK 18/17 Q1021 NOSIG
ZJHK,2020-01-02 20:00,ZJHK 022000Z 10002MPS 7000 BCFG NSC 18/17 Q1021 NOSIG
ZJHK,2020-01-02 21:00,ZJHK 022100Z 12001MPS 7000 BCFG NSC 18/17 Q1021 NOSIG
ZJHK,2020-01-02 22:00,ZJHK 022200Z VRB01MPS 8000 NSC 18/18 Q1021 NOSIG
ZJHK,2020-01-02 23:00,ZJHK 022300Z 12001MPS 8000 NSC 19/18 Q1021 NOSIG
ZJHK,2020-01-03 00:00,ZJHK 030000Z VRB01MPS 8000 NSC 19/19 Q1022 NOSIG
ZJHK,2020-01-03 01:00,ZJHK 030100Z 07004MPS CAVOK 22/20 Q1022 NOSIG
ZJHK,2020-01-03 02:00,ZJHK 030200Z 09005MPS 9999 FEW016 24/19 Q1023 NOSIG
ZJHK,2020-01-03 03:00,ZJHK 030300Z 10006MPS 9999 BKN020 24/18 Q1023 NOSIG
ZJHK,2020-01-03 04:00,ZJHK 030400Z 10005MPS 070V130 9999 SCT020 24/18 Q1022 NOSIG
ZJHK,2020-01-03 05:00,ZJHK 030500Z 09006MPS 9999 SCT023 BKN040 25/18 Q1021 NOSIG
ZJHK,2020-01-03 06:00,ZJHK 030600Z 09006MPS 070V140 9999 SCT023 BKN046 25/18 Q1020 NOSIG
ZJHK,2020-01-03 07:00,ZJHK 030700Z 08007MPS 040V110 9999 BKN023 BKN046 26/19 Q1020 NOSIG
ZJHK,2020-01-03 08:00,ZJHK 030800Z 09007MPS 9999 SCT020 BKN046 24/19 Q1019 NOSIG
ZJHK,2020-01-03 09:00,ZJHK 030900Z 09007MPS 9999 SCT023 23/18 Q1020 NOSIG
ZJHK,2020-01-03 10:00,ZJHK 031000Z 08006MPS 9999 FEW023 22/18 Q1020 NOSIG
ZJHK,2020-01-03 11:00,ZJHK 031100Z 10004MPS 9999 FEW014 21/18 Q1020 NOSIG
ZJHK,2020-01-03 12:00,ZJHK 031200Z 10005MPS CAVOK 20/18 Q1021 NOSIG
ZJHK,2020-01-03 13:00,ZJHK 031300Z 09004MPS CAVOK 20/18 Q1021 NOSIG
ZJHK,2020-01-03 14:00,ZJHK 031400Z 09004MPS CAVOK 20/18 Q1021 NOSIG
ZJHK,2020-01-03 15:00,ZJHK 031500Z 08004MPS 040V100 9999 SCT011 20/19 Q1021 NOSIG
ZJHK,2020-01-03 16:00,ZJHK 031600Z 10003MPS 8000 SCT011 20/19 Q1021 NOSIG
ZJHK,2020-01-03 17:00,ZJHK 031700Z 11003MPS 8000 NSC 20/18 Q1020 NOSIG
ZJHK,2020-01-03 18:00,ZJHK 031800Z 11003MPS 7000 NSC 19/18 Q1020 NOSIG
ZJHK,2020-01-03 19:00,ZJHK 031900Z 11003MPS 7000 NSC 19/18 Q1019 NOSIG
ZJHK,2020-01-03 20:00,ZJHK 032000Z 10002MPS 6000 NSC 19/18 Q1019 NOSIG
ZJHK,2020-01-03 21:00,ZJHK 032100Z 11001MPS 6000 NSC 19/18 Q1019 NOSIG
ZJHK,2020-01-03 22:00,ZJHK 032200Z 12001MPS 3000 R09/0750U BR BCFG NSC 17/17 Q1019 NOSIG
ZJHK,2020-01-03 23:00,ZJHK 032300Z VRB01MPS 6000 FEW010 18/17 Q1019 NOSIG
ZJHK,2020-01-04 00:00,ZJHK 040000Z 10001MPS 3000 BR FEW010 18/17 Q1020 NOSIG
ZJHK,2020-01-04 01:00,ZJHK 040100Z 07003MPS CAVOK 21/20 Q1021 NOSIG
ZJHK,2020-01-04 02:00,ZJHK 040200Z 07004MPS 040V110 CAVOK 23/21 Q1021 NOSIG
ZJHK,2020-01-04 03:00,ZJHK 040300Z 08005MPS 050V110 9999 SCT016 24/20 Q1021 NOSIG
ZJHK,2020-01-04 04:00,ZJHK 040400Z 09004MPS 050V130 9999 SCT023 25/19 Q1020 NOSIG
ZJHK,2020-01-04 05:00,ZJHK 040500Z 07004MPS 040V110 9999 SCT023 25/19 Q1019 NOSIG
ZJHK,2020-01-04 06:00,ZJHK 040600Z 08005MPS 9999 BKN023 25/19 Q1018 NOSIG
ZJHK,2020-01-04 07:00,ZJHK 040700Z 08005MPS 040V110 9999 SCT026 25/18 Q1017 NOSIG
ZJHK,2020-01-04 08:00,ZJHK 040800Z 08006MPS 9999 FEW026 25/18 Q1017 NOSIG
ZJHK,2020-01-04 09:00,ZJHK 040900Z 11005MPS 9999 SCT026 24/17 Q1017 NOSIG
ZJHK,2020-01-04 10:00,ZJHK 041000Z 10006MPS 9999 SCT026 23/18 Q1017 NOSIG
ZJHK,2020-01-04 11:00,ZJHK 041100Z 11004MPS CAVOK 21/17 Q1018 NOSIG
ZJHK,2020-01-04 12:00,ZJHK 041200Z 11003MPS CAVOK 20/17 Q1019 NOSIG
ZJHK,2020-01-04 13:00,ZJHK 041300Z 12002MPS CAVOK 19/17 Q1019 NOSIG
ZJHK,2020-01-04 14:00,ZJHK 041400Z 12002MPS CAVOK 19/17 Q1019 NOSIG
ZJHK,2020-01-04 15:00,ZJHK 041500Z 11002MPS CAVOK 19/17 Q1019 NOSIG
ZJHK,2020-01-04 16:00,ZJHK 041600Z 10002MPS CAVOK 19/17 Q1019 NOSIG
ZJHK,2020-01-04 17:00,ZJHK 041700Z 11003MPS CAVOK 19/17 Q1019 NOSIG
ZJHK,2020-01-04 18:00,ZJHK 041800Z 12003MPS CAVOK 18/17 Q1018 NOSIG
ZJHK,2020-01-04 19:00,ZJHK 041900Z 09002MPS CAVOK 18/17 Q1018 NOSIG
ZJHK,2020-01-04 20:00,ZJHK 042000Z 11002MPS 7000 NSC 18/17 Q1018 NOSIG
ZJHK,2020-01-04 21:00,ZJHK 042100Z 12001MPS 7000 NSC 18/17 Q1018 NOSIG
ZJHK,2020-01-04 22:00,ZJHK 042200Z 13002MPS 7000 NSC 17/17 Q1018 NOSIG
ZJHK,2020-01-04 23:00,ZJHK 042300Z 00000MPS 6000 BCFG NSC 16/16 Q1018 NOSIG
ZJHK,2020-01-05 00:00,ZJHK 050000Z 13001MPS 6000 NSC 18/17 Q1019 NOSIG
ZJHK,2020-01-05 01:00,ZJHK 050100Z 12002MPS 9999 SCT013 20/19 Q1019 NOSIG
ZJHK,2020-01-05 02:00,ZJHK 050200Z 10004MPS 080V150 9999 FEW013 23/21 Q1020 NOSIG
ZJHK,2020-01-05 03:00,ZJHK 050300Z 11005MPS 080V140 9999 SCT020 24/19 Q1020 NOSIG
ZJHK,2020-01-05 04:00,ZJHK 050400Z 12004MPS 090V160 9999 SCT026 25/18 Q1019 NOSIG
ZJHK,2020-01-05 05:00,ZJHK 050500Z 11004MPS 080V180 9999 SCT026 27/19 Q1018 NOSIG
ZJHK,2020-01-05 06:00,ZJHK 050600Z 07007MPS 9999 BKN026 27/19 Q1017 NOSIG
ZJHK,2020-01-05 07:00,ZJHK 050700Z 08008MPS 9999 FEW020 BKN026 25/19 Q1017 NOSIG
ZJHK,2020-01-05 08:00,ZJHK 050800Z 09007MPS 9999 SCT020 25/19 Q1016 NOSIG
ZJHK,2020-01-05 09:00,ZJHK 050900Z 09008MPS 9999 BKN020 24/19 Q1017 NOSIG
ZJHK,2020-01-05 10:00,ZJHK 051000Z 09006MPS 9999 SCT015 22/19 Q1017 NOSIG
ZJHK,2020-01-05 11:00,ZJHK 051100Z 08005MPS 9999 SCT012 SCT020 22/19 Q1017 NOSIG
ZJHK,2020-01-05 12:00,ZJHK 051200Z 08004MPS 9999 BKN010 21/19 Q1018 NOSIG
ZJHK,2020-01-05 13:00,ZJHK 051300Z 08004MPS 9999 BKN010 21/19 Q1018 NOSIG
ZJHK,2020-01-05 14:00,ZJHK 051400Z 09004MPS 9999 SCT010 20/19 Q1019 NOSIG
ZJHK,2020-01-05 15:00,ZJHK 051500Z 10004MPS 8000 FEW010 21/19 Q1018 NOSIG
ZJHK,2020-01-05 16:00,ZJHK 051600Z 09004MPS 8000 FEW010 21/20 Q1018 NOSIG
ZJHK,2020-01-05 17:00,ZJHK 051700Z 09004MPS 8000 BKN008 21/20 Q1018 NOSIG
ZJHK,2020-01-05 18:00,ZJHK 051800Z 06004MPS 8000 BKN010 21/20 Q1018 NOSIG
ZJHK,2020-01-05 19:00,ZJHK 051900Z 06003MPS 8000 FEW006 BKN040 21/20 Q1017 NOSIG
ZJHK,2020-01-05 20:00,ZJHK 052000Z 06003MPS 7000 FEW006 BKN023 21/20 Q1017 NOSIG
ZJHK,2020-01-05 21:00,ZJHK 052100Z 06003MPS 7000 FEW010 BKN023 21/20 Q1017 NOSIG
ZJHK,2020-01-05 22:00,ZJHK 052200Z 05002MPS 7000 FEW010 BKN046 21/20 Q1017 NOSIG
ZJHK,2020-01-05 23:00,ZJHK 052300Z 03003MPS 010V070 7000 SCT012 BKN020 22/21 Q1018 NOSIG
ZJHK,2020-01-06 00:00,ZJHK 060000Z 03003MPS 010V070 7000 SCT012 SCT020 22/21 Q1018 NOSIG
ZJHK,2020-01-06 01:00,ZJHK 060100Z 06002MPS 020V080 8000 BKN010 BKN033 23/21 Q1019 NOSIG
ZJHK,2020-01-06 02:00,ZJHK 060200Z 12004MPS 080V150 9999 SCT013 24/21 Q1019 NOSIG
ZJHK,2020-01-06 03:00,ZJHK 060300Z 10004MPS 080V140 9999 FEW015 SCT020 27/21 Q1019 NOSIG
ZJHK,2020-01-06 04:00,ZJHK 060400Z 10003MPS 060V130 9999 SCT023 BKN040 26/20 Q1019 NOSIG
ZJHK,2020-01-06 05:00,ZJHK 060500Z 01004MPS 340V040 9999 SCT023 BKN040 25/21 Q1018 NOSIG
ZJHK,2020-01-06 06:00,ZJHK 060600Z 03004MPS 360V060 9999 SCT020 BKN040 26/21 Q1016 NOSIG
ZJHK,2020-01-06 07:00,ZJHK 060700Z 03004MPS 360V080 9999 SCT020 BKN040 26/21 Q1016 NOSIG
ZJHK,2020-01-06 08:00,ZJHK 060800Z 07006MPS 9999 SCT020 BKN040 27/21 Q1015 NOSIG
ZJHK,2020-01-06 09:00,ZJHK 060900Z 11005MPS 9999 FEW015 BKN026 25/20 Q1015 NOSIG
ZJHK,2020-01-06 10:00,ZJHK 061000Z 11004MPS 9999 SCT033 24/20 Q1015 NOSIG
ZJHK,2020-01-06 11:00,ZJHK 061100Z 11003MPS 9999 FEW040 22/20 Q1016 NOSIG
ZJHK,2020-01-06 12:00,ZJHK 061200Z 10003MPS 9999 SCT010 22/20 Q1016 NOSIG
ZJHK,2020-01-06 13:00,ZJHK 061300Z 10003MPS 9999 BKN010 22/20 Q1017 NOSIG
ZJHK,2020-01-06 14:00,ZJHK 061400Z 11002MPS 080V140 9999 FEW012 21/20 Q1016 NOSIG
ZJHK,2020-01-06 15:00,ZJHK 061500Z 12001MPS 8000 BKN010 SCT040 21/20 Q1017 NOSIG
ZJHK,2020-01-06 16:00,ZJHK 061600Z 09002MPS 8000 BKN010 21/20 Q1016 NOSIG
ZJHK,2020-01-06 17:00,ZJHK 061700Z 11003MPS 6000 FEW006 SCT040 20/20 Q1015 NOSIG
ZJHK,2020-01-06 18:00,ZJHK 061800Z VRB01MPS 6000 FEW005 SCT040 20/20 Q1016 NOSIG
ZJHK,2020-01-06 19:00,ZJHK 061900Z VRB01MPS 7000 BKN040 21/20 Q1016 NOSIG
ZJHK,2020-01-06 20:00,ZJHK 062000Z 36002MPS 9999 BKN040 21/21 Q1016 NOSIG
ZJHK,2020-01-06 21:00,ZJHK 062100Z 08002MPS 9999 BKN040 21/21 Q1016 NOSIG
ZJHK,2020-01-06 22:00,ZJHK 062200Z 10002MPS 060V130 9999 BKN040 21/20 Q1016 NOSIG
ZJHK,2020-01-06 23:00,ZJHK 062300Z 12001MPS 6000 BCFG FEW040 20/20 Q1016 NOSIG
ZJHK,2020-01-07 00:00,ZJHK 070000Z 14002MPS 1600 R09/0500V0650N BR BCFG BKN002 20/20 Q1017 BECMG TL0100 3000 BR SCT010 BKN030
ZJHK,2020-01-07 01:00,ZJHK 070100Z VRB01MPS 0800 R09/0800V1200U FG BKN002 22/21 Q1018 BECMG AT0130 1600 BR BKN005
ZJHK,2020-01-07 02:00,ZJHK 070200Z 09002MPS 040V150 9999 BKN010 24/23 Q1018 BECMG AT0300 SCT016
ZJHK,2020-01-07 03:00,ZJHK 070300Z 10003MPS 060V140 9999 BKN016 26/22 Q1018 NOSIG
ZJHK,2020-01-07 04:00,ZJHK 070400Z 06003MPS 360V140 9999 SCT020 28/20 Q1017 NOSIG
ZJHK,2020-01-07 05:00,ZJHK 070500Z 02005MPS 350V050 9999 FEW020 27/22 Q1016 NOSIG
ZJHK,2020-01-07 06:00,ZJHK 070600Z 02006MPS 9999 BKN008 25/21 Q1016 NOSIG
ZJHK,2020-01-07 07:00,ZJHK 070700Z 04006MPS 9999 BKN008 25/21 Q1015 NOSIG
ZJHK,2020-01-07 08:00,ZJHK 070800Z 04006MPS 9999 SCT010 24/21 Q1015 NOSIG
ZJHK,2020-01-07 09:00,ZJHK 070900Z 04004MPS 9999 FEW023 24/21 Q1015 NOSIG
ZJHK,2020-01-07 10:00,ZJHK 071000Z 09005MPS 9999 FEW013 23/20 Q1015 NOSIG
ZJHK,2020-01-07 11:00,ZJHK 071100Z 11002MPS 9999 FEW013 22/20 Q1016 NOSIG
ZJHK,2020-01-07 12:00,ZJHK 071200Z 10003MPS 9999 SCT010 21/20 Q1017 BECMG TL1240 BKN010
ZJHK,2020-01-07 13:00,ZJHK 071300Z 12002MPS 9999 BKN008 21/20 Q1017 NOSIG
ZJHK,2020-01-07 14:00,ZJHK 071400Z VRB01MPS 9999 SCT008 20/19 Q1017 NOSIG
ZJHK,2020-01-07 15:00,ZJHK 071500Z VRB01MPS 7000 BKN003 20/20 Q1017 NOSIG
ZJHK,2020-01-07 16:00,ZJHK 071600Z 12002MPS 090V180 6000 BKN003 20/19 Q1018 NOSIG
ZJHK,2020-01-07 17:00,ZJHK 071700Z VRB01MPS 8000 BKN003 20/19 Q1018 NOSIG
ZJHK,2020-01-07 18:00,ZJHK 071800Z 00000MPS 9999 BKN007 20/20 Q1017 NOSIG
ZJHK,2020-01-07 19:00,ZJHK 071900Z 00000MPS 9999 BKN007 20/19 Q1017 NOSIG
ZJHK,2020-01-07 20:00,ZJHK 072000Z 08001MPS 9999 BKN010 20/19 Q1017 NOSIG
ZJHK,2020-01-07 21:00,ZJHK 072100Z VRB01MPS 9999 BKN012 20/19 Q1017 NOSIG
ZJHK,2020-01-07 22:00,ZJHK 072200Z 00000MPS CAVOK 19/18 Q1017 NOSIG
ZJHK,2020-01-07 23:00,ZJHK 072300Z 00000MPS 7000 BKN015 19/18 Q1017 NOSIG
ZJHK,2020-01-08 00:00,ZJHK 080000Z VRB01MPS 7000 FEW015 20/19 Q1018 NOSIG
ZJHK,2020-01-08 01:00,ZJHK 080100Z 03002MPS 330V080 9999 BKN018 22/21 Q1019 NOSIG
ZJHK,2020-01-08 02:00,ZJHK 080200Z 03003MPS 350V060 9999 FEW013 BKN020 23/20 Q1020 NOSIG
ZJHK,2020-01-08 03:00,ZJHK 080300Z 05005MPS 010V070 9999 FEW013 BKN020 23/19 Q1020 NOSIG
ZJHK,2020-01-08 04:00,ZJHK 080400Z 03004MPS 360V080 9999 FEW020 24/20 Q1019 NOSIG
ZJHK,2020-01-08 05:00,ZJHK 080500Z 06005MPS 020V090 9999 BKN023 26/20 Q1018 NOSIG
ZJHK,2020-01-08 06:00,ZJHK 080600Z 02004MPS 340V060 9999 FEW023 26/20 Q1016 NOSIG
ZJHK,2020-01-08 07:00,ZJHK 080700Z 03005MPS 360V070 9999 FEW030 25/19 Q1016 NOSIG
ZJHK,2020-01-08 08:00,ZJHK 080800Z 05006MPS 9999 FEW030 25/20 Q1016 NOSIG
ZJHK,2020-01-08 09:00,ZJHK 080900Z 07007MPS CAVOK 24/19 Q1016 NOSIG
ZJHK,2020-01-08 10:00,ZJHK 081000Z 08006MPS CAVOK 23/18 Q1016 NOSIG
ZJHK,2020-01-08 11:00,ZJHK 081100Z 10004MPS CAVOK 21/18 Q1016 NOSIG
ZJHK,2020-01-08 12:00,ZJHK 081200Z 10003MPS 9999 SCT012 21/19 Q1017 NOSIG
ZJHK,2020-01-08 13:00,ZJHK 081300Z 12002MPS 7000 FEW012 20/19 Q1017 NOSIG
ZJHK,2020-01-08 14:00,ZJHK 081400Z VRB01MPS 6000 FEW012 19/18 Q1017 NOSIG
ZJHK,2020-01-08 15:00,ZJHK 081500Z 14001MPS 5000 BR FEW012 20/19 Q1017 NOSIG
ZJHK,2020-01-08 16:00,ZJHK 081600Z 16001MPS 3000 BR BKN007 19/18 Q1017 BECMG AT1700 2000 BKN010
ZJHK,2020-01-08 17:00,ZJHK 081700Z 12002MPS 2500 BR BCFG FEW007 19/18 Q1017 NOSIG
ZJHK,2020-01-08 18:00,ZJHK 081800Z 11001MPS 1800 R09/0550V0750D BR BCFG FEW007 19/18 Q1016 BECMG AT1900 1400
ZJHK,2020-01-08 19:00,ZJHK 081900Z 10002MPS 2000 BR BCFG NSC 19/18 Q1016 NOSIG
ZJHK,2020-01-08 20:00,ZJHK 082000Z 00000MPS 1200 R27/P2000 BR BCFG NSC 18/17 Q1016 BECMG AT2100 1600
ZJHK,2020-01-08 21:00,ZJHK 082100Z 00000MPS 1200 R27/0300N BR BCFG NSC 17/17 Q1016 NOSIG
ZJHK,2020-01-08 22:00,ZJHK 082200Z 00000MPS 1200 R09/0550V0900U BR BCFG NSC 17/17 Q1016 BECMG AT0000 1600
ZJHK,2020-01-08 23:00,ZJHK 082300Z 18001MPS 1200 R09/0325V0550N BR BCFG FEW026 18/17 Q1016 BECMG AT0040 2000
ZJHK,2020-01-09 00:00,ZJHK 090000Z 27001MPS 1100 R09/0275V0450N BR BCFG FEW004 18/18 Q1017 NOSIG
ZJHK,2020-01-09 01:00,ZJHK 090100Z VRB01MPS 2000 R09/1100U BR PRFG SCT003 20/20 Q1018 BECMG AT0200 6000
ZJHK,2020-01-09 02:00,ZJHK 090200Z 10002MPS 030V160 9999 FEW010 SCT020 22/22 Q1018 NOSIG
ZJHK,2020-01-09 03:00,ZJHK 090300Z 12002MPS 080V200 9999 BKN020 25/21 Q1018 NOSIG
ZJHK,2020-01-09 04:00,ZJHK 090400Z VRB02MPS 9999 BKN020 26/20 Q1018 NOSIG
ZJHK,2020-01-09 05:00,ZJHK 090500Z 02004MPS 350V080 9999 FEW011 BKN023 25/20 Q1016 NOSIG
ZJHK,2020-01-09 06:00,ZJHK 090600Z 02005MPS 9999 FEW023TCU BKN023 26/21 Q1015 NOSIG
ZJHK,2020-01-09 07:00,ZJHK 090700Z 02006MPS 350V060 9999 FEW010 FEW023TCU BKN023 25/21 Q1015 NOSIG
ZJHK,2020-01-09 08:00,ZJHK 090800Z 06006MPS 9999 FEW010 FEW023TCU BKN023 25/20 Q1014 NOSIG
ZJHK,2020-01-09 09:00,ZJHK 090900Z 05006MPS 020V080 9999 FEW012 SCT020 24/20 Q1014 NOSIG
ZJHK,2020-01-09 10:00,ZJHK 091000Z 05005MPS 9999 SCT010 SCT020 23/20 Q1014 NOSIG
ZJHK,2020-01-09 11:00,ZJHK 091100Z 06005MPS 9999 SCT010 BKN020 22/20 Q1014 NOSIG
ZJHK,2020-01-09 12:00,ZJHK 091200Z 06005MPS 9999 SCT008 22/20 Q1015 NOSIG
ZJHK,2020-01-09 13:00,ZJHK 091300Z 09003MPS 8000 FEW008 SCT020 22/20 Q1015 NOSIG
ZJHK,2020-01-09 14:00,ZJHK 091400Z 11002MPS 7000 SCT008 SCT020 21/20 Q1015 NOSIG
ZJHK,2020-01-09 15:00,ZJHK 091500Z 10002MPS 070V130 6000 BKN007 BKN020 21/21 Q1015 NOSIG
ZJHK,2020-01-09 16:00,ZJHK 091600Z 07002MPS 040V110 7000 SCT007 BKN046 22/21 Q1015 NOSIG
ZJHK,2020-01-09 17:00,ZJHK 091700Z 09002MPS 7000 SCT007 BKN046 22/21 Q1015 NOSIG
ZJHK,2020-01-09 18:00,ZJHK 091800Z 10002MPS 6000 SCT006 SCT020 BKN046 22/21 Q1014 NOSIG
ZJHK,2020-01-09 19:00,ZJHK 091900Z 09001MPS 4500 BR SCT006 SCT020 21/20 Q1014 NOSIG
ZJHK,2020-01-09 20:00,ZJHK 092000Z VRB01MPS 4000 BR SCT005 SCT020 21/20 Q1014 NOSIG
ZJHK,2020-01-09 21:00,ZJHK 092100Z 16001MPS 3500 BR SCT008 SCT020 21/20 Q1014 NOSIG
ZJHK,2020-01-09 22:00,ZJHK 092200Z 00000MPS 3500 BR SCT008 BKN020 21/20 Q1014 NOSIG
ZJHK,2020-01-09 23:00,ZJHK 092300Z 10001MPS 6000 SCT010 SCT023 BKN040 21/20 Q1015 NOSIG
ZJHK,2020-01-10 00:00,ZJHK 100000Z 09002MPS 050V120 7000 FEW013 SCT023 22/21 Q1016 NOSIG
ZJHK,2020-01-10 01:00,ZJHK 100100Z 08004MPS 060V120 9999 FEW016 23/22 Q1016 NOSIG
ZJHK,2020-01-10 02:00,ZJHK 100200Z 10004MPS 9999 SCT016 25/21 Q1017 NOSIG
ZJHK,2020-01-10 03:00,ZJHK 100300Z 10004MPS 060V130 9999 BKN023 26/20 Q1017 NOSIG
ZJHK,2020-01-10 04:00,ZJHK 100400Z 09004MPS 060V120 9999 FEW023TCU BKN023 26/19 Q1016 NOSIG
ZJHK,2020-01-10 05:00,ZJHK 100500Z 08004MPS 9999 SCT020 SCT040 27/20 Q1015 NOSIG
ZJHK,2020-01-10 06:00,ZJHK 100600Z 08003MPS 060V120 9999 FEW016 FEW026TCU 27/20 Q1014 NOSIG
ZJHK,2020-01-10 07:00,ZJHK 100700Z 09004MPS 060V120 9999 SCT020 FEW026TCU BKN040 26/19 Q1013 NOSIG
ZJHK,2020-01-10 08:00,ZJHK 100800Z 09004MPS 060V120 9999 FEW020 SCT026 BKN046 25/19 Q1012 NOSIG
ZJHK,2020-01-10 09:00,ZJHK 100900Z 10005MPS 9999 SCT030 25/20 Q1012 NOSIG
ZJHK,2020-01-10 10:00,ZJHK 101000Z 11004MPS CAVOK 24/19 Q1013 NOSIG
ZJHK,2020-01-10 11:00,ZJHK 101100Z 12003MPS CAVOK 22/19 Q1013 NOSIG
ZJHK,2020-01-10 12:00,ZJHK 101200Z 12003MPS CAVOK 21/19 Q1014 NOSIG
ZJHK,2020-01-10 13:00,ZJHK 101300Z 12002MPS CAVOK 21/19 Q1014 NOSIG
ZJHK,2020-01-10 14:00,ZJHK 101400Z 11002MPS 9999 SCT015 SCT023 21/20 Q1014 NOSIG
ZJHK,2020-01-10 15:00,ZJHK 101500Z 12002MPS 7000 FEW015 20/19 Q1014 NOSIG
ZJHK,2020-01-10 16:00,ZJHK 101600Z 12001MPS 5000 R09/1100U BR BCFG FEW010 20/19 Q1014 NOSIG
ZJHK,2020-01-10 17:00,ZJHK 101700Z 08001MPS 3000 R09/0400N BR BCFG BKN008 20/19 Q1014 BECMG TL1830 0600 FG
ZJHK,2020-01-10 18:00,ZJHK 101800Z 13001MPS 5000 R09/1000D BR BCFG FEW010 19/18 Q1014 BECMG 0600 FG
ZJHK,2020-01-10 19:00,ZJHK 101900Z 10002MPS 2000 R09/0700V0900N BR BCFG BKN010 19/19 Q1014 BECMG 0500 FG
ZJHK,2020-01-10 20:00,ZJHK 102000Z 00000MPS 3000 BR BCFG BKN020 18/18 Q1013 NOSIG
ZJHK,2020-01-10 21:00,ZJHK 102100Z 19001MPS 2000 R09/0600V1000D BR BCFG NSC 18/18 Q1013 NOSIG
ZJHK,2020-01-10 22:00,ZJHK 102200Z 29001MPS 1500 BR BCFG FEW002 18/17 Q1014 NOSIG
ZJHK,2020-01-10 23:00,ZJHK 102300Z 00000MPS 1600 BR BCFG BKN004 BKN010 18/18 Q1014 NOSIG
ZJHK,2020-01-11 00:00,ZJHK 110000Z VRB01MPS 1600 BR BCFG BKN002 BKN010 20/19 Q1015 NOSIG
ZJHK,2020-01-11 01:00,ZJHK 110100Z 09003MPS 6000 SCT010 22/21 Q1015 NOSIG
ZJHK,2020-01-11 02:00,ZJHK 110200Z 10004MPS 9999 SCT013 24/22 Q1016 NOSIG
ZJHK,2020-01-11 03:00,ZJHK 110300Z 05004MPS 030V090 9999 BKN020 25/20 Q1016 NOSIG
ZJHK,2020-01-11 04:00,ZJHK 110400Z 04005MPS 010V070 9999 SCT020 25/21 Q1015 NOSIG
ZJHK,2020-01-11 05:00,ZJHK 110500Z 01004MPS 340V060 9999 BKN020 25/21 Q1014 NOSIG
ZJHK,2020-01-11 06:00,ZJHK 110600Z 04006MPS 9999 FEW013 BKN026 24/20 Q1014 NOSIG
ZJHK,2020-01-11 07:00,ZJHK 110700Z 05006MPS 9999 FEW013 BKN026 25/21 Q1013 NOSIG
ZJHK,2020-01-11 08:00,ZJHK 110800Z 08005MPS 030V100 9999 FEW026 27/20 Q1013 NOSIG
ZJHK,2020-01-11 09:00,ZJHK 110900Z 10005MPS CAVOK 25/20 Q1013 NOSIG
ZJHK,2020-01-11 10:00,ZJHK 111000Z 10004MPS CAVOK 23/20 Q1013 NOSIG
ZJHK,2020-01-11 11:00,ZJHK 111100Z 09004MPS CAVOK 22/20 Q1013 NOSIG
ZJHK,2020-01-11 12:00,ZJHK 111200Z 10002MPS 9999 FEW010 21/20 Q1014 NOSIG
ZJHK,2020-01-11 13:00,ZJHK 111300Z 09002MPS 040V110 9999 BKN007 21/20 Q1014 NOSIG
ZJHK,2020-01-11 14:00,ZJHK 111400Z 06003MPS 030V120 9999 BKN007 22/20 Q1015 NOSIG
ZJHK,2020-01-11 15:00,ZJHK 111500Z 06003MPS 030V090 9999 SCT016 22/20 Q1015 NOSIG
ZJHK,2020-01-11 16:00,ZJHK 111600Z 04005G11MPS 9999 BKN007 21/20 Q1015 NOSIG
ZJHK,2020-01-11 17:00,ZJHK 111700Z 03005MPS 360V060 9999 BKN007 20/17 Q1016 NOSIG
ZJHK,2020-01-11 18:00,ZJHK 111800Z 03005G10MPS 350V080 9999 BKN012 20/17 Q1016 NOSIG
ZJHK,2020-01-11 19:00,ZJHK 111900Z 03005MPS 9999 BKN012 BKN030 19/17 Q1015 NOSIG
ZJHK,2020-01-11 20:00,ZJHK 112000Z 02005MPS 9999 BKN012 BKN030 19/16 Q1015 NOSIG
ZJHK,2020-01-11 21:00,ZJHK 112100Z 03005MPS 350V070 9999 -RA BKN012 BKN020 19/17 Q1015 NOSIG
ZJHK,2020-01-11 22:00,ZJHK 112200Z 06005MPS 9999 BKN012 BKN020 20/17 Q1016 NOSIG
ZJHK,2020-01-11 23:00,ZJHK 112300Z 04005MPS 9999 BKN012 BKN026 20/17 Q1016 NOSIG
ZJHK,2020-01-12 00:00,ZJHK 120000Z 06005MPS 8000 BKN013 BKN026 20/17 Q1017 NOSIG
ZJHK,2020-01-12 01:00,ZJHK 120100Z 05006MPS 8000 -RA BKN013 OVC026 19/17 Q1018 NOSIG
ZJHK,2020-01-12 02:00,ZJHK 120200Z 06005MPS 9999 BKN013 OVC026 20/16 Q1018 NOSIG
ZJHK,2020-01-12 03:00,ZJHK 120300Z 06005MPS 9999 SCT015 OVC026 20/16 Q1019 NOSIG
ZJHK,2020-01-12 04:00,ZJHK 120400Z 05005MPS 020V080 9999 SCT015 OVC026 20/16 Q1018 NOSIG
ZJHK,2020-01-12 05:00,ZJHK 120500Z 05006MPS 9999 BKN016 OVC030 20/16 Q1017 NOSIG
ZJHK,2020-01-12 06:00,ZJHK 120600Z 05005MPS 020V090 9999 BKN016 OVC030 20/16 Q1016 NOSIG
ZJHK,2020-01-12 07:00,ZJHK 120700Z 06004MPS 030V110 9999 BKN018 OVC033 20/16 Q1015 NOSIG
ZJHK,2020-01-12 08:00,ZJHK 120800Z 04004MPS 360V090 9999 BKN018 OVC033 20/15 Q1015 NOSIG
ZJHK,2020-01-12 09:00,ZJHK 120900Z 05005MPS 020V080 9999 BKN020 BKN033 20/16 Q1015 NOSIG
ZJHK,2020-01-12 10:00,ZJHK 121000Z 08005MPS 9999 SCT015 BKN026 BKN040 19/16 Q1015 NOSIG
ZJHK,2020-01-12 11:00,ZJHK 121100Z 09005MPS 9999 BKN015 BKN026 18/16 Q1015 NOSIG
ZJHK,2020-01-12 12:00,ZJHK 121200Z 05004MPS 9999 BKN023 18/15 Q1015 NOSIG
ZJHK,2020-01-12 13:00,ZJHK 121300Z 06004MPS 9999 BKN023 18/16 Q1016 NOSIG
ZJHK,2020-01-12 14:00,ZJHK 121400Z 05003MPS 360V100 9999 BKN020 19/16 Q1017 NOSIG
ZJHK,2020-01-12 15:00,ZJHK 121500Z 05003MPS 360V080 9999 BKN023 19/16 Q1017 NOSIG
ZJHK,2020-01-12 16:00,ZJHK 121600Z 06004MPS 9999 BKN026 19/16 Q1017 NOSIG
ZJHK,2020-01-12 17:00,ZJHK 121700Z 06003MPS 030V090 9999 BKN020 19/16 Q1016 NOSIG
ZJHK,2020-01-12 18:00,ZJHK 121800Z 06003MPS 9999 BKN023 19/16 Q1016 NOSIG
ZJHK,2020-01-12 19:00,ZJHK 121900Z 06002MPS 9999 SCT026 19/17 Q1015 NOSIG
ZJHK,2020-01-12 20:00,ZJHK 122000Z VRB01MPS 9999 SCT030 19/17 Q1015 NOSIG
ZJHK,2020-01-12 21:00,ZJHK 122100Z 09002MPS 9999 BKN030 19/17 Q1015 NOSIG
ZJHK,2020-01-12 22:00,ZJHK 122200Z 11002MPS 9999 BKN033 19/17 Q1015 NOSIG
ZJHK,2020-01-12 23:00,ZJHK 122300Z 11002MPS 9999 BKN033 19/17 Q1015 NOSIG
ZJHK,2020-01-13 00:00,ZJHK 130000Z 10002MPS 9999 SCT040 20/17 Q1017 NOSIG
ZJHK,2020-01-13 01:00,ZJHK 130100Z 02002MPS 340V070 9999 FEW015 21/17 Q1017 NOSIG
ZJHK,2020-01-13 02:00,ZJHK 130200Z 08005MPS 050V110 9999 FEW013 SCT020 24/18 Q1017 NOSIG
ZJHK,2020-01-13 03:00,ZJHK 130300Z 08004MPS 9999 FEW013 BKN023 24/18 Q1018 NOSIG
ZJHK,2020-01-13 04:00,ZJHK 130400Z 04006MPS 9999 FEW023TCU SCT023 BKN046 23/18 Q1017 NOSIG
ZJHK,2020-01-13 05:00,ZJHK 130500Z 07007MPS 9999 BKN023 24/18 Q1016 NOSIG
ZJHK,2020-01-13 06:00,ZJHK 130600Z 08006MPS 060V120 9999 BKN023 26/19 Q1014 NOSIG
ZJHK,2020-01-13 07:00,ZJHK 130700Z 08006MPS 050V120 9999 SCT023 25/18 Q1014 NOSIG
ZJHK,2020-01-13 08:00,ZJHK 130800Z 10006MPS 9999 SCT023 25/18 Q1013 NOSIG
ZJHK,2020-01-13 09:00,ZJHK 130900Z 10005MPS 9999 SCT026 24/18 Q1013 NOSIG
ZJHK,2020-01-13 10:00,ZJHK 131000Z 12004MPS 9999 FEW011 SCT033 22/17 Q1014 NOSIG
ZJHK,2020-01-13 11:00,ZJHK 131100Z 11003MPS 9999 FEW040 20/17 Q1014 NOSIG
ZJHK,2020-01-13 12:00,ZJHK 131200Z 12002MPS CAVOK 20/17 Q1015 NOSIG
ZJHK,2020-01-13 13:00,ZJHK 131300Z 11001MPS CAVOK 19/17 Q1015 NOSIG
ZJHK,2020-01-13 14:00,ZJHK 131400Z 12002MPS 8000 SCT015 19/17 Q1016 NOSIG
ZJHK,2020-01-13 15:00,ZJHK 131500Z 11002MPS 8000 NSC 18/17 Q1016 NOSIG
ZJHK,2020-01-13 16:00,ZJHK 131600Z 12002MPS 8000 NSC 18/17 Q1016 NOSIG
ZJHK,2020-01-13 17:00,ZJHK 131700Z 00000MPS 6000 NSC 18/17 Q1016 NOSIG
ZJHK,2020-01-13 18:00,ZJHK 131800Z 04002MPS 020V080 7000 SCT013 BKN046 19/19 Q1016 NOSIG
ZJHK,2020-01-13 19:00,ZJHK 131900Z VRB01MPS 7000 FEW023TCU FEW033 19/18 Q1016 NOSIG
ZJHK,2020-01-13 20:00,ZJHK 132000Z 00000MPS 7000 FEW023TCU 18/18 Q1016 NOSIG
ZJHK,2020-01-13 21:00,ZJHK 132100Z 00000MPS 7000 FEW023TCU 19/18 Q1016 NOSIG
ZJHK,2020-01-13 22:00,ZJHK 132200Z 11002MPS 6000 FEW015 18/17 Q1016 NOSIG
ZJHK,2020-01-13 23:00,ZJHK 132300Z 12003MPS CAVOK 19/19 Q1017 NOSIG
ZJHK,2020-01-14 00:00,ZJHK 140000Z 12002MPS 8000 NSC 20/19 Q1017 NOSIG
ZJHK,2020-01-14 01:00,ZJHK 140100Z 11003MPS CAVOK 22/20 Q1018 NOSIG
ZJHK,2020-01-14 02:00,ZJHK 140200Z 12005MPS 080V140 9999 SCT020 23/19 Q1018 NOSIG
ZJHK,2020-01-14 03:00,ZJHK 140300Z 12005MPS 090V160 9999 BKN020 24/18 Q1018 NOSIG
ZJHK,2020-01-14 04:00,ZJHK 140400Z 11005MPS 9999 BKN023 26/18 Q1017 NOSIG
ZJHK,2020-01-14 05:00,ZJHK 140500Z 12005MPS 090V150 9999 SCT023 25/17 Q1016 NOSIG
ZJHK,2020-01-14 06:00,ZJHK 140600Z 12006MPS 9999 SCT023 26/17 Q1015 NOSIG
ZJHK,2020-01-14 07:00,ZJHK 140700Z 15005MPS 110V190 9999 FEW023 26/17 Q1014 NOSIG
ZJHK,2020-01-14 08:00,ZJHK 140800Z 14005MPS 110V180 9999 FEW023 26/17 Q1014 NOSIG
ZJHK,2020-01-14 09:00,ZJHK 140900Z 16005MPS 120V190 CAVOK 25/17 Q1014 NOSIG
ZJHK,2020-01-14 10:00,ZJHK 141000Z 14004MPS 100V180 CAVOK 23/17 Q1015 NOSIG
ZJHK,2020-01-14 11:00,ZJHK 141100Z 13003MPS CAVOK 22/17 Q1015 NOSIG
ZJHK,2020-01-14 12:00,ZJHK 141200Z 14001MPS CAVOK 20/17 Q1016 NOSIG
ZJHK,2020-01-14 13:00,ZJHK 141300Z 11002MPS CAVOK 19/17 Q1016 NOSIG
ZJHK,2020-01-14 14:00,ZJHK 141400Z 11002MPS CAVOK 18/17 Q1017 NOSIG
ZJHK,2020-01-14 15:00,ZJHK 141500Z 12002MPS CAVOK 18/16 Q1017 NOSIG
ZJHK,2020-01-14 16:00,ZJHK 141600Z 13002MPS CAVOK 18/16 Q1016 NOSIG
ZJHK,2020-01-14 17:00,ZJHK 141700Z 13002MPS 090V160 9999 FEW030 17/16 Q1017 NOSIG
ZJHK,2020-01-14 18:00,ZJHK 141800Z 14002MPS 9999 FEW030 17/16 Q1016 NOSIG
ZJHK,2020-01-14 19:00,ZJHK 141900Z 14002MPS CAVOK 17/16 Q1016 NOSIG
ZJHK,2020-01-14 20:00,ZJHK 142000Z 10001MPS CAVOK 16/15 Q1016 NOSIG
ZJHK,2020-01-14 21:00,ZJHK 142100Z 11001MPS CAVOK 16/15 Q1016 NOSIG
ZJHK,2020-01-14 22:00,ZJHK 142200Z 12002MPS CAVOK 16/15 Q1016 NOSIG
ZJHK,2020-01-14 23:00,ZJHK 142300Z 11002MPS 9999 FEW040 16/15 Q1017 NOSIG
ZJHK,2020-01-15 00:00,ZJHK 150000Z 11002MPS 9999 FEW040 17/16 Q1017 NOSIG
ZJHK,2020-01-15 01:00,ZJHK 150100Z 12002MPS 9999 FEW016 SCT040 19/18 Q1018 NOSIG
ZJHK,2020-01-15 02:00,ZJHK 150200Z 11004MPS CAVOK 23/19 Q1018 NOSIG
ZJHK,2020-01-15 03:00,ZJHK 150300Z 11005MPS 9999 SCT023 25/17 Q1018 NOSIG
ZJHK,2020-01-15 04:00,ZJHK 150400Z 12005MPS 090V160 9999 SCT023 26/17 Q1017 NOSIG
ZJHK,2020-01-15 05:00,ZJHK 150500Z 13006MPS 100V180 9999 SCT026 26/14 Q1015 NOSIG
ZJHK,2020-01-15 06:00,ZJHK 150600Z 15005MPS 110V180 9999 SCT030 28/15 Q1014 NOSIG
ZJHK,2020-01-15 07:00,ZJHK 150700Z 14005MPS 100V170 9999 FEW033 27/12 Q1013 NOSIG
ZJHK,2020-01-15 08:00,ZJHK 150800Z 12005MPS 100V160 9999 FEW033 27/16 Q1013 NOSIG
ZJHK,2020-01-15 09:00,ZJHK 150900Z 15004MPS 120V180 9999 FEW033 25/16 Q1013 NOSIG
ZJHK,2020-01-15 10:00,ZJHK 151000Z 13003MPS CAVOK 24/16 Q1014 NOSIG
ZJHK,2020-01-15 11:00,ZJHK 151100Z 14002MPS 100V160 CAVOK 22/17 Q1014 NOSIG
ZJHK,2020-01-15 12:00,ZJHK 151200Z 11002MPS 9999 BKN023 20/17 Q1014 NOSIG
ZJHK,2020-01-15 13:00,ZJHK 151300Z 11002MPS 9999 SCT016 20/17 Q1015 NOSIG
ZJHK,2020-01-15 14:00,ZJHK 151400Z 13002MPS CAVOK 20/18 Q1015 NOSIG
ZJHK,2020-01-15 15:00,ZJHK 151500Z 14002MPS CAVOK 19/18 Q1015 NOSIG
ZJHK,2020-01-15 16:00,ZJHK 151600Z 12002MPS 7000 NSC 18/17 Q1015 NOSIG
ZJHK,2020-01-15 17:00,ZJHK 151700Z 11002MPS 7000 NSC 18/17 Q1015 NOSIG
ZJHK,2020-01-15 18:00,ZJHK 151800Z 10002MPS 6000 NSC 18/17 Q1015 NOSIG
ZJHK,2020-01-15 19:00,ZJHK 151900Z 12002MPS 6000 NSC 18/18 Q1015 NOSIG
ZJHK,2020-01-15 20:00,ZJHK 152000Z 10002MPS 6000 BCFG NSC 18/18 Q1015 NOSIG
ZJHK,2020-01-15 21:00,ZJHK 152100Z 16002MPS 5000 BR BCFG SCT004 17/17 Q1015 NOSIG
ZJHK,2020-01-15 22:00,ZJHK 152200Z 14002MPS 5000 BR BCFG SCT004 17/17 Q1015 NOSIG
ZJHK,2020-01-15 23:00,ZJHK 152300Z 16003MPS 1200 R09/P2000 BR BCFG BKN004 18/17 Q1015 BECMG AT0040 1500 SCT004
ZJHK,2020-01-16 00:00,ZJHK 160000Z 04002MPS 330V080 CAVOK 19/18 Q1016 NOSIG
ZJHK,2020-01-16 01:00,ZJHK 160100Z 05002MPS 020V120 CAVOK 21/20 Q1017 NOSIG
ZJHK,2020-01-16 02:00,ZJHK 160200Z 11002MPS 080V170 CAVOK 24/21 Q1018 NOSIG
ZJHK,2020-01-16 03:00,ZJHK 160300Z 12003MPS 080V180 9999 FEW020 26/17 Q1017 NOSIG
ZJHK,2020-01-16 04:00,ZJHK 160400Z 11003MPS 050V190 9999 SCT026 27/17 Q1017 NOSIG
ZJHK,2020-01-16 05:00,ZJHK 160500Z VRB02MPS 9999 SCT026 27/15 Q1016 NOSIG
ZJHK,2020-01-16 06:00,ZJHK 160600Z 03003MPS 350V080 9999 SCT033 27/18 Q1015 NOSIG
ZJHK,2020-01-16 07:00,ZJHK 160700Z 02004MPS 340V070 9999 FEW033 27/19 Q1014 NOSIG
ZJHK,2020-01-16 08:00,ZJHK 160800Z 03005MPS 360V070 9999 FEW033 26/20 Q1014 NOSIG
ZJHK,2020-01-16 09:00,ZJHK 160900Z 03005MPS 360V060 9999 FEW030 25/20 Q1014 NOSIG
ZJHK,2020-01-16 10:00,ZJHK 161000Z 06005MPS 9999 FEW033 24/20 Q1015 NOSIG
ZJHK,2020-01-16 11:00,ZJHK 161100Z 08005MPS CAVOK 23/20 Q1015 NOSIG
ZJHK,2020-01-16 12:00,ZJHK 161200Z 11002MPS CAVOK 22/20 Q1016 NOSIG
ZJHK,2020-01-16 13:00,ZJHK 161300Z 11002MPS 8000 NSC 21/20 Q1017 BECMG AT1440 BKN010
ZJHK,2020-01-16 14:00,ZJHK 161400Z VRB01MPS 7000 FEW003 21/20 Q1017 BECMG AT1500 BKN010
ZJHK,2020-01-16 15:00,ZJHK 161500Z 09001MPS 3000 BR SCT002 BKN004 20/20 Q1017 NOSIG
ZJHK,2020-01-16 16:00,ZJHK 161600Z 10002MPS 040V130 0500 R09/P2000 FG VV002 21/20 Q1017 NOSIG
ZJHK,2020-01-16 17:00,ZJHK 161700Z VRB01MPS 0600 R09/1400N FG VV002 21/21 Q1017 NOSIG
ZJHK,2020-01-16 18:00,ZJHK 161800Z 00000MPS 0600 R09/0550V0700D FG BKN002 21/20 Q1017 NOSIG
ZJHK,2020-01-16 19:00,ZJHK 161900Z 00000MPS 0500 R09/P2000 FG VV002 21/20 Q1017 NOSIG
ZJHK,2020-01-16 20:00,ZJHK 162000Z 06002MPS 020V100 0500 R09/0800U FG VV002 21/21 Q1017 NOSIG
ZJHK,2020-01-16 21:00,ZJHK 162100Z 06002MPS 040V100 5000 BR BKN003 21/20 Q1017 BECMG AT2200 BKN005 BKN015
ZJHK,2020-01-16 22:00,ZJHK 162200Z 06004MPS 6000 -SHRA BKN003 FEW023TCU BKN023 21/21 Q1017 BECMG AT2300 BKN005 BKN015
ZJHK,2020-01-16 23:00,ZJHK 162300Z 02005MPS 340V050 6000 -SHRA BKN004 FEW023TCU BKN023 20/20 Q1018 BECMG AT0100 BKN005 BKN015
ZJHK,2020-01-17 00:00,ZJHK 170000Z 02004MPS 330V070 4000 BR BKN006 FEW023TCU BKN023 20/19 Q1019 NOSIG
ZJHK,2020-01-17 01:00,ZJHK 170100Z 04005MPS 7000 BKN006 FEW023TCU BKN023 20/19 Q1020 NOSIG
ZJHK,2020-01-17 02:00,ZJHK 170200Z 05005MPS 8000 BKN009 BKN026 21/19 Q1020 NOSIG
ZJHK,2020-01-17 03:00,ZJHK 170300Z 06004MPS 8000 BKN009 BKN030 21/19 Q1020 NOSIG
ZJHK,2020-01-17 04:00,ZJHK 170400Z 06005MPS 8000 BKN009 BKN030 21/19 Q1020 NOSIG
ZJHK,2020-01-17 05:00,ZJHK 170500Z 08006MPS 040V100 9999 BKN010 BKN030 21/18 Q1019 NOSIG
ZJHK,2020-01-17 06:00,ZJHK 170600Z 07005MPS 9999 BKN010 BKN030 21/18 Q1018 NOSIG
ZJHK,2020-01-17 07:00,ZJHK 170700Z 08005MPS 9999 BKN010 BKN030 21/18 Q1017 NOSIG
ZJHK,2020-01-17 08:00,ZJHK 170800Z 08006MPS 9999 BKN012 BKN030 21/18 Q1017 NOSIG
ZJHK,2020-01-17 09:00,ZJHK 170900Z 08005MPS 9999 BKN012 BKN030 21/18 Q1017 NOSIG
ZJHK,2020-01-17 10:00,ZJHK 171000Z 07005MPS 9999 BKN012 BKN030 21/18 Q1017 NOSIG
ZJHK,2020-01-17 11:00,ZJHK 171100Z 08004MPS 9999 BKN012 BKN030 20/18 Q1018 NOSIG
ZJHK,2020-01-17 12:00,ZJHK 171200Z 08005MPS 9999 BKN012 BKN020 20/18 Q1018 NOSIG
ZJHK,2020-01-17 13:00,ZJHK 171300Z 08004MPS 9999 BKN012 BKN020 20/18 Q1018 NOSIG
ZJHK,2020-01-17 14:00,ZJHK 171400Z 10003MPS 9999 BKN012 BKN026 20/17 Q1019 NOSIG
ZJHK,2020-01-17 15:00,ZJHK 171500Z 06004MPS 9999 BKN012 BKN026 20/18 Q1019 NOSIG
ZJHK,2020-01-17 16:00,ZJHK 171600Z 09005MPS 8000 BKN012 BKN026 20/18 Q1019 NOSIG
ZJHK,2020-01-17 17:00,ZJHK 171700Z 07004MPS 8000 BKN012 BKN026 20/18 Q1019 NOSIG
ZJHK,2020-01-17 18:00,ZJHK 171800Z 08005MPS 8000 BKN012 BKN026 20/18 Q1018 NOSIG
ZJHK,2020-01-17 19:00,ZJHK 171900Z 08003MPS 8000 BKN012 BKN026 20/18 Q1018 NOSIG
ZJHK,2020-01-17 20:00,ZJHK 172000Z 07003MPS 8000 SCT012 BKN026 19/17 Q1017 NOSIG
ZJHK,2020-01-17 21:00,ZJHK 172100Z 07003MPS 8000 BKN012 BKN026 19/18 Q1017 NOSIG
ZJHK,2020-01-17 22:00,ZJHK 172200Z 08004MPS 9999 SCT015 BKN026 20/18 Q1017 NOSIG
ZJHK,2020-01-17 23:00,ZJHK 172300Z 09004MPS 9999 SCT016 BKN030 20/18 Q1018 NOSIG
ZJHK,2020-01-18 00:00,ZJHK 180000Z 09005MPS 9999 BKN046 20/18 Q1018 NOSIG
ZJHK,2020-01-18 01:00,ZJHK 180100Z 10005MPS 9999 FEW013 21/18 Q1019 NOSIG
ZJHK,2020-01-18 02:00,ZJHK 180200Z 10007MPS 9999 FEW013 23/18 Q1019 NOSIG
ZJHK,2020-01-18 03:00,ZJHK 180300Z 11004MPS 070V130 9999 FEW020 22/18 Q1019 NOSIG
ZJHK,2020-01-18 04:00,ZJHK 180400Z 12004MPS 090V160 9999 FEW020 23/18 Q1018 NOSIG
ZJHK,2020-01-18 05:00,ZJHK 180500Z 10004MPS 060V130 9999 SCT023 25/18 Q1017 NOSIG
ZJHK,2020-01-18 06:00,ZJHK 180600Z 11004MPS 050V170 9999 SCT023 26/19 Q1016 NOSIG
ZJHK,2020-01-18 07:00,ZJHK 180700Z 14004MPS 100V180 9999 SCT023 26/18 Q1015 NOSIG
ZJHK,2020-01-18 08:00,ZJHK 180800Z 11005MPS 080V140 9999 FEW023 25/18 Q1014 NOSIG
ZJHK,2020-01-18 09:00,ZJHK 180900Z 10005MPS 080V140 9999 FEW016 SCT026 24/18 Q1015 NOSIG
ZJHK,2020-01-18 10:00,ZJHK 181000Z 12004MPS CAVOK 23/18 Q1015 NOSIG
ZJHK,2020-01-18 11:00,ZJHK 181100Z 11003MPS 9999 BKN026 SCT040 22/18 Q1016 NOSIG
ZJHK,2020-01-18 12:00,ZJHK 181200Z 11003MPS CAVOK 20/18 Q1017 NOSIG
ZJHK,2020-01-18 13:00,ZJHK 181300Z 11002MPS CAVOK 19/17 Q1017 NOSIG
ZJHK,2020-01-18 14:00,ZJHK 181400Z 11002MPS CAVOK 19/18 Q1018 NOSIG
ZJHK,2020-01-18 15:00,ZJHK 181500Z 13002MPS CAVOK 19/18 Q1018 NOSIG
ZJHK,2020-01-18 16:00,ZJHK 181600Z 12001MPS 8000 NSC 19/18 Q1018 NOSIG
ZJHK,2020-01-18 17:00,ZJHK 181700Z 11001MPS 8000 NSC 18/17 Q1017 NOSIG
ZJHK,2020-01-18 18:00,ZJHK 181800Z 10002MPS 8000 BKN046 18/18 Q1017 NOSIG
ZJHK,2020-01-18 19:00,ZJHK 181900Z 11001MPS 8000 SCT046 19/18 Q1017 NOSIG
ZJHK,2020-01-18 20:00,ZJHK 182000Z 12002MPS 9999 BKN033 20/19 Q1017 NOSIG
ZJHK,2020-01-18 21:00,ZJHK 182100Z 10002MPS 9999 BKN033 19/18 Q1017 NOSIG
ZJHK,2020-01-18 22:00,ZJHK 182200Z 12002MPS 9999 SCT046 20/18 Q1017 NOSIG
ZJHK,2020-01-18 23:00,ZJHK 182300Z 11001MPS 9999 BKN033 19/18 Q1018 NOSIG
ZJHK,2020-01-19 00:00,ZJHK 190000Z 15001MPS 9999 SCT033 20/19 Q1019 NOSIG
ZJHK,2020-01-19 01:00,ZJHK 190100Z 10002MPS 070V140 CAVOK 22/20 Q1020 NOSIG
ZJHK,2020-01-19 02:00,ZJHK 190200Z 10003MPS 060V140 9999 SCT023 23/19 Q1020 NOSIG
ZJHK,2020-01-19 03:00,ZJHK 190300Z 12003MPS 080V160 9999 BKN023 25/19 Q1020 NOSIG
ZJHK,2020-01-19 04:00,ZJHK 190400Z 03004MPS 350V070 9999 SCT020 25/20 Q1020 NOSIG
ZJHK,2020-01-19 05:00,ZJHK 190500Z 03005MPS 360V060 9999 FEW016TCU SCT016 24/19 Q1019 NOSIG
ZJHK,2020-01-19 06:00,ZJHK 190600Z 03007MPS 9999 FEW012 SCT020 BKN033 23/19 Q1018 NOSIG
ZJHK,2020-01-19 07:00,ZJHK 190700Z 04006MPS 9999 FEW012 FEW020TCU SCT020 BKN030 23/19 Q1017 NOSIG
ZJHK,2020-01-19 08:00,ZJHK 190800Z 03005MPS 9999 BKN016 BKN033 23/19 Q1017 NOSIG
ZJHK,2020-01-19 09:00,ZJHK 190900Z 05005MPS 020V080 9999 SCT013 BKN033 22/19 Q1018 NOSIG
ZJHK,2020-01-19 10:00,ZJHK 191000Z 05005MPS 9999 SCT013 BKN040 22/19 Q1018 NOSIG
ZJHK,2020-01-19 11:00,ZJHK 191100Z 07005MPS 8000 SCT026 21/19 Q1019 NOSIG
ZJHK,2020-01-19 12:00,ZJHK 191200Z 07005MPS 7000 SCT010 BKN033 21/19 Q1019 NOSIG
ZJHK,2020-01-19 13:00,ZJHK 191300Z 07005MPS 8000 BKN010 BKN033 21/19 Q1020 NOSIG
ZJHK,2020-01-19 14:00,ZJHK 191400Z 08006MPS 8000 SCT010 BKN033 21/19 Q1020 NOSIG
ZJHK,2020-01-19 15:00,ZJHK 191500Z 07005MPS 9000 SCT010 BKN033 21/18 Q1020 NOSIG
ZJHK,2020-01-19 16:00,ZJHK 191600Z 11004MPS 7000 FEW010 20/18 Q1019 NOSIG
ZJHK,2020-01-19 17:00,ZJHK 191700Z 10002MPS 6000 FEW010 19/18 Q1019 NOSIG
ZJHK,2020-01-19 18:00,ZJHK 191800Z 06002MPS 020V100 7000 SCT010 BKN026 20/19 Q1019 NOSIG
ZJHK,2020-01-19 19:00,ZJHK 191900Z 06002MPS 8000 SCT010 BKN026 20/19 Q1019 NOSIG
ZJHK,2020-01-19 20:00,ZJHK 192000Z 10003MPS 7000 FEW006 SCT010 BKN026 20/18 Q1018 NOSIG
ZJHK,2020-01-19 21:00,ZJHK 192100Z 10004MPS 7000 FEW010 20/18 Q1018 NOSIG
ZJHK,2020-01-19 22:00,ZJHK 192200Z 10003MPS 8000 FEW010 20/18 Q1018 NOSIG
ZJHK,2020-01-19 23:00,ZJHK 192300Z 11003MPS 9000 SCT010 SCT023 20/18 Q1019 NOSIG
ZJHK,2020-01-20 00:00,ZJHK 200000Z 11003MPS 8000 FEW010 SCT030 20/18 Q1020 NOSIG
ZJHK,2020-01-20 01:00,ZJHK 200100Z 10003MPS 070V130 9999 SCT013 BKN040 21/18 Q1021 NOSIG
ZJHK,2020-01-20 02:00,ZJHK 200200Z 14003MPS 080V180 8000 -RA SCT010 BKN033 21/18 Q1022 NOSIG
ZJHK,2020-01-20 03:00,ZJHK 200300Z 09006MPS 9999 SCT010 BKN033 23/19 Q1022 NOSIG
ZJHK,2020-01-20 04:00,ZJHK 200400Z 07005MPS 6000 -RA SCT010 BKN030 21/19 Q1021 NOSIG
ZJHK,2020-01-20 05:00,ZJHK 200500Z 08005MPS 8000 BKN026 22/19 Q1020 NOSIG
ZJHK,2020-01-20 06:00,ZJHK 200600Z 10005MPS 9999 FEW020 SCT040 23/19 Q1019 NOSIG
ZJHK,2020-01-20 07:00,ZJHK 200700Z 10005MPS 9999 FEW016 SCT026 24/19 Q1018 NOSIG
ZJHK,2020-01-20 08:00,ZJHK 200800Z 11004MPS 9999 FEW023 24/18 Q1018 NOSIG
ZJHK,2020-01-20 09:00,ZJHK 200900Z 11004MPS 9999 FEW010 BKN036 24/17 Q1018 NOSIG
ZJHK,2020-01-20 10:00,ZJHK 201000Z 11003MPS 9999 FEW040 23/17 Q1019 NOSIG
ZJHK,2020-01-20 11:00,ZJHK 201100Z 12003MPS CAVOK 21/17 Q1019 NOSIG
ZJHK,2020-01-20 12:00,ZJHK 201200Z 12003MPS CAVOK 20/17 Q1020 NOSIG
ZJHK,2020-01-20 13:00,ZJHK 201300Z 12002MPS CAVOK 19/17 Q1020 NOSIG
ZJHK,2020-01-20 14:00,ZJHK 201400Z 12001MPS CAVOK 18/17 Q1021 NOSIG
ZJHK,2020-01-20 15:00,ZJHK 201500Z 13001MPS CAVOK 17/16 Q1021 NOSIG
ZJHK,2020-01-20 16:00,ZJHK 201600Z 12002MPS CAVOK 17/16 Q1021 NOSIG
ZJHK,2020-01-20 17:00,ZJHK 201700Z 11002MPS 8000 NSC 17/16 Q1020 NOSIG
ZJHK,2020-01-20 18:00,ZJHK 201800Z VRB01MPS 6000 FEW013 16/16 Q1020 NOSIG
ZJHK,2020-01-20 19:00,ZJHK 201900Z 10001MPS 6000 SCT026 17/17 Q1020 NOSIG
ZJHK,2020-01-20 20:00,ZJHK 202000Z 09001MPS 6000 NSC 16/15 Q1019 NOSIG
ZJHK,2020-01-20 21:00,ZJHK 202100Z 12001MPS 6000 NSC 16/15 Q1019 NOSIG
ZJHK,2020-01-20 22:00,ZJHK 202200Z 12002MPS 6000 BCFG NSC 16/16 Q1020 NOSIG
ZJHK,2020-01-20 23:00,ZJHK 202300Z 00000MPS 5000 R09/0550V1100D BR BCFG NSC 16/15 Q1020 NOSIG
ZJHK,2020-01-21 00:00,ZJHK 210000Z 00000MPS 6000 NSC 17/17 Q1021 NOSIG
ZJHK,2020-01-21 01:00,ZJHK 210100Z 10002MPS 9999 FEW033 19/19 Q1022 NOSIG
ZJHK,2020-01-21 02:00,ZJHK 210200Z 10004MPS CAVOK 23/20 Q1022 NOSIG
ZJHK,2020-01-21 03:00,ZJHK 210300Z 11004MPS 080V160 9999 SCT020 24/18 Q1022 NOSIG
ZJHK,2020-01-21 04:00,ZJHK 210400Z 13003MPS 090V170 9999 BKN020 24/18 Q1022 NOSIG
ZJHK,2020-01-21 05:00,ZJHK 210500Z 10005MPS 9999 BKN030 26/18 Q1020 NOSIG
ZJHK,2020-01-21 06:00,ZJHK 210600Z 12005MPS 090V160 9999 SCT030 26/17 Q1019 NOSIG
ZJHK,2020-01-21 07:00,ZJHK 210700Z 12004MPS 090V160 9999 BKN030 26/17 Q1019 NOSIG
ZJHK,2020-01-21 08:00,ZJHK 210800Z 11005MPS 9999 SCT030 25/17 Q1018 NOSIG
ZJHK,2020-01-21 09:00,ZJHK 210900Z 12005MPS 090V150 9999 FEW030 24/17 Q1018 NOSIG
ZJHK,2020-01-21 10:00,ZJHK 211000Z 12004MPS 090V150 CAVOK 23/17 Q1018 NOSIG
ZJHK,2020-01-21 11:00,ZJHK 211100Z 12003MPS CAVOK 22/18 Q1019 NOSIG
ZJHK,2020-01-21 12:00,ZJHK 211200Z 11003MPS CAVOK 21/18 Q1019 NOSIG
ZJHK,2020-01-21 13:00,ZJHK 211300Z 11002MPS 080V140 9999 FEW020 20/18 Q1019 NOSIG
ZJHK,2020-01-21 14:00,ZJHK 211400Z 12002MPS CAVOK 20/18 Q1020 NOSIG
ZJHK,2020-01-21 15:00,ZJHK 211500Z 12002MPS CAVOK 19/18 Q1020 NOSIG
ZJHK,2020-01-21 16:00,ZJHK 211600Z 11002MPS CAVOK 19/18 Q1020 NOSIG
ZJHK,2020-01-21 17:00,ZJHK 211700Z 10002MPS CAVOK 19/18 Q1019 NOSIG
ZJHK,2020-01-21 18:00,ZJHK 211800Z 13004MPS CAVOK 20/19 Q1018 NOSIG
ZJHK,2020-01-21 19:00,ZJHK 211900Z 12002MPS 080V160 CAVOK 20/19 Q1017 NOSIG
ZJHK,2020-01-21 20:00,ZJHK 212000Z 10001MPS 7000 NSC 19/18 Q1017 NOSIG
ZJHK,2020-01-21 21:00,ZJHK 212100Z 10001MPS 7000 NSC 19/18 Q1017 NOSIG
ZJHK,2020-01-21 22:00,ZJHK 212200Z VRB01MPS 6000 NSC 19/18 Q1017 NOSIG
ZJHK,2020-01-21 23:00,ZJHK 212300Z 13002MPS 4000 BR BCFG NSC 18/18 Q1018 NOSIG
ZJHK,2020-01-22 00:00,ZJHK 220000Z 11001MPS 4000 BR BCFG FEW015 19/18 Q1018 NOSIG
ZJHK,2020-01-22 01:00,ZJHK 220100Z 04002MPS 360V080 8000 FEW013 BKN020 21/20 Q1019 NOSIG
ZJHK,2020-01-22 02:00,ZJHK 220200Z VRB01MPS 7000 -RA SCT013 BKN030 22/21 Q1020 NOSIG
ZJHK,2020-01-22 03:00,ZJHK 220300Z VRB01MPS 9999 SCT013 SCT023 BKN040 22/21 Q1020 NOSIG
ZJHK,2020-01-22 04:00,ZJHK 220400Z 15002MPS 110V190 9999 SCT020 SCT040 24/21 Q1019 NOSIG
ZJHK,2020-01-22 05:00,ZJHK 220500Z 13003MPS 080V200 9999 SCT020 BKN040 26/20 Q1018 NOSIG
ZJHK,2020-01-22 06:00,ZJHK 220600Z VRB02G07MPS 9999 BKN020 BKN040 26/20 Q1016 NOSIG
ZJHK,2020-01-22 07:00,ZJHK 220700Z 09004MPS 060V120 9999 SCT020 BKN040 26/21 Q1015 NOSIG
ZJHK,2020-01-22 08:00,ZJHK 220800Z 09006MPS 9999 SCT020 BKN040 25/21 Q1015 NOSIG
ZJHK,2020-01-22 09:00,ZJHK 220900Z 10005MPS 9999 BKN026 24/21 Q1015 NOSIG
ZJHK,2020-01-22 10:00,ZJHK 221000Z 08004MPS 050V110 9999 SCT016 BKN026 24/21 Q1016 NOSIG
ZJHK,2020-01-22 11:00,ZJHK 221100Z 09004MPS 9999 SCT016 BKN026 23/21 Q1016 NOSIG
ZJHK,2020-01-22 12:00,ZJHK 221200Z 11002MPS 9999 SCT016 22/20 Q1016 NOSIG
ZJHK,2020-01-22 13:00,ZJHK 221300Z 11003MPS CAVOK 21/20 Q1017 NOSIG
ZJHK,2020-01-22 14:00,ZJHK 221400Z 11003MPS 4500 BR BKN003 21/20 Q1017 NOSIG
ZJHK,2020-01-22 15:00,ZJHK 221500Z 12003MPS 0800 R09/1300U FG BKN002 21/20 Q1017 NOSIG
ZJHK,2020-01-22 16:00,ZJHK 221600Z 13002MPS 090V160 1100 R09/P2000 BR BKN002 20/20 Q1016 NOSIG
ZJHK,2020-01-22 17:00,ZJHK 221700Z 10002MPS 0500 R09/0650V0800N FG BKN002 20/20 Q1016 NOSIG
ZJHK,2020-01-22 18:00,ZJHK 221800Z 11001MPS 0400 R09/0400N FG VV002 20/20 Q1016 NOSIG
ZJHK,2020-01-22 19:00,ZJHK 221900Z 00000MPS 0400 R09/0550N FG VV002 20/20 Q1016 NOSIG
ZJHK,2020-01-22 20:00,ZJHK 222000Z VRB01MPS 1200 R09/1400U BR BKN004 21/20 Q1015 BECMG 0700 FG
ZJHK,2020-01-22 21:00,ZJHK 222100Z 11001MPS 1600 R09/0800V0900N BR BCFG BKN004 20/20 Q1015 BECMG 0700 FG
ZJHK,2020-01-22 22:00,ZJHK 222200Z VRB01MPS 0600 R09/0600V0800N FG BKN002 20/20 Q1015 BECMG 0800
ZJHK,2020-01-22 23:00,ZJHK 222300Z 00000MPS 2000 R09/0550N BR BCFG BKN010 19/19 Q1016 BECMG AT0000 3000 SCT010
ZJHK,2020-01-23 00:00,ZJHK 230000Z 00000MPS 0600 R09/0700V1200D FG SCT004 20/19 Q1016 BECMG AT0030 1500 BR
ZJHK,2020-01-23 01:00,ZJHK 230100Z 15001MPS 6000 FEW002 SCT004 BKN033 21/20 Q1017 NOSIG
ZJHK,2020-01-23 02:00,ZJHK 230200Z VRB01MPS 9999 FEW005 BKN016 BKN040 22/22 Q1018 NOSIG
ZJHK,2020-01-23 03:00,ZJHK 230300Z 22002MPS 170V260 9999 BKN016 SCT033 24/23 Q1018 NOSIG
ZJHK,2020-01-23 04:00,ZJHK 230400Z 21002MPS 160V250 9999 BKN020 25/21 Q1017 NOSIG
ZJHK,2020-01-23 05:00,ZJHK 230500Z 18004MPS 140V210 9999 BKN026 SCT040 28/18 Q1016 NOSIG
ZJHK,2020-01-23 06:00,ZJHK 230600Z 19003MPS 130V220 9999 FEW030 BKN040 28/18 Q1015 NOSIG
ZJHK,2020-01-23 07:00,ZJHK 230700Z 13004MPS 100V170 9999 FEW030 BKN040 27/19 Q1013 NOSIG
ZJHK,2020-01-23 08:00,ZJHK 230800Z 17004MPS 140V200 9999 BKN040 28/19 Q1013 NOSIG
ZJHK,2020-01-23 09:00,ZJHK 230900Z 18004MPS 140V200 9999 SCT040 27/19 Q1013 NOSIG
ZJHK,2020-01-23 10:00,ZJHK 231000Z 15004MPS 120V180 9999 FEW040 26/19 Q1013 NOSIG
ZJHK,2020-01-23 11:00,ZJHK 231100Z 13003MPS 100V160 CAVOK 24/19 Q1014 NOSIG
ZJHK,2020-01-23 12:00,ZJHK 231200Z 11003MPS CAVOK 22/19 Q1015 NOSIG
ZJHK,2020-01-23 13:00,ZJHK 231300Z 11002MPS CAVOK 22/20 Q1015 NOSIG
ZJHK,2020-01-23 14:00,ZJHK 231400Z 12003MPS CAVOK 21/20 Q1016 NOSIG
ZJHK,2020-01-23 15:00,ZJHK 231500Z 12002MPS 9000 NSC 21/20 Q1016 NOSIG
ZJHK,2020-01-23 16:00,ZJHK 231600Z 12001MPS 7000 FEW004 21/20 Q1016 NOSIG
ZJHK,2020-01-23 17:00,ZJHK 231700Z 12002MPS 5000 BR BCFG FEW002 SCT004 20/20 Q1016 NOSIG
ZJHK,2020-01-23 18:00,ZJHK 231800Z 14003MPS 5000 BR FEW002 BKN005 21/21 Q1016 BECMG TL1840 SCT005 BKN015
ZJHK,2020-01-23 19:00,ZJHK 231900Z 14002MPS 110V180 3500 BR FEW002 BKN003 21/21 Q1015 NOSIG
ZJHK,2020-01-23 20:00,ZJHK 232000Z 10002MPS 0800 R09/1100D FG VV002 21/20 Q1015 BECMG TL2030 0600 FG
ZJHK,2020-01-23 21:00,ZJHK 232100Z 11002MPS 1400 R09/1900U BR BKN002 21/21 Q1015 BECMG 0700 FG
ZJHK,2020-01-23 22:00,ZJHK 232200Z 12003MPS 100V160 4000 BR SCT002 BKN003 21/20 Q1015 BECMG 1000 BR
ZJHK,2020-01-23 23:00,ZJHK 232300Z 10001MPS 4000 BR FEW004 20/20 Q1016 NOSIG
ZJHK,2020-01-24 00:00,ZJHK 240000Z 11002MPS 4000 BR FEW023 20/20 Q1016 NOSIG
ZJHK,2020-01-24 01:00,ZJHK 240100Z 12003MPS CAVOK 22/22 Q1017 NOSIG
ZJHK,2020-01-24 02:00,ZJHK 240200Z 13004MPS 110V170 9999 FEW016 24/22 Q1018 NOSIG
ZJHK,2020-01-24 03:00,ZJHK 240300Z 14004MPS 110V190 9999 BKN020 26/22 Q1018 NOSIG
ZJHK,2020-01-24 04:00,ZJHK 240400Z 12005MPS 090V170 9999 BKN026 26/20 Q1017 NOSIG
ZJHK,2020-01-24 05:00,ZJHK 240500Z 15005MPS 110V180 9999 BKN026 26/20 Q1016 NOSIG
ZJHK,2020-01-24 06:00,ZJHK 240600Z 13005MPS 100V180 9999 SCT026 BKN043 26/19 Q1015 NOSIG
ZJHK,2020-01-24 07:00,ZJHK 240700Z 13004MPS 100V170 9999 SCT026 BKN043 26/19 Q1014 NOSIG
ZJHK,2020-01-24 08:00,ZJHK 240800Z 13005MPS 100V170 9999 SCT026 27/19 Q1014 NOSIG
ZJHK,2020-01-24 09:00,ZJHK 240900Z 12005MPS 090V160 9999 FEW030 26/19 Q1013 NOSIG
ZJHK,2020-01-24 10:00,ZJHK 241000Z 13004MPS 090V150 9999 FEW030 25/19 Q1014 NOSIG
ZJHK,2020-01-24 11:00,ZJHK 241100Z 12004MPS 9999 FEW046 23/19 Q1014 NOSIG
ZJHK,2020-01-24 12:00,ZJHK 241200Z 11003MPS 9999 FEW046 22/19 Q1015 NOSIG
ZJHK,2020-01-24 13:00,ZJHK 241300Z 11002MPS 090V150 9999 FEW046 21/19 Q1015 NOSIG
ZJHK,2020-01-24 14:00,ZJHK 241400Z 12002MPS 090V160 CAVOK 21/19 Q1016 NOSIG
ZJHK,2020-01-24 15:00,ZJHK 241500Z 11003MPS CAVOK 21/19 Q1016 NOSIG
ZJHK,2020-01-24 16:00,ZJHK 241600Z 11003MPS CAVOK 20/19 Q1016 NOSIG
ZJHK,2020-01-24 17:00,ZJHK 241700Z 14002MPS 8000 SCT016 20/19 Q1016 NOSIG
ZJHK,2020-01-24 18:00,ZJHK 241800Z 14002MPS 8000 SCT016 20/19 Q1015 NOSIG
ZJHK,2020-01-24 19:00,ZJHK 241900Z 11002MPS 080V140 7000 FEW015 20/19 Q1015 NOSIG
ZJHK,2020-01-24 20:00,ZJHK 242000Z 06002MPS 030V090 3000 BR BKN007 20/19 Q1015 NOSIG
ZJHK,2020-01-24 21:00,ZJHK 242100Z 09002MPS 2500 BR SCT010 BKN046 20/19 Q1015 BECMG AT2300 1200
ZJHK,2020-01-24 22:00,ZJHK 242200Z 11002MPS 3500 BR FEW010 SCT046 20/19 Q1014 NOSIG
ZJHK,2020-01-24 23:00,ZJHK 242300Z 11002MPS 4000 BR BCFG SCT046 20/19 Q1015 NOSIG
ZJHK,2020-01-25 00:00,ZJHK 250000Z 08003MPS 6000 SCT046 21/21 Q1015 NOSIG
ZJHK,2020-01-25 01:00,ZJHK 250100Z 11004MPS 9999 FEW020 23/22 Q1015 NOSIG
ZJHK,2020-01-25 02:00,ZJHK 250200Z 10005MPS 9999 BKN016 24/20 Q1015 NOSIG
ZJHK,2020-01-25 03:00,ZJHK 250300Z 12005MPS 080V160 9999 BKN023 26/19 Q1015 NOSIG
ZJHK,2020-01-25 04:00,ZJHK 250400Z 07006MPS 040V110 9999 SCT023 BKN046 26/20 Q1014 NOSIG
ZJHK,2020-01-25 05:00,ZJHK 250500Z 07006MPS 9999 BKN026 26/20 Q1014 NOSIG
ZJHK,2020-01-25 06:00,ZJHK 250600Z 05006MPS 9999 BKN026 26/20 Q1013 NOSIG
ZJHK,2020-01-25 07:00,ZJHK 250700Z 06007MPS 9999 BKN026 26/21 Q1012 NOSIG
ZJHK,2020-01-25 08:00,ZJHK 250800Z 04006MPS 010V080 9999 FEW023TCU BKN026 24/21 Q1011 NOSIG
ZJHK,2020-01-25 09:00,ZJHK 250900Z 06008MPS 9999 SCT013 FEW020CB BKN023 24/20 Q1011 NOSIG
ZJHK,2020-01-25 10:00,ZJHK 251000Z 08007MPS 9999 SCT010 FEW020TCU BKN023 23/20 Q1011 NOSIG
ZJHK,2020-01-25 11:00,ZJHK 251100Z 08006MPS 9999 BKN010 BKN023 22/20 Q1012 NOSIG
ZJHK,2020-01-25 12:00,ZJHK 251200Z 09006MPS 9999 BKN010 BKN026 22/20 Q1012 NOSIG
ZJHK,2020-01-25 13:00,ZJHK 251300Z 09004MPS 9999 BKN010 BKN026 22/20 Q1012 NOSIG
ZJHK,2020-01-25 14:00,ZJHK 251400Z 02003MPS 340V080 9999 BKN010 BKN026 22/20 Q1013 NOSIG
ZJHK,2020-01-25 15:00,ZJHK 251500Z 06002MPS 020V090 9999 SCT010 BKN026 22/20 Q1013 NOSIG
ZJHK,2020-01-25 16:00,ZJHK 251600Z 03003MPS 350V080 9999 SCT010 BKN026 22/21 Q1013 NOSIG
ZJHK,2020-01-25 17:00,ZJHK 251700Z 02003MPS 350V070 8000 BKN006 FEW020TCU BKN026 22/21 Q1013 NOSIG
ZJHK,2020-01-25 18:00,ZJHK 251800Z 36004MPS 310V030 8000 BKN006 BKN026 21/20 Q1013 NOSIG
ZJHK,2020-01-25 19:00,ZJHK 251900Z 03005MPS 9999 BKN005 BKN026 19/17 Q1013 NOSIG
ZJHK,2020-01-25 20:00,ZJHK 252000Z 36005MPS 9999 SCT006 BKN026 17/15 Q1013 NOSIG
ZJHK,2020-01-25 21:00,ZJHK 252100Z 34007MPS 9999 SCT006 BKN026 16/14 Q1014 NOSIG
ZJHK,2020-01-25 22:00,ZJHK 252200Z 36006MPS 9999 -RA SCT006 OVC026 15/13 Q1015 NOSIG
ZJHK,2020-01-25 23:00,ZJHK 252300Z 36004MPS 310V050 9999 SCT010 OVC026 15/13 Q1015 NOSIG
ZJHK,2020-01-26 00:00,ZJHK 260000Z 36004MPS 340V040 9999 SCT010 OVC026 16/14 Q1015 NOSIG
ZJHK,2020-01-26 01:00,ZJHK 260100Z 35004MPS 330V040 9999 SCT010 OVC026 16/14 Q1016 NOSIG
ZJHK,2020-01-26 02:00,ZJHK 260200Z 34004MPS 300V020 2000 -RA BR BKN007 OVC026 16/15 Q1017 BECMG TL0340 3500
ZJHK,2020-01-26 03:00,ZJHK 260300Z 34005MPS 300V020 9999 BKN007 OVC026 16/14 Q1017 NOSIG
ZJHK,2020-01-26 04:00,ZJHK 260400Z 33004MPS 300V040 9999 BKN007 OVC026 15/14 Q1017 NOSIG
ZJHK,2020-01-26 05:00,ZJHK 260500Z 33004MPS 300V040 9999 BKN007 BKN023 BKN040 15/13 Q1016 NOSIG
ZJHK,2020-01-26 06:00,ZJHK 260600Z 35005MPS 9999 BKN007 BKN023 BKN040 15/13 Q1015 NOSIG
ZJHK,2020-01-26 07:00,ZJHK 260700Z 35004MPS 320V020 6000 -RA BKN006 BKN023 BKN040 14/13 Q1015 NOSIG
ZJHK,2020-01-26 08:00,ZJHK 260800Z 36004MPS 330V030 7000 BKN006 BKN023 BKN040 14/13 Q1015 NOSIG
ZJHK,2020-01-26 09:00,ZJHK 260900Z 34004MPS 7000 -RA BKN006 OVC023 14/13 Q1015 BECMG TL0940 2000
ZJHK,2020-01-26 10:00,ZJHK 261000Z 35003MPS 280V050 8000 BKN008 OVC023 15/13 Q1015 NOSIG
ZJHK,2020-01-26 11:00,ZJHK 261100Z VRB02MPS 9999 BKN013 OVC023 15/13 Q1016 NOSIG
ZJHK,2020-01-26 12:00,ZJHK 261200Z 35003MPS 290V050 9999 BKN015 OVC023 15/13 Q1016 NOSIG
ZJHK,2020-01-26 13:00,ZJHK 261300Z 36002MPS 320V100 9999 BKN015 OVC023 16/13 Q1016 NOSIG
ZJHK,2020-01-26 14:00,ZJHK 261400Z 34004MPS 290V030 9999 BKN015 OVC023 16/12 Q1016 NOSIG
ZJHK,2020-01-26 15:00,ZJHK 261500Z 35005MPS 320V040 9999 BKN015 OVC023 15/12 Q1017 NOSIG
ZJHK,2020-01-26 16:00,ZJHK 261600Z 34004MPS 320V040 9999 BKN015 OVC023 14/11 Q1016 NOSIG
ZJHK,2020-01-26 17:00,ZJHK 261700Z 34004MPS 290V010 9999 BKN015 OVC023 14/11 Q1017 NOSIG
ZJHK,2020-01-26 18:00,ZJHK 261800Z 35005MPS 9999 BKN010 OVC023 13/11 Q1016 NOSIG
ZJHK,2020-01-26 19:00,ZJHK 261900Z 33003MPS 7000 BKN010 OVC023 13/12 Q1015 NOSIG
ZJHK,2020-01-26 20:00,ZJHK 262000Z 33004MPS 5000 -RA BR BKN005 OVC016 13/12 Q1015 NOSIG
ZJHK,2020-01-26 21:00,ZJHK 262100Z 34003MPS 320V020 6000 -RA BKN007 OVC016 13/12 Q1015 NOSIG
ZJHK,2020-01-26 22:00,ZJHK 262200Z 35002MPS 300V050 6000 -RA BKN007 OVC020 14/13 Q1015 NOSIG
ZJHK,2020-01-26 23:00,ZJHK 262300Z 35003MPS 320V040 4000 -RA BR BKN007 OVC020 14/12 Q1015 NOSIG
ZJHK,2020-01-27 00:00,ZJHK 270000Z 03003MPS 350V060 9999 BKN010 OVC020 15/14 Q1016 NOSIG
ZJHK,2020-01-27 01:00,ZJHK 270100Z 06004MPS 9999 -RA SCT010 OVC020 15/13 Q1017 NOSIG
ZJHK,2020-01-27 02:00,ZJHK 270200Z 04003MPS 340V080 9999 -RA FEW010 BKN023 OVC033 15/13 Q1018 RESHRA NOSIG
ZJHK,2020-01-27 03:00,ZJHK 270300Z 33004MPS 300V030 9999 -RA SCT010 BKN023 OVC033 14/12 Q1018 NOSIG
ZJHK,2020-01-27 04:00,ZJHK 270400Z 36004MPS 340V040 9999 SCT010 BKN023 OVC033 13/12 Q1017 NOSIG
ZJHK,2020-01-27 05:00,ZJHK 270500Z 36002MPS 340V050 9999 FEW007 BKN016 BKN033 15/13 Q1016 NOSIG
ZJHK,2020-01-27 06:00,ZJHK 270600Z 04005MPS 9999 FEW010 BKN018 OVC033 15/13 Q1015 NOSIG
ZJHK,2020-01-27 07:00,ZJHK 270700Z 04006MPS 010V070 9999 FEW010 BKN018 FEW020TCU BKN033 15/12 Q1014 NOSIG
ZJHK,2020-01-27 08:00,ZJHK 270800Z 06005MPS 9999 -SHRA FEW010 BKN018 FEW020TCU BKN033 14/12 Q1014 NOSIG
ZJHK,2020-01-27 09:00,ZJHK 270900Z 04003MPS 360V070 8000 -SHRA SCT010 FEW020TCU SCT020 OVC033 14/12 Q1015 RESHRA NOSIG
ZJHK,2020-01-27 10:00,ZJHK 271000Z 06004MPS 340V100 9999 -RA SCT010 BKN020 OVC046 14/13 Q1015 NOSIG
ZJHK,2020-01-27 11:00,ZJHK 271100Z 07004MPS 8000 -RA SCT005 BKN016 OVC046 14/13 Q1015 NOSIG
ZJHK,2020-01-27 12:00,ZJHK 271200Z 04003MPS 350V090 6000 -RA BKN010 BKN016 OVC046 14/13 Q1016 BECMG 2000 RA
ZJHK,2020-01-27 13:00,ZJHK 271300Z 03005MPS 360V060 8000 -RA BKN005 BKN016 14/13 Q1016 NOSIG
ZJHK,2020-01-27 14:00,ZJHK 271400Z 01003MPS 340V060 8000 FEW005 SCT010 BKN016 14/13 Q1016 NOSIG
ZJHK,2020-01-27 15:00,ZJHK 271500Z 35002MPS 280V060 6000 -RA SCT005 SCT010 BKN016 14/13 Q1017 NOSIG
ZJHK,2020-01-27 16:00,ZJHK 271600Z 08002MPS 050V110 8000 -RA SCT005 BKN012 BKN020 14/13 Q1017 NOSIG
ZJHK,2020-01-27 17:00,ZJHK 271700Z 07004MPS 9999 FEW005 SCT012 BKN020 14/13 Q1017 NOSIG
ZJHK,2020-01-27 18:00,ZJHK 271800Z 07004MPS 9999 FEW005 SCT020 BKN040 14/13 Q1016 NOSIG
ZJHK,2020-01-27 19:00,ZJHK 271900Z 06004MPS 9999 BKN020 BKN040 14/13 Q1016 NOSIG
ZJHK,2020-01-27 20:00,ZJHK 272000Z 05004MPS 9999 -SHRA BKN018 FEW020TCU BKN030 14/12 Q1016 NOSIG
ZJHK,2020-01-27 21:00,ZJHK 272100Z 03004MPS 8000 -SHRA BKN016 FEW020TCU BKN030 14/13 Q1017 NOSIG
ZJHK,2020-01-27 22:00,ZJHK 272200Z 04006MPS 9999 BKN016 OVC030 15/12 Q1017 NOSIG
ZJHK,2020-01-27 23:00,ZJHK 272300Z 06006MPS 9999 BKN018 BKN030 14/12 Q1017 NOSIG
ZJHK,2020-01-28 00:00,ZJHK 280000Z 07005MPS 9999 BKN020 BKN033 15/12 Q1017 NOSIG
ZJHK,2020-01-28 01:00,ZJHK 280100Z 06005MPS 020V080 9999 BKN020 15/12 Q1018 NOSIG
ZJHK,2020-01-28 02:00,ZJHK 280200Z 06006MPS 9999 BKN020 BKN033 15/12 Q1019 NOSIG
ZJHK,2020-01-28 03:00,ZJHK 280300Z 06006MPS 9999 BKN020 BKN033 15/11 Q1019 NOSIG
ZJHK,2020-01-28 04:00,ZJHK 280400Z 05006MPS 9999 BKN020 BKN033 16/12 Q1018 NOSIG
ZJHK,2020-01-28 05:00,ZJHK 280500Z 04005MPS 9999 BKN020 BKN033 16/11 Q1018 NOSIG
ZJHK,2020-01-28 06:00,ZJHK 280600Z 05006MPS 020V080 9999 BKN020 BKN033 16/11 Q1017 NOSIG
ZJHK,2020-01-28 07:00,ZJHK 280700Z 05005MPS 360V080 9999 BKN020 BKN033 16/11 Q1017 NOSIG
ZJHK,2020-01-28 08:00,ZJHK 280800Z 06006MPS 9999 SCT020 BKN040 15/10 Q1017 NOSIG
ZJHK,2020-01-28 09:00,ZJHK 280900Z 06005MPS 9999 -RA BKN020 BKN040 15/11 Q1017 NOSIG
ZJHK,2020-01-28 10:00,ZJHK 281000Z 05004MPS 9999 SCT033 15/10 Q1017 NOSIG
ZJHK,2020-01-28 11:00,ZJHK 281100Z 06004MPS 9999 -RA SCT033 15/10 Q1017 NOSIG
ZJHK,2020-01-28 12:00,ZJHK 281200Z 06005MPS 9999 -RA SCT020 15/11 Q1018 NOSIG
ZJHK,2020-01-28 13:00,ZJHK 281300Z 06005MPS 9999 -RA BKN020 14/11 Q1019 NOSIG
ZJHK,2020-01-28 14:00,ZJHK 281400Z 02002MPS 350V060 9999 -RA SCT015 BKN023 BKN043 14/11 Q1020 NOSIG
ZJHK,2020-01-28 15:00,ZJHK 281500Z 05003MPS 020V090 9999 SCT023 15/11 Q1020 NOSIG
ZJHK,2020-01-28 16:00,ZJHK 281600Z 35003MPS 300V050 9999 SCT015 SCT023 BKN043 15/11 Q1020 NOSIG
ZJHK,2020-01-28 17:00,ZJHK 281700Z 02003MPS 9999 SCT023 BKN043 15/11 Q1020 NOSIG
ZJHK,2020-01-28 18:00,ZJHK 281800Z 03003MPS 9999 BKN026 BKN046 15/11 Q1020 NOSIG
ZJHK,2020-01-28 19:00,ZJHK 281900Z 35003MPS 9999 BKN026 BKN046 15/12 Q1019 NOSIG
ZJHK,2020-01-28 20:00,ZJHK 282000Z 36002MPS 9999 -RA SCT020 BKN026 14/12 Q1019 NOSIG
ZJHK,2020-01-28 21:00,ZJHK 282100Z 06004MPS 9999 SCT020 BKN040 15/10 Q1019 NOSIG
ZJHK,2020-01-28 22:00,ZJHK 282200Z 06003MPS 9999 SCT020 BKN040 15/10 Q1020 NOSIG
ZJHK,2020-01-28 23:00,ZJHK 282300Z 04003MPS 9999 -RA SCT026 15/10 Q1020 NOSIG
ZJHK,2020-01-29 00:00,ZJHK 290000Z 06004MPS 9999 FEW026 15/10 Q1021 NOSIG
ZJHK,2020-01-29 01:00,ZJHK 290100Z 05005MPS 9999 FEW033 17/11 Q1021 NOSIG
ZJHK,2020-01-29 02:00,ZJHK 290200Z 05006MPS 9999 BKN033 18/11 Q1022 NOSIG
ZJHK,2020-01-29 03:00,ZJHK 290300Z 03006MPS 9999 OVC033 17/10 Q1022 NOSIG
ZJHK,2020-01-29 04:00,ZJHK 290400Z 04007MPS 9999 FEW026 OVC033 18/11 Q1021 NOSIG
ZJHK,2020-01-29 05:00,ZJHK 290500Z 04006MPS 9999 FEW026 OVC033 17/10 Q1021 NOSIG
ZJHK,2020-01-29 06:00,ZJHK 290600Z 03006MPS 9999 FEW026 BKN033 18/09 Q1019 NOSIG
ZJHK,2020-01-29 07:00,ZJHK 290700Z 03006MPS 360V080 9999 BKN033 18/10 Q1019 NOSIG
ZJHK,2020-01-29 08:00,ZJHK 290800Z 02005MPS 340V050 9999 SCT033 18/10 Q1019 NOSIG
ZJHK,2020-01-29 09:00,ZJHK 290900Z 04005MPS CAVOK 17/09 Q1019 NOSIG
ZJHK,2020-01-29 10:00,ZJHK 291000Z 04004MPS 360V070 CAVOK 16/09 Q1019 NOSIG
ZJHK,2020-01-29 11:00,ZJHK 291100Z 07003MPS CAVOK 15/09 Q1020 NOSIG
ZJHK,2020-01-29 12:00,ZJHK 291200Z 06003MPS 040V100 CAVOK 15/09 Q1020 NOSIG
ZJHK,2020-01-29 13:00,ZJHK 291300Z 10002MPS 060V130 CAVOK 13/09 Q1021 NOSIG
ZJHK,2020-01-29 14:00,ZJHK 291400Z VRB01MPS CAVOK 12/09 Q1021 NOSIG
ZJHK,2020-01-29 15:00,ZJHK 291500Z 00000MPS CAVOK 11/09 Q1021 NOSIG
ZJHK,2020-01-29 16:00,ZJHK 291600Z 02002MPS 340V060 CAVOK 15/10 Q1021 NOSIG
ZJHK,2020-01-29 17:00,ZJHK 291700Z 01004MPS CAVOK 15/09 Q1020 NOSIG
ZJHK,2020-01-29 18:00,ZJHK 291800Z 36002MPS CAVOK 14/10 Q1020 NOSIG
ZJHK,2020-01-29 19:00,ZJHK 291900Z 20003MPS 9999 FEW016 14/11 Q1020 NOSIG
ZJHK,2020-01-29 20:00,ZJHK 292000Z 22002MPS 9999 BKN040 13/10 Q1020 NOSIG
ZJHK,2020-01-29 21:00,ZJHK 292100Z 26002MPS 9999 BKN040 12/10 Q1020 NOSIG
ZJHK,2020-01-29 22:00,ZJHK 292200Z 25001MPS 9999 BKN040 13/10 Q1020 NOSIG
ZJHK,2020-01-29 23:00,ZJHK 292300Z 00000MPS 7000 FEW016 11/10 Q1021 NOSIG
ZJHK,2020-01-30 00:00,ZJHK 300000Z 06003MPS 9999 FEW020 14/10 Q1022 NOSIG
ZJHK,2020-01-30 01:00,ZJHK 300100Z 05005MPS CAVOK 17/08 Q1022 NOSIG
ZJHK,2020-01-30 02:00,ZJHK 300200Z 06007MPS CAVOK 18/09 Q1023 NOSIG
ZJHK,2020-01-30 03:00,ZJHK 300300Z 04008MPS CAVOK 19/09 Q1023 NOSIG
ZJHK,2020-01-30 04:00,ZJHK 300400Z 06006MPS 9999 FEW023 19/09 Q1022 NOSIG
ZJHK,2020-01-30 05:00,ZJHK 300500Z 04006MPS 9999 SCT033 18/09 Q1022 NOSIG
ZJHK,2020-01-30 06:00,ZJHK 300600Z 05006MPS 010V080 9999 FEW033 19/09 Q1020 NOSIG
ZJHK,2020-01-30 07:00,ZJHK 300700Z 04007MPS 9999 FEW033 19/09 Q1020 NOSIG
ZJHK,2020-01-30 08:00,ZJHK 300800Z 06005MPS CAVOK 19/07 Q1019 NOSIG
ZJHK,2020-01-30 09:00,ZJHK 300900Z 07005MPS 040V100 CAVOK 18/08 Q1019 NOSIG
ZJHK,2020-01-30 10:00,ZJHK 301000Z 06005MPS CAVOK 17/08 Q1020 NOSIG
ZJHK,2020-01-30 11:00,ZJHK 301100Z 06004MPS CAVOK 15/08 Q1020 NOSIG
ZJHK,2020-01-30 12:00,ZJHK 301200Z 06003MPS CAVOK 14/08 Q1021 NOSIG
ZJHK,2020-01-30 13:00,ZJHK 301300Z 06003MPS CAVOK 14/08 Q1021 NOSIG
ZJHK,2020-01-30 14:00,ZJHK 301400Z 08002MPS CAVOK 12/09 Q1021 NOSIG
ZJHK,2020-01-30 15:00,ZJHK 301500Z 10001MPS CAVOK 11/08 Q1021 NOSIG
ZJHK,2020-01-30 16:00,ZJHK 301600Z VRB01MPS CAVOK 11/09 Q1021 NOSIG
ZJHK,2020-01-30 17:00,ZJHK 301700Z 00000MPS CAVOK 10/09 Q1021 NOSIG
ZJHK,2020-01-30 18:00,ZJHK 301800Z 00000MPS CAVOK 10/09 Q1020 NOSIG
ZJHK,2020-01-30 19:00,ZJHK 301900Z 22001MPS 8000 R09/1400D BCFG NSC 09/08 Q1020 NOSIG
ZJHK,2020-01-30 20:00,ZJHK 302000Z 00000MPS 8000 R09/0800V1200U BCFG NSC 09/08 Q1020 NOSIG
ZJHK,2020-01-30 21:00,ZJHK 302100Z 25001MPS 8000 BCFG NSC 09/08 Q1020 NOSIG
ZJHK,2020-01-30 22:00,ZJHK 302200Z 25001MPS 8000 NSC 08/08 Q1020 NOSIG
ZJHK,2020-01-30 23:00,ZJHK 302300Z 22001MPS 8000 NSC 09/08 Q1021 NOSIG
ZJHK,2020-01-31 00:00,ZJHK 310000Z 00000MPS 8000 NSC 10/09 Q1022 NOSIG
ZJHK,2020-01-31 01:00,ZJHK 310100Z VRB01MPS CAVOK 14/13 Q1022 NOSIG
ZJHK,2020-01-31 02:00,ZJHK 310200Z 08004MPS 050V110 CAVOK 20/12 Q1023 NOSIG
ZJHK,2020-01-31 03:00,ZJHK 310300Z 09006MPS 060V120 CAVOK 21/10 Q1022 NOSIG
ZJHK,2020-01-31 04:00,ZJHK 310400Z 08006MPS 040V130 9999 FEW026 22/09 Q1022 NOSIG
ZJHK,2020-01-31 05:00,ZJHK 310500Z 07006MPS 030V120 9999 FEW030 23/10 Q1020 NOSIG
ZJHK,2020-01-31 06:00,ZJHK 310600Z 08006MPS 030V100 9999 FEW030 23/09 Q1019 NOSIG
ZJHK,2020-01-31 07:00,ZJHK 310700Z 08007MPS CAVOK 22/10 Q1018 NOSIG
ZJHK,2020-01-31 08:00,ZJHK 310800Z 08008MPS CAVOK 22/11 Q1018 NOSIG
ZJHK,2020-01-31 09:00,ZJHK 310900Z 07008MPS CAVOK 20/11 Q1018 NOSIG
ZJHK,2020-01-31 10:00,ZJHK 311000Z 09007MPS CAVOK 19/12 Q1019 NOSIG
ZJHK,2020-01-31 11:00,ZJHK 311100Z 08006MPS CAVOK 18/13 Q1019 NOSIG
ZJHK,2020-01-31 12:00,ZJHK 311200Z 06004MPS CAVOK 17/13 Q1020 NOSIG
ZJHK,2020-01-31 13:00,ZJHK 311300Z 09003MPS CAVOK 16/13 Q1020 NOSIG
ZJHK,2020-01-31 14:00,ZJHK 311400Z 12002MPS CAVOK 15/12 Q1021 NOSIG
ZJHK,2020-01-31 15:00,ZJHK 311500Z 11002MPS 060V130 CAVOK 14/12 Q1021 NOSIG
ZJHK,2020-01-31 16:00,ZJHK 311600Z 11002MPS CAVOK 14/12 Q1021 NOSIG
ZJHK,2020-01-31 17:00,ZJHK 311700Z 13001MPS CAVOK 13/11 Q1020 NOSIG
ZJHK,2020-01-31 18:00,ZJHK 311800Z 11001MPS CAVOK 12/11 Q1020 NOSIG
ZJHK,2020-01-31 19:00,ZJHK 311900Z 15002MPS CAVOK 13/12 Q1019 NOSIG
ZJHK,2020-01-31 20:00,ZJHK 312000Z 00000MPS CAVOK 14/12 Q1019 NOSIG
ZJHK,2020-01-31 21:00,ZJHK 312100Z 14001MPS CAVOK 14/12 Q1019 NOSIG
ZJHK,2020-01-31 22:00,ZJHK 312200Z 09001MPS CAVOK 14/13 Q1019 NOSIG
ZJHK,2020-01-31 23:00,ZJHK 312300Z 08002MPS 060V120 CAVOK 14/12 Q1020 NOSIG
ZJHK,2020-02-01 00:00,ZJHK 010000Z 11002MPS CAVOK 15/13 Q1021 NOSIG
ZJHK,2020-02-01 01:00,ZJHK 010100Z 10003MPS CAVOK 18/15 Q1021 NOSIG
ZJHK,2020-02-01 02:00,ZJHK 010200Z 10006MPS CAVOK 20/15 Q1021 NOSIG
ZJHK,2020-02-01 03:00,ZJHK 010300Z 10007MPS 9999 FEW033 22/14 Q1021 NOSIG
ZJHK,2020-02-01 04:00,ZJHK 010400Z 10006MPS 070V140 9999 FEW030 BKN046 24/14 Q1020 NOSIG
ZJHK,2020-02-01 05:00,ZJHK 010500Z 10005MPS 9999 FEW030 BKN046 23/14 Q1019 NOSIG
ZJHK,2020-02-01 06:00,ZJHK 010600Z 06006MPS 9999 SCT030 BKN046 22/15 Q1018 NOSIG
ZJHK,2020-02-01 07:00,ZJHK 010700Z 06005MPS 9999 BKN030 BKN046 21/15 Q1018 NOSIG
ZJHK,2020-02-01 08:00,ZJHK 010800Z 07005MPS 9999 -RA BKN030 BKN046 20/16 Q1018 NOSIG
ZJHK,2020-02-01 09:00,ZJHK 010900Z 08002MPS 030V120 9999 -RA BKN030 BKN046 20/16 Q1018 NOSIG
ZJHK,2020-02-01 10:00,ZJHK 011000Z 11003MPS 9999 FEW046 20/16 Q1018 NOSIG
ZJHK,2020-02-01 11:00,ZJHK 011100Z 10003MPS CAVOK 19/16 Q1019 NOSIG
ZJHK,2020-02-01 12:00,ZJHK 011200Z 12003MPS CAVOK 19/16 Q1019 NOSIG
ZJHK,2020-02-01 13:00,ZJHK 011300Z 11002MPS CAVOK 18/16 Q1019 NOSIG
ZJHK,2020-02-01 14:00,ZJHK 011400Z 12001MPS CAVOK 17/15 Q1020 NOSIG
ZJHK,2020-02-01 15:00,ZJHK 011500Z 11002MPS CAVOK 17/16 Q1019 NOSIG
ZJHK,2020-02-01 16:00,ZJHK 011600Z 12002MPS 8000 NSC 17/16 Q1019 NOSIG
ZJHK,2020-02-01 17:00,ZJHK 011700Z 11002MPS 7000 NSC 17/15 Q1019 NOSIG
ZJHK,2020-02-01 18:00,ZJHK 011800Z 12002MPS 6000 NSC 16/15 Q1019 NOSIG
ZJHK,2020-02-01 19:00,ZJHK 011900Z 00000MPS 6000 R09/1000U BCFG NSC 15/15 Q1019 NOSIG
ZJHK,2020-02-01 20:00,ZJHK 012000Z 00000MPS 5000 R09/0450V0750U BR BCFG FEW025 15/14 Q1019 NOSIG
ZJHK,2020-02-01 21:00,ZJHK 012100Z 00000MPS 4000 BR BCFG NSC 15/15 Q1019 NOSIG
ZJHK,2020-02-01 22:00,ZJHK 012200Z 13003MPS 4000 BR NSC 17/17 Q1019 NOSIG
ZJHK,2020-02-01 23:00,ZJHK 012300Z 11002MPS 6000 NSC 18/17 Q1019 NOSIG
ZJHK,2020-02-02 00:00,ZJHK 020000Z 00000MPS 4000 BR NSC 17/17 Q1020 NOSIG
ZJHK,2020-02-02 01:00,ZJHK 020100Z VRB01MPS 6000 FEW020 19/18 Q1021 NOSIG
ZJHK,2020-02-02 03:00,ZJHK 020300Z 12003MPS 080V180 9999 SCT023 24/20 Q1021 NOSIG
ZJHK,2020-02-02 04:00,ZJHK 020400Z 15005MPS 100V180 9999 SCT023 26/17 Q1020 NOSIG
ZJHK,2020-02-02 05:00,ZJHK 020500Z 14003MPS 080V180 9999 BKN023 25/17 Q1019 NOSIG
ZJHK,2020-02-02 06:00,ZJHK 020600Z 04006MPS 9999 -SHRA BKN023 FEW026TCU 24/19 Q1019 NOSIG
ZJHK,2020-02-02 07:00,ZJHK 020700Z 08005MPS 9999 FEW023 FEW026TCU 26/19 Q1017 NOSIG
ZJHK,2020-02-02 08:00,ZJHK 020800Z 10006MPS 9999 FEW026TCU SCT033 26/19 Q1017 NOSIG
ZJHK,2020-02-02 09:00,ZJHK 020900Z 10006MPS 9999 FEW026TCU SCT040 24/18 Q1017 NOSIG
ZJHK,2020-02-02 10:00,ZJHK 021000Z 10003MPS 9999 SCT040 22/19 Q1018 NOSIG
ZJHK,2020-02-02 11:00,ZJHK 021100Z 11002MPS 9999 FEW023 SCT040 21/18 Q1018 NOSIG
ZJHK,2020-02-02 12:00,ZJHK 021200Z 12002MPS CAVOK 20/17 Q1018 NOSIG
ZJHK,2020-02-02 13:00,ZJHK 021300Z 10002MPS CAVOK 19/17 Q1019 NOSIG
ZJHK,2020-02-02 14:00,ZJHK 021400Z 13001MPS 8000 NSC 18/17 Q1019 NOSIG
ZJHK,2020-02-02 15:00,ZJHK 021500Z 00000MPS 6000 NSC 18/17 Q1019 NOSIG
ZJHK,2020-02-02 16:00,ZJHK 021600Z 11002MPS 5000 BR NSC 17/16 Q1019 NOSIG
ZJHK,2020-02-02 17:00,ZJHK 021700Z 11001MPS 5000 R09/0400V0750D BR BCFG NSC 17/17 Q1019 NOSIG
ZJHK,2020-02-02 18:00,ZJHK 021800Z 00000MPS 4000 R09/0250N BR BCFG NSC 17/16 Q1019 NOSIG
ZJHK,2020-02-02 19:00,ZJHK 021900Z 00000MPS 3000 R09/0275D BR BCFG SCT020 15/14 Q1018 NOSIG
ZJHK,2020-02-02 20:00,ZJHK 022000Z 00000MPS 3000 R09/0275V0500N BR BCFG SCT010 16/16 Q1018 NOSIG
ZJHK,2020-02-02 21:00,ZJHK 022100Z 00000MPS 3000 R09/0225N BR BCFG SCT010 16/15 Q1018 NOSIG
ZJHK,2020-02-02 22:00,ZJHK 022200Z 00000MPS 0800 R09/0600V0800U FG FEW010 16/15 Q1018 NOSIG
ZJHK,2020-02-02 23:00,ZJHK 022300Z 00000MPS 5000 BR FEW010 BKN033 16/16 Q1019 NOSIG
ZJHK,2020-02-03 00:00,ZJHK 030000Z 00000MPS 4000 BR BCFG NSC 17/16 Q1019 NOSIG
ZJHK,2020-02-03 01:00,ZJHK 030100Z VRB01MPS 4000 BR BCFG NSC 20/19 Q1019 NOSIG
ZJHK,2020-02-03 02:00,ZJHK 030200Z 12003MPS 080V160 CAVOK 22/21 Q1020 NOSIG
ZJHK,2020-02-03 03:00,ZJHK 030300Z 13004MPS 090V170 9999 SCT023 24/19 Q1020 NOSIG
ZJHK,2020-02-03 04:00,ZJHK 030400Z 15005MPS 110V170 9999 SCT023 25/18 Q1018 NOSIG
ZJHK,2020-02-03 05:00,ZJHK 030500Z 13004MPS 100V180 9999 BKN023 27/17 Q1017 NOSIG
ZJHK,2020-02-03 06:00,ZJHK 030600Z 15004MPS 100V190 9999 BKN030 26/17 Q1016 NOSIG
ZJHK,2020-02-03 07:00,ZJHK 030700Z 14003MPS 100V190 9999 SCT030 26/17 Q1015 NOSIG
ZJHK,2020-02-03 08:00,ZJHK 030800Z 16004MPS 110V200 9999 SCT030 27/18 Q1015 NOSIG
ZJHK,2020-02-03 09:00,ZJHK 030900Z 13004MPS 110V170 9999 SCT040 25/17 Q1015 NOSIG
ZJHK,2020-02-03 10:00,ZJHK 031000Z 13003MPS 9999 FEW040 24/17 Q1016 NOSIG
ZJHK,2020-02-03 11:00,ZJHK 031100Z 12002MPS CAVOK 22/17 Q1016 NOSIG
ZJHK,2020-02-03 12:00,ZJHK 031200Z 11002MPS CAVOK 20/17 Q1017 NOSIG
ZJHK,2020-02-03 13:00,ZJHK 031300Z 12001MPS CAVOK 19/16 Q1018 NOSIG
ZJHK,2020-02-03 14:00,ZJHK 031400Z 00000MPS CAVOK 18/17 Q1018 NOSIG
ZJHK,2020-02-03 15:00,ZJHK 031500Z 00000MPS CAVOK 17/16 Q1018 NOSIG
ZJHK,2020-02-03 16:00,ZJHK 031600Z 00000MPS CAVOK 17/17 Q1018 NOSIG
ZJHK,2020-02-03 17:00,ZJHK 031700Z 09001MPS 6000 R09/1300D BCFG NSC 17/16 Q1018 NOSIG
ZJHK,2020-02-03 18:00,ZJHK 031800Z 10002MPS 4000 R09/0300N BR BCFG SCT010 17/17 Q1018 NOSIG
ZJHK,2020-02-03 19:00,ZJHK 031900Z 10001MPS 0300 R09/0325N FG VV002 18/17 Q1018 NOSIG
ZJHK,2020-02-03 20:00,ZJHK 032000Z 07002MPS 0300 R09/0325N FG VV002 19/19 Q1017 NOSIG
ZJHK,2020-02-03 21:00,ZJHK 032100Z 07003MPS 0400 R09/0500N FG VV002 20/19 Q1017 NOSIG
ZJHK,2020-02-03 22:00,ZJHK 032200Z 10004MPS 5000 BR BKN003 BKN012 20/19 Q1017 NOSIG
ZJHK,2020-02-03 23:00,ZJHK 032300Z 08004MPS 6000 BKN005 BKN016 20/19 Q1018 NOSIG
ZJHK,2020-02-04 00:00,ZJHK 040000Z 05004MPS 4000 BR BKN005 BKN016 19/19 Q1018 NOSIG
ZJHK,2020-02-04 01:00,ZJHK 040100Z 05003MPS 6000 BKN005 BKN020 20/19 Q1019 BECMG AT0200 BKN010
ZJHK,2020-02-04 02:00,ZJHK 040200Z 06004MPS 9999 BKN009 SCT023 21/19 Q1020 BECMG AT0300 BKN010
ZJHK,2020-02-04 03:00,ZJHK 040300Z 07005MPS 9999 BKN010 BKN020 21/19 Q1020 NOSIG
ZJHK,2020-02-04 04:00,ZJHK 040400Z 06004MPS 6000 -RA BKN008 BKN020 20/19 Q1019 NOSIG
ZJHK,2020-02-04 05:00,ZJHK 040500Z 07004MPS 8000 BKN008 BKN020 20/19 Q1018 NOSIG
ZJHK,2020-02-04 06:00,ZJHK 040600Z 06004MPS 9999 BKN009 BKN020 21/18 Q1017 BECMG AT0700 BKN011 BKN020
ZJHK,2020-02-04 07:00,ZJHK 040700Z 06006MPS 9999 BKN010 BKN020 21/18 Q1016 NOSIG
ZJHK,2020-02-04 08:00,ZJHK 040800Z 06005MPS 9999 BKN010 BKN020 21/18 Q1016 NOSIG
ZJHK,2020-02-04 09:00,ZJHK 040900Z 07006MPS 9999 BKN012 BKN020 21/18 Q1016 NOSIG
ZJHK,2020-02-04 10:00,ZJHK 041000Z 06006MPS 9999 BKN012 BKN020 21/18 Q1017 NOSIG
ZJHK,2020-02-04 11:00,ZJHK 041100Z 06006MPS 9999 BKN009 BKN016 BKN023 20/18 Q1017 NOSIG
ZJHK,2020-02-04 12:00,ZJHK 041200Z 07005MPS 9999 BKN009 BKN016 20/18 Q1018 NOSIG
ZJHK,2020-02-04 13:00,ZJHK 041300Z 08006MPS 9999 BKN009 BKN016 20/18 Q1018 BECMG AT1400 BKN010 BKN016
ZJHK,2020-02-04 14:00,ZJHK 041400Z 08004MPS 9999 BKN009 BKN016 20/18 Q1019 NOSIG
ZJHK,2020-02-04 15:00,ZJHK 041500Z 06004MPS 9999 BKN009 BKN016 20/18 Q1019 NOSIG
ZJHK,2020-02-04 16:00,ZJHK 041600Z 06004MPS 9999 BKN009 BKN016 20/18 Q1019 NOSIG
ZJHK,2020-02-04 17:00,ZJHK 041700Z 06004MPS 9999 BKN009 BKN016 20/18 Q1019 NOSIG
ZJHK,2020-02-04 18:00,ZJHK 041800Z 06005MPS 8000 BKN009 BKN016 20/18 Q1019 NOSIG
ZJHK,2020-02-04 19:00,ZJHK 041900Z 06005MPS 8000 BKN009 BKN016 19/18 Q1018 NOSIG
ZJHK,2020-02-04 20:00,ZJHK 042000Z 08006MPS 8000 BKN007 BKN016 19/18 Q1017 NOSIG
ZJHK,2020-02-04 21:00,ZJHK 042100Z 07005MPS 7000 BKN007 BKN016 19/17 Q1017 NOSIG
ZJHK,2020-02-04 22:00,ZJHK 042200Z 09004MPS 7000 BKN007 BKN016 19/17 Q1017 NOSIG
ZJHK,2020-02-04 23:00,ZJHK 042300Z 10003MPS 7000 BKN009 BKN020 19/18 Q1018 NOSIG
ZJHK,2020-02-05 00:00,ZJHK 050000Z 10002MPS 6000 SCT010 19/18 Q1019 NOSIG
ZJHK,2020-02-05 01:00,ZJHK 050100Z 08004MPS 9999 SCT010 21/19 Q1019 NOSIG
ZJHK,2020-02-05 02:00,ZJHK 050200Z 08005MPS 9999 BKN010 BKN040 22/19 Q1019 NOSIG
ZJHK,2020-02-05 03:00,ZJHK 050300Z 06005MPS 9999 BKN011 BKN046 22/19 Q1019 NOSIG
ZJHK,2020-02-05 04:00,ZJHK 050400Z 04006MPS 7000 SCT006 BKN010 BKN023 20/19 Q1019 NOSIG
ZJHK,2020-02-05 05:00,ZJHK 050500Z 09005MPS 5000 -RA BR SCT006 BKN010 BKN023 20/19 Q1018 NOSIG
ZJHK,2020-02-05 06:00,ZJHK 050600Z 05003MPS 020V080 9999 SCT006 OVC030 21/19 Q1017 NOSIG
ZJHK,2020-02-05 07:00,ZJHK 050700Z 03004MPS 360V080 9999 BKN010 OVC030 21/19 Q1016 NOSIG
ZJHK,2020-02-05 08:00,ZJHK 050800Z 03004MPS 9999 FEW010 BKN040 21/19 Q1016 NOSIG
ZJHK,2020-02-05 09:00,ZJHK 050900Z 07005MPS 5000 -SHRA BKN010 FEW023TCU BKN023 22/19 Q1016 NOSIG
ZJHK,2020-02-05 10:00,ZJHK 051000Z 10003MPS 9999 -SHRA BKN006 FEW023TCU SCT030 21/20 Q1016 NOSIG
ZJHK,2020-02-05 11:00,ZJHK 051100Z 10004MPS 9999 FEW006 BKN030 20/19 Q1016 NOSIG
ZJHK,2020-02-05 12:00,ZJHK 051200Z 10002MPS 9999 BKN010 BKN026 20/19 Q1017 NOSIG
ZJHK,2020-02-05 13:00,ZJHK 051300Z 10003MPS 9999 BKN020 20/19 Q1017 NOSIG
ZJHK,2020-02-05 14:00,ZJHK 051400Z 10003MPS 9999 BKN020 20/19 Q1018 NOSIG
ZJHK,2020-02-05 15:00,ZJHK 051500Z 11002MPS 9999 BKN015 20/19 Q1018 NOSIG
ZJHK,2020-02-05 16:00,ZJHK 051600Z 09002MPS 9999 BKN015 BKN026 20/19 Q1018 NOSIG
ZJHK,2020-02-05 17:00,ZJHK 051700Z 09003MPS 9999 BKN015 BKN026 20/19 Q1018 NOSIG
ZJHK,2020-02-05 18:00,ZJHK 051800Z 00000MPS 9999 BKN015 BKN026 20/19 Q1017 NOSIG
ZJHK,2020-02-05 19:00,ZJHK 051900Z 11003MPS 9999 SCT010 SCT023 BKN043 20/19 Q1017 NOSIG
ZJHK,2020-02-05 20:00,ZJHK 052000Z 11002MPS 7000 SCT010 SCT023 BKN043 19/18 Q1016 NOSIG
ZJHK,2020-02-05 21:00,ZJHK 052100Z 10001MPS 7000 FEW020 SCT046 19/18 Q1016 NOSIG
ZJHK,2020-02-05 22:00,ZJHK 052200Z 00000MPS 7000 SCT020 BKN046 19/18 Q1016 NOSIG
ZJHK,2020-02-05 23:00,ZJHK 052300Z 00000MPS 6000 -RA FEW015 SCT023 BKN046 19/18 Q1017 NOSIG
ZJHK,2020-02-06 00:00,ZJHK 060000Z 11001MPS 6000 SCT020 19/18 Q1018 NOSIG
ZJHK,2020-02-06 01:00,ZJHK 060100Z 11002MPS CAVOK 21/20 Q1018 NOSIG
ZJHK,2020-02-06 02:00,ZJHK 060200Z 13004MPS 100V180 9999 FEW013 23/21 Q1018 NOSIG
ZJHK,2020-02-06 03:00,ZJHK 060300Z 14005MPS 100V160 9999 BKN020 24/19 Q1018 NOSIG
ZJHK,2020-02-06 04:00,ZJHK 060400Z 15005MPS 120V180 9999 BKN020 25/19 Q1017 NOSIG
ZJHK,2020-02-06 05:00,ZJHK 060500Z 16005MPS 9999 BKN020 26/18 Q1016 NOSIG
ZJHK,2020-02-06 06:00,ZJHK 060600Z 14005MPS 100V170 9999 BKN026 26/18 Q1015 NOSIG
ZJHK,2020-02-06 07:00,ZJHK 060700Z 13005MPS 100V170 9999 BKN030 26/18 Q1015 NOSIG
ZJHK,2020-02-06 08:00,ZJHK 060800Z 15004MPS 100V180 9999 BKN030 26/18 Q1014 NOSIG
ZJHK,2020-02-06 09:00,ZJHK 060900Z 14004MPS 110V170 9999 FEW030 26/18 Q1015 NOSIG
ZJHK,2020-02-06 10:00,ZJHK 061000Z 14003MPS 110V180 CAVOK 24/18 Q1015 NOSIG
ZJHK,2020-02-06 11:00,ZJHK 061100Z 11002MPS CAVOK 22/18 Q1015 NOSIG
ZJHK,2020-02-06 12:00,ZJHK 061200Z 11001MPS CAVOK 21/18 Q1016 NOSIG
ZJHK,2020-02-06 13:00,ZJHK 061300Z 10002MPS CAVOK 20/18 Q1017 NOSIG
ZJHK,2020-02-06 14:00,ZJHK 061400Z 08002MPS CAVOK 20/19 Q1017 NOSIG
ZJHK,2020-02-06 15:00,ZJHK 061500Z 09003MPS 060V120 2000 BR SCT003 21/20 Q1018 BECMG AT1600 BKN003
ZJHK,2020-02-06 16:00,ZJHK 061600Z 11002MPS 1000 R09/0700D BR BCFG BKN003 20/20 Q1018 BECMG 0600 FG
ZJHK,2020-02-06 17:00,ZJHK 061700Z 11002MPS 1000 R09/1400U BR BCFG BKN003 20/20 Q1018 BECMG 0600 FG
ZJHK,2020-02-06 18:00,ZJHK 061800Z 11003MPS 4000 BR BKN003 21/20 Q1017 NOSIG
ZJHK,2020-02-06 19:00,ZJHK 061900Z 11002MPS 090V150 4000 BR BKN004 21/20 Q1017 NOSIG
ZJHK,2020-02-06 20:00,ZJHK 062000Z 10003MPS 7000 BKN004 21/20 Q1017 NOSIG
ZJHK,2020-02-06 21:00,ZJHK 062100Z 10003MPS 5000 BR BKN004 21/20 Q1017 NOSIG
ZJHK,2020-02-06 22:00,ZJHK 062200Z 11003MPS 5000 BR BKN004 BKN020 21/20 Q1017 NOSIG
ZJHK,2020-02-06 23:00,ZJHK 062300Z 10003MPS 6000 BKN005 BKN020 21/20 Q1018 NOSIG
ZJHK,2020-02-07 00:00,ZJHK 070000Z 08003MPS 5000 BR BKN005 BKN020 21/20 Q1019 NOSIG
ZJHK,2020-02-07 01:00,ZJHK 070100Z 09004MPS 6000 BKN007 BKN020 22/21 Q1020 BECMG TL0150 BKN012
ZJHK,2020-02-07 02:00,ZJHK 070200Z 10005MPS 8000 BKN012 BKN020 23/21 Q1020 NOSIG
ZJHK,2020-02-07 03:00,ZJHK 070300Z 06004MPS 9999 BKN015 BKN026 24/21 Q1020 NOSIG
ZJHK,2020-02-07 04:00,ZJHK 070400Z 07006MPS 9999 BKN015 BKN026 25/21 Q1020 NOSIG
ZJHK,2020-02-07 05:00,ZJHK 070500Z 08007MPS 9999 BKN015 BKN026 25/21 Q1019 NOSIG
ZJHK,2020-02-07 06:00,ZJHK 070600Z 07007MPS 9999 BKN015 BKN026 26/20 Q1018 NOSIG
ZJHK,2020-02-07 07:00,ZJHK 070700Z 07007MPS 9999 BKN015 BKN026 25/20 Q1017 NOSIG
ZJHK,2020-02-07 08:00,ZJHK 070800Z 06007MPS 9999 BKN015 BKN026 23/20 Q1017 NOSIG
ZJHK,2020-02-07 09:00,ZJHK 070900Z 08007MPS 9999 SCT013 BKN023 23/20 Q1018 BECMG TL0950 BKN012 BKN023
ZJHK,2020-02-07 10:00,ZJHK 071000Z 08007MPS 9999 BKN011 BKN023 22/19 Q1018 NOSIG
ZJHK,2020-02-07 11:00,ZJHK 071100Z 07006MPS 9999 BKN011 BKN023 22/19 Q1019 NOSIG
ZJHK,2020-02-07 12:00,ZJHK 071200Z 08006MPS 9999 BKN011 BKN023 21/19 Q1019 NOSIG
ZJHK,2020-02-07 13:00,ZJHK 071300Z 10004MPS 080V140 9999 BKN011 BKN033 21/19 Q1020 NOSIG
ZJHK,2020-02-07 14:00,ZJHK 071400Z 10004MPS 9999 BKN009 BKN026 21/19 Q1020 NOSIG
ZJHK,2020-02-07 15:00,ZJHK 071500Z 10005MPS 9999 BKN009 BKN026 21/19 Q1021 NOSIG
ZJHK,2020-02-07 16:00,ZJHK 071600Z 10005MPS 9999 BKN009 BKN026 21/19 Q1021 NOSIG
ZJHK,2020-02-07 17:00,ZJHK 071700Z 08006MPS 9999 BKN009 20/18 Q1021 NOSIG
ZJHK,2020-02-07 18:00,ZJHK 071800Z 08005MPS 9999 SCT012 20/18 Q1021 NOSIG
ZJHK,2020-02-07 19:00,ZJHK 071900Z 10004MPS CAVOK 19/18 Q1020 NOSIG
ZJHK,2020-02-07 20:00,ZJHK 072000Z 10003MPS 9999 FEW010 19/18 Q1020 NOSIG
ZJHK,2020-02-07 21:00,ZJHK 072100Z 08004MPS 9999 FEW010 BKN030 19/18 Q1020 NOSIG
ZJHK,2020-02-07 22:00,ZJHK 072200Z 07005MPS 9999 SCT010 BKN030 20/18 Q1020 NOSIG
ZJHK,2020-02-07 23:00,ZJHK 072300Z 09003MPS 9999 BKN040 19/17 Q1020 NOSIG
ZJHK,2020-02-08 00:00,ZJHK 080000Z 08004MPS 9999 BKN040 20/18 Q1021 NOSIG
ZJHK,2020-02-08 01:00,ZJHK 080100Z 07005MPS 9999 FEW018 BKN043 21/18 Q1022 NOSIG
ZJHK,2020-02-08 02:00,ZJHK 080200Z 07007MPS 9999 SCT016 BKN043 22/18 Q1023 NOSIG
ZJHK,2020-02-08 03:00,ZJHK 080300Z 06007MPS 9999 BKN018 BKN043 22/17 Q1023 NOSIG
ZJHK,2020-02-08 04:00,ZJHK 080400Z 08008MPS 9999 BKN018 BKN033 23/17 Q1022 NOSIG
ZJHK,2020-02-08 05:00,ZJHK 080500Z 07006MPS 040V100 9999 BKN020 24/18 Q1022 NOSIG
ZJHK,2020-02-08 06:00,ZJHK 080600Z 07006MPS 040V100 9999 BKN023 25/18 Q1021 NOSIG
ZJHK,2020-02-08 07:00,ZJHK 080700Z 07008MPS 9999 BKN020 BKN033 23/17 Q1020 NOSIG
ZJHK,2020-02-08 08:00,ZJHK 080800Z 07008MPS 9999 SCT018 BKN036 22/17 Q1021 NOSIG
ZJHK,2020-02-08 09:00,ZJHK 080900Z 06007MPS 9999 SCT016 BKN033 21/17 Q1021 NOSIG
ZJHK,2020-02-08 10:00,ZJHK 081000Z 07006MPS 9999 BKN016 BKN033 20/17 Q1022 NOSIG
ZJHK,2020-02-08 11:00,ZJHK 081100Z 06006MPS 9999 -RA BKN013 OVC020 20/17 Q1022 NOSIG
ZJHK,2020-02-08 12:00,ZJHK 081200Z 07006MPS 9999 BKN013 OVC033 20/17 Q1023 NOSIG
ZJHK,2020-02-08 13:00,ZJHK 081300Z 07006MPS 9999 BKN015 OVC040 20/17 Q1024 NOSIG
ZJHK,2020-02-08 14:00,ZJHK 081400Z 06005MPS 9999 BKN015 OVC026 20/17 Q1024 NOSIG
ZJHK,2020-02-08 15:00,ZJHK 081500Z 07005MPS 9999 BKN015 OVC040 20/17 Q1024 NOSIG
ZJHK,2020-02-08 16:00,ZJHK 081600Z 07005MPS 9999 BKN015 OVC040 20/17 Q1024 NOSIG
ZJHK,2020-02-08 17:00,ZJHK 081700Z 07004MPS 9999 BKN016 OVC040 20/17 Q1024 NOSIG
ZJHK,2020-02-08 18:00,ZJHK 081800Z 07005MPS 9999 SCT016 OVC040 20/16 Q1024 NOSIG
ZJHK,2020-02-08 19:00,ZJHK 081900Z 06005MPS 9999 BKN018 OVC040 20/16 Q1023 NOSIG
ZJHK,2020-02-08 20:00,ZJHK 082000Z 07005MPS 9999 BKN018 OVC043 20/16 Q1023 NOSIG
ZJHK,2020-02-08 21:00,ZJHK 082100Z 06006MPS 9999 BKN016 OVC043 19/16 Q1023 NOSIG
ZJHK,2020-02-08 22:00,ZJHK 082200Z 07006MPS 9999 SCT016 OVC043 19/15 Q1023 NOSIG
ZJHK,2020-02-08 23:00,ZJHK 082300Z 06006MPS 9999 FEW016 OVC043 19/15 Q1024 NOSIG
ZJHK,2020-02-09 00:00,ZJHK 090000Z 05004MPS 020V080 9999 OVC040 19/15 Q1024 NOSIG
ZJHK,2020-02-09 01:00,ZJHK 090100Z 07007MPS 9999 SCT040 19/15 Q1025 NOSIG
ZJHK,2020-02-09 02:00,ZJHK 090200Z 06006MPS 9999 BKN040 20/15 Q1026 NOSIG
ZJHK,2020-02-09 03:00,ZJHK 090300Z 07006MPS 9999 FEW026 21/15 Q1026 NOSIG
ZJHK,2020-02-09 04:00,ZJHK 090400Z 04006MPS 020V080 9999 SCT020 21/15 Q1025 NOSIG
ZJHK,2020-02-09 05:00,ZJHK 090500Z 04008MPS 9999 BKN016 BKN040 20/15 Q1025 NOSIG
ZJHK,2020-02-09 06:00,ZJHK 090600Z 03008MPS 9999 BKN016 BKN040 20/15 Q1023 NOSIG
ZJHK,2020-02-09 07:00,ZJHK 090700Z 06007MPS 030V090 9999 SCT016 BKN043 21/15 Q1023 NOSIG
ZJHK,2020-02-09 08:00,ZJHK 090800Z 07006MPS 040V100 9999 SCT016 BKN043 20/15 Q1022 NOSIG
ZJHK,2020-02-09 09:00,ZJHK 090900Z 06005MPS 9999 BKN020 BKN040 20/15 Q1022 NOSIG
ZJHK,2020-02-09 10:00,ZJHK 091000Z 06006MPS 9999 BKN020 BKN040 19/15 Q1022 NOSIG
ZJHK,2020-02-09 11:00,ZJHK 091100Z 05005MPS 9999 BKN016 OVC033 19/15 Q1023 NOSIG
ZJHK,2020-02-09 12:00,ZJHK 091200Z 05004MPS 9999 BKN016 OVC033 18/15 Q1023 NOSIG
ZJHK,2020-02-09 13:00,ZJHK 091300Z 05004MPS 020V090 9999 BKN016 OVC033 19/15 Q1024 NOSIG
ZJHK,2020-02-09 14:00,ZJHK 091400Z 04004MPS 9999 SCT016 OVC033 19/15 Q1024 NOSIG
ZJHK,2020-02-09 15:00,ZJHK 091500Z 06004MPS 9999 SCT016 OVC033 19/15 Q1024 NOSIG
ZJHK,2020-02-09 16:00,ZJHK 091600Z 06003MPS 9999 SCT016 OVC033 19/15 Q1023 NOSIG
ZJHK,2020-02-09 17:00,ZJHK 091700Z 07005MPS 9999 FEW016 OVC033 19/15 Q1023 NOSIG
ZJHK,2020-02-09 18:00,ZJHK 091800Z 08004MPS 9999 FEW023 OVC033 18/14 Q1022 NOSIG
ZJHK,2020-02-09 19:00,ZJHK 091900Z 08005MPS 9999 -RA SCT016 OVC030 18/15 Q1022 NOSIG
ZJHK,2020-02-09 20:00,ZJHK 092000Z 06004MPS 9999 OVC023 17/15 Q1021 NOSIG
ZJHK,2020-02-09 21:00,ZJHK 092100Z 06003MPS 5000 -RA BR BKN010 BKN023 17/15 Q1021 NOSIG
ZJHK,2020-02-09 22:00,ZJHK 092200Z 07003MPS 6000 -RA SCT005 BKN010 BKN020 17/16 Q1021 NOSIG
ZJHK,2020-02-09 23:00,ZJHK 092300Z 07003MPS 7000 BKN007 BKN023 17/15 Q1022 NOSIG
ZJHK,2020-02-10 00:00,ZJHK 100000Z 07004MPS 9999 SCT016 BKN033 17/15 Q1022 NOSIG
ZJHK,2020-02-10 01:00,ZJHK 100100Z 06004MPS 9999 SCT016 BKN033 18/15 Q1023 NOSIG
ZJHK,2020-02-10 02:00,ZJHK 100200Z 06006MPS 9999 SCT016 BKN033 18/15 Q1023 NOSIG
ZJHK,2020-02-10 03:00,ZJHK 100300Z 05005MPS 9999 SCT016 BKN033 19/15 Q1023 NOSIG
ZJHK,2020-02-10 04:00,ZJHK 100400Z 05005MPS 9999 SCT015 BKN030 19/15 Q1023 BECMG TL0500 BKN010 BKN030
ZJHK,2020-02-10 05:00,ZJHK 100500Z 05005MPS 9999 BKN010 BKN030 18/15 Q1022 NOSIG
ZJHK,2020-02-10 06:00,ZJHK 100600Z 04005MPS 9999 BKN010 OVC026 18/15 Q1021 NOSIG
ZJHK,2020-02-10 07:00,ZJHK 100700Z 04004MPS 9999 SCT010 OVC026 18/15 Q1021 NOSIG
ZJHK,2020-02-10 08:00,ZJHK 100800Z 04005MPS 9999 SCT010 OVC026 18/15 Q1020 NOSIG
ZJHK,2020-02-10 09:00,ZJHK 100900Z 04004MPS 9999 SCT010 OVC026 18/15 Q1020 NOSIG
ZJHK,2020-02-10 10:00,ZJHK 101000Z 04004MPS 9999 SCT010 OVC026 18/15 Q1020 BECMG TL1100 BKN010 OVC026
ZJHK,2020-02-10 11:00,ZJHK 101100Z 07005MPS 7000 BKN010 OVC026 18/15 Q1020 NOSIG
ZJHK,2020-02-10 12:00,ZJHK 101200Z 06003MPS 9999 BKN010 OVC026 18/16 Q1021 NOSIG
ZJHK,2020-02-10 13:00,ZJHK 101300Z 06002MPS 030V090 9999 BKN010 OVC026 18/16 Q1021 NOSIG
ZJHK,2020-02-10 14:00,ZJHK 101400Z 03003MPS 9999 BKN010 OVC026 18/16 Q1021 BECMG TL1500 BKN015 OVC026
ZJHK,2020-02-10 15:00,ZJHK 101500Z 09004MPS 9999 BKN015 OVC026 18/16 Q1021 NOSIG
ZJHK,2020-02-10 16:00,ZJHK 101600Z 08003MPS 9999 SCT015 BKN026 19/17 Q1021 NOSIG
ZJHK,2020-02-10 17:00,ZJHK 101700Z 10005MPS 9999 SCT013 BKN046 19/17 Q1020 NOSIG
ZJHK,2020-02-10 18:00,ZJHK 101800Z 06003MPS 9999 BKN010 BKN026 19/17 Q1020 NOSIG
ZJHK,2020-02-10 19:00,ZJHK 101900Z 06002MPS 9999 BKN010 BKN026 19/18 Q1019 NOSIG
ZJHK,2020-02-10 20:00,ZJHK 102000Z 06001MPS 9999 BKN010 BKN026 19/18 Q1019 NOSIG
ZJHK,2020-02-10 21:00,ZJHK 102100Z 00000MPS 9999 BKN010 BKN026 19/18 Q1018 NOSIG
ZJHK,2020-02-10 22:00,ZJHK 102200Z 07002MPS 4000 -RA BKN010 BKN026 19/18 Q1019 NOSIG
ZJHK,2020-02-10 23:00,ZJHK 102300Z 02001MPS 3000 BR BKN010 BKN026 19/18 Q1019 NOSIG
ZJHK,2020-02-11 00:00,ZJHK 110000Z VRB01MPS 6000 BKN010 BKN026 19/19 Q1020 NOSIG
ZJHK,2020-02-11 01:00,ZJHK 110100Z 06003MPS 5000 BR BKN009 BKN026 20/19 Q1020 NOSIG
ZJHK,2020-02-11 02:00,ZJHK 110200Z 07004MPS 7000 BKN008 BKN026 21/20 Q1020 NOSIG
ZJHK,2020-02-11 03:00,ZJHK 110300Z 06004MPS 9999 BKN008 OVC026 21/20 Q1020 NOSIG
ZJHK,2020-02-11 04:00,ZJHK 110400Z 05003MPS 020V080 6000 -RA BKN007 OVC026 21/20 Q1020 NOSIG
ZJHK,2020-02-11 05:00,ZJHK 110500Z 06004MPS 030V090 9999 SCT007 BKN020 23/22 Q1019 NOSIG
ZJHK,2020-02-11 06:00,ZJHK 110600Z 06004MPS 9999 SCT010 BKN020 23/20 Q1018 NOSIG
ZJHK,2020-02-11 07:00,ZJHK 110700Z 08004MPS 9999 FEW010 BKN020 24/20 Q1017 NOSIG
ZJHK,2020-02-11 08:00,ZJHK 110800Z 07004MPS 030V100 9999 SCT015 BKN026 26/21 Q1017 NOSIG
ZJHK,2020-02-11 09:00,ZJHK 110900Z 07005MPS 9999 SCT026 25/21 Q1016 NOSIG
ZJHK,2020-02-11 10:00,ZJHK 111000Z 08006MPS 9999 SCT010 23/20 Q1016 NOSIG
ZJHK,2020-02-11 11:00,ZJHK 111100Z 07003MPS 9999 SCT010 22/20 Q1017 NOSIG
ZJHK,2020-02-11 12:00,ZJHK 111200Z 10004MPS 9999 SCT013 21/20 Q1017 NOSIG
ZJHK,2020-02-11 13:00,ZJHK 111300Z 10003MPS 7000 BKN005 21/20 Q1018 BECMG TL1400 BKN004
ZJHK,2020-02-11 14:00,ZJHK 111400Z 10003MPS 4000 BR BKN003 21/20 Q1018 BECMG TL1500 2000
ZJHK,2020-02-11 15:00,ZJHK 111500Z 10002MPS 1600 BR BKN002 21/20 Q1018 NOSIG
ZJHK,2020-02-11 16:00,ZJHK 111600Z 11002MPS 080V140 0700 R09/0750V1000D FG VV002 21/20 Q1018 NOSIG
ZJHK,2020-02-11 17:00,ZJHK 111700Z 11002MPS 090V150 0500 R09/0800V1100D FG VV002 20/20 Q1018 NOSIG
ZJHK,2020-02-11 18:00,ZJHK 111800Z 00000MPS 0500 R09/0350V0500N FG VV002 20/20 Q1018 NOSIG
ZJHK,2020-02-11 19:00,ZJHK 111900Z 04001MPS 0700 R09/0550D FG VV002 20/19 Q1017 NOSIG
ZJHK,2020-02-11 20:00,ZJHK 112000Z 06002MPS 0300 R09/0375N FG VV002 20/19 Q1017 NOSIG
ZJHK,2020-02-11 21:00,ZJHK 112100Z 08001MPS 0300 R09/0225N FG VV002 20/19 Q1017 NOSIG
ZJHK,2020-02-11 22:00,ZJHK 112200Z 00000MPS 0300 R09/0500N FG VV002 19/19 Q1017 NOSIG
ZJHK,2020-02-11 23:00,ZJHK 112300Z VRB01MPS 0300 R09/0450V0600N FG VV002 19/19 Q1018 NOSIG
ZJHK,2020-02-12 00:00,ZJHK 120000Z 00000MPS 0300 R09/0350N FG VV002 20/19 Q1018 BECMG TL0100 1000 BR BKN005
ZJHK,2020-02-12 01:00,ZJHK 120100Z 09002MPS 0700 R09/1700U FG VV003 20/20 Q1019 BECMG AT0140 1500 BR BKN005
ZJHK,2020-02-12 02:00,ZJHK 120200Z 12002MPS 4000 BR FEW002 BKN006 21/21 Q1019 BECMG AT0300 BKN012
ZJHK,2020-02-12 03:00,ZJHK 120300Z 15003MPS 110V190 9999 BKN012 24/23 Q1018 BECMG AT0400 SCT016
ZJHK,2020-02-12 04:00,ZJHK 120400Z 15003MPS 100V220 9999 BKN022 26/21 Q1017 NOSIG
ZJHK,2020-02-12 05:00,ZJHK 120500Z 15004MPS 110V190 9999 BKN030 28/20 Q1016 NOSIG
ZJHK,2020-02-12 06:00,ZJHK 120600Z 16004MPS 110V210 9999 BKN036 28/20 Q1015 NOSIG
ZJHK,2020-02-12 07:00,ZJHK 120700Z 15003MPS 100V190 9999 BKN036 28/20 Q1014 NOSIG
ZJHK,2020-02-12 08:00,ZJHK 120800Z 16003MPS 120V240 9999 BKN036 29/20 Q1013 NOSIG
ZJHK,2020-02-12 09:00,ZJHK 120900Z 01003MPS 330V080 9999 BKN040 26/21 Q1013 NOSIG
ZJHK,2020-02-12 10:00,ZJHK 121000Z 12004MPS 9999 SCT033 25/20 Q1013 NOSIG
ZJHK,2020-02-12 11:00,ZJHK 121100Z 12004MPS 9999 FEW033 24/19 Q1014 NOSIG
ZJHK,2020-02-12 12:00,ZJHK 121200Z 14003MPS 100V160 9999 FEW016 23/20 Q1014 NOSIG
ZJHK,2020-02-12 13:00,ZJHK 121300Z 11003MPS 9999 FEW013 22/20 Q1015 NOSIG
ZJHK,2020-02-12 14:00,ZJHK 121400Z 09003MPS 9999 SCT010 BKN020 22/20 Q1015 NOSIG
ZJHK,2020-02-12 15:00,ZJHK 121500Z 11003MPS 9999 FEW010 BKN020 22/20 Q1015 NOSIG
ZJHK,2020-02-12 16:00,ZJHK 121600Z 13004MPS 100V170 9999 BKN020 22/21 Q1014 NOSIG
ZJHK,2020-02-12 17:00,ZJHK 121700Z 08002MPS 020V110 9999 BKN009 BKN016 22/21 Q1015 NOSIG
ZJHK,2020-02-12 18:00,ZJHK 121800Z 13002MPS 090V170 9999 BKN012 BKN020 22/21 Q1014 NOSIG
ZJHK,2020-02-12 19:00,ZJHK 121900Z 13003MPS 100V160 9999 BKN014 BKN023 22/21 Q1013 NOSIG
ZJHK,2020-02-12 20:00,ZJHK 122000Z 13003MPS 9999 BKN020 23/21 Q1012 NOSIG
ZJHK,2020-02-12 21:00,ZJHK 122100Z 16004MPS 120V190 9999 BKN020 23/21 Q1012 NOSIG
ZJHK,2020-02-12 22:00,ZJHK 122200Z 17004MPS 130V200 9999 BKN018 23/20 Q1012 NOSIG
ZJHK,2020-02-12 23:00,ZJHK 122300Z 17004MPS 120V200 9999 BKN018 23/20 Q1013 NOSIG
ZJHK,2020-02-13 00:00,ZJHK 130000Z 18003MPS 150V220 9999 -SHRA FEW020TCU SCT023 23/21 Q1014 NOSIG
ZJHK,2020-02-13 01:00,ZJHK 130100Z VRB01MPS 9999 -SHRA FEW020TCU SCT030 23/21 Q1016 NOSIG
ZJHK,2020-02-13 02:00,ZJHK 130200Z 17002MPS 140V200 9999 BKN040 23/22 Q1015 NOSIG
ZJHK,2020-02-13 03:00,ZJHK 130300Z 23002MPS 210V280 9999 SCT040 24/22 Q1016 NOSIG
ZJHK,2020-02-13 04:00,ZJHK 130400Z 23003MPS 200V260 9999 SCT040 24/22 Q1015 NOSIG
ZJHK,2020-02-13 05:00,ZJHK 130500Z VRB02MPS 9999 -SHRA FEW040CB SCT040 23/21 Q1013 NOSIG
ZJHK,2020-02-13 06:00,ZJHK 130600Z 18002MPS 140V230 9999 SCT013 FEW040CB 23/21 Q1012 NOSIG
ZJHK,2020-02-13 07:00,ZJHK 130700Z 15003MPS 120V180 9999 FEW020 24/21 Q1012 NOSIG
ZJHK,2020-02-13 08:00,ZJHK 130800Z 17003MPS 130V200 9999 FEW020 26/22 Q1011 NOSIG
ZJHK,2020-02-13 09:00,ZJHK 130900Z 17005MPS 140V200 CAVOK 26/21 Q1010 NOSIG
ZJHK,2020-02-13 10:00,ZJHK 131000Z 17005MPS 9999 FEW030 25/21 Q1010 NOSIG
ZJHK,2020-02-13 11:00,ZJHK 131100Z 16004MPS CAVOK 24/21 Q1010 NOSIG
ZJHK,2020-02-13 12:00,ZJHK 131200Z 16004MPS 130V200 CAVOK 24/21 Q1010 NOSIG
ZJHK,2020-02-13 13:00,ZJHK 131300Z 16005MPS 130V190 CAVOK 23/21 Q1011 NOSIG
ZJHK,2020-02-13 14:00,ZJHK 131400Z 16004MPS 130V200 9999 FEW010 23/21 Q1012 NOSIG
ZJHK,2020-02-13 15:00,ZJHK 131500Z 17006MPS 9999 FEW010 24/21 Q1011 NOSIG
ZJHK,2020-02-13 16:00,ZJHK 131600Z 16005MPS 140V200 9999 SCT010 24/21 Q1011 NOSIG
ZJHK,2020-02-13 17:00,ZJHK 131700Z 18007MPS 130V210 5000 TSRA SCT013 FEW030CB BKN040 23/21 Q1011 BECMG AT1800 -SHRA
ZJHK,2020-02-13 18:00,ZJHK 131800Z 22003MPS 140V260 5000 TSRA SCT013 FEW030CB SCT040 23/21 Q1011 BECMG AT1840 -SHRA
ZJHK,2020-02-13 19:00,ZJHK 131900Z 16004MPS 9999 FEW016 23/21 Q1009 RETSRA NOSIG
ZJHK,2020-02-13 20:00,ZJHK 132000Z 16004MPS 9999 FEW016 23/21 Q1009 NOSIG
ZJHK,2020-02-13 21:00,ZJHK 132100Z 16006MPS 130V210 9999 SCT016 23/21 Q1008 NOSIG
ZJHK,2020-02-13 22:00,ZJHK 132200Z 17005MPS 9999 FEW016 23/21 Q1009 NOSIG
ZJHK,2020-02-13 23:00,ZJHK 132300Z 17006MPS 140V210 9999 FEW016 23/21 Q1009 NOSIG
ZJHK,2020-02-14 00:00,ZJHK 140000Z 17006G11MPS 140V200 9999 FEW016 FEW046CB 24/21 Q1009 NOSIG
ZJHK,2020-02-14 01:00,ZJHK 140100Z 31003MPS 280V340 9999 -SHRA SCT016 FEW023CB BKN026 23/21 Q1012 NOSIG
ZJHK,2020-02-14 02:00,ZJHK 140200Z 12002MPS 080V200 9999 FEW026 25/22 Q1012 NOSIG
ZJHK,2020-02-14 03:00,ZJHK 140300Z 17003MPS 140V220 9999 FEW026 26/22 Q1012 NOSIG
ZJHK,2020-02-14 04:00,ZJHK 140400Z 17003MPS 130V240 9999 FEW026 26/21 Q1011 NOSIG
ZJHK,2020-02-14 05:00,ZJHK 140500Z 16004MPS 130V200 9999 FEW026 26/21 Q1010 NOSIG
ZJHK,2020-02-14 06:00,ZJHK 140600Z 18003MPS 130V210 9999 FEW046 26/23 Q1009 NOSIG
ZJHK,2020-02-14 07:00,ZJHK 140700Z 17005MPS 130V210 9999 SCT023 27/22 Q1008 NOSIG
ZJHK,2020-02-14 08:00,ZJHK 140800Z 16005MPS 9999 SCT040 27/22 Q1008 NOSIG
ZJHK,2020-02-14 09:00,ZJHK 140900Z 16005MPS 130V200 CAVOK 26/21 Q1008 NOSIG
ZJHK,2020-02-14 10:00,ZJHK 141000Z 16006MPS CAVOK 26/21 Q1008 NOSIG
ZJHK,2020-02-14 11:00,ZJHK 141100Z 16005MPS CAVOK 25/21 Q1008 NOSIG
ZJHK,2020-02-14 12:00,ZJHK 141200Z 16005MPS 120V200 CAVOK 24/21 Q1009 NOSIG
ZJHK,2020-02-14 13:00,ZJHK 141300Z 16006MPS 130V190 CAVOK 24/21 Q1010 NOSIG
ZJHK,2020-02-14 14:00,ZJHK 141400Z 17006MPS CAVOK 24/22 Q1010 NOSIG
ZJHK,2020-02-14 15:00,ZJHK 141500Z 17005MPS 140V200 CAVOK 24/21 Q1011 NOSIG
ZJHK,2020-02-14 16:00,ZJHK 141600Z 17004MPS 130V200 CAVOK 24/21 Q1011 NOSIG
ZJHK,2020-02-14 17:00,ZJHK 141700Z 17004MPS 140V200 9999 FEW026 24/22 Q1011 NOSIG
ZJHK,2020-02-14 18:00,ZJHK 141800Z 16006MPS CAVOK 24/21 Q1011 NOSIG
ZJHK,2020-02-14 19:00,ZJHK 141900Z 17006MPS 9999 FEW016 24/21 Q1010 NOSIG
ZJHK,2020-02-14 20:00,ZJHK 142000Z 17006MPS 9999 FEW016 24/21 Q1009 NOSIG
ZJHK,2020-02-14 21:00,ZJHK 142100Z 17006MPS 130V200 CAVOK 24/21 Q1009 NOSIG
ZJHK,2020-02-14 22:00,ZJHK 142200Z 18006MPS CAVOK 24/21 Q1009 NOSIG
ZJHK,2020-02-14 23:00,ZJHK 142300Z 17005MPS 140V210 CAVOK 24/21 Q1010 NOSIG
ZJHK,2020-02-15 00:00,ZJHK 150000Z 17006MPS 140V200 9999 FEW026 24/21 Q1010 NOSIG
ZJHK,2020-02-15 01:00,ZJHK 150100Z 17006G12MPS 140V200 CAVOK 26/21 Q1011 NOSIG
ZJHK,2020-02-15 02:00,ZJHK 150200Z 18007MPS 150V210 CAVOK 27/21 Q1011 NOSIG
ZJHK,2020-02-15 03:00,ZJHK 150300Z 18008MPS 160V220 CAVOK 28/21 Q1011 NOSIG
ZJHK,2020-02-15 04:00,ZJHK 150400Z 18005MPS 150V210 9999 FEW033 30/22 Q1010 NOSIG
ZJHK,2020-02-15 05:00,ZJHK 150500Z 18005MPS 140V220 9999 FEW033 31/22 Q1009 NOSIG
ZJHK,2020-02-15 06:00,ZJHK 150600Z 17005MPS 120V220 9999 FEW033 31/22 Q1008 NOSIG
ZJHK,2020-02-15 07:00,ZJHK 150700Z 18004MPS 140V230 CAVOK 32/22 Q1007 NOSIG
ZJHK,2020-02-15 08:00,ZJHK 150800Z 16004MPS 120V190 9999 BKN046 30/23 Q1007 NOSIG
ZJHK,2020-02-15 09:00,ZJHK 150900Z 14004MPS 9999 SCT046 29/23 Q1008 NOSIG
ZJHK,2020-02-15 10:00,ZJHK 151000Z 14005MPS CAVOK 27/23 Q1008 NOSIG
ZJHK,2020-02-15 11:00,ZJHK 151100Z 14003MPS CAVOK 26/23 Q1009 NOSIG
ZJHK,2020-02-15 12:00,ZJHK 151200Z 13003MPS CAVOK 25/22 Q1010 NOSIG
ZJHK,2020-02-15 13:00,ZJHK 151300Z 14002MPS 110V180 CAVOK 24/22 Q1011 NOSIG
ZJHK,2020-02-15 14:00,ZJHK 151400Z 17002MPS 120V200 CAVOK 24/22 Q1011 NOSIG
ZJHK,2020-02-15 15:00,ZJHK 151500Z VRB01MPS CAVOK 23/21 Q1012 NOSIG
ZJHK,2020-02-15 16:00,ZJHK 151600Z VRB01MPS CAVOK 22/21 Q1013 NOSIG
ZJHK,2020-02-15 17:00,ZJHK 151700Z 14002MPS CAVOK 22/21 Q1013 NOSIG
ZJHK,2020-02-15 18:00,ZJHK 151800Z 00000MPS CAVOK 22/21 Q1013 NOSIG
ZJHK,2020-02-15 19:00,ZJHK 151900Z 02004MPS 9999 SCT008 BKN026 23/22 Q1013 NOSIG
ZJHK,2020-02-15 20:00,ZJHK 152000Z 03005MPS 9999 BKN005 BKN026 20/19 Q1014 NOSIG
ZJHK,2020-02-15 21:00,ZJHK 152100Z 02005MPS 5000 -RA BR BKN005 BKN026 19/18 Q1015 NOSIG
ZJHK,2020-02-15 22:00,ZJHK 152200Z 01006MPS 7000 BKN007 BKN026 17/16 Q1017 NOSIG
ZJHK,2020-02-15 23:00,ZJHK 152300Z 36007MPS 8000 BKN009 BKN026 16/14 Q1018 NOSIG
ZJHK,2020-02-16 00:00,ZJHK 160000Z 35005MPS 320V020 4000 -RA BR BKN007 OVC026 15/14 Q1019 NOSIG
ZJHK,2020-02-16 01:00,ZJHK 160100Z 35005MPS 6000 -RA BKN007 OVC026 15/14 Q1021 NOSIG
ZJHK,2020-02-16 02:00,ZJHK 160200Z 35005MPS 320V020 9999 SCT010 OVC030 15/13 Q1022 NOSIG
ZJHK,2020-02-16 03:00,ZJHK 160300Z 36006MPS 320V040 9999 BKN016 OVC040 15/12 Q1022 NOSIG
ZJHK,2020-02-16 04:00,ZJHK 160400Z 36005MPS 330V030 9999 BKN018 OVC040 15/11 Q1022 NOSIG
ZJHK,2020-02-16 05:00,ZJHK 160500Z 35006MPS 320V020 9999 BKN016 OVC033 14/11 Q1021 NOSIG
ZJHK,2020-02-16 06:00,ZJHK 160600Z 35005MPS 9999 BKN011 OVC026 13/11 Q1021 NOSIG
ZJHK,2020-02-16 07:00,ZJHK 160700Z 36005MPS 9999 -RA BKN010 OVC026 13/11 Q1020 NOSIG
ZJHK,2020-02-16 08:00,ZJHK 160800Z 36005MPS 9999 -RA BKN010 OVC026 13/11 Q1020 NOSIG
ZJHK,2020-02-16 09:00,ZJHK 160900Z 01004MPS 340V050 9999 BKN012 OVC026 14/11 Q1020 NOSIG
ZJHK,2020-02-16 10:00,ZJHK 161000Z 03005MPS 360V060 9999 BKN013 OVC026 14/11 Q1021 NOSIG
ZJHK,2020-02-16 11:00,ZJHK 161100Z 03005MPS 9999 BKN013 OVC026 14/11 Q1021 NOSIG
ZJHK,2020-02-16 12:00,ZJHK 161200Z 03004MPS 350V060 9999 BKN013 OVC026 14/11 Q1022 NOSIG
ZJHK,2020-02-16 13:00,ZJHK 161300Z 03004MPS 360V070 9999 BKN013 OVC026 15/12 Q1023 NOSIG
ZJHK,2020-02-16 14:00,ZJHK 161400Z 03004MPS 350V060 9999 BKN013 OVC026 15/12 Q1023 NOSIG
ZJHK,2020-02-16 15:00,ZJHK 161500Z 04006MPS 9999 BKN016 OVC026 15/11 Q1024 NOSIG
ZJHK,2020-02-16 16:00,ZJHK 161600Z 06005MPS 9999 BKN020 OVC040 15/10 Q1024 NOSIG
ZJHK,2020-02-16 17:00,ZJHK 161700Z 05006MPS 9999 BKN020 OVC040 15/11 Q1024 NOSIG
ZJHK,2020-02-16 18:00,ZJHK 161800Z 05005MPS 9999 BKN020 OVC040 15/10 Q1023 NOSIG
ZJHK,2020-02-16 19:00,ZJHK 161900Z 05005MPS 9999 BKN020 OVC040 15/10 Q1023 NOSIG
ZJHK,2020-02-16 20:00,ZJHK 162000Z 06006MPS 9999 BKN023 OVC040 15/10 Q1023 NOSIG
ZJHK,2020-02-16 21:00,ZJHK 162100Z 05005MPS 9999 BKN023 OVC040 15/10 Q1023 NOSIG
ZJHK,2020-02-16 22:00,ZJHK 162200Z 05006MPS 9999 BKN023 OVC040 15/10 Q1024 NOSIG
ZJHK,2020-02-16 23:00,ZJHK 162300Z 05006MPS 9999 BKN023 OVC033 15/10 Q1025 NOSIG
ZJHK,2020-02-17 00:00,ZJHK 170000Z 04007MPS 9999 BKN023 OVC033 15/10 Q1026 NOSIG
ZJHK,2020-02-17 01:00,ZJHK 170100Z 05006MPS 9999 BKN023 OVC033 15/10 Q1026 NOSIG
ZJHK,2020-02-17 02:00,ZJHK 170200Z 05007MPS 9999 BKN023 OVC033 16/10 Q1027 NOSIG
ZJHK,2020-02-17 03:00,ZJHK 170300Z 04006MPS 9999 OVC026 15/10 Q1028 NOSIG
ZJHK,2020-02-17 04:00,ZJHK 170400Z 04007MPS 9999 OVC026 15/09 Q1027 NOSIG
ZJHK,2020-02-17 05:00,ZJHK 170500Z 04007MPS 9999 BKN030 16/08 Q1026 NOSIG
ZJHK,2020-02-17 06:00,ZJHK 170600Z 05006MPS 9999 SCT026 16/09 Q1025 NOSIG
ZJHK,2020-02-17 07:00,ZJHK 170700Z 03006MPS 360V070 9999 SCT026 16/09 Q1024 NOSIG
ZJHK,2020-02-17 08:00,ZJHK 170800Z 04006MPS 010V070 9999 FEW026 16/09 Q1024 NOSIG
ZJHK,2020-02-17 09:00,ZJHK 170900Z 05006MPS 9999 FEW026 16/09 Q1024 NOSIG
ZJHK,2020-02-17 10:00,ZJHK 171000Z 06006MPS 9999 FEW026 15/09 Q1024 NOSIG
ZJHK,2020-02-17 11:00,ZJHK 171100Z 06005MPS 9999 FEW026 15/09 Q1025 NOSIG
ZJHK,2020-02-17 12:00,ZJHK 171200Z 07004MPS 9999 FEW026 16/10 Q1025 NOSIG
ZJHK,2020-02-17 13:00,ZJHK 171300Z 05004MPS 9999 FEW026 16/09 Q1026 NOSIG
ZJHK,2020-02-17 14:00,ZJHK 171400Z 06004MPS 9999 FEW026 16/09 Q1026 NOSIG
ZJHK,2020-02-17 15:00,ZJHK 171500Z 06004MPS CAVOK 17/09 Q1026 NOSIG
ZJHK,2020-02-17 16:00,ZJHK 171600Z 06004MPS CAVOK 17/08 Q1026 NOSIG
ZJHK,2020-02-17 17:00,ZJHK 171700Z 06004MPS CAVOK 17/08 Q1026 NOSIG
ZJHK,2020-02-17 18:00,ZJHK 171800Z 05004MPS CAVOK 16/07 Q1025 NOSIG
ZJHK,2020-02-17 19:00,ZJHK 171900Z 06005MPS CAVOK 16/08 Q1025 NOSIG
ZJHK,2020-02-17 20:00,ZJHK 172000Z 06004MPS 9999 FEW030 16/08 Q1024 NOSIG
ZJHK,2020-02-17 21:00,ZJHK 172100Z 06003MPS 9999 SCT026 16/08 Q1024 NOSIG
ZJHK,2020-02-17 22:00,ZJHK 172200Z 04003MPS 9999 SCT026 16/09 Q1025 NOSIG
ZJHK,2020-02-17 23:00,ZJHK 172300Z 05005MPS 9999 FEW040 17/08 Q1025 NOSIG
ZJHK,2020-02-18 00:00,ZJHK 180000Z 05005MPS 9999 FEW040 17/09 Q1026 NOSIG
ZJHK,2020-02-18 01:00,ZJHK 180100Z 06005MPS 9999 BKN040 17/09 Q1026 NOSIG
ZJHK,2020-02-18 02:00,ZJHK 180200Z 06006MPS 9999 BKN040 18/10 Q1027 NOSIG
ZJHK,2020-02-18 03:00,ZJHK 180300Z 07006MPS 9999 BKN030 18/11 Q1026 NOSIG
ZJHK,2020-02-18 04:00,ZJHK 180400Z 07007MPS 9999 BKN030 18/11 Q1025 NOSIG
ZJHK,2020-02-18 05:00,ZJHK 180500Z 06006MPS 9999 FEW016 OVC030 18/12 Q1025 NOSIG
ZJHK,2020-02-18 06:00,ZJHK 180600Z 07006MPS 9999 FEW016 OVC030 18/12 Q1023 NOSIG
ZJHK,2020-02-18 07:00,ZJHK 180700Z 07006MPS 9999 SCT016 OVC030 19/12 Q1022 NOSIG
ZJHK,2020-02-18 08:00,ZJHK 180800Z 07006MPS 9999 SCT016 OVC030 18/12 Q1022 NOSIG
ZJHK,2020-02-18 09:00,ZJHK 180900Z 06005MPS 9999 SCT020 BKN030 17/12 Q1022 NOSIG
ZJHK,2020-02-18 10:00,ZJHK 181000Z 05005MPS 020V090 9999 SCT020 OVC030 17/12 Q1022 NOSIG
ZJHK,2020-02-18 11:00,ZJHK 181100Z 07004MPS 9999 FEW020 OVC030 17/13 Q1022 NOSIG
ZJHK,2020-02-18 12:00,ZJHK 181200Z 06004MPS 9999 FEW020 OVC030 17/13 Q1023 NOSIG
ZJHK,2020-02-18 13:00,ZJHK 181300Z 05003MPS 020V080 9999 SCT020 OVC030 18/14 Q1023 NOSIG
ZJHK,2020-02-18 14:00,ZJHK 181400Z 08004MPS 9999 SCT020 OVC030 18/15 Q1023 NOSIG
ZJHK,2020-02-18 15:00,ZJHK 181500Z 07003MPS 9999 SCT030 OVC040 18/15 Q1023 NOSIG
ZJHK,2020-02-18 16:00,ZJHK 181600Z 08004MPS 9999 SCT030 OVC040 19/15 Q1023 NOSIG
ZJHK,2020-02-18 17:00,ZJHK 181700Z 07003MPS 9999 SCT020 OVC040 19/16 Q1023 NOSIG
ZJHK,2020-02-18 18:00,ZJHK 181800Z 07003MPS 9999 SCT016 OVC040 19/16 Q1022 NOSIG
ZJHK,2020-02-18 19:00,ZJHK 181900Z 07004MPS 9999 SCT016 OVC046 19/16 Q1022 NOSIG
ZJHK,2020-02-18 20:00,ZJHK 182000Z 06003MPS 9999 SCT016 OVC046 18/16 Q1022 NOSIG
ZJHK,2020-02-18 21:00,ZJHK 182100Z 04003MPS 9999 SCT016 OVC046 18/16 Q1022 NOSIG
ZJHK,2020-02-18 22:00,ZJHK 182200Z 04003MPS 9999 SCT016 OVC046 18/16 Q1022 NOSIG
ZJHK,2020-02-18 23:00,ZJHK 182300Z 04004MPS 9999 SCT016 OVC033 18/17 Q1023 NOSIG
ZJHK,2020-02-19 00:00,ZJHK 190000Z 05004MPS 9999 -RA SCT016 BKN033 18/16 Q1023 NOSIG
ZJHK,2020-02-19 01:00,ZJHK 190100Z 09005MPS CAVOK 19/17 Q1024 NOSIG
ZJHK,2020-02-19 02:00,ZJHK 190200Z 09007MPS 9999 FEW016 21/17 Q1024 NOSIG
ZJHK,2020-02-19 03:00,ZJHK 190300Z 09006MPS 9999 BKN023 21/16 Q1024 NOSIG
ZJHK,2020-02-19 04:00,ZJHK 190400Z 07005MPS 050V110 9999 BKN023 23/17 Q1024 NOSIG
ZJHK,2020-02-19 05:00,ZJHK 190500Z 10004MPS 060V130 9999 BKN023 23/17 Q1023 NOSIG
ZJHK,2020-02-19 06:00,ZJHK 190600Z 10005MPS 9999 SCT023 BKN040 24/17 Q1021 NOSIG
ZJHK,2020-02-19 07:00,ZJHK 190700Z 11005MPS 070V130 9999 BKN023 23/17 Q1020 NOSIG
ZJHK,2020-02-19 08:00,ZJHK 190800Z 10006MPS 9999 BKN023 23/17 Q1020 NOSIG
ZJHK,2020-02-19 09:00,ZJHK 190900Z 10006MPS 9999 BKN023 BKN040 22/17 Q1020 NOSIG
ZJHK,2020-02-19 10:00,ZJHK 191000Z 10005MPS 9999 SCT023 22/17 Q1020 NOSIG
ZJHK,2020-02-19 11:00,ZJHK 191100Z 08005MPS CAVOK 21/18 Q1020 NOSIG
ZJHK,2020-02-19 12:00,ZJHK 191200Z 09004MPS CAVOK 20/18 Q1021 NOSIG
ZJHK,2020-02-19 13:00,ZJHK 191300Z 08005MPS CAVOK 20/18 Q1021 NOSIG
ZJHK,2020-02-19 14:00,ZJHK 191400Z 09003MPS CAVOK 20/18 Q1022 NOSIG
ZJHK,2020-02-19 15:00,ZJHK 191500Z 10003MPS 9999 SCT016 20/18 Q1021 NOSIG
ZJHK,2020-02-19 16:00,ZJHK 191600Z 07003MPS 9999 BKN013 20/18 Q1021 NOSIG
ZJHK,2020-02-19 17:00,ZJHK 191700Z 07003MPS 9999 BKN013 20/18 Q1021 NOSIG
ZJHK,2020-02-19 18:00,ZJHK 191800Z 04002MPS 9999 BKN013 20/18 Q1021 NOSIG
ZJHK,2020-02-19 19:00,ZJHK 191900Z 05002MPS 9999 SCT013 BKN026 20/18 Q1020 NOSIG
ZJHK,2020-02-19 20:00,ZJHK 192000Z 07004MPS 9999 BKN046 20/18 Q1020 NOSIG
ZJHK,2020-02-19 21:00,ZJHK 192100Z 08005MPS CAVOK 20/18 Q1020 NOSIG
ZJHK,2020-02-19 22:00,ZJHK 192200Z 08005MPS CAVOK 20/18 Q1020 NOSIG
ZJHK,2020-02-19 23:00,ZJHK 192300Z 08005MPS CAVOK 20/18 Q1021 NOSIG
ZJHK,2020-02-20 00:00,ZJHK 200000Z 09005MPS CAVOK 20/18 Q1022 NOSIG
ZJHK,2020-02-20 01:00,ZJHK 200100Z 10004MPS CAVOK 21/19 Q1023 NOSIG
ZJHK,2020-02-20 02:00,ZJHK 200200Z 09005MPS 9999 FEW014 22/19 Q1024 NOSIG
ZJHK,2020-02-20 03:00,ZJHK 200300Z 10006MPS 9999 FEW016 23/19 Q1024 NOSIG
ZJHK,2020-02-20 04:00,ZJHK 200400Z 09006MPS 9999 SCT023 25/18 Q1024 NOSIG
ZJHK,2020-02-20 05:00,ZJHK 200500Z 09006MPS 9999 SCT026 26/18 Q1023 NOSIG
ZJHK,2020-02-20 06:00,ZJHK 200600Z 08008MPS 9999 FEW030 27/16 Q1021 NOSIG
ZJHK,2020-02-20 07:00,ZJHK 200700Z 07006MPS 9999 SCT026 25/19 Q1021 NOSIG
ZJHK,2020-02-20 08:00,ZJHK 200800Z 07006MPS 030V090 9999 SCT026 26/19 Q1020 NOSIG
ZJHK,2020-02-20 09:00,ZJHK 200900Z 10007MPS 9999 FEW026 24/18 Q1021 NOSIG
ZJHK,2020-02-20 10:00,ZJHK 201000Z 10005MPS 9999 FEW020 23/18 Q1021 NOSIG
ZJHK,2020-02-20 11:00,ZJHK 201100Z 10005MPS 9999 SCT020 21/18 Q1021 NOSIG
ZJHK,2020-02-20 12:00,ZJHK 201200Z 11003MPS 9999 FEW016 20/18 Q1022 NOSIG
ZJHK,2020-02-20 13:00,ZJHK 201300Z 10003MPS 9999 FEW016 20/18 Q1023 NOSIG
ZJHK,2020-02-20 14:00,ZJHK 201400Z 09002MPS CAVOK 19/18 Q1023 NOSIG
ZJHK,2020-02-20 15:00,ZJHK 201500Z 06003MPS 9999 FEW015 19/18 Q1024 NOSIG
ZJHK,2020-02-20 16:00,ZJHK 201600Z 06003MPS CAVOK 19/18 Q1024 NOSIG
ZJHK,2020-02-20 17:00,ZJHK 201700Z 07002MPS CAVOK 19/17 Q1023 NOSIG
ZJHK,2020-02-20 18:00,ZJHK 201800Z 06001MPS 8000 MIFG FEW026 18/17 Q1023 NOSIG
ZJHK,2020-02-20 19:00,ZJHK 201900Z 07003MPS 9999 FEW026 19/18 Q1022 NOSIG
ZJHK,2020-02-20 20:00,ZJHK 202000Z 05003MPS 9999 SCT016 BKN030 19/18 Q1023 NOSIG
ZJHK,2020-02-20 21:00,ZJHK 202100Z 05003MPS 9999 BKN018 19/18 Q1023 NOSIG
ZJHK,2020-02-20 22:00,ZJHK 202200Z 06004MPS 9999 BKN018 20/18 Q1023 NOSIG
ZJHK,2020-02-20 23:00,ZJHK 202300Z 05004MPS CAVOK 19/17 Q1024 NOSIG
ZJHK,2020-02-21 00:00,ZJHK 210000Z 06003MPS CAVOK 20/18 Q1026 NOSIG
ZJHK,2020-02-21 01:00,ZJHK 210100Z 06006MPS 9999 FEW013 SCT020 21/18 Q1026 NOSIG
ZJHK,2020-02-21 02:00,ZJHK 210200Z 07007MPS 9999 BKN020 22/18 Q1027 NOSIG
ZJHK,2020-02-21 03:00,ZJHK 210300Z 07007MPS 9999 BKN020 23/18 Q1027 NOSIG
ZJHK,2020-02-21 04:00,ZJHK 210400Z 07008MPS 9999 BKN020 23/18 Q1027 NOSIG
ZJHK,2020-02-21 05:00,ZJHK 210500Z 06008MPS 9999 BKN020 23/18 Q1026 NOSIG
ZJHK,2020-02-21 06:00,ZJHK 210600Z 07007MPS 9999 BKN016 BKN040 23/18 Q1025 NOSIG
ZJHK,2020-02-21 07:00,ZJHK 210700Z 08008MPS 9999 BKN016 BKN040 23/18 Q1024 NOSIG
ZJHK,2020-02-21 08:00,ZJHK 210800Z 07007MPS 9999 BKN016 BKN040 22/18 Q1024 NOSIG
ZJHK,2020-02-21 09:00,ZJHK 210900Z 07006MPS 9999 BKN016 22/18 Q1024 NOSIG
ZJHK,2020-02-21 10:00,ZJHK 211000Z 08006MPS 9999 BKN016 21/18 Q1024 NOSIG
ZJHK,2020-02-21 11:00,ZJHK 211100Z 08004MPS 9999 SCT020 20/18 Q1024 NOSIG
ZJHK,2020-02-21 12:00,ZJHK 211200Z 06003MPS 9999 SCT020 20/18 Q1025 NOSIG
ZJHK,2020-02-21 13:00,ZJHK 211300Z 06003MPS 9999 BKN016 20/18 Q1025 NOSIG
ZJHK,2020-02-21 14:00,ZJHK 211400Z 04004MPS 9999 BKN013 20/18 Q1026 NOSIG
ZJHK,2020-02-21 15:00,ZJHK 211500Z 03004MPS 360V060 9999 BKN015 20/18 Q1026 NOSIG
ZJHK,2020-02-21 16:00,ZJHK 211600Z 03003MPS 8000 BKN016 20/18 Q1026 NOSIG
ZJHK,2020-02-21 17:00,ZJHK 211700Z 03002MPS 360V090 9999 SCT020 20/18 Q1025 NOSIG
ZJHK,2020-02-21 18:00,ZJHK 211800Z 04002MPS 9999 FEW023 19/18 Q1025 NOSIG
ZJHK,2020-02-21 19:00,ZJHK 211900Z 02002MPS 9000 FEW023 19/18 Q1024 NOSIG
ZJHK,2020-02-21 20:00,ZJHK 212000Z 36003MPS 8000 FEW023 18/17 Q1024 NOSIG
ZJHK,2020-02-21 21:00,ZJHK 212100Z 03003MPS 360V060 8000 SCT006 BKN020 19/18 Q1024 NOSIG
ZJHK,2020-02-21 22:00,ZJHK 212200Z 05004MPS 9999 SCT006 BKN020 19/18 Q1024 NOSIG
ZJHK,2020-02-21 23:00,ZJHK 212300Z 04003MPS 9999 SCT013 BKN030 19/18 Q1025 NOSIG
ZJHK,2020-02-22 00:00,ZJHK 220000Z 07002MPS 9999 SCT010 BKN020 19/18 Q1026 NOSIG
ZJHK,2020-02-22 01:00,ZJHK 220100Z 04004MPS 9999 SCT010 SCT020 21/19 Q1027 NOSIG
ZJHK,2020-02-22 02:00,ZJHK 220200Z 07005MPS 050V110 9999 BKN020 22/19 Q1027 NOSIG
ZJHK,2020-02-22 03:00,ZJHK 220300Z 04004MPS 360V080 9999 BKN020 23/18 Q1027 NOSIG
ZJHK,2020-02-22 04:00,ZJHK 220400Z 04005MPS 9999 SCT020 24/18 Q1027 NOSIG
ZJHK,2020-02-22 05:00,ZJHK 220500Z 04005MPS 010V080 9999 SCT020 25/19 Q1026 NOSIG
ZJHK,2020-02-22 06:00,ZJHK 220600Z 04006MPS 360V070 9999 SCT020 25/18 Q1025 NOSIG
ZJHK,2020-02-22 07:00,ZJHK 220700Z 04005MPS 010V070 9999 FEW030 25/18 Q1024 NOSIG
ZJHK,2020-02-22 08:00,ZJHK 220800Z 04005MPS 9999 FEW030 24/17 Q1023 NOSIG
ZJHK,2020-02-22 09:00,ZJHK 220900Z 04005MPS CAVOK 23/17 Q1023 NOSIG
ZJHK,2020-02-22 10:00,ZJHK 221000Z 04004MPS CAVOK 22/17 Q1023 NOSIG
ZJHK,2020-02-22 11:00,ZJHK 221100Z 05003MPS CAVOK 20/17 Q1023 NOSIG
ZJHK,2020-02-22 12:00,ZJHK 221200Z 07004MPS CAVOK 20/15 Q1024 NOSIG
ZJHK,2020-02-22 13:00,ZJHK 221300Z 10002MPS CAVOK 18/16 Q1024 NOSIG
ZJHK,2020-02-22 14:00,ZJHK 221400Z 12001MPS CAVOK 17/15 Q1025 NOSIG
ZJHK,2020-02-22 15:00,ZJHK 221500Z 10001MPS 8000 NSC 16/15 Q1025 NOSIG
ZJHK,2020-02-22 16:00,ZJHK 221600Z 00000MPS 8000 NSC 16/15 Q1025 NOSIG
ZJHK,2020-02-22 17:00,ZJHK 221700Z 00000MPS 6000 NSC 15/14 Q1024 NOSIG
ZJHK,2020-02-22 18:00,ZJHK 221800Z 00000MPS 6000 R09/1200D BCFG NSC 15/14 Q1023 NOSIG
ZJHK,2020-02-22 19:00,ZJHK 221900Z 00000MPS 5000 R09/0175V0400N BR BCFG NSC 14/14 Q1023 NOSIG
ZJHK,2020-02-22 20:00,ZJHK 222000Z 00000MPS 4000 R09/0400V1200D BR BCFG NSC 14/13 Q1023 NOSIG
ZJHK,2020-02-22 21:00,ZJHK 222100Z 00000MPS 4000 R09/0350N BR BCFG SCT004 14/13 Q1023 NOSIG
ZJHK,2020-02-22 22:00,ZJHK 222200Z 00000MPS 3000 R09/0450V1400U BR BCFG SCT003 14/14 Q1023 BECMG TL2220 1600 BCFG BKN002
ZJHK,2020-02-22 23:00,ZJHK 222300Z 00000MPS 2000 BR BCFG SCT003 SCT020 15/14 Q1024 BECMG TL0030 5000 BR
ZJHK,2020-02-23 00:00,ZJHK 230000Z 00000MPS 5000 BR SCT016 17/16 Q1024 NOSIG
ZJHK,2020-02-23 01:00,ZJHK 230100Z 03003MPS 8000 NSC 20/19 Q1025 NOSIG
ZJHK,2020-02-23 02:00,ZJHK 230200Z 07006MPS 9999 BKN020 23/19 Q1025 NOSIG
ZJHK,2020-02-23 03:00,ZJHK 230300Z 07005MPS 9999 SCT023 24/17 Q1025 NOSIG
ZJHK,2020-02-23 04:00,ZJHK 230400Z 05006MPS 020V080 9999 SCT023 25/17 Q1024 NOSIG
ZJHK,2020-02-23 05:00,ZJHK 230500Z 07007MPS 9999 BKN026 24/18 Q1024 NOSIG
ZJHK,2020-02-23 06:00,ZJHK 230600Z 05006MPS 9999 SCT016 BKN033 23/19 Q1023 NOSIG
ZJHK,2020-02-23 07:00,ZJHK 230700Z 06006MPS 7000 -SHRA SCT012 FEW023TCU BKN033 22/19 Q1022 NOSIG
ZJHK,2020-02-23 08:00,ZJHK 230800Z 03005MPS 360V060 9999 SCT012 BKN033 21/19 Q1021 NOSIG
ZJHK,2020-02-23 09:00,ZJHK 230900Z 06005MPS 9999 BKN015 BKN030 21/19 Q1021 NOSIG
ZJHK,2020-02-23 10:00,ZJHK 231000Z 06006MPS 9999 SCT013 BKN026 21/18 Q1021 NOSIG
ZJHK,2020-02-23 11:00,ZJHK 231100Z 06006MPS 9999 BKN013 BKN046 21/18 Q1021 NOSIG
ZJHK,2020-02-23 12:00,ZJHK 231200Z 07005MPS 9999 BKN013 BKN046 21/18 Q1021 NOSIG
ZJHK,2020-02-23 13:00,ZJHK 231300Z 06004MPS 9999 BKN013 BKN033 20/18 Q1022 NOSIG
ZJHK,2020-02-23 14:00,ZJHK 231400Z 07003MPS 9999 SCT013 BKN033 20/18 Q1022 NOSIG
ZJHK,2020-02-23 15:00,ZJHK 231500Z 06002MPS 9999 FEW013 19/18 Q1022 NOSIG
ZJHK,2020-02-23 16:00,ZJHK 231600Z 05002MPS 020V080 CAVOK 19/18 Q1021 NOSIG
ZJHK,2020-02-23 17:00,ZJHK 231700Z 00000MPS 7000 NSC 18/17 Q1021 NOSIG
ZJHK,2020-02-23 18:00,ZJHK 231800Z 00000MPS 5000 R09/0400D BR BCFG NSC 17/16 Q1021 NOSIG
ZJHK,2020-02-23 19:00,ZJHK 231900Z 00000MPS 5000 BR BCFG NSC 17/17 Q1020 NOSIG
ZJHK,2020-02-23 20:00,ZJHK 232000Z 00000MPS 5000 R09/0125V0800N BR BCFG NSC 16/16 Q1019 NOSIG
ZJHK,2020-02-23 21:00,ZJHK 232100Z 00000MPS 5000 R09/0225V0600U BR BCFG NSC 16/16 Q1019 NOSIG
ZJHK,2020-02-23 22:00,ZJHK 232200Z 00000MPS 4000 R09/0275N BR BCFG SCT016 16/16 Q1019 NOSIG
ZJHK,2020-02-23 23:00,ZJHK 232300Z 00000MPS 3000 R09/0225V0650D BR BCFG SCT013 17/17 Q1020 NOSIG
ZJHK,2020-02-24 00:00,ZJHK 240000Z 36001MPS 4000 BR FEW013 19/18 Q1020 NOSIG
ZJHK,2020-02-24 01:00,ZJHK 240100Z 05003MPS 7000 FEW005 21/20 Q1021 NOSIG
ZJHK,2020-02-24 02:00,ZJHK 240200Z 04003MPS 360V080 9999 FEW010 BKN018 23/21 Q1021 NOSIG
ZJHK,2020-02-24 03:00,ZJHK 240300Z 08004MPS 030V120 9999 SCT016 25/20 Q1020 NOSIG
ZJHK,2020-02-24 04:00,ZJHK 240400Z 04005MPS 010V070 9999 BKN018 BKN036 24/19 Q1020 NOSIG
ZJHK,2020-02-24 05:00,ZJHK 240500Z 08005MPS 9999 FEW014 BKN020 BKN036 25/20 Q1019 NOSIG
ZJHK,2020-02-24 06:00,ZJHK 240600Z 04005MPS 9999 SCT014 BKN016 OVC026 23/19 Q1018 NOSIG
ZJHK,2020-02-24 07:00,ZJHK 240700Z 06005MPS 9999 SCT014 BKN026 OVC040 24/19 Q1017 NOSIG
ZJHK,2020-02-24 08:00,ZJHK 240800Z 04005MPS 9999 SCT011 SCT015 23/20 Q1017 NOSIG
ZJHK,2020-02-24 09:00,ZJHK 240900Z 04005MPS 9999 SCT011 BKN018 22/19 Q1017 NOSIG
ZJHK,2020-02-24 10:00,ZJHK 241000Z 05004MPS 020V090 9999 SCT010 BKN016 22/19 Q1017 NOSIG
ZJHK,2020-02-24 11:00,ZJHK 241100Z 09005MPS 9000 BKN009 BKN016 21/19 Q1017 NOSIG
ZJHK,2020-02-24 12:00,ZJHK 241200Z 09005MPS 8000 BKN006 BKN020 21/19 Q1017 BECMG TL1340 2800 BR BKN004 OVC015
ZJHK,2020-02-24 13:00,ZJHK 241300Z VRB01MPS 6000 BKN005 BKN020 20/19 Q1018 BECMG TL1450 2000 BR BKN004 OVC015
ZJHK,2020-02-24 14:00,ZJHK 241400Z VRB01MPS 4000 BR BKN004 BKN020 20/19 Q1018 BECMG TL1500 2000
ZJHK,2020-02-24 15:00,ZJHK 241500Z 05002MPS 020V080 2800 BR OVC003 20/20 Q1018 BECMG TL1620 0800 FG
ZJHK,2020-02-24 16:00,ZJHK 241600Z VRB01MPS 2800 BR OVC003 21/20 Q1018 NOSIG
ZJHK,2020-02-24 17:00,ZJHK 241700Z 00000MPS 2000 BR SCT002 OVC003 21/20 Q1017 BECMG TL1730 0800 FG BKN002 BKN015
ZJHK,2020-02-24 18:00,ZJHK 241800Z VRB01MPS 1200 R09/P2000 BR SCT002 OVC003 21/20 Q1017 NOSIG
ZJHK,2020-02-24 19:00,ZJHK 241900Z 00000MPS 1200 R09/1500N BR SCT002 OVC003 21/20 Q1016 NOSIG
ZJHK,2020-02-24 20:00,ZJHK 242000Z 00000MPS 1100 R09/0650V0800D BR SCT002 OVC003 21/20 Q1016 NOSIG
ZJHK,2020-02-24 21:00,ZJHK 242100Z 00000MPS 1300 R09/P2000 BR SCT002 OVC003 20/20 Q1016 NOSIG
ZJHK,2020-02-24 22:00,ZJHK 242200Z 00000MPS 1300 R09/0800V1300N BR SCT002 OVC003 21/20 Q1016 NOSIG
ZJHK,2020-02-24 23:00,ZJHK 242300Z 00000MPS 4000 BR FEW003 BKN005 OVC020 21/20 Q1017 NOSIG
ZJHK,2020-02-25 00:00,ZJHK 250000Z 00000MPS 6000 SCT003 BKN005 21/20 Q1018 BECMG TL0200 SCT010
ZJHK,2020-02-25 01:00,ZJHK 250100Z VRB01MPS 9999 BKN005 BKN020 22/21 Q1018 BECMG AT0200 SCT013 BKN023
ZJHK,2020-02-25 02:00,ZJHK 250200Z 11003MPS 070V160 9999 BKN010 BKN020 24/22 Q1019 NOSIG
ZJHK,2020-02-25 03:00,ZJHK 250300Z 05003MPS 350V100 9999 SCT015 BKN023 25/21 Q1019 NOSIG
ZJHK,2020-02-25 04:00,ZJHK 250400Z 01004MPS 350V060 9999 FEW010 SCT020 BKN040 25/22 Q1018 NOSIG
ZJHK,2020-02-25 05:00,ZJHK 250500Z 02004MPS 9999 SCT020 25/21 Q1017 NOSIG
ZJHK,2020-02-25 06:00,ZJHK 250600Z 02004MPS 340V070 9999 SCT020 26/21 Q1016 NOSIG
ZJHK,2020-02-25 07:00,ZJHK 250700Z 01005MPS 350V070 9999 SCT020 25/21 Q1015 NOSIG
ZJHK,2020-02-25 08:00,ZJHK 250800Z 03005MPS 9999 FEW016 SCT030 25/21 Q1015 NOSIG
ZJHK,2020-02-25 09:00,ZJHK 250900Z 04005MPS 020V110 9999 FEW010 SCT040 24/21 Q1015 NOSIG
ZJHK,2020-02-25 10:00,ZJHK 251000Z 06007MPS 9999 BKN007 BKN023 23/20 Q1015 NOSIG
ZJHK,2020-02-25 11:00,ZJHK 251100Z 06005MPS 8000 BKN007 BKN020 22/20 Q1015 NOSIG
ZJHK,2020-02-25 12:00,ZJHK 251200Z 07004MPS 8000 BKN006 BKN020 22/20 Q1016 NOSIG
ZJHK,2020-02-25 13:00,ZJHK 251300Z 08004MPS 8000 BKN006 SCT026 22/20 Q1017 NOSIG
ZJHK,2020-02-25 14:00,ZJHK 251400Z 06003MPS 8000 BKN006 SCT026 22/20 Q1017 NOSIG
ZJHK,2020-02-25 15:00,ZJHK 251500Z 06003MPS 8000 BKN005 BKN023 22/21 Q1017 NOSIG
ZJHK,2020-02-25 16:00,ZJHK 251600Z 06003MPS 8000 BKN005 BKN026 22/21 Q1017 NOSIG
ZJHK,2020-02-25 17:00,ZJHK 251700Z 09003MPS 7000 BKN005 BKN026 22/20 Q1017 NOSIG
ZJHK,2020-02-25 18:00,ZJHK 251800Z 11002MPS 6000 BKN005 BKN026 21/20 Q1017 NOSIG
ZJHK,2020-02-25 19:00,ZJHK 251900Z 14001MPS 5000 BR BKN005 BKN026 21/20 Q1016 NOSIG
ZJHK,2020-02-25 20:00,ZJHK 252000Z 12001MPS 5000 BR BKN005 BKN026 21/20 Q1016 NOSIG
ZJHK,2020-02-25 21:00,ZJHK 252100Z 10003MPS 5000 BR BKN004 BKN026 21/20 Q1016 NOSIG
ZJHK,2020-02-25 22:00,ZJHK 252200Z 10002MPS 4000 BR BKN003 BKN026 21/20 Q1017 NOSIG
ZJHK,2020-02-25 23:00,ZJHK 252300Z 08002MPS 4000 BR BKN004 BKN026 21/20 Q1018 NOSIG
ZJHK,2020-02-26 00:00,ZJHK 260000Z 07003MPS 0800 R09/P2000 FG VV003 21/21 Q1018 BECMG TL0030 2000 BR
ZJHK,2020-02-26 01:00,ZJHK 260100Z 04004MPS 1600 BR FEW002 OVC003 21/21 Q1019 BECMG TL0200 3000 BR BKN005
ZJHK,2020-02-26 02:00,ZJHK 260200Z 08004MPS 050V110 9999 BKN005 BKN020 22/21 Q1020 BECMG TL0300 SCT006 BKN026
ZJHK,2020-02-26 03:00,ZJHK 260300Z 05003MPS 9999 SCT008 BKN023 24/21 Q1019 NOSIG
ZJHK,2020-02-26 04:00,ZJHK 260400Z 05003MPS 010V100 9999 SCT015 BKN023 26/21 Q1019 NOSIG
ZJHK,2020-02-26 05:00,ZJHK 260500Z 04003MPS 340V080 9999 BKN023 27/21 Q1018 NOSIG
ZJHK,2020-02-26 06:00,ZJHK 260600Z 03005MPS 360V060 9999 SCT023 27/21 Q1017 NOSIG
ZJHK,2020-02-26 07:00,ZJHK 260700Z 04006MPS 9999 SCT023 28/21 Q1016 NOSIG
ZJHK,2020-02-26 08:00,ZJHK 260800Z 06006MPS 9999 FEW023 27/21 Q1016 NOSIG
ZJHK,2020-02-26 09:00,ZJHK 260900Z 07007MPS 9999 FEW023 26/20 Q1016 NOSIG
ZJHK,2020-02-26 10:00,ZJHK 261000Z 07006MPS 9999 FEW023 25/20 Q1016 NOSIG
ZJHK,2020-02-26 11:00,ZJHK 261100Z 07006MPS CAVOK 23/20 Q1016 NOSIG
ZJHK,2020-02-26 12:00,ZJHK 261200Z 08004MPS CAVOK 22/20 Q1017 NOSIG
ZJHK,2020-02-26 13:00,ZJHK 261300Z 10003MPS 070V130 9999 BKN010 22/20 Q1018 BECMG TL1450 BKN005
ZJHK,2020-02-26 14:00,ZJHK 261400Z 10003MPS 9999 BKN010 22/20 Q1018 BECMG TL1450 BKN005
ZJHK,2020-02-26 15:00,ZJHK 261500Z 12002MPS 090V160 9999 BKN006 21/20 Q1018 NOSIG
ZJHK,2020-02-26 16:00,ZJHK 261600Z 00000MPS 8000 BKN006 21/20 Q1018 NOSIG
ZJHK,2020-02-26 17:00,ZJHK 261700Z 00000MPS 8000 BKN006 21/20 Q1018 NOSIG
ZJHK,2020-02-26 18:00,ZJHK 261800Z 06002MPS 020V100 9999 FEW020 21/20 Q1017 NOSIG
ZJHK,2020-02-26 19:00,ZJHK 261900Z 04002MPS 9999 FEW006 BKN020 21/20 Q1016 NOSIG
ZJHK,2020-02-26 20:00,ZJHK 262000Z VRB01MPS 6000 BKN006 BKN020 21/20 Q1016 NOSIG
ZJHK,2020-02-26 21:00,ZJHK 262100Z VRB01MPS 6000 BKN006 BKN020 21/20 Q1016 NOSIG
ZJHK,2020-02-26 22:00,ZJHK 262200Z 04003MPS 6000 BKN006 BKN020 21/20 Q1017 NOSIG
ZJHK,2020-02-26 23:00,ZJHK 262300Z 03002MPS 340V060 5000 BR BKN006 BKN020 21/20 Q1017 NOSIG
ZJHK,2020-02-27 00:00,ZJHK 270000Z 06003MPS 5000 BR BKN006 BKN026 21/20 Q1018 NOSIG
ZJHK,2020-02-27 01:00,ZJHK 270100Z 08004MPS 7000 BKN008 BKN026 22/21 Q1019 NOSIG
ZJHK,2020-02-27 02:00,ZJHK 270200Z 09005MPS 9999 SCT010 BKN026 24/21 Q1019 NOSIG
ZJHK,2020-02-27 03:00,ZJHK 270300Z 09006MPS 9999 BKN020 25/20 Q1020 NOSIG
ZJHK,2020-02-27 04:00,ZJHK 270400Z 07006MPS 040V110 9999 BKN020 26/20 Q1019 NOSIG
ZJHK,2020-02-27 05:00,ZJHK 270500Z 07006MPS 040V100 9999 BKN020 27/20 Q1018 NOSIG
ZJHK,2020-02-27 06:00,ZJHK 270600Z 08007MPS 9999 BKN020 27/21 Q1017 NOSIG
ZJHK,2020-02-27 07:00,ZJHK 270700Z 08006MPS 050V110 9999 BKN020 28/21 Q1016 NOSIG
ZJHK,2020-02-27 08:00,ZJHK 270800Z 08007MPS 9999 SCT020 27/21 Q1015 NOSIG
ZJHK,2020-02-27 09:00,ZJHK 270900Z 08008MPS 9999 SCT013 25/21 Q1016 NOSIG
ZJHK,2020-02-27 10:00,ZJHK 271000Z 08007MPS 9999 SCT013 24/20 Q1016 NOSIG
ZJHK,2020-02-27 11:00,ZJHK 271100Z 08006MPS 9999 SCT013 23/20 Q1016 NOSIG
ZJHK,2020-02-27 12:00,ZJHK 271200Z 08004MPS 9999 BKN007 23/21 Q1017 NOSIG
ZJHK,2020-02-27 13:00,ZJHK 271300Z 05003MPS 020V080 9999 BKN009 23/21 Q1018 NOSIG
ZJHK,2020-02-27 14:00,ZJHK 271400Z 10005MPS 9999 SCT009 22/20 Q1018 NOSIG
ZJHK,2020-02-27 15:00,ZJHK 271500Z 11004MPS 9999 FEW009 22/20 Q1018 NOSIG
ZJHK,2020-02-27 16:00,ZJHK 271600Z 10004MPS CAVOK 22/20 Q1018 NOSIG
ZJHK,2020-02-27 17:00,ZJHK 271700Z 12003MPS CAVOK 21/20 Q1018 NOSIG
ZJHK,2020-02-27 18:00,ZJHK 271800Z 09003MPS CAVOK 20/19 Q1017 NOSIG
ZJHK,2020-02-27 19:00,ZJHK 271900Z 09002MPS CAVOK 20/19 Q1016 NOSIG
ZJHK,2020-02-27 20:00,ZJHK 272000Z 00000MPS 9999 SCT020 20/19 Q1016 NOSIG
ZJHK,2020-02-27 21:00,ZJHK 272100Z 00000MPS 9999 SCT020 20/19 Q1015 NOSIG
ZJHK,2020-02-27 22:00,ZJHK 272200Z 00000MPS 7000 BKN033 20/19 Q1016 NOSIG
ZJHK,2020-02-27 23:00,ZJHK 272300Z 05001MPS 9000 SCT012 BKN033 20/19 Q1016 NOSIG
ZJHK,2020-02-28 00:00,ZJHK 280000Z 07003MPS 9999 SCT020 22/21 Q1017 NOSIG
ZJHK,2020-02-28 01:00,ZJHK 280100Z 08005MPS 9999 SCT010 SCT016 24/21 Q1017 NOSIG
ZJHK,2020-02-28 02:00,ZJHK 280200Z 09005MPS 9999 SCT015 BKN023 26/21 Q1018 NOSIG
ZJHK,2020-02-28 03:00,ZJHK 280300Z 01003MPS 340V040 9999 BKN023 BKN040 24/21 Q1018 NOSIG
ZJHK,2020-02-28 04:00,ZJHK 280400Z 05005MPS 020V080 9999 FEW016 SCT023 BKN040 25/22 Q1017 NOSIG
ZJHK,2020-02-28 05:00,ZJHK 280500Z 07006MPS 8000 -SHRA SCT010 FEW018TCU BKN020 24/22 Q1016 NOSIG
ZJHK,2020-02-28 06:00,ZJHK 280600Z 02005MPS 350V050 6000 -SHRA SCT008 FEW018TCU BKN020 22/21 Q1015 NOSIG
ZJHK,2020-02-28 07:00,ZJHK 280700Z 04006MPS 5000 -SHRA BR FEW005 SCT008 FEW018TCU BKN020 22/21 Q1015 NOSIG
ZJHK,2020-02-28 08:00,ZJHK 280800Z 04003MPS 010V080 7000 -SHRA FEW005 SCT008 FEW018TCU BKN020 22/21 Q1014 RESHRA NOSIG
ZJHK,2020-02-28 09:00,ZJHK 280900Z 05006MPS 9999 -SHRA FEW005 BKN007 FEW017TCU BKN020 22/21 Q1014 BECMG TL1040 BKN015
ZJHK,2020-02-28 10:00,ZJHK 281000Z 08006MPS 9999 -RA BKN010 BKN020 22/21 Q1014 BECMG TL1120 BKN015
ZJHK,2020-02-28 11:00,ZJHK 281100Z 08005MPS 8000 -RA FEW010 SCT020 BKN026 22/21 Q1014 RESHRA NOSIG
ZJHK,2020-02-28 12:00,ZJHK 281200Z 09005MPS 9000 BKN010 BKN026 22/21 Q1015 NOSIG
ZJHK,2020-02-28 13:00,ZJHK 281300Z 08004MPS 8000 FEW006 SCT008 BKN030 22/21 Q1015 NOSIG
ZJHK,2020-02-28 14:00,ZJHK 281400Z 10003MPS 7000 FEW006 SCT008 BKN026 21/20 Q1016 NOSIG
ZJHK,2020-02-28 15:00,ZJHK 281500Z 09002MPS 7000 FEW009 SCT020 21/20 Q1016 NOSIG
ZJHK,2020-02-28 16:00,ZJHK 281600Z 00000MPS 7000 FEW009 SCT020 21/20 Q1016 NOSIG
ZJHK,2020-02-28 17:00,ZJHK 281700Z 10001MPS 5000 BR FEW010 SCT020 20/20 Q1015 NOSIG
ZJHK,2020-02-28 18:00,ZJHK 281800Z 12002MPS 5000 BR FEW010 SCT020 21/20 Q1014 NOSIG
ZJHK,2020-02-28 19:00,ZJHK 281900Z VRB01MPS 5000 BR SCT003 21/20 Q1014 NOSIG
ZJHK,2020-02-28 20:00,ZJHK 282000Z 07001MPS 5000 BR FEW003 21/20 Q1014 NOSIG
ZJHK,2020-02-28 21:00,ZJHK 282100Z 10002MPS 5000 BR FEW006 21/20 Q1013 NOSIG
ZJHK,2020-02-28 22:00,ZJHK 282200Z VRB01MPS 5000 BR SCT005 21/20 Q1014 NOSIG
ZJHK,2020-02-28 23:00,ZJHK 282300Z 05001MPS 4000 BR BCFG FEW006 SCT010 21/20 Q1014 NOSIG
ZJHK,2020-02-29 00:00,ZJHK 290000Z 07002MPS 6000 SCT010 BKN016 22/21 Q1015 NOSIG
ZJHK,2020-02-29 01:00,ZJHK 290100Z 08004MPS 8000 SCT010 BKN026 23/22 Q1015 NOSIG
ZJHK,2020-02-29 02:00,ZJHK 290200Z 11004MPS 9999 SCT010 SCT026 24/22 Q1015 NOSIG
ZJHK,2020-02-29 03:00,ZJHK 290300Z 12003MPS 070V170 9999 BKN026 26/22 Q1015 NOSIG
ZJHK,2020-02-29 04:00,ZJHK 290400Z 13004MPS 090V190 9999 BKN026 28/20 Q1014 NOSIG
ZJHK,2020-02-29 05:00,ZJHK 290500Z 14004MPS 100V210 9999 BKN026 29/21 Q1013 NOSIG
ZJHK,2020-02-29 06:00,ZJHK 290600Z 11003MPS 090V150 9999 BKN026 28/21 Q1012 NOSIG
ZJHK,2020-02-29 07:00,ZJHK 290700Z 14002MPS 090V180 9999 BKN040 29/21 Q1011 NOSIG
ZJHK,2020-02-29 08:00,ZJHK 290800Z 01004MPS 320V080 9999 -SHRA SCT030TCU SCT040 25/21 Q1011 NOSIG
ZJHK,2020-02-29 09:00,ZJHK 290900Z 10003MPS 040V120 9999 FEW026TCU SCT026 27/21 Q1011 NOSIG
ZJHK,2020-02-29 10:00,ZJHK 291000Z 13004MPS 9999 BKN026 26/21 Q1011 NOSIG
ZJHK,2020-02-29 11:00,ZJHK 291100Z 12004MPS 9999 SCT030 24/20 Q1011 NOSIG
ZJHK,2020-02-29 12:00,ZJHK 291200Z 12003MPS CAVOK 23/21 Q1012 NOSIG
ZJHK,2020-02-29 13:00,ZJHK 291300Z 12002MPS CAVOK 23/21 Q1013 NOSIG
ZJHK,2020-02-29 14:00,ZJHK 291400Z 12002MPS 9999 FEW040 22/21 Q1013 NOSIG
ZJHK,2020-02-29 15:00,ZJHK 291500Z 14001MPS CAVOK 22/21 Q1014 NOSIG
ZJHK,2020-02-29 16:00,ZJHK 291600Z VRB01MPS 9999 BKN013 22/21 Q1014 NOSIG
ZJHK,2020-02-29 17:00,ZJHK 291700Z 12002MPS 8000 FEW013 22/21 Q1013 NOSIG
ZJHK,2020-02-29 18:00,ZJHK 291800Z 11002MPS 8000 BKN013 22/21 Q1013 NOSIG
ZJHK,2020-02-29 19:00,ZJHK 291900Z 10002MPS CAVOK 21/21 Q1012 NOSIG
ZJHK,2020-02-29 20:00,ZJHK 292000Z 12002MPS 4000 BR FEW002 BKN004 BKN023 22/21 Q1012 NOSIG
ZJHK,2020-02-29 21:00,ZJHK 292100Z 00000MPS 4000 BR FEW003 BKN023 21/21 Q1012 NOSIG
ZJHK,2020-02-29 22:00,ZJHK 292200Z 00000MPS 3000 R09/0325V0500D BR BCFG FEW002 SCT006 20/19 Q1013 NOSIG
ZJHK,2020-02-29 23:00,ZJHK 292300Z 00000MPS 1800 R09/0400V0650N BR BCFG BKN002 SCT026 20/19 Q1014 BECMG AT2320 0800 FG
ZJHK,2020-03-01 00:00,ZJHK 010000Z 00000MPS 3000 BR SCT001 BKN004 BKN023 21/21 Q1014 NOSIG
ZJHK,2020-03-01 01:00,ZJHK 010100Z 00000MPS 9999 FEW006 BKN023 22/21 Q1015 NOSIG
ZJHK,2020-03-01 02:00,ZJHK 010200Z 20002MPS 160V240 9999 BKN023 BKN033 23/22 Q1016 NOSIG
ZJHK,2020-03-01 03:00,ZJHK 010300Z 19002MPS 130V240 9999 SCT023 BKN033 25/22 Q1016 NOSIG
ZJHK,2020-03-01 04:00,ZJHK 010400Z VRB01MPS 9999 BKN023 27/21 Q1015 NOSIG
ZJHK,2020-03-01 05:00,ZJHK 010500Z VRB01MPS 9999 BKN023 28/20 Q1014 NOSIG
ZJHK,2020-03-01 06:00,ZJHK 010600Z 04004MPS 350V060 9999 SCT026 SCT046 28/22 Q1013 NOSIG
ZJHK,2020-03-01 07:00,ZJHK 010700Z 03005MPS 9999 FEW026 28/22 Q1012 NOSIG
ZJHK,2020-03-01 08:00,ZJHK 010800Z 04006MPS 010V070 9999 FEW026 27/22 Q1012 NOSIG
ZJHK,2020-03-01 09:00,ZJHK 010900Z 07007MPS 9999 FEW026 SCT046 27/21 Q1012 NOSIG
ZJHK,2020-03-01 10:00,ZJHK 011000Z 08006MPS 9999 FEW016 SCT040 26/21 Q1012 NOSIG
ZJHK,2020-03-01 11:00,ZJHK 011100Z 09005MPS 9999 BKN033 25/21 Q1012 NOSIG
ZJHK,2020-03-01 12:00,ZJHK 011200Z 11004MPS 9999 SCT040 24/21 Q1013 NOSIG
ZJHK,2020-03-01 13:00,ZJHK 011300Z 12002MPS CAVOK 23/21 Q1014 NOSIG
ZJHK,2020-03-01 14:00,ZJHK 011400Z 16001MPS CAVOK 22/20 Q1014 NOSIG
ZJHK,2020-03-01 15:00,ZJHK 011500Z VRB01MPS CAVOK 22/21 Q1014 NOSIG
ZJHK,2020-03-01 16:00,ZJHK 011600Z 00000MPS CAVOK 21/20 Q1014 NOSIG
ZJHK,2020-03-01 17:00,ZJHK 011700Z 00000MPS 9999 BCFG NSC 20/19 Q1014 NOSIG
ZJHK,2020-03-01 18:00,ZJHK 011800Z 00000MPS CAVOK 20/19 Q1014 NOSIG
ZJHK,2020-03-01 19:00,ZJHK 011900Z 00000MPS CAVOK 21/20 Q1013 NOSIG
ZJHK,2020-03-01 20:00,ZJHK 012000Z 09002MPS 060V130 9999 SCT007 21/21 Q1013 NOSIG
ZJHK,2020-03-01 21:00,ZJHK 012100Z 11002MPS 4000 BR BKN003 21/21 Q1014 BECMG TL2200 2000 BR BCFG
ZJHK,2020-03-01 22:00,ZJHK 012200Z 10002MPS 1100 R09/0550N BR BCFG SCT002 BKN004 21/21 Q1014 BECMG TL2230 0700 FG
ZJHK,2020-03-01 23:00,ZJHK 012300Z 11002MPS 0700 R09/0700V1000D FG SCT002 OVC004 21/20 Q1015 BECMG TL0040 2000 BR SCT003 BKN020
ZJHK,2020-03-02 00:00,ZJHK 020000Z 11001MPS 0400 R09/0350N FG BKN002 21/21 Q1016 BECMG TL0100 2000 BR SCT003 SCT020
ZJHK,2020-03-02 01:00,ZJHK 020100Z 12002MPS 100V160 9999 SCT009 SCT016 22/22 Q1016 NOSIG
ZJHK,2020-03-02 02:00,ZJHK 020200Z 13003MPS 090V180 9999 SCT009 BKN016 24/23 Q1016 NOSIG
ZJHK,2020-03-02 03:00,ZJHK 020300Z 12006MPS 100V170 9999 BKN023 27/21 Q1016 NOSIG
ZJHK,2020-03-02 04:00,ZJHK 020400Z 13004MPS 100V160 9999 BKN023 28/20 Q1016 NOSIG
ZJHK,2020-03-02 05:00,ZJHK 020500Z 13004MPS 090V170 9999 BKN026 28/20 Q1014 NOSIG
ZJHK,2020-03-02 06:00,ZJHK 020600Z 09008MPS 9999 SCT026 29/21 Q1013 NOSIG
ZJHK,2020-03-02 07:00,ZJHK 020700Z 13005MPS 100V160 9999 SCT040 28/19 Q1013 NOSIG
ZJHK,2020-03-02 08:00,ZJHK 020800Z 13006MPS 110V170 9999 SCT040 28/19 Q1012 NOSIG
ZJHK,2020-03-02 09:00,ZJHK 020900Z 13005MPS 100V160 9999 BKN033 27/19 Q1013 NOSIG
ZJHK,2020-03-02 10:00,ZJHK 021000Z 12005MPS 090V150 9999 SCT046 26/20 Q1013 NOSIG
ZJHK,2020-03-02 11:00,ZJHK 021100Z 11005MPS CAVOK 24/20 Q1014 NOSIG
ZJHK,2020-03-02 12:00,ZJHK 021200Z 11004MPS CAVOK 23/20 Q1015 NOSIG
ZJHK,2020-03-02 13:00,ZJHK 021300Z 11003MPS CAVOK 23/20 Q1015 NOSIG
ZJHK,2020-03-02 14:00,ZJHK 021400Z 11004MPS CAVOK 23/20 Q1016 NOSIG
ZJHK,2020-03-02 15:00,ZJHK 021500Z 11003MPS CAVOK 22/20 Q1016 NOSIG
ZJHK,2020-03-02 16:00,ZJHK 021600Z 11002MPS CAVOK 21/20 Q1016 NOSIG
ZJHK,2020-03-02 17:00,ZJHK 021700Z 13003MPS 100V160 CAVOK 21/20 Q1015 NOSIG
ZJHK,2020-03-02 18:00,ZJHK 021800Z 12002MPS CAVOK 21/20 Q1015 NOSIG
ZJHK,2020-03-02 19:00,ZJHK 021900Z 00000MPS CAVOK 20/19 Q1015 NOSIG
ZJHK,2020-03-02 20:00,ZJHK 022000Z 10002MPS CAVOK 20/19 Q1014 NOSIG
ZJHK,2020-03-02 21:00,ZJHK 022100Z 00000MPS CAVOK 20/19 Q1015 NOSIG
ZJHK,2020-03-02 22:00,ZJHK 022200Z 12002MPS 9999 SCT046 21/20 Q1015 NOSIG
ZJHK,2020-03-02 23:00,ZJHK 022300Z 10001MPS 9999 SCT046 21/20 Q1016 NOSIG
ZJHK,2020-03-03 00:00,ZJHK 030000Z 09002MPS CAVOK 21/21 Q1016 NOSIG
ZJHK,2020-03-03 01:00,ZJHK 030100Z 10002MPS 070V130 9999 FEW016 24/22 Q1017 NOSIG
ZJHK,2020-03-03 02:00,ZJHK 030200Z 11004MPS 090V160 9999 SCT015 SCT020 25/22 Q1018 NOSIG
ZJHK,2020-03-03 03:00,ZJHK 030300Z 13005MPS 9999 FEW020 SCT026 27/20 Q1017 NOSIG
ZJHK,2020-03-03 04:00,ZJHK 030400Z 12005MPS 080V160 9999 SCT026 BKN040 27/20 Q1016 NOSIG
ZJHK,2020-03-03 05:00,ZJHK 030500Z 11004MPS 9999 BKN030 BKN040 27/20 Q1015 NOSIG
ZJHK,2020-03-03 06:00,ZJHK 030600Z 11005MPS 9999 BKN030 29/20 Q1014 NOSIG
ZJHK,2020-03-03 07:00,ZJHK 030700Z 14005MPS 100V160 9999 SCT030 28/19 Q1013 NOSIG
ZJHK,2020-03-03 08:00,ZJHK 030800Z 12006MPS 9999 SCT030 27/19 Q1013 NOSIG
ZJHK,2020-03-03 09:00,ZJHK 030900Z 10005MPS 9999 SCT026 27/20 Q1013 NOSIG
ZJHK,2020-03-03 10:00,ZJHK 031000Z 12005MPS CAVOK 26/20 Q1013 NOSIG
ZJHK,2020-03-03 11:00,ZJHK 031100Z 12004MPS 090V160 CAVOK 24/20 Q1013 NOSIG
ZJHK,2020-03-03 12:00,ZJHK 031200Z 13003MPS CAVOK 24/20 Q1014 NOSIG
ZJHK,2020-03-03 13:00,ZJHK 031300Z 15003MPS 110V190 CAVOK 23/21 Q1015 NOSIG
ZJHK,2020-03-03 14:00,ZJHK 031400Z VRB01MPS CAVOK 22/21 Q1015 NOSIG
ZJHK,2020-03-03 15:00,ZJHK 031500Z 09002MPS 9999 FEW016 21/20 Q1016 NOSIG
ZJHK,2020-03-03 16:00,ZJHK 031600Z 08002MPS 9999 FEW012 SCT016 21/20 Q1016 NOSIG
ZJHK,2020-03-03 17:00,ZJHK 031700Z 06002MPS 9999 FEW012 SCT016 22/21 Q1015 NOSIG
ZJHK,2020-03-03 18:00,ZJHK 031800Z VRB01MPS 9999 FEW012 SCT016 22/20 Q1015 NOSIG
ZJHK,2020-03-03 19:00,ZJHK 031900Z 06002MPS 9999 FEW005 SCT014 21/20 Q1014 NOSIG
ZJHK,2020-03-03 20:00,ZJHK 032000Z 08002MPS 9999 SCT012 SCT030 21/20 Q1014 NOSIG
ZJHK,2020-03-03 21:00,ZJHK 032100Z 08002MPS 9999 FEW005 SCT012 21/20 Q1014 NOSIG
ZJHK,2020-03-03 22:00,ZJHK 032200Z 08003MPS 7000 FEW002 SCT004 BKN016 21/21 Q1014 NOSIG
ZJHK,2020-03-03 23:00,ZJHK 032300Z 09003MPS 6000 FEW003 SCT011 BKN046 21/21 Q1015 NOSIG
ZJHK,2020-03-04 00:00,ZJHK 040000Z 10002MPS 8000 SCT011 BKN016 BKN046 22/21 Q1016 NOSIG
ZJHK,2020-03-04 01:00,ZJHK 040100Z 10003MPS 9999 BKN008 SCT020 23/22 Q1016 BECMG TL0200 SCT008 BKN020
ZJHK,2020-03-04 02:00,ZJHK 040200Z 12006MPS 100V160 9999 FEW010 SCT020 25/22 Q1016 NOSIG
ZJHK,2020-03-04 03:00,ZJHK 040300Z 12004MPS 090V150 9999 BKN020 SCT040 27/21 Q1016 NOSIG
ZJHK,2020-03-04 04:00,ZJHK 040400Z 12004MPS 090V160 9999 FEW010 BKN023 28/20 Q1016 NOSIG
ZJHK,2020-03-04 05:00,ZJHK 040500Z 16003MPS 120V200 9999 BKN030 28/19 Q1015 NOSIG
ZJHK,2020-03-04 06:00,ZJHK 040600Z VRB01MPS 9999 BKN030 27/19 Q1015 NOSIG
ZJHK,2020-03-04 07:00,ZJHK 040700Z 02005MPS 340V060 9999 -RA BKN030 22/20 Q1014 NOSIG
ZJHK,2020-03-04 08:00,ZJHK 040800Z 03006MPS 9999 -RA SCT006 BKN033 22/20 Q1014 NOSIG
ZJHK,2020-03-04 09:00,ZJHK 040900Z 03007MPS 360V060 7000 -SHRA BKN006 FEW026TCU BKN026 21/19 Q1015 BECMG TL1000 SCT007 BKN030
ZJHK,2020-03-04 10:00,ZJHK 041000Z 04007G13MPS 360V070 6000 -SHRA BKN005 SCT023TCU SCT023 21/19 Q1015 BECMG TL1100 BKN004 BKN020
ZJHK,2020-03-04 11:00,ZJHK 041100Z 03007MPS 9999 -SHRA BKN005 FEW026TCU BKN026 20/19 Q1016 BECMG TL1200 SCT007 BKN020
ZJHK,2020-03-04 12:00,ZJHK 041200Z 04006MPS 8000 -SHRA BKN005 FEW026TCU BKN026 20/19 Q1017 BECMG TL1200 SCT007 BKN020
ZJHK,2020-03-04 13:00,ZJHK 041300Z 05007MPS 9999 -RA BKN004 BKN026 19/18 Q1018 BECMG TL1450 SCT007 BKN020
ZJHK,2020-03-04 14:00,ZJHK 041400Z 05006MPS 9999 -RA BKN006 BKN026 19/17 Q1018 BECMG TL1450 SCT007 BKN020
ZJHK,2020-03-04 15:00,ZJHK 041500Z 05005MPS 020V080 9999 -RA BKN010 BKN033 19/18 Q1019 BECMG TL1600 SCT010 BKN030
ZJHK,2020-03-04 16:00,ZJHK 041600Z 05005MPS 9999 -RA BKN010 BKN033 19/18 Q1018 NOSIG
ZJHK,2020-03-04 17:00,ZJHK 041700Z 07006MPS 9999 -RA BKN010 BKN033 19/18 Q1017 NOSIG
ZJHK,2020-03-04 18:00,ZJHK 041800Z 07005MPS 9999 BKN010 BKN033 20/18 Q1017 NOSIG
ZJHK,2020-03-04 19:00,ZJHK 041900Z 06006MPS 9999 BKN010 BKN033 20/18 Q1017 NOSIG
ZJHK,2020-03-04 20:00,ZJHK 042000Z 05004MPS 9999 BKN013 BKN033 20/18 Q1016 NOSIG
ZJHK,2020-03-04 21:00,ZJHK 042100Z 05004MPS 9999 BKN013 BKN033 20/18 Q1016 NOSIG
ZJHK,2020-03-04 22:00,ZJHK 042200Z 04004MPS 9999 -RA BKN013 BKN033 20/18 Q1017 NOSIG
ZJHK,2020-03-04 23:00,ZJHK 042300Z 06005MPS 9999 BKN013 BKN033 20/18 Q1017 NOSIG
ZJHK,2020-03-05 00:00,ZJHK 050000Z 06004MPS 9999 BKN010 BKN033 20/19 Q1018 NOSIG
ZJHK,2020-03-05 01:00,ZJHK 050100Z 05004MPS 9999 -RA BKN010 OVC026 21/19 Q1018 NOSIG
ZJHK,2020-03-05 02:00,ZJHK 050200Z 05006MPS 7000 -RA SCT005 BKN010 OVC026 20/19 Q1019 NOSIG
ZJHK,2020-03-05 03:00,ZJHK 050300Z 06006MPS 9999 BKN007 OVC026 20/19 Q1019 BECMG TL0400 SCT010 BKN026
ZJHK,2020-03-05 04:00,ZJHK 050400Z 06005MPS 9999 SCT010 OVC026 21/19 Q1018 NOSIG
ZJHK,2020-03-05 05:00,ZJHK 050500Z 07007MPS 9999 SCT010 OVC026 21/19 Q1018 NOSIG
ZJHK,2020-03-05 06:00,ZJHK 050600Z 07007MPS 8000 SCT010 OVC026 21/18 Q1016 BECMG TL0650 BKN010 BKN026
ZJHK,2020-03-05 07:00,ZJHK 050700Z 08009MPS 8000 SCT010 OVC026 21/19 Q1015 NOSIG
ZJHK,2020-03-05 08:00,ZJHK 050800Z 08006MPS 8000 -RA SCT010 OVC026 21/19 Q1015 BECMG TL0840 BKN010 BKN026
ZJHK,2020-03-05 09:00,ZJHK 050900Z 07004MPS 7000 -RA BKN009 OVC026 21/19 Q1015 NOSIG
ZJHK,2020-03-05 10:00,ZJHK 051000Z 06004MPS 9999 BKN010 OVC026 21/19 Q1015 NOSIG
ZJHK,2020-03-05 11:00,ZJHK 051100Z 06003MPS 7000 -RA BKN010 OVC026 21/20 Q1015 NOSIG
ZJHK,2020-03-05 12:00,ZJHK 051200Z 09003MPS 060V120 9999 -RA BKN010 OVC026 21/20 Q1015 NOSIG
ZJHK,2020-03-05 13:00,ZJHK 051300Z 08004MPS 9999 -RA BKN013 OVC026 21/20 Q1016 BECMG TL1400 SCT013 BKN026
ZJHK,2020-03-05 14:00,ZJHK 051400Z 08003MPS 7000 -RA SCT013 OVC026 21/20 Q1017 NOSIG
ZJHK,2020-03-05 15:00,ZJHK 051500Z 10004MPS 8000 -RA SCT013 OVC026 21/20 Q1017 NOSIG
ZJHK,2020-03-05 16:00,ZJHK 051600Z 10003MPS 8000 -RA FEW006 SCT013 OVC026 21/20 Q1017 NOSIG
ZJHK,2020-03-05 17:00,ZJHK 051700Z 10003MPS 9999 -RA FEW006 SCT013 OVC026 21/20 Q1017 NOSIG
ZJHK,2020-03-05 18:00,ZJHK 051800Z 10002MPS 8000 -RA FEW006 SCT013 OVC026 21/20 Q1016 NOSIG
ZJHK,2020-03-05 19:00,ZJHK 051900Z 10002MPS 9999 -RA FEW006 SCT013 OVC026 21/20 Q1015 NOSIG
ZJHK,2020-03-05 20:00,ZJHK 052000Z 10002MPS 3000 -RA BR FEW006 SCT013 OVC026 21/20 Q1015 NOSIG
ZJHK,2020-03-05 21:00,ZJHK 052100Z 11002MPS 3000 -RA BR FEW006 SCT013 OVC026 21/20 Q1014 NOSIG
ZJHK,2020-03-05 22:00,ZJHK 052200Z 10002MPS 6000 FEW006 SCT013 OVC026 21/20 Q1014 NOSIG
ZJHK,2020-03-05 23:00,ZJHK 052300Z 08003MPS 8000 SCT013 OVC026 21/21 Q1015 NOSIG
ZJHK,2020-03-06 00:00,ZJHK 060000Z 08003MPS 8000 -RA SCT016 OVC026 21/21 Q1016 NOSIG
ZJHK,2020-03-06 01:00,ZJHK 060100Z 09002MPS 060V130 9999 SCT016 BKN046 22/22 Q1017 NOSIG
ZJHK,2020-03-06 02:00,ZJHK 060200Z 12003MPS 090V160 9999 SCT010 BKN046 23/22 Q1017 NOSIG
ZJHK,2020-03-06 03:00,ZJHK 060300Z 14005MPS 100V180 9999 BKN020 25/22 Q1016 NOSIG
ZJHK,2020-03-06 04:00,ZJHK 060400Z 16003MPS 110V190 9999 BKN020 BKN040 26/22 Q1016 NOSIG
ZJHK,2020-03-06 05:00,ZJHK 060500Z 17005MPS 150V210 9999 BKN020 BKN040 26/21 Q1015 NOSIG
ZJHK,2020-03-06 06:00,ZJHK 060600Z 15005MPS 9999 BKN020 BKN040 26/20 Q1014 NOSIG
ZJHK,2020-03-06 07:00,ZJHK 060700Z 17003MPS 140V200 9999 BKN020 BKN040 26/21 Q1013 NOSIG
ZJHK,2020-03-06 08:00,ZJHK 060800Z 17005MPS 140V200 9999 SCT030 27/21 Q1012 NOSIG
ZJHK,2020-03-06 09:00,ZJHK 060900Z 17003MPS 140V220 9999 SCT023 27/20 Q1012 NOSIG
ZJHK,2020-03-06 10:00,ZJHK 061000Z 16003MPS 130V190 9999 BKN023 25/21 Q1013 NOSIG
ZJHK,2020-03-06 11:00,ZJHK 061100Z 14003MPS 9999 FEW023 24/21 Q1013 NOSIG
ZJHK,2020-03-06 12:00,ZJHK 061200Z 14003MPS 110V170 CAVOK 24/21 Q1013 NOSIG
ZJHK,2020-03-06 13:00,ZJHK 061300Z 13002MPS 100V170 9999 FEW026 23/21 Q1014 NOSIG
ZJHK,2020-03-06 14:00,ZJHK 061400Z 14002MPS 110V170 CAVOK 23/21 Q1014 NOSIG
ZJHK,2020-03-06 15:00,ZJHK 061500Z 15003MPS 100V180 CAVOK 23/22 Q1014 NOSIG
ZJHK,2020-03-06 16:00,ZJHK 061600Z 16003MPS 110V180 CAVOK 23/22 Q1014 NOSIG
ZJHK,2020-03-06 17:00,ZJHK 061700Z 15002MPS 100V180 CAVOK 23/22 Q1013 NOSIG
ZJHK,2020-03-06 18:00,ZJHK 061800Z 00000MPS 9999 SCT013 23/21 Q1013 NOSIG
ZJHK,2020-03-06 19:00,ZJHK 061900Z 00000MPS 9999 SCT013 23/22 Q1012 NOSIG
ZJHK,2020-03-06 20:00,ZJHK 062000Z 00000MPS 9999 FEW013 22/21 Q1012 NOSIG
ZJHK,2020-03-06 21:00,ZJHK 062100Z 00000MPS 9999 SCT013 22/21 Q1012 NOSIG
ZJHK,2020-03-06 22:00,ZJHK 062200Z 00000MPS 9999 BKN012 21/21 Q1013 NOSIG
ZJHK,2020-03-06 23:00,ZJHK 062300Z 00000MPS 9999 BCFG SCT012 21/21 Q1014 NOSIG
ZJHK,2020-03-07 00:00,ZJHK 070000Z 10002MPS 9999 SCT012 23/22 Q1014 NOSIG
ZJHK,2020-03-07 01:00,ZJHK 070100Z 16003MPS 100V190 9999 BKN012 24/23 Q1014 NOSIG
ZJHK,2020-03-07 02:00,ZJHK 070200Z 18003MPS 140V230 9999 BKN016 27/23 Q1014 NOSIG
ZJHK,2020-03-07 03:00,ZJHK 070300Z 19004MPS 160V240 9999 BKN023 27/22 Q1014 NOSIG
ZJHK,2020-03-07 04:00,ZJHK 070400Z 19003MPS 140V260 9999 BKN026 29/21 Q1013 NOSIG
ZJHK,2020-03-07 05:00,ZJHK 070500Z 16003MPS 120V210 9999 BKN033 30/21 Q1011 NOSIG
ZJHK,2020-03-07 06:00,ZJHK 070600Z 14003MPS 110V190 9999 SCT033 30/22 Q1010 NOSIG
ZJHK,2020-03-07 07:00,ZJHK 070700Z 16004MPS 120V200 9999 SCT040 31/21 Q1009 NOSIG
ZJHK,2020-03-07 08:00,ZJHK 070800Z 16004MPS 130V190 9999 SCT040 30/22 Q1008 NOSIG
ZJHK,2020-03-07 09:00,ZJHK 070900Z 15005MPS 120V200 CAVOK 29/22 Q1008 NOSIG
ZJHK,2020-03-07 10:00,ZJHK 071000Z 14005MPS CAVOK 27/22 Q1008 NOSIG
ZJHK,2020-03-07 11:00,ZJHK 071100Z 14003MPS 110V170 9999 FEW040 25/21 Q1009 NOSIG
ZJHK,2020-03-07 12:00,ZJHK 071200Z 14002MPS 9999 BKN040 24/22 Q1010 NOSIG
ZJHK,2020-03-07 13:00,ZJHK 071300Z 13003MPS 9999 BKN040 24/22 Q1010 NOSIG
ZJHK,2020-03-07 14:00,ZJHK 071400Z VRB01MPS CAVOK 24/22 Q1011 NOSIG
ZJHK,2020-03-07 15:00,ZJHK 071500Z 15003MPS 120V180 CAVOK 23/22 Q1011 NOSIG
ZJHK,2020-03-07 16:00,ZJHK 071600Z 16003MPS CAVOK 23/22 Q1011 NOSIG
ZJHK,2020-03-07 17:00,ZJHK 071700Z 17004MPS 130V200 CAVOK 23/22 Q1010 NOSIG
ZJHK,2020-03-07 18:00,ZJHK 071800Z 17003MPS 150V210 CAVOK 23/22 Q1009 NOSIG
ZJHK,2020-03-07 19:00,ZJHK 071900Z 16003MPS 130V220 9999 BKN008 23/21 Q1009 NOSIG
ZJHK,2020-03-07 20:00,ZJHK 072000Z 17004MPS 140V200 9999 BKN008 23/22 Q1008 NOSIG
ZJHK,2020-03-07 21:00,ZJHK 072100Z 17004MPS 130V190 9999 FEW008 23/22 Q1008 NOSIG
ZJHK,2020-03-07 22:00,ZJHK 072200Z 17004MPS 140V200 CAVOK 23/21 Q1008 NOSIG
ZJHK,2020-03-07 23:00,ZJHK 072300Z 18004MPS 140V200 CAVOK 23/21 Q1008 NOSIG
ZJHK,2020-03-08 00:00,ZJHK 080000Z 17003MPS 140V210 CAVOK 23/21 Q1009 NOSIG
ZJHK,2020-03-08 01:00,ZJHK 080100Z 18004MPS 140V230 CAVOK 25/22 Q1010 NOSIG
ZJHK,2020-03-08 02:00,ZJHK 080200Z 18004MPS 150V220 CAVOK 27/22 Q1010 NOSIG
ZJHK,2020-03-08 03:00,ZJHK 080300Z 18005MPS 150V220 CAVOK 29/21 Q1010 NOSIG
ZJHK,2020-03-08 04:00,ZJHK 080400Z 20004MPS 160V220 CAVOK 31/22 Q1008 NOSIG
ZJHK,2020-03-08 05:00,ZJHK 080500Z 16004MPS 110V200 CAVOK 32/21 Q1007 NOSIG
ZJHK,2020-03-08 06:00,ZJHK 080600Z VRB02MPS 9999 FEW016 33/22 Q1005 NOSIG
ZJHK,2020-03-08 07:00,ZJHK 080700Z 20003MPS 150V260 9999 FEW015 33/22 Q1004 NOSIG
ZJHK,2020-03-08 08:00,ZJHK 080800Z 14006MPS 100V180 9999 FEW033 31/23 Q1003 NOSIG
ZJHK,2020-03-08 09:00,ZJHK 080900Z 13004MPS 100V180 9999 FEW033 30/23 Q1003 NOSIG
ZJHK,2020-03-08 10:00,ZJHK 081000Z 13004MPS 9999 FEW040 29/23 Q1004 NOSIG
ZJHK,2020-03-08 11:00,ZJHK 081100Z 13003MPS CAVOK 27/23 Q1004 NOSIG
ZJHK,2020-03-08 12:00,ZJHK 081200Z 12002MPS CAVOK 26/22 Q1004 NOSIG
ZJHK,2020-03-08 13:00,ZJHK 081300Z 15002MPS 120V190 CAVOK 25/22 Q1005 NOSIG
ZJHK,2020-03-08 14:00,ZJHK 081400Z 15002MPS 100V180 CAVOK 24/22 Q1005 NOSIG
ZJHK,2020-03-08 15:00,ZJHK 081500Z 16003MPS 140V200 CAVOK 24/21 Q1006 NOSIG
ZJHK,2020-03-08 16:00,ZJHK 081600Z 17002MPS 140V210 CAVOK 24/21 Q1006 NOSIG
ZJHK,2020-03-08 17:00,ZJHK 081700Z 17002MPS 130V200 CAVOK 23/21 Q1005 NOSIG
ZJHK,2020-03-08 18:00,ZJHK 081800Z 17003MPS 130V220 CAVOK 23/21 Q1005 NOSIG
ZJHK,2020-03-08 19:00,ZJHK 081900Z 15002MPS 120V220 CAVOK 23/21 Q1004 NOSIG
ZJHK,2020-03-08 20:00,ZJHK 082000Z 16002MPS 100V270 CAVOK 23/21 Q1004 NOSIG
ZJHK,2020-03-08 21:00,ZJHK 082100Z 18003MPS 140V210 CAVOK 23/20 Q1004 NOSIG
ZJHK,2020-03-08 22:00,ZJHK 082200Z 16003MPS CAVOK 23/20 Q1004 NOSIG
ZJHK,2020-03-08 23:00,ZJHK 082300Z 18004MPS 150V210 CAVOK 23/20 Q1005 NOSIG
ZJHK,2020-03-09 00:00,ZJHK 090000Z 18004MPS 150V210 CAVOK 24/21 Q1006 NOSIG
ZJHK,2020-03-09 01:00,ZJHK 090100Z 18004MPS 150V220 CAVOK 26/22 Q1006 NOSIG
ZJHK,2020-03-09 02:00,ZJHK 090200Z 17005MPS 140V220 CAVOK 29/22 Q1007 NOSIG
ZJHK,2020-03-09 03:00,ZJHK 090300Z 17005MPS 140V200 CAVOK 31/22 Q1007 NOSIG
ZJHK,2020-03-09 04:00,ZJHK 090400Z 18004MPS 140V210 CAVOK 33/22 Q1006 NOSIG
ZJHK,2020-03-09 05:00,ZJHK 090500Z 20004MPS 150V250 CAVOK 33/22 Q1004 NOSIG
ZJHK,2020-03-09 06:00,ZJHK 090600Z 21002MPS 160V270 9999 FEW023 35/21 Q1003 NOSIG
ZJHK,2020-03-09 07:00,ZJHK 090700Z 36005MPS 9999 SCT023 34/23 Q1003 NOSIG
ZJHK,2020-03-09 08:00,ZJHK 090800Z 35004MPS 9999 FEW023 34/24 Q1003 NOSIG
ZJHK,2020-03-09 09:00,ZJHK 090900Z 01004MPS 340V040 9999 FEW023 32/22 Q1003 NOSIG
ZJHK,2020-03-09 10:00,ZJHK 091000Z 01003MPS 340V050 CAVOK 31/20 Q1004 NOSIG
ZJHK,2020-03-09 11:00,ZJHK 091100Z 33002MPS 280V030 CAVOK 30/19 Q1005 NOSIG
ZJHK,2020-03-09 12:00,ZJHK 091200Z 14002MPS 100V200 CAVOK 27/23 Q1005 NOSIG
ZJHK,2020-03-09 13:00,ZJHK 091300Z 00000MPS CAVOK 25/23 Q1006 NOSIG
ZJHK,2020-03-09 14:00,ZJHK 091400Z VRB01MPS CAVOK 25/23 Q1007 NOSIG
ZJHK,2020-03-09 15:00,ZJHK 091500Z 00000MPS CAVOK 24/23 Q1008 NOSIG
ZJHK,2020-03-09 16:00,ZJHK 091600Z 00000MPS CAVOK 24/23 Q1008 NOSIG
ZJHK,2020-03-09 17:00,ZJHK 091700Z 00000MPS CAVOK 23/22 Q1008 NOSIG
ZJHK,2020-03-09 18:00,ZJHK 091800Z 00000MPS CAVOK 23/22 Q1008 NOSIG
ZJHK,2020-03-09 19:00,ZJHK 091900Z 04003MPS 6000 NSC 23/22 Q1007 NOSIG
ZJHK,2020-03-09 20:00,ZJHK 092000Z 04005MPS 8000 SCT004 23/21 Q1008 NOSIG
ZJHK,2020-03-09 21:00,ZJHK 092100Z 04004MPS 1300 R09/1500D BR BKN002 22/21 Q1008 TEMPO 0700 FG
ZJHK,2020-03-09 22:00,ZJHK 092200Z 03004MPS 0600 R09/0550N FG OVC002 22/21 Q1009 TEMPO TL2300 1000 BR
ZJHK,2020-03-09 23:00,ZJHK 092300Z 06003MPS 1600 BR OVC002 22/21 Q1010 BECMG TL2400 3000
ZJHK,2020-03-10 00:00,ZJHK 100000Z 04003MPS 2000 BR OVC002 23/22 Q1011 BECMG TL0100 3000
ZJHK,2020-03-10 01:00,ZJHK 100100Z 03004MPS 6000 BKN005 BKN023 23/22 Q1013 NOSIG
ZJHK,2020-03-10 02:00,ZJHK 100200Z 04008MPS 7000 BKN007 BKN023 22/21 Q1014 NOSIG
ZJHK,2020-03-10 03:00,ZJHK 100300Z 04009MPS 9999 BKN013 BKN030 23/20 Q1014 NOSIG
ZJHK,2020-03-10 04:00,ZJHK 100400Z 05007MPS 020V080 9999 SCT020 BKN030 24/19 Q1014 NOSIG
ZJHK,2020-03-10 05:00,ZJHK 100500Z 07008MPS 9999 SCT020 BKN030 24/17 Q1014 NOSIG
ZJHK,2020-03-10 06:00,ZJHK 100600Z 03007MPS 9999 SCT020 BKN030 23/18 Q1013 NOSIG
ZJHK,2020-03-10 07:00,ZJHK 100700Z 04006MPS 9999 SCT020 BKN030 23/18 Q1013 NOSIG
ZJHK,2020-03-10 08:00,ZJHK 100800Z 05007MPS 9999 SCT020 BKN030 22/17 Q1012 NOSIG
ZJHK,2020-03-10 09:00,ZJHK 100900Z 05006MPS 9999 SCT020 BKN040 22/17 Q1013 NOSIG
ZJHK,2020-03-10 10:00,ZJHK 101000Z 06006MPS 9999 FEW012 BKN040 22/17 Q1013 NOSIG
ZJHK,2020-03-10 11:00,ZJHK 101100Z 07004MPS 9999 FEW012 BKN040 22/17 Q1013 NOSIG
ZJHK,2020-03-10 12:00,ZJHK 101200Z 08004MPS 9999 FEW012 BKN040 22/17 Q1014 NOSIG
ZJHK,2020-03-10 13:00,ZJHK 101300Z 09004MPS 9999 BKN040 22/17 Q1014 NOSIG
ZJHK,2020-03-10 14:00,ZJHK 101400Z 10002MPS 9999 BKN040 22/18 Q1016 NOSIG
ZJHK,2020-03-10 15:00,ZJHK 101500Z 10003MPS 9999 BKN040 22/18 Q1016 NOSIG
ZJHK,2020-03-10 16:00,ZJHK 101600Z 07005MPS 9999 BKN040 22/18 Q1016 NOSIG
ZJHK,2020-03-10 17:00,ZJHK 101700Z 08005MPS 9999 BKN040 22/17 Q1015 NOSIG
ZJHK,2020-03-10 18:00,ZJHK 101800Z 09003MPS 9999 BKN040 22/17 Q1015 NOSIG
ZJHK,2020-03-10 19:00,ZJHK 101900Z 07004MPS 9999 BKN040 22/17 Q1015 NOSIG
ZJHK,2020-03-10 20:00,ZJHK 102000Z 08005MPS 9999 BKN030 22/17 Q1015 NOSIG
ZJHK,2020-03-10 21:00,ZJHK 102100Z 09005MPS 9999 BKN030 22/17 Q1015 NOSIG
ZJHK,2020-03-10 22:00,ZJHK 102200Z 10007MPS 9999 SCT030 22/17 Q1014 NOSIG
ZJHK,2020-03-10 23:00,ZJHK 102300Z 09005MPS 9999 SCT030 22/18 Q1016 NOSIG
ZJHK,2020-03-11 00:00,ZJHK 110000Z 08005MPS 9999 SCT030 22/18 Q1016 NOSIG
ZJHK,2020-03-11 01:00,ZJHK 110100Z 08006MPS 9999 BKN013 OVC026 22/19 Q1017 NOSIG
ZJHK,2020-03-11 02:00,ZJHK 110200Z 10005MPS 9999 BKN013 OVC026 23/20 Q1017 NOSIG
ZJHK,2020-03-11 03:00,ZJHK 110300Z 10006MPS 9999 BKN013 OVC026 24/20 Q1017 NOSIG
ZJHK,2020-03-11 04:00,ZJHK 110400Z 11005MPS 080V140 9999 BKN016 OVC030 25/21 Q1016 NOSIG
ZJHK,2020-03-11 05:00,ZJHK 110500Z 10005MPS 9999 BKN016 OVC030 25/21 Q1015 NOSIG
ZJHK,2020-03-11 06:00,ZJHK 110600Z 10006MPS 9999 BKN016 OVC030 24/21 Q1014 NOSIG
ZJHK,2020-03-11 07:00,ZJHK 110700Z 11004MPS 9999 BKN016 OVC030 25/21 Q1013 NOSIG
ZJHK,2020-03-11 08:00,ZJHK 110800Z 11003MPS 9999 BKN016 OVC030 25/21 Q1013 NOSIG
ZJHK,2020-03-11 09:00,ZJHK 110900Z 12003MPS 080V150 9999 BKN016 OVC030 25/22 Q1013 NOSIG
ZJHK,2020-03-11 10:00,ZJHK 111000Z 10005MPS 9999 SCT015 SCT023 25/22 Q1012 NOSIG
ZJHK,2020-03-11 11:00,ZJHK 111100Z 11003MPS 9999 BKN013 OVC023 24/22 Q1013 NOSIG
ZJHK,2020-03-11 12:00,ZJHK 111200Z 13003MPS 100V160 9999 BKN010 OVC023 24/22 Q1013 BECMG TL1350 BKN008 BKN026
ZJHK,2020-03-11 13:00,ZJHK 111300Z 11003MPS 9999 BKN010 OVC020 24/22 Q1014 NOSIG
ZJHK,2020-03-11 14:00,ZJHK 111400Z 12003MPS 9999 SCT012 BKN020 24/22 Q1015 NOSIG
ZJHK,2020-03-11 15:00,ZJHK 111500Z 13003MPS 9999 FEW009 SCT012 BKN018 24/22 Q1014 NOSIG
ZJHK,2020-03-11 16:00,ZJHK 111600Z 14003MPS 100V170 9999 FEW008 BKN011 BKN020 24/23 Q1014 NOSIG
ZJHK,2020-03-11 17:00,ZJHK 111700Z 14003MPS 110V180 9999 SCT009 24/22 Q1014 NOSIG
ZJHK,2020-03-11 18:00,ZJHK 111800Z 14003MPS 100V160 9999 SCT009 24/22 Q1013 NOSIG
ZJHK,2020-03-11 19:00,ZJHK 111900Z 14003MPS 100V170 9999 BKN010 24/23 Q1013 NOSIG
ZJHK,2020-03-11 20:00,ZJHK 112000Z 14003MPS 9999 SCT010 24/22 Q1012 NOSIG
ZJHK,2020-03-11 21:00,ZJHK 112100Z 13003MPS 090V160 9999 FEW010 24/22 Q1012 NOSIG
ZJHK,2020-03-11 22:00,ZJHK 112200Z 13002MPS 9999 FEW010 23/22 Q1013 NOSIG
ZJHK,2020-03-11 23:00,ZJHK 112300Z 12001MPS 9999 SCT013 23/22 Q1013 NOSIG
ZJHK,2020-03-12 00:00,ZJHK 120000Z 15003MPS 130V190 9999 FEW016 24/23 Q1014 NOSIG
ZJHK,2020-03-12 01:00,ZJHK 120100Z 17004MPS 120V200 9999 BKN016 26/23 Q1014 NOSIG
ZJHK,2020-03-12 02:00,ZJHK 120200Z 19004MPS 130V240 9999 BKN020 28/23 Q1014 NOSIG
ZJHK,2020-03-12 03:00,ZJHK 120300Z 19005MPS 140V220 9999 BKN023 29/22 Q1014 NOSIG
ZJHK,2020-03-12 04:00,ZJHK 120400Z 16005MPS 110V210 9999 BKN030 30/22 Q1013 NOSIG
ZJHK,2020-03-12 05:00,ZJHK 120500Z 16005MPS 120V190 9999 BKN026 30/22 Q1012 NOSIG
ZJHK,2020-03-12 06:00,ZJHK 120600Z 16005MPS 130V200 9999 SCT026 31/23 Q1011 NOSIG
ZJHK,2020-03-12 07:00,ZJHK 120700Z 15006MPS 9999 SCT026 30/23 Q1010 NOSIG
ZJHK,2020-03-12 08:00,ZJHK 120800Z 16006MPS 110V190 9999 SCT026 29/23 Q1010 NOSIG
ZJHK,2020-03-12 09:00,ZJHK 120900Z 16005MPS 130V190 9999 SCT026 29/23 Q1009 NOSIG
ZJHK,2020-03-12 10:00,ZJHK 121000Z 15005MPS 120V190 9999 FEW026 28/23 Q1010 NOSIG
ZJHK,2020-03-12 11:00,ZJHK 121100Z 16003MPS 120V200 9999 FEW013 26/23 Q1010 NOSIG
ZJHK,2020-03-12 12:00,ZJHK 121200Z 17003MPS 140V200 9999 FEW033 26/23 Q1011 NOSIG
ZJHK,2020-03-12 13:00,ZJHK 121300Z 17003MPS 140V200 9999 FEW040 25/23 Q1011 NOSIG
ZJHK,2020-03-12 14:00,ZJHK 121400Z 17003MPS 140V200 9999 FEW040 25/22 Q1012 NOSIG
ZJHK,2020-03-12 15:00,ZJHK 121500Z 18004MPS 130V200 CAVOK 25/22 Q1012 NOSIG
ZJHK,2020-03-12 16:00,ZJHK 121600Z 18004MPS 160V220 CAVOK 25/22 Q1012 NOSIG
ZJHK,2020-03-12 17:00,ZJHK 121700Z 18004MPS 150V220 CAVOK 25/22 Q1012 NOSIG
ZJHK,2020-03-12 18:00,ZJHK 121800Z 18004MPS 140V200 CAVOK 24/22 Q1011 NOSIG
ZJHK,2020-03-12 19:00,ZJHK 121900Z 17003MPS 140V200 CAVOK 24/21 Q1011 NOSIG
ZJHK,2020-03-12 20:00,ZJHK 122000Z 17002MPS 130V200 CAVOK 24/21 Q1011 NOSIG
ZJHK,2020-03-12 21:00,ZJHK 122100Z 18002MPS 140V240 CAVOK 24/21 Q1011 NOSIG
ZJHK,2020-03-12 22:00,ZJHK 122200Z 18002MPS CAVOK 23/21 Q1012 NOSIG
ZJHK,2020-03-12 23:00,ZJHK 122300Z 00000MPS CAVOK 22/20 Q1012 NOSIG
ZJHK,2020-03-13 00:00,ZJHK 130000Z 09001MPS CAVOK 24/22 Q1013 NOSIG
ZJHK,2020-03-13 01:00,ZJHK 130100Z VRB01MPS CAVOK 27/22 Q1014 NOSIG
ZJHK,2020-03-13 02:00,ZJHK 130200Z VRB01MPS CAVOK 29/22 Q1014 NOSIG
ZJHK,2020-03-13 03:00,ZJHK 130300Z 13001MPS CAVOK 31/22 Q1014 NOSIG
ZJHK,2020-03-13 04:00,ZJHK 130400Z VRB01MPS CAVOK 33/22 Q1013 NOSIG
ZJHK,2020-03-13 05:00,ZJHK 130500Z 01004MPS 340V040 CAVOK 32/23 Q1012 NOSIG
ZJHK,2020-03-13 06:00,ZJHK 130600Z 15004MPS 110V190 CAVOK 33/24 Q1011 NOSIG
ZJHK,2020-03-13 07:00,ZJHK 130700Z 15005MPS 110V180 CAVOK 32/24 Q1010 NOSIG
ZJHK,2020-03-13 08:00,ZJHK 130800Z 14005MPS 110V170 CAVOK 30/24 Q1010 NOSIG
ZJHK,2020-03-13 09:00,ZJHK 130900Z 13004MPS 100V170 9999 FEW030 29/24 Q1010 NOSIG
ZJHK,2020-03-13 10:00,ZJHK 131000Z 12004MPS 9999 FEW030 28/23 Q1011 NOSIG
ZJHK,2020-03-13 11:00,ZJHK 131100Z 13002MPS 100V160 9999 FEW030 27/23 Q1012 NOSIG
ZJHK,2020-03-13 12:00,ZJHK 131200Z 12002MPS 9999 FEW030 26/23 Q1012 NOSIG
ZJHK,2020-03-13 13:00,ZJHK 131300Z 12002MPS 9999 FEW033 25/23 Q1013 NOSIG
ZJHK,2020-03-13 14:00,ZJHK 131400Z 09002MPS 9999 BKN033 25/23 Q1014 NOSIG
ZJHK,2020-03-13 15:00,ZJHK 131500Z 12002MPS 9999 SCT033 25/23 Q1014 NOSIG
ZJHK,2020-03-13 16:00,ZJHK 131600Z 10002MPS CAVOK 24/23 Q1014 NOSIG
ZJHK,2020-03-13 17:00,ZJHK 131700Z 00000MPS CAVOK 24/23 Q1014 NOSIG
ZJHK,2020-03-13 18:00,ZJHK 131800Z 12002MPS CAVOK 24/23 Q1013 NOSIG
ZJHK,2020-03-13 19:00,ZJHK 131900Z 12002MPS 100V160 8000 FEW006 24/23 Q1013 NOSIG
ZJHK,2020-03-13 20:00,ZJHK 132000Z 09001MPS 9999 BKN006 24/23 Q1013 NOSIG
ZJHK,2020-03-13 21:00,ZJHK 132100Z 13002MPS 100V160 9999 BKN006 24/23 Q1013 NOSIG
ZJHK,2020-03-13 22:00,ZJHK 132200Z 10002MPS 9999 SCT010 BKN020 24/23 Q1014 NOSIG
ZJHK,2020-03-13 23:00,ZJHK 132300Z 00000MPS 9999 SCT010 BKN020 24/23 Q1015 NOSIG
ZJHK,2020-03-14 00:00,ZJHK 140000Z 09003MPS 050V110 9999 FEW010 BKN033 25/23 Q1016 NOSIG
ZJHK,2020-03-14 01:00,ZJHK 140100Z 05004MPS 9999 SCT007 BKN026 25/24 Q1017 NOSIG
ZJHK,2020-03-14 02:00,ZJHK 140200Z 07009G14MPS 9999 BKN007 BKN016 OVC026 22/20 Q1017 NOSIG
ZJHK,2020-03-14 03:00,ZJHK 140300Z 06008MPS 9999 FEW009 SCT016 OVC026 22/19 Q1018 NOSIG
ZJHK,2020-03-14 04:00,ZJHK 140400Z 07007MPS 9999 FEW009 SCT016 OVC026 22/20 Q1018 NOSIG
ZJHK,2020-03-14 05:00,ZJHK 140500Z 07007MPS 8000 -RA FEW006 SCT013 OVC026 22/20 Q1016 NOSIG
ZJHK,2020-03-14 06:00,ZJHK 140600Z 04005MPS 6000 -RA BKN009 OVC023 21/20 Q1016 NOSIG
ZJHK,2020-03-14 07:00,ZJHK 140700Z 04004MPS 5000 -RA BR BKN006 OVC020 21/20 Q1015 NOSIG
ZJHK,2020-03-14 08:00,ZJHK 140800Z 07005MPS 9999 -RA BKN010 OVC020 22/20 Q1015 NOSIG
ZJHK,2020-03-14 09:00,ZJHK 140900Z 06007MPS 9999 BKN010 OVC020 21/19 Q1015 NOSIG
ZJHK,2020-03-14 10:00,ZJHK 141000Z 07006MPS 9999 BKN013 OVC026 21/18 Q1016 NOSIG
ZJHK,2020-03-14 11:00,ZJHK 141100Z 08006MPS 9999 BKN013 OVC026 21/18 Q1016 NOSIG
ZJHK,2020-03-14 12:00,ZJHK 141200Z 08006MPS 9999 BKN015 OVC026 22/18 Q1016 NOSIG
ZJHK,2020-03-14 13:00,ZJHK 141300Z 07005MPS 9999 BKN015 OVC026 22/18 Q1017 NOSIG
ZJHK,2020-03-14 14:00,ZJHK 141400Z 07004MPS 7000 -RA BKN012 OVC026 21/19 Q1018 NOSIG
ZJHK,2020-03-14 15:00,ZJHK 141500Z 06005MPS 6000 -RA BKN006 OVC026 21/20 Q1018 NOSIG
ZJHK,2020-03-14 16:00,ZJHK 141600Z 08006MPS 7000 -RA BKN005 OVC026 21/20 Q1018 NOSIG
ZJHK,2020-03-14 17:00,ZJHK 141700Z 06007MPS 6000 -SHRA BKN005 FEW020TCU BKN026 21/20 Q1018 NOSIG
ZJHK,2020-03-14 18:00,ZJHK 141800Z 08004MPS 9999 SCT007 OVC026 21/20 Q1017 NOSIG
ZJHK,2020-03-14 19:00,ZJHK 141900Z 07004MPS 8000 -RA SCT007 OVC026 21/20 Q1017 NOSIG
ZJHK,2020-03-14 20:00,ZJHK 142000Z 08005MPS 9999 SCT012 OVC023 21/20 Q1016 NOSIG
ZJHK,2020-03-14 21:00,ZJHK 142100Z 06004MPS 9999 OVC030 21/19 Q1017 NOSIG
ZJHK,2020-03-14 22:00,ZJHK 142200Z 07006MPS 9999 OVC030 22/19 Q1017 NOSIG
ZJHK,2020-03-14 23:00,ZJHK 142300Z 07006MPS 9999 FEW012 OVC030 21/19 Q1017 NOSIG
ZJHK,2020-03-15 00:00,ZJHK 150000Z 07005MPS 9999 SCT020 OVC030 22/19 Q1018 NOSIG
ZJHK,2020-03-15 01:00,ZJHK 150100Z 08006MPS 9999 FEW013 SCT020 OVC030 22/19 Q1019 NOSIG
ZJHK,2020-03-15 02:00,ZJHK 150200Z 08006MPS 9999 SCT015 SCT020 OVC030 23/19 Q1020 NOSIG
ZJHK,2020-03-15 03:00,ZJHK 150300Z 08006MPS 9999 FEW015 SCT020 OVC030 24/20 Q1019 NOSIG
ZJHK,2020-03-15 04:00,ZJHK 150400Z 08007MPS 9999 SCT015 SCT020 OVC026 23/20 Q1018 NOSIG
ZJHK,2020-03-15 05:00,ZJHK 150500Z 10006MPS 9999 BKN016 OVC026 23/20 Q1017 NOSIG
ZJHK,2020-03-15 06:00,ZJHK 150600Z 10005MPS 9999 BKN016 OVC026 24/20 Q1016 NOSIG
ZJHK,2020-03-15 07:00,ZJHK 150700Z 10005MPS 9999 BKN020 OVC030 24/19 Q1015 NOSIG
ZJHK,2020-03-15 08:00,ZJHK 150800Z 10004MPS 9999 BKN020 OVC030 24/20 Q1014 NOSIG
ZJHK,2020-03-15 09:00,ZJHK 150900Z 10003MPS 9999 BKN020 OVC026 23/20 Q1015 NOSIG
ZJHK,2020-03-15 10:00,ZJHK 151000Z 10004MPS 9999 SCT016 OVC026 22/20 Q1015 NOSIG
ZJHK,2020-03-15 11:00,ZJHK 151100Z 11003MPS 080V140 6000 -RA SCT013 BKN016 OVC026 22/20 Q1016 NOSIG
ZJHK,2020-03-15 12:00,ZJHK 151200Z 10002MPS 060V120 5000 -RA BR SCT010 BKN016 OVC026 21/20 Q1016 NOSIG
ZJHK,2020-03-15 13:00,ZJHK 151300Z 09003MPS 5000 -RA BR SCT006 BKN013 OVC026 22/21 Q1017 NOSIG
ZJHK,2020-03-15 14:00,ZJHK 151400Z 10004MPS 8000 SCT008 BKN016 OVC026 21/20 Q1017 NOSIG
ZJHK,2020-03-15 15:00,ZJHK 151500Z 10004MPS 9999 FEW008 SCT016 OVC026 21/20 Q1017 NOSIG
ZJHK,2020-03-15 16:00,ZJHK 151600Z 11003MPS 9999 FEW008 BKN016 OVC026 21/20 Q1017 NOSIG
ZJHK,2020-03-15 17:00,ZJHK 151700Z 11002MPS 9999 BKN007 OVC026 21/20 Q1016 NOSIG
ZJHK,2020-03-15 18:00,ZJHK 151800Z 11002MPS 9999 FEW008 BKN016 OVC026 21/20 Q1016 NOSIG
ZJHK,2020-03-15 19:00,ZJHK 151900Z 12002MPS CAVOK 21/20 Q1015 NOSIG
ZJHK,2020-03-15 20:00,ZJHK 152000Z 10002MPS 9999 SCT040 21/20 Q1015 NOSIG
ZJHK,2020-03-15 21:00,ZJHK 152100Z 10002MPS 9999 SCT018 22/20 Q1015 NOSIG
ZJHK,2020-03-15 22:00,ZJHK 152200Z 11003MPS 9999 SCT018 22/21 Q1015 NOSIG
ZJHK,2020-03-15 23:00,ZJHK 152300Z 11002MPS 9999 SCT015 OVC040 22/21 Q1016 NOSIG
ZJHK,2020-03-16 00:00,ZJHK 160000Z VRB01MPS 9999 BKN014 OVC040 22/21 Q1017 NOSIG
ZJHK,2020-03-16 01:00,ZJHK 160100Z 12003MPS 9999 SCT013 OVC033 23/21 Q1018 NOSIG
ZJHK,2020-03-16 02:00,ZJHK 160200Z 12005MPS 100V170 9999 FEW015 24/21 Q1018 NOSIG
ZJHK,2020-03-16 03:00,ZJHK 160300Z 12005MPS 9999 BKN020 25/21 Q1018 NOSIG
ZJHK,2020-03-16 04:00,ZJHK 160400Z 12005MPS 090V160 9999 BKN016 25/21 Q1017 NOSIG
ZJHK,2020-03-16 05:00,ZJHK 160500Z 14004MPS 110V170 9999 SCT020 BKN033 26/21 Q1016 NOSIG
ZJHK,2020-03-16 06:00,ZJHK 160600Z 13003MPS 100V170 9999 SCT020 BKN040 26/21 Q1016 NOSIG
ZJHK,2020-03-16 07:00,ZJHK 160700Z 13004MPS 100V160 9999 FEW020 SCT033 26/21 Q1015 NOSIG
ZJHK,2020-03-16 08:00,ZJHK 160800Z 13005MPS 100V160 9999 FEW015 BKN026 25/21 Q1015 NOSIG
ZJHK,2020-03-16 09:00,ZJHK 160900Z 13004MPS 9999 SCT016 BKN040 25/21 Q1015 NOSIG
ZJHK,2020-03-16 10:00,ZJHK 161000Z 12004MPS 9999 BKN020 BKN040 25/21 Q1015 NOSIG
ZJHK,2020-03-16 11:00,ZJHK 161100Z 13004MPS 100V160 9999 SCT020 BKN040 25/21 Q1016 NOSIG
ZJHK,2020-03-16 12:00,ZJHK 161200Z 12003MPS 9999 SCT016 BKN040 24/21 Q1017 NOSIG
ZJHK,2020-03-16 13:00,ZJHK 161300Z 11003MPS 9999 SCT016 BKN040 24/21 Q1017 NOSIG
ZJHK,2020-03-16 14:00,ZJHK 161400Z 11004MPS 9999 FEW026 23/21 Q1018 NOSIG
ZJHK,2020-03-16 15:00,ZJHK 161500Z 12003MPS 9999 FEW026 23/21 Q1018 NOSIG
ZJHK,2020-03-16 16:00,ZJHK 161600Z 13002MPS CAVOK 22/21 Q1017 NOSIG
ZJHK,2020-03-16 17:00,ZJHK 161700Z 13002MPS 8000 NSC 22/21 Q1017 NOSIG
ZJHK,2020-03-16 18:00,ZJHK 161800Z 11002MPS 8000 NSC 22/21 Q1016 NOSIG
ZJHK,2020-03-16 19:00,ZJHK 161900Z VRB01MPS 9999 SCT016 BKN046 22/21 Q1016 NOSIG
ZJHK,2020-03-16 20:00,ZJHK 162000Z 09002MPS 7000 BKN016 BKN033 21/20 Q1016 NOSIG
ZJHK,2020-03-16 21:00,ZJHK 162100Z 11003MPS 8000 FEW016 SCT040 21/20 Q1015 NOSIG
ZJHK,2020-03-16 22:00,ZJHK 162200Z 12002MPS 7000 NSC 21/20 Q1016 NOSIG
ZJHK,2020-03-16 23:00,ZJHK 162300Z 00000MPS 6000 SCT040 21/20 Q1017 NOSIG
ZJHK,2020-03-17 00:00,ZJHK 170000Z 10003MPS 9999 BKN040 22/21 Q1018 NOSIG
ZJHK,2020-03-17 01:00,ZJHK 170100Z 12004MPS CAVOK 23/22 Q1018 NOSIG
ZJHK,2020-03-17 02:00,ZJHK 170200Z 12004MPS 090V170 9999 FEW020 25/21 Q1018 NOSIG
ZJHK,2020-03-17 03:00,ZJHK 170300Z 13005MPS 110V170 9999 FEW016 SCT020 26/21 Q1018 NOSIG
ZJHK,2020-03-17 04:00,ZJHK 170400Z 15005MPS 130V190 9999 SCT020 BKN033 26/20 Q1017 NOSIG
ZJHK,2020-03-17 05:00,ZJHK 170500Z 14003MPS 100V180 9999 SCT020 BKN033 26/20 Q1017 NOSIG
ZJHK,2020-03-17 06:00,ZJHK 170600Z 15004MPS 120V180 9999 SCT030 27/20 Q1015 NOSIG
ZJHK,2020-03-17 07:00,ZJHK 170700Z 13004MPS 100V160 9999 SCT030 27/20 Q1014 NOSIG
ZJHK,2020-03-17 08:00,ZJHK 170800Z 15004MPS 120V200 9999 SCT033 27/19 Q1014 NOSIG
ZJHK,2020-03-17 09:00,ZJHK 170900Z 15003MPS 110V180 9999 FEW016 26/19 Q1014 NOSIG
ZJHK,2020-03-17 10:00,ZJHK 171000Z 14003MPS 110V170 9999 FEW033 25/19 Q1014 NOSIG
ZJHK,2020-03-17 11:00,ZJHK 171100Z 12003MPS 9999 SCT033 25/20 Q1015 NOSIG
ZJHK,2020-03-17 12:00,ZJHK 171200Z 12003MPS 100V160 CAVOK 24/20 Q1016 NOSIG
ZJHK,2020-03-17 13:00,ZJHK 171300Z 10001MPS CAVOK 23/20 Q1016 NOSIG
ZJHK,2020-03-17 14:00,ZJHK 171400Z 12002MPS CAVOK 22/20 Q1016 NOSIG
ZJHK,2020-03-17 15:00,ZJHK 171500Z 10002MPS CAVOK 22/20 Q1016 NOSIG
ZJHK,2020-03-17 16:00,ZJHK 171600Z 12003MPS CAVOK 22/20 Q1016 NOSIG
ZJHK,2020-03-17 17:00,ZJHK 171700Z 11002MPS 030V170 CAVOK 22/20 Q1015 NOSIG
ZJHK,2020-03-17 18:00,ZJHK 171800Z 12002MPS CAVOK 22/20 Q1014 NOSIG
ZJHK,2020-03-17 19:00,ZJHK 171900Z 06003MPS 9999 FEW040 22/20 Q1014 NOSIG
ZJHK,2020-03-17 20:00,ZJHK 172000Z 08003MPS 9999 FEW040 22/20 Q1014 NOSIG
ZJHK,2020-03-17 21:00,ZJHK 172100Z 10003MPS 9999 FEW040 21/20 Q1013 NOSIG
ZJHK,2020-03-17 22:00,ZJHK 172200Z 10002MPS 9999 FEW040 21/20 Q1013 NOSIG
ZJHK,2020-03-17 23:00,ZJHK 172300Z 11003MPS 9999 BKN040 22/21 Q1014 NOSIG
ZJHK,2020-03-18 00:00,ZJHK 180000Z 12002MPS 9999 BKN040 22/21 Q1015 NOSIG
ZJHK,2020-03-18 01:00,ZJHK 180100Z 11003MPS 9999 BKN033 23/21 Q1016 NOSIG
ZJHK,2020-03-18 02:00,ZJHK 180200Z 12003MPS 100V160 9999 BKN046 24/22 Q1016 NOSIG
ZJHK,2020-03-18 03:00,ZJHK 180300Z 15003MPS 100V180 9999 SCT020 26/21 Q1016 NOSIG
ZJHK,2020-03-18 04:00,ZJHK 180400Z 12003MPS 090V150 9999 BKN023 26/21 Q1015 NOSIG
ZJHK,2020-03-18 05:00,ZJHK 180500Z 12004MPS 090V160 9999 BKN023 27/21 Q1014 NOSIG
ZJHK,2020-03-18 06:00,ZJHK 180600Z 15004MPS 090V220 9999 BKN023 27/20 Q1013 NOSIG
ZJHK,2020-03-18 07:00,ZJHK 180700Z 13004MPS 100V160 9999 SCT023 28/20 Q1012 NOSIG
ZJHK,2020-03-18 08:00,ZJHK 180800Z 16005MPS 100V190 9999 SCT023 28/20 Q1011 NOSIG
ZJHK,2020-03-18 09:00,ZJHK 180900Z 14005MPS 110V170 CAVOK 27/20 Q1011 NOSIG
ZJHK,2020-03-18 10:00,ZJHK 181000Z 14004MPS CAVOK 26/19 Q1011 NOSIG
ZJHK,2020-03-18 11:00,ZJHK 181100Z 14003MPS 100V160 9999 FEW026 24/20 Q1012 NOSIG
ZJHK,2020-03-18 12:00,ZJHK 181200Z 14002MPS CAVOK 23/20 Q1012 NOSIG
ZJHK,2020-03-18 13:00,ZJHK 181300Z 13002MPS 100V160 CAVOK 23/21 Q1012 NOSIG
ZJHK,2020-03-18 14:00,ZJHK 181400Z VRB01MPS CAVOK 22/21 Q1013 NOSIG
ZJHK,2020-03-18 15:00,ZJHK 181500Z 14002MPS 100V160 CAVOK 22/21 Q1013 NOSIG
ZJHK,2020-03-18 16:00,ZJHK 181600Z 12002MPS CAVOK 22/20 Q1013 NOSIG
ZJHK,2020-03-18 17:00,ZJHK 181700Z 09002MPS 7000 FEW010 21/20 Q1013 NOSIG
ZJHK,2020-03-18 18:00,ZJHK 181800Z 11002MPS 5000 BR FEW010 21/20 Q1012 NOSIG
ZJHK,2020-03-18 19:00,ZJHK 181900Z 13002MPS 4000 BR NSC 21/20 Q1011 NOSIG
ZJHK,2020-03-18 20:00,ZJHK 182000Z 12001MPS 4000 BR SCT016 21/20 Q1011 NOSIG
ZJHK,2020-03-18 21:00,ZJHK 182100Z 12002MPS 5000 BR FEW016 21/21 Q1011 NOSIG
ZJHK,2020-03-18 22:00,ZJHK 182200Z 14002MPS 110V170 4000 BR FEW016 21/21 Q1012 NOSIG
ZJHK,2020-03-18 23:00,ZJHK 182300Z 12002MPS 3000 BR FEW016 21/21 Q1012 NOSIG
ZJHK,2020-03-19 00:00,ZJHK 190000Z 14002MPS 110V180 6000 FEW016 23/22 Q1013 NOSIG
ZJHK,2020-03-19 01:00,ZJHK 190100Z 15003MPS 120V200 9999 FEW007 25/24 Q1014 NOSIG
ZJHK,2020-03-19 02:00,ZJHK 190200Z 18004MPS 140V220 9999 FEW016 27/23 Q1014 NOSIG
ZJHK,2020-03-19 03:00,ZJHK 190300Z 21003MPS 160V250 9999 FEW023 29/22 Q1014 NOSIG
ZJHK,2020-03-19 04:00,ZJHK 190400Z 22004MPS 190V250 9999 FEW026 29/21 Q1014 NOSIG
ZJHK,2020-03-19 05:00,ZJHK 190500Z 18003MPS 140V230 9999 SCT033 30/21 Q1013 NOSIG
ZJHK,2020-03-19 06:00,ZJHK 190600Z 35005MPS 9999 SCT030 28/23 Q1012 NOSIG
ZJHK,2020-03-19 07:00,ZJHK 190700Z 02005MPS 9999 FEW033 28/22 Q1011 NOSIG
ZJHK,2020-03-19 08:00,ZJHK 190800Z 01004MPS 330V060 9999 FEW033 27/22 Q1011 NOSIG
ZJHK,2020-03-19 09:00,ZJHK 190900Z 03003MPS 9999 FEW026 BKN040 27/21 Q1010 NOSIG
ZJHK,2020-03-19 10:00,ZJHK 191000Z 05002MPS 320V100 9999 FEW020 OVC033 27/21 Q1011 NOSIG
ZJHK,2020-03-19 11:00,ZJHK 191100Z 10003MPS 8000 -RA FEW015 BKN023 OVC033 26/22 Q1011 NOSIG
ZJHK,2020-03-19 12:00,ZJHK 191200Z 10002MPS 9999 BKN020 OVC033 25/23 Q1012 NOSIG
ZJHK,2020-03-19 13:00,ZJHK 191300Z 09002MPS 9999 BKN016 OVC033 25/24 Q1013 NOSIG
ZJHK,2020-03-19 14:00,ZJHK 191400Z 09002MPS 050V120 9999 FEW007 BKN013 OVC033 25/24 Q1014 NOSIG
ZJHK,2020-03-19 15:00,ZJHK 191500Z 09003MPS 9999 FEW007 BKN013 OVC026 24/23 Q1014 NOSIG
ZJHK,2020-03-19 16:00,ZJHK 191600Z 10002MPS 9999 FEW009 BKN020 OVC030 24/24 Q1014 NOSIG
ZJHK,2020-03-19 17:00,ZJHK 191700Z 11002MPS 8000 BKN020 OVC030 25/24 Q1014 NOSIG
ZJHK,2020-03-19 18:00,ZJHK 191800Z 00000MPS 7000 FEW010 SCT023 24/24 Q1013 NOSIG
ZJHK,2020-03-19 19:00,ZJHK 191900Z 00000MPS 6000 FEW007 SCT016 24/23 Q1013 NOSIG
ZJHK,2020-03-19 20:00,ZJHK 192000Z 00000MPS 6000 SCT007 24/23 Q1012 NOSIG
ZJHK,2020-03-19 21:00,ZJHK 192100Z 00000MPS 6000 FEW005 BKN007 24/23 Q1012 NOSIG
ZJHK,2020-03-19 22:00,ZJHK 192200Z 00000MPS 5000 BR FEW005 SCT007 23/23 Q1013 NOSIG
ZJHK,2020-03-19 23:00,ZJHK 192300Z 00000MPS 3000 R09/0275V0400N BR PRFG FEW002 SCT010 22/22 Q1013 NOSIG
ZJHK,2020-03-20 00:00,ZJHK 200000Z 00000MPS 7000 SCT010 24/23 Q1014 NOSIG
ZJHK,2020-03-20 01:00,ZJHK 200100Z VRB01MPS 9999 BKN006 SCT026 25/24 Q1015 NOSIG
ZJHK,2020-03-20 02:00,ZJHK 200200Z 18003MPS 140V240 9999 BKN013 26/23 Q1015 BECMG AT0300 SCT015 SCT030
ZJHK,2020-03-20 03:00,ZJHK 200300Z 20003MPS 160V240 9999 SCT020 28/23 Q1015 NOSIG
ZJHK,2020-03-20 04:00,ZJHK 200400Z 23003MPS 200V270 9999 BKN026 30/23 Q1015 NOSIG
ZJHK,2020-03-20 05:00,ZJHK 200500Z 23003MPS 190V260 9999 SCT020 30/22 Q1014 NOSIG
ZJHK,2020-03-20 06:00,ZJHK 200600Z 18002MPS 140V240 9999 BKN023 30/22 Q1012 NOSIG
ZJHK,2020-03-20 07:00,ZJHK 200700Z 16004MPS 130V190 9999 FEW023 BKN040 30/23 Q1011 NOSIG
ZJHK,2020-03-20 08:00,ZJHK 200800Z 14004MPS 120V190 9999 SCT020 30/23 Q1010 NOSIG
ZJHK,2020-03-20 09:00,ZJHK 200900Z 15004MPS 120V200 9999 FEW013 SCT023 29/23 Q1010 NOSIG
ZJHK,2020-03-20 10:00,ZJHK 201000Z 15003MPS 120V190 9999 FEW023 28/23 Q1010 NOSIG
ZJHK,2020-03-20 11:00,ZJHK 201100Z 15003MPS 120V180 9999 FEW033 27/22 Q1011 NOSIG
ZJHK,2020-03-20 12:00,ZJHK 201200Z 14002MPS 110V180 9999 FEW033 26/21 Q1012 NOSIG
ZJHK,2020-03-20 13:00,ZJHK 201300Z 15003MPS 130V190 9999 FEW033 25/20 Q1012 NOSIG
ZJHK,2020-03-20 14:00,ZJHK 201400Z 14002MPS 100V180 9999 FEW040 24/20 Q1013 NOSIG
ZJHK,2020-03-20 15:00,ZJHK 201500Z 15002MPS 120V180 CAVOK 24/21 Q1014 NOSIG
ZJHK,2020-03-20 16:00,ZJHK 201600Z 16003MPS CAVOK 24/21 Q1013 NOSIG
ZJHK,2020-03-20 17:00,ZJHK 201700Z 17002MPS 140V200 CAVOK 24/21 Q1013 NOSIG
ZJHK,2020-03-20 18:00,ZJHK 201800Z 18002MPS 140V210 CAVOK 23/21 Q1012 NOSIG
ZJHK,2020-03-20 19:00,ZJHK 201900Z 14002MPS CAVOK 22/21 Q1012 NOSIG
ZJHK,2020-03-20 20:00,ZJHK 202000Z 13002MPS 9999 FEW033 22/21 Q1012 NOSIG
ZJHK,2020-03-20 21:00,ZJHK 202100Z 15002MPS CAVOK 23/22 Q1012 NOSIG
ZJHK,2020-03-20 22:00,ZJHK 202200Z 16003MPS 130V210 CAVOK 23/22 Q1012 NOSIG
ZJHK,2020-03-20 23:00,ZJHK 202300Z 15003MPS CAVOK 23/22 Q1013 NOSIG
ZJHK,2020-03-21 00:00,ZJHK 210000Z 17003MPS 130V210 CAVOK 24/23 Q1014 NOSIG
ZJHK,2020-03-21 01:00,ZJHK 210100Z 17005MPS 130V200 CAVOK 26/23 Q1014 NOSIG
ZJHK,2020-03-21 02:00,ZJHK 210200Z 17005G10MPS 140V200 CAVOK 28/22 Q1014 NOSIG
ZJHK,2020-03-21 03:00,ZJHK 210300Z 17004MPS 130V200 9999 FEW030 30/22 Q1015 NOSIG
ZJHK,2020-03-21 04:00,ZJHK 210400Z 16003MPS 130V220 9999 FEW030 31/21 Q1014 NOSIG
ZJHK,2020-03-21 05:00,ZJHK 210500Z 19004MPS 160V240 9999 SCT030 32/21 Q1013 NOSIG
ZJHK,2020-03-21 06:00,ZJHK 210600Z 14003MPS 090V180 9999 SCT030 32/21 Q1012 NOSIG
ZJHK,2020-03-21 07:00,ZJHK 210700Z 16004MPS 120V200 9999 SCT030 32/22 Q1011 NOSIG
ZJHK,2020-03-21 08:00,ZJHK 210800Z 13006MPS 9999 FEW030 31/22 Q1010 NOSIG
ZJHK,2020-03-21 09:00,ZJHK 210900Z 15006MPS 110V190 9999 FEW030 30/22 Q1010 NOSIG
ZJHK,2020-03-21 10:00,ZJHK 211000Z 14005MPS 110V170 9999 FEW030 28/22 Q1010 NOSIG
ZJHK,2020-03-21 11:00,ZJHK 211100Z 15006MPS 9999 FEW040 26/22 Q1011 NOSIG
ZJHK,2020-03-21 12:00,ZJHK 211200Z 15004MPS 130V190 9999 FEW040 26/22 Q1012 NOSIG
ZJHK,2020-03-21 13:00,ZJHK 211300Z 16004MPS CAVOK 25/22 Q1013 NOSIG
ZJHK,2020-03-21 14:00,ZJHK 211400Z 16003MPS 120V190 CAVOK 25/22 Q1013 NOSIG
ZJHK,2020-03-21 15:00,ZJHK 211500Z 16004MPS CAVOK 25/22 Q1013 NOSIG
ZJHK,2020-03-21 16:00,ZJHK 211600Z 17004MPS 140V200 CAVOK 25/22 Q1013 NOSIG
ZJHK,2020-03-21 17:00,ZJHK 211700Z 17004MPS 140V200 CAVOK 24/22 Q1012 NOSIG
ZJHK,2020-03-21 18:00,ZJHK 211800Z 17004MPS CAVOK 24/22 Q1012 NOSIG
ZJHK,2020-03-21 19:00,ZJHK 211900Z 17003MPS CAVOK 24/22 Q1011 NOSIG
ZJHK,2020-03-21 20:00,ZJHK 212000Z 17004MPS 130V190 CAVOK 24/22 Q1011 NOSIG
ZJHK,2020-03-21 21:00,ZJHK 212100Z 17004MPS 140V200 CAVOK 24/22 Q1011 NOSIG
ZJHK,2020-03-21 22:00,ZJHK 212200Z 17004MPS 140V200 CAVOK 24/22 Q1011 NOSIG
ZJHK,2020-03-21 23:00,ZJHK 212300Z 18004MPS 150V220 CAVOK 24/22 Q1012 NOSIG
ZJHK,2020-03-22 00:00,ZJHK 220000Z 19003MPS 160V230 CAVOK 25/22 Q1013 NOSIG
ZJHK,2020-03-22 01:00,ZJHK 220100Z 20005MPS CAVOK 27/21 Q1014 NOSIG
ZJHK,2020-03-22 02:00,ZJHK 220200Z 23004MPS 190V260 CAVOK 28/21 Q1014 NOSIG
ZJHK,2020-03-22 03:00,ZJHK 220300Z 19003MPS 160V230 CAVOK 30/20 Q1014 NOSIG
ZJHK,2020-03-22 04:00,ZJHK 220400Z VRB02MPS CAVOK 31/19 Q1013 NOSIG
ZJHK,2020-03-22 05:00,ZJHK 220500Z 20002MPS 130V290 CAVOK 33/19 Q1012 NOSIG
ZJHK,2020-03-22 06:00,ZJHK 220600Z 02005MPS 350V060 CAVOK 31/22 Q1011 NOSIG
ZJHK,2020-03-22 07:00,ZJHK 220700Z 01004MPS 330V070 CAVOK 31/21 Q1010 NOSIG
ZJHK,2020-03-22 08:00,ZJHK 220800Z 03003MPS 360V080 CAVOK 31/20 Q1010 NOSIG
ZJHK,2020-03-22 09:00,ZJHK 220900Z 36004MPS CAVOK 31/19 Q1010 NOSIG
ZJHK,2020-03-22 10:00,ZJHK 221000Z 02003MPS 300V080 CAVOK 30/20 Q1010 NOSIG
ZJHK,2020-03-22 11:00,ZJHK 221100Z 13003MPS CAVOK 28/20 Q1010 NOSIG
ZJHK,2020-03-22 12:00,ZJHK 221200Z 14003MPS 110V180 CAVOK 26/21 Q1011 NOSIG
ZJHK,2020-03-22 13:00,ZJHK 221300Z 15002MPS 090V200 CAVOK 25/21 Q1013 NOSIG
ZJHK,2020-03-22 14:00,ZJHK 221400Z 14003MPS 110V190 CAVOK 25/22 Q1013 NOSIG
ZJHK,2020-03-22 15:00,ZJHK 221500Z 15003MPS 100V190 CAVOK 24/22 Q1013 NOSIG
ZJHK,2020-03-22 16:00,ZJHK 221600Z 14002MPS 110V170 CAVOK 24/22 Q1013 NOSIG
ZJHK,2020-03-22 17:00,ZJHK 221700Z 14002MPS 110V170 CAVOK 24/22 Q1012 NOSIG
ZJHK,2020-03-22 18:00,ZJHK 221800Z 15003MPS 130V190 CAVOK 24/22 Q1012 NOSIG
ZJHK,2020-03-22 19:00,ZJHK 221900Z 14003MPS CAVOK 23/22 Q1011 NOSIG
ZJHK,2020-03-22 20:00,ZJHK 222000Z 15003MPS 130V190 CAVOK 23/22 Q1011 NOSIG
ZJHK,2020-03-22 21:00,ZJHK 222100Z VRB01MPS CAVOK 23/22 Q1011 NOSIG
ZJHK,2020-03-22 22:00,ZJHK 222200Z 16001MPS 9999 FEW013 22/21 Q1012 NOSIG
ZJHK,2020-03-22 23:00,ZJHK 222300Z 00000MPS CAVOK 23/21 Q1013 NOSIG
ZJHK,2020-03-23 00:00,ZJHK 230000Z 16002MPS 130V200 CAVOK 24/23 Q1013 NOSIG
ZJHK,2020-03-23 01:00,ZJHK 230100Z 20003MPS 160V240 9999 SCT015 26/23 Q1014 NOSIG
ZJHK,2020-03-23 02:00,ZJHK 230200Z 23004MPS 200V260 9999 BKN023 27/22 Q1015 NOSIG
ZJHK,2020-03-23 03:00,ZJHK 230300Z 23004MPS 170V270 9999 SCT026 29/21 Q1015 NOSIG
ZJHK,2020-03-23 04:00,ZJHK 230400Z 22004MPS 160V260 9999 FEW030 SCT043 30/21 Q1014 NOSIG
ZJHK,2020-03-23 05:00,ZJHK 230500Z VRB02MPS 9999 SCT030 BKN046 31/21 Q1013 NOSIG
ZJHK,2020-03-23 06:00,ZJHK 230600Z 03006MPS 9999 SCT043 29/22 Q1012 NOSIG
ZJHK,2020-03-23 07:00,ZJHK 230700Z 02005MPS 350V060 9999 FEW033 29/22 Q1012 NOSIG
ZJHK,2020-03-23 08:00,ZJHK 230800Z 02005MPS 340V050 9999 FEW033 29/22 Q1011 NOSIG
ZJHK,2020-03-23 09:00,ZJHK 230900Z 03004MPS 340V050 CAVOK 28/22 Q1011 NOSIG
ZJHK,2020-03-23 10:00,ZJHK 231000Z 36003MPS 340V040 9999 FEW033 28/22 Q1011 NOSIG
ZJHK,2020-03-23 11:00,ZJHK 231100Z VRB01MPS 9999 BKN030 27/22 Q1011 NOSIG
ZJHK,2020-03-23 12:00,ZJHK 231200Z 15004MPS 110V170 9999 SCT030 26/22 Q1012 NOSIG
ZJHK,2020-03-23 13:00,ZJHK 231300Z 15002MPS 130V190 CAVOK 25/22 Q1013 NOSIG
ZJHK,2020-03-23 14:00,ZJHK 231400Z 13001MPS 9999 FEW033 24/22 Q1013 NOSIG
ZJHK,2020-03-23 15:00,ZJHK 231500Z 10001MPS 9999 BKN016 23/22 Q1014 NOSIG
ZJHK,2020-03-23 16:00,ZJHK 231600Z 10002MPS 9999 FEW013 SCT023 23/22 Q1014 NOSIG
ZJHK,2020-03-23 17:00,ZJHK 231700Z 12002MPS CAVOK 23/22 Q1014 NOSIG
ZJHK,2020-03-23 18:00,ZJHK 231800Z 11002MPS 8000 FEW010 22/22 Q1013 NOSIG
ZJHK,2020-03-23 19:00,ZJHK 231900Z 12002MPS 7000 FEW010 22/22 Q1013 NOSIG
ZJHK,2020-03-23 20:00,ZJHK 232000Z 12002MPS 6000 FEW010 22/21 Q1012 NOSIG
ZJHK,2020-03-23 21:00,ZJHK 232100Z 00000MPS 6000 FEW004 22/21 Q1013 NOSIG
ZJHK,2020-03-23 22:00,ZJHK 232200Z 00000MPS 5000 BR BCFG FEW004 21/21 Q1013 NOSIG
ZJHK,2020-03-23 23:00,ZJHK 232300Z 00000MPS 5000 R09/0450V0650D BR PRFG FEW001 SCT002 21/21 Q1013 NOSIG
ZJHK,2020-03-24 00:00,ZJHK 240000Z 12002MPS 8000 FEW006 23/22 Q1014 NOSIG
ZJHK,2020-03-24 01:00,ZJHK 240100Z 14003MPS 100V180 9999 FEW007 SCT013 25/24 Q1014 NOSIG
ZJHK,2020-03-24 02:00,ZJHK 240200Z 14004MPS 100V170 9999 BKN020 28/22 Q1015 NOSIG
ZJHK,2020-03-24 03:00,ZJHK 240300Z 15003MPS 070V210 9999 FEW013 BKN026 30/22 Q1015 NOSIG
ZJHK,2020-03-24 04:00,ZJHK 240400Z VRB02MPS 9999 BKN026 31/22 Q1014 NOSIG
ZJHK,2020-03-24 05:00,ZJHK 240500Z 11003MPS 070V140 9999 BKN030 31/22 Q1013 NOSIG
ZJHK,2020-03-24 06:00,ZJHK 240600Z 15004MPS 090V210 9999 BKN030 32/21 Q1012 NOSIG
ZJHK,2020-03-24 07:00,ZJHK 240700Z 14005MPS 100V160 9999 BKN033 31/21 Q1011 NOSIG
ZJHK,2020-03-24 08:00,ZJHK 240800Z 12006MPS 100V160 9999 BKN033 31/21 Q1010 NOSIG
ZJHK,2020-03-24 09:00,ZJHK 240900Z 13006MPS 9999 BKN033 29/21 Q1010 NOSIG
ZJHK,2020-03-24 10:00,ZJHK 241000Z 14006MPS 110V170 9999 FEW033 28/21 Q1010 NOSIG
ZJHK,2020-03-24 11:00,ZJHK 241100Z 12005G10MPS 9999 FEW016 26/21 Q1011 NOSIG
ZJHK,2020-03-24 12:00,ZJHK 241200Z 12004MPS 9999 FEW016 25/21 Q1012 NOSIG
ZJHK,2020-03-24 13:00,ZJHK 241300Z 12003MPS 9999 FEW016 25/22 Q1012 NOSIG
ZJHK,2020-03-24 14:00,ZJHK 241400Z 11003MPS 080V140 9999 FEW016 BKN040 24/22 Q1013 NOSIG
ZJHK,2020-03-24 15:00,ZJHK 241500Z 11003MPS 9999 FEW016 BKN040 24/22 Q1013 NOSIG
ZJHK,2020-03-24 16:00,ZJHK 241600Z 12003MPS 9999 SCT013 BKN033 24/22 Q1013 NOSIG
ZJHK,2020-03-24 17:00,ZJHK 241700Z 11003MPS 9999 FEW016 24/22 Q1013 NOSIG
ZJHK,2020-03-24 18:00,ZJHK 241800Z 12002MPS 9999 FEW010 23/22 Q1012 NOSIG
ZJHK,2020-03-24 19:00,ZJHK 241900Z 11002MPS CAVOK 23/21 Q1011 NOSIG
ZJHK,2020-03-24 20:00,ZJHK 242000Z 00000MPS CAVOK 22/21 Q1011 NOSIG
ZJHK,2020-03-24 21:00,ZJHK 242100Z 12002MPS 8000 NSC 22/21 Q1011 NOSIG
ZJHK,2020-03-24 22:00,ZJHK 242200Z 12003MPS 8000 NSC 22/21 Q1011 NOSIG
ZJHK,2020-03-24 23:00,ZJHK 242300Z 11001MPS 7000 NSC 22/21 Q1012 NOSIG
ZJHK,2020-03-25 00:00,ZJHK 250000Z 13002MPS 100V170 CAVOK 24/23 Q1012 NOSIG
ZJHK,2020-03-25 01:00,ZJHK 250100Z 14004MPS 110V180 9999 FEW020 26/23 Q1013 NOSIG
ZJHK,2020-03-25 02:00,ZJHK 250200Z 15004MPS 120V180 9999 BKN020 28/21 Q1013 NOSIG
ZJHK,2020-03-25 03:00,ZJHK 250300Z 15005MPS 110V180 9999 BKN026 29/21 Q1013 NOSIG
ZJHK,2020-03-25 04:00,ZJHK 250400Z 15005MPS 110V200 9999 BKN026 30/21 Q1013 NOSIG
ZJHK,2020-03-25 05:00,ZJHK 250500Z 12005MPS 9999 BKN026 31/20 Q1012 NOSIG
ZJHK,2020-03-25 06:00,ZJHK 250600Z 15005MPS 120V200 9999 BKN040 31/20 Q1011 NOSIG
ZJHK,2020-03-25 07:00,ZJHK 250700Z 15004MPS 100V200 9999 BKN040 30/20 Q1010 NOSIG
ZJHK,2020-03-25 08:00,ZJHK 250800Z 15005MPS 120V180 9999 BKN040 30/20 Q1010 NOSIG
ZJHK,2020-03-25 09:00,ZJHK 250900Z 14005MPS 120V200 9999 FEW040 29/20 Q1009 NOSIG
ZJHK,2020-03-25 10:00,ZJHK 251000Z 15005MPS 110V180 9999 FEW040 28/20 Q1009 NOSIG
ZJHK,2020-03-25 11:00,ZJHK 251100Z 14004MPS 110V170 9999 FEW016 26/21 Q1010 NOSIG
ZJHK,2020-03-25 12:00,ZJHK 251200Z 13003G08MPS 100V160 9999 SCT016 26/22 Q1010 NOSIG
ZJHK,2020-03-25 13:00,ZJHK 251300Z 14003MPS 100V170 9999 SCT016 25/22 Q1011 NOSIG
ZJHK,2020-03-25 14:00,ZJHK 251400Z 15003MPS CAVOK 25/22 Q1012 NOSIG
ZJHK,2020-03-25 15:00,ZJHK 251500Z 15003MPS 120V180 CAVOK 25/22 Q1012 NOSIG
ZJHK,2020-03-25 16:00,ZJHK 251600Z 14003MPS 110V180 CAVOK 24/22 Q1012 NOSIG
ZJHK,2020-03-25 17:00,ZJHK 251700Z 15003MPS 120V180 CAVOK 24/22 Q1012 NOSIG
ZJHK,2020-03-25 18:00,ZJHK 251800Z 13003MPS CAVOK 24/22 Q1011 NOSIG
ZJHK,2020-03-25 19:00,ZJHK 251900Z 13002MPS 9999 FEW016 23/22 Q1011 NOSIG
ZJHK,2020-03-25 20:00,ZJHK 252000Z 14003MPS 110V170 9999 FEW016 23/22 Q1011 NOSIG
ZJHK,2020-03-25 21:00,ZJHK 252100Z 14003MPS 9999 FEW016 24/23 Q1010 NOSIG
ZJHK,2020-03-25 22:00,ZJHK 252200Z 14002MPS 120V180 9999 FEW016 24/22 Q1011 NOSIG
ZJHK,2020-03-25 23:00,ZJHK 252300Z 14003MPS 9999 FEW016 24/23 Q1011 NOSIG
ZJHK,2020-03-26 00:00,ZJHK 260000Z 15003MPS 110V200 9999 SCT016 25/23 Q1011 NOSIG
ZJHK,2020-03-26 01:00,ZJHK 260100Z 16004MPS 130V200 9999 SCT015 BKN023 26/23 Q1012 NOSIG
ZJHK,2020-03-26 02:00,ZJHK 260200Z 16005MPS 130V200 9999 BKN023 28/22 Q1012 NOSIG
ZJHK,2020-03-26 03:00,ZJHK 260300Z 16005MPS 130V200 9999 BKN023 30/22 Q1012 NOSIG
ZJHK,2020-03-26 04:00,ZJHK 260400Z 17005MPS 110V210 9999 SCT023 31/22 Q1012 NOSIG
ZJHK,2020-03-26 05:00,ZJHK 260500Z 18004MPS 110V220 9999 SCT033 32/22 Q1011 NOSIG
ZJHK,2020-03-26 06:00,ZJHK 260600Z 16006MPS 130V190 9999 SCT033 32/22 Q1009 NOSIG
ZJHK,2020-03-26 07:00,ZJHK 260700Z 15006MPS 120V190 9999 SCT033 31/23 Q1009 NOSIG
ZJHK,2020-03-26 08:00,ZJHK 260800Z 15005G10MPS 110V190 9999 FEW030TCU SCT033 30/22 Q1008 NOSIG
ZJHK,2020-03-26 09:00,ZJHK 260900Z 16006MPS 120V180 9999 SCT015 FEW030TCU 29/23 Q1008 BECMG TL0920 -TSRA
ZJHK,2020-03-26 10:00,ZJHK 261000Z 14002MPS 9999 -TSRA FEW030CB SCT033 26/24 Q1009 RESHRA BECMG TL1030 NSW
ZJHK,2020-03-26 11:00,ZJHK 261100Z 14002MPS CAVOK 26/23 Q1009 RETS NOSIG
ZJHK,2020-03-26 12:00,ZJHK 261200Z 14003MPS CAVOK 25/23 Q1010 NOSIG
ZJHK,2020-03-26 13:00,ZJHK 261300Z 15003MPS 120V180 CAVOK 25/23 Q1010 NOSIG
ZJHK,2020-03-26 14:00,ZJHK 261400Z 16004MPS CAVOK 25/23 Q1011 NOSIG
ZJHK,2020-03-26 15:00,ZJHK 261500Z 18004MPS 140V200 CAVOK 25/23 Q1012 NOSIG
ZJHK,2020-03-26 16:00,ZJHK 261600Z 17004MPS CAVOK 25/23 Q1011 NOSIG
ZJHK,2020-03-26 17:00,ZJHK 261700Z 17003MPS 140V210 CAVOK 25/23 Q1011 NOSIG
ZJHK,2020-03-26 18:00,ZJHK 261800Z 16003MPS 120V200 CAVOK 25/22 Q1010 NOSIG
ZJHK,2020-03-26 19:00,ZJHK 261900Z 16004MPS 130V190 CAVOK 25/22 Q1010 NOSIG
ZJHK,2020-03-26 20:00,ZJHK 262000Z 15003MPS 130V190 CAVOK 25/22 Q1009 NOSIG
ZJHK,2020-03-26 21:00,ZJHK 262100Z 15004MPS CAVOK 24/22 Q1009 NOSIG
ZJHK,2020-03-26 22:00,ZJHK 262200Z 15004MPS CAVOK 24/23 Q1010 NOSIG
ZJHK,2020-03-26 23:00,ZJHK 262300Z 15004MPS CAVOK 24/23 Q1010 NOSIG
ZJHK,2020-03-27 00:00,ZJHK 270000Z 16004MPS CAVOK 26/23 Q1011 NOSIG
ZJHK,2020-03-27 01:00,ZJHK 270100Z 17005MPS CAVOK 27/23 Q1011 NOSIG
ZJHK,2020-03-27 02:00,ZJHK 270200Z 16006MPS 130V200 CAVOK 29/22 Q1012 NOSIG
ZJHK,2020-03-27 03:00,ZJHK 270300Z 19006MPS 150V220 CAVOK 31/22 Q1011 NOSIG
ZJHK,2020-03-27 04:00,ZJHK 270400Z 18005MPS 140V220 CAVOK 33/22 Q1011 NOSIG
ZJHK,2020-03-27 05:00,ZJHK 270500Z 18005MPS 140V210 9999 FEW040 33/22 Q1010 NOSIG
ZJHK,2020-03-27 06:00,ZJHK 270600Z 17006MPS 130V220 9999 FEW040 33/22 Q1009 NOSIG
ZJHK,2020-03-27 07:00,ZJHK 270700Z 15006MPS 130V190 9999 FEW040 33/23 Q1007 NOSIG
ZJHK,2020-03-27 08:00,ZJHK 270800Z 16006MPS 120V190 CAVOK 33/22 Q1007 NOSIG
ZJHK,2020-03-27 09:00,ZJHK 270900Z 15006MPS 120V180 CAVOK 31/21 Q1007 NOSIG
ZJHK,2020-03-27 10:00,ZJHK 271000Z 14005MPS 110V170 CAVOK 30/22 Q1007 NOSIG
ZJHK,2020-03-27 11:00,ZJHK 271100Z 15005G10MPS 120V180 CAVOK 28/21 Q1008 NOSIG
ZJHK,2020-03-27 12:00,ZJHK 271200Z 15004MPS 120V180 CAVOK 27/20 Q1008 NOSIG
ZJHK,2020-03-27 13:00,ZJHK 271300Z 16004MPS 130V190 CAVOK 27/21 Q1009 NOSIG
ZJHK,2020-03-27 14:00,ZJHK 271400Z 16003MPS 130V200 CAVOK 26/21 Q1010 NOSIG
ZJHK,2020-03-27 15:00,ZJHK 271500Z 17004MPS 140V210 CAVOK 26/21 Q1010 NOSIG
ZJHK,2020-03-27 16:00,ZJHK 271600Z 18003MPS 140V200 CAVOK 26/21 Q1010 NOSIG
ZJHK,2020-03-27 17:00,ZJHK 271700Z 17003MPS 120V200 CAVOK 25/20 Q1010 NOSIG
ZJHK,2020-03-27 18:00,ZJHK 271800Z 18002MPS 150V210 CAVOK 25/20 Q1010 NOSIG
ZJHK,2020-03-27 19:00,ZJHK 271900Z 18003MPS CAVOK 25/21 Q1010 NOSIG
ZJHK,2020-03-27 20:00,ZJHK 272000Z VRB01MPS CAVOK 24/20 Q1010 NOSIG
ZJHK,2020-03-27 21:00,ZJHK 272100Z 00000MPS CAVOK 22/20 Q1010 NOSIG
ZJHK,2020-03-27 22:00,ZJHK 272200Z 00000MPS CAVOK 22/20 Q1010 NOSIG
ZJHK,2020-03-27 23:00,ZJHK 272300Z 00000MPS CAVOK 22/21 Q1011 NOSIG
ZJHK,2020-03-28 00:00,ZJHK 280000Z VRB01MPS CAVOK 25/22 Q1011 NOSIG
ZJHK,2020-03-28 01:00,ZJHK 280100Z 18003MPS CAVOK 27/22 Q1012 NOSIG
ZJHK,2020-03-28 02:00,ZJHK 280200Z 19003MPS 150V230 CAVOK 29/21 Q1012 NOSIG
ZJHK,2020-03-28 03:00,ZJHK 280300Z 16003MPS 130V200 CAVOK 31/20 Q1012 NOSIG
ZJHK,2020-03-28 04:00,ZJHK 280400Z VRB03MPS CAVOK 33/20 Q1011 NOSIG
ZJHK,2020-03-28 05:00,ZJHK 280500Z VRB03MPS 9999 FEW023 34/19 Q1010 NOSIG
ZJHK,2020-03-28 06:00,ZJHK 280600Z 01003MPS 300V090 9999 SCT023 33/22 Q1009 NOSIG
ZJHK,2020-03-28 07:00,ZJHK 280700Z 13004MPS 100V180 9999 SCT026 32/22 Q1008 NOSIG
ZJHK,2020-03-28 08:00,ZJHK 280800Z 14005MPS 100V180 9999 FEW026 32/21 Q1008 NOSIG
ZJHK,2020-03-28 09:00,ZJHK 280900Z 14006MPS 100V170 9999 FEW026 30/22 Q1007 NOSIG
ZJHK,2020-03-28 10:00,ZJHK 281000Z 15004MPS 120V180 9999 FEW026 29/22 Q1008 NOSIG
ZJHK,2020-03-28 11:00,ZJHK 281100Z 13003MPS 100V160 9999 FEW026 27/22 Q1008 NOSIG
ZJHK,2020-03-28 12:00,ZJHK 281200Z 13004MPS 9999 FEW016 26/23 Q1009 NOSIG
ZJHK,2020-03-28 13:00,ZJHK 281300Z 14004MPS 110V170 9999 FEW013 26/23 Q1010 NOSIG
ZJHK,2020-03-28 14:00,ZJHK 281400Z 13003MPS 9999 SCT013 26/23 Q1011 NOSIG
ZJHK,2020-03-28 15:00,ZJHK 281500Z 14004MPS 9999 BKN013 26/23 Q1011 NOSIG
ZJHK,2020-03-28 16:00,ZJHK 281600Z 13003MPS 100V170 9999 FEW015 25/23 Q1011 NOSIG
ZJHK,2020-03-28 17:00,ZJHK 281700Z 14002MPS 9999 SCT015 BKN033 25/23 Q1011 NOSIG
ZJHK,2020-03-28 18:00,ZJHK 281800Z 13003MPS 9999 FEW015 SCT033 25/23 Q1011 NOSIG
ZJHK,2020-03-28 19:00,ZJHK 281900Z 14004MPS 110V170 CAVOK 25/23 Q1010 NOSIG
ZJHK,2020-03-28 20:00,ZJHK 282000Z 13002MPS 9999 FEW043 24/23 Q1010 NOSIG
ZJHK,2020-03-28 21:00,ZJHK 282100Z 13002MPS 9999 SCT010 SCT043 24/23 Q1010 NOSIG
ZJHK,2020-03-28 22:00,ZJHK 282200Z 12002MPS 9999 FEW016 24/23 Q1011 NOSIG
ZJHK,2020-03-28 23:00,ZJHK 282300Z 13004MPS 9999 SCT016 25/23 Q1011 NOSIG
ZJHK,2020-03-29 00:00,ZJHK 290000Z 14005MPS 110V180 9999 SCT015 26/24 Q1011 NOSIG
ZJHK,2020-03-29 01:00,ZJHK 290100Z 14005MPS 110V170 9999 SCT016 27/24 Q1011 NOSIG
ZJHK,2020-03-29 02:00,ZJHK 290200Z 15006MPS 120V190 9999 SCT023 29/23 Q1012 NOSIG
ZJHK,2020-03-29 03:00,ZJHK 290300Z 16008MPS 130V200 9999 BKN023 29/23 Q1012 NOSIG
ZJHK,2020-03-29 04:00,ZJHK 290400Z 16006G11MPS 120V210 9999 BKN023 30/23 Q1011 NOSIG
ZJHK,2020-03-29 05:00,ZJHK 290500Z 17007G12MPS 130V220 9999 BKN023 30/23 Q1009 NOSIG
ZJHK,2020-03-29 06:00,ZJHK 290600Z 16007MPS 130V190 9999 BKN023 30/23 Q1008 NOSIG
ZJHK,2020-03-29 07:00,ZJHK 290700Z 16006MPS 9999 BKN026 31/23 Q1007 NOSIG
ZJHK,2020-03-29 08:00,ZJHK 290800Z 16007MPS 120V180 9999 FEW016 SCT026 31/23 Q1006 NOSIG
ZJHK,2020-03-29 09:00,ZJHK 290900Z 17007MPS 140V200 9999 SCT026 30/23 Q1006 NOSIG
ZJHK,2020-03-29 10:00,ZJHK 291000Z 16006MPS 140V200 9999 SCT026 29/23 Q1006 NOSIG
ZJHK,2020-03-29 11:00,ZJHK 291100Z 16005MPS 130V190 9999 FEW026 28/23 Q1007 NOSIG
ZJHK,2020-03-29 12:00,ZJHK 291200Z 16004MPS 120V190 9999 FEW026 27/23 Q1007 NOSIG
ZJHK,2020-03-29 13:00,ZJHK 291300Z 16004MPS 9999 FEW026 27/23 Q1008 NOSIG
ZJHK,2020-03-29 14:00,ZJHK 291400Z 17004MPS 130V200 9999 FEW026 26/22 Q1008 NOSIG
ZJHK,2020-03-29 15:00,ZJHK 291500Z 17004MPS 9999 FEW026 26/23 Q1009 NOSIG
ZJHK,2020-03-29 16:00,ZJHK 291600Z 17004MPS 130V200 9999 FEW026 26/23 Q1009 NOSIG
ZJHK,2020-03-29 17:00,ZJHK 291700Z 17004MPS 9999 FEW026 25/23 Q1009 NOSIG
ZJHK,2020-03-29 18:00,ZJHK 291800Z 17003MPS 140V210 9999 FEW026 25/23 Q1008 NOSIG
ZJHK,2020-03-29 19:00,ZJHK 291900Z 16004MPS 9999 FEW026 25/23 Q1008 NOSIG
ZJHK,2020-03-29 20:00,ZJHK 292000Z 16003MPS 120V190 CAVOK 25/22 Q1008 NOSIG
ZJHK,2020-03-29 21:00,ZJHK 292100Z 14002MPS CAVOK 24/22 Q1008 NOSIG
ZJHK,2020-03-29 22:00,ZJHK 292200Z 12002MPS CAVOK 23/22 Q1008 NOSIG
ZJHK,2020-03-29 23:00,ZJHK 292300Z 12002MPS CAVOK 23/22 Q1009 NOSIG
ZJHK,2020-03-30 00:00,ZJHK 300000Z 15002MPS CAVOK 25/24 Q1010 NOSIG
ZJHK,2020-03-30 01:00,ZJHK 300100Z 17003MPS 130V200 9999 SCT016 27/24 Q1011 NOSIG
ZJHK,2020-03-30 02:00,ZJHK 300200Z 18005MPS 140V210 9999 SCT016 29/23 Q1011 NOSIG
ZJHK,2020-03-30 03:00,ZJHK 300300Z 19005MPS 160V220 9999 SCT026 30/23 Q1011 NOSIG
ZJHK,2020-03-30 04:00,ZJHK 300400Z 18004MPS 9999 SCT026 31/23 Q1010 NOSIG
ZJHK,2020-03-30 05:00,ZJHK 300500Z 21003MPS 140V260 9999 SCT033 BKN046 32/23 Q1009 NOSIG
ZJHK,2020-03-30 06:00,ZJHK 300600Z 18003MPS 130V240 9999 BKN040 33/23 Q1008 NOSIG
ZJHK,2020-03-30 07:00,ZJHK 300700Z 14003MPS 090V180 9999 BKN036 33/23 Q1007 NOSIG
ZJHK,2020-03-30 08:00,ZJHK 300800Z 02004MPS 340V060 9999 SCT030 30/23 Q1006 NOSIG
ZJHK,2020-03-30 09:00,ZJHK 300900Z 02003MPS 350V060 9999 BKN030 30/23 Q1006 NOSIG
ZJHK,2020-03-30 10:00,ZJHK 301000Z 14003MPS 060V210 9999 BKN030 30/23 Q1007 NOSIG
ZJHK,2020-03-30 11:00,ZJHK 301100Z 18003MPS 140V220 9999 SCT030 29/24 Q1007 NOSIG
ZJHK,2020-03-30 12:00,ZJHK 301200Z 17003MPS 120V200 9999 SCT030 28/23 Q1008 NOSIG
ZJHK,2020-03-30 13:00,ZJHK 301300Z 25002MPS CAVOK 25/21 Q1009 NOSIG
ZJHK,2020-03-30 14:00,ZJHK 301400Z 17002MPS 140V210 CAVOK 26/23 Q1009 NOSIG
ZJHK,2020-03-30 15:00,ZJHK 301500Z 15002MPS 120V190 CAVOK 26/23 Q1009 NOSIG
ZJHK,2020-03-30 16:00,ZJHK 301600Z 15002MPS 120V180 CAVOK 26/23 Q1009 NOSIG
ZJHK,2020-03-30 17:00,ZJHK 301700Z 15002MPS 110V190 CAVOK 25/23 Q1009 NOSIG
ZJHK,2020-03-30 18:00,ZJHK 301800Z 16002MPS 130V200 CAVOK 26/23 Q1008 NOSIG
ZJHK,2020-03-30 19:00,ZJHK 301900Z 18003MPS 140V200 CAVOK 26/23 Q1008 NOSIG
ZJHK,2020-03-30 20:00,ZJHK 302000Z 18003MPS 140V200 9999 FEW013 26/23 Q1008 NOSIG
ZJHK,2020-03-30 21:00,ZJHK 302100Z 18002MPS 150V210 CAVOK 25/23 Q1009 NOSIG
ZJHK,2020-03-30 22:00,ZJHK 302200Z 20002MPS CAVOK 25/23 Q1009 NOSIG
ZJHK,2020-03-30 23:00,ZJHK 302300Z 26002MPS 9999 FEW010 24/22 Q1010 NOSIG
ZJHK,2020-03-31 00:00,ZJHK 310000Z 24002MPS 9999 FEW010 24/22 Q1011 NOSIG
ZJHK,2020-03-31 01:00,ZJHK 310100Z 27003MPS 9999 BKN012 25/22 Q1012 BECMG TL0200 FEW012 SCT020
ZJHK,2020-03-31 02:00,ZJHK 310200Z 28002MPS 250V010 9999 BKN015 27/23 Q1013 NOSIG
ZJHK,2020-03-31 03:00,ZJHK 310300Z VRB01MPS 9999 FEW018 29/24 Q1012 NOSIG
ZJHK,2020-03-31 04:00,ZJHK 310400Z VRB02MPS 9999 SCT025 31/23 Q1012 NOSIG
ZJHK,2020-03-31 05:00,ZJHK 310500Z VRB02MPS 9999 SCT025 32/24 Q1011 NOSIG
ZJHK,2020-03-31 06:00,ZJHK 310600Z 01004MPS 330V060 9999 FEW025 31/24 Q1009 NOSIG
ZJHK,2020-03-31 07:00,ZJHK 310700Z 36005MPS 330V060 9999 FEW025 31/23 Q1009 NOSIG
ZJHK,2020-03-31 08:00,ZJHK 310800Z 01005MPS 9999 BKN030 29/22 Q1009 NOSIG
ZJHK,2020-03-31 09:00,ZJHK 310900Z 01003MPS 320V030 8000 OVC026 28/22 Q1009 NOSIG
ZJHK,2020-03-31 10:00,ZJHK 311000Z 27003MPS 9999 BKN026 OVC040 27/22 Q1009 NOSIG
ZJHK,2020-03-31 11:00,ZJHK 311100Z 02006MPS 2000 -RA BR BKN006 OVC020 24/22 Q1010 BECMG TL1150 BKN004 OVC020
ZJHK,2020-03-31 12:00,ZJHK 311200Z 03005MPS 3000 BR SCT006 OVC016 23/22 Q1011 NOSIG
ZJHK,2020-03-31 13:00,ZJHK 311300Z 02004MPS 4000 BR SCT006 OVC016 22/21 Q1011 NOSIG
ZJHK,2020-03-31 14:00,ZJHK 311400Z 02004MPS 4000 BR SCT006 OVC016 22/21 Q1012 NOSIG
ZJHK,2020-03-31 15:00,ZJHK 311500Z 02004MPS 7000 SCT006 OVC016 23/21 Q1013 NOSIG
ZJHK,2020-03-31 16:00,ZJHK 311600Z 02004MPS 7000 SCT006 OVC016 22/21 Q1012 NOSIG
ZJHK,2020-03-31 17:00,ZJHK 311700Z 01002MPS 6000 SCT006 OVC016 23/21 Q1012 NOSIG
ZJHK,2020-03-31 18:00,ZJHK 311800Z 35002MPS 6000 SCT006 BKN016 BKN026 23/22 Q1011 NOSIG
ZJHK,2020-03-31 19:00,ZJHK 311900Z 35003MPS 7000 SCT006 BKN016 BKN026 23/22 Q1011 NOSIG
ZJHK,2020-03-31 20:00,ZJHK 312000Z VRB01MPS 8000 SCT006 BKN016 24/22 Q1011 NOSIG
ZJHK,2020-03-31 21:00,ZJHK 312100Z 00000MPS 7000 FEW006 BKN023 23/22 Q1011 NOSIG
ZJHK,2020-03-31 22:00,ZJHK 312200Z 20001MPS 7000 SCT020 23/22 Q1012 NOSIG
ZJHK,2020-03-31 23:00,ZJHK 312300Z 13002MPS 5000 BR NSC 23/22 Q1013 NOSIG
ZJHK,2020-04-01 00:00,ZJHK 010000Z 14002MPS 6000 NSC 24/23 Q1013 NOSIG
ZJHK,2020-04-01 01:00,ZJHK 010100Z 14002MPS 100V180 9999 SCT016 26/23 Q1014 NOSIG
ZJHK,2020-04-01 02:00,ZJHK 010200Z 16002MPS 100V230 9999 SCT016 29/23 Q1014 NOSIG
ZJHK,2020-04-01 03:00,ZJHK 010300Z 18003MPS 130V230 9999 BKN020 30/22 Q1014 NOSIG
ZJHK,2020-04-01 04:00,ZJHK 010400Z 15002MPS 090V200 9999 BKN023 32/22 Q1013 NOSIG
ZJHK,2020-04-01 05:00,ZJHK 010500Z 11002MPS 070V200 9999 BKN030 32/22 Q1012 NOSIG
ZJHK,2020-04-01 06:00,ZJHK 010600Z 19002MPS 110V280 9999 BKN033 32/22 Q1010 NOSIG
ZJHK,2020-04-01 07:00,ZJHK 010700Z 15003MPS 100V210 9999 BKN043 33/22 Q1009 NOSIG
ZJHK,2020-04-01 08:00,ZJHK 010800Z 14006MPS 110V170 9999 BKN046 32/22 Q1009 NOSIG
ZJHK,2020-04-01 09:00,ZJHK 010900Z 15006MPS 120V180 9999 FEW033 31/22 Q1009 NOSIG
ZJHK,2020-04-01 10:00,ZJHK 011000Z 15006MPS 120V180 9999 FEW033 29/21 Q1009 NOSIG
ZJHK,2020-04-01 11:00,ZJHK 011100Z 14005MPS 100V180 9999 FEW016 28/22 Q1010 NOSIG
ZJHK,2020-04-01 12:00,ZJHK 011200Z 13003MPS 100V160 CAVOK 27/23 Q1011 NOSIG
ZJHK,2020-04-01 13:00,ZJHK 011300Z 11003MPS 9999 BKN015 26/24 Q1012 BECMG TL1420 BKN010
ZJHK,2020-04-01 14:00,ZJHK 011400Z 12004MPS 9999 FEW015 27/24 Q1013 NOSIG
ZJHK,2020-04-01 15:00,ZJHK 011500Z 11003MPS 9999 FEW013 26/24 Q1013 NOSIG
ZJHK,2020-04-01 16:00,ZJHK 011600Z 13002MPS CAVOK 26/24 Q1013 NOSIG
ZJHK,2020-04-01 17:00,ZJHK 011700Z 12001MPS 9999 FEW013 25/24 Q1013 NOSIG
ZJHK,2020-04-01 18:00,ZJHK 011800Z 10002MPS 9999 SCT011 25/24 Q1012 NOSIG
ZJHK,2020-04-01 19:00,ZJHK 011900Z 09002MPS 9999 BKN008 25/24 Q1012 BECMG TL2040 SCT010
ZJHK,2020-04-01 20:00,ZJHK 012000Z 00000MPS 9999 BKN008 FEW020TCU SCT033 25/24 Q1012 NOSIG
ZJHK,2020-04-01 21:00,ZJHK 012100Z 13002MPS 9999 -SHRA BKN008 FEW023TCU BKN040 25/24 Q1012 NOSIG
ZJHK,2020-04-01 22:00,ZJHK 012200Z 14002MPS 100V180 9999 SCT008 FEW023TCU BKN040 25/24 Q1013 NOSIG
ZJHK,2020-04-01 23:00,ZJHK 012300Z 11003MPS 9999 BKN010 BKN020 25/24 Q1013 BECMG TL0030 SCT010 BKN030
ZJHK,2020-04-02 00:00,ZJHK 020000Z 14004MPS 110V180 9999 SCT010 SCT040 26/24 Q1014 NOSIG
ZJHK,2020-04-02 01:00,ZJHK 020100Z 13005MPS 100V160 9999 SCT013 27/23 Q1015 NOSIG
ZJHK,2020-04-02 02:00,ZJHK 020200Z 15006MPS 120V180 9999 SCT020 28/22 Q1015 NOSIG
ZJHK,2020-04-02 03:00,ZJHK 020300Z 15005MPS 090V180 9999 BKN023 30/22 Q1015 NOSIG
ZJHK,2020-04-02 04:00,ZJHK 020400Z 16005MPS 120V190 9999 BKN030 31/22 Q1015 NOSIG
ZJHK,2020-04-02 05:00,ZJHK 020500Z 15006MPS 9999 FEW030 30/21 Q1014 NOSIG
ZJHK,2020-04-02 06:00,ZJHK 020600Z 16005MPS 110V190 9999 SCT030 31/21 Q1013 NOSIG
ZJHK,2020-04-02 07:00,ZJHK 020700Z 16005MPS 120V200 9999 SCT030 31/21 Q1012 NOSIG
ZJHK,2020-04-02 08:00,ZJHK 020800Z 15005MPS 100V180 9999 FEW030 30/21 Q1011 NOSIG
ZJHK,2020-04-02 09:00,ZJHK 020900Z 14005MPS 120V180 9999 FEW030 29/21 Q1011 NOSIG
ZJHK,2020-04-02 10:00,ZJHK 021000Z 14004MPS 100V170 9999 FEW030 28/22 Q1012 NOSIG
ZJHK,2020-04-02 11:00,ZJHK 021100Z 14005MPS 9999 FEW030 27/22 Q1012 NOSIG
ZJHK,2020-04-02 12:00,ZJHK 021200Z 14003MPS 100V170 CAVOK 26/22 Q1012 NOSIG
ZJHK,2020-04-02 13:00,ZJHK 021300Z 14004MPS 110V170 CAVOK 26/22 Q1013 NOSIG
ZJHK,2020-04-02 14:00,ZJHK 021400Z 14003MPS 120V180 CAVOK 26/23 Q1014 NOSIG
ZJHK,2020-04-02 15:00,ZJHK 021500Z 14002MPS 090V170 CAVOK 26/23 Q1014 NOSIG
ZJHK,2020-04-02 16:00,ZJHK 021600Z 11002MPS CAVOK 25/23 Q1014 NOSIG
ZJHK,2020-04-02 17:00,ZJHK 021700Z 11002MPS CAVOK 24/23 Q1014 NOSIG
ZJHK,2020-04-02 18:00,ZJHK 021800Z 11003MPS CAVOK 24/23 Q1013 NOSIG
ZJHK,2020-04-02 19:00,ZJHK 021900Z 11002MPS CAVOK 24/23 Q1012 NOSIG
ZJHK,2020-04-02 20:00,ZJHK 022000Z 13002MPS 9999 FEW010 24/23 Q1012 NOSIG
ZJHK,2020-04-03 03:00,ZJHK 030300Z 14004MPS 110V190 9999 BKN023 30/22 Q1016 NOSIG
ZJHK,2020-04-03 04:00,ZJHK 030400Z 13005MPS 090V180 9999 BKN030 32/22 Q1015 NOSIG
ZJHK,2020-04-03 05:00,ZJHK 030500Z 15004MPS 110V200 9999 FEW030TCU BKN040 30/22 Q1014 NOSIG
ZJHK,2020-04-03 06:00,ZJHK 030600Z 14005MPS 100V170 9999 BKN040 31/22 Q1013 NOSIG
ZJHK,2020-04-03 07:00,ZJHK 030700Z 15006MPS 120V180 9999 SCT040 32/22 Q1012 NOSIG
ZJHK,2020-04-03 08:00,ZJHK 030800Z 15005MPS 120V180 9999 SCT040 31/22 Q1011 NOSIG
ZJHK,2020-04-03 09:00,ZJHK 030900Z 15005MPS 110V190 9999 SCT033 30/22 Q1011 NOSIG
ZJHK,2020-04-03 10:00,ZJHK 031000Z 13005MPS 9999 FEW013 SCT033 29/22 Q1012 NOSIG
ZJHK,2020-04-03 11:00,ZJHK 031100Z 14004MPS 110V170 CAVOK 27/22 Q1012 NOSIG
ZJHK,2020-04-03 12:00,ZJHK 031200Z 13004MPS 100V170 CAVOK 26/22 Q1013 NOSIG
ZJHK,2020-04-03 13:00,ZJHK 031300Z 14003MPS CAVOK 26/23 Q1013 NOSIG
ZJHK,2020-04-03 14:00,ZJHK 031400Z 13002MPS 090V160 9999 FEW015 BKN046 26/23 Q1014 NOSIG
ZJHK,2020-04-03 15:00,ZJHK 031500Z 11002MPS 080V140 9999 SCT013 BKN046 26/24 Q1015 NOSIG
ZJHK,2020-04-03 16:00,ZJHK 031600Z 07005MPS 9999 BKN012 BKN040 26/24 Q1015 BECMG TL1750 SCT015 SCT040
ZJHK,2020-04-03 17:00,ZJHK 031700Z 10004MPS 9999 FEW012 BKN033 26/24 Q1014 NOSIG
ZJHK,2020-04-03 18:00,ZJHK 031800Z 10004MPS 9999 FEW012 BKN033 24/23 Q1014 NOSIG
ZJHK,2020-04-03 19:00,ZJHK 031900Z 08004MPS 9999 BKN007 BKN033 24/23 Q1014 NOSIG
ZJHK,2020-04-03 20:00,ZJHK 032000Z 06005MPS 9999 BKN007 BKN033 24/23 Q1014 NOSIG
ZJHK,2020-04-03 21:00,ZJHK 032100Z 07005MPS 9999 BKN007 BKN033 24/22 Q1014 NOSIG
ZJHK,2020-04-03 22:00,ZJHK 032200Z 08004MPS 9999 BKN007 BKN033 24/22 Q1014 NOSIG
ZJHK,2020-04-03 23:00,ZJHK 032300Z 08006MPS 9999 BKN007 OVC023 24/22 Q1015 NOSIG
ZJHK,2020-04-04 00:00,ZJHK 040000Z 07006MPS 9999 BKN007 OVC023 24/22 Q1016 NOSIG
ZJHK,2020-04-04 01:00,ZJHK 040100Z 08006MPS 9999 BKN007 OVC023 25/22 Q1017 NOSIG
ZJHK,2020-04-04 02:00,ZJHK 040200Z 07006MPS 9999 BKN010 OVC030 25/23 Q1017 NOSIG
ZJHK,2020-04-04 03:00,ZJHK 040300Z 08005MPS 9999 SCT010 SCT016 28/23 Q1016 NOSIG
ZJHK,2020-04-04 04:00,ZJHK 040400Z 06006MPS 9999 SCT010 BKN020 29/23 Q1016 NOSIG
ZJHK,2020-04-04 05:00,ZJHK 040500Z 06005MPS 030V090 9999 BKN018 BKN026 30/23 Q1015 NOSIG
ZJHK,2020-04-04 06:00,ZJHK 040600Z 06008MPS 030V090 9999 BKN016 FEW020TCU BKN030 29/23 Q1015 NOSIG
ZJHK,2020-04-04 07:00,ZJHK 040700Z 08009MPS 9999 SCT012 FEW020CB SCT020 28/23 Q1013 BECMG AT0800 -TSRA
ZJHK,2020-04-04 08:00,ZJHK 040800Z 09006MPS 9999 SCT012 BKN016 FEW020CB BKN046 27/23 Q1014 NOSIG
ZJHK,2020-04-04 09:00,ZJHK 040900Z 08007MPS 9999 SCT012 BKN018 FEW020CB BKN046 26/23 Q1014 NOSIG
ZJHK,2020-04-04 10:00,ZJHK 041000Z 07006MPS 9999 SCT013 BKN017 FEW020CB BKN046 26/22 Q1014 NOSIG
ZJHK,2020-04-04 11:00,ZJHK 041100Z 08006MPS 9999 SCT012 SCT017 FEW020CB BKN046 25/22 Q1015 NOSIG
ZJHK,2020-04-04 12:00,ZJHK 041200Z 06006MPS 9999 FEW009 BKN012 BKN040 25/23 Q1015 NOSIG
ZJHK,2020-04-04 13:00,ZJHK 041300Z 06005MPS 9999 SCT008 BKN012 BKN040 25/23 Q1015 NOSIG
ZJHK,2020-04-04 14:00,ZJHK 041400Z 09004MPS 9999 SCT008 SCT015 BKN040 25/23 Q1016 NOSIG
ZJHK,2020-04-04 15:00,ZJHK 041500Z 06004MPS 9999 SCT008 BKN018 BKN040 25/23 Q1016 NOSIG
ZJHK,2020-04-04 16:00,ZJHK 041600Z 05004MPS 9999 SCT007 BKN017 BKN040 25/23 Q1016 NOSIG
ZJHK,2020-04-04 17:00,ZJHK 041700Z 06003MPS 9999 -RA SCT007 BKN018 BKN026 25/23 Q1016 NOSIG
ZJHK,2020-04-04 18:00,ZJHK 041800Z 07004MPS 9999 -RA SCT006 BKN012 BKN018 24/23 Q1015 NOSIG
ZJHK,2020-04-04 19:00,ZJHK 041900Z 05004MPS 9999 SCT006 BKN014 BKN026 24/23 Q1014 NOSIG
ZJHK,2020-04-04 20:00,ZJHK 042000Z 03005MPS 9999 -RA SCT005 BKN012 BKN026 23/22 Q1014 NOSIG
ZJHK,2020-04-04 21:00,ZJHK 042100Z 01004MPS 8000 -RA SCT004 BKN012 BKN026 23/22 Q1015 NOSIG
ZJHK,2020-04-04 22:00,ZJHK 042200Z 02005MPS 9999 SCT004 BKN012 BKN026 22/21 Q1015 NOSIG
ZJHK,2020-04-04 23:00,ZJHK 042300Z 04008MPS 6000 -RA BKN005 OVC026 22/20 Q1016 NOSIG
ZJHK,2020-04-05 00:00,ZJHK 050000Z 04007MPS 010V070 8000 -RA BKN005 OVC026 22/20 Q1017 NOSIG
ZJHK,2020-04-05 01:00,ZJHK 050100Z 04008MPS 9999 -DZ BKN006 OVC020 22/20 Q1018 NOSIG
ZJHK,2020-04-05 02:00,ZJHK 050200Z 06008MPS 9999 BKN007 BKN020 23/21 Q1018 NOSIG
ZJHK,2020-04-05 03:00,ZJHK 050300Z 07008MPS 9999 BKN008 BKN020 23/20 Q1018 NOSIG
ZJHK,2020-04-05 04:00,ZJHK 050400Z 07008MPS 9999 BKN008 BKN020 23/20 Q1017 BECMG TL0540 BKN010 BKN020
ZJHK,2020-04-05 05:00,ZJHK 050500Z 06007MPS 9999 -RA BKN010 BKN020 22/20 Q1017 NOSIG
ZJHK,2020-04-05 06:00,ZJHK 050600Z 06006MPS 8000 -RA BKN010 BKN020 22/21 Q1015 NOSIG
ZJHK,2020-04-05 07:00,ZJHK 050700Z 05005MPS 5000 -RA BKN005 BKN020 22/21 Q1015 BECMG TL0840 2800 BKN004 BKN020
ZJHK,2020-04-05 08:00,ZJHK 050800Z 06004MPS 6000 -RA BKN005 BKN020 22/21 Q1014 NOSIG
ZJHK,2020-04-05 09:00,ZJHK 050900Z 07005MPS 6000 -RA BKN004 BKN020 22/21 Q1014 NOSIG
ZJHK,2020-04-05 10:00,ZJHK 051000Z 07003MPS 7000 -RA BKN004 BKN020 23/22 Q1014 BECMG TL1120 BKN006 BKN020
ZJHK,2020-04-05 11:00,ZJHK 051100Z 07004MPS 020V090 8000 -RA BKN010 BKN020 23/22 Q1014 NOSIG
ZJHK,2020-04-05 12:00,ZJHK 051200Z 10003MPS 9999 BKN010 BKN020 23/22 Q1015 BECMG TL1240 2800 BKN004 BKN020
ZJHK,2020-04-05 13:00,ZJHK 051300Z 07004MPS 7000 -RA BKN010 BKN020 23/22 Q1016 BECMG TL1350 SCT013 BKN020
ZJHK,2020-04-05 14:00,ZJHK 051400Z 05003MPS 8000 BKN010 BKN020 23/22 Q1016 NOSIG
ZJHK,2020-04-05 15:00,ZJHK 051500Z 05003MPS 020V080 8000 -RA BKN011 BKN026 23/22 Q1016 NOSIG
ZJHK,2020-04-05 16:00,ZJHK 051600Z 06003MPS 8000 BKN010 BKN026 23/22 Q1016 NOSIG
ZJHK,2020-04-05 17:00,ZJHK 051700Z 06003MPS 8000 BKN009 BKN026 23/22 Q1015 NOSIG
ZJHK,2020-04-05 18:00,ZJHK 051800Z 07003MPS 8000 BKN009 FEW026TCU BKN026 23/22 Q1014 NOSIG
ZJHK,2020-04-05 19:00,ZJHK 051900Z 08003MPS 8000 BKN011 BKN026 23/22 Q1014 NOSIG
ZJHK,2020-04-05 20:00,ZJHK 052000Z 09002MPS 8000 BKN011 BKN026 23/22 Q1013 NOSIG
ZJHK,2020-04-05 21:00,ZJHK 052100Z 08003MPS 8000 BKN011 BKN026 24/22 Q1013 NOSIG
ZJHK,2020-04-05 22:00,ZJHK 052200Z 10002MPS 8000 SCT011 BKN026 23/22 Q1014 NOSIG
ZJHK,2020-04-05 23:00,ZJHK 052300Z 08002MPS 8000 -SHRA SCT011 FEW023TCU BKN026 23/22 Q1014 BECMG TL0020 SHRA BKN010 BKN020 FEW026CB
ZJHK,2020-04-06 00:00,ZJHK 060000Z 07006MPS 8000 -SHRA SCT011 SCT023CB BKN026 23/22 Q1014 RESHRA NOSIG
ZJHK,2020-04-06 01:00,ZJHK 060100Z 05003MPS 020V090 9999 -SHRA SCT011 FEW023CB BKN023 24/22 Q1015 BECMG AT0220 SHRA
ZJHK,2020-04-06 02:00,ZJHK 060200Z 02002MPS 340V070 9999 SCT013 FEW023CB BKN023 24/23 Q1015 NOSIG
ZJHK,2020-04-06 03:00,ZJHK 060300Z 05003MPS 020V080 9999 SCT013 BKN023 26/23 Q1015 NOSIG
ZJHK,2020-04-06 04:00,ZJHK 060400Z 01006G12MPS 350V050 4000 SHRA SCT006 FEW023CB BKN023 23/21 Q1015 BECMG AT0430 -SHRA
ZJHK,2020-04-06 05:00,ZJHK 060500Z 02007MPS 9999 -SHRA BKN007 FEW023CB BKN023 21/20 Q1014 RESHRA BECMG AT0600 SCT007 BKN023 FEW026CB
ZJHK,2020-04-06 06:00,ZJHK 060600Z 02006MPS 350V050 9999 -SHRA SCT007 FEW023TCU BKN023 21/19 Q1014 NOSIG
ZJHK,2020-04-06 07:00,ZJHK 060700Z 02006MPS 9999 SCT007 OVC023 20/19 Q1013 NOSIG
ZJHK,2020-04-06 08:00,ZJHK 060800Z 03006MPS 9999 FEW008 OVC023 20/19 Q1012 NOSIG
ZJHK,2020-04-06 09:00,ZJHK 060900Z 06008MPS 9999 -RA SCT008 OVC023 20/18 Q1012 NOSIG
ZJHK,2020-04-06 10:00,ZJHK 061000Z 05006MPS 9999 SCT008 OVC023 20/19 Q1012 NOSIG
ZJHK,2020-04-06 11:00,ZJHK 061100Z 04004MPS 9999 BKN010 OVC023 21/19 Q1013 NOSIG
ZJHK,2020-04-06 12:00,ZJHK 061200Z 05004MPS 9999 BKN010 OVC023 21/19 Q1013 NOSIG
ZJHK,2020-04-06 13:00,ZJHK 061300Z 06005MPS 030V090 9999 -RA BKN009 OVC023 21/19 Q1013 NOSIG
ZJHK,2020-04-06 14:00,ZJHK 061400Z 03005MPS 7000 BKN009 OVC023 21/19 Q1014 NOSIG
ZJHK,2020-04-06 15:00,ZJHK 061500Z 04006MPS 5000 -RA BR BKN005 OVC023 21/19 Q1014 NOSIG
ZJHK,2020-04-06 17:00,ZJHK 061700Z 05007MPS 8000 BKN004 OVC023 21/20 Q1014 NOSIG
ZJHK,2020-04-06 18:00,ZJHK 061800Z 05005MPS 5000 -RA BR BKN004 OVC023 21/20 Q1013 NOSIG
ZJHK,2020-04-06 19:00,ZJHK 061900Z 04006MPS 5000 -RA BR BKN004 OVC023 21/20 Q1013 NOSIG
ZJHK,2020-04-06 20:00,ZJHK 062000Z 05005MPS 3500 -RA BR BKN004 OVC023 21/20 Q1012 NOSIG
ZJHK,2020-04-06 21:00,ZJHK 062100Z 05005MPS 7000 BKN004 OVC023 20/20 Q1012 NOSIG
ZJHK,2020-04-06 22:00,ZJHK 062200Z 05005MPS 3500 -RA BR BKN004 OVC023 20/20 Q1013 NOSIG
ZJHK,2020-04-06 23:00,ZJHK 062300Z 05005MPS 3000 -RA BR BKN004 OVC023 20/20 Q1013 NOSIG
ZJHK,2020-04-07 00:00,ZJHK 070000Z 05005MPS 5000 -RA BR BKN004 OVC023 20/19 Q1014 NOSIG
ZJHK,2020-04-07 01:00,ZJHK 070100Z 04005MPS 5000 -RA BR BKN005 OVC023 20/20 Q1015 NOSIG
ZJHK,2020-04-07 02:00,ZJHK 070200Z 06006MPS 6000 BKN007 OVC023 21/20 Q1015 NOSIG
ZJHK,2020-04-07 03:00,ZJHK 070300Z 05005MPS 020V080 9999 BKN007 OVC023 21/20 Q1016 NOSIG
ZJHK,2020-04-07 04:00,ZJHK 070400Z 03005MPS 9000 -RA BKN007 OVC023 21/20 Q1016 NOSIG
ZJHK,2020-04-07 05:00,ZJHK 070500Z 04004MPS 360V060 5000 RA BKN006 OVC023 20/19 Q1015 BECMG -RA
ZJHK,2020-04-07 06:00,ZJHK 070600Z 05005MPS 9000 BKN006 OVC023 20/19 Q1014 RERA NOSIG
ZJHK,2020-04-07 07:00,ZJHK 070700Z 05004MPS 9999 BKN007 OVC023 21/20 Q1013 NOSIG
ZJHK,2020-04-07 08:00,ZJHK 070800Z 04003MPS 5000 RA BKN006 OVC023 21/20 Q1012 NOSIG
ZJHK,2020-04-07 09:00,ZJHK 070900Z 04004MPS 360V060 3000 -RA BR BKN006 OVC023 20/19 Q1012 RERA NOSIG
ZJHK,2020-04-07 10:00,ZJHK 071000Z 05004MPS 2000 -RA BR BKN004 OVC023 20/19 Q1013 NOSIG
ZJHK,2020-04-07 11:00,ZJHK 071100Z 04004MPS 2800 -RA BR BKN004 OVC023 20/19 Q1013 NOSIG
ZJHK,2020-04-07 12:00,ZJHK 071200Z 04004MPS 3000 -RA BR BKN004 OVC023 20/19 Q1014 NOSIG
ZJHK,2020-04-07 13:00,ZJHK 071300Z 04004MPS 4000 -RA BR BKN004 OVC023 20/20 Q1014 NOSIG
ZJHK,2020-04-07 14:00,ZJHK 071400Z 03004MPS 4000 -RA BR BKN004 OVC023 21/20 Q1015 NOSIG
ZJHK,2020-04-07 15:00,ZJHK 071500Z 04005MPS 4000 -RA BR BKN004 OVC023 21/20 Q1015 NOSIG
ZJHK,2020-04-07 16:00,ZJHK 071600Z 05005MPS 4000 -RA BR BKN004 OVC023 21/20 Q1015 NOSIG
ZJHK,2020-04-07 17:00,ZJHK 071700Z 06005MPS 3000 -RA BR BKN004 OVC023 21/20 Q1014 NOSIG
ZJHK,2020-04-07 18:00,ZJHK 071800Z 04004MPS 6000 BKN006 OVC023 21/20 Q1014 NOSIG
ZJHK,2020-04-07 19:00,ZJHK 071900Z 06005MPS 5000 BR BKN006 OVC023 21/20 Q1013 NOSIG
ZJHK,2020-04-07 20:00,ZJHK 072000Z 06004MPS 5000 -RA BR BKN006 OVC023 21/20 Q1013 NOSIG
ZJHK,2020-04-07 21:00,ZJHK 072100Z 04004MPS 6000 BKN009 OVC023 21/20 Q1013 NOSIG
ZJHK,2020-04-07 22:00,ZJHK 072200Z 06004MPS 7000 BKN009 OVC023 21/20 Q1013 NOSIG
ZJHK,2020-04-07 23:00,ZJHK 072300Z 04004MPS 7000 BKN009 OVC026 21/20 Q1014 NOSIG
ZJHK,2020-04-08 00:00,ZJHK 080000Z 06005MPS 6000 BKN010 OVC026 22/20 Q1015 NOSIG
ZJHK,2020-04-08 01:00,ZJHK 080100Z 05004MPS 8000 BKN010 OVC026 22/21 Q1015 NOSIG
ZJHK,2020-04-08 02:00,ZJHK 080200Z 07005MPS 9999 BKN010 OVC026 23/21 Q1016 NOSIG
ZJHK,2020-04-08 03:00,ZJHK 080300Z 08005MPS 9999 BKN010 OVC026 24/21 Q1015 NOSIG
ZJHK,2020-04-08 04:00,ZJHK 080400Z 08006MPS 9999 BKN013 OVC033 24/21 Q1015 NOSIG
ZJHK,2020-04-08 05:00,ZJHK 080500Z 07006MPS 9999 BKN013 OVC033 24/21 Q1014 NOSIG
ZJHK,2020-04-08 06:00,ZJHK 080600Z 05004MPS 3000 -RA BR BKN010 OVC026 23/21 Q1014 BECMG TL0630 2000
ZJHK,2020-04-08 07:00,ZJHK 080700Z 02004MPS 2000 -RA BR FEW003 BKN004 OVC020 22/21 Q1014 BECMG TL0840 3000
ZJHK,2020-04-08 08:00,ZJHK 080800Z 04004MPS 3000 -RA BR BKN004 OVC020 22/21 Q1014 NOSIG
ZJHK,2020-04-08 09:00,ZJHK 080900Z 03004MPS 5000 BR BKN005 OVC026 22/21 Q1014 NOSIG
ZJHK,2020-04-08 10:00,ZJHK 081000Z 06004MPS 6000 BKN007 OVC026 22/21 Q1013 NOSIG
ZJHK,2020-04-08 11:00,ZJHK 081100Z 05003MPS 9999 BKN007 OVC026 23/21 Q1014 BECMG TL1150 BKN010 OVC023
ZJHK,2020-04-08 12:00,ZJHK 081200Z 04003MPS 9999 BKN010 OVC026 23/21 Q1014 NOSIG
ZJHK,2020-04-08 13:00,ZJHK 081300Z 05003MPS 9999 BKN010 OVC026 23/21 Q1015 NOSIG
ZJHK,2020-04-08 14:00,ZJHK 081400Z 06003MPS 8000 BKN010 OVC026 23/21 Q1016 NOSIG
ZJHK,2020-04-08 15:00,ZJHK 081500Z 03002MPS 010V070 5000 -RA BR BKN008 OVC026 22/21 Q1017 BECMG TL1600 2800 BKN004 OVC023
ZJHK,2020-04-08 16:00,ZJHK 081600Z 05003MPS 5000 -RA BR BKN006 OVC026 22/21 Q1016 NOSIG
ZJHK,2020-04-08 17:00,ZJHK 081700Z 06004MPS 9999 BKN008 OVC026 22/21 Q1016 NOSIG
ZJHK,2020-04-08 18:00,ZJHK 081800Z 06004MPS 9999 BKN008 OVC026 23/22 Q1015 NOSIG
ZJHK,2020-04-08 19:00,ZJHK 081900Z 05003MPS 8000 -RA BKN007 OVC026 22/21 Q1015 NOSIG
ZJHK,2020-04-08 20:00,ZJHK 082000Z 07004MPS 9999 -RA BKN007 OVC026 22/21 Q1015 NOSIG
ZJHK,2020-04-08 21:00,ZJHK 082100Z 07004MPS 9999 BKN009 OVC026 22/21 Q1015 NOSIG
ZJHK,2020-04-08 22:00,ZJHK 082200Z 06004MPS 7000 -RA BKN007 OVC026 22/21 Q1015 BECMG TL2350 BKN010 BKN026
ZJHK,2020-04-08 23:00,ZJHK 082300Z 08005MPS 7000 -RA BKN006 OVC026 22/21 Q1015 NOSIG
ZJHK,2020-04-09 00:00,ZJHK 090000Z 06004MPS 9999 BKN010 OVC026 23/21 Q1016 BECMG TL0150 BKN015 BKN026
ZJHK,2020-04-09 01:00,ZJHK 090100Z 07005MPS 9999 BKN010 OVC026 23/22 Q1017 NOSIG
ZJHK,2020-04-09 02:00,ZJHK 090200Z 08005MPS 9999 SCT013 OVC026 25/22 Q1017 NOSIG
ZJHK,2020-04-09 03:00,ZJHK 090300Z 06005MPS 9999 SCT013 OVC026 24/21 Q1017 NOSIG
ZJHK,2020-04-09 04:00,ZJHK 090400Z 07006MPS 9999 FEW020 OVC026 25/21 Q1017 NOSIG
ZJHK,2020-04-09 05:00,ZJHK 090500Z 06006MPS 9999 BKN020 OVC026 25/21 Q1016 NOSIG
ZJHK,2020-04-09 06:00,ZJHK 090600Z 07006MPS 9999 SCT020 OVC026 25/21 Q1015 NOSIG
ZJHK,2020-04-09 07:00,ZJHK 090700Z 07005MPS 9999 SCT020 OVC026 24/20 Q1015 NOSIG
ZJHK,2020-04-09 08:00,ZJHK 090800Z 08006MPS 9999 FEW020 OVC026 24/20 Q1014 NOSIG
ZJHK,2020-04-09 09:00,ZJHK 090900Z 09005MPS 9999 FEW016 OVC026 25/20 Q1014 NOSIG
ZJHK,2020-04-09 10:00,ZJHK 091000Z 10005MPS 9999 BKN026 24/20 Q1014 NOSIG
ZJHK,2020-04-09 11:00,ZJHK 091100Z 10004MPS 9999 SCT026 BKN040 24/20 Q1015 NOSIG
ZJHK,2020-04-09 12:00,ZJHK 091200Z 10004MPS CAVOK 23/20 Q1016 NOSIG
ZJHK,2020-04-09 13:00,ZJHK 091300Z 10002MPS CAVOK 22/20 Q1016 NOSIG
ZJHK,2020-04-09 14:00,ZJHK 091400Z 10004MPS CAVOK 22/20 Q1016 NOSIG
ZJHK,2020-04-09 15:00,ZJHK 091500Z VRB01MPS CAVOK 22/21 Q1017 NOSIG
ZJHK,2020-04-09 16:00,ZJHK 091600Z 00000MPS CAVOK 22/21 Q1017 NOSIG
ZJHK,2020-04-09 17:00,ZJHK 091700Z 00000MPS CAVOK 22/20 Q1016 NOSIG
ZJHK,2020-04-09 18:00,ZJHK 091800Z 00000MPS CAVOK 21/20 Q1016 NOSIG
ZJHK,2020-04-09 19:00,ZJHK 091900Z 00000MPS CAVOK 20/19 Q1015 NOSIG
ZJHK,2020-04-09 20:00,ZJHK 092000Z 12003MPS 8000 FEW016 21/20 Q1015 NOSIG
ZJHK,2020-04-09 21:00,ZJHK 092100Z 12003MPS 8000 NSC 22/21 Q1015 NOSIG
ZJHK,2020-04-09 22:00,ZJHK 092200Z 11002MPS 8000 NSC 21/21 Q1015 NOSIG
ZJHK,2020-04-09 23:00,ZJHK 092300Z 00000MPS 6000 NSC 21/21 Q1016 NOSIG
ZJHK,2020-04-10 00:00,ZJHK 100000Z 10002MPS 8000 NSC 23/22 Q1017 NOSIG
ZJHK,2020-04-10 01:00,ZJHK 100100Z 10004MPS 9999 SCT013 SCT023 BKN040 24/23 Q1018 NOSIG
ZJHK,2020-04-10 02:00,ZJHK 100200Z 09004MPS 9999 FEW013 BKN023 BKN040 25/22 Q1018 NOSIG
ZJHK,2020-04-10 03:00,ZJHK 100300Z 11005MPS 9999 BKN023 BKN040 27/23 Q1017 NOSIG
ZJHK,2020-04-10 04:00,ZJHK 100400Z 13002MPS 090V160 9999 BKN023 BKN040 25/22 Q1017 NOSIG
ZJHK,2020-04-10 05:00,ZJHK 100500Z 10005MPS 080V150 9999 BKN023 BKN040 27/22 Q1016 NOSIG
ZJHK,2020-04-10 06:00,ZJHK 100600Z 10004MPS 9999 BKN023 BKN040 27/22 Q1015 NOSIG
ZJHK,2020-04-10 07:00,ZJHK 100700Z 12005MPS 070V150 9999 SCT040 28/22 Q1014 NOSIG
ZJHK,2020-04-10 08:00,ZJHK 100800Z 12005MPS 090V150 9999 BKN026 28/22 Q1014 NOSIG
ZJHK,2020-04-10 09:00,ZJHK 100900Z 13006MPS 100V160 9999 SCT026 27/22 Q1013 NOSIG
ZJHK,2020-04-10 10:00,ZJHK 101000Z 13004MPS 100V160 9999 SCT033 26/21 Q1013 NOSIG
ZJHK,2020-04-10 11:00,ZJHK 101100Z 12004MPS 9999 SCT010 BKN023 25/21 Q1014 NOSIG
ZJHK,2020-04-10 12:00,ZJHK 101200Z 12002MPS 9999 FEW010 BKN023 24/21 Q1015 NOSIG
ZJHK,2020-04-10 13:00,ZJHK 101300Z 11002MPS 9999 FEW010 BKN023 24/21 Q1016 NOSIG
ZJHK,2020-04-10 14:00,ZJHK 101400Z 10002MPS 9999 FEW010 BKN023 23/21 Q1016 NOSIG
ZJHK,2020-04-10 15:00,ZJHK 101500Z 11002MPS CAVOK 23/21 Q1016 NOSIG
ZJHK,2020-04-10 16:00,ZJHK 101600Z VRB01MPS 7000 NSC 23/21 Q1016 NOSIG
ZJHK,2020-04-10 17:00,ZJHK 101700Z 10001MPS 5000 BR NSC 22/21 Q1015 NOSIG
ZJHK,2020-04-10 18:00,ZJHK 101800Z 12001MPS 5000 BR NSC 22/21 Q1014 NOSIG
ZJHK,2020-04-10 19:00,ZJHK 101900Z VRB01MPS 5000 BR NSC 22/21 Q1014 NOSIG
ZJHK,2020-04-10 20:00,ZJHK 102000Z 10002MPS 4000 BR NSC 22/21 Q1014 NOSIG
ZJHK,2020-04-10 21:00,ZJHK 102100Z 13002MPS 4000 BR NSC 22/21 Q1014 NOSIG
ZJHK,2020-04-10 22:00,ZJHK 102200Z 12002MPS 4000 BR NSC 22/21 Q1014 NOSIG
ZJHK,2020-04-10 23:00,ZJHK 102300Z VRB01MPS 3000 BR NSC 22/21 Q1015 NOSIG
ZJHK,2020-04-11 00:00,ZJHK 110000Z 15003MPS 5000 BR NSC 24/23 Q1015 NOSIG
ZJHK,2020-04-11 01:00,ZJHK 110100Z 14003MPS 080V170 9999 FEW012 26/24 Q1015 NOSIG
ZJHK,2020-04-11 02:00,ZJHK 110200Z 14004MPS 100V190 9999 SCT020 28/23 Q1015 NOSIG
ZJHK,2020-04-11 03:00,ZJHK 110300Z 17002MPS 120V240 9999 BKN026 29/22 Q1015 NOSIG
ZJHK,2020-04-11 04:00,ZJHK 110400Z 26002MPS 180V310 9999 BKN030 SCT040 30/23 Q1014 NOSIG
ZJHK,2020-04-11 05:00,ZJHK 110500Z 24002MPS 180V300 9999 BKN026 SCT040 31/23 Q1013 NOSIG
ZJHK,2020-04-11 06:00,ZJHK 110600Z 00000MPS 9999 BKN026 31/22 Q1013 NOSIG
ZJHK,2020-04-11 07:00,ZJHK 110700Z 04003MPS 340V070 9999 BKN026 31/23 Q1012 NOSIG
ZJHK,2020-04-11 08:00,ZJHK 110800Z 36004MPS 340V060 9999 BKN026 29/23 Q1011 NOSIG
ZJHK,2020-04-11 09:00,ZJHK 110900Z 02003MPS 360V060 9999 SCT040 29/23 Q1011 NOSIG
ZJHK,2020-04-11 10:00,ZJHK 111000Z 36003MPS 290V070 CAVOK 29/23 Q1011 NOSIG
ZJHK,2020-04-11 11:00,ZJHK 111100Z 07002MPS 9999 BKN033 27/24 Q1012 NOSIG
ZJHK,2020-04-11 12:00,ZJHK 111200Z 00000MPS 9999 SCT030 27/23 Q1013 NOSIG
ZJHK,2020-04-11 13:00,ZJHK 111300Z VRB01MPS 9999 SCT026 26/23 Q1013 NOSIG
ZJHK,2020-04-11 14:00,ZJHK 111400Z 15001MPS 9999 FEW030 25/23 Q1014 NOSIG
ZJHK,2020-04-11 15:00,ZJHK 111500Z 16001MPS CAVOK 24/23 Q1014 NOSIG
ZJHK,2020-04-11 16:00,ZJHK 111600Z 36001MPS 9999 FEW026 24/23 Q1015 NOSIG
ZJHK,2020-04-11 17:00,ZJHK 111700Z 01003MPS 8000 FEW033 24/23 Q1014 NOSIG
ZJHK,2020-04-11 18:00,ZJHK 111800Z 03001MPS 5000 BR SCT003 24/23 Q1014 NOSIG
ZJHK,2020-04-11 19:00,ZJHK 111900Z 02002MPS 350V050 4000 BR SCT003 BKN033 24/23 Q1013 NOSIG
ZJHK,2020-04-11 20:00,ZJHK 112000Z 01004MPS 3000 BR SCT002 BKN033 24/23 Q1013 NOSIG
ZJHK,2020-04-11 21:00,ZJHK 112100Z 02007MPS 9999 -SHRA SCT007 FEW033CB BKN033 22/21 Q1014 NOSIG
ZJHK,2020-04-11 22:00,ZJHK 112200Z 02006MPS 9999 BKN010 OVC033 22/20 Q1015 NOSIG
ZJHK,2020-04-11 23:00,ZJHK 112300Z 04007MPS 9999 BKN010 OVC033 22/19 Q1016 NOSIG
ZJHK,2020-04-12 00:00,ZJHK 120000Z 05008MPS 9999 SCT013 OVC026 21/18 Q1017 NOSIG
ZJHK,2020-04-12 01:00,ZJHK 120100Z 05009MPS 9999 SCT020 OVC030 21/18 Q1018 NOSIG
ZJHK,2020-04-12 02:00,ZJHK 120200Z 04008MPS 9999 SCT020 OVC030 22/17 Q1018 NOSIG
ZJHK,2020-04-12 03:00,ZJHK 120300Z 05009MPS 9999 SCT020 OVC030 22/16 Q1019 NOSIG
ZJHK,2020-04-12 04:00,ZJHK 120400Z 04009MPS 9999 SCT020 OVC030 23/16 Q1018 NOSIG
ZJHK,2020-04-12 05:00,ZJHK 120500Z 05008MPS 020V080 9999 SCT026 24/15 Q1018 NOSIG
ZJHK,2020-04-12 06:00,ZJHK 120600Z 04008MPS 010V070 9999 FEW026 23/14 Q1018 NOSIG
ZJHK,2020-04-12 07:00,ZJHK 120700Z 04007MPS 360V070 9999 FEW026 23/14 Q1017 NOSIG
ZJHK,2020-04-12 08:00,ZJHK 120800Z 03006MPS 010V070 CAVOK 23/13 Q1017 NOSIG
ZJHK,2020-04-12 09:00,ZJHK 120900Z 04006MPS CAVOK 22/13 Q1017 NOSIG
ZJHK,2020-04-12 10:00,ZJHK 121000Z 05005MPS CAVOK 21/13 Q1017 NOSIG
ZJHK,2020-04-12 11:00,ZJHK 121100Z 07005MPS CAVOK 21/13 Q1017 NOSIG
ZJHK,2020-04-12 12:00,ZJHK 121200Z 07004MPS CAVOK 20/13 Q1017 NOSIG
ZJHK,2020-04-12 13:00,ZJHK 121300Z 05003MPS CAVOK 21/13 Q1019 NOSIG
ZJHK,2020-04-12 14:00,ZJHK 121400Z 04002MPS 340V080 CAVOK 21/13 Q1019 NOSIG
ZJHK,2020-04-12 15:00,ZJHK 121500Z 05002MPS 010V080 CAVOK 21/13 Q1019 NOSIG
ZJHK,2020-04-12 16:00,ZJHK 121600Z 06003MPS CAVOK 21/13 Q1019 NOSIG
ZJHK,2020-04-12 17:00,ZJHK 121700Z 05002MPS CAVOK 20/13 Q1018 NOSIG
ZJHK,2020-04-12 18:00,ZJHK 121800Z 05003MPS CAVOK 20/13 Q1017 NOSIG
ZJHK,2020-04-12 19:00,ZJHK 121900Z 05004MPS CAVOK 20/12 Q1016 NOSIG
ZJHK,2020-04-12 20:00,ZJHK 122000Z 05003MPS CAVOK 20/12 Q1017 NOSIG
ZJHK,2020-04-12 21:00,ZJHK 122100Z 05003MPS CAVOK 20/11 Q1017 NOSIG
ZJHK,2020-04-12 22:00,ZJHK 122200Z 05004MPS 020V080 CAVOK 20/11 Q1017 NOSIG
ZJHK,2020-04-12 23:00,ZJHK 122300Z 06004MPS CAVOK 21/11 Q1018 NOSIG
ZJHK,2020-04-13 00:00,ZJHK 130000Z 05006MPS CAVOK 22/12 Q1019 NOSIG
ZJHK,2020-04-13 01:00,ZJHK 130100Z 06007MPS CAVOK 23/11 Q1019 NOSIG
ZJHK,2020-04-13 02:00,ZJHK 130200Z 05007MPS CAVOK 23/13 Q1020 NOSIG
ZJHK,2020-04-13 03:00,ZJHK 130300Z 07007MPS 040V100 CAVOK 24/12 Q1020 NOSIG
ZJHK,2020-04-13 04:00,ZJHK 130400Z 07007MPS 9999 SCT026 25/13 Q1019 NOSIG
ZJHK,2020-04-13 05:00,ZJHK 130500Z 06007MPS 020V100 9999 SCT030 24/14 Q1019 NOSIG
ZJHK,2020-04-13 06:00,ZJHK 130600Z 07007MPS 050V110 9999 FEW030 24/14 Q1018 NOSIG
ZJHK,2020-04-13 07:00,ZJHK 130700Z 07007MPS 9999 FEW030 24/14 Q1018 NOSIG
ZJHK,2020-04-13 08:00,ZJHK 130800Z 06007MPS 9999 FEW030 23/14 Q1017 NOSIG
ZJHK,2020-04-13 09:00,ZJHK 130900Z 07007MPS 040V100 CAVOK 22/14 Q1017 NOSIG
ZJHK,2020-04-13 10:00,ZJHK 131000Z 06007MPS CAVOK 21/14 Q1017 NOSIG
ZJHK,2020-04-13 11:00,ZJHK 131100Z 07006MPS CAVOK 21/14 Q1018 NOSIG
ZJHK,2020-04-13 12:00,ZJHK 131200Z 07005MPS CAVOK 21/15 Q1018 NOSIG
ZJHK,2020-04-13 13:00,ZJHK 131300Z 07004MPS CAVOK 20/14 Q1019 NOSIG
ZJHK,2020-04-13 14:00,ZJHK 131400Z 07003MPS CAVOK 20/14 Q1019 NOSIG
ZJHK,2020-04-13 15:00,ZJHK 131500Z 06003MPS CAVOK 20/15 Q1019 NOSIG
ZJHK,2020-04-13 16:00,ZJHK 131600Z 03002MPS 010V070 CAVOK 20/15 Q1019 NOSIG
ZJHK,2020-04-13 17:00,ZJHK 131700Z 10002MPS CAVOK 20/15 Q1018 NOSIG
ZJHK,2020-04-13 18:00,ZJHK 131800Z 12001MPS CAVOK 18/15 Q1017 NOSIG
ZJHK,2020-04-13 19:00,ZJHK 131900Z 13002MPS CAVOK 18/15 Q1016 NOSIG
ZJHK,2020-04-13 20:00,ZJHK 132000Z 00000MPS CAVOK 17/15 Q1016 NOSIG
ZJHK,2020-04-13 21:00,ZJHK 132100Z 00000MPS CAVOK 16/14 Q1016 NOSIG
ZJHK,2020-04-13 22:00,ZJHK 132200Z 00000MPS CAVOK 16/14 Q1017 NOSIG
ZJHK,2020-04-13 23:00,ZJHK 132300Z 00000MPS CAVOK 16/15 Q1017 NOSIG
ZJHK,2020-04-14 00:00,ZJHK 140000Z 10002MPS 9999 BKN046 20/17 Q1018 NOSIG
ZJHK,2020-04-14 01:00,ZJHK 140100Z VRB01MPS 9999 FEW016 20/16 Q1018 NOSIG
ZJHK,2020-04-14 02:00,ZJHK 140200Z 07003MPS 040V100 CAVOK 22/15 Q1018 NOSIG
ZJHK,2020-04-14 03:00,ZJHK 140300Z 07003MPS 040V110 CAVOK 24/14 Q1018 NOSIG
ZJHK,2020-04-14 04:00,ZJHK 140400Z 08004MPS 050V110 9999 SCT046 24/14 Q1017 NOSIG
ZJHK,2020-04-14 05:00,ZJHK 140500Z 10002MPS 070V130 9999 SCT046 24/14 Q1016 NOSIG
ZJHK,2020-04-14 06:00,ZJHK 140600Z 07004MPS 030V100 9999 SCT046 24/15 Q1015 NOSIG
ZJHK,2020-04-14 07:00,ZJHK 140700Z 05004MPS 010V080 9999 BKN046 24/15 Q1014 NOSIG
ZJHK,2020-04-14 08:00,ZJHK 140800Z 04005MPS 9999 BKN043 23/15 Q1015 NOSIG
ZJHK,2020-04-14 09:00,ZJHK 140900Z 05004MPS 9999 BKN036 23/15 Q1015 NOSIG
ZJHK,2020-04-14 10:00,ZJHK 141000Z 07005MPS 9999 SCT033 23/15 Q1015 NOSIG
ZJHK,2020-04-14 11:00,ZJHK 141100Z 08004MPS 9999 SCT036 22/15 Q1015 NOSIG
ZJHK,2020-04-14 12:00,ZJHK 141200Z 06004MPS 9999 SCT036 22/15 Q1016 NOSIG
ZJHK,2020-04-14 13:00,ZJHK 141300Z 10002MPS 9999 SCT036 22/16 Q1016 NOSIG
ZJHK,2020-04-14 14:00,ZJHK 141400Z 00000MPS 9999 SCT036 21/17 Q1017 NOSIG
ZJHK,2020-04-14 15:00,ZJHK 141500Z VRB01MPS 9999 SCT036 21/17 Q1017 NOSIG
ZJHK,2020-04-14 16:00,ZJHK 141600Z 07002MPS 9999 SCT036 22/17 Q1016 NOSIG
ZJHK,2020-04-14 17:00,ZJHK 141700Z 00000MPS 9999 SCT036 21/17 Q1016 NOSIG
ZJHK,2020-04-14 18:00,ZJHK 141800Z 00000MPS 9999 SCT036 20/18 Q1015 NOSIG
ZJHK,2020-04-14 19:00,ZJHK 141900Z 05002MPS 9999 BKN033 21/18 Q1015 NOSIG
ZJHK,2020-04-14 20:00,ZJHK 142000Z 00000MPS 9999 SCT033 OVC046 21/18 Q1015 NOSIG
ZJHK,2020-04-14 21:00,ZJHK 142100Z 05002MPS 9999 SCT033 OVC046 22/18 Q1015 NOSIG
ZJHK,2020-04-14 22:00,ZJHK 142200Z 05001MPS 9999 SCT033 OVC046 22/19 Q1015 NOSIG
ZJHK,2020-04-14 23:00,ZJHK 142300Z 00000MPS 9999 OVC046 21/19 Q1016 NOSIG
ZJHK,2020-04-15 00:00,ZJHK 150000Z 00000MPS 9999 OVC046 22/19 Q1017 NOSIG
ZJHK,2020-04-15 01:00,ZJHK 150100Z 12002MPS 080V150 9999 BKN043 23/19 Q1017 NOSIG
ZJHK,2020-04-15 02:00,ZJHK 150200Z 10003MPS 9999 BKN046 25/19 Q1017 NOSIG
ZJHK,2020-04-15 03:00,ZJHK 150300Z VRB01MPS 9999 FEW030 BKN046 26/18 Q1016 NOSIG
ZJHK,2020-04-15 04:00,ZJHK 150400Z VRB02MPS 9999 BKN033 27/19 Q1016 NOSIG
ZJHK,2020-04-15 05:00,ZJHK 150500Z 05004MPS 010V100 9999 BKN026 28/19 Q1014 NOSIG
ZJHK,2020-04-15 06:00,ZJHK 150600Z 03004MPS 360V070 9999 FEW026 BKN040 28/20 Q1014 NOSIG
ZJHK,2020-04-15 07:00,ZJHK 150700Z 08005MPS 050V110 9999 FEW015 28/19 Q1013 NOSIG
ZJHK,2020-04-15 08:00,ZJHK 150800Z 08005MPS 9999 FEW015 SCT040 28/19 Q1012 NOSIG
ZJHK,2020-04-15 09:00,ZJHK 150900Z 12005MPS 9999 BKN040 27/19 Q1012 NOSIG
ZJHK,2020-04-15 10:00,ZJHK 151000Z 12004MPS 100V160 9999 SCT040 26/19 Q1012 NOSIG
ZJHK,2020-04-15 11:00,ZJHK 151100Z 13003MPS 100V160 9999 SCT040 25/18 Q1013 NOSIG
ZJHK,2020-04-15 12:00,ZJHK 151200Z 13003MPS 100V160 CAVOK 23/19 Q1013 NOSIG
ZJHK,2020-04-15 13:00,ZJHK 151300Z 13002MPS CAVOK 22/19 Q1014 NOSIG
ZJHK,2020-04-15 14:00,ZJHK 151400Z 11002MPS CAVOK 21/18 Q1014 NOSIG
ZJHK,2020-04-15 15:00,ZJHK 151500Z 00000MPS CAVOK 20/18 Q1014 NOSIG
ZJHK,2020-04-15 16:00,ZJHK 151600Z 00000MPS CAVOK 19/18 Q1014 NOSIG
ZJHK,2020-04-15 17:00,ZJHK 151700Z 00000MPS CAVOK 19/18 Q1013 NOSIG
ZJHK,2020-04-15 18:00,ZJHK 151800Z 13002MPS 8000 NSC 19/18 Q1012 NOSIG
ZJHK,2020-04-15 19:00,ZJHK 151900Z 12002MPS 8000 NSC 18/17 Q1012 NOSIG
ZJHK,2020-04-15 20:00,ZJHK 152000Z 00000MPS 8000 NSC 18/17 Q1012 NOSIG
ZJHK,2020-04-15 21:00,ZJHK 152100Z 00000MPS 6000 BCFG NSC 18/17 Q1012 NOSIG
ZJHK,2020-04-15 22:00,ZJHK 152200Z 00000MPS 6000 BCFG NSC 18/17 Q1013 NOSIG
ZJHK,2020-04-15 23:00,ZJHK 152300Z 00000MPS 6000 BCFG NSC 19/18 Q1014 NOSIG
ZJHK,2020-04-16 00:00,ZJHK 160000Z 14003MPS 7000 NSC 21/21 Q1014 NOSIG
ZJHK,2020-04-16 01:00,ZJHK 160100Z 13004MPS CAVOK 24/21 Q1015 NOSIG
ZJHK,2020-04-16 02:00,ZJHK 160200Z 12004MPS 090V150 9999 SCT023 27/21 Q1015 NOSIG
ZJHK,2020-04-16 03:00,ZJHK 160300Z 14003MPS 080V200 9999 BKN023 28/20 Q1015 NOSIG
ZJHK,2020-04-16 04:00,ZJHK 160400Z 14003MPS 100V200 9999 BKN023 29/21 Q1014 NOSIG
ZJHK,2020-04-16 05:00,ZJHK 160500Z 12004MPS 090V170 9999 BKN033 29/20 Q1013 NOSIG
ZJHK,2020-04-16 06:00,ZJHK 160600Z 15004MPS 120V180 9999 BKN040 30/20 Q1012 NOSIG
ZJHK,2020-04-16 07:00,ZJHK 160700Z 12005MPS 090V160 9999 SCT040 30/19 Q1011 NOSIG
ZJHK,2020-04-16 08:00,ZJHK 160800Z 13005MPS 110V170 9999 SCT040 30/20 Q1011 NOSIG
ZJHK,2020-04-16 09:00,ZJHK 160900Z 12006MPS 090V150 9999 FEW033 29/19 Q1010 NOSIG
ZJHK,2020-04-16 10:00,ZJHK 161000Z 12006MPS CAVOK 27/19 Q1010 NOSIG
ZJHK,2020-04-16 11:00,ZJHK 161100Z 13004MPS CAVOK 25/20 Q1011 NOSIG
ZJHK,2020-04-16 12:00,ZJHK 161200Z 13003MPS 100V160 CAVOK 24/20 Q1012 NOSIG
ZJHK,2020-04-16 13:00,ZJHK 161300Z 13003MPS 100V160 CAVOK 24/20 Q1012 NOSIG
ZJHK,2020-04-16 14:00,ZJHK 161400Z 12002MPS CAVOK 23/20 Q1013 NOSIG
ZJHK,2020-04-16 15:00,ZJHK 161500Z 13002MPS 100V160 CAVOK 22/20 Q1013 NOSIG
ZJHK,2020-04-16 16:00,ZJHK 161600Z 00000MPS CAVOK 22/20 Q1013 NOSIG
ZJHK,2020-04-16 17:00,ZJHK 161700Z 00000MPS CAVOK 21/20 Q1012 NOSIG
ZJHK,2020-04-16 18:00,ZJHK 161800Z VRB01MPS 9999 FEW020 21/20 Q1012 NOSIG
ZJHK,2020-04-16 19:00,ZJHK 161900Z 00000MPS 9999 FEW020 21/20 Q1012 NOSIG
ZJHK,2020-04-16 20:00,ZJHK 162000Z 10002MPS 9999 FEW013 21/20 Q1012 NOSIG
ZJHK,2020-04-16 21:00,ZJHK 162100Z 13002MPS 9999 SCT013 22/21 Q1012 NOSIG
ZJHK,2020-04-16 22:00,ZJHK 162200Z 12002MPS CAVOK 22/21 Q1012 NOSIG
ZJHK,2020-04-16 23:00,ZJHK 162300Z 10002MPS CAVOK 22/21 Q1013 NOSIG
ZJHK,2020-04-17 00:00,ZJHK 170000Z 12003MPS 090V160 CAVOK 24/23 Q1014 NOSIG
ZJHK,2020-04-17 01:00,ZJHK 170100Z 14004MPS 100V210 9999 FEW015 26/23 Q1014 NOSIG
ZJHK,2020-04-17 02:00,ZJHK 170200Z 14005MPS 9999 SCT020 27/22 Q1015 NOSIG
ZJHK,2020-04-17 03:00,ZJHK 170300Z 15005MPS 100V180 9999 BKN026 29/22 Q1014 NOSIG
ZJHK,2020-04-17 04:00,ZJHK 170400Z 14005MPS 100V190 9999 BKN030 SCT033 30/21 Q1014 NOSIG
ZJHK,2020-04-17 05:00,ZJHK 170500Z 14004MPS 110V190 9999 BKN033 31/22 Q1013 NOSIG
ZJHK,2020-04-17 06:00,ZJHK 170600Z 15004MPS 120V200 9999 BKN036 30/21 Q1012 NOSIG
ZJHK,2020-04-17 07:00,ZJHK 170700Z 16004MPS 110V230 9999 SCT033 31/21 Q1011 NOSIG
ZJHK,2020-04-17 08:00,ZJHK 170800Z 13005MPS 9999 SCT033 30/21 Q1010 NOSIG
ZJHK,2020-04-17 09:00,ZJHK 170900Z 15004MPS 120V190 9999 FEW033 29/21 Q1010 NOSIG
ZJHK,2020-04-17 10:00,ZJHK 171000Z 15005MPS 120V180 9999 FEW033 28/21 Q1010 NOSIG
ZJHK,2020-04-17 11:00,ZJHK 171100Z 14003MPS 100V170 CAVOK 26/21 Q1011 NOSIG
ZJHK,2020-04-17 12:00,ZJHK 171200Z 13003MPS CAVOK 25/22 Q1011 NOSIG
ZJHK,2020-04-17 13:00,ZJHK 171300Z 11002MPS CAVOK 24/22 Q1012 NOSIG
ZJHK,2020-04-17 14:00,ZJHK 171400Z 12002MPS CAVOK 24/22 Q1013 NOSIG
ZJHK,2020-04-17 15:00,ZJHK 171500Z 11002MPS CAVOK 24/22 Q1014 NOSIG
ZJHK,2020-04-17 16:00,ZJHK 171600Z 12002MPS CAVOK 24/22 Q1013 NOSIG
ZJHK,2020-04-17 17:00,ZJHK 171700Z 13002MPS CAVOK 24/23 Q1013 NOSIG
ZJHK,2020-04-17 18:00,ZJHK 171800Z 13002MPS CAVOK 24/23 Q1012 NOSIG
ZJHK,2020-04-17 19:00,ZJHK 171900Z 00000MPS CAVOK 23/22 Q1012 NOSIG
ZJHK,2020-04-17 20:00,ZJHK 172000Z 00000MPS 9999 FEW010 24/23 Q1012 NOSIG
ZJHK,2020-04-17 21:00,ZJHK 172100Z 00000MPS 7000 FEW010 BKN033 24/23 Q1012 NOSIG
ZJHK,2020-04-17 22:00,ZJHK 172200Z 12001MPS 8000 FEW010 BKN033 24/23 Q1013 NOSIG
ZJHK,2020-04-17 23:00,ZJHK 172300Z 14002MPS 8000 SCT016 BKN033 24/23 Q1013 NOSIG
ZJHK,2020-04-18 00:00,ZJHK 180000Z 15002MPS 120V180 9000 SCT013 OVC033 25/24 Q1014 NOSIG
ZJHK,2020-04-18 01:00,ZJHK 180100Z 16004MPS 9999 FEW010 SCT036 26/24 Q1014 NOSIG
ZJHK,2020-04-18 02:00,ZJHK 180200Z 17003MPS 120V220 9999 FEW010 27/24 Q1014 NOSIG
ZJHK,2020-04-18 03:00,ZJHK 180300Z 17003MPS 130V210 9999 SCT016 28/24 Q1014 NOSIG
ZJHK,2020-04-18 04:00,ZJHK 180400Z 18004MPS 150V210 9999 SCT023 29/23 Q1013 NOSIG
ZJHK,2020-04-18 05:00,ZJHK 180500Z 16003MPS 9999 SCT023 29/23 Q1012 NOSIG
ZJHK,2020-04-18 06:00,ZJHK 180600Z 17003MPS 9999 FEW023 BKN046 29/23 Q1011 NOSIG
ZJHK,2020-04-18 07:00,ZJHK 180700Z 12004MPS 090V180 9999 SCT023 30/23 Q1010 NOSIG
ZJHK,2020-04-18 08:00,ZJHK 180800Z 18002MPS 100V250 9999 FEW023 31/23 Q1010 NOSIG
ZJHK,2020-04-18 09:00,ZJHK 180900Z 15004MPS 110V190 9999 FEW026 31/24 Q1009 NOSIG
ZJHK,2020-04-18 10:00,ZJHK 181000Z 15005MPS 120V180 9999 FEW026 29/24 Q1009 NOSIG
ZJHK,2020-04-18 11:00,ZJHK 181100Z 14004MPS 9999 FEW020 27/23 Q1010 NOSIG
ZJHK,2020-04-18 12:00,ZJHK 181200Z 15003MPS 110V180 9999 SCT014 26/23 Q1011 NOSIG
ZJHK,2020-04-18 13:00,ZJHK 181300Z 15003MPS 120V190 CAVOK 26/23 Q1011 NOSIG
ZJHK,2020-04-18 14:00,ZJHK 181400Z 15004MPS 9999 FEW015 26/23 Q1012 NOSIG
ZJHK,2020-04-18 15:00,ZJHK 181500Z 16004MPS 130V190 CAVOK 26/23 Q1011 NOSIG
ZJHK,2020-04-18 16:00,ZJHK 181600Z 16003MPS 130V190 CAVOK 26/23 Q1011 NOSIG
ZJHK,2020-04-18 17:00,ZJHK 181700Z 17003MPS 140V200 CAVOK 25/23 Q1010 NOSIG
ZJHK,2020-04-18 18:00,ZJHK 181800Z 17004MPS CAVOK 25/23 Q1010 NOSIG
ZJHK,2020-04-18 19:00,ZJHK 181900Z 16003MPS 130V190 CAVOK 25/23 Q1009 NOSIG
ZJHK,2020-04-18 20:00,ZJHK 182000Z 16002MPS CAVOK 25/23 Q1009 NOSIG
ZJHK,2020-04-18 21:00,ZJHK 182100Z 15002MPS CAVOK 24/22 Q1009 NOSIG
ZJHK,2020-04-18 22:00,ZJHK 182200Z 15003MPS 110V180 CAVOK 24/22 Q1010 NOSIG
ZJHK,2020-04-18 23:00,ZJHK 182300Z 16003MPS 120V210 CAVOK 25/22 Q1010 NOSIG
ZJHK,2020-04-19 00:00,ZJHK 190000Z 16003MPS 140V200 CAVOK 26/23 Q1012 NOSIG
ZJHK,2020-04-19 01:00,ZJHK 190100Z 18004MPS 150V210 CAVOK 28/22 Q1012 NOSIG
ZJHK,2020-04-19 02:00,ZJHK 190200Z 19004MPS 150V220 CAVOK 30/22 Q1012 NOSIG
ZJHK,2020-04-19 03:00,ZJHK 190300Z 18004MPS 130V220 CAVOK 32/22 Q1012 NOSIG
ZJHK,2020-04-19 04:00,ZJHK 190400Z 15003MPS 100V230 CAVOK 33/22 Q1011 NOSIG
ZJHK,2020-04-19 05:00,ZJHK 190500Z 21003MPS 160V250 CAVOK 34/22 Q1010 NOSIG
ZJHK,2020-04-19 06:00,ZJHK 190600Z VRB02MPS CAVOK 35/21 Q1009 NOSIG
ZJHK,2020-04-19 07:00,ZJHK 190700Z 12002MPS 070V220 9999 FEW040 36/21 Q1008 NOSIG
ZJHK,2020-04-19 08:00,ZJHK 190800Z 11005MPS 090V150 9999 FEW040 34/25 Q1007 NOSIG
ZJHK,2020-04-19 09:00,ZJHK 190900Z 10006MPS 9999 FEW033 32/24 Q1008 NOSIG
ZJHK,2020-04-19 10:00,ZJHK 191000Z 14004MPS CAVOK 30/23 Q1008 NOSIG
ZJHK,2020-04-19 11:00,ZJHK 191100Z 14004MPS 9999 FEW040 28/24 Q1009 NOSIG
ZJHK,2020-04-19 12:00,ZJHK 191200Z 14004MPS 110V170 9999 FEW040 27/24 Q1010 NOSIG
ZJHK,2020-04-19 13:00,ZJHK 191300Z 15003MPS 130V190 CAVOK 26/24 Q1011 NOSIG
ZJHK,2020-04-19 14:00,ZJHK 191400Z 14002MPS 110V200 CAVOK 26/23 Q1012 NOSIG
ZJHK,2020-04-19 15:00,ZJHK 191500Z 14003MPS 120V180 CAVOK 26/24 Q1012 NOSIG
ZJHK,2020-04-19 16:00,ZJHK 191600Z 13002MPS 100V160 CAVOK 25/23 Q1011 NOSIG
ZJHK,2020-04-19 17:00,ZJHK 191700Z 15003MPS 120V200 CAVOK 25/24 Q1010 NOSIG
ZJHK,2020-04-19 18:00,ZJHK 191800Z 16004MPS 120V190 9999 SCT010 25/24 Q1010 NOSIG
ZJHK,2020-04-19 19:00,ZJHK 191900Z 15003MPS 120V180 CAVOK 25/23 Q1010 NOSIG
ZJHK,2020-04-19 20:00,ZJHK 192000Z 16003MPS 130V210 9999 SCT014 25/23 Q1009 NOSIG
ZJHK,2020-04-19 21:00,ZJHK 192100Z 17003MPS 150V210 9999 SCT014 25/23 Q1010 NOSIG
ZJHK,2020-04-19 22:00,ZJHK 192200Z 13002MPS 100V160 9999 FEW016 25/23 Q1011 NOSIG
ZJHK,2020-04-19 23:00,ZJHK 192300Z 16003MPS 130V210 CAVOK 25/23 Q1011 NOSIG
ZJHK,2020-04-20 00:00,ZJHK 200000Z 17005MPS 140V210 9999 FEW015 27/24 Q1012 NOSIG
ZJHK,2020-04-20 01:00,ZJHK 200100Z 17005MPS 140V210 9999 FEW015 29/23 Q1013 NOSIG
ZJHK,2020-04-20 02:00,ZJHK 200200Z 21004MPS 160V260 9999 FEW015 30/23 Q1013 NOSIG
ZJHK,2020-04-20 03:00,ZJHK 200300Z 22004MPS 180V260 9999 FEW015 31/22 Q1012 NOSIG
ZJHK,2020-04-20 04:00,ZJHK 200400Z 19004MPS 130V230 9999 FEW015 32/22 Q1012 NOSIG
ZJHK,2020-04-20 05:00,ZJHK 200500Z VRB02MPS CAVOK 34/23 Q1011 NOSIG
ZJHK,2020-04-20 06:00,ZJHK 200600Z VRB02MPS CAVOK 34/22 Q1009 NOSIG
ZJHK,2020-04-20 07:00,ZJHK 200700Z 02004MPS CAVOK 33/24 Q1009 NOSIG
ZJHK,2020-04-20 08:00,ZJHK 200800Z 36004MPS 320V030 CAVOK 33/24 Q1008 NOSIG
ZJHK,2020-04-20 09:00,ZJHK 200900Z 08003MPS 040V120 CAVOK 32/24 Q1008 NOSIG
ZJHK,2020-04-20 10:00,ZJHK 201000Z 13004MPS 100V160 9999 SCT023 31/24 Q1008 NOSIG
ZJHK,2020-04-20 11:00,ZJHK 201100Z 14004MPS 110V180 9999 FEW023 29/23 Q1009 NOSIG
ZJHK,2020-04-20 12:00,ZJHK 201200Z 17004MPS 140V200 CAVOK 28/23 Q1010 NOSIG
ZJHK,2020-04-20 13:00,ZJHK 201300Z 15003MPS 110V180 CAVOK 27/23 Q1011 NOSIG
ZJHK,2020-04-20 14:00,ZJHK 201400Z 15002MPS 110V180 CAVOK 26/23 Q1011 NOSIG
ZJHK,2020-04-20 15:00,ZJHK 201500Z 17003MPS 130V210 CAVOK 27/23 Q1012 NOSIG
ZJHK,2020-04-20 16:00,ZJHK 201600Z 16004MPS CAVOK 26/23 Q1011 NOSIG
ZJHK,2020-04-20 17:00,ZJHK 201700Z 17004MPS 140V210 CAVOK 26/23 Q1010 NOSIG
ZJHK,2020-04-20 18:00,ZJHK 201800Z 17004MPS 140V200 CAVOK 26/23 Q1010 NOSIG
ZJHK,2020-04-20 19:00,ZJHK 201900Z 17004MPS 140V200 CAVOK 26/23 Q1009 NOSIG
ZJHK,2020-04-20 20:00,ZJHK 202000Z 17004MPS 130V190 CAVOK 26/23 Q1008 NOSIG
ZJHK,2020-04-20 21:00,ZJHK 202100Z 17002MPS 150V210 CAVOK 26/23 Q1009 NOSIG
ZJHK,2020-04-20 22:00,ZJHK 202200Z 18002MPS CAVOK 25/23 Q1009 NOSIG
ZJHK,2020-04-20 23:00,ZJHK 202300Z 18002MPS 140V230 CAVOK 26/23 Q1010 NOSIG
ZJHK,2020-04-21 00:00,ZJHK 210000Z 20002MPS 150V240 CAVOK 27/24 Q1011 NOSIG
ZJHK,2020-04-21 01:00,ZJHK 210100Z 19003MPS 150V250 CAVOK 29/24 Q1011 NOSIG
ZJHK,2020-04-21 02:00,ZJHK 210200Z 18003MPS 160V230 CAVOK 30/23 Q1011 NOSIG
ZJHK,2020-04-21 03:00,ZJHK 210300Z 20004MPS 170V230 CAVOK 32/22 Q1011 NOSIG
ZJHK,2020-04-21 04:00,ZJHK 210400Z 20003MPS 140V260 CAVOK 33/23 Q1010 NOSIG
ZJHK,2020-04-21 05:00,ZJHK 210500Z VRB02MPS 9999 FEW026 34/23 Q1009 NOSIG
ZJHK,2020-04-21 06:00,ZJHK 210600Z 01005MPS 340V040 9999 FEW026 33/24 Q1008 NOSIG
ZJHK,2020-04-21 07:00,ZJHK 210700Z 01004MPS 350V050 9999 FEW040 33/24 Q1008 NOSIG
ZJHK,2020-04-21 08:00,ZJHK 210800Z 08003MPS 350V150 9999 SCT033 34/25 Q1007 NOSIG
ZJHK,2020-04-21 09:00,ZJHK 210900Z 13005MPS 9999 FEW033 32/25 Q1007 NOSIG
ZJHK,2020-04-21 10:00,ZJHK 211000Z 15006MPS 9999 FEW033 30/24 Q1008 NOSIG
ZJHK,2020-04-21 11:00,ZJHK 211100Z 14005MPS 100V170 CAVOK 28/24 Q1008 NOSIG
ZJHK,2020-04-21 12:00,ZJHK 211200Z 16004MPS 120V200 CAVOK 27/24 Q1009 NOSIG
ZJHK,2020-04-21 13:00,ZJHK 211300Z 16003MPS 130V190 CAVOK 27/24 Q1010 NOSIG
ZJHK,2020-04-21 14:00,ZJHK 211400Z 15004MPS 120V180 CAVOK 27/24 Q1011 NOSIG
ZJHK,2020-04-21 15:00,ZJHK 211500Z 15003MPS 120V200 CAVOK 26/24 Q1011 NOSIG
ZJHK,2020-04-21 16:00,ZJHK 211600Z 14003MPS 120V180 CAVOK 26/24 Q1010 NOSIG
ZJHK,2020-04-21 17:00,ZJHK 211700Z 14003MPS 110V180 CAVOK 26/24 Q1010 NOSIG
ZJHK,2020-04-21 18:00,ZJHK 211800Z 14002MPS 110V170 CAVOK 26/24 Q1010 NOSIG
ZJHK,2020-04-21 19:00,ZJHK 211900Z 12002MPS 9999 SCT010 25/23 Q1010 NOSIG
ZJHK,2020-04-21 20:00,ZJHK 212000Z 14002MPS 100V170 9999 SCT010 25/24 Q1009 NOSIG
ZJHK,2020-04-21 21:00,ZJHK 212100Z 14002MPS 9999 FEW010 25/24 Q1010 NOSIG
ZJHK,2020-04-21 22:00,ZJHK 212200Z 14003MPS 110V170 CAVOK 25/24 Q1010 NOSIG
ZJHK,2020-04-21 23:00,ZJHK 212300Z 13002MPS 100V160 9999 SCT010 25/24 Q1011 NOSIG
ZJHK,2020-04-22 00:00,ZJHK 220000Z 14004MPS 090V160 9999 FEW013 27/25 Q1012 NOSIG
ZJHK,2020-04-22 01:00,ZJHK 220100Z 15005MPS 120V180 9999 FEW015 SCT020 29/24 Q1012 NOSIG
ZJHK,2020-04-22 02:00,ZJHK 220200Z 16005MPS 120V200 9999 BKN026 30/23 Q1012 NOSIG
ZJHK,2020-04-22 03:00,ZJHK 220300Z 15006MPS 120V200 9999 BKN026 SCT033 32/24 Q1012 NOSIG
ZJHK,2020-04-22 04:00,ZJHK 220400Z 15005MPS 120V190 9999 BKN030 BKN046 32/23 Q1011 NOSIG
ZJHK,2020-04-22 05:00,ZJHK 220500Z 15005MPS 110V190 9999 SCT033 BKN043 32/23 Q1011 NOSIG
ZJHK,2020-04-22 06:00,ZJHK 220600Z 16004MPS 120V180 9999 SCT033 BKN043 31/23 Q1011 NOSIG
ZJHK,2020-04-22 07:00,ZJHK 220700Z 17006MPS 120V220 9999 SCT033 BKN043 32/23 Q1009 NOSIG
ZJHK,2020-04-22 08:00,ZJHK 220800Z 16005MPS 130V210 9999 BKN033 31/23 Q1009 NOSIG
ZJHK,2020-04-22 09:00,ZJHK 220900Z 16004MPS 120V190 9999 TS FEW026CB SCT026 30/23 Q1009 BECMG AT0930 TSRA
ZJHK,2020-04-22 10:00,ZJHK 221000Z 36007MPS 340V040 6000 -TSRA BKN005 SCT026CB 21/20 Q1013 RESHRA NOSIG
ZJHK,2020-04-22 11:00,ZJHK 221100Z 04007MPS 9999 FEW008 SCT040 22/20 Q1013 RETS NOSIG
ZJHK,2020-04-22 12:00,ZJHK 221200Z 07006MPS CAVOK 22/20 Q1013 NOSIG
ZJHK,2020-04-22 13:00,ZJHK 221300Z 06005MPS 030V090 9999 FEW013 23/20 Q1013 NOSIG
ZJHK,2020-04-22 14:00,ZJHK 221400Z 05004MPS 9999 FEW013 23/20 Q1014 NOSIG
ZJHK,2020-04-22 15:00,ZJHK 221500Z 00000MPS 9999 BKN013 23/21 Q1015 NOSIG
ZJHK,2020-04-22 16:00,ZJHK 221600Z 00000MPS 9999 SCT010 BKN013 23/21 Q1014 NOSIG
ZJHK,2020-04-22 17:00,ZJHK 221700Z 00000MPS 9999 BKN012 BKN020 23/21 Q1014 NOSIG
ZJHK,2020-04-22 18:00,ZJHK 221800Z 00000MPS 9999 BKN010 23/22 Q1014 NOSIG
ZJHK,2020-04-22 19:00,ZJHK 221900Z 00000MPS 9999 BKN010 23/22 Q1013 NOSIG
ZJHK,2020-04-22 20:00,ZJHK 222000Z 00000MPS 9999 BKN013 24/22 Q1014 NOSIG
ZJHK,2020-04-22 21:00,ZJHK 222100Z 01006MPS 340V040 9999 -RA BKN004 BKN016 23/22 Q1015 NOSIG
ZJHK,2020-04-22 22:00,ZJHK 222200Z 35008MPS 5000 -SHRA BKN004 FEW020TCU BKN020 21/20 Q1015 NOSIG
ZJHK,2020-04-22 23:00,ZJHK 222300Z 36007MPS 9999 -SHRA BKN009 FEW020TCU BKN020 20/19 Q1017 NOSIG
ZJHK,2020-04-23 00:00,ZJHK 230000Z 04005MPS 9999 -SHRA FEW030TCU SCT030 21/19 Q1016 NOSIG
ZJHK,2020-04-23 01:00,ZJHK 230100Z 07005MPS 9999 SCT040 23/21 Q1016 NOSIG
ZJHK,2020-04-23 02:00,ZJHK 230200Z 06005MPS 020V080 9999 SCT040 24/21 Q1015 NOSIG
ZJHK,2020-04-23 03:00,ZJHK 230300Z 06005MPS 9999 SCT040 25/20 Q1016 NOSIG
ZJHK,2020-04-23 04:00,ZJHK 230400Z 05006MPS 020V080 9999 BKN016 SCT040 25/20 Q1016 NOSIG
ZJHK,2020-04-23 05:00,ZJHK 230500Z 03005MPS 360V060 9999 -RA SCT012 OVC033 24/21 Q1017 NOSIG
ZJHK,2020-04-23 06:00,ZJHK 230600Z 01005MPS 320V030 3000 -RA BKN006 OVC026 23/21 Q1016 BECMG TL0700 2000 BKN004 BKN020
ZJHK,2020-04-23 07:00,ZJHK 230700Z 02006MPS 350V050 9999 BKN006 OVC026 23/22 Q1015 BECMG TL0850 BKN010 BKN020
ZJHK,2020-04-23 08:00,ZJHK 230800Z 01006MPS 8000 -RA BKN006 OVC026 22/21 Q1015 NOSIG
ZJHK,2020-04-23 09:00,ZJHK 230900Z 02006MPS 360V060 9999 BKN008 OVC026 22/20 Q1014 NOSIG
ZJHK,2020-04-23 10:00,ZJHK 231000Z 08007MPS 9999 BKN008 OVC033 22/20 Q1013 BECMG TL1140 BKN010 OVC023
ZJHK,2020-04-23 11:00,ZJHK 231100Z 08006MPS 9999 BKN010 OVC033 22/20 Q1013 NOSIG
ZJHK,2020-04-23 12:00,ZJHK 231200Z 06003MPS 9999 BKN010 OVC033 23/21 Q1014 NOSIG
ZJHK,2020-04-23 13:00,ZJHK 231300Z 04004MPS 010V070 6000 -RA BKN007 OVC033 23/21 Q1015 NOSIG
ZJHK,2020-04-23 14:00,ZJHK 231400Z 03005MPS 5000 -RA BR BKN004 OVC033 22/21 Q1016 NOSIG
ZJHK,2020-04-23 15:00,ZJHK 231500Z 04006MPS 8000 -RA BKN004 OVC033 22/21 Q1016 NOSIG
ZJHK,2020-04-23 16:00,ZJHK 231600Z 06007MPS 8000 -RA BKN004 OVC033 22/21 Q1015 NOSIG
ZJHK,2020-04-23 17:00,ZJHK 231700Z 06006MPS 7000 -RA BKN005 OVC033 22/21 Q1015 NOSIG
ZJHK,2020-04-23 18:00,ZJHK 231800Z 05007MPS 7000 -RA BKN005 OVC033 22/21 Q1015 NOSIG
ZJHK,2020-04-23 19:00,ZJHK 231900Z 05006MPS 6000 -RA BKN005 OVC033 21/20 Q1015 NOSIG
ZJHK,2020-04-23 20:00,ZJHK 232000Z 06005MPS 7000 -RA BKN005 OVC033 22/21 Q1015 NOSIG
ZJHK,2020-04-23 21:00,ZJHK 232100Z 04005MPS 9999 BKN010 OVC033 22/21 Q1015 NOSIG
ZJHK,2020-04-23 22:00,ZJHK 232200Z 05005MPS 9999 BKN011 BKN033 22/21 Q1015 NOSIG
ZJHK,2020-04-23 23:00,ZJHK 232300Z 04006MPS 3000 -RA BR BKN008 OVC026 22/21 Q1016 NOSIG
ZJHK,2020-04-24 00:00,ZJHK 240000Z 04006MPS 4000 -RA BR BKN005 OVC026 22/21 Q1017 BECMG TL0140 BKN010 OVC026
ZJHK,2020-04-24 01:00,ZJHK 240100Z 04006MPS 5000 -RA BR BKN005 OVC023 22/21 Q1018 NOSIG
ZJHK,2020-04-24 02:00,ZJHK 240200Z 04008MPS 3000 -RA BR BKN005 OVC023 21/20 Q1018 NOSIG
ZJHK,2020-04-24 03:00,ZJHK 240300Z 03006MPS 3000 -RA BR BKN004 OVC020 21/20 Q1018 BECMG TL0440 BKN005 BKN020
ZJHK,2020-04-24 04:00,ZJHK 240400Z 03007MPS 360V060 2000 -RA BR BKN004 OVC020 21/20 Q1018 RERA BECMG TL0520 3000 BKN005 OVC020
ZJHK,2020-04-24 05:00,ZJHK 240500Z 04008MPS 2000 -RA BR BKN004 OVC020 21/20 Q1018 BECMG AT0600 3000 BKN005 OVC020
ZJHK,2020-04-24 06:00,ZJHK 240600Z 04008MPS 6000 -DZ BKN007 OVC020 20/19 Q1017 NOSIG
ZJHK,2020-04-24 07:00,ZJHK 240700Z 04006MPS 6000 -RA BKN009 OVC020 21/19 Q1017 BECMG AT0800 BKN010 OVC020
ZJHK,2020-04-24 08:00,ZJHK 240800Z 04006MPS 2000 -RA BR BKN007 OVC020 21/19 Q1016 NOSIG
ZJHK,2020-04-24 09:00,ZJHK 240900Z 03006MPS 360V060 4000 -RA BR BKN007 OVC020 20/19 Q1016 BECMG TL0940 2500 RA BR BKN004 OVC020
ZJHK,2020-04-24 10:00,ZJHK 241000Z 04007MPS 7000 -RA BKN007 OVC020 20/19 Q1017 NOSIG
ZJHK,2020-04-24 11:00,ZJHK 241100Z 04006MPS 8000 BKN010 OVC023 20/19 Q1017 BECMG TL1220 BKN007 OVC020
ZJHK,2020-04-24 12:00,ZJHK 241200Z 05006MPS 9999 BKN012 OVC023 21/19 Q1018 NOSIG
ZJHK,2020-04-24 13:00,ZJHK 241300Z 04005MPS 9999 BKN012 OVC023 21/19 Q1019 NOSIG
ZJHK,2020-04-24 14:00,ZJHK 241400Z 05005MPS 9999 -RA BKN014 OVC023 20/19 Q1019 NOSIG
ZJHK,2020-04-24 15:00,ZJHK 241500Z 06004MPS 9999 -RA FEW014 SCT023 20/19 Q1019 NOSIG
ZJHK,2020-04-24 16:00,ZJHK 241600Z 04004MPS 020V080 9999 BKN012 BKN023 21/19 Q1019 NOSIG
ZJHK,2020-04-24 17:00,ZJHK 241700Z 04003MPS 9999 -RA BKN012 BKN023 21/19 Q1018 NOSIG
ZJHK,2020-04-24 18:00,ZJHK 241800Z 05003MPS 9999 BKN012 BKN023 21/19 Q1018 NOSIG
ZJHK,2020-04-24 19:00,ZJHK 241900Z 03004MPS 9999 BKN012 BKN023 21/19 Q1017 NOSIG
ZJHK,2020-04-24 20:00,ZJHK 242000Z 04003MPS 9999 BKN010 BKN023 21/19 Q1016 NOSIG
ZJHK,2020-04-24 21:00,ZJHK 242100Z 04006MPS 6000 -DZ BKN007 BKN023 20/19 Q1017 NOSIG
ZJHK,2020-04-24 22:00,ZJHK 242200Z 04005MPS 3000 -RA BR BKN004 OVC020 20/19 Q1017 NOSIG
ZJHK,2020-04-24 23:00,ZJHK 242300Z 05005MPS 4000 -RA BR BKN007 OVC020 20/19 Q1017 NOSIG
ZJHK,2020-04-25 00:00,ZJHK 250000Z 05006MPS 8000 BKN010 OVC023 20/19 Q1017 NOSIG
ZJHK,2020-04-25 01:00,ZJHK 250100Z 04004MPS 8000 BKN010 OVC023 21/19 Q1018 NOSIG
ZJHK,2020-04-25 02:00,ZJHK 250200Z 04005MPS 9999 SCT010 OVC023 21/19 Q1019 NOSIG
ZJHK,2020-04-25 03:00,ZJHK 250300Z 04005MPS 9999 SCT010 OVC023 23/19 Q1019 NOSIG
ZJHK,2020-04-25 04:00,ZJHK 250400Z 02005MPS 9999 SCT013 OVC023 22/19 Q1018 NOSIG
ZJHK,2020-04-25 05:00,ZJHK 250500Z 03005MPS 9999 SCT015 OVC023 22/19 Q1018 NOSIG
ZJHK,2020-04-25 06:00,ZJHK 250600Z 03005MPS 360V060 9999 FEW015 OVC026 23/19 Q1017 NOSIG
ZJHK,2020-04-25 07:00,ZJHK 250700Z 04004MPS 9999 BKN016 OVC026 23/18 Q1016 NOSIG
ZJHK,2020-04-25 08:00,ZJHK 250800Z 04004MPS 9999 SCT016 OVC026 23/19 Q1016 NOSIG
ZJHK,2020-04-25 09:00,ZJHK 250900Z 03004MPS 360V060 9999 SCT016 OVC026 22/19 Q1016 NOSIG
ZJHK,2020-04-25 10:00,ZJHK 251000Z 01003MPS 340V050 9999 -RA SCT016 OVC026 22/19 Q1017 NOSIG
ZJHK,2020-04-25 11:00,ZJHK 251100Z 03003MPS 9999 SCT016 OVC026 22/19 Q1017 NOSIG
ZJHK,2020-04-25 12:00,ZJHK 251200Z 05004MPS 9999 -RA SCT016 OVC026 22/19 Q1017 NOSIG
ZJHK,2020-04-25 13:00,ZJHK 251300Z 05003MPS 8000 -RA SCT016 OVC026 21/19 Q1018 NOSIG
ZJHK,2020-04-25 14:00,ZJHK 251400Z 02002MPS 360V070 8000 -RA BKN016 OVC026 21/20 Q1019 NOSIG
ZJHK,2020-04-25 15:00,ZJHK 251500Z VRB01MPS 8000 BKN016 OVC026 21/20 Q1019 NOSIG
ZJHK,2020-04-25 16:00,ZJHK 251600Z 05003MPS 8000 SCT016 OVC026 21/20 Q1018 NOSIG
ZJHK,2020-04-25 17:00,ZJHK 251700Z VRB01MPS 8000 OVC026 21/20 Q1018 NOSIG
ZJHK,2020-04-25 18:00,ZJHK 251800Z 00000MPS 6000 OVC026 21/20 Q1018 NOSIG
ZJHK,2020-04-25 19:00,ZJHK 251900Z 00000MPS 8000 OVC026 21/19 Q1017 NOSIG
ZJHK,2020-04-25 20:00,ZJHK 252000Z 00000MPS 9999 BKN033 21/19 Q1017 NOSIG
ZJHK,2020-04-25 21:00,ZJHK 252100Z 00000MPS 9999 FEW033 21/19 Q1017 NOSIG
ZJHK,2020-04-25 22:00,ZJHK 252200Z 36003MPS 320V020 6000 FEW009 BKN033 21/19 Q1017 NOSIG
ZJHK,2020-04-25 23:00,ZJHK 252300Z 00000MPS 4000 BR SCT009 21/19 Q1017 NOSIG
ZJHK,2020-04-26 00:00,ZJHK 260000Z 35003MPS 310V040 6000 SCT009 BKN016 22/20 Q1018 NOSIG
ZJHK,2020-04-26 01:00,ZJHK 260100Z 35003MPS 300V040 8000 BKN010 BKN026 22/20 Q1019 NOSIG
ZJHK,2020-04-26 02:00,ZJHK 260200Z 01003MPS 340V040 9999 BKN013 BKN026 22/19 Q1019 NOSIG
ZJHK,2020-04-26 03:00,ZJHK 260300Z 00000MPS 9999 BKN013 BKN026 23/19 Q1019 NOSIG
ZJHK,2020-04-26 04:00,ZJHK 260400Z 01003MPS 340V060 9999 BKN015 BKN026 23/19 Q1019 NOSIG
ZJHK,2020-04-26 05:00,ZJHK 260500Z 02003MPS 340V060 9999 BKN016 BKN036 24/19 Q1018 NOSIG
ZJHK,2020-04-26 06:00,ZJHK 260600Z 02003MPS 360V060 9999 SCT020 BKN036 24/19 Q1017 NOSIG
ZJHK,2020-04-26 07:00,ZJHK 260700Z 02002MPS 340V070 9999 FEW020 SCT036 24/19 Q1016 NOSIG
ZJHK,2020-04-26 08:00,ZJHK 260800Z VRB01MPS 9999 FEW020 SCT036 24/19 Q1016 NOSIG
ZJHK,2020-04-26 09:00,ZJHK 260900Z VRB01MPS CAVOK 24/18 Q1016 NOSIG
ZJHK,2020-04-26 10:00,ZJHK 261000Z 01003MPS 340V060 CAVOK 24/18 Q1016 NOSIG
ZJHK,2020-04-26 11:00,ZJHK 261100Z 04002MPS 010V070 CAVOK 23/19 Q1017 NOSIG
ZJHK,2020-04-26 12:00,ZJHK 261200Z VRB01MPS CAVOK 23/18 Q1017 NOSIG
ZJHK,2020-04-26 13:00,ZJHK 261300Z 00000MPS CAVOK 23/19 Q1018 NOSIG
ZJHK,2020-04-26 14:00,ZJHK 261400Z 00000MPS CAVOK 22/19 Q1018 NOSIG
ZJHK,2020-04-26 15:00,ZJHK 261500Z 00000MPS CAVOK 21/19 Q1018 NOSIG
ZJHK,2020-04-26 16:00,ZJHK 261600Z 00000MPS CAVOK 21/19 Q1018 NOSIG
ZJHK,2020-04-26 17:00,ZJHK 261700Z 21002MPS CAVOK 20/19 Q1018 NOSIG
ZJHK,2020-04-26 18:00,ZJHK 261800Z 24002MPS 7000 NSC 20/18 Q1017 NOSIG
ZJHK,2020-04-26 19:00,ZJHK 261900Z 26002MPS 6000 NSC 19/18 Q1016 NOSIG
ZJHK,2020-04-26 20:00,ZJHK 262000Z 25002MPS 6000 NSC 19/18 Q1016 NOSIG
ZJHK,2020-04-26 21:00,ZJHK 262100Z 26001MPS 5000 BR NSC 19/18 Q1017 NOSIG
ZJHK,2020-04-26 22:00,ZJHK 262200Z 25002MPS 5000 BR NSC 19/18 Q1017 NOSIG
ZJHK,2020-04-26 23:00,ZJHK 262300Z VRB01MPS 3000 BR NSC 20/19 Q1017 NOSIG
ZJHK,2020-04-27 00:00,ZJHK 270000Z VRB01MPS 8000 NSC 22/20 Q1018 NOSIG
ZJHK,2020-04-27 01:00,ZJHK 270100Z 36002MPS 320V050 CAVOK 24/18 Q1018 NOSIG
ZJHK,2020-04-27 02:00,ZJHK 270200Z 31003MPS 260V340 CAVOK 26/18 Q1018 NOSIG
ZJHK,2020-04-27 03:00,ZJHK 270300Z 32003MPS 280V040 CAVOK 26/17 Q1018 NOSIG
ZJHK,2020-04-27 04:00,ZJHK 270400Z VRB02MPS CAVOK 28/17 Q1018 NOSIG
ZJHK,2020-04-27 05:00,ZJHK 270500Z 34002G07MPS 230V040 CAVOK 28/17 Q1017 NOSIG
ZJHK,2020-04-27 06:00,ZJHK 270600Z 34003MPS 290V010 CAVOK 28/17 Q1016 NOSIG
ZJHK,2020-04-27 07:00,ZJHK 270700Z 03004MPS 340V070 CAVOK 30/18 Q1016 NOSIG
ZJHK,2020-04-27 08:00,ZJHK 270800Z 35005MPS 320V030 CAVOK 27/18 Q1016 NOSIG
ZJHK,2020-04-27 09:00,ZJHK 270900Z 01005MPS 340V040 CAVOK 26/19 Q1016 NOSIG
ZJHK,2020-04-27 10:00,ZJHK 271000Z 36005MPS CAVOK 25/18 Q1016 NOSIG
ZJHK,2020-04-27 11:00,ZJHK 271100Z 36004MPS CAVOK 24/18 Q1016 NOSIG
ZJHK,2020-04-27 12:00,ZJHK 271200Z 03003MPS 7000 NSC 24/20 Q1016 NOSIG
ZJHK,2020-04-27 13:00,ZJHK 271300Z 04003MPS 7000 NSC 23/20 Q1017 NOSIG
ZJHK,2020-04-27 14:00,ZJHK 271400Z 04002MPS 6000 NSC 23/20 Q1018 NOSIG
ZJHK,2020-04-27 15:00,ZJHK 271500Z 10002MPS 5000 BR NSC 22/20 Q1018 NOSIG
ZJHK,2020-04-27 16:00,ZJHK 271600Z VRB01MPS 5000 BR NSC 22/20 Q1018 NOSIG
ZJHK,2020-04-27 17:00,ZJHK 271700Z 00000MPS 3500 BR NSC 21/20 Q1018 NOSIG
ZJHK,2020-04-27 18:00,ZJHK 271800Z 00000MPS 2500 R09/1300U BR NSC 20/19 Q1017 NOSIG
ZJHK,2020-04-27 19:00,ZJHK 271900Z VRB01MPS 2000 R09/1300D BR NSC 20/19 Q1017 NOSIG
ZJHK,2020-04-27 20:00,ZJHK 272000Z 23001MPS 1600 R09/0750V1400U BR NSC 20/19 Q1016 NOSIG
ZJHK,2020-04-27 21:00,ZJHK 272100Z 00000MPS 1200 R09/0800V1100U BR NSC 20/19 Q1016 NOSIG
ZJHK,2020-04-27 22:00,ZJHK 272200Z 00000MPS 1200 R09/1300N BR NSC 20/19 Q1017 BECMG TL2350 5000
ZJHK,2020-04-27 23:00,ZJHK 272300Z 12001MPS 1200 R09/1000V1200N BR NSC 20/19 Q1017 BECMG TL2350 5000
ZJHK,2020-04-28 00:00,ZJHK 280000Z 36002MPS 320V040 2000 BR NSC 23/22 Q1017 BECMG TL0100 5000
ZJHK,2020-04-28 01:00,ZJHK 280100Z 05003MPS 350V080 6000 SCT016 25/22 Q1018 NOSIG
ZJHK,2020-04-28 02:00,ZJHK 280200Z 03004MPS 350V070 8000 SCT016 26/21 Q1018 NOSIG
ZJHK,2020-04-28 03:00,ZJHK 280300Z 03004MPS 8000 SCT023 27/21 Q1017 NOSIG
ZJHK,2020-04-28 04:00,ZJHK 280400Z 02005MPS 340V040 9999 SCT023 27/21 Q1017 NOSIG
ZJHK,2020-04-28 05:00,ZJHK 280500Z 02006MPS 350V060 9999 SCT023 28/21 Q1016 NOSIG
ZJHK,2020-04-28 06:00,ZJHK 280600Z 03006MPS 350V070 9999 SCT023 29/22 Q1016 NOSIG
ZJHK,2020-04-28 07:00,ZJHK 280700Z 01006MPS 340V050 9999 FEW023 28/20 Q1015 NOSIG
ZJHK,2020-04-28 08:00,ZJHK 280800Z 02006MPS CAVOK 28/18 Q1015 NOSIG
ZJHK,2020-04-28 09:00,ZJHK 280900Z 06007MPS CAVOK 28/15 Q1014 NOSIG
ZJHK,2020-04-28 10:00,ZJHK 281000Z 06006MPS CAVOK 27/16 Q1015 NOSIG
ZJHK,2020-04-28 11:00,ZJHK 281100Z 06006MPS CAVOK 25/17 Q1015 NOSIG
ZJHK,2020-04-28 12:00,ZJHK 281200Z 06005MPS CAVOK 24/19 Q1016 NOSIG
ZJHK,2020-04-28 13:00,ZJHK 281300Z 09003MPS CAVOK 23/20 Q1016 NOSIG
ZJHK,2020-04-28 14:00,ZJHK 281400Z 11002MPS CAVOK 22/19 Q1016 NOSIG
ZJHK,2020-04-28 15:00,ZJHK 281500Z 00000G05MPS CAVOK 21/19 Q1017 NOSIG
ZJHK,2020-04-28 16:00,ZJHK 281600Z 00000MPS CAVOK 20/19 Q1017 NOSIG
ZJHK,2020-04-28 17:00,ZJHK 281700Z 00000MPS 7000 NSC 20/19 Q1016 NOSIG
ZJHK,2020-04-28 18:00,ZJHK 281800Z 00000MPS 7000 NSC 19/19 Q1015 NOSIG
ZJHK,2020-04-28 19:00,ZJHK 281900Z 00000MPS 8000 NSC 19/19 Q1015 NOSIG
ZJHK,2020-04-28 20:00,ZJHK 282000Z 00000MPS 8000 FEW016 19/19 Q1015 NOSIG
ZJHK,2020-04-28 21:00,ZJHK 282100Z 00000MPS 8000 R09/1400D NSC 20/19 Q1015 NOSIG
ZJHK,2020-04-28 22:00,ZJHK 282200Z 00000MPS 8000 FEW020 19/19 Q1015 NOSIG
ZJHK,2020-04-28 23:00,ZJHK 282300Z 00000MPS 9999 BKN033 21/21 Q1015 NOSIG
ZJHK,2020-04-29 00:00,ZJHK 290000Z 04002MPS 360V060 9999 BKN026 23/22 Q1016 NOSIG
ZJHK,2020-04-29 01:00,ZJHK 290100Z 03003MPS 350V060 9999 FEW033 25/21 Q1016 NOSIG
ZJHK,2020-04-29 02:00,ZJHK 290200Z 09004MPS 060V120 9999 SCT020 27/21 Q1016 NOSIG
ZJHK,2020-04-29 03:00,ZJHK 290300Z 02004MPS 340V060 9999 SCT020 28/22 Q1016 NOSIG
ZJHK,2020-04-29 04:00,ZJHK 290400Z 01005MPS 340V050 9999 BKN020 27/22 Q1016 NOSIG
ZJHK,2020-04-29 05:00,ZJHK 290500Z 02006MPS 350V050 9000 -RA FEW010 BKN018 BKN040 26/23 Q1016 NOSIG
ZJHK,2020-04-29 06:00,ZJHK 290600Z 02006MPS 8000 -SHRA SCT007 SCT018 FEW020CB BKN033 25/23 Q1015 NOSIG
ZJHK,2020-04-29 07:00,ZJHK 290700Z 03004MPS 9000 -SHRA SCT007 SCT018 FEW020TCU BKN040 25/24 Q1014 NOSIG
ZJHK,2020-04-29 08:00,ZJHK 290800Z 07005MPS 5000 -RA BR SCT007 BKN018 BKN033 25/24 Q1014 NOSIG
ZJHK,2020-04-29 09:00,ZJHK 290900Z 06003MPS 9000 SCT007 BKN016 FEW020TCU BKN033 25/23 Q1014 RESHRA NOSIG
ZJHK,2020-04-29 10:00,ZJHK 291000Z 07003MPS 020V100 9999 -SHRA FEW008 SCT016 FEW020TCU BKN033 25/24 Q1014 RESHRA NOSIG
ZJHK,2020-04-29 11:00,ZJHK 291100Z 09004MPS 6000 -SHRA SCT010 FEW020TCU BKN026 OVC040 24/23 Q1015 NOSIG
ZJHK,2020-04-29 12:00,ZJHK 291200Z 08005MPS 9999 -RA SCT010 SCT020 OVC046 24/23 Q1015 NOSIG
ZJHK,2020-04-29 13:00,ZJHK 291300Z 08004MPS 9999 FEW010 SCT026 OVC046 24/22 Q1016 NOSIG
ZJHK,2020-04-29 14:00,ZJHK 291400Z 09003MPS 9999 FEW012 BKN046 23/22 Q1016 NOSIG
ZJHK,2020-04-29 15:00,ZJHK 291500Z 09002MPS 9999 SCT026 23/22 Q1016 NOSIG
ZJHK,2020-04-29 16:00,ZJHK 291600Z 10002MPS 8000 NSC 23/22 Q1016 NOSIG
ZJHK,2020-04-29 17:00,ZJHK 291700Z 16001MPS 5000 BR SCT020 22/21 Q1016 NOSIG
ZJHK,2020-04-29 18:00,ZJHK 291800Z 13001MPS 5000 BR NSC 22/21 Q1015 NOSIG
ZJHK,2020-04-29 19:00,ZJHK 291900Z 00000MPS 4000 R09/1300D BR SCT020 21/21 Q1015 NOSIG
ZJHK,2020-04-29 20:00,ZJHK 292000Z 00000MPS 6000 R09/0325V0450D BCFG SCT020 21/21 Q1014 NOSIG
ZJHK,2020-04-29 21:00,ZJHK 292100Z 00000MPS 4000 R09/0150V0250D BR BCFG SCT020 21/20 Q1015 NOSIG
ZJHK,2020-04-29 22:00,ZJHK 292200Z 11001MPS 5000 BR BCFG SCT020 21/21 Q1015 NOSIG
ZJHK,2020-04-29 23:00,ZJHK 292300Z 10002MPS 6000 FEW020 22/22 Q1015 NOSIG
ZJHK,2020-04-30 00:00,ZJHK 300000Z 09002MPS 7000 FEW020 24/23 Q1016 NOSIG
ZJHK,2020-04-30 01:00,ZJHK 300100Z 11003MPS 080V140 9999 BKN010 25/24 Q1016 NOSIG
ZJHK,2020-04-30 02:00,ZJHK 300200Z 12002MPS 050V170 9999 BKN020 27/23 Q1016 NOSIG
ZJHK,2020-04-30 03:00,ZJHK 300300Z VRB02MPS 9999 SCT020 28/23 Q1016 NOSIG
ZJHK,2020-04-30 04:00,ZJHK 300400Z 33004MPS 300V030 9999 BKN026 28/23 Q1015 NOSIG
ZJHK,2020-04-30 05:00,ZJHK 300500Z 02005MPS 340V050 9999 FEW013 FEW020TCU SCT020 29/24 Q1015 NOSIG
ZJHK,2020-04-30 06:00,ZJHK 300600Z 02006MPS 9999 FEW013 FEW026TCU SCT026 27/23 Q1014 NOSIG
ZJHK,2020-04-30 07:00,ZJHK 300700Z 05005MPS 020V080 9999 FEW013 30/24 Q1013 NOSIG
ZJHK,2020-04-30 08:00,ZJHK 300800Z 05005MPS 010V070 9999 FEW013 SCT026 30/23 Q1012 NOSIG
ZJHK,2020-04-30 09:00,ZJHK 300900Z 04005MPS 9999 FEW026 29/22 Q1012 NOSIG
ZJHK,2020-04-30 10:00,ZJHK 301000Z 06005MPS 020V080 CAVOK 28/22 Q1012 NOSIG
ZJHK,2020-04-30 11:00,ZJHK 301100Z 08004MPS 9999 FEW026 26/22 Q1012 NOSIG
ZJHK,2020-04-30 12:00,ZJHK 301200Z 09003MPS 9999 FEW026 24/22 Q1013 NOSIG
ZJHK,2020-04-30 13:00,ZJHK 301300Z 11002MPS 9999 SCT013 24/22 Q1013 NOSIG
ZJHK,2020-04-30 14:00,ZJHK 301400Z 12002MPS 9999 SCT016 24/22 Q1014 NOSIG
ZJHK,2020-04-30 15:00,ZJHK 301500Z 13001MPS CAVOK 23/22 Q1014 NOSIG
ZJHK,2020-04-30 16:00,ZJHK 301600Z 11001MPS 7000 NSC 23/22 Q1013 NOSIG
ZJHK,2020-04-30 17:00,ZJHK 301700Z 11001MPS 5000 BR NSC 22/21 Q1013 NOSIG
ZJHK,2020-04-30 18:00,ZJHK 301800Z 00000MPS 4000 R09/0450V1300U BR BCFG NSC 22/21 Q1013 NOSIG
ZJHK,2020-04-30 19:00,ZJHK 301900Z 11001MPS 6000 FEW016 BKN033 23/22 Q1012 NOSIG
ZJHK,2020-04-30 20:00,ZJHK 302000Z 09001MPS 6000 BKN043 23/22 Q1012 NOSIG
ZJHK,2020-04-30 21:00,ZJHK 302100Z 11001MPS 6000 FEW003 23/22 Q1012 NOSIG
ZJHK,2020-04-30 22:00,ZJHK 302200Z 09002MPS 0600 R09/0275V0450D FG FEW001 BKN002 22/21 Q1012 BECMG AT2330 3000 BR
ZJHK,2020-04-30 23:00,ZJHK 302300Z 12002MPS 090V150 0300 R09/0550V0900U FG FEW001 BKN002 23/22 Q1013 BECMG AT0020 1000 BR
ZJHK,2020-05-01 00:00,ZJHK 010000Z 11002MPS 080V140 6000 SCT002 24/23 Q1013 NOSIG
ZJHK,2020-05-01 01:00,ZJHK 010100Z 10002MPS 060V190 9999 FEW010 BKN018 26/25 Q1013 NOSIG
ZJHK,2020-05-01 02:00,ZJHK 010200Z 10002MPS 9999 BKN020 29/23 Q1013 NOSIG
ZJHK,2020-05-01 03:00,ZJHK 010300Z 24003MPS 200V280 9999 SCT026 29/22 Q1013 NOSIG
ZJHK,2020-05-01 04:00,ZJHK 010400Z VRB02MPS 9999 BKN030 30/23 Q1012 BECMG TL0500 02005MPS
ZJHK,2020-05-01 05:00,ZJHK 010500Z 01004MPS 340V050 9999 SCT030 31/24 Q1012 NOSIG
ZJHK,2020-05-01 06:00,ZJHK 010600Z 02006MPS 360V060 9999 SCT026 30/24 Q1011 NOSIG
ZJHK,2020-05-01 07:00,ZJHK 010700Z 07007MPS 9999 FEW026 31/24 Q1010 NOSIG
ZJHK,2020-05-01 08:00,ZJHK 010800Z 06006MPS 020V090 9999 SCT026 30/24 Q1009 NOSIG
ZJHK,2020-05-01 09:00,ZJHK 010900Z 09006MPS 060V120 9999 SCT026 29/23 Q1009 NOSIG
ZJHK,2020-05-01 10:00,ZJHK 011000Z 10004MPS 9999 FEW026 28/23 Q1009 NOSIG
ZJHK,2020-05-01 11:00,ZJHK 011100Z 08005MPS 9999 FEW033 27/22 Q1010 NOSIG
ZJHK,2020-05-01 12:00,ZJHK 011200Z 11003MPS CAVOK 26/22 Q1011 NOSIG
ZJHK,2020-05-01 13:00,ZJHK 011300Z 14002MPS CAVOK 25/22 Q1011 NOSIG
ZJHK,2020-05-01 14:00,ZJHK 011400Z 12002MPS 9999 BKN046 24/22 Q1012 NOSIG
ZJHK,2020-05-01 15:00,ZJHK 011500Z 00000MPS CAVOK 24/22 Q1012 NOSIG
ZJHK,2020-05-01 16:00,ZJHK 011600Z VRB01MPS CAVOK 23/22 Q1011 NOSIG
ZJHK,2020-05-01 17:00,ZJHK 011700Z 13002MPS 100V160 7000 NSC 23/22 Q1010 NOSIG
ZJHK,2020-05-01 18:00,ZJHK 011800Z 14003MPS 100V160 8000 NSC 23/22 Q1009 NOSIG
ZJHK,2020-05-01 19:00,ZJHK 011900Z VRB01MPS CAVOK 23/22 Q1009 NOSIG
ZJHK,2020-05-01 20:00,ZJHK 012000Z 10001MPS 9999 FEW016 23/22 Q1009 NOSIG
ZJHK,2020-05-01 21:00,ZJHK 012100Z 00000MPS 8000 R09/1100U PRFG NSC 22/22 Q1009 NOSIG
ZJHK,2020-05-01 22:00,ZJHK 012200Z 00000MPS 6000 BCFG NSC 22/21 Q1010 NOSIG
ZJHK,2020-05-01 23:00,ZJHK 012300Z 10001MPS 6000 NSC 23/22 Q1011 NOSIG
ZJHK,2020-05-02 00:00,ZJHK 020000Z 12002MPS 060V180 CAVOK 25/24 Q1011 NOSIG
ZJHK,2020-05-02 01:00,ZJHK 020100Z 15003MPS 100V180 9999 FEW016 28/24 Q1011 NOSIG
ZJHK,2020-05-02 02:00,ZJHK 020200Z 17004MPS 130V210 9999 FEW016 30/23 Q1011 NOSIG
ZJHK,2020-05-02 03:00,ZJHK 020300Z 21004MPS 150V240 9999 SCT026 30/23 Q1011 NOSIG
ZJHK,2020-05-02 04:00,ZJHK 020400Z 20003MPS 170V240 9999 BKN030 32/22 Q1010 NOSIG
ZJHK,2020-05-02 05:00,ZJHK 020500Z 17003MPS 130V200 9999 SCT030 BKN043 31/22 Q1009 NOSIG
ZJHK,2020-05-02 06:00,ZJHK 020600Z 34005MPS 300V010 9999 SCT043 BKN046 30/24 Q1009 NOSIG
ZJHK,2020-05-02 07:00,ZJHK 020700Z 35005MPS 280V040 9999 FEW026 SCT046 31/23 Q1008 NOSIG
ZJHK,2020-05-02 08:00,ZJHK 020800Z 36003MPS 310V050 9999 FEW030 31/23 Q1007 NOSIG
ZJHK,2020-05-02 09:00,ZJHK 020900Z 05002MPS 020V090 9999 FEW033 32/23 Q1007 NOSIG
ZJHK,2020-05-02 10:00,ZJHK 021000Z 06004MPS 9999 FEW033 31/23 Q1007 NOSIG
ZJHK,2020-05-02 11:00,ZJHK 021100Z 11004MPS 070V140 9999 SCT040 28/23 Q1007 NOSIG
ZJHK,2020-05-02 12:00,ZJHK 021200Z 12003MPS CAVOK 27/23 Q1008 NOSIG
ZJHK,2020-05-02 13:00,ZJHK 021300Z 13003MPS 110V170 CAVOK 26/23 Q1008 NOSIG
ZJHK,2020-05-02 14:00,ZJHK 021400Z 14002MPS CAVOK 26/23 Q1009 NOSIG
ZJHK,2020-05-02 15:00,ZJHK 021500Z 15002MPS CAVOK 25/23 Q1009 NOSIG
ZJHK,2020-05-02 16:00,ZJHK 021600Z 13002MPS CAVOK 25/23 Q1009 NOSIG
ZJHK,2020-05-02 17:00,ZJHK 021700Z 14002MPS 100V170 CAVOK 25/23 Q1008 NOSIG
ZJHK,2020-05-02 18:00,ZJHK 021800Z 15002MPS 120V180 CAVOK 25/24 Q1008 NOSIG
ZJHK,2020-05-02 19:00,ZJHK 021900Z 14001MPS CAVOK 25/23 Q1008 NOSIG
ZJHK,2020-05-02 20:00,ZJHK 022000Z 13001MPS CAVOK 24/23 Q1008 NOSIG
ZJHK,2020-05-02 21:00,ZJHK 022100Z 11001MPS CAVOK 24/23 Q1008 NOSIG
ZJHK,2020-05-02 22:00,ZJHK 022200Z 00000MPS CAVOK 23/22 Q1009 NOSIG
ZJHK,2020-05-02 23:00,ZJHK 022300Z 00000MPS CAVOK 24/23 Q1009 NOSIG
ZJHK,2020-05-03 00:00,ZJHK 030000Z 20002MPS 160V240 9999 FEW012 26/25 Q1010 NOSIG
ZJHK,2020-05-03 01:00,ZJHK 030100Z 22002MPS 180V270 9999 FEW013 28/24 Q1010 NOSIG
ZJHK,2020-05-03 02:00,ZJHK 030200Z 22002MPS 160V280 9999 FEW020 30/25 Q1011 NOSIG
ZJHK,2020-05-03 03:00,ZJHK 030300Z 30003MPS 230V350 CAVOK 31/25 Q1010 NOSIG
ZJHK,2020-05-03 04:00,ZJHK 030400Z 02004MPS 330V070 9999 SCT030 33/26 Q1009 NOSIG
ZJHK,2020-05-03 05:00,ZJHK 030500Z 35004MPS 310V040 9999 FEW030 32/25 Q1009 NOSIG
ZJHK,2020-05-03 06:00,ZJHK 030600Z 02004MPS 350V060 9999 FEW033 33/24 Q1008 NOSIG
ZJHK,2020-05-03 07:00,ZJHK 030700Z 36005MPS 320V030 CAVOK 32/24 Q1007 NOSIG
ZJHK,2020-05-03 08:00,ZJHK 030800Z 36006MPS 340V040 CAVOK 30/24 Q1007 NOSIG
ZJHK,2020-05-03 09:00,ZJHK 030900Z 02004MPS 340V050 CAVOK 31/24 Q1007 NOSIG
ZJHK,2020-05-03 10:00,ZJHK 031000Z 06005MPS CAVOK 31/24 Q1007 NOSIG
ZJHK,2020-05-03 11:00,ZJHK 031100Z 08004MPS 9999 FEW033 30/24 Q1007 NOSIG
ZJHK,2020-05-03 12:00,ZJHK 031200Z 12003MPS 100V160 CAVOK 28/24 Q1008 NOSIG
ZJHK,2020-05-03 13:00,ZJHK 031300Z 13003MPS 100V160 CAVOK 27/24 Q1008 NOSIG
ZJHK,2020-05-03 14:00,ZJHK 031400Z 13002MPS 090V170 CAVOK 27/24 Q1010 NOSIG
ZJHK,2020-05-03 15:00,ZJHK 031500Z 12002MPS CAVOK 27/24 Q1010 NOSIG
ZJHK,2020-05-03 16:00,ZJHK 031600Z 12002MPS 090V160 CAVOK 26/25 Q1010 NOSIG
ZJHK,2020-05-03 17:00,ZJHK 031700Z 14002MPS 090V210 CAVOK 26/25 Q1009 NOSIG
ZJHK,2020-05-03 18:00,ZJHK 031800Z 14002MPS 110V170 CAVOK 26/24 Q1008 NOSIG
ZJHK,2020-05-03 19:00,ZJHK 031900Z 15003MPS 110V190 CAVOK 26/24 Q1008 NOSIG
ZJHK,2020-05-03 20:00,ZJHK 032000Z 16003MPS 130V200 CAVOK 26/24 Q1007 NOSIG
ZJHK,2020-05-03 21:00,ZJHK 032100Z 18002MPS 130V220 CAVOK 26/24 Q1008 NOSIG
ZJHK,2020-05-03 22:00,ZJHK 032200Z 16002MPS CAVOK 25/24 Q1008 NOSIG
ZJHK,2020-05-03 23:00,ZJHK 032300Z 18002MPS 140V230 CAVOK 26/24 Q1008 NOSIG
ZJHK,2020-05-04 00:00,ZJHK 040000Z 20004MPS 170V230 CAVOK 27/25 Q1010 NOSIG
ZJHK,2020-05-04 01:00,ZJHK 040100Z 22003MPS 190V260 CAVOK 29/25 Q1010 NOSIG
ZJHK,2020-05-04 02:00,ZJHK 040200Z 24002MPS 160V290 9999 SCT015 31/25 Q1010 NOSIG
ZJHK,2020-05-04 03:00,ZJHK 040300Z VRB02MPS 9999 SCT020 32/25 Q1010 NOSIG
ZJHK,2020-05-04 04:00,ZJHK 040400Z 22003MPS 170V260 9999 SCT030 33/26 Q1010 NOSIG
ZJHK,2020-05-04 05:00,ZJHK 040500Z 35004MPS 310V020 9999 SCT030 33/25 Q1010 NOSIG
ZJHK,2020-05-04 06:00,ZJHK 040600Z 36003MPS 300V060 9999 FEW030 34/26 Q1009 NOSIG
ZJHK,2020-05-04 07:00,ZJHK 040700Z 03006MPS 9999 FEW030 32/26 Q1008 NOSIG
ZJHK,2020-05-04 08:00,ZJHK 040800Z 36005MPS 340V040 9999 FEW030 32/25 Q1008 NOSIG
ZJHK,2020-05-04 09:00,ZJHK 040900Z 01005MPS 9999 FEW030 32/25 Q1007 NOSIG
ZJHK,2020-05-04 10:00,ZJHK 041000Z 02005MPS CAVOK 32/26 Q1007 NOSIG
ZJHK,2020-05-04 11:00,ZJHK 041100Z 08004MPS 060V120 CAVOK 30/25 Q1007 NOSIG
ZJHK,2020-05-04 12:00,ZJHK 041200Z 12004MPS 080V200 CAVOK 29/24 Q1008 NOSIG
ZJHK,2020-05-04 13:00,ZJHK 041300Z 12003MPS CAVOK 28/25 Q1009 NOSIG
ZJHK,2020-05-04 14:00,ZJHK 041400Z 12002MPS 070V160 CAVOK 27/25 Q1009 NOSIG
ZJHK,2020-05-04 15:00,ZJHK 041500Z 13002MPS 100V160 CAVOK 27/25 Q1009 NOSIG
ZJHK,2020-05-04 16:00,ZJHK 041600Z 13002MPS 090V180 CAVOK 26/25 Q1008 NOSIG
ZJHK,2020-05-04 17:00,ZJHK 041700Z 14003MPS CAVOK 26/25 Q1007 NOSIG
ZJHK,2020-05-04 18:00,ZJHK 041800Z 15002MPS 120V180 CAVOK 26/24 Q1007 NOSIG
ZJHK,2020-05-04 19:00,ZJHK 041900Z 15002MPS 110V190 CAVOK 26/24 Q1007 NOSIG
ZJHK,2020-05-04 20:00,ZJHK 042000Z 16002MPS 130V200 CAVOK 26/24 Q1007 NOSIG
ZJHK,2020-05-04 21:00,ZJHK 042100Z 15003MPS 120V180 CAVOK 26/24 Q1007 NOSIG
ZJHK,2020-05-04 22:00,ZJHK 042200Z 16003MPS 130V210 CAVOK 26/24 Q1007 NOSIG
ZJHK,2020-05-04 23:00,ZJHK 042300Z 15004MPS 130V190 CAVOK 26/24 Q1008 NOSIG
ZJHK,2020-05-05 00:00,ZJHK 050000Z 17003MPS 130V200 CAVOK 28/24 Q1008 NOSIG
ZJHK,2020-05-05 01:00,ZJHK 050100Z 18004MPS CAVOK 30/23 Q1009 NOSIG
ZJHK,2020-05-05 02:00,ZJHK 050200Z 16004MPS 140V200 CAVOK 32/23 Q1009 NOSIG
ZJHK,2020-05-05 03:00,ZJHK 050300Z 18004MPS 140V230 CAVOK 34/23 Q1009 NOSIG
ZJHK,2020-05-05 04:00,ZJHK 050400Z 17004MPS 130V220 CAVOK 35/22 Q1008 NOSIG
ZJHK,2020-05-05 05:00,ZJHK 050500Z 16003MPS 080V230 CAVOK 37/23 Q1008 NOSIG
ZJHK,2020-05-05 06:00,ZJHK 050600Z 23002MPS 180V300 CAVOK 38/23 Q1007 NOSIG
ZJHK,2020-05-05 07:00,ZJHK 050700Z 36003MPS 310V050 9999 FEW026 37/25 Q1006 NOSIG
ZJHK,2020-05-05 08:00,ZJHK 050800Z VRB02MPS 9999 FEW026 38/23 Q1005 NOSIG
ZJHK,2020-05-05 09:00,ZJHK 050900Z 13005MPS 100V160 9999 FEW026 37/24 Q1005 NOSIG
ZJHK,2020-05-05 10:00,ZJHK 051000Z 13004MPS 100V160 CAVOK 35/25 Q1005 NOSIG
ZJHK,2020-05-05 11:00,ZJHK 051100Z 13003MPS 100V170 CAVOK 32/24 Q1006 NOSIG
ZJHK,2020-05-05 12:00,ZJHK 051200Z 14002MPS 090V190 CAVOK 30/24 Q1006 NOSIG
ZJHK,2020-05-05 13:00,ZJHK 051300Z 16003MPS CAVOK 30/23 Q1007 NOSIG
ZJHK,2020-05-05 14:00,ZJHK 051400Z 15003MPS CAVOK 29/22 Q1007 NOSIG
ZJHK,2020-05-05 15:00,ZJHK 051500Z 16003MPS CAVOK 28/21 Q1007 NOSIG
ZJHK,2020-05-05 16:00,ZJHK 051600Z 17004MPS 140V200 CAVOK 28/20 Q1007 NOSIG
ZJHK,2020-05-05 17:00,ZJHK 051700Z 17002MPS 130V200 CAVOK 27/20 Q1006 NOSIG
ZJHK,2020-05-05 18:00,ZJHK 051800Z 17002MPS CAVOK 26/20 Q1005 NOSIG
ZJHK,2020-05-05 19:00,ZJHK 051900Z VRB01MPS CAVOK 26/20 Q1005 NOSIG
ZJHK,2020-05-05 20:00,ZJHK 052000Z 12002MPS CAVOK 24/20 Q1005 NOSIG
ZJHK,2020-05-05 21:00,ZJHK 052100Z 12001MPS CAVOK 23/20 Q1005 NOSIG
ZJHK,2020-05-05 22:00,ZJHK 052200Z VRB01MPS CAVOK 23/21 Q1006 NOSIG
ZJHK,2020-05-05 23:00,ZJHK 052300Z 13002MPS 100V160 CAVOK 25/23 Q1007 NOSIG
ZJHK,2020-05-06 00:00,ZJHK 060000Z 16004MPS CAVOK 28/24 Q1007 NOSIG
ZJHK,2020-05-06 01:00,ZJHK 060100Z 16004MPS 130V200 CAVOK 31/24 Q1008 NOSIG
ZJHK,2020-05-06 02:00,ZJHK 060200Z 17004MPS 120V210 CAVOK 33/23 Q1008 NOSIG
ZJHK,2020-05-06 03:00,ZJHK 060300Z 19004MPS 140V230 CAVOK 35/24 Q1008 NOSIG
ZJHK,2020-05-06 04:00,ZJHK 060400Z 16005MPS 120V210 CAVOK 36/23 Q1007 NOSIG
ZJHK,2020-05-06 05:00,ZJHK 060500Z VRB03MPS CAVOK 37/23 Q1007 NOSIG
ZJHK,2020-05-06 06:00,ZJHK 060600Z 18004MPS 100V230 CAVOK 38/23 Q1005 NOSIG
ZJHK,2020-05-06 07:00,ZJHK 060700Z 22004MPS 180V250 CAVOK 39/23 Q1004 NOSIG
ZJHK,2020-05-06 08:00,ZJHK 060800Z 21003MPS 130V250 CAVOK 39/22 Q1004 NOSIG
ZJHK,2020-05-06 09:00,ZJHK 060900Z 14006MPS CAVOK 36/26 Q1003 NOSIG
ZJHK,2020-05-06 10:00,ZJHK 061000Z 14005MPS 100V160 CAVOK 35/26 Q1003 NOSIG
ZJHK,2020-05-06 11:00,ZJHK 061100Z 13004MPS 100V160 CAVOK 33/25 Q1004 NOSIG
ZJHK,2020-05-06 12:00,ZJHK 061200Z 16003MPS 120V200 CAVOK 31/25 Q1005 NOSIG
ZJHK,2020-05-06 13:00,ZJHK 061300Z 15003MPS 120V190 CAVOK 30/25 Q1006 NOSIG
ZJHK,2020-05-06 14:00,ZJHK 061400Z 16005MPS 130V190 CAVOK 29/25 Q1006 NOSIG
ZJHK,2020-05-06 15:00,ZJHK 061500Z 16003MPS 120V200 CAVOK 28/25 Q1007 NOSIG
ZJHK,2020-05-06 16:00,ZJHK 061600Z 17004MPS 140V200 CAVOK 28/24 Q1007 NOSIG
ZJHK,2020-05-06 17:00,ZJHK 061700Z 15002MPS 110V190 CAVOK 28/24 Q1006 NOSIG
ZJHK,2020-05-06 18:00,ZJHK 061800Z 14003MPS 100V180 CAVOK 27/24 Q1006 NOSIG
ZJHK,2020-05-06 19:00,ZJHK 061900Z 15004MPS 120V190 CAVOK 27/24 Q1005 NOSIG
ZJHK,2020-05-06 20:00,ZJHK 062000Z 16003MPS 120V200 CAVOK 27/24 Q1005 NOSIG
ZJHK,2020-05-06 21:00,ZJHK 062100Z 15004MPS CAVOK 27/24 Q1005 NOSIG
ZJHK,2020-05-06 22:00,ZJHK 062200Z 16004MPS 130V200 CAVOK 27/24 Q1006 NOSIG
ZJHK,2020-05-06 23:00,ZJHK 062300Z 16003MPS 120V200 CAVOK 27/24 Q1006 NOSIG
ZJHK,2020-05-07 00:00,ZJHK 070000Z 16004MPS 130V200 CAVOK 29/25 Q1007 NOSIG
ZJHK,2020-05-07 01:00,ZJHK 070100Z 18006MPS 140V220 CAVOK 31/25 Q1008 NOSIG
ZJHK,2020-05-07 02:00,ZJHK 070200Z 15005MPS 110V180 CAVOK 33/24 Q1008 NOSIG
ZJHK,2020-05-07 03:00,ZJHK 070300Z 16005MPS 120V210 CAVOK 35/24 Q1007 NOSIG
ZJHK,2020-05-07 04:00,ZJHK 070400Z 17005MPS 130V210 CAVOK 36/24 Q1007 NOSIG
ZJHK,2020-05-07 05:00,ZJHK 070500Z 17005MPS 130V230 CAVOK 37/24 Q1006 NOSIG
ZJHK,2020-05-07 06:00,ZJHK 070600Z 18004MPS 140V220 CAVOK 38/24 Q1005 NOSIG
ZJHK,2020-05-07 07:00,ZJHK 070700Z 17004G09MPS 100V230 CAVOK 39/24 Q1004 NOSIG
ZJHK,2020-05-07 08:00,ZJHK 070800Z 14005MPS 110V200 CAVOK 38/24 Q1003 NOSIG
ZJHK,2020-05-07 09:00,ZJHK 070900Z 12006MPS 090V150 CAVOK 37/25 Q1003 NOSIG
ZJHK,2020-05-07 10:00,ZJHK 071000Z 14006MPS CAVOK 34/25 Q1003 NOSIG
ZJHK,2020-05-07 11:00,ZJHK 071100Z 14003MPS 100V200 CAVOK 32/26 Q1003 NOSIG
ZJHK,2020-05-07 12:00,ZJHK 071200Z 14003MPS 110V170 CAVOK 31/25 Q1004 NOSIG
ZJHK,2020-05-07 13:00,ZJHK 071300Z 15003MPS 120V180 CAVOK 30/25 Q1005 NOSIG
ZJHK,2020-05-07 14:00,ZJHK 071400Z 15003MPS 120V180 CAVOK 29/25 Q1005 NOSIG
ZJHK,2020-05-07 15:00,ZJHK 071500Z 16004MPS 130V190 CAVOK 29/24 Q1005 NOSIG
ZJHK,2020-05-07 16:00,ZJHK 071600Z 17004MPS 140V200 CAVOK 28/24 Q1006 NOSIG
ZJHK,2020-05-07 17:00,ZJHK 071700Z 16003MPS 130V190 CAVOK 28/24 Q1006 NOSIG
ZJHK,2020-05-07 18:00,ZJHK 071800Z 16002MPS 130V190 CAVOK 28/24 Q1005 NOSIG
ZJHK,2020-05-07 19:00,ZJHK 071900Z 16004MPS 110V180 CAVOK 28/23 Q1004 NOSIG
ZJHK,2020-05-07 20:00,ZJHK 072000Z 15004MPS 130V190 CAVOK 27/23 Q1004 NOSIG
ZJHK,2020-05-07 21:00,ZJHK 072100Z 16004MPS 140V200 CAVOK 27/23 Q1005 NOSIG
ZJHK,2020-05-07 22:00,ZJHK 072200Z 16004MPS 130V190 CAVOK 27/23 Q1005 NOSIG
ZJHK,2020-05-07 23:00,ZJHK 072300Z 16005MPS 120V200 CAVOK 28/24 Q1006 NOSIG
ZJHK,2020-05-08 00:00,ZJHK 080000Z 18005MPS 140V210 CAVOK 30/24 Q1007 NOSIG
ZJHK,2020-05-08 01:00,ZJHK 080100Z 18005MPS 150V210 CAVOK 31/24 Q1007 NOSIG
ZJHK,2020-05-08 02:00,ZJHK 080200Z 18005MPS 130V210 CAVOK 33/24 Q1007 NOSIG
ZJHK,2020-05-08 03:00,ZJHK 080300Z 18004MPS 140V210 CAVOK 35/24 Q1007 NOSIG
ZJHK,2020-05-08 04:00,ZJHK 080400Z 15004MPS 100V210 CAVOK 36/24 Q1007 NOSIG
ZJHK,2020-05-08 05:00,ZJHK 080500Z 17004MPS 110V220 CAVOK 38/23 Q1006 NOSIG
ZJHK,2020-05-08 06:00,ZJHK 080600Z 18004MPS 100V240 CAVOK 39/23 Q1005 NOSIG
ZJHK,2020-05-08 07:00,ZJHK 080700Z 17004MPS 140V210 9999 FEW040 39/23 Q1004 NOSIG
ZJHK,2020-05-08 08:00,ZJHK 080800Z 16003MPS 110V230 9999 FEW040 40/24 Q1003 NOSIG
ZJHK,2020-05-08 09:00,ZJHK 080900Z 11006MPS 9999 FEW040 36/27 Q1003 NOSIG
ZJHK,2020-05-08 10:00,ZJHK 081000Z 13005MPS 090V160 CAVOK 34/25 Q1003 NOSIG
ZJHK,2020-05-08 11:00,ZJHK 081100Z 14005MPS 090V170 CAVOK 32/25 Q1004 NOSIG
ZJHK,2020-05-08 12:00,ZJHK 081200Z 13003MPS 090V180 CAVOK 30/25 Q1005 NOSIG
ZJHK,2020-05-08 13:00,ZJHK 081300Z 14004MPS 100V170 CAVOK 29/25 Q1005 NOSIG
ZJHK,2020-05-08 14:00,ZJHK 081400Z 14004MPS 110V190 CAVOK 29/25 Q1006 NOSIG
ZJHK,2020-05-08 15:00,ZJHK 081500Z 15003MPS 120V180 CAVOK 28/25 Q1007 NOSIG
ZJHK,2020-05-08 16:00,ZJHK 081600Z 16004MPS 120V190 CAVOK 28/25 Q1007 NOSIG
ZJHK,2020-05-08 17:00,ZJHK 081700Z 16003MPS 130V210 CAVOK 28/25 Q1007 NOSIG
ZJHK,2020-05-08 18:00,ZJHK 081800Z 16003MPS 130V190 CAVOK 28/25 Q1007 NOSIG
ZJHK,2020-05-08 19:00,ZJHK 081900Z 16003MPS 120V200 CAVOK 28/25 Q1006 NOSIG
ZJHK,2020-05-08 20:00,ZJHK 082000Z 15003MPS 120V180 CAVOK 28/25 Q1006 NOSIG
ZJHK,2020-05-08 21:00,ZJHK 082100Z 16003MPS 130V200 CAVOK 27/25 Q1006 NOSIG
ZJHK,2020-05-08 22:00,ZJHK 082200Z 16003MPS 120V190 CAVOK 27/25 Q1007 NOSIG
ZJHK,2020-05-08 23:00,ZJHK 082300Z 18002MPS 140V230 CAVOK 28/25 Q1007 NOSIG
ZJHK,2020-05-09 00:00,ZJHK 090000Z 18004MPS 150V220 CAVOK 29/25 Q1008 NOSIG
ZJHK,2020-05-09 01:00,ZJHK 090100Z 16004MPS 130V190 CAVOK 31/25 Q1008 NOSIG
ZJHK,2020-05-09 02:00,ZJHK 090200Z 20004MPS 150V240 CAVOK 33/25 Q1008 NOSIG
ZJHK,2020-05-09 03:00,ZJHK 090300Z 21004MPS 160V240 CAVOK 35/25 Q1008 NOSIG
ZJHK,2020-05-09 04:00,ZJHK 090400Z 20003MPS 120V240 CAVOK 37/26 Q1007 NOSIG
ZJHK,2020-05-09 05:00,ZJHK 090500Z 24003MPS 190V310 9999 FEW023 38/25 Q1007 NOSIG
ZJHK,2020-05-09 06:00,ZJHK 090600Z 33005MPS 9999 SCT026 37/26 Q1006 NOSIG
ZJHK,2020-05-09 07:00,ZJHK 090700Z 34004MPS 300V050 9999 FEW026 38/26 Q1006 NOSIG
ZJHK,2020-05-09 08:00,ZJHK 090800Z 36004MPS 310V050 9999 FEW026CB 38/26 Q1005 NOSIG
ZJHK,2020-05-09 09:00,ZJHK 090900Z 36005MPS CAVOK 34/25 Q1005 BECMG TL1050 09003MPS
ZJHK,2020-05-09 10:00,ZJHK 091000Z 04002MPS 360V080 CAVOK 33/25 Q1005 NOSIG
ZJHK,2020-05-09 11:00,ZJHK 091100Z VRB01MPS CAVOK 32/26 Q1005 NOSIG
ZJHK,2020-05-09 12:00,ZJHK 091200Z 11004MPS 090V150 CAVOK 30/26 Q1006 NOSIG
ZJHK,2020-05-09 13:00,ZJHK 091300Z 16002MPS 120V190 CAVOK 30/26 Q1007 NOSIG
ZJHK,2020-05-09 14:00,ZJHK 091400Z 16002MPS 120V200 CAVOK 29/26 Q1008 NOSIG
ZJHK,2020-05-09 15:00,ZJHK 091500Z 18002MPS 150V210 CAVOK 29/26 Q1009 NOSIG
ZJHK,2020-05-09 16:00,ZJHK 091600Z 17001MPS CAVOK 29/26 Q1008 NOSIG
ZJHK,2020-05-09 17:00,ZJHK 091700Z 00000MPS CAVOK 28/25 Q1008 NOSIG
ZJHK,2020-05-09 18:00,ZJHK 091800Z VRB01MPS CAVOK 28/26 Q1007 NOSIG
ZJHK,2020-05-09 19:00,ZJHK 091900Z 00000MPS CAVOK 28/26 Q1007 NOSIG
ZJHK,2020-05-09 20:00,ZJHK 092000Z 14002MPS 120V180 CAVOK 28/25 Q1007 NOSIG
ZJHK,2020-05-09 21:00,ZJHK 092100Z 15002MPS 110V180 CAVOK 27/26 Q1007 NOSIG
ZJHK,2020-05-09 22:00,ZJHK 092200Z VRB01MPS CAVOK 27/25 Q1008 NOSIG
ZJHK,2020-05-09 23:00,ZJHK 092300Z 21002MPS 150V240 CAVOK 28/26 Q1008 NOSIG
ZJHK,2020-05-10 00:00,ZJHK 100000Z 19002MPS 140V230 CAVOK 29/26 Q1009 NOSIG
ZJHK,2020-05-10 01:00,ZJHK 100100Z VRB02MPS CAVOK 31/26 Q1009 NOSIG
ZJHK,2020-05-10 02:00,ZJHK 100200Z 20002MPS 140V250 CAVOK 34/27 Q1009 NOSIG
ZJHK,2020-05-10 03:00,ZJHK 100300Z 18003MPS 110V240 9999 FEW030 35/27 Q1009 NOSIG
ZJHK,2020-05-10 04:00,ZJHK 100400Z 23002MPS 130V300 9999 BKN030 36/26 Q1009 NOSIG
ZJHK,2020-05-10 05:00,ZJHK 100500Z 33005MPS 290V040 9999 SCT033 36/26 Q1008 NOSIG
ZJHK,2020-05-10 06:00,ZJHK 100600Z 02005MPS 350V060 9999 FEW033TCU SCT033 36/26 Q1008 NOSIG
ZJHK,2020-05-10 07:00,ZJHK 100700Z 01005MPS 330V050 9999 FEW033TCU FEW033 36/26 Q1007 BECMG AT0740 -TSRA
ZJHK,2020-05-10 08:00,ZJHK 100800Z 36006MPS 9999 TS FEW026CB SCT033 31/26 Q1007 BECMG AT0900 TSRA
ZJHK,2020-05-10 09:00,ZJHK 100900Z 22010G17MPS 190V250 9999 TS SCT020CB BKN026 27/22 Q1009 BECMG TL0920 TSRA
ZJHK,2020-05-10 10:00,ZJHK 101000Z 10004MPS 060V140 9999 FEW040 27/22 Q1007 RETS NOSIG
ZJHK,2020-05-10 11:00,ZJHK 101100Z VRB02MPS 9999 FEW040 27/23 Q1006 NOSIG
ZJHK,2020-05-10 12:00,ZJHK 101200Z 20003MPS 170V240 9999 FEW040 27/23 Q1007 NOSIG
ZJHK,2020-05-10 13:00,ZJHK 101300Z 18003MPS 150V210 9999 FEW040 26/22 Q1009 NOSIG
ZJHK,2020-05-10 14:00,ZJHK 101400Z 12002MPS 090V160 9999 FEW040 26/21 Q1009 NOSIG
ZJHK,2020-05-10 15:00,ZJHK 101500Z 09002MPS 9999 FEW040 26/22 Q1010 NOSIG
ZJHK,2020-05-10 16:00,ZJHK 101600Z 13002MPS CAVOK 26/22 Q1010 NOSIG
ZJHK,2020-05-10 17:00,ZJHK 101700Z VRB01MPS CAVOK 25/22 Q1009 NOSIG
ZJHK,2020-05-10 18:00,ZJHK 101800Z 11002MPS CAVOK 25/22 Q1008 NOSIG
ZJHK,2020-05-10 19:00,ZJHK 101900Z 11003MPS CAVOK 25/23 Q1008 NOSIG
ZJHK,2020-05-10 20:00,ZJHK 102000Z 12002MPS 090V150 CAVOK 25/24 Q1008 NOSIG
ZJHK,2020-05-10 21:00,ZJHK 102100Z 15003MPS 120V180 CAVOK 26/25 Q1008 NOSIG
ZJHK,2020-05-10 22:00,ZJHK 102200Z 16003MPS 130V200 CAVOK 27/25 Q1008 NOSIG
ZJHK,2020-05-10 23:00,ZJHK 102300Z 15002MPS 120V190 CAVOK 27/25 Q1009 NOSIG
ZJHK,2020-05-11 00:00,ZJHK 110000Z 16002MPS 110V200 CAVOK 28/26 Q1010 NOSIG
ZJHK,2020-05-11 01:00,ZJHK 110100Z 17004MPS 120V200 CAVOK 30/26 Q1010 NOSIG
ZJHK,2020-05-11 02:00,ZJHK 110200Z 20004MPS 170V240 CAVOK 32/25 Q1011 NOSIG
ZJHK,2020-05-11 03:00,ZJHK 110300Z 18003MPS 120V240 CAVOK 33/25 Q1010 NOSIG
ZJHK,2020-05-11 04:00,ZJHK 110400Z VRB03MPS CAVOK 34/25 Q1009 NOSIG
ZJHK,2020-05-11 05:00,ZJHK 110500Z VRB02MPS 9999 FEW040 36/25 Q1009 NOSIG
ZJHK,2020-05-11 06:00,ZJHK 110600Z 34004MPS 300V030 9999 FEW040 34/25 Q1008 NOSIG
ZJHK,2020-05-11 07:00,ZJHK 110700Z 36004MPS 9999 FEW040TCU FEW040 35/26 Q1007 NOSIG
ZJHK,2020-05-11 08:00,ZJHK 110800Z 33004MPS 300V020 9999 TS FEW026CB SCT040 33/25 Q1007 BECMG AT1000 -SHRA
ZJHK,2020-05-11 09:00,ZJHK 110900Z VRB02MPS 9999 FEW040 34/24 Q1006 RETS NOSIG
ZJHK,2020-05-11 10:00,ZJHK 111000Z 14004MPS 9999 FEW033TCU FEW033 32/25 Q1007 NOSIG
ZJHK,2020-05-11 11:00,ZJHK 111100Z 16003MPS 120V240 9999 FEW040 26/23 Q1006 NOSIG
ZJHK,2020-05-11 12:00,ZJHK 111200Z 18002MPS 140V240 CAVOK 26/23 Q1008 NOSIG
ZJHK,2020-05-11 13:00,ZJHK 111300Z 17003MPS 140V210 CAVOK 26/23 Q1009 NOSIG
ZJHK,2020-05-11 14:00,ZJHK 111400Z 26002MPS CAVOK 25/23 Q1009 NOSIG
ZJHK,2020-05-11 15:00,ZJHK 111500Z VRB01MPS CAVOK 26/23 Q1010 NOSIG
ZJHK,2020-05-11 16:00,ZJHK 111600Z VRB01MPS CAVOK 26/24 Q1010 NOSIG
ZJHK,2020-05-11 17:00,ZJHK 111700Z 13001MPS CAVOK 26/24 Q1010 NOSIG
ZJHK,2020-05-11 18:00,ZJHK 111800Z VRB01MPS CAVOK 26/23 Q1009 NOSIG
ZJHK,2020-05-11 19:00,ZJHK 111900Z 12002MPS 9999 FEW016 25/23 Q1009 NOSIG
ZJHK,2020-05-11 20:00,ZJHK 112000Z 12001MPS 9999 FEW015 25/24 Q1009 NOSIG
ZJHK,2020-05-11 21:00,ZJHK 112100Z VRB01MPS CAVOK 25/24 Q1010 NOSIG
ZJHK,2020-05-11 22:00,ZJHK 112200Z 00000MPS 9999 FEW007 BKN023 26/24 Q1010 NOSIG
ZJHK,2020-05-11 23:00,ZJHK 112300Z 10002MPS 9999 BKN013 BKN046 26/25 Q1010 NOSIG
ZJHK,2020-05-12 00:00,ZJHK 120000Z 09002MPS 060V130 9999 BKN013 BKN033 27/26 Q1012 NOSIG
ZJHK,2020-05-12 01:00,ZJHK 120100Z 05004MPS 9999 -SHRA SCT010 BKN018 FEW020TCU 26/24 Q1012 NOSIG
ZJHK,2020-05-12 02:00,ZJHK 120200Z 11004MPS 080V160 9999 FEW020 30/26 Q1012 NOSIG
ZJHK,2020-05-12 03:00,ZJHK 120300Z 11004MPS 070V170 9999 BKN020 32/25 Q1012 NOSIG
ZJHK,2020-05-12 04:00,ZJHK 120400Z 07005MPS 040V130 9999 -SHRA FEW020CB BKN023 31/24 Q1011 BECMG TL0420 -TSRA
ZJHK,2020-05-12 05:00,ZJHK 120500Z 10004MPS 070V130 9999 SCT023 SCT040 32/26 Q1010 NOSIG
ZJHK,2020-05-12 06:00,ZJHK 120600Z 08005MPS 050V110 9999 BKN023 FEW026TCU 34/25 Q1009 NOSIG
ZJHK,2020-05-12 07:00,ZJHK 120700Z 06005MPS 9999 FEW023 FEW026CB 32/24 Q1009 NOSIG
ZJHK,2020-05-12 08:00,ZJHK 120800Z 04005MPS 9999 -TSRA SCT026CB SCT033 30/24 Q1009 BECMG TL0820 27010G15MPS 2000 TSRA
ZJHK,2020-05-12 09:00,ZJHK 120900Z 19004MPS 130V230 6000 -TSRA FEW010 FEW026CB SCT033 23/22 Q1010 RESHRA BECMG TL0950 NSW
ZJHK,2020-05-12 10:00,ZJHK 121000Z 03002MPS 350V060 9999 FEW010 24/23 Q1009 RETS NOSIG
ZJHK,2020-05-12 11:00,ZJHK 121100Z 02002MPS 350V060 CAVOK 25/23 Q1009 NOSIG
ZJHK,2020-05-12 12:00,ZJHK 121200Z 00000MPS CAVOK 25/23 Q1010 NOSIG
ZJHK,2020-05-12 13:00,ZJHK 121300Z 19003MPS 150V210 9999 BKN014 24/23 Q1011 NOSIG
ZJHK,2020-05-12 14:00,ZJHK 121400Z VRB01MPS 9999 FEW012 24/23 Q1012 NOSIG
ZJHK,2020-05-12 15:00,ZJHK 121500Z 19001MPS 8000 NSC 24/23 Q1012 NOSIG
ZJHK,2020-05-12 16:00,ZJHK 121600Z 00000MPS 9000 SCT046 24/23 Q1011 NOSIG
ZJHK,2020-05-12 17:00,ZJHK 121700Z 00000MPS 9000 BKN046 24/23 Q1011 NOSIG
ZJHK,2020-05-12 18:00,ZJHK 121800Z 00000MPS CAVOK 24/23 Q1010 NOSIG
ZJHK,2020-05-12 19:00,ZJHK 121900Z 11001MPS CAVOK 24/23 Q1010 NOSIG
ZJHK,2020-05-12 20:00,ZJHK 122000Z VRB01MPS CAVOK 24/24 Q1010 NOSIG
ZJHK,2020-05-12 21:00,ZJHK 122100Z 00000MPS 6000 BKN010 25/24 Q1011 NOSIG
ZJHK,2020-05-12 22:00,ZJHK 122200Z 11001MPS 6000 FEW010 SCT033 25/24 Q1011 NOSIG
ZJHK,2020-05-12 23:00,ZJHK 122300Z 09002MPS 8000 BKN033 25/25 Q1011 NOSIG
ZJHK,2020-05-13 00:00,ZJHK 130000Z 12002MPS 080V180 9999 FEW040 27/26 Q1012 NOSIG
ZJHK,2020-05-13 01:00,ZJHK 130100Z 13004MPS 100V160 9999 FEW020 29/27 Q1012 NOSIG
ZJHK,2020-05-13 02:00,ZJHK 130200Z 14003MPS 110V200 9999 BKN020 30/26 Q1012 NOSIG
ZJHK,2020-05-13 03:00,ZJHK 130300Z 13002MPS 050V190 9999 BKN030 31/25 Q1012 NOSIG
ZJHK,2020-05-13 04:00,ZJHK 130400Z 14003MPS 090V170 9999 BKN030 33/25 Q1011 NOSIG
ZJHK,2020-05-13 05:00,ZJHK 130500Z 12003MPS 080V170 9999 BKN030 32/25 Q1010 NOSIG
ZJHK,2020-05-13 06:00,ZJHK 130600Z 13002MPS 080V200 9999 FEW030TCU SCT030 34/24 Q1009 NOSIG
ZJHK,2020-05-13 07:00,ZJHK 130700Z VRB03MPS 9999 FEW030TCU SCT030 33/24 Q1008 NOSIG
ZJHK,2020-05-13 08:00,ZJHK 130800Z 09004MPS 060V120 9999 FEW030TCU SCT030 32/24 Q1008 NOSIG
ZJHK,2020-05-13 09:00,ZJHK 130900Z 10006MPS 070V130 9999 FEW023TCU SCT033 32/23 Q1007 NOSIG
ZJHK,2020-05-13 10:00,ZJHK 131000Z 12005MPS 100V160 9999 FEW023CB BKN040 30/23 Q1008 NOSIG
ZJHK,2020-05-13 11:00,ZJHK 131100Z 13004MPS 100V170 9999 FEW046 29/24 Q1009 NOSIG
ZJHK,2020-05-13 12:00,ZJHK 131200Z 11002MPS 060V150 9999 FEW046 28/24 Q1010 NOSIG
ZJHK,2020-05-13 13:00,ZJHK 131300Z VRB01MPS 9999 FEW046 27/24 Q1011 NOSIG
ZJHK,2020-05-13 14:00,ZJHK 131400Z 12002MPS CAVOK 27/24 Q1011 NOSIG
ZJHK,2020-05-13 15:00,ZJHK 131500Z VRB01MPS CAVOK 26/24 Q1011 NOSIG
ZJHK,2020-05-13 16:00,ZJHK 131600Z VRB01MPS CAVOK 26/25 Q1011 NOSIG
ZJHK,2020-05-13 17:00,ZJHK 131700Z 14002MPS 080V170 CAVOK 26/25 Q1010 NOSIG
ZJHK,2020-05-13 18:00,ZJHK 131800Z 11002MPS 080V160 CAVOK 26/24 Q1010 NOSIG
ZJHK,2020-05-13 19:00,ZJHK 131900Z 14001MPS CAVOK 26/24 Q1010 NOSIG
ZJHK,2020-05-13 20:00,ZJHK 132000Z 14001MPS CAVOK 26/24 Q1010 NOSIG
ZJHK,2020-05-13 21:00,ZJHK 132100Z 14001MPS CAVOK 25/24 Q1010 NOSIG
ZJHK,2020-05-13 22:00,ZJHK 132200Z 17001MPS CAVOK 25/24 Q1011 NOSIG
ZJHK,2020-05-13 23:00,ZJHK 132300Z 17002MPS 130V200 CAVOK 26/25 Q1011 NOSIG
ZJHK,2020-05-14 00:00,ZJHK 140000Z 18004MPS CAVOK 28/25 Q1011 NOSIG
ZJHK,2020-05-14 01:00,ZJHK 140100Z 19003MPS 150V230 9999 SCT026 30/25 Q1012 NOSIG
ZJHK,2020-05-14 02:00,ZJHK 140200Z 20004MPS 160V230 9999 SCT020 30/24 Q1012 NOSIG
ZJHK,2020-05-14 03:00,ZJHK 140300Z 17004MPS 070V240 9999 SCT020 32/24 Q1011 NOSIG
ZJHK,2020-05-14 04:00,ZJHK 140400Z 22004MPS 170V250 9999 SCT023 33/24 Q1011 NOSIG
ZJHK,2020-05-14 05:00,ZJHK 140500Z 17003MPS 120V220 9999 SCT040 34/23 Q1009 NOSIG
ZJHK,2020-05-14 06:00,ZJHK 140600Z 21004MPS 160V290 9999 SCT046 34/22 Q1008 NOSIG
ZJHK,2020-05-14 07:00,ZJHK 140700Z 20003MPS 170V240 9999 SCT046 35/22 Q1007 NOSIG
ZJHK,2020-05-14 08:00,ZJHK 140800Z VRB01MPS 9999 FEW046 37/23 Q1006 NOSIG
ZJHK,2020-05-14 09:00,ZJHK 140900Z 34004MPS 310V030 9999 SCT040 33/23 Q1006 NOSIG
ZJHK,2020-05-14 10:00,ZJHK 141000Z 13002MPS 100V200 9999 SCT040 32/23 Q1006 NOSIG
ZJHK,2020-05-14 11:00,ZJHK 141100Z 13003MPS 100V160 CAVOK 30/22 Q1007 NOSIG
ZJHK,2020-05-14 12:00,ZJHK 141200Z 14003MPS 110V170 CAVOK 29/23 Q1007 NOSIG
ZJHK,2020-05-14 13:00,ZJHK 141300Z 14002MPS 110V170 CAVOK 28/24 Q1007 NOSIG
ZJHK,2020-05-14 14:00,ZJHK 141400Z 15003MPS 120V180 CAVOK 28/25 Q1008 NOSIG
ZJHK,2020-05-14 15:00,ZJHK 141500Z 15002MPS 120V220 CAVOK 27/25 Q1008 NOSIG
ZJHK,2020-05-14 16:00,ZJHK 141600Z 14003MPS 100V180 CAVOK 27/25 Q1008 NOSIG
ZJHK,2020-05-14 17:00,ZJHK 141700Z 14004MPS 120V180 CAVOK 27/25 Q1007 NOSIG
ZJHK,2020-05-14 18:00,ZJHK 141800Z 16003MPS 130V200 CAVOK 27/25 Q1007 NOSIG
ZJHK,2020-05-14 19:00,ZJHK 141900Z 16002MPS 120V180 CAVOK 26/25 Q1007 NOSIG
ZJHK,2020-05-14 20:00,ZJHK 142000Z VRB01MPS CAVOK 26/24 Q1006 NOSIG
ZJHK,2020-05-14 21:00,ZJHK 142100Z 14003MPS 120V180 CAVOK 26/24 Q1006 NOSIG
ZJHK,2020-05-14 22:00,ZJHK 142200Z 15002MPS 110V200 CAVOK 26/25 Q1007 NOSIG
ZJHK,2020-05-14 23:00,ZJHK 142300Z 15003MPS 110V180 CAVOK 27/25 Q1007 NOSIG
ZJHK,2020-05-15 00:00,ZJHK 150000Z 16005MPS 110V190 9999 FEW023 28/25 Q1007 NOSIG
ZJHK,2020-05-15 01:00,ZJHK 150100Z 17004G09MPS 9999 FEW016 30/25 Q1008 NOSIG
ZJHK,2020-05-15 02:00,ZJHK 150200Z 17005MPS 120V210 9999 FEW026 32/25 Q1007 NOSIG
ZJHK,2020-05-15 03:00,ZJHK 150300Z 16005MPS 120V210 9999 FEW026 33/24 Q1007 NOSIG
ZJHK,2020-05-15 04:00,ZJHK 150400Z 15004MPS 120V180 9999 FEW030 34/24 Q1006 NOSIG
ZJHK,2020-05-15 05:00,ZJHK 150500Z 18004MPS 140V250 9999 FEW030 35/23 Q1005 NOSIG
ZJHK,2020-05-15 06:00,ZJHK 150600Z VRB03MPS 9999 FEW030 36/22 Q1004 NOSIG
ZJHK,2020-05-15 07:00,ZJHK 150700Z 17003MPS 110V240 9999 SCT030 37/23 Q1004 NOSIG
ZJHK,2020-05-15 08:00,ZJHK 150800Z 14005MPS 100V170 9999 FEW030 35/25 Q1003 NOSIG
ZJHK,2020-05-15 09:00,ZJHK 150900Z 14006MPS 100V170 9999 FEW030 34/25 Q1003 NOSIG
ZJHK,2020-05-15 10:00,ZJHK 151000Z 13006MPS 090V160 CAVOK 32/25 Q1003 NOSIG
ZJHK,2020-05-15 11:00,ZJHK 151100Z 14005MPS 110V170 9999 FEW026 30/25 Q1004 NOSIG
ZJHK,2020-05-15 12:00,ZJHK 151200Z 14005MPS 090V170 9999 FEW026 29/25 Q1005 NOSIG
ZJHK,2020-05-15 13:00,ZJHK 151300Z 14004MPS 110V180 9999 FEW016 29/25 Q1005 NOSIG
ZJHK,2020-05-15 14:00,ZJHK 151400Z 14004MPS 9999 SCT013 29/26 Q1006 NOSIG
ZJHK,2020-05-15 15:00,ZJHK 151500Z 15004MPS 120V180 9999 SCT013 28/26 Q1007 NOSIG
ZJHK,2020-05-15 16:00,ZJHK 151600Z 15004MPS 9999 FEW013 28/25 Q1006 NOSIG
ZJHK,2020-05-15 17:00,ZJHK 151700Z 15004MPS 100V190 9999 FEW013 28/25 Q1006 NOSIG
ZJHK,2020-05-15 18:00,ZJHK 151800Z 15004MPS CAVOK 28/25 Q1006 NOSIG
ZJHK,2020-05-15 19:00,ZJHK 151900Z 14003MPS 100V170 CAVOK 27/25 Q1005 NOSIG
ZJHK,2020-05-15 20:00,ZJHK 152000Z 16002MPS 120V190 CAVOK 27/25 Q1005 NOSIG
ZJHK,2020-05-15 21:00,ZJHK 152100Z 14002MPS 100V180 CAVOK 27/25 Q1006 NOSIG
ZJHK,2020-05-15 22:00,ZJHK 152200Z 14003MPS CAVOK 27/25 Q1006 NOSIG
ZJHK,2020-05-15 23:00,ZJHK 152300Z 13004MPS CAVOK 27/25 Q1007 NOSIG
ZJHK,2020-05-16 00:00,ZJHK 160000Z 17004MPS 140V200 CAVOK 29/26 Q1007 NOSIG
ZJHK,2020-05-16 01:00,ZJHK 160100Z 17004MPS 140V220 9999 FEW020 31/25 Q1008 NOSIG
ZJHK,2020-05-16 02:00,ZJHK 160200Z 20003MPS 150V270 9999 FEW026 32/25 Q1008 NOSIG
ZJHK,2020-05-16 03:00,ZJHK 160300Z VRB02MPS 9999 SCT026 33/24 Q1007 NOSIG
ZJHK,2020-05-16 04:00,ZJHK 160400Z 22002MPS 160V290 9999 SCT026 35/25 Q1007 NOSIG
ZJHK,2020-05-16 05:00,ZJHK 160500Z 24002MPS 190V300 9999 SCT030 36/24 Q1006 NOSIG
ZJHK,2020-05-16 06:00,ZJHK 160600Z VRB02MPS 9999 SCT030 37/23 Q1005 NOSIG
ZJHK,2020-05-16 07:00,ZJHK 160700Z 11006MPS 090V150 9999 SCT040 34/26 Q1004 NOSIG
ZJHK,2020-05-16 08:00,ZJHK 160800Z 12006MPS 100V160 9999 FEW040 35/25 Q1003 NOSIG
ZJHK,2020-05-16 09:00,ZJHK 160900Z 12006MPS 9999 FEW040 34/25 Q1002 NOSIG
ZJHK,2020-05-16 10:00,ZJHK 161000Z 14005MPS 110V170 9999 FEW040 32/25 Q1003 NOSIG
ZJHK,2020-05-16 11:00,ZJHK 161100Z 12004MPS 080V160 CAVOK 30/24 Q1003 NOSIG
ZJHK,2020-05-16 12:00,ZJHK 161200Z 13004MPS 080V160 CAVOK 29/24 Q1005 NOSIG
ZJHK,2020-05-16 13:00,ZJHK 161300Z 13003MPS 090V170 CAVOK 29/25 Q1005 NOSIG
ZJHK,2020-05-16 14:00,ZJHK 161400Z 12002MPS 9999 FEW013 28/25 Q1006 NOSIG
ZJHK,2020-05-16 15:00,ZJHK 161500Z 10003MPS 080V140 9999 FEW013 28/25 Q1006 NOSIG
ZJHK,2020-05-16 16:00,ZJHK 161600Z 12002MPS CAVOK 28/25 Q1006 NOSIG
ZJHK,2020-05-16 17:00,ZJHK 161700Z 11002MPS CAVOK 27/25 Q1006 NOSIG
ZJHK,2020-05-16 18:00,ZJHK 161800Z 12002MPS CAVOK 27/25 Q1005 NOSIG
ZJHK,2020-05-16 19:00,ZJHK 161900Z 11002MPS 090V150 CAVOK 27/25 Q1005 NOSIG
ZJHK,2020-05-16 20:00,ZJHK 162000Z VRB01MPS CAVOK 26/25 Q1005 NOSIG
ZJHK,2020-05-16 21:00,ZJHK 162100Z 09001MPS CAVOK 26/25 Q1005 NOSIG
ZJHK,2020-05-16 22:00,ZJHK 162200Z 15002MPS 110V190 CAVOK 26/25 Q1005 NOSIG
ZJHK,2020-05-16 23:00,ZJHK 162300Z 13003MPS 100V170 CAVOK 27/26 Q1005 NOSIG
ZJHK,2020-05-17 00:00,ZJHK 170000Z 16004MPS 110V210 CAVOK 29/25 Q1006 NOSIG
ZJHK,2020-05-17 01:00,ZJHK 170100Z 16005MPS CAVOK 31/25 Q1006 NOSIG
ZJHK,2020-05-17 02:00,ZJHK 170200Z 17005MPS 130V220 9999 FEW023 33/25 Q1006 NOSIG
ZJHK,2020-05-17 03:00,ZJHK 170300Z 19005MPS 150V240 9999 FEW023 34/24 Q1005 NOSIG
ZJHK,2020-05-17 04:00,ZJHK 170400Z 21004MPS 160V270 9999 SCT030 34/24 Q1005 NOSIG
ZJHK,2020-05-17 05:00,ZJHK 170500Z 23003MPS 160V290 9999 SCT040 36/24 Q1004 NOSIG
ZJHK,2020-05-17 06:00,ZJHK 170600Z 19003MPS 140V240 9999 SCT040 36/22 Q1003 NOSIG
ZJHK,2020-05-17 07:00,ZJHK 170700Z 18003MPS 130V220 9999 FEW033TCU FEW040 36/22 Q1002 NOSIG
ZJHK,2020-05-17 08:00,ZJHK 170800Z 29007MPS 9999 FEW033TCU FEW040 33/23 Q1003 BECMG TL0930 -TSRA
ZJHK,2020-05-17 09:00,ZJHK 170900Z 31009MPS 9999 FEW033TCU SCT040 31/25 Q1003 BECMG TL1040 06003MPS
ZJHK,2020-05-17 10:00,ZJHK 171000Z 34003MPS 280V040 9999 FEW033TCU 30/23 Q1003 NOSIG
ZJHK,2020-05-17 11:00,ZJHK 171100Z 19002MPS 130V220 9999 SCT023 29/24 Q1003 NOSIG
ZJHK,2020-05-17 12:00,ZJHK 171200Z 24002MPS 210V280 CAVOK 28/24 Q1003 NOSIG
ZJHK,2020-05-17 13:00,ZJHK 171300Z 23002MPS CAVOK 28/24 Q1004 NOSIG
ZJHK,2020-05-17 14:00,ZJHK 171400Z 00000MPS CAVOK 27/23 Q1004 NOSIG
ZJHK,2020-05-17 15:00,ZJHK 171500Z 00000MPS CAVOK 27/24 Q1005 NOSIG
ZJHK,2020-05-17 16:00,ZJHK 171600Z 12002MPS 9999 FEW015 26/24 Q1004 NOSIG
ZJHK,2020-05-17 17:00,ZJHK 171700Z 13002MPS CAVOK 26/24 Q1004 NOSIG
ZJHK,2020-05-17 18:00,ZJHK 171800Z 11002MPS 9999 FEW013 26/24 Q1004 NOSIG
ZJHK,2020-05-17 19:00,ZJHK 171900Z 10002MPS CAVOK 26/24 Q1003 NOSIG
ZJHK,2020-05-17 20:00,ZJHK 172000Z 00000MPS CAVOK 26/24 Q1003 NOSIG
ZJHK,2020-05-17 21:00,ZJHK 172100Z VRB01MPS CAVOK 26/24 Q1003 NOSIG
ZJHK,2020-05-17 22:00,ZJHK 172200Z 21002MPS CAVOK 26/24 Q1004 NOSIG
ZJHK,2020-05-17 23:00,ZJHK 172300Z 26002MPS CAVOK 26/25 Q1004 NOSIG
ZJHK,2020-05-18 00:00,ZJHK 180000Z 24002MPS CAVOK 27/25 Q1005 NOSIG
ZJHK,2020-05-18 01:00,ZJHK 180100Z 24002MPS 160V310 9999 -RA FEW020 BKN040 29/25 Q1005 NOSIG
ZJHK,2020-05-18 02:00,ZJHK 180200Z 21003MPS 180V240 CAVOK 29/25 Q1005 NOSIG
ZJHK,2020-05-18 03:00,ZJHK 180300Z 21003MPS 170V240 CAVOK 32/25 Q1005 NOSIG
ZJHK,2020-05-18 04:00,ZJHK 180400Z 22002MPS 160V280 9999 FEW023 33/25 Q1005 NOSIG
ZJHK,2020-05-18 05:00,ZJHK 180500Z 23003MPS 190V260 9999 SCT023 BKN033 32/24 Q1004 NOSIG
ZJHK,2020-05-18 06:00,ZJHK 180600Z VRB01MPS 9999 FEW026TCU 31/23 Q1003 NOSIG
ZJHK,2020-05-18 07:00,ZJHK 180700Z 03003MPS 360V090 9999 FEW026TCU 33/23 Q1002 NOSIG
ZJHK,2020-05-18 08:00,ZJHK 180800Z 02003MPS 310V080 9999 FEW023 34/23 Q1002 NOSIG
ZJHK,2020-05-18 09:00,ZJHK 180900Z 01006MPS 9999 SCT023 31/23 Q1002 NOSIG
ZJHK,2020-05-18 10:00,ZJHK 181000Z 04005MPS 020V080 9999 FEW026TCU 31/22 Q1002 NOSIG
ZJHK,2020-05-18 11:00,ZJHK 181100Z 08006MPS 9999 SCT023 BKN046 29/22 Q1003 NOSIG
ZJHK,2020-05-18 12:00,ZJHK 181200Z 11004MPS 9999 SCT020 BKN046 28/23 Q1004 NOSIG
ZJHK,2020-05-18 13:00,ZJHK 181300Z 29003MPS 9999 -RA FEW040CB SCT040 27/24 Q1004 NOSIG
ZJHK,2020-05-18 14:00,ZJHK 181400Z 00000MPS 9999 FEW046 26/23 Q1004 NOSIG
ZJHK,2020-05-18 15:00,ZJHK 181500Z 16001MPS CAVOK 26/23 Q1005 NOSIG
ZJHK,2020-05-18 16:00,ZJHK 181600Z 18001MPS CAVOK 25/23 Q1005 NOSIG
ZJHK,2020-05-18 17:00,ZJHK 181700Z 19002MPS CAVOK 25/23 Q1005 NOSIG
ZJHK,2020-05-18 18:00,ZJHK 181800Z 18002MPS CAVOK 25/23 Q1004 NOSIG
ZJHK,2020-05-18 19:00,ZJHK 181900Z VRB01MPS CAVOK 25/23 Q1003 NOSIG
ZJHK,2020-05-18 20:00,ZJHK 182000Z 27002MPS CAVOK 24/23 Q1004 NOSIG
ZJHK,2020-05-18 21:00,ZJHK 182100Z 26002MPS CAVOK 24/23 Q1004 NOSIG
ZJHK,2020-05-18 22:00,ZJHK 182200Z 23002MPS CAVOK 25/24 Q1004 NOSIG
ZJHK,2020-05-18 23:00,ZJHK 182300Z VRB01MPS CAVOK 26/24 Q1004 NOSIG
ZJHK,2020-05-19 00:00,ZJHK 190000Z 23002MPS 170V280 CAVOK 27/24 Q1005 NOSIG
ZJHK,2020-05-19 01:00,ZJHK 190100Z VRB02MPS CAVOK 29/24 Q1006 NOSIG
ZJHK,2020-05-19 02:00,ZJHK 190200Z 02003MPS 320V060 CAVOK 31/24 Q1006 NOSIG
ZJHK,2020-05-19 03:00,ZJHK 190300Z 01003MPS 330V050 9999 FEW030 32/23 Q1006 NOSIG
ZJHK,2020-05-19 04:00,ZJHK 190400Z VRB03MPS 9999 FEW030 32/23 Q1005 NOSIG
ZJHK,2020-05-19 05:00,ZJHK 190500Z 07003MPS 020V150 9999 FEW023 SCT040 34/24 Q1004 NOSIG
ZJHK,2020-05-19 06:00,ZJHK 190600Z 34004MPS 290V040 9999 FEW026CB SCT026 SCT040 34/24 Q1004 NOSIG
ZJHK,2020-05-19 07:00,ZJHK 190700Z 35003MPS 310V060 9999 FEW026TCU FEW026 34/24 Q1003 NOSIG
ZJHK,2020-05-19 08:00,ZJHK 190800Z 02005MPS 350V050 9999 FEW026TCU 34/24 Q1002 NOSIG
ZJHK,2020-05-19 09:00,ZJHK 190900Z 05004MPS 020V080 9999 FEW026CB BKN040 33/24 Q1002 NOSIG
ZJHK,2020-05-19 10:00,ZJHK 191000Z 21002MPS 170V250 9999 FEW026CB SCT040 30/24 Q1003 NOSIG
ZJHK,2020-05-19 11:00,ZJHK 191100Z 20003MPS 160V220 9999 FEW040 28/25 Q1004 NOSIG
ZJHK,2020-05-19 12:00,ZJHK 191200Z 15002MPS 120V190 CAVOK 27/25 Q1003 NOSIG
ZJHK,2020-05-19 13:00,ZJHK 191300Z VRB01MPS CAVOK 26/24 Q1004 NOSIG
ZJHK,2020-05-19 14:00,ZJHK 191400Z 17001MPS CAVOK 26/24 Q1005 NOSIG
ZJHK,2020-05-19 15:00,ZJHK 191500Z 20002MPS 170V230 9999 BKN016 26/24 Q1005 NOSIG
ZJHK,2020-05-19 16:00,ZJHK 191600Z 14002MPS 100V180 9999 BKN016 26/23 Q1005 NOSIG
ZJHK,2020-05-19 17:00,ZJHK 191700Z 14002MPS 100V170 CAVOK 26/24 Q1005 NOSIG
ZJHK,2020-05-19 18:00,ZJHK 191800Z 14002MPS 120V180 CAVOK 26/24 Q1004 NOSIG
ZJHK,2020-05-19 19:00,ZJHK 191900Z 16002MPS 110V190 CAVOK 26/25 Q1004 NOSIG
ZJHK,2020-05-19 20:00,ZJHK 192000Z 13002MPS CAVOK 26/25 Q1004 NOSIG
ZJHK,2020-05-19 21:00,ZJHK 192100Z 17002MPS 130V220 CAVOK 26/25 Q1004 NOSIG
ZJHK,2020-05-19 22:00,ZJHK 192200Z 20003MPS 160V220 CAVOK 27/25 Q1004 NOSIG
ZJHK,2020-05-19 23:00,ZJHK 192300Z 18002MPS 150V210 CAVOK 27/25 Q1004 NOSIG
ZJHK,2020-05-20 00:00,ZJHK 200000Z 19003MPS 160V230 CAVOK 29/26 Q1005 NOSIG
ZJHK,2020-05-20 01:00,ZJHK 200100Z 18003MPS 140V210 CAVOK 31/25 Q1005 NOSIG
ZJHK,2020-05-20 02:00,ZJHK 200200Z 20004MPS 170V240 CAVOK 33/25 Q1005 NOSIG
ZJHK,2020-05-20 03:00,ZJHK 200300Z 21005MPS 170V260 CAVOK 34/25 Q1005 NOSIG
ZJHK,2020-05-20 04:00,ZJHK 200400Z 20005MPS 150V240 CAVOK 36/25 Q1004 NOSIG
ZJHK,2020-05-20 05:00,ZJHK 200500Z 20005MPS 140V240 9999 FEW030 36/25 Q1004 NOSIG
ZJHK,2020-05-20 06:00,ZJHK 200600Z 20004MPS 160V230 9999 FEW030TCU FEW030 37/25 Q1003 NOSIG
ZJHK,2020-05-20 07:00,ZJHK 200700Z 27006G11MPS 9000 -TSRA FEW026CB SCT030 35/25 Q1003 NOSIG
ZJHK,2020-05-20 08:00,ZJHK 200800Z 24002MPS 180V290 9999 FEW030CB SCT040 29/27 Q1002 RETSRA NOSIG
ZJHK,2020-05-20 09:00,ZJHK 200900Z 12002MPS 090V160 9999 FEW030CB 32/28 Q1002 NOSIG
ZJHK,2020-05-20 10:00,ZJHK 201000Z 11001MPS 9999 SCT026 32/28 Q1003 NOSIG
ZJHK,2020-05-20 11:00,ZJHK 201100Z 34002MPS 300V040 9999 FEW030CB SCT033 31/27 Q1003 NOSIG
ZJHK,2020-05-20 12:00,ZJHK 201200Z 04002MPS 020V080 CAVOK 30/28 Q1003 NOSIG
ZJHK,2020-05-20 13:00,ZJHK 201300Z 14001MPS CAVOK 29/28 Q1003 NOSIG
ZJHK,2020-05-20 14:00,ZJHK 201400Z 18003MPS 150V210 CAVOK 29/27 Q1003 NOSIG
ZJHK,2020-05-20 15:00,ZJHK 201500Z 16003MPS 140V200 CAVOK 29/27 Q1004 NOSIG
ZJHK,2020-05-20 16:00,ZJHK 201600Z 16003MPS 130V190 CAVOK 29/27 Q1004 NOSIG
ZJHK,2020-05-20 17:00,ZJHK 201700Z 17004MPS CAVOK 29/27 Q1004 NOSIG
ZJHK,2020-05-20 18:00,ZJHK 201800Z 18004MPS CAVOK 28/26 Q1003 NOSIG
ZJHK,2020-05-20 19:00,ZJHK 201900Z 18003MPS 150V220 CAVOK 28/26 Q1002 NOSIG
ZJHK,2020-05-20 20:00,ZJHK 202000Z 18003MPS 150V210 CAVOK 28/26 Q1002 NOSIG
ZJHK,2020-05-20 21:00,ZJHK 202100Z 17003MPS 130V210 CAVOK 28/26 Q1002 NOSIG
ZJHK,2020-05-20 22:00,ZJHK 202200Z 17003MPS CAVOK 28/26 Q1003 NOSIG
ZJHK,2020-05-20 23:00,ZJHK 202300Z 17003MPS 130V200 CAVOK 28/26 Q1003 NOSIG
ZJHK,2020-05-21 00:00,ZJHK 210000Z 19004MPS 150V230 CAVOK 30/26 Q1003 NOSIG
ZJHK,2020-05-21 01:00,ZJHK 210100Z 19004MPS CAVOK 32/26 Q1004 NOSIG
ZJHK,2020-05-21 02:00,ZJHK 210200Z 21004MPS 160V240 CAVOK 33/26 Q1004 NOSIG
ZJHK,2020-05-21 03:00,ZJHK 210300Z 21004MPS 150V240 CAVOK 34/26 Q1003 NOSIG
ZJHK,2020-05-21 04:00,ZJHK 210400Z 20004MPS 160V230 CAVOK 35/26 Q1002 NOSIG
ZJHK,2020-05-21 05:00,ZJHK 210500Z 20003MPS 160V240 CAVOK 36/26 Q1002 NOSIG
ZJHK,2020-05-21 06:00,ZJHK 210600Z 20003MPS 170V280 9999 FEW026 37/26 Q1001 NOSIG
ZJHK,2020-05-21 07:00,ZJHK 210700Z 34004MPS 9999 SCT023 38/25 Q1000 NOSIG
ZJHK,2020-05-21 08:00,ZJHK 210800Z 33003MPS 290V360 9999 SCT020 37/25 Q1000 NOSIG
ZJHK,2020-05-21 09:00,ZJHK 210900Z 31003MPS 280V350 CAVOK 38/24 Q1000 NOSIG
ZJHK,2020-05-21 10:00,ZJHK 211000Z 12004MPS 9999 FEW020 34/27 Q1001 NOSIG
ZJHK,2020-05-21 11:00,ZJHK 211100Z 12004MPS CAVOK 32/28 Q1001 NOSIG
ZJHK,2020-05-21 12:00,ZJHK 211200Z 12003MPS CAVOK 31/28 Q1002 NOSIG
ZJHK,2020-05-21 13:00,ZJHK 211300Z 18002MPS 140V260 CAVOK 30/28 Q1002 NOSIG
ZJHK,2020-05-21 14:00,ZJHK 211400Z 09002MPS CAVOK 29/27 Q1003 NOSIG
ZJHK,2020-05-21 15:00,ZJHK 211500Z 27001MPS CAVOK 29/27 Q1003 NOSIG
ZJHK,2020-05-21 16:00,ZJHK 211600Z 17002MPS CAVOK 29/27 Q1003 NOSIG
ZJHK,2020-05-21 17:00,ZJHK 211700Z 20002MPS 160V240 CAVOK 29/27 Q1002 NOSIG
ZJHK,2020-05-21 18:00,ZJHK 211800Z 19002MPS 160V220 CAVOK 30/25 Q1002 NOSIG
ZJHK,2020-05-21 19:00,ZJHK 211900Z 20003MPS 160V230 CAVOK 30/24 Q1001 NOSIG
ZJHK,2020-05-21 20:00,ZJHK 212000Z 18002MPS 150V230 CAVOK 29/24 Q1001 NOSIG
ZJHK,2020-05-21 21:00,ZJHK 212100Z 17002MPS 140V220 CAVOK 29/25 Q1001 NOSIG
ZJHK,2020-05-21 22:00,ZJHK 212200Z 18002MPS 160V220 CAVOK 29/25 Q1002 NOSIG
ZJHK,2020-05-21 23:00,ZJHK 212300Z 19002MPS 150V230 9999 SCT043 29/25 Q1002 NOSIG
ZJHK,2020-05-22 00:00,ZJHK 220000Z 18002MPS 9999 BKN040 29/26 Q1003 NOSIG
ZJHK,2020-05-22 01:00,ZJHK 220100Z 28002MPS 210V350 9999 SCT040 30/26 Q1004 NOSIG
ZJHK,2020-05-22 02:00,ZJHK 220200Z 36003MPS 330V040 9999 SCT040 31/25 Q1005 NOSIG
ZJHK,2020-05-22 03:00,ZJHK 220300Z VRB02MPS 9999 FEW040 32/25 Q1004 NOSIG
ZJHK,2020-05-22 04:00,ZJHK 220400Z VRB01G06MPS CAVOK 32/25 Q1004 NOSIG
ZJHK,2020-05-22 05:00,ZJHK 220500Z VRB02G08MPS 9999 SCT026 33/26 Q1004 NOSIG
ZJHK,2020-05-22 06:00,ZJHK 220600Z VRB02MPS 9999 SCT026 34/27 Q1003 NOSIG
ZJHK,2020-05-22 07:00,ZJHK 220700Z 31002MPS 260V040 9999 SCT026 34/27 Q1002 NOSIG
ZJHK,2020-05-22 08:00,ZJHK 220800Z 02006MPS 9999 SCT040 31/26 Q1002 NOSIG
ZJHK,2020-05-22 09:00,ZJHK 220900Z 04005MPS 360V060 9999 SCT040 30/25 Q1002 NOSIG
ZJHK,2020-05-22 10:00,ZJHK 221000Z 04005MPS 9999 FEW040 29/25 Q1003 NOSIG
ZJHK,2020-05-22 11:00,ZJHK 221100Z 04003MPS CAVOK 29/24 Q1003 NOSIG
ZJHK,2020-05-22 12:00,ZJHK 221200Z 10002MPS 070V130 CAVOK 28/24 Q1004 NOSIG
ZJHK,2020-05-22 13:00,ZJHK 221300Z VRB01MPS CAVOK 28/24 Q1005 NOSIG
ZJHK,2020-05-22 14:00,ZJHK 221400Z 14002MPS CAVOK 27/25 Q1006 NOSIG
ZJHK,2020-05-22 15:00,ZJHK 221500Z 17001MPS CAVOK 27/25 Q1006 NOSIG
ZJHK,2020-05-22 16:00,ZJHK 221600Z VRB01MPS CAVOK 28/25 Q1006 NOSIG
ZJHK,2020-05-22 17:00,ZJHK 221700Z VRB01MPS CAVOK 27/24 Q1005 NOSIG
ZJHK,2020-05-22 18:00,ZJHK 221800Z 26001MPS CAVOK 26/25 Q1005 NOSIG
ZJHK,2020-05-22 19:00,ZJHK 221900Z 27001MPS CAVOK 26/25 Q1004 NOSIG
ZJHK,2020-05-22 20:00,ZJHK 222000Z VRB01MPS 9999 SCT016 26/25 Q1004 NOSIG
ZJHK,2020-05-22 21:00,ZJHK 222100Z 00000MPS 9999 FEW016 26/25 Q1004 NOSIG
ZJHK,2020-05-22 22:00,ZJHK 222200Z 00000MPS CAVOK 26/25 Q1004 NOSIG
ZJHK,2020-05-22 23:00,ZJHK 222300Z 23001MPS CAVOK 27/26 Q1006 NOSIG
ZJHK,2020-05-23 00:00,ZJHK 230000Z VRB01MPS 9999 FEW016 29/25 Q1007 NOSIG
ZJHK,2020-05-23 01:00,ZJHK 230100Z 07001MPS 9999 FEW016 31/25 Q1007 NOSIG
ZJHK,2020-05-23 02:00,ZJHK 230200Z 36002MPS 270V080 9999 BKN020 31/25 Q1007 NOSIG
ZJHK,2020-05-23 03:00,ZJHK 230300Z VRB02MPS 9999 SCT023 31/25 Q1007 NOSIG
ZJHK,2020-05-23 04:00,ZJHK 230400Z 36003MPS 320V040 9999 SCT033 32/25 Q1006 NOSIG
ZJHK,2020-05-23 05:00,ZJHK 230500Z 36005MPS 340V040 9999 SCT033 32/25 Q1006 NOSIG
ZJHK,2020-05-23 06:00,ZJHK 230600Z VRB03MPS 9999 SCT040 33/25 Q1005 NOSIG
ZJHK,2020-05-23 07:00,ZJHK 230700Z 03003MPS 360V070 9999 FEW030TCU FEW033 33/26 Q1004 NOSIG
ZJHK,2020-05-23 08:00,ZJHK 230800Z 05005MPS 010V080 9999 FEW030TCU SCT033 BKN046 33/24 Q1004 NOSIG
ZJHK,2020-05-23 09:00,ZJHK 230900Z 09004MPS 060V120 9999 FEW015 FEW030TCU BKN040 32/25 Q1004 TEMPO TL0950 -TSRA SCT020 FEW026CB
ZJHK,2020-05-23 10:00,ZJHK 231000Z 11003MPS 9999 FEW015 SCT040 31/25 Q1004 NOSIG
ZJHK,2020-05-23 11:00,ZJHK 231100Z 06004MPS 9999 SCT016 BKN040 31/24 Q1005 NOSIG
ZJHK,2020-05-23 12:00,ZJHK 231200Z 13002MPS 100V160 9999 BKN033 30/25 Q1006 NOSIG
ZJHK,2020-05-23 13:00,ZJHK 231300Z 15002MPS 110V200 9999 FEW016 29/25 Q1006 NOSIG
ZJHK,2020-05-23 14:00,ZJHK 231400Z 18003MPS 9999 BKN046 29/26 Q1007 NOSIG
ZJHK,2020-05-23 15:00,ZJHK 231500Z 19002MPS 150V220 9999 FEW016 28/26 Q1007 NOSIG
ZJHK,2020-05-23 16:00,ZJHK 231600Z VRB01MPS CAVOK 27/25 Q1007 NOSIG
ZJHK,2020-05-23 17:00,ZJHK 231700Z 13002MPS CAVOK 27/26 Q1007 NOSIG
ZJHK,2020-05-23 18:00,ZJHK 231800Z 00000MPS CAVOK 27/26 Q1006 NOSIG
ZJHK,2020-05-23 19:00,ZJHK 231900Z VRB01MPS 9999 SCT010 27/26 Q1007 NOSIG
ZJHK,2020-05-23 20:00,ZJHK 232000Z 26001MPS 9999 FEW010 FEW026TCU 27/25 Q1007 NOSIG
ZJHK,2020-05-23 21:00,ZJHK 232100Z 20001MPS 9999 FEW026 27/25 Q1007 NOSIG
ZJHK,2020-05-23 22:00,ZJHK 232200Z 17002MPS 9999 FEW026TCU BKN026 27/25 Q1008 NOSIG
ZJHK,2020-05-23 23:00,ZJHK 232300Z VRB01MPS CAVOK 27/25 Q1008 NOSIG
ZJHK,2020-05-24 00:00,ZJHK 240000Z 00000MPS CAVOK 28/25 Q1008 NOSIG
ZJHK,2020-05-24 01:00,ZJHK 240100Z VRB01MPS CAVOK 30/26 Q1008 NOSIG
ZJHK,2020-05-24 02:00,ZJHK 240200Z 33002MPS 290V050 CAVOK 32/26 Q1009 NOSIG
ZJHK,2020-05-24 03:00,ZJHK 240300Z 21002MPS 160V270 9999 SCT030 33/26 Q1009 NOSIG
ZJHK,2020-05-24 04:00,ZJHK 240400Z 20002MPS 160V240 9999 SCT030 32/27 Q1008 NOSIG
ZJHK,2020-05-24 05:00,ZJHK 240500Z 04003MPS 010V080 9999 FEW023TCU SCT026 34/26 Q1008 NOSIG
ZJHK,2020-05-24 06:00,ZJHK 240600Z 02002MPS 320V080 9999 FEW023TCU SCT026 33/26 Q1007 NOSIG
ZJHK,2020-05-24 07:00,ZJHK 240700Z 04004MPS 360V070 9999 SCT026 33/25 Q1006 NOSIG
ZJHK,2020-05-24 08:00,ZJHK 240800Z 02004MPS 340V040 9999 FEW026 33/25 Q1006 NOSIG
ZJHK,2020-05-24 09:00,ZJHK 240900Z 05005MPS 020V080 9999 FEW026TCU FEW026 34/25 Q1005 NOSIG
ZJHK,2020-05-24 10:00,ZJHK 241000Z 09006MPS 060V120 9999 SCT033 33/26 Q1005 NOSIG
ZJHK,2020-05-24 11:00,ZJHK 241100Z 14004MPS 110V170 9999 FEW023TCU SCT023 BKN040 30/26 Q1007 NOSIG
ZJHK,2020-05-24 12:00,ZJHK 241200Z 14003MPS 110V180 9999 SCT023 BKN040 29/26 Q1007 NOSIG
ZJHK,2020-05-24 13:00,ZJHK 241300Z 14003MPS 110V170 9999 BKN033 29/26 Q1008 NOSIG
ZJHK,2020-05-24 14:00,ZJHK 241400Z 15003MPS 110V180 9999 FEW013 29/26 Q1009 NOSIG
ZJHK,2020-05-24 15:00,ZJHK 241500Z 15004MPS 110V180 9999 SCT040 29/26 Q1009 NOSIG
ZJHK,2020-05-24 16:00,ZJHK 241600Z 15003MPS 120V190 9999 SCT040 29/26 Q1009 NOSIG
ZJHK,2020-05-24 17:00,ZJHK 241700Z 15003MPS 120V190 9999 SCT013 BKN033 28/27 Q1009 NOSIG
ZJHK,2020-05-24 18:00,ZJHK 241800Z 16005MPS 130V190 9999 SCT013 28/26 Q1008 NOSIG
ZJHK,2020-05-24 19:00,ZJHK 241900Z 18003MPS 9999 FEW013 28/26 Q1008 NOSIG
ZJHK,2020-05-24 20:00,ZJHK 242000Z 19002MPS 160V220 9999 FEW020TCU 28/26 Q1007 NOSIG
ZJHK,2020-05-24 21:00,ZJHK 242100Z 19003MPS 160V220 CAVOK 28/26 Q1008 NOSIG
ZJHK,2020-05-24 22:00,ZJHK 242200Z 18003MPS CAVOK 28/26 Q1008 NOSIG
ZJHK,2020-05-24 23:00,ZJHK 242300Z 20003MPS 170V240 CAVOK 28/26 Q1008 NOSIG
ZJHK,2020-05-25 00:00,ZJHK 250000Z 21003MPS 180V240 CAVOK 29/26 Q1009 NOSIG
ZJHK,2020-05-25 01:00,ZJHK 250100Z 21004MPS 180V240 CAVOK 31/26 Q1009 NOSIG
ZJHK,2020-05-25 02:00,ZJHK 250200Z 22004MPS 190V250 CAVOK 33/25 Q1008 NOSIG
ZJHK,2020-05-25 03:00,ZJHK 250300Z 20004MPS 160V240 9999 FEW020 35/25 Q1008 NOSIG
ZJHK,2020-05-25 04:00,ZJHK 250400Z 20004MPS 150V290 9999 FEW020 35/24 Q1007 NOSIG
ZJHK,2020-05-25 05:00,ZJHK 250500Z 21004MPS 160V250 9999 SCT040 37/24 Q1007 NOSIG
ZJHK,2020-05-25 06:00,ZJHK 250600Z 20003MPS 150V230 9999 SCT040 37/24 Q1007 NOSIG
ZJHK,2020-05-25 07:00,ZJHK 250700Z 02005MPS 330V040 9999 SCT040 FEW043CB 36/25 Q1006 BECMG AT0800 -TSRA
ZJHK,2020-05-25 08:00,ZJHK 250800Z 35008MPS 6000 TSRA SCT020 SCT026CB 27/25 Q1005 NOSIG
ZJHK,2020-05-25 09:00,ZJHK 250900Z 10005MPS 9999 TS FEW026CB SCT026 28/26 Q1005 RESHRA BECMG TL0930 NSW
ZJHK,2020-05-25 10:00,ZJHK 251000Z 12002MPS 080V200 CAVOK 27/24 Q1005 RETS NOSIG
ZJHK,2020-05-25 11:00,ZJHK 251100Z 17002MPS 140V200 CAVOK 27/25 Q1006 NOSIG
ZJHK,2020-05-25 12:00,ZJHK 251200Z 24002MPS 200V270 CAVOK 27/25 Q1007 NOSIG
ZJHK,2020-05-25 13:00,ZJHK 251300Z VRB01MPS CAVOK 27/25 Q1007 NOSIG
ZJHK,2020-05-25 14:00,ZJHK 251400Z 12001MPS 9999 FEW023 27/25 Q1008 NOSIG
ZJHK,2020-05-25 15:00,ZJHK 251500Z 00000MPS CAVOK 27/25 Q1008 NOSIG
ZJHK,2020-05-25 16:00,ZJHK 251600Z 00000MPS CAVOK 27/26 Q1008 NOSIG
ZJHK,2020-05-25 17:00,ZJHK 251700Z 00000MPS 9999 SCT023 26/25 Q1008 NOSIG
ZJHK,2020-05-25 18:00,ZJHK 251800Z 00000MPS CAVOK 26/26 Q1008 NOSIG
ZJHK,2020-05-25 19:00,ZJHK 251900Z 26001MPS CAVOK 26/25 Q1007 NOSIG
ZJHK,2020-05-25 20:00,ZJHK 252000Z 12001MPS CAVOK 26/25 Q1007 NOSIG
ZJHK,2020-05-25 21:00,ZJHK 252100Z VRB01MPS CAVOK 26/25 Q1007 NOSIG
ZJHK,2020-05-25 22:00,ZJHK 252200Z 19002MPS CAVOK 26/26 Q1007 NOSIG
ZJHK,2020-05-25 23:00,ZJHK 252300Z VRB01MPS CAVOK 27/26 Q1008 NOSIG
ZJHK,2020-05-26 00:00,ZJHK 260000Z 21002MPS 180V240 CAVOK 29/27 Q1008 NOSIG
ZJHK,2020-05-26 01:00,ZJHK 260100Z 22003MPS 170V240 CAVOK 31/26 Q1008 NOSIG
ZJHK,2020-05-26 02:00,ZJHK 260200Z 20003MPS 160V230 CAVOK 33/26 Q1008 NOSIG
ZJHK,2020-05-26 03:00,ZJHK 260300Z 19004MPS 150V230 9999 SCT026 34/25 Q1008 NOSIG
ZJHK,2020-05-26 04:00,ZJHK 260400Z 20002MPS 110V270 9999 BKN043 35/25 Q1007 NOSIG
ZJHK,2020-05-26 05:00,ZJHK 260500Z 02003MPS 330V070 9999 FEW030TCU SCT043 35/25 Q1007 NOSIG
ZJHK,2020-05-26 06:00,ZJHK 260600Z 01003MPS 310V060 9999 FEW030TCU SCT043 36/25 Q1006 NOSIG
ZJHK,2020-05-26 07:00,ZJHK 260700Z 25004MPS 220V290 9999 -TSRA FEW008 FEW030CB SCT043 30/26 Q1005 NOSIG
ZJHK,2020-05-26 08:00,ZJHK 260800Z 12002MPS 090V150 9999 FEW030TCU SCT043 31/24 Q1005 RETS NOSIG
ZJHK,2020-05-26 09:00,ZJHK 260900Z 12004MPS 9999 FEW030TCU FEW043 29/24 Q1005 NOSIG
ZJHK,2020-05-26 10:00,ZJHK 261000Z 20003MPS 150V240 9999 FEW030CB SCT033 BKN043 29/25 Q1006 NOSIG
ZJHK,2020-05-26 11:00,ZJHK 261100Z 25003MPS 9999 FEW040 27/24 Q1007 NOSIG
ZJHK,2020-05-26 12:00,ZJHK 261200Z 20003MPS 170V230 CAVOK 27/24 Q1007 NOSIG
ZJHK,2020-05-26 13:00,ZJHK 261300Z 25003MPS CAVOK 27/25 Q1008 NOSIG
ZJHK,2020-05-26 14:00,ZJHK 261400Z 23003MPS CAVOK 27/25 Q1009 NOSIG
ZJHK,2020-05-26 15:00,ZJHK 261500Z 23003MPS CAVOK 27/25 Q1009 NOSIG
ZJHK,2020-05-26 16:00,ZJHK 261600Z 25003MPS CAVOK 27/25 Q1009 NOSIG
ZJHK,2020-05-26 17:00,ZJHK 261700Z 26003MPS CAVOK 27/25 Q1008 NOSIG
ZJHK,2020-05-26 18:00,ZJHK 261800Z 27003MPS CAVOK 27/25 Q1008 NOSIG
ZJHK,2020-05-26 19:00,ZJHK 261900Z 27003MPS 9999 BKN033 27/25 Q1007 NOSIG
ZJHK,2020-05-26 20:00,ZJHK 262000Z 26002MPS CAVOK 27/25 Q1008 NOSIG
ZJHK,2020-05-26 21:00,ZJHK 262100Z 27003MPS CAVOK 26/25 Q1008 NOSIG
ZJHK,2020-05-26 22:00,ZJHK 262200Z 26003MPS CAVOK 26/25 Q1008 NOSIG
ZJHK,2020-05-26 23:00,ZJHK 262300Z 25002MPS CAVOK 27/25 Q1009 NOSIG
ZJHK,2020-05-27 00:00,ZJHK 270000Z 25002MPS 200V270 9999 FEW015 FEW033TCU SCT033 28/26 Q1009 NOSIG
ZJHK,2020-05-27 01:00,ZJHK 270100Z 27004MPS 9999 SCT046 30/26 Q1010 NOSIG
ZJHK,2020-05-27 02:00,ZJHK 270200Z 28003MPS 9999 SCT046 31/25 Q1010 NOSIG
ZJHK,2020-05-27 03:00,ZJHK 270300Z 18002MPS 160V220 9999 SCT023 31/26 Q1010 NOSIG
ZJHK,2020-05-27 04:00,ZJHK 270400Z 30004MPS 9999 FEW023 SCT033 32/25 Q1009 NOSIG
ZJHK,2020-05-27 05:00,ZJHK 270500Z 29004MPS 240V340 9999 FEW033TCU SCT040 33/24 Q1009 NOSIG
ZJHK,2020-05-27 06:00,ZJHK 270600Z 28003MPS 210V320 9999 SCT036 33/24 Q1008 NOSIG
ZJHK,2020-05-27 07:00,ZJHK 270700Z 30005MPS 270V340 9999 FEW040 34/24 Q1007 NOSIG
ZJHK,2020-05-27 08:00,ZJHK 270800Z 34005MPS 9999 FEW040 34/24 Q1006 NOSIG
ZJHK,2020-05-27 09:00,ZJHK 270900Z 32006MPS CAVOK 32/23 Q1006 NOSIG
ZJHK,2020-05-27 10:00,ZJHK 271000Z 29005MPS CAVOK 31/21 Q1006 NOSIG
ZJHK,2020-05-27 11:00,ZJHK 271100Z 30004MPS 9999 FEW026CB 30/23 Q1007 NOSIG
ZJHK,2020-05-27 12:00,ZJHK 271200Z 31004MPS 9999 BKN046 29/23 Q1008 NOSIG
ZJHK,2020-05-27 13:00,ZJHK 271300Z VRB01MPS 9999 SCT046 29/24 Q1009 NOSIG
ZJHK,2020-05-27 14:00,ZJHK 271400Z 21002MPS 180V240 9999 SCT046 28/24 Q1010 NOSIG
ZJHK,2020-05-27 15:00,ZJHK 271500Z 23002MPS 9999 SCT046 28/24 Q1010 NOSIG
ZJHK,2020-05-27 16:00,ZJHK 271600Z 23002MPS 9999 SCT046 27/24 Q1010 NOSIG
ZJHK,2020-05-27 17:00,ZJHK 271700Z 23002MPS 200V260 9999 SCT046 27/24 Q1010 NOSIG
ZJHK,2020-05-27 18:00,ZJHK 271800Z 23002MPS 200V260 9999 FEW046 27/24 Q1009 NOSIG
ZJHK,2020-05-27 19:00,ZJHK 271900Z 23002MPS 200V260 CAVOK 27/24 Q1009 NOSIG
ZJHK,2020-05-27 20:00,ZJHK 272000Z 22002MPS 9999 BKN040 27/24 Q1009 NOSIG
ZJHK,2020-05-27 21:00,ZJHK 272100Z 23002MPS CAVOK 26/24 Q1009 NOSIG
ZJHK,2020-05-27 22:00,ZJHK 272200Z 21002MPS 9999 FEW030 26/24 Q1009 NOSIG
ZJHK,2020-05-27 23:00,ZJHK 272300Z 21002MPS 9999 FEW030 26/25 Q1009 NOSIG
ZJHK,2020-05-28 00:00,ZJHK 280000Z 19003MPS CAVOK 27/25 Q1010 NOSIG
ZJHK,2020-05-28 01:00,ZJHK 280100Z 21003MPS 170V240 CAVOK 28/25 Q1010 NOSIG
ZJHK,2020-05-28 02:00,ZJHK 280200Z 19003MPS 150V280 9999 FEW020 29/25 Q1010 NOSIG
ZJHK,2020-05-28 03:00,ZJHK 280300Z 24003MPS 200V270 9999 FEW020 30/25 Q1011 NOSIG
ZJHK,2020-05-28 04:00,ZJHK 280400Z 22003MPS 180V260 9999 SCT023 30/25 Q1010 NOSIG
ZJHK,2020-05-28 05:00,ZJHK 280500Z 22003MPS 170V270 9999 SCT023 31/25 Q1010 NOSIG
ZJHK,2020-05-28 06:00,ZJHK 280600Z 21003MPS 160V240 9999 SCT023 32/25 Q1009 NOSIG
ZJHK,2020-05-28 07:00,ZJHK 280700Z 23003MPS 180V280 9999 SCT020 33/25 Q1008 NOSIG
ZJHK,2020-05-28 08:00,ZJHK 280800Z 24002MPS 200V280 9999 SCT020 34/24 Q1007 NOSIG
ZJHK,2020-05-28 09:00,ZJHK 280900Z 02004MPS 350V050 9999 FEW020TCU SCT026 33/25 Q1007 NOSIG
ZJHK,2020-05-28 10:00,ZJHK 281000Z 02004MPS 9999 FEW026 31/25 Q1007 NOSIG
ZJHK,2020-05-28 11:00,ZJHK 281100Z 14002MPS 110V170 CAVOK 30/26 Q1008 NOSIG
ZJHK,2020-05-28 12:00,ZJHK 281200Z 15003MPS 110V190 9999 -SHRA FEW023TCU 29/26 Q1008 NOSIG
ZJHK,2020-05-28 13:00,ZJHK 281300Z 17004MPS 140V200 9999 SCT040 28/25 Q1009 NOSIG
ZJHK,2020-05-28 14:00,ZJHK 281400Z 16002MPS 120V190 CAVOK 28/25 Q1010 NOSIG
ZJHK,2020-05-28 15:00,ZJHK 281500Z 20002MPS 160V240 CAVOK 27/25 Q1011 NOSIG
ZJHK,2020-05-28 16:00,ZJHK 281600Z 17002MPS 140V200 9999 FEW010 27/26 Q1010 NOSIG
ZJHK,2020-05-28 17:00,ZJHK 281700Z VRB01MPS CAVOK 27/26 Q1010 NOSIG
ZJHK,2020-05-28 18:00,ZJHK 281800Z 12001MPS 9999 BKN008 27/26 Q1010 NOSIG
ZJHK,2020-05-28 19:00,ZJHK 281900Z 11002MPS 9999 BKN008 27/26 Q1009 NOSIG
ZJHK,2020-05-28 20:00,ZJHK 282000Z 12002MPS 9999 SCT004 BKN008 27/26 Q1008 NOSIG
ZJHK,2020-05-28 21:00,ZJHK 282100Z 16002MPS 130V200 8000 SCT003 BKN009 27/26 Q1009 NOSIG
ZJHK,2020-05-28 22:00,ZJHK 282200Z 17002MPS 130V210 8000 FEW003 BKN009 27/26 Q1009 BECMG SCT015
ZJHK,2020-05-28 23:00,ZJHK 282300Z VRB01MPS 7000 FEW004 27/26 Q1009 NOSIG
ZJHK,2020-05-29 00:00,ZJHK 290000Z 17003MPS 130V210 CAVOK 28/26 Q1009 NOSIG
ZJHK,2020-05-29 01:00,ZJHK 290100Z 19003MPS 160V240 9999 FEW020 30/27 Q1010 NOSIG
ZJHK,2020-05-29 02:00,ZJHK 290200Z 21004MPS 170V250 9999 FEW020 32/26 Q1010 NOSIG
ZJHK,2020-05-29 03:00,ZJHK 290300Z 19004MPS 160V230 9999 SCT020 33/25 Q1009 NOSIG
ZJHK,2020-05-29 04:00,ZJHK 290400Z 20004MPS 140V250 9999 FEW020 FEW023TCU 34/25 Q1009 NOSIG
ZJHK,2020-05-29 05:00,ZJHK 290500Z 20003MPS 140V250 9999 FEW026TCU FEW026 34/25 Q1008 NOSIG
ZJHK,2020-05-29 06:00,ZJHK 290600Z VRB03MPS 9999 FEW026CB SCT030 35/24 Q1007 BECMG TL0700 -TSRA
ZJHK,2020-05-29 07:00,ZJHK 290700Z 36004MPS 9999 SCT026CB SCT026 BKN040 32/25 Q1007 NOSIG
ZJHK,2020-05-29 08:00,ZJHK 290800Z 06004MPS 9999 -TSRA FEW010 FEW026CB SCT026 28/26 Q1007 RESHRA BECMG TL0840 NSW
ZJHK,2020-05-29 09:00,ZJHK 290900Z 10004MPS 060V120 9999 FEW026CB SCT040 27/25 Q1006 RETS NOSIG
ZJHK,2020-05-29 10:00,ZJHK 291000Z 14003MPS 9999 FEW040 27/25 Q1007 NOSIG
ZJHK,2020-05-29 11:00,ZJHK 291100Z VRB01MPS CAVOK 28/25 Q1007 NOSIG
ZJHK,2020-05-29 12:00,ZJHK 291200Z 14002MPS CAVOK 27/26 Q1008 NOSIG
ZJHK,2020-05-29 13:00,ZJHK 291300Z 17002MPS 130V210 CAVOK 28/26 Q1009 NOSIG
ZJHK,2020-05-29 14:00,ZJHK 291400Z 14002MPS CAVOK 28/26 Q1008 NOSIG
ZJHK,2020-05-29 15:00,ZJHK 291500Z 16002MPS 130V210 CAVOK 27/26 Q1009 NOSIG
ZJHK,2020-05-29 16:00,ZJHK 291600Z 16003MPS 130V190 CAVOK 27/26 Q1009 NOSIG
ZJHK,2020-05-29 17:00,ZJHK 291700Z 20002MPS 170V240 CAVOK 27/26 Q1009 NOSIG
ZJHK,2020-05-29 18:00,ZJHK 291800Z 18002MPS 160V220 CAVOK 27/25 Q1009 NOSIG
ZJHK,2020-05-29 19:00,ZJHK 291900Z 19002MPS 150V220 CAVOK 27/25 Q1009 NOSIG
ZJHK,2020-05-29 20:00,ZJHK 292000Z 16002MPS CAVOK 26/25 Q1008 NOSIG
ZJHK,2020-05-29 21:00,ZJHK 292100Z 19002MPS 150V230 CAVOK 27/25 Q1008 NOSIG
ZJHK,2020-05-29 22:00,ZJHK 292200Z 20002MPS 170V240 CAVOK 27/25 Q1009 NOSIG
ZJHK,2020-05-29 23:00,ZJHK 292300Z 18003MPS 160V220 CAVOK 27/25 Q1009 NOSIG
ZJHK,2020-05-30 00:00,ZJHK 300000Z 20003MPS 150V220 CAVOK 29/26 Q1010 NOSIG
ZJHK,2020-05-30 01:00,ZJHK 300100Z 18003MPS 160V220 CAVOK 31/26 Q1010 NOSIG
ZJHK,2020-05-30 02:00,ZJHK 300200Z 20004MPS 160V250 CAVOK 32/25 Q1010 NOSIG
ZJHK,2020-05-30 03:00,ZJHK 300300Z 22004MPS 180V250 9999 FEW020 34/25 Q1010 NOSIG
ZJHK,2020-05-30 04:00,ZJHK 300400Z 23005MPS 200V270 9999 SCT030 34/24 Q1010 NOSIG
ZJHK,2020-05-30 05:00,ZJHK 300500Z 22003MPS 160V250 9999 SCT030 35/25 Q1009 NOSIG
ZJHK,2020-05-30 06:00,ZJHK 300600Z 35003MPS 290V040 9999 FEW023CB SCT030 34/25 Q1008 NOSIG
ZJHK,2020-05-30 07:00,ZJHK 300700Z 03005MPS 350V060 9999 FEW023CB SCT040 31/25 Q1008 BECMG TL0720 -TSRA
ZJHK,2020-05-30 08:00,ZJHK 300800Z 10004MPS 040V140 9999 -TSRA SCT023CB SCT040 29/26 Q1009 BECMG TL0930 NSW SCT020
ZJHK,2020-05-30 09:00,ZJHK 300900Z VRB01MPS 8000 -TSRA SCT010 FEW026CB BKN040 25/24 Q1009 RESHRA BECMG AT1000 NSW
ZJHK,2020-05-30 10:00,ZJHK 301000Z 18002MPS 120V260 9999 -TSRA FEW026CB SCT026 26/25 Q1009 BECMG AT1030 NSW SCT020
ZJHK,2020-05-30 11:00,ZJHK 301100Z 12003MPS 9999 FEW013 FEW026TCU 26/25 Q1009 RETS BECMG SCT020
ZJHK,2020-05-30 12:00,ZJHK 301200Z 12002MPS CAVOK 26/25 Q1009 NOSIG
ZJHK,2020-05-30 13:00,ZJHK 301300Z 12002MPS CAVOK 26/24 Q1010 NOSIG
ZJHK,2020-05-30 14:00,ZJHK 301400Z 13002MPS 100V160 CAVOK 26/24 Q1011 NOSIG
ZJHK,2020-05-30 15:00,ZJHK 301500Z 13002MPS CAVOK 26/24 Q1011 NOSIG
ZJHK,2020-05-30 16:00,ZJHK 301600Z 14002MPS 110V170 CAVOK 26/25 Q1011 NOSIG
ZJHK,2020-05-30 17:00,ZJHK 301700Z 14002MPS 110V170 CAVOK 26/25 Q1010 NOSIG
ZJHK,2020-05-30 18:00,ZJHK 301800Z VRB01MPS CAVOK 26/25 Q1010 NOSIG
ZJHK,2020-05-30 19:00,ZJHK 301900Z VRB01MPS CAVOK 26/25 Q1009 NOSIG
ZJHK,2020-05-30 20:00,ZJHK 302000Z 18002MPS 150V220 CAVOK 26/25 Q1009 NOSIG
ZJHK,2020-05-30 21:00,ZJHK 302100Z VRB01MPS CAVOK 26/25 Q1009 NOSIG
ZJHK,2020-05-30 22:00,ZJHK 302200Z 20002MPS 160V240 CAVOK 26/25 Q1010 NOSIG
ZJHK,2020-05-30 23:00,ZJHK 302300Z 21003MPS 180V250 CAVOK 27/25 Q1010 NOSIG
ZJHK,2020-05-31 00:00,ZJHK 310000Z 21004MPS 180V240 CAVOK 29/26 Q1011 NOSIG
ZJHK,2020-05-31 01:00,ZJHK 310100Z 21004MPS 160V240 CAVOK 31/26 Q1011 NOSIG
ZJHK,2020-05-31 02:00,ZJHK 310200Z 19004MPS 150V220 CAVOK 32/25 Q1011 NOSIG
ZJHK,2020-05-31 03:00,ZJHK 310300Z 20004MPS 160V240 CAVOK 34/24 Q1011 NOSIG
ZJHK,2020-05-31 04:00,ZJHK 310400Z 19004MPS 140V240 CAVOK 35/24 Q1010 NOSIG
ZJHK,2020-05-31 05:00,ZJHK 310500Z 21004MPS 160V270 9999 FEW026 35/25 Q1010 NOSIG
ZJHK,2020-05-31 06:00,ZJHK 310600Z 19004MPS 140V250 9999 SCT026 36/25 Q1008 NOSIG
ZJHK,2020-05-31 07:00,ZJHK 310700Z 20004MPS 170V240 9999 SCT040 FEW043CB 36/24 Q1007 NOSIG
ZJHK,2020-05-31 08:00,ZJHK 310800Z 29011G22MPS 0600 R27/P2000 +TSRA FEW010 SCT026 SCT030CB 27/22 Q1008 NOSIG
ZJHK,2020-05-31 09:00,ZJHK 310900Z 11007MPS 9999 -TSRA SCT026 SCT030CB 26/23 Q1007 BECMG AT1000 -SHRA
ZJHK,2020-05-31 10:00,ZJHK 311000Z 15004MPS 110V190 9999 FEW026 FEW030CB 26/23 Q1008 NOSIG
ZJHK,2020-05-31 11:00,ZJHK 311100Z 17002MPS 130V210 9999 FEW046 26/24 Q1008 NOSIG
ZJHK,2020-05-31 12:00,ZJHK 311200Z 18003MPS 160V220 CAVOK 27/24 Q1009 NOSIG
ZJHK,2020-05-31 13:00,ZJHK 311300Z 17002MPS 140V200 CAVOK 27/24 Q1009 NOSIG
ZJHK,2020-05-31 14:00,ZJHK 311400Z 10002MPS CAVOK 26/24 Q1009 NOSIG
ZJHK,2020-05-31 15:00,ZJHK 311500Z 12001MPS CAVOK 26/24 Q1010 NOSIG
ZJHK,2020-05-31 16:00,ZJHK 311600Z 19002MPS 150V230 CAVOK 27/25 Q1010 NOSIG
ZJHK,2020-05-31 17:00,ZJHK 311700Z 18003MPS CAVOK 27/25 Q1009 NOSIG
ZJHK,2020-05-31 18:00,ZJHK 311800Z 20002MPS 180V240 CAVOK 28/25 Q1009 NOSIG
ZJHK,2020-05-31 19:00,ZJHK 311900Z VRB01MPS CAVOK 27/25 Q1008 NOSIG
ZJHK,2020-05-31 20:00,ZJHK 312000Z VRB01MPS CAVOK 27/25 Q1009 NOSIG
ZJHK,2020-05-31 21:00,ZJHK 312100Z VRB01MPS CAVOK 26/25 Q1009 NOSIG
ZJHK,2020-05-31 22:00,ZJHK 312200Z VRB01MPS CAVOK 26/25 Q1009 NOSIG
ZJHK,2020-05-31 23:00,ZJHK 312300Z 19002MPS 150V230 CAVOK 27/26 Q1010 NOSIG
ZJHK,2020-06-01 00:00,ZJHK 010000Z 19004MPS 160V220 CAVOK 30/26 Q1010 NOSIG
ZJHK,2020-06-01 01:00,ZJHK 010100Z 17004MPS CAVOK 31/26 Q1010 NOSIG
ZJHK,2020-06-01 02:00,ZJHK 010200Z 18004MPS 140V240 CAVOK 32/25 Q1010 NOSIG
ZJHK,2020-06-01 03:00,ZJHK 010300Z 18005MPS 140V220 9999 FEW020 33/26 Q1010 NOSIG
ZJHK,2020-06-01 04:00,ZJHK 010400Z 20005MPS 170V230 9999 FEW026 34/26 Q1009 NOSIG
ZJHK,2020-06-01 05:00,ZJHK 010500Z 17004MPS 130V230 9999 SCT026 35/26 Q1008 NOSIG
ZJHK,2020-06-01 06:00,ZJHK 010600Z 20004MPS 140V270 9999 BKN026 36/25 Q1007 NOSIG
ZJHK,2020-06-01 07:00,ZJHK 010700Z 20003MPS 150V240 9999 FEW023TCU SCT026 36/26 Q1006 NOSIG
ZJHK,2020-06-01 08:00,ZJHK 010800Z 25006MPS 210V300 8000 SHRA SCT023CB BKN026 31/24 Q1005 BECMG TSRA
ZJHK,2020-06-01 09:00,ZJHK 010900Z 11002MPS 020V190 6000 -TSRA SCT023CB SCT023 BKN040 25/24 Q1008 RESHRA NOSIG
ZJHK,2020-06-01 10:00,ZJHK 011000Z 10004MPS 9999 SCT023 26/25 Q1008 RETS NOSIG
ZJHK,2020-06-01 11:00,ZJHK 011100Z VRB03MPS 9999 BKN023 26/25 Q1008 NOSIG
ZJHK,2020-06-01 12:00,ZJHK 011200Z 23003MPS 160V270 9999 TS FEW010 FEW023CB 26/25 Q1008 NOSIG
ZJHK,2020-06-01 13:00,ZJHK 011300Z 18002MPS 140V260 9999 FEW026 26/25 Q1009 RETS NOSIG
ZJHK,2020-06-01 14:00,ZJHK 011400Z VRB01MPS 9999 FEW026 26/25 Q1009 NOSIG
ZJHK,2020-06-01 15:00,ZJHK 011500Z 10001MPS CAVOK 26/25 Q1009 NOSIG
ZJHK,2020-06-01 16:00,ZJHK 011600Z 16002MPS 110V190 CAVOK 27/26 Q1009 NOSIG
ZJHK,2020-06-01 17:00,ZJHK 011700Z 16003MPS 130V190 CAVOK 28/26 Q1008 NOSIG
ZJHK,2020-06-01 18:00,ZJHK 011800Z 17003MPS 140V200 CAVOK 28/27 Q1008 NOSIG
ZJHK,2020-06-01 19:00,ZJHK 011900Z 18002MPS CAVOK 28/26 Q1007 NOSIG
ZJHK,2020-06-01 20:00,ZJHK 012000Z 16003MPS 130V190 CAVOK 28/26 Q1007 NOSIG
ZJHK,2020-06-01 21:00,ZJHK 012100Z 18003MPS 150V210 CAVOK 27/26 Q1006 NOSIG
ZJHK,2020-06-01 22:00,ZJHK 012200Z 18003MPS 150V210 CAVOK 27/26 Q1007 NOSIG
ZJHK,2020-06-01 23:00,ZJHK 012300Z 17003MPS 130V210 CAVOK 28/26 Q1008 NOSIG
ZJHK,2020-06-02 00:00,ZJHK 020000Z 18004MPS 150V230 CAVOK 30/27 Q1008 NOSIG
ZJHK,2020-06-02 01:00,ZJHK 020100Z 19004MPS 9999 FEW013 31/27 Q1008 NOSIG
ZJHK,2020-06-02 02:00,ZJHK 020200Z 21005MPS 180V240 9999 FEW013 32/26 Q1009 NOSIG
ZJHK,2020-06-02 03:00,ZJHK 020300Z 18004MPS 150V220 9999 FEW020 33/26 Q1009 NOSIG
ZJHK,2020-06-02 04:00,ZJHK 020400Z 18004G09MPS 140V220 9999 FEW026 34/26 Q1008 NOSIG
ZJHK,2020-06-02 05:00,ZJHK 020500Z 21005MPS 150V240 9999 SCT040 35/26 Q1007 NOSIG
ZJHK,2020-06-02 06:00,ZJHK 020600Z 19005MPS 150V220 9999 SCT040 35/25 Q1006 NOSIG
ZJHK,2020-06-02 07:00,ZJHK 020700Z 18005MPS 150V230 9999 FEW040TCU FEW040 36/25 Q1005 NOSIG
ZJHK,2020-06-02 08:00,ZJHK 020800Z 31005MPS 9999 BKN030 FEW033CB 31/24 Q1005 BECMG TL0820 27010G17MPS 2000 TSRA
ZJHK,2020-06-02 09:00,ZJHK 020900Z 29005MPS 9999 -TSRA FEW012 SCT026 FEW030CB BKN043 27/24 Q1006 BECMG TL1000 NSW
ZJHK,2020-06-02 10:00,ZJHK 021000Z 08006MPS 9999 FEW033CB SCT040 27/25 Q1006 RETS BECMG TL1100 SCT023
ZJHK,2020-06-02 11:00,ZJHK 021100Z 10004MPS 9999 FEW040 27/24 Q1006 NOSIG
ZJHK,2020-06-02 12:00,ZJHK 021200Z 12003MPS 9999 FEW040 28/26 Q1006 NOSIG
ZJHK,2020-06-02 13:00,ZJHK 021300Z 17004MPS 130V200 CAVOK 29/26 Q1007 NOSIG
ZJHK,2020-06-02 14:00,ZJHK 021400Z 16003MPS 120V200 CAVOK 29/25 Q1008 NOSIG
ZJHK,2020-06-02 15:00,ZJHK 021500Z 17005MPS CAVOK 29/25 Q1008 NOSIG
ZJHK,2020-06-02 16:00,ZJHK 021600Z 17004MPS 140V210 CAVOK 28/25 Q1007 NOSIG
ZJHK,2020-06-02 17:00,ZJHK 021700Z 19004MPS 150V220 CAVOK 28/25 Q1007 NOSIG
ZJHK,2020-06-02 18:00,ZJHK 021800Z 19004MPS CAVOK 28/25 Q1006 NOSIG
ZJHK,2020-06-02 19:00,ZJHK 021900Z 20003MPS 150V240 CAVOK 28/25 Q1006 NOSIG
ZJHK,2020-06-02 20:00,ZJHK 022000Z VRB01MPS CAVOK 27/25 Q1006 NOSIG
ZJHK,2020-06-02 21:00,ZJHK 022100Z 17002MPS CAVOK 27/25 Q1006 NOSIG
ZJHK,2020-06-02 22:00,ZJHK 022200Z 00000MPS CAVOK 26/24 Q1007 NOSIG
ZJHK,2020-06-02 23:00,ZJHK 022300Z 15002MPS 120V200 CAVOK 27/25 Q1007 NOSIG
ZJHK,2020-06-03 00:00,ZJHK 030000Z 17003MPS CAVOK 29/26 Q1008 NOSIG
ZJHK,2020-06-03 01:00,ZJHK 030100Z 18004MPS 150V220 CAVOK 31/25 Q1008 NOSIG
ZJHK,2020-06-03 02:00,ZJHK 030200Z 18004MPS 150V220 CAVOK 32/26 Q1009 NOSIG
ZJHK,2020-06-03 03:00,ZJHK 030300Z 19005MPS 150V230 9999 FEW026 33/25 Q1008 NOSIG
ZJHK,2020-06-03 04:00,ZJHK 030400Z 18005MPS 150V210 9999 SCT026 34/25 Q1007 NOSIG
ZJHK,2020-06-03 05:00,ZJHK 030500Z 18005MPS 130V220 9999 SCT026 34/25 Q1007 NOSIG
ZJHK,2020-06-03 06:00,ZJHK 030600Z 15005MPS 120V190 9999 SCT026 34/26 Q1006 NOSIG
ZJHK,2020-06-03 07:00,ZJHK 030700Z 17005MPS 140V210 9999 FEW026TCU SCT026 34/26 Q1005 BECMG AT0800 TSRA SCT026 FEW026CB
ZJHK,2020-06-03 08:00,ZJHK 030800Z 17006MPS 140V200 9999 FEW026CB SCT026 34/26 Q1005 NOSIG
ZJHK,2020-06-03 09:00,ZJHK 030900Z 16003MPS 120V200 9999 TS FEW026CB SCT040 32/26 Q1004 BECMG TL1020 NSW SCT020
ZJHK,2020-06-03 10:00,ZJHK 031000Z 05004MPS 8000 -TSRA FEW026CB SCT040 28/26 Q1005 RESHRA WS RWY27 BECMG TL1040 NSW SCT020
ZJHK,2020-06-03 11:00,ZJHK 031100Z 12002MPS 9999 FEW026CB FEW040 28/26 Q1005 RETS NOSIG
ZJHK,2020-06-03 12:00,ZJHK 031200Z 16003MPS 140V200 9999 FEW040 28/26 Q1006 NOSIG
ZJHK,2020-06-03 13:00,ZJHK 031300Z 16003MPS 130V190 CAVOK 28/25 Q1006 NOSIG
ZJHK,2020-06-03 14:00,ZJHK 031400Z 17004MPS 140V200 CAVOK 28/25 Q1007 NOSIG
ZJHK,2020-06-03 15:00,ZJHK 031500Z 17002MPS 140V210 CAVOK 28/25 Q1007 NOSIG
ZJHK,2020-06-03 16:00,ZJHK 031600Z 17003MPS CAVOK 28/25 Q1007 NOSIG
ZJHK,2020-06-03 17:00,ZJHK 031700Z 18003MPS CAVOK 28/25 Q1006 NOSIG
ZJHK,2020-06-03 18:00,ZJHK 031800Z 17003MPS CAVOK 27/25 Q1006 NOSIG
ZJHK,2020-06-03 19:00,ZJHK 031900Z 18002MPS CAVOK 27/25 Q1006 NOSIG
ZJHK,2020-06-03 20:00,ZJHK 032000Z 19002MPS 140V220 9999 FEW040 27/25 Q1006 NOSIG
ZJHK,2020-06-03 21:00,ZJHK 032100Z 18002MPS CAVOK 27/25 Q1006 NOSIG
ZJHK,2020-06-03 22:00,ZJHK 032200Z 18002MPS CAVOK 27/25 Q1006 NOSIG
ZJHK,2020-06-03 23:00,ZJHK 032300Z 16003MPS 130V190 CAVOK 28/26 Q1007 NOSIG
ZJHK,2020-06-04 00:00,ZJHK 040000Z 17003MPS 130V210 CAVOK 29/26 Q1007 NOSIG
ZJHK,2020-06-04 01:00,ZJHK 040100Z 18005MPS 160V220 CAVOK 30/26 Q1008 NOSIG
ZJHK,2020-06-04 02:00,ZJHK 040200Z 20005MPS 160V230 CAVOK 32/26 Q1008 NOSIG
ZJHK,2020-06-04 03:00,ZJHK 040300Z 20004MPS 150V250 CAVOK 33/25 Q1008 NOSIG
ZJHK,2020-06-04 04:00,ZJHK 040400Z 20004MPS 150V250 9999 FEW026 34/25 Q1007 NOSIG
ZJHK,2020-06-04 05:00,ZJHK 040500Z 21004MPS 160V260 9999 SCT026 35/25 Q1007 NOSIG
ZJHK,2020-06-04 06:00,ZJHK 040600Z 16003MPS 120V200 9999 SCT026 35/26 Q1006 NOSIG
ZJHK,2020-06-04 07:00,ZJHK 040700Z 17005MPS 140V200 9999 SCT026 34/26 Q1005 BECMG AT0830 TS
ZJHK,2020-06-04 08:00,ZJHK 040800Z 20004MPS 160V230 9999 TS FEW026 FEW030CB 34/25 Q1004 BECMG AT1000 NSW
ZJHK,2020-06-04 09:00,ZJHK 040900Z 36003MPS 290V030 6000 -TSRA SCT012 FEW023CB BKN033 26/24 Q1005 RESHRA BECMG AT1000 -SHRA
ZJHK,2020-06-04 10:00,ZJHK 041000Z 04003MPS 010V080 9999 FEW020 26/25 Q1005 RETS NOSIG
ZJHK,2020-06-04 11:00,ZJHK 041100Z 14002MPS CAVOK 26/24 Q1005 NOSIG
ZJHK,2020-06-04 12:00,ZJHK 041200Z 14003MPS CAVOK 26/25 Q1005 NOSIG
ZJHK,2020-06-04 13:00,ZJHK 041300Z 15003MPS 120V180 CAVOK 27/26 Q1005 NOSIG
ZJHK,2020-06-04 14:00,ZJHK 041400Z 15004MPS CAVOK 28/26 Q1006 NOSIG
ZJHK,2020-06-04 15:00,ZJHK 041500Z 16004MPS 130V190 CAVOK 28/26 Q1006 NOSIG
ZJHK,2020-06-04 16:00,ZJHK 041600Z 17005MPS 140V200 CAVOK 28/26 Q1007 NOSIG
ZJHK,2020-06-04 17:00,ZJHK 041700Z 17004MPS 140V200 CAVOK 28/26 Q1006 NOSIG
ZJHK,2020-06-04 18:00,ZJHK 041800Z 17003MPS CAVOK 28/26 Q1006 NOSIG
ZJHK,2020-06-04 19:00,ZJHK 041900Z 19003MPS 160V220 CAVOK 28/26 Q1006 NOSIG
ZJHK,2020-06-04 20:00,ZJHK 042000Z 18002MPS CAVOK 27/25 Q1006 NOSIG
ZJHK,2020-06-04 21:00,ZJHK 042100Z 17002MPS CAVOK 27/25 Q1005 NOSIG
ZJHK,2020-06-04 22:00,ZJHK 042200Z 17003MPS 130V200 CAVOK 27/26 Q1005 NOSIG
ZJHK,2020-06-04 23:00,ZJHK 042300Z 17003MPS 140V210 CAVOK 28/26 Q1006 NOSIG
ZJHK,2020-06-05 00:00,ZJHK 050000Z 18004MPS CAVOK 29/26 Q1007 NOSIG
ZJHK,2020-06-05 01:00,ZJHK 050100Z 19004MPS CAVOK 30/26 Q1007 NOSIG
ZJHK,2020-06-05 02:00,ZJHK 050200Z 18004MPS CAVOK 32/26 Q1007 NOSIG
ZJHK,2020-06-05 03:00,ZJHK 050300Z 20004MPS 160V240 9999 FEW026 33/26 Q1007 NOSIG
ZJHK,2020-06-05 04:00,ZJHK 050400Z 20004MPS 170V240 9999 FEW026 33/26 Q1007 NOSIG
ZJHK,2020-06-05 05:00,ZJHK 050500Z 21004MPS 180V260 9999 SCT030 35/26 Q1006 NOSIG
ZJHK,2020-06-05 06:00,ZJHK 050600Z 21004MPS 150V240 9999 FEW030TCU SCT030 35/26 Q1005 NOSIG
ZJHK,2020-06-05 07:00,ZJHK 050700Z 19003MPS 150V240 9999 FEW026 FEW030CB SCT030 35/25 Q1004 NOSIG
ZJHK,2020-06-05 08:00,ZJHK 050800Z 16005MPS 120V200 9999 SCT026 FEW030CB 34/27 Q1004 NOSIG
ZJHK,2020-06-05 09:00,ZJHK 050900Z 33007MPS 300V360 8000 -TSRA SCT030CB SCT033 28/25 Q1005 NOSIG
ZJHK,2020-06-05 10:00,ZJHK 051000Z 20004MPS 150V240 9999 -TSRA SCT030CB SCT033 27/25 Q1005 BECMG AT1040 NSW
ZJHK,2020-06-05 11:00,ZJHK 051100Z 17002MPS 150V210 9999 FEW030CB 26/25 Q1005 RETS NOSIG
ZJHK,2020-06-05 12:00,ZJHK 051200Z 18003MPS 140V200 CAVOK 26/25 Q1005 NOSIG
ZJHK,2020-06-05 13:00,ZJHK 051300Z 21003MPS CAVOK 26/24 Q1005 NOSIG
ZJHK,2020-06-05 14:00,ZJHK 051400Z 21002MPS CAVOK 26/25 Q1006 NOSIG
ZJHK,2020-06-05 15:00,ZJHK 051500Z 00000MPS CAVOK 26/25 Q1006 NOSIG
ZJHK,2020-06-05 16:00,ZJHK 051600Z 17001MPS CAVOK 26/25 Q1006 NOSIG
ZJHK,2020-06-05 17:00,ZJHK 051700Z 14002MPS 110V170 CAVOK 26/25 Q1006 NOSIG
ZJHK,2020-06-05 18:00,ZJHK 051800Z VRB01MPS CAVOK 26/25 Q1006 NOSIG
ZJHK,2020-06-05 19:00,ZJHK 051900Z 20002MPS 160V250 CAVOK 27/26 Q1005 NOSIG
ZJHK,2020-06-05 20:00,ZJHK 052000Z 19002MPS 160V230 CAVOK 27/25 Q1005 NOSIG
ZJHK,2020-06-05 21:00,ZJHK 052100Z 18003MPS CAVOK 27/25 Q1005 NOSIG
ZJHK,2020-06-05 22:00,ZJHK 052200Z 18003MPS CAVOK 27/25 Q1005 NOSIG
ZJHK,2020-06-05 23:00,ZJHK 052300Z 18003MPS 150V220 CAVOK 28/25 Q1005 NOSIG
ZJHK,2020-06-06 00:00,ZJHK 060000Z 19003MPS 160V220 CAVOK 29/25 Q1006 NOSIG
ZJHK,2020-06-06 01:00,ZJHK 060100Z 20003MPS 170V240 CAVOK 31/26 Q1006 NOSIG
ZJHK,2020-06-06 02:00,ZJHK 060200Z 20004MPS 160V260 CAVOK 32/26 Q1007 NOSIG
ZJHK,2020-06-06 03:00,ZJHK 060300Z 21004MPS 180V240 CAVOK 33/26 Q1006 NOSIG
ZJHK,2020-06-06 04:00,ZJHK 060400Z 22004MPS 190V260 9999 FEW020 34/26 Q1006 NOSIG
ZJHK,2020-06-06 05:00,ZJHK 060500Z 22004MPS 170V250 9999 SCT020 35/25 Q1005 NOSIG
ZJHK,2020-06-06 06:00,ZJHK 060600Z 19003MPS 160V240 9999 FEW020TCU SCT020 35/25 Q1004 NOSIG
ZJHK,2020-06-06 07:00,ZJHK 060700Z 20003MPS 150V250 9999 TS FEW020CB FEW020 36/25 Q1003 BECMG TL0720 TS
ZJHK,2020-06-06 08:00,ZJHK 060800Z 24006MPS 9999 -TSRA FEW023CB SCT026 28/25 Q1004 BECMG TL0950 NSW
ZJHK,2020-06-06 09:00,ZJHK 060900Z 11005MPS 8000 -TSRA FEW015 FEW026CB SCT040 26/24 Q1004 RESHRA BECMG TL0920 NSW
ZJHK,2020-06-06 10:00,ZJHK 061000Z 23004MPS 190V260 9999 TS FEW015 FEW026CB SCT040 26/25 Q1005 BECMG TL1100 NSW
ZJHK,2020-06-06 11:00,ZJHK 061100Z 16003MPS 130V190 9999 FEW026TCU SCT043 26/24 Q1005 RETS NOSIG
ZJHK,2020-06-06 12:00,ZJHK 061200Z 14003MPS 9999 FEW010 25/24 Q1005 NOSIG
ZJHK,2020-06-06 13:00,ZJHK 061300Z 15004MPS CAVOK 26/24 Q1005 NOSIG
ZJHK,2020-06-06 14:00,ZJHK 061400Z 17002MPS CAVOK 26/25 Q1005 NOSIG
ZJHK,2020-06-06 15:00,ZJHK 061500Z 16002MPS 120V210 9999 FEW015 27/26 Q1006 NOSIG
ZJHK,2020-06-06 16:00,ZJHK 061600Z 14002MPS 110V180 CAVOK 27/26 Q1006 NOSIG
ZJHK,2020-06-06 17:00,ZJHK 061700Z VRB01MPS 5000 BR FEW002 BKN003 27/26 Q1006 BECMG TL1800 2800
ZJHK,2020-06-06 18:00,ZJHK 061800Z 19002MPS 160V220 8000 NSC 27/26 Q1005 NOSIG
ZJHK,2020-06-06 19:00,ZJHK 061900Z 19002MPS 160V220 CAVOK 27/26 Q1005 NOSIG
ZJHK,2020-06-06 20:00,ZJHK 062000Z 19004MPS 150V220 CAVOK 27/25 Q1005 NOSIG
ZJHK,2020-06-06 21:00,ZJHK 062100Z 19004MPS 140V210 CAVOK 27/25 Q1005 NOSIG
ZJHK,2020-06-06 22:00,ZJHK 062200Z 18003MPS 150V210 CAVOK 27/25 Q1005 NOSIG
ZJHK,2020-06-06 23:00,ZJHK 062300Z 18003MPS 150V210 CAVOK 27/25 Q1005 NOSIG
ZJHK,2020-06-07 00:00,ZJHK 070000Z 19004MPS 160V220 CAVOK 29/26 Q1004 NOSIG
ZJHK,2020-06-07 01:00,ZJHK 070100Z 18004MPS 150V210 CAVOK 31/26 Q1004 NOSIG
ZJHK,2020-06-07 02:00,ZJHK 070200Z 19005MPS 160V220 CAVOK 32/25 Q1004 NOSIG
ZJHK,2020-06-07 03:00,ZJHK 070300Z 21004MPS 170V240 CAVOK 34/26 Q1004 NOSIG
ZJHK,2020-06-07 04:00,ZJHK 070400Z 20004MPS 160V240 CAVOK 34/26 Q1004 NOSIG
ZJHK,2020-06-07 05:00,ZJHK 070500Z 21003MPS 170V250 9999 FEW026 35/26 Q1004 NOSIG
ZJHK,2020-06-07 06:00,ZJHK 070600Z 19003MPS 160V220 9999 FEW026 35/26 Q1003 BECMG TL0740 SCT020 FEW026CB
ZJHK,2020-06-07 07:00,ZJHK 070700Z 19002MPS 150V230 9999 FEW026 36/26 Q1002 NOSIG
ZJHK,2020-06-07 08:00,ZJHK 070800Z 16005MPS 120V190 9999 FEW026 34/28 Q1002 NOSIG
ZJHK,2020-06-07 09:00,ZJHK 070900Z 16005MPS 120V200 9999 FEW026CB SCT026 33/28 Q1001 BECMG AT0920 TSRA
ZJHK,2020-06-07 10:00,ZJHK 071000Z VRB03MPS 7000 TSRA SCT010 SCT026CB SCT026 28/26 Q1002 BECMG TL1020 -TSRA
ZJHK,2020-06-07 11:00,ZJHK 071100Z 16004MPS 110V220 9999 -TSRA FEW010 SCT026CB 24/23 Q1003 RESHRA BECMG TL1200 NSW SCT020
ZJHK,2020-06-07 12:00,ZJHK 071200Z 00000MPS 9999 FEW033 24/22 Q1003 RETS NOSIG
ZJHK,2020-06-07 13:00,ZJHK 071300Z VRB01MPS CAVOK 25/23 Q1004 NOSIG
ZJHK,2020-06-07 14:00,ZJHK 071400Z 09001MPS CAVOK 24/22 Q1004 NOSIG
ZJHK,2020-06-07 15:00,ZJHK 071500Z VRB01MPS CAVOK 25/23 Q1004 NOSIG
ZJHK,2020-06-07 16:00,ZJHK 071600Z 19002MPS 160V220 CAVOK 26/24 Q1004 NOSIG
ZJHK,2020-06-07 17:00,ZJHK 071700Z 20002MPS 170V240 CAVOK 26/25 Q1003 NOSIG
ZJHK,2020-06-07 18:00,ZJHK 071800Z 19002MPS CAVOK 27/25 Q1003 NOSIG
ZJHK,2020-06-07 19:00,ZJHK 071900Z 18002MPS 160V220 CAVOK 27/24 Q1003 NOSIG
ZJHK,2020-06-07 20:00,ZJHK 072000Z 17002MPS 140V200 CAVOK 27/24 Q1003 NOSIG
ZJHK,2020-06-07 21:00,ZJHK 072100Z 17003MPS 140V200 CAVOK 27/25 Q1003 NOSIG
ZJHK,2020-06-07 22:00,ZJHK 072200Z 17002MPS 140V210 CAVOK 27/25 Q1003 NOSIG
ZJHK,2020-06-07 23:00,ZJHK 072300Z 17003MPS 140V210 CAVOK 27/25 Q1004 NOSIG
ZJHK,2020-06-08 00:00,ZJHK 080000Z 18003MPS CAVOK 28/25 Q1005 NOSIG
ZJHK,2020-06-08 01:00,ZJHK 080100Z 18003MPS 150V210 CAVOK 29/26 Q1005 NOSIG
ZJHK,2020-06-08 02:00,ZJHK 080200Z 19003MPS 160V220 CAVOK 30/26 Q1006 NOSIG
ZJHK,2020-06-08 03:00,ZJHK 080300Z 19003MPS 140V240 CAVOK 31/27 Q1005 NOSIG
ZJHK,2020-06-08 04:00,ZJHK 080400Z 18004MPS 150V220 CAVOK 32/26 Q1005 NOSIG
ZJHK,2020-06-08 05:00,ZJHK 080500Z 18004MPS 130V230 9999 FEW023 34/27 Q1004 NOSIG
ZJHK,2020-06-08 06:00,ZJHK 080600Z 19004MPS 140V230 9999 FEW023 35/26 Q1004 NOSIG
ZJHK,2020-06-08 07:00,ZJHK 080700Z 19003MPS 140V230 9999 FEW023 35/27 Q1003 NOSIG
ZJHK,2020-06-08 08:00,ZJHK 080800Z 17003MPS 130V240 9999 FEW023 36/27 Q1003 NOSIG
ZJHK,2020-06-08 09:00,ZJHK 080900Z 14003MPS 100V180 9999 FEW023TCU FEW023 34/28 Q1002 NOSIG
ZJHK,2020-06-08 10:00,ZJHK 081000Z 14004MPS 110V170 9999 FEW026CB FEW026 33/28 Q1002 NOSIG
ZJHK,2020-06-08 11:00,ZJHK 081100Z 15003MPS 120V190 9999 FEW026 31/28 Q1003 NOSIG
ZJHK,2020-06-08 12:00,ZJHK 081200Z 14002MPS 100V180 CAVOK 30/27 Q1003 NOSIG
ZJHK,2020-06-08 13:00,ZJHK 081300Z 14002MPS 090V160 CAVOK 29/27 Q1004 NOSIG
ZJHK,2020-06-08 14:00,ZJHK 081400Z VRB01MPS 9999 FEW026CB FEW026 29/27 Q1005 NOSIG
ZJHK,2020-06-08 15:00,ZJHK 081500Z VRB01MPS 9999 FEW026CB FEW026 28/27 Q1006 NOSIG
ZJHK,2020-06-08 16:00,ZJHK 081600Z 13001MPS CAVOK 28/27 Q1006 NOSIG
ZJHK,2020-06-08 17:00,ZJHK 081700Z 12002MPS CAVOK 28/26 Q1005 NOSIG
ZJHK,2020-06-08 18:00,ZJHK 081800Z 17002MPS 140V200 CAVOK 27/26 Q1005 NOSIG
ZJHK,2020-06-08 19:00,ZJHK 081900Z 18003MPS 150V210 CAVOK 28/26 Q1005 NOSIG
ZJHK,2020-06-08 20:00,ZJHK 082000Z 18003MPS 150V210 CAVOK 28/26 Q1005 NOSIG
ZJHK,2020-06-08 21:00,ZJHK 082100Z 19003MPS 150V220 CAVOK 28/26 Q1005 NOSIG
ZJHK,2020-06-08 22:00,ZJHK 082200Z 18003MPS 150V210 CAVOK 28/26 Q1005 NOSIG
ZJHK,2020-06-08 23:00,ZJHK 082300Z 17004MPS 140V200 CAVOK 28/26 Q1005 NOSIG
ZJHK,2020-06-09 00:00,ZJHK 090000Z 18004MPS 150V220 CAVOK 29/26 Q1006 NOSIG
ZJHK,2020-06-09 01:00,ZJHK 090100Z 19005MPS 160V220 CAVOK 31/26 Q1006 NOSIG
ZJHK,2020-06-09 02:00,ZJHK 090200Z 20004MPS 180V240 CAVOK 32/27 Q1007 NOSIG
ZJHK,2020-06-09 03:00,ZJHK 090300Z 19005MPS 150V230 CAVOK 33/26 Q1007 NOSIG
ZJHK,2020-06-09 04:00,ZJHK 090400Z 20005MPS 160V230 CAVOK 34/26 Q1007 NOSIG
ZJHK,2020-06-09 05:00,ZJHK 090500Z 19004MPS 140V240 9999 FEW020 35/26 Q1007 NOSIG
ZJHK,2020-06-09 06:00,ZJHK 090600Z 18004MPS 130V220 9999 FEW026TCU FEW026 35/26 Q1005 NOSIG
ZJHK,2020-06-09 07:00,ZJHK 090700Z 19004MPS 160V240 9999 FEW026TCU FEW026 36/26 Q1005 NOSIG
ZJHK,2020-06-09 08:00,ZJHK 090800Z 14004MPS 110V180 9999 FEW026CB FEW026 SCT040 34/25 Q1004 NOSIG
ZJHK,2020-06-09 09:00,ZJHK 090900Z 26012G19MPS 0700 R27/P2000 +SHRA FEW010 BKN026CB 25/22 Q1007 BECMG AT1030 -SHRA
ZJHK,2020-06-09 10:00,ZJHK 091000Z 36002MPS 320V070 9999 -SHRA SCT009 FEW026CB BKN040 25/24 Q1006 RETSRA NOSIG
ZJHK,2020-06-09 11:00,ZJHK 091100Z VRB01MPS 9999 FEW013 SCT046 25/24 Q1006 NOSIG
ZJHK,2020-06-09 12:00,ZJHK 091200Z 13002MPS 090V160 9999 FEW040 25/24 Q1007 NOSIG
ZJHK,2020-06-09 13:00,ZJHK 091300Z 15004MPS 9999 SCT043 26/24 Q1007 NOSIG
ZJHK,2020-06-09 14:00,ZJHK 091400Z 15004MPS CAVOK 26/24 Q1007 NOSIG
ZJHK,2020-06-09 15:00,ZJHK 091500Z 15003MPS 120V190 CAVOK 26/25 Q1008 NOSIG
ZJHK,2020-06-09 16:00,ZJHK 091600Z 16003MPS CAVOK 27/26 Q1008 NOSIG
ZJHK,2020-06-09 17:00,ZJHK 091700Z 17004MPS 140V210 CAVOK 28/26 Q1008 NOSIG
ZJHK,2020-06-09 18:00,ZJHK 091800Z 16002MPS 120V200 CAVOK 27/26 Q1007 NOSIG
ZJHK,2020-06-09 19:00,ZJHK 091900Z 16003MPS 140V200 CAVOK 27/26 Q1007 NOSIG
ZJHK,2020-06-09 20:00,ZJHK 092000Z 15003MPS 120V180 CAVOK 27/26 Q1007 NOSIG
ZJHK,2020-06-09 21:00,ZJHK 092100Z 16003MPS CAVOK 27/26 Q1007 NOSIG
ZJHK,2020-06-09 22:00,ZJHK 092200Z 16002MPS 130V200 CAVOK 27/26 Q1007 NOSIG
ZJHK,2020-06-09 23:00,ZJHK 092300Z 16003MPS 130V190 CAVOK 27/26 Q1007 NOSIG
ZJHK,2020-06-10 00:00,ZJHK 100000Z 17004MPS 140V200 CAVOK 29/27 Q1007 NOSIG
ZJHK,2020-06-10 01:00,ZJHK 100100Z 19005MPS 150V210 CAVOK 30/26 Q1008 NOSIG
ZJHK,2020-06-10 02:00,ZJHK 100200Z 18005MPS 150V220 CAVOK 32/26 Q1008 NOSIG
ZJHK,2020-06-10 03:00,ZJHK 100300Z 18004MPS CAVOK 33/25 Q1008 NOSIG
ZJHK,2020-06-10 04:00,ZJHK 100400Z 17003MPS 110V210 9999 FEW023 34/25 Q1008 NOSIG
ZJHK,2020-06-10 05:00,ZJHK 100500Z 20003MPS 140V260 9999 FEW023 34/25 Q1007 NOSIG
ZJHK,2020-06-10 06:00,ZJHK 100600Z 18003MPS 120V260 9999 FEW023 35/25 Q1006 NOSIG
ZJHK,2020-06-10 07:00,ZJHK 100700Z 24002MPS 180V330 9999 FEW030TCU FEW030 36/25 Q1006 NOSIG
ZJHK,2020-06-10 08:00,ZJHK 100800Z VRB01MPS 9999 SCT030 36/24 Q1005 NOSIG
ZJHK,2020-06-10 09:00,ZJHK 100900Z 15004MPS 120V180 9999 SCT030 35/27 Q1004 NOSIG
ZJHK,2020-06-10 10:00,ZJHK 101000Z 14004MPS 110V170 9999 FEW030CB SCT030 33/25 Q1004 NOSIG
ZJHK,2020-06-10 11:00,ZJHK 101100Z 12003MPS 9999 FEW030CB FEW030 31/25 Q1005 NOSIG
ZJHK,2020-06-10 12:00,ZJHK 101200Z VRB01MPS 9999 FEW030 30/25 Q1006 NOSIG
ZJHK,2020-06-10 13:00,ZJHK 101300Z 14002MPS CAVOK 29/25 Q1006 NOSIG
ZJHK,2020-06-10 14:00,ZJHK 101400Z 16003MPS 130V190 CAVOK 28/25 Q1007 NOSIG
ZJHK,2020-06-10 15:00,ZJHK 101500Z 18003MPS 130V210 CAVOK 28/26 Q1008 NOSIG
ZJHK,2020-06-10 16:00,ZJHK 101600Z 16003MPS 140V200 CAVOK 28/26 Q1008 NOSIG
ZJHK,2020-06-10 17:00,ZJHK 101700Z 17003MPS 130V200 CAVOK 28/26 Q1008 NOSIG
ZJHK,2020-06-10 18:00,ZJHK 101800Z 18003MPS CAVOK 28/26 Q1007 NOSIG
ZJHK,2020-06-10 19:00,ZJHK 101900Z 18004MPS 140V210 CAVOK 28/26 Q1007 NOSIG
ZJHK,2020-06-10 20:00,ZJHK 102000Z 18003MPS 150V220 CAVOK 27/26 Q1007 NOSIG
ZJHK,2020-06-10 21:00,ZJHK 102100Z 18002MPS 150V220 CAVOK 27/26 Q1007 NOSIG
ZJHK,2020-06-10 22:00,ZJHK 102200Z 17002MPS CAVOK 27/25 Q1007 NOSIG
ZJHK,2020-06-10 23:00,ZJHK 102300Z 18002MPS 140V210 CAVOK 27/26 Q1007 NOSIG
ZJHK,2020-06-11 00:00,ZJHK 110000Z 18003MPS 140V230 CAVOK 29/26 Q1007 NOSIG
ZJHK,2020-06-11 01:00,ZJHK 110100Z 22003MPS 190V260 CAVOK 30/25 Q1007 NOSIG
ZJHK,2020-06-11 02:00,ZJHK 110200Z 23003MPS 180V270 CAVOK 32/25 Q1007 NOSIG
ZJHK,2020-06-11 03:00,ZJHK 110300Z 23003MPS 200V270 9999 FEW023 33/26 Q1007 NOSIG
ZJHK,2020-06-11 04:00,ZJHK 110400Z 19003MPS 160V230 9999 FEW023 34/24 Q1007 NOSIG
ZJHK,2020-06-11 05:00,ZJHK 110500Z 17003MPS 080V220 9999 FEW023 34/25 Q1006 NOSIG
ZJHK,2020-06-11 06:00,ZJHK 110600Z 19002MPS 120V270 9999 SCT023 35/25 Q1005 NOSIG
ZJHK,2020-06-11 07:00,ZJHK 110700Z 16003MPS 120V210 9999 SCT026 34/26 Q1004 NOSIG
ZJHK,2020-06-11 08:00,ZJHK 110800Z 14004MPS 9999 SCT026 35/26 Q1004 NOSIG
ZJHK,2020-06-11 09:00,ZJHK 110900Z 15004MPS 100V180 9999 FEW026 34/26 Q1003 NOSIG
ZJHK,2020-06-11 10:00,ZJHK 111000Z 15004MPS 120V180 9999 FEW026 33/25 Q1003 NOSIG
ZJHK,2020-06-11 11:00,ZJHK 111100Z 14003MPS 9999 FEW033 31/25 Q1003 NOSIG
ZJHK,2020-06-11 12:00,ZJHK 111200Z 13003MPS 100V160 CAVOK 29/25 Q1003 NOSIG
ZJHK,2020-06-11 13:00,ZJHK 111300Z 14003MPS 100V160 CAVOK 29/25 Q1004 NOSIG
ZJHK,2020-06-11 14:00,ZJHK 111400Z 14002MPS CAVOK 28/25 Q1005 NOSIG
ZJHK,2020-06-11 15:00,ZJHK 111500Z 15003MPS 120V190 CAVOK 28/25 Q1005 NOSIG
ZJHK,2020-06-11 16:00,ZJHK 111600Z 15002MPS 120V180 CAVOK 28/25 Q1006 NOSIG
ZJHK,2020-06-11 17:00,ZJHK 111700Z 16002MPS 100V200 CAVOK 27/25 Q1005 NOSIG
ZJHK,2020-06-11 18:00,ZJHK 111800Z 18002MPS CAVOK 27/25 Q1005 NOSIG
ZJHK,2020-06-11 19:00,ZJHK 111900Z 14002MPS CAVOK 26/25 Q1005 NOSIG
ZJHK,2020-06-11 20:00,ZJHK 112000Z 15002MPS 120V180 CAVOK 26/25 Q1005 NOSIG
ZJHK,2020-06-11 21:00,ZJHK 112100Z 16002MPS 140V210 CAVOK 26/24 Q1005 NOSIG
ZJHK,2020-06-11 22:00,ZJHK 112200Z 14002MPS 100V210 CAVOK 26/24 Q1005 NOSIG
ZJHK,2020-06-11 23:00,ZJHK 112300Z 17002MPS 120V200 CAVOK 27/24 Q1005 NOSIG
ZJHK,2020-06-12 00:00,ZJHK 120000Z 17004MPS 140V200 CAVOK 29/25 Q1005 NOSIG
ZJHK,2020-06-12 01:00,ZJHK 120100Z 17005MPS 150V210 9999 FEW020 31/24 Q1006 NOSIG
ZJHK,2020-06-12 02:00,ZJHK 120200Z 18004MPS 140V220 9999 FEW020 32/24 Q1005 NOSIG
ZJHK,2020-06-12 03:00,ZJHK 120300Z 17003MPS 110V220 9999 FEW020 33/25 Q1004 NOSIG
ZJHK,2020-06-12 04:00,ZJHK 120400Z 20002MPS 150V270 9999 FEW020 34/24 Q1004 NOSIG
ZJHK,2020-06-12 05:00,ZJHK 120500Z VRB01MPS 9999 FEW026 35/25 Q1003 NOSIG
ZJHK,2020-06-12 06:00,ZJHK 120600Z 26002MPS 200V340 9999 FEW033 36/26 Q1002 NOSIG
ZJHK,2020-06-12 07:00,ZJHK 120700Z 14003MPS 090V190 9999 BKN030 36/25 Q1001 NOSIG
ZJHK,2020-06-12 08:00,ZJHK 120800Z 14005MPS 090V170 9999 SCT030 33/26 Q1001 NOSIG
ZJHK,2020-06-12 09:00,ZJHK 120900Z 13004MPS 9999 FEW030CB FEW030 32/26 Q1001 NOSIG
ZJHK,2020-06-12 10:00,ZJHK 121000Z 14004MPS 110V170 9999 FEW030 32/26 Q1001 NOSIG
ZJHK,2020-06-12 11:00,ZJHK 121100Z 13004MPS CAVOK 31/25 Q1001 NOSIG
ZJHK,2020-06-12 12:00,ZJHK 121200Z 13003MPS 080V160 CAVOK 29/25 Q1002 NOSIG
ZJHK,2020-06-12 13:00,ZJHK 121300Z 15003MPS 9999 SCT015 28/26 Q1003 NOSIG
ZJHK,2020-06-12 14:00,ZJHK 121400Z 15002MPS 120V210 9999 FEW015 28/26 Q1004 NOSIG
ZJHK,2020-06-12 15:00,ZJHK 121500Z 14002MPS 110V170 CAVOK 27/26 Q1004 NOSIG
ZJHK,2020-06-12 16:00,ZJHK 121600Z 13002MPS 100V160 9999 FEW015 27/26 Q1004 NOSIG
ZJHK,2020-06-12 17:00,ZJHK 121700Z 12002MPS 090V150 CAVOK 27/25 Q1003 NOSIG
ZJHK,2020-06-12 18:00,ZJHK 121800Z 12002MPS CAVOK 26/25 Q1003 NOSIG
ZJHK,2020-06-12 19:00,ZJHK 121900Z 11002MPS CAVOK 26/25 Q1003 NOSIG
ZJHK,2020-06-12 20:00,ZJHK 122000Z 12002MPS CAVOK 26/25 Q1003 NOSIG
ZJHK,2020-06-12 21:00,ZJHK 122100Z 12003MPS CAVOK 26/25 Q1003 NOSIG
ZJHK,2020-06-12 22:00,ZJHK 122200Z VRB01MPS CAVOK 26/25 Q1003 NOSIG
ZJHK,2020-06-12 23:00,ZJHK 122300Z 14001MPS CAVOK 27/26 Q1003 NOSIG
ZJHK,2020-06-13 00:00,ZJHK 130000Z 13002MPS 100V160 CAVOK 28/27 Q1003 NOSIG
ZJHK,2020-06-13 01:00,ZJHK 130100Z 12002MPS 090V150 CAVOK 30/27 Q1004 NOSIG
ZJHK,2020-06-13 02:00,ZJHK 130200Z 16002MPS 100V230 9999 FEW026 32/26 Q1003 NOSIG
ZJHK,2020-06-13 03:00,ZJHK 130300Z VRB02MPS 9999 FEW026 33/26 Q1004 NOSIG
ZJHK,2020-06-13 04:00,ZJHK 130400Z 11004MPS 090V160 9999 FEW026 34/25 Q1004 NOSIG
ZJHK,2020-06-13 05:00,ZJHK 130500Z 12004MPS 080V160 9999 SCT026 34/24 Q1003 NOSIG
ZJHK,2020-06-13 06:00,ZJHK 130600Z 10003MPS 070V140 9999 SCT026 34/24 Q1002 NOSIG
ZJHK,2020-06-13 07:00,ZJHK 130700Z 06004MPS 030V110 9999 SCT026 35/27 Q1002 NOSIG
ZJHK,2020-06-13 08:00,ZJHK 130800Z 06006MPS 030V090 9999 SCT026 34/27 Q1001 NOSIG
ZJHK,2020-06-13 09:00,ZJHK 130900Z 07005MPS 9999 FEW026 34/27 Q1001 NOSIG
ZJHK,2020-06-13 10:00,ZJHK 131000Z 08006MPS 9999 FEW033 32/26 Q1001 NOSIG
ZJHK,2020-06-13 11:00,ZJHK 131100Z 12004MPS 9999 FEW033 30/26 Q1002 NOSIG
ZJHK,2020-06-13 12:00,ZJHK 131200Z 13003MPS 100V160 CAVOK 29/26 Q1003 NOSIG
ZJHK,2020-06-13 13:00,ZJHK 131300Z 12003MPS CAVOK 29/26 Q1004 NOSIG
ZJHK,2020-06-13 14:00,ZJHK 131400Z 20003MPS 160V230 CAVOK 29/26 Q1004 NOSIG
ZJHK,2020-06-13 15:00,ZJHK 131500Z 19002MPS 150V220 9999 FEW046 28/26 Q1004 NOSIG
ZJHK,2020-06-13 16:00,ZJHK 131600Z 14002MPS 100V170 9999 -RA FEW046 28/26 Q1004 NOSIG
ZJHK,2020-06-13 17:00,ZJHK 131700Z 12002MPS 090V170 9999 -RA FEW046 28/26 Q1004 NOSIG
ZJHK,2020-06-13 18:00,ZJHK 131800Z 12003MPS 9999 -RA FEW046 27/26 Q1004 NOSIG
ZJHK,2020-06-13 19:00,ZJHK 131900Z 11002MPS 080V140 9999 -SHRA FEW033TCU SCT046 27/26 Q1004 NOSIG
ZJHK,2020-06-13 20:00,ZJHK 132000Z 12003MPS 6000 SHRA SCT033TCU BKN046 27/26 Q1004 NOSIG
ZJHK,2020-06-13 21:00,ZJHK 132100Z 10003MPS 9999 -SHRA FEW033TCU SCT046 26/24 Q1004 RESHRA NOSIG
ZJHK,2020-06-13 22:00,ZJHK 132200Z 14003MPS 9999 -SHRA FEW033TCU SCT046 25/24 Q1004 NOSIG
ZJHK,2020-06-13 23:00,ZJHK 132300Z 08002MPS 030V120 9999 SCT046 25/24 Q1004 NOSIG
ZJHK,2020-06-14 00:00,ZJHK 140000Z 09002MPS 9999 SCT046 26/24 Q1004 NOSIG
ZJHK,2020-06-14 01:00,ZJHK 140100Z 04002MPS 010V080 9999 BKN046 27/25 Q1005 NOSIG
ZJHK,2020-06-14 02:00,ZJHK 140200Z VRB01MPS 9999 FEW023TCU SCT046 28/25 Q1006 NOSIG
ZJHK,2020-06-14 03:00,ZJHK 140300Z 26002MPS 220V280 9999 FEW023TCU SCT046 29/25 Q1006 NOSIG
ZJHK,2020-06-14 04:00,ZJHK 140400Z 30003MPS 270V340 9999 FEW020TCU SCT046 28/25 Q1007 BECMG TL0520 SHRA
ZJHK,2020-06-14 05:00,ZJHK 140500Z 34002MPS 270V040 9999 FEW020TCU SCT046 27/25 Q1007 BECMG TL0530 SHRA
ZJHK,2020-06-14 06:00,ZJHK 140600Z 13002MPS 090V160 9999 FEW020TCU SCT033 28/26 Q1006 NOSIG
ZJHK,2020-06-14 07:00,ZJHK 140700Z 12003MPS 9999 FEW020TCU SCT033 28/26 Q1006 BECMG TL0740 SHRA
ZJHK,2020-06-14 08:00,ZJHK 140800Z 15002MPS 120V200 9999 FEW020TCU SCT033 28/26 Q1005 NOSIG
ZJHK,2020-06-14 09:00,ZJHK 140900Z 19003MPS 9999 FEW023 SCT033 27/26 Q1006 BECMG TL1020 SCT020 FEW026CB
ZJHK,2020-06-14 10:00,ZJHK 141000Z 18002MPS 150V220 9999 FEW010 FEW023TCU SCT033 27/25 Q1006 BECMG TL1140 SCT020
ZJHK,2020-06-14 11:00,ZJHK 141100Z 26003MPS 9999 -SHRA SCT008 FEW023TCU SCT023 25/24 Q1007 BECMG TL1240 SCT020
ZJHK,2020-06-14 12:00,ZJHK 141200Z 15002MPS 110V170 CAVOK 26/25 Q1006 NOSIG
ZJHK,2020-06-14 13:00,ZJHK 141300Z 15003MPS CAVOK 25/24 Q1007 NOSIG
ZJHK,2020-06-14 14:00,ZJHK 141400Z 19003MPS CAVOK 25/24 Q1008 NOSIG
ZJHK,2020-06-14 15:00,ZJHK 141500Z 17003MPS CAVOK 25/24 Q1009 NOSIG
ZJHK,2020-06-14 16:00,ZJHK 141600Z 16003MPS 130V210 CAVOK 26/24 Q1009 NOSIG
ZJHK,2020-06-14 17:00,ZJHK 141700Z 15003MPS CAVOK 26/24 Q1008 NOSIG
ZJHK,2020-06-14 18:00,ZJHK 141800Z 14002MPS 100V170 CAVOK 26/24 Q1008 NOSIG
ZJHK,2020-06-14 19:00,ZJHK 141900Z 14002MPS 100V170 CAVOK 25/23 Q1008 NOSIG
ZJHK,2020-06-14 20:00,ZJHK 142000Z 15002MPS 110V180 CAVOK 25/24 Q1007 NOSIG
ZJHK,2020-06-14 21:00,ZJHK 142100Z 16003MPS 130V190 CAVOK 26/25 Q1008 NOSIG
ZJHK,2020-06-14 22:00,ZJHK 142200Z 16004MPS CAVOK 26/24 Q1008 NOSIG
ZJHK,2020-06-14 23:00,ZJHK 142300Z 17003MPS CAVOK 26/24 Q1008 NOSIG
ZJHK,2020-06-15 00:00,ZJHK 150000Z 16003MPS 130V230 CAVOK 28/25 Q1008 NOSIG
ZJHK,2020-06-15 01:00,ZJHK 150100Z 15004MPS 120V190 9999 SCT013 30/27 Q1009 NOSIG
ZJHK,2020-06-15 02:00,ZJHK 150200Z 15004MPS 9999 BKN015 29/26 Q1009 NOSIG
ZJHK,2020-06-15 03:00,ZJHK 150300Z 18005MPS 140V210 9999 BKN016 31/26 Q1010 NOSIG
ZJHK,2020-06-15 04:00,ZJHK 150400Z 18005MPS 140V220 9999 SCT020 BKN033 31/26 Q1009 NOSIG
ZJHK,2020-06-15 05:00,ZJHK 150500Z 16004MPS 130V200 9999 BKN020 32/27 Q1008 NOSIG
ZJHK,2020-06-15 06:00,ZJHK 150600Z 18004MPS 140V220 9999 BKN023 32/27 Q1008 NOSIG
ZJHK,2020-06-15 07:00,ZJHK 150700Z 16008G13MPS 130V200 9999 SCT020 FEW030CB FEW030 29/24 Q1008 BECMG TL0730 18008G14MPS TSRA
ZJHK,2020-06-15 08:00,ZJHK 150800Z 18004MPS 140V210 9999 FEW010 FEW030CB 28/25 Q1007 RESHRA NOSIG
ZJHK,2020-06-15 09:00,ZJHK 150900Z 16003MPS 9999 FEW013 FEW030CB SCT046 27/24 Q1008 NOSIG
ZJHK,2020-06-15 10:00,ZJHK 151000Z 17002MPS 130V220 9999 -SHRA FEW013 FEW030CB SCT040 26/24 Q1008 NOSIG
ZJHK,2020-06-15 11:00,ZJHK 151100Z 14002MPS 110V180 9999 FEW020 26/24 Q1008 NOSIG
ZJHK,2020-06-15 12:00,ZJHK 151200Z 17004MPS 140V200 CAVOK 25/24 Q1009 NOSIG
ZJHK,2020-06-15 13:00,ZJHK 151300Z 18003MPS CAVOK 25/23 Q1009 NOSIG
ZJHK,2020-06-15 14:00,ZJHK 151400Z 18003MPS CAVOK 25/23 Q1009 NOSIG
ZJHK,2020-06-15 15:00,ZJHK 151500Z 19002MPS 150V240 CAVOK 25/23 Q1009 NOSIG
ZJHK,2020-06-15 16:00,ZJHK 151600Z 19002MPS 150V220 CAVOK 26/23 Q1010 NOSIG
ZJHK,2020-06-15 17:00,ZJHK 151700Z 18002MPS CAVOK 26/24 Q1009 NOSIG
ZJHK,2020-06-15 18:00,ZJHK 151800Z 18003MPS 150V210 CAVOK 26/24 Q1008 NOSIG
ZJHK,2020-06-15 19:00,ZJHK 151900Z 18003MPS CAVOK 26/25 Q1008 NOSIG
ZJHK,2020-06-15 20:00,ZJHK 152000Z 20003MPS 160V220 CAVOK 26/25 Q1008 NOSIG
ZJHK,2020-06-15 21:00,ZJHK 152100Z 20004MPS 150V240 CAVOK 27/25 Q1008 NOSIG
ZJHK,2020-06-15 22:00,ZJHK 152200Z 16003MPS 130V190 9999 FEW016 26/24 Q1008 NOSIG
ZJHK,2020-06-15 23:00,ZJHK 152300Z 18003MPS 9999 FEW016 26/24 Q1009 NOSIG
ZJHK,2020-06-16 00:00,ZJHK 160000Z 17003MPS 140V200 9999 FEW016 FEW026CB 27/25 Q1009 NOSIG
ZJHK,2020-06-16 01:00,ZJHK 160100Z 17003MPS 130V210 CAVOK 28/25 Q1010 NOSIG
ZJHK,2020-06-16 02:00,ZJHK 160200Z 17004MPS 130V190 9999 FEW020 29/25 Q1010 NOSIG
ZJHK,2020-06-16 03:00,ZJHK 160300Z 18005MPS 140V210 9999 FEW015 29/25 Q1009 NOSIG
ZJHK,2020-06-16 04:00,ZJHK 160400Z 20005MPS 170V240 9999 SCT046 29/24 Q1009 NOSIG
ZJHK,2020-06-16 05:00,ZJHK 160500Z 18005MPS 140V220 9999 FEW023 29/24 Q1008 NOSIG
ZJHK,2020-06-16 06:00,ZJHK 160600Z 19005MPS 150V220 9999 FEW023 29/24 Q1008 NOSIG
ZJHK,2020-06-16 07:00,ZJHK 160700Z 20004MPS 170V240 9999 FEW023 30/24 Q1007 NOSIG
ZJHK,2020-06-16 08:00,ZJHK 160800Z 20004MPS 160V240 9999 FEW023 30/24 Q1006 NOSIG
ZJHK,2020-06-16 09:00,ZJHK 160900Z 20004MPS 170V230 CAVOK 30/24 Q1006 NOSIG
ZJHK,2020-06-16 10:00,ZJHK 161000Z 17004MPS 150V220 CAVOK 29/24 Q1005 NOSIG
ZJHK,2020-06-16 11:00,ZJHK 161100Z 19003MPS 150V220 CAVOK 29/23 Q1006 NOSIG
ZJHK,2020-06-16 12:00,ZJHK 161200Z 20003MPS CAVOK 28/23 Q1006 NOSIG
ZJHK,2020-06-16 13:00,ZJHK 161300Z 18003MPS CAVOK 27/23 Q1007 NOSIG
ZJHK,2020-06-16 14:00,ZJHK 161400Z 17003MPS CAVOK 27/23 Q1007 NOSIG
ZJHK,2020-06-16 15:00,ZJHK 161500Z 15002MPS 120V190 CAVOK 26/23 Q1008 NOSIG
ZJHK,2020-06-16 16:00,ZJHK 161600Z 17003MPS CAVOK 27/23 Q1008 NOSIG
ZJHK,2020-06-16 17:00,ZJHK 161700Z 17003MPS 140V200 CAVOK 27/24 Q1007 NOSIG
ZJHK,2020-06-16 18:00,ZJHK 161800Z 17004MPS 140V200 CAVOK 27/25 Q1006 NOSIG
ZJHK,2020-06-16 19:00,ZJHK 161900Z 18003MPS CAVOK 26/25 Q1006 NOSIG
ZJHK,2020-06-16 20:00,ZJHK 162000Z 18003MPS 150V210 CAVOK 26/24 Q1006 NOSIG
ZJHK,2020-06-16 21:00,ZJHK 162100Z 18003MPS 140V210 CAVOK 26/25 Q1006 NOSIG
ZJHK,2020-06-16 22:00,ZJHK 162200Z 16003MPS CAVOK 26/25 Q1006 NOSIG
ZJHK,2020-06-16 23:00,ZJHK 162300Z 17004MPS 140V210 CAVOK 27/25 Q1007 NOSIG
ZJHK,2020-06-17 00:00,ZJHK 170000Z 17004MPS 140V220 9999 FEW023 28/26 Q1007 NOSIG
ZJHK,2020-06-17 01:00,ZJHK 170100Z 19007MPS 160V220 CAVOK 29/25 Q1007 NOSIG
ZJHK,2020-06-17 02:00,ZJHK 170200Z 19006MPS 150V220 CAVOK 29/24 Q1008 NOSIG
ZJHK,2020-06-17 03:00,ZJHK 170300Z 19007MPS 160V230 CAVOK 29/24 Q1008 NOSIG
ZJHK,2020-06-17 04:00,ZJHK 170400Z 19007MPS 160V220 CAVOK 30/24 Q1007 NOSIG
ZJHK,2020-06-17 05:00,ZJHK 170500Z 19007MPS 160V220 CAVOK 31/24 Q1007 NOSIG
ZJHK,2020-06-17 06:00,ZJHK 170600Z 18006MPS 150V220 CAVOK 32/23 Q1006 NOSIG
ZJHK,2020-06-17 07:00,ZJHK 170700Z 19005MPS 160V220 CAVOK 30/24 Q1006 NOSIG
ZJHK,2020-06-17 08:00,ZJHK 170800Z 18005MPS 140V200 CAVOK 31/24 Q1005 NOSIG
ZJHK,2020-06-17 09:00,ZJHK 170900Z 19005MPS 150V240 CAVOK 32/24 Q1005 NOSIG
ZJHK,2020-06-17 10:00,ZJHK 171000Z 19004MPS 150V220 CAVOK 31/24 Q1005 NOSIG
ZJHK,2020-06-17 11:00,ZJHK 171100Z 18004MPS 140V210 CAVOK 30/24 Q1005 NOSIG
ZJHK,2020-06-17 12:00,ZJHK 171200Z 17004MPS 140V200 CAVOK 29/24 Q1005 NOSIG
ZJHK,2020-06-17 13:00,ZJHK 171300Z 16003MPS 130V190 CAVOK 28/25 Q1006 NOSIG
ZJHK,2020-06-17 14:00,ZJHK 171400Z 16002MPS 130V200 CAVOK 27/24 Q1007 NOSIG
ZJHK,2020-06-17 15:00,ZJHK 171500Z 15004MPS CAVOK 27/25 Q1007 NOSIG
ZJHK,2020-06-17 16:00,ZJHK 171600Z 15003MPS CAVOK 27/25 Q1007 NOSIG
ZJHK,2020-06-17 17:00,ZJHK 171700Z 14002MPS 9999 SCT010 26/25 Q1007 NOSIG
ZJHK,2020-06-17 18:00,ZJHK 171800Z 15002MPS 120V190 CAVOK 26/25 Q1006 NOSIG
ZJHK,2020-06-17 19:00,ZJHK 171900Z 14002MPS CAVOK 26/25 Q1006 NOSIG
ZJHK,2020-06-17 20:00,ZJHK 172000Z 13002MPS 100V170 CAVOK 26/25 Q1006 NOSIG
ZJHK,2020-06-17 21:00,ZJHK 172100Z 16002MPS 130V200 CAVOK 27/25 Q1006 NOSIG
ZJHK,2020-06-17 22:00,ZJHK 172200Z 17003MPS 140V200 9999 FEW033TCU FEW033 27/25 Q1007 NOSIG
ZJHK,2020-06-17 23:00,ZJHK 172300Z 17003MPS 140V210 CAVOK 27/25 Q1007 NOSIG
ZJHK,2020-06-18 00:00,ZJHK 180000Z 18004MPS 140V220 CAVOK 29/26 Q1008 NOSIG
ZJHK,2020-06-18 01:00,ZJHK 180100Z 18003MPS 140V220 9999 FEW023 30/26 Q1008 NOSIG
ZJHK,2020-06-18 02:00,ZJHK 180200Z 18005MPS 150V230 9999 SCT023 32/25 Q1008 NOSIG
ZJHK,2020-06-18 03:00,ZJHK 180300Z 20005MPS 170V230 9999 BKN023 33/25 Q1008 NOSIG
ZJHK,2020-06-18 04:00,ZJHK 180400Z 18005MPS 160V220 9999 BKN023 34/24 Q1007 NOSIG
ZJHK,2020-06-18 05:00,ZJHK 180500Z 20004MPS 150V230 9999 BKN023 34/25 Q1007 NOSIG
ZJHK,2020-06-18 06:00,ZJHK 180600Z 16004MPS 120V190 9999 FEW023CB SCT026 34/26 Q1006 BECMG TL0700 SHRA
ZJHK,2020-06-18 07:00,ZJHK 180700Z 14006G11MPS 9999 -TSRA FEW020CB SCT033 28/25 Q1005 BECMG TL0800 -SHRA
ZJHK,2020-06-18 08:00,ZJHK 180800Z 14004MPS 090V180 9999 FEW020TCU FEW020 30/26 Q1005 RETS NOSIG
ZJHK,2020-06-18 09:00,ZJHK 180900Z 16005MPS 130V190 9999 FEW020TCU FEW020 32/26 Q1004 NOSIG
ZJHK,2020-06-18 10:00,ZJHK 181000Z 15005MPS 9999 FEW033 32/26 Q1004 NOSIG
ZJHK,2020-06-18 11:00,ZJHK 181100Z 15005MPS 9999 FEW026CB 30/25 Q1005 NOSIG
ZJHK,2020-06-18 12:00,ZJHK 181200Z 15003MPS 120V200 9999 FEW033 29/25 Q1005 NOSIG
ZJHK,2020-06-18 13:00,ZJHK 181300Z 16003MPS CAVOK 29/25 Q1006 NOSIG
ZJHK,2020-06-18 14:00,ZJHK 181400Z 18004MPS CAVOK 28/26 Q1007 NOSIG
ZJHK,2020-06-18 15:00,ZJHK 181500Z 17003MPS CAVOK 28/26 Q1008 NOSIG
ZJHK,2020-06-18 16:00,ZJHK 181600Z 16002MPS 130V200 CAVOK 28/26 Q1008 NOSIG
ZJHK,2020-06-18 17:00,ZJHK 181700Z 16002MPS 130V190 CAVOK 27/26 Q1007 NOSIG
ZJHK,2020-06-18 18:00,ZJHK 181800Z 16002MPS 120V200 CAVOK 27/26 Q1007 NOSIG
ZJHK,2020-06-18 19:00,ZJHK 181900Z 17003MPS 140V200 CAVOK 27/25 Q1007 NOSIG
ZJHK,2020-06-18 20:00,ZJHK 182000Z 17002MPS 140V200 CAVOK 27/25 Q1007 NOSIG
ZJHK,2020-06-18 21:00,ZJHK 182100Z 15002MPS CAVOK 27/25 Q1007 NOSIG
ZJHK,2020-06-18 22:00,ZJHK 182200Z 14002MPS 110V170 CAVOK 26/25 Q1007 NOSIG
ZJHK,2020-06-18 23:00,ZJHK 182300Z 16004MPS 120V200 CAVOK 28/26 Q1008 NOSIG
ZJHK,2020-06-19 00:00,ZJHK 190000Z 17005MPS 140V200 CAVOK 29/26 Q1008 NOSIG
ZJHK,2020-06-19 01:00,ZJHK 190100Z 17005MPS 130V230 9999 SCT023 31/25 Q1009 NOSIG
ZJHK,2020-06-19 02:00,ZJHK 190200Z 17005MPS 120V210 9999 SCT023 32/25 Q1009 NOSIG
ZJHK,2020-06-19 03:00,ZJHK 190300Z 16005MPS 130V200 9999 BKN023 32/25 Q1009 NOSIG
ZJHK,2020-06-19 04:00,ZJHK 190400Z 16005MPS 100V190 9999 BKN023 34/26 Q1008 NOSIG
ZJHK,2020-06-19 05:00,ZJHK 190500Z 17005MPS 130V200 9999 BKN023 FEW026CB 34/25 Q1008 NOSIG
ZJHK,2020-06-19 06:00,ZJHK 190600Z 17005MPS 140V200 9999 BKN026 FEW033CB 33/25 Q1007 NOSIG
ZJHK,2020-06-19 07:00,ZJHK 190700Z 16005MPS 130V210 9999 SCT033 34/25 Q1006 NOSIG
ZJHK,2020-06-19 08:00,ZJHK 190800Z 18005MPS 150V210 9999 SCT030 FEW033CB 34/25 Q1006 BECMG AT0830 TS
ZJHK,2020-06-19 09:00,ZJHK 190900Z 17004MPS 140V200 9999 SCT026 33/25 Q1006 NOSIG
ZJHK,2020-06-19 10:00,ZJHK 191000Z 16004MPS 130V210 9999 SCT026 33/25 Q1005 NOSIG
ZJHK,2020-06-19 11:00,ZJHK 191100Z 14003MPS 100V170 9999 FEW026 31/26 Q1006 NOSIG
ZJHK,2020-06-19 12:00,ZJHK 191200Z 15004MPS 110V180 9999 FEW026 30/26 Q1006 NOSIG
ZJHK,2020-06-19 13:00,ZJHK 191300Z 15003MPS 120V180 9999 FEW026 29/26 Q1007 NOSIG
ZJHK,2020-06-19 14:00,ZJHK 191400Z 16004MPS 9999 FEW026 29/26 Q1007 NOSIG
ZJHK,2020-06-19 15:00,ZJHK 191500Z 17005MPS 140V200 9999 FEW026 28/26 Q1008 NOSIG
ZJHK,2020-06-19 16:00,ZJHK 191600Z 17003MPS 140V200 CAVOK 28/26 Q1008 NOSIG
ZJHK,2020-06-19 17:00,ZJHK 191700Z 17003MPS 140V210 CAVOK 28/26 Q1008 NOSIG
ZJHK,2020-06-19 18:00,ZJHK 191800Z 16003MPS 110V190 CAVOK 28/26 Q1008 NOSIG
ZJHK,2020-06-19 19:00,ZJHK 191900Z 15002MPS CAVOK 27/26 Q1008 NOSIG
ZJHK,2020-06-19 20:00,ZJHK 192000Z 15003MPS CAVOK 27/26 Q1007 NOSIG
ZJHK,2020-06-19 21:00,ZJHK 192100Z 17004MPS 140V200 CAVOK 27/26 Q1007 NOSIG
ZJHK,2020-06-19 22:00,ZJHK 192200Z 16003MPS 9999 FEW020 27/26 Q1008 NOSIG
ZJHK,2020-06-19 23:00,ZJHK 192300Z 16003MPS 110V190 9999 FEW020 28/26 Q1008 NOSIG
ZJHK,2020-06-20 00:00,ZJHK 200000Z 18004MPS 140V210 9999 SCT013 29/26 Q1009 NOSIG
ZJHK,2020-06-20 01:00,ZJHK 200100Z 19005MPS 160V220 9999 SCT020 31/26 Q1009 NOSIG
ZJHK,2020-06-20 02:00,ZJHK 200200Z 19005MPS 160V220 9999 SCT020 32/25 Q1008 NOSIG
ZJHK,2020-06-20 03:00,ZJHK 200300Z 21005MPS 180V260 9999 FEW015 SCT023 33/25 Q1008 NOSIG
ZJHK,2020-06-20 04:00,ZJHK 200400Z 18003MPS 130V230 9999 BKN030 34/25 Q1008 NOSIG
ZJHK,2020-06-20 05:00,ZJHK 200500Z 16004MPS 130V210 9999 BKN030 SCT040 33/26 Q1007 NOSIG
ZJHK,2020-06-20 06:00,ZJHK 200600Z 15005MPS 110V190 9999 SCT030 34/26 Q1007 NOSIG
ZJHK,2020-06-20 07:00,ZJHK 200700Z 17004MPS 130V220 9999 FEW030 35/25 Q1006 NOSIG
ZJHK,2020-06-20 08:00,ZJHK 200800Z 15004MPS 110V180 9999 FEW030 SCT040 35/25 Q1005 NOSIG
ZJHK,2020-06-20 09:00,ZJHK 200900Z 14004MPS 110V190 9999 FEW023 FEW040TCU SCT040 33/26 Q1004 NOSIG
ZJHK,2020-06-20 10:00,ZJHK 201000Z 14005MPS 9999 FEW040 33/26 Q1004 NOSIG
ZJHK,2020-06-20 11:00,ZJHK 201100Z 15004MPS 110V180 9999 FEW040TCU FEW040 31/26 Q1004 NOSIG
ZJHK,2020-06-20 12:00,ZJHK 201200Z 14003MPS 9999 FEW040 30/25 Q1004 NOSIG
ZJHK,2020-06-20 13:00,ZJHK 201300Z 15003MPS 120V180 CAVOK 29/26 Q1005 NOSIG
ZJHK,2020-06-20 14:00,ZJHK 201400Z 15004MPS CAVOK 29/25 Q1006 NOSIG
ZJHK,2020-06-20 15:00,ZJHK 201500Z 17004MPS CAVOK 28/25 Q1007 NOSIG
ZJHK,2020-06-20 16:00,ZJHK 201600Z 18003MPS CAVOK 28/25 Q1007 NOSIG
ZJHK,2020-06-20 17:00,ZJHK 201700Z 17004MPS 140V200 CAVOK 28/25 Q1006 NOSIG
ZJHK,2020-06-20 18:00,ZJHK 201800Z 15003MPS 120V210 CAVOK 28/25 Q1006 NOSIG
ZJHK,2020-06-20 19:00,ZJHK 201900Z 17002MPS 120V210 CAVOK 27/25 Q1006 NOSIG
ZJHK,2020-06-20 20:00,ZJHK 202000Z 15003MPS 120V190 CAVOK 27/25 Q1005 NOSIG
ZJHK,2020-06-20 21:00,ZJHK 202100Z 17003MPS 140V210 CAVOK 27/25 Q1005 NOSIG
ZJHK,2020-06-20 22:00,ZJHK 202200Z 17004MPS 140V200 CAVOK 27/25 Q1005 NOSIG
ZJHK,2020-06-20 23:00,ZJHK 202300Z 17004MPS 140V200 CAVOK 28/26 Q1005 NOSIG
ZJHK,2020-06-21 00:00,ZJHK 210000Z 19004MPS CAVOK 29/26 Q1006 NOSIG
ZJHK,2020-06-21 01:00,ZJHK 210100Z 20004MPS 160V240 CAVOK 31/25 Q1006 NOSIG
ZJHK,2020-06-21 02:00,ZJHK 210200Z 22004MPS 190V250 CAVOK 32/25 Q1006 NOSIG
ZJHK,2020-06-21 03:00,ZJHK 210300Z 20004MPS 170V250 CAVOK 34/25 Q1006 NOSIG
ZJHK,2020-06-21 04:00,ZJHK 210400Z 23002MPS 170V300 CAVOK 36/25 Q1005 NOSIG
ZJHK,2020-06-21 05:00,ZJHK 210500Z VRB02MPS 9999 FEW030 37/25 Q1004 NOSIG
ZJHK,2020-06-21 06:00,ZJHK 210600Z VRB01MPS 9999 SCT030 37/24 Q1003 NOSIG
ZJHK,2020-06-21 07:00,ZJHK 210700Z 34003MPS 280V020 9999 SCT030 36/26 Q1002 NOSIG
ZJHK,2020-06-21 08:00,ZJHK 210800Z 10003MPS 070V140 9999 FEW030TCU SCT030 35/26 Q1002 NOSIG
ZJHK,2020-06-21 09:00,ZJHK 210900Z 12004MPS 9999 SCT030 33/27 Q1002 NOSIG
ZJHK,2020-06-21 10:00,ZJHK 211000Z 12003MPS 090V160 9999 FEW040CB SCT040 33/26 Q1002 NOSIG
ZJHK,2020-06-21 11:00,ZJHK 211100Z 14002MPS 080V180 9999 SCT046 31/26 Q1002 NOSIG
ZJHK,2020-06-21 12:00,ZJHK 211200Z 13002MPS 9999 FEW046 30/26 Q1003 NOSIG
ZJHK,2020-06-21 13:00,ZJHK 211300Z 13002MPS 100V160 CAVOK 29/26 Q1004 NOSIG
ZJHK,2020-06-21 14:00,ZJHK 211400Z 15002MPS 110V200 9999 FEW046 29/26 Q1005 NOSIG
ZJHK,2020-06-21 15:00,ZJHK 211500Z 16003MPS 130V200 9999 FEW046 29/26 Q1005 NOSIG
ZJHK,2020-06-21 16:00,ZJHK 211600Z 18002MPS 140V210 9999 FEW046 29/26 Q1005 NOSIG
ZJHK,2020-06-21 17:00,ZJHK 211700Z 18003MPS 150V210 9999 FEW046 28/26 Q1004 NOSIG
ZJHK,2020-06-21 18:00,ZJHK 211800Z 17003MPS CAVOK 28/26 Q1004 NOSIG
ZJHK,2020-06-21 19:00,ZJHK 211900Z 17003MPS 140V200 CAVOK 28/26 Q1003 NOSIG
ZJHK,2020-06-21 20:00,ZJHK 212000Z 16003MPS 130V200 CAVOK 28/26 Q1003 NOSIG
ZJHK,2020-06-21 21:00,ZJHK 212100Z 17003MPS CAVOK 28/26 Q1003 NOSIG
ZJHK,2020-06-21 22:00,ZJHK 212200Z 18003MPS 150V210 CAVOK 27/26 Q1004 NOSIG
ZJHK,2020-06-21 23:00,ZJHK 212300Z 19003MPS 150V220 CAVOK 28/26 Q1004 NOSIG
ZJHK,2020-06-22 00:00,ZJHK 220000Z 20003MPS 170V240 CAVOK 30/26 Q1005 NOSIG
ZJHK,2020-06-22 01:00,ZJHK 220100Z 21004MPS 180V250 CAVOK 32/26 Q1005 NOSIG
ZJHK,2020-06-22 02:00,ZJHK 220200Z 17003MPS 140V210 CAVOK 33/25 Q1005 NOSIG
ZJHK,2020-06-22 03:00,ZJHK 220300Z 17002MPS 080V240 CAVOK 34/25 Q1005 NOSIG
ZJHK,2020-06-22 04:00,ZJHK 220400Z VRB02MPS 9999 FEW020 36/25 Q1005 NOSIG
ZJHK,2020-06-22 05:00,ZJHK 220500Z 16003MPS 110V240 9999 BKN020 36/25 Q1004 NOSIG
ZJHK,2020-06-22 06:00,ZJHK 220600Z VRB02MPS 9999 BKN020 38/26 Q1004 NOSIG
ZJHK,2020-06-22 07:00,ZJHK 220700Z 12004MPS 090V160 9999 FEW023TCU SCT026 35/27 Q1003 NOSIG
ZJHK,2020-06-22 08:00,ZJHK 220800Z 09004MPS 010V160 9999 SCT023CB SCT026 34/26 Q1003 BECMG TL0830 -TSRA
ZJHK,2020-06-22 09:00,ZJHK 220900Z 32008MPS 290V350 8000 TSRA SCT020CB BKN026 28/22 Q1004 BECMG TL1030 NSW
ZJHK,2020-06-22 10:00,ZJHK 221000Z 16005MPS 9999 -TSRA FEW020CB SCT040 26/23 Q1003 RESHRA NOSIG
ZJHK,2020-06-22 11:00,ZJHK 221100Z 18003MPS 130V240 9999 FEW046 27/24 Q1004 RETS NOSIG
ZJHK,2020-06-22 12:00,ZJHK 221200Z 15003MPS 120V180 9999 SCT046 27/25 Q1004 NOSIG
ZJHK,2020-06-22 13:00,ZJHK 221300Z 00000MPS 9999 SCT046 27/24 Q1005 NOSIG
ZJHK,2020-06-22 14:00,ZJHK 221400Z 14002MPS 100V160 CAVOK 27/26 Q1005 NOSIG
ZJHK,2020-06-22 15:00,ZJHK 221500Z 15002MPS 130V190 CAVOK 28/26 Q1006 NOSIG
ZJHK,2020-06-22 16:00,ZJHK 221600Z 16003MPS 120V180 CAVOK 28/26 Q1006 NOSIG
ZJHK,2020-06-22 17:00,ZJHK 221700Z 17003MPS CAVOK 28/26 Q1005 NOSIG
ZJHK,2020-06-22 18:00,ZJHK 221800Z 18003MPS CAVOK 27/26 Q1005 NOSIG
ZJHK,2020-06-22 19:00,ZJHK 221900Z 17003MPS 140V200 CAVOK 27/26 Q1005 NOSIG
ZJHK,2020-06-22 20:00,ZJHK 222000Z 17003MPS 140V210 CAVOK 27/26 Q1005 NOSIG
ZJHK,2020-06-22 21:00,ZJHK 222100Z 18003MPS CAVOK 27/25 Q1005 NOSIG
ZJHK,2020-06-22 22:00,ZJHK 222200Z 17003MPS 140V200 CAVOK 27/25 Q1005 NOSIG
ZJHK,2020-06-22 23:00,ZJHK 222300Z 18002MPS 140V220 CAVOK 27/26 Q1006 NOSIG
ZJHK,2020-06-23 00:00,ZJHK 230000Z 18004MPS 140V210 CAVOK 28/26 Q1006 NOSIG
ZJHK,2020-06-23 01:00,ZJHK 230100Z 19003MPS 150V230 CAVOK 30/26 Q1006 NOSIG
ZJHK,2020-06-23 02:00,ZJHK 230200Z 21004MPS 190V250 CAVOK 32/25 Q1007 NOSIG
ZJHK,2020-06-23 03:00,ZJHK 230300Z 23004MPS 200V260 CAVOK 33/25 Q1007 NOSIG
ZJHK,2020-06-23 04:00,ZJHK 230400Z 22003MPS 190V260 9999 FEW026 35/26 Q1007 NOSIG
ZJHK,2020-06-23 05:00,ZJHK 230500Z 18002MPS 120V250 9999 FEW026 36/24 Q1006 NOSIG
ZJHK,2020-06-23 06:00,ZJHK 230600Z VRB02MPS 9999 SCT026 37/24 Q1005 NOSIG
ZJHK,2020-06-23 07:00,ZJHK 230700Z 21003MPS 130V260 9999 SCT026 37/25 Q1005 NOSIG
ZJHK,2020-06-23 08:00,ZJHK 230800Z 18003MPS 130V210 9999 BKN026 37/26 Q1004 NOSIG
ZJHK,2020-06-23 09:00,ZJHK 230900Z 14003MPS 110V170 9999 BKN026 35/28 Q1003 NOSIG
ZJHK,2020-06-23 10:00,ZJHK 231000Z 13004MPS 9999 SCT026 FEW030TCU 34/27 Q1004 NOSIG
ZJHK,2020-06-23 11:00,ZJHK 231100Z 14003MPS 110V170 9999 SCT023 FEW026CB 32/27 Q1004 BECMG AT1120 -TSRA
ZJHK,2020-06-23 12:00,ZJHK 231200Z 17002MPS 130V200 9999 -SHRA SCT023 FEW026CB 30/27 Q1005 BECMG TL1300 SCT020
ZJHK,2020-06-23 13:00,ZJHK 231300Z 19002MPS 150V240 9999 FEW023 29/26 Q1005 NOSIG
ZJHK,2020-06-23 14:00,ZJHK 231400Z 21002MPS CAVOK 29/25 Q1006 NOSIG
ZJHK,2020-06-23 15:00,ZJHK 231500Z VRB01MPS CAVOK 28/26 Q1006 NOSIG
ZJHK,2020-06-23 16:00,ZJHK 231600Z 15002MPS CAVOK 28/27 Q1006 NOSIG
ZJHK,2020-06-23 17:00,ZJHK 231700Z 17003MPS CAVOK 28/26 Q1006 NOSIG
ZJHK,2020-06-23 18:00,ZJHK 231800Z 14002MPS 100V180 CAVOK 28/26 Q1005 NOSIG
ZJHK,2020-06-23 19:00,ZJHK 231900Z 15002MPS 120V180 CAVOK 28/26 Q1005 NOSIG
ZJHK,2020-06-23 20:00,ZJHK 232000Z VRB01MPS CAVOK 27/26 Q1005 NOSIG
ZJHK,2020-06-23 21:00,ZJHK 232100Z 18002MPS 140V230 CAVOK 27/26 Q1005 NOSIG
ZJHK,2020-06-23 22:00,ZJHK 232200Z 19002MPS 140V230 CAVOK 27/26 Q1006 NOSIG
ZJHK,2020-06-23 23:00,ZJHK 232300Z 16002MPS 110V210 CAVOK 28/26 Q1006 NOSIG
ZJHK,2020-06-24 00:00,ZJHK 240000Z 18003MPS 150V210 CAVOK 29/26 Q1006 NOSIG
ZJHK,2020-06-24 01:00,ZJHK 240100Z 21003MPS 180V240 CAVOK 31/26 Q1007 NOSIG
ZJHK,2020-06-24 02:00,ZJHK 240200Z 20004MPS 160V230 CAVOK 32/26 Q1006 NOSIG
ZJHK,2020-06-24 03:00,ZJHK 240300Z 20003MPS 170V250 CAVOK 34/26 Q1006 NOSIG
ZJHK,2020-06-24 04:00,ZJHK 240400Z 18003MPS 150V210 CAVOK 34/25 Q1005 NOSIG
ZJHK,2020-06-24 05:00,ZJHK 240500Z 23003MPS 180V270 9999 FEW023 36/26 Q1004 NOSIG
ZJHK,2020-06-24 06:00,ZJHK 240600Z 21002MPS 140V280 9999 FEW010 SCT026 35/25 Q1004 NOSIG
ZJHK,2020-06-24 07:00,ZJHK 240700Z 20002MPS 140V230 9999 SCT030 36/26 Q1003 NOSIG
ZJHK,2020-06-24 08:00,ZJHK 240800Z 04004MPS 010V110 9999 FEW013 FEW030TCU SCT030 34/26 Q1003 NOSIG
ZJHK,2020-06-24 09:00,ZJHK 240900Z 13003MPS 100V180 9999 FEW013 FEW030TCU SCT033 34/27 Q1002 NOSIG
ZJHK,2020-06-24 10:00,ZJHK 241000Z 19009MPS 160V220 3000 R09/1200N TSRA FEW010 SCT030CB SCT030 27/25 Q1003 BECMG AT1100 -SHRA
ZJHK,2020-06-24 11:00,ZJHK 241100Z 18002MPS 160V230 9999 -SHRA FEW010 FEW030CB SCT040 27/26 Q1003 RETSRA NOSIG
ZJHK,2020-06-24 12:00,ZJHK 241200Z 13002MPS 9999 FEW040 28/26 Q1003 NOSIG
ZJHK,2020-06-24 13:00,ZJHK 241300Z 12002MPS CAVOK 28/27 Q1004 NOSIG
ZJHK,2020-06-24 14:00,ZJHK 241400Z 14002MPS CAVOK 28/27 Q1004 NOSIG
ZJHK,2020-06-24 15:00,ZJHK 241500Z 15002MPS CAVOK 28/27 Q1005 NOSIG
ZJHK,2020-06-24 16:00,ZJHK 241600Z 18004MPS CAVOK 28/26 Q1005 NOSIG
ZJHK,2020-06-24 17:00,ZJHK 241700Z 18004MPS CAVOK 28/26 Q1005 NOSIG
ZJHK,2020-06-24 18:00,ZJHK 241800Z 18003MPS CAVOK 28/26 Q1005 NOSIG
ZJHK,2020-06-24 19:00,ZJHK 241900Z 17003MPS CAVOK 28/26 Q1004 NOSIG
ZJHK,2020-06-24 20:00,ZJHK 242000Z 17004MPS CAVOK 28/26 Q1004 NOSIG
ZJHK,2020-06-24 21:00,ZJHK 242100Z 18004MPS CAVOK 28/26 Q1004 NOSIG
ZJHK,2020-06-24 22:00,ZJHK 242200Z 18003MPS CAVOK 28/26 Q1004 NOSIG
ZJHK,2020-06-24 23:00,ZJHK 242300Z 18004MPS 150V210 CAVOK 28/26 Q1004 NOSIG
ZJHK,2020-06-25 00:00,ZJHK 250000Z 18004MPS 160V220 CAVOK 29/26 Q1004 NOSIG
ZJHK,2020-06-25 01:00,ZJHK 250100Z 18005MPS 140V220 CAVOK 31/26 Q1004 NOSIG
ZJHK,2020-06-25 02:00,ZJHK 250200Z 19005MPS 160V250 CAVOK 31/26 Q1004 NOSIG
ZJHK,2020-06-25 03:00,ZJHK 250300Z 19003MPS 160V220 CAVOK 32/26 Q1005 NOSIG
ZJHK,2020-06-25 04:00,ZJHK 250400Z 19003MPS 150V220 CAVOK 33/27 Q1004 NOSIG
ZJHK,2020-06-25 05:00,ZJHK 250500Z 17004MPS 140V200 CAVOK 33/26 Q1004 NOSIG
ZJHK,2020-06-25 06:00,ZJHK 250600Z 19003MPS 160V260 CAVOK 34/27 Q1003 NOSIG
ZJHK,2020-06-25 07:00,ZJHK 250700Z 20004MPS 160V240 CAVOK 35/26 Q1003 NOSIG
ZJHK,2020-06-25 08:00,ZJHK 250800Z 17005MPS 120V190 9999 FEW026 34/26 Q1002 NOSIG
ZJHK,2020-06-25 09:00,ZJHK 250900Z 15004MPS 120V180 CAVOK 33/27 Q1002 NOSIG
ZJHK,2020-06-25 10:00,ZJHK 251000Z 16005MPS 130V190 CAVOK 32/27 Q1003 NOSIG
ZJHK,2020-06-25 11:00,ZJHK 251100Z 16004MPS 130V200 CAVOK 31/27 Q1003 NOSIG
ZJHK,2020-06-25 12:00,ZJHK 251200Z 16003MPS 130V200 CAVOK 30/27 Q1003 NOSIG
ZJHK,2020-06-25 13:00,ZJHK 251300Z 17003MPS 140V200 CAVOK 30/26 Q1004 NOSIG
ZJHK,2020-06-25 14:00,ZJHK 251400Z 16003MPS CAVOK 29/26 Q1005 NOSIG
ZJHK,2020-06-25 15:00,ZJHK 251500Z 18004MPS 150V210 CAVOK 29/25 Q1005 NOSIG
ZJHK,2020-06-25 16:00,ZJHK 251600Z 18004MPS 150V210 CAVOK 29/25 Q1005 NOSIG
ZJHK,2020-06-25 17:00,ZJHK 251700Z 18004MPS CAVOK 28/25 Q1005 NOSIG
ZJHK,2020-06-25 18:00,ZJHK 251800Z 18004MPS 150V210 CAVOK 29/25 Q1005 NOSIG
ZJHK,2020-06-25 19:00,ZJHK 251900Z 18004MPS 150V210 CAVOK 29/25 Q1005 NOSIG
ZJHK,2020-06-25 20:00,ZJHK 252000Z 18004MPS 140V220 CAVOK 28/26 Q1005 NOSIG
ZJHK,2020-06-25 21:00,ZJHK 252100Z 17005MPS 140V200 CAVOK 28/26 Q1004 NOSIG
ZJHK,2020-06-25 22:00,ZJHK 252200Z 17004MPS 140V210 CAVOK 28/26 Q1005 NOSIG
ZJHK,2020-06-25 23:00,ZJHK 252300Z 19002MPS 150V230 CAVOK 28/26 Q1005 NOSIG
ZJHK,2020-06-26 00:00,ZJHK 260000Z 17005MPS 140V200 CAVOK 29/26 Q1006 NOSIG
ZJHK,2020-06-26 01:00,ZJHK 260100Z 19004MPS 140V230 CAVOK 31/26 Q1006 NOSIG
ZJHK,2020-06-26 02:00,ZJHK 260200Z 18006MPS 150V210 CAVOK 32/25 Q1006 NOSIG
ZJHK,2020-06-26 03:00,ZJHK 260300Z 19005MPS 150V230 CAVOK 33/25 Q1006 NOSIG
ZJHK,2020-06-26 04:00,ZJHK 260400Z 19004MPS 150V230 CAVOK 35/25 Q1006 NOSIG
ZJHK,2020-06-26 05:00,ZJHK 260500Z 19005MPS 150V230 CAVOK 35/25 Q1005 NOSIG
ZJHK,2020-06-26 06:00,ZJHK 260600Z 17004G09MPS 120V220 9999 FEW026 36/26 Q1005 NOSIG
ZJHK,2020-06-26 07:00,ZJHK 260700Z 19005MPS 9999 FEW026 35/25 Q1005 NOSIG
ZJHK,2020-06-26 08:00,ZJHK 260800Z 15006MPS 120V180 CAVOK 34/26 Q1004 NOSIG
ZJHK,2020-06-26 09:00,ZJHK 260900Z 16004MPS 120V200 CAVOK 34/27 Q1004 NOSIG
ZJHK,2020-06-26 10:00,ZJHK 261000Z 15005MPS CAVOK 33/26 Q1004 NOSIG
ZJHK,2020-06-26 11:00,ZJHK 261100Z 15005MPS 120V180 CAVOK 31/26 Q1004 NOSIG
ZJHK,2020-06-26 12:00,ZJHK 261200Z 14003MPS 110V180 CAVOK 30/26 Q1006 NOSIG
ZJHK,2020-06-26 13:00,ZJHK 261300Z 16004MPS CAVOK 29/26 Q1006 NOSIG
ZJHK,2020-06-26 14:00,ZJHK 261400Z 17004MPS 130V200 CAVOK 29/25 Q1006 NOSIG
ZJHK,2020-06-26 15:00,ZJHK 261500Z 16004MPS 130V190 CAVOK 29/25 Q1007 NOSIG
ZJHK,2020-06-26 16:00,ZJHK 261600Z 16004MPS CAVOK 28/25 Q1007 NOSIG
ZJHK,2020-06-26 17:00,ZJHK 261700Z 17004MPS 140V200 CAVOK 28/26 Q1006 NOSIG
ZJHK,2020-06-26 18:00,ZJHK 261800Z 17005MPS 140V200 CAVOK 28/25 Q1005 NOSIG
ZJHK,2020-06-26 19:00,ZJHK 261900Z 16004MPS 130V200 CAVOK 28/25 Q1005 NOSIG
ZJHK,2020-06-26 20:00,ZJHK 262000Z 17004MPS 140V200 CAVOK 28/25 Q1005 NOSIG
ZJHK,2020-06-26 21:00,ZJHK 262100Z 16004MPS 140V200 CAVOK 28/25 Q1005 NOSIG
ZJHK,2020-06-26 22:00,ZJHK 262200Z 16004MPS 130V190 CAVOK 27/25 Q1006 NOSIG
ZJHK,2020-06-26 23:00,ZJHK 262300Z 17004MPS CAVOK 28/25 Q1006 NOSIG
ZJHK,2020-06-27 00:00,ZJHK 270000Z 17004MPS 140V220 CAVOK 29/25 Q1007 NOSIG
ZJHK,2020-06-27 01:00,ZJHK 270100Z 17006MPS 120V210 9999 FEW023 31/25 Q1007 NOSIG
ZJHK,2020-06-27 02:00,ZJHK 270200Z 18005MPS 140V220 9999 FEW023 33/25 Q1007 NOSIG
ZJHK,2020-06-27 03:00,ZJHK 270300Z 18005MPS 150V210 9999 FEW023 33/25 Q1007 NOSIG
ZJHK,2020-06-27 04:00,ZJHK 270400Z 18005MPS 140V220 9999 FEW023 34/25 Q1007 NOSIG
ZJHK,2020-06-27 05:00,ZJHK 270500Z 17005MPS 120V200 9999 SCT026 35/24 Q1006 NOSIG
ZJHK,2020-06-27 06:00,ZJHK 270600Z 16005MPS 110V210 9999 SCT026 35/25 Q1005 NOSIG
ZJHK,2020-06-27 07:00,ZJHK 270700Z 16005MPS 130V200 9999 SCT030 34/25 Q1005 NOSIG
ZJHK,2020-06-27 08:00,ZJHK 270800Z 15005MPS 120V200 9999 SCT033 35/25 Q1005 NOSIG
ZJHK,2020-06-27 09:00,ZJHK 270900Z 14005G10MPS 100V170 9999 FEW026 34/25 Q1004 NOSIG
ZJHK,2020-06-27 10:00,ZJHK 271000Z 14006MPS 9999 FEW026 32/24 Q1004 NOSIG
ZJHK,2020-06-27 11:00,ZJHK 271100Z 17005MPS 140V200 9999 FEW026 31/24 Q1005 NOSIG
ZJHK,2020-06-27 12:00,ZJHK 271200Z 15005MPS 120V180 9999 FEW026 29/25 Q1005 NOSIG
ZJHK,2020-06-27 13:00,ZJHK 271300Z 16004MPS 130V190 9999 FEW026 29/25 Q1006 NOSIG
ZJHK,2020-06-27 14:00,ZJHK 271400Z 18004MPS 140V210 CAVOK 28/25 Q1007 NOSIG
ZJHK,2020-06-27 15:00,ZJHK 271500Z 17004MPS 140V200 CAVOK 28/25 Q1007 NOSIG
ZJHK,2020-06-27 16:00,ZJHK 271600Z 16004MPS 130V200 CAVOK 28/26 Q1007 NOSIG
ZJHK,2020-06-27 17:00,ZJHK 271700Z 17002MPS 140V210 CAVOK 28/25 Q1007 NOSIG
ZJHK,2020-06-27 18:00,ZJHK 271800Z 15003MPS 120V180 CAVOK 27/25 Q1006 NOSIG
ZJHK,2020-06-27 19:00,ZJHK 271900Z 16003MPS 130V190 CAVOK 27/26 Q1006 NOSIG
ZJHK,2020-06-27 20:00,ZJHK 272000Z 16004MPS 140V200 CAVOK 27/26 Q1006 NOSIG
ZJHK,2020-06-27 21:00,ZJHK 272100Z 17003MPS 130V200 CAVOK 27/25 Q1007 NOSIG
ZJHK,2020-06-27 22:00,ZJHK 272200Z 15003MPS 120V180 CAVOK 27/26 Q1007 NOSIG
ZJHK,2020-06-27 23:00,ZJHK 272300Z 16004MPS 140V200 CAVOK 28/26 Q1007 NOSIG
ZJHK,2020-06-28 00:00,ZJHK 280000Z 16005MPS 130V200 9999 FEW013 29/26 Q1007 NOSIG
ZJHK,2020-06-28 01:00,ZJHK 280100Z 19005MPS 160V220 9999 FEW016 31/25 Q1007 NOSIG
ZJHK,2020-06-28 02:00,ZJHK 280200Z 19005MPS 9999 SCT023 32/25 Q1007 NOSIG
ZJHK,2020-06-28 03:00,ZJHK 280300Z 17004MPS 120V210 9999 SCT026 33/25 Q1007 NOSIG
ZJHK,2020-06-28 04:00,ZJHK 280400Z 16005MPS 120V190 9999 SCT030 34/25 Q1007 NOSIG
ZJHK,2020-06-28 05:00,ZJHK 280500Z 16005MPS 130V200 9999 SCT033 34/25 Q1006 NOSIG
ZJHK,2020-06-28 06:00,ZJHK 280600Z 17004MPS 100V220 9999 SCT033 35/25 Q1005 NOSIG
ZJHK,2020-06-28 07:00,ZJHK 280700Z 16004MPS 130V200 9999 SCT030 35/25 Q1004 NOSIG
ZJHK,2020-06-28 08:00,ZJHK 280800Z 14005MPS 100V180 9999 FEW030TCU FEW030 35/25 Q1003 NOSIG
ZJHK,2020-06-28 09:00,ZJHK 280900Z 15004MPS 130V190 9999 FEW030CB FEW030 33/25 Q1003 NOSIG
ZJHK,2020-06-28 10:00,ZJHK 281000Z 16004MPS 9999 FEW030CB FEW030 32/24 Q1003 NOSIG
ZJHK,2020-06-28 11:00,ZJHK 281100Z 14003MPS 110V170 9999 FEW033TCU FEW033 31/24 Q1004 NOSIG
ZJHK,2020-06-28 12:00,ZJHK 281200Z 14004MPS CAVOK 29/25 Q1005 NOSIG
ZJHK,2020-06-28 13:00,ZJHK 281300Z 15004MPS 120V180 CAVOK 29/25 Q1005 NOSIG
ZJHK,2020-06-28 14:00,ZJHK 281400Z 15004MPS 120V180 CAVOK 28/25 Q1006 NOSIG
ZJHK,2020-06-28 15:00,ZJHK 281500Z 15004MPS 120V180 CAVOK 28/25 Q1006 NOSIG
ZJHK,2020-06-28 16:00,ZJHK 281600Z 15003MPS 120V180 CAVOK 28/25 Q1006 NOSIG
ZJHK,2020-06-28 17:00,ZJHK 281700Z 15003MPS 110V200 CAVOK 27/25 Q1006 NOSIG
ZJHK,2020-06-28 18:00,ZJHK 281800Z 15003MPS CAVOK 27/25 Q1005 NOSIG
ZJHK,2020-06-28 19:00,ZJHK 281900Z 17003MPS 130V200 CAVOK 27/25 Q1005 NOSIG
ZJHK,2020-06-28 20:00,ZJHK 282000Z 14002MPS 090V180 CAVOK 27/25 Q1005 NOSIG
ZJHK,2020-06-28 21:00,ZJHK 282100Z VRB01MPS CAVOK 27/25 Q1005 NOSIG
ZJHK,2020-06-28 22:00,ZJHK 282200Z 12001MPS CAVOK 26/25 Q1005 NOSIG
ZJHK,2020-06-28 23:00,ZJHK 282300Z 16002MPS 120V220 CAVOK 27/26 Q1006 NOSIG
ZJHK,2020-06-29 00:00,ZJHK 290000Z 19003MPS 130V220 CAVOK 29/26 Q1006 NOSIG
ZJHK,2020-06-29 01:00,ZJHK 290100Z 20003MPS 160V230 CAVOK 30/25 Q1006 NOSIG
ZJHK,2020-06-29 02:00,ZJHK 290200Z 17003MPS 130V200 CAVOK 32/25 Q1006 NOSIG
ZJHK,2020-06-29 03:00,ZJHK 290300Z 17004MPS 140V250 9999 FEW030 33/24 Q1006 NOSIG
ZJHK,2020-06-29 04:00,ZJHK 290400Z 19003MPS 140V240 9999 FEW030 34/24 Q1005 NOSIG
ZJHK,2020-06-29 05:00,ZJHK 290500Z 24003MPS 180V290 9999 SCT030 35/25 Q1004 NOSIG
ZJHK,2020-06-29 06:00,ZJHK 290600Z 16003MPS 060V230 9999 SCT030 36/23 Q1004 NOSIG
ZJHK,2020-06-29 07:00,ZJHK 290700Z VRB02MPS 9999 SCT030 36/23 Q1003 NOSIG
ZJHK,2020-06-29 08:00,ZJHK 290800Z 15003MPS 110V180 9999 FEW030TCU SCT030 34/25 Q1002 NOSIG
ZJHK,2020-06-29 09:00,ZJHK 290900Z 26008MPS 9999 SCT026CB SCT040 28/24 Q1003 BECMG -TSRA
ZJHK,2020-06-29 10:00,ZJHK 291000Z 19003MPS 160V220 9999 SCT026CB SCT040 28/23 Q1003 NOSIG
ZJHK,2020-06-29 11:00,ZJHK 291100Z 19002MPS 160V230 CAVOK 29/23 Q1003 NOSIG
ZJHK,2020-06-29 12:00,ZJHK 291200Z VRB01MPS CAVOK 28/23 Q1003 NOSIG
ZJHK,2020-06-29 13:00,ZJHK 291300Z 14002MPS 110V170 CAVOK 28/24 Q1004 NOSIG
ZJHK,2020-06-29 14:00,ZJHK 291400Z 16003MPS 130V190 CAVOK 28/25 Q1004 NOSIG
ZJHK,2020-06-29 15:00,ZJHK 291500Z 16003MPS 120V190 CAVOK 28/26 Q1005 NOSIG
ZJHK,2020-06-29 16:00,ZJHK 291600Z 17003MPS 150V210 CAVOK 28/25 Q1005 NOSIG
ZJHK,2020-06-29 17:00,ZJHK 291700Z 15002MPS 110V180 CAVOK 27/25 Q1004 NOSIG
ZJHK,2020-06-29 18:00,ZJHK 291800Z 16002MPS 120V190 CAVOK 27/25 Q1004 NOSIG
ZJHK,2020-06-29 19:00,ZJHK 291900Z 16002MPS CAVOK 27/25 Q1004 NOSIG
ZJHK,2020-06-29 20:00,ZJHK 292000Z VRB01MPS CAVOK 27/25 Q1003 NOSIG
ZJHK,2020-06-29 21:00,ZJHK 292100Z VRB01MPS CAVOK 26/25 Q1003 NOSIG
ZJHK,2020-06-29 22:00,ZJHK 292200Z VRB01MPS CAVOK 26/25 Q1003 NOSIG
ZJHK,2020-06-29 23:00,ZJHK 292300Z 17002MPS 130V210 CAVOK 27/26 Q1004 NOSIG
ZJHK,2020-06-30 00:00,ZJHK 300000Z 21003MPS 180V240 CAVOK 28/26 Q1004 NOSIG
ZJHK,2020-06-30 01:00,ZJHK 300100Z 21002MPS 160V240 CAVOK 30/26 Q1004 NOSIG
ZJHK,2020-06-30 02:00,ZJHK 300200Z 27002MPS 210V320 CAVOK 31/26 Q1004 NOSIG
ZJHK,2020-06-30 03:00,ZJHK 300300Z 32002MPS 240V020 9999 SCT026 33/25 Q1004 NOSIG
ZJHK,2020-06-30 04:00,ZJHK 300400Z 29002MPS 250V330 9999 SCT030 33/25 Q1004 NOSIG
ZJHK,2020-06-30 05:00,ZJHK 300500Z VRB02MPS 9999 SCT030 35/26 Q1003 NOSIG
ZJHK,2020-06-30 06:00,ZJHK 300600Z 36003MPS 320V070 9999 FEW026TCU SCT030 35/26 Q1002 BECMG TL0640 SCT020 FEW026CB
ZJHK,2020-06-30 07:00,ZJHK 300700Z VRB04MPS 9999 FEW026CB SCT030 36/24 Q1002 BECMG TL0740 TSRA
ZJHK,2020-06-30 08:00,ZJHK 300800Z 14005MPS 090V200 9999 TS SCT026CB SCT030 31/25 Q1002 BECMG TL0950 NSW
ZJHK,2020-06-30 09:00,ZJHK 300900Z 12002MPS 080V200 9999 FEW023TCU FEW026CB 30/25 Q1002 RETS NOSIG
ZJHK,2020-06-30 10:00,ZJHK 301000Z 17002MPS 110V220 9999 FEW023 29/25 Q1003 NOSIG
ZJHK,2020-06-30 11:00,ZJHK 301100Z 19003MPS 160V220 CAVOK 28/24 Q1003 NOSIG
ZJHK,2020-06-30 12:00,ZJHK 301200Z 20003MPS 160V240 CAVOK 27/25 Q1004 NOSIG
ZJHK,2020-06-30 13:00,ZJHK 301300Z 12003MPS CAVOK 26/24 Q1003 NOSIG
ZJHK,2020-06-30 14:00,ZJHK 301400Z 19003MPS 160V220 CAVOK 26/24 Q1004 NOSIG
ZJHK,2020-06-30 15:00,ZJHK 301500Z 19002MPS 150V220 CAVOK 26/24 Q1004 NOSIG
ZJHK,2020-06-30 16:00,ZJHK 301600Z 24002MPS 200V270 CAVOK 26/24 Q1004 NOSIG
ZJHK,2020-06-30 17:00,ZJHK 301700Z VRB01MPS CAVOK 26/24 Q1004 NOSIG
ZJHK,2020-06-30 18:00,ZJHK 301800Z 16001MPS CAVOK 25/24 Q1003 NOSIG
ZJHK,2020-06-30 19:00,ZJHK 301900Z 16001MPS CAVOK 25/24 Q1003 NOSIG
ZJHK,2020-06-30 20:00,ZJHK 302000Z 00000MPS CAVOK 25/24 Q1003 NOSIG
ZJHK,2020-06-30 21:00,ZJHK 302100Z VRB01MPS CAVOK 25/24 Q1003 NOSIG
ZJHK,2020-06-30 22:00,ZJHK 302200Z 13001MPS CAVOK 25/24 Q1003 NOSIG
ZJHK,2020-06-30 23:00,ZJHK 302300Z 00000MPS CAVOK 26/25 Q1003 NOSIG
ZJHK,2020-07-01 00:00,ZJHK 010000Z VRB01MPS CAVOK 28/25 Q1003 NOSIG
ZJHK,2020-07-01 01:00,ZJHK 010100Z 05001MPS CAVOK 30/25 Q1003 NOSIG
ZJHK,2020-07-01 02:00,ZJHK 010200Z VRB02MPS 9999 FEW023 32/26 Q1004 NOSIG
ZJHK,2020-07-01 03:00,ZJHK 010300Z 16002MPS 080V230 9999 FEW023 33/24 Q1003 NOSIG
ZJHK,2020-07-01 04:00,ZJHK 010400Z VRB02MPS 9999 FEW026TCU SCT030 33/24 Q1003 BECMG TL0550 SCT020 FEW026CB
ZJHK,2020-07-01 05:00,ZJHK 010500Z 06005MPS 010V090 9999 FEW026TCU SCT030 34/24 Q1002 BECMG TL0550 SCT020 FEW026CB
ZJHK,2020-07-01 06:00,ZJHK 010600Z 08007MPS 9999 FEW026CB SCT030 31/26 Q1002 BECMG TL0720 -TSRA
ZJHK,2020-07-01 07:00,ZJHK 010700Z 15004MPS 110V180 9999 -SHRA FEW013 FEW026TCU SCT030 28/25 Q1002 NOSIG
ZJHK,2020-07-01 08:00,ZJHK 010800Z 10003MPS 9999 FEW026 29/25 Q1001 NOSIG
ZJHK,2020-07-01 09:00,ZJHK 010900Z 14003MPS 100V170 9999 FEW026 FEW030TCU 29/24 Q1001 NOSIG
ZJHK,2020-07-01 10:00,ZJHK 011000Z 16002MPS 140V210 9999 FEW026 FEW030TCU 30/25 Q1002 NOSIG
ZJHK,2020-07-01 11:00,ZJHK 011100Z 24004MPS 200V260 9999 FEW020 FEW023CB SCT040 29/25 Q1003 BECMG TL1200 SCT020
ZJHK,2020-07-01 12:00,ZJHK 011200Z 19002MPS 150V220 9999 FEW046 27/24 Q1002 NOSIG
ZJHK,2020-07-01 13:00,ZJHK 011300Z 16001MPS CAVOK 26/24 Q1002 NOSIG
ZJHK,2020-07-01 14:00,ZJHK 011400Z 19002MPS CAVOK 26/24 Q1003 NOSIG
ZJHK,2020-07-01 15:00,ZJHK 011500Z VRB01MPS CAVOK 27/24 Q1004 NOSIG
ZJHK,2020-07-01 16:00,ZJHK 011600Z VRB01MPS CAVOK 26/24 Q1004 NOSIG
ZJHK,2020-07-01 17:00,ZJHK 011700Z 19001MPS CAVOK 26/24 Q1003 NOSIG
ZJHK,2020-07-01 18:00,ZJHK 011800Z VRB01MPS CAVOK 25/24 Q1002 NOSIG
ZJHK,2020-07-01 19:00,ZJHK 011900Z VRB01MPS CAVOK 25/24 Q1002 NOSIG
ZJHK,2020-07-01 20:00,ZJHK 012000Z 12002MPS CAVOK 25/24 Q1002 NOSIG
ZJHK,2020-07-01 21:00,ZJHK 012100Z 12001MPS CAVOK 25/24 Q1002 NOSIG
ZJHK,2020-07-01 22:00,ZJHK 012200Z 13002MPS 110V170 CAVOK 25/24 Q1002 NOSIG
ZJHK,2020-07-01 23:00,ZJHK 012300Z VRB01MPS CAVOK 26/24 Q1003 NOSIG
ZJHK,2020-07-02 00:00,ZJHK 020000Z 18003MPS 140V220 CAVOK 28/25 Q1003 NOSIG
ZJHK,2020-07-02 01:00,ZJHK 020100Z 19003MPS 160V240 CAVOK 29/25 Q1004 NOSIG
ZJHK,2020-07-02 02:00,ZJHK 020200Z 22003MPS 170V270 9999 FEW020 31/25 Q1004 NOSIG
ZJHK,2020-07-02 03:00,ZJHK 020300Z 21004MPS 160V240 9999 FEW023 32/26 Q1004 NOSIG
ZJHK,2020-07-02 04:00,ZJHK 020400Z 20004MPS 170V240 9999 FEW026 33/24 Q1003 NOSIG
ZJHK,2020-07-02 05:00,ZJHK 020500Z 23003MPS 180V280 9999 FEW030TCU SCT030 34/25 Q1003 NOSIG
ZJHK,2020-07-02 06:00,ZJHK 020600Z 20003MPS 160V250 9999 FEW033TCU SCT033 34/25 Q1003 NOSIG
ZJHK,2020-07-02 07:00,ZJHK 020700Z VRB02MPS 9999 FEW033TCU SCT033 35/25 Q1002 NOSIG
ZJHK,2020-07-02 08:00,ZJHK 020800Z 16003MPS 110V250 9999 FEW033TCU SCT033 34/25 Q1001 NOSIG
ZJHK,2020-07-02 09:00,ZJHK 020900Z 15004MPS 120V180 9999 FEW030TCU SCT033 33/25 Q1001 NOSIG
ZJHK,2020-07-02 10:00,ZJHK 021000Z 16004MPS 120V190 9999 FEW026CB FEW026 SCT046 33/23 Q1002 NOSIG
ZJHK,2020-07-02 11:00,ZJHK 021100Z 16002MPS 130V200 9999 FEW026CB SCT026 BKN046 31/24 Q1003 NOSIG
ZJHK,2020-07-02 12:00,ZJHK 021200Z VRB01MPS 9999 SCT026 BKN046 29/24 Q1003 NOSIG
ZJHK,2020-07-02 13:00,ZJHK 021300Z 15002MPS 9999 FEW023 SCT046 28/25 Q1004 NOSIG
ZJHK,2020-07-02 14:00,ZJHK 021400Z 14002MPS 100V170 9999 FEW015 SCT046 29/26 Q1005 NOSIG
ZJHK,2020-07-02 15:00,ZJHK 021500Z 17002MPS 140V200 9999 SCT015 29/26 Q1005 NOSIG
ZJHK,2020-07-02 16:00,ZJHK 021600Z 15003MPS 9999 FEW015 28/26 Q1005 NOSIG
ZJHK,2020-07-02 17:00,ZJHK 021700Z 15003MPS 120V180 CAVOK 28/26 Q1005 NOSIG
ZJHK,2020-07-02 18:00,ZJHK 021800Z 15003MPS 110V180 CAVOK 28/26 Q1005 NOSIG
ZJHK,2020-07-02 19:00,ZJHK 021900Z 16002MPS 110V220 9999 FEW010 28/26 Q1004 NOSIG
ZJHK,2020-07-02 20:00,ZJHK 022000Z 15002MPS 9999 FEW010 28/26 Q1004 NOSIG
ZJHK,2020-07-02 21:00,ZJHK 022100Z 15002MPS 9999 FEW010 27/26 Q1005 NOSIG
ZJHK,2020-07-02 22:00,ZJHK 022200Z 14002MPS 9999 FEW016 27/26 Q1005 NOSIG
ZJHK,2020-07-02 23:00,ZJHK 022300Z 15002MPS 120V210 9999 FEW010 28/26 Q1005 NOSIG
ZJHK,2020-07-03 00:00,ZJHK 030000Z 17003MPS 140V220 9999 FEW008 29/27 Q1006 NOSIG
ZJHK,2020-07-03 01:00,ZJHK 030100Z 17004MPS 140V210 9999 FEW020 31/26 Q1007 NOSIG
ZJHK,2020-07-03 02:00,ZJHK 030200Z 16004MPS 130V210 9999 SCT020 32/26 Q1007 NOSIG
ZJHK,2020-07-03 03:00,ZJHK 030300Z 16004MPS 120V230 9999 SCT023 33/26 Q1007 NOSIG
ZJHK,2020-07-03 04:00,ZJHK 030400Z 19004MPS 160V250 9999 SCT023 34/25 Q1007 NOSIG
ZJHK,2020-07-03 05:00,ZJHK 030500Z 14004MPS 110V180 9999 SCT023 34/25 Q1005 NOSIG
ZJHK,2020-07-03 06:00,ZJHK 030600Z 17004MPS 120V230 9999 BKN030 34/24 Q1005 NOSIG
ZJHK,2020-07-03 07:00,ZJHK 030700Z 16005MPS 110V180 9999 SCT030 34/25 Q1004 NOSIG
ZJHK,2020-07-03 08:00,ZJHK 030800Z 14005MPS 110V190 9999 SCT030 34/25 Q1004 NOSIG
ZJHK,2020-07-03 09:00,ZJHK 030900Z 16005MPS 120V190 9999 FEW030TCU FEW030 33/24 Q1004 NOSIG
ZJHK,2020-07-03 10:00,ZJHK 031000Z 16005MPS 130V200 9999 FEW030TCU FEW030 32/24 Q1004 NOSIG
ZJHK,2020-07-03 11:00,ZJHK 031100Z 15004MPS 9999 FEW030CB FEW030 31/25 Q1005 NOSIG
ZJHK,2020-07-03 12:00,ZJHK 031200Z 15003MPS 9999 FEW030 30/25 Q1006 NOSIG
ZJHK,2020-07-03 13:00,ZJHK 031300Z 15003MPS 120V180 9999 FEW030 29/26 Q1007 NOSIG
ZJHK,2020-07-03 14:00,ZJHK 031400Z 15002MPS CAVOK 29/26 Q1008 NOSIG
ZJHK,2020-07-03 15:00,ZJHK 031500Z VRB01MPS 9999 SCT011 28/26 Q1008 NOSIG
ZJHK,2020-07-03 16:00,ZJHK 031600Z VRB01MPS 9999 FEW013 28/26 Q1008 NOSIG
ZJHK,2020-07-03 17:00,ZJHK 031700Z 14002MPS 110V180 CAVOK 28/26 Q1008 NOSIG
ZJHK,2020-07-03 18:00,ZJHK 031800Z 13002MPS 100V160 CAVOK 28/26 Q1007 NOSIG
ZJHK,2020-07-03 19:00,ZJHK 031900Z 14002MPS 110V170 CAVOK 27/26 Q1007 NOSIG
ZJHK,2020-07-03 20:00,ZJHK 032000Z 14002MPS 100V160 CAVOK 27/26 Q1007 NOSIG
ZJHK,2020-07-03 21:00,ZJHK 032100Z 15002MPS 100V190 CAVOK 27/26 Q1006 NOSIG
ZJHK,2020-07-03 22:00,ZJHK 032200Z VRB01MPS 9999 FEW046 27/26 Q1007 NOSIG
ZJHK,2020-07-03 23:00,ZJHK 032300Z 14002MPS 100V160 CAVOK 28/26 Q1008 NOSIG
ZJHK,2020-07-04 00:00,ZJHK 040000Z 16003MPS 130V200 CAVOK 29/26 Q1008 NOSIG
ZJHK,2020-07-04 01:00,ZJHK 040100Z 17005MPS 120V200 9999 BKN023 30/26 Q1008 NOSIG
ZJHK,2020-07-04 02:00,ZJHK 040200Z 17004MPS 150V210 9999 BKN023 32/25 Q1008 NOSIG
ZJHK,2020-07-04 03:00,ZJHK 040300Z 17004MPS 130V220 9999 BKN023 33/25 Q1008 NOSIG
ZJHK,2020-07-04 04:00,ZJHK 040400Z 17004MPS 130V250 9999 BKN023 35/26 Q1007 NOSIG
ZJHK,2020-07-04 05:00,ZJHK 040500Z 20004MPS 130V240 9999 BKN026 34/24 Q1006 NOSIG
ZJHK,2020-07-04 06:00,ZJHK 040600Z 19003MPS 150V240 9999 FEW026TCU BKN026 35/25 Q1006 NOSIG
ZJHK,2020-07-04 07:00,ZJHK 040700Z 28006MPS 240V300 9999 -SHRA FEW015 FEW023CB SCT033 29/26 Q1005 NOSIG
ZJHK,2020-07-04 08:00,ZJHK 040800Z VRB03MPS 9999 FEW023TCU SCT033 31/26 Q1005 RETS NOSIG
ZJHK,2020-07-04 09:00,ZJHK 040900Z 17003MPS 130V220 9999 FEW023TCU SCT033 32/25 Q1005 NOSIG
ZJHK,2020-07-04 10:00,ZJHK 041000Z 28007MPS 9999 SCT023CB SCT033 27/23 Q1007 NOSIG
ZJHK,2020-07-04 11:00,ZJHK 041100Z VRB01MPS 9999 FEW023CB SCT033 26/24 Q1006 NOSIG
ZJHK,2020-07-04 12:00,ZJHK 041200Z 07002MPS 020V120 9999 FEW033 26/24 Q1007 NOSIG
ZJHK,2020-07-04 13:00,ZJHK 041300Z 13002MPS CAVOK 26/24 Q1007 NOSIG
ZJHK,2020-07-04 14:00,ZJHK 041400Z 10002MPS CAVOK 26/25 Q1008 NOSIG
ZJHK,2020-07-04 15:00,ZJHK 041500Z 13002MPS CAVOK 26/25 Q1008 NOSIG
ZJHK,2020-07-04 16:00,ZJHK 041600Z 00000MPS CAVOK 26/25 Q1008 NOSIG
ZJHK,2020-07-04 17:00,ZJHK 041700Z 11001MPS CAVOK 26/25 Q1007 NOSIG
ZJHK,2020-07-04 18:00,ZJHK 041800Z 13002MPS CAVOK 26/25 Q1007 NOSIG
ZJHK,2020-07-04 19:00,ZJHK 041900Z 14002MPS 110V180 CAVOK 26/26 Q1007 NOSIG
ZJHK,2020-07-04 20:00,ZJHK 042000Z 14002MPS 100V170 CAVOK 27/26 Q1006 NOSIG
ZJHK,2020-07-04 21:00,ZJHK 042100Z 16003MPS 130V190 CAVOK 27/26 Q1006 NOSIG
ZJHK,2020-07-04 22:00,ZJHK 042200Z 15002MPS 110V180 CAVOK 27/26 Q1007 NOSIG
ZJHK,2020-07-04 23:00,ZJHK 042300Z 16002MPS 130V190 CAVOK 28/26 Q1007 NOSIG
ZJHK,2020-07-05 00:00,ZJHK 050000Z 18003MPS 140V220 9999 FEW030 29/26 Q1007 NOSIG
ZJHK,2020-07-05 01:00,ZJHK 050100Z 19004MPS 160V230 9999 FEW026 30/26 Q1007 NOSIG
ZJHK,2020-07-05 02:00,ZJHK 050200Z 18004MPS 150V240 9999 BKN026 32/25 Q1007 NOSIG
ZJHK,2020-07-05 03:00,ZJHK 050300Z 18003MPS 140V250 9999 SCT026 33/24 Q1007 NOSIG
ZJHK,2020-07-05 04:00,ZJHK 050400Z 18004MPS 140V220 9999 SCT026 35/23 Q1006 NOSIG
ZJHK,2020-07-05 05:00,ZJHK 050500Z 20003MPS 160V250 9999 SCT030 35/23 Q1005 NOSIG
ZJHK,2020-07-05 06:00,ZJHK 050600Z 14004MPS 110V180 9999 BKN030 35/25 Q1004 NOSIG
ZJHK,2020-07-05 07:00,ZJHK 050700Z 19004MPS 130V250 9999 SCT030 35/25 Q1004 NOSIG
ZJHK,2020-07-05 08:00,ZJHK 050800Z 15004MPS 120V200 9999 SCT030 35/24 Q1003 NOSIG
ZJHK,2020-07-05 09:00,ZJHK 050900Z 15006MPS 110V190 9999 FEW030 34/24 Q1003 NOSIG
ZJHK,2020-07-05 10:00,ZJHK 051000Z 14005MPS 110V180 9999 FEW030 33/25 Q1003 NOSIG
ZJHK,2020-07-05 11:00,ZJHK 051100Z 15003MPS 120V180 9999 FEW030 31/25 Q1004 NOSIG
ZJHK,2020-07-05 12:00,ZJHK 051200Z 14003MPS 110V170 9999 FEW030 29/25 Q1004 NOSIG
ZJHK,2020-07-05 13:00,ZJHK 051300Z 16003MPS 110V210 CAVOK 29/25 Q1005 NOSIG
ZJHK,2020-07-05 14:00,ZJHK 051400Z 16004MPS CAVOK 29/25 Q1005 NOSIG
ZJHK,2020-07-05 15:00,ZJHK 051500Z 17003MPS 130V210 CAVOK 28/25 Q1006 NOSIG
ZJHK,2020-07-05 16:00,ZJHK 051600Z 17004MPS 140V200 CAVOK 28/26 Q1006 NOSIG
ZJHK,2020-07-05 17:00,ZJHK 051700Z 18003MPS CAVOK 28/26 Q1005 NOSIG
ZJHK,2020-07-05 18:00,ZJHK 051800Z 16004MPS 130V200 CAVOK 27/25 Q1004 NOSIG
ZJHK,2020-07-05 19:00,ZJHK 051900Z 17003MPS 140V200 CAVOK 27/25 Q1004 NOSIG
ZJHK,2020-07-05 20:00,ZJHK 052000Z 17003MPS 140V200 CAVOK 27/25 Q1004 NOSIG
ZJHK,2020-07-05 21:00,ZJHK 052100Z 17003MPS 140V200 CAVOK 27/25 Q1004 NOSIG
ZJHK,2020-07-05 22:00,ZJHK 052200Z 16003MPS 130V190 CAVOK 27/25 Q1005 NOSIG
ZJHK,2020-07-05 23:00,ZJHK 052300Z 15003MPS 120V190 CAVOK 27/25 Q1005 NOSIG
ZJHK,2020-07-06 00:00,ZJHK 060000Z 17005MPS 140V210 CAVOK 29/25 Q1006 NOSIG
ZJHK,2020-07-06 01:00,ZJHK 060100Z 18005MPS 150V220 9999 FEW016 31/25 Q1006 NOSIG
ZJHK,2020-07-06 02:00,ZJHK 060200Z 18005MPS 140V220 9999 FEW016 32/25 Q1007 NOSIG
ZJHK,2020-07-06 03:00,ZJHK 060300Z 18005MPS 140V220 9999 SCT023 34/24 Q1007 NOSIG
ZJHK,2020-07-06 04:00,ZJHK 060400Z 20004MPS 160V240 9999 SCT030 34/25 Q1006 NOSIG
ZJHK,2020-07-06 05:00,ZJHK 060500Z 19004MPS 160V240 9999 SCT030 35/24 Q1005 NOSIG
ZJHK,2020-07-06 06:00,ZJHK 060600Z 20004MPS 160V240 9999 SCT030 36/24 Q1005 NOSIG
ZJHK,2020-07-06 07:00,ZJHK 060700Z 17005MPS 110V220 9999 SCT030 35/25 Q1004 NOSIG
ZJHK,2020-07-06 08:00,ZJHK 060800Z 18004MPS 130V220 9999 SCT030 35/25 Q1004 NOSIG
ZJHK,2020-07-06 09:00,ZJHK 060900Z 17005MPS 130V210 9999 FEW033CB FEW033 34/25 Q1003 NOSIG
ZJHK,2020-07-06 10:00,ZJHK 061000Z 14005MPS 110V170 9999 FEW033TCU FEW033 34/25 Q1004 NOSIG
ZJHK,2020-07-06 11:00,ZJHK 061100Z 15004MPS 130V200 9999 FEW033CB 32/25 Q1004 NOSIG
ZJHK,2020-07-06 12:00,ZJHK 061200Z 15004MPS 120V180 9999 FEW033TCU 30/25 Q1005 NOSIG
ZJHK,2020-07-06 13:00,ZJHK 061300Z 17004MPS 130V220 CAVOK 29/25 Q1006 NOSIG
ZJHK,2020-07-06 14:00,ZJHK 061400Z 16003MPS 120V190 CAVOK 29/25 Q1007 NOSIG
ZJHK,2020-07-06 15:00,ZJHK 061500Z 17003MPS 140V200 CAVOK 28/25 Q1007 NOSIG
ZJHK,2020-07-06 16:00,ZJHK 061600Z 17003MPS 140V200 CAVOK 28/25 Q1007 NOSIG
ZJHK,2020-07-06 17:00,ZJHK 061700Z 16004MPS 130V200 CAVOK 28/25 Q1007 NOSIG
ZJHK,2020-07-06 18:00,ZJHK 061800Z 16003MPS 130V190 CAVOK 28/26 Q1007 NOSIG
ZJHK,2020-07-06 19:00,ZJHK 061900Z 17003MPS 140V200 CAVOK 28/25 Q1007 NOSIG
ZJHK,2020-07-06 20:00,ZJHK 062000Z 16004MPS 140V200 CAVOK 28/25 Q1007 NOSIG
ZJHK,2020-07-06 21:00,ZJHK 062100Z 17004MPS CAVOK 28/25 Q1007 NOSIG
ZJHK,2020-07-06 22:00,ZJHK 062200Z 17003MPS 140V210 CAVOK 28/25 Q1008 NOSIG
ZJHK,2020-07-06 23:00,ZJHK 062300Z 17003MPS 140V210 CAVOK 28/25 Q1008 NOSIG
ZJHK,2020-07-07 00:00,ZJHK 070000Z 18004MPS 140V210 CAVOK 30/25 Q1009 NOSIG
ZJHK,2020-07-07 01:00,ZJHK 070100Z 19004MPS CAVOK 31/25 Q1009 NOSIG
ZJHK,2020-07-07 02:00,ZJHK 070200Z 24004MPS 210V270 CAVOK 33/25 Q1009 NOSIG
ZJHK,2020-07-07 03:00,ZJHK 070300Z 24004MPS 200V260 CAVOK 34/24 Q1008 NOSIG
ZJHK,2020-07-07 04:00,ZJHK 070400Z 22004MPS 180V240 9999 FEW030 35/24 Q1008 NOSIG
ZJHK,2020-07-07 05:00,ZJHK 070500Z 19003MPS 120V260 9999 SCT030 36/24 Q1007 NOSIG
ZJHK,2020-07-07 06:00,ZJHK 070600Z 21004MPS 180V240 9999 BKN030 37/24 Q1006 NOSIG
ZJHK,2020-07-07 07:00,ZJHK 070700Z 17005MPS 130V220 9999 BKN030 36/25 Q1006 NOSIG
ZJHK,2020-07-07 08:00,ZJHK 070800Z 15006MPS 110V180 9999 SCT030 35/26 Q1005 NOSIG
ZJHK,2020-07-07 09:00,ZJHK 070900Z 15005MPS 9999 SCT030 SCT040CB 33/25 Q1005 NOSIG
ZJHK,2020-07-07 10:00,ZJHK 071000Z 13003MPS 100V180 9999 SCT030 FEW040CB 32/24 Q1006 NOSIG
ZJHK,2020-07-07 11:00,ZJHK 071100Z 14002MPS 100V190 9999 SCT030 FEW040CB 32/25 Q1006 NOSIG
ZJHK,2020-07-07 12:00,ZJHK 071200Z 14003MPS 110V170 CAVOK 30/26 Q1007 NOSIG
ZJHK,2020-07-07 13:00,ZJHK 071300Z 15003MPS CAVOK 30/26 Q1007 NOSIG
ZJHK,2020-07-07 14:00,ZJHK 071400Z 16002MPS 130V190 CAVOK 29/25 Q1008 NOSIG
ZJHK,2020-07-07 15:00,ZJHK 071500Z 18004MPS CAVOK 29/25 Q1008 NOSIG
ZJHK,2020-07-07 16:00,ZJHK 071600Z 19002MPS 160V220 CAVOK 28/26 Q1008 NOSIG
ZJHK,2020-07-07 17:00,ZJHK 071700Z 18002MPS 150V220 CAVOK 28/26 Q1008 NOSIG
ZJHK,2020-07-07 18:00,ZJHK 071800Z 19002MPS 140V220 CAVOK 28/26 Q1007 NOSIG
ZJHK,2020-07-07 19:00,ZJHK 071900Z 18003MPS 150V220 CAVOK 28/25 Q1007 NOSIG
ZJHK,2020-07-07 20:00,ZJHK 072000Z 18003MPS 160V220 CAVOK 27/25 Q1007 NOSIG
ZJHK,2020-07-07 21:00,ZJHK 072100Z 17002MPS CAVOK 27/25 Q1007 NOSIG
ZJHK,2020-07-07 22:00,ZJHK 072200Z 19002MPS 160V230 CAVOK 27/25 Q1007 NOSIG
ZJHK,2020-07-07 23:00,ZJHK 072300Z 18003MPS CAVOK 27/25 Q1007 NOSIG
ZJHK,2020-07-08 00:00,ZJHK 080000Z 19004MPS 160V220 CAVOK 29/25 Q1008 NOSIG
ZJHK,2020-07-08 01:00,ZJHK 080100Z 21004MPS 180V240 CAVOK 30/25 Q1008 NOSIG
ZJHK,2020-07-08 02:00,ZJHK 080200Z 22005MPS 190V250 CAVOK 32/24 Q1008 NOSIG
ZJHK,2020-07-08 03:00,ZJHK 080300Z 21004MPS 160V250 CAVOK 34/25 Q1007 NOSIG
ZJHK,2020-07-08 04:00,ZJHK 080400Z 20004MPS 160V240 CAVOK 35/24 Q1007 NOSIG
ZJHK,2020-07-08 05:00,ZJHK 080500Z 20004MPS 150V250 9999 FEW023 36/23 Q1006 NOSIG
ZJHK,2020-07-08 06:00,ZJHK 080600Z 21003MPS 190V260 9999 SCT023 36/23 Q1005 NOSIG
ZJHK,2020-07-08 07:00,ZJHK 080700Z 25003MPS 210V300 9999 SCT023 37/23 Q1005 NOSIG
ZJHK,2020-07-08 08:00,ZJHK 080800Z 36004MPS 320V070 9999 FEW023TCU SCT023 36/25 Q1004 NOSIG
ZJHK,2020-07-08 09:00,ZJHK 080900Z 36005MPS 320V040 9999 FEW026CB SCT033 34/25 Q1004 NOSIG
ZJHK,2020-07-08 10:00,ZJHK 081000Z 12005MPS 9999 FEW026CB SCT033 28/24 Q1005 NOSIG
ZJHK,2020-07-08 11:00,ZJHK 081100Z 14002MPS 090V200 9999 FEW023TCU SCT033 29/25 Q1005 NOSIG
ZJHK,2020-07-08 12:00,ZJHK 081200Z 22002MPS 190V260 9999 FEW046 28/25 Q1005 NOSIG
ZJHK,2020-07-08 13:00,ZJHK 081300Z 16002MPS CAVOK 28/24 Q1005 NOSIG
ZJHK,2020-07-08 14:00,ZJHK 081400Z VRB01MPS CAVOK 27/25 Q1006 NOSIG
ZJHK,2020-07-08 15:00,ZJHK 081500Z VRB01MPS CAVOK 27/25 Q1006 NOSIG
ZJHK,2020-07-08 16:00,ZJHK 081600Z 18002MPS CAVOK 27/25 Q1006 NOSIG
ZJHK,2020-07-08 17:00,ZJHK 081700Z VRB01MPS CAVOK 27/26 Q1005 NOSIG
ZJHK,2020-07-08 18:00,ZJHK 081800Z 18003MPS 150V210 CAVOK 28/26 Q1004 NOSIG
ZJHK,2020-07-08 19:00,ZJHK 081900Z 18004MPS CAVOK 27/25 Q1004 NOSIG
ZJHK,2020-07-08 20:00,ZJHK 082000Z 19003MPS CAVOK 27/25 Q1004 NOSIG
ZJHK,2020-07-08 21:00,ZJHK 082100Z 19004MPS CAVOK 27/25 Q1004 NOSIG
ZJHK,2020-07-08 22:00,ZJHK 082200Z 19003MPS CAVOK 27/25 Q1004 NOSIG
ZJHK,2020-07-08 23:00,ZJHK 082300Z 19004MPS 160V220 CAVOK 28/25 Q1004 NOSIG
ZJHK,2020-07-09 00:00,ZJHK 090000Z 19005MPS 160V220 CAVOK 29/25 Q1004 NOSIG
ZJHK,2020-07-09 01:00,ZJHK 090100Z 21005MPS 160V240 CAVOK 31/25 Q1004 NOSIG
ZJHK,2020-07-09 02:00,ZJHK 090200Z 20005MPS 170V240 CAVOK 32/25 Q1004 NOSIG
ZJHK,2020-07-09 03:00,ZJHK 090300Z 20005MPS 170V230 CAVOK 34/25 Q1004 NOSIG
ZJHK,2020-07-09 04:00,ZJHK 090400Z 20005MPS 170V240 CAVOK 35/24 Q1003 NOSIG
ZJHK,2020-07-09 05:00,ZJHK 090500Z 23004G09MPS 180V290 9999 FEW020 36/23 Q1002 NOSIG
ZJHK,2020-07-09 06:00,ZJHK 090600Z 21004MPS 170V260 9999 FEW026 37/23 Q1002 NOSIG
ZJHK,2020-07-09 07:00,ZJHK 090700Z 22004MPS 170V260 9999 FEW036 38/22 Q1001 NOSIG
ZJHK,2020-07-09 08:00,ZJHK 090800Z 21003MPS 130V290 9999 FEW036 37/22 Q1001 NOSIG
ZJHK,2020-07-09 09:00,ZJHK 090900Z 11004MPS 090V150 9999 SCT040 35/27 Q1001 NOSIG
ZJHK,2020-07-09 10:00,ZJHK 091000Z 15005MPS 120V180 9999 FEW046 34/26 Q1001 NOSIG
ZJHK,2020-07-09 11:00,ZJHK 091100Z 15003MPS 130V190 9999 FEW046 32/26 Q1001 NOSIG
ZJHK,2020-07-09 12:00,ZJHK 091200Z 16003MPS 130V190 CAVOK 31/26 Q1002 NOSIG
ZJHK,2020-07-09 13:00,ZJHK 091300Z 15003MPS 120V180 CAVOK 30/26 Q1002 NOSIG
ZJHK,2020-07-09 14:00,ZJHK 091400Z 18003MPS 160V220 CAVOK 30/25 Q1003 NOSIG
ZJHK,2020-07-09 15:00,ZJHK 091500Z 18004MPS 150V210 CAVOK 29/25 Q1003 NOSIG
ZJHK,2020-07-09 16:00,ZJHK 091600Z 19004MPS 160V220 CAVOK 29/25 Q1003 NOSIG
ZJHK,2020-07-09 17:00,ZJHK 091700Z 19004MPS 160V220 CAVOK 29/25 Q1003 NOSIG
ZJHK,2020-07-09 18:00,ZJHK 091800Z 19003MPS 160V220 CAVOK 28/25 Q1003 NOSIG
ZJHK,2020-07-09 19:00,ZJHK 091900Z 18004MPS 150V210 CAVOK 28/24 Q1003 NOSIG
ZJHK,2020-07-09 20:00,ZJHK 092000Z 18004MPS 150V210 CAVOK 28/24 Q1003 NOSIG
ZJHK,2020-07-09 21:00,ZJHK 092100Z 18004MPS 150V210 CAVOK 28/24 Q1003 NOSIG
ZJHK,2020-07-09 22:00,ZJHK 092200Z 18004MPS 150V210 CAVOK 28/24 Q1003 NOSIG
ZJHK,2020-07-09 23:00,ZJHK 092300Z 18004MPS CAVOK 28/25 Q1003 NOSIG
ZJHK,2020-07-10 00:00,ZJHK 100000Z 18003MPS 150V220 CAVOK 29/25 Q1004 NOSIG
ZJHK,2020-07-10 01:00,ZJHK 100100Z 18005MPS 150V220 CAVOK 31/25 Q1004 NOSIG
ZJHK,2020-07-10 02:00,ZJHK 100200Z 19006MPS 160V220 CAVOK 33/25 Q1004 NOSIG
ZJHK,2020-07-10 03:00,ZJHK 100300Z 21004MPS 150V290 CAVOK 34/25 Q1004 NOSIG
ZJHK,2020-07-10 04:00,ZJHK 100400Z 20005MPS 170V260 CAVOK 34/25 Q1004 NOSIG
ZJHK,2020-07-10 05:00,ZJHK 100500Z 20005MPS 170V230 CAVOK 36/24 Q1004 NOSIG
ZJHK,2020-07-10 06:00,ZJHK 100600Z 18005MPS 150V220 9999 FEW030 37/24 Q1003 NOSIG
ZJHK,2020-07-10 07:00,ZJHK 100700Z 20004MPS 150V240 9999 FEW030 38/24 Q1003 NOSIG
ZJHK,2020-07-10 08:00,ZJHK 100800Z 14005MPS 110V180 9999 FEW030 35/26 Q1002 NOSIG
ZJHK,2020-07-10 09:00,ZJHK 100900Z 16005MPS 9999 FEW030 34/27 Q1002 NOSIG
ZJHK,2020-07-10 10:00,ZJHK 101000Z 16004MPS 130V200 CAVOK 33/27 Q1002 NOSIG
ZJHK,2020-07-10 11:00,ZJHK 101100Z 16004MPS 120V190 CAVOK 32/27 Q1003 NOSIG
ZJHK,2020-07-10 12:00,ZJHK 101200Z 17003MPS 140V200 CAVOK 31/27 Q1003 NOSIG
ZJHK,2020-07-10 13:00,ZJHK 101300Z 17004MPS 140V200 CAVOK 30/26 Q1003 NOSIG
ZJHK,2020-07-10 14:00,ZJHK 101400Z 18004MPS CAVOK 30/26 Q1004 NOSIG
ZJHK,2020-07-10 15:00,ZJHK 101500Z 18004MPS CAVOK 29/26 Q1005 NOSIG
ZJHK,2020-07-10 16:00,ZJHK 101600Z 18004MPS CAVOK 29/26 Q1005 NOSIG
ZJHK,2020-07-10 17:00,ZJHK 101700Z 18004MPS 150V220 CAVOK 29/26 Q1005 NOSIG
ZJHK,2020-07-10 18:00,ZJHK 101800Z 18004MPS 150V210 CAVOK 28/25 Q1004 NOSIG
ZJHK,2020-07-10 19:00,ZJHK 101900Z 17004MPS 150V210 CAVOK 28/25 Q1004 NOSIG
ZJHK,2020-07-10 20:00,ZJHK 102000Z 17005MPS 140V200 CAVOK 28/25 Q1004 NOSIG
ZJHK,2020-07-10 21:00,ZJHK 102100Z 17004MPS CAVOK 28/25 Q1004 NOSIG
ZJHK,2020-07-10 22:00,ZJHK 102200Z 17004MPS 150V210 CAVOK 28/25 Q1004 NOSIG
ZJHK,2020-07-10 23:00,ZJHK 102300Z 17004MPS CAVOK 28/25 Q1005 NOSIG
ZJHK,2020-07-11 00:00,ZJHK 110000Z 18004MPS 140V210 CAVOK 30/26 Q1005 NOSIG
ZJHK,2020-07-11 01:00,ZJHK 110100Z 19006MPS 140V220 CAVOK 32/25 Q1005 NOSIG
ZJHK,2020-07-11 02:00,ZJHK 110200Z 19006MPS 160V250 CAVOK 33/25 Q1006 NOSIG
ZJHK,2020-07-11 03:00,ZJHK 110300Z 19005MPS 150V230 CAVOK 34/26 Q1005 NOSIG
ZJHK,2020-07-11 04:00,ZJHK 110400Z 20004MPS 150V230 9999 FEW023 35/26 Q1005 NOSIG
ZJHK,2020-07-11 05:00,ZJHK 110500Z 19004MPS 160V230 9999 FEW023 36/25 Q1004 NOSIG
ZJHK,2020-07-11 06:00,ZJHK 110600Z 22004MPS 160V290 9999 SCT023 37/25 Q1004 NOSIG
ZJHK,2020-07-11 07:00,ZJHK 110700Z 17003MPS 120V220 9999 SCT023 38/25 Q1003 NOSIG
ZJHK,2020-07-11 08:00,ZJHK 110800Z 16005MPS 130V200 9999 FEW023 FEW030CB 35/26 Q1002 NOSIG
ZJHK,2020-07-11 09:00,ZJHK 110900Z 09005G10MPS 030V130 9999 FEW030CB SCT033 33/27 Q1003 NOSIG
ZJHK,2020-07-11 10:00,ZJHK 111000Z 02008MPS 4000 SHRA SCT030CB BKN033 25/22 Q1004 BECMG AT1100 NSW
ZJHK,2020-07-11 11:00,ZJHK 111100Z 26009G18MPS 220V280 9999 SCT030CB BKN033 27/22 Q1006 RESHRA NOSIG
ZJHK,2020-07-11 12:00,ZJHK 111200Z 11002MPS 040V200 9999 FEW030CB BKN033 25/22 Q1005 NOSIG
ZJHK,2020-07-11 13:00,ZJHK 111300Z 14003MPS 110V170 CAVOK 25/22 Q1006 NOSIG
ZJHK,2020-07-11 14:00,ZJHK 111400Z 16001MPS CAVOK 25/23 Q1007 NOSIG
ZJHK,2020-07-11 15:00,ZJHK 111500Z 15003MPS CAVOK 26/24 Q1007 NOSIG
ZJHK,2020-07-11 16:00,ZJHK 111600Z 16003MPS 130V190 CAVOK 28/26 Q1007 NOSIG
ZJHK,2020-07-11 17:00,ZJHK 111700Z 16003MPS 130V190 CAVOK 28/26 Q1006 NOSIG
ZJHK,2020-07-11 18:00,ZJHK 111800Z 17003MPS 140V200 CAVOK 28/26 Q1005 NOSIG
ZJHK,2020-07-11 19:00,ZJHK 111900Z 17003MPS 120V200 CAVOK 28/26 Q1005 NOSIG
ZJHK,2020-07-11 20:00,ZJHK 112000Z 16003MPS 140V200 CAVOK 28/26 Q1005 NOSIG
ZJHK,2020-07-11 21:00,ZJHK 112100Z 16003MPS 130V200 CAVOK 27/26 Q1005 NOSIG
ZJHK,2020-07-11 22:00,ZJHK 112200Z 15003MPS 110V180 CAVOK 27/26 Q1005 NOSIG
ZJHK,2020-07-11 23:00,ZJHK 112300Z 17003MPS 140V200 CAVOK 28/26 Q1005 NOSIG
ZJHK,2020-07-12 00:00,ZJHK 120000Z 19004MPS 140V220 CAVOK 29/26 Q1005 NOSIG
ZJHK,2020-07-12 01:00,ZJHK 120100Z 19003MPS 130V220 CAVOK 31/26 Q1006 NOSIG
ZJHK,2020-07-12 02:00,ZJHK 120200Z 17003MPS 140V220 CAVOK 33/26 Q1006 NOSIG
ZJHK,2020-07-12 03:00,ZJHK 120300Z 17004MPS 130V220 CAVOK 34/25 Q1005 NOSIG
ZJHK,2020-07-12 04:00,ZJHK 120400Z 18004MPS 140V210 CAVOK 35/25 Q1005 NOSIG
ZJHK,2020-07-12 05:00,ZJHK 120500Z 18004MPS 130V230 9999 FEW030 36/25 Q1004 NOSIG
ZJHK,2020-07-12 06:00,ZJHK 120600Z 16003MPS 090V220 9999 SCT030 37/25 Q1004 NOSIG
ZJHK,2020-07-12 07:00,ZJHK 120700Z 15005MPS 120V180 9999 BKN030 36/26 Q1003 NOSIG
ZJHK,2020-07-12 08:00,ZJHK 120800Z 14005MPS 110V170 9999 FEW030 35/26 Q1003 NOSIG
ZJHK,2020-07-12 09:00,ZJHK 120900Z 14005MPS 110V180 9999 FEW030 34/25 Q1003 NOSIG
ZJHK,2020-07-12 10:00,ZJHK 121000Z 15005MPS 110V180 9999 FEW030TCU 32/25 Q1003 NOSIG
ZJHK,2020-07-12 11:00,ZJHK 121100Z 17005MPS 130V200 9999 FEW030TCU 31/24 Q1005 NOSIG
ZJHK,2020-07-12 12:00,ZJHK 121200Z 22002MPS 160V270 9999 FEW040 28/22 Q1005 NOSIG
ZJHK,2020-07-12 13:00,ZJHK 121300Z 20002MPS 160V230 CAVOK 27/22 Q1006 NOSIG
ZJHK,2020-07-12 14:00,ZJHK 121400Z 00000MPS CAVOK 27/22 Q1007 NOSIG
ZJHK,2020-07-12 15:00,ZJHK 121500Z VRB01MPS CAVOK 26/23 Q1007 NOSIG
ZJHK,2020-07-12 16:00,ZJHK 121600Z 14002MPS CAVOK 27/24 Q1007 NOSIG
ZJHK,2020-07-12 17:00,ZJHK 121700Z 16004MPS CAVOK 28/25 Q1006 NOSIG
ZJHK,2020-07-12 18:00,ZJHK 121800Z 16003MPS 130V200 CAVOK 27/25 Q1006 NOSIG
ZJHK,2020-07-12 19:00,ZJHK 121900Z 15003MPS 120V200 CAVOK 27/25 Q1006 NOSIG
ZJHK,2020-07-12 20:00,ZJHK 122000Z 16002MPS 130V200 CAVOK 27/25 Q1006 NOSIG
ZJHK,2020-07-12 21:00,ZJHK 122100Z 14002MPS 110V170 CAVOK 27/25 Q1006 NOSIG
ZJHK,2020-07-12 22:00,ZJHK 122200Z 13002MPS CAVOK 26/25 Q1006 NOSIG
ZJHK,2020-07-12 23:00,ZJHK 122300Z 14002MPS 110V180 CAVOK 27/26 Q1007 NOSIG
ZJHK,2020-07-13 00:00,ZJHK 130000Z 18003MPS 140V220 9999 FEW014 29/26 Q1007 NOSIG
ZJHK,2020-07-13 01:00,ZJHK 130100Z 17004MPS 140V220 9999 FEW016 31/25 Q1007 NOSIG
ZJHK,2020-07-13 02:00,ZJHK 130200Z 20003MPS 150V270 9999 SCT023 33/26 Q1007 NOSIG
ZJHK,2020-07-13 03:00,ZJHK 130300Z 22003MPS 150V260 9999 SCT026 33/24 Q1007 NOSIG
ZJHK,2020-07-13 04:00,ZJHK 130400Z 23004MPS 180V280 9999 SCT030 34/24 Q1007 NOSIG
ZJHK,2020-07-13 05:00,ZJHK 130500Z 21002MPS 140V280 9999 SCT030 36/24 Q1007 NOSIG
ZJHK,2020-07-13 06:00,ZJHK 130600Z 01004MPS 320V060 9999 SCT030 34/25 Q1006 NOSIG
ZJHK,2020-07-13 07:00,ZJHK 130700Z 35006MPS 320V040 9999 FEW030CB SCT030 34/26 Q1005 BECMG AT0800 -TSRA
ZJHK,2020-07-13 08:00,ZJHK 130800Z VRB02MPS 9999 FEW030CB SCT030 31/25 Q1005 BECMG AT0820 -TSRA
ZJHK,2020-07-13 09:00,ZJHK 130900Z VRB01MPS 9999 FEW033TCU SCT033 34/25 Q1005 NOSIG
ZJHK,2020-07-13 10:00,ZJHK 131000Z 15003MPS 9999 FEW040TCU SCT040 32/24 Q1005 NOSIG
ZJHK,2020-07-13 11:00,ZJHK 131100Z 14004MPS 100V160 9999 FEW040TCU FEW040 31/24 Q1006 NOSIG
ZJHK,2020-07-13 12:00,ZJHK 131200Z 13003MPS 9999 SCT043 29/25 Q1007 NOSIG
ZJHK,2020-07-13 13:00,ZJHK 131300Z 14003MPS CAVOK 28/25 Q1007 NOSIG
ZJHK,2020-07-13 14:00,ZJHK 131400Z 14002MPS 110V170 CAVOK 28/25 Q1008 NOSIG
ZJHK,2020-07-13 15:00,ZJHK 131500Z VRB01MPS CAVOK 27/25 Q1008 NOSIG
ZJHK,2020-07-13 16:00,ZJHK 131600Z 18003MPS 140V200 CAVOK 27/25 Q1008 NOSIG
ZJHK,2020-07-13 17:00,ZJHK 131700Z 17002MPS 140V200 CAVOK 27/25 Q1007 NOSIG
ZJHK,2020-07-13 18:00,ZJHK 131800Z 16002MPS 130V210 CAVOK 26/25 Q1007 NOSIG
ZJHK,2020-07-13 19:00,ZJHK 131900Z VRB01MPS CAVOK 26/25 Q1006 NOSIG
ZJHK,2020-07-13 20:00,ZJHK 132000Z VRB01MPS CAVOK 26/25 Q1007 NOSIG
ZJHK,2020-07-13 21:00,ZJHK 132100Z 19002MPS CAVOK 26/25 Q1007 NOSIG
ZJHK,2020-07-13 22:00,ZJHK 132200Z 20002MPS 160V240 CAVOK 26/25 Q1007 NOSIG
ZJHK,2020-07-13 23:00,ZJHK 132300Z 18002MPS 140V250 CAVOK 26/25 Q1007 NOSIG
ZJHK,2020-07-14 00:00,ZJHK 140000Z 19002MPS 150V240 CAVOK 28/25 Q1008 NOSIG
ZJHK,2020-07-14 01:00,ZJHK 140100Z 22002MPS 200V300 CAVOK 29/24 Q1008 NOSIG
ZJHK,2020-07-14 02:00,ZJHK 140200Z 22002MPS 170V300 CAVOK 31/24 Q1008 NOSIG
ZJHK,2020-07-14 03:00,ZJHK 140300Z VRB02MPS 9999 FEW030 33/24 Q1008 NOSIG
ZJHK,2020-07-14 04:00,ZJHK 140400Z 34003MPS 250V060 9999 SCT030 35/24 Q1007 NOSIG
ZJHK,2020-07-14 05:00,ZJHK 140500Z VRB02MPS 9999 BKN030 35/23 Q1006 NOSIG
ZJHK,2020-07-14 06:00,ZJHK 140600Z 31004MPS 240V350 9999 SCT030 37/22 Q1006 NOSIG
ZJHK,2020-07-14 07:00,ZJHK 140700Z 36004MPS 320V060 9999 SCT030 36/21 Q1005 NOSIG
ZJHK,2020-07-14 08:00,ZJHK 140800Z 36007MPS 330V030 9999 FEW026TCU SCT030 35/26 Q1004 NOSIG
ZJHK,2020-07-14 09:00,ZJHK 140900Z 01005MPS 9999 FEW040CB FEW040 33/26 Q1004 NOSIG
ZJHK,2020-07-14 10:00,ZJHK 141000Z 04003MPS 340V080 9999 FEW040CB FEW040 33/25 Q1005 NOSIG
ZJHK,2020-07-14 11:00,ZJHK 141100Z 18004MPS 140V210 9999 FEW040TCU FEW040 30/24 Q1006 NOSIG
ZJHK,2020-07-14 12:00,ZJHK 141200Z 14002MPS 120V180 CAVOK 29/24 Q1006 NOSIG
ZJHK,2020-07-14 13:00,ZJHK 141300Z 16002MPS CAVOK 28/24 Q1007 NOSIG
ZJHK,2020-07-14 14:00,ZJHK 141400Z VRB01MPS CAVOK 27/24 Q1007 NOSIG
ZJHK,2020-07-14 15:00,ZJHK 141500Z 20002MPS 170V230 CAVOK 27/24 Q1007 NOSIG
ZJHK,2020-07-14 16:00,ZJHK 141600Z 21002MPS 180V240 CAVOK 27/25 Q1007 NOSIG
ZJHK,2020-07-14 17:00,ZJHK 141700Z VRB01MPS CAVOK 27/25 Q1006 NOSIG
ZJHK,2020-07-14 18:00,ZJHK 141800Z 17001MPS CAVOK 26/24 Q1006 NOSIG
ZJHK,2020-07-14 19:00,ZJHK 141900Z VRB01MPS CAVOK 26/24 Q1005 NOSIG
ZJHK,2020-07-14 20:00,ZJHK 142000Z VRB01MPS CAVOK 26/24 Q1005 NOSIG
ZJHK,2020-07-14 21:00,ZJHK 142100Z 20002MPS CAVOK 26/24 Q1005 NOSIG
ZJHK,2020-07-14 22:00,ZJHK 142200Z 21002MPS 170V230 CAVOK 26/24 Q1006 NOSIG
ZJHK,2020-07-14 23:00,ZJHK 142300Z VRB01MPS CAVOK 26/24 Q1006 NOSIG
ZJHK,2020-07-15 00:00,ZJHK 150000Z 20002MPS 140V240 CAVOK 27/24 Q1007 NOSIG
ZJHK,2020-07-15 01:00,ZJHK 150100Z 19002MPS 150V320 CAVOK 30/25 Q1007 NOSIG
ZJHK,2020-07-15 02:00,ZJHK 150200Z 24003MPS 200V270 CAVOK 31/24 Q1007 NOSIG
ZJHK,2020-07-15 03:00,ZJHK 150300Z 20002MPS 160V270 9999 FEW030 33/23 Q1007 NOSIG
ZJHK,2020-07-15 04:00,ZJHK 150400Z VRB02MPS 9999 SCT030 34/24 Q1006 NOSIG
ZJHK,2020-07-15 05:00,ZJHK 150500Z VRB03MPS 9999 FEW023TCU SCT023 35/25 Q1006 NOSIG
ZJHK,2020-07-15 06:00,ZJHK 150600Z 29006MPS 5000 -TSRA FEW020CB SCT026 28/24 Q1006 BECMG AT0645 -SHRA
ZJHK,2020-07-15 07:00,ZJHK 150700Z 18004MPS 140V210 9999 -TSRA FEW020CB SCT026 28/25 Q1005 BECMG AT0730 NSW
ZJHK,2020-07-15 08:00,ZJHK 150800Z 35002MPS 300V070 9999 FEW026TCU FEW026 29/26 Q1004 RETS NOSIG
ZJHK,2020-07-15 09:00,ZJHK 150900Z 06003MPS 9999 FEW026TCU FEW026 34/26 Q1004 NOSIG
ZJHK,2020-07-15 10:00,ZJHK 151000Z 15003MPS 130V190 9999 FEW026TCU SCT046 31/25 Q1004 NOSIG
ZJHK,2020-07-15 11:00,ZJHK 151100Z 13003MPS CAVOK 30/25 Q1004 NOSIG
ZJHK,2020-07-15 12:00,ZJHK 151200Z 20002MPS 160V220 CAVOK 28/24 Q1004 NOSIG
ZJHK,2020-07-15 13:00,ZJHK 151300Z 21002MPS 150V270 CAVOK 28/25 Q1005 NOSIG
ZJHK,2020-07-15 14:00,ZJHK 151400Z 18002MPS 160V240 CAVOK 27/24 Q1006 NOSIG
ZJHK,2020-07-15 15:00,ZJHK 151500Z 20002MPS 150V250 CAVOK 26/23 Q1007 NOSIG
ZJHK,2020-07-15 16:00,ZJHK 151600Z 21002MPS 180V240 CAVOK 26/22 Q1007 NOSIG
ZJHK,2020-07-15 17:00,ZJHK 151700Z VRB01MPS CAVOK 26/22 Q1007 NOSIG
ZJHK,2020-07-15 18:00,ZJHK 151800Z 17002MPS 130V210 CAVOK 26/24 Q1006 NOSIG
ZJHK,2020-07-15 19:00,ZJHK 151900Z 14002MPS 110V170 CAVOK 25/24 Q1006 NOSIG
ZJHK,2020-07-15 20:00,ZJHK 152000Z VRB01MPS CAVOK 25/23 Q1005 NOSIG
ZJHK,2020-07-15 21:00,ZJHK 152100Z 17002MPS 130V200 CAVOK 26/24 Q1006 NOSIG
ZJHK,2020-07-15 22:00,ZJHK 152200Z 18002MPS 140V220 CAVOK 26/24 Q1006 NOSIG
ZJHK,2020-07-15 23:00,ZJHK 152300Z 19002MPS 150V220 CAVOK 27/25 Q1006 NOSIG
ZJHK,2020-07-16 00:00,ZJHK 160000Z 20003MPS 170V230 CAVOK 28/25 Q1007 NOSIG
ZJHK,2020-07-16 01:00,ZJHK 160100Z 21004MPS 180V250 CAVOK 30/26 Q1007 NOSIG
ZJHK,2020-07-16 02:00,ZJHK 160200Z 21004MPS 170V250 9999 FEW030 31/25 Q1007 NOSIG
ZJHK,2020-07-16 03:00,ZJHK 160300Z 22004MPS 180V260 9999 FEW030 33/25 Q1007 NOSIG
ZJHK,2020-07-16 04:00,ZJHK 160400Z 20004MPS 160V270 9999 FEW030 34/24 Q1006 NOSIG
ZJHK,2020-07-16 05:00,ZJHK 160500Z 20004MPS 150V250 9999 FEW030 35/23 Q1005 NOSIG
ZJHK,2020-07-16 06:00,ZJHK 160600Z 20003MPS 150V240 9999 FEW033TCU FEW033 36/22 Q1005 NOSIG
ZJHK,2020-07-16 07:00,ZJHK 160700Z 18003MPS 150V220 9999 FEW033TCU FEW033 37/22 Q1004 NOSIG
ZJHK,2020-07-16 08:00,ZJHK 160800Z 22002MPS 130V300 9999 FEW033TCU FEW033 37/21 Q1003 NOSIG
ZJHK,2020-07-16 09:00,ZJHK 160900Z 16003MPS 110V220 9999 FEW033 37/22 Q1003 NOSIG
ZJHK,2020-07-16 10:00,ZJHK 161000Z 11004MPS 080V140 9999 FEW033 35/25 Q1003 NOSIG
ZJHK,2020-07-16 11:00,ZJHK 161100Z 09002MPS 060V140 9999 FEW040 33/24 Q1003 NOSIG
ZJHK,2020-07-16 12:00,ZJHK 161200Z 12002MPS CAVOK 30/25 Q1004 NOSIG
ZJHK,2020-07-16 13:00,ZJHK 161300Z 15002MPS CAVOK 30/25 Q1005 NOSIG
ZJHK,2020-07-16 14:00,ZJHK 161400Z 16003MPS 110V210 CAVOK 29/24 Q1006 NOSIG
ZJHK,2020-07-16 15:00,ZJHK 161500Z 18003MPS 150V210 CAVOK 29/23 Q1007 NOSIG
ZJHK,2020-07-16 16:00,ZJHK 161600Z 17003MPS 140V200 CAVOK 28/23 Q1007 NOSIG
ZJHK,2020-07-16 17:00,ZJHK 161700Z 17003MPS 140V200 CAVOK 28/24 Q1007 NOSIG
ZJHK,2020-07-16 18:00,ZJHK 161800Z 17003MPS 140V200 CAVOK 28/24 Q1006 NOSIG
ZJHK,2020-07-16 19:00,ZJHK 161900Z 17003MPS 140V200 CAVOK 27/24 Q1006 NOSIG
ZJHK,2020-07-16 20:00,ZJHK 162000Z 17003MPS 140V210 CAVOK 27/24 Q1006 NOSIG
ZJHK,2020-07-16 21:00,ZJHK 162100Z 16003MPS 130V190 CAVOK 27/24 Q1006 NOSIG
ZJHK,2020-07-16 22:00,ZJHK 162200Z 15003MPS 120V180 CAVOK 27/24 Q1006 NOSIG
ZJHK,2020-07-16 23:00,ZJHK 162300Z 17003MPS 120V210 CAVOK 27/25 Q1007 NOSIG
ZJHK,2020-07-17 00:00,ZJHK 170000Z 20004MPS 160V230 CAVOK 29/25 Q1007 NOSIG
ZJHK,2020-07-17 01:00,ZJHK 170100Z 21004MPS 160V240 CAVOK 31/25 Q1008 NOSIG
ZJHK,2020-07-17 02:00,ZJHK 170200Z 20004MPS 170V240 CAVOK 33/25 Q1008 NOSIG
ZJHK,2020-07-17 03:00,ZJHK 170300Z 23004MPS 180V270 CAVOK 34/24 Q1008 NOSIG
ZJHK,2020-07-17 04:00,ZJHK 170400Z 22004MPS 160V260 9999 FEW023 35/24 Q1007 NOSIG
ZJHK,2020-07-17 05:00,ZJHK 170500Z 21004MPS 160V260 9999 FEW030 36/23 Q1007 NOSIG
ZJHK,2020-07-17 06:00,ZJHK 170600Z 19004MPS 120V250 9999 SCT030 37/24 Q1006 NOSIG
ZJHK,2020-07-17 07:00,ZJHK 170700Z 19002MPS 140V220 9999 SCT030 36/23 Q1005 NOSIG
ZJHK,2020-07-17 08:00,ZJHK 170800Z 19003MPS 150V240 9999 SCT030 38/22 Q1004 NOSIG
ZJHK,2020-07-17 09:00,ZJHK 170900Z 19003MPS 150V230 9999 SCT030 36/24 Q1004 NOSIG
ZJHK,2020-07-17 10:00,ZJHK 171000Z 14003MPS 110V170 9999 FEW026CB SCT033 34/25 Q1004 NOSIG
ZJHK,2020-07-17 11:00,ZJHK 171100Z 28009MPS 9999 SCT026CB SCT033 28/21 Q1006 NOSIG
ZJHK,2020-07-17 12:00,ZJHK 171200Z 23002MPS 180V260 9999 FEW026CB SCT033 28/22 Q1006 NOSIG
ZJHK,2020-07-17 13:00,ZJHK 171300Z 17001MPS 9999 SCT046 28/22 Q1007 NOSIG
ZJHK,2020-07-17 14:00,ZJHK 171400Z 15004MPS 9999 SCT046 29/25 Q1008 NOSIG
ZJHK,2020-07-17 15:00,ZJHK 171500Z 16003MPS 110V210 CAVOK 29/25 Q1008 NOSIG
ZJHK,2020-07-17 16:00,ZJHK 171600Z 18003MPS 140V210 CAVOK 28/25 Q1008 NOSIG
ZJHK,2020-07-17 17:00,ZJHK 171700Z 18004MPS CAVOK 28/25 Q1007 NOSIG
ZJHK,2020-07-17 18:00,ZJHK 171800Z 17004MPS 150V220 CAVOK 28/25 Q1007 NOSIG
ZJHK,2020-07-17 19:00,ZJHK 171900Z 18003MPS 150V230 CAVOK 28/25 Q1007 NOSIG
ZJHK,2020-07-17 20:00,ZJHK 172000Z 19003MPS 150V220 CAVOK 27/25 Q1007 NOSIG
ZJHK,2020-07-17 21:00,ZJHK 172100Z 19002MPS 150V220 CAVOK 27/25 Q1007 NOSIG
ZJHK,2020-07-17 22:00,ZJHK 172200Z VRB01MPS CAVOK 27/25 Q1007 NOSIG
ZJHK,2020-07-17 23:00,ZJHK 172300Z 15002MPS CAVOK 27/25 Q1007 NOSIG
ZJHK,2020-07-18 00:00,ZJHK 180000Z 17004MPS 130V200 CAVOK 29/25 Q1007 NOSIG
ZJHK,2020-07-18 01:00,ZJHK 180100Z 19004MPS 160V230 CAVOK 31/25 Q1008 NOSIG
ZJHK,2020-07-18 02:00,ZJHK 180200Z 19004MPS 150V230 CAVOK 33/25 Q1008 NOSIG
ZJHK,2020-07-18 03:00,ZJHK 180300Z 19004MPS 150V230 CAVOK 34/24 Q1008 NOSIG
ZJHK,2020-07-18 04:00,ZJHK 180400Z 24004MPS 200V270 CAVOK 36/24 Q1007 NOSIG
ZJHK,2020-07-18 05:00,ZJHK 180500Z 25004MPS 210V290 9999 FEW030 37/23 Q1006 NOSIG
ZJHK,2020-07-18 06:00,ZJHK 180600Z 32003MPS 260V020 9999 SCT030 37/22 Q1006 NOSIG
ZJHK,2020-07-18 07:00,ZJHK 180700Z VRB02MPS 9999 SCT030 38/22 Q1005 NOSIG
ZJHK,2020-07-18 08:00,ZJHK 180800Z 01004MPS 320V050 9999 FEW026CB SCT026 35/25 Q1005 BECMG AT0900 TS
ZJHK,2020-07-18 09:00,ZJHK 180900Z 07003MPS 020V120 9999 FEW026TCU FEW026 34/26 Q1004 NOSIG
ZJHK,2020-07-18 10:00,ZJHK 181000Z 11004MPS 9999 FEW040 32/25 Q1004 NOSIG
ZJHK,2020-07-18 11:00,ZJHK 181100Z 12003MPS CAVOK 31/26 Q1005 NOSIG
ZJHK,2020-07-18 12:00,ZJHK 181200Z 13003MPS 100V160 CAVOK 30/24 Q1005 NOSIG
ZJHK,2020-07-18 13:00,ZJHK 181300Z 15002MPS 120V190 CAVOK 29/24 Q1006 NOSIG
ZJHK,2020-07-18 14:00,ZJHK 181400Z 15003MPS 130V190 CAVOK 29/24 Q1007 NOSIG
ZJHK,2020-07-18 15:00,ZJHK 181500Z 17004MPS 130V200 CAVOK 29/24 Q1007 NOSIG
ZJHK,2020-07-18 16:00,ZJHK 181600Z 17003MPS 140V210 CAVOK 28/25 Q1007 NOSIG
ZJHK,2020-07-18 17:00,ZJHK 181700Z 17004MPS 140V200 CAVOK 28/25 Q1007 NOSIG
ZJHK,2020-07-18 18:00,ZJHK 181800Z 18003MPS 140V220 CAVOK 28/25 Q1007 NOSIG
ZJHK,2020-07-18 19:00,ZJHK 181900Z 18003MPS 150V220 CAVOK 28/24 Q1006 NOSIG
ZJHK,2020-07-18 20:00,ZJHK 182000Z 17003MPS 140V220 CAVOK 27/24 Q1006 NOSIG
ZJHK,2020-07-18 21:00,ZJHK 182100Z 18003MPS CAVOK 27/24 Q1005 NOSIG
ZJHK,2020-07-18 22:00,ZJHK 182200Z 17003MPS 140V200 CAVOK 27/24 Q1005 NOSIG
ZJHK,2020-07-18 23:00,ZJHK 182300Z 17003MPS 130V200 CAVOK 27/24 Q1005 NOSIG
ZJHK,2020-07-19 00:00,ZJHK 190000Z 19004MPS 150V220 CAVOK 29/24 Q1006 NOSIG
ZJHK,2020-07-19 01:00,ZJHK 190100Z 20004MPS 170V250 CAVOK 31/24 Q1006 NOSIG
ZJHK,2020-07-19 02:00,ZJHK 190200Z 19004MPS 130V240 CAVOK 33/24 Q1006 NOSIG
ZJHK,2020-07-19 03:00,ZJHK 190300Z 23004MPS 200V260 CAVOK 34/23 Q1006 NOSIG
ZJHK,2020-07-19 04:00,ZJHK 190400Z 22003MPS 180V300 CAVOK 35/24 Q1006 NOSIG
ZJHK,2020-07-19 05:00,ZJHK 190500Z VRB03MPS 9999 FEW026 37/23 Q1005 NOSIG
ZJHK,2020-07-19 06:00,ZJHK 190600Z 29005MPS 240V320 9999 SCT030 37/23 Q1004 NOSIG
ZJHK,2020-07-19 07:00,ZJHK 190700Z 05004MPS 010V090 9999 FEW030TCU SCT030 37/23 Q1004 NOSIG
ZJHK,2020-07-19 08:00,ZJHK 190800Z 05005MPS 010V090 9999 FEW030TCU SCT030 38/24 Q1003 NOSIG
ZJHK,2020-07-19 09:00,ZJHK 190900Z 11004MPS 090V150 9999 FEW033TCU FEW033 34/25 Q1004 NOSIG
ZJHK,2020-07-19 10:00,ZJHK 191000Z 14004MPS 8000 SHRA SCT033TCU FEW033 30/26 Q1004 BECMG TL1020 -SHRA
ZJHK,2020-07-19 11:00,ZJHK 191100Z 13004MPS 110V170 9999 FEW040 30/25 Q1004 RESHRA NOSIG
ZJHK,2020-07-19 12:00,ZJHK 191200Z 16004MPS 130V210 9999 FEW043 29/24 Q1006 NOSIG
ZJHK,2020-07-19 13:00,ZJHK 191300Z 17005MPS 140V200 CAVOK 29/24 Q1007 NOSIG
ZJHK,2020-07-19 14:00,ZJHK 191400Z 17004MPS 140V200 CAVOK 29/24 Q1007 NOSIG
ZJHK,2020-07-19 15:00,ZJHK 191500Z 17003MPS 140V200 CAVOK 28/25 Q1008 NOSIG
ZJHK,2020-07-19 16:00,ZJHK 191600Z 16005MPS 130V220 CAVOK 28/25 Q1008 NOSIG
ZJHK,2020-07-19 17:00,ZJHK 191700Z 17005MPS 130V200 CAVOK 28/25 Q1007 NOSIG
ZJHK,2020-07-19 18:00,ZJHK 191800Z 17003MPS 140V210 CAVOK 27/25 Q1007 NOSIG
ZJHK,2020-07-19 19:00,ZJHK 191900Z 17004MPS 130V200 CAVOK 27/25 Q1006 NOSIG
ZJHK,2020-07-19 20:00,ZJHK 192000Z 16003MPS 120V200 CAVOK 27/25 Q1006 NOSIG
ZJHK,2020-07-19 21:00,ZJHK 192100Z 17003MPS 140V210 CAVOK 27/25 Q1006 NOSIG
ZJHK,2020-07-19 22:00,ZJHK 192200Z 17003MPS 130V200 CAVOK 27/25 Q1007 NOSIG
ZJHK,2020-07-19 23:00,ZJHK 192300Z 15004MPS 120V180 CAVOK 27/25 Q1007 NOSIG
ZJHK,2020-07-20 00:00,ZJHK 200000Z 16005MPS 130V200 CAVOK 29/25 Q1008 NOSIG
ZJHK,2020-07-20 01:00,ZJHK 200100Z 17006MPS 150V220 CAVOK 30/25 Q1008 NOSIG
ZJHK,2020-07-20 02:00,ZJHK 200200Z 18005MPS 140V220 CAVOK 32/24 Q1009 NOSIG
ZJHK,2020-07-20 03:00,ZJHK 200300Z 18006MPS 150V210 CAVOK 34/23 Q1009 NOSIG
ZJHK,2020-07-20 04:00,ZJHK 200400Z 17005MPS 140V200 9999 FEW030 35/23 Q1008 NOSIG
ZJHK,2020-07-20 05:00,ZJHK 200500Z 16004MPS 130V210 9999 FEW030 36/23 Q1008 NOSIG
ZJHK,2020-07-20 06:00,ZJHK 200600Z 18004MPS 140V240 9999 FEW030 36/22 Q1007 NOSIG
ZJHK,2020-07-20 07:00,ZJHK 200700Z 16004MPS 130V200 9999 FEW030 36/24 Q1006 NOSIG
ZJHK,2020-07-20 08:00,ZJHK 200800Z 15005MPS 120V190 9999 FEW030 34/24 Q1006 NOSIG
ZJHK,2020-07-20 09:00,ZJHK 200900Z 15005MPS 120V220 9999 FEW030 34/24 Q1005 NOSIG
ZJHK,2020-07-20 10:00,ZJHK 201000Z 14005MPS CAVOK 32/24 Q1005 NOSIG
ZJHK,2020-07-20 11:00,ZJHK 201100Z 14004MPS 110V170 CAVOK 31/23 Q1006 NOSIG
ZJHK,2020-07-20 12:00,ZJHK 201200Z 14004MPS 100V170 CAVOK 29/23 Q1007 NOSIG
ZJHK,2020-07-20 13:00,ZJHK 201300Z 14003MPS 110V170 CAVOK 28/24 Q1008 NOSIG
ZJHK,2020-07-20 14:00,ZJHK 201400Z 15002MPS CAVOK 28/25 Q1009 NOSIG
ZJHK,2020-07-20 15:00,ZJHK 201500Z 15003MPS CAVOK 28/25 Q1010 NOSIG
ZJHK,2020-07-20 16:00,ZJHK 201600Z 15003MPS 120V180 CAVOK 28/25 Q1010 NOSIG
ZJHK,2020-07-20 17:00,ZJHK 201700Z 17003MPS 150V210 CAVOK 27/26 Q1009 NOSIG
ZJHK,2020-07-20 18:00,ZJHK 201800Z 16002MPS 130V200 CAVOK 27/25 Q1009 NOSIG
ZJHK,2020-07-20 19:00,ZJHK 201900Z VRB01MPS CAVOK 26/25 Q1009 NOSIG
ZJHK,2020-07-20 20:00,ZJHK 202000Z 14002MPS 110V180 CAVOK 26/25 Q1009 NOSIG
ZJHK,2020-07-20 21:00,ZJHK 202100Z 14002MPS 110V170 CAVOK 26/25 Q1009 NOSIG
ZJHK,2020-07-20 22:00,ZJHK 202200Z 12001MPS 9999 FEW040 26/25 Q1009 NOSIG
ZJHK,2020-07-20 23:00,ZJHK 202300Z VRB01MPS 9999 FEW040 26/25 Q1010 NOSIG
ZJHK,2020-07-21 00:00,ZJHK 210000Z 18002MPS 140V260 9999 FEW040 28/27 Q1010 NOSIG
ZJHK,2020-07-21 01:00,ZJHK 210100Z 18003MPS 140V210 9999 SCT020 31/26 Q1010 NOSIG
ZJHK,2020-07-21 02:00,ZJHK 210200Z 19004MPS 140V240 9999 BKN023 32/25 Q1010 NOSIG
ZJHK,2020-07-21 03:00,ZJHK 210300Z 19004MPS 150V240 9999 SCT023 33/24 Q1010 NOSIG
ZJHK,2020-07-21 04:00,ZJHK 210400Z 18004MPS 150V210 9999 BKN023 34/23 Q1010 NOSIG
ZJHK,2020-07-21 05:00,ZJHK 210500Z 14005MPS 110V180 9999 FEW020TCU BKN030 34/23 Q1009 NOSIG
ZJHK,2020-07-21 06:00,ZJHK 210600Z 15006MPS 120V200 9999 FEW023CB SCT030 36/23 Q1009 NOSIG
ZJHK,2020-07-21 07:00,ZJHK 210700Z 14004MPS 100V200 9999 FEW023TCU SCT030 36/22 Q1008 NOSIG
ZJHK,2020-07-21 08:00,ZJHK 210800Z 13004MPS 100V210 9999 SCT030 35/21 Q1008 NOSIG
ZJHK,2020-07-21 09:00,ZJHK 210900Z 15004MPS 110V200 9999 FEW030 34/23 Q1007 NOSIG
ZJHK,2020-07-21 10:00,ZJHK 211000Z 15005MPS 120V200 9999 FEW026 33/23 Q1007 NOSIG
ZJHK,2020-07-21 11:00,ZJHK 211100Z 15004MPS 110V190 CAVOK 31/23 Q1008 NOSIG
ZJHK,2020-07-21 12:00,ZJHK 211200Z 15003MPS 120V180 CAVOK 30/23 Q1008 NOSIG
ZJHK,2020-07-21 13:00,ZJHK 211300Z 13003MPS 100V160 CAVOK 29/24 Q1008 NOSIG
ZJHK,2020-07-21 14:00,ZJHK 211400Z VRB01MPS CAVOK 28/24 Q1009 NOSIG
ZJHK,2020-07-21 15:00,ZJHK 211500Z VRB01MPS CAVOK 27/25 Q1010 NOSIG
ZJHK,2020-07-21 16:00,ZJHK 211600Z 15002MPS CAVOK 27/25 Q1010 NOSIG
ZJHK,2020-07-21 17:00,ZJHK 211700Z 14002MPS CAVOK 27/25 Q1010 NOSIG
ZJHK,2020-07-21 18:00,ZJHK 211800Z 14001MPS CAVOK 27/25 Q1009 NOSIG
ZJHK,2020-07-21 19:00,ZJHK 211900Z 00000MPS CAVOK 26/25 Q1009 NOSIG
ZJHK,2020-07-21 20:00,ZJHK 212000Z 16001MPS CAVOK 26/25 Q1009 NOSIG
ZJHK,2020-07-21 21:00,ZJHK 212100Z 15001MPS CAVOK 26/25 Q1009 NOSIG
ZJHK,2020-07-21 22:00,ZJHK 212200Z VRB01MPS CAVOK 26/25 Q1009 NOSIG
ZJHK,2020-07-21 23:00,ZJHK 212300Z VRB01MPS CAVOK 26/25 Q1009 NOSIG
ZJHK,2020-07-22 00:00,ZJHK 220000Z 18002MPS 120V230 CAVOK 29/26 Q1009 NOSIG
ZJHK,2020-07-22 01:00,ZJHK 220100Z 18003MPS 130V240 9999 SCT023 31/25 Q1010 NOSIG
ZJHK,2020-07-22 02:00,ZJHK 220200Z 17002MPS 130V220 9999 SCT023 32/24 Q1010 NOSIG
ZJHK,2020-07-22 03:00,ZJHK 220300Z 23003MPS 150V260 9999 SCT023 34/24 Q1010 NOSIG
ZJHK,2020-07-22 04:00,ZJHK 220400Z VRB02MPS 9999 SCT023 35/21 Q1009 NOSIG
ZJHK,2020-07-22 05:00,ZJHK 220500Z 02005MPS 340V060 9999 SCT030TCU SCT030 32/25 Q1008 NOSIG
ZJHK,2020-07-22 06:00,ZJHK 220600Z 35005MPS 330V040 8000 -SHRA FEW013 SCT030CB FEW030 30/25 Q1008 RESHRA NOSIG
ZJHK,2020-07-22 07:00,ZJHK 220700Z 08008MPS 9999 -SHRA FEW013 FEW030CB SCT030 28/24 Q1007 RESHRA NOSIG
ZJHK,2020-07-22 08:00,ZJHK 220800Z 05003MPS 9999 FEW033TCU FEW033 29/24 Q1007 NOSIG
ZJHK,2020-07-22 09:00,ZJHK 220900Z 04004MPS 9999 FEW033TCU FEW033 30/25 Q1006 NOSIG
ZJHK,2020-07-22 10:00,ZJHK 221000Z 15005MPS 9999 FEW033TCU FEW033 30/25 Q1006 NOSIG
ZJHK,2020-07-22 11:00,ZJHK 221100Z 12004MPS 9999 FEW033 30/24 Q1006 NOSIG
ZJHK,2020-07-22 12:00,ZJHK 221200Z 15001MPS 9999 FEW033 28/25 Q1007 NOSIG
ZJHK,2020-07-22 13:00,ZJHK 221300Z 16002MPS CAVOK 28/25 Q1008 NOSIG
ZJHK,2020-07-22 14:00,ZJHK 221400Z 14002MPS CAVOK 27/25 Q1008 NOSIG
ZJHK,2020-07-22 15:00,ZJHK 221500Z 16002MPS CAVOK 27/25 Q1009 NOSIG
ZJHK,2020-07-22 16:00,ZJHK 221600Z 16001MPS CAVOK 27/25 Q1009 NOSIG
ZJHK,2020-07-22 17:00,ZJHK 221700Z 18002MPS 140V200 CAVOK 27/25 Q1009 NOSIG
ZJHK,2020-07-22 18:00,ZJHK 221800Z 18002MPS 150V210 CAVOK 27/25 Q1008 NOSIG
ZJHK,2020-07-22 19:00,ZJHK 221900Z VRB01MPS CAVOK 26/25 Q1008 NOSIG
ZJHK,2020-07-22 20:00,ZJHK 222000Z VRB01MPS CAVOK 26/24 Q1008 NOSIG
ZJHK,2020-07-22 21:00,ZJHK 222100Z VRB01MPS CAVOK 26/24 Q1008 NOSIG
ZJHK,2020-07-22 22:00,ZJHK 222200Z 00000MPS 9999 FEW040 25/24 Q1008 NOSIG
ZJHK,2020-07-22 23:00,ZJHK 222300Z 00000MPS 9999 FEW040 26/25 Q1009 NOSIG
ZJHK,2020-07-23 00:00,ZJHK 230000Z 17002MPS 130V220 CAVOK 29/25 Q1009 NOSIG
ZJHK,2020-07-23 01:00,ZJHK 230100Z 19003MPS 120V230 CAVOK 31/25 Q1009 NOSIG
ZJHK,2020-07-23 02:00,ZJHK 230200Z 17003MPS 130V220 9999 FEW020 32/24 Q1009 NOSIG
ZJHK,2020-07-23 03:00,ZJHK 230300Z 17002MPS 090V240 9999 BKN020 32/24 Q1009 NOSIG
ZJHK,2020-07-23 04:00,ZJHK 230400Z 24003MPS 210V270 9999 BKN020 33/24 Q1009 NOSIG
ZJHK,2020-07-23 05:00,ZJHK 230500Z VRB02MPS 9999 SCT033TCU SCT033 35/23 Q1008 BECMG TL0530 SHRA
ZJHK,2020-07-23 06:00,ZJHK 230600Z 07006MPS 9999 -SHRA SCT033CB SCT033 33/26 Q1008 NOSIG
ZJHK,2020-07-23 07:00,ZJHK 230700Z 07005MPS 040V100 9999 SCT033CB SCT033 29/25 Q1008 BECMG TL0720 SHRA
ZJHK,2020-07-23 08:00,ZJHK 230800Z 04003MPS 010V090 9999 -SHRA SCT033CB SCT040 29/25 Q1007 NOSIG
ZJHK,2020-07-23 09:00,ZJHK 230900Z 06004MPS 9999 FEW033CB SCT040 29/24 Q1007 NOSIG
ZJHK,2020-07-23 10:00,ZJHK 231000Z VRB01MPS 9999 SCT040 30/25 Q1007 NOSIG
ZJHK,2020-07-23 11:00,ZJHK 231100Z 12002MPS 080V140 9999 FEW040 30/26 Q1007 NOSIG
ZJHK,2020-07-23 12:00,ZJHK 231200Z 12002MPS CAVOK 29/26 Q1008 NOSIG
ZJHK,2020-07-23 13:00,ZJHK 231300Z 15002MPS CAVOK 28/25 Q1008 NOSIG
ZJHK,2020-07-23 14:00,ZJHK 231400Z VRB01MPS CAVOK 27/25 Q1009 NOSIG
ZJHK,2020-07-23 15:00,ZJHK 231500Z VRB01MPS CAVOK 27/25 Q1009 NOSIG
ZJHK,2020-07-23 16:00,ZJHK 231600Z 14001MPS CAVOK 27/25 Q1009 NOSIG
ZJHK,2020-07-23 17:00,ZJHK 231700Z VRB01MPS CAVOK 26/25 Q1009 NOSIG
ZJHK,2020-07-23 18:00,ZJHK 231800Z 15002MPS 120V180 CAVOK 27/25 Q1008 NOSIG
ZJHK,2020-07-23 19:00,ZJHK 231900Z 15002MPS CAVOK 26/25 Q1008 NOSIG
ZJHK,2020-07-23 20:00,ZJHK 232000Z VRB01MPS CAVOK 26/24 Q1008 NOSIG
ZJHK,2020-07-23 21:00,ZJHK 232100Z VRB01MPS CAVOK 26/24 Q1008 NOSIG
ZJHK,2020-07-23 22:00,ZJHK 232200Z VRB01MPS CAVOK 26/25 Q1009 NOSIG
ZJHK,2020-07-23 23:00,ZJHK 232300Z VRB01MPS CAVOK 27/25 Q1009 NOSIG
ZJHK,2020-07-24 00:00,ZJHK 240000Z 22002MPS 180V250 CAVOK 28/25 Q1010 NOSIG
ZJHK,2020-07-24 01:00,ZJHK 240100Z 19004MPS 150V210 CAVOK 30/25 Q1010 NOSIG
ZJHK,2020-07-24 02:00,ZJHK 240200Z 20004MPS 150V240 CAVOK 32/24 Q1010 NOSIG
ZJHK,2020-07-24 03:00,ZJHK 240300Z 18004MPS 120V240 9999 FEW033 34/22 Q1009 NOSIG
ZJHK,2020-07-24 04:00,ZJHK 240400Z 24003MPS 190V300 9999 FEW033 34/22 Q1009 NOSIG
ZJHK,2020-07-24 05:00,ZJHK 240500Z 26003MPS 210V310 9999 FEW026 35/22 Q1008 NOSIG
ZJHK,2020-07-24 06:00,ZJHK 240600Z VRB03MPS 9999 SCT026 36/21 Q1007 NOSIG
ZJHK,2020-07-24 07:00,ZJHK 240700Z 02005MPS 9999 FEW026 34/24 Q1007 NOSIG
ZJHK,2020-07-24 08:00,ZJHK 240800Z 01005MPS 340V040 9999 FEW026 34/24 Q1007 NOSIG
ZJHK,2020-07-24 09:00,ZJHK 240900Z 01004MPS 340V050 9999 FEW026 FEW030CB 34/23 Q1006 NOSIG
ZJHK,2020-07-24 10:00,ZJHK 241000Z 36002MPS 250V060 9999 FEW023TCU 34/23 Q1006 NOSIG
ZJHK,2020-07-24 11:00,ZJHK 241100Z 12003MPS 9999 FEW033TCU 32/24 Q1006 NOSIG
ZJHK,2020-07-24 12:00,ZJHK 241200Z 16002MPS 130V200 CAVOK 30/24 Q1006 NOSIG
ZJHK,2020-07-24 13:00,ZJHK 241300Z 14003MPS 110V180 CAVOK 29/24 Q1007 NOSIG
ZJHK,2020-07-24 14:00,ZJHK 241400Z 17002MPS 130V200 CAVOK 28/25 Q1008 NOSIG
ZJHK,2020-07-24 15:00,ZJHK 241500Z 19002MPS 160V220 CAVOK 28/25 Q1008 NOSIG
ZJHK,2020-07-24 16:00,ZJHK 241600Z 17002MPS 140V200 CAVOK 28/25 Q1008 NOSIG
ZJHK,2020-07-24 17:00,ZJHK 241700Z 20002MPS 160V230 CAVOK 28/25 Q1008 NOSIG
ZJHK,2020-07-24 18:00,ZJHK 241800Z 18002MPS CAVOK 27/25 Q1008 NOSIG
ZJHK,2020-07-24 19:00,ZJHK 241900Z 18002MPS 160V220 CAVOK 27/25 Q1008 NOSIG
ZJHK,2020-07-24 20:00,ZJHK 242000Z 18002MPS CAVOK 27/25 Q1007 NOSIG
ZJHK,2020-07-24 21:00,ZJHK 242100Z 18002MPS CAVOK 27/24 Q1007 NOSIG
ZJHK,2020-07-24 22:00,ZJHK 242200Z VRB01MPS CAVOK 27/24 Q1008 NOSIG
ZJHK,2020-07-24 23:00,ZJHK 242300Z 25002MPS CAVOK 27/25 Q1008 NOSIG
ZJHK,2020-07-25 00:00,ZJHK 250000Z 24002MPS 200V280 CAVOK 29/25 Q1008 NOSIG
ZJHK,2020-07-25 01:00,ZJHK 250100Z 26002MPS 190V290 CAVOK 31/26 Q1009 NOSIG
ZJHK,2020-07-25 02:00,ZJHK 250200Z 32003MPS 230V020 9999 SCT020 32/26 Q1009 NOSIG
ZJHK,2020-07-25 03:00,ZJHK 250300Z 31002MPS 260V020 9999 BKN023 33/25 Q1008 NOSIG
ZJHK,2020-07-25 04:00,ZJHK 250400Z 34004MPS 300V030 9999 FEW026TCU SCT026 34/25 Q1008 NOSIG
ZJHK,2020-07-25 05:00,ZJHK 250500Z 34003MPS 290V030 9999 FEW026TCU SCT026 35/25 Q1007 NOSIG
ZJHK,2020-07-25 06:00,ZJHK 250600Z 34003MPS 270V060 9999 FEW026CB SCT026 35/24 Q1006 NOSIG
ZJHK,2020-07-25 07:00,ZJHK 250700Z 02004MPS 350V070 9999 FEW026CB SCT040 34/26 Q1006 NOSIG
ZJHK,2020-07-25 08:00,ZJHK 250800Z 02005MPS 350V060 9999 FEW026CB SCT040 34/26 Q1005 BECMG TL0940 SCT020
ZJHK,2020-07-25 09:00,ZJHK 250900Z 13003MPS 8000 -TSRA SCT026CB SCT040 28/24 Q1005 BECMG AT0940 NSW
ZJHK,2020-07-25 10:00,ZJHK 251000Z 15003MPS 9999 FEW026TCU 28/24 Q1005 RETS NOSIG
ZJHK,2020-07-25 11:00,ZJHK 251100Z 16002MPS 120V200 9999 FEW033TCU FEW043 28/24 Q1006 NOSIG
ZJHK,2020-07-25 12:00,ZJHK 251200Z 18002MPS 150V210 9999 FEW015 SCT043 27/24 Q1007 NOSIG
ZJHK,2020-07-25 13:00,ZJHK 251300Z 00000MPS CAVOK 27/24 Q1007 NOSIG
ZJHK,2020-07-25 14:00,ZJHK 251400Z 17002MPS CAVOK 26/24 Q1007 NOSIG
ZJHK,2020-07-25 15:00,ZJHK 251500Z 18002MPS 150V210 CAVOK 26/23 Q1008 NOSIG
ZJHK,2020-07-25 16:00,ZJHK 251600Z 18002MPS 160V220 CAVOK 26/23 Q1008 NOSIG
ZJHK,2020-07-25 17:00,ZJHK 251700Z 17002MPS CAVOK 25/23 Q1007 NOSIG
ZJHK,2020-07-25 18:00,ZJHK 251800Z VRB01MPS CAVOK 25/23 Q1007 NOSIG
ZJHK,2020-07-25 19:00,ZJHK 251900Z 19002MPS 160V220 CAVOK 25/23 Q1006 NOSIG
ZJHK,2020-07-25 20:00,ZJHK 252000Z VRB01MPS CAVOK 25/23 Q1006 NOSIG
ZJHK,2020-07-25 21:00,ZJHK 252100Z VRB01MPS CAVOK 25/23 Q1006 NOSIG
ZJHK,2020-07-25 22:00,ZJHK 252200Z 20002MPS 160V240 CAVOK 25/23 Q1006 NOSIG
ZJHK,2020-07-25 23:00,ZJHK 252300Z 17002MPS 140V210 CAVOK 25/24 Q1007 NOSIG
ZJHK,2020-07-26 00:00,ZJHK 260000Z 19002MPS 150V240 CAVOK 28/25 Q1007 NOSIG
ZJHK,2020-07-26 01:00,ZJHK 260100Z 21003MPS 170V260 CAVOK 30/25 Q1007 NOSIG
ZJHK,2020-07-26 02:00,ZJHK 260200Z 20003MPS 160V250 CAVOK 32/24 Q1008 NOSIG
ZJHK,2020-07-26 03:00,ZJHK 260300Z 20003MPS 150V240 CAVOK 34/24 Q1007 NOSIG
ZJHK,2020-07-26 04:00,ZJHK 260400Z 22002MPS 140V290 CAVOK 35/24 Q1007 NOSIG
ZJHK,2020-07-26 05:00,ZJHK 260500Z VRB03MPS 9999 FEW023 36/23 Q1006 NOSIG
ZJHK,2020-07-26 06:00,ZJHK 260600Z 05002MPS 330V110 9999 SCT023 37/23 Q1005 NOSIG
ZJHK,2020-07-26 07:00,ZJHK 260700Z 13002MPS 050V190 9999 SCT023 37/23 Q1004 NOSIG
ZJHK,2020-07-26 08:00,ZJHK 260800Z 36006MPS 340V040 9999 SCT023 FEW026CB 35/24 Q1004 NOSIG
ZJHK,2020-07-26 09:00,ZJHK 260900Z 04004MPS 9999 FEW030CB FEW030 35/25 Q1004 NOSIG
ZJHK,2020-07-26 10:00,ZJHK 261000Z 13004MPS 090V150 9999 FEW040CB FEW040 32/24 Q1004 NOSIG
ZJHK,2020-07-26 11:00,ZJHK 261100Z 13002MPS 100V160 9999 FEW040 31/24 Q1004 NOSIG
ZJHK,2020-07-26 12:00,ZJHK 261200Z 13002MPS 100V160 9999 FEW040 30/24 Q1004 NOSIG
ZJHK,2020-07-26 13:00,ZJHK 261300Z 15002MPS 120V180 CAVOK 29/24 Q1005 NOSIG
ZJHK,2020-07-26 14:00,ZJHK 261400Z VRB01MPS CAVOK 28/24 Q1006 NOSIG
ZJHK,2020-07-26 15:00,ZJHK 261500Z 13001MPS CAVOK 28/25 Q1007 NOSIG
ZJHK,2020-07-26 16:00,ZJHK 261600Z 13001MPS CAVOK 27/25 Q1006 NOSIG
ZJHK,2020-07-26 17:00,ZJHK 261700Z VRB01MPS CAVOK 27/25 Q1006 NOSIG
ZJHK,2020-07-26 18:00,ZJHK 261800Z VRB01MPS CAVOK 27/25 Q1005 NOSIG
ZJHK,2020-07-26 19:00,ZJHK 261900Z VRB01MPS CAVOK 27/25 Q1005 NOSIG
ZJHK,2020-07-26 20:00,ZJHK 262000Z 16003MPS 120V190 CAVOK 27/25 Q1004 NOSIG
ZJHK,2020-07-26 21:00,ZJHK 262100Z 18002MPS CAVOK 27/25 Q1004 NOSIG
ZJHK,2020-07-26 22:00,ZJHK 262200Z 20002MPS 170V240 CAVOK 27/25 Q1005 NOSIG
ZJHK,2020-07-26 23:00,ZJHK 262300Z 18002MPS 9999 SCT033 28/25 Q1006 NOSIG
ZJHK,2020-07-27 00:00,ZJHK 270000Z 18005MPS 150V210 CAVOK 29/25 Q1006 NOSIG
ZJHK,2020-07-27 01:00,ZJHK 270100Z 20004MPS 160V240 CAVOK 31/25 Q1006 NOSIG
ZJHK,2020-07-27 02:00,ZJHK 270200Z 20004MPS 160V240 CAVOK 33/24 Q1006 NOSIG
ZJHK,2020-07-27 03:00,ZJHK 270300Z 20004MPS 160V240 CAVOK 34/24 Q1006 NOSIG
ZJHK,2020-07-27 04:00,ZJHK 270400Z 19003MPS 140V260 9999 FEW026 35/23 Q1005 NOSIG
ZJHK,2020-07-27 05:00,ZJHK 270500Z 24003MPS 190V270 9999 SCT026 36/23 Q1005 NOSIG
ZJHK,2020-07-27 06:00,ZJHK 270600Z 32003MPS 280V020 9999 SCT023 36/23 Q1004 NOSIG
ZJHK,2020-07-27 07:00,ZJHK 270700Z 36006MPS 9999 FEW023TCU SCT026 36/25 Q1004 NOSIG
ZJHK,2020-07-27 08:00,ZJHK 270800Z 36004MPS 320V030 9999 FEW023TCU 35/22 Q1003 BECMG AT0830 -TSRA SCT020 FEW026CB
ZJHK,2020-07-27 09:00,ZJHK 270900Z 10007MPS 9999 TS FEW023CB 30/22 Q1003 BECMG TL1000 NSW
ZJHK,2020-07-27 10:00,ZJHK 271000Z 12003MPS 9999 FEW026 29/24 Q1003 RETS NOSIG
ZJHK,2020-07-27 11:00,ZJHK 271100Z 14002MPS 100V180 9999 FEW046 29/24 Q1004 NOSIG
ZJHK,2020-07-27 12:00,ZJHK 271200Z 14003MPS 110V170 9999 FEW046 29/24 Q1005 NOSIG
ZJHK,2020-07-27 13:00,ZJHK 271300Z 13002MPS 090V170 CAVOK 28/25 Q1005 NOSIG
ZJHK,2020-07-27 14:00,ZJHK 271400Z 15002MPS CAVOK 28/26 Q1006 NOSIG
ZJHK,2020-07-27 15:00,ZJHK 271500Z 19002MPS 160V220 CAVOK 28/25 Q1006 NOSIG
ZJHK,2020-07-27 16:00,ZJHK 271600Z 19002MPS CAVOK 27/24 Q1007 NOSIG
ZJHK,2020-07-27 17:00,ZJHK 271700Z 19002MPS 140V220 CAVOK 26/25 Q1006 NOSIG
ZJHK,2020-07-27 18:00,ZJHK 271800Z 17001MPS CAVOK 26/25 Q1006 NOSIG
ZJHK,2020-07-27 19:00,ZJHK 271900Z 18002MPS 160V220 CAVOK 27/25 Q1006 NOSIG
ZJHK,2020-07-27 20:00,ZJHK 272000Z 18003MPS 150V210 CAVOK 27/25 Q1006 NOSIG
ZJHK,2020-07-27 21:00,ZJHK 272100Z 18002MPS 140V220 CAVOK 27/25 Q1005 NOSIG
ZJHK,2020-07-27 22:00,ZJHK 272200Z 17003MPS 140V200 CAVOK 27/25 Q1005 NOSIG
ZJHK,2020-07-27 23:00,ZJHK 272300Z 17004MPS 140V200 CAVOK 28/26 Q1006 NOSIG
ZJHK,2020-07-28 00:00,ZJHK 280000Z 20003MPS 150V260 CAVOK 30/26 Q1007 NOSIG
ZJHK,2020-07-28 01:00,ZJHK 280100Z 20003MPS 160V230 CAVOK 31/25 Q1007 NOSIG
ZJHK,2020-07-28 02:00,ZJHK 280200Z 19004MPS 140V220 CAVOK 32/25 Q1007 NOSIG
ZJHK,2020-07-28 03:00,ZJHK 280300Z 23003MPS 190V260 9999 FEW023 34/24 Q1007 NOSIG
ZJHK,2020-07-28 04:00,ZJHK 280400Z 24003MPS 190V300 9999 SCT023 36/23 Q1007 NOSIG
ZJHK,2020-07-28 05:00,ZJHK 280500Z VRB02MPS 9999 SCT026 37/23 Q1006 NOSIG
ZJHK,2020-07-28 06:00,ZJHK 280600Z 15002MPS 9999 FEW026TCU SCT026 37/22 Q1005 NOSIG
ZJHK,2020-07-28 07:00,ZJHK 280700Z 35006MPS 9999 SCT030CB SCT040 35/25 Q1005 NOSIG
ZJHK,2020-07-28 08:00,ZJHK 280800Z 13006MPS 110V170 0800 R27/0900U +TSRA FEW005 BKN023CB 25/23 Q1006 BECMG AT0930 3000 -TSRA
ZJHK,2020-07-28 09:00,ZJHK 280900Z 35003MPS 9000 -SHRA FEW023CB SCT040 25/24 Q1005 RETSRA NOSIG
ZJHK,2020-07-28 10:00,ZJHK 281000Z 21003MPS 9999 FEW023TCU SCT046 26/25 Q1006 NOSIG
ZJHK,2020-07-28 11:00,ZJHK 281100Z 22002MPS 190V250 9999 FEW023TCU SCT046 26/25 Q1006 NOSIG
ZJHK,2020-07-28 12:00,ZJHK 281200Z VRB01MPS 9999 FEW046 26/25 Q1006 NOSIG
ZJHK,2020-07-28 13:00,ZJHK 281300Z 12002MPS 9999 FEW046 26/25 Q1007 NOSIG
ZJHK,2020-07-28 14:00,ZJHK 281400Z 22002MPS 190V260 CAVOK 26/25 Q1008 NOSIG
ZJHK,2020-07-28 15:00,ZJHK 281500Z 18002MPS 160V230 CAVOK 26/25 Q1008 NOSIG
ZJHK,2020-07-28 16:00,ZJHK 281600Z VRB01MPS CAVOK 26/25 Q1008 NOSIG
ZJHK,2020-07-28 17:00,ZJHK 281700Z VRB01MPS CAVOK 26/25 Q1007 NOSIG
ZJHK,2020-07-28 18:00,ZJHK 281800Z VRB01MPS CAVOK 25/24 Q1006 NOSIG
ZJHK,2020-07-28 19:00,ZJHK 281900Z VRB01MPS CAVOK 25/24 Q1006 NOSIG
ZJHK,2020-07-28 20:00,ZJHK 282000Z 13002MPS CAVOK 25/24 Q1005 NOSIG
ZJHK,2020-07-28 21:00,ZJHK 282100Z VRB01MPS CAVOK 25/24 Q1006 NOSIG
ZJHK,2020-07-28 22:00,ZJHK 282200Z 29001MPS CAVOK 25/24 Q1006 NOSIG
ZJHK,2020-07-28 23:00,ZJHK 282300Z VRB01MPS CAVOK 25/25 Q1007 NOSIG
ZJHK,2020-07-29 00:00,ZJHK 290000Z 21002MPS 170V250 CAVOK 27/26 Q1007 NOSIG
ZJHK,2020-07-29 01:00,ZJHK 290100Z 21002MPS 180V260 CAVOK 29/26 Q1007 NOSIG
ZJHK,2020-07-29 02:00,ZJHK 290200Z 20002MPS 140V260 CAVOK 30/26 Q1007 NOSIG
ZJHK,2020-07-29 03:00,ZJHK 290300Z 32002MPS 270V030 9999 FEW020 32/25 Q1007 NOSIG
ZJHK,2020-07-29 04:00,ZJHK 290400Z 33004MPS 300V360 9999 SCT020 33/25 Q1006 NOSIG
ZJHK,2020-07-29 05:00,ZJHK 290500Z VRB02MPS 9999 BKN030 33/25 Q1006 NOSIG
ZJHK,2020-07-29 06:00,ZJHK 290600Z VRB03G08MPS 9999 FEW030TCU SCT030 35/25 Q1005 NOSIG
ZJHK,2020-07-29 07:00,ZJHK 290700Z 01003MPS 330V060 9999 FEW030CB SCT040 35/23 Q1005 NOSIG
ZJHK,2020-07-29 08:00,ZJHK 290800Z 36006MPS 9999 FEW040CB SCT040 33/26 Q1004 NOSIG
ZJHK,2020-07-29 09:00,ZJHK 290900Z 35005MPS 320V050 9999 FEW040CB SCT040 33/26 Q1004 BECMG TL1000 SCT020
ZJHK,2020-07-29 10:00,ZJHK 291000Z 18005MPS 160V220 9999 FEW040CB SCT040 28/26 Q1005 NOSIG
ZJHK,2020-07-29 11:00,ZJHK 291100Z 16002MPS 130V200 9999 BKN040 29/26 Q1005 NOSIG
ZJHK,2020-07-29 12:00,ZJHK 291200Z 11002MPS 9999 FEW040 28/26 Q1006 NOSIG
ZJHK,2020-07-29 13:00,ZJHK 291300Z 18002MPS CAVOK 28/25 Q1006 NOSIG
ZJHK,2020-07-29 14:00,ZJHK 291400Z VRB01MPS CAVOK 27/25 Q1007 NOSIG
ZJHK,2020-07-29 15:00,ZJHK 291500Z 18002MPS CAVOK 27/26 Q1007 NOSIG
ZJHK,2020-07-29 16:00,ZJHK 291600Z 20002MPS CAVOK 27/26 Q1007 NOSIG
ZJHK,2020-07-29 17:00,ZJHK 291700Z 20001MPS CAVOK 27/25 Q1007 NOSIG
ZJHK,2020-07-29 18:00,ZJHK 291800Z 20002MPS CAVOK 27/26 Q1006 NOSIG
ZJHK,2020-07-29 19:00,ZJHK 291900Z 00000MPS CAVOK 27/25 Q1006 NOSIG
ZJHK,2020-07-29 20:00,ZJHK 292000Z 00000MPS CAVOK 26/25 Q1006 NOSIG
ZJHK,2020-07-29 21:00,ZJHK 292100Z 14001MPS CAVOK 26/25 Q1005 NOSIG
ZJHK,2020-07-29 22:00,ZJHK 292200Z VRB01MPS 9999 FEW040CB SCT046 26/25 Q1006 NOSIG
ZJHK,2020-07-29 23:00,ZJHK 292300Z VRB01MPS 9999 FEW040CB SCT046 27/26 Q1006 NOSIG
ZJHK,2020-07-30 00:00,ZJHK 300000Z VRB01MPS 9999 FEW040CB SCT046 28/27 Q1007 NOSIG
ZJHK,2020-07-30 01:00,ZJHK 300100Z 11003MPS 080V140 9999 -RA SCT011 SCT026 28/27 Q1007 NOSIG
ZJHK,2020-07-30 02:00,ZJHK 300200Z VRB01MPS 9999 FEW013 SCT020 31/26 Q1007 NOSIG
ZJHK,2020-07-30 03:00,ZJHK 300300Z 05003MPS 360V080 9999 SCT020 32/25 Q1007 NOSIG
ZJHK,2020-07-30 04:00,ZJHK 300400Z 04005MPS 010V080 9999 BKN023 33/25 Q1006 NOSIG
ZJHK,2020-07-30 05:00,ZJHK 300500Z 04006MPS 360V070 9999 SCT023 33/26 Q1005 NOSIG
ZJHK,2020-07-30 06:00,ZJHK 300600Z 04006MPS 010V070 9999 FEW023 33/25 Q1005 NOSIG
ZJHK,2020-07-30 07:00,ZJHK 300700Z 04006MPS 020V080 9999 FEW023 32/26 Q1004 NOSIG
ZJHK,2020-07-30 08:00,ZJHK 300800Z 08007MPS 040V100 9999 SCT023 33/25 Q1004 NOSIG
ZJHK,2020-07-30 09:00,ZJHK 300900Z 08006MPS 050V110 9999 FEW014 SCT023 33/25 Q1004 NOSIG
ZJHK,2020-07-30 10:00,ZJHK 301000Z 07007MPS 9999 FEW023 FEW026TCU 32/25 Q1004 NOSIG
ZJHK,2020-07-30 11:00,ZJHK 301100Z 07006MPS 9999 FEW023 30/25 Q1004 NOSIG
ZJHK,2020-07-30 12:00,ZJHK 301200Z 08006MPS 9999 FEW023 29/25 Q1004 NOSIG
ZJHK,2020-07-30 13:00,ZJHK 301300Z 07004MPS 9999 SCT015 29/26 Q1005 NOSIG
ZJHK,2020-07-30 14:00,ZJHK 301400Z 06006MPS 9999 SCT015 29/26 Q1005 NOSIG
ZJHK,2020-07-30 15:00,ZJHK 301500Z 06005MPS 020V090 CAVOK 29/25 Q1005 NOSIG
ZJHK,2020-07-30 16:00,ZJHK 301600Z 07004MPS 9999 SCT018 29/25 Q1005 NOSIG
ZJHK,2020-07-30 17:00,ZJHK 301700Z 05004MPS 020V080 9999 SCT015 28/25 Q1004 NOSIG
ZJHK,2020-07-30 18:00,ZJHK 301800Z 05004MPS 9999 SCT015 28/25 Q1003 NOSIG
ZJHK,2020-07-30 19:00,ZJHK 301900Z 05005MPS 9999 SCT015 28/25 Q1002 NOSIG
ZJHK,2020-07-30 20:00,ZJHK 302000Z 04005MPS 9999 SCT015 29/25 Q1002 NOSIG
ZJHK,2020-07-30 21:00,ZJHK 302100Z 04005MPS 9999 SCT015 29/25 Q1001 NOSIG
ZJHK,2020-07-30 22:00,ZJHK 302200Z 05007MPS 9999 SCT015 SCT030 29/25 Q1002 NOSIG
ZJHK,2020-07-30 23:00,ZJHK 302300Z 05008MPS 9999 FEW013 SCT030 29/25 Q1002 NOSIG
ZJHK,2020-07-31 00:00,ZJHK 310000Z 04008G13MPS 9999 SCT015 BKN040 30/25 Q1002 NOSIG
ZJHK,2020-07-31 01:00,ZJHK 310100Z 04009G14MPS 9999 FEW020TCU BKN026 30/25 Q1003 NOSIG
ZJHK,2020-07-31 02:00,ZJHK 310200Z 04009MPS 9999 FEW020TCU BKN026 30/25 Q1003 NOSIG
ZJHK,2020-07-31 03:00,ZJHK 310300Z 02008MPS 9999 SCT015 FEW026TCU BKN026 30/25 Q1002 NOSIG
ZJHK,2020-07-31 04:00,ZJHK 310400Z 04007MPS 010V070 9999 SCT015 FEW026TCU BKN026 29/26 Q1002 NOSIG
ZJHK,2020-07-31 05:00,ZJHK 310500Z 03008MPS 9999 SCT015 FEW026TCU BKN026 29/25 Q1001 NOSIG
ZJHK,2020-07-31 06:00,ZJHK 310600Z 04009G14MPS 9999 SCT015 FEW026TCU BKN026 29/25 Q1001 NOSIG
ZJHK,2020-07-31 07:00,ZJHK 310700Z 04007G12MPS 9999 SCT011 FEW026CB BKN026 28/26 Q1000 BECMG TL0730 2000 SHRA BKN010 FEW023CB BKN030
ZJHK,2020-07-31 08:00,ZJHK 310800Z 06008MPS 7000 -SHRA BKN010 FEW026CB BKN026 26/25 Q1000 NOSIG
ZJHK,2020-07-31 09:00,ZJHK 310900Z 05006MPS 9999 BKN009 FEW026CB BKN026 27/25 Q1000 BECMG AT0920 SHRA
ZJHK,2020-07-31 10:00,ZJHK 311000Z 09006MPS 7000 -SHRA BKN006 FEW026CB BKN040 25/24 Q0999 RESHRA BECMG TL1100 BKN010 FEW026CB BKN030
ZJHK,2020-07-31 11:00,ZJHK 311100Z 05005MPS 9999 BKN010 SCT026 26/25 Q0999 NOSIG
ZJHK,2020-07-31 12:00,ZJHK 311200Z 04006MPS 9999 SCT012 SCT026 27/25 Q0999 NOSIG
ZJHK,2020-07-31 13:00,ZJHK 311300Z 04007MPS 9999 -SHRA SCT012 FEW023TCU BKN023 27/25 Q1000 NOSIG
ZJHK,2020-07-31 14:00,ZJHK 311400Z 05007MPS 8000 -SHRA SCT006 FEW023TCU BKN023 27/26 Q1000 RESHRA NOSIG
ZJHK,2020-07-31 15:00,ZJHK 311500Z 06006MPS 6000 -SHRA SCT010 FEW023CB SCT023 27/26 Q1000 NOSIG
ZJHK,2020-07-31 16:00,ZJHK 311600Z 05004MPS 9999 -SHRA SCT006 FEW026CB BKN040 27/26 Q0999 NOSIG
ZJHK,2020-07-31 17:00,ZJHK 311700Z 04004MPS 020V080 6000 -SHRA BKN009 FEW026TCU BKN040 26/25 Q0998 BECMG TL1730 2000 SHRA
ZJHK,2020-07-31 18:00,ZJHK 311800Z 06005MPS 9999 -SHRA BKN006 FEW026TCU BKN040 26/25 Q0998 BECMG BKN010 FEW023CB BKN030
ZJHK,2020-07-31 19:00,ZJHK 311900Z 05004MPS 9999 -SHRA BKN006 FEW026TCU BKN040 26/25 Q0997 NOSIG
ZJHK,2020-07-31 20:00,ZJHK 312000Z 07005MPS 7000 -SHRA BKN006 FEW026TCU BKN040 26/26 Q0996 NOSIG
ZJHK,2020-07-31 21:00,ZJHK 312100Z 07006MPS 7000 -SHRA BKN006 FEW026TCU BKN040 26/25 Q0996 NOSIG
ZJHK,2020-07-31 22:00,ZJHK 312200Z 06005MPS 9999 -SHRA BKN006 FEW026TCU BKN040 26/26 Q0996 NOSIG
ZJHK,2020-07-31 23:00,ZJHK 312300Z 08005MPS 9999 -SHRA BKN006 FEW026TCU BKN040 27/26 Q0996 BECMG AT0020 SHRA
ZJHK,2020-08-01 00:00,ZJHK 010000Z 07004MPS 9999 SCT008 FEW023TCU SCT040 27/26 Q0997 BECMG AT0130 SHRA
ZJHK,2020-08-01 01:00,ZJHK 010100Z 06005MPS 9999 SCT008 FEW023TCU SCT040 27/26 Q0997 NOSIG
ZJHK,2020-08-01 02:00,ZJHK 010200Z 06005MPS 9999 SCT008 FEW023TCU SCT040 27/26 Q0997 NOSIG
ZJHK,2020-08-01 03:00,ZJHK 010300Z 06005MPS 9999 SCT008 FEW023TCU SCT040 28/26 Q0997 NOSIG
ZJHK,2020-08-01 04:00,ZJHK 010400Z 06007MPS 9999 -SHRA SCT008 FEW023TCU SCT040 29/26 Q0997 BECMG AT0420 SHRA BKN008 FEW026CB BKN030
ZJHK,2020-08-01 05:00,ZJHK 010500Z 07007MPS 3000 +SHRA SCT008 SCT023CB BKN040 27/26 Q0996 BECMG AT0530 -SHRA
ZJHK,2020-08-01 06:00,ZJHK 010600Z 05005MPS 9999 SCT008 FEW023CB BKN040 28/27 Q0995 RESHRA NOSIG
ZJHK,2020-08-01 07:00,ZJHK 010700Z 06005MPS 8000 -SHRA SCT008 FEW023CB BKN040 28/26 Q0995 NOSIG
ZJHK,2020-08-01 08:00,ZJHK 010800Z 08007MPS 9999 -SHRA SCT008 FEW023CB BKN040 27/26 Q0994 NOSIG
ZJHK,2020-08-01 09:00,ZJHK 010900Z 07005MPS 3000 SHRA SCT008 SCT023CB BKN040 27/26 Q0994 BECMG AT0930 -SHRA
ZJHK,2020-08-01 10:00,ZJHK 011000Z 19003MPS 160V220 9999 -SHRA SCT006 FEW040TCU BKN040 26/25 Q0994 RESHRA NOSIG
ZJHK,2020-08-01 11:00,ZJHK 011100Z 15003MPS 120V180 9999 FEW006 SCT046 26/25 Q0995 NOSIG
ZJHK,2020-08-01 12:00,ZJHK 011200Z 11004MPS 9999 FEW006 SCT046 26/25 Q0996 NOSIG
ZJHK,2020-08-01 13:00,ZJHK 011300Z 11003MPS 9999 FEW006 SCT046 26/25 Q0997 NOSIG
ZJHK,2020-08-01 14:00,ZJHK 011400Z 13004MPS 9999 FEW016 SCT046 26/25 Q0998 NOSIG
ZJHK,2020-08-01 15:00,ZJHK 011500Z 13004MPS 100V160 9999 FEW016 27/25 Q0999 NOSIG
ZJHK,2020-08-01 16:00,ZJHK 011600Z 13003MPS 9999 FEW016 27/25 Q0999 NOSIG
ZJHK,2020-08-01 17:00,ZJHK 011700Z 14004MPS 100V170 CAVOK 27/25 Q0999 NOSIG
ZJHK,2020-08-01 18:00,ZJHK 011800Z 15004MPS 120V190 CAVOK 27/25 Q0999 NOSIG
ZJHK,2020-08-01 19:00,ZJHK 011900Z 16004MPS 110V200 8000 -SHRA FEW040TCU SCT040 26/24 Q0999 NOSIG
ZJHK,2020-08-01 20:00,ZJHK 012000Z 16003MPS 9999 -SHRA FEW040TCU SCT040 26/24 Q0999 NOSIG
ZJHK,2020-08-01 21:00,ZJHK 012100Z 18004MPS 150V220 9999 -SHRA FEW040CB SCT040 25/24 Q0999 NOSIG
ZJHK,2020-08-01 22:00,ZJHK 012200Z 14003MPS 100V180 9999 -SHRA FEW040CB SCT040 25/24 Q0999 NOSIG
ZJHK,2020-08-01 23:00,ZJHK 012300Z 12002MPS 9999 FEW033TCU SCT033 25/24 Q0999 NOSIG
ZJHK,2020-08-02 00:00,ZJHK 020000Z 10002MPS 9999 FEW033TCU SCT033 26/25 Q0999 NOSIG
ZJHK,2020-08-02 01:00,ZJHK 020100Z 10004MPS CAVOK 28/27 Q0999 NOSIG
ZJHK,2020-08-02 02:00,ZJHK 020200Z 12004MPS 080V140 9999 SCT011 BKN023 30/28 Q1000 NOSIG
ZJHK,2020-08-02 03:00,ZJHK 020300Z 11004MPS 9999 -SHRA SCT011 FEW023CB BKN026 30/27 Q1000 NOSIG
ZJHK,2020-08-02 04:00,ZJHK 020400Z 14004MPS 110V170 9999 FEW013 FEW023CB SCT026 30/27 Q1000 NOSIG
ZJHK,2020-08-02 05:00,ZJHK 020500Z 15004MPS 110V190 9999 FEW013 FEW020CB SCT023 31/27 Q1000 NOSIG
ZJHK,2020-08-02 06:00,ZJHK 020600Z 14002MPS 090V190 9999 FEW020CB SCT030 30/27 Q0999 NOSIG
ZJHK,2020-08-02 07:00,ZJHK 020700Z 01003MPS 9999 FEW013 FEW020TCU SCT026 28/26 Q0999 NOSIG
ZJHK,2020-08-02 08:00,ZJHK 020800Z 03003MPS 360V060 9999 FEW013 SCT026 29/26 Q0999 NOSIG
ZJHK,2020-08-02 09:00,ZJHK 020900Z 04003MPS 010V070 9999 -SHRA FEW013 29/27 Q0999 NOSIG
ZJHK,2020-08-02 10:00,ZJHK 021000Z 06003MPS CAVOK 28/27 Q0999 NOSIG
ZJHK,2020-08-02 11:00,ZJHK 021100Z 08003MPS 050V110 9999 SCT033 28/27 Q1000 NOSIG
ZJHK,2020-08-02 12:00,ZJHK 021200Z 08005MPS 9999 -SHRA SCT005 SCT033 28/27 Q1000 NOSIG
ZJHK,2020-08-02 13:00,ZJHK 021300Z 09004MPS 9999 -SHRA SCT005 SCT033 27/26 Q1002 NOSIG
ZJHK,2020-08-02 14:00,ZJHK 021400Z 11003MPS 9999 -SHRA SCT005 SCT033 27/26 Q1002 NOSIG
ZJHK,2020-08-02 15:00,ZJHK 021500Z 10003MPS 9999 -SHRA BKN005 SCT033 27/26 Q1002 BECMG TL1540 SCT005 BKN020
ZJHK,2020-08-02 16:00,ZJHK 021600Z 09003MPS 9999 -SHRA BKN003 SCT007 BKN033 27/26 Q1002 BECMG TL1740 SCT003 SCT010
ZJHK,2020-08-02 17:00,ZJHK 021700Z 10003MPS 9999 BKN002 SCT005 BKN033 27/26 Q1002 NOSIG
ZJHK,2020-08-02 18:00,ZJHK 021800Z 11003MPS 9999 FEW004 26/25 Q1001 NOSIG
ZJHK,2020-08-02 19:00,ZJHK 021900Z 12002MPS CAVOK 26/25 Q1001 NOSIG
ZJHK,2020-08-02 20:00,ZJHK 022000Z 13002MPS CAVOK 26/25 Q1000 NOSIG
ZJHK,2020-08-02 21:00,ZJHK 022100Z 12002MPS CAVOK 26/26 Q1001 NOSIG
ZJHK,2020-08-02 22:00,ZJHK 022200Z 14002MPS 100V190 9999 -RA FEW013 SCT026 27/26 Q1001 NOSIG
ZJHK,2020-08-02 23:00,ZJHK 022300Z 00000MPS 9999 -RA FEW013 BKN046 26/25 Q1000 NOSIG
ZJHK,2020-08-03 00:00,ZJHK 030000Z 00000MPS CAVOK 26/25 Q1001 NOSIG
ZJHK,2020-08-03 01:00,ZJHK 030100Z 06002MPS 9999 FEW046 28/25 Q1002 NOSIG
ZJHK,2020-08-03 02:00,ZJHK 030200Z VRB01MPS 9999 FEW046 29/25 Q1002 NOSIG
ZJHK,2020-08-03 03:00,ZJHK 030300Z 01002MPS 330V120 9999 FEW046 30/24 Q1002 NOSIG
ZJHK,2020-08-03 04:00,ZJHK 030400Z 03002MPS 360V090 CAVOK 29/25 Q1002 NOSIG
ZJHK,2020-08-03 05:00,ZJHK 030500Z 04003MPS CAVOK 29/25 Q1002 NOSIG
ZJHK,2020-08-03 06:00,ZJHK 030600Z 06004MPS 9999 -RA SCT040 28/26 Q1001 NOSIG
ZJHK,2020-08-03 07:00,ZJHK 030700Z 09004MPS 9999 -RA SCT005 SCT033 27/26 Q1001 NOSIG
ZJHK,2020-08-03 08:00,ZJHK 030800Z 10004MPS 9999 SCT006 BKN020 28/26 Q1001 NOSIG
ZJHK,2020-08-03 09:00,ZJHK 030900Z 13002MPS 090V180 9999 FEW010 FEW020CB SCT026 28/26 Q1001 NOSIG
ZJHK,2020-08-03 10:00,ZJHK 031000Z 18002MPS 160V220 9999 FEW010 FEW020CB SCT026 27/24 Q1001 NOSIG
ZJHK,2020-08-03 11:00,ZJHK 031100Z 13003MPS 100V170 8000 -SHRA SCT010 FEW020TCU BKN026 25/24 Q1001 NOSIG
ZJHK,2020-08-03 12:00,ZJHK 031200Z 13002MPS 110V170 9999 SCT026 25/24 Q1001 NOSIG
ZJHK,2020-08-03 13:00,ZJHK 031300Z 00000MPS 9999 FEW026 25/24 Q1002 NOSIG
ZJHK,2020-08-03 14:00,ZJHK 031400Z 00000MPS CAVOK 25/24 Q1002 NOSIG
ZJHK,2020-08-03 15:00,ZJHK 031500Z 00000MPS CAVOK 25/24 Q1003 NOSIG
ZJHK,2020-08-03 16:00,ZJHK 031600Z 00000MPS 9999 SCT007 25/24 Q1003 NOSIG
ZJHK,2020-08-03 17:00,ZJHK 031700Z 11002MPS 9999 SCT007 25/24 Q1003 NOSIG
ZJHK,2020-08-03 18:00,ZJHK 031800Z 10001MPS 9999 FEW007 25/24 Q1002 NOSIG
ZJHK,2020-08-03 19:00,ZJHK 031900Z VRB01MPS 8000 SCT002 25/24 Q1002 NOSIG
ZJHK,2020-08-03 20:00,ZJHK 032000Z 12001MPS 9999 FEW002 25/24 Q1001 NOSIG
ZJHK,2020-08-03 21:00,ZJHK 032100Z VRB01MPS 9999 FEW010 FEW026TCU 25/25 Q1001 NOSIG
ZJHK,2020-08-03 22:00,ZJHK 032200Z 18002MPS CAVOK 26/25 Q1001 NOSIG
ZJHK,2020-08-03 23:00,ZJHK 032300Z 19003MPS CAVOK 26/25 Q1002 NOSIG
ZJHK,2020-08-04 00:00,ZJHK 040000Z 19002MPS 150V230 9999 FEW033TCU 26/25 Q1002 NOSIG
ZJHK,2020-08-04 01:00,ZJHK 040100Z 16002MPS 120V190 CAVOK 27/25 Q1002 NOSIG
ZJHK,2020-08-04 02:00,ZJHK 040200Z 21002MPS 170V250 CAVOK 28/25 Q1003 NOSIG
ZJHK,2020-08-04 03:00,ZJHK 040300Z 22003MPS CAVOK 30/25 Q1003 NOSIG
ZJHK,2020-08-04 04:00,ZJHK 040400Z 20004MPS 160V240 9999 FEW026 31/25 Q1002 NOSIG
ZJHK,2020-08-04 05:00,ZJHK 040500Z 22004MPS 190V260 9999 SCT026 32/25 Q1002 NOSIG
ZJHK,2020-08-04 06:00,ZJHK 040600Z 23005MPS 200V260 9999 SCT026 FEW030TCU 29/25 Q1002 NOSIG
ZJHK,2020-08-04 07:00,ZJHK 040700Z 22002MPS 160V290 9999 SCT026 FEW030TCU 30/25 Q1001 NOSIG
ZJHK,2020-08-04 08:00,ZJHK 040800Z 23002MPS 190V260 9999 FEW030TCU BKN040 30/25 Q1001 BECMG AT0830 -TSRA
ZJHK,2020-08-04 09:00,ZJHK 040900Z 28005MPS 8000 -SHRA SCT013 SCT026CB SCT026 OVC040 26/24 Q1002 NOSIG
ZJHK,2020-08-04 10:00,ZJHK 041000Z 00000MPS 9999 -SHRA FEW006 FEW026CB SCT030 BKN046 26/24 Q1002 NOSIG
ZJHK,2020-08-04 11:00,ZJHK 041100Z 18002MPS 130V210 9999 -SHRA BKN033 26/25 Q1002 NOSIG
ZJHK,2020-08-04 12:00,ZJHK 041200Z 18002MPS 9999 -SHRA BKN033 25/24 Q1003 NOSIG
ZJHK,2020-08-04 13:00,ZJHK 041300Z 18002MPS 9999 -RA BKN046 25/24 Q1004 NOSIG
ZJHK,2020-08-04 14:00,ZJHK 041400Z 17002MPS 140V210 9999 SCT040 26/25 Q1004 NOSIG
ZJHK,2020-08-04 15:00,ZJHK 041500Z VRB01MPS 9999 SCT040 26/25 Q1004 NOSIG
ZJHK,2020-08-04 16:00,ZJHK 041600Z VRB01MPS CAVOK 26/25 Q1004 NOSIG
ZJHK,2020-08-04 17:00,ZJHK 041700Z 00000MPS CAVOK 26/25 Q1004 NOSIG
ZJHK,2020-08-04 18:00,ZJHK 041800Z 09002MPS CAVOK 25/25 Q1004 NOSIG
ZJHK,2020-08-04 19:00,ZJHK 041900Z 13002MPS CAVOK 25/25 Q1003 NOSIG
ZJHK,2020-08-04 20:00,ZJHK 042000Z 15001MPS CAVOK 25/25 Q1004 NOSIG
ZJHK,2020-08-04 21:00,ZJHK 042100Z 13001MPS CAVOK 25/25 Q1003 NOSIG
ZJHK,2020-08-04 22:00,ZJHK 042200Z VRB01MPS CAVOK 25/25 Q1004 NOSIG
ZJHK,2020-08-04 23:00,ZJHK 042300Z VRB01MPS CAVOK 26/25 Q1004 NOSIG
ZJHK,2020-08-05 00:00,ZJHK 050000Z VRB01MPS CAVOK 26/25 Q1005 NOSIG
ZJHK,2020-08-05 01:00,ZJHK 050100Z 17002MPS CAVOK 27/26 Q1005 NOSIG
ZJHK,2020-08-05 02:00,ZJHK 050200Z 16003MPS 130V200 CAVOK 28/26 Q1006 NOSIG
ZJHK,2020-08-05 03:00,ZJHK 050300Z 17003MPS 130V210 CAVOK 29/26 Q1006 NOSIG
ZJHK,2020-08-05 04:00,ZJHK 050400Z 16004MPS 140V200 CAVOK 29/25 Q1006 NOSIG
ZJHK,2020-08-05 05:00,ZJHK 050500Z 16004MPS 130V190 9999 SCT016 30/26 Q1006 NOSIG
ZJHK,2020-08-05 06:00,ZJHK 050600Z 16004MPS 120V190 9999 SCT023 30/26 Q1005 NOSIG
ZJHK,2020-08-05 07:00,ZJHK 050700Z 17006MPS 140V200 9999 SCT023 30/25 Q1005 NOSIG
ZJHK,2020-08-05 08:00,ZJHK 050800Z 17005MPS 140V210 9999 FEW020 30/25 Q1005 NOSIG
ZJHK,2020-08-05 09:00,ZJHK 050900Z 18004MPS 150V220 9999 FEW020 30/25 Q1005 NOSIG
ZJHK,2020-08-05 10:00,ZJHK 051000Z 17003MPS 130V210 9999 FEW020 29/24 Q1005 NOSIG
ZJHK,2020-08-05 11:00,ZJHK 051100Z 14002MPS 110V180 CAVOK 28/25 Q1006 NOSIG
ZJHK,2020-08-05 12:00,ZJHK 051200Z 13002MPS CAVOK 27/25 Q1006 NOSIG
ZJHK,2020-08-05 13:00,ZJHK 051300Z 15002MPS 120V180 CAVOK 27/25 Q1007 NOSIG
ZJHK,2020-08-05 14:00,ZJHK 051400Z 14002MPS 9999 BKN012 27/25 Q1008 NOSIG
ZJHK,2020-08-05 15:00,ZJHK 051500Z VRB01MPS 9999 FEW012 SCT020 27/26 Q1008 NOSIG
ZJHK,2020-08-05 16:00,ZJHK 051600Z 00000MPS 9999 FEW012 SCT020 27/25 Q1008 NOSIG
ZJHK,2020-08-05 17:00,ZJHK 051700Z 00000MPS 9999 FEW012 26/25 Q1008 NOSIG
ZJHK,2020-08-05 18:00,ZJHK 051800Z 11002MPS 9999 FEW012 26/26 Q1007 NOSIG
ZJHK,2020-08-05 19:00,ZJHK 051900Z 14002MPS 100V200 9999 -SHRA FEW006 FEW020TCU SCT020 26/26 Q1007 BECMG AT1920 SHRA
ZJHK,2020-08-05 20:00,ZJHK 052000Z VRB01MPS 9999 FEW013 26/26 Q1007 NOSIG
ZJHK,2020-08-05 21:00,ZJHK 052100Z 12001MPS 9999 -RA FEW005 SCT010 27/26 Q1007 NOSIG
ZJHK,2020-08-05 22:00,ZJHK 052200Z VRB01MPS 9999 FEW004 SCT008 26/26 Q1007 NOSIG
ZJHK,2020-08-05 23:00,ZJHK 052300Z 17003MPS 130V200 9999 -SHRA FEW013 FEW026CB SCT033 26/26 Q1007 NOSIG
ZJHK,2020-08-06 00:00,ZJHK 060000Z 16002MPS 130V200 9999 SCT013 28/27 Q1008 NOSIG
ZJHK,2020-08-06 01:00,ZJHK 060100Z 13003MPS 090V190 9999 -SHRA SCT012 FEW020TCU SCT026 29/27 Q1008 NOSIG
ZJHK,2020-08-06 02:00,ZJHK 060200Z 14004MPS 090V170 7000 -SHRA SCT012 FEW020TCU SCT026 29/26 Q1008 NOSIG
ZJHK,2020-08-06 03:00,ZJHK 060300Z 14003MPS 110V170 9999 FEW020TCU SCT026 30/27 Q1008 NOSIG
ZJHK,2020-08-06 04:00,ZJHK 060400Z 18002MPS 110V240 9999 FEW020CB SCT026 29/25 Q1009 NOSIG
ZJHK,2020-08-06 05:00,ZJHK 060500Z 16003G08MPS 070V240 9999 FEW020CB SCT026 32/26 Q1008 NOSIG
ZJHK,2020-08-06 06:00,ZJHK 060600Z VRB01MPS 9999 FEW020CB SCT026 31/26 Q1007 RESHRA NOSIG
ZJHK,2020-08-06 07:00,ZJHK 060700Z 17003MPS 140V220 9999 FEW020TCU SCT026 32/26 Q1007 RESHRA NOSIG
ZJHK,2020-08-06 08:00,ZJHK 060800Z 22004MPS 170V250 9999 FEW020CB SCT026 30/25 Q1007 NOSIG
ZJHK,2020-08-06 09:00,ZJHK 060900Z 14002MPS 080V200 9999 FEW023 32/26 Q1006 NOSIG
ZJHK,2020-08-06 10:00,ZJHK 061000Z 14002MPS 9999 FEW023 31/25 Q1007 NOSIG
ZJHK,2020-08-06 11:00,ZJHK 061100Z 12002MPS 9999 FEW023 30/25 Q1007 NOSIG
ZJHK,2020-08-06 12:00,ZJHK 061200Z 12002MPS 9999 FEW023 28/25 Q1007 NOSIG
ZJHK,2020-08-06 13:00,ZJHK 061300Z 11002MPS CAVOK 28/26 Q1008 NOSIG
ZJHK,2020-08-06 14:00,ZJHK 061400Z 11002MPS CAVOK 27/26 Q1009 NOSIG
ZJHK,2020-08-06 15:00,ZJHK 061500Z 12003MPS CAVOK 27/26 Q1009 NOSIG
ZJHK,2020-08-06 16:00,ZJHK 061600Z 12002MPS CAVOK 27/26 Q1009 NOSIG
ZJHK,2020-08-06 17:00,ZJHK 061700Z VRB01MPS CAVOK 27/26 Q1009 NOSIG
ZJHK,2020-08-06 18:00,ZJHK 061800Z VRB01MPS CAVOK 26/25 Q1008 NOSIG
ZJHK,2020-08-06 19:00,ZJHK 061900Z 00000MPS CAVOK 26/25 Q1007 NOSIG
ZJHK,2020-08-06 20:00,ZJHK 062000Z VRB01MPS CAVOK 26/25 Q1007 NOSIG
ZJHK,2020-08-06 21:00,ZJHK 062100Z 10001MPS CAVOK 26/25 Q1006 NOSIG
ZJHK,2020-08-06 22:00,ZJHK 062200Z 12002MPS CAVOK 26/25 Q1006 NOSIG
ZJHK,2020-08-06 23:00,ZJHK 062300Z 11001MPS CAVOK 27/26 Q1007 NOSIG
ZJHK,2020-08-07 00:00,ZJHK 070000Z VRB01MPS CAVOK 28/27 Q1007 NOSIG
ZJHK,2020-08-07 01:00,ZJHK 070100Z 14003MPS 110V180 9999 BKN023 29/26 Q1008 NOSIG
ZJHK,2020-08-07 02:00,ZJHK 070200Z 15003MPS 090V220 9999 BKN023 31/26 Q1008 NOSIG
ZJHK,2020-08-07 03:00,ZJHK 070300Z 14003MPS 100V180 9999 BKN023 32/26 Q1008 NOSIG
ZJHK,2020-08-07 04:00,ZJHK 070400Z 14003MPS 090V200 9999 BKN023 33/25 Q1007 NOSIG
ZJHK,2020-08-07 05:00,ZJHK 070500Z 15002MPS 030V190 9999 FEW026TCU BKN030 33/26 Q1007 NOSIG
ZJHK,2020-08-07 06:00,ZJHK 070600Z 14002MPS 100V200 9999 FEW026TCU BKN030 34/26 Q1006 NOSIG
ZJHK,2020-08-07 07:00,ZJHK 070700Z 16002MPS 080V210 9999 FEW026TCU BKN030 34/24 Q1005 NOSIG
ZJHK,2020-08-07 08:00,ZJHK 070800Z 15003MPS 110V200 9999 FEW026TCU BKN030 33/25 Q1005 NOSIG
ZJHK,2020-08-07 09:00,ZJHK 070900Z 12002MPS 060V160 9999 FEW026TCU BKN030 33/25 Q1004 NOSIG
ZJHK,2020-08-07 10:00,ZJHK 071000Z 08007MPS 9999 FEW026TCU BKN033 31/25 Q1005 NOSIG
ZJHK,2020-08-07 11:00,ZJHK 071100Z 08006MPS 9999 FEW026TCU FEW033 30/25 Q1005 NOSIG
ZJHK,2020-08-07 12:00,ZJHK 071200Z 10004MPS CAVOK 29/25 Q1005 NOSIG
ZJHK,2020-08-07 13:00,ZJHK 071300Z 11002MPS CAVOK 28/25 Q1006 NOSIG
ZJHK,2020-08-07 14:00,ZJHK 071400Z 16001MPS CAVOK 27/25 Q1007 NOSIG
ZJHK,2020-08-07 15:00,ZJHK 071500Z 18002MPS CAVOK 27/25 Q1007 NOSIG
ZJHK,2020-08-07 16:00,ZJHK 071600Z 18002MPS CAVOK 27/25 Q1007 NOSIG
ZJHK,2020-08-07 17:00,ZJHK 071700Z 00000MPS CAVOK 26/25 Q1007 NOSIG
ZJHK,2020-08-07 18:00,ZJHK 071800Z 00000MPS CAVOK 26/25 Q1006 NOSIG
ZJHK,2020-08-07 19:00,ZJHK 071900Z 27001MPS CAVOK 26/25 Q1006 NOSIG
ZJHK,2020-08-07 20:00,ZJHK 072000Z 23001MPS CAVOK 26/25 Q1005 NOSIG
ZJHK,2020-08-07 21:00,ZJHK 072100Z 00000MPS CAVOK 26/25 Q1005 NOSIG
ZJHK,2020-08-07 22:00,ZJHK 072200Z 00000MPS CAVOK 25/25 Q1005 NOSIG
ZJHK,2020-08-07 23:00,ZJHK 072300Z 03002MPS 360V080 CAVOK 27/26 Q1006 NOSIG
ZJHK,2020-08-08 00:00,ZJHK 080000Z 00000MPS CAVOK 28/26 Q1006 NOSIG
ZJHK,2020-08-08 01:00,ZJHK 080100Z 05002MPS 320V100 9999 SCT020 30/26 Q1006 NOSIG
ZJHK,2020-08-08 02:00,ZJHK 080200Z 35003MPS 320V020 9999 BKN020 30/26 Q1006 NOSIG
ZJHK,2020-08-08 03:00,ZJHK 080300Z 36003MPS 310V060 9999 SCT020 32/26 Q1006 NOSIG
ZJHK,2020-08-08 04:00,ZJHK 080400Z 01004MPS 330V060 9999 FEW023TCU SCT023 32/26 Q1005 NOSIG
ZJHK,2020-08-08 05:00,ZJHK 080500Z 02004MPS 350V080 9999 FEW023TCU SCT023 32/26 Q1005 NOSIG
ZJHK,2020-08-08 06:00,ZJHK 080600Z 04005MPS 010V080 9999 FEW023TCU SCT023 33/26 Q1004 NOSIG
ZJHK,2020-08-08 07:00,ZJHK 080700Z 01005MPS 9999 FEW033CB SCT033 32/26 Q1004 NOSIG
ZJHK,2020-08-08 08:00,ZJHK 080800Z 04005MPS 9999 FEW033CB FEW033 33/26 Q1003 NOSIG
ZJHK,2020-08-08 09:00,ZJHK 080900Z 04004MPS 360V080 9999 FEW033 33/26 Q1003 NOSIG
ZJHK,2020-08-08 10:00,ZJHK 081000Z 05005MPS 9999 FEW033TCU FEW033 32/26 Q1003 NOSIG
ZJHK,2020-08-08 11:00,ZJHK 081100Z 08005MPS 060V130 9999 FEW033 30/25 Q1003 NOSIG
ZJHK,2020-08-08 12:00,ZJHK 081200Z 05004MPS 020V080 CAVOK 29/26 Q1004 NOSIG
ZJHK,2020-08-08 13:00,ZJHK 081300Z VRB01MPS CAVOK 28/26 Q1004 NOSIG
ZJHK,2020-08-08 14:00,ZJHK 081400Z 14001MPS CAVOK 28/26 Q1005 NOSIG
ZJHK,2020-08-08 15:00,ZJHK 081500Z 16001MPS CAVOK 27/26 Q1005 NOSIG
ZJHK,2020-08-08 16:00,ZJHK 081600Z 25001MPS CAVOK 27/26 Q1005 NOSIG
ZJHK,2020-08-08 17:00,ZJHK 081700Z 24002MPS CAVOK 27/26 Q1005 NOSIG
ZJHK,2020-08-08 18:00,ZJHK 081800Z 27002MPS CAVOK 26/25 Q1004 NOSIG
ZJHK,2020-08-08 19:00,ZJHK 081900Z 24001MPS CAVOK 27/26 Q1004 NOSIG
ZJHK,2020-08-08 20:00,ZJHK 082000Z 24001MPS CAVOK 26/25 Q1004 NOSIG
ZJHK,2020-08-08 21:00,ZJHK 082100Z 00000MPS CAVOK 26/25 Q1004 NOSIG
ZJHK,2020-08-08 22:00,ZJHK 082200Z VRB01MPS 7000 NSC 26/25 Q1004 NOSIG
ZJHK,2020-08-08 23:00,ZJHK 082300Z 00000MPS 8000 NSC 26/26 Q1004 NOSIG
ZJHK,2020-08-09 00:00,ZJHK 090000Z 00000MPS CAVOK 28/27 Q1004 NOSIG
ZJHK,2020-08-09 01:00,ZJHK 090100Z 24002MPS 180V300 9999 BKN023 30/26 Q1005 NOSIG
ZJHK,2020-08-09 02:00,ZJHK 090200Z 21002MPS 160V270 9999 FEW023 31/26 Q1004 NOSIG
ZJHK,2020-08-09 03:00,ZJHK 090300Z VRB01MPS 9999 FEW023 32/25 Q1004 NOSIG
ZJHK,2020-08-09 04:00,ZJHK 090400Z VRB02MPS 9999 SCT023 33/24 Q1004 NOSIG
ZJHK,2020-08-09 05:00,ZJHK 090500Z VRB04MPS 9999 BKN026 33/26 Q1003 NOSIG
ZJHK,2020-08-09 06:00,ZJHK 090600Z 02004MPS 340V060 9999 SCT026 34/27 Q1003 NOSIG
ZJHK,2020-08-09 07:00,ZJHK 090700Z 36003MPS 310V110 9999 SCT033 34/25 Q1002 NOSIG
ZJHK,2020-08-09 08:00,ZJHK 090800Z 01004MPS 330V060 9999 FEW026CB FEW033 34/24 Q1002 NOSIG
ZJHK,2020-08-09 09:00,ZJHK 090900Z 05004MPS 010V090 9999 FEW026TCU FEW030 34/23 Q1002 NOSIG
ZJHK,2020-08-09 10:00,ZJHK 091000Z 06004MPS 9999 FEW026TCU FEW030 34/26 Q1002 NOSIG
ZJHK,2020-08-09 11:00,ZJHK 091100Z 14003MPS 090V180 9999 FEW016 FEW026TCU BKN030 31/25 Q1002 NOSIG
ZJHK,2020-08-09 12:00,ZJHK 091200Z 16003MPS 130V200 9999 FEW016 BKN030 30/25 Q1003 NOSIG
ZJHK,2020-08-09 13:00,ZJHK 091300Z 10003MPS 9999 SCT040 29/26 Q1002 NOSIG
ZJHK,2020-08-09 14:00,ZJHK 091400Z 16002MPS 9999 SCT040 28/26 Q1004 NOSIG
ZJHK,2020-08-09 15:00,ZJHK 091500Z 23002MPS 200V260 CAVOK 28/25 Q1005 NOSIG
ZJHK,2020-08-09 16:00,ZJHK 091600Z 21002MPS 180V250 CAVOK 27/25 Q1005 NOSIG
ZJHK,2020-08-09 17:00,ZJHK 091700Z 26002MPS CAVOK 26/24 Q1004 NOSIG
ZJHK,2020-08-09 18:00,ZJHK 091800Z 24002MPS CAVOK 26/25 Q1004 NOSIG
ZJHK,2020-08-09 19:00,ZJHK 091900Z VRB01MPS CAVOK 26/24 Q1003 NOSIG
ZJHK,2020-08-09 20:00,ZJHK 092000Z 23002MPS 170V270 CAVOK 26/24 Q1003 NOSIG
ZJHK,2020-08-09 21:00,ZJHK 092100Z 17002MPS CAVOK 25/24 Q1003 NOSIG
ZJHK,2020-08-09 22:00,ZJHK 092200Z 14001MPS CAVOK 25/23 Q1003 NOSIG
ZJHK,2020-08-09 23:00,ZJHK 092300Z VRB01MPS CAVOK 26/24 Q1004 NOSIG
ZJHK,2020-08-10 00:00,ZJHK 100000Z 19002MPS 160V240 CAVOK 28/24 Q1004 NOSIG
ZJHK,2020-08-10 01:00,ZJHK 100100Z 20002MPS 160V250 CAVOK 30/25 Q1004 NOSIG
ZJHK,2020-08-10 02:00,ZJHK 100200Z 22002MPS 140V300 CAVOK 32/25 Q1004 NOSIG
ZJHK,2020-08-10 03:00,ZJHK 100300Z VRB01MPS CAVOK 34/26 Q1004 NOSIG
ZJHK,2020-08-10 04:00,ZJHK 100400Z VRB03MPS CAVOK 34/24 Q1004 NOSIG
ZJHK,2020-08-10 05:00,ZJHK 100500Z 01003MPS 330V080 9999 FEW023 34/25 Q1003 NOSIG
ZJHK,2020-08-10 06:00,ZJHK 100600Z 36003MPS 310V070 9999 SCT023 34/24 Q1003 NOSIG
ZJHK,2020-08-10 07:00,ZJHK 100700Z 03003MPS 360V080 9999 SCT023 35/25 Q1002 NOSIG
ZJHK,2020-08-10 08:00,ZJHK 100800Z 02004MPS 350V070 9999 FEW033 35/25 Q1002 NOSIG
ZJHK,2020-08-10 09:00,ZJHK 100900Z 06003MPS 310V100 9999 FEW023TCU FEW033 36/24 Q1002 NOSIG
ZJHK,2020-08-10 10:00,ZJHK 101000Z 12005MPS 9999 SCT033 32/26 Q1002 NOSIG
ZJHK,2020-08-10 11:00,ZJHK 101100Z 11003MPS 9999 FEW033 30/25 Q1002 NOSIG
ZJHK,2020-08-10 12:00,ZJHK 101200Z 12002MPS CAVOK 30/26 Q1002 NOSIG
ZJHK,2020-08-10 13:00,ZJHK 101300Z 14003MPS CAVOK 29/26 Q1003 NOSIG
ZJHK,2020-08-10 14:00,ZJHK 101400Z 14003MPS 110V170 CAVOK 29/27 Q1003 NOSIG
ZJHK,2020-08-10 15:00,ZJHK 101500Z VRB01MPS CAVOK 28/27 Q1004 NOSIG
ZJHK,2020-08-10 16:00,ZJHK 101600Z 15002MPS 120V180 CAVOK 28/26 Q1004 NOSIG
ZJHK,2020-08-10 17:00,ZJHK 101700Z 17002MPS 140V200 CAVOK 28/26 Q1004 NOSIG
ZJHK,2020-08-10 18:00,ZJHK 101800Z 15002MPS 120V200 CAVOK 28/26 Q1003 NOSIG
ZJHK,2020-08-10 19:00,ZJHK 101900Z 14002MPS 100V180 CAVOK 28/26 Q1003 NOSIG
ZJHK,2020-08-10 20:00,ZJHK 102000Z 16002MPS 130V190 CAVOK 27/26 Q1003 NOSIG
ZJHK,2020-08-10 21:00,ZJHK 102100Z 19002MPS 160V260 CAVOK 28/26 Q1003 NOSIG
ZJHK,2020-08-10 22:00,ZJHK 102200Z 19002MPS 160V220 CAVOK 27/26 Q1003 NOSIG
ZJHK,2020-08-10 23:00,ZJHK 102300Z 18002MPS 140V230 CAVOK 27/26 Q1004 NOSIG
ZJHK,2020-08-11 00:00,ZJHK 110000Z 19003MPS 160V220 CAVOK 28/26 Q1005 NOSIG
ZJHK,2020-08-11 01:00,ZJHK 110100Z 19003MPS 150V230 CAVOK 29/26 Q1005 NOSIG
ZJHK,2020-08-11 02:00,ZJHK 110200Z 20002MPS 140V250 CAVOK 31/26 Q1005 NOSIG
ZJHK,2020-08-11 03:00,ZJHK 110300Z 20002MPS 120V270 9999 FEW026 33/26 Q1005 NOSIG
ZJHK,2020-08-11 04:00,ZJHK 110400Z 15003MPS 120V200 9999 FEW030 34/26 Q1004 NOSIG
ZJHK,2020-08-11 05:00,ZJHK 110500Z VRB02MPS 9999 SCT030 34/25 Q1004 NOSIG
ZJHK,2020-08-11 06:00,ZJHK 110600Z 14002MPS 080V190 9999 SCT033 35/25 Q1003 NOSIG
ZJHK,2020-08-11 07:00,ZJHK 110700Z 15003MPS 110V210 9999 FEW033TCU SCT033 34/26 Q1003 NOSIG
ZJHK,2020-08-11 08:00,ZJHK 110800Z 15005MPS 120V180 9999 SCT033TCU FEW033 33/27 Q1002 NOSIG
ZJHK,2020-08-11 09:00,ZJHK 110900Z 14005MPS 110V170 9999 FEW033TCU FEW033 33/26 Q1002 NOSIG
ZJHK,2020-08-11 10:00,ZJHK 111000Z 14004MPS 9999 FEW026CB FEW030 32/25 Q1003 NOSIG
ZJHK,2020-08-11 11:00,ZJHK 111100Z 14004MPS 9999 FEW026CB FEW046 31/26 Q1004 NOSIG
ZJHK,2020-08-11 12:00,ZJHK 111200Z 14004MPS 100V170 9999 FEW026CB FEW046 30/26 Q1004 NOSIG
ZJHK,2020-08-11 13:00,ZJHK 111300Z 16004MPS 120V190 9999 FEW026CB FEW046 30/27 Q1005 NOSIG
ZJHK,2020-08-11 14:00,ZJHK 111400Z 16003MPS 120V200 CAVOK 30/27 Q1006 NOSIG
ZJHK,2020-08-11 15:00,ZJHK 111500Z 16002MPS 120V200 CAVOK 29/27 Q1007 NOSIG
ZJHK,2020-08-11 16:00,ZJHK 111600Z 15003MPS 120V180 CAVOK 29/27 Q1007 NOSIG
ZJHK,2020-08-11 17:00,ZJHK 111700Z 17003MPS 140V210 CAVOK 29/27 Q1007 NOSIG
ZJHK,2020-08-11 18:00,ZJHK 111800Z 17003MPS 140V200 CAVOK 29/27 Q1006 NOSIG
ZJHK,2020-08-11 19:00,ZJHK 111900Z 15003MPS 120V180 CAVOK 29/27 Q1006 NOSIG
ZJHK,2020-08-11 20:00,ZJHK 112000Z 16002MPS 130V200 CAVOK 28/26 Q1006 NOSIG
ZJHK,2020-08-11 21:00,ZJHK 112100Z 15002MPS CAVOK 28/26 Q1005 NOSIG
ZJHK,2020-08-11 22:00,ZJHK 112200Z 15002MPS 110V210 CAVOK 28/26 Q1006 NOSIG
ZJHK,2020-08-11 23:00,ZJHK 112300Z 17003MPS 140V200 CAVOK 28/27 Q1007 NOSIG
ZJHK,2020-08-12 00:00,ZJHK 120000Z 15003MPS 100V220 9999 FEW015 29/27 Q1007 NOSIG
ZJHK,2020-08-12 01:00,ZJHK 120100Z 18004MPS 130V200 9999 SCT020 31/27 Q1007 NOSIG
ZJHK,2020-08-12 02:00,ZJHK 120200Z 20005MPS 170V230 9999 SCT023 32/26 Q1007 NOSIG
ZJHK,2020-08-12 03:00,ZJHK 120300Z 17004MPS 110V220 9999 BKN026 34/26 Q1007 NOSIG
ZJHK,2020-08-12 04:00,ZJHK 120400Z 16003MPS 110V220 9999 BKN033 34/25 Q1007 NOSIG
ZJHK,2020-08-12 05:00,ZJHK 120500Z 19003MPS 140V240 9999 BKN033 35/26 Q1006 NOSIG
ZJHK,2020-08-12 06:00,ZJHK 120600Z 15003MPS 110V190 9999 FEW026TCU SCT033 35/25 Q1005 NOSIG
ZJHK,2020-08-12 07:00,ZJHK 120700Z 11003MPS 090V150 9999 FEW026CB SCT026 35/26 Q1004 BECMG AT0740 SHRA
ZJHK,2020-08-12 08:00,ZJHK 120800Z 12005MPS 9999 FEW026CB FEW026 34/26 Q1004 BECMG -TSRA
ZJHK,2020-08-12 09:00,ZJHK 120900Z 17003MPS 110V210 9999 FEW030CB FEW030 30/25 Q1004 NOSIG
ZJHK,2020-08-12 10:00,ZJHK 121000Z 13006G11MPS 100V160 9999 FEW033CB FEW033 31/26 Q1005 NOSIG
ZJHK,2020-08-12 11:00,ZJHK 121100Z 14004MPS 110V190 9999 FEW033CB FEW033 28/25 Q1007 NOSIG
ZJHK,2020-08-12 12:00,ZJHK 121200Z 15003MPS 110V190 9999 FEW033TCU FEW033 28/25 Q1008 NOSIG
ZJHK,2020-08-12 13:00,ZJHK 121300Z 15003MPS 110V180 CAVOK 28/24 Q1009 NOSIG
ZJHK,2020-08-12 14:00,ZJHK 121400Z 15004MPS 120V190 CAVOK 27/25 Q1009 NOSIG
ZJHK,2020-08-12 15:00,ZJHK 121500Z 15003MPS CAVOK 27/25 Q1009 NOSIG
ZJHK,2020-08-12 16:00,ZJHK 121600Z 13004MPS CAVOK 27/25 Q1008 NOSIG
ZJHK,2020-08-12 17:00,ZJHK 121700Z 14004MPS 110V180 9999 BKN013 28/26 Q1008 NOSIG
ZJHK,2020-08-12 18:00,ZJHK 121800Z 19003MPS 150V230 CAVOK 27/24 Q1008 NOSIG
ZJHK,2020-08-12 19:00,ZJHK 121900Z 17002MPS 140V210 CAVOK 26/24 Q1007 NOSIG
ZJHK,2020-08-12 20:00,ZJHK 122000Z 17003MPS 140V200 9999 SCT016 26/24 Q1007 NOSIG
ZJHK,2020-08-12 21:00,ZJHK 122100Z 14002MPS 110V180 CAVOK 26/24 Q1007 NOSIG
ZJHK,2020-08-12 22:00,ZJHK 122200Z 15002MPS 120V180 9999 FEW013 26/24 Q1007 NOSIG
ZJHK,2020-08-12 23:00,ZJHK 122300Z VRB01MPS 9999 FEW026 26/25 Q1007 NOSIG
ZJHK,2020-08-13 00:00,ZJHK 130000Z 10003MPS 060V120 9999 FEW020 27/25 Q1007 NOSIG
ZJHK,2020-08-13 01:00,ZJHK 130100Z 16006MPS 130V200 9999 SCT026 28/24 Q1008 NOSIG
ZJHK,2020-08-13 02:00,ZJHK 130200Z 17006MPS 9999 FEW036 28/23 Q1009 NOSIG
ZJHK,2020-08-13 03:00,ZJHK 130300Z 18005G11MPS 140V210 9999 FEW036 28/24 Q1009 NOSIG
ZJHK,2020-08-13 04:00,ZJHK 130400Z 21003MPS 180V240 9999 FEW036 29/24 Q1007 NOSIG
ZJHK,2020-08-13 05:00,ZJHK 130500Z 15005MPS 120V180 9999 FEW023 30/24 Q1007 NOSIG
ZJHK,2020-08-13 06:00,ZJHK 130600Z 16004MPS 130V190 9999 FEW023 30/25 Q1007 NOSIG
ZJHK,2020-08-13 07:00,ZJHK 130700Z 15004MPS 120V180 9999 FEW023 30/24 Q1007 NOSIG
ZJHK,2020-08-13 08:00,ZJHK 130800Z 15004MPS 110V190 9999 FEW033 30/25 Q1006 NOSIG
ZJHK,2020-08-13 09:00,ZJHK 130900Z 16003MPS 130V200 9999 FEW033 30/24 Q1006 NOSIG
ZJHK,2020-08-13 10:00,ZJHK 131000Z 16004MPS 130V190 9999 FEW026CB FEW033 29/24 Q1006 NOSIG
ZJHK,2020-08-13 11:00,ZJHK 131100Z 14002MPS 110V180 9999 FEW026TCU SCT033 28/24 Q1007 NOSIG
ZJHK,2020-08-13 12:00,ZJHK 131200Z VRB01MPS 9999 FEW033 27/24 Q1007 NOSIG
ZJHK,2020-08-13 13:00,ZJHK 131300Z VRB01MPS 9999 FEW033 27/24 Q1008 NOSIG
ZJHK,2020-08-13 14:00,ZJHK 131400Z 11002MPS 9999 FEW033 26/24 Q1008 NOSIG
ZJHK,2020-08-13 15:00,ZJHK 131500Z 14002MPS 110V170 CAVOK 26/25 Q1009 NOSIG
ZJHK,2020-08-13 16:00,ZJHK 131600Z 17004MPS 130V200 CAVOK 27/25 Q1008 NOSIG
ZJHK,2020-08-13 17:00,ZJHK 131700Z 16002MPS 120V200 CAVOK 27/25 Q1008 NOSIG
ZJHK,2020-08-13 18:00,ZJHK 131800Z 14002MPS 110V170 CAVOK 26/25 Q1008 NOSIG
ZJHK,2020-08-13 19:00,ZJHK 131900Z 14002MPS CAVOK 26/25 Q1007 NOSIG
ZJHK,2020-08-13 20:00,ZJHK 132000Z 15002MPS 120V190 CAVOK 26/25 Q1007 NOSIG
ZJHK,2020-08-13 21:00,ZJHK 132100Z VRB01MPS CAVOK 26/24 Q1007 NOSIG
ZJHK,2020-08-13 22:00,ZJHK 132200Z 13002MPS 100V160 CAVOK 26/25 Q1007 NOSIG
ZJHK,2020-08-13 23:00,ZJHK 132300Z 14002MPS 090V170 CAVOK 26/25 Q1008 NOSIG
ZJHK,2020-08-14 00:00,ZJHK 140000Z 15004MPS 110V190 CAVOK 28/26 Q1009 NOSIG
ZJHK,2020-08-14 01:00,ZJHK 140100Z 18005MPS 140V210 9999 SCT016 30/25 Q1009 NOSIG
ZJHK,2020-08-14 02:00,ZJHK 140200Z 15005MPS 130V190 9999 FEW020TCU FEW020 SCT046 31/25 Q1009 NOSIG
ZJHK,2020-08-14 03:00,ZJHK 140300Z 18004MPS 140V210 9999 FEW026TCU BKN046 31/24 Q1009 NOSIG
ZJHK,2020-08-14 04:00,ZJHK 140400Z 20003MPS 160V250 9999 FEW026TCU SCT046 30/25 Q1009 NOSIG
ZJHK,2020-08-14 05:00,ZJHK 140500Z 24003MPS 200V300 9999 FEW026TCU SCT046 32/24 Q1008 NOSIG
ZJHK,2020-08-14 06:00,ZJHK 140600Z VRB02MPS 9999 SCT026 33/25 Q1007 NOSIG
ZJHK,2020-08-14 07:00,ZJHK 140700Z 22004MPS 180V250 9999 SCT026 SCT040 33/25 Q1007 NOSIG
ZJHK,2020-08-14 08:00,ZJHK 140800Z 26004MPS 210V020 9999 FEW026TCU SCT026 SCT040 34/25 Q1006 NOSIG
ZJHK,2020-08-14 09:00,ZJHK 140900Z 36004MPS 340V040 9999 TS SCT030CB SCT040 31/26 Q1006 BECMG TL1040 NSW SCT020
ZJHK,2020-08-14 10:00,ZJHK 141000Z 11003MPS 9999 -SHRA FEW013 FEW030TCU SCT040 26/24 Q1007 RETS NOSIG
ZJHK,2020-08-14 11:00,ZJHK 141100Z VRB01MPS 9999 FEW033CB SCT040 27/25 Q1007 NOSIG
ZJHK,2020-08-14 12:00,ZJHK 141200Z 14002MPS 080V180 9999 BKN026 26/24 Q1007 NOSIG
ZJHK,2020-08-14 13:00,ZJHK 141300Z 13002MPS 9999 FEW040 26/24 Q1007 NOSIG
ZJHK,2020-08-14 14:00,ZJHK 141400Z 17002MPS 130V200 9999 FEW046 26/24 Q1008 NOSIG
ZJHK,2020-08-14 15:00,ZJHK 141500Z 14002MPS 9999 FEW046 26/25 Q1008 NOSIG
ZJHK,2020-08-14 16:00,ZJHK 141600Z 14002MPS 100V170 CAVOK 26/25 Q1008 NOSIG
ZJHK,2020-08-14 17:00,ZJHK 141700Z 20002MPS 160V230 CAVOK 26/25 Q1008 NOSIG
ZJHK,2020-08-14 18:00,ZJHK 141800Z 22002MPS 190V250 CAVOK 26/25 Q1007 NOSIG
ZJHK,2020-08-14 19:00,ZJHK 141900Z 15002MPS CAVOK 26/25 Q1007 NOSIG
ZJHK,2020-08-14 20:00,ZJHK 142000Z 13001MPS CAVOK 25/24 Q1007 NOSIG
ZJHK,2020-08-14 21:00,ZJHK 142100Z VRB01MPS CAVOK 25/24 Q1007 NOSIG
ZJHK,2020-08-14 22:00,ZJHK 142200Z 10001MPS CAVOK 24/23 Q1007 NOSIG
ZJHK,2020-08-14 23:00,ZJHK 142300Z VRB01MPS CAVOK 25/25 Q1007 NOSIG
ZJHK,2020-08-15 00:00,ZJHK 150000Z 18002MPS 120V240 CAVOK 28/26 Q1008 NOSIG
ZJHK,2020-08-15 01:00,ZJHK 150100Z 17003MPS 140V220 9999 FEW026 30/26 Q1008 NOSIG
ZJHK,2020-08-15 02:00,ZJHK 150200Z 19004MPS 130V240 9999 FEW023 31/26 Q1008 NOSIG
ZJHK,2020-08-15 03:00,ZJHK 150300Z 19004MPS 140V240 9999 SCT026 32/25 Q1008 NOSIG
ZJHK,2020-08-15 04:00,ZJHK 150400Z 18003MPS 080V240 9999 SCT026 34/24 Q1007 NOSIG
ZJHK,2020-08-15 05:00,ZJHK 150500Z 20003MPS 130V240 9999 FEW040TCU SCT040 34/25 Q1007 NOSIG
ZJHK,2020-08-15 06:00,ZJHK 150600Z 15003MPS 120V190 9999 SCT040CB SCT040 34/24 Q1006 BECMG AT0610 -TSRA
ZJHK,2020-08-15 07:00,ZJHK 150700Z 11004MPS 080V150 2000 +TSRA SCT005 SCT040CB SCT040 24/23 Q1007 BECMG AT0800 6000 -SHRA
ZJHK,2020-08-15 08:00,ZJHK 150800Z 30002MPS 9999 -SHRA FEW040CB SCT040 26/24 Q1006 RETSRA NOSIG
ZJHK,2020-08-15 09:00,ZJHK 150900Z VRB02MPS 9999 -SHRA FEW040CB SCT040 26/25 Q1006 NOSIG
ZJHK,2020-08-15 10:00,ZJHK 151000Z 04003MPS 9999 -SHRA FEW015 SCT040 27/25 Q1006 NOSIG
ZJHK,2020-08-15 11:00,ZJHK 151100Z 11002MPS 9999 FEW040 26/25 Q1007 NOSIG
ZJHK,2020-08-15 12:00,ZJHK 151200Z 11003MPS 9999 FEW040 26/25 Q1006 NOSIG
ZJHK,2020-08-15 13:00,ZJHK 151300Z 17001MPS 9999 FEW040 26/25 Q1008 NOSIG
ZJHK,2020-08-15 14:00,ZJHK 151400Z 14001MPS CAVOK 26/25 Q1008 NOSIG
ZJHK,2020-08-15 15:00,ZJHK 151500Z 13002MPS CAVOK 26/25 Q1008 NOSIG
ZJHK,2020-08-15 16:00,ZJHK 151600Z 14002MPS CAVOK 26/25 Q1008 NOSIG
ZJHK,2020-08-15 17:00,ZJHK 151700Z 14002MPS 120V180 CAVOK 26/25 Q1008 NOSIG
ZJHK,2020-08-15 18:00,ZJHK 151800Z VRB01MPS CAVOK 26/25 Q1007 NOSIG
ZJHK,2020-08-15 19:00,ZJHK 151900Z 13002MPS 090V190 CAVOK 26/25 Q1007 NOSIG
ZJHK,2020-08-15 20:00,ZJHK 152000Z 10001MPS CAVOK 26/25 Q1007 NOSIG
ZJHK,2020-08-15 21:00,ZJHK 152100Z 14002MPS CAVOK 26/25 Q1006 NOSIG
ZJHK,2020-08-15 22:00,ZJHK 152200Z 14001MPS CAVOK 26/25 Q1007 NOSIG
ZJHK,2020-08-15 23:00,ZJHK 152300Z 19002MPS 170V230 CAVOK 26/25 Q1007 NOSIG
ZJHK,2020-08-16 00:00,ZJHK 160000Z VRB01MPS CAVOK 27/26 Q1008 NOSIG
ZJHK,2020-08-16 01:00,ZJHK 160100Z 16002MPS 130V200 9999 FEW020 28/26 Q1008 NOSIG
ZJHK,2020-08-16 02:00,ZJHK 160200Z 17003MPS 130V200 9999 SCT020 29/26 Q1008 NOSIG
ZJHK,2020-08-16 03:00,ZJHK 160300Z 23003MPS 190V260 9999 BKN020 FEW026CB 30/26 Q1008 BECMG TL0330 SHRA
ZJHK,2020-08-16 04:00,ZJHK 160400Z 12002MPS 080V140 9999 -TSRA BKN023 SCT026CB 27/25 Q1008 RESHRA BECMG TL0420 TSRA
ZJHK,2020-08-16 05:00,ZJHK 160500Z 10002MPS 060V120 9999 -TSRA FEW026CB SCT033 26/24 Q1008 RESHRA NOSIG
ZJHK,2020-08-16 06:00,ZJHK 160600Z 11002MPS 9999 FEW026CB SCT033 26/24 Q1007 RETS NOSIG
ZJHK,2020-08-16 07:00,ZJHK 160700Z 11003MPS 9999 FEW026TCU FEW033 27/25 Q1006 NOSIG
ZJHK,2020-08-16 08:00,ZJHK 160800Z 12002MPS 070V160 9999 FEW026TCU FEW033 28/26 Q1006 NOSIG
ZJHK,2020-08-16 09:00,ZJHK 160900Z 12002MPS 080V160 9999 FEW033 28/26 Q1005 NOSIG
ZJHK,2020-08-16 10:00,ZJHK 161000Z 12003MPS CAVOK 28/26 Q1005 NOSIG
ZJHK,2020-08-16 11:00,ZJHK 161100Z 11003MPS CAVOK 28/26 Q1006 NOSIG
ZJHK,2020-08-16 12:00,ZJHK 161200Z 12003MPS CAVOK 27/25 Q1007 NOSIG
ZJHK,2020-08-16 13:00,ZJHK 161300Z 13002MPS CAVOK 26/24 Q1008 NOSIG
ZJHK,2020-08-16 14:00,ZJHK 161400Z VRB01MPS CAVOK 26/25 Q1008 NOSIG
ZJHK,2020-08-16 15:00,ZJHK 161500Z 14002MPS CAVOK 26/24 Q1009 NOSIG
ZJHK,2020-08-16 16:00,ZJHK 161600Z 12002MPS CAVOK 26/25 Q1008 NOSIG
ZJHK,2020-08-16 17:00,ZJHK 161700Z 14002MPS CAVOK 26/25 Q1007 NOSIG
ZJHK,2020-08-16 18:00,ZJHK 161800Z 15002MPS 120V180 CAVOK 26/25 Q1006 NOSIG
ZJHK,2020-08-16 19:00,ZJHK 161900Z 12002MPS CAVOK 25/25 Q1006 NOSIG
ZJHK,2020-08-16 20:00,ZJHK 162000Z 11002MPS CAVOK 25/24 Q1006 NOSIG
ZJHK,2020-08-16 21:00,ZJHK 162100Z 12002MPS 9999 SCT002 25/25 Q1006 NOSIG
ZJHK,2020-08-16 22:00,ZJHK 162200Z 13002MPS 6000 BCFG SCT001 25/25 Q1006 NOSIG
ZJHK,2020-08-16 23:00,ZJHK 162300Z 10001MPS CAVOK 26/25 Q1006 NOSIG
ZJHK,2020-08-17 00:00,ZJHK 170000Z 10003MPS CAVOK 27/27 Q1007 NOSIG
ZJHK,2020-08-17 01:00,ZJHK 170100Z 14002MPS 080V170 9999 FEW008 29/27 Q1008 NOSIG
ZJHK,2020-08-17 02:00,ZJHK 170200Z 13004MPS 090V180 9999 BKN016 30/26 Q1008 NOSIG
ZJHK,2020-08-17 03:00,ZJHK 170300Z 14004MPS 090V190 9999 FEW026TCU SCT026 31/26 Q1007 NOSIG
ZJHK,2020-08-17 04:00,ZJHK 170400Z 13003MPS 100V160 9999 FEW026TCU SCT026 BKN040 31/26 Q1007 NOSIG
ZJHK,2020-08-17 05:00,ZJHK 170500Z 12003MPS 090V160 9999 -TSRA SCT026CB FEW026 31/27 Q1006 BECMG TL0630 -SHRA
ZJHK,2020-08-17 06:00,ZJHK 170600Z 24003MPS 190V290 9999 TS FEW010 SCT026CB 29/25 Q1006 BECMG TL0620 SHRA
ZJHK,2020-08-17 07:00,ZJHK 170700Z 24006MPS 180V290 0700 R27/1000U +TSRA SCT005 BKN026CB 24/23 Q1007 BECMG AT0730 6000 -SHRA
ZJHK,2020-08-17 08:00,ZJHK 170800Z 14003MPS 9999 -TSRA FEW026CB 25/24 Q1006 RESHRA BECMG TL0820 NSW
ZJHK,2020-08-17 09:00,ZJHK 170900Z 12002MPS 090V150 9999 FEW026CB FEW040 26/25 Q1005 RETS NOSIG
ZJHK,2020-08-17 10:00,ZJHK 171000Z 10002MPS 9999 FEW026 27/25 Q1005 NOSIG
ZJHK,2020-08-17 11:00,ZJHK 171100Z 12003MPS 9999 FEW026 27/25 Q1005 NOSIG
ZJHK,2020-08-17 12:00,ZJHK 171200Z 12002MPS CAVOK 26/25 Q1006 NOSIG
ZJHK,2020-08-17 13:00,ZJHK 171300Z 10002MPS CAVOK 26/25 Q1007 NOSIG
ZJHK,2020-08-17 14:00,ZJHK 171400Z 11002MPS CAVOK 26/24 Q1008 NOSIG
ZJHK,2020-08-17 15:00,ZJHK 171500Z VRB01MPS CAVOK 25/24 Q1008 NOSIG
ZJHK,2020-08-17 16:00,ZJHK 171600Z VRB01MPS CAVOK 25/24 Q1007 NOSIG
ZJHK,2020-08-17 17:00,ZJHK 171700Z 10001MPS CAVOK 25/24 Q1007 NOSIG
ZJHK,2020-08-17 18:00,ZJHK 171800Z 12002MPS CAVOK 25/24 Q1006 NOSIG
ZJHK,2020-08-17 19:00,ZJHK 171900Z VRB01MPS CAVOK 25/24 Q1006 NOSIG
ZJHK,2020-08-17 20:00,ZJHK 172000Z 00000MPS CAVOK 25/24 Q1006 NOSIG
ZJHK,2020-08-17 21:00,ZJHK 172100Z 08001MPS 8000 BCFG NSC 25/24 Q1006 NOSIG
ZJHK,2020-08-17 22:00,ZJHK 172200Z 14001MPS 8000 BCFG NSC 25/24 Q1006 NOSIG
ZJHK,2020-08-17 23:00,ZJHK 172300Z 12002MPS 8000 BCFG NSC 25/25 Q1006 NOSIG
ZJHK,2020-08-18 00:00,ZJHK 180000Z 12003MPS 090V150 CAVOK 28/27 Q1007 NOSIG
ZJHK,2020-08-18 01:00,ZJHK 180100Z 12003MPS 080V160 9999 FEW016 30/27 Q1007 NOSIG
ZJHK,2020-08-18 02:00,ZJHK 180200Z 10003MPS 9999 SCT020 30/25 Q1007 NOSIG
ZJHK,2020-08-18 03:00,ZJHK 180300Z 13003MPS 100V160 9999 SCT023 32/25 Q1007 NOSIG
ZJHK,2020-08-18 04:00,ZJHK 180400Z 10004MPS 070V130 9999 SCT033 33/24 Q1007 NOSIG
ZJHK,2020-08-18 05:00,ZJHK 180500Z 12004MPS 070V150 9999 SCT026 34/26 Q1006 NOSIG
ZJHK,2020-08-18 06:00,ZJHK 180600Z 04005MPS 9999 SCT026 31/26 Q1005 NOSIG
ZJHK,2020-08-18 07:00,ZJHK 180700Z 04007MPS 9999 -SHRA FEW026CB SCT026 29/25 Q1004 RESHRA NOSIG
ZJHK,2020-08-18 08:00,ZJHK 180800Z 10008MPS 9999 -SHRA FEW026CB SCT026 29/25 Q1004 NOSIG
ZJHK,2020-08-18 09:00,ZJHK 180900Z 07004MPS 9999 FEW040CB SCT046 29/26 Q1004 NOSIG
ZJHK,2020-08-18 10:00,ZJHK 181000Z 08005MPS 9999 FEW040CB FEW040 29/26 Q1004 NOSIG
ZJHK,2020-08-18 11:00,ZJHK 181100Z 12002MPS 090V150 CAVOK 28/26 Q1004 NOSIG
ZJHK,2020-08-18 12:00,ZJHK 181200Z 16002MPS 140V200 CAVOK 27/25 Q1005 NOSIG
ZJHK,2020-08-18 13:00,ZJHK 181300Z 10001MPS CAVOK 27/25 Q1006 NOSIG
ZJHK,2020-08-18 14:00,ZJHK 181400Z 19001MPS CAVOK 27/25 Q1007 NOSIG
ZJHK,2020-08-18 15:00,ZJHK 181500Z 25002MPS CAVOK 26/25 Q1007 NOSIG
ZJHK,2020-08-18 16:00,ZJHK 181600Z VRB01MPS CAVOK 26/25 Q1007 NOSIG
ZJHK,2020-08-18 17:00,ZJHK 181700Z VRB01MPS CAVOK 26/25 Q1006 NOSIG
ZJHK,2020-08-18 18:00,ZJHK 181800Z VRB01MPS CAVOK 26/25 Q1005 NOSIG
ZJHK,2020-08-18 19:00,ZJHK 181900Z 19001MPS CAVOK 26/25 Q1004 NOSIG
ZJHK,2020-08-18 20:00,ZJHK 182000Z VRB01MPS CAVOK 26/25 Q1004 NOSIG
ZJHK,2020-08-18 21:00,ZJHK 182100Z VRB01MPS CAVOK 26/25 Q1004 NOSIG
ZJHK,2020-08-18 22:00,ZJHK 182200Z VRB01MPS CAVOK 25/25 Q1004 NOSIG
ZJHK,2020-08-18 23:00,ZJHK 182300Z 24002MPS 7000 NSC 26/25 Q1005 NOSIG
ZJHK,2020-08-19 00:00,ZJHK 190000Z VRB01MPS CAVOK 27/26 Q1005 NOSIG
ZJHK,2020-08-19 01:00,ZJHK 190100Z 23002MPS 190V260 9999 FEW020 28/26 Q1005 NOSIG
ZJHK,2020-08-19 02:00,ZJHK 190200Z 23002MPS 180V290 9999 FEW020 29/26 Q1005 NOSIG
ZJHK,2020-08-19 03:00,ZJHK 190300Z 18002MPS 150V230 9999 FEW020 30/26 Q1005 NOSIG
ZJHK,2020-08-19 04:00,ZJHK 190400Z 21003MPS 170V260 9999 SCT020 31/26 Q1005 NOSIG
ZJHK,2020-08-19 05:00,ZJHK 190500Z 19003MPS 150V300 9999 FEW020TCU BKN020 32/26 Q1005 NOSIG
ZJHK,2020-08-19 06:00,ZJHK 190600Z 36004MPS 9999 TS SCT020CB SCT030 28/24 Q1004 BECMG AT0615 TSRA
ZJHK,2020-08-19 07:00,ZJHK 190700Z 01003MPS 320V060 9999 TS FEW020CB SCT046 27/25 Q1004 NOSIG
ZJHK,2020-08-19 08:00,ZJHK 190800Z 11004MPS 9999 TS FEW020CB BKN046 27/25 Q1004 BECMG AT0840 TSRA
ZJHK,2020-08-19 09:00,ZJHK 190900Z 11002MPS 9999 FEW026CB SCT033 27/24 Q1004 RETS NOSIG
ZJHK,2020-08-19 10:00,ZJHK 191000Z VRB01MPS 9999 SCT033 27/25 Q1004 NOSIG
ZJHK,2020-08-19 11:00,ZJHK 191100Z VRB01MPS CAVOK 27/25 Q1004 NOSIG
ZJHK,2020-08-19 12:00,ZJHK 191200Z 26002MPS CAVOK 26/24 Q1005 NOSIG
ZJHK,2020-08-19 13:00,ZJHK 191300Z 18001MPS CAVOK 26/24 Q1006 NOSIG
ZJHK,2020-08-19 14:00,ZJHK 191400Z 00000MPS CAVOK 26/25 Q1007 NOSIG
ZJHK,2020-08-19 15:00,ZJHK 191500Z 12001MPS CAVOK 26/25 Q1007 NOSIG
ZJHK,2020-08-19 16:00,ZJHK 191600Z VRB01MPS CAVOK 26/25 Q1007 NOSIG
ZJHK,2020-08-19 17:00,ZJHK 191700Z 00000MPS 9999 FEW016 25/25 Q1007 NOSIG
ZJHK,2020-08-19 18:00,ZJHK 191800Z 00000MPS CAVOK 25/25 Q1007 NOSIG
ZJHK,2020-08-19 19:00,ZJHK 191900Z 11002MPS 9999 FEW026CB 25/25 Q1007 NOSIG
ZJHK,2020-08-19 20:00,ZJHK 192000Z 11001MPS 9000 FEW026TCU 25/25 Q1006 NOSIG
ZJHK,2020-08-19 21:00,ZJHK 192100Z 11002MPS 8000 FEW026TCU 25/25 Q1006 NOSIG
ZJHK,2020-08-19 22:00,ZJHK 192200Z 13002MPS 9999 FEW026 25/25 Q1006 NOSIG
ZJHK,2020-08-19 23:00,ZJHK 192300Z 14002MPS 110V180 CAVOK 26/25 Q1007 NOSIG
ZJHK,2020-08-20 00:00,ZJHK 200000Z 14003MPS 110V180 CAVOK 27/26 Q1007 NOSIG
ZJHK,2020-08-20 01:00,ZJHK 200100Z 14004MPS CAVOK 30/25 Q1008 NOSIG
ZJHK,2020-08-20 02:00,ZJHK 200200Z 16004MPS 120V190 9999 FEW016 30/26 Q1009 NOSIG
ZJHK,2020-08-20 03:00,ZJHK 200300Z 14002MPS 080V240 9999 BKN020 FEW023TCU 31/26 Q1008 NOSIG
ZJHK,2020-08-20 04:00,ZJHK 200400Z 13004MPS 6000 SHRA FEW020 SCT023CB 29/25 Q1008 BECMG AT0440 NSW
ZJHK,2020-08-20 05:00,ZJHK 200500Z 08003MPS 050V120 9999 FEW023CB SCT023 SCT033 30/26 Q1008 RETSRA BECMG TL0530 -TSRA
ZJHK,2020-08-20 06:00,ZJHK 200600Z 11007MPS 1200 R09/P2000 +SHRA SCT015 BKN026CB 26/24 Q1008 BECMG TL0700 3000 -TSRA
ZJHK,2020-08-20 07:00,ZJHK 200700Z 13002MPS 100V190 9999 -SHRA FEW015 FEW026CB 26/24 Q1007 RESHRA NOSIG
ZJHK,2020-08-20 08:00,ZJHK 200800Z VRB01MPS 9999 FEW015 SCT046 27/25 Q1007 NOSIG
ZJHK,2020-08-20 09:00,ZJHK 200900Z VRB01MPS 9999 FEW010 29/25 Q1006 NOSIG
ZJHK,2020-08-20 10:00,ZJHK 201000Z 12002MPS 090V150 9999 FEW010 28/25 Q1006 NOSIG
ZJHK,2020-08-20 11:00,ZJHK 201100Z 11002MPS CAVOK 27/25 Q1007 NOSIG
ZJHK,2020-08-20 12:00,ZJHK 201200Z 10003MPS CAVOK 26/25 Q1007 NOSIG
ZJHK,2020-08-20 13:00,ZJHK 201300Z 10003MPS CAVOK 26/25 Q1007 NOSIG
ZJHK,2020-08-20 14:00,ZJHK 201400Z 12002MPS CAVOK 26/25 Q1008 NOSIG
ZJHK,2020-08-20 15:00,ZJHK 201500Z 11002MPS CAVOK 26/25 Q1009 NOSIG
ZJHK,2020-08-20 16:00,ZJHK 201600Z 00000MPS 9999 FEW007 26/25 Q1009 NOSIG
ZJHK,2020-08-20 17:00,ZJHK 201700Z 00000MPS 9999 FEW015 26/25 Q1009 NOSIG
ZJHK,2020-08-20 18:00,ZJHK 201800Z 00000MPS 9999 FEW015 26/25 Q1008 NOSIG
ZJHK,2020-08-20 19:00,ZJHK 201900Z 00000MPS 9999 FEW015 25/25 Q1008 NOSIG
ZJHK,2020-08-20 20:00,ZJHK 202000Z 00000MPS 9999 FEW033 25/25 Q1007 NOSIG
ZJHK,2020-08-20 21:00,ZJHK 202100Z 28002MPS 9999 FEW013 25/25 Q1008 NOSIG
ZJHK,2020-08-20 22:00,ZJHK 202200Z 22002MPS 9999 FEW005 BKN012 FEW016TCU 26/25 Q1008 NOSIG
ZJHK,2020-08-20 23:00,ZJHK 202300Z 23002MPS 9999 FEW006 FEW016TCU SCT016 BKN040 25/25 Q1008 NOSIG
ZJHK,2020-08-21 00:00,ZJHK 210000Z VRB01MPS 9999 FEW020TCU SCT020 SCT046 26/26 Q1009 RESHRA NOSIG
ZJHK,2020-08-21 01:00,ZJHK 210100Z 00000MPS 9999 SCT016 BKN033 27/26 Q1009 NOSIG
ZJHK,2020-08-21 02:00,ZJHK 210200Z 00000MPS 9999 FEW016 27/26 Q1010 NOSIG
ZJHK,2020-08-21 03:00,ZJHK 210300Z VRB01MPS 9999 FEW013 30/26 Q1009 NOSIG
ZJHK,2020-08-21 04:00,ZJHK 210400Z 05002MPS 010V090 9999 FEW020TCU FEW020 30/26 Q1009 NOSIG
ZJHK,2020-08-21 05:00,ZJHK 210500Z 02003MPS 330V060 9999 FEW030TCU SCT030 31/25 Q1009 NOSIG
ZJHK,2020-08-21 06:00,ZJHK 210600Z 04004MPS 010V080 9999 FEW030TCU SCT030 31/26 Q1008 NOSIG
ZJHK,2020-08-21 07:00,ZJHK 210700Z 04004MPS 360V070 9999 FEW030TCU SCT030 31/26 Q1007 NOSIG
ZJHK,2020-08-21 08:00,ZJHK 210800Z 09005MPS 9999 FEW033CB FEW033 30/25 Q1007 NOSIG
ZJHK,2020-08-21 09:00,ZJHK 210900Z 06006MPS 9999 FEW026 30/25 Q1006 NOSIG
ZJHK,2020-08-21 10:00,ZJHK 211000Z 07004MPS 040V110 9999 SCT026 31/25 Q1007 NOSIG
ZJHK,2020-08-21 11:00,ZJHK 211100Z 07005MPS 9999 FEW016 FEW026TCU 28/25 Q1007 NOSIG
ZJHK,2020-08-21 12:00,ZJHK 211200Z 08005MPS 9999 FEW016 28/26 Q1007 NOSIG
ZJHK,2020-08-21 13:00,ZJHK 211300Z 11003MPS CAVOK 27/26 Q1008 NOSIG
ZJHK,2020-08-21 14:00,ZJHK 211400Z 14001MPS CAVOK 27/26 Q1009 NOSIG
ZJHK,2020-08-21 15:00,ZJHK 211500Z VRB01MPS CAVOK 26/25 Q1009 NOSIG
ZJHK,2020-08-21 16:00,ZJHK 211600Z 19001MPS CAVOK 26/25 Q1009 NOSIG
ZJHK,2020-08-21 17:00,ZJHK 211700Z VRB01MPS CAVOK 26/25 Q1009 NOSIG
ZJHK,2020-08-21 18:00,ZJHK 211800Z 18001MPS CAVOK 25/25 Q1008 NOSIG
ZJHK,2020-08-21 19:00,ZJHK 211900Z 00000MPS CAVOK 25/25 Q1008 NOSIG
ZJHK,2020-08-21 20:00,ZJHK 212000Z 00000MPS 9999 FEW016 25/25 Q1007 NOSIG
ZJHK,2020-08-21 21:00,ZJHK 212100Z VRB01MPS 9999 FEW016 25/25 Q1008 NOSIG
ZJHK,2020-08-21 22:00,ZJHK 212200Z 00000MPS CAVOK 25/25 Q1008 NOSIG
ZJHK,2020-08-21 23:00,ZJHK 212300Z 00000MPS CAVOK 26/25 Q1008 NOSIG
ZJHK,2020-08-22 00:00,ZJHK 220000Z VRB01MPS 9999 FEW020 28/27 Q1009 NOSIG
ZJHK,2020-08-22 01:00,ZJHK 220100Z VRB02MPS 9999 BKN020 30/27 Q1009 NOSIG
ZJHK,2020-08-22 02:00,ZJHK 220200Z VRB01MPS 9999 BKN020 31/26 Q1009 NOSIG
ZJHK,2020-08-22 03:00,ZJHK 220300Z VRB02MPS 9999 FEW023CB SCT023 32/26 Q1009 NOSIG
ZJHK,2020-08-22 04:00,ZJHK 220400Z VRB04MPS 9999 FEW023CB SCT023 29/26 Q1009 BECMG AT0500 TSRA
ZJHK,2020-08-22 05:00,ZJHK 220500Z 06004MPS 030V090 9999 TS FEW023CB SCT023 30/25 Q1008 BECMG TL0540 NSW
ZJHK,2020-08-22 06:00,ZJHK 220600Z 23002MPS 9999 FEW023TCU FEW023 28/25 Q1008 RETS NOSIG
ZJHK,2020-08-22 07:00,ZJHK 220700Z 15005MPS 120V200 9999 -SHRA SCT023CB SCT026 29/26 Q1007 NOSIG
ZJHK,2020-08-22 08:00,ZJHK 220800Z 06004MPS 9999 FEW023CB SCT026 29/25 Q1007 RETS BECMG TL0940 SCT020
ZJHK,2020-08-22 09:00,ZJHK 220900Z 08004MPS 9999 FEW023CB SCT026 29/25 Q1006 NOSIG
ZJHK,2020-08-22 10:00,ZJHK 221000Z VRB01MPS 9999 FEW026 28/26 Q1007 NOSIG
ZJHK,2020-08-22 11:00,ZJHK 221100Z VRB01MPS CAVOK 28/26 Q1007 NOSIG
ZJHK,2020-08-22 12:00,ZJHK 221200Z 15001MPS CAVOK 27/26 Q1008 NOSIG
ZJHK,2020-08-22 13:00,ZJHK 221300Z 18001MPS 8000 NSC 26/26 Q1008 NOSIG
ZJHK,2020-08-22 14:00,ZJHK 221400Z 21001MPS 8000 NSC 26/26 Q1008 NOSIG
ZJHK,2020-08-22 15:00,ZJHK 221500Z 26001MPS CAVOK 26/25 Q1009 NOSIG
ZJHK,2020-08-22 16:00,ZJHK 221600Z 22002MPS CAVOK 26/25 Q1008 NOSIG
ZJHK,2020-08-22 17:00,ZJHK 221700Z 26002MPS CAVOK 26/25 Q1008 NOSIG
ZJHK,2020-08-22 18:00,ZJHK 221800Z 24001MPS CAVOK 26/25 Q1008 NOSIG
ZJHK,2020-08-22 19:00,ZJHK 221900Z 23001MPS 8000 NSC 25/24 Q1007 NOSIG
ZJHK,2020-08-22 20:00,ZJHK 222000Z 24001MPS 8000 NSC 25/24 Q1007 NOSIG
ZJHK,2020-08-22 21:00,ZJHK 222100Z 00000MPS 8000 NSC 25/24 Q1007 NOSIG
ZJHK,2020-08-22 22:00,ZJHK 222200Z 00000MPS 8000 R09/1100N NSC 25/24 Q1007 NOSIG
ZJHK,2020-08-22 23:00,ZJHK 222300Z 00000MPS 8000 NSC 25/25 Q1007 NOSIG
ZJHK,2020-08-23 00:00,ZJHK 230000Z 30002MPS 200V360 CAVOK 27/26 Q1008 NOSIG
ZJHK,2020-08-23 01:00,ZJHK 230100Z VRB01MPS CAVOK 29/26 Q1008 NOSIG
ZJHK,2020-08-23 02:00,ZJHK 230200Z 21002MPS 140V290 9999 SCT023 30/25 Q1008 NOSIG
ZJHK,2020-08-23 03:00,ZJHK 230300Z 23002MPS 9999 FEW026TCU SCT026 31/25 Q1008 NOSIG
ZJHK,2020-08-23 04:00,ZJHK 230400Z 26003MPS 230V300 9999 SCT026CB SCT033 31/26 Q1007 NOSIG
ZJHK,2020-08-23 05:00,ZJHK 230500Z 04004MPS 010V090 9999 TS SCT026CB 30/24 Q1007 BECMG NSW
ZJHK,2020-08-23 06:00,ZJHK 230600Z 05003MPS 020V090 9999 SCT026CB 30/25 Q1006 RETS NOSIG
ZJHK,2020-08-23 07:00,ZJHK 230700Z 12004MPS 090V150 9999 FEW026CB 28/24 Q1006 NOSIG
ZJHK,2020-08-23 08:00,ZJHK 230800Z 17002MPS 110V220 9999 FEW026TCU 28/25 Q1006 NOSIG
ZJHK,2020-08-23 09:00,ZJHK 230900Z 18003MPS 140V210 9999 FEW026TCU SCT040 28/25 Q1006 NOSIG
ZJHK,2020-08-23 10:00,ZJHK 231000Z 20003MPS 170V240 9999 SCT023 27/25 Q1006 NOSIG
ZJHK,2020-08-23 11:00,ZJHK 231100Z 23002MPS 200V260 CAVOK 27/25 Q1006 NOSIG
ZJHK,2020-08-23 12:00,ZJHK 231200Z 21002MPS 170V240 CAVOK 26/24 Q1006 NOSIG
ZJHK,2020-08-23 13:00,ZJHK 231300Z 19003MPS 170V230 CAVOK 26/24 Q1007 NOSIG
ZJHK,2020-08-23 14:00,ZJHK 231400Z 21003MPS 180V240 CAVOK 26/24 Q1008 NOSIG
ZJHK,2020-08-23 15:00,ZJHK 231500Z 21002MPS 180V240 CAVOK 25/24 Q1008 NOSIG
ZJHK,2020-08-23 16:00,ZJHK 231600Z VRB01MPS CAVOK 25/24 Q1008 NOSIG
ZJHK,2020-08-23 17:00,ZJHK 231700Z VRB01MPS CAVOK 25/24 Q1007 NOSIG
ZJHK,2020-08-23 18:00,ZJHK 231800Z 22003MPS 190V250 CAVOK 25/24 Q1007 NOSIG
ZJHK,2020-08-23 19:00,ZJHK 231900Z 22002MPS 200V260 CAVOK 25/24 Q1006 NOSIG
ZJHK,2020-08-23 20:00,ZJHK 232000Z 22001MPS CAVOK 25/24 Q1006 NOSIG
ZJHK,2020-08-23 21:00,ZJHK 232100Z VRB01MPS CAVOK 25/24 Q1006 NOSIG
ZJHK,2020-08-23 22:00,ZJHK 232200Z VRB01MPS 8000 NSC 25/24 Q1006 NOSIG
ZJHK,2020-08-23 23:00,ZJHK 232300Z 20001MPS 8000 NSC 25/24 Q1007 NOSIG
ZJHK,2020-08-24 00:00,ZJHK 240000Z 22002MPS 180V240 9000 NSC 27/25 Q1007 NOSIG
ZJHK,2020-08-24 01:00,ZJHK 240100Z 22002MPS 160V270 CAVOK 29/26 Q1007 NOSIG
ZJHK,2020-08-24 02:00,ZJHK 240200Z 23002MPS 190V270 CAVOK 31/26 Q1007 NOSIG
ZJHK,2020-08-24 03:00,ZJHK 240300Z VRB02MPS CAVOK 33/26 Q1006 NOSIG
ZJHK,2020-08-24 04:00,ZJHK 240400Z 24003MPS 180V280 9999 SCT026 33/25 Q1006 NOSIG
ZJHK,2020-08-24 05:00,ZJHK 240500Z 24003MPS 9999 SCT026 34/26 Q1005 NOSIG
ZJHK,2020-08-24 06:00,ZJHK 240600Z 04004MPS 010V070 9999 SCT026 33/26 Q1004 NOSIG
ZJHK,2020-08-24 07:00,ZJHK 240700Z 03004MPS 9999 FEW026TCU SCT026 33/26 Q1004 NOSIG
ZJHK,2020-08-24 08:00,ZJHK 240800Z 02004MPS 290V060 9999 FEW026TCU SCT026 33/25 Q1003 NOSIG
ZJHK,2020-08-24 09:00,ZJHK 240900Z 34005MPS 9999 SCT023CB SCT030 33/26 Q1003 NOSIG
ZJHK,2020-08-24 10:00,ZJHK 241000Z 14006MPS 9999 TS SCT020CB SCT030 27/24 Q1004 BECMG AT1040 NSW
ZJHK,2020-08-24 11:00,ZJHK 241100Z 18004MPS 9999 -TSRA FEW020CB SCT030 26/24 Q1005 BECMG AT1140 NSW
ZJHK,2020-08-24 12:00,ZJHK 241200Z 13002MPS 060V190 9999 -SHRA FEW020TCU SCT040 26/25 Q1005 RETS NOSIG
ZJHK,2020-08-24 13:00,ZJHK 241300Z 20002MPS 170V230 CAVOK 26/24 Q1005 NOSIG
ZJHK,2020-08-24 14:00,ZJHK 241400Z VRB01MPS 9999 SCT033 26/24 Q1006 NOSIG
ZJHK,2020-08-24 15:00,ZJHK 241500Z VRB01MPS 9999 SCT033 26/25 Q1007 NOSIG
ZJHK,2020-08-24 16:00,ZJHK 241600Z 25002MPS 9999 SCT033 26/25 Q1006 NOSIG
ZJHK,2020-08-24 17:00,ZJHK 241700Z 24002MPS CAVOK 26/25 Q1006 NOSIG
ZJHK,2020-08-24 18:00,ZJHK 241800Z 26001MPS CAVOK 25/24 Q1005 NOSIG
ZJHK,2020-08-24 19:00,ZJHK 241900Z VRB01MPS CAVOK 25/25 Q1005 NOSIG
ZJHK,2020-08-24 20:00,ZJHK 242000Z VRB01MPS CAVOK 25/24 Q1004 NOSIG
ZJHK,2020-08-24 21:00,ZJHK 242100Z 21002MPS CAVOK 26/25 Q1005 NOSIG
ZJHK,2020-08-24 22:00,ZJHK 242200Z 18001MPS CAVOK 25/24 Q1005 NOSIG
ZJHK,2020-08-24 23:00,ZJHK 242300Z VRB01MPS CAVOK 26/24 Q1005 NOSIG
ZJHK,2020-08-25 00:00,ZJHK 250000Z 21002MPS 180V250 CAVOK 28/25 Q1005 NOSIG
ZJHK,2020-08-25 01:00,ZJHK 250100Z 22003MPS 180V270 CAVOK 30/26 Q1005 NOSIG
ZJHK,2020-08-25 02:00,ZJHK 250200Z 22003MPS 180V270 CAVOK 31/25 Q1005 NOSIG
ZJHK,2020-08-25 03:00,ZJHK 250300Z 22003MPS 190V260 9999 FEW023 32/25 Q1005 NOSIG
ZJHK,2020-08-25 04:00,ZJHK 250400Z 19004MPS 140V230 9999 SCT026 33/25 Q1004 NOSIG
ZJHK,2020-08-25 05:00,ZJHK 250500Z 20003MPS 160V230 9999 SCT026 33/25 Q1004 BECMG AT0600 SCT020 FEW026CB
ZJHK,2020-08-25 06:00,ZJHK 250600Z 03002MPS 9999 FEW023CB SCT026 31/26 Q1003 RESHRA BECMG AT0700 -TSRA
ZJHK,2020-08-25 07:00,ZJHK 250700Z 03003MPS 360V070 9999 FEW023TCU BKN026 32/26 Q1002 BECMG AT0730 -TSRA
ZJHK,2020-08-25 08:00,ZJHK 250800Z VRB03MPS 9999 SCT026CB SCT033 33/26 Q1002 NOSIG
ZJHK,2020-08-25 09:00,ZJHK 250900Z 13003MPS 9999 FEW040CB FEW040 30/26 Q1002 NOSIG
ZJHK,2020-08-25 10:00,ZJHK 251000Z 15004MPS 9999 FEW015 29/25 Q1002 NOSIG
ZJHK,2020-08-25 11:00,ZJHK 251100Z 01002MPS 280V090 9999 -SHRA SCT040CB FEW040 28/26 Q1003 BECMG TL1140 SCT020
ZJHK,2020-08-25 12:00,ZJHK 251200Z 14002MPS CAVOK 28/26 Q1003 NOSIG
ZJHK,2020-08-25 13:00,ZJHK 251300Z 15002MPS 110V190 CAVOK 27/26 Q1004 NOSIG
ZJHK,2020-08-25 14:00,ZJHK 251400Z 22001MPS CAVOK 28/26 Q1004 NOSIG
ZJHK,2020-08-25 15:00,ZJHK 251500Z 00000MPS CAVOK 27/26 Q1005 NOSIG
ZJHK,2020-08-25 16:00,ZJHK 251600Z 19002MPS CAVOK 27/26 Q1004 NOSIG
ZJHK,2020-08-25 17:00,ZJHK 251700Z 17001MPS CAVOK 27/25 Q1004 NOSIG
ZJHK,2020-08-25 18:00,ZJHK 251800Z 22002MPS CAVOK 27/25 Q1004 NOSIG
ZJHK,2020-08-25 19:00,ZJHK 251900Z 19002MPS 160V230 CAVOK 27/25 Q1003 NOSIG
ZJHK,2020-08-25 20:00,ZJHK 252000Z VRB01MPS CAVOK 26/25 Q1003 NOSIG
ZJHK,2020-08-25 21:00,ZJHK 252100Z 20003MPS 170V230 CAVOK 27/24 Q1002 NOSIG
ZJHK,2020-08-25 22:00,ZJHK 252200Z 19002MPS 150V220 CAVOK 27/24 Q1003 NOSIG
ZJHK,2020-08-25 23:00,ZJHK 252300Z 22002MPS 180V260 CAVOK 27/25 Q1002 NOSIG
ZJHK,2020-08-26 00:00,ZJHK 260000Z 22002MPS 190V260 CAVOK 28/25 Q1003 NOSIG
ZJHK,2020-08-26 01:00,ZJHK 260100Z 20003MPS 160V230 CAVOK 29/25 Q1003 NOSIG
ZJHK,2020-08-26 02:00,ZJHK 260200Z 20003MPS 160V250 CAVOK 29/26 Q1003 NOSIG
ZJHK,2020-08-26 03:00,ZJHK 260300Z 22003MPS 180V260 CAVOK 31/26 Q1003 NOSIG
ZJHK,2020-08-26 04:00,ZJHK 260400Z 23003MPS 190V270 9999 FEW020 33/26 Q1002 NOSIG
ZJHK,2020-08-26 05:00,ZJHK 260500Z 24006MPS 9999 TS SCT026CB SCT040 30/24 Q1001 BECMG TL0520 2000 TSRA
ZJHK,2020-08-26 06:00,ZJHK 260600Z 30007MPS 3000 +TSRA SCT016 BKN026CB 25/23 Q1002 BECMG TL0630 -TSRA
ZJHK,2020-08-26 07:00,ZJHK 260700Z 27003MPS 9999 FEW046 25/24 Q1001 RETSRA NOSIG
ZJHK,2020-08-26 08:00,ZJHK 260800Z 29004MPS 9999 FEW010 SCT023 25/23 Q1000 NOSIG
ZJHK,2020-08-26 09:00,ZJHK 260900Z 27002MPS 240V300 CAVOK 26/24 Q1000 NOSIG
ZJHK,2020-08-26 10:00,ZJHK 261000Z 27002MPS CAVOK 26/24 Q1001 NOSIG
ZJHK,2020-08-26 11:00,ZJHK 261100Z 17002MPS 120V190 CAVOK 25/24 Q1002 NOSIG
ZJHK,2020-08-26 12:00,ZJHK 261200Z 18001MPS CAVOK 25/24 Q1002 NOSIG
ZJHK,2020-08-26 13:00,ZJHK 261300Z 18002MPS CAVOK 25/24 Q1002 NOSIG
ZJHK,2020-08-26 14:00,ZJHK 261400Z 19002MPS 160V230 CAVOK 25/24 Q1002 NOSIG
ZJHK,2020-08-26 15:00,ZJHK 261500Z 00000MPS CAVOK 25/24 Q1003 NOSIG
ZJHK,2020-08-26 16:00,ZJHK 261600Z VRB01MPS 9999 FEW023TCU SCT033 25/24 Q1003 NOSIG
ZJHK,2020-08-26 17:00,ZJHK 261700Z 25001MPS 9999 FEW023TCU BKN046 25/24 Q1002 NOSIG
ZJHK,2020-08-26 18:00,ZJHK 261800Z 18002MPS CAVOK 25/25 Q1001 NOSIG
ZJHK,2020-08-26 19:00,ZJHK 261900Z 27002MPS CAVOK 25/24 Q1000 NOSIG
ZJHK,2020-08-26 20:00,ZJHK 262000Z 33002MPS CAVOK 25/24 Q1000 NOSIG
ZJHK,2020-08-26 21:00,ZJHK 262100Z 19002MPS 9999 SCT014 BKN046 25/24 Q1000 NOSIG
ZJHK,2020-08-26 22:00,ZJHK 262200Z 21002MPS 9999 FEW004 BKN014 FEW020TCU BKN040 25/25 Q1000 NOSIG
ZJHK,2020-08-26 23:00,ZJHK 262300Z 24002MPS 7000 FEW020TCU SCT046 25/25 Q1001 NOSIG
ZJHK,2020-08-27 00:00,ZJHK 270000Z 00000MPS 9000 NSC 26/26 Q1002 NOSIG
ZJHK,2020-08-27 01:00,ZJHK 270100Z 25003MPS 9999 FEW008 FEW020TCU SCT020 BKN040 27/26 Q1002 NOSIG
ZJHK,2020-08-27 02:00,ZJHK 270200Z 23002MPS 200V260 9999 FEW010 SCT046 27/26 Q1002 NOSIG
ZJHK,2020-08-27 03:00,ZJHK 270300Z 26003MPS 220V290 9999 FEW046 29/26 Q1002 NOSIG
ZJHK,2020-08-27 04:00,ZJHK 270400Z 27003MPS 240V300 9999 FEW014 30/26 Q1001 NOSIG
ZJHK,2020-08-27 05:00,ZJHK 270500Z 28003MPS 220V300 9999 SCT014 31/26 Q1001 NOSIG
ZJHK,2020-08-27 06:00,ZJHK 270600Z 26003MPS 230V290 9999 SCT023 31/26 Q1000 NOSIG
ZJHK,2020-08-27 07:00,ZJHK 270700Z 26003MPS 210V310 9999 SCT023 32/27 Q0999 NOSIG
ZJHK,2020-08-27 08:00,ZJHK 270800Z 27003MPS 220V350 9999 FEW023TCU SCT023 33/26 Q0999 NOSIG
ZJHK,2020-08-27 09:00,ZJHK 270900Z 28004MPS 260V320 9999 FEW023TCU SCT023 32/26 Q0999 NOSIG
ZJHK,2020-08-27 10:00,ZJHK 271000Z 27003MPS 9999 FEW023TCU 31/26 Q1000 NOSIG
ZJHK,2020-08-27 11:00,ZJHK 271100Z 24002MPS 9999 FEW046 30/26 Q1000 NOSIG
ZJHK,2020-08-27 12:00,ZJHK 271200Z 25002MPS 9999 FEW046 28/26 Q1001 NOSIG
ZJHK,2020-08-27 13:00,ZJHK 271300Z VRB01MPS 9999 SCT040 29/26 Q1001 NOSIG
ZJHK,2020-08-27 14:00,ZJHK 271400Z VRB01MPS CAVOK 27/26 Q1002 NOSIG
ZJHK,2020-08-27 15:00,ZJHK 271500Z 00000MPS 9000 NSC 27/26 Q1002 NOSIG
ZJHK,2020-08-27 16:00,ZJHK 271600Z VRB01MPS 7000 NSC 27/26 Q1002 NOSIG
ZJHK,2020-08-27 17:00,ZJHK 271700Z 21002MPS 6000 NSC 27/26 Q1002 NOSIG
ZJHK,2020-08-27 18:00,ZJHK 271800Z 22002MPS 6000 NSC 27/26 Q1002 NOSIG
ZJHK,2020-08-27 19:00,ZJHK 271900Z 23002MPS 6000 NSC 26/26 Q1001 NOSIG
ZJHK,2020-08-27 20:00,ZJHK 272000Z 25001MPS 6000 NSC 26/25 Q1001 NOSIG
ZJHK,2020-08-27 21:00,ZJHK 272100Z 00000MPS 5000 BR NSC 26/25 Q1002 NOSIG
ZJHK,2020-08-27 22:00,ZJHK 272200Z 29001MPS 4500 BR NSC 25/25 Q1002 NOSIG
ZJHK,2020-08-27 23:00,ZJHK 272300Z 27001MPS 5000 BR NSC 26/25 Q1002 NOSIG
ZJHK,2020-08-28 00:00,ZJHK 280000Z VRB01MPS 8000 NSC 28/27 Q1003 NOSIG
ZJHK,2020-08-28 01:00,ZJHK 280100Z 02002MPS 300V080 9999 FEW026 30/27 Q1003 NOSIG
ZJHK,2020-08-28 02:00,ZJHK 280200Z 36003MPS 320V070 9999 FEW026TCU SCT026 31/26 Q1004 NOSIG
ZJHK,2020-08-28 03:00,ZJHK 280300Z 36004MPS 320V040 9999 FEW016 SCT026 32/26 Q1004 NOSIG
ZJHK,2020-08-28 04:00,ZJHK 280400Z 02004MPS 340V080 9999 FEW026 33/24 Q1003 NOSIG
ZJHK,2020-08-28 05:00,ZJHK 280500Z 01003MPS 340V040 9999 FEW033 33/23 Q1003 NOSIG
ZJHK,2020-08-28 06:00,ZJHK 280600Z 06003MPS 010V100 9999 FEW026 34/24 Q1002 NOSIG
ZJHK,2020-08-28 07:00,ZJHK 280700Z 02003MPS 310V080 9999 FEW026 34/23 Q1002 NOSIG
ZJHK,2020-08-28 08:00,ZJHK 280800Z 04004MPS 010V080 9999 FEW026 34/25 Q1002 NOSIG
ZJHK,2020-08-28 09:00,ZJHK 280900Z 03003MPS 350V070 9999 FEW026 33/24 Q1002 NOSIG
ZJHK,2020-08-28 10:00,ZJHK 281000Z 11004MPS 9999 FEW033 31/25 Q1002 NOSIG
ZJHK,2020-08-28 11:00,ZJHK 281100Z 12003MPS 090V150 9999 SCT033 30/24 Q1002 NOSIG
ZJHK,2020-08-28 12:00,ZJHK 281200Z 13002MPS 090V150 9999 FEW016 SCT033 29/24 Q1003 NOSIG
ZJHK,2020-08-28 13:00,ZJHK 281300Z VRB01MPS 9999 SCT033 28/25 Q1004 NOSIG
ZJHK,2020-08-28 14:00,ZJHK 281400Z 18002MPS 8000 SCT033 27/25 Q1004 NOSIG
ZJHK,2020-08-28 15:00,ZJHK 281500Z 19002MPS 140V230 8000 SCT033 27/25 Q1004 NOSIG
ZJHK,2020-08-28 16:00,ZJHK 281600Z 19002MPS 8000 SCT033 27/25 Q1004 NOSIG
ZJHK,2020-08-28 17:00,ZJHK 281700Z VRB01MPS 8000 NSC 27/25 Q1004 NOSIG
ZJHK,2020-08-28 18:00,ZJHK 281800Z VRB01MPS 6000 NSC 26/24 Q1004 NOSIG
ZJHK,2020-08-28 19:00,ZJHK 281900Z 12001MPS 6000 NSC 25/24 Q1003 NOSIG
ZJHK,2020-08-28 20:00,ZJHK 282000Z VRB01MPS 5000 BR NSC 25/24 Q1003 NOSIG
ZJHK,2020-08-28 21:00,ZJHK 282100Z 19001MPS 4000 BR BCFG NSC 25/24 Q1003 NOSIG
ZJHK,2020-08-28 22:00,ZJHK 282200Z 00000MPS 4000 BR BCFG NSC 24/24 Q1004 NOSIG
ZJHK,2020-08-28 23:00,ZJHK 282300Z VRB01MPS 4000 BR BCFG NSC 25/24 Q1004 NOSIG
ZJHK,2020-08-29 00:00,ZJHK 290000Z VRB01MPS CAVOK 27/27 Q1005 NOSIG
ZJHK,2020-08-29 01:00,ZJHK 290100Z 00000MPS CAVOK 30/26 Q1005 NOSIG
ZJHK,2020-08-29 02:00,ZJHK 290200Z VRB01MPS 9999 FEW020 32/26 Q1005 NOSIG
ZJHK,2020-08-29 03:00,ZJHK 290300Z VRB02MPS 9999 SCT020 33/24 Q1006 NOSIG
ZJHK,2020-08-29 04:00,ZJHK 290400Z 03004MPS 330V090 9999 SCT020 33/24 Q1005 NOSIG
ZJHK,2020-08-29 05:00,ZJHK 290500Z 05004MPS 010V100 9999 SCT020 34/24 Q1004 NOSIG
ZJHK,2020-08-29 06:00,ZJHK 290600Z 05005MPS 360V090 9999 SCT020 34/24 Q1003 NOSIG
ZJHK,2020-08-29 07:00,ZJHK 290700Z 04004MPS 350V080 9999 FEW026 34/23 Q1003 NOSIG
ZJHK,2020-08-29 08:00,ZJHK 290800Z 03003MPS 330V080 9999 FEW026 34/22 Q1003 NOSIG
ZJHK,2020-08-29 09:00,ZJHK 290900Z 10004MPS 060V130 CAVOK 34/23 Q1003 NOSIG
ZJHK,2020-08-29 10:00,ZJHK 291000Z 08005MPS CAVOK 33/22 Q1003 NOSIG
ZJHK,2020-08-29 11:00,ZJHK 291100Z 12003MPS CAVOK 30/24 Q1003 NOSIG
ZJHK,2020-08-29 12:00,ZJHK 291200Z 12002MPS CAVOK 29/24 Q1004 NOSIG
ZJHK,2020-08-29 13:00,ZJHK 291300Z 14001MPS CAVOK 27/24 Q1005 NOSIG
ZJHK,2020-08-29 14:00,ZJHK 291400Z 16002MPS CAVOK 27/24 Q1006 NOSIG
ZJHK,2020-08-29 15:00,ZJHK 291500Z 16001MPS CAVOK 26/24 Q1006 NOSIG
ZJHK,2020-08-29 16:00,ZJHK 291600Z 17001MPS CAVOK 25/24 Q1006 NOSIG
ZJHK,2020-08-29 17:00,ZJHK 291700Z VRB01MPS CAVOK 26/25 Q1005 NOSIG
ZJHK,2020-08-29 18:00,ZJHK 291800Z 15001MPS CAVOK 25/24 Q1004 NOSIG
ZJHK,2020-08-29 19:00,ZJHK 291900Z 19001MPS CAVOK 25/24 Q1004 NOSIG
ZJHK,2020-08-29 20:00,ZJHK 292000Z 00000MPS 8000 NSC 25/25 Q1004 NOSIG
ZJHK,2020-08-29 21:00,ZJHK 292100Z 29001MPS 5000 BR NSC 25/24 Q1004 NOSIG
ZJHK,2020-08-29 22:00,ZJHK 292200Z 23001MPS 5000 BR BCFG NSC 25/24 Q1005 NOSIG
ZJHK,2020-08-29 23:00,ZJHK 292300Z VRB01MPS 4000 BR BCFG NSC 26/25 Q1005 NOSIG
ZJHK,2020-08-30 00:00,ZJHK 300000Z 24001MPS 7000 NSC 27/26 Q1006 NOSIG
ZJHK,2020-08-30 01:00,ZJHK 300100Z VRB01MPS CAVOK 29/26 Q1006 NOSIG
ZJHK,2020-08-30 02:00,ZJHK 300200Z 02002MPS 350V100 CAVOK 32/24 Q1007 NOSIG
ZJHK,2020-08-30 03:00,ZJHK 300300Z 03003MPS 360V060 CAVOK 32/23 Q1006 NOSIG
ZJHK,2020-08-30 04:00,ZJHK 300400Z 02004MPS 340V080 CAVOK 33/25 Q1006 NOSIG
ZJHK,2020-08-30 05:00,ZJHK 300500Z VRB04MPS 9999 FEW016 33/24 Q1006 NOSIG
ZJHK,2020-08-30 06:00,ZJHK 300600Z 06003MPS 360V110 9999 FEW016 34/21 Q1005 NOSIG
ZJHK,2020-08-30 07:00,ZJHK 300700Z 06002MPS 020V140 CAVOK 35/21 Q1004 NOSIG
ZJHK,2020-08-30 08:00,ZJHK 300800Z 05002MPS 360V130 CAVOK 35/22 Q1003 NOSIG
ZJHK,2020-08-30 09:00,ZJHK 300900Z 03003MPS 010V080 CAVOK 33/24 Q1003 NOSIG
ZJHK,2020-08-30 10:00,ZJHK 301000Z 09004MPS 060V120 CAVOK 32/23 Q1003 NOSIG
ZJHK,2020-08-30 11:00,ZJHK 301100Z 11004MPS CAVOK 30/23 Q1004 NOSIG
ZJHK,2020-08-30 12:00,ZJHK 301200Z 11002MPS CAVOK 28/24 Q1004 NOSIG
ZJHK,2020-08-30 13:00,ZJHK 301300Z VRB01MPS CAVOK 28/24 Q1005 NOSIG
ZJHK,2020-08-30 14:00,ZJHK 301400Z 14002MPS CAVOK 27/24 Q1006 NOSIG
ZJHK,2020-08-30 15:00,ZJHK 301500Z 15001MPS CAVOK 27/24 Q1007 NOSIG
ZJHK,2020-08-30 16:00,ZJHK 301600Z 23002MPS CAVOK 27/25 Q1007 NOSIG
ZJHK,2020-08-30 17:00,ZJHK 301700Z 24001MPS CAVOK 26/24 Q1007 NOSIG
ZJHK,2020-08-30 18:00,ZJHK 301800Z VRB01MPS 8000 NSC 26/24 Q1006 NOSIG
ZJHK,2020-08-30 19:00,ZJHK 301900Z 00000MPS 8000 NSC 25/24 Q1006 NOSIG
ZJHK,2020-08-30 20:00,ZJHK 302000Z 00000MPS 7000 NSC 25/24 Q1006 NOSIG
ZJHK,2020-08-30 21:00,ZJHK 302100Z 28001MPS 7000 NSC 25/24 Q1006 NOSIG
ZJHK,2020-08-30 22:00,ZJHK 302200Z 00000MPS 7000 NSC 25/24 Q1006 NOSIG
ZJHK,2020-08-30 23:00,ZJHK 302300Z 28001MPS 5000 BR NSC 25/24 Q1007 NOSIG
ZJHK,2020-08-31 00:00,ZJHK 310000Z 00000MPS CAVOK 28/26 Q1007 NOSIG
ZJHK,2020-08-31 01:00,ZJHK 310100Z 02002MPS 340V090 CAVOK 30/26 Q1008 NOSIG
ZJHK,2020-08-31 02:00,ZJHK 310200Z 05003MPS 010V080 9999 FEW020 32/26 Q1008 NOSIG
ZJHK,2020-08-31 03:00,ZJHK 310300Z 04004MPS 350V080 CAVOK 33/24 Q1007 NOSIG
ZJHK,2020-08-31 04:00,ZJHK 310400Z 05004MPS 360V090 CAVOK 33/23 Q1007 NOSIG
ZJHK,2020-08-31 05:00,ZJHK 310500Z 05004MPS 340V090 9999 FEW023 34/24 Q1006 NOSIG
ZJHK,2020-08-31 06:00,ZJHK 310600Z 04004MPS 010V070 9999 FEW023 33/24 Q1006 NOSIG
ZJHK,2020-08-31 07:00,ZJHK 310700Z 02004MPS 330V080 CAVOK 33/24 Q1005 NOSIG
ZJHK,2020-08-31 08:00,ZJHK 310800Z 03005MPS 360V070 9999 FEW023TCU 33/23 Q1005 NOSIG
ZJHK,2020-08-31 09:00,ZJHK 310900Z 36004MPS 330V030 CAVOK 31/25 Q1004 NOSIG
ZJHK,2020-08-31 10:00,ZJHK 311000Z 02003MPS 340V060 CAVOK 31/24 Q1004 NOSIG
ZJHK,2020-08-31 11:00,ZJHK 311100Z 02003MPS 300V060 CAVOK 30/25 Q1005 NOSIG
ZJHK,2020-08-31 12:00,ZJHK 311200Z 36003MPS 330V040 CAVOK 29/25 Q1005 NOSIG
ZJHK,2020-08-31 13:00,ZJHK 311300Z VRB01MPS CAVOK 28/26 Q1006 NOSIG
ZJHK,2020-08-31 14:00,ZJHK 311400Z VRB01MPS CAVOK 29/26 Q1007 NOSIG
ZJHK,2020-08-31 15:00,ZJHK 311500Z 16001MPS 7000 NSC 27/26 Q1008 NOSIG
ZJHK,2020-08-31 16:00,ZJHK 311600Z 23001MPS 6000 NSC 27/26 Q1008 NOSIG
ZJHK,2020-08-31 17:00,ZJHK 311700Z VRB01MPS 5000 BR NSC 27/26 Q1007 NOSIG
ZJHK,2020-08-31 18:00,ZJHK 311800Z 22001MPS 6000 NSC 27/26 Q1007 NOSIG
ZJHK,2020-08-31 19:00,ZJHK 311900Z 00000MPS 5000 BR NSC 27/26 Q1006 NOSIG
ZJHK,2020-08-31 20:00,ZJHK 312000Z 25001MPS 5000 BR NSC 26/25 Q1006 NOSIG
ZJHK,2020-08-31 21:00,ZJHK 312100Z 22002MPS 5000 BR NSC 26/25 Q1006 NOSIG
ZJHK,2020-08-31 22:00,ZJHK 312200Z 00000MPS 3500 BR NSC 26/25 Q1006 NOSIG
ZJHK,2020-08-31 23:00,ZJHK 312300Z 24001MPS 2500 BR NSC 26/25 Q1006 NOSIG
ZJHK,2020-09-01 00:00,ZJHK 010000Z VRB01MPS 4000 BR NSC 28/26 Q1007 NOSIG
ZJHK,2020-09-01 01:00,ZJHK 010100Z VRB01MPS 6000 NSC 30/26 Q1007 NOSIG
ZJHK,2020-09-01 02:00,ZJHK 010200Z 02003MPS 330V060 8000 BKN020 31/26 Q1007 NOSIG
ZJHK,2020-09-01 03:00,ZJHK 010300Z 01003MPS 330V090 9999 FEW020 32/25 Q1007 NOSIG
ZJHK,2020-09-01 04:00,ZJHK 010400Z VRB03MPS 9999 FEW020 33/25 Q1007 NOSIG
ZJHK,2020-09-01 05:00,ZJHK 010500Z 06003MPS 350V110 9999 FEW023 FEW026TCU 34/26 Q1006 NOSIG
ZJHK,2020-09-01 06:00,ZJHK 010600Z 05004MPS 360V070 9999 FEW023 35/25 Q1005 NOSIG
ZJHK,2020-09-01 07:00,ZJHK 010700Z 01004MPS 340V050 9999 FEW023 FEW026TCU 34/25 Q1005 NOSIG
ZJHK,2020-09-01 08:00,ZJHK 010800Z 36005MPS 330V040 9999 FEW026TCU 34/24 Q1004 NOSIG
ZJHK,2020-09-01 09:00,ZJHK 010900Z 02004MPS 340V050 9999 FEW026TCU 33/25 Q1004 NOSIG
ZJHK,2020-09-01 10:00,ZJHK 011000Z 36003MPS 320V040 9999 FEW026TCU 32/24 Q1004 NOSIG
ZJHK,2020-09-01 11:00,ZJHK 011100Z 36003MPS 330V030 CAVOK 31/24 Q1005 NOSIG
ZJHK,2020-09-01 12:00,ZJHK 011200Z VRB01MPS CAVOK 29/25 Q1006 NOSIG
ZJHK,2020-09-01 13:00,ZJHK 011300Z 19001MPS 8000 NSC 29/26 Q1007 NOSIG
ZJHK,2020-09-01 14:00,ZJHK 011400Z 17002MPS 7000 NSC 28/26 Q1007 NOSIG
ZJHK,2020-09-01 15:00,ZJHK 011500Z 14001MPS 6000 NSC 28/26 Q1007 NOSIG
ZJHK,2020-09-01 16:00,ZJHK 011600Z 22002MPS 190V260 8000 NSC 28/26 Q1007 NOSIG
ZJHK,2020-09-01 17:00,ZJHK 011700Z 23002MPS 190V260 8000 NSC 28/26 Q1007 NOSIG
ZJHK,2020-09-01 18:00,ZJHK 011800Z 26002MPS 8000 FEW016 27/25 Q1007 NOSIG
ZJHK,2020-09-01 19:00,ZJHK 011900Z 21002MPS 170V270 7000 FEW016 27/25 Q1006 NOSIG
ZJHK,2020-09-01 20:00,ZJHK 012000Z 23002MPS 200V270 6000 NSC 27/25 Q1006 NOSIG
ZJHK,2020-09-01 21:00,ZJHK 012100Z VRB01MPS 6000 NSC 26/25 Q1006 NOSIG
ZJHK,2020-09-01 22:00,ZJHK 012200Z VRB01MPS 6000 NSC 26/25 Q1006 NOSIG
ZJHK,2020-09-01 23:00,ZJHK 012300Z 17001MPS 4000 BR NSC 26/25 Q1007 NOSIG
ZJHK,2020-09-02 00:00,ZJHK 020000Z VRB01MPS 7000 NSC 28/26 Q1008 NOSIG
ZJHK,2020-09-02 01:00,ZJHK 020100Z VRB01MPS 8000 NSC 30/26 Q1008 NOSIG
ZJHK,2020-09-02 02:00,ZJHK 020200Z VRB02MPS 9999 FEW020 31/25 Q1008 NOSIG
ZJHK,2020-09-02 03:00,ZJHK 020300Z 26002MPS 210V310 9999 FEW020 33/23 Q1008 NOSIG
ZJHK,2020-09-02 04:00,ZJHK 020400Z VRB01MPS 9999 BKN026 34/24 Q1008 NOSIG
ZJHK,2020-09-02 05:00,ZJHK 020500Z VRB02MPS 9999 BKN030 34/25 Q1007 NOSIG
ZJHK,2020-09-02 06:00,ZJHK 020600Z 03004MPS 340V070 9999 SCT030 SCT046 34/25 Q1006 NOSIG
ZJHK,2020-09-02 07:00,ZJHK 020700Z 36005MPS 340V050 9999 FEW030 33/25 Q1006 NOSIG
ZJHK,2020-09-02 08:00,ZJHK 020800Z 34005MPS 320V030 9999 FEW030CB 33/26 Q1005 NOSIG
ZJHK,2020-09-02 09:00,ZJHK 020900Z 01004MPS 330V050 9999 FEW030CB 32/25 Q1006 NOSIG
ZJHK,2020-09-02 10:00,ZJHK 021000Z 04003MPS 350V070 9999 FEW046 31/25 Q1006 NOSIG
ZJHK,2020-09-02 11:00,ZJHK 021100Z 03002MPS 340V080 CAVOK 31/25 Q1006 NOSIG
ZJHK,2020-09-02 12:00,ZJHK 021200Z 15002MPS CAVOK 29/25 Q1006 NOSIG
ZJHK,2020-09-02 13:00,ZJHK 021300Z 14002MPS CAVOK 28/26 Q1007 NOSIG
ZJHK,2020-09-02 14:00,ZJHK 021400Z VRB01MPS CAVOK 27/26 Q1007 NOSIG
ZJHK,2020-09-02 15:00,ZJHK 021500Z 24002MPS 210V270 8000 NSC 27/25 Q1008 NOSIG
ZJHK,2020-09-02 16:00,ZJHK 021600Z 19003MPS 160V220 8000 NSC 28/26 Q1008 NOSIG
ZJHK,2020-09-02 17:00,ZJHK 021700Z 20002MPS 160V230 CAVOK 27/26 Q1008 NOSIG
ZJHK,2020-09-02 18:00,ZJHK 021800Z VRB01MPS CAVOK 27/25 Q1007 NOSIG
ZJHK,2020-09-02 19:00,ZJHK 021900Z 18002MPS CAVOK 27/25 Q1007 NOSIG
ZJHK,2020-09-02 20:00,ZJHK 022000Z 19002MPS 160V220 CAVOK 27/25 Q1007 NOSIG
ZJHK,2020-09-02 21:00,ZJHK 022100Z 18002MPS CAVOK 27/25 Q1007 NOSIG
ZJHK,2020-09-02 22:00,ZJHK 022200Z VRB01MPS CAVOK 27/25 Q1008 NOSIG
ZJHK,2020-09-02 23:00,ZJHK 022300Z 18002MPS 150V210 CAVOK 27/25 Q1008 NOSIG
ZJHK,2020-09-03 00:00,ZJHK 030000Z 20002MPS 120V240 CAVOK 28/26 Q1009 NOSIG
ZJHK,2020-09-03 01:00,ZJHK 030100Z 21002MPS 170V300 CAVOK 31/27 Q1009 NOSIG
ZJHK,2020-09-03 02:00,ZJHK 030200Z 23002MPS 170V290 CAVOK 32/26 Q1010 NOSIG
ZJHK,2020-09-03 03:00,ZJHK 030300Z VRB01MPS CAVOK 33/25 Q1010 NOSIG
ZJHK,2020-09-03 04:00,ZJHK 030400Z VRB02MPS 9999 FEW023 35/24 Q1009 NOSIG
ZJHK,2020-09-03 05:00,ZJHK 030500Z VRB02MPS 9999 SCT023 34/24 Q1008 NOSIG
ZJHK,2020-09-03 06:00,ZJHK 030600Z 01004MPS 340V050 9999 FEW020TCU SCT023 34/26 Q1008 NOSIG
ZJHK,2020-09-03 07:00,ZJHK 030700Z 03006MPS 360V070 9999 FEW020TCU SCT026 34/26 Q1007 NOSIG
ZJHK,2020-09-03 08:00,ZJHK 030800Z 05004MPS 020V080 9999 SCT026 35/26 Q1007 NOSIG
ZJHK,2020-09-03 09:00,ZJHK 030900Z 08005MPS 9999 FEW026 33/26 Q1006 NOSIG
ZJHK,2020-09-03 10:00,ZJHK 031000Z 07005MPS 9999 FEW026 32/25 Q1007 NOSIG
ZJHK,2020-09-03 11:00,ZJHK 031100Z 10004MPS 080V140 CAVOK 30/24 Q1008 NOSIG
ZJHK,2020-09-03 12:00,ZJHK 031200Z 11003MPS CAVOK 29/25 Q1008 NOSIG
ZJHK,2020-09-03 13:00,ZJHK 031300Z 13002MPS CAVOK 28/25 Q1009 NOSIG
ZJHK,2020-09-03 14:00,ZJHK 031400Z VRB01MPS CAVOK 28/26 Q1010 NOSIG
ZJHK,2020-09-03 15:00,ZJHK 031500Z 16001MPS CAVOK 28/25 Q1010 NOSIG
ZJHK,2020-09-03 16:00,ZJHK 031600Z VRB01MPS CAVOK 27/25 Q1009 NOSIG
ZJHK,2020-09-03 17:00,ZJHK 031700Z 18001MPS 9999 BKN020 27/25 Q1009 NOSIG
ZJHK,2020-09-03 18:00,ZJHK 031800Z 10001MPS 9999 SCT020 27/25 Q1009 NOSIG
ZJHK,2020-09-03 19:00,ZJHK 031900Z 13001MPS CAVOK 26/25 Q1008 NOSIG
ZJHK,2020-09-03 20:00,ZJHK 032000Z 16001MPS CAVOK 26/25 Q1008 NOSIG
ZJHK,2020-09-03 21:00,ZJHK 032100Z 00000MPS 9999 FEW015 26/25 Q1008 NOSIG
ZJHK,2020-09-03 22:00,ZJHK 032200Z 14001MPS 8000 NSC 26/25 Q1008 NOSIG
ZJHK,2020-09-03 23:00,ZJHK 032300Z 17002MPS 140V200 CAVOK 26/26 Q1009 NOSIG
ZJHK,2020-09-04 00:00,ZJHK 040000Z 19002MPS 150V220 CAVOK 28/26 Q1009 NOSIG
ZJHK,2020-09-04 01:00,ZJHK 040100Z 19003MPS 140V230 CAVOK 30/26 Q1009 NOSIG
ZJHK,2020-09-04 02:00,ZJHK 040200Z 20003MPS 160V240 9999 SCT016 32/26 Q1009 NOSIG
ZJHK,2020-09-04 03:00,ZJHK 040300Z 23002MPS 180V300 9999 BKN020 32/26 Q1009 NOSIG
ZJHK,2020-09-04 04:00,ZJHK 040400Z 21003MPS 170V270 9999 BKN023 34/25 Q1008 NOSIG
ZJHK,2020-09-04 05:00,ZJHK 040500Z VRB02MPS 9999 BKN026 34/25 Q1008 NOSIG
ZJHK,2020-09-04 06:00,ZJHK 040600Z 21002MPS 150V280 9999 FEW026TCU BKN033 35/24 Q1007 BECMG AT0700 -TSRA SCT020 FEW026CB
ZJHK,2020-09-04 07:00,ZJHK 040700Z 36005MPS 340V060 9999 FEW033CB SCT033 34/25 Q1006 BECMG AT0730 -TSRA
ZJHK,2020-09-04 08:00,ZJHK 040800Z VRB05G11MPS 2500 +TSRA SCT011 SCT033CB FEW033 27/26 Q1006 BECMG AT0900 -SHRA
ZJHK,2020-09-04 09:00,ZJHK 040900Z 29004MPS 250V320 9999 -TSRA SCT023CB SCT033 26/25 Q1007 RESHRA NOSIG
ZJHK,2020-09-04 10:00,ZJHK 041000Z 35003MPS 310V040 6000 -TSRA SCT023CB SCT033 25/25 Q1008 RESHRA BECMG AT1100 -SHRA
ZJHK,2020-09-04 11:00,ZJHK 041100Z 28002MPS 220V340 9999 -TSRA FEW006 FEW023CB SCT033 25/24 Q1008 BECMG AT1200 -SHRA
ZJHK,2020-09-04 12:00,ZJHK 041200Z VRB01MPS 9999 -SHRA FEW023CB 26/25 Q1007 RETS NOSIG
ZJHK,2020-09-04 13:00,ZJHK 041300Z VRB01MPS 9999 FEW033 25/24 Q1008 NOSIG
ZJHK,2020-09-04 14:00,ZJHK 041400Z 18002MPS 150V230 CAVOK 25/25 Q1009 NOSIG
ZJHK,2020-09-04 15:00,ZJHK 041500Z 22003MPS 190V250 CAVOK 26/25 Q1008 NOSIG
ZJHK,2020-09-04 16:00,ZJHK 041600Z VRB01MPS 9999 FEW003 25/24 Q1008 NOSIG
ZJHK,2020-09-04 17:00,ZJHK 041700Z VRB01MPS CAVOK 25/24 Q1008 NOSIG
ZJHK,2020-09-04 18:00,ZJHK 041800Z 28001MPS 9999 FEW002 25/24 Q1008 NOSIG
ZJHK,2020-09-04 19:00,ZJHK 041900Z 00000MPS CAVOK 25/24 Q1007 NOSIG
ZJHK,2020-09-04 20:00,ZJHK 042000Z 00000MPS 8000 NSC 25/24 Q1007 NOSIG
ZJHK,2020-09-04 21:00,ZJHK 042100Z 14001MPS 8000 NSC 25/24 Q1007 NOSIG
ZJHK,2020-09-04 22:00,ZJHK 042200Z 18001MPS 9000 NSC 25/24 Q1007 NOSIG
ZJHK,2020-09-04 23:00,ZJHK 042300Z VRB01MPS 7000 NSC 25/24 Q1007 NOSIG
ZJHK,2020-09-05 00:00,ZJHK 050000Z 19002MPS CAVOK 27/26 Q1008 NOSIG
ZJHK,2020-09-05 01:00,ZJHK 050100Z 19004MPS 9999 FEW015 29/27 Q1008 NOSIG
ZJHK,2020-09-05 02:00,ZJHK 050200Z 21004MPS 180V250 9999 FEW016 30/27 Q1008 NOSIG
ZJHK,2020-09-05 03:00,ZJHK 050300Z 25003MPS 200V290 9999 FEW020 32/26 Q1008 NOSIG
ZJHK,2020-09-05 04:00,ZJHK 050400Z VRB02MPS 9999 SCT026 33/25 Q1008 NOSIG
ZJHK,2020-09-05 05:00,ZJHK 050500Z 01003MPS 340V050 9999 SCT026 32/26 Q1007 NOSIG
ZJHK,2020-09-05 06:00,ZJHK 050600Z 28004MPS 240V320 9999 SCT026 34/25 Q1005 NOSIG
ZJHK,2020-09-05 07:00,ZJHK 050700Z 31004MPS 280V340 9999 SCT026 34/24 Q1005 NOSIG
ZJHK,2020-09-05 08:00,ZJHK 050800Z 33004MPS 290V360 9999 SCT026 34/24 Q1004 NOSIG
ZJHK,2020-09-05 09:00,ZJHK 050900Z 33002MPS 290V020 9999 FEW026CB FEW026 33/23 Q1004 NOSIG
ZJHK,2020-09-05 10:00,ZJHK 051000Z 04002MPS 9999 FEW026CB FEW026 SCT033 33/24 Q1004 NOSIG
ZJHK,2020-09-05 11:00,ZJHK 051100Z 11002MPS 080V150 9999 FEW023 BKN033 30/26 Q1005 NOSIG
ZJHK,2020-09-05 12:00,ZJHK 051200Z 11002MPS 9999 SCT026 28/26 Q1005 NOSIG
ZJHK,2020-09-05 13:00,ZJHK 051300Z 13002MPS CAVOK 28/25 Q1005 NOSIG
ZJHK,2020-09-05 14:00,ZJHK 051400Z 14002MPS 9999 FEW040 27/25 Q1006 NOSIG
ZJHK,2020-09-05 15:00,ZJHK 051500Z 16002MPS 120V200 CAVOK 27/25 Q1006 NOSIG
ZJHK,2020-09-05 16:00,ZJHK 051600Z 16002MPS 130V200 CAVOK 27/26 Q1006 NOSIG
ZJHK,2020-09-05 17:00,ZJHK 051700Z VRB01MPS CAVOK 28/26 Q1006 NOSIG
ZJHK,2020-09-05 18:00,ZJHK 051800Z 18002MPS CAVOK 27/26 Q1005 NOSIG
ZJHK,2020-09-05 19:00,ZJHK 051900Z VRB01MPS CAVOK 27/26 Q1005 NOSIG
ZJHK,2020-09-05 20:00,ZJHK 052000Z 12001MPS CAVOK 26/25 Q1004 NOSIG
ZJHK,2020-09-05 21:00,ZJHK 052100Z 13002MPS 100V160 8000 NSC 26/26 Q1004 NOSIG
ZJHK,2020-09-05 22:00,ZJHK 052200Z VRB01MPS 8000 NSC 26/26 Q1005 NOSIG
ZJHK,2020-09-05 23:00,ZJHK 052300Z VRB01MPS 8000 NSC 27/26 Q1005 NOSIG
ZJHK,2020-09-06 00:00,ZJHK 060000Z VRB01MPS CAVOK 27/27 Q1006 NOSIG
ZJHK,2020-09-06 01:00,ZJHK 060100Z 24002MPS 190V280 CAVOK 29/27 Q1006 NOSIG
ZJHK,2020-09-06 02:00,ZJHK 060200Z 25002MPS 190V300 CAVOK 31/27 Q1006 NOSIG
ZJHK,2020-09-06 03:00,ZJHK 060300Z 30003MPS 240V350 9999 FEW020 32/27 Q1006 NOSIG
ZJHK,2020-09-06 04:00,ZJHK 060400Z 35003MPS 290V080 9999 FEW026TCU BKN026 33/27 Q1005 NOSIG
ZJHK,2020-09-06 05:00,ZJHK 060500Z 32004MPS 9999 FEW026TCU SCT026 33/24 Q1005 NOSIG
ZJHK,2020-09-06 06:00,ZJHK 060600Z 30004MPS 270V350 9999 FEW026TCU SCT026 34/24 Q1004 NOSIG
ZJHK,2020-09-06 07:00,ZJHK 060700Z 34004MPS 310V010 9999 FEW026 34/25 Q1003 NOSIG
ZJHK,2020-09-06 08:00,ZJHK 060800Z 32004MPS 290V350 9999 FEW026TCU FEW026 34/23 Q1003 NOSIG
ZJHK,2020-09-06 09:00,ZJHK 060900Z 01005MPS 9999 FEW026TCU FEW026 33/26 Q1003 NOSIG
ZJHK,2020-09-06 10:00,ZJHK 061000Z 02003MPS 340V050 9999 FEW026 32/25 Q1003 NOSIG
ZJHK,2020-09-06 11:00,ZJHK 061100Z 14003MPS 9999 FEW026TCU FEW040 30/26 Q1004 NOSIG
ZJHK,2020-09-06 12:00,ZJHK 061200Z 12002MPS 9999 FEW040 29/25 Q1004 NOSIG
ZJHK,2020-09-06 13:00,ZJHK 061300Z 13002MPS CAVOK 28/25 Q1005 NOSIG
ZJHK,2020-09-06 14:00,ZJHK 061400Z 14002MPS CAVOK 28/25 Q1005 NOSIG
ZJHK,2020-09-06 15:00,ZJHK 061500Z 18002MPS CAVOK 27/26 Q1005 NOSIG
ZJHK,2020-09-06 16:00,ZJHK 061600Z 20002MPS 170V240 CAVOK 27/26 Q1005 NOSIG
ZJHK,2020-09-06 17:00,ZJHK 061700Z 21002MPS 140V250 CAVOK 27/24 Q1005 NOSIG
ZJHK,2020-09-06 18:00,ZJHK 061800Z 21002MPS 180V240 CAVOK 26/23 Q1005 NOSIG
ZJHK,2020-09-06 19:00,ZJHK 061900Z 17001MPS CAVOK 26/23 Q1004 NOSIG
ZJHK,2020-09-06 20:00,ZJHK 062000Z 00000MPS CAVOK 25/23 Q1004 NOSIG
ZJHK,2020-09-06 21:00,ZJHK 062100Z VRB01MPS CAVOK 25/24 Q1005 NOSIG
ZJHK,2020-09-06 22:00,ZJHK 062200Z VRB01MPS CAVOK 25/24 Q1005 NOSIG
ZJHK,2020-09-06 23:00,ZJHK 062300Z 13001MPS CAVOK 25/24 Q1005 NOSIG
ZJHK,2020-09-07 00:00,ZJHK 070000Z VRB01MPS CAVOK 28/25 Q1005 NOSIG
ZJHK,2020-09-07 01:00,ZJHK 070100Z 20002MPS 140V240 CAVOK 29/26 Q1005 NOSIG
ZJHK,2020-09-07 02:00,ZJHK 070200Z 20003MPS 160V250 CAVOK 31/26 Q1007 NOSIG
ZJHK,2020-09-07 03:00,ZJHK 070300Z VRB02MPS CAVOK 32/27 Q1006 NOSIG
ZJHK,2020-09-07 04:00,ZJHK 070400Z 26001MPS 9999 FEW023 34/26 Q1006 NOSIG
ZJHK,2020-09-07 05:00,ZJHK 070500Z 23002MPS 160V330 9999 FEW023 FEW026TCU 35/27 Q1005 NOSIG
ZJHK,2020-09-07 06:00,ZJHK 070600Z 36003MPS 340V040 9999 FEW026TCU SCT026 33/26 Q1005 NOSIG
ZJHK,2020-09-07 07:00,ZJHK 070700Z 02003MPS 9999 FEW026CB SCT033 33/24 Q1004 BECMG AT0740 20006G15MPS -TSRA
ZJHK,2020-09-07 08:00,ZJHK 070800Z 12003MPS 080V190 9999 TS FEW016 SCT026CB 30/25 Q1005 BECMG TSRA
ZJHK,2020-09-07 09:00,ZJHK 070900Z 13003MPS 9999 -TSRA FEW026CB SCT033 27/26 Q1005 BECMG TSRA
ZJHK,2020-09-07 10:00,ZJHK 071000Z 32002MPS 290V010 9999 -TSRA FEW011 SCT023 FEW026CB 27/25 Q1007 BECMG AT1020 TSRA
ZJHK,2020-09-07 11:00,ZJHK 071100Z 01003MPS 9999 -SHRA FEW026 26/24 Q1005 RETS NOSIG
ZJHK,2020-09-07 12:00,ZJHK 071200Z 14002MPS 110V170 9999 -SHRA FEW015 26/25 Q1006 NOSIG
ZJHK,2020-09-07 13:00,ZJHK 071300Z 18002MPS 150V210 9999 FEW026 26/25 Q1007 NOSIG
ZJHK,2020-09-07 14:00,ZJHK 071400Z VRB01MPS 9999 SCT026 26/25 Q1008 NOSIG
ZJHK,2020-09-07 15:00,ZJHK 071500Z VRB01MPS 9999 FEW033 26/25 Q1008 NOSIG
ZJHK,2020-09-07 16:00,ZJHK 071600Z 18001MPS CAVOK 25/24 Q1008 NOSIG
ZJHK,2020-09-07 17:00,ZJHK 071700Z VRB01MPS CAVOK 25/24 Q1008 NOSIG
ZJHK,2020-09-07 18:00,ZJHK 071800Z 19001MPS CAVOK 25/24 Q1007 NOSIG
ZJHK,2020-09-07 19:00,ZJHK 071900Z VRB01MPS CAVOK 25/24 Q1008 NOSIG
ZJHK,2020-09-07 20:00,ZJHK 072000Z 10002MPS CAVOK 25/24 Q1007 NOSIG
ZJHK,2020-09-07 21:00,ZJHK 072100Z VRB01MPS CAVOK 25/24 Q1007 NOSIG
ZJHK,2020-09-07 22:00,ZJHK 072200Z 13001MPS CAVOK 25/25 Q1008 NOSIG
ZJHK,2020-09-07 23:00,ZJHK 072300Z 16002MPS 110V200 CAVOK 26/25 Q1009 NOSIG
ZJHK,2020-09-08 00:00,ZJHK 080000Z 19002MPS 160V230 CAVOK 27/26 Q1009 NOSIG
ZJHK,2020-09-08 01:00,ZJHK 080100Z 19002MPS 150V240 CAVOK 28/26 Q1009 NOSIG
ZJHK,2020-09-08 02:00,ZJHK 080200Z 19002MPS 140V260 CAVOK 29/27 Q1010 NOSIG
ZJHK,2020-09-08 03:00,ZJHK 080300Z 16002MPS 140V220 CAVOK 30/27 Q1011 NOSIG
ZJHK,2020-09-08 04:00,ZJHK 080400Z 16002MPS CAVOK 30/26 Q1010 NOSIG
ZJHK,2020-09-08 05:00,ZJHK 080500Z 14003MPS CAVOK 30/26 Q1010 NOSIG
ZJHK,2020-09-08 06:00,ZJHK 080600Z 12003MPS 100V160 CAVOK 30/27 Q1009 NOSIG
ZJHK,2020-09-08 07:00,ZJHK 080700Z 14002MPS 080V180 9999 FEW026 31/26 Q1008 NOSIG
ZJHK,2020-09-08 08:00,ZJHK 080800Z 15002MPS 9999 FEW026CB 31/26 Q1008 BECMG AT0820 -TSRA
ZJHK,2020-09-08 09:00,ZJHK 080900Z 30003MPS 9999 FEW026CB FEW026 29/25 Q1008 NOSIG
ZJHK,2020-09-08 10:00,ZJHK 081000Z VRB01MPS 9999 FEW026CB FEW026 28/24 Q1008 NOSIG
ZJHK,2020-09-08 11:00,ZJHK 081100Z 14002MPS CAVOK 28/25 Q1009 NOSIG
ZJHK,2020-09-08 12:00,ZJHK 081200Z 12002MPS CAVOK 28/26 Q1009 NOSIG
ZJHK,2020-09-08 13:00,ZJHK 081300Z 13002MPS CAVOK 28/26 Q1010 NOSIG
ZJHK,2020-09-08 14:00,ZJHK 081400Z VRB01MPS CAVOK 28/27 Q1011 NOSIG
ZJHK,2020-09-08 15:00,ZJHK 081500Z 00000MPS CAVOK 27/26 Q1011 NOSIG
ZJHK,2020-09-08 16:00,ZJHK 081600Z VRB01MPS 8000 NSC 27/26 Q1011 NOSIG
ZJHK,2020-09-08 17:00,ZJHK 081700Z 11002MPS 8000 NSC 27/26 Q1010 NOSIG
ZJHK,2020-09-08 18:00,ZJHK 081800Z 12002MPS 6000 NSC 27/26 Q1010 NOSIG
ZJHK,2020-09-08 19:00,ZJHK 081900Z 14003MPS 6000 FEW003 27/26 Q1009 NOSIG
ZJHK,2020-09-08 20:00,ZJHK 082000Z 12002MPS 8000 NSC 26/25 Q1009 NOSIG
ZJHK,2020-09-08 21:00,ZJHK 082100Z 13001MPS CAVOK 26/25 Q1009 NOSIG
ZJHK,2020-09-08 22:00,ZJHK 082200Z 11001MPS CAVOK 26/25 Q1010 NOSIG
ZJHK,2020-09-08 23:00,ZJHK 082300Z 13002MPS CAVOK 26/25 Q1010 NOSIG
ZJHK,2020-09-09 00:00,ZJHK 090000Z 12002MPS CAVOK 27/26 Q1011 NOSIG
ZJHK,2020-09-09 01:00,ZJHK 090100Z 14002MPS 080V190 CAVOK 29/27 Q1011 NOSIG
ZJHK,2020-09-09 02:00,ZJHK 090200Z 18003MPS 150V220 9999 SCT020 31/26 Q1011 NOSIG
ZJHK,2020-09-09 03:00,ZJHK 090300Z 24004MPS 210V270 9999 FEW026TCU SCT026 32/25 Q1011 NOSIG
ZJHK,2020-09-09 04:00,ZJHK 090400Z 19003MPS 150V250 9999 FEW023 SCT026CB 31/25 Q1010 NOSIG
ZJHK,2020-09-09 05:00,ZJHK 090500Z VRB01MPS 9999 SCT026CB 30/26 Q1009 RETS NOSIG
ZJHK,2020-09-09 06:00,ZJHK 090600Z 31005MPS 280V340 5000 TSRA BKN026CB 26/23 Q1009 BECMG AT0700 -SHRA
ZJHK,2020-09-09 07:00,ZJHK 090700Z 13002MPS 100V180 9999 FEW026TCU SCT033 28/24 Q1008 RETSRA NOSIG
ZJHK,2020-09-09 08:00,ZJHK 090800Z 19002MPS 160V220 9999 FEW033 28/24 Q1008 NOSIG
ZJHK,2020-09-09 09:00,ZJHK 090900Z 24002MPS 210V290 CAVOK 29/25 Q1007 NOSIG
ZJHK,2020-09-09 10:00,ZJHK 091000Z 19002MPS 150V230 CAVOK 28/26 Q1007 NOSIG
ZJHK,2020-09-09 11:00,ZJHK 091100Z VRB01MPS CAVOK 28/26 Q1007 NOSIG
ZJHK,2020-09-09 12:00,ZJHK 091200Z 20001MPS CAVOK 27/25 Q1007 NOSIG
ZJHK,2020-09-09 13:00,ZJHK 091300Z 26001MPS 9999 FEW020 27/25 Q1008 NOSIG
ZJHK,2020-09-09 14:00,ZJHK 091400Z VRB01MPS CAVOK 27/25 Q1009 NOSIG
ZJHK,2020-09-09 15:00,ZJHK 091500Z 24001MPS CAVOK 26/25 Q1009 NOSIG
ZJHK,2020-09-09 16:00,ZJHK 091600Z VRB01MPS CAVOK 26/25 Q1009 NOSIG
ZJHK,2020-09-09 17:00,ZJHK 091700Z VRB01MPS CAVOK 26/25 Q1008 NOSIG
ZJHK,2020-09-09 18:00,ZJHK 091800Z 12001MPS CAVOK 26/25 Q1008 NOSIG
ZJHK,2020-09-09 19:00,ZJHK 091900Z 14001MPS CAVOK 26/25 Q1007 NOSIG
ZJHK,2020-09-09 20:00,ZJHK 092000Z 16002MPS CAVOK 26/25 Q1006 NOSIG
ZJHK,2020-09-09 21:00,ZJHK 092100Z 16002MPS CAVOK 25/24 Q1006 NOSIG
ZJHK,2020-09-09 22:00,ZJHK 092200Z 18003MPS CAVOK 26/24 Q1007 NOSIG
ZJHK,2020-09-09 23:00,ZJHK 092300Z VRB01MPS CAVOK 26/25 Q1007 NOSIG
ZJHK,2020-09-10 00:00,ZJHK 100000Z 21003MPS 180V250 CAVOK 27/25 Q1008 NOSIG
ZJHK,2020-09-10 01:00,ZJHK 100100Z 21003MPS 180V260 CAVOK 29/25 Q1008 NOSIG
ZJHK,2020-09-10 02:00,ZJHK 100200Z 22003MPS 170V260 CAVOK 31/25 Q1008 NOSIG
ZJHK,2020-09-10 03:00,ZJHK 100300Z 21003MPS 170V270 9999 FEW026 32/25 Q1008 NOSIG
ZJHK,2020-09-10 04:00,ZJHK 100400Z VRB03MPS 9999 SCT026 33/24 Q1007 NOSIG
ZJHK,2020-09-10 05:00,ZJHK 100500Z 33004MPS 290V010 9999 SCT026 33/24 Q1006 NOSIG
ZJHK,2020-09-10 06:00,ZJHK 100600Z 32003MPS 280V360 9999 FEW026TCU FEW026 34/23 Q1005 NOSIG
ZJHK,2020-09-10 07:00,ZJHK 100700Z VRB02MPS 9999 FEW026TCU FEW026 35/22 Q1005 NOSIG
ZJHK,2020-09-10 08:00,ZJHK 100800Z 15005MPS 120V180 9999 FEW026CB FEW026 31/25 Q1004 NOSIG
ZJHK,2020-09-10 09:00,ZJHK 100900Z 15005MPS 120V200 9999 FEW026 30/24 Q1004 NOSIG
ZJHK,2020-09-10 10:00,ZJHK 101000Z 22003MPS 200V260 9999 FEW026 28/23 Q1005 NOSIG
ZJHK,2020-09-10 11:00,ZJHK 101100Z VRB01MPS CAVOK 27/24 Q1005 NOSIG
ZJHK,2020-09-10 12:00,ZJHK 101200Z 17003MPS CAVOK 27/23 Q1005 NOSIG
ZJHK,2020-09-10 13:00,ZJHK 101300Z 20002MPS 160V230 CAVOK 26/24 Q1007 NOSIG
ZJHK,2020-09-10 14:00,ZJHK 101400Z 17002MPS CAVOK 26/24 Q1007 NOSIG
ZJHK,2020-09-10 15:00,ZJHK 101500Z VRB01MPS CAVOK 25/24 Q1007 NOSIG
ZJHK,2020-09-10 16:00,ZJHK 101600Z VRB01MPS CAVOK 26/23 Q1007 NOSIG
ZJHK,2020-09-10 17:00,ZJHK 101700Z 18002MPS CAVOK 26/23 Q1007 NOSIG
ZJHK,2020-09-10 18:00,ZJHK 101800Z 16002MPS 140V200 CAVOK 25/24 Q1006 NOSIG
ZJHK,2020-09-10 19:00,ZJHK 101900Z 16002MPS 130V190 CAVOK 26/24 Q1006 NOSIG
ZJHK,2020-09-10 20:00,ZJHK 102000Z 19002MPS 160V220 CAVOK 26/24 Q1006 NOSIG
ZJHK,2020-09-10 21:00,ZJHK 102100Z 20002MPS 150V240 CAVOK 26/24 Q1006 NOSIG
ZJHK,2020-09-10 22:00,ZJHK 102200Z 20002MPS 170V240 CAVOK 26/24 Q1007 NOSIG
ZJHK,2020-09-10 23:00,ZJHK 102300Z VRB01MPS CAVOK 25/24 Q1007 NOSIG
ZJHK,2020-09-11 00:00,ZJHK 110000Z 18003MPS 150V210 CAVOK 27/25 Q1008 NOSIG
ZJHK,2020-09-11 01:00,ZJHK 110100Z 20004MPS 160V240 9999 FEW040 29/25 Q1009 NOSIG
ZJHK,2020-09-11 02:00,ZJHK 110200Z 22003MPS 180V260 9999 FEW020 31/25 Q1009 NOSIG
ZJHK,2020-09-11 03:00,ZJHK 110300Z 22004MPS 190V260 9999 FEW023 32/24 Q1008 NOSIG
ZJHK,2020-09-11 04:00,ZJHK 110400Z 23003MPS 190V290 9999 FEW023 33/24 Q1008 NOSIG
ZJHK,2020-09-11 05:00,ZJHK 110500Z 24003MPS 180V280 9999 FEW030 34/24 Q1007 NOSIG
ZJHK,2020-09-11 06:00,ZJHK 110600Z VRB02MPS 9999 SCT040 35/24 Q1007 NOSIG
ZJHK,2020-09-11 07:00,ZJHK 110700Z VRB02MPS 9999 FEW040TCU SCT040 35/23 Q1006 NOSIG
ZJHK,2020-09-11 08:00,ZJHK 110800Z VRB02MPS 9999 FEW040TCU FEW040 35/23 Q1005 NOSIG
ZJHK,2020-09-11 09:00,ZJHK 110900Z 03004MPS 9999 FEW040TCU FEW040 34/22 Q1005 NOSIG
ZJHK,2020-09-11 10:00,ZJHK 111000Z 14004MPS 110V190 9999 FEW040CB FEW040 31/26 Q1005 BECMG AT1010 -TSRA
ZJHK,2020-09-11 11:00,ZJHK 111100Z 14002MPS 9999 -SHRA FEW040CB FEW040 30/25 Q1007 NOSIG
ZJHK,2020-09-11 12:00,ZJHK 111200Z 14002MPS CAVOK 29/26 Q1007 NOSIG
ZJHK,2020-09-11 13:00,ZJHK 111300Z 14002MPS 110V170 CAVOK 29/26 Q1008 NOSIG
ZJHK,2020-09-11 14:00,ZJHK 111400Z 17002MPS 140V210 CAVOK 29/26 Q1009 NOSIG
ZJHK,2020-09-11 15:00,ZJHK 111500Z 17002MPS 130V200 9999 FEW046 28/26 Q1010 NOSIG
ZJHK,2020-09-11 16:00,ZJHK 111600Z 15003MPS 130V190 9999 SCT046 28/26 Q1010 NOSIG
ZJHK,2020-09-11 17:00,ZJHK 111700Z 16002MPS CAVOK 28/26 Q1009 NOSIG
ZJHK,2020-09-11 18:00,ZJHK 111800Z 17003MPS 130V190 CAVOK 28/26 Q1009 NOSIG
ZJHK,2020-09-11 19:00,ZJHK 111900Z 18002MPS 160V230 CAVOK 27/26 Q1009 NOSIG
ZJHK,2020-09-11 20:00,ZJHK 112000Z 18002MPS CAVOK 27/25 Q1009 NOSIG
ZJHK,2020-09-11 21:00,ZJHK 112100Z VRB01MPS CAVOK 27/25 Q1009 NOSIG
ZJHK,2020-09-11 22:00,ZJHK 112200Z 18002MPS CAVOK 27/25 Q1009 NOSIG
ZJHK,2020-09-11 23:00,ZJHK 112300Z 15002MPS 110V190 CAVOK 27/25 Q1009 NOSIG
ZJHK,2020-09-12 00:00,ZJHK 120000Z 18002MPS 140V220 CAVOK 28/26 Q1010 NOSIG
ZJHK,2020-09-12 01:00,ZJHK 120100Z 21003MPS 160V250 CAVOK 30/26 Q1010 NOSIG
ZJHK,2020-09-12 02:00,ZJHK 120200Z 20003MPS 160V240 9999 FEW020 31/26 Q1011 NOSIG
ZJHK,2020-09-12 03:00,ZJHK 120300Z 21003MPS 160V260 9999 FEW023 33/26 Q1011 NOSIG
ZJHK,2020-09-12 04:00,ZJHK 120400Z 19003MPS 160V250 9999 FEW030TCU SCT030 33/25 Q1010 NOSIG
ZJHK,2020-09-12 05:00,ZJHK 120500Z 18002MPS 130V230 9999 FEW030TCU SCT030 33/25 Q1010 NOSIG
ZJHK,2020-09-12 06:00,ZJHK 120600Z 21002MPS 170V290 9999 FEW033TCU SCT033 34/23 Q1009 NOSIG
ZJHK,2020-09-12 07:00,ZJHK 120700Z 02004MPS 350V050 9999 FEW033TCU FEW033 33/25 Q1009 NOSIG
ZJHK,2020-09-12 08:00,ZJHK 120800Z 35003MPS 300V050 9999 FEW033CB FEW033 33/25 Q1008 BECMG AT0830 -TSRA
ZJHK,2020-09-12 09:00,ZJHK 120900Z 13006MPS 1600 R09/0700V1300D +TSRA BKN023CB 25/23 Q1010 BECMG AT0930 4000 -TSRA
ZJHK,2020-09-12 10:00,ZJHK 121000Z 12002MPS 080V160 9999 FEW023CB SCT033 27/26 Q1009 RETSRA NOSIG
ZJHK,2020-09-12 11:00,ZJHK 121100Z 19001MPS 9999 FEW023CB SCT040 27/26 Q1010 NOSIG
ZJHK,2020-09-12 12:00,ZJHK 121200Z 00000MPS 9999 FEW040 27/25 Q1010 NOSIG
ZJHK,2020-09-12 13:00,ZJHK 121300Z 15001MPS 9999 FEW040 27/26 Q1011 NOSIG
ZJHK,2020-09-12 14:00,ZJHK 121400Z 13002MPS CAVOK 27/26 Q1012 NOSIG
ZJHK,2020-09-12 15:00,ZJHK 121500Z 14001MPS 9999 FEW026 27/25 Q1012 NOSIG
ZJHK,2020-09-12 16:00,ZJHK 121600Z 14001MPS 9999 FEW026 27/26 Q1012 NOSIG
ZJHK,2020-09-12 17:00,ZJHK 121700Z 13001MPS 9999 FEW020 27/26 Q1011 NOSIG
ZJHK,2020-09-12 18:00,ZJHK 121800Z 14001MPS CAVOK 26/25 Q1011 NOSIG
ZJHK,2020-09-12 19:00,ZJHK 121900Z 27002MPS 9999 FEW020 26/26 Q1010 NOSIG
ZJHK,2020-09-12 20:00,ZJHK 122000Z 13001MPS 9999 FEW020 26/26 Q1010 NOSIG
ZJHK,2020-09-12 21:00,ZJHK 122100Z 12001MPS 8000 NSC 26/25 Q1010 NOSIG
ZJHK,2020-09-12 22:00,ZJHK 122200Z 00000MPS 8000 NSC 26/25 Q1010 NOSIG
ZJHK,2020-09-12 23:00,ZJHK 122300Z 14001MPS 7000 FEW013 26/25 Q1010 NOSIG
ZJHK,2020-09-13 00:00,ZJHK 130000Z 12002MPS CAVOK 28/27 Q1011 NOSIG
ZJHK,2020-09-13 01:00,ZJHK 130100Z 14002MPS 100V190 9999 FEW016 30/27 Q1012 NOSIG
ZJHK,2020-09-13 02:00,ZJHK 130200Z 16002MPS 120V200 9999 SCT016 30/27 Q1012 NOSIG
ZJHK,2020-09-13 03:00,ZJHK 130300Z 16002MPS 110V210 9999 SCT020 31/26 Q1012 NOSIG
ZJHK,2020-09-13 04:00,ZJHK 130400Z 14002MPS 110V180 9999 FEW023TCU SCT023 32/25 Q1011 BECMG TL0500 -TSRA
ZJHK,2020-09-13 05:00,ZJHK 130500Z VRB02MPS 9999 FEW023TCU SCT023 33/25 Q1010 BECMG TL0520 -TSRA
ZJHK,2020-09-13 06:00,ZJHK 130600Z 12003MPS 9999 FEW026CB SCT026 29/25 Q1010 BECMG TL0700 -TSRA
ZJHK,2020-09-13 07:00,ZJHK 130700Z 11004MPS 080V140 9999 FEW026 28/25 Q1009 NOSIG
ZJHK,2020-09-13 08:00,ZJHK 130800Z 11003MPS 9999 -SHRA SCT033 28/26 Q1009 NOSIG
ZJHK,2020-09-13 09:00,ZJHK 130900Z 10003MPS CAVOK 29/26 Q1009 NOSIG
ZJHK,2020-09-13 10:00,ZJHK 131000Z 11003MPS CAVOK 28/25 Q1009 NOSIG
ZJHK,2020-09-13 11:00,ZJHK 131100Z 14002MPS 110V170 CAVOK 27/25 Q1009 NOSIG
ZJHK,2020-09-13 12:00,ZJHK 131200Z 14001MPS CAVOK 27/25 Q1010 NOSIG
ZJHK,2020-09-13 13:00,ZJHK 131300Z 11002MPS CAVOK 26/25 Q1011 NOSIG
ZJHK,2020-09-13 14:00,ZJHK 131400Z 11002MPS CAVOK 26/25 Q1011 NOSIG
ZJHK,2020-09-13 15:00,ZJHK 131500Z 11001MPS CAVOK 26/25 Q1011 NOSIG
ZJHK,2020-09-13 16:00,ZJHK 131600Z 13002MPS CAVOK 26/25 Q1011 NOSIG
ZJHK,2020-09-13 17:00,ZJHK 131700Z 00000MPS CAVOK 26/25 Q1011 NOSIG
ZJHK,2020-09-13 18:00,ZJHK 131800Z 26002MPS 9999 FEW016 26/25 Q1010 NOSIG
ZJHK,2020-09-13 19:00,ZJHK 131900Z 00000MPS 9999 SCT015 26/25 Q1009 NOSIG
ZJHK,2020-09-13 20:00,ZJHK 132000Z 00000MPS 9999 FEW015 26/25 Q1009 NOSIG
ZJHK,2020-09-13 21:00,ZJHK 132100Z 00000MPS 9999 -SHRA NSC 26/25 Q1009 NOSIG
ZJHK,2020-09-13 22:00,ZJHK 132200Z 00000MPS CAVOK 26/25 Q1009 NOSIG
ZJHK,2020-09-13 23:00,ZJHK 132300Z 15001MPS CAVOK 25/25 Q1009 NOSIG
ZJHK,2020-09-14 00:00,ZJHK 140000Z 12002MPS 100V180 CAVOK 26/26 Q1010 NOSIG
ZJHK,2020-09-14 01:00,ZJHK 140100Z 10002MPS 080V140 CAVOK 29/26 Q1011 NOSIG
ZJHK,2020-09-14 02:00,ZJHK 140200Z 05003MPS 020V090 9999 BKN020 31/26 Q1010 NOSIG
ZJHK,2020-09-14 03:00,ZJHK 140300Z 04003MPS 350V090 9999 FEW020TCU BKN023 31/25 Q1010 NOSIG
ZJHK,2020-09-14 04:00,ZJHK 140400Z 03004MPS 340V070 9999 FEW020TCU BKN023 31/26 Q1010 NOSIG
ZJHK,2020-09-14 05:00,ZJHK 140500Z 02005MPS 9999 SCT020CB SCT023 30/26 Q1009 NOSIG
ZJHK,2020-09-14 06:00,ZJHK 140600Z 24004MPS 210V270 9999 TS SCT016 SCT020CB 26/24 Q1009 BECMG AT0640 NSW
ZJHK,2020-09-14 07:00,ZJHK 140700Z 27002MPS 210V310 9999 FEW020TCU SCT023 29/25 Q1008 RETS NOSIG
ZJHK,2020-09-14 08:00,ZJHK 140800Z 27003MPS 230V300 9999 FEW023TCU FEW023 30/26 Q1007 NOSIG
ZJHK,2020-09-14 09:00,ZJHK 140900Z 22002MPS 190V270 9999 -TSRA FEW013 SCT020 FEW026CB 29/26 Q1007 BECMG AT1000 NSW
ZJHK,2020-09-14 10:00,ZJHK 141000Z 14003MPS 100V160 6000 -SHRA FEW013 FEW026CB BKN046 25/24 Q1008 RETSRA NOSIG
ZJHK,2020-09-14 11:00,ZJHK 141100Z 14002MPS 9999 FEW046 26/25 Q1008 NOSIG
ZJHK,2020-09-14 12:00,ZJHK 141200Z 00000MPS 9999 FEW046 26/25 Q1008 NOSIG
ZJHK,2020-09-14 13:00,ZJHK 141300Z 12001MPS 9999 FEW046 26/25 Q1009 NOSIG
ZJHK,2020-09-14 14:00,ZJHK 141400Z 00000MPS CAVOK 25/25 Q1009 NOSIG
ZJHK,2020-09-14 15:00,ZJHK 141500Z 16001MPS CAVOK 25/25 Q1009 NOSIG
ZJHK,2020-09-14 16:00,ZJHK 141600Z VRB01MPS CAVOK 26/25 Q1009 NOSIG
ZJHK,2020-09-14 17:00,ZJHK 141700Z VRB01MPS 9999 FEW004 25/25 Q1009 NOSIG
ZJHK,2020-09-14 18:00,ZJHK 141800Z 21002MPS 6000 BCFG SCT004 26/25 Q1009 NOSIG
ZJHK,2020-09-14 19:00,ZJHK 141900Z 26002MPS 7000 FEW004 25/25 Q1008 NOSIG
ZJHK,2020-09-14 20:00,ZJHK 142000Z 00000MPS 9000 FEW004 25/25 Q1008 NOSIG
ZJHK,2020-09-14 21:00,ZJHK 142100Z 25001MPS 8000 NSC 25/24 Q1008 NOSIG
ZJHK,2020-09-14 22:00,ZJHK 142200Z VRB01MPS 9000 NSC 25/24 Q1008 NOSIG
ZJHK,2020-09-14 23:00,ZJHK 142300Z 24001MPS 9000 NSC 25/24 Q1009 NOSIG
ZJHK,2020-09-15 00:00,ZJHK 150000Z VRB01MPS CAVOK 26/26 Q1009 NOSIG
ZJHK,2020-09-15 01:00,ZJHK 150100Z VRB01MPS 9999 FEW020 29/27 Q1009 NOSIG
ZJHK,2020-09-15 02:00,ZJHK 150200Z VRB01MPS 9999 SCT020 31/26 Q1009 NOSIG
ZJHK,2020-09-15 03:00,ZJHK 150300Z 20002MPS 140V230 9999 FEW023TCU FEW023 32/25 Q1009 NOSIG
ZJHK,2020-09-15 04:00,ZJHK 150400Z 36006MPS 320V020 9999 SCT023 SCT030CB 30/26 Q1009 BECMG TSRA
ZJHK,2020-09-15 05:00,ZJHK 150500Z 02003MPS 310V050 9999 FEW030TCU SCT030 30/25 Q1008 NOSIG
ZJHK,2020-09-15 06:00,ZJHK 150600Z 03002MPS 330V100 9999 FEW030TCU FEW030 31/26 Q1007 NOSIG
ZJHK,2020-09-15 07:00,ZJHK 150700Z 35003MPS 310V030 9999 FEW026 FEW030TCU 31/26 Q1006 NOSIG
ZJHK,2020-09-15 08:00,ZJHK 150800Z 36004MPS 320V130 9999 FEW026 FEW030TCU 31/25 Q1006 NOSIG
ZJHK,2020-09-15 09:00,ZJHK 150900Z 02004MPS 350V050 9999 FEW030TCU FEW030 30/25 Q1006 NOSIG
ZJHK,2020-09-15 10:00,ZJHK 151000Z 02003MPS 350V060 9999 FEW030TCU FEW030 30/25 Q1006 NOSIG
ZJHK,2020-09-15 11:00,ZJHK 151100Z 05003MPS 020V080 CAVOK 29/25 Q1006 NOSIG
ZJHK,2020-09-15 12:00,ZJHK 151200Z 12002MPS CAVOK 28/25 Q1007 NOSIG
ZJHK,2020-09-15 13:00,ZJHK 151300Z 11002MPS CAVOK 27/25 Q1007 NOSIG
ZJHK,2020-09-15 14:00,ZJHK 151400Z VRB01MPS CAVOK 26/25 Q1008 NOSIG
ZJHK,2020-09-15 15:00,ZJHK 151500Z 18001MPS CAVOK 26/25 Q1008 NOSIG
ZJHK,2020-09-15 16:00,ZJHK 151600Z 26001MPS CAVOK 26/25 Q1008 NOSIG
ZJHK,2020-09-15 17:00,ZJHK 151700Z 00000MPS CAVOK 26/25 Q1008 NOSIG
ZJHK,2020-09-15 18:00,ZJHK 151800Z 00000MPS CAVOK 26/25 Q1008 NOSIG
ZJHK,2020-09-15 19:00,ZJHK 151900Z 00000MPS CAVOK 26/25 Q1007 NOSIG
ZJHK,2020-09-15 20:00,ZJHK 152000Z 15001MPS CAVOK 25/25 Q1007 NOSIG
ZJHK,2020-09-15 21:00,ZJHK 152100Z 00000MPS CAVOK 25/25 Q1007 NOSIG
ZJHK,2020-09-15 22:00,ZJHK 152200Z 27001MPS 8000 NSC 25/24 Q1007 NOSIG
ZJHK,2020-09-15 23:00,ZJHK 152300Z 24001MPS 9000 NSC 26/25 Q1007 NOSIG
ZJHK,2020-09-16 00:00,ZJHK 160000Z 00000MPS CAVOK 28/27 Q1008 NOSIG
ZJHK,2020-09-16 01:00,ZJHK 160100Z VRB01MPS 9999 FEW016 30/27 Q1008 NOSIG
ZJHK,2020-09-16 02:00,ZJHK 160200Z 18002MPS 130V250 9999 SCT020 31/26 Q1009 NOSIG
ZJHK,2020-09-16 03:00,ZJHK 160300Z VRB01MPS 9999 SCT026 32/24 Q1008 NOSIG
ZJHK,2020-09-16 04:00,ZJHK 160400Z 10001MPS 9999 FEW026TCU BKN026 32/25 Q1008 NOSIG
ZJHK,2020-09-16 05:00,ZJHK 160500Z 03003MPS 340V100 9999 FEW026TCU SCT026 33/26 Q1007 NOSIG
ZJHK,2020-09-16 06:00,ZJHK 160600Z 05004MPS 020V080 9999 FEW026 33/26 Q1006 NOSIG
ZJHK,2020-09-16 07:00,ZJHK 160700Z 04005MPS 9999 FEW026 33/25 Q1005 NOSIG
ZJHK,2020-09-16 08:00,ZJHK 160800Z 04005MPS 010V070 9999 FEW026 33/25 Q1005 NOSIG
ZJHK,2020-09-16 09:00,ZJHK 160900Z 04005MPS 010V070 CAVOK 32/26 Q1004 NOSIG
ZJHK,2020-09-16 10:00,ZJHK 161000Z 08005MPS CAVOK 31/25 Q1004 NOSIG
ZJHK,2020-09-16 11:00,ZJHK 161100Z 07005MPS CAVOK 29/25 Q1005 NOSIG
ZJHK,2020-09-16 12:00,ZJHK 161200Z 07004MPS CAVOK 29/26 Q1005 NOSIG
ZJHK,2020-09-16 13:00,ZJHK 161300Z 06004MPS CAVOK 29/26 Q1006 NOSIG
ZJHK,2020-09-16 14:00,ZJHK 161400Z 07004MPS CAVOK 29/26 Q1007 NOSIG
ZJHK,2020-09-16 15:00,ZJHK 161500Z 06004MPS 030V090 CAVOK 29/26 Q1007 NOSIG
ZJHK,2020-09-16 16:00,ZJHK 161600Z 05003MPS 020V080 CAVOK 29/26 Q1007 NOSIG
ZJHK,2020-09-16 17:00,ZJHK 161700Z 03002MPS 360V060 CAVOK 28/26 Q1006 NOSIG
ZJHK,2020-09-16 18:00,ZJHK 161800Z 03002MPS 360V060 CAVOK 28/26 Q1006 NOSIG
ZJHK,2020-09-16 19:00,ZJHK 161900Z 04002MPS 9999 FEW023 28/26 Q1005 NOSIG
ZJHK,2020-09-16 20:00,ZJHK 162000Z 05003MPS 9999 SCT013 28/26 Q1004 NOSIG
ZJHK,2020-09-16 21:00,ZJHK 162100Z 05003MPS 9999 FEW013 28/26 Q1004 NOSIG
ZJHK,2020-09-16 22:00,ZJHK 162200Z VRB01MPS CAVOK 27/26 Q1004 NOSIG
ZJHK,2020-09-16 23:00,ZJHK 162300Z 04003MPS 010V080 CAVOK 28/26 Q1004 NOSIG
ZJHK,2020-09-17 00:00,ZJHK 170000Z 06005MPS 9999 -SHRA FEW030 29/26 Q1004 NOSIG
ZJHK,2020-09-17 01:00,ZJHK 170100Z 06004MPS 9999 SCT016 FEW023TCU 29/26 Q1005 NOSIG
ZJHK,2020-09-17 02:00,ZJHK 170200Z 12005MPS 1500 R09/1300D +SHRA SCT010 SCT020CB BKN026 26/25 Q1006 BECMG TL0220 5000 -SHRA
ZJHK,2020-09-17 03:00,ZJHK 170300Z 06005MPS 9999 FEW020TCU SCT040 28/27 Q1005 RESHRA NOSIG
ZJHK,2020-09-17 04:00,ZJHK 170400Z 06005MPS 9999 FEW020TCU 29/26 Q1004 NOSIG
ZJHK,2020-09-17 05:00,ZJHK 170500Z 05006MPS 9999 SCT013 FEW020TCU SCT026 30/26 Q1004 NOSIG
ZJHK,2020-09-17 06:00,ZJHK 170600Z 05006MPS 020V080 9999 FEW013 SCT026 30/27 Q1003 NOSIG
ZJHK,2020-09-17 07:00,ZJHK 170700Z 05006MPS 9999 SCT013 SCT020 FEW023TCU 30/27 Q1002 NOSIG
ZJHK,2020-09-17 08:00,ZJHK 170800Z 06007MPS 9999 SCT013 SCT020 FEW030TCU 30/27 Q1002 NOSIG
ZJHK,2020-09-17 09:00,ZJHK 170900Z 05006MPS 9999 -SHRA SCT013 FEW020TCU SCT020 28/26 Q1002 NOSIG
ZJHK,2020-09-17 10:00,ZJHK 171000Z 06005MPS 9999 -SHRA SCT010 FEW020CB SCT026 28/27 Q1002 NOSIG
ZJHK,2020-09-17 11:00,ZJHK 171100Z 07008MPS 7000 -TSRA SCT010 SCT020 SCT023CB 28/26 Q1002 BECMG TL1200 -SHRA
ZJHK,2020-09-17 12:00,ZJHK 171200Z 07005MPS 9999 SCT040 27/26 Q1003 RETS NOSIG
ZJHK,2020-09-17 13:00,ZJHK 171300Z 04005MPS CAVOK 28/26 Q1004 NOSIG
ZJHK,2020-09-17 14:00,ZJHK 171400Z 04004MPS 9999 FEW023TCU 28/26 Q1005 NOSIG
ZJHK,2020-09-17 15:00,ZJHK 171500Z 05005MPS 9999 TS FEW020CB SCT020 28/26 Q1005 NOSIG
ZJHK,2020-09-17 16:00,ZJHK 171600Z 05006MPS 9999 SCT010 FEW020TCU BKN026 29/26 Q1004 RETS NOSIG
ZJHK,2020-09-17 17:00,ZJHK 171700Z 06009MPS 9999 FEW010 FEW020TCU 28/26 Q1003 NOSIG
ZJHK,2020-09-17 18:00,ZJHK 171800Z 06006MPS 9999 FEW013 BKN020 28/26 Q1003 NOSIG
ZJHK,2020-09-17 19:00,ZJHK 171900Z 07007MPS 9999 SCT013 SCT020 28/26 Q1002 NOSIG
ZJHK,2020-09-17 20:00,ZJHK 172000Z 08008MPS 5000 SHRA SCT012 SCT020 FEW023CB 28/26 Q1003 NOSIG
ZJHK,2020-09-17 21:00,ZJHK 172100Z 08006MPS 5000 TSRA SCT010 SCT020 SCT023CB 26/25 Q1003 BECMG TL2230 -SHRA
ZJHK,2020-09-17 22:00,ZJHK 172200Z 07006MPS 8000 -TSRA SCT010 SCT020 FEW023CB 26/25 Q1003 RESHRA BECMG TL2230 -SHRA
ZJHK,2020-09-17 23:00,ZJHK 172300Z 08008MPS 7000 -SHRA SCT010 SCT020 FEW023TCU 27/26 Q1003 RETS NOSIG
ZJHK,2020-09-18 00:00,ZJHK 180000Z 08007MPS 9999 SCT010 FEW023TCU 28/26 Q1003 NOSIG
ZJHK,2020-09-18 01:00,ZJHK 180100Z 09006MPS 9999 SCT012 FEW023TCU SCT023 28/27 Q1004 NOSIG
ZJHK,2020-09-18 02:00,ZJHK 180200Z 11006MPS 080V140 6000 SHRA SCT012 FEW023TCU BKN023 30/27 Q1004 BECMG AT0300 2500 TSRA
ZJHK,2020-09-18 03:00,ZJHK 180300Z 10007G12MPS 5000 TSRA SCT012 SCT023CB SCT023 26/25 Q1005 BECMG AT0400 -SHRA
ZJHK,2020-09-18 04:00,ZJHK 180400Z 12005MPS 9999 -SHRA SCT012 FEW023CB BKN023 26/25 Q1005 RETSRA BECMG SHRA
ZJHK,2020-09-18 05:00,ZJHK 180500Z 11003MPS 9999 SCT009 FEW023CB FEW023 26/25 Q1004 RETS NOSIG
ZJHK,2020-09-18 06:00,ZJHK 180600Z 12004MPS 9999 FEW008 FEW023TCU 27/26 Q1003 NOSIG
ZJHK,2020-09-18 07:00,ZJHK 180700Z 12004MPS 100V170 8000 -SHRA FEW030TCU FEW030 27/25 Q1003 NOSIG
ZJHK,2020-09-18 08:00,ZJHK 180800Z 09003MPS 9999 FEW007 27/26 Q1003 NOSIG
ZJHK,2020-09-18 09:00,ZJHK 180900Z 10005MPS 9999 FEW009 27/26 Q1003 NOSIG
ZJHK,2020-09-18 10:00,ZJHK 181000Z 10004MPS 9999 FEW010 SCT033 27/26 Q1003 NOSIG
ZJHK,2020-09-18 11:00,ZJHK 181100Z 11003MPS 9999 FEW040 27/25 Q1004 NOSIG
ZJHK,2020-09-18 12:00,ZJHK 181200Z 10003MPS 9999 FEW040 26/25 Q1005 NOSIG
ZJHK,2020-09-18 13:00,ZJHK 181300Z 11003MPS CAVOK 26/25 Q1006 NOSIG
ZJHK,2020-09-18 14:00,ZJHK 181400Z 10003MPS CAVOK 26/25 Q1007 NOSIG
ZJHK,2020-09-18 15:00,ZJHK 181500Z 12003MPS 9999 FEW020 26/25 Q1007 NOSIG
ZJHK,2020-09-18 16:00,ZJHK 181600Z 09003MPS CAVOK 26/25 Q1007 NOSIG
ZJHK,2020-09-18 17:00,ZJHK 181700Z 11002MPS CAVOK 26/25 Q1007 NOSIG
ZJHK,2020-09-18 18:00,ZJHK 181800Z 10002MPS 9999 FEW020 26/25 Q1006 NOSIG
ZJHK,2020-09-18 19:00,ZJHK 181900Z 18002MPS 100V230 9999 FEW020TCU SCT026 26/25 Q1006 NOSIG
ZJHK,2020-09-18 20:00,ZJHK 182000Z 10003MPS 9999 FEW020TCU SCT026 26/25 Q1006 NOSIG
ZJHK,2020-09-18 21:00,ZJHK 182100Z 10002MPS 9999 SCT046 26/25 Q1006 NOSIG
ZJHK,2020-09-18 22:00,ZJHK 182200Z 13003MPS 100V170 9999 SCT046 26/25 Q1007 NOSIG
ZJHK,2020-09-18 23:00,ZJHK 182300Z 13002MPS 100V160 9999 SCT046 26/25 Q1007 NOSIG
ZJHK,2020-09-19 00:00,ZJHK 190000Z 11002MPS 080V140 9999 SCT046 26/25 Q1008 NOSIG
ZJHK,2020-09-19 01:00,ZJHK 190100Z 12003MPS 100V160 9999 FEW016 SCT046 27/26 Q1009 NOSIG
ZJHK,2020-09-19 02:00,ZJHK 190200Z 18003MPS 140V220 9999 -SHRA SCT013 BKN040 26/24 Q1010 NOSIG
ZJHK,2020-09-19 03:00,ZJHK 190300Z 14003MPS 100V180 9999 FEW013 SCT030 27/25 Q1010 NOSIG
ZJHK,2020-09-19 04:00,ZJHK 190400Z 16004MPS 130V190 9999 FEW013 SCT030 28/25 Q1010 NOSIG
ZJHK,2020-09-19 05:00,ZJHK 190500Z 13004MPS 100V160 9999 -SHRA FEW013 FEW030TCU SCT033 27/25 Q1009 NOSIG
ZJHK,2020-09-19 06:00,ZJHK 190600Z 11003MPS 080V150 9999 -RA NSC 26/25 Q1008 NOSIG
ZJHK,2020-09-19 07:00,ZJHK 190700Z 11003MPS 080V140 9999 BKN013 26/25 Q1008 BECMG TL0810 SHRA BKN012 FEW026CB
ZJHK,2020-09-19 08:00,ZJHK 190800Z 12004MPS 9999 -RA SCT010 SCT026 26/25 Q1008 NOSIG
ZJHK,2020-09-19 09:00,ZJHK 190900Z 11003MPS 080V140 9999 -RA SCT010 BKN026 25/24 Q1007 NOSIG
ZJHK,2020-09-19 10:00,ZJHK 191000Z 10003MPS 9999 -RA SCT010 BKN026 25/25 Q1008 NOSIG
ZJHK,2020-09-19 11:00,ZJHK 191100Z 13003MPS 9999 FEW010 SCT026 26/25 Q1008 NOSIG
ZJHK,2020-09-19 12:00,ZJHK 191200Z 13003MPS 9999 FEW010 SCT026 25/24 Q1009 NOSIG
ZJHK,2020-09-19 13:00,ZJHK 191300Z 12002MPS 9999 -RA SCT030 25/24 Q1009 NOSIG
ZJHK,2020-09-19 14:00,ZJHK 191400Z 11002MPS 9999 SCT030 25/24 Q1009 NOSIG
ZJHK,2020-09-19 15:00,ZJHK 191500Z 12002MPS 9999 SCT010 25/25 Q1010 NOSIG
ZJHK,2020-09-19 16:00,ZJHK 191600Z 10003MPS 9999 -RA FEW003 SCT015 26/25 Q1010 NOSIG
ZJHK,2020-09-19 17:00,ZJHK 191700Z 11002MPS CAVOK 25/25 Q1009 NOSIG
ZJHK,2020-09-19 18:00,ZJHK 191800Z 12003MPS 9999 -SHRA FEW003 SCT013 FEW026CB 26/25 Q1009 NOSIG
ZJHK,2020-09-19 19:00,ZJHK 191900Z 18004G09MPS 130V220 9999 -SHRA SCT006 FEW026CB BKN030 25/24 Q1009 NOSIG
ZJHK,2020-09-19 20:00,ZJHK 192000Z 13002MPS 110V170 9999 -SHRA FEW026CB BKN046 25/24 Q1009 NOSIG
ZJHK,2020-09-19 21:00,ZJHK 192100Z 13002MPS 9999 -RA BKN046 25/24 Q1009 NOSIG
ZJHK,2020-09-19 22:00,ZJHK 192200Z VRB01MPS 9999 -RA BKN046 25/24 Q1009 NOSIG
ZJHK,2020-09-19 23:00,ZJHK 192300Z VRB01MPS 9999 -RA FEW013 25/24 Q1009 NOSIG
ZJHK,2020-09-20 00:00,ZJHK 200000Z VRB01MPS 9999 -RA FEW013 25/25 Q1010 NOSIG
ZJHK,2020-09-20 01:00,ZJHK 200100Z 10002MPS 9999 -RA SCT014 SCT026 26/25 Q1011 NOSIG
ZJHK,2020-09-20 02:00,ZJHK 200200Z 09003MPS 9999 SCT009 SCT026 28/27 Q1012 NOSIG
ZJHK,2020-09-20 03:00,ZJHK 200300Z 13003MPS 100V160 9999 SCT009 FEW020TCU SCT020 30/27 Q1011 NOSIG
ZJHK,2020-09-20 04:00,ZJHK 200400Z 14002MPS 100V160 9999 -SHRA SCT009 SCT020CB 24/23 Q1011 RESHRA BECMG TL0530 SHRA
ZJHK,2020-09-20 05:00,ZJHK 200500Z 13003MPS 9999 -SHRA SCT020TCU SCT033 25/24 Q1010 NOSIG
ZJHK,2020-09-20 06:00,ZJHK 200600Z 12003MPS 9999 -SHRA FEW020TCU FEW020 25/24 Q1010 NOSIG
ZJHK,2020-09-20 07:00,ZJHK 200700Z 12003MPS 9999 -SHRA FEW020TCU FEW020 25/24 Q1009 NOSIG
ZJHK,2020-09-20 08:00,ZJHK 200800Z 15002MPS 120V180 9999 -RA BKN046 25/24 Q1008 NOSIG
ZJHK,2020-09-20 09:00,ZJHK 200900Z 20003MPS 170V240 9999 FEW046 25/24 Q1008 NOSIG
ZJHK,2020-09-20 10:00,ZJHK 201000Z 20003MPS 150V240 CAVOK 25/24 Q1009 NOSIG
ZJHK,2020-09-20 11:00,ZJHK 201100Z VRB01MPS CAVOK 25/24 Q1009 NOSIG
ZJHK,2020-09-20 12:00,ZJHK 201200Z 00000MPS CAVOK 25/24 Q1010 NOSIG
ZJHK,2020-09-20 13:00,ZJHK 201300Z 00000MPS CAVOK 25/24 Q1010 NOSIG
ZJHK,2020-09-20 14:00,ZJHK 201400Z VRB01MPS CAVOK 25/24 Q1011 NOSIG
ZJHK,2020-09-20 15:00,ZJHK 201500Z 14001MPS CAVOK 25/24 Q1010 NOSIG
ZJHK,2020-09-20 16:00,ZJHK 201600Z 00000MPS CAVOK 25/24 Q1010 NOSIG
ZJHK,2020-09-20 17:00,ZJHK 201700Z VRB01MPS CAVOK 25/24 Q1010 NOSIG
ZJHK,2020-09-20 18:00,ZJHK 201800Z 00000MPS CAVOK 25/24 Q1010 NOSIG
ZJHK,2020-09-20 19:00,ZJHK 201900Z 11001MPS CAVOK 25/24 Q1010 NOSIG
ZJHK,2020-09-20 20:00,ZJHK 202000Z 26001MPS CAVOK 25/24 Q1010 NOSIG
ZJHK,2020-09-20 21:00,ZJHK 202100Z 00000MPS CAVOK 25/24 Q1010 NOSIG
ZJHK,2020-09-20 22:00,ZJHK 202200Z 16001MPS CAVOK 24/24 Q1010 NOSIG
ZJHK,2020-09-20 23:00,ZJHK 202300Z VRB01MPS CAVOK 25/24 Q1010 NOSIG
ZJHK,2020-09-21 00:00,ZJHK 210000Z VRB01MPS CAVOK 27/26 Q1011 NOSIG
ZJHK,2020-09-21 01:00,ZJHK 210100Z VRB01MPS CAVOK 29/26 Q1011 NOSIG
ZJHK,2020-09-21 02:00,ZJHK 210200Z VRB01MPS 9999 FEW023 29/26 Q1011 NOSIG
ZJHK,2020-09-21 03:00,ZJHK 210300Z 18002MPS 110V270 9999 FEW023 31/26 Q1011 NOSIG
ZJHK,2020-09-21 04:00,ZJHK 210400Z VRB01MPS 9999 FEW023 32/25 Q1011 NOSIG
ZJHK,2020-09-21 05:00,ZJHK 210500Z VRB01MPS 9999 BKN033 32/25 Q1010 NOSIG
ZJHK,2020-09-21 06:00,ZJHK 210600Z 01003MPS 340V060 9999 FEW026TCU BKN030 31/26 Q1009 NOSIG
ZJHK,2020-09-21 07:00,ZJHK 210700Z 03003MPS 350V080 9999 SCT030 32/26 Q1008 NOSIG
ZJHK,2020-09-21 08:00,ZJHK 210800Z 35003MPS 320V060 9999 FEW030TCU FEW030 32/26 Q1008 NOSIG
ZJHK,2020-09-21 09:00,ZJHK 210900Z 04004MPS 9999 FEW030CB FEW030 30/26 Q1008 BECMG TL0930 TS
ZJHK,2020-09-21 10:00,ZJHK 211000Z 12003MPS 080V150 9999 FEW033CB FEW033 29/25 Q1008 NOSIG
ZJHK,2020-09-21 11:00,ZJHK 211100Z VRB01MPS 9999 FEW033CB 27/25 Q1008 NOSIG
ZJHK,2020-09-21 12:00,ZJHK 211200Z 14001MPS CAVOK 26/25 Q1009 NOSIG
ZJHK,2020-09-21 13:00,ZJHK 211300Z 14002MPS CAVOK 26/25 Q1009 NOSIG
ZJHK,2020-09-21 14:00,ZJHK 211400Z 18001MPS CAVOK 26/25 Q1010 NOSIG
ZJHK,2020-09-21 15:00,ZJHK 211500Z 18001MPS CAVOK 26/25 Q1010 NOSIG
ZJHK,2020-09-21 16:00,ZJHK 211600Z 15002MPS CAVOK 26/25 Q1010 NOSIG
ZJHK,2020-09-21 17:00,ZJHK 211700Z 15002MPS CAVOK 26/25 Q1010 NOSIG
ZJHK,2020-09-21 18:00,ZJHK 211800Z 00000MPS CAVOK 25/25 Q1009 NOSIG
ZJHK,2020-09-21 19:00,ZJHK 211900Z 13001MPS CAVOK 25/25 Q1009 NOSIG
ZJHK,2020-09-21 20:00,ZJHK 212000Z 11001MPS CAVOK 25/25 Q1009 NOSIG
ZJHK,2020-09-21 21:00,ZJHK 212100Z 13001MPS CAVOK 25/25 Q1009 NOSIG
ZJHK,2020-09-21 22:00,ZJHK 212200Z 00000MPS CAVOK 24/24 Q1009 NOSIG
ZJHK,2020-09-21 23:00,ZJHK 212300Z 26001MPS CAVOK 25/25 Q1009 NOSIG
ZJHK,2020-09-22 00:00,ZJHK 220000Z VRB01MPS CAVOK 28/26 Q1010 NOSIG
ZJHK,2020-09-22 01:00,ZJHK 220100Z VRB01MPS 9999 FEW020 29/27 Q1010 NOSIG
ZJHK,2020-09-22 02:00,ZJHK 220200Z VRB01MPS 9999 BKN020 30/26 Q1010 NOSIG
ZJHK,2020-09-22 03:00,ZJHK 220300Z VRB01MPS 9999 FEW023TCU SCT023 31/26 Q1010 NOSIG
ZJHK,2020-09-22 04:00,ZJHK 220400Z 24002MPS 190V310 9999 FEW023TCU SCT023 32/26 Q1010 NOSIG
ZJHK,2020-09-22 05:00,ZJHK 220500Z VRB01MPS 9999 FEW023TCU SCT023 32/27 Q1009 NOSIG
ZJHK,2020-09-22 06:00,ZJHK 220600Z 14003MPS 110V200 9999 SCT023 FEW026CB 31/26 Q1009 NOSIG
ZJHK,2020-09-22 07:00,ZJHK 220700Z 11003MPS 080V140 9999 FEW023TCU SCT023 30/26 Q1008 NOSIG
ZJHK,2020-09-22 08:00,ZJHK 220800Z 10003MPS 070V140 9999 FEW026 31/26 Q1007 NOSIG
ZJHK,2020-09-22 09:00,ZJHK 220900Z 12002MPS 080V150 CAVOK 32/26 Q1007 NOSIG
ZJHK,2020-09-22 10:00,ZJHK 221000Z 10003MPS CAVOK 31/26 Q1007 NOSIG
ZJHK,2020-09-22 11:00,ZJHK 221100Z 11003MPS CAVOK 29/26 Q1007 NOSIG
ZJHK,2020-09-22 12:00,ZJHK 221200Z 14002MPS CAVOK 28/26 Q1008 NOSIG
ZJHK,2020-09-22 13:00,ZJHK 221300Z VRB01MPS CAVOK 27/26 Q1009 NOSIG
ZJHK,2020-09-22 14:00,ZJHK 221400Z 18001MPS CAVOK 27/26 Q1009 NOSIG
ZJHK,2020-09-22 15:00,ZJHK 221500Z 00000MPS CAVOK 26/26 Q1009 NOSIG
ZJHK,2020-09-22 16:00,ZJHK 221600Z 00000MPS CAVOK 25/25 Q1009 NOSIG
ZJHK,2020-09-22 17:00,ZJHK 221700Z 18001MPS CAVOK 25/25 Q1010 NOSIG
ZJHK,2020-09-22 18:00,ZJHK 221800Z 16002MPS CAVOK 26/25 Q1009 NOSIG
ZJHK,2020-09-22 19:00,ZJHK 221900Z 12001MPS 9999 SCT020 25/25 Q1009 NOSIG
ZJHK,2020-09-22 20:00,ZJHK 222000Z 15001MPS CAVOK 25/25 Q1008 NOSIG
ZJHK,2020-09-22 21:00,ZJHK 222100Z VRB01MPS CAVOK 25/25 Q1009 NOSIG
ZJHK,2020-09-22 22:00,ZJHK 222200Z 12001MPS CAVOK 25/24 Q1009 NOSIG
ZJHK,2020-09-22 23:00,ZJHK 222300Z 12001MPS CAVOK 25/25 Q1009 NOSIG
ZJHK,2020-09-23 00:00,ZJHK 230000Z VRB01MPS CAVOK 28/26 Q1010 NOSIG
ZJHK,2020-09-23 01:00,ZJHK 230100Z VRB01MPS CAVOK 29/26 Q1011 NOSIG
ZJHK,2020-09-23 02:00,ZJHK 230200Z 13002MPS 080V250 9999 FEW023 31/26 Q1011 NOSIG
ZJHK,2020-09-23 03:00,ZJHK 230300Z 16002MPS 090V230 9999 SCT023 32/26 Q1010 NOSIG
ZJHK,2020-09-23 04:00,ZJHK 230400Z 11002MPS 060V230 9999 BKN023 33/25 Q1009 NOSIG
ZJHK,2020-09-23 05:00,ZJHK 230500Z VRB01MPS 9999 BKN030 34/25 Q1009 NOSIG
ZJHK,2020-09-23 06:00,ZJHK 230600Z 34005MPS 9999 FEW030TCU SCT030 32/27 Q1008 NOSIG
ZJHK,2020-09-23 07:00,ZJHK 230700Z 03004MPS 360V060 9999 FEW030TCU FEW030 33/27 Q1007 NOSIG
ZJHK,2020-09-23 08:00,ZJHK 230800Z 09005MPS 060V120 9999 -SHRA FEW010 FEW030CB FEW030 31/26 Q1007 BECMG AT0820 TSRA
ZJHK,2020-09-23 09:00,ZJHK 230900Z 08006MPS 9999 FEW030CB SCT040 31/26 Q1008 NOSIG
ZJHK,2020-09-23 10:00,ZJHK 231000Z 10004MPS 9999 FEW030CB SCT040 30/26 Q1009 NOSIG
ZJHK,2020-09-23 11:00,ZJHK 231100Z 11003MPS 9999 SCT040 29/26 Q1009 NOSIG
ZJHK,2020-09-23 12:00,ZJHK 231200Z 12002MPS CAVOK 28/26 Q1009 NOSIG
ZJHK,2020-09-23 13:00,ZJHK 231300Z 10002MPS CAVOK 28/27 Q1010 NOSIG
ZJHK,2020-09-23 14:00,ZJHK 231400Z 00000MPS CAVOK 27/27 Q1010 NOSIG
ZJHK,2020-09-23 15:00,ZJHK 231500Z 16001MPS CAVOK 27/26 Q1010 NOSIG
ZJHK,2020-09-23 16:00,ZJHK 231600Z 00000MPS CAVOK 26/26 Q1010 NOSIG
ZJHK,2020-09-23 17:00,ZJHK 231700Z 00000MPS CAVOK 26/26 Q1010 NOSIG
ZJHK,2020-09-23 18:00,ZJHK 231800Z 11001MPS CAVOK 26/26 Q1010 NOSIG
ZJHK,2020-09-23 19:00,ZJHK 231900Z 16001MPS CAVOK 26/26 Q1010 NOSIG
ZJHK,2020-09-23 20:00,ZJHK 232000Z 26001MPS CAVOK 26/26 Q1009 NOSIG
ZJHK,2020-09-23 21:00,ZJHK 232100Z 30001MPS 9000 NSC 26/26 Q1009 NOSIG
ZJHK,2020-09-23 22:00,ZJHK 232200Z VRB01MPS 7000 NSC 26/26 Q1009 NOSIG
ZJHK,2020-09-23 23:00,ZJHK 232300Z 13001MPS 7000 NSC 26/26 Q1010 NOSIG
ZJHK,2020-09-24 00:00,ZJHK 240000Z VRB01MPS CAVOK 28/26 Q1010 NOSIG
ZJHK,2020-09-24 01:00,ZJHK 240100Z VRB01MPS 9999 SCT020 30/26 Q1011 NOSIG
ZJHK,2020-09-24 02:00,ZJHK 240200Z VRB01MPS 9999 SCT020 31/26 Q1011 NOSIG
ZJHK,2020-09-24 03:00,ZJHK 240300Z VRB01MPS 9999 SCT020 31/26 Q1011 NOSIG
ZJHK,2020-09-24 04:00,ZJHK 240400Z 05003MPS 340V110 9999 FEW020TCU SCT020 31/26 Q1011 NOSIG
ZJHK,2020-09-24 05:00,ZJHK 240500Z 02003MPS 320V070 9999 FEW026TCU SCT026 31/26 Q1010 NOSIG
ZJHK,2020-09-24 06:00,ZJHK 240600Z 04004MPS 9999 FEW020TCU SCT020 SCT033 31/26 Q1009 NOSIG
ZJHK,2020-09-24 07:00,ZJHK 240700Z 04004MPS 9999 FEW026TCU SCT026 SCT040 31/26 Q1008 NOSIG
ZJHK,2020-09-24 08:00,ZJHK 240800Z 06004MPS 9999 FEW040TCU SCT040 31/26 Q1008 NOSIG
ZJHK,2020-09-24 09:00,ZJHK 240900Z 06004MPS 030V100 9999 FEW026TCU SCT026 30/27 Q1008 NOSIG
ZJHK,2020-09-24 10:00,ZJHK 241000Z 06004MPS 9999 FEW026 30/26 Q1008 NOSIG
ZJHK,2020-09-24 11:00,ZJHK 241100Z 10003MPS 9999 FEW026 28/26 Q1008 NOSIG
ZJHK,2020-09-24 12:00,ZJHK 241200Z 11002MPS CAVOK 28/26 Q1009 NOSIG
ZJHK,2020-09-24 13:00,ZJHK 241300Z 12001MPS CAVOK 27/26 Q1010 NOSIG
ZJHK,2020-09-24 14:00,ZJHK 241400Z 10002MPS CAVOK 27/27 Q1010 NOSIG
ZJHK,2020-09-24 15:00,ZJHK 241500Z 17001MPS CAVOK 27/27 Q1010 NOSIG
ZJHK,2020-09-24 16:00,ZJHK 241600Z 17001MPS CAVOK 26/26 Q1010 NOSIG
ZJHK,2020-09-24 17:00,ZJHK 241700Z VRB01MPS CAVOK 26/26 Q1010 NOSIG
ZJHK,2020-09-24 18:00,ZJHK 241800Z 20001MPS CAVOK 26/26 Q1009 NOSIG
ZJHK,2020-09-24 19:00,ZJHK 241900Z VRB01MPS CAVOK 26/26 Q1009 NOSIG
ZJHK,2020-09-24 20:00,ZJHK 242000Z VRB01MPS CAVOK 26/26 Q1008 NOSIG
ZJHK,2020-09-24 21:00,ZJHK 242100Z 00000MPS 8000 R09/0900D BCFG NSC 25/25 Q1008 NOSIG
ZJHK,2020-09-24 22:00,ZJHK 242200Z 32001MPS 9999 FEW040 25/25 Q1008 NOSIG
ZJHK,2020-09-24 23:00,ZJHK 242300Z VRB01MPS 9999 FEW040 26/25 Q1009 NOSIG
ZJHK,2020-09-25 00:00,ZJHK 250000Z 00000MPS 9999 FEW040 27/27 Q1010 NOSIG
ZJHK,2020-09-25 01:00,ZJHK 250100Z 15001MPS 9999 FEW005 FEW026TCU SCT033 27/27 Q1010 NOSIG
ZJHK,2020-09-25 02:00,ZJHK 250200Z VRB01MPS 8000 FEW010 27/27 Q1010 NOSIG
ZJHK,2020-09-25 03:00,ZJHK 250300Z 00000MPS 9000 FEW020 28/27 Q1010 NOSIG
ZJHK,2020-09-25 04:00,ZJHK 250400Z 01002MPS 340V050 9999 FEW007 SCT020 29/27 Q1010 NOSIG
ZJHK,2020-09-25 05:00,ZJHK 250500Z 26002MPS 210V300 9999 SCT016 30/25 Q1008 NOSIG
ZJHK,2020-09-25 06:00,ZJHK 250600Z VRB01MPS 9999 SCT020 32/26 Q1007 NOSIG
ZJHK,2020-09-25 07:00,ZJHK 250700Z 12003MPS 070V150 9999 FEW020 30/26 Q1007 NOSIG
ZJHK,2020-09-25 08:00,ZJHK 250800Z 11003MPS 080V140 9999 FEW023TCU 31/26 Q1006 NOSIG
ZJHK,2020-09-25 09:00,ZJHK 250900Z VRB01MPS 9999 TS FEW023CB SCT023 30/26 Q1007 BECMG AT0950 NSW
ZJHK,2020-09-25 10:00,ZJHK 251000Z 11003MPS 9999 SCT023 29/27 Q1007 RETS NOSIG
ZJHK,2020-09-25 11:00,ZJHK 251100Z 11002MPS 9999 FEW023 28/27 Q1007 NOSIG
ZJHK,2020-09-25 12:00,ZJHK 251200Z 11002MPS CAVOK 27/26 Q1008 NOSIG
ZJHK,2020-09-25 13:00,ZJHK 251300Z 12002MPS CAVOK 27/26 Q1009 NOSIG
ZJHK,2020-09-25 14:00,ZJHK 251400Z 12001MPS CAVOK 26/26 Q1009 NOSIG
ZJHK,2020-09-25 15:00,ZJHK 251500Z 12002MPS CAVOK 26/26 Q1009 NOSIG
ZJHK,2020-09-25 16:00,ZJHK 251600Z 14001MPS CAVOK 26/26 Q1009 NOSIG
ZJHK,2020-09-25 17:00,ZJHK 251700Z 18001MPS CAVOK 26/26 Q1008 NOSIG
ZJHK,2020-09-25 18:00,ZJHK 251800Z 18001MPS CAVOK 26/26 Q1008 NOSIG
ZJHK,2020-09-25 19:00,ZJHK 251900Z 18001MPS CAVOK 26/26 Q1007 NOSIG
ZJHK,2020-09-25 20:00,ZJHK 252000Z 00000MPS CAVOK 25/25 Q1007 NOSIG
ZJHK,2020-09-25 21:00,ZJHK 252100Z 00000MPS 7000 NSC 25/25 Q1007 NOSIG
ZJHK,2020-09-25 22:00,ZJHK 252200Z 00000MPS 5000 R09/1300D BR NSC 25/25 Q1007 NOSIG
ZJHK,2020-09-25 23:00,ZJHK 252300Z 00000MPS 8000 NSC 25/25 Q1007 NOSIG
ZJHK,2020-09-26 00:00,ZJHK 260000Z VRB01MPS CAVOK 27/27 Q1008 NOSIG
ZJHK,2020-09-26 01:00,ZJHK 260100Z 16002MPS 110V220 9999 SCT020 29/27 Q1009 NOSIG
ZJHK,2020-09-26 02:00,ZJHK 260200Z 15002MPS 100V220 9999 SCT020 31/26 Q1009 NOSIG
ZJHK,2020-09-26 03:00,ZJHK 260300Z VRB01MPS 9999 BKN023 32/26 Q1009 NOSIG
ZJHK,2020-09-26 04:00,ZJHK 260400Z VRB01MPS 9999 FEW023TCU BKN023 31/26 Q1008 NOSIG
ZJHK,2020-09-26 05:00,ZJHK 260500Z 28002MPS 220V350 9999 TS SCT023CB SCT023 31/26 Q1007 BECMG NSW SCT020
ZJHK,2020-09-26 06:00,ZJHK 260600Z 11005MPS 4000 TSRA SCT015 SCT023CB SCT023 27/26 Q1007 NOSIG
ZJHK,2020-09-26 07:00,ZJHK 260700Z 10006MPS 9999 -TSRA SCT015 FEW030CB SCT030 25/25 Q1006 RESHRA BECMG TL0740 -SHRA
ZJHK,2020-09-26 08:00,ZJHK 260800Z 11003MPS 9999 -SHRA FEW030TCU FEW030 26/25 Q1006 RETS NOSIG
ZJHK,2020-09-26 09:00,ZJHK 260900Z 12003MPS CAVOK 28/26 Q1006 NOSIG
ZJHK,2020-09-26 10:00,ZJHK 261000Z 10002MPS CAVOK 28/27 Q1006 NOSIG
ZJHK,2020-09-26 11:00,ZJHK 261100Z 10002MPS CAVOK 27/26 Q1006 NOSIG
ZJHK,2020-09-26 12:00,ZJHK 261200Z 14001MPS CAVOK 27/26 Q1007 NOSIG
ZJHK,2020-09-26 13:00,ZJHK 261300Z 13002MPS CAVOK 27/26 Q1008 NOSIG
ZJHK,2020-09-26 14:00,ZJHK 261400Z 12002MPS CAVOK 27/26 Q1009 NOSIG
ZJHK,2020-09-26 15:00,ZJHK 261500Z 13002MPS CAVOK 27/27 Q1009 NOSIG
ZJHK,2020-09-26 16:00,ZJHK 261600Z VRB01MPS 8000 NSC 26/26 Q1009 NOSIG
ZJHK,2020-09-26 17:00,ZJHK 261700Z 00000MPS 8000 NSC 26/26 Q1009 NOSIG
ZJHK,2020-09-26 18:00,ZJHK 261800Z 00000MPS 7000 NSC 26/26 Q1008 NOSIG
ZJHK,2020-09-26 19:00,ZJHK 261900Z 12002MPS 6000 NSC 26/26 Q1007 NOSIG
ZJHK,2020-09-26 20:00,ZJHK 262000Z 13002MPS 6000 NSC 26/26 Q1007 NOSIG
ZJHK,2020-09-26 21:00,ZJHK 262100Z 11002MPS 8000 NSC 25/25 Q1007 NOSIG
ZJHK,2020-09-26 22:00,ZJHK 262200Z VRB01MPS CAVOK 25/25 Q1007 NOSIG
ZJHK,2020-09-26 23:00,ZJHK 262300Z VRB01MPS CAVOK 26/26 Q1008 NOSIG
ZJHK,2020-09-27 00:00,ZJHK 270000Z VRB01MPS CAVOK 27/27 Q1009 NOSIG
ZJHK,2020-09-27 01:00,ZJHK 270100Z 10002MPS 070V130 9999 FEW020 30/27 Q1010 NOSIG
ZJHK,2020-09-27 02:00,ZJHK 270200Z 11002MPS 080V140 9999 FEW012 SCT020 30/27 Q1010 NOSIG
ZJHK,2020-09-27 03:00,ZJHK 270300Z 13003MPS 090V170 9999 FEW020TCU SCT020 31/26 Q1010 NOSIG
ZJHK,2020-09-27 04:00,ZJHK 270400Z 04005MPS 010V080 9999 FEW020TCU SCT023 31/27 Q1009 NOSIG
ZJHK,2020-09-27 05:00,ZJHK 270500Z 12003MPS 090V170 9999 -SHRA FEW020CB SCT026 28/26 Q1009 BECMG TL0520 TSRA
ZJHK,2020-09-27 06:00,ZJHK 270600Z 10003MPS 9999 FEW020CB SCT026 29/26 Q1008 NOSIG
ZJHK,2020-09-27 07:00,ZJHK 270700Z 10003MPS 9999 FEW020TCU 29/25 Q1007 NOSIG
ZJHK,2020-09-27 08:00,ZJHK 270800Z 08005MPS 9999 FEW026 30/27 Q1006 NOSIG
ZJHK,2020-09-27 09:00,ZJHK 270900Z 09005MPS 9999 FEW026 29/26 Q1007 NOSIG
ZJHK,2020-09-27 10:00,ZJHK 271000Z 11002MPS CAVOK 29/27 Q1007 NOSIG
ZJHK,2020-09-27 11:00,ZJHK 271100Z 10003MPS CAVOK 28/26 Q1008 NOSIG
ZJHK,2020-09-27 12:00,ZJHK 271200Z VRB01MPS CAVOK 27/27 Q1008 NOSIG
ZJHK,2020-09-27 13:00,ZJHK 271300Z 12002MPS CAVOK 27/27 Q1009 NOSIG
ZJHK,2020-09-27 14:00,ZJHK 271400Z 11002MPS CAVOK 27/27 Q1009 NOSIG
ZJHK,2020-09-27 15:00,ZJHK 271500Z 10002MPS CAVOK 27/27 Q1009 NOSIG
ZJHK,2020-09-27 16:00,ZJHK 271600Z 10002MPS CAVOK 26/26 Q1009 NOSIG
ZJHK,2020-09-27 17:00,ZJHK 271700Z 12002MPS CAVOK 26/26 Q1008 NOSIG
ZJHK,2020-09-27 18:00,ZJHK 271800Z VRB01MPS CAVOK 26/26 Q1008 NOSIG
ZJHK,2020-09-27 19:00,ZJHK 271900Z 00000MPS 9999 SCT015 26/26 Q1007 NOSIG
ZJHK,2020-09-27 20:00,ZJHK 272000Z 00000MPS CAVOK 26/26 Q1007 NOSIG
ZJHK,2020-09-27 21:00,ZJHK 272100Z 26001MPS CAVOK 26/26 Q1007 NOSIG
ZJHK,2020-09-27 22:00,ZJHK 272200Z 00000MPS CAVOK 26/26 Q1008 NOSIG
ZJHK,2020-09-27 23:00,ZJHK 272300Z 10001MPS 9999 FEW040 26/26 Q1008 NOSIG
ZJHK,2020-09-28 00:00,ZJHK 280000Z VRB01MPS 9999 FEW040 27/27 Q1009 NOSIG
ZJHK,2020-09-28 01:00,ZJHK 280100Z 07002MPS 030V120 9999 FEW040 28/27 Q1010 NOSIG
ZJHK,2020-09-28 02:00,ZJHK 280200Z 08004MPS 050V110 9999 FEW016 SCT026 28/27 Q1010 NOSIG
ZJHK,2020-09-28 03:00,ZJHK 280300Z 08003MPS 040V120 9999 SCT016 FEW040CB SCT040 29/27 Q1010 BECMG AT0350 SHRA
ZJHK,2020-09-28 04:00,ZJHK 280400Z 05004MPS 020V100 9999 SCT013 FEW026CB SCT026 29/27 Q1010 NOSIG
ZJHK,2020-09-28 05:00,ZJHK 280500Z 04004MPS 010V080 9999 -SHRA FEW010 FEW030CB SCT030 28/26 Q1009 RESHRA NOSIG
ZJHK,2020-09-28 07:00,ZJHK 280700Z 07004MPS 030V090 9999 FEW010 FEW023TCU SCT023 29/27 Q1007 NOSIG
ZJHK,2020-09-28 08:00,ZJHK 280800Z VRB01MPS 9999 -SHRA SCT010 FEW023CB SCT023 28/27 Q1007 BECMG TL0840 SHRA
ZJHK,2020-09-28 09:00,ZJHK 280900Z 14006MPS 2700 TSRA SCT010 FEW023CB SCT023 25/24 Q1008 BECMG AT1000 6000 -SHRA
ZJHK,2020-09-28 10:00,ZJHK 281000Z 12002MPS 100V160 9999 -SHRA FEW010 FEW023CB SCT023 24/24 Q1008 RETSRA NOSIG
ZJHK,2020-09-28 11:00,ZJHK 281100Z 17001MPS 9999 -SHRA FEW010 FEW023TCU SCT023 24/24 Q1008 NOSIG
ZJHK,2020-09-28 12:00,ZJHK 281200Z 13002MPS 9999 -SHRA FEW010 FEW023TCU SCT023 24/24 Q1009 NOSIG
ZJHK,2020-09-28 13:00,ZJHK 281300Z 12002MPS 9999 -SHRA BKN010 FEW046TCU SCT046 25/25 Q1009 NOSIG
ZJHK,2020-09-28 14:00,ZJHK 281400Z 20002MPS 160V220 9999 FEW046 25/25 Q1009 NOSIG
ZJHK,2020-09-28 15:00,ZJHK 281500Z VRB01MPS 9999 FEW046 25/25 Q1009 NOSIG
ZJHK,2020-09-28 16:00,ZJHK 281600Z 18001MPS 9999 FEW046 25/25 Q1009 NOSIG
ZJHK,2020-09-28 17:00,ZJHK 281700Z VRB01MPS 9999 FEW046 25/25 Q1008 NOSIG
ZJHK,2020-09-28 18:00,ZJHK 281800Z VRB01MPS 9999 FEW046 25/25 Q1008 NOSIG
ZJHK,2020-09-28 19:00,ZJHK 281900Z 00000MPS CAVOK 25/25 Q1008 NOSIG
ZJHK,2020-09-28 20:00,ZJHK 282000Z 28001MPS 9999 FEW017 25/25 Q1007 NOSIG
ZJHK,2020-09-28 21:00,ZJHK 282100Z 00000MPS 9999 FEW014 25/25 Q1007 NOSIG
ZJHK,2020-09-28 22:00,ZJHK 282200Z VRB01MPS CAVOK 25/25 Q1007 NOSIG
ZJHK,2020-09-28 23:00,ZJHK 282300Z 10002MPS 9999 FEW046 25/25 Q1007 NOSIG
ZJHK,2020-09-29 00:00,ZJHK 290000Z VRB01MPS 9999 FEW046 26/26 Q1008 NOSIG
ZJHK,2020-09-29 01:00,ZJHK 290100Z VRB01MPS CAVOK 27/26 Q1008 NOSIG
ZJHK,2020-09-29 02:00,ZJHK 290200Z 11001MPS CAVOK 27/26 Q1009 NOSIG
ZJHK,2020-09-29 03:00,ZJHK 290300Z VRB01MPS 9999 -RA FEW026 28/26 Q1009 NOSIG
ZJHK,2020-09-29 04:00,ZJHK 290400Z 10003MPS 060V130 9999 SCT026 28/27 Q1009 NOSIG
ZJHK,2020-09-29 05:00,ZJHK 290500Z 10004MPS 9999 SCT010 BKN023 28/26 Q1008 NOSIG
ZJHK,2020-09-29 06:00,ZJHK 290600Z 14002MPS 090V170 9999 SCT010 BKN023 28/26 Q1006 NOSIG
ZJHK,2020-09-29 07:00,ZJHK 290700Z 14002MPS 100V190 9999 FEW013 SCT023 29/26 Q1006 NOSIG
ZJHK,2020-09-29 08:00,ZJHK 290800Z 14002MPS 090V220 9999 FEW013 SCT023 29/26 Q1005 NOSIG
ZJHK,2020-09-29 09:00,ZJHK 290900Z 12002MPS 9999 FEW013 SCT023 28/27 Q1005 NOSIG
ZJHK,2020-09-29 10:00,ZJHK 291000Z 13002MPS 100V160 9999 FEW023 28/27 Q1006 NOSIG
ZJHK,2020-09-29 11:00,ZJHK 291100Z 16002MPS CAVOK 27/26 Q1006 NOSIG
ZJHK,2020-09-29 12:00,ZJHK 291200Z VRB01MPS CAVOK 27/26 Q1007 NOSIG
ZJHK,2020-09-29 13:00,ZJHK 291300Z VRB01MPS CAVOK 27/26 Q1008 NOSIG
ZJHK,2020-09-29 14:00,ZJHK 291400Z 17001MPS CAVOK 26/26 Q1008 NOSIG
ZJHK,2020-09-29 15:00,ZJHK 291500Z VRB01MPS CAVOK 26/26 Q1008 NOSIG
ZJHK,2020-09-29 16:00,ZJHK 291600Z 11001MPS CAVOK 26/26 Q1007 NOSIG
ZJHK,2020-09-29 17:00,ZJHK 291700Z 00000MPS CAVOK 26/26 Q1007 NOSIG
ZJHK,2020-09-29 18:00,ZJHK 291800Z 00000MPS CAVOK 26/26 Q1006 NOSIG
ZJHK,2020-09-29 19:00,ZJHK 291900Z 00000MPS CAVOK 25/25 Q1005 NOSIG
ZJHK,2020-09-29 20:00,ZJHK 292000Z 00000MPS CAVOK 25/25 Q1005 NOSIG
ZJHK,2020-09-29 21:00,ZJHK 292100Z 30001MPS 8000 R09/1000D BCFG FEW026 25/25 Q1005 NOSIG
ZJHK,2020-09-29 22:00,ZJHK 292200Z 11001MPS 9999 FEW026 25/25 Q1006 NOSIG
ZJHK,2020-09-29 23:00,ZJHK 292300Z 15002MPS 9999 BKN030 25/25 Q1007 NOSIG
ZJHK,2020-09-30 00:00,ZJHK 300000Z VRB01MPS 9999 FEW013 SCT033 27/26 Q1007 NOSIG
ZJHK,2020-09-30 01:00,ZJHK 300100Z VRB01MPS 9999 SCT033 29/26 Q1008 NOSIG
ZJHK,2020-09-30 02:00,ZJHK 300200Z VRB01MPS 9999 FEW020 29/27 Q1008 NOSIG
ZJHK,2020-09-30 03:00,ZJHK 300300Z 16002MPS 120V190 9999 FEW020 29/26 Q1008 NOSIG
ZJHK,2020-09-30 04:00,ZJHK 300400Z 22002MPS 170V250 9999 FEW023TCU SCT023 31/25 Q1008 NOSIG
ZJHK,2020-09-30 05:00,ZJHK 300500Z 22002MPS 130V300 9999 FEW026TCU SCT026 32/25 Q1006 BECMG AT0530 TS
ZJHK,2020-09-30 06:00,ZJHK 300600Z 30004MPS 260V340 9999 FEW026TCU SCT026 31/26 Q1005 NOSIG
ZJHK,2020-09-30 07:00,ZJHK 300700Z 33004MPS 9999 FEW030TCU SCT030 31/26 Q1005 NOSIG
ZJHK,2020-09-30 08:00,ZJHK 300800Z 35004MPS 330V050 9999 FEW030CB FEW030 31/26 Q1004 BECMG AT0820 08005MPS TS
ZJHK,2020-09-30 09:00,ZJHK 300900Z VRB01MPS 9999 FEW030CB FEW030 29/26 Q1004 NOSIG
ZJHK,2020-09-30 10:00,ZJHK 301000Z VRB01MPS 9999 FEW026TCU 28/26 Q1004 NOSIG
ZJHK,2020-09-30 11:00,ZJHK 301100Z 05004MPS CAVOK 29/26 Q1005 NOSIG
ZJHK,2020-09-30 12:00,ZJHK 301200Z 07004MPS CAVOK 28/26 Q1005 NOSIG
ZJHK,2020-09-30 13:00,ZJHK 301300Z 10003MPS CAVOK 27/26 Q1006 NOSIG
ZJHK,2020-09-30 14:00,ZJHK 301400Z VRB01MPS CAVOK 26/26 Q1007 NOSIG
ZJHK,2020-09-30 15:00,ZJHK 301500Z 16002MPS CAVOK 26/26 Q1008 NOSIG
ZJHK,2020-09-30 16:00,ZJHK 301600Z VRB01MPS CAVOK 26/26 Q1007 NOSIG
ZJHK,2020-09-30 17:00,ZJHK 301700Z 14002MPS 110V170 CAVOK 26/26 Q1007 NOSIG
ZJHK,2020-09-30 18:00,ZJHK 301800Z 14002MPS CAVOK 26/26 Q1006 NOSIG
ZJHK,2020-09-30 19:00,ZJHK 301900Z 17002MPS 8000 NSC 26/26 Q1005 NOSIG
ZJHK,2020-09-30 20:00,ZJHK 302000Z 15001MPS CAVOK 26/26 Q1005 NOSIG
ZJHK,2020-09-30 21:00,ZJHK 302100Z 00000MPS CAVOK 25/25 Q1005 NOSIG
ZJHK,2020-09-30 22:00,ZJHK 302200Z 00000MPS CAVOK 25/25 Q1006 NOSIG
ZJHK,2020-09-30 23:00,ZJHK 302300Z 26001MPS 8000 BCFG FEW040 25/25 Q1006 NOSIG
ZJHK,2020-10-01 00:00,ZJHK 010000Z 00000MPS 9999 SCT040 29/27 Q1007 NOSIG
ZJHK,2020-10-01 01:00,ZJHK 010100Z 14002MPS 120V190 9999 FEW015 FEW026TCU SCT026 30/26 Q1008 NOSIG
ZJHK,2020-10-01 02:00,ZJHK 010200Z VRB01MPS 9999 BKN023 31/25 Q1009 NOSIG
ZJHK,2020-10-01 03:00,ZJHK 010300Z 31003MPS 260V010 9999 FEW020CB SCT023 31/26 Q1008 NOSIG
ZJHK,2020-10-01 04:00,ZJHK 010400Z 02003MPS 310V070 7000 -TSRA FEW015 SCT030CB SCT030 27/25 Q1008 RESHRA BECMG AT0530 NSW
ZJHK,2020-10-01 05:00,ZJHK 010500Z 02004MPS 350V060 9999 TS FEW030CB SCT030 28/25 Q1007 BECMG AT0600 NSW
ZJHK,2020-10-01 06:00,ZJHK 010600Z 08004MPS 040V100 8000 -TSRA SCT023CB BKN030 27/26 Q1007 BECMG AT0730 -SHRA
ZJHK,2020-10-01 07:00,ZJHK 010700Z 10002MPS 060V150 8000 -TSRA SCT010 FEW023CB SCT040 27/26 Q1006 BECMG AT0800 -SHRA
ZJHK,2020-10-01 08:00,ZJHK 010800Z 05004MPS 5000 TSRA FEW010 SCT023CB 26/25 Q1006 BECMG AT0840 -TSRA
ZJHK,2020-10-01 09:00,ZJHK 010900Z 06004MPS 7000 -TSRA FEW010 FEW023CB SCT040 26/26 Q1006 RESHRA BECMG AT1000 -SHRA
ZJHK,2020-10-01 10:00,ZJHK 011000Z 12002MPS 080V140 9999 -SHRA SCT013 FEW023TCU SCT033 26/26 Q1006 RETS NOSIG
ZJHK,2020-10-01 11:00,ZJHK 011100Z 06003MPS 040V100 9999 SCT015 SCT020 27/26 Q1007 NOSIG
ZJHK,2020-10-01 12:00,ZJHK 011200Z 09003MPS 9999 FEW015 SCT020 27/26 Q1007 NOSIG
ZJHK,2020-10-01 13:00,ZJHK 011300Z 04002MPS 9999 SCT013 27/26 Q1007 NOSIG
ZJHK,2020-10-01 14:00,ZJHK 011400Z 05003MPS 9999 FEW016 27/26 Q1008 NOSIG
ZJHK,2020-10-01 15:00,ZJHK 011500Z 12003MPS 090V170 9999 SCT007 SCT016 27/26 Q1008 NOSIG
ZJHK,2020-10-01 16:00,ZJHK 011600Z VRB01MPS 9999 FEW012 SCT016 26/26 Q1007 NOSIG
ZJHK,2020-10-01 17:00,ZJHK 011700Z 16001MPS 9999 SCT012 BKN020 26/26 Q1007 NOSIG
ZJHK,2020-10-01 18:00,ZJHK 011800Z 00000MPS 9999 SCT012 FEW020TCU SCT040 26/26 Q1007 NOSIG
ZJHK,2020-10-01 19:00,ZJHK 011900Z 00000MPS 9999 SCT015 SCT020 FEW023TCU 26/26 Q1007 NOSIG
ZJHK,2020-10-01 20:00,ZJHK 012000Z 19001MPS 9999 SCT030 25/25 Q1006 NOSIG
ZJHK,2020-10-01 21:00,ZJHK 012100Z 00000MPS 9999 -SHRA FEW023TCU SCT030 26/25 Q1006 NOSIG
ZJHK,2020-10-01 22:00,ZJHK 012200Z 00000MPS 9999 FEW030 25/25 Q1007 NOSIG
ZJHK,2020-10-01 23:00,ZJHK 012300Z VRB01MPS 9999 FEW030 25/25 Q1007 NOSIG
ZJHK,2020-10-02 00:00,ZJHK 020000Z VRB01MPS 9999 FEW020 28/26 Q1008 NOSIG
ZJHK,2020-10-02 01:00,ZJHK 020100Z 11002MPS 080V140 9999 FEW020 29/27 Q1009 NOSIG
ZJHK,2020-10-02 02:00,ZJHK 020200Z 11003MPS 070V140 9999 SCT013 SCT040 29/27 Q1010 BECMG AT0240 -TSRA
ZJHK,2020-10-02 03:00,ZJHK 020300Z VRB02MPS 9999 SCT016 FEW023TCU 30/27 Q1010 BECMG TS SCT012 FEW023CB
ZJHK,2020-10-02 04:00,ZJHK 020400Z 09002MPS 040V140 9999 SCT016 FEW023TCU 30/27 Q1010 NOSIG
ZJHK,2020-10-02 05:00,ZJHK 020500Z VRB01MPS 9999 -SHRA SCT015 FEW023TCU 28/27 Q1009 NOSIG
ZJHK,2020-10-02 06:00,ZJHK 020600Z 09004MPS 070V130 9999 FEW015 29/26 Q1008 NOSIG
ZJHK,2020-10-02 07:00,ZJHK 020700Z 10003MPS 080V150 9999 FEW016 29/26 Q1007 NOSIG
ZJHK,2020-10-02 08:00,ZJHK 020800Z 11004MPS CAVOK 29/26 Q1007 NOSIG
ZJHK,2020-10-02 09:00,ZJHK 020900Z 10004MPS 9999 FEW013 SCT046 29/27 Q1007 NOSIG
ZJHK,2020-10-02 10:00,ZJHK 021000Z 09004MPS 9999 FEW013 SCT033 28/27 Q1007 NOSIG
ZJHK,2020-10-02 11:00,ZJHK 021100Z 09004MPS 9999 FEW010 27/27 Q1008 NOSIG
ZJHK,2020-10-02 12:00,ZJHK 021200Z 11002MPS 070V130 9999 FEW010 27/27 Q1009 NOSIG
ZJHK,2020-10-02 13:00,ZJHK 021300Z 09004MPS 9999 FEW013 SCT033 28/27 Q1009 NOSIG
ZJHK,2020-10-02 14:00,ZJHK 021400Z 11003MPS 080V150 9999 -SHRA FEW010 FEW026CB SCT030 26/25 Q1010 RESHRA NOSIG
ZJHK,2020-10-02 15:00,ZJHK 021500Z 08003MPS CAVOK 27/26 Q1010 NOSIG
ZJHK,2020-10-02 16:00,ZJHK 021600Z 12002MPS CAVOK 26/26 Q1010 NOSIG
ZJHK,2020-10-02 17:00,ZJHK 021700Z 11001MPS CAVOK 26/26 Q1009 NOSIG
ZJHK,2020-10-02 18:00,ZJHK 021800Z 19001MPS 9999 FEW013 26/26 Q1009 NOSIG
ZJHK,2020-10-02 19:00,ZJHK 021900Z 15002MPS 7000 -SHRA FEW013 FEW026CB SCT026 26/26 Q1008 NOSIG
ZJHK,2020-10-02 20:00,ZJHK 022000Z 19003MPS 9999 -TSRA BKN010 FEW026CB SCT026 26/26 Q1009 BECMG TL2030 -SHRA
ZJHK,2020-10-02 21:00,ZJHK 022100Z VRB01MPS 9999 BKN010 BKN026 26/26 Q1009 RETS NOSIG
ZJHK,2020-10-02 22:00,ZJHK 022200Z 10002MPS 9999 SCT012 BKN026 26/26 Q1008 NOSIG
ZJHK,2020-10-02 23:00,ZJHK 022300Z 13002MPS 9999 -RA BKN040 26/26 Q1009 NOSIG
ZJHK,2020-10-03 00:00,ZJHK 030000Z VRB01MPS 9999 BKN046 26/26 Q1010 NOSIG
ZJHK,2020-10-03 01:00,ZJHK 030100Z 12002MPS 9999 FEW012 FEW033TCU BKN046 27/27 Q1010 NOSIG
ZJHK,2020-10-03 02:00,ZJHK 030200Z 14004MPS 110V170 9999 FEW016 FEW033TCU 29/26 Q1010 NOSIG
ZJHK,2020-10-03 03:00,ZJHK 030300Z 13003MPS 090V180 9999 FEW012 FEW033CB 29/27 Q1011 NOSIG
ZJHK,2020-10-03 04:00,ZJHK 030400Z 16002MPS 100V210 9999 FEW020TCU SCT020 30/27 Q1010 NOSIG
ZJHK,2020-10-03 05:00,ZJHK 030500Z 15004MPS 110V200 9999 FEW020TCU SCT020 30/26 Q1009 NOSIG
ZJHK,2020-10-03 06:00,ZJHK 030600Z 12004MPS 9999 FEW026CB SCT026 30/25 Q1008 NOSIG
ZJHK,2020-10-03 07:00,ZJHK 030700Z 11003MPS 090V150 9999 FEW026CB SCT026 30/26 Q1008 NOSIG
ZJHK,2020-10-03 08:00,ZJHK 030800Z 13002MPS 080V180 9999 FEW026CB SCT026 30/26 Q1008 NOSIG
ZJHK,2020-10-03 09:00,ZJHK 030900Z 29003MPS 250V030 9999 FEW026CB SCT026 29/26 Q1009 BECMG TL0910 +SHRA
ZJHK,2020-10-03 10:00,ZJHK 031000Z 21002MPS 170V290 5000 TSRA BKN012 BKN026CB 24/24 Q1009 BECMG TL1030 -SHRA SCT010 SCT020
ZJHK,2020-10-03 11:00,ZJHK 031100Z 11002MPS 060V130 9999 -TSRA FEW026CB BKN040 25/24 Q1009 RESHRA BECMG TL1130 -SHRA
ZJHK,2020-10-03 12:00,ZJHK 031200Z 11003MPS 9999 -SHRA FEW026TCU 25/25 Q1009 RETS NOSIG
ZJHK,2020-10-03 13:00,ZJHK 031300Z VRB01MPS CAVOK 25/25 Q1010 NOSIG
ZJHK,2020-10-03 14:00,ZJHK 031400Z 18001MPS CAVOK 25/24 Q1010 NOSIG
ZJHK,2020-10-03 15:00,ZJHK 031500Z 22002MPS CAVOK 25/25 Q1010 NOSIG
ZJHK,2020-10-03 16:00,ZJHK 031600Z VRB01MPS CAVOK 24/24 Q1010 NOSIG
ZJHK,2020-10-03 17:00,ZJHK 031700Z VRB01MPS CAVOK 24/24 Q1010 NOSIG
ZJHK,2020-10-03 18:00,ZJHK 031800Z 00000MPS 9999 FEW026 24/24 Q1010 NOSIG
ZJHK,2020-10-03 19:00,ZJHK 031900Z 21001MPS CAVOK 25/25 Q1009 NOSIG
ZJHK,2020-10-03 20:00,ZJHK 032000Z 24002MPS 8000 SCT004 25/25 Q1009 NOSIG
ZJHK,2020-10-03 21:00,ZJHK 032100Z 00000MPS 7000 R09/1100U BCFG SCT006 24/24 Q1009 NOSIG
ZJHK,2020-10-03 22:00,ZJHK 032200Z 00000MPS 7000 BCFG FEW006 24/24 Q1009 NOSIG
ZJHK,2020-10-03 23:00,ZJHK 032300Z 00000MPS 9999 FEW033TCU FEW033 25/25 Q1010 NOSIG
ZJHK,2020-10-04 00:00,ZJHK 040000Z VRB01MPS 9999 SCT046 27/26 Q1011 NOSIG
ZJHK,2020-10-04 01:00,ZJHK 040100Z VRB01MPS 9999 FEW023 29/26 Q1011 NOSIG
ZJHK,2020-10-04 02:00,ZJHK 040200Z 15002MPS 090V230 9999 SCT023 31/25 Q1011 NOSIG
ZJHK,2020-10-04 03:00,ZJHK 040300Z 10002MPS 030V190 9999 SCT023 31/24 Q1011 NOSIG
ZJHK,2020-10-04 04:00,ZJHK 040400Z VRB01MPS 9999 SCT023 32/25 Q1010 NOSIG
ZJHK,2020-10-04 05:00,ZJHK 040500Z 04004MPS 360V080 9999 SCT026 SCT036 32/26 Q1009 NOSIG
ZJHK,2020-10-04 06:00,ZJHK 040600Z 05005MPS 020V080 9999 FEW030TCU FEW030 SCT040 32/25 Q1008 NOSIG
ZJHK,2020-10-04 07:00,ZJHK 040700Z 05006MPS 020V080 9999 FEW030TCU FEW030 SCT040 32/25 Q1008 NOSIG
ZJHK,2020-10-04 08:00,ZJHK 040800Z 06007MPS 040V100 9999 FEW026 SCT040 32/25 Q1007 NOSIG
ZJHK,2020-10-04 09:00,ZJHK 040900Z 07006MPS 9999 FEW026 31/25 Q1007 NOSIG
ZJHK,2020-10-04 10:00,ZJHK 041000Z 08006MPS CAVOK 29/25 Q1007 NOSIG
ZJHK,2020-10-04 11:00,ZJHK 041100Z 09004MPS 060V120 CAVOK 28/25 Q1008 NOSIG
ZJHK,2020-10-04 12:00,ZJHK 041200Z 07003MPS CAVOK 28/24 Q1008 NOSIG
ZJHK,2020-10-04 13:00,ZJHK 041300Z 11002MPS CAVOK 27/25 Q1009 NOSIG
ZJHK,2020-10-04 14:00,ZJHK 041400Z 15001MPS CAVOK 26/26 Q1009 NOSIG
ZJHK,2020-10-04 15:00,ZJHK 041500Z VRB01MPS CAVOK 25/25 Q1010 NOSIG
ZJHK,2020-10-04 16:00,ZJHK 041600Z 17001MPS CAVOK 25/25 Q1010 NOSIG
ZJHK,2020-10-04 17:00,ZJHK 041700Z 26001MPS CAVOK 25/25 Q1009 NOSIG
ZJHK,2020-10-04 18:00,ZJHK 041800Z 23001MPS CAVOK 24/24 Q1009 NOSIG
ZJHK,2020-10-04 19:00,ZJHK 041900Z 26001MPS 7000 NSC 24/24 Q1009 NOSIG
ZJHK,2020-10-04 20:00,ZJHK 042000Z 25001MPS 7000 R09/0400V0800D BCFG NSC 24/24 Q1009 NOSIG
ZJHK,2020-10-04 21:00,ZJHK 042100Z 00000MPS 6000 BCFG NSC 24/24 Q1009 NOSIG
ZJHK,2020-10-04 22:00,ZJHK 042200Z 00000MPS 6000 BCFG NSC 24/24 Q1009 NOSIG
ZJHK,2020-10-04 23:00,ZJHK 042300Z 00000MPS CAVOK 25/25 Q1009 NOSIG
ZJHK,2020-10-05 00:00,ZJHK 050000Z 03002MPS 360V070 CAVOK 28/26 Q1010 NOSIG
ZJHK,2020-10-05 01:00,ZJHK 050100Z 04004MPS 010V080 9999 FEW015 29/26 Q1010 NOSIG
ZJHK,2020-10-05 02:00,ZJHK 050200Z 06004MPS 040V100 9999 FEW015 31/25 Q1011 NOSIG
ZJHK,2020-10-05 03:00,ZJHK 050300Z 05005MPS 010V080 9999 SCT023 31/26 Q1011 NOSIG
ZJHK,2020-10-05 04:00,ZJHK 050400Z 04005MPS 360V080 9999 SCT026 31/25 Q1010 NOSIG
ZJHK,2020-10-05 05:00,ZJHK 050500Z 04005MPS 9999 SCT026 31/25 Q1009 NOSIG
ZJHK,2020-10-05 06:00,ZJHK 050600Z 04006MPS 9999 SCT026 31/25 Q1008 NOSIG
ZJHK,2020-10-05 07:00,ZJHK 050700Z 04006MPS 360V060 9999 FEW023TCU SCT026 30/25 Q1008 NOSIG
ZJHK,2020-10-05 08:00,ZJHK 050800Z 04006MPS 9999 FEW023 31/26 Q1008 NOSIG
ZJHK,2020-10-05 09:00,ZJHK 050900Z 05006MPS 020V090 9999 SCT016 30/25 Q1008 NOSIG
ZJHK,2020-10-05 10:00,ZJHK 051000Z 08007MPS 9999 FEW016 FEW026TCU SCT026 29/25 Q1008 NOSIG
ZJHK,2020-10-05 11:00,ZJHK 051100Z 08006MPS 9999 FEW016 28/25 Q1009 NOSIG
ZJHK,2020-10-05 12:00,ZJHK 051200Z 10005MPS 9999 SCT013 28/24 Q1010 NOSIG
ZJHK,2020-10-05 13:00,ZJHK 051300Z 11003MPS 9999 FEW013 27/24 Q1011 NOSIG
ZJHK,2020-10-05 14:00,ZJHK 051400Z 10003MPS 9999 FEW040 26/24 Q1011 NOSIG
ZJHK,2020-10-05 15:00,ZJHK 051500Z 11002MPS 9999 FEW016 26/24 Q1012 NOSIG
ZJHK,2020-10-05 16:00,ZJHK 051600Z 07004MPS CAVOK 27/24 Q1011 NOSIG
ZJHK,2020-10-05 17:00,ZJHK 051700Z 08003MPS CAVOK 27/24 Q1011 NOSIG
ZJHK,2020-10-05 18:00,ZJHK 051800Z 06003MPS CAVOK 27/25 Q1010 NOSIG
ZJHK,2020-10-05 19:00,ZJHK 051900Z 06004MPS 9999 SCT016 28/25 Q1010 NOSIG
ZJHK,2020-10-05 20:00,ZJHK 052000Z 06005MPS 9999 FEW016 SCT046 28/25 Q1010 NOSIG
ZJHK,2020-10-05 21:00,ZJHK 052100Z 07006MPS 8000 SHRA FEW011 BKN016 FEW026CB BKN046 26/26 Q1010 NOSIG
ZJHK,2020-10-05 22:00,ZJHK 052200Z 07005MPS 9999 SCT016 27/26 Q1010 RESHRA NOSIG
ZJHK,2020-10-05 23:00,ZJHK 052300Z 08007MPS 9999 FEW016 FEW023TCU SCT030 28/26 Q1010 NOSIG
ZJHK,2020-10-06 00:00,ZJHK 060000Z 08007MPS 9999 FEW016 29/25 Q1011 NOSIG
ZJHK,2020-10-06 01:00,ZJHK 060100Z 08009MPS 9999 FEW014 SCT023 29/24 Q1012 NOSIG
ZJHK,2020-10-06 02:00,ZJHK 060200Z 08010MPS 9999 FEW014 BKN023 31/25 Q1012 NOSIG
ZJHK,2020-10-06 03:00,ZJHK 060300Z 08010G15MPS 9999 FEW015 BKN023 31/24 Q1012 NOSIG
ZJHK,2020-10-06 04:00,ZJHK 060400Z 08010MPS 9999 FEW020TCU BKN023 31/24 Q1012 NOSIG
ZJHK,2020-10-06 05:00,ZJHK 060500Z 08009MPS 9999 FEW015 FEW020TCU SCT023 32/24 Q1011 NOSIG
ZJHK,2020-10-06 06:00,ZJHK 060600Z 08010MPS 9999 FEW015 FEW020TCU BKN026 31/24 Q1010 NOSIG
ZJHK,2020-10-06 07:00,ZJHK 060700Z 06009MPS 9999 FEW015 FEW020TCU BKN023 30/25 Q1010 NOSIG
ZJHK,2020-10-06 08:00,ZJHK 060800Z 06009MPS 9999 FEW020TCU SCT023 30/25 Q1010 NOSIG
ZJHK,2020-10-06 09:00,ZJHK 060900Z 06009MPS 9999 SCT015 BKN023 30/24 Q1010 NOSIG
ZJHK,2020-10-06 10:00,ZJHK 061000Z 07008MPS 9999 SCT015 BKN023 28/24 Q1010 NOSIG
ZJHK,2020-10-06 11:00,ZJHK 061100Z 07008MPS 9999 SCT015 28/24 Q1010 NOSIG
ZJHK,2020-10-06 12:00,ZJHK 061200Z 07008MPS 9999 SCT015 28/24 Q1011 NOSIG
ZJHK,2020-10-06 13:00,ZJHK 061300Z 07009MPS 9999 SCT015 SCT026 28/24 Q1012 NOSIG
ZJHK,2020-10-06 14:00,ZJHK 061400Z 06008MPS 9999 SCT015 SCT026 28/23 Q1012 NOSIG
ZJHK,2020-10-06 15:00,ZJHK 061500Z 07006MPS 9999 SCT015 SCT026 27/25 Q1012 NOSIG
ZJHK,2020-10-06 16:00,ZJHK 061600Z 06007MPS 9000 -SHRA SCT013 FEW020TCU BKN026 26/24 Q1012 NOSIG
ZJHK,2020-10-06 17:00,ZJHK 061700Z 06005MPS 9000 -SHRA FEW013 FEW020TCU BKN026 26/25 Q1012 NOSIG
ZJHK,2020-10-06 18:00,ZJHK 061800Z 06006MPS 9999 SCT023 BKN030 26/24 Q1012 NOSIG
ZJHK,2020-10-06 19:00,ZJHK 061900Z 05007MPS 9999 SCT023 BKN030 26/23 Q1012 NOSIG
ZJHK,2020-10-06 20:00,ZJHK 062000Z 05009MPS 9999 SCT023 BKN030 26/23 Q1011 NOSIG
ZJHK,2020-10-06 21:00,ZJHK 062100Z 05009MPS 9999 SCT023 BKN030 26/22 Q1011 NOSIG
ZJHK,2020-10-06 22:00,ZJHK 062200Z 05009MPS 9999 SCT023 BKN030 26/22 Q1012 NOSIG
ZJHK,2020-10-06 23:00,ZJHK 062300Z 05010G15MPS 9999 SCT023 BKN030 26/22 Q1012 NOSIG
ZJHK,2020-10-07 00:00,ZJHK 070000Z 05010MPS 9999 SCT020 BKN026 26/22 Q1013 NOSIG
ZJHK,2020-10-07 01:00,ZJHK 070100Z 05009MPS 9999 BKN022 OVC030 26/22 Q1014 NOSIG
ZJHK,2020-10-07 02:00,ZJHK 070200Z 06008MPS 6000 -RA BKN020 OVC026 25/24 Q1014 NOSIG
ZJHK,2020-10-07 03:00,ZJHK 070300Z 06008MPS 9999 BKN020 OVC026 26/23 Q1014 NOSIG
ZJHK,2020-10-07 04:00,ZJHK 070400Z 05009MPS 9999 SCT020 BKN026 28/23 Q1013 NOSIG
ZJHK,2020-10-07 05:00,ZJHK 070500Z 06009MPS 9999 SCT020 BKN026 28/23 Q1012 NOSIG
ZJHK,2020-10-07 06:00,ZJHK 070600Z 06010MPS 9999 SCT020 BKN026 28/23 Q1011 NOSIG
ZJHK,2020-10-07 07:00,ZJHK 070700Z 05009MPS 9999 BKN020 28/23 Q1010 NOSIG
ZJHK,2020-10-07 08:00,ZJHK 070800Z 06008MPS 9999 BKN020 27/23 Q1010 NOSIG
ZJHK,2020-10-07 09:00,ZJHK 070900Z 06009MPS 9999 BKN020 OVC030 27/22 Q1010 NOSIG
ZJHK,2020-10-07 10:00,ZJHK 071000Z 06007G12MPS 9999 BKN020 OVC030 27/22 Q1011 NOSIG
ZJHK,2020-10-07 11:00,ZJHK 071100Z 06006MPS 9999 -RA SCT026 OVC040 26/22 Q1011 NOSIG
ZJHK,2020-10-07 12:00,ZJHK 071200Z 06007MPS 020V080 9999 SCT026 OVC040 27/22 Q1012 NOSIG
ZJHK,2020-10-07 13:00,ZJHK 071300Z 06008MPS 9999 SCT026 OVC040 27/21 Q1013 NOSIG
ZJHK,2020-10-07 14:00,ZJHK 071400Z 05007MPS 9999 SCT026 OVC040 27/22 Q1014 NOSIG
ZJHK,2020-10-07 15:00,ZJHK 071500Z 06008MPS 9999 SCT026 OVC040 27/21 Q1014 NOSIG
ZJHK,2020-10-07 16:00,ZJHK 071600Z 06007MPS 9999 BKN026 OVC040 26/21 Q1013 NOSIG
ZJHK,2020-10-07 17:00,ZJHK 071700Z 06007MPS 9999 BKN026 OVC040 26/21 Q1013 NOSIG
ZJHK,2020-10-07 18:00,ZJHK 071800Z 06008MPS 9999 BKN026 OVC040 26/21 Q1012 NOSIG
ZJHK,2020-10-07 19:00,ZJHK 071900Z 06007MPS 9999 BKN026 OVC040 26/21 Q1012 NOSIG
ZJHK,2020-10-07 20:00,ZJHK 072000Z 05008MPS 9999 BKN026 OVC040 26/21 Q1011 NOSIG
ZJHK,2020-10-07 21:00,ZJHK 072100Z 05007MPS 9999 BKN026 OVC040 25/21 Q1012 NOSIG
ZJHK,2020-10-07 22:00,ZJHK 072200Z 05007MPS 9999 BKN026 OVC040 25/21 Q1012 NOSIG
ZJHK,2020-10-07 23:00,ZJHK 072300Z 05007MPS 9999 SCT026 BKN046 26/21 Q1012 NOSIG
ZJHK,2020-10-08 00:00,ZJHK 080000Z 05008MPS 9999 SCT023 BKN040 26/21 Q1013 NOSIG
ZJHK,2020-10-08 01:00,ZJHK 080100Z 05009MPS 9999 FEW023 SCT040 26/21 Q1014 NOSIG
ZJHK,2020-10-08 02:00,ZJHK 080200Z 05008MPS 9999 BKN020 BKN033 26/22 Q1014 NOSIG
ZJHK,2020-10-08 03:00,ZJHK 080300Z 05009G14MPS 9999 BKN020 BKN033 26/22 Q1014 NOSIG
ZJHK,2020-10-08 04:00,ZJHK 080400Z 06009MPS 9999 BKN020 BKN033 26/22 Q1013 NOSIG
ZJHK,2020-10-08 05:00,ZJHK 080500Z 05009G14MPS 9999 BKN020 BKN033 26/22 Q1013 NOSIG
ZJHK,2020-10-08 06:00,ZJHK 080600Z 05009MPS 9999 BKN023 BKN040 26/22 Q1012 NOSIG
ZJHK,2020-10-08 07:00,ZJHK 080700Z 05007MPS 9999 BKN023 BKN040 26/22 Q1011 NOSIG
ZJHK,2020-10-08 08:00,ZJHK 080800Z 05007MPS 9999 BKN023 BKN040 26/22 Q1011 NOSIG
ZJHK,2020-10-08 09:00,ZJHK 080900Z 05007MPS 9999 BKN023 BKN040 26/21 Q1011 NOSIG
ZJHK,2020-10-08 10:00,ZJHK 081000Z 06006MPS 9999 BKN023 BKN040 26/21 Q1012 NOSIG
ZJHK,2020-10-08 11:00,ZJHK 081100Z 05007MPS 9999 BKN023 BKN040 26/21 Q1013 NOSIG
ZJHK,2020-10-08 12:00,ZJHK 081200Z 06007MPS 9999 BKN023 BKN040 26/21 Q1013 NOSIG
ZJHK,2020-10-08 13:00,ZJHK 081300Z 06008MPS 9999 BKN023 26/21 Q1014 NOSIG
ZJHK,2020-10-08 14:00,ZJHK 081400Z 06008MPS 9999 SCT033 26/21 Q1014 NOSIG
ZJHK,2020-10-08 15:00,ZJHK 081500Z 06007MPS 9999 SCT033 26/21 Q1014 NOSIG
ZJHK,2020-10-08 16:00,ZJHK 081600Z 06007MPS 9999 SCT033 26/21 Q1014 NOSIG
ZJHK,2020-10-08 17:00,ZJHK 081700Z 06009G14MPS 9999 SCT023 25/21 Q1013 NOSIG
ZJHK,2020-10-08 18:00,ZJHK 081800Z 06008MPS 9999 BKN023 25/21 Q1013 NOSIG
ZJHK,2020-10-08 19:00,ZJHK 081900Z 06007MPS 9999 BKN023 25/20 Q1013 NOSIG
ZJHK,2020-10-08 20:00,ZJHK 082000Z 06007MPS 020V080 9999 SCT023 25/20 Q1013 NOSIG
ZJHK,2020-10-08 21:00,ZJHK 082100Z 05007MPS 9999 BKN023 25/21 Q1013 NOSIG
ZJHK,2020-10-08 22:00,ZJHK 082200Z 05006MPS 9999 BKN026 25/21 Q1013 NOSIG
ZJHK,2020-10-08 23:00,ZJHK 082300Z 05007MPS 9999 FEW012 BKN030 26/21 Q1014 NOSIG
ZJHK,2020-10-09 00:00,ZJHK 090000Z 04007MPS 9999 FEW012 BKN030 26/21 Q1014 NOSIG
ZJHK,2020-10-09 01:00,ZJHK 090100Z 05008MPS 9999 FEW013 BKN026 26/21 Q1015 NOSIG
ZJHK,2020-10-09 02:00,ZJHK 090200Z 05008MPS 9999 FEW013 BKN026 26/21 Q1015 NOSIG
ZJHK,2020-10-09 03:00,ZJHK 090300Z 04008G13MPS 9999 FEW016 BKN026 26/21 Q1014 NOSIG
ZJHK,2020-10-09 04:00,ZJHK 090400Z 05009MPS 9999 BKN023 OVC046 26/20 Q1014 NOSIG
ZJHK,2020-10-09 05:00,ZJHK 090500Z 04009MPS 9999 BKN023 OVC046 26/20 Q1013 NOSIG
ZJHK,2020-10-09 06:00,ZJHK 090600Z 06008MPS 9999 BKN023 OVC046 27/21 Q1012 NOSIG
ZJHK,2020-10-09 07:00,ZJHK 090700Z 05008MPS 9999 SCT023 27/21 Q1012 NOSIG
ZJHK,2020-10-09 08:00,ZJHK 090800Z 06008MPS 9999 BKN023 27/21 Q1011 NOSIG
ZJHK,2020-10-09 09:00,ZJHK 090900Z 06006MPS 9999 BKN026 27/21 Q1012 NOSIG
ZJHK,2020-10-09 10:00,ZJHK 091000Z 07005MPS 9999 BKN026 26/21 Q1012 NOSIG
ZJHK,2020-10-09 11:00,ZJHK 091100Z 05004MPS 9999 SCT033 25/20 Q1012 NOSIG
ZJHK,2020-10-09 12:00,ZJHK 091200Z 05004MPS 9999 FEW033 26/21 Q1013 NOSIG
ZJHK,2020-10-09 13:00,ZJHK 091300Z 06005MPS CAVOK 26/21 Q1014 NOSIG
ZJHK,2020-10-09 14:00,ZJHK 091400Z 06004MPS CAVOK 26/21 Q1014 NOSIG
ZJHK,2020-10-09 15:00,ZJHK 091500Z 07005MPS 9999 FEW026 BKN046 26/21 Q1014 NOSIG
ZJHK,2020-10-09 16:00,ZJHK 091600Z 06005MPS 9999 BKN046 26/20 Q1013 NOSIG
ZJHK,2020-10-09 17:00,ZJHK 091700Z 05005MPS CAVOK 26/20 Q1012 NOSIG
ZJHK,2020-10-09 18:00,ZJHK 091800Z 05005MPS CAVOK 25/20 Q1012 NOSIG
ZJHK,2020-10-09 19:00,ZJHK 091900Z 05005MPS 9999 SCT026 25/20 Q1012 NOSIG
ZJHK,2020-10-09 20:00,ZJHK 092000Z 05005MPS 9999 FEW016 25/20 Q1011 NOSIG
ZJHK,2020-10-09 21:00,ZJHK 092100Z 05005MPS CAVOK 25/20 Q1011 NOSIG
ZJHK,2020-10-09 22:00,ZJHK 092200Z 05006MPS CAVOK 25/20 Q1012 NOSIG
ZJHK,2020-10-09 23:00,ZJHK 092300Z 05005MPS 9999 SCT023 BKN046 25/20 Q1013 NOSIG
ZJHK,2020-10-10 00:00,ZJHK 100000Z 04007MPS 9999 SCT023 BKN046 25/20 Q1013 NOSIG
ZJHK,2020-10-10 01:00,ZJHK 100100Z 04008MPS CAVOK 26/20 Q1014 NOSIG
ZJHK,2020-10-10 02:00,ZJHK 100200Z 04008MPS 9999 FEW023 27/21 Q1014 NOSIG
ZJHK,2020-10-10 03:00,ZJHK 100300Z 04008MPS 9999 FEW023 27/21 Q1014 NOSIG
ZJHK,2020-10-10 04:00,ZJHK 100400Z 04008MPS 360V060 9999 SCT023 28/21 Q1013 NOSIG
ZJHK,2020-10-10 05:00,ZJHK 100500Z 04008MPS 360V070 9999 BKN023 28/21 Q1012 NOSIG
ZJHK,2020-10-10 06:00,ZJHK 100600Z 05008MPS 9999 BKN023 27/21 Q1011 NOSIG
ZJHK,2020-10-10 07:00,ZJHK 100700Z 05007MPS 9999 BKN030 27/21 Q1010 NOSIG
ZJHK,2020-10-10 08:00,ZJHK 100800Z 04007MPS 9999 FEW013 BKN023 27/21 Q1010 NOSIG
ZJHK,2020-10-10 09:00,ZJHK 100900Z 05007MPS 9999 FEW013 SCT026 27/21 Q1010 NOSIG
ZJHK,2020-10-10 10:00,ZJHK 101000Z 05006MPS 9999 FEW016 BKN040 26/21 Q1010 NOSIG
ZJHK,2020-10-10 11:00,ZJHK 101100Z 05005MPS 9999 FEW016 BKN040 26/21 Q1010 NOSIG
ZJHK,2020-10-10 12:00,ZJHK 101200Z 05005MPS 9999 BKN040 26/21 Q1011 NOSIG
ZJHK,2020-10-10 13:00,ZJHK 101300Z 05004MPS 020V080 9999 BKN040 25/21 Q1012 NOSIG
ZJHK,2020-10-10 14:00,ZJHK 101400Z 06004MPS CAVOK 25/21 Q1012 NOSIG
ZJHK,2020-10-10 15:00,ZJHK 101500Z 06003MPS CAVOK 25/21 Q1012 NOSIG
ZJHK,2020-10-10 16:00,ZJHK 101600Z 05003MPS CAVOK 25/21 Q1011 NOSIG
ZJHK,2020-10-10 17:00,ZJHK 101700Z 05004MPS CAVOK 25/21 Q1010 NOSIG
ZJHK,2020-10-10 18:00,ZJHK 101800Z 06003MPS CAVOK 25/21 Q1009 NOSIG
ZJHK,2020-10-10 19:00,ZJHK 101900Z 05003MPS CAVOK 25/21 Q1009 NOSIG
ZJHK,2020-10-10 20:00,ZJHK 102000Z 05003MPS 9999 FEW026 BKN046 25/21 Q1009 NOSIG
ZJHK,2020-10-10 21:00,ZJHK 102100Z 05004MPS 9999 BKN040 26/21 Q1009 NOSIG
ZJHK,2020-10-10 22:00,ZJHK 102200Z 04005MPS 9999 BKN040 26/21 Q1009 NOSIG
ZJHK,2020-10-10 23:00,ZJHK 102300Z 05005MPS 9999 BKN030 26/21 Q1009 NOSIG
ZJHK,2020-10-11 00:00,ZJHK 110000Z 04006MPS 9999 SCT030 BKN046 27/22 Q1010 NOSIG
ZJHK,2020-10-11 01:00,ZJHK 110100Z 04007MPS 9999 SCT026 27/22 Q1010 NOSIG
ZJHK,2020-10-11 02:00,ZJHK 110200Z 04008MPS 9999 SCT023 BKN046 27/22 Q1010 NOSIG
ZJHK,2020-10-11 03:00,ZJHK 110300Z 04008MPS 9999 SCT023 BKN046 28/22 Q1010 NOSIG
ZJHK,2020-10-11 04:00,ZJHK 110400Z 05008MPS 9999 SCT023 BKN040 27/22 Q1010 NOSIG
ZJHK,2020-10-11 05:00,ZJHK 110500Z 04007MPS 9999 SCT023 BKN046 27/22 Q1008 NOSIG
ZJHK,2020-10-11 06:00,ZJHK 110600Z 03007MPS 9999 SCT023 BKN046 27/22 Q1008 NOSIG
ZJHK,2020-10-11 07:00,ZJHK 110700Z 04007MPS 9999 SCT020 BKN040 27/23 Q1007 NOSIG
ZJHK,2020-10-11 08:00,ZJHK 110800Z 06006MPS 9999 -RA BKN020 BKN030 27/23 Q1007 NOSIG
ZJHK,2020-10-11 09:00,ZJHK 110900Z 08008MPS 9999 SCT020 BKN033 28/22 Q1007 NOSIG
ZJHK,2020-10-11 10:00,ZJHK 111000Z 06006MPS 9999 BKN026 27/22 Q1007 NOSIG
ZJHK,2020-10-11 11:00,ZJHK 111100Z 05005MPS 9999 SCT026 26/22 Q1007 NOSIG
ZJHK,2020-10-11 12:00,ZJHK 111200Z 06005MPS 9999 BKN023 26/22 Q1008 NOSIG
ZJHK,2020-10-11 13:00,ZJHK 111300Z 06006MPS 9999 BKN023 26/22 Q1008 NOSIG
ZJHK,2020-10-11 14:00,ZJHK 111400Z 07006MPS CAVOK 26/22 Q1009 NOSIG
ZJHK,2020-10-11 15:00,ZJHK 111500Z 10004MPS CAVOK 25/22 Q1009 NOSIG
ZJHK,2020-10-11 16:00,ZJHK 111600Z 06004MPS 9999 BKN046 26/22 Q1008 NOSIG
ZJHK,2020-10-11 17:00,ZJHK 111700Z 04003MPS 9999 BKN046 25/22 Q1008 NOSIG
ZJHK,2020-10-11 18:00,ZJHK 111800Z 04002MPS CAVOK 25/23 Q1007 NOSIG
ZJHK,2020-10-11 19:00,ZJHK 111900Z 05004MPS CAVOK 26/23 Q1007 NOSIG
ZJHK,2020-10-11 20:00,ZJHK 112000Z 04004MPS 9999 FEW026 26/23 Q1006 NOSIG
ZJHK,2020-10-11 21:00,ZJHK 112100Z 05004MPS 9999 FEW026 26/23 Q1006 NOSIG
ZJHK,2020-10-11 22:00,ZJHK 112200Z 05005MPS 9999 FEW026 27/23 Q1007 NOSIG
ZJHK,2020-10-11 23:00,ZJHK 112300Z 04005MPS 9999 SCT020 BKN040 27/23 Q1007 NOSIG
ZJHK,2020-10-12 00:00,ZJHK 120000Z 05006MPS 9999 SCT020 BKN040 27/23 Q1008 NOSIG
ZJHK,2020-10-12 01:00,ZJHK 120100Z 05006MPS 9999 FEW020TCU SCT020 BKN040 27/23 Q1009 NOSIG
ZJHK,2020-10-12 02:00,ZJHK 120200Z 05007MPS 9999 FEW020TCU SCT020 BKN040 27/24 Q1009 NOSIG
ZJHK,2020-10-12 03:00,ZJHK 120300Z 05005MPS 7000 -SHRA FEW013 FEW020TCU SCT020 BKN040 27/25 Q1009 NOSIG
ZJHK,2020-10-12 04:00,ZJHK 120400Z 06006MPS 9999 FEW013 FEW020TCU SCT020 BKN040 29/25 Q1008 NOSIG
ZJHK,2020-10-12 05:00,ZJHK 120500Z 07008MPS 9999 FEW020TCU SCT020 BKN040 28/25 Q1007 NOSIG
ZJHK,2020-10-12 06:00,ZJHK 120600Z 06009MPS 9999 FEW023TCU SCT023 30/24 Q1006 NOSIG
ZJHK,2020-10-12 07:00,ZJHK 120700Z 07009MPS 9999 SCT023 29/24 Q1005 NOSIG
ZJHK,2020-10-12 08:00,ZJHK 120800Z 05007MPS 9999 FEW023 30/23 Q1005 NOSIG
ZJHK,2020-10-12 09:00,ZJHK 120900Z 06007MPS 030V090 9999 FEW020 29/22 Q1005 NOSIG
ZJHK,2020-10-12 10:00,ZJHK 121000Z 06005MPS CAVOK 28/22 Q1006 NOSIG
ZJHK,2020-10-12 11:00,ZJHK 121100Z 06004MPS CAVOK 27/22 Q1006 NOSIG
ZJHK,2020-10-12 12:00,ZJHK 121200Z 05004MPS CAVOK 27/22 Q1007 NOSIG
ZJHK,2020-10-12 13:00,ZJHK 121300Z 05004MPS 020V080 CAVOK 27/22 Q1007 NOSIG
ZJHK,2020-10-12 14:00,ZJHK 121400Z 04004MPS 010V070 CAVOK 28/23 Q1007 NOSIG
ZJHK,2020-10-12 15:00,ZJHK 121500Z 04004MPS 360V060 CAVOK 28/23 Q1007 NOSIG
ZJHK,2020-10-12 16:00,ZJHK 121600Z 02004MPS 350V050 CAVOK 28/22 Q1006 NOSIG
ZJHK,2020-10-12 17:00,ZJHK 121700Z 04006MPS CAVOK 28/21 Q1006 NOSIG
ZJHK,2020-10-12 18:00,ZJHK 121800Z 06006MPS 010V080 9999 SCT046 28/21 Q1005 NOSIG
ZJHK,2020-10-12 19:00,ZJHK 121900Z 04006MPS 9999 SCT046 28/20 Q1004 NOSIG
ZJHK,2020-10-12 20:00,ZJHK 122000Z 03006G12MPS 9999 BKN040 28/21 Q1004 NOSIG
ZJHK,2020-10-12 21:00,ZJHK 122100Z 02006MPS 9999 BKN040 26/22 Q1004 NOSIG
ZJHK,2020-10-12 22:00,ZJHK 122200Z 04010G15MPS 360V060 9999 -SHRA FEW023TCU BKN023 26/22 Q1004 NOSIG
ZJHK,2020-10-12 23:00,ZJHK 122300Z 03009MPS 9000 -SHRA SCT013 FEW023TCU BKN023 25/23 Q1005 NOSIG
ZJHK,2020-10-13 00:00,ZJHK 130000Z 03009G14MPS 9999 -SHRA SCT013 FEW023TCU BKN023 26/23 Q1005 NOSIG
ZJHK,2020-10-13 01:00,ZJHK 130100Z 03011G16MPS 9999 SCT013 FEW023TCU BKN023 27/23 Q1005 NOSIG
ZJHK,2020-10-13 02:00,ZJHK 130200Z 03011G18MPS 9999 FEW015 FEW023TCU BKN023 26/22 Q1005 NOSIG
ZJHK,2020-10-13 03:00,ZJHK 130300Z 02010G15MPS 9999 SCT016 FEW026TCU BKN026 25/23 Q1005 NOSIG
ZJHK,2020-10-13 04:00,ZJHK 130400Z 03012G17MPS 9999 -SHRA SCT013 FEW020TCU BKN020 26/23 Q1004 NOSIG
ZJHK,2020-10-13 05:00,ZJHK 130500Z 03009G16MPS 6000 -SHRA BKN011 FEW020TCU BKN020 25/24 Q1002 NOSIG
ZJHK,2020-10-13 06:00,ZJHK 130600Z 03011G17MPS 5000 -SHRA BKN011 FEW020TCU BKN020 25/25 Q1001 NOSIG
ZJHK,2020-10-13 07:00,ZJHK 130700Z 02010G18MPS 4000 -SHRA BKN007 FEW020TCU BKN020 24/24 Q1000 NOSIG
ZJHK,2020-10-13 08:00,ZJHK 130800Z 03012G19MPS 6000 SHRA BKN007 FEW020TCU BKN020 25/25 Q0999 NOSIG
ZJHK,2020-10-13 09:00,ZJHK 130900Z 05006MPS 3000 SHRA BKN007 BKN020TCU SCT020 26/26 Q0999 BECMG -SHRA
ZJHK,2020-10-13 10:00,ZJHK 131000Z 06011MPS 3000 SHRA BKN007 BKN020TCU SCT020 26/26 Q0999 BECMG TL1100 -SHRA
ZJHK,2020-10-13 11:00,ZJHK 131100Z 07013G19MPS 9999 BKN007 FEW020CB BKN023 26/26 Q0999 RESHRA NOSIG
ZJHK,2020-10-13 12:00,ZJHK 131200Z 08014G20MPS 6000 -SHRA BKN007 FEW020CB BKN023 26/26 Q0999 NOSIG
ZJHK,2020-10-13 13:00,ZJHK 131300Z 09014G19MPS 8000 -SHRA BKN007 SCT020TCU 26/26 Q0999 RESHRA NOSIG
ZJHK,2020-10-13 14:00,ZJHK 131400Z 11008G13MPS 080V140 7000 -SHRA BKN007 SCT020TCU 26/26 Q1000 NOSIG
ZJHK,2020-10-13 15:00,ZJHK 131500Z 12010G16MPS 9999 BKN007 FEW020TCU BKN023 26/25 Q1001 NOSIG
ZJHK,2020-10-13 16:00,ZJHK 131600Z 12007G12MPS 100V160 9999 BKN007 FEW020TCU BKN023 26/26 Q1002 NOSIG
ZJHK,2020-10-13 17:00,ZJHK 131700Z 12005MPS 100V160 9999 BKN007 FEW023TCU BKN023 26/26 Q1003 NOSIG
ZJHK,2020-10-13 18:00,ZJHK 131800Z 11004MPS 090V150 7000 -SHRA BKN007 SCT023TCU SCT023 26/26 Q1002 NOSIG
ZJHK,2020-10-13 19:00,ZJHK 131900Z 12003MPS 7000 -SHRA BKN007 SCT023TCU SCT023 26/26 Q1002 NOSIG
ZJHK,2020-10-13 20:00,ZJHK 132000Z 12007MPS 090V150 5000 +SHRA BKN007 BKN023CB SCT023 25/25 Q1002 NOSIG
ZJHK,2020-10-13 21:00,ZJHK 132100Z 13006MPS 8000 SHRA BKN007 SCT023CB SCT023 26/26 Q1003 NOSIG
ZJHK,2020-10-13 22:00,ZJHK 132200Z 12004MPS 9999 -SHRA BKN007 FEW023TCU BKN026 26/26 Q1004 RESHRA NOSIG
ZJHK,2020-10-13 23:00,ZJHK 132300Z 13003MPS 100V160 9999 SCT010 BKN016 26/26 Q1005 NOSIG
ZJHK,2020-10-14 00:00,ZJHK 140000Z 12004MPS 9999 -SHRA FEW012 FEW020TCU SCT020 27/27 Q1006 NOSIG
ZJHK,2020-10-14 01:00,ZJHK 140100Z 12003MPS 090V170 9999 -SHRA BKN012 FEW020CB BKN020 26/26 Q1007 NOSIG
ZJHK,2020-10-14 02:00,ZJHK 140200Z 12004MPS 090V150 9999 -SHRA SCT010 FEW023TCU SCT023 26/26 Q1007 NOSIG
ZJHK,2020-10-14 03:00,ZJHK 140300Z 10003MPS 9999 FEW013 FEW023TCU SCT023 28/28 Q1007 NOSIG
ZJHK,2020-10-14 04:00,ZJHK 140400Z 10005MPS 9999 -SHRA SCT013 FEW023TCU SCT023 28/28 Q1006 RESHRA NOSIG
ZJHK,2020-10-14 05:00,ZJHK 140500Z 17002MPS 120V220 6000 SHRA SCT013 SCT023CB BKN026 27/27 Q1006 NOSIG
ZJHK,2020-10-14 06:00,ZJHK 140600Z 13006MPS 5000 SHRA SCT013 SCT023CB BKN026 25/25 Q1006 BECMG -SHRA
ZJHK,2020-10-14 07:00,ZJHK 140700Z 12006MPS 9999 SCT013 FEW023TCU SCT026 27/26 Q1005 RESHRA NOSIG
ZJHK,2020-10-14 08:00,ZJHK 140800Z 12005MPS 9999 FEW023TCU SCT026 27/26 Q1005 NOSIG
ZJHK,2020-10-14 09:00,ZJHK 140900Z 12003MPS 080V160 9999 -SHRA BKN010 FEW023TCU BKN026 26/26 Q1006 RESHRA NOSIG
ZJHK,2020-10-14 10:00,ZJHK 141000Z 15005MPS 110V170 5000 SHRA BKN010 FEW023CB BKN026 25/25 Q1007 BECMG -SHRA
ZJHK,2020-10-14 11:00,ZJHK 141100Z 15003MPS 120V180 9999 -SHRA BKN010 FEW023TCU BKN026 25/25 Q1007 RESHRA NOSIG
ZJHK,2020-10-14 12:00,ZJHK 141200Z 11002MPS 9999 -SHRA SCT013 FEW023TCU BKN026 25/25 Q1008 NOSIG
ZJHK,2020-10-14 13:00,ZJHK 141300Z 15005G10MPS 120V190 4000 SHRA FEW004 SCT010 SCT023CB 24/24 Q1009 BECMG AT1320 -SHRA
ZJHK,2020-10-14 14:00,ZJHK 141400Z 12008MPS 4000 SHRA SCT009 SCT023CB 25/25 Q1010 BECMG AT1500 -SHRA
ZJHK,2020-10-14 15:00,ZJHK 141500Z 13003MPS 100V160 9999 -SHRA FEW013 FEW023TCU 24/24 Q1010 RESHRA NOSIG
ZJHK,2020-10-14 16:00,ZJHK 141600Z 13002MPS 9999 -SHRA FEW023TCU BKN046 24/24 Q1010 NOSIG
ZJHK,2020-10-14 17:00,ZJHK 141700Z 13006G11MPS 100V170 7000 SHRA SCT007 SCT023CB BKN046 24/24 Q1010 BECMG AT1720 -SHRA
ZJHK,2020-10-14 18:00,ZJHK 141800Z 11002MPS 9999 -SHRA FEW023TCU BKN046 24/24 Q1009 RESHRA NOSIG
ZJHK,2020-10-14 19:00,ZJHK 141900Z 09001MPS 9999 -SHRA FEW023TCU FEW046 24/24 Q1009 NOSIG
ZJHK,2020-10-14 20:00,ZJHK 142000Z 05002MPS 9999 FEW046 24/24 Q1008 NOSIG
ZJHK,2020-10-14 21:00,ZJHK 142100Z 09003MPS 050V110 9999 FEW013 25/25 Q1009 NOSIG
ZJHK,2020-10-14 22:00,ZJHK 142200Z 10002MPS 9999 SCT046 25/25 Q1008 NOSIG
ZJHK,2020-10-14 23:00,ZJHK 142300Z 11004MPS 080V140 9999 FEW046 25/25 Q1009 NOSIG
ZJHK,2020-10-15 00:00,ZJHK 150000Z 09005MPS 9999 FEW033 26/26 Q1010 NOSIG
ZJHK,2020-10-15 01:00,ZJHK 150100Z 11005MPS 9999 BKN015 FEW026CB SCT026 26/25 Q1011 NOSIG
ZJHK,2020-10-15 02:00,ZJHK 150200Z 11005MPS 9999 FEW015 FEW026TCU BKN026 26/25 Q1011 NOSIG
ZJHK,2020-10-15 03:00,ZJHK 150300Z 07005G10MPS 9999 -SHRA FEW010 FEW020TCU SCT026 26/26 Q1011 BECMG SHRA
ZJHK,2020-10-15 04:00,ZJHK 150400Z 10008MPS 7000 -SHRA FEW010 FEW020TCU SCT026 27/26 Q1010 NOSIG
ZJHK,2020-10-15 05:00,ZJHK 150500Z 09008MPS 9999 -RA SCT015 BKN026 28/26 Q1009 NOSIG
ZJHK,2020-10-15 06:00,ZJHK 150600Z 09009MPS 9999 FEW015 BKN026 29/26 Q1009 NOSIG
ZJHK,2020-10-15 07:00,ZJHK 150700Z 08010MPS 9999 -SHRA SCT013 FEW020TCU BKN023 28/25 Q1008 NOSIG
ZJHK,2020-10-15 08:00,ZJHK 150800Z 08009MPS 9999 FEW015 BKN026 28/25 Q1008 NOSIG
ZJHK,2020-10-15 09:00,ZJHK 150900Z 08008MPS 9999 -SHRA FEW013 FEW020TCU SCT020 27/25 Q1008 NOSIG
ZJHK,2020-10-15 10:00,ZJHK 151000Z 09006MPS 9999 -SHRA FEW013 FEW020TCU SCT020 26/25 Q1009 NOSIG
ZJHK,2020-10-15 11:00,ZJHK 151100Z 08008MPS 9999 -SHRA FEW013 FEW020TCU SCT020 26/25 Q1009 NOSIG
ZJHK,2020-10-15 12:00,ZJHK 151200Z 08008MPS 9999 FEW013 SCT020 26/25 Q1010 NOSIG
ZJHK,2020-10-15 13:00,ZJHK 151300Z 08009MPS 9999 FEW013 SCT020 27/24 Q1011 NOSIG
ZJHK,2020-10-15 14:00,ZJHK 151400Z 08008MPS 9999 SCT020 SCT033 27/24 Q1011 NOSIG
ZJHK,2020-10-15 15:00,ZJHK 151500Z 08007MPS 9999 FEW014 SCT023 26/24 Q1011 NOSIG
ZJHK,2020-10-15 16:00,ZJHK 151600Z 07007MPS 9999 SCT023 SCT040 26/24 Q1011 NOSIG
ZJHK,2020-10-15 17:00,ZJHK 151700Z 08006MPS 9999 SCT020 SCT030 26/25 Q1010 NOSIG
ZJHK,2020-10-15 18:00,ZJHK 151800Z 08007MPS 9999 -SHRA SCT014 BKN030 26/25 Q1010 NOSIG
ZJHK,2020-10-15 19:00,ZJHK 151900Z 08008MPS 9999 SCT014 BKN030 26/25 Q1009 NOSIG
ZJHK,2020-10-15 20:00,ZJHK 152000Z 08008MPS 9999 SCT014 BKN026 26/25 Q1009 NOSIG
ZJHK,2020-10-15 21:00,ZJHK 152100Z 08006MPS 7000 -SHRA SCT011 FEW020TCU BKN026 25/25 Q1009 NOSIG
ZJHK,2020-10-15 22:00,ZJHK 152200Z 06006MPS 7000 -SHRA SCT011 FEW020TCU BKN023 25/25 Q1009 NOSIG
ZJHK,2020-10-15 23:00,ZJHK 152300Z 07008MPS 6000 -SHRA SCT013 FEW020TCU BKN023 26/26 Q1010 NOSIG
ZJHK,2020-10-16 00:00,ZJHK 160000Z 08009MPS 7000 -SHRA SCT011 FEW020TCU BKN023 26/26 Q1010 RESHRA NOSIG
ZJHK,2020-10-16 01:00,ZJHK 160100Z 06010MPS 5000 -SHRA SCT010 FEW020TCU BKN023 25/25 Q1011 NOSIG
ZJHK,2020-10-16 02:00,ZJHK 160200Z 06008MPS 5000 -SHRA BKN010 FEW020TCU BKN020 26/26 Q1011 NOSIG
ZJHK,2020-10-16 03:00,ZJHK 160300Z 06008MPS 5000 -SHRA BKN008 FEW020TCU BKN020 25/25 Q1011 NOSIG
ZJHK,2020-10-16 04:00,ZJHK 160400Z 07008MPS 9999 BKN012 FEW020TCU BKN020 26/25 Q1011 NOSIG
ZJHK,2020-10-16 05:00,ZJHK 160500Z 06010G16MPS 9999 BKN012 BKN020 27/24 Q1010 NOSIG
ZJHK,2020-10-16 06:00,ZJHK 160600Z 06010MPS 9999 BKN013 BKN023 27/23 Q1009 NOSIG
ZJHK,2020-10-16 07:00,ZJHK 160700Z 06011G17MPS 9999 BKN013 BKN023 27/23 Q1008 NOSIG
ZJHK,2020-10-16 08:00,ZJHK 160800Z 06010G15MPS 9999 BKN020 FEW026TCU BKN026 27/22 Q1009 BECMG AT0900 SHRA
ZJHK,2020-10-16 09:00,ZJHK 160900Z 06009MPS 7000 -SHRA BKN016 SCT026TCU BKN026 25/24 Q1009 BECMG SHRA
ZJHK,2020-10-16 10:00,ZJHK 161000Z 06009MPS 7000 -SHRA BKN010 BKN020 SCT026TCU 25/25 Q1009 RESHRA NOSIG
ZJHK,2020-10-16 11:00,ZJHK 161100Z 06009MPS 7000 -SHRA SCT012 BKN020 SCT026TCU 24/24 Q1010 NOSIG
ZJHK,2020-10-16 12:00,ZJHK 161200Z 06008MPS 7000 -SHRA BKN020 SCT026TCU 25/25 Q1010 NOSIG
ZJHK,2020-10-16 13:00,ZJHK 161300Z 06008MPS 9999 -RA BKN026 BKN033 26/23 Q1011 NOSIG
ZJHK,2020-10-16 14:00,ZJHK 161400Z 06009MPS 9999 -SHRA FEW026TCU BKN026 BKN033 26/23 Q1011 NOSIG
ZJHK,2020-10-16 15:00,ZJHK 161500Z 06008MPS 9999 -SHRA FEW026TCU SCT026 BKN046 27/23 Q1011 NOSIG
ZJHK,2020-10-16 16:00,ZJHK 161600Z 05007MPS 9999 BKN018 FEW023TCU BKN046 26/24 Q1011 NOSIG
ZJHK,2020-10-16 17:00,ZJHK 161700Z 06008MPS 9000 -SHRA FEW020TCU BKN020 BKN026 26/24 Q1011 NOSIG
ZJHK,2020-10-16 18:00,ZJHK 161800Z 05010MPS 9000 -SHRA FEW020TCU SCT020 BKN026 26/23 Q1011 BECMG SHRA
ZJHK,2020-10-16 19:00,ZJHK 161900Z 05008MPS 9000 -SHRA FEW020TCU SCT020 BKN026 25/23 Q1010 NOSIG
ZJHK,2020-10-16 20:00,ZJHK 162000Z 06007MPS 7000 -SHRA BKN015 FEW026TCU BKN026 25/24 Q1010 NOSIG
ZJHK,2020-10-16 21:00,ZJHK 162100Z 05008MPS 9999 BKN015 BKN026 24/24 Q1010 NOSIG
ZJHK,2020-10-16 22:00,ZJHK 162200Z 05008MPS 9999 BKN015 BKN026 25/23 Q1010 NOSIG
ZJHK,2020-10-16 23:00,ZJHK 162300Z 06009MPS 8000 -RA BKN015 OVC023 25/23 Q1011 NOSIG
ZJHK,2020-10-17 00:00,ZJHK 170000Z 05009MPS 6000 -RA BKN015 OVC023 25/23 Q1011 NOSIG
ZJHK,2020-10-17 01:00,ZJHK 170100Z 05009MPS 8000 -RA BKN016 OVC023 25/23 Q1012 NOSIG
ZJHK,2020-10-17 02:00,ZJHK 170200Z 06007MPS 4000 -RA BR BKN012 OVC023 24/24 Q1012 NOSIG
ZJHK,2020-10-17 03:00,ZJHK 170300Z 05008MPS 8000 BKN016 OVC023 25/23 Q1012 NOSIG
ZJHK,2020-10-17 04:00,ZJHK 170400Z 06008G14MPS 7000 -RA BKN016 OVC023 25/23 Q1012 NOSIG
ZJHK,2020-10-17 05:00,ZJHK 170500Z 05007MPS 9999 BKN016 OVC023 25/24 Q1011 NOSIG
ZJHK,2020-10-17 06:00,ZJHK 170600Z 06009MPS 9999 BKN016 OVC023 25/23 Q1011 NOSIG
ZJHK,2020-10-17 07:00,ZJHK 170700Z 06008G14MPS 9999 -RA BKN016 OVC023 26/23 Q1010 NOSIG
ZJHK,2020-10-17 08:00,ZJHK 170800Z 06010G15MPS 9999 BKN017 OVC026 26/22 Q1010 NOSIG
ZJHK,2020-10-17 09:00,ZJHK 170900Z 06009MPS 9999 BKN016 OVC026 26/22 Q1010 NOSIG
ZJHK,2020-10-17 10:00,ZJHK 171000Z 06009MPS 9999 BKN016 OVC026 26/22 Q1011 NOSIG
ZJHK,2020-10-17 11:00,ZJHK 171100Z 06008G13MPS 9999 BKN020 OVC026 26/22 Q1011 NOSIG
ZJHK,2020-10-17 12:00,ZJHK 171200Z 06009G14MPS 9999 BKN020 OVC026 26/22 Q1011 NOSIG
ZJHK,2020-10-17 13:00,ZJHK 171300Z 06009MPS 9999 BKN020 OVC030 26/22 Q1012 NOSIG
ZJHK,2020-10-17 14:00,ZJHK 171400Z 06009MPS 9999 BKN020 OVC030 26/22 Q1012 NOSIG
ZJHK,2020-10-17 15:00,ZJHK 171500Z 05008G13MPS 9999 BKN020 OVC030 26/22 Q1012 NOSIG
ZJHK,2020-10-17 16:00,ZJHK 171600Z 06008MPS 9999 BKN020 OVC030 26/22 Q1012 NOSIG
ZJHK,2020-10-17 17:00,ZJHK 171700Z 06008MPS 7000 -RA FEW013 BKN018 OVC023 25/23 Q1012 NOSIG
ZJHK,2020-10-17 18:00,ZJHK 171800Z 06008MPS 9999 BKN018 OVC023 25/22 Q1011 NOSIG
ZJHK,2020-10-17 19:00,ZJHK 171900Z 06008MPS 8000 -RA BKN015 OVC023 24/23 Q1011 NOSIG
ZJHK,2020-10-17 20:00,ZJHK 172000Z 06008MPS 7000 -RA BKN015 OVC023 24/23 Q1011 NOSIG
ZJHK,2020-10-17 21:00,ZJHK 172100Z 06008MPS 5000 -RA BR BKN007 OVC020 24/24 Q1011 NOSIG
ZJHK,2020-10-17 22:00,ZJHK 172200Z 06007MPS 6000 -RA BKN007 OVC020 23/23 Q1011 NOSIG
ZJHK,2020-10-17 23:00,ZJHK 172300Z 05008MPS 4000 -RA BR BKN007 OVC020 24/24 Q1011 NOSIG
ZJHK,2020-10-18 00:00,ZJHK 180000Z 06009G14MPS 8000 -RA BKN007 OVC023 24/24 Q1012 NOSIG
ZJHK,2020-10-18 01:00,ZJHK 180100Z 06008MPS 5000 -RA BR BKN007 OVC023 24/24 Q1013 NOSIG
ZJHK,2020-10-18 02:00,ZJHK 180200Z 07007MPS 5000 -RA BR BKN007 OVC023 24/24 Q1014 NOSIG
ZJHK,2020-10-18 03:00,ZJHK 180300Z 06008MPS 5000 -RA BR BKN007 OVC023 24/24 Q1014 NOSIG
ZJHK,2020-10-18 04:00,ZJHK 180400Z 07008MPS 8000 -RA BKN007 OVC023 24/24 Q1013 NOSIG
ZJHK,2020-10-18 05:00,ZJHK 180500Z 06009MPS 8000 -RA BKN013 OVC023 25/23 Q1012 NOSIG
ZJHK,2020-10-18 06:00,ZJHK 180600Z 06010MPS 9999 BKN016 OVC023 25/23 Q1012 NOSIG
ZJHK,2020-10-18 07:00,ZJHK 180700Z 06010MPS 9999 BKN016 OVC023 25/23 Q1011 NOSIG
ZJHK,2020-10-18 08:00,ZJHK 180800Z 06010MPS 9999 BKN016 OVC023 26/23 Q1011 NOSIG
ZJHK,2020-10-18 09:00,ZJHK 180900Z 06009MPS 9999 BKN016 OVC023 25/23 Q1012 NOSIG
ZJHK,2020-10-18 10:00,ZJHK 181000Z 06009MPS 9999 BKN016 OVC023 25/23 Q1012 NOSIG
ZJHK,2020-10-18 11:00,ZJHK 181100Z 07009MPS 9999 BKN016 OVC023 25/22 Q1012 NOSIG
ZJHK,2020-10-18 12:00,ZJHK 181200Z 07008MPS 9999 BKN016 OVC023 25/23 Q1013 NOSIG
ZJHK,2020-10-18 13:00,ZJHK 181300Z 07009MPS 9999 BKN016 OVC023 26/22 Q1013 NOSIG
ZJHK,2020-10-18 14:00,ZJHK 181400Z 07008MPS 9999 BKN016 OVC023 25/22 Q1013 NOSIG
ZJHK,2020-10-18 15:00,ZJHK 181500Z 06009MPS 9999 OVC023 25/21 Q1014 NOSIG
ZJHK,2020-10-18 16:00,ZJHK 181600Z 07007MPS 9999 OVC023 26/21 Q1013 NOSIG
ZJHK,2020-10-18 17:00,ZJHK 181700Z 07007MPS 9999 OVC033 25/21 Q1013 NOSIG
ZJHK,2020-10-18 18:00,ZJHK 181800Z 05006MPS 9999 OVC033 25/21 Q1012 NOSIG
ZJHK,2020-10-18 19:00,ZJHK 181900Z 06006MPS 030V090 9999 OVC033 25/21 Q1012 NOSIG
ZJHK,2020-10-18 20:00,ZJHK 182000Z 05008MPS 9999 OVC033 25/21 Q1012 NOSIG
ZJHK,2020-10-18 21:00,ZJHK 182100Z 05007MPS 9999 SCT023 OVC033 24/22 Q1012 NOSIG
ZJHK,2020-10-18 22:00,ZJHK 182200Z 05008MPS 9999 -RA BKN020 OVC033 24/22 Q1012 NOSIG
ZJHK,2020-10-18 23:00,ZJHK 182300Z 06007MPS 9999 BKN016 OVC033 24/22 Q1012 NOSIG
ZJHK,2020-10-19 00:00,ZJHK 190000Z 06007MPS 9999 BKN016 OVC026 25/21 Q1013 NOSIG
ZJHK,2020-10-19 01:00,ZJHK 190100Z 06008G13MPS 9999 -RA BKN018 OVC026 24/22 Q1014 NOSIG
ZJHK,2020-10-19 02:00,ZJHK 190200Z 05007MPS 9999 BKN018 OVC026 25/22 Q1014 NOSIG
ZJHK,2020-10-19 03:00,ZJHK 190300Z 05008MPS 9999 BKN018 OVC026 25/22 Q1014 NOSIG
ZJHK,2020-10-19 04:00,ZJHK 190400Z 06009MPS 9999 BKN018 OVC026 25/21 Q1014 NOSIG
ZJHK,2020-10-19 05:00,ZJHK 190500Z 06008MPS 9999 BKN018 OVC026 25/21 Q1013 NOSIG
ZJHK,2020-10-19 06:00,ZJHK 190600Z 06008G13MPS 9999 BKN020 BKN030 25/21 Q1013 NOSIG
ZJHK,2020-10-19 07:00,ZJHK 190700Z 06009MPS 9999 BKN023 25/21 Q1012 NOSIG
ZJHK,2020-10-19 08:00,ZJHK 190800Z 06007MPS 9999 BKN023 25/21 Q1012 NOSIG
ZJHK,2020-10-19 09:00,ZJHK 190900Z 06007MPS 9999 BKN020 BKN026 25/21 Q1012 NOSIG
ZJHK,2020-10-19 10:00,ZJHK 191000Z 06005MPS 9999 BKN020 BKN026 25/21 Q1013 NOSIG
ZJHK,2020-10-19 11:00,ZJHK 191100Z 06007MPS 9999 BKN020 BKN026 25/21 Q1013 NOSIG
ZJHK,2020-10-19 12:00,ZJHK 191200Z 07008MPS 9999 BKN020 BKN030 25/21 Q1013 NOSIG
ZJHK,2020-10-19 13:00,ZJHK 191300Z 06008MPS 9999 BKN023 BKN030 25/21 Q1014 NOSIG
ZJHK,2020-10-19 14:00,ZJHK 191400Z 06007MPS 9999 BKN023 BKN033 25/21 Q1015 NOSIG
ZJHK,2020-10-19 15:00,ZJHK 191500Z 06006MPS 9999 BKN023 BKN033 25/21 Q1014 NOSIG
ZJHK,2020-10-19 16:00,ZJHK 191600Z 06006MPS 9999 BKN026 BKN040 25/21 Q1014 NOSIG
ZJHK,2020-10-19 17:00,ZJHK 191700Z 06006MPS 9999 SCT026 BKN040 25/20 Q1014 NOSIG
ZJHK,2020-10-19 18:00,ZJHK 191800Z 07004MPS 9999 BKN030 25/20 Q1014 NOSIG
ZJHK,2020-10-19 19:00,ZJHK 191900Z 06005MPS 9999 -RA BKN026 24/21 Q1013 NOSIG
ZJHK,2020-10-19 20:00,ZJHK 192000Z 06005MPS 8000 -RA BKN020 BKN026 23/22 Q1013 NOSIG
ZJHK,2020-10-19 21:00,ZJHK 192100Z 05006MPS 9999 BKN020 BKN026 23/21 Q1013 NOSIG
ZJHK,2020-10-19 22:00,ZJHK 192200Z 05007MPS 9999 BKN020 BKN026 24/21 Q1013 NOSIG
ZJHK,2020-10-19 23:00,ZJHK 192300Z 05007MPS 9999 BKN020 BKN026 24/20 Q1014 NOSIG
ZJHK,2020-10-20 00:00,ZJHK 200000Z 05008MPS 9999 BKN020 BKN026 24/20 Q1015 NOSIG
ZJHK,2020-10-20 01:00,ZJHK 200100Z 04008MPS 9999 BKN023 BKN030 24/21 Q1015 WS RWY09 NOSIG
ZJHK,2020-10-20 02:00,ZJHK 200200Z 05008MPS 9999 BKN020 OVC030 24/21 Q1015 NOSIG
ZJHK,2020-10-20 03:00,ZJHK 200300Z 05007MPS 9999 BKN020 OVC030 24/21 Q1015 NOSIG
ZJHK,2020-10-20 04:00,ZJHK 200400Z 05008MPS 9999 BKN020 OVC030 25/21 Q1015 NOSIG
ZJHK,2020-10-20 05:00,ZJHK 200500Z 04008MPS 9999 BKN020 OVC030 25/21 Q1014 NOSIG
ZJHK,2020-10-20 06:00,ZJHK 200600Z 06009MPS 9999 SCT020 27/22 Q1013 NOSIG
ZJHK,2020-10-20 07:00,ZJHK 200700Z 05008MPS 9999 SCT026 26/21 Q1013 NOSIG
ZJHK,2020-10-20 08:00,ZJHK 200800Z 06007MPS 9999 FEW026 26/21 Q1013 NOSIG
ZJHK,2020-10-20 09:00,ZJHK 200900Z 06006MPS 9999 SCT020 OVC030 25/21 Q1013 NOSIG
ZJHK,2020-10-20 10:00,ZJHK 201000Z 04006MPS 9999 FEW023 SCT030 25/21 Q1013 NOSIG
ZJHK,2020-10-20 11:00,ZJHK 201100Z 05005MPS 9999 FEW023 SCT030 24/21 Q1014 NOSIG
ZJHK,2020-10-20 12:00,ZJHK 201200Z 05005MPS 9999 FEW023 SCT030 25/21 Q1015 NOSIG
ZJHK,2020-10-20 13:00,ZJHK 201300Z 06005MPS 9999 FEW023 SCT030 25/21 Q1015 NOSIG
ZJHK,2020-10-20 14:00,ZJHK 201400Z 06004MPS 9999 FEW023 SCT030 24/21 Q1015 NOSIG
ZJHK,2020-10-20 15:00,ZJHK 201500Z 05003MPS 9999 FEW023 23/21 Q1015 NOSIG
ZJHK,2020-10-20 16:00,ZJHK 201600Z 05003MPS 9999 FEW023 23/20 Q1015 NOSIG
ZJHK,2020-10-20 17:00,ZJHK 201700Z 02004MPS 340V050 9999 -RA SCT020 SCT046 24/21 Q1015 NOSIG
ZJHK,2020-10-20 18:00,ZJHK 201800Z 02003MPS 9999 -RA SCT020 SCT046 23/22 Q1014 NOSIG
ZJHK,2020-10-20 19:00,ZJHK 201900Z 03005MPS 9999 SCT020 SCT040 24/21 Q1014 NOSIG
ZJHK,2020-10-20 20:00,ZJHK 202000Z 36004MPS 330V040 9999 SCT020 SCT040 24/20 Q1014 NOSIG
ZJHK,2020-10-20 21:00,ZJHK 202100Z 35005MPS 9999 SCT020 SCT040 23/19 Q1014 NOSIG
ZJHK,2020-10-20 22:00,ZJHK 202200Z 36005MPS 330V030 9999 SCT020 SCT040 22/18 Q1014 NOSIG
ZJHK,2020-10-20 23:00,ZJHK 202300Z 35005MPS 330V030 9999 BKN036 22/18 Q1015 NOSIG
ZJHK,2020-10-21 00:00,ZJHK 210000Z 36006MPS 9999 BKN040 22/18 Q1015 NOSIG
ZJHK,2020-10-21 01:00,ZJHK 210100Z 36006MPS 9999 SCT040 22/17 Q1016 NOSIG
ZJHK,2020-10-21 02:00,ZJHK 210200Z 35006MPS 320V040 9999 FEW016 23/17 Q1016 NOSIG
ZJHK,2020-10-21 03:00,ZJHK 210300Z 36005MPS 320V030 9999 FEW024 24/18 Q1015 NOSIG
ZJHK,2020-10-21 04:00,ZJHK 210400Z 36005MPS 320V050 9999 BKN026 24/18 Q1014 NOSIG
ZJHK,2020-10-21 05:00,ZJHK 210500Z 36005MPS 320V060 9999 BKN026 24/18 Q1013 NOSIG
ZJHK,2020-10-21 06:00,ZJHK 210600Z 36005MPS 340V040 9999 SCT026 25/18 Q1012 NOSIG
ZJHK,2020-10-21 07:00,ZJHK 210700Z 34006MPS 310V030 9999 FEW026 26/17 Q1011 NOSIG
ZJHK,2020-10-21 08:00,ZJHK 210800Z 35005MPS 320V020 CAVOK 26/17 Q1010 NOSIG
ZJHK,2020-10-21 09:00,ZJHK 210900Z 02004MPS CAVOK 25/18 Q1010 NOSIG
ZJHK,2020-10-21 10:00,ZJHK 211000Z 01003MPS 330V060 CAVOK 25/17 Q1011 NOSIG
ZJHK,2020-10-21 11:00,ZJHK 211100Z 35003MPS CAVOK 24/17 Q1011 NOSIG
ZJHK,2020-10-21 12:00,ZJHK 211200Z 35003MPS 320V040 CAVOK 24/17 Q1012 NOSIG
ZJHK,2020-10-21 13:00,ZJHK 211300Z 34004MPS 310V020 CAVOK 23/17 Q1012 NOSIG
ZJHK,2020-10-21 14:00,ZJHK 211400Z 34005MPS 320V030 CAVOK 23/16 Q1012 NOSIG
ZJHK,2020-10-21 15:00,ZJHK 211500Z 34006MPS CAVOK 23/17 Q1012 NOSIG
ZJHK,2020-10-21 16:00,ZJHK 211600Z 34006MPS CAVOK 22/16 Q1012 NOSIG
ZJHK,2020-10-21 17:00,ZJHK 211700Z 34005MPS CAVOK 22/16 Q1012 NOSIG
ZJHK,2020-10-21 18:00,ZJHK 211800Z 34005MPS CAVOK 22/16 Q1011 NOSIG
ZJHK,2020-10-21 19:00,ZJHK 211900Z 34004MPS 310V010 CAVOK 21/16 Q1011 NOSIG
ZJHK,2020-10-21 20:00,ZJHK 212000Z 34005MPS CAVOK 21/16 Q1010 NOSIG
ZJHK,2020-10-21 21:00,ZJHK 212100Z 34005MPS 9999 BKN046 21/16 Q1010 NOSIG
ZJHK,2020-10-21 22:00,ZJHK 212200Z 32004MPS 290V360 CAVOK 20/15 Q1010 NOSIG
ZJHK,2020-10-21 23:00,ZJHK 212300Z 33003MPS CAVOK 20/15 Q1011 NOSIG
ZJHK,2020-10-22 00:00,ZJHK 220000Z 33003MPS 300V020 CAVOK 21/16 Q1012 NOSIG
ZJHK,2020-10-22 01:00,ZJHK 220100Z 33004MPS CAVOK 21/16 Q1012 NOSIG
ZJHK,2020-10-22 02:00,ZJHK 220200Z 33004MPS 280V020 CAVOK 23/16 Q1012 NOSIG
ZJHK,2020-10-22 03:00,ZJHK 220300Z 32004MPS 280V350 CAVOK 23/16 Q1012 NOSIG
ZJHK,2020-10-22 04:00,ZJHK 220400Z 34004MPS 300V010 CAVOK 25/16 Q1011 NOSIG
ZJHK,2020-10-22 05:00,ZJHK 220500Z VRB04MPS CAVOK 25/17 Q1010 NOSIG
ZJHK,2020-10-22 06:00,ZJHK 220600Z 01004MPS 310V040 9999 FEW033 27/17 Q1009 NOSIG
ZJHK,2020-10-22 07:00,ZJHK 220700Z 36004MPS 320V080 9999 FEW046 26/17 Q1008 NOSIG
ZJHK,2020-10-22 08:00,ZJHK 220800Z 31004MPS 280V360 CAVOK 26/17 Q1009 NOSIG
ZJHK,2020-10-22 09:00,ZJHK 220900Z 27004MPS CAVOK 24/18 Q1009 NOSIG
ZJHK,2020-10-22 10:00,ZJHK 221000Z 28002MPS CAVOK 24/18 Q1010 NOSIG
ZJHK,2020-10-22 11:00,ZJHK 221100Z 27001MPS CAVOK 23/19 Q1010 NOSIG
ZJHK,2020-10-22 12:00,ZJHK 221200Z VRB01MPS 9999 BKN046 23/19 Q1010 NOSIG
ZJHK,2020-10-22 13:00,ZJHK 221300Z 28002MPS 9999 BKN046 22/20 Q1011 NOSIG
ZJHK,2020-10-22 14:00,ZJHK 221400Z 34004MPS 9999 BKN046 25/18 Q1011 NOSIG
ZJHK,2020-10-22 15:00,ZJHK 221500Z 34005MPS 9999 SCT030 BKN046 25/18 Q1011 NOSIG
ZJHK,2020-10-22 16:00,ZJHK 221600Z 34004MPS 9999 SCT030 BKN046 24/18 Q1010 NOSIG
ZJHK,2020-10-22 17:00,ZJHK 221700Z 35004MPS 330V030 9999 BKN046 24/17 Q1011 NOSIG
ZJHK,2020-10-22 18:00,ZJHK 221800Z 35003MPS 320V020 CAVOK 24/17 Q1010 NOSIG
ZJHK,2020-10-22 19:00,ZJHK 221900Z 34004MPS CAVOK 24/17 Q1010 NOSIG
ZJHK,2020-10-22 20:00,ZJHK 222000Z 34004MPS CAVOK 23/16 Q1011 NOSIG
ZJHK,2020-10-22 21:00,ZJHK 222100Z 34004MPS CAVOK 23/15 Q1011 NOSIG
ZJHK,2020-10-22 22:00,ZJHK 222200Z 34004MPS 9999 SCT046 22/15 Q1010 NOSIG
ZJHK,2020-10-22 23:00,ZJHK 222300Z 35004MPS 310V020 9999 BKN046 23/15 Q1011 NOSIG
ZJHK,2020-10-23 00:00,ZJHK 230000Z 36003MPS 9999 BKN046 23/15 Q1012 NOSIG
ZJHK,2020-10-23 01:00,ZJHK 230100Z 36003MPS CAVOK 23/16 Q1013 NOSIG
ZJHK,2020-10-23 02:00,ZJHK 230200Z 01006MPS 340V040 CAVOK 25/15 Q1013 NOSIG
ZJHK,2020-10-23 03:00,ZJHK 230300Z 02006MPS 340V060 CAVOK 26/16 Q1012 NOSIG
ZJHK,2020-10-23 04:00,ZJHK 230400Z 02008MPS 350V060 CAVOK 26/16 Q1012 NOSIG
ZJHK,2020-10-23 05:00,ZJHK 230500Z 03007G12MPS 010V070 9999 FEW040 26/15 Q1011 NOSIG
ZJHK,2020-10-23 06:00,ZJHK 230600Z 03007MPS 360V060 CAVOK 26/15 Q1010 NOSIG
ZJHK,2020-10-23 07:00,ZJHK 230700Z 03007MPS 360V070 CAVOK 25/14 Q1010 NOSIG
ZJHK,2020-10-23 08:00,ZJHK 230800Z 05007MPS CAVOK 26/14 Q1010 NOSIG
ZJHK,2020-10-23 09:00,ZJHK 230900Z 04005MPS CAVOK 25/15 Q1010 NOSIG
ZJHK,2020-10-23 10:00,ZJHK 231000Z 06004MPS CAVOK 25/14 Q1011 NOSIG
ZJHK,2020-10-23 11:00,ZJHK 231100Z 04004MPS 010V080 CAVOK 25/15 Q1012 NOSIG
ZJHK,2020-10-23 12:00,ZJHK 231200Z 05005MPS CAVOK 25/15 Q1012 NOSIG
ZJHK,2020-10-23 13:00,ZJHK 231300Z 05005MPS CAVOK 25/14 Q1013 NOSIG
ZJHK,2020-10-23 14:00,ZJHK 231400Z 06005MPS CAVOK 24/14 Q1013 NOSIG
ZJHK,2020-10-23 15:00,ZJHK 231500Z 06006MPS CAVOK 24/14 Q1013 NOSIG
ZJHK,2020-10-23 16:00,ZJHK 231600Z 06006MPS 9999 BKN046 24/15 Q1013 NOSIG
ZJHK,2020-10-23 17:00,ZJHK 231700Z 03005MPS 360V060 9999 BKN046 25/15 Q1012 NOSIG
ZJHK,2020-10-23 18:00,ZJHK 231800Z 04006MPS 9999 BKN046 25/12 Q1012 NOSIG
ZJHK,2020-10-23 19:00,ZJHK 231900Z 03005MPS CAVOK 25/12 Q1011 NOSIG
ZJHK,2020-10-23 20:00,ZJHK 232000Z 03005MPS CAVOK 25/13 Q1011 NOSIG
ZJHK,2020-10-23 21:00,ZJHK 232100Z 03006MPS CAVOK 25/12 Q1012 NOSIG
ZJHK,2020-10-23 22:00,ZJHK 232200Z 04006MPS CAVOK 25/12 Q1012 NOSIG
ZJHK,2020-10-23 23:00,ZJHK 232300Z 02005MPS 350V050 CAVOK 25/14 Q1013 NOSIG
ZJHK,2020-10-24 00:00,ZJHK 240000Z 02003MPS 350V060 9999 SCT040 24/17 Q1013 NOSIG
ZJHK,2020-10-24 01:00,ZJHK 240100Z 04006MPS 9999 SCT040 25/15 Q1014 NOSIG
ZJHK,2020-10-24 02:00,ZJHK 240200Z 04007G12MPS 010V070 9999 SCT036 24/16 Q1014 NOSIG
ZJHK,2020-10-24 03:00,ZJHK 240300Z 05008MPS 020V080 9999 -RA SCT033 23/17 Q1014 NOSIG
ZJHK,2020-10-24 04:00,ZJHK 240400Z 04007G12MPS 010V070 3000 SHRA FEW026CB BKN030 19/18 Q1013 NOSIG
ZJHK,2020-10-24 05:00,ZJHK 240500Z 02005MPS 350V060 5000 SHRA FEW007 FEW026CB BKN030 19/19 Q1012 NOSIG
ZJHK,2020-10-24 06:00,ZJHK 240600Z 02004MPS 8000 -SHRA SCT010 SCT020 FEW026CB OVC033 20/20 Q1011 RESHRA NOSIG
ZJHK,2020-10-24 07:00,ZJHK 240700Z 03006MPS 5000 SHRA SCT010 SCT020 FEW026CB OVC033 19/19 Q1011 NOSIG
ZJHK,2020-10-24 08:00,ZJHK 240800Z 01005MPS 7000 -SHRA SCT006 SCT020 FEW026CB OVC033 20/20 Q1011 RESHRA NOSIG
ZJHK,2020-10-24 09:00,ZJHK 240900Z 02006MPS 9999 SCT008 SCT020 OVC033 20/20 Q1011 NOSIG
ZJHK,2020-10-24 10:00,ZJHK 241000Z 02006MPS 350V050 9999 SCT011 SCT020 OVC033 20/19 Q1011 NOSIG
ZJHK,2020-10-24 11:00,ZJHK 241100Z 36005MPS 9999 SCT020 OVC030 21/18 Q1011 NOSIG
ZJHK,2020-10-24 12:00,ZJHK 241200Z 03006MPS 9999 -RA SCT020 OVC030 22/18 Q1012 NOSIG
ZJHK,2020-10-24 13:00,ZJHK 241300Z 04008G14MPS 9999 SCT020 BKN033 22/17 Q1012 NOSIG
ZJHK,2020-10-24 14:00,ZJHK 241400Z 04010MPS 9999 SCT020 BKN033 23/17 Q1012 NOSIG
ZJHK,2020-10-24 15:00,ZJHK 241500Z 05008G15MPS 9999 BKN030 23/18 Q1012 NOSIG
ZJHK,2020-10-24 16:00,ZJHK 241600Z 05009MPS 9999 BKN030 23/17 Q1012 NOSIG
ZJHK,2020-10-24 17:00,ZJHK 241700Z 05009MPS 9999 -DZ SCT020 OVC030 22/19 Q1011 NOSIG
ZJHK,2020-10-24 18:00,ZJHK 241800Z 04008MPS 8000 -RA SCT010 OVC023 22/22 Q1010 NOSIG
ZJHK,2020-10-24 19:00,ZJHK 241900Z 05009MPS 4000 -RA SCT006 SCT011 OVC023 22/22 Q1010 NOSIG
ZJHK,2020-10-24 20:00,ZJHK 242000Z 05009MPS 8000 -SHRA SCT006 BKN013 FEW023TCU BKN023 22/22 Q1009 NOSIG
ZJHK,2020-10-24 21:00,ZJHK 242100Z 06008G14MPS 040V100 7000 SHRA SCT006 BKN013 FEW023TCU BKN023 23/23 Q1010 NOSIG
ZJHK,2020-10-24 22:00,ZJHK 242200Z 07010MPS 6000 SHRA SCT006 BKN013 FEW023TCU BKN023 23/23 Q1010 NOSIG
ZJHK,2020-10-24 23:00,ZJHK 242300Z 07010MPS 4000 SHRA SCT005 BKN013 FEW023TCU BKN023 23/23 Q1010 NOSIG
ZJHK,2020-10-25 00:00,ZJHK 250000Z 08009MPS 6000 -SHRA SCT004 BKN013 FEW023TCU BKN023 24/24 Q1011 RESHRA NOSIG
ZJHK,2020-10-25 01:00,ZJHK 250100Z 08006MPS 8000 -SHRA FEW005 BKN013 FEW023TCU BKN023 25/25 Q1012 NOSIG
ZJHK,2020-10-25 02:00,ZJHK 250200Z 08008MPS 9999 BKN013 FEW023TCU BKN023 26/26 Q1012 NOSIG
ZJHK,2020-10-25 03:00,ZJHK 250300Z 09006MPS 8000 -SHRA BKN013 FEW023CB BKN026 25/25 Q1012 RESHRA BECMG AT0330 SHRA
ZJHK,2020-10-25 04:00,ZJHK 250400Z 09008MPS 4000 SHRA BKN013 FEW023CB BKN026 26/26 Q1011 NOSIG
ZJHK,2020-10-25 05:00,ZJHK 250500Z 11006MPS 080V140 9999 BKN013 FEW026TCU BKN026 27/26 Q1010 RESHRA NOSIG
ZJHK,2020-10-25 06:00,ZJHK 250600Z 08008MPS 9999 SCT013 FEW026TCU SCT026 27/26 Q1009 NOSIG
ZJHK,2020-10-25 07:00,ZJHK 250700Z 09009MPS 9999 -SHRA SCT010 FEW026TCU BKN026 25/25 Q1009 NOSIG
ZJHK,2020-10-25 08:00,ZJHK 250800Z 07007MPS 9999 -SHRA SCT010 FEW026CB BKN026 26/26 Q1009 NOSIG
ZJHK,2020-10-25 09:00,ZJHK 250900Z 05004MPS 020V080 9999 SCT010 FEW026CB BKN033 25/25 Q1009 NOSIG
ZJHK,2020-10-25 10:00,ZJHK 251000Z 08006MPS 9999 SCT013 BKN033 25/25 Q1010 NOSIG
ZJHK,2020-10-25 11:00,ZJHK 251100Z 08006MPS 8000 -SHRA SCT010 FEW026TCU BKN033 24/24 Q1010 NOSIG
ZJHK,2020-10-25 12:00,ZJHK 251200Z 09005MPS 9999 -SHRA SCT010 FEW026TCU BKN033 24/24 Q1011 NOSIG
ZJHK,2020-10-25 13:00,ZJHK 251300Z 09004MPS 9999 BKN006 BKN033 24/24 Q1012 NOSIG
ZJHK,2020-10-25 14:00,ZJHK 251400Z 08005MPS 9999 SCT006 BKN046 24/24 Q1012 NOSIG
ZJHK,2020-10-25 15:00,ZJHK 251500Z 10004MPS 9999 -SHRA SCT006 FEW026TCU BKN046 24/24 Q1012 NOSIG
ZJHK,2020-10-25 16:00,ZJHK 251600Z 10004MPS 6000 -SHRA BKN005 FEW026TCU BKN033 24/24 Q1012 BECMG AT1610 SHRA
ZJHK,2020-10-25 17:00,ZJHK 251700Z 09005MPS 6000 -SHRA BKN005 FEW026TCU BKN033 24/24 Q1012 NOSIG
ZJHK,2020-10-25 18:00,ZJHK 251800Z 07003MPS 4000 -SHRA BKN005 FEW026TCU BKN033 24/24 Q1011 NOSIG
ZJHK,2020-10-25 19:00,ZJHK 251900Z 10003MPS 4000 -SHRA BKN005 FEW026TCU BKN033 24/24 Q1011 NOSIG
ZJHK,2020-10-25 20:00,ZJHK 252000Z 07005MPS 7000 -SHRA BKN005 FEW026TCU BKN033 24/24 Q1010 NOSIG
ZJHK,2020-10-25 21:00,ZJHK 252100Z 07007MPS 9999 BKN007 FEW026TCU BKN033 25/25 Q1010 NOSIG
ZJHK,2020-10-25 22:00,ZJHK 252200Z 08008MPS 9999 BKN007 BKN033 25/25 Q1011 NOSIG
ZJHK,2020-10-25 23:00,ZJHK 252300Z 08006MPS 9999 SCT007 SCT033 25/25 Q1012 NOSIG
ZJHK,2020-10-26 00:00,ZJHK 260000Z 07007MPS 9999 FEW007 SCT026 25/24 Q1012 NOSIG
ZJHK,2020-10-26 01:00,ZJHK 260100Z 08008MPS 9999 FEW018 BKN046 26/23 Q1013 NOSIG
ZJHK,2020-10-26 02:00,ZJHK 260200Z 08008G13MPS 9999 SCT018 27/22 Q1014 NOSIG
ZJHK,2020-10-26 03:00,ZJHK 260300Z 08009MPS 9999 SCT020 28/23 Q1013 NOSIG
ZJHK,2020-10-26 04:00,ZJHK 260400Z 08010MPS 9999 BKN023 29/22 Q1013 NOSIG
ZJHK,2020-10-26 05:00,ZJHK 260500Z 08009MPS 9999 SCT023 29/22 Q1012 NOSIG
ZJHK,2020-10-26 06:00,ZJHK 260600Z 06008MPS 9999 SCT023 29/22 Q1011 NOSIG
ZJHK,2020-10-26 07:00,ZJHK 260700Z 07008MPS 9999 BKN023 28/22 Q1010 NOSIG
ZJHK,2020-10-26 08:00,ZJHK 260800Z 08007MPS 9999 SCT023 28/21 Q1010 NOSIG
ZJHK,2020-10-26 09:00,ZJHK 260900Z 08007MPS 040V100 9999 SCT023 27/21 Q1010 NOSIG
ZJHK,2020-10-26 10:00,ZJHK 261000Z 07006MPS 9999 FEW019 25/21 Q1011 NOSIG
ZJHK,2020-10-26 11:00,ZJHK 261100Z 07004MPS CAVOK 25/21 Q1011 NOSIG
ZJHK,2020-10-26 12:00,ZJHK 261200Z 06004MPS CAVOK 24/22 Q1012 NOSIG
ZJHK,2020-10-26 13:00,ZJHK 261300Z 14002MPS CAVOK 23/22 Q1012 NOSIG
ZJHK,2020-10-26 14:00,ZJHK 261400Z 00000MPS 9000 NSC 22/22 Q1013 NOSIG
ZJHK,2020-10-26 15:00,ZJHK 261500Z 01002MPS 280V070 CAVOK 24/22 Q1012 NOSIG
ZJHK,2020-10-26 16:00,ZJHK 261600Z VRB01MPS CAVOK 23/23 Q1012 NOSIG
ZJHK,2020-10-26 17:00,ZJHK 261700Z 04002MPS 360V080 CAVOK 24/22 Q1012 NOSIG
ZJHK,2020-10-26 18:00,ZJHK 261800Z 00000MPS 8000 NSC 22/22 Q1011 NOSIG
ZJHK,2020-10-26 19:00,ZJHK 261900Z VRB01MPS 7000 SCT020 21/21 Q1011 NOSIG
ZJHK,2020-10-26 20:00,ZJHK 262000Z 25001MPS 5000 BR SCT018 21/21 Q1010 NOSIG
ZJHK,2020-10-26 21:00,ZJHK 262100Z 29001MPS 5000 R09/1400U BR BCFG SCT018 20/20 Q1010 NOSIG
ZJHK,2020-10-26 22:00,ZJHK 262200Z 04002MPS 7000 SCT018 21/21 Q1011 NOSIG
ZJHK,2020-10-26 23:00,ZJHK 262300Z 04003MPS 360V070 CAVOK 23/23 Q1011 NOSIG
ZJHK,2020-10-27 00:00,ZJHK 270000Z 05004MPS CAVOK 25/23 Q1012 NOSIG
ZJHK,2020-10-27 01:00,ZJHK 270100Z 04006MPS 9999 SCT013 SCT020 26/23 Q1012 NOSIG
ZJHK,2020-10-27 02:00,ZJHK 270200Z 05006MPS 9999 FEW015 SCT023 27/21 Q1013 NOSIG
ZJHK,2020-10-27 03:00,ZJHK 270300Z 04008MPS 9999 SCT023 27/21 Q1013 NOSIG
ZJHK,2020-10-27 04:00,ZJHK 270400Z 04007MPS 9999 SCT023 27/21 Q1012 NOSIG
ZJHK,2020-10-27 05:00,ZJHK 270500Z 04008MPS 9999 SCT023 27/21 Q1011 NOSIG
ZJHK,2020-10-27 06:00,ZJHK 270600Z 05007MPS 020V080 9999 SCT023 27/21 Q1010 NOSIG
ZJHK,2020-10-27 07:00,ZJHK 270700Z 05006MPS 9999 BKN023 27/21 Q1009 NOSIG
ZJHK,2020-10-27 08:00,ZJHK 270800Z 07008MPS 9999 SCT023 27/21 Q1009 NOSIG
ZJHK,2020-10-27 09:00,ZJHK 270900Z 05006MPS 020V080 9999 SCT023 26/20 Q1009 NOSIG
ZJHK,2020-10-27 10:00,ZJHK 271000Z 06007MPS 020V080 9999 SCT023 25/20 Q1010 NOSIG
ZJHK,2020-10-27 11:00,ZJHK 271100Z 06005MPS 9999 FEW023 25/20 Q1010 NOSIG
ZJHK,2020-10-27 12:00,ZJHK 271200Z 06007MPS 9999 FEW033 26/20 Q1011 NOSIG
ZJHK,2020-10-27 13:00,ZJHK 271300Z 06006MPS CAVOK 25/21 Q1011 NOSIG
ZJHK,2020-10-27 14:00,ZJHK 271400Z 07007MPS 9999 FEW040 25/21 Q1011 NOSIG
ZJHK,2020-10-27 15:00,ZJHK 271500Z 07007MPS 9999 BKN046 26/19 Q1011 NOSIG
ZJHK,2020-10-27 16:00,ZJHK 271600Z 06007MPS 9999 BKN040 26/21 Q1011 NOSIG
ZJHK,2020-10-27 17:00,ZJHK 271700Z 07006MPS 9999 SCT023 BKN033 24/21 Q1011 NOSIG
ZJHK,2020-10-27 18:00,ZJHK 271800Z 06007MPS 9999 BKN026 24/20 Q1010 NOSIG
ZJHK,2020-10-27 19:00,ZJHK 271900Z 06008MPS 7000 -RA SCT010 BKN020 24/23 Q1009 NOSIG
ZJHK,2020-10-27 20:00,ZJHK 272000Z 06008MPS 9999 -RA SCT015 BKN026 24/24 Q1008 NOSIG
ZJHK,2020-10-27 21:00,ZJHK 272100Z 06009MPS 9999 SCT013 BKN023 25/23 Q1008 NOSIG
ZJHK,2020-10-27 22:00,ZJHK 272200Z 06010MPS 9999 -RA SCT016 BKN023 24/22 Q1009 NOSIG
ZJHK,2020-10-27 23:00,ZJHK 272300Z 06011G16MPS 020V080 9999 -RA BKN015 25/23 Q1009 NOSIG
ZJHK,2020-10-28 00:00,ZJHK 280000Z 06009MPS 9999 -RA BKN012 BKN020 24/23 Q1010 NOSIG
ZJHK,2020-10-28 01:00,ZJHK 280100Z 06010G15MPS 7000 -RA BKN011 OVC020 24/24 Q1011 NOSIG
ZJHK,2020-10-28 02:00,ZJHK 280200Z 06011MPS 3500 -SHRA BKN009 FEW020TCU BKN020 25/25 Q1011 NOSIG
ZJHK,2020-10-28 03:00,ZJHK 280300Z 06012MPS 9999 BKN010 OVC020 25/25 Q1011 NOSIG
ZJHK,2020-10-28 04:00,ZJHK 280400Z 07011G18MPS 9999 BKN010 OVC020 25/24 Q1010 NOSIG
ZJHK,2020-10-28 05:00,ZJHK 280500Z 06010MPS 8000 -SHRA BKN010 SCT020TCU SCT020 25/25 Q1009 NOSIG
ZJHK,2020-10-28 06:00,ZJHK 280600Z 06013MPS 8000 -SHRA BKN007 FEW020TCU BKN020 24/24 Q1008 RESHRA BECMG AT0630 SHRA
ZJHK,2020-10-28 07:00,ZJHK 280700Z 06003MPS 340V110 3500 +SHRA BKN005 SCT020CB BKN020 23/23 Q1008 BECMG TL0730 -SHRA
ZJHK,2020-10-28 08:00,ZJHK 280800Z 06010MPS 2000 +SHRA BKN005 SCT020CB BKN020 23/23 Q1009 BECMG TL0830 3000 -SHRA
ZJHK,2020-10-28 09:00,ZJHK 280900Z 06011MPS 6000 SHRA BKN008 FEW020TCU BKN020 24/24 Q1009 NOSIG
ZJHK,2020-10-28 10:00,ZJHK 281000Z 06008MPS 9999 FEW006 BKN011 BKN020 24/24 Q1009 RESHRA NOSIG
ZJHK,2020-10-28 11:00,ZJHK 281100Z 08009MPS 9999 -SHRA BKN007 OVC020 25/25 Q1010 NOSIG
ZJHK,2020-10-28 12:00,ZJHK 281200Z 07011MPS 9999 BKN007 BKN020 25/25 Q1010 NOSIG
ZJHK,2020-10-28 13:00,ZJHK 281300Z 08011MPS 9999 BKN007 BKN020 25/25 Q1011 NOSIG
ZJHK,2020-10-28 14:00,ZJHK 281400Z 07009MPS 9999 BKN009 BKN020 25/25 Q1011 NOSIG
ZJHK,2020-10-28 15:00,ZJHK 281500Z 07010MPS 9999 BKN009 BKN020 25/25 Q1012 NOSIG
ZJHK,2020-10-28 16:00,ZJHK 281600Z 08012G17MPS 9999 BKN009 BKN020 25/25 Q1012 NOSIG
ZJHK,2020-10-28 17:00,ZJHK 281700Z 07010MPS 9999 -SHRA BKN008 FEW020TCU BKN020 25/25 Q1011 NOSIG
ZJHK,2020-10-28 18:00,ZJHK 281800Z 08009MPS 9999 BKN008 BKN020 25/25 Q1011 NOSIG
ZJHK,2020-10-28 19:00,ZJHK 281900Z 08008MPS 9999 -RA BKN008 BKN020 25/25 Q1011 NOSIG
ZJHK,2020-10-28 20:00,ZJHK 282000Z 08008MPS 7000 SHRA BKN008 FEW020TCU BKN020 25/25 Q1011 NOSIG
ZJHK,2020-10-28 21:00,ZJHK 282100Z 09008MPS 9999 -SHRA BKN006 FEW020TCU BKN020 25/25 Q1011 RESHRA NOSIG
ZJHK,2020-10-28 22:00,ZJHK 282200Z 07005MPS 9999 SCT008 SCT020 25/25 Q1011 NOSIG
ZJHK,2020-10-28 23:00,ZJHK 282300Z 07007MPS 9999 BKN005 SCT020 25/25 Q1012 NOSIG
ZJHK,2020-10-29 00:00,ZJHK 290000Z 08008MPS 9999 -SHRA BKN005 FEW020TCU SCT020 26/26 Q1013 NOSIG
ZJHK,2020-10-29 01:00,ZJHK 290100Z 08008MPS 9999 SCT006 FEW020TCU BKN026 26/26 Q1014 NOSIG
ZJHK,2020-10-29 02:00,ZJHK 290200Z 07008MPS 9999 -SHRA SCT006 FEW020TCU BKN026 25/25 Q1015 NOSIG
ZJHK,2020-10-29 03:00,ZJHK 290300Z 06008MPS 9999 SCT010 FEW020TCU BKN026 25/25 Q1015 NOSIG
ZJHK,2020-10-29 04:00,ZJHK 290400Z 07008MPS 9999 SCT010 FEW020TCU BKN026 26/26 Q1014 NOSIG
ZJHK,2020-10-29 05:00,ZJHK 290500Z 08007MPS 7000 -SHRA SCT010 FEW020CB BKN026 26/26 Q1014 RESHRA BECMG TL0510 SHRA
ZJHK,2020-10-29 06:00,ZJHK 290600Z 07009MPS 3000 SHRA BKN010 FEW020CB BKN026 25/25 Q1013 BECMG TL0630 -SHRA
ZJHK,2020-10-29 07:00,ZJHK 290700Z 07009MPS 8000 -SHRA BKN010 FEW020TCU BKN033 25/25 Q1013 RESHRA NOSIG
ZJHK,2020-10-29 08:00,ZJHK 290800Z 07009MPS 7000 -SHRA BKN010 FEW020TCU BKN026 25/25 Q1013 NOSIG
ZJHK,2020-10-29 09:00,ZJHK 290900Z 07009MPS 9999 BKN010 FEW020TCU BKN026 25/25 Q1013 NOSIG
ZJHK,2020-10-29 10:00,ZJHK 291000Z 07008MPS 9999 BKN010 FEW020TCU BKN026 24/24 Q1014 NOSIG
ZJHK,2020-10-29 11:00,ZJHK 291100Z 07009G14MPS 9999 SCT010 BKN026 24/24 Q1014 NOSIG
ZJHK,2020-10-29 12:00,ZJHK 291200Z 07010MPS 9999 SCT010 BKN026 24/22 Q1015 NOSIG
ZJHK,2020-10-29 13:00,ZJHK 291300Z 07009MPS 9999 SCT013 BKN026 24/22 Q1016 NOSIG
ZJHK,2020-10-29 14:00,ZJHK 291400Z 07008MPS 9999 SCT013 BKN026 24/22 Q1017 NOSIG
ZJHK,2020-10-29 15:00,ZJHK 291500Z 08009MPS 9999 SCT013 BKN026 24/22 Q1017 NOSIG
ZJHK,2020-10-29 16:00,ZJHK 291600Z 08008MPS 9999 -RA SCT013 BKN026 24/23 Q1017 NOSIG
ZJHK,2020-10-29 17:00,ZJHK 291700Z 06007MPS 8000 -RA SCT013 BKN026 24/24 Q1016 NOSIG
ZJHK,2020-10-29 18:00,ZJHK 291800Z 06006MPS 5000 -RA SCT010 BKN026 23/23 Q1016 NOSIG
ZJHK,2020-10-29 19:00,ZJHK 291900Z 08004MPS 040V100 4000 -RA BR BKN010 BKN026 23/23 Q1015 NOSIG
ZJHK,2020-10-29 20:00,ZJHK 292000Z 06006MPS 4000 -RA BR BKN006 BKN020 23/23 Q1015 NOSIG
ZJHK,2020-10-29 21:00,ZJHK 292100Z 06004MPS 4000 -RA BR BKN006 BKN020 23/23 Q1015 NOSIG
ZJHK,2020-10-29 22:00,ZJHK 292200Z 06005MPS 3000 -RA BR SCT004 BKN007 BKN020 23/23 Q1015 NOSIG
ZJHK,2020-10-29 23:00,ZJHK 292300Z 05005MPS 6000 -RA FEW005 BKN010 BKN020 24/24 Q1016 NOSIG
ZJHK,2020-10-30 00:00,ZJHK 300000Z 05006MPS 6000 -RA BKN010 BKN020 24/24 Q1016 NOSIG
ZJHK,2020-10-30 01:00,ZJHK 300100Z 06006MPS 9000 -RA SCT012 BKN020 24/24 Q1017 NOSIG
ZJHK,2020-10-30 02:00,ZJHK 300200Z 07007MPS 9999 SCT013 BKN020 25/24 Q1017 NOSIG
ZJHK,2020-10-30 03:00,ZJHK 300300Z 07007MPS 9999 BKN012 BKN020 25/24 Q1017 NOSIG
ZJHK,2020-10-30 04:00,ZJHK 300400Z 07009MPS 9999 SCT012 BKN026 26/24 Q1016 NOSIG
ZJHK,2020-10-30 05:00,ZJHK 300500Z 08009MPS 9999 SCT012 BKN023 26/23 Q1016 NOSIG
ZJHK,2020-10-30 06:00,ZJHK 300600Z 08007MPS 9999 BKN020 BKN033 26/22 Q1015 NOSIG
ZJHK,2020-10-30 07:00,ZJHK 300700Z 08007MPS 9999 BKN020 BKN033 26/21 Q1014 NOSIG
ZJHK,2020-10-30 08:00,ZJHK 300800Z 08007MPS 9999 BKN020 BKN033 25/22 Q1014 NOSIG
ZJHK,2020-10-30 09:00,ZJHK 300900Z 07007MPS 9999 FEW013 BKN020 BKN033 25/22 Q1015 NOSIG
ZJHK,2020-10-30 10:00,ZJHK 301000Z 06005MPS 5000 -RA BR BKN012 BKN033 24/24 Q1016 NOSIG
ZJHK,2020-10-30 11:00,ZJHK 301100Z 07006MPS 9999 SCT015 BKN020 BKN033 24/24 Q1016 NOSIG
ZJHK,2020-10-30 12:00,ZJHK 301200Z 07006MPS 9999 SCT016 BKN023 BKN033 25/23 Q1017 NOSIG
ZJHK,2020-10-30 13:00,ZJHK 301300Z 07006MPS 9999 SCT020 BKN026 BKN033 25/22 Q1017 NOSIG
ZJHK,2020-10-30 14:00,ZJHK 301400Z 08007MPS 9999 BKN040 25/22 Q1017 NOSIG
ZJHK,2020-10-30 15:00,ZJHK 301500Z 07006MPS 9999 SCT020 BKN046 24/22 Q1017 NOSIG
ZJHK,2020-10-30 16:00,ZJHK 301600Z 07005MPS 9999 BKN020 BKN046 24/22 Q1017 NOSIG
ZJHK,2020-10-30 17:00,ZJHK 301700Z 07004MPS 9999 FEW020 24/22 Q1016 NOSIG
ZJHK,2020-10-30 18:00,ZJHK 301800Z 07004MPS CAVOK 23/22 Q1016 NOSIG
ZJHK,2020-10-30 19:00,ZJHK 301900Z 06003MPS CAVOK 23/22 Q1016 NOSIG
ZJHK,2020-10-30 20:00,ZJHK 302000Z 05003MPS CAVOK 23/21 Q1016 NOSIG
ZJHK,2020-10-30 21:00,ZJHK 302100Z 05004MPS CAVOK 23/22 Q1016 NOSIG
ZJHK,2020-10-30 22:00,ZJHK 302200Z 06003MPS 030V090 CAVOK 23/22 Q1016 NOSIG
ZJHK,2020-10-30 23:00,ZJHK 302300Z 07003MPS 9999 FEW040 23/22 Q1017 NOSIG
ZJHK,2020-10-31 00:00,ZJHK 310000Z 06003MPS 9999 SCT015 SCT040 25/23 Q1017 NOSIG
ZJHK,2020-10-31 01:00,ZJHK 310100Z 08007MPS 9999 SCT015 SCT023 26/23 Q1018 NOSIG
ZJHK,2020-10-31 02:00,ZJHK 310200Z 07008MPS 9999 BKN023 27/23 Q1018 NOSIG
ZJHK,2020-10-31 03:00,ZJHK 310300Z 07009MPS 9999 SCT023 BKN033 27/22 Q1018 NOSIG
ZJHK,2020-10-31 04:00,ZJHK 310400Z 08007MPS 9999 FEW023 SCT033 OVC046 27/22 Q1017 NOSIG
ZJHK,2020-10-31 05:00,ZJHK 310500Z 08008MPS 9999 SCT023 BKN046 27/21 Q1016 NOSIG
ZJHK,2020-10-31 06:00,ZJHK 310600Z 08008MPS 9999 SCT026 28/21 Q1015 NOSIG
ZJHK,2020-10-31 07:00,ZJHK 310700Z 08007MPS 9999 SCT026 26/20 Q1014 NOSIG
ZJHK,2020-10-31 08:00,ZJHK 310800Z 07007MPS 9999 FEW026 BKN046 26/21 Q1014 NOSIG
ZJHK,2020-10-31 09:00,ZJHK 310900Z 08007MPS 9999 FEW026 BKN033 25/20 Q1014 NOSIG
ZJHK,2020-10-31 10:00,ZJHK 311000Z 07005MPS 9999 FEW023 BKN030 25/20 Q1015 NOSIG
ZJHK,2020-10-31 11:00,ZJHK 311100Z 08005MPS 9999 SCT033 24/20 Q1015 NOSIG
ZJHK,2020-10-31 12:00,ZJHK 311200Z 07004MPS CAVOK 24/20 Q1016 NOSIG
ZJHK,2020-10-31 13:00,ZJHK 311300Z 09003MPS CAVOK 23/21 Q1016 NOSIG
ZJHK,2020-10-31 14:00,ZJHK 311400Z 05002MPS 020V100 CAVOK 23/20 Q1017 NOSIG
ZJHK,2020-10-31 15:00,ZJHK 311500Z 06002MPS 030V100 CAVOK 23/20 Q1017 NOSIG
ZJHK,2020-10-31 16:00,ZJHK 311600Z VRB01MPS CAVOK 22/20 Q1017 NOSIG
ZJHK,2020-10-31 17:00,ZJHK 311700Z VRB01MPS CAVOK 21/21 Q1016 NOSIG
ZJHK,2020-10-31 18:00,ZJHK 311800Z 00000MPS CAVOK 21/21 Q1016 NOSIG
ZJHK,2020-10-31 19:00,ZJHK 311900Z 28001MPS 9999 BKN040 20/20 Q1015 NOSIG
ZJHK,2020-10-31 20:00,ZJHK 312000Z 00000MPS 8000 SCT026 BKN040 21/21 Q1015 NOSIG
ZJHK,2020-10-31 21:00,ZJHK 312100Z 02001MPS 8000 SCT026 BKN040 21/21 Q1015 NOSIG
ZJHK,2020-10-31 22:00,ZJHK 312200Z 04002MPS CAVOK 22/21 Q1016 NOSIG
ZJHK,2020-10-31 23:00,ZJHK 312300Z 05003MPS 9999 FEW023 22/21 Q1016 NOSIG
ZJHK,2020-11-01 00:00,ZJHK 010000Z 05004MPS 9999 FEW023 24/21 Q1017 NOSIG
ZJHK,2020-11-01 01:00,ZJHK 010100Z 05005MPS CAVOK 26/21 Q1017 NOSIG
ZJHK,2020-11-01 02:00,ZJHK 010200Z 07007MPS 9999 SCT023 26/20 Q1017 NOSIG
ZJHK,2020-11-01 03:00,ZJHK 010300Z 07008MPS 9999 SCT023 28/20 Q1017 NOSIG
ZJHK,2020-11-01 04:00,ZJHK 010400Z 07007MPS 9999 SCT023 28/20 Q1016 NOSIG
ZJHK,2020-11-01 05:00,ZJHK 010500Z 08007MPS 040V100 9999 SCT026 28/20 Q1015 NOSIG
ZJHK,2020-11-01 06:00,ZJHK 010600Z 07007MPS 9999 FEW030 28/19 Q1014 NOSIG
ZJHK,2020-11-01 07:00,ZJHK 010700Z 07006MPS 040V100 9999 FEW030 28/20 Q1013 NOSIG
ZJHK,2020-11-01 08:00,ZJHK 010800Z 08006MPS 9999 FEW030 27/19 Q1013 NOSIG
ZJHK,2020-11-01 09:00,ZJHK 010900Z 06005MPS 030V100 9999 FEW030 27/20 Q1013 NOSIG
ZJHK,2020-11-01 10:00,ZJHK 011000Z 07005MPS 9999 FEW030 25/20 Q1013 NOSIG
ZJHK,2020-11-01 11:00,ZJHK 011100Z 06004MPS CAVOK 24/20 Q1014 NOSIG
ZJHK,2020-11-01 12:00,ZJHK 011200Z 04003MPS 360V070 CAVOK 24/20 Q1014 NOSIG
ZJHK,2020-11-01 13:00,ZJHK 011300Z 04003MPS 010V080 CAVOK 24/21 Q1015 NOSIG
ZJHK,2020-11-01 14:00,ZJHK 011400Z 02002MPS 330V090 CAVOK 23/21 Q1015 NOSIG
ZJHK,2020-11-01 15:00,ZJHK 011500Z 05003MPS CAVOK 23/21 Q1015 NOSIG
ZJHK,2020-11-01 16:00,ZJHK 011600Z 05002MPS CAVOK 23/21 Q1015 NOSIG
ZJHK,2020-11-01 17:00,ZJHK 011700Z 02002MPS 350V050 CAVOK 24/21 Q1015 NOSIG
ZJHK,2020-11-01 18:00,ZJHK 011800Z 02002MPS 8000 NSC 23/21 Q1014 NOSIG
ZJHK,2020-11-01 19:00,ZJHK 011900Z 32001MPS 8000 NSC 22/22 Q1014 NOSIG
ZJHK,2020-11-01 20:00,ZJHK 012000Z VRB01MPS 8000 NSC 21/21 Q1014 NOSIG
ZJHK,2020-11-01 21:00,ZJHK 012100Z 00000MPS 7000 NSC 21/21 Q1014 NOSIG
ZJHK,2020-11-01 22:00,ZJHK 012200Z 29001MPS 5000 R09/1400D BR BCFG FEW012 20/20 Q1015 NOSIG
ZJHK,2020-11-01 23:00,ZJHK 012300Z 36002MPS 280V050 3000 BR BCFG FEW012 23/23 Q1015 NOSIG
ZJHK,2020-11-02 00:00,ZJHK 020000Z 01002MPS 330V060 4000 BR BCFG FEW010 24/23 Q1016 NOSIG
ZJHK,2020-11-02 01:00,ZJHK 020100Z 36003MPS 300V050 6000 FEW010 SCT020 25/23 Q1016 NOSIG
ZJHK,2020-11-02 02:00,ZJHK 020200Z 02003MPS 8000 SCT013 26/23 Q1017 NOSIG
ZJHK,2020-11-02 03:00,ZJHK 020300Z 04004MPS 350V060 9000 SCT016 27/22 Q1017 NOSIG
ZJHK,2020-11-02 04:00,ZJHK 020400Z 03004MPS 350V060 9000 SCT020 27/21 Q1016 NOSIG
ZJHK,2020-11-02 05:00,ZJHK 020500Z 04005MPS 360V070 8000 BKN020 28/22 Q1015 NOSIG
ZJHK,2020-11-02 06:00,ZJHK 020600Z 02005MPS 7000 BKN020 27/22 Q1015 NOSIG
ZJHK,2020-11-02 07:00,ZJHK 020700Z 03006MPS 360V060 8000 SCT020 27/21 Q1014 NOSIG
ZJHK,2020-11-02 08:00,ZJHK 020800Z 02005MPS 350V050 8000 SCT020 26/21 Q1014 NOSIG
ZJHK,2020-11-02 09:00,ZJHK 020900Z 03006MPS 360V060 7000 NSC 26/21 Q1014 NOSIG
ZJHK,2020-11-02 10:00,ZJHK 021000Z 05004MPS 6000 NSC 25/21 Q1014 NOSIG
ZJHK,2020-11-02 11:00,ZJHK 021100Z 05003MPS 6000 NSC 24/21 Q1014 NOSIG
ZJHK,2020-11-02 12:00,ZJHK 021200Z 04002MPS 010V070 6000 NSC 24/21 Q1015 NOSIG
ZJHK,2020-11-02 13:00,ZJHK 021300Z 04003MPS 020V080 6000 FEW046 24/21 Q1016 NOSIG
ZJHK,2020-11-02 14:00,ZJHK 021400Z 01002MPS 330V060 6000 NSC 24/21 Q1016 NOSIG
ZJHK,2020-11-02 15:00,ZJHK 021500Z 36003MPS 330V060 5000 BR FEW013 24/22 Q1016 NOSIG
ZJHK,2020-11-02 16:00,ZJHK 021600Z 36003MPS 330V040 5000 BR FEW013 BKN046 24/22 Q1016 NOSIG
ZJHK,2020-11-02 17:00,ZJHK 021700Z 35003MPS 5000 BR BKN030 23/21 Q1016 NOSIG
ZJHK,2020-11-02 18:00,ZJHK 021800Z 36004MPS 320V030 6000 FEW012 SCT020 23/21 Q1016 NOSIG
ZJHK,2020-11-02 19:00,ZJHK 021900Z 36004MPS 330V040 8000 SCT012 SCT020 23/21 Q1016 NOSIG
ZJHK,2020-11-02 20:00,ZJHK 022000Z 36004MPS 8000 SCT015 BKN040 23/21 Q1016 NOSIG
ZJHK,2020-11-02 21:00,ZJHK 022100Z 35003MPS 9999 SCT013 BKN030 23/21 Q1016 NOSIG
ZJHK,2020-11-02 22:00,ZJHK 022200Z 02003MPS 350V060 9999 SCT013 BKN030 23/21 Q1016 NOSIG
ZJHK,2020-11-02 23:00,ZJHK 022300Z 02003MPS 340V070 9999 BKN015 22/21 Q1017 NOSIG
ZJHK,2020-11-03 00:00,ZJHK 030000Z 36003MPS 320V040 9999 BKN015 23/21 Q1017 NOSIG
ZJHK,2020-11-03 01:00,ZJHK 030100Z 36004MPS 320V040 9999 SCT015 BKN026 24/21 Q1017 NOSIG
ZJHK,2020-11-03 02:00,ZJHK 030200Z 01004MPS 340V050 9999 FEW015 BKN026 24/20 Q1018 NOSIG
ZJHK,2020-11-03 03:00,ZJHK 030300Z 04007MPS 340V070 9999 SCT026 26/19 Q1018 NOSIG
ZJHK,2020-11-03 04:00,ZJHK 030400Z 05007MPS 020V080 9999 BKN030 25/19 Q1017 NOSIG
ZJHK,2020-11-03 05:00,ZJHK 030500Z 03006MPS 350V060 9999 SCT020 BKN030 24/19 Q1016 NOSIG
ZJHK,2020-11-03 06:00,ZJHK 030600Z 04006MPS 020V080 9999 BKN026 25/19 Q1016 NOSIG
ZJHK,2020-11-03 07:00,ZJHK 030700Z 05005MPS 9999 SCT020 BKN026 24/19 Q1015 NOSIG
ZJHK,2020-11-03 08:00,ZJHK 030800Z 06005MPS 9999 SCT020 BKN026 24/19 Q1015 NOSIG
ZJHK,2020-11-03 09:00,ZJHK 030900Z 06004MPS 030V090 9999 SCT020 BKN030 24/19 Q1015 NOSIG
ZJHK,2020-11-03 10:00,ZJHK 031000Z 05004MPS 9999 SCT020 BKN030 24/19 Q1015 NOSIG
ZJHK,2020-11-03 11:00,ZJHK 031100Z 06004MPS 9999 BKN026 24/19 Q1016 NOSIG
ZJHK,2020-11-03 12:00,ZJHK 031200Z 06004MPS 9999 SCT023 BKN030 24/19 Q1017 NOSIG
ZJHK,2020-11-03 13:00,ZJHK 031300Z 05003MPS 9999 SCT026 BKN046 23/19 Q1017 NOSIG
ZJHK,2020-11-03 14:00,ZJHK 031400Z 04003MPS 020V080 9999 FEW026 BKN046 23/19 Q1017 NOSIG
ZJHK,2020-11-03 15:00,ZJHK 031500Z 05003MPS CAVOK 23/19 Q1017 NOSIG
ZJHK,2020-11-03 16:00,ZJHK 031600Z 06003MPS 9999 BKN046 23/19 Q1017 NOSIG
ZJHK,2020-11-03 17:00,ZJHK 031700Z 04003MPS 010V080 9999 BKN046 23/19 Q1016 NOSIG
ZJHK,2020-11-03 18:00,ZJHK 031800Z 05003MPS CAVOK 23/20 Q1016 NOSIG
ZJHK,2020-11-03 19:00,ZJHK 031900Z 04004MPS CAVOK 23/19 Q1015 NOSIG
ZJHK,2020-11-03 20:00,ZJHK 032000Z 04004MPS 9999 BKN026 23/19 Q1015 NOSIG
ZJHK,2020-11-03 21:00,ZJHK 032100Z 04004MPS 9999 BKN033 23/19 Q1015 NOSIG
ZJHK,2020-11-03 22:00,ZJHK 032200Z 04004MPS CAVOK 23/19 Q1015 NOSIG
ZJHK,2020-11-03 23:00,ZJHK 032300Z 04004MPS 9999 SCT020 BKN046 24/20 Q1016 NOSIG
ZJHK,2020-11-04 00:00,ZJHK 040000Z 04005MPS 9000 FEW016 SCT033 24/21 Q1016 NOSIG
ZJHK,2020-11-04 01:00,ZJHK 040100Z 05006MPS 9999 FEW016 SCT030 24/20 Q1017 NOSIG
ZJHK,2020-11-04 02:00,ZJHK 040200Z 05006MPS 9999 FEW016 SCT030 25/20 Q1017 NOSIG
ZJHK,2020-11-04 03:00,ZJHK 040300Z 06007MPS 9999 FEW016 SCT026 25/20 Q1017 NOSIG
ZJHK,2020-11-04 04:00,ZJHK 040400Z 05006MPS 9999 -RA FEW016 BKN026 24/21 Q1017 NOSIG
ZJHK,2020-11-04 05:00,ZJHK 040500Z 05005MPS 9999 FEW016 BKN026 23/22 Q1016 NOSIG
ZJHK,2020-11-04 06:00,ZJHK 040600Z 08008MPS 9999 BKN026 25/20 Q1015 NOSIG
ZJHK,2020-11-04 07:00,ZJHK 040700Z 07009MPS 9999 SCT023 26/19 Q1015 NOSIG
ZJHK,2020-11-04 08:00,ZJHK 040800Z 08009MPS 9999 SCT023 25/18 Q1014 NOSIG
ZJHK,2020-11-04 09:00,ZJHK 040900Z 06006MPS 9999 FEW026 25/18 Q1014 NOSIG
ZJHK,2020-11-04 10:00,ZJHK 041000Z 06005MPS 9999 FEW026 24/18 Q1015 NOSIG
ZJHK,2020-11-04 11:00,ZJHK 041100Z 06004MPS 9999 FEW026 23/18 Q1015 NOSIG
ZJHK,2020-11-04 12:00,ZJHK 041200Z 06005MPS CAVOK 23/18 Q1015 NOSIG
ZJHK,2020-11-04 13:00,ZJHK 041300Z 07005MPS CAVOK 24/19 Q1016 NOSIG
ZJHK,2020-11-04 14:00,ZJHK 041400Z 08005MPS CAVOK 23/19 Q1016 NOSIG
ZJHK,2020-11-04 15:00,ZJHK 041500Z 06005MPS CAVOK 23/19 Q1016 NOSIG
ZJHK,2020-11-04 16:00,ZJHK 041600Z 07005MPS CAVOK 23/19 Q1016 NOSIG
ZJHK,2020-11-04 17:00,ZJHK 041700Z 06004MPS CAVOK 23/19 Q1016 NOSIG
ZJHK,2020-11-04 18:00,ZJHK 041800Z 05004MPS 9999 FEW033 23/19 Q1015 NOSIG
ZJHK,2020-11-04 19:00,ZJHK 041900Z 05005MPS CAVOK 23/19 Q1015 NOSIG
ZJHK,2020-11-04 20:00,ZJHK 042000Z 05005MPS 9999 SCT030 23/19 Q1015 NOSIG
ZJHK,2020-11-04 21:00,ZJHK 042100Z 05006MPS 9999 SCT030 23/19 Q1015 NOSIG
ZJHK,2020-11-04 22:00,ZJHK 042200Z 05005MPS 9999 SCT030 BKN046 23/19 Q1015 NOSIG
ZJHK,2020-11-04 23:00,ZJHK 042300Z 05007MPS 9999 SCT023 BKN033 24/19 Q1016 NOSIG
ZJHK,2020-11-05 00:00,ZJHK 050000Z 06006MPS 9999 SCT023 BKN033 24/19 Q1016 NOSIG
ZJHK,2020-11-05 01:00,ZJHK 050100Z 05007MPS 9999 SCT023 BKN033 24/20 Q1017 NOSIG
ZJHK,2020-11-05 02:00,ZJHK 050200Z 06007MPS 9999 SCT023 BKN033 25/19 Q1017 NOSIG
ZJHK,2020-11-05 03:00,ZJHK 050300Z 06007MPS 9999 SCT023 BKN033 25/20 Q1017 NOSIG
ZJHK,2020-11-05 04:00,ZJHK 050400Z 06007MPS 9999 -SHRA FEW023TCU SCT023 BKN033 24/20 Q1017 NOSIG
ZJHK,2020-11-05 05:00,ZJHK 050500Z 06007MPS 9999 BKN023 BKN033 24/20 Q1016 NOSIG
ZJHK,2020-11-05 06:00,ZJHK 050600Z 06007MPS 9999 BKN023 BKN033 24/20 Q1015 NOSIG
ZJHK,2020-11-05 07:00,ZJHK 050700Z 06006MPS 9999 BKN023 BKN033 24/20 Q1015 NOSIG
ZJHK,2020-11-05 08:00,ZJHK 050800Z 06007MPS 9999 BKN023 BKN033 24/20 Q1015 NOSIG
ZJHK,2020-11-05 09:00,ZJHK 050900Z 06006MPS 9999 BKN023 BKN033 24/20 Q1015 NOSIG
ZJHK,2020-11-05 10:00,ZJHK 051000Z 06006MPS 9999 BKN023 BKN033 24/20 Q1015 NOSIG
ZJHK,2020-11-05 11:00,ZJHK 051100Z 06006MPS 9999 BKN023 BKN033 24/21 Q1015 NOSIG
ZJHK,2020-11-05 12:00,ZJHK 051200Z 06006MPS 9999 BKN023 BKN033 24/21 Q1016 NOSIG
ZJHK,2020-11-05 13:00,ZJHK 051300Z 06005MPS 9999 BKN023 BKN033 24/21 Q1017 NOSIG
ZJHK,2020-11-05 14:00,ZJHK 051400Z 06005MPS 9999 FEW023 24/21 Q1017 NOSIG
ZJHK,2020-11-05 15:00,ZJHK 051500Z 07004MPS CAVOK 23/21 Q1017 NOSIG
ZJHK,2020-11-05 16:00,ZJHK 051600Z 06004MPS CAVOK 23/20 Q1017 NOSIG
ZJHK,2020-11-05 17:00,ZJHK 051700Z 06004MPS CAVOK 23/21 Q1016 NOSIG
ZJHK,2020-11-05 18:00,ZJHK 051800Z 05004MPS CAVOK 23/21 Q1015 NOSIG
ZJHK,2020-11-05 19:00,ZJHK 051900Z 05003MPS CAVOK 23/21 Q1015 NOSIG
ZJHK,2020-11-05 20:00,ZJHK 052000Z 04003MPS CAVOK 23/21 Q1015 NOSIG
ZJHK,2020-11-05 21:00,ZJHK 052100Z 04004MPS CAVOK 23/20 Q1015 NOSIG
ZJHK,2020-11-05 22:00,ZJHK 052200Z 05004MPS CAVOK 23/21 Q1016 NOSIG
ZJHK,2020-11-05 23:00,ZJHK 052300Z 05005MPS CAVOK 23/20 Q1016 NOSIG
ZJHK,2020-11-06 00:00,ZJHK 060000Z 05006MPS 9999 FEW033 24/20 Q1017 NOSIG
ZJHK,2020-11-06 01:00,ZJHK 060100Z 05006MPS 9999 FEW015 25/21 Q1018 NOSIG
ZJHK,2020-11-06 02:00,ZJHK 060200Z 05007MPS 9999 BKN020 27/20 Q1018 NOSIG
ZJHK,2020-11-06 03:00,ZJHK 060300Z 04007MPS 9999 BKN023 27/21 Q1018 NOSIG
ZJHK,2020-11-06 04:00,ZJHK 060400Z 05007MPS 010V080 9999 FEW020 BKN026 28/21 Q1017 NOSIG
ZJHK,2020-11-06 05:00,ZJHK 060500Z 04007MPS 9999 FEW020 SCT030 26/21 Q1016 NOSIG
ZJHK,2020-11-06 06:00,ZJHK 060600Z 03006MPS 360V060 9999 BKN023 26/20 Q1015 NOSIG
ZJHK,2020-11-06 07:00,ZJHK 060700Z 04005MPS 9999 SCT026 27/21 Q1015 NOSIG
ZJHK,2020-11-06 08:00,ZJHK 060800Z 04005MPS 9999 FEW015 SCT026 26/20 Q1015 NOSIG
ZJHK,2020-11-06 09:00,ZJHK 060900Z 05004MPS 360V130 9999 FEW015 25/19 Q1015 NOSIG
ZJHK,2020-11-06 10:00,ZJHK 061000Z 04004MPS CAVOK 24/20 Q1015 NOSIG
ZJHK,2020-11-06 11:00,ZJHK 061100Z 03003MPS 010V070 CAVOK 24/20 Q1015 NOSIG
ZJHK,2020-11-06 12:00,ZJHK 061200Z VRB01MPS CAVOK 23/20 Q1016 NOSIG
ZJHK,2020-11-06 13:00,ZJHK 061300Z 00000MPS CAVOK 21/20 Q1017 NOSIG
ZJHK,2020-11-06 14:00,ZJHK 061400Z VRB01MPS 6000 NSC 21/21 Q1017 NOSIG
ZJHK,2020-11-06 15:00,ZJHK 061500Z VRB01MPS 6000 NSC 20/20 Q1016 NOSIG
ZJHK,2020-11-06 16:00,ZJHK 061600Z 24001MPS 6000 NSC 20/20 Q1016 NOSIG
ZJHK,2020-11-06 17:00,ZJHK 061700Z 24002MPS 6000 NSC 20/20 Q1016 NOSIG
ZJHK,2020-11-06 18:00,ZJHK 061800Z 27002MPS 6000 NSC 20/20 Q1016 NOSIG
ZJHK,2020-11-06 19:00,ZJHK 061900Z 24001MPS 6000 NSC 20/20 Q1016 NOSIG
ZJHK,2020-11-06 20:00,ZJHK 062000Z 24002MPS 6000 NSC 20/20 Q1015 NOSIG
ZJHK,2020-11-06 21:00,ZJHK 062100Z 23002MPS 7000 NSC 20/19 Q1016 NOSIG
ZJHK,2020-11-06 22:00,ZJHK 062200Z 25002MPS 7000 NSC 20/19 Q1016 NOSIG
ZJHK,2020-11-06 23:00,ZJHK 062300Z 27002MPS 4000 BR NSC 19/19 Q1017 NOSIG
ZJHK,2020-11-07 00:00,ZJHK 070000Z 27002MPS 4000 BR NSC 21/21 Q1018 NOSIG
ZJHK,2020-11-07 01:00,ZJHK 070100Z 34003MPS 300V020 8000 NSC 24/20 Q1018 NOSIG
ZJHK,2020-11-07 02:00,ZJHK 070200Z 34004MPS CAVOK 26/20 Q1018 NOSIG
ZJHK,2020-11-07 03:00,ZJHK 070300Z 01005MPS 340V070 CAVOK 27/20 Q1018 NOSIG
ZJHK,2020-11-07 04:00,ZJHK 070400Z 03006MPS 360V060 CAVOK 27/19 Q1017 NOSIG
ZJHK,2020-11-07 05:00,ZJHK 070500Z 02006MPS 360V060 CAVOK 28/19 Q1016 NOSIG
ZJHK,2020-11-07 06:00,ZJHK 070600Z 04006MPS 360V070 CAVOK 29/18 Q1015 NOSIG
ZJHK,2020-11-07 07:00,ZJHK 070700Z 05006MPS CAVOK 28/17 Q1015 NOSIG
ZJHK,2020-11-07 08:00,ZJHK 070800Z 04005MPS 010V080 CAVOK 27/16 Q1015 NOSIG
ZJHK,2020-11-07 09:00,ZJHK 070900Z 03003MPS 010V070 CAVOK 26/18 Q1015 NOSIG
ZJHK,2020-11-07 10:00,ZJHK 071000Z 05003MPS 010V080 CAVOK 25/18 Q1016 NOSIG
ZJHK,2020-11-07 11:00,ZJHK 071100Z 06003MPS 030V090 CAVOK 25/18 Q1016 NOSIG
ZJHK,2020-11-07 12:00,ZJHK 071200Z VRB01MPS CAVOK 24/19 Q1017 NOSIG
ZJHK,2020-11-07 13:00,ZJHK 071300Z 32002MPS 280V080 CAVOK 24/20 Q1017 NOSIG
ZJHK,2020-11-07 14:00,ZJHK 071400Z VRB01MPS CAVOK 23/19 Q1017 NOSIG
ZJHK,2020-11-07 15:00,ZJHK 071500Z VRB01MPS 8000 NSC 21/21 Q1017 NOSIG
ZJHK,2020-11-07 16:00,ZJHK 071600Z 26002MPS 8000 NSC 21/21 Q1017 NOSIG
ZJHK,2020-11-07 17:00,ZJHK 071700Z 26001MPS 6000 NSC 20/20 Q1016 NOSIG
ZJHK,2020-11-07 18:00,ZJHK 071800Z 26001MPS 6000 NSC 20/20 Q1016 NOSIG
ZJHK,2020-11-07 19:00,ZJHK 071900Z 28001MPS 7000 NSC 20/20 Q1015 NOSIG
ZJHK,2020-11-07 20:00,ZJHK 072000Z 31002MPS 6000 NSC 21/21 Q1015 NOSIG
ZJHK,2020-11-07 21:00,ZJHK 072100Z 35003MPS 6000 NSC 23/21 Q1015 NOSIG
ZJHK,2020-11-07 22:00,ZJHK 072200Z 01002MPS 330V030 8000 NSC 23/21 Q1016 NOSIG
ZJHK,2020-11-07 23:00,ZJHK 072300Z 36003MPS 320V060 CAVOK 23/20 Q1017 NOSIG
ZJHK,2020-11-08 00:00,ZJHK 080000Z 01003MPS 340V070 CAVOK 24/20 Q1018 NOSIG
ZJHK,2020-11-08 01:00,ZJHK 080100Z 03005MPS 360V060 CAVOK 25/21 Q1019 NOSIG
ZJHK,2020-11-08 02:00,ZJHK 080200Z 04007MPS CAVOK 26/19 Q1019 NOSIG
ZJHK,2020-11-08 03:00,ZJHK 080300Z 04009MPS CAVOK 26/19 Q1019 NOSIG
ZJHK,2020-11-08 04:00,ZJHK 080400Z 04007MPS 010V070 CAVOK 26/19 Q1018 NOSIG
ZJHK,2020-11-08 05:00,ZJHK 080500Z 04006MPS 020V080 CAVOK 26/19 Q1017 NOSIG
ZJHK,2020-11-08 06:00,ZJHK 080600Z 04007MPS 010V070 CAVOK 26/19 Q1017 NOSIG
ZJHK,2020-11-08 07:00,ZJHK 080700Z 05007MPS 020V080 CAVOK 27/18 Q1016 NOSIG
ZJHK,2020-11-08 08:00,ZJHK 080800Z 04007MPS CAVOK 26/18 Q1016 NOSIG
ZJHK,2020-11-08 09:00,ZJHK 080900Z 03005MPS CAVOK 26/18 Q1016 NOSIG
ZJHK,2020-11-08 10:00,ZJHK 081000Z 04005MPS 360V070 CAVOK 25/18 Q1016 NOSIG
ZJHK,2020-11-08 11:00,ZJHK 081100Z 04004MPS CAVOK 25/19 Q1016 NOSIG
ZJHK,2020-11-08 12:00,ZJHK 081200Z 04003MPS 360V080 CAVOK 25/19 Q1017 NOSIG
ZJHK,2020-11-08 13:00,ZJHK 081300Z 06003MPS 010V100 CAVOK 25/18 Q1017 NOSIG
ZJHK,2020-11-08 14:00,ZJHK 081400Z 02002MPS 330V070 CAVOK 25/20 Q1017 NOSIG
ZJHK,2020-11-08 15:00,ZJHK 081500Z 02002MPS 350V070 CAVOK 25/20 Q1018 NOSIG
ZJHK,2020-11-08 16:00,ZJHK 081600Z 01002MPS 340V120 CAVOK 24/21 Q1017 NOSIG
ZJHK,2020-11-08 17:00,ZJHK 081700Z 36002MPS CAVOK 24/21 Q1017 NOSIG
ZJHK,2020-11-08 18:00,ZJHK 081800Z 01003MPS CAVOK 24/21 Q1016 NOSIG
ZJHK,2020-11-08 19:00,ZJHK 081900Z 02003MPS CAVOK 24/21 Q1016 NOSIG
ZJHK,2020-11-08 20:00,ZJHK 082000Z 36003MPS CAVOK 24/21 Q1016 NOSIG
ZJHK,2020-11-08 21:00,ZJHK 082100Z 04006MPS CAVOK 25/17 Q1016 NOSIG
ZJHK,2020-11-08 22:00,ZJHK 082200Z 04007MPS CAVOK 25/16 Q1016 NOSIG
ZJHK,2020-11-08 23:00,ZJHK 082300Z 04008MPS CAVOK 25/16 Q1017 NOSIG
ZJHK,2020-11-09 00:00,ZJHK 090000Z 04007MPS 9999 SCT046 24/16 Q1018 NOSIG
ZJHK,2020-11-09 01:00,ZJHK 090100Z 04007MPS 9999 SCT046 24/16 Q1018 NOSIG
ZJHK,2020-11-09 02:00,ZJHK 090200Z 05008MPS 9999 BKN046 24/15 Q1018 NOSIG
ZJHK,2020-11-09 03:00,ZJHK 090300Z 04009MPS 020V080 CAVOK 26/15 Q1018 NOSIG
ZJHK,2020-11-09 04:00,ZJHK 090400Z 04009G15MPS 010V070 CAVOK 26/15 Q1017 NOSIG
ZJHK,2020-11-09 05:00,ZJHK 090500Z 03009MPS CAVOK 26/16 Q1016 NOSIG
ZJHK,2020-11-09 06:00,ZJHK 090600Z 03007MPS 360V060 CAVOK 26/16 Q1015 NOSIG
ZJHK,2020-11-09 07:00,ZJHK 090700Z 05006MPS 010V070 CAVOK 26/16 Q1014 NOSIG
ZJHK,2020-11-09 08:00,ZJHK 090800Z 05008MPS CAVOK 26/14 Q1014 NOSIG
ZJHK,2020-11-09 09:00,ZJHK 090900Z 05006MPS CAVOK 25/14 Q1015 NOSIG
ZJHK,2020-11-09 10:00,ZJHK 091000Z 06005MPS CAVOK 24/14 Q1015 NOSIG
ZJHK,2020-11-09 11:00,ZJHK 091100Z 06005MPS CAVOK 24/15 Q1016 NOSIG
ZJHK,2020-11-09 12:00,ZJHK 091200Z 05004MPS 020V080 CAVOK 24/15 Q1017 NOSIG
ZJHK,2020-11-09 13:00,ZJHK 091300Z 04004MPS CAVOK 24/15 Q1017 NOSIG
ZJHK,2020-11-09 14:00,ZJHK 091400Z 08006MPS CAVOK 24/16 Q1017 NOSIG
ZJHK,2020-11-09 15:00,ZJHK 091500Z 06004MPS 020V080 CAVOK 24/16 Q1017 NOSIG
ZJHK,2020-11-09 16:00,ZJHK 091600Z 06005MPS CAVOK 24/17 Q1017 NOSIG
ZJHK,2020-11-09 17:00,ZJHK 091700Z 06005MPS CAVOK 24/16 Q1017 NOSIG
ZJHK,2020-11-09 18:00,ZJHK 091800Z 06004MPS CAVOK 24/17 Q1016 NOSIG
ZJHK,2020-11-09 19:00,ZJHK 091900Z 05005MPS CAVOK 24/16 Q1016 NOSIG
ZJHK,2020-11-09 20:00,ZJHK 092000Z 05006MPS 9999 BKN040 24/17 Q1016 NOSIG
ZJHK,2020-11-09 21:00,ZJHK 092100Z 06007MPS 9999 BKN040 24/17 Q1016 NOSIG
ZJHK,2020-11-09 22:00,ZJHK 092200Z 05007MPS 9999 BKN040 24/18 Q1016 NOSIG
ZJHK,2020-11-09 23:00,ZJHK 092300Z 05007MPS 9999 BKN040 24/18 Q1017 NOSIG
ZJHK,2020-11-10 00:00,ZJHK 100000Z 04006MPS 9999 BKN023 24/17 Q1017 NOSIG
ZJHK,2020-11-10 01:00,ZJHK 100100Z 05007MPS 9999 BKN023 24/17 Q1018 NOSIG
ZJHK,2020-11-10 02:00,ZJHK 100200Z 06007MPS 9999 SCT030 BKN046 24/17 Q1019 NOSIG
ZJHK,2020-11-10 03:00,ZJHK 100300Z 05008MPS 9999 SCT030 BKN040 24/16 Q1019 NOSIG
ZJHK,2020-11-10 04:00,ZJHK 100400Z 04008MPS 9999 SCT030 BKN040 24/17 Q1018 NOSIG
ZJHK,2020-11-10 05:00,ZJHK 100500Z 05009MPS 9999 FEW030 OVC036 24/16 Q1018 NOSIG
ZJHK,2020-11-10 06:00,ZJHK 100600Z 04009MPS 9999 FEW030 OVC040 24/16 Q1017 NOSIG
ZJHK,2020-11-10 07:00,ZJHK 100700Z 05008MPS 9999 FEW030 OVC046 24/16 Q1016 NOSIG
ZJHK,2020-11-10 08:00,ZJHK 100800Z 05007MPS 9999 FEW030 OVC046 23/16 Q1016 NOSIG
ZJHK,2020-11-10 09:00,ZJHK 100900Z 05007MPS 9999 OVC046 23/16 Q1017 NOSIG
ZJHK,2020-11-10 10:00,ZJHK 101000Z 06007MPS 9999 OVC046 23/16 Q1017 NOSIG
ZJHK,2020-11-10 11:00,ZJHK 101100Z 06005MPS 9999 OVC046 23/16 Q1017 NOSIG
ZJHK,2020-11-10 12:00,ZJHK 101200Z 05006MPS 9999 OVC046 23/16 Q1018 NOSIG
ZJHK,2020-11-10 13:00,ZJHK 101300Z 05006MPS 020V080 9999 OVC046 23/16 Q1018 NOSIG
ZJHK,2020-11-10 14:00,ZJHK 101400Z 06008MPS 9999 OVC046 24/15 Q1018 NOSIG
ZJHK,2020-11-10 15:00,ZJHK 101500Z 07007MPS CAVOK 24/16 Q1019 NOSIG
ZJHK,2020-11-10 16:00,ZJHK 101600Z 07006MPS 9999 FEW030 23/17 Q1018 NOSIG
ZJHK,2020-11-10 17:00,ZJHK 101700Z 06007MPS 9999 FEW030 23/17 Q1018 NOSIG
ZJHK,2020-11-10 18:00,ZJHK 101800Z 06007MPS 9999 SCT030 23/18 Q1018 NOSIG
ZJHK,2020-11-10 19:00,ZJHK 101900Z 05006MPS 9999 BKN026 OVC046 23/18 Q1017 NOSIG
ZJHK,2020-11-10 20:00,ZJHK 102000Z 06010MPS 9999 -RA BKN020 OVC026 23/19 Q1017 NOSIG
ZJHK,2020-11-10 21:00,ZJHK 102100Z 06009MPS 9999 BKN026 OVC046 23/17 Q1017 NOSIG
ZJHK,2020-11-10 22:00,ZJHK 102200Z 06006MPS 9999 BKN026 OVC046 24/17 Q1018 NOSIG
ZJHK,2020-11-10 23:00,ZJHK 102300Z 06009MPS 9999 SCT026 OVC033 23/18 Q1018 NOSIG
ZJHK,2020-11-11 00:00,ZJHK 110000Z 06008MPS 9999 BKN026 OVC033 24/18 Q1019 NOSIG
ZJHK,2020-11-11 01:00,ZJHK 110100Z 06008MPS 9999 BKN026 OVC033 24/18 Q1020 NOSIG
ZJHK,2020-11-11 02:00,ZJHK 110200Z 06009MPS 9999 BKN026 OVC033 24/18 Q1020 NOSIG
ZJHK,2020-11-11 03:00,ZJHK 110300Z 07008G13MPS 040V100 9999 BKN026 OVC033 24/18 Q1020 NOSIG
ZJHK,2020-11-11 04:00,ZJHK 110400Z 06010MPS 9999 BKN026 OVC033 25/18 Q1019 NOSIG
ZJHK,2020-11-11 05:00,ZJHK 110500Z 06009MPS 9999 BKN026 OVC033 24/18 Q1019 NOSIG
ZJHK,2020-11-11 06:00,ZJHK 110600Z 05007MPS 9999 BKN026 OVC040 24/18 Q1018 NOSIG
ZJHK,2020-11-11 07:00,ZJHK 110700Z 06007MPS 9999 BKN026 OVC040 24/18 Q1018 NOSIG
ZJHK,2020-11-11 08:00,ZJHK 110800Z 06008MPS 9999 BKN026 OVC040 24/18 Q1018 NOSIG
ZJHK,2020-11-11 09:00,ZJHK 110900Z 06006MPS 9999 BKN026 OVC040 23/18 Q1018 NOSIG
ZJHK,2020-11-11 10:00,ZJHK 111000Z 07007MPS 9999 BKN026 OVC040 23/18 Q1018 NOSIG
ZJHK,2020-11-11 11:00,ZJHK 111100Z 07007MPS 9999 BKN026 OVC040 23/18 Q1019 NOSIG
ZJHK,2020-11-11 12:00,ZJHK 111200Z 07007MPS 9999 BKN026 OVC040 23/18 Q1020 NOSIG
ZJHK,2020-11-11 13:00,ZJHK 111300Z 09007MPS 9999 OVC046 23/18 Q1020 NOSIG
ZJHK,2020-11-11 14:00,ZJHK 111400Z 10006MPS CAVOK 22/18 Q1020 NOSIG
ZJHK,2020-11-11 15:00,ZJHK 111500Z 09005MPS CAVOK 22/17 Q1020 NOSIG
ZJHK,2020-11-11 16:00,ZJHK 111600Z 08005MPS CAVOK 22/17 Q1020 NOSIG
ZJHK,2020-11-11 17:00,ZJHK 111700Z 09002MPS 060V120 CAVOK 21/17 Q1019 NOSIG
ZJHK,2020-11-11 18:00,ZJHK 111800Z 06003MPS CAVOK 21/17 Q1019 NOSIG
ZJHK,2020-11-11 19:00,ZJHK 111900Z 04003MPS CAVOK 21/17 Q1018 NOSIG
ZJHK,2020-11-11 20:00,ZJHK 112000Z 04003MPS CAVOK 21/18 Q1017 NOSIG
ZJHK,2020-11-11 21:00,ZJHK 112100Z 04003MPS CAVOK 21/18 Q1017 NOSIG
ZJHK,2020-11-11 22:00,ZJHK 112200Z 04004MPS CAVOK 21/17 Q1018 NOSIG
ZJHK,2020-11-11 23:00,ZJHK 112300Z 04004MPS 9999 FEW016 22/17 Q1019 NOSIG
ZJHK,2020-11-12 00:00,ZJHK 120000Z 05005MPS 9999 FEW016TCU FEW016 23/17 Q1020 NOSIG
ZJHK,2020-11-12 01:00,ZJHK 120100Z 05007MPS 9999 FEW018 SCT033 24/18 Q1020 NOSIG
ZJHK,2020-11-12 02:00,ZJHK 120200Z 05008MPS 9999 FEW016 BKN026 25/18 Q1020 NOSIG
ZJHK,2020-11-12 03:00,ZJHK 120300Z 04006MPS 010V080 9999 BKN026 25/18 Q1020 NOSIG
ZJHK,2020-11-12 04:00,ZJHK 120400Z 04007MPS 020V080 9999 BKN030 25/17 Q1019 NOSIG
ZJHK,2020-11-12 05:00,ZJHK 120500Z 04007MPS 9999 BKN030 25/18 Q1018 NOSIG
ZJHK,2020-11-12 06:00,ZJHK 120600Z 03006MPS 360V060 9999 FEW013 SCT030 25/17 Q1018 NOSIG
ZJHK,2020-11-12 07:00,ZJHK 120700Z 03006MPS 350V050 9999 FEW026 25/16 Q1017 NOSIG
ZJHK,2020-11-12 08:00,ZJHK 120800Z 04007MPS 9999 FEW013 25/14 Q1017 NOSIG
ZJHK,2020-11-12 09:00,ZJHK 120900Z 05006MPS CAVOK 24/14 Q1017 NOSIG
ZJHK,2020-11-12 10:00,ZJHK 121000Z 07005MPS CAVOK 23/13 Q1017 NOSIG
ZJHK,2020-11-12 11:00,ZJHK 121100Z 10004MPS CAVOK 21/14 Q1018 NOSIG
ZJHK,2020-11-12 12:00,ZJHK 121200Z 09003MPS CAVOK 21/15 Q1018 NOSIG
ZJHK,2020-11-12 13:00,ZJHK 121300Z VRB01MPS CAVOK 20/16 Q1018 NOSIG
ZJHK,2020-11-12 14:00,ZJHK 121400Z VRB01MPS CAVOK 20/16 Q1018 NOSIG
ZJHK,2020-11-12 15:00,ZJHK 121500Z 33002MPS 250V020 CAVOK 22/16 Q1018 NOSIG
ZJHK,2020-11-12 16:00,ZJHK 121600Z 35002MPS 260V060 CAVOK 22/17 Q1017 NOSIG
ZJHK,2020-11-12 17:00,ZJHK 121700Z 34002MPS 320V040 CAVOK 21/17 Q1017 NOSIG
ZJHK,2020-11-12 18:00,ZJHK 121800Z VRB01MPS CAVOK 18/17 Q1016 NOSIG
ZJHK,2020-11-12 19:00,ZJHK 121900Z 27001MPS CAVOK 17/17 Q1016 NOSIG
ZJHK,2020-11-12 20:00,ZJHK 122000Z 26001MPS CAVOK 17/17 Q1015 NOSIG
ZJHK,2020-11-12 21:00,ZJHK 122100Z 30002MPS CAVOK 17/17 Q1015 NOSIG
ZJHK,2020-11-12 22:00,ZJHK 122200Z 32002MPS CAVOK 18/18 Q1015 NOSIG
ZJHK,2020-11-12 23:00,ZJHK 122300Z 33003MPS 310V030 CAVOK 21/18 Q1016 NOSIG
ZJHK,2020-11-13 00:00,ZJHK 130000Z 34004MPS 320V030 CAVOK 22/17 Q1017 NOSIG
ZJHK,2020-11-13 01:00,ZJHK 130100Z 36005MPS 330V040 CAVOK 23/17 Q1017 NOSIG
ZJHK,2020-11-13 02:00,ZJHK 130200Z 02006MPS 350V050 CAVOK 24/17 Q1017 NOSIG
ZJHK,2020-11-13 03:00,ZJHK 130300Z 04008MPS CAVOK 26/14 Q1017 NOSIG
ZJHK,2020-11-13 04:00,ZJHK 130400Z 03008MPS 350V060 CAVOK 26/14 Q1016 NOSIG
ZJHK,2020-11-13 05:00,ZJHK 130500Z 03008MPS CAVOK 26/14 Q1015 NOSIG
ZJHK,2020-11-13 06:00,ZJHK 130600Z 04008MPS CAVOK 26/15 Q1014 NOSIG
ZJHK,2020-11-13 07:00,ZJHK 130700Z 03008MPS 360V070 CAVOK 26/14 Q1014 NOSIG
ZJHK,2020-11-13 08:00,ZJHK 130800Z 04008MPS CAVOK 26/15 Q1014 NOSIG
ZJHK,2020-11-13 09:00,ZJHK 130900Z 04007MPS CAVOK 25/15 Q1014 NOSIG
ZJHK,2020-11-13 10:00,ZJHK 131000Z 06007MPS CAVOK 25/15 Q1014 NOSIG
ZJHK,2020-11-13 11:00,ZJHK 131100Z 06005MPS CAVOK 24/15 Q1014 NOSIG
ZJHK,2020-11-13 12:00,ZJHK 131200Z 05005MPS CAVOK 24/16 Q1015 NOSIG
ZJHK,2020-11-13 13:00,ZJHK 131300Z 05005MPS CAVOK 23/17 Q1016 NOSIG
ZJHK,2020-11-13 14:00,ZJHK 131400Z 08006MPS 9999 -RA BKN046 20/19 Q1016 NOSIG
ZJHK,2020-11-13 15:00,ZJHK 131500Z 07007MPS 9999 BKN046 20/19 Q1016 NOSIG
ZJHK,2020-11-13 16:00,ZJHK 131600Z 05006MPS 9999 BKN040 20/18 Q1016 NOSIG
ZJHK,2020-11-13 17:00,ZJHK 131700Z 04005MPS 9999 SCT010 BKN040 20/20 Q1016 NOSIG
ZJHK,2020-11-13 18:00,ZJHK 131800Z 04007MPS 9999 SCT010 BKN040 21/18 Q1015 NOSIG
ZJHK,2020-11-13 19:00,ZJHK 131900Z 04006MPS 9999 SCT010 BKN040 22/19 Q1014 NOSIG
ZJHK,2020-11-13 20:00,ZJHK 132000Z 04007MPS 9999 BKN040 23/18 Q1014 NOSIG
ZJHK,2020-11-13 21:00,ZJHK 132100Z 04008MPS 9999 BKN040 23/18 Q1013 NOSIG
ZJHK,2020-11-13 22:00,ZJHK 132200Z 05008MPS 9999 SCT030 BKN040 23/17 Q1014 NOSIG
ZJHK,2020-11-13 23:00,ZJHK 132300Z 05007MPS 9999 BKN030 BKN040 23/18 Q1014 NOSIG
ZJHK,2020-11-14 00:00,ZJHK 140000Z 05007MPS 9999 SCT030 OVC040 24/18 Q1015 NOSIG
ZJHK,2020-11-14 01:00,ZJHK 140100Z 05007MPS 9999 SCT030 OVC040 24/18 Q1016 NOSIG
ZJHK,2020-11-14 02:00,ZJHK 140200Z 05009MPS 9999 SCT030 OVC040 24/18 Q1016 NOSIG
ZJHK,2020-11-14 03:00,ZJHK 140300Z 05007MPS 9999 SCT030 OVC040 23/19 Q1016 NOSIG
ZJHK,2020-11-14 04:00,ZJHK 140400Z 05008MPS 9999 -RA SCT023 OVC040 23/19 Q1016 BECMG AT0500 SHRA
ZJHK,2020-11-14 05:00,ZJHK 140500Z 05010MPS 9999 SCT023 OVC040 24/18 Q1015 NOSIG
ZJHK,2020-11-14 06:00,ZJHK 140600Z 05009G14MPS 9999 SCT023 OVC040 23/19 Q1014 NOSIG
ZJHK,2020-11-14 07:00,ZJHK 140700Z 05007MPS 9999 -SHRA SCT023 FEW026TCU OVC040 22/20 Q1013 NOSIG
ZJHK,2020-11-14 08:00,ZJHK 140800Z 05007MPS 9999 -SHRA SCT013 FEW026TCU BKN033 22/20 Q1013 NOSIG
ZJHK,2020-11-14 09:00,ZJHK 140900Z 06009MPS 9999 SCT020 OVC033 23/20 Q1013 NOSIG
ZJHK,2020-11-14 10:00,ZJHK 141000Z 06009MPS 3500 -RA BR BKN010 OVC026 22/21 Q1013 NOSIG
ZJHK,2020-11-14 11:00,ZJHK 141100Z 06009G14MPS 3000 -RA BR BKN005 OVC020 22/22 Q1013 NOSIG
ZJHK,2020-11-14 12:00,ZJHK 141200Z 06010MPS 4000 -RA BR BKN005 OVC020 22/22 Q1014 NOSIG
ZJHK,2020-11-14 13:00,ZJHK 141300Z 06011MPS 4000 -RA BR BKN005 OVC020 22/22 Q1015 NOSIG
ZJHK,2020-11-14 14:00,ZJHK 141400Z 06009MPS 4500 -RA BR BKN005 OVC020 22/22 Q1015 NOSIG
ZJHK,2020-11-14 15:00,ZJHK 141500Z 07010MPS 6000 -RA BKN005 OVC020 22/22 Q1015 NOSIG
ZJHK,2020-11-14 16:00,ZJHK 141600Z 07009MPS 5000 -RA BR BKN005 OVC020 22/22 Q1015 NOSIG
ZJHK,2020-11-14 17:00,ZJHK 141700Z 06009G14MPS 6000 -RA BKN005 OVC020 22/22 Q1014 NOSIG
ZJHK,2020-11-14 18:00,ZJHK 141800Z 07009MPS 6000 -RA BKN005 OVC020 23/23 Q1014 NOSIG
ZJHK,2020-11-14 19:00,ZJHK 141900Z 06010MPS 9999 -RA BKN005 OVC020 23/23 Q1013 NOSIG
ZJHK,2020-11-14 20:00,ZJHK 142000Z 07010MPS 8000 -RA BKN005 OVC020 22/22 Q1013 NOSIG
ZJHK,2020-11-14 21:00,ZJHK 142100Z 07010MPS 6000 -RA BKN005 OVC020 22/22 Q1013 NOSIG
ZJHK,2020-11-14 22:00,ZJHK 142200Z 07010MPS 6000 -RA BKN005 OVC020 22/22 Q1014 NOSIG
ZJHK,2020-11-14 23:00,ZJHK 142300Z 08010MPS 6000 -RA BKN005 OVC020 23/23 Q1014 NOSIG
ZJHK,2020-11-15 00:00,ZJHK 150000Z 08010MPS 6000 -RA BKN005 OVC020 23/23 Q1015 NOSIG
ZJHK,2020-11-15 01:00,ZJHK 150100Z 09009MPS 5000 -RA BKN005 OVC020 24/24 Q1016 NOSIG
ZJHK,2020-11-15 02:00,ZJHK 150200Z 08009MPS 7000 -RA BKN005 OVC020 24/24 Q1017 NOSIG
ZJHK,2020-11-15 03:00,ZJHK 150300Z 08010MPS 8000 -RA BKN005 OVC020 24/24 Q1016 NOSIG
ZJHK,2020-11-15 04:00,ZJHK 150400Z 08009MPS 9999 BKN006 OVC020 24/24 Q1016 NOSIG
ZJHK,2020-11-15 05:00,ZJHK 150500Z 08009MPS 9999 BKN008 OVC023 24/24 Q1016 NOSIG
ZJHK,2020-11-15 06:00,ZJHK 150600Z 08009MPS 9999 BKN008 OVC023 24/24 Q1015 NOSIG
ZJHK,2020-11-15 07:00,ZJHK 150700Z 08008MPS 9999 BKN009 OVC020 25/25 Q1014 NOSIG
ZJHK,2020-11-15 08:00,ZJHK 150800Z 08006MPS 9000 -RA BKN008 OVC020 24/24 Q1014 NOSIG
ZJHK,2020-11-15 09:00,ZJHK 150900Z 07006MPS 3000 -RA BR BKN006 OVC020 24/24 Q1015 NOSIG
ZJHK,2020-11-15 10:00,ZJHK 151000Z 07007MPS 7000 -RA BKN006 OVC020 24/24 Q1015 NOSIG
ZJHK,2020-11-15 11:00,ZJHK 151100Z 08007MPS 5000 -RA BR BKN006 OVC020 23/23 Q1016 NOSIG
ZJHK,2020-11-15 12:00,ZJHK 151200Z 08006MPS 5000 -RA BR BKN006 OVC020 23/23 Q1016 NOSIG
ZJHK,2020-11-15 13:00,ZJHK 151300Z 08007MPS 7000 -RA BKN007 OVC020 24/24 Q1017 NOSIG
ZJHK,2020-11-15 14:00,ZJHK 151400Z 08005MPS 9999 BKN008 OVC020 24/24 Q1017 NOSIG
ZJHK,2020-11-15 15:00,ZJHK 151500Z 08005MPS 9999 BKN008 OVC020 24/24 Q1017 NOSIG
ZJHK,2020-11-15 16:00,ZJHK 151600Z 07005MPS 9999 BKN008 OVC020 24/24 Q1017 NOSIG
ZJHK,2020-11-15 17:00,ZJHK 151700Z 08005MPS 9999 BKN008 OVC020 24/24 Q1017 NOSIG
ZJHK,2020-11-15 18:00,ZJHK 151800Z 07005MPS 9999 BKN008 OVC020 24/24 Q1016 NOSIG
ZJHK,2020-11-15 19:00,ZJHK 151900Z 07005MPS 8000 BKN008 OVC023 24/24 Q1016 NOSIG
ZJHK,2020-11-15 20:00,ZJHK 152000Z 08004MPS 9000 BKN007 OVC023 24/24 Q1016 NOSIG
ZJHK,2020-11-15 21:00,ZJHK 152100Z 08004MPS 9999 SCT009 BKN020 OVC033 24/24 Q1016 NOSIG
ZJHK,2020-11-15 22:00,ZJHK 152200Z 07004MPS 9999 SCT009 BKN020 OVC033 24/24 Q1016 NOSIG
ZJHK,2020-11-15 23:00,ZJHK 152300Z 07005MPS 9999 SCT009 OVC023 24/24 Q1017 NOSIG
ZJHK,2020-11-16 00:00,ZJHK 160000Z 06004MPS 9999 BKN009 OVC020 24/24 Q1017 NOSIG
ZJHK,2020-11-16 01:00,ZJHK 160100Z 08004MPS 9999 BKN010 OVC020 24/24 Q1018 NOSIG
ZJHK,2020-11-16 02:00,ZJHK 160200Z 08007MPS 9999 FEW010 BKN020 26/23 Q1018 NOSIG
ZJHK,2020-11-16 03:00,ZJHK 160300Z 08007MPS 9999 SCT011 BKN020 26/23 Q1018 NOSIG
ZJHK,2020-11-16 04:00,ZJHK 160400Z 08007MPS 9999 SCT011 BKN030 25/23 Q1017 NOSIG
ZJHK,2020-11-16 05:00,ZJHK 160500Z 07005MPS 9999 SCT011 BKN030 25/23 Q1017 NOSIG
ZJHK,2020-11-16 06:00,ZJHK 160600Z 08006MPS 9999 SCT016 BKN030 26/22 Q1016 NOSIG
ZJHK,2020-11-16 07:00,ZJHK 160700Z 09007MPS 9999 SCT014 BKN030 26/22 Q1015 NOSIG
ZJHK,2020-11-16 08:00,ZJHK 160800Z 08006MPS 9999 SCT014 BKN040 25/22 Q1015 NOSIG
ZJHK,2020-11-16 09:00,ZJHK 160900Z 07007MPS 9999 SCT014 SCT020 25/22 Q1015 NOSIG
ZJHK,2020-11-16 10:00,ZJHK 161000Z 06005MPS 020V100 9999 BKN011 SCT033 24/22 Q1015 NOSIG
ZJHK,2020-11-16 11:00,ZJHK 161100Z 08005MPS 9999 FEW011 BKN033 24/22 Q1015 NOSIG
ZJHK,2020-11-16 12:00,ZJHK 161200Z 07004MPS 9999 FEW011 SCT033 23/22 Q1016 NOSIG
ZJHK,2020-11-16 13:00,ZJHK 161300Z 09003MPS 9999 FEW020 23/23 Q1017 NOSIG
ZJHK,2020-11-16 14:00,ZJHK 161400Z 11002MPS 8000 NSC 22/22 Q1017 NOSIG
ZJHK,2020-11-16 15:00,ZJHK 161500Z 14002MPS 5000 BR NSC 22/22 Q1016 NOSIG
ZJHK,2020-11-16 16:00,ZJHK 161600Z 09002MPS 6000 NSC 21/21 Q1016 NOSIG
ZJHK,2020-11-16 17:00,ZJHK 161700Z 06003MPS 7000 NSC 22/22 Q1016 NOSIG
ZJHK,2020-11-16 18:00,ZJHK 161800Z 07003MPS 6000 NSC 22/22 Q1015 NOSIG
ZJHK,2020-11-16 19:00,ZJHK 161900Z 07003MPS 6000 SCT033 22/22 Q1014 NOSIG
ZJHK,2020-11-16 20:00,ZJHK 162000Z 08003MPS 5000 BR SCT033 21/21 Q1014 NOSIG
ZJHK,2020-11-16 21:00,ZJHK 162100Z 10002MPS 5000 BR BKN033 22/22 Q1014 NOSIG
ZJHK,2020-11-16 22:00,ZJHK 162200Z 11002MPS 5000 BR BKN040 22/22 Q1014 NOSIG
ZJHK,2020-11-16 23:00,ZJHK 162300Z 11003MPS 3000 BR BKN040 22/22 Q1014 NOSIG
ZJHK,2020-11-17 00:00,ZJHK 170000Z 11002MPS 3000 BR BKN046 23/23 Q1015 NOSIG
ZJHK,2020-11-17 01:00,ZJHK 170100Z 09004MPS 8000 FEW008 BKN046 24/24 Q1015 NOSIG
ZJHK,2020-11-17 02:00,ZJHK 170200Z 09005MPS 9999 FEW008 BKN013 26/23 Q1015 NOSIG
ZJHK,2020-11-17 03:00,ZJHK 170300Z 09003MPS 040V130 9999 BKN015 BKN046 26/23 Q1015 NOSIG
ZJHK,2020-11-17 04:00,ZJHK 170400Z 07003MPS 030V110 9999 SCT015 BKN046 27/23 Q1015 NOSIG
ZJHK,2020-11-17 05:00,ZJHK 170500Z 03004MPS 360V080 9999 BKN015 BKN046 25/23 Q1014 NOSIG
ZJHK,2020-11-17 06:00,ZJHK 170600Z 06004MPS 9999 BKN015 BKN046 26/23 Q1013 NOSIG
ZJHK,2020-11-17 07:00,ZJHK 170700Z 06004MPS 9999 BKN015 BKN046 26/23 Q1012 NOSIG
ZJHK,2020-11-17 08:00,ZJHK 170800Z 36003MPS 340V070 9999 BKN015 BKN046 25/23 Q1012 NOSIG
ZJHK,2020-11-17 09:00,ZJHK 170900Z 06004MPS 9999 FEW012 BKN015 BKN046 25/23 Q1012 NOSIG
ZJHK,2020-11-17 10:00,ZJHK 171000Z 07005MPS 8000 -RA FEW010 BKN026 BKN046 24/24 Q1013 BECMG TL1050 BKN010 BKN030
ZJHK,2020-11-17 11:00,ZJHK 171100Z 09003MPS 9999 BKN010 BKN026 BKN046 24/24 Q1013 NOSIG
ZJHK,2020-11-17 12:00,ZJHK 171200Z 09004MPS 9999 SCT007 BKN046 23/23 Q1013 NOSIG
ZJHK,2020-11-17 13:00,ZJHK 171300Z 10003MPS 9999 SCT007 BKN046 23/23 Q1014 NOSIG
ZJHK,2020-11-17 14:00,ZJHK 171400Z 10003MPS 8000 FEW007 23/23 Q1014 NOSIG
ZJHK,2020-11-17 15:00,ZJHK 171500Z 10002MPS 6000 BKN008 23/23 Q1014 NOSIG
ZJHK,2020-11-17 16:00,ZJHK 171600Z VRB01MPS 5000 BR BKN009 23/23 Q1013 NOSIG
ZJHK,2020-11-17 17:00,ZJHK 171700Z 22001MPS 6000 BKN009 23/23 Q1013 NOSIG
ZJHK,2020-11-17 18:00,ZJHK 171800Z 24001MPS 6000 BKN007 23/23 Q1013 NOSIG
ZJHK,2020-11-17 19:00,ZJHK 171900Z 27001MPS 6000 BKN010 23/23 Q1012 NOSIG
ZJHK,2020-11-17 20:00,ZJHK 172000Z 26001MPS 6000 SCT010 BKN026 23/23 Q1012 NOSIG
ZJHK,2020-11-17 21:00,ZJHK 172100Z 00000MPS 6000 R09/0750U BCFG BKN020 22/22 Q1012 NOSIG
ZJHK,2020-11-17 22:00,ZJHK 172200Z 00000MPS 6000 BKN020 23/23 Q1012 NOSIG
ZJHK,2020-11-17 23:00,ZJHK 172300Z VRB01MPS 5000 BR BCFG SCT026 23/23 Q1012 NOSIG
ZJHK,2020-11-18 00:00,ZJHK 180000Z 03002MPS 320V090 9999 SCT026 24/24 Q1013 NOSIG
ZJHK,2020-11-18 01:00,ZJHK 180100Z 04003MPS 9999 SCT012 SCT026 26/25 Q1013 NOSIG
ZJHK,2020-11-18 02:00,ZJHK 180200Z 06003MPS 030V110 9999 SCT012 BKN026 27/24 Q1014 NOSIG
ZJHK,2020-11-18 03:00,ZJHK 180300Z 03004MPS 9999 SCT012 FEW026TCU BKN026 26/25 Q1013 NOSIG
ZJHK,2020-11-18 04:00,ZJHK 180400Z 02004MPS 310V080 7000 SCT009 FEW020TCU BKN026 25/25 Q1013 NOSIG
ZJHK,2020-11-18 05:00,ZJHK 180500Z 04003MPS 010V070 7000 SCT008 FEW020TCU BKN026 25/25 Q1012 NOSIG
ZJHK,2020-11-18 06:00,ZJHK 180600Z 03004MPS 5000 -RA BR BKN006 BKN026 25/25 Q1011 NOSIG
ZJHK,2020-11-18 07:00,ZJHK 180700Z 04003MPS 3000 -RA BR BKN004 BKN026 25/25 Q1011 RESHRA NOSIG
ZJHK,2020-11-18 08:00,ZJHK 180800Z 03003MPS 010V070 8000 SCT004 BKN026 25/25 Q1010 NOSIG
ZJHK,2020-11-18 09:00,ZJHK 180900Z 05002MPS 010V080 9999 SCT008 BKN020 BKN040 25/25 Q1011 NOSIG
ZJHK,2020-11-18 10:00,ZJHK 181000Z 06003MPS 9999 SCT010 SCT023 BKN040 25/25 Q1011 NOSIG
ZJHK,2020-11-18 11:00,ZJHK 181100Z 08003MPS 9999 FEW006 SCT013 BKN040 24/24 Q1011 NOSIG
ZJHK,2020-11-18 12:00,ZJHK 181200Z 08004MPS 5000 BR BKN005 BKN020 24/24 Q1012 BECMG TL1350 2800 BKN004 BKN020
ZJHK,2020-11-18 13:00,ZJHK 181300Z 09004MPS 5000 BR BKN005 BKN020 24/24 Q1012 BECMG TL1420 2800 BKN004 BKN020
ZJHK,2020-11-18 14:00,ZJHK 181400Z 10002MPS 4000 BR BKN004 BKN020 24/24 Q1012 NOSIG
ZJHK,2020-11-18 15:00,ZJHK 181500Z 10002MPS 4000 BR BKN004 BKN020 24/24 Q1012 NOSIG
ZJHK,2020-11-18 16:00,ZJHK 181600Z 11002MPS 4000 BR FEW004 BKN009 BKN026 24/24 Q1012 NOSIG
ZJHK,2020-11-18 17:00,ZJHK 181700Z 13002MPS 1500 BR BKN002 BKN013 24/24 Q1012 NOSIG
ZJHK,2020-11-18 18:00,ZJHK 181800Z VRB01MPS 0700 R09/P2000 FG VV002 24/24 Q1011 NOSIG
ZJHK,2020-11-18 19:00,ZJHK 181900Z 00000MPS 0800 R09/P2000 FG VV003 24/24 Q1011 NOSIG
ZJHK,2020-11-18 20:00,ZJHK 182000Z VRB01MPS 3000 BR BKN004 24/24 Q1011 NOSIG
ZJHK,2020-11-18 21:00,ZJHK 182100Z 02002MPS 3000 BR BKN003 24/24 Q1011 NOSIG
ZJHK,2020-11-18 22:00,ZJHK 182200Z 06002MPS 3000 BR BKN003 24/24 Q1011 BECMG TL2340 BKN007 BKN020
ZJHK,2020-11-18 23:00,ZJHK 182300Z 11002MPS 0700 R09/P2000 FG VV002 24/24 Q1012 BECMG TL0020 3000 BR BKN005 BKN020
ZJHK,2020-11-19 00:00,ZJHK 190000Z 10003MPS 3500 BR BKN003 25/25 Q1012 BECMG TL0030 BKN005 BKN020
ZJHK,2020-11-19 01:00,ZJHK 190100Z 10003MPS 5000 BR BKN005 BKN020 25/25 Q1013 BECMG AT0140 BKN012
ZJHK,2020-11-19 02:00,ZJHK 190200Z 12003MPS 090V160 9999 SCT010 BKN026 27/25 Q1013 NOSIG
ZJHK,2020-11-19 03:00,ZJHK 190300Z 10003MPS 050V120 9999 SCT013 SCT026 BKN033 28/26 Q1013 NOSIG
ZJHK,2020-11-19 04:00,ZJHK 190400Z 09003MPS 9999 SCT026 BKN040 28/25 Q1012 NOSIG
ZJHK,2020-11-19 05:00,ZJHK 190500Z 10003MPS 060V130 9999 BKN020 SCT046 29/24 Q1011 NOSIG
ZJHK,2020-11-19 06:00,ZJHK 190600Z 12002MPS 040V210 9999 BKN023 29/25 Q1010 NOSIG
ZJHK,2020-11-19 07:00,ZJHK 190700Z 03003MPS 350V070 9999 FEW023TCU BKN023 29/25 Q1009 NOSIG
ZJHK,2020-11-19 08:00,ZJHK 190800Z 05004MPS 350V090 9999 FEW023TCU BKN023 29/24 Q1009 NOSIG
ZJHK,2020-11-19 09:00,ZJHK 190900Z 07005MPS 9999 BKN023 28/24 Q1009 NOSIG
ZJHK,2020-11-19 10:00,ZJHK 191000Z 10003MPS 9999 BKN026 26/25 Q1009 NOSIG
ZJHK,2020-11-19 11:00,ZJHK 191100Z 11002MPS CAVOK 25/24 Q1010 NOSIG
ZJHK,2020-11-19 12:00,ZJHK 191200Z 11002MPS CAVOK 24/24 Q1011 NOSIG
ZJHK,2020-11-19 13:00,ZJHK 191300Z 11003MPS CAVOK 24/24 Q1011 NOSIG
ZJHK,2020-11-19 14:00,ZJHK 191400Z VRB01MPS 9999 FEW010 24/24 Q1011 NOSIG
ZJHK,2020-11-19 15:00,ZJHK 191500Z VRB01MPS 9999 BKN005 24/24 Q1011 NOSIG
ZJHK,2020-11-19 16:00,ZJHK 191600Z VRB01MPS 9999 BKN010 24/24 Q1011 NOSIG
ZJHK,2020-11-19 17:00,ZJHK 191700Z 09001MPS 9999 BKN010 24/24 Q1011 NOSIG
ZJHK,2020-11-19 18:00,ZJHK 191800Z 10001MPS 5000 BR FEW010 23/23 Q1011 NOSIG
ZJHK,2020-11-19 19:00,ZJHK 191900Z 18001MPS 5000 R09/0800V0900N BR BCFG BKN010 23/23 Q1011 NOSIG
ZJHK,2020-11-19 20:00,ZJHK 192000Z 00000MPS 4000 R09/0500V0900D BR BCFG BKN010 23/23 Q1011 NOSIG
ZJHK,2020-11-19 21:00,ZJHK 192100Z VRB01MPS 7000 BCFG BKN010 BKN040 23/23 Q1011 NOSIG
ZJHK,2020-11-19 22:00,ZJHK 192200Z 12001MPS 7000 BKN010 BKN040 23/23 Q1012 NOSIG
ZJHK,2020-11-19 23:00,ZJHK 192300Z 10002MPS 6000 BKN013 BKN040 23/23 Q1012 NOSIG
ZJHK,2020-11-20 00:00,ZJHK 200000Z 04003MPS 9999 BKN010 BKN023 24/24 Q1013 BECMG AT0040 SCT020
ZJHK,2020-11-20 01:00,ZJHK 200100Z 05003MPS 020V080 9999 FEW005 SCT012 BKN023 25/25 Q1014 NOSIG
ZJHK,2020-11-20 02:00,ZJHK 200200Z 08003MPS 050V110 9999 SCT012 BKN020 28/24 Q1014 NOSIG
ZJHK,2020-11-20 03:00,ZJHK 200300Z 03004MPS 360V070 9999 SCT013 BKN023 27/24 Q1014 NOSIG
ZJHK,2020-11-20 04:00,ZJHK 200400Z 06004MPS 020V110 9999 FEW015 BKN026 28/23 Q1013 NOSIG
ZJHK,2020-11-20 05:00,ZJHK 200500Z 08004MPS 040V130 9999 BKN026 30/24 Q1012 NOSIG
ZJHK,2020-11-20 06:00,ZJHK 200600Z 05005MPS 9999 BKN026 28/23 Q1011 NOSIG
ZJHK,2020-11-20 07:00,ZJHK 200700Z 07005MPS 030V110 9999 SCT026 29/24 Q1010 NOSIG
ZJHK,2020-11-20 08:00,ZJHK 200800Z 08005MPS 9999 SCT030 28/24 Q1010 NOSIG
ZJHK,2020-11-20 09:00,ZJHK 200900Z 09005MPS 9999 SCT020 SCT033 27/23 Q1011 NOSIG
ZJHK,2020-11-20 10:00,ZJHK 201000Z 10004MPS 070V130 9999 SCT013 SCT023 25/24 Q1011 NOSIG
ZJHK,2020-11-20 11:00,ZJHK 201100Z 10003MPS 9999 FEW012 25/24 Q1012 NOSIG
ZJHK,2020-11-20 12:00,ZJHK 201200Z 11002MPS 9999 FEW010 24/24 Q1012 NOSIG
ZJHK,2020-11-20 13:00,ZJHK 201300Z 10003MPS 9999 FEW012 24/24 Q1013 NOSIG
ZJHK,2020-11-20 14:00,ZJHK 201400Z 12002MPS 7000 FEW006 23/23 Q1013 NOSIG
ZJHK,2020-11-20 15:00,ZJHK 201500Z 12001MPS 5000 BR SCT004 23/23 Q1013 NOSIG
ZJHK,2020-11-20 16:00,ZJHK 201600Z 19001MPS 1400 R09/0650D BR BCFG BKN003 23/23 Q1013 BECMG TL1700 0800 FG
ZJHK,2020-11-20 17:00,ZJHK 201700Z VRB01MPS 0700 R09/1000V1300U FG VV002 23/23 Q1012 NOSIG
ZJHK,2020-11-20 18:00,ZJHK 201800Z VRB01MPS 0500 R09/0900V1200N FG VV002 23/23 Q1012 NOSIG
ZJHK,2020-11-20 19:00,ZJHK 201900Z VRB01MPS 0500 R09/1700D FG VV002 23/23 Q1011 NOSIG
ZJHK,2020-11-20 20:00,ZJHK 202000Z VRB01MPS 0500 R09/1700U FG VV002 23/23 Q1011 NOSIG
ZJHK,2020-11-20 21:00,ZJHK 202100Z VRB01MPS 0500 R09/0750D FG VV002 23/23 Q1011 NOSIG
ZJHK,2020-11-20 22:00,ZJHK 202200Z VRB01MPS 0800 R09/P2000 FG VV002 23/23 Q1012 NOSIG
ZJHK,2020-11-20 23:00,ZJHK 202300Z 10002MPS 0900 R09/P2000 FG VV002 23/23 Q1012 BECMG AT0000 2000 BR
ZJHK,2020-11-21 00:00,ZJHK 210000Z 10002MPS 3000 -RA BR BKN003 BKN020 23/23 Q1013 NOSIG
ZJHK,2020-11-21 01:00,ZJHK 210100Z 06003MPS 7000 BKN005 BKN020 24/24 Q1014 BECMG TL0200 BKN010
ZJHK,2020-11-21 02:00,ZJHK 210200Z 10002MPS 070V130 9999 BKN010 BKN030 25/25 Q1015 BECMG AT0300 BKN015
ZJHK,2020-11-21 03:00,ZJHK 210300Z 08002MPS 030V130 9999 BKN015 BKN030 27/24 Q1015 NOSIG
ZJHK,2020-11-21 04:00,ZJHK 210400Z 04003MPS 340V080 9999 BKN016 BKN040 27/24 Q1014 NOSIG
ZJHK,2020-11-21 05:00,ZJHK 210500Z 04004MPS 010V070 9999 SCT016 BKN040 28/23 Q1013 NOSIG
ZJHK,2020-11-21 06:00,ZJHK 210600Z 04004MPS 9999 SCT016 BKN046 28/23 Q1012 NOSIG
ZJHK,2020-11-21 07:00,ZJHK 210700Z 06004MPS 9999 SCT023 29/23 Q1012 NOSIG
ZJHK,2020-11-21 08:00,ZJHK 210800Z 06005MPS 9999 SCT023 28/23 Q1012 NOSIG
ZJHK,2020-11-21 09:00,ZJHK 210900Z 07005MPS 040V100 9999 SCT023 28/23 Q1012 NOSIG
ZJHK,2020-11-21 10:00,ZJHK 211000Z 06005MPS 9999 FEW043 26/23 Q1012 NOSIG
ZJHK,2020-11-21 11:00,ZJHK 211100Z 07005MPS 9999 FEW043 25/24 Q1013 NOSIG
ZJHK,2020-11-21 12:00,ZJHK 211200Z 07005MPS 9999 SCT007 24/24 Q1014 BECMG BKN007
ZJHK,2020-11-21 13:00,ZJHK 211300Z 11003MPS 9999 SCT007 24/24 Q1014 NOSIG
ZJHK,2020-11-21 14:00,ZJHK 211400Z 10003MPS 6000 FEW006 24/24 Q1015 NOSIG
ZJHK,2020-11-21 15:00,ZJHK 211500Z 11002MPS 5000 BR SCT003 24/24 Q1015 BECMG TL1640 2000 BKN002 OVC020
ZJHK,2020-11-21 16:00,ZJHK 211600Z 11002MPS 3000 BR BKN003 24/24 Q1014 NOSIG
ZJHK,2020-11-21 17:00,ZJHK 211700Z 11002MPS 080V140 0800 R09/0750V1000U FG BKN002 24/24 Q1014 NOSIG
ZJHK,2020-11-21 18:00,ZJHK 211800Z 10002MPS 0800 R09/1500N FG BKN002 24/24 Q1014 NOSIG
ZJHK,2020-11-21 19:00,ZJHK 211900Z 05002MPS 030V100 0800 R09/1500D FG BKN002 24/24 Q1014 NOSIG
ZJHK,2020-11-21 20:00,ZJHK 212000Z VRB01MPS 0800 R09/0700V1300U FG BKN002 24/24 Q1013 NOSIG
ZJHK,2020-11-21 21:00,ZJHK 212100Z VRB01MPS 0700 R09/0550N FG VV002 24/24 Q1014 NOSIG
ZJHK,2020-11-21 22:00,ZJHK 212200Z VRB01MPS 1000 R09/1200U BR BKN002 24/24 Q1014 BECMG TL2400 2000
ZJHK,2020-11-21 23:00,ZJHK 212300Z 03002MPS 360V070 1500 BR BKN004 24/24 Q1015 BECMG TL0100 3000 BKN010
ZJHK,2020-11-22 00:00,ZJHK 220000Z 05003MPS 2500 BR BKN004 25/25 Q1015 BECMG AT0100 3000 BKN010
ZJHK,2020-11-22 01:00,ZJHK 220100Z 07004MPS 040V100 8000 BKN006 BKN046 26/26 Q1016 NOSIG
ZJHK,2020-11-22 02:00,ZJHK 220200Z 08007MPS 9000 SCT011 SCT026 BKN046 27/24 Q1017 NOSIG
ZJHK,2020-11-22 03:00,ZJHK 220300Z 10007MPS 9999 SCT016 SCT026 28/24 Q1017 NOSIG
ZJHK,2020-11-22 04:00,ZJHK 220400Z 08008MPS 9999 SCT018 SCT023 28/23 Q1016 NOSIG
ZJHK,2020-11-22 05:00,ZJHK 220500Z 08007MPS 9999 BKN020 SCT046 29/23 Q1015 NOSIG
ZJHK,2020-11-22 06:00,ZJHK 220600Z 08008MPS 9999 BKN020 29/23 Q1015 NOSIG
ZJHK,2020-11-22 07:00,ZJHK 220700Z 08008MPS 9999 SCT020 SCT033 29/23 Q1014 NOSIG
ZJHK,2020-11-22 08:00,ZJHK 220800Z 09007MPS 9999 SCT020 27/23 Q1014 NOSIG
ZJHK,2020-11-22 09:00,ZJHK 220900Z 08007MPS 9999 SCT016 26/23 Q1015 NOSIG
ZJHK,2020-11-22 10:00,ZJHK 221000Z 08006MPS 9999 SCT015 25/23 Q1015 NOSIG
ZJHK,2020-11-22 11:00,ZJHK 221100Z 10003MPS 9999 SCT013 SCT020 24/23 Q1016 NOSIG
ZJHK,2020-11-22 12:00,ZJHK 221200Z 10003MPS 9999 FEW013 SCT023 24/24 Q1017 NOSIG
ZJHK,2020-11-22 13:00,ZJHK 221300Z 11003MPS 9999 FEW006 24/24 Q1017 NOSIG
ZJHK,2020-11-22 14:00,ZJHK 221400Z 11003MPS 9000 FEW008 24/24 Q1017 NOSIG
ZJHK,2020-11-22 15:00,ZJHK 221500Z 10002MPS 060V120 7000 FEW008 BKN023 23/23 Q1017 NOSIG
ZJHK,2020-11-22 16:00,ZJHK 221600Z 10003MPS 9000 SCT009 24/24 Q1017 NOSIG
ZJHK,2020-11-22 17:00,ZJHK 221700Z 02002MPS 350V070 9000 SCT008 SCT020 24/24 Q1017 NOSIG
ZJHK,2020-11-22 18:00,ZJHK 221800Z 02002MPS 9000 SCT008 SCT020 24/24 Q1016 NOSIG
ZJHK,2020-11-22 19:00,ZJHK 221900Z 03002MPS 9000 SCT007 SCT015 24/24 Q1016 NOSIG
ZJHK,2020-11-22 20:00,ZJHK 222000Z 05003MPS 9000 SCT007 SCT015 24/24 Q1016 NOSIG
ZJHK,2020-11-22 21:00,ZJHK 222100Z 05003MPS 9000 BKN007 24/24 Q1016 NOSIG
ZJHK,2020-11-22 22:00,ZJHK 222200Z 04004MPS 9000 BKN007 24/24 Q1016 NOSIG
ZJHK,2020-11-22 23:00,ZJHK 222300Z 06006MPS 9999 BKN009 BKN020 25/25 Q1017 NOSIG
ZJHK,2020-11-23 00:00,ZJHK 230000Z 06006MPS 9999 SCT007 SCT046 25/24 Q1018 NOSIG
ZJHK,2020-11-23 01:00,ZJHK 230100Z 07006MPS 9999 SCT010 FEW023TCU BKN023 26/24 Q1018 NOSIG
ZJHK,2020-11-23 02:00,ZJHK 230200Z 07008MPS 9999 SCT010 FEW023TCU BKN023 27/24 Q1019 NOSIG
ZJHK,2020-11-23 03:00,ZJHK 230300Z 06008MPS 9999 BKN020 28/23 Q1018 NOSIG
ZJHK,2020-11-23 04:00,ZJHK 230400Z 07008MPS 9999 BKN020 27/23 Q1018 NOSIG
ZJHK,2020-11-23 05:00,ZJHK 230500Z 06007MPS 9999 BKN020 FEW023TCU 26/23 Q1017 NOSIG
ZJHK,2020-11-23 06:00,ZJHK 230600Z 06007MPS 9999 SCT013 BKN020 FEW023TCU 26/24 Q1017 NOSIG
ZJHK,2020-11-23 07:00,ZJHK 230700Z 07008MPS 9999 -SHRA SCT020 FEW023TCU BKN033 25/24 Q1016 NOSIG
ZJHK,2020-11-23 08:00,ZJHK 230800Z 07008MPS 9999 -SHRA SCT020 FEW023TCU BKN033 25/24 Q1016 NOSIG
ZJHK,2020-11-23 09:00,ZJHK 230900Z 07007MPS 9999 -SHRA SCT020 FEW023TCU BKN033 25/24 Q1016 NOSIG
ZJHK,2020-11-23 10:00,ZJHK 231000Z 07006MPS 9999 SCT010 BKN020 24/24 Q1017 NOSIG
ZJHK,2020-11-23 11:00,ZJHK 231100Z 07007MPS 9999 BKN010 BKN020 24/24 Q1017 NOSIG
ZJHK,2020-11-23 12:00,ZJHK 231200Z 07007MPS 9999 BKN010 BKN020 24/23 Q1018 NOSIG
ZJHK,2020-11-23 13:00,ZJHK 231300Z 07007MPS 9999 -SHRA BKN010 FEW020TCU BKN020 24/24 Q1018 NOSIG
ZJHK,2020-11-23 14:00,ZJHK 231400Z 08007MPS 9999 -SHRA BKN010 FEW020TCU BKN020 24/24 Q1018 NOSIG
ZJHK,2020-11-23 15:00,ZJHK 231500Z 08006MPS 9999 BKN010 BKN020 24/23 Q1018 NOSIG
ZJHK,2020-11-23 16:00,ZJHK 231600Z 09005MPS 9999 BKN010 BKN020 24/23 Q1018 NOSIG
ZJHK,2020-11-23 17:00,ZJHK 231700Z 09004MPS 9999 BKN010 BKN020 23/23 Q1018 NOSIG
ZJHK,2020-11-23 18:00,ZJHK 231800Z 10004MPS 9999 SCT013 BKN040 24/23 Q1017 NOSIG
ZJHK,2020-11-23 19:00,ZJHK 231900Z 09006MPS 9999 SCT013 BKN040 24/23 Q1017 NOSIG
ZJHK,2020-11-23 20:00,ZJHK 232000Z 10005MPS CAVOK 23/23 Q1017 NOSIG
ZJHK,2020-11-23 21:00,ZJHK 232100Z 10004MPS 9999 SCT013 23/23 Q1017 NOSIG
ZJHK,2020-11-23 22:00,ZJHK 232200Z 09005MPS 9999 SCT013 23/23 Q1017 NOSIG
ZJHK,2020-11-23 23:00,ZJHK 232300Z 08006MPS 9999 SCT013 BKN040 24/23 Q1017 NOSIG
ZJHK,2020-11-24 00:00,ZJHK 240000Z 08006MPS 9999 SCT013 24/23 Q1018 NOSIG
ZJHK,2020-11-24 01:00,ZJHK 240100Z 08008MPS 9999 BKN016 26/23 Q1019 NOSIG
ZJHK,2020-11-24 02:00,ZJHK 240200Z 07007MPS 9999 SCT014 26/22 Q1019 NOSIG
ZJHK,2020-11-24 03:00,ZJHK 240300Z 06007MPS 9999 BKN016 25/22 Q1019 NOSIG
ZJHK,2020-11-24 04:00,ZJHK 240400Z 06008MPS 9999 BKN016 26/22 Q1019 NOSIG
ZJHK,2020-11-24 05:00,ZJHK 240500Z 08009MPS 9999 FEW016 SCT020 27/22 Q1017 NOSIG
ZJHK,2020-11-24 06:00,ZJHK 240600Z 08008MPS 9999 SCT020 27/21 Q1016 NOSIG
ZJHK,2020-11-24 07:00,ZJHK 240700Z 09008MPS 9999 SCT020 26/21 Q1016 NOSIG
ZJHK,2020-11-24 08:00,ZJHK 240800Z 07007MPS 9999 BKN020 25/21 Q1016 NOSIG
ZJHK,2020-11-24 09:00,ZJHK 240900Z 07007MPS 9999 BKN020 25/21 Q1016 NOSIG
ZJHK,2020-11-24 10:00,ZJHK 241000Z 07006MPS 9999 BKN020 24/21 Q1016 NOSIG
ZJHK,2020-11-24 11:00,ZJHK 241100Z 07005MPS 9999 BKN016 24/21 Q1017 NOSIG
ZJHK,2020-11-24 12:00,ZJHK 241200Z 08005MPS 9999 SCT016 23/21 Q1017 NOSIG
ZJHK,2020-11-24 13:00,ZJHK 241300Z 07003MPS 040V100 CAVOK 23/22 Q1018 NOSIG
ZJHK,2020-11-24 14:00,ZJHK 241400Z 10002MPS 050V120 9999 SCT015 23/22 Q1018 NOSIG
ZJHK,2020-11-24 15:00,ZJHK 241500Z 09003MPS 9999 FEW015 23/23 Q1018 NOSIG
ZJHK,2020-11-24 16:00,ZJHK 241600Z 08004MPS CAVOK 23/22 Q1018 NOSIG
ZJHK,2020-11-24 17:00,ZJHK 241700Z 10002MPS 060V120 CAVOK 23/23 Q1017 NOSIG
ZJHK,2020-11-24 18:00,ZJHK 241800Z 05002MPS 9999 FEW013 23/23 Q1017 NOSIG
ZJHK,2020-11-24 19:00,ZJHK 241900Z 07004MPS 9999 FEW013 23/23 Q1017 NOSIG
ZJHK,2020-11-24 20:00,ZJHK 242000Z 07004MPS 9999 FEW013 23/22 Q1017 NOSIG
ZJHK,2020-11-24 21:00,ZJHK 242100Z 06003MPS 9999 SCT015 BKN023 23/22 Q1017 NOSIG
ZJHK,2020-11-24 22:00,ZJHK 242200Z 04005MPS 9999 SCT013 BKN023 23/22 Q1017 NOSIG
ZJHK,2020-11-24 23:00,ZJHK 242300Z 04004MPS 9999 SCT014 SCT023 23/22 Q1018 NOSIG
ZJHK,2020-11-25 00:00,ZJHK 250000Z 05005MPS 9999 FEW014 SCT020 24/22 Q1018 NOSIG
ZJHK,2020-11-25 01:00,ZJHK 250100Z 05005MPS 9999 BKN020 BKN033 24/21 Q1019 NOSIG
ZJHK,2020-11-25 02:00,ZJHK 250200Z 06006MPS 9999 BKN020 BKN033 25/22 Q1019 NOSIG
ZJHK,2020-11-25 03:00,ZJHK 250300Z 07007MPS 9999 BKN023 27/21 Q1018 NOSIG
ZJHK,2020-11-25 04:00,ZJHK 250400Z 07007MPS 9999 SCT015 BKN023 26/21 Q1018 NOSIG
ZJHK,2020-11-25 05:00,ZJHK 250500Z 08007MPS 6000 -RA SCT013 BKN023 24/23 Q1017 NOSIG
ZJHK,2020-11-25 06:00,ZJHK 250600Z 07007MPS 9999 SCT015 BKN023 26/22 Q1016 NOSIG
ZJHK,2020-11-25 07:00,ZJHK 250700Z 06007MPS 9999 SCT016 BKN026 25/21 Q1015 NOSIG
ZJHK,2020-11-25 08:00,ZJHK 250800Z 07007MPS 9999 SCT016 BKN026 25/21 Q1015 NOSIG
ZJHK,2020-11-25 09:00,ZJHK 250900Z 06005MPS 9999 SCT016 BKN033 24/22 Q1015 NOSIG
ZJHK,2020-11-25 10:00,ZJHK 251000Z 07006MPS 9999 -RA SCT013 BKN033 24/22 Q1016 NOSIG
ZJHK,2020-11-25 11:00,ZJHK 251100Z 07005MPS 9999 SCT013 BKN033 24/22 Q1016 NOSIG
ZJHK,2020-11-25 12:00,ZJHK 251200Z 06004MPS 9999 BKN013 BKN033 24/22 Q1017 NOSIG
ZJHK,2020-11-25 13:00,ZJHK 251300Z 07005MPS 9999 SCT013 BKN040 24/22 Q1017 NOSIG
ZJHK,2020-11-25 14:00,ZJHK 251400Z 06004MPS 9999 SCT013 BKN033 23/22 Q1017 NOSIG
ZJHK,2020-11-25 15:00,ZJHK 251500Z 07004MPS 9999 SCT013 BKN033 23/23 Q1017 NOSIG
ZJHK,2020-11-25 16:00,ZJHK 251600Z 06004MPS 9999 SCT013 BKN033 23/23 Q1017 NOSIG
ZJHK,2020-11-25 17:00,ZJHK 251700Z 05003MPS 9999 SCT013 BKN033 24/23 Q1017 NOSIG
ZJHK,2020-11-25 18:00,ZJHK 251800Z 04003MPS 9999 SCT013 BKN026 24/23 Q1017 NOSIG
ZJHK,2020-11-25 19:00,ZJHK 251900Z 04003MPS 9999 SCT013 BKN026 24/23 Q1017 NOSIG
ZJHK,2020-11-25 20:00,ZJHK 252000Z 04003MPS 9999 BKN013 BKN023 24/23 Q1017 NOSIG
ZJHK,2020-11-25 21:00,ZJHK 252100Z 04004MPS 9999 BKN013 BKN023 24/23 Q1017 NOSIG
ZJHK,2020-11-25 22:00,ZJHK 252200Z 06005MPS 9999 -RA SCT010 BKN026 23/23 Q1017 NOSIG
ZJHK,2020-11-25 23:00,ZJHK 252300Z 06005MPS 9999 FEW013 SCT026 BKN033 24/24 Q1018 NOSIG
ZJHK,2020-11-26 00:00,ZJHK 260000Z 06005MPS 9999 SCT013 BKN020 24/23 Q1018 NOSIG
ZJHK,2020-11-26 01:00,ZJHK 260100Z 06006MPS 9999 -RA SCT013 BKN033 25/23 Q1019 NOSIG
ZJHK,2020-11-26 02:00,ZJHK 260200Z 06006MPS 9999 SCT013 BKN033 25/23 Q1020 NOSIG
ZJHK,2020-11-26 03:00,ZJHK 260300Z 06008MPS 9999 SCT015 BKN020 BKN046 26/22 Q1020 NOSIG
ZJHK,2020-11-26 04:00,ZJHK 260400Z 07008MPS 9999 BKN020 27/22 Q1019 NOSIG
ZJHK,2020-11-26 05:00,ZJHK 260500Z 07007MPS 9999 BKN020 27/21 Q1018 NOSIG
ZJHK,2020-11-26 06:00,ZJHK 260600Z 06008MPS 9999 SCT020 27/22 Q1017 NOSIG
ZJHK,2020-11-26 07:00,ZJHK 260700Z 08008MPS 9999 SCT020 27/21 Q1016 NOSIG
ZJHK,2020-11-26 08:00,ZJHK 260800Z 07008MPS 9999 SCT020 26/21 Q1016 NOSIG
ZJHK,2020-11-26 09:00,ZJHK 260900Z 08007MPS 9999 FEW020 25/21 Q1016 NOSIG
ZJHK,2020-11-26 10:00,ZJHK 261000Z 08006MPS 9999 FEW020 24/21 Q1017 NOSIG
ZJHK,2020-11-26 11:00,ZJHK 261100Z 06005MPS 9999 FEW015 24/21 Q1018 NOSIG
ZJHK,2020-11-26 12:00,ZJHK 261200Z 08004MPS CAVOK 23/22 Q1018 NOSIG
ZJHK,2020-11-26 13:00,ZJHK 261300Z 07003MPS 030V090 CAVOK 23/21 Q1019 NOSIG
ZJHK,2020-11-26 14:00,ZJHK 261400Z 14001MPS 8000 NSC 21/21 Q1019 NOSIG
ZJHK,2020-11-26 15:00,ZJHK 261500Z 18001MPS 5000 BR MIFG NSC 20/20 Q1019 NOSIG
ZJHK,2020-11-26 16:00,ZJHK 261600Z 00000MPS 5000 BR NSC 20/20 Q1019 NOSIG
ZJHK,2020-11-26 17:00,ZJHK 261700Z 00000MPS 5000 BR SCT030 20/20 Q1019 NOSIG
ZJHK,2020-11-26 18:00,ZJHK 261800Z 00000MPS 5000 BR BCFG NSC 20/20 Q1019 NOSIG
ZJHK,2020-11-26 19:00,ZJHK 261900Z 29001MPS 4000 BR BCFG NSC 19/19 Q1018 NOSIG
ZJHK,2020-11-26 20:00,ZJHK 262000Z 01002MPS 340V050 6000 NSC 20/20 Q1018 NOSIG
ZJHK,2020-11-26 21:00,ZJHK 262100Z 04003MPS 7000 FEW030 22/22 Q1018 NOSIG
ZJHK,2020-11-26 22:00,ZJHK 262200Z 05004MPS 8000 FEW030 22/22 Q1019 NOSIG
ZJHK,2020-11-26 23:00,ZJHK 262300Z 05004MPS 5000 BR BKN033 23/22 Q1019 NOSIG
ZJHK,2020-11-27 00:00,ZJHK 270000Z 05005MPS 6000 FEW020 23/22 Q1020 NOSIG
ZJHK,2020-11-27 01:00,ZJHK 270100Z 05006MPS 6000 SCT020 24/22 Q1021 NOSIG
ZJHK,2020-11-27 02:00,ZJHK 270200Z 04008MPS 9999 BKN016 24/20 Q1022 NOSIG
ZJHK,2020-11-27 03:00,ZJHK 270300Z 04008MPS 9999 BKN020 24/19 Q1022 NOSIG
ZJHK,2020-11-27 04:00,ZJHK 270400Z 03007MPS 360V060 9999 SCT020 24/20 Q1021 NOSIG
ZJHK,2020-11-27 05:00,ZJHK 270500Z 03007MPS 9999 SCT020 25/20 Q1020 NOSIG
ZJHK,2020-11-27 06:00,ZJHK 270600Z 04007MPS 9999 SCT020 25/20 Q1019 NOSIG
ZJHK,2020-11-27 07:00,ZJHK 270700Z 06007MPS 9999 SCT020 26/19 Q1018 NOSIG
ZJHK,2020-11-27 08:00,ZJHK 270800Z 07008MPS 9999 SCT020 25/18 Q1018 NOSIG
ZJHK,2020-11-27 09:00,ZJHK 270900Z 07006MPS 9999 SCT023 25/19 Q1018 NOSIG
ZJHK,2020-11-27 10:00,ZJHK 271000Z 06005MPS 9999 SCT023 23/19 Q1018 NOSIG
ZJHK,2020-11-27 11:00,ZJHK 271100Z 07004MPS CAVOK 23/19 Q1019 NOSIG
ZJHK,2020-11-27 12:00,ZJHK 271200Z 04003MPS 010V070 CAVOK 22/19 Q1020 NOSIG
ZJHK,2020-11-27 13:00,ZJHK 271300Z VRB01MPS 9999 SCT023 21/20 Q1020 NOSIG
ZJHK,2020-11-27 14:00,ZJHK 271400Z 08003MPS 050V130 CAVOK 22/20 Q1021 NOSIG
ZJHK,2020-11-27 15:00,ZJHK 271500Z 10003MPS CAVOK 21/20 Q1021 NOSIG
ZJHK,2020-11-27 16:00,ZJHK 271600Z 10002MPS CAVOK 21/20 Q1021 NOSIG
ZJHK,2020-11-27 17:00,ZJHK 271700Z 05003MPS 9999 FEW013 22/20 Q1020 NOSIG
ZJHK,2020-11-27 18:00,ZJHK 271800Z 05003MPS 9999 FEW013 22/19 Q1019 NOSIG
ZJHK,2020-11-27 19:00,ZJHK 271900Z 06005MPS 9999 FEW020 22/19 Q1019 NOSIG
ZJHK,2020-11-27 20:00,ZJHK 272000Z 05006MPS 9999 SCT040 22/18 Q1020 NOSIG
ZJHK,2020-11-27 21:00,ZJHK 272100Z 05006MPS 9999 SCT040 21/18 Q1019 NOSIG
ZJHK,2020-11-27 22:00,ZJHK 272200Z 04007MPS 9999 SCT040 22/18 Q1020 NOSIG
ZJHK,2020-11-27 23:00,ZJHK 272300Z 05008MPS 9999 SCT020 BKN030 21/17 Q1020 NOSIG
ZJHK,2020-11-28 00:00,ZJHK 280000Z 04007MPS 9999 SCT020 BKN030 21/17 Q1021 NOSIG
ZJHK,2020-11-28 01:00,ZJHK 280100Z 05007MPS 9999 SCT020 OVC030 21/17 Q1022 NOSIG
ZJHK,2020-11-28 02:00,ZJHK 280200Z 05006MPS 9999 SCT020 OVC033 21/18 Q1023 NOSIG
ZJHK,2020-11-28 03:00,ZJHK 280300Z 05007MPS 9999 SCT020 BKN033 22/17 Q1023 NOSIG
ZJHK,2020-11-28 04:00,ZJHK 280400Z 04008MPS 9999 SCT020 BKN040 22/17 Q1022 NOSIG
ZJHK,2020-11-28 05:00,ZJHK 280500Z 05007MPS 9999 SCT020 OVC040 22/17 Q1021 NOSIG
ZJHK,2020-11-28 06:00,ZJHK 280600Z 04007MPS 9999 BKN020 OVC040 21/17 Q1020 NOSIG
ZJHK,2020-11-28 07:00,ZJHK 280700Z 04007MPS 9999 BKN020 OVC040 21/17 Q1019 NOSIG
ZJHK,2020-11-28 08:00,ZJHK 280800Z 05007MPS 010V070 9999 BKN023 OVC040 21/17 Q1019 NOSIG
ZJHK,2020-11-28 09:00,ZJHK 280900Z 05007MPS 9999 SCT016 OVC026 21/17 Q1019 NOSIG
ZJHK,2020-11-28 10:00,ZJHK 281000Z 04005MPS 010V070 9999 SCT016 OVC026 21/17 Q1019 NOSIG
ZJHK,2020-11-28 11:00,ZJHK 281100Z 05006MPS 9999 OVC026 22/17 Q1020 NOSIG
ZJHK,2020-11-28 12:00,ZJHK 281200Z 05006MPS 9999 -RA SCT020 OVC026 22/18 Q1021 NOSIG
ZJHK,2020-11-28 13:00,ZJHK 281300Z 05006MPS 9999 OVC030 22/17 Q1021 NOSIG
ZJHK,2020-11-28 14:00,ZJHK 281400Z 06005MPS 9999 SCT026 OVC040 22/17 Q1021 NOSIG
ZJHK,2020-11-28 15:00,ZJHK 281500Z 05005MPS 9999 BKN040 22/17 Q1022 NOSIG
ZJHK,2020-11-28 16:00,ZJHK 281600Z 05005MPS 9999 FEW040 22/16 Q1021 NOSIG
ZJHK,2020-11-28 17:00,ZJHK 281700Z 04006MPS 9999 FEW030 SCT043 22/17 Q1021 NOSIG
ZJHK,2020-11-28 18:00,ZJHK 281800Z 05006MPS 020V080 9999 FEW023 BKN033 21/16 Q1021 NOSIG
ZJHK,2020-11-28 19:00,ZJHK 281900Z 04007MPS 9999 FEW023 SCT046 21/16 Q1020 NOSIG
ZJHK,2020-11-28 20:00,ZJHK 282000Z 04007MPS 9999 FEW023 SCT046 21/16 Q1020 NOSIG
ZJHK,2020-11-28 21:00,ZJHK 282100Z 04007MPS 9999 FEW026 SCT046 21/15 Q1020 NOSIG
ZJHK,2020-11-28 22:00,ZJHK 282200Z 03006MPS 9999 FEW026 SCT046 21/16 Q1020 NOSIG
ZJHK,2020-11-28 23:00,ZJHK 282300Z 03007MPS 9999 BKN023 OVC046 21/15 Q1020 NOSIG
ZJHK,2020-11-29 00:00,ZJHK 290000Z 04006MPS 9999 BKN023 OVC046 20/15 Q1021 NOSIG
ZJHK,2020-11-29 01:00,ZJHK 290100Z 04007MPS 9999 BKN023 BKN033 21/15 Q1022 NOSIG
ZJHK,2020-11-29 02:00,ZJHK 290200Z 04008MPS 9999 BKN023 BKN033 21/15 Q1022 NOSIG
ZJHK,2020-11-29 03:00,ZJHK 290300Z 05006MPS 020V080 9999 BKN023 BKN033 21/15 Q1022 NOSIG
ZJHK,2020-11-29 04:00,ZJHK 290400Z 04008MPS 9999 BKN023 BKN033 21/16 Q1022 NOSIG
ZJHK,2020-11-29 05:00,ZJHK 290500Z 04007MPS 9999 BKN023 BKN033 21/16 Q1021 NOSIG
ZJHK,2020-11-29 06:00,ZJHK 290600Z 04007MPS 9999 BKN023 BKN033 21/16 Q1020 NOSIG
ZJHK,2020-11-29 07:00,ZJHK 290700Z 04007MPS 9999 BKN023 BKN033 21/16 Q1019 NOSIG
ZJHK,2020-11-29 08:00,ZJHK 290800Z 05006MPS 9999 BKN023 BKN033 21/16 Q1019 NOSIG
ZJHK,2020-11-29 09:00,ZJHK 290900Z 05006MPS 9999 BKN023 BKN033 21/16 Q1019 NOSIG
ZJHK,2020-11-29 10:00,ZJHK 291000Z 05005MPS 020V080 9999 BKN023 21/16 Q1019 NOSIG
ZJHK,2020-11-29 11:00,ZJHK 291100Z 05005MPS 9999 BKN023 BKN033 21/16 Q1020 NOSIG
ZJHK,2020-11-29 12:00,ZJHK 291200Z 05005MPS 9999 BKN026 BKN033 21/16 Q1020 NOSIG
ZJHK,2020-11-29 13:00,ZJHK 291300Z 05004MPS 020V080 9999 BKN030 21/16 Q1021 NOSIG
ZJHK,2020-11-29 14:00,ZJHK 291400Z 05006MPS 9999 SCT030 21/15 Q1021 NOSIG
ZJHK,2020-11-29 15:00,ZJHK 291500Z 05005MPS 9999 SCT030 21/16 Q1021 NOSIG
ZJHK,2020-11-29 16:00,ZJHK 291600Z 05005MPS 9999 FEW030 BKN040 21/16 Q1021 NOSIG
ZJHK,2020-11-29 17:00,ZJHK 291700Z 04006MPS 9999 SCT026 BKN033 21/15 Q1021 NOSIG
ZJHK,2020-11-29 18:00,ZJHK 291800Z 04005MPS 9999 FEW026 21/15 Q1021 NOSIG
ZJHK,2020-11-29 19:00,ZJHK 291900Z 05006MPS 9999 SCT026 20/15 Q1020 NOSIG
ZJHK,2020-11-29 20:00,ZJHK 292000Z 04007MPS 9999 SCT026 20/15 Q1020 NOSIG
ZJHK,2020-11-29 21:00,ZJHK 292100Z 04006MPS 9999 SCT026 20/15 Q1020 NOSIG
ZJHK,2020-11-29 22:00,ZJHK 292200Z 04006MPS 9999 SCT023 BKN046 20/15 Q1021 NOSIG
ZJHK,2020-11-29 23:00,ZJHK 292300Z 04007MPS 9999 BKN023 OVC046 20/15 Q1021 NOSIG
ZJHK,2020-11-30 00:00,ZJHK 300000Z 04007MPS 9999 BKN023 OVC046 20/15 Q1022 NOSIG
ZJHK,2020-11-30 01:00,ZJHK 300100Z 04007MPS 9999 BKN023 BKN040 20/15 Q1022 NOSIG
ZJHK,2020-11-30 02:00,ZJHK 300200Z 04007MPS 010V070 9999 BKN023 BKN040 20/15 Q1023 NOSIG
ZJHK,2020-11-30 03:00,ZJHK 300300Z 04007MPS 9999 BKN023 BKN046 20/15 Q1023 NOSIG
ZJHK,2020-11-30 04:00,ZJHK 300400Z 04007MPS 010V070 9999 BKN023 BKN046 20/15 Q1022 NOSIG
ZJHK,2020-11-30 05:00,ZJHK 300500Z 04007MPS 9999 BKN023 BKN046 20/15 Q1021 NOSIG
ZJHK,2020-11-30 06:00,ZJHK 300600Z 04008MPS 9999 BKN023 BKN046 20/15 Q1020 NOSIG
ZJHK,2020-11-30 07:00,ZJHK 300700Z 04007MPS 9999 BKN023 BKN046 20/15 Q1019 NOSIG
ZJHK,2020-11-30 08:00,ZJHK 300800Z 06007MPS 9999 SCT023 BKN046 20/15 Q1019 NOSIG
ZJHK,2020-11-30 09:00,ZJHK 300900Z 06006MPS 9999 SCT023 BKN046 20/15 Q1019 NOSIG
ZJHK,2020-11-30 10:00,ZJHK 301000Z 06006MPS 9999 BKN040 20/16 Q1020 NOSIG
ZJHK,2020-11-30 11:00,ZJHK 301100Z 05005MPS 9999 BKN040 20/16 Q1020 NOSIG
ZJHK,2020-11-30 12:00,ZJHK 301200Z 06005MPS 9999 BKN040 21/16 Q1021 NOSIG
ZJHK,2020-11-30 13:00,ZJHK 301300Z 06004MPS 9999 SCT023 BKN040 21/16 Q1021 NOSIG
ZJHK,2020-11-30 14:00,ZJHK 301400Z 06005MPS 9999 SCT023 BKN040 21/16 Q1022 NOSIG
ZJHK,2020-11-30 15:00,ZJHK 301500Z 04005MPS 9999 SCT023 BKN040 21/16 Q1022 NOSIG
ZJHK,2020-11-30 16:00,ZJHK 301600Z 06005MPS 9999 SCT023 BKN040 21/16 Q1022 NOSIG
ZJHK,2020-11-30 17:00,ZJHK 301700Z 05006MPS 9999 SCT030 BKN046 21/16 Q1022 NOSIG
ZJHK,2020-11-30 18:00,ZJHK 301800Z 06005MPS 9999 SCT030 BKN046 21/16 Q1021 NOSIG
ZJHK,2020-11-30 19:00,ZJHK 301900Z 04006MPS 9999 SCT030 BKN046 21/15 Q1021 NOSIG
ZJHK,2020-11-30 20:00,ZJHK 302000Z 04007MPS 9999 SCT030 BKN046 21/16 Q1020 NOSIG
ZJHK,2020-11-30 21:00,ZJHK 302100Z 05006MPS 9999 SCT030 BKN046 20/15 Q1021 NOSIG
ZJHK,2020-11-30 22:00,ZJHK 302200Z 04007MPS 9999 SCT026 BKN046 20/15 Q1021 NOSIG
ZJHK,2020-11-30 23:00,ZJHK 302300Z 04008MPS 9999 SCT020 BKN046 20/16 Q1021 NOSIG
ZJHK,2020-12-01 00:00,ZJHK 010000Z 05006MPS 020V080 9999 BKN020 BKN046 20/16 Q1022 NOSIG
ZJHK,2020-12-01 01:00,ZJHK 010100Z 04007MPS 010V070 9999 BKN020 OVC046 20/16 Q1023 NOSIG
ZJHK,2020-12-01 02:00,ZJHK 010200Z 05007MPS 9999 BKN020 OVC046 20/17 Q1023 NOSIG
ZJHK,2020-12-01 03:00,ZJHK 010300Z 05006MPS 010V070 9999 BKN020 OVC040 21/17 Q1023 NOSIG
ZJHK,2020-12-01 04:00,ZJHK 010400Z 04006MPS 020V080 9999 BKN020 OVC040 21/17 Q1022 NOSIG
ZJHK,2020-12-01 05:00,ZJHK 010500Z 04007MPS 9999 BKN020 OVC040 21/17 Q1021 NOSIG
ZJHK,2020-12-01 06:00,ZJHK 010600Z 06005MPS 9999 BKN020 OVC040 21/17 Q1020 NOSIG
ZJHK,2020-12-01 07:00,ZJHK 010700Z 06005MPS 9999 BKN020 OVC040 21/17 Q1019 NOSIG
ZJHK,2020-12-01 08:00,ZJHK 010800Z 05006MPS 9999 BKN020 OVC033 21/17 Q1019 NOSIG
ZJHK,2020-12-01 09:00,ZJHK 010900Z 05005MPS 9999 BKN020 OVC033 21/17 Q1019 NOSIG
ZJHK,2020-12-01 10:00,ZJHK 011000Z 06006MPS 9999 BKN023 BKN030 21/16 Q1019 NOSIG
ZJHK,2020-12-01 11:00,ZJHK 011100Z 05004MPS 020V080 9999 BKN023 BKN030 20/16 Q1019 NOSIG
ZJHK,2020-12-01 12:00,ZJHK 011200Z 06004MPS 9999 SCT020 20/16 Q1020 NOSIG
ZJHK,2020-12-01 13:00,ZJHK 011300Z 09003MPS 9999 FEW020 18/16 Q1020 NOSIG
ZJHK,2020-12-01 14:00,ZJHK 011400Z 06003MPS 9999 FEW020 19/16 Q1020 NOSIG
ZJHK,2020-12-01 15:00,ZJHK 011500Z VRB01MPS CAVOK 17/16 Q1020 NOSIG
ZJHK,2020-12-01 16:00,ZJHK 011600Z 00000MPS CAVOK 16/16 Q1020 NOSIG
ZJHK,2020-12-01 17:00,ZJHK 011700Z VRB01MPS 8000 SCT033 16/16 Q1020 NOSIG
ZJHK,2020-12-01 18:00,ZJHK 011800Z VRB01MPS 9000 SCT033 17/17 Q1020 NOSIG
ZJHK,2020-12-01 19:00,ZJHK 011900Z 00000MPS 8000 BKN033 17/17 Q1020 NOSIG
ZJHK,2020-12-01 20:00,ZJHK 012000Z 04003MPS CAVOK 18/16 Q1019 NOSIG
ZJHK,2020-12-01 21:00,ZJHK 012100Z 05004MPS CAVOK 19/15 Q1019 NOSIG
ZJHK,2020-12-01 22:00,ZJHK 012200Z 05004MPS CAVOK 19/15 Q1019 NOSIG
ZJHK,2020-12-01 23:00,ZJHK 012300Z 05004MPS CAVOK 19/15 Q1020 NOSIG
ZJHK,2020-12-02 00:00,ZJHK 020000Z 05005MPS CAVOK 20/15 Q1020 NOSIG
ZJHK,2020-12-02 01:00,ZJHK 020100Z 04006MPS 9999 FEW018 21/16 Q1021 NOSIG
ZJHK,2020-12-02 02:00,ZJHK 020200Z 03006MPS 9999 BKN024 22/16 Q1021 NOSIG
ZJHK,2020-12-02 03:00,ZJHK 020300Z 06006MPS 020V090 9999 BKN026 22/16 Q1021 NOSIG
ZJHK,2020-12-02 04:00,ZJHK 020400Z 05006MPS 9999 BKN026 22/16 Q1020 NOSIG
ZJHK,2020-12-02 05:00,ZJHK 020500Z 06006MPS 9999 SCT023 BKN040 22/16 Q1020 NOSIG
ZJHK,2020-12-02 06:00,ZJHK 020600Z 05006MPS 9999 SCT023 BKN040 23/17 Q1018 NOSIG
ZJHK,2020-12-02 07:00,ZJHK 020700Z 07006MPS 9999 FEW023 SCT033 23/16 Q1018 NOSIG
ZJHK,2020-12-02 08:00,ZJHK 020800Z 06006MPS 9999 FEW020 BKN033 22/17 Q1017 NOSIG
ZJHK,2020-12-02 09:00,ZJHK 020900Z 06006MPS 9999 SCT020 21/16 Q1018 NOSIG
ZJHK,2020-12-02 10:00,ZJHK 021000Z 06005MPS 9999 FEW015 SCT026 21/16 Q1018 NOSIG
ZJHK,2020-12-02 11:00,ZJHK 021100Z 06003MPS 020V090 CAVOK 20/16 Q1019 NOSIG
ZJHK,2020-12-02 12:00,ZJHK 021200Z 06004MPS CAVOK 20/16 Q1019 NOSIG
ZJHK,2020-12-02 13:00,ZJHK 021300Z 08004MPS CAVOK 20/16 Q1020 NOSIG
ZJHK,2020-12-02 14:00,ZJHK 021400Z 06005MPS CAVOK 20/15 Q1020 NOSIG
ZJHK,2020-12-02 15:00,ZJHK 021500Z 06004MPS 9999 FEW016 20/15 Q1020 NOSIG
ZJHK,2020-12-02 16:00,ZJHK 021600Z 05003MPS 9999 FEW016 SCT040 20/15 Q1021 NOSIG
ZJHK,2020-12-02 17:00,ZJHK 021700Z 07005MPS 9999 FEW040 20/14 Q1020 NOSIG
ZJHK,2020-12-02 18:00,ZJHK 021800Z 04005MPS CAVOK 20/15 Q1020 NOSIG
ZJHK,2020-12-02 19:00,ZJHK 021900Z 05005MPS CAVOK 20/14 Q1019 NOSIG
ZJHK,2020-12-02 20:00,ZJHK 022000Z 05004MPS CAVOK 19/14 Q1019 NOSIG
ZJHK,2020-12-02 21:00,ZJHK 022100Z 06004MPS 9999 SCT030 19/14 Q1019 NOSIG
ZJHK,2020-12-02 22:00,ZJHK 022200Z 07004MPS 9999 FEW026 18/14 Q1020 NOSIG
ZJHK,2020-12-02 23:00,ZJHK 022300Z 06005MPS 9999 FEW026 19/14 Q1020 NOSIG
ZJHK,2020-12-03 00:00,ZJHK 030000Z 06005MPS 9999 FEW026 20/14 Q1021 NOSIG
ZJHK,2020-12-03 01:00,ZJHK 030100Z 05006MPS 9999 SCT023 21/15 Q1022 NOSIG
ZJHK,2020-12-03 02:00,ZJHK 030200Z 04007MPS 9999 SCT023 22/13 Q1022 NOSIG
ZJHK,2020-12-03 03:00,ZJHK 030300Z 04007G12MPS 9999 SCT026 21/14 Q1021 NOSIG
ZJHK,2020-12-03 04:00,ZJHK 030400Z 04006MPS 360V060 9999 BKN026 21/14 Q1021 NOSIG
ZJHK,2020-12-03 05:00,ZJHK 030500Z 03007MPS 9999 BKN026 21/15 Q1020 NOSIG
ZJHK,2020-12-03 06:00,ZJHK 030600Z 04007MPS 360V070 9999 BKN026 22/15 Q1019 NOSIG
ZJHK,2020-12-03 07:00,ZJHK 030700Z 03007MPS 9999 BKN026 21/15 Q1018 NOSIG
ZJHK,2020-12-03 08:00,ZJHK 030800Z 05007MPS 9999 BKN026 21/14 Q1018 NOSIG
ZJHK,2020-12-03 09:00,ZJHK 030900Z 04006MPS CAVOK 21/12 Q1018 NOSIG
ZJHK,2020-12-03 10:00,ZJHK 031000Z 06005MPS CAVOK 19/13 Q1019 NOSIG
ZJHK,2020-12-03 11:00,ZJHK 031100Z 06004MPS CAVOK 19/13 Q1019 NOSIG
ZJHK,2020-12-03 12:00,ZJHK 031200Z 05004MPS CAVOK 19/13 Q1020 NOSIG
ZJHK,2020-12-03 13:00,ZJHK 031300Z 06004MPS CAVOK 18/14 Q1020 NOSIG
ZJHK,2020-12-03 14:00,ZJHK 031400Z 06004MPS 9999 SCT030 18/14 Q1021 NOSIG
ZJHK,2020-12-03 15:00,ZJHK 031500Z 06005MPS 9999 BKN033 19/14 Q1021 NOSIG
ZJHK,2020-12-03 16:00,ZJHK 031600Z 06006MPS 9999 SCT033 19/13 Q1021 NOSIG
ZJHK,2020-12-03 17:00,ZJHK 031700Z 06006MPS 9999 SCT033 18/12 Q1021 NOSIG
ZJHK,2020-12-03 18:00,ZJHK 031800Z 05005MPS 9999 SCT033 18/12 Q1021 NOSIG
ZJHK,2020-12-03 19:00,ZJHK 031900Z 05006MPS 9999 SCT033 18/12 Q1020 NOSIG
ZJHK,2020-12-03 20:00,ZJHK 032000Z 05005MPS 9999 SCT033 18/12 Q1020 NOSIG
ZJHK,2020-12-03 21:00,ZJHK 032100Z 05005MPS 9999 BKN030 18/11 Q1020 NOSIG
ZJHK,2020-12-03 22:00,ZJHK 032200Z 04005MPS 9999 BKN030 18/11 Q1021 NOSIG
ZJHK,2020-12-03 23:00,ZJHK 032300Z 04006MPS 9999 BKN030 18/12 Q1021 NOSIG
ZJHK,2020-12-04 00:00,ZJHK 040000Z 03006MPS 9999 BKN030 18/11 Q1022 NOSIG
ZJHK,2020-12-04 01:00,ZJHK 040100Z 05006MPS 9999 BKN030 18/11 Q1023 NOSIG
ZJHK,2020-12-04 02:00,ZJHK 040200Z 03008MPS 9999 BKN030 18/11 Q1023 NOSIG
ZJHK,2020-12-04 03:00,ZJHK 040300Z 02005MPS 350V050 9999 FEW020 BKN030 17/13 Q1023 NOSIG
ZJHK,2020-12-04 04:00,ZJHK 040400Z 01005MPS 330V040 9999 FEW020 BKN030 17/13 Q1022 NOSIG
ZJHK,2020-12-04 05:00,ZJHK 040500Z 36004MPS 330V050 9999 SCT020 BKN030 17/13 Q1021 NOSIG
ZJHK,2020-12-04 06:00,ZJHK 040600Z 02005MPS 340V050 9999 SCT020 BKN030 18/12 Q1020 NOSIG
ZJHK,2020-12-04 07:00,ZJHK 040700Z 01005MPS 350V050 9999 SCT020 BKN030 18/12 Q1019 NOSIG
ZJHK,2020-12-04 08:00,ZJHK 040800Z 02004MPS 340V050 9999 SCT020 BKN030 18/12 Q1019 NOSIG
ZJHK,2020-12-04 09:00,ZJHK 040900Z 05004MPS 9999 BKN026 18/12 Q1019 NOSIG
ZJHK,2020-12-04 10:00,ZJHK 041000Z 06004MPS 020V080 9999 BKN026 17/12 Q1019 NOSIG
ZJHK,2020-12-04 11:00,ZJHK 041100Z 06004MPS 9999 BKN026 17/11 Q1020 NOSIG
ZJHK,2020-12-04 12:00,ZJHK 041200Z 06004MPS 030V090 9999 BKN026 18/12 Q1020 NOSIG
ZJHK,2020-12-04 13:00,ZJHK 041300Z 03003MPS 360V060 9999 BKN033 18/12 Q1021 NOSIG
ZJHK,2020-12-04 14:00,ZJHK 041400Z 36002MPS 320V030 9999 BKN040 18/12 Q1021 NOSIG
ZJHK,2020-12-04 15:00,ZJHK 041500Z 04002MPS 010V080 9999 BKN040 18/11 Q1021 NOSIG
ZJHK,2020-12-04 16:00,ZJHK 041600Z 05003MPS 9999 BKN040 19/11 Q1021 NOSIG
ZJHK,2020-12-04 17:00,ZJHK 041700Z 05004MPS 9999 BKN046 19/12 Q1021 NOSIG
ZJHK,2020-12-04 18:00,ZJHK 041800Z 06005MPS 9999 BKN046 19/12 Q1021 NOSIG
ZJHK,2020-12-04 19:00,ZJHK 041900Z 05004MPS 9999 BKN046 18/12 Q1020 NOSIG
ZJHK,2020-12-04 20:00,ZJHK 042000Z 06005MPS 9999 BKN046 17/11 Q1020 NOSIG
ZJHK,2020-12-04 21:00,ZJHK 042100Z 06005MPS CAVOK 17/11 Q1020 NOSIG
ZJHK,2020-12-04 22:00,ZJHK 042200Z 03006MPS 9999 FEW026 17/12 Q1021 NOSIG
ZJHK,2020-12-04 23:00,ZJHK 042300Z 03007MPS 9999 BKN023 17/11 Q1022 NOSIG
ZJHK,2020-12-05 00:00,ZJHK 050000Z 34006MPS 300V010 9999 BKN023 16/11 Q1022 NOSIG
ZJHK,2020-12-05 01:00,ZJHK 050100Z 01005G10MPS 340V050 9999 FEW023 SCT033 16/12 Q1023 NOSIG
ZJHK,2020-12-05 02:00,ZJHK 050200Z 02006MPS 350V050 9999 FEW026 17/12 Q1023 NOSIG
ZJHK,2020-12-05 03:00,ZJHK 050300Z 03006MPS 9999 FEW023 19/13 Q1023 NOSIG
ZJHK,2020-12-05 04:00,ZJHK 050400Z 02006MPS 350V050 9999 SCT023 19/13 Q1022 NOSIG
ZJHK,2020-12-05 05:00,ZJHK 050500Z 04006MPS 9999 BKN023 BKN030 19/13 Q1021 NOSIG
ZJHK,2020-12-05 06:00,ZJHK 050600Z 02005MPS 9999 BKN023 BKN030 19/13 Q1019 NOSIG
ZJHK,2020-12-05 07:00,ZJHK 050700Z 03005MPS 360V060 9999 BKN023 BKN030 18/13 Q1019 NOSIG
ZJHK,2020-12-05 08:00,ZJHK 050800Z 04005MPS 9999 BKN023 BKN030 18/13 Q1019 NOSIG
ZJHK,2020-12-05 09:00,ZJHK 050900Z 05005MPS 9999 SCT026 19/13 Q1019 NOSIG
ZJHK,2020-12-05 10:00,ZJHK 051000Z 03004MPS CAVOK 18/14 Q1019 NOSIG
ZJHK,2020-12-05 11:00,ZJHK 051100Z 04004MPS 010V070 9999 FEW026 18/14 Q1019 NOSIG
ZJHK,2020-12-05 12:00,ZJHK 051200Z 04003MPS 9999 BKN026 18/13 Q1020 NOSIG
ZJHK,2020-12-05 13:00,ZJHK 051300Z 04003MPS CAVOK 18/13 Q1020 NOSIG
ZJHK,2020-12-05 14:00,ZJHK 051400Z 04003MPS 020V080 9999 BKN046 18/13 Q1020 NOSIG
ZJHK,2020-12-05 15:00,ZJHK 051500Z 04003MPS 9999 BKN046 19/13 Q1020 NOSIG
ZJHK,2020-12-05 16:00,ZJHK 051600Z 04002MPS 010V070 9999 BKN046 19/14 Q1020 NOSIG
ZJHK,2020-12-05 17:00,ZJHK 051700Z 04003MPS 360V070 9999 BKN046 19/14 Q1020 NOSIG
ZJHK,2020-12-05 18:00,ZJHK 051800Z 02003MPS 9999 BKN046 19/14 Q1019 NOSIG
ZJHK,2020-12-05 19:00,ZJHK 051900Z 03004MPS 9999 BKN046 19/13 Q1019 NOSIG
ZJHK,2020-12-05 20:00,ZJHK 052000Z 36004MPS 9999 BKN046 18/13 Q1019 NOSIG
ZJHK,2020-12-05 21:00,ZJHK 052100Z 35003MPS 320V020 9999 BKN033 18/14 Q1019 NOSIG
ZJHK,2020-12-05 22:00,ZJHK 052200Z 02002MPS 340V070 9999 BKN030 18/14 Q1019 NOSIG
ZJHK,2020-12-05 23:00,ZJHK 052300Z 05004MPS 9999 SCT030 19/13 Q1020 NOSIG
ZJHK,2020-12-06 00:00,ZJHK 060000Z 05005MPS 9999 SCT030 19/13 Q1020 NOSIG
ZJHK,2020-12-06 01:00,ZJHK 060100Z 05005MPS 9999 BKN030 20/13 Q1021 NOSIG
ZJHK,2020-12-06 02:00,ZJHK 060200Z 04006MPS 9999 BKN030 20/14 Q1021 NOSIG
ZJHK,2020-12-06 03:00,ZJHK 060300Z 03005MPS 360V060 9999 BKN030 21/14 Q1021 NOSIG
ZJHK,2020-12-06 04:00,ZJHK 060400Z 05006MPS 9999 BKN026 20/15 Q1020 NOSIG
ZJHK,2020-12-06 05:00,ZJHK 060500Z 03005MPS 9999 BKN030 20/15 Q1019 NOSIG
ZJHK,2020-12-06 06:00,ZJHK 060600Z 03004MPS 350V050 9999 BKN030 20/15 Q1018 NOSIG
ZJHK,2020-12-06 07:00,ZJHK 060700Z 04004MPS 360V070 9999 BKN030 20/15 Q1018 NOSIG
ZJHK,2020-12-06 08:00,ZJHK 060800Z 02004MPS 350V060 9999 SCT030 20/16 Q1018 NOSIG
ZJHK,2020-12-06 09:00,ZJHK 060900Z 04005MPS 9999 SCT026 20/16 Q1018 NOSIG
ZJHK,2020-12-06 10:00,ZJHK 061000Z 05004MPS 020V080 9999 SCT026 20/16 Q1018 NOSIG
ZJHK,2020-12-06 11:00,ZJHK 061100Z 05003MPS 360V080 9999 SCT026 19/16 Q1019 NOSIG
ZJHK,2020-12-06 12:00,ZJHK 061200Z 05003MPS 010V080 9000 NSC 19/16 Q1019 NOSIG
ZJHK,2020-12-06 13:00,ZJHK 061300Z 04002MPS 340V080 9000 NSC 19/16 Q1019 NOSIG
ZJHK,2020-12-06 14:00,ZJHK 061400Z 02002MPS 350V070 9000 SCT020 19/17 Q1020 NOSIG
ZJHK,2020-12-06 15:00,ZJHK 061500Z VRB02MPS 9000 SCT020 20/17 Q1020 NOSIG
ZJHK,2020-12-06 16:00,ZJHK 061600Z 03002MPS 360V070 9999 FEW020 19/18 Q1020 NOSIG
ZJHK,2020-12-06 17:00,ZJHK 061700Z 04003MPS 9999 FEW023 19/17 Q1019 NOSIG
ZJHK,2020-12-06 18:00,ZJHK 061800Z 06003MPS 9999 SCT026 19/17 Q1019 NOSIG
ZJHK,2020-12-06 19:00,ZJHK 061900Z 05003MPS 9999 FEW026 20/17 Q1019 NOSIG
ZJHK,2020-12-06 20:00,ZJHK 062000Z 05003MPS 9999 SCT030 20/17 Q1019 NOSIG
ZJHK,2020-12-06 21:00,ZJHK 062100Z 04003MPS 9999 SCT030 20/16 Q1019 NOSIG
ZJHK,2020-12-06 22:00,ZJHK 062200Z 04004MPS 9999 SCT023 20/17 Q1019 NOSIG
ZJHK,2020-12-06 23:00,ZJHK 062300Z 05004MPS 9999 FEW016 BKN040 21/17 Q1020 NOSIG
ZJHK,2020-12-07 00:00,ZJHK 070000Z 04005MPS 9999 BKN046 21/16 Q1021 NOSIG
ZJHK,2020-12-07 01:00,ZJHK 070100Z 04007MPS 8000 NSC 21/16 Q1022 NOSIG
ZJHK,2020-12-07 02:00,ZJHK 070200Z 05007MPS CAVOK 22/15 Q1022 NOSIG
ZJHK,2020-12-07 03:00,ZJHK 070300Z 03006MPS 9999 BKN033 22/15 Q1022 NOSIG
ZJHK,2020-12-07 04:00,ZJHK 070400Z 03006MPS 360V060 9999 SCT033 23/15 Q1021 NOSIG
ZJHK,2020-12-07 05:00,ZJHK 070500Z 04006MPS CAVOK 24/15 Q1020 NOSIG
ZJHK,2020-12-07 06:00,ZJHK 070600Z 03006MPS CAVOK 23/15 Q1018 NOSIG
ZJHK,2020-12-07 07:00,ZJHK 070700Z 04006MPS 360V070 CAVOK 24/16 Q1018 NOSIG
ZJHK,2020-12-07 08:00,ZJHK 070800Z 04006MPS CAVOK 23/15 Q1018 NOSIG
ZJHK,2020-12-07 09:00,ZJHK 070900Z 03005MPS CAVOK 22/15 Q1018 NOSIG
ZJHK,2020-12-07 10:00,ZJHK 071000Z 04004MPS CAVOK 21/15 Q1019 NOSIG
ZJHK,2020-12-07 11:00,ZJHK 071100Z 05003MPS CAVOK 20/15 Q1019 NOSIG
ZJHK,2020-12-07 12:00,ZJHK 071200Z 04003MPS CAVOK 20/15 Q1020 NOSIG
ZJHK,2020-12-07 13:00,ZJHK 071300Z VRB01MPS CAVOK 18/16 Q1021 NOSIG
ZJHK,2020-12-07 14:00,ZJHK 071400Z 00000MPS 8000 NSC 16/16 Q1021 NOSIG
ZJHK,2020-12-07 15:00,ZJHK 071500Z 24001MPS 8000 NSC 16/16 Q1021 NOSIG
ZJHK,2020-12-07 16:00,ZJHK 071600Z 00000MPS 8000 NSC 16/16 Q1021 NOSIG
ZJHK,2020-12-07 17:00,ZJHK 071700Z 34002MPS 320V080 8000 NSC 19/16 Q1020 NOSIG
ZJHK,2020-12-07 18:00,ZJHK 071800Z 34003MPS 8000 NSC 19/17 Q1020 NOSIG
ZJHK,2020-12-07 19:00,ZJHK 071900Z 34002MPS 320V020 8000 NSC 19/16 Q1019 NOSIG
ZJHK,2020-12-07 20:00,ZJHK 072000Z 36002MPS 330V030 8000 NSC 19/16 Q1019 NOSIG
ZJHK,2020-12-07 21:00,ZJHK 072100Z 35003MPS 320V040 8000 SCT026 19/15 Q1019 NOSIG
ZJHK,2020-12-07 22:00,ZJHK 072200Z 35004MPS 320V020 6000 FEW023 18/15 Q1020 NOSIG
ZJHK,2020-12-07 23:00,ZJHK 072300Z 35004MPS 300V030 6000 BKN020 18/15 Q1020 NOSIG
ZJHK,2020-12-08 00:00,ZJHK 080000Z 01004MPS 330V050 7000 BKN020 19/15 Q1021 NOSIG
ZJHK,2020-12-08 01:00,ZJHK 080100Z 02004MPS 350V050 8000 BKN020 19/15 Q1022 NOSIG
ZJHK,2020-12-08 02:00,ZJHK 080200Z 02005MPS 350V050 9000 BKN023 20/15 Q1022 NOSIG
ZJHK,2020-12-08 03:00,ZJHK 080300Z 02006MPS 9999 SCT023 20/15 Q1021 NOSIG
ZJHK,2020-12-08 04:00,ZJHK 080400Z 36005MPS 310V060 9999 SCT023 20/15 Q1020 NOSIG
ZJHK,2020-12-08 05:00,ZJHK 080500Z 02005MPS 350V060 8000 SCT016 20/16 Q1019 NOSIG
ZJHK,2020-12-08 06:00,ZJHK 080600Z 02005MPS 340V060 9000 SCT020 21/15 Q1018 NOSIG
ZJHK,2020-12-08 07:00,ZJHK 080700Z 02006MPS 340V050 CAVOK 20/14 Q1017 NOSIG
ZJHK,2020-12-08 08:00,ZJHK 080800Z 03005MPS CAVOK 20/15 Q1017 NOSIG
ZJHK,2020-12-08 09:00,ZJHK 080900Z 03005MPS 360V070 CAVOK 20/14 Q1017 NOSIG
ZJHK,2020-12-08 10:00,ZJHK 081000Z 05004MPS CAVOK 20/14 Q1017 NOSIG
ZJHK,2020-12-08 11:00,ZJHK 081100Z 05003MPS 010V090 CAVOK 19/14 Q1018 NOSIG
ZJHK,2020-12-08 12:00,ZJHK 081200Z 03002MPS 360V080 CAVOK 19/14 Q1018 NOSIG
ZJHK,2020-12-08 13:00,ZJHK 081300Z 00000MPS CAVOK 18/15 Q1019 NOSIG
ZJHK,2020-12-08 14:00,ZJHK 081400Z 35002MPS 250V050 CAVOK 20/15 Q1019 NOSIG
ZJHK,2020-12-08 15:00,ZJHK 081500Z VRB01MPS 9000 NSC 17/14 Q1019 NOSIG
ZJHK,2020-12-08 16:00,ZJHK 081600Z 32002MPS 290V350 9000 NSC 19/15 Q1018 NOSIG
ZJHK,2020-12-08 17:00,ZJHK 081700Z 33002MPS 290V030 9000 NSC 19/15 Q1018 NOSIG
ZJHK,2020-12-08 18:00,ZJHK 081800Z 32002MPS 9000 FEW030 19/14 Q1017 NOSIG
ZJHK,2020-12-08 19:00,ZJHK 081900Z 34003MPS 310V010 8000 FEW030 19/14 Q1017 NOSIG
ZJHK,2020-12-08 20:00,ZJHK 082000Z 36003MPS 8000 FEW030 19/15 Q1017 NOSIG
ZJHK,2020-12-08 21:00,ZJHK 082100Z 35003MPS 8000 FEW030 19/15 Q1017 NOSIG
ZJHK,2020-12-08 22:00,ZJHK 082200Z 36003MPS 9000 NSC 19/15 Q1017 NOSIG
ZJHK,2020-12-08 23:00,ZJHK 082300Z 04004MPS CAVOK 20/15 Q1017 NOSIG
ZJHK,2020-12-09 00:00,ZJHK 090000Z 05005MPS CAVOK 20/15 Q1018 NOSIG
ZJHK,2020-12-09 01:00,ZJHK 090100Z 04005MPS CAVOK 21/15 Q1018 NOSIG
ZJHK,2020-12-09 02:00,ZJHK 090200Z 04006MPS 9999 FEW026 22/15 Q1018 NOSIG
ZJHK,2020-12-09 03:00,ZJHK 090300Z 08005MPS 030V100 9999 SCT030 23/16 Q1018 NOSIG
ZJHK,2020-12-09 04:00,ZJHK 090400Z 06005MPS 020V080 9999 BKN026 22/16 Q1017 NOSIG
ZJHK,2020-12-09 05:00,ZJHK 090500Z 03006MPS 9999 BKN026 21/16 Q1016 NOSIG
ZJHK,2020-12-09 06:00,ZJHK 090600Z 03005MPS 360V060 9000 BKN023 21/16 Q1015 NOSIG
ZJHK,2020-12-09 07:00,ZJHK 090700Z 04004MPS 020V080 9000 BKN023 21/16 Q1015 NOSIG
ZJHK,2020-12-09 08:00,ZJHK 090800Z 04005MPS 010V070 8000 BKN020 21/16 Q1015 NOSIG
ZJHK,2020-12-09 09:00,ZJHK 090900Z 04005MPS 8000 SCT016 20/17 Q1015 NOSIG
ZJHK,2020-12-09 10:00,ZJHK 091000Z 05005MPS 020V090 6000 -RA BKN014 OVC040 20/17 Q1015 BECMG TL1150 BKN009
ZJHK,2020-12-09 11:00,ZJHK 091100Z 06004MPS 020V080 7000 BKN014 OVC040 20/18 Q1016 NOSIG
ZJHK,2020-12-09 12:00,ZJHK 091200Z 05003MPS 9000 BKN015 OVC040 20/17 Q1016 NOSIG
ZJHK,2020-12-09 13:00,ZJHK 091300Z 05003MPS 020V080 9000 BKN016 OVC040 21/18 Q1016 NOSIG
ZJHK,2020-12-09 14:00,ZJHK 091400Z 04003MPS 020V080 9000 BKN020 21/18 Q1017 NOSIG
ZJHK,2020-12-09 15:00,ZJHK 091500Z 04003MPS 020V080 8000 SCT023 21/18 Q1016 NOSIG
ZJHK,2020-12-09 16:00,ZJHK 091600Z 04003MPS 350V070 8000 OVC046 21/18 Q1016 NOSIG
ZJHK,2020-12-09 17:00,ZJHK 091700Z 04003MPS 020V090 9000 OVC046 21/18 Q1016 NOSIG
ZJHK,2020-12-09 18:00,ZJHK 091800Z 05004MPS 9000 OVC046 21/19 Q1015 NOSIG
ZJHK,2020-12-09 19:00,ZJHK 091900Z 04004MPS 9000 NSC 21/19 Q1015 NOSIG
ZJHK,2020-12-09 20:00,ZJHK 092000Z 04004MPS 9000 SCT012 BKN040 21/19 Q1015 NOSIG
ZJHK,2020-12-09 21:00,ZJHK 092100Z 04005MPS 9000 -RA BKN012 BKN020 20/19 Q1015 NOSIG
ZJHK,2020-12-09 22:00,ZJHK 092200Z 04006MPS 6000 -RA BKN010 BKN023 20/19 Q1015 NOSIG
ZJHK,2020-12-09 23:00,ZJHK 092300Z 04006MPS 4000 -RA BR BKN008 BKN020 19/19 Q1016 NOSIG
ZJHK,2020-12-10 00:00,ZJHK 100000Z 05005MPS 5000 BR FEW013 BKN033 20/19 Q1017 NOSIG
ZJHK,2020-12-10 01:00,ZJHK 100100Z 05005MPS 6000 SCT013 OVC033 21/18 Q1017 NOSIG
ZJHK,2020-12-10 02:00,ZJHK 100200Z 04006MPS 7000 SCT016 BKN033 21/18 Q1018 NOSIG
ZJHK,2020-12-10 03:00,ZJHK 100300Z 04006MPS 7000 SCT016 BKN033 22/17 Q1018 NOSIG
ZJHK,2020-12-10 04:00,ZJHK 100400Z 04006MPS 8000 FEW020 OVC033 22/18 Q1017 NOSIG
ZJHK,2020-12-10 05:00,ZJHK 100500Z 03006MPS 360V060 8000 SCT016 BKN030 22/18 Q1016 NOSIG
ZJHK,2020-12-10 06:00,ZJHK 100600Z 04006MPS 5000 -RA BR SCT013 BKN026 21/18 Q1015 NOSIG
ZJHK,2020-12-10 07:00,ZJHK 100700Z 04005MPS 6000 -RA SCT013 BKN026 21/18 Q1015 NOSIG
ZJHK,2020-12-10 08:00,ZJHK 100800Z 04005MPS 6000 -RA SCT012 BKN026 21/18 Q1015 NOSIG
ZJHK,2020-12-10 09:00,ZJHK 100900Z 04005MPS 010V070 6000 FEW012 BKN040 20/18 Q1015 NOSIG
ZJHK,2020-12-10 10:00,ZJHK 101000Z 04004MPS 020V080 7000 BKN040 21/17 Q1015 NOSIG
ZJHK,2020-12-10 11:00,ZJHK 101100Z 05004MPS 010V070 8000 BKN040 21/17 Q1016 NOSIG
ZJHK,2020-12-10 12:00,ZJHK 101200Z 05003MPS 020V080 8000 BKN040 20/18 Q1016 NOSIG
ZJHK,2020-12-10 13:00,ZJHK 101300Z 04003MPS 8000 BKN040 20/18 Q1017 NOSIG
ZJHK,2020-12-10 14:00,ZJHK 101400Z 04003MPS 010V080 8000 BKN030 20/18 Q1017 NOSIG
ZJHK,2020-12-10 15:00,ZJHK 101500Z 05003MPS 6000 -RA SCT013 OVC030 20/19 Q1017 NOSIG
ZJHK,2020-12-10 16:00,ZJHK 101600Z 04003MPS 020V080 9999 BKN026 20/19 Q1016 NOSIG
ZJHK,2020-12-10 17:00,ZJHK 101700Z 03003MPS 360V070 9999 BKN026 20/18 Q1016 NOSIG
ZJHK,2020-12-10 18:00,ZJHK 101800Z 36003MPS 9999 BKN026 20/19 Q1015 NOSIG
ZJHK,2020-12-10 19:00,ZJHK 101900Z 01003MPS 9999 SCT020 BKN030 21/19 Q1015 NOSIG
ZJHK,2020-12-10 20:00,ZJHK 102000Z 02003MPS 9999 -RA SCT018 BKN026 20/18 Q1014 NOSIG
ZJHK,2020-12-10 21:00,ZJHK 102100Z 03004MPS 360V060 9999 BKN016 BKN026 21/18 Q1014 NOSIG
ZJHK,2020-12-10 22:00,ZJHK 102200Z 04005MPS 9999 BKN020 BKN026 21/18 Q1014 NOSIG
ZJHK,2020-12-10 23:00,ZJHK 102300Z 04006MPS 9999 BKN020 BKN026 21/17 Q1015 NOSIG
ZJHK,2020-12-11 00:00,ZJHK 110000Z 03005MPS 9999 BKN018 BKN026 21/18 Q1016 NOSIG
ZJHK,2020-12-11 01:00,ZJHK 110100Z 02004MPS 360V060 9999 SCT018 BKN026 21/18 Q1017 NOSIG
ZJHK,2020-12-11 02:00,ZJHK 110200Z 03006MPS 360V060 9999 BKN018 BKN026 21/18 Q1017 NOSIG
ZJHK,2020-12-11 03:00,ZJHK 110300Z 03005MPS 5000 BR BKN016 BKN026 21/18 Q1017 NOSIG
ZJHK,2020-12-11 04:00,ZJHK 110400Z 03005MPS 3000 -RA BR BKN010 BKN026 21/19 Q1016 BECMG TL0500 2000 BKN007
ZJHK,2020-12-11 05:00,ZJHK 110500Z 04005MPS 010V080 5000 -RA BR BKN012 BKN026 21/18 Q1015 NOSIG
ZJHK,2020-12-11 06:00,ZJHK 110600Z 04006MPS 4000 -RA BR BKN012 BKN026 20/19 Q1014 NOSIG
ZJHK,2020-12-11 07:00,ZJHK 110700Z 02005MPS 360V060 3500 -RA BR BKN008 BKN020 20/19 Q1013 BECMG 2500
ZJHK,2020-12-11 08:00,ZJHK 110800Z 03005MPS 2000 -DZ BR BKN005 BKN020 20/19 Q1013 NOSIG
ZJHK,2020-12-11 09:00,ZJHK 110900Z 04003MPS 1800 -DZ BR BKN005 BKN020 20/20 Q1013 NOSIG
ZJHK,2020-12-11 10:00,ZJHK 111000Z 04003MPS 360V070 3000 BR BKN008 BKN020 20/19 Q1014 NOSIG
ZJHK,2020-12-11 11:00,ZJHK 111100Z 04003MPS 020V080 6000 BKN010 BKN020 21/19 Q1014 NOSIG
ZJHK,2020-12-11 12:00,ZJHK 111200Z 04004MPS 010V070 7000 BKN010 BKN020 21/19 Q1015 NOSIG
ZJHK,2020-12-11 13:00,ZJHK 111300Z 04004MPS 360V070 6000 BKN010 BKN020 21/19 Q1015 NOSIG
ZJHK,2020-12-11 14:00,ZJHK 111400Z 36003MPS 6000 BKN010 BKN020 21/20 Q1016 NOSIG
ZJHK,2020-12-11 15:00,ZJHK 111500Z 04004MPS 010V070 4000 -DZ BR BKN010 BKN020 21/20 Q1016 NOSIG
ZJHK,2020-12-11 16:00,ZJHK 111600Z 05002MPS 010V080 4500 -DZ BR BKN012 BKN033 21/21 Q1015 NOSIG
ZJHK,2020-12-11 17:00,ZJHK 111700Z 01002MPS 280V080 5000 BR BKN014 BKN033 21/21 Q1015 BECMG TL1800 SCT012 BKN033
ZJHK,2020-12-11 18:00,ZJHK 111800Z VRB01MPS 5000 BR BKN008 BKN033 21/21 Q1014 NOSIG
ZJHK,2020-12-11 19:00,ZJHK 111900Z 02003MPS 8000 SCT006 BKN010 BKN033 21/21 Q1014 NOSIG
ZJHK,2020-12-11 20:00,ZJHK 112000Z 03003MPS 9000 SCT006 BKN010 BKN033 21/21 Q1014 NOSIG
ZJHK,2020-12-11 21:00,ZJHK 112100Z 02003MPS 340V050 5000 BR BKN006 BKN020 21/21 Q1014 NOSIG
ZJHK,2020-12-11 22:00,ZJHK 112200Z 02003MPS 4000 BR BKN006 BKN020 21/21 Q1014 NOSIG
ZJHK,2020-12-11 23:00,ZJHK 112300Z 03004MPS 360V060 5000 BR BKN006 BKN020 21/21 Q1015 NOSIG
ZJHK,2020-12-12 00:00,ZJHK 120000Z 02004MPS 350V060 3500 -DZ BR BKN006 BKN020 21/21 Q1015 NOSIG
ZJHK,2020-12-12 01:00,ZJHK 120100Z 04003MPS 020V080 3500 -DZ BR BKN006 BKN020 21/21 Q1016 NOSIG
ZJHK,2020-12-12 02:00,ZJHK 120200Z 05005MPS 5000 BR BKN008 BKN020 22/21 Q1016 NOSIG
ZJHK,2020-12-12 03:00,ZJHK 120300Z 06007MPS 5000 BR BKN010 BKN020 23/20 Q1016 NOSIG
ZJHK,2020-12-12 04:00,ZJHK 120400Z 07007MPS 5000 BR BKN012 BKN020 23/20 Q1015 NOSIG
ZJHK,2020-12-12 05:00,ZJHK 120500Z 09005MPS 5000 BR BKN014 OVC020 23/20 Q1014 NOSIG
ZJHK,2020-12-12 06:00,ZJHK 120600Z 08006MPS 5000 BR BKN014 OVC020 23/20 Q1013 NOSIG
ZJHK,2020-12-12 07:00,ZJHK 120700Z 08004MPS 5000 BR SCT016 OVC030 24/20 Q1012 NOSIG
ZJHK,2020-12-12 08:00,ZJHK 120800Z 07005MPS 5000 BR SCT016 OVC030 23/20 Q1012 NOSIG
ZJHK,2020-12-12 09:00,ZJHK 120900Z 08004MPS 050V110 4500 BR SCT016 OVC030 23/20 Q1012 NOSIG
ZJHK,2020-12-12 10:00,ZJHK 121000Z 07005MPS 4000 BR BKN033 22/20 Q1012 NOSIG
ZJHK,2020-12-12 11:00,ZJHK 121100Z 09004MPS 5000 BR BKN033 22/20 Q1012 NOSIG
ZJHK,2020-12-12 12:00,ZJHK 121200Z 10003MPS 5000 BR SCT015 BKN033 22/21 Q1013 NOSIG
ZJHK,2020-12-12 13:00,ZJHK 121300Z 10004MPS 3700 BR SCT015 BKN033 22/21 Q1013 NOSIG
ZJHK,2020-12-12 14:00,ZJHK 121400Z 10003MPS 3500 BR BKN010 BKN033 22/22 Q1013 NOSIG
ZJHK,2020-12-12 15:00,ZJHK 121500Z 10002MPS 3500 BR BKN008 BKN033 21/21 Q1013 NOSIG
ZJHK,2020-12-12 16:00,ZJHK 121600Z 11002MPS 3000 BR BKN008 BKN033 21/21 Q1013 NOSIG
ZJHK,2020-12-12 17:00,ZJHK 121700Z 12002MPS 2500 BR SCT008 BKN040 21/21 Q1012 NOSIG
ZJHK,2020-12-12 18:00,ZJHK 121800Z 12003MPS 2500 BR BKN040 21/21 Q1012 NOSIG
ZJHK,2020-12-12 19:00,ZJHK 121900Z VRB01MPS 2500 BR SCT005 BKN040 21/21 Q1012 NOSIG
ZJHK,2020-12-12 20:00,ZJHK 122000Z VRB01MPS 3000 BR SCT046 21/21 Q1011 NOSIG
ZJHK,2020-12-12 21:00,ZJHK 122100Z VRB01MPS 3500 BR SCT046 20/20 Q1011 NOSIG
ZJHK,2020-12-12 22:00,ZJHK 122200Z 07002MPS 4000 BR FEW008 BKN046 21/21 Q1012 NOSIG
ZJHK,2020-12-12 23:00,ZJHK 122300Z 12001MPS 5000 BR SCT033 BKN046 21/21 Q1012 NOSIG
ZJHK,2020-12-13 00:00,ZJHK 130000Z 12002MPS 5000 BR FEW033 22/22 Q1013 NOSIG
ZJHK,2020-12-13 01:00,ZJHK 130100Z 12002MPS 090V150 9000 FEW008 23/23 Q1014 NOSIG
ZJHK,2020-12-13 02:00,ZJHK 130200Z 12005MPS 9999 SCT013 26/22 Q1014 NOSIG
ZJHK,2020-12-13 03:00,ZJHK 130300Z 12005MPS 9999 SCT016 26/21 Q1014 NOSIG
ZJHK,2020-12-13 04:00,ZJHK 130400Z 12004MPS 100V160 9999 BKN020 27/21 Q1013 NOSIG
ZJHK,2020-12-13 05:00,ZJHK 130500Z 14004MPS 090V170 9999 BKN023 28/22 Q1012 NOSIG
ZJHK,2020-12-13 06:00,ZJHK 130600Z 12004MPS 090V170 9999 BKN023 27/22 Q1011 NOSIG
ZJHK,2020-12-13 07:00,ZJHK 130700Z 12004MPS 090V170 9999 SCT023 28/22 Q1010 NOSIG
ZJHK,2020-12-13 08:00,ZJHK 130800Z 12004MPS 9999 SCT023 27/22 Q1010 NOSIG
ZJHK,2020-12-13 09:00,ZJHK 130900Z 13005MPS 100V160 9999 FEW023 26/22 Q1011 NOSIG
ZJHK,2020-12-13 10:00,ZJHK 131000Z 13003MPS 090V150 9999 FEW023 25/22 Q1011 NOSIG
ZJHK,2020-12-13 11:00,ZJHK 131100Z 13002MPS 9999 FEW020 24/22 Q1011 NOSIG
ZJHK,2020-12-13 12:00,ZJHK 131200Z 15003MPS 120V180 CAVOK 23/23 Q1012 NOSIG
ZJHK,2020-12-13 13:00,ZJHK 131300Z 12002MPS 080V160 9999 FEW033 23/23 Q1012 NOSIG
ZJHK,2020-12-13 14:00,ZJHK 131400Z 13001MPS 9999 SCT010 SCT016 BKN046 22/22 Q1013 NOSIG
ZJHK,2020-12-13 15:00,ZJHK 131500Z VRB01MPS 9999 BKN007 BKN046 23/23 Q1013 NOSIG
ZJHK,2020-12-13 16:00,ZJHK 131600Z 09003MPS 9999 BKN010 BKN026 23/23 Q1013 NOSIG
ZJHK,2020-12-13 17:00,ZJHK 131700Z 07003MPS 040V100 9999 BKN013 23/23 Q1014 NOSIG
ZJHK,2020-12-13 18:00,ZJHK 131800Z 07003MPS 9999 FEW013 SCT046 23/23 Q1013 NOSIG
ZJHK,2020-12-13 19:00,ZJHK 131900Z 10001MPS 8000 MIFG FEW013 22/22 Q1013 NOSIG
ZJHK,2020-12-13 20:00,ZJHK 132000Z 10002MPS 3000 BR NSC 22/22 Q1013 NOSIG
ZJHK,2020-12-13 21:00,ZJHK 132100Z VRB01MPS 1700 R09/0550V1200U BCFG BR BKN003 22/22 Q1013 NOSIG
ZJHK,2020-12-13 22:00,ZJHK 132200Z 00000MPS 0400 R09/0550V0700U FG VV002 22/22 Q1014 BECMG AT2340 1000 BR
ZJHK,2020-12-13 23:00,ZJHK 132300Z 10002MPS 070V130 0400 R09/1000D FG VV002 22/22 Q1014 BECMG AT2340 1000 BR BKN006
ZJHK,2020-12-14 00:00,ZJHK 140000Z 08003MPS 0200 R09/0600V0900D FG VV002 23/23 Q1015 BECMG AT0140 1500 BR BKN005
ZJHK,2020-12-14 01:00,ZJHK 140100Z 10003MPS 2000 BR BKN003 BKN010 23/23 Q1015 BECMG TL0200 3000 BKN005
ZJHK,2020-12-14 02:00,ZJHK 140200Z 11003MPS 9999 SCT005 SCT010 25/24 Q1016 NOSIG
ZJHK,2020-12-14 03:00,ZJHK 140300Z 10004MPS 080V140 9999 BKN016 27/23 Q1016 NOSIG
ZJHK,2020-12-14 04:00,ZJHK 140400Z 10004MPS 9999 BKN023 28/22 Q1015 NOSIG
ZJHK,2020-12-14 05:00,ZJHK 140500Z 11005MPS 080V140 9999 SCT026 29/22 Q1014 NOSIG
ZJHK,2020-12-14 06:00,ZJHK 140600Z 10005MPS 9999 BKN026 27/21 Q1014 NOSIG
ZJHK,2020-12-14 07:00,ZJHK 140700Z 07008MPS 9999 SCT013 BKN026 26/22 Q1013 NOSIG
ZJHK,2020-12-14 08:00,ZJHK 140800Z 06008MPS 9999 SCT010 FEW026TCU BKN026 25/22 Q1013 NOSIG
ZJHK,2020-12-14 09:00,ZJHK 140900Z 07008MPS 9999 SCT010 FEW026TCU BKN026 24/22 Q1014 NOSIG
ZJHK,2020-12-14 10:00,ZJHK 141000Z 07008MPS 6000 BKN010 BKN030 23/21 Q1015 NOSIG
ZJHK,2020-12-14 11:00,ZJHK 141100Z 07008MPS 7000 BKN010 BKN030 22/20 Q1016 NOSIG
ZJHK,2020-12-14 12:00,ZJHK 141200Z 06007MPS 7000 -RA BKN010 BKN030 22/20 Q1017 NOSIG
ZJHK,2020-12-14 13:00,ZJHK 141300Z 07006MPS 6000 -RA BKN008 BKN026 21/20 Q1017 NOSIG
ZJHK,2020-12-14 14:00,ZJHK 141400Z 06007MPS 6000 BKN008 BKN026 21/20 Q1018 NOSIG
ZJHK,2020-12-14 15:00,ZJHK 141500Z 06006MPS 8000 BKN010 BKN026 21/20 Q1018 NOSIG
ZJHK,2020-12-14 16:00,ZJHK 141600Z 05006MPS 6000 -RA BKN008 BKN026 20/20 Q1018 NOSIG
ZJHK,2020-12-14 17:00,ZJHK 141700Z 06006MPS 6000 -RA BKN008 BKN026 20/20 Q1018 NOSIG
ZJHK,2020-12-14 18:00,ZJHK 141800Z 06007MPS 8000 BKN010 20/20 Q1018 NOSIG
ZJHK,2020-12-14 19:00,ZJHK 141900Z 05006MPS 6000 -RA BKN006 BKN023 20/20 Q1018 NOSIG
ZJHK,2020-12-14 20:00,ZJHK 142000Z 05006MPS 5000 -RA BR BKN004 BKN023 19/19 Q1018 NOSIG
ZJHK,2020-12-14 21:00,ZJHK 142100Z 05007MPS 5000 -RA BR BKN005 BKN023 19/19 Q1018 NOSIG
ZJHK,2020-12-14 22:00,ZJHK 142200Z 05006MPS 5000 -RA BR BKN005 BKN023 18/18 Q1018 NOSIG
ZJHK,2020-12-14 23:00,ZJHK 142300Z 04007MPS 5000 -RA BR BKN005 BKN023 18/18 Q1019 NOSIG
ZJHK,2020-12-15 00:00,ZJHK 150000Z 05006MPS 4000 -RA BR BKN006 BKN023 18/18 Q1020 NOSIG
ZJHK,2020-12-15 01:00,ZJHK 150100Z 06007MPS 3000 -RA BR BKN005 BKN020 18/18 Q1021 NOSIG
ZJHK,2020-12-15 02:00,ZJHK 150200Z 04006MPS 2500 -RA BR BKN005 BKN020 18/18 Q1022 NOSIG
ZJHK,2020-12-15 03:00,ZJHK 150300Z 05007MPS 2500 -RA BR BKN005 OVC020 18/18 Q1022 NOSIG
ZJHK,2020-12-15 04:00,ZJHK 150400Z 05006MPS 2800 -RA BR BKN005 OVC020 18/18 Q1021 NOSIG
ZJHK,2020-12-15 05:00,ZJHK 150500Z 04006MPS 2800 -RA BR BKN005 OVC020 18/18 Q1020 NOSIG
ZJHK,2020-12-15 06:00,ZJHK 150600Z 05006MPS 2800 -RA BR BKN004 OVC020 18/18 Q1019 BECMG TL0740 3000 BKN005 OVC020
ZJHK,2020-12-15 07:00,ZJHK 150700Z 06005MPS 2800 -RA BR BKN004 OVC020 18/18 Q1018 BECMG 3000 BKN005 OVC020
ZJHK,2020-12-15 08:00,ZJHK 150800Z 04004MPS 2500 -RA BR BKN004 OVC020 18/18 Q1018 NOSIG
ZJHK,2020-12-15 09:00,ZJHK 150900Z 04006MPS 2500 -RA BR BKN004 OVC020 17/17 Q1019 NOSIG
ZJHK,2020-12-15 10:00,ZJHK 151000Z 04005MPS 2800 -RA BR BKN004 OVC020 17/17 Q1019 NOSIG
ZJHK,2020-12-15 11:00,ZJHK 151100Z 04007MPS 3000 -RA BR SCT004 BKN008 OVC020 17/17 Q1020 NOSIG
ZJHK,2020-12-15 12:00,ZJHK 151200Z 05006MPS 020V080 5000 -RA BR SCT005 BKN012 BKN020 17/17 Q1020 NOSIG
ZJHK,2020-12-15 13:00,ZJHK 151300Z 05006MPS 5000 -RA BR BKN004 BKN020 17/17 Q1021 NOSIG
ZJHK,2020-12-15 14:00,ZJHK 151400Z 04006MPS 010V070 3500 -RA BR BKN005 BKN020 17/17 Q1021 NOSIG
ZJHK,2020-12-15 15:00,ZJHK 151500Z 04005MPS 3500 -RA BR BKN005 BKN020 17/17 Q1022 NOSIG
ZJHK,2020-12-15 16:00,ZJHK 151600Z 05005MPS 5000 -RA BR BKN008 BKN020 17/17 Q1022 NOSIG
ZJHK,2020-12-15 17:00,ZJHK 151700Z 05005MPS 7000 BKN010 BKN020 17/16 Q1021 NOSIG
ZJHK,2020-12-15 18:00,ZJHK 151800Z 04005MPS 8000 BKN010 BKN020 17/16 Q1021 NOSIG
ZJHK,2020-12-15 19:00,ZJHK 151900Z 05005MPS 9999 BKN010 BKN020 17/16 Q1021 NOSIG
ZJHK,2020-12-15 20:00,ZJHK 152000Z 04006MPS 9999 BKN010 BKN020 17/16 Q1021 NOSIG
ZJHK,2020-12-15 21:00,ZJHK 152100Z 05006MPS 4000 -RA BR BKN007 BKN020 16/16 Q1021 BECMG TL2200 2500
ZJHK,2020-12-15 22:00,ZJHK 152200Z 05006MPS 4000 -RA BR BKN004 BKN020 16/16 Q1021 NOSIG
ZJHK,2020-12-15 23:00,ZJHK 152300Z 05006MPS 4000 -RA BR BKN004 BKN020 16/16 Q1022 NOSIG
ZJHK,2020-12-16 00:00,ZJHK 160000Z 05006MPS 4000 -RA BR BKN005 BKN020 16/16 Q1022 NOSIG
ZJHK,2020-12-16 01:00,ZJHK 160100Z 04006MPS 5000 -RA BR BKN005 BKN020 16/16 Q1023 NOSIG
ZJHK,2020-12-16 02:00,ZJHK 160200Z 06005MPS 6000 -RA BKN005 OVC020 16/16 Q1024 NOSIG
ZJHK,2020-12-16 03:00,ZJHK 160300Z 05006MPS 4000 -RA BR BKN005 OVC020 16/16 Q1023 NOSIG
ZJHK,2020-12-16 04:00,ZJHK 160400Z 04006MPS 4000 -RA BR BKN005 OVC020 16/16 Q1023 NOSIG
ZJHK,2020-12-16 05:00,ZJHK 160500Z 04006MPS 3000 -RA BR BKN005 OVC020 17/17 Q1022 NOSIG
ZJHK,2020-12-16 06:00,ZJHK 160600Z 04005MPS 3500 -RA BR BKN005 OVC020 16/16 Q1021 NOSIG
ZJHK,2020-12-16 07:00,ZJHK 160700Z 04006MPS 3500 -RA BR BKN005 OVC020 16/16 Q1020 NOSIG
ZJHK,2020-12-16 08:00,ZJHK 160800Z 04005MPS 010V070 2800 -RA BR BKN004 OVC020 16/16 Q1020 NOSIG
ZJHK,2020-12-16 09:00,ZJHK 160900Z 04006MPS 2500 -RA BR BKN004 OVC020 16/16 Q1020 NOSIG
ZJHK,2020-12-16 10:00,ZJHK 161000Z 04006MPS 2500 -RA BR BKN004 OVC020 16/16 Q1021 NOSIG
ZJHK,2020-12-16 11:00,ZJHK 161100Z 04005MPS 020V080 2500 -RA BR BKN004 OVC020 16/16 Q1021 NOSIG
ZJHK,2020-12-16 12:00,ZJHK 161200Z 05004MPS 020V080 3000 -RA BR BKN004 OVC020 16/16 Q1022 NOSIG
ZJHK,2020-12-16 13:00,ZJHK 161300Z 05004MPS 3000 -RA BR BKN004 OVC020 16/16 Q1022 NOSIG
ZJHK,2020-12-16 14:00,ZJHK 161400Z 04003MPS 010V070 3000 -RA BR BKN004 OVC020 16/16 Q1022 NOSIG
ZJHK,2020-12-16 15:00,ZJHK 161500Z 04003MPS 4000 -RA BR SCT004 OVC020 16/16 Q1022 NOSIG
ZJHK,2020-12-16 16:00,ZJHK 161600Z 03002MPS 360V060 5000 -RA BR SCT004 OVC020 17/16 Q1021 NOSIG
ZJHK,2020-12-16 17:00,ZJHK 161700Z 05004MPS 020V080 5000 -RA BR FEW004 OVC020 17/16 Q1021 NOSIG
ZJHK,2020-12-16 18:00,ZJHK 161800Z 05004MPS 5000 -RA BR OVC020 17/16 Q1021 NOSIG
ZJHK,2020-12-16 19:00,ZJHK 161900Z 32004MPS 240V340 5000 -RA BR FEW004 OVC020 15/15 Q1020 NOSIG
ZJHK,2020-12-16 20:00,ZJHK 162000Z 30004MPS 5000 -RA BR FEW004 OVC020 15/15 Q1020 NOSIG
ZJHK,2020-12-16 21:00,ZJHK 162100Z 32003MPS 6000 -RA FEW004 OVC020 15/15 Q1020 NOSIG
ZJHK,2020-12-16 22:00,ZJHK 162200Z 32002MPS 290V360 8000 FEW004 BKN010 OVC020 15/15 Q1020 NOSIG
ZJHK,2020-12-16 23:00,ZJHK 162300Z 04005MPS 7000 -RA FEW004 BKN010 OVC020 16/15 Q1021 NOSIG
ZJHK,2020-12-17 00:00,ZJHK 170000Z 05006MPS 4000 -RA BR SCT005 BKN010 OVC020 16/16 Q1021 NOSIG
ZJHK,2020-12-17 01:00,ZJHK 170100Z 02004MPS 340V050 3500 -RA BR BKN005 OVC020 14/14 Q1022 NOSIG
ZJHK,2020-12-17 02:00,ZJHK 170200Z 35004MPS 320V020 5000 -RA BR BKN006 OVC020 15/15 Q1023 NOSIG
ZJHK,2020-12-17 03:00,ZJHK 170300Z 04006MPS 8000 BKN010 OVC020 16/15 Q1023 NOSIG
ZJHK,2020-12-17 04:00,ZJHK 170400Z 04006MPS 010V070 9999 BKN013 OVC020 16/15 Q1022 NOSIG
ZJHK,2020-12-17 05:00,ZJHK 170500Z 04006MPS 8000 -RA BKN010 OVC020 16/15 Q1021 NOSIG
ZJHK,2020-12-17 06:00,ZJHK 170600Z 04006MPS 020V080 6000 -RA BKN010 OVC020 16/15 Q1020 NOSIG
ZJHK,2020-12-17 07:00,ZJHK 170700Z 04006MPS 010V070 6000 -RA BKN010 OVC020 16/15 Q1019 NOSIG
ZJHK,2020-12-17 08:00,ZJHK 170800Z 04005MPS 020V080 7000 -RA BKN010 OVC020 16/15 Q1019 NOSIG
ZJHK,2020-12-17 09:00,ZJHK 170900Z 03005MPS 6000 -RA BKN008 OVC020 16/15 Q1019 NOSIG
ZJHK,2020-12-17 10:00,ZJHK 171000Z 04006MPS 7000 BKN010 OVC020 16/15 Q1019 NOSIG
ZJHK,2020-12-17 11:00,ZJHK 171100Z 04004MPS 010V070 9000 BKN012 OVC020 17/15 Q1019 NOSIG
ZJHK,2020-12-17 12:00,ZJHK 171200Z 05004MPS 9999 BKN016 OVC030 17/15 Q1020 NOSIG
ZJHK,2020-12-17 13:00,ZJHK 171300Z 04004MPS 9999 BKN016 OVC030 17/15 Q1020 NOSIG
ZJHK,2020-12-17 14:00,ZJHK 171400Z 04003MPS 9999 BKN016 OVC030 17/15 Q1020 NOSIG
ZJHK,2020-12-17 15:00,ZJHK 171500Z 04005MPS 9999 BKN015 OVC030 17/15 Q1021 NOSIG
ZJHK,2020-12-17 16:00,ZJHK 171600Z 03004MPS 9999 BKN015 OVC030 17/15 Q1020 NOSIG
ZJHK,2020-12-17 17:00,ZJHK 171700Z 02005MPS 350V050 9999 BKN014 OVC020 17/15 Q1020 NOSIG
ZJHK,2020-12-17 18:00,ZJHK 171800Z 36004MPS 320V030 4000 -RA BR BKN008 OVC020 16/16 Q1020 NOSIG
ZJHK,2020-12-17 19:00,ZJHK 171900Z 36004MPS 5000 -RA BR BKN008 OVC020 15/15 Q1020 NOSIG
ZJHK,2020-12-17 20:00,ZJHK 172000Z 01004MPS 5000 -RA BR BKN008 OVC020 15/15 Q1020 NOSIG
ZJHK,2020-12-17 21:00,ZJHK 172100Z 02004MPS 6000 -RA BKN008 OVC020 16/16 Q1020 BECMG TL2250 BKN011 BKN030
ZJHK,2020-12-17 22:00,ZJHK 172200Z 04004MPS 9000 BKN010 OVC020 16/16 Q1020 NOSIG
ZJHK,2020-12-17 23:00,ZJHK 172300Z 36004MPS 340V040 8000 BKN010 BKN026 16/15 Q1021 NOSIG
ZJHK,2020-12-18 00:00,ZJHK 180000Z 36005MPS 320V030 5000 BR BKN010 OVC023 15/15 Q1021 NOSIG
ZJHK,2020-12-18 01:00,ZJHK 180100Z 36005MPS 330V040 5000 BR BKN008 OVC023 14/14 Q1022 NOSIG
ZJHK,2020-12-18 02:00,ZJHK 180200Z 35005MPS 320V020 5000 BR BKN008 OVC023 14/13 Q1023 NOSIG
ZJHK,2020-12-18 03:00,ZJHK 180300Z 34005MPS 7000 BKN010 OVC023 14/12 Q1022 NOSIG
ZJHK,2020-12-18 04:00,ZJHK 180400Z 36004MPS 340V050 9999 BKN011 OVC026 14/12 Q1022 NOSIG
ZJHK,2020-12-18 05:00,ZJHK 180500Z 36004MPS 330V060 9999 BKN011 OVC026 15/12 Q1021 NOSIG
ZJHK,2020-12-18 06:00,ZJHK 180600Z 36004MPS 320V050 9999 BKN011 OVC030 15/12 Q1020 NOSIG
ZJHK,2020-12-18 07:00,ZJHK 180700Z 01005MPS 330V040 9999 SCT013 OVC030 15/13 Q1019 NOSIG
ZJHK,2020-12-18 08:00,ZJHK 180800Z 36004MPS 310V050 9999 SCT013 OVC030 16/12 Q1019 NOSIG
ZJHK,2020-12-18 09:00,ZJHK 180900Z 01003MPS 320V060 9999 BKN016 BKN030 16/12 Q1020 NOSIG
ZJHK,2020-12-18 10:00,ZJHK 181000Z 02002MPS 340V060 9999 FEW026 16/13 Q1020 NOSIG
ZJHK,2020-12-18 11:00,ZJHK 181100Z VRB01MPS 9999 FEW026 16/13 Q1021 NOSIG
ZJHK,2020-12-18 12:00,ZJHK 181200Z VRB01MPS 9999 SCT036 14/13 Q1022 NOSIG
ZJHK,2020-12-18 13:00,ZJHK 181300Z 24001MPS 8000 BKN023 13/13 Q1022 NOSIG
ZJHK,2020-12-18 14:00,ZJHK 181400Z 32002MPS 250V040 9999 BKN023 16/13 Q1023 NOSIG
ZJHK,2020-12-18 15:00,ZJHK 181500Z 34004MPS 320V020 9999 BKN023 16/11 Q1023 NOSIG
ZJHK,2020-12-18 16:00,ZJHK 181600Z 36004MPS 330V040 9999 BKN023 15/12 Q1023 NOSIG
ZJHK,2020-12-18 17:00,ZJHK 181700Z 35004MPS 320V030 9999 BKN023 14/11 Q1023 NOSIG
ZJHK,2020-12-18 18:00,ZJHK 181800Z 34004MPS 9999 BKN020 14/12 Q1022 NOSIG
ZJHK,2020-12-18 19:00,ZJHK 181900Z 35004MPS 9999 SCT013 BKN023 14/11 Q1022 NOSIG
ZJHK,2020-12-18 20:00,ZJHK 182000Z 35004MPS 9999 SCT013 BKN023 13/11 Q1022 NOSIG
ZJHK,2020-12-18 21:00,ZJHK 182100Z 35004MPS 9999 SCT012 BKN023 13/11 Q1022 NOSIG
ZJHK,2020-12-18 22:00,ZJHK 182200Z 35004MPS 320V020 9999 SCT012 BKN023 13/10 Q1022 NOSIG
ZJHK,2020-12-18 23:00,ZJHK 182300Z 34005MPS 320V020 9999 SCT012 BKN023 14/11 Q1023 NOSIG
ZJHK,2020-12-19 00:00,ZJHK 190000Z 34005MPS 320V030 9999 SCT013 BKN023 13/10 Q1024 NOSIG
ZJHK,2020-12-19 01:00,ZJHK 190100Z 34005MPS 320V030 9999 SCT013 BKN023 13/10 Q1025 NOSIG
ZJHK,2020-12-19 02:00,ZJHK 190200Z 35005MPS 320V030 9999 SCT013 BKN023 14/11 Q1025 NOSIG
ZJHK,2020-12-19 03:00,ZJHK 190300Z 36005G11MPS 310V030 9999 SCT013 BKN023 BKN040 15/11 Q1025 NOSIG
ZJHK,2020-12-19 04:00,ZJHK 190400Z 35005MPS 320V040 9999 SCT013 BKN023 15/11 Q1024 NOSIG
ZJHK,2020-12-19 05:00,ZJHK 190500Z 35005MPS 320V030 9999 BKN015 BKN033 15/11 Q1023 NOSIG
ZJHK,2020-12-19 06:00,ZJHK 190600Z 36006MPS 9999 BKN020 BKN033 15/10 Q1022 NOSIG
ZJHK,2020-12-19 07:00,ZJHK 190700Z 35005MPS 310V050 9999 FEW023 16/10 Q1021 NOSIG
ZJHK,2020-12-19 08:00,ZJHK 190800Z 01004MPS 320V070 9999 FEW023 16/10 Q1021 NOSIG
ZJHK,2020-12-19 09:00,ZJHK 190900Z 02004MPS 350V050 9999 FEW023 16/10 Q1021 NOSIG
ZJHK,2020-12-19 10:00,ZJHK 191000Z 01005MPS 340V040 CAVOK 16/10 Q1022 NOSIG
ZJHK,2020-12-19 11:00,ZJHK 191100Z 01004MPS 340V050 CAVOK 15/09 Q1022 NOSIG
ZJHK,2020-12-19 12:00,ZJHK 191200Z 36004MPS 310V060 CAVOK 15/09 Q1023 NOSIG
ZJHK,2020-12-19 13:00,ZJHK 191300Z 34003MPS 310V040 CAVOK 15/09 Q1023 NOSIG
ZJHK,2020-12-19 14:00,ZJHK 191400Z 34004MPS CAVOK 15/09 Q1024 NOSIG
ZJHK,2020-12-19 15:00,ZJHK 191500Z 35004MPS 320V030 9999 FEW026 15/09 Q1024 NOSIG
ZJHK,2020-12-19 16:00,ZJHK 191600Z 34005MPS 320V020 9999 FEW024 14/09 Q1024 NOSIG
ZJHK,2020-12-19 17:00,ZJHK 191700Z 34005MPS 320V020 9999 SCT023 14/09 Q1024 NOSIG
ZJHK,2020-12-19 18:00,ZJHK 191800Z 34005MPS 9999 SCT023 14/10 Q1024 NOSIG
ZJHK,2020-12-19 19:00,ZJHK 191900Z 35006MPS 9999 SCT020 14/10 Q1023 NOSIG
ZJHK,2020-12-19 20:00,ZJHK 192000Z 36005MPS 330V030 9999 SCT020 14/09 Q1024 NOSIG
ZJHK,2020-12-19 21:00,ZJHK 192100Z 35005MPS 320V020 9999 SCT020 BKN046 14/09 Q1024 NOSIG
ZJHK,2020-12-19 22:00,ZJHK 192200Z 36005MPS 9999 BKN023 BKN046 14/09 Q1024 NOSIG
ZJHK,2020-12-19 23:00,ZJHK 192300Z 35004MPS 320V030 9999 BKN023 BKN046 14/09 Q1024 NOSIG
ZJHK,2020-12-20 00:00,ZJHK 200000Z 36004MPS 320V040 9999 BKN023 BKN046 14/09 Q1025 NOSIG
ZJHK,2020-12-20 01:00,ZJHK 200100Z 35005MPS 320V030 9999 BKN023 BKN046 14/09 Q1025 NOSIG
ZJHK,2020-12-20 02:00,ZJHK 200200Z 36004MPS 310V030 9999 BKN023 BKN046 15/10 Q1026 NOSIG
ZJHK,2020-12-20 03:00,ZJHK 200300Z 36005MPS 320V040 9999 BKN023 BKN046 16/10 Q1025 NOSIG
ZJHK,2020-12-20 04:00,ZJHK 200400Z 02006MPS 350V050 9999 BKN023 17/11 Q1024 NOSIG
ZJHK,2020-12-20 05:00,ZJHK 200500Z 04007MPS 360V070 9999 SCT023 17/10 Q1023 NOSIG
ZJHK,2020-12-20 06:00,ZJHK 200600Z 01006MPS 9999 SCT023 16/11 Q1022 NOSIG
ZJHK,2020-12-20 07:00,ZJHK 200700Z 36006MPS 330V060 9999 SCT023 16/10 Q1022 NOSIG
ZJHK,2020-12-20 08:00,ZJHK 200800Z 02005MPS 330V060 9999 SCT023 16/11 Q1021 NOSIG
ZJHK,2020-12-20 09:00,ZJHK 200900Z 01005MPS 9999 SCT023 16/10 Q1022 NOSIG
ZJHK,2020-12-20 10:00,ZJHK 201000Z 03005MPS 360V060 9999 FEW023 16/09 Q1022 NOSIG
ZJHK,2020-12-20 11:00,ZJHK 201100Z 02004MPS 340V050 9999 FEW023 16/09 Q1022 NOSIG
ZJHK,2020-12-20 12:00,ZJHK 201200Z 36004MPS 330V050 9999 FEW023 16/09 Q1023 NOSIG
ZJHK,2020-12-20 13:00,ZJHK 201300Z 35004MPS 310V040 9999 FEW023 16/09 Q1023 NOSIG
ZJHK,2020-12-20 14:00,ZJHK 201400Z 35003MPS 310V040 9999 FEW023 16/09 Q1023 NOSIG
ZJHK,2020-12-20 15:00,ZJHK 201500Z 36003MPS 320V040 9999 FEW023 17/09 Q1023 NOSIG
ZJHK,2020-12-20 16:00,ZJHK 201600Z 35004MPS 300V030 9999 FEW023 16/09 Q1023 NOSIG
ZJHK,2020-12-20 17:00,ZJHK 201700Z 35004MPS 320V020 9999 SCT030 16/09 Q1022 NOSIG
ZJHK,2020-12-20 18:00,ZJHK 201800Z 36004MPS 9999 SCT030 16/10 Q1022 NOSIG
ZJHK,2020-12-20 19:00,ZJHK 201900Z 04005MPS 9999 SCT030 17/10 Q1022 NOSIG
ZJHK,2020-12-20 20:00,ZJHK 202000Z 04006MPS 9999 FEW030 17/09 Q1022 NOSIG
ZJHK,2020-12-20 21:00,ZJHK 202100Z 04007MPS 9999 FEW030 17/09 Q1022 NOSIG
ZJHK,2020-12-20 22:00,ZJHK 202200Z 03005MPS 9999 FEW030 17/09 Q1022 NOSIG
ZJHK,2020-12-20 23:00,ZJHK 202300Z 01004MPS 340V060 9999 BKN040 16/10 Q1023 NOSIG
ZJHK,2020-12-21 00:00,ZJHK 210000Z 36005MPS 320V030 9999 FEW023 BKN040 16/09 Q1023 NOSIG
ZJHK,2020-12-21 01:00,ZJHK 210100Z 36004MPS 330V050 9999 BKN030 16/09 Q1024 NOSIG
ZJHK,2020-12-21 02:00,ZJHK 210200Z 36005MPS 320V050 9999 SCT030 16/09 Q1024 NOSIG
ZJHK,2020-12-21 03:00,ZJHK 210300Z 02006MPS 9999 FEW030 17/10 Q1024 NOSIG
ZJHK,2020-12-21 04:00,ZJHK 210400Z 04007MPS 9999 FEW030 18/10 Q1023 NOSIG
ZJHK,2020-12-21 05:00,ZJHK 210500Z 04007MPS 010V070 9999 FEW030 18/10 Q1021 NOSIG
ZJHK,2020-12-21 06:00,ZJHK 210600Z 03007MPS 360V060 CAVOK 18/10 Q1020 NOSIG
ZJHK,2020-12-21 07:00,ZJHK 210700Z 04006MPS 360V070 CAVOK 19/10 Q1019 NOSIG
ZJHK,2020-12-21 08:00,ZJHK 210800Z 04006MPS 010V070 CAVOK 18/10 Q1019 NOSIG
ZJHK,2020-12-21 09:00,ZJHK 210900Z 03007MPS CAVOK 17/10 Q1019 NOSIG
ZJHK,2020-12-21 10:00,ZJHK 211000Z 04005MPS CAVOK 17/10 Q1019 NOSIG
ZJHK,2020-12-21 11:00,ZJHK 211100Z 04003MPS CAVOK 17/10 Q1020 NOSIG
ZJHK,2020-12-21 12:00,ZJHK 211200Z 04004MPS CAVOK 18/10 Q1020 NOSIG
ZJHK,2020-12-21 13:00,ZJHK 211300Z 03004MPS 360V070 CAVOK 18/09 Q1020 NOSIG
ZJHK,2020-12-21 14:00,ZJHK 211400Z 35002MPS 310V040 CAVOK 17/11 Q1021 NOSIG
ZJHK,2020-12-21 15:00,ZJHK 211500Z 35002MPS 320V050 CAVOK 18/11 Q1021 NOSIG
ZJHK,2020-12-21 16:00,ZJHK 211600Z 35002MPS 270V050 CAVOK 18/12 Q1020 NOSIG
ZJHK,2020-12-21 17:00,ZJHK 211700Z 35002MPS 310V020 CAVOK 17/12 Q1020 NOSIG
ZJHK,2020-12-21 18:00,ZJHK 211800Z 01003MPS 340V050 CAVOK 18/11 Q1020 NOSIG
ZJHK,2020-12-21 19:00,ZJHK 211900Z 04004MPS CAVOK 18/10 Q1019 NOSIG
ZJHK,2020-12-21 20:00,ZJHK 212000Z 03004MPS CAVOK 18/11 Q1019 NOSIG
ZJHK,2020-12-21 21:00,ZJHK 212100Z 04005MPS 9999 SCT033 18/12 Q1019 NOSIG
ZJHK,2020-12-21 22:00,ZJHK 212200Z 04006MPS 9999 SCT033 18/11 Q1019 NOSIG
ZJHK,2020-12-21 23:00,ZJHK 212300Z 04006MPS CAVOK 18/11 Q1020 NOSIG
ZJHK,2020-12-22 00:00,ZJHK 220000Z 05005MPS CAVOK 18/11 Q1020 NOSIG
ZJHK,2020-12-22 01:00,ZJHK 220100Z 04007MPS 010V070 9999 SCT033 19/12 Q1021 NOSIG
ZJHK,2020-12-22 02:00,ZJHK 220200Z 04007MPS 9999 SCT033 19/12 Q1021 NOSIG
ZJHK,2020-12-22 03:00,ZJHK 220300Z 03007MPS 9999 BKN030 19/12 Q1021 NOSIG
ZJHK,2020-12-22 04:00,ZJHK 220400Z 03007MPS 9999 BKN026 19/13 Q1020 NOSIG
ZJHK,2020-12-22 05:00,ZJHK 220500Z 05006MPS 9999 BKN023 19/13 Q1018 NOSIG
ZJHK,2020-12-22 06:00,ZJHK 220600Z 03006MPS 9999 BKN023 18/13 Q1017 NOSIG
ZJHK,2020-12-22 07:00,ZJHK 220700Z 04006MPS 350V060 9999 BKN023 18/13 Q1017 NOSIG
ZJHK,2020-12-22 08:00,ZJHK 220800Z 03006MPS 9999 BKN023 18/13 Q1016 NOSIG
ZJHK,2020-12-22 09:00,ZJHK 220900Z 03005MPS 360V060 9999 BKN023 18/13 Q1017 NOSIG
ZJHK,2020-12-22 10:00,ZJHK 221000Z 05005MPS 020V080 9999 BKN023 18/13 Q1016 NOSIG
ZJHK,2020-12-22 11:00,ZJHK 221100Z 04004MPS 9999 SCT020 18/14 Q1017 NOSIG
ZJHK,2020-12-22 12:00,ZJHK 221200Z 06004MPS 8000 -RA BKN018 BKN046 17/15 Q1017 NOSIG
ZJHK,2020-12-22 13:00,ZJHK 221300Z 05003MPS 010V070 9000 -RA BKN020 BKN046 17/15 Q1018 NOSIG
ZJHK,2020-12-22 14:00,ZJHK 221400Z 04002MPS 360V080 9999 BKN018 BKN046 18/15 Q1018 NOSIG
ZJHK,2020-12-22 15:00,ZJHK 221500Z 03003MPS 360V080 9999 BKN016 BKN046 18/15 Q1017 NOSIG
ZJHK,2020-12-22 16:00,ZJHK 221600Z 03003MPS 9999 BKN016 19/16 Q1017 NOSIG
ZJHK,2020-12-22 17:00,ZJHK 221700Z 04004MPS 020V080 9999 BKN016 19/16 Q1017 NOSIG
ZJHK,2020-12-22 18:00,ZJHK 221800Z 04004MPS 9999 -RA BKN016 19/16 Q1016 NOSIG
ZJHK,2020-12-22 19:00,ZJHK 221900Z 04004MPS 9999 BKN015 18/16 Q1016 NOSIG
ZJHK,2020-12-22 20:00,ZJHK 222000Z 04003MPS 9999 BKN015 19/16 Q1016 NOSIG
ZJHK,2020-12-22 21:00,ZJHK 222100Z 04005MPS 9999 BKN013 19/16 Q1015 NOSIG
ZJHK,2020-12-22 22:00,ZJHK 222200Z 05005MPS 9999 BKN013 19/16 Q1016 NOSIG
ZJHK,2020-12-22 23:00,ZJHK 222300Z 05004MPS 9999 BKN016 BKN040 19/16 Q1016 NOSIG
ZJHK,2020-12-23 00:00,ZJHK 230000Z 04005MPS 8000 BKN020 OVC043 19/15 Q1017 NOSIG
ZJHK,2020-12-23 01:00,ZJHK 230100Z 04005MPS 8000 SCT020 OVC040 19/15 Q1017 NOSIG
ZJHK,2020-12-23 02:00,ZJHK 230200Z 04005MPS 9000 SCT020 OVC040 20/15 Q1018 NOSIG
ZJHK,2020-12-23 03:00,ZJHK 230300Z 04006MPS 7000 SCT020 OVC040 19/15 Q1018 NOSIG
ZJHK,2020-12-23 04:00,ZJHK 230400Z 02004MPS 2000 -RA BR BKN010 OVC033 18/17 Q1017 NOSIG
ZJHK,2020-12-23 05:00,ZJHK 230500Z 03006MPS 360V060 2500 -RA BR BKN010 OVC033 18/17 Q1016 BECMG TL0600 4000
ZJHK,2020-12-23 06:00,ZJHK 230600Z 02006MPS 6000 -RA BKN010 OVC040 19/16 Q1015 NOSIG
ZJHK,2020-12-23 07:00,ZJHK 230700Z 03006MPS 4000 -RA BR BKN010 OVC033 18/16 Q1014 NOSIG
ZJHK,2020-12-23 08:00,ZJHK 230800Z 05005MPS 020V080 3000 -RA BR BKN008 OVC033 19/17 Q1014 NOSIG
ZJHK,2020-12-23 09:00,ZJHK 230900Z 04004MPS 3000 -RA BR BKN008 OVC033 18/17 Q1014 NOSIG
ZJHK,2020-12-23 10:00,ZJHK 231000Z 03005MPS 5000 BR BKN010 OVC033 19/17 Q1015 NOSIG
ZJHK,2020-12-23 11:00,ZJHK 231100Z 03004MPS 360V060 8000 BKN012 OVC033 19/16 Q1015 NOSIG
ZJHK,2020-12-23 12:00,ZJHK 231200Z 05004MPS 030V090 9000 BKN013 OVC033 19/16 Q1015 NOSIG
ZJHK,2020-12-23 13:00,ZJHK 231300Z 05004MPS 8000 BKN013 OVC033 19/17 Q1016 NOSIG
ZJHK,2020-12-23 14:00,ZJHK 231400Z 05003MPS 010V080 8000 BKN013 OVC033 19/17 Q1016 NOSIG
ZJHK,2020-12-23 15:00,ZJHK 231500Z 05002MPS 9000 BKN020 OVC033 19/17 Q1016 NOSIG
ZJHK,2020-12-23 16:00,ZJHK 231600Z 01002MPS 290V090 9000 OVC026 19/17 Q1016 NOSIG
ZJHK,2020-12-23 17:00,ZJHK 231700Z VRB02MPS 8000 OVC026 19/17 Q1016 NOSIG
ZJHK,2020-12-23 18:00,ZJHK 231800Z 02003MPS 8000 OVC026 19/17 Q1016 NOSIG
ZJHK,2020-12-23 19:00,ZJHK 231900Z 02002MPS 7000 OVC026 19/17 Q1015 NOSIG
ZJHK,2020-12-23 20:00,ZJHK 232000Z 04003MPS 7000 OVC026 19/17 Q1015 NOSIG
ZJHK,2020-12-23 21:00,ZJHK 232100Z 35002MPS 320V030 7000 OVC026 19/17 Q1015 NOSIG
ZJHK,2020-12-23 22:00,ZJHK 232200Z 36002MPS 7000 OVC026 19/17 Q1015 NOSIG
ZJHK,2020-12-23 23:00,ZJHK 232300Z 36003MPS 320V030 6000 OVC026 19/17 Q1016 NOSIG
ZJHK,2020-12-24 00:00,ZJHK 240000Z 35003MPS 320V050 5000 BR OVC026 19/15 Q1017 NOSIG
ZJHK,2020-12-24 01:00,ZJHK 240100Z 36004MPS 320V040 6000 BKN015 BKN033 19/15 Q1018 NOSIG
ZJHK,2020-12-24 02:00,ZJHK 240200Z 02004MPS 350V050 6000 SCT015 BKN033 20/16 Q1018 NOSIG
ZJHK,2020-12-24 03:00,ZJHK 240300Z 01004MPS 340V050 6000 SCT020 BKN033 20/16 Q1018 NOSIG
ZJHK,2020-12-24 04:00,ZJHK 240400Z 02004MPS 320V060 6000 SCT020 BKN033 20/16 Q1017 NOSIG
ZJHK,2020-12-24 05:00,ZJHK 240500Z 02004MPS 350V060 6000 SCT020 BKN033 21/16 Q1016 NOSIG
ZJHK,2020-12-24 06:00,ZJHK 240600Z 02004MPS 320V090 6000 SCT015 BKN033 20/17 Q1015 NOSIG
ZJHK,2020-12-24 07:00,ZJHK 240700Z 02004MPS 340V050 6000 SCT015 BKN033 20/17 Q1015 NOSIG
ZJHK,2020-12-24 08:00,ZJHK 240800Z 02004MPS 360V060 6000 SCT013 BKN033 20/17 Q1015 NOSIG
ZJHK,2020-12-24 09:00,ZJHK 240900Z 02004MPS 350V070 6000 BKN015 BKN033 19/16 Q1015 NOSIG
ZJHK,2020-12-24 10:00,ZJHK 241000Z 04005MPS 7000 BKN015 BKN033 19/16 Q1015 NOSIG
ZJHK,2020-12-24 11:00,ZJHK 241100Z 04003MPS 9000 BKN020 BKN033 19/16 Q1016 NOSIG
ZJHK,2020-12-24 12:00,ZJHK 241200Z 05003MPS 010V080 9000 BKN020 BKN033 19/16 Q1017 NOSIG
ZJHK,2020-12-24 13:00,ZJHK 241300Z 06003MPS 030V090 9000 BKN020 BKN033 19/16 Q1017 NOSIG
ZJHK,2020-12-24 14:00,ZJHK 241400Z 03002MPS 360V070 9000 SCT020 BKN046 19/16 Q1017 NOSIG
ZJHK,2020-12-24 15:00,ZJHK 241500Z 03002MPS 360V080 9000 BKN026 19/16 Q1017 NOSIG
ZJHK,2020-12-24 16:00,ZJHK 241600Z 04002MPS 010V080 9000 BKN026 19/17 Q1017 NOSIG
ZJHK,2020-12-24 17:00,ZJHK 241700Z 04002MPS 330V110 8000 BKN026 19/17 Q1017 NOSIG
ZJHK,2020-12-24 18:00,ZJHK 241800Z 36002MPS 330V030 7000 BKN026 19/18 Q1017 NOSIG
ZJHK,2020-12-24 19:00,ZJHK 241900Z 04003MPS 6000 BKN026 19/17 Q1016 NOSIG
ZJHK,2020-12-24 20:00,ZJHK 242000Z 04003MPS 7000 BKN026 19/18 Q1017 NOSIG
ZJHK,2020-12-24 21:00,ZJHK 242100Z 03004MPS 5000 BR SCT010 BKN026 19/17 Q1017 BECMG TL2200 BKN010 BKN026
ZJHK,2020-12-24 22:00,ZJHK 242200Z 04004MPS 7000 BKN010 BKN026 19/18 Q1017 NOSIG
ZJHK,2020-12-24 23:00,ZJHK 242300Z 04004MPS 020V080 6000 BKN013 BKN026 19/18 Q1017 NOSIG
ZJHK,2020-12-25 00:00,ZJHK 250000Z 04004MPS 020V080 6000 BKN013 BKN026 20/17 Q1018 NOSIG
ZJHK,2020-12-25 01:00,ZJHK 250100Z 05004MPS 020V080 8000 FEW013 BKN026 20/17 Q1019 NOSIG
ZJHK,2020-12-25 02:00,ZJHK 250200Z 06004MPS 030V090 9999 FEW013 OVC026 21/17 Q1019 NOSIG
ZJHK,2020-12-25 03:00,ZJHK 250300Z 05005MPS 9999 FEW016 OVC026 21/17 Q1019 NOSIG
ZJHK,2020-12-25 04:00,ZJHK 250400Z 04005MPS 010V070 9999 FEW016 OVC026 20/17 Q1018 NOSIG
ZJHK,2020-12-25 05:00,ZJHK 250500Z 03005MPS 360V060 9999 SCT016 OVC026 20/17 Q1017 NOSIG
ZJHK,2020-12-25 06:00,ZJHK 250600Z 03005MPS 7000 SCT016 OVC026 19/17 Q1016 NOSIG
ZJHK,2020-12-25 07:00,ZJHK 250700Z 05004MPS 6000 -RA SCT013 OVC026 19/17 Q1016 NOSIG
ZJHK,2020-12-25 08:00,ZJHK 250800Z 04004MPS 5000 -RA BR SCT013 OVC026 19/17 Q1015 NOSIG
ZJHK,2020-12-25 09:00,ZJHK 250900Z 06005MPS 5000 BR SCT013 OVC026 19/17 Q1015 NOSIG
ZJHK,2020-12-25 10:00,ZJHK 251000Z 06005MPS 5000 BR SCT013 OVC026 19/17 Q1016 NOSIG
ZJHK,2020-12-25 11:00,ZJHK 251100Z 06004MPS 6000 SCT013 OVC026 20/17 Q1016 NOSIG
ZJHK,2020-12-25 12:00,ZJHK 251200Z 06004MPS 6000 SCT013 OVC026 20/18 Q1017 NOSIG
ZJHK,2020-12-25 13:00,ZJHK 251300Z 07004MPS 6000 BKN013 OVC026 20/18 Q1017 NOSIG
ZJHK,2020-12-25 14:00,ZJHK 251400Z 06004MPS 6000 BKN013 OVC026 20/18 Q1017 NOSIG
ZJHK,2020-12-25 15:00,ZJHK 251500Z 06003MPS 040V100 6000 BKN013 OVC026 20/19 Q1018 NOSIG
ZJHK,2020-12-25 16:00,ZJHK 251600Z 06003MPS 020V080 5000 -RA BR BKN013 OVC026 20/19 Q1017 NOSIG
ZJHK,2020-12-25 17:00,ZJHK 251700Z 11003MPS 5000 -RA BR BKN013 OVC026 20/20 Q1017 NOSIG
ZJHK,2020-12-25 18:00,ZJHK 251800Z 10002MPS 5000 BR BKN013 OVC026 20/20 Q1017 NOSIG
ZJHK,2020-12-25 19:00,ZJHK 251900Z VRB01MPS 6000 FEW013 OVC026 20/20 Q1016 NOSIG
ZJHK,2020-12-25 20:00,ZJHK 252000Z 09001MPS 8000 FEW016 OVC026 20/20 Q1016 NOSIG
ZJHK,2020-12-25 21:00,ZJHK 252100Z 08002MPS 9000 FEW016 OVC026 20/20 Q1016 NOSIG
ZJHK,2020-12-25 22:00,ZJHK 252200Z 04002MPS 9999 FEW016 OVC026 20/20 Q1016 NOSIG
ZJHK,2020-12-25 23:00,ZJHK 252300Z 07004MPS 9999 FEW016 SCT026 21/20 Q1016 NOSIG
ZJHK,2020-12-26 00:00,ZJHK 260000Z 10003MPS 9999 FEW016 20/20 Q1016 NOSIG
ZJHK,2020-12-26 01:00,ZJHK 260100Z 09005MPS 9999 FEW023 22/20 Q1017 NOSIG
ZJHK,2020-12-26 02:00,ZJHK 260200Z 11005MPS 070V140 9999 BKN020 23/19 Q1018 NOSIG
ZJHK,2020-12-26 03:00,ZJHK 260300Z 10005MPS 9999 BKN026 24/19 Q1018 NOSIG
ZJHK,2020-12-26 04:00,ZJHK 260400Z 11004MPS 9999 SCT026 24/19 Q1017 NOSIG
ZJHK,2020-12-26 05:00,ZJHK 260500Z 10004MPS 9999 BKN026 BKN033 24/19 Q1016 NOSIG
ZJHK,2020-12-26 06:00,ZJHK 260600Z 10006MPS 9999 BKN026 24/19 Q1014 NOSIG
ZJHK,2020-12-26 07:00,ZJHK 260700Z 11005MPS 080V140 9999 SCT020 BKN026 23/19 Q1014 NOSIG
ZJHK,2020-12-26 08:00,ZJHK 260800Z 10004MPS 9999 BKN023 24/19 Q1014 NOSIG
ZJHK,2020-12-26 09:00,ZJHK 260900Z 10005MPS 9999 FEW030 23/19 Q1014 NOSIG
ZJHK,2020-12-26 10:00,ZJHK 261000Z 06004MPS 9999 SCT020 22/20 Q1014 NOSIG
ZJHK,2020-12-26 11:00,ZJHK 261100Z 08004MPS 9999 FEW016 21/20 Q1014 NOSIG
ZJHK,2020-12-26 12:00,ZJHK 261200Z 09003MPS CAVOK 21/20 Q1015 NOSIG
ZJHK,2020-12-26 13:00,ZJHK 261300Z 10003MPS 9999 FEW012 20/20 Q1015 NOSIG
ZJHK,2020-12-26 14:00,ZJHK 261400Z 10003MPS 8000 NSC 20/20 Q1016 NOSIG
ZJHK,2020-12-26 15:00,ZJHK 261500Z 12001MPS 6000 FEW016 BKN023 19/19 Q1016 NOSIG
ZJHK,2020-12-26 16:00,ZJHK 261600Z 12002MPS 6000 SCT040 19/19 Q1016 NOSIG
ZJHK,2020-12-26 17:00,ZJHK 261700Z VRB01MPS 7000 SCT040 20/20 Q1015 NOSIG
ZJHK,2020-12-26 18:00,ZJHK 261800Z 07001MPS 6000 SCT040 19/19 Q1015 NOSIG
ZJHK,2020-12-26 19:00,ZJHK 261900Z 01002MPS 7000 BKN040 20/20 Q1014 NOSIG
ZJHK,2020-12-26 20:00,ZJHK 262000Z 33002MPS 7000 BKN040 20/20 Q1014 NOSIG
ZJHK,2020-12-26 21:00,ZJHK 262100Z 01002MPS 5000 BR SCT003 BKN013 BKN040 20/20 Q1014 NOSIG
ZJHK,2020-12-26 22:00,ZJHK 262200Z 02002MPS 5000 BR BKN003 BKN040 20/20 Q1015 NOSIG
ZJHK,2020-12-26 23:00,ZJHK 262300Z 06003MPS 4000 BR BKN003 20/20 Q1015 NOSIG
ZJHK,2020-12-27 00:00,ZJHK 270000Z 08004MPS 3000 BR BKN003 OVC040 21/21 Q1016 NOSIG
ZJHK,2020-12-27 01:00,ZJHK 270100Z 08004MPS 5000 BR BKN005 OVC023 21/21 Q1017 NOSIG
ZJHK,2020-12-27 02:00,ZJHK 270200Z 08004MPS 8000 BKN007 OVC020 22/21 Q1017 BECMG TL0350 BKN010 OVC023
ZJHK,2020-12-27 03:00,ZJHK 270300Z 07004MPS 9999 BKN012 BKN023 24/21 Q1017 BECMG TL0400 SCT015 BKN030
ZJHK,2020-12-27 04:00,ZJHK 270400Z 08004MPS 040V130 9999 BKN015 25/20 Q1016 NOSIG
ZJHK,2020-12-27 05:00,ZJHK 270500Z 07004MPS 030V110 9999 FEW015 BKN020 27/21 Q1015 NOSIG
ZJHK,2020-12-27 06:00,ZJHK 270600Z 07004MPS 040V120 9999 SCT023 27/20 Q1013 NOSIG
ZJHK,2020-12-27 07:00,ZJHK 270700Z 02004MPS 350V050 9999 SCT023 25/20 Q1013 NOSIG
ZJHK,2020-12-27 08:00,ZJHK 270800Z 03006MPS 9999 FEW020 25/20 Q1012 NOSIG
ZJHK,2020-12-27 09:00,ZJHK 270900Z 07006MPS CAVOK 24/20 Q1012 NOSIG
ZJHK,2020-12-27 10:00,ZJHK 271000Z 06006MPS CAVOK 22/19 Q1013 NOSIG
ZJHK,2020-12-27 11:00,ZJHK 271100Z 10004MPS CAVOK 20/19 Q1014 NOSIG
ZJHK,2020-12-27 12:00,ZJHK 271200Z 10003MPS CAVOK 20/19 Q1014 NOSIG
ZJHK,2020-12-27 13:00,ZJHK 271300Z 10003MPS CAVOK 19/19 Q1015 BECMG TL1450 BKN008
ZJHK,2020-12-27 14:00,ZJHK 271400Z 19001MPS 5000 BR FEW010 18/18 Q1015 NOSIG
ZJHK,2020-12-27 15:00,ZJHK 271500Z 00000MPS 5000 BR NSC 17/17 Q1015 NOSIG
ZJHK,2020-12-27 16:00,ZJHK 271600Z 00000MPS 3500 R09/0275N BR BCFG NSC 17/17 Q1015 BECMG AT1700 1500 BR
ZJHK,2020-12-27 17:00,ZJHK 271700Z 12001MPS 3500 BR BCFG NSC 18/18 Q1014 BECMG AT1800 1500 BR
ZJHK,2020-12-27 18:00,ZJHK 271800Z VRB01MPS 2500 R09/1300U BR BCFG NSC 17/17 Q1014 BECMG AT1900 1200
ZJHK,2020-12-27 19:00,ZJHK 271900Z 15001MPS 0700 R09/0200V0275N FG NSC 16/16 Q1013 BECMG 0500
ZJHK,2020-12-27 20:00,ZJHK 272000Z VRB01MPS 0300 R09/0225N FG VV001 17/17 Q1013 NOSIG
ZJHK,2020-12-27 21:00,ZJHK 272100Z VRB01MPS 0300 R09/0300N FG VV001 18/18 Q1013 NOSIG
ZJHK,2020-12-27 22:00,ZJHK 272200Z 00000MPS 0300 R09/0300V0450N FG VV001 18/18 Q1013 NOSIG
ZJHK,2020-12-27 23:00,ZJHK 272300Z VRB01MPS 0300 R09/0450V0750N FG VV001 18/18 Q1014 BECMG TL0020 0500 FG
ZJHK,2020-12-28 00:00,ZJHK 280000Z 08002MPS 0200 R09/0325N FG VV001 18/18 Q1014 BECMG TL0100 2000 BR BKN003
ZJHK,2020-12-28 01:00,ZJHK 280100Z VRB01MPS 0100 R09/P2000 FG VV001 18/18 Q1015 BECMG TL0130 2000 BR BKN004
ZJHK,2020-12-28 02:00,ZJHK 280200Z VRB01MPS 8000 FEW003 21/21 Q1016 NOSIG
ZJHK,2020-12-28 03:00,ZJHK 280300Z 11005MPS 080V150 CAVOK 24/18 Q1015 NOSIG
ZJHK,2020-12-28 04:00,ZJHK 280400Z 11004MPS 080V140 CAVOK 26/17 Q1014 NOSIG
ZJHK,2020-12-28 05:00,ZJHK 280500Z 10005MPS 060V140 CAVOK 27/17 Q1013 NOSIG
ZJHK,2020-12-28 06:00,ZJHK 280600Z 10006MPS CAVOK 28/16 Q1012 NOSIG
ZJHK,2020-12-28 07:00,ZJHK 280700Z 10006MPS CAVOK 27/16 Q1011 NOSIG
ZJHK,2020-12-28 08:00,ZJHK 280800Z 10005MPS 070V140 CAVOK 27/17 Q1011 NOSIG
ZJHK,2020-12-28 09:00,ZJHK 280900Z 10005MPS CAVOK 26/15 Q1011 NOSIG
ZJHK,2020-12-28 10:00,ZJHK 281000Z 08006MPS CAVOK 23/17 Q1011 NOSIG
ZJHK,2020-12-28 11:00,ZJHK 281100Z 07005MPS CAVOK 21/18 Q1012 NOSIG
ZJHK,2020-12-28 12:00,ZJHK 281200Z 08003MPS 9999 SCT019 21/19 Q1012 NOSIG
ZJHK,2020-12-28 13:00,ZJHK 281300Z 10002MPS 9999 SCT019 21/19 Q1013 NOSIG
ZJHK,2020-12-28 14:00,ZJHK 281400Z 10002MPS 060V130 9999 BKN019 20/19 Q1013 NOSIG
ZJHK,2020-12-28 15:00,ZJHK 281500Z 12001MPS 8000 FEW019 19/19 Q1013 NOSIG
ZJHK,2020-12-28 16:00,ZJHK 281600Z 00000MPS 7000 FEW019 18/18 Q1013 NOSIG
ZJHK,2020-12-28 17:00,ZJHK 281700Z 00000MPS 7000 BKN018 18/18 Q1013 NOSIG
ZJHK,2020-12-28 18:00,ZJHK 281800Z VRB01MPS 6000 BKN017 19/19 Q1013 NOSIG
ZJHK,2020-12-28 19:00,ZJHK 281900Z VRB01MPS 6000 FEW014 SCT030 19/19 Q1012 NOSIG
ZJHK,2020-12-28 20:00,ZJHK 282000Z 01001MPS 6000 SCT010 BKN030 19/19 Q1012 NOSIG
ZJHK,2020-12-28 21:00,ZJHK 282100Z 05002MPS 2000 BR SCT002 BKN003 20/20 Q1013 BECMG TL2140 0700 FG
ZJHK,2020-12-28 22:00,ZJHK 282200Z 08004MPS 1200 R09/1100U BR SCT002 BKN003 20/20 Q1013 BECMG TL2240 0700 FG
ZJHK,2020-12-28 23:00,ZJHK 282300Z 09003MPS 5000 BR SCT002 BKN003 20/20 Q1014 BECMG TL0040 BKN005
ZJHK,2020-12-29 00:00,ZJHK 290000Z 06004MPS 2500 BR SCT002 BKN004 21/21 Q1014 BECMG TL0040 5000 SCT005
ZJHK,2020-12-29 01:00,ZJHK 290100Z 06003MPS 3500 BR BKN003 BKN023 21/21 Q1015 BECMG TL0250 BKN005
ZJHK,2020-12-29 02:00,ZJHK 290200Z 06004MPS 3500 BR BKN004 BKN023 21/21 Q1016 NOSIG
ZJHK,2020-12-29 03:00,ZJHK 290300Z 06004MPS 6000 BKN005 BKN023 22/21 Q1016 NOSIG
ZJHK,2020-12-29 04:00,ZJHK 290400Z 08005MPS 7000 BKN008 BKN023 23/21 Q1015 NOSIG
ZJHK,2020-12-29 05:00,ZJHK 290500Z 05003MPS 020V080 9999 BKN008 BKN033 24/21 Q1014 NOSIG
ZJHK,2020-12-29 06:00,ZJHK 290600Z 02004MPS 9999 SCT010 BKN033 24/20 Q1013 NOSIG
ZJHK,2020-12-29 07:00,ZJHK 290700Z 06005MPS 9999 FEW010 BKN023 25/20 Q1012 NOSIG
ZJHK,2020-12-29 08:00,ZJHK 290800Z 07005MPS 9999 BKN023 24/20 Q1012 NOSIG
ZJHK,2020-12-29 09:00,ZJHK 290900Z 03005MPS 9999 BKN020 23/20 Q1013 NOSIG
ZJHK,2020-12-29 10:00,ZJHK 291000Z 03005MPS 360V060 9999 SCT010 BKN023 22/20 Q1013 NOSIG
ZJHK,2020-12-29 11:00,ZJHK 291100Z 03005MPS 7000 BKN006 BKN023 21/20 Q1014 NOSIG
ZJHK,2020-12-29 12:00,ZJHK 291200Z 04005MPS 7000 BKN005 BKN023 20/20 Q1015 NOSIG
ZJHK,2020-12-29 13:00,ZJHK 291300Z 02003MPS 340V060 7000 BKN005 BKN023 20/20 Q1016 NOSIG
ZJHK,2020-12-29 14:00,ZJHK 291400Z 02003MPS 340V060 5000 BR BKN005 BKN023 20/20 Q1016 NOSIG
ZJHK,2020-12-29 15:00,ZJHK 291500Z 09002MPS 020V130 7000 BKN005 BKN023 20/20 Q1016 NOSIG
ZJHK,2020-12-29 16:00,ZJHK 291600Z 36003MPS 340V040 7000 BKN005 BKN023 20/19 Q1017 NOSIG
ZJHK,2020-12-29 17:00,ZJHK 291700Z VRB01MPS 7000 BKN005 BKN023 19/19 Q1017 NOSIG
ZJHK,2020-12-29 18:00,ZJHK 291800Z 31002MPS 5000 BR BKN004 BKN023 19/19 Q1017 NOSIG
ZJHK,2020-12-29 19:00,ZJHK 291900Z 34003MPS 7000 BKN004 BKN023 19/19 Q1017 NOSIG
ZJHK,2020-12-29 20:00,ZJHK 292000Z 36006MPS 330V040 7000 BKN006 BKN023 19/18 Q1018 NOSIG
ZJHK,2020-12-29 21:00,ZJHK 292100Z 01005G11MPS 9999 FEW020 19/15 Q1018 NOSIG
ZJHK,2020-12-29 22:00,ZJHK 292200Z 01005MPS 9999 BKN020 19/14 Q1019 NOSIG
ZJHK,2020-12-29 23:00,ZJHK 292300Z 02007MPS 9999 BKN020 19/13 Q1020 NOSIG
ZJHK,2020-12-30 00:00,ZJHK 300000Z 02007MPS 350V050 9999 OVC020 18/13 Q1021 NOSIG
ZJHK,2020-12-30 01:00,ZJHK 300100Z 02006MPS 350V050 9999 BKN020 18/12 Q1023 NOSIG
ZJHK,2020-12-30 02:00,ZJHK 300200Z 02007MPS 9999 BKN020 17/12 Q1023 NOSIG
ZJHK,2020-12-30 03:00,ZJHK 300300Z 02007G12MPS 9999 BKN026 18/12 Q1023 NOSIG
ZJHK,2020-12-30 04:00,ZJHK 300400Z 02007MPS 350V050 9999 BKN026 18/11 Q1023 NOSIG
ZJHK,2020-12-30 05:00,ZJHK 300500Z 03008MPS 350V070 9999 BKN030 19/10 Q1022 NOSIG
ZJHK,2020-12-30 06:00,ZJHK 300600Z 03008G14MPS 360V060 9999 SCT030 18/10 Q1021 NOSIG
ZJHK,2020-12-30 07:00,ZJHK 300700Z 02007MPS 350V050 9999 SCT030 18/10 Q1021 NOSIG
ZJHK,2020-12-30 08:00,ZJHK 300800Z 03007MPS 350V050 9999 SCT030 17/09 Q1021 NOSIG
ZJHK,2020-12-30 09:00,ZJHK 300900Z 05007MPS 010V070 9999 FEW030 17/09 Q1021 NOSIG
ZJHK,2020-12-30 10:00,ZJHK 301000Z 04005MPS 9999 FEW030 16/09 Q1022 NOSIG
ZJHK,2020-12-30 11:00,ZJHK 301100Z 07004MPS 9999 FEW030 15/09 Q1023 NOSIG
ZJHK,2020-12-30 12:00,ZJHK 301200Z 05004G09MPS 020V080 9999 SCT033 16/09 Q1023 NOSIG
ZJHK,2020-12-30 13:00,ZJHK 301300Z 05005MPS 020V080 9999 BKN046 16/09 Q1024 NOSIG
ZJHK,2020-12-30 14:00,ZJHK 301400Z 06005MPS 030V090 CAVOK 16/09 Q1024 NOSIG
ZJHK,2020-12-30 15:00,ZJHK 301500Z 06006MPS 9999 BKN033 16/09 Q1025 NOSIG
ZJHK,2020-12-30 16:00,ZJHK 301600Z 06007MPS 9999 BKN040 16/08 Q1024 NOSIG
ZJHK,2020-12-30 17:00,ZJHK 301700Z 06007MPS 9999 BKN040 15/07 Q1025 NOSIG
ZJHK,2020-12-30 18:00,ZJHK 301800Z 06008MPS 9999 BKN033 15/07 Q1025 NOSIG
ZJHK,2020-12-30 19:00,ZJHK 301900Z 06008MPS 9999 BKN033 14/07 Q1025 NOSIG
ZJHK,2020-12-30 20:00,ZJHK 302000Z 06009G14MPS 9999 BKN033 14/06 Q1024 NOSIG
ZJHK,2020-12-30 21:00,ZJHK 302100Z 06008G13MPS 9999 BKN033 13/06 Q1025 NOSIG
ZJHK,2020-12-30 22:00,ZJHK 302200Z 05008MPS 9999 BKN033 13/06 Q1025 NOSIG
ZJHK,2020-12-30 23:00,ZJHK 302300Z 06007MPS 9999 BKN033 13/07 Q1026 NOSIG
