station,valid,metar
ZGMX,2019-08-23 11:00,ZGMX 231100Z VRB01MPS 9999 BKN023 32/26 Q1004 NOSIG
