station,valid,metar
ZBUL,2014-02-10 03:00,ZBUL 100300Z VRB01MPS CAVOK M13/M22 Q1031 NOSIG
ZBUL,2014-09-19 21:00,ZBUL 192100Z VRB01MPS CAVOK 10/09 Q1011 NOSIG
ZBUL,2014-09-19 22:00,ZBUL 192200Z VRB01MPS CAVOK 11/09 Q1012 NOSIG
ZBUL,2014-09-19 23:31,ZBUL 192331Z 07002MPS 030V090 9999 SCT040 14/09 Q1013 NOSIG
