station,valid,metar
ZBCZ,2014-02-06 03:00,ZBCZ 060300Z 06005MPS 1300 R01/1000V1600U -SN BR OVC030 M07/M09 Q1022 NOSIG
ZBCZ,2014-11-18 01:00,ZBCZ 180100Z VRB01MPS 4100 BR NSC M01/M03 Q1031 NOSIG
