station,valid,metar
ZHLY,2019-09-29 02:00,ZHLY 290200Z 00000MPS 7000 NSC 25/14 Q1018 NOSIG
ZHLY,2019-10-02 02:30,ZHLY 020230Z VRB02MPS 8000 NSC 26/15 Q1015 NOSIG
ZHLY,2019-10-25 02:00,ZHLY 250200Z 24002MPS 220V290 CAVOK 13/05 Q1029 NOSIG
ZHLY,2019-12-13 01:00,ZHLY 130100Z 00000MPS 5000 HZ NSC 05/M04 Q1024 NOSIG
ZHLY,2019-12-16 03:00,ZHLY 160300Z 27004MPS 3200 BR NSC 06/03 Q1020 NOSIG
ZHLY,2019-12-20 03:00,ZHLY 200300Z 08002MPS 2400 BR NSC 01/M02 Q1030 NOSIG
ZHLY,2019-12-29 00:00,ZHLY 290000Z VRB01MPS 5000 BR NSC M01/M04 Q1017 NOSIG
