station,valid,metar
ZHLY,2016-12-22 20:00,ZHLY 222000Z 31003MPS CAVOK 01/M04 Q1027 NOSIG
