station,valid,metar
ZHLY,2011-03-10 23:00,ZHLY 102300Z 26001MPS 7000 NSC 04/M12 Q1021 NOSIG
ZHLY,2011-03-11 00:00,ZHLY 110000Z 30001MPS CAVOK Q1021 NOSIG
ZHLY,2011-03-11 01:00,ZHLY 110100Z VRB01MPS 8000 NSC 09/M11 Q1021 NOSIG
ZHLY,2011-03-11 02:00,ZHLY 110200Z 27002MPS 240V300 6000 NSC 11/M13 Q1021 NOSIG
