station,valid,metar
ZHCC,2021-01-01 00:00,ZHCC 010000Z 20002MPS 130V230 CAVOK M04/M14 Q1026 NOSIG
ZHCC,2021-01-01 01:00,ZHCC 010100Z 21003MPS CAVOK M01/M13 Q1027 NOSIG
ZHCC,2021-01-01 02:00,ZHCC 010200Z 26005MPS CAVOK 03/M14 Q1027 NOSIG
ZHCC,2021-01-01 03:00,ZHCC 010300Z 29007MPS CAVOK 06/M16 Q1026 NOSIG
ZHCC,2021-01-01 04:00,ZHCC 010400Z 30008MPS CAVOK 07/M16 Q1025 NOSIG
ZHCC,2021-01-01 05:00,ZHCC 010500Z 31007MPS CAVOK 08/M16 Q1024 NOSIG
ZHCC,2021-01-01 06:00,ZHCC 010600Z 32006MPS CAVOK 09/M15 Q1024 NOSIG
ZHCC,2021-01-01 07:00,ZHCC 010700Z 32005MPS 290V350 CAVOK 10/M16 Q1024 NOSIG
ZHCC,2021-01-01 08:00,ZHCC 010800Z 30005MPS 270V330 CAVOK 10/M16 Q1024 NOSIG
ZHCC,2021-01-01 09:00,ZHCC 010900Z 29003MPS CAVOK 08/M15 Q1024 NOSIG
ZHCC,2021-01-01 10:00,ZHCC 011000Z 19001MPS CAVOK 02/M13 Q1025 NOSIG
ZHCC,2021-01-01 11:00,ZHCC 011100Z 15001MPS CAVOK M01/M10 Q1026 NOSIG
ZHCC,2021-01-01 12:00,ZHCC 011200Z 15001MPS CAVOK M02/M10 Q1026 NOSIG
ZHCC,2021-01-01 13:00,ZHCC 011300Z 00000MPS CAVOK M01/M10 Q1027 NOSIG
ZHCC,2021-01-01 14:00,ZHCC 011400Z 00000MPS CAVOK M03/M09 Q1027 NOSIG
ZHCC,2021-01-01 15:00,ZHCC 011500Z VRB01MPS CAVOK M03/M09 Q1027 NOSIG
ZHCC,2021-01-01 16:00,ZHCC 011600Z 25001MPS CAVOK M03/M10 Q1027 NOSIG
ZHCC,2021-01-01 17:00,ZHCC 011700Z VRB01MPS CAVOK M04/M10 Q1026 NOSIG
ZHCC,2021-01-01 18:00,ZHCC 011800Z VRB01MPS CAVOK M04/M11 Q1026 NOSIG
ZHCC,2021-01-01 19:00,ZHCC 011900Z 00000MPS CAVOK M05/M10 Q1026 NOSIG
ZHCC,2021-01-01 20:00,ZHCC 012000Z 00000MPS CAVOK M06/M10 Q1026 NOSIG
ZHCC,2021-01-01 21:00,ZHCC 012100Z VRB01MPS CAVOK M03/M10 Q1026 NOSIG
ZHCC,2021-01-01 22:00,ZHCC 012200Z 31001MPS CAVOK M04/M10 Q1026 NOSIG
ZHCC,2021-01-01 23:00,ZHCC 012300Z VRB01MPS CAVOK M04/M10 Q1026 NOSIG
ZHCC,2021-01-02 00:00,ZHCC 020000Z VRB01MPS CAVOK M04/M09 Q1027 NOSIG
ZHCC,2021-01-02 01:00,ZHCC 020100Z VRB01MPS CAVOK M01/M07 Q1028 NOSIG
ZHCC,2021-01-02 02:00,ZHCC 020200Z 00000MPS CAVOK 04/M07 Q1028 NOSIG
ZHCC,2021-01-02 03:00,ZHCC 020300Z VRB01MPS CAVOK 06/M10 Q1028 NOSIG
ZHCC,2021-01-02 04:00,ZHCC 020400Z 03002MPS 330V070 CAVOK 07/M11 Q1027 NOSIG
ZHCC,2021-01-02 05:00,ZHCC 020500Z VRB01MPS CAVOK 08/M11 Q1026 NOSIG
ZHCC,2021-01-02 06:00,ZHCC 020600Z VRB02MPS CAVOK 09/M12 Q1026 NOSIG
ZHCC,2021-01-02 07:00,ZHCC 020700Z 11002MPS 070V140 CAVOK 10/M11 Q1025 NOSIG
ZHCC,2021-01-02 08:00,ZHCC 020800Z 10003MPS CAVOK 10/M11 Q1025 NOSIG
ZHCC,2021-01-02 09:00,ZHCC 020900Z 11003MPS CAVOK 07/M11 Q1026 NOSIG
ZHCC,2021-01-02 10:00,ZHCC 021000Z 05004MPS CAVOK 06/M09 Q1027 NOSIG
ZHCC,2021-01-02 11:00,ZHCC 021100Z 03005MPS 010V080 CAVOK 04/M08 Q1028 NOSIG
ZHCC,2021-01-02 12:00,ZHCC 021200Z 04004MPS 7000 NSC 03/M08 Q1029 NOSIG
ZHCC,2021-01-02 13:00,ZHCC 021300Z 03005MPS 7000 NSC 03/M07 Q1030 NOSIG
ZHCC,2021-01-02 14:00,ZHCC 021400Z 05002MPS 020V080 7000 NSC 03/M07 Q1030 NOSIG
ZHCC,2021-01-02 15:00,ZHCC 021500Z 03003MPS 350V060 7000 NSC 03/M07 Q1030 NOSIG
ZHCC,2021-01-02 16:00,ZHCC 021600Z 03002MPS 350V070 5000 HZ NSC 02/M06 Q1031 NOSIG
ZHCC,2021-01-02 17:00,ZHCC 021700Z 02004MPS 340V060 5000 HZ NSC 02/M07 Q1031 NOSIG
ZHCC,2021-01-02 18:00,ZHCC 021800Z 03004MPS 360V080 5000 HZ NSC 01/M08 Q1031 NOSIG
ZHCC,2021-01-02 19:00,ZHCC 021900Z 36003MPS 330V030 5000 HZ NSC 01/M09 Q1032 NOSIG
ZHCC,2021-01-02 20:00,ZHCC 022000Z 01003MPS 5000 HZ NSC 00/M10 Q1032 NOSIG
ZHCC,2021-01-02 21:00,ZHCC 022100Z 02003MPS 360V070 5000 HZ NSC 00/M10 Q1032 NOSIG
ZHCC,2021-01-02 22:00,ZHCC 022200Z 01004MPS 5000 HZ NSC M00/M09 Q1032 NOSIG
ZHCC,2021-01-02 23:00,ZHCC 022300Z 35003MPS 330V040 5000 HZ NSC M01/M09 Q1033 NOSIG
ZHCC,2021-01-03 00:00,ZHCC 030000Z 01004MPS 350V060 5000 HZ NSC M01/M09 Q1033 NOSIG
ZHCC,2021-01-03 01:00,ZHCC 030100Z 01004MPS 350V050 5000 HZ NSC M01/M09 Q1034 NOSIG
ZHCC,2021-01-03 02:00,ZHCC 030200Z 36004MPS 330V040 5000 HZ NSC 00/M10 Q1033 NOSIG
ZHCC,2021-01-03 03:00,ZHCC 030300Z 01004MPS 340V040 5000 HZ NSC 01/M10 Q1033 NOSIG
ZHCC,2021-01-03 04:00,ZHCC 030400Z 02003MPS 340V050 5000 HZ NSC 02/M10 Q1032 NOSIG
ZHCC,2021-01-03 05:00,ZHCC 030500Z 03003MPS 5000 HZ NSC 03/M10 Q1030 NOSIG
ZHCC,2021-01-03 06:00,ZHCC 030600Z 01003MPS 340V080 5000 HZ NSC 03/M09 Q1030 NOSIG
ZHCC,2021-01-03 07:00,ZHCC 030700Z 05003MPS 010V090 5000 HZ NSC 03/M08 Q1030 NOSIG
ZHCC,2021-01-03 08:00,ZHCC 030800Z 03003MPS 360V070 5000 HZ NSC 03/M09 Q1030 NOSIG
ZHCC,2021-01-03 09:00,ZHCC 030900Z 05003MPS 5000 HZ NSC 02/M10 Q1030 NOSIG
ZHCC,2021-01-03 10:00,ZHCC 031000Z 06002MPS 6000 NSC 01/M10 Q1030 NOSIG
ZHCC,2021-01-03 11:00,ZHCC 031100Z 05002MPS 6000 NSC 01/M10 Q1031 NOSIG
ZHCC,2021-01-03 12:00,ZHCC 031200Z 06002MPS 6000 NSC 00/M09 Q1032 NOSIG
ZHCC,2021-01-03 13:00,ZHCC 031300Z 16001MPS 5000 HZ NSC M04/M09 Q1031 NOSIG
ZHCC,2021-01-03 14:00,ZHCC 031400Z VRB01MPS 5000 HZ NSC M03/M08 Q1031 NOSIG
ZHCC,2021-01-03 15:00,ZHCC 031500Z 00000MPS 5000 HZ NSC M04/M09 Q1031 NOSIG
ZHCC,2021-01-03 16:00,ZHCC 031600Z 12001MPS 5000 HZ NSC M06/M09 Q1030 NOSIG
ZHCC,2021-01-03 17:00,ZHCC 031700Z 27001MPS 4000 HZ NSC M05/M09 Q1030 NOSIG
ZHCC,2021-01-03 18:00,ZHCC 031800Z 27002MPS 4000 HZ NSC M05/M09 Q1031 NOSIG
ZHCC,2021-01-03 19:00,ZHCC 031900Z 31001MPS 4000 HZ NSC M04/M08 Q1030 NOSIG
ZHCC,2021-01-03 20:00,ZHCC 032000Z 25001MPS 4000 HZ NSC M04/M08 Q1030 NOSIG
ZHCC,2021-01-03 21:00,ZHCC 032100Z 00000MPS 4000 BR NSC M07/M10 Q1029 NOSIG
ZHCC,2021-01-03 22:00,ZHCC 032200Z VRB01MPS 4000 BR NSC M06/M09 Q1029 NOSIG
ZHCC,2021-01-03 23:00,ZHCC 032300Z 29001MPS 4000 BR NSC M07/M09 Q1029 NOSIG
ZHCC,2021-01-04 00:00,ZHCC 040000Z VRB01MPS 3000 BR NSC M06/M09 Q1030 NOSIG
ZHCC,2021-01-04 01:00,ZHCC 040100Z VRB01MPS 2000 BR NSC M02/M06 Q1030 BECMG TL0240 3000
ZHCC,2021-01-04 02:00,ZHCC 040200Z 34003MPS 320V030 2500 HZ NSC 01/M08 Q1031 BECMG TL0240 3000
ZHCC,2021-01-04 03:00,ZHCC 040300Z 01004MPS 340V040 3000 HZ NSC 01/M08 Q1031 NOSIG
ZHCC,2021-01-04 04:00,ZHCC 040400Z 35005MPS 3000 HZ NSC 02/M08 Q1030 NOSIG
ZHCC,2021-01-04 05:00,ZHCC 040500Z 03005MPS 2000 HZ NSC 02/M07 Q1029 NOSIG
ZHCC,2021-01-04 06:00,ZHCC 040600Z 02004MPS 340V060 2000 HZ NSC 02/M06 Q1028 NOSIG
ZHCC,2021-01-04 07:00,ZHCC 040700Z 05004MPS 2500 HZ NSC 01/M08 Q1029 BECMG TL0800 3000
ZHCC,2021-01-04 08:00,ZHCC 040800Z 03003MPS 350V070 3000 HZ NSC 01/M08 Q1030 NOSIG
ZHCC,2021-01-04 09:00,ZHCC 040900Z 03003MPS 3000 HZ NSC 01/M08 Q1030 NOSIG
ZHCC,2021-01-04 10:00,ZHCC 041000Z 01003MPS 350V050 5000 HZ NSC 01/M07 Q1031 NOSIG
ZHCC,2021-01-04 11:00,ZHCC 041100Z 03004MPS 5000 HZ NSC 00/M07 Q1032 NOSIG
ZHCC,2021-01-04 12:00,ZHCC 041200Z 03003MPS 360V070 5000 HZ NSC 00/M07 Q1032 NOSIG
ZHCC,2021-01-04 13:00,ZHCC 041300Z 01004MPS 350V060 5000 HZ NSC M00/M07 Q1033 NOSIG
ZHCC,2021-01-04 14:00,ZHCC 041400Z 01004MPS 5000 HZ NSC M01/M07 Q1033 NOSIG
ZHCC,2021-01-04 15:00,ZHCC 041500Z 01004MPS 330V060 5000 HZ NSC M01/M08 Q1033 NOSIG
ZHCC,2021-01-04 16:00,ZHCC 041600Z 35003MPS 320V020 5000 HZ NSC M01/M08 Q1034 NOSIG
ZHCC,2021-01-04 17:00,ZHCC 041700Z 01004MPS 340V040 5000 HZ NSC M01/M07 Q1034 NOSIG
ZHCC,2021-01-04 18:00,ZHCC 041800Z 01004MPS 340V040 5000 HZ NSC M01/M07 Q1034 NOSIG
ZHCC,2021-01-04 19:00,ZHCC 041900Z 01004MPS 5000 HZ NSC M01/M07 Q1034 NOSIG
ZHCC,2021-01-04 20:00,ZHCC 042000Z 02004MPS 350V050 5000 HZ NSC M01/M08 Q1034 NOSIG
ZHCC,2021-01-04 21:00,ZHCC 042100Z 01003MPS 350V050 5000 HZ NSC M01/M07 Q1035 NOSIG
ZHCC,2021-01-04 22:00,ZHCC 042200Z 35003MPS 5000 HZ NSC M02/M08 Q1036 NOSIG
ZHCC,2021-01-04 23:00,ZHCC 042300Z 36004MPS 5000 HZ NSC M02/M08 Q1036 NOSIG
ZHCC,2021-01-05 00:00,ZHCC 050000Z 01005MPS 3000 HZ NSC M02/M08 Q1036 NOSIG
ZHCC,2021-01-05 01:00,ZHCC 050100Z 36004MPS 5000 HZ NSC M02/M10 Q1037 NOSIG
ZHCC,2021-01-05 02:00,ZHCC 050200Z 02005MPS 8000 NSC M02/M11 Q1037 NOSIG
ZHCC,2021-01-05 03:00,ZHCC 050300Z 01004MPS 350V050 CAVOK M01/M11 Q1037 NOSIG
ZHCC,2021-01-05 04:00,ZHCC 050400Z 02003MPS 340V050 CAVOK 01/M12 Q1036 NOSIG
ZHCC,2021-01-05 05:00,ZHCC 050500Z 06004MPS CAVOK 01/M12 Q1035 NOSIG
ZHCC,2021-01-05 06:00,ZHCC 050600Z 04003MPS 350V130 CAVOK 01/M12 Q1034 NOSIG
ZHCC,2021-01-05 07:00,ZHCC 050700Z 05002MPS 020V090 8000 NSC 01/M12 Q1034 NOSIG
ZHCC,2021-01-05 08:00,ZHCC 050800Z VRB01MPS 6000 NSC 02/M11 Q1033 NOSIG
ZHCC,2021-01-05 09:00,ZHCC 050900Z 12002MPS 6000 NSC M00/M10 Q1034 NOSIG
ZHCC,2021-01-05 10:00,ZHCC 051000Z 12002MPS 8000 NSC M01/M10 Q1034 NOSIG
ZHCC,2021-01-05 11:00,ZHCC 051100Z 16001MPS 8000 NSC M01/M10 Q1034 NOSIG
ZHCC,2021-01-05 12:00,ZHCC 051200Z VRB01MPS 8000 NSC M03/M10 Q1034 NOSIG
ZHCC,2021-01-05 13:00,ZHCC 051300Z 21001MPS 8000 NSC M03/M10 Q1034 NOSIG
ZHCC,2021-01-05 14:00,ZHCC 051400Z 19001MPS 8000 NSC M02/M09 Q1034 NOSIG
ZHCC,2021-01-05 15:00,ZHCC 051500Z 21002MPS 7000 NSC M03/M09 Q1033 NOSIG
ZHCC,2021-01-05 16:00,ZHCC 051600Z 22001MPS 6000 NSC M05/M09 Q1033 NOSIG
ZHCC,2021-01-05 17:00,ZHCC 051700Z 21001MPS 6000 NSC M05/M09 Q1032 NOSIG
ZHCC,2021-01-05 18:00,ZHCC 051800Z 23002MPS 6000 NSC M03/M09 Q1032 NOSIG
ZHCC,2021-01-05 19:00,ZHCC 051900Z 25002MPS 6000 NSC M04/M10 Q1031 NOSIG
ZHCC,2021-01-05 20:00,ZHCC 052000Z VRB01MPS 6000 NSC M06/M10 Q1031 NOSIG
ZHCC,2021-01-05 21:00,ZHCC 052100Z 23001MPS 6000 NSC M07/M11 Q1030 NOSIG
ZHCC,2021-01-05 22:00,ZHCC 052200Z 28001MPS 6000 NSC M06/M10 Q1031 NOSIG
ZHCC,2021-01-05 23:00,ZHCC 052300Z 30002MPS 7000 NSC M05/M11 Q1030 NOSIG
ZHCC,2021-01-06 00:00,ZHCC 060000Z 26002MPS 8000 NSC M03/M12 Q1031 NOSIG
ZHCC,2021-01-06 01:00,ZHCC 060100Z 29004MPS 8000 NSC M01/M11 Q1032 NOSIG
ZHCC,2021-01-06 02:00,ZHCC 060200Z 30009MPS 8000 NSC 01/M16 Q1032 NOSIG
ZHCC,2021-01-06 03:00,ZHCC 060300Z 31007G13MPS 280V360 8000 NSC 03/M17 Q1032 NOSIG
ZHCC,2021-01-06 04:00,ZHCC 060400Z 31009MPS CAVOK 03/M22 Q1031 NOSIG
ZHCC,2021-01-06 05:00,ZHCC 060500Z 32008MPS CAVOK 04/M22 Q1030 NOSIG
ZHCC,2021-01-06 06:00,ZHCC 060600Z 32008MPS CAVOK 03/M24 Q1030 NOSIG
ZHCC,2021-01-06 07:00,ZHCC 060700Z 31008MPS CAVOK 03/M24 Q1030 NOSIG
ZHCC,2021-01-06 08:00,ZHCC 060800Z 31006MPS 270V340 CAVOK 02/M24 Q1030 NOSIG
ZHCC,2021-01-06 09:00,ZHCC 060900Z 31007MPS CAVOK 01/M25 Q1031 NOSIG
ZHCC,2021-01-06 10:00,ZHCC 061000Z 31005MPS CAVOK M00/M22 Q1032 NOSIG
ZHCC,2021-01-06 11:00,ZHCC 061100Z 05003MPS 350V090 CAVOK M01/M18 Q1034 NOSIG
ZHCC,2021-01-06 12:00,ZHCC 061200Z 06003MPS 020V090 CAVOK M02/M17 Q1035 NOSIG
ZHCC,2021-01-06 13:00,ZHCC 061300Z 02005MPS CAVOK M03/M19 Q1036 NOSIG
ZHCC,2021-01-06 14:00,ZHCC 061400Z 01005MPS CAVOK M05/M23 Q1038 NOSIG
ZHCC,2021-01-06 15:00,ZHCC 061500Z 01006MPS CAVOK M06/M24 Q1039 NOSIG
ZHCC,2021-01-06 16:00,ZHCC 061600Z 03005MPS CAVOK M07/M25 Q1040 NOSIG
ZHCC,2021-01-06 17:00,ZHCC 061700Z 04004MPS 360V070 CAVOK M09/M26 Q1040 NOSIG
ZHCC,2021-01-06 18:00,ZHCC 061800Z 03005MPS CAVOK M09/M27 Q1041 NOSIG
ZHCC,2021-01-06 19:00,ZHCC 061900Z 02004MPS CAVOK M10/M29 Q1041 NOSIG
ZHCC,2021-01-06 20:00,ZHCC 062000Z 04003MPS CAVOK M10/M28 Q1040 NOSIG
ZHCC,2021-01-06 21:00,ZHCC 062100Z 04004MPS CAVOK M11/M27 Q1040 NOSIG
ZHCC,2021-01-06 22:00,ZHCC 062200Z 07003MPS 050V110 CAVOK M12/M26 Q1041 NOSIG
ZHCC,2021-01-06 23:00,ZHCC 062300Z VRB01MPS CAVOK M12/M26 Q1042 NOSIG
ZHCC,2021-01-07 00:00,ZHCC 070000Z 15002MPS 130V190 CAVOK M13/M27 Q1042 NOSIG
ZHCC,2021-01-07 01:00,ZHCC 070100Z VRB01MPS CAVOK M11/M25 Q1042 NOSIG
ZHCC,2021-01-07 02:00,ZHCC 070200Z 26002MPS 230V300 CAVOK M09/M25 Q1042 NOSIG
ZHCC,2021-01-07 03:00,ZHCC 070300Z 29006MPS 270V330 CAVOK M06/M26 Q1041 NOSIG
ZHCC,2021-01-07 04:00,ZHCC 070400Z 30007MPS 270V330 CAVOK M06/M26 Q1039 NOSIG
ZHCC,2021-01-07 05:00,ZHCC 070500Z 29005MPS 200V330 CAVOK M04/M25 Q1038 NOSIG
ZHCC,2021-01-07 06:00,ZHCC 070600Z 29006MPS 260V320 CAVOK M03/M26 Q1036 NOSIG
ZHCC,2021-01-07 07:00,ZHCC 070700Z 28005MPS 250V310 CAVOK M03/M25 Q1036 NOSIG
ZHCC,2021-01-07 08:00,ZHCC 070800Z 28007MPS CAVOK M03/M26 Q1036 NOSIG
ZHCC,2021-01-07 09:00,ZHCC 070900Z 29004MPS CAVOK M04/M25 Q1036 NOSIG
ZHCC,2021-01-07 10:00,ZHCC 071000Z 27003MPS CAVOK M05/M25 Q1036 NOSIG
ZHCC,2021-01-07 11:00,ZHCC 071100Z 28003MPS CAVOK M04/M24 Q1037 NOSIG
ZHCC,2021-01-07 12:00,ZHCC 071200Z 28006MPS CAVOK M04/M24 Q1036 NOSIG
ZHCC,2021-01-07 13:00,ZHCC 071300Z 29005MPS CAVOK M04/M24 Q1036 NOSIG
ZHCC,2021-01-07 14:00,ZHCC 071400Z 28005MPS CAVOK M04/M24 Q1037 NOSIG
ZHCC,2021-01-07 15:00,ZHCC 071500Z 28005MPS CAVOK M05/M24 Q1036 NOSIG
ZHCC,2021-01-07 16:00,ZHCC 071600Z 28007MPS CAVOK M05/M23 Q1035 NOSIG
ZHCC,2021-01-07 17:00,ZHCC 071700Z 29006MPS CAVOK M05/M24 Q1035 NOSIG
ZHCC,2021-01-07 18:00,ZHCC 071800Z 29007MPS CAVOK M06/M24 Q1035 NOSIG
ZHCC,2021-01-07 19:00,ZHCC 071900Z 28007MPS CAVOK M06/M24 Q1035 NOSIG
ZHCC,2021-01-07 20:00,ZHCC 072000Z 26005MPS CAVOK M06/M23 Q1035 NOSIG
ZHCC,2021-01-07 21:00,ZHCC 072100Z 29006MPS CAVOK M06/M23 Q1034 NOSIG
ZHCC,2021-01-07 22:00,ZHCC 072200Z 28005MPS CAVOK M06/M23 Q1034 NOSIG
ZHCC,2021-01-07 23:00,ZHCC 072300Z 28005MPS CAVOK M06/M22 Q1034 NOSIG
ZHCC,2021-01-08 00:00,ZHCC 080000Z 29006MPS CAVOK M06/M22 Q1035 NOSIG
ZHCC,2021-01-08 01:00,ZHCC 080100Z 29008MPS CAVOK M04/M22 Q1035 NOSIG
ZHCC,2021-01-08 02:00,ZHCC 080200Z 29009G15MPS CAVOK M02/M23 Q1035 NOSIG
ZHCC,2021-01-08 03:00,ZHCC 080300Z 30010MPS CAVOK M01/M23 Q1035 NOSIG
ZHCC,2021-01-08 04:00,ZHCC 080400Z 31009MPS CAVOK M00/M25 Q1034 NOSIG
ZHCC,2021-01-08 05:00,ZHCC 080500Z 30007MPS 260V330 CAVOK 00/M24 Q1032 NOSIG
ZHCC,2021-01-08 06:00,ZHCC 080600Z 30008MPS CAVOK 01/M24 Q1031 NOSIG
ZHCC,2021-01-08 07:00,ZHCC 080700Z 29007MPS CAVOK 02/M24 Q1031 NOSIG
ZHCC,2021-01-08 08:00,ZHCC 080800Z 27007MPS 250V310 CAVOK 01/M24 Q1031 NOSIG
ZHCC,2021-01-08 09:00,ZHCC 080900Z 29006MPS 260V320 CAVOK 01/M24 Q1030 NOSIG
ZHCC,2021-01-08 10:00,ZHCC 081000Z 28004MPS CAVOK M01/M22 Q1030 NOSIG
ZHCC,2021-01-08 11:00,ZHCC 081100Z 27004MPS CAVOK M02/M21 Q1030 NOSIG
ZHCC,2021-01-08 12:00,ZHCC 081200Z 28005MPS CAVOK M02/M21 Q1031 NOSIG
ZHCC,2021-01-08 13:00,ZHCC 081300Z 28005MPS CAVOK M02/M21 Q1031 NOSIG
ZHCC,2021-01-08 14:00,ZHCC 081400Z 25003MPS CAVOK M03/M20 Q1031 NOSIG
ZHCC,2021-01-08 15:00,ZHCC 081500Z 24004MPS CAVOK M03/M20 Q1030 NOSIG
ZHCC,2021-01-08 16:00,ZHCC 081600Z 27005MPS CAVOK M03/M20 Q1030 NOSIG
ZHCC,2021-01-08 17:00,ZHCC 081700Z 29006MPS CAVOK M03/M21 Q1030 NOSIG
ZHCC,2021-01-08 18:00,ZHCC 081800Z 29003MPS CAVOK M03/M21 Q1030 NOSIG
ZHCC,2021-01-08 19:00,ZHCC 081900Z 29005MPS CAVOK M03/M21 Q1031 NOSIG
ZHCC,2021-01-08 20:00,ZHCC 082000Z 31006MPS CAVOK M02/M21 Q1030 NOSIG
ZHCC,2021-01-08 21:00,ZHCC 082100Z 28005MPS CAVOK M03/M20 Q1030 NOSIG
ZHCC,2021-01-08 22:00,ZHCC 082200Z 28004MPS CAVOK M04/M20 Q1030 NOSIG
ZHCC,2021-01-08 23:00,ZHCC 082300Z 29004MPS CAVOK M05/M20 Q1031 NOSIG
ZHCC,2021-01-09 00:00,ZHCC 090000Z 29002MPS CAVOK M05/M20 Q1031 NOSIG
ZHCC,2021-01-09 01:00,ZHCC 090100Z 30003MPS CAVOK M01/M19 Q1032 NOSIG
ZHCC,2021-01-09 02:00,ZHCC 090200Z 30008MPS CAVOK 01/M22 Q1032 NOSIG
ZHCC,2021-01-09 03:00,ZHCC 090300Z 31008MPS CAVOK 02/M23 Q1032 NOSIG
ZHCC,2021-01-09 04:00,ZHCC 090400Z 31007MPS CAVOK 01/M23 Q1031 NOSIG
ZHCC,2021-01-09 05:00,ZHCC 090500Z 31006MPS CAVOK 03/M22 Q1030 NOSIG
ZHCC,2021-01-09 06:00,ZHCC 090600Z 32004MPS 290V350 CAVOK 03/M21 Q1029 NOSIG
ZHCC,2021-01-09 07:00,ZHCC 090700Z 35002MPS 280V020 CAVOK 04/M21 Q1028 NOSIG
ZHCC,2021-01-09 08:00,ZHCC 090800Z 30005MPS 270V330 CAVOK 04/M21 Q1028 NOSIG
ZHCC,2021-01-09 09:00,ZHCC 090900Z 30003MPS CAVOK 03/M20 Q1028 NOSIG
ZHCC,2021-01-09 10:00,ZHCC 091000Z 00000MPS CAVOK 00/M19 Q1028 NOSIG
ZHCC,2021-01-09 11:00,ZHCC 091100Z 19002MPS CAVOK M02/M16 Q1029 NOSIG
ZHCC,2021-01-09 12:00,ZHCC 091200Z 20002MPS 170V230 CAVOK M04/M16 Q1030 NOSIG
ZHCC,2021-01-09 13:00,ZHCC 091300Z 22002MPS CAVOK M03/M16 Q1030 NOSIG
ZHCC,2021-01-09 14:00,ZHCC 091400Z 22002MPS CAVOK M03/M16 Q1030 NOSIG
ZHCC,2021-01-09 15:00,ZHCC 091500Z VRB01MPS CAVOK M01/M16 Q1030 NOSIG
ZHCC,2021-01-09 16:00,ZHCC 091600Z 22002MPS CAVOK M01/M16 Q1030 NOSIG
ZHCC,2021-01-09 17:00,ZHCC 091700Z 23002MPS CAVOK M02/M16 Q1030 NOSIG
ZHCC,2021-01-09 18:00,ZHCC 091800Z 26003MPS CAVOK M01/M16 Q1030 NOSIG
ZHCC,2021-01-09 19:00,ZHCC 091900Z 28002MPS CAVOK M02/M16 Q1030 NOSIG
ZHCC,2021-01-09 20:00,ZHCC 092000Z 26002MPS CAVOK M02/M17 Q1030 NOSIG
ZHCC,2021-01-09 21:00,ZHCC 092100Z 25002MPS CAVOK M02/M17 Q1029 NOSIG
ZHCC,2021-01-09 22:00,ZHCC 092200Z 29004MPS CAVOK M04/M16 Q1029 NOSIG
ZHCC,2021-01-09 23:00,ZHCC 092300Z 30005MPS CAVOK M03/M16 Q1029 NOSIG
ZHCC,2021-01-10 00:00,ZHCC 100000Z 31006MPS CAVOK M00/M18 Q1031 NOSIG
ZHCC,2021-01-10 01:00,ZHCC 100100Z 32006MPS CAVOK 02/M19 Q1032 NOSIG
ZHCC,2021-01-10 02:00,ZHCC 100200Z 32007MPS CAVOK 03/M18 Q1033 NOSIG
ZHCC,2021-01-10 03:00,ZHCC 100300Z 34005MPS CAVOK 03/M20 Q1033 NOSIG
ZHCC,2021-01-10 04:00,ZHCC 100400Z 02004MPS 340V050 CAVOK 04/M19 Q1032 NOSIG
ZHCC,2021-01-10 05:00,ZHCC 100500Z 36003MPS 320V050 CAVOK 04/M19 Q1031 NOSIG
ZHCC,2021-01-10 06:00,ZHCC 100600Z 34002MPS 290V020 CAVOK 04/M19 Q1030 NOSIG
ZHCC,2021-01-10 07:00,ZHCC 100700Z 03002MPS 350V080 CAVOK 03/M19 Q1030 NOSIG
ZHCC,2021-01-10 08:00,ZHCC 100800Z 00000MPS CAVOK 03/M18 Q1030 NOSIG
ZHCC,2021-01-10 09:00,ZHCC 100900Z 06002MPS 360V170 CAVOK 03/M18 Q1031 NOSIG
ZHCC,2021-01-10 10:00,ZHCC 101000Z VRB01MPS CAVOK 00/M15 Q1032 NOSIG
ZHCC,2021-01-10 11:00,ZHCC 101100Z 18001MPS CAVOK 01/M15 Q1032 NOSIG
ZHCC,2021-01-10 12:00,ZHCC 101200Z 21001MPS CAVOK 00/M14 Q1033 NOSIG
ZHCC,2021-01-10 13:00,ZHCC 101300Z 22002MPS CAVOK 01/M15 Q1033 NOSIG
ZHCC,2021-01-10 14:00,ZHCC 101400Z 25002MPS CAVOK 01/M16 Q1034 NOSIG
ZHCC,2021-01-10 15:00,ZHCC 101500Z 27002MPS CAVOK 00/M16 Q1033 NOSIG
ZHCC,2021-01-10 16:00,ZHCC 101600Z 28004MPS CAVOK 01/M17 Q1033 NOSIG
ZHCC,2021-01-10 17:00,ZHCC 101700Z 28005MPS CAVOK 01/M18 Q1033 NOSIG
ZHCC,2021-01-10 18:00,ZHCC 101800Z 30010MPS CAVOK 02/M18 Q1032 NOSIG
ZHCC,2021-01-10 19:00,ZHCC 101900Z 28007MPS CAVOK 02/M18 Q1032 NOSIG
ZHCC,2021-01-10 20:00,ZHCC 102000Z 29007MPS CAVOK 01/M17 Q1032 NOSIG
ZHCC,2021-01-10 21:00,ZHCC 102100Z 28005MPS CAVOK 00/M18 Q1031 NOSIG
ZHCC,2021-01-10 22:00,ZHCC 102200Z 29008MPS CAVOK 00/M18 Q1032 NOSIG
ZHCC,2021-01-10 23:00,ZHCC 102300Z 28006MPS CAVOK M01/M17 Q1032 NOSIG
ZHCC,2021-01-11 00:00,ZHCC 110000Z 28004MPS CAVOK M01/M16 Q1032 NOSIG
ZHCC,2021-01-11 01:00,ZHCC 110100Z 28005MPS CAVOK 01/M17 Q1033 NOSIG
ZHCC,2021-01-11 02:00,ZHCC 110200Z 29008MPS 270V360 CAVOK 02/M18 Q1033 NOSIG
ZHCC,2021-01-11 03:00,ZHCC 110300Z 29009G14MPS 8000 NSC 03/M19 Q1032 NOSIG
ZHCC,2021-01-11 04:00,ZHCC 110400Z 30010G16MPS 8000 NSC 04/M18 Q1031 NOSIG
ZHCC,2021-01-11 05:00,ZHCC 110500Z 30009MPS 260V320 8000 NSC 05/M18 Q1029 NOSIG
ZHCC,2021-01-11 06:00,ZHCC 110600Z 31008MPS 7000 NSC 05/M17 Q1028 NOSIG
ZHCC,2021-01-11 07:00,ZHCC 110700Z 30009MPS 7000 NSC 05/M17 Q1028 NOSIG
ZHCC,2021-01-11 08:00,ZHCC 110800Z 29008G13MPS 6000 NSC 05/M18 Q1027 NOSIG
ZHCC,2021-01-11 09:00,ZHCC 110900Z 28007MPS 5000 HZ NSC 04/M17 Q1027 NOSIG
ZHCC,2021-01-11 10:00,ZHCC 111000Z 28007MPS 6000 NSC 03/M17 Q1028 NOSIG
ZHCC,2021-01-11 11:00,ZHCC 111100Z 28007MPS 7000 NSC 03/M17 Q1028 NOSIG
ZHCC,2021-01-11 12:00,ZHCC 111200Z 28006MPS 250V310 7000 NSC 03/M17 Q1028 NOSIG
ZHCC,2021-01-11 13:00,ZHCC 111300Z 26002MPS 230V290 7000 NSC 02/M17 Q1027 NOSIG
ZHCC,2021-01-11 14:00,ZHCC 111400Z 22002MPS 7000 NSC 01/M16 Q1026 NOSIG
ZHCC,2021-01-11 15:00,ZHCC 111500Z 23002MPS 7000 NSC 01/M16 Q1026 NOSIG
ZHCC,2021-01-11 16:00,ZHCC 111600Z VRB01MPS 7000 NSC M00/M15 Q1024 NOSIG
ZHCC,2021-01-11 17:00,ZHCC 111700Z 19002MPS 8000 NSC M00/M14 Q1023 NOSIG
ZHCC,2021-01-11 18:00,ZHCC 111800Z 24002MPS 200V260 8000 NSC M03/M14 Q1022 NOSIG
ZHCC,2021-01-11 19:00,ZHCC 111900Z 25002MPS 8000 NSC M04/M13 Q1021 NOSIG
ZHCC,2021-01-11 20:00,ZHCC 112000Z VRB01MPS CAVOK M03/M14 Q1020 NOSIG
ZHCC,2021-01-11 21:00,ZHCC 112100Z 24002MPS CAVOK M01/M15 Q1019 NOSIG
ZHCC,2021-01-11 22:00,ZHCC 112200Z 21002MPS CAVOK 00/M18 Q1018 NOSIG
ZHCC,2021-01-11 23:00,ZHCC 112300Z 21001MPS CAVOK M02/M16 Q1018 NOSIG
ZHCC,2021-01-12 00:00,ZHCC 120000Z 25003MPS 220V280 CAVOK 01/M17 Q1017 NOSIG
ZHCC,2021-01-12 01:00,ZHCC 120100Z 26003MPS CAVOK 04/M18 Q1018 NOSIG
ZHCC,2021-01-12 02:00,ZHCC 120200Z 24002MPS 190V270 CAVOK 08/M18 Q1018 NOSIG
ZHCC,2021-01-12 03:00,ZHCC 120300Z 22003MPS 190V250 CAVOK 10/M19 Q1017 NOSIG
ZHCC,2021-01-12 04:00,ZHCC 120400Z 21003MPS 170V240 CAVOK 12/M18 Q1016 NOSIG
ZHCC,2021-01-12 05:00,ZHCC 120500Z 18004MPS 150V220 CAVOK 11/M16 Q1014 NOSIG
ZHCC,2021-01-12 06:00,ZHCC 120600Z 19004MPS 150V240 CAVOK 11/M15 Q1013 NOSIG
ZHCC,2021-01-12 07:00,ZHCC 120700Z 19004MPS 170V230 CAVOK 13/M13 Q1013 NOSIG
ZHCC,2021-01-12 08:00,ZHCC 120800Z 19004MPS 150V220 CAVOK 12/M13 Q1012 NOSIG
ZHCC,2021-01-12 09:00,ZHCC 120900Z 18004MPS 150V210 CAVOK 11/M11 Q1012 NOSIG
ZHCC,2021-01-12 10:00,ZHCC 121000Z 18003MPS CAVOK 09/M10 Q1012 NOSIG
ZHCC,2021-01-12 11:00,ZHCC 121100Z 19003MPS 160V220 CAVOK 08/M11 Q1011 NOSIG
ZHCC,2021-01-12 12:00,ZHCC 121200Z 20003MPS 160V230 CAVOK 08/M10 Q1011 NOSIG
ZHCC,2021-01-12 13:00,ZHCC 121300Z 21003MPS CAVOK 07/M10 Q1011 NOSIG
ZHCC,2021-01-12 14:00,ZHCC 121400Z 19002MPS 160V220 CAVOK 06/M09 Q1011 NOSIG
ZHCC,2021-01-12 15:00,ZHCC 121500Z 20003MPS 170V250 CAVOK 06/M09 Q1011 NOSIG
ZHCC,2021-01-12 16:00,ZHCC 121600Z 21003MPS CAVOK 07/M09 Q1011 NOSIG
ZHCC,2021-01-12 17:00,ZHCC 121700Z 25002MPS 200V290 CAVOK 05/M10 Q1011 NOSIG
ZHCC,2021-01-12 18:00,ZHCC 121800Z 21002MPS CAVOK 04/M09 Q1011 NOSIG
ZHCC,2021-01-12 19:00,ZHCC 121900Z 23002MPS CAVOK 06/M10 Q1011 NOSIG
ZHCC,2021-01-12 20:00,ZHCC 122000Z VRB01MPS CAVOK 03/M10 Q1011 NOSIG
ZHCC,2021-01-12 21:00,ZHCC 122100Z 25004MPS CAVOK 07/M12 Q1011 NOSIG
ZHCC,2021-01-12 22:00,ZHCC 122200Z 26003MPS CAVOK 06/M12 Q1011 NOSIG
ZHCC,2021-01-12 23:00,ZHCC 122300Z 25002MPS CAVOK 05/M12 Q1012 NOSIG
ZHCC,2021-01-13 00:00,ZHCC 130000Z 21002MPS CAVOK 03/M12 Q1013 NOSIG
ZHCC,2021-01-13 01:00,ZHCC 130100Z 27005MPS CAVOK 12/M13 Q1013 NOSIG
ZHCC,2021-01-13 02:00,ZHCC 130200Z 29008MPS 6000 NSC 14/M16 Q1014 NOSIG
ZHCC,2021-01-13 03:00,ZHCC 130300Z 29008MPS 6000 NSC 16/M16 Q1014 NOSIG
ZHCC,2021-01-13 04:00,ZHCC 130400Z 28007MPS 250V310 5000 HZ NSC 17/M16 Q1014 NOSIG
ZHCC,2021-01-13 05:00,ZHCC 130500Z 29009MPS 250V320 4000 HZ NSC 18/M17 Q1013 NOSIG
ZHCC,2021-01-13 06:00,ZHCC 130600Z 30007MPS 4000 HZ NSC 18/M16 Q1013 NOSIG
ZHCC,2021-01-13 07:00,ZHCC 130700Z 29007MPS 5000 HZ NSC 18/M16 Q1013 NOSIG
ZHCC,2021-01-13 08:00,ZHCC 130800Z 30005MPS 5000 HZ NSC 17/M15 Q1013 NOSIG
ZHCC,2021-01-13 09:00,ZHCC 130900Z 28003MPS 6000 NSC 15/M14 Q1013 NOSIG
ZHCC,2021-01-13 10:00,ZHCC 131000Z 29001MPS 6000 NSC 10/M13 Q1014 NOSIG
ZHCC,2021-01-13 11:00,ZHCC 131100Z 00000MPS 7000 NSC 09/M12 Q1014 NOSIG
ZHCC,2021-01-13 12:00,ZHCC 131200Z 17001MPS 7000 NSC 06/M11 Q1015 NOSIG
ZHCC,2021-01-13 13:00,ZHCC 131300Z 17002MPS 120V190 7000 NSC 10/M12 Q1015 NOSIG
ZHCC,2021-01-13 14:00,ZHCC 131400Z 00000MPS 8000 NSC 06/M09 Q1016 NOSIG
ZHCC,2021-01-13 15:00,ZHCC 131500Z 23001MPS 8000 NSC 05/M08 Q1016 NOSIG
ZHCC,2021-01-13 16:00,ZHCC 131600Z VRB01MPS 8000 NSC 02/M08 Q1015 NOSIG
ZHCC,2021-01-13 17:00,ZHCC 131700Z 00000MPS 8000 NSC 02/M07 Q1016 NOSIG
ZHCC,2021-01-13 18:00,ZHCC 131800Z 29001MPS 8000 NSC 00/M08 Q1015 NOSIG
ZHCC,2021-01-13 19:00,ZHCC 131900Z VRB01MPS 8000 NSC M00/M10 Q1015 NOSIG
ZHCC,2021-01-13 20:00,ZHCC 132000Z 30002MPS 8000 NSC 01/M09 Q1015 NOSIG
ZHCC,2021-01-13 21:00,ZHCC 132100Z VRB01MPS 8000 NSC 00/M10 Q1014 NOSIG
ZHCC,2021-01-13 22:00,ZHCC 132200Z 11001MPS 8000 NSC M01/M09 Q1014 NOSIG
ZHCC,2021-01-13 23:00,ZHCC 132300Z 29001MPS 8000 NSC M01/M08 Q1014 NOSIG
ZHCC,2021-01-14 00:00,ZHCC 140000Z 14001MPS 5000 HZ NSC M01/M08 Q1013 NOSIG
ZHCC,2021-01-14 01:00,ZHCC 140100Z 19002MPS 6000 NSC 05/M07 Q1013 NOSIG
ZHCC,2021-01-14 02:00,ZHCC 140200Z 17002MPS 120V220 7000 NSC 09/M04 Q1013 NOSIG
ZHCC,2021-01-14 03:00,ZHCC 140300Z 18003MPS 140V220 7000 NSC 11/M03 Q1013 NOSIG
ZHCC,2021-01-14 04:00,ZHCC 140400Z 18004MPS 130V250 7000 NSC 13/M02 Q1011 NOSIG
ZHCC,2021-01-14 05:00,ZHCC 140500Z 17004MPS 140V210 7000 NSC 15/M02 Q1010 NOSIG
ZHCC,2021-01-14 06:00,ZHCC 140600Z 16004MPS 130V200 7000 NSC 16/M02 Q1009 NOSIG
ZHCC,2021-01-14 07:00,ZHCC 140700Z 19005MPS 150V230 7000 NSC 16/M03 Q1008 NOSIG
ZHCC,2021-01-14 08:00,ZHCC 140800Z 19004MPS 120V230 7000 NSC 17/M03 Q1008 NOSIG
ZHCC,2021-01-14 09:00,ZHCC 140900Z 21004MPS 7000 NSC 16/M03 Q1009 NOSIG
ZHCC,2021-01-14 10:00,ZHCC 141000Z 22003MPS CAVOK 14/M03 Q1010 NOSIG
ZHCC,2021-01-14 11:00,ZHCC 141100Z 22003MPS CAVOK 13/M02 Q1010 NOSIG
ZHCC,2021-01-14 12:00,ZHCC 141200Z 30003MPS 7000 NSC 08/M04 Q1011 NOSIG
ZHCC,2021-01-14 13:00,ZHCC 141300Z 32003MPS 7000 NSC 07/M05 Q1012 NOSIG
ZHCC,2021-01-14 14:00,ZHCC 141400Z VRB01MPS 7000 NSC 06/M06 Q1013 NOSIG
ZHCC,2021-01-14 15:00,ZHCC 141500Z 02003MPS 5000 HZ NSC 06/M08 Q1014 NOSIG
ZHCC,2021-01-14 16:00,ZHCC 141600Z 35002MPS 6000 NSC 04/M09 Q1016 NOSIG
ZHCC,2021-01-14 17:00,ZHCC 141700Z 01002MPS 7000 NSC 03/M09 Q1017 NOSIG
ZHCC,2021-01-14 18:00,ZHCC 141800Z 02004MPS 350V050 7000 NSC 03/M09 Q1017 NOSIG
ZHCC,2021-01-14 19:00,ZHCC 141900Z VRB02G11MPS 7000 NSC 03/M08 Q1017 NOSIG
ZHCC,2021-01-14 20:00,ZHCC 142000Z VRB01MPS 7000 NSC 02/M08 Q1017 NOSIG
ZHCC,2021-01-14 21:00,ZHCC 142100Z VRB01MPS 7000 NSC 01/M07 Q1018 NOSIG
ZHCC,2021-01-14 22:00,ZHCC 142200Z VRB01MPS 7000 NSC 02/M07 Q1018 NOSIG
ZHCC,2021-01-14 23:00,ZHCC 142300Z 02002MPS 350V060 7000 NSC 03/M07 Q1019 NOSIG
ZHCC,2021-01-15 00:00,ZHCC 150000Z 05002MPS 010V080 5000 HZ NSC 02/M07 Q1020 NOSIG
ZHCC,2021-01-15 01:00,ZHCC 150100Z 02002MPS 350V080 5000 HZ NSC 03/M07 Q1021 NOSIG
ZHCC,2021-01-15 02:00,ZHCC 150200Z 03002MPS 360V100 5000 HZ NSC 04/M08 Q1022 NOSIG
ZHCC,2021-01-15 03:00,ZHCC 150300Z VRB01MPS 5000 HZ NSC 05/M07 Q1023 NOSIG
ZHCC,2021-01-15 04:00,ZHCC 150400Z VRB01MPS 5000 HZ NSC 06/M07 Q1023 NOSIG
ZHCC,2021-01-15 05:00,ZHCC 150500Z VRB01MPS 5000 HZ NSC 07/M07 Q1023 NOSIG
ZHCC,2021-01-15 06:00,ZHCC 150600Z 05002MPS 360V090 5000 HZ NSC 08/M09 Q1022 NOSIG
ZHCC,2021-01-15 07:00,ZHCC 150700Z 07006MPS 5000 HZ NSC 08/M10 Q1022 NOSIG
ZHCC,2021-01-15 08:00,ZHCC 150800Z 06005MPS 5000 HZ NSC 07/M10 Q1023 NOSIG
ZHCC,2021-01-15 09:00,ZHCC 150900Z 05005MPS 5000 HZ NSC 06/M10 Q1024 NOSIG
ZHCC,2021-01-15 10:00,ZHCC 151000Z 05002MPS 020V080 5000 HZ NSC 05/M09 Q1025 NOSIG
ZHCC,2021-01-15 11:00,ZHCC 151100Z 04002MPS 010V070 6000 NSC 05/M08 Q1026 NOSIG
ZHCC,2021-01-15 12:00,ZHCC 151200Z 03003MPS 350V070 6000 NSC 05/M09 Q1027 NOSIG
ZHCC,2021-01-15 13:00,ZHCC 151300Z 06003MPS 6000 NSC 04/M09 Q1027 NOSIG
ZHCC,2021-01-15 14:00,ZHCC 151400Z 01002MPS 330V040 6000 NSC 04/M09 Q1029 NOSIG
ZHCC,2021-01-15 15:00,ZHCC 151500Z 33002MPS 310V040 6000 NSC 02/M09 Q1029 NOSIG
ZHCC,2021-01-15 16:00,ZHCC 151600Z 33003MPS 6000 NSC 00/M08 Q1029 NOSIG
ZHCC,2021-01-15 17:00,ZHCC 151700Z 36002MPS 330V030 6000 NSC 02/M08 Q1030 NOSIG
ZHCC,2021-01-15 18:00,ZHCC 151800Z VRB01MPS 6000 NSC 00/M08 Q1030 NOSIG
ZHCC,2021-01-15 19:00,ZHCC 151900Z 03002MPS 6000 NSC 02/M08 Q1031 NOSIG
ZHCC,2021-01-15 20:00,ZHCC 152000Z 04003MPS 6000 NSC 01/M08 Q1031 NOSIG
ZHCC,2021-01-15 21:00,ZHCC 152100Z 04004MPS 6000 NSC 01/M09 Q1031 NOSIG
ZHCC,2021-01-15 22:00,ZHCC 152200Z 05002MPS 010V080 6000 NSC 00/M09 Q1032 NOSIG
ZHCC,2021-01-15 23:00,ZHCC 152300Z 02003MPS 6000 NSC M00/M09 Q1032 NOSIG
ZHCC,2021-01-16 00:00,ZHCC 160000Z VRB01MPS 5000 HZ NSC M02/M09 Q1032 NOSIG
ZHCC,2021-01-16 01:00,ZHCC 160100Z VRB01MPS 5000 HZ NSC M00/M07 Q1034 NOSIG
ZHCC,2021-01-16 02:00,ZHCC 160200Z 11002MPS 070V150 5000 HZ NSC 01/M07 Q1034 NOSIG
ZHCC,2021-01-16 03:00,ZHCC 160300Z VRB02MPS 4000 HZ NSC 02/M06 Q1034 NOSIG
ZHCC,2021-01-16 04:00,ZHCC 160400Z 19002MPS 120V240 4000 HZ NSC 03/M06 Q1033 NOSIG
ZHCC,2021-01-16 05:00,ZHCC 160500Z 17002MPS 130V210 4000 HZ NSC 04/M06 Q1032 NOSIG
ZHCC,2021-01-16 06:00,ZHCC 160600Z 22002MPS 130V280 4000 HZ NSC 05/M07 Q1032 NOSIG
ZHCC,2021-01-16 07:00,ZHCC 160700Z 18002MPS 130V240 5000 HZ NSC 05/M08 Q1031 NOSIG
ZHCC,2021-01-16 08:00,ZHCC 160800Z VRB01MPS 5000 HZ NSC 05/M08 Q1032 NOSIG
ZHCC,2021-01-16 09:00,ZHCC 160900Z 15002MPS 5000 HZ NSC 04/M07 Q1032 NOSIG
ZHCC,2021-01-16 10:00,ZHCC 161000Z VRB01MPS 5000 HZ NSC 04/M07 Q1033 NOSIG
ZHCC,2021-01-16 11:00,ZHCC 161100Z VRB01MPS 6000 NSC 03/M07 Q1034 NOSIG
ZHCC,2021-01-16 12:00,ZHCC 161200Z VRB01MPS 6000 NSC 03/M06 Q1035 NOSIG
ZHCC,2021-01-16 13:00,ZHCC 161300Z 20002MPS 150V250 6000 NSC 03/M05 Q1036 NOSIG
ZHCC,2021-01-16 14:00,ZHCC 161400Z VRB01MPS 6000 NSC 02/M06 Q1036 BECMG 30005MPS
ZHCC,2021-01-16 15:00,ZHCC 161500Z 28004MPS 250V310 6000 NSC 02/M11 Q1037 NOSIG
ZHCC,2021-01-16 16:00,ZHCC 161600Z 30007MPS CAVOK 03/M16 Q1037 NOSIG
ZHCC,2021-01-16 17:00,ZHCC 161700Z 29005MPS CAVOK 02/M17 Q1038 NOSIG
ZHCC,2021-01-16 18:00,ZHCC 161800Z 29005MPS CAVOK 01/M17 Q1038 NOSIG
ZHCC,2021-01-16 19:00,ZHCC 161900Z 28005MPS CAVOK 01/M18 Q1038 NOSIG
ZHCC,2021-01-16 20:00,ZHCC 162000Z 27004MPS CAVOK M00/M16 Q1037 NOSIG
ZHCC,2021-01-16 21:00,ZHCC 162100Z 28004MPS CAVOK M01/M16 Q1037 NOSIG
ZHCC,2021-01-16 22:00,ZHCC 162200Z 30005MPS CAVOK M01/M16 Q1036 NOSIG
ZHCC,2021-01-16 23:00,ZHCC 162300Z 27002MPS 240V300 CAVOK M01/M18 Q1036 NOSIG
ZHCC,2021-01-17 00:00,ZHCC 170000Z 29005G11MPS 270V330 CAVOK M00/M16 Q1036 NOSIG
ZHCC,2021-01-17 01:00,ZHCC 170100Z 30009MPS CAVOK 02/M19 Q1035 NOSIG
ZHCC,2021-01-17 02:00,ZHCC 170200Z 30009MPS CAVOK 03/M19 Q1035 NOSIG
ZHCC,2021-01-17 03:00,ZHCC 170300Z 29010G15MPS CAVOK 04/M19 Q1034 NOSIG
ZHCC,2021-01-17 04:00,ZHCC 170400Z 28009G14MPS CAVOK 06/M20 Q1032 NOSIG
ZHCC,2021-01-17 05:00,ZHCC 170500Z 28005MPS 250V310 CAVOK 07/M21 Q1030 NOSIG
ZHCC,2021-01-17 06:00,ZHCC 170600Z 26006MPS 230V300 CAVOK 08/M21 Q1028 NOSIG
ZHCC,2021-01-17 07:00,ZHCC 170700Z 24004MPS 200V280 CAVOK 09/M19 Q1027 NOSIG
ZHCC,2021-01-17 08:00,ZHCC 170800Z 26006MPS 210V280 CAVOK 09/M20 Q1026 NOSIG
ZHCC,2021-01-17 09:00,ZHCC 170900Z 25005MPS CAVOK 08/M22 Q1026 NOSIG
ZHCC,2021-01-17 10:00,ZHCC 171000Z 22003MPS CAVOK 06/M20 Q1025 NOSIG
ZHCC,2021-01-17 11:00,ZHCC 171100Z 23002MPS 200V260 CAVOK 05/M20 Q1025 NOSIG
ZHCC,2021-01-17 12:00,ZHCC 171200Z 24002MPS 200V270 CAVOK 04/M18 Q1025 NOSIG
ZHCC,2021-01-17 13:00,ZHCC 171300Z 21003MPS CAVOK 04/M15 Q1024 NOSIG
ZHCC,2021-01-17 14:00,ZHCC 171400Z 19002MPS CAVOK 03/M14 Q1024 NOSIG
ZHCC,2021-01-17 15:00,ZHCC 171500Z 21002MPS 180V240 CAVOK 02/M14 Q1023 NOSIG
ZHCC,2021-01-17 16:00,ZHCC 171600Z 22002MPS CAVOK 02/M14 Q1023 NOSIG
ZHCC,2021-01-17 17:00,ZHCC 171700Z VRB01MPS CAVOK M00/M15 Q1022 NOSIG
ZHCC,2021-01-17 18:00,ZHCC 171800Z 27002MPS CAVOK M01/M13 Q1022 NOSIG
ZHCC,2021-01-17 19:00,ZHCC 171900Z 28001MPS CAVOK M02/M13 Q1022 NOSIG
ZHCC,2021-01-17 20:00,ZHCC 172000Z 29001MPS CAVOK M03/M13 Q1022 NOSIG
ZHCC,2021-01-17 21:00,ZHCC 172100Z 00000MPS CAVOK M04/M12 Q1022 NOSIG
ZHCC,2021-01-17 22:00,ZHCC 172200Z 26001MPS CAVOK M04/M13 Q1022 NOSIG
ZHCC,2021-01-17 23:00,ZHCC 172300Z VRB01MPS CAVOK M05/M13 Q1022 NOSIG
ZHCC,2021-01-18 00:00,ZHCC 180000Z 27002MPS CAVOK M05/M12 Q1022 NOSIG
ZHCC,2021-01-18 01:00,ZHCC 180100Z 26004MPS CAVOK 04/M13 Q1022 NOSIG
ZHCC,2021-01-18 02:00,ZHCC 180200Z 29004MPS CAVOK 09/M16 Q1023 NOSIG
ZHCC,2021-01-18 03:00,ZHCC 180300Z 30005MPS CAVOK 12/M18 Q1023 NOSIG
ZHCC,2021-01-18 04:00,ZHCC 180400Z 30003MPS 250V330 CAVOK 13/M19 Q1022 NOSIG
ZHCC,2021-01-18 05:00,ZHCC 180500Z 27003MPS 220V330 CAVOK 14/M20 Q1021 NOSIG
ZHCC,2021-01-18 06:00,ZHCC 180600Z VRB02MPS CAVOK 15/M17 Q1020 NOSIG
ZHCC,2021-01-18 07:00,ZHCC 180700Z 21002MPS 160V240 CAVOK 15/M16 Q1020 NOSIG
ZHCC,2021-01-18 08:00,ZHCC 180800Z 16003MPS 130V200 CAVOK 14/M16 Q1020 NOSIG
ZHCC,2021-01-18 09:00,ZHCC 180900Z 13002MPS 110V170 CAVOK 12/M12 Q1020 NOSIG
ZHCC,2021-01-18 10:00,ZHCC 181000Z 13002MPS CAVOK 09/M10 Q1021 NOSIG
ZHCC,2021-01-18 11:00,ZHCC 181100Z 12002MPS CAVOK 07/M09 Q1021 NOSIG
ZHCC,2021-01-18 12:00,ZHCC 181200Z 12002MPS CAVOK 05/M08 Q1021 NOSIG
ZHCC,2021-01-18 13:00,ZHCC 181300Z 13001MPS CAVOK 04/M08 Q1022 NOSIG
ZHCC,2021-01-18 14:00,ZHCC 181400Z 11002MPS CAVOK 03/M07 Q1022 NOSIG
ZHCC,2021-01-18 15:00,ZHCC 181500Z 11002MPS CAVOK 03/M07 Q1022 NOSIG
ZHCC,2021-01-18 16:00,ZHCC 181600Z 10004MPS CAVOK 02/M07 Q1021 NOSIG
ZHCC,2021-01-18 17:00,ZHCC 181700Z 10003MPS CAVOK 02/M07 Q1021 NOSIG
ZHCC,2021-01-18 18:00,ZHCC 181800Z 09003MPS CAVOK 01/M08 Q1022 NOSIG
ZHCC,2021-01-18 19:00,ZHCC 181900Z 10002MPS CAVOK 01/M07 Q1022 NOSIG
ZHCC,2021-01-18 20:00,ZHCC 182000Z 11001MPS CAVOK 00/M07 Q1022 NOSIG
ZHCC,2021-01-18 21:00,ZHCC 182100Z 09002MPS CAVOK 00/M06 Q1022 NOSIG
ZHCC,2021-01-18 22:00,ZHCC 182200Z 05003MPS 8000 NSC 00/M06 Q1022 NOSIG
ZHCC,2021-01-18 23:00,ZHCC 182300Z 07003MPS 8000 NSC 00/M06 Q1023 NOSIG
ZHCC,2021-01-19 00:00,ZHCC 190000Z 06003MPS 5000 HZ NSC M01/M05 Q1023 NOSIG
ZHCC,2021-01-19 01:00,ZHCC 190100Z 05004MPS 5000 HZ NSC 01/M05 Q1024 NOSIG
ZHCC,2021-01-19 02:00,ZHCC 190200Z 04005MPS 5000 HZ NSC 01/M06 Q1025 NOSIG
ZHCC,2021-01-19 03:00,ZHCC 190300Z 04005MPS 010V070 5000 HZ NSC 02/M08 Q1025 NOSIG
ZHCC,2021-01-19 04:00,ZHCC 190400Z 03005MPS 360V070 6000 NSC 03/M08 Q1024 NOSIG
ZHCC,2021-01-19 05:00,ZHCC 190500Z 04005MPS 360V070 7000 NSC 04/M08 Q1023 NOSIG
ZHCC,2021-01-19 06:00,ZHCC 190600Z 05005MPS 020V080 7000 NSC 05/M08 Q1022 NOSIG
ZHCC,2021-01-19 07:00,ZHCC 190700Z 05005MPS 010V080 7000 NSC 06/M07 Q1022 NOSIG
ZHCC,2021-01-19 08:00,ZHCC 190800Z 05005MPS 7000 NSC 06/M07 Q1022 NOSIG
ZHCC,2021-01-19 09:00,ZHCC 190900Z 04004MPS 7000 NSC 05/M06 Q1022 NOSIG
ZHCC,2021-01-19 10:00,ZHCC 191000Z 02004MPS 360V060 6000 NSC 04/M06 Q1022 NOSIG
ZHCC,2021-01-19 11:00,ZHCC 191100Z 01004MPS 350V050 7000 NSC 03/M06 Q1023 NOSIG
ZHCC,2021-01-19 12:00,ZHCC 191200Z 02004MPS 350V050 7000 NSC 02/M07 Q1023 NOSIG
ZHCC,2021-01-19 13:00,ZHCC 191300Z 01004MPS 340V060 7000 NSC 01/M07 Q1023 NOSIG
ZHCC,2021-01-19 14:00,ZHCC 191400Z 36003MPS 320V030 7000 NSC 00/M07 Q1024 NOSIG
ZHCC,2021-01-19 15:00,ZHCC 191500Z 01004MPS 330V060 7000 NSC M00/M07 Q1024 NOSIG
ZHCC,2021-01-19 16:00,ZHCC 191600Z 36003MPS 330V040 7000 NSC M00/M07 Q1024 NOSIG
ZHCC,2021-01-19 17:00,ZHCC 191700Z 34003MPS 7000 NSC M01/M07 Q1024 NOSIG
ZHCC,2021-01-19 18:00,ZHCC 191800Z 33003MPS 7000 NSC M02/M07 Q1024 NOSIG
ZHCC,2021-01-19 19:00,ZHCC 191900Z 34003MPS 7000 NSC M02/M07 Q1023 NOSIG
ZHCC,2021-01-19 20:00,ZHCC 192000Z 34003G09MPS 230V020 7000 NSC M02/M07 Q1023 NOSIG
ZHCC,2021-01-19 21:00,ZHCC 192100Z 33002MPS 7000 NSC M03/M08 Q1023 NOSIG
ZHCC,2021-01-19 22:00,ZHCC 192200Z 33003MPS 7000 NSC M03/M08 Q1023 NOSIG
ZHCC,2021-01-19 23:00,ZHCC 192300Z 33003G08MPS 220V010 7000 NSC M03/M08 Q1023 NOSIG
ZHCC,2021-01-20 00:00,ZHCC 200000Z 34003MPS 6000 NSC M03/M08 Q1024 NOSIG
ZHCC,2021-01-20 01:00,ZHCC 200100Z 33003MPS 210V020 6000 NSC M02/M07 Q1024 NOSIG
ZHCC,2021-01-20 02:00,ZHCC 200200Z 35003MPS 320V020 6000 NSC M01/M07 Q1024 NOSIG
ZHCC,2021-01-20 03:00,ZHCC 200300Z 35003MPS 290V040 6000 NSC 00/M07 Q1024 NOSIG
ZHCC,2021-01-20 04:00,ZHCC 200400Z 33002MPS 6000 NSC 02/M07 Q1023 NOSIG
ZHCC,2021-01-20 05:00,ZHCC 200500Z 34002MPS 280V020 6000 NSC 04/M06 Q1022 NOSIG
ZHCC,2021-01-20 06:00,ZHCC 200600Z VRB01MPS 5000 HZ NSC 04/M06 Q1021 NOSIG
ZHCC,2021-01-20 07:00,ZHCC 200700Z VRB01MPS 5000 HZ NSC 04/M06 Q1021 NOSIG
ZHCC,2021-01-20 08:00,ZHCC 200800Z VRB01MPS 5000 HZ NSC 04/M06 Q1020 NOSIG
ZHCC,2021-01-20 09:00,ZHCC 200900Z VRB01MPS 5000 HZ NSC 04/M06 Q1021 NOSIG
ZHCC,2021-01-20 10:00,ZHCC 201000Z 12002MPS 5000 HZ NSC 03/M05 Q1021 NOSIG
ZHCC,2021-01-20 11:00,ZHCC 201100Z 09003MPS 5000 HZ NSC 03/M05 Q1021 NOSIG
ZHCC,2021-01-20 12:00,ZHCC 201200Z 10002MPS 010V130 5000 HZ NSC 03/M05 Q1021 NOSIG
ZHCC,2021-01-20 13:00,ZHCC 201300Z VRB01MPS 5000 HZ NSC 01/M06 Q1022 NOSIG
ZHCC,2021-01-20 14:00,ZHCC 201400Z VRB01MPS 5000 HZ NSC 00/M05 Q1022 NOSIG
ZHCC,2021-01-20 15:00,ZHCC 201500Z 00000MPS 5000 HZ NSC M02/M06 Q1022 NOSIG
ZHCC,2021-01-20 16:00,ZHCC 201600Z 30002MPS 5000 HZ NSC M00/M05 Q1022 NOSIG
ZHCC,2021-01-20 17:00,ZHCC 201700Z 29001MPS 5000 HZ NSC 00/M05 Q1021 NOSIG
ZHCC,2021-01-20 18:00,ZHCC 201800Z 29001MPS 5000 HZ NSC M01/M05 Q1022 NOSIG
ZHCC,2021-01-20 19:00,ZHCC 201900Z 32002MPS 5000 HZ NSC M00/M04 Q1021 NOSIG
ZHCC,2021-01-20 20:00,ZHCC 202000Z VRB01MPS 5000 HZ NSC 01/M05 Q1021 NOSIG
ZHCC,2021-01-20 21:00,ZHCC 202100Z 00000MPS 5000 HZ NSC 01/M04 Q1020 NOSIG
ZHCC,2021-01-20 22:00,ZHCC 202200Z VRB01MPS 4000 HZ NSC 01/M03 Q1021 NOSIG
ZHCC,2021-01-20 23:00,ZHCC 202300Z 01002MPS 4000 HZ NSC 02/M03 Q1021 NOSIG
ZHCC,2021-01-21 00:00,ZHCC 210000Z VRB01MPS 3000 HZ NSC 02/M03 Q1022 NOSIG
ZHCC,2021-01-21 01:00,ZHCC 210100Z VRB01MPS 3000 HZ NSC 02/M02 Q1022 BECMG TL0220 2500
ZHCC,2021-01-21 02:00,ZHCC 210200Z VRB01MPS 2500 HZ NSC 03/M02 Q1023 BECMG TL0350 3000
ZHCC,2021-01-21 03:00,ZHCC 210300Z VRB01MPS 2500 HZ NSC 04/M02 Q1022 BECMG TL0350 3000
ZHCC,2021-01-21 04:00,ZHCC 210400Z 36002MPS 310V040 3000 HZ NSC 06/M02 Q1021 BECMG TL0520 2500
ZHCC,2021-01-21 05:00,ZHCC 210500Z 31003MPS 270V020 2800 HZ NSC 08/M03 Q1020 BECMG TL0550 3000
ZHCC,2021-01-21 06:00,ZHCC 210600Z VRB01MPS 3000 HZ NSC 09/M02 Q1019 NOSIG
ZHCC,2021-01-21 07:00,ZHCC 210700Z VRB01MPS 3000 HZ NSC 10/M03 Q1018 NOSIG
ZHCC,2021-01-21 08:00,ZHCC 210800Z 11002MPS 090V150 3000 HZ NSC 10/M03 Q1018 BECMG TL0940 2500
ZHCC,2021-01-21 09:00,ZHCC 210900Z 13002MPS 2500 HZ NSC 08/M02 Q1019 BECMG TL1020 3000
ZHCC,2021-01-21 10:00,ZHCC 211000Z 14002MPS 2800 HZ NSC 06/M02 Q1020 BECMG TL1050 3000
ZHCC,2021-01-21 11:00,ZHCC 211100Z VRB01MPS 3500 HZ NSC 04/M01 Q1020 NOSIG
ZHCC,2021-01-21 12:00,ZHCC 211200Z VRB01MPS 3500 HZ NSC 02/M03 Q1021 NOSIG
ZHCC,2021-01-21 13:00,ZHCC 211300Z 12001MPS 3500 HZ NSC 02/M02 Q1021 NOSIG
ZHCC,2021-01-21 14:00,ZHCC 211400Z 05001MPS 3500 HZ NSC 02/M02 Q1021 NOSIG
ZHCC,2021-01-21 15:00,ZHCC 211500Z 00000MPS 3000 BR NSC 01/M03 Q1021 BECMG TL1640 2500
ZHCC,2021-01-21 16:00,ZHCC 211600Z VRB01MPS 3000 BR NSC 00/M02 Q1021 BECMG TL1720 2500
ZHCC,2021-01-21 17:00,ZHCC 211700Z 31002MPS 2800 BR NSC M00/M03 Q1022 BECMG TL1740 3000
ZHCC,2021-01-21 18:00,ZHCC 211800Z 30001MPS 3000 BR NSC M00/M03 Q1021 NOSIG
ZHCC,2021-01-21 19:00,ZHCC 211900Z 00000MPS 3000 BR NSC M00/M03 Q1021 NOSIG
ZHCC,2021-01-21 20:00,ZHCC 212000Z 31002MPS 3000 BR NSC M01/M04 Q1021 NOSIG
ZHCC,2021-01-21 21:00,ZHCC 212100Z VRB01MPS 3000 BR NSC M00/M03 Q1021 BECMG TL2240 2000
ZHCC,2021-01-21 22:00,ZHCC 212200Z VRB01MPS 3000 BR NSC M02/M04 Q1022 BECMG TL2240 2000
ZHCC,2021-01-21 23:00,ZHCC 212300Z 32001MPS 2500 BR NSC M01/M03 Q1022 NOSIG
ZHCC,2021-01-22 00:00,ZHCC 220000Z 28002MPS 260V320 1500 BR NSC M01/M03 Q1023 NOSIG
ZHCC,2021-01-22 01:00,ZHCC 220100Z 33002MPS 290V010 1300 R12R/1700D R12L/1800N BR NSC 02/M02 Q1023 BECMG TL0220 1500
ZHCC,2021-01-22 02:00,ZHCC 220200Z 03004MPS 1500 HZ NSC 03/M04 Q1024 NOSIG
ZHCC,2021-01-22 03:00,ZHCC 220300Z 04003MPS 360V070 2000 HZ NSC 05/M03 Q1023 BECMG TL0440 3000
ZHCC,2021-01-22 04:00,ZHCC 220400Z 36004MPS 330V040 2500 HZ NSC 06/M04 Q1022 BECMG TL0540 3000
ZHCC,2021-01-22 05:00,ZHCC 220500Z 03004MPS 360V080 3000 HZ NSC 06/M05 Q1022 NOSIG
ZHCC,2021-01-22 06:00,ZHCC 220600Z 02004MPS 340V060 3000 HZ NSC 07/M05 Q1021 NOSIG
ZHCC,2021-01-22 07:00,ZHCC 220700Z 01004MPS 340V050 3000 HZ NSC 08/M06 Q1020 BECMG TL0840 2500
ZHCC,2021-01-22 08:00,ZHCC 220800Z 01005MPS 350V060 3000 HZ NSC 08/M06 Q1020 BECMG TL0920 2500
ZHCC,2021-01-22 09:00,ZHCC 220900Z 02004MPS 350V060 2500 HZ NSC 07/M05 Q1021 BECMG TL1040 3000
ZHCC,2021-01-22 10:00,ZHCC 221000Z 04004MPS 2500 HZ NSC 07/M05 Q1021 BECMG TL1120 3000
ZHCC,2021-01-22 11:00,ZHCC 221100Z 03005MPS 360V070 4000 HZ NSC 06/M06 Q1021 NOSIG
ZHCC,2021-01-22 12:00,ZHCC 221200Z 04004MPS 4000 HZ NSC 06/M06 Q1022 NOSIG
ZHCC,2021-01-22 13:00,ZHCC 221300Z 04004MPS 4000 HZ NSC 05/M06 Q1022 NOSIG
ZHCC,2021-01-22 14:00,ZHCC 221400Z 02004MPS 340V050 4000 HZ NSC 05/M06 Q1022 NOSIG
ZHCC,2021-01-22 15:00,ZHCC 221500Z 02003MPS 4000 HZ NSC 04/M06 Q1022 NOSIG
ZHCC,2021-01-22 16:00,ZHCC 221600Z 01004MPS 4000 HZ NSC 04/M06 Q1022 NOSIG
ZHCC,2021-01-22 17:00,ZHCC 221700Z 04004MPS 4000 HZ NSC 04/M06 Q1023 NOSIG
ZHCC,2021-01-22 18:00,ZHCC 221800Z 02003MPS 4000 HZ NSC 03/M06 Q1023 NOSIG
ZHCC,2021-01-22 19:00,ZHCC 221900Z 02004MPS 4000 HZ NSC 03/M06 Q1022 NOSIG
ZHCC,2021-01-22 20:00,ZHCC 222000Z 03003MPS 4000 HZ NSC 02/M06 Q1022 NOSIG
ZHCC,2021-01-22 21:00,ZHCC 222100Z 36003MPS 4000 HZ NSC 02/M06 Q1022 BECMG TL2240 2000
ZHCC,2021-01-22 22:00,ZHCC 222200Z 04003MPS 4000 HZ NSC 02/M06 Q1022 BECMG TL2340 2000
ZHCC,2021-01-22 23:00,ZHCC 222300Z 02003MPS 360V060 3500 HZ NSC 01/M07 Q1022 BECMG TL2340 2000
ZHCC,2021-01-23 00:00,ZHCC 230000Z 03003MPS 360V060 2000 HZ NSC 01/M06 Q1022 NOSIG
ZHCC,2021-01-23 01:00,ZHCC 230100Z 04004MPS 2000 HZ NSC 01/M06 Q1023 NOSIG
ZHCC,2021-01-23 02:00,ZHCC 230200Z 04003MPS 360V070 2000 HZ NSC 02/M06 Q1023 BECMG TL0340 3000
ZHCC,2021-01-23 03:00,ZHCC 230300Z 02003MPS 330V080 2500 HZ NSC 04/M06 Q1023 BECMG TL0400 3000
ZHCC,2021-01-23 04:00,ZHCC 230400Z 01002MPS 320V090 3000 HZ NSC 05/M06 Q1023 NOSIG
ZHCC,2021-01-23 05:00,ZHCC 230500Z 05002MPS 350V100 3000 HZ NSC 06/M06 Q1022 NOSIG
ZHCC,2021-01-23 06:00,ZHCC 230600Z VRB02MPS 3000 HZ NSC 07/M04 Q1021 NOSIG
ZHCC,2021-01-23 07:00,ZHCC 230700Z VRB01MPS 3000 HZ NSC 07/M04 Q1021 BECMG TL0820 2500
ZHCC,2021-01-23 08:00,ZHCC 230800Z VRB01MPS 2500 HZ NSC 08/M03 Q1021 NOSIG
ZHCC,2021-01-23 09:00,ZHCC 230900Z 10004MPS 2500 HZ NSC 07/M03 Q1021 BECMG TL1040 3000
ZHCC,2021-01-23 10:00,ZHCC 231000Z 09003MPS 2800 HZ NSC 04/M03 Q1021 BECMG TL1100 3000
ZHCC,2021-01-23 11:00,ZHCC 231100Z 14001MPS 3500 HZ NSC 04/M02 Q1022 NOSIG
ZHCC,2021-01-23 12:00,ZHCC 231200Z VRB01MPS 3000 HZ NSC 03/M02 Q1023 NOSIG
ZHCC,2021-01-23 13:00,ZHCC 231300Z 10002MPS 3000 HZ NSC 03/M02 Q1023 BECMG TL1440 2000
ZHCC,2021-01-23 14:00,ZHCC 231400Z VRB01MPS 3000 HZ NSC 03/M02 Q1023 BECMG TL1440 2500
ZHCC,2021-01-23 15:00,ZHCC 231500Z 11002MPS 2500 HZ NSC 03/M01 Q1023 NOSIG
ZHCC,2021-01-23 16:00,ZHCC 231600Z VRB01MPS 2500 BR NSC 03/M01 Q1023 NOSIG
ZHCC,2021-01-23 17:00,ZHCC 231700Z 00000MPS 2000 BR NSC 01/M01 Q1023 NOSIG
ZHCC,2021-01-23 18:00,ZHCC 231800Z 09001MPS 2000 BR NSC 01/M01 Q1023 NOSIG
ZHCC,2021-01-23 19:00,ZHCC 231900Z 12001MPS 2000 BR NSC 01/M01 Q1023 NOSIG
ZHCC,2021-01-23 20:00,ZHCC 232000Z 10002MPS 1800 BR NSC 01/M00 Q1022 NOSIG
ZHCC,2021-01-23 21:00,ZHCC 232100Z VRB01MPS 1800 BR NSC 00/M01 Q1023 NOSIG
ZHCC,2021-01-23 22:00,ZHCC 232200Z 30001MPS 1800 BR NSC 01/M01 Q1023 BECMG TL2340 1200
ZHCC,2021-01-23 23:00,ZHCC 232300Z 31001MPS 1800 BR NSC 01/M01 Q1023 BECMG TL2340 1200
ZHCC,2021-01-24 00:00,ZHCC 240000Z VRB01MPS 1300 R12R/1800U R12L/1700N BR NSC 02/M00 Q1024 BECMG TL0140 1600
ZHCC,2021-01-24 01:00,ZHCC 240100Z 06003MPS 1300 R12R/1900D R12L/1800N HZ NSC 03/M01 Q1024 NOSIG
ZHCC,2021-01-24 02:00,ZHCC 240200Z VRB01MPS 1300 R12R/1900N R12L/1700N HZ NSC 03/M01 Q1026 BECMG TL0340 1600
ZHCC,2021-01-24 03:00,ZHCC 240300Z 08002MPS 1300 R12R/1700N R12L/1600N HZ NSC 03/M00 Q1025 BECMG TL0440 1500
ZHCC,2021-01-24 04:00,ZHCC 240400Z 06003MPS 040V100 1300 R12R/1100V1400N R12L/1300N BR NSC 04/01 Q1024 NOSIG
ZHCC,2021-01-24 05:00,ZHCC 240500Z VRB01MPS 1300 R12R/1800N R12L/1600N BR NSC 04/00 Q1024 NOSIG
ZHCC,2021-01-24 06:00,ZHCC 240600Z 01002MPS 330V050 1300 R12R/1700U R12L/1500N BR NSC 04/01 Q1023 NOSIG
ZHCC,2021-01-24 07:00,ZHCC 240700Z 02003MPS 360V070 1300 R12R/1600N R12L/1500U BR NSC 05/M00 Q1022 NOSIG
ZHCC,2021-01-24 08:00,ZHCC 240800Z 03003MPS 360V080 1300 R12R/P2000 R12L/1800N HZ NSC 05/M00 Q1022 NOSIG
ZHCC,2021-01-24 09:00,ZHCC 240900Z 36004MPS 1300 R12R/P2000 R12L/1900N HZ NSC 04/M01 Q1023 NOSIG
ZHCC,2021-01-24 10:00,ZHCC 241000Z 02003MPS 350V070 1300 R12R/P2000 R12L/P2000 HZ NSC 04/M02 Q1023 BECMG TL1040 1500
ZHCC,2021-01-24 11:00,ZHCC 241100Z 03004MPS 360V060 1500 HZ NSC 04/M02 Q1023 BECMG TL1240 3000
ZHCC,2021-01-24 12:00,ZHCC 241200Z 02004MPS 360V060 2000 HZ NSC 04/M02 Q1024 BECMG TL1240 3000
ZHCC,2021-01-24 13:00,ZHCC 241300Z 02003MPS 350V060 3000 HZ NSC 04/M02 Q1025 BECMG TL1340 2000
ZHCC,2021-01-24 14:00,ZHCC 241400Z 03004MPS 2500 HZ NSC 04/M02 Q1025 NOSIG
ZHCC,2021-01-24 15:00,ZHCC 241500Z 04004MPS 010V070 2500 -RA HZ OVC040 03/M02 Q1026 NOSIG
ZHCC,2021-01-24 16:00,ZHCC 241600Z 02003MPS 350V050 2500 -RA HZ OVC040 03/M01 Q1026 NOSIG
ZHCC,2021-01-24 17:00,ZHCC 241700Z 33003MPS 310V010 2500 -RA HZ OVC040 03/M02 Q1026 NOSIG
ZHCC,2021-01-24 18:00,ZHCC 241800Z 32003MPS 2500 -RA HZ OVC030 03/M02 Q1027 NOSIG
ZHCC,2021-01-24 19:00,ZHCC 241900Z 33003MPS 2500 -RA HZ OVC030 03/M02 Q1026 NOSIG
ZHCC,2021-01-24 20:00,ZHCC 242000Z 32003MPS 3000 HZ OVC030 03/M01 Q1026 NOSIG
ZHCC,2021-01-24 21:00,ZHCC 242100Z 31003MPS 2500 BR OVC030 02/M00 Q1027 BECMG TL2240 3000
ZHCC,2021-01-24 22:00,ZHCC 242200Z 31004MPS 2000 -RA BR OVC030 02/00 Q1026 NOSIG
ZHCC,2021-01-24 23:00,ZHCC 242300Z 32004MPS 2000 -RA BR OVC030 02/01 Q1026 BECMG TL0040 3000
ZHCC,2021-01-25 00:00,ZHCC 250000Z 32003MPS 1400 R30L/1900N R30R/P2000 BR OVC030 02/01 Q1027 BECMG TL0140 2000
ZHCC,2021-01-25 01:00,ZHCC 250100Z 30002MPS 1400 R30L/1900N R30R/1900N BR OVC030 03/01 Q1027 BECMG TL0240 2000
ZHCC,2021-01-25 02:00,ZHCC 250200Z 30002MPS 1800 BR NSC 04/02 Q1027 NOSIG
ZHCC,2021-01-25 03:00,ZHCC 250300Z 31004MPS 2500 BR NSC 05/01 Q1026 BECMG TL0440 3000
ZHCC,2021-01-25 04:00,ZHCC 250400Z 32003MPS 270V350 2800 HZ NSC 07/01 Q1025 BECMG TL0520 3000
ZHCC,2021-01-25 05:00,ZHCC 250500Z 32002MPS 280V010 3000 HZ NSC 07/01 Q1024 NOSIG
ZHCC,2021-01-25 06:00,ZHCC 250600Z VRB01MPS 3000 HZ NSC 07/01 Q1023 NOSIG
ZHCC,2021-01-25 07:00,ZHCC 250700Z 22002MPS 150V250 3000 HZ NSC 08/01 Q1022 NOSIG
ZHCC,2021-01-25 08:00,ZHCC 250800Z 31003MPS 280V340 3000 HZ NSC 09/00 Q1022 BECMG TL0840 2000
ZHCC,2021-01-25 09:00,ZHCC 250900Z 32003MPS 2800 HZ NSC 08/01 Q1022 BECMG TL0940 3000
ZHCC,2021-01-25 10:00,ZHCC 251000Z 24001MPS 3500 HZ NSC 08/01 Q1022 NOSIG
ZHCC,2021-01-25 11:00,ZHCC 251100Z VRB01MPS 4000 HZ NSC 06/01 Q1023 NOSIG
ZHCC,2021-01-25 12:00,ZHCC 251200Z VRB01MPS 4000 BR NSC 05/01 Q1023 NOSIG
ZHCC,2021-01-25 13:00,ZHCC 251300Z VRB01MPS 4000 BR NSC 03/01 Q1023 NOSIG
ZHCC,2021-01-25 14:00,ZHCC 251400Z VRB01MPS 3500 BR NSC 03/01 Q1024 NOSIG
ZHCC,2021-01-25 15:00,ZHCC 251500Z 28002MPS 3500 BR NSC 03/01 Q1024 NOSIG
ZHCC,2021-01-25 16:00,ZHCC 251600Z 31004MPS 5000 BR NSC 04/M01 Q1025 NOSIG
ZHCC,2021-01-25 17:00,ZHCC 251700Z 32005MPS 5000 HZ NSC 05/M01 Q1025 NOSIG
ZHCC,2021-01-25 18:00,ZHCC 251800Z 32004MPS 5000 HZ NSC 04/M01 Q1025 NOSIG
ZHCC,2021-01-25 19:00,ZHCC 251900Z 35003MPS 5000 HZ NSC 04/M01 Q1025 NOSIG
ZHCC,2021-01-25 20:00,ZHCC 252000Z 34004MPS 5000 HZ NSC 04/M00 Q1025 NOSIG
ZHCC,2021-01-25 21:00,ZHCC 252100Z 32005MPS 6000 NSC 03/M01 Q1025 NOSIG
ZHCC,2021-01-25 22:00,ZHCC 252200Z 30003MPS 6000 NSC 01/M03 Q1026 NOSIG
ZHCC,2021-01-25 23:00,ZHCC 252300Z 30003MPS 8000 NSC 01/M04 Q1026 NOSIG
ZHCC,2021-01-26 00:00,ZHCC 260000Z 28002MPS 8000 NSC 01/M04 Q1027 NOSIG
ZHCC,2021-01-26 01:00,ZHCC 260100Z 29003G08MPS 270V340 8000 NSC 04/M03 Q1027 NOSIG
ZHCC,2021-01-26 02:00,ZHCC 260200Z 32005MPS 8000 NSC 09/M06 Q1027 NOSIG
ZHCC,2021-01-26 03:00,ZHCC 260300Z 33004MPS CAVOK 10/M07 Q1027 NOSIG
ZHCC,2021-01-26 04:00,ZHCC 260400Z 36003MPS 330V040 CAVOK 11/M06 Q1026 NOSIG
ZHCC,2021-01-26 05:00,ZHCC 260500Z 35002MPS 250V030 7000 NSC 12/M05 Q1025 NOSIG
ZHCC,2021-01-26 06:00,ZHCC 260600Z 02002MPS 340V070 7000 NSC 11/M06 Q1024 NOSIG
ZHCC,2021-01-26 07:00,ZHCC 260700Z 07003G09MPS 030V120 7000 NSC 11/M05 Q1024 NOSIG
ZHCC,2021-01-26 08:00,ZHCC 260800Z 08003MPS 040V130 7000 NSC 11/M05 Q1024 NOSIG
ZHCC,2021-01-26 09:00,ZHCC 260900Z 09004MPS 7000 NSC 10/M06 Q1024 NOSIG
ZHCC,2021-01-26 10:00,ZHCC 261000Z 11003MPS 6000 NSC 08/M06 Q1024 NOSIG
ZHCC,2021-01-26 11:00,ZHCC 261100Z 10003MPS 6000 NSC 06/M06 Q1025 NOSIG
ZHCC,2021-01-26 12:00,ZHCC 261200Z 12002MPS 6000 NSC 05/M05 Q1025 NOSIG
ZHCC,2021-01-26 13:00,ZHCC 261300Z 14002MPS 6000 NSC 05/M05 Q1026 NOSIG
ZHCC,2021-01-26 14:00,ZHCC 261400Z VRB01MPS 6000 NSC 06/M05 Q1026 NOSIG
ZHCC,2021-01-26 15:00,ZHCC 261500Z 17001MPS 6000 NSC 06/M05 Q1026 NOSIG
ZHCC,2021-01-26 16:00,ZHCC 261600Z VRB01MPS 6000 NSC 03/M04 Q1026 NOSIG
ZHCC,2021-01-26 17:00,ZHCC 261700Z VRB01MPS 6000 NSC 02/M04 Q1025 NOSIG
ZHCC,2021-01-26 18:00,ZHCC 261800Z 21001MPS 5000 HZ NSC 00/M05 Q1025 NOSIG
ZHCC,2021-01-26 19:00,ZHCC 261900Z 00000MPS 5000 HZ NSC M01/M04 Q1024 NOSIG
ZHCC,2021-01-26 20:00,ZHCC 262000Z 00000MPS 5000 HZ NSC M00/M04 Q1024 NOSIG
ZHCC,2021-01-26 21:00,ZHCC 262100Z 19001MPS 5000 HZ NSC 01/M04 Q1024 NOSIG
ZHCC,2021-01-26 22:00,ZHCC 262200Z VRB01MPS 5000 HZ NSC 01/M04 Q1024 NOSIG
ZHCC,2021-01-26 23:00,ZHCC 262300Z 18001MPS 4000 BR NSC 00/M03 Q1024 NOSIG
ZHCC,2021-01-27 00:00,ZHCC 270000Z 19001MPS 2500 BR NSC 02/M03 Q1024 NOSIG
ZHCC,2021-01-27 01:00,ZHCC 270100Z VRB01MPS 2500 HZ NSC 04/M01 Q1025 BECMG TL0240 3000
ZHCC,2021-01-27 02:00,ZHCC 270200Z 19003MPS 160V220 2500 HZ NSC 06/M00 Q1025 NOSIG
ZHCC,2021-01-27 03:00,ZHCC 270300Z 18003MPS 120V230 2500 HZ NSC 07/M00 Q1025 BECMG TL0440 3000
ZHCC,2021-01-27 04:00,ZHCC 270400Z 18003MPS 150V220 2500 HZ NSC 08/M00 Q1024 BECMG TL0540 3000
ZHCC,2021-01-27 05:00,ZHCC 270500Z 21003MPS 160V270 3000 HZ NSC 09/M00 Q1022 NOSIG
ZHCC,2021-01-27 06:00,ZHCC 270600Z 19002MPS 150V230 3000 HZ NSC 11/M01 Q1021 NOSIG
ZHCC,2021-01-27 07:00,ZHCC 270700Z 22003MPS 180V250 3000 HZ NSC 11/M03 Q1021 NOSIG
ZHCC,2021-01-27 08:00,ZHCC 270800Z 18002MPS 130V210 3000 HZ NSC 11/M03 Q1020 NOSIG
ZHCC,2021-01-27 09:00,ZHCC 270900Z 20003MPS 160V240 3000 HZ NSC 10/M02 Q1020 NOSIG
ZHCC,2021-01-27 10:00,ZHCC 271000Z 19003MPS 150V220 3000 HZ NSC 08/M01 Q1021 NOSIG
ZHCC,2021-01-27 11:00,ZHCC 271100Z 19003MPS 160V230 4000 HZ NSC 08/M00 Q1022 NOSIG
ZHCC,2021-01-27 12:00,ZHCC 271200Z 21003MPS 4000 HZ NSC 08/M01 Q1023 NOSIG
ZHCC,2021-01-27 13:00,ZHCC 271300Z VRB01MPS 4000 HZ NSC 06/M02 Q1024 NOSIG
ZHCC,2021-01-27 14:00,ZHCC 271400Z 22002MPS 4000 HZ NSC 04/M02 Q1024 BECMG 33005MPS
ZHCC,2021-01-27 15:00,ZHCC 271500Z 25002MPS 4000 HZ NSC 04/M03 Q1024 BECMG 33008MPS
ZHCC,2021-01-27 16:00,ZHCC 271600Z 27002MPS 5000 HZ NSC 01/M04 Q1024 BECMG 32009MPS
ZHCC,2021-01-27 17:00,ZHCC 271700Z 28002MPS 7000 NSC 05/M05 Q1025 NOSIG
ZHCC,2021-01-27 18:00,ZHCC 271800Z 29005MPS 8000 NSC 08/M10 Q1026 NOSIG
ZHCC,2021-01-27 19:00,ZHCC 271900Z 30007MPS 8000 NSC 08/M17 Q1026 NOSIG
ZHCC,2021-01-27 20:00,ZHCC 272000Z 29008MPS 8000 NSC 07/M21 Q1027 NOSIG
ZHCC,2021-01-27 21:00,ZHCC 272100Z 30009MPS 8000 NSC 07/M21 Q1027 NOSIG
ZHCC,2021-01-27 22:00,ZHCC 272200Z 29010G15MPS 8000 NSC 06/M21 Q1027 NOSIG
ZHCC,2021-01-27 23:00,ZHCC 272300Z 29011MPS 8000 NSC 05/M22 Q1029 NOSIG
ZHCC,2021-01-28 00:00,ZHCC 280000Z 27008MPS 8000 NSC 04/M21 Q1030 NOSIG
ZHCC,2021-01-28 01:00,ZHCC 280100Z 29010MPS CAVOK 05/M22 Q1030 NOSIG
ZHCC,2021-01-28 02:00,ZHCC 280200Z 31012MPS CAVOK 07/M23 Q1031 NOSIG
ZHCC,2021-01-28 03:00,ZHCC 280300Z 30011G16MPS 280V340 CAVOK 07/M25 Q1031 NOSIG
ZHCC,2021-01-28 04:00,ZHCC 280400Z 31012G17MPS CAVOK 08/M25 Q1032 NOSIG
ZHCC,2021-01-28 05:00,ZHCC 280500Z 31008MPS CAVOK 09/M23 Q1031 NOSIG
ZHCC,2021-01-28 06:00,ZHCC 280600Z 32007MPS CAVOK 09/M22 Q1030 NOSIG
ZHCC,2021-01-28 07:00,ZHCC 280700Z 33007MPS CAVOK 10/M21 Q1029 NOSIG
ZHCC,2021-01-28 08:00,ZHCC 280800Z 31005MPS 270V340 CAVOK 10/M18 Q1028 NOSIG
ZHCC,2021-01-28 09:00,ZHCC 280900Z 31003MPS CAVOK 09/M18 Q1028 NOSIG
ZHCC,2021-01-28 10:00,ZHCC 281000Z VRB01MPS CAVOK 06/M17 Q1028 NOSIG
ZHCC,2021-01-28 11:00,ZHCC 281100Z 20002MPS CAVOK 06/M16 Q1028 NOSIG
ZHCC,2021-01-28 12:00,ZHCC 281200Z 19002MPS CAVOK 05/M15 Q1029 NOSIG
ZHCC,2021-01-28 13:00,ZHCC 281300Z 20002MPS CAVOK 05/M16 Q1028 NOSIG
ZHCC,2021-01-28 14:00,ZHCC 281400Z 21002MPS 180V240 CAVOK 05/M15 Q1029 NOSIG
ZHCC,2021-01-28 15:00,ZHCC 281500Z 19002MPS 160V220 CAVOK 04/M15 Q1029 NOSIG
ZHCC,2021-01-28 16:00,ZHCC 281600Z 20002MPS 170V240 CAVOK 04/M15 Q1028 NOSIG
ZHCC,2021-01-28 17:00,ZHCC 281700Z 21002MPS CAVOK 04/M16 Q1028 NOSIG
ZHCC,2021-01-28 18:00,ZHCC 281800Z 21003MPS 170V240 CAVOK 04/M15 Q1027 NOSIG
ZHCC,2021-01-28 19:00,ZHCC 281900Z 21002MPS CAVOK 03/M13 Q1027 NOSIG
ZHCC,2021-01-28 20:00,ZHCC 282000Z 20002MPS 160V230 CAVOK 02/M12 Q1026 NOSIG
ZHCC,2021-01-28 21:00,ZHCC 282100Z VRB01MPS CAVOK 00/M12 Q1025 NOSIG
ZHCC,2021-01-28 22:00,ZHCC 282200Z 00000MPS CAVOK M04/M12 Q1025 NOSIG
ZHCC,2021-01-28 23:00,ZHCC 282300Z 00000MPS CAVOK M03/M11 Q1025 NOSIG
ZHCC,2021-01-29 00:00,ZHCC 290000Z 00000MPS 7000 NSC M03/M10 Q1025 NOSIG
ZHCC,2021-01-29 01:00,ZHCC 290100Z VRB01MPS 7000 NSC 03/M10 Q1025 NOSIG
ZHCC,2021-01-29 02:00,ZHCC 290200Z 20002MPS 170V240 7000 NSC 06/M09 Q1025 NOSIG
ZHCC,2021-01-29 03:00,ZHCC 290300Z 19002MPS 160V240 7000 NSC 08/M09 Q1025 NOSIG
ZHCC,2021-01-29 04:00,ZHCC 290400Z 19003MPS 140V220 7000 NSC 11/M07 Q1024 NOSIG
ZHCC,2021-01-29 05:00,ZHCC 290500Z 18003MPS 140V220 7000 NSC 12/M05 Q1023 NOSIG
ZHCC,2021-01-29 06:00,ZHCC 290600Z 19003MPS 140V230 7000 NSC 13/M05 Q1022 NOSIG
ZHCC,2021-01-29 07:00,ZHCC 290700Z 18003MPS 150V230 7000 NSC 14/M03 Q1021 NOSIG
ZHCC,2021-01-29 08:00,ZHCC 290800Z 19004MPS 160V220 7000 NSC 13/M03 Q1021 NOSIG
ZHCC,2021-01-29 09:00,ZHCC 290900Z 18003MPS 150V220 7000 NSC 12/M03 Q1020 NOSIG
ZHCC,2021-01-29 10:00,ZHCC 291000Z VRB01MPS 7000 NSC 11/M02 Q1021 NOSIG
ZHCC,2021-01-29 11:00,ZHCC 291100Z 19002MPS 160V220 7000 NSC 10/M02 Q1021 NOSIG
ZHCC,2021-01-29 12:00,ZHCC 291200Z 20002MPS 7000 NSC 09/M02 Q1021 NOSIG
ZHCC,2021-01-29 13:00,ZHCC 291300Z 22002MPS 7000 NSC 09/M02 Q1022 NOSIG
ZHCC,2021-01-29 14:00,ZHCC 291400Z 23003MPS 7000 NSC 08/M02 Q1022 NOSIG
ZHCC,2021-01-29 15:00,ZHCC 291500Z 24003MPS 7000 NSC 08/M04 Q1023 NOSIG
ZHCC,2021-01-29 16:00,ZHCC 291600Z 26003MPS 8000 NSC 07/M06 Q1023 NOSIG
ZHCC,2021-01-29 17:00,ZHCC 291700Z 27002MPS 8000 NSC 03/M06 Q1023 NOSIG
ZHCC,2021-01-29 18:00,ZHCC 291800Z 30002MPS 8000 NSC 03/M07 Q1023 NOSIG
ZHCC,2021-01-29 19:00,ZHCC 291900Z 31003MPS 8000 NSC 06/M11 Q1023 NOSIG
ZHCC,2021-01-29 20:00,ZHCC 292000Z 28004MPS CAVOK 05/M11 Q1023 NOSIG
ZHCC,2021-01-29 21:00,ZHCC 292100Z 30003MPS CAVOK 05/M12 Q1023 NOSIG
ZHCC,2021-01-29 22:00,ZHCC 292200Z 27002MPS CAVOK 05/M12 Q1023 NOSIG
ZHCC,2021-01-29 23:00,ZHCC 292300Z 30004MPS CAVOK 06/M11 Q1023 NOSIG
ZHCC,2021-01-30 00:00,ZHCC 300000Z VRB01MPS CAVOK 04/M11 Q1024 NOSIG
ZHCC,2021-01-30 01:00,ZHCC 300100Z 26004MPS CAVOK 08/M10 Q1024 NOSIG
ZHCC,2021-01-30 02:00,ZHCC 300200Z 27003MPS 230V290 CAVOK 12/M10 Q1025 NOSIG
ZHCC,2021-01-30 03:00,ZHCC 300300Z 30007MPS CAVOK 14/M13 Q1025 NOSIG
ZHCC,2021-01-30 04:00,ZHCC 300400Z 31005MPS 280V340 CAVOK 15/M13 Q1024 NOSIG
ZHCC,2021-01-30 05:00,ZHCC 300500Z 31006MPS 270V340 CAVOK 16/M14 Q1023 NOSIG
ZHCC,2021-01-30 06:00,ZHCC 300600Z 31005MPS 280V340 CAVOK 16/M13 Q1022 NOSIG
ZHCC,2021-01-30 07:00,ZHCC 300700Z 26003MPS 220V310 CAVOK 17/M13 Q1021 NOSIG
ZHCC,2021-01-30 08:00,ZHCC 300800Z VRB02MPS CAVOK 17/M13 Q1021 NOSIG
ZHCC,2021-01-30 09:00,ZHCC 300900Z 27003MPS 230V300 CAVOK 15/M13 Q1021 NOSIG
ZHCC,2021-01-30 10:00,ZHCC 301000Z 33002MPS CAVOK 11/M12 Q1021 NOSIG
ZHCC,2021-01-30 11:00,ZHCC 301100Z 00000MPS CAVOK 09/M10 Q1022 NOSIG
ZHCC,2021-01-30 12:00,ZHCC 301200Z 22001MPS CAVOK 09/M09 Q1022 NOSIG
ZHCC,2021-01-30 13:00,ZHCC 301300Z 24001MPS CAVOK 06/M08 Q1022 NOSIG
ZHCC,2021-01-30 14:00,ZHCC 301400Z VRB01MPS CAVOK 04/M08 Q1022 NOSIG
ZHCC,2021-01-30 15:00,ZHCC 301500Z 25001MPS CAVOK 04/M09 Q1023 NOSIG
ZHCC,2021-01-30 16:00,ZHCC 301600Z 23002MPS CAVOK 06/M11 Q1023 NOSIG
ZHCC,2021-01-30 17:00,ZHCC 301700Z 23002MPS CAVOK 07/M12 Q1022 NOSIG
ZHCC,2021-01-30 18:00,ZHCC 301800Z 26002MPS CAVOK 03/M11 Q1022 NOSIG
ZHCC,2021-01-30 19:00,ZHCC 301900Z 26003MPS CAVOK 05/M11 Q1022 NOSIG
ZHCC,2021-01-30 20:00,ZHCC 302000Z 26002MPS CAVOK 03/M11 Q1021 NOSIG
ZHCC,2021-01-30 21:00,ZHCC 302100Z 23002MPS CAVOK M00/M10 Q1021 NOSIG
ZHCC,2021-01-30 22:00,ZHCC 302200Z 26003MPS CAVOK 04/M11 Q1021 NOSIG
ZHCC,2021-01-30 23:00,ZHCC 302300Z 26003MPS CAVOK 05/M11 Q1022 NOSIG
ZHCC,2021-01-31 00:00,ZHCC 310000Z 26003MPS CAVOK 05/M11 Q1022 NOSIG
ZHCC,2021-01-31 01:00,ZHCC 310100Z 27002MPS CAVOK 09/M10 Q1022 NOSIG
ZHCC,2021-01-31 02:00,ZHCC 310200Z 28003MPS 220V330 CAVOK 14/M10 Q1022 NOSIG
ZHCC,2021-01-31 03:00,ZHCC 310300Z 29005MPS CAVOK 13/M12 Q1022 NOSIG
ZHCC,2021-01-31 04:00,ZHCC 310400Z 30005MPS CAVOK 15/M12 Q1021 NOSIG
ZHCC,2021-01-31 05:00,ZHCC 310500Z 30005MPS CAVOK 16/M14 Q1020 NOSIG
ZHCC,2021-01-31 06:00,ZHCC 310600Z 28003MPS 200V340 CAVOK 16/M15 Q1018 NOSIG
ZHCC,2021-01-31 07:00,ZHCC 310700Z 25004MPS 200V280 CAVOK 16/M16 Q1018 NOSIG
ZHCC,2021-01-31 08:00,ZHCC 310800Z 26004MPS 220V290 CAVOK 16/M15 Q1017 NOSIG
ZHCC,2021-01-31 09:00,ZHCC 310900Z 26002MPS CAVOK 15/M13 Q1018 NOSIG
ZHCC,2021-01-31 10:00,ZHCC 311000Z 22002MPS CAVOK 14/M13 Q1018 NOSIG
ZHCC,2021-01-31 11:00,ZHCC 311100Z 19002MPS CAVOK 12/M12 Q1018 NOSIG
ZHCC,2021-01-31 12:00,ZHCC 311200Z 21003MPS CAVOK 12/M10 Q1018 NOSIG
ZHCC,2021-01-31 13:00,ZHCC 311300Z 23003MPS CAVOK 11/M05 Q1019 NOSIG
ZHCC,2021-01-31 14:00,ZHCC 311400Z 22002MPS CAVOK 10/M05 Q1019 NOSIG
ZHCC,2021-01-31 15:00,ZHCC 311500Z 22002MPS CAVOK 09/M07 Q1019 NOSIG
ZHCC,2021-01-31 16:00,ZHCC 311600Z VRB01MPS CAVOK 03/M08 Q1019 NOSIG
ZHCC,2021-01-31 17:00,ZHCC 311700Z VRB01MPS CAVOK 02/M08 Q1019 NOSIG
ZHCC,2021-01-31 18:00,ZHCC 311800Z 24002MPS CAVOK 02/M07 Q1019 NOSIG
ZHCC,2021-01-31 19:00,ZHCC 311900Z 24002MPS CAVOK 02/M08 Q1019 NOSIG
ZHCC,2021-01-31 20:00,ZHCC 312000Z VRB01MPS CAVOK 02/M10 Q1018 NOSIG
ZHCC,2021-01-31 21:00,ZHCC 312100Z 26001MPS CAVOK 03/M11 Q1018 NOSIG
ZHCC,2021-01-31 22:00,ZHCC 312200Z 29003MPS CAVOK 01/M12 Q1018 NOSIG
ZHCC,2021-01-31 23:00,ZHCC 312300Z 27003MPS CAVOK 06/M14 Q1019 NOSIG
ZHCC,2021-02-01 00:00,ZHCC 010000Z 27002MPS CAVOK 06/M13 Q1020 NOSIG
ZHCC,2021-02-01 01:00,ZHCC 010100Z 28003MPS CAVOK 10/M12 Q1020 NOSIG
ZHCC,2021-02-01 02:00,ZHCC 010200Z 29006MPS 260V320 CAVOK 13/M14 Q1021 NOSIG
ZHCC,2021-02-01 03:00,ZHCC 010300Z 30007MPS CAVOK 15/M14 Q1021 BECMG TL0450 03003MPS
ZHCC,2021-02-01 04:00,ZHCC 010400Z 29005MPS 260V320 CAVOK 15/M15 Q1021 BECMG TL0450 03003MPS
ZHCC,2021-02-01 05:00,ZHCC 010500Z 31003MPS 270V020 CAVOK 16/M15 Q1020 NOSIG
ZHCC,2021-02-01 06:00,ZHCC 010600Z 35003MPS 270V050 CAVOK 16/M14 Q1019 NOSIG
ZHCC,2021-02-01 07:00,ZHCC 010700Z 31003MPS 280V350 CAVOK 16/M15 Q1019 NOSIG
ZHCC,2021-02-01 08:00,ZHCC 010800Z 33005MPS CAVOK 16/M15 Q1019 NOSIG
ZHCC,2021-02-01 09:00,ZHCC 010900Z 27003MPS CAVOK 15/M16 Q1020 NOSIG
ZHCC,2021-02-01 10:00,ZHCC 011000Z 28001MPS CAVOK 13/M15 Q1020 NOSIG
ZHCC,2021-02-01 11:00,ZHCC 011100Z VRB01MPS CAVOK 08/M12 Q1021 NOSIG
ZHCC,2021-02-01 12:00,ZHCC 011200Z 31003MPS 270V040 CAVOK 08/M13 Q1022 NOSIG
ZHCC,2021-02-01 13:00,ZHCC 011300Z 03006MPS CAVOK 10/M10 Q1024 NOSIG
ZHCC,2021-02-01 14:00,ZHCC 011400Z 03007MPS CAVOK 08/M10 Q1026 NOSIG
ZHCC,2021-02-01 15:00,ZHCC 011500Z 03007MPS CAVOK 06/M11 Q1027 NOSIG
ZHCC,2021-02-01 16:00,ZHCC 011600Z 04006MPS CAVOK 05/M11 Q1028 NOSIG
ZHCC,2021-02-01 17:00,ZHCC 011700Z 03004MPS CAVOK 04/M11 Q1028 NOSIG
ZHCC,2021-02-01 18:00,ZHCC 011800Z 02004MPS CAVOK 04/M11 Q1029 NOSIG
ZHCC,2021-02-01 19:00,ZHCC 011900Z 01003MPS CAVOK 03/M11 Q1029 NOSIG
ZHCC,2021-02-01 20:00,ZHCC 012000Z 34002MPS 310V020 CAVOK 01/M12 Q1029 NOSIG
ZHCC,2021-02-01 21:00,ZHCC 012100Z 36002MPS CAVOK 01/M12 Q1030 NOSIG
ZHCC,2021-02-01 22:00,ZHCC 012200Z 36003MPS CAVOK 01/M12 Q1030 NOSIG
ZHCC,2021-02-01 23:00,ZHCC 012300Z 01003MPS CAVOK 00/M13 Q1031 NOSIG
ZHCC,2021-02-02 00:00,ZHCC 020000Z 02002MPS 350V070 CAVOK 00/M14 Q1031 NOSIG
ZHCC,2021-02-02 01:00,ZHCC 020100Z VRB01MPS CAVOK 02/M15 Q1032 NOSIG
ZHCC,2021-02-02 02:00,ZHCC 020200Z VRB01MPS CAVOK 04/M14 Q1032 NOSIG
ZHCC,2021-02-02 03:00,ZHCC 020300Z VRB01MPS CAVOK 04/M13 Q1031 NOSIG
ZHCC,2021-02-02 04:00,ZHCC 020400Z 14002MPS 070V240 CAVOK 06/M10 Q1030 NOSIG
ZHCC,2021-02-02 05:00,ZHCC 020500Z 15002MPS 070V210 CAVOK 08/M09 Q1028 NOSIG
ZHCC,2021-02-02 06:00,ZHCC 020600Z VRB02MPS CAVOK 08/M10 Q1027 NOSIG
ZHCC,2021-02-02 07:00,ZHCC 020700Z 21002MPS 140V260 CAVOK 09/M10 Q1025 NOSIG
ZHCC,2021-02-02 08:00,ZHCC 020800Z 16002MPS 090V220 CAVOK 10/M09 Q1025 NOSIG
ZHCC,2021-02-02 09:00,ZHCC 020900Z 17003MPS 130V230 CAVOK 09/M09 Q1025 NOSIG
ZHCC,2021-02-02 10:00,ZHCC 021000Z 17002MPS 130V210 CAVOK 08/M08 Q1025 NOSIG
ZHCC,2021-02-02 11:00,ZHCC 021100Z 17002MPS 120V220 CAVOK 06/M06 Q1025 NOSIG
ZHCC,2021-02-02 12:00,ZHCC 021200Z 19002MPS 160V230 CAVOK 06/M06 Q1025 NOSIG
ZHCC,2021-02-02 13:00,ZHCC 021300Z 19002MPS 160V220 CAVOK 06/M05 Q1025 NOSIG
ZHCC,2021-02-02 14:00,ZHCC 021400Z 18002MPS 140V220 CAVOK 05/M05 Q1024 NOSIG
ZHCC,2021-02-02 15:00,ZHCC 021500Z 21003MPS CAVOK 06/M05 Q1024 NOSIG
ZHCC,2021-02-02 16:00,ZHCC 021600Z 21002MPS CAVOK 05/M05 Q1024 NOSIG
ZHCC,2021-02-02 17:00,ZHCC 021700Z 19002MPS 8000 NSC 04/M05 Q1023 NOSIG
ZHCC,2021-02-02 18:00,ZHCC 021800Z 20002MPS 7000 NSC 04/M03 Q1023 NOSIG
ZHCC,2021-02-02 19:00,ZHCC 021900Z VRB01MPS 7000 NSC 04/M03 Q1022 NOSIG
ZHCC,2021-02-02 20:00,ZHCC 022000Z VRB01MPS 7000 NSC 03/M03 Q1022 NOSIG
ZHCC,2021-02-02 21:00,ZHCC 022100Z 19002MPS 5000 HZ NSC 03/M02 Q1021 NOSIG
ZHCC,2021-02-02 22:00,ZHCC 022200Z 00000MPS 5000 BR NSC 00/M03 Q1021 NOSIG
ZHCC,2021-02-02 23:00,ZHCC 022300Z VRB01MPS 5000 BR NSC M02/M03 Q1021 NOSIG
ZHCC,2021-02-03 00:00,ZHCC 030000Z VRB01MPS 3000 BR NSC M00/M03 Q1022 NOSIG
ZHCC,2021-02-03 01:00,ZHCC 030100Z 22002MPS 3000 HZ NSC 04/M02 Q1022 NOSIG
ZHCC,2021-02-03 02:00,ZHCC 030200Z 28002MPS 250V330 5000 HZ NSC 08/M04 Q1022 BECMG TL0340 31007MPS
ZHCC,2021-02-03 03:00,ZHCC 030300Z 25003MPS 220V290 6000 NSC 11/M04 Q1022 BECMG TL0440 32006MPS
ZHCC,2021-02-03 04:00,ZHCC 030400Z 27006G12MPS 210V310 7000 NSC 16/M09 Q1021 NOSIG
ZHCC,2021-02-03 05:00,ZHCC 030500Z 30010MPS CAVOK 16/M14 Q1021 NOSIG
ZHCC,2021-02-03 06:00,ZHCC 030600Z 31009MPS CAVOK 16/M14 Q1021 NOSIG
ZHCC,2021-02-03 07:00,ZHCC 030700Z 31007MPS CAVOK 16/M14 Q1021 NOSIG
ZHCC,2021-02-03 08:00,ZHCC 030800Z 31005MPS 280V340 CAVOK 16/M14 Q1021 BECMG TL0940 03003MPS
ZHCC,2021-02-03 09:00,ZHCC 030900Z 32003MPS CAVOK 15/M14 Q1022 NOSIG
ZHCC,2021-02-03 10:00,ZHCC 031000Z 00000MPS CAVOK 13/M12 Q1024 NOSIG
ZHCC,2021-02-03 11:00,ZHCC 031100Z 07004MPS CAVOK 12/M08 Q1025 NOSIG
ZHCC,2021-02-03 12:00,ZHCC 031200Z 11002MPS CAVOK 09/M07 Q1026 NOSIG
ZHCC,2021-02-03 13:00,ZHCC 031300Z VRB01MPS CAVOK 04/M08 Q1027 NOSIG
ZHCC,2021-02-03 14:00,ZHCC 031400Z 08002MPS CAVOK 07/M07 Q1027 NOSIG
ZHCC,2021-02-03 15:00,ZHCC 031500Z 00000MPS 8000 NSC 05/M07 Q1028 NOSIG
ZHCC,2021-02-03 16:00,ZHCC 031600Z VRB01MPS 8000 NSC 04/M07 Q1028 NOSIG
ZHCC,2021-02-03 17:00,ZHCC 031700Z 00000MPS 8000 NSC 02/M07 Q1029 NOSIG
ZHCC,2021-02-03 18:00,ZHCC 031800Z 10002MPS 8000 NSC 03/M07 Q1029 NOSIG
ZHCC,2021-02-03 19:00,ZHCC 031900Z 10002MPS 8000 NSC 04/M07 Q1029 NOSIG
ZHCC,2021-02-03 20:00,ZHCC 032000Z VRB01MPS 8000 NSC 02/M07 Q1029 NOSIG
ZHCC,2021-02-03 21:00,ZHCC 032100Z VRB01MPS 8000 NSC M01/M07 Q1029 NOSIG
ZHCC,2021-02-03 22:00,ZHCC 032200Z 28001MPS 8000 NSC M02/M07 Q1030 NOSIG
ZHCC,2021-02-03 23:00,ZHCC 032300Z 00000MPS 7000 NSC M02/M07 Q1029 NOSIG
ZHCC,2021-02-04 00:00,ZHCC 040000Z 26001MPS 5000 HZ NSC M01/M06 Q1030 NOSIG
ZHCC,2021-02-04 01:00,ZHCC 040100Z VRB01MPS 5000 HZ NSC 05/M05 Q1030 NOSIG
ZHCC,2021-02-04 02:00,ZHCC 040200Z 17002MPS 130V210 5000 HZ NSC 08/M05 Q1030 NOSIG
ZHCC,2021-02-04 03:00,ZHCC 040300Z 16004MPS 130V190 5000 HZ NSC 09/M04 Q1029 NOSIG
ZHCC,2021-02-04 04:00,ZHCC 040400Z 19004MPS 150V230 5000 HZ NSC 10/M04 Q1029 NOSIG
ZHCC,2021-02-04 05:00,ZHCC 040500Z 18004MPS 130V240 5000 HZ NSC 12/M05 Q1027 NOSIG
ZHCC,2021-02-04 06:00,ZHCC 040600Z 19004MPS 150V240 5000 HZ NSC 12/M06 Q1026 NOSIG
ZHCC,2021-02-04 07:00,ZHCC 040700Z 21003MPS 150V250 5000 HZ NSC 13/M06 Q1025 NOSIG
ZHCC,2021-02-04 08:00,ZHCC 040800Z 18004MPS 140V200 6000 NSC 12/M08 Q1024 NOSIG
ZHCC,2021-02-04 09:00,ZHCC 040900Z 19003MPS 150V230 7000 NSC 12/M07 Q1024 NOSIG
ZHCC,2021-02-04 10:00,ZHCC 041000Z 18002MPS 140V220 7000 NSC 11/M07 Q1023 NOSIG
ZHCC,2021-02-04 11:00,ZHCC 041100Z 18002MPS 7000 NSC 10/M06 Q1023 NOSIG
ZHCC,2021-02-04 12:00,ZHCC 041200Z 19002MPS 160V220 7000 NSC 10/M04 Q1024 NOSIG
ZHCC,2021-02-04 13:00,ZHCC 041300Z 19002MPS 170V240 7000 NSC 10/M05 Q1024 NOSIG
ZHCC,2021-02-04 14:00,ZHCC 041400Z VRB01MPS 7000 NSC 09/M04 Q1024 NOSIG
ZHCC,2021-02-04 15:00,ZHCC 041500Z 20002MPS 170V240 7000 NSC 09/M03 Q1023 NOSIG
ZHCC,2021-02-04 16:00,ZHCC 041600Z 20002MPS 160V230 6000 NSC 09/M02 Q1023 NOSIG
ZHCC,2021-02-04 17:00,ZHCC 041700Z 20002MPS 170V230 6000 NSC 09/M02 Q1022 NOSIG
ZHCC,2021-02-04 18:00,ZHCC 041800Z 21003MPS 160V230 5000 HZ NSC 08/M01 Q1021 NOSIG
ZHCC,2021-02-04 19:00,ZHCC 041900Z 22002MPS 5000 HZ NSC 07/M02 Q1020 NOSIG
ZHCC,2021-02-04 20:00,ZHCC 042000Z 24003MPS 6000 NSC 07/M03 Q1020 NOSIG
ZHCC,2021-02-04 21:00,ZHCC 042100Z 27002MPS 6000 NSC 05/M04 Q1019 NOSIG
ZHCC,2021-02-04 22:00,ZHCC 042200Z 26002MPS 6000 NSC 06/M04 Q1019 NOSIG
ZHCC,2021-02-04 23:00,ZHCC 042300Z 26002MPS 230V290 6000 NSC 06/M06 Q1019 NOSIG
ZHCC,2021-02-05 00:00,ZHCC 050000Z 26004MPS 6000 NSC 07/M08 Q1019 NOSIG
ZHCC,2021-02-05 01:00,ZHCC 050100Z 27004MPS CAVOK 10/M09 Q1020 NOSIG
ZHCC,2021-02-05 02:00,ZHCC 050200Z 26005MPS CAVOK 14/M10 Q1020 NOSIG
ZHCC,2021-02-05 03:00,ZHCC 050300Z 28006MPS CAVOK 16/M12 Q1019 NOSIG
ZHCC,2021-02-05 04:00,ZHCC 050400Z 28005MPS 240V310 CAVOK 17/M12 Q1018 NOSIG
ZHCC,2021-02-05 05:00,ZHCC 050500Z 29006MPS 260V320 CAVOK 18/M13 Q1017 NOSIG
ZHCC,2021-02-05 06:00,ZHCC 050600Z 27004MPS 230V300 CAVOK 18/M12 Q1016 NOSIG
ZHCC,2021-02-05 07:00,ZHCC 050700Z 27004MPS 180V310 CAVOK 19/M10 Q1016 NOSIG
ZHCC,2021-02-05 08:00,ZHCC 050800Z 25005MPS 200V290 CAVOK 19/M12 Q1015 NOSIG
ZHCC,2021-02-05 09:00,ZHCC 050900Z 27005MPS 230V290 CAVOK 18/M12 Q1015 NOSIG
ZHCC,2021-02-05 10:00,ZHCC 051000Z 26003MPS CAVOK 15/M11 Q1015 NOSIG
ZHCC,2021-02-05 11:00,ZHCC 051100Z 24003MPS CAVOK 15/M11 Q1016 NOSIG
ZHCC,2021-02-05 12:00,ZHCC 051200Z 24003MPS CAVOK 13/M11 Q1016 NOSIG
ZHCC,2021-02-05 13:00,ZHCC 051300Z 23003MPS CAVOK 13/M12 Q1017 NOSIG
ZHCC,2021-02-05 14:00,ZHCC 051400Z 24002MPS CAVOK 12/M12 Q1017 NOSIG
ZHCC,2021-02-05 15:00,ZHCC 051500Z 23001MPS CAVOK 07/M10 Q1017 NOSIG
ZHCC,2021-02-05 16:00,ZHCC 051600Z 00000MPS CAVOK 06/M11 Q1017 NOSIG
ZHCC,2021-02-05 17:00,ZHCC 051700Z 00000MPS CAVOK 06/M09 Q1016 NOSIG
ZHCC,2021-02-05 18:00,ZHCC 051800Z 23001MPS CAVOK 04/M08 Q1016 NOSIG
ZHCC,2021-02-05 19:00,ZHCC 051900Z 21001MPS CAVOK 02/M10 Q1016 NOSIG
ZHCC,2021-02-05 20:00,ZHCC 052000Z 20002MPS CAVOK 06/M07 Q1015 NOSIG
ZHCC,2021-02-05 21:00,ZHCC 052100Z 21002MPS 180V240 CAVOK 06/M05 Q1015 NOSIG
ZHCC,2021-02-05 22:00,ZHCC 052200Z 00000MPS CAVOK 01/M07 Q1016 NOSIG
ZHCC,2021-02-05 23:00,ZHCC 052300Z 28001MPS CAVOK 02/M07 Q1016 NOSIG
ZHCC,2021-02-06 00:00,ZHCC 060000Z 26001MPS CAVOK 03/M08 Q1017 NOSIG
ZHCC,2021-02-06 01:00,ZHCC 060100Z 27002MPS CAVOK 12/M09 Q1017 NOSIG
ZHCC,2021-02-06 02:00,ZHCC 060200Z 24003MPS 210V270 CAVOK 16/M10 Q1018 NOSIG
ZHCC,2021-02-06 03:00,ZHCC 060300Z 25004MPS 220V280 CAVOK 19/M10 Q1018 NOSIG
ZHCC,2021-02-06 04:00,ZHCC 060400Z 24004MPS 200V270 CAVOK 20/M11 Q1017 NOSIG
ZHCC,2021-02-06 05:00,ZHCC 060500Z 26004MPS 210V340 CAVOK 21/M13 Q1016 NOSIG
ZHCC,2021-02-06 06:00,ZHCC 060600Z 25003MPS 220V290 CAVOK 22/M13 Q1015 NOSIG
ZHCC,2021-02-06 07:00,ZHCC 060700Z 23003MPS 150V320 CAVOK 22/M13 Q1014 NOSIG
ZHCC,2021-02-06 08:00,ZHCC 060800Z 16004MPS 130V200 CAVOK 21/M08 Q1014 NOSIG
ZHCC,2021-02-06 09:00,ZHCC 060900Z 19003MPS 160V220 CAVOK 20/M07 Q1014 NOSIG
ZHCC,2021-02-06 10:00,ZHCC 061000Z 18002MPS 160V220 CAVOK 18/M06 Q1014 NOSIG
ZHCC,2021-02-06 11:00,ZHCC 061100Z 18002MPS CAVOK 14/M05 Q1015 NOSIG
ZHCC,2021-02-06 12:00,ZHCC 061200Z 19002MPS CAVOK 14/01 Q1016 NOSIG
ZHCC,2021-02-06 13:00,ZHCC 061300Z 19002MPS 150V230 CAVOK 12/03 Q1017 NOSIG
ZHCC,2021-02-06 14:00,ZHCC 061400Z 22002MPS CAVOK 10/01 Q1017 NOSIG
ZHCC,2021-02-06 15:00,ZHCC 061500Z 22001MPS CAVOK 06/M01 Q1017 NOSIG
ZHCC,2021-02-06 16:00,ZHCC 061600Z VRB01MPS CAVOK 08/M01 Q1017 NOSIG
ZHCC,2021-02-06 17:00,ZHCC 061700Z 26001MPS CAVOK 08/M03 Q1017 NOSIG
ZHCC,2021-02-06 18:00,ZHCC 061800Z 27002MPS CAVOK 08/M03 Q1017 NOSIG
ZHCC,2021-02-06 19:00,ZHCC 061900Z 30003MPS CAVOK 09/M05 Q1018 NOSIG
ZHCC,2021-02-06 20:00,ZHCC 062000Z 31002MPS CAVOK 07/M07 Q1018 NOSIG
ZHCC,2021-02-06 21:00,ZHCC 062100Z VRB01MPS CAVOK 06/M08 Q1019 NOSIG
ZHCC,2021-02-06 22:00,ZHCC 062200Z 32003MPS CAVOK 07/M09 Q1019 NOSIG
ZHCC,2021-02-06 23:00,ZHCC 062300Z 02003MPS 360V060 CAVOK 12/M10 Q1021 NOSIG
ZHCC,2021-02-07 00:00,ZHCC 070000Z 03007MPS 360V060 6000 NSC 09/M10 Q1022 NOSIG
ZHCC,2021-02-07 01:00,ZHCC 070100Z 02007G12MPS 3000 HZ NSC 06/M06 Q1024 NOSIG
ZHCC,2021-02-07 02:00,ZHCC 070200Z 02007MPS 360V060 4000 HZ NSC 05/M05 Q1026 NOSIG
ZHCC,2021-02-07 03:00,ZHCC 070300Z 02007G12MPS 350V060 4000 HZ NSC 06/M05 Q1026 NOSIG
ZHCC,2021-02-07 04:00,ZHCC 070400Z 02006MPS 350V060 5000 HZ NSC 08/M05 Q1026 NOSIG
ZHCC,2021-02-07 05:00,ZHCC 070500Z 03008MPS 360V060 5000 HZ NSC 09/M07 Q1026 NOSIG
ZHCC,2021-02-07 06:00,ZHCC 070600Z 01007MPS 6000 NSC 09/M07 Q1025 NOSIG
ZHCC,2021-02-07 07:00,ZHCC 070700Z 03007MPS 360V060 6000 NSC 09/M07 Q1026 NOSIG
ZHCC,2021-02-07 08:00,ZHCC 070800Z 02006MPS 360V070 CAVOK 09/M06 Q1026 NOSIG
ZHCC,2021-02-07 09:00,ZHCC 070900Z 03007MPS 360V060 CAVOK 08/M06 Q1027 NOSIG
ZHCC,2021-02-07 10:00,ZHCC 071000Z 03007MPS 360V070 CAVOK 07/M06 Q1028 NOSIG
ZHCC,2021-02-07 11:00,ZHCC 071100Z 04006MPS CAVOK 06/M06 Q1029 NOSIG
ZHCC,2021-02-07 12:00,ZHCC 071200Z 03006MPS 360V060 CAVOK 06/M06 Q1030 NOSIG
ZHCC,2021-02-07 13:00,ZHCC 071300Z 02006MPS CAVOK 06/M06 Q1030 NOSIG
ZHCC,2021-02-07 14:00,ZHCC 071400Z 02005MPS 350V050 CAVOK 05/M07 Q1031 NOSIG
ZHCC,2021-02-07 15:00,ZHCC 071500Z 02005MPS CAVOK 05/M07 Q1031 NOSIG
ZHCC,2021-02-07 16:00,ZHCC 071600Z 02004MPS CAVOK 04/M08 Q1031 NOSIG
ZHCC,2021-02-07 17:00,ZHCC 071700Z 03004MPS CAVOK 04/M08 Q1032 NOSIG
ZHCC,2021-02-07 18:00,ZHCC 071800Z 02004MPS CAVOK 04/M08 Q1032 NOSIG
ZHCC,2021-02-07 19:00,ZHCC 071900Z 02003MPS 340V050 CAVOK 03/M08 Q1032 NOSIG
ZHCC,2021-02-07 20:00,ZHCC 072000Z 03004MPS CAVOK 03/M08 Q1032 NOSIG
ZHCC,2021-02-07 21:00,ZHCC 072100Z 02003MPS CAVOK 02/M08 Q1032 NOSIG
ZHCC,2021-02-07 22:00,ZHCC 072200Z 02002MPS CAVOK 02/M08 Q1033 NOSIG
ZHCC,2021-02-07 23:00,ZHCC 072300Z 31001MPS CAVOK M00/M07 Q1033 NOSIG
ZHCC,2021-02-08 00:00,ZHCC 080000Z VRB01MPS CAVOK M00/M07 Q1034 NOSIG
ZHCC,2021-02-08 01:00,ZHCC 080100Z 07002MPS 030V100 CAVOK 02/M08 Q1035 NOSIG
ZHCC,2021-02-08 02:00,ZHCC 080200Z 10002MPS 060V130 CAVOK 04/M07 Q1035 NOSIG
ZHCC,2021-02-08 03:00,ZHCC 080300Z 11003MPS 060V150 CAVOK 05/M08 Q1035 NOSIG
ZHCC,2021-02-08 04:00,ZHCC 080400Z VRB02MPS CAVOK 07/M06 Q1034 NOSIG
ZHCC,2021-02-08 05:00,ZHCC 080500Z VRB02MPS CAVOK 09/M06 Q1033 NOSIG
ZHCC,2021-02-08 06:00,ZHCC 080600Z 16002MPS 120V210 CAVOK 09/M08 Q1032 NOSIG
ZHCC,2021-02-08 07:00,ZHCC 080700Z 15003MPS 090V220 CAVOK 09/M08 Q1030 NOSIG
ZHCC,2021-02-08 08:00,ZHCC 080800Z 16003MPS 110V220 CAVOK 09/M08 Q1030 NOSIG
ZHCC,2021-02-08 09:00,ZHCC 080900Z 15003MPS 130V190 CAVOK 09/M09 Q1030 NOSIG
ZHCC,2021-02-08 10:00,ZHCC 081000Z 13002MPS CAVOK 07/M08 Q1030 NOSIG
ZHCC,2021-02-08 11:00,ZHCC 081100Z 13002MPS CAVOK 05/M07 Q1030 NOSIG
ZHCC,2021-02-08 12:00,ZHCC 081200Z 14002MPS 120V180 CAVOK 05/M07 Q1030 NOSIG
ZHCC,2021-02-08 13:00,ZHCC 081300Z 15001MPS CAVOK 03/M07 Q1031 NOSIG
ZHCC,2021-02-08 14:00,ZHCC 081400Z VRB01MPS CAVOK 02/M07 Q1031 NOSIG
ZHCC,2021-02-08 15:00,ZHCC 081500Z 15002MPS CAVOK 04/M06 Q1030 NOSIG
ZHCC,2021-02-08 16:00,ZHCC 081600Z 16002MPS 110V200 CAVOK 04/M07 Q1030 NOSIG
ZHCC,2021-02-08 17:00,ZHCC 081700Z VRB01MPS CAVOK 02/M06 Q1029 NOSIG
ZHCC,2021-02-08 18:00,ZHCC 081800Z VRB01MPS CAVOK 01/M06 Q1029 NOSIG
ZHCC,2021-02-08 19:00,ZHCC 081900Z VRB01MPS CAVOK 01/M06 Q1028 NOSIG
ZHCC,2021-02-08 20:00,ZHCC 082000Z VRB01MPS CAVOK 00/M07 Q1027 NOSIG
ZHCC,2021-02-08 21:00,ZHCC 082100Z 00000MPS CAVOK M01/M06 Q1027 NOSIG
ZHCC,2021-02-08 22:00,ZHCC 082200Z 00000MPS CAVOK M01/M06 Q1027 NOSIG
ZHCC,2021-02-08 23:00,ZHCC 082300Z VRB01MPS CAVOK M01/M07 Q1027 NOSIG
ZHCC,2021-02-09 00:00,ZHCC 090000Z 11001MPS CAVOK M01/M05 Q1027 NOSIG
ZHCC,2021-02-09 01:00,ZHCC 090100Z 14002MPS 100V170 CAVOK 03/M05 Q1027 NOSIG
ZHCC,2021-02-09 02:00,ZHCC 090200Z 19003MPS 150V240 CAVOK 06/M05 Q1027 NOSIG
ZHCC,2021-02-09 03:00,ZHCC 090300Z 21003MPS 170V250 CAVOK 07/M05 Q1026 NOSIG
ZHCC,2021-02-09 04:00,ZHCC 090400Z VRB02MPS CAVOK 08/M04 Q1025 NOSIG
ZHCC,2021-02-09 05:00,ZHCC 090500Z 18002MPS 070V240 CAVOK 10/M03 Q1024 NOSIG
ZHCC,2021-02-09 06:00,ZHCC 090600Z 16003MPS 090V240 CAVOK 11/M02 Q1023 NOSIG
ZHCC,2021-02-09 07:00,ZHCC 090700Z 16003MPS 120V220 CAVOK 12/M03 Q1022 NOSIG
ZHCC,2021-02-09 08:00,ZHCC 090800Z 20003MPS 160V250 CAVOK 12/M02 Q1021 NOSIG
ZHCC,2021-02-09 09:00,ZHCC 090900Z 18003MPS 130V210 CAVOK 11/M01 Q1021 NOSIG
ZHCC,2021-02-09 10:00,ZHCC 091000Z 19002MPS 160V220 CAVOK 10/M00 Q1021 NOSIG
ZHCC,2021-02-09 11:00,ZHCC 091100Z 18002MPS 150V210 CAVOK 09/00 Q1022 NOSIG
ZHCC,2021-02-09 12:00,ZHCC 091200Z VRB01MPS CAVOK 08/01 Q1022 NOSIG
ZHCC,2021-02-09 13:00,ZHCC 091300Z 15001MPS CAVOK 05/M00 Q1023 NOSIG
ZHCC,2021-02-09 14:00,ZHCC 091400Z 15001MPS CAVOK 03/M00 Q1023 NOSIG
ZHCC,2021-02-09 15:00,ZHCC 091500Z 23001MPS CAVOK 03/M01 Q1022 NOSIG
ZHCC,2021-02-09 16:00,ZHCC 091600Z 17001MPS CAVOK 02/M01 Q1022 NOSIG
ZHCC,2021-02-09 17:00,ZHCC 091700Z 00000MPS 7000 NSC 03/00 Q1022 NOSIG
ZHCC,2021-02-09 18:00,ZHCC 091800Z VRB01MPS 6000 NSC 02/M01 Q1022 NOSIG
ZHCC,2021-02-09 19:00,ZHCC 091900Z VRB01MPS 6000 NSC 02/M00 Q1022 NOSIG
ZHCC,2021-02-09 20:00,ZHCC 092000Z 00000MPS 5000 BR NSC 00/M02 Q1021 NOSIG
ZHCC,2021-02-09 21:00,ZHCC 092100Z 29002MPS 5000 BR NSC 01/M01 Q1021 NOSIG
ZHCC,2021-02-09 22:00,ZHCC 092200Z 25001MPS 5000 BR NSC 00/M02 Q1021 NOSIG
ZHCC,2021-02-09 23:00,ZHCC 092300Z 26002MPS 5000 BR NSC 01/M01 Q1022 NOSIG
ZHCC,2021-02-10 00:00,ZHCC 100000Z VRB01MPS 3000 BR NSC 01/M02 Q1023 NOSIG
ZHCC,2021-02-10 01:00,ZHCC 100100Z VRB01MPS 3000 BR NSC 06/01 Q1023 NOSIG
ZHCC,2021-02-10 02:00,ZHCC 100200Z 01002MPS 260V060 3000 HZ NSC 09/02 Q1023 NOSIG
ZHCC,2021-02-10 03:00,ZHCC 100300Z VRB01MPS 4000 HZ NSC 12/00 Q1023 NOSIG
ZHCC,2021-02-10 04:00,ZHCC 100400Z 08002MPS 040V130 4000 HZ NSC 13/00 Q1023 NOSIG
ZHCC,2021-02-10 05:00,ZHCC 100500Z VRB02MPS 4000 HZ NSC 13/00 Q1022 NOSIG
ZHCC,2021-02-10 06:00,ZHCC 100600Z 09003MPS 050V110 5000 HZ NSC 14/01 Q1021 NOSIG
ZHCC,2021-02-10 07:00,ZHCC 100700Z 11003MPS 070V140 4000 HZ NSC 16/04 Q1020 NOSIG
ZHCC,2021-02-10 08:00,ZHCC 100800Z VRB02MPS 5000 HZ NSC 16/03 Q1020 NOSIG
ZHCC,2021-02-10 09:00,ZHCC 100900Z 12003MPS 5000 HZ NSC 15/03 Q1020 NOSIG
ZHCC,2021-02-10 10:00,ZHCC 101000Z VRB01MPS 5000 HZ NSC 13/04 Q1021 NOSIG
ZHCC,2021-02-10 11:00,ZHCC 101100Z 13001MPS 5000 HZ NSC 09/03 Q1021 NOSIG
ZHCC,2021-02-10 12:00,ZHCC 101200Z 12002MPS 5000 HZ NSC 08/03 Q1021 NOSIG
ZHCC,2021-02-10 13:00,ZHCC 101300Z VRB01MPS 5000 BR NSC 06/03 Q1022 NOSIG
ZHCC,2021-02-10 14:00,ZHCC 101400Z VRB01MPS 5000 BR NSC 05/02 Q1022 NOSIG
ZHCC,2021-02-10 15:00,ZHCC 101500Z VRB01MPS 5000 BR NSC 07/03 Q1022 NOSIG
ZHCC,2021-02-10 16:00,ZHCC 101600Z 00000MPS 5000 BR NSC 04/01 Q1022 NOSIG
ZHCC,2021-02-10 17:00,ZHCC 101700Z 00000MPS 5000 BR NSC 03/01 Q1022 NOSIG
ZHCC,2021-02-10 18:00,ZHCC 101800Z 15001MPS 5000 BR NSC 02/01 Q1022 NOSIG
ZHCC,2021-02-10 19:00,ZHCC 101900Z 00000MPS 5000 BR NSC 02/01 Q1022 NOSIG
ZHCC,2021-02-10 20:00,ZHCC 102000Z 00000MPS 4000 BR NSC 01/M00 Q1021 NOSIG
ZHCC,2021-02-10 21:00,ZHCC 102100Z 00000MPS 4000 BR NSC 00/M01 Q1021 BECMG TL2240 2500
ZHCC,2021-02-10 22:00,ZHCC 102200Z 16001MPS 4000 BR NSC M01/M01 Q1021 BECMG TL2340 2500
ZHCC,2021-02-10 23:00,ZHCC 102300Z 00000MPS 2000 R12R/1400U R12L/P2000 BR NSC 00/M00 Q1021 NOSIG
ZHCC,2021-02-11 00:00,ZHCC 110000Z VRB01MPS 1600 R12R/1300U R12L/1700U BR NSC 01/00 Q1022 BECMG TL0140 3000
ZHCC,2021-02-11 01:00,ZHCC 110100Z VRB01MPS 2000 BR NSC 07/04 Q1022 BECMG TL0200 3000
ZHCC,2021-02-11 02:00,ZHCC 110200Z 15002MPS 110V200 3000 HZ NSC 10/05 Q1021 NOSIG
ZHCC,2021-02-11 03:00,ZHCC 110300Z 17002MPS 060V200 3000 HZ NSC 12/05 Q1021 NOSIG
ZHCC,2021-02-11 04:00,ZHCC 110400Z 18002MPS 100V270 5000 HZ NSC 14/05 Q1021 NOSIG
ZHCC,2021-02-11 05:00,ZHCC 110500Z 19003MPS 130V240 6000 NSC 15/04 Q1019 NOSIG
ZHCC,2021-02-11 06:00,ZHCC 110600Z 18003MPS 120V270 7000 NSC 17/01 Q1018 NOSIG
ZHCC,2021-02-11 07:00,ZHCC 110700Z 18004MPS 140V220 8000 NSC 17/01 Q1018 NOSIG
ZHCC,2021-02-11 08:00,ZHCC 110800Z 18003MPS 140V220 8000 NSC 16/M01 Q1017 NOSIG
ZHCC,2021-02-11 09:00,ZHCC 110900Z 16003MPS 120V190 8000 NSC 15/00 Q1017 NOSIG
ZHCC,2021-02-11 10:00,ZHCC 111000Z 18003MPS 150V210 CAVOK 14/00 Q1017 NOSIG
ZHCC,2021-02-11 11:00,ZHCC 111100Z 18002MPS 120V230 CAVOK 13/01 Q1018 NOSIG
ZHCC,2021-02-11 12:00,ZHCC 111200Z 18002MPS 130V220 CAVOK 12/03 Q1018 NOSIG
ZHCC,2021-02-11 13:00,ZHCC 111300Z 18002MPS 8000 NSC 12/04 Q1018 NOSIG
ZHCC,2021-02-11 14:00,ZHCC 111400Z 20002MPS 150V230 8000 NSC 11/04 Q1018 NOSIG
ZHCC,2021-02-11 15:00,ZHCC 111500Z VRB01MPS 8000 NSC 10/04 Q1018 NOSIG
ZHCC,2021-02-11 16:00,ZHCC 111600Z 20001MPS 8000 NSC 10/04 Q1018 NOSIG
ZHCC,2021-02-11 17:00,ZHCC 111700Z 19002MPS 160V220 8000 NSC 10/04 Q1018 NOSIG
ZHCC,2021-02-11 18:00,ZHCC 111800Z 17002MPS 120V200 6000 NSC 09/05 Q1018 NOSIG
ZHCC,2021-02-11 19:00,ZHCC 111900Z 18002MPS 150V240 5000 BR NSC 09/05 Q1018 NOSIG
ZHCC,2021-02-11 20:00,ZHCC 112000Z VRB01MPS 4000 BR NSC 06/04 Q1018 NOSIG
ZHCC,2021-02-11 21:00,ZHCC 112100Z 16001MPS 4000 BR NSC 06/04 Q1018 NOSIG
ZHCC,2021-02-11 22:00,ZHCC 112200Z VRB01MPS 3000 BR NSC 04/02 Q1018 BECMG TL2340 2000
ZHCC,2021-02-11 23:00,ZHCC 112300Z 17001MPS 2000 BR NSC 02/01 Q1018 NOSIG
ZHCC,2021-02-12 00:00,ZHCC 120000Z VRB01MPS 1300 R12R/1000V1400D R12L/1900D BR NSC 05/04 Q1019 BECMG TL0100 1500
ZHCC,2021-02-12 01:00,ZHCC 120100Z 16002MPS 120V200 1500 BR NSC 07/06 Q1019 NOSIG
ZHCC,2021-02-12 02:00,ZHCC 120200Z 20002MPS 140V240 2500 BR NSC 11/07 Q1020 BECMG TL0340 3000
ZHCC,2021-02-12 03:00,ZHCC 120300Z VRB01MPS 2800 HZ NSC 13/07 Q1020 BECMG TL0340 3000
ZHCC,2021-02-12 04:00,ZHCC 120400Z 15002MPS 100V230 4000 HZ NSC 16/06 Q1020 NOSIG
ZHCC,2021-02-12 05:00,ZHCC 120500Z 09002MPS 010V150 5000 HZ NSC 16/06 Q1019 NOSIG
ZHCC,2021-02-12 06:00,ZHCC 120600Z 13002MPS 090V180 6000 NSC 17/06 Q1018 NOSIG
ZHCC,2021-02-12 07:00,ZHCC 120700Z 11003MPS 060V140 6000 NSC 17/06 Q1018 NOSIG
ZHCC,2021-02-12 08:00,ZHCC 120800Z 10005MPS 3500 HZ NSC 16/08 Q1018 NOSIG
ZHCC,2021-02-12 09:00,ZHCC 120900Z 11004MPS 3000 HZ NSC 15/08 Q1018 NOSIG
ZHCC,2021-02-12 10:00,ZHCC 121000Z 12003MPS 3000 HZ NSC 13/08 Q1019 NOSIG
ZHCC,2021-02-12 11:00,ZHCC 121100Z 11002MPS 4000 BR NSC 10/08 Q1019 NOSIG
ZHCC,2021-02-12 12:00,ZHCC 121200Z 09001MPS 3500 BR NSC 10/08 Q1020 NOSIG
ZHCC,2021-02-12 13:00,ZHCC 121300Z 10001MPS 3000 BR NSC 08/07 Q1021 NOSIG
ZHCC,2021-02-12 14:00,ZHCC 121400Z 29001MPS 3000 BR NSC 07/06 Q1021 BECMG TL1540 2000
ZHCC,2021-02-12 15:00,ZHCC 121500Z 00000MPS 2500 BR NSC 06/05 Q1021 NOSIG
ZHCC,2021-02-12 16:00,ZHCC 121600Z 06001MPS 2500 BR NSC 09/08 Q1021 NOSIG
ZHCC,2021-02-12 17:00,ZHCC 121700Z VRB01MPS 2500 BR NSC 10/08 Q1022 NOSIG
ZHCC,2021-02-12 18:00,ZHCC 121800Z 00000MPS 2500 BR NSC 08/06 Q1022 NOSIG
ZHCC,2021-02-12 19:00,ZHCC 121900Z 11002MPS 2000 R12R/1700U R12L/0800V1100D BR NSC 07/07 Q1022 NOSIG
ZHCC,2021-02-12 20:00,ZHCC 122000Z 11001MPS 2000 R12R/1700N R12L/0400V1300U PRFG BR NSC 08/07 Q1021 BECMG TL2140 0800 FG
ZHCC,2021-02-12 21:00,ZHCC 122100Z 10001MPS 2000 R30L/P2000 R30R/1200U BR NSC 08/08 Q1021 BECMG TL2140 0800 FG
ZHCC,2021-02-12 22:00,ZHCC 122200Z 11001MPS 2000 BR NSC 08/07 Q1021 NOSIG
ZHCC,2021-02-12 23:00,ZHCC 122300Z 12002MPS 1800 BR NSC 08/07 Q1021 BECMG TL2340 1500
ZHCC,2021-02-13 00:00,ZHCC 130000Z 12001MPS 1400 R12R/1500N R12L/1900D BR NSC 07/07 Q1021 BECMG TL0140 1600
ZHCC,2021-02-13 01:00,ZHCC 130100Z VRB01MPS 1400 R12R/P2000 R12L/P2000 BR NSC 08/07 Q1022 BECMG TL0220 1600
ZHCC,2021-02-13 02:00,ZHCC 130200Z 17002MPS 120V220 2500 BR NSC 11/08 Q1021 BECMG TL0320 3000
ZHCC,2021-02-13 03:00,ZHCC 130300Z VRB01MPS 3500 BR NSC 13/08 Q1021 NOSIG
ZHCC,2021-02-13 04:00,ZHCC 130400Z VRB01MPS 3500 BR NSC 13/08 Q1020 NOSIG
ZHCC,2021-02-13 05:00,ZHCC 130500Z VRB01MPS 3500 BR NSC 13/09 Q1019 NOSIG
ZHCC,2021-02-13 06:00,ZHCC 130600Z VRB01MPS 4000 HZ NSC 14/09 Q1019 NOSIG
ZHCC,2021-02-13 07:00,ZHCC 130700Z 12003MPS 080V170 4000 HZ NSC 14/09 Q1018 NOSIG
ZHCC,2021-02-13 08:00,ZHCC 130800Z 00000MPS 3500 HZ NSC 14/09 Q1018 BECMG TL0940 2500
ZHCC,2021-02-13 09:00,ZHCC 130900Z VRB01MPS 3000 -RA BR OVC030 14/10 Q1018 BECMG TL1020 2500
ZHCC,2021-02-13 10:00,ZHCC 131000Z 13001MPS 2500 -RA BR OVC030 13/10 Q1018 BECMG TL1120 3000
ZHCC,2021-02-13 11:00,ZHCC 131100Z 29002MPS 3000 BR OVC030 11/10 Q1018 NOSIG
ZHCC,2021-02-13 12:00,ZHCC 131200Z 00000MPS 3000 BR NSC 11/10 Q1018 BECMG TL1340 2000
ZHCC,2021-02-13 13:00,ZHCC 131300Z VRB01MPS 3000 BR NSC 11/10 Q1018 BECMG TL1420 2000
ZHCC,2021-02-13 14:00,ZHCC 131400Z 26001MPS 2500 -RA BR OVC030 11/10 Q1018 NOSIG
ZHCC,2021-02-13 15:00,ZHCC 131500Z 27004MPS 2500 -RA BR OVC030 10/09 Q1018 NOSIG
ZHCC,2021-02-13 16:00,ZHCC 131600Z 27002MPS 2200 -RA BR OVC030 10/09 Q1017 NOSIG
ZHCC,2021-02-13 17:00,ZHCC 131700Z 26002MPS 1500 -RA BR OVC030 10/09 Q1017 NOSIG
ZHCC,2021-02-13 18:00,ZHCC 131800Z 24002MPS 1500 -RA BR OVC030 09/09 Q1016 NOSIG
ZHCC,2021-02-13 19:00,ZHCC 131900Z 26002MPS 2500 BR OVC030 09/08 Q1016 NOSIG
ZHCC,2021-02-13 20:00,ZHCC 132000Z 24002MPS 2500 BR OVC040 09/07 Q1014 NOSIG
ZHCC,2021-02-13 21:00,ZHCC 132100Z 26002MPS 2800 BR NSC 08/07 Q1014 BECMG TL2220 3000
ZHCC,2021-02-13 22:00,ZHCC 132200Z 27002MPS 3500 BR NSC 07/06 Q1014 BECMG TL2340 2000
ZHCC,2021-02-13 23:00,ZHCC 132300Z 26002MPS 3000 BR NSC 06/05 Q1015 BECMG TL2340 2000
ZHCC,2021-02-14 00:00,ZHCC 140000Z 26002MPS 2800 R30L/1400U R30R/P2000 BR NSC 07/06 Q1015 BECMG TL0120 3000
ZHCC,2021-02-14 01:00,ZHCC 140100Z 25002MPS 4000 BR NSC 10/06 Q1015 NOSIG
ZHCC,2021-02-14 02:00,ZHCC 140200Z 27003MPS 250V310 5000 HZ NSC 13/07 Q1016 NOSIG
ZHCC,2021-02-14 03:00,ZHCC 140300Z 29002MPS 240V360 CAVOK 15/06 Q1015 NOSIG
ZHCC,2021-02-14 04:00,ZHCC 140400Z 28003MPS 200V350 CAVOK 17/05 Q1015 NOSIG
ZHCC,2021-02-14 05:00,ZHCC 140500Z 20003MPS 160V240 CAVOK 18/05 Q1014 NOSIG
ZHCC,2021-02-14 06:00,ZHCC 140600Z 20003MPS 110V270 CAVOK 18/06 Q1013 NOSIG
ZHCC,2021-02-14 07:00,ZHCC 140700Z 20002MPS 150V290 CAVOK 19/07 Q1012 NOSIG
ZHCC,2021-02-14 08:00,ZHCC 140800Z 15002MPS 110V180 CAVOK 20/05 Q1012 NOSIG
ZHCC,2021-02-14 09:00,ZHCC 140900Z 16003MPS 120V190 CAVOK 19/05 Q1012 NOSIG
ZHCC,2021-02-14 10:00,ZHCC 141000Z 18002MPS 150V220 CAVOK 17/04 Q1012 NOSIG
ZHCC,2021-02-14 11:00,ZHCC 141100Z 17001MPS CAVOK 14/05 Q1013 BECMG TL1240 03005MPS
ZHCC,2021-02-14 12:00,ZHCC 141200Z VRB01MPS CAVOK 14/06 Q1014 NOSIG
ZHCC,2021-02-14 13:00,ZHCC 141300Z 03006MPS 8000 NSC 14/07 Q1017 BECMG TL1440 2000
ZHCC,2021-02-14 14:00,ZHCC 141400Z 02007MPS 3000 BR NSC 11/08 Q1018 BECMG TL1440 2000
ZHCC,2021-02-14 15:00,ZHCC 141500Z 06003MPS 2500 BR NSC 10/06 Q1019 NOSIG
ZHCC,2021-02-14 16:00,ZHCC 141600Z 36003MPS 2500 BR NSC 10/06 Q1019 BECMG TL1740 3000
ZHCC,2021-02-14 17:00,ZHCC 141700Z 01006MPS 2800 BR NSC 08/05 Q1021 BECMG TL1740 3000
ZHCC,2021-02-14 18:00,ZHCC 141800Z 02007G12MPS 3500 BR NSC 06/02 Q1022 NOSIG
ZHCC,2021-02-14 19:00,ZHCC 141900Z 01007MPS 5000 BR NSC 05/01 Q1022 NOSIG
ZHCC,2021-02-14 20:00,ZHCC 142000Z 02006MPS 5000 BR NSC 04/01 Q1023 NOSIG
ZHCC,2021-02-14 21:00,ZHCC 142100Z 04005MPS 360V070 5000 BR NSC 03/00 Q1024 NOSIG
ZHCC,2021-02-14 22:00,ZHCC 142200Z 03006MPS 5000 BR NSC 03/M00 Q1024 NOSIG
ZHCC,2021-02-14 23:00,ZHCC 142300Z 04004MPS 5000 BR NSC 02/M00 Q1025 NOSIG
ZHCC,2021-02-15 00:00,ZHCC 150000Z 02004MPS 4000 BR NSC 02/M01 Q1025 NOSIG
ZHCC,2021-02-15 01:00,ZHCC 150100Z 01002MPS 320V040 5000 BR NSC 03/M01 Q1026 NOSIG
ZHCC,2021-02-15 02:00,ZHCC 150200Z 03002MPS 350V070 6000 NSC 03/M01 Q1027 NOSIG
ZHCC,2021-02-15 03:00,ZHCC 150300Z VRB01MPS 7000 NSC 04/M02 Q1027 NOSIG
ZHCC,2021-02-15 04:00,ZHCC 150400Z VRB01MPS 8000 NSC 05/M02 Q1025 NOSIG
ZHCC,2021-02-15 05:00,ZHCC 150500Z 11003MPS 080V170 8000 NSC 06/M02 Q1024 NOSIG
ZHCC,2021-02-15 06:00,ZHCC 150600Z 16003MPS 100V200 8000 NSC 06/M02 Q1023 NOSIG
ZHCC,2021-02-15 07:00,ZHCC 150700Z 18003MPS 130V220 8000 NSC 07/M02 Q1022 NOSIG
ZHCC,2021-02-15 08:00,ZHCC 150800Z 17003MPS 130V210 8000 NSC 06/M02 Q1021 NOSIG
ZHCC,2021-02-15 09:00,ZHCC 150900Z 19004MPS 160V220 8000 NSC 06/M01 Q1021 NOSIG
ZHCC,2021-02-15 10:00,ZHCC 151000Z 19004MPS 160V240 8000 NSC 06/M01 Q1020 NOSIG
ZHCC,2021-02-15 11:00,ZHCC 151100Z 20004MPS 150V230 8000 NSC 06/M01 Q1020 NOSIG
ZHCC,2021-02-15 12:00,ZHCC 151200Z 21005MPS 8000 NSC 06/M01 Q1019 NOSIG
ZHCC,2021-02-15 13:00,ZHCC 151300Z 21005MPS 180V240 8000 NSC 06/M01 Q1019 NOSIG
ZHCC,2021-02-15 14:00,ZHCC 151400Z 20004MPS 8000 NSC 06/M01 Q1019 NOSIG
ZHCC,2021-02-15 15:00,ZHCC 151500Z 21003MPS 170V230 8000 NSC 05/M00 Q1019 NOSIG
ZHCC,2021-02-15 16:00,ZHCC 151600Z 22002MPS 8000 NSC 05/M01 Q1018 NOSIG
ZHCC,2021-02-15 17:00,ZHCC 151700Z 23002MPS 8000 NSC 04/M01 Q1018 NOSIG
ZHCC,2021-02-15 18:00,ZHCC 151800Z 23002MPS 8000 NSC 04/M02 Q1018 NOSIG
ZHCC,2021-02-15 19:00,ZHCC 151900Z 25002MPS 8000 NSC 03/M03 Q1018 NOSIG
ZHCC,2021-02-15 20:00,ZHCC 152000Z 25004MPS 8000 NSC 05/M05 Q1018 NOSIG
ZHCC,2021-02-15 21:00,ZHCC 152100Z 27003MPS CAVOK 05/M07 Q1018 NOSIG
ZHCC,2021-02-15 22:00,ZHCC 152200Z 26005MPS CAVOK 08/M08 Q1018 NOSIG
ZHCC,2021-02-15 23:00,ZHCC 152300Z 28003MPS 260V330 CAVOK 06/M08 Q1018 NOSIG
ZHCC,2021-02-16 00:00,ZHCC 160000Z 30006MPS CAVOK 09/M08 Q1019 NOSIG
ZHCC,2021-02-16 01:00,ZHCC 160100Z 31008MPS CAVOK 12/M10 Q1020 BECMG TL0240 03007MPS
ZHCC,2021-02-16 02:00,ZHCC 160200Z 36007MPS 340V040 CAVOK 10/M06 Q1022 NOSIG
ZHCC,2021-02-16 03:00,ZHCC 160300Z 04005G11MPS 010V110 CAVOK 09/M05 Q1022 NOSIG
ZHCC,2021-02-16 04:00,ZHCC 160400Z 04005MPS CAVOK 10/M06 Q1022 NOSIG
ZHCC,2021-02-16 05:00,ZHCC 160500Z 05004MPS CAVOK 11/M05 Q1021 NOSIG
ZHCC,2021-02-16 06:00,ZHCC 160600Z 07004MPS 040V100 CAVOK 11/M05 Q1021 NOSIG
ZHCC,2021-02-16 07:00,ZHCC 160700Z 09004MPS 040V140 CAVOK 13/M05 Q1020 NOSIG
ZHCC,2021-02-16 08:00,ZHCC 160800Z 07004MPS CAVOK 12/M05 Q1020 NOSIG
ZHCC,2021-02-16 09:00,ZHCC 160900Z 10004MPS CAVOK 12/M04 Q1020 NOSIG
ZHCC,2021-02-16 10:00,ZHCC 161000Z 09004MPS CAVOK 11/M04 Q1021 NOSIG
ZHCC,2021-02-16 11:00,ZHCC 161100Z 06003MPS CAVOK 10/M03 Q1023 NOSIG
ZHCC,2021-02-16 12:00,ZHCC 161200Z 05004MPS CAVOK 09/M02 Q1024 NOSIG
ZHCC,2021-02-16 13:00,ZHCC 161300Z 05004MPS CAVOK 07/M02 Q1025 NOSIG
ZHCC,2021-02-16 14:00,ZHCC 161400Z 04003MPS 020V080 8000 NSC 06/M01 Q1026 NOSIG
ZHCC,2021-02-16 15:00,ZHCC 161500Z 06003MPS 020V090 8000 NSC 05/M03 Q1027 NOSIG
ZHCC,2021-02-16 16:00,ZHCC 161600Z 06003MPS CAVOK 04/M05 Q1027 NOSIG
ZHCC,2021-02-16 17:00,ZHCC 161700Z 06002MPS CAVOK 03/M07 Q1027 NOSIG
ZHCC,2021-02-16 18:00,ZHCC 161800Z 06003MPS CAVOK 03/M08 Q1028 NOSIG
ZHCC,2021-02-16 19:00,ZHCC 161900Z 06001MPS CAVOK 02/M09 Q1028 NOSIG
ZHCC,2021-02-16 20:00,ZHCC 162000Z VRB01MPS CAVOK 00/M08 Q1028 NOSIG
ZHCC,2021-02-16 21:00,ZHCC 162100Z 34002MPS 320V020 CAVOK M02/M08 Q1028 NOSIG
ZHCC,2021-02-16 22:00,ZHCC 162200Z 01003MPS CAVOK 00/M10 Q1028 NOSIG
ZHCC,2021-02-16 23:00,ZHCC 162300Z 35002MPS 310V050 CAVOK M01/M09 Q1029 NOSIG
ZHCC,2021-02-17 00:00,ZHCC 170000Z 03002MPS 010V070 CAVOK 01/M11 Q1030 NOSIG
ZHCC,2021-02-17 01:00,ZHCC 170100Z 05002MPS CAVOK 02/M12 Q1030 NOSIG
ZHCC,2021-02-17 02:00,ZHCC 170200Z 08002MPS 360V120 CAVOK 03/M11 Q1030 NOSIG
ZHCC,2021-02-17 03:00,ZHCC 170300Z VRB02MPS CAVOK 04/M11 Q1030 NOSIG
ZHCC,2021-02-17 04:00,ZHCC 170400Z 03002MPS 320V110 CAVOK 07/M10 Q1029 NOSIG
ZHCC,2021-02-17 05:00,ZHCC 170500Z 07002MPS 330V140 CAVOK 09/M09 Q1028 NOSIG
ZHCC,2021-02-17 06:00,ZHCC 170600Z 06002MPS 340V090 CAVOK 09/M09 Q1027 NOSIG
ZHCC,2021-02-17 07:00,ZHCC 170700Z 11004MPS 080V140 CAVOK 10/M08 Q1027 NOSIG
ZHCC,2021-02-17 08:00,ZHCC 170800Z 12003MPS CAVOK 11/M07 Q1027 NOSIG
ZHCC,2021-02-17 09:00,ZHCC 170900Z 13003MPS 100V170 CAVOK 11/M06 Q1027 NOSIG
ZHCC,2021-02-17 10:00,ZHCC 171000Z 12003MPS CAVOK 08/M04 Q1028 NOSIG
ZHCC,2021-02-17 11:00,ZHCC 171100Z 07004MPS CAVOK 08/M03 Q1028 NOSIG
ZHCC,2021-02-17 12:00,ZHCC 171200Z 08004MPS CAVOK 07/M02 Q1029 NOSIG
ZHCC,2021-02-17 13:00,ZHCC 171300Z 07002MPS CAVOK 06/M02 Q1030 NOSIG
ZHCC,2021-02-17 14:00,ZHCC 171400Z 09003MPS CAVOK 04/M02 Q1030 NOSIG
ZHCC,2021-02-17 15:00,ZHCC 171500Z 12002MPS CAVOK 04/M02 Q1030 NOSIG
ZHCC,2021-02-17 16:00,ZHCC 171600Z 05002MPS CAVOK 04/M02 Q1031 NOSIG
ZHCC,2021-02-17 17:00,ZHCC 171700Z VRB01MPS 8000 NSC 03/M02 Q1031 NOSIG
ZHCC,2021-02-17 18:00,ZHCC 171800Z VRB01MPS 6000 NSC 02/M02 Q1030 NOSIG
ZHCC,2021-02-17 19:00,ZHCC 171900Z 07002MPS 030V120 6000 NSC 02/M02 Q1031 NOSIG
ZHCC,2021-02-17 20:00,ZHCC 172000Z 11001MPS 6000 NSC 02/M03 Q1030 NOSIG
ZHCC,2021-02-17 21:00,ZHCC 172100Z 00000MPS 6000 NSC M01/M04 Q1030 NOSIG
ZHCC,2021-02-17 22:00,ZHCC 172200Z 00000MPS 6000 NSC M02/M04 Q1030 NOSIG
ZHCC,2021-02-17 23:00,ZHCC 172300Z 00000MPS 5000 BR NSC M02/M04 Q1030 NOSIG
ZHCC,2021-02-18 00:00,ZHCC 180000Z VRB01MPS 5000 BR NSC 02/M02 Q1031 NOSIG
ZHCC,2021-02-18 01:00,ZHCC 180100Z 19004MPS 160V220 6000 NSC 05/M01 Q1031 NOSIG
ZHCC,2021-02-18 02:00,ZHCC 180200Z 19003MPS 160V220 6000 NSC 06/M01 Q1031 NOSIG
ZHCC,2021-02-18 03:00,ZHCC 180300Z 20003MPS 140V240 6000 NSC 08/00 Q1030 NOSIG
ZHCC,2021-02-18 04:00,ZHCC 180400Z 19003MPS 140V230 6000 NSC 10/01 Q1029 NOSIG
ZHCC,2021-02-18 05:00,ZHCC 180500Z 17004MPS 120V230 6000 NSC 12/01 Q1028 NOSIG
ZHCC,2021-02-18 06:00,ZHCC 180600Z 17004MPS 130V210 6000 NSC 12/01 Q1026 NOSIG
ZHCC,2021-02-18 07:00,ZHCC 180700Z 17004MPS 120V220 6000 NSC 14/02 Q1025 NOSIG
ZHCC,2021-02-18 08:00,ZHCC 180800Z 17004MPS 130V210 6000 NSC 13/02 Q1024 NOSIG
ZHCC,2021-02-18 09:00,ZHCC 180900Z 18004MPS 150V210 6000 NSC 13/02 Q1024 NOSIG
ZHCC,2021-02-18 10:00,ZHCC 181000Z 18003MPS 140V230 6000 NSC 13/03 Q1023 NOSIG
ZHCC,2021-02-18 11:00,ZHCC 181100Z 19003MPS 160V220 8000 NSC 12/03 Q1023 NOSIG
ZHCC,2021-02-18 12:00,ZHCC 181200Z 20002MPS 160V230 8000 NSC 11/03 Q1023 NOSIG
ZHCC,2021-02-18 13:00,ZHCC 181300Z 20003MPS 160V230 6000 NSC 10/03 Q1023 NOSIG
ZHCC,2021-02-18 14:00,ZHCC 181400Z 20004MPS 160V220 8000 NSC 10/04 Q1023 NOSIG
ZHCC,2021-02-18 15:00,ZHCC 181500Z 21003MPS 8000 NSC 09/03 Q1023 NOSIG
ZHCC,2021-02-18 16:00,ZHCC 181600Z 19002MPS 8000 NSC 09/03 Q1022 NOSIG
ZHCC,2021-02-18 17:00,ZHCC 181700Z 21002MPS 8000 NSC 09/03 Q1021 NOSIG
ZHCC,2021-02-18 18:00,ZHCC 181800Z VRB01MPS 8000 NSC 05/02 Q1021 NOSIG
ZHCC,2021-02-18 19:00,ZHCC 181900Z 00000MPS 6000 NSC 04/02 Q1020 NOSIG
ZHCC,2021-02-18 20:00,ZHCC 182000Z 28001MPS 6000 NSC 03/00 Q1019 NOSIG
ZHCC,2021-02-18 21:00,ZHCC 182100Z VRB01MPS 6000 NSC 02/00 Q1019 NOSIG
ZHCC,2021-02-18 22:00,ZHCC 182200Z 24001MPS 6000 NSC 02/M01 Q1019 NOSIG
ZHCC,2021-02-18 23:00,ZHCC 182300Z 25002MPS 8000 NSC 05/M02 Q1018 NOSIG
ZHCC,2021-02-19 00:00,ZHCC 190000Z 24002MPS CAVOK 09/M01 Q1018 NOSIG
ZHCC,2021-02-19 01:00,ZHCC 190100Z 24003MPS 200V270 CAVOK 13/M02 Q1019 NOSIG
ZHCC,2021-02-19 02:00,ZHCC 190200Z 24004MPS 210V270 CAVOK 18/M03 Q1018 NOSIG
ZHCC,2021-02-19 03:00,ZHCC 190300Z 27006MPS CAVOK 21/M05 Q1018 NOSIG
ZHCC,2021-02-19 04:00,ZHCC 190400Z 26008MPS 230V290 CAVOK 22/M06 Q1017 NOSIG
ZHCC,2021-02-19 05:00,ZHCC 190500Z 28008G13MPS 240V300 CAVOK 24/M10 Q1016 NOSIG
ZHCC,2021-02-19 06:00,ZHCC 190600Z 29009MPS CAVOK 23/M10 Q1014 NOSIG
ZHCC,2021-02-19 07:00,ZHCC 190700Z 28008MPS 250V310 CAVOK 24/M09 Q1013 NOSIG
ZHCC,2021-02-19 08:00,ZHCC 190800Z 27008MPS CAVOK 23/M11 Q1013 NOSIG
ZHCC,2021-02-19 09:00,ZHCC 190900Z 27007MPS CAVOK 23/M10 Q1013 NOSIG
ZHCC,2021-02-19 10:00,ZHCC 191000Z 26005MPS CAVOK 21/M11 Q1013 NOSIG
ZHCC,2021-02-19 11:00,ZHCC 191100Z 26004MPS CAVOK 18/M11 Q1014 NOSIG
ZHCC,2021-02-19 12:00,ZHCC 191200Z 25003MPS CAVOK 17/M11 Q1014 NOSIG
ZHCC,2021-02-19 13:00,ZHCC 191300Z 25003MPS 210V270 CAVOK 16/M11 Q1014 NOSIG
ZHCC,2021-02-19 14:00,ZHCC 191400Z 27004MPS CAVOK 13/M10 Q1014 NOSIG
ZHCC,2021-02-19 15:00,ZHCC 191500Z 21002MPS 170V240 CAVOK 13/M11 Q1014 NOSIG
ZHCC,2021-02-19 16:00,ZHCC 191600Z 25002MPS CAVOK 12/M10 Q1014 NOSIG
ZHCC,2021-02-19 17:00,ZHCC 191700Z 24003MPS CAVOK 13/M10 Q1013 NOSIG
ZHCC,2021-02-19 18:00,ZHCC 191800Z 27002MPS CAVOK 09/M10 Q1013 NOSIG
ZHCC,2021-02-19 19:00,ZHCC 191900Z 25002MPS CAVOK 09/M09 Q1013 NOSIG
ZHCC,2021-02-19 20:00,ZHCC 192000Z 26003MPS CAVOK 11/M10 Q1012 NOSIG
ZHCC,2021-02-19 21:00,ZHCC 192100Z 26004MPS CAVOK 12/M11 Q1012 NOSIG
ZHCC,2021-02-19 22:00,ZHCC 192200Z 26002MPS CAVOK 10/M11 Q1013 NOSIG
ZHCC,2021-02-19 23:00,ZHCC 192300Z 23003MPS CAVOK 12/M11 Q1013 NOSIG
ZHCC,2021-02-20 00:00,ZHCC 200000Z 24004MPS CAVOK 14/M10 Q1013 NOSIG
ZHCC,2021-02-20 01:00,ZHCC 200100Z 25003MPS CAVOK 17/M10 Q1013 NOSIG
ZHCC,2021-02-20 02:00,ZHCC 200200Z 25005MPS 210V280 CAVOK 20/M10 Q1013 NOSIG
ZHCC,2021-02-20 03:00,ZHCC 200300Z 26007MPS CAVOK 23/M12 Q1013 NOSIG
ZHCC,2021-02-20 04:00,ZHCC 200400Z 26005MPS CAVOK 24/M12 Q1012 NOSIG
ZHCC,2021-02-20 05:00,ZHCC 200500Z 24004MPS 190V270 CAVOK 25/M11 Q1011 NOSIG
ZHCC,2021-02-20 06:00,ZHCC 200600Z 23005MPS 190V270 CAVOK 26/M11 Q1009 NOSIG
ZHCC,2021-02-20 07:00,ZHCC 200700Z 22005MPS 190V270 CAVOK 26/M12 Q1009 NOSIG
ZHCC,2021-02-20 08:00,ZHCC 200800Z 23005MPS 180V270 CAVOK 26/M11 Q1008 NOSIG
ZHCC,2021-02-20 09:00,ZHCC 200900Z 20004MPS 170V230 CAVOK 24/M07 Q1008 NOSIG
ZHCC,2021-02-20 10:00,ZHCC 201000Z 20005MPS 170V230 CAVOK 21/03 Q1008 NOSIG
ZHCC,2021-02-20 11:00,ZHCC 201100Z 19003MPS 140V230 CAVOK 19/04 Q1008 NOSIG
ZHCC,2021-02-20 12:00,ZHCC 201200Z 22002MPS 180V240 CAVOK 18/03 Q1009 NOSIG
ZHCC,2021-02-20 13:00,ZHCC 201300Z 21002MPS CAVOK 18/02 Q1009 NOSIG
ZHCC,2021-02-20 14:00,ZHCC 201400Z 21003MPS CAVOK 18/02 Q1009 NOSIG
ZHCC,2021-02-20 15:00,ZHCC 201500Z 21003MPS 180V240 CAVOK 18/02 Q1009 NOSIG
ZHCC,2021-02-20 16:00,ZHCC 201600Z 21003MPS CAVOK 18/01 Q1008 NOSIG
ZHCC,2021-02-20 17:00,ZHCC 201700Z 25001MPS CAVOK 12/01 Q1008 NOSIG
ZHCC,2021-02-20 18:00,ZHCC 201800Z 20002MPS CAVOK 10/02 Q1008 NOSIG
ZHCC,2021-02-20 19:00,ZHCC 201900Z 21002MPS 180V240 CAVOK 12/02 Q1007 NOSIG
ZHCC,2021-02-20 20:00,ZHCC 202000Z 22002MPS CAVOK 14/03 Q1007 NOSIG
ZHCC,2021-02-20 21:00,ZHCC 202100Z 22002MPS 180V240 CAVOK 14/02 Q1007 NOSIG
ZHCC,2021-02-20 22:00,ZHCC 202200Z 21002MPS CAVOK 12/01 Q1007 NOSIG
ZHCC,2021-02-20 23:00,ZHCC 202300Z 21002MPS CAVOK 07/01 Q1007 NOSIG
ZHCC,2021-02-21 00:00,ZHCC 210000Z 22003MPS CAVOK 14/M02 Q1007 NOSIG
ZHCC,2021-02-21 01:00,ZHCC 210100Z 22002MPS 200V260 CAVOK 18/M01 Q1008 NOSIG
ZHCC,2021-02-21 02:00,ZHCC 210200Z 22003MPS 200V260 CAVOK 20/M00 Q1008 NOSIG
ZHCC,2021-02-21 03:00,ZHCC 210300Z 23003MPS 190V270 CAVOK 25/M00 Q1008 NOSIG
ZHCC,2021-02-21 04:00,ZHCC 210400Z 25005MPS 220V290 CAVOK 28/M03 Q1007 NOSIG
ZHCC,2021-02-21 05:00,ZHCC 210500Z VRB03MPS CAVOK 29/M04 Q1006 NOSIG
ZHCC,2021-02-21 06:00,ZHCC 210600Z 32007MPS 290V350 CAVOK 29/M08 Q1006 NOSIG
ZHCC,2021-02-21 07:00,ZHCC 210700Z 29006MPS 260V320 CAVOK 29/M08 Q1006 NOSIG
ZHCC,2021-02-21 08:00,ZHCC 210800Z 27007MPS 240V300 CAVOK 29/M10 Q1006 NOSIG
ZHCC,2021-02-21 09:00,ZHCC 210900Z 26006MPS CAVOK 28/M13 Q1006 NOSIG
ZHCC,2021-02-21 10:00,ZHCC 211000Z 29005MPS CAVOK 25/M11 Q1007 NOSIG
ZHCC,2021-02-21 11:00,ZHCC 211100Z 25003MPS CAVOK 22/M10 Q1007 NOSIG
ZHCC,2021-02-21 12:00,ZHCC 211200Z 27004MPS CAVOK 20/M10 Q1008 NOSIG
ZHCC,2021-02-21 13:00,ZHCC 211300Z 27005MPS CAVOK 21/M10 Q1009 NOSIG
ZHCC,2021-02-21 14:00,ZHCC 211400Z 29004MPS CAVOK 17/M10 Q1010 NOSIG
ZHCC,2021-02-21 15:00,ZHCC 211500Z 29004MPS CAVOK 18/M09 Q1010 NOSIG
ZHCC,2021-02-21 16:00,ZHCC 211600Z 26003MPS CAVOK 19/M10 Q1010 NOSIG
ZHCC,2021-02-21 17:00,ZHCC 211700Z 31006MPS CAVOK 20/M10 Q1011 NOSIG
ZHCC,2021-02-21 18:00,ZHCC 211800Z 31006MPS CAVOK 20/M10 Q1011 NOSIG
ZHCC,2021-02-21 19:00,ZHCC 211900Z 32006MPS CAVOK 19/M11 Q1011 NOSIG
ZHCC,2021-02-21 20:00,ZHCC 212000Z 32006MPS CAVOK 19/M11 Q1012 NOSIG
ZHCC,2021-02-21 21:00,ZHCC 212100Z 32005MPS CAVOK 18/M10 Q1012 NOSIG
ZHCC,2021-02-21 22:00,ZHCC 212200Z 32005MPS CAVOK 17/M10 Q1013 NOSIG
ZHCC,2021-02-21 23:00,ZHCC 212300Z 27002MPS CAVOK 14/M09 Q1014 NOSIG
ZHCC,2021-02-22 00:00,ZHCC 220000Z 36005MPS CAVOK 19/M09 Q1016 NOSIG
ZHCC,2021-02-22 01:00,ZHCC 220100Z 02007MPS 7000 NSC 17/M08 Q1018 NOSIG
ZHCC,2021-02-22 02:00,ZHCC 220200Z 02007MPS 350V050 4000 HZ NSC 14/M02 Q1020 NOSIG
ZHCC,2021-02-22 03:00,ZHCC 220300Z 02008G14MPS 350V050 4000 HZ NSC 14/M02 Q1021 NOSIG
ZHCC,2021-02-22 04:00,ZHCC 220400Z 03008G13MPS 4000 HZ NSC 15/M02 Q1021 NOSIG
ZHCC,2021-02-22 05:00,ZHCC 220500Z 04008MPS 360V070 4000 HZ NSC 16/M02 Q1022 NOSIG
ZHCC,2021-02-22 06:00,ZHCC 220600Z 03008MPS 350V060 5000 HZ NSC 15/M02 Q1021 NOSIG
ZHCC,2021-02-22 07:00,ZHCC 220700Z 02007MPS 350V060 8000 NSC 15/M01 Q1021 NOSIG
ZHCC,2021-02-22 08:00,ZHCC 220800Z 03008MPS 8000 NSC 15/M02 Q1021 NOSIG
ZHCC,2021-02-22 09:00,ZHCC 220900Z 04006MPS 360V070 8000 NSC 14/M02 Q1022 NOSIG
ZHCC,2021-02-22 10:00,ZHCC 221000Z 03005MPS 360V060 CAVOK 13/M02 Q1022 NOSIG
ZHCC,2021-02-22 11:00,ZHCC 221100Z 04004MPS CAVOK 13/M02 Q1023 NOSIG
ZHCC,2021-02-22 12:00,ZHCC 221200Z 03004MPS CAVOK 12/M02 Q1024 NOSIG
ZHCC,2021-02-22 13:00,ZHCC 221300Z 03004MPS CAVOK 11/M02 Q1025 NOSIG
ZHCC,2021-02-22 14:00,ZHCC 221400Z 03005MPS CAVOK 11/M02 Q1025 NOSIG
ZHCC,2021-02-22 15:00,ZHCC 221500Z 03006MPS 010V070 CAVOK 11/M02 Q1026 NOSIG
ZHCC,2021-02-22 16:00,ZHCC 221600Z 04004MPS CAVOK 10/M02 Q1025 NOSIG
ZHCC,2021-02-22 17:00,ZHCC 221700Z 04004MPS CAVOK 10/M02 Q1026 NOSIG
ZHCC,2021-02-22 18:00,ZHCC 221800Z 06002MPS 010V100 CAVOK 09/M02 Q1025 NOSIG
ZHCC,2021-02-22 19:00,ZHCC 221900Z 09003MPS CAVOK 09/M03 Q1026 NOSIG
ZHCC,2021-02-22 20:00,ZHCC 222000Z 08003MPS CAVOK 08/M02 Q1025 NOSIG
ZHCC,2021-02-22 21:00,ZHCC 222100Z 08003MPS CAVOK 08/M01 Q1025 NOSIG
ZHCC,2021-02-22 22:00,ZHCC 222200Z 11005MPS CAVOK 06/M06 Q1025 NOSIG
ZHCC,2021-02-22 23:00,ZHCC 222300Z 12001MPS CAVOK 05/M07 Q1025 NOSIG
ZHCC,2021-02-23 00:00,ZHCC 230000Z 10004MPS CAVOK 07/M05 Q1025 NOSIG
ZHCC,2021-02-23 01:00,ZHCC 230100Z 10005MPS CAVOK 08/M04 Q1026 NOSIG
ZHCC,2021-02-23 02:00,ZHCC 230200Z 09005MPS CAVOK 09/M07 Q1026 NOSIG
ZHCC,2021-02-23 03:00,ZHCC 230300Z 10007MPS CAVOK 09/M08 Q1025 NOSIG
ZHCC,2021-02-23 04:00,ZHCC 230400Z 09005MPS CAVOK 10/M07 Q1024 NOSIG
ZHCC,2021-02-23 05:00,ZHCC 230500Z 08006MPS CAVOK 11/M06 Q1023 NOSIG
ZHCC,2021-02-23 06:00,ZHCC 230600Z 07006MPS 050V110 CAVOK 11/M06 Q1022 NOSIG
ZHCC,2021-02-23 07:00,ZHCC 230700Z 07007MPS CAVOK 12/M07 Q1021 NOSIG
ZHCC,2021-02-23 08:00,ZHCC 230800Z 09007MPS CAVOK 12/M06 Q1021 NOSIG
ZHCC,2021-02-23 09:00,ZHCC 230900Z 08007MPS CAVOK 11/M06 Q1021 NOSIG
ZHCC,2021-02-23 10:00,ZHCC 231000Z 09007MPS CAVOK 10/M05 Q1021 NOSIG
ZHCC,2021-02-23 11:00,ZHCC 231100Z 09005MPS CAVOK 09/M04 Q1021 NOSIG
ZHCC,2021-02-23 12:00,ZHCC 231200Z 06006MPS CAVOK 09/M03 Q1022 NOSIG
ZHCC,2021-02-23 13:00,ZHCC 231300Z 07005MPS CAVOK 08/M02 Q1023 NOSIG
ZHCC,2021-02-23 14:00,ZHCC 231400Z 07007MPS CAVOK 08/M02 Q1023 NOSIG
ZHCC,2021-02-23 15:00,ZHCC 231500Z 07007MPS CAVOK 08/M02 Q1023 NOSIG
ZHCC,2021-02-23 16:00,ZHCC 231600Z 08007MPS CAVOK 07/M02 Q1023 NOSIG
ZHCC,2021-02-23 17:00,ZHCC 231700Z 09006MPS CAVOK 07/M02 Q1024 NOSIG
ZHCC,2021-02-23 18:00,ZHCC 231800Z 08005MPS 9999 BKN046 06/M02 Q1024 NOSIG
ZHCC,2021-02-23 19:00,ZHCC 231900Z 06004MPS 9999 BKN046 06/M02 Q1024 NOSIG
ZHCC,2021-02-23 20:00,ZHCC 232000Z 08005MPS CAVOK 06/M02 Q1023 NOSIG
ZHCC,2021-02-23 21:00,ZHCC 232100Z 06005MPS CAVOK 05/M02 Q1024 NOSIG
ZHCC,2021-02-23 22:00,ZHCC 232200Z 08006MPS CAVOK 05/M02 Q1023 NOSIG
ZHCC,2021-02-23 23:00,ZHCC 232300Z 09004MPS CAVOK 05/M02 Q1023 NOSIG
ZHCC,2021-02-24 00:00,ZHCC 240000Z 06005MPS CAVOK 05/M02 Q1023 NOSIG
ZHCC,2021-02-24 01:00,ZHCC 240100Z 06004MPS 9999 OVC040 05/M02 Q1024 NOSIG
ZHCC,2021-02-24 02:00,ZHCC 240200Z 06006MPS 9999 OVC040 05/M02 Q1024 NOSIG
ZHCC,2021-02-24 03:00,ZHCC 240300Z 07006MPS 9999 OVC030 05/M02 Q1024 NOSIG
ZHCC,2021-02-24 04:00,ZHCC 240400Z 06005MPS 030V090 9999 OVC030 05/M02 Q1023 NOSIG
ZHCC,2021-02-24 05:00,ZHCC 240500Z 06006MPS 9999 OVC030 05/M01 Q1020 NOSIG
ZHCC,2021-02-24 06:00,ZHCC 240600Z 07006MPS 9999 OVC030 05/M01 Q1020 NOSIG
ZHCC,2021-02-24 07:00,ZHCC 240700Z 04006MPS 9999 OVC030 05/M01 Q1019 NOSIG
ZHCC,2021-02-24 08:00,ZHCC 240800Z 03005MPS 4000 -RA BR OVC020 03/01 Q1021 NOSIG
ZHCC,2021-02-24 09:00,ZHCC 240900Z 04005MPS 020V080 4000 -RA BR FEW010 OVC020 03/01 Q1020 NOSIG
ZHCC,2021-02-24 10:00,ZHCC 241000Z 02006MPS 350V060 5000 -RA BR SCT010 OVC020 02/00 Q1020 NOSIG
ZHCC,2021-02-24 11:00,ZHCC 241100Z 01006MPS 7000 -RA SCT010 OVC020 02/M00 Q1021 NOSIG
ZHCC,2021-02-24 12:00,ZHCC 241200Z 03006MPS 350V050 5000 -RA BR SCT010 OVC020 02/00 Q1021 NOSIG
ZHCC,2021-02-24 13:00,ZHCC 241300Z 36006MPS 340V040 6000 -RA SCT007 OVC020 01/00 Q1022 RERA NOSIG
ZHCC,2021-02-24 14:00,ZHCC 241400Z 03006MPS 360V060 4000 TSGSRA BR SCT007 FEW020CB BKN020 00/M01 Q1022 NOSIG
ZHCC,2021-02-24 15:00,ZHCC 241500Z 01004MPS 0600 R30L/0650V0900D R30R/0600V0800D TSSN SCT007 FEW020CB BKN020 M00/M01 Q1022 NOSIG
ZHCC,2021-02-24 16:00,ZHCC 241600Z 01005MPS 340V040 1200 R30L/1900U R30R/1800N -TSSN BR SCT005 FEW020CB BKN020 M00/M00 Q1022 RESHSN NOSIG
ZHCC,2021-02-24 17:00,ZHCC 241700Z 36004MPS 340V040 2500 -SN BR SCT005 OVC020 00/00 Q1022 RETS NOSIG
ZHCC,2021-02-24 18:00,ZHCC 241800Z 01005MPS 4000 -SN BR SCT006 OVC020 00/00 Q1022 NOSIG
ZHCC,2021-02-24 19:00,ZHCC 241900Z 01005MPS 3000 -SN BR SCT005 OVC020 00/M00 Q1022 NOSIG
ZHCC,2021-02-24 20:00,ZHCC 242000Z 35005MPS 3000 -SN BR SCT005 OVC020 00/M00 Q1022 NOSIG
ZHCC,2021-02-24 21:00,ZHCC 242100Z 36006MPS 3000 BR SCT006 OVC020 01/00 Q1022 NOSIG
ZHCC,2021-02-24 22:00,ZHCC 242200Z 36004MPS 3000 BR SCT006 OVC020 01/M00 Q1022 BECMG TL2340 2500
ZHCC,2021-02-24 23:00,ZHCC 242300Z 01005MPS 2000 BR SCT008 OVC020 01/M00 Q1022 BECMG TL0020 1200
ZHCC,2021-02-25 00:00,ZHCC 250000Z 01005MPS 2000 BR SCT008 OVC020 01/M00 Q1023 NOSIG
ZHCC,2021-02-25 01:00,ZHCC 250100Z 01006MPS 2000 BR SCT008 OVC020 01/M00 Q1024 NOSIG
ZHCC,2021-02-25 02:00,ZHCC 250200Z 36006MPS 2000 BR SCT008 OVC020 02/M00 Q1024 NOSIG
ZHCC,2021-02-25 03:00,ZHCC 250300Z 35006MPS 320V020 2000 BR SCT008 OVC020 02/01 Q1025 NOSIG
ZHCC,2021-02-25 04:00,ZHCC 250400Z 36007MPS 2000 BR SCT008 OVC020 02/00 Q1024 NOSIG
ZHCC,2021-02-25 05:00,ZHCC 250500Z 01006MPS 1800 -RA BR SCT008 OVC020 02/01 Q1024 NOSIG
ZHCC,2021-02-25 06:00,ZHCC 250600Z 36005MPS 2500 BR SCT008 OVC020 03/M00 Q1023 BECMG TL0740 3000
ZHCC,2021-02-25 07:00,ZHCC 250700Z 36006MPS 2800 BR SCT008 OVC020 03/M01 Q1023 BECMG TL0740 3000
ZHCC,2021-02-25 08:00,ZHCC 250800Z 36005MPS 3500 BR OVC020 03/M01 Q1023 NOSIG
ZHCC,2021-02-25 09:00,ZHCC 250900Z 01006MPS 3000 BR OVC020 04/M01 Q1023 NOSIG
ZHCC,2021-02-25 10:00,ZHCC 251000Z 01004MPS 340V040 3000 BR OVC020 03/M01 Q1024 NOSIG
ZHCC,2021-02-25 11:00,ZHCC 251100Z 36004MPS 4000 BR OVC020 04/M01 Q1025 NOSIG
ZHCC,2021-02-25 12:00,ZHCC 251200Z 01003MPS 4000 BR OVC020 04/M00 Q1024 NOSIG
ZHCC,2021-02-25 13:00,ZHCC 251300Z 01004MPS 4000 BR OVC020 04/M00 Q1024 NOSIG
ZHCC,2021-02-25 14:00,ZHCC 251400Z 36004MPS 320V030 4000 BR OVC020 04/M00 Q1025 NOSIG
ZHCC,2021-02-25 15:00,ZHCC 251500Z 36004MPS 5000 BR OVC030 04/M00 Q1025 NOSIG
ZHCC,2021-02-25 16:00,ZHCC 251600Z 35004MPS 5000 BR OVC030 04/M00 Q1025 NOSIG
ZHCC,2021-02-25 17:00,ZHCC 251700Z 34003MPS 5000 BR OVC040 04/M00 Q1025 NOSIG
ZHCC,2021-02-25 18:00,ZHCC 251800Z 35003MPS 5000 BR OVC040 04/00 Q1025 NOSIG
ZHCC,2021-02-25 19:00,ZHCC 251900Z 34004MPS 5000 BR OVC040 04/00 Q1025 NOSIG
ZHCC,2021-02-25 20:00,ZHCC 252000Z 35004MPS 5000 BR OVC040 04/M00 Q1025 NOSIG
ZHCC,2021-02-25 21:00,ZHCC 252100Z 35003MPS 5000 BR OVC040 04/00 Q1025 NOSIG
ZHCC,2021-02-25 22:00,ZHCC 252200Z 01003MPS 5000 BR OVC040 04/00 Q1024 NOSIG
ZHCC,2021-02-25 23:00,ZHCC 252300Z 02004MPS 3500 BR NSC 04/M00 Q1025 BECMG TL0040 2500
ZHCC,2021-02-26 00:00,ZHCC 260000Z 02004MPS 2500 BR NSC 04/00 Q1025 BECMG TL0140 3000
ZHCC,2021-02-26 01:00,ZHCC 260100Z 01004MPS 340V040 2500 BR OVC040 05/00 Q1026 BECMG TL0200 3000
ZHCC,2021-02-26 02:00,ZHCC 260200Z 04005MPS 350V060 3000 HZ NSC 06/M00 Q1027 NOSIG
ZHCC,2021-02-26 03:00,ZHCC 260300Z 03006MPS 4000 HZ OVC040 06/M01 Q1027 NOSIG
ZHCC,2021-02-26 04:00,ZHCC 260400Z 04006MPS 360V080 4000 HZ OVC040 06/M00 Q1026 NOSIG
ZHCC,2021-02-26 05:00,ZHCC 260500Z 03005MPS 350V060 4000 HZ NSC 07/M00 Q1026 NOSIG
ZHCC,2021-02-26 06:00,ZHCC 260600Z 03006MPS 5000 HZ NSC 08/M01 Q1025 NOSIG
ZHCC,2021-02-26 07:00,ZHCC 260700Z 03006MPS 010V070 5000 HZ NSC 08/M00 Q1024 NOSIG
ZHCC,2021-02-26 08:00,ZHCC 260800Z 01006MPS 330V040 4000 HZ NSC 08/M00 Q1024 NOSIG
ZHCC,2021-02-26 09:00,ZHCC 260900Z 04006MPS 4000 HZ NSC 08/M00 Q1024 NOSIG
ZHCC,2021-02-26 10:00,ZHCC 261000Z 03004MPS 360V060 4000 HZ NSC 07/M01 Q1024 NOSIG
ZHCC,2021-02-26 11:00,ZHCC 261100Z 03004MPS 4000 HZ NSC 06/M00 Q1025 NOSIG
ZHCC,2021-02-26 12:00,ZHCC 261200Z 02004MPS 350V060 5000 HZ NSC 06/M01 Q1025 NOSIG
ZHCC,2021-02-26 13:00,ZHCC 261300Z 02004MPS 5000 HZ NSC 06/M01 Q1025 NOSIG
ZHCC,2021-02-26 14:00,ZHCC 261400Z 03003MPS 330V080 6000 NSC 05/M01 Q1025 NOSIG
ZHCC,2021-02-26 15:00,ZHCC 261500Z 03003MPS 6000 OVC040 06/M01 Q1026 NOSIG
ZHCC,2021-02-26 16:00,ZHCC 261600Z 02002MPS 350V050 6000 -RA OVC040 05/00 Q1025 NOSIG
ZHCC,2021-02-26 17:00,ZHCC 261700Z 02003MPS 5000 -RA HZ OVC040 05/00 Q1024 NOSIG
ZHCC,2021-02-26 18:00,ZHCC 261800Z 03002MPS 4000 HZ OVC040 05/00 Q1025 NOSIG
ZHCC,2021-02-26 19:00,ZHCC 261900Z 02003MPS 4000 HZ OVC040 05/00 Q1024 NOSIG
ZHCC,2021-02-26 20:00,ZHCC 262000Z 03003MPS 4000 HZ NSC 05/00 Q1024 NOSIG
ZHCC,2021-02-26 21:00,ZHCC 262100Z 04003MPS 4000 HZ NSC 05/00 Q1024 NOSIG
ZHCC,2021-02-26 22:00,ZHCC 262200Z 04003MPS 4000 HZ NSC 05/00 Q1024 NOSIG
ZHCC,2021-02-26 23:00,ZHCC 262300Z VRB03MPS 3000 HZ NSC 05/01 Q1024 NOSIG
ZHCC,2021-02-27 00:00,ZHCC 270000Z 06002MPS 3000 HZ NSC 05/01 Q1024 NOSIG
ZHCC,2021-02-27 01:00,ZHCC 270100Z 07002MPS 030V100 3000 HZ NSC 06/00 Q1025 BECMG TL0240 2500
ZHCC,2021-02-27 02:00,ZHCC 270200Z 08003MPS 030V110 2500 HZ NSC 07/M00 Q1025 BECMG TL0240 3000
ZHCC,2021-02-27 03:00,ZHCC 270300Z 08002MPS 030V140 3000 HZ NSC 08/M00 Q1024 NOSIG
ZHCC,2021-02-27 04:00,ZHCC 270400Z 09002MPS 040V170 5000 HZ NSC 09/01 Q1024 NOSIG
ZHCC,2021-02-27 05:00,ZHCC 270500Z 13003MPS 080V190 5000 HZ NSC 10/02 Q1023 NOSIG
ZHCC,2021-02-27 06:00,ZHCC 270600Z 10003MPS 080V150 5000 HZ BKN046 10/02 Q1022 NOSIG
ZHCC,2021-02-27 07:00,ZHCC 270700Z 09003MPS 060V120 5000 HZ BKN046 10/03 Q1021 NOSIG
ZHCC,2021-02-27 08:00,ZHCC 270800Z 09004MPS 5000 HZ BKN046 10/03 Q1021 NOSIG
ZHCC,2021-02-27 09:00,ZHCC 270900Z 10004MPS 5000 HZ BKN040 09/03 Q1021 NOSIG
ZHCC,2021-02-27 10:00,ZHCC 271000Z 09004MPS 060V130 5000 HZ BKN040 09/03 Q1021 NOSIG
ZHCC,2021-02-27 11:00,ZHCC 271100Z 08004MPS 5000 HZ BKN040 08/03 Q1021 NOSIG
ZHCC,2021-02-27 12:00,ZHCC 271200Z 09004MPS 5000 BR BKN030 08/05 Q1022 NOSIG
ZHCC,2021-02-27 13:00,ZHCC 271300Z 12002MPS 5000 BR BKN030 08/05 Q1022 NOSIG
ZHCC,2021-02-27 14:00,ZHCC 271400Z 12002MPS 5000 BR BKN030 08/05 Q1023 NOSIG
ZHCC,2021-02-27 15:00,ZHCC 271500Z 11003MPS 5000 BR BKN030 08/05 Q1022 NOSIG
ZHCC,2021-02-27 16:00,ZHCC 271600Z 11003MPS 5000 BR BKN030 08/06 Q1022 NOSIG
ZHCC,2021-02-27 17:00,ZHCC 271700Z 13002MPS 100V210 5000 BR BKN030 07/06 Q1022 NOSIG
ZHCC,2021-02-27 18:00,ZHCC 271800Z 09001MPS 4000 -RA BR BKN030 08/06 Q1021 NOSIG
ZHCC,2021-02-27 19:00,ZHCC 271900Z VRB01MPS 4000 BR BKN030 07/06 Q1021 NOSIG
ZHCC,2021-02-27 20:00,ZHCC 272000Z VRB01MPS 3000 BR SCT008 BKN020 07/06 Q1021 NOSIG
ZHCC,2021-02-27 21:00,ZHCC 272100Z VRB01MPS 3000 BR SCT007 BKN020 07/06 Q1020 BECMG TL2240 2000
ZHCC,2021-02-27 22:00,ZHCC 272200Z 11001MPS 1600 -RA BR SCT006 OVC020 07/07 Q1020 BECMG TL2340 1400
ZHCC,2021-02-27 23:00,ZHCC 272300Z 11002MPS 1300 R12R/1800D R12L/1400D -RA BR SCT007 OVC020 07/07 Q1019 NOSIG
ZHCC,2021-02-28 00:00,ZHCC 280000Z 12002MPS 1000 R12R/1400U R12L/1100V1300U -RA BR SCT008 OVC020 07/07 Q1019 NOSIG
ZHCC,2021-02-28 01:00,ZHCC 280100Z 12002MPS 1000 R12R/1400U R12L/1500N -RA BR SCT006 OVC020 07/07 Q1019 NOSIG
ZHCC,2021-02-28 02:00,ZHCC 280200Z 11002MPS 1300 R12R/1600N R12L/1700N -RA BR SCT006 OVC020 08/07 Q1020 NOSIG
ZHCC,2021-02-28 03:00,ZHCC 280300Z VRB01MPS 1300 R12R/P2000 R12L/P2000 -RA BR SCT006 OVC020 08/07 Q1020 BECMG TL0440 1600
ZHCC,2021-02-28 04:00,ZHCC 280400Z 06002MPS 030V090 1300 R12R/P2000 R12L/1800N -RA BR SCT006 OVC020 08/07 Q1020 BECMG TL0440 1600
ZHCC,2021-02-28 05:00,ZHCC 280500Z 04003MPS 1700 -RA BR SCT006 OVC020 08/07 Q1019 NOSIG
ZHCC,2021-02-28 06:00,ZHCC 280600Z 04004MPS 010V070 1700 -RA BR SCT006 OVC020 08/07 Q1018 NOSIG
ZHCC,2021-02-28 07:00,ZHCC 280700Z 04004MPS 1800 -RA BR SCT006 OVC020 08/07 Q1017 NOSIG
ZHCC,2021-02-28 08:00,ZHCC 280800Z 03003MPS 360V060 1000 R12R/1900U R12L/1600N -RA BR SCT005 OVC020 08/07 Q1017 BECMG TL0940 1600
ZHCC,2021-02-28 09:00,ZHCC 280900Z 04003MPS 360V060 1200 R12R/P2000 R12L/P2000 -RA BR SCT005 OVC020 08/07 Q1017 BECMG TL1020 1600
ZHCC,2021-02-28 10:00,ZHCC 281000Z 02003MPS 360V060 1200 R12R/P2000 R12L/P2000 -RA BR SCT004 OVC020 08/07 Q1017 BECMG TL1120 1600
ZHCC,2021-02-28 11:00,ZHCC 281100Z 35002MPS 300V080 2000 -RA BR SCT004 OVC020 08/07 Q1017 NOSIG
ZHCC,2021-02-28 12:00,ZHCC 281200Z 33004MPS 1500 -RA BR SCT003 OVC020 08/08 Q1018 NOSIG
ZHCC,2021-02-28 13:00,ZHCC 281300Z 33004MPS 2500 -RA BR SCT004 OVC020 08/08 Q1019 NOSIG
ZHCC,2021-02-28 14:00,ZHCC 281400Z 34005MPS 4000 -RA BR SCT005 OVC020 07/07 Q1020 NOSIG
ZHCC,2021-02-28 15:00,ZHCC 281500Z 35005MPS 6000 -RA SCT006 OVC020 07/06 Q1021 NOSIG
ZHCC,2021-02-28 16:00,ZHCC 281600Z 34005MPS 5000 -RA BR SCT007 OVC020 07/06 Q1021 NOSIG
ZHCC,2021-02-28 17:00,ZHCC 281700Z 33005MPS 6000 -RA SCT007 OVC020 07/06 Q1021 NOSIG
ZHCC,2021-02-28 18:00,ZHCC 281800Z 35005MPS 8000 -RA SCT008 OVC020 07/05 Q1022 NOSIG
ZHCC,2021-02-28 19:00,ZHCC 281900Z 36006MPS 340V040 7000 -RA SCT008 OVC020 06/05 Q1022 NOSIG
ZHCC,2021-02-28 20:00,ZHCC 282000Z 02006MPS 350V050 9999 -RA FEW011 OVC040 06/03 Q1022 NOSIG
ZHCC,2021-02-28 21:00,ZHCC 282100Z 02006MPS 350V050 9999 FEW020 BKN040 05/03 Q1023 NOSIG
ZHCC,2021-02-28 22:00,ZHCC 282200Z 01006MPS 340V040 9999 FEW020 BKN040 05/02 Q1023 NOSIG
ZHCC,2021-02-28 23:00,ZHCC 282300Z 01007G12MPS 9999 OVC046 04/01 Q1025 NOSIG
ZHCC,2021-03-01 00:00,ZHCC 010000Z 02008MPS 350V050 CAVOK 04/01 Q1026 NOSIG
ZHCC,2021-03-01 01:00,ZHCC 010100Z 01007G12MPS 350V050 CAVOK 04/00 Q1028 NOSIG
ZHCC,2021-03-01 02:00,ZHCC 010200Z 02007MPS CAVOK 03/00 Q1028 NOSIG
ZHCC,2021-03-01 03:00,ZHCC 010300Z 02007MPS 350V050 CAVOK 04/00 Q1029 NOSIG
ZHCC,2021-03-01 04:00,ZHCC 010400Z 01005MPS 330V040 CAVOK 05/01 Q1030 NOSIG
ZHCC,2021-03-01 05:00,ZHCC 010500Z 01007MPS 340V050 CAVOK 05/M00 Q1029 NOSIG
ZHCC,2021-03-01 06:00,ZHCC 010600Z 02007MPS CAVOK 06/M00 Q1028 NOSIG
ZHCC,2021-03-01 07:00,ZHCC 010700Z 01005MPS 340V040 CAVOK 06/00 Q1028 NOSIG
ZHCC,2021-03-01 08:00,ZHCC 010800Z 05004MPS CAVOK 06/00 Q1028 NOSIG
ZHCC,2021-03-01 09:00,ZHCC 010900Z 05003MPS CAVOK 06/00 Q1028 NOSIG
ZHCC,2021-03-01 10:00,ZHCC 011000Z 06003MPS 020V080 CAVOK 06/00 Q1028 NOSIG
ZHCC,2021-03-01 11:00,ZHCC 011100Z 08003MPS CAVOK 05/01 Q1029 NOSIG
ZHCC,2021-03-01 12:00,ZHCC 011200Z 11003MPS 080V140 9999 BKN030 04/00 Q1029 NOSIG
ZHCC,2021-03-01 13:00,ZHCC 011300Z 08002MPS 060V130 9999 BKN030 04/01 Q1030 NOSIG
ZHCC,2021-03-01 14:00,ZHCC 011400Z 11002MPS 8000 NSC 02/00 Q1030 NOSIG
ZHCC,2021-03-01 15:00,ZHCC 011500Z VRB01MPS 8000 NSC 02/00 Q1030 NOSIG
ZHCC,2021-03-01 16:00,ZHCC 011600Z 15001MPS 8000 NSC 01/00 Q1030 NOSIG
ZHCC,2021-03-01 17:00,ZHCC 011700Z VRB01MPS 8000 NSC 01/M00 Q1030 NOSIG
ZHCC,2021-03-01 18:00,ZHCC 011800Z 15001MPS 6000 NSC 01/M01 Q1029 NOSIG
ZHCC,2021-03-01 19:00,ZHCC 011900Z VRB01MPS 6000 NSC 00/M01 Q1029 NOSIG
ZHCC,2021-03-01 20:00,ZHCC 012000Z 21002MPS 170V240 5000 BR NSC 02/00 Q1028 NOSIG
ZHCC,2021-03-01 21:00,ZHCC 012100Z 13002MPS 4000 BR NSC M00/M01 Q1028 BECMG TL2240 1500
ZHCC,2021-03-01 22:00,ZHCC 012200Z 15002MPS 3000 BR NSC 00/M01 Q1029 BECMG TL2300 1500
ZHCC,2021-03-01 23:00,ZHCC 012300Z VRB01MPS 2000 BR NSC 00/M01 Q1029 BECMG TL0040 3000
ZHCC,2021-03-02 00:00,ZHCC 020000Z 12002MPS 1500 BR NSC 01/00 Q1030 BECMG TL0140 3000
ZHCC,2021-03-02 01:00,ZHCC 020100Z 19004MPS 140V220 2000 BR FEW040 04/02 Q1030 BECMG TL0200 3000
ZHCC,2021-03-02 02:00,ZHCC 020200Z 17004MPS 140V220 3000 BR NSC 05/02 Q1030 NOSIG
ZHCC,2021-03-02 03:00,ZHCC 020300Z 19004MPS 150V230 4000 BR NSC 07/03 Q1030 NOSIG
ZHCC,2021-03-02 04:00,ZHCC 020400Z 17003MPS 120V200 4000 HZ NSC 09/04 Q1029 NOSIG
ZHCC,2021-03-02 05:00,ZHCC 020500Z 18003MPS 130V220 5000 HZ NSC 11/04 Q1028 NOSIG
ZHCC,2021-03-02 06:00,ZHCC 020600Z 18003MPS 130V220 8000 NSC 12/03 Q1027 NOSIG
ZHCC,2021-03-02 07:00,ZHCC 020700Z 18003MPS 130V230 8000 NSC 13/02 Q1026 NOSIG
ZHCC,2021-03-02 08:00,ZHCC 020800Z 17004MPS 110V200 8000 NSC 13/03 Q1025 NOSIG
ZHCC,2021-03-02 09:00,ZHCC 020900Z 15004MPS 120V190 8000 NSC 12/03 Q1025 NOSIG
ZHCC,2021-03-02 10:00,ZHCC 021000Z 15003MPS 120V190 CAVOK 11/03 Q1025 NOSIG
ZHCC,2021-03-02 11:00,ZHCC 021100Z 16004MPS 120V190 CAVOK 10/03 Q1025 NOSIG
ZHCC,2021-03-02 12:00,ZHCC 021200Z 16003MPS 110V190 CAVOK 09/04 Q1026 NOSIG
ZHCC,2021-03-02 13:00,ZHCC 021300Z 17004MPS 130V190 CAVOK 09/03 Q1026 NOSIG
ZHCC,2021-03-02 14:00,ZHCC 021400Z 18003MPS 140V220 8000 NSC 08/04 Q1027 NOSIG
ZHCC,2021-03-02 15:00,ZHCC 021500Z 18004MPS 140V220 8000 NSC 08/04 Q1027 NOSIG
ZHCC,2021-03-02 16:00,ZHCC 021600Z 19002MPS 160V260 7000 NSC 08/04 Q1026 NOSIG
ZHCC,2021-03-02 17:00,ZHCC 021700Z 19003MPS 160V220 7000 NSC 07/03 Q1026 NOSIG
ZHCC,2021-03-02 18:00,ZHCC 021800Z 19003MPS 160V220 7000 NSC 07/03 Q1025 NOSIG
ZHCC,2021-03-02 19:00,ZHCC 021900Z 20002MPS 160V220 5000 BR NSC 07/03 Q1024 NOSIG
ZHCC,2021-03-02 20:00,ZHCC 022000Z VRB01MPS 5000 BR NSC 06/03 Q1024 NOSIG
ZHCC,2021-03-02 21:00,ZHCC 022100Z 17002MPS 130V210 5000 BR NSC 06/03 Q1023 NOSIG
ZHCC,2021-03-02 22:00,ZHCC 022200Z VRB01MPS 5000 BR NSC 05/03 Q1022 NOSIG
ZHCC,2021-03-02 23:00,ZHCC 022300Z VRB01MPS 5000 BR NSC 05/02 Q1023 NOSIG
ZHCC,2021-03-03 00:00,ZHCC 030000Z 16002MPS 120V200 5000 BR NSC 05/02 Q1023 NOSIG
ZHCC,2021-03-03 01:00,ZHCC 030100Z 17002MPS 130V220 5000 BR NSC 07/02 Q1023 NOSIG
ZHCC,2021-03-03 02:00,ZHCC 030200Z 18003MPS 130V220 5000 BR NSC 09/03 Q1023 NOSIG
ZHCC,2021-03-03 03:00,ZHCC 030300Z 19004MPS 130V230 8000 NSC 12/03 Q1022 NOSIG
ZHCC,2021-03-03 04:00,ZHCC 030400Z 20004MPS 160V230 7000 NSC 12/03 Q1021 NOSIG
ZHCC,2021-03-03 05:00,ZHCC 030500Z 18004MPS 140V220 8000 NSC 14/04 Q1019 NOSIG
ZHCC,2021-03-03 06:00,ZHCC 030600Z 19004MPS 150V230 CAVOK 15/04 Q1018 NOSIG
ZHCC,2021-03-03 07:00,ZHCC 030700Z 21004MPS 180V250 CAVOK 15/04 Q1018 NOSIG
ZHCC,2021-03-03 08:00,ZHCC 030800Z 18004MPS 140V220 CAVOK 15/04 Q1017 NOSIG
ZHCC,2021-03-03 09:00,ZHCC 030900Z 18004MPS 130V230 CAVOK 15/04 Q1017 NOSIG
ZHCC,2021-03-03 10:00,ZHCC 031000Z 19004MPS 160V230 CAVOK 14/02 Q1017 NOSIG
ZHCC,2021-03-03 11:00,ZHCC 031100Z 18003MPS 150V220 CAVOK 13/03 Q1017 NOSIG
ZHCC,2021-03-03 12:00,ZHCC 031200Z 18004MPS 150V230 CAVOK 12/03 Q1018 NOSIG
ZHCC,2021-03-03 13:00,ZHCC 031300Z 17003MPS 140V200 CAVOK 11/04 Q1018 NOSIG
ZHCC,2021-03-03 14:00,ZHCC 031400Z 18003MPS CAVOK 11/04 Q1018 NOSIG
ZHCC,2021-03-03 15:00,ZHCC 031500Z 19003MPS 160V230 CAVOK 10/04 Q1019 NOSIG
ZHCC,2021-03-03 16:00,ZHCC 031600Z 20003MPS 170V230 CAVOK 09/04 Q1018 NOSIG
ZHCC,2021-03-03 17:00,ZHCC 031700Z 19002MPS 150V240 CAVOK 08/04 Q1018 NOSIG
ZHCC,2021-03-03 18:00,ZHCC 031800Z 19002MPS CAVOK 08/04 Q1018 NOSIG
ZHCC,2021-03-03 19:00,ZHCC 031900Z VRB01MPS CAVOK 07/04 Q1017 NOSIG
ZHCC,2021-03-03 20:00,ZHCC 032000Z VRB01MPS CAVOK 07/03 Q1016 NOSIG
ZHCC,2021-03-03 21:00,ZHCC 032100Z VRB01MPS 7000 NSC 06/04 Q1016 NOSIG
ZHCC,2021-03-03 22:00,ZHCC 032200Z VRB01MPS 6000 NSC 05/03 Q1016 NOSIG
ZHCC,2021-03-03 23:00,ZHCC 032300Z 19002MPS 160V220 4000 BR NSC 06/04 Q1017 NOSIG
ZHCC,2021-03-04 00:00,ZHCC 040000Z 21002MPS 4000 BR NSC 07/04 Q1017 NOSIG
ZHCC,2021-03-04 01:00,ZHCC 040100Z 19003MPS 150V230 4000 BR NSC 09/05 Q1018 NOSIG
ZHCC,2021-03-04 02:00,ZHCC 040200Z 22003MPS 180V260 6000 NSC 12/05 Q1018 NOSIG
ZHCC,2021-03-04 03:00,ZHCC 040300Z 18002MPS 140V240 6000 NSC 15/06 Q1018 NOSIG
ZHCC,2021-03-04 04:00,ZHCC 040400Z 16003MPS 120V190 7000 NSC 17/07 Q1017 NOSIG
ZHCC,2021-03-04 05:00,ZHCC 040500Z 16003MPS 120V240 7000 NSC 18/07 Q1017 NOSIG
ZHCC,2021-03-04 06:00,ZHCC 040600Z 13003MPS 100V180 7000 NSC 19/08 Q1015 NOSIG
ZHCC,2021-03-04 07:00,ZHCC 040700Z 18003MPS 120V210 7000 NSC 20/07 Q1015 NOSIG
ZHCC,2021-03-04 08:00,ZHCC 040800Z 17003MPS 120V200 7000 NSC 19/07 Q1015 NOSIG
ZHCC,2021-03-04 09:00,ZHCC 040900Z 16004MPS 120V190 CAVOK 17/08 Q1015 NOSIG
ZHCC,2021-03-04 10:00,ZHCC 041000Z 19003MPS 150V220 7000 NSC 17/09 Q1016 NOSIG
ZHCC,2021-03-04 11:00,ZHCC 041100Z 16002MPS 110V190 8000 NSC 15/09 Q1016 NOSIG
ZHCC,2021-03-04 12:00,ZHCC 041200Z 16002MPS 130V190 8000 NSC 14/09 Q1017 NOSIG
ZHCC,2021-03-04 13:00,ZHCC 041300Z 18003MPS 150V220 7000 NSC 14/09 Q1018 NOSIG
ZHCC,2021-03-04 14:00,ZHCC 041400Z 17002MPS 130V200 7000 NSC 13/09 Q1018 NOSIG
ZHCC,2021-03-04 15:00,ZHCC 041500Z VRB01MPS 6000 NSC 13/09 Q1018 NOSIG
ZHCC,2021-03-04 16:00,ZHCC 041600Z VRB01MPS 6000 NSC 12/09 Q1018 NOSIG
ZHCC,2021-03-04 17:00,ZHCC 041700Z VRB01MPS 6000 NSC 12/09 Q1017 NOSIG
ZHCC,2021-03-04 18:00,ZHCC 041800Z VRB01MPS 6000 NSC 12/08 Q1017 NOSIG
ZHCC,2021-03-04 19:00,ZHCC 041900Z VRB01MPS 6000 NSC 10/08 Q1017 NOSIG
ZHCC,2021-03-04 20:00,ZHCC 042000Z 15002MPS 130V190 6000 NSC 10/07 Q1017 NOSIG
ZHCC,2021-03-04 21:00,ZHCC 042100Z VRB01MPS 6000 NSC 09/07 Q1017 NOSIG
ZHCC,2021-03-04 22:00,ZHCC 042200Z VRB01MPS 6000 NSC 09/07 Q1016 NOSIG
ZHCC,2021-03-04 23:00,ZHCC 042300Z 15002MPS 4000 BR NSC 08/06 Q1016 NOSIG
ZHCC,2021-03-05 00:00,ZHCC 050000Z VRB01MPS 5000 BR NSC 09/07 Q1017 NOSIG
ZHCC,2021-03-05 01:00,ZHCC 050100Z 19002MPS 140V220 5000 HZ NSC 12/07 Q1017 NOSIG
ZHCC,2021-03-05 02:00,ZHCC 050200Z 19002MPS 140V230 5000 HZ NSC 14/07 Q1018 NOSIG
ZHCC,2021-03-05 03:00,ZHCC 050300Z 16002MPS 100V240 6000 NSC 16/07 Q1017 NOSIG
ZHCC,2021-03-05 04:00,ZHCC 050400Z 18002MPS 110V270 8000 NSC 17/06 Q1017 NOSIG
ZHCC,2021-03-05 05:00,ZHCC 050500Z 20003MPS 150V250 8000 NSC 18/04 Q1016 NOSIG
ZHCC,2021-03-05 06:00,ZHCC 050600Z 17002MPS 100V230 8000 NSC 18/05 Q1016 NOSIG
ZHCC,2021-03-05 07:00,ZHCC 050700Z 08003MPS 060V120 8000 NSC 18/07 Q1015 NOSIG
ZHCC,2021-03-05 08:00,ZHCC 050800Z 11004MPS 080V140 8000 NSC 18/07 Q1016 NOSIG
ZHCC,2021-03-05 09:00,ZHCC 050900Z 10006MPS 8000 NSC 17/07 Q1016 NOSIG
ZHCC,2021-03-05 10:00,ZHCC 051000Z 10006MPS 8000 NSC 16/07 Q1017 BECMG TL1140 03008MPS
ZHCC,2021-03-05 11:00,ZHCC 051100Z 09005MPS 8000 NSC 15/07 Q1018 BECMG TL1240 03008MPS 1700
ZHCC,2021-03-05 12:00,ZHCC 051200Z 05005MPS 8000 NSC 14/07 Q1020 BECMG TL1340 1700
ZHCC,2021-03-05 13:00,ZHCC 051300Z 03008G14MPS 2500 BR NSC 12/08 Q1022 NOSIG
ZHCC,2021-03-05 14:00,ZHCC 051400Z 04009MPS 5000 BR NSC 10/05 Q1023 NOSIG
ZHCC,2021-03-05 15:00,ZHCC 051500Z 03009MPS 350V050 6000 NSC 06/02 Q1025 NOSIG
ZHCC,2021-03-05 16:00,ZHCC 051600Z 02009G15MPS 350V050 6000 NSC 04/01 Q1026 NOSIG
ZHCC,2021-03-05 17:00,ZHCC 051700Z 03009G14MPS 8000 OVC030 03/M01 Q1027 NOSIG
ZHCC,2021-03-05 18:00,ZHCC 051800Z 03009G14MPS 350V050 8000 OVC030 03/M01 Q1028 NOSIG
ZHCC,2021-03-05 19:00,ZHCC 051900Z 03009G15MPS 8000 OVC030 02/M02 Q1029 NOSIG
ZHCC,2021-03-05 20:00,ZHCC 052000Z 02008G13MPS 350V060 8000 OVC020 02/M02 Q1030 NOSIG
ZHCC,2021-03-05 21:00,ZHCC 052100Z 03008MPS 8000 OVC020 02/M03 Q1030 NOSIG
ZHCC,2021-03-05 22:00,ZHCC 052200Z 03008G14MPS 8000 OVC020 01/M03 Q1031 NOSIG
ZHCC,2021-03-05 23:00,ZHCC 052300Z 04010MPS 8000 OVC020 01/M04 Q1031 NOSIG
ZHCC,2021-03-06 00:00,ZHCC 060000Z 03009G15MPS 8000 OVC020 01/M04 Q1032 NOSIG
ZHCC,2021-03-06 01:00,ZHCC 060100Z 03009MPS 8000 OVC020 01/M04 Q1033 NOSIG
ZHCC,2021-03-06 02:00,ZHCC 060200Z 04008MPS 8000 OVC020 01/M04 Q1034 NOSIG
ZHCC,2021-03-06 03:00,ZHCC 060300Z 03008MPS 8000 OVC020 01/M05 Q1034 NOSIG
ZHCC,2021-03-06 04:00,ZHCC 060400Z 03007MPS 360V060 8000 OVC020 01/M05 Q1034 NOSIG
ZHCC,2021-03-06 05:00,ZHCC 060500Z 04007MPS 9999 OVC030 01/M05 Q1034 NOSIG
ZHCC,2021-03-06 06:00,ZHCC 060600Z 04007MPS 9999 OVC030 01/M06 Q1034 NOSIG
ZHCC,2021-03-06 07:00,ZHCC 060700Z 02006MPS 340V050 9999 OVC030 01/M07 Q1033 NOSIG
ZHCC,2021-03-06 08:00,ZHCC 060800Z 02005MPS 9999 OVC030 01/M06 Q1033 NOSIG
ZHCC,2021-03-06 09:00,ZHCC 060900Z 04004MPS 020V080 9999 OVC030 01/M06 Q1033 NOSIG
ZHCC,2021-03-06 10:00,ZHCC 061000Z 05004MPS 020V080 9999 OVC030 01/M06 Q1033 NOSIG
ZHCC,2021-03-06 11:00,ZHCC 061100Z 04005MPS 020V080 9999 OVC030 01/M05 Q1033 NOSIG
ZHCC,2021-03-06 12:00,ZHCC 061200Z 03005MPS 9999 OVC030 01/M06 Q1034 NOSIG
ZHCC,2021-03-06 13:00,ZHCC 061300Z 04004MPS 9999 OVC030 01/M06 Q1034 NOSIG
ZHCC,2021-03-06 14:00,ZHCC 061400Z 04005MPS 9999 OVC030 01/M07 Q1034 NOSIG
ZHCC,2021-03-06 15:00,ZHCC 061500Z 05004MPS 9999 OVC030 01/M08 Q1034 NOSIG
ZHCC,2021-03-06 16:00,ZHCC 061600Z 04004MPS 9999 OVC030 01/M07 Q1034 NOSIG
ZHCC,2021-03-06 17:00,ZHCC 061700Z 04002MPS 360V070 9999 OVC030 01/M07 Q1033 NOSIG
ZHCC,2021-03-06 18:00,ZHCC 061800Z 02003MPS 9999 OVC030 01/M07 Q1033 NOSIG
ZHCC,2021-03-06 19:00,ZHCC 061900Z 01002MPS 330V050 9999 OVC030 01/M07 Q1032 NOSIG
ZHCC,2021-03-06 20:00,ZHCC 062000Z 01003MPS 9999 OVC030 01/M07 Q1032 NOSIG
ZHCC,2021-03-06 21:00,ZHCC 062100Z 03003MPS 010V070 9999 SCT040 00/M08 Q1031 NOSIG
ZHCC,2021-03-06 22:00,ZHCC 062200Z 03002MPS 010V070 9999 SCT040 00/M08 Q1032 NOSIG
ZHCC,2021-03-06 23:00,ZHCC 062300Z VRB01MPS 9999 BKN040 00/M08 Q1032 NOSIG
ZHCC,2021-03-07 00:00,ZHCC 070000Z 02001MPS CAVOK 01/M08 Q1032 NOSIG
ZHCC,2021-03-07 01:00,ZHCC 070100Z 06003MPS 020V100 CAVOK 02/M08 Q1032 NOSIG
ZHCC,2021-03-07 02:00,ZHCC 070200Z 07002MPS 030V120 CAVOK 03/M07 Q1032 NOSIG
ZHCC,2021-03-07 03:00,ZHCC 070300Z 06002MPS 350V100 CAVOK 05/M06 Q1032 NOSIG
ZHCC,2021-03-07 04:00,ZHCC 070400Z 08003MPS 030V150 CAVOK 06/M05 Q1031 NOSIG
ZHCC,2021-03-07 05:00,ZHCC 070500Z 08002MPS 030V120 CAVOK 07/M05 Q1030 NOSIG
ZHCC,2021-03-07 06:00,ZHCC 070600Z VRB02MPS CAVOK 09/M04 Q1028 NOSIG
ZHCC,2021-03-07 07:00,ZHCC 070700Z VRB02MPS CAVOK 09/M03 Q1028 NOSIG
ZHCC,2021-03-07 08:00,ZHCC 070800Z 13002MPS 090V190 CAVOK 10/M02 Q1027 NOSIG
ZHCC,2021-03-07 09:00,ZHCC 070900Z 12003MPS CAVOK 09/M00 Q1027 NOSIG
ZHCC,2021-03-07 10:00,ZHCC 071000Z 14003MPS 100V170 7000 NSC 07/01 Q1027 NOSIG
ZHCC,2021-03-07 11:00,ZHCC 071100Z 13002MPS 7000 NSC 06/01 Q1028 NOSIG
ZHCC,2021-03-07 12:00,ZHCC 071200Z 14002MPS 7000 NSC 06/01 Q1028 NOSIG
ZHCC,2021-03-07 13:00,ZHCC 071300Z 13002MPS 7000 NSC 05/01 Q1028 NOSIG
ZHCC,2021-03-07 14:00,ZHCC 071400Z 14002MPS 7000 NSC 05/01 Q1029 NOSIG
ZHCC,2021-03-07 15:00,ZHCC 071500Z 15001MPS 6000 NSC 04/01 Q1029 NOSIG
ZHCC,2021-03-07 16:00,ZHCC 071600Z 13001MPS 6000 NSC 03/01 Q1028 NOSIG
ZHCC,2021-03-07 17:00,ZHCC 071700Z 14001MPS 5000 BR NSC 04/01 Q1028 NOSIG
ZHCC,2021-03-07 18:00,ZHCC 071800Z 14001MPS 5000 BR NSC 03/01 Q1028 NOSIG
ZHCC,2021-03-07 19:00,ZHCC 071900Z 13001MPS 4000 BR NSC 03/01 Q1027 NOSIG
ZHCC,2021-03-07 20:00,ZHCC 072000Z 13001MPS 4000 BR NSC 03/01 Q1026 NOSIG
ZHCC,2021-03-07 21:00,ZHCC 072100Z 11002MPS 4000 BR NSC 03/01 Q1026 NOSIG
ZHCC,2021-03-07 22:00,ZHCC 072200Z 10002MPS 4000 BR NSC 02/01 Q1026 BECMG TL2340 2500
ZHCC,2021-03-07 23:00,ZHCC 072300Z VRB01MPS 3000 BR NSC 02/00 Q1026 BECMG TL2340 2500
ZHCC,2021-03-08 00:00,ZHCC 080000Z VRB01MPS 2500 BR NSC 04/02 Q1027 BECMG TL0140 3000
ZHCC,2021-03-08 01:00,ZHCC 080100Z VRB01MPS 3000 BR NSC 06/02 Q1028 NOSIG
ZHCC,2021-03-08 02:00,ZHCC 080200Z 15002MPS 100V210 4000 HZ NSC 08/02 Q1028 NOSIG
ZHCC,2021-03-08 03:00,ZHCC 080300Z 19002MPS 120V240 4000 HZ NSC 09/02 Q1027 NOSIG
ZHCC,2021-03-08 04:00,ZHCC 080400Z 19002MPS 130V250 4000 HZ NSC 09/02 Q1027 NOSIG
ZHCC,2021-03-08 05:00,ZHCC 080500Z 14002MPS 090V220 4000 HZ NSC 09/02 Q1026 NOSIG
ZHCC,2021-03-08 06:00,ZHCC 080600Z VRB02MPS 4000 HZ NSC 10/02 Q1025 NOSIG
ZHCC,2021-03-08 07:00,ZHCC 080700Z 07001MPS 4000 HZ NSC 10/02 Q1024 NOSIG
ZHCC,2021-03-08 08:00,ZHCC 080800Z 18002MPS 130V220 4000 HZ NSC 11/02 Q1024 NOSIG
ZHCC,2021-03-08 09:00,ZHCC 080900Z 21002MPS 170V250 4000 HZ NSC 10/02 Q1024 NOSIG
ZHCC,2021-03-08 10:00,ZHCC 081000Z 22003MPS 4000 HZ NSC 09/03 Q1024 NOSIG
ZHCC,2021-03-08 11:00,ZHCC 081100Z 21002MPS 170V250 5000 -RA BR OVC040 08/04 Q1025 NOSIG
ZHCC,2021-03-08 12:00,ZHCC 081200Z 20002MPS 150V240 5000 -RA BR OVC040 07/04 Q1025 NOSIG
ZHCC,2021-03-08 13:00,ZHCC 081300Z VRB01MPS 5000 BR OVC040 07/04 Q1025 NOSIG
ZHCC,2021-03-08 14:00,ZHCC 081400Z VRB01MPS 5000 BR OVC040 07/04 Q1025 NOSIG
ZHCC,2021-03-08 15:00,ZHCC 081500Z 24002MPS 210V280 5000 BR OVC040 07/04 Q1026 NOSIG
ZHCC,2021-03-08 16:00,ZHCC 081600Z 23002MPS 190V250 5000 BR OVC040 07/04 Q1026 NOSIG
ZHCC,2021-03-08 17:00,ZHCC 081700Z 21001MPS 5000 BR OVC040 07/04 Q1025 NOSIG
ZHCC,2021-03-08 18:00,ZHCC 081800Z VRB01MPS 5000 BR OVC040 07/04 Q1025 NOSIG
ZHCC,2021-03-08 19:00,ZHCC 081900Z 21001MPS 5000 BR OVC040 07/04 Q1025 NOSIG
ZHCC,2021-03-08 20:00,ZHCC 082000Z 30001MPS 4000 BR NSC 06/04 Q1024 NOSIG
ZHCC,2021-03-08 21:00,ZHCC 082100Z 22001MPS 4000 BR NSC 06/04 Q1024 BECMG TL2240 2000
ZHCC,2021-03-08 22:00,ZHCC 082200Z 22001MPS 3500 BR NSC 04/03 Q1025 BECMG TL2340 2000
ZHCC,2021-03-08 23:00,ZHCC 082300Z VRB01MPS 1600 BR NSC 03/02 Q1025 BECMG TL0040 3000
ZHCC,2021-03-09 00:00,ZHCC 090000Z VRB01MPS 2000 BR NSC 06/05 Q1026 BECMG TL0040 3000
ZHCC,2021-03-09 01:00,ZHCC 090100Z 19002MPS 160V240 2500 BR NSC 09/04 Q1027 BECMG TL0140 3000
ZHCC,2021-03-09 02:00,ZHCC 090200Z 18003MPS 150V250 4000 HZ NSC 11/04 Q1027 NOSIG
ZHCC,2021-03-09 03:00,ZHCC 090300Z 21003MPS 160V280 5000 HZ NSC 12/04 Q1027 NOSIG
ZHCC,2021-03-09 04:00,ZHCC 090400Z 17003MPS 130V220 6000 NSC 13/04 Q1027 NOSIG
ZHCC,2021-03-09 05:00,ZHCC 090500Z VRB02MPS 8000 NSC 15/05 Q1026 NOSIG
ZHCC,2021-03-09 06:00,ZHCC 090600Z 18003MPS 110V260 8000 FEW030 15/05 Q1025 NOSIG
ZHCC,2021-03-09 07:00,ZHCC 090700Z VRB02MPS 8000 FEW030 15/05 Q1025 NOSIG
ZHCC,2021-03-09 08:00,ZHCC 090800Z 15003MPS 110V190 8000 FEW030 15/05 Q1025 NOSIG
ZHCC,2021-03-09 09:00,ZHCC 090900Z 14003MPS 110V200 9999 FEW030 14/05 Q1025 NOSIG
ZHCC,2021-03-09 10:00,ZHCC 091000Z 14003MPS 090V170 CAVOK 13/05 Q1025 NOSIG
ZHCC,2021-03-09 11:00,ZHCC 091100Z 16002MPS 120V180 CAVOK 11/05 Q1026 NOSIG
ZHCC,2021-03-09 12:00,ZHCC 091200Z 16002MPS 130V190 CAVOK 10/05 Q1027 NOSIG
ZHCC,2021-03-09 13:00,ZHCC 091300Z VRB01MPS 8000 NSC 08/05 Q1027 NOSIG
ZHCC,2021-03-09 14:00,ZHCC 091400Z VRB01MPS 6000 NSC 07/05 Q1027 NOSIG
ZHCC,2021-03-09 15:00,ZHCC 091500Z 19002MPS 150V220 6000 SCT033 10/06 Q1028 NOSIG
ZHCC,2021-03-09 16:00,ZHCC 091600Z VRB01MPS 6000 BKN033 10/06 Q1028 NOSIG
ZHCC,2021-03-09 17:00,ZHCC 091700Z 19002MPS 160V230 6000 BKN033 10/06 Q1028 NOSIG
ZHCC,2021-03-09 18:00,ZHCC 091800Z 21002MPS 6000 BKN033 10/06 Q1027 NOSIG
ZHCC,2021-03-09 19:00,ZHCC 091900Z VRB01MPS 7000 BKN033 10/05 Q1027 NOSIG
ZHCC,2021-03-09 20:00,ZHCC 092000Z VRB01MPS 7000 BKN033 09/05 Q1026 NOSIG
ZHCC,2021-03-09 21:00,ZHCC 092100Z VRB01MPS 7000 BKN033 09/05 Q1026 NOSIG
ZHCC,2021-03-09 22:00,ZHCC 092200Z 14001MPS 6000 BKN033 09/06 Q1026 BECMG TL2340 2000
ZHCC,2021-03-09 23:00,ZHCC 092300Z 15001MPS 4000 BR OVC033 09/06 Q1027 BECMG TL0040 2000
ZHCC,2021-03-10 00:00,ZHCC 100000Z 16002MPS 130V190 2800 BR OVC033 09/07 Q1028 BECMG TL0140 3000
ZHCC,2021-03-10 01:00,ZHCC 100100Z 15002MPS 110V180 3000 BR OVC033 10/06 Q1028 NOSIG
ZHCC,2021-03-10 02:00,ZHCC 100200Z 17002MPS 120V210 3000 BR SCT016 OVC033 11/07 Q1028 NOSIG
ZHCC,2021-03-10 03:00,ZHCC 100300Z 20003MPS 170V230 5000 HZ SCT016 OVC033 11/06 Q1028 NOSIG
ZHCC,2021-03-10 04:00,ZHCC 100400Z 16002MPS 110V220 8000 SCT016 OVC033 12/05 Q1027 NOSIG
ZHCC,2021-03-10 05:00,ZHCC 100500Z 15003MPS 110V220 8000 SCT016 OVC033 12/05 Q1026 NOSIG
ZHCC,2021-03-10 06:00,ZHCC 100600Z 17002MPS 120V230 8000 SCT016 OVC033 12/05 Q1025 NOSIG
ZHCC,2021-03-10 07:00,ZHCC 100700Z VRB01MPS 8000 SCT016 OVC033 12/05 Q1024 NOSIG
ZHCC,2021-03-10 08:00,ZHCC 100800Z VRB01MPS 8000 SCT016 OVC033 12/05 Q1024 NOSIG
ZHCC,2021-03-10 09:00,ZHCC 100900Z 12002MPS 8000 OVC033 12/05 Q1023 NOSIG
ZHCC,2021-03-10 10:00,ZHCC 101000Z 11003MPS 8000 OVC040 12/05 Q1023 NOSIG
ZHCC,2021-03-10 11:00,ZHCC 101100Z 12002MPS 8000 OVC030 11/06 Q1024 NOSIG
ZHCC,2021-03-10 12:00,ZHCC 101200Z 12001MPS 8000 OVC030 11/06 Q1024 NOSIG
ZHCC,2021-03-10 13:00,ZHCC 101300Z 12002MPS 8000 OVC030 11/06 Q1024 NOSIG
ZHCC,2021-03-10 14:00,ZHCC 101400Z 15001MPS 6000 -RA OVC020 11/06 Q1025 NOSIG
ZHCC,2021-03-10 15:00,ZHCC 101500Z 18001MPS 6000 -RA OVC020 10/07 Q1025 NOSIG
ZHCC,2021-03-10 16:00,ZHCC 101600Z 27002MPS 6000 -RA OVC020 10/08 Q1024 NOSIG
ZHCC,2021-03-10 17:00,ZHCC 101700Z 28001MPS 5000 -RA BR OVC020 10/07 Q1023 NOSIG
ZHCC,2021-03-10 18:00,ZHCC 101800Z 29001MPS 5000 -RA BR OVC020 09/07 Q1023 NOSIG
ZHCC,2021-03-10 19:00,ZHCC 101900Z 26001MPS 5000 -RA BR OVC020 09/08 Q1023 NOSIG
ZHCC,2021-03-10 20:00,ZHCC 102000Z 28001MPS 4000 -RA BR OVC030 09/07 Q1022 NOSIG
ZHCC,2021-03-10 21:00,ZHCC 102100Z 29002MPS 3500 -RA BR OVC030 08/08 Q1022 NOSIG
ZHCC,2021-03-10 22:00,ZHCC 102200Z 30002MPS 3500 -RA BR OVC030 08/08 Q1022 BECMG TL2240 2000
ZHCC,2021-03-10 23:00,ZHCC 102300Z 30002MPS 2000 -RA BR OVC030 08/08 Q1023 BECMG TL0040 3000
ZHCC,2021-03-11 00:00,ZHCC 110000Z VRB01MPS 2000 -RA BR OVC040 09/08 Q1023 BECMG TL0040 3000
ZHCC,2021-03-11 01:00,ZHCC 110100Z 34003MPS 2000 -RA BR OVC040 10/08 Q1024 BECMG TL0240 3000
ZHCC,2021-03-11 02:00,ZHCC 110200Z 34002MPS 300V030 2500 BR BKN040 12/08 Q1024 NOSIG
ZHCC,2021-03-11 03:00,ZHCC 110300Z 34002MPS 320V030 3000 BR BKN040 12/07 Q1024 NOSIG
ZHCC,2021-03-11 04:00,ZHCC 110400Z 04003MPS 360V080 3000 BR BKN040 12/08 Q1023 NOSIG
ZHCC,2021-03-11 05:00,ZHCC 110500Z 02002MPS 340V070 4000 HZ BKN030 13/08 Q1023 NOSIG
ZHCC,2021-03-11 06:00,ZHCC 110600Z 07003MPS 040V100 4000 HZ BKN040 13/08 Q1022 NOSIG
ZHCC,2021-03-11 07:00,ZHCC 110700Z 06004MPS 020V090 4000 HZ BKN040 13/07 Q1022 NOSIG
ZHCC,2021-03-11 08:00,ZHCC 110800Z 09003MPS 360V140 5000 HZ BKN046 13/07 Q1022 NOSIG
ZHCC,2021-03-11 09:00,ZHCC 110900Z 08003MPS 6000 BKN046 13/07 Q1022 NOSIG
ZHCC,2021-03-11 10:00,ZHCC 111000Z 11003MPS 6000 NSC 12/08 Q1022 NOSIG
ZHCC,2021-03-11 11:00,ZHCC 111100Z 12001MPS 6000 NSC 10/07 Q1023 NOSIG
ZHCC,2021-03-11 12:00,ZHCC 111200Z 14001MPS 5000 BR NSC 08/07 Q1024 NOSIG
ZHCC,2021-03-11 13:00,ZHCC 111300Z 14001MPS 4000 BR NSC 08/07 Q1024 NOSIG
ZHCC,2021-03-11 14:00,ZHCC 111400Z 16001MPS 4000 BR NSC 08/07 Q1025 NOSIG
ZHCC,2021-03-11 15:00,ZHCC 111500Z VRB01MPS 3000 BR NSC 06/05 Q1025 BECMG TL1620 2000
ZHCC,2021-03-11 16:00,ZHCC 111600Z 13001MPS 2000 BR NSC 05/04 Q1025 NOSIG
ZHCC,2021-03-11 17:00,ZHCC 111700Z 16001MPS 1200 R30L/0275N R30R/0750N PRFG BR NSC 06/06 Q1024 BECMG TL1840 0600 FG
ZHCC,2021-03-11 18:00,ZHCC 111800Z 00000MPS 0600 R12R/0175N R12L/0150V0225D FG NSC 05/04 Q1024 BECMG TL1940 0300 VV003
ZHCC,2021-03-11 19:00,ZHCC 111900Z 13001MPS 0400 R12R/0150N R12L/0150N FG VV004 05/04 Q1024 BECMG TL2020 0300
ZHCC,2021-03-11 20:00,ZHCC 112000Z 00000MPS 0100 R12R/0175N R12L/0175N FG VV001 05/05 Q1024 NOSIG
ZHCC,2021-03-11 21:00,ZHCC 112100Z 14001MPS 0100 R12R/0150N R12L/0200N FG VV001 06/06 Q1024 NOSIG
ZHCC,2021-03-11 22:00,ZHCC 112200Z 12002MPS 0200 R12R/0200N R12L/0275N FG VV002 06/06 Q1024 NOSIG
ZHCC,2021-03-11 23:00,ZHCC 112300Z 15002MPS 110V180 0150 R12R/0150N R12L/0200N FG VV001 07/06 Q1025 NOSIG
ZHCC,2021-03-12 00:00,ZHCC 120000Z 15002MPS 0200 R12R/0250N R12L/0350V0550N FG VV002 07/07 Q1025 BECMG TL0120 0500
ZHCC,2021-03-12 01:00,ZHCC 120100Z VRB01MPS 0600 R12R/1400U R12L/1100U FG VV003 08/08 Q1027 BECMG TL0220 1500 BR
ZHCC,2021-03-12 02:00,ZHCC 120200Z 18002MPS 130V220 1200 R12R/1400N R12L/1500N BR OVC015 08/08 Q1027 BECMG TL0320 1500
ZHCC,2021-03-12 03:00,ZHCC 120300Z 17003MPS 120V200 1700 BR BKN020 10/09 Q1027 BECMG TL0440 3000
ZHCC,2021-03-12 04:00,ZHCC 120400Z 15004MPS 110V200 2500 BR BKN020 11/08 Q1026 BECMG TL0440 3000
ZHCC,2021-03-12 05:00,ZHCC 120500Z 15004MPS 110V190 3000 BR BKN020 12/08 Q1025 NOSIG
ZHCC,2021-03-12 06:00,ZHCC 120600Z 17003MPS 100V250 4000 HZ BKN020 14/09 Q1024 NOSIG
ZHCC,2021-03-12 07:00,ZHCC 120700Z 18003MPS 130V220 5000 HZ BKN030 14/08 Q1023 NOSIG
ZHCC,2021-03-12 08:00,ZHCC 120800Z 16003MPS 110V190 5000 HZ BKN030 14/08 Q1022 NOSIG
ZHCC,2021-03-12 09:00,ZHCC 120900Z 15003MPS 120V190 6000 BKN033 14/08 Q1022 NOSIG
ZHCC,2021-03-12 10:00,ZHCC 121000Z 15002MPS 100V180 6000 BKN033 13/07 Q1022 NOSIG
ZHCC,2021-03-12 11:00,ZHCC 121100Z 13003MPS 6000 BKN033 12/08 Q1023 NOSIG
ZHCC,2021-03-12 12:00,ZHCC 121200Z 14003MPS 100V170 6000 BKN033 12/08 Q1024 NOSIG
ZHCC,2021-03-12 13:00,ZHCC 121300Z 14002MPS 110V190 6000 BKN033 11/07 Q1024 NOSIG
ZHCC,2021-03-12 14:00,ZHCC 121400Z 15002MPS 120V180 6000 BKN030 11/07 Q1024 NOSIG
ZHCC,2021-03-12 15:00,ZHCC 121500Z 15002MPS 120V180 6000 BKN030 11/07 Q1024 NOSIG
ZHCC,2021-03-12 16:00,ZHCC 121600Z 17002MPS 130V200 6000 BKN040 11/07 Q1024 NOSIG
ZHCC,2021-03-12 17:00,ZHCC 121700Z 14001MPS 6000 BKN040 10/07 Q1024 NOSIG
ZHCC,2021-03-12 18:00,ZHCC 121800Z VRB01MPS 6000 BKN040 10/07 Q1024 NOSIG
ZHCC,2021-03-12 19:00,ZHCC 121900Z 18002MPS 6000 BKN040 10/07 Q1024 NOSIG
ZHCC,2021-03-12 20:00,ZHCC 122000Z 17002MPS 140V210 6000 BKN040 10/06 Q1023 NOSIG
ZHCC,2021-03-12 21:00,ZHCC 122100Z 13002MPS 110V180 5000 BR BKN040 10/06 Q1023 BECMG TL2240 2000
ZHCC,2021-03-12 22:00,ZHCC 122200Z 11002MPS 5000 BR BKN040 09/06 Q1023 BECMG TL2240 2000
ZHCC,2021-03-12 23:00,ZHCC 122300Z 22001MPS 2500 BR BKN040 09/06 Q1024 BECMG TL0040 3000
ZHCC,2021-03-13 00:00,ZHCC 130000Z VRB01MPS 2800 BR BKN030 10/06 Q1024 BECMG TL0040 3500
ZHCC,2021-03-13 01:00,ZHCC 130100Z 17002MPS 130V210 3000 BR OVC030 11/06 Q1024 NOSIG
ZHCC,2021-03-13 02:00,ZHCC 130200Z 18002MPS 140V210 4000 BR OVC030 11/06 Q1025 NOSIG
ZHCC,2021-03-13 03:00,ZHCC 130300Z 17002MPS 140V200 5000 HZ OVC030 11/06 Q1025 NOSIG
ZHCC,2021-03-13 04:00,ZHCC 130400Z 17002MPS 120V200 5000 HZ OVC030 12/06 Q1024 NOSIG
ZHCC,2021-03-13 05:00,ZHCC 130500Z VRB01MPS 5000 HZ OVC040 12/06 Q1024 NOSIG
ZHCC,2021-03-13 06:00,ZHCC 130600Z VRB01MPS 5000 HZ OVC040 13/07 Q1022 NOSIG
ZHCC,2021-03-13 07:00,ZHCC 130700Z VRB01MPS 5000 HZ OVC040 13/07 Q1022 NOSIG
ZHCC,2021-03-13 08:00,ZHCC 130800Z 12002MPS 090V170 5000 HZ OVC040 13/07 Q1021 NOSIG
ZHCC,2021-03-13 09:00,ZHCC 130900Z 13002MPS 110V170 5000 HZ OVC040 13/07 Q1021 NOSIG
ZHCC,2021-03-13 10:00,ZHCC 131000Z 15002MPS 110V190 5000 HZ OVC040 12/07 Q1020 NOSIG
ZHCC,2021-03-13 11:00,ZHCC 131100Z 13002MPS 6000 OVC040 12/08 Q1020 NOSIG
ZHCC,2021-03-13 12:00,ZHCC 131200Z VRB01MPS 6000 OVC040 11/07 Q1020 NOSIG
ZHCC,2021-03-13 13:00,ZHCC 131300Z 14001MPS 6000 OVC040 10/07 Q1021 NOSIG
ZHCC,2021-03-13 14:00,ZHCC 131400Z VRB01MPS 5000 BR OVC040 09/07 Q1021 NOSIG
ZHCC,2021-03-13 15:00,ZHCC 131500Z 16001MPS 5000 BR OVC040 08/07 Q1020 NOSIG
ZHCC,2021-03-13 16:00,ZHCC 131600Z 14002MPS 5000 BR OVC040 09/07 Q1019 NOSIG
ZHCC,2021-03-13 17:00,ZHCC 131700Z 15003MPS 130V190 5000 BR OVC040 10/07 Q1019 NOSIG
ZHCC,2021-03-13 18:00,ZHCC 131800Z 14002MPS 110V180 5000 BR OVC040 10/07 Q1018 NOSIG
ZHCC,2021-03-13 19:00,ZHCC 131900Z 15002MPS 110V180 5000 BR OVC040 10/07 Q1018 NOSIG
ZHCC,2021-03-13 20:00,ZHCC 132000Z 14002MPS 100V180 4000 BR OVC040 09/07 Q1017 NOSIG
ZHCC,2021-03-13 21:00,ZHCC 132100Z 11002MPS 4000 BR OVC040 09/07 Q1017 BECMG TL2240 2000
ZHCC,2021-03-13 22:00,ZHCC 132200Z 14002MPS 110V170 4000 BR OVC040 09/07 Q1017 BECMG TL2300 2000
ZHCC,2021-03-13 23:00,ZHCC 132300Z 12002MPS 090V150 2000 BR OVC040 09/07 Q1017 BECMG TL0040 3000
ZHCC,2021-03-14 00:00,ZHCC 140000Z 14002MPS 100V190 1500 BR OVC040 09/07 Q1017 BECMG TL0140 3000
ZHCC,2021-03-14 01:00,ZHCC 140100Z 13003MPS 100V170 2000 BR OVC040 10/08 Q1017 BECMG TL0240 3000
ZHCC,2021-03-14 02:00,ZHCC 140200Z 16003MPS 100V190 2800 BR BKN040 12/08 Q1017 BECMG TL0240 3000
ZHCC,2021-03-14 03:00,ZHCC 140300Z 17004MPS 130V200 4000 BR BKN040 14/09 Q1016 NOSIG
ZHCC,2021-03-14 04:00,ZHCC 140400Z 15003MPS 110V200 6000 BKN040 16/10 Q1015 NOSIG
ZHCC,2021-03-14 05:00,ZHCC 140500Z 16003MPS 120V200 6000 BKN040 16/09 Q1014 NOSIG
ZHCC,2021-03-14 06:00,ZHCC 140600Z 18002MPS 090V240 7000 BKN040 16/10 Q1013 NOSIG
ZHCC,2021-03-14 07:00,ZHCC 140700Z 18003MPS 140V230 7000 BKN040 16/10 Q1012 NOSIG
ZHCC,2021-03-14 08:00,ZHCC 140800Z 16003MPS 120V210 7000 BKN040 16/10 Q1012 NOSIG
ZHCC,2021-03-14 09:00,ZHCC 140900Z 16002MPS 110V190 7000 BKN040 16/10 Q1011 NOSIG
ZHCC,2021-03-14 10:00,ZHCC 141000Z 15002MPS 110V190 7000 BKN040 16/11 Q1011 NOSIG
ZHCC,2021-03-14 11:00,ZHCC 141100Z 12002MPS 7000 OVC030 15/11 Q1011 NOSIG
ZHCC,2021-03-14 12:00,ZHCC 141200Z 10002MPS 7000 OVC030 15/11 Q1011 NOSIG
ZHCC,2021-03-14 13:00,ZHCC 141300Z VRB01MPS 7000 OVC030 15/11 Q1011 NOSIG
ZHCC,2021-03-14 14:00,ZHCC 141400Z 12002MPS 7000 OVC030 14/11 Q1011 NOSIG
ZHCC,2021-03-14 15:00,ZHCC 141500Z 11002MPS 5000 BR OVC030 14/11 Q1011 NOSIG
ZHCC,2021-03-14 16:00,ZHCC 141600Z 13002MPS 070V190 4000 -RA BR OVC030 14/12 Q1010 NOSIG
ZHCC,2021-03-14 17:00,ZHCC 141700Z 00000MPS 4000 -RA BR OVC030 13/12 Q1010 NOSIG
ZHCC,2021-03-14 18:00,ZHCC 141800Z VRB01MPS 3000 -RA BR OVC030 13/12 Q1010 NOSIG
ZHCC,2021-03-14 19:00,ZHCC 141900Z VRB01MPS 3000 BR OVC040 13/12 Q1008 NOSIG
ZHCC,2021-03-14 20:00,ZHCC 142000Z 00000MPS 3000 BR NSC 12/11 Q1008 NOSIG
ZHCC,2021-03-14 21:00,ZHCC 142100Z 35003MPS 3000 BR NSC 12/12 Q1008 BECMG TL2240 2500
ZHCC,2021-03-14 22:00,ZHCC 142200Z 28002MPS 250V310 3000 BR NSC 11/11 Q1008 BECMG TL2240 2500
ZHCC,2021-03-14 23:00,ZHCC 142300Z 21001MPS 1500 BR NSC 11/10 Q1008 BECMG TL2340 1300
ZHCC,2021-03-15 00:00,ZHCC 150000Z VRB01MPS 1400 R30L/1100V1400N R30R/1500U BR NSC 12/11 Q1009 BECMG TL0040 1500
ZHCC,2021-03-15 01:00,ZHCC 150100Z VRB01MPS 1600 BR NSC 14/12 Q1010 BECMG TL0240 3000
ZHCC,2021-03-15 02:00,ZHCC 150200Z 30002MPS 270V340 2500 BR NSC 16/12 Q1011 BECMG TL0240 3000
ZHCC,2021-03-15 03:00,ZHCC 150300Z VRB02MPS 3000 HZ NSC 18/12 Q1011 NOSIG
ZHCC,2021-03-15 04:00,ZHCC 150400Z 34004MPS 300V030 3000 HZ BKN030 19/11 Q1012 BECMG TL0540 2000 DU
ZHCC,2021-03-15 05:00,ZHCC 150500Z 36004MPS 320V020 3000 HZ BKN030 19/11 Q1011 BECMG TL0640 2000 DU
ZHCC,2021-03-15 06:00,ZHCC 150600Z 01006MPS 340V040 3000 HZ SCT030 20/11 Q1012 NOSIG
ZHCC,2021-03-15 07:00,ZHCC 150700Z 03007MPS 360V060 3000 HZ SCT030 19/11 Q1012 NOSIG
ZHCC,2021-03-15 08:00,ZHCC 150800Z 04005MPS 020V080 3000 DU SCT030 18/11 Q1012 BECMG TL0840 2500
ZHCC,2021-03-15 09:00,ZHCC 150900Z 04005MPS 2500 DU SCT030 18/11 Q1012 BECMG TL1040 3000
ZHCC,2021-03-15 10:00,ZHCC 151000Z 04005MPS 020V100 2500 DU SCT030 17/12 Q1013 BECMG TL1140 3000
ZHCC,2021-03-15 11:00,ZHCC 151100Z 04006MPS 3000 BR SCT030 16/11 Q1014 NOSIG
ZHCC,2021-03-15 12:00,ZHCC 151200Z 04006MPS 3000 BR SCT030 15/11 Q1016 NOSIG
ZHCC,2021-03-15 13:00,ZHCC 151300Z 04006MPS 3000 BR SCT030 15/11 Q1017 NOSIG
ZHCC,2021-03-15 14:00,ZHCC 151400Z 04006MPS 3000 BR SCT030 15/11 Q1018 NOSIG
ZHCC,2021-03-15 15:00,ZHCC 151500Z 04005MPS 3000 BR SCT030 15/11 Q1019 NOSIG
ZHCC,2021-03-15 16:00,ZHCC 151600Z 03005MPS 340V050 3000 BR SCT030 14/09 Q1019 NOSIG
ZHCC,2021-03-15 17:00,ZHCC 151700Z 01005MPS 3000 DU SCT030 13/M01 Q1020 BECMG TL1740 2500
ZHCC,2021-03-15 18:00,ZHCC 151800Z 02005MPS 350V050 2500 DU SCT030 12/M04 Q1020 NOSIG
ZHCC,2021-03-15 19:00,ZHCC 151900Z 01005MPS 2500 DU SCT030 11/M07 Q1020 NOSIG
ZHCC,2021-03-15 20:00,ZHCC 152000Z 02006MPS 3000 DU SCT030 11/M09 Q1020 NOSIG
ZHCC,2021-03-15 21:00,ZHCC 152100Z 03006MPS 3000 DU SCT030 10/M09 Q1021 NOSIG
ZHCC,2021-03-15 22:00,ZHCC 152200Z 03006MPS 3000 DU SCT030 09/M08 Q1022 NOSIG
ZHCC,2021-03-15 23:00,ZHCC 152300Z 03005MPS 360V070 3000 DU SCT030 08/M09 Q1022 BECMG TL2340 2000
ZHCC,2021-03-16 00:00,ZHCC 160000Z 03005MPS 360V080 2000 DU SCT030 09/M09 Q1023 BECMG TL0140 3000
ZHCC,2021-03-16 01:00,ZHCC 160100Z 05005MPS 2500 DU NSC 09/M10 Q1023 BECMG TL0140 3000
ZHCC,2021-03-16 02:00,ZHCC 160200Z 04005MPS 360V080 3000 DU NSC 10/M09 Q1023 NOSIG
ZHCC,2021-03-16 03:00,ZHCC 160300Z 04005MPS 020V080 4000 DU NSC 12/M08 Q1023 NOSIG
ZHCC,2021-03-16 04:00,ZHCC 160400Z 06005MPS 030V090 4000 DU NSC 12/M08 Q1022 NOSIG
ZHCC,2021-03-16 05:00,ZHCC 160500Z 04006MPS 020V080 4000 DU NSC 14/M08 Q1021 NOSIG
ZHCC,2021-03-16 06:00,ZHCC 160600Z 06005MPS 360V090 5000 DU NSC 14/M08 Q1020 NOSIG
ZHCC,2021-03-16 07:00,ZHCC 160700Z 04004MPS 330V080 5000 DU NSC 15/M06 Q1020 NOSIG
ZHCC,2021-03-16 08:00,ZHCC 160800Z 06004MPS 330V100 5000 DU NSC 15/M06 Q1019 NOSIG
ZHCC,2021-03-16 09:00,ZHCC 160900Z 05005MPS 010V080 5000 DU NSC 14/M08 Q1019 NOSIG
ZHCC,2021-03-16 10:00,ZHCC 161000Z 06004MPS 5000 DU NSC 13/M07 Q1019 NOSIG
ZHCC,2021-03-16 11:00,ZHCC 161100Z 04003MPS 010V080 5000 DU NSC 12/M04 Q1020 NOSIG
ZHCC,2021-03-16 12:00,ZHCC 161200Z 02002MPS 350V070 7000 NSC 12/M03 Q1020 NOSIG
ZHCC,2021-03-16 13:00,ZHCC 161300Z 03003MPS 360V070 7000 NSC 11/M03 Q1021 NOSIG
ZHCC,2021-03-16 14:00,ZHCC 161400Z 03003MPS 7000 NSC 11/M03 Q1021 NOSIG
ZHCC,2021-03-16 15:00,ZHCC 161500Z 03003MPS 010V070 7000 NSC 10/M03 Q1021 NOSIG
ZHCC,2021-03-16 16:00,ZHCC 161600Z 03003MPS 360V070 7000 NSC 10/M04 Q1021 NOSIG
ZHCC,2021-03-16 17:00,ZHCC 161700Z 04004MPS 7000 NSC 10/M05 Q1021 NOSIG
ZHCC,2021-03-16 18:00,ZHCC 161800Z 04004MPS 020V080 7000 NSC 10/M04 Q1020 NOSIG
ZHCC,2021-03-16 19:00,ZHCC 161900Z 04003MPS 7000 NSC 09/M04 Q1020 NOSIG
ZHCC,2021-03-16 20:00,ZHCC 162000Z 05002MPS 020V090 7000 NSC 09/M04 Q1019 NOSIG
ZHCC,2021-03-16 21:00,ZHCC 162100Z 07003MPS 6000 NSC 09/M03 Q1019 NOSIG
ZHCC,2021-03-16 22:00,ZHCC 162200Z 07002MPS 040V120 6000 NSC 09/M03 Q1019 NOSIG
ZHCC,2021-03-16 23:00,ZHCC 162300Z VRB01MPS 6000 NSC 08/M00 Q1020 NOSIG
ZHCC,2021-03-17 00:00,ZHCC 170000Z 09003MPS 060V120 6000 NSC 09/00 Q1020 NOSIG
ZHCC,2021-03-17 01:00,ZHCC 170100Z 12003MPS 070V160 6000 NSC 11/00 Q1020 NOSIG
ZHCC,2021-03-17 02:00,ZHCC 170200Z 10003MPS 060V120 8000 NSC 11/M01 Q1020 NOSIG
ZHCC,2021-03-17 03:00,ZHCC 170300Z 13003MPS 100V180 CAVOK 12/M02 Q1021 NOSIG
ZHCC,2021-03-17 04:00,ZHCC 170400Z 07003MPS 020V130 CAVOK 13/M04 Q1020 NOSIG
ZHCC,2021-03-17 05:00,ZHCC 170500Z 10004MPS 050V140 CAVOK 14/M07 Q1019 NOSIG
ZHCC,2021-03-17 06:00,ZHCC 170600Z 08005MPS 030V120 CAVOK 14/M06 Q1019 NOSIG
ZHCC,2021-03-17 07:00,ZHCC 170700Z 08005MPS CAVOK 14/M06 Q1018 NOSIG
ZHCC,2021-03-17 08:00,ZHCC 170800Z 10006MPS CAVOK 14/M06 Q1018 NOSIG
ZHCC,2021-03-17 09:00,ZHCC 170900Z 08005MPS CAVOK 13/M07 Q1018 NOSIG
ZHCC,2021-03-17 10:00,ZHCC 171000Z 09005MPS CAVOK 13/M09 Q1018 NOSIG
ZHCC,2021-03-17 11:00,ZHCC 171100Z 11004MPS CAVOK 12/M04 Q1019 NOSIG
ZHCC,2021-03-17 12:00,ZHCC 171200Z 08004MPS CAVOK 12/M05 Q1020 NOSIG
ZHCC,2021-03-17 13:00,ZHCC 171300Z 05002MPS 010V090 CAVOK 12/M04 Q1020 NOSIG
ZHCC,2021-03-17 14:00,ZHCC 171400Z 06002MPS 010V100 CAVOK 12/M04 Q1020 NOSIG
ZHCC,2021-03-17 15:00,ZHCC 171500Z 18001MPS CAVOK 12/M03 Q1020 NOSIG
ZHCC,2021-03-17 16:00,ZHCC 171600Z 07002MPS 030V100 CAVOK 12/M02 Q1020 NOSIG
ZHCC,2021-03-17 17:00,ZHCC 171700Z 04002MPS 020V090 CAVOK 12/M02 Q1019 NOSIG
ZHCC,2021-03-17 18:00,ZHCC 171800Z 04002MPS 020V080 CAVOK 12/M01 Q1019 NOSIG
ZHCC,2021-03-17 19:00,ZHCC 171900Z 05003MPS CAVOK 12/M00 Q1018 NOSIG
ZHCC,2021-03-17 20:00,ZHCC 172000Z 02002MPS CAVOK 12/M01 Q1019 NOSIG
ZHCC,2021-03-17 21:00,ZHCC 172100Z 35004MPS 9999 -RA OVC040 10/01 Q1019 NOSIG
ZHCC,2021-03-17 22:00,ZHCC 172200Z 36002MPS 9999 -RA OVC040 11/02 Q1020 NOSIG
ZHCC,2021-03-17 23:00,ZHCC 172300Z 01003MPS 340V050 7000 -RA OVC040 10/04 Q1020 NOSIG
ZHCC,2021-03-18 00:00,ZHCC 180000Z 04005MPS 8000 -RA OVC040 10/03 Q1021 NOSIG
ZHCC,2021-03-18 01:00,ZHCC 180100Z 03005G10MPS 360V070 8000 -RA OVC040 10/04 Q1021 NOSIG
ZHCC,2021-03-18 02:00,ZHCC 180200Z 02007G12MPS 350V070 6000 OVC040 09/04 Q1022 NOSIG
ZHCC,2021-03-18 03:00,ZHCC 180300Z 03006MPS 360V080 6000 OVC040 08/05 Q1022 NOSIG
ZHCC,2021-03-18 04:00,ZHCC 180400Z 03007MPS 5000 BR OVC040 08/05 Q1022 NOSIG
ZHCC,2021-03-18 05:00,ZHCC 180500Z 03007MPS 360V060 4000 BR SCT012 OVC040 08/05 Q1021 NOSIG
ZHCC,2021-03-18 06:00,ZHCC 180600Z 04007MPS 4000 BR SCT020 OVC040 08/04 Q1021 NOSIG
ZHCC,2021-03-18 07:00,ZHCC 180700Z 03007MPS 360V060 4000 BR SCT020 OVC040 07/04 Q1021 NOSIG
ZHCC,2021-03-18 08:00,ZHCC 180800Z 03006G11MPS 360V060 4000 BR OVC020 07/04 Q1020 NOSIG
ZHCC,2021-03-18 09:00,ZHCC 180900Z 01005MPS 340V040 4000 BR OVC020 07/04 Q1021 NOSIG
ZHCC,2021-03-18 10:00,ZHCC 181000Z 03005MPS 360V060 4000 BR OVC020 07/04 Q1021 NOSIG
ZHCC,2021-03-18 11:00,ZHCC 181100Z 03004MPS 360V070 4000 BR OVC020 07/04 Q1021 NOSIG
ZHCC,2021-03-18 12:00,ZHCC 181200Z 03004MPS 350V070 5000 BR OVC020 07/04 Q1022 NOSIG
ZHCC,2021-03-18 13:00,ZHCC 181300Z 02004G09MPS 340V060 5000 BR OVC020 07/04 Q1023 NOSIG
ZHCC,2021-03-18 14:00,ZHCC 181400Z 03005MPS 360V070 5000 BR FEW010 BKN020 07/04 Q1023 NOSIG
ZHCC,2021-03-18 15:00,ZHCC 181500Z 02005MPS 350V060 5000 BR FEW010 BKN020 07/04 Q1023 NOSIG
ZHCC,2021-03-18 16:00,ZHCC 181600Z 04003MPS 360V070 5000 BR FEW010 BKN020 07/03 Q1023 NOSIG
ZHCC,2021-03-18 17:00,ZHCC 181700Z 02004MPS 340V060 5000 BR FEW010 BKN020 07/03 Q1022 NOSIG
ZHCC,2021-03-18 18:00,ZHCC 181800Z 03003MPS 350V090 5000 BR OVC040 07/03 Q1022 NOSIG
ZHCC,2021-03-18 19:00,ZHCC 181900Z 01004MPS 330V040 5000 BR OVC040 07/03 Q1022 NOSIG
ZHCC,2021-03-18 20:00,ZHCC 182000Z 03003MPS 360V060 5000 BR OVC040 06/03 Q1021 NOSIG
ZHCC,2021-03-18 21:00,ZHCC 182100Z 02004MPS 350V050 5000 BR OVC040 06/02 Q1021 NOSIG
ZHCC,2021-03-18 22:00,ZHCC 182200Z 02003MPS 340V040 5000 BR OVC046 06/02 Q1021 NOSIG
ZHCC,2021-03-18 23:00,ZHCC 182300Z 03003MPS 340V080 4000 BR OVC046 07/02 Q1021 NOSIG
ZHCC,2021-03-19 00:00,ZHCC 190000Z 01004MPS 340V050 4000 BR OVC046 07/02 Q1021 NOSIG
ZHCC,2021-03-19 01:00,ZHCC 190100Z 05004MPS 020V090 5000 HZ NSC 07/02 Q1021 NOSIG
ZHCC,2021-03-19 02:00,ZHCC 190200Z 02002MPS 310V100 7000 NSC 09/01 Q1021 NOSIG
ZHCC,2021-03-19 03:00,ZHCC 190300Z 36004MPS 310V050 7000 NSC 10/01 Q1021 NOSIG
ZHCC,2021-03-19 04:00,ZHCC 190400Z 02004MPS 340V070 7000 NSC 10/01 Q1019 NOSIG
ZHCC,2021-03-19 05:00,ZHCC 190500Z 03004MPS 360V060 7000 NSC 10/00 Q1019 NOSIG
ZHCC,2021-03-19 06:00,ZHCC 190600Z 36004MPS 320V040 7000 NSC 11/01 Q1017 NOSIG
ZHCC,2021-03-19 07:00,ZHCC 190700Z 34005MPS 300V360 7000 NSC 10/01 Q1017 NOSIG
ZHCC,2021-03-19 08:00,ZHCC 190800Z 32005MPS 7000 NSC 10/00 Q1017 NOSIG
ZHCC,2021-03-19 09:00,ZHCC 190900Z 32005MPS 7000 OVC040 10/M01 Q1018 NOSIG
ZHCC,2021-03-19 10:00,ZHCC 191000Z 32006MPS 3000 -SHRA BR OVC030 FEW040CB 07/04 Q1018 BECMG TL1140 2000 TSRA
ZHCC,2021-03-19 11:00,ZHCC 191100Z 27002MPS 4000 -SHRA BR OVC030 FEW040CB 07/05 Q1019 NOSIG
ZHCC,2021-03-19 12:00,ZHCC 191200Z 28003MPS 4000 -SHRA BR OVC030 FEW040CB 06/05 Q1019 NOSIG
ZHCC,2021-03-19 13:00,ZHCC 191300Z 30003MPS 5000 -SHRA BR OVC030 FEW040CB 06/05 Q1020 NOSIG
ZHCC,2021-03-19 14:00,ZHCC 191400Z 31002MPS 4000 BR OVC030 05/04 Q1020 NOSIG
ZHCC,2021-03-19 15:00,ZHCC 191500Z 26002MPS 3000 BR NSC 05/04 Q1019 NOSIG
ZHCC,2021-03-19 16:00,ZHCC 191600Z 00000MPS 3000 BR NSC 04/04 Q1019 NOSIG
ZHCC,2021-03-19 17:00,ZHCC 191700Z VRB01MPS 1200 R30L/1200D R30R/P2000 BR NSC 04/04 Q1019 NOSIG
ZHCC,2021-03-19 18:00,ZHCC 191800Z VRB01MPS 1500 BR NSC 04/03 Q1019 NOSIG
ZHCC,2021-03-19 19:00,ZHCC 191900Z 00000MPS 1500 BR NSC 04/04 Q1019 NOSIG
ZHCC,2021-03-19 20:00,ZHCC 192000Z 00000MPS 1200 R30L/0700V1300D R30R/1500N BR NSC 03/03 Q1019 NOSIG
ZHCC,2021-03-19 21:00,ZHCC 192100Z 00000MPS 1200 R12R/1600D R12L/P2000 BR NSC 03/03 Q1019 NOSIG
ZHCC,2021-03-19 22:00,ZHCC 192200Z 12001MPS 1200 R12R/1900U R12L/1100V1400D BR NSC 04/04 Q1019 BECMG TL2340 1600
ZHCC,2021-03-19 23:00,ZHCC 192300Z VRB01MPS 1200 R30L/1600D R30R/0550V0700U BR NSC 05/05 Q1019 BECMG TL2340 1600
ZHCC,2021-03-20 00:00,ZHCC 200000Z 00000MPS 1800 BR NSC 07/06 Q1020 BECMG TL0140 3000
ZHCC,2021-03-20 01:00,ZHCC 200100Z 12002MPS 2000 BR NSC 08/07 Q1020 BECMG TL0240 3000
ZHCC,2021-03-20 02:00,ZHCC 200200Z 32007MPS 5000 HZ NSC 12/05 Q1020 NOSIG
ZHCC,2021-03-20 03:00,ZHCC 200300Z 31006MPS 7000 NSC 13/04 Q1021 BECMG TL0440 03005MPS
ZHCC,2021-03-20 04:00,ZHCC 200400Z 31007MPS 7000 NSC 13/04 Q1021 BECMG TL0440 03005MPS
ZHCC,2021-03-20 05:00,ZHCC 200500Z 32006MPS 290V350 7000 NSC 14/03 Q1020 NOSIG
ZHCC,2021-03-20 06:00,ZHCC 200600Z 31006MPS 7000 NSC 14/03 Q1019 NOSIG
ZHCC,2021-03-20 08:00,ZHCC 200800Z 31004MPS 280V340 6000 NSC 15/02 Q1020 NOSIG
ZHCC,2021-03-20 09:00,ZHCC 200900Z 31003MPS 6000 NSC 15/02 Q1020 NOSIG
ZHCC,2021-03-20 10:00,ZHCC 201000Z 10003MPS 080V140 6000 NSC 13/05 Q1021 NOSIG
ZHCC,2021-03-20 11:00,ZHCC 201100Z 16001MPS 6000 NSC 12/05 Q1022 NOSIG
ZHCC,2021-03-20 12:00,ZHCC 201200Z VRB01MPS 6000 NSC 11/05 Q1023 NOSIG
ZHCC,2021-03-20 13:00,ZHCC 201300Z VRB01MPS 6000 NSC 11/05 Q1024 NOSIG
ZHCC,2021-03-20 14:00,ZHCC 201400Z VRB01MPS 6000 NSC 10/05 Q1025 NOSIG
ZHCC,2021-03-20 15:00,ZHCC 201500Z VRB01MPS 6000 NSC 09/05 Q1025 NOSIG
ZHCC,2021-03-20 16:00,ZHCC 201600Z 20002MPS 6000 NSC 10/05 Q1025 NOSIG
ZHCC,2021-03-20 17:00,ZHCC 201700Z 27002MPS 240V300 6000 NSC 09/04 Q1025 NOSIG
ZHCC,2021-03-20 18:00,ZHCC 201800Z 30003MPS 6000 NSC 10/M01 Q1025 NOSIG
ZHCC,2021-03-20 19:00,ZHCC 201900Z 31003MPS 8000 NSC 10/M01 Q1026 NOSIG
ZHCC,2021-03-20 20:00,ZHCC 202000Z 31004MPS 290V350 8000 NSC 10/M04 Q1026 NOSIG
ZHCC,2021-03-20 21:00,ZHCC 202100Z 31005MPS CAVOK 10/M05 Q1027 NOSIG
ZHCC,2021-03-20 22:00,ZHCC 202200Z 35004MPS CAVOK 09/M02 Q1028 NOSIG
ZHCC,2021-03-20 23:00,ZHCC 202300Z 36002MPS CAVOK 08/M01 Q1029 NOSIG
ZHCC,2021-03-21 00:00,ZHCC 210000Z 33004MPS CAVOK 09/M07 Q1030 NOSIG
ZHCC,2021-03-21 01:00,ZHCC 210100Z 30005MPS CAVOK 10/M10 Q1030 NOSIG
ZHCC,2021-03-21 02:00,ZHCC 210200Z 31006MPS 270V350 CAVOK 11/M10 Q1031 NOSIG
ZHCC,2021-03-21 03:00,ZHCC 210300Z 32004MPS 270V070 CAVOK 11/M10 Q1031 NOSIG
ZHCC,2021-03-21 04:00,ZHCC 210400Z 30004MPS 240V360 CAVOK 13/M10 Q1030 NOSIG
ZHCC,2021-03-21 05:00,ZHCC 210500Z 29005MPS 260V340 CAVOK 13/M11 Q1029 NOSIG
ZHCC,2021-03-21 06:00,ZHCC 210600Z 31006G11MPS 280V340 CAVOK 14/M12 Q1029 NOSIG
ZHCC,2021-03-21 07:00,ZHCC 210700Z 31006MPS 270V350 CAVOK 14/M13 Q1028 NOSIG
ZHCC,2021-03-21 08:00,ZHCC 210800Z 32004MPS 280V350 CAVOK 14/M13 Q1027 NOSIG
ZHCC,2021-03-21 09:00,ZHCC 210900Z 29005MPS 250V310 CAVOK 14/M13 Q1027 NOSIG
ZHCC,2021-03-21 10:00,ZHCC 211000Z 30004MPS CAVOK 13/M12 Q1027 NOSIG
ZHCC,2021-03-21 11:00,ZHCC 211100Z 27003MPS CAVOK 11/M11 Q1028 NOSIG
ZHCC,2021-03-21 12:00,ZHCC 211200Z 26003MPS CAVOK 11/M11 Q1028 NOSIG
ZHCC,2021-03-21 13:00,ZHCC 211300Z 25003MPS CAVOK 11/M11 Q1029 NOSIG
ZHCC,2021-03-21 14:00,ZHCC 211400Z 25003MPS CAVOK 10/M10 Q1029 NOSIG
ZHCC,2021-03-21 15:00,ZHCC 211500Z 26004MPS CAVOK 09/M09 Q1029 NOSIG
ZHCC,2021-03-21 16:00,ZHCC 211600Z 28003MPS CAVOK 08/M09 Q1029 NOSIG
ZHCC,2021-03-21 17:00,ZHCC 211700Z 29004MPS CAVOK 08/M10 Q1029 NOSIG
ZHCC,2021-03-21 18:00,ZHCC 211800Z 27004MPS CAVOK 07/M09 Q1028 NOSIG
ZHCC,2021-03-21 19:00,ZHCC 211900Z 28004MPS CAVOK 06/M09 Q1028 NOSIG
ZHCC,2021-03-21 20:00,ZHCC 212000Z 27002MPS CAVOK 06/M10 Q1028 NOSIG
ZHCC,2021-03-21 21:00,ZHCC 212100Z 23001MPS CAVOK 05/M08 Q1028 NOSIG
ZHCC,2021-03-21 22:00,ZHCC 212200Z 26001MPS CAVOK 04/M07 Q1028 NOSIG
ZHCC,2021-03-21 23:00,ZHCC 212300Z 00000MPS CAVOK 01/M06 Q1028 NOSIG
ZHCC,2021-03-22 00:00,ZHCC 220000Z 25002MPS CAVOK 09/M08 Q1028 NOSIG
ZHCC,2021-03-22 01:00,ZHCC 220100Z 28004MPS 250V310 CAVOK 12/M08 Q1029 NOSIG
ZHCC,2021-03-22 02:00,ZHCC 220200Z 30005MPS 270V340 CAVOK 15/M11 Q1029 NOSIG
ZHCC,2021-03-22 03:00,ZHCC 220300Z 28005MPS 230V330 CAVOK 15/M12 Q1028 NOSIG
ZHCC,2021-03-22 04:00,ZHCC 220400Z 30005MPS 250V330 CAVOK 16/M12 Q1027 NOSIG
ZHCC,2021-03-22 05:00,ZHCC 220500Z VRB03MPS CAVOK 18/M09 Q1026 NOSIG
ZHCC,2021-03-22 06:00,ZHCC 220600Z 23004MPS 170V300 CAVOK 19/M11 Q1025 NOSIG
ZHCC,2021-03-22 07:00,ZHCC 220700Z 24003MPS 180V300 CAVOK 19/M10 Q1024 NOSIG
ZHCC,2021-03-22 08:00,ZHCC 220800Z 23004MPS 170V260 CAVOK 19/M07 Q1023 NOSIG
ZHCC,2021-03-22 09:00,ZHCC 220900Z 19004MPS 130V240 CAVOK 18/M06 Q1023 NOSIG
ZHCC,2021-03-22 10:00,ZHCC 221000Z 18004G09MPS 140V220 CAVOK 17/M04 Q1022 NOSIG
ZHCC,2021-03-22 11:00,ZHCC 221100Z 18005MPS 150V220 CAVOK 14/00 Q1022 NOSIG
ZHCC,2021-03-22 12:00,ZHCC 221200Z 20004MPS 160V230 CAVOK 13/M00 Q1023 NOSIG
ZHCC,2021-03-22 13:00,ZHCC 221300Z 20003MPS 160V240 CAVOK 13/M01 Q1023 NOSIG
ZHCC,2021-03-22 14:00,ZHCC 221400Z 21003MPS 180V250 CAVOK 12/M01 Q1023 NOSIG
ZHCC,2021-03-22 15:00,ZHCC 221500Z 21003MPS CAVOK 12/M02 Q1022 NOSIG
ZHCC,2021-03-22 16:00,ZHCC 221600Z 21003MPS CAVOK 12/M02 Q1022 NOSIG
ZHCC,2021-03-22 17:00,ZHCC 221700Z 22004MPS 190V250 CAVOK 12/M02 Q1021 NOSIG
ZHCC,2021-03-22 18:00,ZHCC 221800Z 21003MPS 180V240 CAVOK 11/M01 Q1020 NOSIG
ZHCC,2021-03-22 19:00,ZHCC 221900Z 22002MPS CAVOK 10/M01 Q1019 NOSIG
ZHCC,2021-03-22 20:00,ZHCC 222000Z 21002MPS CAVOK 09/M01 Q1018 NOSIG
ZHCC,2021-03-22 21:00,ZHCC 222100Z 22002MPS CAVOK 09/M02 Q1018 NOSIG
ZHCC,2021-03-22 22:00,ZHCC 222200Z 24002MPS 210V270 CAVOK 08/M02 Q1018 NOSIG
ZHCC,2021-03-22 23:00,ZHCC 222300Z 22003MPS CAVOK 09/M02 Q1017 NOSIG
ZHCC,2021-03-23 00:00,ZHCC 230000Z 20002MPS 160V240 CAVOK 10/M01 Q1018 NOSIG
ZHCC,2021-03-23 01:00,ZHCC 230100Z 21003MPS 180V240 CAVOK 13/01 Q1018 NOSIG
ZHCC,2021-03-23 02:00,ZHCC 230200Z 20003MPS 170V240 CAVOK 17/01 Q1017 NOSIG
ZHCC,2021-03-23 03:00,ZHCC 230300Z 17003MPS 110V220 CAVOK 18/03 Q1016 NOSIG
ZHCC,2021-03-23 04:00,ZHCC 230400Z 18005MPS 140V240 CAVOK 19/04 Q1015 NOSIG
ZHCC,2021-03-23 05:00,ZHCC 230500Z 18005MPS 140V220 CAVOK 20/05 Q1014 NOSIG
ZHCC,2021-03-23 06:00,ZHCC 230600Z 18006MPS 120V220 CAVOK 19/07 Q1013 NOSIG
ZHCC,2021-03-23 07:00,ZHCC 230700Z 18005MPS 150V230 CAVOK 19/07 Q1012 NOSIG
ZHCC,2021-03-23 08:00,ZHCC 230800Z 18006G11MPS 120V220 CAVOK 18/07 Q1012 NOSIG
ZHCC,2021-03-23 09:00,ZHCC 230900Z 18004MPS 110V230 CAVOK 18/05 Q1012 NOSIG
ZHCC,2021-03-23 10:00,ZHCC 231000Z 18005MPS 140V220 CAVOK 16/06 Q1012 NOSIG
ZHCC,2021-03-23 11:00,ZHCC 231100Z 19004MPS 150V230 CAVOK 14/06 Q1012 NOSIG
ZHCC,2021-03-23 12:00,ZHCC 231200Z 19004MPS 140V220 CAVOK 13/06 Q1012 NOSIG
ZHCC,2021-03-23 13:00,ZHCC 231300Z 19004MPS 160V230 CAVOK 13/06 Q1013 NOSIG
ZHCC,2021-03-23 14:00,ZHCC 231400Z 20004MPS 160V240 CAVOK 13/06 Q1012 NOSIG
ZHCC,2021-03-23 15:00,ZHCC 231500Z 21004MPS 160V250 CAVOK 13/05 Q1012 NOSIG
ZHCC,2021-03-23 16:00,ZHCC 231600Z 21003MPS 180V240 CAVOK 13/06 Q1012 NOSIG
ZHCC,2021-03-23 17:00,ZHCC 231700Z 21004MPS 180V250 CAVOK 13/06 Q1012 NOSIG
ZHCC,2021-03-23 18:00,ZHCC 231800Z 21002MPS 180V240 CAVOK 12/06 Q1012 NOSIG
ZHCC,2021-03-23 19:00,ZHCC 231900Z 20002MPS 160V240 CAVOK 12/06 Q1011 NOSIG
ZHCC,2021-03-23 20:00,ZHCC 232000Z VRB02MPS CAVOK 12/06 Q1011 NOSIG
ZHCC,2021-03-23 21:00,ZHCC 232100Z 22002MPS 180V250 CAVOK 11/06 Q1011 NOSIG
ZHCC,2021-03-23 22:00,ZHCC 232200Z VRB01MPS CAVOK 10/06 Q1012 NOSIG
ZHCC,2021-03-23 23:00,ZHCC 232300Z VRB01MPS CAVOK 09/06 Q1013 NOSIG
ZHCC,2021-03-24 00:00,ZHCC 240000Z 20002MPS 170V240 CAVOK 12/07 Q1013 NOSIG
ZHCC,2021-03-24 01:00,ZHCC 240100Z 20002MPS 160V250 CAVOK 14/07 Q1014 NOSIG
ZHCC,2021-03-24 02:00,ZHCC 240200Z 17002MPS 110V260 CAVOK 18/08 Q1015 NOSIG
ZHCC,2021-03-24 03:00,ZHCC 240300Z 17002MPS 110V250 CAVOK 19/08 Q1015 NOSIG
ZHCC,2021-03-24 04:00,ZHCC 240400Z VRB01MPS CAVOK 20/07 Q1015 BECMG TL0540 03005MPS
ZHCC,2021-03-24 05:00,ZHCC 240500Z 04005MPS 360V090 CAVOK 22/05 Q1015 NOSIG
ZHCC,2021-03-24 06:00,ZHCC 240600Z 02006MPS 350V050 CAVOK 22/02 Q1016 NOSIG
ZHCC,2021-03-24 07:00,ZHCC 240700Z 05007G13MPS 020V080 7000 NSC 21/04 Q1015 NOSIG
ZHCC,2021-03-24 08:00,ZHCC 240800Z 04007G12MPS 010V080 6000 NSC 21/05 Q1015 NOSIG
ZHCC,2021-03-24 09:00,ZHCC 240900Z 05005MPS 010V080 6000 NSC 20/07 Q1016 NOSIG
ZHCC,2021-03-24 10:00,ZHCC 241000Z 03004MPS 360V060 6000 NSC 19/09 Q1017 NOSIG
ZHCC,2021-03-24 11:00,ZHCC 241100Z 03004MPS 360V060 6000 NSC 18/09 Q1017 NOSIG
ZHCC,2021-03-24 12:00,ZHCC 241200Z 04003MPS 6000 NSC 17/09 Q1018 NOSIG
ZHCC,2021-03-24 13:00,ZHCC 241300Z 05003MPS 020V080 6000 NSC 16/09 Q1019 NOSIG
ZHCC,2021-03-24 14:00,ZHCC 241400Z 04003MPS 020V080 6000 NSC 16/09 Q1019 NOSIG
ZHCC,2021-03-24 15:00,ZHCC 241500Z 05003MPS 030V090 6000 NSC 15/09 Q1019 NOSIG
ZHCC,2021-03-24 16:00,ZHCC 241600Z 05002MPS 020V100 5000 HZ NSC 15/09 Q1019 NOSIG
ZHCC,2021-03-24 17:00,ZHCC 241700Z VRB01MPS 5000 HZ NSC 14/09 Q1019 NOSIG
ZHCC,2021-03-24 18:00,ZHCC 241800Z 00000MPS 5000 HZ NSC 12/08 Q1020 NOSIG
ZHCC,2021-03-24 19:00,ZHCC 241900Z VRB01MPS 5000 BR NSC 12/08 Q1019 NOSIG
ZHCC,2021-03-24 20:00,ZHCC 242000Z VRB01MPS 4000 BR NSC 12/08 Q1019 NOSIG
ZHCC,2021-03-24 21:00,ZHCC 242100Z VRB01MPS 4000 BR NSC 12/08 Q1019 NOSIG
ZHCC,2021-03-24 22:00,ZHCC 242200Z 08002MPS 050V110 4000 BR NSC 12/08 Q1020 NOSIG
ZHCC,2021-03-24 23:00,ZHCC 242300Z 07002MPS 030V090 3000 BR NSC 12/08 Q1020 NOSIG
ZHCC,2021-03-25 00:00,ZHCC 250000Z 07003MPS 040V100 3000 BR NSC 13/09 Q1021 NOSIG
ZHCC,2021-03-25 01:00,ZHCC 250100Z 05002MPS 020V110 3000 HZ NSC 14/09 Q1021 NOSIG
ZHCC,2021-03-25 02:00,ZHCC 250200Z 08003MPS 050V130 4000 HZ NSC 18/09 Q1021 NOSIG
ZHCC,2021-03-25 03:00,ZHCC 250300Z 12003MPS 070V160 6000 NSC 20/09 Q1021 NOSIG
ZHCC,2021-03-25 04:00,ZHCC 250400Z 12005MPS 070V170 CAVOK 21/07 Q1020 NOSIG
ZHCC,2021-03-25 05:00,ZHCC 250500Z 13005MPS 090V200 CAVOK 22/06 Q1019 NOSIG
ZHCC,2021-03-25 06:00,ZHCC 250600Z 14004G09MPS 090V200 CAVOK 23/07 Q1018 NOSIG
ZHCC,2021-03-25 07:00,ZHCC 250700Z 14004MPS 090V180 CAVOK 23/06 Q1017 NOSIG
ZHCC,2021-03-25 08:00,ZHCC 250800Z 13004MPS 110V180 CAVOK 22/06 Q1016 NOSIG
ZHCC,2021-03-25 09:00,ZHCC 250900Z 13004MPS 090V170 CAVOK 22/07 Q1015 NOSIG
ZHCC,2021-03-25 10:00,ZHCC 251000Z 12006MPS CAVOK 20/07 Q1015 NOSIG
ZHCC,2021-03-25 11:00,ZHCC 251100Z 11003MPS CAVOK 16/06 Q1015 NOSIG
ZHCC,2021-03-25 12:00,ZHCC 251200Z 12003MPS CAVOK 16/06 Q1016 NOSIG
ZHCC,2021-03-25 13:00,ZHCC 251300Z 11002MPS CAVOK 14/06 Q1016 NOSIG
ZHCC,2021-03-25 14:00,ZHCC 251400Z 11003MPS CAVOK 14/06 Q1016 NOSIG
ZHCC,2021-03-25 15:00,ZHCC 251500Z 10002MPS 070V130 CAVOK 14/08 Q1016 NOSIG
ZHCC,2021-03-25 16:00,ZHCC 251600Z VRB01MPS CAVOK 13/08 Q1016 NOSIG
ZHCC,2021-03-25 17:00,ZHCC 251700Z 00000MPS CAVOK 13/08 Q1016 NOSIG
ZHCC,2021-03-25 18:00,ZHCC 251800Z 29001MPS CAVOK 14/08 Q1015 NOSIG
ZHCC,2021-03-25 19:00,ZHCC 251900Z 28001MPS CAVOK 13/08 Q1015 NOSIG
ZHCC,2021-03-25 20:00,ZHCC 252000Z VRB01MPS 8000 -RA BKN046 14/09 Q1014 NOSIG
ZHCC,2021-03-25 21:00,ZHCC 252100Z 24002MPS 210V270 6000 RA OVC046 13/10 Q1014 BECMG TL2140 -RA
ZHCC,2021-03-25 22:00,ZHCC 252200Z VRB01MPS 6000 NSC 12/10 Q1014 RERA NOSIG
ZHCC,2021-03-25 23:00,ZHCC 252300Z 15002MPS 120V210 4000 -RA BR OVC046 12/11 Q1014 NOSIG
ZHCC,2021-03-26 00:00,ZHCC 260000Z VRB02MPS 4000 -RA BR SCT046 12/10 Q1015 NOSIG
ZHCC,2021-03-26 01:00,ZHCC 260100Z VRB01MPS 4000 -RA BR SCT040 13/10 Q1015 NOSIG
ZHCC,2021-03-26 02:00,ZHCC 260200Z VRB01MPS 4000 BR SCT040 14/11 Q1015 NOSIG
ZHCC,2021-03-26 03:00,ZHCC 260300Z 22002MPS 190V250 5000 BR SCT040 15/11 Q1014 NOSIG
ZHCC,2021-03-26 04:00,ZHCC 260400Z 24002MPS 200V270 5000 BR NSC 15/11 Q1014 NOSIG
ZHCC,2021-03-26 05:00,ZHCC 260500Z VRB01MPS 5000 BR NSC 15/10 Q1013 NOSIG
ZHCC,2021-03-26 06:00,ZHCC 260600Z 18002MPS 140V210 5000 BR NSC 15/11 Q1012 NOSIG
ZHCC,2021-03-26 07:00,ZHCC 260700Z 19002MPS 150V220 4000 BR OVC040 15/11 Q1011 NOSIG
ZHCC,2021-03-26 08:00,ZHCC 260800Z 18002MPS 150V210 4000 -RA BR OVC040 15/11 Q1011 NOSIG
ZHCC,2021-03-26 09:00,ZHCC 260900Z VRB01MPS 2000 -RA BR FEW010 OVC030 14/12 Q1011 NOSIG
ZHCC,2021-03-26 10:00,ZHCC 261000Z 36002MPS 2000 RA BR FEW010 OVC030 13/13 Q1011 BECMG TL1140 3000 -RA BR
ZHCC,2021-03-26 11:00,ZHCC 261100Z VRB01MPS 2000 RA BR FEW010 OVC030 13/13 Q1012 BECMG TL1140 3000 -RA BR
ZHCC,2021-03-26 12:00,ZHCC 261200Z VRB01MPS 1500 -RA BR FEW010 OVC030 13/12 Q1012 RERA NOSIG
ZHCC,2021-03-26 13:00,ZHCC 261300Z VRB01MPS 1200 R12R/1400N R12L/P2000 -RA BR FEW010 OVC030 13/12 Q1012 NOSIG
ZHCC,2021-03-26 14:00,ZHCC 261400Z 21001MPS 1200 R12R/P2000 R12L/1600U BR FEW010 OVC030 13/13 Q1013 NOSIG
ZHCC,2021-03-26 15:00,ZHCC 261500Z VRB01MPS 1200 R12R/1900D R12L/1900N -RA BR FEW010 OVC030 12/12 Q1013 NOSIG
ZHCC,2021-03-26 16:00,ZHCC 261600Z 27001MPS 1200 R12R/1300D R12L/1500U -RA BR FEW010 OVC030 12/12 Q1012 NOSIG
ZHCC,2021-03-26 17:00,ZHCC 261700Z 24001MPS 0800 R12R/1400U R12L/0800V1000N FG OVC040 12/12 Q1011 NOSIG
ZHCC,2021-03-26 18:00,ZHCC 261800Z VRB01MPS 0500 R12R/0400V0900D R12L/0550V1400U FG OVC040 12/12 Q1011 NOSIG
ZHCC,2021-03-26 19:00,ZHCC 261900Z VRB01MPS 0500 R12R/P2000 R12L/1600D FG OVC040 12/12 Q1010 NOSIG
ZHCC,2021-03-26 20:00,ZHCC 262000Z VRB01MPS 0300 R12R/0250N R12L/0200V0275N FG VV003 12/11 Q1009 NOSIG
ZHCC,2021-03-26 21:00,ZHCC 262100Z VRB01MPS 0150 R12R/0275N R12L/0175N FG VV002 12/12 Q1010 NOSIG
ZHCC,2021-03-26 22:00,ZHCC 262200Z VRB01MPS 0150 R12R/0325V0450N R12L/0250N FG VV002 12/11 Q1010 NOSIG
ZHCC,2021-03-26 23:00,ZHCC 262300Z 00000MPS 0150 R12R/0175N R12L/0125N FG VV001 11/11 Q1010 NOSIG
ZHCC,2021-03-27 00:00,ZHCC 270000Z 32002MPS 0150 R12R/0175V0300N R12L/0175N FG VV001 11/11 Q1010 BECMG TL0140 0800
ZHCC,2021-03-27 01:00,ZHCC 270100Z 31002MPS 0300 R30L/0450V0800N R30R/0150N FG VV001 12/12 Q1011 BECMG TL0240 1000 BR
ZHCC,2021-03-27 02:00,ZHCC 270200Z 34002MPS 310V040 1300 R30L/1800U R30R/1000V1400U BR SCT012 13/13 Q1011 BECMG TL0240 1700
ZHCC,2021-03-27 03:00,ZHCC 270300Z 36002MPS 270V060 2500 BR FEW012 16/13 Q1011 BECMG TL0340 3000
ZHCC,2021-03-27 04:00,ZHCC 270400Z 06002MPS 360V140 3000 BR SCT030 18/13 Q1010 NOSIG
ZHCC,2021-03-27 05:00,ZHCC 270500Z 14003MPS 090V190 3000 BR BKN030 18/13 Q1009 NOSIG
ZHCC,2021-03-27 06:00,ZHCC 270600Z 14003MPS 090V190 3000 BR BKN030 20/14 Q1008 NOSIG
ZHCC,2021-03-27 07:00,ZHCC 270700Z VRB02MPS 3000 HZ BKN030 20/14 Q1008 NOSIG
ZHCC,2021-03-27 08:00,ZHCC 270800Z 14002MPS 100V210 3000 HZ SCT030 20/14 Q1007 BECMG TL0940 2500
ZHCC,2021-03-27 09:00,ZHCC 270900Z 14003MPS 110V190 3000 HZ SCT040 20/14 Q1007 NOSIG
ZHCC,2021-03-27 10:00,ZHCC 271000Z 16002MPS 110V230 3000 HZ NSC 19/14 Q1007 NOSIG
ZHCC,2021-03-27 11:00,ZHCC 271100Z 18002MPS 110V260 3000 HZ NSC 18/13 Q1007 NOSIG
ZHCC,2021-03-27 12:00,ZHCC 271200Z 19003MPS 140V220 5000 BR NSC 17/13 Q1007 NOSIG
ZHCC,2021-03-27 13:00,ZHCC 271300Z 19003MPS 150V220 6000 NSC 17/12 Q1007 NOSIG
ZHCC,2021-03-27 14:00,ZHCC 271400Z 19003MPS 140V240 6000 NSC 16/13 Q1008 NOSIG
ZHCC,2021-03-27 15:00,ZHCC 271500Z 20002MPS 160V260 6000 NSC 15/12 Q1007 NOSIG
ZHCC,2021-03-27 16:00,ZHCC 271600Z 22003MPS 6000 NSC 15/12 Q1007 NOSIG
ZHCC,2021-03-27 17:00,ZHCC 271700Z 21004MPS 6000 NSC 16/12 Q1007 NOSIG
ZHCC,2021-03-27 18:00,ZHCC 271800Z 21003MPS 170V240 6000 NSC 15/13 Q1006 NOSIG
ZHCC,2021-03-27 19:00,ZHCC 271900Z 22003MPS 190V260 6000 NSC 15/13 Q1005 NOSIG
ZHCC,2021-03-27 20:00,ZHCC 272000Z 25002MPS 5000 BR NSC 12/12 Q1005 NOSIG
ZHCC,2021-03-27 21:00,ZHCC 272100Z VRB01MPS 4000 BR NSC 11/10 Q1004 NOSIG
ZHCC,2021-03-27 22:00,ZHCC 272200Z VRB01MPS 3500 BR NSC 11/10 Q1004 BECMG TL2240 2000
ZHCC,2021-03-27 23:00,ZHCC 272300Z 00000MPS 2500 BR NSC 09/09 Q1005 BECMG TL0040 3000
ZHCC,2021-03-28 00:00,ZHCC 280000Z 30002MPS 270V330 4000 BR NSC 14/12 Q1005 NOSIG
ZHCC,2021-03-28 01:00,ZHCC 280100Z 21002MPS 6000 NSC 18/12 Q1006 NOSIG
ZHCC,2021-03-28 02:00,ZHCC 280200Z 20002MPS 160V240 8000 NSC 21/12 Q1006 NOSIG
ZHCC,2021-03-28 03:00,ZHCC 280300Z 22002MPS 170V250 8000 NSC 23/12 Q1006 NOSIG
ZHCC,2021-03-28 04:00,ZHCC 280400Z VRB02MPS 8000 NSC 25/12 Q1006 NOSIG
ZHCC,2021-03-28 05:00,ZHCC 280500Z 17003MPS 120V240 8000 NSC 27/12 Q1005 NOSIG
ZHCC,2021-03-28 06:00,ZHCC 280600Z 18002MPS 120V240 8000 NSC 27/12 Q1004 NOSIG
ZHCC,2021-03-28 07:00,ZHCC 280700Z 13002MPS 090V200 8000 NSC 27/13 Q1004 NOSIG
ZHCC,2021-03-28 08:00,ZHCC 280800Z 11004MPS 080V170 8000 NSC 26/13 Q1003 NOSIG
ZHCC,2021-03-28 09:00,ZHCC 280900Z 12003MPS 090V160 8000 NSC 25/13 Q1003 NOSIG
ZHCC,2021-03-28 10:00,ZHCC 281000Z 12004MPS 8000 NSC 24/14 Q1004 NOSIG
ZHCC,2021-03-28 11:00,ZHCC 281100Z 06004MPS 030V090 6000 NSC 22/13 Q1004 NOSIG
ZHCC,2021-03-28 12:00,ZHCC 281200Z 05005MPS 6000 NSC 21/13 Q1005 NOSIG
ZHCC,2021-03-28 13:00,ZHCC 281300Z 05005MPS 6000 NSC 20/12 Q1006 NOSIG
ZHCC,2021-03-28 14:00,ZHCC 281400Z 06004MPS 4000 DU NSC 19/11 Q1007 NOSIG
ZHCC,2021-03-28 15:00,ZHCC 281500Z 06005MPS 3500 DU NSC 18/10 Q1007 NOSIG
ZHCC,2021-03-28 16:00,ZHCC 281600Z 06005MPS 3000 DU NSC 18/09 Q1007 NOSIG
ZHCC,2021-03-28 17:00,ZHCC 281700Z 06005MPS 3000 DU NSC 17/09 Q1007 NOSIG
ZHCC,2021-03-28 18:00,ZHCC 281800Z 06004MPS 3000 DU NSC 16/09 Q1007 NOSIG
ZHCC,2021-03-28 19:00,ZHCC 281900Z 04005MPS 3000 DU NSC 16/08 Q1007 NOSIG
ZHCC,2021-03-28 20:00,ZHCC 282000Z 05005MPS 3000 DU NSC 16/07 Q1007 NOSIG
ZHCC,2021-03-28 21:00,ZHCC 282100Z 06004MPS 030V090 3000 DU NSC 15/05 Q1007 BECMG TL2240 2000
ZHCC,2021-03-28 22:00,ZHCC 282200Z 06005MPS 3000 DU NSC 16/02 Q1007 BECMG TL2340 2000
ZHCC,2021-03-28 23:00,ZHCC 282300Z 03005MPS 360V060 2500 DU NSC 16/02 Q1008 BECMG TL0040 3000
ZHCC,2021-03-29 00:00,ZHCC 290000Z 02005MPS 350V060 2500 DU NSC 16/04 Q1009 BECMG TL0100 3000
ZHCC,2021-03-29 01:00,ZHCC 290100Z 05006MPS 020V080 2500 DU BKN033 16/06 Q1010 NOSIG
ZHCC,2021-03-29 02:00,ZHCC 290200Z 05007MPS 2500 DU BKN033 15/07 Q1009 NOSIG
ZHCC,2021-03-29 03:00,ZHCC 290300Z 05006MPS 010V080 2500 DU SCT033 16/08 Q1010 NOSIG
ZHCC,2021-03-29 04:00,ZHCC 290400Z 04007MPS 2500 DU SCT033 16/07 Q1009 BECMG TL0540 3000
ZHCC,2021-03-29 05:00,ZHCC 290500Z 04006MPS 010V070 2700 DU SCT033 16/06 Q1009 BECMG TL0640 3000
ZHCC,2021-03-29 06:00,ZHCC 290600Z 03006MPS 340V060 3000 DU SCT033 17/05 Q1008 NOSIG
ZHCC,2021-03-29 07:00,ZHCC 290700Z 05006MPS 020V080 3000 DU NSC 18/06 Q1007 BECMG TL0840 2500
ZHCC,2021-03-29 08:00,ZHCC 290800Z 03005MPS 340V070 3000 DU NSC 17/08 Q1007 BECMG TL0840 2500
ZHCC,2021-03-29 09:00,ZHCC 290900Z 03004MPS 360V060 2800 DU NSC 17/07 Q1007 BECMG TL1040 3000
ZHCC,2021-03-29 10:00,ZHCC 291000Z 04005MPS 010V080 2800 DU NSC 17/06 Q1008 BECMG TL1040 3000
ZHCC,2021-03-29 11:00,ZHCC 291100Z 05004MPS 010V080 3500 DU NSC 16/06 Q1008 NOSIG
ZHCC,2021-03-29 12:00,ZHCC 291200Z 03004MPS 360V060 4000 DU NSC 15/07 Q1008 NOSIG
ZHCC,2021-03-29 13:00,ZHCC 291300Z 04003MPS 360V080 4000 DU NSC 15/06 Q1010 NOSIG
ZHCC,2021-03-29 14:00,ZHCC 291400Z 01003MPS 340V050 5000 DU NSC 14/05 Q1010 NOSIG
ZHCC,2021-03-29 15:00,ZHCC 291500Z 36003MPS 320V060 5000 DU NSC 14/04 Q1011 NOSIG
ZHCC,2021-03-29 16:00,ZHCC 291600Z 36003MPS 310V080 6000 NSC 13/04 Q1011 NOSIG
ZHCC,2021-03-29 17:00,ZHCC 291700Z 01002MPS 340V090 6000 NSC 13/03 Q1011 NOSIG
ZHCC,2021-03-29 18:00,ZHCC 291800Z 36003MPS 340V040 7000 NSC 13/02 Q1011 NOSIG
ZHCC,2021-03-29 19:00,ZHCC 291900Z 33002MPS 290V030 7000 NSC 10/03 Q1010 NOSIG
ZHCC,2021-03-29 20:00,ZHCC 292000Z 32002MPS 290V350 7000 NSC 09/03 Q1010 NOSIG
ZHCC,2021-03-29 21:00,ZHCC 292100Z 31002MPS 300V070 7000 NSC 09/03 Q1010 NOSIG
ZHCC,2021-03-29 22:00,ZHCC 292200Z 34002MPS 310V030 7000 NSC 09/03 Q1011 NOSIG
ZHCC,2021-03-29 23:00,ZHCC 292300Z 30002MPS 270V330 7000 NSC 09/04 Q1011 NOSIG
ZHCC,2021-03-30 00:00,ZHCC 300000Z 03002MPS 350V090 7000 NSC 13/03 Q1012 NOSIG
ZHCC,2021-03-30 01:00,ZHCC 300100Z 04004MPS 360V080 7000 NSC 14/03 Q1013 NOSIG
ZHCC,2021-03-30 02:00,ZHCC 300200Z 07003MPS 030V100 7000 NSC 16/M00 Q1013 NOSIG
ZHCC,2021-03-30 03:00,ZHCC 300300Z 12002MPS 080V160 7000 NSC 18/M00 Q1012 NOSIG
ZHCC,2021-03-30 04:00,ZHCC 300400Z 08003MPS 010V170 8000 NSC 18/M00 Q1012 NOSIG
ZHCC,2021-03-30 08:00,ZHCC 300800Z 08006MPS CAVOK 21/04 Q1008 NOSIG
ZHCC,2021-03-30 09:00,ZHCC 300900Z 07006MPS CAVOK 20/05 Q1008 NOSIG
ZHCC,2021-03-30 10:00,ZHCC 301000Z 09005MPS CAVOK 19/05 Q1009 NOSIG
ZHCC,2021-03-30 11:00,ZHCC 301100Z 10004MPS CAVOK 18/06 Q1009 NOSIG
ZHCC,2021-03-30 12:00,ZHCC 301200Z 08003MPS CAVOK 18/06 Q1010 NOSIG
ZHCC,2021-03-30 13:00,ZHCC 301300Z 09003MPS 050V130 CAVOK 17/07 Q1010 NOSIG
ZHCC,2021-03-30 14:00,ZHCC 301400Z 07003MPS 8000 NSC 17/06 Q1010 NOSIG
ZHCC,2021-03-30 15:00,ZHCC 301500Z 07004MPS 8000 NSC 17/05 Q1010 NOSIG
ZHCC,2021-03-30 16:00,ZHCC 301600Z 05003MPS 020V090 8000 NSC 16/06 Q1010 NOSIG
ZHCC,2021-03-30 17:00,ZHCC 301700Z 04004MPS 8000 NSC 16/05 Q1009 NOSIG
ZHCC,2021-03-30 18:00,ZHCC 301800Z 04004MPS 330V080 8000 NSC 16/05 Q1009 NOSIG
ZHCC,2021-03-30 19:00,ZHCC 301900Z 05003MPS 8000 NSC 16/05 Q1009 NOSIG
ZHCC,2021-03-30 20:00,ZHCC 302000Z 06004MPS 8000 NSC 15/06 Q1009 NOSIG
ZHCC,2021-03-30 21:00,ZHCC 302100Z 09003MPS 9999 -RA SCT040 13/09 Q1009 NOSIG
ZHCC,2021-03-30 22:00,ZHCC 302200Z VRB01MPS 9999 -RA BKN030 12/09 Q1010 NOSIG
ZHCC,2021-03-30 23:00,ZHCC 302300Z 05003MPS 6000 -RA OVC030 12/09 Q1010 NOSIG
ZHCC,2021-03-31 00:00,ZHCC 310000Z 07004MPS 8000 -RA OVC046 12/09 Q1011 NOSIG
ZHCC,2021-03-31 01:00,ZHCC 310100Z VRB03MPS 8000 -RA NSC 13/10 Q1011 NOSIG
ZHCC,2021-03-31 02:00,ZHCC 310200Z 05005MPS 020V090 CAVOK 14/07 Q1012 NOSIG
ZHCC,2021-03-31 03:00,ZHCC 310300Z 04004MPS 010V080 CAVOK 13/08 Q1012 NOSIG
ZHCC,2021-03-31 04:00,ZHCC 310400Z 03005MPS 010V070 CAVOK 13/07 Q1012 NOSIG
ZHCC,2021-03-31 05:00,ZHCC 310500Z 01005MPS 350V050 9999 FEW030 13/07 Q1011 NOSIG
ZHCC,2021-03-31 06:00,ZHCC 310600Z 01005MPS 350V060 9999 FEW030 13/07 Q1011 NOSIG
ZHCC,2021-03-31 07:00,ZHCC 310700Z 03005MPS 330V080 9999 FEW030 14/07 Q1010 NOSIG
ZHCC,2021-03-31 08:00,ZHCC 310800Z 04005MPS 010V080 9999 FEW030 14/06 Q1010 NOSIG
ZHCC,2021-03-31 09:00,ZHCC 310900Z 04005MPS 020V080 9999 BKN030 14/06 Q1010 NOSIG
ZHCC,2021-03-31 10:00,ZHCC 311000Z 04005MPS 9999 SCT030 14/07 Q1011 NOSIG
ZHCC,2021-03-31 11:00,ZHCC 311100Z 04004MPS 010V080 9999 OVC040 14/06 Q1011 NOSIG
ZHCC,2021-03-31 12:00,ZHCC 311200Z 04002MPS 350V090 9999 OVC040 14/06 Q1012 NOSIG
ZHCC,2021-03-31 13:00,ZHCC 311300Z 05003MPS 010V090 9999 OVC040 14/05 Q1013 NOSIG
ZHCC,2021-03-31 14:00,ZHCC 311400Z 07002MPS 040V100 9999 OVC040 14/05 Q1013 NOSIG
ZHCC,2021-03-31 15:00,ZHCC 311500Z 08003MPS 9999 OVC040 14/05 Q1013 NOSIG
ZHCC,2021-03-31 16:00,ZHCC 311600Z 07004MPS 030V090 9999 OVC040 14/06 Q1013 NOSIG
ZHCC,2021-03-31 17:00,ZHCC 311700Z 09003MPS 9999 OVC040 13/06 Q1013 NOSIG
ZHCC,2021-03-31 18:00,ZHCC 311800Z 08003MPS 040V110 9999 OVC040 13/06 Q1013 NOSIG
ZHCC,2021-03-31 19:00,ZHCC 311900Z 07003MPS 9999 OVC040 13/06 Q1013 NOSIG
ZHCC,2021-03-31 20:00,ZHCC 312000Z 06004MPS 040V100 9999 OVC040 13/07 Q1012 NOSIG
ZHCC,2021-03-31 21:00,ZHCC 312100Z 06003MPS 030V100 9999 OVC040 12/08 Q1012 NOSIG
ZHCC,2021-03-31 22:00,ZHCC 312200Z 05003MPS 9999 OVC040 12/08 Q1013 NOSIG
ZHCC,2021-03-31 23:00,ZHCC 312300Z 05003MPS 9999 OVC040 12/07 Q1013 NOSIG
ZHCC,2021-04-01 00:00,ZHCC 010000Z 05003MPS 9999 OVC040 12/07 Q1014 NOSIG
ZHCC,2021-04-01 01:00,ZHCC 010100Z VRB01MPS 9999 OVC030 13/07 Q1016 NOSIG
ZHCC,2021-04-01 02:00,ZHCC 010200Z 32003MPS 8000 -RA OVC030 11/09 Q1016 NOSIG
ZHCC,2021-04-01 03:00,ZHCC 010300Z 04004MPS 360V070 9999 OVC030 14/08 Q1015 NOSIG
ZHCC,2021-04-01 04:00,ZHCC 010400Z 07005MPS 040V100 9999 OVC030 15/07 Q1014 NOSIG
ZHCC,2021-04-01 05:00,ZHCC 010500Z 08005MPS 050V110 CAVOK 16/07 Q1014 NOSIG
ZHCC,2021-04-01 06:00,ZHCC 010600Z 09005MPS CAVOK 16/07 Q1014 NOSIG
ZHCC,2021-04-01 07:00,ZHCC 010700Z 07005MPS 040V100 CAVOK 16/08 Q1013 NOSIG
ZHCC,2021-04-01 08:00,ZHCC 010800Z 06005MPS 360V100 CAVOK 16/06 Q1013 NOSIG
ZHCC,2021-04-01 09:00,ZHCC 010900Z 06004MPS 030V090 CAVOK 16/06 Q1013 NOSIG
ZHCC,2021-04-01 10:00,ZHCC 011000Z 09004MPS 9999 OVC040 15/07 Q1014 NOSIG
ZHCC,2021-04-01 11:00,ZHCC 011100Z 08004MPS 9999 OVC040 14/08 Q1014 NOSIG
ZHCC,2021-04-01 12:00,ZHCC 011200Z 07003MPS 9999 OVC040 14/08 Q1015 NOSIG
ZHCC,2021-04-01 13:00,ZHCC 011300Z 06003MPS 030V090 9999 OVC040 14/09 Q1016 NOSIG
ZHCC,2021-04-01 14:00,ZHCC 011400Z 06002MPS 020V090 9999 OVC040 14/09 Q1016 NOSIG
ZHCC,2021-04-01 15:00,ZHCC 011500Z 02002MPS 340V070 8000 -RA OVC030 14/09 Q1016 NOSIG
ZHCC,2021-04-01 16:00,ZHCC 011600Z 35003MPS 8000 -RA OVC030 13/10 Q1016 NOSIG
ZHCC,2021-04-01 17:00,ZHCC 011700Z 36003MPS 8000 -RA OVC030 13/10 Q1016 NOSIG
ZHCC,2021-04-01 18:00,ZHCC 011800Z 34003MPS 8000 OVC040 12/10 Q1016 NOSIG
ZHCC,2021-04-01 19:00,ZHCC 011900Z 32003MPS 8000 OVC040 12/10 Q1016 NOSIG
ZHCC,2021-04-01 20:00,ZHCC 012000Z 32004MPS 6000 NSC 12/11 Q1015 NOSIG
ZHCC,2021-04-01 21:00,ZHCC 012100Z 32003MPS 6000 NSC 12/10 Q1015 NOSIG
ZHCC,2021-04-01 22:00,ZHCC 012200Z 31003G11MPS 270V360 5000 -RA BR NSC 12/10 Q1016 NOSIG
ZHCC,2021-04-01 23:00,ZHCC 012300Z 33004MPS 5000 BR NSC 12/09 Q1017 NOSIG
ZHCC,2021-04-02 00:00,ZHCC 020000Z 36007MPS CAVOK 13/03 Q1017 NOSIG
ZHCC,2021-04-02 01:00,ZHCC 020100Z 01006MPS 330V050 CAVOK 13/03 Q1018 NOSIG
ZHCC,2021-04-02 02:00,ZHCC 020200Z 01006G14MPS CAVOK 14/03 Q1018 NOSIG
ZHCC,2021-04-02 03:00,ZHCC 020300Z 36006MPS CAVOK 14/03 Q1018 NOSIG
ZHCC,2021-04-02 04:00,ZHCC 020400Z 01008MPS CAVOK 14/03 Q1018 NOSIG
ZHCC,2021-04-02 05:00,ZHCC 020500Z 01007MPS 340V050 CAVOK 14/03 Q1017 NOSIG
ZHCC,2021-04-02 06:00,ZHCC 020600Z 01007MPS 340V040 CAVOK 14/03 Q1017 NOSIG
ZHCC,2021-04-02 07:00,ZHCC 020700Z 01006G11MPS CAVOK 14/03 Q1017 NOSIG
ZHCC,2021-04-02 08:00,ZHCC 020800Z 35005MPS 330V030 9999 -RA NSC 14/05 Q1017 NOSIG
ZHCC,2021-04-02 09:00,ZHCC 020900Z 34003MPS 310V010 9000 -RA NSC 12/07 Q1017 NOSIG
ZHCC,2021-04-02 10:00,ZHCC 021000Z 31004MPS 290V360 9000 NSC 11/08 Q1018 NOSIG
ZHCC,2021-04-02 11:00,ZHCC 021100Z 34004MPS 7000 -RA SCT040 11/08 Q1018 NOSIG
ZHCC,2021-04-02 12:00,ZHCC 021200Z VRB04G12MPS 7000 -RA SCT040 11/08 Q1018 NOSIG
ZHCC,2021-04-02 13:00,ZHCC 021300Z 32003MPS 5000 RA BR FEW020 BKN033 10/09 Q1020 BECMG TL1440 -RA
ZHCC,2021-04-02 14:00,ZHCC 021400Z 35003MPS 310V030 4000 -RA BR FEW011 OVC030 10/09 Q1020 RERA NOSIG
ZHCC,2021-04-02 15:00,ZHCC 021500Z 32003MPS 290V350 5000 -RA BR FEW011 OVC030 10/09 Q1021 NOSIG
ZHCC,2021-04-02 16:00,ZHCC 021600Z 33002MPS 5000 -RA BR OVC023 10/09 Q1020 NOSIG
ZHCC,2021-04-02 17:00,ZHCC 021700Z 01006MPS 330V040 8000 OVC040 11/07 Q1020 NOSIG
ZHCC,2021-04-02 18:00,ZHCC 021800Z 34003MPS 310V020 8000 OVC040 10/07 Q1020 NOSIG
ZHCC,2021-04-02 19:00,ZHCC 021900Z 35004MPS 310V010 8000 OVC040 11/07 Q1020 NOSIG
ZHCC,2021-04-02 20:00,ZHCC 022000Z 35004MPS 8000 OVC033 10/07 Q1020 NOSIG
ZHCC,2021-04-02 21:00,ZHCC 022100Z 36003MPS 8000 OVC033 10/08 Q1020 NOSIG
ZHCC,2021-04-02 22:00,ZHCC 022200Z 36003MPS 4000 -DZ BR FEW010 OVC015 10/09 Q1021 NOSIG
ZHCC,2021-04-02 23:00,ZHCC 022300Z 01005MPS 330V040 3000 BR FEW010 OVC015 10/09 Q1021 NOSIG
ZHCC,2021-04-03 00:00,ZHCC 030000Z 36006MPS 4000 BR SCT010 OVC020 10/08 Q1022 NOSIG
ZHCC,2021-04-03 01:00,ZHCC 030100Z 01006MPS 330V050 6000 SCT010 OVC020 11/08 Q1022 NOSIG
ZHCC,2021-04-03 02:00,ZHCC 030200Z 02004MPS 320V040 6000 SCT010 OVC020 12/09 Q1023 NOSIG
ZHCC,2021-04-03 03:00,ZHCC 030300Z 02006G11MPS 350V050 9999 SCT010 OVC020 13/08 Q1023 NOSIG
ZHCC,2021-04-03 04:00,ZHCC 030400Z 03007MPS 9999 SCT010 OVC020 12/08 Q1023 NOSIG
ZHCC,2021-04-03 05:00,ZHCC 030500Z 03006MPS 350V050 8000 SCT010 OVC020 12/08 Q1022 NOSIG
ZHCC,2021-04-03 06:00,ZHCC 030600Z 02008MPS 8000 SCT010 OVC030 13/07 Q1023 NOSIG
ZHCC,2021-04-03 07:00,ZHCC 030700Z 02006MPS 340V060 5000 HZ SCT010 OVC030 12/07 Q1023 NOSIG
ZHCC,2021-04-03 08:00,ZHCC 030800Z 02007G14MPS 5000 HZ SCT010 OVC030 12/07 Q1023 NOSIG
ZHCC,2021-04-03 09:00,ZHCC 030900Z 36006MPS 340V040 5000 BR SCT010 OVC030 11/08 Q1023 NOSIG
ZHCC,2021-04-03 10:00,ZHCC 031000Z 02006MPS 350V050 5000 BR SCT010 OVC030 11/07 Q1024 NOSIG
ZHCC,2021-04-03 11:00,ZHCC 031100Z 02006MPS 350V050 8000 SCT010 OVC030 11/07 Q1024 NOSIG
ZHCC,2021-04-03 12:00,ZHCC 031200Z 01005MPS 330V060 8000 OVC040 10/06 Q1025 NOSIG
ZHCC,2021-04-03 13:00,ZHCC 031300Z 02004MPS 340V050 CAVOK 10/06 Q1026 NOSIG
ZHCC,2021-04-03 14:00,ZHCC 031400Z 02003MPS 310V080 CAVOK 09/06 Q1027 NOSIG
ZHCC,2021-04-03 15:00,ZHCC 031500Z 04003MPS 010V070 CAVOK 09/06 Q1027 NOSIG
ZHCC,2021-04-03 16:00,ZHCC 031600Z 03002MPS 010V070 CAVOK 08/05 Q1027 NOSIG
ZHCC,2021-04-03 17:00,ZHCC 031700Z 02003MPS 360V070 CAVOK 08/05 Q1027 NOSIG
ZHCC,2021-04-03 18:00,ZHCC 031800Z 34002MPS CAVOK 07/04 Q1027 NOSIG
ZHCC,2021-04-03 19:00,ZHCC 031900Z 32002MPS CAVOK 06/04 Q1027 NOSIG
ZHCC,2021-04-03 20:00,ZHCC 032000Z 29001MPS CAVOK 05/04 Q1027 NOSIG
ZHCC,2021-04-03 21:00,ZHCC 032100Z 30002MPS CAVOK 03/01 Q1027 NOSIG
ZHCC,2021-04-03 22:00,ZHCC 032200Z VRB01MPS 8000 NSC 05/03 Q1027 NOSIG
ZHCC,2021-04-03 23:00,ZHCC 032300Z 27001MPS 8000 NSC 06/04 Q1028 NOSIG
ZHCC,2021-04-04 00:00,ZHCC 040000Z 31002MPS 270V340 8000 NSC 09/05 Q1029 NOSIG
ZHCC,2021-04-04 01:00,ZHCC 040100Z VRB01MPS CAVOK 13/00 Q1030 NOSIG
ZHCC,2021-04-04 02:00,ZHCC 040200Z 08003MPS 020V140 CAVOK 13/M01 Q1030 NOSIG
ZHCC,2021-04-04 03:00,ZHCC 040300Z 06004MPS 030V100 CAVOK 14/M00 Q1029 NOSIG
ZHCC,2021-04-04 04:00,ZHCC 040400Z 07003G09MPS 010V130 CAVOK 15/00 Q1028 NOSIG
ZHCC,2021-04-04 05:00,ZHCC 040500Z 09004MPS 020V130 CAVOK 15/00 Q1027 NOSIG
ZHCC,2021-04-04 06:00,ZHCC 040600Z VRB02MPS CAVOK 15/M01 Q1027 NOSIG
ZHCC,2021-04-04 07:00,ZHCC 040700Z VRB02MPS CAVOK 16/M03 Q1026 NOSIG
ZHCC,2021-04-04 08:00,ZHCC 040800Z 05002MPS 010V090 CAVOK 16/M04 Q1026 NOSIG
ZHCC,2021-04-04 09:00,ZHCC 040900Z 13002MPS 080V170 CAVOK 16/M01 Q1025 NOSIG
ZHCC,2021-04-04 10:00,ZHCC 041000Z 13002MPS 100V170 CAVOK 15/M01 Q1025 NOSIG
ZHCC,2021-04-04 11:00,ZHCC 041100Z VRB01MPS CAVOK 13/00 Q1026 NOSIG
ZHCC,2021-04-04 12:00,ZHCC 041200Z VRB01MPS CAVOK 12/02 Q1026 NOSIG
ZHCC,2021-04-04 13:00,ZHCC 041300Z 28001MPS CAVOK 11/03 Q1027 NOSIG
ZHCC,2021-04-04 14:00,ZHCC 041400Z 24001MPS CAVOK 10/04 Q1027 NOSIG
ZHCC,2021-04-04 15:00,ZHCC 041500Z 27001MPS CAVOK 10/04 Q1027 NOSIG
ZHCC,2021-04-04 16:00,ZHCC 041600Z 31001MPS CAVOK 08/04 Q1026 NOSIG
ZHCC,2021-04-04 17:00,ZHCC 041700Z 25001MPS CAVOK 09/04 Q1026 NOSIG
ZHCC,2021-04-04 18:00,ZHCC 041800Z 26001MPS CAVOK 08/04 Q1025 NOSIG
ZHCC,2021-04-04 19:00,ZHCC 041900Z 00000MPS CAVOK 07/04 Q1025 NOSIG
ZHCC,2021-04-04 20:00,ZHCC 042000Z 00000MPS CAVOK 06/03 Q1024 NOSIG
ZHCC,2021-04-04 21:00,ZHCC 042100Z 30001MPS CAVOK 06/04 Q1024 NOSIG
ZHCC,2021-04-04 22:00,ZHCC 042200Z 00000MPS CAVOK 07/03 Q1024 NOSIG
ZHCC,2021-04-04 23:00,ZHCC 042300Z 00000MPS CAVOK 07/05 Q1025 NOSIG
ZHCC,2021-04-05 00:00,ZHCC 050000Z VRB01MPS CAVOK 12/03 Q1025 NOSIG
ZHCC,2021-04-05 01:00,ZHCC 050100Z 15002MPS 100V200 CAVOK 13/02 Q1025 NOSIG
ZHCC,2021-04-05 02:00,ZHCC 050200Z 16002MPS 090V200 CAVOK 13/03 Q1025 NOSIG
ZHCC,2021-04-05 03:00,ZHCC 050300Z 13002MPS 100V190 CAVOK 13/03 Q1024 NOSIG
ZHCC,2021-04-05 04:00,ZHCC 050400Z 17002MPS 110V230 CAVOK 14/00 Q1024 NOSIG
ZHCC,2021-04-05 05:00,ZHCC 050500Z 15002MPS 100V220 CAVOK 14/01 Q1023 NOSIG
ZHCC,2021-04-05 06:00,ZHCC 050600Z 16002MPS 120V250 CAVOK 14/M01 Q1022 NOSIG
ZHCC,2021-04-05 07:00,ZHCC 050700Z 19002MPS 130V240 8000 -RA OVC046 14/01 Q1022 NOSIG
ZHCC,2021-04-05 08:00,ZHCC 050800Z VRB01MPS 8000 OVC046 13/03 Q1021 NOSIG
ZHCC,2021-04-05 09:00,ZHCC 050900Z 15002MPS 090V240 CAVOK 13/02 Q1020 NOSIG
ZHCC,2021-04-05 10:00,ZHCC 051000Z 16003MPS 120V220 CAVOK 13/01 Q1020 NOSIG
ZHCC,2021-04-05 11:00,ZHCC 051100Z 14002MPS 100V180 CAVOK 12/02 Q1020 NOSIG
ZHCC,2021-04-05 12:00,ZHCC 051200Z VRB01MPS CAVOK 11/04 Q1021 NOSIG
ZHCC,2021-04-05 13:00,ZHCC 051300Z VRB01MPS CAVOK 09/04 Q1021 NOSIG
ZHCC,2021-04-05 14:00,ZHCC 051400Z VRB01MPS CAVOK 08/04 Q1022 NOSIG
ZHCC,2021-04-05 15:00,ZHCC 051500Z 00000MPS CAVOK 07/04 Q1022 NOSIG
ZHCC,2021-04-05 16:00,ZHCC 051600Z 00000MPS CAVOK 06/04 Q1022 NOSIG
ZHCC,2021-04-05 17:00,ZHCC 051700Z VRB01MPS 8000 NSC 06/04 Q1022 NOSIG
ZHCC,2021-04-05 18:00,ZHCC 051800Z VRB01MPS 7000 NSC 06/04 Q1021 NOSIG
ZHCC,2021-04-05 19:00,ZHCC 051900Z VRB01MPS 7000 NSC 05/03 Q1020 NOSIG
ZHCC,2021-04-05 20:00,ZHCC 052000Z 27001MPS 7000 NSC 05/03 Q1020 NOSIG
ZHCC,2021-04-05 21:00,ZHCC 052100Z VRB01MPS 6000 NSC 03/02 Q1021 NOSIG
ZHCC,2021-04-05 22:00,ZHCC 052200Z VRB01MPS 5000 BR NSC 03/02 Q1022 NOSIG
ZHCC,2021-04-05 23:00,ZHCC 052300Z VRB01MPS 5000 BR NSC 06/04 Q1023 NOSIG
ZHCC,2021-04-06 00:00,ZHCC 060000Z VRB01MPS 8000 NSC 11/03 Q1023 NOSIG
ZHCC,2021-04-06 01:00,ZHCC 060100Z 34002MPS 290V070 8000 NSC 13/04 Q1023 NOSIG
ZHCC,2021-04-06 02:00,ZHCC 060200Z 36002MPS 240V050 8000 NSC 14/03 Q1024 NOSIG
ZHCC,2021-04-06 03:00,ZHCC 060300Z 08002MPS 030V160 8000 NSC 15/03 Q1024 NOSIG
ZHCC,2021-04-06 04:00,ZHCC 060400Z 06002MPS 330V130 8000 NSC 16/03 Q1023 NOSIG
ZHCC,2021-04-06 05:00,ZHCC 060500Z 07003MPS 010V150 CAVOK 18/04 Q1022 NOSIG
ZHCC,2021-04-06 06:00,ZHCC 060600Z 07004MPS 030V140 CAVOK 19/05 Q1022 NOSIG
ZHCC,2021-04-06 07:00,ZHCC 060700Z 06002MPS 340V110 CAVOK 19/05 Q1021 NOSIG
ZHCC,2021-04-06 08:00,ZHCC 060800Z 11003MPS 070V150 CAVOK 18/04 Q1021 NOSIG
ZHCC,2021-04-06 09:00,ZHCC 060900Z 13003MPS 100V180 CAVOK 18/05 Q1021 NOSIG
ZHCC,2021-04-06 10:00,ZHCC 061000Z 13002MPS 100V180 CAVOK 17/06 Q1021 NOSIG
ZHCC,2021-04-06 11:00,ZHCC 061100Z VRB01MPS CAVOK 15/07 Q1022 NOSIG
ZHCC,2021-04-06 12:00,ZHCC 061200Z 12002MPS CAVOK 15/07 Q1022 NOSIG
ZHCC,2021-04-06 13:00,ZHCC 061300Z VRB01MPS CAVOK 14/07 Q1023 NOSIG
ZHCC,2021-04-06 14:00,ZHCC 061400Z VRB01MPS CAVOK 13/07 Q1023 NOSIG
ZHCC,2021-04-06 15:00,ZHCC 061500Z 24001MPS CAVOK 13/08 Q1023 NOSIG
ZHCC,2021-04-06 16:00,ZHCC 061600Z 29001MPS CAVOK 13/08 Q1023 NOSIG
ZHCC,2021-04-06 17:00,ZHCC 061700Z 28001MPS CAVOK 13/08 Q1023 NOSIG
ZHCC,2021-04-06 18:00,ZHCC 061800Z VRB01MPS CAVOK 13/08 Q1022 NOSIG
ZHCC,2021-04-06 19:00,ZHCC 061900Z VRB01MPS CAVOK 13/08 Q1022 NOSIG
ZHCC,2021-04-06 20:00,ZHCC 062000Z 00000MPS 8000 NSC 13/07 Q1021 NOSIG
ZHCC,2021-04-06 21:00,ZHCC 062100Z 00000MPS 7000 NSC 12/08 Q1021 NOSIG
ZHCC,2021-04-06 22:00,ZHCC 062200Z 00000MPS 7000 NSC 12/08 Q1022 NOSIG
ZHCC,2021-04-06 23:00,ZHCC 062300Z VRB01MPS 6000 NSC 13/08 Q1022 NOSIG
ZHCC,2021-04-07 00:00,ZHCC 070000Z VRB01MPS 6000 NSC 14/07 Q1022 NOSIG
ZHCC,2021-04-07 01:00,ZHCC 070100Z VRB01MPS 6000 NSC 15/07 Q1023 NOSIG
ZHCC,2021-04-07 02:00,ZHCC 070200Z 06003MPS 7000 NSC 16/08 Q1023 NOSIG
ZHCC,2021-04-07 03:00,ZHCC 070300Z 05003MPS 030V090 7000 NSC 16/07 Q1023 NOSIG
ZHCC,2021-04-07 04:00,ZHCC 070400Z 07003MPS 010V130 6000 NSC 17/08 Q1023 NOSIG
ZHCC,2021-04-07 05:00,ZHCC 070500Z 13003MPS 100V180 6000 NSC 17/07 Q1022 NOSIG
ZHCC,2021-04-07 06:00,ZHCC 070600Z VRB02MPS 8000 NSC 18/08 Q1021 NOSIG
ZHCC,2021-04-07 07:00,ZHCC 070700Z 11003MPS 070V150 8000 FEW040 18/07 Q1021 NOSIG
ZHCC,2021-04-07 08:00,ZHCC 070800Z VRB02MPS 8000 NSC 18/07 Q1020 NOSIG
ZHCC,2021-04-07 09:00,ZHCC 070900Z 13003MPS 100V170 8000 NSC 18/07 Q1020 NOSIG
ZHCC,2021-04-07 10:00,ZHCC 071000Z 11003MPS 8000 NSC 17/07 Q1020 NOSIG
ZHCC,2021-04-07 11:00,ZHCC 071100Z VRB01MPS 8000 NSC 15/07 Q1021 NOSIG
ZHCC,2021-04-07 12:00,ZHCC 071200Z VRB01MPS 8000 NSC 14/07 Q1021 NOSIG
ZHCC,2021-04-07 13:00,ZHCC 071300Z VRB01MPS 8000 NSC 13/07 Q1022 NOSIG
ZHCC,2021-04-07 14:00,ZHCC 071400Z 24001MPS 8000 NSC 12/08 Q1022 NOSIG
ZHCC,2021-04-07 15:00,ZHCC 071500Z VRB01MPS 6000 NSC 11/08 Q1022 NOSIG
ZHCC,2021-04-07 16:00,ZHCC 071600Z VRB01MPS 6000 NSC 10/08 Q1022 NOSIG
ZHCC,2021-04-07 17:00,ZHCC 071700Z VRB01MPS 6000 NSC 11/08 Q1022 NOSIG
ZHCC,2021-04-07 18:00,ZHCC 071800Z 26001MPS 6000 NSC 10/08 Q1022 NOSIG
ZHCC,2021-04-07 19:00,ZHCC 071900Z VRB01MPS 5000 BR NSC 09/08 Q1022 NOSIG
ZHCC,2021-04-07 20:00,ZHCC 072000Z 00000MPS 4000 BR NSC 07/05 Q1022 NOSIG
ZHCC,2021-04-07 21:00,ZHCC 072100Z 00000MPS 4000 BR NSC 06/06 Q1022 NOSIG
ZHCC,2021-04-07 22:00,ZHCC 072200Z 26001MPS 3000 BR NSC 07/06 Q1023 NOSIG
ZHCC,2021-04-07 23:00,ZHCC 072300Z 24001MPS 3000 BR NSC 08/07 Q1023 NOSIG
ZHCC,2021-04-08 00:00,ZHCC 080000Z 29001MPS 3000 BR NSC 13/09 Q1024 NOSIG
ZHCC,2021-04-08 01:00,ZHCC 080100Z 01002MPS 300V060 4000 HZ NSC 16/08 Q1024 NOSIG
ZHCC,2021-04-08 02:00,ZHCC 080200Z VRB02MPS 4000 HZ NSC 17/06 Q1025 NOSIG
ZHCC,2021-04-08 03:00,ZHCC 080300Z 06002MPS 350V120 6000 NSC 18/06 Q1025 NOSIG
ZHCC,2021-04-08 04:00,ZHCC 080400Z 04002MPS 360V090 6000 NSC 19/05 Q1024 NOSIG
ZHCC,2021-04-08 05:00,ZHCC 080500Z VRB02MPS 6000 NSC 20/05 Q1023 NOSIG
ZHCC,2021-04-08 06:00,ZHCC 080600Z 11003MPS 070V170 6000 NSC 21/05 Q1023 NOSIG
ZHCC,2021-04-08 07:00,ZHCC 080700Z 20002MPS 150V260 6000 NSC 21/06 Q1022 NOSIG
ZHCC,2021-04-08 08:00,ZHCC 080800Z 13002MPS 090V210 6000 NSC 21/06 Q1021 NOSIG
ZHCC,2021-04-08 09:00,ZHCC 080900Z 17003MPS 100V220 6000 NSC 20/06 Q1021 NOSIG
ZHCC,2021-04-08 10:00,ZHCC 081000Z VRB01MPS 6000 NSC 19/06 Q1021 NOSIG
ZHCC,2021-04-08 11:00,ZHCC 081100Z VRB01MPS 6000 NSC 17/06 Q1021 NOSIG
ZHCC,2021-04-08 12:00,ZHCC 081200Z VRB01MPS 7000 NSC 15/07 Q1022 NOSIG
ZHCC,2021-04-08 13:00,ZHCC 081300Z VRB01MPS 7000 NSC 15/08 Q1022 NOSIG
ZHCC,2021-04-08 14:00,ZHCC 081400Z VRB01MPS 5000 HZ NSC 14/08 Q1023 NOSIG
ZHCC,2021-04-08 15:00,ZHCC 081500Z 19001MPS 5000 HZ NSC 11/08 Q1023 NOSIG
ZHCC,2021-04-08 16:00,ZHCC 081600Z VRB01MPS 5000 BR NSC 11/08 Q1023 NOSIG
ZHCC,2021-04-08 17:00,ZHCC 081700Z VRB01MPS 5000 BR NSC 11/07 Q1023 NOSIG
ZHCC,2021-04-08 18:00,ZHCC 081800Z VRB01MPS 5000 BR NSC 12/06 Q1023 NOSIG
ZHCC,2021-04-08 19:00,ZHCC 081900Z VRB01MPS 5000 BR NSC 11/06 Q1023 NOSIG
ZHCC,2021-04-08 20:00,ZHCC 082000Z VRB01MPS 5000 BR NSC 10/06 Q1022 NOSIG
ZHCC,2021-04-08 21:00,ZHCC 082100Z VRB01MPS 5000 BR NSC 10/07 Q1022 NOSIG
ZHCC,2021-04-08 22:00,ZHCC 082200Z VRB01MPS 4000 BR NSC 08/06 Q1023 NOSIG
ZHCC,2021-04-08 23:00,ZHCC 082300Z VRB01MPS 4000 BR NSC 10/07 Q1023 NOSIG
ZHCC,2021-04-09 00:00,ZHCC 090000Z 20003MPS 160V250 4000 HZ NSC 14/07 Q1024 NOSIG
ZHCC,2021-04-09 01:00,ZHCC 090100Z 19003MPS 140V290 6000 NSC 16/07 Q1025 NOSIG
ZHCC,2021-04-09 02:00,ZHCC 090200Z 17004MPS 110V230 8000 NSC 17/07 Q1025 NOSIG
ZHCC,2021-04-09 03:00,ZHCC 090300Z 19003MPS 090V260 8000 NSC 19/07 Q1024 NOSIG
ZHCC,2021-04-09 04:00,ZHCC 090400Z 20004MPS 120V250 8000 NSC 19/05 Q1024 NOSIG
ZHCC,2021-04-09 05:00,ZHCC 090500Z 17003MPS 110V230 CAVOK 20/05 Q1023 NOSIG
ZHCC,2021-04-09 06:00,ZHCC 090600Z 17003MPS 120V240 9999 FEW030 21/05 Q1023 NOSIG
ZHCC,2021-04-09 07:00,ZHCC 090700Z VRB04G10MPS 9999 FEW030 20/03 Q1022 NOSIG
ZHCC,2021-04-09 08:00,ZHCC 090800Z 15004MPS 100V210 CAVOK 19/04 Q1022 NOSIG
ZHCC,2021-04-09 09:00,ZHCC 090900Z 16004MPS 100V220 CAVOK 19/02 Q1022 NOSIG
ZHCC,2021-04-09 10:00,ZHCC 091000Z VRB02MPS CAVOK 18/03 Q1022 NOSIG
ZHCC,2021-04-09 11:00,ZHCC 091100Z VRB01MPS CAVOK 17/05 Q1023 NOSIG
ZHCC,2021-04-09 12:00,ZHCC 091200Z VRB01MPS CAVOK 16/05 Q1023 NOSIG
ZHCC,2021-04-09 13:00,ZHCC 091300Z VRB01MPS CAVOK 16/05 Q1024 NOSIG
ZHCC,2021-04-09 14:00,ZHCC 091400Z VRB01MPS CAVOK 16/06 Q1024 NOSIG
ZHCC,2021-04-09 15:00,ZHCC 091500Z 00000MPS CAVOK 14/06 Q1024 NOSIG
ZHCC,2021-04-09 16:00,ZHCC 091600Z 14002MPS 090V180 CAVOK 14/06 Q1024 NOSIG
ZHCC,2021-04-09 17:00,ZHCC 091700Z VRB01MPS CAVOK 14/05 Q1024 NOSIG
ZHCC,2021-04-09 18:00,ZHCC 091800Z VRB01MPS CAVOK 13/06 Q1024 NOSIG
ZHCC,2021-04-09 19:00,ZHCC 091900Z 12001MPS 8000 NSC 12/06 Q1024 NOSIG
ZHCC,2021-04-09 20:00,ZHCC 092000Z 13001MPS 8000 NSC 12/05 Q1024 NOSIG
ZHCC,2021-04-09 21:00,ZHCC 092100Z 11003MPS 7000 NSC 10/05 Q1024 NOSIG
ZHCC,2021-04-09 22:00,ZHCC 092200Z 12002MPS 7000 NSC 09/04 Q1024 NOSIG
ZHCC,2021-04-09 23:00,ZHCC 092300Z VRB01MPS 7000 NSC 10/04 Q1025 NOSIG
ZHCC,2021-04-10 00:00,ZHCC 100000Z 11002MPS 080V140 8000 NSC 13/05 Q1026 NOSIG
ZHCC,2021-04-10 01:00,ZHCC 100100Z VRB01MPS CAVOK 16/05 Q1026 NOSIG
ZHCC,2021-04-10 02:00,ZHCC 100200Z 13004MPS 090V200 CAVOK 18/03 Q1026 NOSIG
ZHCC,2021-04-10 03:00,ZHCC 100300Z 13004MPS 100V180 CAVOK 19/03 Q1026 NOSIG
ZHCC,2021-04-10 04:00,ZHCC 100400Z 14005G10MPS 090V200 CAVOK 20/01 Q1025 NOSIG
ZHCC,2021-04-10 05:00,ZHCC 100500Z 13004MPS 070V170 CAVOK 20/00 Q1024 NOSIG
ZHCC,2021-04-10 06:00,ZHCC 100600Z 10006MPS CAVOK 20/01 Q1023 NOSIG
ZHCC,2021-04-10 07:00,ZHCC 100700Z 11005MPS CAVOK 20/01 Q1022 NOSIG
ZHCC,2021-04-10 08:00,ZHCC 100800Z 13005MPS 090V180 CAVOK 20/00 Q1022 NOSIG
ZHCC,2021-04-10 09:00,ZHCC 100900Z 13003MPS 100V180 CAVOK 19/00 Q1022 NOSIG
ZHCC,2021-04-10 10:00,ZHCC 101000Z 12003MPS 100V160 CAVOK 18/01 Q1022 NOSIG
ZHCC,2021-04-10 11:00,ZHCC 101100Z 12003MPS CAVOK 16/01 Q1022 NOSIG
ZHCC,2021-04-10 12:00,ZHCC 101200Z 12002MPS CAVOK 15/02 Q1023 NOSIG
ZHCC,2021-04-10 13:00,ZHCC 101300Z 12002MPS CAVOK 14/03 Q1023 NOSIG
ZHCC,2021-04-10 14:00,ZHCC 101400Z 13002MPS 090V150 CAVOK 14/03 Q1024 NOSIG
ZHCC,2021-04-10 15:00,ZHCC 101500Z 12001MPS CAVOK 13/04 Q1024 NOSIG
ZHCC,2021-04-10 16:00,ZHCC 101600Z VRB01MPS CAVOK 11/04 Q1024 NOSIG
ZHCC,2021-04-10 17:00,ZHCC 101700Z 12001MPS CAVOK 11/04 Q1023 NOSIG
ZHCC,2021-04-10 18:00,ZHCC 101800Z 12001MPS CAVOK 13/04 Q1023 NOSIG
ZHCC,2021-04-10 19:00,ZHCC 101900Z 11001MPS CAVOK 12/03 Q1023 NOSIG
ZHCC,2021-04-10 20:00,ZHCC 102000Z 11002MPS CAVOK 12/05 Q1022 NOSIG
ZHCC,2021-04-10 21:00,ZHCC 102100Z 07002MPS CAVOK 13/04 Q1022 NOSIG
ZHCC,2021-04-10 22:00,ZHCC 102200Z 09002MPS 050V130 CAVOK 12/05 Q1022 NOSIG
ZHCC,2021-04-10 23:00,ZHCC 102300Z 08002MPS CAVOK 13/05 Q1022 NOSIG
ZHCC,2021-04-11 00:00,ZHCC 110000Z 11002MPS CAVOK 13/07 Q1022 NOSIG
ZHCC,2021-04-11 01:00,ZHCC 110100Z 12002MPS 090V170 CAVOK 13/08 Q1022 NOSIG
ZHCC,2021-04-11 02:00,ZHCC 110200Z VRB01MPS CAVOK 14/08 Q1023 NOSIG
ZHCC,2021-04-11 03:00,ZHCC 110300Z 11003MPS CAVOK 15/08 Q1023 NOSIG
ZHCC,2021-04-11 04:00,ZHCC 110400Z VRB01MPS CAVOK 16/08 Q1022 NOSIG
ZHCC,2021-04-11 05:00,ZHCC 110500Z VRB01MPS 8000 NSC 16/09 Q1022 NOSIG
ZHCC,2021-04-11 06:00,ZHCC 110600Z VRB01MPS 8000 NSC 16/09 Q1021 NOSIG
ZHCC,2021-04-11 07:00,ZHCC 110700Z 07002MPS 010V120 8000 NSC 17/08 Q1020 NOSIG
ZHCC,2021-04-11 08:00,ZHCC 110800Z 07002MPS 030V120 8000 NSC 16/09 Q1019 NOSIG
ZHCC,2021-04-11 09:00,ZHCC 110900Z 09003MPS 060V130 8000 NSC 16/09 Q1019 NOSIG
ZHCC,2021-04-11 10:00,ZHCC 111000Z 09004MPS 050V110 8000 NSC 16/10 Q1019 NOSIG
ZHCC,2021-04-11 11:00,ZHCC 111100Z VRB01MPS 8000 NSC 15/10 Q1019 NOSIG
ZHCC,2021-04-11 12:00,ZHCC 111200Z 12002MPS 8000 NSC 15/10 Q1019 NOSIG
ZHCC,2021-04-11 13:00,ZHCC 111300Z VRB01MPS 8000 NSC 15/11 Q1020 NOSIG
ZHCC,2021-04-11 14:00,ZHCC 111400Z 00000MPS 6000 NSC 14/11 Q1020 NOSIG
ZHCC,2021-04-11 15:00,ZHCC 111500Z VRB01MPS 6000 NSC 14/11 Q1020 NOSIG
ZHCC,2021-04-11 16:00,ZHCC 111600Z VRB01MPS 6000 NSC 14/11 Q1020 NOSIG
ZHCC,2021-04-11 17:00,ZHCC 111700Z VRB01MPS 6000 NSC 14/11 Q1019 NOSIG
ZHCC,2021-04-11 18:00,ZHCC 111800Z VRB01MPS 5000 BR NSC 14/11 Q1019 NOSIG
ZHCC,2021-04-11 19:00,ZHCC 111900Z 28001MPS 5000 BR NSC 13/11 Q1018 NOSIG
ZHCC,2021-04-11 20:00,ZHCC 112000Z 28001MPS 5000 BR NSC 13/11 Q1017 NOSIG
ZHCC,2021-04-11 21:00,ZHCC 112100Z 00000MPS 5000 BR NSC 13/11 Q1017 NOSIG
ZHCC,2021-04-11 22:00,ZHCC 112200Z 26002MPS 3500 BR NSC 13/11 Q1017 NOSIG
ZHCC,2021-04-11 23:00,ZHCC 112300Z 26002MPS 3000 BR NSC 14/11 Q1017 NOSIG
ZHCC,2021-04-12 00:00,ZHCC 120000Z 28002MPS 3000 BR NSC 15/10 Q1017 NOSIG
ZHCC,2021-04-12 01:00,ZHCC 120100Z 26002MPS 230V310 4000 HZ NSC 17/09 Q1017 NOSIG
ZHCC,2021-04-12 02:00,ZHCC 120200Z 24003MPS 170V290 4000 HZ NSC 19/09 Q1017 NOSIG
ZHCC,2021-04-12 03:00,ZHCC 120300Z 22003MPS 150V290 4000 HZ NSC 20/08 Q1017 NOSIG
ZHCC,2021-04-12 04:00,ZHCC 120400Z VRB02MPS 5000 HZ NSC 22/09 Q1016 NOSIG
ZHCC,2021-04-12 05:00,ZHCC 120500Z VRB02MPS 5000 HZ NSC 22/09 Q1015 NOSIG
ZHCC,2021-04-12 06:00,ZHCC 120600Z VRB02MPS 5000 HZ NSC 24/10 Q1014 NOSIG
ZHCC,2021-04-12 07:00,ZHCC 120700Z VRB02MPS 6000 NSC 24/10 Q1013 NOSIG
ZHCC,2021-04-12 08:00,ZHCC 120800Z 17002MPS 110V210 7000 NSC 24/10 Q1012 NOSIG
ZHCC,2021-04-12 09:00,ZHCC 120900Z 18003MPS 120V220 7000 NSC 24/10 Q1012 NOSIG
ZHCC,2021-04-12 10:00,ZHCC 121000Z 17002MPS 100V220 7000 NSC 23/10 Q1013 NOSIG
ZHCC,2021-04-12 11:00,ZHCC 121100Z 18002MPS 130V220 7000 NSC 21/11 Q1013 NOSIG
ZHCC,2021-04-12 12:00,ZHCC 121200Z VRB01MPS 8000 NSC 20/12 Q1014 NOSIG
ZHCC,2021-04-12 13:00,ZHCC 121300Z VRB01MPS 8000 NSC 18/12 Q1016 NOSIG
ZHCC,2021-04-12 14:00,ZHCC 121400Z VRB01MPS 8000 NSC 18/13 Q1016 NOSIG
ZHCC,2021-04-12 15:00,ZHCC 121500Z VRB01MPS 8000 NSC 17/13 Q1017 NOSIG
ZHCC,2021-04-12 16:00,ZHCC 121600Z 08002MPS 040V120 6000 NSC 17/12 Q1017 BECMG TL1750 02007G14MPS
ZHCC,2021-04-12 17:00,ZHCC 121700Z 05002MPS 040V100 6000 NSC 17/12 Q1018 NOSIG
ZHCC,2021-04-12 18:00,ZHCC 121800Z 02004MPS 350V070 6000 NSC 17/12 Q1018 NOSIG
ZHCC,2021-04-12 19:00,ZHCC 121900Z 03008MPS 350V060 6000 NSC 16/11 Q1019 NOSIG
ZHCC,2021-04-12 20:00,ZHCC 122000Z 03008MPS 350V060 4000 HZ NSC 15/11 Q1019 NOSIG
ZHCC,2021-04-12 21:00,ZHCC 122100Z 03008MPS 5000 HZ NSC 15/07 Q1020 NOSIG
ZHCC,2021-04-12 22:00,ZHCC 122200Z 04008G13MPS 7000 NSC 14/03 Q1022 NOSIG
ZHCC,2021-04-12 23:00,ZHCC 122300Z 04009G14MPS 8000 NSC 13/01 Q1023 NOSIG
ZHCC,2021-04-13 00:00,ZHCC 130000Z 04007MPS 360V060 CAVOK 13/00 Q1024 NOSIG
ZHCC,2021-04-13 01:00,ZHCC 130100Z 04008MPS CAVOK 13/M01 Q1024 NOSIG
ZHCC,2021-04-13 02:00,ZHCC 130200Z 04007MPS 360V060 CAVOK 13/M02 Q1025 NOSIG
ZHCC,2021-04-13 03:00,ZHCC 130300Z 04006MPS 360V070 CAVOK 15/M02 Q1024 NOSIG
ZHCC,2021-04-13 04:00,ZHCC 130400Z 03005MPS 360V090 CAVOK 15/M02 Q1023 NOSIG
ZHCC,2021-04-13 05:00,ZHCC 130500Z 05005MPS 020V090 CAVOK 16/M01 Q1022 NOSIG
ZHCC,2021-04-13 06:00,ZHCC 130600Z 06004MPS 360V110 CAVOK 17/01 Q1021 NOSIG
ZHCC,2021-04-13 07:00,ZHCC 130700Z VRB03MPS CAVOK 17/02 Q1021 NOSIG
ZHCC,2021-04-13 08:00,ZHCC 130800Z 09003MPS 050V140 CAVOK 17/02 Q1020 NOSIG
ZHCC,2021-04-13 09:00,ZHCC 130900Z 09003MPS 050V140 CAVOK 17/02 Q1020 NOSIG
ZHCC,2021-04-13 10:00,ZHCC 131000Z 06004MPS 030V100 CAVOK 16/03 Q1020 NOSIG
ZHCC,2021-04-13 11:00,ZHCC 131100Z 04003MPS 350V080 CAVOK 15/04 Q1021 NOSIG
ZHCC,2021-04-13 12:00,ZHCC 131200Z 03002MPS 320V080 CAVOK 15/04 Q1021 NOSIG
ZHCC,2021-04-13 13:00,ZHCC 131300Z VRB01MPS CAVOK 14/05 Q1022 NOSIG
ZHCC,2021-04-13 14:00,ZHCC 131400Z VRB01MPS CAVOK 14/05 Q1023 NOSIG
ZHCC,2021-04-13 15:00,ZHCC 131500Z 28002MPS 9999 -RA OVC040 13/06 Q1023 NOSIG
ZHCC,2021-04-13 16:00,ZHCC 131600Z 26001MPS 9999 -RA OVC040 14/06 Q1023 NOSIG
ZHCC,2021-04-13 17:00,ZHCC 131700Z VRB01MPS CAVOK 14/06 Q1022 NOSIG
ZHCC,2021-04-13 18:00,ZHCC 131800Z VRB01MPS CAVOK 14/05 Q1022 NOSIG
ZHCC,2021-04-13 19:00,ZHCC 131900Z 28002MPS 240V310 CAVOK 13/06 Q1022 NOSIG
ZHCC,2021-04-13 20:00,ZHCC 132000Z 30003MPS CAVOK 13/06 Q1022 NOSIG
ZHCC,2021-04-13 21:00,ZHCC 132100Z 28003MPS CAVOK 12/05 Q1022 NOSIG
ZHCC,2021-04-13 22:00,ZHCC 132200Z 28003G09MPS 250V340 CAVOK 12/05 Q1022 NOSIG
ZHCC,2021-04-13 23:00,ZHCC 132300Z VRB01MPS CAVOK 12/06 Q1022 NOSIG
ZHCC,2021-04-14 00:00,ZHCC 140000Z 32004MPS 290V360 CAVOK 14/04 Q1023 NOSIG
ZHCC,2021-04-14 01:00,ZHCC 140100Z 32005MPS 290V350 CAVOK 16/04 Q1023 NOSIG
ZHCC,2021-04-14 02:00,ZHCC 140200Z VRB02MPS CAVOK 17/03 Q1023 NOSIG
ZHCC,2021-04-14 03:00,ZHCC 140300Z VRB01MPS CAVOK 18/02 Q1022 NOSIG
ZHCC,2021-04-14 04:00,ZHCC 140400Z 12003MPS 070V210 9999 FEW030 19/02 Q1021 NOSIG
ZHCC,2021-04-14 05:00,ZHCC 140500Z 12003MPS 070V150 9999 FEW030 19/04 Q1020 NOSIG
ZHCC,2021-04-14 06:00,ZHCC 140600Z 14003MPS 090V200 9999 SCT030 20/06 Q1019 NOSIG
ZHCC,2021-04-14 07:00,ZHCC 140700Z 11003MPS 080V140 9999 SCT030 19/04 Q1018 NOSIG
ZHCC,2021-04-14 08:00,ZHCC 140800Z VRB02MPS 9999 FEW030 19/05 Q1017 NOSIG
ZHCC,2021-04-14 09:00,ZHCC 140900Z 13003MPS 090V170 CAVOK 18/06 Q1016 NOSIG
ZHCC,2021-04-14 10:00,ZHCC 141000Z 16002MPS 100V210 CAVOK 18/07 Q1016 NOSIG
ZHCC,2021-04-14 11:00,ZHCC 141100Z 16002MPS 100V230 CAVOK 17/07 Q1016 NOSIG
ZHCC,2021-04-14 12:00,ZHCC 141200Z 16003MPS 080V210 CAVOK 16/08 Q1016 NOSIG
ZHCC,2021-04-14 13:00,ZHCC 141300Z VRB02MPS 8000 NSC 15/08 Q1017 NOSIG
ZHCC,2021-04-14 14:00,ZHCC 141400Z 17002MPS 080V220 8000 NSC 15/08 Q1017 NOSIG
ZHCC,2021-04-14 15:00,ZHCC 141500Z 17002MPS 080V230 8000 NSC 14/09 Q1016 NOSIG
ZHCC,2021-04-14 16:00,ZHCC 141600Z VRB02MPS 7000 NSC 14/08 Q1015 NOSIG
ZHCC,2021-04-14 17:00,ZHCC 141700Z VRB02MPS 7000 NSC 14/09 Q1016 NOSIG
ZHCC,2021-04-14 18:00,ZHCC 141800Z 18002MPS 100V240 7000 NSC 14/09 Q1014 NOSIG
ZHCC,2021-04-14 19:00,ZHCC 141900Z 19003MPS 150V280 7000 NSC 14/09 Q1014 NOSIG
ZHCC,2021-04-14 20:00,ZHCC 142000Z 21002MPS 170V240 7000 NSC 13/09 Q1013 NOSIG
ZHCC,2021-04-14 21:00,ZHCC 142100Z 18002MPS 130V230 7000 NSC 13/09 Q1013 NOSIG
ZHCC,2021-04-14 22:00,ZHCC 142200Z 19003MPS 140V220 4000 BR NSC 13/09 Q1013 NOSIG
ZHCC,2021-04-14 23:00,ZHCC 142300Z 18002MPS 130V250 4000 BR NSC 13/09 Q1013 NOSIG
ZHCC,2021-04-15 00:00,ZHCC 150000Z 21003MPS 150V300 6000 NSC 15/09 Q1013 NOSIG
ZHCC,2021-04-15 01:00,ZHCC 150100Z 20003MPS 150V250 6000 NSC 17/09 Q1013 NOSIG
ZHCC,2021-04-15 02:00,ZHCC 150200Z 23003MPS 140V280 8000 NSC 19/09 Q1013 NOSIG
ZHCC,2021-04-15 03:00,ZHCC 150300Z VRB02MPS 8000 NSC 21/09 Q1012 NOSIG
ZHCC,2021-04-15 04:00,ZHCC 150400Z 23004MPS 170V290 CAVOK 23/08 Q1012 NOSIG
ZHCC,2021-04-15 05:00,ZHCC 150500Z 21004MPS 150V250 CAVOK 24/09 Q1010 NOSIG
ZHCC,2021-04-15 06:00,ZHCC 150600Z 18003MPS 120V230 CAVOK 24/10 Q1010 NOSIG
ZHCC,2021-04-15 07:00,ZHCC 150700Z 26003MPS 190V320 CAVOK 27/08 Q1009 NOSIG
ZHCC,2021-04-15 08:00,ZHCC 150800Z 22003MPS 170V290 CAVOK 25/11 Q1009 NOSIG
ZHCC,2021-04-15 09:00,ZHCC 150900Z 29005MPS 260V330 CAVOK 25/06 Q1009 NOSIG
ZHCC,2021-04-15 10:00,ZHCC 151000Z 27003MPS CAVOK 24/06 Q1010 NOSIG
ZHCC,2021-04-15 11:00,ZHCC 151100Z 27005MPS 7000 NSC 23/03 Q1011 NOSIG
ZHCC,2021-04-15 12:00,ZHCC 151200Z 26004MPS 220V290 8000 NSC 23/02 Q1012 NOSIG
ZHCC,2021-04-15 13:00,ZHCC 151300Z 27003MPS 8000 NSC 22/01 Q1013 NOSIG
ZHCC,2021-04-15 14:00,ZHCC 151400Z 27004MPS 8000 NSC 22/01 Q1014 NOSIG
ZHCC,2021-04-15 15:00,ZHCC 151500Z 32007MPS 6000 NSC 22/M08 Q1014 NOSIG
ZHCC,2021-04-15 16:00,ZHCC 151600Z 31008MPS 6000 NSC 20/M17 Q1014 NOSIG
ZHCC,2021-04-15 17:00,ZHCC 151700Z 31006MPS 6000 NSC 19/M16 Q1015 NOSIG
ZHCC,2021-04-15 18:00,ZHCC 151800Z 29007MPS 6000 NSC 18/M16 Q1015 NOSIG
ZHCC,2021-04-15 19:00,ZHCC 151900Z 31006G12MPS 270V360 6000 NSC 17/M15 Q1015 NOSIG
ZHCC,2021-04-15 20:00,ZHCC 152000Z 31003MPS 280V350 6000 NSC 15/M13 Q1016 NOSIG
ZHCC,2021-04-15 21:00,ZHCC 152100Z 06003MPS 020V110 6000 NSC 16/M13 Q1017 NOSIG
ZHCC,2021-04-15 22:00,ZHCC 152200Z 32002G07MPS 290V010 3000 DU NSC 15/M10 Q1017 NOSIG
ZHCC,2021-04-15 23:00,ZHCC 152300Z VRB01MPS 3000 DU NSC 15/M05 Q1018 NOSIG
ZHCC,2021-04-16 00:00,ZHCC 160000Z 08003MPS 050V150 3000 DU NSC 18/M09 Q1018 NOSIG
ZHCC,2021-04-16 01:00,ZHCC 160100Z 11004MPS 090V150 4000 DU NSC 18/M05 Q1018 NOSIG
ZHCC,2021-04-16 02:00,ZHCC 160200Z 13004MPS 100V190 5000 DU NSC 18/M07 Q1019 NOSIG
ZHCC,2021-04-16 03:00,ZHCC 160300Z 13004MPS 100V170 5000 DU NSC 19/M07 Q1019 BECMG TL0440 21005MPS
ZHCC,2021-04-16 04:00,ZHCC 160400Z 18003MPS 110V240 6000 NSC 20/M04 Q1018 NOSIG
ZHCC,2021-04-16 05:00,ZHCC 160500Z VRB03MPS 6000 NSC 22/M01 Q1016 NOSIG
ZHCC,2021-04-16 06:00,ZHCC 160600Z 17004G09MPS 110V220 5000 DU NSC 22/M02 Q1015 NOSIG
ZHCC,2021-04-16 07:00,ZHCC 160700Z 20005MPS 120V240 5000 DU NSC 22/01 Q1015 NOSIG
ZHCC,2021-04-16 08:00,ZHCC 160800Z 19004G09MPS 110V250 5000 DU NSC 22/02 Q1014 NOSIG
ZHCC,2021-04-16 09:00,ZHCC 160900Z 19005MPS 150V230 5000 DU NSC 21/04 Q1013 NOSIG
ZHCC,2021-04-16 10:00,ZHCC 161000Z 19003G08MPS 150V260 5000 DU NSC 21/04 Q1014 NOSIG
ZHCC,2021-04-16 11:00,ZHCC 161100Z 19003MPS 150V240 5000 DU NSC 20/06 Q1014 NOSIG
ZHCC,2021-04-16 12:00,ZHCC 161200Z 20003MPS 160V270 7000 NSC 19/08 Q1015 NOSIG
ZHCC,2021-04-16 13:00,ZHCC 161300Z 24002MPS 200V270 7000 NSC 19/07 Q1016 BECMG TL1440 33005MPS
ZHCC,2021-04-16 14:00,ZHCC 161400Z 01007G12MPS 330V040 5000 DU NSC 20/03 Q1018 NOSIG
ZHCC,2021-04-16 15:00,ZHCC 161500Z 03007G13MPS 360V060 5000 HZ NSC 17/M03 Q1020 NOSIG
ZHCC,2021-04-16 16:00,ZHCC 161600Z 03007MPS 5000 HZ NSC 16/M06 Q1021 NOSIG
ZHCC,2021-04-16 17:00,ZHCC 161700Z 03005MPS 360V070 8000 NSC 15/M08 Q1021 NOSIG
ZHCC,2021-04-16 18:00,ZHCC 161800Z 03004MPS 360V070 8000 NSC 14/M06 Q1022 NOSIG
ZHCC,2021-04-16 19:00,ZHCC 161900Z 35002MPS 310V020 8000 NSC 13/M06 Q1022 NOSIG
ZHCC,2021-04-16 20:00,ZHCC 162000Z 31002MPS 8000 NSC 11/M05 Q1023 NOSIG
ZHCC,2021-04-16 21:00,ZHCC 162100Z 30002MPS 8000 NSC 10/M05 Q1023 NOSIG
ZHCC,2021-04-16 22:00,ZHCC 162200Z 32003MPS CAVOK 08/M05 Q1024 NOSIG
ZHCC,2021-04-16 23:00,ZHCC 162300Z 28002MPS 270V330 CAVOK 12/M04 Q1025 NOSIG
ZHCC,2021-04-17 00:00,ZHCC 170000Z 32002MPS 270V350 CAVOK 16/M05 Q1026 NOSIG
ZHCC,2021-04-17 01:00,ZHCC 170100Z 03002MPS 330V080 CAVOK 17/M09 Q1027 NOSIG
ZHCC,2021-04-17 02:00,ZHCC 170200Z 06003MPS 350V110 CAVOK 17/M07 Q1027 NOSIG
ZHCC,2021-04-17 03:00,ZHCC 170300Z 03003MPS CAVOK 19/M07 Q1026 NOSIG
ZHCC,2021-04-17 04:00,ZHCC 170400Z 29003MPS 240V360 CAVOK 20/M10 Q1025 NOSIG
ZHCC,2021-04-17 05:00,ZHCC 170500Z 28003MPS 220V350 CAVOK 21/M11 Q1024 NOSIG
ZHCC,2021-04-17 06:00,ZHCC 170600Z 34002MPS CAVOK 22/M11 Q1023 NOSIG
ZHCC,2021-04-17 07:00,ZHCC 170700Z 08003MPS 030V170 CAVOK 21/M08 Q1022 NOSIG
ZHCC,2021-04-17 08:00,ZHCC 170800Z 11002MPS 050V200 CAVOK 22/M09 Q1021 NOSIG
ZHCC,2021-04-17 09:00,ZHCC 170900Z 12004MPS 070V180 CAVOK 20/M02 Q1021 NOSIG
ZHCC,2021-04-17 10:00,ZHCC 171000Z 14003MPS 100V190 CAVOK 19/M02 Q1021 NOSIG
ZHCC,2021-04-17 11:00,ZHCC 171100Z 14002MPS 100V180 CAVOK 17/M00 Q1021 NOSIG
ZHCC,2021-04-17 12:00,ZHCC 171200Z 15003MPS 100V190 CAVOK 16/01 Q1022 NOSIG
ZHCC,2021-04-17 13:00,ZHCC 171300Z 18002MPS 100V240 CAVOK 16/01 Q1022 NOSIG
ZHCC,2021-04-17 14:00,ZHCC 171400Z VRB01MPS CAVOK 15/02 Q1022 NOSIG
ZHCC,2021-04-17 15:00,ZHCC 171500Z VRB01MPS CAVOK 15/03 Q1022 NOSIG
ZHCC,2021-04-17 16:00,ZHCC 171600Z VRB01MPS CAVOK 13/03 Q1022 NOSIG
ZHCC,2021-04-17 17:00,ZHCC 171700Z VRB01MPS CAVOK 13/02 Q1022 NOSIG
ZHCC,2021-04-17 18:00,ZHCC 171800Z VRB01MPS CAVOK 12/03 Q1021 NOSIG
ZHCC,2021-04-17 19:00,ZHCC 171900Z VRB01MPS CAVOK 10/03 Q1021 NOSIG
ZHCC,2021-04-17 20:00,ZHCC 172000Z VRB01MPS CAVOK 11/03 Q1021 NOSIG
ZHCC,2021-04-17 21:00,ZHCC 172100Z VRB01MPS CAVOK 10/03 Q1021 NOSIG
ZHCC,2021-04-17 22:00,ZHCC 172200Z VRB01MPS CAVOK 09/03 Q1021 NOSIG
ZHCC,2021-04-17 23:00,ZHCC 172300Z VRB01MPS CAVOK 11/04 Q1021 NOSIG
ZHCC,2021-04-18 00:00,ZHCC 180000Z VRB01MPS CAVOK 14/04 Q1021 NOSIG
ZHCC,2021-04-18 01:00,ZHCC 180100Z 18004MPS 130V220 CAVOK 15/02 Q1021 NOSIG
ZHCC,2021-04-18 02:00,ZHCC 180200Z 20004MPS 150V240 CAVOK 18/03 Q1021 NOSIG
ZHCC,2021-04-18 03:00,ZHCC 180300Z 17003MPS 080V250 CAVOK 20/02 Q1021 NOSIG
ZHCC,2021-04-18 04:00,ZHCC 180400Z 19004MPS 120V250 CAVOK 22/M01 Q1020 NOSIG
ZHCC,2021-04-18 05:00,ZHCC 180500Z 18004MPS 110V250 CAVOK 23/01 Q1019 NOSIG
ZHCC,2021-04-18 06:00,ZHCC 180600Z 16004G09MPS 110V250 CAVOK 22/01 Q1018 NOSIG
ZHCC,2021-04-18 07:00,ZHCC 180700Z 18005G11MPS 110V220 CAVOK 23/00 Q1017 NOSIG
ZHCC,2021-04-18 08:00,ZHCC 180800Z 16005G10MPS 110V220 CAVOK 22/M01 Q1016 NOSIG
ZHCC,2021-04-18 09:00,ZHCC 180900Z 17004MPS 100V230 CAVOK 22/M03 Q1016 NOSIG
ZHCC,2021-04-18 10:00,ZHCC 181000Z 16003MPS 110V230 CAVOK 20/M01 Q1015 NOSIG
ZHCC,2021-04-18 11:00,ZHCC 181100Z 16003MPS 110V210 CAVOK 19/02 Q1016 NOSIG
ZHCC,2021-04-18 12:00,ZHCC 181200Z 16003MPS 100V210 CAVOK 18/M00 Q1016 NOSIG
ZHCC,2021-04-18 13:00,ZHCC 181300Z 16002MPS 060V230 CAVOK 16/03 Q1017 NOSIG
ZHCC,2021-04-18 14:00,ZHCC 181400Z VRB02MPS CAVOK 16/03 Q1017 NOSIG
ZHCC,2021-04-18 15:00,ZHCC 181500Z VRB02MPS CAVOK 15/02 Q1016 NOSIG
ZHCC,2021-04-18 16:00,ZHCC 181600Z 20002MPS 160V250 CAVOK 15/03 Q1016 NOSIG
ZHCC,2021-04-18 17:00,ZHCC 181700Z 18004MPS 130V220 CAVOK 14/04 Q1016 NOSIG
ZHCC,2021-04-18 18:00,ZHCC 181800Z 18003MPS 130V240 CAVOK 14/04 Q1015 NOSIG
ZHCC,2021-04-18 19:00,ZHCC 181900Z 20002MPS 150V250 CAVOK 13/04 Q1015 NOSIG
ZHCC,2021-04-18 20:00,ZHCC 182000Z VRB02MPS CAVOK 13/05 Q1014 NOSIG
ZHCC,2021-04-18 21:00,ZHCC 182100Z 19003MPS 150V230 CAVOK 13/05 Q1014 NOSIG
ZHCC,2021-04-18 22:00,ZHCC 182200Z 19002MPS 160V230 CAVOK 13/06 Q1014 NOSIG
ZHCC,2021-04-18 23:00,ZHCC 182300Z 19002MPS 160V240 CAVOK 13/06 Q1015 NOSIG
ZHCC,2021-04-19 00:00,ZHCC 190000Z 20003MPS 140V250 CAVOK 16/07 Q1015 NOSIG
ZHCC,2021-04-19 01:00,ZHCC 190100Z 21004MPS 160V250 CAVOK 18/07 Q1015 NOSIG
ZHCC,2021-04-19 02:00,ZHCC 190200Z 20003G08MPS 140V250 CAVOK 21/08 Q1015 NOSIG
ZHCC,2021-04-19 03:00,ZHCC 190300Z 18005G11MPS 120V230 CAVOK 22/06 Q1015 NOSIG
ZHCC,2021-04-19 04:00,ZHCC 190400Z 18004MPS 100V240 CAVOK 23/06 Q1014 NOSIG
ZHCC,2021-04-19 05:00,ZHCC 190500Z 17004MPS 060V230 CAVOK 24/07 Q1014 NOSIG
ZHCC,2021-04-19 06:00,ZHCC 190600Z 19004G09MPS 140V240 CAVOK 24/06 Q1013 NOSIG
ZHCC,2021-04-19 07:00,ZHCC 190700Z 14004MPS 100V220 CAVOK 25/07 Q1012 NOSIG
ZHCC,2021-04-19 08:00,ZHCC 190800Z 19003MPS 100V270 CAVOK 24/08 Q1011 NOSIG
ZHCC,2021-04-19 09:00,ZHCC 190900Z 14004MPS 100V220 CAVOK 24/08 Q1011 NOSIG
ZHCC,2021-04-19 10:00,ZHCC 191000Z 13004MPS 100V180 CAVOK 22/06 Q1012 NOSIG
ZHCC,2021-04-19 11:00,ZHCC 191100Z 15003MPS 100V230 CAVOK 21/07 Q1012 NOSIG
ZHCC,2021-04-19 12:00,ZHCC 191200Z 14003MPS 090V200 CAVOK 21/04 Q1013 NOSIG
ZHCC,2021-04-19 13:00,ZHCC 191300Z 18002MPS 100V220 CAVOK 20/03 Q1014 NOSIG
ZHCC,2021-04-19 14:00,ZHCC 191400Z VRB01MPS CAVOK 19/06 Q1014 NOSIG
ZHCC,2021-04-19 15:00,ZHCC 191500Z 18002MPS 120V240 CAVOK 20/05 Q1014 NOSIG
ZHCC,2021-04-19 16:00,ZHCC 191600Z 17002MPS 060V230 CAVOK 19/05 Q1014 NOSIG
ZHCC,2021-04-19 17:00,ZHCC 191700Z 12002MPS CAVOK 18/07 Q1013 NOSIG
ZHCC,2021-04-19 18:00,ZHCC 191800Z 00000MPS CAVOK 18/07 Q1013 NOSIG
ZHCC,2021-04-19 19:00,ZHCC 191900Z VRB01MPS CAVOK 17/07 Q1013 NOSIG
ZHCC,2021-04-19 20:00,ZHCC 192000Z 26002MPS 220V300 9999 -RA NSC 17/08 Q1014 NOSIG
ZHCC,2021-04-19 21:00,ZHCC 192100Z 29002MPS 9999 -RA NSC 14/11 Q1014 BECMG TL2220 SHRA
ZHCC,2021-04-19 22:00,ZHCC 192200Z 01002MPS 6000 -RA NSC 14/12 Q1014 NOSIG
ZHCC,2021-04-19 23:00,ZHCC 192300Z 29002MPS 6000 -RA OVC040 13/12 Q1015 NOSIG
ZHCC,2021-04-20 00:00,ZHCC 200000Z 32003G10MPS 220V010 8000 -RA OVC040 14/12 Q1015 NOSIG
ZHCC,2021-04-20 01:00,ZHCC 200100Z 01003MPS 8000 -RA OVC040 14/12 Q1016 NOSIG
ZHCC,2021-04-20 02:00,ZHCC 200200Z 04003MPS 8000 -RA FEW010 OVC040 15/12 Q1016 NOSIG
ZHCC,2021-04-20 03:00,ZHCC 200300Z 04004MPS 010V080 8000 FEW010 OVC040 15/12 Q1016 NOSIG
ZHCC,2021-04-20 04:00,ZHCC 200400Z 04004MPS 2000 -RA BR SCT008 OVC040 14/13 Q1016 NOSIG
ZHCC,2021-04-20 05:00,ZHCC 200500Z 04004MPS 010V090 2500 BR SCT008 OVC040 14/13 Q1015 BECMG TL0640 3000
ZHCC,2021-04-20 06:00,ZHCC 200600Z 05004MPS 2500 BR SCT008 OVC030 14/13 Q1015 BECMG TL0740 3000
ZHCC,2021-04-20 07:00,ZHCC 200700Z 04004MPS 2500 -RA BR SCT008 OVC030 14/13 Q1014 BECMG TL0840 3000
ZHCC,2021-04-20 08:00,ZHCC 200800Z 04005MPS 020V080 3000 -RA BR SCT008 OVC030 14/13 Q1014 NOSIG
ZHCC,2021-04-20 09:00,ZHCC 200900Z 03004MPS 360V080 1600 -RA BR SCT006 OVC020 14/13 Q1014 BECMG TL1040 3000
ZHCC,2021-04-20 10:00,ZHCC 201000Z 06006MPS 1600 -RA BR SCT005 OVC020 14/13 Q1014 BECMG TL1140 3000
ZHCC,2021-04-20 11:00,ZHCC 201100Z 07005MPS 2000 -RA BR SCT005 OVC020 14/13 Q1015 BECMG TL1240 3000
ZHCC,2021-04-20 12:00,ZHCC 201200Z 06004MPS 030V090 2500 RA BR SCT004 OVC020 13/13 Q1016 BECMG TL1240 3000
ZHCC,2021-04-20 13:00,ZHCC 201300Z 06004MPS 3000 -RA BR SCT004 OVC020 13/12 Q1016 RERA BECMG TL1340 2500
ZHCC,2021-04-20 14:00,ZHCC 201400Z 05005MPS 2500 -RA BR SCT004 OVC020 13/12 Q1016 NOSIG
ZHCC,2021-04-20 15:00,ZHCC 201500Z 07004MPS 2500 -RA BR SCT004 OVC020 13/12 Q1016 NOSIG
ZHCC,2021-04-20 16:00,ZHCC 201600Z 06004MPS 030V100 2500 -RA BR SCT004 OVC020 12/12 Q1016 NOSIG
ZHCC,2021-04-20 17:00,ZHCC 201700Z 05004MPS 2500 -RA BR SCT004 OVC020 12/11 Q1016 NOSIG
ZHCC,2021-04-20 18:00,ZHCC 201800Z 04004MPS 1600 -RA BR SCT004 OVC020 12/11 Q1015 NOSIG
ZHCC,2021-04-20 19:00,ZHCC 201900Z 04004MPS 020V080 2000 -RA BR SCT004 OVC020 12/11 Q1015 NOSIG
ZHCC,2021-04-20 20:00,ZHCC 202000Z 03004MPS 360V060 2000 -RA BR SCT004 OVC020 12/11 Q1015 NOSIG
ZHCC,2021-04-20 21:00,ZHCC 202100Z 03004MPS 360V060 2000 -RA BR SCT004 OVC020 12/11 Q1015 NOSIG
ZHCC,2021-04-20 22:00,ZHCC 202200Z 03004MPS 360V070 2000 -RA BR SCT004 OVC020 12/11 Q1015 NOSIG
ZHCC,2021-04-20 23:00,ZHCC 202300Z 03005MPS 2000 -RA BR SCT004 OVC020 12/11 Q1016 NOSIG
ZHCC,2021-04-21 00:00,ZHCC 210000Z 03004MPS 350V060 2000 -RA BR SCT004 OVC020 12/11 Q1016 NOSIG
ZHCC,2021-04-21 01:00,ZHCC 210100Z 04004MPS 360V070 2000 -RA BR SCT005 OVC020 12/11 Q1017 NOSIG
ZHCC,2021-04-21 02:00,ZHCC 210200Z 04004MPS 010V070 1800 -RA BR SCT005 OVC020 12/11 Q1017 BECMG TL0340 3000
ZHCC,2021-04-21 03:00,ZHCC 210300Z 04004G11MPS 360V080 1800 -RA BR SCT005 OVC020 12/11 Q1017 NOSIG
ZHCC,2021-04-21 04:00,ZHCC 210400Z 02004MPS 350V070 2000 -RA BR SCT005 OVC020 12/11 Q1016 BECMG TL0540 3000
ZHCC,2021-04-21 05:00,ZHCC 210500Z 03004MPS 350V070 2500 -RA BR SCT005 OVC020 12/11 Q1016 BECMG TL0620 3000
ZHCC,2021-04-21 06:00,ZHCC 210600Z 36004MPS 340V060 4000 BR SCT010 OVC030 13/11 Q1016 NOSIG
ZHCC,2021-04-21 07:00,ZHCC 210700Z 01003MPS 340V070 6000 OVC030 14/11 Q1015 NOSIG
ZHCC,2021-04-21 08:00,ZHCC 210800Z 02004MPS 330V060 7000 OVC030 14/10 Q1014 NOSIG
ZHCC,2021-04-21 09:00,ZHCC 210900Z 02004MPS 320V080 6000 OVC030 13/10 Q1014 NOSIG
ZHCC,2021-04-21 10:00,ZHCC 211000Z 01003MPS 320V050 5000 BR OVC020 13/10 Q1015 NOSIG
ZHCC,2021-04-21 11:00,ZHCC 211100Z 33003MPS 300V360 3000 -RA BR SCT010 OVC020 13/11 Q1015 BECMG TL1240 2000
ZHCC,2021-04-21 12:00,ZHCC 211200Z 33003MPS 4000 BR SCT010 OVC020 12/11 Q1015 NOSIG
ZHCC,2021-04-21 13:00,ZHCC 211300Z 01003MPS 330V030 4000 BR SCT010 OVC020 13/11 Q1015 NOSIG
ZHCC,2021-04-21 14:00,ZHCC 211400Z 02003MPS 350V050 4000 BR SCT010 OVC020 13/11 Q1016 NOSIG
ZHCC,2021-04-21 15:00,ZHCC 211500Z 36002MPS 5000 BR OVC026 13/11 Q1016 BECMG TL1640 2000 RA
ZHCC,2021-04-21 16:00,ZHCC 211600Z 01002MPS 5000 -RA BR OVC040 13/11 Q1015 BECMG TL1720 2000 RA
ZHCC,2021-04-21 17:00,ZHCC 211700Z 34002MPS 310V010 4000 -RA BR OVC040 12/11 Q1015 NOSIG
ZHCC,2021-04-21 18:00,ZHCC 211800Z 32003MPS 4000 BR OVC040 12/11 Q1014 NOSIG
ZHCC,2021-04-21 19:00,ZHCC 211900Z 32003MPS 4000 BR OVC040 12/11 Q1014 NOSIG
ZHCC,2021-04-21 20:00,ZHCC 212000Z 35002MPS 310V020 4000 BR OVC040 12/11 Q1013 NOSIG
ZHCC,2021-04-21 21:00,ZHCC 212100Z 34003MPS 5000 BR OVC040 12/10 Q1013 NOSIG
ZHCC,2021-04-21 22:00,ZHCC 212200Z 35002MPS 2500 BR BKN040 11/10 Q1013 BECMG TL2340 3000
ZHCC,2021-04-21 23:00,ZHCC 212300Z 34003MPS 320V020 2800 BR BKN040 12/10 Q1014 BECMG TL0020 3000
ZHCC,2021-04-22 00:00,ZHCC 220000Z 32003MPS 3000 BR BKN040 13/11 Q1015 NOSIG
ZHCC,2021-04-22 01:00,ZHCC 220100Z 36004MPS 330V030 4000 BR BKN020 15/11 Q1015 NOSIG
ZHCC,2021-04-22 02:00,ZHCC 220200Z 35004MPS 310V020 5000 HZ BKN020 16/11 Q1015 NOSIG
ZHCC,2021-04-22 03:00,ZHCC 220300Z 36002MPS 310V040 5000 HZ BKN020 17/11 Q1015 NOSIG
ZHCC,2021-04-22 04:00,ZHCC 220400Z 01004MPS 330V060 5000 HZ BKN030 18/11 Q1014 NOSIG
ZHCC,2021-04-22 05:00,ZHCC 220500Z 05003MPS 350V110 6000 BKN030 18/12 Q1013 NOSIG
ZHCC,2021-04-22 06:00,ZHCC 220600Z VRB03MPS 7000 BKN030 19/11 Q1013 NOSIG
ZHCC,2021-04-22 07:00,ZHCC 220700Z 05003MPS 010V120 7000 BKN030 19/12 Q1012 NOSIG
ZHCC,2021-04-22 08:00,ZHCC 220800Z 06003MPS 040V110 8000 BKN033 18/12 Q1012 NOSIG
ZHCC,2021-04-22 09:00,ZHCC 220900Z 08004MPS 030V100 8000 BKN033 19/12 Q1012 NOSIG
ZHCC,2021-04-22 10:00,ZHCC 221000Z 06003MPS 030V090 8000 BKN033 18/12 Q1012 NOSIG
ZHCC,2021-04-22 11:00,ZHCC 221100Z 08003MPS 8000 BKN033 18/12 Q1013 NOSIG
ZHCC,2021-04-22 12:00,ZHCC 221200Z VRB01MPS 8000 BKN033 17/12 Q1013 NOSIG
ZHCC,2021-04-22 13:00,ZHCC 221300Z VRB01MPS 6000 BKN040 15/12 Q1014 NOSIG
ZHCC,2021-04-22 14:00,ZHCC 221400Z VRB01MPS 5000 BR BKN040 14/12 Q1015 NOSIG
ZHCC,2021-04-22 15:00,ZHCC 221500Z VRB01MPS 4000 BR NSC 14/12 Q1015 NOSIG
ZHCC,2021-04-22 16:00,ZHCC 221600Z VRB01MPS 4000 BR NSC 13/12 Q1015 BECMG TL1740 2000
ZHCC,2021-04-22 17:00,ZHCC 221700Z 28001MPS 3000 BR NSC 12/12 Q1015 NOSIG
ZHCC,2021-04-22 18:00,ZHCC 221800Z 00000MPS 2000 BR NSC 11/11 Q1014 NOSIG
ZHCC,2021-04-22 19:00,ZHCC 221900Z 28001MPS 3000 BR NSC 11/11 Q1014 NOSIG
ZHCC,2021-04-22 20:00,ZHCC 222000Z 00000MPS 3000 BR NSC 11/11 Q1014 NOSIG
ZHCC,2021-04-22 21:00,ZHCC 222100Z VRB01MPS 3000 BR NSC 12/12 Q1014 BECMG TL2240 2000
ZHCC,2021-04-22 22:00,ZHCC 222200Z VRB01MPS 2000 BR NSC 12/11 Q1015 BECMG TL2240 1300
ZHCC,2021-04-22 23:00,ZHCC 222300Z VRB01MPS 2000 BR NSC 14/13 Q1015 BECMG TL0040 3000
ZHCC,2021-04-23 00:00,ZHCC 230000Z 07002MPS 040V110 2500 BR NSC 15/12 Q1016 BECMG TL0120 3000
ZHCC,2021-04-23 01:00,ZHCC 230100Z 03004MPS 360V070 3000 BR NSC 17/12 Q1017 NOSIG
ZHCC,2021-04-23 02:00,ZHCC 230200Z 07004MPS 030V110 3000 BR FEW020 17/13 Q1017 NOSIG
ZHCC,2021-04-23 03:00,ZHCC 230300Z 05004MPS 020V080 3000 HZ FEW020 17/12 Q1018 NOSIG
ZHCC,2021-04-23 04:00,ZHCC 230400Z 04005MPS 4000 HZ FEW020 18/12 Q1017 NOSIG
ZHCC,2021-04-23 05:00,ZHCC 230500Z 04005MPS 360V090 4000 HZ FEW030 18/11 Q1017 NOSIG
ZHCC,2021-04-23 06:00,ZHCC 230600Z 04005MPS 350V070 5000 HZ FEW030 19/12 Q1016 NOSIG
ZHCC,2021-04-23 07:00,ZHCC 230700Z 05005MPS 010V080 5000 HZ FEW030 19/11 Q1016 NOSIG
ZHCC,2021-04-23 08:00,ZHCC 230800Z 06005MPS 030V090 5000 HZ FEW030 19/12 Q1016 NOSIG
ZHCC,2021-04-23 09:00,ZHCC 230900Z 06004MPS 030V090 5000 HZ FEW030 18/12 Q1016 NOSIG
ZHCC,2021-04-23 10:00,ZHCC 231000Z 05006MPS 030V090 5000 HZ FEW030 17/11 Q1015 NOSIG
ZHCC,2021-04-23 11:00,ZHCC 231100Z 05005MPS 020V080 6000 NSC 16/11 Q1016 NOSIG
ZHCC,2021-04-23 12:00,ZHCC 231200Z 06004MPS 6000 NSC 16/11 Q1017 NOSIG
ZHCC,2021-04-23 13:00,ZHCC 231300Z 04003MPS 010V070 6000 NSC 16/12 Q1018 NOSIG
ZHCC,2021-04-23 14:00,ZHCC 231400Z 07004MPS 030V090 6000 NSC 16/12 Q1018 NOSIG
ZHCC,2021-04-23 15:00,ZHCC 231500Z 03008G13MPS 7000 NSC 16/11 Q1017 NOSIG
ZHCC,2021-04-23 16:00,ZHCC 231600Z 02007G12MPS 350V060 8000 FEW023 15/10 Q1018 NOSIG
ZHCC,2021-04-23 17:00,ZHCC 231700Z 03006G11MPS 8000 SCT023 15/10 Q1019 NOSIG
ZHCC,2021-04-23 18:00,ZHCC 231800Z 04005MPS 010V080 9999 -RA OVC023 13/09 Q1020 NOSIG
ZHCC,2021-04-23 19:00,ZHCC 231900Z 03006MPS 360V060 9999 -RA OVC020 13/10 Q1019 NOSIG
ZHCC,2021-04-23 20:00,ZHCC 232000Z 03006MPS 9999 -RA OVC020 14/09 Q1019 NOSIG
ZHCC,2021-04-23 21:00,ZHCC 232100Z 03009G16MPS 360V060 9999 -RA OVC020 14/09 Q1019 NOSIG
ZHCC,2021-04-23 22:00,ZHCC 232200Z 03010G16MPS 360V060 9999 -RA OVC020 13/09 Q1020 BECMG TL2340 RA
ZHCC,2021-04-23 23:00,ZHCC 232300Z 02007G12MPS 350V050 9999 OVC020 13/09 Q1021 NOSIG
ZHCC,2021-04-24 00:00,ZHCC 240000Z 03009G15MPS 350V050 9999 OVC020 13/09 Q1021 NOSIG
ZHCC,2021-04-24 01:00,ZHCC 240100Z 02008G13MPS 360V060 6000 OVC020 13/10 Q1022 NOSIG
ZHCC,2021-04-24 02:00,ZHCC 240200Z 02007MPS 360V060 6000 OVC020 14/09 Q1023 NOSIG
ZHCC,2021-04-24 03:00,ZHCC 240300Z 03006MPS 350V070 6000 OVC020 14/10 Q1023 NOSIG
ZHCC,2021-04-24 04:00,ZHCC 240400Z 03007MPS 360V060 6000 OVC020 14/10 Q1023 NOSIG
ZHCC,2021-04-24 05:00,ZHCC 240500Z 03006MPS 360V070 6000 OVC020 15/10 Q1022 NOSIG
ZHCC,2021-04-24 06:00,ZHCC 240600Z 03006MPS 360V070 6000 OVC020 16/10 Q1021 NOSIG
ZHCC,2021-04-24 07:00,ZHCC 240700Z 04006MPS 020V080 8000 OVC020 16/10 Q1021 NOSIG
ZHCC,2021-04-24 08:00,ZHCC 240800Z 03006MPS 340V070 8000 OVC030 16/10 Q1021 NOSIG
ZHCC,2021-04-24 09:00,ZHCC 240900Z 03005MPS 360V090 8000 OVC030 16/10 Q1021 NOSIG
ZHCC,2021-04-24 10:00,ZHCC 241000Z 03005G10MPS 350V070 8000 OVC030 16/11 Q1021 NOSIG
ZHCC,2021-04-24 11:00,ZHCC 241100Z 02005MPS 340V060 8000 OVC030 16/10 Q1022 NOSIG
ZHCC,2021-04-24 12:00,ZHCC 241200Z 02005MPS 340V060 8000 OVC030 16/10 Q1022 NOSIG
ZHCC,2021-04-24 13:00,ZHCC 241300Z 01006G11MPS 340V040 9999 OVC030 16/11 Q1023 NOSIG
ZHCC,2021-04-24 14:00,ZHCC 241400Z 36005MPS 340V040 9999 OVC030 15/11 Q1024 NOSIG
ZHCC,2021-04-24 15:00,ZHCC 241500Z 35005MPS 9999 OVC030 15/11 Q1024 NOSIG
ZHCC,2021-04-24 16:00,ZHCC 241600Z 02005MPS 9999 OVC030 15/11 Q1023 NOSIG
ZHCC,2021-04-24 17:00,ZHCC 241700Z 03006MPS 340V070 9999 OVC030 15/11 Q1022 NOSIG
ZHCC,2021-04-24 18:00,ZHCC 241800Z 02004MPS 350V060 9999 OVC030 15/10 Q1022 NOSIG
ZHCC,2021-04-24 19:00,ZHCC 241900Z 01003MPS 340V040 9999 OVC030 15/10 Q1022 NOSIG
ZHCC,2021-04-24 20:00,ZHCC 242000Z 01004MPS CAVOK 14/10 Q1022 NOSIG
ZHCC,2021-04-24 21:00,ZHCC 242100Z 01005MPS CAVOK 14/10 Q1022 NOSIG
ZHCC,2021-04-24 22:00,ZHCC 242200Z 01003MPS 340V050 8000 NSC 14/10 Q1023 NOSIG
ZHCC,2021-04-24 23:00,ZHCC 242300Z 02004MPS 350V050 8000 NSC 14/10 Q1023 NOSIG
ZHCC,2021-04-25 00:00,ZHCC 250000Z 01005G12MPS 330V050 8000 NSC 14/09 Q1024 NOSIG
ZHCC,2021-04-25 01:00,ZHCC 250100Z 02005MPS 8000 NSC 15/10 Q1024 NOSIG
ZHCC,2021-04-25 02:00,ZHCC 250200Z 02005MPS 350V050 6000 BKN030 15/10 Q1025 NOSIG
ZHCC,2021-04-25 03:00,ZHCC 250300Z 01006MPS 5000 HZ BKN030 16/10 Q1024 NOSIG
ZHCC,2021-04-25 04:00,ZHCC 250400Z 02005MPS 340V040 5000 HZ BKN030 16/10 Q1023 NOSIG
ZHCC,2021-04-25 05:00,ZHCC 250500Z 03005MPS 350V060 5000 HZ BKN030 16/10 Q1023 NOSIG
ZHCC,2021-04-25 06:00,ZHCC 250600Z 03004MPS 350V080 6000 OVC030 15/10 Q1022 NOSIG
ZHCC,2021-04-25 07:00,ZHCC 250700Z 03006MPS 6000 OVC030 16/09 Q1021 NOSIG
ZHCC,2021-04-25 08:00,ZHCC 250800Z 04005MPS 360V070 6000 OVC023 15/10 Q1021 NOSIG
ZHCC,2021-04-25 09:00,ZHCC 250900Z 05004MPS 8000 OVC023 15/10 Q1021 NOSIG
ZHCC,2021-04-25 10:00,ZHCC 251000Z 04005MPS 020V080 6000 OVC023 15/09 Q1021 NOSIG
ZHCC,2021-04-25 11:00,ZHCC 251100Z 05004MPS 8000 OVC040 15/09 Q1022 NOSIG
ZHCC,2021-04-25 12:00,ZHCC 251200Z 05004MPS 020V090 9999 OVC030 14/09 Q1023 NOSIG
ZHCC,2021-04-25 13:00,ZHCC 251300Z 04004MPS 9999 OVC030 13/09 Q1023 NOSIG
ZHCC,2021-04-25 14:00,ZHCC 251400Z 08002MPS 030V100 9999 OVC030 13/09 Q1023 NOSIG
ZHCC,2021-04-25 15:00,ZHCC 251500Z 06003MPS 030V090 9999 OVC030 13/09 Q1023 NOSIG
ZHCC,2021-04-25 16:00,ZHCC 251600Z VRB01MPS 9999 OVC030 12/09 Q1023 NOSIG
ZHCC,2021-04-25 17:00,ZHCC 251700Z 30002MPS 9999 OVC030 12/09 Q1022 NOSIG
ZHCC,2021-04-25 18:00,ZHCC 251800Z 36002MPS 290V050 CAVOK 12/09 Q1020 NOSIG
ZHCC,2021-04-25 19:00,ZHCC 251900Z 34002MPS 290V010 CAVOK 12/08 Q1020 NOSIG
ZHCC,2021-04-25 20:00,ZHCC 252000Z VRB01MPS 8000 NSC 11/09 Q1020 NOSIG
ZHCC,2021-04-25 21:00,ZHCC 252100Z 26001MPS 8000 NSC 12/09 Q1020 NOSIG
ZHCC,2021-04-25 22:00,ZHCC 252200Z 34002MPS 310V050 7000 OVC040 13/09 Q1019 NOSIG
ZHCC,2021-04-25 23:00,ZHCC 252300Z 31001MPS 7000 OVC040 13/09 Q1019 NOSIG
ZHCC,2021-04-26 00:00,ZHCC 260000Z VRB01MPS 7000 OVC040 14/09 Q1019 NOSIG
ZHCC,2021-04-26 01:00,ZHCC 260100Z VRB01MPS 7000 -RA OVC040 14/09 Q1020 NOSIG
ZHCC,2021-04-26 02:00,ZHCC 260200Z VRB01MPS 8000 NSC 15/09 Q1020 NOSIG
ZHCC,2021-04-26 03:00,ZHCC 260300Z 25002MPS 180V310 7000 NSC 16/10 Q1019 NOSIG
ZHCC,2021-04-26 04:00,ZHCC 260400Z 19002MPS 140V280 7000 NSC 18/10 Q1018 NOSIG
ZHCC,2021-04-26 05:00,ZHCC 260500Z VRB02MPS 6000 NSC 19/11 Q1017 NOSIG
ZHCC,2021-04-26 06:00,ZHCC 260600Z VRB02MPS 6000 NSC 21/11 Q1016 NOSIG
ZHCC,2021-04-26 07:00,ZHCC 260700Z VRB02MPS 6000 NSC 22/12 Q1015 NOSIG
ZHCC,2021-04-26 08:00,ZHCC 260800Z VRB02MPS 6000 NSC 22/12 Q1014 NOSIG
ZHCC,2021-04-26 09:00,ZHCC 260900Z 21002MPS 160V260 6000 NSC 22/12 Q1015 NOSIG
ZHCC,2021-04-26 10:00,ZHCC 261000Z 18002MPS 120V230 6000 NSC 21/13 Q1015 NOSIG
ZHCC,2021-04-26 11:00,ZHCC 261100Z 19002MPS 130V270 6000 NSC 20/13 Q1015 NOSIG
ZHCC,2021-04-26 12:00,ZHCC 261200Z 14002MPS 100V210 6000 NSC 18/13 Q1016 NOSIG
ZHCC,2021-04-26 13:00,ZHCC 261300Z 18002MPS 140V290 5000 BR NSC 18/14 Q1017 NOSIG
ZHCC,2021-04-26 14:00,ZHCC 261400Z 19002MPS 130V260 5000 BR NSC 17/14 Q1017 NOSIG
ZHCC,2021-04-26 15:00,ZHCC 261500Z 19002MPS 130V240 5000 BR NSC 16/13 Q1017 NOSIG
ZHCC,2021-04-26 16:00,ZHCC 261600Z 20002MPS 160V230 5000 BR NSC 16/13 Q1017 NOSIG
ZHCC,2021-04-26 17:00,ZHCC 261700Z VRB01MPS 4000 BR NSC 15/13 Q1016 NOSIG
ZHCC,2021-04-26 18:00,ZHCC 261800Z VRB01MPS 4000 BR NSC 15/13 Q1016 NOSIG
ZHCC,2021-04-26 19:00,ZHCC 261900Z 25002MPS 7000 NSC 15/11 Q1015 NOSIG
ZHCC,2021-04-26 20:00,ZHCC 262000Z VRB01MPS 7000 NSC 12/10 Q1015 NOSIG
ZHCC,2021-04-26 21:00,ZHCC 262100Z 27003MPS 7000 NSC 14/10 Q1015 NOSIG
ZHCC,2021-04-26 22:00,ZHCC 262200Z 30005MPS 8000 NSC 17/08 Q1016 NOSIG
ZHCC,2021-04-26 23:00,ZHCC 262300Z 30006MPS 280V340 CAVOK 19/07 Q1017 NOSIG
ZHCC,2021-04-27 00:00,ZHCC 270000Z 31005G10MPS 280V350 CAVOK 20/06 Q1018 NOSIG
ZHCC,2021-04-27 01:00,ZHCC 270100Z 31005MPS CAVOK 21/05 Q1018 NOSIG
ZHCC,2021-04-27 02:00,ZHCC 270200Z 36003MPS 300V060 CAVOK 24/02 Q1018 NOSIG
ZHCC,2021-04-27 03:00,ZHCC 270300Z 03003MPS 010V070 CAVOK 24/02 Q1018 NOSIG
ZHCC,2021-04-27 04:00,ZHCC 270400Z 10002MPS 030V160 CAVOK 25/M00 Q1018 NOSIG
ZHCC,2021-04-27 05:00,ZHCC 270500Z VRB02MPS CAVOK 25/01 Q1017 NOSIG
ZHCC,2021-04-27 06:00,ZHCC 270600Z 16002MPS 080V230 CAVOK 26/02 Q1016 NOSIG
ZHCC,2021-04-27 07:00,ZHCC 270700Z VRB04MPS CAVOK 27/01 Q1015 NOSIG
ZHCC,2021-04-27 08:00,ZHCC 270800Z 18005MPS 110V230 CAVOK 26/04 Q1014 NOSIG
ZHCC,2021-04-27 09:00,ZHCC 270900Z 20004MPS 120V230 CAVOK 25/06 Q1015 NOSIG
ZHCC,2021-04-27 10:00,ZHCC 271000Z 19004MPS 140V230 CAVOK 24/07 Q1014 NOSIG
ZHCC,2021-04-27 11:00,ZHCC 271100Z 19003MPS 140V240 CAVOK 23/07 Q1015 NOSIG
ZHCC,2021-04-27 12:00,ZHCC 271200Z 26003MPS 170V290 CAVOK 21/07 Q1017 NOSIG
ZHCC,2021-04-27 13:00,ZHCC 271300Z 22002MPS 190V260 CAVOK 21/07 Q1018 NOSIG
ZHCC,2021-04-27 14:00,ZHCC 271400Z 26003MPS 220V280 CAVOK 22/02 Q1019 NOSIG
ZHCC,2021-04-27 15:00,ZHCC 271500Z 27003MPS 240V300 CAVOK 21/03 Q1019 NOSIG
ZHCC,2021-04-27 16:00,ZHCC 271600Z 27004MPS CAVOK 21/03 Q1018 NOSIG
ZHCC,2021-04-27 17:00,ZHCC 271700Z 29005MPS CAVOK 21/02 Q1019 NOSIG
ZHCC,2021-04-27 18:00,ZHCC 271800Z 29005MPS CAVOK 21/03 Q1019 NOSIG
ZHCC,2021-04-27 19:00,ZHCC 271900Z 31006MPS CAVOK 20/04 Q1019 NOSIG
ZHCC,2021-04-27 20:00,ZHCC 272000Z 30005MPS CAVOK 19/05 Q1019 NOSIG
ZHCC,2021-04-27 21:00,ZHCC 272100Z 29005MPS CAVOK 18/05 Q1019 NOSIG
ZHCC,2021-04-27 22:00,ZHCC 272200Z 29003MPS CAVOK 17/05 Q1020 NOSIG
ZHCC,2021-04-27 23:00,ZHCC 272300Z 36003MPS CAVOK 18/05 Q1021 NOSIG
ZHCC,2021-04-28 00:00,ZHCC 280000Z 31003G10MPS 240V010 CAVOK 18/07 Q1022 NOSIG
ZHCC,2021-04-28 01:00,ZHCC 280100Z 29004MPS 260V330 CAVOK 20/05 Q1022 NOSIG
ZHCC,2021-04-28 02:00,ZHCC 280200Z 34002MPS 260V040 CAVOK 22/02 Q1021 NOSIG
ZHCC,2021-04-28 03:00,ZHCC 280300Z 29005G10MPS 240V340 CAVOK 23/M03 Q1021 NOSIG
ZHCC,2021-04-28 04:00,ZHCC 280400Z VRB05MPS CAVOK 24/M02 Q1020 NOSIG
ZHCC,2021-04-28 05:00,ZHCC 280500Z 28007MPS 240V320 CAVOK 25/M07 Q1018 NOSIG
ZHCC,2021-04-28 06:00,ZHCC 280600Z 25005G10MPS 220V300 CAVOK 25/M04 Q1017 NOSIG
ZHCC,2021-04-28 07:00,ZHCC 280700Z 27007MPS 220V300 CAVOK 25/M03 Q1015 NOSIG
ZHCC,2021-04-28 08:00,ZHCC 280800Z 25006MPS 200V290 CAVOK 25/M03 Q1014 NOSIG
ZHCC,2021-04-28 09:00,ZHCC 280900Z 29007MPS 250V310 9999 FEW040 25/M03 Q1013 NOSIG
ZHCC,2021-04-28 10:00,ZHCC 281000Z 27006MPS 9999 FEW040 24/M03 Q1013 NOSIG
ZHCC,2021-04-28 11:00,ZHCC 281100Z 28006MPS 9999 FEW040 23/M02 Q1013 NOSIG
ZHCC,2021-04-28 12:00,ZHCC 281200Z 27003MPS CAVOK 20/M01 Q1014 NOSIG
ZHCC,2021-04-28 13:00,ZHCC 281300Z 20002MPS 160V250 CAVOK 20/M00 Q1014 NOSIG
ZHCC,2021-04-28 14:00,ZHCC 281400Z 22003MPS 190V260 CAVOK 20/07 Q1014 NOSIG
ZHCC,2021-04-28 15:00,ZHCC 281500Z 21003MPS 170V250 CAVOK 20/08 Q1013 NOSIG
ZHCC,2021-04-28 16:00,ZHCC 281600Z 21003MPS 160V250 CAVOK 19/08 Q1012 NOSIG
ZHCC,2021-04-28 17:00,ZHCC 281700Z 21002MPS 150V250 CAVOK 18/07 Q1011 NOSIG
ZHCC,2021-04-28 18:00,ZHCC 281800Z 21004MPS 170V250 CAVOK 18/07 Q1010 NOSIG
ZHCC,2021-04-28 19:00,ZHCC 281900Z 20003MPS 160V240 CAVOK 18/07 Q1009 NOSIG
ZHCC,2021-04-28 20:00,ZHCC 282000Z 23002MPS 190V270 CAVOK 17/07 Q1008 NOSIG
ZHCC,2021-04-28 21:00,ZHCC 282100Z 27002MPS 220V300 CAVOK 16/06 Q1007 NOSIG
ZHCC,2021-04-28 22:00,ZHCC 282200Z 25002MPS 190V290 CAVOK 16/06 Q1006 NOSIG
ZHCC,2021-04-28 23:00,ZHCC 282300Z 22002MPS 190V260 CAVOK 17/06 Q1006 NOSIG
ZHCC,2021-04-29 00:00,ZHCC 290000Z 23003MPS 190V260 CAVOK 20/04 Q1005 NOSIG
ZHCC,2021-04-29 01:00,ZHCC 290100Z 21004MPS 180V240 CAVOK 23/05 Q1005 BECMG TL0240 30006MPS
ZHCC,2021-04-29 02:00,ZHCC 290200Z 25006MPS 200V290 CAVOK 27/03 Q1004 NOSIG
ZHCC,2021-04-29 03:00,ZHCC 290300Z 28010G15MPS 240V300 8000 NSC 28/01 Q1004 NOSIG
ZHCC,2021-04-29 04:00,ZHCC 290400Z 27009G14MPS 230V310 8000 NSC 29/00 Q1003 NOSIG
ZHCC,2021-04-29 05:00,ZHCC 290500Z 29011G17MPS 8000 FEW040 30/01 Q1002 NOSIG
ZHCC,2021-04-29 06:00,ZHCC 290600Z 27010G16MPS 240V300 8000 FEW040 30/00 Q1002 NOSIG
ZHCC,2021-04-29 07:00,ZHCC 290700Z 30009G14MPS 8000 FEW040 31/01 Q1002 NOSIG
ZHCC,2021-04-29 08:00,ZHCC 290800Z 30011G16MPS 8000 FEW040 30/00 Q1002 NOSIG
ZHCC,2021-04-29 09:00,ZHCC 290900Z 28006G11MPS 260V320 8000 FEW040 29/00 Q1002 NOSIG
ZHCC,2021-04-29 10:00,ZHCC 291000Z 30006MPS 8000 FEW040 29/01 Q1003 NOSIG
ZHCC,2021-04-29 11:00,ZHCC 291100Z 05006MPS CAVOK 24/04 Q1004 NOSIG
ZHCC,2021-04-29 12:00,ZHCC 291200Z 07005MPS CAVOK 22/03 Q1005 NOSIG
ZHCC,2021-04-29 13:00,ZHCC 291300Z 07006MPS CAVOK 21/04 Q1006 NOSIG
ZHCC,2021-04-29 14:00,ZHCC 291400Z 06004MPS CAVOK 20/03 Q1007 NOSIG
ZHCC,2021-04-29 15:00,ZHCC 291500Z 09004MPS CAVOK 19/04 Q1007 NOSIG
ZHCC,2021-04-29 16:00,ZHCC 291600Z 11002MPS 070V150 CAVOK 17/05 Q1008 NOSIG
ZHCC,2021-04-29 17:00,ZHCC 291700Z 05003MPS CAVOK 18/04 Q1007 NOSIG
ZHCC,2021-04-29 18:00,ZHCC 291800Z VRB01MPS CAVOK 17/04 Q1007 NOSIG
ZHCC,2021-04-29 19:00,ZHCC 291900Z 09003MPS 060V150 CAVOK 17/03 Q1006 NOSIG
ZHCC,2021-04-29 20:00,ZHCC 292000Z 30002MPS CAVOK 15/05 Q1006 NOSIG
ZHCC,2021-04-29 21:00,ZHCC 292100Z VRB01MPS CAVOK 15/04 Q1005 NOSIG
ZHCC,2021-04-29 22:00,ZHCC 292200Z 20002MPS 170V240 CAVOK 16/02 Q1004 NOSIG
ZHCC,2021-04-29 23:00,ZHCC 292300Z 25002MPS 210V280 CAVOK 17/04 Q1003 NOSIG
ZHCC,2021-04-30 00:00,ZHCC 300000Z 25003MPS 200V320 CAVOK 20/02 Q1004 NOSIG
ZHCC,2021-04-30 01:00,ZHCC 300100Z 30003MPS 250V340 CAVOK 22/01 Q1004 NOSIG
ZHCC,2021-04-30 02:00,ZHCC 300200Z 27004MPS 230V300 CAVOK 23/05 Q1002 NOSIG
ZHCC,2021-04-30 03:00,ZHCC 300300Z 26005MPS 220V290 CAVOK 26/06 Q1002 NOSIG
ZHCC,2021-04-30 04:00,ZHCC 300400Z 24005MPS 200V280 CAVOK 29/06 Q1001 BECMG TL0540 31008MPS
ZHCC,2021-04-30 05:00,ZHCC 300500Z 28009G14MPS 250V310 CAVOK 31/04 Q1001 NOSIG
ZHCC,2021-04-30 06:00,ZHCC 300600Z 28013G18MPS CAVOK 31/04 Q1001 NOSIG
ZHCC,2021-04-30 07:00,ZHCC 300700Z 28012MPS 260V320 CAVOK 32/03 Q1000 NOSIG
ZHCC,2021-04-30 08:00,ZHCC 300800Z 30012G17MPS 9999 FEW040 31/02 Q1001 NOSIG
ZHCC,2021-04-30 09:00,ZHCC 300900Z 02007MPS 330V040 CAVOK 27/07 Q1002 NOSIG
ZHCC,2021-04-30 10:00,ZHCC 301000Z 02007MPS CAVOK 24/09 Q1004 NOSIG
ZHCC,2021-04-30 11:00,ZHCC 301100Z 03006MPS CAVOK 22/08 Q1006 NOSIG
ZHCC,2021-04-30 12:00,ZHCC 301200Z 04009G15MPS 360V070 CAVOK 21/06 Q1008 NOSIG
ZHCC,2021-04-30 13:00,ZHCC 301300Z 03008MPS CAVOK 19/05 Q1010 NOSIG
ZHCC,2021-04-30 14:00,ZHCC 301400Z 04006MPS CAVOK 18/04 Q1011 NOSIG
ZHCC,2021-04-30 15:00,ZHCC 301500Z 04005MPS 010V080 CAVOK 17/04 Q1012 NOSIG
ZHCC,2021-04-30 16:00,ZHCC 301600Z 04004MPS CAVOK 16/04 Q1013 NOSIG
ZHCC,2021-04-30 17:00,ZHCC 301700Z 04002MPS 350V080 CAVOK 15/04 Q1013 NOSIG
ZHCC,2021-04-30 18:00,ZHCC 301800Z VRB01MPS CAVOK 14/04 Q1013 NOSIG
ZHCC,2021-04-30 19:00,ZHCC 301900Z 30002MPS CAVOK 12/05 Q1013 NOSIG
ZHCC,2021-04-30 20:00,ZHCC 302000Z VRB01MPS CAVOK 11/05 Q1013 NOSIG
ZHCC,2021-04-30 21:00,ZHCC 302100Z VRB01MPS CAVOK 10/05 Q1013 NOSIG
ZHCC,2021-04-30 22:00,ZHCC 302200Z 25002MPS CAVOK 12/05 Q1014 NOSIG
ZHCC,2021-04-30 23:00,ZHCC 302300Z VRB01MPS CAVOK 14/07 Q1014 NOSIG
ZHCC,2021-05-01 00:00,ZHCC 010000Z 21003MPS 160V250 CAVOK 17/03 Q1014 NOSIG
ZHCC,2021-05-01 01:00,ZHCC 010100Z 21004MPS 160V270 CAVOK 18/01 Q1014 NOSIG
ZHCC,2021-05-01 02:00,ZHCC 010200Z 19004MPS 130V260 CAVOK 21/00 Q1013 NOSIG
ZHCC,2021-05-01 03:00,ZHCC 010300Z 19003MPS 120V250 CAVOK 22/02 Q1013 NOSIG
ZHCC,2021-05-01 04:00,ZHCC 010400Z 17003MPS 110V220 CAVOK 23/04 Q1011 NOSIG
ZHCC,2021-05-01 05:00,ZHCC 010500Z 21005MPS 130V260 CAVOK 24/05 Q1011 NOSIG
ZHCC,2021-05-01 06:00,ZHCC 010600Z 17004MPS 110V250 CAVOK 25/07 Q1010 NOSIG
ZHCC,2021-05-01 07:00,ZHCC 010700Z 17004MPS 100V230 CAVOK 25/08 Q1008 NOSIG
ZHCC,2021-05-01 08:00,ZHCC 010800Z 18003MPS 120V230 CAVOK 25/09 Q1008 NOSIG
ZHCC,2021-05-01 09:00,ZHCC 010900Z 16003MPS 100V250 CAVOK 25/10 Q1007 NOSIG
ZHCC,2021-05-01 10:00,ZHCC 011000Z 14003MPS 110V190 CAVOK 24/11 Q1008 NOSIG
ZHCC,2021-05-01 11:00,ZHCC 011100Z 12003MPS CAVOK 22/11 Q1009 NOSIG
ZHCC,2021-05-01 12:00,ZHCC 011200Z 11004MPS CAVOK 19/11 Q1010 NOSIG
ZHCC,2021-05-01 13:00,ZHCC 011300Z 08005MPS CAVOK 20/12 Q1012 NOSIG
ZHCC,2021-05-01 14:00,ZHCC 011400Z 06006MPS CAVOK 20/11 Q1013 NOSIG
ZHCC,2021-05-01 15:00,ZHCC 011500Z 07006MPS CAVOK 20/10 Q1014 NOSIG
ZHCC,2021-05-01 16:00,ZHCC 011600Z 07006MPS CAVOK 19/09 Q1015 NOSIG
ZHCC,2021-05-01 17:00,ZHCC 011700Z 07006MPS CAVOK 18/09 Q1016 NOSIG
ZHCC,2021-05-01 18:00,ZHCC 011800Z 06004MPS CAVOK 17/09 Q1017 NOSIG
ZHCC,2021-05-01 19:00,ZHCC 011900Z 06003MPS CAVOK 17/08 Q1017 NOSIG
ZHCC,2021-05-01 20:00,ZHCC 012000Z 03005MPS CAVOK 17/08 Q1018 NOSIG
ZHCC,2021-05-01 21:00,ZHCC 012100Z 04005MPS 010V070 CAVOK 15/07 Q1019 NOSIG
ZHCC,2021-05-01 22:00,ZHCC 012200Z 06005MPS 020V090 CAVOK 14/05 Q1021 NOSIG
ZHCC,2021-05-01 23:00,ZHCC 012300Z 05004MPS CAVOK 14/05 Q1022 NOSIG
ZHCC,2021-05-02 00:00,ZHCC 020000Z 07005MPS 040V100 CAVOK 15/03 Q1023 NOSIG
ZHCC,2021-05-02 01:00,ZHCC 020100Z 10005MPS 070V130 CAVOK 17/03 Q1023 NOSIG
ZHCC,2021-05-02 02:00,ZHCC 020200Z 08005MPS 020V120 CAVOK 17/02 Q1023 NOSIG
ZHCC,2021-05-02 03:00,ZHCC 020300Z 09006MPS 030V130 CAVOK 19/M01 Q1022 NOSIG
ZHCC,2021-05-02 04:00,ZHCC 020400Z 10005MPS 080V140 CAVOK 19/M02 Q1021 NOSIG
ZHCC,2021-05-02 05:00,ZHCC 020500Z 10003MPS 050V150 CAVOK 19/01 Q1021 NOSIG
ZHCC,2021-05-02 06:00,ZHCC 020600Z 09004MPS 060V120 CAVOK 19/00 Q1020 NOSIG
ZHCC,2021-05-02 07:00,ZHCC 020700Z 10005MPS CAVOK 19/01 Q1019 NOSIG
ZHCC,2021-05-02 08:00,ZHCC 020800Z 10005MPS 070V140 CAVOK 19/01 Q1018 NOSIG
ZHCC,2021-05-02 09:00,ZHCC 020900Z 09005MPS CAVOK 19/01 Q1017 NOSIG
ZHCC,2021-05-02 10:00,ZHCC 021000Z 11004MPS CAVOK 18/03 Q1017 NOSIG
ZHCC,2021-05-02 11:00,ZHCC 021100Z 09003MPS CAVOK 18/04 Q1017 NOSIG
ZHCC,2021-05-02 12:00,ZHCC 021200Z 11002MPS 080V140 CAVOK 17/04 Q1017 NOSIG
ZHCC,2021-05-02 13:00,ZHCC 021300Z 05002MPS 010V100 CAVOK 18/04 Q1018 NOSIG
ZHCC,2021-05-02 14:00,ZHCC 021400Z 05002MPS 360V100 CAVOK 18/04 Q1017 NOSIG
ZHCC,2021-05-02 15:00,ZHCC 021500Z VRB01MPS CAVOK 18/03 Q1017 NOSIG
ZHCC,2021-05-02 16:00,ZHCC 021600Z 08003MPS CAVOK 18/04 Q1015 NOSIG
ZHCC,2021-05-02 17:00,ZHCC 021700Z 08003MPS CAVOK 17/04 Q1015 NOSIG
ZHCC,2021-05-02 18:00,ZHCC 021800Z 12003MPS 100V160 CAVOK 16/06 Q1014 NOSIG
ZHCC,2021-05-02 19:00,ZHCC 021900Z 11001MPS CAVOK 16/06 Q1013 NOSIG
ZHCC,2021-05-02 20:00,ZHCC 022000Z 12002MPS CAVOK 15/06 Q1012 NOSIG
ZHCC,2021-05-02 21:00,ZHCC 022100Z 07002MPS CAVOK 16/06 Q1012 NOSIG
ZHCC,2021-05-02 22:00,ZHCC 022200Z 07003MPS 050V120 CAVOK 15/06 Q1012 NOSIG
ZHCC,2021-05-02 23:00,ZHCC 022300Z VRB01MPS CAVOK 15/06 Q1012 NOSIG
ZHCC,2021-05-03 00:00,ZHCC 030000Z 03002MPS 360V080 CAVOK 15/06 Q1012 NOSIG
ZHCC,2021-05-03 01:00,ZHCC 030100Z VRB01MPS CAVOK 16/06 Q1011 NOSIG
ZHCC,2021-05-03 02:00,ZHCC 030200Z 31002MPS 290V350 7000 -SHRA FEW040CB BKN046 13/09 Q1012 NOSIG
ZHCC,2021-05-03 03:00,ZHCC 030300Z VRB01MPS 7000 -SHRA FEW040CB BKN046 13/10 Q1012 NOSIG
ZHCC,2021-05-03 04:00,ZHCC 030400Z 27002MPS 6000 -SHRA FEW033CB BKN040 12/10 Q1011 NOSIG
ZHCC,2021-05-03 05:00,ZHCC 030500Z VRB01MPS 3000 -SHRA BR FEW033CB BKN040 12/11 Q1010 NOSIG
ZHCC,2021-05-03 06:00,ZHCC 030600Z 15002MPS 110V200 6000 BKN040 13/11 Q1009 NOSIG
ZHCC,2021-05-03 07:00,ZHCC 030700Z 15002MPS 060V210 6000 FEW007 OVC040 14/12 Q1008 NOSIG
ZHCC,2021-05-03 08:00,ZHCC 030800Z 13002MPS 080V190 6000 NSC 15/12 Q1008 NOSIG
ZHCC,2021-05-03 09:00,ZHCC 030900Z 17002MPS 100V210 8000 NSC 15/12 Q1007 NOSIG
ZHCC,2021-05-03 10:00,ZHCC 031000Z 16002MPS 090V220 4000 BR NSC 15/12 Q1008 NOSIG
ZHCC,2021-05-03 11:00,ZHCC 031100Z 11002MPS 090V150 3000 BR NSC 14/12 Q1008 NOSIG
ZHCC,2021-05-03 12:00,ZHCC 031200Z VRB01MPS 4000 BR NSC 13/12 Q1008 NOSIG
ZHCC,2021-05-03 13:00,ZHCC 031300Z VRB01MPS 4000 BR NSC 13/12 Q1009 NOSIG
ZHCC,2021-05-03 14:00,ZHCC 031400Z VRB01MPS 4000 BR NSC 13/12 Q1010 NOSIG
ZHCC,2021-05-03 15:00,ZHCC 031500Z VRB01MPS 3000 BR NSC 12/12 Q1010 NOSIG
ZHCC,2021-05-03 16:00,ZHCC 031600Z 11001MPS 3000 BR NSC 12/12 Q1011 NOSIG
ZHCC,2021-05-03 17:00,ZHCC 031700Z 36002MPS 3000 BR NSC 13/12 Q1010 NOSIG
ZHCC,2021-05-03 18:00,ZHCC 031800Z 29001MPS 3000 BR NSC 12/11 Q1010 NOSIG
ZHCC,2021-05-03 19:00,ZHCC 031900Z 28001MPS 3000 BR NSC 12/11 Q1010 NOSIG
ZHCC,2021-05-03 20:00,ZHCC 032000Z 32004MPS 5000 BR NSC 14/12 Q1011 NOSIG
ZHCC,2021-05-03 21:00,ZHCC 032100Z 31002MPS 5000 BR NSC 13/12 Q1011 NOSIG
ZHCC,2021-05-03 22:00,ZHCC 032200Z 30002MPS 5000 BR NSC 15/12 Q1012 NOSIG
ZHCC,2021-05-03 23:00,ZHCC 032300Z 30003MPS 8000 NSC 18/12 Q1013 NOSIG
ZHCC,2021-05-04 00:00,ZHCC 040000Z 32003MPS CAVOK 21/09 Q1014 NOSIG
ZHCC,2021-05-04 01:00,ZHCC 040100Z 35005MPS CAVOK 23/06 Q1015 NOSIG
ZHCC,2021-05-04 02:00,ZHCC 040200Z 01004MPS 330V050 CAVOK 24/07 Q1015 NOSIG
ZHCC,2021-05-04 03:00,ZHCC 040300Z 04004MPS 360V070 CAVOK 24/08 Q1015 NOSIG
ZHCC,2021-05-04 04:00,ZHCC 040400Z 30005MPS CAVOK 25/01 Q1014 NOSIG
ZHCC,2021-05-04 05:00,ZHCC 040500Z 33007MPS 290V010 CAVOK 27/M01 Q1014 NOSIG
ZHCC,2021-05-04 06:00,ZHCC 040600Z 29007MPS 250V320 CAVOK 26/M03 Q1013 NOSIG
ZHCC,2021-05-04 07:00,ZHCC 040700Z 30007MPS CAVOK 27/M01 Q1013 NOSIG
ZHCC,2021-05-04 08:00,ZHCC 040800Z 30009MPS 260V320 CAVOK 27/M04 Q1012 NOSIG
ZHCC,2021-05-04 09:00,ZHCC 040900Z 28007G12MPS CAVOK 26/M03 Q1012 NOSIG
ZHCC,2021-05-04 10:00,ZHCC 041000Z 28005MPS 240V300 CAVOK 25/M03 Q1012 NOSIG
ZHCC,2021-05-04 11:00,ZHCC 041100Z 29004MPS CAVOK 23/M03 Q1013 NOSIG
ZHCC,2021-05-04 12:00,ZHCC 041200Z 27002MPS 240V300 CAVOK 21/M02 Q1014 NOSIG
ZHCC,2021-05-04 13:00,ZHCC 041300Z 25002MPS 220V310 CAVOK 20/M03 Q1015 NOSIG
ZHCC,2021-05-04 14:00,ZHCC 041400Z VRB01MPS CAVOK 16/03 Q1016 NOSIG
ZHCC,2021-05-04 15:00,ZHCC 041500Z 30003MPS CAVOK 15/M01 Q1016 NOSIG
ZHCC,2021-05-04 16:00,ZHCC 041600Z 23003MPS CAVOK 17/M03 Q1016 NOSIG
ZHCC,2021-05-04 17:00,ZHCC 041700Z 28002MPS CAVOK 14/M01 Q1016 NOSIG
ZHCC,2021-05-04 18:00,ZHCC 041800Z 00000MPS CAVOK 12/00 Q1016 NOSIG
ZHCC,2021-05-04 19:00,ZHCC 041900Z 27001MPS CAVOK 11/03 Q1016 NOSIG
ZHCC,2021-05-04 20:00,ZHCC 042000Z 25003MPS CAVOK 13/M00 Q1016 NOSIG
ZHCC,2021-05-04 21:00,ZHCC 042100Z 25002MPS CAVOK 15/M01 Q1016 NOSIG
ZHCC,2021-05-04 22:00,ZHCC 042200Z 26002MPS CAVOK 13/01 Q1016 NOSIG
ZHCC,2021-05-04 23:00,ZHCC 042300Z 26003MPS CAVOK 17/02 Q1017 NOSIG
ZHCC,2021-05-05 00:00,ZHCC 050000Z 26003MPS CAVOK 20/02 Q1018 NOSIG
ZHCC,2021-05-05 01:00,ZHCC 050100Z 26003MPS 220V290 9999 FEW040 23/02 Q1018 NOSIG
ZHCC,2021-05-05 02:00,ZHCC 050200Z 24003MPS 200V310 CAVOK 26/M01 Q1018 NOSIG
ZHCC,2021-05-05 03:00,ZHCC 050300Z VRB02MPS CAVOK 27/M03 Q1017 NOSIG
ZHCC,2021-05-05 04:00,ZHCC 050400Z VRB02MPS CAVOK 28/M04 Q1016 NOSIG
ZHCC,2021-05-05 05:00,ZHCC 050500Z 22003MPS 160V300 CAVOK 28/M03 Q1015 NOSIG
ZHCC,2021-05-05 06:00,ZHCC 050600Z 18004MPS 120V250 CAVOK 28/M01 Q1014 NOSIG
ZHCC,2021-05-05 07:00,ZHCC 050700Z 18004MPS 120V230 CAVOK 28/M00 Q1013 NOSIG
ZHCC,2021-05-05 08:00,ZHCC 050800Z 19005G10MPS 150V250 CAVOK 27/M01 Q1012 NOSIG
ZHCC,2021-05-05 09:00,ZHCC 050900Z 17005G10MPS 110V240 CAVOK 26/03 Q1012 NOSIG
ZHCC,2021-05-05 10:00,ZHCC 051000Z 18005G11MPS 140V240 CAVOK 25/00 Q1012 NOSIG
ZHCC,2021-05-05 11:00,ZHCC 051100Z 20004MPS 150V250 CAVOK 24/02 Q1012 NOSIG
ZHCC,2021-05-05 12:00,ZHCC 051200Z 19003MPS 150V250 CAVOK 22/02 Q1012 NOSIG
ZHCC,2021-05-05 13:00,ZHCC 051300Z 19003MPS 150V240 CAVOK 22/03 Q1013 NOSIG
ZHCC,2021-05-05 14:00,ZHCC 051400Z 20002MPS 150V240 CAVOK 21/05 Q1013 NOSIG
ZHCC,2021-05-05 15:00,ZHCC 051500Z 20002MPS 160V290 CAVOK 20/05 Q1013 NOSIG
ZHCC,2021-05-05 16:00,ZHCC 051600Z 19003MPS 160V250 CAVOK 20/05 Q1012 NOSIG
ZHCC,2021-05-05 17:00,ZHCC 051700Z 20003MPS 150V240 CAVOK 20/05 Q1011 NOSIG
ZHCC,2021-05-05 18:00,ZHCC 051800Z 22004MPS 180V250 CAVOK 20/06 Q1011 NOSIG
ZHCC,2021-05-05 19:00,ZHCC 051900Z 21003MPS 160V240 CAVOK 19/08 Q1010 NOSIG
ZHCC,2021-05-05 20:00,ZHCC 052000Z 19002MPS 160V240 CAVOK 18/07 Q1009 NOSIG
ZHCC,2021-05-05 21:00,ZHCC 052100Z 20002MPS 120V250 CAVOK 17/08 Q1009 NOSIG
ZHCC,2021-05-05 22:00,ZHCC 052200Z VRB01MPS CAVOK 16/09 Q1009 NOSIG
ZHCC,2021-05-05 23:00,ZHCC 052300Z VRB01MPS CAVOK 17/09 Q1009 NOSIG
ZHCC,2021-05-06 00:00,ZHCC 060000Z 21003MPS 150V240 CAVOK 20/10 Q1009 NOSIG
ZHCC,2021-05-06 01:00,ZHCC 060100Z 21002MPS 160V250 CAVOK 23/11 Q1009 NOSIG
ZHCC,2021-05-06 02:00,ZHCC 060200Z 20003MPS 160V240 CAVOK 24/11 Q1009 NOSIG
ZHCC,2021-05-06 03:00,ZHCC 060300Z 21003MPS 160V250 CAVOK 28/11 Q1008 NOSIG
ZHCC,2021-05-06 04:00,ZHCC 060400Z 17004MPS 120V210 CAVOK 28/13 Q1007 NOSIG
ZHCC,2021-05-06 05:00,ZHCC 060500Z 19005MPS 120V240 CAVOK 29/13 Q1006 NOSIG
ZHCC,2021-05-06 06:00,ZHCC 060600Z 20005G10MPS 150V250 CAVOK 30/12 Q1006 NOSIG
ZHCC,2021-05-06 07:00,ZHCC 060700Z 19005MPS 130V230 CAVOK 30/12 Q1005 NOSIG
ZHCC,2021-05-06 08:00,ZHCC 060800Z 21006G12MPS 150V250 CAVOK 29/13 Q1004 NOSIG
ZHCC,2021-05-06 09:00,ZHCC 060900Z 21005MPS 170V250 CAVOK 29/14 Q1004 NOSIG
ZHCC,2021-05-06 10:00,ZHCC 061000Z 21005G10MPS 170V240 CAVOK 27/14 Q1004 NOSIG
ZHCC,2021-05-06 11:00,ZHCC 061100Z 20004MPS 160V240 CAVOK 26/14 Q1005 NOSIG
ZHCC,2021-05-06 12:00,ZHCC 061200Z 20004G09MPS 160V250 CAVOK 25/14 Q1005 NOSIG
ZHCC,2021-05-06 13:00,ZHCC 061300Z 21004MPS 160V260 CAVOK 24/15 Q1006 NOSIG
ZHCC,2021-05-06 14:00,ZHCC 061400Z 21003MPS 180V240 CAVOK 23/15 Q1007 NOSIG
ZHCC,2021-05-06 15:00,ZHCC 061500Z 22002MPS 190V250 CAVOK 22/15 Q1008 BECMG TL1640 31006MPS
ZHCC,2021-05-06 16:00,ZHCC 061600Z 23003MPS CAVOK 23/13 Q1008 NOSIG
ZHCC,2021-05-06 17:00,ZHCC 061700Z 29002MPS CAVOK 20/13 Q1008 NOSIG
ZHCC,2021-05-06 18:00,ZHCC 061800Z 30006MPS CAVOK 26/M04 Q1008 NOSIG
ZHCC,2021-05-06 19:00,ZHCC 061900Z 30006G12MPS CAVOK 25/M08 Q1009 NOSIG
ZHCC,2021-05-06 20:00,ZHCC 062000Z 29007MPS 260V320 CAVOK 23/M13 Q1010 NOSIG
ZHCC,2021-05-06 21:00,ZHCC 062100Z 29005MPS CAVOK 21/M12 Q1011 NOSIG
ZHCC,2021-05-06 22:00,ZHCC 062200Z 30004MPS CAVOK 19/M09 Q1013 NOSIG
ZHCC,2021-05-06 23:00,ZHCC 062300Z 32004MPS CAVOK 20/M09 Q1014 NOSIG
ZHCC,2021-05-07 00:00,ZHCC 070000Z 33004MPS CAVOK 21/M06 Q1015 NOSIG
ZHCC,2021-05-07 01:00,ZHCC 070100Z 31004MPS 270V020 CAVOK 23/M07 Q1015 NOSIG
ZHCC,2021-05-07 02:00,ZHCC 070200Z 33004G09MPS 270V360 CAVOK 23/M07 Q1015 NOSIG
ZHCC,2021-05-07 03:00,ZHCC 070300Z 30006MPS 260V330 CAVOK 24/M06 Q1015 NOSIG
ZHCC,2021-05-07 04:00,ZHCC 070400Z 27004MPS 210V330 CAVOK 25/M06 Q1014 NOSIG
ZHCC,2021-05-07 05:00,ZHCC 070500Z 26004MPS 220V290 CAVOK 26/M05 Q1013 NOSIG
ZHCC,2021-05-07 06:00,ZHCC 070600Z VRB02MPS CAVOK 27/M06 Q1011 NOSIG
ZHCC,2021-05-07 07:00,ZHCC 070700Z 21003G09MPS 150V260 CAVOK 27/M03 Q1010 NOSIG
ZHCC,2021-05-07 08:00,ZHCC 070800Z 18004MPS 110V230 CAVOK 27/M03 Q1009 NOSIG
ZHCC,2021-05-07 09:00,ZHCC 070900Z 18004G09MPS 120V210 CAVOK 26/M00 Q1009 NOSIG
ZHCC,2021-05-07 10:00,ZHCC 071000Z 21004MPS 160V240 CAVOK 26/M00 Q1008 NOSIG
ZHCC,2021-05-07 11:00,ZHCC 071100Z 19004MPS 150V250 CAVOK 24/03 Q1008 NOSIG
ZHCC,2021-05-07 12:00,ZHCC 071200Z 19003MPS 150V230 CAVOK 22/05 Q1008 NOSIG
ZHCC,2021-05-07 13:00,ZHCC 071300Z 20002MPS 170V260 CAVOK 21/06 Q1008 NOSIG
ZHCC,2021-05-07 14:00,ZHCC 071400Z 23002MPS 190V280 CAVOK 21/06 Q1008 NOSIG
ZHCC,2021-05-07 15:00,ZHCC 071500Z 26002MPS 220V300 CAVOK 20/06 Q1008 NOSIG
ZHCC,2021-05-07 16:00,ZHCC 071600Z 22002MPS 190V250 CAVOK 19/08 Q1007 NOSIG
ZHCC,2021-05-07 17:00,ZHCC 071700Z 23002MPS 180V260 CAVOK 18/08 Q1007 NOSIG
ZHCC,2021-05-07 18:00,ZHCC 071800Z VRB01MPS CAVOK 13/08 Q1006 NOSIG
ZHCC,2021-05-07 19:00,ZHCC 071900Z VRB01MPS CAVOK 13/08 Q1005 NOSIG
ZHCC,2021-05-07 20:00,ZHCC 072000Z VRB01MPS CAVOK 13/08 Q1005 NOSIG
ZHCC,2021-05-07 21:00,ZHCC 072100Z 25002MPS CAVOK 15/06 Q1005 NOSIG
ZHCC,2021-05-07 22:00,ZHCC 072200Z VRB01MPS CAVOK 13/07 Q1005 NOSIG
ZHCC,2021-05-07 23:00,ZHCC 072300Z 22002MPS 200V260 CAVOK 19/05 Q1004 NOSIG
ZHCC,2021-05-08 00:00,ZHCC 080000Z 24002MPS 210V270 CAVOK 23/05 Q1005 NOSIG
ZHCC,2021-05-08 01:00,ZHCC 080100Z 21002MPS 140V260 CAVOK 26/07 Q1004 NOSIG
ZHCC,2021-05-08 02:00,ZHCC 080200Z 19002MPS 130V250 CAVOK 28/08 Q1004 NOSIG
ZHCC,2021-05-08 03:00,ZHCC 080300Z 17002MPS 110V220 CAVOK 30/11 Q1004 NOSIG
ZHCC,2021-05-08 04:00,ZHCC 080400Z VRB03MPS CAVOK 31/13 Q1003 NOSIG
ZHCC,2021-05-08 05:00,ZHCC 080500Z 18003MPS 100V240 CAVOK 33/13 Q1002 NOSIG
ZHCC,2021-05-08 06:00,ZHCC 080600Z 18004MPS 120V240 CAVOK 32/14 Q1001 NOSIG
ZHCC,2021-05-08 07:00,ZHCC 080700Z 18003MPS 110V230 CAVOK 33/14 Q1001 NOSIG
ZHCC,2021-05-08 08:00,ZHCC 080800Z 19004MPS 140V240 CAVOK 33/17 Q1000 NOSIG
ZHCC,2021-05-08 09:00,ZHCC 080900Z 19004G09MPS 140V240 CAVOK 32/18 Q1000 NOSIG
ZHCC,2021-05-08 10:00,ZHCC 081000Z 18004MPS 110V210 CAVOK 30/18 Q1001 NOSIG
ZHCC,2021-05-08 11:00,ZHCC 081100Z 19003MPS 110V230 CAVOK 29/19 Q1001 NOSIG
ZHCC,2021-05-08 12:00,ZHCC 081200Z 20003MPS 150V250 CAVOK 27/18 Q1001 NOSIG
ZHCC,2021-05-08 13:00,ZHCC 081300Z 20002MPS 160V260 CAVOK 26/18 Q1002 NOSIG
ZHCC,2021-05-08 14:00,ZHCC 081400Z 01003MPS CAVOK 26/18 Q1003 NOSIG
ZHCC,2021-05-08 15:00,ZHCC 081500Z 13002MPS CAVOK 24/18 Q1003 NOSIG
ZHCC,2021-05-08 16:00,ZHCC 081600Z 01004MPS CAVOK 23/17 Q1004 NOSIG
ZHCC,2021-05-08 17:00,ZHCC 081700Z 01004MPS CAVOK 22/13 Q1004 NOSIG
ZHCC,2021-05-08 18:00,ZHCC 081800Z 01004MPS CAVOK 21/12 Q1004 NOSIG
ZHCC,2021-05-08 19:00,ZHCC 081900Z 01004MPS 340V040 CAVOK 21/11 Q1004 NOSIG
ZHCC,2021-05-08 20:00,ZHCC 082000Z 01002MPS CAVOK 20/10 Q1004 NOSIG
ZHCC,2021-05-08 21:00,ZHCC 082100Z 03004MPS 360V060 CAVOK 20/09 Q1005 NOSIG
ZHCC,2021-05-08 22:00,ZHCC 082200Z 03004G09MPS 360V060 CAVOK 19/08 Q1005 NOSIG
ZHCC,2021-05-08 23:00,ZHCC 082300Z 03003MPS 360V070 CAVOK 20/09 Q1006 NOSIG
ZHCC,2021-05-09 00:00,ZHCC 090000Z 36005MPS CAVOK 21/10 Q1006 NOSIG
ZHCC,2021-05-09 01:00,ZHCC 090100Z VRB04G13MPS CAVOK 22/12 Q1007 NOSIG
ZHCC,2021-05-09 02:00,ZHCC 090200Z VRB03MPS CAVOK 24/13 Q1007 NOSIG
ZHCC,2021-05-09 03:00,ZHCC 090300Z 04003MPS 350V080 8000 NSC 25/14 Q1007 NOSIG
ZHCC,2021-05-09 04:00,ZHCC 090400Z 05002MPS 350V120 8000 NSC 26/15 Q1006 NOSIG
ZHCC,2021-05-09 05:00,ZHCC 090500Z VRB01MPS 8000 NSC 27/15 Q1005 NOSIG
ZHCC,2021-05-09 06:00,ZHCC 090600Z 07003MPS 350V120 8000 NSC 28/16 Q1004 NOSIG
ZHCC,2021-05-09 07:00,ZHCC 090700Z VRB03MPS 8000 NSC 29/16 Q1003 NOSIG
ZHCC,2021-05-09 08:00,ZHCC 090800Z 14002MPS 080V220 8000 NSC 31/17 Q1002 NOSIG
ZHCC,2021-05-09 09:00,ZHCC 090900Z 16003MPS 100V220 8000 NSC 30/19 Q1001 NOSIG
ZHCC,2021-05-09 10:00,ZHCC 091000Z 15003MPS 080V210 CAVOK 29/20 Q1001 NOSIG
ZHCC,2021-05-09 11:00,ZHCC 091100Z 13002MPS 100V170 CAVOK 28/21 Q1001 NOSIG
ZHCC,2021-05-09 12:00,ZHCC 091200Z 13002MPS 100V170 CAVOK 27/21 Q1001 NOSIG
ZHCC,2021-05-09 13:00,ZHCC 091300Z 12002MPS CAVOK 25/21 Q1001 NOSIG
ZHCC,2021-05-09 14:00,ZHCC 091400Z VRB01MPS CAVOK 24/21 Q1002 NOSIG
ZHCC,2021-05-09 15:00,ZHCC 091500Z VRB01MPS CAVOK 25/21 Q1002 NOSIG
ZHCC,2021-05-09 16:00,ZHCC 091600Z VRB01MPS CAVOK 25/22 Q1002 NOSIG
ZHCC,2021-05-09 17:00,ZHCC 091700Z 19002MPS 130V250 CAVOK 25/21 Q1001 NOSIG
ZHCC,2021-05-09 18:00,ZHCC 091800Z VRB01MPS CAVOK 24/20 Q1002 NOSIG
ZHCC,2021-05-09 19:00,ZHCC 091900Z 10002MPS CAVOK 22/20 Q1002 NOSIG
ZHCC,2021-05-09 20:00,ZHCC 092000Z 04004MPS 5000 BR NSC 21/19 Q1002 NOSIG
ZHCC,2021-05-09 21:00,ZHCC 092100Z 04004MPS 5000 BR NSC 21/16 Q1003 NOSIG
ZHCC,2021-05-09 22:00,ZHCC 092200Z 03005MPS 7000 NSC 21/14 Q1004 NOSIG
ZHCC,2021-05-09 23:00,ZHCC 092300Z 04006MPS 7000 NSC 22/13 Q1005 NOSIG
ZHCC,2021-05-10 00:00,ZHCC 100000Z 04006MPS 360V080 8000 NSC 23/11 Q1006 NOSIG
ZHCC,2021-05-10 01:00,ZHCC 100100Z 04008MPS 010V080 8000 NSC 24/12 Q1006 NOSIG
ZHCC,2021-05-10 02:00,ZHCC 100200Z 03008MPS 8000 NSC 23/08 Q1007 NOSIG
ZHCC,2021-05-10 03:00,ZHCC 100300Z 03008G15MPS 360V070 8000 NSC 24/08 Q1007 NOSIG
ZHCC,2021-05-10 04:00,ZHCC 100400Z 02006G12MPS 320V070 8000 NSC 26/10 Q1007 NOSIG
ZHCC,2021-05-10 05:00,ZHCC 100500Z 05007MPS 020V080 8000 NSC 26/10 Q1007 NOSIG
ZHCC,2021-05-10 06:00,ZHCC 100600Z 02007MPS 350V050 8000 NSC 26/10 Q1007 NOSIG
ZHCC,2021-05-10 07:00,ZHCC 100700Z 05007MPS 010V080 CAVOK 26/10 Q1007 NOSIG
ZHCC,2021-05-10 08:00,ZHCC 100800Z 03006MPS 360V060 CAVOK 26/11 Q1006 NOSIG
ZHCC,2021-05-10 09:00,ZHCC 100900Z 04008MPS CAVOK 24/10 Q1005 NOSIG
ZHCC,2021-05-10 10:00,ZHCC 101000Z 03005MPS 350V070 CAVOK 24/11 Q1007 NOSIG
ZHCC,2021-05-10 11:00,ZHCC 101100Z 05006MPS 020V090 CAVOK 23/11 Q1008 NOSIG
ZHCC,2021-05-10 12:00,ZHCC 101200Z 02005MPS 350V050 CAVOK 22/12 Q1008 NOSIG
ZHCC,2021-05-10 13:00,ZHCC 101300Z 02005MPS 340V060 CAVOK 22/11 Q1009 NOSIG
ZHCC,2021-05-10 14:00,ZHCC 101400Z 02006MPS 350V060 CAVOK 21/11 Q1009 NOSIG
ZHCC,2021-05-10 15:00,ZHCC 101500Z 03006MPS 010V070 CAVOK 21/10 Q1009 NOSIG
ZHCC,2021-05-10 16:00,ZHCC 101600Z 03006MPS 010V070 CAVOK 20/11 Q1009 NOSIG
ZHCC,2021-05-10 17:00,ZHCC 101700Z 02006G11MPS 350V070 CAVOK 20/12 Q1009 NOSIG
ZHCC,2021-05-10 18:00,ZHCC 101800Z 02005MPS 350V060 CAVOK 19/12 Q1009 NOSIG
ZHCC,2021-05-10 19:00,ZHCC 101900Z 03007MPS 360V060 9999 BKN040 19/12 Q1010 NOSIG
ZHCC,2021-05-10 20:00,ZHCC 102000Z 02007G12MPS 350V050 9999 BKN040 19/12 Q1010 NOSIG
ZHCC,2021-05-10 21:00,ZHCC 102100Z 03006MPS 340V060 9999 BKN040 18/12 Q1010 NOSIG
ZHCC,2021-05-10 22:00,ZHCC 102200Z 02007MPS 360V060 9999 BKN040 17/11 Q1010 NOSIG
ZHCC,2021-05-10 23:00,ZHCC 102300Z 02006MPS 9999 BKN040 17/11 Q1011 NOSIG
ZHCC,2021-05-11 00:00,ZHCC 110000Z 02005MPS 350V060 9999 BKN040 17/12 Q1012 NOSIG
ZHCC,2021-05-11 01:00,ZHCC 110100Z 01006MPS 330V050 CAVOK 18/11 Q1012 NOSIG
ZHCC,2021-05-11 02:00,ZHCC 110200Z 03006MPS 350V070 CAVOK 20/11 Q1012 NOSIG
ZHCC,2021-05-11 03:00,ZHCC 110300Z 05006MPS 020V090 CAVOK 21/11 Q1012 NOSIG
ZHCC,2021-05-11 04:00,ZHCC 110400Z 04006MPS 010V080 CAVOK 22/12 Q1011 NOSIG
ZHCC,2021-05-11 05:00,ZHCC 110500Z 02006MPS 330V060 CAVOK 24/11 Q1010 NOSIG
ZHCC,2021-05-11 06:00,ZHCC 110600Z 05005MPS 350V090 CAVOK 25/12 Q1009 NOSIG
ZHCC,2021-05-11 07:00,ZHCC 110700Z 06005MPS 020V090 CAVOK 24/12 Q1009 NOSIG
ZHCC,2021-05-11 08:00,ZHCC 110800Z 05005MPS 360V090 CAVOK 24/13 Q1008 NOSIG
ZHCC,2021-05-11 09:00,ZHCC 110900Z 08005MPS CAVOK 24/12 Q1008 NOSIG
ZHCC,2021-05-11 10:00,ZHCC 111000Z 08003MPS 030V110 CAVOK 23/12 Q1008 NOSIG
ZHCC,2021-05-11 11:00,ZHCC 111100Z 11003MPS 080V140 CAVOK 21/14 Q1008 NOSIG
ZHCC,2021-05-11 12:00,ZHCC 111200Z 09004MPS CAVOK 20/14 Q1009 NOSIG
ZHCC,2021-05-11 13:00,ZHCC 111300Z 12003MPS 7000 NSC 18/14 Q1010 NOSIG
ZHCC,2021-05-11 14:00,ZHCC 111400Z VRB01MPS 6000 NSC 17/14 Q1010 NOSIG
ZHCC,2021-05-11 15:00,ZHCC 111500Z VRB01MPS 6000 NSC 17/14 Q1010 NOSIG
ZHCC,2021-05-11 16:00,ZHCC 111600Z VRB01MPS 6000 NSC 16/13 Q1010 NOSIG
ZHCC,2021-05-11 17:00,ZHCC 111700Z VRB01MPS 5000 BR NSC 16/14 Q1009 NOSIG
ZHCC,2021-05-11 18:00,ZHCC 111800Z VRB01MPS 5000 BR NSC 16/14 Q1009 NOSIG
ZHCC,2021-05-11 19:00,ZHCC 111900Z VRB01MPS 4000 BR NSC 16/14 Q1008 NOSIG
ZHCC,2021-05-11 20:00,ZHCC 112000Z VRB01MPS 4000 BR NSC 17/15 Q1008 NOSIG
ZHCC,2021-05-11 21:00,ZHCC 112100Z 00000MPS 3000 BR NSC 15/14 Q1008 NOSIG
ZHCC,2021-05-11 22:00,ZHCC 112200Z VRB01MPS 1800 BR NSC 16/15 Q1008 BECMG TL2340 3000
ZHCC,2021-05-11 23:00,ZHCC 112300Z VRB01MPS 2000 BR NSC 18/16 Q1009 BECMG TL2340 3000
ZHCC,2021-05-12 00:00,ZHCC 120000Z 17002MPS 130V240 3000 BR NSC 19/15 Q1009 NOSIG
ZHCC,2021-05-12 01:00,ZHCC 120100Z 18002MPS 120V240 3000 HZ NSC 21/15 Q1010 NOSIG
ZHCC,2021-05-12 02:00,ZHCC 120200Z VRB01MPS 3500 HZ NSC 23/16 Q1010 NOSIG
ZHCC,2021-05-12 03:00,ZHCC 120300Z 11003MPS 080V220 3500 HZ NSC 24/15 Q1009 NOSIG
ZHCC,2021-05-12 04:00,ZHCC 120400Z 07003MPS 020V150 6000 NSC 25/14 Q1009 NOSIG
ZHCC,2021-05-12 05:00,ZHCC 120500Z 13003MPS 060V190 6000 NSC 26/15 Q1008 NOSIG
ZHCC,2021-05-12 06:00,ZHCC 120600Z 09005MPS 070V130 6000 NSC 26/14 Q1008 NOSIG
ZHCC,2021-05-12 07:00,ZHCC 120700Z 13003MPS 080V220 8000 NSC 26/14 Q1007 NOSIG
ZHCC,2021-05-12 08:00,ZHCC 120800Z 13003G08MPS 060V190 8000 NSC 26/15 Q1007 NOSIG
ZHCC,2021-05-12 09:00,ZHCC 120900Z 12004MPS 100V170 8000 NSC 25/16 Q1007 NOSIG
ZHCC,2021-05-12 10:00,ZHCC 121000Z 11005MPS 6000 NSC 24/17 Q1007 NOSIG
ZHCC,2021-05-12 11:00,ZHCC 121100Z 11004MPS 4000 HZ NSC 22/17 Q1007 NOSIG
ZHCC,2021-05-12 12:00,ZHCC 121200Z 13003MPS 100V160 5000 BR NSC 22/17 Q1008 NOSIG
ZHCC,2021-05-12 13:00,ZHCC 121300Z 14002MPS 100V210 5000 BR NSC 21/17 Q1009 NOSIG
ZHCC,2021-05-12 14:00,ZHCC 121400Z 15002MPS 090V200 5000 BR NSC 21/17 Q1009 NOSIG
ZHCC,2021-05-12 15:00,ZHCC 121500Z 18002MPS 130V240 5000 BR NSC 21/17 Q1009 NOSIG
ZHCC,2021-05-12 16:00,ZHCC 121600Z 20002MPS 160V240 4000 BR NSC 21/17 Q1009 NOSIG
ZHCC,2021-05-12 17:00,ZHCC 121700Z 19002MPS 120V250 4000 BR NSC 20/17 Q1009 NOSIG
ZHCC,2021-05-12 18:00,ZHCC 121800Z VRB01MPS 4000 BR NSC 20/17 Q1008 NOSIG
ZHCC,2021-05-12 19:00,ZHCC 121900Z 12002MPS 3500 BR NSC 20/17 Q1008 NOSIG
ZHCC,2021-05-12 20:00,ZHCC 122000Z VRB01MPS 3500 BR NSC 19/17 Q1008 NOSIG
ZHCC,2021-05-12 21:00,ZHCC 122100Z 13002MPS 3500 BR NSC 19/17 Q1008 BECMG TL2240 2000
ZHCC,2021-05-12 22:00,ZHCC 122200Z 11003MPS 2000 BR NSC 18/17 Q1008 BECMG TL2340 3000
ZHCC,2021-05-12 23:00,ZHCC 122300Z 14002MPS 110V200 2000 BR NSC 19/17 Q1009 BECMG TL0040 3000
ZHCC,2021-05-13 00:00,ZHCC 130000Z 11003MPS 3000 BR NSC 20/17 Q1009 NOSIG
ZHCC,2021-05-13 01:00,ZHCC 130100Z 11003MPS 080V150 4000 BR NSC 21/17 Q1009 NOSIG
ZHCC,2021-05-13 02:00,ZHCC 130200Z 10003MPS 050V130 4000 HZ NSC 22/17 Q1009 NOSIG
ZHCC,2021-05-13 03:00,ZHCC 130300Z 08005MPS 040V110 6000 NSC 23/17 Q1009 NOSIG
ZHCC,2021-05-13 04:00,ZHCC 130400Z 09004MPS 040V130 6000 NSC 23/17 Q1008 NOSIG
ZHCC,2021-05-13 05:00,ZHCC 130500Z 09004MPS 060V140 6000 NSC 24/17 Q1008 NOSIG
ZHCC,2021-05-13 06:00,ZHCC 130600Z 09005MPS 6000 NSC 24/17 Q1007 NOSIG
ZHCC,2021-05-13 07:00,ZHCC 130700Z 11003MPS 070V170 6000 NSC 24/16 Q1007 NOSIG
ZHCC,2021-05-13 08:00,ZHCC 130800Z 12004MPS 080V190 6000 BKN040 23/16 Q1007 NOSIG
ZHCC,2021-05-13 09:00,ZHCC 130900Z 12003MPS 090V150 7000 BKN040 23/16 Q1006 NOSIG
ZHCC,2021-05-13 10:00,ZHCC 131000Z 09005MPS 7000 BKN040 23/17 Q1006 NOSIG
ZHCC,2021-05-13 11:00,ZHCC 131100Z 12002MPS 080V200 5000 HZ BKN040 22/17 Q1007 NOSIG
ZHCC,2021-05-13 12:00,ZHCC 131200Z 12002MPS 7000 BKN040 21/17 Q1007 NOSIG
ZHCC,2021-05-13 13:00,ZHCC 131300Z 09003MPS 7000 BKN040 22/18 Q1007 NOSIG
ZHCC,2021-05-13 14:00,ZHCC 131400Z 07003MPS 030V090 7000 BKN040 22/18 Q1007 NOSIG
ZHCC,2021-05-13 15:00,ZHCC 131500Z 07003MPS 7000 BKN040 21/18 Q1007 NOSIG
ZHCC,2021-05-13 16:00,ZHCC 131600Z 08004MPS 6000 BKN040 21/19 Q1007 NOSIG
ZHCC,2021-05-13 17:00,ZHCC 131700Z 09004MPS 4000 -RA BR OVC030 21/19 Q1007 NOSIG
ZHCC,2021-05-13 18:00,ZHCC 131800Z 10004MPS 3000 -RA BR OVC030 20/19 Q1007 NOSIG
ZHCC,2021-05-13 19:00,ZHCC 131900Z 08003MPS 3000 BR OVC030 20/19 Q1006 NOSIG
ZHCC,2021-05-13 20:00,ZHCC 132000Z 09004MPS 050V110 3000 BR OVC030 20/19 Q1006 NOSIG
ZHCC,2021-05-13 21:00,ZHCC 132100Z 09003MPS 3000 BR OVC030 20/19 Q1005 NOSIG
ZHCC,2021-05-13 22:00,ZHCC 132200Z 10003MPS 070V130 2000 BR OVC030 20/19 Q1005 BECMG TL2340 3000
ZHCC,2021-05-13 23:00,ZHCC 132300Z 08003MPS 2000 BR OVC030 20/19 Q1006 BECMG TL0040 3000
ZHCC,2021-05-14 00:00,ZHCC 140000Z 11003MPS 060V120 2000 BR OVC030 20/19 Q1006 NOSIG
ZHCC,2021-05-14 01:00,ZHCC 140100Z 09003MPS 060V120 2000 BR OVC020 20/19 Q1005 NOSIG
ZHCC,2021-05-14 02:00,ZHCC 140200Z 10002MPS 050V210 2500 BR SCT008 OVC020 21/19 Q1006 BECMG TL0340 3000
ZHCC,2021-05-14 03:00,ZHCC 140300Z 05003MPS 010V090 2500 BR SCT011 OVC020 22/19 Q1005 BECMG TL0420 3000
ZHCC,2021-05-14 04:00,ZHCC 140400Z 06004MPS 010V090 3000 BR SCT015 OVC020 23/19 Q1005 NOSIG
ZHCC,2021-05-14 05:00,ZHCC 140500Z 06004MPS 030V100 6000 BKN030 24/18 Q1004 NOSIG
ZHCC,2021-05-14 06:00,ZHCC 140600Z 09004MPS 050V120 8000 BKN033 25/18 Q1003 NOSIG
ZHCC,2021-05-14 07:00,ZHCC 140700Z 06004MPS 030V100 8000 BKN033 25/18 Q1003 NOSIG
ZHCC,2021-05-14 08:00,ZHCC 140800Z 10004MPS 8000 BKN030 25/19 Q1003 NOSIG
ZHCC,2021-05-14 09:00,ZHCC 140900Z 10005MPS 8000 BKN030 24/19 Q1002 NOSIG
ZHCC,2021-05-14 10:00,ZHCC 141000Z 10005MPS 080V140 8000 FEW020 BKN030 24/19 Q1003 NOSIG
ZHCC,2021-05-14 11:00,ZHCC 141100Z 11004MPS 080V140 6000 FEW020 BKN030 23/19 Q1003 NOSIG
ZHCC,2021-05-14 12:00,ZHCC 141200Z 11003MPS 7000 FEW020 BKN030 22/20 Q1003 NOSIG
ZHCC,2021-05-14 13:00,ZHCC 141300Z 09005MPS 6000 SCT012 BKN030 22/20 Q1004 NOSIG
ZHCC,2021-05-14 14:00,ZHCC 141400Z 12003MPS 080V160 4000 -RA BR SCT011 BKN030 21/20 Q1004 NOSIG
ZHCC,2021-05-14 15:00,ZHCC 141500Z 14002MPS 100V180 4000 BR SCT011 BKN030 21/20 Q1005 NOSIG
ZHCC,2021-05-14 16:00,ZHCC 141600Z VRB01MPS 3000 -RA BR SCT011 BKN030 21/20 Q1005 NOSIG
ZHCC,2021-05-14 17:00,ZHCC 141700Z 01002MPS 340V060 3000 BR SCT011 BKN020 21/20 Q1004 NOSIG
ZHCC,2021-05-14 18:00,ZHCC 141800Z 02002MPS 350V070 3000 BR SCT011 BKN020 21/20 Q1003 NOSIG
ZHCC,2021-05-14 19:00,ZHCC 141900Z 03002MPS 360V070 3000 BR SCT011 BKN020 21/20 Q1003 NOSIG
ZHCC,2021-05-14 20:00,ZHCC 142000Z 06003MPS 030V090 3000 BR SCT011 BKN020 21/20 Q1003 NOSIG
ZHCC,2021-05-14 21:00,ZHCC 142100Z 05004MPS 3000 BR SCT011 BKN020 21/20 Q1003 NOSIG
ZHCC,2021-05-14 22:00,ZHCC 142200Z 03004MPS 360V060 1700 BR SCT010 BKN020 20/19 Q1003 NOSIG
ZHCC,2021-05-14 23:00,ZHCC 142300Z 04004MPS 010V070 2000 BR SCT010 BKN020 21/19 Q1003 NOSIG
ZHCC,2021-05-15 00:00,ZHCC 150000Z 04004MPS 010V080 2500 BR SCT011 BKN020 21/19 Q1004 BECMG TL0140 3000
ZHCC,2021-05-15 01:00,ZHCC 150100Z 04005MPS 020V080 2800 BR SCT011 BKN020 21/19 Q1004 BECMG TL0140 3000
ZHCC,2021-05-15 02:00,ZHCC 150200Z 03005MPS 360V070 3000 BR SCT013 BKN020 22/19 Q1004 NOSIG
ZHCC,2021-05-15 03:00,ZHCC 150300Z 04005MPS 010V070 3000 BR SCT015 BKN020 22/19 Q1004 NOSIG
ZHCC,2021-05-15 04:00,ZHCC 150400Z 04004MPS 010V080 3000 BR SCT015 BKN020 22/19 Q1003 NOSIG
ZHCC,2021-05-15 05:00,ZHCC 150500Z 03005MPS 340V060 3000 BR SCT015 BKN020 23/18 Q1003 NOSIG
ZHCC,2021-05-15 06:00,ZHCC 150600Z 02005MPS 350V050 4000 HZ OVC020 24/19 Q1002 NOSIG
ZHCC,2021-05-15 07:00,ZHCC 150700Z 02005MPS 340V060 4000 HZ OVC020 24/18 Q1002 NOSIG
ZHCC,2021-05-15 08:00,ZHCC 150800Z 01004MPS 340V060 4000 HZ OVC020 23/19 Q1002 NOSIG
ZHCC,2021-05-15 09:00,ZHCC 150900Z 01005MPS 340V050 3000 BR FEW010 FEW030CB BKN030 23/19 Q1002 BECMG TL1040 2500 TSRA
ZHCC,2021-05-15 10:00,ZHCC 151000Z 36004MPS 340V070 3000 BR FEW010 FEW030CB BKN030 23/19 Q1002 NOSIG
ZHCC,2021-05-15 11:00,ZHCC 151100Z 36004MPS 330V050 2500 -SHRA BR FEW010 FEW030CB BKN030 22/20 Q1003 NOSIG
ZHCC,2021-05-15 12:00,ZHCC 151200Z 36006MPS 320V030 2500 -SHRA BR FEW010 FEW030CB BKN030 21/19 Q1004 NOSIG
ZHCC,2021-05-15 13:00,ZHCC 151300Z 01008G13MPS 2500 -SHRA BR FEW010 FEW030CB BKN030 19/18 Q1006 BECMG TL1440 3000
ZHCC,2021-05-15 14:00,ZHCC 151400Z 01011G17MPS 340V040 8000 -SHRA FEW010 FEW030CB BKN030 16/15 Q1008 NOSIG
ZHCC,2021-05-15 15:00,ZHCC 151500Z 02010MPS 340V040 9999 -SHRA FEW010 FEW030CB BKN030 14/12 Q1009 NOSIG
ZHCC,2021-05-15 16:00,ZHCC 151600Z 01009G14MPS 340V040 9999 -SHRA FEW010 FEW030CB BKN030 13/11 Q1010 NOSIG
ZHCC,2021-05-15 17:00,ZHCC 151700Z 01007MPS 9999 -SHRA FEW010 FEW030CB BKN030 13/12 Q1009 NOSIG
ZHCC,2021-05-15 18:00,ZHCC 151800Z 03006G11MPS 350V060 9999 -SHRA FEW010 FEW030CB BKN030 14/12 Q1009 NOSIG
ZHCC,2021-05-15 19:00,ZHCC 151900Z 04006MPS 360V060 9999 -SHRA FEW010 FEW030CB BKN030 13/12 Q1010 NOSIG
ZHCC,2021-05-15 20:00,ZHCC 152000Z 01007G12MPS 9999 -RA SCT010 OVC030 13/11 Q1010 NOSIG
ZHCC,2021-05-15 21:00,ZHCC 152100Z 01007G12MPS 340V040 9999 SCT010 OVC030 13/11 Q1011 NOSIG
ZHCC,2021-05-15 22:00,ZHCC 152200Z 01009G14MPS 9999 SCT010 OVC030 13/10 Q1012 NOSIG
ZHCC,2021-05-15 23:00,ZHCC 152300Z 01006MPS 340V040 9999 FEW015 OVC030 13/10 Q1012 NOSIG
ZHCC,2021-05-16 00:00,ZHCC 160000Z 01007MPS 9999 FEW015 OVC040 14/10 Q1013 NOSIG
ZHCC,2021-05-16 01:00,ZHCC 160100Z 01008MPS 9999 FEW015 OVC040 15/10 Q1014 NOSIG
ZHCC,2021-05-16 02:00,ZHCC 160200Z 01009G19MPS 320V040 9999 SCT015 OVC040 15/10 Q1014 NOSIG
ZHCC,2021-05-16 03:00,ZHCC 160300Z 02009MPS 330V040 9999 SCT026 OVC040 15/09 Q1015 NOSIG
ZHCC,2021-05-16 04:00,ZHCC 160400Z 02007G12MPS 350V050 9999 SCT026 OVC040 15/09 Q1015 NOSIG
ZHCC,2021-05-16 05:00,ZHCC 160500Z 02009MPS 9999 SCT026 OVC040 17/09 Q1015 NOSIG
ZHCC,2021-05-16 06:00,ZHCC 160600Z 01007G12MPS 340V040 9999 SCT026 BKN040 18/09 Q1014 NOSIG
ZHCC,2021-05-16 07:00,ZHCC 160700Z VRB07G15MPS 9999 BKN040 17/07 Q1014 NOSIG
ZHCC,2021-05-16 08:00,ZHCC 160800Z 01006MPS 340V040 9999 BKN040 17/06 Q1014 NOSIG
ZHCC,2021-05-16 09:00,ZHCC 160900Z 01003MPS 330V060 CAVOK 18/07 Q1014 NOSIG
ZHCC,2021-05-16 10:00,ZHCC 161000Z 01004MPS CAVOK 17/08 Q1014 NOSIG
ZHCC,2021-05-16 11:00,ZHCC 161100Z 30003MPS CAVOK 17/09 Q1014 NOSIG
ZHCC,2021-05-16 12:00,ZHCC 161200Z 27002MPS CAVOK 16/10 Q1015 NOSIG
ZHCC,2021-05-16 13:00,ZHCC 161300Z 27003MPS CAVOK 16/11 Q1015 NOSIG
ZHCC,2021-05-16 14:00,ZHCC 161400Z 28003MPS CAVOK 15/11 Q1016 NOSIG
ZHCC,2021-05-16 15:00,ZHCC 161500Z 27002MPS CAVOK 14/11 Q1016 NOSIG
ZHCC,2021-05-16 16:00,ZHCC 161600Z 25002MPS CAVOK 14/11 Q1015 NOSIG
ZHCC,2021-05-16 17:00,ZHCC 161700Z 27002MPS CAVOK 13/11 Q1015 NOSIG
ZHCC,2021-05-16 18:00,ZHCC 161800Z 26002MPS CAVOK 14/11 Q1015 NOSIG
ZHCC,2021-05-16 19:00,ZHCC 161900Z VRB01MPS CAVOK 14/11 Q1014 NOSIG
ZHCC,2021-05-16 20:00,ZHCC 162000Z VRB01MPS 8000 NSC 12/11 Q1014 NOSIG
ZHCC,2021-05-16 21:00,ZHCC 162100Z VRB01MPS 5000 BR NSC 11/11 Q1014 NOSIG
ZHCC,2021-05-16 22:00,ZHCC 162200Z VRB01MPS 3500 BR NSC 11/11 Q1015 BECMG TL2340 2000
ZHCC,2021-05-16 23:00,ZHCC 162300Z VRB01MPS 4000 BR NSC 16/13 Q1015 NOSIG
ZHCC,2021-05-17 00:00,ZHCC 170000Z 19002MPS 150V240 7000 NSC 18/12 Q1016 NOSIG
ZHCC,2021-05-17 01:00,ZHCC 170100Z 34002MPS 290V030 CAVOK 20/11 Q1016 NOSIG
ZHCC,2021-05-17 02:00,ZHCC 170200Z VRB01MPS CAVOK 21/11 Q1015 NOSIG
ZHCC,2021-05-17 03:00,ZHCC 170300Z 32002MPS 280V030 CAVOK 23/09 Q1015 NOSIG
ZHCC,2021-05-17 04:00,ZHCC 170400Z VRB02G08MPS CAVOK 23/07 Q1014 NOSIG
ZHCC,2021-05-17 05:00,ZHCC 170500Z VRB02MPS CAVOK 24/07 Q1014 NOSIG
ZHCC,2021-05-17 06:00,ZHCC 170600Z VRB02MPS CAVOK 25/07 Q1013 NOSIG
ZHCC,2021-05-17 07:00,ZHCC 170700Z VRB01MPS CAVOK 26/06 Q1013 NOSIG
ZHCC,2021-05-17 08:00,ZHCC 170800Z 16002MPS 060V230 CAVOK 25/07 Q1012 NOSIG
ZHCC,2021-05-17 09:00,ZHCC 170900Z 17003MPS 100V220 CAVOK 23/11 Q1012 NOSIG
ZHCC,2021-05-17 10:00,ZHCC 171000Z 15003MPS 100V200 CAVOK 22/11 Q1012 NOSIG
ZHCC,2021-05-17 11:00,ZHCC 171100Z 15002MPS 080V210 CAVOK 21/11 Q1012 NOSIG
ZHCC,2021-05-17 12:00,ZHCC 171200Z VRB01MPS CAVOK 19/11 Q1012 NOSIG
ZHCC,2021-05-17 13:00,ZHCC 171300Z VRB01MPS CAVOK 18/12 Q1012 NOSIG
ZHCC,2021-05-17 14:00,ZHCC 171400Z VRB01MPS CAVOK 17/11 Q1013 NOSIG
ZHCC,2021-05-17 15:00,ZHCC 171500Z 18002MPS 140V220 CAVOK 17/12 Q1013 NOSIG
ZHCC,2021-05-17 16:00,ZHCC 171600Z 20003MPS 160V240 CAVOK 17/11 Q1013 NOSIG
ZHCC,2021-05-17 17:00,ZHCC 171700Z VRB02MPS CAVOK 16/12 Q1012 NOSIG
ZHCC,2021-05-17 18:00,ZHCC 171800Z 19002MPS 150V230 CAVOK 16/13 Q1012 NOSIG
ZHCC,2021-05-17 19:00,ZHCC 171900Z 20002MPS 160V230 8000 NSC 15/13 Q1012 NOSIG
ZHCC,2021-05-17 20:00,ZHCC 172000Z 19002MPS 160V230 5000 BR NSC 15/13 Q1012 NOSIG
ZHCC,2021-05-17 21:00,ZHCC 172100Z 19002MPS 160V220 4000 BR NSC 14/13 Q1011 BECMG TL2240 2500
ZHCC,2021-05-17 22:00,ZHCC 172200Z VRB01MPS 2000 BR NSC 14/13 Q1011 NOSIG
ZHCC,2021-05-17 23:00,ZHCC 172300Z 18002MPS 140V220 2500 BR NSC 15/14 Q1011 BECMG TL0040 3000
ZHCC,2021-05-18 00:00,ZHCC 180000Z 20002MPS 160V230 3500 BR NSC 18/15 Q1011 NOSIG
ZHCC,2021-05-18 01:00,ZHCC 180100Z 16002MPS 100V220 5000 HZ NSC 20/15 Q1011 NOSIG
ZHCC,2021-05-18 02:00,ZHCC 180200Z 18003MPS 090V240 8000 NSC 23/15 Q1011 NOSIG
ZHCC,2021-05-18 03:00,ZHCC 180300Z VRB02MPS CAVOK 25/13 Q1011 NOSIG
ZHCC,2021-05-18 04:00,ZHCC 180400Z 13003MPS 060V220 CAVOK 26/13 Q1010 NOSIG
ZHCC,2021-05-18 05:00,ZHCC 180500Z 21002MPS 160V310 CAVOK 26/13 Q1010 NOSIG
ZHCC,2021-05-18 06:00,ZHCC 180600Z 15003MPS 090V210 CAVOK 27/13 Q1009 NOSIG
ZHCC,2021-05-18 07:00,ZHCC 180700Z 17002MPS 110V240 CAVOK 27/12 Q1009 NOSIG
ZHCC,2021-05-18 08:00,ZHCC 180800Z 17003MPS 100V220 CAVOK 27/12 Q1008 NOSIG
ZHCC,2021-05-18 09:00,ZHCC 180900Z 15003MPS 100V270 CAVOK 27/13 Q1007 NOSIG
ZHCC,2021-05-18 10:00,ZHCC 181000Z 14003MPS 080V180 CAVOK 26/14 Q1008 NOSIG
ZHCC,2021-05-18 11:00,ZHCC 181100Z 13003MPS CAVOK 24/15 Q1007 NOSIG
ZHCC,2021-05-18 12:00,ZHCC 181200Z 15002MPS 110V210 CAVOK 22/15 Q1008 NOSIG
ZHCC,2021-05-18 13:00,ZHCC 181300Z 15003MPS 090V200 CAVOK 21/15 Q1009 NOSIG
ZHCC,2021-05-18 14:00,ZHCC 181400Z 15002MPS 090V220 CAVOK 20/15 Q1009 NOSIG
ZHCC,2021-05-18 15:00,ZHCC 181500Z 16002MPS 100V260 CAVOK 20/15 Q1009 NOSIG
ZHCC,2021-05-18 16:00,ZHCC 181600Z VRB01MPS CAVOK 19/15 Q1009 NOSIG
ZHCC,2021-05-18 17:00,ZHCC 181700Z 15002MPS 080V240 CAVOK 18/14 Q1009 NOSIG
ZHCC,2021-05-18 18:00,ZHCC 181800Z VRB01MPS CAVOK 18/14 Q1008 NOSIG
ZHCC,2021-05-18 19:00,ZHCC 181900Z VRB01MPS 7000 NSC 17/14 Q1008 NOSIG
ZHCC,2021-05-18 20:00,ZHCC 182000Z VRB01MPS 7000 NSC 16/14 Q1008 NOSIG
ZHCC,2021-05-18 21:00,ZHCC 182100Z 10001MPS 6000 NSC 16/14 Q1008 NOSIG
ZHCC,2021-05-18 22:00,ZHCC 182200Z 11002MPS 3000 BR NSC 15/14 Q1008 BECMG TL2240 2500
ZHCC,2021-05-18 23:00,ZHCC 182300Z VRB01MPS 2500 BR NSC 17/15 Q1009 BECMG TL0040 3000
ZHCC,2021-05-19 00:00,ZHCC 190000Z VRB01MPS 2500 BR NSC 18/15 Q1009 NOSIG
ZHCC,2021-05-19 01:00,ZHCC 190100Z VRB01MPS 3000 BR NSC 20/16 Q1008 NOSIG
ZHCC,2021-05-19 02:00,ZHCC 190200Z VRB01MPS 4000 HZ NSC 22/16 Q1008 NOSIG
ZHCC,2021-05-19 03:00,ZHCC 190300Z 17002MPS 100V230 4000 HZ NSC 22/16 Q1008 NOSIG
ZHCC,2021-05-19 04:00,ZHCC 190400Z 13003MPS 100V190 4000 HZ NSC 23/16 Q1008 NOSIG
ZHCC,2021-05-19 05:00,ZHCC 190500Z 14003MPS 100V200 6000 NSC 23/16 Q1007 NOSIG
ZHCC,2021-05-19 06:00,ZHCC 190600Z 17002MPS 100V250 6000 NSC 25/16 Q1006 NOSIG
ZHCC,2021-05-19 07:00,ZHCC 190700Z VRB03MPS 8000 NSC 25/15 Q1006 NOSIG
ZHCC,2021-05-19 08:00,ZHCC 190800Z 16003MPS 100V220 8000 NSC 24/16 Q1005 NOSIG
ZHCC,2021-05-19 09:00,ZHCC 190900Z VRB03MPS 8000 NSC 23/16 Q1006 NOSIG
ZHCC,2021-05-19 10:00,ZHCC 191000Z 16002MPS 090V230 8000 NSC 22/14 Q1006 NOSIG
ZHCC,2021-05-19 11:00,ZHCC 191100Z 14002MPS 070V190 8000 NSC 22/15 Q1006 NOSIG
ZHCC,2021-05-19 12:00,ZHCC 191200Z 15002MPS 110V210 8000 NSC 21/17 Q1007 NOSIG
ZHCC,2021-05-19 13:00,ZHCC 191300Z 15002MPS 080V200 8000 NSC 20/16 Q1007 NOSIG
ZHCC,2021-05-19 14:00,ZHCC 191400Z VRB01MPS 6000 NSC 19/16 Q1008 NOSIG
ZHCC,2021-05-19 15:00,ZHCC 191500Z VRB02MPS 6000 NSC 19/16 Q1007 NOSIG
ZHCC,2021-05-19 16:00,ZHCC 191600Z VRB01MPS 5000 BR NSC 19/15 Q1007 NOSIG
ZHCC,2021-05-19 17:00,ZHCC 191700Z VRB01MPS 4000 BR NSC 18/15 Q1006 NOSIG
ZHCC,2021-05-19 18:00,ZHCC 191800Z 19002MPS 140V230 4000 BR NSC 18/15 Q1006 NOSIG
ZHCC,2021-05-19 19:00,ZHCC 191900Z 18003MPS 130V290 4000 BR NSC 17/15 Q1006 NOSIG
ZHCC,2021-05-19 20:00,ZHCC 192000Z 18002MPS 140V230 4000 BR NSC 17/15 Q1006 NOSIG
ZHCC,2021-05-19 21:00,ZHCC 192100Z 18003MPS 120V230 3500 BR NSC 17/15 Q1006 BECMG TL2240 1400
ZHCC,2021-05-19 22:00,ZHCC 192200Z 19002MPS 150V240 1600 BR NSC 16/15 Q1007 BECMG TL2240 1000
ZHCC,2021-05-19 23:00,ZHCC 192300Z 16002MPS 080V210 2000 BR NSC 17/15 Q1007 BECMG TL0040 3000
ZHCC,2021-05-20 00:00,ZHCC 200000Z 16002MPS 110V210 2500 BR NSC 19/16 Q1007 BECMG TL0040 3000
ZHCC,2021-05-20 01:00,ZHCC 200100Z 18003MPS 080V250 3500 BR NSC 21/16 Q1007 NOSIG
ZHCC,2021-05-20 02:00,ZHCC 200200Z 16003MPS 090V230 5000 HZ NSC 23/17 Q1007 NOSIG
ZHCC,2021-05-20 03:00,ZHCC 200300Z VRB03MPS 5000 HZ NSC 25/17 Q1007 NOSIG
ZHCC,2021-05-20 04:00,ZHCC 200400Z 18003MPS 100V270 7000 SCT030 26/17 Q1006 NOSIG
ZHCC,2021-05-20 05:00,ZHCC 200500Z 16004MPS 090V210 7000 BKN030 27/16 Q1005 NOSIG
ZHCC,2021-05-20 06:00,ZHCC 200600Z 17003MPS 110V220 7000 -TSRA FEW030CB BKN030 24/18 Q1005 NOSIG
ZHCC,2021-05-20 07:00,ZHCC 200700Z 12004MPS 090V170 8000 -SHRA FEW030CB BKN030 24/19 Q1004 RETSRA NOSIG
ZHCC,2021-05-20 08:00,ZHCC 200800Z 13005MPS 090V190 9999 FEW030 25/18 Q1004 NOSIG
ZHCC,2021-05-20 09:00,ZHCC 200900Z 15003MPS 100V200 CAVOK 25/18 Q1004 NOSIG
ZHCC,2021-05-20 10:00,ZHCC 201000Z 13005MPS 090V180 CAVOK 24/17 Q1005 NOSIG
ZHCC,2021-05-20 11:00,ZHCC 201100Z 13003MPS 090V210 9999 BKN030 23/16 Q1006 BECMG TL1130 2000 +TSRAGR BR FEW030CB BKN040
ZHCC,2021-05-20 12:00,ZHCC 201200Z 31006MPS 280V010 6000 TSRA FEW030CB BKN030 20/17 Q1008 BECMG TL1320 NSW
ZHCC,2021-05-20 13:00,ZHCC 201300Z 10004MPS 050V130 9999 TS FEW030CB BKN030 18/16 Q1007 RESHRA BECMG TL1340 NSW
ZHCC,2021-05-20 14:00,ZHCC 201400Z 12004MPS CAVOK 18/16 Q1007 RETS NOSIG
ZHCC,2021-05-20 15:00,ZHCC 201500Z 16002MPS 080V230 CAVOK 17/15 Q1007 NOSIG
ZHCC,2021-05-20 16:00,ZHCC 201600Z VRB01MPS CAVOK 17/15 Q1007 NOSIG
ZHCC,2021-05-20 17:00,ZHCC 201700Z VRB01MPS CAVOK 17/15 Q1007 NOSIG
ZHCC,2021-05-20 18:00,ZHCC 201800Z 21002MPS 170V250 CAVOK 18/14 Q1006 NOSIG
ZHCC,2021-05-20 19:00,ZHCC 201900Z VRB01MPS CAVOK 17/15 Q1006 NOSIG
ZHCC,2021-05-20 20:00,ZHCC 202000Z VRB01MPS CAVOK 18/15 Q1007 NOSIG
ZHCC,2021-05-20 21:00,ZHCC 202100Z VRB01MPS CAVOK 17/16 Q1007 NOSIG
ZHCC,2021-05-20 22:00,ZHCC 202200Z 11002MPS 5000 BR NSC 16/15 Q1007 NOSIG
ZHCC,2021-05-20 23:00,ZHCC 202300Z VRB01MPS 6000 NSC 18/16 Q1007 NOSIG
ZHCC,2021-05-21 00:00,ZHCC 210000Z VRB01MPS 6000 NSC 21/18 Q1008 NOSIG
ZHCC,2021-05-21 01:00,ZHCC 210100Z 07002MPS 010V120 5000 BR NSC 22/18 Q1008 NOSIG
ZHCC,2021-05-21 02:00,ZHCC 210200Z VRB02MPS 5000 HZ NSC 23/19 Q1008 NOSIG
ZHCC,2021-05-21 03:00,ZHCC 210300Z VRB02MPS 5000 HZ NSC 24/19 Q1008 NOSIG
ZHCC,2021-05-21 04:00,ZHCC 210400Z 14003MPS 090V190 7000 NSC 26/19 Q1007 NOSIG
ZHCC,2021-05-21 05:00,ZHCC 210500Z 13003MPS 080V170 8000 NSC 27/19 Q1007 NOSIG
ZHCC,2021-05-21 06:00,ZHCC 210600Z 13003MPS 100V170 8000 NSC 27/20 Q1006 NOSIG
ZHCC,2021-05-21 07:00,ZHCC 210700Z 13004MPS 100V200 8000 NSC 28/20 Q1005 NOSIG
ZHCC,2021-05-21 08:00,ZHCC 210800Z 19003MPS 130V240 CAVOK 29/18 Q1005 NOSIG
ZHCC,2021-05-21 09:00,ZHCC 210900Z 18003MPS 140V220 CAVOK 28/19 Q1005 NOSIG
ZHCC,2021-05-21 10:00,ZHCC 211000Z 19003MPS 150V230 CAVOK 27/19 Q1005 NOSIG
ZHCC,2021-05-21 11:00,ZHCC 211100Z 17002MPS 110V220 CAVOK 26/20 Q1005 NOSIG
ZHCC,2021-05-21 12:00,ZHCC 211200Z 18002MPS 110V220 CAVOK 26/20 Q1005 NOSIG
ZHCC,2021-05-21 13:00,ZHCC 211300Z VRB01MPS CAVOK 25/20 Q1006 NOSIG
ZHCC,2021-05-21 14:00,ZHCC 211400Z 20003MPS 150V240 8000 NSC 25/20 Q1007 NOSIG
ZHCC,2021-05-21 15:00,ZHCC 211500Z 20002MPS 160V260 8000 NSC 24/20 Q1007 NOSIG
ZHCC,2021-05-21 16:00,ZHCC 211600Z 18002MPS 100V220 7000 NSC 23/19 Q1006 NOSIG
ZHCC,2021-05-21 17:00,ZHCC 211700Z 18002MPS 150V230 7000 NSC 22/19 Q1006 NOSIG
ZHCC,2021-05-21 18:00,ZHCC 211800Z 19002MPS 150V230 7000 NSC 21/18 Q1006 NOSIG
ZHCC,2021-05-21 19:00,ZHCC 211900Z 18002MPS 140V230 7000 NSC 21/18 Q1006 NOSIG
ZHCC,2021-05-21 20:00,ZHCC 212000Z 17002MPS 120V210 7000 NSC 20/17 Q1006 NOSIG
ZHCC,2021-05-21 21:00,ZHCC 212100Z 19003MPS 130V230 6000 NSC 20/17 Q1006 NOSIG
ZHCC,2021-05-21 22:00,ZHCC 212200Z VRB01MPS 5000 BR NSC 19/17 Q1007 NOSIG
ZHCC,2021-05-21 23:00,ZHCC 212300Z 20002MPS 150V240 6000 NSC 20/17 Q1007 NOSIG
ZHCC,2021-05-22 00:00,ZHCC 220000Z 20002MPS 160V230 6000 NSC 22/18 Q1007 NOSIG
ZHCC,2021-05-22 01:00,ZHCC 220100Z 17002MPS 110V220 7000 NSC 25/19 Q1008 NOSIG
ZHCC,2021-05-22 02:00,ZHCC 220200Z 16003MPS 100V230 CAVOK 26/17 Q1007 NOSIG
ZHCC,2021-05-22 03:00,ZHCC 220300Z 18003MPS 130V210 CAVOK 28/16 Q1007 NOSIG
ZHCC,2021-05-22 04:00,ZHCC 220400Z 17004MPS 080V230 CAVOK 30/14 Q1006 NOSIG
ZHCC,2021-05-22 05:00,ZHCC 220500Z 18004MPS 110V250 CAVOK 31/12 Q1006 NOSIG
ZHCC,2021-05-22 06:00,ZHCC 220600Z 19003MPS 120V240 CAVOK 32/14 Q1005 NOSIG
ZHCC,2021-05-22 07:00,ZHCC 220700Z 15003MPS 090V210 CAVOK 31/13 Q1005 NOSIG
ZHCC,2021-05-22 08:00,ZHCC 220800Z 15003G08MPS 100V210 CAVOK 31/13 Q1004 NOSIG
ZHCC,2021-05-22 09:00,ZHCC 220900Z 15003MPS 110V210 CAVOK 30/16 Q1004 NOSIG
ZHCC,2021-05-22 10:00,ZHCC 221000Z 14004MPS 090V200 CAVOK 29/15 Q1005 NOSIG
ZHCC,2021-05-22 11:00,ZHCC 221100Z 15002MPS 100V200 CAVOK 28/16 Q1005 NOSIG
ZHCC,2021-05-22 12:00,ZHCC 221200Z VRB01MPS CAVOK 27/17 Q1005 NOSIG
ZHCC,2021-05-22 13:00,ZHCC 221300Z VRB01MPS CAVOK 26/17 Q1006 NOSIG
ZHCC,2021-05-22 14:00,ZHCC 221400Z VRB01MPS CAVOK 26/17 Q1006 NOSIG
ZHCC,2021-05-22 15:00,ZHCC 221500Z VRB01MPS CAVOK 26/17 Q1007 NOSIG
ZHCC,2021-05-22 16:00,ZHCC 221600Z VRB01MPS CAVOK 25/17 Q1007 NOSIG
ZHCC,2021-05-22 17:00,ZHCC 221700Z 22002MPS 180V250 CAVOK 25/17 Q1007 NOSIG
ZHCC,2021-05-22 18:00,ZHCC 221800Z VRB01MPS CAVOK 25/17 Q1007 NOSIG
ZHCC,2021-05-22 19:00,ZHCC 221900Z 29003MPS CAVOK 24/17 Q1007 NOSIG
ZHCC,2021-05-22 20:00,ZHCC 222000Z 29007MPS CAVOK 23/13 Q1008 NOSIG
ZHCC,2021-05-22 21:00,ZHCC 222100Z 29009MPS CAVOK 22/12 Q1009 NOSIG
ZHCC,2021-05-22 22:00,ZHCC 222200Z 31009G14MPS CAVOK 21/12 Q1010 NOSIG
ZHCC,2021-05-22 23:00,ZHCC 222300Z 33007MPS 9999 -RA BKN030 21/14 Q1011 NOSIG
ZHCC,2021-05-23 00:00,ZHCC 230000Z 35007MPS 9999 -RA BKN030 20/15 Q1013 NOSIG
ZHCC,2021-05-23 01:00,ZHCC 230100Z 33005MPS 9999 -RA SCT010 OVC030 19/15 Q1014 NOSIG
ZHCC,2021-05-23 02:00,ZHCC 230200Z 34005MPS 9999 -RA FEW010 OVC030 19/14 Q1014 NOSIG
ZHCC,2021-05-23 03:00,ZHCC 230300Z 35006MPS 310V030 9999 OVC040 20/12 Q1015 NOSIG
ZHCC,2021-05-23 04:00,ZHCC 230400Z 33003MPS 9999 OVC040 21/14 Q1014 NOSIG
ZHCC,2021-05-23 05:00,ZHCC 230500Z 32004MPS 280V020 9999 BKN040 23/13 Q1014 NOSIG
ZHCC,2021-05-23 06:00,ZHCC 230600Z 35003MPS 310V020 CAVOK 24/14 Q1013 NOSIG
ZHCC,2021-05-23 07:00,ZHCC 230700Z VRB02MPS CAVOK 25/11 Q1013 NOSIG
ZHCC,2021-05-23 08:00,ZHCC 230800Z 08003MPS 020V120 CAVOK 25/09 Q1012 NOSIG
ZHCC,2021-05-23 09:00,ZHCC 230900Z 08003MPS 030V120 CAVOK 25/09 Q1012 NOSIG
ZHCC,2021-05-23 10:00,ZHCC 231000Z 12004MPS CAVOK 24/09 Q1012 NOSIG
ZHCC,2021-05-23 11:00,ZHCC 231100Z 13002MPS 080V170 CAVOK 23/09 Q1012 NOSIG
ZHCC,2021-05-23 12:00,ZHCC 231200Z VRB01MPS CAVOK 22/10 Q1013 NOSIG
ZHCC,2021-05-23 13:00,ZHCC 231300Z VRB01MPS CAVOK 22/10 Q1014 NOSIG
ZHCC,2021-05-23 14:00,ZHCC 231400Z 19002MPS 140V240 CAVOK 22/14 Q1014 NOSIG
ZHCC,2021-05-23 15:00,ZHCC 231500Z 19003MPS 120V230 CAVOK 21/14 Q1014 NOSIG
ZHCC,2021-05-23 16:00,ZHCC 231600Z 21002MPS 180V240 CAVOK 21/13 Q1014 NOSIG
ZHCC,2021-05-23 17:00,ZHCC 231700Z VRB01MPS CAVOK 20/13 Q1013 NOSIG
ZHCC,2021-05-23 18:00,ZHCC 231800Z 25002MPS 220V300 CAVOK 18/14 Q1013 NOSIG
ZHCC,2021-05-23 19:00,ZHCC 231900Z VRB01MPS CAVOK 17/13 Q1013 NOSIG
ZHCC,2021-05-23 20:00,ZHCC 232000Z 25002MPS CAVOK 16/12 Q1013 NOSIG
ZHCC,2021-05-23 21:00,ZHCC 232100Z 26003MPS CAVOK 19/08 Q1013 NOSIG
ZHCC,2021-05-23 22:00,ZHCC 232200Z 27002MPS 260V320 CAVOK 17/11 Q1013 NOSIG
ZHCC,2021-05-23 23:00,ZHCC 232300Z 27002MPS CAVOK 21/10 Q1013 NOSIG
ZHCC,2021-05-24 00:00,ZHCC 240000Z 28004MPS 240V310 CAVOK 24/09 Q1014 NOSIG
ZHCC,2021-05-24 01:00,ZHCC 240100Z 29006MPS CAVOK 26/08 Q1013 NOSIG
ZHCC,2021-05-24 02:00,ZHCC 240200Z 28004MPS 230V310 CAVOK 28/07 Q1013 NOSIG
ZHCC,2021-05-24 03:00,ZHCC 240300Z 23003MPS 170V280 CAVOK 29/07 Q1012 NOSIG
ZHCC,2021-05-24 04:00,ZHCC 240400Z 27005MPS 200V310 CAVOK 30/06 Q1011 NOSIG
ZHCC,2021-05-24 05:00,ZHCC 240500Z 27006G15MPS 230V320 CAVOK 32/05 Q1010 NOSIG
ZHCC,2021-05-24 06:00,ZHCC 240600Z 28008G13MPS 240V310 CAVOK 32/02 Q1009 NOSIG
ZHCC,2021-05-24 07:00,ZHCC 240700Z 27007G12MPS 220V290 CAVOK 32/03 Q1008 NOSIG
ZHCC,2021-05-24 08:00,ZHCC 240800Z 25006MPS 190V290 CAVOK 32/03 Q1007 NOSIG
ZHCC,2021-05-24 09:00,ZHCC 240900Z 27006MPS CAVOK 32/02 Q1007 NOSIG
ZHCC,2021-05-24 10:00,ZHCC 241000Z 27007MPS CAVOK 32/04 Q1006 NOSIG
ZHCC,2021-05-24 11:00,ZHCC 241100Z 23004G09MPS 180V280 CAVOK 29/09 Q1007 NOSIG
ZHCC,2021-05-24 12:00,ZHCC 241200Z 22004MPS 190V250 CAVOK 28/09 Q1008 NOSIG
ZHCC,2021-05-24 13:00,ZHCC 241300Z 21004MPS 180V240 CAVOK 27/09 Q1008 NOSIG
ZHCC,2021-05-24 14:00,ZHCC 241400Z 22004MPS 170V260 CAVOK 27/08 Q1008 NOSIG
ZHCC,2021-05-24 15:00,ZHCC 241500Z 23003MPS 190V270 CAVOK 26/08 Q1009 NOSIG
ZHCC,2021-05-24 16:00,ZHCC 241600Z 24003MPS 200V270 CAVOK 26/08 Q1009 NOSIG
ZHCC,2021-05-24 17:00,ZHCC 241700Z 23002MPS 200V260 CAVOK 24/09 Q1009 NOSIG
ZHCC,2021-05-24 18:00,ZHCC 241800Z 04006MPS CAVOK 23/04 Q1011 NOSIG
ZHCC,2021-05-24 19:00,ZHCC 241900Z 04005MPS CAVOK 22/05 Q1011 NOSIG
ZHCC,2021-05-24 20:00,ZHCC 242000Z 04003MPS CAVOK 21/06 Q1012 NOSIG
ZHCC,2021-05-24 21:00,ZHCC 242100Z 04003MPS 010V070 CAVOK 20/05 Q1012 NOSIG
ZHCC,2021-05-24 22:00,ZHCC 242200Z VRB01MPS CAVOK 19/07 Q1012 NOSIG
ZHCC,2021-05-24 23:00,ZHCC 242300Z VRB01MPS CAVOK 21/07 Q1012 NOSIG
ZHCC,2021-05-25 00:00,ZHCC 250000Z 18002MPS 090V260 CAVOK 22/05 Q1013 NOSIG
ZHCC,2021-05-25 01:00,ZHCC 250100Z 18003MPS 120V240 CAVOK 23/04 Q1013 NOSIG
ZHCC,2021-05-25 02:00,ZHCC 250200Z 19002MPS 110V260 CAVOK 25/05 Q1012 NOSIG
ZHCC,2021-05-25 03:00,ZHCC 250300Z 17003MPS 110V210 CAVOK 25/06 Q1012 NOSIG
ZHCC,2021-05-25 04:00,ZHCC 250400Z 18003MPS 100V240 CAVOK 26/06 Q1011 NOSIG
ZHCC,2021-05-25 05:00,ZHCC 250500Z 18004MPS 110V230 CAVOK 26/07 Q1010 NOSIG
ZHCC,2021-05-25 06:00,ZHCC 250600Z 19004G09MPS 110V230 CAVOK 27/05 Q1009 NOSIG
ZHCC,2021-05-25 07:00,ZHCC 250700Z 18004MPS 120V230 CAVOK 27/06 Q1008 NOSIG
ZHCC,2021-05-25 08:00,ZHCC 250800Z 19005MPS 120V230 CAVOK 27/09 Q1007 NOSIG
ZHCC,2021-05-25 09:00,ZHCC 250900Z 20004MPS 150V250 CAVOK 26/12 Q1006 NOSIG
ZHCC,2021-05-25 10:00,ZHCC 251000Z 20007G14MPS 170V240 CAVOK 26/11 Q1005 NOSIG
ZHCC,2021-05-25 11:00,ZHCC 251100Z 21005G11MPS 160V250 CAVOK 25/11 Q1006 NOSIG
ZHCC,2021-05-25 12:00,ZHCC 251200Z 20005G10MPS 160V240 CAVOK 25/10 Q1006 NOSIG
ZHCC,2021-05-25 13:00,ZHCC 251300Z 20003MPS 130V240 CAVOK 24/11 Q1006 NOSIG
ZHCC,2021-05-25 14:00,ZHCC 251400Z 20004MPS 160V250 CAVOK 24/11 Q1006 NOSIG
ZHCC,2021-05-25 15:00,ZHCC 251500Z 20004MPS 160V240 CAVOK 23/11 Q1006 NOSIG
ZHCC,2021-05-25 16:00,ZHCC 251600Z 20004MPS 160V240 CAVOK 22/12 Q1006 NOSIG
ZHCC,2021-05-25 17:00,ZHCC 251700Z 21004MPS 160V260 CAVOK 21/12 Q1005 NOSIG
ZHCC,2021-05-25 18:00,ZHCC 251800Z 21004MPS 170V240 CAVOK 21/12 Q1005 NOSIG
ZHCC,2021-05-25 19:00,ZHCC 251900Z 20004MPS 150V240 CAVOK 21/12 Q1004 NOSIG
ZHCC,2021-05-25 20:00,ZHCC 252000Z 20003MPS 150V250 CAVOK 20/13 Q1003 NOSIG
ZHCC,2021-05-25 21:00,ZHCC 252100Z 19003MPS 160V240 CAVOK 19/13 Q1003 NOSIG
ZHCC,2021-05-25 22:00,ZHCC 252200Z 19004MPS 140V230 CAVOK 19/13 Q1003 NOSIG
ZHCC,2021-05-25 23:00,ZHCC 252300Z 19003MPS 130V230 CAVOK 19/14 Q1003 NOSIG
ZHCC,2021-05-26 00:00,ZHCC 260000Z 19003MPS 160V240 CAVOK 20/14 Q1003 NOSIG
ZHCC,2021-05-26 01:00,ZHCC 260100Z 19004MPS 140V240 CAVOK 23/14 Q1002 NOSIG
ZHCC,2021-05-26 02:00,ZHCC 260200Z 19004MPS 150V230 CAVOK 24/14 Q1002 NOSIG
ZHCC,2021-05-26 03:00,ZHCC 260300Z 20005MPS 150V240 CAVOK 26/14 Q1001 NOSIG
ZHCC,2021-05-26 04:00,ZHCC 260400Z 19003MPS 130V240 CAVOK 27/14 Q1001 NOSIG
ZHCC,2021-05-26 05:00,ZHCC 260500Z 20004G09MPS 140V250 CAVOK 30/14 Q0999 NOSIG
ZHCC,2021-05-26 06:00,ZHCC 260600Z 18004MPS 130V230 CAVOK 31/14 Q0999 NOSIG
ZHCC,2021-05-26 07:00,ZHCC 260700Z 20005MPS 160V240 CAVOK 30/14 Q0998 NOSIG
ZHCC,2021-05-26 08:00,ZHCC 260800Z 21004MPS 170V250 CAVOK 31/15 Q0998 NOSIG
ZHCC,2021-05-26 09:00,ZHCC 260900Z 19003MPS 140V240 CAVOK 30/15 Q0998 BECMG TL1040 28007MPS
ZHCC,2021-05-26 10:00,ZHCC 261000Z 25003MPS 200V320 CAVOK 30/15 Q0999 NOSIG
ZHCC,2021-05-26 11:00,ZHCC 261100Z 01004MPS 340V040 CAVOK 29/13 Q1000 NOSIG
ZHCC,2021-05-26 12:00,ZHCC 261200Z 36003MPS 320V030 CAVOK 28/15 Q1002 NOSIG
ZHCC,2021-05-26 13:00,ZHCC 261300Z 33004MPS 310V020 CAVOK 26/16 Q1004 NOSIG
ZHCC,2021-05-26 14:00,ZHCC 261400Z 03003MPS 360V100 CAVOK 25/16 Q1005 NOSIG
ZHCC,2021-05-26 15:00,ZHCC 261500Z 03002MPS 350V090 CAVOK 23/16 Q1006 NOSIG
ZHCC,2021-05-26 16:00,ZHCC 261600Z VRB01MPS CAVOK 20/15 Q1006 NOSIG
ZHCC,2021-05-26 17:00,ZHCC 261700Z 27001MPS CAVOK 19/16 Q1006 NOSIG
ZHCC,2021-05-26 18:00,ZHCC 261800Z 00000MPS CAVOK 17/14 Q1006 NOSIG
ZHCC,2021-05-26 19:00,ZHCC 261900Z 27002MPS CAVOK 18/15 Q1005 NOSIG
ZHCC,2021-05-26 20:00,ZHCC 262000Z VRB01MPS CAVOK 17/14 Q1006 NOSIG
ZHCC,2021-05-26 21:00,ZHCC 262100Z VRB01MPS CAVOK 16/14 Q1006 NOSIG
ZHCC,2021-05-26 22:00,ZHCC 262200Z 25002MPS CAVOK 17/14 Q1006 NOSIG
ZHCC,2021-05-26 23:00,ZHCC 262300Z 00000MPS CAVOK 24/13 Q1006 NOSIG
ZHCC,2021-05-27 00:00,ZHCC 270000Z VRB01MPS CAVOK 26/12 Q1006 NOSIG
ZHCC,2021-05-27 01:00,ZHCC 270100Z 22002MPS 190V260 CAVOK 30/07 Q1006 NOSIG
ZHCC,2021-05-27 02:00,ZHCC 270200Z 21004MPS 160V240 CAVOK 31/08 Q1005 NOSIG
ZHCC,2021-05-27 03:00,ZHCC 270300Z 21005MPS 160V240 CAVOK 33/04 Q1004 NOSIG
ZHCC,2021-05-27 04:00,ZHCC 270400Z 19005G10MPS 120V250 CAVOK 33/06 Q1004 NOSIG
ZHCC,2021-05-27 05:00,ZHCC 270500Z 20007G12MPS 160V240 CAVOK 33/08 Q1002 NOSIG
ZHCC,2021-05-27 06:00,ZHCC 270600Z 20006G11MPS 160V240 CAVOK 33/11 Q1001 NOSIG
ZHCC,2021-05-27 07:00,ZHCC 270700Z 21007G13MPS 170V240 CAVOK 33/11 Q1000 NOSIG
ZHCC,2021-05-27 08:00,ZHCC 270800Z 20007G14MPS 120V240 CAVOK 33/10 Q0999 NOSIG
ZHCC,2021-05-27 09:00,ZHCC 270900Z 20006G12MPS 170V240 CAVOK 31/15 Q0999 NOSIG
ZHCC,2021-05-27 10:00,ZHCC 271000Z 21006MPS 160V250 CAVOK 30/16 Q0999 NOSIG
ZHCC,2021-05-27 11:00,ZHCC 271100Z 21005G13MPS 160V250 CAVOK 30/16 Q0999 NOSIG
ZHCC,2021-05-27 12:00,ZHCC 271200Z 21005G11MPS 150V240 CAVOK 29/17 Q0999 NOSIG
ZHCC,2021-05-27 13:00,ZHCC 271300Z 21004MPS 160V240 CAVOK 28/16 Q0999 NOSIG
ZHCC,2021-05-27 14:00,ZHCC 271400Z 21004MPS 170V250 CAVOK 28/15 Q1000 NOSIG
ZHCC,2021-05-27 15:00,ZHCC 271500Z 21004MPS 170V240 CAVOK 27/16 Q1000 NOSIG
ZHCC,2021-05-27 16:00,ZHCC 271600Z 22002MPS 180V250 CAVOK 26/16 Q1001 NOSIG
ZHCC,2021-05-27 17:00,ZHCC 271700Z 02003MPS 350V060 CAVOK 26/15 Q1002 NOSIG
ZHCC,2021-05-27 18:00,ZHCC 271800Z 02005MPS 340V050 CAVOK 28/09 Q1003 NOSIG
ZHCC,2021-05-27 19:00,ZHCC 271900Z 02004MPS 350V060 CAVOK 27/07 Q1004 NOSIG
ZHCC,2021-05-27 20:00,ZHCC 272000Z 03003MPS 360V070 CAVOK 25/07 Q1005 NOSIG
ZHCC,2021-05-27 21:00,ZHCC 272100Z 01003MPS CAVOK 25/06 Q1006 NOSIG
ZHCC,2021-05-27 22:00,ZHCC 272200Z 01004MPS CAVOK 24/07 Q1007 NOSIG
ZHCC,2021-05-27 23:00,ZHCC 272300Z 03005MPS 350V070 CAVOK 24/06 Q1008 NOSIG
ZHCC,2021-05-28 00:00,ZHCC 280000Z 04002MPS 360V120 CAVOK 24/07 Q1009 NOSIG
ZHCC,2021-05-28 01:00,ZHCC 280100Z VRB01MPS CAVOK 25/06 Q1010 NOSIG
ZHCC,2021-05-28 02:00,ZHCC 280200Z VRB02MPS CAVOK 27/08 Q1009 NOSIG
ZHCC,2021-05-28 03:00,ZHCC 280300Z 12002MPS 050V210 CAVOK 28/07 Q1010 NOSIG
ZHCC,2021-05-28 04:00,ZHCC 280400Z 09003MPS 050V120 CAVOK 29/06 Q1009 NOSIG
ZHCC,2021-05-28 05:00,ZHCC 280500Z VRB01MPS CAVOK 31/05 Q1008 NOSIG
ZHCC,2021-05-28 06:00,ZHCC 280600Z 16003MPS 100V230 CAVOK 32/04 Q1007 NOSIG
ZHCC,2021-05-28 07:00,ZHCC 280700Z VRB03MPS CAVOK 32/06 Q1006 NOSIG
ZHCC,2021-05-28 08:00,ZHCC 280800Z VRB03MPS CAVOK 33/07 Q1005 NOSIG
ZHCC,2021-05-28 09:00,ZHCC 280900Z 18003MPS 070V230 CAVOK 32/07 Q1005 NOSIG
ZHCC,2021-05-28 10:00,ZHCC 281000Z 17003MPS 120V240 CAVOK 31/10 Q1005 NOSIG
ZHCC,2021-05-28 11:00,ZHCC 281100Z 17004MPS 130V230 CAVOK 29/11 Q1005 NOSIG
ZHCC,2021-05-28 12:00,ZHCC 281200Z 18003MPS 120V240 CAVOK 28/10 Q1006 NOSIG
ZHCC,2021-05-28 13:00,ZHCC 281300Z 18004MPS 080V230 CAVOK 27/11 Q1006 NOSIG
ZHCC,2021-05-28 14:00,ZHCC 281400Z 19003MPS 140V270 CAVOK 26/11 Q1006 NOSIG
ZHCC,2021-05-28 15:00,ZHCC 281500Z 20004MPS 150V240 CAVOK 25/11 Q1006 NOSIG
ZHCC,2021-05-28 16:00,ZHCC 281600Z 19003MPS 140V240 CAVOK 24/11 Q1006 NOSIG
ZHCC,2021-05-28 17:00,ZHCC 281700Z 19003MPS 150V220 CAVOK 23/11 Q1005 NOSIG
ZHCC,2021-05-28 18:00,ZHCC 281800Z 20003MPS 160V230 CAVOK 22/12 Q1004 NOSIG
ZHCC,2021-05-28 19:00,ZHCC 281900Z 20003MPS 170V250 CAVOK 22/11 Q1004 NOSIG
ZHCC,2021-05-28 20:00,ZHCC 282000Z 20002MPS 150V250 CAVOK 22/12 Q1003 NOSIG
ZHCC,2021-05-28 21:00,ZHCC 282100Z 19002MPS 160V230 CAVOK 20/12 Q1003 NOSIG
ZHCC,2021-05-28 22:00,ZHCC 282200Z 20002MPS 150V250 CAVOK 20/12 Q1003 NOSIG
ZHCC,2021-05-28 23:00,ZHCC 282300Z 19002MPS 150V230 CAVOK 22/13 Q1003 NOSIG
ZHCC,2021-05-29 00:00,ZHCC 290000Z 21002MPS 160V240 CAVOK 25/13 Q1003 NOSIG
ZHCC,2021-05-29 01:00,ZHCC 290100Z 19002MPS 160V230 CAVOK 28/14 Q1003 NOSIG
ZHCC,2021-05-29 02:00,ZHCC 290200Z 21003MPS 140V260 CAVOK 31/12 Q1002 NOSIG
ZHCC,2021-05-29 03:00,ZHCC 290300Z 22002MPS 150V290 CAVOK 33/11 Q1002 NOSIG
ZHCC,2021-05-29 04:00,ZHCC 290400Z VRB03G08MPS CAVOK 35/08 Q1001 NOSIG
ZHCC,2021-05-29 05:00,ZHCC 290500Z VRB01MPS CAVOK 36/07 Q1001 NOSIG
ZHCC,2021-05-29 06:00,ZHCC 290600Z 16004MPS 100V240 CAVOK 37/12 Q1000 NOSIG
ZHCC,2021-05-29 07:00,ZHCC 290700Z 18003MPS 120V230 CAVOK 35/13 Q1000 NOSIG
ZHCC,2021-05-29 08:00,ZHCC 290800Z 19003MPS 090V230 CAVOK 35/13 Q0999 NOSIG
ZHCC,2021-05-29 09:00,ZHCC 290900Z 18004MPS 120V230 CAVOK 33/18 Q0999 NOSIG
ZHCC,2021-05-29 10:00,ZHCC 291000Z 19003MPS 130V240 CAVOK 33/16 Q1000 NOSIG
ZHCC,2021-05-29 11:00,ZHCC 291100Z 17003G08MPS 110V220 CAVOK 31/17 Q1001 NOSIG
ZHCC,2021-05-29 12:00,ZHCC 291200Z 05004MPS 010V080 CAVOK 30/18 Q1003 NOSIG
ZHCC,2021-05-29 13:00,ZHCC 291300Z 04005MPS 020V080 CAVOK 28/12 Q1004 NOSIG
ZHCC,2021-05-29 14:00,ZHCC 291400Z 04005MPS 020V080 CAVOK 27/12 Q1005 NOSIG
ZHCC,2021-05-29 15:00,ZHCC 291500Z 04007MPS CAVOK 25/14 Q1005 NOSIG
ZHCC,2021-05-29 16:00,ZHCC 291600Z 04004MPS CAVOK 24/14 Q1005 NOSIG
ZHCC,2021-05-29 17:00,ZHCC 291700Z 04005MPS CAVOK 23/14 Q1005 NOSIG
ZHCC,2021-05-29 18:00,ZHCC 291800Z 03005MPS 360V060 CAVOK 22/13 Q1005 NOSIG
ZHCC,2021-05-29 19:00,ZHCC 291900Z 05003MPS CAVOK 21/13 Q1005 NOSIG
ZHCC,2021-05-29 20:00,ZHCC 292000Z 04004MPS CAVOK 21/12 Q1005 NOSIG
ZHCC,2021-05-29 21:00,ZHCC 292100Z 01002MPS 340V050 CAVOK 20/12 Q1006 NOSIG
ZHCC,2021-05-29 22:00,ZHCC 292200Z 02003MPS 350V050 CAVOK 20/11 Q1006 NOSIG
ZHCC,2021-05-29 23:00,ZHCC 292300Z 05003MPS 010V080 CAVOK 20/11 Q1006 NOSIG
ZHCC,2021-05-30 00:00,ZHCC 300000Z 03003G08MPS 350V070 CAVOK 22/11 Q1006 NOSIG
ZHCC,2021-05-30 01:00,ZHCC 300100Z VRB03MPS CAVOK 23/11 Q1006 NOSIG
ZHCC,2021-05-30 02:00,ZHCC 300200Z 03003MPS 360V110 CAVOK 24/11 Q1006 NOSIG
ZHCC,2021-05-30 03:00,ZHCC 300300Z 06003MPS 030V110 CAVOK 26/12 Q1005 NOSIG
ZHCC,2021-05-30 04:00,ZHCC 300400Z VRB02MPS CAVOK 28/12 Q1005 NOSIG
ZHCC,2021-05-30 05:00,ZHCC 300500Z 08002MPS 350V150 CAVOK 29/14 Q1004 NOSIG
ZHCC,2021-05-30 06:00,ZHCC 300600Z 08003MPS 030V120 CAVOK 30/14 Q1003 NOSIG
ZHCC,2021-05-30 07:00,ZHCC 300700Z 13003MPS 060V180 CAVOK 31/14 Q1003 NOSIG
ZHCC,2021-05-30 08:00,ZHCC 300800Z 10003MPS 060V190 CAVOK 32/14 Q1002 NOSIG
ZHCC,2021-05-30 09:00,ZHCC 300900Z 08003MPS 040V130 CAVOK 32/14 Q1002 NOSIG
ZHCC,2021-05-30 10:00,ZHCC 301000Z 05007MPS CAVOK 31/14 Q1003 NOSIG
ZHCC,2021-05-30 11:00,ZHCC 301100Z 05006MPS CAVOK 29/14 Q1003 NOSIG
ZHCC,2021-05-30 12:00,ZHCC 301200Z 07005MPS CAVOK 27/12 Q1004 NOSIG
ZHCC,2021-05-30 13:00,ZHCC 301300Z 12002MPS CAVOK 25/13 Q1004 NOSIG
ZHCC,2021-05-30 14:00,ZHCC 301400Z 08003MPS 050V120 CAVOK 26/14 Q1005 NOSIG
ZHCC,2021-05-30 15:00,ZHCC 301500Z 03004MPS 350V070 CAVOK 26/14 Q1006 NOSIG
ZHCC,2021-05-30 16:00,ZHCC 301600Z 04004MPS CAVOK 24/13 Q1006 NOSIG
ZHCC,2021-05-30 17:00,ZHCC 301700Z 07003MPS 030V100 CAVOK 23/13 Q1005 NOSIG
ZHCC,2021-05-30 18:00,ZHCC 301800Z 13002MPS 100V190 CAVOK 22/14 Q1005 NOSIG
ZHCC,2021-05-30 19:00,ZHCC 301900Z VRB01MPS CAVOK 21/14 Q1005 NOSIG
ZHCC,2021-05-30 20:00,ZHCC 302000Z 02002MPS CAVOK 22/15 Q1005 NOSIG
ZHCC,2021-05-30 21:00,ZHCC 302100Z 01003MPS CAVOK 22/15 Q1005 NOSIG
ZHCC,2021-05-30 22:00,ZHCC 302200Z 05002MPS 020V100 CAVOK 22/15 Q1005 NOSIG
ZHCC,2021-05-30 23:00,ZHCC 302300Z 03002MPS 360V110 CAVOK 23/16 Q1005 NOSIG
ZHCC,2021-05-31 00:00,ZHCC 310000Z 06003MPS 020V110 CAVOK 24/17 Q1005 NOSIG
ZHCC,2021-05-31 01:00,ZHCC 310100Z 05002MPS 320V120 5000 HZ NSC 25/17 Q1005 NOSIG
ZHCC,2021-05-31 02:00,ZHCC 310200Z 03002MPS 340V100 5000 HZ NSC 26/18 Q1005 NOSIG
ZHCC,2021-05-31 03:00,ZHCC 310300Z 06002MPS 300V110 6000 NSC 29/19 Q1005 NOSIG
ZHCC,2021-05-31 04:00,ZHCC 310400Z VRB02MPS 8000 NSC 29/19 Q1005 NOSIG
ZHCC,2021-05-31 05:00,ZHCC 310500Z 07002MPS 360V150 8000 NSC 31/19 Q1004 NOSIG
ZHCC,2021-05-31 06:00,ZHCC 310600Z 14003MPS 080V210 CAVOK 33/17 Q1003 NOSIG
ZHCC,2021-05-31 07:00,ZHCC 310700Z 17004MPS 080V230 9999 FEW040 34/16 Q1003 NOSIG
ZHCC,2021-05-31 08:00,ZHCC 310800Z 14004MPS 090V210 9999 FEW040 34/16 Q1002 NOSIG
ZHCC,2021-05-31 09:00,ZHCC 310900Z 16003MPS 100V230 CAVOK 34/15 Q1002 NOSIG
ZHCC,2021-05-31 10:00,ZHCC 311000Z 14003MPS 090V190 9999 FEW040 33/15 Q1002 NOSIG
ZHCC,2021-05-31 11:00,ZHCC 311100Z 14002MPS 090V190 CAVOK 32/15 Q1003 NOSIG
ZHCC,2021-05-31 12:00,ZHCC 311200Z 13002MPS 100V170 CAVOK 30/16 Q1004 NOSIG
ZHCC,2021-05-31 13:00,ZHCC 311300Z 13002MPS 100V160 CAVOK 29/17 Q1005 NOSIG
ZHCC,2021-05-31 14:00,ZHCC 311400Z VRB01MPS CAVOK 27/17 Q1005 NOSIG
ZHCC,2021-05-31 15:00,ZHCC 311500Z 03006MPS 010V070 8000 NSC 28/17 Q1006 NOSIG
ZHCC,2021-05-31 16:00,ZHCC 311600Z 04006MPS 8000 NSC 25/17 Q1006 NOSIG
ZHCC,2021-05-31 17:00,ZHCC 311700Z 04004MPS 010V070 CAVOK 24/16 Q1006 NOSIG
ZHCC,2021-05-31 18:00,ZHCC 311800Z 05002MPS 010V090 CAVOK 24/16 Q1006 NOSIG
ZHCC,2021-05-31 19:00,ZHCC 311900Z 01003MPS 340V060 CAVOK 24/16 Q1006 NOSIG
ZHCC,2021-05-31 20:00,ZHCC 312000Z 03005MPS 360V080 CAVOK 24/15 Q1006 NOSIG
ZHCC,2021-05-31 21:00,ZHCC 312100Z 01003MPS 340V050 CAVOK 23/16 Q1006 NOSIG
ZHCC,2021-05-31 22:00,ZHCC 312200Z 36003MPS CAVOK 23/16 Q1007 NOSIG
ZHCC,2021-05-31 23:00,ZHCC 312300Z 01004MPS 350V050 CAVOK 24/16 Q1008 NOSIG
ZHCC,2021-06-01 00:00,ZHCC 010000Z 04005MPS 020V080 CAVOK 25/16 Q1008 NOSIG
ZHCC,2021-06-01 01:00,ZHCC 010100Z 03005MPS 360V060 CAVOK 25/17 Q1008 NOSIG
ZHCC,2021-06-01 02:00,ZHCC 010200Z 04004MPS 010V080 CAVOK 26/17 Q1008 NOSIG
ZHCC,2021-06-01 03:00,ZHCC 010300Z 02006MPS 340V080 6000 NSC 26/18 Q1009 NOSIG
ZHCC,2021-06-01 04:00,ZHCC 010400Z 02005MPS 340V070 4000 HZ NSC 26/18 Q1008 NOSIG
ZHCC,2021-06-01 05:00,ZHCC 010500Z 03004MPS 350V070 4000 HZ NSC 26/18 Q1008 NOSIG
ZHCC,2021-06-01 06:00,ZHCC 010600Z 01004MPS 330V040 6000 NSC 27/17 Q1007 NOSIG
ZHCC,2021-06-01 07:00,ZHCC 010700Z 36005MPS 8000 NSC 28/17 Q1007 NOSIG
ZHCC,2021-06-01 08:00,ZHCC 010800Z 01004MPS 330V070 8000 NSC 29/18 Q1006 NOSIG
ZHCC,2021-06-01 09:00,ZHCC 010900Z 05004MPS 010V090 8000 NSC 29/18 Q1006 NOSIG
ZHCC,2021-06-01 10:00,ZHCC 011000Z 07003MPS 020V090 8000 NSC 28/18 Q1005 NOSIG
ZHCC,2021-06-01 11:00,ZHCC 011100Z 06003MPS 030V100 8000 NSC 28/18 Q1006 NOSIG
ZHCC,2021-06-01 12:00,ZHCC 011200Z 08003MPS 8000 NSC 27/18 Q1006 NOSIG
ZHCC,2021-06-01 13:00,ZHCC 011300Z VRB01MPS 8000 NSC 25/18 Q1006 NOSIG
ZHCC,2021-06-01 14:00,ZHCC 011400Z 28001MPS 8000 NSC 24/19 Q1006 NOSIG
ZHCC,2021-06-01 15:00,ZHCC 011500Z 25001MPS 8000 NSC 23/18 Q1006 NOSIG
ZHCC,2021-06-01 16:00,ZHCC 011600Z 27001MPS 8000 NSC 24/19 Q1005 NOSIG
ZHCC,2021-06-01 17:00,ZHCC 011700Z VRB01MPS 8000 NSC 23/19 Q1005 NOSIG
ZHCC,2021-06-01 18:00,ZHCC 011800Z 26001MPS 8000 NSC 23/18 Q1005 NOSIG
ZHCC,2021-06-01 19:00,ZHCC 011900Z 28001MPS 6000 NSC 22/18 Q1005 NOSIG
ZHCC,2021-06-01 20:00,ZHCC 012000Z 00000MPS 6000 NSC 22/18 Q1005 NOSIG
ZHCC,2021-06-01 21:00,ZHCC 012100Z 11002MPS 4000 BR NSC 22/19 Q1005 NOSIG
ZHCC,2021-06-01 22:00,ZHCC 012200Z 07001MPS 4000 BR NSC 23/19 Q1005 NOSIG
ZHCC,2021-06-01 23:00,ZHCC 012300Z VRB01MPS 4000 BR NSC 24/20 Q1005 NOSIG
ZHCC,2021-06-02 00:00,ZHCC 020000Z VRB01MPS 4000 HZ NSC 26/19 Q1005 NOSIG
ZHCC,2021-06-02 01:00,ZHCC 020100Z VRB01MPS 6000 NSC 29/19 Q1005 NOSIG
ZHCC,2021-06-02 02:00,ZHCC 020200Z VRB02MPS 8000 NSC 31/19 Q1005 NOSIG
ZHCC,2021-06-02 03:00,ZHCC 020300Z 21002MPS 130V270 8000 NSC 32/19 Q1004 NOSIG
ZHCC,2021-06-02 04:00,ZHCC 020400Z 13003MPS 080V190 8000 NSC 32/18 Q1004 NOSIG
ZHCC,2021-06-02 05:00,ZHCC 020500Z 22002MPS 140V290 8000 FEW040 34/19 Q1003 NOSIG
ZHCC,2021-06-02 06:00,ZHCC 020600Z VRB02MPS 8000 FEW040 35/18 Q1002 NOSIG
ZHCC,2021-06-02 07:00,ZHCC 020700Z 18003MPS 120V240 8000 FEW040 34/18 Q1002 NOSIG
ZHCC,2021-06-02 08:00,ZHCC 020800Z 22002MPS 150V300 CAVOK 35/17 Q1001 NOSIG
ZHCC,2021-06-02 09:00,ZHCC 020900Z VRB02MPS CAVOK 35/17 Q1000 NOSIG
ZHCC,2021-06-02 10:00,ZHCC 021000Z VRB02MPS CAVOK 34/18 Q1001 NOSIG
ZHCC,2021-06-02 11:00,ZHCC 021100Z 13002MPS 100V170 CAVOK 33/18 Q1001 BECMG TL1230 30008G15MPS TSRA
ZHCC,2021-06-02 12:00,ZHCC 021200Z 30011G19MPS 260V340 6000 -TSRA FEW020CB BKN030 27/19 Q1003 BECMG TL1240 2000 TSRA
ZHCC,2021-06-02 13:00,ZHCC 021300Z 33009MPS 4000 TSRA FEW020CB BKN030 21/21 Q1006 BECMG TL1440 33004MPS NSW
ZHCC,2021-06-02 14:00,ZHCC 021400Z 32005MPS 5000 TSRA FEW020CB BKN030 21/20 Q1007 BECMG TL1440 NSW
ZHCC,2021-06-02 15:00,ZHCC 021500Z 32003MPS 9999 -SHRA FEW030TCU BKN040 22/21 Q1007 RETSRA NOSIG
ZHCC,2021-06-02 16:00,ZHCC 021600Z 06002MPS 350V120 9999 FEW015 OVC040 24/19 Q1005 NOSIG
ZHCC,2021-06-02 17:00,ZHCC 021700Z VRB01MPS 9999 FEW015 OVC040 22/20 Q1006 NOSIG
ZHCC,2021-06-02 18:00,ZHCC 021800Z VRB01MPS 9999 -RA FEW015 OVC040 22/20 Q1005 NOSIG
ZHCC,2021-06-02 19:00,ZHCC 021900Z 25002MPS 9999 FEW015 OVC040 22/19 Q1005 NOSIG
ZHCC,2021-06-02 20:00,ZHCC 022000Z VRB01MPS CAVOK 22/20 Q1006 NOSIG
ZHCC,2021-06-02 21:00,ZHCC 022100Z 05002MPS 030V090 CAVOK 22/20 Q1007 NOSIG
ZHCC,2021-06-02 22:00,ZHCC 022200Z 03002MPS 330V060 5000 BR NSC 23/19 Q1007 NOSIG
ZHCC,2021-06-02 23:00,ZHCC 022300Z 32003MPS 8000 NSC 23/19 Q1008 NOSIG
ZHCC,2021-06-03 00:00,ZHCC 030000Z 35004MPS 5000 BR NSC 24/18 Q1009 NOSIG
ZHCC,2021-06-03 01:00,ZHCC 030100Z 31003MPS 5000 BR NSC 24/19 Q1009 NOSIG
ZHCC,2021-06-03 02:00,ZHCC 030200Z 29002MPS 240V320 5000 HZ NSC 25/20 Q1009 NOSIG
ZHCC,2021-06-03 03:00,ZHCC 030300Z 29003MPS 8000 NSC 25/16 Q1009 NOSIG
ZHCC,2021-06-03 04:00,ZHCC 030400Z 27003MPS 230V310 8000 NSC 25/14 Q1009 NOSIG
ZHCC,2021-06-03 05:00,ZHCC 030500Z 31003MPS CAVOK 26/08 Q1009 NOSIG
ZHCC,2021-06-03 06:00,ZHCC 030600Z 30004MPS 270V340 CAVOK 28/04 Q1009 NOSIG
ZHCC,2021-06-03 07:00,ZHCC 030700Z 30004MPS 270V340 CAVOK 28/04 Q1008 NOSIG
ZHCC,2021-06-03 08:00,ZHCC 030800Z 32002MPS 270V010 CAVOK 29/03 Q1008 NOSIG
ZHCC,2021-06-03 09:00,ZHCC 030900Z VRB02MPS CAVOK 28/03 Q1007 NOSIG
ZHCC,2021-06-03 10:00,ZHCC 031000Z VRB01MPS CAVOK 26/08 Q1007 NOSIG
ZHCC,2021-06-03 11:00,ZHCC 031100Z 19001MPS CAVOK 25/10 Q1008 NOSIG
ZHCC,2021-06-03 12:00,ZHCC 031200Z VRB01MPS CAVOK 23/12 Q1008 NOSIG
ZHCC,2021-06-03 13:00,ZHCC 031300Z VRB01MPS CAVOK 22/09 Q1008 NOSIG
ZHCC,2021-06-03 14:00,ZHCC 031400Z 20002MPS CAVOK 23/08 Q1009 NOSIG
ZHCC,2021-06-03 15:00,ZHCC 031500Z 23002MPS 210V280 CAVOK 22/08 Q1009 NOSIG
ZHCC,2021-06-03 16:00,ZHCC 031600Z 25002MPS CAVOK 21/08 Q1008 NOSIG
ZHCC,2021-06-03 17:00,ZHCC 031700Z 26003MPS CAVOK 19/08 Q1008 NOSIG
ZHCC,2021-06-03 18:00,ZHCC 031800Z 27003MPS CAVOK 19/07 Q1007 NOSIG
ZHCC,2021-06-03 19:00,ZHCC 031900Z 27003MPS CAVOK 17/08 Q1007 NOSIG
ZHCC,2021-06-03 20:00,ZHCC 032000Z 25004MPS CAVOK 19/07 Q1007 NOSIG
ZHCC,2021-06-03 21:00,ZHCC 032100Z 27002MPS CAVOK 17/08 Q1006 NOSIG
ZHCC,2021-06-03 22:00,ZHCC 032200Z 25003MPS CAVOK 19/08 Q1007 NOSIG
ZHCC,2021-06-03 23:00,ZHCC 032300Z 25002MPS 220V280 CAVOK 22/09 Q1007 NOSIG
ZHCC,2021-06-04 00:00,ZHCC 040000Z 26002MPS 230V300 CAVOK 24/10 Q1007 NOSIG
ZHCC,2021-06-04 01:00,ZHCC 040100Z 26003MPS 220V300 CAVOK 27/11 Q1007 NOSIG
ZHCC,2021-06-04 02:00,ZHCC 040200Z 29008MPS CAVOK 29/07 Q1006 NOSIG
ZHCC,2021-06-04 03:00,ZHCC 040300Z 28006G11MPS 240V320 CAVOK 31/05 Q1005 NOSIG
ZHCC,2021-06-04 04:00,ZHCC 040400Z 28006MPS 240V310 CAVOK 32/07 Q1004 NOSIG
ZHCC,2021-06-04 05:00,ZHCC 040500Z 32007MPS 280V350 CAVOK 33/07 Q1003 NOSIG
ZHCC,2021-06-04 06:00,ZHCC 040600Z 31007MPS 270V340 CAVOK 33/06 Q1002 NOSIG
ZHCC,2021-06-04 07:00,ZHCC 040700Z 28006MPS 250V320 CAVOK 34/06 Q1001 NOSIG
ZHCC,2021-06-04 08:00,ZHCC 040800Z 28005MPS 230V320 CAVOK 34/06 Q1001 NOSIG
ZHCC,2021-06-04 09:00,ZHCC 040900Z 27006MPS 240V310 CAVOK 34/04 Q1000 NOSIG
ZHCC,2021-06-04 10:00,ZHCC 041000Z 25005MPS CAVOK 33/05 Q1000 NOSIG
ZHCC,2021-06-04 11:00,ZHCC 041100Z 24003MPS 210V270 CAVOK 32/06 Q1000 NOSIG
ZHCC,2021-06-04 12:00,ZHCC 041200Z 22003MPS 190V250 CAVOK 31/05 Q1000 NOSIG
ZHCC,2021-06-04 13:00,ZHCC 041300Z 24003MPS 210V270 CAVOK 29/05 Q1001 NOSIG
ZHCC,2021-06-04 14:00,ZHCC 041400Z 24002MPS CAVOK 28/05 Q1001 NOSIG
ZHCC,2021-06-04 15:00,ZHCC 041500Z 26003MPS CAVOK 26/06 Q1001 NOSIG
ZHCC,2021-06-04 16:00,ZHCC 041600Z 25003MPS CAVOK 26/05 Q1001 NOSIG
ZHCC,2021-06-04 17:00,ZHCC 041700Z 23003MPS 200V260 CAVOK 26/06 Q1000 NOSIG
ZHCC,2021-06-04 18:00,ZHCC 041800Z 20003MPS 170V240 CAVOK 25/06 Q1000 NOSIG
ZHCC,2021-06-04 19:00,ZHCC 041900Z 22002MPS 190V250 CAVOK 25/06 Q1000 NOSIG
ZHCC,2021-06-04 20:00,ZHCC 042000Z 20003MPS CAVOK 23/06 Q1000 NOSIG
ZHCC,2021-06-04 21:00,ZHCC 042100Z 22002MPS CAVOK 23/07 Q1000 NOSIG
ZHCC,2021-06-04 22:00,ZHCC 042200Z VRB01MPS CAVOK 21/09 Q1000 NOSIG
ZHCC,2021-06-04 23:00,ZHCC 042300Z 22002MPS 180V250 CAVOK 25/09 Q1001 NOSIG
ZHCC,2021-06-05 00:00,ZHCC 050000Z 23003MPS 190V260 CAVOK 28/08 Q1001 NOSIG
ZHCC,2021-06-05 01:00,ZHCC 050100Z 22003MPS 180V260 CAVOK 30/09 Q1001 NOSIG
ZHCC,2021-06-05 02:00,ZHCC 050200Z VRB02MPS CAVOK 33/12 Q1000 NOSIG
ZHCC,2021-06-05 03:00,ZHCC 050300Z VRB02MPS CAVOK 35/11 Q1000 BECMG TL0440 27007MPS
ZHCC,2021-06-05 04:00,ZHCC 050400Z 05004MPS 010V110 CAVOK 36/07 Q0999 BECMG TL0540 27006MPS
ZHCC,2021-06-05 05:00,ZHCC 050500Z 30005MPS 270V330 9999 FEW040 38/08 Q0998 NOSIG
ZHCC,2021-06-05 06:00,ZHCC 050600Z 30005MPS 250V330 9999 FEW040 38/06 Q0998 NOSIG
ZHCC,2021-06-05 07:00,ZHCC 050700Z 28004MPS 180V350 9999 SCT040 39/05 Q0997 NOSIG
ZHCC,2021-06-05 08:00,ZHCC 050800Z 28005G10MPS 230V320 9999 FEW040CB SCT040 38/03 Q0996 NOSIG
ZHCC,2021-06-05 09:00,ZHCC 050900Z 10003MPS 030V200 9999 FEW040CB SCT040 35/06 Q0997 BECMG TL1000 NSC
ZHCC,2021-06-05 10:00,ZHCC 051000Z 10004MPS 060V130 9999 BKN040 35/08 Q0996 NOSIG
ZHCC,2021-06-05 11:00,ZHCC 051100Z 14002MPS 110V170 9999 BKN040 33/09 Q0997 NOSIG
ZHCC,2021-06-05 12:00,ZHCC 051200Z 06004MPS 030V090 9999 BKN040 33/08 Q0998 NOSIG
ZHCC,2021-06-05 13:00,ZHCC 051300Z 07007MPS CAVOK 31/10 Q0999 NOSIG
ZHCC,2021-06-05 14:00,ZHCC 051400Z 06005MPS CAVOK 30/11 Q1000 NOSIG
ZHCC,2021-06-05 15:00,ZHCC 051500Z 05006MPS CAVOK 28/12 Q1001 NOSIG
ZHCC,2021-06-05 16:00,ZHCC 051600Z 07006MPS CAVOK 27/12 Q1001 NOSIG
ZHCC,2021-06-05 17:00,ZHCC 051700Z 08005MPS CAVOK 26/12 Q1000 NOSIG
ZHCC,2021-06-05 18:00,ZHCC 051800Z 11003MPS CAVOK 23/13 Q1000 NOSIG
ZHCC,2021-06-05 19:00,ZHCC 051900Z 27001MPS CAVOK 21/14 Q1000 NOSIG
ZHCC,2021-06-05 20:00,ZHCC 052000Z 00000MPS CAVOK 20/14 Q1001 NOSIG
ZHCC,2021-06-05 21:00,ZHCC 052100Z 00000MPS CAVOK 19/15 Q1001 NOSIG
ZHCC,2021-06-05 22:00,ZHCC 052200Z 00000MPS CAVOK 21/15 Q1001 NOSIG
ZHCC,2021-06-05 23:00,ZHCC 052300Z 00000MPS CAVOK 25/17 Q1002 NOSIG
ZHCC,2021-06-06 00:00,ZHCC 060000Z VRB01MPS CAVOK 26/14 Q1002 NOSIG
ZHCC,2021-06-06 01:00,ZHCC 060100Z 28002MPS 210V340 CAVOK 29/14 Q1002 NOSIG
ZHCC,2021-06-06 02:00,ZHCC 060200Z 29002MPS 210V350 CAVOK 31/14 Q1002 NOSIG
ZHCC,2021-06-06 03:00,ZHCC 060300Z VRB01MPS CAVOK 33/15 Q1002 NOSIG
ZHCC,2021-06-06 04:00,ZHCC 060400Z VRB02MPS CAVOK 34/15 Q1002 NOSIG
ZHCC,2021-06-06 05:00,ZHCC 060500Z VRB03MPS CAVOK 35/14 Q1001 NOSIG
ZHCC,2021-06-06 06:00,ZHCC 060600Z VRB02MPS CAVOK 37/11 Q1001 NOSIG
ZHCC,2021-06-06 07:00,ZHCC 060700Z 11002MPS 060V200 CAVOK 37/12 Q1000 NOSIG
ZHCC,2021-06-06 08:00,ZHCC 060800Z 15002MPS 080V200 CAVOK 37/14 Q1000 NOSIG
ZHCC,2021-06-06 09:00,ZHCC 060900Z 13002MPS 080V200 CAVOK 37/12 Q1000 NOSIG
ZHCC,2021-06-06 10:00,ZHCC 061000Z VRB01MPS CAVOK 35/15 Q1000 NOSIG
ZHCC,2021-06-06 11:00,ZHCC 061100Z VRB01MPS CAVOK 34/17 Q1000 NOSIG
ZHCC,2021-06-06 12:00,ZHCC 061200Z VRB01MPS CAVOK 33/17 Q1001 NOSIG
ZHCC,2021-06-06 13:00,ZHCC 061300Z 18002MPS 150V230 CAVOK 33/18 Q1002 NOSIG
ZHCC,2021-06-06 14:00,ZHCC 061400Z 21003MPS 160V250 CAVOK 33/18 Q1002 NOSIG
ZHCC,2021-06-06 15:00,ZHCC 061500Z 19004MPS 130V230 CAVOK 32/19 Q1003 NOSIG
ZHCC,2021-06-06 16:00,ZHCC 061600Z 20004MPS 150V240 CAVOK 31/19 Q1003 NOSIG
ZHCC,2021-06-06 17:00,ZHCC 061700Z 19004MPS 130V240 CAVOK 29/20 Q1003 NOSIG
ZHCC,2021-06-06 18:00,ZHCC 061800Z 19004MPS 140V230 CAVOK 28/20 Q1003 NOSIG
ZHCC,2021-06-06 19:00,ZHCC 061900Z VRB02MPS CAVOK 28/20 Q1003 NOSIG
ZHCC,2021-06-06 20:00,ZHCC 062000Z 21002MPS 160V260 CAVOK 27/20 Q1003 NOSIG
ZHCC,2021-06-06 21:00,ZHCC 062100Z 23002MPS 170V310 CAVOK 28/20 Q1004 NOSIG
ZHCC,2021-06-06 22:00,ZHCC 062200Z 20003MPS 160V250 CAVOK 28/19 Q1004 NOSIG
ZHCC,2021-06-06 23:00,ZHCC 062300Z 21003MPS 180V290 CAVOK 29/19 Q1004 NOSIG
ZHCC,2021-06-07 00:00,ZHCC 070000Z 19004G10MPS 110V220 CAVOK 29/19 Q1005 NOSIG
ZHCC,2021-06-07 01:00,ZHCC 070100Z VRB02MPS CAVOK 29/19 Q1005 NOSIG
ZHCC,2021-06-07 02:00,ZHCC 070200Z 17004MPS 120V220 CAVOK 30/19 Q1006 NOSIG
ZHCC,2021-06-07 03:00,ZHCC 070300Z 15003MPS 090V250 CAVOK 34/19 Q1005 NOSIG
ZHCC,2021-06-07 04:00,ZHCC 070400Z 14003MPS 090V210 CAVOK 35/18 Q1005 NOSIG
ZHCC,2021-06-07 05:00,ZHCC 070500Z 18005G10MPS 130V230 9999 FEW043 37/14 Q1005 NOSIG
ZHCC,2021-06-07 06:00,ZHCC 070600Z 16004G09MPS 070V210 CAVOK 37/14 Q1004 NOSIG
ZHCC,2021-06-07 07:00,ZHCC 070700Z 18005G10MPS 120V230 CAVOK 37/14 Q1004 NOSIG
ZHCC,2021-06-07 08:00,ZHCC 070800Z 16004MPS 090V210 CAVOK 37/13 Q1003 NOSIG
ZHCC,2021-06-07 09:00,ZHCC 070900Z 15003MPS 100V200 CAVOK 37/13 Q1003 NOSIG
ZHCC,2021-06-07 10:00,ZHCC 071000Z 14003MPS 080V200 CAVOK 36/11 Q1004 NOSIG
ZHCC,2021-06-07 11:00,ZHCC 071100Z 14002MPS 090V170 CAVOK 35/10 Q1004 NOSIG
ZHCC,2021-06-07 12:00,ZHCC 071200Z 02005MPS 350V050 9999 TS OVC040 SCT050CB 33/14 Q1006 NOSIG
ZHCC,2021-06-07 13:00,ZHCC 071300Z 04007MPS 010V070 9999 OVC040 FEW050CB 30/15 Q1008 RETS NOSIG
ZHCC,2021-06-07 14:00,ZHCC 071400Z 03006MPS 9999 OVC040 FEW050CB 29/16 Q1009 NOSIG
ZHCC,2021-06-07 15:00,ZHCC 071500Z 06006MPS 9999 OVC040 28/15 Q1008 NOSIG
ZHCC,2021-06-07 16:00,ZHCC 071600Z 36003MPS 330V060 9999 OVC040 27/15 Q1009 NOSIG
ZHCC,2021-06-07 17:00,ZHCC 071700Z 05003MPS 010V110 CAVOK 27/15 Q1009 NOSIG
ZHCC,2021-06-07 18:00,ZHCC 071800Z 06003MPS 010V110 CAVOK 26/15 Q1009 NOSIG
ZHCC,2021-06-07 19:00,ZHCC 071900Z 02004G09MPS 350V050 CAVOK 26/15 Q1009 NOSIG
ZHCC,2021-06-07 20:00,ZHCC 072000Z 03005MPS CAVOK 25/15 Q1009 NOSIG
ZHCC,2021-06-07 21:00,ZHCC 072100Z 04005MPS CAVOK 24/16 Q1009 NOSIG
ZHCC,2021-06-07 22:00,ZHCC 072200Z 02003MPS 340V080 7000 NSC 24/16 Q1009 NOSIG
ZHCC,2021-06-07 23:00,ZHCC 072300Z 05005MPS 5000 HZ NSC 24/17 Q1010 NOSIG
ZHCC,2021-06-08 00:00,ZHCC 080000Z 03005MPS 360V070 5000 HZ NSC 25/18 Q1011 NOSIG
ZHCC,2021-06-08 01:00,ZHCC 080100Z 02004G09MPS 340V080 5000 HZ NSC 26/18 Q1011 NOSIG
ZHCC,2021-06-08 02:00,ZHCC 080200Z 03004G09MPS 360V090 6000 NSC 27/18 Q1011 NOSIG
ZHCC,2021-06-08 03:00,ZHCC 080300Z 04003MPS 350V080 8000 NSC 29/19 Q1010 NOSIG
ZHCC,2021-06-08 04:00,ZHCC 080400Z 08003MPS 340V150 8000 NSC 30/18 Q1010 NOSIG
ZHCC,2021-06-08 05:00,ZHCC 080500Z VRB03MPS 8000 NSC 32/19 Q1009 NOSIG
ZHCC,2021-06-08 06:00,ZHCC 080600Z 07003MPS 350V150 CAVOK 33/19 Q1008 NOSIG
ZHCC,2021-06-08 07:00,ZHCC 080700Z 11003MPS 070V190 CAVOK 33/18 Q1007 NOSIG
ZHCC,2021-06-08 08:00,ZHCC 080800Z 09004MPS 050V130 CAVOK 34/18 Q1007 NOSIG
ZHCC,2021-06-08 09:00,ZHCC 080900Z 05003MPS 340V090 CAVOK 34/18 Q1007 NOSIG
ZHCC,2021-06-08 10:00,ZHCC 081000Z 06004MPS 020V090 CAVOK 33/17 Q1007 NOSIG
ZHCC,2021-06-08 11:00,ZHCC 081100Z 05004MPS CAVOK 33/17 Q1007 NOSIG
ZHCC,2021-06-08 12:00,ZHCC 081200Z 05003MPS CAVOK 32/17 Q1007 NOSIG
ZHCC,2021-06-08 13:00,ZHCC 081300Z 05003MPS 020V080 CAVOK 32/16 Q1008 NOSIG
ZHCC,2021-06-08 14:00,ZHCC 081400Z 05003MPS 030V090 CAVOK 31/16 Q1008 NOSIG
ZHCC,2021-06-08 15:00,ZHCC 081500Z 10002MPS 040V170 CAVOK 29/17 Q1008 NOSIG
ZHCC,2021-06-08 16:00,ZHCC 081600Z 05003MPS CAVOK 30/16 Q1008 NOSIG
ZHCC,2021-06-08 17:00,ZHCC 081700Z 05002MPS 010V080 CAVOK 29/17 Q1008 NOSIG
ZHCC,2021-06-08 18:00,ZHCC 081800Z 01002MPS 340V050 CAVOK 28/17 Q1007 NOSIG
ZHCC,2021-06-08 19:00,ZHCC 081900Z 03003MPS CAVOK 27/17 Q1007 NOSIG
ZHCC,2021-06-08 20:00,ZHCC 082000Z 04003MPS 010V110 CAVOK 27/18 Q1007 NOSIG
ZHCC,2021-06-08 21:00,ZHCC 082100Z 04004MPS CAVOK 26/18 Q1008 NOSIG
ZHCC,2021-06-08 22:00,ZHCC 082200Z 02004MPS 7000 NSC 26/18 Q1008 NOSIG
ZHCC,2021-06-08 23:00,ZHCC 082300Z 04005MPS 6000 NSC 25/18 Q1008 NOSIG
ZHCC,2021-06-09 00:00,ZHCC 090000Z 05004MPS 6000 NSC 26/18 Q1009 NOSIG
ZHCC,2021-06-09 01:00,ZHCC 090100Z 03003MPS 360V070 6000 FEW030 26/19 Q1009 NOSIG
ZHCC,2021-06-09 02:00,ZHCC 090200Z 05003MPS 010V090 5000 HZ SCT040 27/19 Q1009 NOSIG
ZHCC,2021-06-09 03:00,ZHCC 090300Z 04004MPS 010V070 5000 HZ NSC 27/18 Q1009 NOSIG
ZHCC,2021-06-09 04:00,ZHCC 090400Z 05002MPS 320V110 5000 HZ NSC 27/19 Q1009 NOSIG
ZHCC,2021-06-09 05:00,ZHCC 090500Z 35002MPS 270V060 5000 HZ NSC 29/19 Q1009 NOSIG
ZHCC,2021-06-09 06:00,ZHCC 090600Z 36002MPS 320V080 5000 HZ NSC 30/19 Q1008 NOSIG
ZHCC,2021-06-09 07:00,ZHCC 090700Z 09002MPS 060V140 7000 NSC 30/19 Q1008 NOSIG
ZHCC,2021-06-09 08:00,ZHCC 090800Z VRB01MPS 8000 NSC 30/18 Q1007 NOSIG
ZHCC,2021-06-09 09:00,ZHCC 090900Z 08003MPS 040V100 CAVOK 30/18 Q1007 NOSIG
ZHCC,2021-06-09 10:00,ZHCC 091000Z 06004MPS 030V090 CAVOK 30/18 Q1007 NOSIG
ZHCC,2021-06-09 11:00,ZHCC 091100Z 07004MPS 8000 OVC040 FEW050CB 29/19 Q1007 NOSIG
ZHCC,2021-06-09 12:00,ZHCC 091200Z 36003MPS 320V050 9999 -SHRA OVC040 FEW050CB 29/19 Q1008 NOSIG
ZHCC,2021-06-09 13:00,ZHCC 091300Z 02006MPS 360V060 CAVOK 27/19 Q1008 NOSIG
ZHCC,2021-06-09 14:00,ZHCC 091400Z 04005MPS 010V080 6000 NSC 26/20 Q1009 NOSIG
ZHCC,2021-06-09 15:00,ZHCC 091500Z 05005MPS 6000 NSC 25/20 Q1009 NOSIG
ZHCC,2021-06-09 16:00,ZHCC 091600Z 03005MPS 6000 NSC 25/20 Q1009 NOSIG
ZHCC,2021-06-09 17:00,ZHCC 091700Z 02004MPS 340V060 6000 NSC 24/19 Q1009 NOSIG
ZHCC,2021-06-09 18:00,ZHCC 091800Z 02003MPS 6000 NSC 24/19 Q1008 NOSIG
ZHCC,2021-06-09 19:00,ZHCC 091900Z 02003MPS 6000 NSC 23/19 Q1008 NOSIG
ZHCC,2021-06-09 20:00,ZHCC 092000Z 36004MPS 340V040 5000 BR NSC 23/19 Q1008 NOSIG
ZHCC,2021-06-09 21:00,ZHCC 092100Z 36003MPS 5000 BR NSC 23/19 Q1008 NOSIG
ZHCC,2021-06-09 22:00,ZHCC 092200Z 02003MPS 320V060 3500 BR NSC 22/19 Q1008 NOSIG
ZHCC,2021-06-09 23:00,ZHCC 092300Z 36003MPS 320V030 4000 BR NSC 23/19 Q1008 NOSIG
ZHCC,2021-06-10 00:00,ZHCC 100000Z 02004MPS 340V070 5000 HZ NSC 24/18 Q1008 NOSIG
ZHCC,2021-06-10 01:00,ZHCC 100100Z 04003MPS 340V080 6000 NSC 26/19 Q1008 NOSIG
ZHCC,2021-06-10 02:00,ZHCC 100200Z 05003MPS 360V090 6000 NSC 26/19 Q1008 NOSIG
ZHCC,2021-06-10 03:00,ZHCC 100300Z 04002MPS 330V110 6000 NSC 28/20 Q1008 NOSIG
ZHCC,2021-06-10 04:00,ZHCC 100400Z 05003MPS 340V100 7000 NSC 30/19 Q1008 NOSIG
ZHCC,2021-06-10 05:00,ZHCC 100500Z VRB02MPS 7000 NSC 30/19 Q1007 NOSIG
ZHCC,2021-06-10 06:00,ZHCC 100600Z VRB02MPS 7000 NSC 32/19 Q1006 NOSIG
ZHCC,2021-06-10 07:00,ZHCC 100700Z VRB02MPS CAVOK 33/18 Q1006 NOSIG
ZHCC,2021-06-10 08:00,ZHCC 100800Z 16002MPS 110V250 CAVOK 32/19 Q1005 NOSIG
ZHCC,2021-06-10 09:00,ZHCC 100900Z 07003MPS 020V120 CAVOK 32/17 Q1005 NOSIG
ZHCC,2021-06-10 10:00,ZHCC 101000Z VRB02MPS CAVOK 32/18 Q1005 NOSIG
ZHCC,2021-06-10 11:00,ZHCC 101100Z 05004MPS 020V080 CAVOK 31/18 Q1005 NOSIG
ZHCC,2021-06-10 12:00,ZHCC 101200Z 04006MPS 7000 NSC 29/20 Q1006 NOSIG
ZHCC,2021-06-10 13:00,ZHCC 101300Z 05005MPS 7000 NSC 28/19 Q1007 NOSIG
ZHCC,2021-06-10 14:00,ZHCC 101400Z 05005MPS 020V090 7000 NSC 27/19 Q1008 NOSIG
ZHCC,2021-06-10 15:00,ZHCC 101500Z 05005MPS 8000 NSC 26/19 Q1008 NOSIG
ZHCC,2021-06-10 16:00,ZHCC 101600Z 04004MPS 010V070 7000 NSC 26/19 Q1008 NOSIG
ZHCC,2021-06-10 17:00,ZHCC 101700Z 05003MPS 010V080 7000 NSC 25/19 Q1008 NOSIG
ZHCC,2021-06-10 18:00,ZHCC 101800Z 04002MPS 010V100 7000 NSC 25/19 Q1008 NOSIG
ZHCC,2021-06-10 19:00,ZHCC 101900Z 05002MPS 020V080 7000 NSC 25/19 Q1008 NOSIG
ZHCC,2021-06-10 20:00,ZHCC 102000Z 02003MPS 350V070 7000 NSC 25/18 Q1008 NOSIG
ZHCC,2021-06-10 21:00,ZHCC 102100Z VRB01MPS 7000 NSC 24/18 Q1008 NOSIG
ZHCC,2021-06-10 22:00,ZHCC 102200Z 30002MPS 7000 NSC 23/19 Q1009 NOSIG
ZHCC,2021-06-10 23:00,ZHCC 102300Z 06003MPS 7000 NSC 26/18 Q1009 NOSIG
ZHCC,2021-06-11 00:00,ZHCC 110000Z 08003MPS 050V110 7000 NSC 27/18 Q1010 NOSIG
ZHCC,2021-06-11 01:00,ZHCC 110100Z 05004MPS 360V080 7000 NSC 28/18 Q1010 NOSIG
ZHCC,2021-06-11 02:00,ZHCC 110200Z 04002MPS 330V090 CAVOK 29/18 Q1010 NOSIG
ZHCC,2021-06-11 03:00,ZHCC 110300Z VRB02MPS CAVOK 30/18 Q1010 NOSIG
ZHCC,2021-06-11 04:00,ZHCC 110400Z VRB01MPS CAVOK 32/19 Q1010 NOSIG
ZHCC,2021-06-11 05:00,ZHCC 110500Z VRB02MPS CAVOK 34/19 Q1009 NOSIG
ZHCC,2021-06-11 06:00,ZHCC 110600Z 14003MPS 050V190 9999 FEW030 34/18 Q1008 NOSIG
ZHCC,2021-06-11 07:00,ZHCC 110700Z 17003MPS 100V220 9999 FEW030 34/18 Q1008 NOSIG
ZHCC,2021-06-11 08:00,ZHCC 110800Z 18002MPS 100V250 9999 FEW030 35/17 Q1007 NOSIG
ZHCC,2021-06-11 09:00,ZHCC 110900Z 13003MPS 090V200 CAVOK 35/18 Q1006 NOSIG
ZHCC,2021-06-11 10:00,ZHCC 111000Z 14002MPS 090V200 CAVOK 34/17 Q1006 NOSIG
ZHCC,2021-06-11 11:00,ZHCC 111100Z 12002MPS 100V160 CAVOK 33/17 Q1007 NOSIG
ZHCC,2021-06-11 12:00,ZHCC 111200Z 08004MPS CAVOK 32/19 Q1007 NOSIG
ZHCC,2021-06-11 13:00,ZHCC 111300Z 11003MPS CAVOK 30/19 Q1008 NOSIG
ZHCC,2021-06-11 14:00,ZHCC 111400Z 11003MPS CAVOK 29/19 Q1009 NOSIG
ZHCC,2021-06-11 15:00,ZHCC 111500Z 12003MPS CAVOK 29/19 Q1009 NOSIG
ZHCC,2021-06-11 16:00,ZHCC 111600Z 12003MPS CAVOK 29/19 Q1009 NOSIG
ZHCC,2021-06-11 17:00,ZHCC 111700Z VRB01MPS CAVOK 28/19 Q1008 NOSIG
ZHCC,2021-06-11 18:00,ZHCC 111800Z VRB01MPS CAVOK 27/19 Q1008 NOSIG
ZHCC,2021-06-11 19:00,ZHCC 111900Z VRB01MPS CAVOK 26/20 Q1008 NOSIG
ZHCC,2021-06-11 20:00,ZHCC 112000Z VRB01MPS CAVOK 26/20 Q1008 NOSIG
ZHCC,2021-06-11 21:00,ZHCC 112100Z VRB01MPS CAVOK 26/19 Q1008 NOSIG
ZHCC,2021-06-11 22:00,ZHCC 112200Z VRB01MPS CAVOK 26/20 Q1009 NOSIG
ZHCC,2021-06-11 23:00,ZHCC 112300Z VRB01MPS CAVOK 27/20 Q1009 NOSIG
ZHCC,2021-06-12 00:00,ZHCC 120000Z 18002MPS 110V230 CAVOK 29/21 Q1009 NOSIG
ZHCC,2021-06-12 01:00,ZHCC 120100Z 18002MPS 090V250 CAVOK 30/22 Q1010 NOSIG
ZHCC,2021-06-12 02:00,ZHCC 120200Z VRB01MPS CAVOK 30/22 Q1009 NOSIG
ZHCC,2021-06-12 03:00,ZHCC 120300Z 13002MPS 080V180 8000 NSC 30/22 Q1010 NOSIG
ZHCC,2021-06-12 04:00,ZHCC 120400Z 12003MPS 090V160 8000 NSC 31/22 Q1009 NOSIG
ZHCC,2021-06-12 05:00,ZHCC 120500Z VRB02MPS 8000 FEW040 32/21 Q1009 NOSIG
ZHCC,2021-06-12 06:00,ZHCC 120600Z 15003MPS 090V210 CAVOK 32/21 Q1008 NOSIG
ZHCC,2021-06-12 07:00,ZHCC 120700Z 19003MPS 140V230 CAVOK 32/21 Q1007 NOSIG
ZHCC,2021-06-12 08:00,ZHCC 120800Z 17002MPS 100V240 9999 FEW040TCU FEW040 33/21 Q1007 NOSIG
ZHCC,2021-06-12 09:00,ZHCC 120900Z VRB01MPS 9999 FEW040TCU FEW040 33/21 Q1006 NOSIG
ZHCC,2021-06-12 10:00,ZHCC 121000Z 14006MPS 100V200 4000 TSRA BR FEW012 FEW030CB SCT033 26/23 Q1007 BECMG TL1140 NSW
ZHCC,2021-06-12 11:00,ZHCC 121100Z 12009G14MPS 090V150 8000 -SHRA FEW007 FEW040CB BKN040 23/21 Q1008 RETSRA BECMG TL1240 15003MPS
ZHCC,2021-06-12 12:00,ZHCC 121200Z 13004MPS 100V170 8000 OVC040 FEW050CB 23/21 Q1008 NOSIG
ZHCC,2021-06-12 13:00,ZHCC 121300Z VRB01MPS CAVOK 23/22 Q1007 NOSIG
ZHCC,2021-06-12 14:00,ZHCC 121400Z 19003MPS 130V230 CAVOK 25/22 Q1008 NOSIG
ZHCC,2021-06-12 15:00,ZHCC 121500Z VRB01MPS CAVOK 24/22 Q1008 NOSIG
ZHCC,2021-06-12 16:00,ZHCC 121600Z VRB01MPS CAVOK 24/22 Q1008 NOSIG
ZHCC,2021-06-12 17:00,ZHCC 121700Z 14002MPS 090V180 7000 NSC 24/22 Q1007 NOSIG
ZHCC,2021-06-12 18:00,ZHCC 121800Z 12002MPS 090V150 7000 NSC 24/22 Q1007 NOSIG
ZHCC,2021-06-12 19:00,ZHCC 121900Z VRB01MPS 7000 NSC 24/22 Q1007 NOSIG
ZHCC,2021-06-12 20:00,ZHCC 122000Z VRB01MPS 7000 OVC040 24/22 Q1007 NOSIG
ZHCC,2021-06-12 21:00,ZHCC 122100Z 15002MPS 100V200 5000 BR SCT040 24/23 Q1006 NOSIG
ZHCC,2021-06-12 22:00,ZHCC 122200Z VRB01MPS 4000 BR FEW040 24/23 Q1006 NOSIG
ZHCC,2021-06-12 23:00,ZHCC 122300Z 13002MPS 100V180 2500 BR FEW007 BKN030 24/23 Q1007 NOSIG
ZHCC,2021-06-13 00:00,ZHCC 130000Z VRB01MPS 4000 -RA BR FEW007 BKN030 24/23 Q1007 NOSIG
ZHCC,2021-06-13 01:00,ZHCC 130100Z 14002MPS 090V170 2000 -RA BR FEW007 OVC030 24/24 Q1007 RERA NOSIG
ZHCC,2021-06-13 02:00,ZHCC 130200Z 15002MPS 090V210 2500 -RA BR FEW007 OVC030 25/24 Q1006 NOSIG
ZHCC,2021-06-13 03:00,ZHCC 130300Z 14002MPS 100V190 2500 -RA BR FEW007 OVC030 25/24 Q1006 RERA NOSIG
ZHCC,2021-06-13 04:00,ZHCC 130400Z VRB02G07MPS 2500 -RA BR FEW007 OVC030 26/25 Q1005 BECMG TL0540 4000
ZHCC,2021-06-13 05:00,ZHCC 130500Z 16002MPS 110V220 5000 BR FEW007 OVC030 26/25 Q1005 NOSIG
ZHCC,2021-06-13 06:00,ZHCC 130600Z 16002MPS 100V220 8000 SCT012 OVC030 27/25 Q1004 NOSIG
ZHCC,2021-06-13 07:00,ZHCC 130700Z VRB02MPS 8000 FEW012 OVC030 27/25 Q1003 NOSIG
ZHCC,2021-06-13 08:00,ZHCC 130800Z 14002MPS 100V170 8000 FEW012 OVC030 27/24 Q1003 NOSIG
ZHCC,2021-06-13 09:00,ZHCC 130900Z 15002MPS 100V230 3000 -RA BR FEW012 OVC030 26/25 Q1002 NOSIG
ZHCC,2021-06-13 10:00,ZHCC 131000Z 14002MPS 100V190 7000 FEW009 OVC030 26/25 Q1001 NOSIG
ZHCC,2021-06-13 11:00,ZHCC 131100Z 14002MPS 100V210 7000 FEW009 OVC030 26/24 Q1002 NOSIG
ZHCC,2021-06-13 12:00,ZHCC 131200Z 13002MPS 100V180 7000 FEW009 OVC030 26/24 Q1002 NOSIG
ZHCC,2021-06-13 13:00,ZHCC 131300Z 13002MPS 100V180 7000 FEW009 OVC030 26/24 Q1002 NOSIG
ZHCC,2021-06-13 14:00,ZHCC 131400Z 13003MPS 090V160 8000 FEW009 OVC030 26/24 Q1002 NOSIG
ZHCC,2021-06-13 15:00,ZHCC 131500Z 14002MPS 080V200 8000 FEW009 OVC030 26/24 Q1002 NOSIG
ZHCC,2021-06-13 16:00,ZHCC 131600Z 18002MPS 110V230 8000 FEW009 OVC030 26/24 Q1002 NOSIG
ZHCC,2021-06-13 17:00,ZHCC 131700Z VRB01MPS 8000 FEW009 OVC030 25/24 Q1001 NOSIG
ZHCC,2021-06-13 18:00,ZHCC 131800Z 15002MPS 100V210 6000 FEW009 OVC030 25/24 Q1001 NOSIG
ZHCC,2021-06-13 19:00,ZHCC 131900Z 18002MPS 120V230 5000 BR FEW009 OVC030 25/24 Q1001 NOSIG
ZHCC,2021-06-13 20:00,ZHCC 132000Z 21002MPS 160V250 3000 BR FEW009 OVC030 25/24 Q1000 NOSIG
ZHCC,2021-06-13 21:00,ZHCC 132100Z 23002MPS 190V260 3000 BR FEW009 OVC030 25/25 Q1000 NOSIG
ZHCC,2021-06-13 22:00,ZHCC 132200Z VRB01MPS 3000 -RA BR BKN046 26/25 Q0999 BECMG TL2240 2500
ZHCC,2021-06-13 23:00,ZHCC 132300Z 13002MPS 090V160 1600 -RA BR OVC040 26/25 Q0999 NOSIG
ZHCC,2021-06-14 00:00,ZHCC 140000Z 12002MPS 2500 BR BKN040 26/25 Q0999 BECMG TL0140 3000
ZHCC,2021-06-14 01:00,ZHCC 140100Z 14002MPS 080V210 4000 BR NSC 28/25 Q0999 NOSIG
ZHCC,2021-06-14 02:00,ZHCC 140200Z 13002MPS 090V180 5000 BR BKN040 28/25 Q0999 NOSIG
ZHCC,2021-06-14 03:00,ZHCC 140300Z 14002MPS 100V190 5000 BR BKN040 29/25 Q0999 NOSIG
ZHCC,2021-06-14 04:00,ZHCC 140400Z 13003MPS 100V180 5000 BR BKN040 29/25 Q0998 NOSIG
ZHCC,2021-06-14 05:00,ZHCC 140500Z VRB02MPS 6000 BKN030 30/25 Q0998 NOSIG
ZHCC,2021-06-14 06:00,ZHCC 140600Z VRB01MPS 6000 BKN040 31/25 Q0997 NOSIG
ZHCC,2021-06-14 07:00,ZHCC 140700Z 26002MPS 200V320 7000 BKN040 32/25 Q0996 NOSIG
ZHCC,2021-06-14 08:00,ZHCC 140800Z 28002MPS 220V330 8000 SCT026 OVC040 32/25 Q0996 NOSIG
ZHCC,2021-06-14 09:00,ZHCC 140900Z 36004MPS 340V090 6000 -TSRA FEW040CB BKN040 31/25 Q0995 BECMG TL1020 NSW
ZHCC,2021-06-14 10:00,ZHCC 141000Z 36005MPS 6000 FEW030CB BKN040 27/25 Q0996 RETSRA BECMG TL1130 TSRA
ZHCC,2021-06-14 11:00,ZHCC 141100Z 03004MPS 3000 -TSRA BR FEW030CB BKN040 27/25 Q0997 NOSIG
ZHCC,2021-06-14 12:00,ZHCC 141200Z 36004MPS 3000 -RA BR FEW010 BKN040 26/24 Q0997 RETS NOSIG
ZHCC,2021-06-14 13:00,ZHCC 141300Z 36004MPS 4000 BR FEW010 BKN040 26/25 Q0997 NOSIG
ZHCC,2021-06-14 14:00,ZHCC 141400Z 35003MPS 300V020 4000 BR FEW010 BKN040 26/24 Q0998 NOSIG
ZHCC,2021-06-14 15:00,ZHCC 141500Z 36003MPS 320V020 5000 BR FEW010 BKN040 26/24 Q0999 NOSIG
ZHCC,2021-06-14 16:00,ZHCC 141600Z 36003MPS 5000 BR FEW010 BKN040 25/24 Q0998 NOSIG
ZHCC,2021-06-14 17:00,ZHCC 141700Z 01003MPS 5000 BR FEW010 BKN040 25/24 Q0997 NOSIG
ZHCC,2021-06-14 18:00,ZHCC 141800Z 35002MPS 290V040 5000 BR NSC 26/23 Q0997 NOSIG
ZHCC,2021-06-14 19:00,ZHCC 141900Z VRB01MPS 5000 BR NSC 25/23 Q0997 NOSIG
ZHCC,2021-06-14 20:00,ZHCC 142000Z 02002MPS 350V050 4000 BR NSC 25/23 Q0998 NOSIG
ZHCC,2021-06-14 21:00,ZHCC 142100Z 02002G10MPS 330V050 2500 BR NSC 25/23 Q0998 NOSIG
ZHCC,2021-06-14 22:00,ZHCC 142200Z 32002MPS 310V010 2000 BR BKN040 25/24 Q0999 NOSIG
ZHCC,2021-06-14 23:00,ZHCC 142300Z 02004MPS 2000 BR SCT012 BKN040 26/24 Q0999 NOSIG
ZHCC,2021-06-15 00:00,ZHCC 150000Z 02004MPS 350V060 3000 BR FEW015 SCT040 27/24 Q1000 NOSIG
ZHCC,2021-06-15 01:00,ZHCC 150100Z 03006MPS 3000 BR BKN030 28/24 Q1000 NOSIG
ZHCC,2021-06-15 02:00,ZHCC 150200Z 04006MPS 360V070 4000 BR OVC030 28/23 Q1000 NOSIG
ZHCC,2021-06-15 03:00,ZHCC 150300Z 04005MPS 5000 HZ OVC030 29/23 Q1000 NOSIG
ZHCC,2021-06-15 04:00,ZHCC 150400Z 04005MPS 010V080 6000 SCT030 30/23 Q1000 NOSIG
ZHCC,2021-06-15 05:00,ZHCC 150500Z 04005MPS 010V080 7000 SCT030 31/23 Q1000 NOSIG
ZHCC,2021-06-15 06:00,ZHCC 150600Z 05006MPS 360V080 8000 SCT030 32/23 Q0999 NOSIG
ZHCC,2021-06-15 07:00,ZHCC 150700Z 04006MPS 010V070 9999 SCT040 SCT046 31/22 Q0999 NOSIG
ZHCC,2021-06-15 08:00,ZHCC 150800Z 06006MPS 9999 SCT040 SCT046 32/22 Q0999 NOSIG
ZHCC,2021-06-15 09:00,ZHCC 150900Z 07007MPS 9999 SCT040 31/21 Q0999 NOSIG
ZHCC,2021-06-15 10:00,ZHCC 151000Z 07006MPS CAVOK 30/21 Q1000 NOSIG
ZHCC,2021-06-15 11:00,ZHCC 151100Z 07004G09MPS CAVOK 29/21 Q1000 NOSIG
ZHCC,2021-06-15 12:00,ZHCC 151200Z 06004MPS CAVOK 29/21 Q1001 NOSIG
ZHCC,2021-06-15 13:00,ZHCC 151300Z 07004MPS CAVOK 28/22 Q1001 NOSIG
ZHCC,2021-06-15 14:00,ZHCC 151400Z 07005MPS CAVOK 27/22 Q1002 NOSIG
ZHCC,2021-06-15 15:00,ZHCC 151500Z 07004MPS CAVOK 26/21 Q1002 NOSIG
ZHCC,2021-06-15 16:00,ZHCC 151600Z 08004MPS CAVOK 26/20 Q1003 NOSIG
ZHCC,2021-06-15 17:00,ZHCC 151700Z 06003MPS 030V090 CAVOK 26/20 Q1002 NOSIG
ZHCC,2021-06-15 18:00,ZHCC 151800Z 01003MPS CAVOK 25/20 Q1002 NOSIG
ZHCC,2021-06-15 19:00,ZHCC 151900Z 04004MPS CAVOK 24/20 Q1002 NOSIG
ZHCC,2021-06-15 20:00,ZHCC 152000Z 03004MPS 360V060 9999 SCT026 24/20 Q1002 NOSIG
ZHCC,2021-06-15 21:00,ZHCC 152100Z VRB04MPS 9999 BKN026 23/20 Q1003 NOSIG
ZHCC,2021-06-15 22:00,ZHCC 152200Z 03003MPS 010V070 5000 BR OVC020 23/20 Q1003 NOSIG
ZHCC,2021-06-15 23:00,ZHCC 152300Z 04005MPS 5000 BR OVC020 23/20 Q1004 NOSIG
ZHCC,2021-06-16 00:00,ZHCC 160000Z 04003MPS 360V070 4000 BR OVC020 23/20 Q1004 NOSIG
ZHCC,2021-06-16 01:00,ZHCC 160100Z 02003MPS 340V060 3500 BR OVC020 24/20 Q1005 NOSIG
ZHCC,2021-06-16 02:00,ZHCC 160200Z 06003MPS 030V100 3500 BR OVC020 24/21 Q1004 NOSIG
ZHCC,2021-06-16 03:00,ZHCC 160300Z 05003MPS 3500 BR OVC020 24/20 Q1005 NOSIG
ZHCC,2021-06-16 04:00,ZHCC 160400Z 08004MPS 030V110 2000 BR OVC020 23/21 Q1004 BECMG TL0540 3000
ZHCC,2021-06-16 05:00,ZHCC 160500Z 08003MPS 2500 BR OVC020 23/21 Q1004 BECMG TL0640 3000
ZHCC,2021-06-16 06:00,ZHCC 160600Z VRB01MPS 3000 BR OVC020 24/21 Q1004 NOSIG
ZHCC,2021-06-16 07:00,ZHCC 160700Z VRB01MPS 3000 BR OVC020 25/21 Q1004 BECMG TL0840 2500
ZHCC,2021-06-16 08:00,ZHCC 160800Z VRB01MPS 3000 BR FEW020 BKN040 26/22 Q1004 BECMG TL0840 2500
ZHCC,2021-06-16 09:00,ZHCC 160900Z VRB01MPS 2800 BR FEW040 26/22 Q1003 BECMG TL1040 3000
ZHCC,2021-06-16 10:00,ZHCC 161000Z VRB01MPS 3000 BR FEW030 26/22 Q1003 NOSIG
ZHCC,2021-06-16 11:00,ZHCC 161100Z VRB01MPS 3000 BR FEW030 25/22 Q1004 NOSIG
ZHCC,2021-06-16 12:00,ZHCC 161200Z VRB01MPS 5000 BR OVC030 25/22 Q1005 NOSIG
ZHCC,2021-06-16 13:00,ZHCC 161300Z 00000MPS 5000 BR OVC030 25/22 Q1005 NOSIG
ZHCC,2021-06-16 14:00,ZHCC 161400Z VRB01MPS 5000 BR NSC 25/22 Q1005 NOSIG
ZHCC,2021-06-16 15:00,ZHCC 161500Z 21002MPS 180V250 5000 BR NSC 25/22 Q1005 NOSIG
ZHCC,2021-06-16 16:00,ZHCC 161600Z VRB01MPS 4000 BR NSC 25/22 Q1005 NOSIG
ZHCC,2021-06-16 17:00,ZHCC 161700Z 23002MPS 180V260 4000 BR NSC 25/22 Q1004 NOSIG
ZHCC,2021-06-16 18:00,ZHCC 161800Z 25002MPS 200V270 8000 NSC 24/20 Q1004 NOSIG
ZHCC,2021-06-16 19:00,ZHCC 161900Z 25001MPS CAVOK 24/20 Q1004 NOSIG
ZHCC,2021-06-16 20:00,ZHCC 162000Z 26002MPS CAVOK 24/19 Q1004 NOSIG
ZHCC,2021-06-16 21:00,ZHCC 162100Z 29002MPS CAVOK 24/19 Q1005 NOSIG
ZHCC,2021-06-16 22:00,ZHCC 162200Z 33005MPS 9999 SCT033 25/18 Q1006 NOSIG
ZHCC,2021-06-16 23:00,ZHCC 162300Z 35005MPS 9999 SCT030 BKN040 24/19 Q1007 NOSIG
ZHCC,2021-06-17 00:00,ZHCC 170000Z 32004MPS 9999 OVC046 23/20 Q1007 NOSIG
ZHCC,2021-06-17 01:00,ZHCC 170100Z 31005MPS 9999 OVC040 23/20 Q1007 NOSIG
ZHCC,2021-06-17 02:00,ZHCC 170200Z 30004MPS CAVOK 23/20 Q1007 NOSIG
ZHCC,2021-06-17 03:00,ZHCC 170300Z 29005MPS CAVOK 24/19 Q1008 NOSIG
ZHCC,2021-06-17 04:00,ZHCC 170400Z 31005MPS 270V340 9999 FEW030 25/19 Q1007 NOSIG
ZHCC,2021-06-17 05:00,ZHCC 170500Z 31005MPS 9999 SCT030 25/19 Q1008 NOSIG
ZHCC,2021-06-17 06:00,ZHCC 170600Z 31006MPS 9999 FEW030 25/18 Q1008 NOSIG
ZHCC,2021-06-17 07:00,ZHCC 170700Z 30006MPS CAVOK 24/18 Q1008 NOSIG
ZHCC,2021-06-17 08:00,ZHCC 170800Z 28003MPS 5000 -RA BR OVC046 21/20 Q1007 NOSIG
ZHCC,2021-06-17 09:00,ZHCC 170900Z 28003MPS CAVOK 22/19 Q1007 NOSIG
ZHCC,2021-06-17 10:00,ZHCC 171000Z 26002MPS 210V300 CAVOK 23/18 Q1007 NOSIG
ZHCC,2021-06-17 11:00,ZHCC 171100Z 23002MPS 200V270 CAVOK 23/19 Q1007 NOSIG
ZHCC,2021-06-17 12:00,ZHCC 171200Z 23002MPS 170V270 CAVOK 23/18 Q1007 NOSIG
ZHCC,2021-06-17 13:00,ZHCC 171300Z VRB01MPS CAVOK 22/17 Q1007 NOSIG
ZHCC,2021-06-17 14:00,ZHCC 171400Z 23002MPS 200V270 CAVOK 23/17 Q1008 NOSIG
ZHCC,2021-06-17 15:00,ZHCC 171500Z 26002MPS 9999 -RA OVC040 22/16 Q1007 NOSIG
ZHCC,2021-06-17 16:00,ZHCC 171600Z 27002MPS CAVOK 22/16 Q1007 NOSIG
ZHCC,2021-06-17 17:00,ZHCC 171700Z VRB01MPS CAVOK 22/16 Q1006 NOSIG
ZHCC,2021-06-17 18:00,ZHCC 171800Z 24001MPS CAVOK 22/16 Q1006 NOSIG
ZHCC,2021-06-17 19:00,ZHCC 171900Z 24002MPS 9999 -RA OVC040 22/16 Q1005 NOSIG
ZHCC,2021-06-17 20:00,ZHCC 172000Z 29004MPS 260V320 9999 -RA OVC046 22/15 Q1005 NOSIG
ZHCC,2021-06-17 21:00,ZHCC 172100Z 31002MPS 250V340 CAVOK 22/15 Q1006 NOSIG
ZHCC,2021-06-17 22:00,ZHCC 172200Z 24004MPS 210V270 9999 -RA OVC046 20/16 Q1007 NOSIG
ZHCC,2021-06-17 23:00,ZHCC 172300Z 25003MPS 210V280 9999 -RA OVC046 20/16 Q1007 NOSIG
ZHCC,2021-06-18 00:00,ZHCC 180000Z 25004MPS 220V280 9999 -RA OVC046 20/17 Q1007 NOSIG
ZHCC,2021-06-18 01:00,ZHCC 180100Z 26003MPS 230V300 CAVOK 21/17 Q1007 NOSIG
ZHCC,2021-06-18 02:00,ZHCC 180200Z 26003MPS 220V280 CAVOK 21/16 Q1007 NOSIG
ZHCC,2021-06-18 03:00,ZHCC 180300Z 23003MPS 190V280 CAVOK 23/16 Q1007 NOSIG
ZHCC,2021-06-18 04:00,ZHCC 180400Z 24003MPS 180V290 CAVOK 25/16 Q1006 NOSIG
ZHCC,2021-06-18 05:00,ZHCC 180500Z 21003MPS 150V260 CAVOK 26/15 Q1006 NOSIG
ZHCC,2021-06-18 06:00,ZHCC 180600Z 21003MPS 150V260 CAVOK 27/15 Q1005 NOSIG
ZHCC,2021-06-18 07:00,ZHCC 180700Z 19003MPS 110V250 CAVOK 27/15 Q1005 NOSIG
ZHCC,2021-06-18 08:00,ZHCC 180800Z 18003MPS 120V230 CAVOK 28/16 Q1004 NOSIG
ZHCC,2021-06-18 09:00,ZHCC 180900Z 18003MPS 120V220 CAVOK 27/17 Q1004 NOSIG
ZHCC,2021-06-18 10:00,ZHCC 181000Z 19003MPS 130V240 CAVOK 27/17 Q1004 NOSIG
ZHCC,2021-06-18 11:00,ZHCC 181100Z 19003MPS 140V240 CAVOK 25/17 Q1004 NOSIG
ZHCC,2021-06-18 12:00,ZHCC 181200Z 20003MPS 160V250 CAVOK 23/16 Q1004 NOSIG
ZHCC,2021-06-18 13:00,ZHCC 181300Z 20003MPS 160V240 CAVOK 22/17 Q1004 NOSIG
ZHCC,2021-06-18 14:00,ZHCC 181400Z 20002MPS 160V240 CAVOK 22/17 Q1005 NOSIG
ZHCC,2021-06-18 15:00,ZHCC 181500Z VRB01MPS CAVOK 21/17 Q1004 NOSIG
ZHCC,2021-06-18 16:00,ZHCC 181600Z 19002MPS 150V220 CAVOK 21/17 Q1004 NOSIG
ZHCC,2021-06-18 17:00,ZHCC 181700Z VRB01MPS CAVOK 21/17 Q1004 NOSIG
ZHCC,2021-06-18 18:00,ZHCC 181800Z VRB01MPS CAVOK 20/17 Q1003 NOSIG
ZHCC,2021-06-18 19:00,ZHCC 181900Z VRB01MPS CAVOK 20/17 Q1004 NOSIG
ZHCC,2021-06-18 20:00,ZHCC 182000Z 20002MPS 160V240 CAVOK 19/17 Q1003 NOSIG
ZHCC,2021-06-18 21:00,ZHCC 182100Z VRB01MPS 7000 NSC 18/17 Q1004 NOSIG
ZHCC,2021-06-18 22:00,ZHCC 182200Z 00000MPS 7000 NSC 19/18 Q1003 NOSIG
ZHCC,2021-06-18 23:00,ZHCC 182300Z VRB01MPS 7000 NSC 24/18 Q1004 NOSIG
ZHCC,2021-06-19 00:00,ZHCC 190000Z 26002MPS 220V290 CAVOK 26/18 Q1004 NOSIG
ZHCC,2021-06-19 01:00,ZHCC 190100Z VRB02MPS CAVOK 28/18 Q1004 NOSIG
ZHCC,2021-06-19 02:00,ZHCC 190200Z VRB02MPS CAVOK 28/19 Q1004 NOSIG
ZHCC,2021-06-19 03:00,ZHCC 190300Z VRB02MPS CAVOK 29/20 Q1004 NOSIG
ZHCC,2021-06-19 04:00,ZHCC 190400Z 17002MPS 100V230 CAVOK 30/20 Q1004 NOSIG
ZHCC,2021-06-19 05:00,ZHCC 190500Z 17002MPS 090V230 CAVOK 31/19 Q1003 NOSIG
ZHCC,2021-06-19 06:00,ZHCC 190600Z 18003MPS 100V250 CAVOK 32/17 Q1002 NOSIG
ZHCC,2021-06-19 07:00,ZHCC 190700Z 18002MPS 100V250 CAVOK 31/17 Q1002 NOSIG
ZHCC,2021-06-19 08:00,ZHCC 190800Z 16002MPS 100V270 CAVOK 31/15 Q1001 NOSIG
ZHCC,2021-06-19 09:00,ZHCC 190900Z 18003MPS 120V210 CAVOK 31/15 Q1001 NOSIG
ZHCC,2021-06-19 10:00,ZHCC 191000Z 18003MPS 120V250 CAVOK 30/14 Q1001 NOSIG
ZHCC,2021-06-19 11:00,ZHCC 191100Z 19004MPS 150V240 CAVOK 29/13 Q1001 NOSIG
ZHCC,2021-06-19 12:00,ZHCC 191200Z 19003MPS 140V240 CAVOK 28/13 Q1001 NOSIG
ZHCC,2021-06-19 13:00,ZHCC 191300Z 19003MPS 160V230 CAVOK 27/14 Q1002 NOSIG
ZHCC,2021-06-19 14:00,ZHCC 191400Z 20003MPS 150V240 CAVOK 25/16 Q1002 NOSIG
ZHCC,2021-06-19 15:00,ZHCC 191500Z 20003MPS 160V230 CAVOK 25/17 Q1002 NOSIG
ZHCC,2021-06-19 16:00,ZHCC 191600Z 20002MPS 160V240 CAVOK 25/18 Q1002 NOSIG
ZHCC,2021-06-19 17:00,ZHCC 191700Z 19002MPS 130V250 CAVOK 24/18 Q1001 NOSIG
ZHCC,2021-06-19 18:00,ZHCC 191800Z 18002MPS 110V230 CAVOK 24/18 Q1001 NOSIG
ZHCC,2021-06-19 19:00,ZHCC 191900Z 19002MPS 140V220 CAVOK 23/19 Q1001 NOSIG
ZHCC,2021-06-19 20:00,ZHCC 192000Z 20002MPS 170V250 CAVOK 23/19 Q1001 NOSIG
ZHCC,2021-06-19 21:00,ZHCC 192100Z 19002MPS 150V220 6000 NSC 22/19 Q1001 NOSIG
ZHCC,2021-06-19 22:00,ZHCC 192200Z 19002MPS 140V230 6000 NSC 22/19 Q1001 NOSIG
ZHCC,2021-06-19 23:00,ZHCC 192300Z 20002MPS 160V240 8000 NSC 24/20 Q1001 NOSIG
ZHCC,2021-06-20 00:00,ZHCC 200000Z VRB01MPS CAVOK 27/19 Q1002 NOSIG
ZHCC,2021-06-20 01:00,ZHCC 200100Z VRB01MPS CAVOK 28/20 Q1002 NOSIG
ZHCC,2021-06-20 02:00,ZHCC 200200Z VRB01MPS CAVOK 31/20 Q1002 NOSIG
ZHCC,2021-06-20 03:00,ZHCC 200300Z 15002MPS 060V230 CAVOK 32/19 Q1002 NOSIG
ZHCC,2021-06-20 04:00,ZHCC 200400Z 06004MPS 010V120 CAVOK 34/15 Q1002 NOSIG
ZHCC,2021-06-20 05:00,ZHCC 200500Z 09004MPS 050V130 CAVOK 34/14 Q1002 NOSIG
ZHCC,2021-06-20 06:00,ZHCC 200600Z 13002MPS 060V220 CAVOK 34/14 Q1001 NOSIG
ZHCC,2021-06-20 07:00,ZHCC 200700Z 16003MPS 100V250 CAVOK 35/18 Q1001 NOSIG
ZHCC,2021-06-20 08:00,ZHCC 200800Z 13002MPS 100V190 CAVOK 34/17 Q1001 NOSIG
ZHCC,2021-06-20 09:00,ZHCC 200900Z 12003MPS 100V160 CAVOK 34/16 Q1001 NOSIG
ZHCC,2021-06-20 10:00,ZHCC 201000Z 13002MPS 100V170 CAVOK 33/16 Q1001 NOSIG
ZHCC,2021-06-20 11:00,ZHCC 201100Z 14002MPS 100V180 CAVOK 32/16 Q1001 NOSIG
ZHCC,2021-06-20 12:00,ZHCC 201200Z 18003MPS 110V230 CAVOK 30/17 Q1002 NOSIG
ZHCC,2021-06-20 13:00,ZHCC 201300Z 19003MPS 150V230 CAVOK 29/11 Q1003 NOSIG
ZHCC,2021-06-20 14:00,ZHCC 201400Z 19002MPS 150V250 CAVOK 28/13 Q1003 NOSIG
ZHCC,2021-06-20 15:00,ZHCC 201500Z 19002MPS 140V240 CAVOK 27/15 Q1003 NOSIG
ZHCC,2021-06-20 16:00,ZHCC 201600Z 18002MPS 130V240 CAVOK 26/17 Q1003 NOSIG
ZHCC,2021-06-20 17:00,ZHCC 201700Z 19003MPS 160V220 CAVOK 26/17 Q1003 NOSIG
ZHCC,2021-06-20 18:00,ZHCC 201800Z 19003MPS 120V230 CAVOK 25/18 Q1003 NOSIG
ZHCC,2021-06-20 19:00,ZHCC 201900Z 19002MPS 150V260 CAVOK 25/18 Q1003 NOSIG
ZHCC,2021-06-20 20:00,ZHCC 202000Z 20002MPS 160V230 CAVOK 24/19 Q1003 NOSIG
ZHCC,2021-06-20 21:00,ZHCC 202100Z VRB01MPS CAVOK 23/19 Q1003 NOSIG
ZHCC,2021-06-20 22:00,ZHCC 202200Z VRB01MPS CAVOK 23/19 Q1003 NOSIG
ZHCC,2021-06-20 23:00,ZHCC 202300Z 20002MPS 170V240 CAVOK 25/19 Q1004 NOSIG
ZHCC,2021-06-21 00:00,ZHCC 210000Z 23002MPS 190V260 CAVOK 27/18 Q1004 NOSIG
ZHCC,2021-06-21 01:00,ZHCC 210100Z 21002MPS 170V240 CAVOK 29/16 Q1004 NOSIG
ZHCC,2021-06-21 02:00,ZHCC 210200Z VRB02MPS CAVOK 31/17 Q1004 NOSIG
ZHCC,2021-06-21 03:00,ZHCC 210300Z VRB02MPS CAVOK 33/16 Q1004 NOSIG
ZHCC,2021-06-21 04:00,ZHCC 210400Z 18002MPS 110V280 CAVOK 34/16 Q1004 NOSIG
ZHCC,2021-06-21 05:00,ZHCC 210500Z 13003MPS 090V170 CAVOK 34/14 Q1003 NOSIG
ZHCC,2021-06-21 06:00,ZHCC 210600Z 14003MPS 100V210 CAVOK 34/14 Q1003 NOSIG
ZHCC,2021-06-21 07:00,ZHCC 210700Z VRB03MPS CAVOK 36/13 Q1003 NOSIG
ZHCC,2021-06-21 08:00,ZHCC 210800Z 13003MPS 070V210 CAVOK 36/11 Q1002 NOSIG
ZHCC,2021-06-21 09:00,ZHCC 210900Z 13004MPS 100V200 CAVOK 35/15 Q1002 NOSIG
ZHCC,2021-06-21 10:00,ZHCC 211000Z 14003MPS 100V180 CAVOK 34/14 Q1002 NOSIG
ZHCC,2021-06-21 11:00,ZHCC 211100Z 13002MPS 100V170 CAVOK 32/15 Q1003 NOSIG
ZHCC,2021-06-21 12:00,ZHCC 211200Z VRB01MPS CAVOK 30/15 Q1003 NOSIG
ZHCC,2021-06-21 13:00,ZHCC 211300Z 19002MPS 150V230 CAVOK 30/14 Q1004 NOSIG
ZHCC,2021-06-21 14:00,ZHCC 211400Z 19002MPS 140V230 CAVOK 29/13 Q1005 NOSIG
ZHCC,2021-06-21 15:00,ZHCC 211500Z 20002MPS 160V240 CAVOK 29/14 Q1005 NOSIG
ZHCC,2021-06-21 16:00,ZHCC 211600Z 20002MPS 150V250 CAVOK 28/14 Q1005 NOSIG
ZHCC,2021-06-21 17:00,ZHCC 211700Z VRB02MPS CAVOK 27/15 Q1005 NOSIG
ZHCC,2021-06-21 18:00,ZHCC 211800Z 20002MPS 160V230 CAVOK 26/15 Q1005 NOSIG
ZHCC,2021-06-21 19:00,ZHCC 211900Z 21002MPS 170V250 CAVOK 26/15 Q1005 NOSIG
ZHCC,2021-06-21 20:00,ZHCC 212000Z 29002MPS CAVOK 24/15 Q1006 NOSIG
ZHCC,2021-06-21 21:00,ZHCC 212100Z 12002MPS CAVOK 25/15 Q1006 NOSIG
ZHCC,2021-06-21 22:00,ZHCC 212200Z 15002MPS 120V180 CAVOK 25/15 Q1006 NOSIG
ZHCC,2021-06-21 23:00,ZHCC 212300Z 18002MPS 130V230 9999 FEW033 26/15 Q1006 NOSIG
ZHCC,2021-06-22 00:00,ZHCC 220000Z VRB01MPS 9999 FEW033 26/16 Q1007 NOSIG
ZHCC,2021-06-22 01:00,ZHCC 220100Z 20003MPS 150V260 CAVOK 29/14 Q1008 NOSIG
ZHCC,2021-06-22 02:00,ZHCC 220200Z 19003MPS 140V250 CAVOK 31/15 Q1008 NOSIG
ZHCC,2021-06-22 03:00,ZHCC 220300Z VRB02MPS CAVOK 32/13 Q1008 NOSIG
ZHCC,2021-06-22 04:00,ZHCC 220400Z VRB03MPS CAVOK 34/14 Q1008 NOSIG
ZHCC,2021-06-22 05:00,ZHCC 220500Z 13003MPS 060V230 CAVOK 35/14 Q1007 NOSIG
ZHCC,2021-06-22 06:00,ZHCC 220600Z 14004MPS 090V190 CAVOK 34/14 Q1007 NOSIG
ZHCC,2021-06-22 07:00,ZHCC 220700Z 14003MPS 070V240 CAVOK 34/15 Q1007 NOSIG
ZHCC,2021-06-22 08:00,ZHCC 220800Z 12004MPS 090V170 CAVOK 34/14 Q1006 NOSIG
ZHCC,2021-06-22 09:00,ZHCC 220900Z 11004MPS 070V130 CAVOK 34/15 Q1006 NOSIG
ZHCC,2021-06-22 10:00,ZHCC 221000Z 12003MPS 090V160 CAVOK 34/16 Q1006 NOSIG
ZHCC,2021-06-22 11:00,ZHCC 221100Z 12003MPS CAVOK 32/16 Q1006 NOSIG
ZHCC,2021-06-22 12:00,ZHCC 221200Z 12002MPS CAVOK 30/17 Q1006 NOSIG
ZHCC,2021-06-22 13:00,ZHCC 221300Z 13001MPS CAVOK 28/17 Q1007 NOSIG
ZHCC,2021-06-22 14:00,ZHCC 221400Z VRB01MPS CAVOK 27/17 Q1008 NOSIG
ZHCC,2021-06-22 15:00,ZHCC 221500Z VRB01MPS CAVOK 25/17 Q1008 NOSIG
ZHCC,2021-06-22 16:00,ZHCC 221600Z VRB01MPS CAVOK 25/17 Q1008 NOSIG
ZHCC,2021-06-22 17:00,ZHCC 221700Z VRB01MPS CAVOK 24/17 Q1008 NOSIG
ZHCC,2021-06-22 18:00,ZHCC 221800Z VRB01MPS CAVOK 24/17 Q1008 NOSIG
ZHCC,2021-06-22 19:00,ZHCC 221900Z VRB01MPS CAVOK 23/17 Q1008 NOSIG
ZHCC,2021-06-22 20:00,ZHCC 222000Z VRB01MPS CAVOK 22/16 Q1008 NOSIG
ZHCC,2021-06-22 21:00,ZHCC 222100Z 00000MPS CAVOK 20/16 Q1008 NOSIG
ZHCC,2021-06-22 22:00,ZHCC 222200Z VRB01MPS CAVOK 23/17 Q1009 NOSIG
ZHCC,2021-06-22 23:00,ZHCC 222300Z VRB01MPS CAVOK 24/16 Q1009 NOSIG
ZHCC,2021-06-23 00:00,ZHCC 230000Z VRB01MPS CAVOK 27/18 Q1010 NOSIG
ZHCC,2021-06-23 01:00,ZHCC 230100Z 18002MPS 080V230 CAVOK 28/16 Q1009 NOSIG
ZHCC,2021-06-23 02:00,ZHCC 230200Z 18002MPS 100V220 CAVOK 30/15 Q1009 NOSIG
ZHCC,2021-06-23 03:00,ZHCC 230300Z 13003MPS 080V170 CAVOK 33/15 Q1009 NOSIG
ZHCC,2021-06-23 04:00,ZHCC 230400Z 15003MPS 080V220 CAVOK 34/15 Q1009 NOSIG
ZHCC,2021-06-23 05:00,ZHCC 230500Z 16003MPS 110V200 CAVOK 34/11 Q1008 NOSIG
ZHCC,2021-06-23 06:00,ZHCC 230600Z 14002MPS 050V220 CAVOK 35/13 Q1008 NOSIG
ZHCC,2021-06-23 07:00,ZHCC 230700Z 19003MPS 130V240 CAVOK 35/11 Q1008 NOSIG
ZHCC,2021-06-23 08:00,ZHCC 230800Z 19003MPS 140V240 CAVOK 34/11 Q1007 NOSIG
ZHCC,2021-06-23 09:00,ZHCC 230900Z 16002MPS 080V210 CAVOK 34/10 Q1007 NOSIG
ZHCC,2021-06-23 10:00,ZHCC 231000Z 13002MPS 100V170 CAVOK 33/11 Q1006 NOSIG
ZHCC,2021-06-23 11:00,ZHCC 231100Z VRB01MPS CAVOK 32/11 Q1007 NOSIG
ZHCC,2021-06-23 12:00,ZHCC 231200Z VRB01MPS CAVOK 30/14 Q1007 NOSIG
ZHCC,2021-06-23 13:00,ZHCC 231300Z VRB01MPS CAVOK 29/15 Q1008 NOSIG
ZHCC,2021-06-23 14:00,ZHCC 231400Z VRB01MPS CAVOK 29/15 Q1009 NOSIG
ZHCC,2021-06-23 15:00,ZHCC 231500Z VRB01MPS CAVOK 27/15 Q1009 NOSIG
ZHCC,2021-06-23 16:00,ZHCC 231600Z VRB01MPS CAVOK 27/15 Q1008 NOSIG
ZHCC,2021-06-23 17:00,ZHCC 231700Z VRB01MPS CAVOK 29/13 Q1008 NOSIG
ZHCC,2021-06-23 18:00,ZHCC 231800Z VRB01MPS CAVOK 28/14 Q1008 NOSIG
ZHCC,2021-06-23 19:00,ZHCC 231900Z VRB01MPS CAVOK 25/15 Q1008 NOSIG
ZHCC,2021-06-23 20:00,ZHCC 232000Z 04003MPS 010V070 CAVOK 27/15 Q1008 NOSIG
ZHCC,2021-06-23 21:00,ZHCC 232100Z 05003MPS CAVOK 26/17 Q1007 NOSIG
ZHCC,2021-06-23 22:00,ZHCC 232200Z 04003MPS CAVOK 25/17 Q1008 NOSIG
ZHCC,2021-06-23 23:00,ZHCC 232300Z 05005MPS 010V070 CAVOK 26/17 Q1008 NOSIG
ZHCC,2021-06-24 00:00,ZHCC 240000Z 08004MPS CAVOK 27/17 Q1008 NOSIG
ZHCC,2021-06-24 01:00,ZHCC 240100Z 06004MPS 020V100 CAVOK 29/18 Q1008 NOSIG
ZHCC,2021-06-24 02:00,ZHCC 240200Z 09003MPS 040V130 CAVOK 30/18 Q1008 NOSIG
ZHCC,2021-06-24 03:00,ZHCC 240300Z 09004MPS 050V140 CAVOK 31/18 Q1007 NOSIG
ZHCC,2021-06-24 04:00,ZHCC 240400Z 10004MPS 060V140 CAVOK 33/18 Q1007 NOSIG
ZHCC,2021-06-24 05:00,ZHCC 240500Z 09005MPS 060V130 CAVOK 34/17 Q1006 NOSIG
ZHCC,2021-06-24 06:00,ZHCC 240600Z 11005MPS 070V160 CAVOK 35/15 Q1005 NOSIG
ZHCC,2021-06-24 07:00,ZHCC 240700Z 12005MPS 080V150 CAVOK 34/16 Q1005 NOSIG
ZHCC,2021-06-24 08:00,ZHCC 240800Z 12003MPS 060V180 CAVOK 34/17 Q1005 NOSIG
ZHCC,2021-06-24 09:00,ZHCC 240900Z 11004MPS 080V160 CAVOK 34/16 Q1004 NOSIG
ZHCC,2021-06-24 10:00,ZHCC 241000Z 13003MPS 100V170 CAVOK 33/16 Q1004 NOSIG
ZHCC,2021-06-24 11:00,ZHCC 241100Z 12003MPS CAVOK 33/15 Q1004 NOSIG
ZHCC,2021-06-24 12:00,ZHCC 241200Z 12002MPS CAVOK 30/16 Q1004 NOSIG
ZHCC,2021-06-24 13:00,ZHCC 241300Z 13001MPS CAVOK 30/16 Q1005 NOSIG
ZHCC,2021-06-24 14:00,ZHCC 241400Z VRB01MPS CAVOK 30/16 Q1005 NOSIG
ZHCC,2021-06-24 15:00,ZHCC 241500Z 11002MPS CAVOK 28/17 Q1005 NOSIG
ZHCC,2021-06-24 16:00,ZHCC 241600Z 11001MPS CAVOK 27/17 Q1005 NOSIG
ZHCC,2021-06-24 17:00,ZHCC 241700Z 15001MPS CAVOK 28/17 Q1005 NOSIG
ZHCC,2021-06-24 18:00,ZHCC 241800Z 14002MPS CAVOK 28/18 Q1005 NOSIG
ZHCC,2021-06-24 19:00,ZHCC 241900Z 15002MPS 110V210 CAVOK 27/18 Q1005 NOSIG
ZHCC,2021-06-24 20:00,ZHCC 242000Z VRB01MPS CAVOK 27/19 Q1004 NOSIG
ZHCC,2021-06-24 21:00,ZHCC 242100Z VRB01MPS CAVOK 26/20 Q1004 NOSIG
ZHCC,2021-06-24 22:00,ZHCC 242200Z VRB01MPS 8000 -RA OVC046 26/21 Q1005 NOSIG
ZHCC,2021-06-24 23:00,ZHCC 242300Z 12001MPS 6000 -RA OVC046 26/21 Q1005 NOSIG
ZHCC,2021-06-25 00:00,ZHCC 250000Z VRB01MPS 5000 -SHRA BR FEW040CB BKN040 25/22 Q1005 NOSIG
ZHCC,2021-06-25 01:00,ZHCC 250100Z 12001MPS 3500 -RA BR SCT030 OVC046 24/23 Q1006 NOSIG
ZHCC,2021-06-25 02:00,ZHCC 250200Z 10002MPS 080V160 3000 -RA BR SCT030 OVC046 25/23 Q1005 NOSIG
ZHCC,2021-06-25 03:00,ZHCC 250300Z 10002MPS 050V160 3500 BR OVC046 26/23 Q1005 NOSIG
ZHCC,2021-06-25 04:00,ZHCC 250400Z VRB01MPS 3500 BR OVC046 26/23 Q1005 NOSIG
ZHCC,2021-06-25 05:00,ZHCC 250500Z 12002MPS 080V160 3500 BR OVC046 27/23 Q1005 NOSIG
ZHCC,2021-06-25 06:00,ZHCC 250600Z 12002MPS 080V150 4000 BR OVC046 28/23 Q1004 NOSIG
ZHCC,2021-06-25 07:00,ZHCC 250700Z 16002MPS 090V210 4000 BR FEW040CB BKN040 28/24 Q1004 BECMG AT0740 TSRA
ZHCC,2021-06-25 08:00,ZHCC 250800Z 17002MPS 120V220 3000 -TSRA BR FEW040CB BKN040 26/23 Q1004 BECMG TL0840 BR
ZHCC,2021-06-25 09:00,ZHCC 250900Z 13003MPS 100V180 4000 BR OVC046 27/24 Q1003 RETS NOSIG
ZHCC,2021-06-25 10:00,ZHCC 251000Z 15002MPS 090V210 8000 NSC 28/21 Q1003 NOSIG
ZHCC,2021-06-25 11:00,ZHCC 251100Z 15002MPS 070V200 6000 NSC 27/22 Q1003 NOSIG
ZHCC,2021-06-25 12:00,ZHCC 251200Z VRB01MPS 5000 BR NSC 26/23 Q1003 NOSIG
ZHCC,2021-06-25 13:00,ZHCC 251300Z 19002MPS 120V240 8000 NSC 26/20 Q1004 NOSIG
ZHCC,2021-06-25 14:00,ZHCC 251400Z VRB01MPS 8000 NSC 25/21 Q1004 NOSIG
ZHCC,2021-06-25 15:00,ZHCC 251500Z VRB01MPS 7000 NSC 25/21 Q1004 NOSIG
ZHCC,2021-06-25 16:00,ZHCC 251600Z 19002MPS 150V220 6000 NSC 24/22 Q1004 NOSIG
ZHCC,2021-06-25 17:00,ZHCC 251700Z 20002MPS 150V240 4000 BR NSC 24/22 Q1004 NOSIG
ZHCC,2021-06-25 18:00,ZHCC 251800Z 19002MPS 150V260 3500 BR NSC 24/22 Q1004 NOSIG
ZHCC,2021-06-25 19:00,ZHCC 251900Z 19002MPS 140V240 3000 BR NSC 24/23 Q1003 NOSIG
ZHCC,2021-06-25 20:00,ZHCC 252000Z 19002MPS 130V250 2500 BR BKN046 24/23 Q1003 NOSIG
ZHCC,2021-06-25 21:00,ZHCC 252100Z 19002MPS 150V230 2000 BR BKN046 24/23 Q1003 NOSIG
ZHCC,2021-06-25 22:00,ZHCC 252200Z VRB01MPS 0900 R12R/1000V1100N R12L/1000V1100N FG NSC 24/23 Q1003 BECMG TL2340 1500 BR
ZHCC,2021-06-25 23:00,ZHCC 252300Z 19002MPS 140V230 1000 R12R/1100V1200U R12L/1200V1300U BR NSC 24/23 Q1003 BECMG TL2340 1500
ZHCC,2021-06-26 00:00,ZHCC 260000Z VRB02MPS 2000 BR NSC 26/23 Q1004 BECMG TL0140 3000
ZHCC,2021-06-26 01:00,ZHCC 260100Z 19002MPS 100V240 2500 BR NSC 27/23 Q1003 NOSIG
ZHCC,2021-06-26 02:00,ZHCC 260200Z 21003MPS 170V270 5000 HZ NSC 29/22 Q1003 NOSIG
ZHCC,2021-06-26 03:00,ZHCC 260300Z 16003MPS 110V220 6000 NSC 31/23 Q1003 NOSIG
ZHCC,2021-06-26 04:00,ZHCC 260400Z 18003G08MPS 100V260 7000 NSC 32/21 Q1003 NOSIG
ZHCC,2021-06-26 05:00,ZHCC 260500Z VRB03MPS 7000 NSC 32/21 Q1002 NOSIG
ZHCC,2021-06-26 06:00,ZHCC 260600Z 15003MPS 080V230 9999 FEW030 33/22 Q1002 NOSIG
ZHCC,2021-06-26 07:00,ZHCC 260700Z VRB03MPS 9999 SCT030 33/22 Q1002 NOSIG
ZHCC,2021-06-26 08:00,ZHCC 260800Z 15004MPS 100V210 9999 FEW030 31/22 Q1001 NOSIG
ZHCC,2021-06-26 09:00,ZHCC 260900Z 19004MPS 130V230 9999 FEW030 30/23 Q1001 NOSIG
ZHCC,2021-06-26 10:00,ZHCC 261000Z 17003MPS 100V240 CAVOK 29/22 Q1001 NOSIG
ZHCC,2021-06-26 11:00,ZHCC 261100Z VRB02MPS CAVOK 28/22 Q1001 NOSIG
ZHCC,2021-06-26 12:00,ZHCC 261200Z 19003MPS 110V230 CAVOK 27/23 Q1002 NOSIG
ZHCC,2021-06-26 13:00,ZHCC 261300Z 19003MPS 130V260 CAVOK 27/23 Q1003 NOSIG
ZHCC,2021-06-26 14:00,ZHCC 261400Z VRB02MPS CAVOK 26/23 Q1003 NOSIG
ZHCC,2021-06-26 15:00,ZHCC 261500Z VRB02MPS CAVOK 26/23 Q1003 NOSIG
ZHCC,2021-06-26 16:00,ZHCC 261600Z 18003MPS 110V220 CAVOK 25/23 Q1003 NOSIG
ZHCC,2021-06-26 17:00,ZHCC 261700Z 18002MPS 130V220 8000 SCT020 25/23 Q1003 NOSIG
ZHCC,2021-06-26 18:00,ZHCC 261800Z 18002MPS 100V220 6000 BKN016 25/23 Q1003 NOSIG
ZHCC,2021-06-26 19:00,ZHCC 261900Z 17002MPS 090V230 5000 BR BKN016 25/23 Q1002 NOSIG
ZHCC,2021-06-26 20:00,ZHCC 262000Z VRB01MPS 5000 BR BKN016 24/23 Q1002 NOSIG
ZHCC,2021-06-26 21:00,ZHCC 262100Z 13002MPS 100V160 4000 BR BKN016 24/23 Q1002 BECMG TL2240 2500
ZHCC,2021-06-26 22:00,ZHCC 262200Z VRB01MPS 3000 BR BKN016 25/23 Q1003 BECMG TL2240 2500
ZHCC,2021-06-26 23:00,ZHCC 262300Z 08002MPS 040V110 2500 BR BKN016 25/22 Q1004 BECMG TL0040 3000
ZHCC,2021-06-27 00:00,ZHCC 270000Z 11002MPS 070V140 2800 BR BKN016 25/23 Q1004 BECMG TL0040 3000
ZHCC,2021-06-27 01:00,ZHCC 270100Z 10003MPS 070V140 4000 BR BKN016 26/23 Q1004 NOSIG
ZHCC,2021-06-27 02:00,ZHCC 270200Z 07003MPS 020V120 6000 BKN016 27/23 Q1004 NOSIG
ZHCC,2021-06-27 03:00,ZHCC 270300Z 09002MPS 030V170 7000 BKN020 27/23 Q1004 NOSIG
ZHCC,2021-06-27 04:00,ZHCC 270400Z VRB02MPS 9999 BKN026 29/22 Q1004 NOSIG
ZHCC,2021-06-27 05:00,ZHCC 270500Z VRB02G07MPS 9999 BKN030 31/23 Q1003 NOSIG
ZHCC,2021-06-27 06:00,ZHCC 270600Z 10004MPS 060V130 9999 BKN030 33/23 Q1002 NOSIG
ZHCC,2021-06-27 07:00,ZHCC 270700Z 07003MPS 030V150 9999 FEW040 33/22 Q1002 NOSIG
ZHCC,2021-06-27 08:00,ZHCC 270800Z 10005MPS 020V140 CAVOK 33/21 Q1001 NOSIG
ZHCC,2021-06-27 09:00,ZHCC 270900Z 12004MPS 080V170 CAVOK 33/22 Q1001 NOSIG
ZHCC,2021-06-27 10:00,ZHCC 271000Z 11003MPS CAVOK 32/21 Q1002 NOSIG
ZHCC,2021-06-27 11:00,ZHCC 271100Z VRB01MPS CAVOK 32/22 Q1002 NOSIG
ZHCC,2021-06-27 12:00,ZHCC 271200Z 17001MPS CAVOK 30/22 Q1002 NOSIG
ZHCC,2021-06-27 13:00,ZHCC 271300Z VRB01MPS CAVOK 30/21 Q1003 NOSIG
ZHCC,2021-06-27 14:00,ZHCC 271400Z 25001MPS CAVOK 27/22 Q1003 NOSIG
ZHCC,2021-06-27 15:00,ZHCC 271500Z 00000MPS CAVOK 27/22 Q1003 NOSIG
ZHCC,2021-06-27 16:00,ZHCC 271600Z 26001MPS CAVOK 26/22 Q1004 NOSIG
ZHCC,2021-06-27 17:00,ZHCC 271700Z 28001MPS CAVOK 25/22 Q1004 NOSIG
ZHCC,2021-06-27 18:00,ZHCC 271800Z 27001MPS CAVOK 25/22 Q1004 NOSIG
ZHCC,2021-06-27 19:00,ZHCC 271900Z 28001MPS CAVOK 25/22 Q1003 NOSIG
ZHCC,2021-06-27 20:00,ZHCC 272000Z 29001MPS CAVOK 25/22 Q1003 NOSIG
ZHCC,2021-06-27 21:00,ZHCC 272100Z VRB01MPS CAVOK 26/22 Q1003 NOSIG
ZHCC,2021-06-27 22:00,ZHCC 272200Z VRB01MPS CAVOK 25/22 Q1004 NOSIG
ZHCC,2021-06-27 23:00,ZHCC 272300Z VRB01MPS CAVOK 29/23 Q1004 NOSIG
ZHCC,2021-06-28 00:00,ZHCC 280000Z 27002MPS 250V310 CAVOK 31/22 Q1004 NOSIG
ZHCC,2021-06-28 01:00,ZHCC 280100Z 29002MPS 250V340 CAVOK 33/21 Q1004 NOSIG
ZHCC,2021-06-28 02:00,ZHCC 280200Z 31002MPS 230V020 CAVOK 34/21 Q1004 NOSIG
ZHCC,2021-06-28 03:00,ZHCC 280300Z VRB02MPS CAVOK 35/21 Q1003 NOSIG
ZHCC,2021-06-28 04:00,ZHCC 280400Z VRB02MPS CAVOK 35/21 Q1003 NOSIG
ZHCC,2021-06-28 05:00,ZHCC 280500Z 15003MPS 100V230 CAVOK 36/20 Q1002 NOSIG
ZHCC,2021-06-28 06:00,ZHCC 280600Z 09004MPS 020V140 CAVOK 37/20 Q1002 NOSIG
ZHCC,2021-06-28 07:00,ZHCC 280700Z 15003G08MPS 070V230 CAVOK 36/21 Q1001 NOSIG
ZHCC,2021-06-28 08:00,ZHCC 280800Z 15004MPS 070V200 CAVOK 36/20 Q1001 NOSIG
ZHCC,2021-06-28 09:00,ZHCC 280900Z 13004MPS 090V190 CAVOK 36/20 Q1000 NOSIG
ZHCC,2021-06-28 10:00,ZHCC 281000Z 14003MPS 090V180 CAVOK 35/20 Q1000 NOSIG
ZHCC,2021-06-28 11:00,ZHCC 281100Z 13002MPS 100V160 CAVOK 34/20 Q1001 NOSIG
ZHCC,2021-06-28 12:00,ZHCC 281200Z 18002MPS 110V220 CAVOK 33/22 Q1002 NOSIG
ZHCC,2021-06-28 13:00,ZHCC 281300Z 19003MPS 150V240 CAVOK 32/22 Q1002 NOSIG
ZHCC,2021-06-28 14:00,ZHCC 281400Z 20002MPS 160V250 CAVOK 32/23 Q1003 NOSIG
ZHCC,2021-06-28 15:00,ZHCC 281500Z 20002MPS 160V250 CAVOK 31/22 Q1003 NOSIG
ZHCC,2021-06-28 16:00,ZHCC 281600Z 21002MPS 140V250 CAVOK 31/22 Q1003 NOSIG
ZHCC,2021-06-28 17:00,ZHCC 281700Z VRB01MPS CAVOK 29/22 Q1003 NOSIG
ZHCC,2021-06-28 18:00,ZHCC 281800Z 20002MPS 160V270 CAVOK 29/23 Q1002 NOSIG
ZHCC,2021-06-28 19:00,ZHCC 281900Z 23002MPS 180V300 CAVOK 28/23 Q1002 NOSIG
ZHCC,2021-06-28 20:00,ZHCC 282000Z 27002MPS CAVOK 28/23 Q1003 NOSIG
ZHCC,2021-06-28 21:00,ZHCC 282100Z 31003MPS CAVOK 27/22 Q1003 NOSIG
ZHCC,2021-06-28 22:00,ZHCC 282200Z 32003MPS 300V360 CAVOK 28/20 Q1003 NOSIG
ZHCC,2021-06-28 23:00,ZHCC 282300Z 28002MPS CAVOK 28/21 Q1003 NOSIG
ZHCC,2021-06-29 00:00,ZHCC 290000Z 28003MPS CAVOK 28/21 Q1004 NOSIG
ZHCC,2021-06-29 01:00,ZHCC 290100Z 30006MPS 8000 -RA BKN040 25/20 Q1004 NOSIG
ZHCC,2021-06-29 02:00,ZHCC 290200Z 20002MPS 120V260 9999 BKN046 26/21 Q1003 NOSIG
ZHCC,2021-06-29 03:00,ZHCC 290300Z 27002MPS 240V310 CAVOK 28/21 Q1003 NOSIG
ZHCC,2021-06-29 04:00,ZHCC 290400Z VRB01MPS CAVOK 30/20 Q1003 NOSIG
ZHCC,2021-06-29 05:00,ZHCC 290500Z VRB02MPS CAVOK 32/20 Q1002 NOSIG
ZHCC,2021-06-29 06:00,ZHCC 290600Z VRB02MPS CAVOK 34/20 Q1002 NOSIG
ZHCC,2021-06-29 07:00,ZHCC 290700Z 23002MPS CAVOK 35/20 Q1001 NOSIG
ZHCC,2021-06-29 08:00,ZHCC 290800Z VRB01MPS 9999 SCT040 37/20 Q1001 NOSIG
ZHCC,2021-06-29 09:00,ZHCC 290900Z VRB02MPS CAVOK 35/20 Q1000 NOSIG
ZHCC,2021-06-29 10:00,ZHCC 291000Z 13003MPS 080V170 CAVOK 34/21 Q0999 NOSIG
ZHCC,2021-06-29 11:00,ZHCC 291100Z 13002MPS 090V160 CAVOK 33/22 Q1000 NOSIG
ZHCC,2021-06-29 12:00,ZHCC 291200Z 12002MPS CAVOK 31/22 Q1000 NOSIG
ZHCC,2021-06-29 13:00,ZHCC 291300Z 13002MPS 090V180 CAVOK 30/23 Q1001 NOSIG
ZHCC,2021-06-29 14:00,ZHCC 291400Z 13002MPS 100V170 CAVOK 30/23 Q1001 NOSIG
ZHCC,2021-06-29 15:00,ZHCC 291500Z 21003MPS 160V250 CAVOK 31/22 Q1000 NOSIG
ZHCC,2021-06-29 16:00,ZHCC 291600Z VRB01MPS CAVOK 30/21 Q1001 NOSIG
ZHCC,2021-06-29 17:00,ZHCC 291700Z VRB01MPS CAVOK 29/21 Q1001 NOSIG
ZHCC,2021-06-29 18:00,ZHCC 291800Z VRB02MPS CAVOK 29/21 Q1001 NOSIG
ZHCC,2021-06-29 19:00,ZHCC 291900Z 18002MPS 120V220 CAVOK 28/21 Q1001 NOSIG
ZHCC,2021-06-29 20:00,ZHCC 292000Z VRB01MPS CAVOK 27/22 Q1001 NOSIG
ZHCC,2021-06-29 21:00,ZHCC 292100Z 13002MPS 100V200 7000 NSC 27/22 Q1001 NOSIG
ZHCC,2021-06-29 22:00,ZHCC 292200Z 14001MPS 6000 NSC 26/22 Q1002 NOSIG
ZHCC,2021-06-29 23:00,ZHCC 292300Z VRB01MPS 5000 HZ NSC 28/22 Q1002 NOSIG
ZHCC,2021-06-30 00:00,ZHCC 300000Z 16002MPS 090V220 5000 HZ NSC 30/23 Q1002 NOSIG
ZHCC,2021-06-30 01:00,ZHCC 300100Z 19003MPS 120V240 6000 NSC 32/23 Q1002 NOSIG
ZHCC,2021-06-30 02:00,ZHCC 300200Z 14003MPS 090V210 6000 NSC 33/23 Q1003 NOSIG
ZHCC,2021-06-30 03:00,ZHCC 300300Z 12003MPS 080V200 8000 NSC 35/22 Q1002 NOSIG
ZHCC,2021-06-30 04:00,ZHCC 300400Z 16003MPS 100V250 CAVOK 36/21 Q1002 NOSIG
ZHCC,2021-06-30 05:00,ZHCC 300500Z 13004MPS 070V200 CAVOK 37/21 Q1001 NOSIG
ZHCC,2021-06-30 06:00,ZHCC 300600Z 13004MPS 100V180 CAVOK 37/20 Q1001 NOSIG
ZHCC,2021-06-30 07:00,ZHCC 300700Z 14004MPS 090V190 CAVOK 36/21 Q1000 NOSIG
ZHCC,2021-06-30 08:00,ZHCC 300800Z 13004MPS 100V180 9999 FEW040 35/20 Q1000 NOSIG
ZHCC,2021-06-30 09:00,ZHCC 300900Z 11004MPS 9999 FEW040TCU 35/20 Q1000 NOSIG
ZHCC,2021-06-30 10:00,ZHCC 301000Z 04007MPS CAVOK 31/19 Q1001 NOSIG
ZHCC,2021-06-30 11:00,ZHCC 301100Z 04005MPS 360V070 CAVOK 31/19 Q1003 BECMG AT1200 -TSRA FEW030CB BKN030
ZHCC,2021-06-30 12:00,ZHCC 301200Z 31005MPS 280V340 9999 OVC040 FEW060CB 27/21 Q1003 NOSIG
ZHCC,2021-06-30 13:00,ZHCC 301300Z 19004MPS 150V220 CAVOK 27/20 Q1000 NOSIG
ZHCC,2021-06-30 14:00,ZHCC 301400Z VRB02G07MPS CAVOK 28/19 Q1003 NOSIG
ZHCC,2021-06-30 15:00,ZHCC 301500Z 07006MPS CAVOK 27/20 Q1004 NOSIG
ZHCC,2021-06-30 16:00,ZHCC 301600Z 08005MPS CAVOK 26/20 Q1004 NOSIG
ZHCC,2021-06-30 17:00,ZHCC 301700Z 09004MPS 060V120 CAVOK 25/21 Q1004 NOSIG
ZHCC,2021-06-30 18:00,ZHCC 301800Z 08002MPS 040V110 CAVOK 25/20 Q1004 NOSIG
ZHCC,2021-06-30 19:00,ZHCC 301900Z 03002MPS CAVOK 25/20 Q1004 NOSIG
ZHCC,2021-06-30 20:00,ZHCC 302000Z VRB01MPS CAVOK 25/20 Q1004 NOSIG
ZHCC,2021-06-30 21:00,ZHCC 302100Z 02002MPS 360V060 9999 SCT026 25/21 Q1004 NOSIG
ZHCC,2021-06-30 22:00,ZHCC 302200Z VRB01MPS CAVOK 25/21 Q1004 NOSIG
ZHCC,2021-06-30 23:00,ZHCC 302300Z VRB01MPS CAVOK 25/21 Q1003 NOSIG
ZHCC,2021-07-01 00:00,ZHCC 010000Z 28002MPS 260V340 CAVOK 27/21 Q1004 NOSIG
ZHCC,2021-07-01 01:00,ZHCC 010100Z VRB01MPS CAVOK 28/21 Q1004 NOSIG
ZHCC,2021-07-01 02:00,ZHCC 010200Z VRB01G07MPS CAVOK 30/22 Q1004 NOSIG
ZHCC,2021-07-01 03:00,ZHCC 010300Z VRB03MPS CAVOK 31/22 Q1004 NOSIG
ZHCC,2021-07-01 04:00,ZHCC 010400Z 31003MPS 280V340 CAVOK 31/22 Q1004 NOSIG
ZHCC,2021-07-01 05:00,ZHCC 010500Z 36004MPS 310V030 CAVOK 33/19 Q1003 NOSIG
ZHCC,2021-07-01 06:00,ZHCC 010600Z 34005MPS CAVOK 32/20 Q1003 NOSIG
ZHCC,2021-07-01 07:00,ZHCC 010700Z 01006MPS CAVOK 31/18 Q1003 NOSIG
ZHCC,2021-07-01 08:00,ZHCC 010800Z 01005MPS 340V070 CAVOK 31/19 Q1002 NOSIG
ZHCC,2021-07-01 09:00,ZHCC 010900Z 03006MPS 360V060 CAVOK 30/20 Q1002 NOSIG
ZHCC,2021-07-01 10:00,ZHCC 011000Z 04004MPS 350V080 CAVOK 30/19 Q1002 NOSIG
ZHCC,2021-07-01 11:00,ZHCC 011100Z 07006MPS 030V090 CAVOK 27/21 Q1003 NOSIG
ZHCC,2021-07-01 12:00,ZHCC 011200Z 06004MPS 030V090 CAVOK 26/21 Q1003 NOSIG
ZHCC,2021-07-01 13:00,ZHCC 011300Z 05004MPS 020V090 CAVOK 26/20 Q1004 NOSIG
ZHCC,2021-07-01 14:00,ZHCC 011400Z 04003MPS 010V070 CAVOK 26/20 Q1005 NOSIG
ZHCC,2021-07-01 15:00,ZHCC 011500Z 02002MPS 340V080 CAVOK 26/20 Q1005 NOSIG
ZHCC,2021-07-01 16:00,ZHCC 011600Z 03002MPS 350V070 CAVOK 25/20 Q1004 NOSIG
ZHCC,2021-07-01 17:00,ZHCC 011700Z 03002MPS CAVOK 25/20 Q1004 NOSIG
ZHCC,2021-07-01 18:00,ZHCC 011800Z 34003MPS CAVOK 25/19 Q1004 NOSIG
ZHCC,2021-07-01 19:00,ZHCC 011900Z 02002MPS CAVOK 24/19 Q1004 NOSIG
ZHCC,2021-07-01 20:00,ZHCC 012000Z 02004MPS 340V050 CAVOK 24/18 Q1004 NOSIG
ZHCC,2021-07-01 21:00,ZHCC 012100Z 03004MPS CAVOK 24/18 Q1005 NOSIG
ZHCC,2021-07-01 22:00,ZHCC 012200Z 36003MPS CAVOK 24/18 Q1005 NOSIG
ZHCC,2021-07-01 23:00,ZHCC 012300Z 02003MPS 350V060 CAVOK 25/18 Q1005 NOSIG
ZHCC,2021-07-02 00:00,ZHCC 020000Z 04004MPS 010V070 CAVOK 25/19 Q1005 NOSIG
ZHCC,2021-07-02 01:00,ZHCC 020100Z 05004MPS CAVOK 26/20 Q1005 NOSIG
ZHCC,2021-07-02 02:00,ZHCC 020200Z 07003MPS 050V130 7000 BKN046 27/20 Q1005 NOSIG
ZHCC,2021-07-02 03:00,ZHCC 020300Z 03003MPS 340V070 6000 NSC 28/21 Q1005 NOSIG
ZHCC,2021-07-02 04:00,ZHCC 020400Z 03003MPS 360V070 6000 NSC 29/22 Q1004 NOSIG
ZHCC,2021-07-02 05:00,ZHCC 020500Z 04003MPS 350V100 6000 NSC 31/22 Q1004 NOSIG
ZHCC,2021-07-02 06:00,ZHCC 020600Z 02004MPS 340V070 6000 BKN040 30/22 Q1003 NOSIG
ZHCC,2021-07-02 07:00,ZHCC 020700Z 05005MPS 6000 BKN040 30/22 Q1002 BECMG TL0820 TSRA FEW030CB BKN040
ZHCC,2021-07-02 08:00,ZHCC 020800Z 03005MPS 5000 -SHRA FEW030CB BKN040 29/23 Q1003 NOSIG
ZHCC,2021-07-02 09:00,ZHCC 020900Z 06008MPS 020V080 2000 +TSRA FEW020CB BKN030 24/21 Q1003 NOSIG
ZHCC,2021-07-02 10:00,ZHCC 021000Z 32006MPS 2500 -SHRA FEW030CB BKN030 23/22 Q1004 RETSRA NOSIG
ZHCC,2021-07-02 11:00,ZHCC 021100Z 01005MPS 340V040 6000 -SHRA BKN040 FEW050CB 24/22 Q1004 NOSIG
ZHCC,2021-07-02 12:00,ZHCC 021200Z 03002MPS 330V100 8000 SCT010 23/21 Q1004 NOSIG
ZHCC,2021-07-02 13:00,ZHCC 021300Z 30004MPS 9999 FEW015 22/21 Q1004 NOSIG
ZHCC,2021-07-02 14:00,ZHCC 021400Z 32005MPS 9999 -RA SCT030 23/21 Q1005 NOSIG
ZHCC,2021-07-02 15:00,ZHCC 021500Z 32004MPS 9999 -RA BKN030 23/21 Q1005 NOSIG
ZHCC,2021-07-02 16:00,ZHCC 021600Z 33003MPS 310V010 8000 SCT020 23/21 Q1004 NOSIG
ZHCC,2021-07-02 17:00,ZHCC 021700Z 05002MPS 010V170 8000 FEW030 23/21 Q1003 NOSIG
ZHCC,2021-07-02 18:00,ZHCC 021800Z 32003MPS 300V010 8000 NSC 23/20 Q1003 NOSIG
ZHCC,2021-07-02 19:00,ZHCC 021900Z 31002MPS CAVOK 23/20 Q1003 NOSIG
ZHCC,2021-07-02 20:00,ZHCC 022000Z 33004MPS 7000 NSC 23/21 Q1003 NOSIG
ZHCC,2021-07-02 21:00,ZHCC 022100Z 32003MPS 5000 BR NSC 23/21 Q1003 NOSIG
ZHCC,2021-07-02 22:00,ZHCC 022200Z 32003MPS 3000 BR NSC 23/21 Q1004 NOSIG
ZHCC,2021-07-02 23:00,ZHCC 022300Z 33003MPS 4000 BR FEW015 24/22 Q1004 NOSIG
ZHCC,2021-07-03 00:00,ZHCC 030000Z 32003MPS 290V350 6000 SCT030 25/21 Q1004 NOSIG
ZHCC,2021-07-03 01:00,ZHCC 030100Z 31003G08MPS 270V360 6000 BKN030 26/21 Q1004 NOSIG
ZHCC,2021-07-03 02:00,ZHCC 030200Z VRB04MPS 6000 BKN030 28/21 Q1003 NOSIG
ZHCC,2021-07-03 03:00,ZHCC 030300Z 32004MPS 290V350 8000 BKN030 30/21 Q1004 NOSIG
ZHCC,2021-07-03 04:00,ZHCC 030400Z 32003MPS 280V350 9999 BKN030 30/21 Q1003 NOSIG
ZHCC,2021-07-03 05:00,ZHCC 030500Z 32003G09MPS 200V010 9999 BKN030 31/21 Q1003 NOSIG
ZHCC,2021-07-03 06:00,ZHCC 030600Z VRB01MPS 9999 BKN030 31/20 Q1003 NOSIG
ZHCC,2021-07-03 07:00,ZHCC 030700Z VRB02MPS 9999 SCT030 32/20 Q1002 NOSIG
ZHCC,2021-07-03 08:00,ZHCC 030800Z 09003MPS 030V120 9999 SCT030 32/21 Q1002 NOSIG
ZHCC,2021-07-03 09:00,ZHCC 030900Z 11004MPS 080V140 9999 FEW030 31/21 Q1002 NOSIG
ZHCC,2021-07-03 10:00,ZHCC 031000Z 12003MPS CAVOK 30/22 Q1002 NOSIG
ZHCC,2021-07-03 11:00,ZHCC 031100Z 12003MPS CAVOK 29/22 Q1002 NOSIG
ZHCC,2021-07-03 12:00,ZHCC 031200Z 13002MPS 100V160 CAVOK 28/22 Q1003 NOSIG
ZHCC,2021-07-03 13:00,ZHCC 031300Z VRB01MPS CAVOK 28/22 Q1004 NOSIG
ZHCC,2021-07-03 14:00,ZHCC 031400Z VRB01MPS CAVOK 27/22 Q1004 NOSIG
ZHCC,2021-07-03 15:00,ZHCC 031500Z VRB01MPS CAVOK 27/21 Q1004 NOSIG
ZHCC,2021-07-03 16:00,ZHCC 031600Z 15002MPS 110V200 CAVOK 28/21 Q1004 NOSIG
ZHCC,2021-07-03 17:00,ZHCC 031700Z 19002MPS 150V230 CAVOK 28/21 Q1004 NOSIG
ZHCC,2021-07-03 18:00,ZHCC 031800Z 20002MPS 170V240 CAVOK 27/22 Q1003 NOSIG
ZHCC,2021-07-03 19:00,ZHCC 031900Z 21002MPS 170V250 CAVOK 26/22 Q1003 NOSIG
ZHCC,2021-07-03 20:00,ZHCC 032000Z VRB01MPS 7000 NSC 26/22 Q1004 NOSIG
ZHCC,2021-07-03 21:00,ZHCC 032100Z VRB01MPS 5000 BR NSC 26/22 Q1004 NOSIG
ZHCC,2021-07-03 22:00,ZHCC 032200Z VRB01MPS 5000 BR NSC 26/22 Q1004 NOSIG
ZHCC,2021-07-03 23:00,ZHCC 032300Z 20002MPS 150V270 5000 BR NSC 26/22 Q1005 NOSIG
ZHCC,2021-07-04 00:00,ZHCC 040000Z 21003MPS 160V250 6000 NSC 28/22 Q1005 NOSIG
ZHCC,2021-07-04 01:00,ZHCC 040100Z 22002MPS 170V280 7000 NSC 30/22 Q1005 NOSIG
ZHCC,2021-07-04 02:00,ZHCC 040200Z 19003MPS 100V240 9000 NSC 31/22 Q1005 NOSIG
ZHCC,2021-07-04 03:00,ZHCC 040300Z 17003MPS 110V210 CAVOK 32/22 Q1005 NOSIG
ZHCC,2021-07-04 04:00,ZHCC 040400Z 19003MPS 110V240 CAVOK 33/20 Q1005 NOSIG
ZHCC,2021-07-04 05:00,ZHCC 040500Z 15003MPS 090V200 CAVOK 32/21 Q1005 NOSIG
ZHCC,2021-07-04 06:00,ZHCC 040600Z 16004MPS 100V220 CAVOK 32/21 Q1005 NOSIG
ZHCC,2021-07-04 07:00,ZHCC 040700Z 13003MPS 090V210 CAVOK 32/21 Q1005 NOSIG
ZHCC,2021-07-04 08:00,ZHCC 040800Z 17003MPS 110V220 CAVOK 32/22 Q1005 NOSIG
ZHCC,2021-07-04 09:00,ZHCC 040900Z 14003MPS 110V210 CAVOK 31/21 Q1004 NOSIG
ZHCC,2021-07-04 10:00,ZHCC 041000Z VRB02MPS CAVOK 30/21 Q1005 NOSIG
ZHCC,2021-07-04 11:00,ZHCC 041100Z 15002MPS 090V200 CAVOK 30/21 Q1005 NOSIG
ZHCC,2021-07-04 12:00,ZHCC 041200Z 14002MPS 090V190 CAVOK 29/21 Q1005 NOSIG
ZHCC,2021-07-04 13:00,ZHCC 041300Z 15003MPS 100V200 CAVOK 29/22 Q1006 NOSIG
ZHCC,2021-07-04 14:00,ZHCC 041400Z 15003MPS 100V220 CAVOK 27/22 Q1006 NOSIG
ZHCC,2021-07-04 15:00,ZHCC 041500Z VRB02MPS CAVOK 27/22 Q1006 NOSIG
ZHCC,2021-07-04 16:00,ZHCC 041600Z 15002MPS 110V190 CAVOK 26/21 Q1006 NOSIG
ZHCC,2021-07-04 17:00,ZHCC 041700Z 22002MPS 180V250 CAVOK 26/21 Q1007 NOSIG
ZHCC,2021-07-04 18:00,ZHCC 041800Z VRB01MPS CAVOK 25/21 Q1006 NOSIG
ZHCC,2021-07-04 19:00,ZHCC 041900Z VRB01MPS CAVOK 24/21 Q1006 NOSIG
ZHCC,2021-07-04 20:00,ZHCC 042000Z VRB01MPS CAVOK 24/20 Q1006 NOSIG
ZHCC,2021-07-04 21:00,ZHCC 042100Z VRB01MPS CAVOK 25/20 Q1006 NOSIG
ZHCC,2021-07-04 22:00,ZHCC 042200Z VRB01MPS CAVOK 24/21 Q1007 NOSIG
ZHCC,2021-07-04 23:00,ZHCC 042300Z 17002MPS 100V210 CAVOK 25/21 Q1007 NOSIG
ZHCC,2021-07-05 00:00,ZHCC 050000Z 16002MPS 120V250 CAVOK 26/21 Q1007 NOSIG
ZHCC,2021-07-05 01:00,ZHCC 050100Z 14003MPS 080V220 CAVOK 28/22 Q1007 NOSIG
ZHCC,2021-07-05 02:00,ZHCC 050200Z 14003MPS 090V190 9999 FEW030 29/22 Q1007 NOSIG
ZHCC,2021-07-05 03:00,ZHCC 050300Z 12004MPS 080V150 9999 SCT030 30/23 Q1007 NOSIG
ZHCC,2021-07-05 04:00,ZHCC 050400Z 12004MPS 090V160 9999 SCT030 31/22 Q1007 NOSIG
ZHCC,2021-07-05 05:00,ZHCC 050500Z 12004MPS 090V160 9999 SCT030 31/21 Q1006 NOSIG
ZHCC,2021-07-05 06:00,ZHCC 050600Z VRB03MPS 9999 SCT030 31/21 Q1006 NOSIG
ZHCC,2021-07-05 07:00,ZHCC 050700Z 12004G09MPS 070V190 9999 SCT030 32/21 Q1005 NOSIG
ZHCC,2021-07-05 08:00,ZHCC 050800Z 16003MPS 110V200 9999 SCT030 31/22 Q1005 NOSIG
ZHCC,2021-07-05 09:00,ZHCC 050900Z 14003MPS 100V190 9999 SCT030 29/22 Q1005 NOSIG
ZHCC,2021-07-05 10:00,ZHCC 051000Z 15003MPS 110V200 CAVOK 29/22 Q1005 NOSIG
ZHCC,2021-07-05 11:00,ZHCC 051100Z 14003MPS 100V190 CAVOK 28/22 Q1005 NOSIG
ZHCC,2021-07-05 12:00,ZHCC 051200Z VRB02MPS CAVOK 28/22 Q1005 NOSIG
ZHCC,2021-07-05 13:00,ZHCC 051300Z 14002MPS 080V210 CAVOK 27/22 Q1005 NOSIG
ZHCC,2021-07-05 14:00,ZHCC 051400Z 20002MPS 160V250 CAVOK 26/22 Q1006 NOSIG
ZHCC,2021-07-05 15:00,ZHCC 051500Z VRB01MPS CAVOK 25/22 Q1005 NOSIG
ZHCC,2021-07-05 16:00,ZHCC 051600Z 20002MPS 150V240 CAVOK 25/22 Q1006 NOSIG
ZHCC,2021-07-05 17:00,ZHCC 051700Z 18002MPS 100V240 CAVOK 25/21 Q1005 NOSIG
ZHCC,2021-07-05 18:00,ZHCC 051800Z 17002MPS 100V240 CAVOK 24/21 Q1005 NOSIG
ZHCC,2021-07-05 19:00,ZHCC 051900Z VRB01MPS 4000 BR NSC 23/21 Q1005 NOSIG
ZHCC,2021-07-05 20:00,ZHCC 052000Z VRB01MPS 4000 BR NSC 23/21 Q1004 NOSIG
ZHCC,2021-07-05 21:00,ZHCC 052100Z 11001MPS 6000 NSC 23/21 Q1004 NOSIG
ZHCC,2021-07-05 22:00,ZHCC 052200Z VRB01MPS 6000 NSC 22/21 Q1005 NOSIG
ZHCC,2021-07-05 23:00,ZHCC 052300Z VRB01MPS 6000 NSC 25/22 Q1005 NOSIG
ZHCC,2021-07-06 00:00,ZHCC 060000Z 13002MPS 100V180 8000 NSC 26/22 Q1006 NOSIG
ZHCC,2021-07-06 01:00,ZHCC 060100Z 15002MPS 090V210 CAVOK 27/21 Q1005 NOSIG
ZHCC,2021-07-06 02:00,ZHCC 060200Z 13003MPS 080V200 9999 FEW030 29/22 Q1005 NOSIG
ZHCC,2021-07-06 03:00,ZHCC 060300Z VRB02MPS 9999 SCT030 30/22 Q1005 NOSIG
ZHCC,2021-07-06 04:00,ZHCC 060400Z VRB02MPS 9999 BKN030 30/22 Q1005 NOSIG
ZHCC,2021-07-06 05:00,ZHCC 060500Z 13003MPS 090V220 9999 BKN030 31/21 Q1004 NOSIG
ZHCC,2021-07-06 06:00,ZHCC 060600Z 12003MPS 080V170 9999 BKN030 31/22 Q1004 NOSIG
ZHCC,2021-07-06 07:00,ZHCC 060700Z 14003MPS 100V210 9999 BKN030 31/22 Q1004 NOSIG
ZHCC,2021-07-06 08:00,ZHCC 060800Z 12004MPS 080V190 9999 BKN030 31/22 Q1004 NOSIG
ZHCC,2021-07-06 09:00,ZHCC 060900Z 11002MPS 080V150 CAVOK 31/21 Q1004 NOSIG
ZHCC,2021-07-06 10:00,ZHCC 061000Z VRB02MPS CAVOK 30/22 Q1004 NOSIG
ZHCC,2021-07-06 11:00,ZHCC 061100Z 14003MPS 110V180 CAVOK 29/23 Q1005 NOSIG
ZHCC,2021-07-06 12:00,ZHCC 061200Z VRB01MPS CAVOK 28/23 Q1005 NOSIG
ZHCC,2021-07-06 13:00,ZHCC 061300Z 14002MPS 100V230 CAVOK 28/23 Q1006 NOSIG
ZHCC,2021-07-06 14:00,ZHCC 061400Z VRB01MPS CAVOK 27/23 Q1006 NOSIG
ZHCC,2021-07-06 15:00,ZHCC 061500Z VRB01MPS CAVOK 27/23 Q1006 NOSIG
ZHCC,2021-07-06 16:00,ZHCC 061600Z VRB01MPS CAVOK 27/22 Q1006 NOSIG
ZHCC,2021-07-06 17:00,ZHCC 061700Z VRB01MPS CAVOK 26/22 Q1006 NOSIG
ZHCC,2021-07-06 18:00,ZHCC 061800Z VRB01MPS CAVOK 25/23 Q1006 NOSIG
ZHCC,2021-07-06 19:00,ZHCC 061900Z 20002MPS 160V320 CAVOK 26/23 Q1005 NOSIG
ZHCC,2021-07-06 20:00,ZHCC 062000Z VRB01MPS CAVOK 25/23 Q1005 NOSIG
ZHCC,2021-07-06 21:00,ZHCC 062100Z 10001MPS CAVOK 25/23 Q1005 NOSIG
ZHCC,2021-07-06 22:00,ZHCC 062200Z VRB01MPS 6000 NSC 25/23 Q1006 NOSIG
ZHCC,2021-07-06 23:00,ZHCC 062300Z 11001MPS 4000 BR NSC 25/24 Q1006 NOSIG
ZHCC,2021-07-07 00:00,ZHCC 070000Z VRB01MPS 5000 BR NSC 27/24 Q1007 NOSIG
ZHCC,2021-07-07 01:00,ZHCC 070100Z VRB01MPS 7000 NSC 29/23 Q1007 NOSIG
ZHCC,2021-07-07 02:00,ZHCC 070200Z 05001MPS 9999 SCT030 31/23 Q1007 NOSIG
ZHCC,2021-07-07 03:00,ZHCC 070300Z 07003MPS 320V120 9999 BKN030 31/23 Q1007 NOSIG
ZHCC,2021-07-07 05:00,ZHCC 070500Z 10004MPS 060V140 9999 BKN030 33/23 Q1006 NOSIG
ZHCC,2021-07-07 06:00,ZHCC 070600Z 13004MPS 090V190 9999 BKN030 33/23 Q1006 NOSIG
ZHCC,2021-07-07 07:00,ZHCC 070700Z 13004MPS 100V190 9999 BKN030 33/23 Q1005 NOSIG
ZHCC,2021-07-07 08:00,ZHCC 070800Z 13003MPS 090V170 9999 SCT030 33/23 Q1004 NOSIG
ZHCC,2021-07-07 09:00,ZHCC 070900Z 15002MPS 070V220 9999 BKN040 33/23 Q1004 NOSIG
ZHCC,2021-07-07 10:00,ZHCC 071000Z 16002MPS 110V210 9999 SCT040 31/23 Q1004 NOSIG
ZHCC,2021-07-07 11:00,ZHCC 071100Z 14002MPS 100V190 CAVOK 31/23 Q1004 NOSIG
ZHCC,2021-07-07 12:00,ZHCC 071200Z 14002MPS 110V180 CAVOK 29/23 Q1005 NOSIG
ZHCC,2021-07-07 13:00,ZHCC 071300Z 13003MPS 100V180 CAVOK 29/23 Q1006 NOSIG
ZHCC,2021-07-07 14:00,ZHCC 071400Z VRB01MPS CAVOK 28/22 Q1007 NOSIG
ZHCC,2021-07-07 15:00,ZHCC 071500Z VRB01MPS CAVOK 27/22 Q1007 NOSIG
ZHCC,2021-07-07 16:00,ZHCC 071600Z VRB01MPS CAVOK 27/23 Q1006 NOSIG
ZHCC,2021-07-07 17:00,ZHCC 071700Z 21002MPS 180V270 CAVOK 27/23 Q1006 NOSIG
ZHCC,2021-07-07 18:00,ZHCC 071800Z VRB01MPS CAVOK 27/23 Q1006 NOSIG
ZHCC,2021-07-07 19:00,ZHCC 071900Z 26001MPS CAVOK 25/23 Q1005 NOSIG
ZHCC,2021-07-07 20:00,ZHCC 072000Z VRB01MPS CAVOK 26/23 Q1005 NOSIG
ZHCC,2021-07-07 21:00,ZHCC 072100Z VRB01MPS 6000 NSC 25/23 Q1005 NOSIG
ZHCC,2021-07-07 22:00,ZHCC 072200Z VRB01MPS 4000 BR NSC 25/24 Q1006 NOSIG
ZHCC,2021-07-07 23:00,ZHCC 072300Z 30003MPS 4000 BR NSC 27/24 Q1006 NOSIG
ZHCC,2021-07-08 00:00,ZHCC 080000Z 34003MPS 290V030 8000 NSC 29/23 Q1007 NOSIG
ZHCC,2021-07-08 01:00,ZHCC 080100Z 32003MPS 270V360 CAVOK 32/21 Q1006 NOSIG
ZHCC,2021-07-08 02:00,ZHCC 080200Z 26003MPS 190V310 CAVOK 33/21 Q1005 NOSIG
ZHCC,2021-07-08 03:00,ZHCC 080300Z VRB02MPS CAVOK 34/21 Q1005 NOSIG
ZHCC,2021-07-08 04:00,ZHCC 080400Z 11002MPS 010V180 CAVOK 36/21 Q1004 NOSIG
ZHCC,2021-07-08 05:00,ZHCC 080500Z 14003MPS 080V220 9999 SCT040 36/21 Q1004 NOSIG
ZHCC,2021-07-08 06:00,ZHCC 080600Z 14004MPS 100V180 9999 -TSRA FEW030CB SCT040 34/23 Q1004 BECMG TL0740 NSW
ZHCC,2021-07-08 07:00,ZHCC 080700Z VRB04MPS 2000 +TSRA SCT030CB BKN030 27/24 Q1004 BECMG TL0840 5000 -SHRA BR
ZHCC,2021-07-08 08:00,ZHCC 080800Z 23002MPS 170V290 8000 -SHRA FEW030CB BKN030 26/22 Q1003 RETSRA NOSIG
ZHCC,2021-07-08 09:00,ZHCC 080900Z 23003MPS 190V260 9999 BKN040 26/20 Q1003 NOSIG
ZHCC,2021-07-08 10:00,ZHCC 081000Z 25003MPS 200V300 9999 BKN040 26/20 Q1002 NOSIG
ZHCC,2021-07-08 11:00,ZHCC 081100Z 30003MPS 9999 SCT040 26/21 Q1002 NOSIG
ZHCC,2021-07-08 12:00,ZHCC 081200Z VRB01MPS 9999 SCT040 26/21 Q1002 NOSIG
ZHCC,2021-07-08 13:00,ZHCC 081300Z 12003MPS CAVOK 25/21 Q1003 NOSIG
ZHCC,2021-07-08 14:00,ZHCC 081400Z 29004MPS 200V360 9999 FEW040 25/21 Q1006 NOSIG
ZHCC,2021-07-08 15:00,ZHCC 081500Z 21002MPS 170V240 9999 -TSRA FEW040CB 26/21 Q1005 NOSIG
ZHCC,2021-07-08 16:00,ZHCC 081600Z 25002MPS 200V330 9999 FEW040 29/17 Q1002 RETS NOSIG
ZHCC,2021-07-08 17:00,ZHCC 081700Z 12003MPS 100V160 CAVOK 26/19 Q1003 NOSIG
ZHCC,2021-07-08 18:00,ZHCC 081800Z VRB01MPS CAVOK 25/19 Q1003 NOSIG
ZHCC,2021-07-08 19:00,ZHCC 081900Z VRB01MPS CAVOK 24/20 Q1003 NOSIG
ZHCC,2021-07-08 20:00,ZHCC 082000Z VRB01MPS CAVOK 24/22 Q1003 NOSIG
ZHCC,2021-07-08 21:00,ZHCC 082100Z 00000MPS 7000 NSC 22/21 Q1003 NOSIG
ZHCC,2021-07-08 22:00,ZHCC 082200Z VRB01MPS 5000 BR NSC 22/21 Q1003 NOSIG
ZHCC,2021-07-08 23:00,ZHCC 082300Z 20002MPS 150V250 5000 BR NSC 26/23 Q1003 NOSIG
ZHCC,2021-07-09 00:00,ZHCC 090000Z 20002MPS 150V250 7000 NSC 27/24 Q1003 NOSIG
ZHCC,2021-07-09 01:00,ZHCC 090100Z 21002MPS 160V260 7000 NSC 29/24 Q1004 NOSIG
ZHCC,2021-07-09 02:00,ZHCC 090200Z 21002MPS 140V280 8000 NSC 30/24 Q1004 NOSIG
ZHCC,2021-07-09 03:00,ZHCC 090300Z 17002MPS 110V260 CAVOK 33/24 Q1003 NOSIG
ZHCC,2021-07-09 04:00,ZHCC 090400Z 15002MPS 100V220 CAVOK 34/24 Q1003 NOSIG
ZHCC,2021-07-09 05:00,ZHCC 090500Z 16002MPS 100V230 CAVOK 35/23 Q1002 NOSIG
ZHCC,2021-07-09 06:00,ZHCC 090600Z 18003MPS 090V260 CAVOK 36/23 Q1002 NOSIG
ZHCC,2021-07-09 07:00,ZHCC 090700Z 17002MPS 090V250 CAVOK 36/23 Q1001 NOSIG
ZHCC,2021-07-09 08:00,ZHCC 090800Z 15003MPS 100V190 CAVOK 36/23 Q1000 NOSIG
ZHCC,2021-07-09 09:00,ZHCC 090900Z 18003MPS 090V230 CAVOK 37/24 Q1001 NOSIG
ZHCC,2021-07-09 10:00,ZHCC 091000Z 18002MPS 110V260 CAVOK 36/24 Q1001 NOSIG
ZHCC,2021-07-09 11:00,ZHCC 091100Z 20003MPS 160V240 CAVOK 35/25 Q1001 NOSIG
ZHCC,2021-07-09 12:00,ZHCC 091200Z 20004MPS 120V230 CAVOK 33/25 Q1001 NOSIG
ZHCC,2021-07-09 13:00,ZHCC 091300Z 19004MPS 130V230 CAVOK 32/25 Q1001 NOSIG
ZHCC,2021-07-09 14:00,ZHCC 091400Z 19003MPS 130V240 CAVOK 31/26 Q1002 NOSIG
ZHCC,2021-07-09 15:00,ZHCC 091500Z 20003MPS 160V230 CAVOK 30/26 Q1002 NOSIG
ZHCC,2021-07-09 16:00,ZHCC 091600Z 19002MPS 130V230 CAVOK 29/26 Q1002 NOSIG
ZHCC,2021-07-09 17:00,ZHCC 091700Z 18002MPS 100V250 CAVOK 29/26 Q1002 NOSIG
ZHCC,2021-07-09 18:00,ZHCC 091800Z 19003MPS 140V240 CAVOK 29/26 Q1002 NOSIG
ZHCC,2021-07-09 19:00,ZHCC 091900Z 18002MPS 110V220 CAVOK 28/25 Q1002 NOSIG
ZHCC,2021-07-09 20:00,ZHCC 092000Z 18002MPS 110V240 CAVOK 28/25 Q1002 NOSIG
ZHCC,2021-07-09 21:00,ZHCC 092100Z 18003MPS 120V240 CAVOK 28/25 Q1002 NOSIG
ZHCC,2021-07-09 22:00,ZHCC 092200Z 19003MPS 140V230 7000 NSC 27/25 Q1002 NOSIG
ZHCC,2021-07-09 23:00,ZHCC 092300Z 19003MPS 110V240 7000 NSC 28/26 Q1002 NOSIG
ZHCC,2021-07-10 00:00,ZHCC 100000Z 19003MPS 150V230 8000 NSC 29/26 Q1003 NOSIG
ZHCC,2021-07-10 01:00,ZHCC 100100Z 21002MPS 090V260 8000 NSC 31/26 Q1003 NOSIG
ZHCC,2021-07-10 02:00,ZHCC 100200Z 18003MPS 100V240 8000 FEW020 31/26 Q1003 NOSIG
ZHCC,2021-07-10 03:00,ZHCC 100300Z 19003MPS 120V230 8000 BKN024 32/26 Q1004 NOSIG
ZHCC,2021-07-10 04:00,ZHCC 100400Z 14002MPS 080V220 8000 SCT030 33/26 Q1003 NOSIG
ZHCC,2021-07-10 05:00,ZHCC 100500Z 15002MPS 110V210 8000 BKN030 33/26 Q1003 NOSIG
ZHCC,2021-07-10 06:00,ZHCC 100600Z 15003MPS 110V220 9999 BKN030 33/26 Q1003 NOSIG
ZHCC,2021-07-10 07:00,ZHCC 100700Z 17002MPS 100V240 CAVOK 34/25 Q1003 NOSIG
ZHCC,2021-07-10 08:00,ZHCC 100800Z 16002MPS 110V220 CAVOK 34/24 Q1003 NOSIG
ZHCC,2021-07-10 09:00,ZHCC 100900Z 19004MPS 150V230 CAVOK 33/25 Q1002 NOSIG
ZHCC,2021-07-10 10:00,ZHCC 101000Z 20004MPS 110V230 CAVOK 32/25 Q1002 NOSIG
ZHCC,2021-07-10 11:00,ZHCC 101100Z 20004G10MPS 120V240 CAVOK 31/25 Q1003 NOSIG
ZHCC,2021-07-10 12:00,ZHCC 101200Z 19002MPS 100V240 CAVOK 30/25 Q1004 NOSIG
ZHCC,2021-07-10 13:00,ZHCC 101300Z VRB01MPS CAVOK 29/25 Q1003 NOSIG
ZHCC,2021-07-10 14:00,ZHCC 101400Z 19004MPS 130V240 CAVOK 29/26 Q1004 NOSIG
ZHCC,2021-07-10 15:00,ZHCC 101500Z 19003MPS 150V240 CAVOK 29/26 Q1004 NOSIG
ZHCC,2021-07-10 16:00,ZHCC 101600Z VRB01MPS CAVOK 29/26 Q1004 NOSIG
ZHCC,2021-07-10 17:00,ZHCC 101700Z 21001MPS 9999 SCT024 29/26 Q1004 NOSIG
ZHCC,2021-07-10 18:00,ZHCC 101800Z 13002MPS 100V160 9999 -RA SCT024 28/26 Q1004 NOSIG
ZHCC,2021-07-10 19:00,ZHCC 101900Z 12002MPS 9999 -RA SCT040 27/26 Q1003 NOSIG
ZHCC,2021-07-10 20:00,ZHCC 102000Z VRB01MPS 6000 SCT040 27/26 Q1003 NOSIG
ZHCC,2021-07-10 21:00,ZHCC 102100Z 12003MPS 6000 -RA OVC046 27/26 Q1002 NOSIG
ZHCC,2021-07-10 22:00,ZHCC 102200Z 12002MPS 100V160 6000 NSC 27/26 Q1003 NOSIG
ZHCC,2021-07-10 23:00,ZHCC 102300Z 13003MPS 8000 NSC 27/25 Q1003 NOSIG
ZHCC,2021-07-11 00:00,ZHCC 110000Z 12003MPS 100V170 CAVOK 28/25 Q1003 NOSIG
ZHCC,2021-07-11 01:00,ZHCC 110100Z 13004MPS 100V180 CAVOK 29/25 Q1002 NOSIG
ZHCC,2021-07-11 02:00,ZHCC 110200Z 14003MPS 080V170 9999 -RA SCT046 29/25 Q1002 NOSIG
ZHCC,2021-07-11 03:00,ZHCC 110300Z 14004MPS 100V190 9999 -RA BKN046 30/25 Q1002 NOSIG
ZHCC,2021-07-11 04:00,ZHCC 110400Z 15004MPS 110V200 9999 -RA BKN040 30/25 Q1001 NOSIG
ZHCC,2021-07-11 05:00,ZHCC 110500Z 18005G10MPS 090V230 9999 -RA BKN040 30/23 Q1001 NOSIG
ZHCC,2021-07-11 06:00,ZHCC 110600Z VRB03MPS 9999 -RA OVC030 30/24 Q1000 NOSIG
ZHCC,2021-07-11 07:00,ZHCC 110700Z 15003MPS 090V210 9999 OVC030 29/25 Q1000 NOSIG
ZHCC,2021-07-11 08:00,ZHCC 110800Z 16003MPS 110V200 9999 OVC030 30/24 Q0999 NOSIG
ZHCC,2021-07-11 09:00,ZHCC 110900Z 17004G09MPS 100V230 9999 OVC030 31/24 Q0998 NOSIG
ZHCC,2021-07-11 10:00,ZHCC 111000Z 18005G11MPS 120V230 9999 BKN030 31/24 Q0998 NOSIG
ZHCC,2021-07-11 11:00,ZHCC 111100Z 17004MPS 110V230 9999 FEW030CB BKN033 30/24 Q0998 NOSIG
ZHCC,2021-07-11 12:00,ZHCC 111200Z 18004G09MPS 100V230 9999 BKN033 30/24 Q0999 NOSIG
ZHCC,2021-07-11 13:00,ZHCC 111300Z 19005G10MPS 150V240 9999 BKN033 30/24 Q0999 NOSIG
ZHCC,2021-07-11 14:00,ZHCC 111400Z 19005MPS 120V230 9999 SCT033 30/24 Q0999 NOSIG
ZHCC,2021-07-11 15:00,ZHCC 111500Z 18003G08MPS 100V250 CAVOK 29/24 Q0999 NOSIG
ZHCC,2021-07-11 16:00,ZHCC 111600Z 19003MPS 150V250 CAVOK 29/24 Q0999 NOSIG
ZHCC,2021-07-11 17:00,ZHCC 111700Z 20003MPS 160V250 9999 BKN030 29/24 Q0999 NOSIG
ZHCC,2021-07-11 18:00,ZHCC 111800Z 19003MPS 140V250 9999 BKN030 28/24 Q0999 NOSIG
ZHCC,2021-07-11 19:00,ZHCC 111900Z 20003MPS 160V240 9999 SCT030 28/24 Q0998 NOSIG
ZHCC,2021-07-11 20:00,ZHCC 112000Z 19002MPS 110V230 CAVOK 28/24 Q0998 NOSIG
ZHCC,2021-07-11 21:00,ZHCC 112100Z VRB01MPS CAVOK 28/24 Q0998 NOSIG
ZHCC,2021-07-11 22:00,ZHCC 112200Z 20002MPS 140V240 CAVOK 28/25 Q0998 NOSIG
ZHCC,2021-07-11 23:00,ZHCC 112300Z 22003G08MPS 170V270 CAVOK 29/25 Q0998 NOSIG
ZHCC,2021-07-12 00:00,ZHCC 120000Z 20004MPS 160V240 CAVOK 29/25 Q0998 NOSIG
ZHCC,2021-07-12 01:00,ZHCC 120100Z 23005MPS 170V270 9999 SCT026 31/25 Q0998 NOSIG
ZHCC,2021-07-12 02:00,ZHCC 120200Z 22004MPS 180V270 9999 SCT026 32/25 Q0998 NOSIG
ZHCC,2021-07-12 03:00,ZHCC 120300Z 22004MPS 180V260 9999 SCT026 34/24 Q0998 NOSIG
ZHCC,2021-07-12 04:00,ZHCC 120400Z 23003MPS 150V310 9999 BKN030 34/24 Q0998 NOSIG
ZHCC,2021-07-12 05:00,ZHCC 120500Z 24003MPS 150V280 9999 BKN030 35/24 Q0997 NOSIG
ZHCC,2021-07-12 06:00,ZHCC 120600Z 23004MPS 180V280 9999 BKN040 35/24 Q0997 NOSIG
ZHCC,2021-07-12 07:00,ZHCC 120700Z 19003MPS 100V240 9999 SCT040 35/24 Q0996 NOSIG
ZHCC,2021-07-12 08:00,ZHCC 120800Z 20004MPS 130V250 9999 SCT040 36/23 Q0996 NOSIG
ZHCC,2021-07-12 09:00,ZHCC 120900Z 18005MPS 090V260 9999 FEW040 36/24 Q0995 NOSIG
ZHCC,2021-07-12 10:00,ZHCC 121000Z 20005MPS 150V250 9999 FEW040 34/24 Q0996 NOSIG
ZHCC,2021-07-12 11:00,ZHCC 121100Z 20004MPS 150V240 9999 FEW040 33/25 Q0996 NOSIG
ZHCC,2021-07-12 12:00,ZHCC 121200Z 20003MPS 110V240 CAVOK 32/25 Q0997 NOSIG
ZHCC,2021-07-12 13:00,ZHCC 121300Z 20004MPS 160V240 CAVOK 31/25 Q0997 NOSIG
ZHCC,2021-07-12 14:00,ZHCC 121400Z VRB02G07MPS CAVOK 30/25 Q0998 NOSIG
ZHCC,2021-07-12 15:00,ZHCC 121500Z 19004MPS 130V250 CAVOK 29/24 Q0998 NOSIG
ZHCC,2021-07-12 16:00,ZHCC 121600Z 19003MPS 160V220 CAVOK 29/24 Q0997 NOSIG
ZHCC,2021-07-12 17:00,ZHCC 121700Z 19003MPS 150V250 CAVOK 28/24 Q0997 NOSIG
ZHCC,2021-07-12 18:00,ZHCC 121800Z 19003MPS 120V220 CAVOK 28/24 Q0996 NOSIG
ZHCC,2021-07-12 19:00,ZHCC 121900Z 20004MPS 170V230 CAVOK 27/24 Q0996 NOSIG
ZHCC,2021-07-12 20:00,ZHCC 122000Z 19003MPS 140V230 CAVOK 27/24 Q0997 NOSIG
ZHCC,2021-07-12 21:00,ZHCC 122100Z 20003MPS 160V240 CAVOK 27/24 Q0997 NOSIG
ZHCC,2021-07-12 22:00,ZHCC 122200Z 19003MPS 110V240 CAVOK 27/25 Q0997 NOSIG
ZHCC,2021-07-12 23:00,ZHCC 122300Z 17003MPS 110V230 CAVOK 27/25 Q0996 NOSIG
ZHCC,2021-07-13 00:00,ZHCC 130000Z 19003MPS 150V250 CAVOK 28/25 Q0997 NOSIG
ZHCC,2021-07-13 01:00,ZHCC 130100Z 20003MPS 120V250 CAVOK 30/25 Q0997 NOSIG
ZHCC,2021-07-13 02:00,ZHCC 130200Z 17003MPS 080V230 CAVOK 32/25 Q0997 NOSIG
ZHCC,2021-07-13 03:00,ZHCC 130300Z 18003MPS 110V240 CAVOK 33/25 Q0997 NOSIG
ZHCC,2021-07-13 04:00,ZHCC 130400Z 17004MPS 090V230 CAVOK 34/24 Q0997 NOSIG
ZHCC,2021-07-13 05:00,ZHCC 130500Z 16003MPS 070V240 CAVOK 35/24 Q0997 NOSIG
ZHCC,2021-07-13 06:00,ZHCC 130600Z 17004MPS 110V220 9999 FEW040 36/24 Q0997 NOSIG
ZHCC,2021-07-13 07:00,ZHCC 130700Z 16004MPS 070V220 9999 FEW040 37/24 Q0996 NOSIG
ZHCC,2021-07-13 08:00,ZHCC 130800Z 19004MPS 120V260 9999 FEW040 37/24 Q0996 NOSIG
ZHCC,2021-07-13 09:00,ZHCC 130900Z 18003G08MPS 090V250 9999 SCT040 36/25 Q0996 NOSIG
ZHCC,2021-07-13 10:00,ZHCC 131000Z 18003MPS 110V240 9999 SCT040 36/24 Q0996 NOSIG
ZHCC,2021-07-13 11:00,ZHCC 131100Z 18003MPS 100V230 9999 FEW040 35/25 Q0997 NOSIG
ZHCC,2021-07-13 12:00,ZHCC 131200Z 19003MPS 150V230 CAVOK 34/24 Q0998 NOSIG
ZHCC,2021-07-13 13:00,ZHCC 131300Z 18002MPS 120V240 CAVOK 33/24 Q0998 NOSIG
ZHCC,2021-07-13 14:00,ZHCC 131400Z 13003MPS 090V200 CAVOK 32/25 Q0999 NOSIG
ZHCC,2021-07-13 15:00,ZHCC 131500Z 14003MPS 110V190 CAVOK 31/26 Q0999 NOSIG
ZHCC,2021-07-13 16:00,ZHCC 131600Z 15003MPS 090V200 CAVOK 30/26 Q0999 NOSIG
ZHCC,2021-07-13 17:00,ZHCC 131700Z VRB02MPS CAVOK 30/26 Q0999 NOSIG
ZHCC,2021-07-13 18:00,ZHCC 131800Z 19003MPS 140V230 CAVOK 30/26 Q0999 NOSIG
ZHCC,2021-07-13 19:00,ZHCC 131900Z 19002MPS 120V250 CAVOK 29/26 Q0999 NOSIG
ZHCC,2021-07-13 20:00,ZHCC 132000Z 17002MPS 100V260 CAVOK 29/26 Q1000 NOSIG
ZHCC,2021-07-13 21:00,ZHCC 132100Z VRB02MPS CAVOK 28/26 Q1000 NOSIG
ZHCC,2021-07-13 22:00,ZHCC 132200Z VRB02MPS 7000 NSC 28/26 Q1001 NOSIG
ZHCC,2021-07-13 23:00,ZHCC 132300Z 17002MPS 120V230 7000 NSC 29/26 Q1000 NOSIG
ZHCC,2021-07-14 00:00,ZHCC 140000Z VRB02MPS 8000 NSC 31/26 Q1000 NOSIG
ZHCC,2021-07-14 01:00,ZHCC 140100Z VRB02MPS 8000 SCT020 31/26 Q1001 NOSIG
ZHCC,2021-07-14 02:00,ZHCC 140200Z 14003MPS 100V200 8000 BKN030 33/26 Q1002 NOSIG
ZHCC,2021-07-14 03:00,ZHCC 140300Z 16002MPS 100V220 8000 FEW030 33/26 Q1002 NOSIG
ZHCC,2021-07-14 04:00,ZHCC 140400Z 13003MPS 080V180 9999 SCT040 35/25 Q1001 NOSIG
ZHCC,2021-07-14 05:00,ZHCC 140500Z VRB03MPS 9999 SCT040 37/23 Q1001 NOSIG
ZHCC,2021-07-14 06:00,ZHCC 140600Z 15003MPS 090V230 9999 SCT040 36/24 Q1001 NOSIG
ZHCC,2021-07-14 07:00,ZHCC 140700Z 15003G08MPS 090V220 9999 SCT040 37/25 Q1000 NOSIG
ZHCC,2021-07-14 08:00,ZHCC 140800Z 13003MPS 090V240 9999 SCT040 37/26 Q1000 NOSIG
ZHCC,2021-07-14 09:00,ZHCC 140900Z 13003MPS 100V180 9999 SCT040 36/26 Q1000 NOSIG
ZHCC,2021-07-14 10:00,ZHCC 141000Z 16003MPS 100V250 9999 SCT040 35/26 Q1000 NOSIG
ZHCC,2021-07-14 11:00,ZHCC 141100Z 14002MPS 100V200 9999 FEW040CB SCT040 34/26 Q1001 BECMG TL1140 2000 TSRA
ZHCC,2021-07-14 12:00,ZHCC 141200Z 30006G11MPS 9999 TS FEW040CB BKN040 27/22 Q1003 NOSIG
ZHCC,2021-07-14 13:00,ZHCC 141300Z 14003MPS 110V210 9999 -TSRA FEW040CB BKN040 26/23 Q1004 BECMG TL1420 NSW
ZHCC,2021-07-14 14:00,ZHCC 141400Z VRB02MPS 9999 -TSRA FEW050CB 24/23 Q1005 NOSIG
ZHCC,2021-07-14 15:00,ZHCC 141500Z 19004MPS 160V230 9999 -SHRA FEW050CB 25/22 Q1004 RETS NOSIG
ZHCC,2021-07-14 16:00,ZHCC 141600Z 09002MPS 040V140 CAVOK 24/22 Q1004 NOSIG
ZHCC,2021-07-14 17:00,ZHCC 141700Z 33004MPS 300V020 CAVOK 25/22 Q1005 NOSIG
ZHCC,2021-07-14 18:00,ZHCC 141800Z 06002MPS 030V100 CAVOK 25/22 Q1004 NOSIG
ZHCC,2021-07-14 19:00,ZHCC 141900Z 13003MPS CAVOK 24/22 Q1006 NOSIG
ZHCC,2021-07-14 20:00,ZHCC 142000Z 09002MPS CAVOK 24/23 Q1005 NOSIG
ZHCC,2021-07-14 21:00,ZHCC 142100Z 13002MPS 050V190 CAVOK 25/22 Q1006 NOSIG
ZHCC,2021-07-14 22:00,ZHCC 142200Z 12002MPS 090V160 CAVOK 24/22 Q1006 NOSIG
ZHCC,2021-07-14 23:00,ZHCC 142300Z 08003MPS 9999 FEW040 25/23 Q1006 NOSIG
ZHCC,2021-07-15 00:00,ZHCC 150000Z 15003MPS 090V230 9999 FEW040 27/23 Q1007 NOSIG
ZHCC,2021-07-15 01:00,ZHCC 150100Z 13003MPS 090V190 9999 FEW040TCU FEW040 28/23 Q1007 NOSIG
ZHCC,2021-07-15 02:00,ZHCC 150200Z 15002MPS 090V240 9999 FEW040TCU 30/23 Q1006 NOSIG
ZHCC,2021-07-15 03:00,ZHCC 150300Z VRB03MPS 9999 FEW033 31/22 Q1007 NOSIG
ZHCC,2021-07-15 04:00,ZHCC 150400Z 14003MPS 110V180 9999 FEW033 31/24 Q1007 NOSIG
ZHCC,2021-07-15 05:00,ZHCC 150500Z 11002MPS 050V160 9999 SCT033 31/24 Q1007 NOSIG
ZHCC,2021-07-15 06:00,ZHCC 150600Z 10004MPS 070V140 9999 BKN033 32/25 Q1007 NOSIG
ZHCC,2021-07-15 07:00,ZHCC 150700Z 13004MPS 100V180 9999 SCT033 32/24 Q1006 NOSIG
ZHCC,2021-07-15 08:00,ZHCC 150800Z 13004MPS 100V210 9999 FEW033TCU FEW033 31/24 Q1006 NOSIG
ZHCC,2021-07-15 09:00,ZHCC 150900Z 13003MPS 100V180 9999 FEW033 31/25 Q1006 NOSIG
ZHCC,2021-07-15 10:00,ZHCC 151000Z 14002MPS 090V200 9999 FEW033 30/25 Q1006 NOSIG
ZHCC,2021-07-15 11:00,ZHCC 151100Z 13002MPS 9999 FEW033 29/24 Q1007 NOSIG
ZHCC,2021-07-15 12:00,ZHCC 151200Z VRB01MPS CAVOK 28/24 Q1007 NOSIG
ZHCC,2021-07-15 13:00,ZHCC 151300Z 14001MPS CAVOK 27/24 Q1008 NOSIG
ZHCC,2021-07-15 14:00,ZHCC 151400Z VRB01MPS CAVOK 27/24 Q1008 NOSIG
ZHCC,2021-07-15 15:00,ZHCC 151500Z VRB01MPS CAVOK 27/24 Q1008 NOSIG
ZHCC,2021-07-15 16:00,ZHCC 151600Z VRB01MPS CAVOK 27/24 Q1008 NOSIG
ZHCC,2021-07-15 17:00,ZHCC 151700Z VRB01MPS CAVOK 26/24 Q1007 NOSIG
ZHCC,2021-07-15 18:00,ZHCC 151800Z 00000MPS CAVOK 26/24 Q1007 NOSIG
ZHCC,2021-07-15 19:00,ZHCC 151900Z 30002MPS CAVOK 25/24 Q1007 NOSIG
ZHCC,2021-07-15 20:00,ZHCC 152000Z VRB01MPS CAVOK 26/24 Q1008 NOSIG
ZHCC,2021-07-15 21:00,ZHCC 152100Z 32002MPS CAVOK 26/24 Q1008 NOSIG
ZHCC,2021-07-15 22:00,ZHCC 152200Z 04002MPS 6000 SCT015 OVC040 27/24 Q1008 NOSIG
ZHCC,2021-07-15 23:00,ZHCC 152300Z 06002MPS 020V110 5000 BR SCT015 OVC040 26/24 Q1008 NOSIG
ZHCC,2021-07-16 00:00,ZHCC 160000Z 02002MPS 350V080 4000 BR SCT015 OVC040 27/25 Q1009 NOSIG
ZHCC,2021-07-16 01:00,ZHCC 160100Z 03003MPS 340V070 4000 BR SCT015 OVC040 28/24 Q1009 NOSIG
ZHCC,2021-07-16 02:00,ZHCC 160200Z 05004MPS 030V090 4000 BR SCT015 29/25 Q1009 RERA NOSIG
ZHCC,2021-07-16 03:00,ZHCC 160300Z 04004MPS 010V080 5000 BR SCT030 30/25 Q1009 NOSIG
ZHCC,2021-07-16 04:00,ZHCC 160400Z 04003MPS 360V090 5000 BR FEW030CB BKN030 31/24 Q1008 NOSIG
ZHCC,2021-07-16 05:00,ZHCC 160500Z 03005MPS 340V060 4000 -TSRA BR FEW030CB BKN030 30/25 Q1008 NOSIG
ZHCC,2021-07-16 06:00,ZHCC 160600Z 09003MPS 030V130 6000 FEW040CB 29/24 Q1007 RETS NOSIG
ZHCC,2021-07-16 07:00,ZHCC 160700Z 06002MPS 350V110 6000 NSC 30/25 Q1007 NOSIG
ZHCC,2021-07-16 08:00,ZHCC 160800Z 07003MPS 040V100 8000 NSC 30/24 Q1006 NOSIG
ZHCC,2021-07-16 09:00,ZHCC 160900Z 02004MPS 360V060 CAVOK 31/24 Q1006 NOSIG
ZHCC,2021-07-16 10:00,ZHCC 161000Z 05003MPS 010V090 CAVOK 30/24 Q1006 NOSIG
ZHCC,2021-07-16 11:00,ZHCC 161100Z 04003MPS 020V090 CAVOK 30/23 Q1006 NOSIG
ZHCC,2021-07-16 12:00,ZHCC 161200Z 01002MPS 310V090 CAVOK 30/23 Q1007 NOSIG
ZHCC,2021-07-16 13:00,ZHCC 161300Z VRB01MPS CAVOK 29/23 Q1007 NOSIG
ZHCC,2021-07-16 14:00,ZHCC 161400Z 02003MPS 360V070 9999 BKN030 29/23 Q1008 NOSIG
ZHCC,2021-07-16 15:00,ZHCC 161500Z 01002MPS 330V050 CAVOK 29/24 Q1007 NOSIG
ZHCC,2021-07-16 16:00,ZHCC 161600Z 33003MPS 300V020 CAVOK 28/23 Q1007 NOSIG
ZHCC,2021-07-16 17:00,ZHCC 161700Z 36003MPS 320V030 CAVOK 27/23 Q1006 NOSIG
ZHCC,2021-07-16 18:00,ZHCC 161800Z 36004MPS CAVOK 26/23 Q1006 NOSIG
ZHCC,2021-07-16 19:00,ZHCC 161900Z 36003G11MPS 320V030 6000 SCT015 26/24 Q1006 NOSIG
ZHCC,2021-07-16 20:00,ZHCC 162000Z 36003MPS 320V020 6000 SCT012 26/24 Q1006 NOSIG
ZHCC,2021-07-16 21:00,ZHCC 162100Z 34004MPS 6000 SCT012 26/24 Q1006 NOSIG
ZHCC,2021-07-16 22:00,ZHCC 162200Z 01003MPS 350V050 3000 BR SCT012 BKN019 26/24 Q1006 NOSIG
ZHCC,2021-07-16 23:00,ZHCC 162300Z 01004MPS 340V040 4000 BR SCT012 BKN019 26/24 Q1006 NOSIG
ZHCC,2021-07-17 00:00,ZHCC 170000Z 33004MPS 300V010 4000 BR SCT012 BKN019 27/24 Q1007 NOSIG
ZHCC,2021-07-17 01:00,ZHCC 170100Z 36004MPS 340V050 4000 BR FEW020TCU BKN020 28/24 Q1006 NOSIG
ZHCC,2021-07-17 02:00,ZHCC 170200Z 03005MPS 7000 FEW020TCU BKN020 28/23 Q1006 NOSIG
ZHCC,2021-07-17 03:00,ZHCC 170300Z 01005MPS 350V060 8000 BKN020 28/23 Q1006 NOSIG
ZHCC,2021-07-17 04:00,ZHCC 170400Z 02005MPS 350V050 9999 FEW030 28/23 Q1006 NOSIG
ZHCC,2021-07-17 05:00,ZHCC 170500Z 36004MPS 330V030 9999 FEW030 28/23 Q1005 NOSIG
ZHCC,2021-07-17 06:00,ZHCC 170600Z 01004MPS 340V060 9999 FEW030 29/23 Q1005 NOSIG
ZHCC,2021-07-17 07:00,ZHCC 170700Z 02004MPS 330V080 9999 FEW030TCU BKN030 30/24 Q1004 NOSIG
ZHCC,2021-07-17 08:00,ZHCC 170800Z 04006MPS 9999 FEW030TCU BKN030 30/22 Q1004 NOSIG
ZHCC,2021-07-17 09:00,ZHCC 170900Z 05005MPS 030V090 9999 FEW030TCU SCT040 30/22 Q1004 NOSIG
ZHCC,2021-07-17 10:00,ZHCC 171000Z 03005MPS 9999 FEW030TCU SCT040 29/22 Q1004 NOSIG
ZHCC,2021-07-17 11:00,ZHCC 171100Z 04005MPS 020V080 9999 FEW030TCU 28/22 Q1004 NOSIG
ZHCC,2021-07-17 12:00,ZHCC 171200Z 05004MPS 9999 FEW040 27/22 Q1004 NOSIG
ZHCC,2021-07-17 13:00,ZHCC 171300Z 04005MPS 9999 BKN020 26/22 Q1005 NOSIG
ZHCC,2021-07-17 14:00,ZHCC 171400Z 04005MPS 9999 BKN020 26/22 Q1006 NOSIG
ZHCC,2021-07-17 15:00,ZHCC 171500Z 04004MPS 020V090 9999 BKN020 26/22 Q1006 NOSIG
ZHCC,2021-07-17 16:00,ZHCC 171600Z 01003MPS 9999 BKN020 25/22 Q1006 NOSIG
ZHCC,2021-07-17 17:00,ZHCC 171700Z 02002MPS 4000 -SHRA BR FEW020TCU BKN020 24/23 Q1006 NOSIG
ZHCC,2021-07-17 18:00,ZHCC 171800Z 01003MPS 3500 -SHRA BR FEW020TCU BKN020 24/23 Q1005 NOSIG
ZHCC,2021-07-17 19:00,ZHCC 171900Z 03003MPS 6000 BKN020 24/23 Q1005 NOSIG
ZHCC,2021-07-17 20:00,ZHCC 172000Z 05003MPS 6000 FEW009 BKN020 24/23 Q1005 NOSIG
ZHCC,2021-07-17 21:00,ZHCC 172100Z 05003MPS 5000 BR FEW009 BKN020 24/23 Q1005 NOSIG
ZHCC,2021-07-17 22:00,ZHCC 172200Z 05004MPS 3000 BR FEW007 OVC020 24/23 Q1005 NOSIG
ZHCC,2021-07-17 23:00,ZHCC 172300Z 06004MPS 1700 -RA BR FEW007 OVC020 24/23 Q1005 NOSIG
ZHCC,2021-07-18 00:00,ZHCC 180000Z 07004MPS 2500 -RA BR FEW007 OVC020 24/23 Q1006 BECMG TL0140 3000
ZHCC,2021-07-18 01:00,ZHCC 180100Z 06004MPS 2500 BR SCT005 OVC020 25/23 Q1006 NOSIG
ZHCC,2021-07-18 02:00,ZHCC 180200Z 08004MPS 040V110 3000 -RA BR SCT005 OVC020 25/23 Q1006 NOSIG
ZHCC,2021-07-18 03:00,ZHCC 180300Z 08002MPS 040V130 3000 -RA BR SCT005 OVC020 25/24 Q1006 NOSIG
ZHCC,2021-07-18 04:00,ZHCC 180400Z 08005MPS 2500 RA BR SCT006 OVC016 24/23 Q1006 BECMG TL0500 3000 -RA
ZHCC,2021-07-18 05:00,ZHCC 180500Z VRB02MPS 4000 BR FEW007 OVC020 25/24 Q1006 RERA NOSIG
ZHCC,2021-07-18 06:00,ZHCC 180600Z 05003MPS 020V090 6000 BKN020 27/23 Q1005 NOSIG
ZHCC,2021-07-18 07:00,ZHCC 180700Z 06005MPS 7000 BKN030 27/23 Q1005 NOSIG
ZHCC,2021-07-18 08:00,ZHCC 180800Z 03003MPS 350V060 5000 BR FEW015 OVC040 27/24 Q1005 NOSIG
ZHCC,2021-07-18 09:00,ZHCC 180900Z 01004MPS 340V090 5000 BR SCT015 FEW030CB BKN030 28/24 Q1005 NOSIG
ZHCC,2021-07-18 10:00,ZHCC 181000Z 07005MPS 6000 SCT015 FEW030CB BKN030 27/24 Q1005 NOSIG
ZHCC,2021-07-18 11:00,ZHCC 181100Z 06004MPS 6000 FEW030CB BKN030 27/23 Q1005 NOSIG
ZHCC,2021-07-18 12:00,ZHCC 181200Z 04003MPS 010V080 6000 SCT030CB BKN030 27/24 Q1006 BECMG TL1220 2000 SHRA
ZHCC,2021-07-18 13:00,ZHCC 181300Z 06004MPS 030V100 6000 -SHRA FEW030CB BKN030 25/24 Q1007 NOSIG
ZHCC,2021-07-18 14:00,ZHCC 181400Z 05005MPS 5000 BR FEW030CB BKN030 25/24 Q1007 NOSIG
ZHCC,2021-07-18 15:00,ZHCC 181500Z 05003MPS 020V080 4000 -SHRA BR SCT006 FEW030CB BKN030 25/24 Q1007 NOSIG
ZHCC,2021-07-18 16:00,ZHCC 181600Z 03004MPS 350V090 4000 -SHRA BR SCT006 FEW030CB BKN030 25/24 Q1007 BECMG TL1630 2000 SHRA
ZHCC,2021-07-18 17:00,ZHCC 181700Z 08003MPS 4000 -SHRA BR SCT006 FEW030CB BKN030 25/24 Q1006 NOSIG
ZHCC,2021-07-18 18:00,ZHCC 181800Z 08004MPS 6000 FEW030CB BKN030 25/23 Q1006 NOSIG
ZHCC,2021-07-18 19:00,ZHCC 181900Z 06004MPS 6000 FEW030CB BKN030 25/23 Q1006 NOSIG
ZHCC,2021-07-18 20:00,ZHCC 182000Z 06003MPS 6000 -SHRA SCT009 BKN020 FEW030CB 25/23 Q1006 RETS NOSIG
ZHCC,2021-07-18 21:00,ZHCC 182100Z 07003MPS 4000 -SHRA BR SCT006 BKN020 FEW030CB 24/24 Q1006 RESHRA NOSIG
ZHCC,2021-07-18 22:00,ZHCC 182200Z 09004MPS 3000 BR SCT006 OVC020 25/24 Q1007 NOSIG
ZHCC,2021-07-18 23:00,ZHCC 182300Z 09005MPS 3000 BR SCT007 OVC020 25/24 Q1007 NOSIG
ZHCC,2021-07-19 00:00,ZHCC 190000Z 08005MPS 1800 -SHRA BR SCT005 BKN020 FEW030CB 25/24 Q1007 RESHRA BECMG TL0140 3000
ZHCC,2021-07-19 01:00,ZHCC 190100Z 07005MPS 2000 -SHRA BR SCT006 BKN020 FEW030CB 25/24 Q1008 BECMG TL0140 SHRA
ZHCC,2021-07-19 02:00,ZHCC 190200Z 07006MPS 2500 -SHRA BR SCT006 OVC020 FEW030CB 25/24 Q1008 RESHRA BECMG TL0240 3000
ZHCC,2021-07-19 03:00,ZHCC 190300Z 07006MPS 3000 -SHRA BR SCT007 OVC020 FEW030CB 25/24 Q1008 BECMG TL0440 2000 SHRA
ZHCC,2021-07-19 04:00,ZHCC 190400Z 08005MPS 1700 -SHRA BR SCT007 OVC020 FEW030CB 25/24 Q1008 BECMG TL0440 SHRA
ZHCC,2021-07-19 05:00,ZHCC 190500Z 06004MPS 1500 -SHRA BR SCT007 OVC020 FEW030CB 25/24 Q1007 NOSIG
ZHCC,2021-07-19 06:00,ZHCC 190600Z 06004MPS 2000 SHRA BR SCT007 OVC020 FEW030CB 25/24 Q1007 BECMG TL0640 -SHRA
ZHCC,2021-07-19 07:00,ZHCC 190700Z 36003MPS 340V070 1500 SHRA BR SCT007 OVC020 FEW030CB 25/24 Q1007 BECMG TL0740 -SHRA
ZHCC,2021-07-19 08:00,ZHCC 190800Z VRB03MPS 1700 SHRA BR SCT007 OVC020 FEW030CB 26/25 Q1006 NOSIG
ZHCC,2021-07-19 09:00,ZHCC 190900Z 05002MPS 360V110 4000 SHRA BR SCT007 FEW030CB BKN030 24/23 Q1006 BECMG TL1040 2500 -SHRA
ZHCC,2021-07-19 10:00,ZHCC 191000Z VRB01MPS 3000 SHRA BR SCT006 FEW030CB BKN030 24/23 Q1006 BECMG TL1040 2500 -SHRA
ZHCC,2021-07-19 11:00,ZHCC 191100Z 03007MPS 2000 -SHRA BR SCT006 FEW030CB BKN030 26/25 Q1007 RESHRA BECMG TL1140 12008G15MPS 1200 TSRA
ZHCC,2021-07-19 12:00,ZHCC 191200Z 11004MPS 2500 TSRA BR SCT006 FEW023CB BKN023 23/23 Q1007 NOSIG
ZHCC,2021-07-19 13:00,ZHCC 191300Z VRB02MPS 2000 TSRA BR SCT005 FEW023CB BKN023 24/24 Q1008 NOSIG
ZHCC,2021-07-19 14:00,ZHCC 191400Z 08005MPS 2000 SHRA BR SCT005 FEW023CB BKN023 25/25 Q1008 RETS NOSIG
ZHCC,2021-07-19 15:00,ZHCC 191500Z 06006MPS 2100 -SHRA BR SCT005 FEW026CB BKN026 25/25 Q1008 RESHRA BECMG TL1640 SHRA
ZHCC,2021-07-19 16:00,ZHCC 191600Z 07007MPS 2100 -SHRA BR SCT007 FEW026CB BKN026 25/24 Q1008 BECMG TL1640 SHRA
ZHCC,2021-07-19 17:00,ZHCC 191700Z 07007MPS 2500 -SHRA BR SCT006 FEW026CB BKN026 25/24 Q1008 NOSIG
ZHCC,2021-07-19 18:00,ZHCC 191800Z 08004MPS 4000 -SHRA BR SCT006 FEW026CB BKN026 23/23 Q1007 NOSIG
ZHCC,2021-07-19 19:00,ZHCC 191900Z 08004MPS 2500 SHRA BR SCT006 FEW026CB BKN026 23/23 Q1007 BECMG TL2040 -SHRA
ZHCC,2021-07-19 20:00,ZHCC 192000Z 05005MPS 3000 SHRA BR SCT006 FEW026CB BKN026 23/23 Q1007 NOSIG
ZHCC,2021-07-19 21:00,ZHCC 192100Z 05005MPS 3500 SHRA BR SCT006 FEW026CB BKN026 24/23 Q1007 NOSIG
ZHCC,2021-07-19 22:00,ZHCC 192200Z 06006MPS 2500 -SHRA BR SCT006 FEW026CB BKN026 24/24 Q1007 RESHRA NOSIG
ZHCC,2021-07-19 23:00,ZHCC 192300Z 07007MPS 2000 SHRA BR SCT006 FEW026CB BKN026 24/24 Q1007 NOSIG
ZHCC,2021-07-20 00:00,ZHCC 200000Z 07006MPS 2500 SHRA BR SCT006 FEW026CB BKN026 24/24 Q1008 NOSIG
ZHCC,2021-07-20 01:00,ZHCC 200100Z 08006MPS 1300 R12R/P2000 R12L/P2000 SHRA BR SCT004 FEW026CB BKN026 24/24 Q1008 NOSIG
ZHCC,2021-07-20 02:00,ZHCC 200200Z 08008MPS 1400 R12R/1500D R12L/P2000 SHRA BR SCT004 FEW026CB BKN026 24/23 Q1008 NOSIG
ZHCC,2021-07-20 03:00,ZHCC 200300Z 08008MPS 1500 SHRA BR SCT003 FEW026CB BKN026 24/24 Q1008 NOSIG
ZHCC,2021-07-20 04:00,ZHCC 200400Z 08006MPS 3500 SHRA BR SCT006 FEW026CB BKN026 24/24 Q1008 NOSIG
ZHCC,2021-07-20 05:00,ZHCC 200500Z 12002MPS 070V200 3000 SHRA BR SCT004 FEW026CB BKN026 24/23 Q1007 NOSIG
ZHCC,2021-07-20 06:00,ZHCC 200600Z 10008MPS 1600 -SHRA BR SCT004 FEW026CB BKN026 25/25 Q1006 RESHRA NOSIG
ZHCC,2021-07-20 07:00,ZHCC 200700Z 10008MPS 1600 -SHRA BR SCT004 FEW026CB BKN026 26/25 Q1006 BECMG TL0820 1200 SHRA
ZHCC,2021-07-20 08:00,ZHCC 200800Z 11008MPS 1300 R12R/1500U R12L/1500D SHRA BR SCT004 FEW026CB BKN026 26/25 Q1005 BECMG TL0920 1500 -SHRA
ZHCC,2021-07-20 09:00,ZHCC 200900Z 11006MPS 1500 -SHRA BR SCT004 FEW026CB BKN026 26/25 Q1006 RESHRA BECMG TL1020 1200 TSRA
ZHCC,2021-07-20 10:00,ZHCC 201000Z 07008MPS 030V090 1500 +TSRA BR SCT004 BKN020 SCT026CB 25/25 Q1005 NOSIG
ZHCC,2021-07-20 11:00,ZHCC 201100Z 05005MPS 360V110 1800 TSRA BR SCT004 BKN020 SCT026CB 25/24 Q1006 NOSIG
ZHCC,2021-07-20 12:00,ZHCC 201200Z 17004G11MPS 090V220 1000 R12R/1300U R12L/1400D +TSRA BR SCT004 BKN020 SCT026CB 24/23 Q1008 NOSIG
ZHCC,2021-07-20 13:00,ZHCC 201300Z 11002MPS 070V180 2500 +TSRA BR SCT006 BKN020 SCT026CB 23/23 Q1008 NOSIG
ZHCC,2021-07-20 14:00,ZHCC 201400Z 06003MPS 020V090 4000 SHRA BR SCT004 BKN020 SCT026CB 23/23 Q1008 RETS NOSIG
ZHCC,2021-07-20 15:00,ZHCC 201500Z 10006MPS 4000 SHRA BR SCT004 BKN020 SCT026CB 24/23 Q1008 NOSIG
ZHCC,2021-07-20 16:00,ZHCC 201600Z 09005MPS 4000 SHRA BR SCT004 SCT026CB BKN026 23/23 Q1008 NOSIG
ZHCC,2021-07-20 17:00,ZHCC 201700Z 05003MPS 020V180 4000 SHRA BR SCT004 SCT030CB BKN030 23/23 Q1008 NOSIG
ZHCC,2021-07-20 18:00,ZHCC 201800Z 11005MPS 4000 SHRA BR SCT004 SCT030CB BKN030 23/23 Q1007 NOSIG
ZHCC,2021-07-20 19:00,ZHCC 201900Z 11004MPS 3000 SHRA BR SCT004 SCT030CB BKN030 23/23 Q1007 NOSIG
ZHCC,2021-07-20 20:00,ZHCC 202000Z 12005MPS 4000 SHRA BR SCT004 FEW030CB BKN030 23/23 Q1007 NOSIG
ZHCC,2021-07-20 21:00,ZHCC 202100Z 11005MPS 4000 SHRA BR SCT006 FEW030CB BKN030 23/23 Q1006 NOSIG
ZHCC,2021-07-20 22:00,ZHCC 202200Z 12004MPS 6000 -SHRA SCT004 FEW030CB BKN030 24/23 Q1007 RESHRA NOSIG
ZHCC,2021-07-20 23:00,ZHCC 202300Z 13003MPS 100V160 4000 SHRA BR SCT004 FEW030CB BKN030 23/23 Q1008 NOSIG
ZHCC,2021-07-21 00:00,ZHCC 210000Z 12003MPS 100V170 6000 SHRA SCT004 FEW030CB BKN030 23/23 Q1008 NOSIG
ZHCC,2021-07-21 01:00,ZHCC 210100Z 11003MPS 7000 -SHRA SCT004 FEW030CB BKN030 24/23 Q1008 RESHRA NOSIG
ZHCC,2021-07-21 02:00,ZHCC 210200Z 11004MPS 9999 SCT006 FEW030CB BKN030 24/23 Q1008 BECMG TL0320 SHRA
ZHCC,2021-07-21 03:00,ZHCC 210300Z 11004MPS 7000 -SHRA SCT006 FEW030CB BKN030 25/24 Q1008 BECMG TL0340 TSRA
ZHCC,2021-07-21 04:00,ZHCC 210400Z 13003MPS 100V170 7000 -SHRA SCT006 FEW030CB BKN030 25/24 Q1007 NOSIG
ZHCC,2021-07-21 05:00,ZHCC 210500Z 13003MPS 090V190 6000 -SHRA SCT006 FEW040CB 25/25 Q1007 NOSIG
ZHCC,2021-07-21 06:00,ZHCC 210600Z 12004MPS 5000 BR SCT006 26/25 Q1007 NOSIG
ZHCC,2021-07-21 07:00,ZHCC 210700Z 12003MPS 080V160 5000 BR SCT008 27/25 Q1006 NOSIG
ZHCC,2021-07-21 08:00,ZHCC 210800Z 12003MPS 070V160 5000 BR SCT008 26/25 Q1006 NOSIG
ZHCC,2021-07-21 09:00,ZHCC 210900Z 12002MPS 3000 -RA BR SCT008 26/25 Q1006 BECMG TL1040 2000
ZHCC,2021-07-21 10:00,ZHCC 211000Z 10002MPS 3000 BR SCT008 OVC040 27/26 Q1006 BECMG TL1140 2000 TSRA
ZHCC,2021-07-21 11:00,ZHCC 211100Z 10003MPS 2000 BR SCT006 FEW030CB BKN030 26/26 Q1006 BECMG TL1140 TSRA
ZHCC,2021-07-21 12:00,ZHCC 211200Z 19003MPS 140V220 5000 SHRA BR SCT005 FEW030CB BKN030 24/23 Q1007 NOSIG
ZHCC,2021-07-21 13:00,ZHCC 211300Z 13003MPS 090V170 8000 -SHRA FEW006 FEW030CB BKN040 23/23 Q1008 RESHRA NOSIG
ZHCC,2021-07-21 14:00,ZHCC 211400Z VRB01MPS 9999 FEW008 23/23 Q1008 NOSIG
ZHCC,2021-07-21 15:00,ZHCC 211500Z VRB01MPS 9999 -SHRA SCT006 FEW030CB BKN040 23/23 Q1008 NOSIG
ZHCC,2021-07-21 16:00,ZHCC 211600Z 00000MPS 9999 FEW007 23/23 Q1008 NOSIG
ZHCC,2021-07-21 17:00,ZHCC 211700Z VRB01MPS 7000 -SHRA SCT007 FEW030CB BKN030 23/23 Q1007 BECMG TL1740 SHRA
ZHCC,2021-07-21 18:00,ZHCC 211800Z VRB02MPS 4500 SHRA BR SCT007 FEW030CB BKN030 24/24 Q1007 NOSIG
ZHCC,2021-07-21 19:00,ZHCC 211900Z 11002MPS 6000 -SHRA SCT007 FEW030CB BKN030 24/24 Q1006 RESHRA NOSIG
ZHCC,2021-07-21 20:00,ZHCC 212000Z 09002MPS 5000 -SHRA BR SCT007 FEW030CB BKN030 24/24 Q1006 NOSIG
ZHCC,2021-07-21 21:00,ZHCC 212100Z VRB01MPS 5000 BR SCT007 OVC030 24/24 Q1007 NOSIG
ZHCC,2021-07-21 22:00,ZHCC 212200Z 08002MPS 2000 SHRA BR SCT007 FEW030CB BKN030 24/24 Q1007 NOSIG
ZHCC,2021-07-21 23:00,ZHCC 212300Z 09002MPS 2500 -SHRA BR SCT007 FEW030CB BKN030 24/24 Q1007 RESHRA BECMG TL2340 3000
ZHCC,2021-07-22 00:00,ZHCC 220000Z 11002MPS 4000 BR FEW007 OVC030 24/24 Q1007 NOSIG
ZHCC,2021-07-22 01:00,ZHCC 220100Z 12003MPS 100V160 8000 NSC 25/24 Q1008 NOSIG
ZHCC,2021-07-22 02:00,ZHCC 220200Z 11004MPS 080V150 9999 FEW010 OVC040 26/24 Q1008 NOSIG
ZHCC,2021-07-22 03:00,ZHCC 220300Z 10005MPS 9999 FEW010 OVC040 27/24 Q1008 NOSIG
ZHCC,2021-07-22 04:00,ZHCC 220400Z 09004MPS 9999 FEW010 OVC040 27/24 Q1008 NOSIG
ZHCC,2021-07-22 05:00,ZHCC 220500Z 08006MPS 9999 FEW015 OVC040 27/24 Q1008 NOSIG
ZHCC,2021-07-22 06:00,ZHCC 220600Z 07006MPS 9999 FEW015 OVC040 28/24 Q1008 NOSIG
ZHCC,2021-07-22 07:00,ZHCC 220700Z 08006MPS 9999 SCT020 28/24 Q1007 NOSIG
ZHCC,2021-07-22 08:00,ZHCC 220800Z 07006MPS 9999 SCT020 28/23 Q1007 NOSIG
ZHCC,2021-07-22 09:00,ZHCC 220900Z 06006MPS 9999 FEW020 28/23 Q1007 NOSIG
ZHCC,2021-07-22 10:00,ZHCC 221000Z 07005MPS CAVOK 27/23 Q1007 NOSIG
ZHCC,2021-07-22 11:00,ZHCC 221100Z 05005MPS 9999 BKN030 27/23 Q1007 NOSIG
ZHCC,2021-07-22 12:00,ZHCC 221200Z 06004MPS 9999 BKN030 27/23 Q1008 NOSIG
ZHCC,2021-07-22 13:00,ZHCC 221300Z 03004MPS 360V070 CAVOK 26/23 Q1009 NOSIG
ZHCC,2021-07-22 14:00,ZHCC 221400Z 01003MPS 340V070 6000 NSC 26/24 Q1009 NOSIG
ZHCC,2021-07-22 15:00,ZHCC 221500Z 02004MPS 4000 BR FEW010 25/24 Q1009 NOSIG
ZHCC,2021-07-22 16:00,ZHCC 221600Z 01004MPS 4000 BR FEW010 25/23 Q1009 NOSIG
ZHCC,2021-07-22 17:00,ZHCC 221700Z 03004MPS 350V060 4000 BR FEW010 25/23 Q1009 NOSIG
ZHCC,2021-07-22 18:00,ZHCC 221800Z 05005MPS 4000 BR FEW010 24/23 Q1008 NOSIG
ZHCC,2021-07-22 19:00,ZHCC 221900Z 04005MPS 4000 BR FEW010 24/23 Q1008 NOSIG
ZHCC,2021-07-22 20:00,ZHCC 222000Z 04005MPS 4000 BR FEW010 BKN040 24/23 Q1008 NOSIG
ZHCC,2021-07-22 21:00,ZHCC 222100Z 04004MPS 4000 BR FEW010 BKN040 24/23 Q1008 BECMG TL2240 2500
ZHCC,2021-07-22 22:00,ZHCC 222200Z 03004MPS 360V070 2500 BR FEW010 BKN040 24/23 Q1008 BECMG TL2340 3000
ZHCC,2021-07-22 23:00,ZHCC 222300Z 03003MPS 360V060 2000 BR FEW010 BKN040 24/23 Q1008 BECMG TL0040 3000
ZHCC,2021-07-23 00:00,ZHCC 230000Z 03003MPS 360V070 2500 BR SCT008 BKN040 25/23 Q1009 BECMG TL0040 3000
ZHCC,2021-07-23 01:00,ZHCC 230100Z 04003MPS 360V080 2500 BR SCT006 OVC030 25/23 Q1009 BECMG TL0240 3000
ZHCC,2021-07-23 02:00,ZHCC 230200Z 02003MPS 360V060 1600 -RA BR SCT005 OVC030 24/23 Q1009 NOSIG
ZHCC,2021-07-23 03:00,ZHCC 230300Z 03004MPS 360V060 2500 -RA BR SCT006 OVC030 25/23 Q1009 BECMG TL0440 3000
ZHCC,2021-07-23 04:00,ZHCC 230400Z 03004MPS 360V070 2500 -RA BR SCT007 OVC030 26/24 Q1009 BECMG TL0440 3000
ZHCC,2021-07-23 05:00,ZHCC 230500Z 03004MPS 350V070 3000 BR SCT008 OVC030 26/24 Q1009 NOSIG
ZHCC,2021-07-23 06:00,ZHCC 230600Z 03004MPS 350V080 3000 BR SCT010 OVC030 27/24 Q1008 NOSIG
ZHCC,2021-07-23 07:00,ZHCC 230700Z 02003MPS 340V070 3000 BR FEW012 BKN046 27/23 Q1008 NOSIG
ZHCC,2021-07-23 08:00,ZHCC 230800Z 02003MPS 350V080 3000 BR FEW012 BKN046 27/24 Q1007 NOSIG
ZHCC,2021-07-23 09:00,ZHCC 230900Z 01003MPS 340V060 4000 BR SCT015 BKN046 27/24 Q1007 NOSIG
ZHCC,2021-07-23 10:00,ZHCC 231000Z 03004MPS 350V070 4000 BR SCT015 BKN046 27/24 Q1007 NOSIG
ZHCC,2021-07-23 11:00,ZHCC 231100Z 02003MPS 360V070 4000 BR FEW015 27/24 Q1007 NOSIG
ZHCC,2021-07-23 12:00,ZHCC 231200Z 01002MPS 340V070 4000 BR FEW015 27/24 Q1007 NOSIG
ZHCC,2021-07-23 13:00,ZHCC 231300Z 02002MPS 350V070 4000 BR SCT015 FEW030TCU BKN030 26/24 Q1008 NOSIG
ZHCC,2021-07-23 14:00,ZHCC 231400Z 11002MPS 080V140 6000 NSC 26/24 Q1008 NOSIG
ZHCC,2021-07-23 15:00,ZHCC 231500Z VRB01MPS CAVOK 25/22 Q1008 NOSIG
ZHCC,2021-07-23 16:00,ZHCC 231600Z 00000MPS CAVOK 25/22 Q1008 NOSIG
ZHCC,2021-07-23 17:00,ZHCC 231700Z 28001MPS CAVOK 24/23 Q1008 NOSIG
ZHCC,2021-07-23 18:00,ZHCC 231800Z VRB01MPS 9999 SCT023 24/23 Q1008 NOSIG
ZHCC,2021-07-23 19:00,ZHCC 231900Z VRB01MPS 9999 SCT026 25/22 Q1008 NOSIG
ZHCC,2021-07-23 20:00,ZHCC 232000Z VRB01MPS 9999 SCT040 24/22 Q1008 NOSIG
ZHCC,2021-07-23 21:00,ZHCC 232100Z 36002MPS 340V040 9999 SCT040 25/22 Q1008 NOSIG
ZHCC,2021-07-23 22:00,ZHCC 232200Z 02002MPS 9999 SCT040 25/22 Q1008 NOSIG
ZHCC,2021-07-23 23:00,ZHCC 232300Z 03003MPS 360V080 9999 SCT040 25/22 Q1008 NOSIG
ZHCC,2021-07-24 00:00,ZHCC 240000Z 05003MPS 010V080 CAVOK 26/23 Q1008 NOSIG
ZHCC,2021-07-24 01:00,ZHCC 240100Z 07003MPS 030V100 CAVOK 27/23 Q1008 NOSIG
ZHCC,2021-07-24 02:00,ZHCC 240200Z 05002MPS 350V110 8000 SCT020 28/25 Q1008 NOSIG
ZHCC,2021-07-24 03:00,ZHCC 240300Z 04002MPS 360V130 8000 BKN020 30/25 Q1008 NOSIG
ZHCC,2021-07-24 04:00,ZHCC 240400Z 08004MPS 040V120 9999 FEW020TCU SCT020 30/24 Q1008 NOSIG
ZHCC,2021-07-24 05:00,ZHCC 240500Z 08004MPS 040V110 9999 FEW020TCU SCT020 32/24 Q1007 NOSIG
ZHCC,2021-07-24 06:00,ZHCC 240600Z 06004MPS 030V090 9999 FEW020TCU SCT020 32/23 Q1007 NOSIG
ZHCC,2021-07-24 07:00,ZHCC 240700Z 09004MPS 060V120 9999 FEW020TCU SCT020 32/23 Q1006 NOSIG
ZHCC,2021-07-24 08:00,ZHCC 240800Z 08005MPS 9999 FEW030TCU SCT030 32/23 Q1006 NOSIG
ZHCC,2021-07-24 09:00,ZHCC 240900Z 09006MPS 9999 FEW030 32/23 Q1005 NOSIG
ZHCC,2021-07-24 10:00,ZHCC 241000Z 10005MPS 9999 FEW030TCU 31/22 Q1005 NOSIG
ZHCC,2021-07-24 11:00,ZHCC 241100Z 09004MPS CAVOK 30/22 Q1005 NOSIG
ZHCC,2021-07-24 12:00,ZHCC 241200Z 12003MPS 100V170 CAVOK 27/23 Q1006 NOSIG
ZHCC,2021-07-24 13:00,ZHCC 241300Z 12002MPS 090V160 CAVOK 27/23 Q1006 NOSIG
ZHCC,2021-07-24 14:00,ZHCC 241400Z VRB01MPS CAVOK 26/23 Q1007 NOSIG
ZHCC,2021-07-24 15:00,ZHCC 241500Z 27001MPS CAVOK 25/24 Q1007 NOSIG
ZHCC,2021-07-24 16:00,ZHCC 241600Z VRB01MPS CAVOK 25/24 Q1007 NOSIG
ZHCC,2021-07-24 17:00,ZHCC 241700Z 26001MPS CAVOK 25/23 Q1006 NOSIG
ZHCC,2021-07-24 18:00,ZHCC 241800Z 28001MPS CAVOK 24/23 Q1006 NOSIG
ZHCC,2021-07-24 19:00,ZHCC 241900Z 27001MPS CAVOK 24/23 Q1006 NOSIG
ZHCC,2021-07-24 20:00,ZHCC 242000Z 27001MPS CAVOK 24/23 Q1006 NOSIG
ZHCC,2021-07-24 21:00,ZHCC 242100Z 28001MPS CAVOK 24/23 Q1006 NOSIG
ZHCC,2021-07-24 22:00,ZHCC 242200Z 28001MPS 6000 NSC 24/23 Q1006 NOSIG
ZHCC,2021-07-24 23:00,ZHCC 242300Z 28001MPS 6000 NSC 26/24 Q1006 NOSIG
ZHCC,2021-07-25 00:00,ZHCC 250000Z VRB01MPS CAVOK 29/23 Q1006 NOSIG
ZHCC,2021-07-25 01:00,ZHCC 250100Z 08003MPS 040V140 9999 FEW030 29/23 Q1006 NOSIG
ZHCC,2021-07-25 02:00,ZHCC 250200Z 09002MPS 040V120 9999 SCT030 30/24 Q1006 NOSIG
ZHCC,2021-07-25 03:00,ZHCC 250300Z VRB01MPS 9999 SCT030 31/24 Q1006 NOSIG
ZHCC,2021-07-25 04:00,ZHCC 250400Z 12002MPS 080V240 9999 FEW020TCU SCT020 31/24 Q1005 NOSIG
ZHCC,2021-07-25 05:00,ZHCC 250500Z 13003MPS 080V180 9999 FEW020TCU SCT020 32/23 Q1004 NOSIG
ZHCC,2021-07-25 06:00,ZHCC 250600Z 16002MPS 120V200 9999 FEW020TCU SCT020 32/22 Q1004 NOSIG
ZHCC,2021-07-25 07:00,ZHCC 250700Z VRB01MPS 9999 SCT020 32/22 Q1003 NOSIG
ZHCC,2021-07-25 08:00,ZHCC 250800Z 15002MPS 090V220 9999 FEW020 33/22 Q1002 NOSIG
ZHCC,2021-07-25 09:00,ZHCC 250900Z 14002MPS 110V210 9999 FEW020 32/23 Q1002 NOSIG
ZHCC,2021-07-25 10:00,ZHCC 251000Z 13002MPS 100V160 CAVOK 31/23 Q1002 NOSIG
ZHCC,2021-07-25 11:00,ZHCC 251100Z 14002MPS 100V180 CAVOK 30/23 Q1002 NOSIG
ZHCC,2021-07-25 12:00,ZHCC 251200Z VRB01MPS CAVOK 29/23 Q1003 NOSIG
ZHCC,2021-07-25 13:00,ZHCC 251300Z 16001MPS CAVOK 28/24 Q1003 NOSIG
ZHCC,2021-07-25 14:00,ZHCC 251400Z VRB01MPS CAVOK 28/23 Q1003 NOSIG
ZHCC,2021-07-25 15:00,ZHCC 251500Z VRB01MPS CAVOK 26/23 Q1003 NOSIG
ZHCC,2021-07-25 16:00,ZHCC 251600Z VRB01MPS CAVOK 27/23 Q1003 NOSIG
ZHCC,2021-07-25 17:00,ZHCC 251700Z 19001MPS CAVOK 25/24 Q1002 NOSIG
ZHCC,2021-07-25 18:00,ZHCC 251800Z 00000MPS CAVOK 25/24 Q1002 NOSIG
ZHCC,2021-07-25 19:00,ZHCC 251900Z VRB01MPS CAVOK 24/23 Q1002 NOSIG
ZHCC,2021-07-25 20:00,ZHCC 252000Z 27001MPS 8000 NSC 24/23 Q1002 NOSIG
ZHCC,2021-07-25 21:00,ZHCC 252100Z 30001MPS 8000 NSC 23/23 Q1001 NOSIG
ZHCC,2021-07-25 22:00,ZHCC 252200Z 12001MPS 6000 NSC 24/23 Q1002 NOSIG
ZHCC,2021-07-25 23:00,ZHCC 252300Z 28001MPS 6000 NSC 26/24 Q1002 NOSIG
ZHCC,2021-07-26 00:00,ZHCC 260000Z VRB01MPS CAVOK 29/24 Q1002 NOSIG
ZHCC,2021-07-26 01:00,ZHCC 260100Z VRB01MPS CAVOK 31/24 Q1001 NOSIG
ZHCC,2021-07-26 02:00,ZHCC 260200Z VRB01MPS 9999 SCT033 32/23 Q1002 NOSIG
ZHCC,2021-07-26 03:00,ZHCC 260300Z 14001MPS 9999 BKN033 32/23 Q1001 NOSIG
ZHCC,2021-07-26 04:00,ZHCC 260400Z 13002MPS 070V190 9999 BKN033 32/24 Q1001 NOSIG
ZHCC,2021-07-26 05:00,ZHCC 260500Z 11003MPS 060V160 9999 BKN033 32/23 Q1001 NOSIG
ZHCC,2021-07-26 06:00,ZHCC 260600Z 13003MPS 080V210 9999 BKN033 33/23 Q1000 NOSIG
ZHCC,2021-07-26 07:00,ZHCC 260700Z 09002MPS 010V160 9999 BKN033 33/22 Q1000 NOSIG
ZHCC,2021-07-26 08:00,ZHCC 260800Z 13003MPS 070V220 9999 FEW033 33/23 Q0999 NOSIG
ZHCC,2021-07-26 09:00,ZHCC 260900Z 11003MPS 060V150 CAVOK 33/22 Q0999 NOSIG
ZHCC,2021-07-26 10:00,ZHCC 261000Z 12003MPS 080V160 CAVOK 32/23 Q0999 NOSIG
ZHCC,2021-07-26 11:00,ZHCC 261100Z 10004MPS CAVOK 31/23 Q0999 NOSIG
ZHCC,2021-07-26 12:00,ZHCC 261200Z 12002MPS CAVOK 29/23 Q1000 NOSIG
ZHCC,2021-07-26 13:00,ZHCC 261300Z VRB01MPS CAVOK 29/23 Q1001 NOSIG
ZHCC,2021-07-26 14:00,ZHCC 261400Z 28001MPS CAVOK 27/24 Q1001 NOSIG
ZHCC,2021-07-26 15:00,ZHCC 261500Z 31001MPS CAVOK 27/23 Q1001 NOSIG
ZHCC,2021-07-26 16:00,ZHCC 261600Z 31002MPS 280V340 CAVOK 26/23 Q1001 NOSIG
ZHCC,2021-07-26 17:00,ZHCC 261700Z 29002MPS CAVOK 26/23 Q1001 NOSIG
ZHCC,2021-07-26 18:00,ZHCC 261800Z VRB01MPS CAVOK 26/23 Q1000 NOSIG
ZHCC,2021-07-26 19:00,ZHCC 261900Z 07002MPS CAVOK 27/23 Q1000 NOSIG
ZHCC,2021-07-26 20:00,ZHCC 262000Z 00000MPS CAVOK 26/24 Q1000 NOSIG
ZHCC,2021-07-26 21:00,ZHCC 262100Z VRB01MPS CAVOK 25/24 Q1001 NOSIG
ZHCC,2021-07-26 22:00,ZHCC 262200Z VRB01MPS CAVOK 26/24 Q1001 NOSIG
ZHCC,2021-07-26 23:00,ZHCC 262300Z 01003MPS CAVOK 27/24 Q1001 NOSIG
ZHCC,2021-07-27 00:00,ZHCC 270000Z 08003MPS 040V100 CAVOK 28/24 Q1002 NOSIG
ZHCC,2021-07-27 01:00,ZHCC 270100Z VRB02MPS 9999 FEW030 28/24 Q1002 NOSIG
ZHCC,2021-07-27 02:00,ZHCC 270200Z 02002MPS 330V130 9999 FEW030 30/24 Q1002 NOSIG
ZHCC,2021-07-27 03:00,ZHCC 270300Z 36003MPS 320V040 9999 FEW030 30/24 Q1001 NOSIG
ZHCC,2021-07-27 04:00,ZHCC 270400Z 04003MPS 320V100 9999 FEW030 30/24 Q1001 NOSIG
ZHCC,2021-07-27 05:00,ZHCC 270500Z 03005MPS 010V070 9999 FEW030 30/24 Q1001 NOSIG
ZHCC,2021-07-27 06:00,ZHCC 270600Z 01004MPS 340V060 9999 FEW030 31/24 Q1000 NOSIG
ZHCC,2021-07-27 07:00,ZHCC 270700Z 01004MPS 340V070 9999 FEW030 32/25 Q0999 NOSIG
ZHCC,2021-07-27 08:00,ZHCC 270800Z 04006MPS 9999 FEW030 32/23 Q0999 NOSIG
ZHCC,2021-07-27 09:00,ZHCC 270900Z 04006MPS 350V080 9999 FEW030TCU 32/24 Q0999 NOSIG
ZHCC,2021-07-27 10:00,ZHCC 271000Z 05006MPS 010V080 9999 FEW030TCU 31/24 Q0999 NOSIG
ZHCC,2021-07-27 11:00,ZHCC 271100Z 07005MPS CAVOK 28/24 Q0999 NOSIG
ZHCC,2021-07-27 12:00,ZHCC 271200Z 04003MPS CAVOK 29/24 Q1000 NOSIG
ZHCC,2021-07-27 13:00,ZHCC 271300Z 06004MPS CAVOK 29/25 Q1000 NOSIG
ZHCC,2021-07-27 14:00,ZHCC 271400Z 04004MPS 360V080 CAVOK 28/25 Q1000 NOSIG
ZHCC,2021-07-27 15:00,ZHCC 271500Z 04004MPS 010V080 CAVOK 28/25 Q1001 NOSIG
ZHCC,2021-07-27 16:00,ZHCC 271600Z 01004MPS CAVOK 28/25 Q1001 NOSIG
ZHCC,2021-07-27 17:00,ZHCC 271700Z 02004MPS CAVOK 28/25 Q1001 NOSIG
ZHCC,2021-07-27 18:00,ZHCC 271800Z 03005MPS 360V060 CAVOK 28/25 Q1000 NOSIG
ZHCC,2021-07-27 19:00,ZHCC 271900Z 03004MPS 9999 BKN040 27/24 Q1000 NOSIG
ZHCC,2021-07-27 20:00,ZHCC 272000Z 01004MPS 9999 BKN040 27/24 Q1000 NOSIG
ZHCC,2021-07-27 21:00,ZHCC 272100Z 02005MPS 350V050 9999 FEW015 BKN040 27/24 Q1000 NOSIG
ZHCC,2021-07-27 22:00,ZHCC 272200Z 01006MPS 7000 -SHRA FEW015 FEW030CB BKN040 26/23 Q1000 NOSIG
ZHCC,2021-07-27 23:00,ZHCC 272300Z 01006MPS 340V050 6000 SCT015 OVC040 26/23 Q1001 NOSIG
ZHCC,2021-07-28 00:00,ZHCC 280000Z 01005MPS 350V060 6000 -RA SCT015 OVC030 26/24 Q1001 NOSIG
ZHCC,2021-07-28 01:00,ZHCC 280100Z 01006MPS 320V050 8000 SCT015 OVC030 26/23 Q1001 NOSIG
ZHCC,2021-07-28 02:00,ZHCC 280200Z 01005MPS 340V060 8000 SCT015 OVC030 27/23 Q1001 NOSIG
ZHCC,2021-07-28 03:00,ZHCC 280300Z 01006MPS 340V040 8000 -RA SCT015 OVC030 27/23 Q1001 NOSIG
ZHCC,2021-07-28 04:00,ZHCC 280400Z 02009MPS 350V060 9999 SCT030 28/22 Q1000 NOSIG
ZHCC,2021-07-28 05:00,ZHCC 280500Z 01008G13MPS 340V050 9999 SCT030 29/22 Q1000 NOSIG
ZHCC,2021-07-28 06:00,ZHCC 280600Z 36009MPS 340V040 9999 SCT030 30/22 Q0999 NOSIG
ZHCC,2021-07-28 07:00,ZHCC 280700Z 03008MPS 350V060 9999 SCT030 29/21 Q0999 NOSIG
ZHCC,2021-07-28 08:00,ZHCC 280800Z 01009MPS 340V040 9999 SCT030 28/20 Q0999 NOSIG
ZHCC,2021-07-28 09:00,ZHCC 280900Z 36008G13MPS 340V040 9999 SCT030 29/21 Q0998 NOSIG
ZHCC,2021-07-28 10:00,ZHCC 281000Z 01008MPS 340V040 9999 SCT030 28/22 Q0998 NOSIG
ZHCC,2021-07-28 11:00,ZHCC 281100Z 03006MPS 360V070 9999 FEW015 OVC040 26/23 Q0998 NOSIG
ZHCC,2021-07-28 12:00,ZHCC 281200Z 01008MPS 340V050 9999 FEW015 OVC040 26/22 Q0999 NOSIG
ZHCC,2021-07-28 13:00,ZHCC 281300Z 36006MPS 330V030 9999 FEW015 OVC040 26/22 Q0999 NOSIG
ZHCC,2021-07-28 14:00,ZHCC 281400Z 35010G16MPS 8000 -RA FEW015 OVC040 24/22 Q0999 NOSIG
ZHCC,2021-07-28 15:00,ZHCC 281500Z 34006MPS 9999 OVC040 24/22 Q0999 NOSIG
ZHCC,2021-07-28 16:00,ZHCC 281600Z 34007MPS 310V010 9999 OVC030 25/20 Q0999 NOSIG
ZHCC,2021-07-28 17:00,ZHCC 281700Z 35008MPS 9999 OVC030 26/20 Q0998 NOSIG
ZHCC,2021-07-28 18:00,ZHCC 281800Z 34007MPS 9999 OVC030 26/20 Q0997 NOSIG
ZHCC,2021-07-28 19:00,ZHCC 281900Z 35006MPS 9999 OVC030 26/20 Q0997 NOSIG
ZHCC,2021-07-28 20:00,ZHCC 282000Z 35007G13MPS 320V030 9999 OVC030 25/20 Q0998 NOSIG
ZHCC,2021-07-28 21:00,ZHCC 282100Z 33006MPS 290V360 CAVOK 24/21 Q0998 NOSIG
ZHCC,2021-07-28 22:00,ZHCC 282200Z 31004MPS CAVOK 24/20 Q0998 NOSIG
ZHCC,2021-07-28 23:00,ZHCC 282300Z 31004MPS CAVOK 24/20 Q0998 NOSIG
ZHCC,2021-07-29 00:00,ZHCC 290000Z 33005G11MPS 260V010 CAVOK 26/20 Q0999 NOSIG
ZHCC,2021-07-29 01:00,ZHCC 290100Z 34006G14MPS 270V360 CAVOK 26/19 Q0999 NOSIG
ZHCC,2021-07-29 02:00,ZHCC 290200Z 35004MPS 310V010 CAVOK 27/20 Q0999 NOSIG
ZHCC,2021-07-29 03:00,ZHCC 290300Z 33006MPS 290V010 CAVOK 29/20 Q0999 NOSIG
ZHCC,2021-07-29 04:00,ZHCC 290400Z 34006MPS 300V010 CAVOK 30/21 Q0999 NOSIG
ZHCC,2021-07-29 05:00,ZHCC 290500Z 34004MPS 290V040 9999 FEW040 31/21 Q0998 NOSIG
ZHCC,2021-07-29 06:00,ZHCC 290600Z VRB03MPS 9999 FEW040 30/21 Q0999 NOSIG
ZHCC,2021-07-29 07:00,ZHCC 290700Z 05006MPS 020V080 CAVOK 29/21 Q0999 NOSIG
ZHCC,2021-07-29 08:00,ZHCC 290800Z 05006MPS CAVOK 29/20 Q0999 NOSIG
ZHCC,2021-07-29 09:00,ZHCC 290900Z 04008MPS CAVOK 28/20 Q0998 NOSIG
ZHCC,2021-07-29 10:00,ZHCC 291000Z 04006MPS 020V080 CAVOK 28/20 Q0998 NOSIG
ZHCC,2021-07-29 11:00,ZHCC 291100Z 06003MPS 020V090 CAVOK 27/20 Q0998 NOSIG
ZHCC,2021-07-29 12:00,ZHCC 291200Z 10002MPS 060V130 CAVOK 25/20 Q0999 NOSIG
ZHCC,2021-07-29 13:00,ZHCC 291300Z 10003MPS CAVOK 25/20 Q1000 NOSIG
ZHCC,2021-07-29 14:00,ZHCC 291400Z VRB01MPS CAVOK 25/20 Q1000 NOSIG
ZHCC,2021-07-29 15:00,ZHCC 291500Z VRB01MPS CAVOK 24/20 Q1000 NOSIG
ZHCC,2021-07-29 16:00,ZHCC 291600Z 16001MPS 9999 FEW040 24/20 Q1000 NOSIG
ZHCC,2021-07-29 17:00,ZHCC 291700Z VRB01MPS 9999 SCT033 23/20 Q1000 NOSIG
ZHCC,2021-07-29 18:00,ZHCC 291800Z 13001MPS 9999 FEW033 23/20 Q1000 NOSIG
ZHCC,2021-07-29 19:00,ZHCC 291900Z VRB01MPS CAVOK 23/20 Q0999 NOSIG
ZHCC,2021-07-29 20:00,ZHCC 292000Z VRB01MPS CAVOK 22/20 Q0999 NOSIG
ZHCC,2021-07-29 21:00,ZHCC 292100Z VRB01MPS CAVOK 22/20 Q0999 NOSIG
ZHCC,2021-07-29 22:00,ZHCC 292200Z VRB01MPS CAVOK 22/20 Q0999 NOSIG
ZHCC,2021-07-29 23:00,ZHCC 292300Z VRB01MPS CAVOK 24/21 Q0999 NOSIG
ZHCC,2021-07-30 00:00,ZHCC 300000Z 18002MPS 130V230 CAVOK 25/21 Q0999 NOSIG
ZHCC,2021-07-30 01:00,ZHCC 300100Z 18003MPS 120V240 CAVOK 27/21 Q0999 NOSIG
ZHCC,2021-07-30 02:00,ZHCC 300200Z 18003MPS 110V260 CAVOK 28/22 Q0999 NOSIG
ZHCC,2021-07-30 03:00,ZHCC 300300Z 20003MPS 110V240 CAVOK 29/22 Q0998 NOSIG
ZHCC,2021-07-30 04:00,ZHCC 300400Z 21004MPS 160V260 CAVOK 31/23 Q0997 NOSIG
ZHCC,2021-07-30 05:00,ZHCC 300500Z 20003MPS 130V270 CAVOK 32/24 Q0997 NOSIG
ZHCC,2021-07-30 06:00,ZHCC 300600Z 23003MPS 170V300 CAVOK 33/24 Q0996 NOSIG
ZHCC,2021-07-30 07:00,ZHCC 300700Z 21003MPS 150V250 CAVOK 34/25 Q0996 NOSIG
ZHCC,2021-07-30 08:00,ZHCC 300800Z 14003MPS 100V230 CAVOK 34/24 Q0995 NOSIG
ZHCC,2021-07-30 09:00,ZHCC 300900Z 19002MPS 110V250 CAVOK 34/24 Q0995 NOSIG
ZHCC,2021-07-30 10:00,ZHCC 301000Z VRB02MPS CAVOK 33/24 Q0995 NOSIG
ZHCC,2021-07-30 11:00,ZHCC 301100Z 14002MPS 110V180 CAVOK 31/26 Q0996 NOSIG
ZHCC,2021-07-30 12:00,ZHCC 301200Z 12002MPS CAVOK 30/26 Q0996 NOSIG
ZHCC,2021-07-30 13:00,ZHCC 301300Z VRB01MPS CAVOK 29/26 Q0997 NOSIG
ZHCC,2021-07-30 14:00,ZHCC 301400Z VRB01MPS CAVOK 29/25 Q0998 NOSIG
ZHCC,2021-07-30 15:00,ZHCC 301500Z VRB01MPS CAVOK 28/25 Q0998 NOSIG
ZHCC,2021-07-30 16:00,ZHCC 301600Z 20002MPS 130V240 CAVOK 29/25 Q0997 NOSIG
ZHCC,2021-07-30 17:00,ZHCC 301700Z VRB02MPS CAVOK 29/25 Q0997 NOSIG
ZHCC,2021-07-30 18:00,ZHCC 301800Z VRB01MPS CAVOK 28/26 Q0997 NOSIG
ZHCC,2021-07-30 19:00,ZHCC 301900Z 00000MPS CAVOK 26/25 Q0997 NOSIG
ZHCC,2021-07-30 20:00,ZHCC 302000Z VRB01MPS CAVOK 26/25 Q0997 NOSIG
ZHCC,2021-07-30 21:00,ZHCC 302100Z VRB01MPS 6000 NSC 25/24 Q0997 NOSIG
ZHCC,2021-07-30 22:00,ZHCC 302200Z VRB01MPS 4000 BR NSC 26/25 Q0997 NOSIG
ZHCC,2021-07-30 23:00,ZHCC 302300Z 00000MPS 4000 BR NSC 28/26 Q0998 NOSIG
ZHCC,2021-07-31 00:00,ZHCC 310000Z 27002MPS 230V310 6000 NSC 30/26 Q0998 NOSIG
ZHCC,2021-07-31 01:00,ZHCC 310100Z 27002MPS 210V330 6000 NSC 31/26 Q0998 NOSIG
ZHCC,2021-07-31 02:00,ZHCC 310200Z 30002MPS 260V010 6000 NSC 33/26 Q0998 NOSIG
ZHCC,2021-07-31 03:00,ZHCC 310300Z VRB01MPS 6000 NSC 34/25 Q0998 NOSIG
ZHCC,2021-07-31 04:00,ZHCC 310400Z 17002MPS 100V240 CAVOK 35/26 Q0997 NOSIG
ZHCC,2021-07-31 05:00,ZHCC 310500Z 15003MPS 090V220 CAVOK 35/27 Q0997 NOSIG
ZHCC,2021-07-31 06:00,ZHCC 310600Z 18003MPS 110V230 CAVOK 36/25 Q0997 NOSIG
ZHCC,2021-07-31 07:00,ZHCC 310700Z 19003MPS 130V240 CAVOK 37/24 Q0996 NOSIG
ZHCC,2021-07-31 08:00,ZHCC 310800Z 18003MPS 100V230 CAVOK 37/24 Q0996 NOSIG
ZHCC,2021-07-31 09:00,ZHCC 310900Z 19003MPS 100V240 CAVOK 36/25 Q0995 NOSIG
ZHCC,2021-07-31 10:00,ZHCC 311000Z 19003MPS 130V240 CAVOK 35/25 Q0995 NOSIG
ZHCC,2021-07-31 11:00,ZHCC 311100Z 18002MPS 090V230 CAVOK 34/27 Q0995 NOSIG
ZHCC,2021-07-31 12:00,ZHCC 311200Z 19003MPS 110V230 CAVOK 33/26 Q0995 NOSIG
ZHCC,2021-07-31 13:00,ZHCC 311300Z VRB02MPS CAVOK 32/27 Q0996 NOSIG
ZHCC,2021-07-31 14:00,ZHCC 311400Z 18002MPS 120V230 CAVOK 31/27 Q0997 BECMG TL1440 03008MPS
ZHCC,2021-07-31 15:00,ZHCC 311500Z 08009MPS CAVOK 28/20 Q0999 BECMG TL1640 15003MPS
ZHCC,2021-07-31 16:00,ZHCC 311600Z 13003MPS 110V170 CAVOK 27/20 Q0998 NOSIG
ZHCC,2021-07-31 17:00,ZHCC 311700Z 13002MPS 100V210 CAVOK 27/21 Q0997 NOSIG
ZHCC,2021-07-31 18:00,ZHCC 311800Z VRB01MPS CAVOK 27/23 Q0997 NOSIG
ZHCC,2021-07-31 19:00,ZHCC 311900Z VRB03MPS CAVOK 28/25 Q0996 NOSIG
ZHCC,2021-07-31 20:00,ZHCC 312000Z 20003MPS 160V240 CAVOK 28/26 Q0996 NOSIG
ZHCC,2021-07-31 21:00,ZHCC 312100Z 22002MPS 180V250 8000 NSC 28/26 Q0996 NOSIG
ZHCC,2021-07-31 22:00,ZHCC 312200Z 05005MPS 6000 NSC 28/25 Q0997 NOSIG
ZHCC,2021-07-31 23:00,ZHCC 312300Z 05003MPS 6000 NSC 27/26 Q0997 NOSIG
ZHCC,2021-08-01 00:00,ZHCC 010000Z 04003MPS 6000 NSC 28/26 Q0998 NOSIG
ZHCC,2021-08-01 01:00,ZHCC 010100Z 09002MPS 030V160 6000 NSC 30/26 Q0998 NOSIG
ZHCC,2021-08-01 02:00,ZHCC 010200Z 06002MPS 020V120 6000 SCT020 31/26 Q0998 NOSIG
ZHCC,2021-08-01 03:00,ZHCC 010300Z 05003MPS 010V080 6000 BKN020 32/26 Q0998 NOSIG
ZHCC,2021-08-01 04:00,ZHCC 010400Z 03004MPS 350V100 8000 BKN023 32/26 Q0998 NOSIG
ZHCC,2021-08-01 05:00,ZHCC 010500Z 01004MPS 320V070 8000 BKN030 33/25 Q0998 NOSIG
ZHCC,2021-08-01 06:00,ZHCC 010600Z 02005MPS 340V070 8000 SCT030 33/23 Q0997 NOSIG
ZHCC,2021-08-01 07:00,ZHCC 010700Z 03003MPS 330V090 CAVOK 34/23 Q0997 NOSIG
ZHCC,2021-08-01 08:00,ZHCC 010800Z 01005MPS 340V050 CAVOK 35/22 Q0997 NOSIG
ZHCC,2021-08-01 09:00,ZHCC 010900Z 02005MPS 340V070 CAVOK 33/22 Q0997 NOSIG
ZHCC,2021-08-01 10:00,ZHCC 011000Z 04006MPS 360V070 CAVOK 31/24 Q0998 NOSIG
ZHCC,2021-08-01 11:00,ZHCC 011100Z 05005MPS 030V090 9999 FEW030 31/25 Q0999 NOSIG
ZHCC,2021-08-01 12:00,ZHCC 011200Z 12004MPS 9999 BKN026 28/22 Q1000 NOSIG
ZHCC,2021-08-01 13:00,ZHCC 011300Z 02002MPS 9999 FEW026 28/21 Q1000 NOSIG
ZHCC,2021-08-01 14:00,ZHCC 011400Z 36002MPS 320V030 CAVOK 29/22 Q1001 NOSIG
ZHCC,2021-08-01 15:00,ZHCC 011500Z 01005MPS CAVOK 29/24 Q1002 NOSIG
ZHCC,2021-08-01 16:00,ZHCC 011600Z 04006MPS 360V060 CAVOK 28/23 Q1002 NOSIG
ZHCC,2021-08-01 17:00,ZHCC 011700Z 04005MPS CAVOK 28/22 Q1002 NOSIG
ZHCC,2021-08-01 18:00,ZHCC 011800Z 02003MPS 350V050 CAVOK 27/22 Q1002 NOSIG
ZHCC,2021-08-01 19:00,ZHCC 011900Z 02004MPS 340V050 CAVOK 27/21 Q1002 NOSIG
ZHCC,2021-08-01 20:00,ZHCC 012000Z 02005MPS 350V050 CAVOK 26/21 Q1002 NOSIG
ZHCC,2021-08-01 21:00,ZHCC 012100Z 02005MPS CAVOK 26/21 Q1002 NOSIG
ZHCC,2021-08-01 22:00,ZHCC 012200Z 02004MPS 340V040 CAVOK 26/21 Q1003 NOSIG
ZHCC,2021-08-01 23:00,ZHCC 012300Z 02004MPS CAVOK 26/21 Q1004 NOSIG
ZHCC,2021-08-02 00:00,ZHCC 020000Z 03004MPS 360V070 CAVOK 27/21 Q1005 NOSIG
ZHCC,2021-08-02 01:00,ZHCC 020100Z 04004MPS 350V070 CAVOK 29/21 Q1005 NOSIG
ZHCC,2021-08-02 02:00,ZHCC 020200Z 04006MPS 010V090 9999 FEW030 30/20 Q1005 NOSIG
ZHCC,2021-08-02 03:00,ZHCC 020300Z 04006MPS 010V080 9999 FEW030 31/21 Q1005 NOSIG
ZHCC,2021-08-02 04:00,ZHCC 020400Z 03005MPS 350V070 9999 FEW030 31/20 Q1004 NOSIG
ZHCC,2021-08-02 05:00,ZHCC 020500Z 04004MPS 010V100 9999 FEW030 32/21 Q1004 NOSIG
ZHCC,2021-08-02 06:00,ZHCC 020600Z 04005MPS 330V090 CAVOK 33/20 Q1004 NOSIG
ZHCC,2021-08-02 07:00,ZHCC 020700Z 02004MPS 320V060 CAVOK 33/20 Q1003 NOSIG
ZHCC,2021-08-02 08:00,ZHCC 020800Z 06004MPS 020V110 CAVOK 32/19 Q1003 NOSIG
ZHCC,2021-08-02 09:00,ZHCC 020900Z 08005MPS 050V110 CAVOK 32/19 Q1003 NOSIG
ZHCC,2021-08-02 10:00,ZHCC 021000Z 08004MPS CAVOK 31/19 Q1003 NOSIG
ZHCC,2021-08-02 11:00,ZHCC 021100Z 10004MPS CAVOK 29/20 Q1003 NOSIG
ZHCC,2021-08-02 12:00,ZHCC 021200Z 11003MPS CAVOK 27/21 Q1004 NOSIG
ZHCC,2021-08-02 13:00,ZHCC 021300Z 07003MPS CAVOK 29/20 Q1004 NOSIG
ZHCC,2021-08-02 14:00,ZHCC 021400Z 06003MPS 030V090 CAVOK 28/20 Q1005 NOSIG
ZHCC,2021-08-02 15:00,ZHCC 021500Z 12002MPS 080V150 CAVOK 26/21 Q1005 NOSIG
ZHCC,2021-08-02 16:00,ZHCC 021600Z VRB01MPS CAVOK 26/20 Q1005 NOSIG
ZHCC,2021-08-02 17:00,ZHCC 021700Z VRB01MPS CAVOK 26/21 Q1005 NOSIG
ZHCC,2021-08-02 18:00,ZHCC 021800Z 00000MPS CAVOK 25/21 Q1005 NOSIG
ZHCC,2021-08-02 19:00,ZHCC 021900Z 04002MPS 260V050 CAVOK 26/21 Q1005 NOSIG
ZHCC,2021-08-02 20:00,ZHCC 022000Z 28001MPS CAVOK 24/21 Q1005 NOSIG
ZHCC,2021-08-02 21:00,ZHCC 022100Z VRB01MPS CAVOK 24/21 Q1005 NOSIG
ZHCC,2021-08-02 22:00,ZHCC 022200Z 04003MPS CAVOK 26/20 Q1006 NOSIG
ZHCC,2021-08-02 23:00,ZHCC 022300Z 05003MPS CAVOK 27/21 Q1006 NOSIG
ZHCC,2021-08-03 00:00,ZHCC 030000Z 06004MPS 020V100 CAVOK 28/22 Q1007 NOSIG
ZHCC,2021-08-03 01:00,ZHCC 030100Z 07004MPS 030V100 CAVOK 29/21 Q1007 NOSIG
ZHCC,2021-08-03 02:00,ZHCC 030200Z 08004MPS CAVOK 30/20 Q1007 NOSIG
ZHCC,2021-08-03 03:00,ZHCC 030300Z 09003MPS 030V140 CAVOK 31/21 Q1007 NOSIG
ZHCC,2021-08-03 04:00,ZHCC 030400Z 06003MPS 330V130 9999 FEW040 31/21 Q1006 NOSIG
ZHCC,2021-08-03 05:00,ZHCC 030500Z 12003MPS 080V180 9999 FEW040 32/21 Q1006 NOSIG
ZHCC,2021-08-03 06:00,ZHCC 030600Z VRB03MPS 9999 FEW040 32/21 Q1006 NOSIG
ZHCC,2021-08-03 07:00,ZHCC 030700Z 09004MPS 040V130 9999 FEW040 33/21 Q1005 NOSIG
ZHCC,2021-08-03 08:00,ZHCC 030800Z 11003MPS 060V150 9999 FEW040 33/22 Q1005 NOSIG
ZHCC,2021-08-03 09:00,ZHCC 030900Z 12003MPS 090V170 9999 FEW040 32/21 Q1005 NOSIG
ZHCC,2021-08-03 10:00,ZHCC 031000Z 12003MPS 090V150 CAVOK 31/20 Q1005 NOSIG
ZHCC,2021-08-03 11:00,ZHCC 031100Z 11002MPS 090V150 CAVOK 30/21 Q1005 NOSIG
ZHCC,2021-08-03 12:00,ZHCC 031200Z 12002MPS CAVOK 29/21 Q1006 NOSIG
ZHCC,2021-08-03 13:00,ZHCC 031300Z 12002MPS CAVOK 29/21 Q1006 NOSIG
ZHCC,2021-08-03 14:00,ZHCC 031400Z 11002MPS CAVOK 28/22 Q1007 NOSIG
ZHCC,2021-08-03 15:00,ZHCC 031500Z 13002MPS 100V160 CAVOK 27/22 Q1007 NOSIG
ZHCC,2021-08-03 16:00,ZHCC 031600Z 12002MPS CAVOK 27/22 Q1006 NOSIG
ZHCC,2021-08-03 17:00,ZHCC 031700Z VRB01MPS CAVOK 26/23 Q1006 NOSIG
ZHCC,2021-08-03 18:00,ZHCC 031800Z VRB01MPS CAVOK 25/22 Q1007 NOSIG
ZHCC,2021-08-03 19:00,ZHCC 031900Z VRB01MPS CAVOK 25/22 Q1006 NOSIG
ZHCC,2021-08-03 20:00,ZHCC 032000Z VRB01MPS CAVOK 25/23 Q1006 NOSIG
ZHCC,2021-08-03 21:00,ZHCC 032100Z 27001MPS 8000 NSC 25/22 Q1006 NOSIG
ZHCC,2021-08-03 22:00,ZHCC 032200Z VRB01MPS 5000 BR NSC 25/22 Q1006 NOSIG
ZHCC,2021-08-03 23:00,ZHCC 032300Z 27001MPS 5000 BR NSC 26/23 Q1006 NOSIG
ZHCC,2021-08-04 00:00,ZHCC 040000Z VRB01MPS 5000 HZ NSC 29/24 Q1007 NOSIG
ZHCC,2021-08-04 01:00,ZHCC 040100Z VRB01MPS 5000 HZ FEW026 30/24 Q1006 NOSIG
ZHCC,2021-08-04 02:00,ZHCC 040200Z VRB01MPS 8000 SCT026 31/24 Q1006 NOSIG
ZHCC,2021-08-04 03:00,ZHCC 040300Z VRB02MPS 8000 SCT033 32/23 Q1006 NOSIG
ZHCC,2021-08-04 04:00,ZHCC 040400Z 14002MPS 080V200 9999 SCT033 33/23 Q1005 NOSIG
ZHCC,2021-08-04 05:00,ZHCC 040500Z 14002MPS 080V200 9999 SCT040 33/24 Q1005 NOSIG
ZHCC,2021-08-04 06:00,ZHCC 040600Z 16002MPS 100V250 9999 SCT040 34/23 Q1004 NOSIG
ZHCC,2021-08-04 07:00,ZHCC 040700Z 14003MPS 110V180 9999 SCT040 33/23 Q1004 NOSIG
ZHCC,2021-08-04 08:00,ZHCC 040800Z 13002MPS 080V180 9999 SCT040 33/24 Q1003 NOSIG
ZHCC,2021-08-04 09:00,ZHCC 040900Z 13003MPS 100V200 9999 FEW040 32/25 Q1003 NOSIG
ZHCC,2021-08-04 10:00,ZHCC 041000Z 13003MPS 090V170 9999 FEW040 32/24 Q1003 NOSIG
ZHCC,2021-08-04 11:00,ZHCC 041100Z 13002MPS 100V160 CAVOK 30/24 Q1003 NOSIG
ZHCC,2021-08-04 12:00,ZHCC 041200Z 13002MPS 100V160 CAVOK 29/24 Q1003 NOSIG
ZHCC,2021-08-04 13:00,ZHCC 041300Z 12003MPS CAVOK 29/24 Q1004 NOSIG
ZHCC,2021-08-04 14:00,ZHCC 041400Z 13002MPS 110V170 CAVOK 29/23 Q1004 NOSIG
ZHCC,2021-08-04 15:00,ZHCC 041500Z VRB01MPS CAVOK 28/23 Q1004 NOSIG
ZHCC,2021-08-04 16:00,ZHCC 041600Z VRB01MPS CAVOK 28/23 Q1004 NOSIG
ZHCC,2021-08-04 17:00,ZHCC 041700Z 00000MPS 9999 SCT046 27/24 Q1004 NOSIG
ZHCC,2021-08-04 18:00,ZHCC 041800Z 26001MPS 9999 FEW046 27/24 Q1003 NOSIG
ZHCC,2021-08-04 19:00,ZHCC 041900Z 26001MPS 9999 FEW046 26/23 Q1003 NOSIG
ZHCC,2021-08-04 20:00,ZHCC 042000Z 32001MPS CAVOK 25/23 Q1003 NOSIG
ZHCC,2021-08-04 21:00,ZHCC 042100Z VRB01MPS CAVOK 26/24 Q1003 NOSIG
ZHCC,2021-08-04 22:00,ZHCC 042200Z VRB01MPS 7000 NSC 26/24 Q1003 NOSIG
ZHCC,2021-08-04 23:00,ZHCC 042300Z 28002MPS 7000 FEW040CB BKN040 26/24 Q1004 NOSIG
ZHCC,2021-08-05 00:00,ZHCC 050000Z 32006MPS 7000 BKN030 26/19 Q1005 NOSIG
ZHCC,2021-08-05 01:00,ZHCC 050100Z 33004MPS CAVOK 26/19 Q1004 NOSIG
ZHCC,2021-08-05 02:00,ZHCC 050200Z 33004MPS CAVOK 29/19 Q1004 NOSIG
ZHCC,2021-08-05 03:00,ZHCC 050300Z 34004MPS 310V020 CAVOK 31/19 Q1004 NOSIG
ZHCC,2021-08-05 04:00,ZHCC 050400Z 29005MPS CAVOK 28/19 Q1005 NOSIG
ZHCC,2021-08-05 05:00,ZHCC 050500Z 33004MPS CAVOK 29/19 Q1004 NOSIG
ZHCC,2021-08-05 06:00,ZHCC 050600Z 32004MPS CAVOK 31/19 Q1003 NOSIG
ZHCC,2021-08-05 07:00,ZHCC 050700Z 33005MPS 280V010 CAVOK 32/19 Q1002 NOSIG
ZHCC,2021-08-05 08:00,ZHCC 050800Z 32005MPS CAVOK 31/20 Q1002 NOSIG
ZHCC,2021-08-05 09:00,ZHCC 050900Z 33003MPS 280V350 CAVOK 30/20 Q1002 NOSIG
ZHCC,2021-08-05 10:00,ZHCC 051000Z 32003MPS CAVOK 30/20 Q1002 NOSIG
ZHCC,2021-08-05 11:00,ZHCC 051100Z VRB01MPS CAVOK 28/21 Q1002 NOSIG
ZHCC,2021-08-05 12:00,ZHCC 051200Z 04002MPS CAVOK 28/20 Q1003 NOSIG
ZHCC,2021-08-05 13:00,ZHCC 051300Z 12002MPS CAVOK 26/21 Q1003 NOSIG
ZHCC,2021-08-05 14:00,ZHCC 051400Z VRB01MPS CAVOK 26/22 Q1004 NOSIG
ZHCC,2021-08-05 15:00,ZHCC 051500Z VRB01MPS CAVOK 25/22 Q1004 NOSIG
ZHCC,2021-08-05 16:00,ZHCC 051600Z VRB01MPS CAVOK 25/22 Q1004 NOSIG
ZHCC,2021-08-05 17:00,ZHCC 051700Z 00000MPS CAVOK 24/22 Q1003 NOSIG
ZHCC,2021-08-05 18:00,ZHCC 051800Z 27001MPS CAVOK 24/22 Q1003 NOSIG
ZHCC,2021-08-05 19:00,ZHCC 051900Z 00000MPS 8000 NSC 24/22 Q1003 NOSIG
ZHCC,2021-08-05 20:00,ZHCC 052000Z 10002MPS 7000 NSC 24/22 Q1003 NOSIG
ZHCC,2021-08-05 21:00,ZHCC 052100Z 30002MPS 6000 NSC 22/21 Q1003 NOSIG
ZHCC,2021-08-05 22:00,ZHCC 052200Z 26001MPS 5000 BR NSC 23/22 Q1003 NOSIG
ZHCC,2021-08-05 23:00,ZHCC 052300Z VRB01MPS 5000 BR NSC 25/23 Q1003 NOSIG
ZHCC,2021-08-06 00:00,ZHCC 060000Z VRB01MPS 5000 BR NSC 28/23 Q1004 NOSIG
ZHCC,2021-08-06 01:00,ZHCC 060100Z 32002MPS 280V040 5000 HZ NSC 29/22 Q1004 NOSIG
ZHCC,2021-08-06 02:00,ZHCC 060200Z 08003MPS 030V120 7000 NSC 29/23 Q1004 NOSIG
ZHCC,2021-08-06 03:00,ZHCC 060300Z 07003MPS 020V120 7000 FEW030 31/23 Q1004 NOSIG
ZHCC,2021-08-06 04:00,ZHCC 060400Z 35002MPS 300V060 9000 FEW040 32/22 Q1004 NOSIG
ZHCC,2021-08-06 05:00,ZHCC 060500Z VRB03MPS 9999 FEW040 33/22 Q1003 NOSIG
ZHCC,2021-08-06 06:00,ZHCC 060600Z 20001MPS 9999 FEW040 34/22 Q1002 NOSIG
ZHCC,2021-08-06 07:00,ZHCC 060700Z VRB03MPS CAVOK 34/22 Q1001 NOSIG
ZHCC,2021-08-06 08:00,ZHCC 060800Z 10003MPS 050V180 CAVOK 33/22 Q1001 NOSIG
ZHCC,2021-08-06 09:00,ZHCC 060900Z 12004MPS 080V160 CAVOK 33/22 Q1001 NOSIG
ZHCC,2021-08-06 10:00,ZHCC 061000Z 10004MPS CAVOK 32/23 Q1002 NOSIG
ZHCC,2021-08-06 11:00,ZHCC 061100Z 12002MPS CAVOK 30/23 Q1002 NOSIG
ZHCC,2021-08-06 12:00,ZHCC 061200Z 11002MPS CAVOK 29/23 Q1002 NOSIG
ZHCC,2021-08-06 13:00,ZHCC 061300Z 10002MPS CAVOK 29/24 Q1003 NOSIG
ZHCC,2021-08-06 14:00,ZHCC 061400Z 08003MPS CAVOK 29/24 Q1003 NOSIG
ZHCC,2021-08-06 15:00,ZHCC 061500Z 11003MPS CAVOK 28/24 Q1004 NOSIG
ZHCC,2021-08-06 16:00,ZHCC 061600Z 09003MPS 070V130 CAVOK 28/25 Q1004 NOSIG
ZHCC,2021-08-06 17:00,ZHCC 061700Z 12002MPS CAVOK 27/24 Q1004 NOSIG
ZHCC,2021-08-06 18:00,ZHCC 061800Z VRB01MPS CAVOK 27/24 Q1004 NOSIG
ZHCC,2021-08-06 19:00,ZHCC 061900Z VRB01MPS CAVOK 27/24 Q1004 NOSIG
ZHCC,2021-08-06 20:00,ZHCC 062000Z 03002MPS CAVOK 28/24 Q1003 NOSIG
ZHCC,2021-08-06 21:00,ZHCC 062100Z 04002MPS CAVOK 28/24 Q1003 NOSIG
ZHCC,2021-08-06 22:00,ZHCC 062200Z 05002MPS 7000 NSC 28/24 Q1004 NOSIG
ZHCC,2021-08-06 23:00,ZHCC 062300Z VRB01MPS 7000 NSC 28/24 Q1005 NOSIG
ZHCC,2021-08-07 00:00,ZHCC 070000Z VRB01MPS 7000 NSC 29/25 Q1005 NOSIG
ZHCC,2021-08-07 01:00,ZHCC 070100Z 12002MPS 080V160 7000 NSC 29/25 Q1005 NOSIG
ZHCC,2021-08-07 02:00,ZHCC 070200Z VRB02MPS 8000 SCT020 31/25 Q1006 NOSIG
ZHCC,2021-08-07 03:00,ZHCC 070300Z VRB02MPS 9999 SCT026 32/25 Q1006 NOSIG
ZHCC,2021-08-07 04:00,ZHCC 070400Z 12003MPS 070V180 9999 BKN030 33/25 Q1005 NOSIG
ZHCC,2021-08-07 05:00,ZHCC 070500Z 13003MPS 090V180 9999 FEW030TCU BKN030 33/25 Q1005 NOSIG
ZHCC,2021-08-07 06:00,ZHCC 070600Z 11003MPS 080V140 9999 -TSRA FEW030CB BKN030 32/25 Q1004 BECMG TL0740 -SHRA
ZHCC,2021-08-07 07:00,ZHCC 070700Z 32002MPS 240V010 9999 -TSRA FEW030CB SCT040 24/22 Q1005 RESHRA BECMG TL0740 NSW
ZHCC,2021-08-07 08:00,ZHCC 070800Z 05004MPS CAVOK 29/24 Q1004 RETS NOSIG
ZHCC,2021-08-07 09:00,ZHCC 070900Z 11001MPS 9999 FEW040 30/22 Q1005 NOSIG
ZHCC,2021-08-07 10:00,ZHCC 071000Z 09003MPS CAVOK 29/23 Q1005 NOSIG
ZHCC,2021-08-07 11:00,ZHCC 071100Z 24002MPS 180V280 CAVOK 28/23 Q1005 NOSIG
ZHCC,2021-08-07 12:00,ZHCC 071200Z 29002MPS 270V340 CAVOK 26/23 Q1005 NOSIG
ZHCC,2021-08-07 13:00,ZHCC 071300Z VRB01MPS CAVOK 26/23 Q1006 NOSIG
ZHCC,2021-08-07 14:00,ZHCC 071400Z 08003MPS CAVOK 26/22 Q1006 NOSIG
ZHCC,2021-08-07 15:00,ZHCC 071500Z 08002MPS 050V120 CAVOK 26/22 Q1006 NOSIG
ZHCC,2021-08-07 16:00,ZHCC 071600Z 11002MPS 080V160 CAVOK 26/22 Q1007 NOSIG
ZHCC,2021-08-07 17:00,ZHCC 071700Z VRB01MPS CAVOK 25/23 Q1006 NOSIG
ZHCC,2021-08-07 18:00,ZHCC 071800Z 28001MPS CAVOK 24/22 Q1006 NOSIG
ZHCC,2021-08-07 19:00,ZHCC 071900Z VRB01MPS CAVOK 24/22 Q1006 NOSIG
ZHCC,2021-08-07 20:00,ZHCC 072000Z 00000MPS CAVOK 24/23 Q1006 NOSIG
ZHCC,2021-08-07 21:00,ZHCC 072100Z 28001MPS 7000 NSC 24/22 Q1006 NOSIG
ZHCC,2021-08-07 22:00,ZHCC 072200Z 00000MPS 6000 NSC 24/22 Q1006 NOSIG
ZHCC,2021-08-07 23:00,ZHCC 072300Z 28001MPS 6000 NSC 25/23 Q1006 NOSIG
ZHCC,2021-08-08 00:00,ZHCC 080000Z 07003MPS 7000 NSC 27/24 Q1007 NOSIG
ZHCC,2021-08-08 01:00,ZHCC 080100Z VRB01MPS 5000 BR NSC 28/24 Q1007 NOSIG
ZHCC,2021-08-08 02:00,ZHCC 080200Z VRB01MPS 7000 SCT020 30/25 Q1007 NOSIG
ZHCC,2021-08-08 03:00,ZHCC 080300Z VRB01MPS 8000 FEW026TCU SCT026 31/25 Q1007 NOSIG
ZHCC,2021-08-08 04:00,ZHCC 080400Z VRB01MPS 9999 FEW026TCU SCT026 32/24 Q1007 NOSIG
ZHCC,2021-08-08 05:00,ZHCC 080500Z 09002MPS 9999 SCT026 32/22 Q1006 NOSIG
ZHCC,2021-08-08 06:00,ZHCC 080600Z 14002MPS 090V210 9999 SCT026 33/23 Q1006 NOSIG
ZHCC,2021-08-08 07:00,ZHCC 080700Z 11002MPS 040V190 9999 SCT026 33/22 Q1005 NOSIG
ZHCC,2021-08-08 08:00,ZHCC 080800Z 14002MPS 100V190 9999 FEW026 32/23 Q1005 NOSIG
ZHCC,2021-08-08 09:00,ZHCC 080900Z 13002MPS 100V180 9999 FEW026 31/23 Q1005 NOSIG
ZHCC,2021-08-08 10:00,ZHCC 081000Z 13002MPS CAVOK 30/24 Q1005 NOSIG
ZHCC,2021-08-08 11:00,ZHCC 081100Z VRB01MPS CAVOK 29/24 Q1005 NOSIG
ZHCC,2021-08-08 12:00,ZHCC 081200Z VRB01MPS CAVOK 29/24 Q1005 NOSIG
ZHCC,2021-08-08 13:00,ZHCC 081300Z VRB01MPS 9999 -RA NSC 29/24 Q1006 NOSIG
ZHCC,2021-08-08 14:00,ZHCC 081400Z VRB01MPS CAVOK 29/24 Q1007 NOSIG
ZHCC,2021-08-08 15:00,ZHCC 081500Z VRB01MPS CAVOK 28/24 Q1006 NOSIG
ZHCC,2021-08-08 16:00,ZHCC 081600Z 00000MPS CAVOK 27/25 Q1007 NOSIG
ZHCC,2021-08-08 17:00,ZHCC 081700Z 16001MPS 9999 -RA NSC 27/25 Q1006 NOSIG
ZHCC,2021-08-08 18:00,ZHCC 081800Z VRB01MPS CAVOK 27/24 Q1006 NOSIG
ZHCC,2021-08-08 19:00,ZHCC 081900Z VRB01MPS CAVOK 27/25 Q1005 NOSIG
ZHCC,2021-08-08 20:00,ZHCC 082000Z 20002MPS CAVOK 27/24 Q1005 NOSIG
ZHCC,2021-08-08 21:00,ZHCC 082100Z 26003MPS 7000 NSC 26/23 Q1005 NOSIG
ZHCC,2021-08-08 22:00,ZHCC 082200Z 27003MPS CAVOK 25/21 Q1006 NOSIG
ZHCC,2021-08-08 23:00,ZHCC 082300Z 27002MPS 230V290 CAVOK 25/21 Q1006 NOSIG
ZHCC,2021-08-09 00:00,ZHCC 090000Z 24002MPS 200V280 CAVOK 27/20 Q1006 NOSIG
ZHCC,2021-08-09 01:00,ZHCC 090100Z 27004MPS 230V300 CAVOK 29/19 Q1006 NOSIG
ZHCC,2021-08-09 02:00,ZHCC 090200Z 25002MPS 210V280 CAVOK 31/17 Q1006 NOSIG
ZHCC,2021-08-09 03:00,ZHCC 090300Z 25003MPS 210V280 CAVOK 32/19 Q1006 NOSIG
ZHCC,2021-08-09 04:00,ZHCC 090400Z 22003MPS 160V270 CAVOK 33/19 Q1006 NOSIG
ZHCC,2021-08-09 05:00,ZHCC 090500Z 21003MPS 150V270 CAVOK 33/20 Q1005 NOSIG
ZHCC,2021-08-09 06:00,ZHCC 090600Z 18003MPS 120V240 CAVOK 32/20 Q1005 NOSIG
ZHCC,2021-08-09 07:00,ZHCC 090700Z 17003MPS 090V240 CAVOK 33/20 Q1004 NOSIG
ZHCC,2021-08-09 08:00,ZHCC 090800Z VRB03MPS CAVOK 33/20 Q1004 NOSIG
ZHCC,2021-08-09 09:00,ZHCC 090900Z 19003MPS 120V240 CAVOK 32/20 Q1004 NOSIG
ZHCC,2021-08-09 10:00,ZHCC 091000Z 20004MPS 110V240 CAVOK 31/21 Q1004 NOSIG
ZHCC,2021-08-09 11:00,ZHCC 091100Z 20004MPS 160V270 CAVOK 29/21 Q1004 NOSIG
ZHCC,2021-08-09 12:00,ZHCC 091200Z 20003MPS 150V230 CAVOK 28/21 Q1004 NOSIG
ZHCC,2021-08-09 13:00,ZHCC 091300Z 19003MPS 130V240 CAVOK 27/21 Q1005 NOSIG
ZHCC,2021-08-09 14:00,ZHCC 091400Z 20003MPS 150V240 CAVOK 26/22 Q1005 NOSIG
ZHCC,2021-08-09 15:00,ZHCC 091500Z 20002MPS 160V240 CAVOK 26/21 Q1005 NOSIG
ZHCC,2021-08-09 16:00,ZHCC 091600Z 19002MPS 100V240 CAVOK 26/22 Q1005 NOSIG
ZHCC,2021-08-09 17:00,ZHCC 091700Z 19002MPS 130V240 CAVOK 25/22 Q1006 NOSIG
ZHCC,2021-08-09 18:00,ZHCC 091800Z VRB01MPS CAVOK 24/22 Q1005 NOSIG
ZHCC,2021-08-09 19:00,ZHCC 091900Z 20002MPS 160V250 CAVOK 24/22 Q1006 NOSIG
ZHCC,2021-08-09 20:00,ZHCC 092000Z VRB01MPS 7000 NSC 23/22 Q1005 NOSIG
ZHCC,2021-08-09 21:00,ZHCC 092100Z VRB01MPS 5000 BR NSC 22/21 Q1005 NOSIG
ZHCC,2021-08-09 22:00,ZHCC 092200Z 30001MPS 5000 BR NSC 22/21 Q1005 NOSIG
ZHCC,2021-08-09 23:00,ZHCC 092300Z VRB01MPS 5000 BR NSC 25/22 Q1006 NOSIG
ZHCC,2021-08-10 00:00,ZHCC 100000Z 17002MPS 120V200 7000 NSC 26/22 Q1006 NOSIG
ZHCC,2021-08-10 01:00,ZHCC 100100Z VRB01MPS 9000 NSC 28/21 Q1006 NOSIG
ZHCC,2021-08-10 02:00,ZHCC 100200Z 20003MPS 140V250 CAVOK 30/21 Q1007 NOSIG
ZHCC,2021-08-10 03:00,ZHCC 100300Z 19002MPS 130V240 CAVOK 29/21 Q1006 NOSIG
ZHCC,2021-08-10 04:00,ZHCC 100400Z 21003MPS 160V260 CAVOK 30/21 Q1007 NOSIG
ZHCC,2021-08-10 05:00,ZHCC 100500Z 18002MPS 110V250 CAVOK 30/22 Q1006 NOSIG
ZHCC,2021-08-10 06:00,ZHCC 100600Z 18002MPS 100V240 CAVOK 32/21 Q1006 NOSIG
ZHCC,2021-08-10 07:00,ZHCC 100700Z 16002MPS 100V230 CAVOK 31/22 Q1005 NOSIG
ZHCC,2021-08-10 08:00,ZHCC 100800Z 17002MPS 110V230 CAVOK 31/21 Q1005 NOSIG
ZHCC,2021-08-10 09:00,ZHCC 100900Z 20002MPS 160V260 CAVOK 31/21 Q1005 NOSIG
ZHCC,2021-08-10 10:00,ZHCC 101000Z 13002MPS 100V160 CAVOK 29/22 Q1005 NOSIG
ZHCC,2021-08-10 11:00,ZHCC 101100Z VRB01MPS CAVOK 28/22 Q1006 NOSIG
ZHCC,2021-08-10 12:00,ZHCC 101200Z VRB01MPS CAVOK 27/22 Q1006 NOSIG
ZHCC,2021-08-10 13:00,ZHCC 101300Z VRB01MPS CAVOK 27/22 Q1007 NOSIG
ZHCC,2021-08-10 14:00,ZHCC 101400Z 13001MPS CAVOK 26/22 Q1007 NOSIG
ZHCC,2021-08-10 15:00,ZHCC 101500Z VRB01MPS CAVOK 25/22 Q1007 NOSIG
ZHCC,2021-08-10 16:00,ZHCC 101600Z 12002MPS CAVOK 25/22 Q1007 NOSIG
ZHCC,2021-08-10 17:00,ZHCC 101700Z VRB01MPS CAVOK 25/21 Q1008 NOSIG
ZHCC,2021-08-10 18:00,ZHCC 101800Z VRB01MPS CAVOK 24/21 Q1008 NOSIG
ZHCC,2021-08-10 19:00,ZHCC 101900Z 00000MPS CAVOK 23/21 Q1008 NOSIG
ZHCC,2021-08-10 20:00,ZHCC 102000Z 00000MPS CAVOK 22/21 Q1008 NOSIG
ZHCC,2021-08-10 21:00,ZHCC 102100Z VRB01MPS CAVOK 24/21 Q1008 NOSIG
ZHCC,2021-08-10 22:00,ZHCC 102200Z 00000MPS 6000 NSC 24/21 Q1008 NOSIG
ZHCC,2021-08-10 23:00,ZHCC 102300Z VRB01MPS 8000 NSC 26/22 Q1009 NOSIG
ZHCC,2021-08-11 00:00,ZHCC 110000Z 04003MPS 330V090 8000 NSC 26/21 Q1009 NOSIG
ZHCC,2021-08-11 01:00,ZHCC 110100Z 06003MPS 020V100 8000 NSC 28/22 Q1009 NOSIG
ZHCC,2021-08-11 02:00,ZHCC 110200Z 05002MPS 350V090 8000 NSC 29/22 Q1010 NOSIG
ZHCC,2021-08-11 03:00,ZHCC 110300Z 06003MPS 010V130 8000 NSC 29/22 Q1010 NOSIG
ZHCC,2021-08-11 04:00,ZHCC 110400Z 03003MPS 8000 FEW030 29/22 Q1010 NOSIG
ZHCC,2021-08-11 05:00,ZHCC 110500Z 08003MPS 040V120 8000 FEW030 30/22 Q1009 NOSIG
ZHCC,2021-08-11 06:00,ZHCC 110600Z 06002MPS 310V120 8000 FEW030 31/22 Q1009 NOSIG
ZHCC,2021-08-11 07:00,ZHCC 110700Z 07003MPS 010V120 9999 FEW030 31/22 Q1008 NOSIG
ZHCC,2021-08-11 08:00,ZHCC 110800Z 10003MPS 080V140 9999 FEW030 31/22 Q1008 NOSIG
ZHCC,2021-08-11 09:00,ZHCC 110900Z 07004MPS 040V110 8000 FEW030 31/22 Q1008 NOSIG
ZHCC,2021-08-11 10:00,ZHCC 111000Z 07003MPS 8000 NSC 31/22 Q1008 NOSIG
ZHCC,2021-08-11 11:00,ZHCC 111100Z 13002MPS 100V170 8000 NSC 29/22 Q1009 NOSIG
ZHCC,2021-08-11 12:00,ZHCC 111200Z 07004MPS 8000 NSC 30/22 Q1009 NOSIG
ZHCC,2021-08-11 13:00,ZHCC 111300Z 06004MPS 8000 NSC 29/22 Q1010 NOSIG
ZHCC,2021-08-11 14:00,ZHCC 111400Z 07003MPS 8000 NSC 29/22 Q1010 NOSIG
ZHCC,2021-08-11 15:00,ZHCC 111500Z 07002MPS 030V090 8000 NSC 29/22 Q1010 NOSIG
ZHCC,2021-08-11 16:00,ZHCC 111600Z 06002MPS 8000 NSC 28/22 Q1010 NOSIG
ZHCC,2021-08-11 17:00,ZHCC 111700Z 05002MPS 8000 NSC 28/22 Q1010 NOSIG
ZHCC,2021-08-11 18:00,ZHCC 111800Z 07002MPS 6000 NSC 28/23 Q1010 NOSIG
ZHCC,2021-08-11 19:00,ZHCC 111900Z 05003MPS 6000 NSC 27/23 Q1010 NOSIG
ZHCC,2021-08-11 20:00,ZHCC 112000Z 05002MPS 5000 BR NSC 27/23 Q1010 NOSIG
ZHCC,2021-08-11 21:00,ZHCC 112100Z 03002MPS 5000 BR NSC 27/23 Q1010 NOSIG
ZHCC,2021-08-11 22:00,ZHCC 112200Z 03003MPS 3000 BR NSC 27/23 Q1010 NOSIG
ZHCC,2021-08-11 23:00,ZHCC 112300Z 04004MPS 3000 BR NSC 27/23 Q1010 NOSIG
ZHCC,2021-08-12 00:00,ZHCC 120000Z 04003MPS 3000 BR NSC 27/23 Q1011 NOSIG
ZHCC,2021-08-12 01:00,ZHCC 120100Z 04003MPS 3000 BR NSC 27/23 Q1011 NOSIG
ZHCC,2021-08-12 02:00,ZHCC 120200Z 03003MPS 360V060 3000 BR NSC 28/24 Q1011 NOSIG
ZHCC,2021-08-12 03:00,ZHCC 120300Z 05004MPS 3000 HZ NSC 29/24 Q1011 NOSIG
ZHCC,2021-08-12 04:00,ZHCC 120400Z 03003MPS 330V060 3500 HZ FEW026 29/23 Q1011 NOSIG
ZHCC,2021-08-12 05:00,ZHCC 120500Z 04005MPS 3500 HZ FEW026 29/24 Q1010 NOSIG
ZHCC,2021-08-12 06:00,ZHCC 120600Z 04003MPS 360V070 3500 HZ FEW026 29/24 Q1009 NOSIG
ZHCC,2021-08-12 07:00,ZHCC 120700Z 03004MPS 360V070 2500 -SHRA BR FEW020CB BKN030 29/24 Q1009 NOSIG
ZHCC,2021-08-12 08:00,ZHCC 120800Z 04005MPS 2500 BR FEW020CB BKN030 28/24 Q1009 RESHRA NOSIG
ZHCC,2021-08-12 09:00,ZHCC 120900Z 07004MPS 030V100 4000 -SHRA BR FEW030CB BKN040 26/21 Q1009 NOSIG
ZHCC,2021-08-12 10:00,ZHCC 121000Z 02004MPS 350V060 4000 -SHRA BR FEW030CB BKN040 25/23 Q1009 NOSIG
ZHCC,2021-08-12 11:00,ZHCC 121100Z 35003MPS 6000 -SHRA FEW030CB BKN040 25/22 Q1009 NOSIG
ZHCC,2021-08-12 12:00,ZHCC 121200Z 33003MPS 6000 OVC040 25/23 Q1010 NOSIG
ZHCC,2021-08-12 13:00,ZHCC 121300Z 33003MPS 6000 -RA OVC040 25/23 Q1010 NOSIG
ZHCC,2021-08-12 14:00,ZHCC 121400Z 01003MPS 4000 -RA BR OVC040 26/24 Q1010 NOSIG
ZHCC,2021-08-12 15:00,ZHCC 121500Z VRB01MPS 3000 -RA BR OVC040 25/24 Q1010 NOSIG
ZHCC,2021-08-12 16:00,ZHCC 121600Z 02002MPS 4000 -RA BR OVC040 25/22 Q1010 NOSIG
ZHCC,2021-08-12 17:00,ZHCC 121700Z 00000MPS 4000 -RA BR OVC040 24/23 Q1009 NOSIG
ZHCC,2021-08-12 18:00,ZHCC 121800Z 32002MPS 4000 -RA BR OVC040 23/21 Q1009 NOSIG
ZHCC,2021-08-12 19:00,ZHCC 121900Z 30002MPS 4000 -RA BR OVC040 22/21 Q1009 NOSIG
ZHCC,2021-08-12 20:00,ZHCC 122000Z 32004MPS 4000 -RA BR OVC040 23/22 Q1009 NOSIG
ZHCC,2021-08-12 21:00,ZHCC 122100Z 30003MPS 4000 -RA BR OVC040 22/21 Q1009 NOSIG
ZHCC,2021-08-12 22:00,ZHCC 122200Z 32003MPS 3500 -RA BR SCT009 OVC040 23/22 Q1009 NOSIG
ZHCC,2021-08-12 23:00,ZHCC 122300Z 01004MPS 340V040 2000 SHRA BR SCT009 FEW030CB BKN030 23/22 Q1010 BECMG TL0020 3000 -SHRA
ZHCC,2021-08-13 00:00,ZHCC 130000Z 34003MPS 3000 -RA BR OVC040 22/21 Q1009 RESHRA NOSIG
ZHCC,2021-08-13 01:00,ZHCC 130100Z 34002MPS 300V040 3000 -RA BR FEW008 BKN040 23/21 Q1009 NOSIG
ZHCC,2021-08-13 02:00,ZHCC 130200Z 34003MPS 3000 -RA BR FEW008 BKN030 23/21 Q1010 NOSIG
ZHCC,2021-08-13 03:00,ZHCC 130300Z VRB01MPS 3000 -RA BR FEW008 BKN030 24/22 Q1009 NOSIG
ZHCC,2021-08-13 04:00,ZHCC 130400Z 36003MPS 3000 -RA BR SCT010 OVC030 24/22 Q1009 NOSIG
ZHCC,2021-08-13 05:00,ZHCC 130500Z 04003MPS 010V080 4000 -RA BR SCT010 OVC030 25/22 Q1009 NOSIG
ZHCC,2021-08-13 06:00,ZHCC 130600Z 06003MPS 4000 BR SCT010 OVC030 25/22 Q1009 NOSIG
ZHCC,2021-08-13 07:00,ZHCC 130700Z 07002MPS 030V110 4000 BR SCT015 OVC030 25/22 Q1008 NOSIG
ZHCC,2021-08-13 08:00,ZHCC 130800Z 05002MPS 020V090 4000 BR FEW015 OVC040 25/22 Q1008 NOSIG
ZHCC,2021-08-13 09:00,ZHCC 130900Z VRB01MPS 5000 BR FEW015 26/22 Q1008 NOSIG
ZHCC,2021-08-13 10:00,ZHCC 131000Z VRB01MPS 7000 FEW015 25/22 Q1008 NOSIG
ZHCC,2021-08-13 11:00,ZHCC 131100Z VRB01MPS 7000 FEW015 24/22 Q1008 NOSIG
ZHCC,2021-08-13 12:00,ZHCC 131200Z VRB01MPS 7000 NSC 23/22 Q1008 NOSIG
ZHCC,2021-08-13 13:00,ZHCC 131300Z 19001MPS 7000 NSC 23/22 Q1009 NOSIG
ZHCC,2021-08-13 14:00,ZHCC 131400Z 00000MPS 7000 NSC 22/21 Q1009 NOSIG
ZHCC,2021-08-13 15:00,ZHCC 131500Z 00000MPS 5000 BR FEW040 22/21 Q1010 NOSIG
ZHCC,2021-08-13 16:00,ZHCC 131600Z VRB01MPS 5000 BR FEW040 21/21 Q1010 NOSIG
ZHCC,2021-08-13 17:00,ZHCC 131700Z 29001MPS 5000 BR FEW040 21/21 Q1009 NOSIG
ZHCC,2021-08-13 18:00,ZHCC 131800Z 31002MPS 5000 BR FEW040 21/21 Q1009 NOSIG
ZHCC,2021-08-13 19:00,ZHCC 131900Z 30002MPS 4000 BR BKN030 21/21 Q1009 NOSIG
ZHCC,2021-08-13 20:00,ZHCC 132000Z 29002MPS 3000 BR BKN030 21/21 Q1009 NOSIG
ZHCC,2021-08-13 21:00,ZHCC 132100Z 32003MPS 300V360 3000 BR BKN030 22/21 Q1009 BECMG TL2240 2500
ZHCC,2021-08-13 22:00,ZHCC 132200Z 33003MPS 2000 BR BKN030 22/21 Q1009 BECMG TL2340 3000
ZHCC,2021-08-13 23:00,ZHCC 132300Z 33003MPS 2000 BR BKN030 23/21 Q1010 BECMG TL0040 3000
ZHCC,2021-08-14 00:00,ZHCC 140000Z 33003MPS 2500 BR SCT030 24/22 Q1010 BECMG TL0040 3000
ZHCC,2021-08-14 01:00,ZHCC 140100Z 35003MPS 310V030 3000 BR FEW033 26/22 Q1010 NOSIG
ZHCC,2021-08-14 02:00,ZHCC 140200Z 03004MPS 340V060 3500 HZ SCT020 27/22 Q1010 NOSIG
ZHCC,2021-08-14 03:00,ZHCC 140300Z 06003MPS 010V110 3500 HZ BKN023 27/21 Q1010 NOSIG
ZHCC,2021-08-14 04:00,ZHCC 140400Z 06003MPS 010V100 5000 HZ BKN023 29/21 Q1010 NOSIG
ZHCC,2021-08-14 05:00,ZHCC 140500Z 05004MPS 010V080 5000 HZ BKN023 28/20 Q1010 NOSIG
ZHCC,2021-08-14 06:00,ZHCC 140600Z 06003MPS 020V110 5000 HZ BKN023 29/21 Q1009 NOSIG
ZHCC,2021-08-14 07:00,ZHCC 140700Z 15002MPS 080V220 6000 BKN023 30/20 Q1009 NOSIG
ZHCC,2021-08-14 08:00,ZHCC 140800Z 12002MPS 050V190 6000 FEW030CB BKN040 30/20 Q1009 NOSIG
ZHCC,2021-08-14 09:00,ZHCC 140900Z 02003MPS 350V050 5000 HZ OVC040 28/21 Q1009 NOSIG
ZHCC,2021-08-14 10:00,ZHCC 141000Z 05002MPS 030V090 6000 NSC 28/20 Q1009 NOSIG
ZHCC,2021-08-14 11:00,ZHCC 141100Z 12002MPS 5000 HZ NSC 26/21 Q1009 NOSIG
ZHCC,2021-08-14 12:00,ZHCC 141200Z 12002MPS 6000 NSC 25/21 Q1009 NOSIG
ZHCC,2021-08-14 13:00,ZHCC 141300Z VRB01MPS 6000 NSC 24/22 Q1010 NOSIG
ZHCC,2021-08-14 14:00,ZHCC 141400Z 00000MPS 5000 BR NSC 23/22 Q1010 NOSIG
ZHCC,2021-08-14 15:00,ZHCC 141500Z 13001MPS 5000 BR NSC 23/21 Q1011 NOSIG
ZHCC,2021-08-14 16:00,ZHCC 141600Z 00000MPS 5000 BR NSC 23/22 Q1011 NOSIG
ZHCC,2021-08-14 17:00,ZHCC 141700Z 00000MPS 5000 BR NSC 22/21 Q1011 NOSIG
ZHCC,2021-08-14 18:00,ZHCC 141800Z 23001MPS 5000 BR NSC 22/21 Q1011 NOSIG
ZHCC,2021-08-14 19:00,ZHCC 141900Z 00000MPS 4000 BR NSC 22/21 Q1011 NOSIG
ZHCC,2021-08-14 20:00,ZHCC 142000Z 29001MPS 4000 BR NSC 21/21 Q1011 NOSIG
ZHCC,2021-08-14 21:00,ZHCC 142100Z 28001MPS 4000 BR NSC 21/20 Q1011 NOSIG
ZHCC,2021-08-14 22:00,ZHCC 142200Z 29001MPS 3000 BR NSC 21/20 Q1011 BECMG TL2340 2500
ZHCC,2021-08-14 23:00,ZHCC 142300Z VRB01MPS 2500 BR NSC 23/22 Q1012 BECMG TL0040 3000
ZHCC,2021-08-15 00:00,ZHCC 150000Z 09002MPS 4000 BR NSC 25/22 Q1012 NOSIG
ZHCC,2021-08-15 01:00,ZHCC 150100Z 11002MPS 060V140 6000 NSC 26/21 Q1013 NOSIG
ZHCC,2021-08-15 02:00,ZHCC 150200Z 09003MPS 060V130 6000 FEW030 28/20 Q1013 NOSIG
ZHCC,2021-08-15 03:00,ZHCC 150300Z 13002MPS 060V200 8000 SCT030 29/19 Q1013 NOSIG
ZHCC,2021-08-15 04:00,ZHCC 150400Z 10003MPS 070V200 9999 BKN030 29/20 Q1012 NOSIG
ZHCC,2021-08-15 05:00,ZHCC 150500Z 09003MPS 040V130 9999 BKN030 29/20 Q1012 NOSIG
ZHCC,2021-08-15 06:00,ZHCC 150600Z 09004MPS 030V180 9999 BKN030 30/21 Q1012 NOSIG
ZHCC,2021-08-15 07:00,ZHCC 150700Z 10003MPS 070V140 9999 BKN030 30/19 Q1012 NOSIG
ZHCC,2021-08-15 08:00,ZHCC 150800Z 08004MPS 9999 BKN030 30/19 Q1011 NOSIG
ZHCC,2021-08-15 09:00,ZHCC 150900Z 08004MPS 060V120 9999 FEW040 30/20 Q1011 NOSIG
ZHCC,2021-08-15 10:00,ZHCC 151000Z 10004MPS 9999 FEW040 29/20 Q1011 NOSIG
ZHCC,2021-08-15 11:00,ZHCC 151100Z 13002MPS 100V160 CAVOK 27/21 Q1011 NOSIG
ZHCC,2021-08-15 12:00,ZHCC 151200Z 12001MPS CAVOK 25/21 Q1012 NOSIG
ZHCC,2021-08-15 13:00,ZHCC 151300Z 12001MPS CAVOK 25/21 Q1012 NOSIG
ZHCC,2021-08-15 14:00,ZHCC 151400Z 11002MPS CAVOK 26/21 Q1013 NOSIG
ZHCC,2021-08-15 15:00,ZHCC 151500Z 11002MPS CAVOK 25/21 Q1013 NOSIG
ZHCC,2021-08-15 16:00,ZHCC 151600Z 12002MPS CAVOK 25/21 Q1013 NOSIG
ZHCC,2021-08-15 17:00,ZHCC 151700Z VRB01MPS CAVOK 25/21 Q1013 NOSIG
ZHCC,2021-08-15 18:00,ZHCC 151800Z VRB01MPS CAVOK 25/21 Q1013 NOSIG
ZHCC,2021-08-15 19:00,ZHCC 151900Z VRB01MPS CAVOK 25/22 Q1013 NOSIG
ZHCC,2021-08-15 20:00,ZHCC 152000Z VRB01MPS CAVOK 25/21 Q1012 NOSIG
ZHCC,2021-08-15 21:00,ZHCC 152100Z 10002MPS CAVOK 24/21 Q1013 NOSIG
ZHCC,2021-08-15 22:00,ZHCC 152200Z 06002MPS 7000 NSC 25/21 Q1013 NOSIG
ZHCC,2021-08-15 23:00,ZHCC 152300Z 08002MPS 7000 NSC 25/21 Q1013 NOSIG
ZHCC,2021-08-16 00:00,ZHCC 160000Z 11001MPS 7000 NSC 25/21 Q1013 NOSIG
ZHCC,2021-08-16 01:00,ZHCC 160100Z 08002MPS 050V130 CAVOK 27/21 Q1014 NOSIG
ZHCC,2021-08-16 02:00,ZHCC 160200Z 11002MPS 070V190 CAVOK 29/21 Q1014 NOSIG
ZHCC,2021-08-16 03:00,ZHCC 160300Z 06002MPS 010V110 CAVOK 28/21 Q1014 NOSIG
ZHCC,2021-08-16 04:00,ZHCC 160400Z 08002MPS 030V150 9999 FEW030 30/21 Q1013 NOSIG
ZHCC,2021-08-16 05:00,ZHCC 160500Z 12002MPS 050V190 9999 FEW030 30/22 Q1013 NOSIG
ZHCC,2021-08-16 06:00,ZHCC 160600Z VRB02MPS 9999 SCT030 31/22 Q1012 NOSIG
ZHCC,2021-08-16 07:00,ZHCC 160700Z 13003MPS 100V170 9999 FEW030TCU SCT030 31/21 Q1012 NOSIG
ZHCC,2021-08-16 08:00,ZHCC 160800Z 16002MPS 100V230 9999 SCT030 31/22 Q1011 NOSIG
ZHCC,2021-08-16 09:00,ZHCC 160900Z 12004MPS 080V150 9999 FEW030 30/22 Q1011 NOSIG
ZHCC,2021-08-16 10:00,ZHCC 161000Z 13002MPS 100V160 CAVOK 29/21 Q1011 NOSIG
ZHCC,2021-08-16 11:00,ZHCC 161100Z VRB01MPS CAVOK 28/22 Q1011 NOSIG
ZHCC,2021-08-16 12:00,ZHCC 161200Z 14001MPS CAVOK 27/23 Q1012 NOSIG
ZHCC,2021-08-16 13:00,ZHCC 161300Z VRB01MPS CAVOK 27/22 Q1012 NOSIG
ZHCC,2021-08-16 14:00,ZHCC 161400Z VRB01MPS CAVOK 25/22 Q1013 NOSIG
ZHCC,2021-08-16 15:00,ZHCC 161500Z VRB01MPS CAVOK 25/23 Q1012 NOSIG
ZHCC,2021-08-16 16:00,ZHCC 161600Z VRB01MPS CAVOK 24/23 Q1012 NOSIG
ZHCC,2021-08-16 17:00,ZHCC 161700Z 00000MPS 8000 NSC 24/23 Q1012 NOSIG
ZHCC,2021-08-16 18:00,ZHCC 161800Z 15001MPS 6000 NSC 23/22 Q1012 NOSIG
ZHCC,2021-08-16 19:00,ZHCC 161900Z 00000MPS 6000 NSC 23/23 Q1012 NOSIG
ZHCC,2021-08-16 20:00,ZHCC 162000Z 00000MPS 6000 NSC 23/23 Q1012 NOSIG
ZHCC,2021-08-16 21:00,ZHCC 162100Z 00000MPS 5000 BR NSC 23/22 Q1012 NOSIG
ZHCC,2021-08-16 22:00,ZHCC 162200Z VRB01MPS 3000 BR NSC 23/23 Q1012 NOSIG
ZHCC,2021-08-16 23:00,ZHCC 162300Z 00000MPS 2500 BR NSC 25/24 Q1013 BECMG TL0040 3000
ZHCC,2021-08-17 00:00,ZHCC 170000Z VRB01MPS 2800 BR NSC 27/23 Q1013 BECMG TL0040 3000
ZHCC,2021-08-17 01:00,ZHCC 170100Z 11002MPS 020V170 7000 SCT030 28/23 Q1013 NOSIG
ZHCC,2021-08-17 02:00,ZHCC 170200Z 13002MPS 040V180 9999 SCT030 29/23 Q1013 NOSIG
ZHCC,2021-08-17 03:00,ZHCC 170300Z 09003MPS 040V140 9999 BKN030 30/22 Q1013 NOSIG
ZHCC,2021-08-17 04:00,ZHCC 170400Z 10004MPS 060V130 9999 BKN030 31/23 Q1012 NOSIG
ZHCC,2021-08-17 05:00,ZHCC 170500Z 11003MPS 070V170 9999 FEW030TCU SCT030 31/23 Q1012 NOSIG
ZHCC,2021-08-17 06:00,ZHCC 170600Z 13003MPS 080V180 9999 FEW030TCU SCT030 32/22 Q1011 NOSIG
ZHCC,2021-08-17 07:00,ZHCC 170700Z 11004MPS 050V160 9999 FEW030TCU SCT030 31/22 Q1010 NOSIG
ZHCC,2021-08-17 08:00,ZHCC 170800Z 12003MPS 070V180 9999 SCT030 32/22 Q1010 NOSIG
ZHCC,2021-08-17 09:00,ZHCC 170900Z 11003MPS 080V160 9999 FEW030 31/21 Q1010 NOSIG
ZHCC,2021-08-17 10:00,ZHCC 171000Z 13002MPS 110V170 9999 FEW030 30/22 Q1010 NOSIG
ZHCC,2021-08-17 11:00,ZHCC 171100Z VRB01MPS CAVOK 29/22 Q1010 NOSIG
ZHCC,2021-08-17 12:00,ZHCC 171200Z VRB01MPS CAVOK 28/22 Q1011 NOSIG
ZHCC,2021-08-17 13:00,ZHCC 171300Z VRB01MPS CAVOK 27/22 Q1012 NOSIG
ZHCC,2021-08-17 14:00,ZHCC 171400Z VRB01MPS CAVOK 26/22 Q1012 NOSIG
ZHCC,2021-08-17 15:00,ZHCC 171500Z VRB01MPS CAVOK 27/22 Q1012 NOSIG
ZHCC,2021-08-17 16:00,ZHCC 171600Z 00000MPS CAVOK 25/22 Q1012 NOSIG
ZHCC,2021-08-17 17:00,ZHCC 171700Z 00000MPS CAVOK 24/22 Q1012 NOSIG
ZHCC,2021-08-17 18:00,ZHCC 171800Z 29002MPS CAVOK 23/22 Q1011 NOSIG
ZHCC,2021-08-17 19:00,ZHCC 171900Z 28001MPS CAVOK 24/22 Q1011 NOSIG
ZHCC,2021-08-17 20:00,ZHCC 172000Z 29001MPS CAVOK 23/21 Q1011 NOSIG
ZHCC,2021-08-17 21:00,ZHCC 172100Z VRB01MPS CAVOK 24/22 Q1011 NOSIG
ZHCC,2021-08-17 22:00,ZHCC 172200Z 00000MPS CAVOK 24/22 Q1011 NOSIG
ZHCC,2021-08-17 23:00,ZHCC 172300Z 05002MPS 6000 NSC 26/23 Q1011 NOSIG
ZHCC,2021-08-18 00:00,ZHCC 180000Z 05003MPS 4000 BR NSC 27/23 Q1012 NOSIG
ZHCC,2021-08-18 01:00,ZHCC 180100Z 06003MPS 030V100 4000 BR NSC 28/24 Q1012 NOSIG
ZHCC,2021-08-18 02:00,ZHCC 180200Z 08002MPS 040V120 4000 HZ NSC 29/23 Q1012 NOSIG
ZHCC,2021-08-18 03:00,ZHCC 180300Z 10002MPS 060V160 6000 FEW030 30/22 Q1011 NOSIG
ZHCC,2021-08-18 04:00,ZHCC 180400Z 11003MPS 070V140 8000 NSC 31/21 Q1011 NOSIG
ZHCC,2021-08-18 05:00,ZHCC 180500Z 06004MPS 8000 NSC 31/23 Q1010 NOSIG
ZHCC,2021-08-18 06:00,ZHCC 180600Z 12003MPS 070V190 8000 NSC 31/22 Q1010 NOSIG
ZHCC,2021-08-18 07:00,ZHCC 180700Z 10004MPS 070V130 8000 NSC 32/23 Q1009 NOSIG
ZHCC,2021-08-18 08:00,ZHCC 180800Z 11003MPS 090V150 8000 NSC 31/22 Q1008 NOSIG
ZHCC,2021-08-18 09:00,ZHCC 180900Z 13003MPS 090V160 8000 NSC 31/23 Q1008 NOSIG
ZHCC,2021-08-18 10:00,ZHCC 181000Z 12002MPS 8000 NSC 30/22 Q1008 NOSIG
ZHCC,2021-08-18 11:00,ZHCC 181100Z 12003MPS 8000 NSC 29/23 Q1008 NOSIG
ZHCC,2021-08-18 12:00,ZHCC 181200Z 13001MPS 8000 NSC 29/23 Q1009 NOSIG
ZHCC,2021-08-18 13:00,ZHCC 181300Z 12002MPS 8000 NSC 28/23 Q1009 NOSIG
ZHCC,2021-08-18 14:00,ZHCC 181400Z 13001MPS 6000 NSC 28/23 Q1009 NOSIG
ZHCC,2021-08-18 15:00,ZHCC 181500Z 12001MPS 6000 NSC 27/23 Q1009 NOSIG
ZHCC,2021-08-18 16:00,ZHCC 181600Z VRB01MPS 6000 NSC 27/23 Q1009 NOSIG
ZHCC,2021-08-18 17:00,ZHCC 181700Z VRB01MPS 6000 NSC 27/23 Q1009 NOSIG
ZHCC,2021-08-18 18:00,ZHCC 181800Z 14002MPS 090V200 6000 NSC 27/23 Q1008 NOSIG
ZHCC,2021-08-18 19:00,ZHCC 181900Z VRB01MPS 6000 NSC 26/23 Q1008 NOSIG
ZHCC,2021-08-18 20:00,ZHCC 182000Z 15002MPS 090V230 6000 NSC 26/23 Q1007 NOSIG
ZHCC,2021-08-18 21:00,ZHCC 182100Z VRB01MPS 6000 NSC 26/23 Q1007 NOSIG
ZHCC,2021-08-18 22:00,ZHCC 182200Z 14002MPS 100V190 5000 BR NSC 26/23 Q1008 NOSIG
ZHCC,2021-08-18 23:00,ZHCC 182300Z 15002MPS 090V210 5000 BR NSC 26/23 Q1008 NOSIG
ZHCC,2021-08-19 00:00,ZHCC 190000Z 14003MPS 090V190 5000 BR NSC 27/23 Q1008 NOSIG
ZHCC,2021-08-19 01:00,ZHCC 190100Z 14002MPS 090V200 5000 BR NSC 27/23 Q1008 NOSIG
ZHCC,2021-08-19 02:00,ZHCC 190200Z 13003MPS 080V190 6000 FEW030 29/24 Q1008 NOSIG
ZHCC,2021-08-19 03:00,ZHCC 190300Z 14003MPS 100V190 6000 FEW030 29/24 Q1008 NOSIG
ZHCC,2021-08-19 04:00,ZHCC 190400Z 14003MPS 090V220 8000 FEW030 31/23 Q1008 NOSIG
ZHCC,2021-08-19 05:00,ZHCC 190500Z 14003MPS 100V230 8000 FEW030 32/23 Q1007 NOSIG
ZHCC,2021-08-19 06:00,ZHCC 190600Z 15003MPS 090V230 8000 SCT030 32/23 Q1006 NOSIG
ZHCC,2021-08-19 07:00,ZHCC 190700Z 15003MPS 080V240 8000 BKN040 31/23 Q1006 NOSIG
ZHCC,2021-08-19 08:00,ZHCC 190800Z 18003MPS 110V250 CAVOK 31/22 Q1005 NOSIG
ZHCC,2021-08-19 09:00,ZHCC 190900Z 18002MPS 090V240 CAVOK 31/22 Q1005 NOSIG
ZHCC,2021-08-19 10:00,ZHCC 191000Z 14002MPS 090V190 CAVOK 30/22 Q1005 NOSIG
ZHCC,2021-08-19 11:00,ZHCC 191100Z 14002MPS 070V180 CAVOK 29/23 Q1005 NOSIG
ZHCC,2021-08-19 12:00,ZHCC 191200Z 14002MPS 100V190 CAVOK 28/24 Q1005 NOSIG
ZHCC,2021-08-19 13:00,ZHCC 191300Z VRB01MPS CAVOK 28/24 Q1006 NOSIG
ZHCC,2021-08-19 14:00,ZHCC 191400Z 16002MPS 090V220 9999 SCT040 28/24 Q1006 NOSIG
ZHCC,2021-08-19 15:00,ZHCC 191500Z 18002MPS 100V260 9999 SCT040 29/24 Q1005 NOSIG
ZHCC,2021-08-19 16:00,ZHCC 191600Z VRB01MPS 9999 -RA OVC040 28/24 Q1005 NOSIG
ZHCC,2021-08-19 17:00,ZHCC 191700Z 22002MPS 180V280 7000 -RA OVC030 27/25 Q1004 BECMG TL1840 SHRA FEW030CB BKN030
ZHCC,2021-08-19 18:00,ZHCC 191800Z 22002MPS 180V270 7000 FEW030CB BKN030 27/25 Q1004 NOSIG
ZHCC,2021-08-19 19:00,ZHCC 191900Z 25002MPS 210V280 6000 -SHRA FEW030CB BKN040 27/25 Q1004 NOSIG
ZHCC,2021-08-19 20:00,ZHCC 192000Z 32003MPS 4000 -SHRA BR FEW030CB BKN040 26/25 Q1004 NOSIG
ZHCC,2021-08-19 21:00,ZHCC 192100Z 02005MPS 350V050 6000 -SHRA FEW008 FEW030CB BKN033 23/21 Q1004 NOSIG
ZHCC,2021-08-19 22:00,ZHCC 192200Z 01005MPS 6000 FEW030CB BKN030 23/21 Q1005 RESHRA NOSIG
ZHCC,2021-08-19 23:00,ZHCC 192300Z 03004MPS 7000 OVC040 23/20 Q1005 NOSIG
ZHCC,2021-08-20 00:00,ZHCC 200000Z 03006MPS 9999 BKN040 24/20 Q1006 NOSIG
ZHCC,2021-08-20 01:00,ZHCC 200100Z 03004MPS 360V080 9999 SCT040 25/21 Q1006 NOSIG
ZHCC,2021-08-20 02:00,ZHCC 200200Z 03006MPS 9999 SCT033 27/21 Q1006 NOSIG
ZHCC,2021-08-20 03:00,ZHCC 200300Z 01006MPS 340V040 9999 SCT033 28/21 Q1007 NOSIG
ZHCC,2021-08-20 04:00,ZHCC 200400Z 02006MPS 9999 BKN033 29/20 Q1006 NOSIG
ZHCC,2021-08-20 05:00,ZHCC 200500Z 35006MPS 320V020 9999 SCT033 30/20 Q1005 NOSIG
ZHCC,2021-08-20 06:00,ZHCC 200600Z 01005MPS 320V050 9999 SCT033 31/21 Q1005 NOSIG
ZHCC,2021-08-20 07:00,ZHCC 200700Z 04004MPS 320V090 9999 FEW033 31/21 Q1005 NOSIG
ZHCC,2021-08-20 08:00,ZHCC 200800Z 05004MPS 350V110 9999 FEW033 31/21 Q1005 NOSIG
ZHCC,2021-08-20 09:00,ZHCC 200900Z 04005MPS 9999 FEW033 30/22 Q1005 NOSIG
ZHCC,2021-08-20 10:00,ZHCC 201000Z 04003MPS CAVOK 29/21 Q1005 NOSIG
ZHCC,2021-08-20 11:00,ZHCC 201100Z 08004MPS CAVOK 27/22 Q1005 NOSIG
ZHCC,2021-08-20 12:00,ZHCC 201200Z 07004MPS 040V100 CAVOK 26/21 Q1006 NOSIG
ZHCC,2021-08-20 13:00,ZHCC 201300Z 11003MPS CAVOK 24/21 Q1007 NOSIG
ZHCC,2021-08-20 14:00,ZHCC 201400Z 12002MPS CAVOK 24/22 Q1007 NOSIG
ZHCC,2021-08-20 15:00,ZHCC 201500Z 13002MPS 100V180 CAVOK 23/21 Q1007 NOSIG
ZHCC,2021-08-20 16:00,ZHCC 201600Z VRB01MPS CAVOK 23/21 Q1008 NOSIG
ZHCC,2021-08-20 17:00,ZHCC 201700Z VRB01MPS CAVOK 23/21 Q1007 NOSIG
ZHCC,2021-08-20 18:00,ZHCC 201800Z 00000MPS CAVOK 22/21 Q1007 NOSIG
ZHCC,2021-08-20 19:00,ZHCC 201900Z 30001MPS 9999 BKN040 22/21 Q1007 NOSIG
ZHCC,2021-08-20 20:00,ZHCC 202000Z 00000MPS 9999 BKN040 23/21 Q1007 NOSIG
ZHCC,2021-08-20 21:00,ZHCC 202100Z 13001MPS 9999 BKN040 23/21 Q1007 NOSIG
ZHCC,2021-08-20 22:00,ZHCC 202200Z VRB01MPS 7000 BKN030 23/21 Q1007 NOSIG
ZHCC,2021-08-20 23:00,ZHCC 202300Z VRB01MPS 7000 BKN030 24/21 Q1007 NOSIG
ZHCC,2021-08-21 00:00,ZHCC 210000Z VRB01MPS 9999 BKN030 25/22 Q1007 NOSIG
ZHCC,2021-08-21 01:00,ZHCC 210100Z 16002MPS 090V220 9999 OVC030 26/21 Q1008 NOSIG
ZHCC,2021-08-21 02:00,ZHCC 210200Z VRB01MPS 9999 OVC030 27/22 Q1008 NOSIG
ZHCC,2021-08-21 03:00,ZHCC 210300Z 17002MPS 100V230 9999 OVC030 28/20 Q1008 NOSIG
ZHCC,2021-08-21 04:00,ZHCC 210400Z VRB03MPS 9999 BKN040 30/21 Q1007 NOSIG
ZHCC,2021-08-21 05:00,ZHCC 210500Z VRB02MPS 9999 BKN040 30/21 Q1007 NOSIG
ZHCC,2021-08-21 06:00,ZHCC 210600Z 18002MPS 110V240 9999 BKN040 30/22 Q1006 NOSIG
ZHCC,2021-08-21 07:00,ZHCC 210700Z 20002MPS 150V240 9999 BKN040 31/23 Q1005 NOSIG
ZHCC,2021-08-21 08:00,ZHCC 210800Z 21003MPS 120V260 9999 BKN040 31/23 Q1005 NOSIG
ZHCC,2021-08-21 09:00,ZHCC 210900Z 15002MPS 090V210 CAVOK 31/23 Q1004 NOSIG
ZHCC,2021-08-21 10:00,ZHCC 211000Z 13002MPS 100V160 CAVOK 29/23 Q1004 NOSIG
ZHCC,2021-08-21 11:00,ZHCC 211100Z VRB01MPS CAVOK 28/23 Q1005 NOSIG
ZHCC,2021-08-21 12:00,ZHCC 211200Z VRB01MPS CAVOK 27/23 Q1005 NOSIG
ZHCC,2021-08-21 13:00,ZHCC 211300Z 13002MPS 090V190 CAVOK 27/23 Q1006 NOSIG
ZHCC,2021-08-21 14:00,ZHCC 211400Z 13002MPS 090V170 CAVOK 26/23 Q1006 NOSIG
ZHCC,2021-08-21 15:00,ZHCC 211500Z VRB01MPS CAVOK 26/23 Q1006 NOSIG
ZHCC,2021-08-21 16:00,ZHCC 211600Z 12001MPS CAVOK 25/23 Q1006 NOSIG
ZHCC,2021-08-21 17:00,ZHCC 211700Z 11002MPS 7000 OVC040 25/23 Q1006 NOSIG
ZHCC,2021-08-21 18:00,ZHCC 211800Z 11002MPS 6000 OVC040 25/24 Q1006 NOSIG
ZHCC,2021-08-21 19:00,ZHCC 211900Z 08003MPS 6000 OVC040 25/23 Q1006 NOSIG
ZHCC,2021-08-21 20:00,ZHCC 212000Z 12003MPS 6000 OVC040 24/23 Q1006 NOSIG
ZHCC,2021-08-21 21:00,ZHCC 212100Z 11002MPS 6000 OVC040 24/23 Q1005 NOSIG
ZHCC,2021-08-21 22:00,ZHCC 212200Z 11003MPS 4000 BR OVC040 24/23 Q1005 NOSIG
ZHCC,2021-08-21 23:00,ZHCC 212300Z VRB01MPS 4000 BR OVC040 24/23 Q1005 NOSIG
ZHCC,2021-08-22 00:00,ZHCC 220000Z 13002MPS 090V190 4000 BR OVC040 25/23 Q1005 NOSIG
ZHCC,2021-08-22 01:00,ZHCC 220100Z 15002MPS 090V230 4000 -RA BR OVC046 25/23 Q1006 NOSIG
ZHCC,2021-08-22 02:00,ZHCC 220200Z VRB01MPS 3000 -SHRA BR FEW030CB BKN030 24/23 Q1006 NOSIG
ZHCC,2021-08-22 03:00,ZHCC 220300Z 06004MPS 2500 -SHRA BR FEW010 FEW030CB BKN040 25/24 Q1005 NOSIG
ZHCC,2021-08-22 04:00,ZHCC 220400Z 07004MPS 2500 -SHRA BR SCT008 FEW030CB BKN040 25/24 Q1005 NOSIG
ZHCC,2021-08-22 05:00,ZHCC 220500Z 07007MPS 2000 -SHRA BR SCT006 FEW030CB BKN040 25/24 Q1003 BECMG TL0540 TSRA
ZHCC,2021-08-22 06:00,ZHCC 220600Z VRB03MPS 0600 R12R/0600V0900U R12L/0650V0800N +SHRA FG SCT005 SCT020CB SCT020 24/24 Q1003 BECMG TL0720 1500 -SHRA BR
ZHCC,2021-08-22 07:00,ZHCC 220700Z 04005MPS 4000 -SHRA BR SCT005 SCT020CB BKN020 24/23 Q1002 RESHRA BECMG TL0740 2000 +SHRA
ZHCC,2021-08-22 08:00,ZHCC 220800Z 05007MPS 1600 +SHRA BR SCT005 SCT020CB BKN020 22/22 Q1003 BECMG TL0940 3000 -SHRA
ZHCC,2021-08-22 09:00,ZHCC 220900Z 06007MPS 2500 +SHRA BR SCT005 FEW020CB BKN020 21/21 Q1003 BECMG TL0940 3000 -SHRA
ZHCC,2021-08-22 10:00,ZHCC 221000Z 02006MPS 350V050 3000 SHRA BR SCT008 FEW020CB BKN020 21/20 Q1004 BECMG TL1140 -SHRA
ZHCC,2021-08-22 11:00,ZHCC 221100Z 02008MPS 4000 -SHRA BR SCT008 FEW030CB BKN030 20/19 Q1005 RESHRA NOSIG
ZHCC,2021-08-22 12:00,ZHCC 221200Z 05006MPS 7000 -SHRA FEW007 FEW040CB BKN040 21/20 Q1005 RESHRA NOSIG
ZHCC,2021-08-22 13:00,ZHCC 221300Z 35004MPS 8000 -RA SCT007 BKN040 20/20 Q1006 NOSIG
ZHCC,2021-08-22 14:00,ZHCC 221400Z 35004MPS 8000 -RA SCT010 BKN040 20/19 Q1005 NOSIG
ZHCC,2021-08-22 15:00,ZHCC 221500Z 33005MPS 300V360 8000 SCT010 BKN040 20/19 Q1005 NOSIG
ZHCC,2021-08-22 16:00,ZHCC 221600Z 31004MPS 8000 OVC020 20/19 Q1005 NOSIG
ZHCC,2021-08-22 17:00,ZHCC 221700Z 34004MPS 8000 OVC020 21/20 Q1005 NOSIG
ZHCC,2021-08-22 18:00,ZHCC 221800Z 32004MPS 8000 OVC020 21/20 Q1004 NOSIG
ZHCC,2021-08-22 19:00,ZHCC 221900Z 30003MPS 8000 OVC020 21/20 Q1004 NOSIG
ZHCC,2021-08-22 20:00,ZHCC 222000Z 31002MPS 280V340 9999 BKN020 21/19 Q1004 NOSIG
ZHCC,2021-08-22 21:00,ZHCC 222100Z 30002MPS 9999 BKN020 21/20 Q1004 NOSIG
ZHCC,2021-08-22 22:00,ZHCC 222200Z 31003MPS 9999 OVC023 21/19 Q1004 NOSIG
ZHCC,2021-08-22 23:00,ZHCC 222300Z 32003MPS 9999 OVC023 22/20 Q1004 NOSIG
ZHCC,2021-08-23 00:00,ZHCC 230000Z 33004MPS 9999 BKN023 22/20 Q1004 NOSIG
ZHCC,2021-08-23 01:00,ZHCC 230100Z 34005MPS 320V020 9999 BKN026 24/20 Q1004 NOSIG
ZHCC,2021-08-23 02:00,ZHCC 230200Z 35005MPS 300V020 9999 BKN020 24/20 Q1004 NOSIG
ZHCC,2021-08-23 03:00,ZHCC 230300Z 36004MPS 310V030 9999 BKN020 24/20 Q1004 NOSIG
ZHCC,2021-08-23 04:00,ZHCC 230400Z 30004MPS 250V350 9999 BKN026 25/20 Q1004 NOSIG
ZHCC,2021-08-23 05:00,ZHCC 230500Z 31003MPS 290V350 9999 OVC026 26/21 Q1003 NOSIG
ZHCC,2021-08-23 06:00,ZHCC 230600Z 31003MPS 270V340 9999 SCT026 BKN040 27/20 Q1003 NOSIG
ZHCC,2021-08-23 07:00,ZHCC 230700Z 31004MPS 280V340 9999 SCT026 BKN040 27/20 Q1003 NOSIG
ZHCC,2021-08-23 08:00,ZHCC 230800Z 29004MPS 270V340 9999 SCT026 BKN040 28/21 Q1002 NOSIG
ZHCC,2021-08-23 09:00,ZHCC 230900Z VRB01MPS 9999 BKN040 29/21 Q1002 NOSIG
ZHCC,2021-08-23 10:00,ZHCC 231000Z 02002MPS 330V090 9999 SCT033 28/21 Q1003 NOSIG
ZHCC,2021-08-23 11:00,ZHCC 231100Z 03002MPS 360V060 9999 FEW033 27/21 Q1003 NOSIG
ZHCC,2021-08-23 12:00,ZHCC 231200Z 08002MPS 050V130 9999 BKN046 25/22 Q1003 NOSIG
ZHCC,2021-08-23 13:00,ZHCC 231300Z VRB01MPS CAVOK 24/22 Q1004 NOSIG
ZHCC,2021-08-23 14:00,ZHCC 231400Z 21002MPS 180V240 CAVOK 24/22 Q1004 NOSIG
ZHCC,2021-08-23 15:00,ZHCC 231500Z VRB01MPS CAVOK 24/22 Q1004 NOSIG
ZHCC,2021-08-23 16:00,ZHCC 231600Z 26002MPS 210V300 CAVOK 24/22 Q1004 NOSIG
ZHCC,2021-08-23 17:00,ZHCC 231700Z 23002MPS 200V270 8000 NSC 24/22 Q1003 NOSIG
ZHCC,2021-08-23 18:00,ZHCC 231800Z 27002MPS 7000 NSC 23/22 Q1003 NOSIG
ZHCC,2021-08-23 19:00,ZHCC 231900Z VRB01MPS 6000 NSC 23/22 Q1003 NOSIG
ZHCC,2021-08-23 20:00,ZHCC 232000Z VRB01MPS 5000 BR NSC 23/22 Q1003 NOSIG
ZHCC,2021-08-23 21:00,ZHCC 232100Z 26002MPS 230V290 5000 BR NSC 23/22 Q1003 NOSIG
ZHCC,2021-08-23 22:00,ZHCC 232200Z 28004MPS 4000 BR NSC 23/21 Q1003 NOSIG
ZHCC,2021-08-23 23:00,ZHCC 232300Z 30003MPS 6000 NSC 23/20 Q1004 NOSIG
ZHCC,2021-08-24 00:00,ZHCC 240000Z 28002MPS CAVOK 25/20 Q1004 NOSIG
ZHCC,2021-08-24 01:00,ZHCC 240100Z 28002MPS 250V310 CAVOK 27/20 Q1004 NOSIG
ZHCC,2021-08-24 02:00,ZHCC 240200Z 30004MPS CAVOK 29/18 Q1004 NOSIG
ZHCC,2021-08-24 03:00,ZHCC 240300Z 30006MPS CAVOK 30/18 Q1004 NOSIG
ZHCC,2021-08-24 04:00,ZHCC 240400Z 29005MPS CAVOK 30/18 Q1003 NOSIG
ZHCC,2021-08-24 05:00,ZHCC 240500Z 27004MPS 230V300 CAVOK 32/17 Q1002 NOSIG
ZHCC,2021-08-24 06:00,ZHCC 240600Z 28006MPS CAVOK 32/13 Q1002 NOSIG
ZHCC,2021-08-24 07:00,ZHCC 240700Z 30007MPS CAVOK 32/13 Q1001 NOSIG
ZHCC,2021-08-24 08:00,ZHCC 240800Z 28005MPS 240V300 CAVOK 32/12 Q1001 NOSIG
ZHCC,2021-08-24 09:00,ZHCC 240900Z 25003MPS 210V290 CAVOK 32/16 Q1002 NOSIG
ZHCC,2021-08-24 10:00,ZHCC 241000Z 25003MPS 220V280 CAVOK 31/15 Q1002 NOSIG
ZHCC,2021-08-24 11:00,ZHCC 241100Z 25003MPS 210V270 CAVOK 28/14 Q1002 NOSIG
ZHCC,2021-08-24 12:00,ZHCC 241200Z 25002MPS CAVOK 27/14 Q1003 NOSIG
ZHCC,2021-08-24 13:00,ZHCC 241300Z 24002MPS 210V270 CAVOK 26/15 Q1004 NOSIG
ZHCC,2021-08-24 14:00,ZHCC 241400Z 25003MPS CAVOK 25/14 Q1004 NOSIG
ZHCC,2021-08-24 15:00,ZHCC 241500Z 26003MPS CAVOK 23/14 Q1004 NOSIG
ZHCC,2021-08-24 16:00,ZHCC 241600Z 26002MPS CAVOK 23/14 Q1004 NOSIG
ZHCC,2021-08-24 17:00,ZHCC 241700Z 26002MPS CAVOK 23/13 Q1004 NOSIG
ZHCC,2021-08-24 18:00,ZHCC 241800Z 27002MPS CAVOK 21/14 Q1004 NOSIG
ZHCC,2021-08-24 19:00,ZHCC 241900Z VRB01MPS CAVOK 22/13 Q1004 NOSIG
ZHCC,2021-08-24 20:00,ZHCC 242000Z 25002MPS 210V270 CAVOK 22/13 Q1004 NOSIG
ZHCC,2021-08-24 21:00,ZHCC 242100Z 25002MPS CAVOK 22/13 Q1004 NOSIG
ZHCC,2021-08-24 22:00,ZHCC 242200Z 26002MPS CAVOK 21/13 Q1004 NOSIG
ZHCC,2021-08-24 23:00,ZHCC 242300Z 26003MPS CAVOK 23/14 Q1005 NOSIG
ZHCC,2021-08-25 00:00,ZHCC 250000Z 27003MPS CAVOK 25/16 Q1006 NOSIG
ZHCC,2021-08-25 01:00,ZHCC 250100Z 29003MPS CAVOK 28/16 Q1006 NOSIG
ZHCC,2021-08-25 02:00,ZHCC 250200Z 29005MPS 270V330 CAVOK 30/13 Q1006 NOSIG
ZHCC,2021-08-25 03:00,ZHCC 250300Z 29007MPS CAVOK 31/12 Q1006 NOSIG
ZHCC,2021-08-25 04:00,ZHCC 250400Z 29005MPS CAVOK 31/13 Q1006 NOSIG
ZHCC,2021-08-25 05:00,ZHCC 250500Z 25005MPS 220V280 CAVOK 31/12 Q1006 NOSIG
ZHCC,2021-08-25 06:00,ZHCC 250600Z 28005MPS 250V310 CAVOK 32/15 Q1006 NOSIG
ZHCC,2021-08-25 07:00,ZHCC 250700Z 26005MPS 230V290 CAVOK 31/13 Q1006 NOSIG
ZHCC,2021-08-25 08:00,ZHCC 250800Z 26004MPS 220V280 CAVOK 30/15 Q1006 NOSIG
ZHCC,2021-08-25 09:00,ZHCC 250900Z 26003MPS CAVOK 28/16 Q1006 NOSIG
ZHCC,2021-08-25 10:00,ZHCC 251000Z 27003MPS CAVOK 27/16 Q1006 NOSIG
ZHCC,2021-08-25 11:00,ZHCC 251100Z 25003MPS 210V280 CAVOK 27/14 Q1007 NOSIG
ZHCC,2021-08-25 12:00,ZHCC 251200Z 26004MPS 230V290 CAVOK 27/14 Q1007 NOSIG
ZHCC,2021-08-25 13:00,ZHCC 251300Z 26002MPS CAVOK 25/15 Q1008 NOSIG
ZHCC,2021-08-25 14:00,ZHCC 251400Z 23002MPS 200V260 CAVOK 25/14 Q1008 NOSIG
ZHCC,2021-08-25 15:00,ZHCC 251500Z 23002MPS CAVOK 25/15 Q1009 NOSIG
ZHCC,2021-08-25 16:00,ZHCC 251600Z 21002MPS CAVOK 25/15 Q1009 NOSIG
ZHCC,2021-08-25 17:00,ZHCC 251700Z 23002MPS CAVOK 25/14 Q1009 NOSIG
ZHCC,2021-08-25 18:00,ZHCC 251800Z VRB01MPS CAVOK 23/17 Q1009 NOSIG
ZHCC,2021-08-25 19:00,ZHCC 251900Z VRB01MPS CAVOK 22/17 Q1009 NOSIG
ZHCC,2021-08-25 20:00,ZHCC 252000Z VRB01MPS CAVOK 22/18 Q1010 NOSIG
ZHCC,2021-08-25 21:00,ZHCC 252100Z 00000MPS CAVOK 22/17 Q1010 NOSIG
ZHCC,2021-08-25 22:00,ZHCC 252200Z 29001MPS CAVOK 22/18 Q1010 NOSIG
ZHCC,2021-08-25 23:00,ZHCC 252300Z VRB01MPS CAVOK 22/19 Q1011 NOSIG
ZHCC,2021-08-26 00:00,ZHCC 260000Z VRB01MPS CAVOK 25/16 Q1011 NOSIG
ZHCC,2021-08-26 01:00,ZHCC 260100Z VRB01MPS CAVOK 27/17 Q1011 NOSIG
ZHCC,2021-08-26 02:00,ZHCC 260200Z VRB01MPS CAVOK 27/16 Q1012 NOSIG
ZHCC,2021-08-26 03:00,ZHCC 260300Z 19002MPS 120V260 CAVOK 25/19 Q1012 NOSIG
ZHCC,2021-08-26 04:00,ZHCC 260400Z 18003MPS 110V230 CAVOK 24/20 Q1012 NOSIG
ZHCC,2021-08-26 05:00,ZHCC 260500Z 20003MPS 140V240 9999 -RA BKN046 24/20 Q1013 NOSIG
ZHCC,2021-08-26 06:00,ZHCC 260600Z 19003MPS 150V230 9999 -RA BKN046 23/19 Q1013 NOSIG
ZHCC,2021-08-26 07:00,ZHCC 260700Z 19003MPS 150V250 9999 -RA BKN046 23/19 Q1013 NOSIG
ZHCC,2021-08-26 08:00,ZHCC 260800Z 20004MPS 160V240 CAVOK 22/19 Q1012 NOSIG
ZHCC,2021-08-26 09:00,ZHCC 260900Z 21003MPS 160V250 9999 -RA SCT046 22/18 Q1013 NOSIG
ZHCC,2021-08-26 10:00,ZHCC 261000Z 21002MPS 160V250 9999 -RA NSC 22/17 Q1013 NOSIG
ZHCC,2021-08-26 11:00,ZHCC 261100Z 21002MPS 170V250 9999 -RA NSC 21/18 Q1013 NOSIG
ZHCC,2021-08-26 12:00,ZHCC 261200Z 19002MPS 140V240 9999 -RA NSC 21/18 Q1013 NOSIG
ZHCC,2021-08-26 13:00,ZHCC 261300Z 24003MPS 200V280 9999 -RA NSC 20/17 Q1014 NOSIG
ZHCC,2021-08-26 14:00,ZHCC 261400Z 20002MPS 150V260 CAVOK 20/17 Q1015 NOSIG
ZHCC,2021-08-26 15:00,ZHCC 261500Z VRB01MPS CAVOK 20/17 Q1014 NOSIG
ZHCC,2021-08-26 16:00,ZHCC 261600Z VRB01MPS CAVOK 19/17 Q1014 NOSIG
ZHCC,2021-08-26 17:00,ZHCC 261700Z VRB01MPS CAVOK 19/17 Q1014 NOSIG
ZHCC,2021-08-26 18:00,ZHCC 261800Z VRB01MPS CAVOK 19/17 Q1013 NOSIG
ZHCC,2021-08-26 19:00,ZHCC 261900Z VRB01MPS CAVOK 18/17 Q1013 NOSIG
ZHCC,2021-08-26 20:00,ZHCC 262000Z 27001MPS CAVOK 18/17 Q1014 NOSIG
ZHCC,2021-08-26 21:00,ZHCC 262100Z VRB01MPS CAVOK 18/17 Q1013 NOSIG
ZHCC,2021-08-26 22:00,ZHCC 262200Z VRB01MPS CAVOK 18/17 Q1014 NOSIG
ZHCC,2021-08-26 23:00,ZHCC 262300Z 00000MPS 8000 NSC 19/17 Q1014 NOSIG
ZHCC,2021-08-27 00:00,ZHCC 270000Z 00000MPS 8000 NSC 20/18 Q1014 NOSIG
ZHCC,2021-08-27 01:00,ZHCC 270100Z VRB01MPS 8000 NSC 22/18 Q1014 NOSIG
ZHCC,2021-08-27 02:00,ZHCC 270200Z 20002MPS 130V250 CAVOK 23/16 Q1015 NOSIG
ZHCC,2021-08-27 03:00,ZHCC 270300Z 18002MPS 110V240 CAVOK 24/17 Q1015 NOSIG
ZHCC,2021-08-27 04:00,ZHCC 270400Z 15002MPS 100V210 CAVOK 24/17 Q1014 NOSIG
ZHCC,2021-08-27 05:00,ZHCC 270500Z 17002MPS 100V220 CAVOK 24/17 Q1014 NOSIG
ZHCC,2021-08-27 06:00,ZHCC 270600Z VRB02MPS CAVOK 25/18 Q1013 NOSIG
ZHCC,2021-08-27 07:00,ZHCC 270700Z 17002MPS 110V230 CAVOK 24/18 Q1013 NOSIG
ZHCC,2021-08-27 08:00,ZHCC 270800Z 19003MPS 120V240 CAVOK 25/18 Q1012 NOSIG
ZHCC,2021-08-27 09:00,ZHCC 270900Z 13003MPS 100V180 CAVOK 25/19 Q1012 NOSIG
ZHCC,2021-08-27 10:00,ZHCC 271000Z 15002MPS 080V220 CAVOK 23/19 Q1012 NOSIG
ZHCC,2021-08-27 11:00,ZHCC 271100Z 14002MPS 110V190 CAVOK 22/19 Q1013 NOSIG
ZHCC,2021-08-27 12:00,ZHCC 271200Z 13002MPS 100V160 CAVOK 20/18 Q1013 NOSIG
ZHCC,2021-08-27 13:00,ZHCC 271300Z 14002MPS 100V210 CAVOK 20/18 Q1014 NOSIG
ZHCC,2021-08-27 14:00,ZHCC 271400Z 15002MPS 090V210 8000 NSC 20/18 Q1014 NOSIG
ZHCC,2021-08-27 15:00,ZHCC 271500Z VRB01MPS 6000 NSC 19/18 Q1014 NOSIG
ZHCC,2021-08-27 16:00,ZHCC 271600Z VRB01MPS 5000 BR BKN030 19/18 Q1013 NOSIG
ZHCC,2021-08-27 17:00,ZHCC 271700Z VRB02MPS 3000 BR BKN020 19/18 Q1013 NOSIG
ZHCC,2021-08-27 18:00,ZHCC 271800Z VRB01MPS 4000 BR BKN020 19/18 Q1013 NOSIG
ZHCC,2021-08-27 19:00,ZHCC 271900Z VRB01MPS 4000 BR OVC020 19/18 Q1013 NOSIG
ZHCC,2021-08-27 20:00,ZHCC 272000Z VRB01MPS 3000 BR OVC020 19/18 Q1013 NOSIG
ZHCC,2021-08-27 21:00,ZHCC 272100Z VRB02MPS 2000 BR OVC020 19/19 Q1013 NOSIG
ZHCC,2021-08-27 22:00,ZHCC 272200Z 13002MPS 100V160 1500 BR OVC020 19/19 Q1013 BECMG TL2340 3000
ZHCC,2021-08-27 23:00,ZHCC 272300Z 12002MPS 090V160 2200 BR OVC020 20/19 Q1014 BECMG TL0040 3000
ZHCC,2021-08-28 00:00,ZHCC 280000Z 13003MPS 100V160 3500 BR FEW020 20/19 Q1013 NOSIG
ZHCC,2021-08-28 01:00,ZHCC 280100Z 18002MPS 120V220 6000 SCT020 21/19 Q1013 NOSIG
ZHCC,2021-08-28 02:00,ZHCC 280200Z 14002MPS 090V220 8000 SCT020 22/19 Q1014 NOSIG
ZHCC,2021-08-28 03:00,ZHCC 280300Z VRB01MPS 8000 SCT020 22/18 Q1014 NOSIG
ZHCC,2021-08-28 04:00,ZHCC 280400Z VRB01MPS 8000 FEW020 BKN040 23/18 Q1013 NOSIG
ZHCC,2021-08-28 05:00,ZHCC 280500Z VRB01MPS 8000 -RA OVC030 23/19 Q1013 NOSIG
ZHCC,2021-08-28 06:00,ZHCC 280600Z 13002MPS 100V160 6000 -RA OVC030 22/20 Q1013 NOSIG
ZHCC,2021-08-28 07:00,ZHCC 280700Z 13002MPS 6000 -RA OVC030 21/20 Q1013 NOSIG
ZHCC,2021-08-28 08:00,ZHCC 280800Z 13002MPS 100V170 6000 -RA OVC030 21/20 Q1013 NOSIG
ZHCC,2021-08-28 09:00,ZHCC 280900Z 11003MPS 090V150 6000 -RA OVC030 21/20 Q1012 NOSIG
ZHCC,2021-08-28 10:00,ZHCC 281000Z 11003MPS 6000 -RA OVC030 21/20 Q1012 NOSIG
ZHCC,2021-08-28 11:00,ZHCC 281100Z VRB01MPS 5000 -RA BR OVC030 21/20 Q1013 NOSIG
ZHCC,2021-08-28 12:00,ZHCC 281200Z 33002MPS 280V010 6000 RA SCT010 OVC030 20/19 Q1013 BECMG TL1240 -RA
ZHCC,2021-08-28 13:00,ZHCC 281300Z VRB01MPS 6000 -RA SCT010 OVC030 19/19 Q1014 RERA NOSIG
ZHCC,2021-08-28 14:00,ZHCC 281400Z VRB01MPS 6000 -RA SCT005 OVC030 19/19 Q1014 NOSIG
ZHCC,2021-08-28 15:00,ZHCC 281500Z 29001MPS 4000 -RA BR SCT005 OVC030 19/19 Q1014 NOSIG
ZHCC,2021-08-28 16:00,ZHCC 281600Z 05002MPS 020V090 4000 -RA BR SCT005 OVC030 20/19 Q1014 NOSIG
ZHCC,2021-08-28 17:00,ZHCC 281700Z VRB01MPS 8000 -RA SCT005 OVC030 20/19 Q1013 NOSIG
ZHCC,2021-08-28 18:00,ZHCC 281800Z 04002MPS 8000 -RA SCT005 OVC030 20/19 Q1013 NOSIG
ZHCC,2021-08-28 19:00,ZHCC 281900Z 01002MPS 330V040 8000 RA SCT005 OVC030 20/19 Q1013 NOSIG
ZHCC,2021-08-28 20:00,ZHCC 282000Z 04002MPS 7000 -RA SCT005 OVC030 20/19 Q1012 RERA NOSIG
ZHCC,2021-08-28 21:00,ZHCC 282100Z 05003MPS 7000 -RA SCT005 OVC030 20/19 Q1012 NOSIG
ZHCC,2021-08-28 22:00,ZHCC 282200Z 05003MPS 5000 -RA BR SCT005 OVC030 20/19 Q1012 NOSIG
ZHCC,2021-08-28 23:00,ZHCC 282300Z 05003MPS 5000 -RA BR SCT004 OVC030 20/20 Q1013 NOSIG
ZHCC,2021-08-29 00:00,ZHCC 290000Z 04004MPS 3000 -RA BR SCT004 OVC030 20/20 Q1013 NOSIG
ZHCC,2021-08-29 01:00,ZHCC 290100Z 04003MPS 1600 -RA BR SCT004 OVC020 20/20 Q1013 NOSIG
ZHCC,2021-08-29 02:00,ZHCC 290200Z 05004MPS 2000 -RA BR SCT004 OVC020 21/20 Q1013 NOSIG
ZHCC,2021-08-29 03:00,ZHCC 290300Z 06005MPS 2500 -SHRA BR SCT004 FEW020CB BKN020 21/20 Q1012 BECMG TL0440 SHRA
ZHCC,2021-08-29 04:00,ZHCC 290400Z 06008MPS 2000 SHRA BR SCT004 FEW020CB BKN020 21/20 Q1011 BECMG TL0440 1000 +SHRA
ZHCC,2021-08-29 05:00,ZHCC 290500Z 01004MPS 2500 -SHRA BR SCT004 FEW020CB BKN020 21/20 Q1012 RETSRA BECMG TL0640 3000
ZHCC,2021-08-29 06:00,ZHCC 290600Z 03006MPS 360V060 4000 SHRA BR SCT006 FEW020CB BKN020 21/20 Q1011 BECMG TL0740 -SHRA
ZHCC,2021-08-29 07:00,ZHCC 290700Z 02006MPS 330V050 3000 SHRA BR SCT006 FEW020CB BKN020 21/20 Q1011 BECMG TL0740 1600 +SHRA
ZHCC,2021-08-29 08:00,ZHCC 290800Z 01005MPS 4000 -SHRA BR SCT006 FEW020CB BKN020 21/20 Q1011 RESHRA BECMG TL0840 SHRA
ZHCC,2021-08-29 09:00,ZHCC 290900Z 01004MPS 340V040 4000 -SHRA BR SCT006 FEW020CB BKN020 21/20 Q1011 RESHRA NOSIG
ZHCC,2021-08-29 10:00,ZHCC 291000Z 01004MPS 340V040 6000 SCT006 OVC030 21/20 Q1011 NOSIG
ZHCC,2021-08-29 11:00,ZHCC 291100Z 35004MPS 320V020 6000 -RA SCT006 OVC030 21/20 Q1012 NOSIG
ZHCC,2021-08-29 12:00,ZHCC 291200Z 34004MPS 6000 -RA SCT006 OVC030 21/20 Q1012 NOSIG
ZHCC,2021-08-29 13:00,ZHCC 291300Z 35004MPS 5000 -RA BR SCT005 OVC030 20/20 Q1013 NOSIG
ZHCC,2021-08-29 14:00,ZHCC 291400Z 36004MPS 4000 -RA BR SCT005 OVC030 21/20 Q1013 NOSIG
ZHCC,2021-08-29 15:00,ZHCC 291500Z 36004MPS 330V030 4000 -RA BR SCT005 OVC030 20/20 Q1013 NOSIG
ZHCC,2021-08-29 16:00,ZHCC 291600Z 35003MPS 4000 -RA BR SCT005 OVC030 20/20 Q1013 NOSIG
ZHCC,2021-08-29 17:00,ZHCC 291700Z 36003MPS 3000 -RA BR SCT004 OVC020 20/20 Q1013 NOSIG
ZHCC,2021-08-29 18:00,ZHCC 291800Z 01003MPS 3000 RA BR SCT004 OVC020 21/20 Q1013 NOSIG
ZHCC,2021-08-29 19:00,ZHCC 291900Z 02003MPS 330V070 3000 -RA BR SCT004 OVC020 21/20 Q1013 RERA NOSIG
ZHCC,2021-08-29 20:00,ZHCC 292000Z 01002MPS 340V040 3000 SHRA BR SCT004 FEW020CB BKN020 20/20 Q1013 NOSIG
ZHCC,2021-08-29 21:00,ZHCC 292100Z 02003MPS 350V050 3000 SHRA BR SCT004 FEW020CB BKN020 20/20 Q1013 NOSIG
ZHCC,2021-08-29 22:00,ZHCC 292200Z 02004MPS 360V060 4000 -SHRA BR SCT005 FEW020CB BKN020 20/20 Q1013 RESHRA NOSIG
ZHCC,2021-08-29 23:00,ZHCC 292300Z 03004MPS 4000 -SHRA BR SCT004 FEW020CB BKN020 21/20 Q1013 NOSIG
ZHCC,2021-08-30 00:00,ZHCC 300000Z 03005MPS 4000 -SHRA BR SCT004 FEW020CB BKN020 21/20 Q1013 BECMG TL0140 SHRA
ZHCC,2021-08-30 01:00,ZHCC 300100Z 04005MPS 010V070 4000 -RA BR SCT005 OVC020 21/20 Q1013 NOSIG
ZHCC,2021-08-30 02:00,ZHCC 300200Z 04005MPS 4000 RA BR SCT006 OVC020 21/21 Q1014 BECMG TL0220 -RA
ZHCC,2021-08-30 03:00,ZHCC 300300Z 03005MPS 360V070 4000 RA BR SCT006 OVC020 21/20 Q1013 NOSIG
ZHCC,2021-08-30 04:00,ZHCC 300400Z 04004MPS 4000 RA BR SCT006 OVC020 21/21 Q1013 BECMG TL0540 -RA
ZHCC,2021-08-30 05:00,ZHCC 300500Z 03004MPS 4000 RA BR SCT006 OVC020 21/21 Q1013 BECMG TL0540 -RA
ZHCC,2021-08-30 06:00,ZHCC 300600Z 04003MPS 4000 RA BR SCT006 OVC020 21/21 Q1012 BECMG TL0640 -RA
ZHCC,2021-08-30 07:00,ZHCC 300700Z 04004MPS 7000 -RA SCT006 OVC020 22/21 Q1012 RERA NOSIG
ZHCC,2021-08-30 08:00,ZHCC 300800Z 02003MPS 350V050 8000 -RA SCT006 OVC020 22/21 Q1012 NOSIG
ZHCC,2021-08-30 09:00,ZHCC 300900Z 03004MPS 8000 SCT006 OVC020 22/21 Q1012 NOSIG
ZHCC,2021-08-30 10:00,ZHCC 301000Z 04004MPS 010V070 5000 -RA BR SCT005 OVC020 22/21 Q1012 NOSIG
ZHCC,2021-08-30 11:00,ZHCC 301100Z 03004MPS 5000 BR SCT004 OVC020 22/21 Q1012 NOSIG
ZHCC,2021-08-30 12:00,ZHCC 301200Z 04003MPS 3000 -RA BR BKN004 OVC020 22/21 Q1013 NOSIG
ZHCC,2021-08-30 13:00,ZHCC 301300Z 02003MPS 2000 -DZ BR OVC003 22/21 Q1013 NOSIG
ZHCC,2021-08-30 14:00,ZHCC 301400Z 01003MPS 2000 -DZ BR OVC003 22/21 Q1013 NOSIG
ZHCC,2021-08-30 15:00,ZHCC 301500Z 01003G09MPS 340V040 2000 -DZ BR OVC003 21/21 Q1012 NOSIG
ZHCC,2021-08-30 16:00,ZHCC 301600Z 03002MPS 360V060 2000 -DZ BR OVC003 21/21 Q1012 NOSIG
ZHCC,2021-08-30 17:00,ZHCC 301700Z 02003MPS 340V050 1500 R30L/1800N R30R/1400N BR OVC002 FEW020CB 21/21 Q1011 NOSIG
ZHCC,2021-08-30 18:00,ZHCC 301800Z 04002MPS 010V080 2500 SHRA BR BKN002 FEW020CB BKN020 21/21 Q1011 BECMG TL1900 -RA
ZHCC,2021-08-30 19:00,ZHCC 301900Z 07002MPS 040V120 4000 -SHRA BR SCT004 FEW020CB BKN020 21/21 Q1011 RESHRA NOSIG
ZHCC,2021-08-30 20:00,ZHCC 302000Z 05003MPS 4000 BR SCT004 OVC020 21/21 Q1011 NOSIG
ZHCC,2021-08-30 21:00,ZHCC 302100Z 35002MPS 310V040 3000 BR SCT004 OVC020 21/21 Q1011 NOSIG
ZHCC,2021-08-30 22:00,ZHCC 302200Z 34003MPS 320V020 4000 -RA BR FEW004 OVC020 21/21 Q1012 NOSIG
ZHCC,2021-08-30 23:00,ZHCC 302300Z 01005MPS 320V050 7000 -RA SCT007 OVC020 21/21 Q1013 NOSIG
ZHCC,2021-08-31 00:00,ZHCC 310000Z 36003MPS 330V030 9999 SCT007 OVC020 22/21 Q1013 NOSIG
ZHCC,2021-08-31 01:00,ZHCC 310100Z 01006G11MPS 330V050 9999 SCT007 OVC020 22/20 Q1013 NOSIG
ZHCC,2021-08-31 02:00,ZHCC 310200Z 34004MPS 9999 SCT007 OVC020 22/21 Q1014 NOSIG
ZHCC,2021-08-31 03:00,ZHCC 310300Z 01004MPS 340V040 9999 SCT007 OVC020 23/20 Q1014 NOSIG
ZHCC,2021-08-31 04:00,ZHCC 310400Z 36005MPS 310V030 9999 SCT007 OVC020 24/20 Q1014 NOSIG
ZHCC,2021-08-31 05:00,ZHCC 310500Z 35005MPS 330V030 9999 SCT007 OVC020 24/20 Q1013 NOSIG
ZHCC,2021-08-31 06:00,ZHCC 310600Z 02006MPS 350V050 9999 SCT007 OVC020 24/20 Q1014 NOSIG
ZHCC,2021-08-31 07:00,ZHCC 310700Z 02006MPS 350V050 9999 SCT007 OVC020 23/19 Q1014 NOSIG
ZHCC,2021-08-31 08:00,ZHCC 310800Z 03007G12MPS 360V060 9999 SCT007 OVC020 23/19 Q1014 NOSIG
ZHCC,2021-08-31 09:00,ZHCC 310900Z 02007G12MPS 350V060 9999 SCT007 BKN020 23/18 Q1014 NOSIG
ZHCC,2021-08-31 10:00,ZHCC 311000Z 03006MPS 9999 OVC020 22/18 Q1014 NOSIG
ZHCC,2021-08-31 11:00,ZHCC 311100Z 02006MPS 350V050 9999 OVC020 22/18 Q1014 NOSIG
ZHCC,2021-08-31 12:00,ZHCC 311200Z 01006MPS 340V040 9999 OVC020 21/17 Q1015 NOSIG
ZHCC,2021-08-31 13:00,ZHCC 311300Z 01006MPS 9999 OVC020 21/18 Q1016 NOSIG
ZHCC,2021-08-31 14:00,ZHCC 311400Z VRB05MPS 9999 -RA OVC020 20/18 Q1016 NOSIG
ZHCC,2021-08-31 15:00,ZHCC 311500Z 01004MPS 9999 OVC020 20/18 Q1016 NOSIG
ZHCC,2021-08-31 16:00,ZHCC 311600Z 35004MPS 9999 OVC020 20/18 Q1015 NOSIG
ZHCC,2021-08-31 17:00,ZHCC 311700Z 35005MPS 320V020 9999 OVC020 20/19 Q1015 NOSIG
ZHCC,2021-08-31 18:00,ZHCC 311800Z 01005MPS 7000 OVC020 20/18 Q1014 NOSIG
ZHCC,2021-08-31 19:00,ZHCC 311900Z 36005MPS 7000 OVC020 20/18 Q1014 NOSIG
ZHCC,2021-08-31 20:00,ZHCC 312000Z 01004MPS 340V050 7000 OVC020 20/18 Q1014 NOSIG
ZHCC,2021-08-31 21:00,ZHCC 312100Z 01005G13MPS 320V070 7000 OVC020 20/18 Q1015 NOSIG
ZHCC,2021-08-31 22:00,ZHCC 312200Z 35003G09MPS 230V030 7000 -RA OVC020 19/18 Q1015 NOSIG
ZHCC,2021-08-31 23:00,ZHCC 312300Z 01004MPS 4000 -RA BR OVC020 19/18 Q1015 NOSIG
ZHCC,2021-09-01 00:00,ZHCC 010000Z 01003G09MPS 310V050 4000 -RA BR OVC020 19/18 Q1016 NOSIG
ZHCC,2021-09-01 01:00,ZHCC 010100Z 36002MPS 310V040 4000 -RA BR SCT008 OVC020 19/18 Q1016 NOSIG
ZHCC,2021-09-01 02:00,ZHCC 010200Z 01003MPS 330V050 4000 -RA BR SCT008 OVC020 19/18 Q1016 NOSIG
ZHCC,2021-09-01 03:00,ZHCC 010300Z VRB03G08MPS 1700 RA BR SCT008 OVC020 19/18 Q1015 BECMG TL0440 3000 -RA
ZHCC,2021-09-01 04:00,ZHCC 010400Z 35003MPS 320V020 3000 -RA BR SCT007 OVC020 20/19 Q1015 RERA BECMG TL0420 2000 RA
ZHCC,2021-09-01 05:00,ZHCC 010500Z 35003MPS 320V020 3000 SHRA BR SCT007 FEW020CB BKN020 20/19 Q1014 BECMG TL0620 -SHRA
ZHCC,2021-09-01 06:00,ZHCC 010600Z 32004MPS 3000 -RA BR SCT007 OVC020 20/19 Q1014 RESHRA NOSIG
ZHCC,2021-09-01 07:00,ZHCC 010700Z 31004MPS 2500 -RA BR SCT007 OVC020 20/19 Q1014 BECMG TL0840 3000
ZHCC,2021-09-01 08:00,ZHCC 010800Z 32003MPS 2500 -RA BR SCT007 OVC030 20/20 Q1013 RERA BECMG TL0840 3000
ZHCC,2021-09-01 09:00,ZHCC 010900Z 33003MPS 5000 BR FEW007 BKN046 21/20 Q1013 NOSIG
ZHCC,2021-09-01 10:00,ZHCC 011000Z 32003MPS 7000 NSC 21/19 Q1013 NOSIG
ZHCC,2021-09-01 11:00,ZHCC 011100Z 22002MPS 180V260 7000 SCT046 21/19 Q1013 NOSIG
ZHCC,2021-09-01 12:00,ZHCC 011200Z 31002MPS 7000 BKN040 20/19 Q1013 NOSIG
ZHCC,2021-09-01 13:00,ZHCC 011300Z 29002MPS 6000 FEW040 20/19 Q1014 NOSIG
ZHCC,2021-09-01 14:00,ZHCC 011400Z 23001MPS 5000 BR FEW040 20/19 Q1014 NOSIG
ZHCC,2021-09-01 15:00,ZHCC 011500Z 26002MPS 230V290 5000 BR FEW040 20/19 Q1013 NOSIG
ZHCC,2021-09-01 16:00,ZHCC 011600Z 26001MPS 6000 NSC 20/19 Q1013 NOSIG
ZHCC,2021-09-01 17:00,ZHCC 011700Z VRB01MPS 6000 NSC 19/18 Q1013 NOSIG
ZHCC,2021-09-01 18:00,ZHCC 011800Z 29001MPS 6000 NSC 19/18 Q1012 NOSIG
ZHCC,2021-09-01 19:00,ZHCC 011900Z VRB01MPS 6000 NSC 19/18 Q1012 NOSIG
ZHCC,2021-09-01 20:00,ZHCC 012000Z 25002MPS 220V280 6000 NSC 18/17 Q1012 NOSIG
ZHCC,2021-09-01 21:00,ZHCC 012100Z VRB01MPS 5000 BR NSC 17/17 Q1012 NOSIG
ZHCC,2021-09-01 22:00,ZHCC 012200Z 22001MPS 3000 BR NSC 18/17 Q1012 BECMG TL2320 2000
ZHCC,2021-09-01 23:00,ZHCC 012300Z 27002MPS 250V320 5000 BR NSC 19/18 Q1012 NOSIG
ZHCC,2021-09-02 00:00,ZHCC 020000Z 26002MPS 230V290 7000 NSC 21/18 Q1012 NOSIG
ZHCC,2021-09-02 01:00,ZHCC 020100Z VRB01MPS CAVOK 23/19 Q1012 NOSIG
ZHCC,2021-09-02 02:00,ZHCC 020200Z 28002MPS 230V350 CAVOK 25/19 Q1012 NOSIG
ZHCC,2021-09-02 03:00,ZHCC 020300Z 32002MPS CAVOK 27/18 Q1012 NOSIG
ZHCC,2021-09-02 04:00,ZHCC 020400Z VRB02MPS CAVOK 28/19 Q1011 NOSIG
ZHCC,2021-09-02 05:00,ZHCC 020500Z 30002MPS 230V360 CAVOK 29/19 Q1010 NOSIG
ZHCC,2021-09-02 06:00,ZHCC 020600Z VRB02MPS CAVOK 29/19 Q1010 NOSIG
ZHCC,2021-09-02 07:00,ZHCC 020700Z VRB01MPS 9999 FEW030 30/19 Q1009 NOSIG
ZHCC,2021-09-02 08:00,ZHCC 020800Z VRB01MPS 9999 FEW030 30/20 Q1008 NOSIG
ZHCC,2021-09-02 09:00,ZHCC 020900Z VRB01MPS CAVOK 29/21 Q1008 NOSIG
ZHCC,2021-09-02 10:00,ZHCC 021000Z 13002MPS 100V160 CAVOK 27/21 Q1008 NOSIG
ZHCC,2021-09-02 11:00,ZHCC 021100Z 13002MPS 110V190 CAVOK 25/21 Q1008 NOSIG
ZHCC,2021-09-02 12:00,ZHCC 021200Z VRB01MPS CAVOK 25/21 Q1009 NOSIG
ZHCC,2021-09-02 13:00,ZHCC 021300Z VRB01MPS CAVOK 24/20 Q1009 NOSIG
ZHCC,2021-09-02 14:00,ZHCC 021400Z VRB01MPS CAVOK 23/21 Q1009 NOSIG
ZHCC,2021-09-02 15:00,ZHCC 021500Z VRB01MPS CAVOK 23/21 Q1009 NOSIG
ZHCC,2021-09-02 16:00,ZHCC 021600Z VRB01MPS CAVOK 22/20 Q1009 NOSIG
ZHCC,2021-09-02 17:00,ZHCC 021700Z 20001MPS CAVOK 22/20 Q1009 NOSIG
ZHCC,2021-09-02 18:00,ZHCC 021800Z 00000MPS CAVOK 22/20 Q1009 NOSIG
ZHCC,2021-09-02 19:00,ZHCC 021900Z 00000MPS 5000 BR NSC 21/20 Q1008 NOSIG
ZHCC,2021-09-02 20:00,ZHCC 022000Z VRB01MPS 5000 BR NSC 20/20 Q1008 NOSIG
ZHCC,2021-09-02 21:00,ZHCC 022100Z 00000MPS 3500 BR NSC 20/19 Q1008 BECMG TL2240 2000
ZHCC,2021-09-02 22:00,ZHCC 022200Z VRB01MPS 3000 BR NSC 20/20 Q1008 BECMG TL2340 2000
ZHCC,2021-09-02 23:00,ZHCC 022300Z 00000MPS 2000 BR NSC 21/20 Q1008 BECMG TL0040 3000
ZHCC,2021-09-03 00:00,ZHCC 030000Z 19002MPS 150V260 4000 BR NSC 24/21 Q1008 NOSIG
ZHCC,2021-09-03 01:00,ZHCC 030100Z 19003MPS 140V230 6000 NSC 25/21 Q1009 NOSIG
ZHCC,2021-09-03 02:00,ZHCC 030200Z 14003MPS 100V190 8000 NSC 26/21 Q1009 NOSIG
ZHCC,2021-09-03 03:00,ZHCC 030300Z 18003MPS 100V230 8000 FEW030 27/21 Q1009 NOSIG
ZHCC,2021-09-03 04:00,ZHCC 030400Z 19002MPS 100V270 9999 FEW030 27/22 Q1008 NOSIG
ZHCC,2021-09-03 05:00,ZHCC 030500Z VRB02MPS 9999 FEW030 28/21 Q1007 NOSIG
ZHCC,2021-09-03 06:00,ZHCC 030600Z 13002MPS 090V190 9999 FEW030 28/21 Q1007 NOSIG
ZHCC,2021-09-03 07:00,ZHCC 030700Z 12003MPS 090V150 9999 FEW030 27/21 Q1006 NOSIG
ZHCC,2021-09-03 08:00,ZHCC 030800Z 13002MPS 080V170 9999 FEW030 27/21 Q1007 NOSIG
ZHCC,2021-09-03 09:00,ZHCC 030900Z 07001MPS 9999 -RA OVC040 25/23 Q1007 NOSIG
ZHCC,2021-09-03 10:00,ZHCC 031000Z 01003MPS 340V070 6000 -RA OVC030 25/22 Q1007 RERA NOSIG
ZHCC,2021-09-03 11:00,ZHCC 031100Z 01003MPS 8000 OVC030 24/21 Q1007 NOSIG
ZHCC,2021-09-03 12:00,ZHCC 031200Z 06004MPS 9999 OVC040 24/21 Q1007 NOSIG
ZHCC,2021-09-03 13:00,ZHCC 031300Z 07004MPS 9999 OVC040 24/22 Q1008 NOSIG
ZHCC,2021-09-03 14:00,ZHCC 031400Z 10003MPS 8000 -RA OVC040 24/22 Q1008 NOSIG
ZHCC,2021-09-03 15:00,ZHCC 031500Z 07003MPS 6000 -RA OVC040 24/22 Q1008 NOSIG
ZHCC,2021-09-03 16:00,ZHCC 031600Z 05003MPS 6000 -RA OVC030 23/22 Q1008 NOSIG
ZHCC,2021-09-03 17:00,ZHCC 031700Z 07005MPS 4000 -RA BR SCT006 OVC030 22/21 Q1008 NOSIG
ZHCC,2021-09-03 18:00,ZHCC 031800Z 07006MPS 4000 -RA BR SCT006 OVC030 22/20 Q1007 NOSIG
ZHCC,2021-09-03 19:00,ZHCC 031900Z 06006MPS 4000 RA BR SCT006 OVC020 21/20 Q1007 NOSIG
ZHCC,2021-09-03 20:00,ZHCC 032000Z 05006MPS 7000 -RA FEW006 OVC020 21/20 Q1006 RERA NOSIG
ZHCC,2021-09-03 21:00,ZHCC 032100Z 07007MPS 7000 -RA FEW006 OVC020 21/19 Q1006 NOSIG
ZHCC,2021-09-03 22:00,ZHCC 032200Z 07007MPS 7000 -RA SCT010 OVC020 20/19 Q1006 NOSIG
ZHCC,2021-09-03 23:00,ZHCC 032300Z 05004MPS 020V080 3000 BR SCT007 OVC020 20/20 Q1007 RESHRA NOSIG
ZHCC,2021-09-04 00:00,ZHCC 040000Z 02004MPS 350V050 6000 FEW007 OVC020 20/19 Q1007 NOSIG
ZHCC,2021-09-04 01:00,ZHCC 040100Z 01004MPS 340V050 5000 -RA BR FEW007 OVC020 20/19 Q1007 NOSIG
ZHCC,2021-09-04 02:00,ZHCC 040200Z 35005MPS 320V020 4000 -RA BR SCT005 OVC020 20/20 Q1008 NOSIG
ZHCC,2021-09-04 03:00,ZHCC 040300Z 33006MPS 260V010 4000 -RA BR SCT005 OVC020 20/19 Q1008 NOSIG
ZHCC,2021-09-04 04:00,ZHCC 040400Z 01006G11MPS 340V040 7000 -RA SCT008 OVC020 21/20 Q1008 RERA NOSIG
ZHCC,2021-09-04 05:00,ZHCC 040500Z 01006MPS 340V040 8000 -RA SCT010 OVC020 21/19 Q1008 NOSIG
ZHCC,2021-09-04 06:00,ZHCC 040600Z 01006MPS 340V050 9999 -RA SCT010 OVC020 20/19 Q1008 NOSIG
ZHCC,2021-09-04 07:00,ZHCC 040700Z 35007MPS 9999 -RA SCT010 OVC020 20/18 Q1009 NOSIG
ZHCC,2021-09-04 08:00,ZHCC 040800Z 35006G14MPS 240V020 9999 -RA SCT010 OVC020 20/18 Q1009 NOSIG
ZHCC,2021-09-04 09:00,ZHCC 040900Z 35006MPS 6000 -RA SCT010 OVC020 19/18 Q1010 NOSIG
ZHCC,2021-09-04 10:00,ZHCC 041000Z 36005MPS 320V020 6000 SCT010 OVC020 19/18 Q1011 NOSIG
ZHCC,2021-09-04 11:00,ZHCC 041100Z 36006MPS 320V030 8000 SCT010 OVC020 19/18 Q1011 NOSIG
ZHCC,2021-09-04 12:00,ZHCC 041200Z 01005MPS 8000 SCT010 OVC020 19/18 Q1012 NOSIG
ZHCC,2021-09-04 13:00,ZHCC 041300Z 01005MPS 340V040 9999 SCT010 OVC020 19/18 Q1012 NOSIG
ZHCC,2021-09-04 14:00,ZHCC 041400Z 36004MPS 340V040 9999 SCT007 OVC020 19/18 Q1013 NOSIG
ZHCC,2021-09-04 15:00,ZHCC 041500Z 36004MPS 330V030 9999 SCT007 OVC020 19/18 Q1013 NOSIG
ZHCC,2021-09-04 16:00,ZHCC 041600Z 34003MPS 9999 SCT007 OVC020 20/18 Q1013 NOSIG
ZHCC,2021-09-04 17:00,ZHCC 041700Z 01004MPS 340V050 9999 SCT007 OVC020 19/18 Q1013 NOSIG
ZHCC,2021-09-04 18:00,ZHCC 041800Z 01004MPS 9999 SCT007 OVC020 20/18 Q1013 NOSIG
ZHCC,2021-09-04 19:00,ZHCC 041900Z 36004MPS 9999 SCT007 OVC020 20/17 Q1013 NOSIG
ZHCC,2021-09-04 20:00,ZHCC 042000Z 36003MPS 9999 OVC030 20/17 Q1012 NOSIG
ZHCC,2021-09-04 21:00,ZHCC 042100Z 33003MPS 9999 OVC030 19/17 Q1013 NOSIG
ZHCC,2021-09-04 22:00,ZHCC 042200Z 35002MPS 320V020 7000 OVC033 20/18 Q1013 NOSIG
ZHCC,2021-09-04 23:00,ZHCC 042300Z 01003MPS 340V040 7000 -RA FEW046 20/17 Q1014 NOSIG
ZHCC,2021-09-05 00:00,ZHCC 050000Z 36004MPS 7000 NSC 21/18 Q1015 NOSIG
ZHCC,2021-09-05 01:00,ZHCC 050100Z 02005MPS 340V050 8000 NSC 21/18 Q1015 NOSIG
ZHCC,2021-09-05 02:00,ZHCC 050200Z 02004MPS 350V050 CAVOK 23/18 Q1015 NOSIG
ZHCC,2021-09-05 03:00,ZHCC 050300Z 36005G16MPS 320V130 9999 SCT020 23/18 Q1015 NOSIG
ZHCC,2021-09-05 04:00,ZHCC 050400Z 34005MPS 310V010 9999 SCT020 24/19 Q1015 NOSIG
ZHCC,2021-09-05 05:00,ZHCC 050500Z 35004MPS 300V050 9999 SCT020 25/18 Q1014 NOSIG
ZHCC,2021-09-05 06:00,ZHCC 050600Z 03005MPS 350V060 9999 SCT030 25/18 Q1014 NOSIG
ZHCC,2021-09-05 07:00,ZHCC 050700Z 03004MPS 360V060 9999 BKN030 25/18 Q1014 NOSIG
ZHCC,2021-09-05 08:00,ZHCC 050800Z 02004MPS 350V060 9999 BKN030 25/19 Q1014 NOSIG
ZHCC,2021-09-05 09:00,ZHCC 050900Z 04004MPS 360V080 9999 BKN040 24/19 Q1014 NOSIG
ZHCC,2021-09-05 10:00,ZHCC 051000Z 02004MPS 350V050 7000 BKN040 24/19 Q1014 NOSIG
ZHCC,2021-09-05 11:00,ZHCC 051100Z 03005MPS 350V060 7000 SCT026 BKN040 23/19 Q1015 NOSIG
ZHCC,2021-09-05 12:00,ZHCC 051200Z 03006MPS 350V060 9999 SCT020 BKN040 23/18 Q1016 NOSIG
ZHCC,2021-09-05 13:00,ZHCC 051300Z 03005MPS 9999 SCT020 BKN040 22/19 Q1017 NOSIG
ZHCC,2021-09-05 14:00,ZHCC 051400Z 03004MPS 350V060 9999 BKN020 OVC040 22/19 Q1017 NOSIG
ZHCC,2021-09-05 15:00,ZHCC 051500Z 03005MPS 9999 BKN020 OVC030 22/19 Q1017 NOSIG
ZHCC,2021-09-05 16:00,ZHCC 051600Z 01004MPS 340V050 9999 BKN020 OVC030 22/19 Q1017 NOSIG
ZHCC,2021-09-05 17:00,ZHCC 051700Z 34004MPS 8000 -RA FEW010 OVC020 21/19 Q1016 NOSIG
ZHCC,2021-09-05 18:00,ZHCC 051800Z 36005MPS 5000 -RA BR SCT010 OVC020 21/19 Q1016 NOSIG
ZHCC,2021-09-05 19:00,ZHCC 051900Z 34004MPS 5000 -RA BR SCT010 OVC020 20/19 Q1016 NOSIG
ZHCC,2021-09-05 20:00,ZHCC 052000Z 32004MPS 4000 -RA BR SCT007 OVC020 20/19 Q1017 NOSIG
ZHCC,2021-09-05 21:00,ZHCC 052100Z 33003MPS 300V360 4000 SHRA BR SCT007 FEW020TCU BKN020 20/19 Q1016 NOSIG
ZHCC,2021-09-05 22:00,ZHCC 052200Z 31003MPS 4000 -SHRA BR SCT007 FEW020TCU BKN020 20/19 Q1017 RESHRA NOSIG
ZHCC,2021-09-05 23:00,ZHCC 052300Z 35003MPS 4000 -RA BR SCT007 OVC020 20/20 Q1017 NOSIG
ZHCC,2021-09-06 00:00,ZHCC 060000Z 33002MPS 300V020 4000 -RA BR SCT007 OVC030 21/20 Q1017 NOSIG
ZHCC,2021-09-06 01:00,ZHCC 060100Z 33003MPS 3000 BR OVC020 21/20 Q1018 NOSIG
ZHCC,2021-09-06 02:00,ZHCC 060200Z 33004MPS 310V010 8000 SCT008 OVC030 23/20 Q1018 NOSIG
ZHCC,2021-09-06 03:00,ZHCC 060300Z 32004MPS 290V350 9999 FEW020 BKN033 25/20 Q1018 NOSIG
ZHCC,2021-09-06 04:00,ZHCC 060400Z 32004MPS 9999 FEW020 BKN033 25/20 Q1018 NOSIG
ZHCC,2021-09-06 05:00,ZHCC 060500Z 32004MPS 9999 BKN020 25/20 Q1017 NOSIG
ZHCC,2021-09-06 06:00,ZHCC 060600Z 32002MPS 290V350 9999 BKN030 25/20 Q1017 NOSIG
ZHCC,2021-09-06 07:00,ZHCC 060700Z 33003MPS 280V030 9999 SCT040 25/20 Q1016 NOSIG
ZHCC,2021-09-06 08:00,ZHCC 060800Z 34002MPS 290V020 9999 SCT040 25/19 Q1016 NOSIG
ZHCC,2021-09-06 09:00,ZHCC 060900Z 34002MPS 320V020 9999 BKN030 25/20 Q1016 NOSIG
ZHCC,2021-09-06 10:00,ZHCC 061000Z VRB03MPS 8000 NSC 24/20 Q1016 NOSIG
ZHCC,2021-09-06 11:00,ZHCC 061100Z 07002MPS 8000 NSC 24/20 Q1016 NOSIG
ZHCC,2021-09-06 12:00,ZHCC 061200Z 07003MPS 8000 OVC040 23/20 Q1017 NOSIG
ZHCC,2021-09-06 13:00,ZHCC 061300Z 07003MPS 8000 OVC040 22/20 Q1018 NOSIG
ZHCC,2021-09-06 14:00,ZHCC 061400Z VRB01MPS 9999 -RA OVC040 22/20 Q1018 NOSIG
ZHCC,2021-09-06 15:00,ZHCC 061500Z VRB01MPS 9999 BKN026 21/20 Q1018 NOSIG
ZHCC,2021-09-06 16:00,ZHCC 061600Z VRB01MPS 9999 BKN030 22/20 Q1018 NOSIG
ZHCC,2021-09-06 17:00,ZHCC 061700Z 33002MPS 300V360 9999 BKN030 22/19 Q1018 NOSIG
ZHCC,2021-09-06 18:00,ZHCC 061800Z 01002MPS 340V040 9999 BKN030 22/19 Q1018 NOSIG
ZHCC,2021-09-06 19:00,ZHCC 061900Z VRB01MPS 9999 BKN033 22/19 Q1018 NOSIG
ZHCC,2021-09-06 20:00,ZHCC 062000Z 03002MPS 360V080 9999 BKN033 21/19 Q1017 NOSIG
ZHCC,2021-09-06 21:00,ZHCC 062100Z 24001MPS 9999 BKN033 20/19 Q1018 NOSIG
ZHCC,2021-09-06 22:00,ZHCC 062200Z 23001MPS 7000 BKN033 20/19 Q1018 NOSIG
ZHCC,2021-09-06 23:00,ZHCC 062300Z 29001MPS 7000 NSC 20/19 Q1018 NOSIG
ZHCC,2021-09-07 00:00,ZHCC 070000Z VRB01MPS 8000 NSC 21/19 Q1018 NOSIG
ZHCC,2021-09-07 01:00,ZHCC 070100Z 00000MPS 8000 NSC 22/19 Q1018 NOSIG
ZHCC,2021-09-07 02:00,ZHCC 070200Z VRB01MPS 8000 NSC 24/19 Q1018 NOSIG
ZHCC,2021-09-07 03:00,ZHCC 070300Z VRB02MPS 8000 FEW030 26/20 Q1017 NOSIG
ZHCC,2021-09-07 04:00,ZHCC 070400Z 30002MPS 250V350 9999 FEW030 27/19 Q1017 NOSIG
ZHCC,2021-09-07 05:00,ZHCC 070500Z 18002MPS 110V250 9999 FEW030 27/19 Q1016 NOSIG
ZHCC,2021-09-07 06:00,ZHCC 070600Z VRB02MPS 9999 FEW030 27/19 Q1015 NOSIG
ZHCC,2021-09-07 07:00,ZHCC 070700Z 16002MPS 090V220 CAVOK 27/18 Q1014 NOSIG
ZHCC,2021-09-07 08:00,ZHCC 070800Z VRB02MPS CAVOK 27/19 Q1014 NOSIG
ZHCC,2021-09-07 09:00,ZHCC 070900Z 18002MPS 110V230 CAVOK 27/20 Q1014 NOSIG
ZHCC,2021-09-07 10:00,ZHCC 071000Z 19002MPS 130V230 CAVOK 26/19 Q1014 NOSIG
ZHCC,2021-09-07 11:00,ZHCC 071100Z VRB01MPS CAVOK 24/19 Q1013 NOSIG
ZHCC,2021-09-07 12:00,ZHCC 071200Z 18002MPS 100V230 CAVOK 23/20 Q1014 NOSIG
ZHCC,2021-09-07 13:00,ZHCC 071300Z VRB01MPS CAVOK 22/20 Q1014 NOSIG
ZHCC,2021-09-07 14:00,ZHCC 071400Z 20002MPS 160V240 CAVOK 22/19 Q1014 NOSIG
ZHCC,2021-09-07 15:00,ZHCC 071500Z VRB01MPS CAVOK 22/19 Q1014 NOSIG
ZHCC,2021-09-07 16:00,ZHCC 071600Z VRB01MPS 7000 NSC 21/19 Q1013 NOSIG
ZHCC,2021-09-07 17:00,ZHCC 071700Z 19002MPS 140V240 6000 NSC 21/19 Q1013 NOSIG
ZHCC,2021-09-07 18:00,ZHCC 071800Z 20002MPS 160V240 5000 BR NSC 21/19 Q1012 NOSIG
ZHCC,2021-09-07 19:00,ZHCC 071900Z VRB01MPS 4000 BR NSC 19/19 Q1012 NOSIG
ZHCC,2021-09-07 20:00,ZHCC 072000Z 19001MPS 4000 BR NSC 19/19 Q1012 NOSIG
ZHCC,2021-09-07 21:00,ZHCC 072100Z VRB01MPS 3000 BR NSC 19/18 Q1012 BECMG TL2140 2000
ZHCC,2021-09-07 22:00,ZHCC 072200Z 00000MPS 1200 R12R/0150V0450N R12L/P2000 PRFG BR NSC 17/17 Q1012 BECMG TL2240 0600 FG
ZHCC,2021-09-07 23:00,ZHCC 072300Z VRB01MPS 0200 R12R/0175N R12L/0175N FG NSC 19/18 Q1012 BECMG TL0040 0800
ZHCC,2021-09-08 00:00,ZHCC 080000Z VRB01MPS 3000 BR NSC 20/20 Q1012 NOSIG
ZHCC,2021-09-08 01:00,ZHCC 080100Z 22003MPS 170V270 8000 NSC 24/19 Q1012 NOSIG
ZHCC,2021-09-08 02:00,ZHCC 080200Z 19002MPS 130V240 CAVOK 25/20 Q1012 NOSIG
ZHCC,2021-09-08 03:00,ZHCC 080300Z 20003MPS 150V270 CAVOK 27/20 Q1012 NOSIG
ZHCC,2021-09-08 04:00,ZHCC 080400Z 19003MPS 140V260 CAVOK 28/19 Q1011 NOSIG
ZHCC,2021-09-08 05:00,ZHCC 080500Z 18003MPS 100V220 CAVOK 29/19 Q1010 NOSIG
ZHCC,2021-09-08 06:00,ZHCC 080600Z 17003MPS 110V220 9999 FEW030 30/18 Q1010 NOSIG
ZHCC,2021-09-08 07:00,ZHCC 080700Z 21003MPS 150V260 9999 FEW030 31/17 Q1009 NOSIG
ZHCC,2021-09-08 08:00,ZHCC 080800Z 17002MPS 100V240 9999 FEW030 29/18 Q1009 NOSIG
ZHCC,2021-09-08 09:00,ZHCC 080900Z 19003MPS 100V240 CAVOK 28/18 Q1009 NOSIG
ZHCC,2021-09-08 10:00,ZHCC 081000Z VRB02MPS CAVOK 27/19 Q1009 NOSIG
ZHCC,2021-09-08 11:00,ZHCC 081100Z VRB01MPS CAVOK 26/19 Q1009 NOSIG
ZHCC,2021-09-08 12:00,ZHCC 081200Z VRB01MPS CAVOK 24/19 Q1009 NOSIG
ZHCC,2021-09-08 13:00,ZHCC 081300Z VRB01MPS CAVOK 23/19 Q1010 NOSIG
ZHCC,2021-09-08 14:00,ZHCC 081400Z VRB01MPS CAVOK 24/19 Q1010 NOSIG
ZHCC,2021-09-08 15:00,ZHCC 081500Z 19002MPS 150V250 CAVOK 24/19 Q1010 NOSIG
ZHCC,2021-09-08 16:00,ZHCC 081600Z VRB01MPS CAVOK 22/19 Q1010 NOSIG
ZHCC,2021-09-08 17:00,ZHCC 081700Z 19002MPS 150V220 CAVOK 22/19 Q1010 NOSIG
ZHCC,2021-09-08 18:00,ZHCC 081800Z 19002MPS 160V230 CAVOK 21/19 Q1010 NOSIG
ZHCC,2021-09-08 19:00,ZHCC 081900Z VRB01MPS CAVOK 21/18 Q1010 NOSIG
ZHCC,2021-09-08 20:00,ZHCC 082000Z VRB01MPS CAVOK 20/18 Q1009 NOSIG
ZHCC,2021-09-08 21:00,ZHCC 082100Z VRB01MPS CAVOK 19/19 Q1009 BECMG TL2240 2500
ZHCC,2021-09-08 22:00,ZHCC 082200Z VRB01MPS CAVOK 20/19 Q1009 NOSIG
ZHCC,2021-09-08 23:00,ZHCC 082300Z VRB01MPS CAVOK 21/19 Q1010 NOSIG
ZHCC,2021-09-09 00:00,ZHCC 090000Z 20002MPS 150V260 CAVOK 23/20 Q1010 NOSIG
ZHCC,2021-09-09 01:00,ZHCC 090100Z 22002MPS 190V260 CAVOK 25/20 Q1010 NOSIG
ZHCC,2021-09-09 02:00,ZHCC 090200Z 19002MPS 120V220 CAVOK 27/21 Q1010 NOSIG
ZHCC,2021-09-09 03:00,ZHCC 090300Z 21002MPS 120V250 CAVOK 29/21 Q1010 NOSIG
ZHCC,2021-09-09 04:00,ZHCC 090400Z VRB03MPS CAVOK 31/20 Q1009 NOSIG
ZHCC,2021-09-09 05:00,ZHCC 090500Z 18003MPS 120V250 CAVOK 32/20 Q1008 NOSIG
ZHCC,2021-09-09 06:00,ZHCC 090600Z 18003MPS 100V230 CAVOK 32/20 Q1007 NOSIG
ZHCC,2021-09-09 07:00,ZHCC 090700Z VRB03MPS CAVOK 33/21 Q1007 NOSIG
ZHCC,2021-09-09 08:00,ZHCC 090800Z 20003MPS 140V240 CAVOK 33/21 Q1007 NOSIG
ZHCC,2021-09-09 09:00,ZHCC 090900Z 19003MPS 130V240 CAVOK 32/22 Q1007 NOSIG
ZHCC,2021-09-09 10:00,ZHCC 091000Z 18003MPS 100V250 CAVOK 30/22 Q1007 NOSIG
ZHCC,2021-09-09 11:00,ZHCC 091100Z 19003MPS 140V280 CAVOK 28/22 Q1007 NOSIG
ZHCC,2021-09-09 12:00,ZHCC 091200Z 19002MPS 100V240 CAVOK 27/22 Q1008 NOSIG
ZHCC,2021-09-09 13:00,ZHCC 091300Z 19002MPS 140V230 CAVOK 26/22 Q1008 NOSIG
ZHCC,2021-09-09 14:00,ZHCC 091400Z 20002MPS 160V240 CAVOK 26/22 Q1008 NOSIG
ZHCC,2021-09-09 15:00,ZHCC 091500Z 20002MPS 170V240 CAVOK 25/22 Q1009 NOSIG
ZHCC,2021-09-09 16:00,ZHCC 091600Z VRB01MPS CAVOK 24/22 Q1009 NOSIG
ZHCC,2021-09-09 17:00,ZHCC 091700Z 22002MPS 190V250 CAVOK 24/21 Q1008 NOSIG
ZHCC,2021-09-09 18:00,ZHCC 091800Z VRB01MPS CAVOK 23/21 Q1008 NOSIG
ZHCC,2021-09-09 19:00,ZHCC 091900Z 32001MPS CAVOK 21/20 Q1009 NOSIG
ZHCC,2021-09-09 20:00,ZHCC 092000Z VRB01MPS CAVOK 21/20 Q1009 NOSIG
ZHCC,2021-09-09 21:00,ZHCC 092100Z VRB01MPS 6000 NSC 21/20 Q1009 NOSIG
ZHCC,2021-09-09 22:00,ZHCC 092200Z VRB01MPS 4000 BCFG BR NSC 21/20 Q1009 BECMG TL2240 1000
ZHCC,2021-09-09 23:00,ZHCC 092300Z VRB01MPS 4000 BR NSC 22/21 Q1010 NOSIG
ZHCC,2021-09-10 00:00,ZHCC 100000Z 35002MPS 300V050 4000 BR NSC 26/22 Q1010 NOSIG
ZHCC,2021-09-10 01:00,ZHCC 100100Z 04003MPS 010V090 6000 NSC 27/22 Q1011 NOSIG
ZHCC,2021-09-10 02:00,ZHCC 100200Z 06003MPS 360V090 6000 NSC 28/23 Q1011 NOSIG
ZHCC,2021-09-10 03:00,ZHCC 100300Z 10002MPS 020V170 6000 NSC 30/22 Q1011 NOSIG
ZHCC,2021-09-10 04:00,ZHCC 100400Z VRB02MPS 8000 NSC 31/23 Q1010 NOSIG
ZHCC,2021-09-10 05:00,ZHCC 100500Z 12003MPS 060V150 8000 NSC 32/22 Q1009 NOSIG
ZHCC,2021-09-10 06:00,ZHCC 100600Z 11002MPS 050V190 9999 FEW033 33/23 Q1009 NOSIG
ZHCC,2021-09-10 07:00,ZHCC 100700Z 13003MPS 110V170 CAVOK 33/23 Q1008 NOSIG
ZHCC,2021-09-10 08:00,ZHCC 100800Z 16003MPS 110V220 CAVOK 33/22 Q1008 NOSIG
ZHCC,2021-09-10 09:00,ZHCC 100900Z 13003MPS 100V170 CAVOK 32/23 Q1008 NOSIG
ZHCC,2021-09-10 10:00,ZHCC 101000Z VRB01MPS CAVOK 31/22 Q1008 NOSIG
ZHCC,2021-09-10 11:00,ZHCC 101100Z 16001MPS CAVOK 28/23 Q1008 NOSIG
ZHCC,2021-09-10 12:00,ZHCC 101200Z 14001MPS CAVOK 27/23 Q1008 NOSIG
ZHCC,2021-09-10 13:00,ZHCC 101300Z VRB01MPS CAVOK 27/22 Q1009 NOSIG
ZHCC,2021-09-10 14:00,ZHCC 101400Z VRB01MPS CAVOK 27/23 Q1009 NOSIG
ZHCC,2021-09-10 15:00,ZHCC 101500Z VRB01MPS CAVOK 26/22 Q1009 NOSIG
ZHCC,2021-09-10 16:00,ZHCC 101600Z VRB01MPS CAVOK 25/22 Q1009 NOSIG
ZHCC,2021-09-10 17:00,ZHCC 101700Z 14002MPS 110V180 CAVOK 24/22 Q1009 NOSIG
ZHCC,2021-09-10 18:00,ZHCC 101800Z 00000MPS CAVOK 22/21 Q1009 NOSIG
ZHCC,2021-09-10 19:00,ZHCC 101900Z VRB01MPS CAVOK 22/21 Q1009 NOSIG
ZHCC,2021-09-10 20:00,ZHCC 102000Z VRB01MPS 6000 NSC 21/21 Q1009 NOSIG
ZHCC,2021-09-10 21:00,ZHCC 102100Z VRB01MPS 6000 NSC 23/21 Q1009 NOSIG
ZHCC,2021-09-10 22:00,ZHCC 102200Z 23001MPS 6000 NSC 21/20 Q1009 NOSIG
ZHCC,2021-09-10 23:00,ZHCC 102300Z 19001MPS 8000 NSC 23/21 Q1010 NOSIG
ZHCC,2021-09-11 00:00,ZHCC 110000Z VRB01MPS 8000 NSC 25/22 Q1010 NOSIG
ZHCC,2021-09-11 01:00,ZHCC 110100Z VRB01MPS 8000 NSC 27/23 Q1010 NOSIG
ZHCC,2021-09-11 02:00,ZHCC 110200Z 20002MPS 140V280 CAVOK 29/21 Q1010 NOSIG
ZHCC,2021-09-11 03:00,ZHCC 110300Z 18003MPS 130V250 CAVOK 31/21 Q1010 NOSIG
ZHCC,2021-09-11 04:00,ZHCC 110400Z VRB02MPS CAVOK 32/22 Q1009 NOSIG
ZHCC,2021-09-11 05:00,ZHCC 110500Z 18003MPS 090V260 CAVOK 34/19 Q1009 NOSIG
ZHCC,2021-09-11 06:00,ZHCC 110600Z 17003MPS 110V230 CAVOK 34/19 Q1008 NOSIG
ZHCC,2021-09-11 07:00,ZHCC 110700Z 16003MPS 110V210 CAVOK 34/18 Q1008 NOSIG
ZHCC,2021-09-11 08:00,ZHCC 110800Z 17002MPS 090V220 CAVOK 34/15 Q1007 NOSIG
ZHCC,2021-09-11 09:00,ZHCC 110900Z 18002MPS 110V240 CAVOK 34/17 Q1007 NOSIG
ZHCC,2021-09-11 10:00,ZHCC 111000Z 15001MPS CAVOK 31/19 Q1007 NOSIG
ZHCC,2021-09-11 11:00,ZHCC 111100Z VRB01MPS CAVOK 28/21 Q1007 NOSIG
ZHCC,2021-09-11 12:00,ZHCC 111200Z VRB01MPS CAVOK 26/21 Q1008 NOSIG
ZHCC,2021-09-11 13:00,ZHCC 111300Z VRB01MPS CAVOK 27/20 Q1008 NOSIG
ZHCC,2021-09-11 14:00,ZHCC 111400Z 00000MPS CAVOK 23/20 Q1009 NOSIG
ZHCC,2021-09-11 15:00,ZHCC 111500Z 00000MPS CAVOK 23/21 Q1009 NOSIG
ZHCC,2021-09-11 16:00,ZHCC 111600Z VRB01MPS CAVOK 22/20 Q1009 NOSIG
ZHCC,2021-09-11 17:00,ZHCC 111700Z 00000MPS CAVOK 21/20 Q1009 NOSIG
ZHCC,2021-09-11 18:00,ZHCC 111800Z 29001MPS CAVOK 21/20 Q1008 NOSIG
ZHCC,2021-09-11 19:00,ZHCC 111900Z 29001MPS CAVOK 21/19 Q1009 NOSIG
ZHCC,2021-09-11 20:00,ZHCC 112000Z VRB01MPS CAVOK 20/19 Q1009 NOSIG
ZHCC,2021-09-11 21:00,ZHCC 112100Z VRB01MPS CAVOK 20/19 Q1009 NOSIG
ZHCC,2021-09-11 22:00,ZHCC 112200Z 11001MPS 6000 NSC 20/19 Q1010 NOSIG
ZHCC,2021-09-11 23:00,ZHCC 112300Z 09001MPS 6000 NSC 22/20 Q1011 NOSIG
ZHCC,2021-09-12 00:00,ZHCC 120000Z VRB01MPS 6000 NSC 26/21 Q1011 NOSIG
ZHCC,2021-09-12 01:00,ZHCC 120100Z 13002MPS 100V190 6000 NSC 27/21 Q1012 NOSIG
ZHCC,2021-09-12 02:00,ZHCC 120200Z VRB01MPS 7000 NSC 29/22 Q1012 NOSIG
ZHCC,2021-09-12 03:00,ZHCC 120300Z 06003MPS 020V130 9000 NSC 30/22 Q1012 NOSIG
ZHCC,2021-09-12 04:00,ZHCC 120400Z 07004MPS 030V120 CAVOK 32/18 Q1011 NOSIG
ZHCC,2021-09-12 05:00,ZHCC 120500Z 08003MPS 040V110 CAVOK 32/19 Q1011 NOSIG
ZHCC,2021-09-12 06:00,ZHCC 120600Z 10002MPS 010V170 CAVOK 33/20 Q1010 NOSIG
ZHCC,2021-09-12 07:00,ZHCC 120700Z VRB01MPS CAVOK 34/18 Q1010 NOSIG
ZHCC,2021-09-12 08:00,ZHCC 120800Z VRB02MPS CAVOK 33/19 Q1010 NOSIG
ZHCC,2021-09-12 09:00,ZHCC 120900Z 12002MPS 080V160 CAVOK 32/19 Q1010 NOSIG
ZHCC,2021-09-12 10:00,ZHCC 121000Z 08002MPS 040V150 CAVOK 31/20 Q1010 NOSIG
ZHCC,2021-09-12 11:00,ZHCC 121100Z 09002MPS CAVOK 29/20 Q1010 NOSIG
ZHCC,2021-09-12 12:00,ZHCC 121200Z 12002MPS CAVOK 27/20 Q1011 NOSIG
ZHCC,2021-09-12 13:00,ZHCC 121300Z 10002MPS 060V120 CAVOK 28/20 Q1012 NOSIG
ZHCC,2021-09-12 14:00,ZHCC 121400Z 08002MPS CAVOK 27/19 Q1012 NOSIG
ZHCC,2021-09-12 15:00,ZHCC 121500Z 12002MPS CAVOK 26/20 Q1012 NOSIG
ZHCC,2021-09-12 16:00,ZHCC 121600Z VRB01MPS CAVOK 25/20 Q1013 NOSIG
ZHCC,2021-09-12 17:00,ZHCC 121700Z 10002MPS CAVOK 25/20 Q1013 NOSIG
ZHCC,2021-09-12 18:00,ZHCC 121800Z 12001MPS CAVOK 23/20 Q1013 NOSIG
ZHCC,2021-09-12 19:00,ZHCC 121900Z VRB01MPS CAVOK 21/19 Q1013 NOSIG
ZHCC,2021-09-12 20:00,ZHCC 122000Z 10001MPS CAVOK 21/19 Q1013 NOSIG
ZHCC,2021-09-12 21:00,ZHCC 122100Z 12001MPS CAVOK 21/19 Q1013 NOSIG
ZHCC,2021-09-12 22:00,ZHCC 122200Z VRB01MPS 7000 NSC 20/19 Q1014 NOSIG
ZHCC,2021-09-12 23:00,ZHCC 122300Z VRB01MPS 6000 NSC 22/20 Q1015 NOSIG
ZHCC,2021-09-13 00:00,ZHCC 130000Z 11002MPS 6000 NSC 24/20 Q1015 NOSIG
ZHCC,2021-09-13 01:00,ZHCC 130100Z VRB01MPS CAVOK 26/21 Q1015 NOSIG
ZHCC,2021-09-13 02:00,ZHCC 130200Z 36002MPS 290V060 CAVOK 28/22 Q1016 NOSIG
ZHCC,2021-09-13 03:00,ZHCC 130300Z 07003MPS 340V150 9999 FEW030 29/22 Q1016 NOSIG
ZHCC,2021-09-13 04:00,ZHCC 130400Z 06004MPS 010V100 9999 SCT030 29/22 Q1015 NOSIG
ZHCC,2021-09-13 05:00,ZHCC 130500Z 05003MPS 020V090 9999 SCT030 30/22 Q1015 NOSIG
ZHCC,2021-09-13 06:00,ZHCC 130600Z 07004MPS 010V120 9999 SCT030 31/20 Q1014 NOSIG
ZHCC,2021-09-13 07:00,ZHCC 130700Z 06004MPS 040V100 9999 SCT030 32/19 Q1013 NOSIG
ZHCC,2021-09-13 08:00,ZHCC 130800Z 07004MPS 050V110 9999 SCT030 32/19 Q1013 NOSIG
ZHCC,2021-09-13 09:00,ZHCC 130900Z 07004MPS 020V100 9999 FEW030 31/20 Q1013 NOSIG
ZHCC,2021-09-13 10:00,ZHCC 131000Z 09004MPS 9999 FEW030 30/19 Q1013 NOSIG
ZHCC,2021-09-13 11:00,ZHCC 131100Z 08004MPS CAVOK 29/20 Q1014 NOSIG
ZHCC,2021-09-13 12:00,ZHCC 131200Z 05003MPS CAVOK 29/20 Q1014 NOSIG
ZHCC,2021-09-13 13:00,ZHCC 131300Z 06003MPS CAVOK 28/20 Q1015 NOSIG
ZHCC,2021-09-13 14:00,ZHCC 131400Z 05003MPS 020V090 CAVOK 28/21 Q1016 NOSIG
ZHCC,2021-09-13 15:00,ZHCC 131500Z 05004MPS 010V090 8000 NSC 27/22 Q1016 NOSIG
ZHCC,2021-09-13 16:00,ZHCC 131600Z 05004MPS 5000 BR NSC 26/23 Q1016 NOSIG
ZHCC,2021-09-13 17:00,ZHCC 131700Z 04003MPS 4000 BR NSC 26/23 Q1016 NOSIG
ZHCC,2021-09-13 18:00,ZHCC 131800Z 05003MPS 4000 BR NSC 25/23 Q1016 NOSIG
ZHCC,2021-09-13 19:00,ZHCC 131900Z 02002MPS 3500 BR NSC 25/23 Q1016 NOSIG
ZHCC,2021-09-13 20:00,ZHCC 132000Z 03003MPS 350V050 3000 BR NSC 25/23 Q1017 NOSIG
ZHCC,2021-09-13 21:00,ZHCC 132100Z 04004MPS 2000 BR BKN020 25/23 Q1017 BECMG TL2140 1400
ZHCC,2021-09-13 22:00,ZHCC 132200Z 05003MPS 020V090 2000 BR OVC020 25/24 Q1017 NOSIG
ZHCC,2021-09-13 23:00,ZHCC 132300Z 04003MPS 1000 R12R/1500N R12L/0900N BR OVC020 24/23 Q1018 BECMG TL0040 3000
ZHCC,2021-09-14 00:00,ZHCC 140000Z VRB01MPS 1500 BR BKN020 25/23 Q1018 BECMG TL0140 3000
ZHCC,2021-09-14 01:00,ZHCC 140100Z 11002MPS 080V170 2500 BR SCT020 26/23 Q1019 BECMG TL0200 3000
ZHCC,2021-09-14 02:00,ZHCC 140200Z 10002MPS 050V180 4000 BR SCT030 27/21 Q1019 NOSIG
ZHCC,2021-09-14 03:00,ZHCC 140300Z 10003G08MPS 340V150 6000 BKN030 29/22 Q1019 NOSIG
ZHCC,2021-09-14 04:00,ZHCC 140400Z 05002MPS 020V100 6000 BKN030 29/22 Q1018 NOSIG
ZHCC,2021-09-14 05:00,ZHCC 140500Z 09003MPS 020V160 6000 SCT030 30/22 Q1018 NOSIG
ZHCC,2021-09-14 06:00,ZHCC 140600Z 04003MPS 350V070 6000 SCT030 30/21 Q1017 NOSIG
ZHCC,2021-09-14 07:00,ZHCC 140700Z 05004MPS 360V090 6000 BKN030 31/22 Q1017 NOSIG
ZHCC,2021-09-14 08:00,ZHCC 140800Z 02004MPS 350V050 6000 BKN040 31/22 Q1016 NOSIG
ZHCC,2021-09-14 09:00,ZHCC 140900Z 05004MPS 020V090 6000 BKN040 30/21 Q1016 NOSIG
ZHCC,2021-09-14 10:00,ZHCC 141000Z 04004MPS 360V060 6000 NSC 29/21 Q1016 NOSIG
ZHCC,2021-09-14 11:00,ZHCC 141100Z 06003MPS 6000 NSC 28/21 Q1016 NOSIG
ZHCC,2021-09-14 12:00,ZHCC 141200Z 05002MPS 030V090 6000 NSC 28/21 Q1017 NOSIG
ZHCC,2021-09-14 13:00,ZHCC 141300Z 04002MPS 010V070 6000 NSC 27/21 Q1017 NOSIG
ZHCC,2021-09-14 14:00,ZHCC 141400Z 04002MPS 360V080 6000 NSC 27/21 Q1018 NOSIG
ZHCC,2021-09-14 15:00,ZHCC 141500Z 04002MPS 6000 NSC 26/21 Q1018 NOSIG
ZHCC,2021-09-14 16:00,ZHCC 141600Z 04002MPS 010V080 6000 NSC 26/21 Q1018 NOSIG
ZHCC,2021-09-14 17:00,ZHCC 141700Z 04002MPS 6000 NSC 25/20 Q1017 NOSIG
ZHCC,2021-09-14 18:00,ZHCC 141800Z 04003MPS 360V080 6000 NSC 25/20 Q1017 NOSIG
ZHCC,2021-09-14 19:00,ZHCC 141900Z 04002MPS 360V090 6000 NSC 24/20 Q1017 NOSIG
ZHCC,2021-09-14 20:00,ZHCC 142000Z 01002MPS 6000 NSC 24/20 Q1016 NOSIG
ZHCC,2021-09-14 21:00,ZHCC 142100Z 03002MPS 350V070 6000 NSC 23/21 Q1017 NOSIG
ZHCC,2021-09-14 22:00,ZHCC 142200Z 04003MPS 4000 BR NSC 23/20 Q1017 NOSIG
ZHCC,2021-09-14 23:00,ZHCC 142300Z 04003MPS 020V090 4000 BR NSC 23/21 Q1017 NOSIG
ZHCC,2021-09-15 00:00,ZHCC 150000Z 05003MPS 020V080 4000 BR NSC 24/20 Q1017 NOSIG
ZHCC,2021-09-15 01:00,ZHCC 150100Z 07002MPS 020V120 4000 BR NSC 26/21 Q1018 NOSIG
ZHCC,2021-09-15 02:00,ZHCC 150200Z 02002MPS 300V070 4000 HZ NSC 27/21 Q1018 NOSIG
ZHCC,2021-09-15 03:00,ZHCC 150300Z 05002MPS 350V110 6000 FEW026 29/21 Q1017 NOSIG
ZHCC,2021-09-15 04:00,ZHCC 150400Z VRB02MPS 6000 SCT033 30/21 Q1016 NOSIG
ZHCC,2021-09-15 05:00,ZHCC 150500Z 36002MPS 290V070 7000 BKN033 30/20 Q1016 NOSIG
ZHCC,2021-09-15 06:00,ZHCC 150600Z 05002MPS 350V150 9000 BKN040 30/19 Q1015 NOSIG
ZHCC,2021-09-15 07:00,ZHCC 150700Z 02003MPS 340V060 9999 SCT046 30/19 Q1014 NOSIG
ZHCC,2021-09-15 08:00,ZHCC 150800Z 04003MPS 010V080 CAVOK 30/19 Q1014 NOSIG
ZHCC,2021-09-15 09:00,ZHCC 150900Z 07003MPS 040V120 CAVOK 30/19 Q1014 NOSIG
ZHCC,2021-09-15 10:00,ZHCC 151000Z 06003MPS 030V090 CAVOK 29/19 Q1014 NOSIG
ZHCC,2021-09-15 11:00,ZHCC 151100Z 07004MPS CAVOK 28/19 Q1014 NOSIG
ZHCC,2021-09-15 12:00,ZHCC 151200Z 06003MPS CAVOK 27/19 Q1014 NOSIG
ZHCC,2021-09-15 13:00,ZHCC 151300Z 10003MPS CAVOK 25/19 Q1015 NOSIG
ZHCC,2021-09-15 14:00,ZHCC 151400Z 07003MPS CAVOK 26/16 Q1015 NOSIG
ZHCC,2021-09-15 15:00,ZHCC 151500Z 08003MPS CAVOK 25/14 Q1015 NOSIG
ZHCC,2021-09-15 16:00,ZHCC 151600Z VRB01MPS CAVOK 23/14 Q1015 NOSIG
ZHCC,2021-09-15 17:00,ZHCC 151700Z VRB01MPS CAVOK 23/14 Q1014 NOSIG
ZHCC,2021-09-15 18:00,ZHCC 151800Z 08002MPS CAVOK 23/13 Q1013 NOSIG
ZHCC,2021-09-15 19:00,ZHCC 151900Z 06002MPS 030V100 CAVOK 24/14 Q1013 NOSIG
ZHCC,2021-09-15 20:00,ZHCC 152000Z 26001MPS CAVOK 20/16 Q1013 NOSIG
ZHCC,2021-09-15 21:00,ZHCC 152100Z VRB01MPS CAVOK 21/16 Q1013 NOSIG
ZHCC,2021-09-15 22:00,ZHCC 152200Z VRB01MPS CAVOK 20/16 Q1013 NOSIG
ZHCC,2021-09-15 23:00,ZHCC 152300Z VRB01MPS CAVOK 21/17 Q1014 NOSIG
ZHCC,2021-09-16 00:00,ZHCC 160000Z VRB02MPS CAVOK 24/17 Q1014 NOSIG
ZHCC,2021-09-16 01:00,ZHCC 160100Z 06003MPS CAVOK 25/18 Q1014 NOSIG
ZHCC,2021-09-16 02:00,ZHCC 160200Z VRB02MPS 7000 NSC 27/19 Q1014 NOSIG
ZHCC,2021-09-16 03:00,ZHCC 160300Z 03002MPS 330V060 7000 NSC 28/19 Q1014 NOSIG
ZHCC,2021-09-16 04:00,ZHCC 160400Z VRB02MPS 7000 NSC 30/19 Q1013 NOSIG
ZHCC,2021-09-16 05:00,ZHCC 160500Z VRB02MPS 7000 FEW040 30/18 Q1012 NOSIG
ZHCC,2021-09-16 06:00,ZHCC 160600Z 34002MPS 280V060 8000 SCT040 30/18 Q1012 NOSIG
ZHCC,2021-09-16 07:00,ZHCC 160700Z 36002MPS 320V060 8000 SCT040 30/18 Q1011 NOSIG
ZHCC,2021-09-16 08:00,ZHCC 160800Z 35004MPS 9999 -RA BKN040 28/18 Q1012 NOSIG
ZHCC,2021-09-16 09:00,ZHCC 160900Z 32006MPS 9999 -RA BKN040 25/19 Q1012 NOSIG
ZHCC,2021-09-16 10:00,ZHCC 161000Z 35007MPS 9999 BKN040 25/17 Q1013 NOSIG
ZHCC,2021-09-16 11:00,ZHCC 161100Z 34004MPS 9999 -RA OVC040 24/18 Q1014 NOSIG
ZHCC,2021-09-16 12:00,ZHCC 161200Z 34005MPS 9999 -RA OVC040 23/18 Q1014 NOSIG
ZHCC,2021-09-16 13:00,ZHCC 161300Z 35004MPS 9999 -RA OVC040 22/18 Q1015 NOSIG
ZHCC,2021-09-16 14:00,ZHCC 161400Z 35004MPS 7000 -RA OVC040 22/19 Q1015 NOSIG
ZHCC,2021-09-16 15:00,ZHCC 161500Z 36003MPS 6000 -RA OVC040 22/19 Q1015 NOSIG
ZHCC,2021-09-16 16:00,ZHCC 161600Z 36005MPS 8000 -RA OVC040 21/18 Q1015 NOSIG
ZHCC,2021-09-16 17:00,ZHCC 161700Z 36005MPS 330V030 8000 -RA OVC040 21/18 Q1015 NOSIG
ZHCC,2021-09-16 18:00,ZHCC 161800Z 02004MPS 6000 OVC040 21/18 Q1014 NOSIG
ZHCC,2021-09-16 19:00,ZHCC 161900Z 03003MPS 300V090 6000 OVC040 21/18 Q1014 NOSIG
ZHCC,2021-09-16 20:00,ZHCC 162000Z 01004MPS 6000 FEW013 OVC040 21/18 Q1014 NOSIG
ZHCC,2021-09-16 21:00,ZHCC 162100Z 01003MPS 340V040 6000 OVC040 21/18 Q1014 NOSIG
ZHCC,2021-09-16 22:00,ZHCC 162200Z 01003MPS 340V050 6000 OVC040 21/18 Q1014 NOSIG
ZHCC,2021-09-16 23:00,ZHCC 162300Z 02004MPS 6000 OVC040 21/18 Q1015 NOSIG
ZHCC,2021-09-17 00:00,ZHCC 170000Z 03004MPS 360V060 7000 OVC046 22/18 Q1016 NOSIG
ZHCC,2021-09-17 01:00,ZHCC 170100Z 02004MPS 360V060 9000 NSC 22/18 Q1016 NOSIG
ZHCC,2021-09-17 02:00,ZHCC 170200Z 02004MPS 340V060 7000 FEW020 22/18 Q1016 NOSIG
ZHCC,2021-09-17 03:00,ZHCC 170300Z 04004MPS 4000 -RA BR OVC040 22/18 Q1016 NOSIG
ZHCC,2021-09-17 04:00,ZHCC 170400Z 02004MPS 4000 BR OVC020 23/19 Q1015 NOSIG
ZHCC,2021-09-17 05:00,ZHCC 170500Z 01004MPS 4000 BR OVC020 23/18 Q1015 NOSIG
ZHCC,2021-09-17 06:00,ZHCC 170600Z 36003MPS 3500 -RA BR OVC020 22/19 Q1015 NOSIG
ZHCC,2021-09-17 07:00,ZHCC 170700Z 36004MPS 320V030 2000 -RA BR OVC020 21/19 Q1015 NOSIG
ZHCC,2021-09-17 08:00,ZHCC 170800Z 01003MPS 340V060 2000 -RA BR OVC020 21/20 Q1014 NOSIG
ZHCC,2021-09-17 09:00,ZHCC 170900Z 36004MPS 330V040 2000 -RA BR OVC020 21/20 Q1014 BECMG TL1040 3000
ZHCC,2021-09-17 10:00,ZHCC 171000Z 01004MPS 2000 -RA BR FEW007 OVC033 21/20 Q1014 NOSIG
ZHCC,2021-09-17 11:00,ZHCC 171100Z 01004MPS 350V050 3000 -RA BR FEW007 OVC040 20/19 Q1015 NOSIG
ZHCC,2021-09-17 12:00,ZHCC 171200Z 04002MPS 3000 -RA BR OVC040 21/20 Q1015 BECMG TL1340 2000
ZHCC,2021-09-17 13:00,ZHCC 171300Z VRB01MPS 3000 -RA BR OVC040 21/20 Q1015 NOSIG
ZHCC,2021-09-17 14:00,ZHCC 171400Z 29002MPS 2500 -RA BR OVC040 20/20 Q1016 NOSIG
ZHCC,2021-09-17 15:00,ZHCC 171500Z 29002MPS 2500 -RA BR OVC040 20/20 Q1016 NOSIG
ZHCC,2021-09-17 16:00,ZHCC 171600Z 34002MPS 2000 -RA BR FEW007 OVC030 21/20 Q1016 NOSIG
ZHCC,2021-09-17 17:00,ZHCC 171700Z 03003MPS 1800 -RA BR SCT005 OVC020 20/20 Q1016 NOSIG
ZHCC,2021-09-17 18:00,ZHCC 171800Z 04004MPS 010V070 1800 -RA BR SCT004 OVC020 20/20 Q1015 NOSIG
ZHCC,2021-09-17 19:00,ZHCC 171900Z 05003MPS 2500 -RA BR SCT005 OVC020 20/20 Q1015 NOSIG
ZHCC,2021-09-17 20:00,ZHCC 172000Z 05003MPS 2500 -RA BR SCT005 OVC020 20/19 Q1014 NOSIG
ZHCC,2021-09-17 21:00,ZHCC 172100Z 05003MPS 2500 -RA BR SCT005 OVC020 20/19 Q1014 NOSIG
ZHCC,2021-09-17 22:00,ZHCC 172200Z 06003MPS 2000 -RA BR SCT005 OVC020 20/19 Q1014 NOSIG
ZHCC,2021-09-17 23:00,ZHCC 172300Z 05004MPS 1500 R12R/1400N R12L/P2000 -RA BR SCT005 OVC020 20/19 Q1014 NOSIG
ZHCC,2021-09-18 00:00,ZHCC 180000Z 06004MPS 2000 -RA BR SCT005 OVC020 20/19 Q1015 BECMG TL0140 3000
ZHCC,2021-09-18 01:00,ZHCC 180100Z 06004MPS 020V090 1500 -RA BR SCT004 OVC020 20/19 Q1015 NOSIG
ZHCC,2021-09-18 02:00,ZHCC 180200Z 03004MPS 1500 -RA BR SCT004 OVC020 20/19 Q1015 NOSIG
ZHCC,2021-09-18 03:00,ZHCC 180300Z 03003MPS 350V090 1600 RA BR SCT004 OVC020 20/19 Q1015 NOSIG
ZHCC,2021-09-18 04:00,ZHCC 180400Z 05004MPS 020V090 1600 -RA BR SCT004 OVC020 20/20 Q1014 RERA NOSIG
ZHCC,2021-09-18 05:00,ZHCC 180500Z 06004MPS 2500 -RA BR SCT005 OVC030 20/20 Q1014 BECMG TL0640 3000
ZHCC,2021-09-18 06:00,ZHCC 180600Z 04005MPS 010V080 2500 -RA BR SCT005 OVC030 20/20 Q1013 BECMG TL0640 3000
ZHCC,2021-09-18 07:00,ZHCC 180700Z 04005MPS 4000 BR SCT005 OVC030 20/19 Q1013 NOSIG
ZHCC,2021-09-18 08:00,ZHCC 180800Z 04006MPS 4000 BR SCT005 OVC030 20/19 Q1012 NOSIG
ZHCC,2021-09-18 09:00,ZHCC 180900Z 02004MPS 350V050 3000 -RA BR SCT005 OVC030 19/19 Q1012 NOSIG
ZHCC,2021-09-18 10:00,ZHCC 181000Z 04005MPS 360V060 3000 -RA BR SCT005 OVC020 19/18 Q1012 RERA BECMG TL1140 2000
ZHCC,2021-09-18 11:00,ZHCC 181100Z 03005MPS 360V060 4000 RA BR SCT005 OVC020 19/18 Q1013 BECMG TL1140 -RA
ZHCC,2021-09-18 12:00,ZHCC 181200Z 03006MPS 7000 -RA SCT006 OVC020 18/17 Q1013 RERA BECMG TL1240 RA
ZHCC,2021-09-18 13:00,ZHCC 181300Z 01005MPS 340V050 6000 -RA SCT006 OVC020 18/17 Q1014 RERA BECMG TL1340 RA
ZHCC,2021-09-18 14:00,ZHCC 181400Z 02007MPS 6000 -RA SCT007 OVC020 17/16 Q1013 NOSIG
ZHCC,2021-09-18 15:00,ZHCC 181500Z 01004MPS 320V070 6000 -RA SCT007 OVC020 17/16 Q1013 NOSIG
ZHCC,2021-09-18 16:00,ZHCC 181600Z 01006MPS 340V040 6000 RA SCT007 OVC020 16/15 Q1013 NOSIG
ZHCC,2021-09-18 17:00,ZHCC 181700Z 02005MPS 6000 -RA SCT007 OVC020 16/15 Q1012 RERA NOSIG
ZHCC,2021-09-18 18:00,ZHCC 181800Z 02005G10MPS 340V060 6000 -RA SCT007 OVC020 16/15 Q1012 NOSIG
ZHCC,2021-09-18 19:00,ZHCC 181900Z 01006MPS 340V040 5000 -RA BR SCT007 OVC020 16/16 Q1011 NOSIG
ZHCC,2021-09-18 20:00,ZHCC 182000Z 02006G11MPS 360V060 5000 RA BR SCT006 OVC020 16/15 Q1011 NOSIG
ZHCC,2021-09-18 21:00,ZHCC 182100Z 02006G11MPS 340V060 5000 -RA BR SCT006 OVC020 16/15 Q1010 RERA NOSIG
ZHCC,2021-09-18 22:00,ZHCC 182200Z 01006MPS 5000 -RA BR SCT006 OVC020 16/15 Q1010 NOSIG
ZHCC,2021-09-18 23:00,ZHCC 182300Z 02007MPS 3000 +RA BR SCT006 OVC020 16/15 Q1010 BECMG TL2340 2500 -RA
ZHCC,2021-09-19 00:00,ZHCC 190000Z 01006MPS 5000 -RA BR SCT007 OVC020 16/15 Q1010 RERA NOSIG
ZHCC,2021-09-19 01:00,ZHCC 190100Z 34006MPS 5000 SHRA BR SCT007 FEW020CB BKN020 16/16 Q1010 BECMG TL0240 -SHRA
ZHCC,2021-09-19 02:00,ZHCC 190200Z 34006MPS 3000 +SHRA BR SCT007 FEW020CB BKN020 16/16 Q1011 BECMG TL0340 -SHRA
ZHCC,2021-09-19 03:00,ZHCC 190300Z 35005MPS 6000 SHRA SCT007 FEW020CB BKN020 16/16 Q1011 BECMG TL0440 -SHRA
ZHCC,2021-09-19 04:00,ZHCC 190400Z 35005MPS 8000 -SHRA SCT007 FEW020CB BKN020 17/16 Q1010 RESHRA NOSIG
ZHCC,2021-09-19 05:00,ZHCC 190500Z 34005MPS 8000 -RA SCT007 OVC020 17/16 Q1010 NOSIG
ZHCC,2021-09-19 06:00,ZHCC 190600Z 33004MPS 8000 -RA SCT007 OVC020 17/16 Q1009 NOSIG
ZHCC,2021-09-19 07:00,ZHCC 190700Z 34004MPS 8000 -RA SCT007 OVC020 18/17 Q1009 NOSIG
ZHCC,2021-09-19 08:00,ZHCC 190800Z 35003MPS 7000 -RA SCT007 OVC020 18/17 Q1010 NOSIG
ZHCC,2021-09-19 09:00,ZHCC 190900Z 34003MPS 7000 -RA SCT007 OVC020 18/17 Q1009 NOSIG
ZHCC,2021-09-19 10:00,ZHCC 191000Z 34003MPS 310V010 7000 -RA FEW007 OVC026 18/16 Q1009 NOSIG
ZHCC,2021-09-19 11:00,ZHCC 191100Z 32001MPS 8000 -RA FEW008 OVC020 18/17 Q1009 NOSIG
ZHCC,2021-09-19 12:00,ZHCC 191200Z 26001MPS 8000 -RA FEW008 OVC026 17/17 Q1010 NOSIG
ZHCC,2021-09-19 13:00,ZHCC 191300Z 30002MPS 6000 OVC040 17/17 Q1010 NOSIG
ZHCC,2021-09-19 14:00,ZHCC 191400Z 30002MPS 6000 OVC030 17/16 Q1010 NOSIG
ZHCC,2021-09-19 15:00,ZHCC 191500Z 28002MPS 260V320 9999 OVC030 17/16 Q1010 NOSIG
ZHCC,2021-09-19 16:00,ZHCC 191600Z 28002MPS CAVOK 17/16 Q1009 NOSIG
ZHCC,2021-09-19 17:00,ZHCC 191700Z 27001MPS 6000 NSC 17/16 Q1009 NOSIG
ZHCC,2021-09-19 18:00,ZHCC 191800Z VRB01MPS 6000 NSC 17/16 Q1008 NOSIG
ZHCC,2021-09-19 19:00,ZHCC 191900Z 23001MPS 6000 NSC 17/16 Q1007 NOSIG
ZHCC,2021-09-19 20:00,ZHCC 192000Z 25002MPS 6000 NSC 17/16 Q1007 NOSIG
ZHCC,2021-09-19 21:00,ZHCC 192100Z 28002MPS 8000 NSC 16/15 Q1007 NOSIG
ZHCC,2021-09-19 22:00,ZHCC 192200Z 28002MPS 8000 NSC 16/15 Q1007 NOSIG
ZHCC,2021-09-19 23:00,ZHCC 192300Z 28003MPS 8000 NSC 18/15 Q1008 NOSIG
ZHCC,2021-09-20 00:00,ZHCC 200000Z 28003MPS CAVOK 20/17 Q1008 NOSIG
ZHCC,2021-09-20 01:00,ZHCC 200100Z 29006MPS CAVOK 23/16 Q1008 NOSIG
ZHCC,2021-09-20 02:00,ZHCC 200200Z 29006MPS 260V320 CAVOK 24/15 Q1008 NOSIG
ZHCC,2021-09-20 03:00,ZHCC 200300Z 30006MPS 260V340 9999 FEW040 26/16 Q1007 NOSIG
ZHCC,2021-09-20 04:00,ZHCC 200400Z 30006MPS 270V330 9999 FEW040 27/15 Q1007 NOSIG
ZHCC,2021-09-20 05:00,ZHCC 200500Z 29006MPS 260V320 9999 FEW040 28/14 Q1006 NOSIG
ZHCC,2021-09-20 06:00,ZHCC 200600Z 29005MPS 260V320 9999 FEW040 29/15 Q1005 NOSIG
ZHCC,2021-09-20 07:00,ZHCC 200700Z 29005MPS 260V330 9999 FEW040 29/15 Q1005 NOSIG
ZHCC,2021-09-20 08:00,ZHCC 200800Z 27004MPS 180V320 CAVOK 29/16 Q1004 NOSIG
ZHCC,2021-09-20 09:00,ZHCC 200900Z 24003MPS 210V270 CAVOK 29/16 Q1004 NOSIG
ZHCC,2021-09-20 10:00,ZHCC 201000Z 23002MPS 190V260 CAVOK 27/17 Q1004 NOSIG
ZHCC,2021-09-20 11:00,ZHCC 201100Z 21001MPS CAVOK 23/18 Q1005 NOSIG
ZHCC,2021-09-20 12:00,ZHCC 201200Z 22001MPS CAVOK 22/18 Q1005 NOSIG
ZHCC,2021-09-20 13:00,ZHCC 201300Z 20002MPS CAVOK 24/16 Q1006 NOSIG
ZHCC,2021-09-20 14:00,ZHCC 201400Z 22003MPS 180V260 CAVOK 24/17 Q1006 NOSIG
ZHCC,2021-09-20 15:00,ZHCC 201500Z 20002MPS 150V240 CAVOK 23/17 Q1006 NOSIG
ZHCC,2021-09-20 16:00,ZHCC 201600Z 25003MPS 210V280 CAVOK 22/16 Q1006 NOSIG
ZHCC,2021-09-20 17:00,ZHCC 201700Z 25002MPS 210V270 CAVOK 22/15 Q1005 NOSIG
ZHCC,2021-09-20 18:00,ZHCC 201800Z 23002MPS CAVOK 22/14 Q1005 NOSIG
ZHCC,2021-09-20 19:00,ZHCC 201900Z 25003MPS CAVOK 21/14 Q1005 NOSIG
ZHCC,2021-09-20 20:00,ZHCC 202000Z 21002MPS CAVOK 19/15 Q1005 NOSIG
ZHCC,2021-09-20 21:00,ZHCC 202100Z VRB01MPS CAVOK 17/15 Q1005 NOSIG
ZHCC,2021-09-20 22:00,ZHCC 202200Z 24002MPS 210V270 CAVOK 18/14 Q1005 NOSIG
ZHCC,2021-09-20 23:00,ZHCC 202300Z 23002MPS 200V280 CAVOK 20/14 Q1005 NOSIG
ZHCC,2021-09-21 00:00,ZHCC 210000Z 23002MPS 170V270 CAVOK 23/14 Q1005 NOSIG
ZHCC,2021-09-21 01:00,ZHCC 210100Z 25002MPS 210V270 CAVOK 25/14 Q1006 NOSIG
ZHCC,2021-09-21 02:00,ZHCC 210200Z 26002MPS 220V310 CAVOK 27/15 Q1006 NOSIG
ZHCC,2021-09-21 03:00,ZHCC 210300Z 24003MPS 180V300 CAVOK 29/15 Q1006 NOSIG
ZHCC,2021-09-21 04:00,ZHCC 210400Z 23003MPS 190V280 CAVOK 31/15 Q1005 NOSIG
ZHCC,2021-09-21 05:00,ZHCC 210500Z 23003MPS 190V270 CAVOK 32/15 Q1005 NOSIG
ZHCC,2021-09-21 06:00,ZHCC 210600Z 22003MPS 140V280 CAVOK 33/14 Q1004 NOSIG
ZHCC,2021-09-21 07:00,ZHCC 210700Z 24003MPS 180V280 CAVOK 34/14 Q1004 NOSIG
ZHCC,2021-09-21 08:00,ZHCC 210800Z 24003MPS 200V290 CAVOK 33/14 Q1003 NOSIG
ZHCC,2021-09-21 09:00,ZHCC 210900Z 23002MPS 190V270 CAVOK 33/14 Q1003 NOSIG
ZHCC,2021-09-21 10:00,ZHCC 211000Z 24002MPS CAVOK 30/15 Q1004 NOSIG
ZHCC,2021-09-21 11:00,ZHCC 211100Z 21003MPS 180V250 CAVOK 28/17 Q1004 NOSIG
ZHCC,2021-09-21 12:00,ZHCC 211200Z 21002MPS 180V250 CAVOK 27/18 Q1005 NOSIG
ZHCC,2021-09-21 13:00,ZHCC 211300Z 23002MPS CAVOK 26/18 Q1006 NOSIG
ZHCC,2021-09-21 14:00,ZHCC 211400Z 24002MPS 200V260 CAVOK 25/18 Q1006 NOSIG
ZHCC,2021-09-21 15:00,ZHCC 211500Z 24002MPS 210V270 CAVOK 24/18 Q1006 NOSIG
ZHCC,2021-09-21 16:00,ZHCC 211600Z VRB01MPS CAVOK 20/18 Q1006 NOSIG
ZHCC,2021-09-21 17:00,ZHCC 211700Z 30002MPS 210V340 CAVOK 20/17 Q1006 NOSIG
ZHCC,2021-09-21 18:00,ZHCC 211800Z VRB01MPS CAVOK 19/17 Q1006 NOSIG
ZHCC,2021-09-21 19:00,ZHCC 211900Z VRB01MPS CAVOK 20/17 Q1006 NOSIG
ZHCC,2021-09-21 20:00,ZHCC 212000Z VRB01MPS CAVOK 18/17 Q1007 NOSIG
ZHCC,2021-09-21 21:00,ZHCC 212100Z 00000MPS CAVOK 18/17 Q1007 NOSIG
ZHCC,2021-09-21 22:00,ZHCC 212200Z 24001MPS CAVOK 18/17 Q1008 NOSIG
ZHCC,2021-09-21 23:00,ZHCC 212300Z 32002MPS 240V040 CAVOK 20/18 Q1008 NOSIG
ZHCC,2021-09-22 00:00,ZHCC 220000Z 36002G07MPS 270V070 CAVOK 25/18 Q1009 NOSIG
ZHCC,2021-09-22 01:00,ZHCC 220100Z 35003MPS 320V020 CAVOK 27/17 Q1010 NOSIG
ZHCC,2021-09-22 02:00,ZHCC 220200Z 36003MPS 310V040 CAVOK 28/17 Q1010 NOSIG
ZHCC,2021-09-22 03:00,ZHCC 220300Z 03002MPS 350V080 CAVOK 28/18 Q1010 NOSIG
ZHCC,2021-09-22 04:00,ZHCC 220400Z 36003MPS 280V040 CAVOK 29/18 Q1010 NOSIG
ZHCC,2021-09-22 05:00,ZHCC 220500Z 02002MPS 330V140 CAVOK 29/18 Q1009 NOSIG
ZHCC,2021-09-22 06:00,ZHCC 220600Z VRB03G10MPS CAVOK 30/18 Q1009 NOSIG
ZHCC,2021-09-22 07:00,ZHCC 220700Z 09002MPS 010V170 CAVOK 30/19 Q1009 NOSIG
ZHCC,2021-09-22 08:00,ZHCC 220800Z 06003MPS 020V100 CAVOK 30/18 Q1009 NOSIG
ZHCC,2021-09-22 09:00,ZHCC 220900Z 05003MPS CAVOK 30/19 Q1009 NOSIG
ZHCC,2021-09-22 10:00,ZHCC 221000Z 04003MPS CAVOK 29/19 Q1009 NOSIG
ZHCC,2021-09-22 11:00,ZHCC 221100Z 05003MPS 020V080 CAVOK 28/20 Q1010 NOSIG
ZHCC,2021-09-22 12:00,ZHCC 221200Z 03003MPS 350V070 CAVOK 28/19 Q1011 NOSIG
ZHCC,2021-09-22 13:00,ZHCC 221300Z 03004MPS 360V110 CAVOK 27/19 Q1011 NOSIG
ZHCC,2021-09-22 14:00,ZHCC 221400Z 03003MPS 350V080 CAVOK 27/19 Q1012 NOSIG
ZHCC,2021-09-22 15:00,ZHCC 221500Z 35002MPS CAVOK 26/18 Q1012 NOSIG
ZHCC,2021-09-22 16:00,ZHCC 221600Z VRB01MPS CAVOK 24/19 Q1012 NOSIG
ZHCC,2021-09-22 17:00,ZHCC 221700Z VRB01MPS CAVOK 25/18 Q1011 NOSIG
ZHCC,2021-09-22 18:00,ZHCC 221800Z 29002MPS 260V350 8000 NSC 22/19 Q1012 NOSIG
ZHCC,2021-09-22 19:00,ZHCC 221900Z 30001MPS 8000 NSC 22/19 Q1012 NOSIG
ZHCC,2021-09-22 20:00,ZHCC 222000Z 35002MPS 320V020 8000 NSC 23/18 Q1012 NOSIG
ZHCC,2021-09-22 21:00,ZHCC 222100Z 04002MPS 7000 NSC 23/18 Q1012 NOSIG
ZHCC,2021-09-22 22:00,ZHCC 222200Z 07002MPS 040V110 6000 NSC 22/19 Q1012 NOSIG
ZHCC,2021-09-22 23:00,ZHCC 222300Z 06002MPS 4000 BR NSC 23/20 Q1013 NOSIG
ZHCC,2021-09-23 00:00,ZHCC 230000Z 06004MPS 040V100 4000 BR NSC 24/20 Q1014 NOSIG
ZHCC,2021-09-23 01:00,ZHCC 230100Z 05005MPS 5000 HZ NSC 26/20 Q1014 NOSIG
ZHCC,2021-09-23 02:00,ZHCC 230200Z 07005MPS 6000 NSC 27/20 Q1014 NOSIG
ZHCC,2021-09-23 03:00,ZHCC 230300Z 05004MPS 020V080 6000 NSC 28/20 Q1014 NOSIG
ZHCC,2021-09-23 04:00,ZHCC 230400Z 07004MPS 050V110 6000 NSC 29/20 Q1014 NOSIG
ZHCC,2021-09-23 05:00,ZHCC 230500Z 10004MPS 050V130 8000 NSC 31/21 Q1013 NOSIG
ZHCC,2021-09-23 06:00,ZHCC 230600Z 09003MPS 030V130 CAVOK 32/20 Q1013 NOSIG
ZHCC,2021-09-23 07:00,ZHCC 230700Z 07004MPS 030V110 CAVOK 32/19 Q1012 NOSIG
ZHCC,2021-09-23 08:00,ZHCC 230800Z 01006MPS 340V070 8000 NSC 30/22 Q1013 NOSIG
ZHCC,2021-09-23 09:00,ZHCC 230900Z 01005MPS 8000 NSC 27/21 Q1013 NOSIG
ZHCC,2021-09-23 10:00,ZHCC 231000Z 02006MPS 350V050 8000 NSC 26/20 Q1014 NOSIG
ZHCC,2021-09-23 11:00,ZHCC 231100Z 04005MPS 8000 NSC 25/20 Q1013 NOSIG
ZHCC,2021-09-23 12:00,ZHCC 231200Z 03006MPS 360V060 6000 NSC 25/20 Q1014 NOSIG
ZHCC,2021-09-23 13:00,ZHCC 231300Z 04003MPS 010V070 6000 NSC 24/20 Q1015 NOSIG
ZHCC,2021-09-23 14:00,ZHCC 231400Z 36003MPS 330V040 5000 BR NSC 24/20 Q1015 NOSIG
ZHCC,2021-09-23 15:00,ZHCC 231500Z 35003MPS 310V060 5000 BR NSC 24/20 Q1015 NOSIG
ZHCC,2021-09-23 16:00,ZHCC 231600Z 36003MPS 330V030 5000 BR NSC 23/20 Q1015 NOSIG
ZHCC,2021-09-23 17:00,ZHCC 231700Z 02004MPS 350V050 5000 BR NSC 23/20 Q1015 NOSIG
ZHCC,2021-09-23 18:00,ZHCC 231800Z 02004MPS 350V050 5000 BR NSC 23/20 Q1015 NOSIG
ZHCC,2021-09-23 19:00,ZHCC 231900Z 03005MPS 350V050 5000 BR NSC 22/19 Q1015 NOSIG
ZHCC,2021-09-23 20:00,ZHCC 232000Z 03005MPS 360V060 5000 BR NSC 22/19 Q1015 NOSIG
ZHCC,2021-09-23 21:00,ZHCC 232100Z 04004MPS 010V090 5000 BR NSC 22/19 Q1016 NOSIG
ZHCC,2021-09-23 22:00,ZHCC 232200Z 02003MPS 350V060 4000 BR BKN020 21/19 Q1016 NOSIG
ZHCC,2021-09-23 23:00,ZHCC 232300Z 02003MPS 350V100 3000 BR BKN020 21/19 Q1016 BECMG TL2340 2000
ZHCC,2021-09-24 00:00,ZHCC 240000Z 03005MPS 010V070 2500 BR BKN020 22/20 Q1016 NOSIG
ZHCC,2021-09-24 01:00,ZHCC 240100Z 04004MPS 010V070 2000 BR OVC020 22/20 Q1016 NOSIG
ZHCC,2021-09-24 02:00,ZHCC 240200Z 05005MPS 010V080 2000 BR OVC020 23/20 Q1017 NOSIG
ZHCC,2021-09-24 03:00,ZHCC 240300Z 06004MPS 2500 BR OVC020 23/20 Q1016 NOSIG
ZHCC,2021-09-24 04:00,ZHCC 240400Z 05003MPS 020V080 2500 -RA BR OVC020 24/21 Q1016 NOSIG
ZHCC,2021-09-24 05:00,ZHCC 240500Z 05004MPS 2500 -RA BR OVC020 23/21 Q1015 NOSIG
ZHCC,2021-09-24 06:00,ZHCC 240600Z 06004MPS 2500 -RA BR OVC020 24/22 Q1014 BECMG TL0720 SHRA FEW030CB BKN030
ZHCC,2021-09-24 07:00,ZHCC 240700Z 04005MPS 1500 -RA BR OVC020 22/21 Q1014 BECMG TL0840 SHRA FEW030CB BKN030
ZHCC,2021-09-24 08:00,ZHCC 240800Z 07005MPS 1000 R12R/1400U R12L/1700N -RA BR OVC020 22/21 Q1013 BECMG TL0920 1500 SHRA FEW030CB BKN030
ZHCC,2021-09-24 09:00,ZHCC 240900Z 05005MPS 1500 -SHRA BR FEW020CB BKN030 22/21 Q1013 RESHRA BECMG TL0940 SHRA
ZHCC,2021-09-24 10:00,ZHCC 241000Z 08005MPS 1500 -SHRA BR FEW020CB BKN030 22/21 Q1013 RESHRA NOSIG
ZHCC,2021-09-24 11:00,ZHCC 241100Z 10005MPS 6000 OVC020 22/21 Q1013 NOSIG
ZHCC,2021-09-24 12:00,ZHCC 241200Z 09004MPS 8000 OVC020 21/20 Q1012 NOSIG
ZHCC,2021-09-24 13:00,ZHCC 241300Z 07003MPS 6000 -TSRA FEW020CB BKN030 21/20 Q1012 RESHRA NOSIG
ZHCC,2021-09-24 14:00,ZHCC 241400Z 36002MPS 290V050 4000 TSRA BR FEW020CB BKN030 21/20 Q1013 BECMG TL1540 -SHRA
ZHCC,2021-09-24 15:00,ZHCC 241500Z 33006MPS 4000 TSRA BR FEW020CB BKN030 21/21 Q1013 BECMG TL1540 -SHRA
ZHCC,2021-09-24 16:00,ZHCC 241600Z 35006MPS 320V020 6000 SHRA FEW020CB BKN030 20/20 Q1013 RETS BECMG TL1740 -SHRA
ZHCC,2021-09-24 17:00,ZHCC 241700Z 01004MPS 350V050 6000 SHRA FEW020CB BKN030 20/20 Q1013 BECMG TL1740 -SHRA
ZHCC,2021-09-24 18:00,ZHCC 241800Z 36003MPS 330V040 8000 -SHRA FEW020CB BKN030 20/20 Q1012 RESHRA NOSIG
ZHCC,2021-09-24 19:00,ZHCC 241900Z 33004MPS 300V360 8000 -SHRA FEW020CB BKN030 20/20 Q1012 NOSIG
ZHCC,2021-09-24 20:00,ZHCC 242000Z 35004MPS 320V020 8000 -SHRA SCT006 FEW020CB BKN020 20/20 Q1012 NOSIG
ZHCC,2021-09-24 21:00,ZHCC 242100Z 01003MPS 340V040 8000 -SHRA SCT006 FEW020CB BKN020 20/20 Q1012 NOSIG
ZHCC,2021-09-24 22:00,ZHCC 242200Z 01003MPS 340V040 8000 -SHRA SCT006 FEW020CB BKN020 20/20 Q1013 NOSIG
ZHCC,2021-09-24 23:00,ZHCC 242300Z 03004MPS 360V060 4000 SHRA BR SCT006 FEW020CB BKN020 20/20 Q1013 NOSIG
ZHCC,2021-09-25 00:00,ZHCC 250000Z 35003MPS 320V020 4000 SHRA BR SCT006 FEW020CB BKN020 20/20 Q1014 BECMG TL0040 -SHRA
ZHCC,2021-09-25 01:00,ZHCC 250100Z 36004MPS 6000 -SHRA SCT006 FEW020CB BKN020 21/20 Q1014 RESHRA NOSIG
ZHCC,2021-09-25 02:00,ZHCC 250200Z 36004MPS 330V030 8000 -RA SCT006 OVC020 21/20 Q1015 NOSIG
ZHCC,2021-09-25 03:00,ZHCC 250300Z 03004MPS 360V060 6000 -RA SCT006 OVC020 21/20 Q1015 NOSIG
ZHCC,2021-09-25 04:00,ZHCC 250400Z 03004MPS 3000 -RA BR SCT006 OVC020 20/20 Q1015 NOSIG
ZHCC,2021-09-25 05:00,ZHCC 250500Z 02006MPS 2000 -RA BR SCT006 OVC020 19/19 Q1015 BECMG TL0640 3000
ZHCC,2021-09-25 06:00,ZHCC 250600Z 02006MPS 2000 -RA BR SCT006 OVC020 18/18 Q1015 BECMG TL0740 3000
ZHCC,2021-09-25 07:00,ZHCC 250700Z 02006MPS 2500 -RA BR SCT006 OVC020 18/17 Q1015 BECMG TL0740 3000
ZHCC,2021-09-25 08:00,ZHCC 250800Z 03006MPS 290V050 3000 -RA BR SCT007 OVC020 18/17 Q1015 NOSIG
ZHCC,2021-09-25 09:00,ZHCC 250900Z 02004MPS 340V110 3000 -RA BR SCT007 OVC020 18/17 Q1016 NOSIG
ZHCC,2021-09-25 10:00,ZHCC 251000Z 03005MPS 360V060 3000 -RA BR SCT007 OVC020 18/17 Q1016 NOSIG
ZHCC,2021-09-25 11:00,ZHCC 251100Z 03006MPS 360V060 4000 -RA BR SCT007 OVC020 18/17 Q1016 NOSIG
ZHCC,2021-09-25 12:00,ZHCC 251200Z 03005MPS 360V060 6000 -RA SCT007 OVC020 18/17 Q1017 NOSIG
ZHCC,2021-09-25 13:00,ZHCC 251300Z 01004MPS 350V060 7000 -RA SCT007 OVC020 18/17 Q1017 NOSIG
ZHCC,2021-09-25 14:00,ZHCC 251400Z 02005MPS 340V050 8000 SCT007 OVC020 18/17 Q1017 NOSIG
ZHCC,2021-09-25 15:00,ZHCC 251500Z 03004MPS 360V070 5000 -RA BR SCT007 OVC020 18/17 Q1017 NOSIG
ZHCC,2021-09-25 16:00,ZHCC 251600Z 02004MPS 5000 -RA BR SCT007 OVC020 18/17 Q1016 NOSIG
ZHCC,2021-09-25 17:00,ZHCC 251700Z 03005MPS 4000 -RA BR SCT007 OVC020 18/17 Q1016 NOSIG
ZHCC,2021-09-25 18:00,ZHCC 251800Z 02004MPS 7000 -SHRA SCT007 FEW020CB BKN020 18/17 Q1016 RESHRA NOSIG
ZHCC,2021-09-25 19:00,ZHCC 251900Z 01003MPS 350V070 7000 -SHRA SCT007 FEW020CB BKN020 18/17 Q1016 NOSIG
ZHCC,2021-09-25 20:00,ZHCC 252000Z 02003MPS 350V050 7000 -SHRA SCT007 FEW020CB BKN020 18/17 Q1016 NOSIG
ZHCC,2021-09-25 21:00,ZHCC 252100Z 01004MPS 7000 -SHRA SCT007 FEW020CB BKN020 18/17 Q1015 NOSIG
ZHCC,2021-09-25 22:00,ZHCC 252200Z 35004MPS 7000 -SHRA SCT007 FEW020CB BKN020 18/17 Q1016 NOSIG
ZHCC,2021-09-25 23:00,ZHCC 252300Z 35004MPS 320V020 4000 -RA BR SCT007 OVC020 18/17 Q1016 NOSIG
ZHCC,2021-09-26 00:00,ZHCC 260000Z 02005MPS 340V050 6000 SCT007 OVC020 18/17 Q1016 NOSIG
ZHCC,2021-09-26 01:00,ZHCC 260100Z 01004MPS 340V040 9999 SCT009 OVC030 19/17 Q1017 NOSIG
ZHCC,2021-09-26 02:00,ZHCC 260200Z 35004MPS 9999 SCT008 OVC030 19/18 Q1017 NOSIG
ZHCC,2021-09-26 03:00,ZHCC 260300Z 35005MPS 9999 SCT008 OVC030 20/18 Q1017 NOSIG
ZHCC,2021-09-26 04:00,ZHCC 260400Z 36005MPS 9999 SCT010 OVC030 20/17 Q1016 NOSIG
ZHCC,2021-09-26 05:00,ZHCC 260500Z 34005G10MPS 220V020 9999 OVC020 21/18 Q1016 NOSIG
ZHCC,2021-09-26 06:00,ZHCC 260600Z 36004MPS 320V030 9999 OVC020 22/18 Q1016 NOSIG
ZHCC,2021-09-26 07:00,ZHCC 260700Z 33004MPS 9999 OVC020 22/18 Q1015 NOSIG
ZHCC,2021-09-26 08:00,ZHCC 260800Z 33004MPS 9999 OVC020 22/18 Q1015 NOSIG
ZHCC,2021-09-26 09:00,ZHCC 260900Z 33003MPS 300V360 9999 OVC030 21/18 Q1016 NOSIG
ZHCC,2021-09-26 10:00,ZHCC 261000Z 30003MPS 9999 OVC030 21/18 Q1016 NOSIG
ZHCC,2021-09-26 11:00,ZHCC 261100Z 30002MPS 260V320 9999 OVC030 20/18 Q1016 NOSIG
ZHCC,2021-09-26 12:00,ZHCC 261200Z 32002MPS 9999 OVC020 20/18 Q1017 NOSIG
ZHCC,2021-09-26 13:00,ZHCC 261300Z 32003MPS 9999 OVC020 21/18 Q1017 NOSIG
ZHCC,2021-09-26 14:00,ZHCC 261400Z 33002MPS 300V360 9999 OVC020 20/18 Q1017 NOSIG
ZHCC,2021-09-26 15:00,ZHCC 261500Z 00000MPS 9999 OVC040 20/18 Q1017 NOSIG
ZHCC,2021-09-26 16:00,ZHCC 261600Z VRB01MPS 8000 NSC 19/18 Q1017 NOSIG
ZHCC,2021-09-26 17:00,ZHCC 261700Z 36002MPS 330V030 8000 FEW020 20/19 Q1016 NOSIG
ZHCC,2021-09-26 18:00,ZHCC 261800Z 01002MPS 6000 FEW020 20/18 Q1016 NOSIG
ZHCC,2021-09-26 19:00,ZHCC 261900Z 02002MPS 8000 NSC 20/18 Q1016 NOSIG
ZHCC,2021-09-26 20:00,ZHCC 262000Z 00000MPS 5000 BR NSC 19/18 Q1016 NOSIG
ZHCC,2021-09-26 21:00,ZHCC 262100Z 06001MPS 5000 BR NSC 19/18 Q1016 NOSIG
ZHCC,2021-09-26 22:00,ZHCC 262200Z 00000MPS 5000 BR NSC 19/18 Q1016 NOSIG
ZHCC,2021-09-26 23:00,ZHCC 262300Z 00000MPS 5000 BR NSC 19/18 Q1017 NOSIG
ZHCC,2021-09-27 00:00,ZHCC 270000Z 05002MPS 350V160 8000 NSC 20/17 Q1017 NOSIG
ZHCC,2021-09-27 01:00,ZHCC 270100Z 03003MPS 8000 NSC 21/18 Q1018 NOSIG
ZHCC,2021-09-27 02:00,ZHCC 270200Z 01003G08MPS 340V070 8000 BKN040 22/18 Q1017 NOSIG
ZHCC,2021-09-27 03:00,ZHCC 270300Z VRB03MPS 8000 BKN040 23/18 Q1017 NOSIG
ZHCC,2021-09-27 04:00,ZHCC 270400Z 04003MPS 360V060 9999 BKN040 23/18 Q1017 NOSIG
ZHCC,2021-09-27 05:00,ZHCC 270500Z VRB02MPS 9999 BKN040 23/18 Q1016 NOSIG
ZHCC,2021-09-27 06:00,ZHCC 270600Z 01002MPS 340V040 9999 BKN030 23/18 Q1016 NOSIG
ZHCC,2021-09-27 07:00,ZHCC 270700Z 36003MPS 330V040 9999 BKN030 23/18 Q1015 NOSIG
ZHCC,2021-09-27 08:00,ZHCC 270800Z 36002MPS 330V130 5000 -RA BR OVC030 22/19 Q1015 NOSIG
ZHCC,2021-09-27 09:00,ZHCC 270900Z 02003MPS 350V060 8000 OVC030 22/18 Q1015 NOSIG
ZHCC,2021-09-27 10:00,ZHCC 271000Z VRB02MPS 8000 OVC030 22/18 Q1015 NOSIG
ZHCC,2021-09-27 11:00,ZHCC 271100Z 05002MPS 030V150 8000 -RA OVC030 21/19 Q1015 NOSIG
ZHCC,2021-09-27 12:00,ZHCC 271200Z VRB01MPS 8000 OVC030 21/19 Q1015 NOSIG
ZHCC,2021-09-27 13:00,ZHCC 271300Z VRB01MPS 8000 OVC030 21/18 Q1015 NOSIG
ZHCC,2021-09-27 14:00,ZHCC 271400Z VRB01MPS 8000 OVC040 21/19 Q1015 NOSIG
ZHCC,2021-09-27 15:00,ZHCC 271500Z 03003MPS 8000 -RA OVC040 21/19 Q1015 NOSIG
ZHCC,2021-09-27 16:00,ZHCC 271600Z 01003MPS 8000 -RA OVC040 20/19 Q1015 NOSIG
ZHCC,2021-09-27 17:00,ZHCC 271700Z 04002MPS 350V070 6000 -RA OVC040 20/18 Q1014 NOSIG
ZHCC,2021-09-27 18:00,ZHCC 271800Z 02002MPS 350V050 6000 -RA OVC040 20/19 Q1014 NOSIG
ZHCC,2021-09-27 19:00,ZHCC 271900Z 05002MPS 6000 -RA OVC040 20/19 Q1013 NOSIG
ZHCC,2021-09-27 20:00,ZHCC 272000Z 03004MPS 5000 -RA BR FEW007 OVC030 20/19 Q1013 NOSIG
ZHCC,2021-09-27 21:00,ZHCC 272100Z 01003MPS 3000 RA BR SCT006 OVC030 19/18 Q1013 BECMG TL2230 -RA
ZHCC,2021-09-27 22:00,ZHCC 272200Z 35002MPS 320V020 4000 -RA BR SCT006 OVC030 19/19 Q1013 RERA NOSIG
ZHCC,2021-09-27 23:00,ZHCC 272300Z VRB03MPS 3000 -RA BR SCT006 OVC030 19/19 Q1013 NOSIG
ZHCC,2021-09-28 00:00,ZHCC 280000Z 02003MPS 340V050 2500 -RA BR SCT006 OVC030 19/19 Q1014 NOSIG
ZHCC,2021-09-28 01:00,ZHCC 280100Z 01003MPS 2500 RA BR SCT005 OVC023 19/19 Q1014 NOSIG
ZHCC,2021-09-28 02:00,ZHCC 280200Z 35003MPS 330V040 2500 RA BR SCT005 OVC023 19/19 Q1014 BECMG TL0340 3000 -RA BR
ZHCC,2021-09-28 03:00,ZHCC 280300Z 01005MPS 350V050 3000 RA BR SCT005 OVC023 19/19 Q1014 BECMG TL0340 -RA BR
ZHCC,2021-09-28 04:00,ZHCC 280400Z 01005MPS 340V040 7000 -RA SCT007 OVC026 18/16 Q1014 RERA NOSIG
ZHCC,2021-09-28 05:00,ZHCC 280500Z 01004MPS 7000 -RA SCT007 OVC026 18/16 Q1013 NOSIG
ZHCC,2021-09-28 06:00,ZHCC 280600Z 34004MPS 310V020 6000 -RA SCT007 OVC026 18/17 Q1014 NOSIG
ZHCC,2021-09-28 07:00,ZHCC 280700Z 34004MPS 7000 -RA SCT007 OVC040 19/18 Q1013 NOSIG
ZHCC,2021-09-28 08:00,ZHCC 280800Z 34004MPS 6000 -RA SCT007 OVC040 18/17 Q1013 NOSIG
ZHCC,2021-09-28 09:00,ZHCC 280900Z 32004MPS 7000 -RA FEW007 SCT040 18/17 Q1013 NOSIG
ZHCC,2021-09-28 10:00,ZHCC 281000Z 32003MPS 290V360 8000 FEW007 SCT040 18/17 Q1013 NOSIG
ZHCC,2021-09-28 11:00,ZHCC 281100Z 30002MPS 9999 FEW015 17/16 Q1013 NOSIG
ZHCC,2021-09-28 12:00,ZHCC 281200Z 29002MPS CAVOK 17/16 Q1013 NOSIG
ZHCC,2021-09-28 13:00,ZHCC 281300Z VRB01MPS 8000 NSC 16/16 Q1014 NOSIG
ZHCC,2021-09-28 14:00,ZHCC 281400Z 28001MPS 8000 NSC 16/15 Q1014 NOSIG
ZHCC,2021-09-28 15:00,ZHCC 281500Z VRB01MPS 6000 NSC 15/15 Q1013 NOSIG
ZHCC,2021-09-28 16:00,ZHCC 281600Z 00000MPS 4000 BR NSC 15/14 Q1012 NOSIG
ZHCC,2021-09-28 17:00,ZHCC 281700Z VRB01MPS 3000 PRFG BR NSC 13/13 Q1012 NOSIG
ZHCC,2021-09-28 18:00,ZHCC 281800Z VRB01MPS 3000 R30L/0650D R30R/P2000 PRFG BR NSC 13/13 Q1011 NOSIG
ZHCC,2021-09-28 19:00,ZHCC 281900Z 00000MPS 3000 R30L/1300D R30R/P2000 PRFG BR NSC 13/13 Q1011 NOSIG
ZHCC,2021-09-28 20:00,ZHCC 282000Z VRB01MPS 3000 PRFG BR NSC 13/13 Q1011 NOSIG
ZHCC,2021-09-28 21:00,ZHCC 282100Z VRB01MPS 3000 PRFG BR NSC 12/12 Q1011 BECMG TL2240 1000
ZHCC,2021-09-28 22:00,ZHCC 282200Z VRB01MPS 1500 R30L/0225V0275D R30R/0450V0650D PRFG BR NSC 12/12 Q1011 BECMG TL2240 1000
ZHCC,2021-09-28 23:00,ZHCC 282300Z VRB01MPS 0400 R12R/1300D R12L/0325N FG NSC 15/14 Q1011 NOSIG
ZHCC,2021-09-29 00:00,ZHCC 290000Z VRB01MPS 0800 R12R/1400U R12L/P2000 FG NSC 15/15 Q1012 BECMG TL0140 2000 BR
ZHCC,2021-09-29 01:00,ZHCC 290100Z VRB01MPS 1500 BR NSC 17/17 Q1012 BECMG TL0240 3000
ZHCC,2021-09-29 02:00,ZHCC 290200Z VRB01MPS 2500 BR NSC 20/17 Q1012 BECMG TL0240 3000
ZHCC,2021-09-29 03:00,ZHCC 290300Z 18002MPS 110V260 6000 NSC 22/18 Q1012 NOSIG
ZHCC,2021-09-29 04:00,ZHCC 290400Z 19002MPS 120V260 CAVOK 25/18 Q1011 NOSIG
ZHCC,2021-09-29 05:00,ZHCC 290500Z VRB02MPS CAVOK 27/18 Q1011 NOSIG
ZHCC,2021-09-29 06:00,ZHCC 290600Z 23002MPS 140V290 CAVOK 28/18 Q1010 NOSIG
ZHCC,2021-09-29 07:00,ZHCC 290700Z VRB02MPS CAVOK 29/19 Q1010 NOSIG
ZHCC,2021-09-29 08:00,ZHCC 290800Z 21002MPS 100V260 CAVOK 29/18 Q1009 NOSIG
ZHCC,2021-09-29 09:00,ZHCC 290900Z VRB01MPS CAVOK 28/18 Q1010 NOSIG
ZHCC,2021-09-29 10:00,ZHCC 291000Z 13001MPS CAVOK 25/19 Q1010 NOSIG
ZHCC,2021-09-29 11:00,ZHCC 291100Z VRB01MPS CAVOK 23/19 Q1010 NOSIG
ZHCC,2021-09-29 12:00,ZHCC 291200Z VRB01MPS CAVOK 21/19 Q1011 NOSIG
ZHCC,2021-09-29 13:00,ZHCC 291300Z VRB01MPS CAVOK 19/18 Q1011 NOSIG
ZHCC,2021-09-29 14:00,ZHCC 291400Z VRB01MPS CAVOK 21/17 Q1012 NOSIG
ZHCC,2021-09-29 15:00,ZHCC 291500Z VRB01MPS CAVOK 18/17 Q1011 NOSIG
ZHCC,2021-09-29 16:00,ZHCC 291600Z VRB01MPS CAVOK 18/17 Q1011 NOSIG
ZHCC,2021-09-29 17:00,ZHCC 291700Z 19002MPS 160V230 CAVOK 20/16 Q1011 NOSIG
ZHCC,2021-09-29 18:00,ZHCC 291800Z 19002MPS 150V230 CAVOK 20/16 Q1010 NOSIG
ZHCC,2021-09-29 19:00,ZHCC 291900Z 19002MPS 140V230 CAVOK 19/17 Q1010 NOSIG
ZHCC,2021-09-29 20:00,ZHCC 292000Z 21002MPS 170V250 CAVOK 19/17 Q1010 NOSIG
ZHCC,2021-09-29 21:00,ZHCC 292100Z VRB01MPS 6000 NSC 17/16 Q1010 NOSIG
ZHCC,2021-09-29 22:00,ZHCC 292200Z VRB01MPS 5000 BR NSC 17/16 Q1010 NOSIG
ZHCC,2021-09-29 23:00,ZHCC 292300Z VRB01MPS 3000 BR NSC 19/17 Q1010 NOSIG
ZHCC,2021-09-30 00:00,ZHCC 300000Z 18002MPS 110V240 4000 BR NSC 20/18 Q1010 NOSIG
ZHCC,2021-09-30 01:00,ZHCC 300100Z 21003MPS 170V250 CAVOK 23/18 Q1010 NOSIG
ZHCC,2021-09-30 02:00,ZHCC 300200Z 18003MPS 110V240 CAVOK 24/18 Q1010 NOSIG
ZHCC,2021-09-30 03:00,ZHCC 300300Z 21005MPS 140V250 CAVOK 26/19 Q1010 NOSIG
ZHCC,2021-09-30 04:00,ZHCC 300400Z 18004MPS 130V230 CAVOK 28/17 Q1009 NOSIG
ZHCC,2021-09-30 05:00,ZHCC 300500Z 20004MPS 160V240 CAVOK 29/16 Q1008 NOSIG
ZHCC,2021-09-30 06:00,ZHCC 300600Z 19004MPS 140V240 CAVOK 30/16 Q1007 NOSIG
ZHCC,2021-09-30 07:00,ZHCC 300700Z 20003MPS 150V260 CAVOK 30/16 Q1007 NOSIG
ZHCC,2021-09-30 08:00,ZHCC 300800Z 19002MPS 110V260 CAVOK 30/16 Q1007 NOSIG
ZHCC,2021-09-30 09:00,ZHCC 300900Z 18002MPS 090V250 CAVOK 29/16 Q1007 NOSIG
ZHCC,2021-09-30 10:00,ZHCC 301000Z 19002MPS 120V280 CAVOK 27/16 Q1006 NOSIG
ZHCC,2021-09-30 11:00,ZHCC 301100Z VRB01MPS CAVOK 25/16 Q1007 NOSIG
ZHCC,2021-09-30 12:00,ZHCC 301200Z 19002MPS 130V250 CAVOK 24/16 Q1008 NOSIG
ZHCC,2021-09-30 13:00,ZHCC 301300Z 21002MPS 170V240 CAVOK 24/16 Q1008 NOSIG
ZHCC,2021-09-30 14:00,ZHCC 301400Z VRB01MPS CAVOK 23/16 Q1008 NOSIG
ZHCC,2021-09-30 15:00,ZHCC 301500Z 23002MPS 190V270 CAVOK 23/17 Q1008 NOSIG
ZHCC,2021-09-30 16:00,ZHCC 301600Z 28002MPS 240V330 CAVOK 21/17 Q1008 NOSIG
ZHCC,2021-09-30 17:00,ZHCC 301700Z 02001MPS CAVOK 19/17 Q1008 NOSIG
ZHCC,2021-09-30 18:00,ZHCC 301800Z VRB01MPS CAVOK 21/17 Q1007 NOSIG
ZHCC,2021-09-30 19:00,ZHCC 301900Z VRB01MPS CAVOK 19/17 Q1007 NOSIG
ZHCC,2021-09-30 20:00,ZHCC 302000Z 29002MPS CAVOK 17/17 Q1007 NOSIG
ZHCC,2021-09-30 21:00,ZHCC 302100Z 36002MPS 330V030 CAVOK 18/17 Q1008 NOSIG
ZHCC,2021-09-30 22:00,ZHCC 302200Z 29001MPS CAVOK 17/16 Q1009 NOSIG
ZHCC,2021-09-30 23:00,ZHCC 302300Z 36002MPS CAVOK 21/18 Q1009 NOSIG
ZHCC,2021-10-01 00:00,ZHCC 010000Z 36003MPS 330V030 2000 BR NSC 22/19 Q1010 BECMG TL0140 4000
ZHCC,2021-10-01 01:00,ZHCC 010100Z 01003MPS 330V040 2500 BR NSC 23/19 Q1011 NOSIG
ZHCC,2021-10-01 02:00,ZHCC 010200Z 01003MPS 290V050 2500 HZ NSC 25/19 Q1011 BECMG TL0340 3000
ZHCC,2021-10-01 03:00,ZHCC 010300Z 03004MPS 360V060 2500 HZ NSC 26/20 Q1011 BECMG TL0420 3000
ZHCC,2021-10-01 04:00,ZHCC 010400Z 05004MPS 010V150 3000 HZ NSC 26/19 Q1010 NOSIG
ZHCC,2021-10-01 05:00,ZHCC 010500Z VRB02MPS 3000 HZ NSC 27/19 Q1010 NOSIG
ZHCC,2021-10-01 06:00,ZHCC 010600Z 01004MPS 340V060 4000 HZ NSC 27/20 Q1010 NOSIG
ZHCC,2021-10-01 07:00,ZHCC 010700Z 04002MPS 320V110 4000 HZ NSC 27/20 Q1009 NOSIG
ZHCC,2021-10-01 08:00,ZHCC 010800Z 05004MPS 010V080 4000 HZ NSC 27/19 Q1009 NOSIG
ZHCC,2021-10-01 09:00,ZHCC 010900Z 05004MPS 4000 HZ NSC 26/19 Q1009 NOSIG
ZHCC,2021-10-01 10:00,ZHCC 011000Z 05002MPS 020V090 4000 HZ NSC 25/19 Q1009 NOSIG
ZHCC,2021-10-01 11:00,ZHCC 011100Z VRB01MPS 5000 BR NSC 23/19 Q1010 NOSIG
ZHCC,2021-10-01 12:00,ZHCC 011200Z VRB01MPS 5000 BR NSC 21/19 Q1010 NOSIG
ZHCC,2021-10-01 13:00,ZHCC 011300Z 28002MPS 4000 BR NSC 20/19 Q1012 NOSIG
ZHCC,2021-10-01 14:00,ZHCC 011400Z 21001MPS 4000 BR NSC 20/19 Q1012 NOSIG
ZHCC,2021-10-01 15:00,ZHCC 011500Z 28002MPS 240V330 3500 BR NSC 19/19 Q1012 NOSIG
ZHCC,2021-10-01 16:00,ZHCC 011600Z VRB01MPS 3500 BR NSC 19/18 Q1011 NOSIG
ZHCC,2021-10-01 17:00,ZHCC 011700Z 00000MPS 3500 BR NSC 19/18 Q1011 NOSIG
ZHCC,2021-10-01 18:00,ZHCC 011800Z VRB01MPS 3500 BR NSC 19/18 Q1011 NOSIG
ZHCC,2021-10-01 19:00,ZHCC 011900Z 25001MPS 3500 BR NSC 18/18 Q1011 NOSIG
ZHCC,2021-10-01 20:00,ZHCC 012000Z 00000MPS 3000 BR NSC 18/17 Q1010 NOSIG
ZHCC,2021-10-01 21:00,ZHCC 012100Z VRB01MPS 2000 R12R/1200U R12L/P2000 BR NSC 17/17 Q1010 NOSIG
ZHCC,2021-10-01 22:00,ZHCC 012200Z 19001MPS 2000 BR NSC 17/17 Q1010 NOSIG
ZHCC,2021-10-01 23:00,ZHCC 012300Z 21001MPS 1300 R12R/1500N R12L/P2000 BR NSC 18/18 Q1010 BECMG TL0040 2000
ZHCC,2021-10-02 00:00,ZHCC 020000Z VRB01MPS 1300 R12R/1500N R12L/P2000 BR NSC 21/20 Q1010 BECMG TL0120 2000
ZHCC,2021-10-02 01:00,ZHCC 020100Z 17002MPS 110V220 1600 BR NSC 23/20 Q1011 BECMG TL0240 3000
ZHCC,2021-10-02 02:00,ZHCC 020200Z 17002MPS 110V220 2500 BR NSC 26/21 Q1011 BECMG TL0240 3000
ZHCC,2021-10-02 03:00,ZHCC 020300Z 19002MPS 120V250 3000 HZ NSC 28/21 Q1010 NOSIG
ZHCC,2021-10-02 04:00,ZHCC 020400Z VRB02MPS 3000 HZ NSC 29/22 Q1009 NOSIG
ZHCC,2021-10-02 05:00,ZHCC 020500Z VRB02MPS 4000 HZ FEW026 30/22 Q1009 NOSIG
ZHCC,2021-10-02 06:00,ZHCC 020600Z 17002MPS 090V240 6000 FEW033 31/21 Q1008 NOSIG
ZHCC,2021-10-02 07:00,ZHCC 020700Z VRB02MPS 9999 FEW046 31/20 Q1007 NOSIG
ZHCC,2021-10-02 08:00,ZHCC 020800Z 15002MPS 090V220 CAVOK 31/20 Q1007 NOSIG
ZHCC,2021-10-02 09:00,ZHCC 020900Z 14002MPS 090V200 CAVOK 30/20 Q1006 NOSIG
ZHCC,2021-10-02 10:00,ZHCC 021000Z VRB01MPS CAVOK 28/21 Q1006 NOSIG
ZHCC,2021-10-02 11:00,ZHCC 021100Z 13002MPS 100V180 CAVOK 27/20 Q1007 NOSIG
ZHCC,2021-10-02 12:00,ZHCC 021200Z VRB02MPS CAVOK 28/20 Q1007 NOSIG
ZHCC,2021-10-02 13:00,ZHCC 021300Z 17003MPS 090V240 CAVOK 29/19 Q1007 NOSIG
ZHCC,2021-10-02 14:00,ZHCC 021400Z 17002MPS 100V250 CAVOK 27/19 Q1007 NOSIG
ZHCC,2021-10-02 15:00,ZHCC 021500Z VRB01MPS CAVOK 25/20 Q1008 NOSIG
ZHCC,2021-10-02 16:00,ZHCC 021600Z 00000MPS CAVOK 25/20 Q1008 NOSIG
ZHCC,2021-10-02 17:00,ZHCC 021700Z VRB01MPS CAVOK 23/20 Q1007 NOSIG
ZHCC,2021-10-02 18:00,ZHCC 021800Z 11002MPS CAVOK 23/20 Q1007 NOSIG
ZHCC,2021-10-02 19:00,ZHCC 021900Z VRB01MPS CAVOK 23/20 Q1007 NOSIG
ZHCC,2021-10-02 20:00,ZHCC 022000Z 14002MPS 090V180 CAVOK 23/20 Q1006 NOSIG
ZHCC,2021-10-02 21:00,ZHCC 022100Z 14002MPS 100V180 CAVOK 23/20 Q1006 NOSIG
ZHCC,2021-10-02 22:00,ZHCC 022200Z VRB02MPS CAVOK 23/20 Q1007 NOSIG
ZHCC,2021-10-02 23:00,ZHCC 022300Z 15002MPS 090V210 8000 NSC 23/20 Q1007 NOSIG
ZHCC,2021-10-03 00:00,ZHCC 030000Z 13002MPS 090V220 8000 NSC 24/20 Q1007 NOSIG
ZHCC,2021-10-03 01:00,ZHCC 030100Z VRB02MPS CAVOK 26/21 Q1007 NOSIG
ZHCC,2021-10-03 02:00,ZHCC 030200Z VRB02MPS CAVOK 28/22 Q1007 NOSIG
ZHCC,2021-10-03 03:00,ZHCC 030300Z 19002MPS 110V230 CAVOK 29/22 Q1007 NOSIG
ZHCC,2021-10-03 04:00,ZHCC 030400Z 19004MPS 140V240 CAVOK 30/22 Q1006 NOSIG
ZHCC,2021-10-03 05:00,ZHCC 030500Z 19003MPS 140V260 CAVOK 31/22 Q1006 NOSIG
ZHCC,2021-10-03 06:00,ZHCC 030600Z 21002MPS 150V260 9999 FEW040 32/23 Q1005 NOSIG
ZHCC,2021-10-03 07:00,ZHCC 030700Z 19002MPS 120V270 CAVOK 32/23 Q1005 NOSIG
ZHCC,2021-10-03 08:00,ZHCC 030800Z VRB02MPS CAVOK 32/23 Q1005 NOSIG
ZHCC,2021-10-03 09:00,ZHCC 030900Z VRB01MPS CAVOK 31/24 Q1005 NOSIG
ZHCC,2021-10-03 10:00,ZHCC 031000Z 36005MPS 320V040 7000 NSC 29/23 Q1006 NOSIG
ZHCC,2021-10-03 11:00,ZHCC 031100Z 03005MPS 7000 NSC 25/22 Q1007 NOSIG
ZHCC,2021-10-03 12:00,ZHCC 031200Z 01004MPS 350V070 7000 NSC 24/21 Q1008 NOSIG
ZHCC,2021-10-03 13:00,ZHCC 031300Z 03004MPS 360V070 6000 NSC 24/21 Q1009 NOSIG
ZHCC,2021-10-03 14:00,ZHCC 031400Z 03004MPS 350V060 6000 NSC 23/21 Q1010 NOSIG
ZHCC,2021-10-03 15:00,ZHCC 031500Z 03004MPS 360V060 6000 FEW020 23/20 Q1010 NOSIG
ZHCC,2021-10-03 16:00,ZHCC 031600Z 04005MPS 6000 FEW020 22/20 Q1011 NOSIG
ZHCC,2021-10-03 17:00,ZHCC 031700Z 03005MPS 360V060 6000 NSC 22/19 Q1011 NOSIG
ZHCC,2021-10-03 18:00,ZHCC 031800Z 02006MPS 360V060 6000 SCT020 22/20 Q1012 NOSIG
ZHCC,2021-10-03 19:00,ZHCC 031900Z 04007MPS 010V070 6000 FEW020CB BKN020 22/19 Q1012 NOSIG
ZHCC,2021-10-03 20:00,ZHCC 032000Z 03007MPS 360V060 6000 BKN020 22/19 Q1013 NOSIG
ZHCC,2021-10-03 21:00,ZHCC 032100Z 04007MPS 6000 BKN020 22/19 Q1013 NOSIG
ZHCC,2021-10-03 22:00,ZHCC 032200Z 04006MPS 6000 BKN020 22/19 Q1014 NOSIG
ZHCC,2021-10-03 23:00,ZHCC 032300Z 03008G14MPS 3500 BR BKN020 21/19 Q1015 NOSIG
ZHCC,2021-10-04 00:00,ZHCC 040000Z 04006MPS 020V080 6000 BKN020 20/16 Q1016 NOSIG
ZHCC,2021-10-04 01:00,ZHCC 040100Z 03006G11MPS 8000 OVC030 20/15 Q1016 NOSIG
ZHCC,2021-10-04 02:00,ZHCC 040200Z 04007MPS 010V070 8000 OVC030 21/13 Q1016 NOSIG
ZHCC,2021-10-04 03:00,ZHCC 040300Z 02006MPS 350V060 8000 OVC030 21/14 Q1017 NOSIG
ZHCC,2021-10-04 04:00,ZHCC 040400Z 04006MPS 350V070 8000 OVC030 21/13 Q1016 NOSIG
ZHCC,2021-10-04 05:00,ZHCC 040500Z 04007MPS 020V080 8000 OVC030 20/13 Q1016 NOSIG
ZHCC,2021-10-04 06:00,ZHCC 040600Z 04008MPS 8000 OVC030 20/13 Q1015 NOSIG
ZHCC,2021-10-04 07:00,ZHCC 040700Z 03007MPS 360V070 8000 OVC030 19/13 Q1016 NOSIG
ZHCC,2021-10-04 08:00,ZHCC 040800Z 03009G14MPS 360V060 8000 OVC030 16/12 Q1017 NOSIG
ZHCC,2021-10-04 09:00,ZHCC 040900Z 03007MPS 360V070 9999 OVC020 16/12 Q1017 NOSIG
ZHCC,2021-10-04 10:00,ZHCC 041000Z 03007MPS 360V060 9999 OVC020 15/12 Q1018 NOSIG
ZHCC,2021-10-04 11:00,ZHCC 041100Z 02008MPS 360V070 9999 OVC020 15/11 Q1019 NOSIG
ZHCC,2021-10-04 12:00,ZHCC 041200Z 02008G14MPS 350V060 9999 OVC020 15/11 Q1020 NOSIG
ZHCC,2021-10-04 13:00,ZHCC 041300Z 02009G14MPS 350V070 9999 OVC020 15/11 Q1021 NOSIG
ZHCC,2021-10-04 14:00,ZHCC 041400Z 02006G11MPS 350V060 9999 OVC020 15/11 Q1022 NOSIG
ZHCC,2021-10-04 15:00,ZHCC 041500Z 02008G14MPS 350V060 9999 OVC020 14/11 Q1022 NOSIG
ZHCC,2021-10-04 16:00,ZHCC 041600Z 02008G13MPS 350V050 7000 OVC020 13/11 Q1022 NOSIG
ZHCC,2021-10-04 19:00,ZHCC 041900Z 02008G14MPS 350V050 9999 OVC020 13/10 Q1022 NOSIG
ZHCC,2021-10-04 20:00,ZHCC 042000Z 02008G14MPS 350V060 9999 OVC020 13/10 Q1022 NOSIG
ZHCC,2021-10-04 21:00,ZHCC 042100Z 01005G10MPS 330V060 5000 -RA BR OVC020 13/11 Q1023 NOSIG
ZHCC,2021-10-04 22:00,ZHCC 042200Z 02007G12MPS 350V050 5000 -RA BR OVC020 12/11 Q1023 NOSIG
ZHCC,2021-10-04 23:00,ZHCC 042300Z 02007MPS 350V060 5000 -RA BR SCT007 OVC020 12/11 Q1023 NOSIG
ZHCC,2021-10-05 00:00,ZHCC 050000Z 02007G12MPS 340V060 9999 SCT010 OVC020 12/10 Q1024 NOSIG
ZHCC,2021-10-05 07:00,ZHCC 050700Z 03006G11MPS 360V070 6000 SCT010 OVC020 12/10 Q1023 NOSIG
ZHCC,2021-10-05 08:00,ZHCC 050800Z 02006G11MPS 340V050 3500 -RA BR SCT007 OVC020 11/10 Q1023 NOSIG
ZHCC,2021-10-05 09:00,ZHCC 050900Z 03006G11MPS 360V070 3500 -RA BR SCT007 OVC020 11/10 Q1023 NOSIG
ZHCC,2021-10-05 11:00,ZHCC 051100Z 02006MPS 350V050 4000 -RA BR SCT007 OVC020 11/10 Q1023 NOSIG
ZHCC,2021-10-05 13:00,ZHCC 051300Z 02006G12MPS 360V060 5000 -RA BR SCT007 OVC020 11/10 Q1024 NOSIG
ZHCC,2021-10-05 14:00,ZHCC 051400Z 02005MPS 350V050 5000 -RA BR SCT007 OVC020 11/10 Q1024 NOSIG
ZHCC,2021-10-05 15:00,ZHCC 051500Z 03006MPS 360V060 5000 -RA BR SCT007 OVC020 11/10 Q1024 NOSIG
ZHCC,2021-10-05 16:00,ZHCC 051600Z 02005MPS 360V060 6000 SCT007 OVC020 11/10 Q1024 NOSIG
ZHCC,2021-10-05 17:00,ZHCC 051700Z 02006MPS 350V050 6000 SCT007 OVC020 11/10 Q1024 NOSIG
ZHCC,2021-10-05 18:00,ZHCC 051800Z 01006G11MPS 340V040 8000 SCT007 OVC020 11/10 Q1024 NOSIG
ZHCC,2021-10-05 19:00,ZHCC 051900Z 02007MPS 350V050 8000 SCT007 OVC020 10/09 Q1023 NOSIG
ZHCC,2021-10-05 20:00,ZHCC 052000Z 01005MPS 330V070 6000 SCT006 OVC016 10/09 Q1023 NOSIG
ZHCC,2021-10-05 21:00,ZHCC 052100Z 01006MPS 5000 -RA BR SCT005 OVC016 11/10 Q1023 NOSIG
ZHCC,2021-10-05 22:00,ZHCC 052200Z 01006MPS 340V050 5000 -RA BR SCT005 OVC016 10/10 Q1023 NOSIG
ZHCC,2021-10-05 23:00,ZHCC 052300Z 01005G10MPS 350V060 4000 -RA BR SCT006 OVC015 11/10 Q1022 NOSIG
ZHCC,2021-10-06 00:00,ZHCC 060000Z 02005MPS 340V060 3500 -RA BR SCT006 OVC015 11/10 Q1023 NOSIG
ZHCC,2021-10-06 01:00,ZHCC 060100Z 02005MPS 340V060 4000 -RA BR SCT006 OVC015 11/10 Q1023 NOSIG
ZHCC,2021-10-06 02:00,ZHCC 060200Z 01006MPS 340V050 6000 -RA SCT007 OVC020 11/10 Q1023 NOSIG
ZHCC,2021-10-06 03:00,ZHCC 060300Z 01005MPS 340V060 5000 -RA BR SCT007 OVC020 11/10 Q1023 NOSIG
ZHCC,2021-10-06 04:00,ZHCC 060400Z 01006MPS 340V060 5000 -RA BR SCT007 OVC020 11/10 Q1023 NOSIG
ZHCC,2021-10-06 05:00,ZHCC 060500Z 36005MPS 330V030 4000 -RA BR SCT007 OVC020 11/10 Q1022 NOSIG
ZHCC,2021-10-06 06:00,ZHCC 060600Z 36004MPS 4000 -RA BR SCT007 OVC020 12/11 Q1021 NOSIG
ZHCC,2021-10-06 07:00,ZHCC 060700Z 01004MPS 330V040 4000 -RA BR SCT007 OVC020 12/11 Q1021 NOSIG
ZHCC,2021-10-06 08:00,ZHCC 060800Z 02003MPS 5000 -RA BR SCT007 OVC020 12/11 Q1021 NOSIG
ZHCC,2021-10-06 09:00,ZHCC 060900Z 02005MPS 6000 SCT010 OVC020 12/10 Q1021 NOSIG
ZHCC,2021-10-06 10:00,ZHCC 061000Z 01004MPS 330V030 8000 SCT010 OVC020 12/10 Q1021 NOSIG
ZHCC,2021-10-06 11:00,ZHCC 061100Z 01004MPS 340V040 5000 -RA BR SCT007 OVC015 11/10 Q1021 NOSIG
ZHCC,2021-10-06 12:00,ZHCC 061200Z 02006MPS 5000 BR SCT007 OVC015 11/10 Q1022 NOSIG
ZHCC,2021-10-06 13:00,ZHCC 061300Z 36005MPS 8000 SCT010 OVC020 12/10 Q1023 NOSIG
ZHCC,2021-10-06 14:00,ZHCC 061400Z 01006MPS 340V040 8000 SCT010 OVC020 11/10 Q1022 NOSIG
ZHCC,2021-10-06 15:00,ZHCC 061500Z 01004MPS 340V040 8000 SCT010 OVC020 11/10 Q1022 NOSIG
ZHCC,2021-10-06 16:00,ZHCC 061600Z 01006MPS 6000 -RA SCT008 OVC020 11/10 Q1022 NOSIG
ZHCC,2021-10-06 17:00,ZHCC 061700Z 36006MPS 8000 -RA SCT008 OVC020 11/10 Q1022 NOSIG
ZHCC,2021-10-06 18:00,ZHCC 061800Z 01004MPS 330V040 6000 -RA SCT006 OVC020 11/10 Q1022 NOSIG
ZHCC,2021-10-06 19:00,ZHCC 061900Z 35004MPS 320V020 6000 SCT006 OVC020 11/10 Q1022 NOSIG
ZHCC,2021-10-06 20:00,ZHCC 062000Z 34003MPS 6000 -RA SCT008 OVC020 11/10 Q1022 NOSIG
ZHCC,2021-10-06 21:00,ZHCC 062100Z 36004MPS 6000 -RA SCT008 OVC020 11/10 Q1022 NOSIG
ZHCC,2021-10-06 22:00,ZHCC 062200Z 35004MPS 7000 -RA SCT008 OVC020 11/10 Q1022 NOSIG
ZHCC,2021-10-06 23:00,ZHCC 062300Z 36005MPS 8000 -RA FEW008 OVC033 11/09 Q1022 NOSIG
ZHCC,2021-10-07 00:00,ZHCC 070000Z 02004MPS 340V050 9999 FEW012 OVC046 11/09 Q1023 NOSIG
ZHCC,2021-10-07 01:00,ZHCC 070100Z 01004MPS 340V050 9999 FEW012 OVC046 12/09 Q1023 NOSIG
ZHCC,2021-10-07 02:00,ZHCC 070200Z 03004MPS 9999 FEW012 12/09 Q1023 NOSIG
ZHCC,2021-10-07 03:00,ZHCC 070300Z 01005MPS 340V040 9999 FEW015 13/09 Q1023 NOSIG
ZHCC,2021-10-07 04:00,ZHCC 070400Z 02004MPS 350V050 9999 FEW015 12/09 Q1023 NOSIG
ZHCC,2021-10-07 05:00,ZHCC 070500Z 01003MPS 9999 -RA FEW015 12/10 Q1022 NOSIG
ZHCC,2021-10-07 06:00,ZHCC 070600Z 02004MPS 9999 -RA FEW030 13/10 Q1021 NOSIG
ZHCC,2021-10-07 07:00,ZHCC 070700Z 02003MPS 7000 -RA FEW030 13/10 Q1021 NOSIG
ZHCC,2021-10-07 08:00,ZHCC 070800Z 36002MPS 310V040 7000 -RA FEW010 BKN040 13/11 Q1021 NOSIG
ZHCC,2021-10-07 09:00,ZHCC 070900Z 04002G08MPS 010V180 5000 -RA BR FEW010 BKN040 13/11 Q1021 NOSIG
ZHCC,2021-10-07 10:00,ZHCC 071000Z 02002MPS 350V060 5000 -RA BR FEW010 OVC040 12/11 Q1021 NOSIG
ZHCC,2021-10-07 11:00,ZHCC 071100Z VRB01MPS 5000 -RA BR FEW010 OVC040 12/11 Q1021 NOSIG
ZHCC,2021-10-07 12:00,ZHCC 071200Z VRB01MPS 6000 -RA OVC046 12/11 Q1021 NOSIG
ZHCC,2021-10-07 13:00,ZHCC 071300Z VRB02MPS 8000 -RA OVC046 12/11 Q1022 NOSIG
ZHCC,2021-10-07 14:00,ZHCC 071400Z 29001MPS 6000 -RA OVC046 12/11 Q1022 NOSIG
ZHCC,2021-10-07 15:00,ZHCC 071500Z 30001MPS 6000 -RA OVC046 12/12 Q1021 NOSIG
ZHCC,2021-10-07 16:00,ZHCC 071600Z 33002MPS 290V350 6000 OVC046 13/12 Q1021 NOSIG
ZHCC,2021-10-07 17:00,ZHCC 071700Z 34002MPS 310V010 6000 OVC040 13/12 Q1022 NOSIG
ZHCC,2021-10-07 18:00,ZHCC 071800Z 01003MPS 350V050 6000 FEW012 OVC040 13/11 Q1021 NOSIG
ZHCC,2021-10-07 19:00,ZHCC 071900Z 01003MPS 330V030 6000 FEW012 OVC040 12/11 Q1021 NOSIG
ZHCC,2021-10-07 20:00,ZHCC 072000Z VRB01MPS 5000 -RA BR FEW010 OVC040 12/11 Q1021 NOSIG
ZHCC,2021-10-07 21:00,ZHCC 072100Z 04002MPS 5000 -RA BR SCT008 OVC040 12/11 Q1020 NOSIG
ZHCC,2021-10-07 22:00,ZHCC 072200Z 35002MPS 300V030 5000 -RA BR SCT008 OVC030 12/11 Q1021 NOSIG
ZHCC,2021-10-07 23:00,ZHCC 072300Z 33002MPS 4000 -RA BR SCT008 OVC030 12/11 Q1021 NOSIG
ZHCC,2021-10-08 00:00,ZHCC 080000Z 32002MPS 290V350 4000 -RA BR FEW008 OVC030 12/11 Q1021 NOSIG
ZHCC,2021-10-08 01:00,ZHCC 080100Z 34003MPS 300V360 4000 -RA BR OVC030 13/12 Q1022 NOSIG
ZHCC,2021-10-08 02:00,ZHCC 080200Z VRB03MPS 4000 BR OVC030 13/11 Q1022 NOSIG
ZHCC,2021-10-08 03:00,ZHCC 080300Z 04003MPS 350V060 6000 OVC030 13/10 Q1022 NOSIG
ZHCC,2021-10-08 04:00,ZHCC 080400Z 02003MPS 8000 OVC030 14/11 Q1021 NOSIG
ZHCC,2021-10-08 05:00,ZHCC 080500Z 02004MPS 8000 OVC030 14/10 Q1021 NOSIG
ZHCC,2021-10-08 06:00,ZHCC 080600Z 02004MPS 340V040 8000 OVC030 14/11 Q1020 NOSIG
ZHCC,2021-10-08 07:00,ZHCC 080700Z 03004MPS 350V060 6000 -RA OVC020 14/11 Q1019 NOSIG
ZHCC,2021-10-08 08:00,ZHCC 080800Z 01004MPS 6000 -RA OVC020 14/11 Q1020 NOSIG
ZHCC,2021-10-08 09:00,ZHCC 080900Z 01003MPS 6000 OVC020 14/11 Q1020 NOSIG
ZHCC,2021-10-08 10:00,ZHCC 081000Z 03003MPS 360V060 5000 BR OVC020 13/11 Q1020 NOSIG
ZHCC,2021-10-08 11:00,ZHCC 081100Z 02003MPS 310V070 4000 BR OVC020 13/12 Q1020 NOSIG
ZHCC,2021-10-08 12:00,ZHCC 081200Z 02003MPS 3000 -RA BR SCT006 OVC020 13/12 Q1021 NOSIG
ZHCC,2021-10-08 13:00,ZHCC 081300Z 01002MPS 4000 -RA BR SCT006 OVC020 13/12 Q1021 NOSIG
ZHCC,2021-10-08 14:00,ZHCC 081400Z 36003MPS 3000 -RA BR SCT006 OVC020 13/12 Q1021 NOSIG
ZHCC,2021-10-08 15:00,ZHCC 081500Z 36002MPS 320V030 3000 -RA BR SCT006 OVC020 13/12 Q1021 BECMG TL1640 2500
ZHCC,2021-10-08 16:00,ZHCC 081600Z 33003MPS 3000 BR SCT006 OVC020 13/12 Q1021 BECMG TL1720 2500
ZHCC,2021-10-08 17:00,ZHCC 081700Z 36002MPS 330V030 2500 BR SCT006 OVC020 13/12 Q1021 NOSIG
ZHCC,2021-10-08 18:00,ZHCC 081800Z 36002MPS 340V050 2500 BR SCT006 OVC020 13/12 Q1020 NOSIG
ZHCC,2021-10-08 19:00,ZHCC 081900Z 35003MPS 2500 BR SCT006 OVC020 13/12 Q1020 NOSIG
ZHCC,2021-10-08 20:00,ZHCC 082000Z 35003MPS 2000 BR SCT006 OVC020 13/12 Q1020 NOSIG
ZHCC,2021-10-08 21:00,ZHCC 082100Z 01002MPS 2000 BR SCT006 OVC020 13/13 Q1020 BECMG TL2240 1000
ZHCC,2021-10-08 22:00,ZHCC 082200Z 34002MPS 2500 BR SCT006 OVC020 13/13 Q1021 BECMG TL2240 1200
ZHCC,2021-10-08 23:00,ZHCC 082300Z 35003MPS 1300 R30L/P2000 R30R/1800U BR SCT006 OVC020 13/13 Q1021 BECMG TL0040 3000
ZHCC,2021-10-09 00:00,ZHCC 090000Z 33003G09MPS 290V020 1300 R30L/P2000 R30R/P2000 -RA BR SCT006 OVC020 13/13 Q1021 BECMG TL0040 1500
ZHCC,2021-10-09 01:00,ZHCC 090100Z 35002MPS 310V030 1500 BR SCT006 OVC020 14/13 Q1022 NOSIG
ZHCC,2021-10-09 02:00,ZHCC 090200Z 36003MPS 1500 BR SCT006 OVC020 14/13 Q1021 NOSIG
ZHCC,2021-10-09 03:00,ZHCC 090300Z VRB02MPS 2000 BR SCT006 OVC020 15/14 Q1021 BECMG TL0440 3000
ZHCC,2021-10-09 04:00,ZHCC 090400Z 31002MPS 230V040 2500 BR SCT006 OVC020 16/14 Q1021 NOSIG
ZHCC,2021-10-09 05:00,ZHCC 090500Z 32003MPS 300V360 3000 BR SCT009 OVC020 16/14 Q1020 NOSIG
ZHCC,2021-10-09 06:00,ZHCC 090600Z VRB01MPS 3000 BR SCT010 OVC020 18/14 Q1019 NOSIG
ZHCC,2021-10-09 07:00,ZHCC 090700Z 32002G08MPS 290V010 3000 BR FEW010 BKN030 18/15 Q1019 NOSIG
ZHCC,2021-10-09 08:00,ZHCC 090800Z 34002MPS 260V010 4000 BR BKN040 18/14 Q1019 NOSIG
ZHCC,2021-10-09 09:00,ZHCC 090900Z 35002MPS 260V020 3000 BR BKN040 18/14 Q1019 NOSIG
ZHCC,2021-10-09 10:00,ZHCC 091000Z 31002MPS 270V330 3000 BR BKN046 17/15 Q1020 NOSIG
ZHCC,2021-10-09 11:00,ZHCC 091100Z 08001MPS 4000 BR BKN040 17/15 Q1021 NOSIG
ZHCC,2021-10-09 12:00,ZHCC 091200Z 07002MPS 4000 BR BKN040 17/15 Q1021 NOSIG
ZHCC,2021-10-09 13:00,ZHCC 091300Z 08002MPS 030V150 4000 BR BKN040 16/14 Q1022 NOSIG
ZHCC,2021-10-09 14:00,ZHCC 091400Z VRB01MPS 4000 BR BKN040 16/14 Q1022 NOSIG
ZHCC,2021-10-09 15:00,ZHCC 091500Z 00000MPS 4000 BR NSC 15/14 Q1023 NOSIG
ZHCC,2021-10-09 16:00,ZHCC 091600Z 31001MPS 3000 BR NSC 14/13 Q1023 NOSIG
ZHCC,2021-10-09 17:00,ZHCC 091700Z 35002MPS 320V020 3000 BR NSC 14/13 Q1023 NOSIG
ZHCC,2021-10-09 18:00,ZHCC 091800Z 32004MPS 5000 BR NSC 15/14 Q1022 NOSIG
ZHCC,2021-10-09 19:00,ZHCC 091900Z 31004MPS CAVOK 15/12 Q1023 NOSIG
ZHCC,2021-10-09 20:00,ZHCC 092000Z 29002MPS CAVOK 15/12 Q1023 NOSIG
ZHCC,2021-10-09 21:00,ZHCC 092100Z 29005MPS CAVOK 15/10 Q1023 NOSIG
ZHCC,2021-10-09 22:00,ZHCC 092200Z 30005MPS CAVOK 15/09 Q1024 NOSIG
ZHCC,2021-10-09 23:00,ZHCC 092300Z 30005MPS 7000 -RA NSC 14/09 Q1025 NOSIG
ZHCC,2021-10-10 00:00,ZHCC 100000Z 31006MPS 9999 SCT030 15/08 Q1026 NOSIG
ZHCC,2021-10-10 01:00,ZHCC 100100Z 31005MPS CAVOK 15/07 Q1027 NOSIG
ZHCC,2021-10-10 02:00,ZHCC 100200Z 31005MPS 9999 OVC046 15/08 Q1028 NOSIG
ZHCC,2021-10-10 03:00,ZHCC 100300Z 31005MPS CAVOK 15/08 Q1028 NOSIG
ZHCC,2021-10-10 04:00,ZHCC 100400Z 31005MPS CAVOK 16/09 Q1028 NOSIG
ZHCC,2021-10-10 05:00,ZHCC 100500Z 32005MPS 290V350 CAVOK 16/08 Q1027 NOSIG
ZHCC,2021-10-10 06:00,ZHCC 100600Z 31005MPS CAVOK 17/07 Q1027 NOSIG
ZHCC,2021-10-10 07:00,ZHCC 100700Z 30006MPS 9999 -RA FEW040 15/08 Q1027 NOSIG
ZHCC,2021-10-10 08:00,ZHCC 100800Z 31004MPS 9999 -RA FEW040 14/10 Q1027 NOSIG
ZHCC,2021-10-10 09:00,ZHCC 100900Z 31004G09MPS 240V010 9999 -RA FEW040 13/10 Q1028 NOSIG
ZHCC,2021-10-10 10:00,ZHCC 101000Z 32002MPS 9999 -RA FEW040 13/10 Q1028 NOSIG
ZHCC,2021-10-10 11:00,ZHCC 101100Z 30003MPS 9999 -RA FEW040 12/09 Q1029 NOSIG
ZHCC,2021-10-10 12:00,ZHCC 101200Z 30003MPS 9999 -RA FEW040 12/09 Q1029 NOSIG
ZHCC,2021-10-10 13:00,ZHCC 101300Z 29003MPS 9999 FEW040 12/09 Q1030 NOSIG
ZHCC,2021-10-10 14:00,ZHCC 101400Z 27002MPS CAVOK 12/09 Q1030 NOSIG
ZHCC,2021-10-10 15:00,ZHCC 101500Z 28002MPS CAVOK 12/09 Q1030 NOSIG
ZHCC,2021-10-10 16:00,ZHCC 101600Z 28001MPS CAVOK 12/10 Q1029 NOSIG
ZHCC,2021-10-10 17:00,ZHCC 101700Z 25002MPS CAVOK 12/09 Q1029 NOSIG
ZHCC,2021-10-10 18:00,ZHCC 101800Z 28001MPS CAVOK 12/10 Q1029 NOSIG
ZHCC,2021-10-10 19:00,ZHCC 101900Z VRB01MPS CAVOK 12/09 Q1029 NOSIG
ZHCC,2021-10-10 20:00,ZHCC 102000Z 35002MPS 310V010 CAVOK 13/09 Q1028 NOSIG
ZHCC,2021-10-10 21:00,ZHCC 102100Z 01002MPS 340V040 CAVOK 13/09 Q1028 NOSIG
ZHCC,2021-10-10 22:00,ZHCC 102200Z 36002MPS CAVOK 13/10 Q1029 NOSIG
ZHCC,2021-10-10 23:00,ZHCC 102300Z 34003MPS CAVOK 13/10 Q1029 NOSIG
ZHCC,2021-10-11 00:00,ZHCC 110000Z 34003MPS CAVOK 14/09 Q1029 NOSIG
ZHCC,2021-10-11 01:00,ZHCC 110100Z 35003MPS CAVOK 15/08 Q1030 NOSIG
ZHCC,2021-10-11 02:00,ZHCC 110200Z 01004MPS 340V040 CAVOK 15/06 Q1030 NOSIG
ZHCC,2021-10-11 03:00,ZHCC 110300Z 03004MPS 340V070 CAVOK 16/05 Q1029 NOSIG
ZHCC,2021-10-11 04:00,ZHCC 110400Z 04005MPS 010V070 CAVOK 17/02 Q1029 NOSIG
ZHCC,2021-10-11 05:00,ZHCC 110500Z 05004MPS 020V080 CAVOK 17/03 Q1028 NOSIG
ZHCC,2021-10-11 06:00,ZHCC 110600Z 06004MPS 010V090 CAVOK 17/02 Q1027 NOSIG
ZHCC,2021-10-11 07:00,ZHCC 110700Z 05004MPS 020V080 CAVOK 17/03 Q1027 NOSIG
ZHCC,2021-10-11 08:00,ZHCC 110800Z 05003MPS 010V080 CAVOK 17/02 Q1026 NOSIG
ZHCC,2021-10-11 09:00,ZHCC 110900Z 01003MPS 340V060 CAVOK 17/02 Q1026 NOSIG
ZHCC,2021-10-11 10:00,ZHCC 111000Z 01003MPS 340V060 CAVOK 16/02 Q1026 NOSIG
ZHCC,2021-10-11 11:00,ZHCC 111100Z 35002MPS 330V030 CAVOK 16/04 Q1027 NOSIG
ZHCC,2021-10-11 12:00,ZHCC 111200Z 29002MPS CAVOK 14/07 Q1027 NOSIG
ZHCC,2021-10-11 13:00,ZHCC 111300Z 32002MPS 9999 -RA OVC040 14/07 Q1027 NOSIG
ZHCC,2021-10-11 14:00,ZHCC 111400Z 32002MPS 9999 OVC040 14/07 Q1028 NOSIG
ZHCC,2021-10-11 15:00,ZHCC 111500Z 34003MPS 9999 OVC040 14/06 Q1028 NOSIG
ZHCC,2021-10-11 16:00,ZHCC 111600Z 32003MPS 9999 OVC040 13/08 Q1028 NOSIG
ZHCC,2021-10-11 17:00,ZHCC 111700Z 32003MPS 9999 -RA OVC040 13/08 Q1027 NOSIG
ZHCC,2021-10-11 18:00,ZHCC 111800Z 32004MPS 9999 -RA OVC040 12/08 Q1027 NOSIG
ZHCC,2021-10-11 19:00,ZHCC 111900Z 31005MPS 9999 OVC040 12/07 Q1027 NOSIG
ZHCC,2021-10-11 20:00,ZHCC 112000Z 32004MPS 9999 -RA OVC040 11/08 Q1027 NOSIG
ZHCC,2021-10-11 21:00,ZHCC 112100Z 33003MPS 9999 OVC040 11/08 Q1027 NOSIG
ZHCC,2021-10-11 22:00,ZHCC 112200Z 33002MPS CAVOK 11/08 Q1027 NOSIG
ZHCC,2021-10-11 23:00,ZHCC 112300Z 31002MPS 280V340 CAVOK 12/08 Q1028 NOSIG
ZHCC,2021-10-12 00:00,ZHCC 120000Z 33004MPS CAVOK 13/08 Q1028 NOSIG
ZHCC,2021-10-12 01:00,ZHCC 120100Z 34003MPS CAVOK 15/08 Q1029 NOSIG
ZHCC,2021-10-12 02:00,ZHCC 120200Z 36003MPS 320V020 CAVOK 16/07 Q1028 NOSIG
ZHCC,2021-10-12 03:00,ZHCC 120300Z 04004MPS 360V060 CAVOK 18/05 Q1028 NOSIG
ZHCC,2021-10-12 04:00,ZHCC 120400Z 01004G13MPS 320V080 CAVOK 18/05 Q1027 NOSIG
ZHCC,2021-10-12 05:00,ZHCC 120500Z 04003MPS 010V090 CAVOK 19/05 Q1026 NOSIG
ZHCC,2021-10-12 06:00,ZHCC 120600Z VRB03MPS CAVOK 20/06 Q1025 NOSIG
ZHCC,2021-10-12 07:00,ZHCC 120700Z 05005MPS 010V070 CAVOK 20/06 Q1025 NOSIG
ZHCC,2021-10-12 08:00,ZHCC 120800Z 03004MPS 360V080 CAVOK 20/05 Q1025 NOSIG
ZHCC,2021-10-12 09:00,ZHCC 120900Z 03003G08MPS 350V100 CAVOK 19/05 Q1025 NOSIG
ZHCC,2021-10-12 10:00,ZHCC 121000Z VRB02MPS CAVOK 18/05 Q1025 NOSIG
ZHCC,2021-10-12 11:00,ZHCC 121100Z VRB01G07MPS CAVOK 16/08 Q1025 NOSIG
ZHCC,2021-10-12 12:00,ZHCC 121200Z 02003MPS CAVOK 17/05 Q1026 NOSIG
ZHCC,2021-10-12 13:00,ZHCC 121300Z 03002MPS CAVOK 17/05 Q1026 NOSIG
ZHCC,2021-10-12 14:00,ZHCC 121400Z 02003G09MPS 340V070 CAVOK 16/05 Q1026 NOSIG
ZHCC,2021-10-12 15:00,ZHCC 121500Z 01002MPS CAVOK 16/05 Q1026 NOSIG
ZHCC,2021-10-12 16:00,ZHCC 121600Z 36002MPS 320V020 CAVOK 15/05 Q1026 NOSIG
ZHCC,2021-10-12 17:00,ZHCC 121700Z 31002MPS CAVOK 12/08 Q1026 NOSIG
ZHCC,2021-10-12 18:00,ZHCC 121800Z 30002MPS CAVOK 12/07 Q1026 NOSIG
ZHCC,2021-10-12 19:00,ZHCC 121900Z VRB03G08MPS CAVOK 14/06 Q1026 NOSIG
ZHCC,2021-10-12 20:00,ZHCC 122000Z 32002MPS CAVOK 12/06 Q1026 NOSIG
ZHCC,2021-10-12 21:00,ZHCC 122100Z 27001MPS CAVOK 12/07 Q1026 NOSIG
ZHCC,2021-10-12 22:00,ZHCC 122200Z 28002MPS 260V360 CAVOK 12/06 Q1026 NOSIG
ZHCC,2021-10-12 23:00,ZHCC 122300Z 28001MPS CAVOK 11/08 Q1026 NOSIG
ZHCC,2021-10-13 00:00,ZHCC 130000Z 30002MPS CAVOK 15/08 Q1027 NOSIG
ZHCC,2021-10-13 01:00,ZHCC 130100Z 33003MPS 300V010 CAVOK 18/05 Q1027 NOSIG
ZHCC,2021-10-13 02:00,ZHCC 130200Z VRB02MPS CAVOK 19/04 Q1027 NOSIG
ZHCC,2021-10-13 03:00,ZHCC 130300Z VRB02MPS CAVOK 20/05 Q1026 NOSIG
ZHCC,2021-10-13 04:00,ZHCC 130400Z VRB01MPS CAVOK 21/05 Q1025 NOSIG
ZHCC,2021-10-13 05:00,ZHCC 130500Z VRB01MPS CAVOK 23/05 Q1024 NOSIG
ZHCC,2021-10-13 06:00,ZHCC 130600Z VRB01MPS CAVOK 23/05 Q1022 NOSIG
ZHCC,2021-10-13 07:00,ZHCC 130700Z 32002MPS 230V010 CAVOK 24/06 Q1022 NOSIG
ZHCC,2021-10-13 08:00,ZHCC 130800Z 31002MPS 240V360 CAVOK 23/05 Q1021 NOSIG
ZHCC,2021-10-13 09:00,ZHCC 130900Z 01002MPS 270V070 CAVOK 22/05 Q1021 NOSIG
ZHCC,2021-10-13 10:00,ZHCC 131000Z VRB01MPS CAVOK 21/06 Q1021 NOSIG
ZHCC,2021-10-13 11:00,ZHCC 131100Z 12002MPS 070V140 CAVOK 18/09 Q1022 NOSIG
ZHCC,2021-10-13 12:00,ZHCC 131200Z 12001MPS CAVOK 16/11 Q1022 NOSIG
ZHCC,2021-10-13 13:00,ZHCC 131300Z VRB01MPS 8000 NSC 15/11 Q1023 NOSIG
ZHCC,2021-10-13 14:00,ZHCC 131400Z 28001MPS 8000 NSC 14/11 Q1023 NOSIG
ZHCC,2021-10-13 15:00,ZHCC 131500Z 28001MPS 8000 NSC 14/11 Q1023 NOSIG
ZHCC,2021-10-13 16:00,ZHCC 131600Z VRB01MPS 8000 NSC 13/12 Q1023 NOSIG
ZHCC,2021-10-13 17:00,ZHCC 131700Z 30002MPS 7000 NSC 14/12 Q1022 NOSIG
ZHCC,2021-10-13 18:00,ZHCC 131800Z 25001MPS 7000 NSC 15/12 Q1022 NOSIG
ZHCC,2021-10-13 19:00,ZHCC 131900Z 27001MPS 7000 NSC 14/12 Q1022 NOSIG
ZHCC,2021-10-13 20:00,ZHCC 132000Z 27002MPS 7000 NSC 15/10 Q1022 NOSIG
ZHCC,2021-10-13 21:00,ZHCC 132100Z 28001MPS 7000 NSC 16/10 Q1022 NOSIG
ZHCC,2021-10-13 22:00,ZHCC 132200Z 29002MPS 7000 NSC 16/12 Q1022 NOSIG
ZHCC,2021-10-13 23:00,ZHCC 132300Z 28002MPS 6000 NSC 17/13 Q1023 NOSIG
ZHCC,2021-10-14 00:00,ZHCC 140000Z 31003MPS 270V360 6000 NSC 18/13 Q1024 NOSIG
ZHCC,2021-10-14 01:00,ZHCC 140100Z 30004MPS 6000 NSC 19/14 Q1024 NOSIG
ZHCC,2021-10-14 02:00,ZHCC 140200Z 30006G11MPS 270V330 6000 NSC 19/14 Q1024 NOSIG
ZHCC,2021-10-14 03:00,ZHCC 140300Z 31005MPS 6000 -RA OVC040 18/15 Q1024 NOSIG
ZHCC,2021-10-14 04:00,ZHCC 140400Z 31007MPS 6000 SCT010 OVC040 19/15 Q1024 NOSIG
ZHCC,2021-10-14 05:00,ZHCC 140500Z 32007MPS 6000 SCT015 OVC040 19/15 Q1023 NOSIG
ZHCC,2021-10-14 06:00,ZHCC 140600Z 32005MPS 4000 BR SCT015 OVC040 18/15 Q1023 NOSIG
ZHCC,2021-10-14 07:00,ZHCC 140700Z 34004MPS 3000 -RA BR SCT010 OVC040 18/15 Q1023 NOSIG
ZHCC,2021-10-14 08:00,ZHCC 140800Z 01004MPS 2500 -RA BR FEW010 OVC030 17/14 Q1023 NOSIG
ZHCC,2021-10-14 09:00,ZHCC 140900Z 01002MPS 1500 -RA BR FEW010 OVC020 16/14 Q1023 BECMG TL0940 1200
ZHCC,2021-10-14 10:00,ZHCC 141000Z 01003MPS 1300 R30L/P2000 R30R/1800U -RA BR SCT007 OVC020 16/15 Q1023 BECMG TL1140 1600
ZHCC,2021-10-14 11:00,ZHCC 141100Z 35002MPS 310V010 1300 R30L/P2000 R30R/1600U RA BR SCT007 OVC020 16/15 Q1024 BECMG TL1240 1600 -RA BR
ZHCC,2021-10-14 12:00,ZHCC 141200Z 35002MPS 310V020 1500 -RA BR SCT007 OVC020 16/15 Q1024 RERA BECMG TL1340 3000
ZHCC,2021-10-14 13:00,ZHCC 141300Z 36003MPS 1500 -RA BR SCT007 OVC020 16/15 Q1024 RERA BECMG TL1330 RA
ZHCC,2021-10-14 14:00,ZHCC 141400Z VRB02MPS 3000 BR OVC030 16/15 Q1025 NOSIG
ZHCC,2021-10-14 15:00,ZHCC 141500Z 34002MPS 320V030 3000 BR OVC030 16/15 Q1024 NOSIG
ZHCC,2021-10-14 16:00,ZHCC 141600Z 27002MPS 3000 BR OVC030 16/15 Q1024 NOSIG
ZHCC,2021-10-14 17:00,ZHCC 141700Z 28002MPS 2000 BR NSC 15/15 Q1023 NOSIG
ZHCC,2021-10-14 18:00,ZHCC 141800Z 30002MPS 4000 BR NSC 15/15 Q1023 NOSIG
ZHCC,2021-10-14 19:00,ZHCC 141900Z 32002MPS 5000 BR NSC 16/15 Q1023 NOSIG
ZHCC,2021-10-14 20:00,ZHCC 142000Z 30002MPS 5000 BR NSC 16/14 Q1023 NOSIG
ZHCC,2021-10-14 21:00,ZHCC 142100Z 33003MPS 6000 NSC 16/13 Q1023 NOSIG
ZHCC,2021-10-14 22:00,ZHCC 142200Z 32003MPS 8000 NSC 16/13 Q1024 NOSIG
ZHCC,2021-10-14 23:00,ZHCC 142300Z 31003MPS 8000 NSC 16/13 Q1024 NOSIG
ZHCC,2021-10-15 00:00,ZHCC 150000Z 31004MPS 8000 -RA NSC 16/12 Q1025 NOSIG
ZHCC,2021-10-15 01:00,ZHCC 150100Z 31004MPS 8000 -RA NSC 15/13 Q1026 NOSIG
ZHCC,2021-10-15 02:00,ZHCC 150200Z 30004MPS 8000 -RA NSC 15/13 Q1027 NOSIG
ZHCC,2021-10-15 03:00,ZHCC 150300Z 30004MPS 8000 -RA NSC 16/13 Q1027 NOSIG
ZHCC,2021-10-15 04:00,ZHCC 150400Z 27003MPS 8000 -RA NSC 15/13 Q1026 NOSIG
ZHCC,2021-10-15 05:00,ZHCC 150500Z 27003MPS 8000 -RA NSC 16/14 Q1025 NOSIG
ZHCC,2021-10-15 06:00,ZHCC 150600Z 26003MPS CAVOK 18/13 Q1025 NOSIG
ZHCC,2021-10-15 07:00,ZHCC 150700Z 26004MPS CAVOK 17/13 Q1025 NOSIG
ZHCC,2021-10-15 08:00,ZHCC 150800Z 28003MPS CAVOK 18/13 Q1025 NOSIG
ZHCC,2021-10-15 09:00,ZHCC 150900Z 31002MPS 290V350 9999 -RA NSC 17/14 Q1026 NOSIG
ZHCC,2021-10-15 10:00,ZHCC 151000Z 29001MPS 9999 -RA NSC 16/14 Q1026 NOSIG
ZHCC,2021-10-15 11:00,ZHCC 151100Z 32002MPS 9999 -RA NSC 16/13 Q1027 NOSIG
ZHCC,2021-10-15 12:00,ZHCC 151200Z 31002MPS CAVOK 16/13 Q1028 NOSIG
ZHCC,2021-10-15 13:00,ZHCC 151300Z 31002MPS CAVOK 15/13 Q1028 NOSIG
ZHCC,2021-10-15 14:00,ZHCC 151400Z 33003MPS CAVOK 17/12 Q1029 NOSIG
ZHCC,2021-10-15 15:00,ZHCC 151500Z 33002MPS CAVOK 16/12 Q1029 NOSIG
ZHCC,2021-10-15 16:00,ZHCC 151600Z 33002MPS CAVOK 16/13 Q1029 NOSIG
ZHCC,2021-10-15 17:00,ZHCC 151700Z 35003MPS 320V020 CAVOK 16/11 Q1029 NOSIG
ZHCC,2021-10-15 18:00,ZHCC 151800Z 01004MPS 350V050 CAVOK 16/11 Q1029 NOSIG
ZHCC,2021-10-15 19:00,ZHCC 151900Z 01008G13MPS 340V040 CAVOK 16/09 Q1030 NOSIG
ZHCC,2021-10-15 20:00,ZHCC 152000Z 02006MPS 340V050 CAVOK 14/05 Q1031 NOSIG
ZHCC,2021-10-15 21:00,ZHCC 152100Z 02006MPS CAVOK 14/02 Q1032 NOSIG
ZHCC,2021-10-15 22:00,ZHCC 152200Z 01006MPS CAVOK 14/01 Q1033 NOSIG
ZHCC,2021-10-15 23:00,ZHCC 152300Z 02006MPS 360V060 CAVOK 13/M00 Q1034 NOSIG
ZHCC,2021-10-16 00:00,ZHCC 160000Z 04007MPS 010V070 CAVOK 13/M01 Q1035 NOSIG
ZHCC,2021-10-16 01:00,ZHCC 160100Z 03007MPS 350V060 CAVOK 13/M01 Q1036 NOSIG
ZHCC,2021-10-16 02:00,ZHCC 160200Z 03007MPS 350V080 CAVOK 13/M01 Q1037 NOSIG
ZHCC,2021-10-16 03:00,ZHCC 160300Z 03006G12MPS 350V060 CAVOK 13/M01 Q1038 NOSIG
ZHCC,2021-10-16 04:00,ZHCC 160400Z 04006G11MPS 010V080 CAVOK 14/M02 Q1037 NOSIG
ZHCC,2021-10-16 05:00,ZHCC 160500Z 04007G12MPS 360V070 CAVOK 14/M03 Q1036 NOSIG
ZHCC,2021-10-16 06:00,ZHCC 160600Z 05007MPS 020V080 CAVOK 15/M02 Q1036 NOSIG
ZHCC,2021-10-16 07:00,ZHCC 160700Z 03005MPS 350V070 CAVOK 15/M01 Q1036 NOSIG
ZHCC,2021-10-16 08:00,ZHCC 160800Z 05004MPS 020V080 CAVOK 14/M03 Q1036 NOSIG
ZHCC,2021-10-16 09:00,ZHCC 160900Z 04004MPS 020V080 CAVOK 14/M02 Q1035 NOSIG
ZHCC,2021-10-16 10:00,ZHCC 161000Z 04003MPS CAVOK 12/M01 Q1035 NOSIG
ZHCC,2021-10-16 11:00,ZHCC 161100Z 06003MPS CAVOK 12/M00 Q1036 NOSIG
ZHCC,2021-10-16 12:00,ZHCC 161200Z 05003MPS 020V090 CAVOK 11/M00 Q1037 NOSIG
ZHCC,2021-10-16 13:00,ZHCC 161300Z 05003MPS 030V090 CAVOK 11/M00 Q1038 NOSIG
ZHCC,2021-10-16 14:00,ZHCC 161400Z 06002MPS 030V100 CAVOK 10/M00 Q1038 NOSIG
ZHCC,2021-10-16 15:00,ZHCC 161500Z 04002MPS CAVOK 10/M01 Q1038 NOSIG
ZHCC,2021-10-16 16:00,ZHCC 161600Z 04002MPS CAVOK 08/01 Q1037 NOSIG
ZHCC,2021-10-16 17:00,ZHCC 161700Z 00000MPS CAVOK 06/02 Q1038 NOSIG
ZHCC,2021-10-16 18:00,ZHCC 161800Z 00000MPS CAVOK 06/02 Q1037 NOSIG
ZHCC,2021-10-16 19:00,ZHCC 161900Z 05002MPS CAVOK 06/00 Q1036 NOSIG
ZHCC,2021-10-16 20:00,ZHCC 162000Z 06003MPS CAVOK 08/M01 Q1036 NOSIG
ZHCC,2021-10-16 21:00,ZHCC 162100Z 06002MPS CAVOK 06/M01 Q1035 NOSIG
ZHCC,2021-10-16 22:00,ZHCC 162200Z VRB01MPS CAVOK 04/00 Q1035 NOSIG
ZHCC,2021-10-16 23:00,ZHCC 162300Z 00000MPS CAVOK 04/02 Q1036 NOSIG
ZHCC,2021-10-17 00:00,ZHCC 170000Z 00000MPS CAVOK 08/M01 Q1036 NOSIG
ZHCC,2021-10-17 01:00,ZHCC 170100Z VRB01MPS CAVOK 10/M02 Q1036 NOSIG
ZHCC,2021-10-17 02:00,ZHCC 170200Z VRB02MPS CAVOK 10/M05 Q1036 NOSIG
ZHCC,2021-10-17 03:00,ZHCC 170300Z VRB01MPS CAVOK 12/M06 Q1035 NOSIG
ZHCC,2021-10-17 04:00,ZHCC 170400Z VRB02MPS CAVOK 13/M06 Q1033 NOSIG
ZHCC,2021-10-17 05:00,ZHCC 170500Z 16003MPS 090V240 CAVOK 14/M07 Q1032 NOSIG
ZHCC,2021-10-17 06:00,ZHCC 170600Z 22002MPS 150V320 CAVOK 15/M05 Q1030 NOSIG
ZHCC,2021-10-17 07:00,ZHCC 170700Z 16003MPS 100V210 CAVOK 15/M04 Q1029 NOSIG
ZHCC,2021-10-17 08:00,ZHCC 170800Z 18002MPS 100V220 CAVOK 15/M03 Q1028 NOSIG
ZHCC,2021-10-17 09:00,ZHCC 170900Z VRB03MPS CAVOK 14/M02 Q1027 NOSIG
ZHCC,2021-10-17 10:00,ZHCC 171000Z VRB01MPS CAVOK 12/00 Q1027 NOSIG
ZHCC,2021-10-17 11:00,ZHCC 171100Z VRB01MPS CAVOK 10/02 Q1027 NOSIG
ZHCC,2021-10-17 12:00,ZHCC 171200Z VRB01MPS CAVOK 08/04 Q1027 NOSIG
ZHCC,2021-10-17 13:00,ZHCC 171300Z 20002MPS 160V240 CAVOK 11/03 Q1027 NOSIG
ZHCC,2021-10-17 14:00,ZHCC 171400Z VRB01MPS CAVOK 11/03 Q1026 NOSIG
ZHCC,2021-10-17 15:00,ZHCC 171500Z 18002MPS 140V220 CAVOK 11/04 Q1026 NOSIG
ZHCC,2021-10-17 16:00,ZHCC 171600Z VRB01MPS CAVOK 11/04 Q1025 NOSIG
ZHCC,2021-10-17 17:00,ZHCC 171700Z VRB01MPS CAVOK 11/05 Q1024 NOSIG
ZHCC,2021-10-17 18:00,ZHCC 171800Z 19002MPS 150V230 CAVOK 11/06 Q1024 NOSIG
ZHCC,2021-10-17 19:00,ZHCC 171900Z VRB01MPS CAVOK 10/06 Q1023 NOSIG
ZHCC,2021-10-17 20:00,ZHCC 172000Z VRB01MPS CAVOK 10/06 Q1022 NOSIG
ZHCC,2021-10-17 21:00,ZHCC 172100Z 19002MPS 140V240 CAVOK 10/06 Q1022 NOSIG
ZHCC,2021-10-17 22:00,ZHCC 172200Z 19003MPS 110V250 CAVOK 10/06 Q1022 NOSIG
ZHCC,2021-10-17 23:00,ZHCC 172300Z 20002MPS 160V230 CAVOK 10/05 Q1022 NOSIG
ZHCC,2021-10-18 00:00,ZHCC 180000Z 21003MPS 170V240 CAVOK 11/05 Q1022 NOSIG
ZHCC,2021-10-18 01:00,ZHCC 180100Z 19003MPS 120V220 CAVOK 13/05 Q1022 NOSIG
ZHCC,2021-10-18 02:00,ZHCC 180200Z 23002MPS 150V280 CAVOK 15/05 Q1022 NOSIG
ZHCC,2021-10-18 03:00,ZHCC 180300Z 19003MPS 090V230 CAVOK 17/06 Q1021 NOSIG
ZHCC,2021-10-18 04:00,ZHCC 180400Z VRB03MPS CAVOK 18/05 Q1020 NOSIG
ZHCC,2021-10-18 05:00,ZHCC 180500Z 20003MPS 130V250 CAVOK 19/06 Q1019 NOSIG
ZHCC,2021-10-18 06:00,ZHCC 180600Z 20002MPS 140V250 CAVOK 20/07 Q1018 NOSIG
ZHCC,2021-10-18 07:00,ZHCC 180700Z 22002MPS 160V270 CAVOK 21/07 Q1018 NOSIG
ZHCC,2021-10-18 08:00,ZHCC 180800Z 20002MPS 150V240 CAVOK 21/08 Q1018 NOSIG
ZHCC,2021-10-18 09:00,ZHCC 180900Z 18002MPS 100V240 CAVOK 19/08 Q1018 NOSIG
ZHCC,2021-10-18 10:00,ZHCC 181000Z VRB01MPS CAVOK 16/08 Q1018 NOSIG
ZHCC,2021-10-18 11:00,ZHCC 181100Z VRB01MPS CAVOK 15/08 Q1019 NOSIG
ZHCC,2021-10-18 12:00,ZHCC 181200Z 20002MPS 150V230 CAVOK 15/08 Q1020 NOSIG
ZHCC,2021-10-18 13:00,ZHCC 181300Z 20002MPS 170V240 CAVOK 15/08 Q1021 NOSIG
ZHCC,2021-10-18 14:00,ZHCC 181400Z VRB01MPS 8000 NSC 13/09 Q1021 NOSIG
ZHCC,2021-10-18 15:00,ZHCC 181500Z 19001MPS 8000 NSC 12/09 Q1021 NOSIG
ZHCC,2021-10-18 16:00,ZHCC 181600Z 00000MPS 8000 NSC 12/09 Q1021 NOSIG
ZHCC,2021-10-18 17:00,ZHCC 181700Z 11001MPS 6000 NSC 11/10 Q1022 NOSIG
ZHCC,2021-10-18 18:00,ZHCC 181800Z 00000MPS 6000 NSC 11/10 Q1022 NOSIG
ZHCC,2021-10-18 19:00,ZHCC 181900Z VRB01MPS 6000 NSC 11/09 Q1022 NOSIG
ZHCC,2021-10-18 20:00,ZHCC 182000Z 32002MPS 6000 NSC 11/09 Q1023 NOSIG
ZHCC,2021-10-18 21:00,ZHCC 182100Z 03003MPS 6000 NSC 13/10 Q1024 NOSIG
ZHCC,2021-10-18 22:00,ZHCC 182200Z 03005MPS 360V060 6000 NSC 13/09 Q1025 NOSIG
ZHCC,2021-10-18 23:00,ZHCC 182300Z 02005MPS 350V060 4000 BR NSC 12/09 Q1026 NOSIG
ZHCC,2021-10-19 00:00,ZHCC 190000Z 03005MPS 330V070 4000 HZ NSC 12/07 Q1027 NOSIG
ZHCC,2021-10-19 01:00,ZHCC 190100Z 02006MPS 340V050 4000 HZ NSC 12/06 Q1028 NOSIG
ZHCC,2021-10-19 02:00,ZHCC 190200Z 04008MPS 4000 HZ NSC 12/06 Q1028 NOSIG
ZHCC,2021-10-19 03:00,ZHCC 190300Z 03007MPS 4000 HZ NSC 12/07 Q1028 NOSIG
ZHCC,2021-10-19 04:00,ZHCC 190400Z 03007MPS 360V070 4000 HZ SCT030 12/08 Q1028 NOSIG
ZHCC,2021-10-19 05:00,ZHCC 190500Z 02006MPS 350V060 4000 HZ SCT030 12/08 Q1028 NOSIG
ZHCC,2021-10-19 06:00,ZHCC 190600Z 03004MPS 350V080 6000 BKN030 12/07 Q1027 NOSIG
ZHCC,2021-10-19 07:00,ZHCC 190700Z 04005MPS 350V060 6000 SCT030 12/07 Q1028 NOSIG
ZHCC,2021-10-19 08:00,ZHCC 190800Z 02004MPS 340V060 7000 FEW030 12/07 Q1028 NOSIG
ZHCC,2021-10-19 09:00,ZHCC 190900Z 02005MPS 330V070 7000 FEW030 12/06 Q1028 NOSIG
ZHCC,2021-10-19 10:00,ZHCC 191000Z 04004MPS 350V080 7000 FEW030 12/06 Q1028 NOSIG
ZHCC,2021-10-19 11:00,ZHCC 191100Z 02003MPS 350V060 9999 -RA FEW030 11/06 Q1029 NOSIG
ZHCC,2021-10-19 12:00,ZHCC 191200Z 01003MPS 330V060 9999 -RA SCT030 11/05 Q1029 NOSIG
ZHCC,2021-10-19 13:00,ZHCC 191300Z 36003MPS 330V040 9999 -RA SCT030 11/06 Q1029 NOSIG
ZHCC,2021-10-19 14:00,ZHCC 191400Z 34002MPS 330V060 9999 -RA SCT030 10/05 Q1029 NOSIG
ZHCC,2021-10-19 15:00,ZHCC 191500Z 36002MPS 320V100 9999 -RA SCT030 BKN040 10/06 Q1029 NOSIG
ZHCC,2021-10-19 16:00,ZHCC 191600Z 31002MPS 290V020 9999 -RA OVC033 09/07 Q1029 NOSIG
ZHCC,2021-10-19 17:00,ZHCC 191700Z 31002MPS 270V010 9999 -RA FEW033 09/07 Q1029 NOSIG
ZHCC,2021-10-19 18:00,ZHCC 191800Z 28001MPS 9999 -RA FEW033 09/07 Q1028 NOSIG
ZHCC,2021-10-19 19:00,ZHCC 191900Z VRB01MPS 9999 -RA FEW033 09/07 Q1028 NOSIG
ZHCC,2021-10-19 20:00,ZHCC 192000Z 35002MPS 300V040 9999 -RA OVC040 09/06 Q1027 NOSIG
ZHCC,2021-10-19 21:00,ZHCC 192100Z 25001MPS 7000 -RA FEW040 08/07 Q1027 NOSIG
ZHCC,2021-10-19 22:00,ZHCC 192200Z 25001MPS 7000 -RA FEW040 08/07 Q1027 NOSIG
ZHCC,2021-10-19 23:00,ZHCC 192300Z VRB01MPS 5000 -RA BR FEW040 08/07 Q1027 NOSIG
ZHCC,2021-10-20 00:00,ZHCC 200000Z VRB01MPS 4000 -RA BR SCT040 09/07 Q1027 NOSIG
ZHCC,2021-10-20 01:00,ZHCC 200100Z VRB01MPS 3500 -RA BR OVC040 09/08 Q1028 NOSIG
ZHCC,2021-10-20 02:00,ZHCC 200200Z 22002MPS 170V250 2000 -RA BR OVC040 10/09 Q1028 BECMG TL0340 3000
ZHCC,2021-10-20 03:00,ZHCC 200300Z 21002MPS 190V270 2500 BR OVC040 10/09 Q1027 BECMG TL0440 3000
ZHCC,2021-10-20 04:00,ZHCC 200400Z VRB01MPS 3000 BR OVC040 11/09 Q1026 NOSIG
ZHCC,2021-10-20 05:00,ZHCC 200500Z 21002MPS 170V250 5000 BR NSC 12/09 Q1025 NOSIG
ZHCC,2021-10-20 06:00,ZHCC 200600Z 21003MPS 170V240 7000 NSC 12/09 Q1025 NOSIG
ZHCC,2021-10-20 07:00,ZHCC 200700Z 21003MPS 170V240 6000 OVC020 12/09 Q1024 NOSIG
ZHCC,2021-10-20 08:00,ZHCC 200800Z 20004MPS 150V240 6000 OVC020 12/09 Q1024 NOSIG
ZHCC,2021-10-20 09:00,ZHCC 200900Z 20003MPS 130V260 6000 NSC 11/09 Q1024 NOSIG
ZHCC,2021-10-20 10:00,ZHCC 201000Z 20002MPS 100V250 4000 BR NSC 11/09 Q1024 NOSIG
ZHCC,2021-10-20 11:00,ZHCC 201100Z 20003MPS 150V240 4000 BR NSC 11/09 Q1024 NOSIG
ZHCC,2021-10-20 12:00,ZHCC 201200Z 19003MPS 150V240 4000 BR NSC 10/09 Q1024 NOSIG
ZHCC,2021-10-20 13:00,ZHCC 201300Z 20003MPS 160V240 4000 BR NSC 10/09 Q1024 NOSIG
ZHCC,2021-10-20 14:00,ZHCC 201400Z 21003MPS 170V240 4000 BR NSC 10/08 Q1024 NOSIG
ZHCC,2021-10-20 15:00,ZHCC 201500Z 19002MPS 140V240 4000 BR NSC 10/09 Q1024 NOSIG
ZHCC,2021-10-20 16:00,ZHCC 201600Z 20002MPS 130V260 4000 BR NSC 10/08 Q1023 NOSIG
ZHCC,2021-10-20 17:00,ZHCC 201700Z 20002MPS 160V240 3500 BR NSC 09/08 Q1023 NOSIG
ZHCC,2021-10-20 18:00,ZHCC 201800Z VRB01MPS 3000 BR NSC 09/08 Q1023 NOSIG
ZHCC,2021-10-20 19:00,ZHCC 201900Z VRB01MPS 2000 BR NSC 09/08 Q1023 NOSIG
ZHCC,2021-10-20 20:00,ZHCC 202000Z VRB01MPS 2000 BR NSC 08/07 Q1023 NOSIG
ZHCC,2021-10-20 21:00,ZHCC 202100Z VRB01MPS 2000 BR NSC 07/07 Q1023 BECMG TL2240 1200
ZHCC,2021-10-20 22:00,ZHCC 202200Z VRB01MPS 1800 BCFG BR NSC 06/06 Q1023 BECMG TL2240 1200
ZHCC,2021-10-20 23:00,ZHCC 202300Z VRB01MPS 1200 R30L/0200V0325N R30R/1500D PRFG BR NSC 06/05 Q1023 BECMG TL0040 1500
ZHCC,2021-10-21 00:00,ZHCC 210000Z 29002MPS 3000 BR NSC 09/09 Q1024 NOSIG
ZHCC,2021-10-21 01:00,ZHCC 210100Z 31004MPS 5000 BR NSC 14/09 Q1025 NOSIG
ZHCC,2021-10-21 02:00,ZHCC 210200Z 31006MPS 5000 HZ NSC 16/08 Q1025 NOSIG
ZHCC,2021-10-21 03:00,ZHCC 210300Z 33006MPS 5000 HZ NSC 17/07 Q1025 NOSIG
ZHCC,2021-10-21 04:00,ZHCC 210400Z 35004G13MPS 290V050 5000 HZ NSC 18/07 Q1025 NOSIG
ZHCC,2021-10-21 05:00,ZHCC 210500Z 36004MPS 320V050 7000 FEW040 18/07 Q1025 NOSIG
ZHCC,2021-10-21 06:00,ZHCC 210600Z 04003MPS 290V080 7000 FEW040 18/07 Q1024 NOSIG
ZHCC,2021-10-21 07:00,ZHCC 210700Z 03003MPS 350V070 7000 FEW040 18/06 Q1024 NOSIG
ZHCC,2021-10-21 08:00,ZHCC 210800Z VRB02MPS 5000 HZ NSC 18/06 Q1024 NOSIG
ZHCC,2021-10-21 09:00,ZHCC 210900Z 05003MPS 5000 HZ NSC 17/06 Q1024 NOSIG
ZHCC,2021-10-21 10:00,ZHCC 211000Z 11002MPS 4000 HZ NSC 14/08 Q1024 NOSIG
ZHCC,2021-10-21 11:00,ZHCC 211100Z 11002MPS 4000 HZ NSC 13/08 Q1025 NOSIG
ZHCC,2021-10-21 12:00,ZHCC 211200Z 11002MPS 5000 BR NSC 12/08 Q1026 NOSIG
ZHCC,2021-10-21 13:00,ZHCC 211300Z 10002MPS 5000 BR NSC 12/07 Q1026 NOSIG
ZHCC,2021-10-21 14:00,ZHCC 211400Z 14002MPS 120V180 5000 BR NSC 11/07 Q1027 NOSIG
ZHCC,2021-10-21 15:00,ZHCC 211500Z 00000MPS 5000 BR NSC 08/07 Q1027 NOSIG
ZHCC,2021-10-21 16:00,ZHCC 211600Z 29001MPS 5000 BR NSC 08/07 Q1028 NOSIG
ZHCC,2021-10-21 17:00,ZHCC 211700Z 00000MPS 4000 BR NSC 07/06 Q1027 NOSIG
ZHCC,2021-10-21 18:00,ZHCC 211800Z 23001MPS 4000 BR NSC 07/07 Q1027 NOSIG
ZHCC,2021-10-21 19:00,ZHCC 211900Z VRB01MPS 4000 BR NSC 07/06 Q1027 NOSIG
ZHCC,2021-10-21 20:00,ZHCC 212000Z 00000MPS 3500 BR NSC 08/07 Q1028 NOSIG
ZHCC,2021-10-21 21:00,ZHCC 212100Z 29001MPS 3500 BR NSC 07/06 Q1028 NOSIG
ZHCC,2021-10-21 22:00,ZHCC 212200Z 28001MPS 3500 BR NSC 06/06 Q1028 NOSIG
ZHCC,2021-10-21 23:00,ZHCC 212300Z 30002MPS 3000 BR NSC 08/06 Q1029 NOSIG
ZHCC,2021-10-22 00:00,ZHCC 220000Z VRB01MPS 3000 BR NSC 10/08 Q1030 NOSIG
ZHCC,2021-10-22 01:00,ZHCC 220100Z 32003MPS 280V350 3000 HZ NSC 13/08 Q1030 NOSIG
ZHCC,2021-10-22 02:00,ZHCC 220200Z 34003MPS 310V020 3000 HZ NSC 16/08 Q1031 NOSIG
ZHCC,2021-10-22 03:00,ZHCC 220300Z 02002MPS 320V060 3000 HZ NSC 16/09 Q1031 NOSIG
ZHCC,2021-10-22 04:00,ZHCC 220400Z VRB01MPS 3000 HZ NSC 17/09 Q1030 NOSIG
ZHCC,2021-10-22 05:00,ZHCC 220500Z 02002MPS 320V120 3000 HZ NSC 18/08 Q1029 NOSIG
ZHCC,2021-10-22 06:00,ZHCC 220600Z 06002MPS 350V120 4000 HZ NSC 18/06 Q1029 NOSIG
ZHCC,2021-10-22 07:00,ZHCC 220700Z 13002MPS 090V200 5000 HZ FEW030 18/05 Q1028 NOSIG
ZHCC,2021-10-22 08:00,ZHCC 220800Z 15002MPS 080V210 5000 HZ FEW030 18/06 Q1028 NOSIG
ZHCC,2021-10-22 09:00,ZHCC 220900Z VRB01MPS 5000 HZ NSC 16/06 Q1028 NOSIG
ZHCC,2021-10-22 10:00,ZHCC 221000Z VRB01MPS 5000 HZ NSC 14/08 Q1028 NOSIG
ZHCC,2021-10-22 11:00,ZHCC 221100Z 17001MPS 5000 BR NSC 11/09 Q1028 NOSIG
ZHCC,2021-10-22 12:00,ZHCC 221200Z 00000MPS 5000 BR NSC 11/09 Q1029 NOSIG
ZHCC,2021-10-22 13:00,ZHCC 221300Z VRB01MPS 5000 BR NSC 10/09 Q1029 NOSIG
ZHCC,2021-10-22 14:00,ZHCC 221400Z VRB01MPS 5000 BR NSC 09/08 Q1029 NOSIG
ZHCC,2021-10-22 15:00,ZHCC 221500Z VRB01MPS 5000 BR NSC 10/08 Q1029 NOSIG
ZHCC,2021-10-22 16:00,ZHCC 221600Z VRB01MPS 5000 BR NSC 08/07 Q1029 NOSIG
ZHCC,2021-10-22 17:00,ZHCC 221700Z 28001MPS 4000 BR NSC 07/06 Q1029 NOSIG
ZHCC,2021-10-22 18:00,ZHCC 221800Z 00000MPS 3000 BR NSC 08/07 Q1028 NOSIG
ZHCC,2021-10-22 19:00,ZHCC 221900Z 22001MPS 3000 BR NSC 07/07 Q1028 NOSIG
ZHCC,2021-10-22 20:00,ZHCC 222000Z 00000MPS 2000 BR NSC 07/07 Q1028 NOSIG
ZHCC,2021-10-22 21:00,ZHCC 222100Z 30001MPS 2500 BR NSC 08/07 Q1028 NOSIG
ZHCC,2021-10-22 22:00,ZHCC 222200Z 00000MPS 2500 BR NSC 07/07 Q1028 NOSIG
ZHCC,2021-10-22 23:00,ZHCC 222300Z 29001MPS 1800 BR NSC 07/07 Q1028 BECMG TL0040 3000
ZHCC,2021-10-23 00:00,ZHCC 230000Z 00000MPS 1800 R30L/1400N R30R/1700N BR NSC 11/10 Q1029 BECMG TL0140 3000
ZHCC,2021-10-23 01:00,ZHCC 230100Z VRB01MPS 2500 HZ NSC 14/09 Q1030 BECMG TL0140 3000
ZHCC,2021-10-23 02:00,ZHCC 230200Z 18002MPS 110V260 4000 HZ NSC 17/06 Q1030 NOSIG
ZHCC,2021-10-23 03:00,ZHCC 230300Z VRB02MPS 5000 HZ NSC 18/05 Q1030 NOSIG
ZHCC,2021-10-23 04:00,ZHCC 230400Z 15002MPS 080V220 5000 HZ NSC 18/03 Q1029 NOSIG
ZHCC,2021-10-23 05:00,ZHCC 230500Z 17003MPS 110V240 6000 NSC 18/03 Q1028 NOSIG
ZHCC,2021-10-23 06:00,ZHCC 230600Z 16002MPS 110V210 6000 NSC 18/04 Q1028 NOSIG
ZHCC,2021-10-23 07:00,ZHCC 230700Z 14002MPS 070V210 6000 NSC 18/03 Q1027 NOSIG
ZHCC,2021-10-23 08:00,ZHCC 230800Z VRB01MPS 6000 NSC 17/04 Q1027 NOSIG
ZHCC,2021-10-23 09:00,ZHCC 230900Z 14001MPS 6000 NSC 16/05 Q1027 NOSIG
ZHCC,2021-10-23 10:00,ZHCC 231000Z VRB01MPS 6000 NSC 13/07 Q1027 NOSIG
ZHCC,2021-10-23 11:00,ZHCC 231100Z VRB01MPS 6000 NSC 13/07 Q1027 NOSIG
ZHCC,2021-10-23 12:00,ZHCC 231200Z 00000MPS 6000 NSC 12/07 Q1028 NOSIG
ZHCC,2021-10-23 13:00,ZHCC 231300Z 23001MPS 6000 NSC 11/08 Q1028 NOSIG
ZHCC,2021-10-23 14:00,ZHCC 231400Z 28001MPS 6000 NSC 10/08 Q1028 NOSIG
ZHCC,2021-10-23 15:00,ZHCC 231500Z VRB01MPS 6000 NSC 10/08 Q1028 NOSIG
ZHCC,2021-10-23 16:00,ZHCC 231600Z 30001MPS 5000 BR NSC 07/07 Q1028 NOSIG
ZHCC,2021-10-23 17:00,ZHCC 231700Z 23001MPS 5000 BR NSC 08/06 Q1028 NOSIG
ZHCC,2021-10-23 18:00,ZHCC 231800Z 28001MPS 5000 BR NSC 06/05 Q1028 NOSIG
ZHCC,2021-10-23 19:00,ZHCC 231900Z 00000MPS 5000 BR NSC 08/07 Q1027 NOSIG
ZHCC,2021-10-23 20:00,ZHCC 232000Z 00000MPS 5000 BR NSC 09/08 Q1026 NOSIG
ZHCC,2021-10-23 21:00,ZHCC 232100Z 00000MPS 5000 BR NSC 09/08 Q1026 NOSIG
ZHCC,2021-10-23 22:00,ZHCC 232200Z 28001MPS 5000 BR NSC 09/08 Q1027 NOSIG
ZHCC,2021-10-23 23:00,ZHCC 232300Z 00000MPS 3000 BR NSC 08/07 Q1027 NOSIG
ZHCC,2021-10-24 00:00,ZHCC 240000Z 28001MPS 3000 BR NSC 11/09 Q1027 NOSIG
ZHCC,2021-10-24 01:00,ZHCC 240100Z VRB01MPS 3000 HZ NSC 14/08 Q1027 NOSIG
ZHCC,2021-10-24 02:00,ZHCC 240200Z 19002MPS 140V230 4000 HZ NSC 17/04 Q1028 NOSIG
ZHCC,2021-10-24 03:00,ZHCC 240300Z VRB02MPS 4000 HZ NSC 18/05 Q1027 NOSIG
ZHCC,2021-10-24 04:00,ZHCC 240400Z 22002MPS 100V260 5000 HZ NSC 18/04 Q1027 NOSIG
ZHCC,2021-10-24 05:00,ZHCC 240500Z VRB02MPS 5000 HZ NSC 20/05 Q1025 NOSIG
ZHCC,2021-10-24 06:00,ZHCC 240600Z VRB02MPS 5000 HZ NSC 20/04 Q1024 NOSIG
ZHCC,2021-10-24 07:00,ZHCC 240700Z VRB01MPS 5000 HZ NSC 20/04 Q1024 NOSIG
ZHCC,2021-10-24 08:00,ZHCC 240800Z 14002MPS 100V210 5000 HZ NSC 19/05 Q1024 NOSIG
ZHCC,2021-10-24 09:00,ZHCC 240900Z VRB01MPS 5000 HZ NSC 18/06 Q1024 NOSIG
ZHCC,2021-10-24 10:00,ZHCC 241000Z VRB01MPS 6000 NSC 15/06 Q1024 NOSIG
ZHCC,2021-10-24 11:00,ZHCC 241100Z VRB01MPS 6000 NSC 14/07 Q1025 NOSIG
ZHCC,2021-10-24 12:00,ZHCC 241200Z 20001MPS 6000 NSC 12/08 Q1025 NOSIG
ZHCC,2021-10-24 13:00,ZHCC 241300Z VRB01MPS 5000 BR NSC 10/08 Q1025 NOSIG
ZHCC,2021-10-24 14:00,ZHCC 241400Z VRB01MPS 5000 BR NSC 09/07 Q1025 NOSIG
ZHCC,2021-10-24 15:00,ZHCC 241500Z 21001MPS 5000 BR NSC 10/08 Q1025 NOSIG
ZHCC,2021-10-24 16:00,ZHCC 241600Z 00000MPS 5000 BR NSC 08/07 Q1025 NOSIG
ZHCC,2021-10-24 17:00,ZHCC 241700Z 21001MPS 5000 BR NSC 08/06 Q1025 NOSIG
ZHCC,2021-10-24 18:00,ZHCC 241800Z 00000MPS 5000 BR NSC 07/07 Q1025 NOSIG
ZHCC,2021-10-24 19:00,ZHCC 241900Z VRB01MPS 5000 BR NSC 08/07 Q1024 NOSIG
ZHCC,2021-10-24 20:00,ZHCC 242000Z 00000MPS 4500 BR NSC 07/06 Q1024 NOSIG
ZHCC,2021-10-24 21:00,ZHCC 242100Z 00000MPS 4500 BR NSC 08/07 Q1023 BECMG TL2240 2500
ZHCC,2021-10-24 22:00,ZHCC 242200Z 00000MPS 4000 BR NSC 07/06 Q1023 NOSIG
ZHCC,2021-10-24 23:00,ZHCC 242300Z VRB01MPS 3000 BR NSC 07/06 Q1024 NOSIG
ZHCC,2021-10-25 00:00,ZHCC 250000Z 00000MPS 3000 BR NSC 12/10 Q1024 NOSIG
ZHCC,2021-10-25 01:00,ZHCC 250100Z 22002MPS 180V260 3000 HZ NSC 14/08 Q1024 NOSIG
ZHCC,2021-10-25 02:00,ZHCC 250200Z 18002MPS 110V220 4000 HZ NSC 17/09 Q1023 NOSIG
ZHCC,2021-10-25 03:00,ZHCC 250300Z 18003MPS 130V230 5000 HZ NSC 18/08 Q1023 NOSIG
ZHCC,2021-10-25 04:00,ZHCC 250400Z 19003MPS 120V240 5000 HZ NSC 19/08 Q1022 NOSIG
ZHCC,2021-10-25 05:00,ZHCC 250500Z 21003MPS 140V280 5000 HZ NSC 20/08 Q1022 NOSIG
ZHCC,2021-10-25 06:00,ZHCC 250600Z 19003MPS 140V240 5000 HZ NSC 21/08 Q1021 NOSIG
ZHCC,2021-10-25 07:00,ZHCC 250700Z 18003MPS 110V230 5000 HZ NSC 20/07 Q1020 NOSIG
ZHCC,2021-10-25 08:00,ZHCC 250800Z 17002MPS 110V220 6000 NSC 19/08 Q1020 NOSIG
ZHCC,2021-10-25 09:00,ZHCC 250900Z VRB01MPS 6000 NSC 18/08 Q1020 NOSIG
ZHCC,2021-10-25 10:00,ZHCC 251000Z VRB01MPS 6000 NSC 17/09 Q1020 NOSIG
ZHCC,2021-10-25 11:00,ZHCC 251100Z 18002MPS 120V270 6000 NSC 16/09 Q1020 NOSIG
ZHCC,2021-10-25 12:00,ZHCC 251200Z VRB01MPS 6000 NSC 16/09 Q1020 NOSIG
ZHCC,2021-10-25 13:00,ZHCC 251300Z 19002MPS 130V240 6000 NSC 15/09 Q1020 NOSIG
ZHCC,2021-10-25 14:00,ZHCC 251400Z VRB01MPS 6000 NSC 14/08 Q1020 NOSIG
ZHCC,2021-10-25 15:00,ZHCC 251500Z VRB01MPS 6000 NSC 12/08 Q1020 NOSIG
ZHCC,2021-10-25 16:00,ZHCC 251600Z 00000MPS 6000 NSC 11/09 Q1020 NOSIG
ZHCC,2021-10-25 17:00,ZHCC 251700Z VRB01MPS 5000 BR NSC 10/08 Q1020 NOSIG
ZHCC,2021-10-25 18:00,ZHCC 251800Z VRB01MPS 5000 BR NSC 10/09 Q1020 NOSIG
ZHCC,2021-10-25 19:00,ZHCC 251900Z 00000MPS 5000 BR NSC 10/09 Q1020 NOSIG
ZHCC,2021-10-25 20:00,ZHCC 252000Z VRB01MPS 5000 BR NSC 10/09 Q1019 NOSIG
ZHCC,2021-10-25 21:00,ZHCC 252100Z VRB01MPS 4000 BR NSC 09/08 Q1019 NOSIG
ZHCC,2021-10-25 22:00,ZHCC 252200Z 00000MPS 4000 BR NSC 09/09 Q1020 BECMG TL2240 2000
ZHCC,2021-10-25 23:00,ZHCC 252300Z 27001MPS 2500 BR NSC 09/08 Q1020 BECMG TL0020 3000
ZHCC,2021-10-26 00:00,ZHCC 260000Z VRB01MPS 3000 BR NSC 13/10 Q1021 NOSIG
ZHCC,2021-10-26 01:00,ZHCC 260100Z 23002MPS 190V280 4000 HZ NSC 16/10 Q1021 NOSIG
ZHCC,2021-10-26 02:00,ZHCC 260200Z VRB01MPS 5000 HZ NSC 19/10 Q1021 NOSIG
ZHCC,2021-10-26 03:00,ZHCC 260300Z VRB01MPS 6000 NSC 21/09 Q1021 NOSIG
ZHCC,2021-10-26 04:00,ZHCC 260400Z 30003MPS 260V340 6000 NSC 21/10 Q1021 NOSIG
ZHCC,2021-10-26 05:00,ZHCC 260500Z 32002MPS 260V350 6000 NSC 22/10 Q1020 NOSIG
ZHCC,2021-10-26 06:00,ZHCC 260600Z 30003MPS 6000 NSC 21/10 Q1019 NOSIG
ZHCC,2021-10-26 07:00,ZHCC 260700Z 30002MPS 270V330 5000 HZ NSC 22/10 Q1019 NOSIG
ZHCC,2021-10-26 08:00,ZHCC 260800Z 31002MPS 290V350 5000 HZ NSC 22/09 Q1020 NOSIG
ZHCC,2021-10-26 09:00,ZHCC 260900Z 02003MPS 350V050 5000 HZ NSC 21/09 Q1020 NOSIG
ZHCC,2021-10-26 10:00,ZHCC 261000Z 01003MPS 7000 NSC 20/05 Q1020 NOSIG
ZHCC,2021-10-26 11:00,ZHCC 261100Z 35002MPS 9000 NSC 18/05 Q1021 NOSIG
ZHCC,2021-10-26 12:00,ZHCC 261200Z 34003MPS 7000 NSC 16/06 Q1022 NOSIG
ZHCC,2021-10-26 13:00,ZHCC 261300Z 33002MPS 7000 NSC 13/07 Q1022 NOSIG
ZHCC,2021-10-26 14:00,ZHCC 261400Z 01002G10MPS 240V050 7000 NSC 17/07 Q1023 NOSIG
ZHCC,2021-10-26 15:00,ZHCC 261500Z 36002MPS 6000 NSC 15/07 Q1023 NOSIG
ZHCC,2021-10-26 16:00,ZHCC 261600Z 01002MPS 6000 NSC 16/08 Q1023 NOSIG
ZHCC,2021-10-26 17:00,ZHCC 261700Z 36003MPS 5000 HZ NSC 15/08 Q1023 NOSIG
ZHCC,2021-10-26 18:00,ZHCC 261800Z 01003MPS 340V040 4000 HZ NSC 15/07 Q1024 NOSIG
ZHCC,2021-10-26 19:00,ZHCC 261900Z 02003MPS 340V040 4000 HZ NSC 15/06 Q1024 NOSIG
ZHCC,2021-10-26 20:00,ZHCC 262000Z 35002MPS 310V030 4000 HZ NSC 14/05 Q1024 NOSIG
ZHCC,2021-10-26 21:00,ZHCC 262100Z 34002MPS 4000 HZ NSC 11/06 Q1025 NOSIG
ZHCC,2021-10-26 22:00,ZHCC 262200Z 33002MPS 320V040 4000 BR NSC 09/06 Q1025 NOSIG
ZHCC,2021-10-26 23:00,ZHCC 262300Z 30003MPS 3000 BR NSC 09/06 Q1026 NOSIG
ZHCC,2021-10-27 00:00,ZHCC 270000Z 32002MPS 4000 HZ NSC 13/07 Q1027 NOSIG
ZHCC,2021-10-27 01:00,ZHCC 270100Z 01003MPS 330V040 4000 HZ NSC 16/05 Q1027 NOSIG
ZHCC,2021-10-27 02:00,ZHCC 270200Z 04005MPS 4000 HZ NSC 17/05 Q1027 NOSIG
ZHCC,2021-10-27 03:00,ZHCC 270300Z 03005MPS 4000 HZ NSC 18/04 Q1026 NOSIG
ZHCC,2021-10-27 04:00,ZHCC 270400Z 04004MPS 360V070 4000 HZ NSC 19/05 Q1026 NOSIG
ZHCC,2021-10-27 05:00,ZHCC 270500Z 02003MPS 320V070 4000 HZ NSC 19/05 Q1025 NOSIG
ZHCC,2021-10-27 06:00,ZHCC 270600Z 08004MPS 030V100 4000 HZ NSC 20/04 Q1024 NOSIG
ZHCC,2021-10-27 07:00,ZHCC 270700Z 04003MPS 010V070 5000 HZ NSC 20/03 Q1024 NOSIG
ZHCC,2021-10-27 08:00,ZHCC 270800Z 02002MPS 330V070 5000 HZ NSC 20/03 Q1024 NOSIG
ZHCC,2021-10-27 09:00,ZHCC 270900Z 03002MPS 360V090 5000 HZ NSC 19/04 Q1023 NOSIG
ZHCC,2021-10-27 10:00,ZHCC 271000Z 35002MPS 300V080 5000 HZ NSC 16/06 Q1023 NOSIG
ZHCC,2021-10-27 11:00,ZHCC 271100Z 26001MPS 5000 HZ NSC 15/08 Q1024 NOSIG
ZHCC,2021-10-27 12:00,ZHCC 271200Z VRB01MPS 5000 HZ NSC 15/07 Q1024 NOSIG
ZHCC,2021-10-27 13:00,ZHCC 271300Z 00000MPS 5000 HZ NSC 14/08 Q1024 NOSIG
ZHCC,2021-10-27 14:00,ZHCC 271400Z VRB01MPS 5000 HZ NSC 14/09 Q1024 NOSIG
ZHCC,2021-10-27 15:00,ZHCC 271500Z 26001MPS 5000 HZ NSC 13/09 Q1024 NOSIG
ZHCC,2021-10-27 16:00,ZHCC 271600Z 22001MPS 5000 BR NSC 13/09 Q1024 NOSIG
ZHCC,2021-10-27 17:00,ZHCC 271700Z 28001MPS 5000 BR NSC 12/09 Q1024 NOSIG
ZHCC,2021-10-27 18:00,ZHCC 271800Z 24001MPS 5000 BR NSC 12/09 Q1024 NOSIG
ZHCC,2021-10-27 19:00,ZHCC 271900Z 28001MPS 5000 BR NSC 11/09 Q1024 NOSIG
ZHCC,2021-10-27 20:00,ZHCC 272000Z 27001MPS 5000 BR NSC 11/09 Q1024 NOSIG
ZHCC,2021-10-27 21:00,ZHCC 272100Z 19001MPS 5000 BR NSC 11/09 Q1024 NOSIG
ZHCC,2021-10-27 22:00,ZHCC 272200Z VRB01MPS 5000 BR NSC 11/09 Q1024 NOSIG
ZHCC,2021-10-27 23:00,ZHCC 272300Z VRB01MPS 5000 BR NSC 12/08 Q1024 NOSIG
ZHCC,2021-10-28 00:00,ZHCC 280000Z VRB01MPS 5000 BR NSC 13/09 Q1025 NOSIG
ZHCC,2021-10-28 01:00,ZHCC 280100Z 00000MPS 5000 HZ NSC 16/09 Q1025 NOSIG
ZHCC,2021-10-28 02:00,ZHCC 280200Z VRB01MPS 5000 HZ NSC 19/06 Q1025 NOSIG
ZHCC,2021-10-28 03:00,ZHCC 280300Z 21002MPS 170V250 5000 HZ NSC 20/04 Q1025 NOSIG
ZHCC,2021-10-28 04:00,ZHCC 280400Z VRB01MPS 5000 HZ NSC 21/04 Q1024 NOSIG
ZHCC,2021-10-28 05:00,ZHCC 280500Z 18002MPS 110V250 7000 NSC 22/02 Q1023 NOSIG
ZHCC,2021-10-28 06:00,ZHCC 280600Z 16002MPS 100V240 7000 NSC 23/03 Q1022 NOSIG
ZHCC,2021-10-28 07:00,ZHCC 280700Z 16002MPS 100V210 7000 NSC 22/04 Q1022 NOSIG
ZHCC,2021-10-28 08:00,ZHCC 280800Z VRB01MPS 6000 NSC 22/04 Q1022 NOSIG
ZHCC,2021-10-28 09:00,ZHCC 280900Z VRB01MPS 6000 NSC 20/06 Q1022 NOSIG
ZHCC,2021-10-28 10:00,ZHCC 281000Z VRB01MPS 6000 NSC 18/09 Q1023 NOSIG
ZHCC,2021-10-28 11:00,ZHCC 281100Z VRB01MPS 6000 NSC 16/09 Q1023 NOSIG
ZHCC,2021-10-28 12:00,ZHCC 281200Z VRB01MPS 5000 HZ NSC 16/09 Q1024 NOSIG
ZHCC,2021-10-28 13:00,ZHCC 281300Z VRB01MPS 4000 HZ NSC 13/10 Q1024 NOSIG
ZHCC,2021-10-28 14:00,ZHCC 281400Z VRB01MPS 4000 HZ NSC 13/10 Q1024 NOSIG
ZHCC,2021-10-28 15:00,ZHCC 281500Z 23001MPS 4000 BR NSC 13/10 Q1024 NOSIG
ZHCC,2021-10-28 16:00,ZHCC 281600Z 26001MPS 4000 BR NSC 12/10 Q1024 NOSIG
ZHCC,2021-10-28 17:00,ZHCC 281700Z 00000MPS 3000 BR NSC 11/10 Q1023 NOSIG
ZHCC,2021-10-28 18:00,ZHCC 281800Z 00000MPS 3000 BR NSC 10/09 Q1023 NOSIG
ZHCC,2021-10-28 19:00,ZHCC 281900Z 23001MPS 3000 BR NSC 11/10 Q1023 NOSIG
ZHCC,2021-10-28 20:00,ZHCC 282000Z 30001MPS 3000 BR NSC 11/09 Q1023 NOSIG
ZHCC,2021-10-28 21:00,ZHCC 282100Z 29001MPS 3000 BR NSC 09/08 Q1023 BECMG TL2240 2000
ZHCC,2021-10-28 22:00,ZHCC 282200Z 28001MPS 3000 BR NSC 10/09 Q1023 NOSIG
ZHCC,2021-10-28 23:00,ZHCC 282300Z VRB01MPS 1500 BR NSC 09/09 Q1023 BECMG TL0040 3000
ZHCC,2021-10-29 00:00,ZHCC 290000Z VRB01MPS 1500 R30L/1400U R30R/1800U BR NSC 12/11 Q1024 BECMG TL0140 3000
ZHCC,2021-10-29 01:00,ZHCC 290100Z 21002MPS 170V250 2000 HZ NSC 16/10 Q1024 BECMG TL0240 3000
ZHCC,2021-10-29 02:00,ZHCC 290200Z VRB01MPS 3000 HZ NSC 18/10 Q1024 NOSIG
ZHCC,2021-10-29 03:00,ZHCC 290300Z 19002MPS 110V240 3000 HZ NSC 19/10 Q1024 NOSIG
ZHCC,2021-10-29 04:00,ZHCC 290400Z 19003MPS 150V240 3000 HZ NSC 20/11 Q1023 NOSIG
ZHCC,2021-10-29 05:00,ZHCC 290500Z 19003MPS 150V230 4000 HZ NSC 20/10 Q1022 NOSIG
ZHCC,2021-10-29 06:00,ZHCC 290600Z 22003MPS 190V260 4000 HZ NSC 21/10 Q1021 NOSIG
ZHCC,2021-10-29 07:00,ZHCC 290700Z 21002MPS 170V270 4000 HZ NSC 22/09 Q1021 NOSIG
ZHCC,2021-10-29 08:00,ZHCC 290800Z 20002MPS 160V230 4000 HZ NSC 22/11 Q1020 NOSIG
ZHCC,2021-10-29 09:00,ZHCC 290900Z 19001MPS 5000 HZ NSC 20/11 Q1020 NOSIG
ZHCC,2021-10-29 10:00,ZHCC 291000Z 21002MPS 6000 NSC 19/11 Q1020 NOSIG
ZHCC,2021-10-29 11:00,ZHCC 291100Z 20003MPS 8000 NSC 18/10 Q1021 NOSIG
ZHCC,2021-10-29 12:00,ZHCC 291200Z 20001MPS 8000 NSC 17/10 Q1021 NOSIG
ZHCC,2021-10-29 13:00,ZHCC 291300Z 20001MPS 6000 NSC 13/10 Q1021 NOSIG
ZHCC,2021-10-29 14:00,ZHCC 291400Z 00000MPS 5000 BR NSC 12/10 Q1021 NOSIG
ZHCC,2021-10-29 15:00,ZHCC 291500Z VRB01MPS 5000 BR NSC 12/11 Q1022 NOSIG
ZHCC,2021-10-29 16:00,ZHCC 291600Z 00000MPS 4000 BR NSC 10/10 Q1022 NOSIG
ZHCC,2021-10-29 17:00,ZHCC 291700Z 21001MPS 4000 BR NSC 11/10 Q1022 NOSIG
ZHCC,2021-10-29 18:00,ZHCC 291800Z VRB01MPS 4000 BR NSC 10/10 Q1022 NOSIG
ZHCC,2021-10-29 19:00,ZHCC 291900Z VRB01MPS 4000 BR NSC 09/09 Q1021 NOSIG
ZHCC,2021-10-29 20:00,ZHCC 292000Z 00000MPS 3000 BR NSC 09/09 Q1021 NOSIG
ZHCC,2021-10-29 21:00,ZHCC 292100Z 00000MPS 3000 BR NSC 08/07 Q1021 NOSIG
ZHCC,2021-10-29 22:00,ZHCC 292200Z 25001MPS 3000 BR NSC 09/08 Q1022 BECMG TL2240 2000
ZHCC,2021-10-29 23:00,ZHCC 292300Z 00000MPS 2500 BR NSC 08/08 Q1022 BECMG TL0040 3000
ZHCC,2021-10-30 00:00,ZHCC 300000Z 00000MPS 2500 BR NSC 12/11 Q1022 BECMG TL0100 3000
ZHCC,2021-10-30 01:00,ZHCC 300100Z VRB01MPS 4000 HZ NSC 17/12 Q1023 NOSIG
ZHCC,2021-10-30 02:00,ZHCC 300200Z VRB01MPS 6000 NSC 21/11 Q1023 NOSIG
ZHCC,2021-10-30 03:00,ZHCC 300300Z 14002MPS 080V220 6000 NSC 22/11 Q1023 NOSIG
ZHCC,2021-10-30 04:00,ZHCC 300400Z VRB02MPS 6000 NSC 23/11 Q1022 NOSIG
ZHCC,2021-10-30 05:00,ZHCC 300500Z 19002MPS 140V260 7000 NSC 23/10 Q1022 NOSIG
ZHCC,2021-10-30 06:00,ZHCC 300600Z 19003MPS 090V230 9000 NSC 24/09 Q1021 NOSIG
ZHCC,2021-10-30 07:00,ZHCC 300700Z 20002MPS 140V250 CAVOK 25/10 Q1021 NOSIG
ZHCC,2021-10-30 08:00,ZHCC 300800Z 20002MPS 160V270 CAVOK 24/09 Q1021 NOSIG
ZHCC,2021-10-30 09:00,ZHCC 300900Z 19002MPS 140V230 CAVOK 22/09 Q1021 NOSIG
ZHCC,2021-10-30 10:00,ZHCC 301000Z VRB01MPS CAVOK 19/11 Q1021 NOSIG
ZHCC,2021-10-30 11:00,ZHCC 301100Z VRB01MPS CAVOK 16/11 Q1021 NOSIG
ZHCC,2021-10-30 12:00,ZHCC 301200Z 20002MPS 150V220 CAVOK 19/10 Q1022 NOSIG
ZHCC,2021-10-30 13:00,ZHCC 301300Z 20002MPS 170V270 CAVOK 18/11 Q1022 NOSIG
ZHCC,2021-10-30 14:00,ZHCC 301400Z VRB01MPS 8000 NSC 14/11 Q1023 NOSIG
ZHCC,2021-10-30 15:00,ZHCC 301500Z 29002MPS 8000 NSC 13/11 Q1023 NOSIG
ZHCC,2021-10-30 16:00,ZHCC 301600Z VRB01MPS 8000 NSC 12/10 Q1023 NOSIG
ZHCC,2021-10-30 17:00,ZHCC 301700Z VRB01MPS 7000 NSC 11/09 Q1023 NOSIG
ZHCC,2021-10-30 18:00,ZHCC 301800Z VRB01MPS 7000 NSC 12/10 Q1023 NOSIG
ZHCC,2021-10-30 19:00,ZHCC 301900Z 19002MPS 7000 NSC 15/12 Q1023 NOSIG
ZHCC,2021-10-30 20:00,ZHCC 302000Z 25001MPS 6000 NSC 13/11 Q1023 NOSIG
ZHCC,2021-10-30 21:00,ZHCC 302100Z VRB01MPS 6000 NSC 12/11 Q1023 NOSIG
ZHCC,2021-10-30 22:00,ZHCC 302200Z VRB01MPS 6000 NSC 11/09 Q1023 BECMG TL2340 2500
ZHCC,2021-10-30 23:00,ZHCC 302300Z 30001MPS 5000 BR NSC 10/09 Q1023 NOSIG
ZHCC,2021-10-31 00:00,ZHCC 310000Z VRB01MPS 6000 NSC 14/12 Q1024 NOSIG
ZHCC,2021-10-31 01:00,ZHCC 310100Z 36002MPS 320V040 6000 NSC 18/11 Q1025 NOSIG
ZHCC,2021-10-31 02:00,ZHCC 310200Z 35004MPS 6000 NSC 19/10 Q1025 NOSIG
ZHCC,2021-10-31 03:00,ZHCC 310300Z 36003MPS 330V040 5000 HZ NSC 18/10 Q1025 NOSIG
ZHCC,2021-10-31 04:00,ZHCC 310400Z 02003MPS 4000 HZ NSC 19/08 Q1025 NOSIG
ZHCC,2021-10-31 05:00,ZHCC 310500Z 01004MPS 330V030 4000 HZ NSC 19/08 Q1024 NOSIG
ZHCC,2021-10-31 06:00,ZHCC 310600Z 35002MPS 300V010 4000 HZ NSC 20/08 Q1025 NOSIG
ZHCC,2021-10-31 07:00,ZHCC 310700Z 35002MPS 270V080 4000 HZ NSC 20/07 Q1025 NOSIG
ZHCC,2021-10-31 08:00,ZHCC 310800Z 31002MPS 4000 HZ NSC 19/08 Q1024 NOSIG
ZHCC,2021-10-31 09:00,ZHCC 310900Z VRB02G07MPS 4000 HZ NSC 19/08 Q1024 NOSIG
ZHCC,2021-10-31 10:00,ZHCC 311000Z 05003MPS 4500 HZ NSC 18/08 Q1025 NOSIG
ZHCC,2021-10-31 11:00,ZHCC 311100Z 04004MPS 3500 HZ NSC 17/10 Q1025 NOSIG
ZHCC,2021-10-31 12:00,ZHCC 311200Z 04003MPS 020V080 3000 HZ NSC 17/10 Q1026 NOSIG
ZHCC,2021-10-31 13:00,ZHCC 311300Z 03004MPS 360V080 3000 HZ NSC 17/11 Q1026 BECMG TL1440 2500
ZHCC,2021-10-31 14:00,ZHCC 311400Z 02004MPS 360V060 3000 HZ NSC 17/10 Q1027 BECMG TL1440 2500
ZHCC,2021-10-31 15:00,ZHCC 311500Z 02003MPS 350V050 4000 HZ NSC 16/08 Q1027 NOSIG
ZHCC,2021-10-31 16:00,ZHCC 311600Z 01002MPS 340V060 4500 HZ NSC 15/06 Q1027 NOSIG
ZHCC,2021-10-31 17:00,ZHCC 311700Z 01003MPS 7000 NSC 15/05 Q1027 NOSIG
ZHCC,2021-10-31 18:00,ZHCC 311800Z 02003MPS 9000 NSC 15/03 Q1027 NOSIG
ZHCC,2021-10-31 19:00,ZHCC 311900Z 03003MPS 360V060 CAVOK 14/03 Q1027 NOSIG
ZHCC,2021-10-31 20:00,ZHCC 312000Z 03003MPS 360V060 CAVOK 13/02 Q1027 NOSIG
ZHCC,2021-10-31 21:00,ZHCC 312100Z 01002MPS 340V040 CAVOK 13/04 Q1028 NOSIG
ZHCC,2021-10-31 22:00,ZHCC 312200Z 36003MPS 330V040 7000 NSC 13/05 Q1028 NOSIG
ZHCC,2021-10-31 23:00,ZHCC 312300Z 01004MPS 340V040 3000 HZ NSC 11/06 Q1028 NOSIG
ZHCC,2021-11-01 00:00,ZHCC 010000Z 01004MPS 330V070 2000 HZ NSC 11/08 Q1029 BECMG TL0140 3000
ZHCC,2021-11-01 01:00,ZHCC 010100Z 01005MPS 1500 BR NSC 12/09 Q1029 NOSIG
ZHCC,2021-11-01 02:00,ZHCC 010200Z 02004MPS 340V060 1500 BR NSC 13/10 Q1029 BECMG TL0340 3000
ZHCC,2021-11-01 03:00,ZHCC 010300Z 01005MPS 350V060 1500 BR NSC 14/10 Q1029 NOSIG
ZHCC,2021-11-01 04:00,ZHCC 010400Z 04005MPS 360V070 2000 BR NSC 14/09 Q1029 BECMG TL0540 3000
ZHCC,2021-11-01 05:00,ZHCC 010500Z 01004MPS 340V060 2000 HZ NSC 15/09 Q1028 BECMG TL0540 3000
ZHCC,2021-11-01 06:00,ZHCC 010600Z 04004MPS 360V070 2500 HZ NSC 16/10 Q1027 NOSIG
ZHCC,2021-11-01 07:00,ZHCC 010700Z 01004MPS 340V050 2500 HZ NSC 16/10 Q1026 NOSIG
ZHCC,2021-11-01 08:00,ZHCC 010800Z 02004MPS 340V060 2500 HZ NSC 15/10 Q1026 BECMG TL0940 3000
ZHCC,2021-11-01 09:00,ZHCC 010900Z 06004MPS 030V090 2500 HZ NSC 14/10 Q1026 BECMG TL1040 3000
ZHCC,2021-11-01 10:00,ZHCC 011000Z 05003MPS 030V090 3000 BR NSC 14/10 Q1026 NOSIG
ZHCC,2021-11-01 11:00,ZHCC 011100Z 05002MPS 020V090 3000 BR NSC 13/10 Q1027 NOSIG
ZHCC,2021-11-01 12:00,ZHCC 011200Z 03002MPS 360V070 3000 BR NSC 13/10 Q1027 NOSIG
ZHCC,2021-11-01 13:00,ZHCC 011300Z 03003MPS 020V090 3000 BR NSC 14/10 Q1027 NOSIG
ZHCC,2021-11-01 14:00,ZHCC 011400Z 04002MPS 010V080 3000 BR NSC 14/10 Q1027 NOSIG
ZHCC,2021-11-01 15:00,ZHCC 011500Z 01002MPS 330V070 3000 BR BKN030 14/10 Q1027 NOSIG
ZHCC,2021-11-01 16:00,ZHCC 011600Z VRB01MPS 3000 BR BKN030 14/09 Q1027 NOSIG
ZHCC,2021-11-01 17:00,ZHCC 011700Z VRB01MPS 3000 BR BKN030 13/10 Q1027 NOSIG
ZHCC,2021-11-01 18:00,ZHCC 011800Z VRB01MPS 3000 BR BKN030 13/10 Q1027 NOSIG
ZHCC,2021-11-01 19:00,ZHCC 011900Z VRB01MPS 3000 BR BKN030 14/09 Q1026 NOSIG
ZHCC,2021-11-01 20:00,ZHCC 012000Z 08003MPS 3000 BR BKN030 13/09 Q1025 NOSIG
ZHCC,2021-11-01 21:00,ZHCC 012100Z 09002MPS 3000 BR BKN030 13/10 Q1025 NOSIG
ZHCC,2021-11-01 22:00,ZHCC 012200Z VRB01MPS 3000 BR BKN030 12/09 Q1025 BECMG TL2320 2500
ZHCC,2021-11-01 23:00,ZHCC 012300Z 05002MPS 2000 BR BKN030 13/10 Q1025 NOSIG
ZHCC,2021-11-02 00:00,ZHCC 020000Z VRB01MPS 1700 BR BKN030 13/10 Q1025 NOSIG
ZHCC,2021-11-02 01:00,ZHCC 020100Z VRB01MPS 1700 BR BKN030 14/10 Q1025 NOSIG
ZHCC,2021-11-02 02:00,ZHCC 020200Z VRB01MPS 1700 BR BKN030 14/10 Q1025 NOSIG
ZHCC,2021-11-02 03:00,ZHCC 020300Z VRB01MPS 1800 BR BKN030 15/11 Q1025 NOSIG
ZHCC,2021-11-02 04:00,ZHCC 020400Z 23002MPS 190V270 1800 BR BKN030 15/11 Q1025 NOSIG
ZHCC,2021-11-02 05:00,ZHCC 020500Z 20002MPS 180V250 1800 HZ OVC030 16/11 Q1024 NOSIG
ZHCC,2021-11-02 06:00,ZHCC 020600Z VRB01MPS 2000 HZ BKN030 17/11 Q1022 NOSIG
ZHCC,2021-11-02 07:00,ZHCC 020700Z VRB02MPS 2000 HZ BKN030 18/11 Q1022 NOSIG
ZHCC,2021-11-02 08:00,ZHCC 020800Z VRB01MPS 2000 HZ BKN030 18/11 Q1022 BECMG TL0940 3000
ZHCC,2021-11-02 09:00,ZHCC 020900Z VRB01MPS 2000 HZ BKN030 16/12 Q1021 BECMG TL1000 3000
ZHCC,2021-11-02 10:00,ZHCC 021000Z VRB01MPS 3000 BR BKN030 14/11 Q1021 NOSIG
ZHCC,2021-11-02 11:00,ZHCC 021100Z VRB01MPS 3000 BR BKN030 13/12 Q1022 NOSIG
ZHCC,2021-11-02 12:00,ZHCC 021200Z 00000MPS 3000 BR BKN030 12/11 Q1022 BECMG TL1320 2000
ZHCC,2021-11-02 13:00,ZHCC 021300Z 22001MPS 2000 BR BKN030 12/11 Q1022 NOSIG
ZHCC,2021-11-02 14:00,ZHCC 021400Z VRB01MPS 2000 BR BKN030 13/12 Q1023 NOSIG
ZHCC,2021-11-02 15:00,ZHCC 021500Z 20002MPS 160V230 2500 BR BKN030 14/12 Q1023 NOSIG
ZHCC,2021-11-02 16:00,ZHCC 021600Z 21001MPS 2500 BR BKN030 12/11 Q1023 NOSIG
ZHCC,2021-11-02 17:00,ZHCC 021700Z 25001MPS 2500 BR SCT030 13/10 Q1022 NOSIG
ZHCC,2021-11-02 18:00,ZHCC 021800Z 24002MPS 210V290 2500 BR FEW030 12/09 Q1022 NOSIG
ZHCC,2021-11-02 19:00,ZHCC 021900Z 21001MPS 2500 BR FEW030 10/09 Q1021 NOSIG
ZHCC,2021-11-02 20:00,ZHCC 022000Z 27002MPS 3000 BR FEW030 08/07 Q1021 NOSIG
ZHCC,2021-11-02 21:00,ZHCC 022100Z VRB01MPS 3000 BR FEW030 09/08 Q1021 NOSIG
ZHCC,2021-11-02 22:00,ZHCC 022200Z 24001MPS 3000 BR FEW030 08/08 Q1020 BECMG TL2320 2000
ZHCC,2021-11-02 23:00,ZHCC 022300Z VRB01MPS 2500 BR NSC 10/08 Q1021 BECMG TL0040 3000
ZHCC,2021-11-03 00:00,ZHCC 030000Z VRB01MPS 2500 BR NSC 13/10 Q1021 BECMG TL0140 3000
ZHCC,2021-11-03 01:00,ZHCC 030100Z 26002MPS 2500 HZ NSC 15/10 Q1022 BECMG TL0140 3000
ZHCC,2021-11-03 02:00,ZHCC 030200Z 25002MPS 210V300 4000 HZ NSC 17/08 Q1022 NOSIG
ZHCC,2021-11-03 03:00,ZHCC 030300Z VRB01MPS 4000 HZ NSC 18/10 Q1021 NOSIG
ZHCC,2021-11-03 04:00,ZHCC 030400Z 23002MPS 190V320 5000 HZ NSC 19/07 Q1020 NOSIG
ZHCC,2021-11-03 05:00,ZHCC 030500Z 24003MPS 210V290 7000 NSC 20/07 Q1019 NOSIG
ZHCC,2021-11-03 06:00,ZHCC 030600Z 23002MPS 170V300 5000 HZ NSC 21/08 Q1018 NOSIG
ZHCC,2021-11-03 07:00,ZHCC 030700Z 18002MPS 110V260 5000 HZ NSC 21/07 Q1018 NOSIG
ZHCC,2021-11-03 08:00,ZHCC 030800Z VRB02MPS 7000 NSC 21/07 Q1018 NOSIG
ZHCC,2021-11-03 09:00,ZHCC 030900Z VRB01MPS 7000 NSC 19/07 Q1017 NOSIG
ZHCC,2021-11-03 10:00,ZHCC 031000Z 00000MPS 8000 NSC 14/08 Q1017 NOSIG
ZHCC,2021-11-03 11:00,ZHCC 031100Z 00000MPS 8000 NSC 12/09 Q1018 NOSIG
ZHCC,2021-11-03 12:00,ZHCC 031200Z 00000MPS 8000 NSC 11/08 Q1018 NOSIG
ZHCC,2021-11-03 13:00,ZHCC 031300Z 29001MPS 6000 NSC 11/08 Q1018 NOSIG
ZHCC,2021-11-03 14:00,ZHCC 031400Z 00000MPS 6000 NSC 10/08 Q1018 NOSIG
ZHCC,2021-11-03 15:00,ZHCC 031500Z VRB01MPS 6000 NSC 10/09 Q1018 NOSIG
ZHCC,2021-11-03 16:00,ZHCC 031600Z 00000MPS 5000 BR NSC 09/07 Q1018 NOSIG
ZHCC,2021-11-03 17:00,ZHCC 031700Z 00000MPS 5000 BR NSC 09/07 Q1018 NOSIG
ZHCC,2021-11-03 18:00,ZHCC 031800Z 00000MPS 5000 BR NSC 09/07 Q1018 NOSIG
ZHCC,2021-11-03 19:00,ZHCC 031900Z 00000MPS 5000 BR NSC 09/08 Q1017 NOSIG
ZHCC,2021-11-03 20:00,ZHCC 032000Z 00000MPS 5000 BR NSC 08/07 Q1017 NOSIG
ZHCC,2021-11-03 21:00,ZHCC 032100Z 00000MPS 4000 BR NSC 08/07 Q1016 NOSIG
ZHCC,2021-11-03 22:00,ZHCC 032200Z 00000MPS 4000 BR NSC 08/07 Q1016 NOSIG
ZHCC,2021-11-03 23:00,ZHCC 032300Z VRB01MPS 2500 BR NSC 08/08 Q1016 BECMG TL0040 3000
ZHCC,2021-11-04 00:00,ZHCC 040000Z VRB01MPS 2500 BR NSC 12/10 Q1017 BECMG TL0140 3000
ZHCC,2021-11-04 01:00,ZHCC 040100Z 19002MPS 150V230 2500 BR NSC 15/10 Q1018 NOSIG
ZHCC,2021-11-04 02:00,ZHCC 040200Z 19002MPS 160V220 2500 HZ NSC 16/10 Q1018 BECMG TL0340 3000
ZHCC,2021-11-04 03:00,ZHCC 040300Z 18003MPS 140V220 2500 HZ NSC 18/11 Q1017 NOSIG
ZHCC,2021-11-04 04:00,ZHCC 040400Z 18003MPS 110V260 3000 HZ NSC 20/12 Q1017 NOSIG
ZHCC,2021-11-04 05:00,ZHCC 040500Z 18003MPS 100V230 3000 HZ NSC 20/12 Q1015 NOSIG
ZHCC,2021-11-04 06:00,ZHCC 040600Z 19003MPS 120V240 4000 HZ NSC 21/11 Q1015 NOSIG
ZHCC,2021-11-04 07:00,ZHCC 040700Z 18003MPS 140V210 4000 HZ NSC 20/11 Q1014 NOSIG
ZHCC,2021-11-04 08:00,ZHCC 040800Z 14002MPS 080V210 4000 HZ NSC 20/11 Q1014 NOSIG
ZHCC,2021-11-04 09:00,ZHCC 040900Z 12002MPS 5000 HZ NSC 19/11 Q1014 NOSIG
ZHCC,2021-11-04 10:00,ZHCC 041000Z 13001MPS 6000 NSC 17/11 Q1014 NOSIG
ZHCC,2021-11-04 11:00,ZHCC 041100Z VRB01MPS 6000 NSC 17/11 Q1015 NOSIG
ZHCC,2021-11-04 12:00,ZHCC 041200Z VRB01MPS 5000 HZ NSC 17/12 Q1015 NOSIG
ZHCC,2021-11-04 13:00,ZHCC 041300Z VRB01MPS 5000 HZ NSC 17/12 Q1015 NOSIG
ZHCC,2021-11-04 14:00,ZHCC 041400Z VRB01MPS 5000 BR NSC 16/12 Q1016 NOSIG
ZHCC,2021-11-04 15:00,ZHCC 041500Z 12001MPS 4000 BR NSC 16/12 Q1015 NOSIG
ZHCC,2021-11-04 16:00,ZHCC 041600Z VRB01MPS 4000 BR NSC 15/12 Q1015 NOSIG
ZHCC,2021-11-04 17:00,ZHCC 041700Z 12001MPS 4000 BR NSC 15/12 Q1015 NOSIG
ZHCC,2021-11-04 18:00,ZHCC 041800Z 10002MPS 4000 BR NSC 15/12 Q1014 NOSIG
ZHCC,2021-11-04 19:00,ZHCC 041900Z 10001MPS 4000 BR NSC 15/12 Q1014 NOSIG
ZHCC,2021-11-04 20:00,ZHCC 042000Z 04002MPS 4000 BR NSC 15/12 Q1014 NOSIG
ZHCC,2021-11-04 21:00,ZHCC 042100Z VRB01MPS 4000 BR NSC 15/12 Q1014 BECMG TL2240 2500
ZHCC,2021-11-04 22:00,ZHCC 042200Z 06003MPS 4000 BR NSC 15/12 Q1014 BECMG TL2240 2500
ZHCC,2021-11-04 23:00,ZHCC 042300Z 11002MPS 080V140 2500 BR NSC 15/11 Q1014 NOSIG
ZHCC,2021-11-05 00:00,ZHCC 050000Z 12001MPS 2000 BR NSC 15/12 Q1015 NOSIG
ZHCC,2021-11-05 01:00,ZHCC 050100Z 11001MPS 2000 BR NSC 15/12 Q1015 NOSIG
ZHCC,2021-11-05 02:00,ZHCC 050200Z VRB01MPS 2000 BR NSC 16/12 Q1015 NOSIG
ZHCC,2021-11-05 03:00,ZHCC 050300Z 13002MPS 090V160 2500 HZ NSC 17/12 Q1014 BECMG TL0440 3000
ZHCC,2021-11-05 04:00,ZHCC 050400Z 08002MPS 050V150 2800 HZ NSC 19/12 Q1013 BECMG TL0520 3000
ZHCC,2021-11-05 05:00,ZHCC 050500Z 13002MPS 070V170 3000 HZ NSC 19/12 Q1013 NOSIG
ZHCC,2021-11-05 06:00,ZHCC 050600Z 03003MPS 350V100 4000 HZ NSC 20/12 Q1012 NOSIG
ZHCC,2021-11-05 07:00,ZHCC 050700Z 04004MPS 010V080 3000 HZ NSC 20/13 Q1012 BECMG TL0840 2000
ZHCC,2021-11-05 08:00,ZHCC 050800Z 05004MPS 2800 HZ NSC 19/12 Q1012 BECMG TL0940 3000
ZHCC,2021-11-05 09:00,ZHCC 050900Z 03003MPS 360V070 2500 HZ NSC 19/13 Q1012 BECMG TL1020 3000
ZHCC,2021-11-05 10:00,ZHCC 051000Z VRB02MPS 3000 HZ NSC 18/13 Q1013 NOSIG
ZHCC,2021-11-05 11:00,ZHCC 051100Z 03002MPS 3000 HZ NSC 18/13 Q1014 NOSIG
ZHCC,2021-11-05 12:00,ZHCC 051200Z 03003MPS 360V060 3000 HZ NSC 18/13 Q1014 NOSIG
ZHCC,2021-11-05 13:00,ZHCC 051300Z 03003MPS 360V060 3000 BR BKN040 17/13 Q1014 NOSIG
ZHCC,2021-11-05 14:00,ZHCC 051400Z 36003MPS 340V040 3000 BR BKN040 16/13 Q1015 BECMG TL1540 2000
ZHCC,2021-11-05 15:00,ZHCC 051500Z 03004MPS 360V060 2500 BR BKN040 16/13 Q1015 NOSIG
ZHCC,2021-11-05 16:00,ZHCC 051600Z 01004MPS 2500 BR BKN040 15/12 Q1016 NOSIG
ZHCC,2021-11-05 17:00,ZHCC 051700Z 01004MPS 2500 BR BKN040 15/12 Q1016 NOSIG
ZHCC,2021-11-05 18:00,ZHCC 051800Z 03003MPS 350V050 2000 BR BKN040 15/12 Q1016 NOSIG
ZHCC,2021-11-05 19:00,ZHCC 051900Z 36002MPS 330V030 2000 BR BKN030 15/12 Q1016 NOSIG
ZHCC,2021-11-05 20:00,ZHCC 052000Z 01003MPS 2000 BR BKN030 15/12 Q1016 NOSIG
ZHCC,2021-11-05 21:00,ZHCC 052100Z 01003MPS 340V040 2000 BR BKN030 15/12 Q1016 NOSIG
ZHCC,2021-11-05 22:00,ZHCC 052200Z 02002MPS 350V050 2000 BR BKN030 15/12 Q1017 NOSIG
ZHCC,2021-11-05 23:00,ZHCC 052300Z 02003MPS 1200 R30L/1700U R30R/P2000 BR BKN030 15/12 Q1017 BECMG TL0040 1500
ZHCC,2021-11-06 00:00,ZHCC 060000Z 01003MPS 1200 R30L/1600D R30R/1700N BR BKN040 15/12 Q1017 BECMG TL0140 1500
ZHCC,2021-11-06 01:00,ZHCC 060100Z 35004MPS 330V030 1500 R30L/1600N R30R/1400N HZ NSC 17/13 Q1018 NOSIG
ZHCC,2021-11-06 02:00,ZHCC 060200Z 06004MPS 1500 HZ NSC 17/13 Q1018 NOSIG
ZHCC,2021-11-06 03:00,ZHCC 060300Z 05003MPS 360V080 1500 HZ BKN043 17/13 Q1018 NOSIG
ZHCC,2021-11-06 04:00,ZHCC 060400Z 05003MPS 350V090 2000 HZ BKN040 18/13 Q1018 NOSIG
ZHCC,2021-11-06 05:00,ZHCC 060500Z 05002MPS 350V080 2500 HZ BKN040 18/13 Q1017 BECMG TL0640 3000
ZHCC,2021-11-06 06:00,ZHCC 060600Z 11002MPS 060V140 2800 HZ BKN040 18/13 Q1017 BECMG TL0640 3000
ZHCC,2021-11-06 07:00,ZHCC 060700Z 07002MPS 020V120 3000 HZ BKN040 18/13 Q1017 BECMG TL0840 2000
ZHCC,2021-11-06 08:00,ZHCC 060800Z 33003MPS 280V030 2500 HZ BKN040 18/13 Q1017 BECMG TL0940 3000
ZHCC,2021-11-06 09:00,ZHCC 060900Z 32004MPS 2000 BR BKN040 17/13 Q1018 BECMG TL1000 3000
ZHCC,2021-11-06 10:00,ZHCC 061000Z 31007MPS 7000 BKN023 15/10 Q1019 NOSIG
ZHCC,2021-11-06 11:00,ZHCC 061100Z 30009MPS 9999 OVC030 14/07 Q1020 NOSIG
ZHCC,2021-11-06 12:00,ZHCC 061200Z 30008MPS 9999 OVC033 12/05 Q1020 NOSIG
ZHCC,2021-11-06 13:00,ZHCC 061300Z 29010MPS 9999 OVC033 11/04 Q1021 NOSIG
ZHCC,2021-11-06 14:00,ZHCC 061400Z 29010G15MPS 9999 OVC033 11/02 Q1022 NOSIG
ZHCC,2021-11-06 15:00,ZHCC 061500Z 29014G22MPS 9999 OVC033 10/00 Q1022 NOSIG
ZHCC,2021-11-06 16:00,ZHCC 061600Z 29014G20MPS 9999 OVC040 09/M00 Q1022 NOSIG
ZHCC,2021-11-06 17:00,ZHCC 061700Z 30014G22MPS 9999 OVC046 08/M01 Q1022 NOSIG
ZHCC,2021-11-06 18:00,ZHCC 061800Z 30013G18MPS 9999 OVC046 06/00 Q1023 NOSIG
ZHCC,2021-11-06 19:00,ZHCC 061900Z 31013G21MPS 280V340 9999 -RA SCT016 OVC046 04/02 Q1025 NOSIG
ZHCC,2021-11-06 20:00,ZHCC 062000Z 31012G18MPS 8000 RA SCT014 OVC046 02/01 Q1026 NOSIG
ZHCC,2021-11-06 21:00,ZHCC 062100Z 30011G16MPS 6000 -RASN SCT014 OVC030 02/01 Q1027 RERA NOSIG
ZHCC,2021-11-06 22:00,ZHCC 062200Z 30012G18MPS 3000 -RASN BR SCT014 OVC030 01/00 Q1028 NOSIG
ZHCC,2021-11-06 23:00,ZHCC 062300Z 30011G17MPS 1800 -RASN BR SCT012 OVC030 01/00 Q1029 BECMG TL0040 3000
ZHCC,2021-11-07 00:00,ZHCC 070000Z 30010G15MPS 0800 R30L/0800V1000U R30R/0800V0900N SN FG SCT011 OVC020 01/00 Q1030 BECMG TL0120 1500 -SN
ZHCC,2021-11-07 01:00,ZHCC 070100Z 30009MPS 270V330 6000 -SN OVC030 02/M01 Q1030 RESN NOSIG
ZHCC,2021-11-07 02:00,ZHCC 070200Z 31009MPS 9999 OVC040 04/M02 Q1030 NOSIG
ZHCC,2021-11-07 03:00,ZHCC 070300Z 31011G17MPS 280V340 9999 OVC040 05/M03 Q1030 NOSIG
ZHCC,2021-11-07 04:00,ZHCC 070400Z 30009G15MPS 9999 OVC046 06/M04 Q1030 NOSIG
ZHCC,2021-11-07 05:00,ZHCC 070500Z 31012G17MPS CAVOK 08/M05 Q1028 NOSIG
ZHCC,2021-11-07 06:00,ZHCC 070600Z 31010G15MPS CAVOK 07/M08 Q1028 NOSIG
ZHCC,2021-11-07 07:00,ZHCC 070700Z 30011G17MPS 260V330 CAVOK 07/M09 Q1028 NOSIG
ZHCC,2021-11-07 08:00,ZHCC 070800Z 29011G17MPS CAVOK 06/M10 Q1028 NOSIG
ZHCC,2021-11-07 09:00,ZHCC 070900Z 30010G17MPS CAVOK 06/M11 Q1028 WS ALL RWY NOSIG
ZHCC,2021-11-07 10:00,ZHCC 071000Z 31011G18MPS 270V330 CAVOK 06/M10 Q1028 NOSIG
ZHCC,2021-11-07 11:00,ZHCC 071100Z 31011G17MPS CAVOK 05/M11 Q1029 NOSIG
ZHCC,2021-11-07 12:00,ZHCC 071200Z 31012G18MPS CAVOK 05/M12 Q1030 NOSIG
ZHCC,2021-11-07 13:00,ZHCC 071300Z 30007G12MPS CAVOK 04/M12 Q1031 NOSIG
ZHCC,2021-11-07 14:00,ZHCC 071400Z 30007MPS CAVOK 04/M12 Q1031 NOSIG
ZHCC,2021-11-07 15:00,ZHCC 071500Z 30008MPS CAVOK 03/M11 Q1031 NOSIG
ZHCC,2021-11-07 16:00,ZHCC 071600Z 30006G11MPS CAVOK 03/M11 Q1031 NOSIG
ZHCC,2021-11-07 17:00,ZHCC 071700Z 30008MPS CAVOK 03/M12 Q1030 NOSIG
ZHCC,2021-11-07 18:00,ZHCC 071800Z 28004MPS CAVOK 03/M11 Q1030 NOSIG
ZHCC,2021-11-07 19:00,ZHCC 071900Z 28006MPS CAVOK 02/M11 Q1029 NOSIG
ZHCC,2021-11-07 20:00,ZHCC 072000Z 29006MPS CAVOK 02/M10 Q1029 NOSIG
ZHCC,2021-11-07 21:00,ZHCC 072100Z 29004MPS CAVOK 01/M09 Q1028 NOSIG
ZHCC,2021-11-07 22:00,ZHCC 072200Z 29005MPS CAVOK 01/M09 Q1028 NOSIG
ZHCC,2021-11-07 23:00,ZHCC 072300Z 29008MPS CAVOK 02/M10 Q1028 NOSIG
ZHCC,2021-11-08 00:00,ZHCC 080000Z 30007G12MPS CAVOK 04/M10 Q1028 NOSIG
ZHCC,2021-11-08 01:00,ZHCC 080100Z 30008G14MPS CAVOK 06/M12 Q1029 NOSIG
ZHCC,2021-11-08 02:00,ZHCC 080200Z 29010MPS CAVOK 07/M10 Q1029 NOSIG
ZHCC,2021-11-08 03:00,ZHCC 080300Z 30009MPS 280V340 CAVOK 08/M10 Q1028 NOSIG
ZHCC,2021-11-08 04:00,ZHCC 080400Z 30007G14MPS 260V330 CAVOK 10/M10 Q1027 NOSIG
ZHCC,2021-11-08 05:00,ZHCC 080500Z 29008MPS 260V330 CAVOK 11/M09 Q1026 NOSIG
ZHCC,2021-11-08 06:00,ZHCC 080600Z 30008MPS 270V330 CAVOK 11/M10 Q1025 NOSIG
ZHCC,2021-11-08 07:00,ZHCC 080700Z 30008MPS CAVOK 11/M10 Q1025 NOSIG
ZHCC,2021-11-08 08:00,ZHCC 080800Z 30007MPS CAVOK 11/M10 Q1025 NOSIG
ZHCC,2021-11-08 09:00,ZHCC 080900Z 28006MPS CAVOK 10/M10 Q1024 NOSIG
ZHCC,2021-11-08 10:00,ZHCC 081000Z 28004MPS CAVOK 09/M08 Q1025 NOSIG
ZHCC,2021-11-08 11:00,ZHCC 081100Z 28006MPS CAVOK 08/M08 Q1025 NOSIG
ZHCC,2021-11-08 12:00,ZHCC 081200Z 27004MPS CAVOK 07/M07 Q1025 NOSIG
ZHCC,2021-11-08 13:00,ZHCC 081300Z 28005MPS 250V320 CAVOK 08/M08 Q1025 NOSIG
ZHCC,2021-11-08 14:00,ZHCC 081400Z 30006MPS CAVOK 08/M09 Q1026 NOSIG
ZHCC,2021-11-08 15:00,ZHCC 081500Z 30007MPS CAVOK 07/M09 Q1025 NOSIG
ZHCC,2021-11-08 16:00,ZHCC 081600Z 31008MPS CAVOK 07/M09 Q1025 NOSIG
ZHCC,2021-11-08 17:00,ZHCC 081700Z 30008MPS CAVOK 07/M09 Q1025 NOSIG
ZHCC,2021-11-08 18:00,ZHCC 081800Z 29006MPS CAVOK 07/M09 Q1025 NOSIG
ZHCC,2021-11-08 19:00,ZHCC 081900Z 30008MPS CAVOK 07/M10 Q1025 NOSIG
ZHCC,2021-11-08 20:00,ZHCC 082000Z 30006G11MPS CAVOK 06/M09 Q1025 NOSIG
ZHCC,2021-11-08 21:00,ZHCC 082100Z 27004MPS CAVOK 05/M08 Q1024 NOSIG
ZHCC,2021-11-08 22:00,ZHCC 082200Z 29007MPS CAVOK 06/M08 Q1024 NOSIG
ZHCC,2021-11-08 23:00,ZHCC 082300Z 29005MPS CAVOK 05/M07 Q1024 NOSIG
ZHCC,2021-11-09 00:00,ZHCC 090000Z 28005MPS CAVOK 07/M07 Q1025 NOSIG
ZHCC,2021-11-09 01:00,ZHCC 090100Z 28005MPS CAVOK 09/M07 Q1025 NOSIG
ZHCC,2021-11-09 02:00,ZHCC 090200Z 29009MPS CAVOK 12/M08 Q1024 NOSIG
ZHCC,2021-11-09 03:00,ZHCC 090300Z 30009MPS CAVOK 12/M08 Q1024 NOSIG
ZHCC,2021-11-09 04:00,ZHCC 090400Z 29010MPS CAVOK 13/M08 Q1023 NOSIG
ZHCC,2021-11-09 05:00,ZHCC 090500Z 27008MPS CAVOK 13/M07 Q1021 NOSIG
ZHCC,2021-11-09 06:00,ZHCC 090600Z 29009G14MPS CAVOK 14/M09 Q1020 NOSIG
ZHCC,2021-11-09 07:00,ZHCC 090700Z 28009G15MPS CAVOK 14/M10 Q1020 NOSIG
ZHCC,2021-11-09 08:00,ZHCC 090800Z 29009MPS 260V320 CAVOK 14/M09 Q1019 NOSIG
ZHCC,2021-11-09 09:00,ZHCC 090900Z 29008MPS CAVOK 13/M08 Q1019 NOSIG
ZHCC,2021-11-09 10:00,ZHCC 091000Z 28006MPS CAVOK 11/M07 Q1020 NOSIG
ZHCC,2021-11-09 11:00,ZHCC 091100Z 27006MPS CAVOK 11/M07 Q1020 NOSIG
ZHCC,2021-11-09 12:00,ZHCC 091200Z 28005MPS CAVOK 10/M07 Q1020 NOSIG
ZHCC,2021-11-09 13:00,ZHCC 091300Z 29006MPS CAVOK 11/M07 Q1021 NOSIG
ZHCC,2021-11-09 14:00,ZHCC 091400Z 30007MPS CAVOK 10/M07 Q1021 NOSIG
ZHCC,2021-11-09 15:00,ZHCC 091500Z 29007MPS CAVOK 11/M08 Q1020 NOSIG
ZHCC,2021-11-09 16:00,ZHCC 091600Z 30007MPS CAVOK 10/M07 Q1020 NOSIG
ZHCC,2021-11-09 17:00,ZHCC 091700Z 31008MPS CAVOK 10/M07 Q1020 NOSIG
ZHCC,2021-11-09 18:00,ZHCC 091800Z 30006G12MPS CAVOK 10/M07 Q1020 NOSIG
ZHCC,2021-11-09 19:00,ZHCC 091900Z 30005MPS CAVOK 09/M07 Q1019 NOSIG
ZHCC,2021-11-09 20:00,ZHCC 092000Z 30006MPS CAVOK 09/M07 Q1019 NOSIG
ZHCC,2021-11-09 21:00,ZHCC 092100Z 30005MPS CAVOK 09/M06 Q1019 NOSIG
ZHCC,2021-11-09 22:00,ZHCC 092200Z 29004MPS CAVOK 09/M06 Q1019 NOSIG
ZHCC,2021-11-09 23:00,ZHCC 092300Z 28003MPS CAVOK 08/M06 Q1019 NOSIG
ZHCC,2021-11-10 00:00,ZHCC 100000Z 29004MPS CAVOK 10/M05 Q1020 NOSIG
ZHCC,2021-11-10 01:00,ZHCC 100100Z 30008G13MPS CAVOK 13/M06 Q1021 NOSIG
ZHCC,2021-11-10 02:00,ZHCC 100200Z 30009G15MPS CAVOK 14/M07 Q1021 NOSIG
ZHCC,2021-11-10 03:00,ZHCC 100300Z 31010MPS CAVOK 14/M07 Q1020 NOSIG
ZHCC,2021-11-10 04:00,ZHCC 100400Z 31008MPS 240V330 CAVOK 15/M05 Q1020 NOSIG
ZHCC,2021-11-10 05:00,ZHCC 100500Z 32006MPS CAVOK 16/M06 Q1019 NOSIG
ZHCC,2021-11-10 06:00,ZHCC 100600Z 30005MPS 270V330 CAVOK 16/M06 Q1019 NOSIG
ZHCC,2021-11-10 07:00,ZHCC 100700Z 31006MPS CAVOK 17/M05 Q1019 NOSIG
ZHCC,2021-11-10 08:00,ZHCC 100800Z 30004MPS 270V330 CAVOK 17/M06 Q1018 NOSIG
ZHCC,2021-11-10 09:00,ZHCC 100900Z 28004MPS CAVOK 15/M06 Q1018 NOSIG
ZHCC,2021-11-10 10:00,ZHCC 101000Z 25001MPS CAVOK 11/M01 Q1019 NOSIG
ZHCC,2021-11-10 11:00,ZHCC 101100Z 25002MPS CAVOK 10/M02 Q1019 NOSIG
ZHCC,2021-11-10 12:00,ZHCC 101200Z 25002MPS CAVOK 08/M01 Q1019 NOSIG
ZHCC,2021-11-10 13:00,ZHCC 101300Z 27003MPS CAVOK 08/M02 Q1020 NOSIG
ZHCC,2021-11-10 14:00,ZHCC 101400Z 27004MPS CAVOK 10/M03 Q1020 NOSIG
ZHCC,2021-11-10 15:00,ZHCC 101500Z 28004MPS CAVOK 11/M03 Q1020 NOSIG
ZHCC,2021-11-10 16:00,ZHCC 101600Z 29004MPS CAVOK 11/M04 Q1021 NOSIG
ZHCC,2021-11-10 17:00,ZHCC 101700Z 30006MPS CAVOK 12/M04 Q1021 NOSIG
ZHCC,2021-11-10 18:00,ZHCC 101800Z 31007MPS CAVOK 12/M04 Q1021 NOSIG
ZHCC,2021-11-10 19:00,ZHCC 101900Z 31006MPS CAVOK 11/M04 Q1021 NOSIG
ZHCC,2021-11-10 20:00,ZHCC 102000Z 31005MPS CAVOK 11/M04 Q1021 NOSIG
ZHCC,2021-11-10 21:00,ZHCC 102100Z 31005MPS CAVOK 11/M04 Q1021 NOSIG
ZHCC,2021-11-10 22:00,ZHCC 102200Z 31005MPS CAVOK 10/M04 Q1022 NOSIG
ZHCC,2021-11-10 23:00,ZHCC 102300Z 31004MPS CAVOK 09/M03 Q1022 NOSIG
ZHCC,2021-11-11 00:00,ZHCC 110000Z 27002MPS 250V310 CAVOK 11/M02 Q1023 NOSIG
ZHCC,2021-11-11 01:00,ZHCC 110100Z 31004MPS CAVOK 13/M03 Q1024 NOSIG
ZHCC,2021-11-11 02:00,ZHCC 110200Z 32004G10MPS 300V010 CAVOK 15/M03 Q1024 NOSIG
ZHCC,2021-11-11 03:00,ZHCC 110300Z 33004MPS 300V360 CAVOK 17/M03 Q1024 NOSIG
ZHCC,2021-11-11 04:00,ZHCC 110400Z 31004MPS 250V360 CAVOK 18/M03 Q1022 NOSIG
ZHCC,2021-11-11 05:00,ZHCC 110500Z 29004MPS 260V320 CAVOK 17/M04 Q1021 NOSIG
ZHCC,2021-11-11 06:00,ZHCC 110600Z 30004MPS 270V350 CAVOK 18/M04 Q1021 NOSIG
ZHCC,2021-11-11 07:00,ZHCC 110700Z 27004MPS 230V320 CAVOK 18/M04 Q1021 NOSIG
ZHCC,2021-11-11 08:00,ZHCC 110800Z 30004MPS 270V330 CAVOK 17/M03 Q1021 NOSIG
ZHCC,2021-11-11 09:00,ZHCC 110900Z 28003MPS CAVOK 15/M02 Q1021 NOSIG
ZHCC,2021-11-11 10:00,ZHCC 111000Z VRB01MPS CAVOK 11/00 Q1021 NOSIG
ZHCC,2021-11-11 11:00,ZHCC 111100Z 23002MPS 200V280 CAVOK 13/M02 Q1022 NOSIG
ZHCC,2021-11-11 12:00,ZHCC 111200Z 25003MPS CAVOK 12/M03 Q1022 NOSIG
ZHCC,2021-11-11 13:00,ZHCC 111300Z 26004MPS CAVOK 11/M03 Q1023 NOSIG
ZHCC,2021-11-11 14:00,ZHCC 111400Z 27004MPS CAVOK 10/M03 Q1023 NOSIG
ZHCC,2021-11-11 15:00,ZHCC 111500Z 28004MPS CAVOK 09/M03 Q1023 NOSIG
ZHCC,2021-11-11 16:00,ZHCC 111600Z 28003MPS CAVOK 08/M03 Q1023 NOSIG
ZHCC,2021-11-11 17:00,ZHCC 111700Z 28004MPS CAVOK 09/M03 Q1023 NOSIG
ZHCC,2021-11-11 18:00,ZHCC 111800Z 29005MPS CAVOK 10/M04 Q1023 NOSIG
ZHCC,2021-11-11 19:00,ZHCC 111900Z 28004MPS CAVOK 10/M04 Q1023 NOSIG
ZHCC,2021-11-11 20:00,ZHCC 112000Z 28004MPS CAVOK 08/M04 Q1023 NOSIG
ZHCC,2021-11-11 21:00,ZHCC 112100Z 29004MPS CAVOK 07/M04 Q1023 NOSIG
ZHCC,2021-11-11 22:00,ZHCC 112200Z 28002MPS CAVOK 07/M04 Q1023 NOSIG
ZHCC,2021-11-11 23:00,ZHCC 112300Z 30003MPS CAVOK 06/M04 Q1024 NOSIG
ZHCC,2021-11-12 00:00,ZHCC 120000Z 27002MPS CAVOK 10/M03 Q1024 NOSIG
ZHCC,2021-11-12 01:00,ZHCC 120100Z 29006MPS 260V320 CAVOK 13/M04 Q1025 NOSIG
ZHCC,2021-11-12 02:00,ZHCC 120200Z 30007MPS CAVOK 14/M05 Q1025 NOSIG
ZHCC,2021-11-12 03:00,ZHCC 120300Z 30005MPS 250V330 CAVOK 16/M04 Q1024 NOSIG
ZHCC,2021-11-12 04:00,ZHCC 120400Z 32007MPS CAVOK 16/M06 Q1023 NOSIG
ZHCC,2021-11-12 05:00,ZHCC 120500Z 30006MPS 270V330 CAVOK 17/M06 Q1022 NOSIG
ZHCC,2021-11-12 06:00,ZHCC 120600Z 33004MPS 290V010 CAVOK 18/M06 Q1021 NOSIG
ZHCC,2021-11-12 07:00,ZHCC 120700Z 31004MPS 280V340 CAVOK 18/M06 Q1020 NOSIG
ZHCC,2021-11-12 08:00,ZHCC 120800Z 31004G09MPS 280V350 CAVOK 17/M05 Q1020 NOSIG
ZHCC,2021-11-12 09:00,ZHCC 120900Z 30003MPS CAVOK 15/M04 Q1020 NOSIG
ZHCC,2021-11-12 10:00,ZHCC 121000Z 25002MPS CAVOK 13/M04 Q1021 NOSIG
ZHCC,2021-11-12 11:00,ZHCC 121100Z 26002MPS CAVOK 12/M04 Q1021 NOSIG
ZHCC,2021-11-12 12:00,ZHCC 121200Z 25002MPS 220V280 CAVOK 12/M04 Q1021 NOSIG
ZHCC,2021-11-12 13:00,ZHCC 121300Z 26003MPS CAVOK 11/M05 Q1021 NOSIG
ZHCC,2021-11-12 14:00,ZHCC 121400Z 26003MPS CAVOK 10/M05 Q1022 NOSIG
ZHCC,2021-11-12 15:00,ZHCC 121500Z 27003MPS CAVOK 08/M05 Q1021 NOSIG
ZHCC,2021-11-12 16:00,ZHCC 121600Z 26002MPS CAVOK 08/M05 Q1021 NOSIG
ZHCC,2021-11-12 17:00,ZHCC 121700Z 25002MPS CAVOK 08/M05 Q1021 NOSIG
ZHCC,2021-11-12 18:00,ZHCC 121800Z 25003MPS 220V280 CAVOK 09/M05 Q1020 NOSIG
ZHCC,2021-11-12 19:00,ZHCC 121900Z 26003MPS CAVOK 08/M05 Q1020 NOSIG
ZHCC,2021-11-12 20:00,ZHCC 122000Z 26002MPS CAVOK 08/M06 Q1019 NOSIG
ZHCC,2021-11-12 21:00,ZHCC 122100Z 25002MPS CAVOK 07/M05 Q1019 NOSIG
ZHCC,2021-11-12 22:00,ZHCC 122200Z 25003MPS CAVOK 07/M06 Q1018 NOSIG
ZHCC,2021-11-12 23:00,ZHCC 122300Z 22002MPS CAVOK 05/M05 Q1018 NOSIG
ZHCC,2021-11-13 00:00,ZHCC 130000Z VRB01MPS CAVOK 08/M03 Q1019 NOSIG
ZHCC,2021-11-13 01:00,ZHCC 130100Z 27005MPS CAVOK 14/M06 Q1019 NOSIG
ZHCC,2021-11-13 02:00,ZHCC 130200Z 26004MPS 230V300 CAVOK 16/M05 Q1019 NOSIG
ZHCC,2021-11-13 03:00,ZHCC 130300Z 28008MPS CAVOK 18/M09 Q1019 NOSIG
ZHCC,2021-11-13 04:00,ZHCC 130400Z 31007G14MPS 270V340 CAVOK 20/M08 Q1018 NOSIG
ZHCC,2021-11-13 05:00,ZHCC 130500Z 29006MPS 240V320 CAVOK 21/M10 Q1017 NOSIG
ZHCC,2021-11-13 06:00,ZHCC 130600Z 29007MPS 250V320 CAVOK 21/M10 Q1016 NOSIG
ZHCC,2021-11-13 07:00,ZHCC 130700Z 30006MPS CAVOK 20/M09 Q1016 NOSIG
ZHCC,2021-11-13 08:00,ZHCC 130800Z 29005MPS CAVOK 20/M07 Q1016 NOSIG
ZHCC,2021-11-13 09:00,ZHCC 130900Z 29002MPS CAVOK 16/M04 Q1016 NOSIG
ZHCC,2021-11-13 10:00,ZHCC 131000Z 25002MPS CAVOK 15/M04 Q1016 NOSIG
ZHCC,2021-11-13 11:00,ZHCC 131100Z 25004MPS CAVOK 15/M06 Q1017 NOSIG
ZHCC,2021-11-13 12:00,ZHCC 131200Z 27003MPS CAVOK 13/M06 Q1018 NOSIG
ZHCC,2021-11-13 13:00,ZHCC 131300Z 27003MPS CAVOK 09/M04 Q1019 NOSIG
ZHCC,2021-11-13 14:00,ZHCC 131400Z 27001MPS CAVOK 10/M04 Q1019 NOSIG
ZHCC,2021-11-13 15:00,ZHCC 131500Z 24002MPS CAVOK 08/M04 Q1019 NOSIG
ZHCC,2021-11-13 16:00,ZHCC 131600Z 24002MPS CAVOK 07/M04 Q1019 NOSIG
ZHCC,2021-11-13 17:00,ZHCC 131700Z 28003MPS CAVOK 08/M05 Q1019 NOSIG
ZHCC,2021-11-13 18:00,ZHCC 131800Z 24003MPS CAVOK 10/M05 Q1019 NOSIG
ZHCC,2021-11-13 19:00,ZHCC 131900Z 28003MPS CAVOK 08/M05 Q1019 NOSIG
ZHCC,2021-11-13 20:00,ZHCC 132000Z 25003MPS CAVOK 10/M06 Q1019 NOSIG
ZHCC,2021-11-13 21:00,ZHCC 132100Z 29003MPS CAVOK 06/M06 Q1019 NOSIG
ZHCC,2021-11-13 22:00,ZHCC 132200Z 28003MPS CAVOK 09/M06 Q1019 NOSIG
ZHCC,2021-11-13 23:00,ZHCC 132300Z 29003MPS CAVOK 08/M07 Q1020 NOSIG
ZHCC,2021-11-14 00:00,ZHCC 140000Z 29003MPS CAVOK 11/M04 Q1020 NOSIG
ZHCC,2021-11-14 01:00,ZHCC 140100Z 27003MPS CAVOK 15/M05 Q1021 NOSIG
ZHCC,2021-11-14 02:00,ZHCC 140200Z 30004MPS CAVOK 18/M08 Q1021 NOSIG
ZHCC,2021-11-14 03:00,ZHCC 140300Z 30003MPS 270V330 CAVOK 19/M09 Q1021 NOSIG
ZHCC,2021-11-14 04:00,ZHCC 140400Z 27002MPS 210V340 CAVOK 20/M09 Q1020 NOSIG
ZHCC,2021-11-14 05:00,ZHCC 140500Z 28003MPS 240V330 CAVOK 20/M10 Q1018 NOSIG
ZHCC,2021-11-14 06:00,ZHCC 140600Z 25002MPS 200V340 CAVOK 21/M10 Q1018 NOSIG
ZHCC,2021-11-14 07:00,ZHCC 140700Z 21002MPS 160V300 CAVOK 21/M08 Q1017 NOSIG
ZHCC,2021-11-14 08:00,ZHCC 140800Z 19002MPS 140V240 CAVOK 20/M05 Q1017 NOSIG
ZHCC,2021-11-14 09:00,ZHCC 140900Z VRB01MPS CAVOK 18/M04 Q1017 NOSIG
ZHCC,2021-11-14 10:00,ZHCC 141000Z VRB01MPS CAVOK 13/M00 Q1017 NOSIG
ZHCC,2021-11-14 11:00,ZHCC 141100Z VRB01MPS CAVOK 12/M02 Q1018 NOSIG
ZHCC,2021-11-14 12:00,ZHCC 141200Z VRB01MPS CAVOK 13/M03 Q1019 NOSIG
ZHCC,2021-11-14 13:00,ZHCC 141300Z 21002MPS CAVOK 15/M04 Q1019 NOSIG
ZHCC,2021-11-14 14:00,ZHCC 141400Z VRB01MPS CAVOK 14/M01 Q1020 NOSIG
ZHCC,2021-11-14 15:00,ZHCC 141500Z 23002MPS 200V270 CAVOK 15/M03 Q1020 NOSIG
ZHCC,2021-11-14 16:00,ZHCC 141600Z 26003MPS CAVOK 14/M02 Q1020 NOSIG
ZHCC,2021-11-14 17:00,ZHCC 141700Z 26003MPS CAVOK 15/M02 Q1019 NOSIG
ZHCC,2021-11-14 18:00,ZHCC 141800Z 30003MPS CAVOK 14/M02 Q1019 NOSIG
ZHCC,2021-11-14 19:00,ZHCC 141900Z 32005MPS CAVOK 16/M03 Q1018 NOSIG
ZHCC,2021-11-14 20:00,ZHCC 142000Z 31004MPS CAVOK 16/M01 Q1018 NOSIG
ZHCC,2021-11-14 21:00,ZHCC 142100Z 28002MPS CAVOK 14/M01 Q1018 NOSIG
ZHCC,2021-11-14 22:00,ZHCC 142200Z 23003MPS CAVOK 13/M01 Q1019 NOSIG
ZHCC,2021-11-14 23:00,ZHCC 142300Z 22001MPS CAVOK 11/M00 Q1019 NOSIG
ZHCC,2021-11-15 00:00,ZHCC 150000Z 30001MPS CAVOK 10/03 Q1020 NOSIG
ZHCC,2021-11-15 01:00,ZHCC 150100Z 33003MPS CAVOK 16/M00 Q1021 NOSIG
ZHCC,2021-11-15 02:00,ZHCC 150200Z 36004MPS 330V030 CAVOK 18/M02 Q1021 NOSIG
ZHCC,2021-11-15 03:00,ZHCC 150300Z 01004MPS CAVOK 18/M02 Q1021 NOSIG
ZHCC,2021-11-15 04:00,ZHCC 150400Z 04004MPS 350V070 8000 NSC 18/M01 Q1020 NOSIG
ZHCC,2021-11-15 05:00,ZHCC 150500Z 04003MPS 340V070 8000 NSC 19/01 Q1019 NOSIG
ZHCC,2021-11-15 06:00,ZHCC 150600Z 04004MPS 7000 NSC 19/M02 Q1019 NOSIG
ZHCC,2021-11-15 07:00,ZHCC 150700Z 04002MPS 360V070 7000 NSC 18/M01 Q1018 NOSIG
ZHCC,2021-11-15 08:00,ZHCC 150800Z 05002MPS 7000 NSC 18/00 Q1019 NOSIG
ZHCC,2021-11-15 09:00,ZHCC 150900Z 05003MPS 5000 HZ NSC 16/01 Q1019 NOSIG
ZHCC,2021-11-15 10:00,ZHCC 151000Z 04003MPS 6000 NSC 15/02 Q1020 NOSIG
ZHCC,2021-11-15 11:00,ZHCC 151100Z 04004MPS 6000 NSC 14/03 Q1021 NOSIG
ZHCC,2021-11-15 12:00,ZHCC 151200Z 03004MPS 6000 NSC 13/03 Q1022 NOSIG
ZHCC,2021-11-15 13:00,ZHCC 151300Z 03003MPS 6000 NSC 13/03 Q1022 NOSIG
ZHCC,2021-11-15 14:00,ZHCC 151400Z 03004MPS 5000 HZ NSC 12/03 Q1023 NOSIG
ZHCC,2021-11-15 15:00,ZHCC 151500Z 02002MPS 350V080 5000 HZ NSC 11/04 Q1024 NOSIG
ZHCC,2021-11-15 16:00,ZHCC 151600Z 36003MPS 5000 HZ NSC 10/03 Q1024 NOSIG
ZHCC,2021-11-15 17:00,ZHCC 151700Z 35002MPS 300V020 5000 HZ NSC 10/03 Q1024 NOSIG
ZHCC,2021-11-15 18:00,ZHCC 151800Z 36003MPS 330V050 5000 HZ NSC 09/03 Q1024 NOSIG
ZHCC,2021-11-15 19:00,ZHCC 151900Z 36003MPS 5000 HZ NSC 09/03 Q1024 NOSIG
ZHCC,2021-11-15 20:00,ZHCC 152000Z 01004MPS 340V050 5000 HZ NSC 09/03 Q1024 NOSIG
ZHCC,2021-11-15 21:00,ZHCC 152100Z 01004G10MPS 5000 HZ NSC 09/04 Q1024 NOSIG
ZHCC,2021-11-15 22:00,ZHCC 152200Z 01003MPS 340V040 6000 NSC 08/04 Q1025 NOSIG
ZHCC,2021-11-15 23:00,ZHCC 152300Z 32002MPS 4000 BR NSC 05/03 Q1025 NOSIG
ZHCC,2021-11-16 00:00,ZHCC 160000Z 33002MPS 320V020 4000 BR NSC 07/05 Q1026 NOSIG
ZHCC,2021-11-16 01:00,ZHCC 160100Z 36004MPS 330V030 4000 HZ NSC 10/05 Q1027 NOSIG
ZHCC,2021-11-16 02:00,ZHCC 160200Z 01005MPS 340V040 5000 HZ NSC 12/05 Q1027 NOSIG
ZHCC,2021-11-16 03:00,ZHCC 160300Z 02005MPS 5000 HZ NSC 12/05 Q1027 NOSIG
ZHCC,2021-11-16 04:00,ZHCC 160400Z 01004MPS 340V050 5000 HZ NSC 14/05 Q1026 NOSIG
ZHCC,2021-11-16 05:00,ZHCC 160500Z 36003MPS 300V050 5000 HZ NSC 15/04 Q1025 NOSIG
ZHCC,2021-11-16 06:00,ZHCC 160600Z 03003MPS 350V060 5000 HZ NSC 15/03 Q1024 NOSIG
ZHCC,2021-11-16 07:00,ZHCC 160700Z 36002MPS 320V040 5000 HZ NSC 15/03 Q1024 NOSIG
ZHCC,2021-11-16 08:00,ZHCC 160800Z 03003MPS 5000 HZ NSC 15/04 Q1024 NOSIG
ZHCC,2021-11-16 09:00,ZHCC 160900Z 01002MPS 5000 HZ NSC 14/03 Q1024 NOSIG
ZHCC,2021-11-16 10:00,ZHCC 161000Z 03002MPS 7000 NSC 13/04 Q1024 NOSIG
ZHCC,2021-11-16 11:00,ZHCC 161100Z VRB01MPS 7000 NSC 09/04 Q1025 NOSIG
ZHCC,2021-11-16 12:00,ZHCC 161200Z 00000MPS 6000 NSC 10/04 Q1026 NOSIG
ZHCC,2021-11-16 13:00,ZHCC 161300Z 00000MPS 6000 NSC 08/05 Q1026 NOSIG
ZHCC,2021-11-16 14:00,ZHCC 161400Z 22001MPS 6000 NSC 09/05 Q1026 NOSIG
ZHCC,2021-11-16 15:00,ZHCC 161500Z VRB01MPS 6000 NSC 08/05 Q1026 NOSIG
ZHCC,2021-11-16 16:00,ZHCC 161600Z 00000MPS 6000 NSC 07/05 Q1026 NOSIG
ZHCC,2021-11-16 17:00,ZHCC 161700Z 00000MPS 5000 BR NSC 08/05 Q1025 NOSIG
ZHCC,2021-11-16 18:00,ZHCC 161800Z 25001MPS 5000 BR NSC 08/06 Q1025 NOSIG
ZHCC,2021-11-16 19:00,ZHCC 161900Z 30001MPS 5000 BR NSC 08/05 Q1025 NOSIG
ZHCC,2021-11-16 20:00,ZHCC 162000Z 00000MPS 5000 BR NSC 09/05 Q1024 NOSIG
ZHCC,2021-11-16 21:00,ZHCC 162100Z VRB01MPS 5000 BR NSC 08/05 Q1024 NOSIG
ZHCC,2021-11-16 22:00,ZHCC 162200Z VRB01MPS 5000 BR NSC 08/05 Q1023 NOSIG
ZHCC,2021-11-16 23:00,ZHCC 162300Z VRB01MPS 4000 BR NSC 07/05 Q1024 NOSIG
ZHCC,2021-11-17 00:00,ZHCC 170000Z VRB01MPS 3000 BR NSC 09/06 Q1024 NOSIG
ZHCC,2021-11-17 01:00,ZHCC 170100Z VRB01MPS 3000 HZ NSC 12/06 Q1024 NOSIG
ZHCC,2021-11-17 02:00,ZHCC 170200Z 24002MPS 210V290 3000 HZ NSC 15/04 Q1024 NOSIG
ZHCC,2021-11-17 03:00,ZHCC 170300Z 20002MPS 160V250 4000 HZ NSC 17/05 Q1023 NOSIG
ZHCC,2021-11-17 04:00,ZHCC 170400Z 20003MPS 150V230 4000 HZ NSC 17/06 Q1022 NOSIG
ZHCC,2021-11-17 05:00,ZHCC 170500Z 19003MPS 130V240 3500 HZ NSC 19/06 Q1021 NOSIG
ZHCC,2021-11-17 06:00,ZHCC 170600Z 18003MPS 150V230 3500 HZ NSC 19/06 Q1020 NOSIG
ZHCC,2021-11-17 07:00,ZHCC 170700Z 19002MPS 120V240 4000 HZ NSC 20/05 Q1020 NOSIG
ZHCC,2021-11-17 08:00,ZHCC 170800Z 20004MPS 170V230 5000 HZ NSC 20/04 Q1019 NOSIG
ZHCC,2021-11-17 09:00,ZHCC 170900Z 19002MPS 160V220 6000 NSC 18/03 Q1019 NOSIG
ZHCC,2021-11-17 10:00,ZHCC 171000Z 19002MPS 160V220 6000 NSC 16/04 Q1019 NOSIG
ZHCC,2021-11-17 11:00,ZHCC 171100Z 20003MPS 170V240 7000 NSC 16/05 Q1019 NOSIG
ZHCC,2021-11-17 12:00,ZHCC 171200Z 19002MPS 160V260 7000 NSC 15/05 Q1019 NOSIG
ZHCC,2021-11-17 13:00,ZHCC 171300Z 20002MPS 170V230 7000 NSC 14/05 Q1019 NOSIG
ZHCC,2021-11-17 14:00,ZHCC 171400Z 21003MPS 7000 NSC 14/05 Q1019 NOSIG
ZHCC,2021-11-17 15:00,ZHCC 171500Z 19002MPS 160V220 7000 NSC 12/05 Q1019 NOSIG
ZHCC,2021-11-17 16:00,ZHCC 171600Z 21002MPS 7000 NSC 12/05 Q1019 NOSIG
ZHCC,2021-11-17 17:00,ZHCC 171700Z 20002MPS 7000 NSC 11/05 Q1018 NOSIG
ZHCC,2021-11-17 18:00,ZHCC 171800Z 21002MPS 7000 NSC 12/05 Q1018 NOSIG
ZHCC,2021-11-17 19:00,ZHCC 171900Z 22002MPS 7000 NSC 11/05 Q1017 NOSIG
ZHCC,2021-11-17 20:00,ZHCC 172000Z 21002MPS 180V260 7000 NSC 08/04 Q1017 NOSIG
ZHCC,2021-11-17 21:00,ZHCC 172100Z VRB01MPS 7000 NSC 07/04 Q1016 NOSIG
ZHCC,2021-11-17 22:00,ZHCC 172200Z VRB01MPS 7000 NSC 06/03 Q1016 NOSIG
ZHCC,2021-11-17 23:00,ZHCC 172300Z 00000MPS 5000 BR NSC 04/03 Q1016 NOSIG
ZHCC,2021-11-18 00:00,ZHCC 180000Z VRB01MPS 5000 BR NSC 07/05 Q1016 NOSIG
ZHCC,2021-11-18 01:00,ZHCC 180100Z 21002MPS 170V250 6000 NSC 13/06 Q1016 NOSIG
ZHCC,2021-11-18 02:00,ZHCC 180200Z 17003MPS 130V210 7000 NSC 15/06 Q1016 NOSIG
ZHCC,2021-11-18 03:00,ZHCC 180300Z 18003MPS 130V220 6000 NSC 17/07 Q1015 NOSIG
ZHCC,2021-11-18 04:00,ZHCC 180400Z 18004MPS 110V240 7000 NSC 18/06 Q1014 NOSIG
ZHCC,2021-11-18 05:00,ZHCC 180500Z 18004MPS 130V220 8000 NSC 20/05 Q1012 NOSIG
ZHCC,2021-11-18 06:00,ZHCC 180600Z 18003G08MPS 110V240 8000 NSC 21/05 Q1011 NOSIG
ZHCC,2021-11-18 07:00,ZHCC 180700Z 19005G11MPS 150V220 CAVOK 21/05 Q1011 NOSIG
ZHCC,2021-11-18 08:00,ZHCC 180800Z 18005G10MPS 120V220 CAVOK 20/05 Q1011 NOSIG
ZHCC,2021-11-18 09:00,ZHCC 180900Z 19004G09MPS 150V300 CAVOK 18/05 Q1011 NOSIG
ZHCC,2021-11-18 10:00,ZHCC 181000Z 19003MPS 150V230 CAVOK 17/06 Q1011 NOSIG
ZHCC,2021-11-18 11:00,ZHCC 181100Z 19003MPS 150V220 CAVOK 16/06 Q1012 NOSIG
ZHCC,2021-11-18 12:00,ZHCC 181200Z 19002MPS 150V240 CAVOK 15/06 Q1013 NOSIG
ZHCC,2021-11-18 13:00,ZHCC 181300Z 18003MPS 130V230 CAVOK 15/06 Q1013 NOSIG
ZHCC,2021-11-18 14:00,ZHCC 181400Z VRB01MPS CAVOK 14/06 Q1013 NOSIG
ZHCC,2021-11-18 15:00,ZHCC 181500Z VRB01MPS CAVOK 13/05 Q1013 NOSIG
ZHCC,2021-11-18 16:00,ZHCC 181600Z VRB01MPS CAVOK 13/06 Q1013 NOSIG
ZHCC,2021-11-18 17:00,ZHCC 181700Z VRB01MPS 8000 NSC 11/06 Q1014 NOSIG
ZHCC,2021-11-18 18:00,ZHCC 181800Z 17002MPS 130V210 9000 NSC 11/06 Q1014 NOSIG
ZHCC,2021-11-18 19:00,ZHCC 181900Z 17002MPS 140V200 8000 NSC 11/06 Q1014 NOSIG
ZHCC,2021-11-18 20:00,ZHCC 182000Z 15002MPS 130V190 7000 NSC 10/06 Q1014 NOSIG
ZHCC,2021-11-18 21:00,ZHCC 182100Z VRB01MPS 7000 NSC 10/06 Q1014 NOSIG
ZHCC,2021-11-18 22:00,ZHCC 182200Z VRB01MPS 6000 NSC 07/06 Q1014 NOSIG
ZHCC,2021-11-18 23:00,ZHCC 182300Z VRB01MPS 4000 BR NSC 06/04 Q1015 NOSIG
ZHCC,2021-11-19 00:00,ZHCC 190000Z 03003MPS 3000 BR NSC 09/07 Q1016 NOSIG
ZHCC,2021-11-19 01:00,ZHCC 190100Z 03005MPS 3000 BR NSC 11/07 Q1017 BECMG TL0240 2500
ZHCC,2021-11-19 02:00,ZHCC 190200Z 04004MPS 3000 HZ NSC 12/07 Q1018 BECMG TL0240 2500
ZHCC,2021-11-19 03:00,ZHCC 190300Z 04004MPS 350V070 2300 HZ NSC 13/07 Q1018 BECMG TL0440 3000
ZHCC,2021-11-19 04:00,ZHCC 190400Z 03004MPS 2500 HZ NSC 14/07 Q1017 NOSIG
ZHCC,2021-11-19 05:00,ZHCC 190500Z 05004MPS 2500 HZ NSC 14/07 Q1016 BECMG TL0640 3000
ZHCC,2021-11-19 06:00,ZHCC 190600Z 04004MPS 010V070 2500 HZ NSC 14/07 Q1015 NOSIG
ZHCC,2021-11-19 07:00,ZHCC 190700Z 04004MPS 2500 HZ NSC 14/07 Q1015 NOSIG
ZHCC,2021-11-19 08:00,ZHCC 190800Z 04005MPS 2500 HZ NSC 13/06 Q1016 NOSIG
ZHCC,2021-11-19 09:00,ZHCC 190900Z 04005MPS 010V070 2500 HZ NSC 13/06 Q1016 BECMG TL1040 3000
ZHCC,2021-11-19 10:00,ZHCC 191000Z 04005MPS 4000 HZ NSC 13/06 Q1016 NOSIG
ZHCC,2021-11-19 11:00,ZHCC 191100Z 03005MPS 4000 HZ NSC 12/06 Q1017 BECMG TL1240 2500
ZHCC,2021-11-19 12:00,ZHCC 191200Z 04006MPS 010V070 4000 HZ NSC 12/06 Q1017 NOSIG
ZHCC,2021-11-19 13:00,ZHCC 191300Z 02004MPS 350V050 4000 HZ NSC 11/05 Q1018 NOSIG
ZHCC,2021-11-19 14:00,ZHCC 191400Z 03004MPS 3000 BR NSC 10/06 Q1019 NOSIG
ZHCC,2021-11-19 15:00,ZHCC 191500Z 04005MPS 010V070 3000 BR NSC 09/06 Q1019 BECMG TL1640 2000
ZHCC,2021-11-19 16:00,ZHCC 191600Z 01003MPS 340V050 3000 BR NSC 09/06 Q1019 BECMG TL1640 2000
ZHCC,2021-11-19 17:00,ZHCC 191700Z 03004MPS 2800 BR NSC 09/06 Q1019 BECMG TL1740 3000
ZHCC,2021-11-19 18:00,ZHCC 191800Z 02004MPS 4000 BR NSC 10/06 Q1019 NOSIG
ZHCC,2021-11-19 19:00,ZHCC 191900Z 36003MPS 4000 BR NSC 10/06 Q1019 NOSIG
ZHCC,2021-11-19 20:00,ZHCC 192000Z 03003MPS 4000 BR NSC 10/05 Q1018 NOSIG
ZHCC,2021-11-19 21:00,ZHCC 192100Z 03004MPS 5000 BR NSC 09/05 Q1018 NOSIG
ZHCC,2021-11-19 22:00,ZHCC 192200Z 02004MPS 6000 NSC 09/05 Q1019 NOSIG
ZHCC,2021-11-19 23:00,ZHCC 192300Z 02004MPS 350V050 6000 NSC 09/04 Q1019 NOSIG
ZHCC,2021-11-20 00:00,ZHCC 200000Z 01004MPS 340V040 6000 NSC 09/04 Q1020 NOSIG
ZHCC,2021-11-20 01:00,ZHCC 200100Z 01003MPS 8000 OVC040 10/04 Q1020 NOSIG
ZHCC,2021-11-20 02:00,ZHCC 200200Z 04003MPS 8000 OVC020 10/05 Q1021 NOSIG
ZHCC,2021-11-20 03:00,ZHCC 200300Z 01004MPS 340V040 8000 OVC020 11/05 Q1020 NOSIG
ZHCC,2021-11-20 04:00,ZHCC 200400Z 36005MPS 330V040 6000 OVC020 11/05 Q1020 NOSIG
ZHCC,2021-11-20 05:00,ZHCC 200500Z 01003MPS 330V030 6000 OVC020 11/05 Q1019 NOSIG
ZHCC,2021-11-20 06:00,ZHCC 200600Z 36005MPS 6000 -RA OVC020 11/05 Q1019 NOSIG
ZHCC,2021-11-20 07:00,ZHCC 200700Z 02004MPS 330V060 6000 OVC020 10/05 Q1019 NOSIG
ZHCC,2021-11-20 08:00,ZHCC 200800Z 35005MPS 7000 OVC020 10/04 Q1020 NOSIG
ZHCC,2021-11-20 09:00,ZHCC 200900Z 36006MPS 7000 -RA OVC020 09/04 Q1020 NOSIG
ZHCC,2021-11-20 10:00,ZHCC 201000Z 01006MPS 9000 -RA OVC020 09/05 Q1020 NOSIG
ZHCC,2021-11-20 11:00,ZHCC 201100Z 02005MPS 9000 -RA OVC020 08/06 Q1021 NOSIG
ZHCC,2021-11-20 12:00,ZHCC 201200Z 36004MPS 7000 FEW007 OVC020 08/06 Q1022 NOSIG
ZHCC,2021-11-20 13:00,ZHCC 201300Z 34005MPS 8000 -RA FEW007 OVC020 08/06 Q1022 NOSIG
ZHCC,2021-11-20 14:00,ZHCC 201400Z 34005MPS 8000 SCT007 OVC020 08/06 Q1023 NOSIG
ZHCC,2021-11-20 15:00,ZHCC 201500Z 36003MPS 8000 SCT007 OVC020 08/06 Q1023 NOSIG
ZHCC,2021-11-20 16:00,ZHCC 201600Z VRB01MPS 6000 OVC030 09/07 Q1023 NOSIG
ZHCC,2021-11-20 17:00,ZHCC 201700Z 03001MPS 6000 NSC 08/07 Q1022 NOSIG
ZHCC,2021-11-20 18:00,ZHCC 201800Z 13001MPS 6000 NSC 07/06 Q1022 NOSIG
ZHCC,2021-11-20 19:00,ZHCC 201900Z 00000MPS 4000 BR NSC 05/05 Q1022 NOSIG
ZHCC,2021-11-20 20:00,ZHCC 202000Z VRB01MPS 4000 BR BKN040 07/06 Q1022 NOSIG
ZHCC,2021-11-20 21:00,ZHCC 202100Z 29002MPS 270V340 4000 BR NSC 05/05 Q1022 NOSIG
ZHCC,2021-11-20 22:00,ZHCC 202200Z 30007MPS CAVOK 09/02 Q1022 NOSIG
ZHCC,2021-11-20 23:00,ZHCC 202300Z 30007MPS CAVOK 09/01 Q1022 NOSIG
ZHCC,2021-11-21 00:00,ZHCC 210000Z 30009MPS CAVOK 10/M01 Q1023 NOSIG
ZHCC,2021-11-21 01:00,ZHCC 210100Z 30007MPS CAVOK 11/M01 Q1024 NOSIG
ZHCC,2021-11-21 02:00,ZHCC 210200Z 31008MPS CAVOK 13/M03 Q1024 NOSIG
ZHCC,2021-11-21 03:00,ZHCC 210300Z 30010MPS CAVOK 13/M06 Q1024 NOSIG
ZHCC,2021-11-21 04:00,ZHCC 210400Z 29008MPS 260V320 CAVOK 13/M06 Q1024 NOSIG
ZHCC,2021-11-21 05:00,ZHCC 210500Z 30010G15MPS CAVOK 13/M08 Q1023 NOSIG
ZHCC,2021-11-21 06:00,ZHCC 210600Z 31009G14MPS 280V340 CAVOK 12/M09 Q1023 NOSIG
ZHCC,2021-11-21 07:00,ZHCC 210700Z 29012G17MPS CAVOK 12/M08 Q1023 NOSIG
ZHCC,2021-11-21 08:00,ZHCC 210800Z 29011G16MPS 8000 BLSA NSC 11/M09 Q1024 NOSIG
ZHCC,2021-11-21 09:00,ZHCC 210900Z 29009MPS CAVOK 11/M10 Q1025 NOSIG
ZHCC,2021-11-21 10:00,ZHCC 211000Z 30010G15MPS CAVOK 10/M11 Q1026 NOSIG
ZHCC,2021-11-21 11:00,ZHCC 211100Z 31011MPS CAVOK 10/M13 Q1027 NOSIG
ZHCC,2021-11-21 12:00,ZHCC 211200Z 31010G17MPS CAVOK 09/M16 Q1029 NOSIG
ZHCC,2021-11-21 13:00,ZHCC 211300Z 30011G17MPS CAVOK 08/M15 Q1029 NOSIG
ZHCC,2021-11-21 14:00,ZHCC 211400Z 30008MPS CAVOK 07/M18 Q1030 NOSIG
ZHCC,2021-11-21 15:00,ZHCC 211500Z 31009MPS CAVOK 06/M19 Q1031 NOSIG
ZHCC,2021-11-21 16:00,ZHCC 211600Z 31008G14MPS CAVOK 06/M20 Q1031 NOSIG
ZHCC,2021-11-21 17:00,ZHCC 211700Z 30008MPS CAVOK 05/M20 Q1031 NOSIG
ZHCC,2021-11-21 18:00,ZHCC 211800Z 31007G13MPS CAVOK 04/M20 Q1031 NOSIG
ZHCC,2021-11-21 19:00,ZHCC 211900Z 31005MPS CAVOK 04/M20 Q1031 NOSIG
ZHCC,2021-11-21 20:00,ZHCC 212000Z 30005MPS CAVOK 03/M20 Q1031 NOSIG
ZHCC,2021-11-21 21:00,ZHCC 212100Z 30004MPS 270V330 CAVOK 02/M20 Q1031 NOSIG
ZHCC,2021-11-21 22:00,ZHCC 212200Z 30004MPS CAVOK 02/M19 Q1031 NOSIG
ZHCC,2021-11-21 23:00,ZHCC 212300Z 29003MPS CAVOK 01/M18 Q1032 NOSIG
ZHCC,2021-11-22 00:00,ZHCC 220000Z 30006MPS CAVOK 03/M19 Q1032 NOSIG
ZHCC,2021-11-22 01:00,ZHCC 220100Z 30006MPS 260V330 CAVOK 04/M18 Q1033 NOSIG
ZHCC,2021-11-22 02:00,ZHCC 220200Z 30008MPS CAVOK 05/M20 Q1033 NOSIG
ZHCC,2021-11-22 03:00,ZHCC 220300Z 29009MPS CAVOK 06/M20 Q1032 NOSIG
ZHCC,2021-11-22 04:00,ZHCC 220400Z 31006MPS 280V340 CAVOK 07/M19 Q1031 NOSIG
ZHCC,2021-11-22 05:00,ZHCC 220500Z 32007MPS CAVOK 08/M19 Q1030 NOSIG
ZHCC,2021-11-22 06:00,ZHCC 220600Z 30005MPS 270V340 CAVOK 08/M18 Q1029 NOSIG
ZHCC,2021-11-22 07:00,ZHCC 220700Z 31005MPS CAVOK 09/M18 Q1028 NOSIG
ZHCC,2021-11-22 08:00,ZHCC 220800Z 32004MPS CAVOK 09/M17 Q1027 NOSIG
ZHCC,2021-11-22 09:00,ZHCC 220900Z 27002MPS CAVOK 07/M16 Q1027 NOSIG
ZHCC,2021-11-22 10:00,ZHCC 221000Z 24002MPS CAVOK 06/M15 Q1027 NOSIG
ZHCC,2021-11-22 11:00,ZHCC 221100Z 22001MPS CAVOK 01/M10 Q1028 NOSIG
ZHCC,2021-11-22 12:00,ZHCC 221200Z 26002MPS CAVOK 04/M14 Q1028 NOSIG
ZHCC,2021-11-22 13:00,ZHCC 221300Z 00000MPS CAVOK 00/M11 Q1028 NOSIG
ZHCC,2021-11-22 14:00,ZHCC 221400Z VRB01MPS CAVOK 02/M12 Q1027 NOSIG
ZHCC,2021-11-22 15:00,ZHCC 221500Z 30003MPS CAVOK 03/M14 Q1027 NOSIG
ZHCC,2021-11-22 16:00,ZHCC 221600Z 26002MPS CAVOK 03/M13 Q1027 NOSIG
ZHCC,2021-11-22 17:00,ZHCC 221700Z 00000MPS CAVOK 00/M11 Q1027 NOSIG
ZHCC,2021-11-22 18:00,ZHCC 221800Z VRB01MPS CAVOK M01/M10 Q1027 NOSIG
ZHCC,2021-11-22 19:00,ZHCC 221900Z VRB01MPS CAVOK M01/M09 Q1026 NOSIG
ZHCC,2021-11-22 20:00,ZHCC 222000Z VRB01MPS CAVOK M01/M09 Q1026 NOSIG
ZHCC,2021-11-22 21:00,ZHCC 222100Z VRB01MPS CAVOK M04/M10 Q1026 NOSIG
ZHCC,2021-11-22 22:00,ZHCC 222200Z 22001MPS CAVOK M02/M08 Q1026 NOSIG
ZHCC,2021-11-22 23:00,ZHCC 222300Z 00000MPS CAVOK M03/M09 Q1026 NOSIG
ZHCC,2021-11-23 00:00,ZHCC 230000Z VRB01MPS CAVOK 01/M08 Q1026 NOSIG
ZHCC,2021-11-23 01:00,ZHCC 230100Z VRB01MPS CAVOK 07/M12 Q1026 NOSIG
ZHCC,2021-11-23 02:00,ZHCC 230200Z 29003MPS 250V310 CAVOK 09/M12 Q1026 NOSIG
ZHCC,2021-11-23 03:00,ZHCC 230300Z 21002MPS 100V270 CAVOK 10/M12 Q1026 NOSIG
ZHCC,2021-11-23 04:00,ZHCC 230400Z 21003MPS 170V280 CAVOK 12/M11 Q1025 NOSIG
ZHCC,2021-11-23 05:00,ZHCC 230500Z 23002MPS 170V290 CAVOK 13/M11 Q1023 NOSIG
ZHCC,2021-11-23 06:00,ZHCC 230600Z 18003MPS 120V220 CAVOK 14/M09 Q1022 NOSIG
ZHCC,2021-11-23 07:00,ZHCC 230700Z 19003MPS 150V240 CAVOK 14/M10 Q1022 NOSIG
ZHCC,2021-11-23 08:00,ZHCC 230800Z 23002MPS 200V280 CAVOK 14/M10 Q1021 NOSIG
ZHCC,2021-11-23 09:00,ZHCC 230900Z VRB01MPS CAVOK 12/M06 Q1021 NOSIG
ZHCC,2021-11-23 10:00,ZHCC 231000Z VRB01MPS CAVOK 09/M07 Q1021 NOSIG
ZHCC,2021-11-23 11:00,ZHCC 231100Z VRB01MPS CAVOK 05/M06 Q1022 NOSIG
ZHCC,2021-11-23 12:00,ZHCC 231200Z VRB01MPS CAVOK 04/M05 Q1022 NOSIG
ZHCC,2021-11-23 13:00,ZHCC 231300Z 21002MPS 180V240 CAVOK 06/M06 Q1022 NOSIG
ZHCC,2021-11-23 14:00,ZHCC 231400Z VRB01MPS CAVOK 04/M07 Q1022 NOSIG
ZHCC,2021-11-23 15:00,ZHCC 231500Z 24002MPS CAVOK 07/M10 Q1021 NOSIG
ZHCC,2021-11-23 16:00,ZHCC 231600Z 24003MPS CAVOK 08/M11 Q1021 NOSIG
ZHCC,2021-11-23 17:00,ZHCC 231700Z 24003MPS CAVOK 07/M11 Q1021 NOSIG
ZHCC,2021-11-23 18:00,ZHCC 231800Z 24003MPS CAVOK 08/M11 Q1020 NOSIG
ZHCC,2021-11-23 19:00,ZHCC 231900Z 24003MPS CAVOK 07/M11 Q1020 NOSIG
ZHCC,2021-11-23 20:00,ZHCC 232000Z 26002MPS CAVOK 02/M09 Q1019 NOSIG
ZHCC,2021-11-23 21:00,ZHCC 232100Z 26002MPS CAVOK 03/M08 Q1019 NOSIG
ZHCC,2021-11-23 22:00,ZHCC 232200Z 25003MPS CAVOK 05/M09 Q1019 NOSIG
ZHCC,2021-11-23 23:00,ZHCC 232300Z 27002MPS CAVOK 02/M08 Q1019 NOSIG
ZHCC,2021-11-24 00:00,ZHCC 240000Z 25003MPS CAVOK 07/M09 Q1019 NOSIG
ZHCC,2021-11-24 01:00,ZHCC 240100Z 26005MPS CAVOK 11/M07 Q1019 NOSIG
ZHCC,2021-11-24 02:00,ZHCC 240200Z 26004MPS CAVOK 14/M07 Q1019 NOSIG
ZHCC,2021-11-24 03:00,ZHCC 240300Z 29007MPS CAVOK 17/M11 Q1019 NOSIG
ZHCC,2021-11-24 04:00,ZHCC 240400Z 28009G17MPS CAVOK 18/M13 Q1018 NOSIG
ZHCC,2021-11-24 05:00,ZHCC 240500Z 29008MPS CAVOK 19/M12 Q1017 NOSIG
ZHCC,2021-11-24 06:00,ZHCC 240600Z 30007MPS 270V330 CAVOK 19/M11 Q1016 NOSIG
ZHCC,2021-11-24 07:00,ZHCC 240700Z 30006MPS CAVOK 19/M10 Q1016 NOSIG
ZHCC,2021-11-24 08:00,ZHCC 240800Z 30005MPS CAVOK 18/M08 Q1016 NOSIG
ZHCC,2021-11-24 09:00,ZHCC 240900Z 28003MPS CAVOK 15/M09 Q1016 NOSIG
ZHCC,2021-11-24 10:00,ZHCC 241000Z 28004MPS CAVOK 13/M08 Q1016 NOSIG
ZHCC,2021-11-24 11:00,ZHCC 241100Z 26002MPS CAVOK 12/M08 Q1017 NOSIG
ZHCC,2021-11-24 12:00,ZHCC 241200Z 27003MPS CAVOK 09/M09 Q1017 NOSIG
ZHCC,2021-11-24 13:00,ZHCC 241300Z 27003MPS CAVOK 10/M10 Q1018 NOSIG
ZHCC,2021-11-24 14:00,ZHCC 241400Z 26003MPS CAVOK 08/M09 Q1018 NOSIG
ZHCC,2021-11-24 15:00,ZHCC 241500Z VRB01MPS CAVOK 08/M09 Q1018 NOSIG
ZHCC,2021-11-24 16:00,ZHCC 241600Z 29004MPS CAVOK 09/M10 Q1018 NOSIG
ZHCC,2021-11-24 17:00,ZHCC 241700Z 29005MPS CAVOK 10/M10 Q1018 NOSIG
ZHCC,2021-11-24 18:00,ZHCC 241800Z 30004MPS CAVOK 09/M10 Q1019 NOSIG
ZHCC,2021-11-24 19:00,ZHCC 241900Z 30003MPS CAVOK 08/M10 Q1019 NOSIG
ZHCC,2021-11-24 20:00,ZHCC 242000Z 29003MPS CAVOK 09/M10 Q1019 NOSIG
ZHCC,2021-11-24 21:00,ZHCC 242100Z 29003MPS CAVOK 09/M10 Q1019 NOSIG
ZHCC,2021-11-24 22:00,ZHCC 242200Z 28002MPS CAVOK 07/M09 Q1019 NOSIG
ZHCC,2021-11-24 23:00,ZHCC 242300Z 28002MPS 250V350 CAVOK 03/M07 Q1020 NOSIG
ZHCC,2021-11-25 00:00,ZHCC 250000Z 26001MPS CAVOK 03/M05 Q1021 NOSIG
ZHCC,2021-11-25 01:00,ZHCC 250100Z VRB01MPS CAVOK 12/M08 Q1022 NOSIG
ZHCC,2021-11-25 02:00,ZHCC 250200Z 30005MPS 260V320 CAVOK 15/M09 Q1022 NOSIG
ZHCC,2021-11-25 03:00,ZHCC 250300Z 32003MPS 280V360 CAVOK 17/M10 Q1022 NOSIG
ZHCC,2021-11-25 04:00,ZHCC 250400Z 34002MPS 310V020 CAVOK 19/M10 Q1021 NOSIG
ZHCC,2021-11-25 05:00,ZHCC 250500Z 33003MPS 300V360 CAVOK 20/M09 Q1020 NOSIG
ZHCC,2021-11-25 06:00,ZHCC 250600Z 34002MPS 270V080 CAVOK 19/M10 Q1019 NOSIG
ZHCC,2021-11-25 07:00,ZHCC 250700Z 25003MPS 230V290 CAVOK 20/M10 Q1019 NOSIG
ZHCC,2021-11-25 08:00,ZHCC 250800Z 31003MPS CAVOK 20/M10 Q1019 NOSIG
ZHCC,2021-11-25 09:00,ZHCC 250900Z 13002MPS 090V160 CAVOK 16/M06 Q1019 NOSIG
ZHCC,2021-11-25 10:00,ZHCC 251000Z VRB01MPS CAVOK 13/M04 Q1020 NOSIG
ZHCC,2021-11-25 11:00,ZHCC 251100Z VRB01MPS CAVOK 12/M05 Q1021 NOSIG
ZHCC,2021-11-25 12:00,ZHCC 251200Z VRB01MPS CAVOK 10/M04 Q1021 NOSIG
ZHCC,2021-11-25 13:00,ZHCC 251300Z VRB01MPS CAVOK 08/M02 Q1022 NOSIG
ZHCC,2021-11-25 14:00,ZHCC 251400Z 00000MPS CAVOK 07/M02 Q1022 NOSIG
ZHCC,2021-11-25 15:00,ZHCC 251500Z 29001MPS CAVOK 06/M04 Q1022 NOSIG
ZHCC,2021-11-25 16:00,ZHCC 251600Z 27001MPS CAVOK 05/M03 Q1022 NOSIG
ZHCC,2021-11-25 17:00,ZHCC 251700Z 25001MPS CAVOK 04/M03 Q1023 NOSIG
ZHCC,2021-11-25 18:00,ZHCC 251800Z VRB01MPS CAVOK 06/M03 Q1023 NOSIG
ZHCC,2021-11-25 19:00,ZHCC 251900Z VRB01MPS CAVOK 03/M03 Q1023 NOSIG
ZHCC,2021-11-25 20:00,ZHCC 252000Z 30002MPS CAVOK 06/M03 Q1024 NOSIG
ZHCC,2021-11-25 21:00,ZHCC 252100Z 33004MPS CAVOK 08/M04 Q1024 NOSIG
ZHCC,2021-11-25 22:00,ZHCC 252200Z 29002MPS 250V330 CAVOK 08/M05 Q1025 NOSIG
ZHCC,2021-11-25 23:00,ZHCC 252300Z 34004MPS CAVOK 08/M04 Q1026 NOSIG
ZHCC,2021-11-26 00:00,ZHCC 260000Z 34004MPS CAVOK 08/M03 Q1027 NOSIG
ZHCC,2021-11-26 01:00,ZHCC 260100Z 33004MPS 6000 NSC 10/M02 Q1028 NOSIG
ZHCC,2021-11-26 02:00,ZHCC 260200Z 36004MPS 5000 HZ NSC 11/M01 Q1029 NOSIG
ZHCC,2021-11-26 03:00,ZHCC 260300Z 02004MPS 340V040 5000 HZ NSC 13/M02 Q1029 NOSIG
ZHCC,2021-11-26 04:00,ZHCC 260400Z 05004MPS 010V070 5000 HZ NSC 15/M02 Q1029 NOSIG
ZHCC,2021-11-26 05:00,ZHCC 260500Z 02004MPS 340V080 5000 HZ NSC 16/M02 Q1028 NOSIG
ZHCC,2021-11-26 06:00,ZHCC 260600Z 06003MPS 020V080 5000 HZ NSC 16/M02 Q1028 NOSIG
ZHCC,2021-11-26 07:00,ZHCC 260700Z 06003MPS 010V110 5000 HZ NSC 16/M04 Q1028 NOSIG
ZHCC,2021-11-26 08:00,ZHCC 260800Z 06004MPS 5000 HZ NSC 15/M02 Q1028 NOSIG
ZHCC,2021-11-26 09:00,ZHCC 260900Z 06002MPS 4000 HZ NSC 13/M02 Q1029 NOSIG
ZHCC,2021-11-26 10:00,ZHCC 261000Z 06002MPS 6000 NSC 12/M01 Q1029 NOSIG
ZHCC,2021-11-26 11:00,ZHCC 261100Z 05003MPS 030V090 6000 NSC 12/M00 Q1030 NOSIG
ZHCC,2021-11-26 12:00,ZHCC 261200Z 06003MPS 6000 NSC 11/00 Q1030 NOSIG
ZHCC,2021-11-26 13:00,ZHCC 261300Z 07002MPS 030V110 5000 HZ NSC 09/M00 Q1031 NOSIG
ZHCC,2021-11-26 14:00,ZHCC 261400Z 06001MPS 5000 HZ NSC 09/00 Q1031 NOSIG
ZHCC,2021-11-26 15:00,ZHCC 261500Z VRB01MPS 5000 HZ NSC 09/00 Q1031 NOSIG
ZHCC,2021-11-26 16:00,ZHCC 261600Z VRB01MPS 4000 HZ NSC 05/M00 Q1032 NOSIG
ZHCC,2021-11-26 17:00,ZHCC 261700Z 28001MPS 4000 BR NSC 04/00 Q1032 NOSIG
ZHCC,2021-11-26 18:00,ZHCC 261800Z VRB01MPS 4000 BR NSC 03/M01 Q1032 NOSIG
ZHCC,2021-11-26 19:00,ZHCC 261900Z 29001MPS 4000 BR NSC 03/M01 Q1031 NOSIG
ZHCC,2021-11-26 20:00,ZHCC 262000Z 29001MPS 4000 BR NSC 03/M01 Q1031 NOSIG
ZHCC,2021-11-26 21:00,ZHCC 262100Z 00000MPS 4000 BR NSC 03/M01 Q1031 NOSIG
ZHCC,2021-11-26 22:00,ZHCC 262200Z 00000MPS 4000 BR NSC 02/M00 Q1031 NOSIG
ZHCC,2021-11-26 23:00,ZHCC 262300Z 00000MPS 3500 BR NSC 02/M01 Q1032 NOSIG
ZHCC,2021-11-27 00:00,ZHCC 270000Z 28001MPS 2000 BR NSC 02/M00 Q1033 BECMG TL0140 3000
ZHCC,2021-11-27 01:00,ZHCC 270100Z 00000MPS 2500 HZ NSC 08/03 Q1033 BECMG TL0240 3000
ZHCC,2021-11-27 02:00,ZHCC 270200Z VRB01MPS 2500 HZ NSC 10/01 Q1033 BECMG TL0240 3000
ZHCC,2021-11-27 03:00,ZHCC 270300Z 14002MPS 090V210 3000 HZ NSC 13/01 Q1032 NOSIG
ZHCC,2021-11-27 04:00,ZHCC 270400Z 16003MPS 110V210 3000 HZ NSC 14/03 Q1031 NOSIG
ZHCC,2021-11-27 05:00,ZHCC 270500Z 13003MPS 070V180 4000 HZ NSC 14/02 Q1030 NOSIG
ZHCC,2021-11-27 06:00,ZHCC 270600Z 14003MPS 090V190 4000 HZ NSC 15/02 Q1030 NOSIG
ZHCC,2021-11-27 07:00,ZHCC 270700Z 12003MPS 080V190 4000 HZ NSC 14/00 Q1029 NOSIG
ZHCC,2021-11-27 08:00,ZHCC 270800Z 13003MPS 110V180 6000 NSC 15/00 Q1030 NOSIG
ZHCC,2021-11-27 09:00,ZHCC 270900Z 12003MPS 6000 NSC 13/M00 Q1030 NOSIG
ZHCC,2021-11-27 10:00,ZHCC 271000Z 11002MPS 8000 NSC 10/M00 Q1030 NOSIG
ZHCC,2021-11-27 11:00,ZHCC 271100Z 10002MPS CAVOK 10/01 Q1030 NOSIG
ZHCC,2021-11-27 12:00,ZHCC 271200Z 10003MPS CAVOK 09/02 Q1030 NOSIG
ZHCC,2021-11-27 13:00,ZHCC 271300Z 09002MPS CAVOK 10/03 Q1030 NOSIG
ZHCC,2021-11-27 14:00,ZHCC 271400Z 09002MPS 8000 NSC 09/03 Q1031 NOSIG
ZHCC,2021-11-27 15:00,ZHCC 271500Z 10002MPS 060V130 8000 NSC 08/02 Q1031 NOSIG
ZHCC,2021-11-27 16:00,ZHCC 271600Z 10001MPS 8000 NSC 07/03 Q1030 NOSIG
ZHCC,2021-11-27 17:00,ZHCC 271700Z 10003MPS 8000 NSC 07/03 Q1030 NOSIG
ZHCC,2021-11-27 18:00,ZHCC 271800Z 10002MPS 8000 NSC 07/03 Q1030 NOSIG
ZHCC,2021-11-27 19:00,ZHCC 271900Z VRB01MPS 8000 NSC 07/03 Q1030 NOSIG
ZHCC,2021-11-27 20:00,ZHCC 272000Z 00000MPS 8000 NSC 06/03 Q1029 NOSIG
ZHCC,2021-11-27 21:00,ZHCC 272100Z VRB01MPS 6000 NSC 05/03 Q1029 NOSIG
ZHCC,2021-11-27 22:00,ZHCC 272200Z 00000MPS 6000 NSC 05/02 Q1029 NOSIG
ZHCC,2021-11-27 23:00,ZHCC 272300Z VRB01MPS 4000 BR NSC 05/03 Q1029 NOSIG
ZHCC,2021-11-28 00:00,ZHCC 280000Z 09002MPS 2000 BR NSC 06/03 Q1030 NOSIG
ZHCC,2021-11-28 01:00,ZHCC 280100Z 11002MPS 4000 BR NSC 08/05 Q1030 NOSIG
ZHCC,2021-11-28 02:00,ZHCC 280200Z 11002MPS 030V160 4000 HZ NSC 10/05 Q1030 NOSIG
ZHCC,2021-11-28 03:00,ZHCC 280300Z 14002MPS 050V180 5000 HZ NSC 10/05 Q1029 NOSIG
ZHCC,2021-11-28 04:00,ZHCC 280400Z VRB01MPS 5000 HZ NSC 13/06 Q1028 NOSIG
ZHCC,2021-11-28 05:00,ZHCC 280500Z VRB01MPS 5000 HZ NSC 14/06 Q1027 NOSIG
ZHCC,2021-11-28 06:00,ZHCC 280600Z VRB01MPS 6000 NSC 14/06 Q1026 NOSIG
ZHCC,2021-11-28 07:00,ZHCC 280700Z VRB01MPS 7000 NSC 14/05 Q1026 NOSIG
ZHCC,2021-11-28 08:00,ZHCC 280800Z VRB01MPS 8000 NSC 14/05 Q1026 NOSIG
ZHCC,2021-11-28 09:00,ZHCC 280900Z 11003MPS 6000 NSC 11/05 Q1026 NOSIG
ZHCC,2021-11-28 10:00,ZHCC 281000Z 10003MPS 6000 NSC 09/04 Q1026 NOSIG
ZHCC,2021-11-28 11:00,ZHCC 281100Z 12002MPS 6000 NSC 09/06 Q1026 NOSIG
ZHCC,2021-11-28 12:00,ZHCC 281200Z 00000MPS 6000 NSC 08/06 Q1027 NOSIG
ZHCC,2021-11-28 13:00,ZHCC 281300Z VRB01MPS 5000 BR NSC 06/04 Q1027 NOSIG
ZHCC,2021-11-28 14:00,ZHCC 281400Z 00000MPS 5000 BR NSC 06/05 Q1027 NOSIG
ZHCC,2021-11-28 15:00,ZHCC 281500Z 27001MPS 5000 BR NSC 05/04 Q1027 NOSIG
ZHCC,2021-11-28 16:00,ZHCC 281600Z 24001MPS 4000 BR NSC 04/03 Q1027 NOSIG
ZHCC,2021-11-28 17:00,ZHCC 281700Z 00000MPS 4000 BR NSC 04/03 Q1026 NOSIG
ZHCC,2021-11-28 18:00,ZHCC 281800Z 20001MPS 3000 BR NSC 03/03 Q1026 NOSIG
ZHCC,2021-11-28 19:00,ZHCC 281900Z 00000MPS 3000 BR NSC 04/04 Q1026 NOSIG
ZHCC,2021-11-28 20:00,ZHCC 282000Z 25002MPS 4000 BR NSC 06/05 Q1025 NOSIG
ZHCC,2021-11-28 21:00,ZHCC 282100Z 00000MPS 4000 BR NSC 06/05 Q1025 NOSIG
ZHCC,2021-11-28 22:00,ZHCC 282200Z 26002MPS 4000 BR NSC 06/05 Q1025 NOSIG
ZHCC,2021-11-28 23:00,ZHCC 282300Z VRB01MPS 4000 BR NSC 07/05 Q1025 NOSIG
ZHCC,2021-11-29 00:00,ZHCC 290000Z VRB01MPS 3000 BR NSC 08/06 Q1025 BECMG TL0140 29007MPS
ZHCC,2021-11-29 01:00,ZHCC 290100Z VRB01MPS 3000 BR NSC 10/06 Q1025 NOSIG
ZHCC,2021-11-29 02:00,ZHCC 290200Z VRB01MPS 3000 BR NSC 11/06 Q1026 NOSIG
ZHCC,2021-11-29 03:00,ZHCC 290300Z 28008G13MPS 3500 HZ NSC 14/01 Q1025 NOSIG
ZHCC,2021-11-29 04:00,ZHCC 290400Z 29011G17MPS 4000 HZ SCT026 13/M00 Q1025 NOSIG
ZHCC,2021-11-29 05:00,ZHCC 290500Z 29010G15MPS 4000 HZ OVC030 11/01 Q1025 NOSIG
ZHCC,2021-11-29 06:00,ZHCC 290600Z 30013G21MPS 8000 -RA BLSA OVC030 10/02 Q1025 NOSIG
ZHCC,2021-11-29 07:00,ZHCC 290700Z 29009MPS 5000 -RA BR OVC040 07/04 Q1026 NOSIG
ZHCC,2021-11-29 08:00,ZHCC 290800Z 29007MPS 8000 -RA OVC040 07/03 Q1026 NOSIG
ZHCC,2021-11-29 09:00,ZHCC 290900Z 29008MPS 9999 OVC046 08/02 Q1026 NOSIG
ZHCC,2021-11-29 10:00,ZHCC 291000Z 28006MPS 9999 OVC046 08/01 Q1026 NOSIG
ZHCC,2021-11-29 11:00,ZHCC 291100Z 29007MPS 9999 OVC046 08/M00 Q1027 NOSIG
ZHCC,2021-11-29 12:00,ZHCC 291200Z 29009MPS 9999 OVC046 08/M02 Q1027 NOSIG
ZHCC,2021-11-29 13:00,ZHCC 291300Z 30006MPS 9999 OVC046 08/M04 Q1028 NOSIG
ZHCC,2021-11-29 14:00,ZHCC 291400Z 29007MPS CAVOK 07/M06 Q1028 NOSIG
ZHCC,2021-11-29 15:00,ZHCC 291500Z 30009MPS CAVOK 07/M06 Q1028 NOSIG
ZHCC,2021-11-29 16:00,ZHCC 291600Z 30009MPS CAVOK 07/M07 Q1028 NOSIG
ZHCC,2021-11-29 17:00,ZHCC 291700Z 30008MPS CAVOK 07/M08 Q1028 NOSIG
ZHCC,2021-11-29 18:00,ZHCC 291800Z 29007MPS CAVOK 06/M08 Q1028 NOSIG
ZHCC,2021-11-29 19:00,ZHCC 291900Z 28005MPS CAVOK 06/M08 Q1028 NOSIG
ZHCC,2021-11-29 20:00,ZHCC 292000Z 29005MPS CAVOK 06/M08 Q1027 NOSIG
ZHCC,2021-11-29 21:00,ZHCC 292100Z 29005MPS CAVOK 06/M08 Q1027 NOSIG
ZHCC,2021-11-29 22:00,ZHCC 292200Z 29008MPS CAVOK 06/M09 Q1028 NOSIG
ZHCC,2021-11-29 23:00,ZHCC 292300Z 30005MPS CAVOK 06/M10 Q1029 NOSIG
ZHCC,2021-11-30 00:00,ZHCC 300000Z 30006MPS CAVOK 07/M11 Q1029 NOSIG
ZHCC,2021-11-30 01:00,ZHCC 300100Z 30009G15MPS CAVOK 08/M11 Q1030 NOSIG
ZHCC,2021-11-30 02:00,ZHCC 300200Z 31010G15MPS CAVOK 09/M12 Q1031 NOSIG
ZHCC,2021-11-30 03:00,ZHCC 300300Z 32009MPS CAVOK 10/M13 Q1031 NOSIG
ZHCC,2021-11-30 04:00,ZHCC 300400Z 32010MPS CAVOK 11/M14 Q1030 NOSIG
ZHCC,2021-11-30 05:00,ZHCC 300500Z 31009MPS 280V340 CAVOK 11/M15 Q1029 NOSIG
ZHCC,2021-11-30 06:00,ZHCC 300600Z 31008MPS 290V350 CAVOK 11/M15 Q1029 NOSIG
ZHCC,2021-11-30 07:00,ZHCC 300700Z 30008MPS CAVOK 11/M16 Q1028 NOSIG
ZHCC,2021-11-30 08:00,ZHCC 300800Z 30007MPS CAVOK 11/M15 Q1029 NOSIG
ZHCC,2021-11-30 09:00,ZHCC 300900Z 30005MPS CAVOK 09/M13 Q1029 NOSIG
ZHCC,2021-11-30 10:00,ZHCC 301000Z 30004MPS CAVOK 07/M12 Q1029 NOSIG
ZHCC,2021-11-30 11:00,ZHCC 301100Z 27002MPS CAVOK 05/M12 Q1030 NOSIG
ZHCC,2021-11-30 12:00,ZHCC 301200Z 29004MPS CAVOK 04/M12 Q1030 NOSIG
ZHCC,2021-11-30 13:00,ZHCC 301300Z VRB01MPS CAVOK 04/M10 Q1031 NOSIG
ZHCC,2021-11-30 14:00,ZHCC 301400Z 23001MPS CAVOK 04/M10 Q1031 NOSIG
ZHCC,2021-11-30 15:00,ZHCC 301500Z VRB01MPS CAVOK 01/M08 Q1031 NOSIG
ZHCC,2021-11-30 16:00,ZHCC 301600Z VRB01MPS CAVOK 02/M09 Q1031 NOSIG
ZHCC,2021-11-30 17:00,ZHCC 301700Z VRB01MPS CAVOK M00/M09 Q1031 NOSIG
ZHCC,2021-11-30 18:00,ZHCC 301800Z 24001MPS CAVOK M02/M07 Q1031 NOSIG
ZHCC,2021-11-30 19:00,ZHCC 301900Z 22002MPS CAVOK 01/M09 Q1031 NOSIG
ZHCC,2021-11-30 20:00,ZHCC 302000Z 22002MPS CAVOK 00/M09 Q1031 NOSIG
ZHCC,2021-11-30 21:00,ZHCC 302100Z 23002MPS CAVOK 00/M09 Q1031 NOSIG
ZHCC,2021-11-30 22:00,ZHCC 302200Z 26002MPS 220V300 CAVOK M01/M08 Q1031 NOSIG
ZHCC,2021-11-30 23:00,ZHCC 302300Z VRB01MPS CAVOK M03/M08 Q1031 NOSIG
ZHCC,2021-12-01 00:00,ZHCC 010000Z 00000MPS CAVOK M01/M08 Q1032 NOSIG
ZHCC,2021-12-01 01:00,ZHCC 010100Z VRB01MPS CAVOK 05/M08 Q1032 NOSIG
ZHCC,2021-12-01 02:00,ZHCC 010200Z 20002MPS 150V250 CAVOK 07/M09 Q1033 NOSIG
ZHCC,2021-12-01 03:00,ZHCC 010300Z VRB02MPS CAVOK 08/M11 Q1032 NOSIG
ZHCC,2021-12-01 04:00,ZHCC 010400Z 21002MPS 130V280 CAVOK 09/M11 Q1031 NOSIG
ZHCC,2021-12-01 05:00,ZHCC 010500Z 23002MPS 180V350 CAVOK 10/M12 Q1029 NOSIG
ZHCC,2021-12-01 06:00,ZHCC 010600Z VRB02MPS CAVOK 11/M12 Q1028 NOSIG
ZHCC,2021-12-01 07:00,ZHCC 010700Z 19002MPS 100V240 CAVOK 10/M12 Q1028 NOSIG
ZHCC,2021-12-01 08:00,ZHCC 010800Z 16002MPS 120V210 CAVOK 10/M11 Q1028 NOSIG
ZHCC,2021-12-01 09:00,ZHCC 010900Z 14002MPS 110V170 CAVOK 08/M11 Q1027 NOSIG
ZHCC,2021-12-01 10:00,ZHCC 011000Z 13001MPS CAVOK 05/M09 Q1027 NOSIG
ZHCC,2021-12-01 11:00,ZHCC 011100Z VRB01MPS CAVOK 02/M08 Q1028 NOSIG
ZHCC,2021-12-01 12:00,ZHCC 011200Z 00000MPS CAVOK 02/M08 Q1028 NOSIG
ZHCC,2021-12-01 13:00,ZHCC 011300Z 17001MPS CAVOK 01/M08 Q1028 NOSIG
ZHCC,2021-12-01 14:00,ZHCC 011400Z 19002MPS CAVOK 01/M08 Q1028 NOSIG
ZHCC,2021-12-01 15:00,ZHCC 011500Z 20002MPS CAVOK 04/M08 Q1028 NOSIG
ZHCC,2021-12-01 16:00,ZHCC 011600Z VRB01MPS CAVOK 00/M07 Q1027 NOSIG
ZHCC,2021-12-01 17:00,ZHCC 011700Z VRB01MPS CAVOK M01/M06 Q1026 NOSIG
ZHCC,2021-12-01 18:00,ZHCC 011800Z VRB01MPS CAVOK M02/M06 Q1026 NOSIG
ZHCC,2021-12-01 19:00,ZHCC 011900Z 23003MPS 200V260 CAVOK 03/M08 Q1025 NOSIG
ZHCC,2021-12-01 20:00,ZHCC 012000Z 30002MPS 260V320 CAVOK 01/M08 Q1025 NOSIG
ZHCC,2021-12-01 21:00,ZHCC 012100Z 27004MPS CAVOK 02/M08 Q1024 NOSIG
ZHCC,2021-12-01 22:00,ZHCC 012200Z 27004MPS CAVOK 04/M09 Q1024 NOSIG
ZHCC,2021-12-01 23:00,ZHCC 012300Z 27005MPS CAVOK 06/M09 Q1024 NOSIG
ZHCC,2021-12-02 00:00,ZHCC 020000Z 28003MPS CAVOK 04/M08 Q1024 NOSIG
ZHCC,2021-12-02 01:00,ZHCC 020100Z 27004MPS CAVOK 08/M07 Q1024 NOSIG
ZHCC,2021-12-02 02:00,ZHCC 020200Z 27007MPS CAVOK 11/M07 Q1024 NOSIG
ZHCC,2021-12-02 03:00,ZHCC 020300Z 29011G17MPS CAVOK 12/M11 Q1023 NOSIG
ZHCC,2021-12-02 04:00,ZHCC 020400Z 29011G17MPS CAVOK 12/M12 Q1022 NOSIG
ZHCC,2021-12-02 05:00,ZHCC 020500Z 29008G13MPS CAVOK 13/M10 Q1022 NOSIG
ZHCC,2021-12-02 06:00,ZHCC 020600Z 30010MPS CAVOK 14/M11 Q1021 NOSIG
ZHCC,2021-12-02 07:00,ZHCC 020700Z 30009MPS CAVOK 14/M12 Q1021 NOSIG
ZHCC,2021-12-02 08:00,ZHCC 020800Z 29008MPS CAVOK 13/M12 Q1020 NOSIG
ZHCC,2021-12-02 09:00,ZHCC 020900Z 28006MPS 250V310 CAVOK 12/M12 Q1021 NOSIG
ZHCC,2021-12-02 10:00,ZHCC 021000Z 28006MPS CAVOK 11/M11 Q1021 NOSIG
ZHCC,2021-12-02 11:00,ZHCC 021100Z 28008MPS CAVOK 11/M11 Q1021 NOSIG
ZHCC,2021-12-02 12:00,ZHCC 021200Z 29007MPS CAVOK 10/M11 Q1022 NOSIG
ZHCC,2021-12-02 13:00,ZHCC 021300Z 29006MPS CAVOK 09/M11 Q1022 NOSIG
ZHCC,2021-12-02 14:00,ZHCC 021400Z 29006MPS CAVOK 10/M11 Q1023 NOSIG
ZHCC,2021-12-02 15:00,ZHCC 021500Z 28006MPS CAVOK 10/M12 Q1023 NOSIG
ZHCC,2021-12-02 16:00,ZHCC 021600Z 29008MPS CAVOK 10/M12 Q1023 NOSIG
ZHCC,2021-12-02 17:00,ZHCC 021700Z 29007MPS CAVOK 10/M12 Q1023 NOSIG
ZHCC,2021-12-02 18:00,ZHCC 021800Z 30006MPS CAVOK 10/M11 Q1023 NOSIG
ZHCC,2021-12-02 19:00,ZHCC 021900Z 30006MPS CAVOK 10/M12 Q1023 NOSIG
ZHCC,2021-12-02 20:00,ZHCC 022000Z 31007MPS CAVOK 10/M12 Q1023 NOSIG
ZHCC,2021-12-02 21:00,ZHCC 022100Z 30004MPS CAVOK 09/M12 Q1023 NOSIG
ZHCC,2021-12-02 22:00,ZHCC 022200Z 28004MPS CAVOK 08/M12 Q1024 NOSIG
ZHCC,2021-12-02 23:00,ZHCC 022300Z 28003MPS CAVOK 06/M11 Q1024 NOSIG
ZHCC,2021-12-03 00:00,ZHCC 030000Z 27003MPS CAVOK 07/M10 Q1025 NOSIG
ZHCC,2021-12-03 01:00,ZHCC 030100Z 30003MPS CAVOK 11/M10 Q1026 NOSIG
ZHCC,2021-12-03 02:00,ZHCC 030200Z 31006G12MPS 270V340 CAVOK 13/M11 Q1027 NOSIG
ZHCC,2021-12-03 03:00,ZHCC 030300Z 30006MPS CAVOK 15/M11 Q1027 NOSIG
ZHCC,2021-12-03 04:00,ZHCC 030400Z 30004MPS 260V340 CAVOK 15/M13 Q1026 NOSIG
ZHCC,2021-12-03 05:00,ZHCC 030500Z 32004MPS 280V350 CAVOK 16/M12 Q1025 NOSIG
ZHCC,2021-12-03 06:00,ZHCC 030600Z 31004MPS 270V350 CAVOK 17/M13 Q1024 NOSIG
ZHCC,2021-12-03 07:00,ZHCC 030700Z 32004MPS 280V020 CAVOK 17/M13 Q1024 NOSIG
ZHCC,2021-12-03 08:00,ZHCC 030800Z 32003MPS CAVOK 16/M13 Q1024 NOSIG
ZHCC,2021-12-03 09:00,ZHCC 030900Z 00000MPS CAVOK 14/M12 Q1024 NOSIG
ZHCC,2021-12-03 10:00,ZHCC 031000Z 12001MPS CAVOK 09/M08 Q1024 NOSIG
ZHCC,2021-12-03 11:00,ZHCC 031100Z 18001MPS CAVOK 05/M07 Q1025 NOSIG
ZHCC,2021-12-03 12:00,ZHCC 031200Z VRB01MPS CAVOK 05/M07 Q1025 NOSIG
ZHCC,2021-12-03 13:00,ZHCC 031300Z 19001MPS CAVOK 06/M05 Q1026 NOSIG
ZHCC,2021-12-03 14:00,ZHCC 031400Z 19001MPS CAVOK 03/M06 Q1026 NOSIG
ZHCC,2021-12-03 15:00,ZHCC 031500Z 21002MPS CAVOK 02/M07 Q1026 NOSIG
ZHCC,2021-12-03 16:00,ZHCC 031600Z VRB01MPS CAVOK 02/M07 Q1026 NOSIG
ZHCC,2021-12-03 17:00,ZHCC 031700Z 00000MPS CAVOK 01/M06 Q1026 NOSIG
ZHCC,2021-12-03 18:00,ZHCC 031800Z 30001MPS CAVOK 02/M06 Q1026 NOSIG
ZHCC,2021-12-03 19:00,ZHCC 031900Z 32001MPS CAVOK 03/M07 Q1026 NOSIG
ZHCC,2021-12-03 20:00,ZHCC 032000Z 28002MPS CAVOK 02/M05 Q1025 NOSIG
ZHCC,2021-12-03 21:00,ZHCC 032100Z VRB01MPS CAVOK 03/M07 Q1025 NOSIG
ZHCC,2021-12-03 22:00,ZHCC 032200Z 25001MPS CAVOK 02/M06 Q1025 NOSIG
ZHCC,2021-12-03 23:00,ZHCC 032300Z VRB01MPS CAVOK 01/M07 Q1026 NOSIG
ZHCC,2021-12-04 00:00,ZHCC 040000Z 20001MPS CAVOK 01/M05 Q1026 NOSIG
ZHCC,2021-12-04 01:00,ZHCC 040100Z 31001MPS CAVOK 09/M03 Q1027 NOSIG
ZHCC,2021-12-04 02:00,ZHCC 040200Z VRB01MPS CAVOK 12/M05 Q1028 NOSIG
ZHCC,2021-12-04 03:00,ZHCC 040300Z VRB01MPS CAVOK 14/M08 Q1028 NOSIG
ZHCC,2021-12-04 04:00,ZHCC 040400Z VRB02MPS CAVOK 15/M09 Q1027 NOSIG
ZHCC,2021-12-04 05:00,ZHCC 040500Z VRB02MPS CAVOK 16/M09 Q1026 NOSIG
ZHCC,2021-12-04 06:00,ZHCC 040600Z VRB02MPS CAVOK 16/M10 Q1025 NOSIG
ZHCC,2021-12-04 07:00,ZHCC 040700Z 03001MPS CAVOK 18/M08 Q1025 NOSIG
ZHCC,2021-12-04 08:00,ZHCC 040800Z 18002MPS 080V230 CAVOK 16/M09 Q1025 NOSIG
ZHCC,2021-12-04 09:00,ZHCC 040900Z 14002MPS 110V170 CAVOK 14/M07 Q1025 NOSIG
ZHCC,2021-12-04 10:00,ZHCC 041000Z 13001MPS CAVOK 10/M06 Q1025 NOSIG
ZHCC,2021-12-04 11:00,ZHCC 041100Z VRB01MPS CAVOK 07/M05 Q1026 NOSIG
ZHCC,2021-12-04 12:00,ZHCC 041200Z 14001MPS CAVOK 07/M05 Q1026 NOSIG
ZHCC,2021-12-04 13:00,ZHCC 041300Z 15001MPS CAVOK 05/M04 Q1026 NOSIG
ZHCC,2021-12-04 14:00,ZHCC 041400Z 20001MPS CAVOK 03/M03 Q1026 NOSIG
ZHCC,2021-12-04 15:00,ZHCC 041500Z VRB01MPS CAVOK 06/M04 Q1026 NOSIG
ZHCC,2021-12-04 16:00,ZHCC 041600Z VRB01MPS CAVOK 03/M03 Q1027 NOSIG
ZHCC,2021-12-04 17:00,ZHCC 041700Z VRB01MPS CAVOK 02/M03 Q1026 NOSIG
ZHCC,2021-12-04 18:00,ZHCC 041800Z 00000MPS CAVOK 01/M04 Q1026 NOSIG
ZHCC,2021-12-04 19:00,ZHCC 041900Z 33001MPS CAVOK 03/M03 Q1026 NOSIG
ZHCC,2021-12-04 20:00,ZHCC 042000Z 00000MPS CAVOK 00/M04 Q1025 NOSIG
ZHCC,2021-12-04 21:00,ZHCC 042100Z 26002MPS CAVOK M00/M04 Q1025 NOSIG
ZHCC,2021-12-04 22:00,ZHCC 042200Z VRB01MPS CAVOK 03/M04 Q1025 NOSIG
ZHCC,2021-12-04 23:00,ZHCC 042300Z 14001MPS CAVOK 00/M04 Q1025 NOSIG
ZHCC,2021-12-05 00:00,ZHCC 050000Z 27001MPS CAVOK 01/M03 Q1026 NOSIG
ZHCC,2021-12-05 01:00,ZHCC 050100Z 00000MPS CAVOK 08/M01 Q1026 NOSIG
ZHCC,2021-12-05 02:00,ZHCC 050200Z 21002MPS 180V250 CAVOK 11/M04 Q1026 NOSIG
ZHCC,2021-12-05 03:00,ZHCC 050300Z VRB01MPS CAVOK 14/M03 Q1026 NOSIG
ZHCC,2021-12-05 04:00,ZHCC 050400Z VRB01MPS CAVOK 15/M04 Q1025 NOSIG
ZHCC,2021-12-05 05:00,ZHCC 050500Z VRB01MPS CAVOK 16/M06 Q1024 NOSIG
ZHCC,2021-12-05 06:00,ZHCC 050600Z 19002MPS 140V240 CAVOK 17/M06 Q1023 NOSIG
ZHCC,2021-12-05 07:00,ZHCC 050700Z 20003MPS 140V230 7000 NSC 17/M05 Q1023 NOSIG
ZHCC,2021-12-05 08:00,ZHCC 050800Z 17002MPS 130V220 7000 NSC 16/M04 Q1022 NOSIG
ZHCC,2021-12-05 09:00,ZHCC 050900Z 17002MPS 7000 NSC 14/M04 Q1022 NOSIG
ZHCC,2021-12-05 10:00,ZHCC 051000Z 17002MPS CAVOK 11/M05 Q1022 NOSIG
ZHCC,2021-12-05 11:00,ZHCC 051100Z 20002MPS 160V220 CAVOK 12/M03 Q1023 NOSIG
ZHCC,2021-12-05 12:00,ZHCC 051200Z 19002MPS 160V220 CAVOK 11/M01 Q1023 NOSIG
ZHCC,2021-12-05 13:00,ZHCC 051300Z 21003MPS CAVOK 11/M00 Q1023 NOSIG
ZHCC,2021-12-05 14:00,ZHCC 051400Z VRB01MPS CAVOK 06/M02 Q1023 NOSIG
ZHCC,2021-12-05 15:00,ZHCC 051500Z 23001MPS CAVOK 05/M01 Q1023 NOSIG
ZHCC,2021-12-05 16:00,ZHCC 051600Z 20002MPS CAVOK 02/M02 Q1023 NOSIG
ZHCC,2021-12-05 17:00,ZHCC 051700Z 20001MPS 8000 NSC 03/M01 Q1022 NOSIG
ZHCC,2021-12-05 18:00,ZHCC 051800Z VRB01MPS 8000 NSC 03/M02 Q1022 NOSIG
ZHCC,2021-12-05 19:00,ZHCC 051900Z 00000MPS 8000 NSC 01/M02 Q1022 NOSIG
ZHCC,2021-12-05 20:00,ZHCC 052000Z VRB01MPS 8000 NSC 02/M02 Q1022 NOSIG
ZHCC,2021-12-05 21:00,ZHCC 052100Z 26004MPS 8000 NSC 07/M04 Q1022 NOSIG
ZHCC,2021-12-05 22:00,ZHCC 052200Z 26003MPS CAVOK 07/M06 Q1022 BECMG TL2340 36006MPS
ZHCC,2021-12-05 23:00,ZHCC 052300Z 31006MPS CAVOK 11/M08 Q1024 BECMG TL0040 03008G15MPS
ZHCC,2021-12-06 00:00,ZHCC 060000Z 33007MPS CAVOK 10/M08 Q1025 NOSIG
ZHCC,2021-12-06 01:00,ZHCC 060100Z 35005MPS CAVOK 12/M08 Q1027 NOSIG
ZHCC,2021-12-06 02:00,ZHCC 060200Z 02007MPS 350V060 CAVOK 13/M08 Q1028 NOSIG
ZHCC,2021-12-06 03:00,ZHCC 060300Z 02008G13MPS 350V050 CAVOK 13/M08 Q1029 NOSIG
ZHCC,2021-12-06 04:00,ZHCC 060400Z 03010G16MPS CAVOK 14/M09 Q1029 NOSIG
ZHCC,2021-12-06 05:00,ZHCC 060500Z 04009G14MPS CAVOK 14/M08 Q1029 NOSIG
ZHCC,2021-12-06 06:00,ZHCC 060600Z 03007MPS 360V070 CAVOK 14/M08 Q1029 NOSIG
ZHCC,2021-12-06 07:00,ZHCC 060700Z 04007MPS 010V070 CAVOK 14/M06 Q1029 NOSIG
ZHCC,2021-12-06 08:00,ZHCC 060800Z 05006MPS CAVOK 13/M06 Q1029 NOSIG
ZHCC,2021-12-06 09:00,ZHCC 060900Z 05004MPS 010V080 CAVOK 12/M07 Q1030 NOSIG
ZHCC,2021-12-06 10:00,ZHCC 061000Z 04003MPS CAVOK 11/M06 Q1031 NOSIG
ZHCC,2021-12-06 11:00,ZHCC 061100Z 04004MPS 010V080 CAVOK 10/M07 Q1032 NOSIG
ZHCC,2021-12-06 12:00,ZHCC 061200Z 04006MPS CAVOK 10/M08 Q1032 NOSIG
ZHCC,2021-12-06 13:00,ZHCC 061300Z 04005MPS CAVOK 09/M08 Q1032 NOSIG
ZHCC,2021-12-06 14:00,ZHCC 061400Z 03005MPS 360V060 CAVOK 08/M07 Q1033 NOSIG
ZHCC,2021-12-06 15:00,ZHCC 061500Z 02003MPS 340V050 CAVOK 08/M06 Q1034 NOSIG
ZHCC,2021-12-06 16:00,ZHCC 061600Z 02003MPS CAVOK 07/M06 Q1034 NOSIG
ZHCC,2021-12-06 17:00,ZHCC 061700Z 02004MPS 340V050 CAVOK 06/M05 Q1034 NOSIG
ZHCC,2021-12-06 18:00,ZHCC 061800Z 02004MPS CAVOK 06/M04 Q1034 NOSIG
ZHCC,2021-12-06 19:00,ZHCC 061900Z 02004MPS CAVOK 06/M04 Q1033 NOSIG
ZHCC,2021-12-06 20:00,ZHCC 062000Z 01003MPS CAVOK 06/M04 Q1033 NOSIG
ZHCC,2021-12-06 21:00,ZHCC 062100Z 01004MPS 350V050 CAVOK 05/M05 Q1033 NOSIG
ZHCC,2021-12-06 22:00,ZHCC 062200Z 03003MPS 350V050 CAVOK 05/M05 Q1033 NOSIG
ZHCC,2021-12-06 23:00,ZHCC 062300Z 04004MPS 010V080 CAVOK 05/M04 Q1033 NOSIG
ZHCC,2021-12-07 00:00,ZHCC 070000Z 03003MPS CAVOK 05/M03 Q1034 NOSIG
ZHCC,2021-12-07 01:00,ZHCC 070100Z 03003MPS 010V080 CAVOK 05/M03 Q1034 NOSIG
ZHCC,2021-12-07 02:00,ZHCC 070200Z 05004MPS CAVOK 07/M03 Q1035 NOSIG
ZHCC,2021-12-07 03:00,ZHCC 070300Z 05003MPS 360V100 CAVOK 07/M03 Q1034 NOSIG
ZHCC,2021-12-07 04:00,ZHCC 070400Z 07002MPS 010V140 CAVOK 08/M02 Q1034 NOSIG
ZHCC,2021-12-07 05:00,ZHCC 070500Z 06003MPS 360V100 CAVOK 09/M03 Q1033 NOSIG
ZHCC,2021-12-07 06:00,ZHCC 070600Z 06003MPS 010V100 CAVOK 10/M03 Q1032 NOSIG
ZHCC,2021-12-07 07:00,ZHCC 070700Z 05003MPS 020V100 CAVOK 10/M04 Q1032 NOSIG
ZHCC,2021-12-07 08:00,ZHCC 070800Z 07005MPS 8000 NSC 09/M03 Q1031 NOSIG
ZHCC,2021-12-07 09:00,ZHCC 070900Z 04004MPS 8000 NSC 09/M03 Q1032 NOSIG
ZHCC,2021-12-07 10:00,ZHCC 071000Z 04003MPS 020V080 CAVOK 08/M03 Q1032 NOSIG
ZHCC,2021-12-07 11:00,ZHCC 071100Z 06003MPS CAVOK 08/M03 Q1032 NOSIG
ZHCC,2021-12-07 12:00,ZHCC 071200Z 07004MPS CAVOK 07/M02 Q1033 NOSIG
ZHCC,2021-12-07 13:00,ZHCC 071300Z 08003MPS CAVOK 06/M02 Q1033 NOSIG
ZHCC,2021-12-07 14:00,ZHCC 071400Z 06002MPS 030V090 CAVOK 06/M02 Q1033 NOSIG
ZHCC,2021-12-07 15:00,ZHCC 071500Z 05002MPS 020V080 CAVOK 06/M02 Q1033 NOSIG
ZHCC,2021-12-07 16:00,ZHCC 071600Z VRB01MPS CAVOK 04/M02 Q1033 NOSIG
ZHCC,2021-12-07 17:00,ZHCC 071700Z VRB01MPS CAVOK 03/M02 Q1033 NOSIG
ZHCC,2021-12-07 18:00,ZHCC 071800Z 30002MPS CAVOK 02/M02 Q1032 NOSIG
ZHCC,2021-12-07 19:00,ZHCC 071900Z 31001MPS CAVOK 04/M02 Q1032 NOSIG
ZHCC,2021-12-07 20:00,ZHCC 072000Z VRB01MPS CAVOK 04/M02 Q1032 NOSIG
ZHCC,2021-12-07 21:00,ZHCC 072100Z 31001MPS 9999 FEW030 04/M02 Q1032 NOSIG
ZHCC,2021-12-07 22:00,ZHCC 072200Z 33002MPS 300V020 9999 SCT020 05/M02 Q1032 NOSIG
ZHCC,2021-12-07 23:00,ZHCC 072300Z 06002MPS 9999 SCT020 05/M02 Q1032 NOSIG
ZHCC,2021-12-08 00:00,ZHCC 080000Z VRB01MPS 9999 OVC020 06/M03 Q1032 NOSIG
ZHCC,2021-12-08 01:00,ZHCC 080100Z 10002MPS 9999 OVC020 06/M03 Q1033 NOSIG
ZHCC,2021-12-08 02:00,ZHCC 080200Z VRB01MPS 9999 OVC020 07/M03 Q1033 NOSIG
ZHCC,2021-12-08 03:00,ZHCC 080300Z VRB01MPS 8000 OVC020 08/M01 Q1032 NOSIG
ZHCC,2021-12-08 04:00,ZHCC 080400Z VRB01MPS 6000 OVC030 08/00 Q1031 NOSIG
ZHCC,2021-12-08 05:00,ZHCC 080500Z VRB01MPS 6000 OVC030 08/01 Q1030 NOSIG
ZHCC,2021-12-08 06:00,ZHCC 080600Z VRB01MPS 6000 OVC030 09/02 Q1029 NOSIG
ZHCC,2021-12-08 07:00,ZHCC 080700Z VRB01MPS 6000 OVC030 09/02 Q1029 NOSIG
ZHCC,2021-12-08 08:00,ZHCC 080800Z 11002MPS 6000 OVC030 08/02 Q1028 NOSIG
ZHCC,2021-12-08 09:00,ZHCC 080900Z 08002MPS 040V130 5000 HZ OVC030 08/02 Q1028 NOSIG
ZHCC,2021-12-08 10:00,ZHCC 081000Z VRB01MPS 5000 HZ OVC030 08/03 Q1029 NOSIG
ZHCC,2021-12-08 11:00,ZHCC 081100Z 14001MPS 5000 HZ OVC030 08/02 Q1029 NOSIG
ZHCC,2021-12-08 12:00,ZHCC 081200Z 12002MPS 5000 HZ NSC 07/02 Q1029 NOSIG
ZHCC,2021-12-08 13:00,ZHCC 081300Z VRB01MPS 5000 HZ NSC 07/02 Q1029 NOSIG
ZHCC,2021-12-08 14:00,ZHCC 081400Z 17001MPS 5000 HZ BKN040 07/03 Q1029 NOSIG
ZHCC,2021-12-08 15:00,ZHCC 081500Z 16001MPS 5000 HZ BKN040 07/03 Q1028 NOSIG
ZHCC,2021-12-08 16:00,ZHCC 081600Z 18001MPS 5000 BR BKN040 05/02 Q1028 NOSIG
ZHCC,2021-12-08 17:00,ZHCC 081700Z 21001MPS 5000 BR BKN040 04/02 Q1028 NOSIG
ZHCC,2021-12-08 18:00,ZHCC 081800Z VRB01MPS 5000 BR BKN040 02/01 Q1027 NOSIG
ZHCC,2021-12-08 19:00,ZHCC 081900Z VRB01MPS 5000 BR BKN040 01/M00 Q1027 NOSIG
ZHCC,2021-12-08 20:00,ZHCC 082000Z 27002MPS 4000 BR BKN040 02/00 Q1027 NOSIG
ZHCC,2021-12-08 21:00,ZHCC 082100Z 30001MPS 4000 BR BKN040 02/01 Q1027 NOSIG
ZHCC,2021-12-08 22:00,ZHCC 082200Z 28001MPS 4000 BR BKN040 02/00 Q1027 NOSIG
ZHCC,2021-12-08 23:00,ZHCC 082300Z VRB01MPS 4000 BR BKN040 00/M01 Q1026 NOSIG
ZHCC,2021-12-09 00:00,ZHCC 090000Z 00000MPS 2000 BR NSC 00/M00 Q1027 BECMG TL0140 3000
ZHCC,2021-12-09 01:00,ZHCC 090100Z VRB01MPS 2000 BR NSC 05/03 Q1027 NOSIG
ZHCC,2021-12-09 02:00,ZHCC 090200Z 23002MPS 200V290 2500 HZ NSC 08/03 Q1028 BECMG TL0340 3000
ZHCC,2021-12-09 03:00,ZHCC 090300Z 24002MPS 180V290 3000 HZ NSC 10/03 Q1027 NOSIG
ZHCC,2021-12-09 04:00,ZHCC 090400Z 20002MPS 070V240 3000 HZ NSC 12/03 Q1026 NOSIG
ZHCC,2021-12-09 05:00,ZHCC 090500Z 19002MPS 140V280 3000 HZ NSC 13/02 Q1025 NOSIG
ZHCC,2021-12-09 06:00,ZHCC 090600Z 18002MPS 140V250 3000 HZ NSC 14/02 Q1025 NOSIG
ZHCC,2021-12-09 07:00,ZHCC 090700Z 18003MPS 130V220 4000 HZ NSC 14/01 Q1024 NOSIG
ZHCC,2021-12-09 08:00,ZHCC 090800Z 18002MPS 140V210 4000 HZ NSC 13/02 Q1024 NOSIG
ZHCC,2021-12-09 09:00,ZHCC 090900Z 19002MPS 140V220 4000 HZ NSC 12/02 Q1024 NOSIG
ZHCC,2021-12-09 10:00,ZHCC 091000Z 20003MPS 160V230 4000 HZ NSC 11/02 Q1024 NOSIG
ZHCC,2021-12-09 11:00,ZHCC 091100Z 20002MPS 4000 HZ NSC 10/02 Q1025 NOSIG
ZHCC,2021-12-09 12:00,ZHCC 091200Z 21003MPS 4000 HZ NSC 10/03 Q1025 NOSIG
ZHCC,2021-12-09 13:00,ZHCC 091300Z 21002MPS 4000 HZ NSC 10/03 Q1025 NOSIG
ZHCC,2021-12-09 14:00,ZHCC 091400Z VRB01MPS 4000 HZ NSC 06/02 Q1026 NOSIG
ZHCC,2021-12-09 15:00,ZHCC 091500Z VRB01MPS 3500 BR NSC 04/01 Q1026 NOSIG
ZHCC,2021-12-09 16:00,ZHCC 091600Z 19001MPS 3500 BR NSC 05/01 Q1026 NOSIG
ZHCC,2021-12-09 17:00,ZHCC 091700Z 00000MPS 3000 BR NSC 03/01 Q1026 NOSIG
ZHCC,2021-12-09 18:00,ZHCC 091800Z VRB01MPS 3000 BR NSC 02/00 Q1026 NOSIG
ZHCC,2021-12-09 19:00,ZHCC 091900Z VRB01MPS 3000 BR NSC 03/01 Q1026 NOSIG
ZHCC,2021-12-09 20:00,ZHCC 092000Z VRB01MPS 3000 BR NSC 01/00 Q1026 NOSIG
ZHCC,2021-12-09 21:00,ZHCC 092100Z 25001MPS 2000 BR NSC 01/M00 Q1026 BECMG TL2240 1200
ZHCC,2021-12-09 22:00,ZHCC 092200Z VRB01MPS 2000 R30L/1800D R30R/1200V1400N BR NSC 01/00 Q1026 BECMG TL2340 1400
ZHCC,2021-12-09 23:00,ZHCC 092300Z 27001MPS 1400 R30L/1400U R30R/P2000 BR NSC 02/01 Q1027 BECMG TL0040 1600
ZHCC,2021-12-10 00:00,ZHCC 100000Z VRB02MPS 1200 R30L/1500U R30R/1200V1400U BR NSC 04/02 Q1028 BECMG TL0040 1600
ZHCC,2021-12-10 01:00,ZHCC 100100Z VRB01MPS 1000 R30L/1100V1300N R30R/1000V1100U BR NSC 06/04 Q1028 BECMG TL0240 1600
ZHCC,2021-12-10 02:00,ZHCC 100200Z 04002MPS 1000 R30L/1100V1200N R30R/1000V1100N BR NSC 07/04 Q1028 BECMG TL0340 1600
ZHCC,2021-12-10 03:00,ZHCC 100300Z VRB01MPS 1200 R30L/1300V1400N R30R/1200V1300N BR NSC 08/04 Q1028 BECMG TL0440 1600
ZHCC,2021-12-10 04:00,ZHCC 100400Z VRB02MPS 1400 R30L/1500N R30R/1400N HZ NSC 09/05 Q1028 BECMG TL0520 1600
ZHCC,2021-12-10 05:00,ZHCC 100500Z VRB02MPS 1500 HZ NSC 10/04 Q1027 NOSIG
ZHCC,2021-12-10 06:00,ZHCC 100600Z 07003MPS 330V090 1500 HZ NSC 10/05 Q1026 NOSIG
ZHCC,2021-12-10 07:00,ZHCC 100700Z 04003MPS 1500 HZ NSC 10/05 Q1026 NOSIG
ZHCC,2021-12-10 08:00,ZHCC 100800Z 04003MPS 1500 HZ NSC 10/05 Q1026 NOSIG
ZHCC,2021-12-10 09:00,ZHCC 100900Z VRB02MPS 1800 HZ NSC 10/05 Q1027 NOSIG
ZHCC,2021-12-10 10:00,ZHCC 101000Z 34003MPS 1800 HZ NSC 09/05 Q1027 NOSIG
ZHCC,2021-12-10 11:00,ZHCC 101100Z 32004MPS 2000 HZ BKN040 09/05 Q1028 NOSIG
ZHCC,2021-12-10 12:00,ZHCC 101200Z VRB03MPS 2000 -RA BR OVC040 09/06 Q1028 NOSIG
ZHCC,2021-12-10 13:00,ZHCC 101300Z 34007MPS 2000 -RA BR OVC040 09/06 Q1028 NOSIG
ZHCC,2021-12-10 14:00,ZHCC 101400Z 32003MPS 1500 -RA BR OVC040 08/07 Q1030 NOSIG
ZHCC,2021-12-10 15:00,ZHCC 101500Z 32005MPS 1500 -RA BR OVC040 08/07 Q1030 BECMG TL1640 1200
ZHCC,2021-12-10 16:00,ZHCC 101600Z 33004MPS 1200 R30L/1700U R30R/1800U -RA BR OVC030 08/07 Q1030 NOSIG
ZHCC,2021-12-10 17:00,ZHCC 101700Z 35003MPS 320V020 1200 R30L/1600D R30R/1200V1300N -RA BR OVC030 08/07 Q1030 NOSIG
ZHCC,2021-12-10 18:00,ZHCC 101800Z 01003MPS 1000 R30L/1100V1300N R30R/1100V1200U -RA BR OVC030 08/07 Q1030 NOSIG
ZHCC,2021-12-10 19:00,ZHCC 101900Z 35004MPS 1500 -RA BR OVC030 07/07 Q1030 NOSIG
ZHCC,2021-12-10 20:00,ZHCC 102000Z 34004MPS 1500 -RA BR OVC030 07/06 Q1030 NOSIG
ZHCC,2021-12-10 21:00,ZHCC 102100Z 32004MPS 1400 R30L/1700D R30R/1500D -RA BR SCT004 OVC020 07/06 Q1029 NOSIG
ZHCC,2021-12-10 22:00,ZHCC 102200Z 35003MPS 1400 R30L/1900N R30R/1500N -RA BR SCT004 OVC020 07/06 Q1030 NOSIG
ZHCC,2021-12-10 23:00,ZHCC 102300Z 31003MPS 1400 R30L/1800D R30R/1800D -RA BR SCT004 OVC020 07/06 Q1030 NOSIG
ZHCC,2021-12-11 00:00,ZHCC 110000Z 30002MPS 0600 R30L/1200D R30R/1200V1400N -RA FG FEW004 OVC020 07/06 Q1030 BECMG TL0140 0800
ZHCC,2021-12-11 01:00,ZHCC 110100Z 30003MPS 0800 R30L/1400U R30R/1400N -RA FG FEW004 OVC020 07/06 Q1031 NOSIG
ZHCC,2021-12-11 02:00,ZHCC 110200Z VRB01MPS 1000 R30L/1700D R30R/1900D -RA BR FEW016 OVC030 07/06 Q1032 BECMG TL0340 1500
ZHCC,2021-12-11 03:00,ZHCC 110300Z 27002MPS 1400 R30L/1800U R30R/P2000 BR OVC030 08/06 Q1031 BECMG TL0340 1500
ZHCC,2021-12-11 04:00,ZHCC 110400Z 26002MPS 220V300 2500 BR OVC033 09/07 Q1030 BECMG TL0540 3000
ZHCC,2021-12-11 05:00,ZHCC 110500Z VRB01MPS 4000 HZ SCT040 10/05 Q1029 NOSIG
ZHCC,2021-12-11 06:00,ZHCC 110600Z 24002MPS 190V280 4000 HZ BKN040 11/05 Q1028 NOSIG
ZHCC,2021-12-11 07:00,ZHCC 110700Z 25002MPS 220V280 4000 HZ SCT033 11/05 Q1028 NOSIG
ZHCC,2021-12-11 08:00,ZHCC 110800Z VRB01MPS 4000 HZ BKN033 10/05 Q1028 NOSIG
ZHCC,2021-12-11 09:00,ZHCC 110900Z VRB01MPS 4000 HZ SCT033 10/05 Q1028 NOSIG
ZHCC,2021-12-11 10:00,ZHCC 111000Z 22001MPS 5000 BR NSC 09/06 Q1029 NOSIG
ZHCC,2021-12-11 11:00,ZHCC 111100Z 19001MPS 5000 BR NSC 08/05 Q1030 NOSIG
ZHCC,2021-12-11 12:00,ZHCC 111200Z 18001MPS 5000 BR NSC 08/06 Q1030 NOSIG
ZHCC,2021-12-11 13:00,ZHCC 111300Z 00000MPS 5000 BR NSC 08/06 Q1030 NOSIG
ZHCC,2021-12-11 14:00,ZHCC 111400Z VRB01MPS 5000 BR NSC 07/06 Q1030 NOSIG
ZHCC,2021-12-11 15:00,ZHCC 111500Z VRB01MPS 4000 BR NSC 06/05 Q1031 NOSIG
ZHCC,2021-12-11 16:00,ZHCC 111600Z 25001MPS 4000 BR NSC 06/05 Q1031 NOSIG
ZHCC,2021-12-11 17:00,ZHCC 111700Z 30004MPS 6000 NSC 08/03 Q1031 NOSIG
ZHCC,2021-12-11 18:00,ZHCC 111800Z 31006MPS 6000 NSC 09/01 Q1031 NOSIG
ZHCC,2021-12-11 19:00,ZHCC 111900Z 31005MPS 7000 NSC 09/01 Q1032 NOSIG
ZHCC,2021-12-11 20:00,ZHCC 112000Z 32005MPS 290V350 7000 NSC 08/01 Q1032 NOSIG
ZHCC,2021-12-11 21:00,ZHCC 112100Z 35005MPS 5000 HZ BKN020 09/03 Q1033 NOSIG
ZHCC,2021-12-11 22:00,ZHCC 112200Z 35006MPS 2000 BR BKN006 06/05 Q1034 BECMG TL2240 1000
ZHCC,2021-12-11 23:00,ZHCC 112300Z 36006MPS 2800 BR BKN009 05/03 Q1035 BECMG TL2340 1200
ZHCC,2021-12-12 00:00,ZHCC 120000Z 36005MPS 1600 BR BKN010 05/03 Q1036 BECMG TL0140 3000
ZHCC,2021-12-12 01:00,ZHCC 120100Z 01005MPS 2000 BR BKN010 05/02 Q1037 BECMG TL0240 3000
ZHCC,2021-12-12 02:00,ZHCC 120200Z 01006MPS 350V050 4000 HZ NSC 06/M03 Q1038 NOSIG
ZHCC,2021-12-12 03:00,ZHCC 120300Z 02006MPS 7000 NSC 06/M05 Q1038 NOSIG
ZHCC,2021-12-12 04:00,ZHCC 120400Z 03005MPS 350V060 7000 NSC 06/M06 Q1038 NOSIG
ZHCC,2021-12-12 05:00,ZHCC 120500Z 02004MPS 360V060 8000 NSC 07/M05 Q1036 NOSIG
ZHCC,2021-12-12 06:00,ZHCC 120600Z 05005MPS 8000 NSC 07/M06 Q1035 NOSIG
ZHCC,2021-12-12 07:00,ZHCC 120700Z 04004MPS 8000 NSC 07/M05 Q1035 NOSIG
ZHCC,2021-12-12 08:00,ZHCC 120800Z 03003MPS 360V070 8000 NSC 07/M05 Q1035 NOSIG
ZHCC,2021-12-12 09:00,ZHCC 120900Z 05003MPS 030V090 8000 NSC 06/M04 Q1035 NOSIG
ZHCC,2021-12-12 10:00,ZHCC 121000Z 06003MPS 8000 NSC 05/M04 Q1035 NOSIG
ZHCC,2021-12-12 11:00,ZHCC 121100Z 06002MPS 040V100 8000 NSC 05/M04 Q1035 NOSIG
ZHCC,2021-12-12 12:00,ZHCC 121200Z 07002MPS CAVOK 04/M05 Q1035 NOSIG
ZHCC,2021-12-12 13:00,ZHCC 121300Z 08002MPS 050V170 CAVOK 03/M06 Q1035 NOSIG
ZHCC,2021-12-12 14:00,ZHCC 121400Z VRB01MPS CAVOK 01/M05 Q1035 NOSIG
ZHCC,2021-12-12 15:00,ZHCC 121500Z 00000MPS CAVOK M00/M04 Q1035 NOSIG
ZHCC,2021-12-12 16:00,ZHCC 121600Z VRB01MPS CAVOK M00/M03 Q1035 NOSIG
ZHCC,2021-12-12 17:00,ZHCC 121700Z 13001MPS CAVOK M01/M05 Q1034 NOSIG
ZHCC,2021-12-12 18:00,ZHCC 121800Z 00000MPS CAVOK M02/M05 Q1034 NOSIG
ZHCC,2021-12-12 19:00,ZHCC 121900Z 15001MPS CAVOK M02/M05 Q1033 NOSIG
ZHCC,2021-12-12 20:00,ZHCC 122000Z VRB01MPS CAVOK M02/M06 Q1032 NOSIG
ZHCC,2021-12-12 21:00,ZHCC 122100Z 16001MPS CAVOK M01/M07 Q1031 NOSIG
ZHCC,2021-12-12 22:00,ZHCC 122200Z 13001MPS CAVOK M02/M06 Q1031 NOSIG
ZHCC,2021-12-12 23:00,ZHCC 122300Z 00000MPS CAVOK M04/M06 Q1031 NOSIG
ZHCC,2021-12-13 00:00,ZHCC 130000Z VRB01MPS CAVOK M02/M06 Q1031 NOSIG
ZHCC,2021-12-13 01:00,ZHCC 130100Z VRB01MPS CAVOK 02/M06 Q1030 NOSIG
ZHCC,2021-12-13 02:00,ZHCC 130200Z 17002MPS 130V210 CAVOK 03/M07 Q1030 NOSIG
ZHCC,2021-12-13 03:00,ZHCC 130300Z 20003MPS 160V250 CAVOK 05/M06 Q1029 NOSIG
ZHCC,2021-12-13 04:00,ZHCC 130400Z 18003MPS 140V220 CAVOK 07/M03 Q1028 NOSIG
ZHCC,2021-12-13 05:00,ZHCC 130500Z 18003MPS 120V240 6000 NSC 08/M02 Q1026 NOSIG
ZHCC,2021-12-13 06:00,ZHCC 130600Z 14003MPS 100V180 5000 HZ NSC 08/M02 Q1025 NOSIG
ZHCC,2021-12-13 07:00,ZHCC 130700Z 17002MPS 140V210 4000 HZ NSC 08/M01 Q1024 NOSIG
ZHCC,2021-12-13 08:00,ZHCC 130800Z 14002MPS 100V170 4000 HZ NSC 08/M00 Q1024 NOSIG
ZHCC,2021-12-13 09:00,ZHCC 130900Z 14002MPS 110V180 4000 HZ NSC 07/00 Q1023 NOSIG
ZHCC,2021-12-13 10:00,ZHCC 131000Z VRB01MPS 4000 HZ NSC 07/01 Q1023 NOSIG
ZHCC,2021-12-13 11:00,ZHCC 131100Z 14001MPS 4000 HZ NSC 06/01 Q1023 NOSIG
ZHCC,2021-12-13 12:00,ZHCC 131200Z VRB01MPS 5000 HZ NSC 07/02 Q1023 NOSIG
ZHCC,2021-12-13 13:00,ZHCC 131300Z VRB01MPS 5000 BR NSC 07/03 Q1023 NOSIG
ZHCC,2021-12-13 14:00,ZHCC 131400Z 17002MPS 140V210 4000 BR NSC 07/03 Q1023 NOSIG
ZHCC,2021-12-13 15:00,ZHCC 131500Z 19002MPS 150V230 4000 BR NSC 07/04 Q1022 NOSIG
ZHCC,2021-12-13 16:00,ZHCC 131600Z 20002MPS 150V220 4000 BR NSC 06/04 Q1022 NOSIG
ZHCC,2021-12-13 17:00,ZHCC 131700Z 29002MPS 3000 BR NSC 04/03 Q1021 NOSIG
ZHCC,2021-12-13 18:00,ZHCC 131800Z 25001MPS 3000 BR NSC 03/02 Q1021 NOSIG
ZHCC,2021-12-13 19:00,ZHCC 131900Z 31001MPS 2500 BR NSC 01/01 Q1020 NOSIG
ZHCC,2021-12-13 20:00,ZHCC 132000Z 27001MPS 2800 BR NSC 01/00 Q1020 NOSIG
ZHCC,2021-12-13 21:00,ZHCC 132100Z VRB01MPS 2800 BR NSC 01/00 Q1019 NOSIG
ZHCC,2021-12-13 22:00,ZHCC 132200Z 24001MPS 2800 BR NSC M01/M01 Q1019 NOSIG
ZHCC,2021-12-13 23:00,ZHCC 132300Z 29001MPS 2800 BR NSC M02/M03 Q1019 BECMG TL0040 3000
ZHCC,2021-12-14 00:00,ZHCC 140000Z VRB01MPS 1600 BR NSC M01/M01 Q1019 BECMG TL0140 3000
ZHCC,2021-12-14 01:00,ZHCC 140100Z 23002MPS 200V260 2500 BR NSC 05/02 Q1019 NOSIG
ZHCC,2021-12-14 02:00,ZHCC 140200Z 24003MPS 210V270 5000 HZ NSC 08/02 Q1019 NOSIG
ZHCC,2021-12-14 03:00,ZHCC 140300Z 25003MPS 220V290 6000 NSC 11/02 Q1019 NOSIG
ZHCC,2021-12-14 04:00,ZHCC 140400Z 26003MPS 210V290 6000 NSC 13/02 Q1018 NOSIG
ZHCC,2021-12-14 05:00,ZHCC 140500Z 26004MPS 220V300 8000 NSC 14/00 Q1017 NOSIG
ZHCC,2021-12-14 06:00,ZHCC 140600Z 27003MPS 220V320 8000 NSC 15/M00 Q1016 NOSIG
ZHCC,2021-12-14 07:00,ZHCC 140700Z 24003MPS 170V280 CAVOK 16/M02 Q1016 NOSIG
ZHCC,2021-12-14 08:00,ZHCC 140800Z 19003MPS 160V230 7000 NSC 14/03 Q1015 NOSIG
ZHCC,2021-12-14 09:00,ZHCC 140900Z 21002MPS 6000 NSC 12/03 Q1016 NOSIG
ZHCC,2021-12-14 10:00,ZHCC 141000Z VRB01MPS 7000 NSC 08/02 Q1017 NOSIG
ZHCC,2021-12-14 11:00,ZHCC 141100Z 16001MPS 6000 NSC 07/03 Q1018 NOSIG
ZHCC,2021-12-14 12:00,ZHCC 141200Z VRB01MPS 6000 NSC 04/01 Q1018 NOSIG
ZHCC,2021-12-14 13:00,ZHCC 141300Z 21002MPS 180V240 6000 NSC 07/02 Q1018 NOSIG
ZHCC,2021-12-14 14:00,ZHCC 141400Z 22002MPS 190V260 6000 NSC 07/03 Q1018 NOSIG
ZHCC,2021-12-14 15:00,ZHCC 141500Z 25001MPS 5000 BR NSC 02/01 Q1019 NOSIG
ZHCC,2021-12-14 16:00,ZHCC 141600Z 27002MPS 6000 NSC 02/M01 Q1019 NOSIG
ZHCC,2021-12-14 17:00,ZHCC 141700Z 26002MPS 8000 NSC 02/M02 Q1019 NOSIG
ZHCC,2021-12-14 18:00,ZHCC 141800Z 28002MPS 220V310 CAVOK 03/M02 Q1018 NOSIG
ZHCC,2021-12-14 19:00,ZHCC 141900Z VRB01MPS CAVOK 02/M03 Q1018 NOSIG
ZHCC,2021-12-14 20:00,ZHCC 142000Z VRB01MPS CAVOK 01/M03 Q1018 NOSIG
ZHCC,2021-12-14 21:00,ZHCC 142100Z 27001MPS CAVOK 01/M04 Q1018 NOSIG
ZHCC,2021-12-14 22:00,ZHCC 142200Z 22002MPS 190V250 CAVOK 04/M04 Q1018 NOSIG
ZHCC,2021-12-14 23:00,ZHCC 142300Z VRB01MPS CAVOK 00/M04 Q1018 NOSIG
ZHCC,2021-12-15 00:00,ZHCC 150000Z 00000MPS CAVOK 00/M03 Q1019 NOSIG
ZHCC,2021-12-15 01:00,ZHCC 150100Z 30001MPS 8000 NSC 04/00 Q1020 NOSIG
ZHCC,2021-12-15 02:00,ZHCC 150200Z 34003G08MPS 250V010 8000 NSC 09/M03 Q1020 NOSIG
ZHCC,2021-12-15 03:00,ZHCC 150300Z 34004MPS 8000 NSC 10/M04 Q1020 NOSIG
ZHCC,2021-12-15 04:00,ZHCC 150400Z 34002MPS 7000 NSC 10/M03 Q1020 NOSIG
ZHCC,2021-12-15 05:00,ZHCC 150500Z 33003MPS 300V360 7000 NSC 11/M03 Q1019 NOSIG
ZHCC,2021-12-15 06:00,ZHCC 150600Z 35002MPS 280V050 6000 NSC 12/M02 Q1018 NOSIG
ZHCC,2021-12-15 07:00,ZHCC 150700Z 34003MPS 310V020 6000 NSC 12/M01 Q1018 NOSIG
ZHCC,2021-12-15 08:00,ZHCC 150800Z 36003MPS 280V030 6000 NSC 10/M01 Q1018 NOSIG
ZHCC,2021-12-15 09:00,ZHCC 150900Z 01002MPS 5000 HZ NSC 10/M01 Q1018 NOSIG
ZHCC,2021-12-15 10:00,ZHCC 151000Z VRB01MPS 6000 NSC 10/M01 Q1019 NOSIG
ZHCC,2021-12-15 11:00,ZHCC 151100Z VRB01MPS 6000 NSC 07/M00 Q1019 NOSIG
ZHCC,2021-12-15 12:00,ZHCC 151200Z 34002MPS 6000 NSC 06/M00 Q1021 NOSIG
ZHCC,2021-12-15 13:00,ZHCC 151300Z 30001MPS 6000 NSC 07/00 Q1021 NOSIG
ZHCC,2021-12-15 14:00,ZHCC 151400Z VRB01MPS 6000 NSC 05/M00 Q1021 NOSIG
ZHCC,2021-12-15 15:00,ZHCC 151500Z 32002MPS 6000 NSC 04/00 Q1021 NOSIG
ZHCC,2021-12-15 16:00,ZHCC 151600Z VRB01MPS 6000 NSC 04/M00 Q1021 NOSIG
ZHCC,2021-12-15 17:00,ZHCC 151700Z 28002MPS 6000 NSC 02/M02 Q1021 NOSIG
ZHCC,2021-12-15 18:00,ZHCC 151800Z VRB01MPS 8000 NSC 03/M03 Q1021 NOSIG
ZHCC,2021-12-15 19:00,ZHCC 151900Z VRB01MPS 7000 NSC 01/M03 Q1021 NOSIG
ZHCC,2021-12-15 20:00,ZHCC 152000Z VRB01MPS 7000 NSC M00/M03 Q1021 NOSIG
ZHCC,2021-12-15 21:00,ZHCC 152100Z 00000MPS 7000 NSC 01/M03 Q1021 NOSIG
ZHCC,2021-12-15 22:00,ZHCC 152200Z 31005MPS CAVOK 06/M03 Q1022 NOSIG
ZHCC,2021-12-15 23:00,ZHCC 152300Z 30005MPS 270V330 CAVOK 08/M06 Q1022 NOSIG
ZHCC,2021-12-16 00:00,ZHCC 160000Z 31006MPS CAVOK 09/M07 Q1024 NOSIG
ZHCC,2021-12-16 01:00,ZHCC 160100Z 31006G11MPS 280V350 CAVOK 10/M06 Q1024 NOSIG
ZHCC,2021-12-16 02:00,ZHCC 160200Z 31008MPS CAVOK 12/M06 Q1025 NOSIG
ZHCC,2021-12-16 03:00,ZHCC 160300Z 31009MPS CAVOK 12/M07 Q1026 NOSIG
ZHCC,2021-12-16 04:00,ZHCC 160400Z 33006MPS CAVOK 14/M07 Q1025 NOSIG
ZHCC,2021-12-16 05:00,ZHCC 160500Z 33006MPS 290V350 CAVOK 14/M07 Q1025 NOSIG
ZHCC,2021-12-16 06:00,ZHCC 160600Z 32004MPS 300V360 CAVOK 13/M07 Q1024 NOSIG
ZHCC,2021-12-16 07:00,ZHCC 160700Z 31005MPS CAVOK 13/M09 Q1025 NOSIG
ZHCC,2021-12-16 08:00,ZHCC 160800Z 30005MPS CAVOK 12/M08 Q1025 NOSIG
ZHCC,2021-12-16 09:00,ZHCC 160900Z 30005MPS 270V330 CAVOK 11/M07 Q1026 NOSIG
ZHCC,2021-12-16 10:00,ZHCC 161000Z 30006MPS CAVOK 10/M07 Q1027 NOSIG
ZHCC,2021-12-16 11:00,ZHCC 161100Z 29006MPS CAVOK 10/M09 Q1028 NOSIG
ZHCC,2021-12-16 12:00,ZHCC 161200Z 30007MPS CAVOK 09/M10 Q1029 NOSIG
ZHCC,2021-12-16 13:00,ZHCC 161300Z 30007MPS CAVOK 08/M09 Q1030 NOSIG
ZHCC,2021-12-16 14:00,ZHCC 161400Z 30006MPS CAVOK 07/M10 Q1031 NOSIG
ZHCC,2021-12-16 15:00,ZHCC 161500Z 32006MPS CAVOK 07/M11 Q1032 NOSIG
ZHCC,2021-12-16 16:00,ZHCC 161600Z 32005MPS CAVOK 06/M13 Q1032 NOSIG
ZHCC,2021-12-16 17:00,ZHCC 161700Z 28004MPS CAVOK 05/M12 Q1032 NOSIG
ZHCC,2021-12-16 18:00,ZHCC 161800Z 29005MPS CAVOK 06/M13 Q1032 NOSIG
ZHCC,2021-12-16 19:00,ZHCC 161900Z 30004MPS 270V330 CAVOK 04/M13 Q1033 NOSIG
ZHCC,2021-12-16 20:00,ZHCC 162000Z 29006MPS CAVOK 05/M12 Q1033 NOSIG
ZHCC,2021-12-16 21:00,ZHCC 162100Z 30005MPS CAVOK 04/M12 Q1034 NOSIG
ZHCC,2021-12-16 22:00,ZHCC 162200Z 28006MPS CAVOK 04/M15 Q1034 NOSIG
ZHCC,2021-12-16 23:00,ZHCC 162300Z 31006MPS CAVOK 04/M17 Q1035 NOSIG
ZHCC,2021-12-17 00:00,ZHCC 170000Z 32007MPS CAVOK 03/M18 Q1036 NOSIG
ZHCC,2021-12-17 01:00,ZHCC 170100Z 34006MPS CAVOK 04/M19 Q1037 NOSIG
ZHCC,2021-12-17 02:00,ZHCC 170200Z 01006MPS 330V040 CAVOK 04/M15 Q1038 NOSIG
ZHCC,2021-12-17 03:00,ZHCC 170300Z 05006MPS 020V080 CAVOK 03/M14 Q1039 NOSIG
ZHCC,2021-12-17 04:00,ZHCC 170400Z 05005MPS CAVOK 03/M14 Q1038 NOSIG
ZHCC,2021-12-17 05:00,ZHCC 170500Z 06003MPS 030V090 CAVOK 03/M14 Q1038 NOSIG
ZHCC,2021-12-17 06:00,ZHCC 170600Z 03003MPS 340V090 CAVOK 03/M14 Q1037 NOSIG
ZHCC,2021-12-17 07:00,ZHCC 170700Z 07003MPS 030V100 CAVOK 03/M13 Q1036 NOSIG
ZHCC,2021-12-17 08:00,ZHCC 170800Z 05004MPS 020V080 CAVOK 03/M13 Q1035 NOSIG
ZHCC,2021-12-17 09:00,ZHCC 170900Z 07003MPS 040V100 CAVOK 02/M13 Q1035 NOSIG
ZHCC,2021-12-17 10:00,ZHCC 171000Z VRB01MPS CAVOK 01/M13 Q1036 NOSIG
ZHCC,2021-12-17 11:00,ZHCC 171100Z VRB01MPS CAVOK 01/M12 Q1035 NOSIG
ZHCC,2021-12-17 12:00,ZHCC 171200Z VRB01MPS CAVOK M01/M10 Q1036 NOSIG
ZHCC,2021-12-17 13:00,ZHCC 171300Z VRB01MPS CAVOK M02/M10 Q1036 NOSIG
ZHCC,2021-12-17 14:00,ZHCC 171400Z 19001MPS CAVOK M02/M10 Q1036 NOSIG
ZHCC,2021-12-17 15:00,ZHCC 171500Z 20001MPS CAVOK M01/M10 Q1036 NOSIG
ZHCC,2021-12-17 16:00,ZHCC 171600Z 20002MPS 160V230 CAVOK M01/M10 Q1035 NOSIG
ZHCC,2021-12-17 17:00,ZHCC 171700Z 20002MPS CAVOK M01/M10 Q1035 NOSIG
ZHCC,2021-12-17 18:00,ZHCC 171800Z 21003MPS 190V250 CAVOK M00/M10 Q1034 NOSIG
ZHCC,2021-12-17 19:00,ZHCC 171900Z 21003MPS 170V240 CAVOK M00/M10 Q1033 NOSIG
ZHCC,2021-12-17 20:00,ZHCC 172000Z 22002MPS 200V260 CAVOK M00/M10 Q1033 NOSIG
ZHCC,2021-12-17 21:00,ZHCC 172100Z 24003MPS 210V270 CAVOK 00/M11 Q1032 NOSIG
ZHCC,2021-12-17 22:00,ZHCC 172200Z 23002MPS 200V260 CAVOK 00/M11 Q1031 NOSIG
ZHCC,2021-12-17 23:00,ZHCC 172300Z 23002MPS CAVOK 00/M11 Q1031 NOSIG
ZHCC,2021-12-18 00:00,ZHCC 180000Z VRB01MPS CAVOK 00/M11 Q1031 NOSIG
ZHCC,2021-12-18 01:00,ZHCC 180100Z 24002MPS CAVOK 02/M11 Q1031 NOSIG
ZHCC,2021-12-18 02:00,ZHCC 180200Z 27005MPS CAVOK 06/M11 Q1031 NOSIG
ZHCC,2021-12-18 03:00,ZHCC 180300Z 28006MPS 250V320 CAVOK 08/M11 Q1031 NOSIG
ZHCC,2021-12-18 04:00,ZHCC 180400Z 29008MPS CAVOK 09/M13 Q1030 NOSIG
ZHCC,2021-12-18 05:00,ZHCC 180500Z 29007MPS CAVOK 09/M12 Q1029 NOSIG
ZHCC,2021-12-18 06:00,ZHCC 180600Z 28008MPS CAVOK 10/M12 Q1028 NOSIG
ZHCC,2021-12-18 07:00,ZHCC 180700Z 30006MPS CAVOK 10/M12 Q1027 NOSIG
ZHCC,2021-12-18 08:00,ZHCC 180800Z 28004MPS CAVOK 10/M10 Q1027 NOSIG
ZHCC,2021-12-18 09:00,ZHCC 180900Z 28003MPS CAVOK 08/M10 Q1027 NOSIG
ZHCC,2021-12-18 10:00,ZHCC 181000Z 26003MPS CAVOK 06/M10 Q1027 NOSIG
ZHCC,2021-12-18 11:00,ZHCC 181100Z 26005MPS 230V290 CAVOK 08/M11 Q1027 NOSIG
ZHCC,2021-12-18 12:00,ZHCC 181200Z 25005MPS CAVOK 08/M11 Q1027 NOSIG
ZHCC,2021-12-18 13:00,ZHCC 181300Z 26003MPS CAVOK 07/M10 Q1028 NOSIG
ZHCC,2021-12-18 14:00,ZHCC 181400Z 00000MPS CAVOK 03/M10 Q1028 NOSIG
ZHCC,2021-12-18 15:00,ZHCC 181500Z VRB01MPS CAVOK 00/M08 Q1028 NOSIG
ZHCC,2021-12-18 16:00,ZHCC 181600Z VRB01MPS CAVOK M00/M08 Q1028 NOSIG
ZHCC,2021-12-18 17:00,ZHCC 181700Z 25003MPS 210V290 CAVOK 06/M10 Q1028 NOSIG
ZHCC,2021-12-18 18:00,ZHCC 181800Z 27002MPS CAVOK 04/M10 Q1027 NOSIG
ZHCC,2021-12-18 19:00,ZHCC 181900Z VRB01MPS CAVOK 02/M09 Q1027 NOSIG
ZHCC,2021-12-18 20:00,ZHCC 182000Z 19002MPS 150V230 CAVOK 02/M08 Q1026 NOSIG
ZHCC,2021-12-18 21:00,ZHCC 182100Z VRB01MPS CAVOK M02/M08 Q1025 NOSIG
ZHCC,2021-12-18 22:00,ZHCC 182200Z VRB01MPS CAVOK M00/M07 Q1025 NOSIG
ZHCC,2021-12-18 23:00,ZHCC 182300Z VRB01MPS CAVOK M01/M07 Q1025 NOSIG
ZHCC,2021-12-19 00:00,ZHCC 190000Z 25003MPS CAVOK 03/M08 Q1025 NOSIG
ZHCC,2021-12-19 01:00,ZHCC 190100Z 24002MPS 190V280 CAVOK 07/M08 Q1025 NOSIG
ZHCC,2021-12-19 02:00,ZHCC 190200Z 28003MPS 240V300 CAVOK 10/M08 Q1025 NOSIG
ZHCC,2021-12-19 03:00,ZHCC 190300Z 26005MPS CAVOK 13/M10 Q1025 NOSIG
ZHCC,2021-12-19 04:00,ZHCC 190400Z 26005MPS 220V290 CAVOK 14/M10 Q1023 NOSIG
ZHCC,2021-12-19 05:00,ZHCC 190500Z 27006MPS 240V300 CAVOK 15/M12 Q1022 NOSIG
ZHCC,2021-12-19 06:00,ZHCC 190600Z 25005MPS 230V290 CAVOK 16/M13 Q1021 NOSIG
ZHCC,2021-12-19 07:00,ZHCC 190700Z 25004MPS 200V290 CAVOK 16/M12 Q1020 NOSIG
ZHCC,2021-12-19 08:00,ZHCC 190800Z 28004MPS 250V310 CAVOK 15/M12 Q1020 NOSIG
ZHCC,2021-12-19 09:00,ZHCC 190900Z 23003MPS CAVOK 13/M10 Q1019 NOSIG
ZHCC,2021-12-19 10:00,ZHCC 191000Z 21003MPS 180V240 CAVOK 12/M07 Q1020 NOSIG
ZHCC,2021-12-19 11:00,ZHCC 191100Z 20003MPS 170V230 CAVOK 11/M07 Q1020 NOSIG
ZHCC,2021-12-19 12:00,ZHCC 191200Z 22004MPS CAVOK 10/M05 Q1020 NOSIG
ZHCC,2021-12-19 13:00,ZHCC 191300Z 23003MPS CAVOK 09/M05 Q1020 NOSIG
ZHCC,2021-12-19 14:00,ZHCC 191400Z 23002MPS CAVOK 08/M05 Q1021 NOSIG
ZHCC,2021-12-19 15:00,ZHCC 191500Z 26002MPS CAVOK 07/M06 Q1020 NOSIG
ZHCC,2021-12-19 16:00,ZHCC 191600Z 26003MPS CAVOK 08/M08 Q1020 NOSIG
ZHCC,2021-12-19 17:00,ZHCC 191700Z 26004MPS CAVOK 08/M09 Q1019 NOSIG
ZHCC,2021-12-19 18:00,ZHCC 191800Z 25005MPS CAVOK 08/M10 Q1019 NOSIG
ZHCC,2021-12-19 19:00,ZHCC 191900Z 23002MPS 200V260 CAVOK 06/M10 Q1018 NOSIG
ZHCC,2021-12-19 20:00,ZHCC 192000Z 26003MPS CAVOK 06/M10 Q1018 NOSIG
ZHCC,2021-12-19 21:00,ZHCC 192100Z 25002MPS CAVOK 06/M10 Q1017 NOSIG
ZHCC,2021-12-19 22:00,ZHCC 192200Z 25003MPS CAVOK 06/M10 Q1017 NOSIG
ZHCC,2021-12-19 23:00,ZHCC 192300Z 25002MPS 220V280 CAVOK 07/M10 Q1018 NOSIG
ZHCC,2021-12-20 00:00,ZHCC 200000Z 25004MPS CAVOK 08/M09 Q1018 NOSIG
ZHCC,2021-12-20 01:00,ZHCC 200100Z 25004MPS CAVOK 10/M09 Q1018 NOSIG
ZHCC,2021-12-20 02:00,ZHCC 200200Z 24003MPS 200V260 CAVOK 12/M09 Q1019 NOSIG
ZHCC,2021-12-20 03:00,ZHCC 200300Z 25004MPS 220V290 CAVOK 15/M10 Q1019 NOSIG
ZHCC,2021-12-20 04:00,ZHCC 200400Z 25004MPS 200V290 CAVOK 16/M08 Q1017 NOSIG
ZHCC,2021-12-20 05:00,ZHCC 200500Z 25005MPS 210V290 CAVOK 17/M10 Q1016 NOSIG
ZHCC,2021-12-20 06:00,ZHCC 200600Z 30008MPS CAVOK 17/M13 Q1015 NOSIG
ZHCC,2021-12-20 07:00,ZHCC 200700Z 28006MPS CAVOK 18/M11 Q1015 NOSIG
ZHCC,2021-12-20 08:00,ZHCC 200800Z 28005MPS CAVOK 17/M12 Q1015 NOSIG
ZHCC,2021-12-20 09:00,ZHCC 200900Z 28003MPS CAVOK 14/M10 Q1015 NOSIG
ZHCC,2021-12-20 10:00,ZHCC 201000Z 25004MPS CAVOK 13/M13 Q1015 NOSIG
ZHCC,2021-12-20 11:00,ZHCC 201100Z 25004MPS CAVOK 13/M12 Q1015 NOSIG
ZHCC,2021-12-20 12:00,ZHCC 201200Z 21002MPS 190V250 CAVOK 12/M12 Q1016 NOSIG
ZHCC,2021-12-20 13:00,ZHCC 201300Z 21003MPS CAVOK 12/M12 Q1017 NOSIG
ZHCC,2021-12-20 14:00,ZHCC 201400Z 23003MPS CAVOK 11/M11 Q1017 NOSIG
ZHCC,2021-12-20 15:00,ZHCC 201500Z 27002MPS CAVOK 07/M11 Q1017 NOSIG
ZHCC,2021-12-20 16:00,ZHCC 201600Z VRB01MPS CAVOK 05/M10 Q1017 NOSIG
ZHCC,2021-12-20 17:00,ZHCC 201700Z 27003MPS CAVOK 09/M11 Q1017 NOSIG
ZHCC,2021-12-20 18:00,ZHCC 201800Z 28004MPS CAVOK 07/M11 Q1017 NOSIG
ZHCC,2021-12-20 19:00,ZHCC 201900Z 29003MPS CAVOK 08/M12 Q1017 NOSIG
ZHCC,2021-12-20 20:00,ZHCC 202000Z 15001MPS CAVOK 04/M10 Q1017 NOSIG
ZHCC,2021-12-20 21:00,ZHCC 202100Z 25003MPS CAVOK M01/M08 Q1016 NOSIG
ZHCC,2021-12-20 22:00,ZHCC 202200Z 30003MPS CAVOK 05/M11 Q1017 NOSIG
ZHCC,2021-12-20 23:00,ZHCC 202300Z 27002MPS CAVOK 00/M09 Q1017 NOSIG
ZHCC,2021-12-21 00:00,ZHCC 210000Z 27001MPS CAVOK 01/M09 Q1018 NOSIG
ZHCC,2021-12-21 01:00,ZHCC 210100Z VRB01MPS CAVOK 09/M06 Q1019 NOSIG
ZHCC,2021-12-21 02:00,ZHCC 210200Z 34003MPS CAVOK 14/M11 Q1020 NOSIG
ZHCC,2021-12-21 03:00,ZHCC 210300Z 33004MPS CAVOK 16/M10 Q1020 NOSIG
ZHCC,2021-12-21 04:00,ZHCC 210400Z 34003MPS 300V010 CAVOK 16/M11 Q1019 NOSIG
ZHCC,2021-12-21 05:00,ZHCC 210500Z VRB02MPS CAVOK 17/M12 Q1018 NOSIG
ZHCC,2021-12-21 06:00,ZHCC 210600Z 01003MPS 320V050 CAVOK 17/M11 Q1017 NOSIG
ZHCC,2021-12-21 07:00,ZHCC 210700Z 33002MPS 290V050 CAVOK 18/M11 Q1017 NOSIG
ZHCC,2021-12-21 08:00,ZHCC 210800Z VRB01MPS CAVOK 16/M10 Q1017 NOSIG
ZHCC,2021-12-21 09:00,ZHCC 210900Z 12002MPS CAVOK 13/M08 Q1017 NOSIG
ZHCC,2021-12-21 10:00,ZHCC 211000Z VRB01MPS CAVOK 08/M07 Q1018 NOSIG
ZHCC,2021-12-21 11:00,ZHCC 211100Z 17001MPS CAVOK 08/M06 Q1018 NOSIG
ZHCC,2021-12-21 12:00,ZHCC 211200Z 14001MPS CAVOK 05/M05 Q1019 NOSIG
ZHCC,2021-12-21 13:00,ZHCC 211300Z 00000MPS CAVOK 05/M04 Q1019 NOSIG
ZHCC,2021-12-21 14:00,ZHCC 211400Z 18001MPS CAVOK 03/M04 Q1019 NOSIG
ZHCC,2021-12-21 15:00,ZHCC 211500Z 19001MPS CAVOK 03/M04 Q1019 NOSIG
ZHCC,2021-12-21 16:00,ZHCC 211600Z 20001MPS CAVOK 03/M04 Q1019 NOSIG
ZHCC,2021-12-21 17:00,ZHCC 211700Z VRB01MPS CAVOK 03/M04 Q1019 NOSIG
ZHCC,2021-12-21 18:00,ZHCC 211800Z 00000MPS CAVOK 01/M03 Q1019 NOSIG
ZHCC,2021-12-21 19:00,ZHCC 211900Z 29002MPS CAVOK 03/M03 Q1019 NOSIG
ZHCC,2021-12-21 20:00,ZHCC 212000Z 31002MPS CAVOK 01/M05 Q1019 NOSIG
ZHCC,2021-12-21 21:00,ZHCC 212100Z 31003MPS CAVOK 04/M05 Q1020 NOSIG
ZHCC,2021-12-21 22:00,ZHCC 212200Z VRB01MPS CAVOK 04/M06 Q1020 NOSIG
ZHCC,2021-12-21 23:00,ZHCC 212300Z 34004MPS CAVOK 04/M03 Q1021 NOSIG
ZHCC,2021-12-22 00:00,ZHCC 220000Z 34002MPS 300V050 4000 HZ NSC 02/M04 Q1022 NOSIG
ZHCC,2021-12-22 01:00,ZHCC 220100Z 01004MPS 340V040 4000 HZ NSC 05/M02 Q1023 NOSIG
ZHCC,2021-12-22 02:00,ZHCC 220200Z 01005MPS 350V050 4000 HZ NSC 06/M02 Q1024 NOSIG
ZHCC,2021-12-22 03:00,ZHCC 220300Z 02004MPS 350V050 4000 HZ NSC 07/M01 Q1024 NOSIG
ZHCC,2021-12-22 04:00,ZHCC 220400Z 02004MPS 4000 HZ NSC 08/M01 Q1023 NOSIG
ZHCC,2021-12-22 05:00,ZHCC 220500Z 01004MPS 350V060 4000 HZ NSC 09/M00 Q1022 NOSIG
ZHCC,2021-12-22 06:00,ZHCC 220600Z 36004MPS 330V030 4000 HZ NSC 10/00 Q1022 NOSIG
ZHCC,2021-12-22 07:00,ZHCC 220700Z 03004MPS 4000 HZ NSC 10/00 Q1021 NOSIG
ZHCC,2021-12-22 08:00,ZHCC 220800Z 04004MPS 4000 HZ NSC 09/00 Q1022 NOSIG
ZHCC,2021-12-22 09:00,ZHCC 220900Z VRB03G09MPS 4000 HZ NSC 08/01 Q1022 NOSIG
ZHCC,2021-12-22 10:00,ZHCC 221000Z 05004MPS 6000 NSC 06/01 Q1023 NOSIG
ZHCC,2021-12-22 11:00,ZHCC 221100Z 03004MPS 6000 NSC 05/01 Q1023 NOSIG
ZHCC,2021-12-22 12:00,ZHCC 221200Z 03004MPS 360V060 6000 NSC 05/01 Q1023 NOSIG
ZHCC,2021-12-22 13:00,ZHCC 221300Z 02004MPS 6000 NSC 04/00 Q1024 NOSIG
ZHCC,2021-12-22 14:00,ZHCC 221400Z 01003MPS 340V040 6000 NSC 04/00 Q1024 NOSIG
ZHCC,2021-12-22 15:00,ZHCC 221500Z 01003MPS 6000 NSC 04/00 Q1024 NOSIG
ZHCC,2021-12-22 16:00,ZHCC 221600Z 02003MPS 350V050 6000 NSC 03/00 Q1024 NOSIG
ZHCC,2021-12-22 17:00,ZHCC 221700Z 02003MPS 340V040 5000 BR NSC 03/M00 Q1023 NOSIG
ZHCC,2021-12-22 18:00,ZHCC 221800Z 36003MPS 5000 BR NSC 02/M00 Q1024 NOSIG
ZHCC,2021-12-22 19:00,ZHCC 221900Z 35003MPS 300V030 5000 BR NSC 01/M01 Q1023 NOSIG
ZHCC,2021-12-22 20:00,ZHCC 222000Z 01003MPS 340V040 5000 BR NSC 02/M00 Q1023 NOSIG
ZHCC,2021-12-22 21:00,ZHCC 222100Z 32002MPS 280V010 5000 BR NSC 00/M01 Q1024 NOSIG
ZHCC,2021-12-22 22:00,ZHCC 222200Z 01003MPS 4000 BR NSC 02/M00 Q1023 BECMG TL2340 2500
ZHCC,2021-12-22 23:00,ZHCC 222300Z 01004MPS 4000 BR NSC 02/M00 Q1023 BECMG TL0040 2500
ZHCC,2021-12-23 00:00,ZHCC 230000Z 01004MPS 340V040 2000 BR NSC 02/M00 Q1024 BECMG TL0140 3000
ZHCC,2021-12-23 01:00,ZHCC 230100Z 36004MPS 2000 BR OVC030 02/M00 Q1024 NOSIG
ZHCC,2021-12-23 02:00,ZHCC 230200Z 01004MPS 2000 BR OVC030 02/M00 Q1024 NOSIG
ZHCC,2021-12-23 03:00,ZHCC 230300Z 01004MPS 2000 BR OVC030 02/00 Q1024 BECMG TL0440 3000
ZHCC,2021-12-23 04:00,ZHCC 230400Z 36004MPS 2500 BR BKN030 03/00 Q1022 BECMG TL0540 3000
ZHCC,2021-12-23 05:00,ZHCC 230500Z 35004MPS 320V020 2500 BR BKN030 04/00 Q1022 BECMG TL0640 3000
ZHCC,2021-12-23 06:00,ZHCC 230600Z 36004MPS 3000 HZ BKN040 05/00 Q1021 NOSIG
ZHCC,2021-12-23 07:00,ZHCC 230700Z 36005MPS 3500 HZ NSC 06/M00 Q1021 NOSIG
ZHCC,2021-12-23 08:00,ZHCC 230800Z 01005MPS 3500 HZ NSC 05/M00 Q1021 NOSIG
ZHCC,2021-12-23 09:00,ZHCC 230900Z 03004MPS 3500 HZ NSC 05/M01 Q1021 NOSIG
ZHCC,2021-12-23 10:00,ZHCC 231000Z 03004MPS 360V060 5000 HZ NSC 05/M01 Q1022 NOSIG
ZHCC,2021-12-23 11:00,ZHCC 231100Z 03005MPS 5000 HZ NSC 04/M01 Q1022 NOSIG
ZHCC,2021-12-23 12:00,ZHCC 231200Z 03006MPS 010V070 5000 HZ NSC 04/M01 Q1023 NOSIG
ZHCC,2021-12-23 13:00,ZHCC 231300Z 03005MPS 360V060 5000 HZ NSC 03/M01 Q1024 NOSIG
ZHCC,2021-12-23 14:00,ZHCC 231400Z 03007MPS 5000 HZ NSC 03/M02 Q1025 NOSIG
ZHCC,2021-12-23 15:00,ZHCC 231500Z 03006MPS 360V060 5000 HZ OVC040 03/M02 Q1025 NOSIG
ZHCC,2021-12-23 16:00,ZHCC 231600Z 01005MPS 4000 -SN HZ OVC040 03/M02 Q1025 NOSIG
ZHCC,2021-12-23 17:00,ZHCC 231700Z 01006G11MPS 340V040 4000 -SN HZ OVC040 03/M02 Q1026 NOSIG
ZHCC,2021-12-23 18:00,ZHCC 231800Z 02007MPS 350V050 4000 -SN BR OVC030 03/M00 Q1026 NOSIG
ZHCC,2021-12-23 19:00,ZHCC 231900Z 01007MPS 4000 -SN BR OVC030 02/00 Q1026 NOSIG
ZHCC,2021-12-23 20:00,ZHCC 232000Z 02008G13MPS 350V050 8000 OVC030 02/M00 Q1027 NOSIG
ZHCC,2021-12-23 21:00,ZHCC 232100Z 01007G12MPS 340V040 8000 -SN OVC030 02/M01 Q1027 NOSIG
ZHCC,2021-12-23 22:00,ZHCC 232200Z 02007MPS 350V050 8000 -SN OVC030 01/M01 Q1028 NOSIG
ZHCC,2021-12-23 23:00,ZHCC 232300Z 03007G14MPS 340V050 8000 -SN OVC030 01/M02 Q1029 NOSIG
ZHCC,2021-12-24 00:00,ZHCC 240000Z 01009G14MPS 8000 -SN SCT007 OVC020 01/M03 Q1030 NOSIG
ZHCC,2021-12-24 01:00,ZHCC 240100Z 02008G14MPS 350V050 8000 SCT007 OVC020 01/M03 Q1031 NOSIG
ZHCC,2021-12-24 02:00,ZHCC 240200Z 02008MPS 350V050 8000 SCT007 OVC020 M00/M04 Q1032 NOSIG
ZHCC,2021-12-24 03:00,ZHCC 240300Z 03008MPS 340V060 8000 SCT007 OVC020 00/M05 Q1033 NOSIG
ZHCC,2021-12-24 04:00,ZHCC 240400Z 01007MPS 350V060 8000 SCT007 OVC020 M00/M05 Q1033 NOSIG
ZHCC,2021-12-24 05:00,ZHCC 240500Z 02008MPS 350V070 8000 SCT010 OVC030 M01/M06 Q1033 NOSIG
ZHCC,2021-12-24 06:00,ZHCC 240600Z 04007G12MPS 010V070 8000 SCT010 OVC030 M01/M06 Q1033 NOSIG
ZHCC,2021-12-24 07:00,ZHCC 240700Z 03008MPS 350V060 9999 SCT010 OVC030 M02/M07 Q1034 NOSIG
ZHCC,2021-12-24 08:00,ZHCC 240800Z 02006MPS 350V070 9999 FEW010 OVC040 M01/M07 Q1034 NOSIG
ZHCC,2021-12-24 09:00,ZHCC 240900Z 03006MPS 360V060 9999 FEW010 OVC040 M02/M07 Q1035 NOSIG
ZHCC,2021-12-24 10:00,ZHCC 241000Z 04006MPS 010V070 9999 OVC040 M02/M08 Q1036 NOSIG
ZHCC,2021-12-24 11:00,ZHCC 241100Z 03006MPS 9999 OVC030 M02/M08 Q1038 NOSIG
ZHCC,2021-12-24 12:00,ZHCC 241200Z 03006MPS 9999 OVC030 M03/M07 Q1038 NOSIG
ZHCC,2021-12-24 13:00,ZHCC 241300Z 03005MPS 350V070 9999 OVC030 M03/M07 Q1039 NOSIG
ZHCC,2021-12-24 14:00,ZHCC 241400Z 03006MPS 9999 OVC030 M03/M08 Q1039 NOSIG
ZHCC,2021-12-24 15:00,ZHCC 241500Z 04006MPS 9999 OVC040 M03/M09 Q1040 NOSIG
ZHCC,2021-12-24 16:00,ZHCC 241600Z 03005MPS 350V050 9999 OVC040 M03/M10 Q1040 NOSIG
ZHCC,2021-12-24 17:00,ZHCC 241700Z 02004MPS 350V060 9999 OVC040 M03/M10 Q1040 NOSIG
ZHCC,2021-12-24 18:00,ZHCC 241800Z 03005MPS 360V060 9999 OVC040 M04/M11 Q1041 NOSIG
ZHCC,2021-12-24 19:00,ZHCC 241900Z 04005MPS 9999 OVC040 M04/M13 Q1041 NOSIG
ZHCC,2021-12-24 20:00,ZHCC 242000Z 03005MPS 9999 OVC040 M04/M13 Q1041 NOSIG
ZHCC,2021-12-24 21:00,ZHCC 242100Z 03005MPS 9999 OVC040 M05/M15 Q1041 NOSIG
ZHCC,2021-12-24 22:00,ZHCC 242200Z 03005MPS 350V050 9999 OVC040 M05/M15 Q1042 NOSIG
ZHCC,2021-12-24 23:00,ZHCC 242300Z 04005MPS 010V070 9999 OVC040 M05/M14 Q1042 NOSIG
ZHCC,2021-12-25 00:00,ZHCC 250000Z 04005MPS CAVOK M05/M15 Q1043 NOSIG
ZHCC,2021-12-25 01:00,ZHCC 250100Z 03005MPS 360V060 CAVOK M04/M16 Q1043 NOSIG
ZHCC,2021-12-25 02:00,ZHCC 250200Z 03005MPS 010V070 CAVOK M04/M17 Q1044 NOSIG
ZHCC,2021-12-25 03:00,ZHCC 250300Z 06005MPS 030V090 CAVOK M04/M17 Q1044 NOSIG
ZHCC,2021-12-25 04:00,ZHCC 250400Z 05004MPS 020V080 CAVOK M04/M17 Q1043 NOSIG
ZHCC,2021-12-25 05:00,ZHCC 250500Z 04004MPS 010V070 CAVOK M03/M16 Q1043 NOSIG
ZHCC,2021-12-25 06:00,ZHCC 250600Z 04004MPS 350V080 CAVOK M03/M16 Q1042 NOSIG
ZHCC,2021-12-25 07:00,ZHCC 250700Z 06004MPS 360V090 CAVOK M03/M16 Q1043 NOSIG
ZHCC,2021-12-25 08:00,ZHCC 250800Z 04004MPS 350V080 CAVOK M03/M17 Q1043 NOSIG
ZHCC,2021-12-25 09:00,ZHCC 250900Z 06004MPS CAVOK M04/M17 Q1043 NOSIG
ZHCC,2021-12-25 10:00,ZHCC 251000Z 04004MPS 020V080 CAVOK M04/M16 Q1044 NOSIG
ZHCC,2021-12-25 11:00,ZHCC 251100Z 05004MPS 020V080 CAVOK M04/M15 Q1045 NOSIG
ZHCC,2021-12-25 12:00,ZHCC 251200Z 04003MPS CAVOK M05/M15 Q1045 NOSIG
ZHCC,2021-12-25 13:00,ZHCC 251300Z 03003MPS 350V060 CAVOK M04/M15 Q1045 NOSIG
ZHCC,2021-12-25 14:00,ZHCC 251400Z 02003MPS 360V070 CAVOK M05/M15 Q1045 NOSIG
ZHCC,2021-12-25 15:00,ZHCC 251500Z 05002MPS 020V080 CAVOK M05/M15 Q1046 NOSIG
ZHCC,2021-12-25 16:00,ZHCC 251600Z 12001MPS CAVOK M06/M14 Q1046 NOSIG
ZHCC,2021-12-25 17:00,ZHCC 251700Z VRB01MPS CAVOK M07/M14 Q1046 NOSIG
ZHCC,2021-12-25 18:00,ZHCC 251800Z 00000MPS CAVOK M06/M14 Q1046 NOSIG
ZHCC,2021-12-25 19:00,ZHCC 251900Z VRB01MPS CAVOK M06/M13 Q1046 NOSIG
ZHCC,2021-12-25 20:00,ZHCC 252000Z 15001MPS CAVOK M07/M13 Q1045 NOSIG
ZHCC,2021-12-25 21:00,ZHCC 252100Z 13001MPS CAVOK M07/M14 Q1045 NOSIG
ZHCC,2021-12-25 22:00,ZHCC 252200Z 16001MPS CAVOK M08/M13 Q1045 NOSIG
ZHCC,2021-12-25 23:00,ZHCC 252300Z 00000MPS CAVOK M09/M13 Q1045 NOSIG
ZHCC,2021-12-26 00:00,ZHCC 260000Z 20001MPS CAVOK M08/M13 Q1045 NOSIG
ZHCC,2021-12-26 01:00,ZHCC 260100Z 20002MPS 150V240 CAVOK M05/M12 Q1045 NOSIG
ZHCC,2021-12-26 02:00,ZHCC 260200Z 18002MPS 130V230 CAVOK M04/M12 Q1046 NOSIG
ZHCC,2021-12-26 03:00,ZHCC 260300Z 21002MPS 150V270 CAVOK M02/M12 Q1045 NOSIG
ZHCC,2021-12-26 04:00,ZHCC 260400Z 25002MPS 180V300 CAVOK M01/M12 Q1044 NOSIG
ZHCC,2021-12-26 05:00,ZHCC 260500Z 32004MPS 260V030 CAVOK 01/M19 Q1042 NOSIG
ZHCC,2021-12-26 06:00,ZHCC 260600Z 33004MPS 300V360 CAVOK 02/M18 Q1041 NOSIG
ZHCC,2021-12-26 07:00,ZHCC 260700Z 32004MPS 290V360 CAVOK 02/M20 Q1040 NOSIG
ZHCC,2021-12-26 08:00,ZHCC 260800Z 33003MPS 260V360 CAVOK 02/M19 Q1040 NOSIG
ZHCC,2021-12-26 09:00,ZHCC 260900Z 31002MPS CAVOK M00/M16 Q1040 NOSIG
ZHCC,2021-12-26 10:00,ZHCC 261000Z 17001MPS CAVOK M02/M15 Q1041 NOSIG
ZHCC,2021-12-26 11:00,ZHCC 261100Z 16001MPS CAVOK M05/M12 Q1041 NOSIG
ZHCC,2021-12-26 12:00,ZHCC 261200Z 00000MPS CAVOK M07/M13 Q1041 NOSIG
ZHCC,2021-12-26 13:00,ZHCC 261300Z 20001MPS CAVOK M06/M14 Q1040 NOSIG
ZHCC,2021-12-26 14:00,ZHCC 261400Z 19002MPS 160V220 CAVOK M03/M13 Q1040 NOSIG
ZHCC,2021-12-26 15:00,ZHCC 261500Z 19002MPS CAVOK M03/M12 Q1040 NOSIG
ZHCC,2021-12-26 16:00,ZHCC 261600Z 20002MPS CAVOK M03/M11 Q1039 NOSIG
ZHCC,2021-12-26 17:00,ZHCC 261700Z 21002MPS CAVOK M06/M12 Q1039 NOSIG
ZHCC,2021-12-26 18:00,ZHCC 261800Z VRB01MPS CAVOK M08/M12 Q1038 NOSIG
ZHCC,2021-12-26 19:00,ZHCC 261900Z 00000MPS CAVOK M08/M12 Q1038 NOSIG
ZHCC,2021-12-26 20:00,ZHCC 262000Z 00000MPS CAVOK M10/M12 Q1037 NOSIG
ZHCC,2021-12-26 21:00,ZHCC 262100Z 19001MPS 8000 NSC M10/M12 Q1037 NOSIG
ZHCC,2021-12-26 22:00,ZHCC 262200Z 00000MPS 8000 NSC M08/M11 Q1037 NOSIG
ZHCC,2021-12-26 23:00,ZHCC 262300Z VRB01MPS 7000 NSC M10/M12 Q1037 NOSIG
ZHCC,2021-12-27 00:00,ZHCC 270000Z 00000MPS 7000 NSC M09/M12 Q1037 NOSIG
ZHCC,2021-12-27 01:00,ZHCC 270100Z VRB01MPS 7000 NSC M03/M10 Q1037 NOSIG
ZHCC,2021-12-27 02:00,ZHCC 270200Z 26002MPS 220V290 8000 NSC M00/M14 Q1037 NOSIG
ZHCC,2021-12-27 03:00,ZHCC 270300Z 23002MPS 170V280 CAVOK 02/M17 Q1036 NOSIG
ZHCC,2021-12-27 04:00,ZHCC 270400Z 20002MPS 130V260 CAVOK 04/M17 Q1035 NOSIG
ZHCC,2021-12-27 05:00,ZHCC 270500Z 19002MPS 150V250 CAVOK 03/M18 Q1034 NOSIG
ZHCC,2021-12-27 06:00,ZHCC 270600Z 22002MPS 150V290 CAVOK 06/M16 Q1032 NOSIG
ZHCC,2021-12-27 07:00,ZHCC 270700Z 22002MPS 170V280 CAVOK 06/M17 Q1032 NOSIG
ZHCC,2021-12-27 08:00,ZHCC 270800Z 18003MPS 150V210 CAVOK 05/M16 Q1032 NOSIG
ZHCC,2021-12-27 09:00,ZHCC 270900Z 17003MPS 140V200 CAVOK 04/M17 Q1032 NOSIG
ZHCC,2021-12-27 10:00,ZHCC 271000Z VRB01MPS CAVOK 02/M16 Q1032 NOSIG
ZHCC,2021-12-27 11:00,ZHCC 271100Z 18003MPS 140V210 CAVOK 03/M13 Q1032 NOSIG
ZHCC,2021-12-27 12:00,ZHCC 271200Z 19002MPS 150V220 CAVOK 01/M08 Q1032 NOSIG
ZHCC,2021-12-27 13:00,ZHCC 271300Z 19002MPS 160V230 CAVOK 01/M08 Q1031 NOSIG
ZHCC,2021-12-27 14:00,ZHCC 271400Z 18003MPS 140V220 CAVOK 00/M08 Q1031 NOSIG
ZHCC,2021-12-27 15:00,ZHCC 271500Z 19003MPS 160V220 CAVOK 00/M08 Q1031 NOSIG
ZHCC,2021-12-27 16:00,ZHCC 271600Z 20002MPS 170V230 CAVOK M00/M07 Q1031 NOSIG
ZHCC,2021-12-27 17:00,ZHCC 271700Z 20002MPS CAVOK M01/M07 Q1030 NOSIG
ZHCC,2021-12-27 18:00,ZHCC 271800Z VRB01MPS 8000 NSC M02/M07 Q1029 NOSIG
ZHCC,2021-12-27 19:00,ZHCC 271900Z 19002MPS 160V220 8000 NSC M00/M06 Q1029 NOSIG
ZHCC,2021-12-27 20:00,ZHCC 272000Z 19001MPS 8000 NSC M00/M06 Q1028 NOSIG
ZHCC,2021-12-27 21:00,ZHCC 272100Z 19002MPS 8000 NSC M00/M06 Q1028 NOSIG
ZHCC,2021-12-27 22:00,ZHCC 272200Z 18002MPS 150V220 8000 NSC M00/M06 Q1027 NOSIG
ZHCC,2021-12-27 23:00,ZHCC 272300Z 18002MPS 8000 NSC M01/M06 Q1027 NOSIG
ZHCC,2021-12-28 00:00,ZHCC 280000Z 19002MPS 160V220 6000 NSC M01/M06 Q1027 NOSIG
ZHCC,2021-12-28 01:00,ZHCC 280100Z 20002MPS 6000 NSC 00/M06 Q1027 NOSIG
ZHCC,2021-12-28 02:00,ZHCC 280200Z 20002MPS 160V240 8000 NSC 03/M09 Q1027 NOSIG
ZHCC,2021-12-28 03:00,ZHCC 280300Z 25004MPS 210V280 CAVOK 05/M14 Q1027 NOSIG
ZHCC,2021-12-28 04:00,ZHCC 280400Z 24003MPS 180V280 CAVOK 08/M14 Q1025 NOSIG
ZHCC,2021-12-28 05:00,ZHCC 280500Z 26003MPS 190V320 CAVOK 08/M16 Q1024 NOSIG
ZHCC,2021-12-28 06:00,ZHCC 280600Z 24004MPS 180V290 CAVOK 09/M16 Q1023 NOSIG
ZHCC,2021-12-28 07:00,ZHCC 280700Z 23004MPS 190V290 CAVOK 10/M16 Q1022 NOSIG
ZHCC,2021-12-28 08:00,ZHCC 280800Z 23003MPS 190V270 CAVOK 09/M16 Q1022 NOSIG
ZHCC,2021-12-28 09:00,ZHCC 280900Z 28002MPS 250V310 CAVOK 08/M15 Q1022 NOSIG
ZHCC,2021-12-28 10:00,ZHCC 281000Z 27002MPS CAVOK 05/M14 Q1023 NOSIG
ZHCC,2021-12-28 11:00,ZHCC 281100Z 28004MPS CAVOK 05/M13 Q1023 NOSIG
ZHCC,2021-12-28 12:00,ZHCC 281200Z 26004MPS CAVOK 05/M11 Q1024 NOSIG
ZHCC,2021-12-28 13:00,ZHCC 281300Z 27006MPS CAVOK 06/M12 Q1024 NOSIG
ZHCC,2021-12-28 14:00,ZHCC 281400Z 27004MPS CAVOK 05/M11 Q1025 NOSIG
ZHCC,2021-12-28 15:00,ZHCC 281500Z 28005MPS CAVOK 05/M11 Q1025 NOSIG
ZHCC,2021-12-28 16:00,ZHCC 281600Z 29005MPS CAVOK 04/M12 Q1025 NOSIG
ZHCC,2021-12-28 17:00,ZHCC 281700Z 29007MPS CAVOK 04/M12 Q1025 NOSIG
ZHCC,2021-12-28 18:00,ZHCC 281800Z 28005MPS CAVOK 03/M13 Q1026 NOSIG
ZHCC,2021-12-28 19:00,ZHCC 281900Z 29007MPS CAVOK 04/M13 Q1026 NOSIG
ZHCC,2021-12-28 20:00,ZHCC 282000Z 28005MPS CAVOK 03/M12 Q1026 NOSIG
ZHCC,2021-12-28 21:00,ZHCC 282100Z 29006MPS CAVOK 03/M13 Q1026 NOSIG
ZHCC,2021-12-28 22:00,ZHCC 282200Z 29006MPS CAVOK 03/M13 Q1026 NOSIG
ZHCC,2021-12-28 23:00,ZHCC 282300Z 29006MPS CAVOK 03/M13 Q1027 NOSIG
ZHCC,2021-12-29 00:00,ZHCC 290000Z 27003MPS CAVOK 02/M13 Q1028 NOSIG
ZHCC,2021-12-29 01:00,ZHCC 290100Z 30007G12MPS CAVOK 05/M14 Q1028 NOSIG
ZHCC,2021-12-29 02:00,ZHCC 290200Z 30008MPS CAVOK 06/M16 Q1029 NOSIG
ZHCC,2021-12-29 03:00,ZHCC 290300Z 30009MPS CAVOK 07/M16 Q1030 NOSIG
ZHCC,2021-12-29 04:00,ZHCC 290400Z 31009MPS CAVOK 08/M16 Q1029 NOSIG
ZHCC,2021-12-29 05:00,ZHCC 290500Z 31006G14MPS 260V350 CAVOK 08/M15 Q1029 NOSIG
ZHCC,2021-12-29 06:00,ZHCC 290600Z 32005MPS 270V340 CAVOK 09/M16 Q1028 NOSIG
ZHCC,2021-12-29 07:00,ZHCC 290700Z 31004MPS 270V340 CAVOK 09/M16 Q1029 NOSIG
ZHCC,2021-12-29 08:00,ZHCC 290800Z 30005MPS 270V340 CAVOK 09/M15 Q1029 NOSIG
ZHCC,2021-12-29 09:00,ZHCC 290900Z 28003MPS 260V320 CAVOK 07/M14 Q1029 NOSIG
ZHCC,2021-12-29 10:00,ZHCC 291000Z 30002MPS CAVOK 04/M14 Q1030 NOSIG
ZHCC,2021-12-29 11:00,ZHCC 291100Z 25001MPS CAVOK 02/M12 Q1030 NOSIG
ZHCC,2021-12-29 12:00,ZHCC 291200Z VRB01MPS CAVOK 02/M13 Q1030 NOSIG
ZHCC,2021-12-29 13:00,ZHCC 291300Z 29003MPS CAVOK M01/M11 Q1030 NOSIG
ZHCC,2021-12-29 14:00,ZHCC 291400Z 00000MPS CAVOK M02/M11 Q1031 NOSIG
ZHCC,2021-12-29 15:00,ZHCC 291500Z 24002MPS CAVOK 00/M13 Q1031 NOSIG
ZHCC,2021-12-29 16:00,ZHCC 291600Z 28002MPS CAVOK 00/M13 Q1031 NOSIG
ZHCC,2021-12-29 17:00,ZHCC 291700Z 30006MPS CAVOK 03/M13 Q1030 NOSIG
ZHCC,2021-12-29 18:00,ZHCC 291800Z 27002MPS 230V310 CAVOK 01/M14 Q1030 NOSIG
ZHCC,2021-12-29 19:00,ZHCC 291900Z 26002MPS CAVOK 01/M14 Q1030 NOSIG
ZHCC,2021-12-29 20:00,ZHCC 292000Z 28003MPS CAVOK M00/M12 Q1030 NOSIG
ZHCC,2021-12-29 21:00,ZHCC 292100Z 24002MPS CAVOK 01/M14 Q1030 NOSIG
ZHCC,2021-12-29 22:00,ZHCC 292200Z 26002MPS 200V300 CAVOK M04/M13 Q1031 NOSIG
ZHCC,2021-12-29 23:00,ZHCC 292300Z 25002MPS 210V270 CAVOK 01/M14 Q1031 NOSIG
ZHCC,2021-12-30 00:00,ZHCC 300000Z 26003MPS CAVOK 01/M13 Q1031 NOSIG
ZHCC,2021-12-30 01:00,ZHCC 300100Z 27003MPS CAVOK 04/M13 Q1032 NOSIG
ZHCC,2021-12-30 02:00,ZHCC 300200Z 30006MPS CAVOK 07/M16 Q1032 NOSIG
ZHCC,2021-12-30 03:00,ZHCC 300300Z 31007MPS CAVOK 09/M17 Q1032 NOSIG
ZHCC,2021-12-30 04:00,ZHCC 300400Z 30008MPS CAVOK 09/M18 Q1032 NOSIG
ZHCC,2021-12-30 05:00,ZHCC 300500Z 31007MPS 280V340 CAVOK 11/M19 Q1031 NOSIG
ZHCC,2021-12-30 06:00,ZHCC 300600Z 32007MPS CAVOK 11/M19 Q1030 NOSIG
ZHCC,2021-12-30 07:00,ZHCC 300700Z 31005MPS 270V340 CAVOK 11/M17 Q1030 NOSIG
ZHCC,2021-12-30 08:00,ZHCC 300800Z 32004MPS CAVOK 11/M16 Q1030 NOSIG
ZHCC,2021-12-30 09:00,ZHCC 300900Z 32003MPS CAVOK 09/M16 Q1030 NOSIG
ZHCC,2021-12-30 10:00,ZHCC 301000Z VRB01MPS CAVOK 05/M13 Q1030 NOSIG
ZHCC,2021-12-30 11:00,ZHCC 301100Z VRB01MPS CAVOK 01/M12 Q1031 NOSIG
ZHCC,2021-12-30 12:00,ZHCC 301200Z 19002MPS 140V230 CAVOK 04/M12 Q1032 NOSIG
ZHCC,2021-12-30 13:00,ZHCC 301300Z 00000MPS CAVOK 02/M11 Q1032 NOSIG
ZHCC,2021-12-30 14:00,ZHCC 301400Z VRB01MPS CAVOK M01/M10 Q1032 NOSIG
ZHCC,2021-12-30 15:00,ZHCC 301500Z 31001MPS CAVOK M01/M10 Q1032 NOSIG
ZHCC,2021-12-30 16:00,ZHCC 301600Z VRB01MPS CAVOK M03/M10 Q1032 NOSIG
ZHCC,2021-12-30 17:00,ZHCC 301700Z 26001MPS CAVOK M03/M10 Q1032 NOSIG
ZHCC,2021-12-30 18:00,ZHCC 301800Z 27001MPS CAVOK M04/M11 Q1032 NOSIG
ZHCC,2021-12-30 19:00,ZHCC 301900Z VRB01MPS CAVOK M02/M10 Q1032 NOSIG
ZHCC,2021-12-30 20:00,ZHCC 302000Z 27001MPS CAVOK M06/M11 Q1032 NOSIG
ZHCC,2021-12-30 21:00,ZHCC 302100Z 00000MPS CAVOK M03/M10 Q1032 NOSIG
ZHCC,2021-12-30 22:00,ZHCC 302200Z 28001MPS CAVOK M05/M10 Q1033 NOSIG
ZHCC,2021-12-30 23:00,ZHCC 302300Z 00000MPS CAVOK M04/M09 Q1033 NOSIG
