station,valid,metar
ZHCC,2023-01-01 00:00,ZHCC 010000Z 32002MPS 250V340 3000 HZ NSC M01/M05 Q1032 NOSIG
ZHCC,2023-01-01 01:00,ZHCC 010100Z 01002MPS 320V050 3000 HZ NSC 02/M04 Q1033 NOSIG
ZHCC,2023-01-01 02:00,ZHCC 010200Z 03003MPS 3000 HZ NSC 04/M05 Q1034 NOSIG
ZHCC,2023-01-01 03:00,ZHCC 010300Z 03003MPS 3000 HZ NSC 05/M05 Q1034 NOSIG
ZHCC,2023-01-01 04:00,ZHCC 010400Z 06002MPS 340V090 3000 HZ NSC 06/M05 Q1033 NOSIG
ZHCC,2023-01-01 05:00,ZHCC 010500Z 02002MPS 330V100 3000 HZ NSC 07/M06 Q1032 NOSIG
ZHCC,2023-01-01 06:00,ZHCC 010600Z 02002MPS 340V060 3000 HZ NSC 07/M06 Q1032 NOSIG
ZHCC,2023-01-01 07:00,ZHCC 010700Z 05002MPS 010V080 3000 HZ NSC 07/M06 Q1032 NOSIG
ZHCC,2023-01-01 08:00,ZHCC 010800Z 04002MPS 010V080 3000 HZ NSC 07/M06 Q1032 NOSIG
ZHCC,2023-01-01 09:00,ZHCC 010900Z 02002MPS 340V060 3000 HZ NSC 07/M06 Q1033 NOSIG
ZHCC,2023-01-01 10:00,ZHCC 011000Z 36002MPS 5000 HZ NSC 06/M05 Q1034 NOSIG
ZHCC,2023-01-01 11:00,ZHCC 011100Z 01002MPS 5000 HZ NSC 06/M06 Q1034 NOSIG
ZHCC,2023-01-01 12:00,ZHCC 011200Z 03002MPS 5000 HZ NSC 05/M07 Q1034 NOSIG
ZHCC,2023-01-01 13:00,ZHCC 011300Z 36002MPS 320V020 5000 HZ NSC 05/M08 Q1035 NOSIG
ZHCC,2023-01-01 14:00,ZHCC 011400Z 30002MPS 270V330 5000 HZ NSC 03/M07 Q1035 NOSIG
ZHCC,2023-01-01 15:00,ZHCC 011500Z 34002MPS 5000 HZ NSC 04/M08 Q1035 NOSIG
ZHCC,2023-01-01 16:00,ZHCC 011600Z 32002MPS 5000 HZ NSC 02/M08 Q1036 NOSIG
ZHCC,2023-01-01 17:00,ZHCC 011700Z 33002MPS 5000 HZ NSC 03/M08 Q1036 NOSIG
ZHCC,2023-01-01 18:00,ZHCC 011800Z 34002MPS 5000 HZ NSC 02/M08 Q1036 NOSIG
ZHCC,2023-01-01 19:00,ZHCC 011900Z VRB01MPS 5000 HZ NSC 02/M08 Q1036 NOSIG
ZHCC,2023-01-01 20:00,ZHCC 012000Z 31001MPS 5000 HZ NSC 00/M08 Q1035 NOSIG
ZHCC,2023-01-01 21:00,ZHCC 012100Z 32002MPS 5000 HZ NSC 01/M09 Q1035 NOSIG
ZHCC,2023-01-01 22:00,ZHCC 012200Z 33002MPS 5000 HZ NSC 01/M09 Q1035 NOSIG
ZHCC,2023-01-01 23:00,ZHCC 012300Z 32002MPS 5000 HZ NSC M00/M08 Q1036 NOSIG
ZHCC,2023-01-02 00:00,ZHCC 020000Z 33002MPS 4000 HZ NSC M00/M08 Q1036 NOSIG
ZHCC,2023-01-02 01:00,ZHCC 020100Z 01003MPS 3500 HZ NSC 02/M09 Q1037 NOSIG
ZHCC,2023-01-02 02:00,ZHCC 020200Z 04003MPS 330V070 3500 HZ NSC 02/M09 Q1037 NOSIG
ZHCC,2023-01-02 03:00,ZHCC 020300Z 02002MPS 320V070 3500 HZ NSC 03/M10 Q1037 NOSIG
ZHCC,2023-01-02 04:00,ZHCC 020400Z 33002MPS 280V010 3500 HZ NSC 05/M09 Q1036 NOSIG
ZHCC,2023-01-02 05:00,ZHCC 020500Z VRB01MPS 3500 HZ NSC 06/M09 Q1035 NOSIG
ZHCC,2023-01-02 06:00,ZHCC 020600Z VRB01MPS 3500 HZ NSC 07/M09 Q1034 NOSIG
ZHCC,2023-01-02 07:00,ZHCC 020700Z 03002MPS 340V070 3500 HZ NSC 07/M08 Q1034 NOSIG
ZHCC,2023-01-02 08:00,ZHCC 020800Z 06003MPS 040V100 3500 HZ NSC 06/M08 Q1033 NOSIG
ZHCC,2023-01-02 09:00,ZHCC 020900Z 05002MPS 030V100 3500 HZ NSC 05/M08 Q1033 NOSIG
ZHCC,2023-01-02 10:00,ZHCC 021000Z 06001MPS 4500 HZ NSC 04/M08 Q1034 NOSIG
ZHCC,2023-01-02 11:00,ZHCC 021100Z VRB01MPS 4500 HZ NSC 02/M07 Q1034 NOSIG
ZHCC,2023-01-02 12:00,ZHCC 021200Z 11001MPS 4500 HZ NSC 01/M07 Q1035 NOSIG
ZHCC,2023-01-02 13:00,ZHCC 021300Z VRB01MPS 4500 HZ NSC 00/M07 Q1035 NOSIG
ZHCC,2023-01-02 14:00,ZHCC 021400Z 28001MPS 4500 HZ NSC M01/M06 Q1035 NOSIG
ZHCC,2023-01-02 15:00,ZHCC 021500Z VRB01MPS 4500 HZ NSC M02/M07 Q1035 NOSIG
ZHCC,2023-01-02 16:00,ZHCC 021600Z 00000MPS 4000 HZ NSC M03/M07 Q1035 NOSIG
ZHCC,2023-01-02 17:00,ZHCC 021700Z 00000MPS 4000 HZ NSC M03/M07 Q1034 NOSIG
ZHCC,2023-01-02 18:00,ZHCC 021800Z 00000MPS 4000 HZ NSC M04/M07 Q1034 NOSIG
ZHCC,2023-01-02 19:00,ZHCC 021900Z 23001MPS 4000 HZ NSC M04/M07 Q1034 NOSIG
ZHCC,2023-01-02 20:00,ZHCC 022000Z 28001MPS 4000 HZ NSC M04/M08 Q1033 NOSIG
ZHCC,2023-01-02 21:00,ZHCC 022100Z 00000MPS 4000 HZ NSC M05/M08 Q1033 NOSIG
ZHCC,2023-01-02 22:00,ZHCC 022200Z 00000MPS 4000 HZ NSC M04/M08 Q1032 NOSIG
ZHCC,2023-01-02 23:00,ZHCC 022300Z 27001MPS 3500 HZ NSC M05/M08 Q1033 BECMG TL0040 2000
ZHCC,2023-01-03 00:00,ZHCC 030000Z VRB01MPS 2000 BR NSC M04/M07 Q1033 NOSIG
ZHCC,2023-01-03 01:00,ZHCC 030100Z 31001MPS 1600 BR NSC M02/M05 Q1033 NOSIG
ZHCC,2023-01-03 02:00,ZHCC 030200Z 00000MPS 2000 HZ NSC 04/M04 Q1033 BECMG TL0340 3000
ZHCC,2023-01-03 03:00,ZHCC 030300Z VRB01MPS 2500 HZ NSC 06/M04 Q1033 BECMG TL0340 3000
ZHCC,2023-01-03 04:00,ZHCC 030400Z 19003MPS 150V240 3000 HZ NSC 07/M04 Q1032 NOSIG
ZHCC,2023-01-03 05:00,ZHCC 030500Z 20002MPS 140V260 3000 HZ NSC 08/M04 Q1030 NOSIG
ZHCC,2023-01-03 06:00,ZHCC 030600Z 18003MPS 110V230 3000 HZ NSC 09/M03 Q1029 BECMG TL0740 2000
ZHCC,2023-01-03 07:00,ZHCC 030700Z 18003MPS 130V220 3000 HZ NSC 09/M03 Q1028 BECMG TL0740 2000
ZHCC,2023-01-03 08:00,ZHCC 030800Z 16002MPS 110V200 2500 HZ NSC 09/M02 Q1028 BECMG TL0940 3000
ZHCC,2023-01-03 09:00,ZHCC 030900Z VRB01MPS 2500 HZ NSC 08/M02 Q1028 BECMG TL0940 3000
ZHCC,2023-01-03 10:00,ZHCC 031000Z 17002MPS 3000 HZ NSC 06/M01 Q1028 NOSIG
ZHCC,2023-01-03 11:00,ZHCC 031100Z 18002MPS 120V220 3000 HZ NSC 06/M01 Q1028 NOSIG
ZHCC,2023-01-03 12:00,ZHCC 031200Z 18002MPS 140V210 3000 HZ NSC 05/M02 Q1029 NOSIG
ZHCC,2023-01-03 13:00,ZHCC 031300Z 18003MPS 140V210 3000 HZ NSC 06/M01 Q1029 NOSIG
ZHCC,2023-01-03 14:00,ZHCC 031400Z 19002MPS 160V230 3000 HZ NSC 05/M01 Q1029 NOSIG
ZHCC,2023-01-03 15:00,ZHCC 031500Z VRB01MPS 3000 HZ NSC 04/M01 Q1029 BECMG TL1640 2500
ZHCC,2023-01-03 16:00,ZHCC 031600Z 20003MPS 170V230 3000 HZ NSC 04/M02 Q1029 BECMG TL1640 2500
ZHCC,2023-01-03 17:00,ZHCC 031700Z 20002MPS 160V230 2800 HZ NSC 04/M03 Q1029 NOSIG
ZHCC,2023-01-03 18:00,ZHCC 031800Z 18003MPS 150V210 2800 HZ NSC 03/M03 Q1029 NOSIG
ZHCC,2023-01-03 19:00,ZHCC 031900Z 19002MPS 140V220 2800 HZ NSC 03/M03 Q1028 NOSIG
ZHCC,2023-01-03 20:00,ZHCC 032000Z 19001MPS 2800 HZ NSC 02/M03 Q1028 NOSIG
ZHCC,2023-01-03 21:00,ZHCC 032100Z VRB01MPS 2800 HZ NSC 01/M03 Q1028 BECMG TL2200 3000
ZHCC,2023-01-03 22:00,ZHCC 032200Z VRB01MPS 3500 BR NSC M01/M03 Q1028 BECMG TL2340 2000
ZHCC,2023-01-03 23:00,ZHCC 032300Z 00000MPS 3500 BR NSC M01/M03 Q1029 BECMG TL2340 2500
ZHCC,2023-01-04 00:00,ZHCC 040000Z VRB01MPS 2000 BR NSC M00/M03 Q1030 NOSIG
ZHCC,2023-01-04 01:00,ZHCC 040100Z 01003MPS 340V050 2000 HZ NSC 03/M02 Q1030 NOSIG
ZHCC,2023-01-04 02:00,ZHCC 040200Z 04004MPS 1500 HZ NSC 03/M02 Q1030 NOSIG
ZHCC,2023-01-04 03:00,ZHCC 040300Z 04003MPS 360V070 2000 HZ NSC 04/M04 Q1030 BECMG TL0440 3000
ZHCC,2023-01-04 04:00,ZHCC 040400Z 05003MPS 360V080 2000 HZ NSC 05/M04 Q1029 BECMG TL0540 3000
ZHCC,2023-01-04 05:00,ZHCC 040500Z 02002MPS 290V060 3000 HZ NSC 06/M04 Q1029 BECMG TL0640 2500
ZHCC,2023-01-04 06:00,ZHCC 040600Z 02003MPS 330V090 3000 HZ NSC 07/M04 Q1028 BECMG TL0740 2500
ZHCC,2023-01-04 07:00,ZHCC 040700Z 04003MPS 350V070 2500 HZ NSC 07/M04 Q1027 NOSIG
ZHCC,2023-01-04 08:00,ZHCC 040800Z 02004MPS 2500 HZ NSC 06/M04 Q1027 NOSIG
ZHCC,2023-01-04 09:00,ZHCC 040900Z 02003MPS 2500 HZ NSC 06/M04 Q1028 NOSIG
ZHCC,2023-01-04 10:00,ZHCC 041000Z 04002MPS 010V070 2500 HZ NSC 05/M05 Q1028 NOSIG
ZHCC,2023-01-04 11:00,ZHCC 041100Z 36001MPS 2500 HZ NSC 03/M06 Q1029 BECMG TL1240 3000
ZHCC,2023-01-04 12:00,ZHCC 041200Z VRB01MPS 2500 HZ NSC 03/M05 Q1029 BECMG TL1340 3000
ZHCC,2023-01-04 13:00,ZHCC 041300Z 33001MPS 3000 HZ NSC 01/M06 Q1030 NOSIG
ZHCC,2023-01-04 14:00,ZHCC 041400Z 32001MPS 3000 HZ NSC 00/M06 Q1030 NOSIG
ZHCC,2023-01-04 15:00,ZHCC 041500Z 30002MPS 3000 HZ NSC M00/M06 Q1031 NOSIG
ZHCC,2023-01-04 16:00,ZHCC 041600Z 31001MPS 3000 HZ NSC M00/M05 Q1031 NOSIG
ZHCC,2023-01-04 17:00,ZHCC 041700Z 31002MPS 280V340 3000 HZ NSC M01/M06 Q1031 NOSIG
ZHCC,2023-01-04 18:00,ZHCC 041800Z VRB01MPS 3000 HZ NSC M01/M06 Q1030 NOSIG
ZHCC,2023-01-04 19:00,ZHCC 041900Z 31002MPS 3000 HZ NSC M01/M06 Q1030 NOSIG
ZHCC,2023-01-04 20:00,ZHCC 042000Z 31002MPS 3000 HZ NSC M02/M06 Q1030 NOSIG
ZHCC,2023-01-04 21:00,ZHCC 042100Z 27001MPS 3000 HZ NSC M03/M07 Q1030 NOSIG
ZHCC,2023-01-04 22:00,ZHCC 042200Z VRB01MPS 3000 BR NSC M03/M06 Q1030 BECMG TL2340 2500
ZHCC,2023-01-04 23:00,ZHCC 042300Z 30001MPS 3000 BR NSC M03/M06 Q1031 BECMG TL2340 2500
ZHCC,2023-01-05 00:00,ZHCC 050000Z 28002MPS 1600 BR NSC M03/M06 Q1031 NOSIG
ZHCC,2023-01-05 01:00,ZHCC 050100Z VRB01MPS 1600 R30L/1400N R30R/1900N BR NSC M01/M03 Q1031 NOSIG
ZHCC,2023-01-05 02:00,ZHCC 050200Z VRB01MPS 2000 HZ NSC 03/M05 Q1031 NOSIG
ZHCC,2023-01-05 03:00,ZHCC 050300Z VRB01MPS 2000 HZ NSC 06/M05 Q1031 NOSIG
ZHCC,2023-01-05 04:00,ZHCC 050400Z VRB01MPS 2200 HZ NSC 07/M05 Q1030 NOSIG
ZHCC,2023-01-05 05:00,ZHCC 050500Z VRB02MPS 2200 HZ NSC 08/M05 Q1029 NOSIG
ZHCC,2023-01-05 06:00,ZHCC 050600Z 19002MPS 130V270 2200 HZ NSC 09/M04 Q1028 NOSIG
ZHCC,2023-01-05 07:00,ZHCC 050700Z 18002MPS 090V220 2200 HZ NSC 09/M03 Q1028 NOSIG
ZHCC,2023-01-05 08:00,ZHCC 050800Z 17002MPS 120V200 2200 HZ NSC 09/M03 Q1028 BECMG TL0940 3000
ZHCC,2023-01-05 09:00,ZHCC 050900Z VRB01MPS 1800 HZ NSC 07/M03 Q1028 BECMG TL1000 3000
ZHCC,2023-01-05 10:00,ZHCC 051000Z 13001MPS 3000 HZ NSC 05/M03 Q1028 NOSIG
ZHCC,2023-01-05 11:00,ZHCC 051100Z 00000MPS 3000 HZ NSC 01/M05 Q1028 BECMG TL1240 2500
ZHCC,2023-01-05 12:00,ZHCC 051200Z 18002MPS 160V220 3000 HZ NSC 05/M02 Q1029 BECMG TL1240 2000
ZHCC,2023-01-05 13:00,ZHCC 051300Z 20002MPS 2500 HZ NSC 05/M02 Q1029 NOSIG
ZHCC,2023-01-05 14:00,ZHCC 051400Z VRB01MPS 2500 HZ NSC 03/M03 Q1029 NOSIG
ZHCC,2023-01-05 15:00,ZHCC 051500Z 24001MPS 2500 BR NSC M00/M03 Q1029 NOSIG
ZHCC,2023-01-05 16:00,ZHCC 051600Z 23001MPS 2500 BR NSC M02/M03 Q1029 NOSIG
ZHCC,2023-01-05 17:00,ZHCC 051700Z 26002MPS 2500 BR NSC M01/M03 Q1028 NOSIG
ZHCC,2023-01-05 18:00,ZHCC 051800Z 24002MPS 2500 HZ NSC 04/M02 Q1027 NOSIG
ZHCC,2023-01-05 19:00,ZHCC 051900Z 24003MPS 210V270 2500 HZ NSC 05/M03 Q1027 NOSIG
ZHCC,2023-01-05 20:00,ZHCC 052000Z 26005MPS 4000 HZ NSC 06/M03 Q1025 NOSIG
ZHCC,2023-01-05 21:00,ZHCC 052100Z 27005MPS 5000 HZ NSC 06/M04 Q1025 NOSIG
ZHCC,2023-01-05 22:00,ZHCC 052200Z 27005MPS 5000 HZ NSC 05/M04 Q1025 NOSIG
ZHCC,2023-01-05 23:00,ZHCC 052300Z 29002MPS 5000 HZ NSC 02/M04 Q1026 NOSIG
ZHCC,2023-01-06 00:00,ZHCC 060000Z 26004MPS 240V300 3000 HZ NSC 07/M03 Q1026 NOSIG
ZHCC,2023-01-06 01:00,ZHCC 060100Z 27006MPS 3000 HZ NSC 09/M04 Q1027 NOSIG
ZHCC,2023-01-06 02:00,ZHCC 060200Z 28007MPS 3500 HZ NSC 11/M06 Q1027 NOSIG
ZHCC,2023-01-06 03:00,ZHCC 060300Z 30007MPS 4000 HZ NSC 13/M07 Q1027 NOSIG
ZHCC,2023-01-06 04:00,ZHCC 060400Z 28007MPS 4500 HZ NSC 13/M10 Q1026 NOSIG
ZHCC,2023-01-06 05:00,ZHCC 060500Z 27007MPS 7000 NSC 15/M13 Q1025 NOSIG
ZHCC,2023-01-06 06:00,ZHCC 060600Z 28007MPS 240V320 8000 NSC 15/M14 Q1024 NOSIG
ZHCC,2023-01-06 07:00,ZHCC 060700Z 29006MPS 8000 NSC 16/M13 Q1023 NOSIG
ZHCC,2023-01-06 08:00,ZHCC 060800Z 28006MPS 8000 NSC 16/M14 Q1023 NOSIG
ZHCC,2023-01-06 09:00,ZHCC 060900Z 27004MPS CAVOK 14/M15 Q1023 NOSIG
ZHCC,2023-01-06 10:00,ZHCC 061000Z 26003MPS CAVOK 11/M14 Q1023 NOSIG
ZHCC,2023-01-06 11:00,ZHCC 061100Z 26003MPS CAVOK 12/M14 Q1023 NOSIG
ZHCC,2023-01-06 12:00,ZHCC 061200Z 21002MPS CAVOK 08/M13 Q1024 NOSIG
ZHCC,2023-01-06 13:00,ZHCC 061300Z VRB01MPS CAVOK 05/M11 Q1024 NOSIG
ZHCC,2023-01-06 14:00,ZHCC 061400Z 31001MPS CAVOK 04/M12 Q1023 NOSIG
ZHCC,2023-01-06 15:00,ZHCC 061500Z VRB01MPS CAVOK 02/M11 Q1023 NOSIG
ZHCC,2023-01-06 16:00,ZHCC 061600Z 30001MPS CAVOK 02/M10 Q1023 NOSIG
ZHCC,2023-01-06 17:00,ZHCC 061700Z 27001MPS CAVOK 02/M10 Q1023 NOSIG
ZHCC,2023-01-06 18:00,ZHCC 061800Z 20001MPS CAVOK 00/M10 Q1022 NOSIG
ZHCC,2023-01-06 19:00,ZHCC 061900Z 31001MPS CAVOK M01/M09 Q1022 NOSIG
ZHCC,2023-01-06 20:00,ZHCC 062000Z 00000MPS CAVOK M01/M09 Q1021 NOSIG
ZHCC,2023-01-06 21:00,ZHCC 062100Z VRB01MPS CAVOK M02/M08 Q1021 NOSIG
ZHCC,2023-01-06 22:00,ZHCC 062200Z VRB01MPS CAVOK M02/M08 Q1021 NOSIG
ZHCC,2023-01-06 23:00,ZHCC 062300Z 29002MPS CAVOK M02/M08 Q1021 NOSIG
ZHCC,2023-01-07 00:00,ZHCC 070000Z 00000MPS 7000 NSC M02/M08 Q1021 NOSIG
ZHCC,2023-01-07 01:00,ZHCC 070100Z 00000MPS 7000 NSC 04/M04 Q1021 NOSIG
ZHCC,2023-01-07 02:00,ZHCC 070200Z VRB01MPS 5000 HZ NSC 09/M04 Q1021 NOSIG
ZHCC,2023-01-07 03:00,ZHCC 070300Z VRB01MPS 5000 HZ NSC 11/M02 Q1020 NOSIG
ZHCC,2023-01-07 04:00,ZHCC 070400Z 13002MPS 070V200 3000 HZ NSC 13/M00 Q1020 NOSIG
ZHCC,2023-01-07 05:00,ZHCC 070500Z 13002MPS 090V210 3000 HZ NSC 14/01 Q1018 NOSIG
ZHCC,2023-01-07 06:00,ZHCC 070600Z 20002MPS 170V240 3000 HZ NSC 15/00 Q1017 NOSIG
ZHCC,2023-01-07 07:00,ZHCC 070700Z 19003MPS 130V240 4000 HZ NSC 15/01 Q1017 NOSIG
ZHCC,2023-01-07 08:00,ZHCC 070800Z 18002MPS 130V230 4000 HZ NSC 15/02 Q1017 NOSIG
ZHCC,2023-01-07 09:00,ZHCC 070900Z 18002MPS 140V210 4000 HZ NSC 14/03 Q1017 NOSIG
ZHCC,2023-01-07 10:00,ZHCC 071000Z 18001MPS 5000 HZ NSC 09/02 Q1017 NOSIG
ZHCC,2023-01-07 11:00,ZHCC 071100Z 05001MPS 5000 HZ NSC 06/00 Q1017 NOSIG
ZHCC,2023-01-07 12:00,ZHCC 071200Z VRB01MPS 5000 HZ NSC 06/01 Q1017 NOSIG
ZHCC,2023-01-07 13:00,ZHCC 071300Z 14001MPS 5000 HZ NSC 03/M00 Q1017 NOSIG
ZHCC,2023-01-07 14:00,ZHCC 071400Z 18002MPS 5000 HZ NSC 04/M02 Q1017 NOSIG
ZHCC,2023-01-07 15:00,ZHCC 071500Z 27001MPS 5000 BR NSC 03/M00 Q1018 NOSIG
ZHCC,2023-01-07 16:00,ZHCC 071600Z 30001MPS 5000 BR NSC 00/M03 Q1018 NOSIG
ZHCC,2023-01-07 17:00,ZHCC 071700Z 26001MPS 5000 BR NSC 02/M01 Q1017 NOSIG
ZHCC,2023-01-07 18:00,ZHCC 071800Z 00000MPS 5000 BR NSC M00/M02 Q1018 NOSIG
ZHCC,2023-01-07 19:00,ZHCC 071900Z 29001MPS 5000 BR NSC 01/M03 Q1018 NOSIG
ZHCC,2023-01-07 20:00,ZHCC 072000Z 28001MPS 5000 BR NSC M00/M03 Q1017 NOSIG
ZHCC,2023-01-07 21:00,ZHCC 072100Z 28001MPS 5000 BR NSC M01/M04 Q1017 NOSIG
ZHCC,2023-01-07 22:00,ZHCC 072200Z 24001MPS 5000 BR NSC M00/M03 Q1018 NOSIG
ZHCC,2023-01-07 23:00,ZHCC 072300Z 31001MPS 5000 BR NSC M00/M03 Q1018 NOSIG
ZHCC,2023-01-08 00:00,ZHCC 080000Z 00000MPS 3000 BR NSC M01/M04 Q1019 NOSIG
ZHCC,2023-01-08 01:00,ZHCC 080100Z VRB01MPS 3000 BR NSC 05/M00 Q1020 NOSIG
ZHCC,2023-01-08 02:00,ZHCC 080200Z 02002MPS 350V070 3000 HZ NSC 08/M04 Q1021 NOSIG
ZHCC,2023-01-08 03:00,ZHCC 080300Z 36003MPS 4000 HZ NSC 11/M06 Q1021 NOSIG
ZHCC,2023-01-08 04:00,ZHCC 080400Z 36003MPS 330V040 4000 HZ NSC 12/M06 Q1021 NOSIG
ZHCC,2023-01-08 05:00,ZHCC 080500Z 04003MPS 340V090 4000 HZ NSC 13/M06 Q1020 NOSIG
ZHCC,2023-01-08 06:00,ZHCC 080600Z 02003MPS 350V050 4000 HZ NSC 14/M06 Q1019 NOSIG
ZHCC,2023-01-08 07:00,ZHCC 080700Z 02002MPS 330V050 4500 HZ NSC 15/M06 Q1019 NOSIG
ZHCC,2023-01-08 08:00,ZHCC 080800Z 02004MPS 4500 HZ NSC 14/M06 Q1020 NOSIG
ZHCC,2023-01-08 09:00,ZHCC 080900Z 02003MPS 4000 HZ NSC 12/M05 Q1020 NOSIG
ZHCC,2023-01-08 10:00,ZHCC 081000Z 01003MPS 5000 HZ NSC 11/M05 Q1021 NOSIG
ZHCC,2023-01-08 11:00,ZHCC 081100Z 02003MPS 5000 HZ NSC 10/M06 Q1022 NOSIG
ZHCC,2023-01-08 12:00,ZHCC 081200Z 02002MPS 350V060 5000 HZ NSC 07/M06 Q1023 NOSIG
ZHCC,2023-01-08 13:00,ZHCC 081300Z 02003MPS 5000 HZ NSC 09/M06 Q1023 NOSIG
ZHCC,2023-01-08 14:00,ZHCC 081400Z 02003MPS 350V050 5000 HZ NSC 08/M07 Q1024 NOSIG
ZHCC,2023-01-08 15:00,ZHCC 081500Z 02003MPS 5000 HZ NSC 08/M08 Q1024 NOSIG
ZHCC,2023-01-08 16:00,ZHCC 081600Z 02004MPS 6000 NSC 07/M09 Q1025 NOSIG
ZHCC,2023-01-08 17:00,ZHCC 081700Z 01004MPS 320V030 6000 NSC 07/M09 Q1025 NOSIG
ZHCC,2023-01-08 18:00,ZHCC 081800Z 02004MPS 6000 NSC 07/M08 Q1026 NOSIG
ZHCC,2023-01-08 19:00,ZHCC 081900Z 01005MPS 6000 NSC 07/M08 Q1026 NOSIG
ZHCC,2023-01-08 20:00,ZHCC 082000Z 01005MPS 6000 NSC 07/M09 Q1026 NOSIG
ZHCC,2023-01-08 21:00,ZHCC 082100Z 01004MPS 7000 NSC 06/M09 Q1026 NOSIG
ZHCC,2023-01-08 22:00,ZHCC 082200Z 02005MPS 340V050 8000 NSC 06/M10 Q1027 NOSIG
ZHCC,2023-01-08 23:00,ZHCC 082300Z 02005MPS 350V050 8000 NSC 05/M09 Q1028 NOSIG
ZHCC,2023-01-09 00:00,ZHCC 090000Z 03005MPS 350V050 7000 NSC 06/M10 Q1029 NOSIG
ZHCC,2023-01-09 01:00,ZHCC 090100Z 03005MPS 7000 NSC 06/M09 Q1030 NOSIG
ZHCC,2023-01-09 02:00,ZHCC 090200Z 03006G11MPS 360V060 7000 NSC 08/M10 Q1030 NOSIG
ZHCC,2023-01-09 03:00,ZHCC 090300Z 02006G11MPS 340V050 7000 NSC 09/M09 Q1031 NOSIG
ZHCC,2023-01-09 04:00,ZHCC 090400Z 01005MPS 7000 NSC 10/M08 Q1030 NOSIG
ZHCC,2023-01-09 05:00,ZHCC 090500Z 03006MPS 350V060 7000 NSC 10/M07 Q1029 NOSIG
ZHCC,2023-01-09 06:00,ZHCC 090600Z 03006MPS 360V080 7000 NSC 10/M07 Q1029 NOSIG
ZHCC,2023-01-09 07:00,ZHCC 090700Z 04005MPS 010V070 7000 NSC 10/M06 Q1029 NOSIG
ZHCC,2023-01-09 08:00,ZHCC 090800Z 03005MPS 360V060 7000 NSC 10/M06 Q1029 NOSIG
ZHCC,2023-01-09 09:00,ZHCC 090900Z 04006MPS 7000 NSC 09/M06 Q1030 NOSIG
ZHCC,2023-01-09 10:00,ZHCC 091000Z 04003MPS 7000 NSC 08/M05 Q1030 NOSIG
ZHCC,2023-01-09 11:00,ZHCC 091100Z 04004MPS CAVOK 07/M07 Q1031 NOSIG
ZHCC,2023-01-09 12:00,ZHCC 091200Z 02004MPS 350V050 CAVOK 07/M07 Q1032 NOSIG
ZHCC,2023-01-09 13:00,ZHCC 091300Z 02004MPS 350V060 CAVOK 06/M08 Q1032 NOSIG
ZHCC,2023-01-09 14:00,ZHCC 091400Z 02004MPS CAVOK 05/M09 Q1032 NOSIG
ZHCC,2023-01-09 15:00,ZHCC 091500Z 03005MPS CAVOK 05/M09 Q1032 NOSIG
ZHCC,2023-01-09 16:00,ZHCC 091600Z 02004MPS CAVOK 04/M09 Q1032 NOSIG
ZHCC,2023-01-09 17:00,ZHCC 091700Z 02003MPS CAVOK 04/M09 Q1032 NOSIG
ZHCC,2023-01-09 18:00,ZHCC 091800Z 02003MPS 340V060 CAVOK 03/M10 Q1032 NOSIG
ZHCC,2023-01-09 19:00,ZHCC 091900Z 36002MPS 310V050 CAVOK 01/M10 Q1031 NOSIG
ZHCC,2023-01-09 20:00,ZHCC 092000Z 05003MPS CAVOK 02/M10 Q1031 NOSIG
ZHCC,2023-01-09 21:00,ZHCC 092100Z 35002MPS 280V040 CAVOK 01/M10 Q1031 NOSIG
ZHCC,2023-01-09 22:00,ZHCC 092200Z 00000MPS CAVOK M02/M09 Q1031 NOSIG
ZHCC,2023-01-09 23:00,ZHCC 092300Z 27001MPS CAVOK M02/M08 Q1031 NOSIG
ZHCC,2023-01-10 00:00,ZHCC 100000Z 00000MPS CAVOK M03/M08 Q1031 NOSIG
ZHCC,2023-01-10 01:00,ZHCC 100100Z 00000MPS CAVOK 03/M08 Q1031 NOSIG
ZHCC,2023-01-10 02:00,ZHCC 100200Z VRB01MPS CAVOK 04/M07 Q1031 NOSIG
ZHCC,2023-01-10 03:00,ZHCC 100300Z 12002MPS 060V170 CAVOK 06/M05 Q1030 NOSIG
ZHCC,2023-01-10 04:00,ZHCC 100400Z 13003MPS 080V210 CAVOK 07/M04 Q1029 NOSIG
ZHCC,2023-01-10 05:00,ZHCC 100500Z VRB01MPS CAVOK 09/M04 Q1027 NOSIG
ZHCC,2023-01-10 06:00,ZHCC 100600Z 06002MPS 020V100 CAVOK 08/M04 Q1026 NOSIG
ZHCC,2023-01-10 07:00,ZHCC 100700Z VRB01MPS CAVOK 08/M06 Q1026 NOSIG
ZHCC,2023-01-10 08:00,ZHCC 100800Z 12002MPS CAVOK 08/M05 Q1025 NOSIG
ZHCC,2023-01-10 09:00,ZHCC 100900Z 12002MPS CAVOK 07/M05 Q1025 NOSIG
ZHCC,2023-01-10 10:00,ZHCC 101000Z 10002MPS CAVOK 04/M05 Q1025 NOSIG
ZHCC,2023-01-10 11:00,ZHCC 101100Z 10002MPS CAVOK 04/M04 Q1025 NOSIG
ZHCC,2023-01-10 12:00,ZHCC 101200Z 13001MPS CAVOK 02/M04 Q1025 NOSIG
ZHCC,2023-01-10 13:00,ZHCC 101300Z VRB01MPS CAVOK 03/M03 Q1025 NOSIG
ZHCC,2023-01-10 14:00,ZHCC 101400Z VRB01MPS 6000 NSC 04/M01 Q1025 NOSIG
ZHCC,2023-01-10 15:00,ZHCC 101500Z 00000MPS 5000 BR NSC 00/M02 Q1025 NOSIG
ZHCC,2023-01-10 16:00,ZHCC 101600Z 00000MPS 5000 BR NSC 00/M01 Q1024 NOSIG
ZHCC,2023-01-10 17:00,ZHCC 101700Z 00000MPS 5000 BR NSC M01/M03 Q1024 NOSIG
ZHCC,2023-01-10 18:00,ZHCC 101800Z 00000MPS 5000 BR NSC M01/M04 Q1024 NOSIG
ZHCC,2023-01-10 19:00,ZHCC 101900Z 00000MPS 5000 BR NSC M02/M03 Q1023 NOSIG
ZHCC,2023-01-10 20:00,ZHCC 102000Z 10001MPS 5000 BR SCT020 01/M01 Q1023 NOSIG
ZHCC,2023-01-10 21:00,ZHCC 102100Z VRB01MPS 5000 BR SCT020 02/M00 Q1022 NOSIG
ZHCC,2023-01-10 22:00,ZHCC 102200Z 13002MPS 5000 BR SCT020 03/01 Q1022 NOSIG
ZHCC,2023-01-10 23:00,ZHCC 102300Z VRB01MPS 4000 BR SCT020 02/01 Q1022 NOSIG
ZHCC,2023-01-11 00:00,ZHCC 110000Z 19002MPS 140V230 2500 BR NSC 03/01 Q1022 NOSIG
ZHCC,2023-01-11 01:00,ZHCC 110100Z VRB02MPS 2100 BR OVC046 03/01 Q1022 NOSIG
ZHCC,2023-01-11 02:00,ZHCC 110200Z 20003MPS 160V230 2100 BR OVC046 04/01 Q1022 NOSIG
ZHCC,2023-01-11 03:00,ZHCC 110300Z 20003MPS 160V230 2100 BR OVC046 04/02 Q1022 NOSIG
ZHCC,2023-01-11 04:00,ZHCC 110400Z 18002MPS 090V240 2100 BR OVC020 04/02 Q1021 NOSIG
ZHCC,2023-01-11 05:00,ZHCC 110500Z 18003MPS 130V220 2100 BR OVC020 04/02 Q1019 NOSIG
ZHCC,2023-01-11 06:00,ZHCC 110600Z 20002MPS 140V240 2100 BR OVC020 05/02 Q1018 NOSIG
ZHCC,2023-01-11 07:00,ZHCC 110700Z 14002MPS 090V190 2100 BR OVC020 05/02 Q1017 NOSIG
ZHCC,2023-01-11 08:00,ZHCC 110800Z 14003MPS 100V200 2100 BR OVC020 06/02 Q1017 NOSIG
ZHCC,2023-01-11 09:00,ZHCC 110900Z 14002MPS 100V160 2100 BR OVC020 05/03 Q1017 NOSIG
ZHCC,2023-01-11 10:00,ZHCC 111000Z 13002MPS 100V190 2500 BR OVC020 05/03 Q1017 BECMG TL1140 3000
ZHCC,2023-01-11 11:00,ZHCC 111100Z 11002MPS 2500 BR OVC020 05/03 Q1018 BECMG TL1240 3000
ZHCC,2023-01-11 12:00,ZHCC 111200Z 11001MPS 3000 BR OVC020 03/02 Q1017 BECMG TL1340 2000
ZHCC,2023-01-11 13:00,ZHCC 111300Z VRB01MPS 1800 BR OVC020 02/02 Q1017 BECMG TL1440 1300
ZHCC,2023-01-11 14:00,ZHCC 111400Z 30001MPS 1500 PRFG BR OVC020 02/01 Q1017 BECMG TL1540 1200
ZHCC,2023-01-11 15:00,ZHCC 111500Z 30001MPS 1200 R12R/1600N R12L/1900N PRFG BR BKN020 01/00 Q1017 NOSIG
ZHCC,2023-01-11 16:00,ZHCC 111600Z 10001MPS 1000 R12R/1200N R12L/P2000 PRFG BR BKN020 M00/M01 Q1017 BECMG TL1740 0600 FZFG
ZHCC,2023-01-11 17:00,ZHCC 111700Z VRB01MPS 0600 R12R/1600N R12L/1800N FZFG BKN020 M01/M01 Q1016 NOSIG
ZHCC,2023-01-11 18:00,ZHCC 111800Z 01002MPS 1000 R12R/P2000 R12L/P2000 BR BKN020 03/03 Q1016 NOSIG
ZHCC,2023-01-11 19:00,ZHCC 111900Z 03002MPS 350V070 1000 R12R/P2000 R12L/P2000 BR BKN020 03/02 Q1015 NOSIG
ZHCC,2023-01-11 20:00,ZHCC 112000Z VRB01MPS 1000 R12R/P2000 R12L/P2000 BR BKN016 03/02 Q1015 NOSIG
ZHCC,2023-01-11 21:00,ZHCC 112100Z VRB01MPS 1000 R12R/1700N R12L/P2000 BR SCT016 01/01 Q1014 NOSIG
ZHCC,2023-01-11 22:00,ZHCC 112200Z 04004MPS 1200 R12R/P2000 R12L/P2000 BR SCT016 03/02 Q1013 NOSIG
ZHCC,2023-01-11 23:00,ZHCC 112300Z 00000MPS 1200 R12R/P2000 R12L/P2000 BR BKN016 03/02 Q1013 NOSIG
ZHCC,2023-01-12 00:00,ZHCC 120000Z 05002MPS 030V100 1200 R12R/P2000 R12L/P2000 BR OVC016 03/02 Q1013 NOSIG
ZHCC,2023-01-12 01:00,ZHCC 120100Z 06003MPS 1200 R12R/1700N R12L/1700N BR OVC016 03/02 Q1013 BECMG TL0230 1500
ZHCC,2023-01-12 02:00,ZHCC 120200Z 32003MPS 1300 R30L/1800N R30R/1900N BR OVC016 03/02 Q1014 BECMG TL0340 1500
ZHCC,2023-01-12 03:00,ZHCC 120300Z 34002MPS 1500 BR OVC016 04/02 Q1014 NOSIG
ZHCC,2023-01-12 04:00,ZHCC 120400Z 03002MPS 350V060 1500 BR OVC016 04/02 Q1013 NOSIG
ZHCC,2023-01-12 05:00,ZHCC 120500Z 35003MPS 310V030 1500 BR OVC016 04/02 Q1012 NOSIG
ZHCC,2023-01-12 06:00,ZHCC 120600Z 01002MPS 1500 BR OVC016 04/02 Q1011 NOSIG
ZHCC,2023-01-12 07:00,ZHCC 120700Z 03003MPS 1500 BR OVC010 04/02 Q1010 BECMG TL0840 1200
ZHCC,2023-01-12 08:00,ZHCC 120800Z 01003MPS 1500 BR OVC016 04/02 Q1010 BECMG TL0840 1200
ZHCC,2023-01-12 09:00,ZHCC 120900Z 03003MPS 1200 R30L/1900N R30R/1900N BR OVC016 04/02 Q1010 BECMG TL1040 1800
ZHCC,2023-01-12 10:00,ZHCC 121000Z 35004MPS 2000 BR OVC016 03/01 Q1011 BECMG TL1140 3000
ZHCC,2023-01-12 11:00,ZHCC 121100Z 36003MPS 2000 BR OVC016 03/01 Q1012 NOSIG
ZHCC,2023-01-12 12:00,ZHCC 121200Z 35004MPS 2000 BR OVC016 02/01 Q1012 NOSIG
ZHCC,2023-01-12 13:00,ZHCC 121300Z 36004MPS 1800 -DZ BR OVC015 02/01 Q1013 BECMG TL1440 1300
ZHCC,2023-01-12 14:00,ZHCC 121400Z 36002MPS 330V040 1600 -RA BR FEW004 OVC020 02/01 Q1013 BECMG TL1500 1300
ZHCC,2023-01-12 15:00,ZHCC 121500Z 35003MPS 320V020 1400 R30L/1900N R30R/1600N BR FEW004 OVC020 02/01 Q1013 BECMG TL1540 1800
ZHCC,2023-01-12 16:00,ZHCC 121600Z 35003MPS 300V020 1700 BR OVC020 02/01 Q1013 NOSIG
ZHCC,2023-01-12 17:00,ZHCC 121700Z 36003MPS 330V040 1700 BR OVC020 02/01 Q1014 NOSIG
ZHCC,2023-01-12 18:00,ZHCC 121800Z 01003MPS 340V040 2000 BR OVC020 02/01 Q1014 NOSIG
ZHCC,2023-01-12 19:00,ZHCC 121900Z 36003MPS 330V030 2800 BR OVC020 03/00 Q1014 NOSIG
ZHCC,2023-01-12 20:00,ZHCC 122000Z 32002MPS 2800 BR OVC020 03/01 Q1014 NOSIG
ZHCC,2023-01-12 21:00,ZHCC 122100Z 33002MPS 2800 BR OVC020 03/00 Q1014 NOSIG
ZHCC,2023-01-12 22:00,ZHCC 122200Z 33003MPS 2800 BR OVC020 03/00 Q1014 NOSIG
ZHCC,2023-01-12 23:00,ZHCC 122300Z 33003MPS 2800 BR OVC020 03/00 Q1014 NOSIG
ZHCC,2023-01-13 00:00,ZHCC 130000Z 33004MPS 2500 BR OVC020 04/00 Q1015 NOSIG
ZHCC,2023-01-13 01:00,ZHCC 130100Z 34005MPS 2000 BR OVC020 04/00 Q1015 NOSIG
ZHCC,2023-01-13 02:00,ZHCC 130200Z 31004MPS 2000 BR OVC020 05/01 Q1016 NOSIG
ZHCC,2023-01-13 03:00,ZHCC 130300Z 32002MPS 2000 BR OVC020 05/01 Q1016 NOSIG
ZHCC,2023-01-13 04:00,ZHCC 130400Z 32003MPS 1500 BR OVC020 06/02 Q1016 NOSIG
ZHCC,2023-01-13 05:00,ZHCC 130500Z 34003MPS 1500 BR OVC020 06/03 Q1015 NOSIG
ZHCC,2023-01-13 06:00,ZHCC 130600Z 36004MPS 1500 BR OVC020 07/02 Q1015 NOSIG
ZHCC,2023-01-13 07:00,ZHCC 130700Z 02004MPS 1500 BR OVC020 07/03 Q1015 NOSIG
ZHCC,2023-01-13 08:00,ZHCC 130800Z 03005MPS 1500 BR OVC020 06/03 Q1016 NOSIG
ZHCC,2023-01-13 09:00,ZHCC 130900Z 02003MPS 1500 BR OVC020 06/03 Q1017 NOSIG
ZHCC,2023-01-13 10:00,ZHCC 131000Z 34003MPS 2500 BR OVC020 06/03 Q1017 BECMG TL1140 3000
ZHCC,2023-01-13 11:00,ZHCC 131100Z 32003MPS 2500 -RA BR OVC020 05/03 Q1018 BECMG TL1140 3000
ZHCC,2023-01-13 12:00,ZHCC 131200Z 34004MPS 3000 -RA BR OVC020 06/02 Q1019 NOSIG
ZHCC,2023-01-13 13:00,ZHCC 131300Z 34005MPS 3000 -RA BR OVC020 06/03 Q1020 NOSIG
ZHCC,2023-01-13 14:00,ZHCC 131400Z 32003MPS 3000 -RA BR OVC020 05/03 Q1020 NOSIG
ZHCC,2023-01-13 15:00,ZHCC 131500Z 33005MPS 3000 -RA BR OVC020 06/02 Q1021 NOSIG
ZHCC,2023-01-13 16:00,ZHCC 131600Z 34006MPS 3000 -RA BR OVC020 06/02 Q1021 NOSIG
ZHCC,2023-01-13 17:00,ZHCC 131700Z 35006MPS 3000 -RA BR OVC020 06/02 Q1022 NOSIG
ZHCC,2023-01-13 18:00,ZHCC 131800Z 36008MPS 3000 -RA BR OVC020 05/03 Q1023 NOSIG
ZHCC,2023-01-13 19:00,ZHCC 131900Z 01007G14MPS 340V040 5000 -RA BR OVC020 02/01 Q1024 NOSIG
ZHCC,2023-01-13 20:00,ZHCC 132000Z 01008G13MPS 7000 -SN OVC020 01/M00 Q1025 NOSIG
ZHCC,2023-01-13 21:00,ZHCC 132100Z 01007G12MPS 4000 -SN BR OVC020 00/M01 Q1025 NOSIG
ZHCC,2023-01-13 22:00,ZHCC 132200Z 34005MPS 320V020 3000 -SN BR OVC020 00/M01 Q1026 BECMG TL2340 2000
ZHCC,2023-01-13 23:00,ZHCC 132300Z 35006MPS 5000 -SN BR OVC020 00/M01 Q1027 NOSIG
ZHCC,2023-01-14 00:00,ZHCC 140000Z 01008G14MPS 2000 -SN BR OVC020 M00/M02 Q1028 NOSIG
ZHCC,2023-01-14 01:00,ZHCC 140100Z 02007G12MPS 340V060 1600 -SN BR OVC020 M01/M02 Q1030 NOSIG
ZHCC,2023-01-14 02:00,ZHCC 140200Z 36006MPS 2000 -SN BR OVC020 M01/M02 Q1031 NOSIG
ZHCC,2023-01-14 03:00,ZHCC 140300Z 02007G13MPS 2000 R30L/1400N R30R/1700N -SN BR OVC020 M01/M03 Q1031 BECMG TL0440 3000
ZHCC,2023-01-14 04:00,ZHCC 140400Z 36007MPS 330V040 7000 -SN OVC020 M01/M03 Q1031 NOSIG
ZHCC,2023-01-14 05:00,ZHCC 140500Z 01007MPS 340V050 9999 OVC020 M01/M04 Q1031 NOSIG
ZHCC,2023-01-14 06:00,ZHCC 140600Z 36007MPS 9999 OVC020 M02/M05 Q1031 NOSIG
ZHCC,2023-01-14 07:00,ZHCC 140700Z 01006MPS 5000 -SN BR OVC020 M02/M05 Q1031 NOSIG
ZHCC,2023-01-14 08:00,ZHCC 140800Z 02006MPS 350V050 3500 -SN BR OVC020 M03/M05 Q1031 NOSIG
ZHCC,2023-01-14 09:00,ZHCC 140900Z 01005MPS 1700 -SN BR OVC020 M03/M05 Q1032 BECMG TL1040 3000
ZHCC,2023-01-14 10:00,ZHCC 141000Z 04005MPS 2000 -SN BR OVC020 M04/M05 Q1032 BECMG TL1120 3000
ZHCC,2023-01-14 11:00,ZHCC 141100Z 02004MPS 340V050 8000 -SN OVC020 M04/M06 Q1033 NOSIG
ZHCC,2023-01-14 12:00,ZHCC 141200Z 03004MPS 5000 -SN BR OVC020 M04/M06 Q1034 NOSIG
ZHCC,2023-01-14 13:00,ZHCC 141300Z 36005MPS 3000 -SN BR OVC020 M04/M06 Q1035 NOSIG
ZHCC,2023-01-14 14:00,ZHCC 141400Z 36003MPS 330V070 6000 -SN OVC020 M04/M07 Q1037 NOSIG
ZHCC,2023-01-14 15:00,ZHCC 141500Z 01004MPS 6000 -SN OVC020 M05/M06 Q1036 NOSIG
ZHCC,2023-01-14 16:00,ZHCC 141600Z 03002MPS 360V060 8000 -SN OVC020 M05/M07 Q1036 NOSIG
ZHCC,2023-01-14 17:00,ZHCC 141700Z 31002MPS 9999 OVC030 M05/M06 Q1036 NOSIG
ZHCC,2023-01-14 18:00,ZHCC 141800Z 27003MPS 9999 OVC030 M05/M06 Q1036 NOSIG
ZHCC,2023-01-14 19:00,ZHCC 141900Z 27001MPS 9999 OVC030 M04/M07 Q1035 NOSIG
ZHCC,2023-01-14 20:00,ZHCC 142000Z 29002MPS 9999 OVC030 M05/M07 Q1035 NOSIG
ZHCC,2023-01-14 21:00,ZHCC 142100Z VRB01MPS 9999 OVC030 M05/M07 Q1034 NOSIG
ZHCC,2023-01-14 22:00,ZHCC 142200Z VRB01MPS 9999 OVC040 M06/M07 Q1034 NOSIG
ZHCC,2023-01-14 23:00,ZHCC 142300Z 26001MPS CAVOK M07/M08 Q1034 NOSIG
ZHCC,2023-01-15 00:00,ZHCC 150000Z VRB01MPS CAVOK M07/M08 Q1035 NOSIG
ZHCC,2023-01-15 01:00,ZHCC 150100Z VRB01MPS CAVOK M04/M07 Q1035 NOSIG
ZHCC,2023-01-15 02:00,ZHCC 150200Z 19002MPS 160V240 CAVOK M03/M09 Q1035 NOSIG
ZHCC,2023-01-15 03:00,ZHCC 150300Z 18003MPS 140V220 CAVOK M03/M07 Q1035 NOSIG
ZHCC,2023-01-15 04:00,ZHCC 150400Z 24002MPS 180V270 CAVOK M01/M08 Q1033 NOSIG
ZHCC,2023-01-15 05:00,ZHCC 150500Z 29006MPS 260V320 CAVOK M00/M12 Q1032 NOSIG
ZHCC,2023-01-15 06:00,ZHCC 150600Z 29006MPS CAVOK M00/M13 Q1031 NOSIG
ZHCC,2023-01-15 07:00,ZHCC 150700Z 29006MPS CAVOK 00/M14 Q1031 NOSIG
ZHCC,2023-01-15 08:00,ZHCC 150800Z 30005MPS CAVOK 00/M12 Q1030 NOSIG
ZHCC,2023-01-15 09:00,ZHCC 150900Z 28004MPS CAVOK M00/M12 Q1031 NOSIG
ZHCC,2023-01-15 10:00,ZHCC 151000Z 28002MPS CAVOK M01/M10 Q1031 NOSIG
ZHCC,2023-01-15 11:00,ZHCC 151100Z 28004MPS CAVOK M01/M10 Q1031 NOSIG
ZHCC,2023-01-15 12:00,ZHCC 151200Z 28004MPS CAVOK M01/M10 Q1032 NOSIG
ZHCC,2023-01-15 13:00,ZHCC 151300Z 29005MPS CAVOK M02/M12 Q1032 NOSIG
ZHCC,2023-01-15 14:00,ZHCC 151400Z 28004MPS CAVOK M03/M13 Q1033 NOSIG
ZHCC,2023-01-15 15:00,ZHCC 151500Z 27003MPS CAVOK M04/M14 Q1033 NOSIG
ZHCC,2023-01-15 16:00,ZHCC 151600Z 30005MPS CAVOK M03/M15 Q1032 NOSIG
ZHCC,2023-01-15 17:00,ZHCC 151700Z 31006MPS CAVOK M03/M15 Q1032 NOSIG
ZHCC,2023-01-15 18:00,ZHCC 151800Z 31006MPS CAVOK M03/M15 Q1032 NOSIG
ZHCC,2023-01-15 19:00,ZHCC 151900Z 31005MPS CAVOK M03/M14 Q1032 NOSIG
ZHCC,2023-01-15 20:00,ZHCC 152000Z 30004MPS CAVOK M04/M15 Q1032 NOSIG
ZHCC,2023-01-15 21:00,ZHCC 152100Z 29003MPS CAVOK M05/M16 Q1032 NOSIG
ZHCC,2023-01-15 22:00,ZHCC 152200Z 31004MPS CAVOK M05/M16 Q1032 NOSIG
ZHCC,2023-01-15 23:00,ZHCC 152300Z 29002MPS CAVOK M05/M16 Q1032 NOSIG
ZHCC,2023-01-16 00:00,ZHCC 160000Z 29002MPS CAVOK M05/M16 Q1033 NOSIG
ZHCC,2023-01-16 01:00,ZHCC 160100Z 26002MPS CAVOK M03/M13 Q1033 NOSIG
ZHCC,2023-01-16 02:00,ZHCC 160200Z 27002MPS CAVOK M01/M13 Q1033 NOSIG
ZHCC,2023-01-16 03:00,ZHCC 160300Z 28003MPS 260V320 CAVOK 00/M15 Q1033 NOSIG
ZHCC,2023-01-16 04:00,ZHCC 160400Z 28003MPS 250V310 CAVOK 01/M14 Q1032 NOSIG
ZHCC,2023-01-16 05:00,ZHCC 160500Z 26003MPS 210V300 CAVOK 02/M14 Q1030 NOSIG
ZHCC,2023-01-16 06:00,ZHCC 160600Z 20003MPS 160V240 CAVOK 02/M14 Q1030 NOSIG
ZHCC,2023-01-16 07:00,ZHCC 160700Z 23004MPS 170V260 CAVOK 03/M13 Q1029 NOSIG
ZHCC,2023-01-16 08:00,ZHCC 160800Z 26004MPS CAVOK 03/M13 Q1028 NOSIG
ZHCC,2023-01-16 09:00,ZHCC 160900Z 27002MPS CAVOK 02/M12 Q1028 NOSIG
ZHCC,2023-01-16 10:00,ZHCC 161000Z 22001MPS CAVOK 01/M12 Q1029 NOSIG
ZHCC,2023-01-16 11:00,ZHCC 161100Z 18002MPS CAVOK 01/M11 Q1029 NOSIG
ZHCC,2023-01-16 12:00,ZHCC 161200Z 20002MPS CAVOK 01/M11 Q1029 NOSIG
ZHCC,2023-01-16 13:00,ZHCC 161300Z 21003MPS CAVOK 01/M11 Q1029 NOSIG
ZHCC,2023-01-16 14:00,ZHCC 161400Z 23002MPS CAVOK M00/M09 Q1029 NOSIG
ZHCC,2023-01-16 15:00,ZHCC 161500Z 24002MPS CAVOK M01/M10 Q1029 NOSIG
ZHCC,2023-01-16 16:00,ZHCC 161600Z 24002MPS CAVOK M01/M10 Q1028 NOSIG
ZHCC,2023-01-16 17:00,ZHCC 161700Z 21002MPS CAVOK M01/M10 Q1028 NOSIG
ZHCC,2023-01-16 18:00,ZHCC 161800Z 25002MPS 220V280 CAVOK M03/M10 Q1028 NOSIG
ZHCC,2023-01-16 19:00,ZHCC 161900Z 21002MPS CAVOK M02/M11 Q1028 NOSIG
ZHCC,2023-01-16 20:00,ZHCC 162000Z 28005MPS CAVOK M02/M11 Q1027 NOSIG
ZHCC,2023-01-16 21:00,ZHCC 162100Z 28005MPS CAVOK M00/M12 Q1027 NOSIG
ZHCC,2023-01-16 22:00,ZHCC 162200Z 28005MPS CAVOK M01/M12 Q1028 NOSIG
ZHCC,2023-01-16 23:00,ZHCC 162300Z 28005MPS CAVOK M01/M12 Q1028 NOSIG
ZHCC,2023-01-17 00:00,ZHCC 170000Z 28004MPS CAVOK M01/M12 Q1029 NOSIG
ZHCC,2023-01-17 01:00,ZHCC 170100Z 30005MPS CAVOK 01/M13 Q1029 NOSIG
ZHCC,2023-01-17 02:00,ZHCC 170200Z 29008MPS CAVOK 03/M13 Q1030 NOSIG
ZHCC,2023-01-17 03:00,ZHCC 170300Z 30007MPS CAVOK 03/M13 Q1030 NOSIG
ZHCC,2023-01-17 04:00,ZHCC 170400Z 31008MPS CAVOK 05/M13 Q1029 NOSIG
ZHCC,2023-01-17 05:00,ZHCC 170500Z 30008MPS CAVOK 04/M14 Q1029 NOSIG
ZHCC,2023-01-17 06:00,ZHCC 170600Z 31008MPS CAVOK 06/M14 Q1028 NOSIG
ZHCC,2023-01-17 07:00,ZHCC 170700Z 31007MPS CAVOK 06/M13 Q1028 NOSIG
ZHCC,2023-01-17 08:00,ZHCC 170800Z 30007MPS CAVOK 05/M13 Q1028 NOSIG
ZHCC,2023-01-17 09:00,ZHCC 170900Z 28003MPS CAVOK 04/M12 Q1029 NOSIG
ZHCC,2023-01-17 10:00,ZHCC 171000Z 27003MPS CAVOK 02/M12 Q1029 NOSIG
ZHCC,2023-01-17 11:00,ZHCC 171100Z 28004MPS CAVOK 02/M11 Q1030 NOSIG
ZHCC,2023-01-17 12:00,ZHCC 171200Z 27004MPS CAVOK 02/M11 Q1030 NOSIG
ZHCC,2023-01-17 13:00,ZHCC 171300Z 27005MPS CAVOK 02/M12 Q1031 NOSIG
ZHCC,2023-01-17 14:00,ZHCC 171400Z 27004MPS CAVOK 01/M11 Q1031 NOSIG
ZHCC,2023-01-17 15:00,ZHCC 171500Z 28005MPS CAVOK 01/M12 Q1031 NOSIG
ZHCC,2023-01-17 16:00,ZHCC 171600Z 30005MPS CAVOK 01/M13 Q1031 NOSIG
ZHCC,2023-01-17 17:00,ZHCC 171700Z 27003MPS CAVOK M00/M11 Q1032 NOSIG
ZHCC,2023-01-17 18:00,ZHCC 171800Z 28003MPS CAVOK M02/M12 Q1031 NOSIG
ZHCC,2023-01-17 19:00,ZHCC 171900Z 29002MPS CAVOK M03/M11 Q1031 NOSIG
ZHCC,2023-01-17 20:00,ZHCC 172000Z 24002MPS CAVOK M01/M12 Q1030 NOSIG
ZHCC,2023-01-17 21:00,ZHCC 172100Z 26002MPS CAVOK M05/M11 Q1030 NOSIG
ZHCC,2023-01-17 22:00,ZHCC 172200Z 26002MPS CAVOK M05/M11 Q1030 NOSIG
ZHCC,2023-01-17 23:00,ZHCC 172300Z 26001MPS CAVOK M05/M11 Q1030 NOSIG
ZHCC,2023-01-18 00:00,ZHCC 180000Z 25002MPS CAVOK M02/M11 Q1030 NOSIG
ZHCC,2023-01-18 01:00,ZHCC 180100Z 25003MPS 220V280 7000 NSC 01/M11 Q1030 NOSIG
ZHCC,2023-01-18 02:00,ZHCC 180200Z 26003MPS 230V290 7000 NSC 04/M11 Q1030 NOSIG
ZHCC,2023-01-18 03:00,ZHCC 180300Z 25004MPS 220V280 8000 NSC 05/M13 Q1030 NOSIG
ZHCC,2023-01-18 04:00,ZHCC 180400Z 25004MPS 200V280 8000 NSC 07/M13 Q1028 NOSIG
ZHCC,2023-01-18 05:00,ZHCC 180500Z 25004MPS 210V270 8000 NSC 08/M15 Q1027 NOSIG
ZHCC,2023-01-18 06:00,ZHCC 180600Z 25005MPS 220V310 CAVOK 09/M16 Q1025 NOSIG
ZHCC,2023-01-18 07:00,ZHCC 180700Z 26005MPS 230V300 CAVOK 09/M15 Q1024 NOSIG
ZHCC,2023-01-18 08:00,ZHCC 180800Z 24003MPS 200V270 CAVOK 09/M15 Q1024 NOSIG
ZHCC,2023-01-18 09:00,ZHCC 180900Z 17002MPS 130V200 CAVOK 08/M11 Q1024 NOSIG
ZHCC,2023-01-18 10:00,ZHCC 181000Z 18002MPS CAVOK 06/M11 Q1024 NOSIG
ZHCC,2023-01-18 11:00,ZHCC 181100Z 19003MPS 160V220 CAVOK 05/M07 Q1024 NOSIG
ZHCC,2023-01-18 12:00,ZHCC 181200Z 21003MPS 180V260 CAVOK 05/M07 Q1024 NOSIG
ZHCC,2023-01-18 13:00,ZHCC 181300Z 22002MPS 180V240 CAVOK 04/M07 Q1025 NOSIG
ZHCC,2023-01-18 14:00,ZHCC 181400Z 22003MPS CAVOK 04/M07 Q1025 NOSIG
ZHCC,2023-01-18 15:00,ZHCC 181500Z 22002MPS 200V260 CAVOK 04/M06 Q1025 NOSIG
ZHCC,2023-01-18 16:00,ZHCC 181600Z VRB01MPS CAVOK 02/M06 Q1025 NOSIG
ZHCC,2023-01-18 17:00,ZHCC 181700Z 23001MPS CAVOK 01/M06 Q1024 NOSIG
ZHCC,2023-01-18 18:00,ZHCC 181800Z VRB01MPS CAVOK M00/M07 Q1024 NOSIG
ZHCC,2023-01-18 19:00,ZHCC 181900Z 00000MPS CAVOK M02/M06 Q1023 NOSIG
ZHCC,2023-01-18 20:00,ZHCC 182000Z VRB01MPS CAVOK M03/M08 Q1023 NOSIG
ZHCC,2023-01-18 21:00,ZHCC 182100Z 22001MPS CAVOK M04/M08 Q1023 NOSIG
ZHCC,2023-01-18 22:00,ZHCC 182200Z VRB01MPS CAVOK M04/M08 Q1023 NOSIG
ZHCC,2023-01-18 23:00,ZHCC 182300Z VRB01MPS CAVOK M03/M07 Q1023 NOSIG
ZHCC,2023-01-19 00:00,ZHCC 190000Z 32001MPS CAVOK M01/M06 Q1024 NOSIG
ZHCC,2023-01-19 01:00,ZHCC 190100Z 27002MPS CAVOK 02/M05 Q1024 NOSIG
ZHCC,2023-01-19 02:00,ZHCC 190200Z 28007MPS CAVOK 07/M10 Q1025 NOSIG
ZHCC,2023-01-19 03:00,ZHCC 190300Z 29007MPS CAVOK 08/M13 Q1025 NOSIG
ZHCC,2023-01-19 04:00,ZHCC 190400Z 29009MPS CAVOK 09/M13 Q1024 NOSIG
ZHCC,2023-01-19 05:00,ZHCC 190500Z 29010MPS CAVOK 10/M14 Q1023 NOSIG
ZHCC,2023-01-19 06:00,ZHCC 190600Z 32009MPS CAVOK 10/M12 Q1023 NOSIG
ZHCC,2023-01-19 07:00,ZHCC 190700Z 31006MPS CAVOK 10/M12 Q1023 NOSIG
ZHCC,2023-01-19 08:00,ZHCC 190800Z 30006G11MPS 260V330 CAVOK 10/M13 Q1023 NOSIG
ZHCC,2023-01-19 09:00,ZHCC 190900Z 29007MPS CAVOK 09/M15 Q1024 NOSIG
ZHCC,2023-01-19 10:00,ZHCC 191000Z 30004MPS CAVOK 06/M12 Q1025 NOSIG
ZHCC,2023-01-19 11:00,ZHCC 191100Z 30005MPS CAVOK 06/M13 Q1026 NOSIG
ZHCC,2023-01-19 12:00,ZHCC 191200Z 30004MPS CAVOK 05/M13 Q1027 NOSIG
ZHCC,2023-01-19 13:00,ZHCC 191300Z 31003MPS CAVOK 03/M13 Q1028 NOSIG
ZHCC,2023-01-19 14:00,ZHCC 191400Z 29003MPS CAVOK 03/M13 Q1029 NOSIG
ZHCC,2023-01-19 15:00,ZHCC 191500Z 32004MPS CAVOK 03/M13 Q1029 NOSIG
ZHCC,2023-01-19 16:00,ZHCC 191600Z 32004MPS CAVOK 03/M13 Q1029 NOSIG
ZHCC,2023-01-19 17:00,ZHCC 191700Z 32004MPS CAVOK 02/M13 Q1030 NOSIG
ZHCC,2023-01-19 18:00,ZHCC 191800Z 29002MPS CAVOK M00/M11 Q1030 NOSIG
ZHCC,2023-01-19 19:00,ZHCC 191900Z 01004MPS 340V050 CAVOK 02/M13 Q1032 NOSIG
ZHCC,2023-01-19 20:00,ZHCC 192000Z 01004MPS CAVOK 01/M14 Q1032 NOSIG
ZHCC,2023-01-19 21:00,ZHCC 192100Z 36005MPS CAVOK 00/M14 Q1032 NOSIG
ZHCC,2023-01-19 22:00,ZHCC 192200Z 01005MPS CAVOK M01/M13 Q1033 NOSIG
ZHCC,2023-01-19 23:00,ZHCC 192300Z 01004MPS CAVOK M01/M14 Q1033 NOSIG
ZHCC,2023-01-20 00:00,ZHCC 200000Z 02003MPS 350V060 CAVOK M02/M15 Q1034 NOSIG
ZHCC,2023-01-20 01:00,ZHCC 200100Z 02003MPS 340V050 CAVOK M00/M16 Q1034 NOSIG
ZHCC,2023-01-20 02:00,ZHCC 200200Z 04004MPS CAVOK 00/M17 Q1035 NOSIG
ZHCC,2023-01-20 03:00,ZHCC 200300Z 03003MPS 350V070 CAVOK 01/M17 Q1035 NOSIG
ZHCC,2023-01-20 04:00,ZHCC 200400Z 04002MPS 350V100 CAVOK 01/M18 Q1034 NOSIG
ZHCC,2023-01-20 05:00,ZHCC 200500Z 06002MPS 030V110 CAVOK 01/M18 Q1033 NOSIG
ZHCC,2023-01-20 06:00,ZHCC 200600Z 08002MPS 340V140 CAVOK 02/M18 Q1032 NOSIG
ZHCC,2023-01-20 07:00,ZHCC 200700Z VRB01MPS CAVOK 02/M16 Q1032 NOSIG
ZHCC,2023-01-20 08:00,ZHCC 200800Z 09003MPS CAVOK 02/M15 Q1030 NOSIG
ZHCC,2023-01-20 09:00,ZHCC 200900Z 10002MPS CAVOK 02/M15 Q1030 NOSIG
ZHCC,2023-01-20 10:00,ZHCC 201000Z 14001MPS CAVOK M00/M12 Q1030 NOSIG
ZHCC,2023-01-20 11:00,ZHCC 201100Z VRB01MPS CAVOK M01/M11 Q1030 NOSIG
ZHCC,2023-01-20 12:00,ZHCC 201200Z 12001MPS CAVOK M02/M10 Q1030 NOSIG
ZHCC,2023-01-20 13:00,ZHCC 201300Z VRB01MPS CAVOK M01/M10 Q1030 NOSIG
ZHCC,2023-01-20 14:00,ZHCC 201400Z 00000MPS CAVOK M02/M09 Q1030 NOSIG
ZHCC,2023-01-20 15:00,ZHCC 201500Z 20001MPS CAVOK M02/M09 Q1029 NOSIG
ZHCC,2023-01-20 16:00,ZHCC 201600Z VRB01MPS CAVOK M05/M10 Q1028 NOSIG
ZHCC,2023-01-20 17:00,ZHCC 201700Z VRB01MPS CAVOK M04/M09 Q1027 NOSIG
ZHCC,2023-01-20 18:00,ZHCC 201800Z VRB01MPS CAVOK M04/M09 Q1026 NOSIG
ZHCC,2023-01-20 19:00,ZHCC 201900Z 00000MPS CAVOK M05/M09 Q1026 NOSIG
ZHCC,2023-01-20 20:00,ZHCC 202000Z 18001MPS CAVOK M05/M09 Q1025 NOSIG
ZHCC,2023-01-20 21:00,ZHCC 202100Z VRB01MPS CAVOK M05/M09 Q1024 NOSIG
ZHCC,2023-01-20 22:00,ZHCC 202200Z VRB01MPS CAVOK M06/M09 Q1024 NOSIG
ZHCC,2023-01-20 23:00,ZHCC 202300Z 00000MPS CAVOK M06/M09 Q1024 NOSIG
ZHCC,2023-01-21 00:00,ZHCC 210000Z 26001MPS 8000 NSC M04/M08 Q1024 NOSIG
ZHCC,2023-01-21 01:00,ZHCC 210100Z 00000MPS 6000 NSC M01/M05 Q1024 NOSIG
ZHCC,2023-01-21 02:00,ZHCC 210200Z VRB01MPS 6000 NSC 01/M07 Q1024 NOSIG
ZHCC,2023-01-21 03:00,ZHCC 210300Z VRB01MPS 6000 NSC 02/M06 Q1024 NOSIG
ZHCC,2023-01-21 04:00,ZHCC 210400Z VRB01MPS 4000 HZ NSC 04/M05 Q1023 NOSIG
ZHCC,2023-01-21 05:00,ZHCC 210500Z 23002MPS 170V330 5000 HZ NSC 06/M06 Q1021 NOSIG
ZHCC,2023-01-21 06:00,ZHCC 210600Z VRB01MPS 5000 HZ NSC 06/M06 Q1020 NOSIG
ZHCC,2023-01-21 07:00,ZHCC 210700Z VRB01MPS 5000 HZ NSC 07/M05 Q1020 NOSIG
ZHCC,2023-01-21 08:00,ZHCC 210800Z 00000MPS 5000 HZ NSC 07/M05 Q1020 NOSIG
ZHCC,2023-01-21 09:00,ZHCC 210900Z 05002MPS 5000 HZ NSC 06/M05 Q1020 NOSIG
ZHCC,2023-01-21 10:00,ZHCC 211000Z 08002MPS 040V100 6000 NSC 05/M05 Q1020 NOSIG
ZHCC,2023-01-21 11:00,ZHCC 211100Z VRB01MPS 5000 HZ NSC 04/M04 Q1021 NOSIG
ZHCC,2023-01-21 12:00,ZHCC 211200Z 32002MPS 5000 HZ NSC 04/M04 Q1022 NOSIG
ZHCC,2023-01-21 13:00,ZHCC 211300Z 31002MPS 280V340 5000 HZ NSC 03/M05 Q1023 NOSIG
ZHCC,2023-01-21 14:00,ZHCC 211400Z 35002MPS 7000 NSC 04/M06 Q1023 NOSIG
ZHCC,2023-01-21 15:00,ZHCC 211500Z VRB01MPS 7000 NSC 01/M07 Q1023 NOSIG
ZHCC,2023-01-21 16:00,ZHCC 211600Z 33002MPS 7000 NSC M02/M07 Q1023 NOSIG
ZHCC,2023-01-21 17:00,ZHCC 211700Z VRB01MPS 7000 NSC M00/M07 Q1022 NOSIG
ZHCC,2023-01-21 18:00,ZHCC 211800Z 28001MPS 5000 HZ NSC M00/M06 Q1023 NOSIG
ZHCC,2023-01-21 19:00,ZHCC 211900Z VRB01MPS 5000 HZ NSC M01/M06 Q1023 NOSIG
ZHCC,2023-01-21 20:00,ZHCC 212000Z 30001MPS 5000 HZ NSC M02/M06 Q1023 NOSIG
ZHCC,2023-01-21 21:00,ZHCC 212100Z 34001MPS 5000 HZ NSC M02/M06 Q1024 BECMG TL2240 2500
ZHCC,2023-01-21 22:00,ZHCC 212200Z 02002MPS 330V050 5000 HZ NSC 00/M08 Q1024 NOSIG
ZHCC,2023-01-21 23:00,ZHCC 212300Z VRB01MPS 5000 HZ NSC M02/M07 Q1024 NOSIG
ZHCC,2023-01-22 00:00,ZHCC 220000Z 29002MPS 260V320 5000 HZ NSC M02/M07 Q1024 NOSIG
ZHCC,2023-01-22 01:00,ZHCC 220100Z 32002MPS 5000 HZ NSC 01/M08 Q1025 NOSIG
ZHCC,2023-01-22 02:00,ZHCC 220200Z 03002MPS 350V070 5000 HZ NSC 03/M09 Q1026 NOSIG
ZHCC,2023-01-22 03:00,ZHCC 220300Z 01002MPS 330V060 5000 HZ NSC 04/M09 Q1025 NOSIG
ZHCC,2023-01-22 04:00,ZHCC 220400Z 34002MPS 280V040 5000 HZ NSC 06/M09 Q1025 NOSIG
ZHCC,2023-01-22 05:00,ZHCC 220500Z 33004MPS 5000 HZ NSC 07/M09 Q1024 NOSIG
ZHCC,2023-01-22 06:00,ZHCC 220600Z 36003MPS 300V040 5000 HZ NSC 08/M09 Q1022 NOSIG
ZHCC,2023-01-22 07:00,ZHCC 220700Z 01003MPS 320V070 5000 HZ NSC 08/M09 Q1022 NOSIG
ZHCC,2023-01-22 08:00,ZHCC 220800Z 02003MPS 330V050 5000 HZ NSC 08/M10 Q1022 NOSIG
ZHCC,2023-01-22 09:00,ZHCC 220900Z 06003MPS 5000 HZ NSC 07/M09 Q1022 NOSIG
ZHCC,2023-01-22 10:00,ZHCC 221000Z 06003MPS 6000 NSC 06/M09 Q1022 NOSIG
ZHCC,2023-01-22 11:00,ZHCC 221100Z 07003MPS 7000 NSC 04/M09 Q1023 NOSIG
ZHCC,2023-01-22 12:00,ZHCC 221200Z 07002MPS 050V110 7000 NSC 02/M09 Q1024 NOSIG
ZHCC,2023-01-22 13:00,ZHCC 221300Z VRB01MPS 7000 NSC 01/M08 Q1025 NOSIG
ZHCC,2023-01-22 14:00,ZHCC 221400Z 28001MPS 6000 NSC M02/M07 Q1025 NOSIG
ZHCC,2023-01-22 15:00,ZHCC 221500Z 00000MPS 5000 HZ NSC M03/M08 Q1025 NOSIG
ZHCC,2023-01-22 16:00,ZHCC 221600Z 26001MPS 5000 HZ NSC M03/M07 Q1025 NOSIG
ZHCC,2023-01-22 17:00,ZHCC 221700Z 28001MPS 5000 HZ NSC M04/M07 Q1025 NOSIG
ZHCC,2023-01-22 18:00,ZHCC 221800Z 25001MPS 5000 HZ NSC M03/M07 Q1026 NOSIG
ZHCC,2023-01-22 19:00,ZHCC 221900Z 28001MPS 5000 HZ NSC M04/M08 Q1026 NOSIG
ZHCC,2023-01-22 20:00,ZHCC 222000Z 28001MPS 5000 HZ NSC M04/M07 Q1026 NOSIG
ZHCC,2023-01-22 21:00,ZHCC 222100Z 34001MPS 5000 HZ NSC M01/M06 Q1026 NOSIG
ZHCC,2023-01-22 22:00,ZHCC 222200Z 34003MPS 5000 HZ NSC 01/M07 Q1026 NOSIG
ZHCC,2023-01-22 23:00,ZHCC 222300Z 34002MPS 5000 HZ NSC 00/M07 Q1027 NOSIG
ZHCC,2023-01-23 00:00,ZHCC 230000Z 31003MPS 4000 HZ NSC M00/M06 Q1028 NOSIG
ZHCC,2023-01-23 01:00,ZHCC 230100Z 29002MPS 4000 HZ NSC 02/M06 Q1029 NOSIG
ZHCC,2023-01-23 02:00,ZHCC 230200Z 30003MPS 4000 HZ NSC 04/M06 Q1030 NOSIG
ZHCC,2023-01-23 03:00,ZHCC 230300Z 32006MPS 4000 HZ NSC 06/M07 Q1030 NOSIG
ZHCC,2023-01-23 04:00,ZHCC 230400Z 03006MPS 350V050 4000 HZ NSC 06/M08 Q1031 NOSIG
ZHCC,2023-01-23 05:00,ZHCC 230500Z 02006MPS 4000 HZ NSC 06/M11 Q1030 NOSIG
ZHCC,2023-01-23 06:00,ZHCC 230600Z 02005MPS 350V060 5000 HZ NSC 07/M13 Q1030 NOSIG
ZHCC,2023-01-23 07:00,ZHCC 230700Z 04005MPS 5000 HZ NSC 06/M13 Q1030 NOSIG
ZHCC,2023-01-23 08:00,ZHCC 230800Z 05007MPS 5000 HZ NSC 04/M11 Q1031 NOSIG
ZHCC,2023-01-23 09:00,ZHCC 230900Z 04005MPS 010V090 5000 HZ NSC 03/M09 Q1033 NOSIG
ZHCC,2023-01-23 10:00,ZHCC 231000Z 02004MPS 340V060 3000 HZ NSC 02/M08 Q1035 NOSIG
ZHCC,2023-01-23 11:00,ZHCC 231100Z 02004MPS 340V060 4000 HZ NSC 01/M07 Q1036 NOSIG
ZHCC,2023-01-23 12:00,ZHCC 231200Z 35004MPS 320V020 5000 HZ NSC 01/M08 Q1038 NOSIG
ZHCC,2023-01-23 13:00,ZHCC 231300Z 35003MPS 320V030 5000 HZ NSC 00/M09 Q1039 NOSIG
ZHCC,2023-01-23 14:00,ZHCC 231400Z 36004MPS 320V050 6000 NSC M00/M08 Q1040 NOSIG
ZHCC,2023-01-23 15:00,ZHCC 231500Z 02003MPS 350V060 6000 NSC M02/M08 Q1041 NOSIG
ZHCC,2023-01-23 16:00,ZHCC 231600Z 01003MPS 350V050 6000 NSC M02/M07 Q1042 NOSIG
ZHCC,2023-01-23 17:00,ZHCC 231700Z 31003MPS 6000 NSC M04/M08 Q1043 NOSIG
ZHCC,2023-01-23 18:00,ZHCC 231800Z 32004MPS 290V350 7000 NSC M03/M12 Q1043 NOSIG
ZHCC,2023-01-23 19:00,ZHCC 231900Z 30011G18MPS CAVOK M03/M22 Q1044 NOSIG
ZHCC,2023-01-23 20:00,ZHCC 232000Z 30010G15MPS CAVOK M04/M23 Q1044 NOSIG
ZHCC,2023-01-23 21:00,ZHCC 232100Z 30009MPS CAVOK M04/M24 Q1043 NOSIG
ZHCC,2023-01-23 22:00,ZHCC 232200Z 30009MPS CAVOK M05/M25 Q1044 NOSIG
ZHCC,2023-01-23 23:00,ZHCC 232300Z 29006MPS CAVOK M06/M24 Q1044 NOSIG
ZHCC,2023-01-24 00:00,ZHCC 240000Z 30008MPS CAVOK M06/M24 Q1045 NOSIG
ZHCC,2023-01-24 01:00,ZHCC 240100Z 31007MPS CAVOK M05/M24 Q1045 NOSIG
ZHCC,2023-01-24 02:00,ZHCC 240200Z 32007MPS CAVOK M04/M25 Q1045 NOSIG
ZHCC,2023-01-24 03:00,ZHCC 240300Z 31009MPS CAVOK M03/M26 Q1045 NOSIG
ZHCC,2023-01-24 04:00,ZHCC 240400Z 29006MPS CAVOK M03/M26 Q1044 NOSIG
ZHCC,2023-01-24 05:00,ZHCC 240500Z 33005MPS 290V350 CAVOK M02/M27 Q1042 NOSIG
ZHCC,2023-01-24 06:00,ZHCC 240600Z 34003MPS 260V020 CAVOK M02/M26 Q1040 NOSIG
ZHCC,2023-01-24 07:00,ZHCC 240700Z 30003MPS 240V020 CAVOK M02/M26 Q1039 NOSIG
ZHCC,2023-01-24 08:00,ZHCC 240800Z 31003MPS 250V020 CAVOK M01/M26 Q1039 NOSIG
ZHCC,2023-01-24 09:00,ZHCC 240900Z 01002MPS 340V080 CAVOK M02/M25 Q1038 NOSIG
ZHCC,2023-01-24 10:00,ZHCC 241000Z VRB01MPS CAVOK M04/M25 Q1037 NOSIG
ZHCC,2023-01-24 11:00,ZHCC 241100Z 10003MPS CAVOK M06/M24 Q1037 NOSIG
ZHCC,2023-01-24 12:00,ZHCC 241200Z 13002MPS 100V160 CAVOK M05/M24 Q1037 NOSIG
ZHCC,2023-01-24 13:00,ZHCC 241300Z 14002MPS 110V170 CAVOK M06/M23 Q1037 NOSIG
ZHCC,2023-01-24 14:00,ZHCC 241400Z 12003MPS CAVOK M07/M21 Q1036 NOSIG
ZHCC,2023-01-24 15:00,ZHCC 241500Z 14002MPS 110V170 CAVOK M07/M21 Q1036 NOSIG
ZHCC,2023-01-24 16:00,ZHCC 241600Z 13002MPS CAVOK M07/M19 Q1036 NOSIG
ZHCC,2023-01-24 17:00,ZHCC 241700Z 15002MPS 110V190 CAVOK M08/M17 Q1035 NOSIG
ZHCC,2023-01-24 18:00,ZHCC 241800Z 15002MPS 110V180 CAVOK M08/M17 Q1034 NOSIG
ZHCC,2023-01-24 19:00,ZHCC 241900Z 14002MPS 100V180 CAVOK M08/M17 Q1034 NOSIG
ZHCC,2023-01-24 20:00,ZHCC 242000Z 15002MPS 100V200 CAVOK M08/M16 Q1032 NOSIG
ZHCC,2023-01-24 21:00,ZHCC 242100Z 16002MPS 080V210 CAVOK M08/M16 Q1031 NOSIG
ZHCC,2023-01-24 22:00,ZHCC 242200Z 17003MPS 100V210 CAVOK M08/M16 Q1031 NOSIG
ZHCC,2023-01-24 23:00,ZHCC 242300Z 17002MPS 120V240 CAVOK M08/M16 Q1030 NOSIG
ZHCC,2023-01-25 00:00,ZHCC 250000Z VRB01MPS CAVOK M08/M15 Q1030 NOSIG
ZHCC,2023-01-25 01:00,ZHCC 250100Z VRB01MPS CAVOK M07/M14 Q1030 NOSIG
ZHCC,2023-01-25 02:00,ZHCC 250200Z 18003MPS 120V210 CAVOK M05/M14 Q1030 NOSIG
ZHCC,2023-01-25 03:00,ZHCC 250300Z 17004MPS 130V210 CAVOK M04/M13 Q1028 NOSIG
ZHCC,2023-01-25 04:00,ZHCC 250400Z 16003MPS 120V210 CAVOK M03/M13 Q1026 NOSIG
ZHCC,2023-01-25 05:00,ZHCC 250500Z 16003MPS 110V210 CAVOK M01/M12 Q1025 NOSIG
ZHCC,2023-01-25 06:00,ZHCC 250600Z 18003MPS 100V240 CAVOK 00/M14 Q1023 NOSIG
ZHCC,2023-01-25 07:00,ZHCC 250700Z 19004MPS 150V240 CAVOK M01/M13 Q1022 NOSIG
ZHCC,2023-01-25 08:00,ZHCC 250800Z 19003MPS 150V230 CAVOK 00/M14 Q1022 NOSIG
ZHCC,2023-01-25 09:00,ZHCC 250900Z 19003MPS 150V240 CAVOK M00/M13 Q1021 NOSIG
ZHCC,2023-01-25 10:00,ZHCC 251000Z 19003MPS 150V230 CAVOK M01/M13 Q1022 NOSIG
ZHCC,2023-01-25 11:00,ZHCC 251100Z 18002MPS 140V210 CAVOK M02/M12 Q1021 NOSIG
ZHCC,2023-01-25 12:00,ZHCC 251200Z 20002MPS CAVOK M02/M12 Q1022 NOSIG
ZHCC,2023-01-25 13:00,ZHCC 251300Z 21002MPS 180V250 CAVOK M02/M11 Q1022 NOSIG
ZHCC,2023-01-25 14:00,ZHCC 251400Z 19002MPS 160V220 CAVOK M02/M11 Q1021 NOSIG
ZHCC,2023-01-25 15:00,ZHCC 251500Z 20003MPS 170V230 CAVOK M02/M11 Q1021 NOSIG
ZHCC,2023-01-25 16:00,ZHCC 251600Z 20002MPS 170V240 CAVOK M03/M11 Q1020 NOSIG
ZHCC,2023-01-25 17:00,ZHCC 251700Z 20002MPS CAVOK M03/M11 Q1020 NOSIG
ZHCC,2023-01-25 18:00,ZHCC 251800Z VRB01MPS CAVOK M04/M11 Q1020 NOSIG
ZHCC,2023-01-25 19:00,ZHCC 251900Z 26002MPS 200V310 CAVOK M04/M10 Q1021 NOSIG
ZHCC,2023-01-25 20:00,ZHCC 252000Z 00000MPS CAVOK M04/M10 Q1021 NOSIG
ZHCC,2023-01-25 21:00,ZHCC 252100Z VRB01MPS CAVOK M03/M10 Q1021 NOSIG
ZHCC,2023-01-25 22:00,ZHCC 252200Z VRB01MPS CAVOK M04/M09 Q1023 NOSIG
ZHCC,2023-01-25 23:00,ZHCC 252300Z 33004MPS CAVOK M02/M11 Q1023 NOSIG
ZHCC,2023-01-26 00:00,ZHCC 260000Z 34005MPS CAVOK M02/M12 Q1024 NOSIG
ZHCC,2023-01-26 01:00,ZHCC 260100Z 35005MPS CAVOK M02/M11 Q1026 NOSIG
ZHCC,2023-01-26 02:00,ZHCC 260200Z 34006MPS CAVOK M02/M12 Q1027 NOSIG
ZHCC,2023-01-26 03:00,ZHCC 260300Z 35004MPS CAVOK M01/M12 Q1028 NOSIG
ZHCC,2023-01-26 04:00,ZHCC 260400Z 01004MPS 330V050 CAVOK 00/M15 Q1028 NOSIG
ZHCC,2023-01-26 05:00,ZHCC 260500Z 02003MPS 340V050 CAVOK 01/M14 Q1028 NOSIG
ZHCC,2023-01-26 06:00,ZHCC 260600Z 03003MPS 360V060 CAVOK 02/M15 Q1027 NOSIG
ZHCC,2023-01-26 07:00,ZHCC 260700Z 05004MPS CAVOK 02/M15 Q1027 NOSIG
ZHCC,2023-01-26 08:00,ZHCC 260800Z 03003MPS 360V070 CAVOK 02/M15 Q1028 NOSIG
ZHCC,2023-01-26 09:00,ZHCC 260900Z 04004MPS CAVOK 01/M16 Q1029 NOSIG
ZHCC,2023-01-26 10:00,ZHCC 261000Z 05003MPS CAVOK 00/M15 Q1030 NOSIG
ZHCC,2023-01-26 11:00,ZHCC 261100Z 04002MPS CAVOK M01/M13 Q1031 NOSIG
ZHCC,2023-01-26 12:00,ZHCC 261200Z 04002MPS CAVOK M02/M13 Q1032 NOSIG
ZHCC,2023-01-26 13:00,ZHCC 261300Z VRB01MPS CAVOK M02/M13 Q1033 NOSIG
ZHCC,2023-01-26 14:00,ZHCC 261400Z 27002MPS 240V300 CAVOK M04/M13 Q1034 NOSIG
ZHCC,2023-01-26 15:00,ZHCC 261500Z VRB01MPS CAVOK M05/M13 Q1034 NOSIG
ZHCC,2023-01-26 16:00,ZHCC 261600Z 28001MPS CAVOK M05/M13 Q1035 NOSIG
ZHCC,2023-01-26 17:00,ZHCC 261700Z 29002MPS CAVOK M07/M13 Q1034 NOSIG
ZHCC,2023-01-26 18:00,ZHCC 261800Z 24002MPS 200V290 CAVOK M07/M13 Q1035 NOSIG
ZHCC,2023-01-26 19:00,ZHCC 261900Z VRB01MPS CAVOK M06/M13 Q1035 NOSIG
ZHCC,2023-01-26 20:00,ZHCC 262000Z VRB02MPS CAVOK M05/M13 Q1036 NOSIG
ZHCC,2023-01-26 21:00,ZHCC 262100Z 32004G09MPS CAVOK M03/M12 Q1036 NOSIG
ZHCC,2023-01-26 22:00,ZHCC 262200Z 31008MPS CAVOK 00/M18 Q1036 NOSIG
ZHCC,2023-01-26 23:00,ZHCC 262300Z 29006MPS CAVOK M00/M16 Q1036 NOSIG
ZHCC,2023-01-27 00:00,ZHCC 270000Z 28006MPS CAVOK M00/M17 Q1037 NOSIG
ZHCC,2023-01-27 01:00,ZHCC 270100Z 30007MPS CAVOK 02/M20 Q1038 NOSIG
ZHCC,2023-01-27 02:00,ZHCC 270200Z 31008G13MPS CAVOK 03/M20 Q1039 NOSIG
ZHCC,2023-01-27 03:00,ZHCC 270300Z 30008MPS CAVOK 04/M20 Q1038 NOSIG
ZHCC,2023-01-27 04:00,ZHCC 270400Z 33009MPS CAVOK 05/M21 Q1037 NOSIG
ZHCC,2023-01-27 05:00,ZHCC 270500Z 30007MPS 270V340 CAVOK 06/M20 Q1036 NOSIG
ZHCC,2023-01-27 06:00,ZHCC 270600Z 31007MPS 280V340 CAVOK 06/M21 Q1034 NOSIG
ZHCC,2023-01-27 07:00,ZHCC 270700Z 30006MPS 250V330 CAVOK 06/M22 Q1034 NOSIG
ZHCC,2023-01-27 08:00,ZHCC 270800Z 32007MPS CAVOK 06/M22 Q1033 NOSIG
ZHCC,2023-01-27 09:00,ZHCC 270900Z 29005MPS 250V320 CAVOK 05/M21 Q1033 NOSIG
ZHCC,2023-01-27 10:00,ZHCC 271000Z 24002MPS CAVOK 03/M21 Q1032 NOSIG
ZHCC,2023-01-27 11:00,ZHCC 271100Z 24002MPS 200V270 CAVOK 02/M20 Q1032 NOSIG
ZHCC,2023-01-27 12:00,ZHCC 271200Z 24002MPS CAVOK M02/M17 Q1032 NOSIG
ZHCC,2023-01-27 13:00,ZHCC 271300Z 22002MPS CAVOK M00/M17 Q1032 NOSIG
ZHCC,2023-01-27 14:00,ZHCC 271400Z 23002MPS 200V270 CAVOK M01/M17 Q1032 NOSIG
ZHCC,2023-01-27 15:00,ZHCC 271500Z 23003MPS CAVOK M01/M16 Q1031 NOSIG
ZHCC,2023-01-27 16:00,ZHCC 271600Z 26004MPS CAVOK M02/M16 Q1030 NOSIG
ZHCC,2023-01-27 17:00,ZHCC 271700Z 26002MPS CAVOK M03/M17 Q1030 NOSIG
ZHCC,2023-01-27 18:00,ZHCC 271800Z 25004MPS CAVOK M01/M16 Q1029 NOSIG
ZHCC,2023-01-27 19:00,ZHCC 271900Z 27005MPS CAVOK M01/M17 Q1029 NOSIG
ZHCC,2023-01-27 20:00,ZHCC 272000Z 28005MPS CAVOK M01/M17 Q1029 NOSIG
ZHCC,2023-01-27 21:00,ZHCC 272100Z 30006MPS CAVOK M00/M18 Q1029 NOSIG
ZHCC,2023-01-27 22:00,ZHCC 272200Z 30008MPS CAVOK 01/M20 Q1029 NOSIG
ZHCC,2023-01-27 23:00,ZHCC 272300Z 28005MPS CAVOK M01/M17 Q1029 NOSIG
ZHCC,2023-01-28 00:00,ZHCC 280000Z 29006MPS CAVOK M01/M18 Q1029 NOSIG
ZHCC,2023-01-28 01:00,ZHCC 280100Z 31008MPS CAVOK 02/M20 Q1030 NOSIG
ZHCC,2023-01-28 02:00,ZHCC 280200Z 30008MPS CAVOK 04/M21 Q1030 NOSIG
ZHCC,2023-01-28 03:00,ZHCC 280300Z 33007MPS CAVOK 06/M22 Q1030 NOSIG
ZHCC,2023-01-28 04:00,ZHCC 280400Z 30006MPS 270V350 CAVOK 06/M21 Q1029 NOSIG
ZHCC,2023-01-28 05:00,ZHCC 280500Z 31006MPS 280V340 CAVOK 07/M22 Q1028 NOSIG
ZHCC,2023-01-28 06:00,ZHCC 280600Z 30006MPS 270V330 CAVOK 08/M21 Q1026 NOSIG
ZHCC,2023-01-28 07:00,ZHCC 280700Z 29006MPS 260V340 CAVOK 09/M20 Q1026 NOSIG
ZHCC,2023-01-28 08:00,ZHCC 280800Z 29005MPS CAVOK 09/M20 Q1026 NOSIG
ZHCC,2023-01-28 09:00,ZHCC 280900Z 29005MPS CAVOK 08/M21 Q1026 NOSIG
ZHCC,2023-01-28 10:00,ZHCC 281000Z 25002MPS CAVOK 06/M21 Q1025 NOSIG
ZHCC,2023-01-28 11:00,ZHCC 281100Z 25003MPS CAVOK 05/M20 Q1026 NOSIG
ZHCC,2023-01-28 12:00,ZHCC 281200Z 26004MPS CAVOK 04/M20 Q1026 NOSIG
ZHCC,2023-01-28 13:00,ZHCC 281300Z 27002MPS CAVOK 01/M19 Q1026 NOSIG
ZHCC,2023-01-28 14:00,ZHCC 281400Z 27004MPS CAVOK 03/M20 Q1026 NOSIG
ZHCC,2023-01-28 15:00,ZHCC 281500Z 27005MPS CAVOK 03/M21 Q1025 NOSIG
ZHCC,2023-01-28 16:00,ZHCC 281600Z 26004MPS CAVOK 03/M20 Q1024 NOSIG
ZHCC,2023-01-28 17:00,ZHCC 281700Z 26005MPS CAVOK 04/M20 Q1024 NOSIG
ZHCC,2023-01-28 18:00,ZHCC 281800Z 26006MPS CAVOK 03/M20 Q1023 NOSIG
ZHCC,2023-01-28 19:00,ZHCC 281900Z 27005MPS CAVOK 03/M20 Q1023 NOSIG
ZHCC,2023-01-28 20:00,ZHCC 282000Z 28005MPS CAVOK 03/M21 Q1023 NOSIG
ZHCC,2023-01-28 21:00,ZHCC 282100Z 28005MPS CAVOK 03/M20 Q1023 NOSIG
ZHCC,2023-01-28 22:00,ZHCC 282200Z 28005MPS CAVOK 03/M20 Q1022 NOSIG
ZHCC,2023-01-28 23:00,ZHCC 282300Z 18002MPS 130V220 CAVOK 03/M20 Q1023 NOSIG
ZHCC,2023-01-29 00:00,ZHCC 290000Z 18002MPS 100V230 CAVOK 00/M18 Q1024 NOSIG
ZHCC,2023-01-29 01:00,ZHCC 290100Z VRB01MPS CAVOK 06/M19 Q1024 NOSIG
ZHCC,2023-01-29 02:00,ZHCC 290200Z 29007MPS 250V320 CAVOK 10/M21 Q1024 NOSIG
ZHCC,2023-01-29 03:00,ZHCC 290300Z 30009G15MPS CAVOK 11/M22 Q1024 NOSIG
ZHCC,2023-01-29 04:00,ZHCC 290400Z 29009MPS 260V320 CAVOK 12/M22 Q1023 NOSIG
ZHCC,2023-01-29 05:00,ZHCC 290500Z 30008MPS CAVOK 13/M21 Q1023 NOSIG
ZHCC,2023-01-29 06:00,ZHCC 290600Z 29007MPS 260V320 CAVOK 14/M20 Q1022 NOSIG
ZHCC,2023-01-29 07:00,ZHCC 290700Z 31005MPS 250V340 CAVOK 14/M20 Q1022 NOSIG
ZHCC,2023-01-29 08:00,ZHCC 290800Z 33002MPS 270V350 CAVOK 14/M20 Q1022 NOSIG
ZHCC,2023-01-29 09:00,ZHCC 290900Z 33002MPS CAVOK 13/M19 Q1022 NOSIG
ZHCC,2023-01-29 10:00,ZHCC 291000Z 36001MPS CAVOK 09/M18 Q1023 NOSIG
ZHCC,2023-01-29 11:00,ZHCC 291100Z VRB01MPS CAVOK 05/M16 Q1023 NOSIG
ZHCC,2023-01-29 12:00,ZHCC 291200Z 00000MPS CAVOK 02/M15 Q1023 NOSIG
ZHCC,2023-01-29 13:00,ZHCC 291300Z 00000MPS CAVOK 02/M14 Q1024 NOSIG
ZHCC,2023-01-29 14:00,ZHCC 291400Z 00000MPS CAVOK 01/M13 Q1024 NOSIG
ZHCC,2023-01-29 15:00,ZHCC 291500Z 30001MPS CAVOK M01/M12 Q1023 NOSIG
ZHCC,2023-01-29 16:00,ZHCC 291600Z 31001MPS CAVOK M00/M13 Q1023 NOSIG
ZHCC,2023-01-29 17:00,ZHCC 291700Z 29001MPS CAVOK M01/M12 Q1023 NOSIG
ZHCC,2023-01-29 18:00,ZHCC 291800Z VRB01MPS CAVOK M05/M13 Q1023 NOSIG
ZHCC,2023-01-29 19:00,ZHCC 291900Z 25001MPS CAVOK M03/M13 Q1022 NOSIG
ZHCC,2023-01-29 20:00,ZHCC 292000Z 29001MPS CAVOK M01/M12 Q1022 NOSIG
ZHCC,2023-01-29 21:00,ZHCC 292100Z 33001MPS CAVOK M04/M13 Q1021 NOSIG
ZHCC,2023-01-29 22:00,ZHCC 292200Z VRB01MPS CAVOK M03/M12 Q1022 NOSIG
ZHCC,2023-01-29 23:00,ZHCC 292300Z VRB01MPS CAVOK M05/M12 Q1022 NOSIG
ZHCC,2023-01-30 00:00,ZHCC 300000Z VRB01MPS CAVOK M02/M12 Q1022 NOSIG
ZHCC,2023-01-30 01:00,ZHCC 300100Z 28002MPS CAVOK 03/M13 Q1022 NOSIG
ZHCC,2023-01-30 02:00,ZHCC 300200Z 24002MPS 190V300 CAVOK 08/M11 Q1022 NOSIG
ZHCC,2023-01-30 03:00,ZHCC 300300Z 23003MPS 190V260 CAVOK 10/M10 Q1022 NOSIG
ZHCC,2023-01-30 04:00,ZHCC 300400Z 21003MPS 160V260 CAVOK 13/M07 Q1020 NOSIG
ZHCC,2023-01-30 05:00,ZHCC 300500Z 18004MPS 130V220 CAVOK 14/M06 Q1018 NOSIG
ZHCC,2023-01-30 06:00,ZHCC 300600Z 19003MPS 160V230 CAVOK 15/M07 Q1017 NOSIG
ZHCC,2023-01-30 07:00,ZHCC 300700Z 17003MPS 120V210 CAVOK 15/M08 Q1016 NOSIG
ZHCC,2023-01-30 08:00,ZHCC 300800Z 18003MPS 120V220 CAVOK 15/M06 Q1016 NOSIG
ZHCC,2023-01-30 09:00,ZHCC 300900Z 18003MPS 130V240 CAVOK 14/M05 Q1015 NOSIG
ZHCC,2023-01-30 10:00,ZHCC 301000Z 17002MPS 130V200 CAVOK 11/M04 Q1015 NOSIG
ZHCC,2023-01-30 11:00,ZHCC 301100Z 19002MPS 150V230 CAVOK 10/M04 Q1015 NOSIG
ZHCC,2023-01-30 12:00,ZHCC 301200Z 18002MPS 130V230 CAVOK 09/M04 Q1016 NOSIG
ZHCC,2023-01-30 13:00,ZHCC 301300Z 18003MPS 160V220 CAVOK 08/M03 Q1015 NOSIG
ZHCC,2023-01-30 14:00,ZHCC 301400Z VRB01MPS CAVOK 06/M05 Q1015 NOSIG
ZHCC,2023-01-30 15:00,ZHCC 301500Z VRB01MPS CAVOK 01/M05 Q1015 NOSIG
ZHCC,2023-01-30 16:00,ZHCC 301600Z 00000MPS CAVOK M00/M05 Q1015 NOSIG
ZHCC,2023-01-30 17:00,ZHCC 301700Z 28001MPS 6000 NSC 01/M05 Q1014 NOSIG
ZHCC,2023-01-30 18:00,ZHCC 301800Z VRB01MPS 6000 NSC M01/M04 Q1015 NOSIG
ZHCC,2023-01-30 19:00,ZHCC 301900Z 29001MPS 6000 NSC M01/M04 Q1014 NOSIG
ZHCC,2023-01-30 20:00,ZHCC 302000Z VRB01MPS 6000 NSC M00/M05 Q1014 NOSIG
ZHCC,2023-01-30 21:00,ZHCC 302100Z 00000MPS 6000 NSC M01/M05 Q1014 NOSIG
ZHCC,2023-01-30 22:00,ZHCC 302200Z 00000MPS 6000 NSC M01/M05 Q1014 NOSIG
ZHCC,2023-01-30 23:00,ZHCC 302300Z VRB01MPS 6000 NSC M00/M05 Q1015 NOSIG
ZHCC,2023-01-31 00:00,ZHCC 310000Z 00000MPS 5000 HZ NSC M02/M05 Q1015 NOSIG
ZHCC,2023-01-31 01:00,ZHCC 310100Z VRB01MPS 6000 NSC 05/M02 Q1015 NOSIG
ZHCC,2023-01-31 02:00,ZHCC 310200Z VRB01MPS 6000 NSC 11/M03 Q1015 NOSIG
ZHCC,2023-01-31 03:00,ZHCC 310300Z 13002MPS 090V200 6000 NSC 13/M05 Q1015 NOSIG
ZHCC,2023-01-31 04:00,ZHCC 310400Z VRB01MPS 5000 HZ NSC 14/M05 Q1014 NOSIG
ZHCC,2023-01-31 05:00,ZHCC 310500Z 09002MPS 360V140 6000 NSC 15/M06 Q1013 NOSIG
ZHCC,2023-01-31 06:00,ZHCC 310600Z VRB02MPS 7000 NSC 16/M07 Q1013 NOSIG
ZHCC,2023-01-31 07:00,ZHCC 310700Z VRB01MPS CAVOK 17/M13 Q1012 NOSIG
ZHCC,2023-01-31 08:00,ZHCC 310800Z 02002MPS 350V050 CAVOK 17/M14 Q1012 NOSIG
ZHCC,2023-01-31 09:00,ZHCC 310900Z 02003MPS CAVOK 15/M12 Q1013 NOSIG
ZHCC,2023-01-31 10:00,ZHCC 311000Z 03002MPS CAVOK 13/M11 Q1013 NOSIG
ZHCC,2023-01-31 11:00,ZHCC 311100Z VRB01MPS CAVOK 09/M09 Q1014 NOSIG
ZHCC,2023-01-31 12:00,ZHCC 311200Z VRB01MPS CAVOK 07/M09 Q1015 NOSIG
ZHCC,2023-01-31 13:00,ZHCC 311300Z 28001MPS CAVOK 05/M08 Q1016 NOSIG
ZHCC,2023-01-31 14:00,ZHCC 311400Z VRB01MPS CAVOK 07/M08 Q1016 NOSIG
ZHCC,2023-01-31 15:00,ZHCC 311500Z 29002MPS CAVOK 07/M08 Q1017 NOSIG
ZHCC,2023-01-31 16:00,ZHCC 311600Z 32003MPS CAVOK 05/M08 Q1017 NOSIG
ZHCC,2023-01-31 17:00,ZHCC 311700Z 34002MPS CAVOK 04/M07 Q1018 NOSIG
ZHCC,2023-01-31 18:00,ZHCC 311800Z 34003MPS 8000 NSC 04/M07 Q1019 NOSIG
ZHCC,2023-01-31 19:00,ZHCC 311900Z 35003MPS 8000 NSC 06/M07 Q1020 NOSIG
ZHCC,2023-01-31 20:00,ZHCC 312000Z 34002MPS 7000 NSC 05/M08 Q1020 NOSIG
ZHCC,2023-01-31 21:00,ZHCC 312100Z 03007MPS 7000 NSC 08/M11 Q1021 NOSIG
ZHCC,2023-01-31 22:00,ZHCC 312200Z 02008MPS 6000 NSC 07/M12 Q1022 NOSIG
ZHCC,2023-01-31 23:00,ZHCC 312300Z 02008G13MPS 6000 NSC 05/M14 Q1025 NOSIG
ZHCC,2023-02-01 00:00,ZHCC 010000Z 02008G15MPS 360V060 6000 NSC 04/M16 Q1027 NOSIG
ZHCC,2023-02-01 01:00,ZHCC 010100Z 04010G16MPS 6000 NSC 04/M18 Q1028 NOSIG
ZHCC,2023-02-01 02:00,ZHCC 010200Z 03010G17MPS 360V060 6000 NSC 05/M19 Q1029 NOSIG
ZHCC,2023-02-01 03:00,ZHCC 010300Z 03010G16MPS 350V060 5000 HZ NSC 05/M20 Q1029 NOSIG
ZHCC,2023-02-01 04:00,ZHCC 010400Z 03009G15MPS 360V060 5000 HZ NSC 05/M21 Q1030 NOSIG
ZHCC,2023-02-01 05:00,ZHCC 010500Z 04010MPS 010V070 8000 NSC 05/M22 Q1029 NOSIG
ZHCC,2023-02-01 06:00,ZHCC 010600Z 04008MPS CAVOK 06/M22 Q1029 NOSIG
ZHCC,2023-02-01 07:00,ZHCC 010700Z 04007MPS CAVOK 05/M23 Q1028 NOSIG
ZHCC,2023-02-01 08:00,ZHCC 010800Z 03007G12MPS CAVOK 05/M25 Q1029 NOSIG
ZHCC,2023-02-01 09:00,ZHCC 010900Z 04007MPS CAVOK 04/M24 Q1029 NOSIG
ZHCC,2023-02-01 10:00,ZHCC 011000Z 03008MPS 360V060 CAVOK 04/M24 Q1030 NOSIG
ZHCC,2023-02-01 11:00,ZHCC 011100Z 03005MPS 010V080 CAVOK 03/M23 Q1031 NOSIG
ZHCC,2023-02-01 12:00,ZHCC 011200Z 03005MPS 350V070 CAVOK 03/M22 Q1031 NOSIG
ZHCC,2023-02-01 13:00,ZHCC 011300Z 04005MPS 010V070 CAVOK 03/M21 Q1032 NOSIG
ZHCC,2023-02-01 14:00,ZHCC 011400Z 04005MPS 010V070 CAVOK 03/M21 Q1032 NOSIG
ZHCC,2023-02-01 15:00,ZHCC 011500Z 04005MPS 010V070 CAVOK 03/M21 Q1033 NOSIG
ZHCC,2023-02-01 16:00,ZHCC 011600Z 02003MPS 350V060 CAVOK 03/M20 Q1033 NOSIG
ZHCC,2023-02-01 17:00,ZHCC 011700Z 03004MPS CAVOK 02/M21 Q1033 NOSIG
ZHCC,2023-02-01 18:00,ZHCC 011800Z 03004MPS CAVOK 02/M21 Q1033 NOSIG
ZHCC,2023-02-01 19:00,ZHCC 011900Z 04003MPS CAVOK 02/M20 Q1032 NOSIG
ZHCC,2023-02-01 20:00,ZHCC 012000Z 03003MPS CAVOK 01/M21 Q1032 NOSIG
ZHCC,2023-02-01 21:00,ZHCC 012100Z 03004MPS CAVOK 01/M21 Q1032 NOSIG
ZHCC,2023-02-01 22:00,ZHCC 012200Z 01003MPS CAVOK 01/M21 Q1033 NOSIG
ZHCC,2023-02-01 23:00,ZHCC 012300Z 03002MPS 360V060 CAVOK 01/M21 Q1033 NOSIG
ZHCC,2023-02-02 00:00,ZHCC 020000Z 04003MPS CAVOK 01/M20 Q1033 NOSIG
ZHCC,2023-02-02 01:00,ZHCC 020100Z 03003MPS 360V070 CAVOK 02/M20 Q1033 NOSIG
ZHCC,2023-02-02 02:00,ZHCC 020200Z 07002MPS 040V110 CAVOK 02/M18 Q1033 NOSIG
ZHCC,2023-02-02 03:00,ZHCC 020300Z VRB01MPS CAVOK 03/M16 Q1033 NOSIG
ZHCC,2023-02-02 04:00,ZHCC 020400Z VRB01MPS CAVOK 03/M14 Q1032 NOSIG
ZHCC,2023-02-02 05:00,ZHCC 020500Z VRB01MPS CAVOK 04/M13 Q1030 NOSIG
ZHCC,2023-02-02 06:00,ZHCC 020600Z VRB01MPS CAVOK 04/M12 Q1029 NOSIG
ZHCC,2023-02-02 07:00,ZHCC 020700Z VRB01MPS CAVOK 04/M12 Q1029 NOSIG
ZHCC,2023-02-02 08:00,ZHCC 020800Z VRB01MPS CAVOK 04/M11 Q1028 NOSIG
ZHCC,2023-02-02 09:00,ZHCC 020900Z 20002MPS 160V270 9999 OVC046 03/M09 Q1028 NOSIG
ZHCC,2023-02-02 10:00,ZHCC 021000Z 21003MPS 180V240 9999 OVC040 02/M06 Q1029 NOSIG
ZHCC,2023-02-02 11:00,ZHCC 021100Z 22002MPS 190V260 9999 OVC040 01/M04 Q1028 NOSIG
ZHCC,2023-02-02 12:00,ZHCC 021200Z 19002MPS 150V220 9999 OVC040 01/M04 Q1029 NOSIG
ZHCC,2023-02-02 13:00,ZHCC 021300Z 22002MPS 180V250 9999 OVC040 01/M04 Q1029 NOSIG
ZHCC,2023-02-02 14:00,ZHCC 021400Z 21001MPS CAVOK 00/M05 Q1029 NOSIG
ZHCC,2023-02-02 15:00,ZHCC 021500Z 20002MPS 160V250 CAVOK 00/M05 Q1028 NOSIG
ZHCC,2023-02-02 16:00,ZHCC 021600Z VRB01MPS CAVOK M01/M05 Q1027 NOSIG
ZHCC,2023-02-02 17:00,ZHCC 021700Z 20001MPS CAVOK M02/M05 Q1027 NOSIG
ZHCC,2023-02-02 18:00,ZHCC 021800Z 21002MPS 180V240 CAVOK M01/M05 Q1027 NOSIG
ZHCC,2023-02-02 19:00,ZHCC 021900Z 22001MPS CAVOK M01/M05 Q1026 NOSIG
ZHCC,2023-02-02 20:00,ZHCC 022000Z 20002MPS CAVOK M01/M05 Q1026 NOSIG
ZHCC,2023-02-02 21:00,ZHCC 022100Z 25001MPS CAVOK M03/M06 Q1026 NOSIG
ZHCC,2023-02-02 22:00,ZHCC 022200Z 27001MPS CAVOK M04/M06 Q1026 NOSIG
ZHCC,2023-02-02 23:00,ZHCC 022300Z 18001MPS CAVOK M05/M06 Q1026 NOSIG
ZHCC,2023-02-03 00:00,ZHCC 030000Z 18002MPS 140V220 6000 NSC M02/M05 Q1026 NOSIG
ZHCC,2023-02-03 01:00,ZHCC 030100Z 19003MPS 150V220 8000 NSC 00/M05 Q1026 NOSIG
ZHCC,2023-02-03 02:00,ZHCC 030200Z 21003MPS 170V240 8000 NSC 02/M05 Q1026 NOSIG
ZHCC,2023-02-03 03:00,ZHCC 030300Z 19005MPS 160V220 CAVOK 03/M05 Q1026 NOSIG
ZHCC,2023-02-03 04:00,ZHCC 030400Z 19004MPS 140V230 CAVOK 04/M05 Q1025 NOSIG
ZHCC,2023-02-03 05:00,ZHCC 030500Z 20004MPS 160V230 CAVOK 05/M05 Q1023 NOSIG
ZHCC,2023-02-03 06:00,ZHCC 030600Z 20003MPS 130V250 CAVOK 07/M05 Q1022 NOSIG
ZHCC,2023-02-03 07:00,ZHCC 030700Z 21003MPS 150V260 CAVOK 07/M04 Q1021 NOSIG
ZHCC,2023-02-03 08:00,ZHCC 030800Z 18003MPS 100V220 CAVOK 07/M04 Q1022 NOSIG
ZHCC,2023-02-03 09:00,ZHCC 030900Z 18003MPS 140V210 CAVOK 07/M04 Q1022 NOSIG
ZHCC,2023-02-03 10:00,ZHCC 031000Z 17002MPS 130V240 CAVOK 05/M04 Q1022 NOSIG
ZHCC,2023-02-03 11:00,ZHCC 031100Z VRB01MPS CAVOK 03/M04 Q1023 NOSIG
ZHCC,2023-02-03 12:00,ZHCC 031200Z 11001MPS CAVOK 02/M04 Q1023 NOSIG
ZHCC,2023-02-03 13:00,ZHCC 031300Z 10002MPS 8000 NSC 02/M04 Q1024 NOSIG
ZHCC,2023-02-03 14:00,ZHCC 031400Z 11001MPS 8000 NSC M00/M05 Q1025 NOSIG
ZHCC,2023-02-03 15:00,ZHCC 031500Z 10002MPS 8000 NSC 01/M04 Q1025 NOSIG
ZHCC,2023-02-03 16:00,ZHCC 031600Z 19001MPS 8000 NSC M01/M05 Q1025 NOSIG
ZHCC,2023-02-03 17:00,ZHCC 031700Z VRB01MPS 7000 NSC M02/M04 Q1025 NOSIG
ZHCC,2023-02-03 18:00,ZHCC 031800Z VRB01MPS 7000 NSC M01/M04 Q1025 NOSIG
ZHCC,2023-02-03 19:00,ZHCC 031900Z VRB01MPS 7000 NSC M01/M05 Q1025 NOSIG
ZHCC,2023-02-03 20:00,ZHCC 032000Z 31001MPS 7000 NSC M01/M04 Q1025 NOSIG
ZHCC,2023-02-03 21:00,ZHCC 032100Z 30001MPS 7000 NSC M00/M04 Q1025 NOSIG
ZHCC,2023-02-03 22:00,ZHCC 032200Z VRB01MPS 7000 NSC M01/M04 Q1025 NOSIG
ZHCC,2023-02-03 23:00,ZHCC 032300Z 29001MPS 7000 NSC M02/M04 Q1026 NOSIG
ZHCC,2023-02-04 00:00,ZHCC 040000Z 00000MPS 5000 BR NSC M02/M04 Q1026 NOSIG
ZHCC,2023-02-04 01:00,ZHCC 040100Z 00000MPS 5000 BR NSC 02/M02 Q1027 NOSIG
ZHCC,2023-02-04 02:00,ZHCC 040200Z VRB01MPS 5000 HZ NSC 05/M03 Q1028 NOSIG
ZHCC,2023-02-04 03:00,ZHCC 040300Z 05002MPS 330V140 5000 HZ NSC 07/M03 Q1028 NOSIG
ZHCC,2023-02-04 04:00,ZHCC 040400Z 15002MPS 080V230 7000 NSC 08/M04 Q1027 NOSIG
ZHCC,2023-02-04 05:00,ZHCC 040500Z 14002MPS 080V190 7000 NSC 09/M04 Q1025 NOSIG
ZHCC,2023-02-04 06:00,ZHCC 040600Z 14003MPS 100V200 7000 NSC 09/M04 Q1024 NOSIG
ZHCC,2023-02-04 07:00,ZHCC 040700Z VRB02MPS 7000 NSC 10/M04 Q1024 NOSIG
ZHCC,2023-02-04 08:00,ZHCC 040800Z 14002MPS 060V210 7000 NSC 10/M04 Q1023 NOSIG
ZHCC,2023-02-04 09:00,ZHCC 040900Z 14002MPS 110V180 7000 NSC 09/M03 Q1023 NOSIG
ZHCC,2023-02-04 10:00,ZHCC 041000Z 12002MPS 7000 NSC 06/M04 Q1023 NOSIG
ZHCC,2023-02-04 11:00,ZHCC 041100Z 12002MPS 7000 NSC 04/M05 Q1023 NOSIG
ZHCC,2023-02-04 12:00,ZHCC 041200Z 14002MPS CAVOK 03/M04 Q1024 NOSIG
ZHCC,2023-02-04 13:00,ZHCC 041300Z 17001MPS CAVOK 02/M04 Q1024 NOSIG
ZHCC,2023-02-04 14:00,ZHCC 041400Z 00000MPS CAVOK 01/M05 Q1024 NOSIG
ZHCC,2023-02-04 15:00,ZHCC 041500Z 21001MPS CAVOK M00/M04 Q1024 NOSIG
ZHCC,2023-02-04 16:00,ZHCC 041600Z VRB01MPS CAVOK M00/M04 Q1024 NOSIG
ZHCC,2023-02-04 17:00,ZHCC 041700Z 00000MPS CAVOK M01/M04 Q1023 NOSIG
ZHCC,2023-02-04 18:00,ZHCC 041800Z 20001MPS 6000 NSC M02/M04 Q1023 NOSIG
ZHCC,2023-02-04 19:00,ZHCC 041900Z VRB01MPS 6000 NSC M03/M05 Q1023 NOSIG
ZHCC,2023-02-04 20:00,ZHCC 042000Z 00000MPS 6000 NSC M02/M05 Q1022 NOSIG
ZHCC,2023-02-04 21:00,ZHCC 042100Z 00000MPS 6000 NSC M03/M05 Q1022 NOSIG
ZHCC,2023-02-04 22:00,ZHCC 042200Z 20001MPS 5000 BR NSC M03/M05 Q1021 NOSIG
ZHCC,2023-02-04 23:00,ZHCC 042300Z 31001MPS 5000 BR NSC M04/M05 Q1021 NOSIG
ZHCC,2023-02-05 00:00,ZHCC 050000Z 30001MPS 4000 BR NSC M02/M05 Q1022 NOSIG
ZHCC,2023-02-05 01:00,ZHCC 050100Z 00000MPS 3000 BR NSC 03/M01 Q1022 NOSIG
ZHCC,2023-02-05 02:00,ZHCC 050200Z VRB01MPS 4000 HZ NSC 06/M02 Q1022 NOSIG
ZHCC,2023-02-05 03:00,ZHCC 050300Z 18003MPS 130V220 5000 HZ NSC 08/M02 Q1022 NOSIG
ZHCC,2023-02-05 04:00,ZHCC 050400Z 17003MPS 110V220 5000 HZ NSC 09/M01 Q1021 NOSIG
ZHCC,2023-02-05 05:00,ZHCC 050500Z 18003MPS 120V210 5000 HZ NSC 11/M01 Q1019 NOSIG
ZHCC,2023-02-05 06:00,ZHCC 050600Z 19004MPS 140V240 5000 HZ NSC 11/M01 Q1018 NOSIG
ZHCC,2023-02-05 07:00,ZHCC 050700Z 20003MPS 150V240 5000 HZ NSC 12/M00 Q1018 NOSIG
ZHCC,2023-02-05 08:00,ZHCC 050800Z 18003MPS 140V220 5000 HZ NSC 11/M00 Q1017 NOSIG
ZHCC,2023-02-05 09:00,ZHCC 050900Z 17002MPS 120V220 5000 HZ NSC 11/M00 Q1017 NOSIG
ZHCC,2023-02-05 10:00,ZHCC 051000Z VRB01MPS 4000 HZ NSC 09/M00 Q1017 NOSIG
ZHCC,2023-02-05 11:00,ZHCC 051100Z VRB01MPS 6000 NSC 08/M00 Q1018 NOSIG
ZHCC,2023-02-05 12:00,ZHCC 051200Z VRB01MPS 5000 HZ NSC 08/00 Q1018 NOSIG
ZHCC,2023-02-05 13:00,ZHCC 051300Z 19002MPS 160V220 5000 HZ NSC 08/00 Q1018 NOSIG
ZHCC,2023-02-05 14:00,ZHCC 051400Z 19002MPS 160V220 4000 HZ NSC 08/00 Q1018 NOSIG
ZHCC,2023-02-05 15:00,ZHCC 051500Z 00000MPS 4000 HZ NSC 06/M00 Q1018 NOSIG
ZHCC,2023-02-05 16:00,ZHCC 051600Z 22001MPS 4000 HZ NSC 06/00 Q1018 NOSIG
ZHCC,2023-02-05 17:00,ZHCC 051700Z 21001MPS 4000 BR NSC 03/M00 Q1018 NOSIG
ZHCC,2023-02-05 18:00,ZHCC 051800Z VRB01MPS 3500 BR NSC 01/M02 Q1018 NOSIG
ZHCC,2023-02-05 19:00,ZHCC 051900Z VRB01MPS 3500 BR NSC 02/M01 Q1018 NOSIG
ZHCC,2023-02-05 20:00,ZHCC 052000Z 27001MPS 3500 BR NSC 02/M01 Q1018 NOSIG
ZHCC,2023-02-05 21:00,ZHCC 052100Z 28001MPS 3500 BR NSC M01/M03 Q1018 NOSIG
ZHCC,2023-02-05 22:00,ZHCC 052200Z VRB01MPS 3500 BR NSC 01/M01 Q1018 BECMG TL2340 2000
ZHCC,2023-02-05 23:00,ZHCC 052300Z VRB01MPS 3000 BR NSC M01/M03 Q1019 BECMG TL2340 2000
ZHCC,2023-02-06 00:00,ZHCC 060000Z VRB01MPS 1600 BR NSC M00/M01 Q1019 BECMG TL0140 3000
ZHCC,2023-02-06 01:00,ZHCC 060100Z VRB01MPS 2000 BR NSC 04/01 Q1020 BECMG TL0240 3000
ZHCC,2023-02-06 02:00,ZHCC 060200Z 35003MPS 2000 HZ NSC 07/00 Q1020 BECMG TL0340 3000
ZHCC,2023-02-06 03:00,ZHCC 060300Z 02003MPS 340V050 2500 HZ NSC 08/00 Q1020 BECMG TL0440 3000
ZHCC,2023-02-06 04:00,ZHCC 060400Z 03003MPS 350V070 2500 HZ NSC 09/00 Q1020 BECMG TL0520 3000
ZHCC,2023-02-06 05:00,ZHCC 060500Z 02003MPS 350V050 2500 HZ NSC 10/00 Q1019 NOSIG
ZHCC,2023-02-06 06:00,ZHCC 060600Z 03004MPS 2500 HZ NSC 10/M00 Q1019 NOSIG
ZHCC,2023-02-06 07:00,ZHCC 060700Z 01004MPS 340V050 2500 HZ NSC 10/M01 Q1019 BECMG TL0840 3000
ZHCC,2023-02-06 08:00,ZHCC 060800Z 02004MPS 350V060 2500 HZ NSC 10/M01 Q1018 BECMG TL0840 3000
ZHCC,2023-02-06 09:00,ZHCC 060900Z 02004MPS 350V050 3000 HZ NSC 10/M01 Q1019 BECMG TL1040 2000
ZHCC,2023-02-06 10:00,ZHCC 061000Z 02003MPS 350V050 2500 HZ NSC 09/M01 Q1019 BECMG TL1120 3000
ZHCC,2023-02-06 11:00,ZHCC 061100Z 02003MPS 3500 HZ NSC 09/M01 Q1020 NOSIG
ZHCC,2023-02-06 12:00,ZHCC 061200Z 02004MPS 340V040 3500 HZ NSC 09/M01 Q1021 NOSIG
ZHCC,2023-02-06 13:00,ZHCC 061300Z 05004MPS 3500 HZ NSC 08/M01 Q1021 NOSIG
ZHCC,2023-02-06 14:00,ZHCC 061400Z 04003MPS 360V060 3500 HZ NSC 08/M01 Q1022 NOSIG
ZHCC,2023-02-06 15:00,ZHCC 061500Z 02003MPS 360V060 3000 HZ NSC 07/M01 Q1023 BECMG TL1640 2000
ZHCC,2023-02-06 16:00,ZHCC 061600Z 02004MPS 360V060 3000 HZ OVC040 07/M02 Q1022 BECMG TL1640 2000
ZHCC,2023-02-06 17:00,ZHCC 061700Z 36003MPS 2500 HZ OVC040 07/M02 Q1023 NOSIG
ZHCC,2023-02-06 18:00,ZHCC 061800Z 34003MPS 290V030 2500 HZ OVC040 06/M02 Q1023 NOSIG
ZHCC,2023-02-06 19:00,ZHCC 061900Z 34002MPS 2500 HZ OVC040 06/M02 Q1023 NOSIG
ZHCC,2023-02-06 20:00,ZHCC 062000Z 35003MPS 2800 HZ OVC040 05/M03 Q1023 NOSIG
ZHCC,2023-02-06 21:00,ZHCC 062100Z 01002MPS 2800 HZ OVC040 05/M03 Q1023 NOSIG
ZHCC,2023-02-06 22:00,ZHCC 062200Z 36002MPS 2800 HZ OVC040 04/M02 Q1023 NOSIG
ZHCC,2023-02-06 23:00,ZHCC 062300Z 27001MPS 2800 HZ OVC040 02/M03 Q1024 NOSIG
ZHCC,2023-02-07 00:00,ZHCC 070000Z 29002MPS 2000 HZ NSC 01/M03 Q1025 NOSIG
ZHCC,2023-02-07 01:00,ZHCC 070100Z 35002MPS 320V030 2000 HZ NSC 05/M02 Q1026 NOSIG
ZHCC,2023-02-07 02:00,ZHCC 070200Z 03003MPS 360V060 2000 HZ NSC 06/M01 Q1025 BECMG TL0340 3000
ZHCC,2023-02-07 03:00,ZHCC 070300Z 03002MPS 350V080 2500 HZ NSC 07/M02 Q1025 BECMG TL0340 3000
ZHCC,2023-02-07 04:00,ZHCC 070400Z 03002MPS 330V080 3000 HZ NSC 08/M02 Q1025 NOSIG
ZHCC,2023-02-07 05:00,ZHCC 070500Z 06002MPS 350V100 3000 HZ NSC 10/M01 Q1024 NOSIG
ZHCC,2023-02-07 06:00,ZHCC 070600Z 06002MPS 020V100 3000 HZ NSC 10/M01 Q1023 NOSIG
ZHCC,2023-02-07 07:00,ZHCC 070700Z 06003MPS 010V100 3000 HZ NSC 10/M01 Q1022 NOSIG
ZHCC,2023-02-07 08:00,ZHCC 070800Z 07002MPS 3000 HZ NSC 10/M01 Q1022 NOSIG
ZHCC,2023-02-07 09:00,ZHCC 070900Z 08003MPS 3000 HZ NSC 09/M01 Q1022 NOSIG
ZHCC,2023-02-07 10:00,ZHCC 071000Z 09003MPS 3000 HZ NSC 08/M01 Q1022 NOSIG
ZHCC,2023-02-07 11:00,ZHCC 071100Z 11002MPS 4000 HZ NSC 06/M01 Q1023 NOSIG
ZHCC,2023-02-07 12:00,ZHCC 071200Z VRB01MPS 4000 HZ NSC 06/M02 Q1024 NOSIG
ZHCC,2023-02-07 13:00,ZHCC 071300Z 07002MPS 4000 HZ NSC 06/M01 Q1024 NOSIG
ZHCC,2023-02-07 14:00,ZHCC 071400Z VRB01MPS 4000 HZ NSC 04/M02 Q1024 NOSIG
ZHCC,2023-02-07 15:00,ZHCC 071500Z 10001MPS 4000 HZ NSC 04/M01 Q1025 NOSIG
ZHCC,2023-02-07 16:00,ZHCC 071600Z 00000MPS 4000 HZ NSC 04/M01 Q1025 NOSIG
ZHCC,2023-02-07 17:00,ZHCC 071700Z 05002MPS 4000 HZ NSC 06/M01 Q1025 NOSIG
ZHCC,2023-02-07 18:00,ZHCC 071800Z 05002MPS 4000 HZ NSC 06/M01 Q1026 NOSIG
ZHCC,2023-02-07 19:00,ZHCC 071900Z 05002MPS 4000 HZ NSC 05/M01 Q1026 NOSIG
ZHCC,2023-02-07 20:00,ZHCC 072000Z 02004MPS 3000 HZ NSC 06/M00 Q1026 NOSIG
ZHCC,2023-02-07 21:00,ZHCC 072100Z 03006G11MPS 3000 HZ BKN046 05/M01 Q1026 NOSIG
ZHCC,2023-02-07 22:00,ZHCC 072200Z 03007MPS 3000 HZ BKN046 04/M02 Q1026 NOSIG
ZHCC,2023-02-07 23:00,ZHCC 072300Z 03006MPS 4000 HZ NSC 04/M02 Q1027 NOSIG
ZHCC,2023-02-08 00:00,ZHCC 080000Z 04006MPS 3000 HZ NSC 04/M03 Q1029 NOSIG
ZHCC,2023-02-08 01:00,ZHCC 080100Z 05004MPS 010V070 3000 HZ BKN046 04/M03 Q1029 NOSIG
ZHCC,2023-02-08 02:00,ZHCC 080200Z 03006MPS 350V050 3000 HZ OVC046 04/M03 Q1030 NOSIG
ZHCC,2023-02-08 03:00,ZHCC 080300Z 02007MPS 360V070 3000 HZ OVC046 05/M03 Q1030 NOSIG
ZHCC,2023-02-08 04:00,ZHCC 080400Z 03006MPS 3000 HZ OVC046 05/M03 Q1029 NOSIG
ZHCC,2023-02-08 05:00,ZHCC 080500Z 03007MPS 350V050 3000 HZ OVC046 06/M02 Q1028 BECMG TL0540 2000
ZHCC,2023-02-08 06:00,ZHCC 080600Z 02007MPS 2800 HZ OVC040 06/M03 Q1027 BECMG TL0640 3000
ZHCC,2023-02-08 07:00,ZHCC 080700Z 03007MPS 3500 HZ OVC040 06/M05 Q1026 NOSIG
ZHCC,2023-02-08 08:00,ZHCC 080800Z 03007MPS 4500 HZ OVC040 06/M06 Q1026 NOSIG
ZHCC,2023-02-08 09:00,ZHCC 080900Z 04007MPS 4500 HZ OVC040 05/M07 Q1026 NOSIG
ZHCC,2023-02-08 10:00,ZHCC 081000Z 04006MPS 4000 HZ OVC030 05/M06 Q1027 NOSIG
ZHCC,2023-02-08 11:00,ZHCC 081100Z 04006MPS 6000 -RASN OVC030 04/M04 Q1028 NOSIG
ZHCC,2023-02-08 12:00,ZHCC 081200Z 02005MPS 350V050 5000 -RASN HZ OVC023 03/M02 Q1028 NOSIG
ZHCC,2023-02-08 13:00,ZHCC 081300Z 01004MPS 340V060 5000 -RASN BR OVC023 02/M01 Q1028 NOSIG
ZHCC,2023-02-08 14:00,ZHCC 081400Z 36004MPS 4000 -RASN BR OVC023 01/M01 Q1029 NOSIG
ZHCC,2023-02-08 15:00,ZHCC 081500Z 35003MPS 310V020 2000 -SN BR SCT006 OVC020 01/M00 Q1029 NOSIG
ZHCC,2023-02-08 16:00,ZHCC 081600Z 01003MPS 2100 -SN BR SCT006 OVC020 01/M00 Q1028 NOSIG
ZHCC,2023-02-08 17:00,ZHCC 081700Z 01004MPS 340V040 2100 -SN BR SCT006 OVC020 01/M00 Q1028 NOSIG
ZHCC,2023-02-08 18:00,ZHCC 081800Z 01004MPS 2500 -SN BR SCT006 OVC020 01/M00 Q1027 NOSIG
ZHCC,2023-02-08 19:00,ZHCC 081900Z 01005MPS 2500 -SN BR SCT006 OVC020 01/M00 Q1027 NOSIG
ZHCC,2023-02-08 20:00,ZHCC 082000Z 01004MPS 340V050 2500 -SN BR SCT006 OVC020 01/M00 Q1026 NOSIG
ZHCC,2023-02-08 21:00,ZHCC 082100Z 01004MPS 340V050 2800 -SN BR SCT006 OVC020 01/M00 Q1026 NOSIG
ZHCC,2023-02-08 22:00,ZHCC 082200Z 03004MPS 2800 -SN BR SCT006 OVC020 01/M00 Q1025 NOSIG
ZHCC,2023-02-08 23:00,ZHCC 082300Z 01003MPS 2800 -SN BR SCT006 OVC020 01/00 Q1026 BECMG TL0040 3000
ZHCC,2023-02-09 00:00,ZHCC 090000Z 01004MPS 2200 -RA BR SCT006 OVC020 01/00 Q1026 BECMG TL0140 3000
ZHCC,2023-02-09 01:00,ZHCC 090100Z 02003MPS 1600 BR SCT006 OVC020 01/M00 Q1026 BECMG TL0210 1200
ZHCC,2023-02-09 02:00,ZHCC 090200Z 01003MPS 1400 R30L/1600N R30R/1800N BR SCT006 OVC020 01/00 Q1026 BECMG TL0310 1600
ZHCC,2023-02-09 03:00,ZHCC 090300Z 34003MPS 1800 BR SCT007 OVC026 02/00 Q1026 NOSIG
ZHCC,2023-02-09 04:00,ZHCC 090400Z 35003MPS 1800 BR SCT007 OVC026 02/01 Q1025 NOSIG
ZHCC,2023-02-09 05:00,ZHCC 090500Z 01002MPS 320V040 1800 BR SCT007 OVC026 02/01 Q1024 NOSIG
ZHCC,2023-02-09 06:00,ZHCC 090600Z 34003MPS 1800 BR SCT007 OVC026 03/01 Q1023 NOSIG
ZHCC,2023-02-09 07:00,ZHCC 090700Z 33002MPS 300V010 2000 BR SCT007 OVC026 03/01 Q1023 NOSIG
ZHCC,2023-02-09 08:00,ZHCC 090800Z 32002MPS 280V360 2000 BR SCT007 OVC026 04/00 Q1023 NOSIG
ZHCC,2023-02-09 09:00,ZHCC 090900Z VRB01MPS 2200 BR SCT007 OVC026 04/01 Q1023 BECMG TL1040 3000
ZHCC,2023-02-09 10:00,ZHCC 091000Z 10002MPS 2800 BR OVC020 03/01 Q1023 BECMG TL1120 3000
ZHCC,2023-02-09 11:00,ZHCC 091100Z VRB01MPS 4000 BR OVC020 03/01 Q1023 NOSIG
ZHCC,2023-02-09 12:00,ZHCC 091200Z VRB01MPS 4000 BR OVC020 03/01 Q1024 NOSIG
ZHCC,2023-02-09 13:00,ZHCC 091300Z 00000MPS 4000 BR OVC020 03/01 Q1024 NOSIG
ZHCC,2023-02-09 14:00,ZHCC 091400Z VRB01MPS 4000 BR OVC020 03/01 Q1024 NOSIG
ZHCC,2023-02-09 15:00,ZHCC 091500Z VRB01MPS 4000 BR OVC020 03/01 Q1024 NOSIG
ZHCC,2023-02-09 16:00,ZHCC 091600Z VRB01MPS 3500 BR OVC020 03/01 Q1024 NOSIG
ZHCC,2023-02-09 17:00,ZHCC 091700Z 19002MPS 150V220 3000 BR OVC020 03/01 Q1024 NOSIG
ZHCC,2023-02-09 18:00,ZHCC 091800Z 19002MPS 160V220 3000 BR OVC020 03/01 Q1024 NOSIG
ZHCC,2023-02-09 19:00,ZHCC 091900Z 18002MPS 150V220 3000 BR OVC020 03/01 Q1023 NOSIG
ZHCC,2023-02-09 20:00,ZHCC 092000Z VRB01MPS 3000 BR OVC020 03/01 Q1023 NOSIG
ZHCC,2023-02-09 21:00,ZHCC 092100Z VRB01MPS 3000 BR OVC020 03/01 Q1022 BECMG TL2240 2000
ZHCC,2023-02-09 22:00,ZHCC 092200Z VRB01MPS 3000 BR OVC020 02/01 Q1022 BECMG TL2310 2000
ZHCC,2023-02-09 23:00,ZHCC 092300Z VRB01MPS 2500 BR OVC020 02/01 Q1022 NOSIG
ZHCC,2023-02-10 00:00,ZHCC 100000Z VRB01MPS 1600 BR OVC020 02/01 Q1023 NOSIG
ZHCC,2023-02-10 01:00,ZHCC 100100Z 14002MPS 110V180 1500 BR OVC020 03/02 Q1023 NOSIG
ZHCC,2023-02-10 02:00,ZHCC 100200Z VRB01MPS 1500 BR OVC020 03/02 Q1023 NOSIG
ZHCC,2023-02-10 03:00,ZHCC 100300Z VRB01MPS 1500 BR OVC020 04/02 Q1024 NOSIG
ZHCC,2023-02-10 04:00,ZHCC 100400Z 15002MPS 120V190 2000 BR OVC020 04/01 Q1023 NOSIG
ZHCC,2023-02-10 05:00,ZHCC 100500Z 17002MPS 120V210 2000 BR OVC020 05/01 Q1023 NOSIG
ZHCC,2023-02-10 06:00,ZHCC 100600Z 17003MPS 110V210 2500 BR OVC030 04/00 Q1022 BECMG TL0640 3000
ZHCC,2023-02-10 07:00,ZHCC 100700Z 15002MPS 100V200 2500 BR OVC030 04/M00 Q1021 BECMG TL0740 3000
ZHCC,2023-02-10 08:00,ZHCC 100800Z 11002MPS 3000 BR OVC030 04/00 Q1020 NOSIG
ZHCC,2023-02-10 09:00,ZHCC 100900Z 12002MPS 3000 BR OVC030 04/01 Q1020 NOSIG
ZHCC,2023-02-10 10:00,ZHCC 101000Z 17002MPS 120V230 4000 BR OVC030 04/00 Q1020 NOSIG
ZHCC,2023-02-10 11:00,ZHCC 101100Z 10002MPS 4000 BR OVC030 04/01 Q1020 NOSIG
ZHCC,2023-02-10 12:00,ZHCC 101200Z VRB01MPS 4000 BR OVC030 04/01 Q1021 NOSIG
ZHCC,2023-02-10 13:00,ZHCC 101300Z VRB01MPS 4000 BR OVC030 04/01 Q1021 NOSIG
ZHCC,2023-02-10 14:00,ZHCC 101400Z VRB01MPS 4000 -RA BR OVC030 04/01 Q1021 NOSIG
ZHCC,2023-02-10 15:00,ZHCC 101500Z VRB01MPS 4000 -RA BR OVC030 03/01 Q1021 NOSIG
ZHCC,2023-02-10 16:00,ZHCC 101600Z VRB01MPS 4000 -RA BR OVC030 02/01 Q1021 NOSIG
ZHCC,2023-02-10 17:00,ZHCC 101700Z VRB01MPS 4000 -RA BR OVC030 02/01 Q1020 NOSIG
ZHCC,2023-02-10 18:00,ZHCC 101800Z VRB01MPS 4000 -RA BR OVC030 02/01 Q1020 NOSIG
ZHCC,2023-02-10 19:00,ZHCC 101900Z VRB01MPS 3000 BR OVC030 02/02 Q1020 NOSIG
ZHCC,2023-02-10 20:00,ZHCC 102000Z 33001MPS 3000 BR OVC030 02/02 Q1019 NOSIG
ZHCC,2023-02-10 21:00,ZHCC 102100Z 08001MPS 3000 BR OVC030 03/02 Q1019 NOSIG
ZHCC,2023-02-10 22:00,ZHCC 102200Z 11002MPS 3000 BR OVC030 02/02 Q1018 NOSIG
ZHCC,2023-02-10 23:00,ZHCC 102300Z VRB01MPS 3000 BR OVC030 02/02 Q1019 NOSIG
ZHCC,2023-02-11 00:00,ZHCC 110000Z VRB01MPS 2000 BR OVC020 03/02 Q1020 NOSIG
ZHCC,2023-02-11 01:00,ZHCC 110100Z VRB01MPS 2000 BR OVC020 03/02 Q1020 NOSIG
ZHCC,2023-02-11 02:00,ZHCC 110200Z 13002MPS 100V200 2000 BR OVC020 04/03 Q1020 NOSIG
ZHCC,2023-02-11 03:00,ZHCC 110300Z 14002MPS 110V170 2000 BR OVC020 04/03 Q1020 NOSIG
ZHCC,2023-02-11 04:00,ZHCC 110400Z VRB01MPS 4000 BR OVC020 05/03 Q1019 NOSIG
ZHCC,2023-02-11 05:00,ZHCC 110500Z VRB01MPS 2000 BR OVC020 05/03 Q1018 NOSIG
ZHCC,2023-02-11 06:00,ZHCC 110600Z 05003MPS 010V070 1800 BR OVC020 05/04 Q1018 NOSIG
ZHCC,2023-02-11 07:00,ZHCC 110700Z 08003MPS 050V110 1800 BR OVC020 05/04 Q1018 NOSIG
ZHCC,2023-02-11 08:00,ZHCC 110800Z 05002MPS 2000 -DZ BR OVC020 05/04 Q1018 NOSIG
ZHCC,2023-02-11 09:00,ZHCC 110900Z 07002MPS 020V090 2500 BR SCT005 OVC020 05/04 Q1018 BECMG TL1040 3000
ZHCC,2023-02-11 10:00,ZHCC 111000Z 04002MPS 360V080 2800 -DZ BR SCT005 OVC020 05/04 Q1019 BECMG TL1040 3000
ZHCC,2023-02-11 11:00,ZHCC 111100Z 04004MPS 3500 -DZ BR SCT005 OVC020 05/04 Q1019 NOSIG
ZHCC,2023-02-11 12:00,ZHCC 111200Z 03003MPS 360V060 3000 BR SCT005 OVC020 05/04 Q1020 BECMG TL1340 2000
ZHCC,2023-02-11 13:00,ZHCC 111300Z 05004MPS 3000 -DZ BR SCT005 OVC020 05/04 Q1020 BECMG TL1340 2000
ZHCC,2023-02-11 14:00,ZHCC 111400Z 04004MPS 2800 BR SCT005 OVC020 05/04 Q1020 BECMG TL1440 3000
ZHCC,2023-02-11 15:00,ZHCC 111500Z 04004MPS 3000 BR SCT005 OVC020 05/04 Q1020 BECMG TL1620 2500 -RASN
ZHCC,2023-02-11 16:00,ZHCC 111600Z 05003MPS 2800 BR SCT005 OVC020 05/04 Q1020 NOSIG
ZHCC,2023-02-11 17:00,ZHCC 111700Z 04003MPS 2500 -RA BR SCT005 OVC020 05/04 Q1020 NOSIG
ZHCC,2023-02-11 18:00,ZHCC 111800Z 03003MPS 2500 -RA BR SCT005 OVC020 05/04 Q1020 NOSIG
ZHCC,2023-02-11 19:00,ZHCC 111900Z 36003MPS 2500 -RA BR SCT005 OVC020 05/04 Q1019 NOSIG
ZHCC,2023-02-11 20:00,ZHCC 112000Z 34004MPS 310V010 2500 -RA BR SCT005 OVC020 05/04 Q1019 NOSIG
ZHCC,2023-02-11 21:00,ZHCC 112100Z 35003MPS 2500 -RA BR SCT005 OVC020 05/05 Q1020 NOSIG
ZHCC,2023-02-11 22:00,ZHCC 112200Z 34004MPS 2500 -RA BR SCT005 OVC020 05/05 Q1020 NOSIG
ZHCC,2023-02-11 23:00,ZHCC 112300Z 02005MPS 340V050 2500 -RA BR SCT005 OVC020 05/04 Q1019 NOSIG
ZHCC,2023-02-12 00:00,ZHCC 120000Z 02005MPS 350V050 2500 BR SCT005 OVC020 05/04 Q1020 BECMG TL0140 3000
ZHCC,2023-02-12 01:00,ZHCC 120100Z 02005MPS 360V060 2100 BR SCT005 OVC020 05/04 Q1021 NOSIG
ZHCC,2023-02-12 02:00,ZHCC 120200Z 35004MPS 310V020 2500 BR SCT008 OVC020 05/03 Q1023 NOSIG
ZHCC,2023-02-12 03:00,ZHCC 120300Z 01005MPS 340V040 2500 BR SCT008 OVC020 05/03 Q1023 NOSIG
ZHCC,2023-02-12 04:00,ZHCC 120400Z 01006MPS 340V040 2100 -RA BR SCT008 OVC020 04/03 Q1022 NOSIG
ZHCC,2023-02-12 05:00,ZHCC 120500Z 01006MPS 2100 BR SCT006 OVC020 04/03 Q1021 NOSIG
ZHCC,2023-02-12 06:00,ZHCC 120600Z 36006MPS 320V030 2800 BR SCT008 OVC020 04/03 Q1021 BECMG TL0640 3000
ZHCC,2023-02-12 07:00,ZHCC 120700Z 01006MPS 340V040 3000 BR SCT008 OVC020 05/02 Q1021 BECMG TL0740 2000
ZHCC,2023-02-12 08:00,ZHCC 120800Z 02005MPS 350V050 2500 BR SCT008 OVC020 04/02 Q1021 NOSIG
ZHCC,2023-02-12 09:00,ZHCC 120900Z 02006MPS 2500 -RA BR SCT008 OVC020 04/02 Q1022 NOSIG
ZHCC,2023-02-12 10:00,ZHCC 121000Z 02008MPS 2500 -RA BR SCT008 OVC020 04/02 Q1022 NOSIG
ZHCC,2023-02-12 11:00,ZHCC 121100Z 02005MPS 350V060 2500 -RA BR SCT008 OVC020 03/02 Q1024 NOSIG
ZHCC,2023-02-12 12:00,ZHCC 121200Z 01006MPS 340V050 2500 -RA BR SCT008 OVC020 02/01 Q1025 BECMG TL1240 3000
ZHCC,2023-02-12 13:00,ZHCC 121300Z 36005MPS 320V030 3000 -RA BR SCT008 OVC020 02/01 Q1027 NOSIG
ZHCC,2023-02-12 14:00,ZHCC 121400Z 01007MPS 3000 -RA BR SCT008 OVC020 02/01 Q1027 NOSIG
ZHCC,2023-02-12 15:00,ZHCC 121500Z 36007G12MPS 340V050 3000 -RA BR SCT008 OVC020 02/01 Q1028 NOSIG
ZHCC,2023-02-12 16:00,ZHCC 121600Z 36007MPS 3000 -RASN BR SCT008 OVC020 02/00 Q1029 NOSIG
ZHCC,2023-02-12 17:00,ZHCC 121700Z 01008MPS 340V040 3000 -RASN BR SCT008 OVC020 02/00 Q1029 NOSIG
ZHCC,2023-02-12 18:00,ZHCC 121800Z 01008G13MPS 350V050 3000 -RASN BR SCT008 OVC020 02/M00 Q1029 NOSIG
ZHCC,2023-02-12 19:00,ZHCC 121900Z 02008G13MPS 350V050 2500 -RASN BR SCT008 OVC020 01/M01 Q1030 NOSIG
ZHCC,2023-02-12 20:00,ZHCC 122000Z 02006MPS 3500 -SN BR SCT008 OVC020 01/M01 Q1030 NOSIG
ZHCC,2023-02-12 21:00,ZHCC 122100Z 02007G12MPS 5000 -RASN BR SCT008 OVC020 00/M01 Q1030 NOSIG
ZHCC,2023-02-12 22:00,ZHCC 122200Z 01007MPS 340V040 6000 SCT010 OVC020 00/M02 Q1031 NOSIG
ZHCC,2023-02-12 23:00,ZHCC 122300Z 02006MPS 360V060 6000 SCT010 OVC020 00/M02 Q1032 NOSIG
ZHCC,2023-02-13 00:00,ZHCC 130000Z 02006MPS 330V070 5000 BR SCT020 01/M02 Q1033 NOSIG
ZHCC,2023-02-13 01:00,ZHCC 130100Z 02005MPS 350V060 5000 BR SCT020 01/M02 Q1034 NOSIG
ZHCC,2023-02-13 02:00,ZHCC 130200Z 01006MPS 340V040 7000 NSC 02/M03 Q1034 NOSIG
ZHCC,2023-02-13 03:00,ZHCC 130300Z 02006MPS 350V080 7000 NSC 02/M04 Q1034 NOSIG
ZHCC,2023-02-13 04:00,ZHCC 130400Z 03005MPS 360V060 CAVOK 03/M04 Q1033 NOSIG
ZHCC,2023-02-13 05:00,ZHCC 130500Z 02006MPS 350V060 CAVOK 05/M05 Q1032 NOSIG
ZHCC,2023-02-13 06:00,ZHCC 130600Z 02006MPS 340V070 CAVOK 05/M07 Q1031 NOSIG
ZHCC,2023-02-13 07:00,ZHCC 130700Z 03005MPS 340V060 CAVOK 05/M05 Q1031 NOSIG
ZHCC,2023-02-13 08:00,ZHCC 130800Z 04004MPS CAVOK 05/M04 Q1031 NOSIG
ZHCC,2023-02-13 09:00,ZHCC 130900Z 02004MPS 350V050 CAVOK 05/M04 Q1032 NOSIG
ZHCC,2023-02-13 10:00,ZHCC 131000Z 01004MPS CAVOK 04/M04 Q1032 NOSIG
ZHCC,2023-02-13 11:00,ZHCC 131100Z 03003MPS CAVOK 04/M04 Q1033 NOSIG
ZHCC,2023-02-13 12:00,ZHCC 131200Z 36003MPS CAVOK 04/M05 Q1033 NOSIG
ZHCC,2023-02-13 13:00,ZHCC 131300Z 01002MPS CAVOK 04/M05 Q1033 NOSIG
ZHCC,2023-02-13 14:00,ZHCC 131400Z 33002MPS CAVOK 03/M04 Q1033 NOSIG
ZHCC,2023-02-13 15:00,ZHCC 131500Z 33001MPS CAVOK 01/M04 Q1033 NOSIG
ZHCC,2023-02-13 16:00,ZHCC 131600Z 29002MPS CAVOK 00/M04 Q1033 NOSIG
ZHCC,2023-02-13 17:00,ZHCC 131700Z 00000MPS CAVOK M01/M03 Q1033 NOSIG
ZHCC,2023-02-13 18:00,ZHCC 131800Z 00000MPS CAVOK M02/M04 Q1033 NOSIG
ZHCC,2023-02-13 19:00,ZHCC 131900Z 00000MPS CAVOK M02/M03 Q1032 NOSIG
ZHCC,2023-02-13 20:00,ZHCC 132000Z 36001MPS CAVOK M03/M04 Q1032 NOSIG
ZHCC,2023-02-13 21:00,ZHCC 132100Z VRB01MPS CAVOK M03/M04 Q1032 NOSIG
ZHCC,2023-02-13 22:00,ZHCC 132200Z 24001MPS 8000 NSC M02/M04 Q1032 NOSIG
ZHCC,2023-02-13 23:00,ZHCC 132300Z 00000MPS 6000 NSC M03/M05 Q1032 NOSIG
ZHCC,2023-02-14 00:00,ZHCC 140000Z 29001MPS 5000 BR NSC M03/M04 Q1033 NOSIG
ZHCC,2023-02-14 01:00,ZHCC 140100Z VRB01MPS 8000 NSC 02/M05 Q1033 NOSIG
ZHCC,2023-02-14 02:00,ZHCC 140200Z VRB01MPS CAVOK 04/M07 Q1033 NOSIG
ZHCC,2023-02-14 03:00,ZHCC 140300Z VRB02MPS CAVOK 05/M10 Q1033 NOSIG
ZHCC,2023-02-14 04:00,ZHCC 140400Z 05003MPS 010V080 CAVOK 05/M10 Q1032 NOSIG
ZHCC,2023-02-14 05:00,ZHCC 140500Z 04002MPS 330V100 CAVOK 06/M09 Q1032 NOSIG
ZHCC,2023-02-14 06:00,ZHCC 140600Z VRB02MPS CAVOK 06/M11 Q1031 NOSIG
ZHCC,2023-02-14 07:00,ZHCC 140700Z 08003MPS 040V110 CAVOK 06/M09 Q1030 NOSIG
ZHCC,2023-02-14 08:00,ZHCC 140800Z 04003MPS 010V080 CAVOK 07/M09 Q1030 NOSIG
ZHCC,2023-02-14 09:00,ZHCC 140900Z 05003MPS 020V110 CAVOK 07/M09 Q1030 NOSIG
ZHCC,2023-02-14 10:00,ZHCC 141000Z 06002MPS 030V100 CAVOK 05/M09 Q1030 NOSIG
ZHCC,2023-02-14 11:00,ZHCC 141100Z 08002MPS CAVOK 03/M08 Q1031 NOSIG
ZHCC,2023-02-14 12:00,ZHCC 141200Z 10002MPS CAVOK 02/M07 Q1031 NOSIG
ZHCC,2023-02-14 13:00,ZHCC 141300Z 11002MPS CAVOK 01/M07 Q1032 NOSIG
ZHCC,2023-02-14 14:00,ZHCC 141400Z 11002MPS CAVOK 00/M07 Q1032 NOSIG
ZHCC,2023-02-14 15:00,ZHCC 141500Z VRB01MPS CAVOK M00/M05 Q1032 NOSIG
ZHCC,2023-02-14 16:00,ZHCC 141600Z 00000MPS CAVOK M01/M04 Q1032 NOSIG
ZHCC,2023-02-14 17:00,ZHCC 141700Z 26001MPS CAVOK M02/M05 Q1032 NOSIG
ZHCC,2023-02-14 18:00,ZHCC 141800Z VRB01MPS CAVOK M03/M06 Q1033 NOSIG
ZHCC,2023-02-14 19:00,ZHCC 141900Z 00000MPS CAVOK M02/M05 Q1032 NOSIG
ZHCC,2023-02-14 20:00,ZHCC 142000Z 29001MPS CAVOK M02/M05 Q1032 NOSIG
ZHCC,2023-02-14 21:00,ZHCC 142100Z 29001MPS CAVOK M03/M05 Q1032 NOSIG
ZHCC,2023-02-14 22:00,ZHCC 142200Z 00000MPS CAVOK M03/M05 Q1033 NOSIG
ZHCC,2023-02-14 23:00,ZHCC 142300Z 29001MPS 8000 NSC M03/M05 Q1032 NOSIG
ZHCC,2023-02-15 00:00,ZHCC 150000Z 00000MPS 6000 NSC M03/M05 Q1033 NOSIG
ZHCC,2023-02-15 01:00,ZHCC 150100Z 10001MPS 6000 NSC 03/M04 Q1034 NOSIG
ZHCC,2023-02-15 02:00,ZHCC 150200Z VRB01MPS CAVOK 05/M05 Q1034 NOSIG
ZHCC,2023-02-15 03:00,ZHCC 150300Z 19002MPS 100V240 CAVOK 06/M06 Q1034 NOSIG
ZHCC,2023-02-15 04:00,ZHCC 150400Z 14002MPS 080V200 CAVOK 07/M07 Q1034 NOSIG
ZHCC,2023-02-15 05:00,ZHCC 150500Z 21002MPS 150V310 CAVOK 08/M06 Q1033 NOSIG
ZHCC,2023-02-15 06:00,ZHCC 150600Z VRB02MPS CAVOK 08/M06 Q1033 NOSIG
ZHCC,2023-02-15 07:00,ZHCC 150700Z 20003MPS 130V250 CAVOK 07/M07 Q1032 NOSIG
ZHCC,2023-02-15 08:00,ZHCC 150800Z 16002MPS 090V230 CAVOK 08/M05 Q1032 NOSIG
ZHCC,2023-02-15 09:00,ZHCC 150900Z 17002MPS 110V210 CAVOK 07/M06 Q1031 NOSIG
ZHCC,2023-02-15 10:00,ZHCC 151000Z 14002MPS 120V180 CAVOK 06/M05 Q1031 NOSIG
ZHCC,2023-02-15 11:00,ZHCC 151100Z 14002MPS 120V190 CAVOK 04/M05 Q1031 NOSIG
ZHCC,2023-02-15 12:00,ZHCC 151200Z VRB01MPS CAVOK 04/M05 Q1031 NOSIG
ZHCC,2023-02-15 13:00,ZHCC 151300Z 20002MPS CAVOK 05/M04 Q1032 NOSIG
ZHCC,2023-02-15 14:00,ZHCC 151400Z 20002MPS CAVOK 04/M04 Q1032 NOSIG
ZHCC,2023-02-15 15:00,ZHCC 151500Z VRB01MPS CAVOK 03/M04 Q1032 NOSIG
ZHCC,2023-02-15 16:00,ZHCC 151600Z 21001MPS CAVOK 01/M04 Q1032 NOSIG
ZHCC,2023-02-15 17:00,ZHCC 151700Z 20001MPS CAVOK 00/M04 Q1032 NOSIG
ZHCC,2023-02-15 18:00,ZHCC 151800Z 22001MPS CAVOK 00/M04 Q1031 NOSIG
ZHCC,2023-02-15 19:00,ZHCC 151900Z 23001MPS CAVOK M01/M04 Q1030 NOSIG
ZHCC,2023-02-15 20:00,ZHCC 152000Z 18001MPS CAVOK 00/M04 Q1029 NOSIG
ZHCC,2023-02-15 21:00,ZHCC 152100Z 18002MPS CAVOK 02/M04 Q1029 NOSIG
ZHCC,2023-02-15 22:00,ZHCC 152200Z 18002MPS 150V220 CAVOK 02/M04 Q1029 NOSIG
ZHCC,2023-02-15 23:00,ZHCC 152300Z VRB01MPS CAVOK 00/M05 Q1029 NOSIG
ZHCC,2023-02-16 00:00,ZHCC 160000Z VRB01MPS 5000 BR NSC 00/M03 Q1029 NOSIG
ZHCC,2023-02-16 01:00,ZHCC 160100Z 18002MPS 150V210 5000 HZ NSC 04/M02 Q1029 NOSIG
ZHCC,2023-02-16 02:00,ZHCC 160200Z 19002MPS 140V220 6000 NSC 06/M02 Q1030 NOSIG
ZHCC,2023-02-16 03:00,ZHCC 160300Z 20003MPS 160V240 8000 NSC 07/M03 Q1029 NOSIG
ZHCC,2023-02-16 04:00,ZHCC 160400Z 18003MPS 140V230 8000 NSC 09/M02 Q1028 NOSIG
ZHCC,2023-02-16 05:00,ZHCC 160500Z 20004MPS 140V240 CAVOK 09/M02 Q1027 NOSIG
ZHCC,2023-02-16 06:00,ZHCC 160600Z 18003MPS 140V230 CAVOK 10/M01 Q1025 NOSIG
ZHCC,2023-02-16 07:00,ZHCC 160700Z 19004MPS 150V230 CAVOK 10/M01 Q1025 NOSIG
ZHCC,2023-02-16 08:00,ZHCC 160800Z 21004MPS 7000 NSC 10/M01 Q1025 NOSIG
ZHCC,2023-02-16 09:00,ZHCC 160900Z 16003MPS 110V200 7000 NSC 09/M00 Q1024 NOSIG
ZHCC,2023-02-16 10:00,ZHCC 161000Z 18002MPS 120V220 6000 NSC 08/M00 Q1025 NOSIG
ZHCC,2023-02-16 11:00,ZHCC 161100Z VRB01MPS 7000 NSC 07/M00 Q1025 NOSIG
ZHCC,2023-02-16 12:00,ZHCC 161200Z VRB01MPS 7000 NSC 05/M01 Q1025 NOSIG
ZHCC,2023-02-16 13:00,ZHCC 161300Z 14001MPS 8000 NSC 05/M01 Q1025 NOSIG
ZHCC,2023-02-16 14:00,ZHCC 161400Z 15002MPS 8000 NSC 05/M00 Q1025 NOSIG
ZHCC,2023-02-16 15:00,ZHCC 161500Z 13001MPS 6000 NSC 04/M00 Q1024 NOSIG
ZHCC,2023-02-16 16:00,ZHCC 161600Z VRB01MPS 6000 NSC 01/M02 Q1023 NOSIG
ZHCC,2023-02-16 17:00,ZHCC 161700Z VRB01MPS 6000 NSC 02/M01 Q1023 NOSIG
ZHCC,2023-02-16 18:00,ZHCC 161800Z 19002MPS 160V220 6000 NSC 04/M01 Q1024 NOSIG
ZHCC,2023-02-16 19:00,ZHCC 161900Z 20003MPS 6000 NSC 04/M00 Q1024 NOSIG
ZHCC,2023-02-16 20:00,ZHCC 162000Z 18002MPS 150V210 6000 NSC 03/M01 Q1022 NOSIG
ZHCC,2023-02-16 21:00,ZHCC 162100Z 18002MPS 150V220 5000 BR NSC 03/M01 Q1022 NOSIG
ZHCC,2023-02-16 22:00,ZHCC 162200Z VRB01MPS 5000 BR NSC 01/M02 Q1021 NOSIG
ZHCC,2023-02-16 23:00,ZHCC 162300Z VRB01MPS 4000 BR NSC M00/M02 Q1022 NOSIG
ZHCC,2023-02-17 00:00,ZHCC 170000Z 15002MPS 110V220 3000 BR NSC 01/M01 Q1021 NOSIG
ZHCC,2023-02-17 01:00,ZHCC 170100Z 18002MPS 140V220 3000 BR NSC 04/00 Q1022 NOSIG
ZHCC,2023-02-17 02:00,ZHCC 170200Z 19003MPS 130V220 4000 HZ NSC 06/01 Q1022 NOSIG
ZHCC,2023-02-17 03:00,ZHCC 170300Z 18004MPS 130V210 4500 HZ NSC 08/00 Q1021 NOSIG
ZHCC,2023-02-17 04:00,ZHCC 170400Z 16003MPS 110V200 7000 NSC 10/M00 Q1021 NOSIG
ZHCC,2023-02-17 05:00,ZHCC 170500Z 16004MPS 100V200 7000 NSC 11/M02 Q1019 NOSIG
ZHCC,2023-02-17 06:00,ZHCC 170600Z 15004MPS 100V190 7000 NSC 12/M01 Q1018 NOSIG
ZHCC,2023-02-17 07:00,ZHCC 170700Z 17003MPS 110V220 6000 NSC 11/01 Q1017 NOSIG
ZHCC,2023-02-17 08:00,ZHCC 170800Z 17002MPS 110V220 6000 NSC 12/01 Q1017 NOSIG
ZHCC,2023-02-17 09:00,ZHCC 170900Z 15002MPS 120V200 6000 NSC 11/01 Q1017 NOSIG
ZHCC,2023-02-17 10:00,ZHCC 171000Z 12003MPS 6000 NSC 10/01 Q1018 NOSIG
ZHCC,2023-02-17 11:00,ZHCC 171100Z VRB01MPS 7000 NSC 09/01 Q1018 NOSIG
ZHCC,2023-02-17 12:00,ZHCC 171200Z VRB01MPS 7000 NSC 07/01 Q1019 NOSIG
ZHCC,2023-02-17 13:00,ZHCC 171300Z 00000MPS 7000 NSC 06/01 Q1020 NOSIG
ZHCC,2023-02-17 14:00,ZHCC 171400Z VRB01MPS 6000 NSC 06/02 Q1020 NOSIG
ZHCC,2023-02-17 15:00,ZHCC 171500Z 00000MPS 6000 NSC 04/01 Q1020 NOSIG
ZHCC,2023-02-17 16:00,ZHCC 171600Z 31001MPS 6000 NSC 05/02 Q1020 NOSIG
ZHCC,2023-02-17 17:00,ZHCC 171700Z 29001MPS 5000 BR NSC 06/02 Q1020 NOSIG
ZHCC,2023-02-17 18:00,ZHCC 171800Z 28001MPS 5000 BR NSC 06/03 Q1020 NOSIG
ZHCC,2023-02-17 19:00,ZHCC 171900Z 27001MPS 5000 BR NSC 06/03 Q1020 NOSIG
ZHCC,2023-02-17 20:00,ZHCC 172000Z VRB01MPS 5000 BR NSC 06/03 Q1019 NOSIG
ZHCC,2023-02-17 21:00,ZHCC 172100Z 29001MPS 5000 BR NSC 06/03 Q1019 NOSIG
ZHCC,2023-02-17 22:00,ZHCC 172200Z 28002MPS 5000 BR NSC 06/03 Q1020 BECMG TL2340 2500
ZHCC,2023-02-17 23:00,ZHCC 172300Z 30002MPS 5000 BR NSC 06/02 Q1021 BECMG TL2340 2500
ZHCC,2023-02-18 00:00,ZHCC 180000Z 30002MPS 2800 BR NSC 07/03 Q1021 BECMG TL0040 3000
ZHCC,2023-02-18 01:00,ZHCC 180100Z VRB01MPS 3000 HZ NSC 08/03 Q1022 NOSIG
ZHCC,2023-02-18 02:00,ZHCC 180200Z 31003MPS 3000 HZ NSC 09/03 Q1022 NOSIG
ZHCC,2023-02-18 03:00,ZHCC 180300Z 29004MPS 3000 HZ NSC 11/03 Q1021 NOSIG
ZHCC,2023-02-18 04:00,ZHCC 180400Z 28003MPS 230V310 3000 HZ NSC 13/03 Q1021 NOSIG
ZHCC,2023-02-18 05:00,ZHCC 180500Z 30006MPS 4000 HZ NSC 15/02 Q1020 NOSIG
ZHCC,2023-02-18 06:00,ZHCC 180600Z 31007MPS 270V340 4000 HZ NSC 16/01 Q1019 NOSIG
ZHCC,2023-02-18 07:00,ZHCC 180700Z 30008MPS 4000 HZ NSC 16/02 Q1019 NOSIG
ZHCC,2023-02-18 08:00,ZHCC 180800Z 30005MPS 260V320 4000 HZ NSC 16/02 Q1019 NOSIG
ZHCC,2023-02-18 09:00,ZHCC 180900Z 29007MPS 4000 HZ NSC 16/01 Q1020 NOSIG
ZHCC,2023-02-18 10:00,ZHCC 181000Z 29006MPS 6000 NSC 14/M00 Q1021 NOSIG
ZHCC,2023-02-18 11:00,ZHCC 181100Z 29007MPS CAVOK 13/M07 Q1023 NOSIG
ZHCC,2023-02-18 12:00,ZHCC 181200Z 30008G14MPS CAVOK 13/M10 Q1024 NOSIG
ZHCC,2023-02-18 13:00,ZHCC 181300Z 30008MPS CAVOK 12/M12 Q1026 NOSIG
ZHCC,2023-02-18 14:00,ZHCC 181400Z 31008MPS CAVOK 11/M12 Q1027 NOSIG
ZHCC,2023-02-18 15:00,ZHCC 181500Z 31007MPS 280V340 CAVOK 11/M13 Q1028 NOSIG
ZHCC,2023-02-18 16:00,ZHCC 181600Z 30006MPS CAVOK 09/M11 Q1029 NOSIG
ZHCC,2023-02-18 17:00,ZHCC 181700Z 31008MPS CAVOK 09/M10 Q1029 NOSIG
ZHCC,2023-02-18 18:00,ZHCC 181800Z 31005MPS CAVOK 08/M09 Q1030 NOSIG
ZHCC,2023-02-18 19:00,ZHCC 181900Z 33005MPS CAVOK 07/M09 Q1030 NOSIG
ZHCC,2023-02-18 20:00,ZHCC 182000Z 34005MPS CAVOK 06/M10 Q1030 NOSIG
ZHCC,2023-02-18 21:00,ZHCC 182100Z 31002MPS CAVOK 03/M09 Q1030 NOSIG
ZHCC,2023-02-18 22:00,ZHCC 182200Z 30002MPS CAVOK 03/M07 Q1031 NOSIG
ZHCC,2023-02-18 23:00,ZHCC 182300Z 00000MPS CAVOK 02/M07 Q1031 NOSIG
ZHCC,2023-02-19 00:00,ZHCC 190000Z VRB01MPS CAVOK 02/M05 Q1032 NOSIG
ZHCC,2023-02-19 01:00,ZHCC 190100Z 28002MPS 240V310 CAVOK 07/M09 Q1032 NOSIG
ZHCC,2023-02-19 02:00,ZHCC 190200Z 25004MPS 210V280 CAVOK 08/M10 Q1032 NOSIG
ZHCC,2023-02-19 03:00,ZHCC 190300Z 26004MPS 210V320 CAVOK 10/M11 Q1031 NOSIG
ZHCC,2023-02-19 04:00,ZHCC 190400Z 25004MPS 200V290 CAVOK 11/M11 Q1030 NOSIG
ZHCC,2023-02-19 05:00,ZHCC 190500Z 28003G08MPS 230V330 CAVOK 12/M11 Q1028 NOSIG
ZHCC,2023-02-19 06:00,ZHCC 190600Z 30004MPS 270V350 CAVOK 13/M15 Q1026 NOSIG
ZHCC,2023-02-19 07:00,ZHCC 190700Z 26005MPS 230V310 CAVOK 14/M14 Q1025 NOSIG
ZHCC,2023-02-19 08:00,ZHCC 190800Z 27005MPS 240V300 CAVOK 15/M12 Q1025 NOSIG
ZHCC,2023-02-19 09:00,ZHCC 190900Z 21003MPS 150V250 CAVOK 14/M12 Q1024 NOSIG
ZHCC,2023-02-19 10:00,ZHCC 191000Z 19002MPS 160V220 CAVOK 13/M09 Q1025 NOSIG
ZHCC,2023-02-19 11:00,ZHCC 191100Z 19002MPS CAVOK 11/M07 Q1025 NOSIG
ZHCC,2023-02-19 12:00,ZHCC 191200Z 19002MPS 160V220 CAVOK 10/M06 Q1026 NOSIG
ZHCC,2023-02-19 13:00,ZHCC 191300Z 20003MPS CAVOK 09/M06 Q1026 NOSIG
ZHCC,2023-02-19 14:00,ZHCC 191400Z 23001MPS CAVOK 07/M05 Q1026 NOSIG
ZHCC,2023-02-19 15:00,ZHCC 191500Z 28002MPS CAVOK 04/M06 Q1026 NOSIG
ZHCC,2023-02-19 16:00,ZHCC 191600Z 27003MPS CAVOK 05/M07 Q1026 NOSIG
ZHCC,2023-02-19 17:00,ZHCC 191700Z VRB01MPS CAVOK 04/M07 Q1026 NOSIG
ZHCC,2023-02-19 18:00,ZHCC 191800Z 24001MPS CAVOK 00/M07 Q1027 NOSIG
ZHCC,2023-02-19 19:00,ZHCC 191900Z 25003MPS CAVOK M01/M07 Q1027 NOSIG
ZHCC,2023-02-19 20:00,ZHCC 192000Z 24001MPS CAVOK 02/M08 Q1027 NOSIG
ZHCC,2023-02-19 21:00,ZHCC 192100Z 27003MPS CAVOK 02/M08 Q1027 NOSIG
ZHCC,2023-02-19 22:00,ZHCC 192200Z 32005MPS CAVOK 04/M07 Q1027 NOSIG
ZHCC,2023-02-19 23:00,ZHCC 192300Z 31003MPS CAVOK 04/M09 Q1028 NOSIG
ZHCC,2023-02-20 00:00,ZHCC 200000Z 32002MPS CAVOK 06/M08 Q1029 NOSIG
ZHCC,2023-02-20 01:00,ZHCC 200100Z 36004MPS CAVOK 10/M09 Q1030 NOSIG
ZHCC,2023-02-20 02:00,ZHCC 200200Z 03005MPS 360V060 CAVOK 12/M08 Q1030 NOSIG
ZHCC,2023-02-20 03:00,ZHCC 200300Z 04005MPS CAVOK 13/M08 Q1031 NOSIG
ZHCC,2023-02-20 04:00,ZHCC 200400Z 05006MPS CAVOK 14/M09 Q1031 NOSIG
ZHCC,2023-02-20 05:00,ZHCC 200500Z 05006MPS CAVOK 14/M10 Q1030 NOSIG
ZHCC,2023-02-20 06:00,ZHCC 200600Z 04005MPS 010V070 CAVOK 15/M09 Q1030 NOSIG
ZHCC,2023-02-20 07:00,ZHCC 200700Z 05006MPS CAVOK 15/M09 Q1029 NOSIG
ZHCC,2023-02-20 08:00,ZHCC 200800Z 06006MPS CAVOK 14/M08 Q1029 NOSIG
ZHCC,2023-02-20 09:00,ZHCC 200900Z 05005MPS 020V080 CAVOK 13/M07 Q1030 NOSIG
ZHCC,2023-02-20 10:00,ZHCC 201000Z 04004MPS CAVOK 12/M06 Q1031 NOSIG
ZHCC,2023-02-20 11:00,ZHCC 201100Z 04004MPS CAVOK 12/M06 Q1031 NOSIG
ZHCC,2023-02-20 12:00,ZHCC 201200Z 05004MPS CAVOK 11/M06 Q1032 NOSIG
ZHCC,2023-02-20 13:00,ZHCC 201300Z 04004MPS 020V080 CAVOK 11/M06 Q1032 NOSIG
ZHCC,2023-02-20 14:00,ZHCC 201400Z 04005MPS CAVOK 10/M07 Q1033 NOSIG
ZHCC,2023-02-20 15:00,ZHCC 201500Z 04005MPS CAVOK 09/M07 Q1033 NOSIG
ZHCC,2023-02-20 16:00,ZHCC 201600Z 05004MPS CAVOK 08/M07 Q1034 NOSIG
ZHCC,2023-02-20 17:00,ZHCC 201700Z 05004MPS CAVOK 08/M08 Q1035 NOSIG
ZHCC,2023-02-20 18:00,ZHCC 201800Z 03005MPS CAVOK 08/M08 Q1035 NOSIG
ZHCC,2023-02-20 19:00,ZHCC 201900Z 04004MPS CAVOK 07/M08 Q1035 NOSIG
ZHCC,2023-02-20 20:00,ZHCC 202000Z 04004MPS CAVOK 06/M07 Q1035 NOSIG
ZHCC,2023-02-20 21:00,ZHCC 202100Z 05004MPS CAVOK 06/M06 Q1036 NOSIG
ZHCC,2023-02-20 22:00,ZHCC 202200Z 07004MPS CAVOK 06/M04 Q1036 NOSIG
ZHCC,2023-02-20 23:00,ZHCC 202300Z 07004MPS CAVOK 06/M04 Q1037 NOSIG
ZHCC,2023-02-21 00:00,ZHCC 210000Z 11006MPS CAVOK 05/M07 Q1037 NOSIG
ZHCC,2023-02-21 01:00,ZHCC 210100Z 10005MPS CAVOK 06/M05 Q1038 NOSIG
ZHCC,2023-02-21 02:00,ZHCC 210200Z 09005MPS CAVOK 07/M04 Q1038 NOSIG
ZHCC,2023-02-21 03:00,ZHCC 210300Z 11004MPS 060V150 CAVOK 06/M05 Q1038 NOSIG
ZHCC,2023-02-21 04:00,ZHCC 210400Z 08004MPS 050V130 CAVOK 07/M06 Q1037 NOSIG
ZHCC,2023-02-21 05:00,ZHCC 210500Z 12003MPS 040V170 CAVOK 08/M06 Q1036 NOSIG
ZHCC,2023-02-21 06:00,ZHCC 210600Z 11003MPS 060V200 CAVOK 07/M08 Q1035 NOSIG
ZHCC,2023-02-21 07:00,ZHCC 210700Z 14002MPS 110V210 CAVOK 08/M07 Q1034 NOSIG
ZHCC,2023-02-21 08:00,ZHCC 210800Z 10003MPS 050V160 CAVOK 08/M07 Q1034 NOSIG
ZHCC,2023-02-21 09:00,ZHCC 210900Z 11003MPS CAVOK 08/M07 Q1034 NOSIG
ZHCC,2023-02-21 10:00,ZHCC 211000Z 09005MPS CAVOK 07/M07 Q1034 NOSIG
ZHCC,2023-02-21 11:00,ZHCC 211100Z 10003MPS CAVOK 05/M06 Q1034 NOSIG
ZHCC,2023-02-21 12:00,ZHCC 211200Z 11003MPS CAVOK 05/M06 Q1034 NOSIG
ZHCC,2023-02-21 13:00,ZHCC 211300Z 11003MPS CAVOK 05/M06 Q1034 NOSIG
ZHCC,2023-02-21 14:00,ZHCC 211400Z 12002MPS CAVOK 05/M05 Q1034 NOSIG
ZHCC,2023-02-21 15:00,ZHCC 211500Z 11002MPS CAVOK 04/M05 Q1034 NOSIG
ZHCC,2023-02-21 16:00,ZHCC 211600Z 12002MPS CAVOK 04/M04 Q1033 NOSIG
ZHCC,2023-02-21 17:00,ZHCC 211700Z 14002MPS CAVOK 03/M04 Q1033 NOSIG
ZHCC,2023-02-21 18:00,ZHCC 211800Z VRB01MPS CAVOK 03/M04 Q1032 NOSIG
ZHCC,2023-02-21 19:00,ZHCC 211900Z VRB01MPS CAVOK 04/M05 Q1032 NOSIG
ZHCC,2023-02-21 20:00,ZHCC 212000Z VRB01MPS CAVOK 04/M05 Q1032 NOSIG
ZHCC,2023-02-21 21:00,ZHCC 212100Z VRB01MPS CAVOK 04/M05 Q1031 NOSIG
ZHCC,2023-02-21 22:00,ZHCC 212200Z 19002MPS 140V230 CAVOK 04/M05 Q1031 NOSIG
ZHCC,2023-02-21 23:00,ZHCC 212300Z 19003MPS 160V230 CAVOK 03/M03 Q1031 NOSIG
ZHCC,2023-02-22 00:00,ZHCC 220000Z 19003MPS 150V220 9999 OVC040 03/M02 Q1031 NOSIG
ZHCC,2023-02-22 01:00,ZHCC 220100Z 19002MPS 160V220 6000 -RA OVC040 02/01 Q1032 NOSIG
ZHCC,2023-02-22 02:00,ZHCC 220200Z 21003MPS 180V240 4000 -RA BR OVC040 03/01 Q1032 NOSIG
ZHCC,2023-02-22 03:00,ZHCC 220300Z 18002MPS 160V220 3000 -RA BR OVC020 03/01 Q1032 BECMG TL0440 2000
ZHCC,2023-02-22 04:00,ZHCC 220400Z 18003MPS 140V220 2800 -RA BR OVC020 03/02 Q1030 BECMG TL0440 3000
ZHCC,2023-02-22 05:00,ZHCC 220500Z 17003MPS 120V200 6000 OVC020 04/02 Q1029 NOSIG
ZHCC,2023-02-22 06:00,ZHCC 220600Z 18003MPS 130V220 8000 -RA OVC020 04/02 Q1028 NOSIG
ZHCC,2023-02-22 07:00,ZHCC 220700Z 16003MPS 130V210 9999 OVC020 04/01 Q1027 NOSIG
ZHCC,2023-02-22 08:00,ZHCC 220800Z 19003MPS 150V220 9999 OVC020 04/01 Q1027 NOSIG
ZHCC,2023-02-22 09:00,ZHCC 220900Z 19003MPS 140V240 9999 BKN020 05/00 Q1027 NOSIG
ZHCC,2023-02-22 10:00,ZHCC 221000Z 17002MPS 130V200 7000 OVC030 04/01 Q1027 NOSIG
ZHCC,2023-02-22 11:00,ZHCC 221100Z 15002MPS 110V190 7000 OVC030 04/01 Q1027 NOSIG
ZHCC,2023-02-22 12:00,ZHCC 221200Z 16002MPS 120V210 7000 OVC030 04/01 Q1027 NOSIG
ZHCC,2023-02-22 13:00,ZHCC 221300Z 16002MPS 130V200 7000 OVC030 03/01 Q1026 NOSIG
ZHCC,2023-02-22 14:00,ZHCC 221400Z 18003MPS 150V230 7000 OVC030 03/01 Q1026 NOSIG
ZHCC,2023-02-22 15:00,ZHCC 221500Z 17002MPS 140V200 6000 SCT030 02/01 Q1026 NOSIG
ZHCC,2023-02-22 16:00,ZHCC 221600Z 19002MPS 160V230 6000 SCT030 03/01 Q1025 NOSIG
ZHCC,2023-02-22 17:00,ZHCC 221700Z 19003MPS 150V220 5000 BR SCT030 03/01 Q1025 NOSIG
ZHCC,2023-02-22 18:00,ZHCC 221800Z 19002MPS 160V220 5000 BR SCT030 02/01 Q1025 NOSIG
ZHCC,2023-02-22 19:00,ZHCC 221900Z 18002MPS 5000 BR SCT030 02/01 Q1024 NOSIG
ZHCC,2023-02-22 20:00,ZHCC 222000Z 18002MPS 140V220 5000 BR SCT030 02/01 Q1024 NOSIG
ZHCC,2023-02-22 21:00,ZHCC 222100Z VRB01MPS 4000 BR NSC 02/01 Q1023 NOSIG
ZHCC,2023-02-22 22:00,ZHCC 222200Z VRB01MPS 3000 BR NSC 01/01 Q1024 BECMG TL2310 2000
ZHCC,2023-02-22 23:00,ZHCC 222300Z VRB01MPS 2500 BR NSC 01/00 Q1024 NOSIG
ZHCC,2023-02-23 00:00,ZHCC 230000Z 18002MPS 140V220 1500 BR OVC030 02/02 Q1025 NOSIG
ZHCC,2023-02-23 01:00,ZHCC 230100Z 19003MPS 1500 BR OVC030 03/02 Q1025 NOSIG
ZHCC,2023-02-23 02:00,ZHCC 230200Z VRB01MPS 2000 BR OVC040 04/02 Q1025 NOSIG
ZHCC,2023-02-23 03:00,ZHCC 230300Z VRB01MPS 2500 BR NSC 06/02 Q1025 BECMG TL0440 3000
ZHCC,2023-02-23 04:00,ZHCC 230400Z 15002MPS 080V200 3500 HZ FEW030 07/03 Q1024 NOSIG
ZHCC,2023-02-23 05:00,ZHCC 230500Z 18003MPS 140V210 4000 HZ FEW030 07/02 Q1023 NOSIG
ZHCC,2023-02-23 06:00,ZHCC 230600Z 17002MPS 110V220 4000 HZ FEW030 08/02 Q1023 NOSIG
ZHCC,2023-02-23 07:00,ZHCC 230700Z 15003MPS 090V200 4000 HZ NSC 08/02 Q1022 NOSIG
ZHCC,2023-02-23 08:00,ZHCC 230800Z 14003MPS 110V180 4000 HZ NSC 08/01 Q1022 NOSIG
ZHCC,2023-02-23 09:00,ZHCC 230900Z 14003MPS 100V170 4000 HZ NSC 07/02 Q1023 NOSIG
ZHCC,2023-02-23 10:00,ZHCC 231000Z 16002MPS 120V190 4000 HZ NSC 06/01 Q1023 NOSIG
ZHCC,2023-02-23 11:00,ZHCC 231100Z 14002MPS 6000 NSC 05/01 Q1024 NOSIG
ZHCC,2023-02-23 12:00,ZHCC 231200Z 14001MPS 6000 NSC 03/01 Q1024 NOSIG
ZHCC,2023-02-23 13:00,ZHCC 231300Z VRB01MPS 6000 NSC 03/01 Q1025 NOSIG
ZHCC,2023-02-23 14:00,ZHCC 231400Z VRB01MPS 4000 BR NSC 01/00 Q1025 NOSIG
ZHCC,2023-02-23 15:00,ZHCC 231500Z 17001MPS 4000 BR NSC 02/01 Q1025 NOSIG
ZHCC,2023-02-23 16:00,ZHCC 231600Z 20002MPS 4000 BR NSC 03/01 Q1025 BECMG TL1740 2000
ZHCC,2023-02-23 17:00,ZHCC 231700Z 19002MPS 160V220 3000 BR NSC 04/02 Q1025 BECMG TL1740 2500
ZHCC,2023-02-23 18:00,ZHCC 231800Z VRB01MPS 2800 BR NSC 03/01 Q1025 NOSIG
ZHCC,2023-02-23 19:00,ZHCC 231900Z 19001MPS 2800 BR NSC 01/M00 Q1025 NOSIG
ZHCC,2023-02-23 20:00,ZHCC 232000Z VRB01MPS 2500 R12R/1300N R12L/P2000 BR NSC M01/M02 Q1025 NOSIG
ZHCC,2023-02-23 21:00,ZHCC 232100Z 00000MPS 2000 R12R/1400N R12L/P2000 PRFG BR NSC M00/M00 Q1026 BECMG TL2140 1200
ZHCC,2023-02-23 22:00,ZHCC 232200Z 00000MPS 1500 R12R/0225N R12L/P2000 PRFG BR NSC M01/M02 Q1027 NOSIG
ZHCC,2023-02-23 23:00,ZHCC 232300Z 00000MPS 1300 R12R/1100N R12L/P2000 PRFG BR NSC M02/M02 Q1027 NOSIG
ZHCC,2023-02-24 00:00,ZHCC 240000Z 00000MPS 0800 R12R/1400N R12L/1500N FZFG NSC M00/M00 Q1029 BECMG TL0140 1500 BR
ZHCC,2023-02-24 01:00,ZHCC 240100Z VRB01MPS 1000 R12R/1300N R12L/1400N BR NSC 03/03 Q1030 BECMG TL0140 1500
ZHCC,2023-02-24 02:00,ZHCC 240200Z VRB01MPS 1800 BR NSC 06/03 Q1030 BECMG TL0340 3000
ZHCC,2023-02-24 03:00,ZHCC 240300Z 08002MPS 2200 BR NSC 07/03 Q1031 BECMG TL0440 3000
ZHCC,2023-02-24 04:00,ZHCC 240400Z 07003MPS 2200 BR SCT011 08/04 Q1031 NOSIG
ZHCC,2023-02-24 05:00,ZHCC 240500Z 06002MPS 020V090 2500 HZ SCT015 08/03 Q1031 BECMG TL0640 3000
ZHCC,2023-02-24 06:00,ZHCC 240600Z 07003MPS 040V120 2500 HZ SCT017 10/03 Q1030 BECMG TL0640 3000
ZHCC,2023-02-24 07:00,ZHCC 240700Z 06003MPS 020V090 3000 HZ BKN030 10/02 Q1031 NOSIG
ZHCC,2023-02-24 08:00,ZHCC 240800Z 04004MPS 3000 HZ BKN030 10/01 Q1031 NOSIG
ZHCC,2023-02-24 09:00,ZHCC 240900Z 04004MPS 3000 HZ BKN030 09/01 Q1031 NOSIG
ZHCC,2023-02-24 10:00,ZHCC 241000Z 04004MPS 4000 HZ BKN040 09/02 Q1032 NOSIG
ZHCC,2023-02-24 11:00,ZHCC 241100Z 04003MPS 5000 HZ BKN040 08/02 Q1033 NOSIG
ZHCC,2023-02-24 12:00,ZHCC 241200Z 03004MPS 5000 HZ BKN040 08/02 Q1034 NOSIG
ZHCC,2023-02-24 13:00,ZHCC 241300Z 02003MPS 350V060 3500 BR BKN040 06/02 Q1035 NOSIG
ZHCC,2023-02-24 14:00,ZHCC 241400Z 02004MPS 360V060 3500 BR BKN030 05/02 Q1035 NOSIG
ZHCC,2023-02-24 15:00,ZHCC 241500Z 02004MPS 3500 BR BKN030 05/01 Q1036 NOSIG
ZHCC,2023-02-24 16:00,ZHCC 241600Z 02003MPS 3500 BR BKN030 04/01 Q1036 NOSIG
ZHCC,2023-02-24 17:00,ZHCC 241700Z 01003MPS 330V040 4000 BR BKN030 04/M00 Q1037 NOSIG
ZHCC,2023-02-24 18:00,ZHCC 241800Z 34002MPS 4000 BR BKN030 03/M01 Q1037 NOSIG
ZHCC,2023-02-24 19:00,ZHCC 241900Z 35003MPS 4000 BR BKN030 03/M01 Q1037 NOSIG
ZHCC,2023-02-24 20:00,ZHCC 242000Z 01003MPS 4000 HZ BKN030 03/M02 Q1037 NOSIG
ZHCC,2023-02-24 21:00,ZHCC 242100Z 01003MPS 4000 HZ BKN030 04/M03 Q1038 NOSIG
ZHCC,2023-02-24 22:00,ZHCC 242200Z 36003MPS 5000 HZ BKN030 04/M03 Q1039 NOSIG
ZHCC,2023-02-24 23:00,ZHCC 242300Z 36003MPS 6000 BKN040 03/M04 Q1040 NOSIG
ZHCC,2023-02-25 00:00,ZHCC 250000Z 01002MPS 6000 SCT046 03/M04 Q1040 NOSIG
ZHCC,2023-02-25 01:00,ZHCC 250100Z VRB04G11MPS 6000 SCT046 04/M05 Q1041 NOSIG
ZHCC,2023-02-25 02:00,ZHCC 250200Z 06004MPS 020V080 6000 SCT046 05/M04 Q1041 NOSIG
ZHCC,2023-02-25 03:00,ZHCC 250300Z 09003MPS 060V120 6000 SCT046 06/M03 Q1042 NOSIG
ZHCC,2023-02-25 04:00,ZHCC 250400Z 12003MPS 050V200 5000 HZ SCT040 08/M02 Q1041 NOSIG
ZHCC,2023-02-25 05:00,ZHCC 250500Z 15003MPS 110V210 5000 HZ SCT040 09/M02 Q1041 NOSIG
ZHCC,2023-02-25 06:00,ZHCC 250600Z 11002MPS 060V180 4000 HZ SCT040 09/M01 Q1040 NOSIG
ZHCC,2023-02-25 07:00,ZHCC 250700Z 11003MPS 060V150 4000 HZ SCT040 09/M01 Q1039 NOSIG
ZHCC,2023-02-25 08:00,ZHCC 250800Z 13002MPS 080V150 4000 HZ SCT040 09/M01 Q1039 NOSIG
ZHCC,2023-02-25 09:00,ZHCC 250900Z 13002MPS 090V180 3500 HZ SCT040 09/M00 Q1039 NOSIG
ZHCC,2023-02-25 10:00,ZHCC 251000Z 11003MPS 3000 HZ SCT040 07/M00 Q1039 NOSIG
ZHCC,2023-02-25 11:00,ZHCC 251100Z 13002MPS 4500 HZ SCT040 06/00 Q1039 NOSIG
ZHCC,2023-02-25 12:00,ZHCC 251200Z 15001MPS 4000 HZ SCT040 05/00 Q1040 NOSIG
ZHCC,2023-02-25 13:00,ZHCC 251300Z VRB01MPS 4000 HZ SCT040 05/00 Q1040 NOSIG
ZHCC,2023-02-25 14:00,ZHCC 251400Z 00000MPS 4000 BR NSC 02/M00 Q1040 NOSIG
ZHCC,2023-02-25 15:00,ZHCC 251500Z VRB01MPS 4000 BR NSC 01/M02 Q1040 NOSIG
ZHCC,2023-02-25 16:00,ZHCC 251600Z 00000MPS 3500 BR NSC 00/M03 Q1040 NOSIG
ZHCC,2023-02-25 17:00,ZHCC 251700Z 16001MPS 3500 BR NSC M00/M02 Q1040 NOSIG
ZHCC,2023-02-25 18:00,ZHCC 251800Z 14001MPS 3500 BR NSC M00/M02 Q1039 NOSIG
ZHCC,2023-02-25 19:00,ZHCC 251900Z 00000MPS 3000 BR NSC M01/M02 Q1039 NOSIG
ZHCC,2023-02-25 20:00,ZHCC 252000Z 00000MPS 3000 BR NSC M01/M02 Q1038 NOSIG
ZHCC,2023-02-25 21:00,ZHCC 252100Z 17001MPS 3000 BR NSC M02/M03 Q1038 BECMG TL2240 2000
ZHCC,2023-02-25 22:00,ZHCC 252200Z 00000MPS 3500 BR NSC M02/M03 Q1038 BECMG TL2240 2000
ZHCC,2023-02-25 23:00,ZHCC 252300Z 12001MPS 2500 BR NSC M02/M03 Q1038 NOSIG
ZHCC,2023-02-26 00:00,ZHCC 260000Z VRB01MPS 2500 BR NSC M00/M02 Q1039 BECMG TL0140 3000
ZHCC,2023-02-26 01:00,ZHCC 260100Z 18003MPS 2500 HZ NSC 05/M01 Q1039 BECMG TL0140 3000
ZHCC,2023-02-26 02:00,ZHCC 260200Z 19003MPS 160V220 6000 NSC 07/M02 Q1039 NOSIG
ZHCC,2023-02-26 03:00,ZHCC 260300Z 19004MPS 160V220 6000 NSC 08/M02 Q1038 NOSIG
ZHCC,2023-02-26 04:00,ZHCC 260400Z 16004MPS 120V190 6000 NSC 09/M02 Q1038 NOSIG
ZHCC,2023-02-26 05:00,ZHCC 260500Z 19004MPS 140V240 6000 NSC 11/M02 Q1036 NOSIG
ZHCC,2023-02-26 06:00,ZHCC 260600Z 17004MPS 120V230 6000 NSC 11/M02 Q1035 NOSIG
ZHCC,2023-02-26 07:00,ZHCC 260700Z 15004MPS 110V200 6000 NSC 12/M02 Q1034 NOSIG
ZHCC,2023-02-26 08:00,ZHCC 260800Z 16003MPS 110V210 6000 NSC 12/M01 Q1033 NOSIG
ZHCC,2023-02-26 09:00,ZHCC 260900Z 16003MPS 120V220 6000 NSC 11/M02 Q1033 NOSIG
ZHCC,2023-02-26 10:00,ZHCC 261000Z 14003MPS 110V170 6000 NSC 10/M02 Q1033 NOSIG
ZHCC,2023-02-26 11:00,ZHCC 261100Z 14002MPS CAVOK 08/M02 Q1033 NOSIG
ZHCC,2023-02-26 12:00,ZHCC 261200Z 13002MPS CAVOK 07/M02 Q1033 NOSIG
ZHCC,2023-02-26 13:00,ZHCC 261300Z 14001MPS CAVOK 05/M03 Q1033 NOSIG
ZHCC,2023-02-26 14:00,ZHCC 261400Z 14002MPS CAVOK 04/M03 Q1034 NOSIG
ZHCC,2023-02-26 15:00,ZHCC 261500Z 14002MPS CAVOK 04/M03 Q1033 NOSIG
ZHCC,2023-02-26 16:00,ZHCC 261600Z 12001MPS CAVOK 03/M05 Q1033 NOSIG
ZHCC,2023-02-26 17:00,ZHCC 261700Z VRB01MPS CAVOK 05/M06 Q1033 NOSIG
ZHCC,2023-02-26 18:00,ZHCC 261800Z VRB01MPS CAVOK 04/M06 Q1033 NOSIG
ZHCC,2023-02-26 19:00,ZHCC 261900Z 14003MPS CAVOK 04/M06 Q1032 NOSIG
ZHCC,2023-02-26 20:00,ZHCC 262000Z 15002MPS CAVOK 03/M05 Q1031 NOSIG
ZHCC,2023-02-26 21:00,ZHCC 262100Z 11002MPS CAVOK 00/M06 Q1031 NOSIG
ZHCC,2023-02-26 22:00,ZHCC 262200Z VRB01MPS CAVOK M00/M06 Q1031 NOSIG
ZHCC,2023-02-26 23:00,ZHCC 262300Z VRB01MPS CAVOK M01/M06 Q1031 NOSIG
ZHCC,2023-02-27 00:00,ZHCC 270000Z VRB01MPS CAVOK 02/M05 Q1031 NOSIG
ZHCC,2023-02-27 01:00,ZHCC 270100Z 15003MPS 120V190 CAVOK 05/M06 Q1032 NOSIG
ZHCC,2023-02-27 02:00,ZHCC 270200Z 16003MPS 110V200 CAVOK 07/M05 Q1031 NOSIG
ZHCC,2023-02-27 03:00,ZHCC 270300Z 13003MPS 100V170 CAVOK 10/M04 Q1031 NOSIG
ZHCC,2023-02-27 04:00,ZHCC 270400Z 18003MPS 140V240 CAVOK 12/M02 Q1030 NOSIG
ZHCC,2023-02-27 05:00,ZHCC 270500Z 18003MPS 090V230 CAVOK 13/M01 Q1029 NOSIG
ZHCC,2023-02-27 06:00,ZHCC 270600Z 16004MPS 120V200 CAVOK 14/M03 Q1027 NOSIG
ZHCC,2023-02-27 07:00,ZHCC 270700Z 16004MPS 120V220 CAVOK 15/M04 Q1026 NOSIG
ZHCC,2023-02-27 08:00,ZHCC 270800Z 16004MPS 130V200 CAVOK 15/M03 Q1026 NOSIG
ZHCC,2023-02-27 09:00,ZHCC 270900Z 15004MPS 120V180 CAVOK 14/M02 Q1025 NOSIG
ZHCC,2023-02-27 10:00,ZHCC 271000Z 15003MPS 110V190 CAVOK 13/M02 Q1025 NOSIG
ZHCC,2023-02-27 11:00,ZHCC 271100Z VRB01MPS CAVOK 11/M02 Q1025 NOSIG
ZHCC,2023-02-27 12:00,ZHCC 271200Z 16002MPS 120V210 CAVOK 10/M01 Q1025 NOSIG
ZHCC,2023-02-27 13:00,ZHCC 271300Z VRB01MPS CAVOK 09/M01 Q1026 NOSIG
ZHCC,2023-02-27 14:00,ZHCC 271400Z 20001MPS CAVOK 08/M01 Q1026 NOSIG
ZHCC,2023-02-27 15:00,ZHCC 271500Z 15001MPS CAVOK 05/M01 Q1026 NOSIG
ZHCC,2023-02-27 16:00,ZHCC 271600Z VRB01MPS CAVOK 03/M02 Q1025 NOSIG
ZHCC,2023-02-27 17:00,ZHCC 271700Z 15001MPS 6000 NSC 04/M02 Q1025 NOSIG
ZHCC,2023-02-27 18:00,ZHCC 271800Z VRB01MPS 6000 NSC 03/M02 Q1024 NOSIG
ZHCC,2023-02-27 19:00,ZHCC 271900Z 23001MPS 6000 NSC 02/M02 Q1024 NOSIG
ZHCC,2023-02-27 20:00,ZHCC 272000Z VRB01MPS CAVOK 03/M02 Q1023 NOSIG
ZHCC,2023-02-27 21:00,ZHCC 272100Z VRB01MPS CAVOK 02/M01 Q1023 NOSIG
ZHCC,2023-02-27 22:00,ZHCC 272200Z 00000MPS CAVOK 02/M01 Q1023 NOSIG
ZHCC,2023-02-27 23:00,ZHCC 272300Z 29001MPS 5000 BR NSC 03/M00 Q1023 NOSIG
ZHCC,2023-02-28 00:00,ZHCC 280000Z 22002MPS 5000 BR NSC 05/02 Q1023 NOSIG
ZHCC,2023-02-28 01:00,ZHCC 280100Z 22002MPS 5000 HZ NSC 09/00 Q1023 NOSIG
ZHCC,2023-02-28 02:00,ZHCC 280200Z 20002MPS 160V240 5000 HZ NSC 12/01 Q1023 NOSIG
ZHCC,2023-02-28 03:00,ZHCC 280300Z VRB01MPS 5000 HZ NSC 15/01 Q1023 NOSIG
ZHCC,2023-02-28 04:00,ZHCC 280400Z VRB01MPS 5000 HZ NSC 17/02 Q1022 NOSIG
ZHCC,2023-02-28 05:00,ZHCC 280500Z 32003MPS 280V010 5000 HZ NSC 20/02 Q1022 NOSIG
ZHCC,2023-02-28 06:00,ZHCC 280600Z 34003MPS 300V050 5000 HZ NSC 19/02 Q1021 NOSIG
ZHCC,2023-02-28 07:00,ZHCC 280700Z 02003MPS 340V060 5000 HZ NSC 19/02 Q1021 NOSIG
ZHCC,2023-02-28 08:00,ZHCC 280800Z 04006MPS 4000 HZ NSC 18/02 Q1021 NOSIG
ZHCC,2023-02-28 09:00,ZHCC 280900Z 04004MPS 4000 HZ NSC 17/03 Q1022 NOSIG
ZHCC,2023-02-28 10:00,ZHCC 281000Z 02004MPS 360V060 4000 HZ NSC 15/01 Q1022 NOSIG
ZHCC,2023-02-28 11:00,ZHCC 281100Z 01004MPS 340V050 4000 HZ NSC 14/02 Q1023 NOSIG
ZHCC,2023-02-28 12:00,ZHCC 281200Z 01003MPS 4000 HZ NSC 12/02 Q1024 NOSIG
ZHCC,2023-02-28 13:00,ZHCC 281300Z 01003MPS 340V080 4500 HZ NSC 12/02 Q1025 NOSIG
ZHCC,2023-02-28 14:00,ZHCC 281400Z 02004MPS 340V060 5000 HZ NSC 12/01 Q1026 NOSIG
ZHCC,2023-02-28 15:00,ZHCC 281500Z 01003MPS 340V040 5000 HZ NSC 11/00 Q1026 NOSIG
ZHCC,2023-02-28 16:00,ZHCC 281600Z 36002MPS 6000 NSC 11/00 Q1027 NOSIG
ZHCC,2023-02-28 17:00,ZHCC 281700Z 31002MPS 6000 NSC 09/M00 Q1027 NOSIG
ZHCC,2023-02-28 18:00,ZHCC 281800Z 34002MPS 6000 NSC 08/M01 Q1027 NOSIG
ZHCC,2023-02-28 19:00,ZHCC 281900Z 30002MPS 6000 NSC 07/M01 Q1027 NOSIG
ZHCC,2023-02-28 20:00,ZHCC 282000Z 32001MPS 6000 NSC 08/M01 Q1027 NOSIG
ZHCC,2023-02-28 21:00,ZHCC 282100Z 33001MPS 6000 NSC 07/M01 Q1027 NOSIG
ZHCC,2023-02-28 22:00,ZHCC 282200Z VRB01MPS 6000 NSC 07/M01 Q1028 NOSIG
ZHCC,2023-02-28 23:00,ZHCC 282300Z 30001MPS 5000 HZ NSC 05/M01 Q1029 NOSIG
ZHCC,2023-03-01 00:00,ZHCC 010000Z VRB01MPS 5000 HZ NSC 06/M00 Q1029 NOSIG
ZHCC,2023-03-01 01:00,ZHCC 010100Z 06002MPS 5000 HZ NSC 12/M02 Q1030 NOSIG
ZHCC,2023-03-01 02:00,ZHCC 010200Z 06002MPS 350V130 5000 HZ NSC 13/M02 Q1030 NOSIG
ZHCC,2023-03-01 03:00,ZHCC 010300Z 04003G11MPS 330V140 5000 HZ NSC 14/M03 Q1031 NOSIG
ZHCC,2023-03-01 04:00,ZHCC 010400Z 06003MPS 360V120 5000 HZ NSC 16/M02 Q1030 NOSIG
ZHCC,2023-03-01 05:00,ZHCC 010500Z VRB02MPS 5000 HZ NSC 15/M03 Q1030 NOSIG
ZHCC,2023-03-01 06:00,ZHCC 010600Z 03002MPS 300V090 5000 HZ NSC 16/M03 Q1029 NOSIG
ZHCC,2023-03-01 07:00,ZHCC 010700Z 12002MPS 040V180 5000 HZ NSC 17/M03 Q1028 NOSIG
ZHCC,2023-03-01 08:00,ZHCC 010800Z VRB01MPS 5000 HZ NSC 16/M03 Q1028 NOSIG
ZHCC,2023-03-01 09:00,ZHCC 010900Z 12003MPS 5000 HZ NSC 16/M02 Q1027 NOSIG
ZHCC,2023-03-01 10:00,ZHCC 011000Z VRB01MPS 5000 HZ NSC 14/M02 Q1028 NOSIG
ZHCC,2023-03-01 11:00,ZHCC 011100Z VRB01MPS 8000 NSC 13/M01 Q1029 NOSIG
ZHCC,2023-03-01 12:00,ZHCC 011200Z VRB01MPS 8000 NSC 10/M01 Q1029 NOSIG
ZHCC,2023-03-01 13:00,ZHCC 011300Z 13001MPS 8000 NSC 09/M01 Q1030 NOSIG
ZHCC,2023-03-01 14:00,ZHCC 011400Z VRB01MPS 8000 NSC 08/M01 Q1031 NOSIG
ZHCC,2023-03-01 15:00,ZHCC 011500Z VRB01MPS 8000 NSC 08/M01 Q1031 NOSIG
ZHCC,2023-03-01 16:00,ZHCC 011600Z VRB01MPS 8000 NSC 08/M01 Q1031 NOSIG
ZHCC,2023-03-01 17:00,ZHCC 011700Z VRB01MPS 8000 NSC 08/M02 Q1031 NOSIG
ZHCC,2023-03-01 18:00,ZHCC 011800Z VRB01MPS 8000 NSC 06/M02 Q1031 NOSIG
ZHCC,2023-03-01 19:00,ZHCC 011900Z 00000MPS 8000 NSC 06/M02 Q1031 NOSIG
ZHCC,2023-03-01 20:00,ZHCC 012000Z 10003MPS 8000 NSC 05/M03 Q1031 NOSIG
ZHCC,2023-03-01 21:00,ZHCC 012100Z 10002MPS 8000 NSC 06/M04 Q1030 NOSIG
ZHCC,2023-03-01 22:00,ZHCC 012200Z 08002MPS 040V130 7000 NSC 07/M04 Q1031 NOSIG
ZHCC,2023-03-01 23:00,ZHCC 012300Z 08001MPS 6000 NSC 04/M04 Q1031 NOSIG
ZHCC,2023-03-02 00:00,ZHCC 020000Z 08002MPS 030V110 6000 NSC 06/M03 Q1032 NOSIG
ZHCC,2023-03-02 01:00,ZHCC 020100Z 12002MPS 090V150 6000 NSC 09/M03 Q1032 NOSIG
ZHCC,2023-03-02 02:00,ZHCC 020200Z 16002MPS 120V220 6000 NSC 12/M03 Q1033 NOSIG
ZHCC,2023-03-02 03:00,ZHCC 020300Z 17003MPS 080V250 6000 NSC 14/M04 Q1032 NOSIG
ZHCC,2023-03-02 04:00,ZHCC 020400Z 18003MPS 130V250 6000 NSC 15/M02 Q1031 NOSIG
ZHCC,2023-03-02 05:00,ZHCC 020500Z 22004MPS 180V240 6000 NSC 16/M02 Q1030 NOSIG
ZHCC,2023-03-02 06:00,ZHCC 020600Z 18003MPS 150V240 6000 NSC 17/M02 Q1028 NOSIG
ZHCC,2023-03-02 07:00,ZHCC 020700Z 17003MPS 120V210 7000 NSC 17/M01 Q1027 NOSIG
ZHCC,2023-03-02 08:00,ZHCC 020800Z 17004MPS 110V210 7000 NSC 17/M01 Q1027 NOSIG
ZHCC,2023-03-02 09:00,ZHCC 020900Z 18003MPS 140V210 7000 NSC 16/M01 Q1027 NOSIG
ZHCC,2023-03-02 10:00,ZHCC 021000Z 18003MPS 150V210 7000 NSC 15/M01 Q1027 NOSIG
ZHCC,2023-03-02 11:00,ZHCC 021100Z 17002MPS 140V210 7000 NSC 14/M01 Q1027 NOSIG
ZHCC,2023-03-02 12:00,ZHCC 021200Z 15002MPS 120V180 7000 NSC 12/M01 Q1027 NOSIG
ZHCC,2023-03-02 13:00,ZHCC 021300Z 18002MPS 140V200 7000 NSC 12/M01 Q1028 NOSIG
ZHCC,2023-03-02 14:00,ZHCC 021400Z VRB01MPS 7000 NSC 09/M00 Q1028 NOSIG
ZHCC,2023-03-02 15:00,ZHCC 021500Z 20001MPS 7000 NSC 11/M00 Q1027 NOSIG
ZHCC,2023-03-02 16:00,ZHCC 021600Z 21002MPS 7000 NSC 10/M01 Q1027 NOSIG
ZHCC,2023-03-02 17:00,ZHCC 021700Z 18002MPS 140V220 7000 NSC 10/M00 Q1027 NOSIG
ZHCC,2023-03-02 18:00,ZHCC 021800Z 18001MPS 7000 NSC 08/M01 Q1026 NOSIG
ZHCC,2023-03-02 19:00,ZHCC 021900Z 20001MPS 7000 NSC 08/M00 Q1026 NOSIG
ZHCC,2023-03-02 20:00,ZHCC 022000Z 19002MPS 7000 NSC 06/M00 Q1025 NOSIG
ZHCC,2023-03-02 21:00,ZHCC 022100Z 23001MPS 7000 NSC 05/M01 Q1025 NOSIG
ZHCC,2023-03-02 22:00,ZHCC 022200Z 28001MPS 7000 NSC 04/M00 Q1024 NOSIG
ZHCC,2023-03-02 23:00,ZHCC 022300Z VRB01MPS 4000 HZ NSC 05/01 Q1025 NOSIG
ZHCC,2023-03-03 00:00,ZHCC 030000Z VRB01MPS 4000 HZ NSC 07/03 Q1025 NOSIG
ZHCC,2023-03-03 01:00,ZHCC 030100Z 22002MPS 190V260 5000 HZ NSC 13/00 Q1025 NOSIG
ZHCC,2023-03-03 02:00,ZHCC 030200Z 26003MPS 210V290 7000 NSC 16/M01 Q1025 NOSIG
ZHCC,2023-03-03 03:00,ZHCC 030300Z 26004MPS 8000 NSC 18/M03 Q1024 NOSIG
ZHCC,2023-03-03 04:00,ZHCC 030400Z 26004MPS 220V300 CAVOK 19/M02 Q1024 NOSIG
ZHCC,2023-03-03 05:00,ZHCC 030500Z 22003G08MPS 120V280 CAVOK 21/M04 Q1022 NOSIG
ZHCC,2023-03-03 06:00,ZHCC 030600Z 29004MPS 240V360 CAVOK 22/M07 Q1021 NOSIG
ZHCC,2023-03-03 07:00,ZHCC 030700Z 28005MPS CAVOK 22/M10 Q1021 NOSIG
ZHCC,2023-03-03 08:00,ZHCC 030800Z 30006MPS CAVOK 22/M14 Q1021 NOSIG
ZHCC,2023-03-03 09:00,ZHCC 030900Z 28006MPS CAVOK 21/M13 Q1021 NOSIG
ZHCC,2023-03-03 10:00,ZHCC 031000Z 27003MPS CAVOK 19/M10 Q1021 NOSIG
ZHCC,2023-03-03 11:00,ZHCC 031100Z VRB01MPS CAVOK 15/M10 Q1022 NOSIG
ZHCC,2023-03-03 12:00,ZHCC 031200Z 27004MPS CAVOK 16/M09 Q1023 NOSIG
ZHCC,2023-03-03 13:00,ZHCC 031300Z 25002MPS CAVOK 14/M09 Q1023 NOSIG
ZHCC,2023-03-03 14:00,ZHCC 031400Z 27002MPS CAVOK 12/M09 Q1024 NOSIG
ZHCC,2023-03-03 15:00,ZHCC 031500Z 26002MPS CAVOK 07/M07 Q1024 NOSIG
ZHCC,2023-03-03 16:00,ZHCC 031600Z 24002MPS CAVOK 08/M08 Q1024 NOSIG
ZHCC,2023-03-03 17:00,ZHCC 031700Z 25002MPS CAVOK 08/M08 Q1024 NOSIG
ZHCC,2023-03-03 18:00,ZHCC 031800Z 27002MPS CAVOK 06/M08 Q1024 NOSIG
ZHCC,2023-03-03 19:00,ZHCC 031900Z VRB01MPS CAVOK 06/M08 Q1023 NOSIG
ZHCC,2023-03-03 20:00,ZHCC 032000Z 32002MPS CAVOK 08/M09 Q1023 NOSIG
ZHCC,2023-03-03 21:00,ZHCC 032100Z 28002MPS CAVOK 09/M10 Q1023 NOSIG
ZHCC,2023-03-03 22:00,ZHCC 032200Z 28003MPS CAVOK 09/M11 Q1023 NOSIG
ZHCC,2023-03-03 23:00,ZHCC 032300Z 27003MPS CAVOK 07/M11 Q1023 NOSIG
ZHCC,2023-03-04 00:00,ZHCC 040000Z 27002MPS CAVOK 09/M07 Q1024 NOSIG
ZHCC,2023-03-04 01:00,ZHCC 040100Z 27002MPS CAVOK 15/M09 Q1025 NOSIG
ZHCC,2023-03-04 02:00,ZHCC 040200Z 29005MPS 230V340 CAVOK 20/M13 Q1025 NOSIG
ZHCC,2023-03-04 03:00,ZHCC 040300Z 30004MPS 270V330 CAVOK 21/M15 Q1025 NOSIG
ZHCC,2023-03-04 04:00,ZHCC 040400Z 27003MPS 230V340 CAVOK 22/M13 Q1024 NOSIG
ZHCC,2023-03-04 05:00,ZHCC 040500Z 31004MPS 260V010 CAVOK 22/M15 Q1023 NOSIG
ZHCC,2023-03-04 06:00,ZHCC 040600Z 33005MPS 290V020 CAVOK 23/M17 Q1022 NOSIG
ZHCC,2023-03-04 07:00,ZHCC 040700Z 31004MPS 260V350 CAVOK 24/M16 Q1021 NOSIG
ZHCC,2023-03-04 08:00,ZHCC 040800Z 32004MPS 280V020 CAVOK 23/M19 Q1021 NOSIG
ZHCC,2023-03-04 09:00,ZHCC 040900Z 31002MPS CAVOK 22/M17 Q1021 NOSIG
ZHCC,2023-03-04 10:00,ZHCC 041000Z 05002MPS CAVOK 20/M17 Q1021 NOSIG
ZHCC,2023-03-04 11:00,ZHCC 041100Z 13002MPS CAVOK 16/M07 Q1022 NOSIG
ZHCC,2023-03-04 12:00,ZHCC 041200Z 14002MPS CAVOK 14/M05 Q1023 NOSIG
ZHCC,2023-03-04 13:00,ZHCC 041300Z VRB01MPS CAVOK 12/M05 Q1023 NOSIG
ZHCC,2023-03-04 14:00,ZHCC 041400Z 06002MPS CAVOK 11/M04 Q1024 NOSIG
ZHCC,2023-03-04 15:00,ZHCC 041500Z VRB01MPS CAVOK 11/M05 Q1024 NOSIG
ZHCC,2023-03-04 16:00,ZHCC 041600Z VRB01MPS CAVOK 09/M04 Q1024 NOSIG
ZHCC,2023-03-04 17:00,ZHCC 041700Z VRB01MPS CAVOK 09/M05 Q1023 NOSIG
ZHCC,2023-03-04 18:00,ZHCC 041800Z 26001MPS CAVOK 09/M04 Q1023 NOSIG
ZHCC,2023-03-04 19:00,ZHCC 041900Z 16001MPS CAVOK 05/M03 Q1023 NOSIG
ZHCC,2023-03-04 20:00,ZHCC 042000Z 00000MPS 9000 NSC 07/M03 Q1022 NOSIG
ZHCC,2023-03-04 21:00,ZHCC 042100Z 29001MPS 9000 NSC 04/M02 Q1022 NOSIG
ZHCC,2023-03-04 22:00,ZHCC 042200Z 26001MPS 8000 NSC 05/M01 Q1022 NOSIG
ZHCC,2023-03-04 23:00,ZHCC 042300Z 31001MPS 6000 NSC 05/M01 Q1023 NOSIG
ZHCC,2023-03-05 00:00,ZHCC 050000Z 29002MPS 6000 NSC 08/01 Q1023 NOSIG
ZHCC,2023-03-05 01:00,ZHCC 050100Z 32002MPS 300V360 6000 NSC 15/M00 Q1024 NOSIG
ZHCC,2023-03-05 02:00,ZHCC 050200Z 36002MPS 320V060 6000 NSC 16/M01 Q1023 NOSIG
ZHCC,2023-03-05 03:00,ZHCC 050300Z VRB01MPS 6000 NSC 19/M01 Q1023 NOSIG
ZHCC,2023-03-05 04:00,ZHCC 050400Z 19002MPS 120V240 6000 NSC 21/01 Q1022 NOSIG
ZHCC,2023-03-05 05:00,ZHCC 050500Z 12002MPS 070V170 6000 NSC 21/01 Q1021 NOSIG
ZHCC,2023-03-05 06:00,ZHCC 050600Z 17003MPS 120V240 6000 NSC 22/03 Q1020 NOSIG
ZHCC,2023-03-05 07:00,ZHCC 050700Z 13003MPS 090V180 7000 NSC 22/05 Q1019 NOSIG
ZHCC,2023-03-05 08:00,ZHCC 050800Z 17002MPS 120V200 7000 NSC 23/05 Q1018 NOSIG
ZHCC,2023-03-05 09:00,ZHCC 050900Z 14003MPS 120V180 7000 NSC 22/06 Q1018 NOSIG
ZHCC,2023-03-05 10:00,ZHCC 051000Z 14003MPS 7000 NSC 20/07 Q1018 NOSIG
ZHCC,2023-03-05 11:00,ZHCC 051100Z 15002MPS 120V180 7000 NSC 18/08 Q1018 NOSIG
ZHCC,2023-03-05 12:00,ZHCC 051200Z 17002MPS 140V210 8000 NSC 18/06 Q1019 NOSIG
ZHCC,2023-03-05 13:00,ZHCC 051300Z 18002MPS 140V220 8000 NSC 17/06 Q1019 NOSIG
ZHCC,2023-03-05 14:00,ZHCC 051400Z VRB01MPS 8000 NSC 17/06 Q1019 NOSIG
ZHCC,2023-03-05 15:00,ZHCC 051500Z 18002MPS 140V210 8000 NSC 15/06 Q1019 NOSIG
ZHCC,2023-03-05 16:00,ZHCC 051600Z 20001MPS 8000 NSC 11/05 Q1018 NOSIG
ZHCC,2023-03-05 17:00,ZHCC 051700Z 20003MPS 170V230 8000 NSC 16/07 Q1018 NOSIG
ZHCC,2023-03-05 18:00,ZHCC 051800Z 22002MPS 8000 NSC 16/07 Q1018 NOSIG
ZHCC,2023-03-05 19:00,ZHCC 051900Z 29002MPS 7000 NSC 11/06 Q1018 NOSIG
ZHCC,2023-03-05 20:00,ZHCC 052000Z 26002MPS 7000 NSC 10/06 Q1017 NOSIG
ZHCC,2023-03-05 21:00,ZHCC 052100Z 00000MPS 7000 NSC 08/05 Q1017 NOSIG
ZHCC,2023-03-05 22:00,ZHCC 052200Z VRB01MPS 7000 NSC 08/05 Q1017 NOSIG
ZHCC,2023-03-05 23:00,ZHCC 052300Z 00000MPS 5000 BR NSC 08/05 Q1018 NOSIG
ZHCC,2023-03-06 00:00,ZHCC 060000Z VRB01MPS 5000 BR NSC 12/09 Q1018 NOSIG
ZHCC,2023-03-06 01:00,ZHCC 060100Z VRB01MPS 5000 HZ NSC 18/08 Q1018 NOSIG
ZHCC,2023-03-06 02:00,ZHCC 060200Z 18003MPS 150V210 7000 NSC 20/08 Q1018 NOSIG
ZHCC,2023-03-06 03:00,ZHCC 060300Z 22002MPS 160V270 7000 NSC 21/07 Q1018 NOSIG
ZHCC,2023-03-06 04:00,ZHCC 060400Z 19003MPS 140V250 7000 NSC 24/06 Q1017 NOSIG
ZHCC,2023-03-06 05:00,ZHCC 060500Z 16003MPS 110V200 7000 NSC 24/07 Q1016 NOSIG
ZHCC,2023-03-06 06:00,ZHCC 060600Z 19003MPS 130V230 CAVOK 25/07 Q1015 NOSIG
ZHCC,2023-03-06 07:00,ZHCC 060700Z 18003MPS 140V210 CAVOK 26/08 Q1014 NOSIG
ZHCC,2023-03-06 08:00,ZHCC 060800Z 17003MPS 130V220 CAVOK 25/08 Q1014 NOSIG
ZHCC,2023-03-06 09:00,ZHCC 060900Z 18004MPS 150V210 CAVOK 24/08 Q1014 NOSIG
ZHCC,2023-03-06 10:00,ZHCC 061000Z 17002MPS 140V230 CAVOK 23/08 Q1014 NOSIG
ZHCC,2023-03-06 11:00,ZHCC 061100Z 19003MPS 130V220 CAVOK 21/09 Q1015 NOSIG
ZHCC,2023-03-06 12:00,ZHCC 061200Z 18002MPS 150V210 CAVOK 19/09 Q1015 NOSIG
ZHCC,2023-03-06 13:00,ZHCC 061300Z VRB01MPS CAVOK 18/09 Q1016 NOSIG
ZHCC,2023-03-06 14:00,ZHCC 061400Z VRB01MPS CAVOK 14/08 Q1016 NOSIG
ZHCC,2023-03-06 15:00,ZHCC 061500Z VRB01MPS CAVOK 14/08 Q1016 NOSIG
ZHCC,2023-03-06 16:00,ZHCC 061600Z 23002MPS CAVOK 13/08 Q1016 NOSIG
ZHCC,2023-03-06 17:00,ZHCC 061700Z VRB01MPS CAVOK 12/08 Q1016 NOSIG
ZHCC,2023-03-06 18:00,ZHCC 061800Z 00000MPS CAVOK 10/07 Q1016 NOSIG
ZHCC,2023-03-06 19:00,ZHCC 061900Z VRB01MPS 6000 NSC 10/07 Q1015 NOSIG
ZHCC,2023-03-06 20:00,ZHCC 062000Z 26001MPS 6000 NSC 09/06 Q1015 NOSIG
ZHCC,2023-03-06 21:00,ZHCC 062100Z 26002MPS 6000 NSC 10/06 Q1016 NOSIG
ZHCC,2023-03-06 22:00,ZHCC 062200Z VRB01MPS 6000 NSC 12/06 Q1016 NOSIG
ZHCC,2023-03-06 23:00,ZHCC 062300Z 28002MPS 4000 BR NSC 09/05 Q1016 NOSIG
ZHCC,2023-03-07 00:00,ZHCC 070000Z 28001MPS 4000 BR NSC 11/09 Q1017 NOSIG
ZHCC,2023-03-07 01:00,ZHCC 070100Z VRB01MPS 5000 HZ NSC 17/05 Q1018 NOSIG
ZHCC,2023-03-07 02:00,ZHCC 070200Z 31003MPS 5000 HZ NSC 20/06 Q1018 NOSIG
ZHCC,2023-03-07 03:00,ZHCC 070300Z 03002MPS 320V090 5000 HZ NSC 21/06 Q1017 NOSIG
ZHCC,2023-03-07 04:00,ZHCC 070400Z VRB01MPS 5000 HZ NSC 24/04 Q1017 NOSIG
ZHCC,2023-03-07 05:00,ZHCC 070500Z 33002MPS 230V020 5000 HZ NSC 25/02 Q1015 NOSIG
ZHCC,2023-03-07 06:00,ZHCC 070600Z 14002MPS 070V230 6000 NSC 26/02 Q1015 NOSIG
ZHCC,2023-03-07 07:00,ZHCC 070700Z 21002MPS 160V280 6000 NSC 27/01 Q1014 NOSIG
ZHCC,2023-03-07 08:00,ZHCC 070800Z 20003MPS 160V230 6000 NSC 26/02 Q1014 NOSIG
ZHCC,2023-03-07 09:00,ZHCC 070900Z 18003MPS 150V210 6000 NSC 25/06 Q1013 NOSIG
ZHCC,2023-03-07 10:00,ZHCC 071000Z 19004MPS 160V220 6000 NSC 23/06 Q1013 NOSIG
ZHCC,2023-03-07 11:00,ZHCC 071100Z 18002MPS 150V210 8000 NSC 21/07 Q1014 NOSIG
ZHCC,2023-03-07 12:00,ZHCC 071200Z 20003MPS 8000 NSC 21/09 Q1014 NOSIG
ZHCC,2023-03-07 13:00,ZHCC 071300Z 21003MPS 8000 NSC 21/10 Q1015 NOSIG
ZHCC,2023-03-07 14:00,ZHCC 071400Z 21003MPS 180V240 8000 NSC 21/10 Q1015 NOSIG
ZHCC,2023-03-07 15:00,ZHCC 071500Z 22002MPS CAVOK 20/10 Q1015 NOSIG
ZHCC,2023-03-07 16:00,ZHCC 071600Z 23002MPS CAVOK 19/09 Q1015 NOSIG
ZHCC,2023-03-07 17:00,ZHCC 071700Z 23001MPS CAVOK 17/08 Q1015 NOSIG
ZHCC,2023-03-07 18:00,ZHCC 071800Z VRB01MPS CAVOK 15/07 Q1015 NOSIG
ZHCC,2023-03-07 19:00,ZHCC 071900Z VRB01MPS CAVOK 14/07 Q1015 NOSIG
ZHCC,2023-03-07 20:00,ZHCC 072000Z 00000MPS CAVOK 13/07 Q1014 NOSIG
ZHCC,2023-03-07 21:00,ZHCC 072100Z 28002MPS 8000 NSC 11/06 Q1015 NOSIG
ZHCC,2023-03-07 22:00,ZHCC 072200Z 26001MPS 8000 NSC 12/05 Q1015 NOSIG
ZHCC,2023-03-07 23:00,ZHCC 072300Z 28003MPS 8000 NSC 14/02 Q1016 NOSIG
ZHCC,2023-03-08 00:00,ZHCC 080000Z 31006MPS CAVOK 21/M04 Q1017 NOSIG
ZHCC,2023-03-08 01:00,ZHCC 080100Z 31006MPS CAVOK 22/M04 Q1018 NOSIG
ZHCC,2023-03-08 02:00,ZHCC 080200Z 32006MPS CAVOK 25/M04 Q1018 NOSIG
ZHCC,2023-03-08 03:00,ZHCC 080300Z 30006MPS 270V330 CAVOK 26/M05 Q1019 NOSIG
ZHCC,2023-03-08 04:00,ZHCC 080400Z 35004MPS 320V020 CAVOK 27/M07 Q1019 NOSIG
ZHCC,2023-03-08 05:00,ZHCC 080500Z 34004MPS 300V020 CAVOK 28/M06 Q1018 NOSIG
ZHCC,2023-03-08 06:00,ZHCC 080600Z 32003MPS 280V360 CAVOK 28/M08 Q1017 NOSIG
ZHCC,2023-03-08 07:00,ZHCC 080700Z VRB03MPS CAVOK 28/M09 Q1016 NOSIG
ZHCC,2023-03-08 08:00,ZHCC 080800Z VRB03MPS CAVOK 27/M10 Q1016 NOSIG
ZHCC,2023-03-08 09:00,ZHCC 080900Z 28004MPS CAVOK 27/M14 Q1016 NOSIG
ZHCC,2023-03-08 10:00,ZHCC 081000Z 14002MPS CAVOK 23/M00 Q1016 NOSIG
ZHCC,2023-03-08 11:00,ZHCC 081100Z 16002MPS 120V200 CAVOK 21/M00 Q1016 NOSIG
ZHCC,2023-03-08 12:00,ZHCC 081200Z VRB01MPS CAVOK 19/02 Q1017 NOSIG
ZHCC,2023-03-08 13:00,ZHCC 081300Z 11001MPS CAVOK 15/02 Q1017 NOSIG
ZHCC,2023-03-08 14:00,ZHCC 081400Z 11003MPS CAVOK 16/02 Q1018 NOSIG
ZHCC,2023-03-08 15:00,ZHCC 081500Z 12002MPS CAVOK 15/02 Q1018 NOSIG
ZHCC,2023-03-08 16:00,ZHCC 081600Z VRB01MPS CAVOK 11/01 Q1018 NOSIG
ZHCC,2023-03-08 17:00,ZHCC 081700Z VRB01MPS CAVOK 10/02 Q1018 NOSIG
ZHCC,2023-03-08 18:00,ZHCC 081800Z VRB01MPS CAVOK 12/02 Q1017 NOSIG
ZHCC,2023-03-08 19:00,ZHCC 081900Z 28002MPS CAVOK 11/02 Q1017 NOSIG
ZHCC,2023-03-08 20:00,ZHCC 082000Z VRB01MPS CAVOK 11/02 Q1016 NOSIG
ZHCC,2023-03-08 21:00,ZHCC 082100Z VRB01MPS CAVOK 10/02 Q1016 NOSIG
ZHCC,2023-03-08 22:00,ZHCC 082200Z 26002MPS CAVOK 08/M01 Q1017 NOSIG
ZHCC,2023-03-08 23:00,ZHCC 082300Z 25001MPS CAVOK 08/M02 Q1017 NOSIG
ZHCC,2023-03-09 00:00,ZHCC 090000Z 24002MPS CAVOK 15/M01 Q1017 NOSIG
ZHCC,2023-03-09 01:00,ZHCC 090100Z 25005MPS CAVOK 21/M04 Q1018 NOSIG
ZHCC,2023-03-09 02:00,ZHCC 090200Z 25005MPS CAVOK 24/M05 Q1018 NOSIG
ZHCC,2023-03-09 03:00,ZHCC 090300Z 25004MPS 210V280 CAVOK 26/M05 Q1017 NOSIG
ZHCC,2023-03-09 04:00,ZHCC 090400Z 26005MPS 200V300 CAVOK 28/M08 Q1017 NOSIG
ZHCC,2023-03-09 05:00,ZHCC 090500Z 26004MPS 200V300 CAVOK 28/M07 Q1016 NOSIG
ZHCC,2023-03-09 06:00,ZHCC 090600Z 23004MPS 190V290 CAVOK 29/M08 Q1014 NOSIG
ZHCC,2023-03-09 07:00,ZHCC 090700Z 19005MPS 140V230 CAVOK 29/M01 Q1013 NOSIG
ZHCC,2023-03-09 08:00,ZHCC 090800Z 19004MPS 160V220 CAVOK 28/M01 Q1013 NOSIG
ZHCC,2023-03-09 09:00,ZHCC 090900Z 20004MPS 160V240 CAVOK 28/M02 Q1012 NOSIG
ZHCC,2023-03-09 10:00,ZHCC 091000Z 19005G10MPS 150V210 CAVOK 25/06 Q1013 NOSIG
ZHCC,2023-03-09 11:00,ZHCC 091100Z 19003MPS 160V220 CAVOK 23/03 Q1013 NOSIG
ZHCC,2023-03-09 12:00,ZHCC 091200Z 20004MPS 150V220 CAVOK 22/05 Q1014 NOSIG
ZHCC,2023-03-09 13:00,ZHCC 091300Z 21002MPS CAVOK 21/05 Q1014 NOSIG
ZHCC,2023-03-09 14:00,ZHCC 091400Z 21003MPS CAVOK 21/02 Q1015 NOSIG
ZHCC,2023-03-09 15:00,ZHCC 091500Z 20003MPS 170V230 CAVOK 20/04 Q1015 NOSIG
ZHCC,2023-03-09 16:00,ZHCC 091600Z 20003MPS 170V230 CAVOK 20/05 Q1014 NOSIG
ZHCC,2023-03-09 17:00,ZHCC 091700Z 20004MPS CAVOK 20/07 Q1014 NOSIG
ZHCC,2023-03-09 18:00,ZHCC 091800Z 20004MPS 160V230 CAVOK 19/08 Q1014 NOSIG
ZHCC,2023-03-09 19:00,ZHCC 091900Z 19003MPS 160V220 CAVOK 18/08 Q1013 NOSIG
ZHCC,2023-03-09 20:00,ZHCC 092000Z 19003MPS 150V220 CAVOK 17/08 Q1013 NOSIG
ZHCC,2023-03-09 21:00,ZHCC 092100Z 19003MPS 150V230 CAVOK 17/09 Q1013 NOSIG
ZHCC,2023-03-09 22:00,ZHCC 092200Z 21004MPS CAVOK 18/10 Q1013 NOSIG
ZHCC,2023-03-09 23:00,ZHCC 092300Z 20002MPS 180V240 CAVOK 17/10 Q1013 NOSIG
ZHCC,2023-03-10 00:00,ZHCC 100000Z 21003MPS 150V250 CAVOK 19/09 Q1013 NOSIG
ZHCC,2023-03-10 01:00,ZHCC 100100Z 20005MPS 170V230 CAVOK 21/08 Q1014 NOSIG
ZHCC,2023-03-10 02:00,ZHCC 100200Z 20005MPS 160V240 CAVOK 23/09 Q1013 NOSIG
ZHCC,2023-03-10 03:00,ZHCC 100300Z 20005MPS 170V230 CAVOK 24/09 Q1013 NOSIG
ZHCC,2023-03-10 04:00,ZHCC 100400Z 20004MPS 160V240 CAVOK 25/10 Q1012 NOSIG
ZHCC,2023-03-10 05:00,ZHCC 100500Z 19005MPS 140V230 CAVOK 26/10 Q1012 NOSIG
ZHCC,2023-03-10 06:00,ZHCC 100600Z 20005MPS 160V240 CAVOK 27/10 Q1011 NOSIG
ZHCC,2023-03-10 07:00,ZHCC 100700Z 18004MPS 130V210 CAVOK 27/10 Q1010 NOSIG
ZHCC,2023-03-10 08:00,ZHCC 100800Z 18005MPS 110V210 CAVOK 26/12 Q1010 NOSIG
ZHCC,2023-03-10 09:00,ZHCC 100900Z 19005MPS 160V230 CAVOK 26/11 Q1010 NOSIG
ZHCC,2023-03-10 10:00,ZHCC 101000Z 19004MPS 150V230 CAVOK 24/11 Q1010 NOSIG
ZHCC,2023-03-10 11:00,ZHCC 101100Z 20004MPS CAVOK 24/09 Q1011 NOSIG
ZHCC,2023-03-10 12:00,ZHCC 101200Z 20005MPS 180V240 CAVOK 23/08 Q1012 NOSIG
ZHCC,2023-03-10 13:00,ZHCC 101300Z 20004MPS 170V240 CAVOK 23/07 Q1013 NOSIG
ZHCC,2023-03-10 14:00,ZHCC 101400Z 21005MPS 180V240 CAVOK 22/07 Q1013 NOSIG
ZHCC,2023-03-10 15:00,ZHCC 101500Z 22003MPS CAVOK 22/06 Q1013 NOSIG
ZHCC,2023-03-10 16:00,ZHCC 101600Z 24003MPS 200V260 CAVOK 21/04 Q1013 NOSIG
ZHCC,2023-03-10 17:00,ZHCC 101700Z 21002MPS 180V240 CAVOK 20/05 Q1013 NOSIG
ZHCC,2023-03-10 18:00,ZHCC 101800Z 19002MPS CAVOK 19/05 Q1013 NOSIG
ZHCC,2023-03-10 19:00,ZHCC 101900Z 18003MPS 140V200 CAVOK 18/06 Q1013 NOSIG
ZHCC,2023-03-10 20:00,ZHCC 102000Z 23002MPS 210V280 CAVOK 17/06 Q1013 NOSIG
ZHCC,2023-03-10 21:00,ZHCC 102100Z 04008MPS CAVOK 19/05 Q1015 NOSIG
ZHCC,2023-03-10 22:00,ZHCC 102200Z 04006MPS 5000 SA NSC 17/00 Q1017 NOSIG
ZHCC,2023-03-10 23:00,ZHCC 102300Z 04006MPS 010V070 3000 SA NSC 17/M02 Q1017 BECMG TL0040 2500
ZHCC,2023-03-11 00:00,ZHCC 110000Z 04009MPS 3000 SA NSC 16/M02 Q1019 BECMG TL0040 2500
ZHCC,2023-03-11 01:00,ZHCC 110100Z 03009G14MPS 360V060 2000 SA NSC 15/02 Q1020 NOSIG
ZHCC,2023-03-11 02:00,ZHCC 110200Z 04008MPS 2500 SA NSC 15/03 Q1021 BECMG TL0340 3000
ZHCC,2023-03-11 03:00,ZHCC 110300Z 03010MPS 2800 SA NSC 15/01 Q1022 BECMG TL0340 3000
ZHCC,2023-03-11 04:00,ZHCC 110400Z 01010G15MPS 340V040 3600 SA NSC 16/M02 Q1023 NOSIG
ZHCC,2023-03-11 05:00,ZHCC 110500Z 02008G13MPS 360V060 5000 SA NSC 16/M04 Q1023 NOSIG
ZHCC,2023-03-11 06:00,ZHCC 110600Z 03010MPS 7000 NSC 17/M05 Q1023 NOSIG
ZHCC,2023-03-11 07:00,ZHCC 110700Z 02008G13MPS CAVOK 18/M04 Q1023 NOSIG
ZHCC,2023-03-11 08:00,ZHCC 110800Z 03007MPS CAVOK 16/M07 Q1024 NOSIG
ZHCC,2023-03-11 09:00,ZHCC 110900Z 02009G15MPS 340V040 CAVOK 15/M07 Q1025 NOSIG
ZHCC,2023-03-11 10:00,ZHCC 111000Z 02009MPS 350V050 CAVOK 14/M08 Q1026 NOSIG
ZHCC,2023-03-11 11:00,ZHCC 111100Z 02006MPS CAVOK 13/M09 Q1028 NOSIG
ZHCC,2023-03-11 12:00,ZHCC 111200Z 01004MPS 340V040 CAVOK 12/M08 Q1028 NOSIG
ZHCC,2023-03-11 13:00,ZHCC 111300Z 04002MPS 360V080 CAVOK 12/M08 Q1029 NOSIG
ZHCC,2023-03-11 14:00,ZHCC 111400Z 36003MPS 310V030 CAVOK 12/M08 Q1030 NOSIG
ZHCC,2023-03-11 15:00,ZHCC 111500Z 36002MPS CAVOK 12/M07 Q1030 NOSIG
ZHCC,2023-03-11 16:00,ZHCC 111600Z 27001MPS CAVOK 10/M06 Q1030 NOSIG
ZHCC,2023-03-11 17:00,ZHCC 111700Z 27002MPS CAVOK 10/M06 Q1030 NOSIG
ZHCC,2023-03-11 18:00,ZHCC 111800Z 27002MPS CAVOK 10/M06 Q1030 NOSIG
ZHCC,2023-03-11 19:00,ZHCC 111900Z 30006MPS CAVOK 13/M08 Q1030 NOSIG
ZHCC,2023-03-11 20:00,ZHCC 112000Z 32006MPS CAVOK 13/M13 Q1031 NOSIG
ZHCC,2023-03-11 21:00,ZHCC 112100Z 36008MPS 340V040 CAVOK 11/M06 Q1033 NOSIG
ZHCC,2023-03-11 22:00,ZHCC 112200Z 02008G13MPS 340V040 CAVOK 09/M09 Q1035 NOSIG
ZHCC,2023-03-11 23:00,ZHCC 112300Z 01006MPS CAVOK 08/M11 Q1036 NOSIG
ZHCC,2023-03-12 00:00,ZHCC 120000Z 02004MPS 350V050 CAVOK 08/M12 Q1037 NOSIG
ZHCC,2023-03-12 01:00,ZHCC 120100Z 03006MPS CAVOK 09/M12 Q1038 NOSIG
ZHCC,2023-03-12 02:00,ZHCC 120200Z 04005MPS 340V060 CAVOK 10/M12 Q1038 NOSIG
ZHCC,2023-03-12 03:00,ZHCC 120300Z 35003MPS 300V100 CAVOK 11/M12 Q1038 NOSIG
ZHCC,2023-03-12 04:00,ZHCC 120400Z 36003MPS 290V060 CAVOK 12/M11 Q1037 NOSIG
ZHCC,2023-03-12 05:00,ZHCC 120500Z 33003MPS 280V040 CAVOK 13/M11 Q1035 NOSIG
ZHCC,2023-03-12 06:00,ZHCC 120600Z 34003MPS 280V020 CAVOK 15/M11 Q1034 NOSIG
ZHCC,2023-03-12 07:00,ZHCC 120700Z 01003MPS 280V060 CAVOK 15/M16 Q1032 NOSIG
ZHCC,2023-03-12 08:00,ZHCC 120800Z 28003MPS 220V340 CAVOK 16/M19 Q1032 NOSIG
ZHCC,2023-03-12 09:00,ZHCC 120900Z VRB01MPS CAVOK 16/M18 Q1031 NOSIG
ZHCC,2023-03-12 10:00,ZHCC 121000Z 14004MPS CAVOK 12/M06 Q1031 NOSIG
ZHCC,2023-03-12 11:00,ZHCC 121100Z 16002MPS 120V190 CAVOK 11/M07 Q1030 NOSIG
ZHCC,2023-03-12 12:00,ZHCC 121200Z VRB01MPS CAVOK 10/M07 Q1031 NOSIG
ZHCC,2023-03-12 13:00,ZHCC 121300Z 19003MPS CAVOK 10/M06 Q1030 NOSIG
ZHCC,2023-03-12 14:00,ZHCC 121400Z 21004MPS 170V230 CAVOK 10/M07 Q1030 NOSIG
ZHCC,2023-03-12 15:00,ZHCC 121500Z 21004MPS 170V240 CAVOK 09/M06 Q1030 NOSIG
ZHCC,2023-03-12 16:00,ZHCC 121600Z 20003MPS 170V230 CAVOK 09/M05 Q1029 NOSIG
ZHCC,2023-03-12 17:00,ZHCC 121700Z 20003MPS CAVOK 08/M05 Q1028 NOSIG
ZHCC,2023-03-12 18:00,ZHCC 121800Z 20002MPS CAVOK 07/M06 Q1027 NOSIG
ZHCC,2023-03-12 19:00,ZHCC 121900Z 20003MPS CAVOK 05/M04 Q1026 NOSIG
ZHCC,2023-03-12 20:00,ZHCC 122000Z 23002MPS 190V280 CAVOK 05/M05 Q1025 NOSIG
ZHCC,2023-03-12 21:00,ZHCC 122100Z 18002MPS CAVOK 03/M05 Q1024 NOSIG
ZHCC,2023-03-12 22:00,ZHCC 122200Z 20002MPS 160V220 CAVOK 06/M07 Q1024 NOSIG
ZHCC,2023-03-12 23:00,ZHCC 122300Z 20003MPS CAVOK 06/M07 Q1023 NOSIG
ZHCC,2023-03-13 00:00,ZHCC 130000Z 20003MPS CAVOK 07/M07 Q1023 NOSIG
ZHCC,2023-03-13 01:00,ZHCC 130100Z 20004MPS 170V240 CAVOK 11/M07 Q1022 NOSIG
ZHCC,2023-03-13 02:00,ZHCC 130200Z 20006MPS CAVOK 13/M08 Q1021 NOSIG
ZHCC,2023-03-13 03:00,ZHCC 130300Z 21006MPS 170V230 CAVOK 15/M07 Q1020 NOSIG
ZHCC,2023-03-13 04:00,ZHCC 130400Z 22006MPS 180V240 CAVOK 16/M06 Q1019 NOSIG
ZHCC,2023-03-13 05:00,ZHCC 130500Z 20007MPS 170V240 CAVOK 18/M07 Q1016 NOSIG
ZHCC,2023-03-13 06:00,ZHCC 130600Z 19006MPS 140V220 CAVOK 19/M05 Q1015 NOSIG
ZHCC,2023-03-13 07:00,ZHCC 130700Z 18006G11MPS 140V220 CAVOK 19/M03 Q1013 NOSIG
ZHCC,2023-03-13 08:00,ZHCC 130800Z 18006MPS 140V240 CAVOK 19/M02 Q1012 NOSIG
ZHCC,2023-03-13 09:00,ZHCC 130900Z 18007G12MPS 160V220 CAVOK 19/M03 Q1012 NOSIG
ZHCC,2023-03-13 10:00,ZHCC 131000Z 19005G10MPS 160V220 CAVOK 18/M02 Q1011 NOSIG
ZHCC,2023-03-13 11:00,ZHCC 131100Z 19004MPS 160V230 CAVOK 16/M02 Q1010 NOSIG
ZHCC,2023-03-13 12:00,ZHCC 131200Z 20005MPS 170V230 CAVOK 16/M01 Q1010 NOSIG
ZHCC,2023-03-13 13:00,ZHCC 131300Z 20004MPS 170V240 CAVOK 16/M02 Q1010 NOSIG
ZHCC,2023-03-13 14:00,ZHCC 131400Z 19003MPS 160V220 CAVOK 14/M03 Q1010 NOSIG
ZHCC,2023-03-13 15:00,ZHCC 131500Z 18003MPS 130V220 CAVOK 13/M03 Q1010 NOSIG
ZHCC,2023-03-13 16:00,ZHCC 131600Z 18004MPS 160V220 CAVOK 13/M02 Q1009 NOSIG
ZHCC,2023-03-13 17:00,ZHCC 131700Z 20004MPS 160V220 CAVOK 13/M02 Q1008 NOSIG
ZHCC,2023-03-13 18:00,ZHCC 131800Z 20004MPS 160V220 CAVOK 13/M02 Q1008 NOSIG
ZHCC,2023-03-13 19:00,ZHCC 131900Z 21004MPS 170V230 CAVOK 13/M01 Q1007 NOSIG
ZHCC,2023-03-13 20:00,ZHCC 132000Z 21002MPS 180V240 CAVOK 12/M01 Q1006 NOSIG
ZHCC,2023-03-13 21:00,ZHCC 132100Z 21002MPS CAVOK 11/M01 Q1006 NOSIG
ZHCC,2023-03-13 22:00,ZHCC 132200Z 00000MPS CAVOK 07/M01 Q1006 NOSIG
ZHCC,2023-03-13 23:00,ZHCC 132300Z 19003MPS 150V230 CAVOK 10/M00 Q1006 NOSIG
ZHCC,2023-03-14 00:00,ZHCC 140000Z 19003MPS 140V220 CAVOK 12/00 Q1006 NOSIG
ZHCC,2023-03-14 01:00,ZHCC 140100Z 21004MPS 180V240 CAVOK 14/00 Q1007 NOSIG
ZHCC,2023-03-14 02:00,ZHCC 140200Z 21003MPS 160V240 CAVOK 17/01 Q1007 NOSIG
ZHCC,2023-03-14 03:00,ZHCC 140300Z 19004MPS 160V230 CAVOK 19/02 Q1006 NOSIG
ZHCC,2023-03-14 04:00,ZHCC 140400Z 19004MPS 150V230 CAVOK 21/02 Q1006 NOSIG
ZHCC,2023-03-14 05:00,ZHCC 140500Z 19004MPS 140V230 CAVOK 23/03 Q1005 NOSIG
ZHCC,2023-03-14 06:00,ZHCC 140600Z 18004MPS 140V230 CAVOK 24/04 Q1004 NOSIG
ZHCC,2023-03-14 07:00,ZHCC 140700Z 18004MPS 140V220 CAVOK 24/04 Q1003 NOSIG
ZHCC,2023-03-14 08:00,ZHCC 140800Z 17004MPS 130V210 CAVOK 24/05 Q1004 NOSIG
ZHCC,2023-03-14 09:00,ZHCC 140900Z 18004MPS 150V220 CAVOK 24/05 Q1004 NOSIG
ZHCC,2023-03-14 10:00,ZHCC 141000Z 17003MPS 110V210 CAVOK 22/06 Q1004 NOSIG
ZHCC,2023-03-14 11:00,ZHCC 141100Z 17003MPS 130V210 CAVOK 20/06 Q1006 NOSIG
ZHCC,2023-03-14 12:00,ZHCC 141200Z 17002MPS 120V230 CAVOK 19/06 Q1007 NOSIG
ZHCC,2023-03-14 13:00,ZHCC 141300Z 17002MPS 140V210 CAVOK 18/06 Q1008 NOSIG
ZHCC,2023-03-14 14:00,ZHCC 141400Z 26003MPS 200V310 CAVOK 17/06 Q1009 BECMG TL1540 01006MPS
ZHCC,2023-03-14 15:00,ZHCC 141500Z 35004MPS CAVOK 17/06 Q1010 NOSIG
ZHCC,2023-03-14 16:00,ZHCC 141600Z 36006MPS CAVOK 18/06 Q1012 NOSIG
ZHCC,2023-03-14 17:00,ZHCC 141700Z 36006G11MPS CAVOK 17/05 Q1013 NOSIG
ZHCC,2023-03-14 18:00,ZHCC 141800Z 01007MPS CAVOK 17/02 Q1014 NOSIG
ZHCC,2023-03-14 19:00,ZHCC 141900Z 02010G15MPS CAVOK 15/01 Q1016 NOSIG
ZHCC,2023-03-14 20:00,ZHCC 142000Z 02009G14MPS 350V050 CAVOK 13/M05 Q1017 NOSIG
ZHCC,2023-03-14 21:00,ZHCC 142100Z 03009G14MPS CAVOK 12/M10 Q1019 NOSIG
ZHCC,2023-03-14 22:00,ZHCC 142200Z 02009MPS 350V050 CAVOK 11/M11 Q1021 NOSIG
ZHCC,2023-03-14 23:00,ZHCC 142300Z 03009G15MPS CAVOK 10/M12 Q1022 NOSIG
ZHCC,2023-03-15 00:00,ZHCC 150000Z 03007G12MPS CAVOK 10/M12 Q1024 NOSIG
ZHCC,2023-03-15 01:00,ZHCC 150100Z 03007MPS 350V060 CAVOK 09/M13 Q1026 NOSIG
ZHCC,2023-03-15 02:00,ZHCC 150200Z 03008G13MPS CAVOK 10/M14 Q1026 NOSIG
ZHCC,2023-03-15 03:00,ZHCC 150300Z 04007MPS 340V070 CAVOK 12/M12 Q1027 NOSIG
ZHCC,2023-03-15 04:00,ZHCC 150400Z 05008MPS CAVOK 12/M12 Q1027 NOSIG
ZHCC,2023-03-15 05:00,ZHCC 150500Z 06006G11MPS 030V090 CAVOK 13/M12 Q1026 NOSIG
ZHCC,2023-03-15 06:00,ZHCC 150600Z 03005MPS 350V080 CAVOK 14/M14 Q1025 NOSIG
ZHCC,2023-03-15 07:00,ZHCC 150700Z 05005MPS CAVOK 13/M13 Q1025 NOSIG
ZHCC,2023-03-15 08:00,ZHCC 150800Z 05005MPS 020V080 CAVOK 13/M12 Q1024 NOSIG
ZHCC,2023-03-15 09:00,ZHCC 150900Z 07005MPS CAVOK 13/M12 Q1024 NOSIG
ZHCC,2023-03-15 10:00,ZHCC 151000Z 09005MPS CAVOK 12/M11 Q1025 NOSIG
ZHCC,2023-03-15 11:00,ZHCC 151100Z 06005MPS CAVOK 11/M13 Q1025 NOSIG
ZHCC,2023-03-15 12:00,ZHCC 151200Z 06004MPS CAVOK 11/M12 Q1026 NOSIG
ZHCC,2023-03-15 13:00,ZHCC 151300Z 06003MPS CAVOK 10/M10 Q1027 NOSIG
ZHCC,2023-03-15 14:00,ZHCC 151400Z 05003MPS 020V080 CAVOK 10/M10 Q1027 NOSIG
ZHCC,2023-03-15 15:00,ZHCC 151500Z 04003MPS CAVOK 10/M10 Q1027 NOSIG
ZHCC,2023-03-15 16:00,ZHCC 151600Z 03003MPS CAVOK 10/M10 Q1027 NOSIG
ZHCC,2023-03-15 17:00,ZHCC 151700Z 04003MPS CAVOK 10/M10 Q1027 NOSIG
ZHCC,2023-03-15 18:00,ZHCC 151800Z 02003MPS CAVOK 10/M10 Q1028 NOSIG
ZHCC,2023-03-15 19:00,ZHCC 151900Z 02003MPS 350V050 9999 -RA OVC040 09/M09 Q1027 NOSIG
ZHCC,2023-03-15 20:00,ZHCC 152000Z 05003MPS CAVOK 09/M09 Q1027 NOSIG
ZHCC,2023-03-15 21:00,ZHCC 152100Z 06005MPS CAVOK 09/M09 Q1027 NOSIG
ZHCC,2023-03-15 22:00,ZHCC 152200Z 06003MPS CAVOK 09/M07 Q1028 NOSIG
ZHCC,2023-03-15 23:00,ZHCC 152300Z 10004MPS CAVOK 08/M08 Q1028 NOSIG
ZHCC,2023-03-16 00:00,ZHCC 160000Z 08004MPS CAVOK 08/M10 Q1030 NOSIG
ZHCC,2023-03-16 01:00,ZHCC 160100Z 06005MPS CAVOK 08/M09 Q1029 NOSIG
ZHCC,2023-03-16 02:00,ZHCC 160200Z 03004MPS 340V070 CAVOK 08/M08 Q1030 NOSIG
ZHCC,2023-03-16 03:00,ZHCC 160300Z 08003MPS 020V100 CAVOK 08/M10 Q1030 NOSIG
ZHCC,2023-03-16 04:00,ZHCC 160400Z 09004MPS CAVOK 08/M11 Q1030 NOSIG
ZHCC,2023-03-16 05:00,ZHCC 160500Z 04006MPS 350V090 3000 -SHSNRA BR FEW030CB BKN040 02/M00 Q1030 NOSIG
ZHCC,2023-03-16 06:00,ZHCC 160600Z 07004MPS 0900 R12R/1700N R12L/1500N SHSN FG FEW030CB BKN040 01/M00 Q1030 BECMG TL0740 1500 -SHSN
ZHCC,2023-03-16 07:00,ZHCC 160700Z 02003MPS 340V050 0800 R12R/1300N R12L/1400N SHSN FG FEW030CB BKN033 00/00 Q1029 BECMG TL0840 1500 -SHSN
ZHCC,2023-03-16 08:00,ZHCC 160800Z 03004MPS 010V070 0800 R12R/1000N R12L/1000N SHSN FG FEW030CB BKN033 00/M00 Q1028 RETS NOSIG
ZHCC,2023-03-16 09:00,ZHCC 160900Z 02003MPS 340V040 0800 R12R/1200N R12L/1100N SN FG SCT015 OVC033 00/M00 Q1029 RESHSN BECMG TL1040 1500 -SN BR
ZHCC,2023-03-16 10:00,ZHCC 161000Z 33003MPS 1000 R12R/1300N R12L/1400N -SN BR SCT015 OVC033 00/M00 Q1029 RESN NOSIG
ZHCC,2023-03-16 11:00,ZHCC 161100Z 34004MPS 2000 -SN BR SCT015 OVC033 00/M00 Q1029 BECMG TL1240 3000
ZHCC,2023-03-16 12:00,ZHCC 161200Z 34003MPS 4500 -SN BR SCT015 OVC033 00/00 Q1030 NOSIG
ZHCC,2023-03-16 13:00,ZHCC 161300Z 35004MPS 8000 -SN SCT006 OVC033 01/00 Q1030 NOSIG
ZHCC,2023-03-16 14:00,ZHCC 161400Z 36004MPS 8000 -SNRA SCT006 OVC033 01/00 Q1031 NOSIG
ZHCC,2023-03-16 15:00,ZHCC 161500Z 04004MPS 8000 -RA SCT006 OVC033 01/00 Q1030 NOSIG
ZHCC,2023-03-16 16:00,ZHCC 161600Z 03004MPS 7000 SCT008 OVC033 02/01 Q1030 NOSIG
ZHCC,2023-03-16 17:00,ZHCC 161700Z 02003MPS 7000 SCT008 OVC033 02/00 Q1030 NOSIG
ZHCC,2023-03-16 18:00,ZHCC 161800Z 36002MPS 7000 FEW011 OVC033 02/01 Q1029 NOSIG
ZHCC,2023-03-16 19:00,ZHCC 161900Z 36002MPS 7000 OVC030 02/01 Q1029 NOSIG
ZHCC,2023-03-16 20:00,ZHCC 162000Z 36002MPS 7000 OVC030 02/01 Q1028 NOSIG
ZHCC,2023-03-16 21:00,ZHCC 162100Z 30002MPS 6000 OVC030 01/01 Q1028 NOSIG
ZHCC,2023-03-16 22:00,ZHCC 162200Z 30002MPS 6000 OVC030 01/01 Q1028 NOSIG
ZHCC,2023-03-16 23:00,ZHCC 162300Z 30002MPS 4000 BR OVC030 01/01 Q1028 NOSIG
ZHCC,2023-03-17 00:00,ZHCC 170000Z VRB01MPS 4000 BR OVC030 02/01 Q1029 NOSIG
ZHCC,2023-03-17 01:00,ZHCC 170100Z 31002MPS 5000 BR OVC030 03/01 Q1029 NOSIG
ZHCC,2023-03-17 02:00,ZHCC 170200Z VRB01MPS 7000 OVC030 03/01 Q1029 NOSIG
ZHCC,2023-03-17 03:00,ZHCC 170300Z 28001MPS 7000 OVC020 03/01 Q1028 NOSIG
ZHCC,2023-03-17 04:00,ZHCC 170400Z VRB01MPS 7000 OVC020 04/01 Q1028 NOSIG
ZHCC,2023-03-17 05:00,ZHCC 170500Z VRB01MPS 7000 OVC020 04/01 Q1027 NOSIG
ZHCC,2023-03-17 06:00,ZHCC 170600Z 23002MPS 160V280 8000 OVC020 06/02 Q1026 NOSIG
ZHCC,2023-03-17 07:00,ZHCC 170700Z 28002MPS 220V320 8000 OVC020 07/02 Q1025 NOSIG
ZHCC,2023-03-17 08:00,ZHCC 170800Z VRB01MPS 8000 OVC020 07/01 Q1024 NOSIG
ZHCC,2023-03-17 09:00,ZHCC 170900Z VRB01MPS 8000 OVC020 07/01 Q1024 NOSIG
ZHCC,2023-03-17 10:00,ZHCC 171000Z VRB01MPS 9999 BKN030 07/01 Q1024 NOSIG
ZHCC,2023-03-17 11:00,ZHCC 171100Z 14002MPS 9999 FEW030 05/02 Q1025 NOSIG
ZHCC,2023-03-17 12:00,ZHCC 171200Z VRB01MPS CAVOK 05/02 Q1026 NOSIG
ZHCC,2023-03-17 13:00,ZHCC 171300Z VRB01MPS 9000 NSC 04/02 Q1026 NOSIG
ZHCC,2023-03-17 14:00,ZHCC 171400Z VRB01MPS CAVOK 04/01 Q1026 NOSIG
ZHCC,2023-03-17 15:00,ZHCC 171500Z VRB01MPS CAVOK 03/01 Q1026 NOSIG
ZHCC,2023-03-17 16:00,ZHCC 171600Z 19002MPS 150V210 6000 NSC 04/02 Q1025 NOSIG
ZHCC,2023-03-17 17:00,ZHCC 171700Z VRB01MPS 6000 NSC 04/02 Q1025 NOSIG
ZHCC,2023-03-17 18:00,ZHCC 171800Z 22002MPS 6000 NSC 03/02 Q1025 NOSIG
ZHCC,2023-03-17 19:00,ZHCC 171900Z 21002MPS 180V240 6000 NSC 04/02 Q1025 NOSIG
ZHCC,2023-03-17 20:00,ZHCC 172000Z VRB01MPS 6000 NSC 03/01 Q1024 NOSIG
ZHCC,2023-03-17 21:00,ZHCC 172100Z VRB01MPS 5000 BR NSC 02/01 Q1024 NOSIG
ZHCC,2023-03-17 22:00,ZHCC 172200Z 00000MPS 4800 BR NSC 01/00 Q1024 NOSIG
ZHCC,2023-03-17 23:00,ZHCC 172300Z VRB01MPS 3000 BR NSC 02/01 Q1024 BECMG TL0020 2000
ZHCC,2023-03-18 00:00,ZHCC 180000Z VRB01MPS 2500 BR NSC 03/02 Q1025 BECMG TL0120 3000
ZHCC,2023-03-18 01:00,ZHCC 180100Z VRB01MPS 3000 BR NSC 05/03 Q1026 NOSIG
ZHCC,2023-03-18 02:00,ZHCC 180200Z VRB01MPS 4000 BR NSC 06/03 Q1027 NOSIG
ZHCC,2023-03-18 03:00,ZHCC 180300Z VRB01MPS 4500 HZ FEW020 08/03 Q1026 NOSIG
ZHCC,2023-03-18 04:00,ZHCC 180400Z VRB02MPS 6000 SCT020 09/03 Q1026 NOSIG
ZHCC,2023-03-18 05:00,ZHCC 180500Z VRB02MPS 6000 SCT020 10/03 Q1025 NOSIG
ZHCC,2023-03-18 06:00,ZHCC 180600Z VRB02MPS 7000 SCT026 11/03 Q1024 NOSIG
ZHCC,2023-03-18 07:00,ZHCC 180700Z 13002MPS 060V180 7000 SCT030 11/03 Q1023 NOSIG
ZHCC,2023-03-18 08:00,ZHCC 180800Z 12002MPS 090V150 8000 SCT030 11/04 Q1022 NOSIG
ZHCC,2023-03-18 09:00,ZHCC 180900Z 14002MPS 110V180 9999 SCT030 10/04 Q1022 NOSIG
ZHCC,2023-03-18 10:00,ZHCC 181000Z 14003MPS 9999 SCT030 09/04 Q1022 NOSIG
ZHCC,2023-03-18 11:00,ZHCC 181100Z 15002MPS 120V200 CAVOK 08/04 Q1022 NOSIG
ZHCC,2023-03-18 12:00,ZHCC 181200Z 16002MPS 120V190 CAVOK 07/03 Q1023 NOSIG
ZHCC,2023-03-18 13:00,ZHCC 181300Z VRB01MPS CAVOK 07/04 Q1023 NOSIG
ZHCC,2023-03-18 14:00,ZHCC 181400Z 18002MPS 140V280 8000 NSC 07/03 Q1023 NOSIG
ZHCC,2023-03-18 15:00,ZHCC 181500Z 17002MPS 120V210 6000 NSC 07/04 Q1023 NOSIG
ZHCC,2023-03-18 16:00,ZHCC 181600Z 20003MPS 160V240 6000 NSC 07/04 Q1022 NOSIG
ZHCC,2023-03-18 17:00,ZHCC 181700Z 20002MPS 160V230 6000 NSC 06/04 Q1022 NOSIG
ZHCC,2023-03-18 18:00,ZHCC 181800Z 21003MPS 180V240 6000 NSC 06/03 Q1022 NOSIG
ZHCC,2023-03-18 19:00,ZHCC 181900Z 19002MPS 150V240 6000 NSC 06/03 Q1021 NOSIG
ZHCC,2023-03-18 20:00,ZHCC 182000Z 20002MPS 170V230 6000 NSC 06/03 Q1020 NOSIG
ZHCC,2023-03-18 21:00,ZHCC 182100Z 20002MPS 170V230 6000 NSC 06/03 Q1019 NOSIG
ZHCC,2023-03-18 22:00,ZHCC 182200Z VRB01MPS 5000 BR NSC 05/03 Q1019 NOSIG
ZHCC,2023-03-18 23:00,ZHCC 182300Z 18001MPS 3000 BR NSC 04/03 Q1020 NOSIG
ZHCC,2023-03-19 00:00,ZHCC 190000Z VRB01MPS 3000 BR NSC 06/04 Q1020 NOSIG
ZHCC,2023-03-19 01:00,ZHCC 190100Z 17002MPS 140V210 4000 BR NSC 07/04 Q1021 NOSIG
ZHCC,2023-03-19 02:00,ZHCC 190200Z 18003MPS 140V220 4000 HZ NSC 09/04 Q1021 NOSIG
ZHCC,2023-03-19 03:00,ZHCC 190300Z 17003MPS 130V220 4000 HZ NSC 10/04 Q1021 NOSIG
ZHCC,2023-03-19 04:00,ZHCC 190400Z 19004MPS 140V220 4000 HZ NSC 11/04 Q1020 NOSIG
ZHCC,2023-03-19 05:00,ZHCC 190500Z 18003MPS 120V250 4000 HZ NSC 12/04 Q1018 NOSIG
ZHCC,2023-03-19 06:00,ZHCC 190600Z 14004MPS 110V190 4000 HZ NSC 12/05 Q1017 NOSIG
ZHCC,2023-03-19 07:00,ZHCC 190700Z 16004MPS 120V210 5000 HZ NSC 13/05 Q1016 NOSIG
ZHCC,2023-03-19 08:00,ZHCC 190800Z 17004MPS 130V210 5000 HZ NSC 12/05 Q1016 NOSIG
ZHCC,2023-03-19 09:00,ZHCC 190900Z 17004MPS 110V220 5000 HZ NSC 12/05 Q1015 NOSIG
ZHCC,2023-03-19 10:00,ZHCC 191000Z 19002MPS 140V220 4000 HZ NSC 11/06 Q1015 NOSIG
ZHCC,2023-03-19 11:00,ZHCC 191100Z VRB01MPS 4000 HZ NSC 10/05 Q1015 NOSIG
ZHCC,2023-03-19 12:00,ZHCC 191200Z 19002MPS 150V220 4000 BR NSC 09/06 Q1015 NOSIG
ZHCC,2023-03-19 13:00,ZHCC 191300Z VRB01MPS 4000 BR NSC 09/05 Q1015 NOSIG
ZHCC,2023-03-19 14:00,ZHCC 191400Z 22002MPS 4000 BR NSC 09/06 Q1016 NOSIG
ZHCC,2023-03-19 15:00,ZHCC 191500Z 21002MPS 170V240 4000 BR NSC 09/06 Q1015 NOSIG
ZHCC,2023-03-19 16:00,ZHCC 191600Z 20003MPS 170V230 4000 BR NSC 09/05 Q1015 NOSIG
ZHCC,2023-03-19 17:00,ZHCC 191700Z 18002MPS 120V220 4000 BR NSC 09/05 Q1014 NOSIG
ZHCC,2023-03-19 18:00,ZHCC 191800Z 18002MPS 130V210 4000 BR NSC 08/05 Q1013 NOSIG
ZHCC,2023-03-19 19:00,ZHCC 191900Z 18002MPS 130V230 4000 BR NSC 08/05 Q1012 NOSIG
ZHCC,2023-03-19 20:00,ZHCC 192000Z 19002MPS 160V220 4000 BR NSC 08/05 Q1012 NOSIG
ZHCC,2023-03-19 21:00,ZHCC 192100Z VRB01MPS 4000 BR NSC 07/05 Q1012 NOSIG
ZHCC,2023-03-19 22:00,ZHCC 192200Z VRB01MPS 3000 BR NSC 07/06 Q1012 BECMG TL2340 2500
ZHCC,2023-03-19 23:00,ZHCC 192300Z VRB01MPS 2000 BR NSC 07/05 Q1012 NOSIG
ZHCC,2023-03-20 00:00,ZHCC 200000Z VRB01MPS 2000 BR NSC 07/06 Q1013 BECMG TL0140 3000
ZHCC,2023-03-20 01:00,ZHCC 200100Z VRB01MPS 2500 BR NSC 09/06 Q1013 BECMG TL0240 3000
ZHCC,2023-03-20 02:00,ZHCC 200200Z 13003MPS 100V160 3000 BR NSC 10/06 Q1013 NOSIG
ZHCC,2023-03-20 03:00,ZHCC 200300Z 16002MPS 110V210 4000 BR NSC 11/06 Q1012 NOSIG
ZHCC,2023-03-20 04:00,ZHCC 200400Z 16003MPS 110V230 6000 NSC 11/06 Q1012 NOSIG
ZHCC,2023-03-20 05:00,ZHCC 200500Z 17003MPS 110V210 8000 NSC 13/06 Q1011 NOSIG
ZHCC,2023-03-20 06:00,ZHCC 200600Z 15004MPS 120V210 7000 NSC 14/07 Q1010 NOSIG
ZHCC,2023-03-20 07:00,ZHCC 200700Z 15003MPS 120V200 5000 HZ SCT026 13/07 Q1010 NOSIG
ZHCC,2023-03-20 08:00,ZHCC 200800Z 16002MPS 120V200 5000 HZ OVC026 12/07 Q1009 NOSIG
ZHCC,2023-03-20 09:00,ZHCC 200900Z VRB01MPS 5000 HZ OVC026 12/07 Q1009 NOSIG
ZHCC,2023-03-20 10:00,ZHCC 201000Z 14002MPS 120V190 5000 BR OVC026 12/08 Q1009 NOSIG
ZHCC,2023-03-20 11:00,ZHCC 201100Z VRB01MPS 5000 -RA BR OVC026 11/08 Q1009 NOSIG
ZHCC,2023-03-20 12:00,ZHCC 201200Z VRB01MPS 5000 -RA BR OVC026 11/08 Q1009 NOSIG
ZHCC,2023-03-20 13:00,ZHCC 201300Z VRB01MPS 5000 BR OVC026 11/08 Q1010 NOSIG
ZHCC,2023-03-20 14:00,ZHCC 201400Z 20002MPS 5000 BR OVC026 11/08 Q1011 NOSIG
ZHCC,2023-03-20 15:00,ZHCC 201500Z 28001MPS 5000 BR OVC040 10/08 Q1011 NOSIG
ZHCC,2023-03-20 16:00,ZHCC 201600Z 00000MPS 5000 BR OVC040 11/08 Q1011 NOSIG
ZHCC,2023-03-20 17:00,ZHCC 201700Z 00000MPS 5000 BR OVC040 10/08 Q1010 NOSIG
ZHCC,2023-03-20 18:00,ZHCC 201800Z 29001MPS 4000 BR OVC040 10/08 Q1010 NOSIG
ZHCC,2023-03-20 19:00,ZHCC 201900Z 29001MPS 4000 BR OVC040 10/08 Q1009 NOSIG
ZHCC,2023-03-20 20:00,ZHCC 202000Z 00000MPS 4000 BR OVC040 10/08 Q1009 NOSIG
ZHCC,2023-03-20 21:00,ZHCC 202100Z 00000MPS 4500 BR OVC040 10/08 Q1008 NOSIG
ZHCC,2023-03-20 22:00,ZHCC 202200Z 13001MPS 4500 BR OVC040 10/08 Q1008 NOSIG
ZHCC,2023-03-20 23:00,ZHCC 202300Z 17001MPS 3500 BR OVC040 10/08 Q1009 NOSIG
ZHCC,2023-03-21 00:00,ZHCC 210000Z VRB01MPS 3000 BR OVC040 11/09 Q1009 NOSIG
ZHCC,2023-03-21 01:00,ZHCC 210100Z VRB01MPS 3000 BR OVC040 12/08 Q1009 NOSIG
ZHCC,2023-03-21 02:00,ZHCC 210200Z VRB01MPS 4000 HZ BKN040 13/08 Q1010 NOSIG
ZHCC,2023-03-21 03:00,ZHCC 210300Z 14002MPS 110V200 5000 HZ BKN040 13/08 Q1009 NOSIG
ZHCC,2023-03-21 04:00,ZHCC 210400Z 06002MPS 360V140 5000 HZ BKN030 14/08 Q1009 NOSIG
ZHCC,2023-03-21 05:00,ZHCC 210500Z 15002MPS 100V210 4000 HZ BKN030 15/08 Q1008 NOSIG
ZHCC,2023-03-21 06:00,ZHCC 210600Z 14002MPS 110V180 4000 HZ BKN030 15/09 Q1007 NOSIG
ZHCC,2023-03-21 07:00,ZHCC 210700Z 15003MPS 120V200 3500 HZ BKN030 15/10 Q1007 NOSIG
ZHCC,2023-03-21 08:00,ZHCC 210800Z 15002MPS 110V200 4000 HZ BKN030 14/10 Q1006 NOSIG
ZHCC,2023-03-21 09:00,ZHCC 210900Z 14002MPS 3500 HZ OVC030 14/10 Q1006 NOSIG
ZHCC,2023-03-21 10:00,ZHCC 211000Z 17002MPS 130V200 3500 BR OVC040 14/10 Q1007 NOSIG
ZHCC,2023-03-21 11:00,ZHCC 211100Z VRB01MPS 4000 BR OVC040 13/10 Q1006 NOSIG
ZHCC,2023-03-21 12:00,ZHCC 211200Z 14002MPS 110V170 4000 BR OVC040 13/10 Q1007 NOSIG
ZHCC,2023-03-21 13:00,ZHCC 211300Z VRB01MPS 4000 BR NSC 13/10 Q1008 NOSIG
ZHCC,2023-03-21 14:00,ZHCC 211400Z VRB01MPS 4000 BR NSC 13/10 Q1009 NOSIG
ZHCC,2023-03-21 15:00,ZHCC 211500Z VRB01MPS 4000 BR NSC 12/10 Q1010 NOSIG
ZHCC,2023-03-21 16:00,ZHCC 211600Z VRB01MPS 3000 BR OVC046 12/10 Q1010 NOSIG
ZHCC,2023-03-21 17:00,ZHCC 211700Z VRB01MPS 3000 BR OVC046 12/10 Q1009 NOSIG
ZHCC,2023-03-21 18:00,ZHCC 211800Z VRB01MPS 3000 BR OVC046 12/10 Q1009 NOSIG
ZHCC,2023-03-21 19:00,ZHCC 211900Z VRB01MPS 3000 BR OVC046 12/10 Q1008 NOSIG
ZHCC,2023-03-21 20:00,ZHCC 212000Z 27002MPS 3000 BR OVC046 11/09 Q1008 NOSIG
ZHCC,2023-03-21 21:00,ZHCC 212100Z 02002MPS 350V050 3500 BR OVC040 12/10 Q1008 NOSIG
ZHCC,2023-03-21 22:00,ZHCC 212200Z VRB01MPS 2500 BR SCT040 11/10 Q1008 NOSIG
ZHCC,2023-03-21 23:00,ZHCC 212300Z VRB01MPS 1300 R30L/1700N R30R/1600N BR SCT030 11/10 Q1009 BECMG TL2340 2000
ZHCC,2023-03-22 00:00,ZHCC 220000Z 35001MPS 1500 BR SCT030 12/10 Q1010 BECMG TL0140 3000
ZHCC,2023-03-22 01:00,ZHCC 220100Z 33003MPS 2200 BR SCT030 14/10 Q1012 NOSIG
ZHCC,2023-03-22 02:00,ZHCC 220200Z 34004MPS 2200 HZ SCT030 15/10 Q1012 NOSIG
ZHCC,2023-03-22 03:00,ZHCC 220300Z 36005MPS 3000 HZ SCT030 16/10 Q1011 NOSIG
ZHCC,2023-03-22 04:00,ZHCC 220400Z 01005MPS 330V050 3000 HZ SCT030 17/10 Q1011 NOSIG
ZHCC,2023-03-22 05:00,ZHCC 220500Z 01006MPS 4000 HZ SCT030 18/09 Q1011 NOSIG
ZHCC,2023-03-22 06:00,ZHCC 220600Z 02005MPS 350V050 5000 HZ SCT030 20/06 Q1010 NOSIG
ZHCC,2023-03-22 07:00,ZHCC 220700Z 02006MPS 350V070 5000 HZ FEW030 20/06 Q1009 BECMG TL0840 2500 DU
ZHCC,2023-03-22 08:00,ZHCC 220800Z 03006MPS 360V060 5000 HZ FEW030 19/01 Q1010 BECMG TL0940 2500 DU
ZHCC,2023-03-22 09:00,ZHCC 220900Z 03005MPS 360V070 5000 HZ FEW030 19/02 Q1010 BECMG TL1040 2500 DU
ZHCC,2023-03-22 10:00,ZHCC 221000Z 03004MPS 4500 HZ FEW030 18/02 Q1010 BECMG TL1140 2000 DU
ZHCC,2023-03-22 11:00,ZHCC 221100Z 02003MPS 5000 HZ FEW030 17/04 Q1011 NOSIG
ZHCC,2023-03-22 12:00,ZHCC 221200Z 01003MPS 6000 FEW030 17/06 Q1012 NOSIG
ZHCC,2023-03-22 13:00,ZHCC 221300Z 03003MPS 6000 FEW030 17/07 Q1013 NOSIG
ZHCC,2023-03-22 14:00,ZHCC 221400Z 05006MPS 4500 HZ FEW030 16/07 Q1014 NOSIG
ZHCC,2023-03-22 15:00,ZHCC 221500Z 04004MPS 3500 HZ FEW030 15/06 Q1014 NOSIG
ZHCC,2023-03-22 16:00,ZHCC 221600Z 04004MPS 360V060 3500 HZ FEW030 15/05 Q1015 NOSIG
ZHCC,2023-03-22 17:00,ZHCC 221700Z 01003MPS 330V040 3500 HZ FEW030 14/06 Q1015 NOSIG
ZHCC,2023-03-22 18:00,ZHCC 221800Z 02003MPS 3000 HZ OVC030 14/01 Q1015 NOSIG
ZHCC,2023-03-22 19:00,ZHCC 221900Z 01004MPS 3000 HZ OVC030 14/M01 Q1015 NOSIG
ZHCC,2023-03-22 20:00,ZHCC 222000Z 01004MPS 340V040 3000 HZ OVC030 13/M02 Q1014 NOSIG
ZHCC,2023-03-22 21:00,ZHCC 222100Z 02005MPS 350V060 3000 HZ OVC030 13/M05 Q1014 BECMG TL2240 2500
ZHCC,2023-03-22 22:00,ZHCC 222200Z 03005MPS 360V060 4000 HZ OVC030 13/M06 Q1016 NOSIG
ZHCC,2023-03-22 23:00,ZHCC 222300Z 03005MPS 350V050 2500 DU OVC030 12/M08 Q1016 BECMG TL0040 3000
ZHCC,2023-03-23 00:00,ZHCC 230000Z 02005MPS 360V060 2800 DU OVC030 12/M09 Q1018 BECMG TL0040 3000
ZHCC,2023-03-23 01:00,ZHCC 230100Z 03006MPS 360V060 4000 DU OVC030 12/M10 Q1018 NOSIG
ZHCC,2023-03-23 02:00,ZHCC 230200Z 03006MPS 360V060 4000 DU OVC030 13/M10 Q1018 NOSIG
ZHCC,2023-03-23 03:00,ZHCC 230300Z 03006MPS 360V060 4000 DU OVC030 13/M09 Q1018 NOSIG
ZHCC,2023-03-23 04:00,ZHCC 230400Z 02006MPS 350V050 4000 DU OVC030 14/M07 Q1018 NOSIG
ZHCC,2023-03-23 05:00,ZHCC 230500Z 01005MPS 340V060 4000 DU OVC030 14/M06 Q1018 NOSIG
ZHCC,2023-03-23 06:00,ZHCC 230600Z 02005MPS 360V070 6000 OVC030 13/M05 Q1018 NOSIG
ZHCC,2023-03-23 07:00,ZHCC 230700Z 01005MPS 340V050 6000 OVC030 13/M03 Q1017 NOSIG
ZHCC,2023-03-23 08:00,ZHCC 230800Z 02006MPS 6000 OVC030 13/M04 Q1018 NOSIG
ZHCC,2023-03-23 09:00,ZHCC 230900Z 03006MPS 360V060 6000 OVC030 13/M04 Q1018 NOSIG
ZHCC,2023-03-23 10:00,ZHCC 231000Z 02005MPS 350V070 6000 OVC030 13/M04 Q1018 NOSIG
ZHCC,2023-03-23 11:00,ZHCC 231100Z 03004MPS 350V060 8000 OVC030 13/M02 Q1019 NOSIG
ZHCC,2023-03-23 12:00,ZHCC 231200Z 36004MPS 340V040 8000 OVC030 12/M02 Q1021 NOSIG
ZHCC,2023-03-23 13:00,ZHCC 231300Z 01003MPS 340V060 CAVOK 12/M02 Q1022 NOSIG
ZHCC,2023-03-23 14:00,ZHCC 231400Z 36002MPS 340V050 CAVOK 12/M03 Q1023 NOSIG
ZHCC,2023-03-23 15:00,ZHCC 231500Z VRB01MPS CAVOK 11/M02 Q1023 NOSIG
ZHCC,2023-03-23 16:00,ZHCC 231600Z VRB01MPS CAVOK 10/M00 Q1023 NOSIG
ZHCC,2023-03-23 17:00,ZHCC 231700Z VRB01MPS CAVOK 11/M01 Q1022 NOSIG
ZHCC,2023-03-23 18:00,ZHCC 231800Z VRB02MPS CAVOK 12/M03 Q1022 NOSIG
ZHCC,2023-03-23 19:00,ZHCC 231900Z 12001MPS CAVOK 11/M01 Q1022 NOSIG
ZHCC,2023-03-23 20:00,ZHCC 232000Z 04002MPS 010V070 CAVOK 11/M02 Q1022 NOSIG
ZHCC,2023-03-23 21:00,ZHCC 232100Z 02003MPS 340V060 CAVOK 11/M02 Q1022 NOSIG
ZHCC,2023-03-23 22:00,ZHCC 232200Z 02002MPS 350V080 CAVOK 11/M01 Q1022 NOSIG
ZHCC,2023-03-23 23:00,ZHCC 232300Z 04002MPS 020V080 CAVOK 11/M01 Q1023 NOSIG
ZHCC,2023-03-24 00:00,ZHCC 240000Z 06003MPS CAVOK 12/M00 Q1024 NOSIG
ZHCC,2023-03-24 01:00,ZHCC 240100Z 05002MPS 010V080 CAVOK 13/M01 Q1024 NOSIG
ZHCC,2023-03-24 02:00,ZHCC 240200Z 36004MPS 330V040 CAVOK 14/M03 Q1024 NOSIG
ZHCC,2023-03-24 03:00,ZHCC 240300Z 02005MPS 350V060 CAVOK 14/M02 Q1024 NOSIG
ZHCC,2023-03-24 04:00,ZHCC 240400Z 07004MPS 030V100 7000 NSC 15/M00 Q1024 NOSIG
ZHCC,2023-03-24 05:00,ZHCC 240500Z 06004MPS 030V120 7000 NSC 15/M01 Q1023 NOSIG
ZHCC,2023-03-24 06:00,ZHCC 240600Z 09003MPS 040V160 7000 NSC 15/M02 Q1022 NOSIG
ZHCC,2023-03-24 07:00,ZHCC 240700Z 11003MPS 060V170 7000 NSC 15/M02 Q1022 NOSIG
ZHCC,2023-03-24 08:00,ZHCC 240800Z 10003MPS 070V160 7000 NSC 15/M03 Q1021 NOSIG
ZHCC,2023-03-24 09:00,ZHCC 240900Z 13003MPS 100V190 CAVOK 15/M04 Q1022 NOSIG
ZHCC,2023-03-24 10:00,ZHCC 241000Z 14002MPS 110V170 CAVOK 14/M03 Q1022 NOSIG
ZHCC,2023-03-24 11:00,ZHCC 241100Z 14002MPS 110V170 CAVOK 12/M02 Q1023 NOSIG
ZHCC,2023-03-24 12:00,ZHCC 241200Z 14002MPS CAVOK 12/M01 Q1023 NOSIG
ZHCC,2023-03-24 13:00,ZHCC 241300Z 14002MPS 120V190 CAVOK 11/M00 Q1023 NOSIG
ZHCC,2023-03-24 14:00,ZHCC 241400Z VRB01MPS CAVOK 11/M00 Q1024 NOSIG
ZHCC,2023-03-24 15:00,ZHCC 241500Z VRB01MPS CAVOK 12/M02 Q1024 NOSIG
ZHCC,2023-03-24 16:00,ZHCC 241600Z 22002MPS 180V240 CAVOK 11/M01 Q1024 NOSIG
ZHCC,2023-03-24 17:00,ZHCC 241700Z 21001MPS CAVOK 11/M02 Q1024 NOSIG
ZHCC,2023-03-24 18:00,ZHCC 241800Z 21002MPS 170V240 CAVOK 11/M03 Q1023 NOSIG
ZHCC,2023-03-24 19:00,ZHCC 241900Z VRB01MPS CAVOK 11/M02 Q1022 NOSIG
ZHCC,2023-03-24 20:00,ZHCC 242000Z VRB01MPS CAVOK 10/M02 Q1022 NOSIG
ZHCC,2023-03-24 21:00,ZHCC 242100Z 20002MPS 170V230 CAVOK 10/M02 Q1022 NOSIG
ZHCC,2023-03-24 22:00,ZHCC 242200Z 20002MPS 160V230 CAVOK 10/M02 Q1022 NOSIG
ZHCC,2023-03-24 23:00,ZHCC 242300Z 20002MPS CAVOK 10/M02 Q1022 NOSIG
ZHCC,2023-03-25 00:00,ZHCC 250000Z 20002MPS 160V220 CAVOK 11/M03 Q1022 NOSIG
ZHCC,2023-03-25 01:00,ZHCC 250100Z 21003MPS CAVOK 12/M03 Q1023 NOSIG
ZHCC,2023-03-25 02:00,ZHCC 250200Z 19003MPS 140V220 CAVOK 12/M01 Q1023 NOSIG
ZHCC,2023-03-25 03:00,ZHCC 250300Z 19004MPS 150V220 CAVOK 13/M01 Q1023 NOSIG
ZHCC,2023-03-25 04:00,ZHCC 250400Z 20003MPS 160V290 CAVOK 14/M04 Q1022 NOSIG
ZHCC,2023-03-25 05:00,ZHCC 250500Z 20004MPS 140V230 CAVOK 15/M05 Q1021 NOSIG
ZHCC,2023-03-25 06:00,ZHCC 250600Z 18004MPS 140V210 CAVOK 14/M06 Q1021 NOSIG
ZHCC,2023-03-25 07:00,ZHCC 250700Z 17003MPS 120V220 CAVOK 14/M07 Q1020 NOSIG
ZHCC,2023-03-25 08:00,ZHCC 250800Z 16003MPS 120V220 CAVOK 14/M05 Q1019 NOSIG
ZHCC,2023-03-25 09:00,ZHCC 250900Z 17003MPS 130V200 CAVOK 14/M04 Q1020 NOSIG
ZHCC,2023-03-25 10:00,ZHCC 251000Z 14003MPS 110V180 CAVOK 13/M02 Q1020 NOSIG
ZHCC,2023-03-25 11:00,ZHCC 251100Z 14002MPS CAVOK 11/M00 Q1020 NOSIG
ZHCC,2023-03-25 12:00,ZHCC 251200Z VRB01MPS CAVOK 10/00 Q1021 NOSIG
ZHCC,2023-03-25 13:00,ZHCC 251300Z VRB01MPS CAVOK 08/01 Q1022 NOSIG
ZHCC,2023-03-25 14:00,ZHCC 251400Z VRB01MPS CAVOK 08/M00 Q1022 NOSIG
ZHCC,2023-03-25 15:00,ZHCC 251500Z 00000MPS CAVOK 06/00 Q1022 NOSIG
ZHCC,2023-03-25 16:00,ZHCC 251600Z VRB01MPS CAVOK 06/M00 Q1022 NOSIG
ZHCC,2023-03-25 17:00,ZHCC 251700Z VRB01MPS CAVOK 07/M00 Q1022 NOSIG
ZHCC,2023-03-25 18:00,ZHCC 251800Z 12001MPS CAVOK 04/00 Q1022 NOSIG
ZHCC,2023-03-25 19:00,ZHCC 251900Z VRB01MPS CAVOK 05/00 Q1021 NOSIG
ZHCC,2023-03-25 20:00,ZHCC 252000Z 00000MPS CAVOK 07/01 Q1022 NOSIG
ZHCC,2023-03-25 21:00,ZHCC 252100Z 04003MPS 8000 NSC 08/03 Q1022 NOSIG
ZHCC,2023-03-25 22:00,ZHCC 252200Z 06002MPS 8000 NSC 07/02 Q1022 NOSIG
ZHCC,2023-03-25 23:00,ZHCC 252300Z 04002MPS 7000 NSC 08/02 Q1023 NOSIG
ZHCC,2023-03-26 00:00,ZHCC 260000Z 07002MPS 040V100 7000 NSC 09/02 Q1024 NOSIG
ZHCC,2023-03-26 01:00,ZHCC 260100Z 08002MPS 050V130 8000 NSC 10/01 Q1024 NOSIG
ZHCC,2023-03-26 02:00,ZHCC 260200Z 09003MPS 030V180 8000 NSC 11/01 Q1024 NOSIG
ZHCC,2023-03-26 03:00,ZHCC 260300Z 08002MPS 030V120 8000 NSC 13/01 Q1024 NOSIG
ZHCC,2023-03-26 04:00,ZHCC 260400Z VRB02MPS CAVOK 13/01 Q1024 NOSIG
ZHCC,2023-03-26 05:00,ZHCC 260500Z 14003MPS 080V220 CAVOK 14/01 Q1023 NOSIG
ZHCC,2023-03-26 06:00,ZHCC 260600Z 17003MPS 120V240 CAVOK 15/M00 Q1022 NOSIG
ZHCC,2023-03-26 07:00,ZHCC 260700Z 18003MPS 120V240 CAVOK 14/01 Q1021 NOSIG
ZHCC,2023-03-26 08:00,ZHCC 260800Z 21004MPS 180V240 CAVOK 14/01 Q1021 NOSIG
ZHCC,2023-03-26 09:00,ZHCC 260900Z 18004MPS 130V220 CAVOK 14/01 Q1020 NOSIG
ZHCC,2023-03-26 10:00,ZHCC 261000Z 18002MPS 120V220 CAVOK 13/02 Q1020 NOSIG
ZHCC,2023-03-26 11:00,ZHCC 261100Z 18003MPS CAVOK 12/03 Q1021 NOSIG
ZHCC,2023-03-26 12:00,ZHCC 261200Z 19003MPS 150V220 CAVOK 12/03 Q1021 NOSIG
ZHCC,2023-03-26 13:00,ZHCC 261300Z 19002MPS 150V220 CAVOK 11/03 Q1022 NOSIG
ZHCC,2023-03-26 14:00,ZHCC 261400Z 18002MPS 150V210 CAVOK 11/04 Q1022 NOSIG
ZHCC,2023-03-26 15:00,ZHCC 261500Z VRB01MPS CAVOK 09/03 Q1022 NOSIG
ZHCC,2023-03-26 16:00,ZHCC 261600Z 20002MPS 160V220 CAVOK 10/03 Q1022 NOSIG
ZHCC,2023-03-26 17:00,ZHCC 261700Z 19002MPS 160V220 CAVOK 10/03 Q1021 NOSIG
ZHCC,2023-03-26 18:00,ZHCC 261800Z 19001MPS CAVOK 08/03 Q1021 NOSIG
ZHCC,2023-03-26 19:00,ZHCC 261900Z 20002MPS 170V230 8000 NSC 09/03 Q1020 NOSIG
ZHCC,2023-03-26 20:00,ZHCC 262000Z 21001MPS 8000 NSC 07/03 Q1020 NOSIG
ZHCC,2023-03-26 21:00,ZHCC 262100Z 21002MPS 8000 NSC 08/03 Q1020 NOSIG
ZHCC,2023-03-26 22:00,ZHCC 262200Z 21001MPS 7000 NSC 05/02 Q1020 NOSIG
ZHCC,2023-03-26 23:00,ZHCC 262300Z 19001MPS 5000 BR NSC 06/03 Q1020 NOSIG
ZHCC,2023-03-27 00:00,ZHCC 270000Z VRB01MPS 5000 HZ NSC 10/04 Q1021 NOSIG
ZHCC,2023-03-27 01:00,ZHCC 270100Z 21002MPS 170V250 6000 NSC 12/04 Q1021 NOSIG
ZHCC,2023-03-27 02:00,ZHCC 270200Z 21002MPS 170V270 8000 NSC 15/05 Q1021 NOSIG
ZHCC,2023-03-27 03:00,ZHCC 270300Z 21002MPS 170V260 8000 NSC 17/05 Q1021 NOSIG
ZHCC,2023-03-27 04:00,ZHCC 270400Z 18003MPS 130V220 8000 NSC 19/07 Q1020 NOSIG
ZHCC,2023-03-27 05:00,ZHCC 270500Z 17004MPS 130V230 CAVOK 20/07 Q1020 NOSIG
ZHCC,2023-03-27 06:00,ZHCC 270600Z 18004MPS 140V210 CAVOK 21/07 Q1019 NOSIG
ZHCC,2023-03-27 07:00,ZHCC 270700Z 16004MPS 120V200 CAVOK 21/08 Q1018 NOSIG
ZHCC,2023-03-27 08:00,ZHCC 270800Z 20003MPS 140V260 CAVOK 22/04 Q1018 NOSIG
ZHCC,2023-03-27 09:00,ZHCC 270900Z 18004MPS 140V210 CAVOK 21/06 Q1017 NOSIG
ZHCC,2023-03-27 10:00,ZHCC 271000Z 18003MPS 140V230 CAVOK 20/07 Q1018 NOSIG
ZHCC,2023-03-27 11:00,ZHCC 271100Z 15002MPS 120V190 CAVOK 18/07 Q1018 NOSIG
ZHCC,2023-03-27 12:00,ZHCC 271200Z VRB01MPS CAVOK 16/07 Q1019 NOSIG
ZHCC,2023-03-27 13:00,ZHCC 271300Z 16002MPS 110V220 CAVOK 16/07 Q1019 NOSIG
ZHCC,2023-03-27 14:00,ZHCC 271400Z VRB01MPS CAVOK 13/07 Q1020 NOSIG
ZHCC,2023-03-27 15:00,ZHCC 271500Z VRB01MPS CAVOK 13/07 Q1020 NOSIG
ZHCC,2023-03-27 16:00,ZHCC 271600Z 16001MPS CAVOK 11/07 Q1020 NOSIG
ZHCC,2023-03-27 17:00,ZHCC 271700Z 19002MPS 170V230 CAVOK 13/06 Q1020 NOSIG
ZHCC,2023-03-27 18:00,ZHCC 271800Z 19002MPS 140V240 CAVOK 13/06 Q1020 NOSIG
ZHCC,2023-03-27 19:00,ZHCC 271900Z 18001MPS CAVOK 09/05 Q1020 NOSIG
ZHCC,2023-03-27 20:00,ZHCC 272000Z VRB01MPS CAVOK 09/05 Q1020 NOSIG
ZHCC,2023-03-27 21:00,ZHCC 272100Z 00000MPS CAVOK 06/04 Q1020 NOSIG
ZHCC,2023-03-27 22:00,ZHCC 272200Z VRB01MPS CAVOK 07/05 Q1020 NOSIG
ZHCC,2023-03-27 23:00,ZHCC 272300Z VRB01MPS 6000 NSC 08/05 Q1021 NOSIG
ZHCC,2023-03-28 00:00,ZHCC 280000Z VRB01MPS 6000 NSC 12/06 Q1022 NOSIG
ZHCC,2023-03-28 01:00,ZHCC 280100Z 16002MPS 120V200 8000 NSC 16/06 Q1022 NOSIG
ZHCC,2023-03-28 02:00,ZHCC 280200Z 17003MPS 120V210 CAVOK 18/05 Q1022 NOSIG
ZHCC,2023-03-28 03:00,ZHCC 280300Z 17003MPS 120V230 CAVOK 20/06 Q1022 NOSIG
ZHCC,2023-03-28 04:00,ZHCC 280400Z 17003MPS 110V220 CAVOK 22/05 Q1021 NOSIG
ZHCC,2023-03-28 05:00,ZHCC 280500Z 19004MPS 110V230 CAVOK 22/03 Q1021 NOSIG
ZHCC,2023-03-28 06:00,ZHCC 280600Z 18003MPS 110V240 CAVOK 23/03 Q1020 NOSIG
ZHCC,2023-03-28 07:00,ZHCC 280700Z 19003MPS 120V240 CAVOK 23/01 Q1019 NOSIG
ZHCC,2023-03-28 08:00,ZHCC 280800Z 19003MPS 110V240 CAVOK 23/02 Q1018 NOSIG
ZHCC,2023-03-28 09:00,ZHCC 280900Z 15003MPS 120V190 CAVOK 21/02 Q1018 NOSIG
ZHCC,2023-03-28 10:00,ZHCC 281000Z 15003MPS 110V190 CAVOK 20/03 Q1018 NOSIG
ZHCC,2023-03-28 11:00,ZHCC 281100Z 16002MPS 100V190 CAVOK 18/05 Q1019 NOSIG
ZHCC,2023-03-28 12:00,ZHCC 281200Z 15002MPS 120V200 CAVOK 17/06 Q1019 NOSIG
ZHCC,2023-03-28 13:00,ZHCC 281300Z 15002MPS 110V180 CAVOK 17/06 Q1020 NOSIG
ZHCC,2023-03-28 14:00,ZHCC 281400Z 15002MPS 110V180 CAVOK 15/06 Q1020 NOSIG
ZHCC,2023-03-28 15:00,ZHCC 281500Z VRB01MPS CAVOK 15/04 Q1020 NOSIG
ZHCC,2023-03-28 16:00,ZHCC 281600Z VRB01MPS CAVOK 11/04 Q1020 NOSIG
ZHCC,2023-03-28 17:00,ZHCC 281700Z VRB01MPS CAVOK 12/04 Q1020 NOSIG
ZHCC,2023-03-28 18:00,ZHCC 281800Z 00000MPS CAVOK 09/04 Q1019 NOSIG
ZHCC,2023-03-28 19:00,ZHCC 281900Z VRB01MPS CAVOK 09/04 Q1019 NOSIG
ZHCC,2023-03-28 20:00,ZHCC 282000Z 13001MPS CAVOK 08/04 Q1018 NOSIG
ZHCC,2023-03-28 21:00,ZHCC 282100Z VRB01MPS CAVOK 10/03 Q1018 NOSIG
ZHCC,2023-03-28 22:00,ZHCC 282200Z VRB01MPS CAVOK 08/04 Q1018 NOSIG
ZHCC,2023-03-28 23:00,ZHCC 282300Z VRB01MPS CAVOK 08/04 Q1019 NOSIG
ZHCC,2023-03-29 00:00,ZHCC 290000Z 16002MPS 120V210 7000 NSC 14/04 Q1019 NOSIG
ZHCC,2023-03-29 01:00,ZHCC 290100Z 18002MPS 120V240 8000 NSC 17/03 Q1020 NOSIG
ZHCC,2023-03-29 02:00,ZHCC 290200Z 17003MPS 130V200 8000 NSC 18/01 Q1020 NOSIG
ZHCC,2023-03-29 03:00,ZHCC 290300Z 18003MPS 130V210 8000 NSC 20/00 Q1019 NOSIG
ZHCC,2023-03-29 04:00,ZHCC 290400Z 16003MPS 100V210 8000 NSC 21/02 Q1018 NOSIG
ZHCC,2023-03-29 05:00,ZHCC 290500Z 13004MPS 100V180 8000 NSC 22/02 Q1018 NOSIG
ZHCC,2023-03-29 06:00,ZHCC 290600Z 14003MPS 090V200 8000 NSC 23/03 Q1017 NOSIG
ZHCC,2023-03-29 07:00,ZHCC 290700Z 15003MPS 110V210 8000 NSC 22/02 Q1016 NOSIG
ZHCC,2023-03-29 08:00,ZHCC 290800Z 14003MPS 100V190 8000 NSC 22/03 Q1016 NOSIG
ZHCC,2023-03-29 09:00,ZHCC 290900Z 15002MPS 120V190 8000 NSC 21/03 Q1016 NOSIG
ZHCC,2023-03-29 10:00,ZHCC 291000Z 12002MPS 9000 NSC 20/04 Q1016 NOSIG
ZHCC,2023-03-29 11:00,ZHCC 291100Z 12003MPS CAVOK 18/04 Q1016 NOSIG
ZHCC,2023-03-29 12:00,ZHCC 291200Z 13002MPS CAVOK 17/03 Q1017 NOSIG
ZHCC,2023-03-29 13:00,ZHCC 291300Z 14001MPS CAVOK 15/04 Q1018 NOSIG
ZHCC,2023-03-29 14:00,ZHCC 291400Z 13001MPS CAVOK 12/04 Q1018 NOSIG
ZHCC,2023-03-29 15:00,ZHCC 291500Z VRB01MPS CAVOK 11/03 Q1018 NOSIG
ZHCC,2023-03-29 16:00,ZHCC 291600Z VRB01MPS CAVOK 12/03 Q1018 NOSIG
ZHCC,2023-03-29 17:00,ZHCC 291700Z 17001MPS CAVOK 10/03 Q1017 NOSIG
ZHCC,2023-03-29 18:00,ZHCC 291800Z VRB01MPS CAVOK 09/03 Q1017 NOSIG
ZHCC,2023-03-29 19:00,ZHCC 291900Z 00000MPS 8000 NSC 08/03 Q1016 NOSIG
ZHCC,2023-03-29 20:00,ZHCC 292000Z 12001MPS 8000 NSC 08/03 Q1016 NOSIG
ZHCC,2023-03-29 21:00,ZHCC 292100Z 00000MPS 8000 NSC 07/02 Q1016 NOSIG
ZHCC,2023-03-29 22:00,ZHCC 292200Z 00000MPS 8000 NSC 08/03 Q1017 NOSIG
ZHCC,2023-03-29 23:00,ZHCC 292300Z 00000MPS 6000 NSC 08/03 Q1017 NOSIG
ZHCC,2023-03-30 00:00,ZHCC 300000Z VRB01MPS 6000 NSC 13/05 Q1018 NOSIG
ZHCC,2023-03-30 01:00,ZHCC 300100Z 12002MPS 090V160 5000 HZ NSC 16/07 Q1018 NOSIG
ZHCC,2023-03-30 02:00,ZHCC 300200Z 12002MPS 080V180 5000 HZ NSC 18/07 Q1018 NOSIG
ZHCC,2023-03-30 03:00,ZHCC 300300Z 12003MPS 090V190 6000 NSC 19/05 Q1018 NOSIG
ZHCC,2023-03-30 04:00,ZHCC 300400Z VRB03MPS 6000 NSC 21/04 Q1017 NOSIG
ZHCC,2023-03-30 05:00,ZHCC 300500Z 13003MPS 080V190 CAVOK 21/00 Q1016 NOSIG
ZHCC,2023-03-30 06:00,ZHCC 300600Z 12004MPS 080V160 CAVOK 21/04 Q1016 NOSIG
ZHCC,2023-03-30 07:00,ZHCC 300700Z 12004MPS 090V180 CAVOK 20/05 Q1015 NOSIG
ZHCC,2023-03-30 08:00,ZHCC 300800Z 11004MPS CAVOK 21/04 Q1014 NOSIG
ZHCC,2023-03-30 09:00,ZHCC 300900Z 11005MPS 090V150 CAVOK 20/05 Q1015 NOSIG
ZHCC,2023-03-30 10:00,ZHCC 301000Z 13002MPS 100V160 CAVOK 19/07 Q1015 NOSIG
ZHCC,2023-03-30 11:00,ZHCC 301100Z 11003MPS CAVOK 16/07 Q1015 NOSIG
ZHCC,2023-03-30 12:00,ZHCC 301200Z 12002MPS CAVOK 15/08 Q1016 NOSIG
ZHCC,2023-03-30 13:00,ZHCC 301300Z 12002MPS CAVOK 14/07 Q1016 NOSIG
ZHCC,2023-03-30 14:00,ZHCC 301400Z 12002MPS CAVOK 13/07 Q1017 NOSIG
ZHCC,2023-03-30 15:00,ZHCC 301500Z 14002MPS 100V170 CAVOK 14/09 Q1017 NOSIG
ZHCC,2023-03-30 16:00,ZHCC 301600Z VRB01MPS CAVOK 13/09 Q1017 NOSIG
ZHCC,2023-03-30 17:00,ZHCC 301700Z 11002MPS 8000 NSC 11/08 Q1016 NOSIG
ZHCC,2023-03-30 18:00,ZHCC 301800Z VRB01MPS 8000 NSC 11/09 Q1017 NOSIG
ZHCC,2023-03-30 19:00,ZHCC 301900Z VRB01MPS 8000 NSC 13/09 Q1016 NOSIG
ZHCC,2023-03-30 20:00,ZHCC 302000Z 13001MPS 8000 NSC 12/08 Q1016 NOSIG
ZHCC,2023-03-30 21:00,ZHCC 302100Z VRB01MPS 6000 NSC 12/09 Q1017 NOSIG
ZHCC,2023-03-30 22:00,ZHCC 302200Z 12001MPS 6000 NSC 10/08 Q1017 NOSIG
ZHCC,2023-03-30 23:00,ZHCC 302300Z 00000MPS 3000 BR NSC 10/09 Q1018 NOSIG
ZHCC,2023-03-31 00:00,ZHCC 310000Z VRB01MPS 4000 BR NSC 13/10 Q1018 NOSIG
ZHCC,2023-03-31 01:00,ZHCC 310100Z 15003MPS 100V200 6000 NSC 15/08 Q1018 NOSIG
ZHCC,2023-03-31 02:00,ZHCC 310200Z 14004MPS 110V200 CAVOK 16/08 Q1019 NOSIG
ZHCC,2023-03-31 03:00,ZHCC 310300Z 14003MPS 100V200 CAVOK 18/08 Q1018 NOSIG
ZHCC,2023-03-31 04:00,ZHCC 310400Z 14004MPS 090V200 CAVOK 19/08 Q1017 NOSIG
ZHCC,2023-03-31 05:00,ZHCC 310500Z 14003G08MPS 070V220 CAVOK 20/08 Q1016 NOSIG
ZHCC,2023-03-31 06:00,ZHCC 310600Z 15004MPS 060V210 CAVOK 20/09 Q1015 NOSIG
ZHCC,2023-03-31 07:00,ZHCC 310700Z 13005MPS 9999 SCT040 20/08 Q1014 NOSIG
ZHCC,2023-03-31 08:00,ZHCC 310800Z 12004MPS 100V160 9999 SCT040 20/08 Q1014 NOSIG
ZHCC,2023-03-31 09:00,ZHCC 310900Z 13003MPS 100V190 CAVOK 20/09 Q1013 NOSIG
ZHCC,2023-03-31 10:00,ZHCC 311000Z 12004MPS CAVOK 19/09 Q1013 NOSIG
ZHCC,2023-03-31 11:00,ZHCC 311100Z 12004MPS CAVOK 17/09 Q1013 NOSIG
ZHCC,2023-03-31 12:00,ZHCC 311200Z 12002MPS CAVOK 14/09 Q1014 NOSIG
ZHCC,2023-03-31 13:00,ZHCC 311300Z 12002MPS CAVOK 15/09 Q1015 NOSIG
ZHCC,2023-03-31 14:00,ZHCC 311400Z 13002MPS 110V180 CAVOK 15/09 Q1015 NOSIG
ZHCC,2023-03-31 15:00,ZHCC 311500Z 13002MPS 100V160 CAVOK 14/09 Q1015 NOSIG
ZHCC,2023-03-31 16:00,ZHCC 311600Z 14002MPS 110V180 CAVOK 13/08 Q1015 NOSIG
ZHCC,2023-03-31 17:00,ZHCC 311700Z VRB01MPS CAVOK 14/08 Q1015 NOSIG
ZHCC,2023-03-31 18:00,ZHCC 311800Z 18002MPS 120V210 CAVOK 13/08 Q1014 NOSIG
ZHCC,2023-03-31 19:00,ZHCC 311900Z 18002MPS 130V240 CAVOK 13/08 Q1013 NOSIG
ZHCC,2023-03-31 20:00,ZHCC 312000Z VRB01MPS CAVOK 12/08 Q1013 NOSIG
ZHCC,2023-03-31 21:00,ZHCC 312100Z 13002MPS CAVOK 11/08 Q1012 NOSIG
ZHCC,2023-03-31 22:00,ZHCC 312200Z 13002MPS 100V160 6000 NSC 10/08 Q1013 NOSIG
ZHCC,2023-03-31 23:00,ZHCC 312300Z 12002MPS 4000 BR NSC 10/08 Q1013 NOSIG
ZHCC,2023-04-01 00:00,ZHCC 010000Z 12002MPS 4000 BR NSC 12/09 Q1014 NOSIG
ZHCC,2023-04-01 01:00,ZHCC 010100Z 14003MPS 100V190 4000 BR NSC 14/10 Q1014 NOSIG
ZHCC,2023-04-01 02:00,ZHCC 010200Z 18003MPS 120V220 4500 HZ NSC 16/10 Q1014 NOSIG
ZHCC,2023-04-01 03:00,ZHCC 010300Z 15002MPS 080V220 4500 HZ NSC 18/11 Q1014 NOSIG
ZHCC,2023-04-01 04:00,ZHCC 010400Z 13004MPS 090V230 5000 HZ NSC 20/11 Q1013 NOSIG
ZHCC,2023-04-01 05:00,ZHCC 010500Z 13004MPS 100V180 5000 HZ NSC 22/12 Q1012 NOSIG
ZHCC,2023-04-01 06:00,ZHCC 010600Z 13004MPS 080V220 7000 SCT033 22/12 Q1011 NOSIG
ZHCC,2023-04-01 07:00,ZHCC 010700Z 15004MPS 110V200 9999 SCT033 23/12 Q1010 NOSIG
ZHCC,2023-04-01 08:00,ZHCC 010800Z 12005MPS 090V150 9999 SCT033 23/12 Q1010 NOSIG
ZHCC,2023-04-01 09:00,ZHCC 010900Z 12005MPS 080V140 9999 FEW040 23/12 Q1010 NOSIG
ZHCC,2023-04-01 10:00,ZHCC 011000Z 11006MPS CAVOK 21/13 Q1010 NOSIG
ZHCC,2023-04-01 11:00,ZHCC 011100Z 11004MPS 6000 NSC 19/12 Q1010 NOSIG
ZHCC,2023-04-01 12:00,ZHCC 011200Z 12003MPS 6000 NSC 18/12 Q1011 NOSIG
ZHCC,2023-04-01 13:00,ZHCC 011300Z 11004MPS 6000 NSC 17/12 Q1012 NOSIG
ZHCC,2023-04-01 14:00,ZHCC 011400Z 12003MPS 6000 NSC 16/12 Q1012 NOSIG
ZHCC,2023-04-01 15:00,ZHCC 011500Z 12003MPS 6000 NSC 16/12 Q1013 NOSIG
ZHCC,2023-04-01 16:00,ZHCC 011600Z 12003MPS 6000 NSC 14/11 Q1013 NOSIG
ZHCC,2023-04-01 17:00,ZHCC 011700Z 12002MPS 6000 NSC 13/10 Q1013 NOSIG
ZHCC,2023-04-01 18:00,ZHCC 011800Z 10003MPS 6000 NSC 13/10 Q1013 NOSIG
ZHCC,2023-04-01 19:00,ZHCC 011900Z 10003MPS 6000 NSC 12/10 Q1012 NOSIG
ZHCC,2023-04-01 20:00,ZHCC 012000Z 10003MPS 6000 NSC 12/10 Q1012 NOSIG
ZHCC,2023-04-01 21:00,ZHCC 012100Z 07003MPS 6000 NSC 13/10 Q1012 NOSIG
ZHCC,2023-04-01 22:00,ZHCC 012200Z 08003MPS 5000 BR NSC 12/10 Q1012 NOSIG
ZHCC,2023-04-01 23:00,ZHCC 012300Z 08003MPS 3500 BR NSC 12/10 Q1013 NOSIG
ZHCC,2023-04-02 00:00,ZHCC 020000Z 09003MPS 3500 BR NSC 14/10 Q1014 NOSIG
ZHCC,2023-04-02 01:00,ZHCC 020100Z 10004MPS 070V130 4000 HZ NSC 16/11 Q1014 NOSIG
ZHCC,2023-04-02 02:00,ZHCC 020200Z 10004MPS 5000 HZ NSC 18/11 Q1014 NOSIG
ZHCC,2023-04-02 03:00,ZHCC 020300Z 10004MPS 060V120 5000 HZ NSC 20/12 Q1013 NOSIG
ZHCC,2023-04-02 04:00,ZHCC 020400Z 09007MPS 5000 HZ NSC 22/12 Q1012 NOSIG
ZHCC,2023-04-02 05:00,ZHCC 020500Z 10006MPS 070V140 7000 NSC 23/12 Q1011 NOSIG
ZHCC,2023-04-02 06:00,ZHCC 020600Z 12006MPS 7000 NSC 23/12 Q1010 NOSIG
ZHCC,2023-04-02 07:00,ZHCC 020700Z 10008MPS 080V150 7000 SCT040 24/11 Q1008 NOSIG
ZHCC,2023-04-02 08:00,ZHCC 020800Z 11007MPS 7000 SCT040 23/10 Q1008 NOSIG
ZHCC,2023-04-02 09:00,ZHCC 020900Z 12007MPS 090V150 8000 SCT040 22/10 Q1008 NOSIG
ZHCC,2023-04-02 10:00,ZHCC 021000Z 10007MPS CAVOK 22/10 Q1008 NOSIG
ZHCC,2023-04-02 11:00,ZHCC 021100Z 09006MPS CAVOK 21/10 Q1008 NOSIG
ZHCC,2023-04-02 12:00,ZHCC 021200Z 08004MPS 9999 -RA NSC 20/11 Q1009 NOSIG
ZHCC,2023-04-02 13:00,ZHCC 021300Z 09005MPS 9000 -RA NSC 18/13 Q1010 NOSIG
ZHCC,2023-04-02 14:00,ZHCC 021400Z 06005MPS 8000 -RA NSC 17/14 Q1010 NOSIG
ZHCC,2023-04-02 15:00,ZHCC 021500Z 06005MPS 8000 NSC 17/12 Q1010 NOSIG
ZHCC,2023-04-02 16:00,ZHCC 021600Z 06006MPS 7000 -RA NSC 16/12 Q1010 NOSIG
ZHCC,2023-04-02 17:00,ZHCC 021700Z 06005MPS 7000 -SHRA OVC040 15/12 Q1009 RESHRA BECMG TL1730 SHRA
ZHCC,2023-04-02 18:00,ZHCC 021800Z 03004MPS 5000 SHRA BR OVC033 14/12 Q1009 BECMG TL1840 -SHRA
ZHCC,2023-04-02 19:00,ZHCC 021900Z 01004MPS 350V050 5000 SHRA BR OVC030 14/12 Q1009 NOSIG
ZHCC,2023-04-02 20:00,ZHCC 022000Z 02004MPS 340V050 5000 SHRA BR FEW030CB BKN030 13/12 Q1009 NOSIG
ZHCC,2023-04-02 21:00,ZHCC 022100Z 02006MPS 3500 SHRA BR FEW030CB BKN030 12/11 Q1008 NOSIG
ZHCC,2023-04-02 22:00,ZHCC 022200Z 03006MPS 3500 -SHRA BR FEW030CB BKN030 12/11 Q1008 RESHRA NOSIG
ZHCC,2023-04-02 23:00,ZHCC 022300Z 04006MPS 3000 -SHRA BR SCT007 OVC030 12/11 Q1008 BECMG TL2340 2000
ZHCC,2023-04-03 00:00,ZHCC 030000Z 04007MPS 2000 -SHRA BR SCT007 OVC030 12/11 Q1009 NOSIG
ZHCC,2023-04-03 01:00,ZHCC 030100Z 03006MPS 2500 -SHRA BR SCT007 OVC030 12/11 Q1010 BECMG TL0240 3000
ZHCC,2023-04-03 02:00,ZHCC 030200Z 03007MPS 2500 -SHRA BR SCT007 OVC030 11/10 Q1010 BECMG TL0240 3000
ZHCC,2023-04-03 03:00,ZHCC 030300Z 02007MPS 3000 -SHRA BR FEW007 OVC030 11/10 Q1011 NOSIG
ZHCC,2023-04-03 04:00,ZHCC 030400Z 02006MPS 3000 -SHRA BR FEW007 OVC030 11/09 Q1010 NOSIG
ZHCC,2023-04-03 05:00,ZHCC 030500Z 03006MPS 3000 -SHRA BR FEW007 OVC030 11/09 Q1010 NOSIG
ZHCC,2023-04-03 06:00,ZHCC 030600Z 03007MPS 3000 -SHRA BR FEW007 OVC030 10/09 Q1009 BECMG TL0640 2000 SHRA
ZHCC,2023-04-03 07:00,ZHCC 030700Z 03007MPS 2300 -SHRA BR FEW007 OVC030 10/09 Q1009 BECMG TL0840 3000
ZHCC,2023-04-03 08:00,ZHCC 030800Z 03009MPS 5000 -RA BR SCT007 OVC030 10/09 Q1009 NOSIG
ZHCC,2023-04-03 09:00,ZHCC 030900Z 03009G14MPS 5000 -RA BR SCT007 OVC030 10/09 Q1009 NOSIG
ZHCC,2023-04-03 10:00,ZHCC 031000Z 02007MPS 3000 -RA BR SCT007 OVC030 10/09 Q1009 NOSIG
ZHCC,2023-04-03 11:00,ZHCC 031100Z 03006MPS 5000 -RA BR SCT007 OVC030 10/09 Q1010 NOSIG
ZHCC,2023-04-03 12:00,ZHCC 031200Z 03008G13MPS 5000 -RA BR SCT007 OVC030 10/09 Q1010 NOSIG
ZHCC,2023-04-03 13:00,ZHCC 031300Z 02007MPS 350V050 5000 -RA BR SCT007 OVC030 10/09 Q1011 NOSIG
ZHCC,2023-04-03 14:00,ZHCC 031400Z 01007MPS 7000 -RA SCT007 OVC030 10/09 Q1012 NOSIG
ZHCC,2023-04-03 15:00,ZHCC 031500Z 01006MPS 6000 -RA SCT007 OVC030 10/09 Q1011 NOSIG
ZHCC,2023-04-03 16:00,ZHCC 031600Z 02007MPS 6000 -RA SCT007 OVC030 10/09 Q1011 NOSIG
ZHCC,2023-04-03 17:00,ZHCC 031700Z 01007MPS 6000 -RA FEW010 OVC030 10/09 Q1010 NOSIG
ZHCC,2023-04-03 18:00,ZHCC 031800Z 36008MPS 6000 FEW010 OVC030 10/08 Q1010 NOSIG
ZHCC,2023-04-03 19:00,ZHCC 031900Z 36008G14MPS 330V030 6000 FEW010 OVC030 10/08 Q1010 NOSIG
ZHCC,2023-04-03 20:00,ZHCC 032000Z 36007MPS 5000 BR FEW010 OVC030 10/08 Q1010 NOSIG
ZHCC,2023-04-03 21:00,ZHCC 032100Z 34005MPS 5000 -RA BR FEW010 OVC030 09/08 Q1010 NOSIG
ZHCC,2023-04-03 22:00,ZHCC 032200Z 35006MPS 8000 -RA FEW010 OVC030 10/08 Q1010 NOSIG
ZHCC,2023-04-03 23:00,ZHCC 032300Z 35006MPS 8000 -RA FEW010 OVC030 10/08 Q1010 NOSIG
ZHCC,2023-04-04 00:00,ZHCC 040000Z 34005MPS 320V020 9999 FEW015 OVC030 10/08 Q1011 NOSIG
ZHCC,2023-04-04 01:00,ZHCC 040100Z 33005MPS 9999 OVC030 11/09 Q1011 NOSIG
ZHCC,2023-04-04 02:00,ZHCC 040200Z 34006MPS 9999 SCT020 OVC030 11/08 Q1012 NOSIG
ZHCC,2023-04-04 03:00,ZHCC 040300Z 35006MPS 9999 SCT020 OVC030 11/07 Q1012 NOSIG
ZHCC,2023-04-04 04:00,ZHCC 040400Z 01006MPS 340V040 9999 OVC030 12/07 Q1012 NOSIG
ZHCC,2023-04-04 05:00,ZHCC 040500Z 02008MPS 9999 OVC020 11/07 Q1011 NOSIG
ZHCC,2023-04-04 06:00,ZHCC 040600Z 01008MPS 9999 OVC020 10/05 Q1012 NOSIG
ZHCC,2023-04-04 07:00,ZHCC 040700Z 02008MPS 9999 OVC030 10/05 Q1012 NOSIG
ZHCC,2023-04-04 08:00,ZHCC 040800Z 01007MPS 340V040 9999 OVC030 10/04 Q1012 NOSIG
ZHCC,2023-04-04 09:00,ZHCC 040900Z 01008G13MPS 350V050 9999 OVC040 10/04 Q1013 NOSIG
ZHCC,2023-04-04 10:00,ZHCC 041000Z 02006MPS 350V050 9999 OVC040 10/04 Q1013 NOSIG
ZHCC,2023-04-04 11:00,ZHCC 041100Z 01006MPS 340V040 9999 OVC040 10/03 Q1014 NOSIG
ZHCC,2023-04-04 12:00,ZHCC 041200Z 01005MPS 340V040 9999 OVC040 10/04 Q1015 NOSIG
ZHCC,2023-04-04 13:00,ZHCC 041300Z 02006MPS CAVOK 10/03 Q1016 NOSIG
ZHCC,2023-04-04 14:00,ZHCC 041400Z 01005MPS CAVOK 10/03 Q1016 NOSIG
ZHCC,2023-04-04 15:00,ZHCC 041500Z 01006MPS CAVOK 10/04 Q1016 NOSIG
ZHCC,2023-04-04 16:00,ZHCC 041600Z 35004MPS 320V030 CAVOK 09/04 Q1017 NOSIG
ZHCC,2023-04-04 17:00,ZHCC 041700Z 35004MPS 9999 FEW023 09/05 Q1018 NOSIG
ZHCC,2023-04-04 18:00,ZHCC 041800Z 36004MPS 260V030 9999 FEW040 09/05 Q1017 NOSIG
ZHCC,2023-04-04 19:00,ZHCC 041900Z 02003MPS CAVOK 09/05 Q1017 NOSIG
ZHCC,2023-04-04 20:00,ZHCC 042000Z 01002MPS CAVOK 08/05 Q1016 NOSIG
ZHCC,2023-04-04 21:00,ZHCC 042100Z 01002MPS CAVOK 07/04 Q1016 NOSIG
ZHCC,2023-04-04 22:00,ZHCC 042200Z VRB01MPS CAVOK 06/04 Q1017 NOSIG
ZHCC,2023-04-04 23:00,ZHCC 042300Z 23002MPS CAVOK 07/05 Q1017 NOSIG
ZHCC,2023-04-05 00:00,ZHCC 050000Z 27002MPS CAVOK 09/05 Q1019 NOSIG
ZHCC,2023-04-05 01:00,ZHCC 050100Z VRB01MPS CAVOK 11/05 Q1018 NOSIG
ZHCC,2023-04-05 02:00,ZHCC 050200Z VRB01MPS CAVOK 12/05 Q1019 NOSIG
ZHCC,2023-04-05 03:00,ZHCC 050300Z VRB01MPS CAVOK 14/05 Q1018 NOSIG
ZHCC,2023-04-05 04:00,ZHCC 050400Z VRB02MPS CAVOK 14/05 Q1018 NOSIG
ZHCC,2023-04-05 05:00,ZHCC 050500Z VRB01MPS CAVOK 16/03 Q1017 NOSIG
ZHCC,2023-04-05 06:00,ZHCC 050600Z VRB01MPS 9999 FEW040 17/04 Q1016 NOSIG
ZHCC,2023-04-05 07:00,ZHCC 050700Z VRB01MPS CAVOK 17/04 Q1016 NOSIG
ZHCC,2023-04-05 08:00,ZHCC 050800Z 11003MPS 060V150 9999 FEW033 17/05 Q1016 NOSIG
ZHCC,2023-04-05 09:00,ZHCC 050900Z 12003MPS 090V160 9999 FEW033 16/06 Q1015 NOSIG
ZHCC,2023-04-05 10:00,ZHCC 051000Z 12003MPS CAVOK 15/06 Q1015 NOSIG
ZHCC,2023-04-05 11:00,ZHCC 051100Z 13002MPS 110V170 CAVOK 13/06 Q1016 NOSIG
ZHCC,2023-04-05 12:00,ZHCC 051200Z 12002MPS CAVOK 12/07 Q1017 NOSIG
ZHCC,2023-04-05 13:00,ZHCC 051300Z 13001MPS CAVOK 13/07 Q1018 NOSIG
ZHCC,2023-04-05 14:00,ZHCC 051400Z VRB01MPS CAVOK 13/06 Q1018 NOSIG
ZHCC,2023-04-05 15:00,ZHCC 051500Z VRB01MPS CAVOK 13/07 Q1018 NOSIG
ZHCC,2023-04-05 16:00,ZHCC 051600Z 21002MPS 180V250 CAVOK 13/07 Q1018 NOSIG
ZHCC,2023-04-05 17:00,ZHCC 051700Z 21002MPS 190V250 9999 -RA FEW046 13/08 Q1018 NOSIG
ZHCC,2023-04-05 18:00,ZHCC 051800Z 25003MPS 9999 -RA FEW046 13/09 Q1017 NOSIG
ZHCC,2023-04-05 19:00,ZHCC 051900Z 28004MPS 9999 -RA NSC 12/09 Q1017 NOSIG
ZHCC,2023-04-05 20:00,ZHCC 052000Z 26004MPS 9999 -RA NSC 12/08 Q1017 NOSIG
ZHCC,2023-04-05 21:00,ZHCC 052100Z 28006MPS CAVOK 13/05 Q1016 NOSIG
ZHCC,2023-04-05 22:00,ZHCC 052200Z 28009MPS CAVOK 12/03 Q1017 NOSIG
ZHCC,2023-04-05 23:00,ZHCC 052300Z 29008G13MPS CAVOK 12/M00 Q1017 NOSIG
ZHCC,2023-04-06 00:00,ZHCC 060000Z 29012MPS CAVOK 12/M01 Q1016 NOSIG
ZHCC,2023-04-06 01:00,ZHCC 060100Z 29013G19MPS CAVOK 13/M03 Q1017 NOSIG
ZHCC,2023-04-06 02:00,ZHCC 060200Z 30012G17MPS CAVOK 14/M04 Q1017 NOSIG
ZHCC,2023-04-06 03:00,ZHCC 060300Z 30011MPS 270V330 CAVOK 15/M03 Q1017 NOSIG
ZHCC,2023-04-06 04:00,ZHCC 060400Z 31010G15MPS 270V340 CAVOK 16/M02 Q1017 NOSIG
ZHCC,2023-04-06 05:00,ZHCC 060500Z 31010G15MPS CAVOK 17/M02 Q1017 NOSIG
ZHCC,2023-04-06 06:00,ZHCC 060600Z 31007G12MPS 270V340 CAVOK 18/M02 Q1016 NOSIG
ZHCC,2023-04-06 07:00,ZHCC 060700Z 29007MPS 240V340 CAVOK 18/M01 Q1016 NOSIG
ZHCC,2023-04-06 08:00,ZHCC 060800Z 30007MPS CAVOK 18/M02 Q1015 NOSIG
ZHCC,2023-04-06 09:00,ZHCC 060900Z 29005MPS 240V320 CAVOK 18/M01 Q1015 NOSIG
ZHCC,2023-04-06 10:00,ZHCC 061000Z 27004MPS CAVOK 17/M00 Q1016 NOSIG
ZHCC,2023-04-06 11:00,ZHCC 061100Z 26002MPS CAVOK 15/M00 Q1016 NOSIG
ZHCC,2023-04-06 12:00,ZHCC 061200Z VRB01MPS CAVOK 13/00 Q1017 NOSIG
ZHCC,2023-04-06 13:00,ZHCC 061300Z VRB01MPS CAVOK 10/03 Q1018 NOSIG
ZHCC,2023-04-06 14:00,ZHCC 061400Z 26002MPS CAVOK 11/02 Q1019 NOSIG
ZHCC,2023-04-06 15:00,ZHCC 061500Z 29001MPS CAVOK 10/01 Q1019 NOSIG
ZHCC,2023-04-06 16:00,ZHCC 061600Z 28003MPS CAVOK 10/01 Q1020 NOSIG
ZHCC,2023-04-06 17:00,ZHCC 061700Z 30003MPS CAVOK 11/01 Q1020 NOSIG
ZHCC,2023-04-06 18:00,ZHCC 061800Z VRB01MPS CAVOK 10/01 Q1020 NOSIG
ZHCC,2023-04-06 19:00,ZHCC 061900Z 26002MPS CAVOK 10/01 Q1020 NOSIG
ZHCC,2023-04-06 20:00,ZHCC 062000Z 28003MPS CAVOK 09/01 Q1020 NOSIG
ZHCC,2023-04-06 21:00,ZHCC 062100Z 30003MPS CAVOK 08/01 Q1021 NOSIG
ZHCC,2023-04-06 22:00,ZHCC 062200Z 31004MPS CAVOK 10/00 Q1022 NOSIG
ZHCC,2023-04-06 23:00,ZHCC 062300Z 32004MPS CAVOK 11/01 Q1023 NOSIG
ZHCC,2023-04-07 00:00,ZHCC 070000Z 33004MPS CAVOK 13/02 Q1023 NOSIG
ZHCC,2023-04-07 01:00,ZHCC 070100Z 01004MPS 340V040 8000 NSC 14/03 Q1024 NOSIG
ZHCC,2023-04-07 02:00,ZHCC 070200Z 02003MPS 340V060 8000 NSC 14/06 Q1025 NOSIG
ZHCC,2023-04-07 03:00,ZHCC 070300Z 04002MPS 340V100 8000 NSC 16/06 Q1026 NOSIG
ZHCC,2023-04-07 04:00,ZHCC 070400Z 10002MPS 010V160 8000 NSC 17/05 Q1025 NOSIG
ZHCC,2023-04-07 05:00,ZHCC 070500Z 08002MPS 030V150 CAVOK 18/04 Q1024 NOSIG
ZHCC,2023-04-07 06:00,ZHCC 070600Z 01002MPS 310V090 CAVOK 18/03 Q1024 NOSIG
ZHCC,2023-04-07 07:00,ZHCC 070700Z VRB02MPS CAVOK 18/01 Q1023 NOSIG
ZHCC,2023-04-07 08:00,ZHCC 070800Z 15002MPS 120V200 CAVOK 18/02 Q1022 NOSIG
ZHCC,2023-04-07 09:00,ZHCC 070900Z VRB02MPS CAVOK 19/M00 Q1022 NOSIG
ZHCC,2023-04-07 10:00,ZHCC 071000Z 19002MPS 140V250 CAVOK 18/01 Q1022 NOSIG
ZHCC,2023-04-07 11:00,ZHCC 071100Z 16002MPS 110V200 CAVOK 15/04 Q1022 NOSIG
ZHCC,2023-04-07 12:00,ZHCC 071200Z 15002MPS 110V200 CAVOK 14/05 Q1023 NOSIG
ZHCC,2023-04-07 13:00,ZHCC 071300Z VRB01MPS CAVOK 13/06 Q1024 NOSIG
ZHCC,2023-04-07 14:00,ZHCC 071400Z VRB01MPS CAVOK 12/06 Q1025 NOSIG
ZHCC,2023-04-07 15:00,ZHCC 071500Z VRB01MPS 8000 NSC 11/06 Q1025 NOSIG
ZHCC,2023-04-07 16:00,ZHCC 071600Z 08002MPS 030V130 8000 NSC 12/07 Q1026 NOSIG
ZHCC,2023-04-07 17:00,ZHCC 071700Z 10002MPS 8000 NSC 11/06 Q1026 NOSIG
ZHCC,2023-04-07 18:00,ZHCC 071800Z VRB01MPS 8000 NSC 10/06 Q1025 NOSIG
ZHCC,2023-04-07 19:00,ZHCC 071900Z VRB01MPS 8000 NSC 08/06 Q1025 NOSIG
ZHCC,2023-04-07 20:00,ZHCC 072000Z 28001MPS 8000 NSC 08/06 Q1025 NOSIG
ZHCC,2023-04-07 21:00,ZHCC 072100Z VRB01MPS 5000 BR NSC 08/06 Q1025 NOSIG
ZHCC,2023-04-07 22:00,ZHCC 072200Z 29001MPS 5000 BR NSC 08/06 Q1025 NOSIG
ZHCC,2023-04-07 23:00,ZHCC 072300Z 29002MPS 5000 BR NSC 09/07 Q1026 NOSIG
ZHCC,2023-04-08 00:00,ZHCC 080000Z 32003MPS 5000 HZ NSC 13/07 Q1027 NOSIG
ZHCC,2023-04-08 01:00,ZHCC 080100Z 32002MPS 280V010 5000 HZ NSC 15/07 Q1027 NOSIG
ZHCC,2023-04-08 02:00,ZHCC 080200Z VRB01MPS 5000 HZ NSC 17/07 Q1026 NOSIG
ZHCC,2023-04-08 03:00,ZHCC 080300Z VRB01MPS 5000 HZ NSC 18/07 Q1026 NOSIG
ZHCC,2023-04-08 04:00,ZHCC 080400Z VRB02MPS 6000 NSC 19/04 Q1025 NOSIG
ZHCC,2023-04-08 05:00,ZHCC 080500Z 22004MPS 170V290 CAVOK 20/03 Q1024 NOSIG
ZHCC,2023-04-08 06:00,ZHCC 080600Z 18004MPS 140V230 CAVOK 21/01 Q1022 NOSIG
ZHCC,2023-04-08 07:00,ZHCC 080700Z 18004MPS 140V220 CAVOK 21/02 Q1021 NOSIG
ZHCC,2023-04-08 08:00,ZHCC 080800Z 18004G09MPS 130V240 CAVOK 21/04 Q1019 NOSIG
ZHCC,2023-04-08 09:00,ZHCC 080900Z 20005MPS 150V240 CAVOK 20/05 Q1019 NOSIG
ZHCC,2023-04-08 10:00,ZHCC 081000Z 19004MPS 150V230 CAVOK 20/06 Q1018 NOSIG
ZHCC,2023-04-08 11:00,ZHCC 081100Z 17002MPS 110V220 CAVOK 18/07 Q1018 NOSIG
ZHCC,2023-04-08 12:00,ZHCC 081200Z 16003MPS 120V200 CAVOK 18/07 Q1018 NOSIG
ZHCC,2023-04-08 13:00,ZHCC 081300Z VRB02MPS CAVOK 17/06 Q1019 NOSIG
ZHCC,2023-04-08 14:00,ZHCC 081400Z 18003MPS 140V220 CAVOK 17/06 Q1019 NOSIG
ZHCC,2023-04-08 15:00,ZHCC 081500Z 18003MPS 140V230 CAVOK 16/05 Q1018 NOSIG
ZHCC,2023-04-08 16:00,ZHCC 081600Z 19003MPS 130V230 CAVOK 15/05 Q1018 NOSIG
ZHCC,2023-04-08 17:00,ZHCC 081700Z 17002MPS 110V260 CAVOK 14/05 Q1017 NOSIG
ZHCC,2023-04-08 18:00,ZHCC 081800Z 19003MPS 130V220 CAVOK 14/05 Q1016 NOSIG
ZHCC,2023-04-08 19:00,ZHCC 081900Z 20003MPS 160V230 CAVOK 14/05 Q1015 NOSIG
ZHCC,2023-04-08 20:00,ZHCC 082000Z 20002MPS 170V250 CAVOK 14/05 Q1015 NOSIG
ZHCC,2023-04-08 21:00,ZHCC 082100Z 20002MPS 160V240 CAVOK 13/05 Q1015 NOSIG
ZHCC,2023-04-08 22:00,ZHCC 082200Z 19002MPS 150V220 CAVOK 12/05 Q1015 NOSIG
ZHCC,2023-04-08 23:00,ZHCC 082300Z 18002MPS 070V240 CAVOK 13/06 Q1015 NOSIG
ZHCC,2023-04-09 00:00,ZHCC 090000Z 20003MPS 150V240 CAVOK 15/06 Q1014 NOSIG
ZHCC,2023-04-09 01:00,ZHCC 090100Z 20003MPS 160V230 CAVOK 17/07 Q1014 NOSIG
ZHCC,2023-04-09 02:00,ZHCC 090200Z 20004MPS 140V240 CAVOK 19/07 Q1014 NOSIG
ZHCC,2023-04-09 03:00,ZHCC 090300Z 19003MPS 130V240 CAVOK 21/08 Q1014 NOSIG
ZHCC,2023-04-09 04:00,ZHCC 090400Z 19003MPS 140V230 CAVOK 22/09 Q1013 NOSIG
ZHCC,2023-04-09 05:00,ZHCC 090500Z 20004MPS 160V240 CAVOK 24/10 Q1011 NOSIG
ZHCC,2023-04-09 06:00,ZHCC 090600Z 20004MPS 160V240 CAVOK 26/11 Q1010 NOSIG
ZHCC,2023-04-09 07:00,ZHCC 090700Z 20004MPS 140V240 CAVOK 25/11 Q1009 NOSIG
ZHCC,2023-04-09 08:00,ZHCC 090800Z 19004MPS 140V220 CAVOK 24/11 Q1008 NOSIG
ZHCC,2023-04-09 09:00,ZHCC 090900Z 19004MPS 120V230 CAVOK 24/11 Q1008 NOSIG
ZHCC,2023-04-09 10:00,ZHCC 091000Z 18005MPS 140V240 CAVOK 23/11 Q1008 NOSIG
ZHCC,2023-04-09 11:00,ZHCC 091100Z 19005MPS CAVOK 22/10 Q1009 NOSIG
ZHCC,2023-04-09 12:00,ZHCC 091200Z 19003MPS 150V230 CAVOK 21/10 Q1009 NOSIG
ZHCC,2023-04-09 13:00,ZHCC 091300Z 19003MPS 160V240 CAVOK 20/09 Q1010 NOSIG
ZHCC,2023-04-09 14:00,ZHCC 091400Z 20003MPS 160V230 CAVOK 20/09 Q1010 NOSIG
ZHCC,2023-04-09 15:00,ZHCC 091500Z 20003MPS 160V230 CAVOK 19/09 Q1011 NOSIG
ZHCC,2023-04-09 16:00,ZHCC 091600Z 20003MPS 150V240 CAVOK 19/08 Q1010 NOSIG
ZHCC,2023-04-09 17:00,ZHCC 091700Z 19003MPS 160V230 CAVOK 19/09 Q1009 NOSIG
ZHCC,2023-04-09 18:00,ZHCC 091800Z 22002MPS 170V260 CAVOK 18/08 Q1009 NOSIG
ZHCC,2023-04-09 19:00,ZHCC 091900Z VRB01MPS CAVOK 16/09 Q1008 NOSIG
ZHCC,2023-04-09 20:00,ZHCC 092000Z 18003MPS 140V200 CAVOK 16/09 Q1008 NOSIG
ZHCC,2023-04-09 21:00,ZHCC 092100Z 19003MPS 160V220 CAVOK 17/09 Q1007 NOSIG
ZHCC,2023-04-09 22:00,ZHCC 092200Z 19002MPS 140V230 CAVOK 16/09 Q1007 NOSIG
ZHCC,2023-04-09 23:00,ZHCC 092300Z 23002MPS 160V290 CAVOK 16/09 Q1008 NOSIG
ZHCC,2023-04-10 00:00,ZHCC 100000Z 18002MPS 110V220 CAVOK 18/10 Q1007 NOSIG
ZHCC,2023-04-10 01:00,ZHCC 100100Z 18004MPS 120V220 CAVOK 20/10 Q1007 NOSIG
ZHCC,2023-04-10 02:00,ZHCC 100200Z 20005MPS 160V240 CAVOK 22/10 Q1007 NOSIG
ZHCC,2023-04-10 03:00,ZHCC 100300Z 21004MPS 090V250 CAVOK 23/11 Q1007 NOSIG
ZHCC,2023-04-10 04:00,ZHCC 100400Z 18004MPS 120V230 CAVOK 24/12 Q1006 NOSIG
ZHCC,2023-04-10 05:00,ZHCC 100500Z 16004MPS 100V220 CAVOK 25/13 Q1005 NOSIG
ZHCC,2023-04-10 06:00,ZHCC 100600Z 18005MPS 110V220 CAVOK 26/13 Q1004 NOSIG
ZHCC,2023-04-10 07:00,ZHCC 100700Z 20004MPS 140V290 CAVOK 27/13 Q1003 NOSIG
ZHCC,2023-04-10 08:00,ZHCC 100800Z 21005MPS 170V240 CAVOK 26/13 Q1002 NOSIG
ZHCC,2023-04-10 09:00,ZHCC 100900Z 18004MPS 120V220 CAVOK 26/14 Q1002 NOSIG
ZHCC,2023-04-10 10:00,ZHCC 101000Z 20004MPS 170V240 CAVOK 26/14 Q1003 NOSIG
ZHCC,2023-04-10 11:00,ZHCC 101100Z 19003MPS 120V250 CAVOK 25/14 Q1003 NOSIG
ZHCC,2023-04-10 12:00,ZHCC 101200Z 20003MPS 130V230 CAVOK 24/14 Q1004 NOSIG
ZHCC,2023-04-10 13:00,ZHCC 101300Z 20002MPS 170V240 CAVOK 23/13 Q1005 NOSIG
ZHCC,2023-04-10 14:00,ZHCC 101400Z 27002MPS CAVOK 21/13 Q1006 NOSIG
ZHCC,2023-04-10 15:00,ZHCC 101500Z 26002MPS 240V310 CAVOK 19/14 Q1007 NOSIG
ZHCC,2023-04-10 16:00,ZHCC 101600Z 28002MPS CAVOK 19/14 Q1007 NOSIG
ZHCC,2023-04-10 17:00,ZHCC 101700Z 30003MPS CAVOK 18/13 Q1008 NOSIG
ZHCC,2023-04-10 18:00,ZHCC 101800Z 28002MPS CAVOK 18/10 Q1008 NOSIG
ZHCC,2023-04-10 19:00,ZHCC 101900Z 27003MPS CAVOK 18/07 Q1008 NOSIG
ZHCC,2023-04-10 20:00,ZHCC 102000Z 29004MPS CAVOK 19/02 Q1009 NOSIG
ZHCC,2023-04-10 21:00,ZHCC 102100Z 29005MPS CAVOK 21/M02 Q1010 NOSIG
ZHCC,2023-04-10 22:00,ZHCC 102200Z 31005MPS 6000 NSC 21/M05 Q1011 NOSIG
ZHCC,2023-04-10 23:00,ZHCC 102300Z 32005MPS 5000 DU NSC 21/M05 Q1012 NOSIG
ZHCC,2023-04-11 00:00,ZHCC 110000Z 35003MPS 320V020 5000 DU NSC 23/M04 Q1014 NOSIG
ZHCC,2023-04-11 01:00,ZHCC 110100Z 34006MPS 5000 DU NSC 23/M03 Q1015 NOSIG
ZHCC,2023-04-11 02:00,ZHCC 110200Z 35006MPS 5000 DU NSC 24/M01 Q1016 NOSIG
ZHCC,2023-04-11 03:00,ZHCC 110300Z 03004MPS 360V060 5000 DU NSC 24/02 Q1016 NOSIG
ZHCC,2023-04-11 04:00,ZHCC 110400Z 07004MPS 4000 DU NSC 24/01 Q1015 NOSIG
ZHCC,2023-04-11 05:00,ZHCC 110500Z 09005MPS 050V110 3000 DU BKN030 24/M00 Q1015 BECMG TL0640 2500
ZHCC,2023-04-11 06:00,ZHCC 110600Z 05004MPS 020V080 3000 DU BKN030 24/M03 Q1015 NOSIG
ZHCC,2023-04-11 07:00,ZHCC 110700Z 05005MPS 360V080 2800 DU BKN030 23/M01 Q1014 BECMG TL0840 3000
ZHCC,2023-04-11 08:00,ZHCC 110800Z 08006MPS 3000 DU BKN030 21/M02 Q1014 BECMG TL0920 2500
ZHCC,2023-04-11 09:00,ZHCC 110900Z 07005MPS 2800 DU BKN030 21/M04 Q1014 BECMG TL1040 3000
ZHCC,2023-04-11 10:00,ZHCC 111000Z 09004MPS 2800 DU BKN030 20/01 Q1014 BECMG TL1040 3000
ZHCC,2023-04-11 11:00,ZHCC 111100Z 14002MPS 100V200 3000 DU BKN030 18/02 Q1015 NOSIG
ZHCC,2023-04-11 12:00,ZHCC 111200Z 12002MPS 4000 DU BKN040 15/05 Q1015 NOSIG
ZHCC,2023-04-11 13:00,ZHCC 111300Z 06003MPS 4000 DU BKN040 18/02 Q1017 NOSIG
ZHCC,2023-04-11 14:00,ZHCC 111400Z VRB01MPS 4000 DU BKN040 15/04 Q1017 NOSIG
ZHCC,2023-04-11 15:00,ZHCC 111500Z 17001MPS 4000 DU BKN040 14/06 Q1017 NOSIG
ZHCC,2023-04-11 16:00,ZHCC 111600Z VRB01MPS 4000 DU BKN040 13/06 Q1017 NOSIG
ZHCC,2023-04-11 17:00,ZHCC 111700Z VRB01MPS 4000 DU BKN040 15/04 Q1017 NOSIG
ZHCC,2023-04-11 18:00,ZHCC 111800Z 29001MPS 4000 DU BKN040 13/05 Q1017 NOSIG
ZHCC,2023-04-11 19:00,ZHCC 111900Z VRB01MPS 4000 DU BKN040 12/06 Q1017 NOSIG
ZHCC,2023-04-11 20:00,ZHCC 112000Z 10002MPS 4000 DU BKN040 13/04 Q1017 NOSIG
ZHCC,2023-04-11 21:00,ZHCC 112100Z VRB01MPS 4000 DU BKN040 12/05 Q1017 BECMG TL2240 2500
ZHCC,2023-04-11 22:00,ZHCC 112200Z 11001MPS 3000 DU BKN040 12/04 Q1017 BECMG TL2240 2500
ZHCC,2023-04-11 23:00,ZHCC 112300Z 12003MPS 2200 DU BKN040 13/04 Q1017 BECMG TL0040 3000
ZHCC,2023-04-12 00:00,ZHCC 120000Z 11003MPS 2000 DU BKN040 14/06 Q1018 BECMG TL0140 3000
ZHCC,2023-04-12 01:00,ZHCC 120100Z 14003MPS 090V200 2000 DU NSC 17/05 Q1018 NOSIG
ZHCC,2023-04-12 02:00,ZHCC 120200Z 16003MPS 120V280 2000 DU NSC 18/05 Q1018 NOSIG
ZHCC,2023-04-12 03:00,ZHCC 120300Z 18003MPS 110V210 2000 DU NSC 20/07 Q1017 NOSIG
ZHCC,2023-04-12 04:00,ZHCC 120400Z 14003MPS 100V200 2500 DU NSC 21/10 Q1015 NOSIG
ZHCC,2023-04-12 05:00,ZHCC 120500Z VRB03MPS 2500 DU NSC 22/09 Q1014 BECMG TL0640 3000
ZHCC,2023-04-12 06:00,ZHCC 120600Z 17003MPS 120V220 2800 DU FEW030 23/10 Q1013 BECMG TL0740 3000
ZHCC,2023-04-12 07:00,ZHCC 120700Z 14004MPS 100V190 3000 DU FEW030 22/10 Q1012 NOSIG
ZHCC,2023-04-12 08:00,ZHCC 120800Z 15003MPS 100V210 3000 DU NSC 23/11 Q1011 NOSIG
ZHCC,2023-04-12 09:00,ZHCC 120900Z 15003MPS 100V190 3000 DU NSC 22/11 Q1010 NOSIG
ZHCC,2023-04-12 10:00,ZHCC 121000Z 14003MPS 100V190 4000 DU NSC 22/12 Q1011 NOSIG
ZHCC,2023-04-12 11:00,ZHCC 121100Z 14002MPS 110V200 4000 DU NSC 21/12 Q1011 NOSIG
ZHCC,2023-04-12 12:00,ZHCC 121200Z 14002MPS 100V180 6000 NSC 20/12 Q1012 NOSIG
ZHCC,2023-04-12 13:00,ZHCC 121300Z 12002MPS 6000 NSC 18/12 Q1013 NOSIG
ZHCC,2023-04-12 14:00,ZHCC 121400Z 15002MPS 100V220 6000 NSC 18/11 Q1013 NOSIG
ZHCC,2023-04-12 15:00,ZHCC 121500Z 15003MPS 120V210 6000 NSC 18/11 Q1012 NOSIG
ZHCC,2023-04-12 16:00,ZHCC 121600Z VRB01MPS 6000 NSC 18/10 Q1013 NOSIG
ZHCC,2023-04-12 17:00,ZHCC 121700Z VRB01MPS 6000 NSC 16/10 Q1012 NOSIG
ZHCC,2023-04-12 18:00,ZHCC 121800Z VRB01MPS 6000 NSC 15/11 Q1012 NOSIG
ZHCC,2023-04-12 19:00,ZHCC 121900Z 12002MPS 6000 NSC 15/11 Q1012 NOSIG
ZHCC,2023-04-12 20:00,ZHCC 122000Z 10002MPS 6000 NSC 15/10 Q1011 NOSIG
ZHCC,2023-04-12 21:00,ZHCC 122100Z 12002MPS 6000 NSC 15/10 Q1011 NOSIG
ZHCC,2023-04-12 22:00,ZHCC 122200Z VRB01MPS 5000 DU NSC 14/10 Q1011 NOSIG
ZHCC,2023-04-12 23:00,ZHCC 122300Z 04004MPS 6000 NSC 15/10 Q1011 NOSIG
ZHCC,2023-04-13 00:00,ZHCC 130000Z 08003MPS 050V110 6000 BKN040 16/09 Q1012 NOSIG
ZHCC,2023-04-13 01:00,ZHCC 130100Z 13003MPS 100V180 6000 SCT040 18/09 Q1011 NOSIG
ZHCC,2023-04-13 02:00,ZHCC 130200Z 14002MPS 100V200 6000 BKN040 18/10 Q1011 NOSIG
ZHCC,2023-04-13 03:00,ZHCC 130300Z VRB01MPS 6000 BKN040 20/10 Q1011 NOSIG
ZHCC,2023-04-13 04:00,ZHCC 130400Z VRB01MPS 6000 BKN040 21/10 Q1010 NOSIG
ZHCC,2023-04-13 05:00,ZHCC 130500Z VRB01MPS 5000 -SHRA BR OVC040 20/13 Q1010 BECMG TL0540 SHRA
ZHCC,2023-04-13 06:00,ZHCC 130600Z VRB01MPS 5000 -SHRA BR OVC040 17/14 Q1009 NOSIG
ZHCC,2023-04-13 07:00,ZHCC 130700Z 13002MPS 5000 BR OVC040 19/15 Q1008 NOSIG
ZHCC,2023-04-13 08:00,ZHCC 130800Z VRB01MPS 5000 BR FEW033CB BKN040 18/16 Q1008 RESHRA NOSIG
ZHCC,2023-04-13 09:00,ZHCC 130900Z VRB01MPS 5000 BR BKN040 19/15 Q1007 NOSIG
ZHCC,2023-04-13 10:00,ZHCC 131000Z VRB01MPS 5000 BR BKN040 19/15 Q1008 NOSIG
ZHCC,2023-04-13 11:00,ZHCC 131100Z VRB01MPS 5000 -RA BR BKN040 18/16 Q1009 NOSIG
ZHCC,2023-04-13 12:00,ZHCC 131200Z 14002MPS 5000 BR BKN040 18/16 Q1009 NOSIG
ZHCC,2023-04-13 13:00,ZHCC 131300Z VRB01MPS 5000 BR NSC 18/16 Q1011 NOSIG
ZHCC,2023-04-13 14:00,ZHCC 131400Z VRB01MPS 5000 BR NSC 17/15 Q1010 NOSIG
ZHCC,2023-04-13 15:00,ZHCC 131500Z 20001MPS 5000 BR NSC 17/14 Q1011 NOSIG
ZHCC,2023-04-13 16:00,ZHCC 131600Z 28001MPS 5000 BR NSC 16/15 Q1011 NOSIG
ZHCC,2023-04-13 17:00,ZHCC 131700Z VRB01MPS 4000 BR NSC 15/14 Q1011 NOSIG
ZHCC,2023-04-13 18:00,ZHCC 131800Z VRB01MPS 4000 BR NSC 14/14 Q1010 NOSIG
ZHCC,2023-04-13 19:00,ZHCC 131900Z 00000MPS 4000 BR NSC 13/12 Q1010 NOSIG
ZHCC,2023-04-13 20:00,ZHCC 132000Z VRB01MPS 3000 BR NSC 14/14 Q1010 BECMG TL2140 2000
ZHCC,2023-04-13 21:00,ZHCC 132100Z 00000MPS 1500 R12R/1200N R12L/P2000 PRFG BR NSC 13/12 Q1010 BECMG TL2140 1200
ZHCC,2023-04-13 22:00,ZHCC 132200Z 28001MPS 1400 R12R/P2000 R12L/P2000 BR NSC 14/13 Q1011 BECMG TL2340 2000
ZHCC,2023-04-13 23:00,ZHCC 132300Z 29002MPS 1400 R30L/1700N R30R/1800N BR NSC 15/14 Q1012 BECMG TL2340 2000
ZHCC,2023-04-14 00:00,ZHCC 140000Z 31004MPS 7000 NSC 18/12 Q1013 NOSIG
ZHCC,2023-04-14 01:00,ZHCC 140100Z 36006MPS 320V020 8000 NSC 23/08 Q1014 NOSIG
ZHCC,2023-04-14 02:00,ZHCC 140200Z 02005MPS 340V050 8000 NSC 23/06 Q1015 NOSIG
ZHCC,2023-04-14 03:00,ZHCC 140300Z 35006MPS 8000 NSC 23/05 Q1014 NOSIG
ZHCC,2023-04-14 04:00,ZHCC 140400Z 35002MPS 300V030 8000 NSC 24/08 Q1015 NOSIG
ZHCC,2023-04-14 05:00,ZHCC 140500Z 30007G12MPS 8000 NSC 25/01 Q1015 NOSIG
ZHCC,2023-04-14 06:00,ZHCC 140600Z 36006MPS 330V030 8000 NSC 25/01 Q1014 NOSIG
ZHCC,2023-04-14 07:00,ZHCC 140700Z 36005MPS 320V040 7000 NSC 25/03 Q1013 NOSIG
ZHCC,2023-04-14 08:00,ZHCC 140800Z 05005MPS 5000 DU NSC 24/04 Q1013 NOSIG
ZHCC,2023-04-14 09:00,ZHCC 140900Z 05005MPS 4000 DU NSC 23/04 Q1013 NOSIG
ZHCC,2023-04-14 10:00,ZHCC 141000Z 05004MPS 4000 DU NSC 22/04 Q1014 NOSIG
ZHCC,2023-04-14 11:00,ZHCC 141100Z 05004MPS 3000 DU NSC 21/05 Q1014 NOSIG
ZHCC,2023-04-14 12:00,ZHCC 141200Z 04002MPS 4000 DU NSC 20/06 Q1015 NOSIG
ZHCC,2023-04-14 13:00,ZHCC 141300Z VRB01MPS 4000 DU NSC 17/07 Q1016 NOSIG
ZHCC,2023-04-14 14:00,ZHCC 141400Z VRB01MPS 4000 DU NSC 17/07 Q1016 NOSIG
ZHCC,2023-04-14 15:00,ZHCC 141500Z 00000MPS 4000 DU NSC 14/08 Q1015 NOSIG
ZHCC,2023-04-14 16:00,ZHCC 141600Z 25002MPS 4000 DU NSC 14/08 Q1015 NOSIG
ZHCC,2023-04-14 17:00,ZHCC 141700Z 24002MPS 4000 DU NSC 16/06 Q1015 NOSIG
ZHCC,2023-04-14 18:00,ZHCC 141800Z 24002MPS 4000 DU NSC 13/06 Q1014 NOSIG
ZHCC,2023-04-14 19:00,ZHCC 141900Z 26002MPS 4000 DU NSC 12/05 Q1014 NOSIG
ZHCC,2023-04-14 20:00,ZHCC 142000Z 00000MPS 7000 NSC 11/05 Q1013 NOSIG
ZHCC,2023-04-14 21:00,ZHCC 142100Z 25002MPS CAVOK 13/04 Q1013 NOSIG
ZHCC,2023-04-14 22:00,ZHCC 142200Z VRB01MPS CAVOK 11/05 Q1013 NOSIG
ZHCC,2023-04-14 23:00,ZHCC 142300Z 24002MPS 210V270 CAVOK 16/05 Q1013 NOSIG
ZHCC,2023-04-15 00:00,ZHCC 150000Z 22002MPS 180V260 CAVOK 18/06 Q1012 NOSIG
ZHCC,2023-04-15 01:00,ZHCC 150100Z 20003MPS 150V240 CAVOK 20/06 Q1011 NOSIG
ZHCC,2023-04-15 02:00,ZHCC 150200Z 22005MPS 190V270 CAVOK 23/02 Q1010 BECMG TL0340 29008MPS
ZHCC,2023-04-15 03:00,ZHCC 150300Z 20006MPS 170V230 CAVOK 24/02 Q1009 BECMG TL0440 28009MPS
ZHCC,2023-04-15 04:00,ZHCC 150400Z 22005G10MPS 200V260 CAVOK 25/03 Q1007 NOSIG
ZHCC,2023-04-15 05:00,ZHCC 150500Z 29012MPS 250V310 CAVOK 27/00 Q1005 NOSIG
ZHCC,2023-04-15 06:00,ZHCC 150600Z 29009MPS CAVOK 28/02 Q1004 NOSIG
ZHCC,2023-04-15 07:00,ZHCC 150700Z 28008G13MPS 250V320 CAVOK 28/03 Q1003 NOSIG
ZHCC,2023-04-15 08:00,ZHCC 150800Z 29007MPS CAVOK 28/02 Q1002 NOSIG
ZHCC,2023-04-15 09:00,ZHCC 150900Z 29005MPS CAVOK 28/01 Q1002 NOSIG
ZHCC,2023-04-15 10:00,ZHCC 151000Z 30005MPS CAVOK 26/00 Q1002 NOSIG
ZHCC,2023-04-15 11:00,ZHCC 151100Z 29002MPS CAVOK 24/02 Q1002 NOSIG
ZHCC,2023-04-15 12:00,ZHCC 151200Z 00000MPS CAVOK 20/05 Q1002 NOSIG
ZHCC,2023-04-15 13:00,ZHCC 151300Z VRB01MPS CAVOK 20/06 Q1003 NOSIG
ZHCC,2023-04-15 14:00,ZHCC 151400Z 05006MPS CAVOK 19/06 Q1004 NOSIG
ZHCC,2023-04-15 15:00,ZHCC 151500Z 06005MPS CAVOK 19/06 Q1005 NOSIG
ZHCC,2023-04-15 16:00,ZHCC 151600Z 04005MPS CAVOK 18/04 Q1005 NOSIG
ZHCC,2023-04-15 17:00,ZHCC 151700Z 04005MPS CAVOK 17/04 Q1005 NOSIG
ZHCC,2023-04-15 18:00,ZHCC 151800Z 02003MPS CAVOK 16/04 Q1005 NOSIG
ZHCC,2023-04-15 19:00,ZHCC 151900Z 03003MPS 360V070 CAVOK 16/03 Q1005 NOSIG
ZHCC,2023-04-15 20:00,ZHCC 152000Z 03003MPS CAVOK 16/02 Q1005 NOSIG
ZHCC,2023-04-15 21:00,ZHCC 152100Z 36002MPS 220V020 CAVOK 15/03 Q1005 NOSIG
ZHCC,2023-04-15 22:00,ZHCC 152200Z 29002MPS CAVOK 11/04 Q1006 NOSIG
ZHCC,2023-04-15 23:00,ZHCC 152300Z 32003MPS CAVOK 14/04 Q1007 NOSIG
ZHCC,2023-04-16 00:00,ZHCC 160000Z 01002MPS 320V060 CAVOK 17/03 Q1008 NOSIG
ZHCC,2023-04-16 01:00,ZHCC 160100Z 02003MPS 340V050 CAVOK 18/03 Q1008 NOSIG
ZHCC,2023-04-16 02:00,ZHCC 160200Z 08002MPS 350V120 CAVOK 20/02 Q1009 NOSIG
ZHCC,2023-04-16 03:00,ZHCC 160300Z 08003G08MPS 030V120 CAVOK 21/02 Q1008 NOSIG
ZHCC,2023-04-16 04:00,ZHCC 160400Z 09004MPS 010V130 CAVOK 22/02 Q1008 NOSIG
ZHCC,2023-04-16 05:00,ZHCC 160500Z 13004MPS 070V170 CAVOK 23/04 Q1007 NOSIG
ZHCC,2023-04-16 06:00,ZHCC 160600Z 13004MPS 090V180 CAVOK 24/04 Q1006 NOSIG
ZHCC,2023-04-16 07:00,ZHCC 160700Z 12004MPS 100V160 CAVOK 24/06 Q1005 NOSIG
ZHCC,2023-04-16 08:00,ZHCC 160800Z 13003MPS 080V160 CAVOK 24/07 Q1004 NOSIG
ZHCC,2023-04-16 09:00,ZHCC 160900Z 12005MPS 090V160 CAVOK 23/09 Q1003 NOSIG
ZHCC,2023-04-16 10:00,ZHCC 161000Z 12003MPS CAVOK 22/09 Q1004 NOSIG
ZHCC,2023-04-16 11:00,ZHCC 161100Z 12002MPS CAVOK 20/10 Q1004 NOSIG
ZHCC,2023-04-16 12:00,ZHCC 161200Z 11003MPS CAVOK 18/09 Q1004 NOSIG
ZHCC,2023-04-16 13:00,ZHCC 161300Z 12002MPS CAVOK 18/09 Q1005 NOSIG
ZHCC,2023-04-16 14:00,ZHCC 161400Z 11002MPS CAVOK 18/10 Q1005 NOSIG
ZHCC,2023-04-16 15:00,ZHCC 161500Z 12001MPS CAVOK 17/10 Q1005 NOSIG
ZHCC,2023-04-16 16:00,ZHCC 161600Z 11002MPS CAVOK 17/10 Q1005 NOSIG
ZHCC,2023-04-16 17:00,ZHCC 161700Z 11002MPS CAVOK 17/11 Q1004 NOSIG
ZHCC,2023-04-16 18:00,ZHCC 161800Z 00000MPS CAVOK 15/10 Q1004 NOSIG
ZHCC,2023-04-16 19:00,ZHCC 161900Z 11001MPS CAVOK 15/11 Q1003 NOSIG
ZHCC,2023-04-16 20:00,ZHCC 162000Z 06001MPS CAVOK 15/11 Q1003 NOSIG
ZHCC,2023-04-16 21:00,ZHCC 162100Z VRB01MPS CAVOK 15/10 Q1003 NOSIG
ZHCC,2023-04-16 22:00,ZHCC 162200Z 11002MPS CAVOK 15/10 Q1002 NOSIG
ZHCC,2023-04-16 23:00,ZHCC 162300Z 12002MPS CAVOK 16/11 Q1003 NOSIG
ZHCC,2023-04-17 00:00,ZHCC 170000Z 11002MPS CAVOK 18/11 Q1003 NOSIG
ZHCC,2023-04-17 01:00,ZHCC 170100Z VRB01MPS CAVOK 21/13 Q1004 NOSIG
ZHCC,2023-04-17 02:00,ZHCC 170200Z VRB01MPS CAVOK 23/14 Q1004 NOSIG
ZHCC,2023-04-17 03:00,ZHCC 170300Z VRB01MPS CAVOK 24/15 Q1003 NOSIG
ZHCC,2023-04-17 04:00,ZHCC 170400Z 08002MPS 040V140 8000 NSC 25/15 Q1003 NOSIG
ZHCC,2023-04-17 05:00,ZHCC 170500Z VRB02MPS 8000 NSC 27/16 Q1002 NOSIG
ZHCC,2023-04-17 06:00,ZHCC 170600Z VRB02MPS 9000 NSC 28/16 Q1001 NOSIG
ZHCC,2023-04-17 07:00,ZHCC 170700Z 22003MPS 170V250 CAVOK 28/16 Q1002 NOSIG
ZHCC,2023-04-17 08:00,ZHCC 170800Z 23003MPS 200V270 CAVOK 27/17 Q1003 NOSIG
ZHCC,2023-04-17 09:00,ZHCC 170900Z VRB01MPS CAVOK 27/18 Q1002 NOSIG
ZHCC,2023-04-17 10:00,ZHCC 171000Z 22002MPS 180V260 CAVOK 26/17 Q1002 NOSIG
ZHCC,2023-04-17 11:00,ZHCC 171100Z VRB01MPS 8000 NSC 25/18 Q1004 NOSIG
ZHCC,2023-04-17 12:00,ZHCC 171200Z VRB01MPS 9000 NSC 24/17 Q1006 NOSIG
ZHCC,2023-04-17 13:00,ZHCC 171300Z 36002MPS 320V030 9000 NSC 23/17 Q1006 NOSIG
ZHCC,2023-04-17 14:00,ZHCC 171400Z 36005MPS 9000 NSC 24/17 Q1005 NOSIG
ZHCC,2023-04-17 15:00,ZHCC 171500Z 12002MPS 090V160 9000 NSC 22/17 Q1006 NOSIG
ZHCC,2023-04-17 16:00,ZHCC 171600Z VRB01MPS 7000 NSC 20/17 Q1007 NOSIG
ZHCC,2023-04-17 17:00,ZHCC 171700Z VRB01MPS 7000 NSC 20/17 Q1007 NOSIG
ZHCC,2023-04-17 18:00,ZHCC 171800Z 32002MPS 7000 NSC 19/16 Q1006 NOSIG
ZHCC,2023-04-17 19:00,ZHCC 171900Z 01004MPS 7000 NSC 22/17 Q1006 NOSIG
ZHCC,2023-04-17 20:00,ZHCC 172000Z 04006MPS 6000 NSC 19/14 Q1008 NOSIG
ZHCC,2023-04-17 21:00,ZHCC 172100Z 03005MPS 6000 NSC 18/12 Q1008 NOSIG
ZHCC,2023-04-17 22:00,ZHCC 172200Z 03005MPS 5000 HZ NSC 18/12 Q1009 NOSIG
ZHCC,2023-04-17 23:00,ZHCC 172300Z 03004MPS 360V060 5000 HZ NSC 18/12 Q1011 NOSIG
ZHCC,2023-04-18 00:00,ZHCC 180000Z 02004MPS 350V060 5000 HZ NSC 19/11 Q1012 NOSIG
ZHCC,2023-04-18 01:00,ZHCC 180100Z 03005MPS 360V060 5000 HZ NSC 20/11 Q1013 NOSIG
ZHCC,2023-04-18 02:00,ZHCC 180200Z 01006MPS 340V050 5000 HZ NSC 22/11 Q1012 NOSIG
ZHCC,2023-04-18 03:00,ZHCC 180300Z 03006MPS 350V060 5000 HZ NSC 23/13 Q1012 NOSIG
ZHCC,2023-04-18 04:00,ZHCC 180400Z 01006MPS 5000 HZ NSC 23/12 Q1012 NOSIG
ZHCC,2023-04-18 05:00,ZHCC 180500Z 04006MPS 020V080 5000 HZ NSC 25/13 Q1011 NOSIG
ZHCC,2023-04-18 06:00,ZHCC 180600Z 02005G10MPS 340V050 7000 NSC 25/12 Q1010 NOSIG
ZHCC,2023-04-18 07:00,ZHCC 180700Z 02005MPS 340V050 7000 NSC 24/12 Q1010 NOSIG
ZHCC,2023-04-18 08:00,ZHCC 180800Z 04005MPS 360V070 7000 NSC 24/12 Q1010 NOSIG
ZHCC,2023-04-18 09:00,ZHCC 180900Z 04006MPS 7000 NSC 24/13 Q1010 NOSIG
ZHCC,2023-04-18 10:00,ZHCC 181000Z 03004MPS 7000 NSC 23/13 Q1010 NOSIG
ZHCC,2023-04-18 11:00,ZHCC 181100Z 04004MPS 020V080 7000 NSC 22/13 Q1010 NOSIG
ZHCC,2023-04-18 12:00,ZHCC 181200Z 04004MPS 8000 NSC 21/12 Q1010 NOSIG
ZHCC,2023-04-18 13:00,ZHCC 181300Z 04003MPS 8000 NSC 21/13 Q1011 NOSIG
ZHCC,2023-04-18 14:00,ZHCC 181400Z 02002MPS 350V080 8000 NSC 21/13 Q1010 NOSIG
ZHCC,2023-04-18 15:00,ZHCC 181500Z 02002MPS 340V040 8000 NSC 20/13 Q1010 NOSIG
ZHCC,2023-04-18 16:00,ZHCC 181600Z VRB01MPS 9999 SCT033 20/13 Q1010 NOSIG
ZHCC,2023-04-18 17:00,ZHCC 181700Z 33003MPS 9999 SCT033 20/13 Q1010 NOSIG
ZHCC,2023-04-18 18:00,ZHCC 181800Z 01002MPS 9999 BKN033 21/13 Q1009 NOSIG
ZHCC,2023-04-18 19:00,ZHCC 181900Z VRB01MPS 9999 BKN040 20/13 Q1009 NOSIG
ZHCC,2023-04-18 20:00,ZHCC 182000Z 29002MPS 9999 BKN040 19/13 Q1009 NOSIG
ZHCC,2023-04-18 21:00,ZHCC 182100Z 32002MPS 8000 BKN040 19/14 Q1008 NOSIG
ZHCC,2023-04-18 22:00,ZHCC 182200Z 34002MPS 5000 HZ BKN040 19/14 Q1009 NOSIG
ZHCC,2023-04-18 23:00,ZHCC 182300Z VRB01MPS 5000 HZ BKN040 19/14 Q1009 NOSIG
ZHCC,2023-04-19 00:00,ZHCC 190000Z 34002MPS 310V010 5000 HZ BKN040 21/14 Q1009 NOSIG
ZHCC,2023-04-19 01:00,ZHCC 190100Z VRB02MPS 5000 HZ NSC 22/14 Q1009 NOSIG
ZHCC,2023-04-19 02:00,ZHCC 190200Z 03002MPS 330V090 5000 HZ NSC 24/14 Q1009 NOSIG
ZHCC,2023-04-19 03:00,ZHCC 190300Z 07002MPS 350V130 5000 HZ NSC 25/15 Q1009 NOSIG
ZHCC,2023-04-19 04:00,ZHCC 190400Z VRB02MPS 5000 HZ NSC 26/15 Q1008 NOSIG
ZHCC,2023-04-19 05:00,ZHCC 190500Z 12003MPS 070V160 7000 NSC 27/16 Q1007 NOSIG
ZHCC,2023-04-19 06:00,ZHCC 190600Z 08003MPS 350V140 7000 NSC 27/16 Q1006 NOSIG
ZHCC,2023-04-19 07:00,ZHCC 190700Z 11003MPS 070V140 7000 NSC 28/16 Q1005 NOSIG
ZHCC,2023-04-19 08:00,ZHCC 190800Z 14003MPS 100V190 8000 NSC 28/16 Q1004 NOSIG
ZHCC,2023-04-19 09:00,ZHCC 190900Z 13003MPS 100V180 8000 NSC 27/16 Q1004 NOSIG
ZHCC,2023-04-19 10:00,ZHCC 191000Z 13003MPS 100V170 8000 NSC 26/17 Q1004 NOSIG
ZHCC,2023-04-19 11:00,ZHCC 191100Z 13002MPS 8000 NSC 25/17 Q1004 NOSIG
ZHCC,2023-04-19 12:00,ZHCC 191200Z 14002MPS 110V180 8000 NSC 23/17 Q1005 NOSIG
ZHCC,2023-04-19 13:00,ZHCC 191300Z VRB01MPS 8000 NSC 22/17 Q1005 NOSIG
ZHCC,2023-04-19 14:00,ZHCC 191400Z 14002MPS 110V170 8000 NSC 22/18 Q1005 NOSIG
ZHCC,2023-04-19 15:00,ZHCC 191500Z VRB01MPS 8000 NSC 22/18 Q1005 NOSIG
ZHCC,2023-04-19 16:00,ZHCC 191600Z 13001MPS 6000 NSC 21/18 Q1005 NOSIG
ZHCC,2023-04-19 17:00,ZHCC 191700Z 00000MPS 6000 NSC 19/17 Q1005 NOSIG
ZHCC,2023-04-19 18:00,ZHCC 191800Z VRB01MPS 6000 NSC 20/18 Q1005 NOSIG
ZHCC,2023-04-19 19:00,ZHCC 191900Z VRB01MPS 5000 BR NSC 19/18 Q1005 NOSIG
ZHCC,2023-04-19 20:00,ZHCC 192000Z 00000MPS 3500 BR NSC 18/17 Q1005 NOSIG
ZHCC,2023-04-19 21:00,ZHCC 192100Z VRB01MPS 3000 BR NSC 17/16 Q1005 BECMG TL2140 2000
ZHCC,2023-04-19 22:00,ZHCC 192200Z 20001MPS 1600 BR NSC 18/18 Q1006 NOSIG
ZHCC,2023-04-19 23:00,ZHCC 192300Z VRB01MPS 1500 R12R/1400N R12L/1600N BR NSC 19/18 Q1006 BECMG TL0040 3000
ZHCC,2023-04-20 00:00,ZHCC 200000Z 18002MPS 090V250 1800 BR NSC 21/19 Q1007 BECMG TL0040 3000
ZHCC,2023-04-20 01:00,ZHCC 200100Z 19003MPS 140V220 3000 BR NSC 23/19 Q1007 NOSIG
ZHCC,2023-04-20 02:00,ZHCC 200200Z 35002MPS 300V100 4000 HZ NSC 27/20 Q1008 BECMG TL0340 05005MPS
ZHCC,2023-04-20 03:00,ZHCC 200300Z 03006MPS 3500 HZ BKN030 26/19 Q1008 NOSIG
ZHCC,2023-04-20 04:00,ZHCC 200400Z 04007MPS 3000 HZ BKN030 26/19 Q1009 NOSIG
ZHCC,2023-04-20 05:00,ZHCC 200500Z 04008MPS 3000 HZ BKN030 24/17 Q1009 NOSIG
ZHCC,2023-04-20 06:00,ZHCC 200600Z 03009MPS 3000 HZ BKN030 23/16 Q1009 NOSIG
ZHCC,2023-04-20 07:00,ZHCC 200700Z 04010MPS 4000 HZ BKN030 22/14 Q1009 NOSIG
ZHCC,2023-04-20 08:00,ZHCC 200800Z 04011G20MPS 5000 SA BKN030 20/10 Q1009 NOSIG
ZHCC,2023-04-20 09:00,ZHCC 200900Z 04009G14MPS 7000 OVC030 19/08 Q1009 NOSIG
ZHCC,2023-04-20 10:00,ZHCC 201000Z 03009MPS 360V060 7000 BKN040 19/07 Q1010 NOSIG
ZHCC,2023-04-20 11:00,ZHCC 201100Z 03011MPS 360V060 5000 HZ BKN040 17/10 Q1012 NOSIG
ZHCC,2023-04-20 12:00,ZHCC 201200Z 02010G16MPS 7000 BKN040 15/06 Q1014 NOSIG
ZHCC,2023-04-20 13:00,ZHCC 201300Z 03011G16MPS 7000 BKN040 15/05 Q1015 NOSIG
ZHCC,2023-04-20 14:00,ZHCC 201400Z 02010G18MPS 7000 BKN040 15/05 Q1016 NOSIG
ZHCC,2023-04-20 15:00,ZHCC 201500Z 02008G14MPS 7000 BKN040 14/04 Q1016 NOSIG
ZHCC,2023-04-20 16:00,ZHCC 201600Z 02007G13MPS 9999 -SHRA OVC040 13/06 Q1017 NOSIG
ZHCC,2023-04-20 17:00,ZHCC 201700Z 03009MPS 350V060 9999 OVC040 14/05 Q1016 NOSIG
ZHCC,2023-04-20 18:00,ZHCC 201800Z 03008G13MPS 9999 OVC040 13/04 Q1016 NOSIG
ZHCC,2023-04-20 19:00,ZHCC 201900Z 02009G15MPS 9999 OVC040 13/03 Q1016 NOSIG
ZHCC,2023-04-20 20:00,ZHCC 202000Z 01007MPS 340V040 9999 OVC040 13/03 Q1017 NOSIG
ZHCC,2023-04-20 21:00,ZHCC 202100Z 02009MPS 9999 OVC040 12/03 Q1018 NOSIG
ZHCC,2023-04-20 22:00,ZHCC 202200Z 02009MPS 9999 OVC040 12/02 Q1019 BECMG TL2240 SHRA FEW030CB BKN030
ZHCC,2023-04-20 23:00,ZHCC 202300Z 02006MPS 350V050 9999 SHRA FEW040CB BKN040 10/04 Q1020 NOSIG
ZHCC,2023-04-21 00:00,ZHCC 210000Z 03007MPS 9999 -SHRA BKN040 09/04 Q1021 RESHRA NOSIG
ZHCC,2023-04-21 01:00,ZHCC 210100Z 02006MPS 340V050 9999 -SHRA OVC040 10/03 Q1021 BECMG TL0130 SHRA
ZHCC,2023-04-21 02:00,ZHCC 210200Z 02005G10MPS 340V050 9999 -RA OVC046 10/03 Q1022 NOSIG
ZHCC,2023-04-21 03:00,ZHCC 210300Z 01006MPS 9999 -RA OVC046 09/05 Q1022 RERA NOSIG
ZHCC,2023-04-21 04:00,ZHCC 210400Z 02008MPS 9999 OVC046 11/04 Q1022 NOSIG
ZHCC,2023-04-21 05:00,ZHCC 210500Z 03007MPS 360V060 9999 OVC046 11/02 Q1021 NOSIG
ZHCC,2023-04-21 06:00,ZHCC 210600Z 03008G13MPS 350V050 9999 OVC046 11/03 Q1021 NOSIG
ZHCC,2023-04-21 07:00,ZHCC 210700Z 03007MPS 360V060 CAVOK 12/02 Q1020 NOSIG
ZHCC,2023-04-21 08:00,ZHCC 210800Z 03008MPS CAVOK 12/01 Q1019 NOSIG
ZHCC,2023-04-21 09:00,ZHCC 210900Z 03007MPS CAVOK 12/01 Q1019 NOSIG
ZHCC,2023-04-21 10:00,ZHCC 211000Z 03007MPS 360V060 CAVOK 12/04 Q1020 NOSIG
ZHCC,2023-04-21 11:00,ZHCC 211100Z 03007MPS CAVOK 11/04 Q1020 NOSIG
ZHCC,2023-04-21 12:00,ZHCC 211200Z 03005MPS 360V060 CAVOK 11/04 Q1021 NOSIG
ZHCC,2023-04-21 13:00,ZHCC 211300Z 03008G13MPS CAVOK 10/03 Q1021 NOSIG
ZHCC,2023-04-21 14:00,ZHCC 211400Z 02007MPS 360V060 CAVOK 09/02 Q1022 NOSIG
ZHCC,2023-04-21 15:00,ZHCC 211500Z 02006G11MPS 340V040 CAVOK 09/01 Q1022 NOSIG
ZHCC,2023-04-21 16:00,ZHCC 211600Z 03007MPS 360V060 CAVOK 09/01 Q1022 NOSIG
ZHCC,2023-04-21 17:00,ZHCC 211700Z 02007MPS 360V060 CAVOK 09/01 Q1022 NOSIG
ZHCC,2023-04-21 18:00,ZHCC 211800Z 02006MPS CAVOK 08/02 Q1022 NOSIG
ZHCC,2023-04-21 19:00,ZHCC 211900Z 01006G12MPS 340V040 9999 -RA NSC 08/03 Q1022 NOSIG
ZHCC,2023-04-21 20:00,ZHCC 212000Z 36005MPS 9999 -RA NSC 07/04 Q1022 NOSIG
ZHCC,2023-04-21 21:00,ZHCC 212100Z 01007MPS 9999 -RA SCT020 07/04 Q1023 NOSIG
ZHCC,2023-04-21 22:00,ZHCC 212200Z 01006MPS 340V050 9999 -RA SCT020 07/04 Q1023 NOSIG
ZHCC,2023-04-21 23:00,ZHCC 212300Z 02007MPS 350V050 9999 -RA SCT020 06/04 Q1023 NOSIG
ZHCC,2023-04-22 00:00,ZHCC 220000Z 02007MPS 340V050 9999 -RA SCT020 06/04 Q1024 NOSIG
ZHCC,2023-04-22 01:00,ZHCC 220100Z 02006MPS 9999 SCT015 OVC040 05/04 Q1025 NOSIG
ZHCC,2023-04-22 02:00,ZHCC 220200Z 01007MPS 7000 -RA SCT015 OVC040 05/03 Q1025 NOSIG
ZHCC,2023-04-22 03:00,ZHCC 220300Z 01005MPS 340V040 7000 -RA SCT015 OVC040 05/04 Q1025 NOSIG
ZHCC,2023-04-22 04:00,ZHCC 220400Z 36004MPS 7000 -RA SCT008 OVC033 05/04 Q1025 NOSIG
ZHCC,2023-04-22 05:00,ZHCC 220500Z 35005MPS 7000 -RA SCT010 OVC033 06/05 Q1024 NOSIG
ZHCC,2023-04-22 06:00,ZHCC 220600Z 36004MPS 330V030 8000 -RA FEW010 OVC033 06/05 Q1024 NOSIG
ZHCC,2023-04-22 07:00,ZHCC 220700Z 35006MPS 8000 -RA FEW010 OVC033 06/05 Q1023 RERA NOSIG
ZHCC,2023-04-22 08:00,ZHCC 220800Z 02004MPS 350V050 6000 -RA SCT010 OVC033 06/05 Q1023 BECMG TL0820 RA
ZHCC,2023-04-22 09:00,ZHCC 220900Z 01005MPS 8000 -RA SCT010 OVC033 06/05 Q1023 NOSIG
ZHCC,2023-04-22 10:00,ZHCC 221000Z 01005MPS 330V040 8000 -RA SCT010 OVC033 06/05 Q1023 NOSIG
ZHCC,2023-04-22 11:00,ZHCC 221100Z 02004MPS 340V050 8000 -RA SCT010 OVC033 06/04 Q1023 NOSIG
ZHCC,2023-04-22 12:00,ZHCC 221200Z 03004MPS 8000 -RA SCT010 OVC033 06/04 Q1024 NOSIG
ZHCC,2023-04-22 13:00,ZHCC 221300Z 36003MPS 8000 -RA SCT010 OVC033 06/05 Q1024 NOSIG
ZHCC,2023-04-22 14:00,ZHCC 221400Z 01003MPS 8000 -RA SCT010 OVC033 06/05 Q1024 NOSIG
ZHCC,2023-04-22 15:00,ZHCC 221500Z 36003MPS 8000 SCT010 OVC033 07/05 Q1025 NOSIG
ZHCC,2023-04-22 16:00,ZHCC 221600Z 01003MPS 340V050 8000 SCT010 OVC033 07/05 Q1025 NOSIG
ZHCC,2023-04-22 17:00,ZHCC 221700Z 01004MPS 8000 SCT010 OVC033 06/05 Q1024 NOSIG
ZHCC,2023-04-22 18:00,ZHCC 221800Z 01005MPS 340V040 8000 SCT010 OVC033 06/05 Q1024 NOSIG
ZHCC,2023-04-22 19:00,ZHCC 221900Z 01005MPS 6000 FEW010 OVC033 06/05 Q1025 NOSIG
ZHCC,2023-04-22 20:00,ZHCC 222000Z 36004MPS 6000 -RA SCT006 OVC033 06/05 Q1024 NOSIG
ZHCC,2023-04-22 21:00,ZHCC 222100Z 01004MPS 340V040 6000 SCT006 OVC033 06/05 Q1024 NOSIG
ZHCC,2023-04-22 22:00,ZHCC 222200Z VRB04G10MPS 5000 BR SCT006 OVC033 06/05 Q1024 NOSIG
ZHCC,2023-04-22 23:00,ZHCC 222300Z 03005G10MPS 360V080 5000 BR SCT006 OVC033 06/05 Q1025 NOSIG
ZHCC,2023-04-23 00:00,ZHCC 230000Z 03006MPS 350V050 3000 -RA BR SCT006 OVC033 06/05 Q1025 NOSIG
ZHCC,2023-04-23 01:00,ZHCC 230100Z 01004MPS 340V040 3000 -RA BR SCT006 OVC033 07/06 Q1026 NOSIG
ZHCC,2023-04-23 02:00,ZHCC 230200Z 01004MPS 340V050 3000 -RA BR SCT006 OVC033 07/06 Q1027 NOSIG
ZHCC,2023-04-23 03:00,ZHCC 230300Z 36004MPS 3000 -RA BR SCT006 OVC033 07/06 Q1027 NOSIG
ZHCC,2023-04-23 04:00,ZHCC 230400Z 01005MPS 340V040 4000 RA BR SCT006 OVC023 07/06 Q1026 BECMG TL0440 -RA
ZHCC,2023-04-23 05:00,ZHCC 230500Z 01006MPS 5000 -RA BR SCT007 OVC020 07/06 Q1026 RERA BECMG TL0620 RA
ZHCC,2023-04-23 06:00,ZHCC 230600Z 01006MPS 6000 -RA SCT007 OVC020 08/06 Q1025 NOSIG
ZHCC,2023-04-23 07:00,ZHCC 230700Z 36005MPS 340V040 7000 -RA SCT007 OVC020 08/07 Q1025 RERA NOSIG
ZHCC,2023-04-23 08:00,ZHCC 230800Z 02005MPS 350V050 9999 -RA SCT007 OVC020 08/07 Q1025 NOSIG
ZHCC,2023-04-23 09:00,ZHCC 230900Z 01005MPS 340V040 3000 -RA BR SCT005 OVC020 08/07 Q1025 NOSIG
ZHCC,2023-04-23 10:00,ZHCC 231000Z 01006G11MPS 3000 -RA BR SCT005 OVC020 07/07 Q1025 NOSIG
ZHCC,2023-04-23 11:00,ZHCC 231100Z 36006MPS 4000 -RA BR SCT006 OVC020 07/06 Q1026 NOSIG
ZHCC,2023-04-23 12:00,ZHCC 231200Z 02005MPS 5000 -RA BR SCT006 OVC020 08/07 Q1026 NOSIG
ZHCC,2023-04-23 13:00,ZHCC 231300Z 02004MPS 360V060 5000 -RA BR SCT006 OVC020 08/08 Q1028 BECMG TL1340 RA
ZHCC,2023-04-23 14:00,ZHCC 231400Z 02005MPS 5000 -RA BR SCT006 OVC020 08/08 Q1028 RERA NOSIG
ZHCC,2023-04-23 15:00,ZHCC 231500Z 03005MPS 6000 -RA SCT007 OVC020 08/07 Q1028 NOSIG
ZHCC,2023-04-23 16:00,ZHCC 231600Z 02004MPS 7000 -RA SCT007 OVC020 08/07 Q1028 NOSIG
ZHCC,2023-04-23 17:00,ZHCC 231700Z 01004MPS 7000 -RA SCT007 OVC020 08/07 Q1028 NOSIG
ZHCC,2023-04-23 18:00,ZHCC 231800Z 01005MPS 6000 -RA SCT007 OVC020 07/06 Q1027 NOSIG
ZHCC,2023-04-23 19:00,ZHCC 231900Z 36004MPS 5000 -RA BR SCT007 OVC020 07/06 Q1028 NOSIG
ZHCC,2023-04-23 20:00,ZHCC 232000Z 01003MPS 340V040 4000 -RA BR SCT005 OVC020 07/07 Q1028 NOSIG
ZHCC,2023-04-23 21:00,ZHCC 232100Z 02004MPS 350V050 4000 -RA BR SCT004 OVC020 07/07 Q1028 NOSIG
ZHCC,2023-04-23 22:00,ZHCC 232200Z 02004MPS 3000 -RA BR SCT004 OVC020 07/07 Q1028 NOSIG
ZHCC,2023-04-23 23:00,ZHCC 232300Z 03004MPS 4000 -RA BR SCT006 OVC020 08/07 Q1029 NOSIG
ZHCC,2023-04-24 00:00,ZHCC 240000Z 03005MPS 3000 -RA BR SCT007 OVC020 08/07 Q1029 NOSIG
ZHCC,2023-04-24 01:00,ZHCC 240100Z 03004MPS 3500 BR SCT007 OVC020 08/07 Q1029 NOSIG
ZHCC,2023-04-24 02:00,ZHCC 240200Z 02004MPS 4000 BR SCT008 OVC020 09/08 Q1029 NOSIG
ZHCC,2023-04-24 03:00,ZHCC 240300Z 02004MPS 360V060 6000 SCT010 OVC030 09/08 Q1029 NOSIG
ZHCC,2023-04-24 04:00,ZHCC 240400Z 04003MPS 7000 SCT010 OVC030 10/07 Q1028 NOSIG
ZHCC,2023-04-24 05:00,ZHCC 240500Z 03003MPS 360V060 7000 SCT010 OVC030 10/08 Q1028 NOSIG
ZHCC,2023-04-24 06:00,ZHCC 240600Z 03003MPS 360V060 7000 SCT010 OVC030 10/07 Q1026 NOSIG
ZHCC,2023-04-24 07:00,ZHCC 240700Z 01003MPS 330V060 7000 SCT013 OVC040 11/08 Q1026 NOSIG
ZHCC,2023-04-24 08:00,ZHCC 240800Z 36004MPS 7000 SCT013 OVC040 10/07 Q1025 NOSIG
ZHCC,2023-04-24 09:00,ZHCC 240900Z 34003MPS 6000 -RA SCT013 OVC040 10/08 Q1025 NOSIG
ZHCC,2023-04-24 10:00,ZHCC 241000Z 35003MPS 6000 SCT013 OVC040 10/08 Q1025 NOSIG
ZHCC,2023-04-24 11:00,ZHCC 241100Z 34003MPS 5000 BR SCT013 OVC040 10/08 Q1025 NOSIG
ZHCC,2023-04-24 12:00,ZHCC 241200Z 33003MPS 5000 -RA BR SCT013 OVC040 09/08 Q1025 NOSIG
ZHCC,2023-04-24 13:00,ZHCC 241300Z 34003MPS 5000 BR FEW013 OVC040 09/07 Q1025 NOSIG
ZHCC,2023-04-24 14:00,ZHCC 241400Z 32002MPS 290V350 5000 BR FEW013 OVC040 09/07 Q1025 NOSIG
ZHCC,2023-04-24 15:00,ZHCC 241500Z 24001MPS 5000 BR OVC040 09/08 Q1024 NOSIG
ZHCC,2023-04-24 16:00,ZHCC 241600Z 25002MPS 5000 BR OVC040 09/08 Q1024 NOSIG
ZHCC,2023-04-24 17:00,ZHCC 241700Z 25002MPS 5000 BR OVC040 08/07 Q1023 NOSIG
ZHCC,2023-04-24 18:00,ZHCC 241800Z VRB01MPS 5000 BR OVC040 08/07 Q1022 NOSIG
ZHCC,2023-04-24 19:00,ZHCC 241900Z 26001MPS 5000 BR OVC040 08/07 Q1021 NOSIG
ZHCC,2023-04-24 20:00,ZHCC 242000Z 22002MPS 200V260 5000 BR NSC 08/07 Q1020 NOSIG
ZHCC,2023-04-24 21:00,ZHCC 242100Z 23002MPS 6000 NSC 08/06 Q1019 NOSIG
ZHCC,2023-04-24 22:00,ZHCC 242200Z 23002MPS 200V260 5000 BR NSC 08/06 Q1019 NOSIG
ZHCC,2023-04-24 23:00,ZHCC 242300Z 25003MPS 220V280 8000 NSC 09/06 Q1019 NOSIG
ZHCC,2023-04-25 00:00,ZHCC 250000Z 26005MPS CAVOK 11/06 Q1018 NOSIG
ZHCC,2023-04-25 01:00,ZHCC 250100Z 28008G13MPS CAVOK 14/06 Q1018 NOSIG
ZHCC,2023-04-25 02:00,ZHCC 250200Z 27008MPS CAVOK 15/06 Q1017 NOSIG
ZHCC,2023-04-25 03:00,ZHCC 250300Z 29007MPS 260V320 CAVOK 17/06 Q1017 NOSIG
ZHCC,2023-04-25 04:00,ZHCC 250400Z 30006MPS 260V320 CAVOK 18/06 Q1017 NOSIG
ZHCC,2023-04-25 05:00,ZHCC 250500Z 32005MPS 290V350 CAVOK 19/05 Q1016 NOSIG
ZHCC,2023-04-25 06:00,ZHCC 250600Z 29005MPS 240V330 CAVOK 20/06 Q1015 NOSIG
ZHCC,2023-04-25 07:00,ZHCC 250700Z 28005MPS CAVOK 21/07 Q1014 NOSIG
ZHCC,2023-04-25 08:00,ZHCC 250800Z 26005MPS 230V290 CAVOK 21/07 Q1013 NOSIG
ZHCC,2023-04-25 09:00,ZHCC 250900Z 28003MPS 230V320 CAVOK 22/07 Q1013 NOSIG
ZHCC,2023-04-25 10:00,ZHCC 251000Z 29003MPS CAVOK 22/07 Q1013 NOSIG
ZHCC,2023-04-25 11:00,ZHCC 251100Z 26002MPS CAVOK 19/07 Q1014 NOSIG
ZHCC,2023-04-25 12:00,ZHCC 251200Z 20001MPS CAVOK 14/08 Q1014 NOSIG
ZHCC,2023-04-25 13:00,ZHCC 251300Z 13002MPS 090V170 CAVOK 16/08 Q1015 NOSIG
ZHCC,2023-04-25 14:00,ZHCC 251400Z VRB01MPS CAVOK 13/08 Q1016 NOSIG
ZHCC,2023-04-25 15:00,ZHCC 251500Z 23002MPS 170V310 CAVOK 13/08 Q1016 NOSIG
ZHCC,2023-04-25 16:00,ZHCC 251600Z 00000MPS CAVOK 10/08 Q1016 NOSIG
ZHCC,2023-04-25 17:00,ZHCC 251700Z VRB01MPS CAVOK 08/07 Q1016 NOSIG
ZHCC,2023-04-25 18:00,ZHCC 251800Z VRB01MPS CAVOK 09/07 Q1016 NOSIG
ZHCC,2023-04-25 19:00,ZHCC 251900Z VRB01MPS CAVOK 07/06 Q1015 NOSIG
ZHCC,2023-04-25 20:00,ZHCC 252000Z 26001MPS CAVOK 07/06 Q1015 NOSIG
ZHCC,2023-04-25 21:00,ZHCC 252100Z 28001MPS CAVOK 08/07 Q1016 NOSIG
ZHCC,2023-04-25 22:00,ZHCC 252200Z 30002MPS CAVOK 10/07 Q1016 NOSIG
ZHCC,2023-04-25 23:00,ZHCC 252300Z 36002MPS 320V030 5000 HZ NSC 14/10 Q1017 NOSIG
ZHCC,2023-04-26 00:00,ZHCC 260000Z 01004MPS 5000 HZ NSC 15/10 Q1017 NOSIG
ZHCC,2023-04-26 01:00,ZHCC 260100Z 05002MPS 350V090 5000 HZ NSC 17/10 Q1018 NOSIG
ZHCC,2023-04-26 02:00,ZHCC 260200Z 09002MPS 040V140 5000 HZ NSC 19/10 Q1018 NOSIG
ZHCC,2023-04-26 03:00,ZHCC 260300Z VRB01MPS 5000 HZ NSC 20/10 Q1017 NOSIG
ZHCC,2023-04-26 04:00,ZHCC 260400Z VRB02MPS 7000 NSC 22/09 Q1017 NOSIG
ZHCC,2023-04-26 05:00,ZHCC 260500Z 17003MPS 090V220 CAVOK 23/09 Q1015 NOSIG
ZHCC,2023-04-26 06:00,ZHCC 260600Z 15004MPS 100V220 CAVOK 24/10 Q1014 NOSIG
ZHCC,2023-04-26 07:00,ZHCC 260700Z VRB03MPS CAVOK 24/11 Q1013 NOSIG
ZHCC,2023-04-26 08:00,ZHCC 260800Z 19004G09MPS 140V220 CAVOK 24/10 Q1012 NOSIG
ZHCC,2023-04-26 09:00,ZHCC 260900Z 16004MPS 120V200 CAVOK 24/11 Q1012 NOSIG
ZHCC,2023-04-26 10:00,ZHCC 261000Z 17003MPS 110V210 CAVOK 23/11 Q1012 NOSIG
ZHCC,2023-04-26 11:00,ZHCC 261100Z 15003MPS 090V200 CAVOK 21/12 Q1012 NOSIG
ZHCC,2023-04-26 12:00,ZHCC 261200Z 15003MPS 080V190 CAVOK 20/11 Q1012 NOSIG
ZHCC,2023-04-26 13:00,ZHCC 261300Z 15004MPS 110V200 CAVOK 19/11 Q1012 NOSIG
ZHCC,2023-04-26 14:00,ZHCC 261400Z 16004MPS 100V210 CAVOK 19/10 Q1013 NOSIG
ZHCC,2023-04-26 15:00,ZHCC 261500Z 15002MPS 080V210 CAVOK 18/10 Q1013 NOSIG
ZHCC,2023-04-26 16:00,ZHCC 261600Z VRB01MPS CAVOK 16/10 Q1013 NOSIG
ZHCC,2023-04-26 17:00,ZHCC 261700Z 15002MPS 100V210 CAVOK 16/10 Q1013 NOSIG
ZHCC,2023-04-26 18:00,ZHCC 261800Z VRB01MPS CAVOK 15/10 Q1012 NOSIG
ZHCC,2023-04-26 19:00,ZHCC 261900Z VRB01MPS CAVOK 14/10 Q1012 NOSIG
ZHCC,2023-04-26 20:00,ZHCC 262000Z VRB01MPS CAVOK 13/10 Q1012 NOSIG
ZHCC,2023-04-26 21:00,ZHCC 262100Z 13001MPS CAVOK 12/10 Q1012 NOSIG
ZHCC,2023-04-26 22:00,ZHCC 262200Z VRB01MPS 8000 NSC 12/10 Q1011 NOSIG
ZHCC,2023-04-26 23:00,ZHCC 262300Z VRB02MPS 8000 NSC 14/11 Q1012 NOSIG
ZHCC,2023-04-27 00:00,ZHCC 270000Z 17003MPS 110V230 CAVOK 16/10 Q1012 NOSIG
ZHCC,2023-04-27 01:00,ZHCC 270100Z 20003MPS 140V270 CAVOK 19/11 Q1013 NOSIG
ZHCC,2023-04-27 02:00,ZHCC 270200Z 19004MPS 140V220 CAVOK 21/11 Q1012 NOSIG
ZHCC,2023-04-27 03:00,ZHCC 270300Z 19005MPS 130V230 CAVOK 22/10 Q1011 NOSIG
ZHCC,2023-04-27 04:00,ZHCC 270400Z 18004MPS 120V230 CAVOK 23/11 Q1011 NOSIG
ZHCC,2023-04-27 05:00,ZHCC 270500Z 20005MPS 150V240 CAVOK 24/11 Q1010 NOSIG
ZHCC,2023-04-27 06:00,ZHCC 270600Z 17005MPS 130V220 CAVOK 24/12 Q1009 NOSIG
ZHCC,2023-04-27 07:00,ZHCC 270700Z 18003MPS 100V230 CAVOK 25/12 Q1008 NOSIG
ZHCC,2023-04-27 08:00,ZHCC 270800Z 19004MPS 140V240 CAVOK 25/13 Q1008 NOSIG
ZHCC,2023-04-27 09:00,ZHCC 270900Z 15003G08MPS 090V210 CAVOK 25/13 Q1008 NOSIG
ZHCC,2023-04-27 10:00,ZHCC 271000Z 14004MPS 100V180 CAVOK 23/14 Q1008 NOSIG
ZHCC,2023-04-27 11:00,ZHCC 271100Z 14003MPS 100V190 CAVOK 22/13 Q1008 NOSIG
ZHCC,2023-04-27 12:00,ZHCC 271200Z 13003MPS 090V180 CAVOK 21/13 Q1009 NOSIG
ZHCC,2023-04-27 13:00,ZHCC 271300Z 16002MPS 110V200 CAVOK 20/12 Q1010 NOSIG
ZHCC,2023-04-27 14:00,ZHCC 271400Z 15002MPS 090V230 CAVOK 19/12 Q1010 NOSIG
ZHCC,2023-04-27 15:00,ZHCC 271500Z 19003MPS 130V220 CAVOK 19/11 Q1010 NOSIG
ZHCC,2023-04-27 16:00,ZHCC 271600Z 20002MPS 170V230 CAVOK 18/11 Q1011 NOSIG
ZHCC,2023-04-27 17:00,ZHCC 271700Z 18002MPS 140V230 CAVOK 18/12 Q1010 NOSIG
ZHCC,2023-04-27 18:00,ZHCC 271800Z 19002MPS 150V230 CAVOK 18/12 Q1010 NOSIG
ZHCC,2023-04-27 19:00,ZHCC 271900Z 22002MPS 190V260 CAVOK 17/12 Q1011 NOSIG
ZHCC,2023-04-27 20:00,ZHCC 272000Z 21002MPS CAVOK 17/12 Q1011 NOSIG
ZHCC,2023-04-27 21:00,ZHCC 272100Z 33002MPS 280V350 CAVOK 17/12 Q1011 NOSIG
ZHCC,2023-04-27 22:00,ZHCC 272200Z 02007G12MPS 330V050 6000 NSC 16/13 Q1012 NOSIG
ZHCC,2023-04-27 23:00,ZHCC 272300Z 02005MPS 7000 NSC 17/12 Q1013 NOSIG
ZHCC,2023-04-28 00:00,ZHCC 280000Z 36004MPS 9999 BKN040 17/12 Q1015 NOSIG
ZHCC,2023-04-28 01:00,ZHCC 280100Z 32004MPS 9999 -RA SCT015 OVC040 16/12 Q1016 NOSIG
ZHCC,2023-04-28 02:00,ZHCC 280200Z 30002MPS 9999 -RA SCT015 OVC040 16/13 Q1016 NOSIG
ZHCC,2023-04-28 03:00,ZHCC 280300Z 32002MPS 280V360 9999 -RA OVC040 16/13 Q1015 NOSIG
ZHCC,2023-04-28 04:00,ZHCC 280400Z 28002MPS 220V320 9999 -RA OVC040 17/13 Q1016 NOSIG
ZHCC,2023-04-28 05:00,ZHCC 280500Z 25002MPS 200V290 9999 -RA NSC 18/14 Q1015 NOSIG
ZHCC,2023-04-28 06:00,ZHCC 280600Z VRB01MPS CAVOK 20/14 Q1014 NOSIG
ZHCC,2023-04-28 07:00,ZHCC 280700Z 19002MPS 130V240 CAVOK 22/14 Q1013 NOSIG
ZHCC,2023-04-28 08:00,ZHCC 280800Z 27006MPS CAVOK 23/07 Q1013 NOSIG
ZHCC,2023-04-28 09:00,ZHCC 280900Z 26004MPS CAVOK 22/06 Q1012 NOSIG
ZHCC,2023-04-28 10:00,ZHCC 281000Z 25003MPS CAVOK 21/08 Q1013 NOSIG
ZHCC,2023-04-28 11:00,ZHCC 281100Z 29009G14MPS 250V310 CAVOK 21/01 Q1014 NOSIG
ZHCC,2023-04-28 12:00,ZHCC 281200Z 30011MPS 6000 NSC 20/M08 Q1016 NOSIG
ZHCC,2023-04-28 13:00,ZHCC 281300Z 30011G17MPS 5000 SA NSC 19/M08 Q1017 NOSIG
ZHCC,2023-04-28 14:00,ZHCC 281400Z 30011MPS 6000 NSC 18/M06 Q1018 NOSIG
ZHCC,2023-04-28 15:00,ZHCC 281500Z 29014G20MPS 8000 NSC 17/M06 Q1018 NOSIG
ZHCC,2023-04-28 16:00,ZHCC 281600Z 30010G16MPS 8000 NSC 17/M06 Q1019 NOSIG
ZHCC,2023-04-28 17:00,ZHCC 281700Z 30010MPS 8000 NSC 16/M06 Q1018 NOSIG
ZHCC,2023-04-28 18:00,ZHCC 281800Z 30008G13MPS CAVOK 16/M06 Q1018 NOSIG
ZHCC,2023-04-28 19:00,ZHCC 281900Z 31006MPS CAVOK 15/M06 Q1018 NOSIG
ZHCC,2023-04-28 20:00,ZHCC 282000Z 30005MPS CAVOK 14/M05 Q1018 NOSIG
ZHCC,2023-04-28 21:00,ZHCC 282100Z 27003MPS 230V290 CAVOK 13/M04 Q1018 NOSIG
ZHCC,2023-04-28 22:00,ZHCC 282200Z 29005MPS CAVOK 13/M04 Q1018 NOSIG
ZHCC,2023-04-28 23:00,ZHCC 282300Z 30005MPS CAVOK 15/M04 Q1019 NOSIG
ZHCC,2023-04-29 00:00,ZHCC 290000Z 26004MPS CAVOK 16/M03 Q1020 NOSIG
ZHCC,2023-04-29 01:00,ZHCC 290100Z 28007MPS CAVOK 18/M04 Q1020 NOSIG
ZHCC,2023-04-29 02:00,ZHCC 290200Z 30006MPS CAVOK 19/M04 Q1019 NOSIG
ZHCC,2023-04-29 03:00,ZHCC 290300Z 29005MPS 250V320 CAVOK 20/M03 Q1019 NOSIG
ZHCC,2023-04-29 04:00,ZHCC 290400Z 29005MPS 220V330 CAVOK 22/M03 Q1018 NOSIG
ZHCC,2023-04-29 05:00,ZHCC 290500Z 30004MPS 260V330 CAVOK 22/M04 Q1017 NOSIG
ZHCC,2023-04-29 06:00,ZHCC 290600Z 27004MPS 230V300 CAVOK 23/M04 Q1015 NOSIG
ZHCC,2023-04-29 07:00,ZHCC 290700Z 27003MPS 220V300 CAVOK 23/M02 Q1014 NOSIG
ZHCC,2023-04-29 08:00,ZHCC 290800Z 25005MPS 220V280 CAVOK 24/M04 Q1013 NOSIG
ZHCC,2023-04-29 09:00,ZHCC 290900Z 22004MPS 190V260 CAVOK 23/M03 Q1013 NOSIG
ZHCC,2023-04-29 10:00,ZHCC 291000Z 19004MPS 140V220 CAVOK 22/00 Q1012 NOSIG
ZHCC,2023-04-29 11:00,ZHCC 291100Z 19002MPS 150V230 CAVOK 21/01 Q1013 NOSIG
ZHCC,2023-04-29 12:00,ZHCC 291200Z 20003MPS 160V240 CAVOK 20/M00 Q1013 NOSIG
ZHCC,2023-04-29 13:00,ZHCC 291300Z 21002MPS 180V250 CAVOK 19/01 Q1013 NOSIG
ZHCC,2023-04-29 14:00,ZHCC 291400Z 22003MPS CAVOK 19/01 Q1014 NOSIG
ZHCC,2023-04-29 15:00,ZHCC 291500Z 22003MPS 180V250 CAVOK 18/01 Q1014 NOSIG
ZHCC,2023-04-29 16:00,ZHCC 291600Z 22002MPS 180V250 CAVOK 17/01 Q1013 NOSIG
ZHCC,2023-04-29 17:00,ZHCC 291700Z VRB01MPS CAVOK 15/02 Q1012 NOSIG
ZHCC,2023-04-29 18:00,ZHCC 291800Z 24003MPS CAVOK 15/02 Q1011 NOSIG
ZHCC,2023-04-29 19:00,ZHCC 291900Z 25003MPS CAVOK 14/02 Q1011 NOSIG
ZHCC,2023-04-29 20:00,ZHCC 292000Z 25003MPS CAVOK 15/02 Q1010 NOSIG
ZHCC,2023-04-29 21:00,ZHCC 292100Z 27002MPS CAVOK 12/02 Q1010 NOSIG
ZHCC,2023-04-29 22:00,ZHCC 292200Z 26003MPS CAVOK 12/03 Q1011 NOSIG
ZHCC,2023-04-29 23:00,ZHCC 292300Z 27002MPS 240V300 CAVOK 16/04 Q1011 NOSIG
ZHCC,2023-04-30 00:00,ZHCC 300000Z 25003MPS 220V280 CAVOK 19/03 Q1012 NOSIG
ZHCC,2023-04-30 01:00,ZHCC 300100Z 26003MPS 220V300 CAVOK 22/05 Q1012 NOSIG
ZHCC,2023-04-30 02:00,ZHCC 300200Z 27002MPS 210V340 CAVOK 24/05 Q1012 NOSIG
ZHCC,2023-04-30 03:00,ZHCC 300300Z 28003MPS 220V320 CAVOK 27/04 Q1012 NOSIG
ZHCC,2023-04-30 04:00,ZHCC 300400Z 30005MPS 260V340 CAVOK 29/M01 Q1012 NOSIG
ZHCC,2023-04-30 05:00,ZHCC 300500Z 32005MPS 290V360 CAVOK 29/M04 Q1011 NOSIG
ZHCC,2023-04-30 06:00,ZHCC 300600Z 07002MPS 010V140 CAVOK 28/07 Q1011 NOSIG
ZHCC,2023-04-30 07:00,ZHCC 300700Z 07004MPS 040V100 CAVOK 28/06 Q1011 NOSIG
ZHCC,2023-04-30 08:00,ZHCC 300800Z 08005MPS CAVOK 27/06 Q1010 NOSIG
ZHCC,2023-04-30 09:00,ZHCC 300900Z 09004MPS CAVOK 27/07 Q1010 NOSIG
ZHCC,2023-04-30 10:00,ZHCC 301000Z 10007MPS CAVOK 25/07 Q1010 NOSIG
ZHCC,2023-04-30 11:00,ZHCC 301100Z 12002MPS CAVOK 22/09 Q1011 NOSIG
ZHCC,2023-04-30 12:00,ZHCC 301200Z 12003MPS CAVOK 20/09 Q1012 NOSIG
ZHCC,2023-04-30 13:00,ZHCC 301300Z 12003MPS CAVOK 20/09 Q1012 NOSIG
ZHCC,2023-04-30 14:00,ZHCC 301400Z 14002MPS 100V170 CAVOK 19/08 Q1013 NOSIG
ZHCC,2023-04-30 15:00,ZHCC 301500Z 14003MPS 100V190 CAVOK 19/08 Q1013 NOSIG
ZHCC,2023-04-30 16:00,ZHCC 301600Z VRB01MPS CAVOK 17/08 Q1013 NOSIG
ZHCC,2023-04-30 17:00,ZHCC 301700Z VRB01MPS CAVOK 18/09 Q1012 NOSIG
ZHCC,2023-04-30 18:00,ZHCC 301800Z VRB01MPS CAVOK 13/10 Q1012 NOSIG
ZHCC,2023-04-30 19:00,ZHCC 301900Z VRB01MPS CAVOK 14/09 Q1012 NOSIG
ZHCC,2023-04-30 20:00,ZHCC 302000Z 18002MPS 110V250 CAVOK 16/09 Q1011 NOSIG
ZHCC,2023-04-30 21:00,ZHCC 302100Z 18002MPS 110V260 CAVOK 17/09 Q1011 NOSIG
ZHCC,2023-04-30 22:00,ZHCC 302200Z VRB01MPS CAVOK 15/09 Q1012 NOSIG
ZHCC,2023-04-30 23:00,ZHCC 302300Z VRB02MPS CAVOK 18/10 Q1013 NOSIG
ZHCC,2023-05-01 00:00,ZHCC 010000Z 17002MPS 110V230 CAVOK 20/10 Q1013 NOSIG
ZHCC,2023-05-01 01:00,ZHCC 010100Z VRB03MPS CAVOK 22/11 Q1014 NOSIG
ZHCC,2023-05-01 02:00,ZHCC 010200Z 18004MPS 130V240 CAVOK 24/11 Q1013 NOSIG
ZHCC,2023-05-01 03:00,ZHCC 010300Z 18004G09MPS 110V220 CAVOK 26/09 Q1013 NOSIG
ZHCC,2023-05-01 04:00,ZHCC 010400Z 19005G10MPS 110V230 CAVOK 28/08 Q1012 NOSIG
ZHCC,2023-05-01 05:00,ZHCC 010500Z VRB05G10MPS CAVOK 28/07 Q1011 NOSIG
ZHCC,2023-05-01 06:00,ZHCC 010600Z 17005G10MPS 110V220 CAVOK 29/08 Q1011 NOSIG
ZHCC,2023-05-01 07:00,ZHCC 010700Z 14006MPS 110V190 CAVOK 28/08 Q1010 NOSIG
ZHCC,2023-05-01 08:00,ZHCC 010800Z 15006G11MPS 120V200 CAVOK 28/07 Q1009 NOSIG
ZHCC,2023-05-01 09:00,ZHCC 010900Z 15005MPS 110V200 CAVOK 27/09 Q1009 NOSIG
ZHCC,2023-05-01 10:00,ZHCC 011000Z 15004MPS 110V210 CAVOK 26/09 Q1009 NOSIG
ZHCC,2023-05-01 11:00,ZHCC 011100Z 15003MPS 110V220 CAVOK 25/10 Q1009 NOSIG
ZHCC,2023-05-01 12:00,ZHCC 011200Z 14003MPS 110V180 CAVOK 23/09 Q1010 NOSIG
ZHCC,2023-05-01 13:00,ZHCC 011300Z 15003MPS 100V190 CAVOK 23/09 Q1011 NOSIG
ZHCC,2023-05-01 14:00,ZHCC 011400Z 14003MPS 100V190 CAVOK 22/09 Q1011 NOSIG
ZHCC,2023-05-01 15:00,ZHCC 011500Z VRB01MPS CAVOK 21/09 Q1011 NOSIG
ZHCC,2023-05-01 16:00,ZHCC 011600Z 19002MPS 130V230 CAVOK 20/09 Q1011 NOSIG
ZHCC,2023-05-01 17:00,ZHCC 011700Z 20003MPS 160V220 CAVOK 20/08 Q1010 NOSIG
ZHCC,2023-05-01 18:00,ZHCC 011800Z VRB02MPS CAVOK 19/08 Q1010 NOSIG
ZHCC,2023-05-01 19:00,ZHCC 011900Z 13002MPS CAVOK 17/08 Q1010 NOSIG
ZHCC,2023-05-01 20:00,ZHCC 012000Z 00000MPS CAVOK 16/07 Q1010 NOSIG
ZHCC,2023-05-01 21:00,ZHCC 012100Z VRB01MPS CAVOK 15/08 Q1010 NOSIG
ZHCC,2023-05-01 22:00,ZHCC 012200Z 09002MPS CAVOK 14/08 Q1010 NOSIG
ZHCC,2023-05-01 23:00,ZHCC 012300Z VRB01MPS CAVOK 16/08 Q1010 NOSIG
ZHCC,2023-05-02 00:00,ZHCC 020000Z 12002MPS CAVOK 18/07 Q1010 NOSIG
ZHCC,2023-05-02 01:00,ZHCC 020100Z 13002MPS CAVOK 19/07 Q1010 NOSIG
ZHCC,2023-05-02 02:00,ZHCC 020200Z 13002MPS 100V170 CAVOK 21/07 Q1011 NOSIG
ZHCC,2023-05-02 03:00,ZHCC 020300Z 16002MPS 110V220 CAVOK 24/08 Q1011 NOSIG
ZHCC,2023-05-02 04:00,ZHCC 020400Z 16003MPS 100V220 CAVOK 26/09 Q1010 NOSIG
ZHCC,2023-05-02 05:00,ZHCC 020500Z 16003MPS 110V210 CAVOK 27/10 Q1009 NOSIG
ZHCC,2023-05-02 06:00,ZHCC 020600Z 17003MPS 120V210 CAVOK 28/11 Q1008 NOSIG
ZHCC,2023-05-02 07:00,ZHCC 020700Z 14003MPS 110V180 CAVOK 27/11 Q1008 NOSIG
ZHCC,2023-05-02 08:00,ZHCC 020800Z 14003MPS 110V180 CAVOK 27/13 Q1008 NOSIG
ZHCC,2023-05-02 09:00,ZHCC 020900Z 16003MPS 090V210 CAVOK 27/13 Q1008 NOSIG
ZHCC,2023-05-02 10:00,ZHCC 021000Z 14004MPS 100V180 CAVOK 25/14 Q1008 NOSIG
ZHCC,2023-05-02 11:00,ZHCC 021100Z 16003MPS 110V230 CAVOK 24/14 Q1008 NOSIG
ZHCC,2023-05-02 12:00,ZHCC 021200Z 14003MPS 110V190 CAVOK 23/13 Q1009 NOSIG
ZHCC,2023-05-02 13:00,ZHCC 021300Z 14002MPS 110V200 CAVOK 22/14 Q1009 NOSIG
ZHCC,2023-05-02 14:00,ZHCC 021400Z 14002MPS 100V200 CAVOK 22/14 Q1009 NOSIG
ZHCC,2023-05-02 15:00,ZHCC 021500Z 13002MPS 100V170 CAVOK 22/15 Q1009 NOSIG
ZHCC,2023-05-02 16:00,ZHCC 021600Z 13002MPS 110V180 CAVOK 22/15 Q1010 NOSIG
ZHCC,2023-05-02 17:00,ZHCC 021700Z 14002MPS 090V220 CAVOK 21/17 Q1009 NOSIG
ZHCC,2023-05-02 18:00,ZHCC 021800Z 12002MPS CAVOK 21/17 Q1009 NOSIG
ZHCC,2023-05-02 19:00,ZHCC 021900Z 14002MPS 100V180 8000 FEW030CB BKN040 21/17 Q1008 NOSIG
ZHCC,2023-05-02 20:00,ZHCC 022000Z 14002MPS 110V180 5000 SHRA BR FEW030CB BKN040 19/18 Q1008 BECMG TL2120 -SHRA
ZHCC,2023-05-02 21:00,ZHCC 022100Z 13002MPS 100V170 4800 -RA BR SCT006 OVC020 19/18 Q1008 RESHRA NOSIG
ZHCC,2023-05-02 22:00,ZHCC 022200Z 11003MPS 4000 -RA BR SCT006 OVC020 19/18 Q1008 NOSIG
ZHCC,2023-05-02 23:00,ZHCC 022300Z 11004MPS 2000 BR SCT006 OVC020 19/18 Q1008 NOSIG
ZHCC,2023-05-03 00:00,ZHCC 030000Z 11004MPS 2000 BR SCT006 OVC020 19/18 Q1009 BECMG TL0040 1400 RA BR
ZHCC,2023-05-03 01:00,ZHCC 030100Z 11003MPS 2000 -RA BR SCT006 OVC020 19/19 Q1009 NOSIG
ZHCC,2023-05-03 02:00,ZHCC 030200Z 08005MPS 2500 -RA BR SCT006 OVC020 19/18 Q1008 RERA BECMG TL0240 3000
ZHCC,2023-05-03 03:00,ZHCC 030300Z 08005MPS 3000 RA BR SCT006 OVC020 19/18 Q1008 BECMG TL0340 2500 -RA
ZHCC,2023-05-03 04:00,ZHCC 030400Z 08004MPS 4000 -RA BR SCT006 OVC020 19/19 Q1007 RERA NOSIG
ZHCC,2023-05-03 05:00,ZHCC 030500Z 07006MPS 4000 SHRA BR SCT006 FEW020CB BKN026 20/19 Q1007 RERA BECMG TL0640 -SHRA
ZHCC,2023-05-03 06:00,ZHCC 030600Z 07006MPS 9999 -SHRA SCT006 FEW020CB BKN026 19/19 Q1006 RESHRA BECMG TL0740 2000 TSRA
ZHCC,2023-05-03 07:00,ZHCC 030700Z 07005MPS 6000 -SHRA SCT006 FEW020CB BKN026 19/19 Q1005 BECMG TL0740 2000 TSRA
ZHCC,2023-05-03 08:00,ZHCC 030800Z 06005MPS 4000 SHRA BR SCT006 FEW020CB BKN026 19/19 Q1005 BECMG TL0940 -SHRA
ZHCC,2023-05-03 09:00,ZHCC 030900Z 06006MPS 7000 SHRA SCT006 FEW020CB BKN026 18/18 Q1005 BECMG TL1020 -SHRA
ZHCC,2023-05-03 10:00,ZHCC 031000Z 06005MPS 7000 -SHRA SCT006 FEW020CB BKN026 18/18 Q1005 RESHRA NOSIG
ZHCC,2023-05-03 11:00,ZHCC 031100Z 06004MPS 8000 -SHRA SCT006 FEW020CB BKN026 18/18 Q1005 NOSIG
ZHCC,2023-05-03 12:00,ZHCC 031200Z 05004MPS 8000 -SHRA SCT006 FEW020CB BKN026 19/18 Q1005 BECMG TL1320 SHRA
ZHCC,2023-05-03 13:00,ZHCC 031300Z 04004MPS 5000 SHRA BR SCT006 FEW020CB BKN026 19/18 Q1006 NOSIG
ZHCC,2023-05-03 14:00,ZHCC 031400Z 04003MPS 5000 SHRA BR SCT005 FEW020CB BKN026 19/18 Q1006 NOSIG
ZHCC,2023-05-03 15:00,ZHCC 031500Z 03004MPS 5000 -SHRA BR SCT005 FEW020CB BKN026 19/18 Q1005 RESHRA BECMG TL1540 SHRA
ZHCC,2023-05-03 16:00,ZHCC 031600Z 03004MPS 8000 -SHRA SCT005 FEW020CB BKN026 19/18 Q1005 RESHRA NOSIG
ZHCC,2023-05-03 17:00,ZHCC 031700Z 01003MPS 340V050 5000 -SHRA BR SCT005 FEW020CB BKN026 19/18 Q1005 NOSIG
ZHCC,2023-05-03 18:00,ZHCC 031800Z 02003MPS 340V070 5000 -SHRA BR SCT005 FEW020CB BKN026 19/18 Q1004 NOSIG
ZHCC,2023-05-03 19:00,ZHCC 031900Z 01004MPS 350V050 9999 -RA SCT006 OVC026 19/18 Q1003 NOSIG
ZHCC,2023-05-03 20:00,ZHCC 032000Z 01004MPS 330V040 5000 -RA BR SCT006 OVC026 18/17 Q1004 NOSIG
ZHCC,2023-05-03 21:00,ZHCC 032100Z 36004MPS 320V030 9999 -RA SCT006 OVC026 18/18 Q1004 NOSIG
ZHCC,2023-05-03 22:00,ZHCC 032200Z 01004MPS 9999 -RA SCT006 OVC026 18/17 Q1004 NOSIG
ZHCC,2023-05-03 23:00,ZHCC 032300Z 01004MPS 7000 -RA SCT007 OVC026 18/18 Q1005 NOSIG
ZHCC,2023-05-04 00:00,ZHCC 040000Z 01005MPS 340V040 7000 SCT007 OVC026 18/17 Q1005 NOSIG
ZHCC,2023-05-04 01:00,ZHCC 040100Z 01005MPS 340V040 7000 SCT007 OVC026 18/17 Q1005 NOSIG
ZHCC,2023-05-04 02:00,ZHCC 040200Z 01005MPS 340V040 4000 BR SCT007 OVC026 19/17 Q1005 NOSIG
ZHCC,2023-05-04 03:00,ZHCC 040300Z 01004MPS 340V040 4000 BR SCT007 OVC026 20/18 Q1005 NOSIG
ZHCC,2023-05-04 04:00,ZHCC 040400Z 36004MPS 5000 BR SCT007 OVC026 20/18 Q1005 NOSIG
ZHCC,2023-05-04 05:00,ZHCC 040500Z 36004MPS 320V030 5000 BR SCT007 OVC026 20/18 Q1005 NOSIG
ZHCC,2023-05-04 06:00,ZHCC 040600Z 36006MPS 330V030 8000 SCT007 OVC026 23/18 Q1004 NOSIG
ZHCC,2023-05-04 07:00,ZHCC 040700Z 36005MPS 9999 SCT007 OVC026 21/17 Q1004 NOSIG
ZHCC,2023-05-04 08:00,ZHCC 040800Z 34003MPS 300V360 9999 SCT007 OVC030 21/18 Q1004 NOSIG
ZHCC,2023-05-04 09:00,ZHCC 040900Z 02004MPS 9999 SCT007 OVC030 21/17 Q1003 NOSIG
ZHCC,2023-05-04 10:00,ZHCC 041000Z 02004MPS 9999 OVC030 20/16 Q1003 NOSIG
ZHCC,2023-05-04 11:00,ZHCC 041100Z 04005MPS 9999 OVC030 19/15 Q1004 NOSIG
ZHCC,2023-05-04 12:00,ZHCC 041200Z 04006MPS 9999 OVC040 18/15 Q1004 NOSIG
ZHCC,2023-05-04 13:00,ZHCC 041300Z 02005MPS 9999 OVC040 18/15 Q1005 NOSIG
ZHCC,2023-05-04 14:00,ZHCC 041400Z 05004MPS 9999 OVC040 18/15 Q1006 NOSIG
ZHCC,2023-05-04 15:00,ZHCC 041500Z 04003MPS 360V080 9999 SCT015 OVC040 18/15 Q1005 NOSIG
ZHCC,2023-05-04 16:00,ZHCC 041600Z 02003MPS 350V070 9999 SCT015 OVC040 18/15 Q1005 NOSIG
ZHCC,2023-05-04 17:00,ZHCC 041700Z 01003MPS 340V050 9999 SCT015 OVC040 17/14 Q1005 NOSIG
ZHCC,2023-05-04 18:00,ZHCC 041800Z 01003MPS 340V040 9999 OVC040 17/15 Q1005 NOSIG
ZHCC,2023-05-04 19:00,ZHCC 041900Z 35002MPS 310V030 8000 OVC040 17/15 Q1005 NOSIG
ZHCC,2023-05-04 20:00,ZHCC 042000Z 34004MPS 8000 OVC040 17/15 Q1004 NOSIG
ZHCC,2023-05-04 21:00,ZHCC 042100Z VRB03G09MPS 7000 NSC 17/15 Q1004 NOSIG
ZHCC,2023-05-04 22:00,ZHCC 042200Z 32002MPS 4800 BR OVC040 17/15 Q1005 NOSIG
ZHCC,2023-05-04 23:00,ZHCC 042300Z 04003MPS 010V130 4800 BR OVC040 18/15 Q1005 NOSIG
ZHCC,2023-05-05 00:00,ZHCC 050000Z 30003MPS 270V340 6000 OVC040 19/16 Q1005 NOSIG
ZHCC,2023-05-05 01:00,ZHCC 050100Z 36004MPS 330V050 7000 SCT020 OVC040 20/15 Q1006 NOSIG
ZHCC,2023-05-05 02:00,ZHCC 050200Z 02005MPS 340V040 7000 SCT020 OVC040 20/15 Q1006 NOSIG
ZHCC,2023-05-05 03:00,ZHCC 050300Z 02006MPS 8000 SCT020 OVC040 20/15 Q1007 NOSIG
ZHCC,2023-05-05 04:00,ZHCC 050400Z 36004MPS 340V040 8000 SCT020 BKN046 21/15 Q1007 NOSIG
ZHCC,2023-05-05 05:00,ZHCC 050500Z 01005MPS 9999 SCT020 BKN046 22/16 Q1006 NOSIG
ZHCC,2023-05-05 06:00,ZHCC 050600Z 03006MPS 350V060 9999 SCT026 BKN046 22/16 Q1006 NOSIG
ZHCC,2023-05-05 07:00,ZHCC 050700Z 02006MPS 350V050 9999 SCT026 SCT033 23/15 Q1006 NOSIG
ZHCC,2023-05-05 08:00,ZHCC 050800Z 01005MPS 340V040 9999 SCT033 22/14 Q1006 NOSIG
ZHCC,2023-05-05 09:00,ZHCC 050900Z 03005MPS 360V070 9999 BKN033 21/15 Q1006 NOSIG
ZHCC,2023-05-05 10:00,ZHCC 051000Z 04005MPS 9999 BKN033 21/15 Q1007 NOSIG
ZHCC,2023-05-05 11:00,ZHCC 051100Z 03005MPS 360V060 9999 BKN033 20/15 Q1007 NOSIG
ZHCC,2023-05-05 12:00,ZHCC 051200Z 02004MPS 9999 SCT033 19/15 Q1008 NOSIG
ZHCC,2023-05-05 13:00,ZHCC 051300Z 02005MPS 9999 SCT020 SCT040 19/15 Q1009 NOSIG
ZHCC,2023-05-05 14:00,ZHCC 051400Z 03005MPS 9999 SCT020 SCT040 18/15 Q1010 NOSIG
ZHCC,2023-05-05 15:00,ZHCC 051500Z 03007MPS 010V070 9999 SCT020 BKN040 18/14 Q1011 NOSIG
ZHCC,2023-05-05 16:00,ZHCC 051600Z 02004MPS 340V040 9999 BKN033 17/14 Q1011 NOSIG
ZHCC,2023-05-05 17:00,ZHCC 051700Z 04007MPS 010V070 9999 BKN040 16/11 Q1011 NOSIG
ZHCC,2023-05-05 18:00,ZHCC 051800Z 03006MPS 010V070 CAVOK 15/10 Q1012 NOSIG
ZHCC,2023-05-05 19:00,ZHCC 051900Z 03005MPS 350V060 CAVOK 15/08 Q1012 NOSIG
ZHCC,2023-05-05 20:00,ZHCC 052000Z 03005MPS 350V050 CAVOK 15/09 Q1012 NOSIG
ZHCC,2023-05-05 21:00,ZHCC 052100Z 03006MPS 360V060 CAVOK 15/11 Q1011 NOSIG
ZHCC,2023-05-05 22:00,ZHCC 052200Z 03006MPS 360V070 CAVOK 16/11 Q1012 NOSIG
ZHCC,2023-05-05 23:00,ZHCC 052300Z 03006MPS 360V060 CAVOK 16/11 Q1013 NOSIG
ZHCC,2023-05-06 00:00,ZHCC 060000Z 04006MPS CAVOK 16/11 Q1014 NOSIG
ZHCC,2023-05-06 01:00,ZHCC 060100Z 04008MPS CAVOK 17/08 Q1014 NOSIG
ZHCC,2023-05-06 02:00,ZHCC 060200Z 03006MPS CAVOK 18/08 Q1014 NOSIG
ZHCC,2023-05-06 03:00,ZHCC 060300Z 03008MPS CAVOK 17/07 Q1015 NOSIG
ZHCC,2023-05-06 04:00,ZHCC 060400Z 02006MPS 350V050 CAVOK 18/06 Q1014 NOSIG
ZHCC,2023-05-06 05:00,ZHCC 060500Z 03007MPS 350V060 CAVOK 20/06 Q1014 NOSIG
ZHCC,2023-05-06 06:00,ZHCC 060600Z 02007MPS CAVOK 19/06 Q1014 NOSIG
ZHCC,2023-05-06 07:00,ZHCC 060700Z 02006G12MPS 330V050 CAVOK 19/07 Q1014 NOSIG
ZHCC,2023-05-06 08:00,ZHCC 060800Z 36008MPS 9999 -RA NSC 18/06 Q1014 NOSIG
ZHCC,2023-05-06 09:00,ZHCC 060900Z 01007MPS 9999 -RA NSC 18/07 Q1014 NOSIG
ZHCC,2023-05-06 10:00,ZHCC 061000Z 02008MPS 340V040 9999 -RA NSC 17/04 Q1015 NOSIG
ZHCC,2023-05-06 11:00,ZHCC 061100Z 01007G12MPS 9999 -RA NSC 15/07 Q1016 NOSIG
ZHCC,2023-05-06 12:00,ZHCC 061200Z 01006G12MPS 340V050 9999 -RA NSC 14/07 Q1017 NOSIG
ZHCC,2023-05-06 13:00,ZHCC 061300Z 36006MPS 340V040 9999 -RA NSC 14/07 Q1017 NOSIG
ZHCC,2023-05-06 14:00,ZHCC 061400Z 33005MPS CAVOK 14/07 Q1018 NOSIG
ZHCC,2023-05-06 15:00,ZHCC 061500Z 33005MPS CAVOK 14/05 Q1017 NOSIG
ZHCC,2023-05-06 16:00,ZHCC 061600Z 32004MPS CAVOK 14/04 Q1017 NOSIG
ZHCC,2023-05-06 17:00,ZHCC 061700Z 32004MPS CAVOK 14/04 Q1017 NOSIG
ZHCC,2023-05-06 18:00,ZHCC 061800Z 33005MPS CAVOK 15/04 Q1017 NOSIG
ZHCC,2023-05-06 19:00,ZHCC 061900Z 31004MPS CAVOK 14/07 Q1016 NOSIG
ZHCC,2023-05-06 20:00,ZHCC 062000Z 32004MPS CAVOK 15/07 Q1017 NOSIG
ZHCC,2023-05-06 21:00,ZHCC 062100Z 32005MPS CAVOK 15/07 Q1017 NOSIG
ZHCC,2023-05-06 22:00,ZHCC 062200Z 32004MPS CAVOK 15/07 Q1017 NOSIG
ZHCC,2023-05-06 23:00,ZHCC 062300Z 32005MPS CAVOK 16/07 Q1018 NOSIG
ZHCC,2023-05-07 00:00,ZHCC 070000Z 33004MPS CAVOK 18/07 Q1019 NOSIG
ZHCC,2023-05-07 01:00,ZHCC 070100Z 36005MPS CAVOK 20/05 Q1019 NOSIG
ZHCC,2023-05-07 02:00,ZHCC 070200Z 02007MPS 340V040 CAVOK 21/05 Q1019 NOSIG
ZHCC,2023-05-07 03:00,ZHCC 070300Z 01007MPS 350V050 CAVOK 22/03 Q1019 NOSIG
ZHCC,2023-05-07 04:00,ZHCC 070400Z 01007MPS 330V070 CAVOK 23/01 Q1018 NOSIG
ZHCC,2023-05-07 05:00,ZHCC 070500Z 02006G11MPS 360V060 CAVOK 24/03 Q1018 NOSIG
ZHCC,2023-05-07 06:00,ZHCC 070600Z VRB05G12MPS CAVOK 24/04 Q1018 NOSIG
ZHCC,2023-05-07 07:00,ZHCC 070700Z 04005MPS 010V070 CAVOK 23/03 Q1017 NOSIG
ZHCC,2023-05-07 08:00,ZHCC 070800Z 02005MPS 350V060 CAVOK 22/04 Q1017 NOSIG
ZHCC,2023-05-07 09:00,ZHCC 070900Z 04005MPS 360V070 CAVOK 22/05 Q1017 NOSIG
ZHCC,2023-05-07 10:00,ZHCC 071000Z 02004MPS 350V050 CAVOK 22/06 Q1017 NOSIG
ZHCC,2023-05-07 11:00,ZHCC 071100Z 02004MPS CAVOK 21/06 Q1018 NOSIG
ZHCC,2023-05-07 12:00,ZHCC 071200Z 01002MPS 310V090 CAVOK 20/07 Q1018 NOSIG
ZHCC,2023-05-07 13:00,ZHCC 071300Z 01002MPS 340V050 CAVOK 20/07 Q1019 NOSIG
ZHCC,2023-05-07 14:00,ZHCC 071400Z 32002MPS CAVOK 18/08 Q1019 NOSIG
ZHCC,2023-05-07 15:00,ZHCC 071500Z 33002MPS 270V010 CAVOK 18/08 Q1020 NOSIG
ZHCC,2023-05-07 16:00,ZHCC 071600Z 29001MPS CAVOK 16/09 Q1020 NOSIG
ZHCC,2023-05-07 17:00,ZHCC 071700Z 30001MPS CAVOK 17/08 Q1020 NOSIG
ZHCC,2023-05-07 18:00,ZHCC 071800Z 33002MPS CAVOK 16/09 Q1020 NOSIG
ZHCC,2023-05-07 19:00,ZHCC 071900Z 34002MPS CAVOK 16/09 Q1020 NOSIG
ZHCC,2023-05-07 20:00,ZHCC 072000Z 35002MPS CAVOK 17/08 Q1020 NOSIG
ZHCC,2023-05-07 21:00,ZHCC 072100Z 35002MPS CAVOK 18/08 Q1020 NOSIG
ZHCC,2023-05-07 22:00,ZHCC 072200Z 36002MPS CAVOK 17/07 Q1021 NOSIG
ZHCC,2023-05-07 23:00,ZHCC 072300Z 02002MPS CAVOK 18/07 Q1021 NOSIG
ZHCC,2023-05-08 00:00,ZHCC 080000Z 06002MPS 030V100 CAVOK 19/05 Q1021 NOSIG
ZHCC,2023-05-08 01:00,ZHCC 080100Z 08002MPS 060V120 CAVOK 19/03 Q1022 NOSIG
ZHCC,2023-05-08 02:00,ZHCC 080200Z VRB01MPS CAVOK 20/05 Q1022 NOSIG
ZHCC,2023-05-08 03:00,ZHCC 080300Z 06002MPS 350V160 CAVOK 21/05 Q1022 NOSIG
ZHCC,2023-05-08 04:00,ZHCC 080400Z 06003MPS 020V120 CAVOK 23/04 Q1022 NOSIG
ZHCC,2023-05-08 05:00,ZHCC 080500Z 06003MPS 030V110 CAVOK 23/04 Q1021 NOSIG
ZHCC,2023-05-08 06:00,ZHCC 080600Z 11004MPS 080V140 CAVOK 24/04 Q1020 NOSIG
ZHCC,2023-05-08 07:00,ZHCC 080700Z 08004MPS 050V120 CAVOK 24/04 Q1019 NOSIG
ZHCC,2023-05-08 08:00,ZHCC 080800Z 07003MPS 020V130 CAVOK 24/05 Q1018 NOSIG
ZHCC,2023-05-08 09:00,ZHCC 080900Z 11004MPS 070V150 CAVOK 24/06 Q1018 NOSIG
ZHCC,2023-05-08 10:00,ZHCC 081000Z 12003MPS CAVOK 22/05 Q1018 NOSIG
ZHCC,2023-05-08 11:00,ZHCC 081100Z 11003MPS CAVOK 20/05 Q1018 NOSIG
ZHCC,2023-05-08 12:00,ZHCC 081200Z 12002MPS CAVOK 17/06 Q1019 NOSIG
ZHCC,2023-05-08 13:00,ZHCC 081300Z VRB01MPS CAVOK 18/04 Q1020 NOSIG
ZHCC,2023-05-08 14:00,ZHCC 081400Z VRB01MPS CAVOK 15/06 Q1020 NOSIG
ZHCC,2023-05-08 15:00,ZHCC 081500Z 00000MPS CAVOK 14/05 Q1020 NOSIG
ZHCC,2023-05-08 16:00,ZHCC 081600Z 12001MPS CAVOK 15/05 Q1020 NOSIG
ZHCC,2023-05-08 17:00,ZHCC 081700Z VRB01MPS CAVOK 13/06 Q1019 NOSIG
ZHCC,2023-05-08 18:00,ZHCC 081800Z VRB01MPS CAVOK 12/06 Q1019 NOSIG
ZHCC,2023-05-08 19:00,ZHCC 081900Z VRB01MPS CAVOK 11/07 Q1018 NOSIG
ZHCC,2023-05-08 20:00,ZHCC 082000Z 00000MPS CAVOK 11/07 Q1019 NOSIG
ZHCC,2023-05-08 21:00,ZHCC 082100Z 00000MPS CAVOK 10/07 Q1019 NOSIG
ZHCC,2023-05-08 22:00,ZHCC 082200Z 00000MPS CAVOK 10/08 Q1019 NOSIG
ZHCC,2023-05-08 23:00,ZHCC 082300Z 00000MPS CAVOK 15/10 Q1019 NOSIG
ZHCC,2023-05-09 00:00,ZHCC 090000Z VRB01MPS CAVOK 19/08 Q1019 NOSIG
ZHCC,2023-05-09 01:00,ZHCC 090100Z 12004MPS 100V170 CAVOK 19/08 Q1019 NOSIG
ZHCC,2023-05-09 02:00,ZHCC 090200Z 11005MPS CAVOK 21/07 Q1019 NOSIG
ZHCC,2023-05-09 03:00,ZHCC 090300Z 12003MPS 080V170 CAVOK 21/06 Q1019 NOSIG
ZHCC,2023-05-09 04:00,ZHCC 090400Z 12003MPS 080V150 CAVOK 22/07 Q1018 NOSIG
ZHCC,2023-05-09 05:00,ZHCC 090500Z 14003MPS 080V210 CAVOK 23/07 Q1018 NOSIG
ZHCC,2023-05-09 06:00,ZHCC 090600Z 13003MPS 080V210 CAVOK 22/07 Q1018 NOSIG
ZHCC,2023-05-09 07:00,ZHCC 090700Z 12003MPS 100V170 CAVOK 22/06 Q1017 NOSIG
ZHCC,2023-05-09 08:00,ZHCC 090800Z 12002MPS 080V200 CAVOK 22/07 Q1017 NOSIG
ZHCC,2023-05-09 09:00,ZHCC 090900Z 10003MPS 070V140 CAVOK 21/09 Q1017 NOSIG
ZHCC,2023-05-09 10:00,ZHCC 091000Z 12003MPS CAVOK 20/08 Q1017 NOSIG
ZHCC,2023-05-09 11:00,ZHCC 091100Z VRB01MPS CAVOK 20/10 Q1017 NOSIG
ZHCC,2023-05-09 12:00,ZHCC 091200Z VRB01MPS CAVOK 19/10 Q1017 NOSIG
ZHCC,2023-05-09 13:00,ZHCC 091300Z VRB01MPS CAVOK 18/12 Q1018 NOSIG
ZHCC,2023-05-09 14:00,ZHCC 091400Z 13001MPS CAVOK 19/11 Q1018 NOSIG
ZHCC,2023-05-09 15:00,ZHCC 091500Z 00000MPS CAVOK 18/11 Q1018 NOSIG
ZHCC,2023-05-09 16:00,ZHCC 091600Z 31001MPS 9999 -RA NSC 18/12 Q1019 NOSIG
ZHCC,2023-05-09 17:00,ZHCC 091700Z 30001MPS 9999 -RA NSC 17/14 Q1018 NOSIG
ZHCC,2023-05-09 18:00,ZHCC 091800Z 28001MPS 9999 -RA NSC 17/13 Q1018 NOSIG
ZHCC,2023-05-09 19:00,ZHCC 091900Z 21003MPS 180V240 9999 -RA NSC 17/13 Q1018 NOSIG
ZHCC,2023-05-09 20:00,ZHCC 092000Z 24001MPS 7000 -RA NSC 15/13 Q1018 NOSIG
ZHCC,2023-05-09 21:00,ZHCC 092100Z 29003MPS 7000 -RA NSC 15/13 Q1018 NOSIG
ZHCC,2023-05-09 22:00,ZHCC 092200Z 28002MPS 7000 -RA NSC 15/13 Q1019 NOSIG
ZHCC,2023-05-09 23:00,ZHCC 092300Z 35002MPS 310V040 7000 -RA NSC 16/13 Q1019 NOSIG
ZHCC,2023-05-10 00:00,ZHCC 100000Z 34003MPS 8000 -RA NSC 16/13 Q1019 NOSIG
ZHCC,2023-05-10 01:00,ZHCC 100100Z 30002MPS 8000 NSC 17/14 Q1020 NOSIG
ZHCC,2023-05-10 02:00,ZHCC 100200Z 33003MPS CAVOK 19/13 Q1020 NOSIG
ZHCC,2023-05-10 03:00,ZHCC 100300Z 32003MPS CAVOK 19/13 Q1020 NOSIG
ZHCC,2023-05-10 04:00,ZHCC 100400Z VRB01MPS CAVOK 20/12 Q1019 NOSIG
ZHCC,2023-05-10 05:00,ZHCC 100500Z 13002MPS 080V160 CAVOK 21/07 Q1019 NOSIG
ZHCC,2023-05-10 06:00,ZHCC 100600Z 10002MPS CAVOK 20/08 Q1019 NOSIG
ZHCC,2023-05-10 07:00,ZHCC 100700Z 11002MPS 050V140 CAVOK 20/08 Q1018 NOSIG
ZHCC,2023-05-10 08:00,ZHCC 100800Z 05002MPS 020V080 CAVOK 21/07 Q1018 NOSIG
ZHCC,2023-05-10 09:00,ZHCC 100900Z VRB01MPS CAVOK 21/06 Q1018 NOSIG
ZHCC,2023-05-10 10:00,ZHCC 101000Z 00000MPS 9999 -RA NSC 20/11 Q1019 NOSIG
ZHCC,2023-05-10 11:00,ZHCC 101100Z 32003MPS CAVOK 19/09 Q1019 NOSIG
ZHCC,2023-05-10 12:00,ZHCC 101200Z 30003MPS CAVOK 18/08 Q1019 NOSIG
ZHCC,2023-05-10 13:00,ZHCC 101300Z 28001MPS CAVOK 17/10 Q1020 NOSIG
ZHCC,2023-05-10 14:00,ZHCC 101400Z VRB01MPS CAVOK 17/10 Q1020 NOSIG
ZHCC,2023-05-10 15:00,ZHCC 101500Z 23002MPS CAVOK 17/09 Q1020 NOSIG
ZHCC,2023-05-10 16:00,ZHCC 101600Z 25002MPS CAVOK 17/10 Q1020 NOSIG
ZHCC,2023-05-10 17:00,ZHCC 101700Z 23001MPS CAVOK 17/10 Q1020 NOSIG
ZHCC,2023-05-10 18:00,ZHCC 101800Z 26002MPS CAVOK 16/10 Q1019 NOSIG
ZHCC,2023-05-10 19:00,ZHCC 101900Z 29003MPS CAVOK 16/11 Q1019 NOSIG
ZHCC,2023-05-10 20:00,ZHCC 102000Z 28002MPS CAVOK 16/10 Q1019 NOSIG
ZHCC,2023-05-10 21:00,ZHCC 102100Z 27003MPS 240V300 CAVOK 16/10 Q1019 NOSIG
ZHCC,2023-05-10 22:00,ZHCC 102200Z 26002MPS CAVOK 16/09 Q1019 NOSIG
ZHCC,2023-05-10 23:00,ZHCC 102300Z 26001MPS CAVOK 17/10 Q1020 NOSIG
ZHCC,2023-05-11 00:00,ZHCC 110000Z 25002MPS CAVOK 18/09 Q1020 NOSIG
ZHCC,2023-05-11 01:00,ZHCC 110100Z 27002MPS CAVOK 19/10 Q1020 NOSIG
ZHCC,2023-05-11 02:00,ZHCC 110200Z 26003MPS 230V290 CAVOK 20/09 Q1020 NOSIG
ZHCC,2023-05-11 03:00,ZHCC 110300Z 30002MPS 260V340 CAVOK 21/09 Q1020 NOSIG
ZHCC,2023-05-11 04:00,ZHCC 110400Z VRB01MPS CAVOK 23/07 Q1019 NOSIG
ZHCC,2023-05-11 05:00,ZHCC 110500Z 15002MPS 090V230 CAVOK 24/04 Q1019 NOSIG
ZHCC,2023-05-11 06:00,ZHCC 110600Z VRB02MPS CAVOK 24/04 Q1018 NOSIG
ZHCC,2023-05-11 07:00,ZHCC 110700Z 12003MPS 100V160 CAVOK 24/04 Q1017 NOSIG
ZHCC,2023-05-11 08:00,ZHCC 110800Z 17002MPS 110V260 CAVOK 24/05 Q1016 NOSIG
ZHCC,2023-05-11 09:00,ZHCC 110900Z 18002MPS 110V230 CAVOK 24/06 Q1016 NOSIG
ZHCC,2023-05-11 10:00,ZHCC 111000Z 16002MPS 110V220 CAVOK 23/07 Q1016 NOSIG
ZHCC,2023-05-11 11:00,ZHCC 111100Z 14002MPS 110V190 CAVOK 21/07 Q1016 NOSIG
ZHCC,2023-05-11 12:00,ZHCC 111200Z VRB01MPS CAVOK 19/07 Q1016 NOSIG
ZHCC,2023-05-11 13:00,ZHCC 111300Z VRB01MPS CAVOK 19/08 Q1017 NOSIG
ZHCC,2023-05-11 14:00,ZHCC 111400Z VRB01MPS CAVOK 19/08 Q1017 NOSIG
ZHCC,2023-05-11 15:00,ZHCC 111500Z 20002MPS 170V240 CAVOK 19/09 Q1017 NOSIG
ZHCC,2023-05-11 16:00,ZHCC 111600Z 19002MPS 160V230 CAVOK 18/09 Q1016 NOSIG
ZHCC,2023-05-11 17:00,ZHCC 111700Z 20002MPS 140V230 CAVOK 18/09 Q1016 NOSIG
ZHCC,2023-05-11 18:00,ZHCC 111800Z VRB01MPS CAVOK 17/08 Q1015 NOSIG
ZHCC,2023-05-11 19:00,ZHCC 111900Z VRB01MPS CAVOK 17/09 Q1015 NOSIG
ZHCC,2023-05-11 20:00,ZHCC 112000Z VRB01MPS CAVOK 16/09 Q1015 NOSIG
ZHCC,2023-05-11 21:00,ZHCC 112100Z VRB01MPS CAVOK 15/09 Q1015 NOSIG
ZHCC,2023-05-11 22:00,ZHCC 112200Z VRB01MPS CAVOK 13/10 Q1015 NOSIG
ZHCC,2023-05-11 23:00,ZHCC 112300Z VRB01MPS CAVOK 17/11 Q1015 NOSIG
ZHCC,2023-05-12 00:00,ZHCC 120000Z 24002MPS 210V280 CAVOK 20/11 Q1015 NOSIG
ZHCC,2023-05-12 01:00,ZHCC 120100Z 19002MPS 110V240 CAVOK 23/12 Q1015 NOSIG
ZHCC,2023-05-12 02:00,ZHCC 120200Z VRB02MPS CAVOK 25/12 Q1015 NOSIG
ZHCC,2023-05-12 03:00,ZHCC 120300Z VRB02MPS CAVOK 27/13 Q1014 NOSIG
ZHCC,2023-05-12 04:00,ZHCC 120400Z 18003MPS 120V270 CAVOK 28/14 Q1013 NOSIG
ZHCC,2023-05-12 05:00,ZHCC 120500Z 18003MPS 110V240 CAVOK 28/15 Q1013 NOSIG
ZHCC,2023-05-12 06:00,ZHCC 120600Z 16003MPS 110V220 CAVOK 28/16 Q1012 NOSIG
ZHCC,2023-05-12 07:00,ZHCC 120700Z 17004MPS 100V200 CAVOK 28/16 Q1011 NOSIG
ZHCC,2023-05-12 08:00,ZHCC 120800Z 17003MPS 120V220 CAVOK 29/15 Q1010 NOSIG
ZHCC,2023-05-12 09:00,ZHCC 120900Z 18004MPS 120V220 CAVOK 29/14 Q1009 NOSIG
ZHCC,2023-05-12 10:00,ZHCC 121000Z 19004MPS 160V220 CAVOK 29/13 Q1009 NOSIG
ZHCC,2023-05-12 11:00,ZHCC 121100Z 20003MPS 170V240 CAVOK 27/16 Q1010 NOSIG
ZHCC,2023-05-12 12:00,ZHCC 121200Z 19003MPS 150V220 CAVOK 25/16 Q1010 NOSIG
ZHCC,2023-05-12 13:00,ZHCC 121300Z 21003MPS 160V250 CAVOK 25/15 Q1011 NOSIG
ZHCC,2023-05-12 14:00,ZHCC 121400Z 21003MPS 170V240 CAVOK 25/14 Q1011 NOSIG
ZHCC,2023-05-12 15:00,ZHCC 121500Z 23002MPS CAVOK 23/15 Q1011 NOSIG
ZHCC,2023-05-12 16:00,ZHCC 121600Z 22002MPS 190V250 CAVOK 23/14 Q1010 NOSIG
ZHCC,2023-05-12 17:00,ZHCC 121700Z 24002MPS CAVOK 22/14 Q1010 NOSIG
ZHCC,2023-05-12 18:00,ZHCC 121800Z 22002MPS CAVOK 21/13 Q1010 NOSIG
ZHCC,2023-05-12 19:00,ZHCC 121900Z 23002MPS CAVOK 20/10 Q1010 NOSIG
ZHCC,2023-05-12 20:00,ZHCC 122000Z 24002MPS CAVOK 19/09 Q1010 NOSIG
ZHCC,2023-05-12 21:00,ZHCC 122100Z 01002MPS 340V070 CAVOK 21/08 Q1012 NOSIG
ZHCC,2023-05-12 22:00,ZHCC 122200Z 02003MPS 340V060 CAVOK 21/14 Q1012 NOSIG
ZHCC,2023-05-12 23:00,ZHCC 122300Z 01003MPS 340V050 CAVOK 22/15 Q1013 NOSIG
ZHCC,2023-05-13 00:00,ZHCC 130000Z 36003MPS 330V040 CAVOK 23/16 Q1013 NOSIG
ZHCC,2023-05-13 01:00,ZHCC 130100Z 02003MPS 350V060 CAVOK 24/15 Q1013 NOSIG
ZHCC,2023-05-13 02:00,ZHCC 130200Z 04003MPS 360V090 CAVOK 26/14 Q1013 NOSIG
ZHCC,2023-05-13 03:00,ZHCC 130300Z VRB03MPS CAVOK 27/14 Q1012 NOSIG
ZHCC,2023-05-13 04:00,ZHCC 130400Z VRB02MPS CAVOK 28/12 Q1012 NOSIG
ZHCC,2023-05-13 05:00,ZHCC 130500Z VRB02MPS CAVOK 29/12 Q1011 NOSIG
ZHCC,2023-05-13 06:00,ZHCC 130600Z VRB02MPS CAVOK 29/12 Q1011 NOSIG
ZHCC,2023-05-13 07:00,ZHCC 130700Z VRB02MPS CAVOK 30/11 Q1010 NOSIG
ZHCC,2023-05-13 08:00,ZHCC 130800Z 14003MPS 100V190 CAVOK 30/14 Q1009 NOSIG
ZHCC,2023-05-13 09:00,ZHCC 130900Z 17002MPS 100V210 CAVOK 30/14 Q1009 NOSIG
ZHCC,2023-05-13 10:00,ZHCC 131000Z 14002MPS 100V200 CAVOK 28/14 Q1009 NOSIG
ZHCC,2023-05-13 11:00,ZHCC 131100Z 14002MPS 100V170 CAVOK 26/15 Q1009 NOSIG
ZHCC,2023-05-13 12:00,ZHCC 131200Z 17002MPS 110V210 CAVOK 26/15 Q1009 NOSIG
ZHCC,2023-05-13 13:00,ZHCC 131300Z 11002MPS CAVOK 23/16 Q1009 NOSIG
ZHCC,2023-05-13 14:00,ZHCC 131400Z 21002MPS 180V250 CAVOK 24/16 Q1009 NOSIG
ZHCC,2023-05-13 15:00,ZHCC 131500Z 19002MPS 140V230 CAVOK 24/17 Q1009 NOSIG
ZHCC,2023-05-13 16:00,ZHCC 131600Z 21003MPS 180V280 CAVOK 23/17 Q1008 NOSIG
ZHCC,2023-05-13 17:00,ZHCC 131700Z 20002MPS 140V220 CAVOK 24/16 Q1008 NOSIG
ZHCC,2023-05-13 18:00,ZHCC 131800Z 21002MPS 160V240 CAVOK 23/16 Q1007 NOSIG
ZHCC,2023-05-13 19:00,ZHCC 131900Z 25002MPS CAVOK 20/14 Q1007 NOSIG
ZHCC,2023-05-13 20:00,ZHCC 132000Z 22001MPS CAVOK 17/14 Q1006 NOSIG
ZHCC,2023-05-13 21:00,ZHCC 132100Z VRB01MPS CAVOK 16/14 Q1006 NOSIG
ZHCC,2023-05-13 22:00,ZHCC 132200Z 20001MPS CAVOK 16/14 Q1006 NOSIG
ZHCC,2023-05-13 23:00,ZHCC 132300Z 00000MPS CAVOK 22/16 Q1006 NOSIG
ZHCC,2023-05-14 00:00,ZHCC 140000Z 20002MPS 150V260 CAVOK 24/15 Q1006 NOSIG
ZHCC,2023-05-14 01:00,ZHCC 140100Z 21002MPS 160V240 CAVOK 26/15 Q1007 NOSIG
ZHCC,2023-05-14 02:00,ZHCC 140200Z 20002MPS 130V250 CAVOK 29/15 Q1006 NOSIG
ZHCC,2023-05-14 03:00,ZHCC 140300Z 19003MPS 130V230 CAVOK 30/14 Q1006 NOSIG
ZHCC,2023-05-14 04:00,ZHCC 140400Z 17003MPS 120V220 CAVOK 31/16 Q1005 NOSIG
ZHCC,2023-05-14 05:00,ZHCC 140500Z 19004MPS 150V230 CAVOK 33/16 Q1004 NOSIG
ZHCC,2023-05-14 06:00,ZHCC 140600Z 20005MPS 150V240 CAVOK 33/15 Q1003 NOSIG
ZHCC,2023-05-14 07:00,ZHCC 140700Z 20005MPS 150V240 CAVOK 34/16 Q1002 NOSIG
ZHCC,2023-05-14 08:00,ZHCC 140800Z 21005G10MPS 170V240 CAVOK 33/16 Q1002 NOSIG
ZHCC,2023-05-14 09:00,ZHCC 140900Z 21006MPS 170V250 CAVOK 33/17 Q1001 NOSIG
ZHCC,2023-05-14 10:00,ZHCC 141000Z 20004MPS 170V240 CAVOK 31/17 Q1001 NOSIG
ZHCC,2023-05-14 11:00,ZHCC 141100Z 19003MPS 150V220 CAVOK 30/18 Q1002 NOSIG
ZHCC,2023-05-14 12:00,ZHCC 141200Z 20003MPS 170V230 CAVOK 28/18 Q1002 NOSIG
ZHCC,2023-05-14 13:00,ZHCC 141300Z 21003MPS 170V240 CAVOK 28/17 Q1003 NOSIG
ZHCC,2023-05-14 14:00,ZHCC 141400Z 21004MPS 180V240 CAVOK 28/16 Q1003 NOSIG
ZHCC,2023-05-14 15:00,ZHCC 141500Z 21004MPS CAVOK 27/16 Q1003 NOSIG
ZHCC,2023-05-14 16:00,ZHCC 141600Z 21003MPS 180V250 CAVOK 27/15 Q1003 NOSIG
ZHCC,2023-05-14 17:00,ZHCC 141700Z 21002MPS 180V240 CAVOK 26/15 Q1003 NOSIG
ZHCC,2023-05-14 18:00,ZHCC 141800Z 22003MPS 180V250 CAVOK 25/15 Q1002 NOSIG
ZHCC,2023-05-14 19:00,ZHCC 141900Z VRB01MPS CAVOK 22/15 Q1002 NOSIG
ZHCC,2023-05-14 20:00,ZHCC 142000Z VRB01MPS CAVOK 20/15 Q1002 NOSIG
ZHCC,2023-05-14 21:00,ZHCC 142100Z VRB01MPS CAVOK 18/15 Q1002 NOSIG
ZHCC,2023-05-14 22:00,ZHCC 142200Z 00000MPS CAVOK 18/15 Q1003 NOSIG
ZHCC,2023-05-14 23:00,ZHCC 142300Z VRB01MPS CAVOK 22/17 Q1004 NOSIG
ZHCC,2023-05-15 00:00,ZHCC 150000Z VRB01MPS CAVOK 25/17 Q1004 NOSIG
ZHCC,2023-05-15 01:00,ZHCC 150100Z VRB02MPS CAVOK 27/18 Q1004 NOSIG
ZHCC,2023-05-15 02:00,ZHCC 150200Z 18002MPS 120V220 CAVOK 29/18 Q1004 NOSIG
ZHCC,2023-05-15 03:00,ZHCC 150300Z VRB02MPS CAVOK 31/19 Q1004 NOSIG
ZHCC,2023-05-15 04:00,ZHCC 150400Z 18004MPS 140V210 CAVOK 32/18 Q1003 NOSIG
ZHCC,2023-05-15 05:00,ZHCC 150500Z 18004MPS 100V240 CAVOK 34/18 Q1003 NOSIG
ZHCC,2023-05-15 06:00,ZHCC 150600Z 20004MPS 160V240 CAVOK 34/19 Q1002 NOSIG
ZHCC,2023-05-15 07:00,ZHCC 150700Z 18004MPS 110V230 CAVOK 34/21 Q1001 NOSIG
ZHCC,2023-05-15 08:00,ZHCC 150800Z 17004MPS 110V210 CAVOK 33/20 Q1001 NOSIG
ZHCC,2023-05-15 09:00,ZHCC 150900Z 18004MPS 140V220 CAVOK 33/20 Q1000 NOSIG
ZHCC,2023-05-15 10:00,ZHCC 151000Z 18005MPS 150V230 CAVOK 32/18 Q1001 NOSIG
ZHCC,2023-05-15 11:00,ZHCC 151100Z 17003MPS 100V230 CAVOK 30/18 Q1001 NOSIG
ZHCC,2023-05-15 12:00,ZHCC 151200Z VRB01MPS CAVOK 29/19 Q1001 NOSIG
ZHCC,2023-05-15 13:00,ZHCC 151300Z 17002MPS 110V230 CAVOK 29/19 Q1001 NOSIG
ZHCC,2023-05-15 14:00,ZHCC 151400Z 19004MPS 150V230 CAVOK 28/19 Q1002 NOSIG
ZHCC,2023-05-15 15:00,ZHCC 151500Z 19004MPS 150V220 CAVOK 27/19 Q1002 NOSIG
ZHCC,2023-05-15 16:00,ZHCC 151600Z 20005MPS CAVOK 27/19 Q1002 NOSIG
ZHCC,2023-05-15 17:00,ZHCC 151700Z 19005MPS CAVOK 26/19 Q1001 NOSIG
ZHCC,2023-05-15 18:00,ZHCC 151800Z 21003MPS 170V250 CAVOK 25/19 Q1001 NOSIG
ZHCC,2023-05-15 19:00,ZHCC 151900Z 19003MPS 150V230 CAVOK 24/19 Q1001 NOSIG
ZHCC,2023-05-15 20:00,ZHCC 152000Z 19004MPS 160V230 CAVOK 24/18 Q1000 NOSIG
ZHCC,2023-05-15 21:00,ZHCC 152100Z 21003MPS 170V260 CAVOK 24/18 Q1001 NOSIG
ZHCC,2023-05-15 22:00,ZHCC 152200Z 19003MPS 140V220 CAVOK 23/18 Q1001 NOSIG
ZHCC,2023-05-15 23:00,ZHCC 152300Z 20003MPS 140V240 CAVOK 24/18 Q1001 NOSIG
ZHCC,2023-05-16 00:00,ZHCC 160000Z 19003MPS 130V220 CAVOK 25/18 Q1002 NOSIG
ZHCC,2023-05-16 01:00,ZHCC 160100Z 20004MPS 150V220 CAVOK 26/18 Q1002 NOSIG
ZHCC,2023-05-16 02:00,ZHCC 160200Z 20004G09MPS 140V240 CAVOK 28/18 Q1001 NOSIG
ZHCC,2023-05-16 03:00,ZHCC 160300Z 18005MPS 140V220 CAVOK 29/18 Q1001 NOSIG
ZHCC,2023-05-16 04:00,ZHCC 160400Z 17004MPS 120V220 CAVOK 30/19 Q1001 NOSIG
ZHCC,2023-05-16 05:00,ZHCC 160500Z 19003MPS 140V230 CAVOK 31/20 Q1001 NOSIG
ZHCC,2023-05-16 06:00,ZHCC 160600Z 17004MPS 110V230 CAVOK 30/19 Q1000 NOSIG
ZHCC,2023-05-16 07:00,ZHCC 160700Z 18004MPS 140V220 CAVOK 30/19 Q1000 NOSIG
ZHCC,2023-05-16 08:00,ZHCC 160800Z 18004G09MPS 120V230 CAVOK 30/19 Q1000 NOSIG
ZHCC,2023-05-16 09:00,ZHCC 160900Z 18005MPS 100V250 CAVOK 28/19 Q1000 NOSIG
ZHCC,2023-05-16 10:00,ZHCC 161000Z VRB04MPS CAVOK 28/20 Q0999 NOSIG
ZHCC,2023-05-16 11:00,ZHCC 161100Z 19004MPS 140V230 CAVOK 27/19 Q1000 NOSIG
ZHCC,2023-05-16 12:00,ZHCC 161200Z 19005G10MPS 150V220 CAVOK 26/17 Q1001 NOSIG
ZHCC,2023-05-16 13:00,ZHCC 161300Z 20006MPS CAVOK 24/15 Q1002 NOSIG
ZHCC,2023-05-16 14:00,ZHCC 161400Z 20004MPS 160V240 CAVOK 23/15 Q1003 NOSIG
ZHCC,2023-05-16 15:00,ZHCC 161500Z 20005MPS 140V230 CAVOK 23/16 Q1004 NOSIG
ZHCC,2023-05-16 16:00,ZHCC 161600Z 19004MPS 160V240 CAVOK 22/16 Q1003 NOSIG
ZHCC,2023-05-16 17:00,ZHCC 161700Z 20003MPS 160V240 CAVOK 21/16 Q1003 NOSIG
ZHCC,2023-05-16 18:00,ZHCC 161800Z 19002MPS 160V230 CAVOK 21/16 Q1003 NOSIG
ZHCC,2023-05-16 19:00,ZHCC 161900Z 19003MPS 160V230 CAVOK 20/17 Q1002 NOSIG
ZHCC,2023-05-16 20:00,ZHCC 162000Z 20002MPS 160V240 CAVOK 20/17 Q1002 NOSIG
ZHCC,2023-05-16 21:00,ZHCC 162100Z VRB01MPS CAVOK 18/16 Q1003 NOSIG
ZHCC,2023-05-16 22:00,ZHCC 162200Z VRB01MPS CAVOK 19/17 Q1003 NOSIG
ZHCC,2023-05-16 23:00,ZHCC 162300Z VRB02MPS CAVOK 20/17 Q1004 NOSIG
ZHCC,2023-05-17 00:00,ZHCC 170000Z 20002MPS 120V230 CAVOK 23/17 Q1004 NOSIG
ZHCC,2023-05-17 01:00,ZHCC 170100Z 17002MPS 130V240 CAVOK 25/18 Q1005 NOSIG
ZHCC,2023-05-17 02:00,ZHCC 170200Z 16002MPS 100V220 CAVOK 28/17 Q1005 NOSIG
ZHCC,2023-05-17 03:00,ZHCC 170300Z 13002MPS 090V170 CAVOK 29/17 Q1005 NOSIG
ZHCC,2023-05-17 04:00,ZHCC 170400Z 13002MPS 060V210 CAVOK 31/16 Q1004 NOSIG
ZHCC,2023-05-17 05:00,ZHCC 170500Z 11002MPS 020V170 CAVOK 32/15 Q1004 NOSIG
ZHCC,2023-05-17 06:00,ZHCC 170600Z VRB02MPS CAVOK 32/15 Q1004 NOSIG
ZHCC,2023-05-17 07:00,ZHCC 170700Z VRB01MPS CAVOK 33/15 Q1004 NOSIG
ZHCC,2023-05-17 08:00,ZHCC 170800Z 06002MPS 350V140 CAVOK 32/16 Q1003 NOSIG
ZHCC,2023-05-17 09:00,ZHCC 170900Z 12002MPS 080V180 CAVOK 32/18 Q1003 NOSIG
ZHCC,2023-05-17 10:00,ZHCC 171000Z 12003MPS CAVOK 30/18 Q1003 NOSIG
ZHCC,2023-05-17 11:00,ZHCC 171100Z 13002MPS 100V180 CAVOK 28/19 Q1004 NOSIG
ZHCC,2023-05-17 12:00,ZHCC 171200Z VRB01MPS CAVOK 28/19 Q1006 NOSIG
ZHCC,2023-05-17 13:00,ZHCC 171300Z VRB01MPS CAVOK 28/18 Q1007 NOSIG
ZHCC,2023-05-17 14:00,ZHCC 171400Z VRB01MPS CAVOK 26/19 Q1007 NOSIG
ZHCC,2023-05-17 15:00,ZHCC 171500Z VRB01MPS CAVOK 25/19 Q1008 NOSIG
ZHCC,2023-05-17 16:00,ZHCC 171600Z 10001MPS CAVOK 25/20 Q1008 NOSIG
ZHCC,2023-05-17 17:00,ZHCC 171700Z 06002MPS 020V090 CAVOK 26/20 Q1008 NOSIG
ZHCC,2023-05-17 18:00,ZHCC 171800Z 04003MPS CAVOK 25/20 Q1008 NOSIG
ZHCC,2023-05-17 19:00,ZHCC 171900Z 03005MPS 350V050 CAVOK 23/18 Q1009 NOSIG
ZHCC,2023-05-17 20:00,ZHCC 172000Z 03006MPS CAVOK 22/17 Q1009 NOSIG
ZHCC,2023-05-17 21:00,ZHCC 172100Z 03005MPS 360V070 7000 NSC 21/17 Q1010 NOSIG
ZHCC,2023-05-17 22:00,ZHCC 172200Z 04006MPS 4000 BR NSC 20/17 Q1011 NOSIG
ZHCC,2023-05-17 23:00,ZHCC 172300Z 03007MPS 350V060 5000 BR NSC 20/16 Q1011 NOSIG
ZHCC,2023-05-18 00:00,ZHCC 180000Z 02005MPS 6000 NSC 21/15 Q1012 NOSIG
ZHCC,2023-05-18 01:00,ZHCC 180100Z 01005G10MPS 340V040 6000 BKN046 22/16 Q1013 NOSIG
ZHCC,2023-05-18 02:00,ZHCC 180200Z 02006MPS 340V060 6000 NSC 24/16 Q1013 NOSIG
ZHCC,2023-05-18 03:00,ZHCC 180300Z 02006MPS 8000 NSC 25/17 Q1013 NOSIG
ZHCC,2023-05-18 04:00,ZHCC 180400Z 02005MPS 350V070 8000 NSC 27/17 Q1012 NOSIG
ZHCC,2023-05-18 05:00,ZHCC 180500Z 02004MPS 330V060 8000 NSC 27/17 Q1012 NOSIG
ZHCC,2023-05-18 06:00,ZHCC 180600Z 05004MPS 360V130 8000 NSC 27/17 Q1011 NOSIG
ZHCC,2023-05-18 07:00,ZHCC 180700Z 06003MPS 340V100 8000 NSC 28/17 Q1010 NOSIG
ZHCC,2023-05-18 08:00,ZHCC 180800Z 03003MPS 360V090 8000 NSC 28/17 Q1010 NOSIG
ZHCC,2023-05-18 09:00,ZHCC 180900Z 05002MPS 330V140 8000 NSC 27/17 Q1009 NOSIG
ZHCC,2023-05-18 10:00,ZHCC 181000Z 07004MPS 8000 NSC 27/18 Q1009 NOSIG
ZHCC,2023-05-18 11:00,ZHCC 181100Z 09005MPS 6000 NSC 25/19 Q1009 NOSIG
ZHCC,2023-05-18 12:00,ZHCC 181200Z 09005MPS 6000 NSC 23/18 Q1010 NOSIG
ZHCC,2023-05-18 13:00,ZHCC 181300Z 12003MPS 090V170 6000 NSC 22/18 Q1010 NOSIG
ZHCC,2023-05-18 14:00,ZHCC 181400Z 14002MPS 100V180 6000 NSC 21/18 Q1011 NOSIG
ZHCC,2023-05-18 15:00,ZHCC 181500Z 11002MPS 5000 BR NSC 19/18 Q1010 NOSIG
ZHCC,2023-05-18 16:00,ZHCC 181600Z VRB01MPS 5000 BR NSC 20/17 Q1010 NOSIG
ZHCC,2023-05-18 17:00,ZHCC 181700Z VRB01MPS 4500 BR NSC 20/18 Q1010 NOSIG
ZHCC,2023-05-18 18:00,ZHCC 181800Z VRB01MPS 4500 BR NSC 19/17 Q1010 NOSIG
ZHCC,2023-05-18 19:00,ZHCC 181900Z VRB01MPS 4000 BR NSC 19/17 Q1009 NOSIG
ZHCC,2023-05-18 20:00,ZHCC 182000Z VRB01MPS 3000 BR NSC 18/17 Q1009 NOSIG
ZHCC,2023-05-18 21:00,ZHCC 182100Z VRB01MPS 3000 BR NSC 19/18 Q1009 BECMG TL2240 2000
ZHCC,2023-05-18 22:00,ZHCC 182200Z VRB01MPS 1500 BR NSC 19/18 Q1009 NOSIG
ZHCC,2023-05-18 23:00,ZHCC 182300Z 17002MPS 120V240 2000 BR NSC 20/18 Q1010 BECMG TL0040 3000
ZHCC,2023-05-19 00:00,ZHCC 190000Z 18002MPS 120V260 2800 BR NSC 21/19 Q1010 BECMG TL0120 3000
ZHCC,2023-05-19 01:00,ZHCC 190100Z 19002MPS 110V240 3000 BR NSC 22/19 Q1010 NOSIG
ZHCC,2023-05-19 02:00,ZHCC 190200Z 18002MPS 100V240 4000 BR NSC 24/20 Q1010 NOSIG
ZHCC,2023-05-19 03:00,ZHCC 190300Z 19003MPS 120V240 4000 BR NSC 27/21 Q1009 NOSIG
ZHCC,2023-05-19 04:00,ZHCC 190400Z 20003MPS 120V240 6000 SCT030 28/21 Q1008 NOSIG
ZHCC,2023-05-19 05:00,ZHCC 190500Z 18004MPS 120V220 8000 SCT030 30/21 Q1007 NOSIG
ZHCC,2023-05-19 06:00,ZHCC 190600Z 20005MPS 160V240 9999 SCT030 30/20 Q1006 NOSIG
ZHCC,2023-05-19 07:00,ZHCC 190700Z 21004MPS 140V260 9999 SCT030 31/20 Q1006 NOSIG
ZHCC,2023-05-19 08:00,ZHCC 190800Z 19004MPS 130V250 9999 SCT030 31/20 Q1005 NOSIG
ZHCC,2023-05-19 09:00,ZHCC 190900Z 17003MPS 110V210 9999 SCT030 31/21 Q1005 NOSIG
ZHCC,2023-05-19 10:00,ZHCC 191000Z 17004MPS 110V230 CAVOK 30/21 Q1004 NOSIG
ZHCC,2023-05-19 11:00,ZHCC 191100Z 16003MPS 110V200 CAVOK 29/21 Q1004 NOSIG
ZHCC,2023-05-19 12:00,ZHCC 191200Z 16003MPS 120V210 CAVOK 28/21 Q1004 NOSIG
ZHCC,2023-05-19 13:00,ZHCC 191300Z 16002MPS 100V220 CAVOK 28/21 Q1005 NOSIG
ZHCC,2023-05-19 14:00,ZHCC 191400Z VRB01MPS CAVOK 26/21 Q1006 NOSIG
ZHCC,2023-05-19 15:00,ZHCC 191500Z 18002MPS 130V240 CAVOK 26/21 Q1006 NOSIG
ZHCC,2023-05-19 16:00,ZHCC 191600Z 20003MPS 170V240 CAVOK 26/20 Q1006 NOSIG
ZHCC,2023-05-19 17:00,ZHCC 191700Z 18002MPS 130V220 CAVOK 26/20 Q1005 NOSIG
ZHCC,2023-05-19 18:00,ZHCC 191800Z 18003MPS 150V230 CAVOK 25/20 Q1005 NOSIG
ZHCC,2023-05-19 19:00,ZHCC 191900Z 19002MPS 140V230 CAVOK 25/20 Q1005 NOSIG
ZHCC,2023-05-19 20:00,ZHCC 192000Z 20002MPS 160V240 7000 NSC 24/20 Q1005 NOSIG
ZHCC,2023-05-19 21:00,ZHCC 192100Z 19002MPS 160V220 6000 NSC 24/20 Q1005 NOSIG
ZHCC,2023-05-19 22:00,ZHCC 192200Z 19002MPS 120V230 4000 BR NSC 24/20 Q1005 NOSIG
ZHCC,2023-05-19 23:00,ZHCC 192300Z 19002MPS 160V220 4000 BR NSC 24/20 Q1006 NOSIG
ZHCC,2023-05-20 00:00,ZHCC 200000Z 18002MPS 120V230 5000 HZ NSC 26/20 Q1006 NOSIG
ZHCC,2023-05-20 01:00,ZHCC 200100Z 20004MPS 160V250 CAVOK 29/18 Q1006 NOSIG
ZHCC,2023-05-20 02:00,ZHCC 200200Z 19003MPS 130V230 CAVOK 30/18 Q1006 NOSIG
ZHCC,2023-05-20 03:00,ZHCC 200300Z 18003MPS 120V230 CAVOK 31/18 Q1007 NOSIG
ZHCC,2023-05-20 04:00,ZHCC 200400Z 06002MPS 360V120 9999 FEW040 32/18 Q1006 NOSIG
ZHCC,2023-05-20 05:00,ZHCC 200500Z 03006G11MPS 350V060 7000 FEW040 30/21 Q1006 NOSIG
ZHCC,2023-05-20 06:00,ZHCC 200600Z 04007MPS 7000 FEW030 31/22 Q1006 NOSIG
ZHCC,2023-05-20 07:00,ZHCC 200700Z 04008MPS 7000 SCT030 28/21 Q1006 NOSIG
ZHCC,2023-05-20 08:00,ZHCC 200800Z 04008MPS 360V060 6000 FEW030 28/20 Q1006 NOSIG
ZHCC,2023-05-20 09:00,ZHCC 200900Z 04009MPS 6000 FEW030 25/17 Q1007 NOSIG
ZHCC,2023-05-20 10:00,ZHCC 201000Z 03008MPS 6000 NSC 23/17 Q1007 NOSIG
ZHCC,2023-05-20 11:00,ZHCC 201100Z 04006MPS 8000 NSC 22/11 Q1008 NOSIG
ZHCC,2023-05-20 12:00,ZHCC 201200Z 02007MPS 8000 NSC 21/12 Q1009 NOSIG
ZHCC,2023-05-20 13:00,ZHCC 201300Z 04006MPS 8000 SCT033 21/12 Q1010 NOSIG
ZHCC,2023-05-20 14:00,ZHCC 201400Z 03006MPS 8000 SCT033 21/10 Q1011 NOSIG
ZHCC,2023-05-20 15:00,ZHCC 201500Z 02004MPS 350V050 9999 SCT033 21/09 Q1010 NOSIG
ZHCC,2023-05-20 16:00,ZHCC 201600Z 01005MPS 9999 SCT040 21/06 Q1011 NOSIG
ZHCC,2023-05-20 17:00,ZHCC 201700Z 01005MPS 340V040 9999 FEW033CB SCT033 21/05 Q1011 NOSIG
ZHCC,2023-05-20 18:00,ZHCC 201800Z 36007MPS 9999 FEW033CB SCT033 21/07 Q1011 NOSIG
ZHCC,2023-05-20 19:00,ZHCC 201900Z 36007MPS 9999 SCT040 19/10 Q1012 NOSIG
ZHCC,2023-05-20 20:00,ZHCC 202000Z 01008G13MPS 9999 SCT040 18/10 Q1012 NOSIG
ZHCC,2023-05-20 21:00,ZHCC 202100Z 02007G12MPS 350V050 9999 BKN046 17/10 Q1013 NOSIG
ZHCC,2023-05-20 22:00,ZHCC 202200Z 02009MPS 9999 BKN046 16/10 Q1013 NOSIG
ZHCC,2023-05-20 23:00,ZHCC 202300Z 03007G14MPS 350V050 9999 BKN046 17/10 Q1014 NOSIG
ZHCC,2023-05-21 00:00,ZHCC 210000Z 04009MPS CAVOK 16/10 Q1014 NOSIG
ZHCC,2023-05-21 01:00,ZHCC 210100Z 05008MPS 9999 OVC046 16/10 Q1015 NOSIG
ZHCC,2023-05-21 02:00,ZHCC 210200Z 04007MPS 9999 OVC040 15/08 Q1016 NOSIG
ZHCC,2023-05-21 03:00,ZHCC 210300Z 04007MPS 9999 OVC040 14/09 Q1016 NOSIG
ZHCC,2023-05-21 04:00,ZHCC 210400Z 01007G12MPS 340V040 9999 OVC040 15/07 Q1016 NOSIG
ZHCC,2023-05-21 05:00,ZHCC 210500Z 01007MPS 340V040 9999 OVC040 16/06 Q1016 NOSIG
ZHCC,2023-05-21 06:00,ZHCC 210600Z 33005MPS 9999 OVC040 16/08 Q1016 NOSIG
ZHCC,2023-05-21 07:00,ZHCC 210700Z 32005MPS 9999 -SHRA OVC040 15/10 Q1016 NOSIG
ZHCC,2023-05-21 08:00,ZHCC 210800Z 32008MPS 9999 -SHRA OVC040 14/09 Q1017 NOSIG
ZHCC,2023-05-21 09:00,ZHCC 210900Z 32004MPS 8000 -SHRA OVC040 13/10 Q1017 RESHRA NOSIG
ZHCC,2023-05-21 10:00,ZHCC 211000Z 31004MPS 9999 -RA OVC040 13/10 Q1017 NOSIG
ZHCC,2023-05-21 11:00,ZHCC 211100Z 30005MPS 9999 -RA OVC046 13/10 Q1018 NOSIG
ZHCC,2023-05-21 12:00,ZHCC 211200Z 28004MPS 9999 -RA OVC046 13/10 Q1018 NOSIG
ZHCC,2023-05-21 13:00,ZHCC 211300Z 29004MPS 9000 -RA OVC046 14/12 Q1019 NOSIG
ZHCC,2023-05-21 14:00,ZHCC 211400Z 30006MPS 9000 -RA OVC046 13/11 Q1019 NOSIG
ZHCC,2023-05-21 15:00,ZHCC 211500Z 30005MPS 9999 -RA OVC046 13/11 Q1019 NOSIG
ZHCC,2023-05-21 16:00,ZHCC 211600Z 29004MPS CAVOK 13/11 Q1019 NOSIG
ZHCC,2023-05-21 17:00,ZHCC 211700Z 30005MPS CAVOK 13/10 Q1018 NOSIG
ZHCC,2023-05-21 18:00,ZHCC 211800Z 30005MPS CAVOK 13/10 Q1017 NOSIG
ZHCC,2023-05-21 19:00,ZHCC 211900Z 30005MPS CAVOK 14/09 Q1016 NOSIG
ZHCC,2023-05-21 20:00,ZHCC 212000Z 30004MPS CAVOK 14/09 Q1016 NOSIG
ZHCC,2023-05-21 21:00,ZHCC 212100Z 29004MPS CAVOK 14/09 Q1016 NOSIG
ZHCC,2023-05-21 22:00,ZHCC 212200Z 30004MPS CAVOK 15/09 Q1016 NOSIG
ZHCC,2023-05-21 23:00,ZHCC 212300Z 30005MPS CAVOK 15/09 Q1017 NOSIG
ZHCC,2023-05-22 00:00,ZHCC 220000Z 29006MPS CAVOK 17/09 Q1017 NOSIG
ZHCC,2023-05-22 01:00,ZHCC 220100Z 32005MPS CAVOK 19/09 Q1017 NOSIG
ZHCC,2023-05-22 02:00,ZHCC 220200Z 31004MPS 270V350 CAVOK 21/09 Q1017 NOSIG
ZHCC,2023-05-22 03:00,ZHCC 220300Z 32004MPS 270V360 CAVOK 22/08 Q1017 NOSIG
ZHCC,2023-05-22 04:00,ZHCC 220400Z 32004MPS 290V360 CAVOK 24/08 Q1017 NOSIG
ZHCC,2023-05-22 05:00,ZHCC 220500Z 33003MPS 250V040 CAVOK 24/06 Q1016 NOSIG
ZHCC,2023-05-22 06:00,ZHCC 220600Z 36003MPS 300V070 CAVOK 25/04 Q1015 NOSIG
ZHCC,2023-05-22 07:00,ZHCC 220700Z 31004MPS 240V010 CAVOK 26/06 Q1015 NOSIG
ZHCC,2023-05-22 08:00,ZHCC 220800Z 35003MPS 310V040 CAVOK 25/06 Q1015 NOSIG
ZHCC,2023-05-22 09:00,ZHCC 220900Z 03002MPS 320V060 CAVOK 25/06 Q1014 NOSIG
ZHCC,2023-05-22 10:00,ZHCC 221000Z 02002MPS 360V060 CAVOK 24/07 Q1014 NOSIG
ZHCC,2023-05-22 11:00,ZHCC 221100Z 02002MPS CAVOK 24/07 Q1015 NOSIG
ZHCC,2023-05-22 12:00,ZHCC 221200Z 04002MPS CAVOK 22/08 Q1015 NOSIG
ZHCC,2023-05-22 13:00,ZHCC 221300Z 00000MPS CAVOK 17/10 Q1016 NOSIG
ZHCC,2023-05-22 14:00,ZHCC 221400Z 00000MPS CAVOK 15/10 Q1016 NOSIG
ZHCC,2023-05-22 15:00,ZHCC 221500Z VRB01MPS CAVOK 15/11 Q1016 NOSIG
ZHCC,2023-05-22 16:00,ZHCC 221600Z 00000MPS CAVOK 14/11 Q1016 NOSIG
ZHCC,2023-05-22 17:00,ZHCC 221700Z 29001MPS CAVOK 14/11 Q1015 NOSIG
ZHCC,2023-05-22 18:00,ZHCC 221800Z 00000MPS CAVOK 13/10 Q1015 NOSIG
ZHCC,2023-05-22 19:00,ZHCC 221900Z 00000MPS CAVOK 13/10 Q1015 NOSIG
ZHCC,2023-05-22 20:00,ZHCC 222000Z 00000MPS CAVOK 12/11 Q1015 NOSIG
ZHCC,2023-05-22 21:00,ZHCC 222100Z 27001MPS CAVOK 12/10 Q1015 NOSIG
ZHCC,2023-05-22 22:00,ZHCC 222200Z 00000MPS CAVOK 12/10 Q1015 NOSIG
ZHCC,2023-05-22 23:00,ZHCC 222300Z VRB01MPS CAVOK 17/12 Q1015 NOSIG
ZHCC,2023-05-23 00:00,ZHCC 230000Z 20002MPS 160V240 CAVOK 21/10 Q1015 NOSIG
ZHCC,2023-05-23 01:00,ZHCC 230100Z 20002MPS 170V250 CAVOK 23/10 Q1015 NOSIG
ZHCC,2023-05-23 02:00,ZHCC 230200Z 20003MPS 160V250 CAVOK 23/08 Q1015 NOSIG
ZHCC,2023-05-23 03:00,ZHCC 230300Z 14002MPS 060V230 CAVOK 25/08 Q1015 NOSIG
ZHCC,2023-05-23 04:00,ZHCC 230400Z VRB02MPS CAVOK 26/08 Q1014 NOSIG
ZHCC,2023-05-23 05:00,ZHCC 230500Z 18003MPS 120V240 CAVOK 25/06 Q1013 NOSIG
ZHCC,2023-05-23 06:00,ZHCC 230600Z 17003MPS 100V240 CAVOK 25/07 Q1012 NOSIG
ZHCC,2023-05-23 07:00,ZHCC 230700Z 15003MPS 090V220 CAVOK 25/08 Q1012 NOSIG
ZHCC,2023-05-23 08:00,ZHCC 230800Z 18002MPS 110V280 CAVOK 25/08 Q1011 NOSIG
ZHCC,2023-05-23 09:00,ZHCC 230900Z 19003MPS 130V240 CAVOK 25/08 Q1011 NOSIG
ZHCC,2023-05-23 10:00,ZHCC 231000Z 21004MPS 180V240 CAVOK 24/08 Q1011 NOSIG
ZHCC,2023-05-23 11:00,ZHCC 231100Z VRB01MPS CAVOK 23/09 Q1011 NOSIG
ZHCC,2023-05-23 12:00,ZHCC 231200Z VRB01MPS CAVOK 22/10 Q1011 NOSIG
ZHCC,2023-05-23 13:00,ZHCC 231300Z VRB01MPS CAVOK 21/10 Q1011 NOSIG
ZHCC,2023-05-23 14:00,ZHCC 231400Z VRB01MPS CAVOK 21/11 Q1011 NOSIG
ZHCC,2023-05-23 15:00,ZHCC 231500Z 23004MPS 200V260 CAVOK 22/10 Q1011 NOSIG
ZHCC,2023-05-23 16:00,ZHCC 231600Z 22003MPS 190V250 CAVOK 21/10 Q1011 NOSIG
ZHCC,2023-05-23 17:00,ZHCC 231700Z 19002MPS 160V220 9999 -RA NSC 19/12 Q1011 NOSIG
ZHCC,2023-05-23 18:00,ZHCC 231800Z VRB01MPS 9999 -RA NSC 19/12 Q1012 NOSIG
ZHCC,2023-05-23 19:00,ZHCC 231900Z 13001MPS CAVOK 18/14 Q1011 NOSIG
ZHCC,2023-05-23 20:00,ZHCC 232000Z VRB01MPS 9999 -RA NSC 18/12 Q1011 NOSIG
ZHCC,2023-05-23 21:00,ZHCC 232100Z 12002MPS CAVOK 18/12 Q1011 NOSIG
ZHCC,2023-05-23 22:00,ZHCC 232200Z 18002MPS 150V220 CAVOK 17/13 Q1011 NOSIG
ZHCC,2023-05-23 23:00,ZHCC 232300Z 17002MPS 100V210 CAVOK 19/13 Q1011 NOSIG
ZHCC,2023-05-24 00:00,ZHCC 240000Z 17003MPS 110V220 CAVOK 20/12 Q1011 NOSIG
ZHCC,2023-05-24 01:00,ZHCC 240100Z 14003MPS 070V210 9999 FEW033 21/12 Q1011 NOSIG
ZHCC,2023-05-24 02:00,ZHCC 240200Z 18003MPS 110V240 9999 SCT033 22/12 Q1012 NOSIG
ZHCC,2023-05-24 03:00,ZHCC 240300Z VRB02MPS 9999 SCT033 22/11 Q1011 NOSIG
ZHCC,2023-05-24 04:00,ZHCC 240400Z VRB03MPS 9999 BKN033 22/11 Q1011 NOSIG
ZHCC,2023-05-24 05:00,ZHCC 240500Z 17002MPS 110V240 9999 BKN033 24/11 Q1011 NOSIG
ZHCC,2023-05-24 06:00,ZHCC 240600Z VRB02MPS 9999 BKN033 24/11 Q1010 NOSIG
ZHCC,2023-05-24 07:00,ZHCC 240700Z VRB02MPS 9999 BKN040 25/12 Q1009 NOSIG
ZHCC,2023-05-24 08:00,ZHCC 240800Z 14004MPS 100V190 9999 BKN046 24/12 Q1009 NOSIG
ZHCC,2023-05-24 09:00,ZHCC 240900Z 13003MPS 080V190 9999 SCT046 24/12 Q1009 NOSIG
ZHCC,2023-05-24 10:00,ZHCC 241000Z 13004MPS 100V160 9999 SCT046 22/12 Q1009 NOSIG
ZHCC,2023-05-24 11:00,ZHCC 241100Z 13003MPS CAVOK 22/12 Q1010 NOSIG
ZHCC,2023-05-24 12:00,ZHCC 241200Z 14003MPS 110V180 CAVOK 20/13 Q1010 NOSIG
ZHCC,2023-05-24 13:00,ZHCC 241300Z 14003MPS 100V190 CAVOK 19/13 Q1011 NOSIG
ZHCC,2023-05-24 14:00,ZHCC 241400Z 14003MPS 110V200 CAVOK 18/14 Q1011 NOSIG
ZHCC,2023-05-24 15:00,ZHCC 241500Z 15002MPS 110V210 CAVOK 18/14 Q1011 NOSIG
ZHCC,2023-05-24 16:00,ZHCC 241600Z VRB01MPS CAVOK 17/14 Q1012 NOSIG
ZHCC,2023-05-24 17:00,ZHCC 241700Z 19003MPS 130V230 CAVOK 17/14 Q1011 NOSIG
ZHCC,2023-05-24 18:00,ZHCC 241800Z VRB01MPS CAVOK 16/14 Q1011 NOSIG
ZHCC,2023-05-24 19:00,ZHCC 241900Z 17002MPS 080V250 CAVOK 16/14 Q1010 NOSIG
ZHCC,2023-05-24 20:00,ZHCC 242000Z 17002MPS 100V220 7000 NSC 16/14 Q1009 NOSIG
ZHCC,2023-05-24 21:00,ZHCC 242100Z 19002MPS 130V220 7000 NSC 17/14 Q1010 NOSIG
ZHCC,2023-05-24 22:00,ZHCC 242200Z 19002MPS 140V240 4000 BR NSC 17/15 Q1011 NOSIG
ZHCC,2023-05-24 23:00,ZHCC 242300Z VRB01MPS 4000 BR NSC 16/15 Q1011 NOSIG
ZHCC,2023-05-25 00:00,ZHCC 250000Z 20002MPS 130V260 3500 BR NSC 17/15 Q1012 NOSIG
ZHCC,2023-05-25 01:00,ZHCC 250100Z 17002MPS 080V230 4000 BR NSC 17/15 Q1011 NOSIG
ZHCC,2023-05-25 02:00,ZHCC 250200Z 21002MPS 150V240 4500 BR NSC 18/16 Q1011 NOSIG
ZHCC,2023-05-25 03:00,ZHCC 250300Z 16002MPS 5000 BR NSC 19/16 Q1011 NOSIG
ZHCC,2023-05-25 04:00,ZHCC 250400Z VRB02MPS 6000 NSC 19/16 Q1011 NOSIG
ZHCC,2023-05-25 05:00,ZHCC 250500Z 26002MPS 220V310 7000 NSC 21/16 Q1011 NOSIG
ZHCC,2023-05-25 06:00,ZHCC 250600Z 17002MPS 110V210 CAVOK 22/16 Q1011 NOSIG
ZHCC,2023-05-25 07:00,ZHCC 250700Z VRB01MPS CAVOK 23/16 Q1010 NOSIG
ZHCC,2023-05-25 08:00,ZHCC 250800Z VRB01MPS CAVOK 23/15 Q1010 NOSIG
ZHCC,2023-05-25 09:00,ZHCC 250900Z VRB01MPS CAVOK 24/15 Q1010 NOSIG
ZHCC,2023-05-25 10:00,ZHCC 251000Z 29001MPS CAVOK 24/16 Q1010 NOSIG
ZHCC,2023-05-25 11:00,ZHCC 251100Z VRB01MPS CAVOK 22/16 Q1010 NOSIG
ZHCC,2023-05-25 12:00,ZHCC 251200Z 31001MPS CAVOK 21/17 Q1011 NOSIG
ZHCC,2023-05-25 13:00,ZHCC 251300Z 00000MPS CAVOK 21/17 Q1011 NOSIG
ZHCC,2023-05-25 14:00,ZHCC 251400Z 00000MPS 8000 NSC 20/17 Q1011 NOSIG
ZHCC,2023-05-25 15:00,ZHCC 251500Z VRB01MPS 8000 -RA NSC 20/16 Q1012 NOSIG
ZHCC,2023-05-25 16:00,ZHCC 251600Z 30002MPS 260V320 8000 NSC 20/17 Q1011 NOSIG
ZHCC,2023-05-25 17:00,ZHCC 251700Z 00000MPS 7000 NSC 19/17 Q1011 NOSIG
ZHCC,2023-05-25 18:00,ZHCC 251800Z 29001MPS 6000 NSC 19/17 Q1011 NOSIG
ZHCC,2023-05-25 19:00,ZHCC 251900Z VRB01MPS 6000 NSC 19/17 Q1011 NOSIG
ZHCC,2023-05-25 20:00,ZHCC 252000Z 00000MPS 6000 NSC 19/16 Q1011 NOSIG
ZHCC,2023-05-25 21:00,ZHCC 252100Z VRB01MPS 7000 NSC 19/16 Q1011 NOSIG
ZHCC,2023-05-25 22:00,ZHCC 252200Z 12001MPS 5000 BR NSC 19/17 Q1011 NOSIG
ZHCC,2023-05-25 23:00,ZHCC 252300Z 00000MPS 5000 BR NSC 20/16 Q1012 NOSIG
ZHCC,2023-05-26 00:00,ZHCC 260000Z VRB01MPS 5000 BR NSC 21/17 Q1013 NOSIG
ZHCC,2023-05-26 01:00,ZHCC 260100Z VRB01MPS 5000 HZ NSC 22/16 Q1013 NOSIG
ZHCC,2023-05-26 02:00,ZHCC 260200Z 06002MPS 5000 HZ NSC 22/17 Q1013 NOSIG
ZHCC,2023-05-26 03:00,ZHCC 260300Z 06003MPS 020V100 5000 HZ NSC 24/17 Q1013 NOSIG
ZHCC,2023-05-26 04:00,ZHCC 260400Z 08003MPS 060V120 7000 NSC 24/17 Q1013 NOSIG
ZHCC,2023-05-26 05:00,ZHCC 260500Z 08002MPS 040V120 7000 -RA BKN030 24/17 Q1012 NOSIG
ZHCC,2023-05-26 06:00,ZHCC 260600Z 13003MPS 090V190 8000 -RA BKN030 25/17 Q1012 NOSIG
ZHCC,2023-05-26 07:00,ZHCC 260700Z 14002MPS 100V180 4000 -RA BR BKN030 21/19 Q1012 NOSIG
ZHCC,2023-05-26 08:00,ZHCC 260800Z 08005MPS 6000 BKN030 21/19 Q1011 NOSIG
ZHCC,2023-05-26 09:00,ZHCC 260900Z 07004MPS 6000 -RA BKN030 20/18 Q1011 NOSIG
ZHCC,2023-05-26 10:00,ZHCC 261000Z 08006MPS 5000 BR BKN030 20/18 Q1011 NOSIG
ZHCC,2023-05-26 11:00,ZHCC 261100Z 06004MPS 2000 -RA BR FEW005 OVC030 20/19 Q1011 BECMG TL1240 3000
ZHCC,2023-05-26 12:00,ZHCC 261200Z 05003MPS 2500 -RA BR FEW005 OVC030 19/19 Q1011 BECMG TL1240 3000
ZHCC,2023-05-26 13:00,ZHCC 261300Z 07005MPS 3000 -RA BR FEW005 OVC030 19/19 Q1012 NOSIG
ZHCC,2023-05-26 14:00,ZHCC 261400Z 05003MPS 2000 -RA BR FEW005 OVC030 19/19 Q1012 NOSIG
ZHCC,2023-05-26 15:00,ZHCC 261500Z 06004MPS 2000 -RA BR FEW005 OVC030 19/19 Q1011 NOSIG
ZHCC,2023-05-26 16:00,ZHCC 261600Z 06005MPS 2500 -RA BR FEW005 OVC030 19/19 Q1011 BECMG TL1740 3000
ZHCC,2023-05-26 17:00,ZHCC 261700Z 06003MPS 3000 BR FEW005 OVC030 19/19 Q1010 NOSIG
ZHCC,2023-05-26 18:00,ZHCC 261800Z 05003MPS 2200 -RA BR FEW005 OVC030 19/19 Q1010 NOSIG
ZHCC,2023-05-26 19:00,ZHCC 261900Z 06003MPS 2200 -RA BR FEW005 OVC030 19/19 Q1009 NOSIG
ZHCC,2023-05-26 20:00,ZHCC 262000Z 05002MPS 1500 BR FEW005 OVC020 20/19 Q1009 NOSIG
ZHCC,2023-05-26 21:00,ZHCC 262100Z 04003MPS 1500 -RA BR FEW005 OVC020 20/19 Q1009 NOSIG
ZHCC,2023-05-26 22:00,ZHCC 262200Z 04002MPS 1000 R12R/1900N R12L/1900N -RA BR FEW005 OVC020 20/19 Q1009 NOSIG
ZHCC,2023-05-26 23:00,ZHCC 262300Z 04003MPS 0700 R12R/1300N R12L/1200N -RA FG VV003 20/19 Q1009 BECMG TL0040 0900
ZHCC,2023-05-27 00:00,ZHCC 270000Z 04003MPS 360V060 0800 R12R/1400N R12L/1300N FG OVC003 20/19 Q1009 BECMG TL0140 1500 BR
ZHCC,2023-05-27 01:00,ZHCC 270100Z 04004MPS 020V080 1000 R12R/1400N R12L/1400N BR OVC003 20/19 Q1009 BECMG TL0140 1500
ZHCC,2023-05-27 02:00,ZHCC 270200Z 04003MPS 1500 BR SCT005 OVC020 20/19 Q1010 NOSIG
ZHCC,2023-05-27 03:00,ZHCC 270300Z 04004MPS 1500 -RA BR SCT005 OVC020 20/19 Q1010 NOSIG
ZHCC,2023-05-27 04:00,ZHCC 270400Z 05005MPS 1600 -RA BR SCT005 OVC020 20/19 Q1010 NOSIG
ZHCC,2023-05-27 05:00,ZHCC 270500Z 04005MPS 010V070 2000 -RA BR SCT005 OVC020 20/19 Q1009 NOSIG
ZHCC,2023-05-27 06:00,ZHCC 270600Z 03004MPS 2800 -RA BR SCT005 OVC020 19/19 Q1009 NOSIG
ZHCC,2023-05-27 07:00,ZHCC 270700Z 02004MPS 350V050 4000 -RA BR SCT005 OVC020 19/18 Q1009 NOSIG
ZHCC,2023-05-27 08:00,ZHCC 270800Z 01005MPS 340V040 4000 -RA BR SCT005 OVC020 18/18 Q1009 NOSIG
ZHCC,2023-05-27 09:00,ZHCC 270900Z 02005MPS 8000 -RA SCT005 OVC020 18/17 Q1009 NOSIG
ZHCC,2023-05-27 10:00,ZHCC 271000Z 03006MPS 6000 -RA SCT005 OVC020 18/17 Q1009 NOSIG
ZHCC,2023-05-27 11:00,ZHCC 271100Z 02004MPS 8000 SCT005 OVC020 18/17 Q1010 NOSIG
ZHCC,2023-05-27 12:00,ZHCC 271200Z 02005MPS 6000 RA SCT005 OVC020 18/17 Q1010 BECMG TL1240 -RA
ZHCC,2023-05-27 13:00,ZHCC 271300Z 03004MPS 350V050 8000 SCT007 OVC020 18/17 Q1011 RERA NOSIG
ZHCC,2023-05-27 14:00,ZHCC 271400Z 02004MPS 350V050 5000 -SHRA BR SCT007 OVC020 18/17 Q1011 RESHRA NOSIG
ZHCC,2023-05-27 15:00,ZHCC 271500Z 01004MPS 340V040 5000 -SHRA BR SCT007 OVC020 18/17 Q1011 NOSIG
ZHCC,2023-05-27 16:00,ZHCC 271600Z 01005MPS 5000 -SHRA BR SCT007 OVC020 17/17 Q1011 RESHRA NOSIG
ZHCC,2023-05-27 17:00,ZHCC 271700Z 36004MPS 330V030 5000 -SHRA BR SCT007 OVC020 17/17 Q1011 NOSIG
ZHCC,2023-05-27 18:00,ZHCC 271800Z 01004MPS 5000 -RA BR SCT007 OVC020 17/17 Q1010 NOSIG
ZHCC,2023-05-27 19:00,ZHCC 271900Z 01005MPS 340V040 5000 BR SCT007 OVC020 17/17 Q1010 NOSIG
ZHCC,2023-05-27 20:00,ZHCC 272000Z 01004MPS 5000 BR SCT007 OVC020 17/17 Q1010 NOSIG
ZHCC,2023-05-27 21:00,ZHCC 272100Z 36004MPS 5000 -RA BR SCT007 OVC020 17/17 Q1010 NOSIG
ZHCC,2023-05-27 22:00,ZHCC 272200Z 35004MPS 3500 -RA BR SCT007 OVC020 17/17 Q1011 NOSIG
ZHCC,2023-05-27 23:00,ZHCC 272300Z 36005MPS 4800 -RA BR SCT007 OVC020 17/17 Q1011 NOSIG
ZHCC,2023-05-28 00:00,ZHCC 280000Z 36005MPS 9999 SCT007 OVC020 18/17 Q1012 NOSIG
ZHCC,2023-05-28 01:00,ZHCC 280100Z 35004MPS 9999 SCT007 OVC020 18/17 Q1012 NOSIG
ZHCC,2023-05-28 02:00,ZHCC 280200Z 36005MPS 330V040 9999 SCT007 OVC020 18/17 Q1012 NOSIG
ZHCC,2023-05-28 03:00,ZHCC 280300Z 01005MPS 340V040 9999 SCT007 OVC020 19/17 Q1012 NOSIG
ZHCC,2023-05-28 04:00,ZHCC 280400Z 02005MPS 340V040 9999 SCT009 OVC020 19/17 Q1012 NOSIG
ZHCC,2023-05-28 05:00,ZHCC 280500Z 01005MPS 9999 SCT009 OVC020 20/18 Q1012 NOSIG
ZHCC,2023-05-28 06:00,ZHCC 280600Z 01005MPS 340V050 9999 SCT014 OVC020 20/18 Q1011 NOSIG
ZHCC,2023-05-28 07:00,ZHCC 280700Z 02005MPS 340V040 9999 SCT015 OVC030 21/18 Q1011 NOSIG
ZHCC,2023-05-28 08:00,ZHCC 280800Z 02004MPS 340V060 9999 SCT017 OVC030 21/18 Q1011 NOSIG
ZHCC,2023-05-28 09:00,ZHCC 280900Z 04005MPS 9999 SCT020 BKN040 21/18 Q1011 NOSIG
ZHCC,2023-05-28 10:00,ZHCC 281000Z 04003MPS 9999 SCT020 BKN040 20/18 Q1011 NOSIG
ZHCC,2023-05-28 11:00,ZHCC 281100Z 02004MPS 350V050 9999 SCT015 BKN040 20/17 Q1011 NOSIG
ZHCC,2023-05-28 12:00,ZHCC 281200Z 04005MPS 9999 SCT015 BKN040 20/17 Q1012 NOSIG
ZHCC,2023-05-28 13:00,ZHCC 281300Z 03004MPS 360V070 9999 SCT012 OVC040 19/17 Q1013 NOSIG
ZHCC,2023-05-28 14:00,ZHCC 281400Z 03004MPS 360V070 9999 SCT011 FEW026CB BKN040 19/17 Q1013 NOSIG
ZHCC,2023-05-28 15:00,ZHCC 281500Z 36002MPS 320V030 6000 SHRA SCT011 FEW026CB BKN040 19/17 Q1014 BECMG TL1640 -SHRA
ZHCC,2023-05-28 16:00,ZHCC 281600Z 32002MPS 290V350 6000 SHRA SCT011 FEW026CB BKN030 18/17 Q1014 BECMG TL1720 -SHRA
ZHCC,2023-05-28 17:00,ZHCC 281700Z 32002MPS 6000 -SHRA SCT009 BKN033 18/18 Q1013 RESHRA NOSIG
ZHCC,2023-05-28 18:00,ZHCC 281800Z 34003MPS 6000 -RA FEW010 OVC033 18/17 Q1013 NOSIG
ZHCC,2023-05-28 19:00,ZHCC 281900Z 01003MPS 340V040 8000 FEW015 OVC046 18/17 Q1012 NOSIG
ZHCC,2023-05-28 20:00,ZHCC 282000Z 01002MPS 340V040 8000 NSC 18/17 Q1012 NOSIG
ZHCC,2023-05-28 21:00,ZHCC 282100Z 35003MPS 6000 SCT040 18/17 Q1012 NOSIG
ZHCC,2023-05-28 22:00,ZHCC 282200Z 36003MPS 3000 BR FEW040 18/17 Q1013 NOSIG
ZHCC,2023-05-28 23:00,ZHCC 282300Z 02003MPS 3000 BR FEW020 19/18 Q1013 NOSIG
ZHCC,2023-05-29 00:00,ZHCC 290000Z 36004MPS 4000 BR SCT020 20/18 Q1013 NOSIG
ZHCC,2023-05-29 01:00,ZHCC 290100Z 03004MPS 360V060 8000 SCT020 21/17 Q1014 NOSIG
ZHCC,2023-05-29 02:00,ZHCC 290200Z 02005MPS 340V040 9999 SCT020 22/17 Q1014 NOSIG
ZHCC,2023-05-29 03:00,ZHCC 290300Z 03006MPS 360V060 9999 BKN020 23/17 Q1014 NOSIG
ZHCC,2023-05-29 04:00,ZHCC 290400Z 04005MPS 010V070 9999 SCT020 24/17 Q1014 NOSIG
ZHCC,2023-05-29 05:00,ZHCC 290500Z 06006MPS 9999 SCT020 24/18 Q1013 NOSIG
ZHCC,2023-05-29 06:00,ZHCC 290600Z 05005MPS 9999 BKN020 24/18 Q1013 NOSIG
ZHCC,2023-05-29 07:00,ZHCC 290700Z 03005MPS 9999 OVC020 23/18 Q1013 NOSIG
ZHCC,2023-05-29 08:00,ZHCC 290800Z 04003MPS 360V060 7000 -RA OVC020 22/19 Q1013 NOSIG
ZHCC,2023-05-29 09:00,ZHCC 290900Z 03004MPS 350V060 5000 -RA BR OVC020 21/19 Q1013 BECMG TL1020 SHRA FEW030CB BKN030
ZHCC,2023-05-29 10:00,ZHCC 291000Z 03007MPS 7000 -RA OVC020 20/17 Q1014 NOSIG
ZHCC,2023-05-29 11:00,ZHCC 291100Z 04003MPS 6000 -RA OVC020 19/18 Q1014 NOSIG
ZHCC,2023-05-29 12:00,ZHCC 291200Z 02002MPS 7000 -RA OVC026 19/18 Q1014 NOSIG
ZHCC,2023-05-29 13:00,ZHCC 291300Z 04002MPS 010V070 6000 -RA OVC026 19/18 Q1014 NOSIG
ZHCC,2023-05-29 14:00,ZHCC 291400Z 35002MPS 5000 -RA BR SCT008 OVC026 19/18 Q1015 NOSIG
ZHCC,2023-05-29 15:00,ZHCC 291500Z 36002MPS 5000 -RA BR SCT007 OVC020 19/18 Q1014 BECMG TL1630 SHRA SCT008 FEW026CB BKN026
ZHCC,2023-05-29 16:00,ZHCC 291600Z 02003MPS 4500 -RA BR SCT007 OVC020 19/18 Q1014 NOSIG
ZHCC,2023-05-29 17:00,ZHCC 291700Z 32003MPS 3000 SHRA BR SCT005 FEW020CB BKN020 19/18 Q1014 BECMG TL1800 -RA SCT007 BKN020
ZHCC,2023-05-29 18:00,ZHCC 291800Z 35003MPS 3500 SHRA BR SCT006 FEW020CB BKN020 19/18 Q1013 BECMG TL1830 -RA
ZHCC,2023-05-29 19:00,ZHCC 291900Z 34004MPS 4000 -RA BR SCT005 OVC020 19/18 Q1013 RESHRA NOSIG
ZHCC,2023-05-29 20:00,ZHCC 292000Z 32004MPS 4000 -RA BR FEW007 OVC030 19/18 Q1013 NOSIG
ZHCC,2023-05-29 21:00,ZHCC 292100Z 33003MPS 260V360 4000 -RA BR SCT007 OVC030 19/18 Q1013 NOSIG
ZHCC,2023-05-29 22:00,ZHCC 292200Z 32003MPS 2500 -RA BR SCT007 OVC030 19/18 Q1013 BECMG TL2340 3000
ZHCC,2023-05-29 23:00,ZHCC 292300Z 35003MPS 320V020 2000 BR SCT005 OVC030 19/18 Q1013 BECMG TL0040 3000
ZHCC,2023-05-30 00:00,ZHCC 300000Z 33003MPS 3000 BR SCT007 OVC030 19/19 Q1014 NOSIG
ZHCC,2023-05-30 01:00,ZHCC 300100Z 34003MPS 4000 BR SCT007 OVC030 20/19 Q1014 NOSIG
ZHCC,2023-05-30 02:00,ZHCC 300200Z 32004MPS 5000 BR SCT007 OVC030 20/19 Q1014 NOSIG
ZHCC,2023-05-30 03:00,ZHCC 300300Z 31004MPS 5000 BR SCT007 OVC030 22/19 Q1014 NOSIG
ZHCC,2023-05-30 04:00,ZHCC 300400Z 34004MPS 5000 BR SCT007 OVC030 23/19 Q1014 NOSIG
ZHCC,2023-05-30 05:00,ZHCC 300500Z 36003MPS 330V040 8000 SCT007 OVC030 24/19 Q1013 NOSIG
ZHCC,2023-05-30 06:00,ZHCC 300600Z 04003MPS 350V070 8000 SCT030 24/19 Q1012 NOSIG
ZHCC,2023-05-30 07:00,ZHCC 300700Z 03003MPS 350V070 9999 BKN030 25/19 Q1011 NOSIG
ZHCC,2023-05-30 08:00,ZHCC 300800Z 07003MPS 040V120 9999 BKN030 25/20 Q1011 NOSIG
ZHCC,2023-05-30 09:00,ZHCC 300900Z 04004MPS 9999 BKN030 25/19 Q1010 NOSIG
ZHCC,2023-05-30 10:00,ZHCC 301000Z 06004MPS 020V080 9999 SCT030 25/19 Q1010 NOSIG
ZHCC,2023-05-30 11:00,ZHCC 301100Z 04004MPS CAVOK 24/19 Q1011 NOSIG
ZHCC,2023-05-30 12:00,ZHCC 301200Z 05003MPS CAVOK 23/19 Q1011 NOSIG
ZHCC,2023-05-30 13:00,ZHCC 301300Z 04002MPS CAVOK 22/19 Q1012 NOSIG
ZHCC,2023-05-30 14:00,ZHCC 301400Z 04003MPS 360V080 CAVOK 22/18 Q1012 NOSIG
ZHCC,2023-05-30 15:00,ZHCC 301500Z VRB01MPS CAVOK 21/18 Q1012 NOSIG
ZHCC,2023-05-30 16:00,ZHCC 301600Z 04002MPS 010V080 CAVOK 21/18 Q1012 NOSIG
ZHCC,2023-05-30 17:00,ZHCC 301700Z VRB01MPS 8000 NSC 19/18 Q1012 NOSIG
ZHCC,2023-05-30 18:00,ZHCC 301800Z 05002MPS 8000 NSC 20/18 Q1011 NOSIG
ZHCC,2023-05-30 19:00,ZHCC 301900Z VRB01MPS 6000 NSC 19/18 Q1011 NOSIG
ZHCC,2023-05-30 20:00,ZHCC 302000Z 32002MPS 5000 BR NSC 18/18 Q1011 NOSIG
ZHCC,2023-05-30 21:00,ZHCC 302100Z VRB01MPS 5000 BR NSC 18/17 Q1011 NOSIG
ZHCC,2023-05-30 22:00,ZHCC 302200Z VRB01MPS 3000 BR NSC 18/18 Q1011 NOSIG
ZHCC,2023-05-30 23:00,ZHCC 302300Z VRB01MPS 3500 BR NSC 21/18 Q1011 NOSIG
ZHCC,2023-05-31 00:00,ZHCC 310000Z VRB01MPS 4500 BR NSC 22/18 Q1012 NOSIG
ZHCC,2023-05-31 01:00,ZHCC 310100Z VRB01MPS 5000 HZ NSC 23/18 Q1012 NOSIG
ZHCC,2023-05-31 02:00,ZHCC 310200Z VRB01MPS 6000 BKN030 24/18 Q1011 NOSIG
ZHCC,2023-05-31 03:00,ZHCC 310300Z VRB01MPS 7000 BKN030 SCT040 24/18 Q1011 NOSIG
ZHCC,2023-05-31 04:00,ZHCC 310400Z VRB02MPS 8000 BKN030 SCT040 25/18 Q1010 NOSIG
ZHCC,2023-05-31 05:00,ZHCC 310500Z VRB01MPS 9999 BKN040 26/18 Q1010 NOSIG
ZHCC,2023-05-31 06:00,ZHCC 310600Z 32002MPS 280V360 9999 BKN040 27/18 Q1009 NOSIG
ZHCC,2023-05-31 07:00,ZHCC 310700Z VRB01MPS 9999 BKN040 27/18 Q1008 NOSIG
ZHCC,2023-05-31 08:00,ZHCC 310800Z 32002MPS 280V020 CAVOK 27/18 Q1009 NOSIG
ZHCC,2023-05-31 09:00,ZHCC 310900Z 31002MPS 270V350 CAVOK 27/17 Q1008 NOSIG
ZHCC,2023-05-31 10:00,ZHCC 311000Z 00000MPS CAVOK 27/19 Q1008 NOSIG
ZHCC,2023-05-31 11:00,ZHCC 311100Z 00000MPS CAVOK 25/18 Q1008 NOSIG
ZHCC,2023-05-31 12:00,ZHCC 311200Z 00000MPS CAVOK 24/20 Q1008 NOSIG
ZHCC,2023-05-31 13:00,ZHCC 311300Z 32002MPS CAVOK 24/20 Q1009 NOSIG
ZHCC,2023-05-31 14:00,ZHCC 311400Z 32002MPS 280V360 CAVOK 24/19 Q1009 NOSIG
ZHCC,2023-05-31 15:00,ZHCC 311500Z VRB01MPS CAVOK 23/19 Q1009 NOSIG
ZHCC,2023-05-31 16:00,ZHCC 311600Z 05002MPS CAVOK 22/19 Q1009 NOSIG
ZHCC,2023-05-31 17:00,ZHCC 311700Z 31002MPS CAVOK 22/19 Q1008 NOSIG
ZHCC,2023-05-31 18:00,ZHCC 311800Z 29002MPS CAVOK 21/19 Q1008 NOSIG
ZHCC,2023-05-31 19:00,ZHCC 311900Z 28002MPS CAVOK 21/19 Q1008 NOSIG
ZHCC,2023-05-31 20:00,ZHCC 312000Z 28002MPS CAVOK 21/18 Q1008 NOSIG
ZHCC,2023-05-31 21:00,ZHCC 312100Z 30002MPS CAVOK 20/18 Q1008 NOSIG
ZHCC,2023-05-31 22:00,ZHCC 312200Z 28002MPS CAVOK 20/18 Q1008 NOSIG
ZHCC,2023-05-31 23:00,ZHCC 312300Z 29003MPS CAVOK 23/18 Q1007 NOSIG
ZHCC,2023-06-01 00:00,ZHCC 010000Z 28005MPS 240V300 CAVOK 24/17 Q1008 NOSIG
ZHCC,2023-06-01 01:00,ZHCC 010100Z 29005MPS 260V320 CAVOK 26/18 Q1008 NOSIG
ZHCC,2023-06-01 02:00,ZHCC 010200Z 28002MPS 190V330 CAVOK 27/18 Q1008 NOSIG
ZHCC,2023-06-01 03:00,ZHCC 010300Z 30005MPS 270V330 CAVOK 29/17 Q1007 NOSIG
ZHCC,2023-06-01 04:00,ZHCC 010400Z 29005MPS CAVOK 30/15 Q1007 NOSIG
ZHCC,2023-06-01 05:00,ZHCC 010500Z 32006MPS CAVOK 31/15 Q1006 NOSIG
ZHCC,2023-06-01 06:00,ZHCC 010600Z 31004MPS 270V340 CAVOK 32/15 Q1005 NOSIG
ZHCC,2023-06-01 07:00,ZHCC 010700Z 32004MPS 270V360 CAVOK 33/14 Q1004 NOSIG
ZHCC,2023-06-01 08:00,ZHCC 010800Z 30004MPS 280V340 CAVOK 32/13 Q1004 NOSIG
ZHCC,2023-06-01 09:00,ZHCC 010900Z 30003MPS 270V340 CAVOK 31/12 Q1004 NOSIG
ZHCC,2023-06-01 10:00,ZHCC 011000Z 29002MPS 270V010 CAVOK 32/12 Q1004 NOSIG
ZHCC,2023-06-01 11:00,ZHCC 011100Z 30003MPS CAVOK 28/15 Q1004 NOSIG
ZHCC,2023-06-01 12:00,ZHCC 011200Z 26001MPS CAVOK 25/15 Q1004 NOSIG
ZHCC,2023-06-01 13:00,ZHCC 011300Z 00000MPS CAVOK 23/16 Q1004 NOSIG
ZHCC,2023-06-01 14:00,ZHCC 011400Z 27001MPS CAVOK 21/16 Q1005 NOSIG
ZHCC,2023-06-01 15:00,ZHCC 011500Z 26002MPS CAVOK 23/14 Q1005 NOSIG
ZHCC,2023-06-01 16:00,ZHCC 011600Z 27001MPS CAVOK 22/15 Q1005 NOSIG
ZHCC,2023-06-01 17:00,ZHCC 011700Z 27002MPS CAVOK 19/15 Q1005 NOSIG
ZHCC,2023-06-01 18:00,ZHCC 011800Z 27001MPS CAVOK 19/16 Q1005 NOSIG
ZHCC,2023-06-01 19:00,ZHCC 011900Z 29003MPS CAVOK 21/16 Q1005 NOSIG
ZHCC,2023-06-01 20:00,ZHCC 012000Z 28003MPS CAVOK 23/15 Q1006 NOSIG
ZHCC,2023-06-01 21:00,ZHCC 012100Z 31004MPS CAVOK 24/15 Q1006 NOSIG
ZHCC,2023-06-01 22:00,ZHCC 012200Z 33005MPS 9999 BKN040 25/14 Q1008 NOSIG
ZHCC,2023-06-01 23:00,ZHCC 012300Z 02005MPS 9999 -RA BKN040 24/14 Q1009 NOSIG
ZHCC,2023-06-02 00:00,ZHCC 020000Z 36004MPS 9999 BKN040 24/12 Q1009 NOSIG
ZHCC,2023-06-02 01:00,ZHCC 020100Z 36005MPS CAVOK 23/11 Q1010 NOSIG
ZHCC,2023-06-02 02:00,ZHCC 020200Z 36005MPS 340V040 CAVOK 24/10 Q1011 NOSIG
ZHCC,2023-06-02 03:00,ZHCC 020300Z 01005MPS 9999 -RA OVC040 24/10 Q1011 NOSIG
ZHCC,2023-06-02 04:00,ZHCC 020400Z 02004MPS 340V060 CAVOK 24/09 Q1011 NOSIG
ZHCC,2023-06-02 05:00,ZHCC 020500Z 02004MPS 9999 -RA NSC 24/09 Q1011 NOSIG
ZHCC,2023-06-02 06:00,ZHCC 020600Z 01002MPS 280V070 9999 -RA NSC 23/11 Q1012 NOSIG
ZHCC,2023-06-02 07:00,ZHCC 020700Z VRB01MPS 9999 -RA NSC 22/15 Q1011 NOSIG
ZHCC,2023-06-02 08:00,ZHCC 020800Z 26002MPS 9999 -RA NSC 22/15 Q1012 NOSIG
ZHCC,2023-06-02 09:00,ZHCC 020900Z 23003MPS 200V260 9999 -RA NSC 23/14 Q1012 NOSIG
ZHCC,2023-06-02 10:00,ZHCC 021000Z 25003MPS CAVOK 22/14 Q1012 NOSIG
ZHCC,2023-06-02 11:00,ZHCC 021100Z 23002MPS 190V260 CAVOK 22/15 Q1012 NOSIG
ZHCC,2023-06-02 12:00,ZHCC 021200Z VRB01MPS CAVOK 21/16 Q1012 NOSIG
ZHCC,2023-06-02 13:00,ZHCC 021300Z VRB01MPS CAVOK 20/17 Q1013 NOSIG
ZHCC,2023-06-02 14:00,ZHCC 021400Z 00000MPS CAVOK 18/17 Q1013 NOSIG
ZHCC,2023-06-02 15:00,ZHCC 021500Z 24001MPS CAVOK 17/16 Q1013 NOSIG
ZHCC,2023-06-02 16:00,ZHCC 021600Z 27002MPS CAVOK 18/16 Q1013 NOSIG
ZHCC,2023-06-02 17:00,ZHCC 021700Z 25002MPS CAVOK 18/16 Q1013 NOSIG
ZHCC,2023-06-02 18:00,ZHCC 021800Z 26002MPS 220V280 CAVOK 19/16 Q1013 NOSIG
ZHCC,2023-06-02 19:00,ZHCC 021900Z 26001MPS CAVOK 18/16 Q1012 NOSIG
ZHCC,2023-06-02 20:00,ZHCC 022000Z 33001MPS CAVOK 17/16 Q1012 NOSIG
ZHCC,2023-06-02 21:00,ZHCC 022100Z VRB01MPS CAVOK 18/16 Q1013 NOSIG
ZHCC,2023-06-02 22:00,ZHCC 022200Z 22001MPS CAVOK 19/16 Q1013 NOSIG
ZHCC,2023-06-02 23:00,ZHCC 022300Z 16001MPS CAVOK 20/17 Q1013 NOSIG
ZHCC,2023-06-03 00:00,ZHCC 030000Z VRB01MPS CAVOK 21/17 Q1014 NOSIG
ZHCC,2023-06-03 01:00,ZHCC 030100Z 08003MPS CAVOK 22/17 Q1014 NOSIG
ZHCC,2023-06-03 02:00,ZHCC 030200Z 10002MPS 060V130 CAVOK 23/17 Q1014 NOSIG
ZHCC,2023-06-03 03:00,ZHCC 030300Z VRB01MPS CAVOK 23/16 Q1014 NOSIG
ZHCC,2023-06-03 04:00,ZHCC 030400Z VRB01MPS CAVOK 24/16 Q1014 NOSIG
ZHCC,2023-06-03 05:00,ZHCC 030500Z 26002MPS 240V300 CAVOK 25/16 Q1014 NOSIG
ZHCC,2023-06-03 06:00,ZHCC 030600Z 27002MPS 9999 -RA NSC 24/16 Q1014 NOSIG
ZHCC,2023-06-03 07:00,ZHCC 030700Z 26003MPS 9999 -RA NSC 23/16 Q1014 NOSIG
ZHCC,2023-06-03 08:00,ZHCC 030800Z 30004MPS 9999 -RA NSC 22/18 Q1013 NOSIG
ZHCC,2023-06-03 09:00,ZHCC 030900Z 33005MPS 9999 -RA NSC 21/19 Q1013 NOSIG
ZHCC,2023-06-03 10:00,ZHCC 031000Z 29002MPS 220V360 CAVOK 21/15 Q1013 NOSIG
ZHCC,2023-06-03 11:00,ZHCC 031100Z VRB01MPS CAVOK 21/16 Q1013 NOSIG
ZHCC,2023-06-03 12:00,ZHCC 031200Z 27004MPS 9999 -RA NSC 19/16 Q1013 NOSIG
ZHCC,2023-06-03 13:00,ZHCC 031300Z 31006MPS CAVOK 19/15 Q1014 NOSIG
ZHCC,2023-06-03 14:00,ZHCC 031400Z 28004MPS CAVOK 19/14 Q1014 NOSIG
ZHCC,2023-06-03 15:00,ZHCC 031500Z 28004MPS CAVOK 19/14 Q1015 NOSIG
ZHCC,2023-06-03 16:00,ZHCC 031600Z 30004MPS 9999 -RA NSC 18/14 Q1014 NOSIG
ZHCC,2023-06-03 17:00,ZHCC 031700Z 30003MPS 9999 -RA NSC 17/14 Q1014 NOSIG
ZHCC,2023-06-03 18:00,ZHCC 031800Z 30004MPS 9999 -RA NSC 18/14 Q1014 NOSIG
ZHCC,2023-06-03 19:00,ZHCC 031900Z 28003MPS CAVOK 17/14 Q1014 NOSIG
ZHCC,2023-06-03 20:00,ZHCC 032000Z 29002MPS 9999 -RA NSC 16/14 Q1014 NOSIG
ZHCC,2023-06-03 21:00,ZHCC 032100Z 30002MPS 9999 -RA NSC 16/14 Q1013 NOSIG
ZHCC,2023-06-03 22:00,ZHCC 032200Z VRB01MPS 9999 -RA NSC 16/14 Q1013 NOSIG
ZHCC,2023-06-03 23:00,ZHCC 032300Z VRB01MPS CAVOK 16/15 Q1013 NOSIG
ZHCC,2023-06-04 00:00,ZHCC 040000Z VRB01MPS CAVOK 17/15 Q1013 NOSIG
ZHCC,2023-06-04 01:00,ZHCC 040100Z 20002MPS 160V240 9999 FEW040 19/15 Q1014 NOSIG
ZHCC,2023-06-04 02:00,ZHCC 040200Z 18003MPS 070V230 9999 FEW040 19/15 Q1013 NOSIG
ZHCC,2023-06-04 03:00,ZHCC 040300Z 16002MPS 100V230 9999 FEW026 20/15 Q1014 NOSIG
ZHCC,2023-06-04 04:00,ZHCC 040400Z VRB01MPS 7000 FEW026 20/16 Q1014 NOSIG
ZHCC,2023-06-04 05:00,ZHCC 040500Z VRB01MPS 6000 -RA OVC040 20/15 Q1014 NOSIG
ZHCC,2023-06-04 06:00,ZHCC 040600Z 28002MPS 4000 -RA BR SCT015 OVC040 18/15 Q1013 NOSIG
ZHCC,2023-06-04 07:00,ZHCC 040700Z VRB01MPS 4000 -RA BR SCT015 OVC040 18/16 Q1013 RERA NOSIG
ZHCC,2023-06-04 08:00,ZHCC 040800Z VRB01MPS 6000 -RA SCT015 OVC040 18/16 Q1012 NOSIG
ZHCC,2023-06-04 09:00,ZHCC 040900Z VRB01MPS 5000 -RA BR SCT015 OVC040 18/17 Q1012 NOSIG
ZHCC,2023-06-04 10:00,ZHCC 041000Z 29002MPS 7000 -RA SCT015 OVC040 17/16 Q1012 NOSIG
ZHCC,2023-06-04 11:00,ZHCC 041100Z VRB01MPS 5000 -RA BR SCT015 OVC040 17/16 Q1013 NOSIG
ZHCC,2023-06-04 12:00,ZHCC 041200Z VRB01MPS 9999 -RA SCT015 OVC040 17/16 Q1013 NOSIG
ZHCC,2023-06-04 13:00,ZHCC 041300Z 27001MPS 9999 FEW015 SCT040 17/16 Q1013 NOSIG
ZHCC,2023-06-04 14:00,ZHCC 041400Z VRB01MPS 9999 SCT026 17/16 Q1014 NOSIG
ZHCC,2023-06-04 15:00,ZHCC 041500Z 25002MPS CAVOK 17/16 Q1014 NOSIG
ZHCC,2023-06-04 16:00,ZHCC 041600Z VRB01MPS 6000 NSC 17/16 Q1013 NOSIG
ZHCC,2023-06-04 17:00,ZHCC 041700Z 30002MPS 6000 NSC 16/16 Q1013 NOSIG
ZHCC,2023-06-04 18:00,ZHCC 041800Z 00000MPS 6000 NSC 17/16 Q1012 NOSIG
ZHCC,2023-06-04 19:00,ZHCC 041900Z 24001MPS 5000 BR NSC 17/16 Q1011 NOSIG
ZHCC,2023-06-04 20:00,ZHCC 042000Z VRB01MPS 5000 BR NSC 17/16 Q1011 NOSIG
ZHCC,2023-06-04 21:00,ZHCC 042100Z VRB01MPS 4000 BR NSC 16/16 Q1011 NOSIG
ZHCC,2023-06-04 22:00,ZHCC 042200Z VRB01MPS 2000 BR NSC 16/16 Q1011 BECMG TL2340 3000
ZHCC,2023-06-04 23:00,ZHCC 042300Z VRB01MPS 4000 BR NSC 18/17 Q1012 NOSIG
ZHCC,2023-06-05 00:00,ZHCC 050000Z 16002MPS 110V240 5000 BR NSC 19/17 Q1012 NOSIG
ZHCC,2023-06-05 01:00,ZHCC 050100Z VRB01MPS 6000 NSC 21/18 Q1012 NOSIG
ZHCC,2023-06-05 02:00,ZHCC 050200Z 16002MPS 100V210 8000 NSC 22/17 Q1012 NOSIG
ZHCC,2023-06-05 03:00,ZHCC 050300Z 16002MPS 080V200 8000 NSC 24/17 Q1012 NOSIG
ZHCC,2023-06-05 04:00,ZHCC 050400Z VRB01MPS CAVOK 25/16 Q1012 NOSIG
ZHCC,2023-06-05 05:00,ZHCC 050500Z VRB01MPS CAVOK 26/16 Q1011 NOSIG
ZHCC,2023-06-05 06:00,ZHCC 050600Z VRB01MPS CAVOK 27/16 Q1010 NOSIG
ZHCC,2023-06-05 07:00,ZHCC 050700Z VRB02MPS CAVOK 27/17 Q1010 NOSIG
ZHCC,2023-06-05 08:00,ZHCC 050800Z 28002MPS CAVOK 27/17 Q1009 NOSIG
ZHCC,2023-06-05 09:00,ZHCC 050900Z 31002MPS CAVOK 26/18 Q1009 NOSIG
ZHCC,2023-06-05 10:00,ZHCC 051000Z VRB01MPS CAVOK 26/19 Q1009 NOSIG
ZHCC,2023-06-05 11:00,ZHCC 051100Z VRB01MPS CAVOK 25/18 Q1009 NOSIG
ZHCC,2023-06-05 12:00,ZHCC 051200Z 22001MPS CAVOK 24/18 Q1009 NOSIG
ZHCC,2023-06-05 13:00,ZHCC 051300Z VRB01MPS CAVOK 22/19 Q1010 NOSIG
ZHCC,2023-06-05 14:00,ZHCC 051400Z 19001MPS CAVOK 21/18 Q1010 NOSIG
ZHCC,2023-06-05 15:00,ZHCC 051500Z 20001MPS CAVOK 20/18 Q1010 NOSIG
ZHCC,2023-06-05 16:00,ZHCC 051600Z 21001MPS CAVOK 20/18 Q1010 NOSIG
ZHCC,2023-06-05 17:00,ZHCC 051700Z 00000MPS CAVOK 18/17 Q1009 NOSIG
ZHCC,2023-06-05 18:00,ZHCC 051800Z VRB01MPS CAVOK 18/17 Q1009 NOSIG
ZHCC,2023-06-05 19:00,ZHCC 051900Z 19001MPS CAVOK 18/17 Q1008 NOSIG
ZHCC,2023-06-05 20:00,ZHCC 052000Z 00000MPS CAVOK 16/15 Q1008 NOSIG
ZHCC,2023-06-05 21:00,ZHCC 052100Z 19002MPS 6000 NSC 18/17 Q1008 NOSIG
ZHCC,2023-06-05 22:00,ZHCC 052200Z VRB01MPS 6000 NSC 18/17 Q1008 NOSIG
ZHCC,2023-06-05 23:00,ZHCC 052300Z VRB01MPS 8000 NSC 20/18 Q1008 NOSIG
ZHCC,2023-06-06 00:00,ZHCC 060000Z 27002MPS 200V310 CAVOK 23/17 Q1008 NOSIG
ZHCC,2023-06-06 01:00,ZHCC 060100Z 26002MPS 220V310 CAVOK 27/16 Q1009 NOSIG
ZHCC,2023-06-06 02:00,ZHCC 060200Z VRB01MPS CAVOK 29/17 Q1009 NOSIG
ZHCC,2023-06-06 03:00,ZHCC 060300Z 33003MPS 280V010 CAVOK 31/15 Q1008 NOSIG
ZHCC,2023-06-06 04:00,ZHCC 060400Z 05003MPS 360V080 CAVOK 32/14 Q1008 NOSIG
ZHCC,2023-06-06 05:00,ZHCC 060500Z 03003MPS 350V080 CAVOK 33/12 Q1008 NOSIG
ZHCC,2023-06-06 06:00,ZHCC 060600Z VRB03MPS CAVOK 33/13 Q1007 NOSIG
ZHCC,2023-06-06 07:00,ZHCC 060700Z VRB01MPS CAVOK 35/10 Q1006 NOSIG
ZHCC,2023-06-06 08:00,ZHCC 060800Z VRB01MPS CAVOK 35/10 Q1006 NOSIG
ZHCC,2023-06-06 09:00,ZHCC 060900Z 05002MPS 340V120 CAVOK 35/10 Q1006 NOSIG
ZHCC,2023-06-06 10:00,ZHCC 061000Z VRB01MPS CAVOK 34/13 Q1005 NOSIG
ZHCC,2023-06-06 11:00,ZHCC 061100Z 18001MPS CAVOK 30/13 Q1006 NOSIG
ZHCC,2023-06-06 12:00,ZHCC 061200Z 22001MPS CAVOK 25/18 Q1006 NOSIG
ZHCC,2023-06-06 13:00,ZHCC 061300Z 00000MPS CAVOK 24/18 Q1006 NOSIG
ZHCC,2023-06-06 14:00,ZHCC 061400Z 19002MPS 160V220 CAVOK 28/14 Q1006 NOSIG
ZHCC,2023-06-06 15:00,ZHCC 061500Z 22002MPS CAVOK 28/17 Q1007 NOSIG
ZHCC,2023-06-06 16:00,ZHCC 061600Z 22002MPS CAVOK 27/16 Q1007 NOSIG
ZHCC,2023-06-06 17:00,ZHCC 061700Z 20002MPS CAVOK 25/17 Q1007 NOSIG
ZHCC,2023-06-06 18:00,ZHCC 061800Z 21002MPS CAVOK 25/17 Q1006 NOSIG
ZHCC,2023-06-06 19:00,ZHCC 061900Z VRB01MPS CAVOK 24/17 Q1006 NOSIG
ZHCC,2023-06-06 20:00,ZHCC 062000Z VRB01MPS CAVOK 24/17 Q1006 NOSIG
ZHCC,2023-06-06 21:00,ZHCC 062100Z 20002MPS 170V230 CAVOK 23/18 Q1006 NOSIG
ZHCC,2023-06-06 22:00,ZHCC 062200Z VRB01MPS CAVOK 22/18 Q1006 NOSIG
ZHCC,2023-06-06 23:00,ZHCC 062300Z VRB01MPS CAVOK 25/18 Q1006 NOSIG
ZHCC,2023-06-07 00:00,ZHCC 070000Z 20002MPS 160V240 CAVOK 27/18 Q1006 NOSIG
ZHCC,2023-06-07 01:00,ZHCC 070100Z 21002MPS 140V240 CAVOK 28/18 Q1006 NOSIG
ZHCC,2023-06-07 02:00,ZHCC 070200Z 21002MPS 170V250 CAVOK 30/19 Q1006 NOSIG
ZHCC,2023-06-07 03:00,ZHCC 070300Z 22003MPS 190V270 CAVOK 32/17 Q1005 NOSIG
ZHCC,2023-06-07 04:00,ZHCC 070400Z 20002MPS 170V240 CAVOK 33/19 Q1005 NOSIG
ZHCC,2023-06-07 05:00,ZHCC 070500Z 21003MPS 160V250 CAVOK 33/17 Q1005 NOSIG
ZHCC,2023-06-07 06:00,ZHCC 070600Z 21003MPS 160V240 CAVOK 33/17 Q1004 NOSIG
ZHCC,2023-06-07 07:00,ZHCC 070700Z 21003MPS 180V250 CAVOK 34/18 Q1004 NOSIG
ZHCC,2023-06-07 08:00,ZHCC 070800Z 21003MPS 160V260 CAVOK 34/16 Q1003 NOSIG
ZHCC,2023-06-07 09:00,ZHCC 070900Z 21003MPS 180V250 CAVOK 34/15 Q1002 NOSIG
ZHCC,2023-06-07 10:00,ZHCC 071000Z 21004MPS 180V240 CAVOK 33/17 Q1002 NOSIG
ZHCC,2023-06-07 11:00,ZHCC 071100Z 21004MPS 170V240 CAVOK 31/17 Q1002 NOSIG
ZHCC,2023-06-07 12:00,ZHCC 071200Z 20004MPS 180V240 CAVOK 29/19 Q1003 NOSIG
ZHCC,2023-06-07 13:00,ZHCC 071300Z 21004MPS 170V240 CAVOK 28/18 Q1004 NOSIG
ZHCC,2023-06-07 14:00,ZHCC 071400Z 21003MPS 170V240 CAVOK 27/19 Q1004 NOSIG
ZHCC,2023-06-07 15:00,ZHCC 071500Z 25002MPS 210V270 CAVOK 26/19 Q1004 NOSIG
ZHCC,2023-06-07 16:00,ZHCC 071600Z 21003MPS 180V240 CAVOK 26/18 Q1003 NOSIG
ZHCC,2023-06-07 17:00,ZHCC 071700Z VRB01MPS CAVOK 24/18 Q1004 NOSIG
ZHCC,2023-06-07 18:00,ZHCC 071800Z 26003MPS CAVOK 23/17 Q1003 NOSIG
ZHCC,2023-06-07 19:00,ZHCC 071900Z 29004MPS CAVOK 24/15 Q1003 NOSIG
ZHCC,2023-06-07 20:00,ZHCC 072000Z 26003MPS CAVOK 24/15 Q1004 NOSIG
ZHCC,2023-06-07 21:00,ZHCC 072100Z 27002MPS CAVOK 22/15 Q1004 NOSIG
ZHCC,2023-06-07 22:00,ZHCC 072200Z 29001MPS CAVOK 24/16 Q1005 NOSIG
ZHCC,2023-06-07 23:00,ZHCC 072300Z VRB01MPS CAVOK 26/17 Q1005 NOSIG
ZHCC,2023-06-08 00:00,ZHCC 080000Z 32003MPS 290V350 CAVOK 29/18 Q1006 NOSIG
ZHCC,2023-06-08 01:00,ZHCC 080100Z 02005MPS 350V050 CAVOK 31/11 Q1006 NOSIG
ZHCC,2023-06-08 02:00,ZHCC 080200Z 02005MPS 350V050 CAVOK 32/10 Q1006 NOSIG
ZHCC,2023-06-08 03:00,ZHCC 080300Z 02003MPS 340V060 CAVOK 33/10 Q1006 NOSIG
ZHCC,2023-06-08 04:00,ZHCC 080400Z 04003MPS 340V090 CAVOK 34/06 Q1006 NOSIG
ZHCC,2023-06-08 05:00,ZHCC 080500Z 36002MPS 250V050 CAVOK 35/08 Q1005 NOSIG
ZHCC,2023-06-08 06:00,ZHCC 080600Z 33002MPS 260V040 CAVOK 36/08 Q1005 NOSIG
ZHCC,2023-06-08 07:00,ZHCC 080700Z 30002MPS 230V010 CAVOK 36/08 Q1004 NOSIG
ZHCC,2023-06-08 08:00,ZHCC 080800Z 28003MPS 260V330 CAVOK 36/07 Q1004 NOSIG
ZHCC,2023-06-08 09:00,ZHCC 080900Z 26003MPS 210V300 CAVOK 36/09 Q1003 NOSIG
ZHCC,2023-06-08 10:00,ZHCC 081000Z 21002MPS 170V260 CAVOK 35/11 Q1002 NOSIG
ZHCC,2023-06-08 11:00,ZHCC 081100Z 20002MPS CAVOK 33/12 Q1003 NOSIG
ZHCC,2023-06-08 12:00,ZHCC 081200Z 19001MPS CAVOK 29/16 Q1003 NOSIG
ZHCC,2023-06-08 13:00,ZHCC 081300Z VRB01MPS CAVOK 27/16 Q1003 NOSIG
ZHCC,2023-06-08 14:00,ZHCC 081400Z 23002MPS 200V270 CAVOK 30/14 Q1003 NOSIG
ZHCC,2023-06-08 15:00,ZHCC 081500Z 25002MPS CAVOK 27/15 Q1004 NOSIG
ZHCC,2023-06-08 16:00,ZHCC 081600Z 23002MPS 200V260 CAVOK 28/15 Q1003 NOSIG
ZHCC,2023-06-08 17:00,ZHCC 081700Z 23002MPS CAVOK 27/14 Q1003 NOSIG
ZHCC,2023-06-08 18:00,ZHCC 081800Z 26001MPS CAVOK 21/15 Q1003 NOSIG
ZHCC,2023-06-08 19:00,ZHCC 081900Z 26003MPS CAVOK 24/14 Q1002 NOSIG
ZHCC,2023-06-08 20:00,ZHCC 082000Z 26002MPS 220V290 CAVOK 23/14 Q1002 NOSIG
ZHCC,2023-06-08 21:00,ZHCC 082100Z VRB01MPS CAVOK 20/14 Q1002 NOSIG
ZHCC,2023-06-08 22:00,ZHCC 082200Z VRB01MPS CAVOK 21/15 Q1002 NOSIG
ZHCC,2023-06-08 23:00,ZHCC 082300Z 26002MPS CAVOK 26/16 Q1002 NOSIG
ZHCC,2023-06-09 00:00,ZHCC 090000Z 27003MPS CAVOK 29/16 Q1003 NOSIG
ZHCC,2023-06-09 01:00,ZHCC 090100Z 30005MPS CAVOK 33/15 Q1003 NOSIG
ZHCC,2023-06-09 02:00,ZHCC 090200Z 30006MPS CAVOK 34/11 Q1002 NOSIG
ZHCC,2023-06-09 03:00,ZHCC 090300Z 30005MPS CAVOK 36/11 Q1002 NOSIG
ZHCC,2023-06-09 04:00,ZHCC 090400Z 31005MPS 280V340 CAVOK 37/11 Q1002 NOSIG
ZHCC,2023-06-09 05:00,ZHCC 090500Z 32005MPS 280V350 CAVOK 37/10 Q1001 NOSIG
ZHCC,2023-06-09 06:00,ZHCC 090600Z 31004MPS 260V340 CAVOK 38/07 Q1001 NOSIG
ZHCC,2023-06-09 07:00,ZHCC 090700Z 29004MPS 240V330 CAVOK 38/07 Q1000 NOSIG
ZHCC,2023-06-09 08:00,ZHCC 090800Z 25005MPS 210V300 CAVOK 38/08 Q0999 NOSIG
ZHCC,2023-06-09 09:00,ZHCC 090900Z 28006MPS 240V310 CAVOK 37/10 Q0999 NOSIG
ZHCC,2023-06-09 10:00,ZHCC 091000Z 27004MPS 230V300 CAVOK 37/10 Q0998 NOSIG
ZHCC,2023-06-09 11:00,ZHCC 091100Z 24002MPS 210V270 CAVOK 35/11 Q0999 NOSIG
ZHCC,2023-06-09 12:00,ZHCC 091200Z 26002MPS CAVOK 32/11 Q0999 NOSIG
ZHCC,2023-06-09 13:00,ZHCC 091300Z 26003MPS CAVOK 31/12 Q0999 NOSIG
ZHCC,2023-06-09 14:00,ZHCC 091400Z 25002MPS 220V280 CAVOK 30/12 Q0999 NOSIG
ZHCC,2023-06-09 15:00,ZHCC 091500Z 26003MPS CAVOK 28/12 Q0999 NOSIG
ZHCC,2023-06-09 16:00,ZHCC 091600Z 26003MPS CAVOK 27/13 Q0999 NOSIG
ZHCC,2023-06-09 17:00,ZHCC 091700Z 25003MPS CAVOK 28/13 Q0999 NOSIG
ZHCC,2023-06-09 18:00,ZHCC 091800Z 26002MPS CAVOK 26/13 Q0998 NOSIG
ZHCC,2023-06-09 19:00,ZHCC 091900Z 22002MPS 180V270 CAVOK 27/13 Q0998 NOSIG
ZHCC,2023-06-09 20:00,ZHCC 092000Z 22002MPS 190V260 CAVOK 26/13 Q0998 NOSIG
ZHCC,2023-06-09 21:00,ZHCC 092100Z 24002MPS CAVOK 24/13 Q0998 NOSIG
ZHCC,2023-06-09 22:00,ZHCC 092200Z 28002MPS CAVOK 23/14 Q0998 NOSIG
ZHCC,2023-06-09 23:00,ZHCC 092300Z 36006MPS CAVOK 28/13 Q1000 NOSIG
ZHCC,2023-06-10 00:00,ZHCC 100000Z 01005MPS 340V040 CAVOK 28/11 Q1001 NOSIG
ZHCC,2023-06-10 01:00,ZHCC 100100Z 01005MPS CAVOK 29/11 Q1002 NOSIG
ZHCC,2023-06-10 02:00,ZHCC 100200Z 36005MPS CAVOK 31/11 Q1002 NOSIG
ZHCC,2023-06-10 03:00,ZHCC 100300Z 01005MPS 320V040 CAVOK 32/12 Q1002 NOSIG
ZHCC,2023-06-10 04:00,ZHCC 100400Z 36004MPS 320V040 CAVOK 33/11 Q1002 NOSIG
ZHCC,2023-06-10 05:00,ZHCC 100500Z 34003MPS 280V030 CAVOK 34/11 Q1002 NOSIG
ZHCC,2023-06-10 06:00,ZHCC 100600Z VRB02MPS CAVOK 35/10 Q1001 NOSIG
ZHCC,2023-06-10 07:00,ZHCC 100700Z 03004MPS 320V070 CAVOK 35/11 Q1001 NOSIG
ZHCC,2023-06-10 08:00,ZHCC 100800Z 02005MPS 350V050 CAVOK 34/09 Q1001 NOSIG
ZHCC,2023-06-10 09:00,ZHCC 100900Z 04003MPS 010V080 CAVOK 34/09 Q1001 NOSIG
ZHCC,2023-06-10 10:00,ZHCC 101000Z 07005MPS CAVOK 34/09 Q1001 NOSIG
ZHCC,2023-06-10 11:00,ZHCC 101100Z 10004MPS CAVOK 32/10 Q1001 NOSIG
ZHCC,2023-06-10 12:00,ZHCC 101200Z 11002MPS CAVOK 29/11 Q1002 NOSIG
ZHCC,2023-06-10 13:00,ZHCC 101300Z 08004MPS CAVOK 30/10 Q1002 NOSIG
ZHCC,2023-06-10 14:00,ZHCC 101400Z 06004MPS CAVOK 30/10 Q1004 NOSIG
ZHCC,2023-06-10 15:00,ZHCC 101500Z 07004MPS CAVOK 29/10 Q1004 NOSIG
ZHCC,2023-06-10 16:00,ZHCC 101600Z 11001MPS CAVOK 25/10 Q1004 NOSIG
ZHCC,2023-06-10 17:00,ZHCC 101700Z VRB01MPS CAVOK 24/10 Q1004 NOSIG
ZHCC,2023-06-10 18:00,ZHCC 101800Z 29001MPS CAVOK 22/12 Q1004 NOSIG
ZHCC,2023-06-10 19:00,ZHCC 101900Z VRB01MPS CAVOK 23/13 Q1004 NOSIG
ZHCC,2023-06-10 20:00,ZHCC 102000Z VRB01MPS CAVOK 21/14 Q1004 NOSIG
ZHCC,2023-06-10 21:00,ZHCC 102100Z VRB01MPS CAVOK 22/13 Q1004 NOSIG
ZHCC,2023-06-10 22:00,ZHCC 102200Z 32001MPS CAVOK 22/14 Q1004 NOSIG
ZHCC,2023-06-10 23:00,ZHCC 102300Z VRB01MPS CAVOK 24/15 Q1004 NOSIG
ZHCC,2023-06-11 00:00,ZHCC 110000Z VRB01MPS CAVOK 26/13 Q1005 NOSIG
ZHCC,2023-06-11 01:00,ZHCC 110100Z 29003MPS CAVOK 26/13 Q1006 NOSIG
ZHCC,2023-06-11 02:00,ZHCC 110200Z VRB01MPS CAVOK 27/13 Q1005 NOSIG
ZHCC,2023-06-11 03:00,ZHCC 110300Z 16002MPS 100V240 CAVOK 31/14 Q1004 NOSIG
ZHCC,2023-06-11 04:00,ZHCC 110400Z VRB03MPS CAVOK 32/14 Q1004 NOSIG
ZHCC,2023-06-11 05:00,ZHCC 110500Z VRB02MPS CAVOK 32/14 Q1003 NOSIG
ZHCC,2023-06-11 06:00,ZHCC 110600Z 15003MPS 090V230 CAVOK 34/15 Q1002 NOSIG
ZHCC,2023-06-11 07:00,ZHCC 110700Z VRB01MPS CAVOK 33/14 Q1002 NOSIG
ZHCC,2023-06-11 08:00,ZHCC 110800Z 25003MPS 210V280 9999 OVC040 32/14 Q1002 NOSIG
ZHCC,2023-06-11 09:00,ZHCC 110900Z 21002MPS 160V250 9999 OVC040 33/14 Q1001 NOSIG
ZHCC,2023-06-11 10:00,ZHCC 111000Z VRB01MPS 9999 OVC040 32/14 Q1001 NOSIG
ZHCC,2023-06-11 11:00,ZHCC 111100Z VRB01MPS 9999 OVC040 30/15 Q1001 NOSIG
ZHCC,2023-06-11 12:00,ZHCC 111200Z 11003MPS CAVOK 27/17 Q1002 NOSIG
ZHCC,2023-06-11 13:00,ZHCC 111300Z 12002MPS CAVOK 26/16 Q1003 NOSIG
ZHCC,2023-06-11 14:00,ZHCC 111400Z VRB01MPS CAVOK 26/15 Q1004 BECMG TL1440 02008G14MPS BECMG TL1520 2500 TSRA FEW030CB BKN030
ZHCC,2023-06-11 15:00,ZHCC 111500Z 01008MPS 340V050 9999 TS SCT030CB BKN040 24/14 Q1008 BECMG 2500 TSRA
ZHCC,2023-06-11 16:00,ZHCC 111600Z 03005MPS 350V060 9999 OVC040 22/15 Q1007 RETSRA NOSIG
ZHCC,2023-06-11 17:00,ZHCC 111700Z 04002MPS 340V140 9999 TS FEW030CB BKN040 22/15 Q1006 BECMG TSRA
ZHCC,2023-06-11 18:00,ZHCC 111800Z 13003MPS 100V160 9999 OVC040 20/16 Q1005 RETSRA NOSIG
ZHCC,2023-06-11 19:00,ZHCC 111900Z VRB01MPS CAVOK 19/17 Q1005 NOSIG
ZHCC,2023-06-11 20:00,ZHCC 112000Z 28002MPS CAVOK 19/17 Q1005 NOSIG
ZHCC,2023-06-11 21:00,ZHCC 112100Z 35002MPS 320V030 CAVOK 18/16 Q1005 NOSIG
ZHCC,2023-06-11 22:00,ZHCC 112200Z VRB01MPS CAVOK 19/17 Q1006 NOSIG
ZHCC,2023-06-11 23:00,ZHCC 112300Z 03002MPS 360V060 CAVOK 22/16 Q1006 NOSIG
ZHCC,2023-06-12 00:00,ZHCC 120000Z 04004MPS 010V090 CAVOK 23/17 Q1007 NOSIG
ZHCC,2023-06-12 01:00,ZHCC 120100Z 03003MPS 350V080 CAVOK 24/17 Q1007 NOSIG
ZHCC,2023-06-12 02:00,ZHCC 120200Z 08003MPS 360V110 CAVOK 26/17 Q1007 NOSIG
ZHCC,2023-06-12 03:00,ZHCC 120300Z 03002MPS 340V090 CAVOK 27/17 Q1007 NOSIG
ZHCC,2023-06-12 04:00,ZHCC 120400Z 03003MPS 330V060 CAVOK 28/16 Q1006 NOSIG
ZHCC,2023-06-12 05:00,ZHCC 120500Z 03003MPS 300V100 CAVOK 29/17 Q1006 NOSIG
ZHCC,2023-06-12 06:00,ZHCC 120600Z VRB03MPS CAVOK 30/16 Q1005 NOSIG
ZHCC,2023-06-12 07:00,ZHCC 120700Z 05002MPS 310V120 CAVOK 30/17 Q1005 NOSIG
ZHCC,2023-06-12 08:00,ZHCC 120800Z 06004MPS 020V190 CAVOK 29/17 Q1004 NOSIG
ZHCC,2023-06-12 09:00,ZHCC 120900Z 04003MPS 340V080 CAVOK 30/16 Q1004 NOSIG
ZHCC,2023-06-12 10:00,ZHCC 121000Z 03004MPS 010V070 CAVOK 29/16 Q1005 NOSIG
ZHCC,2023-06-12 11:00,ZHCC 121100Z 06003MPS CAVOK 28/16 Q1004 BECMG TL1120 36008MPS
ZHCC,2023-06-12 12:00,ZHCC 121200Z 01004MPS CAVOK 27/16 Q1005 NOSIG
ZHCC,2023-06-12 13:00,ZHCC 121300Z 36003MPS CAVOK 27/16 Q1006 NOSIG
ZHCC,2023-06-12 14:00,ZHCC 121400Z VRB01MPS CAVOK 25/17 Q1006 NOSIG
ZHCC,2023-06-12 15:00,ZHCC 121500Z 04002MPS CAVOK 26/16 Q1006 NOSIG
ZHCC,2023-06-12 16:00,ZHCC 121600Z 33002MPS 300V030 CAVOK 25/17 Q1007 NOSIG
ZHCC,2023-06-12 17:00,ZHCC 121700Z 27001MPS CAVOK 23/17 Q1007 NOSIG
ZHCC,2023-06-12 18:00,ZHCC 121800Z 31003MPS CAVOK 23/17 Q1006 NOSIG
ZHCC,2023-06-12 19:00,ZHCC 121900Z 30002MPS CAVOK 22/17 Q1006 NOSIG
ZHCC,2023-06-12 20:00,ZHCC 122000Z 31002MPS CAVOK 22/17 Q1005 NOSIG
ZHCC,2023-06-12 21:00,ZHCC 122100Z VRB01MPS CAVOK 22/17 Q1006 NOSIG
ZHCC,2023-06-12 22:00,ZHCC 122200Z 29002MPS 7000 NSC 21/17 Q1006 NOSIG
ZHCC,2023-06-12 23:00,ZHCC 122300Z 32002MPS CAVOK 24/17 Q1006 NOSIG
ZHCC,2023-06-13 00:00,ZHCC 130000Z 32003MPS CAVOK 27/17 Q1006 NOSIG
ZHCC,2023-06-13 01:00,ZHCC 130100Z 34003MPS 300V360 CAVOK 29/17 Q1007 NOSIG
ZHCC,2023-06-13 02:00,ZHCC 130200Z VRB01MPS CAVOK 30/16 Q1007 NOSIG
ZHCC,2023-06-13 03:00,ZHCC 130300Z 36002MPS CAVOK 30/16 Q1006 NOSIG
ZHCC,2023-06-13 04:00,ZHCC 130400Z 36002MPS 310V090 CAVOK 32/15 Q1006 NOSIG
ZHCC,2023-06-13 05:00,ZHCC 130500Z 30003MPS 250V320 CAVOK 32/14 Q1005 NOSIG
ZHCC,2023-06-13 06:00,ZHCC 130600Z 07002MPS 360V160 9999 FEW040 33/14 Q1005 NOSIG
ZHCC,2023-06-13 07:00,ZHCC 130700Z 04002MPS 340V100 9999 BKN043 34/12 Q1004 NOSIG
ZHCC,2023-06-13 08:00,ZHCC 130800Z 03003MPS 360V060 9999 SCT043 32/12 Q1004 NOSIG
ZHCC,2023-06-13 09:00,ZHCC 130900Z 28003MPS 250V330 9999 FEW043 34/11 Q1004 NOSIG
ZHCC,2023-06-13 10:00,ZHCC 131000Z 31003MPS CAVOK 32/11 Q1004 NOSIG
ZHCC,2023-06-13 11:00,ZHCC 131100Z 03002MPS CAVOK 32/09 Q1004 NOSIG
ZHCC,2023-06-13 12:00,ZHCC 131200Z VRB01MPS CAVOK 28/13 Q1004 NOSIG
ZHCC,2023-06-13 13:00,ZHCC 131300Z 00000MPS CAVOK 25/13 Q1005 NOSIG
ZHCC,2023-06-13 14:00,ZHCC 131400Z 19002MPS 160V220 CAVOK 27/17 Q1006 NOSIG
ZHCC,2023-06-13 15:00,ZHCC 131500Z 22002MPS 190V250 CAVOK 27/17 Q1006 NOSIG
ZHCC,2023-06-13 16:00,ZHCC 131600Z VRB01MPS CAVOK 24/16 Q1006 NOSIG
ZHCC,2023-06-13 17:00,ZHCC 131700Z 28001MPS CAVOK 21/16 Q1006 NOSIG
ZHCC,2023-06-13 18:00,ZHCC 131800Z 26001MPS CAVOK 21/15 Q1006 NOSIG
ZHCC,2023-06-13 19:00,ZHCC 131900Z 26001MPS CAVOK 21/15 Q1006 NOSIG
ZHCC,2023-06-13 20:00,ZHCC 132000Z VRB01MPS CAVOK 20/15 Q1006 NOSIG
ZHCC,2023-06-13 21:00,ZHCC 132100Z 28002MPS CAVOK 19/14 Q1006 NOSIG
ZHCC,2023-06-13 22:00,ZHCC 132200Z VRB01MPS CAVOK 22/15 Q1006 NOSIG
ZHCC,2023-06-13 23:00,ZHCC 132300Z 30001MPS CAVOK 25/16 Q1007 NOSIG
ZHCC,2023-06-14 00:00,ZHCC 140000Z 30002MPS CAVOK 29/16 Q1007 NOSIG
ZHCC,2023-06-14 01:00,ZHCC 140100Z 31002MPS 270V350 CAVOK 31/16 Q1008 NOSIG
ZHCC,2023-06-14 02:00,ZHCC 140200Z VRB02MPS CAVOK 33/13 Q1008 NOSIG
ZHCC,2023-06-14 03:00,ZHCC 140300Z VRB02MPS CAVOK 35/13 Q1007 NOSIG
ZHCC,2023-06-14 04:00,ZHCC 140400Z VRB03MPS CAVOK 36/08 Q1007 NOSIG
ZHCC,2023-06-14 05:00,ZHCC 140500Z 25004MPS 210V300 CAVOK 36/10 Q1006 NOSIG
ZHCC,2023-06-14 06:00,ZHCC 140600Z 22003MPS 150V260 9999 FEW030 37/11 Q1005 NOSIG
ZHCC,2023-06-14 07:00,ZHCC 140700Z VRB02MPS 9999 FEW030 36/10 Q1005 NOSIG
ZHCC,2023-06-14 08:00,ZHCC 140800Z 23002MPS 170V290 9999 SCT030 36/10 Q1004 NOSIG
ZHCC,2023-06-14 09:00,ZHCC 140900Z VRB01MPS 9999 SCT030 38/09 Q1004 NOSIG
ZHCC,2023-06-14 10:00,ZHCC 141000Z 18002MPS 120V290 9999 FEW030 36/09 Q1004 NOSIG
ZHCC,2023-06-14 11:00,ZHCC 141100Z VRB01MPS 9999 FEW030 35/09 Q1004 NOSIG
ZHCC,2023-06-14 12:00,ZHCC 141200Z 19002MPS 160V220 CAVOK 31/11 Q1004 NOSIG
ZHCC,2023-06-14 13:00,ZHCC 141300Z VRB01MPS CAVOK 31/12 Q1005 NOSIG
ZHCC,2023-06-14 14:00,ZHCC 141400Z 23002MPS CAVOK 31/11 Q1006 NOSIG
ZHCC,2023-06-14 15:00,ZHCC 141500Z 25002MPS CAVOK 30/11 Q1006 NOSIG
ZHCC,2023-06-14 16:00,ZHCC 141600Z 26001MPS CAVOK 24/14 Q1006 NOSIG
ZHCC,2023-06-14 17:00,ZHCC 141700Z 26002MPS CAVOK 28/12 Q1005 NOSIG
ZHCC,2023-06-14 18:00,ZHCC 141800Z 26002MPS CAVOK 28/13 Q1005 NOSIG
ZHCC,2023-06-14 19:00,ZHCC 141900Z 25002MPS CAVOK 27/13 Q1005 NOSIG
ZHCC,2023-06-14 20:00,ZHCC 142000Z 25003MPS CAVOK 26/13 Q1005 NOSIG
ZHCC,2023-06-14 21:00,ZHCC 142100Z 26002MPS CAVOK 23/13 Q1005 NOSIG
ZHCC,2023-06-14 22:00,ZHCC 142200Z 26001MPS CAVOK 26/13 Q1006 NOSIG
ZHCC,2023-06-14 23:00,ZHCC 142300Z VRB01MPS CAVOK 27/14 Q1006 NOSIG
ZHCC,2023-06-15 00:00,ZHCC 150000Z VRB01MPS CAVOK 30/15 Q1007 NOSIG
ZHCC,2023-06-15 01:00,ZHCC 150100Z VRB01MPS CAVOK 32/14 Q1007 NOSIG
ZHCC,2023-06-15 02:00,ZHCC 150200Z 20002MPS 140V260 CAVOK 34/14 Q1007 NOSIG
ZHCC,2023-06-15 03:00,ZHCC 150300Z 23005MPS 190V270 CAVOK 35/12 Q1007 NOSIG
ZHCC,2023-06-15 04:00,ZHCC 150400Z 22005MPS 170V260 CAVOK 36/12 Q1007 NOSIG
ZHCC,2023-06-15 05:00,ZHCC 150500Z 22005MPS 170V260 CAVOK 36/13 Q1007 NOSIG
ZHCC,2023-06-15 06:00,ZHCC 150600Z 20004MPS 160V240 CAVOK 36/13 Q1006 NOSIG
ZHCC,2023-06-15 07:00,ZHCC 150700Z 16004MPS 110V230 CAVOK 36/12 Q1006 NOSIG
ZHCC,2023-06-15 08:00,ZHCC 150800Z 18003G08MPS 110V230 CAVOK 36/12 Q1005 NOSIG
ZHCC,2023-06-15 09:00,ZHCC 150900Z 19004MPS 120V250 CAVOK 35/12 Q1005 NOSIG
ZHCC,2023-06-15 10:00,ZHCC 151000Z 19003MPS 110V240 CAVOK 35/12 Q1005 NOSIG
ZHCC,2023-06-15 11:00,ZHCC 151100Z 18003MPS 070V220 CAVOK 34/08 Q1005 NOSIG
ZHCC,2023-06-15 12:00,ZHCC 151200Z 18002MPS 110V230 CAVOK 32/09 Q1006 NOSIG
ZHCC,2023-06-15 13:00,ZHCC 151300Z 19002MPS 140V240 CAVOK 31/10 Q1006 NOSIG
ZHCC,2023-06-15 14:00,ZHCC 151400Z 19002MPS 150V240 CAVOK 30/13 Q1007 NOSIG
ZHCC,2023-06-15 15:00,ZHCC 151500Z VRB01MPS CAVOK 29/14 Q1007 NOSIG
ZHCC,2023-06-15 16:00,ZHCC 151600Z 21003MPS 180V240 CAVOK 29/15 Q1007 NOSIG
ZHCC,2023-06-15 17:00,ZHCC 151700Z VRB01MPS CAVOK 27/15 Q1007 NOSIG
ZHCC,2023-06-15 18:00,ZHCC 151800Z VRB01MPS CAVOK 25/15 Q1007 NOSIG
ZHCC,2023-06-15 19:00,ZHCC 151900Z 13001MPS CAVOK 24/17 Q1007 NOSIG
ZHCC,2023-06-15 20:00,ZHCC 152000Z 00000MPS CAVOK 23/17 Q1007 NOSIG
ZHCC,2023-06-15 21:00,ZHCC 152100Z VRB01MPS CAVOK 24/16 Q1007 NOSIG
ZHCC,2023-06-15 22:00,ZHCC 152200Z 12002MPS CAVOK 25/17 Q1007 NOSIG
ZHCC,2023-06-15 23:00,ZHCC 152300Z 10002MPS CAVOK 25/18 Q1008 NOSIG
ZHCC,2023-06-16 00:00,ZHCC 160000Z 13002MPS 100V180 CAVOK 28/17 Q1008 NOSIG
ZHCC,2023-06-16 01:00,ZHCC 160100Z 18002MPS 140V220 CAVOK 29/17 Q1009 NOSIG
ZHCC,2023-06-16 02:00,ZHCC 160200Z 16002MPS 100V220 CAVOK 29/17 Q1009 NOSIG
ZHCC,2023-06-16 03:00,ZHCC 160300Z 17003MPS 120V220 CAVOK 30/17 Q1009 NOSIG
ZHCC,2023-06-16 04:00,ZHCC 160400Z 15003MPS 110V220 CAVOK 30/17 Q1009 NOSIG
ZHCC,2023-06-16 05:00,ZHCC 160500Z 16002MPS 110V210 CAVOK 30/17 Q1009 NOSIG
ZHCC,2023-06-16 06:00,ZHCC 160600Z 12003MPS CAVOK 30/17 Q1008 NOSIG
ZHCC,2023-06-16 07:00,ZHCC 160700Z 18002MPS 100V210 CAVOK 30/17 Q1008 NOSIG
ZHCC,2023-06-16 08:00,ZHCC 160800Z VRB01MPS CAVOK 30/17 Q1007 NOSIG
ZHCC,2023-06-16 09:00,ZHCC 160900Z VRB01MPS 9999 OVC040 30/19 Q1007 NOSIG
ZHCC,2023-06-16 10:00,ZHCC 161000Z VRB01MPS CAVOK 29/18 Q1007 NOSIG
ZHCC,2023-06-16 11:00,ZHCC 161100Z VRB01MPS CAVOK 27/19 Q1008 RESHRA NOSIG
ZHCC,2023-06-16 12:00,ZHCC 161200Z 21002MPS 180V240 CAVOK 27/19 Q1008 NOSIG
ZHCC,2023-06-16 13:00,ZHCC 161300Z 25003MPS CAVOK 26/18 Q1009 NOSIG
ZHCC,2023-06-16 14:00,ZHCC 161400Z 26003MPS CAVOK 24/19 Q1010 NOSIG
ZHCC,2023-06-16 15:00,ZHCC 161500Z 24003MPS 210V280 CAVOK 24/18 Q1010 NOSIG
ZHCC,2023-06-16 16:00,ZHCC 161600Z 27002MPS CAVOK 24/18 Q1010 NOSIG
ZHCC,2023-06-16 17:00,ZHCC 161700Z 27002MPS 9999 -RA NSC 23/17 Q1009 NOSIG
ZHCC,2023-06-16 18:00,ZHCC 161800Z 24002MPS 9999 -RA NSC 23/18 Q1009 NOSIG
ZHCC,2023-06-16 19:00,ZHCC 161900Z 26003MPS 9999 -SHRA FEW040CB 22/18 Q1009 NOSIG
ZHCC,2023-06-16 20:00,ZHCC 162000Z 27002MPS 240V310 7000 -SHRA FEW030CB BKN040 21/19 Q1009 RESHRA NOSIG
ZHCC,2023-06-16 21:00,ZHCC 162100Z 32001MPS 6000 -SHRA FEW030CB BKN040 20/19 Q1009 NOSIG
ZHCC,2023-06-16 22:00,ZHCC 162200Z 09002MPS 5000 SHRA BR FEW030CB BKN040 21/19 Q1009 NOSIG
ZHCC,2023-06-16 23:00,ZHCC 162300Z 03002MPS 6000 -SHRA FEW030CB BKN040 21/19 Q1010 RESHRA NOSIG
ZHCC,2023-06-17 00:00,ZHCC 170000Z VRB01MPS 6000 -SHRA FEW030CB BKN040 21/19 Q1011 NOSIG
ZHCC,2023-06-17 01:00,ZHCC 170100Z 25001MPS 5000 -SHRA BR FEW030CB BKN040 21/19 Q1011 RESHRA NOSIG
ZHCC,2023-06-17 02:00,ZHCC 170200Z VRB01MPS 7000 -SHRA FEW030CB BKN040 21/18 Q1011 NOSIG
ZHCC,2023-06-17 03:00,ZHCC 170300Z VRB01MPS 9999 OVC040 22/18 Q1010 NOSIG
ZHCC,2023-06-17 04:00,ZHCC 170400Z 36002MPS 330V050 9999 SCT015 OVC040 22/18 Q1010 NOSIG
ZHCC,2023-06-17 05:00,ZHCC 170500Z VRB01MPS 9999 SCT015 OVC040 23/19 Q1010 NOSIG
ZHCC,2023-06-17 06:00,ZHCC 170600Z VRB01MPS 9999 SCT015 BKN046 24/18 Q1009 NOSIG
ZHCC,2023-06-17 07:00,ZHCC 170700Z 09002MPS 040V130 9999 -RA SCT015 BKN040 24/18 Q1009 NOSIG
ZHCC,2023-06-17 08:00,ZHCC 170800Z VRB01MPS 9999 FEW015 BKN033 23/18 Q1009 NOSIG
ZHCC,2023-06-17 09:00,ZHCC 170900Z 09002MPS 360V120 9999 FEW015 BKN046 24/18 Q1008 NOSIG
ZHCC,2023-06-17 10:00,ZHCC 171000Z VRB01MPS 9999 FEW015 BKN046 23/19 Q1008 NOSIG
ZHCC,2023-06-17 11:00,ZHCC 171100Z 26002MPS 7000 -RA FEW015 OVC040 21/20 Q1009 NOSIG
ZHCC,2023-06-17 12:00,ZHCC 171200Z 25002MPS 7000 -RA OVC040 21/19 Q1009 NOSIG
ZHCC,2023-06-17 13:00,ZHCC 171300Z 26002MPS 7000 OVC040 21/19 Q1009 NOSIG
ZHCC,2023-06-17 14:00,ZHCC 171400Z 27002MPS 240V300 7000 OVC040 21/19 Q1009 NOSIG
ZHCC,2023-06-17 15:00,ZHCC 171500Z 27002MPS 7000 OVC040 21/19 Q1009 NOSIG
ZHCC,2023-06-17 16:00,ZHCC 171600Z 28002MPS 5000 BR OVC040 21/19 Q1008 NOSIG
ZHCC,2023-06-17 17:00,ZHCC 171700Z 27001MPS 5000 BR OVC040 21/19 Q1008 NOSIG
ZHCC,2023-06-17 18:00,ZHCC 171800Z VRB01MPS 5000 BR OVC040 21/19 Q1007 NOSIG
ZHCC,2023-06-17 19:00,ZHCC 171900Z 32002MPS 5000 BR OVC040 21/19 Q1007 NOSIG
ZHCC,2023-06-17 20:00,ZHCC 172000Z 36002MPS 5000 BR OVC040 22/19 Q1006 NOSIG
ZHCC,2023-06-17 21:00,ZHCC 172100Z 03002MPS 5000 BR OVC033 22/19 Q1006 NOSIG
ZHCC,2023-06-17 22:00,ZHCC 172200Z 06003MPS 030V090 3000 BR SCT015 OVC033 22/19 Q1007 NOSIG
ZHCC,2023-06-17 23:00,ZHCC 172300Z 06004MPS 1600 -RA BR SCT005 OVC020 21/20 Q1007 NOSIG
ZHCC,2023-06-18 00:00,ZHCC 180000Z 06002MPS 2800 BR SCT015 OVC030 22/20 Q1007 BECMG TL0120 4000
ZHCC,2023-06-18 02:00,ZHCC 180200Z 07004MPS 4000 -RA BR FEW015 OVC030 23/21 Q1007 NOSIG
ZHCC,2023-06-18 03:00,ZHCC 180300Z 06004MPS 030V090 4000 -RA BR SCT015 OVC030 24/21 Q1007 NOSIG
ZHCC,2023-06-18 04:00,ZHCC 180400Z 07004MPS 4000 -RA BR SCT015 OVC030 25/21 Q1007 NOSIG
ZHCC,2023-06-18 05:00,ZHCC 180500Z 06004MPS 3500 -RA BR SCT015 OVC030 24/21 Q1006 NOSIG
ZHCC,2023-06-18 06:00,ZHCC 180600Z 05003MPS 3000 -RA BR SCT015 OVC030 24/22 Q1006 NOSIG
ZHCC,2023-06-18 07:00,ZHCC 180700Z 03002MPS 360V070 4500 -RA BR SCT015 OVC030 24/22 Q1005 NOSIG
ZHCC,2023-06-18 08:00,ZHCC 180800Z 06003MPS 030V100 4000 -RA BR SCT015 OVC030 23/22 Q1005 NOSIG
ZHCC,2023-06-18 09:00,ZHCC 180900Z 04003MPS 4000 -RA BR SCT015 OVC030 23/22 Q1005 NOSIG
ZHCC,2023-06-18 10:00,ZHCC 181000Z 04004MPS 4000 -RA BR SCT015 OVC030 23/22 Q1005 NOSIG
ZHCC,2023-06-18 11:00,ZHCC 181100Z 05003MPS 030V090 4000 -RA BR SCT015 OVC030 23/22 Q1005 NOSIG
ZHCC,2023-06-18 12:00,ZHCC 181200Z 04003MPS 5000 -RA BR SCT015 OVC030 22/22 Q1005 NOSIG
ZHCC,2023-06-18 13:00,ZHCC 181300Z 05003MPS 5000 -RA BR SCT015 OVC030 22/22 Q1005 NOSIG
ZHCC,2023-06-18 14:00,ZHCC 181400Z 08002MPS 6000 -RA SCT015 OVC030 22/22 Q1006 NOSIG
ZHCC,2023-06-18 15:00,ZHCC 181500Z 09002MPS 6000 -RA SCT015 OVC030 22/21 Q1005 NOSIG
ZHCC,2023-06-18 16:00,ZHCC 181600Z 06003MPS 4000 -RA BR SCT015 OVC030 22/21 Q1005 NOSIG
ZHCC,2023-06-18 17:00,ZHCC 181700Z 05002MPS 020V090 4000 BR SCT015 OVC030 22/21 Q1004 NOSIG
ZHCC,2023-06-18 18:00,ZHCC 181800Z 09002MPS 4000 -RA BR SCT015 OVC030 22/21 Q1004 NOSIG
ZHCC,2023-06-18 19:00,ZHCC 181900Z VRB01MPS 3000 -RA BR SCT015 OVC030 22/21 Q1004 NOSIG
ZHCC,2023-06-18 20:00,ZHCC 182000Z 29001MPS 3000 BR FEW003 SCT015 OVC026 22/21 Q1004 NOSIG
ZHCC,2023-06-18 21:00,ZHCC 182100Z 33001MPS 2500 -DZ BR FEW003 SCT015 OVC026 22/22 Q1004 NOSIG
ZHCC,2023-06-18 22:00,ZHCC 182200Z 33001MPS 1500 -DZ BR SCT003 OVC020 22/22 Q1004 NOSIG
ZHCC,2023-06-18 23:00,ZHCC 182300Z 31003MPS 6000 SCT005 OVC020 22/21 Q1004 NOSIG
ZHCC,2023-06-19 00:00,ZHCC 190000Z 33003MPS 6000 SCT010 OVC030 23/22 Q1004 NOSIG
ZHCC,2023-06-19 01:00,ZHCC 190100Z 32003MPS 6000 FEW010 24/22 Q1004 NOSIG
ZHCC,2023-06-19 02:00,ZHCC 190200Z 32003MPS 280V340 6000 FEW020 SCT030 26/22 Q1004 NOSIG
ZHCC,2023-06-19 03:00,ZHCC 190300Z 30003MPS 250V340 9999 BKN026 27/22 Q1003 NOSIG
ZHCC,2023-06-19 04:00,ZHCC 190400Z 31003MPS 250V060 9999 BKN026 29/21 Q1003 NOSIG
ZHCC,2023-06-19 05:00,ZHCC 190500Z 32003MPS 280V360 9999 BKN033 30/20 Q1002 NOSIG
ZHCC,2023-06-19 06:00,ZHCC 190600Z 02002MPS 330V060 9999 FEW040 29/20 Q1002 NOSIG
ZHCC,2023-06-19 07:00,ZHCC 190700Z VRB01MPS 9999 FEW040 30/20 Q1002 NOSIG
ZHCC,2023-06-19 08:00,ZHCC 190800Z VRB02MPS 9999 SCT046 30/21 Q1002 NOSIG
ZHCC,2023-06-19 09:00,ZHCC 190900Z 13003MPS 090V170 CAVOK 30/22 Q1001 NOSIG
ZHCC,2023-06-19 10:00,ZHCC 191000Z VRB01MPS CAVOK 28/22 Q1001 NOSIG
ZHCC,2023-06-19 11:00,ZHCC 191100Z 12001MPS CAVOK 27/22 Q1001 NOSIG
ZHCC,2023-06-19 12:00,ZHCC 191200Z VRB01MPS CAVOK 27/22 Q1002 NOSIG
ZHCC,2023-06-19 13:00,ZHCC 191300Z 12002MPS CAVOK 26/22 Q1002 NOSIG
ZHCC,2023-06-19 14:00,ZHCC 191400Z VRB01MPS 9999 BKN043 26/22 Q1003 NOSIG
ZHCC,2023-06-19 15:00,ZHCC 191500Z VRB01MPS 7000 NSC 25/22 Q1004 NOSIG
ZHCC,2023-06-19 16:00,ZHCC 191600Z 13001MPS 7000 NSC 25/22 Q1004 NOSIG
ZHCC,2023-06-19 17:00,ZHCC 191700Z VRB01MPS 6000 NSC 24/22 Q1004 NOSIG
ZHCC,2023-06-19 18:00,ZHCC 191800Z 10001MPS 5000 BR NSC 23/22 Q1004 NOSIG
ZHCC,2023-06-19 19:00,ZHCC 191900Z 13001MPS 5000 BR NSC 23/22 Q1003 NOSIG
ZHCC,2023-06-19 20:00,ZHCC 192000Z 12001MPS 4000 BR NSC 23/22 Q1003 NOSIG
ZHCC,2023-06-19 21:00,ZHCC 192100Z 14001MPS 3000 BR NSC 23/22 Q1003 BECMG TL2220 2500
ZHCC,2023-06-19 22:00,ZHCC 192200Z VRB01MPS 2000 BR NSC 23/22 Q1003 BECMG TL2340 3000
ZHCC,2023-06-19 23:00,ZHCC 192300Z 28001MPS 2800 BR NSC 24/22 Q1003 BECMG TL2340 4000
ZHCC,2023-06-20 00:00,ZHCC 200000Z 27002MPS 240V310 3500 BR NSC 26/23 Q1004 NOSIG
ZHCC,2023-06-20 01:00,ZHCC 200100Z VRB01MPS 5000 HZ NSC 29/23 Q1004 NOSIG
ZHCC,2023-06-20 02:00,ZHCC 200200Z 29003MPS 250V350 8000 NSC 30/21 Q1004 NOSIG
ZHCC,2023-06-20 03:00,ZHCC 200300Z 32004MPS 260V350 CAVOK 32/20 Q1004 NOSIG
ZHCC,2023-06-20 04:00,ZHCC 200400Z 28002MPS 240V320 CAVOK 33/21 Q1003 NOSIG
ZHCC,2023-06-20 05:00,ZHCC 200500Z 25003MPS 210V280 CAVOK 34/22 Q1003 NOSIG
ZHCC,2023-06-20 06:00,ZHCC 200600Z 26002MPS 220V320 CAVOK 34/21 Q1003 NOSIG
ZHCC,2023-06-20 07:00,ZHCC 200700Z 10003MPS 070V150 CAVOK 35/21 Q1002 NOSIG
ZHCC,2023-06-20 08:00,ZHCC 200800Z 15003MPS 110V220 CAVOK 34/22 Q1002 NOSIG
ZHCC,2023-06-20 09:00,ZHCC 200900Z 15002MPS 110V200 CAVOK 34/20 Q1002 NOSIG
ZHCC,2023-06-20 10:00,ZHCC 201000Z 20003MPS 160V240 CAVOK 33/21 Q1002 NOSIG
ZHCC,2023-06-20 11:00,ZHCC 201100Z VRB01MPS CAVOK 32/21 Q1003 NOSIG
ZHCC,2023-06-20 12:00,ZHCC 201200Z VRB01MPS CAVOK 29/22 Q1003 NOSIG
ZHCC,2023-06-20 13:00,ZHCC 201300Z 10001MPS CAVOK 28/22 Q1004 NOSIG
ZHCC,2023-06-20 14:00,ZHCC 201400Z 12001MPS CAVOK 28/22 Q1004 NOSIG
ZHCC,2023-06-20 15:00,ZHCC 201500Z VRB01MPS CAVOK 28/22 Q1005 NOSIG
ZHCC,2023-06-20 16:00,ZHCC 201600Z 12001MPS CAVOK 27/22 Q1005 NOSIG
ZHCC,2023-06-20 17:00,ZHCC 201700Z 10002MPS CAVOK 27/22 Q1005 NOSIG
ZHCC,2023-06-20 18:00,ZHCC 201800Z 11001MPS CAVOK 27/22 Q1005 NOSIG
ZHCC,2023-06-20 19:00,ZHCC 201900Z 08001MPS CAVOK 26/22 Q1005 NOSIG
ZHCC,2023-06-20 20:00,ZHCC 202000Z 07003MPS CAVOK 27/23 Q1006 NOSIG
ZHCC,2023-06-20 21:00,ZHCC 202100Z 09002MPS 060V120 4500 BR NSC 26/23 Q1006 NOSIG
ZHCC,2023-06-20 22:00,ZHCC 202200Z 06002MPS 4000 BR NSC 26/23 Q1006 NOSIG
ZHCC,2023-06-20 23:00,ZHCC 202300Z VRB01MPS 4000 BR NSC 27/23 Q1007 NOSIG
ZHCC,2023-06-21 00:00,ZHCC 210000Z VRB01MPS 4000 BR NSC 28/24 Q1007 NOSIG
ZHCC,2023-06-21 01:00,ZHCC 210100Z 05003MPS 020V090 4000 HZ NSC 30/24 Q1007 NOSIG
ZHCC,2023-06-21 02:00,ZHCC 210200Z 03004MPS 360V070 4000 HZ NSC 31/23 Q1007 NOSIG
ZHCC,2023-06-21 03:00,ZHCC 210300Z 06004MPS 020V100 5000 HZ NSC 33/23 Q1007 NOSIG
ZHCC,2023-06-21 04:00,ZHCC 210400Z 08003MPS 030V110 8000 FEW040 33/23 Q1008 NOSIG
ZHCC,2023-06-21 05:00,ZHCC 210500Z 10003MPS 050V140 9999 FEW040 33/23 Q1007 NOSIG
ZHCC,2023-06-21 06:00,ZHCC 210600Z VRB01MPS 9999 FEW040 33/22 Q1007 NOSIG
ZHCC,2023-06-21 07:00,ZHCC 210700Z 14003MPS 110V190 6000 TSRA FEW030CB BKN040 31/23 Q1007 BECMG TL0740 -RA
ZHCC,2023-06-21 08:00,ZHCC 210800Z VRB01MPS 9999 FEW030 31/24 Q1006 RETSRA NOSIG
ZHCC,2023-06-21 09:00,ZHCC 210900Z VRB01MPS 9999 FEW030 32/23 Q1006 NOSIG
ZHCC,2023-06-21 10:00,ZHCC 211000Z 19002MPS 150V210 9999 FEW030 31/22 Q1006 NOSIG
ZHCC,2023-06-21 11:00,ZHCC 211100Z 18003MPS 140V240 9999 FEW030 29/21 Q1006 NOSIG
ZHCC,2023-06-21 12:00,ZHCC 211200Z 19002MPS 100V230 CAVOK 28/21 Q1006 NOSIG
ZHCC,2023-06-21 13:00,ZHCC 211300Z 20001MPS CAVOK 28/21 Q1007 NOSIG
ZHCC,2023-06-21 14:00,ZHCC 211400Z 22001MPS CAVOK 27/21 Q1007 NOSIG
ZHCC,2023-06-21 15:00,ZHCC 211500Z 19002MPS 160V220 CAVOK 27/21 Q1007 NOSIG
ZHCC,2023-06-21 16:00,ZHCC 211600Z 20002MPS 170V230 CAVOK 27/21 Q1007 NOSIG
ZHCC,2023-06-21 17:00,ZHCC 211700Z 22002MPS 180V240 CAVOK 27/21 Q1007 NOSIG
ZHCC,2023-06-21 18:00,ZHCC 211800Z 23002MPS CAVOK 27/22 Q1007 NOSIG
ZHCC,2023-06-21 19:00,ZHCC 211900Z 26001MPS CAVOK 24/21 Q1007 NOSIG
ZHCC,2023-06-21 20:00,ZHCC 212000Z 25001MPS CAVOK 24/21 Q1007 NOSIG
ZHCC,2023-06-21 21:00,ZHCC 212100Z 25001MPS 6000 NSC 23/21 Q1007 NOSIG
ZHCC,2023-06-21 22:00,ZHCC 212200Z 21001MPS 5000 BR NSC 24/22 Q1007 NOSIG
ZHCC,2023-06-21 23:00,ZHCC 212300Z 30001MPS 5000 BR NSC 27/23 Q1008 NOSIG
ZHCC,2023-06-22 00:00,ZHCC 220000Z VRB01MPS CAVOK 29/24 Q1008 NOSIG
ZHCC,2023-06-22 01:00,ZHCC 220100Z VRB01MPS CAVOK 31/23 Q1008 NOSIG
ZHCC,2023-06-22 02:00,ZHCC 220200Z 16003MPS 110V200 CAVOK 32/22 Q1008 NOSIG
ZHCC,2023-06-22 03:00,ZHCC 220300Z 18002MPS 060V230 CAVOK 33/22 Q1008 NOSIG
ZHCC,2023-06-22 04:00,ZHCC 220400Z 19003MPS 090V260 9999 FEW040 34/19 Q1008 NOSIG
ZHCC,2023-06-22 05:00,ZHCC 220500Z 15003MPS 100V230 9999 FEW040 35/18 Q1007 NOSIG
ZHCC,2023-06-22 06:00,ZHCC 220600Z VRB04MPS 9999 SCT040 35/17 Q1007 NOSIG
ZHCC,2023-06-22 07:00,ZHCC 220700Z 16004MPS 110V220 9999 SCT040 35/19 Q1006 NOSIG
ZHCC,2023-06-22 08:00,ZHCC 220800Z 14003MPS 090V190 9999 SCT040 35/18 Q1005 NOSIG
ZHCC,2023-06-22 09:00,ZHCC 220900Z 16002MPS 100V220 9999 SCT040 35/17 Q1005 NOSIG
ZHCC,2023-06-22 10:00,ZHCC 221000Z 14002MPS 090V220 9999 SCT040 35/16 Q1005 NOSIG
ZHCC,2023-06-22 11:00,ZHCC 221100Z 14002MPS 100V180 9999 FEW040 33/16 Q1006 NOSIG
ZHCC,2023-06-22 12:00,ZHCC 221200Z 15002MPS 120V210 CAVOK 31/17 Q1006 NOSIG
ZHCC,2023-06-22 13:00,ZHCC 221300Z 19002MPS 150V220 CAVOK 30/16 Q1007 NOSIG
ZHCC,2023-06-22 14:00,ZHCC 221400Z VRB01MPS CAVOK 28/17 Q1007 NOSIG
ZHCC,2023-06-22 15:00,ZHCC 221500Z VRB01MPS CAVOK 26/18 Q1007 NOSIG
ZHCC,2023-06-22 16:00,ZHCC 221600Z VRB01MPS CAVOK 25/18 Q1007 NOSIG
ZHCC,2023-06-22 17:00,ZHCC 221700Z VRB01MPS CAVOK 27/18 Q1007 NOSIG
ZHCC,2023-06-22 18:00,ZHCC 221800Z 25001MPS CAVOK 23/19 Q1007 NOSIG
ZHCC,2023-06-22 19:00,ZHCC 221900Z 26002MPS CAVOK 22/19 Q1007 NOSIG
ZHCC,2023-06-22 20:00,ZHCC 222000Z 25002MPS CAVOK 24/18 Q1007 NOSIG
ZHCC,2023-06-22 21:00,ZHCC 222100Z 27001MPS CAVOK 21/18 Q1007 NOSIG
ZHCC,2023-06-22 22:00,ZHCC 222200Z 26001MPS CAVOK 22/19 Q1007 NOSIG
ZHCC,2023-06-22 23:00,ZHCC 222300Z 00000MPS CAVOK 27/21 Q1008 NOSIG
ZHCC,2023-06-23 00:00,ZHCC 230000Z 29002MPS CAVOK 29/19 Q1008 NOSIG
ZHCC,2023-06-23 01:00,ZHCC 230100Z 28002MPS 230V330 CAVOK 32/17 Q1008 NOSIG
ZHCC,2023-06-23 02:00,ZHCC 230200Z 23002MPS 150V290 CAVOK 33/14 Q1008 NOSIG
ZHCC,2023-06-23 03:00,ZHCC 230300Z VRB01MPS CAVOK 34/11 Q1008 NOSIG
ZHCC,2023-06-23 04:00,ZHCC 230400Z 16003MPS 100V220 CAVOK 35/13 Q1007 NOSIG
ZHCC,2023-06-23 05:00,ZHCC 230500Z 16004MPS 110V230 CAVOK 35/13 Q1007 NOSIG
ZHCC,2023-06-23 06:00,ZHCC 230600Z 14004G09MPS 070V200 CAVOK 36/14 Q1007 NOSIG
ZHCC,2023-06-23 07:00,ZHCC 230700Z 14003MPS 090V180 CAVOK 36/15 Q1007 NOSIG
ZHCC,2023-06-23 08:00,ZHCC 230800Z 16004MPS 110V230 CAVOK 36/13 Q1006 NOSIG
ZHCC,2023-06-23 09:00,ZHCC 230900Z 16003MPS 100V230 CAVOK 36/14 Q1006 NOSIG
ZHCC,2023-06-23 10:00,ZHCC 231000Z 15002MPS 050V200 CAVOK 34/13 Q1006 NOSIG
ZHCC,2023-06-23 11:00,ZHCC 231100Z 15002MPS 100V200 CAVOK 33/14 Q1006 NOSIG
ZHCC,2023-06-23 12:00,ZHCC 231200Z VRB01MPS CAVOK 31/14 Q1007 NOSIG
ZHCC,2023-06-23 13:00,ZHCC 231300Z VRB01MPS CAVOK 27/16 Q1007 NOSIG
ZHCC,2023-06-23 14:00,ZHCC 231400Z VRB01MPS CAVOK 27/15 Q1008 NOSIG
ZHCC,2023-06-23 15:00,ZHCC 231500Z VRB01MPS CAVOK 24/18 Q1008 NOSIG
ZHCC,2023-06-23 16:00,ZHCC 231600Z VRB01MPS CAVOK 26/15 Q1008 NOSIG
ZHCC,2023-06-23 17:00,ZHCC 231700Z VRB01MPS CAVOK 23/16 Q1008 NOSIG
ZHCC,2023-06-23 18:00,ZHCC 231800Z 00000MPS CAVOK 21/16 Q1008 NOSIG
ZHCC,2023-06-23 19:00,ZHCC 231900Z 00000MPS CAVOK 21/17 Q1008 NOSIG
ZHCC,2023-06-23 20:00,ZHCC 232000Z 29001MPS CAVOK 21/17 Q1008 NOSIG
ZHCC,2023-06-23 21:00,ZHCC 232100Z 13001MPS CAVOK 21/17 Q1008 NOSIG
ZHCC,2023-06-23 22:00,ZHCC 232200Z 00000MPS CAVOK 21/16 Q1008 NOSIG
ZHCC,2023-06-23 23:00,ZHCC 232300Z VRB01MPS CAVOK 26/18 Q1008 NOSIG
ZHCC,2023-06-24 00:00,ZHCC 240000Z VRB01MPS CAVOK 29/16 Q1009 NOSIG
ZHCC,2023-06-24 01:00,ZHCC 240100Z VRB01MPS CAVOK 31/15 Q1009 NOSIG
ZHCC,2023-06-24 02:00,ZHCC 240200Z 09003MPS 030V150 CAVOK 32/14 Q1009 NOSIG
ZHCC,2023-06-24 03:00,ZHCC 240300Z 10004G09MPS 060V180 CAVOK 33/16 Q1009 NOSIG
ZHCC,2023-06-24 04:00,ZHCC 240400Z 09003MPS 030V150 CAVOK 34/16 Q1009 NOSIG
ZHCC,2023-06-24 05:00,ZHCC 240500Z 06003MPS 360V100 CAVOK 34/16 Q1008 NOSIG
ZHCC,2023-06-24 06:00,ZHCC 240600Z 07005MPS 030V090 CAVOK 34/15 Q1008 NOSIG
ZHCC,2023-06-24 07:00,ZHCC 240700Z 09004MPS 030V150 CAVOK 34/16 Q1007 NOSIG
ZHCC,2023-06-24 08:00,ZHCC 240800Z 08005MPS CAVOK 35/15 Q1007 NOSIG
ZHCC,2023-06-24 09:00,ZHCC 240900Z 09004MPS 050V120 CAVOK 35/15 Q1006 NOSIG
ZHCC,2023-06-24 10:00,ZHCC 241000Z 05004MPS CAVOK 34/15 Q1006 NOSIG
ZHCC,2023-06-24 11:00,ZHCC 241100Z 06004MPS CAVOK 33/16 Q1007 NOSIG
ZHCC,2023-06-24 12:00,ZHCC 241200Z 08004MPS CAVOK 32/15 Q1007 NOSIG
ZHCC,2023-06-24 13:00,ZHCC 241300Z 12002MPS CAVOK 30/16 Q1008 NOSIG
ZHCC,2023-06-24 14:00,ZHCC 241400Z 11003MPS CAVOK 28/16 Q1008 NOSIG
ZHCC,2023-06-24 15:00,ZHCC 241500Z 11003MPS CAVOK 27/16 Q1008 NOSIG
ZHCC,2023-06-24 16:00,ZHCC 241600Z 12002MPS CAVOK 26/16 Q1007 NOSIG
ZHCC,2023-06-24 17:00,ZHCC 241700Z 12003MPS CAVOK 27/16 Q1007 NOSIG
ZHCC,2023-06-24 18:00,ZHCC 241800Z 12002MPS CAVOK 26/16 Q1007 NOSIG
ZHCC,2023-06-24 19:00,ZHCC 241900Z 12003MPS CAVOK 25/16 Q1007 NOSIG
ZHCC,2023-06-24 20:00,ZHCC 242000Z 10003MPS CAVOK 24/16 Q1007 NOSIG
ZHCC,2023-06-24 21:00,ZHCC 242100Z 09002MPS CAVOK 24/16 Q1007 NOSIG
ZHCC,2023-06-24 22:00,ZHCC 242200Z 10003MPS CAVOK 24/17 Q1007 NOSIG
ZHCC,2023-06-24 23:00,ZHCC 242300Z 07002MPS 040V130 CAVOK 26/18 Q1007 NOSIG
ZHCC,2023-06-25 00:00,ZHCC 250000Z 07002MPS 040V120 CAVOK 26/18 Q1008 NOSIG
ZHCC,2023-06-25 01:00,ZHCC 250100Z 07002MPS 040V120 CAVOK 27/19 Q1008 NOSIG
ZHCC,2023-06-25 02:00,ZHCC 250200Z 04002MPS 360V070 CAVOK 27/19 Q1007 NOSIG
ZHCC,2023-06-25 03:00,ZHCC 250300Z 06002MPS 310V120 CAVOK 29/20 Q1007 NOSIG
ZHCC,2023-06-25 04:00,ZHCC 250400Z 04003MPS 310V090 CAVOK 30/19 Q1007 NOSIG
ZHCC,2023-06-25 05:00,ZHCC 250500Z 07004MPS 020V120 CAVOK 31/19 Q1006 NOSIG
ZHCC,2023-06-25 06:00,ZHCC 250600Z 05005MPS 020V090 CAVOK 32/19 Q1006 NOSIG
ZHCC,2023-06-25 07:00,ZHCC 250700Z 09006MPS CAVOK 32/20 Q1006 NOSIG
ZHCC,2023-06-25 08:00,ZHCC 250800Z 09006MPS 060V120 CAVOK 30/20 Q1006 NOSIG
ZHCC,2023-06-25 09:00,ZHCC 250900Z 10005MPS 070V130 CAVOK 30/20 Q1006 NOSIG
ZHCC,2023-06-25 10:00,ZHCC 251000Z 10005MPS CAVOK 29/19 Q1006 NOSIG
ZHCC,2023-06-25 11:00,ZHCC 251100Z 11005MPS CAVOK 27/19 Q1006 NOSIG
ZHCC,2023-06-25 12:00,ZHCC 251200Z 12003MPS 100V160 CAVOK 25/18 Q1007 NOSIG
ZHCC,2023-06-25 13:00,ZHCC 251300Z 11002MPS CAVOK 24/18 Q1007 NOSIG
ZHCC,2023-06-25 14:00,ZHCC 251400Z 11003MPS CAVOK 24/19 Q1008 NOSIG
ZHCC,2023-06-25 15:00,ZHCC 251500Z VRB01MPS CAVOK 23/19 Q1008 NOSIG
ZHCC,2023-06-25 16:00,ZHCC 251600Z 27002MPS CAVOK 22/19 Q1007 NOSIG
ZHCC,2023-06-25 17:00,ZHCC 251700Z 28001MPS CAVOK 21/19 Q1007 NOSIG
ZHCC,2023-06-25 18:00,ZHCC 251800Z VRB01MPS CAVOK 22/19 Q1006 NOSIG
ZHCC,2023-06-25 19:00,ZHCC 251900Z VRB01MPS CAVOK 21/18 Q1006 NOSIG
ZHCC,2023-06-25 20:00,ZHCC 252000Z 14002MPS CAVOK 21/19 Q1006 NOSIG
ZHCC,2023-06-25 21:00,ZHCC 252100Z VRB01MPS CAVOK 21/19 Q1006 NOSIG
ZHCC,2023-06-25 22:00,ZHCC 252200Z VRB01MPS CAVOK 22/19 Q1007 NOSIG
ZHCC,2023-06-25 23:00,ZHCC 252300Z 20002MPS 150V230 CAVOK 24/19 Q1007 NOSIG
ZHCC,2023-06-26 00:00,ZHCC 260000Z 20002MPS 150V250 CAVOK 25/20 Q1007 NOSIG
ZHCC,2023-06-26 01:00,ZHCC 260100Z 20002MPS 140V250 CAVOK 27/19 Q1007 NOSIG
ZHCC,2023-06-26 02:00,ZHCC 260200Z 24002MPS 190V300 CAVOK 29/19 Q1007 NOSIG
ZHCC,2023-06-26 03:00,ZHCC 260300Z VRB02MPS CAVOK 31/19 Q1006 NOSIG
ZHCC,2023-06-26 04:00,ZHCC 260400Z VRB03MPS CAVOK 33/18 Q1006 NOSIG
ZHCC,2023-06-26 05:00,ZHCC 260500Z 12003MPS 080V200 CAVOK 34/18 Q1005 NOSIG
ZHCC,2023-06-26 06:00,ZHCC 260600Z 20003MPS 130V260 CAVOK 34/18 Q1004 NOSIG
ZHCC,2023-06-26 07:00,ZHCC 260700Z 19003MPS 110V260 CAVOK 34/18 Q1004 NOSIG
ZHCC,2023-06-26 08:00,ZHCC 260800Z 18003MPS 140V220 CAVOK 34/17 Q1003 NOSIG
ZHCC,2023-06-26 09:00,ZHCC 260900Z 20004MPS 110V260 CAVOK 35/17 Q1002 NOSIG
ZHCC,2023-06-26 10:00,ZHCC 261000Z 18003MPS 120V240 CAVOK 34/18 Q1002 NOSIG
ZHCC,2023-06-26 11:00,ZHCC 261100Z 20003MPS 170V250 CAVOK 33/19 Q1003 NOSIG
ZHCC,2023-06-26 12:00,ZHCC 261200Z 19002MPS 130V240 CAVOK 32/19 Q1003 NOSIG
ZHCC,2023-06-26 13:00,ZHCC 261300Z 20003MPS 170V240 CAVOK 31/20 Q1003 NOSIG
ZHCC,2023-06-26 14:00,ZHCC 261400Z 19003MPS 140V240 CAVOK 30/20 Q1003 NOSIG
ZHCC,2023-06-26 15:00,ZHCC 261500Z 18003MPS 130V220 CAVOK 30/21 Q1004 NOSIG
ZHCC,2023-06-26 16:00,ZHCC 261600Z 19004MPS 160V230 CAVOK 29/21 Q1004 NOSIG
ZHCC,2023-06-26 17:00,ZHCC 261700Z 20004MPS 170V240 CAVOK 28/22 Q1004 NOSIG
ZHCC,2023-06-26 18:00,ZHCC 261800Z 20003G08MPS 160V230 CAVOK 28/22 Q1004 NOSIG
ZHCC,2023-06-26 19:00,ZHCC 261900Z 20003MPS 160V250 CAVOK 27/21 Q1003 NOSIG
ZHCC,2023-06-26 20:00,ZHCC 262000Z 19002MPS 150V220 CAVOK 27/21 Q1003 NOSIG
ZHCC,2023-06-26 21:00,ZHCC 262100Z 19002MPS 080V230 7000 NSC 26/21 Q1003 NOSIG
ZHCC,2023-06-26 22:00,ZHCC 262200Z 19002MPS 120V250 6000 NSC 26/22 Q1004 NOSIG
ZHCC,2023-06-26 23:00,ZHCC 262300Z 19002MPS 140V230 7000 NSC 27/22 Q1004 NOSIG
ZHCC,2023-06-27 00:00,ZHCC 270000Z 19003MPS 130V220 CAVOK 29/23 Q1004 NOSIG
ZHCC,2023-06-27 01:00,ZHCC 270100Z 21004MPS 180V240 CAVOK 30/22 Q1005 NOSIG
ZHCC,2023-06-27 02:00,ZHCC 270200Z 20003MPS 130V260 CAVOK 32/23 Q1004 NOSIG
ZHCC,2023-06-27 03:00,ZHCC 270300Z VRB02MPS CAVOK 33/22 Q1004 NOSIG
ZHCC,2023-06-27 04:00,ZHCC 270400Z 12003MPS 070V160 CAVOK 34/22 Q1004 NOSIG
ZHCC,2023-06-27 05:00,ZHCC 270500Z VRB03MPS CAVOK 35/22 Q1004 NOSIG
ZHCC,2023-06-27 06:00,ZHCC 270600Z 16004MPS 090V230 CAVOK 35/22 Q1003 NOSIG
ZHCC,2023-06-27 07:00,ZHCC 270700Z 17003MPS 100V220 CAVOK 37/22 Q1002 NOSIG
ZHCC,2023-06-27 08:00,ZHCC 270800Z 17003MPS 110V240 CAVOK 37/22 Q1002 NOSIG
ZHCC,2023-06-27 09:00,ZHCC 270900Z 16003MPS 110V220 CAVOK 36/22 Q1002 NOSIG
ZHCC,2023-06-27 10:00,ZHCC 271000Z 18003MPS 100V230 CAVOK 35/23 Q1002 NOSIG
ZHCC,2023-06-27 11:00,ZHCC 271100Z 19003MPS 140V260 CAVOK 34/22 Q1002 NOSIG
ZHCC,2023-06-27 12:00,ZHCC 271200Z 21003MPS 140V250 CAVOK 33/23 Q1003 NOSIG
ZHCC,2023-06-27 13:00,ZHCC 271300Z 18002MPS 100V230 CAVOK 33/23 Q1003 NOSIG
ZHCC,2023-06-27 14:00,ZHCC 271400Z VRB01MPS CAVOK 32/23 Q1004 NOSIG
ZHCC,2023-06-27 15:00,ZHCC 271500Z 18003MPS 120V240 CAVOK 32/23 Q1004 NOSIG
ZHCC,2023-06-27 16:00,ZHCC 271600Z 19003MPS 140V220 CAVOK 31/23 Q1004 NOSIG
ZHCC,2023-06-27 17:00,ZHCC 271700Z 19003MPS 140V220 CAVOK 30/23 Q1004 NOSIG
ZHCC,2023-06-27 18:00,ZHCC 271800Z 18003MPS 090V240 CAVOK 29/23 Q1003 NOSIG
ZHCC,2023-06-27 19:00,ZHCC 271900Z 19004MPS 120V230 CAVOK 29/23 Q1003 NOSIG
ZHCC,2023-06-27 20:00,ZHCC 272000Z 19003MPS 150V240 CAVOK 29/23 Q1003 NOSIG
ZHCC,2023-06-27 21:00,ZHCC 272100Z 18002MPS 130V220 CAVOK 28/23 Q1003 NOSIG
ZHCC,2023-06-27 22:00,ZHCC 272200Z VRB01MPS CAVOK 28/23 Q1002 NOSIG
ZHCC,2023-06-27 23:00,ZHCC 272300Z 14002MPS 100V200 CAVOK 28/23 Q1002 NOSIG
ZHCC,2023-06-28 00:00,ZHCC 280000Z 17002MPS 090V220 CAVOK 29/23 Q1003 NOSIG
ZHCC,2023-06-28 01:00,ZHCC 280100Z 18003MPS 110V210 CAVOK 29/23 Q1002 NOSIG
ZHCC,2023-06-28 02:00,ZHCC 280200Z 18003MPS 110V230 CAVOK 30/24 Q1002 NOSIG
ZHCC,2023-06-28 03:00,ZHCC 280300Z 20004MPS 170V240 9999 FEW030 31/24 Q1002 NOSIG
ZHCC,2023-06-28 04:00,ZHCC 280400Z 20003MPS 130V280 9999 FEW030 31/24 Q1001 NOSIG
ZHCC,2023-06-28 05:00,ZHCC 280500Z 22003MPS 170V250 9999 FEW030 32/24 Q1001 NOSIG
ZHCC,2023-06-28 06:00,ZHCC 280600Z 21003MPS 160V250 9999 SCT033 33/23 Q1000 NOSIG
ZHCC,2023-06-28 07:00,ZHCC 280700Z 26003MPS 200V290 9999 SCT040 32/23 Q1000 NOSIG
ZHCC,2023-06-28 08:00,ZHCC 280800Z 22003MPS 180V250 9999 FEW040 32/24 Q1000 NOSIG
ZHCC,2023-06-28 09:00,ZHCC 280900Z 30007G13MPS 0900 R30L/P2000 R30R/P2000 +TSRA FEW030CB BKN040 26/25 Q1001 BECMG TL1050 2000 -SHRA BR
ZHCC,2023-06-28 10:00,ZHCC 281000Z VRB01MPS CAVOK 26/25 Q1000 RETSRA NOSIG
ZHCC,2023-06-28 11:00,ZHCC 281100Z 25002MPS 210V280 CAVOK 28/26 Q1000 NOSIG
ZHCC,2023-06-28 12:00,ZHCC 281200Z VRB01MPS CAVOK 28/26 Q1001 NOSIG
ZHCC,2023-06-28 13:00,ZHCC 281300Z VRB01MPS CAVOK 28/26 Q1001 NOSIG
ZHCC,2023-06-28 14:00,ZHCC 281400Z 03002MPS 360V060 CAVOK 28/26 Q1002 NOSIG
ZHCC,2023-06-28 15:00,ZHCC 281500Z VRB01MPS CAVOK 27/26 Q1002 NOSIG
ZHCC,2023-06-28 16:00,ZHCC 281600Z 00000MPS CAVOK 27/26 Q1002 NOSIG
ZHCC,2023-06-28 17:00,ZHCC 281700Z 02002MPS 350V070 CAVOK 27/24 Q1002 NOSIG
ZHCC,2023-06-28 18:00,ZHCC 281800Z VRB01MPS CAVOK 27/24 Q1001 NOSIG
ZHCC,2023-06-28 19:00,ZHCC 281900Z 06005MPS CAVOK 26/24 Q1002 NOSIG
ZHCC,2023-06-28 20:00,ZHCC 282000Z 03003MPS 340V060 6000 TSRA SCT011 FEW030CB BKN046 25/24 Q1002 NOSIG
ZHCC,2023-06-28 21:00,ZHCC 282100Z 04003MPS 360V070 5000 +SHRA SCT011 FEW030CB BKN040 24/23 Q1003 RETS NOSIG
ZHCC,2023-06-28 22:00,ZHCC 282200Z 05003MPS 2500 SHRA BR SCT011 FEW030CB BKN040 24/23 Q1003 BECMG TL2240 -SHRA BECMG TL2340 3000
ZHCC,2023-06-28 23:00,ZHCC 282300Z 12004MPS 2500 SHRA BR FEW011 FEW030CB BKN043 23/22 Q1004 BECMG TL2320 3000 -SHRA
ZHCC,2023-06-29 00:00,ZHCC 290000Z 08004MPS 4000 -SHRA BR FEW011 FEW030CB BKN043 24/23 Q1003 RESHRA NOSIG
ZHCC,2023-06-29 01:00,ZHCC 290100Z 02002MPS 6000 OVC040 24/22 Q1003 NOSIG
ZHCC,2023-06-29 02:00,ZHCC 290200Z 35004MPS 320V020 7000 OVC040 27/23 Q1003 NOSIG
ZHCC,2023-06-29 03:00,ZHCC 290300Z 36003MPS 8000 NSC 27/22 Q1003 NOSIG
ZHCC,2023-06-29 04:00,ZHCC 290400Z 02003MPS 340V050 CAVOK 28/22 Q1003 NOSIG
ZHCC,2023-06-29 05:00,ZHCC 290500Z 02002MPS 330V080 CAVOK 29/21 Q1003 NOSIG
ZHCC,2023-06-29 06:00,ZHCC 290600Z 07003MPS 030V110 CAVOK 31/21 Q1002 NOSIG
ZHCC,2023-06-29 07:00,ZHCC 290700Z VRB01MPS CAVOK 31/22 Q1002 NOSIG
ZHCC,2023-06-29 08:00,ZHCC 290800Z VRB02MPS CAVOK 32/22 Q1002 NOSIG
ZHCC,2023-06-29 09:00,ZHCC 290900Z 12002MPS 080V160 CAVOK 31/20 Q1001 NOSIG
ZHCC,2023-06-29 10:00,ZHCC 291000Z 18002MPS 130V220 CAVOK 30/21 Q1001 NOSIG
ZHCC,2023-06-29 11:00,ZHCC 291100Z 19002MPS 150V220 CAVOK 30/21 Q1001 NOSIG
ZHCC,2023-06-29 12:00,ZHCC 291200Z 21002MPS 170V250 CAVOK 29/22 Q1001 NOSIG
ZHCC,2023-06-29 13:00,ZHCC 291300Z 22002MPS 180V250 CAVOK 28/22 Q1002 NOSIG
ZHCC,2023-06-29 14:00,ZHCC 291400Z 24002MPS CAVOK 27/23 Q1002 NOSIG
ZHCC,2023-06-29 15:00,ZHCC 291500Z 26002MPS CAVOK 26/22 Q1002 NOSIG
ZHCC,2023-06-29 16:00,ZHCC 291600Z 27002MPS CAVOK 25/22 Q1002 NOSIG
ZHCC,2023-06-29 17:00,ZHCC 291700Z 26002MPS CAVOK 24/22 Q1002 NOSIG
ZHCC,2023-06-29 18:00,ZHCC 291800Z 26001MPS CAVOK 24/21 Q1002 NOSIG
ZHCC,2023-06-29 19:00,ZHCC 291900Z 25001MPS CAVOK 24/21 Q1001 NOSIG
ZHCC,2023-06-29 20:00,ZHCC 292000Z 00000MPS CAVOK 22/21 Q1001 NOSIG
ZHCC,2023-06-29 21:00,ZHCC 292100Z VRB01MPS 8000 NSC 22/21 Q1002 NOSIG
ZHCC,2023-06-29 22:00,ZHCC 292200Z VRB01MPS 8000 NSC 22/21 Q1002 NOSIG
ZHCC,2023-06-29 23:00,ZHCC 292300Z 00000MPS CAVOK 27/21 Q1002 NOSIG
ZHCC,2023-06-30 00:00,ZHCC 300000Z 26002MPS 230V290 CAVOK 29/18 Q1002 NOSIG
ZHCC,2023-06-30 01:00,ZHCC 300100Z 24002MPS 200V280 CAVOK 31/18 Q1002 NOSIG
ZHCC,2023-06-30 02:00,ZHCC 300200Z 18002MPS 100V250 CAVOK 32/19 Q1003 NOSIG
ZHCC,2023-06-30 03:00,ZHCC 300300Z VRB03MPS CAVOK 33/20 Q1003 NOSIG
ZHCC,2023-06-30 04:00,ZHCC 300400Z VRB01MPS CAVOK 34/19 Q1002 NOSIG
ZHCC,2023-06-30 05:00,ZHCC 300500Z VRB02MPS CAVOK 35/18 Q1002 NOSIG
ZHCC,2023-06-30 06:00,ZHCC 300600Z 14003MPS 100V250 CAVOK 35/17 Q1001 NOSIG
ZHCC,2023-06-30 07:00,ZHCC 300700Z VRB01MPS CAVOK 37/12 Q1001 NOSIG
ZHCC,2023-06-30 08:00,ZHCC 300800Z 14002MPS 080V210 CAVOK 36/16 Q1000 NOSIG
ZHCC,2023-06-30 09:00,ZHCC 300900Z 13003MPS 100V180 CAVOK 35/16 Q1000 NOSIG
ZHCC,2023-06-30 10:00,ZHCC 301000Z 14002MPS 110V180 CAVOK 34/16 Q1000 NOSIG
ZHCC,2023-06-30 11:00,ZHCC 301100Z 16002MPS 120V200 CAVOK 33/18 Q1001 NOSIG
ZHCC,2023-06-30 12:00,ZHCC 301200Z VRB01MPS CAVOK 31/19 Q1001 NOSIG
ZHCC,2023-06-30 13:00,ZHCC 301300Z VRB01MPS CAVOK 30/19 Q1001 NOSIG
ZHCC,2023-06-30 14:00,ZHCC 301400Z VRB01MPS CAVOK 29/19 Q1002 NOSIG
ZHCC,2023-06-30 15:00,ZHCC 301500Z VRB01MPS CAVOK 28/20 Q1002 NOSIG
ZHCC,2023-06-30 16:00,ZHCC 301600Z VRB01MPS CAVOK 26/21 Q1002 NOSIG
ZHCC,2023-06-30 17:00,ZHCC 301700Z VRB01MPS CAVOK 25/21 Q1002 NOSIG
ZHCC,2023-06-30 18:00,ZHCC 301800Z VRB01MPS CAVOK 24/20 Q1002 NOSIG
ZHCC,2023-06-30 19:00,ZHCC 301900Z VRB01MPS CAVOK 25/20 Q1002 NOSIG
ZHCC,2023-06-30 20:00,ZHCC 302000Z VRB01MPS CAVOK 26/20 Q1002 NOSIG
ZHCC,2023-06-30 21:00,ZHCC 302100Z VRB01MPS CAVOK 25/20 Q1003 NOSIG
ZHCC,2023-06-30 22:00,ZHCC 302200Z VRB01MPS 8000 NSC 25/20 Q1003 NOSIG
ZHCC,2023-06-30 23:00,ZHCC 302300Z VRB01MPS 7000 NSC 26/21 Q1004 NOSIG
ZHCC,2023-07-01 00:00,ZHCC 010000Z 16002MPS 120V210 7000 NSC 28/21 Q1004 NOSIG
ZHCC,2023-07-01 01:00,ZHCC 010100Z 16002MPS 100V210 CAVOK 30/21 Q1005 NOSIG
ZHCC,2023-07-01 02:00,ZHCC 010200Z 16003MPS 110V200 CAVOK 31/22 Q1005 NOSIG
ZHCC,2023-07-01 03:00,ZHCC 010300Z 17002MPS 090V240 CAVOK 32/21 Q1005 NOSIG
ZHCC,2023-07-01 04:00,ZHCC 010400Z 15003MPS 100V220 CAVOK 33/18 Q1004 NOSIG
ZHCC,2023-07-01 05:00,ZHCC 010500Z 14003MPS 090V190 CAVOK 33/20 Q1004 NOSIG
ZHCC,2023-07-01 06:00,ZHCC 010600Z 13003MPS 110V180 CAVOK 33/19 Q1004 NOSIG
ZHCC,2023-07-01 07:00,ZHCC 010700Z 14003MPS 110V190 CAVOK 33/19 Q1003 NOSIG
ZHCC,2023-07-01 08:00,ZHCC 010800Z 11004MPS CAVOK 33/19 Q1003 NOSIG
ZHCC,2023-07-01 09:00,ZHCC 010900Z 14002MPS 100V160 CAVOK 32/20 Q1003 NOSIG
ZHCC,2023-07-01 10:00,ZHCC 011000Z 14002MPS 100V200 CAVOK 31/20 Q1003 NOSIG
ZHCC,2023-07-01 11:00,ZHCC 011100Z 13002MPS CAVOK 30/20 Q1003 NOSIG
ZHCC,2023-07-01 12:00,ZHCC 011200Z VRB01MPS CAVOK 29/21 Q1004 NOSIG
ZHCC,2023-07-01 13:00,ZHCC 011300Z 14001MPS CAVOK 29/21 Q1004 NOSIG
ZHCC,2023-07-01 14:00,ZHCC 011400Z VRB01MPS CAVOK 29/20 Q1005 NOSIG
ZHCC,2023-07-01 15:00,ZHCC 011500Z 14002MPS 110V170 CAVOK 28/20 Q1004 NOSIG
ZHCC,2023-07-01 16:00,ZHCC 011600Z VRB01MPS CAVOK 27/21 Q1004 NOSIG
ZHCC,2023-07-01 17:00,ZHCC 011700Z VRB01MPS CAVOK 26/21 Q1004 NOSIG
ZHCC,2023-07-01 18:00,ZHCC 011800Z VRB01MPS CAVOK 27/21 Q1003 NOSIG
ZHCC,2023-07-01 19:00,ZHCC 011900Z 14002MPS 100V190 CAVOK 27/22 Q1003 NOSIG
ZHCC,2023-07-01 20:00,ZHCC 012000Z VRB01MPS CAVOK 27/22 Q1003 NOSIG
ZHCC,2023-07-01 21:00,ZHCC 012100Z 11001MPS CAVOK 26/23 Q1003 NOSIG
ZHCC,2023-07-01 22:00,ZHCC 012200Z 12001MPS 6000 NSC 26/23 Q1004 NOSIG
ZHCC,2023-07-01 23:00,ZHCC 012300Z VRB01MPS 5000 -SHRA BR BKN046 27/24 Q1004 NOSIG
ZHCC,2023-07-02 00:00,ZHCC 020000Z 08002MPS 030V110 4000 -SHRA BR FEW015 BKN046 27/24 Q1005 NOSIG
ZHCC,2023-07-02 01:00,ZHCC 020100Z 12002MPS 090V150 4000 BR NSC 28/25 Q1005 NOSIG
ZHCC,2023-07-02 02:00,ZHCC 020200Z 15002MPS 100V230 6000 NSC 28/24 Q1005 NOSIG
ZHCC,2023-07-02 03:00,ZHCC 020300Z 18002MPS 130V220 8000 NSC 28/24 Q1005 NOSIG
ZHCC,2023-07-02 04:00,ZHCC 020400Z VRB01MPS 6000 SHRA FEW040CB BKN046 26/24 Q1005 BECMG TL0450 -SHRA
ZHCC,2023-07-02 05:00,ZHCC 020500Z VRB01MPS 8000 BKN046 29/25 Q1004 RESHRA NOSIG
ZHCC,2023-07-02 06:00,ZHCC 020600Z 05002MPS 010V100 9999 BKN046 29/23 Q1004 NOSIG
ZHCC,2023-07-02 07:00,ZHCC 020700Z 08003MPS 8000 -SHRA OVC030 29/25 Q1003 NOSIG
ZHCC,2023-07-02 08:00,ZHCC 020800Z 09003MPS 060V130 8000 OVC030 29/26 Q1003 NOSIG
ZHCC,2023-07-02 09:00,ZHCC 020900Z 10003MPS 060V150 8000 OVC030 29/25 Q1003 NOSIG
ZHCC,2023-07-02 10:00,ZHCC 021000Z 11003MPS 8000 OVC030 28/25 Q1003 NOSIG
ZHCC,2023-07-02 11:00,ZHCC 021100Z 10002MPS 070V130 8000 -SHRA OVC030 27/26 Q1004 NOSIG
ZHCC,2023-07-02 12:00,ZHCC 021200Z 00000MPS 6000 OVC030 27/26 Q1004 NOSIG
ZHCC,2023-07-02 13:00,ZHCC 021300Z VRB01MPS 6000 SCT007 BKN030 27/26 Q1005 NOSIG
ZHCC,2023-07-02 14:00,ZHCC 021400Z 07002MPS 4000 SHRA BR SCT007 BKN030 27/26 Q1005 NOSIG
ZHCC,2023-07-02 15:00,ZHCC 021500Z 09003MPS 050V110 5000 BR SCT007 BKN030 27/26 Q1005 RESHRA NOSIG
ZHCC,2023-07-02 16:00,ZHCC 021600Z 09003MPS 5000 BR SCT007 BKN030 27/26 Q1004 NOSIG
ZHCC,2023-07-02 17:00,ZHCC 021700Z 10003MPS 5000 BR SCT007 BKN030 26/26 Q1004 NOSIG
ZHCC,2023-07-02 18:00,ZHCC 021800Z 08003MPS 5000 BR SCT007 BKN030 26/26 Q1003 NOSIG
ZHCC,2023-07-02 19:00,ZHCC 021900Z 05002MPS 020V080 5000 BR SCT007 BKN030 26/26 Q1003 NOSIG
ZHCC,2023-07-02 20:00,ZHCC 022000Z 07002MPS 3500 BR SCT007 BKN030 26/26 Q1002 NOSIG
ZHCC,2023-07-02 21:00,ZHCC 022100Z 09003MPS 3500 BR SCT007 BKN030 26/26 Q1003 NOSIG
ZHCC,2023-07-02 22:00,ZHCC 022200Z VRB01MPS 2000 BR SCT007 BKN030 26/26 Q1003 BECMG TL2340 3000
ZHCC,2023-07-02 23:00,ZHCC 022300Z VRB01MPS 2500 BR SCT007 BKN030 27/26 Q1003 BECMG TL2340 3000
ZHCC,2023-07-03 00:00,ZHCC 030000Z 07004MPS 3000 BR SCT007 BKN030 27/26 Q1003 NOSIG
ZHCC,2023-07-03 01:00,ZHCC 030100Z 11003MPS 4000 BR SCT007 BKN030 27/26 Q1003 NOSIG
ZHCC,2023-07-03 02:00,ZHCC 030200Z 11003MPS 5000 BR SCT008 BKN030 28/26 Q1003 NOSIG
ZHCC,2023-07-03 03:00,ZHCC 030300Z 11003MPS 6000 -RA SCT008 BKN030 28/26 Q1002 NOSIG
ZHCC,2023-07-03 04:00,ZHCC 030400Z 13003MPS 090V170 9999 SCT010 BKN040 29/26 Q1002 NOSIG
ZHCC,2023-07-03 05:00,ZHCC 030500Z 15003MPS 110V200 9999 -RA SCT010 BKN040 29/26 Q1002 NOSIG
ZHCC,2023-07-03 06:00,ZHCC 030600Z 14003MPS 100V190 9999 SCT010 OVC040 29/27 Q1001 NOSIG
ZHCC,2023-07-03 07:00,ZHCC 030700Z 18002MPS 090V230 9999 SCT015 OVC040 29/26 Q1001 NOSIG
ZHCC,2023-07-03 08:00,ZHCC 030800Z 21002MPS 180V250 9999 SCT015 OVC040 28/27 Q1000 NOSIG
ZHCC,2023-07-03 09:00,ZHCC 030900Z 30005MPS 9999 -RA SCT015 OVC040 25/24 Q1000 RERA WS ALL RWY NOSIG
ZHCC,2023-07-03 10:00,ZHCC 031000Z 29004MPS 9999 -RA OVC030 25/23 Q1001 NOSIG
ZHCC,2023-07-03 11:00,ZHCC 031100Z 30005MPS 9999 OVC040 26/23 Q1001 NOSIG
ZHCC,2023-07-03 12:00,ZHCC 031200Z 28007MPS CAVOK 26/21 Q1000 NOSIG
ZHCC,2023-07-03 13:00,ZHCC 031300Z 28005MPS CAVOK 26/21 Q1001 NOSIG
ZHCC,2023-07-03 14:00,ZHCC 031400Z 26005MPS 9999 -RA NSC 26/21 Q1001 NOSIG
ZHCC,2023-07-03 15:00,ZHCC 031500Z 27005MPS CAVOK 25/20 Q1001 NOSIG
ZHCC,2023-07-03 16:00,ZHCC 031600Z 27005MPS 9999 -RA NSC 24/20 Q1001 NOSIG
ZHCC,2023-07-03 17:00,ZHCC 031700Z 28004MPS CAVOK 25/20 Q1001 NOSIG
ZHCC,2023-07-03 18:00,ZHCC 031800Z 25003MPS 230V290 9999 -RA NSC 24/19 Q1000 NOSIG
ZHCC,2023-07-03 19:00,ZHCC 031900Z 24003MPS 210V270 9999 -RA NSC 24/20 Q1001 NOSIG
ZHCC,2023-07-03 20:00,ZHCC 032000Z 26004MPS CAVOK 24/19 Q1000 NOSIG
ZHCC,2023-07-03 21:00,ZHCC 032100Z 26005MPS CAVOK 24/18 Q1000 NOSIG
ZHCC,2023-07-03 22:00,ZHCC 032200Z 26004MPS CAVOK 24/18 Q1000 NOSIG
ZHCC,2023-07-03 23:00,ZHCC 032300Z 27005MPS CAVOK 25/17 Q1000 NOSIG
ZHCC,2023-07-04 00:00,ZHCC 040000Z 27004MPS CAVOK 25/18 Q1001 NOSIG
ZHCC,2023-07-04 01:00,ZHCC 040100Z 29006MPS 250V310 CAVOK 27/18 Q1001 NOSIG
ZHCC,2023-07-04 02:00,ZHCC 040200Z 29007MPS 260V320 CAVOK 29/18 Q1001 NOSIG
ZHCC,2023-07-04 03:00,ZHCC 040300Z 30006MPS CAVOK 31/18 Q1001 NOSIG
ZHCC,2023-07-04 04:00,ZHCC 040400Z 30006MPS CAVOK 32/18 Q1001 NOSIG
ZHCC,2023-07-04 05:00,ZHCC 040500Z 31005MPS 260V360 CAVOK 33/17 Q1000 NOSIG
ZHCC,2023-07-04 06:00,ZHCC 040600Z 29005MPS 260V320 CAVOK 34/17 Q1000 NOSIG
ZHCC,2023-07-04 07:00,ZHCC 040700Z 28004MPS CAVOK 33/16 Q1000 NOSIG
ZHCC,2023-07-04 08:00,ZHCC 040800Z 28004MPS CAVOK 34/17 Q0999 NOSIG
ZHCC,2023-07-04 09:00,ZHCC 040900Z 23003MPS 190V280 CAVOK 34/17 Q0999 NOSIG
ZHCC,2023-07-04 10:00,ZHCC 041000Z 22002MPS 150V260 CAVOK 34/16 Q0999 NOSIG
ZHCC,2023-07-04 11:00,ZHCC 041100Z 19002MPS 150V230 CAVOK 32/17 Q0999 NOSIG
ZHCC,2023-07-04 12:00,ZHCC 041200Z 19002MPS 140V240 CAVOK 30/18 Q0999 NOSIG
ZHCC,2023-07-04 13:00,ZHCC 041300Z 23003MPS 200V270 CAVOK 30/16 Q1000 NOSIG
ZHCC,2023-07-04 14:00,ZHCC 041400Z 22002MPS 190V260 CAVOK 29/17 Q1001 NOSIG
ZHCC,2023-07-04 15:00,ZHCC 041500Z 25003MPS CAVOK 29/16 Q1001 NOSIG
ZHCC,2023-07-04 16:00,ZHCC 041600Z 26003MPS 220V280 CAVOK 27/16 Q1001 NOSIG
ZHCC,2023-07-04 17:00,ZHCC 041700Z 26003MPS CAVOK 26/16 Q1000 NOSIG
ZHCC,2023-07-04 18:00,ZHCC 041800Z 25002MPS CAVOK 25/16 Q1000 NOSIG
ZHCC,2023-07-04 19:00,ZHCC 041900Z 27002MPS CAVOK 24/16 Q0999 NOSIG
ZHCC,2023-07-04 20:00,ZHCC 042000Z 24002MPS CAVOK 25/16 Q0999 NOSIG
ZHCC,2023-07-04 21:00,ZHCC 042100Z 00000MPS CAVOK 21/17 Q0999 NOSIG
ZHCC,2023-07-04 22:00,ZHCC 042200Z 23002MPS 200V260 CAVOK 24/16 Q1000 NOSIG
ZHCC,2023-07-04 23:00,ZHCC 042300Z 25002MPS CAVOK 27/17 Q1000 NOSIG
ZHCC,2023-07-05 00:00,ZHCC 050000Z VRB01MPS CAVOK 30/17 Q1000 NOSIG
ZHCC,2023-07-05 01:00,ZHCC 050100Z 27002MPS 250V310 CAVOK 32/18 Q1000 NOSIG
ZHCC,2023-07-05 02:00,ZHCC 050200Z 18002MPS 130V230 CAVOK 33/18 Q1000 NOSIG
ZHCC,2023-07-05 03:00,ZHCC 050300Z VRB02MPS CAVOK 34/19 Q1000 NOSIG
ZHCC,2023-07-05 04:00,ZHCC 050400Z 20003MPS 130V250 CAVOK 36/18 Q0999 NOSIG
ZHCC,2023-07-05 05:00,ZHCC 050500Z 20004MPS 160V240 CAVOK 37/16 Q0998 NOSIG
ZHCC,2023-07-05 06:00,ZHCC 050600Z 19004MPS 140V230 CAVOK 37/17 Q0998 NOSIG
ZHCC,2023-07-05 07:00,ZHCC 050700Z 20004MPS 150V240 CAVOK 38/17 Q0997 NOSIG
ZHCC,2023-07-05 08:00,ZHCC 050800Z 20004MPS 170V240 CAVOK 37/15 Q0997 NOSIG
ZHCC,2023-07-05 09:00,ZHCC 050900Z 21004MPS CAVOK 37/16 Q0997 NOSIG
ZHCC,2023-07-05 10:00,ZHCC 051000Z 20004MPS 180V240 CAVOK 35/18 Q0996 NOSIG
ZHCC,2023-07-05 11:00,ZHCC 051100Z 20004MPS 150V230 CAVOK 33/20 Q0997 NOSIG
ZHCC,2023-07-05 12:00,ZHCC 051200Z 20003MPS 170V240 CAVOK 32/20 Q0997 NOSIG
ZHCC,2023-07-05 13:00,ZHCC 051300Z 21003MPS 180V240 CAVOK 32/19 Q0998 NOSIG
ZHCC,2023-07-05 14:00,ZHCC 051400Z 20003MPS 160V250 CAVOK 30/21 Q0998 NOSIG
ZHCC,2023-07-05 15:00,ZHCC 051500Z 20005MPS 170V230 CAVOK 30/19 Q0998 NOSIG
ZHCC,2023-07-05 16:00,ZHCC 051600Z 21004MPS 170V240 CAVOK 30/18 Q0998 NOSIG
ZHCC,2023-07-05 17:00,ZHCC 051700Z 22003MPS 180V260 CAVOK 29/17 Q0997 NOSIG
ZHCC,2023-07-05 18:00,ZHCC 051800Z 21003MPS 170V250 CAVOK 29/18 Q0997 NOSIG
ZHCC,2023-07-05 19:00,ZHCC 051900Z 20002MPS 170V260 CAVOK 28/18 Q0996 NOSIG
ZHCC,2023-07-05 20:00,ZHCC 052000Z 22002MPS 170V280 CAVOK 27/19 Q0996 NOSIG
ZHCC,2023-07-05 21:00,ZHCC 052100Z VRB02MPS CAVOK 27/19 Q0997 NOSIG
ZHCC,2023-07-05 22:00,ZHCC 052200Z 22002MPS 160V270 CAVOK 26/20 Q0997 NOSIG
ZHCC,2023-07-05 23:00,ZHCC 052300Z 18003MPS 130V210 CAVOK 26/20 Q0997 NOSIG
ZHCC,2023-07-06 00:00,ZHCC 060000Z 20003MPS 160V240 CAVOK 28/21 Q0997 NOSIG
ZHCC,2023-07-06 01:00,ZHCC 060100Z 19003MPS 140V240 CAVOK 29/22 Q0997 NOSIG
ZHCC,2023-07-06 02:00,ZHCC 060200Z 19003MPS 130V220 CAVOK 29/22 Q0997 NOSIG
ZHCC,2023-07-06 03:00,ZHCC 060300Z 20003MPS 160V230 CAVOK 30/23 Q0997 NOSIG
ZHCC,2023-07-06 04:00,ZHCC 060400Z 20004MPS 160V240 CAVOK 31/23 Q0997 NOSIG
ZHCC,2023-07-06 05:00,ZHCC 060500Z 20003MPS 130V240 CAVOK 31/23 Q0997 NOSIG
ZHCC,2023-07-06 06:00,ZHCC 060600Z 19003MPS 140V220 CAVOK 30/22 Q0996 NOSIG
ZHCC,2023-07-06 07:00,ZHCC 060700Z 19003MPS 140V230 CAVOK 29/21 Q0996 NOSIG
ZHCC,2023-07-06 08:00,ZHCC 060800Z 19002MPS 130V250 CAVOK 29/22 Q0996 NOSIG
ZHCC,2023-07-06 09:00,ZHCC 060900Z 21003MPS 170V240 CAVOK 29/19 Q0996 NOSIG
ZHCC,2023-07-06 10:00,ZHCC 061000Z 21003MPS 170V240 CAVOK 29/15 Q0996 NOSIG
ZHCC,2023-07-06 11:00,ZHCC 061100Z 21002MPS 180V260 CAVOK 30/13 Q0996 NOSIG
ZHCC,2023-07-06 12:00,ZHCC 061200Z VRB01MPS CAVOK 27/14 Q0996 NOSIG
ZHCC,2023-07-06 13:00,ZHCC 061300Z 21002MPS 180V240 CAVOK 28/14 Q0996 NOSIG
ZHCC,2023-07-06 14:00,ZHCC 061400Z VRB01MPS CAVOK 25/16 Q0996 NOSIG
ZHCC,2023-07-06 15:00,ZHCC 061500Z 19002MPS 150V220 CAVOK 25/16 Q0996 NOSIG
ZHCC,2023-07-06 16:00,ZHCC 061600Z 20002MPS CAVOK 25/17 Q0996 NOSIG
ZHCC,2023-07-06 17:00,ZHCC 061700Z 19002MPS 150V220 CAVOK 24/17 Q0996 NOSIG
ZHCC,2023-07-06 18:00,ZHCC 061800Z 19002MPS 160V230 CAVOK 24/17 Q0996 NOSIG
ZHCC,2023-07-06 19:00,ZHCC 061900Z 20002MPS CAVOK 24/17 Q0995 NOSIG
ZHCC,2023-07-06 20:00,ZHCC 062000Z 20002MPS CAVOK 22/18 Q0996 NOSIG
ZHCC,2023-07-06 21:00,ZHCC 062100Z VRB01MPS CAVOK 21/17 Q0996 NOSIG
ZHCC,2023-07-06 22:00,ZHCC 062200Z VRB01MPS CAVOK 22/18 Q0996 NOSIG
ZHCC,2023-07-06 23:00,ZHCC 062300Z VRB01MPS CAVOK 25/18 Q0996 NOSIG
ZHCC,2023-07-07 00:00,ZHCC 070000Z 22002MPS 190V260 CAVOK 28/17 Q0996 NOSIG
ZHCC,2023-07-07 01:00,ZHCC 070100Z 20002MPS 130V230 CAVOK 30/18 Q0996 NOSIG
ZHCC,2023-07-07 02:00,ZHCC 070200Z VRB02MPS CAVOK 31/20 Q0997 NOSIG
ZHCC,2023-07-07 03:00,ZHCC 070300Z 18002MPS 110V220 CAVOK 33/20 Q0997 NOSIG
ZHCC,2023-07-07 04:00,ZHCC 070400Z 17003MPS 100V230 CAVOK 34/21 Q0996 NOSIG
ZHCC,2023-07-07 05:00,ZHCC 070500Z 18002MPS 130V210 CAVOK 35/21 Q0996 NOSIG
ZHCC,2023-07-07 06:00,ZHCC 070600Z 18002MPS 100V210 CAVOK 36/22 Q0996 NOSIG
ZHCC,2023-07-07 07:00,ZHCC 070700Z 18003MPS 130V240 CAVOK 37/22 Q0995 NOSIG
ZHCC,2023-07-07 08:00,ZHCC 070800Z 18002MPS 130V220 CAVOK 36/22 Q0995 NOSIG
ZHCC,2023-07-07 09:00,ZHCC 070900Z 19003MPS 140V230 CAVOK 36/22 Q0995 NOSIG
ZHCC,2023-07-07 10:00,ZHCC 071000Z 19003MPS 160V230 CAVOK 35/22 Q0996 NOSIG
ZHCC,2023-07-07 11:00,ZHCC 071100Z 20003MPS 170V250 CAVOK 34/22 Q0996 NOSIG
ZHCC,2023-07-07 12:00,ZHCC 071200Z 19003MPS 150V220 CAVOK 33/21 Q0997 NOSIG
ZHCC,2023-07-07 13:00,ZHCC 071300Z 19003MPS 140V220 CAVOK 31/23 Q0997 NOSIG
ZHCC,2023-07-07 14:00,ZHCC 071400Z 20003MPS 160V230 CAVOK 31/23 Q0998 NOSIG
ZHCC,2023-07-07 15:00,ZHCC 071500Z 20003MPS CAVOK 30/23 Q0998 NOSIG
ZHCC,2023-07-07 16:00,ZHCC 071600Z 20002MPS CAVOK 29/23 Q0998 NOSIG
ZHCC,2023-07-07 17:00,ZHCC 071700Z VRB01MPS CAVOK 27/23 Q0999 NOSIG
ZHCC,2023-07-07 18:00,ZHCC 071800Z VRB01MPS CAVOK 25/22 Q0999 NOSIG
ZHCC,2023-07-07 19:00,ZHCC 071900Z VRB01MPS CAVOK 24/22 Q0999 NOSIG
ZHCC,2023-07-07 20:00,ZHCC 072000Z VRB01MPS CAVOK 24/22 Q0999 NOSIG
ZHCC,2023-07-07 21:00,ZHCC 072100Z VRB01MPS CAVOK 24/21 Q0999 NOSIG
ZHCC,2023-07-07 22:00,ZHCC 072200Z VRB01MPS CAVOK 23/21 Q0999 NOSIG
ZHCC,2023-07-07 23:00,ZHCC 072300Z VRB01MPS CAVOK 28/23 Q1000 NOSIG
ZHCC,2023-07-08 00:00,ZHCC 080000Z 32002MPS CAVOK 33/20 Q1000 NOSIG
ZHCC,2023-07-08 01:00,ZHCC 080100Z 28002MPS 250V320 CAVOK 34/21 Q1000 NOSIG
ZHCC,2023-07-08 02:00,ZHCC 080200Z 31002MPS 270V340 CAVOK 36/20 Q1001 NOSIG
ZHCC,2023-07-08 03:00,ZHCC 080300Z VRB01MPS CAVOK 38/20 Q1000 NOSIG
ZHCC,2023-07-08 04:00,ZHCC 080400Z VRB01MPS CAVOK 38/19 Q1000 NOSIG
ZHCC,2023-07-08 05:00,ZHCC 080500Z 23003MPS 170V280 CAVOK 40/17 Q1000 NOSIG
ZHCC,2023-07-08 06:00,ZHCC 080600Z VRB02MPS CAVOK 40/16 Q0999 NOSIG
ZHCC,2023-07-08 07:00,ZHCC 080700Z 19003MPS 110V280 CAVOK 41/17 Q0999 NOSIG
ZHCC,2023-07-08 08:00,ZHCC 080800Z 20003MPS 160V230 CAVOK 39/17 Q0999 NOSIG
ZHCC,2023-07-08 09:00,ZHCC 080900Z 21004MPS 170V250 CAVOK 38/18 Q0999 NOSIG
ZHCC,2023-07-08 10:00,ZHCC 081000Z 21004MPS 180V240 CAVOK 37/22 Q0999 NOSIG
ZHCC,2023-07-08 11:00,ZHCC 081100Z 22004MPS 170V250 CAVOK 36/23 Q0999 NOSIG
ZHCC,2023-07-08 12:00,ZHCC 081200Z 20003MPS 160V230 CAVOK 35/22 Q0999 NOSIG
ZHCC,2023-07-08 13:00,ZHCC 081300Z 23002MPS CAVOK 33/24 Q1000 NOSIG
ZHCC,2023-07-08 14:00,ZHCC 081400Z 22003MPS 180V240 CAVOK 33/24 Q1000 NOSIG
ZHCC,2023-07-08 15:00,ZHCC 081500Z 22003MPS 180V240 CAVOK 32/26 Q1000 NOSIG
ZHCC,2023-07-08 16:00,ZHCC 081600Z 21002MPS 180V250 CAVOK 31/26 Q1000 NOSIG
ZHCC,2023-07-08 17:00,ZHCC 081700Z 23002MPS 200V260 CAVOK 30/26 Q1000 NOSIG
ZHCC,2023-07-08 18:00,ZHCC 081800Z 28002MPS CAVOK 27/25 Q1000 NOSIG
ZHCC,2023-07-08 19:00,ZHCC 081900Z VRB01MPS 7000 NSC 28/25 Q1000 NOSIG
ZHCC,2023-07-08 20:00,ZHCC 082000Z 20002MPS 170V230 7000 NSC 28/26 Q1000 NOSIG
ZHCC,2023-07-08 21:00,ZHCC 082100Z VRB01MPS 7000 NSC 26/25 Q1000 NOSIG
ZHCC,2023-07-08 22:00,ZHCC 082200Z 00000MPS 7000 NSC 26/25 Q1001 NOSIG
ZHCC,2023-07-08 23:00,ZHCC 082300Z 28002MPS 6000 NSC 29/26 Q1001 NOSIG
ZHCC,2023-07-09 00:00,ZHCC 090000Z 21002MPS 170V250 CAVOK 32/24 Q1001 NOSIG
ZHCC,2023-07-09 01:00,ZHCC 090100Z VRB01MPS CAVOK 34/24 Q1002 NOSIG
ZHCC,2023-07-09 02:00,ZHCC 090200Z VRB01MPS CAVOK 36/24 Q1002 NOSIG
ZHCC,2023-07-09 03:00,ZHCC 090300Z 11002MPS 060V160 CAVOK 38/22 Q1001 NOSIG
ZHCC,2023-07-09 04:00,ZHCC 090400Z 12002MPS 070V200 CAVOK 39/20 Q1001 NOSIG
ZHCC,2023-07-09 05:00,ZHCC 090500Z 16002MPS 070V220 CAVOK 39/17 Q1000 NOSIG
ZHCC,2023-07-09 06:00,ZHCC 090600Z 16002MPS 100V210 CAVOK 40/17 Q1000 NOSIG
ZHCC,2023-07-09 07:00,ZHCC 090700Z 15003MPS 090V230 CAVOK 39/23 Q1000 NOSIG
ZHCC,2023-07-09 08:00,ZHCC 090800Z 14003MPS 070V200 CAVOK 39/24 Q0999 NOSIG
ZHCC,2023-07-09 09:00,ZHCC 090900Z 18004G09MPS 120V230 CAVOK 37/24 Q0999 NOSIG
ZHCC,2023-07-09 10:00,ZHCC 091000Z 18003MPS 120V230 CAVOK 36/25 Q0999 NOSIG
ZHCC,2023-07-09 11:00,ZHCC 091100Z 19004MPS 160V240 CAVOK 35/24 Q0999 NOSIG
ZHCC,2023-07-09 12:00,ZHCC 091200Z 19003MPS 150V230 9999 FEW040 34/25 Q1000 NOSIG
ZHCC,2023-07-09 13:00,ZHCC 091300Z 19004MPS 130V250 CAVOK 33/26 Q1000 NOSIG
ZHCC,2023-07-09 14:00,ZHCC 091400Z 19003MPS 130V230 CAVOK 32/26 Q1000 NOSIG
ZHCC,2023-07-09 15:00,ZHCC 091500Z 20004MPS 160V230 CAVOK 32/26 Q1000 NOSIG
ZHCC,2023-07-09 16:00,ZHCC 091600Z 20004MPS 130V240 CAVOK 31/25 Q1000 NOSIG
ZHCC,2023-07-09 17:00,ZHCC 091700Z 20003MPS 140V230 CAVOK 31/26 Q1000 NOSIG
ZHCC,2023-07-09 18:00,ZHCC 091800Z 19003MPS 140V220 CAVOK 30/26 Q0999 NOSIG
ZHCC,2023-07-09 19:00,ZHCC 091900Z 20003MPS 170V240 CAVOK 30/26 Q0999 NOSIG
ZHCC,2023-07-09 20:00,ZHCC 092000Z 19002MPS 140V250 CAVOK 29/26 Q0999 NOSIG
ZHCC,2023-07-09 21:00,ZHCC 092100Z 18002MPS 100V220 CAVOK 29/26 Q1000 NOSIG
ZHCC,2023-07-09 22:00,ZHCC 092200Z 19002MPS 130V230 CAVOK 28/26 Q1000 NOSIG
ZHCC,2023-07-09 23:00,ZHCC 092300Z 20003MPS 160V240 CAVOK 30/26 Q1000 NOSIG
ZHCC,2023-07-10 00:00,ZHCC 100000Z 20004MPS 160V240 CAVOK 30/26 Q1000 NOSIG
ZHCC,2023-07-10 01:00,ZHCC 100100Z 20003MPS 160V260 CAVOK 31/26 Q1000 NOSIG
ZHCC,2023-07-10 02:00,ZHCC 100200Z 19003MPS 130V240 CAVOK 32/26 Q1000 NOSIG
ZHCC,2023-07-10 03:00,ZHCC 100300Z 20003MPS 130V270 CAVOK 33/26 Q1000 NOSIG
ZHCC,2023-07-10 04:00,ZHCC 100400Z 18003MPS 100V240 CAVOK 35/26 Q0999 NOSIG
ZHCC,2023-07-10 05:00,ZHCC 100500Z 17003MPS 090V240 CAVOK 36/27 Q0999 NOSIG
ZHCC,2023-07-10 06:00,ZHCC 100600Z 17003MPS 110V220 CAVOK 35/26 Q0999 NOSIG
ZHCC,2023-07-10 07:00,ZHCC 100700Z VRB03MPS CAVOK 36/26 Q0998 NOSIG
ZHCC,2023-07-10 08:00,ZHCC 100800Z 13004MPS 100V190 9999 FEW040 35/26 Q0998 NOSIG
ZHCC,2023-07-10 09:00,ZHCC 100900Z 14003MPS 100V180 9999 FEW040 36/26 Q0997 NOSIG
ZHCC,2023-07-10 10:00,ZHCC 101000Z 19003MPS 160V220 9999 FEW040 35/25 Q0998 NOSIG
ZHCC,2023-07-10 11:00,ZHCC 101100Z 20003MPS 110V240 CAVOK 34/25 Q0998 NOSIG
ZHCC,2023-07-10 12:00,ZHCC 101200Z 19003MPS 140V230 CAVOK 33/25 Q0998 NOSIG
ZHCC,2023-07-10 13:00,ZHCC 101300Z VRB01MPS CAVOK 33/26 Q0999 NOSIG
ZHCC,2023-07-10 14:00,ZHCC 101400Z 13002MPS CAVOK 31/26 Q1000 NOSIG
ZHCC,2023-07-10 15:00,ZHCC 101500Z VRB01MPS CAVOK 32/26 Q1000 NOSIG
ZHCC,2023-07-10 16:00,ZHCC 101600Z VRB01MPS CAVOK 31/26 Q1000 NOSIG
ZHCC,2023-07-10 17:00,ZHCC 101700Z VRB02MPS CAVOK 31/27 Q0999 NOSIG
ZHCC,2023-07-10 18:00,ZHCC 101800Z 19003MPS 170V230 CAVOK 31/27 Q0999 NOSIG
ZHCC,2023-07-10 19:00,ZHCC 101900Z 20002MPS 160V230 CAVOK 31/27 Q0999 NOSIG
ZHCC,2023-07-10 20:00,ZHCC 102000Z 19002MPS 120V220 CAVOK 30/27 Q0999 NOSIG
ZHCC,2023-07-10 21:00,ZHCC 102100Z VRB01MPS CAVOK 29/26 Q1000 NOSIG
ZHCC,2023-07-10 22:00,ZHCC 102200Z 14002MPS 100V180 CAVOK 29/26 Q1000 NOSIG
ZHCC,2023-07-10 23:00,ZHCC 102300Z 15002MPS 090V200 CAVOK 30/26 Q1000 NOSIG
ZHCC,2023-07-11 00:00,ZHCC 110000Z 17002MPS 080V220 CAVOK 31/26 Q1000 NOSIG
ZHCC,2023-07-11 01:00,ZHCC 110100Z 18002MPS 120V230 CAVOK 33/26 Q1001 NOSIG
ZHCC,2023-07-11 02:00,ZHCC 110200Z 16002MPS 100V230 9999 FEW030 34/25 Q1001 NOSIG
ZHCC,2023-07-11 03:00,ZHCC 110300Z 14003MPS 090V250 CAVOK 35/26 Q1000 NOSIG
ZHCC,2023-07-11 04:00,ZHCC 110400Z 15003MPS 080V200 9999 SCT040 35/26 Q1000 NOSIG
ZHCC,2023-07-11 05:00,ZHCC 110500Z 14003MPS 100V200 9999 SCT040 36/25 Q1000 NOSIG
ZHCC,2023-07-11 06:00,ZHCC 110600Z 11005MPS 080V150 9999 SCT040 36/26 Q0999 NOSIG
ZHCC,2023-07-11 07:00,ZHCC 110700Z 12005MPS 090V160 9999 SCT040 36/25 Q0999 NOSIG
ZHCC,2023-07-11 08:00,ZHCC 110800Z 23005MPS 200V260 9999 FEW030CB SCT040 30/25 Q1000 BECMG TL0830 2000 TSRA
ZHCC,2023-07-11 09:00,ZHCC 110900Z VRB03MPS 7000 -TSRA FEW015 FEW030CB BKN040 26/23 Q1000 RESHRA BECMG TL0940 NSW
ZHCC,2023-07-11 10:00,ZHCC 111000Z VRB02MPS 9999 -SHRA FEW015 OVC040 26/24 Q1000 RETS NOSIG
ZHCC,2023-07-11 11:00,ZHCC 111100Z 08003MPS 040V100 9999 -SHRA SCT040 27/25 Q1000 NOSIG
ZHCC,2023-07-11 12:00,ZHCC 111200Z 03003MPS 360V070 7000 SHRA SCT033 26/25 Q1000 BECMG TL1220 -RA
ZHCC,2023-07-11 13:00,ZHCC 111300Z VRB01MPS 9999 -RA NSC 26/25 Q1000 RESHRA NOSIG
ZHCC,2023-07-11 14:00,ZHCC 111400Z 04003MPS 010V070 6000 +TSRA FEW026CB BKN033 26/25 Q1001 BECMG TL1430 NSW
ZHCC,2023-07-11 15:00,ZHCC 111500Z 05004MPS 020V080 9999 SCT007 FEW026CB BKN033 25/24 Q1001 RETSRA BECMG AT1530 TSRA
ZHCC,2023-07-11 16:00,ZHCC 111600Z 23006MPS 8000 -TSRA SCT008 SCT030CB BKN030 26/25 Q1002 RESHRA NOSIG
ZHCC,2023-07-11 17:00,ZHCC 111700Z VRB01MPS 4000 TSRA BR SCT005 SCT020CB BKN020 23/23 Q1002 BECMG AT1730 -TSRA
ZHCC,2023-07-11 18:00,ZHCC 111800Z VRB01MPS 8000 -SHRA SCT005 FEW020CB BKN020 24/23 Q1001 RETSRA NOSIG
ZHCC,2023-07-11 19:00,ZHCC 111900Z VRB01MPS 9999 -SHRA SCT005 OVC030 24/24 Q1001 NOSIG
ZHCC,2023-07-11 20:00,ZHCC 112000Z 10004MPS 9999 -SHRA SCT005 OVC030 24/24 Q1001 NOSIG
ZHCC,2023-07-11 21:00,ZHCC 112100Z 12002MPS 9999 -SHRA SCT005 OVC030 24/24 Q1001 NOSIG
ZHCC,2023-07-11 22:00,ZHCC 112200Z 11002MPS 7000 SCT005 OVC030 25/24 Q1001 NOSIG
ZHCC,2023-07-11 23:00,ZHCC 112300Z VRB01MPS 7000 FEW015 OVC040 25/25 Q1001 NOSIG
ZHCC,2023-07-12 00:00,ZHCC 120000Z 00000MPS 9999 OVC040 26/25 Q1001 NOSIG
ZHCC,2023-07-12 01:00,ZHCC 120100Z 32002MPS 9999 FEW015 OVC040 26/25 Q1001 NOSIG
ZHCC,2023-07-12 02:00,ZHCC 120200Z 35002MPS 310V040 9999 FEW015 OVC040 27/25 Q1001 NOSIG
ZHCC,2023-07-12 03:00,ZHCC 120300Z 09002MPS 040V180 9999 SCT040 29/26 Q1000 NOSIG
ZHCC,2023-07-12 04:00,ZHCC 120400Z 05002MPS 310V100 9999 SCT020 30/27 Q1000 NOSIG
ZHCC,2023-07-12 05:00,ZHCC 120500Z VRB01MPS 9999 SCT020 32/27 Q1000 NOSIG
ZHCC,2023-07-12 06:00,ZHCC 120600Z 03003MPS 310V070 9999 SCT020 32/27 Q0999 NOSIG
ZHCC,2023-07-12 07:00,ZHCC 120700Z VRB02MPS 9999 BKN026 32/27 Q0999 NOSIG
ZHCC,2023-07-12 08:00,ZHCC 120800Z 06002MPS 010V120 9999 BKN030 32/27 Q0999 NOSIG
ZHCC,2023-07-12 09:00,ZHCC 120900Z 06004MPS 030V090 9999 FEW015 FEW030CB BKN040 33/27 Q0998 BECMG TL0920 -TSRA
ZHCC,2023-07-12 10:00,ZHCC 121000Z VRB01MPS 9999 SCT040 31/28 Q0998 RESHRA NOSIG
ZHCC,2023-07-12 11:00,ZHCC 121100Z 12002MPS 100V160 7000 SCT040 28/27 Q0999 NOSIG
ZHCC,2023-07-12 12:00,ZHCC 121200Z 10002MPS 8000 SCT040 29/27 Q1000 NOSIG
ZHCC,2023-07-12 13:00,ZHCC 121300Z 08002MPS 030V100 9999 BKN033 28/27 Q1000 NOSIG
ZHCC,2023-07-12 14:00,ZHCC 121400Z 03003MPS 360V060 9999 BKN033 29/27 Q1001 NOSIG
ZHCC,2023-07-12 15:00,ZHCC 121500Z VRB01MPS 9999 -SHRA FEW015 FEW020CB BKN023 28/27 Q1001 NOSIG
ZHCC,2023-07-12 16:00,ZHCC 121600Z VRB01MPS 9999 -SHRA FEW011 FEW020CB BKN023 28/27 Q1001 BECMG TL1640 SHRA
ZHCC,2023-07-12 17:00,ZHCC 121700Z VRB01MPS 7000 -TSRA FEW011 FEW020CB BKN023 28/27 Q1000 BECMG TL1720 -SHRA
ZHCC,2023-07-12 18:00,ZHCC 121800Z 04004MPS 5000 -SHRA BR SCT008 BKN023 27/26 Q1000 RETS NOSIG
ZHCC,2023-07-12 19:00,ZHCC 121900Z 03004MPS 5000 BR SCT008 BKN023 27/26 Q1000 NOSIG
ZHCC,2023-07-12 20:00,ZHCC 122000Z 04003MPS 010V070 6000 SCT008 FEW020CB BKN023 26/25 Q1000 BECMG TL2040 TSRA
ZHCC,2023-07-12 21:00,ZHCC 122100Z VRB01MPS 6000 -SHRA SCT008 FEW020CB BKN023 26/25 Q1000 RESHRA NOSIG
ZHCC,2023-07-12 22:00,ZHCC 122200Z 03003MPS 350V060 5000 BR SCT008 BKN023 26/25 Q1001 RESHRA NOSIG
ZHCC,2023-07-12 23:00,ZHCC 122300Z 02003MPS 5000 BR SCT008 BKN023 26/25 Q1001 NOSIG
ZHCC,2023-07-13 00:00,ZHCC 130000Z 34002MPS 300V360 5000 -SHRA BR SCT008 BKN023 26/25 Q1002 NOSIG
ZHCC,2023-07-13 01:00,ZHCC 130100Z 05002MPS 020V080 3000 SHRA BR SCT008 OVC023 26/25 Q1002 BECMG TL0140 -SHRA
ZHCC,2023-07-13 02:00,ZHCC 130200Z VRB01MPS 6000 FEW008 OVC023 26/25 Q1002 RESHRA NOSIG
ZHCC,2023-07-13 03:00,ZHCC 130300Z VRB01MPS 6000 FEW008 OVC030 27/25 Q1002 NOSIG
ZHCC,2023-07-13 04:00,ZHCC 130400Z VRB01MPS 6000 FEW010 OVC030 28/25 Q1002 NOSIG
ZHCC,2023-07-13 05:00,ZHCC 130500Z VRB01MPS 8000 FEW010 OVC030 29/25 Q1002 NOSIG
ZHCC,2023-07-13 06:00,ZHCC 130600Z VRB01MPS 8000 SCT020 BKN033 29/26 Q1001 NOSIG
ZHCC,2023-07-13 07:00,ZHCC 130700Z 26002MPS 220V310 8000 SCT020 BKN040 29/26 Q1001 NOSIG
ZHCC,2023-07-13 08:00,ZHCC 130800Z 30006MPS 9999 FEW040 31/23 Q1001 NOSIG
ZHCC,2023-07-13 09:00,ZHCC 130900Z 29003MPS CAVOK 29/24 Q1001 NOSIG
ZHCC,2023-07-13 10:00,ZHCC 131000Z 25004MPS 220V280 CAVOK 28/23 Q1001 NOSIG
ZHCC,2023-07-13 11:00,ZHCC 131100Z 26003MPS CAVOK 27/22 Q1001 NOSIG
ZHCC,2023-07-13 12:00,ZHCC 131200Z 26004MPS CAVOK 26/21 Q1001 NOSIG
ZHCC,2023-07-13 13:00,ZHCC 131300Z 28003MPS CAVOK 26/21 Q1002 NOSIG
ZHCC,2023-07-13 14:00,ZHCC 131400Z 28004MPS CAVOK 27/20 Q1002 NOSIG
ZHCC,2023-07-13 15:00,ZHCC 131500Z 28005MPS CAVOK 28/19 Q1002 NOSIG
ZHCC,2023-07-13 16:00,ZHCC 131600Z 28004MPS CAVOK 28/18 Q1002 NOSIG
ZHCC,2023-07-13 17:00,ZHCC 131700Z 29005MPS CAVOK 28/18 Q1001 NOSIG
ZHCC,2023-07-13 18:00,ZHCC 131800Z 29005MPS CAVOK 28/18 Q1001 NOSIG
ZHCC,2023-07-13 19:00,ZHCC 131900Z 29004MPS CAVOK 27/18 Q1001 NOSIG
ZHCC,2023-07-13 20:00,ZHCC 132000Z 29004MPS CAVOK 27/18 Q1001 NOSIG
ZHCC,2023-07-13 21:00,ZHCC 132100Z 29003MPS CAVOK 26/17 Q1001 NOSIG
ZHCC,2023-07-13 22:00,ZHCC 132200Z 29004MPS CAVOK 26/18 Q1001 NOSIG
ZHCC,2023-07-13 23:00,ZHCC 132300Z 28004MPS CAVOK 28/18 Q1001 NOSIG
ZHCC,2023-07-14 00:00,ZHCC 140000Z 27003MPS CAVOK 29/19 Q1001 NOSIG
ZHCC,2023-07-14 01:00,ZHCC 140100Z 28005MPS CAVOK 30/18 Q1001 NOSIG
ZHCC,2023-07-14 02:00,ZHCC 140200Z 29005MPS CAVOK 31/20 Q1002 NOSIG
ZHCC,2023-07-14 03:00,ZHCC 140300Z 29005MPS CAVOK 30/19 Q1001 NOSIG
ZHCC,2023-07-14 04:00,ZHCC 140400Z 27004MPS CAVOK 31/19 Q1001 NOSIG
ZHCC,2023-07-14 05:00,ZHCC 140500Z 24003MPS CAVOK 31/19 Q1000 NOSIG
ZHCC,2023-07-14 06:00,ZHCC 140600Z 25004MPS 220V280 CAVOK 31/18 Q1000 NOSIG
ZHCC,2023-07-14 07:00,ZHCC 140700Z 24003MPS 200V280 CAVOK 32/20 Q1000 NOSIG
ZHCC,2023-07-14 08:00,ZHCC 140800Z 26005MPS CAVOK 32/20 Q0999 NOSIG
ZHCC,2023-07-14 09:00,ZHCC 140900Z 27005MPS CAVOK 33/20 Q0999 NOSIG
ZHCC,2023-07-14 10:00,ZHCC 141000Z 27005MPS 240V300 CAVOK 32/20 Q0999 NOSIG
ZHCC,2023-07-14 11:00,ZHCC 141100Z 26004MPS CAVOK 31/19 Q0999 NOSIG
ZHCC,2023-07-14 12:00,ZHCC 141200Z 25004MPS CAVOK 30/19 Q1000 NOSIG
ZHCC,2023-07-14 13:00,ZHCC 141300Z 26003MPS CAVOK 29/19 Q1000 NOSIG
ZHCC,2023-07-14 14:00,ZHCC 141400Z 27003MPS CAVOK 27/19 Q1000 NOSIG
ZHCC,2023-07-14 15:00,ZHCC 141500Z 27004MPS CAVOK 28/19 Q1000 NOSIG
ZHCC,2023-07-14 16:00,ZHCC 141600Z 28004MPS CAVOK 29/18 Q1000 NOSIG
ZHCC,2023-07-14 17:00,ZHCC 141700Z 30005MPS CAVOK 30/17 Q1000 NOSIG
ZHCC,2023-07-14 18:00,ZHCC 141800Z 30006MPS CAVOK 30/16 Q1000 NOSIG
ZHCC,2023-07-14 19:00,ZHCC 141900Z 30004MPS CAVOK 29/16 Q1000 NOSIG
ZHCC,2023-07-14 20:00,ZHCC 142000Z 33004MPS CAVOK 29/16 Q1001 NOSIG
ZHCC,2023-07-14 21:00,ZHCC 142100Z 31003MPS CAVOK 28/16 Q1001 NOSIG
ZHCC,2023-07-14 22:00,ZHCC 142200Z 29003MPS CAVOK 27/17 Q1002 NOSIG
ZHCC,2023-07-14 23:00,ZHCC 142300Z 30004MPS CAVOK 28/17 Q1002 NOSIG
ZHCC,2023-07-15 00:00,ZHCC 150000Z 31005MPS CAVOK 29/18 Q1003 NOSIG
ZHCC,2023-07-15 01:00,ZHCC 150100Z 30005MPS CAVOK 30/19 Q1003 NOSIG
ZHCC,2023-07-15 02:00,ZHCC 150200Z 30004MPS CAVOK 30/19 Q1003 NOSIG
ZHCC,2023-07-15 03:00,ZHCC 150300Z 29005MPS CAVOK 32/18 Q1004 NOSIG
ZHCC,2023-07-15 04:00,ZHCC 150400Z 28005MPS CAVOK 34/19 Q1003 NOSIG
ZHCC,2023-07-15 05:00,ZHCC 150500Z 28003MPS 240V310 CAVOK 34/19 Q1003 NOSIG
ZHCC,2023-07-15 06:00,ZHCC 150600Z 28002MPS 240V310 CAVOK 35/16 Q1002 NOSIG
ZHCC,2023-07-15 07:00,ZHCC 150700Z 23002MPS 170V280 9999 FEW040 35/18 Q1002 NOSIG
ZHCC,2023-07-15 08:00,ZHCC 150800Z 28003MPS 9999 SCT040 36/17 Q1001 NOSIG
ZHCC,2023-07-15 09:00,ZHCC 150900Z 14002MPS 110V190 9999 FEW040 33/19 Q1002 NOSIG
ZHCC,2023-07-15 10:00,ZHCC 151000Z 14003MPS 110V200 9999 FEW040 32/21 Q1002 NOSIG
ZHCC,2023-07-15 11:00,ZHCC 151100Z 14002MPS 100V180 9999 FEW040 30/21 Q1003 NOSIG
ZHCC,2023-07-15 12:00,ZHCC 151200Z 13002MPS 100V180 9999 FEW040 29/19 Q1003 NOSIG
ZHCC,2023-07-15 13:00,ZHCC 151300Z 11002MPS CAVOK 27/20 Q1004 NOSIG
ZHCC,2023-07-15 14:00,ZHCC 151400Z 12002MPS CAVOK 26/21 Q1005 NOSIG
ZHCC,2023-07-15 15:00,ZHCC 151500Z VRB01MPS CAVOK 26/22 Q1005 NOSIG
ZHCC,2023-07-15 16:00,ZHCC 151600Z 11003MPS CAVOK 26/21 Q1006 NOSIG
ZHCC,2023-07-15 17:00,ZHCC 151700Z 12001MPS CAVOK 26/21 Q1006 NOSIG
ZHCC,2023-07-15 18:00,ZHCC 151800Z 00000MPS CAVOK 25/21 Q1006 NOSIG
ZHCC,2023-07-15 19:00,ZHCC 151900Z 00000MPS CAVOK 25/21 Q1006 NOSIG
ZHCC,2023-07-15 20:00,ZHCC 152000Z 31001MPS CAVOK 24/21 Q1006 NOSIG
ZHCC,2023-07-15 21:00,ZHCC 152100Z VRB01MPS CAVOK 25/20 Q1006 NOSIG
ZHCC,2023-07-15 22:00,ZHCC 152200Z 36002MPS 300V030 CAVOK 26/20 Q1007 NOSIG
ZHCC,2023-07-15 23:00,ZHCC 152300Z 03003MPS 350V060 CAVOK 28/19 Q1007 NOSIG
ZHCC,2023-07-16 00:00,ZHCC 160000Z 04004MPS CAVOK 29/19 Q1008 NOSIG
ZHCC,2023-07-16 01:00,ZHCC 160100Z 04003MPS 360V070 CAVOK 30/20 Q1008 NOSIG
ZHCC,2023-07-16 02:00,ZHCC 160200Z 08004MPS 060V120 CAVOK 31/19 Q1009 NOSIG
ZHCC,2023-07-16 03:00,ZHCC 160300Z 09003MPS 020V140 CAVOK 32/20 Q1009 NOSIG
ZHCC,2023-07-16 04:00,ZHCC 160400Z 12003MPS 070V160 CAVOK 32/20 Q1008 NOSIG
ZHCC,2023-07-16 05:00,ZHCC 160500Z 12004MPS 090V160 CAVOK 33/20 Q1008 NOSIG
ZHCC,2023-07-16 06:00,ZHCC 160600Z 10003MPS 060V140 9999 FEW030 33/20 Q1007 NOSIG
ZHCC,2023-07-16 07:00,ZHCC 160700Z 14003MPS 110V200 9999 FEW030 33/22 Q1007 NOSIG
ZHCC,2023-07-16 08:00,ZHCC 160800Z 14003MPS 100V190 9999 FEW030 33/21 Q1007 NOSIG
ZHCC,2023-07-16 09:00,ZHCC 160900Z 11003MPS 080V140 9999 FEW030 33/20 Q1007 NOSIG
ZHCC,2023-07-16 10:00,ZHCC 161000Z 10004MPS CAVOK 32/20 Q1007 NOSIG
ZHCC,2023-07-16 11:00,ZHCC 161100Z 12002MPS CAVOK 30/20 Q1007 NOSIG
ZHCC,2023-07-16 12:00,ZHCC 161200Z VRB01MPS CAVOK 29/19 Q1008 NOSIG
ZHCC,2023-07-16 13:00,ZHCC 161300Z 12002MPS CAVOK 27/20 Q1008 NOSIG
ZHCC,2023-07-16 14:00,ZHCC 161400Z VRB01MPS CAVOK 26/20 Q1009 NOSIG
ZHCC,2023-07-16 15:00,ZHCC 161500Z VRB01MPS CAVOK 25/21 Q1009 NOSIG
ZHCC,2023-07-16 16:00,ZHCC 161600Z VRB01MPS CAVOK 25/21 Q1009 NOSIG
ZHCC,2023-07-16 17:00,ZHCC 161700Z 30001MPS CAVOK 24/20 Q1009 NOSIG
ZHCC,2023-07-16 18:00,ZHCC 161800Z 00000MPS CAVOK 23/20 Q1009 NOSIG
ZHCC,2023-07-16 19:00,ZHCC 161900Z 25001MPS CAVOK 22/20 Q1009 NOSIG
ZHCC,2023-07-16 20:00,ZHCC 162000Z 28001MPS CAVOK 22/20 Q1009 NOSIG
ZHCC,2023-07-16 21:00,ZHCC 162100Z 28001MPS CAVOK 22/20 Q1009 NOSIG
ZHCC,2023-07-16 22:00,ZHCC 162200Z 28001MPS CAVOK 22/20 Q1009 NOSIG
ZHCC,2023-07-16 23:00,ZHCC 162300Z 29001MPS CAVOK 26/22 Q1010 NOSIG
ZHCC,2023-07-17 00:00,ZHCC 170000Z VRB01MPS CAVOK 29/18 Q1010 NOSIG
ZHCC,2023-07-17 01:00,ZHCC 170100Z VRB01MPS CAVOK 30/19 Q1011 NOSIG
ZHCC,2023-07-17 02:00,ZHCC 170200Z 08002MPS 020V140 CAVOK 32/19 Q1011 NOSIG
ZHCC,2023-07-17 03:00,ZHCC 170300Z 04003MPS 360V090 CAVOK 32/17 Q1011 NOSIG
ZHCC,2023-07-17 04:00,ZHCC 170400Z VRB03MPS CAVOK 33/19 Q1011 NOSIG
ZHCC,2023-07-17 05:00,ZHCC 170500Z 07004MPS 020V110 9999 FEW040 33/19 Q1010 NOSIG
ZHCC,2023-07-17 06:00,ZHCC 170600Z 10004MPS 070V170 9999 FEW040 33/19 Q1010 NOSIG
ZHCC,2023-07-17 07:00,ZHCC 170700Z 10004MPS 060V150 9999 FEW040 33/18 Q1010 NOSIG
ZHCC,2023-07-17 08:00,ZHCC 170800Z 10005MPS 050V130 9999 SCT040 34/20 Q1009 NOSIG
ZHCC,2023-07-17 09:00,ZHCC 170900Z 10005MPS 9999 SCT040 33/19 Q1009 NOSIG
ZHCC,2023-07-17 10:00,ZHCC 171000Z 10004MPS 9999 SCT040 32/19 Q1009 NOSIG
ZHCC,2023-07-17 11:00,ZHCC 171100Z 12002MPS 9999 SCT040 30/20 Q1009 NOSIG
ZHCC,2023-07-17 12:00,ZHCC 171200Z 13002MPS 9999 SCT040 29/20 Q1010 NOSIG
ZHCC,2023-07-17 13:00,ZHCC 171300Z 13002MPS 100V160 CAVOK 28/21 Q1010 NOSIG
ZHCC,2023-07-17 14:00,ZHCC 171400Z 13001MPS CAVOK 27/21 Q1011 NOSIG
ZHCC,2023-07-17 15:00,ZHCC 171500Z VRB01MPS CAVOK 25/21 Q1011 NOSIG
ZHCC,2023-07-17 16:00,ZHCC 171600Z VRB01MPS CAVOK 27/21 Q1011 NOSIG
ZHCC,2023-07-17 17:00,ZHCC 171700Z 13002MPS CAVOK 25/21 Q1011 NOSIG
ZHCC,2023-07-17 18:00,ZHCC 171800Z 12001MPS CAVOK 25/21 Q1011 NOSIG
ZHCC,2023-07-17 19:00,ZHCC 171900Z 12001MPS CAVOK 25/21 Q1011 NOSIG
ZHCC,2023-07-17 20:00,ZHCC 172000Z 12001MPS CAVOK 24/21 Q1011 NOSIG
ZHCC,2023-07-17 21:00,ZHCC 172100Z 05002MPS CAVOK 25/20 Q1011 NOSIG
ZHCC,2023-07-17 22:00,ZHCC 172200Z VRB01MPS CAVOK 25/20 Q1011 NOSIG
ZHCC,2023-07-17 23:00,ZHCC 172300Z 06002MPS 010V100 CAVOK 27/21 Q1012 NOSIG
ZHCC,2023-07-18 00:00,ZHCC 180000Z 09002MPS 050V140 CAVOK 28/21 Q1012 NOSIG
ZHCC,2023-07-18 01:00,ZHCC 180100Z VRB02MPS CAVOK 30/21 Q1012 NOSIG
ZHCC,2023-07-18 02:00,ZHCC 180200Z VRB03MPS CAVOK 31/18 Q1012 NOSIG
ZHCC,2023-07-18 03:00,ZHCC 180300Z 04004MPS 360V100 9999 FEW030 31/20 Q1012 NOSIG
ZHCC,2023-07-18 04:00,ZHCC 180400Z VRB03MPS 9999 FEW046 32/20 Q1012 NOSIG
ZHCC,2023-07-18 05:00,ZHCC 180500Z 08004MPS 050V110 CAVOK 33/20 Q1011 NOSIG
ZHCC,2023-07-18 06:00,ZHCC 180600Z 07003MPS 040V110 CAVOK 32/20 Q1011 NOSIG
ZHCC,2023-07-18 07:00,ZHCC 180700Z 09005MPS 040V110 CAVOK 33/20 Q1010 NOSIG
ZHCC,2023-07-18 08:00,ZHCC 180800Z 08004MPS 040V120 CAVOK 33/20 Q1010 NOSIG
ZHCC,2023-07-18 09:00,ZHCC 180900Z 12003MPS 100V160 CAVOK 32/20 Q1009 NOSIG
ZHCC,2023-07-18 10:00,ZHCC 181000Z 13003MPS CAVOK 31/21 Q1009 NOSIG
ZHCC,2023-07-18 11:00,ZHCC 181100Z 12002MPS CAVOK 30/21 Q1009 NOSIG
ZHCC,2023-07-18 12:00,ZHCC 181200Z 13002MPS CAVOK 28/21 Q1010 NOSIG
ZHCC,2023-07-18 13:00,ZHCC 181300Z VRB01MPS CAVOK 27/21 Q1010 NOSIG
ZHCC,2023-07-18 14:00,ZHCC 181400Z VRB01MPS CAVOK 28/21 Q1011 NOSIG
ZHCC,2023-07-18 15:00,ZHCC 181500Z VRB01MPS CAVOK 27/21 Q1011 NOSIG
ZHCC,2023-07-18 16:00,ZHCC 181600Z 20001MPS CAVOK 26/21 Q1011 NOSIG
ZHCC,2023-07-18 17:00,ZHCC 181700Z 27001MPS CAVOK 25/21 Q1010 NOSIG
ZHCC,2023-07-18 18:00,ZHCC 181800Z 25001MPS CAVOK 25/21 Q1010 NOSIG
ZHCC,2023-07-18 19:00,ZHCC 181900Z 27001MPS CAVOK 25/21 Q1010 NOSIG
ZHCC,2023-07-18 20:00,ZHCC 182000Z VRB01MPS CAVOK 25/21 Q1009 NOSIG
ZHCC,2023-07-18 21:00,ZHCC 182100Z VRB01MPS CAVOK 25/22 Q1009 NOSIG
ZHCC,2023-07-18 22:00,ZHCC 182200Z 30001MPS CAVOK 25/22 Q1009 NOSIG
ZHCC,2023-07-18 23:00,ZHCC 182300Z 00000MPS CAVOK 27/23 Q1010 NOSIG
ZHCC,2023-07-19 00:00,ZHCC 190000Z VRB01MPS CAVOK 29/24 Q1010 NOSIG
ZHCC,2023-07-19 01:00,ZHCC 190100Z 12002MPS 090V150 9999 FEW030 30/24 Q1010 NOSIG
ZHCC,2023-07-19 02:00,ZHCC 190200Z 10003MPS 060V140 9999 SCT030 31/24 Q1010 NOSIG
ZHCC,2023-07-19 03:00,ZHCC 190300Z 13003MPS 090V180 9999 SCT030 31/24 Q1010 NOSIG
ZHCC,2023-07-19 04:00,ZHCC 190400Z 14002MPS 100V180 9999 SCT030 31/24 Q1009 NOSIG
ZHCC,2023-07-19 05:00,ZHCC 190500Z 14004MPS 100V210 9999 BKN030 30/25 Q1009 NOSIG
ZHCC,2023-07-19 06:00,ZHCC 190600Z 15003MPS 120V200 9999 BKN030 31/24 Q1008 NOSIG
ZHCC,2023-07-19 07:00,ZHCC 190700Z 13003MPS 100V170 9999 SCT030 30/23 Q1007 NOSIG
ZHCC,2023-07-19 08:00,ZHCC 190800Z 14003MPS 110V180 9999 FEW030 30/24 Q1007 NOSIG
ZHCC,2023-07-19 09:00,ZHCC 190900Z 14003MPS 110V180 CAVOK 30/24 Q1007 NOSIG
ZHCC,2023-07-19 10:00,ZHCC 191000Z 14002MPS 100V180 CAVOK 29/24 Q1007 NOSIG
ZHCC,2023-07-19 11:00,ZHCC 191100Z VRB01MPS CAVOK 29/24 Q1007 NOSIG
ZHCC,2023-07-19 12:00,ZHCC 191200Z 14002MPS CAVOK 28/25 Q1007 NOSIG
ZHCC,2023-07-19 13:00,ZHCC 191300Z 19002MPS 110V240 CAVOK 28/25 Q1007 NOSIG
ZHCC,2023-07-19 14:00,ZHCC 191400Z VRB01MPS CAVOK 28/25 Q1007 NOSIG
ZHCC,2023-07-19 15:00,ZHCC 191500Z 14002MPS 070V170 CAVOK 27/24 Q1008 NOSIG
ZHCC,2023-07-19 16:00,ZHCC 191600Z VRB01MPS CAVOK 26/24 Q1007 NOSIG
ZHCC,2023-07-19 17:00,ZHCC 191700Z VRB01MPS CAVOK 26/24 Q1007 NOSIG
ZHCC,2023-07-19 18:00,ZHCC 191800Z 13002MPS CAVOK 25/24 Q1007 NOSIG
ZHCC,2023-07-19 19:00,ZHCC 191900Z 11002MPS CAVOK 25/24 Q1007 NOSIG
ZHCC,2023-07-19 20:00,ZHCC 192000Z 13002MPS CAVOK 24/23 Q1006 NOSIG
ZHCC,2023-07-19 21:00,ZHCC 192100Z 12002MPS CAVOK 24/23 Q1007 NOSIG
ZHCC,2023-07-19 22:00,ZHCC 192200Z 13002MPS 100V180 5000 BR NSC 24/23 Q1007 NOSIG
ZHCC,2023-07-19 23:00,ZHCC 192300Z VRB01MPS 5000 BR NSC 25/24 Q1007 NOSIG
ZHCC,2023-07-20 00:00,ZHCC 200000Z 13002MPS 090V170 9999 FEW020 26/23 Q1008 NOSIG
ZHCC,2023-07-20 01:00,ZHCC 200100Z 14003MPS 100V180 9999 BKN040 26/23 Q1008 NOSIG
ZHCC,2023-07-20 02:00,ZHCC 200200Z 15002MPS 110V190 9999 OVC040 27/23 Q1008 NOSIG
ZHCC,2023-07-20 03:00,ZHCC 200300Z 18002MPS 100V230 9999 BKN040 29/24 Q1008 NOSIG
ZHCC,2023-07-20 04:00,ZHCC 200400Z 13003MPS 070V180 9999 BKN040 30/24 Q1007 NOSIG
ZHCC,2023-07-20 05:00,ZHCC 200500Z 15002MPS 080V230 9999 BKN030 31/25 Q1007 NOSIG
ZHCC,2023-07-20 06:00,ZHCC 200600Z 12002MPS 090V160 9999 BKN030 31/24 Q1006 NOSIG
ZHCC,2023-07-20 07:00,ZHCC 200700Z 14002MPS 100V200 9999 SCT030 32/24 Q1005 NOSIG
ZHCC,2023-07-20 08:00,ZHCC 200800Z 13003MPS 100V160 9999 SCT030 30/25 Q1005 NOSIG
ZHCC,2023-07-20 09:00,ZHCC 200900Z 12004MPS 090V150 9999 FEW030 31/25 Q1004 NOSIG
ZHCC,2023-07-20 10:00,ZHCC 201000Z 14003MPS 110V190 9999 SCT030 30/25 Q1005 NOSIG
ZHCC,2023-07-20 11:00,ZHCC 201100Z 14002MPS 110V180 CAVOK 30/24 Q1005 NOSIG
ZHCC,2023-07-20 12:00,ZHCC 201200Z VRB01MPS CAVOK 29/25 Q1006 NOSIG
ZHCC,2023-07-20 13:00,ZHCC 201300Z 13001MPS CAVOK 28/25 Q1006 NOSIG
ZHCC,2023-07-20 14:00,ZHCC 201400Z 13001MPS CAVOK 28/25 Q1007 NOSIG
ZHCC,2023-07-20 15:00,ZHCC 201500Z 12001MPS CAVOK 27/25 Q1007 NOSIG
ZHCC,2023-07-20 16:00,ZHCC 201600Z VRB01MPS CAVOK 28/25 Q1006 NOSIG
ZHCC,2023-07-20 17:00,ZHCC 201700Z VRB01MPS CAVOK 28/25 Q1006 NOSIG
ZHCC,2023-07-20 18:00,ZHCC 201800Z VRB01MPS CAVOK 27/25 Q1006 NOSIG
ZHCC,2023-07-20 19:00,ZHCC 201900Z VRB01MPS CAVOK 26/25 Q1006 NOSIG
ZHCC,2023-07-20 20:00,ZHCC 202000Z VRB01MPS 9999 SCT033 26/25 Q1006 NOSIG
ZHCC,2023-07-20 21:00,ZHCC 202100Z 12001MPS 7000 SCT040 26/25 Q1006 NOSIG
ZHCC,2023-07-20 22:00,ZHCC 202200Z 12002MPS 5000 BR BKN030 26/25 Q1005 NOSIG
ZHCC,2023-07-20 23:00,ZHCC 202300Z 13002MPS 110V180 5000 BR SCT030 27/25 Q1006 NOSIG
ZHCC,2023-07-21 00:00,ZHCC 210000Z 15003MPS 110V210 7000 SCT030 28/26 Q1006 NOSIG
ZHCC,2023-07-21 01:00,ZHCC 210100Z 15002MPS 080V230 9999 SCT030 28/26 Q1006 NOSIG
ZHCC,2023-07-21 02:00,ZHCC 210200Z 18002MPS 110V230 9999 SCT020 BKN040 29/25 Q1007 NOSIG
ZHCC,2023-07-21 03:00,ZHCC 210300Z 14002MPS 100V200 9999 -SHRA OVC040 28/26 Q1007 BECMG TL0320 SHRA
ZHCC,2023-07-21 04:00,ZHCC 210400Z VRB02MPS 6000 -SHRA BKN040 28/27 Q1006 RESHRA NOSIG
ZHCC,2023-07-21 05:00,ZHCC 210500Z 18002MPS 110V230 9999 BKN020 31/26 Q1006 NOSIG
ZHCC,2023-07-21 06:00,ZHCC 210600Z VRB02MPS 9999 FEW020TCU BKN020 32/27 Q1005 NOSIG
ZHCC,2023-07-21 07:00,ZHCC 210700Z 13003MPS 100V210 9999 FEW026TCU BKN026 31/26 Q1004 NOSIG
ZHCC,2023-07-21 08:00,ZHCC 210800Z 18003MPS 130V220 9999 FEW026CB BKN026 28/24 Q1004 NOSIG
ZHCC,2023-07-21 09:00,ZHCC 210900Z 08005MPS 9999 FEW020CB BKN040 29/24 Q1004 BECMG TL0940 TSRA
ZHCC,2023-07-21 10:00,ZHCC 211000Z 12002MPS 9999 SHRA FEW020CB BKN040 26/24 Q1005 BECMG TL1040 -SHRA
ZHCC,2023-07-21 11:00,ZHCC 211100Z 16002MPS 120V230 6000 TSRA FEW020CB BKN040 25/25 Q1005 BECMG TL1140 -SHRA
ZHCC,2023-07-21 12:00,ZHCC 211200Z 27001MPS 9999 -SHRA FEW020CB BKN040 25/23 Q1006 RETSRA NOSIG
ZHCC,2023-07-21 13:00,ZHCC 211300Z 26002MPS 210V360 9999 SHRA FEW020CB BKN040 24/23 Q1006 BECMG TL1340 -SHRA
ZHCC,2023-07-21 14:00,ZHCC 211400Z VRB01MPS 8000 -RA SCT015 OVC040 24/23 Q1007 RESHRA NOSIG
ZHCC,2023-07-21 15:00,ZHCC 211500Z VRB01MPS 8000 SCT015 OVC040 25/23 Q1007 NOSIG
ZHCC,2023-07-21 16:00,ZHCC 211600Z VRB01MPS 8000 SCT015 OVC040 24/24 Q1007 NOSIG
ZHCC,2023-07-21 17:00,ZHCC 211700Z 02002MPS 360V070 9999 FEW015 OVC040 25/23 Q1007 NOSIG
ZHCC,2023-07-21 18:00,ZHCC 211800Z VRB01MPS 6000 FEW015 OVC040 25/24 Q1007 NOSIG
ZHCC,2023-07-21 19:00,ZHCC 211900Z VRB01MPS 6000 FEW015 OVC040 24/24 Q1006 NOSIG
ZHCC,2023-07-21 20:00,ZHCC 212000Z 28001MPS 4000 BR FEW040 23/23 Q1006 NOSIG
ZHCC,2023-07-21 21:00,ZHCC 212100Z 25001MPS 4000 BR NSC 24/23 Q1006 NOSIG
ZHCC,2023-07-21 22:00,ZHCC 212200Z 24001MPS 2500 BR NSC 24/23 Q1006 BECMG TL2340 3000
ZHCC,2023-07-21 23:00,ZHCC 212300Z VRB01MPS 2800 BR NSC 25/24 Q1006 BECMG TL2340 4000
ZHCC,2023-07-22 00:00,ZHCC 220000Z 29002MPS 5000 BR SCT020 25/24 Q1007 NOSIG
ZHCC,2023-07-22 01:00,ZHCC 220100Z 06002MPS 020V100 9999 SCT020 26/24 Q1007 NOSIG
ZHCC,2023-07-22 02:00,ZHCC 220200Z 08002MPS 030V120 9999 OVC020 27/24 Q1007 NOSIG
ZHCC,2023-07-22 03:00,ZHCC 220300Z 13002MPS 090V200 9999 SCT030 27/24 Q1007 NOSIG
ZHCC,2023-07-22 04:00,ZHCC 220400Z 16002MPS 120V240 9999 SCT030 29/25 Q1007 NOSIG
ZHCC,2023-07-22 05:00,ZHCC 220500Z 19002MPS 120V240 8000 BKN023 30/25 Q1006 NOSIG
ZHCC,2023-07-22 06:00,ZHCC 220600Z 14003MPS 100V180 8000 SCT023 30/25 Q1005 NOSIG
ZHCC,2023-07-22 07:00,ZHCC 220700Z 16002MPS 110V220 8000 SCT023 31/25 Q1005 NOSIG
ZHCC,2023-07-22 08:00,ZHCC 220800Z 17002MPS 110V220 9999 SCT023 31/26 Q1005 NOSIG
ZHCC,2023-07-22 09:00,ZHCC 220900Z 15002MPS 080V230 9999 FEW023 30/25 Q1004 NOSIG
ZHCC,2023-07-22 10:00,ZHCC 221000Z 14002MPS 110V200 9999 FEW030 30/25 Q1004 NOSIG
ZHCC,2023-07-22 11:00,ZHCC 221100Z 13002MPS CAVOK 29/26 Q1005 NOSIG
ZHCC,2023-07-22 12:00,ZHCC 221200Z 14002MPS 100V210 CAVOK 29/25 Q1005 NOSIG
ZHCC,2023-07-22 13:00,ZHCC 221300Z VRB01MPS CAVOK 28/25 Q1005 NOSIG
ZHCC,2023-07-22 14:00,ZHCC 221400Z VRB01MPS CAVOK 27/25 Q1006 NOSIG
ZHCC,2023-07-22 15:00,ZHCC 221500Z 12002MPS CAVOK 27/25 Q1006 NOSIG
ZHCC,2023-07-22 16:00,ZHCC 221600Z 12002MPS CAVOK 27/26 Q1006 NOSIG
ZHCC,2023-07-22 17:00,ZHCC 221700Z 11001MPS 6000 NSC 26/25 Q1006 NOSIG
ZHCC,2023-07-22 18:00,ZHCC 221800Z 00000MPS 5000 BR NSC 26/25 Q1006 NOSIG
ZHCC,2023-07-22 19:00,ZHCC 221900Z 13001MPS 5000 BR NSC 26/25 Q1006 NOSIG
ZHCC,2023-07-22 20:00,ZHCC 222000Z VRB01MPS 4000 BR NSC 26/25 Q1006 NOSIG
ZHCC,2023-07-22 21:00,ZHCC 222100Z 27001MPS 3000 BR NSC 25/25 Q1006 NOSIG
ZHCC,2023-07-22 22:00,ZHCC 222200Z 28001MPS 2000 BR NSC 25/25 Q1006 BECMG TL2340 3000
ZHCC,2023-07-22 23:00,ZHCC 222300Z VRB01MPS 2000 BR NSC 27/26 Q1006 BECMG TL2340 3000
ZHCC,2023-07-23 00:00,ZHCC 230000Z 28002MPS 240V310 3000 BR NSC 28/26 Q1006 NOSIG
ZHCC,2023-07-23 01:00,ZHCC 230100Z 27002MPS 240V300 4000 BR NSC 30/26 Q1006 NOSIG
ZHCC,2023-07-23 02:00,ZHCC 230200Z 26002MPS 220V310 4000 BR NSC 31/26 Q1006 NOSIG
ZHCC,2023-07-23 03:00,ZHCC 230300Z 24002MPS 180V340 8000 NSC 33/26 Q1005 NOSIG
ZHCC,2023-07-23 04:00,ZHCC 230400Z 25003MPS 190V290 CAVOK 35/25 Q1005 NOSIG
ZHCC,2023-07-23 05:00,ZHCC 230500Z 28002MPS 210V330 CAVOK 36/23 Q1005 NOSIG
ZHCC,2023-07-23 06:00,ZHCC 230600Z VRB03MPS CAVOK 36/25 Q1004 NOSIG
ZHCC,2023-07-23 07:00,ZHCC 230700Z VRB02MPS 9999 FEW040 37/23 Q1004 NOSIG
ZHCC,2023-07-23 08:00,ZHCC 230800Z 18003MPS 130V240 9999 FEW040 36/25 Q1003 NOSIG
ZHCC,2023-07-23 09:00,ZHCC 230900Z 18002MPS 130V230 9999 FEW040 36/25 Q1002 NOSIG
ZHCC,2023-07-23 10:00,ZHCC 231000Z VRB01MPS 9999 FEW040 35/25 Q1002 NOSIG
ZHCC,2023-07-23 11:00,ZHCC 231100Z 19002MPS 130V230 9999 FEW040 34/27 Q1003 NOSIG
ZHCC,2023-07-23 12:00,ZHCC 231200Z 19002MPS 130V270 CAVOK 32/25 Q1004 NOSIG
ZHCC,2023-07-23 13:00,ZHCC 231300Z VRB01MPS CAVOK 32/25 Q1004 NOSIG
ZHCC,2023-07-23 14:00,ZHCC 231400Z VRB01MPS CAVOK 31/26 Q1005 NOSIG
ZHCC,2023-07-23 15:00,ZHCC 231500Z VRB01MPS CAVOK 31/26 Q1005 NOSIG
ZHCC,2023-07-23 16:00,ZHCC 231600Z VRB01MPS CAVOK 30/26 Q1005 NOSIG
ZHCC,2023-07-23 17:00,ZHCC 231700Z VRB01MPS CAVOK 29/26 Q1005 NOSIG
ZHCC,2023-07-23 18:00,ZHCC 231800Z VRB01MPS CAVOK 28/26 Q1004 NOSIG
ZHCC,2023-07-23 19:00,ZHCC 231900Z 20002MPS 140V240 CAVOK 29/26 Q1004 NOSIG
ZHCC,2023-07-23 20:00,ZHCC 232000Z VRB01MPS 7000 NSC 28/26 Q1004 NOSIG
ZHCC,2023-07-23 21:00,ZHCC 232100Z 15001MPS 7000 NSC 27/26 Q1004 NOSIG
ZHCC,2023-07-23 22:00,ZHCC 232200Z VRB01MPS 3000 BR NSC 27/26 Q1005 NOSIG
ZHCC,2023-07-23 23:00,ZHCC 232300Z 12002MPS 090V150 3000 BR NSC 28/27 Q1005 NOSIG
ZHCC,2023-07-24 00:00,ZHCC 240000Z 20003MPS 150V230 4000 BR NSC 30/27 Q1006 NOSIG
ZHCC,2023-07-24 01:00,ZHCC 240100Z 19002MPS 100V230 7000 NSC 31/27 Q1006 NOSIG
ZHCC,2023-07-24 02:00,ZHCC 240200Z 20003MPS 170V230 7000 NSC 32/27 Q1006 NOSIG
ZHCC,2023-07-24 03:00,ZHCC 240300Z 21003MPS 170V250 CAVOK 33/27 Q1006 NOSIG
ZHCC,2023-07-24 04:00,ZHCC 240400Z 20002MPS 110V260 CAVOK 34/27 Q1006 NOSIG
ZHCC,2023-07-24 05:00,ZHCC 240500Z 20003MPS 140V250 CAVOK 34/26 Q1006 NOSIG
ZHCC,2023-07-24 06:00,ZHCC 240600Z 13003MPS 090V170 CAVOK 34/26 Q1005 NOSIG
ZHCC,2023-07-24 07:00,ZHCC 240700Z 14003MPS 060V220 CAVOK 35/27 Q1005 NOSIG
ZHCC,2023-07-24 08:00,ZHCC 240800Z 13003MPS 100V170 CAVOK 35/27 Q1004 NOSIG
ZHCC,2023-07-24 09:00,ZHCC 240900Z 14002MPS 110V180 CAVOK 35/26 Q1005 NOSIG
ZHCC,2023-07-24 10:00,ZHCC 241000Z 13002MPS 110V190 CAVOK 33/25 Q1004 NOSIG
ZHCC,2023-07-24 11:00,ZHCC 241100Z 14002MPS 110V170 CAVOK 32/25 Q1004 NOSIG
ZHCC,2023-07-24 12:00,ZHCC 241200Z VRB01MPS CAVOK 31/27 Q1006 NOSIG
ZHCC,2023-07-24 13:00,ZHCC 241300Z 10001MPS CAVOK 30/26 Q1006 NOSIG
ZHCC,2023-07-24 14:00,ZHCC 241400Z 13002MPS CAVOK 30/27 Q1007 NOSIG
ZHCC,2023-07-24 15:00,ZHCC 241500Z 14001MPS CAVOK 30/27 Q1007 NOSIG
ZHCC,2023-07-24 16:00,ZHCC 241600Z 32005MPS 9999 SCT046 30/25 Q1007 NOSIG
ZHCC,2023-07-24 17:00,ZHCC 241700Z 29003MPS 260V320 CAVOK 28/22 Q1007 NOSIG
ZHCC,2023-07-24 18:00,ZHCC 241800Z 31002MPS CAVOK 27/22 Q1006 NOSIG
ZHCC,2023-07-24 19:00,ZHCC 241900Z 05002MPS 030V200 CAVOK 28/21 Q1006 NOSIG
ZHCC,2023-07-24 20:00,ZHCC 242000Z 06003MPS CAVOK 28/21 Q1006 NOSIG
ZHCC,2023-07-24 21:00,ZHCC 242100Z VRB01MPS CAVOK 27/21 Q1007 NOSIG
ZHCC,2023-07-24 22:00,ZHCC 242200Z 31002MPS CAVOK 27/21 Q1007 NOSIG
ZHCC,2023-07-24 23:00,ZHCC 242300Z VRB01MPS CAVOK 28/21 Q1008 NOSIG
ZHCC,2023-07-25 00:00,ZHCC 250000Z 04003MPS 350V100 CAVOK 30/21 Q1009 NOSIG
ZHCC,2023-07-25 01:00,ZHCC 250100Z 04003MPS 010V080 9999 BKN040 30/22 Q1009 NOSIG
ZHCC,2023-07-25 02:00,ZHCC 250200Z 04003MPS 010V100 9999 FEW030CB BKN040 31/23 Q1009 NOSIG
ZHCC,2023-07-25 03:00,ZHCC 250300Z 06004MPS 040V100 9999 FEW040 31/24 Q1008 NOSIG
ZHCC,2023-07-25 04:00,ZHCC 250400Z 07003MPS 340V120 9999 FEW040 32/25 Q1008 NOSIG
ZHCC,2023-07-25 05:00,ZHCC 250500Z 12003MPS 080V200 9999 BKN030 33/26 Q1007 NOSIG
ZHCC,2023-07-25 06:00,ZHCC 250600Z 17004G09MPS 100V210 9999 FEW026CB BKN030 29/22 Q1009 NOSIG
ZHCC,2023-07-25 07:00,ZHCC 250700Z 13003MPS 090V220 9999 FEW026CB 29/23 Q1008 RETS NOSIG
ZHCC,2023-07-25 08:00,ZHCC 250800Z 19003MPS 110V240 CAVOK 31/21 Q1007 NOSIG
ZHCC,2023-07-25 09:00,ZHCC 250900Z 18002MPS 130V220 9999 FEW040 30/20 Q1007 NOSIG
ZHCC,2023-07-25 10:00,ZHCC 251000Z 12002MPS 090V160 9999 FEW040 29/21 Q1008 NOSIG
ZHCC,2023-07-25 11:00,ZHCC 251100Z 13002MPS 090V170 CAVOK 28/22 Q1008 NOSIG
ZHCC,2023-07-25 12:00,ZHCC 251200Z 14001MPS CAVOK 27/22 Q1008 NOSIG
ZHCC,2023-07-25 13:00,ZHCC 251300Z VRB01MPS CAVOK 27/22 Q1009 NOSIG
ZHCC,2023-07-25 14:00,ZHCC 251400Z 10003MPS 050V120 CAVOK 26/22 Q1009 NOSIG
ZHCC,2023-07-25 15:00,ZHCC 251500Z 12003MPS CAVOK 25/22 Q1009 NOSIG
ZHCC,2023-07-25 16:00,ZHCC 251600Z 00000MPS CAVOK 24/22 Q1010 NOSIG
ZHCC,2023-07-25 17:00,ZHCC 251700Z 13001MPS CAVOK 25/22 Q1009 NOSIG
ZHCC,2023-07-25 18:00,ZHCC 251800Z VRB01MPS CAVOK 25/22 Q1009 NOSIG
ZHCC,2023-07-25 19:00,ZHCC 251900Z VRB01MPS CAVOK 24/22 Q1009 NOSIG
ZHCC,2023-07-25 20:00,ZHCC 252000Z 00000MPS CAVOK 24/22 Q1009 NOSIG
ZHCC,2023-07-25 21:00,ZHCC 252100Z VRB01MPS CAVOK 24/22 Q1009 NOSIG
ZHCC,2023-07-25 22:00,ZHCC 252200Z 07003MPS CAVOK 26/22 Q1010 NOSIG
ZHCC,2023-07-25 23:00,ZHCC 252300Z 11003MPS CAVOK 26/23 Q1010 NOSIG
ZHCC,2023-07-26 00:00,ZHCC 260000Z VRB01MPS CAVOK 27/23 Q1010 NOSIG
ZHCC,2023-07-26 01:00,ZHCC 260100Z VRB01MPS CAVOK 29/24 Q1010 NOSIG
ZHCC,2023-07-26 02:00,ZHCC 260200Z VRB02MPS 9999 FEW030 30/24 Q1010 NOSIG
ZHCC,2023-07-26 03:00,ZHCC 260300Z 16002MPS 100V230 9999 SCT030 30/23 Q1010 NOSIG
ZHCC,2023-07-26 04:00,ZHCC 260400Z 14002MPS 060V210 9999 SCT030 32/24 Q1010 NOSIG
ZHCC,2023-07-26 05:00,ZHCC 260500Z 11003MPS 060V160 9999 SCT030 32/24 Q1010 NOSIG
ZHCC,2023-07-26 06:00,ZHCC 260600Z 13003MPS 090V160 9999 SCT030 32/25 Q1009 NOSIG
ZHCC,2023-07-26 07:00,ZHCC 260700Z 13002MPS 080V200 9999 SCT030 33/24 Q1008 NOSIG
ZHCC,2023-07-26 08:00,ZHCC 260800Z VRB01MPS 9999 FEW030TCU SCT030 31/24 Q1008 NOSIG
ZHCC,2023-07-26 09:00,ZHCC 260900Z 14002MPS 080V250 9999 FEW030TCU SCT030 33/24 Q1008 NOSIG
ZHCC,2023-07-26 10:00,ZHCC 261000Z 12003MPS 090V160 9999 FEW030 32/24 Q1008 NOSIG
ZHCC,2023-07-26 11:00,ZHCC 261100Z 11003MPS 9999 FEW030 31/24 Q1008 NOSIG
ZHCC,2023-07-26 12:00,ZHCC 261200Z 12002MPS CAVOK 29/24 Q1009 NOSIG
ZHCC,2023-07-26 13:00,ZHCC 261300Z VRB01MPS CAVOK 29/25 Q1010 NOSIG
ZHCC,2023-07-26 14:00,ZHCC 261400Z 12002MPS CAVOK 29/24 Q1010 NOSIG
ZHCC,2023-07-26 15:00,ZHCC 261500Z 13002MPS CAVOK 28/24 Q1010 NOSIG
ZHCC,2023-07-26 16:00,ZHCC 261600Z 12001MPS CAVOK 27/24 Q1009 NOSIG
ZHCC,2023-07-26 17:00,ZHCC 261700Z 12001MPS CAVOK 27/24 Q1009 NOSIG
ZHCC,2023-07-26 18:00,ZHCC 261800Z VRB01MPS CAVOK 27/25 Q1008 NOSIG
ZHCC,2023-07-26 19:00,ZHCC 261900Z 13002MPS CAVOK 27/24 Q1008 NOSIG
ZHCC,2023-07-26 20:00,ZHCC 262000Z 12003MPS 7000 NSC 26/24 Q1009 NOSIG
ZHCC,2023-07-26 21:00,ZHCC 262100Z 11003MPS 7000 NSC 25/24 Q1009 NOSIG
ZHCC,2023-07-26 22:00,ZHCC 262200Z VRB01MPS 4000 BR NSC 25/24 Q1009 NOSIG
ZHCC,2023-07-26 23:00,ZHCC 262300Z 11001MPS 5000 BR NSC 26/25 Q1010 NOSIG
ZHCC,2023-07-27 00:00,ZHCC 270000Z 09003MPS 8000 NSC 28/24 Q1010 NOSIG
ZHCC,2023-07-27 01:00,ZHCC 270100Z 14002MPS 110V220 CAVOK 29/24 Q1010 NOSIG
ZHCC,2023-07-27 02:00,ZHCC 270200Z 14002MPS 100V170 CAVOK 30/24 Q1010 NOSIG
ZHCC,2023-07-27 03:00,ZHCC 270300Z VRB01MPS CAVOK 31/24 Q1010 NOSIG
ZHCC,2023-07-27 04:00,ZHCC 270400Z 10003MPS 040V150 9999 SCT033 32/23 Q1009 NOSIG
ZHCC,2023-07-27 05:00,ZHCC 270500Z VRB02MPS 9999 SCT040 33/23 Q1008 NOSIG
ZHCC,2023-07-27 06:00,ZHCC 270600Z 12003MPS 100V160 9999 SCT040 33/23 Q1008 NOSIG
ZHCC,2023-07-27 07:00,ZHCC 270700Z 15002MPS 100V220 9999 SCT046 34/23 Q1007 NOSIG
ZHCC,2023-07-27 08:00,ZHCC 270800Z 13003MPS 100V180 9999 SCT046 33/23 Q1007 NOSIG
ZHCC,2023-07-27 09:00,ZHCC 270900Z 13003MPS 9999 SCT046 32/23 Q1006 NOSIG
ZHCC,2023-07-27 10:00,ZHCC 271000Z 09005MPS 9999 SCT046 32/23 Q1006 NOSIG
ZHCC,2023-07-27 11:00,ZHCC 271100Z 07003MPS 040V100 9999 SCT046 32/23 Q1006 NOSIG
ZHCC,2023-07-27 12:00,ZHCC 271200Z 08003MPS CAVOK 31/23 Q1007 NOSIG
ZHCC,2023-07-27 13:00,ZHCC 271300Z 09004MPS CAVOK 30/24 Q1008 NOSIG
ZHCC,2023-07-27 14:00,ZHCC 271400Z 11002MPS CAVOK 29/24 Q1008 NOSIG
ZHCC,2023-07-27 15:00,ZHCC 271500Z 11003MPS CAVOK 28/24 Q1008 NOSIG
ZHCC,2023-07-27 16:00,ZHCC 271600Z 11002MPS CAVOK 28/25 Q1008 NOSIG
ZHCC,2023-07-27 17:00,ZHCC 271700Z 08003MPS CAVOK 28/25 Q1007 NOSIG
ZHCC,2023-07-27 18:00,ZHCC 271800Z 05002MPS 020V080 CAVOK 28/25 Q1007 NOSIG
ZHCC,2023-07-27 19:00,ZHCC 271900Z 05003MPS CAVOK 28/25 Q1006 NOSIG
ZHCC,2023-07-27 20:00,ZHCC 272000Z 06004MPS 9999 SCT026 28/25 Q1006 NOSIG
ZHCC,2023-07-27 21:00,ZHCC 272100Z 06004MPS 8000 NSC 27/25 Q1006 NOSIG
ZHCC,2023-07-27 22:00,ZHCC 272200Z 07005MPS 4500 BR BKN026 27/25 Q1007 NOSIG
ZHCC,2023-07-27 23:00,ZHCC 272300Z 10005MPS 6000 BKN026 27/25 Q1007 NOSIG
ZHCC,2023-07-28 00:00,ZHCC 280000Z 10005MPS 9999 FEW016 28/24 Q1008 NOSIG
ZHCC,2023-07-28 01:00,ZHCC 280100Z 10003MPS 060V140 9999 SCT020 28/24 Q1008 NOSIG
ZHCC,2023-07-28 02:00,ZHCC 280200Z 10004MPS 060V130 9999 FEW020 30/24 Q1008 NOSIG
ZHCC,2023-07-28 03:00,ZHCC 280300Z 10005MPS 070V150 9999 BKN026 31/24 Q1007 NOSIG
ZHCC,2023-07-28 04:00,ZHCC 280400Z 10005MPS 080V160 9999 BKN030 32/23 Q1007 NOSIG
ZHCC,2023-07-28 05:00,ZHCC 280500Z 08005MPS 9999 FEW030TCU BKN030 32/24 Q1006 NOSIG
ZHCC,2023-07-28 06:00,ZHCC 280600Z 09006MPS 9999 FEW030TCU SCT030 33/23 Q1006 NOSIG
ZHCC,2023-07-28 07:00,ZHCC 280700Z 08005MPS 9999 FEW030TCU SCT030 33/23 Q1005 NOSIG
ZHCC,2023-07-28 08:00,ZHCC 280800Z 07005MPS 040V100 9999 FEW030TCU SCT030 33/23 Q1004 NOSIG
ZHCC,2023-07-28 09:00,ZHCC 280900Z 07006MPS 9999 FEW030CB SCT030 32/23 Q1004 BECMG TL0930 SHRA
ZHCC,2023-07-28 10:00,ZHCC 281000Z 07005MPS 9999 FEW030CB BKN030 32/24 Q1004 NOSIG
ZHCC,2023-07-28 11:00,ZHCC 281100Z 05006MPS 9999 FEW030CB BKN030 28/24 Q1005 RESHRA BECMG TL1220 2000 TSRA
ZHCC,2023-07-28 12:00,ZHCC 281200Z 07007G12MPS 020V100 9999 -SHRA FEW010 FEW030CB BKN030 28/24 Q1006 BECMG TL1220 1200 +TSRA
ZHCC,2023-07-28 13:00,ZHCC 281300Z 06004MPS 6000 -SHRA FEW007 FEW030TCU BKN046 25/25 Q1007 RESHRA NOSIG
ZHCC,2023-07-28 14:00,ZHCC 281400Z 03003MPS 360V080 9999 -SHRA FEW009 BKN046 26/24 Q1007 NOSIG
ZHCC,2023-07-28 15:00,ZHCC 281500Z 36004MPS 330V060 9999 FEW009 BKN033 26/24 Q1007 BECMG TL1620 SHRA FEW007 FEW030CB BKN033
ZHCC,2023-07-28 16:00,ZHCC 281600Z 04005MPS 2500 +SHRA SCT007 FEW030CB BKN030 26/24 Q1006 BECMG TL1720 -SHRA
ZHCC,2023-07-28 17:00,ZHCC 281700Z 03005MPS 360V070 5000 -SHRA SCT005 FEW030CB BKN030 25/25 Q1005 RESHRA BECMG TL1730 +SHRA
ZHCC,2023-07-28 18:00,ZHCC 281800Z 04007MPS 6000 SHRA SCT005 FEW030CB BKN030 25/25 Q1004 BECMG TL1840 -SHRA
ZHCC,2023-07-28 19:00,ZHCC 281900Z 07006MPS 9999 -SHRA SCT008 OVC030 26/25 Q1004 RESHRA NOSIG
ZHCC,2023-07-28 20:00,ZHCC 282000Z 06005MPS 5000 -SHRA BR SCT008 FEW023TCU BKN023 26/25 Q1004 BECMG TL2030 2000 +SHRA
ZHCC,2023-07-28 21:00,ZHCC 282100Z 04005MPS 7000 -SHRA SCT008 FEW023CB BKN023 26/25 Q1003 RESHRA NOSIG
ZHCC,2023-07-28 22:00,ZHCC 282200Z 06006MPS 4000 BR SCT008 BKN023 26/25 Q1003 NOSIG
ZHCC,2023-07-28 23:00,ZHCC 282300Z 06006MPS 4000 BR SCT008 BKN023 26/25 Q1003 NOSIG
ZHCC,2023-07-29 00:00,ZHCC 290000Z 07005MPS 7000 SCT011 BKN023 27/26 Q1004 NOSIG
ZHCC,2023-07-29 01:00,ZHCC 290100Z 07006MPS 9999 SCT011 BKN023 28/26 Q1004 BECMG TL0140 RA
ZHCC,2023-07-29 02:00,ZHCC 290200Z 09006MPS 2500 +SHRA SCT011 FEW030CB BKN030 25/25 Q1004 BECMG TL0240 4000 -SHRA
ZHCC,2023-07-29 03:00,ZHCC 290300Z 05004MPS 5000 SHRA BR SCT011 BKN040 26/25 Q1003 BECMG TL0340 -SHRA
ZHCC,2023-07-29 04:00,ZHCC 290400Z 35003MPS 310V040 8000 SCT011 BKN040 27/26 Q1003 RESHRA NOSIG
ZHCC,2023-07-29 05:00,ZHCC 290500Z 33003MPS 300V360 9999 SCT011 FEW020CB BKN040 26/25 Q1002 RESHRA BECMG TL0620 2000 SHRA
ZHCC,2023-07-29 06:00,ZHCC 290600Z 03004MPS 9999 SCT011 BKN040 27/25 Q1002 BECMG TL0640 2000 SHRA
ZHCC,2023-07-29 07:00,ZHCC 290700Z 08006MPS 2000 +SHRA SCT011 BKN040 25/24 Q1001 BECMG TL0840 4000 -SHRA
ZHCC,2023-07-29 08:00,ZHCC 290800Z 36004MPS 9999 -SHRA SCT011 BKN040 26/25 Q1001 RESHRA NOSIG
ZHCC,2023-07-29 09:00,ZHCC 290900Z 35004MPS 9999 -SHRA SCT011 BKN040 26/25 Q1001 NOSIG
ZHCC,2023-07-29 10:00,ZHCC 291000Z 01005MPS 9999 SCT011 BKN040 26/25 Q1000 BECMG TL1140 SHRA
ZHCC,2023-07-29 11:00,ZHCC 291100Z 01005MPS 9999 SCT011 BKN040 26/25 Q1001 BECMG TL1140 SHRA
ZHCC,2023-07-29 12:00,ZHCC 291200Z 02004MPS 350V050 9999 -SHRA SCT011 BKN040 26/25 Q1001 NOSIG
ZHCC,2023-07-29 13:00,ZHCC 291300Z 02004MPS 9999 -SHRA SCT011 BKN040 26/25 Q1001 RESHRA NOSIG
ZHCC,2023-07-29 14:00,ZHCC 291400Z 02003MPS 350V060 9999 -SHRA SCT011 BKN040 26/25 Q1001 NOSIG
ZHCC,2023-07-29 15:00,ZHCC 291500Z 05002MPS 020V090 9999 SCT011 BKN040 26/25 Q1001 NOSIG
ZHCC,2023-07-29 16:00,ZHCC 291600Z 07002MPS 040V100 9999 SCT011 BKN040 26/25 Q1000 NOSIG
ZHCC,2023-07-29 17:00,ZHCC 291700Z 05002MPS 020V110 9999 SCT011 BKN040 25/25 Q1000 NOSIG
ZHCC,2023-07-29 18:00,ZHCC 291800Z VRB01MPS 8000 SCT011 BKN040 25/25 Q1000 NOSIG
ZHCC,2023-07-29 19:00,ZHCC 291900Z VRB01MPS 8000 SCT011 BKN040 25/25 Q0999 NOSIG
ZHCC,2023-07-29 20:00,ZHCC 292000Z VRB01MPS 6000 -RA SCT011 BKN040 25/25 Q0999 NOSIG
ZHCC,2023-07-29 21:00,ZHCC 292100Z 28002MPS 6000 -RA SCT011 BKN040 25/25 Q0999 NOSIG
ZHCC,2023-07-29 22:00,ZHCC 292200Z VRB01MPS 5000 -RA BR SCT011 BKN040 25/25 Q1000 NOSIG
ZHCC,2023-07-29 23:00,ZHCC 292300Z 26003MPS 240V300 9999 SCT011 BKN040 25/24 Q1000 NOSIG
ZHCC,2023-07-30 00:00,ZHCC 300000Z 27003MPS 230V300 9999 SCT011 BKN040 25/24 Q1001 NOSIG
ZHCC,2023-07-30 01:00,ZHCC 300100Z 29003MPS 270V330 9999 FEW011 OVC040 26/24 Q1001 NOSIG
ZHCC,2023-07-30 02:00,ZHCC 300200Z VRB01MPS 9999 FEW026 BKN040 28/25 Q1001 NOSIG
ZHCC,2023-07-30 03:00,ZHCC 300300Z 16002MPS 110V270 9999 FEW020 BKN033 30/24 Q1001 NOSIG
ZHCC,2023-07-30 04:00,ZHCC 300400Z 14003MPS 090V170 9999 FEW020 BKN033 29/25 Q1001 NOSIG
ZHCC,2023-07-30 05:00,ZHCC 300500Z 18003MPS 100V240 9999 FEW026CB BKN033 30/26 Q1001 NOSIG
ZHCC,2023-07-30 06:00,ZHCC 300600Z 14002MPS 100V210 CAVOK 31/26 Q1000 NOSIG
ZHCC,2023-07-30 07:00,ZHCC 300700Z 17002MPS 110V220 9999 -SHRA SCT030 31/26 Q1000 NOSIG
ZHCC,2023-07-30 08:00,ZHCC 300800Z 18002MPS 130V220 9999 SCT030 31/25 Q0999 NOSIG
ZHCC,2023-07-30 09:00,ZHCC 300900Z 18002MPS 110V220 9999 FEW030 31/26 Q1000 NOSIG
ZHCC,2023-07-30 10:00,ZHCC 301000Z 18002MPS 110V230 CAVOK 30/26 Q0999 NOSIG
ZHCC,2023-07-30 11:00,ZHCC 301100Z 15002MPS 090V210 CAVOK 30/26 Q1000 NOSIG
ZHCC,2023-07-30 12:00,ZHCC 301200Z VRB01MPS CAVOK 29/26 Q1001 BECMG TL1240 SHRA
ZHCC,2023-07-30 13:00,ZHCC 301300Z 16002MPS 100V210 9999 FEW030CB 28/26 Q1002 NOSIG
ZHCC,2023-07-30 14:00,ZHCC 301400Z VRB01MPS CAVOK 27/25 Q1002 BECMG AT1530 TSRA
ZHCC,2023-07-30 15:00,ZHCC 301500Z 25002MPS 220V280 9999 FEW020CB BKN030 28/25 Q1003 BECMG AT1530 SHRA
ZHCC,2023-07-30 16:00,ZHCC 301600Z VRB01MPS CAVOK 27/26 Q1003 NOSIG
ZHCC,2023-07-30 17:00,ZHCC 301700Z 12002MPS 9999 SCT010 27/26 Q1003 NOSIG
ZHCC,2023-07-30 18:00,ZHCC 301800Z 14002MPS 090V180 9999 SCT007 27/26 Q1003 NOSIG
ZHCC,2023-07-30 19:00,ZHCC 301900Z VRB02MPS 9999 SCT007 27/27 Q1003 NOSIG
ZHCC,2023-07-30 20:00,ZHCC 302000Z 13002MPS 080V190 8000 SCT007 27/27 Q1003 NOSIG
ZHCC,2023-07-30 21:00,ZHCC 302100Z 12002MPS 7000 FEW007 27/27 Q1003 NOSIG
ZHCC,2023-07-30 22:00,ZHCC 302200Z 13003MPS 4000 BR FEW007 27/26 Q1004 NOSIG
ZHCC,2023-07-30 23:00,ZHCC 302300Z 15002MPS 110V200 5000 BR FEW007 BKN030 27/27 Q1005 NOSIG
ZHCC,2023-07-31 00:00,ZHCC 310000Z 15002MPS 100V200 6000 SCT007 OVC030 28/27 Q1005 NOSIG
ZHCC,2023-07-31 01:00,ZHCC 310100Z 14003MPS 100V200 8000 SCT011 BKN030 29/27 Q1005 NOSIG
ZHCC,2023-07-31 02:00,ZHCC 310200Z 16002MPS 100V200 9999 SCT013 BKN030 30/27 Q1006 NOSIG
ZHCC,2023-07-31 03:00,ZHCC 310300Z 16002MPS 120V210 4000 SHRA SCT013 FEW030CB BKN030 29/27 Q1006 BECMG TL0420 -SHRA
ZHCC,2023-07-31 04:00,ZHCC 310400Z 28003MPS 240V320 1200 R12R/1900N R12L/1600N +TSRA SCT008 FEW020CB BKN020 24/24 Q1006 BECMG TL0440 3000 -SHRA
ZHCC,2023-07-31 05:00,ZHCC 310500Z 16002MPS 090V210 9999 FEW020CB BKN040 29/27 Q1005 RETSRA BECMG TL0610 SHRA
ZHCC,2023-07-31 06:00,ZHCC 310600Z 17002MPS 080V240 9999 FEW020CB BKN040 31/28 Q1005 NOSIG
ZHCC,2023-07-31 07:00,ZHCC 310700Z 15003MPS 120V210 9999 FEW030TCU BKN030 32/28 Q1005 NOSIG
ZHCC,2023-07-31 08:00,ZHCC 310800Z 14002MPS 090V200 9999 FEW030TCU BKN030 32/27 Q1004 BECMG TL0910 TSRA
ZHCC,2023-07-31 09:00,ZHCC 310900Z 22004G10MPS 180V260 9999 -SHRA FEW020CB BKN030 28/25 Q1004 NOSIG
ZHCC,2023-07-31 10:00,ZHCC 311000Z VRB01MPS 9999 FEW030CB SCT046 28/26 Q1004 RETS NOSIG
ZHCC,2023-07-31 11:00,ZHCC 311100Z VRB01MPS 9999 FEW030CB 29/26 Q1005 NOSIG
ZHCC,2023-07-31 12:00,ZHCC 311200Z 01003MPS 330V050 9999 FEW030CB BKN033 29/26 Q1006 NOSIG
ZHCC,2023-07-31 13:00,ZHCC 311300Z 00000MPS 9999 FEW030CB SCT040 26/25 Q1006 RESHRA NOSIG
ZHCC,2023-07-31 14:00,ZHCC 311400Z 07003MPS 040V100 9999 FEW030CB SCT033 28/27 Q1007 NOSIG
ZHCC,2023-07-31 15:00,ZHCC 311500Z 10002MPS CAVOK 27/26 Q1007 NOSIG
ZHCC,2023-07-31 16:00,ZHCC 311600Z 12002MPS CAVOK 27/26 Q1007 NOSIG
ZHCC,2023-07-31 17:00,ZHCC 311700Z 10002MPS 9999 FEW030CB SCT040 27/26 Q1007 NOSIG
ZHCC,2023-07-31 18:00,ZHCC 311800Z 11002MPS CAVOK 27/26 Q1006 NOSIG
ZHCC,2023-07-31 19:00,ZHCC 311900Z 12002MPS 090V150 CAVOK 26/26 Q1006 NOSIG
ZHCC,2023-07-31 20:00,ZHCC 312000Z 10003MPS 8000 NSC 26/26 Q1006 NOSIG
ZHCC,2023-07-31 21:00,ZHCC 312100Z 11002MPS 6000 NSC 26/25 Q1006 NOSIG
ZHCC,2023-07-31 22:00,ZHCC 312200Z 10003MPS 3000 BR SCT011 SCT040 26/26 Q1006 NOSIG
ZHCC,2023-07-31 23:00,ZHCC 312300Z 11003MPS 3000 BR SCT011 SCT040 27/26 Q1007 NOSIG
ZHCC,2023-08-01 00:00,ZHCC 010000Z 12002MPS 090V160 4500 BR SCT011 SCT040 28/27 Q1007 NOSIG
ZHCC,2023-08-01 01:00,ZHCC 010100Z 12003MPS 6000 SCT011 SCT040 29/27 Q1008 NOSIG
ZHCC,2023-08-01 02:00,ZHCC 010200Z 11004MPS 6000 SCT011 BKN040 29/27 Q1008 NOSIG
ZHCC,2023-08-01 03:00,ZHCC 010300Z 12004MPS 9999 SCT020 SCT040 30/27 Q1008 NOSIG
ZHCC,2023-08-01 04:00,ZHCC 010400Z 11004MPS 9999 SCT020 SCT040 31/27 Q1007 NOSIG
ZHCC,2023-08-01 05:00,ZHCC 010500Z 11006MPS 090V150 9999 SCT020 SCT040 32/26 Q1006 NOSIG
ZHCC,2023-08-01 06:00,ZHCC 010600Z 10006MPS 9999 SCT020 SCT040 32/26 Q1006 NOSIG
ZHCC,2023-08-01 07:00,ZHCC 010700Z 10005MPS 080V140 9999 SCT030 33/27 Q1005 NOSIG
ZHCC,2023-08-01 08:00,ZHCC 010800Z 11006MPS 9999 SCT030 32/26 Q1005 NOSIG
ZHCC,2023-08-01 09:00,ZHCC 010900Z 12004MPS 100V160 9999 SCT030 32/26 Q1005 NOSIG
ZHCC,2023-08-01 10:00,ZHCC 011000Z 12003MPS 090V150 9999 SCT030 31/26 Q1005 NOSIG
ZHCC,2023-08-01 11:00,ZHCC 011100Z 12003MPS CAVOK 30/25 Q1006 NOSIG
ZHCC,2023-08-01 12:00,ZHCC 011200Z 12001MPS CAVOK 29/26 Q1007 NOSIG
ZHCC,2023-08-01 13:00,ZHCC 011300Z 11003MPS 9999 FEW040 28/25 Q1007 NOSIG
ZHCC,2023-08-01 14:00,ZHCC 011400Z 11002MPS 9999 FEW040 28/25 Q1007 NOSIG
ZHCC,2023-08-01 15:00,ZHCC 011500Z 12002MPS 9999 FEW040 27/25 Q1007 NOSIG
ZHCC,2023-08-01 16:00,ZHCC 011600Z 12002MPS 9999 FEW040 27/25 Q1008 NOSIG
ZHCC,2023-08-01 17:00,ZHCC 011700Z 12002MPS CAVOK 27/25 Q1007 NOSIG
ZHCC,2023-08-01 18:00,ZHCC 011800Z 12001MPS 9999 SCT040 26/25 Q1007 NOSIG
ZHCC,2023-08-01 19:00,ZHCC 011900Z VRB01MPS 9999 FEW040 26/25 Q1007 NOSIG
ZHCC,2023-08-01 20:00,ZHCC 012000Z 11001MPS CAVOK 26/24 Q1007 NOSIG
ZHCC,2023-08-01 21:00,ZHCC 012100Z 12002MPS CAVOK 25/24 Q1007 NOSIG
ZHCC,2023-08-01 22:00,ZHCC 012200Z VRB01MPS 6000 NSC 25/25 Q1007 NOSIG
ZHCC,2023-08-01 23:00,ZHCC 012300Z VRB01MPS 6000 NSC 27/25 Q1007 NOSIG
ZHCC,2023-08-02 00:00,ZHCC 020000Z 15002MPS 100V210 8000 NSC 28/26 Q1007 NOSIG
ZHCC,2023-08-02 01:00,ZHCC 020100Z 14002MPS 100V210 8000 FEW030 30/26 Q1007 NOSIG
ZHCC,2023-08-02 02:00,ZHCC 020200Z 13002MPS 100V160 9999 SCT030 30/26 Q1007 NOSIG
ZHCC,2023-08-02 03:00,ZHCC 020300Z VRB02MPS 9999 SCT030 31/26 Q1007 NOSIG
ZHCC,2023-08-02 04:00,ZHCC 020400Z 13002MPS 050V210 9999 SCT030 33/26 Q1007 NOSIG
ZHCC,2023-08-02 05:00,ZHCC 020500Z 13002MPS 090V180 9999 SCT030 33/26 Q1006 NOSIG
ZHCC,2023-08-02 06:00,ZHCC 020600Z 13003MPS 100V180 9999 SCT030 33/26 Q1006 NOSIG
ZHCC,2023-08-02 07:00,ZHCC 020700Z 14003MPS 110V200 9999 SCT030 32/25 Q1005 NOSIG
ZHCC,2023-08-02 08:00,ZHCC 020800Z 12003MPS 100V160 9999 SCT030 32/26 Q1004 NOSIG
ZHCC,2023-08-02 09:00,ZHCC 020900Z 11004MPS 9999 SCT030 32/26 Q1004 NOSIG
ZHCC,2023-08-02 10:00,ZHCC 021000Z 13003MPS 9999 FEW030 32/26 Q1003 NOSIG
ZHCC,2023-08-02 11:00,ZHCC 021100Z 13002MPS CAVOK 30/26 Q1003 NOSIG
ZHCC,2023-08-02 12:00,ZHCC 021200Z VRB01MPS CAVOK 29/26 Q1004 NOSIG
ZHCC,2023-08-02 13:00,ZHCC 021300Z VRB01MPS CAVOK 29/26 Q1004 NOSIG
ZHCC,2023-08-02 14:00,ZHCC 021400Z VRB01MPS CAVOK 29/26 Q1004 NOSIG
ZHCC,2023-08-02 15:00,ZHCC 021500Z VRB01MPS CAVOK 28/26 Q1004 NOSIG
ZHCC,2023-08-02 16:00,ZHCC 021600Z VRB01MPS CAVOK 28/25 Q1004 NOSIG
ZHCC,2023-08-02 17:00,ZHCC 021700Z VRB01MPS CAVOK 28/25 Q1004 NOSIG
ZHCC,2023-08-02 18:00,ZHCC 021800Z VRB01MPS CAVOK 27/25 Q1004 NOSIG
ZHCC,2023-08-02 19:00,ZHCC 021900Z VRB01MPS CAVOK 27/25 Q1004 NOSIG
ZHCC,2023-08-02 20:00,ZHCC 022000Z VRB01MPS CAVOK 27/25 Q1004 NOSIG
ZHCC,2023-08-02 21:00,ZHCC 022100Z 00000MPS CAVOK 27/25 Q1004 NOSIG
ZHCC,2023-08-02 22:00,ZHCC 022200Z 00000MPS 5000 BR NSC 26/25 Q1004 NOSIG
ZHCC,2023-08-02 23:00,ZHCC 022300Z VRB01MPS 5000 BR NSC 28/26 Q1004 NOSIG
ZHCC,2023-08-03 00:00,ZHCC 030000Z VRB01MPS 8000 NSC 30/26 Q1004 NOSIG
ZHCC,2023-08-03 01:00,ZHCC 030100Z 18002MPS 120V220 CAVOK 31/26 Q1004 NOSIG
ZHCC,2023-08-03 02:00,ZHCC 030200Z 19002MPS 060V230 CAVOK 32/27 Q1004 NOSIG
ZHCC,2023-08-03 03:00,ZHCC 030300Z 18003MPS 120V250 9999 SCT030 33/26 Q1004 NOSIG
ZHCC,2023-08-03 04:00,ZHCC 030400Z 20003MPS 110V240 9999 SCT030 34/26 Q1003 NOSIG
ZHCC,2023-08-03 05:00,ZHCC 030500Z 19003MPS 120V230 9999 FEW030 34/26 Q1003 NOSIG
ZHCC,2023-08-03 06:00,ZHCC 030600Z 19003MPS 120V250 9999 SCT040 35/25 Q1002 NOSIG
ZHCC,2023-08-03 07:00,ZHCC 030700Z 18003MPS 110V210 9999 SCT040 35/26 Q1002 NOSIG
ZHCC,2023-08-03 08:00,ZHCC 030800Z 17002MPS 100V250 9999 SCT040 35/26 Q1001 NOSIG
ZHCC,2023-08-03 09:00,ZHCC 030900Z 16002MPS 110V210 9999 FEW040 34/25 Q1001 NOSIG
ZHCC,2023-08-03 10:00,ZHCC 031000Z 16002MPS 120V220 9999 FEW040 34/25 Q1001 NOSIG
ZHCC,2023-08-03 11:00,ZHCC 031100Z 19002MPS 130V230 CAVOK 33/25 Q1001 NOSIG
ZHCC,2023-08-03 12:00,ZHCC 031200Z VRB01MPS CAVOK 31/25 Q1001 NOSIG
ZHCC,2023-08-03 13:00,ZHCC 031300Z VRB01MPS CAVOK 30/25 Q1002 NOSIG
ZHCC,2023-08-03 14:00,ZHCC 031400Z VRB01MPS CAVOK 29/26 Q1003 NOSIG
ZHCC,2023-08-03 15:00,ZHCC 031500Z VRB01MPS CAVOK 29/26 Q1003 NOSIG
ZHCC,2023-08-03 16:00,ZHCC 031600Z VRB01MPS CAVOK 29/26 Q1003 NOSIG
ZHCC,2023-08-03 17:00,ZHCC 031700Z 19002MPS 150V220 CAVOK 29/26 Q1002 NOSIG
ZHCC,2023-08-03 18:00,ZHCC 031800Z 20002MPS 160V230 CAVOK 29/26 Q1002 NOSIG
ZHCC,2023-08-03 19:00,ZHCC 031900Z 19002MPS 130V240 CAVOK 29/26 Q1002 NOSIG
ZHCC,2023-08-03 20:00,ZHCC 032000Z 20002MPS 160V230 CAVOK 29/26 Q1002 NOSIG
ZHCC,2023-08-03 21:00,ZHCC 032100Z VRB01MPS CAVOK 28/26 Q1002 NOSIG
ZHCC,2023-08-03 22:00,ZHCC 032200Z VRB01MPS 6000 NSC 28/26 Q1002 NOSIG
ZHCC,2023-08-03 23:00,ZHCC 032300Z VRB01MPS 8000 NSC 29/26 Q1003 NOSIG
ZHCC,2023-08-04 00:00,ZHCC 040000Z VRB01MPS CAVOK 31/27 Q1003 NOSIG
ZHCC,2023-08-04 01:00,ZHCC 040100Z 20002MPS 120V240 CAVOK 32/27 Q1003 NOSIG
ZHCC,2023-08-04 02:00,ZHCC 040200Z 22003MPS 150V270 CAVOK 33/27 Q1003 NOSIG
ZHCC,2023-08-04 03:00,ZHCC 040300Z 25003MPS 190V300 CAVOK 34/26 Q1002 NOSIG
ZHCC,2023-08-04 04:00,ZHCC 040400Z 24003MPS 160V320 CAVOK 35/26 Q1002 NOSIG
ZHCC,2023-08-04 05:00,ZHCC 040500Z VRB02MPS CAVOK 36/25 Q1001 NOSIG
ZHCC,2023-08-04 06:00,ZHCC 040600Z 17003MPS 090V220 9999 FEW040 36/26 Q1001 NOSIG
ZHCC,2023-08-04 07:00,ZHCC 040700Z 16003MPS 110V240 9999 FEW040 36/26 Q1000 NOSIG
ZHCC,2023-08-04 08:00,ZHCC 040800Z 16002MPS 110V220 9999 FEW040 36/26 Q1000 NOSIG
ZHCC,2023-08-04 09:00,ZHCC 040900Z 18002MPS 100V240 9999 FEW040 36/26 Q1000 NOSIG
ZHCC,2023-08-04 10:00,ZHCC 041000Z 14003MPS 100V170 CAVOK 34/27 Q0999 NOSIG
ZHCC,2023-08-04 11:00,ZHCC 041100Z 13002MPS 100V170 CAVOK 33/27 Q1000 NOSIG
ZHCC,2023-08-04 12:00,ZHCC 041200Z VRB01MPS CAVOK 32/27 Q1000 NOSIG
ZHCC,2023-08-04 13:00,ZHCC 041300Z VRB01MPS CAVOK 32/27 Q1001 NOSIG
ZHCC,2023-08-04 14:00,ZHCC 041400Z 13002MPS 100V160 CAVOK 31/27 Q1001 NOSIG
ZHCC,2023-08-04 15:00,ZHCC 041500Z VRB01MPS CAVOK 30/27 Q1001 NOSIG
ZHCC,2023-08-04 16:00,ZHCC 041600Z VRB01MPS CAVOK 30/27 Q1001 NOSIG
ZHCC,2023-08-04 17:00,ZHCC 041700Z 19002MPS 150V250 CAVOK 31/27 Q1001 NOSIG
ZHCC,2023-08-04 18:00,ZHCC 041800Z VRB01MPS CAVOK 30/27 Q1001 NOSIG
ZHCC,2023-08-04 19:00,ZHCC 041900Z VRB01MPS CAVOK 29/27 Q1000 NOSIG
ZHCC,2023-08-04 20:00,ZHCC 042000Z 11001MPS 8000 NSC 28/27 Q1000 NOSIG
ZHCC,2023-08-04 21:00,ZHCC 042100Z VRB01MPS 8000 NSC 28/27 Q1000 NOSIG
ZHCC,2023-08-04 22:00,ZHCC 042200Z VRB01MPS 8000 NSC 28/27 Q1000 NOSIG
ZHCC,2023-08-04 23:00,ZHCC 042300Z VRB01MPS 8000 NSC 30/28 Q1001 NOSIG
ZHCC,2023-08-05 00:00,ZHCC 050000Z VRB01MPS 8000 NSC 32/28 Q1001 NOSIG
ZHCC,2023-08-05 01:00,ZHCC 050100Z VRB01MPS 8000 FEW040 33/28 Q1001 NOSIG
ZHCC,2023-08-05 02:00,ZHCC 050200Z 32002MPS 260V020 9999 FEW040 35/28 Q1001 NOSIG
ZHCC,2023-08-05 03:00,ZHCC 050300Z VRB01MPS 9999 FEW040 36/28 Q1000 NOSIG
ZHCC,2023-08-05 04:00,ZHCC 050400Z 13002MPS 100V170 9999 FEW040 36/28 Q1000 NOSIG
ZHCC,2023-08-05 05:00,ZHCC 050500Z 12003MPS 090V160 9999 FEW040 36/29 Q0999 BECMG TL0650 33009G16MPS 1500 +TSRA FEW030CB BKN030
ZHCC,2023-08-05 06:00,ZHCC 050600Z 14003MPS 100V200 9999 FEW040CB FEW040 36/28 Q0997 NOSIG
ZHCC,2023-08-05 07:00,ZHCC 050700Z 13002MPS 100V160 9999 FEW030CB BKN040 35/29 Q0998 BECMG TL0740 33009G16MPS 1500 +TSRA
ZHCC,2023-08-05 08:00,ZHCC 050800Z 02009MPS 8000 -TSRA SCT007 FEW030CB BKN040 27/25 Q1000 BECMG TL0830 TSRA
ZHCC,2023-08-05 09:00,ZHCC 050900Z 04005MPS 6000 TSRA SCT007 FEW030CB BKN040 26/25 Q1001 NOSIG
ZHCC,2023-08-05 10:00,ZHCC 051000Z 05006MPS 8000 -SHRA SCT007 FEW030CB BKN040 26/25 Q1001 RETSRA BECMG TL1040 TSRA
ZHCC,2023-08-05 11:00,ZHCC 051100Z 04002MPS 330V110 9999 -SHRA FEW007 FEW030CB BKN040 26/25 Q1001 NOSIG
ZHCC,2023-08-05 12:00,ZHCC 051200Z 29002MPS 250V340 9999 -SHRA FEW011 FEW030CB BKN040 26/25 Q1001 NOSIG
ZHCC,2023-08-05 13:00,ZHCC 051300Z 29002MPS 9999 -SHRA SCT009 FEW030CB BKN040 26/25 Q1003 NOSIG
ZHCC,2023-08-05 14:00,ZHCC 051400Z 29002MPS 240V310 9999 -SHRA SCT009 FEW030CB BKN033 26/25 Q1004 NOSIG
ZHCC,2023-08-05 15:00,ZHCC 051500Z 04003MPS 9999 FEW011 FEW030CB BKN040 26/25 Q1003 NOSIG
ZHCC,2023-08-05 16:00,ZHCC 051600Z 02002MPS 9999 FEW015 BKN046 26/24 Q1002 NOSIG
ZHCC,2023-08-05 17:00,ZHCC 051700Z 02002MPS CAVOK 26/24 Q1002 NOSIG
ZHCC,2023-08-05 18:00,ZHCC 051800Z 03002MPS CAVOK 26/24 Q1002 NOSIG
ZHCC,2023-08-05 19:00,ZHCC 051900Z 32002MPS 270V360 CAVOK 25/24 Q1002 NOSIG
ZHCC,2023-08-05 20:00,ZHCC 052000Z 36002MPS 340V040 CAVOK 25/24 Q1002 NOSIG
ZHCC,2023-08-05 21:00,ZHCC 052100Z 30001MPS CAVOK 25/24 Q1002 NOSIG
ZHCC,2023-08-05 22:00,ZHCC 052200Z 36003MPS CAVOK 25/24 Q1002 NOSIG
ZHCC,2023-08-05 23:00,ZHCC 052300Z 01004MPS CAVOK 26/23 Q1003 NOSIG
ZHCC,2023-08-06 00:00,ZHCC 060000Z 01003MPS 330V050 CAVOK 27/24 Q1003 NOSIG
ZHCC,2023-08-06 01:00,ZHCC 060100Z 01003MPS 340V040 CAVOK 27/24 Q1004 NOSIG
ZHCC,2023-08-06 02:00,ZHCC 060200Z 03006MPS 330V050 9999 FEW030 29/24 Q1004 NOSIG
ZHCC,2023-08-06 03:00,ZHCC 060300Z 02008MPS 350V050 9999 SCT020 29/24 Q1004 NOSIG
ZHCC,2023-08-06 04:00,ZHCC 060400Z 02006MPS 9999 SCT030 29/24 Q1003 NOSIG
ZHCC,2023-08-06 05:00,ZHCC 060500Z 02005MPS 9999 SCT030 SCT043 30/24 Q1003 NOSIG
ZHCC,2023-08-06 06:00,ZHCC 060600Z 04005MPS 360V060 9999 SCT030 30/24 Q1002 NOSIG
ZHCC,2023-08-06 07:00,ZHCC 060700Z 02005MPS 350V060 9999 FEW030 30/24 Q1002 NOSIG
ZHCC,2023-08-06 08:00,ZHCC 060800Z 03005MPS 9999 SCT030 32/24 Q1001 NOSIG
ZHCC,2023-08-06 09:00,ZHCC 060900Z 01006MPS 9999 SCT030 31/23 Q1001 NOSIG
ZHCC,2023-08-06 10:00,ZHCC 061000Z 03005MPS 360V060 9999 SCT030 31/24 Q1001 NOSIG
ZHCC,2023-08-06 11:00,ZHCC 061100Z 04006MPS 9999 FEW030 30/23 Q1002 NOSIG
ZHCC,2023-08-06 12:00,ZHCC 061200Z 04003MPS 010V080 9999 FEW030 29/24 Q1002 NOSIG
ZHCC,2023-08-06 13:00,ZHCC 061300Z 04003MPS 9999 SCT040 28/23 Q1004 NOSIG
ZHCC,2023-08-06 14:00,ZHCC 061400Z 03004MPS 9999 SCT040 28/21 Q1004 NOSIG
ZHCC,2023-08-06 15:00,ZHCC 061500Z 04003MPS 9999 SCT040 28/22 Q1004 NOSIG
ZHCC,2023-08-06 16:00,ZHCC 061600Z 01002MPS 340V040 9999 SCT040 27/22 Q1004 NOSIG
ZHCC,2023-08-06 17:00,ZHCC 061700Z 02002MPS 340V060 9999 SCT040 27/22 Q1004 NOSIG
ZHCC,2023-08-06 18:00,ZHCC 061800Z 03003MPS 9999 SCT040 27/21 Q1004 NOSIG
ZHCC,2023-08-06 19:00,ZHCC 061900Z 02003MPS 350V050 9999 SCT040 26/21 Q1004 NOSIG
ZHCC,2023-08-06 20:00,ZHCC 062000Z 01003MPS 350V060 9999 SCT040 26/21 Q1004 NOSIG
ZHCC,2023-08-06 21:00,ZHCC 062100Z 01002MPS 9999 SCT040 26/22 Q1004 NOSIG
ZHCC,2023-08-06 22:00,ZHCC 062200Z 01002MPS 9999 SCT046 25/22 Q1004 NOSIG
ZHCC,2023-08-06 23:00,ZHCC 062300Z 03003MPS 360V060 9999 BKN046 26/22 Q1004 NOSIG
ZHCC,2023-08-07 00:00,ZHCC 070000Z 05003MPS 9999 BKN046 27/22 Q1005 NOSIG
ZHCC,2023-08-07 01:00,ZHCC 070100Z 05003MPS 360V080 9999 SCT040 28/22 Q1005 NOSIG
ZHCC,2023-08-07 02:00,ZHCC 070200Z VRB01MPS 9999 SCT040 29/23 Q1005 NOSIG
ZHCC,2023-08-07 03:00,ZHCC 070300Z VRB02MPS 9999 SCT030 30/22 Q1005 NOSIG
ZHCC,2023-08-07 04:00,ZHCC 070400Z 05003MPS 020V080 9999 SCT030 31/22 Q1005 NOSIG
ZHCC,2023-08-07 05:00,ZHCC 070500Z 03003MPS 330V060 9999 BKN030 31/22 Q1004 NOSIG
ZHCC,2023-08-07 06:00,ZHCC 070600Z VRB03MPS 9999 SCT040 32/23 Q1004 NOSIG
ZHCC,2023-08-07 07:00,ZHCC 070700Z 03004MPS 340V080 9999 SCT040 32/22 Q1003 NOSIG
ZHCC,2023-08-07 08:00,ZHCC 070800Z 03003MPS 360V080 9999 SCT040 32/22 Q1003 NOSIG
ZHCC,2023-08-07 09:00,ZHCC 070900Z 06004MPS 010V110 9999 SCT040 32/22 Q1002 NOSIG
ZHCC,2023-08-07 10:00,ZHCC 071000Z 07004MPS 9999 FEW040 31/21 Q1002 NOSIG
ZHCC,2023-08-07 11:00,ZHCC 071100Z 06004MPS 030V100 CAVOK 30/22 Q1003 NOSIG
ZHCC,2023-08-07 12:00,ZHCC 071200Z 08004MPS CAVOK 29/22 Q1003 NOSIG
ZHCC,2023-08-07 13:00,ZHCC 071300Z 12002MPS CAVOK 28/23 Q1004 NOSIG
ZHCC,2023-08-07 14:00,ZHCC 071400Z 12002MPS CAVOK 27/22 Q1004 NOSIG
ZHCC,2023-08-07 15:00,ZHCC 071500Z 11001MPS CAVOK 26/22 Q1004 NOSIG
ZHCC,2023-08-07 16:00,ZHCC 071600Z VRB01MPS CAVOK 26/22 Q1004 NOSIG
ZHCC,2023-08-07 17:00,ZHCC 071700Z 00000MPS CAVOK 25/23 Q1004 NOSIG
ZHCC,2023-08-07 18:00,ZHCC 071800Z VRB01MPS CAVOK 26/22 Q1005 NOSIG
ZHCC,2023-08-07 19:00,ZHCC 071900Z 10001MPS CAVOK 26/23 Q1004 NOSIG
ZHCC,2023-08-07 20:00,ZHCC 072000Z 11002MPS CAVOK 26/22 Q1004 NOSIG
ZHCC,2023-08-07 21:00,ZHCC 072100Z 11002MPS 070V140 CAVOK 26/22 Q1005 NOSIG
ZHCC,2023-08-07 22:00,ZHCC 072200Z VRB01MPS 7000 NSC 25/22 Q1005 NOSIG
ZHCC,2023-08-07 23:00,ZHCC 072300Z VRB01MPS 7000 NSC 27/23 Q1006 NOSIG
ZHCC,2023-08-08 00:00,ZHCC 080000Z VRB01MPS 8000 NSC 27/23 Q1006 NOSIG
ZHCC,2023-08-08 01:00,ZHCC 080100Z VRB01MPS CAVOK 29/22 Q1006 NOSIG
ZHCC,2023-08-08 02:00,ZHCC 080200Z VRB01MPS CAVOK 30/21 Q1006 NOSIG
ZHCC,2023-08-08 03:00,ZHCC 080300Z VRB02MPS CAVOK 31/21 Q1006 NOSIG
ZHCC,2023-08-08 04:00,ZHCC 080400Z VRB01MPS CAVOK 32/22 Q1006 NOSIG
ZHCC,2023-08-08 05:00,ZHCC 080500Z VRB01MPS CAVOK 31/22 Q1006 NOSIG
ZHCC,2023-08-08 06:00,ZHCC 080600Z 09003MPS 020V130 CAVOK 32/22 Q1005 NOSIG
ZHCC,2023-08-08 07:00,ZHCC 080700Z 10002MPS 050V180 CAVOK 32/22 Q1005 NOSIG
ZHCC,2023-08-08 08:00,ZHCC 080800Z 14002MPS 090V180 CAVOK 32/23 Q1005 NOSIG
ZHCC,2023-08-08 09:00,ZHCC 080900Z 13002MPS 100V190 CAVOK 31/24 Q1005 NOSIG
ZHCC,2023-08-08 10:00,ZHCC 081000Z 11004MPS CAVOK 31/24 Q1004 NOSIG
ZHCC,2023-08-08 11:00,ZHCC 081100Z 10002MPS CAVOK 30/24 Q1005 NOSIG
ZHCC,2023-08-08 12:00,ZHCC 081200Z 07003MPS 040V100 CAVOK 30/24 Q1005 NOSIG
ZHCC,2023-08-08 13:00,ZHCC 081300Z 12002MPS CAVOK 28/24 Q1006 NOSIG
ZHCC,2023-08-08 14:00,ZHCC 081400Z 06002MPS 020V090 CAVOK 29/24 Q1006 NOSIG
ZHCC,2023-08-08 15:00,ZHCC 081500Z 08002MPS 050V130 CAVOK 28/24 Q1006 NOSIG
ZHCC,2023-08-08 16:00,ZHCC 081600Z 13001MPS CAVOK 28/24 Q1006 NOSIG
ZHCC,2023-08-08 17:00,ZHCC 081700Z 00000MPS CAVOK 27/25 Q1006 NOSIG
ZHCC,2023-08-08 18:00,ZHCC 081800Z VRB01MPS CAVOK 27/24 Q1006 NOSIG
ZHCC,2023-08-08 19:00,ZHCC 081900Z 00000MPS CAVOK 27/24 Q1006 NOSIG
ZHCC,2023-08-08 20:00,ZHCC 082000Z VRB01MPS CAVOK 27/24 Q1006 NOSIG
ZHCC,2023-08-08 21:00,ZHCC 082100Z 05002MPS CAVOK 27/24 Q1007 NOSIG
ZHCC,2023-08-08 22:00,ZHCC 082200Z 07002MPS 6000 NSC 27/24 Q1007 NOSIG
ZHCC,2023-08-08 23:00,ZHCC 082300Z 06002MPS 030V100 6000 NSC 28/24 Q1007 NOSIG
ZHCC,2023-08-09 00:00,ZHCC 090000Z 05003MPS 6000 NSC 28/25 Q1008 NOSIG
ZHCC,2023-08-09 01:00,ZHCC 090100Z 06003MPS 030V090 5000 BR NSC 29/25 Q1008 NOSIG
ZHCC,2023-08-09 02:00,ZHCC 090200Z 09003MPS 050V120 7000 NSC 30/24 Q1008 NOSIG
ZHCC,2023-08-09 03:00,ZHCC 090300Z 05003MPS 360V090 7000 NSC 31/23 Q1008 NOSIG
ZHCC,2023-08-09 04:00,ZHCC 090400Z 06003MPS 010V090 CAVOK 32/23 Q1008 NOSIG
ZHCC,2023-08-09 05:00,ZHCC 090500Z 06003MPS 360V130 CAVOK 32/22 Q1007 NOSIG
ZHCC,2023-08-09 06:00,ZHCC 090600Z VRB01MPS CAVOK 32/23 Q1007 NOSIG
ZHCC,2023-08-09 07:00,ZHCC 090700Z 06003MPS 320V120 9999 FEW040 33/24 Q1007 NOSIG
ZHCC,2023-08-09 08:00,ZHCC 090800Z 06002MPS 310V110 9999 FEW040 32/24 Q1006 NOSIG
ZHCC,2023-08-09 09:00,ZHCC 090900Z 06004MPS 030V090 9999 FEW040 32/23 Q1006 NOSIG
ZHCC,2023-08-09 10:00,ZHCC 091000Z 04004MPS 020V080 9999 FEW040 32/23 Q1006 NOSIG
ZHCC,2023-08-09 11:00,ZHCC 091100Z 07004MPS CAVOK 31/23 Q1007 NOSIG
ZHCC,2023-08-09 12:00,ZHCC 091200Z 06003MPS CAVOK 31/24 Q1007 NOSIG
ZHCC,2023-08-09 13:00,ZHCC 091300Z 05002MPS CAVOK 30/24 Q1008 NOSIG
ZHCC,2023-08-09 14:00,ZHCC 091400Z 04002MPS 030V090 CAVOK 29/24 Q1008 NOSIG
ZHCC,2023-08-09 15:00,ZHCC 091500Z 04003MPS CAVOK 29/24 Q1008 NOSIG
ZHCC,2023-08-09 16:00,ZHCC 091600Z 06002MPS CAVOK 29/24 Q1008 NOSIG
ZHCC,2023-08-09 17:00,ZHCC 091700Z 05002MPS CAVOK 28/24 Q1008 NOSIG
ZHCC,2023-08-09 18:00,ZHCC 091800Z VRB01MPS 8000 NSC 28/24 Q1008 NOSIG
ZHCC,2023-08-09 19:00,ZHCC 091900Z 30002MPS 8000 NSC 25/24 Q1008 NOSIG
ZHCC,2023-08-09 20:00,ZHCC 092000Z VRB01MPS 7000 NSC 25/24 Q1008 NOSIG
ZHCC,2023-08-09 21:00,ZHCC 092100Z VRB01MPS 7000 NSC 25/24 Q1008 NOSIG
ZHCC,2023-08-09 22:00,ZHCC 092200Z 31002MPS 5000 BR NSC 25/24 Q1008 NOSIG
ZHCC,2023-08-09 23:00,ZHCC 092300Z 35002MPS 300V020 5000 BR NSC 27/25 Q1008 NOSIG
ZHCC,2023-08-10 00:00,ZHCC 100000Z 34002MPS 290V030 5000 BR NSC 28/24 Q1009 NOSIG
ZHCC,2023-08-10 01:00,ZHCC 100100Z 01003MPS 350V070 5000 HZ FEW030 29/23 Q1009 NOSIG
ZHCC,2023-08-10 02:00,ZHCC 100200Z 03004MPS 350V120 6000 SCT030 30/23 Q1009 NOSIG
ZHCC,2023-08-10 03:00,ZHCC 100300Z 04004MPS 010V080 7000 SCT030 30/24 Q1008 NOSIG
ZHCC,2023-08-10 04:00,ZHCC 100400Z 04004MPS 360V070 7000 SCT030 32/23 Q1008 NOSIG
ZHCC,2023-08-10 05:00,ZHCC 100500Z 05003G08MPS 360V090 7000 SCT030 32/23 Q1008 NOSIG
ZHCC,2023-08-10 06:00,ZHCC 100600Z 36002MPS 310V080 7000 SCT030 33/23 Q1007 NOSIG
ZHCC,2023-08-10 07:00,ZHCC 100700Z VRB02MPS 9999 SCT030 33/22 Q1007 NOSIG
ZHCC,2023-08-10 08:00,ZHCC 100800Z VRB01MPS 9999 SCT030 33/22 Q1006 NOSIG
ZHCC,2023-08-10 09:00,ZHCC 100900Z 10003MPS 060V150 9999 SCT030 32/24 Q1006 NOSIG
ZHCC,2023-08-10 10:00,ZHCC 101000Z 12002MPS CAVOK 31/24 Q1005 NOSIG
ZHCC,2023-08-10 11:00,ZHCC 101100Z 13002MPS CAVOK 30/24 Q1005 NOSIG
ZHCC,2023-08-10 12:00,ZHCC 101200Z 14002MPS CAVOK 29/24 Q1005 NOSIG
ZHCC,2023-08-10 13:00,ZHCC 101300Z VRB01MPS CAVOK 29/24 Q1006 NOSIG
ZHCC,2023-08-10 14:00,ZHCC 101400Z VRB01MPS CAVOK 27/24 Q1006 NOSIG
ZHCC,2023-08-10 15:00,ZHCC 101500Z 00000MPS CAVOK 27/24 Q1006 NOSIG
ZHCC,2023-08-10 16:00,ZHCC 101600Z VRB01MPS CAVOK 26/24 Q1006 NOSIG
ZHCC,2023-08-10 17:00,ZHCC 101700Z 00000MPS 7000 NSC 25/24 Q1005 NOSIG
ZHCC,2023-08-10 18:00,ZHCC 101800Z VRB01MPS 6000 NSC 25/23 Q1005 NOSIG
ZHCC,2023-08-10 19:00,ZHCC 101900Z 00000MPS 6000 NSC 24/23 Q1004 NOSIG
ZHCC,2023-08-10 20:00,ZHCC 102000Z VRB01MPS 6000 NSC 24/23 Q1004 NOSIG
ZHCC,2023-08-10 21:00,ZHCC 102100Z VRB01MPS 6000 NSC 24/23 Q1004 NOSIG
ZHCC,2023-08-10 22:00,ZHCC 102200Z 20001MPS 3500 BR NSC 24/23 Q1004 NOSIG
ZHCC,2023-08-10 23:00,ZHCC 102300Z VRB01MPS 3500 BR NSC 26/24 Q1004 NOSIG
ZHCC,2023-08-11 00:00,ZHCC 110000Z 18002MPS 110V230 4000 BR NSC 28/24 Q1004 NOSIG
ZHCC,2023-08-11 01:00,ZHCC 110100Z 20004MPS 160V250 5000 HZ NSC 30/25 Q1004 NOSIG
ZHCC,2023-08-11 02:00,ZHCC 110200Z 19004MPS 140V230 5000 HZ FEW030 30/25 Q1004 NOSIG
ZHCC,2023-08-11 03:00,ZHCC 110300Z 21004MPS 160V240 8000 SCT030 32/25 Q1003 NOSIG
ZHCC,2023-08-11 04:00,ZHCC 110400Z 23004MPS 190V270 9999 FEW030 32/25 Q1002 NOSIG
ZHCC,2023-08-11 05:00,ZHCC 110500Z 19003MPS 100V240 CAVOK 33/24 Q1002 NOSIG
ZHCC,2023-08-11 06:00,ZHCC 110600Z 20003MPS 120V250 CAVOK 34/24 Q1001 NOSIG
ZHCC,2023-08-11 07:00,ZHCC 110700Z 18003MPS 130V220 CAVOK 33/25 Q1000 NOSIG
ZHCC,2023-08-11 08:00,ZHCC 110800Z 17003MPS 090V210 CAVOK 34/25 Q1000 NOSIG
ZHCC,2023-08-11 09:00,ZHCC 110900Z 16003MPS 100V240 CAVOK 33/25 Q1000 NOSIG
ZHCC,2023-08-11 10:00,ZHCC 111000Z 19003MPS 140V230 CAVOK 32/25 Q1000 NOSIG
ZHCC,2023-08-11 11:00,ZHCC 111100Z 19002MPS 150V240 CAVOK 32/25 Q1000 NOSIG
ZHCC,2023-08-11 12:00,ZHCC 111200Z VRB02MPS CAVOK 31/25 Q1001 NOSIG
ZHCC,2023-08-11 13:00,ZHCC 111300Z 22002MPS 190V260 CAVOK 30/25 Q1001 NOSIG
ZHCC,2023-08-11 14:00,ZHCC 111400Z 23002MPS 190V280 CAVOK 30/24 Q1001 NOSIG
ZHCC,2023-08-11 15:00,ZHCC 111500Z 22003MPS 170V240 CAVOK 31/24 Q1001 NOSIG
ZHCC,2023-08-11 16:00,ZHCC 111600Z 21002MPS 170V260 CAVOK 30/24 Q1001 NOSIG
ZHCC,2023-08-11 17:00,ZHCC 111700Z 20002MPS 170V250 CAVOK 30/24 Q1001 NOSIG
ZHCC,2023-08-11 18:00,ZHCC 111800Z VRB01MPS CAVOK 29/24 Q1001 NOSIG
ZHCC,2023-08-11 19:00,ZHCC 111900Z 26001MPS CAVOK 28/24 Q1000 NOSIG
ZHCC,2023-08-11 20:00,ZHCC 112000Z VRB01MPS CAVOK 27/25 Q1000 NOSIG
ZHCC,2023-08-11 21:00,ZHCC 112100Z 28002MPS CAVOK 27/25 Q1000 NOSIG
ZHCC,2023-08-11 22:00,ZHCC 112200Z 28002MPS 9999 -RA NSC 27/25 Q1001 NOSIG
ZHCC,2023-08-11 23:00,ZHCC 112300Z 23002MPS 200V260 CAVOK 28/25 Q1001 NOSIG
ZHCC,2023-08-12 00:00,ZHCC 120000Z 26003MPS CAVOK 28/25 Q1001 NOSIG
ZHCC,2023-08-12 01:00,ZHCC 120100Z 29005MPS CAVOK 29/24 Q1002 NOSIG
ZHCC,2023-08-12 02:00,ZHCC 120200Z 30004MPS CAVOK 29/23 Q1002 NOSIG
ZHCC,2023-08-12 03:00,ZHCC 120300Z 30004MPS 9999 OVC040 29/23 Q1003 BECMG TL0420 SHRA
ZHCC,2023-08-12 04:00,ZHCC 120400Z 36004MPS 9999 OVC030 27/22 Q1003 BECMG TL0430 SHRA
ZHCC,2023-08-12 05:00,ZHCC 120500Z 34004MPS 9999 -RA FEW015 OVC030 25/23 Q1003 NOSIG
ZHCC,2023-08-12 06:00,ZHCC 120600Z 34004MPS 9999 -RA FEW015 OVC030 25/22 Q1003 NOSIG
ZHCC,2023-08-12 07:00,ZHCC 120700Z 34005MPS 9999 -RA OVC040 24/22 Q1003 NOSIG
ZHCC,2023-08-12 08:00,ZHCC 120800Z 34003MPS 9999 -RA OVC040 23/22 Q1003 NOSIG
ZHCC,2023-08-12 09:00,ZHCC 120900Z 05002MPS 020V080 CAVOK 24/22 Q1003 NOSIG
ZHCC,2023-08-12 10:00,ZHCC 121000Z VRB01MPS CAVOK 24/22 Q1003 NOSIG
ZHCC,2023-08-12 11:00,ZHCC 121100Z 29002MPS CAVOK 24/23 Q1003 NOSIG
ZHCC,2023-08-12 12:00,ZHCC 121200Z 27001MPS CAVOK 24/23 Q1004 NOSIG
ZHCC,2023-08-12 13:00,ZHCC 121300Z VRB01MPS CAVOK 24/22 Q1004 NOSIG
ZHCC,2023-08-12 14:00,ZHCC 121400Z VRB01MPS CAVOK 23/22 Q1004 NOSIG
ZHCC,2023-08-12 15:00,ZHCC 121500Z 15002MPS CAVOK 23/22 Q1004 NOSIG
ZHCC,2023-08-12 16:00,ZHCC 121600Z 26002MPS CAVOK 23/22 Q1004 NOSIG
ZHCC,2023-08-12 17:00,ZHCC 121700Z VRB01MPS CAVOK 23/22 Q1004 NOSIG
ZHCC,2023-08-12 18:00,ZHCC 121800Z VRB01MPS 8000 NSC 23/22 Q1004 NOSIG
ZHCC,2023-08-12 19:00,ZHCC 121900Z 00000MPS 8000 NSC 22/22 Q1003 NOSIG
ZHCC,2023-08-12 20:00,ZHCC 122000Z 26001MPS 6000 NSC 22/22 Q1003 NOSIG
ZHCC,2023-08-12 21:00,ZHCC 122100Z 32001MPS 6000 NSC 22/21 Q1003 BECMG TL2240 2500
ZHCC,2023-08-12 22:00,ZHCC 122200Z 00000MPS 5000 BR NSC 22/22 Q1004 BECMG TL2240 2500
ZHCC,2023-08-12 23:00,ZHCC 122300Z 25001MPS 5000 BR NSC 24/23 Q1004 NOSIG
ZHCC,2023-08-13 00:00,ZHCC 130000Z 01002MPS 340V050 CAVOK 26/23 Q1005 NOSIG
ZHCC,2023-08-13 01:00,ZHCC 130100Z 35003MPS 330V030 CAVOK 28/24 Q1005 NOSIG
ZHCC,2023-08-13 02:00,ZHCC 130200Z 06003MPS 020V090 CAVOK 29/21 Q1006 NOSIG
ZHCC,2023-08-13 03:00,ZHCC 130300Z 05002MPS 360V120 CAVOK 31/22 Q1006 NOSIG
ZHCC,2023-08-13 04:00,ZHCC 130400Z 01003MPS 330V050 9999 FEW040 32/22 Q1005 NOSIG
ZHCC,2023-08-13 05:00,ZHCC 130500Z 04004MPS 360V090 9999 SCT040 31/22 Q1005 NOSIG
ZHCC,2023-08-13 06:00,ZHCC 130600Z 03004MPS 300V080 9999 BKN040 32/23 Q1004 NOSIG
ZHCC,2023-08-13 07:00,ZHCC 130700Z 04003MPS 360V080 9999 BKN040 32/23 Q1004 NOSIG
ZHCC,2023-08-13 08:00,ZHCC 130800Z 03003MPS 360V080 9999 SCT040 33/23 Q1004 NOSIG
ZHCC,2023-08-13 09:00,ZHCC 130900Z 05003MPS 360V080 9999 SCT040 33/23 Q1003 NOSIG
ZHCC,2023-08-13 10:00,ZHCC 131000Z 04003MPS 9999 FEW040 32/23 Q1003 NOSIG
ZHCC,2023-08-13 11:00,ZHCC 131100Z 07004MPS CAVOK 31/23 Q1004 NOSIG
ZHCC,2023-08-13 12:00,ZHCC 131200Z 10003MPS CAVOK 29/24 Q1005 NOSIG
ZHCC,2023-08-13 13:00,ZHCC 131300Z 10002MPS 070V130 CAVOK 29/24 Q1006 NOSIG
ZHCC,2023-08-13 14:00,ZHCC 131400Z 08003MPS CAVOK 29/23 Q1006 NOSIG
ZHCC,2023-08-13 15:00,ZHCC 131500Z VRB01MPS CAVOK 27/24 Q1006 NOSIG
ZHCC,2023-08-13 16:00,ZHCC 131600Z VRB01MPS CAVOK 26/24 Q1006 NOSIG
ZHCC,2023-08-13 17:00,ZHCC 131700Z 11001MPS CAVOK 26/23 Q1006 NOSIG
ZHCC,2023-08-13 18:00,ZHCC 131800Z 26001MPS CAVOK 25/23 Q1006 NOSIG
ZHCC,2023-08-13 19:00,ZHCC 131900Z VRB01MPS 8000 NSC 24/23 Q1006 NOSIG
ZHCC,2023-08-13 20:00,ZHCC 132000Z 00000MPS 8000 NSC 23/23 Q1006 NOSIG
ZHCC,2023-08-13 21:00,ZHCC 132100Z 29001MPS 7000 NSC 23/22 Q1006 NOSIG
ZHCC,2023-08-13 22:00,ZHCC 132200Z VRB01MPS 5000 BR NSC 23/22 Q1007 NOSIG
ZHCC,2023-08-13 23:00,ZHCC 132300Z 28001MPS 6000 NSC 25/24 Q1007 NOSIG
ZHCC,2023-08-14 00:00,ZHCC 140000Z VRB01MPS CAVOK 28/23 Q1008 NOSIG
ZHCC,2023-08-14 01:00,ZHCC 140100Z 06002MPS 040V110 CAVOK 29/23 Q1008 NOSIG
ZHCC,2023-08-14 02:00,ZHCC 140200Z 07003MPS 030V100 9999 FEW040 30/21 Q1008 NOSIG
ZHCC,2023-08-14 03:00,ZHCC 140300Z 05003MPS 360V100 9999 FEW040 31/21 Q1008 NOSIG
ZHCC,2023-08-14 04:00,ZHCC 140400Z 06004MPS 020V110 9999 FEW040 32/21 Q1007 NOSIG
ZHCC,2023-08-14 05:00,ZHCC 140500Z 02003MPS 360V070 9999 FEW040 33/20 Q1007 NOSIG
ZHCC,2023-08-14 06:00,ZHCC 140600Z 05003MPS 340V100 9999 FEW040 33/20 Q1006 NOSIG
ZHCC,2023-08-14 07:00,ZHCC 140700Z 07003MPS 040V120 9999 SCT040 33/19 Q1006 NOSIG
ZHCC,2023-08-14 08:00,ZHCC 140800Z 04004MPS 010V080 9999 SCT040 34/19 Q1005 NOSIG
ZHCC,2023-08-14 09:00,ZHCC 140900Z 07003MPS 030V100 9999 FEW040 33/20 Q1005 NOSIG
ZHCC,2023-08-14 10:00,ZHCC 141000Z 06003MPS 030V120 CAVOK 33/21 Q1005 NOSIG
ZHCC,2023-08-14 11:00,ZHCC 141100Z 11003MPS CAVOK 30/22 Q1005 NOSIG
ZHCC,2023-08-14 12:00,ZHCC 141200Z 12002MPS CAVOK 28/22 Q1006 NOSIG
ZHCC,2023-08-14 13:00,ZHCC 141300Z 11002MPS 080V140 CAVOK 28/22 Q1007 NOSIG
ZHCC,2023-08-14 14:00,ZHCC 141400Z 12002MPS CAVOK 27/22 Q1007 NOSIG
ZHCC,2023-08-14 15:00,ZHCC 141500Z 12002MPS CAVOK 27/22 Q1007 NOSIG
ZHCC,2023-08-14 16:00,ZHCC 141600Z 00000MPS CAVOK 26/22 Q1007 NOSIG
ZHCC,2023-08-14 17:00,ZHCC 141700Z VRB01MPS CAVOK 25/22 Q1007 NOSIG
ZHCC,2023-08-14 18:00,ZHCC 141800Z 26001MPS CAVOK 25/22 Q1007 NOSIG
ZHCC,2023-08-14 19:00,ZHCC 141900Z 28001MPS CAVOK 24/22 Q1007 NOSIG
ZHCC,2023-08-14 20:00,ZHCC 142000Z 00000MPS 8000 NSC 24/22 Q1007 NOSIG
ZHCC,2023-08-14 21:00,ZHCC 142100Z VRB01MPS 8000 NSC 24/22 Q1007 NOSIG
ZHCC,2023-08-14 22:00,ZHCC 142200Z 24001MPS 6000 NSC 24/22 Q1008 NOSIG
ZHCC,2023-08-14 23:00,ZHCC 142300Z VRB01MPS 6000 NSC 25/23 Q1008 NOSIG
ZHCC,2023-08-15 00:00,ZHCC 150000Z VRB01MPS 6000 NSC 27/24 Q1008 NOSIG
ZHCC,2023-08-15 01:00,ZHCC 150100Z VRB01MPS 8000 NSC 29/22 Q1008 NOSIG
ZHCC,2023-08-15 02:00,ZHCC 150200Z VRB01MPS 9999 FEW030 31/24 Q1008 NOSIG
ZHCC,2023-08-15 03:00,ZHCC 150300Z 12002MPS 060V210 9999 SCT030 31/22 Q1008 NOSIG
ZHCC,2023-08-15 04:00,ZHCC 150400Z 11003MPS 080V210 9999 SCT030 32/22 Q1007 NOSIG
ZHCC,2023-08-15 05:00,ZHCC 150500Z 19002MPS 100V240 9999 SCT030 33/22 Q1007 NOSIG
ZHCC,2023-08-15 06:00,ZHCC 150600Z 14002MPS 080V210 9999 SCT033 33/22 Q1007 NOSIG
ZHCC,2023-08-15 07:00,ZHCC 150700Z VRB02MPS 9999 SCT040 34/21 Q1006 NOSIG
ZHCC,2023-08-15 08:00,ZHCC 150800Z VRB01MPS 9999 SCT040 34/21 Q1005 NOSIG
ZHCC,2023-08-15 09:00,ZHCC 150900Z VRB01MPS 9999 FEW040 34/21 Q1005 NOSIG
ZHCC,2023-08-15 10:00,ZHCC 151000Z 15002MPS 120V180 9999 FEW040 31/22 Q1005 NOSIG
ZHCC,2023-08-15 11:00,ZHCC 151100Z VRB01MPS CAVOK 30/22 Q1005 NOSIG
ZHCC,2023-08-15 12:00,ZHCC 151200Z 16001MPS CAVOK 29/22 Q1006 NOSIG
ZHCC,2023-08-15 13:00,ZHCC 151300Z 15001MPS CAVOK 28/22 Q1006 NOSIG
ZHCC,2023-08-15 14:00,ZHCC 151400Z VRB01MPS CAVOK 28/22 Q1006 NOSIG
ZHCC,2023-08-15 15:00,ZHCC 151500Z 17001MPS CAVOK 26/23 Q1007 NOSIG
ZHCC,2023-08-15 16:00,ZHCC 151600Z VRB01MPS CAVOK 27/22 Q1007 NOSIG
ZHCC,2023-08-15 17:00,ZHCC 151700Z 00000MPS CAVOK 26/23 Q1007 NOSIG
ZHCC,2023-08-15 18:00,ZHCC 151800Z VRB01MPS CAVOK 25/23 Q1006 NOSIG
ZHCC,2023-08-15 19:00,ZHCC 151900Z 00000MPS CAVOK 24/22 Q1006 NOSIG
ZHCC,2023-08-15 20:00,ZHCC 152000Z VRB01MPS CAVOK 24/22 Q1006 NOSIG
ZHCC,2023-08-15 21:00,ZHCC 152100Z 27001MPS CAVOK 24/22 Q1006 NOSIG
ZHCC,2023-08-15 22:00,ZHCC 152200Z 00000MPS 8000 NSC 23/22 Q1006 NOSIG
ZHCC,2023-08-15 23:00,ZHCC 152300Z VRB01MPS 6000 NSC 26/24 Q1006 NOSIG
ZHCC,2023-08-16 00:00,ZHCC 160000Z VRB01MPS CAVOK 29/23 Q1006 NOSIG
ZHCC,2023-08-16 01:00,ZHCC 160100Z 20002MPS 150V290 CAVOK 30/22 Q1006 NOSIG
ZHCC,2023-08-16 02:00,ZHCC 160200Z 27002MPS 240V320 CAVOK 32/22 Q1006 NOSIG
ZHCC,2023-08-16 03:00,ZHCC 160300Z VRB01MPS CAVOK 33/21 Q1006 NOSIG
ZHCC,2023-08-16 04:00,ZHCC 160400Z 18002MPS 110V240 CAVOK 33/23 Q1005 NOSIG
ZHCC,2023-08-16 05:00,ZHCC 160500Z VRB01MPS CAVOK 34/22 Q1005 NOSIG
ZHCC,2023-08-16 06:00,ZHCC 160600Z 21003MPS 170V280 CAVOK 34/22 Q1005 NOSIG
ZHCC,2023-08-16 07:00,ZHCC 160700Z 18002MPS 110V260 CAVOK 34/22 Q1004 NOSIG
ZHCC,2023-08-16 08:00,ZHCC 160800Z 20002MPS 140V240 CAVOK 34/21 Q1004 NOSIG
ZHCC,2023-08-16 09:00,ZHCC 160900Z 18002MPS 120V240 CAVOK 34/22 Q1004 NOSIG
ZHCC,2023-08-16 10:00,ZHCC 161000Z 16002MPS 110V210 CAVOK 33/22 Q1004 NOSIG
ZHCC,2023-08-16 11:00,ZHCC 161100Z VRB01MPS CAVOK 31/23 Q1004 NOSIG
ZHCC,2023-08-16 12:00,ZHCC 161200Z VRB01MPS CAVOK 30/23 Q1004 NOSIG
ZHCC,2023-08-16 13:00,ZHCC 161300Z VRB01MPS CAVOK 29/22 Q1005 NOSIG
ZHCC,2023-08-16 14:00,ZHCC 161400Z VRB01MPS CAVOK 29/22 Q1006 NOSIG
ZHCC,2023-08-16 15:00,ZHCC 161500Z VRB01MPS CAVOK 28/22 Q1005 NOSIG
ZHCC,2023-08-16 16:00,ZHCC 161600Z VRB01MPS CAVOK 26/23 Q1005 NOSIG
ZHCC,2023-08-16 17:00,ZHCC 161700Z VRB01MPS CAVOK 26/22 Q1005 NOSIG
ZHCC,2023-08-16 18:00,ZHCC 161800Z VRB01MPS CAVOK 27/22 Q1005 NOSIG
ZHCC,2023-08-16 19:00,ZHCC 161900Z VRB01MPS CAVOK 25/22 Q1005 NOSIG
ZHCC,2023-08-16 20:00,ZHCC 162000Z VRB01MPS CAVOK 25/22 Q1004 NOSIG
ZHCC,2023-08-16 21:00,ZHCC 162100Z VRB01MPS CAVOK 25/22 Q1005 NOSIG
ZHCC,2023-08-16 22:00,ZHCC 162200Z 22001MPS CAVOK 25/22 Q1005 NOSIG
ZHCC,2023-08-16 23:00,ZHCC 162300Z VRB01MPS CAVOK 28/22 Q1005 NOSIG
ZHCC,2023-08-17 00:00,ZHCC 170000Z 19002MPS 110V240 CAVOK 29/23 Q1006 NOSIG
ZHCC,2023-08-17 01:00,ZHCC 170100Z 20002MPS 140V250 8000 NSC 31/24 Q1006 NOSIG
ZHCC,2023-08-17 02:00,ZHCC 170200Z 18002MPS 120V220 CAVOK 32/23 Q1006 NOSIG
ZHCC,2023-08-17 03:00,ZHCC 170300Z 16002MPS 110V250 CAVOK 33/23 Q1006 NOSIG
ZHCC,2023-08-17 04:00,ZHCC 170400Z 17002MPS 110V270 CAVOK 34/23 Q1005 NOSIG
ZHCC,2023-08-17 05:00,ZHCC 170500Z 23002MPS 140V300 CAVOK 35/23 Q1005 NOSIG
ZHCC,2023-08-17 06:00,ZHCC 170600Z 22002MPS 150V290 CAVOK 35/24 Q1004 NOSIG
ZHCC,2023-08-17 07:00,ZHCC 170700Z VRB02MPS CAVOK 36/24 Q1004 NOSIG
ZHCC,2023-08-17 08:00,ZHCC 170800Z 14002MPS 110V170 CAVOK 35/24 Q1003 NOSIG
ZHCC,2023-08-17 09:00,ZHCC 170900Z 13002MPS CAVOK 34/24 Q1004 NOSIG
ZHCC,2023-08-17 10:00,ZHCC 171000Z 12003MPS CAVOK 33/25 Q1004 NOSIG
ZHCC,2023-08-17 11:00,ZHCC 171100Z 11002MPS CAVOK 31/25 Q1004 NOSIG
ZHCC,2023-08-17 12:00,ZHCC 171200Z 11002MPS CAVOK 30/25 Q1005 NOSIG
ZHCC,2023-08-17 13:00,ZHCC 171300Z 12002MPS CAVOK 30/25 Q1005 NOSIG
ZHCC,2023-08-17 14:00,ZHCC 171400Z VRB01MPS CAVOK 30/24 Q1006 NOSIG
ZHCC,2023-08-17 15:00,ZHCC 171500Z 10001MPS CAVOK 30/24 Q1006 NOSIG
ZHCC,2023-08-17 16:00,ZHCC 171600Z 27002MPS 220V290 CAVOK 29/24 Q1006 NOSIG
ZHCC,2023-08-17 17:00,ZHCC 171700Z 28002MPS CAVOK 28/25 Q1006 NOSIG
ZHCC,2023-08-17 18:00,ZHCC 171800Z 27001MPS CAVOK 28/25 Q1006 NOSIG
ZHCC,2023-08-17 19:00,ZHCC 171900Z 25001MPS CAVOK 28/25 Q1005 NOSIG
ZHCC,2023-08-17 20:00,ZHCC 172000Z 00000MPS 7000 NSC 28/25 Q1005 NOSIG
ZHCC,2023-08-17 21:00,ZHCC 172100Z 27001MPS 7000 NSC 28/26 Q1006 NOSIG
ZHCC,2023-08-17 22:00,ZHCC 172200Z 28001MPS 5000 BR FEW030CB BKN040 27/26 Q1006 BECMG TL2300 TSRA
ZHCC,2023-08-17 23:00,ZHCC 172300Z 27002MPS 5000 BR FEW030CB BKN040 28/25 Q1006 BECMG TL2350 TSRA
ZHCC,2023-08-18 00:00,ZHCC 180000Z 28002MPS 5000 -RA BR OVC040 27/25 Q1006 NOSIG
ZHCC,2023-08-18 01:00,ZHCC 180100Z 27002MPS 5000 BR FEW040 28/26 Q1007 NOSIG
ZHCC,2023-08-18 02:00,ZHCC 180200Z 24002MPS 210V280 CAVOK 31/25 Q1007 NOSIG
ZHCC,2023-08-18 03:00,ZHCC 180300Z 22002MPS 140V300 CAVOK 32/25 Q1007 NOSIG
ZHCC,2023-08-18 04:00,ZHCC 180400Z VRB02MPS CAVOK 33/24 Q1006 NOSIG
ZHCC,2023-08-18 05:00,ZHCC 180500Z 14002MPS 100V190 9999 BKN040 32/26 Q1006 NOSIG
ZHCC,2023-08-18 06:00,ZHCC 180600Z 13002MPS 080V190 7000 BKN040 32/26 Q1006 NOSIG
ZHCC,2023-08-18 07:00,ZHCC 180700Z 13002MPS 080V180 8000 FEW030CB BKN040 33/25 Q1005 BECMG TL0740 2000 TSRA
ZHCC,2023-08-18 08:00,ZHCC 180800Z 10002MPS 070V150 5000 -TSRA FEW030CB BKN040 30/26 Q1005 RESHRA BECMG TL0840 -SHRA
ZHCC,2023-08-18 09:00,ZHCC 180900Z VRB01MPS 8000 OVC040 30/27 Q1005 RETS NOSIG
ZHCC,2023-08-18 10:00,ZHCC 181000Z 14001MPS 9999 SCT040 30/26 Q1005 NOSIG
ZHCC,2023-08-18 11:00,ZHCC 181100Z 14001MPS 9999 SCT040 30/26 Q1006 NOSIG
ZHCC,2023-08-18 12:00,ZHCC 181200Z VRB01MPS 9999 SCT040 29/25 Q1006 NOSIG
ZHCC,2023-08-18 13:00,ZHCC 181300Z 13001MPS 9999 SCT040 28/25 Q1007 NOSIG
ZHCC,2023-08-18 14:00,ZHCC 181400Z VRB01MPS 9999 SCT040 29/25 Q1007 NOSIG
ZHCC,2023-08-18 15:00,ZHCC 181500Z 06003MPS 9999 SCT040 28/24 Q1008 NOSIG
ZHCC,2023-08-18 16:00,ZHCC 181600Z 11002MPS 9999 SCT040 27/25 Q1008 NOSIG
ZHCC,2023-08-18 17:00,ZHCC 181700Z 05001MPS 9999 SCT040 27/24 Q1008 BECMG TL1740 TSRA FEW030CB BKN030
ZHCC,2023-08-18 18:00,ZHCC 181800Z 35003MPS 320V020 9999 FEW030CB SCT040 27/24 Q1008 NOSIG
ZHCC,2023-08-18 19:00,ZHCC 181900Z 29002MPS 280V340 7000 SHRA FEW030CB BKN030 27/25 Q1008 BECMG TL1940 -SHRA
ZHCC,2023-08-18 20:00,ZHCC 182000Z 14002MPS 100V190 5000 SHRA FEW030CB BKN030 26/25 Q1008 BECMG TL2040 -SHRA
ZHCC,2023-08-18 21:00,ZHCC 182100Z VRB01MPS 6000 SHRA FEW030CB BKN030 25/23 Q1008 BECMG TL2140 -SHRA
ZHCC,2023-08-18 22:00,ZHCC 182200Z 05003MPS 5000 BR OVC030 26/25 Q1008 RESHRA NOSIG
ZHCC,2023-08-18 23:00,ZHCC 182300Z 05002MPS 2500 BR FEW030CB BKN030 26/25 Q1009 BECMG TL0040 3000
ZHCC,2023-08-19 00:00,ZHCC 190000Z 10001MPS 2500 -SHRA BR FEW030CB BKN030 26/25 Q1009 BECMG TL0140 3000
ZHCC,2023-08-19 01:00,ZHCC 190100Z VRB01MPS 3500 BR FEW030CB BKN030 27/26 Q1010 NOSIG
ZHCC,2023-08-19 02:00,ZHCC 190200Z VRB01MPS 4500 BR OVC040 28/25 Q1010 NOSIG
ZHCC,2023-08-19 03:00,ZHCC 190300Z 23002MPS 140V270 5000 BR FEW015 OVC040 28/25 Q1010 NOSIG
ZHCC,2023-08-19 04:00,ZHCC 190400Z VRB01MPS 5000 BR FEW015 29/26 Q1010 NOSIG
ZHCC,2023-08-19 05:00,ZHCC 190500Z VRB01MPS 6000 NSC 30/25 Q1009 NOSIG
ZHCC,2023-08-19 06:00,ZHCC 190600Z VRB02MPS CAVOK 32/24 Q1009 NOSIG
ZHCC,2023-08-19 07:00,ZHCC 190700Z VRB01MPS CAVOK 32/24 Q1008 NOSIG
ZHCC,2023-08-19 08:00,ZHCC 190800Z 08007MPS 9999 FEW030CB BKN040 29/24 Q1008 BECMG TL0815 2000 +TSRA
ZHCC,2023-08-19 09:00,ZHCC 190900Z 06004MPS 9999 -SHRA OVC040 27/23 Q1008 RETS NOSIG
ZHCC,2023-08-19 10:00,ZHCC 191000Z 29002MPS 9999 -SHRA OVC040 26/24 Q1008 NOSIG
ZHCC,2023-08-19 11:00,ZHCC 191100Z 30003MPS 5000 -SHRA BR OVC040 26/25 Q1008 NOSIG
ZHCC,2023-08-19 12:00,ZHCC 191200Z 30002MPS 7000 -SHRA OVC040 26/25 Q1009 NOSIG
ZHCC,2023-08-19 13:00,ZHCC 191300Z VRB01MPS 7000 NSC 26/25 Q1010 NOSIG
ZHCC,2023-08-19 14:00,ZHCC 191400Z 28002MPS 7000 NSC 26/25 Q1010 NOSIG
ZHCC,2023-08-19 15:00,ZHCC 191500Z VRB01MPS 7000 NSC 26/25 Q1010 NOSIG
ZHCC,2023-08-19 16:00,ZHCC 191600Z VRB01MPS 6000 NSC 26/25 Q1010 NOSIG
ZHCC,2023-08-19 17:00,ZHCC 191700Z 00000MPS 6000 NSC 26/25 Q1009 NOSIG
ZHCC,2023-08-19 18:00,ZHCC 191800Z 00000MPS 5000 BR NSC 25/25 Q1009 NOSIG
ZHCC,2023-08-19 19:00,ZHCC 191900Z 05002MPS 5000 BR NSC 26/25 Q1009 NOSIG
ZHCC,2023-08-19 20:00,ZHCC 192000Z 05002MPS 020V080 5000 BR NSC 26/24 Q1009 NOSIG
ZHCC,2023-08-19 22:00,ZHCC 192200Z 04002MPS 3000 BR NSC 26/25 Q1009 BECMG TL2340 2500
ZHCC,2023-08-19 23:00,ZHCC 192300Z 04002MPS 2800 BR NSC 27/25 Q1010 BECMG TL0040 3000
ZHCC,2023-08-20 00:00,ZHCC 200000Z 07002MPS 3500 BR NSC 27/25 Q1010 NOSIG
ZHCC,2023-08-20 01:00,ZHCC 200100Z 10003MPS 7000 NSC 28/24 Q1010 NOSIG
ZHCC,2023-08-20 02:00,ZHCC 200200Z 11003MPS 080V150 CAVOK 29/24 Q1010 NOSIG
ZHCC,2023-08-20 03:00,ZHCC 200300Z 12002MPS 070V160 8000 BKN040 29/25 Q1010 NOSIG
ZHCC,2023-08-20 04:00,ZHCC 200400Z VRB01MPS 9999 BKN040 29/24 Q1010 NOSIG
ZHCC,2023-08-20 05:00,ZHCC 200500Z 06003MPS 010V100 9999 BKN040 29/24 Q1009 NOSIG
ZHCC,2023-08-20 06:00,ZHCC 200600Z 04002MPS CAVOK 29/24 Q1008 NOSIG
ZHCC,2023-08-20 07:00,ZHCC 200700Z 03003MPS 350V070 CAVOK 30/24 Q1008 NOSIG
ZHCC,2023-08-20 08:00,ZHCC 200800Z 04003MPS 350V080 CAVOK 30/25 Q1007 NOSIG
ZHCC,2023-08-20 09:00,ZHCC 200900Z 02003MPS 340V050 7000 NSC 29/24 Q1007 NOSIG
ZHCC,2023-08-20 10:00,ZHCC 201000Z 03003MPS 350V050 7000 NSC 29/25 Q1006 NOSIG
ZHCC,2023-08-20 11:00,ZHCC 201100Z 01003MPS 7000 -RA SCT040 28/25 Q1007 NOSIG
ZHCC,2023-08-20 12:00,ZHCC 201200Z 01003MPS 330V050 7000 -RA SCT040 27/25 Q1007 NOSIG
ZHCC,2023-08-20 13:00,ZHCC 201300Z 02003MPS 6000 -RA SCT040 27/25 Q1008 NOSIG
ZHCC,2023-08-20 14:00,ZHCC 201400Z 03004MPS 360V070 6000 -RA OVC040 26/25 Q1008 NOSIG
ZHCC,2023-08-20 15:00,ZHCC 201500Z 02002MPS 350V060 4000 -RA BR OVC040 26/25 Q1008 NOSIG
ZHCC,2023-08-20 16:00,ZHCC 201600Z 06003MPS 020V080 8000 -RA OVC040 25/24 Q1007 NOSIG
ZHCC,2023-08-20 17:00,ZHCC 201700Z 08003MPS 8000 FEW015 24/24 Q1006 NOSIG
ZHCC,2023-08-20 18:00,ZHCC 201800Z 11002MPS 080V140 CAVOK 24/23 Q1006 NOSIG
ZHCC,2023-08-20 19:00,ZHCC 201900Z 29001MPS CAVOK 24/23 Q1005 NOSIG
ZHCC,2023-08-20 20:00,ZHCC 202000Z 27002MPS 5000 -RA BR OVC040 24/24 Q1005 NOSIG
ZHCC,2023-08-20 21:00,ZHCC 202100Z 31003MPS 3500 -RA BR OVC040 24/24 Q1005 BECMG TL2240 2500
ZHCC,2023-08-20 22:00,ZHCC 202200Z 31003MPS 3000 RA BR OVC040 24/24 Q1005 BECMG TL2240 2000 -RA
ZHCC,2023-08-20 23:00,ZHCC 202300Z 26001MPS 2500 -RA BR OVC040 24/24 Q1005 RERA NOSIG
ZHCC,2023-08-21 00:00,ZHCC 210000Z 28002MPS 2500 -RA BR OVC040 24/24 Q1006 BECMG TL0100 4000
ZHCC,2023-08-21 01:00,ZHCC 210100Z 28002MPS 5000 -RA BR OVC040 25/24 Q1006 NOSIG
ZHCC,2023-08-21 02:00,ZHCC 210200Z 30003MPS 6000 -RA FEW015 OVC040 26/24 Q1006 NOSIG
ZHCC,2023-08-21 03:00,ZHCC 210300Z 29003MPS CAVOK 28/23 Q1005 NOSIG
ZHCC,2023-08-21 04:00,ZHCC 210400Z 30003MPS 260V340 CAVOK 29/23 Q1005 NOSIG
ZHCC,2023-08-21 05:00,ZHCC 210500Z 30003MPS 250V350 9999 FEW040 31/22 Q1004 NOSIG
ZHCC,2023-08-21 06:00,ZHCC 210600Z 28003MPS 230V330 9999 FEW040 32/22 Q1003 NOSIG
ZHCC,2023-08-21 07:00,ZHCC 210700Z VRB03MPS 9999 FEW040 32/22 Q1003 NOSIG
ZHCC,2023-08-21 08:00,ZHCC 210800Z 28002MPS 210V330 CAVOK 33/22 Q1002 NOSIG
ZHCC,2023-08-21 09:00,ZHCC 210900Z 26002MPS 230V290 CAVOK 33/22 Q1002 NOSIG
ZHCC,2023-08-21 10:00,ZHCC 211000Z 21002MPS 160V270 CAVOK 32/22 Q1002 NOSIG
ZHCC,2023-08-21 11:00,ZHCC 211100Z 21001MPS CAVOK 30/23 Q1003 NOSIG
ZHCC,2023-08-21 12:00,ZHCC 211200Z VRB01MPS CAVOK 28/24 Q1003 NOSIG
ZHCC,2023-08-21 13:00,ZHCC 211300Z 12002MPS CAVOK 27/24 Q1004 NOSIG
ZHCC,2023-08-21 14:00,ZHCC 211400Z 05003MPS 020V100 CAVOK 28/24 Q1005 NOSIG
ZHCC,2023-08-21 15:00,ZHCC 211500Z VRB01MPS CAVOK 27/24 Q1004 NOSIG
ZHCC,2023-08-21 16:00,ZHCC 211600Z 12001MPS CAVOK 26/24 Q1005 NOSIG
ZHCC,2023-08-21 17:00,ZHCC 211700Z VRB01MPS 7000 NSC 26/24 Q1005 NOSIG
ZHCC,2023-08-21 18:00,ZHCC 211800Z VRB01MPS 6000 NSC 25/24 Q1004 NOSIG
ZHCC,2023-08-21 19:00,ZHCC 211900Z 25001MPS 6000 NSC 24/24 Q1004 NOSIG
ZHCC,2023-08-21 20:00,ZHCC 212000Z 31001MPS 5000 BR NSC 24/24 Q1004 NOSIG
ZHCC,2023-08-21 21:00,ZHCC 212100Z VRB01MPS 4000 BR NSC 24/24 Q1004 BECMG TL2240 2000
ZHCC,2023-08-21 22:00,ZHCC 212200Z VRB01MPS 2000 PRFG BR NSC 23/23 Q1004 NOSIG
ZHCC,2023-08-21 23:00,ZHCC 212300Z 12001MPS 4000 BR NSC 25/24 Q1005 NOSIG
ZHCC,2023-08-22 00:00,ZHCC 220000Z VRB01MPS 7000 NSC 27/22 Q1005 NOSIG
ZHCC,2023-08-22 01:00,ZHCC 220100Z 02002MPS 340V060 CAVOK 29/22 Q1005 NOSIG
ZHCC,2023-08-22 02:00,ZHCC 220200Z 01002MPS 330V060 CAVOK 30/23 Q1005 NOSIG
ZHCC,2023-08-22 03:00,ZHCC 220300Z 04002MPS 330V090 CAVOK 31/22 Q1005 NOSIG
ZHCC,2023-08-22 04:00,ZHCC 220400Z VRB02MPS CAVOK 32/22 Q1005 NOSIG
ZHCC,2023-08-22 05:00,ZHCC 220500Z VRB02MPS CAVOK 33/23 Q1005 NOSIG
ZHCC,2023-08-22 06:00,ZHCC 220600Z 11003MPS 050V150 CAVOK 33/24 Q1005 NOSIG
ZHCC,2023-08-22 07:00,ZHCC 220700Z VRB02MPS 9999 FEW040 33/23 Q1004 NOSIG
ZHCC,2023-08-22 08:00,ZHCC 220800Z 12003MPS 090V150 9999 FEW040 33/24 Q1004 NOSIG
ZHCC,2023-08-22 09:00,ZHCC 220900Z 13002MPS 080V170 9999 FEW040 33/23 Q1004 NOSIG
ZHCC,2023-08-22 10:00,ZHCC 221000Z 11003MPS 080V140 CAVOK 31/23 Q1004 NOSIG
ZHCC,2023-08-22 11:00,ZHCC 221100Z 14001MPS CAVOK 30/23 Q1004 NOSIG
ZHCC,2023-08-22 12:00,ZHCC 221200Z 12002MPS CAVOK 28/23 Q1005 NOSIG
ZHCC,2023-08-22 13:00,ZHCC 221300Z 13002MPS CAVOK 27/23 Q1006 NOSIG
ZHCC,2023-08-22 14:00,ZHCC 221400Z VRB01MPS CAVOK 28/23 Q1007 NOSIG
ZHCC,2023-08-22 15:00,ZHCC 221500Z 11002MPS CAVOK 27/23 Q1007 NOSIG
ZHCC,2023-08-22 16:00,ZHCC 221600Z 01004MPS CAVOK 28/22 Q1008 NOSIG
ZHCC,2023-08-22 17:00,ZHCC 221700Z 33002MPS 270V010 CAVOK 26/19 Q1007 NOSIG
ZHCC,2023-08-22 18:00,ZHCC 221800Z VRB01MPS CAVOK 24/18 Q1006 NOSIG
ZHCC,2023-08-22 19:00,ZHCC 221900Z 26002MPS CAVOK 24/19 Q1007 NOSIG
ZHCC,2023-08-22 20:00,ZHCC 222000Z 26002MPS CAVOK 24/20 Q1007 NOSIG
ZHCC,2023-08-22 21:00,ZHCC 222100Z VRB01MPS CAVOK 24/20 Q1007 NOSIG
ZHCC,2023-08-22 22:00,ZHCC 222200Z 32001MPS CAVOK 23/20 Q1007 NOSIG
ZHCC,2023-08-22 23:00,ZHCC 222300Z 00000MPS CAVOK 25/20 Q1008 NOSIG
ZHCC,2023-08-23 00:00,ZHCC 230000Z 05003MPS 030V090 CAVOK 27/18 Q1008 NOSIG
ZHCC,2023-08-23 01:00,ZHCC 230100Z 08003MPS CAVOK 28/18 Q1008 NOSIG
ZHCC,2023-08-23 02:00,ZHCC 230200Z 10003MPS 070V150 CAVOK 29/20 Q1008 NOSIG
ZHCC,2023-08-23 03:00,ZHCC 230300Z VRB02MPS CAVOK 31/23 Q1008 NOSIG
ZHCC,2023-08-23 04:00,ZHCC 230400Z 22002MPS 150V320 9999 SCT030 31/22 Q1008 NOSIG
ZHCC,2023-08-23 05:00,ZHCC 230500Z 14002MPS 100V210 9999 SCT040 32/22 Q1008 NOSIG
ZHCC,2023-08-23 06:00,ZHCC 230600Z 12002MPS 080V210 9999 SCT046 33/21 Q1007 NOSIG
ZHCC,2023-08-23 07:00,ZHCC 230700Z 13002MPS 090V170 9999 SCT046 32/22 Q1006 NOSIG
ZHCC,2023-08-23 08:00,ZHCC 230800Z 15002MPS 100V200 CAVOK 31/23 Q1006 NOSIG
ZHCC,2023-08-23 09:00,ZHCC 230900Z 14002MPS 100V180 CAVOK 32/23 Q1006 NOSIG
ZHCC,2023-08-23 10:00,ZHCC 231000Z VRB01MPS CAVOK 30/23 Q1006 NOSIG
ZHCC,2023-08-23 11:00,ZHCC 231100Z 13002MPS CAVOK 29/22 Q1006 NOSIG
ZHCC,2023-08-23 12:00,ZHCC 231200Z 13001MPS CAVOK 29/23 Q1007 NOSIG
ZHCC,2023-08-23 13:00,ZHCC 231300Z 31006MPS 9999 FEW030CB BKN040 26/18 Q1009 NOSIG
ZHCC,2023-08-23 14:00,ZHCC 231400Z 33006MPS 9999 FEW030CB BKN040 25/18 Q1009 NOSIG
ZHCC,2023-08-23 15:00,ZHCC 231500Z 30005MPS 9999 FEW030CB BKN040 24/18 Q1010 BECMG TL1540 TSRA
ZHCC,2023-08-23 16:00,ZHCC 231600Z 30004MPS 9999 -SHRA FEW030CB BKN040 22/19 Q1011 BECMG TL1630 TSRA
ZHCC,2023-08-23 17:00,ZHCC 231700Z 30005MPS 9999 -TSRA FEW030CB BKN040 21/19 Q1010 BECMG TL1730 SHRA
ZHCC,2023-08-23 18:00,ZHCC 231800Z 21002G08MPS 110V260 9999 -SHRA FEW015 BKN040 22/20 Q1011 RETS NOSIG
ZHCC,2023-08-23 19:00,ZHCC 231900Z 06006MPS 9999 -SHRA FEW015 BKN040 21/20 Q1009 NOSIG
ZHCC,2023-08-23 20:00,ZHCC 232000Z 04004MPS CAVOK 21/19 Q1009 NOSIG
ZHCC,2023-08-23 21:00,ZHCC 232100Z 33003MPS 300V010 6000 +TSRA SCT030CB BKN046 20/20 Q1010 NOSIG
ZHCC,2023-08-23 22:00,ZHCC 232200Z VRB01MPS 8000 -RA FEW010 21/20 Q1011 RETSRA NOSIG
ZHCC,2023-08-23 23:00,ZHCC 232300Z VRB01MPS 8000 NSC 21/20 Q1011 NOSIG
ZHCC,2023-08-24 00:00,ZHCC 240000Z 03002MPS 350V080 CAVOK 22/20 Q1012 NOSIG
ZHCC,2023-08-24 01:00,ZHCC 240100Z 05002MPS 330V100 9999 FEW030 24/20 Q1012 NOSIG
ZHCC,2023-08-24 02:00,ZHCC 240200Z 36002MPS 310V100 9999 FEW030 26/20 Q1012 NOSIG
ZHCC,2023-08-24 03:00,ZHCC 240300Z 07003MPS 020V120 9999 SCT030 27/19 Q1012 NOSIG
ZHCC,2023-08-24 04:00,ZHCC 240400Z VRB02MPS 9999 SCT030 28/19 Q1012 NOSIG
ZHCC,2023-08-24 05:00,ZHCC 240500Z 31003MPS 230V010 9999 SCT040 29/20 Q1011 NOSIG
ZHCC,2023-08-24 06:00,ZHCC 240600Z VRB02MPS 9999 FEW040 30/20 Q1011 NOSIG
ZHCC,2023-08-24 07:00,ZHCC 240700Z 27002MPS 200V320 9999 FEW040 30/19 Q1010 NOSIG
ZHCC,2023-08-24 08:00,ZHCC 240800Z 32002MPS 280V020 9999 FEW040 31/19 Q1010 NOSIG
ZHCC,2023-08-24 09:00,ZHCC 240900Z VRB01MPS CAVOK 30/19 Q1009 NOSIG
ZHCC,2023-08-24 10:00,ZHCC 241000Z VRB01MPS CAVOK 29/21 Q1009 NOSIG
ZHCC,2023-08-24 11:00,ZHCC 241100Z 12002MPS CAVOK 26/20 Q1009 NOSIG
ZHCC,2023-08-24 12:00,ZHCC 241200Z VRB01MPS CAVOK 25/21 Q1010 NOSIG
ZHCC,2023-08-24 13:00,ZHCC 241300Z VRB01MPS CAVOK 24/21 Q1011 NOSIG
ZHCC,2023-08-24 14:00,ZHCC 241400Z 11002MPS CAVOK 25/21 Q1011 NOSIG
ZHCC,2023-08-24 15:00,ZHCC 241500Z VRB01MPS CAVOK 24/21 Q1011 NOSIG
ZHCC,2023-08-24 16:00,ZHCC 241600Z VRB01MPS CAVOK 24/21 Q1011 NOSIG
ZHCC,2023-08-24 17:00,ZHCC 241700Z 00000MPS CAVOK 23/21 Q1011 NOSIG
ZHCC,2023-08-24 18:00,ZHCC 241800Z 22001MPS CAVOK 22/21 Q1011 NOSIG
ZHCC,2023-08-24 19:00,ZHCC 241900Z 00000MPS CAVOK 22/21 Q1011 NOSIG
ZHCC,2023-08-24 20:00,ZHCC 242000Z 29001MPS CAVOK 21/20 Q1011 NOSIG
ZHCC,2023-08-24 21:00,ZHCC 242100Z 00000MPS 8000 NSC 21/21 Q1011 NOSIG
ZHCC,2023-08-24 22:00,ZHCC 242200Z 13001MPS 6000 NSC 21/20 Q1011 NOSIG
ZHCC,2023-08-24 23:00,ZHCC 242300Z VRB01MPS 6000 NSC 24/21 Q1012 NOSIG
ZHCC,2023-08-25 00:00,ZHCC 250000Z 10002MPS 5000 BR NSC 25/22 Q1012 NOSIG
ZHCC,2023-08-25 01:00,ZHCC 250100Z 06004MPS 030V150 6000 NSC 26/22 Q1012 NOSIG
ZHCC,2023-08-25 02:00,ZHCC 250200Z 10003MPS 070V140 9999 FEW030 27/21 Q1012 NOSIG
ZHCC,2023-08-25 03:00,ZHCC 250300Z 10003MPS 080V150 9999 FEW030 27/21 Q1012 NOSIG
ZHCC,2023-08-25 04:00,ZHCC 250400Z 10004MPS 060V130 9999 FEW030 28/20 Q1011 NOSIG
ZHCC,2023-08-25 05:00,ZHCC 250500Z 10003MPS 050V140 9999 FEW030 28/20 Q1011 NOSIG
ZHCC,2023-08-25 06:00,ZHCC 250600Z 14002MPS 110V180 9999 FEW030 28/20 Q1010 NOSIG
ZHCC,2023-08-25 07:00,ZHCC 250700Z 10003MPS 040V150 CAVOK 28/20 Q1010 NOSIG
ZHCC,2023-08-25 08:00,ZHCC 250800Z 09003MPS 050V160 CAVOK 28/20 Q1009 NOSIG
ZHCC,2023-08-25 09:00,ZHCC 250900Z 08003MPS 060V120 CAVOK 28/20 Q1009 NOSIG
ZHCC,2023-08-25 10:00,ZHCC 251000Z 06004MPS CAVOK 27/20 Q1009 NOSIG
ZHCC,2023-08-25 11:00,ZHCC 251100Z 07004MPS CAVOK 27/20 Q1009 NOSIG
ZHCC,2023-08-25 12:00,ZHCC 251200Z 09004MPS CAVOK 27/20 Q1009 NOSIG
ZHCC,2023-08-25 13:00,ZHCC 251300Z 07003MPS CAVOK 27/19 Q1010 NOSIG
ZHCC,2023-08-25 14:00,ZHCC 251400Z 10003MPS CAVOK 25/20 Q1010 NOSIG
ZHCC,2023-08-25 15:00,ZHCC 251500Z 12002MPS CAVOK 25/21 Q1010 NOSIG
ZHCC,2023-08-25 16:00,ZHCC 251600Z 10003MPS CAVOK 25/20 Q1010 NOSIG
ZHCC,2023-08-25 17:00,ZHCC 251700Z 06003MPS CAVOK 26/20 Q1009 NOSIG
ZHCC,2023-08-25 18:00,ZHCC 251800Z 08004MPS CAVOK 26/20 Q1009 NOSIG
ZHCC,2023-08-25 19:00,ZHCC 251900Z 07004MPS CAVOK 25/20 Q1008 NOSIG
ZHCC,2023-08-25 20:00,ZHCC 252000Z 08004MPS 9999 -SHRA FEW033CB BKN040 24/21 Q1008 NOSIG
ZHCC,2023-08-25 21:00,ZHCC 252100Z 10002MPS 6000 -SHRA FEW033CB BKN040 23/21 Q1008 RESHRA NOSIG
ZHCC,2023-08-25 22:00,ZHCC 252200Z VRB01MPS 5000 -SHRA FEW033CB BKN040 23/22 Q1009 NOSIG
ZHCC,2023-08-25 23:00,ZHCC 252300Z VRB01MPS 4000 -SHRA BR FEW015 FEW026CB BKN030 23/22 Q1010 BECMG TL0040 2500
ZHCC,2023-08-26 00:00,ZHCC 260000Z 01003MPS 340V060 2000 -SHRA BR FEW015 FEW026CB BKN030 23/22 Q1009 BECMG TL0140 3000
ZHCC,2023-08-26 01:00,ZHCC 260100Z 09003MPS 2000 -SHRA BR SCT015 FEW026CB BKN030 23/22 Q1010 NOSIG
ZHCC,2023-08-26 02:00,ZHCC 260200Z 02004MPS 3500 BR SCT015 FEW026CB BKN030 22/21 Q1010 NOSIG
ZHCC,2023-08-26 03:00,ZHCC 260300Z 04004MPS 6000 SCT009 OVC030 22/21 Q1010 NOSIG
ZHCC,2023-08-26 04:00,ZHCC 260400Z 03004MPS 350V050 5000 -SHRA BR SCT007 OVC030 22/21 Q1009 NOSIG
ZHCC,2023-08-26 05:00,ZHCC 260500Z 04004MPS 4000 -SHRA BR SCT007 OVC030 22/21 Q1009 NOSIG
ZHCC,2023-08-26 06:00,ZHCC 260600Z 04004MPS 4000 -SHRA BR SCT007 OVC030 21/21 Q1009 NOSIG
ZHCC,2023-08-26 07:00,ZHCC 260700Z 04005MPS 4000 SHRA SCT007 OVC030 21/20 Q1009 BECMG TL0840 -SHRA
ZHCC,2023-08-26 08:00,ZHCC 260800Z 03005MPS 360V060 6000 -SHRA SCT007 OVC030 21/20 Q1008 RESHRA BECMG TL0940 SHRA
ZHCC,2023-08-26 09:00,ZHCC 260900Z 02004MPS 350V060 3500 +SHRA SCT006 OVC030 20/20 Q1009 BECMG TL0940 1300
ZHCC,2023-08-26 10:00,ZHCC 261000Z 02005MPS 4000 SHRA BR SCT006 OVC030 20/20 Q1008 NOSIG
ZHCC,2023-08-26 11:00,ZHCC 261100Z 04005MPS 4000 SHRA BR SCT006 OVC030 20/20 Q1009 NOSIG
ZHCC,2023-08-26 12:00,ZHCC 261200Z 04005MPS 7000 SHRA SCT006 OVC030 20/20 Q1009 NOSIG
ZHCC,2023-08-26 13:00,ZHCC 261300Z 03005MPS 7000 SHRA SCT006 OVC030 20/19 Q1010 NOSIG
ZHCC,2023-08-26 14:00,ZHCC 261400Z 03004MPS 360V070 7000 SHRA SCT006 OVC030 20/19 Q1010 NOSIG
ZHCC,2023-08-26 15:00,ZHCC 261500Z 02003MPS 7000 SHRA SCT006 OVC030 20/19 Q1010 BECMG TL1640 -SHRA
ZHCC,2023-08-26 16:00,ZHCC 261600Z 02005MPS 350V050 7000 SHRA SCT006 OVC030 19/19 Q1009 NOSIG
ZHCC,2023-08-26 17:00,ZHCC 261700Z 02005MPS 7000 SHRA SCT006 OVC030 19/18 Q1009 NOSIG
ZHCC,2023-08-26 18:00,ZHCC 261800Z 02005MPS 7000 SHRA SCT006 OVC030 18/18 Q1008 NOSIG
ZHCC,2023-08-26 19:00,ZHCC 261900Z 02006MPS 7000 +SHRA SCT006 OVC030 18/17 Q1008 NOSIG
ZHCC,2023-08-26 20:00,ZHCC 262000Z 02006MPS 7000 +SHRA SCT006 OVC030 18/17 Q1008 NOSIG
ZHCC,2023-08-26 21:00,ZHCC 262100Z 01006G11MPS 7000 SHRA SCT006 OVC030 18/18 Q1007 NOSIG
ZHCC,2023-08-26 22:00,ZHCC 262200Z 01007MPS 7000 SHRA SCT006 OVC030 18/17 Q1007 NOSIG
ZHCC,2023-08-26 23:00,ZHCC 262300Z 01006MPS 3000 +SHRA BR SCT006 OVC030 18/17 Q1008 NOSIG
ZHCC,2023-08-27 00:00,ZHCC 270000Z 02006MPS 350V050 5000 +SHRA BR SCT006 OVC030 18/18 Q1008 NOSIG
ZHCC,2023-08-27 01:00,ZHCC 270100Z 02006MPS 6000 SHRA SCT006 OVC030 18/18 Q1009 NOSIG
ZHCC,2023-08-27 02:00,ZHCC 270200Z 02007G12MPS 8000 +SHRA SCT006 OVC030 19/18 Q1009 BECMG TL0230 SHRA
ZHCC,2023-08-27 03:00,ZHCC 270300Z 02007MPS 9999 -SHRA SCT008 OVC030 19/18 Q1009 RESHRA NOSIG
ZHCC,2023-08-27 04:00,ZHCC 270400Z 02007MPS 9999 -RA SCT008 OVC030 19/18 Q1008 NOSIG
ZHCC,2023-08-27 05:00,ZHCC 270500Z 02007MPS 9999 -RA SCT008 OVC030 19/18 Q1008 NOSIG
ZHCC,2023-08-27 06:00,ZHCC 270600Z 01007MPS 9999 -RA SCT008 OVC030 19/18 Q1008 NOSIG
ZHCC,2023-08-27 07:00,ZHCC 270700Z 02007G12MPS 9999 SCT010 OVC030 20/18 Q1008 NOSIG
ZHCC,2023-08-27 08:00,ZHCC 270800Z 02006MPS 9999 SCT010 OVC030 20/18 Q1008 NOSIG
ZHCC,2023-08-27 09:00,ZHCC 270900Z 02007MPS 9999 SCT015 OVC030 20/17 Q1008 NOSIG
ZHCC,2023-08-27 10:00,ZHCC 271000Z 01005MPS 9999 SCT015 OVC030 20/17 Q1009 NOSIG
ZHCC,2023-08-27 11:00,ZHCC 271100Z 01007MPS 9999 SCT015 OVC030 20/17 Q1009 NOSIG
ZHCC,2023-08-27 12:00,ZHCC 271200Z 01006MPS 9999 OVC020 20/17 Q1010 NOSIG
ZHCC,2023-08-27 13:00,ZHCC 271300Z 01007MPS 9999 OVC033 20/17 Q1010 NOSIG
ZHCC,2023-08-27 14:00,ZHCC 271400Z 36006MPS CAVOK 20/16 Q1010 NOSIG
ZHCC,2023-08-27 15:00,ZHCC 271500Z 36005MPS 9999 BKN033 20/16 Q1010 NOSIG
ZHCC,2023-08-27 16:00,ZHCC 271600Z 36005MPS CAVOK 20/16 Q1010 NOSIG
ZHCC,2023-08-27 17:00,ZHCC 271700Z 34005MPS CAVOK 19/15 Q1010 NOSIG
ZHCC,2023-08-27 18:00,ZHCC 271800Z 35003MPS 320V020 CAVOK 19/15 Q1010 NOSIG
ZHCC,2023-08-27 19:00,ZHCC 271900Z 32004MPS CAVOK 18/16 Q1009 NOSIG
ZHCC,2023-08-27 20:00,ZHCC 272000Z 32004MPS CAVOK 18/15 Q1009 NOSIG
ZHCC,2023-08-27 21:00,ZHCC 272100Z 32004MPS CAVOK 19/16 Q1009 NOSIG
ZHCC,2023-08-27 22:00,ZHCC 272200Z 33004MPS CAVOK 19/16 Q1009 NOSIG
ZHCC,2023-08-27 23:00,ZHCC 272300Z 33005MPS CAVOK 20/16 Q1010 NOSIG
ZHCC,2023-08-28 00:00,ZHCC 280000Z 33004MPS 9999 SCT033 22/17 Q1010 NOSIG
ZHCC,2023-08-28 01:00,ZHCC 280100Z 36006G15MPS 330V060 CAVOK 24/17 Q1010 NOSIG
ZHCC,2023-08-28 02:00,ZHCC 280200Z 35007MPS 320V020 9999 FEW040 25/17 Q1010 NOSIG
ZHCC,2023-08-28 03:00,ZHCC 280300Z 36007MPS 9999 BKN030 25/17 Q1010 NOSIG
ZHCC,2023-08-28 04:00,ZHCC 280400Z 34007MPS 9999 BKN040 26/17 Q1010 NOSIG
ZHCC,2023-08-28 05:00,ZHCC 280500Z 01006MPS 330V040 9999 BKN040 27/15 Q1010 NOSIG
ZHCC,2023-08-28 06:00,ZHCC 280600Z 01006MPS 330V040 9999 BKN040 28/14 Q1009 NOSIG
ZHCC,2023-08-28 07:00,ZHCC 280700Z 02006MPS 340V050 9999 SCT040 28/14 Q1009 NOSIG
ZHCC,2023-08-28 08:00,ZHCC 280800Z 36005G13MPS 310V040 9999 SCT040 28/14 Q1009 NOSIG
ZHCC,2023-08-28 09:00,ZHCC 280900Z 01005MPS CAVOK 28/14 Q1009 NOSIG
ZHCC,2023-08-28 10:00,ZHCC 281000Z 03004MPS 360V060 CAVOK 27/15 Q1009 NOSIG
ZHCC,2023-08-28 11:00,ZHCC 281100Z 01003MPS CAVOK 26/15 Q1009 NOSIG
ZHCC,2023-08-28 12:00,ZHCC 281200Z VRB01MPS CAVOK 23/16 Q1010 NOSIG
ZHCC,2023-08-28 13:00,ZHCC 281300Z VRB01MPS CAVOK 21/17 Q1011 NOSIG
ZHCC,2023-08-28 14:00,ZHCC 281400Z 32001MPS CAVOK 20/17 Q1011 NOSIG
ZHCC,2023-08-28 15:00,ZHCC 281500Z 29002MPS CAVOK 20/17 Q1011 NOSIG
ZHCC,2023-08-28 16:00,ZHCC 281600Z 26001MPS CAVOK 19/17 Q1011 NOSIG
ZHCC,2023-08-28 17:00,ZHCC 281700Z 28001MPS CAVOK 19/17 Q1011 NOSIG
ZHCC,2023-08-28 18:00,ZHCC 281800Z 29001MPS CAVOK 19/17 Q1011 NOSIG
ZHCC,2023-08-28 19:00,ZHCC 281900Z 25001MPS CAVOK 19/17 Q1011 NOSIG
ZHCC,2023-08-28 20:00,ZHCC 282000Z 27001MPS CAVOK 17/16 Q1011 NOSIG
ZHCC,2023-08-28 21:00,ZHCC 282100Z 00000MPS CAVOK 17/16 Q1012 NOSIG
ZHCC,2023-08-28 22:00,ZHCC 282200Z 28001MPS CAVOK 16/16 Q1012 NOSIG
ZHCC,2023-08-28 23:00,ZHCC 282300Z 29001MPS CAVOK 19/17 Q1013 NOSIG
ZHCC,2023-08-29 00:00,ZHCC 290000Z 31002MPS 270V340 CAVOK 23/18 Q1013 NOSIG
ZHCC,2023-08-29 01:00,ZHCC 290100Z 31003MPS CAVOK 25/18 Q1013 NOSIG
ZHCC,2023-08-29 02:00,ZHCC 290200Z 35002MPS 290V050 CAVOK 27/17 Q1013 NOSIG
ZHCC,2023-08-29 03:00,ZHCC 290300Z 01002MPS 320V130 CAVOK 27/16 Q1013 NOSIG
ZHCC,2023-08-29 04:00,ZHCC 290400Z VRB02MPS 9999 FEW040 29/15 Q1013 NOSIG
ZHCC,2023-08-29 05:00,ZHCC 290500Z 30002MPS 220V340 9999 FEW040 29/16 Q1012 NOSIG
ZHCC,2023-08-29 06:00,ZHCC 290600Z VRB01MPS 9999 FEW040 29/16 Q1012 NOSIG
ZHCC,2023-08-29 07:00,ZHCC 290700Z VRB01MPS CAVOK 30/16 Q1011 NOSIG
ZHCC,2023-08-29 08:00,ZHCC 290800Z 12002MPS 050V200 CAVOK 29/17 Q1011 NOSIG
ZHCC,2023-08-29 09:00,ZHCC 290900Z VRB01MPS CAVOK 29/17 Q1011 NOSIG
ZHCC,2023-08-29 10:00,ZHCC 291000Z 13002MPS 110V170 CAVOK 27/18 Q1011 NOSIG
ZHCC,2023-08-29 11:00,ZHCC 291100Z 14002MPS CAVOK 25/18 Q1011 NOSIG
ZHCC,2023-08-29 12:00,ZHCC 291200Z VRB01MPS CAVOK 24/18 Q1012 NOSIG
ZHCC,2023-08-29 13:00,ZHCC 291300Z VRB01MPS CAVOK 22/19 Q1013 NOSIG
ZHCC,2023-08-29 14:00,ZHCC 291400Z VRB01MPS CAVOK 22/19 Q1013 NOSIG
ZHCC,2023-08-29 15:00,ZHCC 291500Z VRB01MPS CAVOK 22/18 Q1014 NOSIG
ZHCC,2023-08-29 16:00,ZHCC 291600Z 05004MPS CAVOK 23/18 Q1014 NOSIG
ZHCC,2023-08-29 17:00,ZHCC 291700Z 23001MPS CAVOK 21/19 Q1013 NOSIG
ZHCC,2023-08-29 18:00,ZHCC 291800Z 21001MPS CAVOK 20/18 Q1013 NOSIG
ZHCC,2023-08-29 19:00,ZHCC 291900Z 25002MPS 220V290 CAVOK 22/18 Q1013 NOSIG
ZHCC,2023-08-29 20:00,ZHCC 292000Z 26001MPS CAVOK 20/18 Q1013 NOSIG
ZHCC,2023-08-29 21:00,ZHCC 292100Z VRB01MPS CAVOK 20/18 Q1013 NOSIG
ZHCC,2023-08-29 22:00,ZHCC 292200Z VRB01MPS CAVOK 20/18 Q1014 NOSIG
ZHCC,2023-08-29 23:00,ZHCC 292300Z 08003MPS CAVOK 21/17 Q1014 NOSIG
ZHCC,2023-08-30 00:00,ZHCC 300000Z 04002MPS 010V070 CAVOK 22/17 Q1014 NOSIG
ZHCC,2023-08-30 01:00,ZHCC 300100Z VRB01MPS CAVOK 24/17 Q1014 NOSIG
ZHCC,2023-08-30 02:00,ZHCC 300200Z VRB01MPS CAVOK 26/18 Q1014 NOSIG
ZHCC,2023-08-30 03:00,ZHCC 300300Z 30002MPS 220V350 CAVOK 28/19 Q1014 NOSIG
ZHCC,2023-08-30 04:00,ZHCC 300400Z VRB01MPS 9999 FEW040 29/19 Q1013 NOSIG
ZHCC,2023-08-30 05:00,ZHCC 300500Z VRB02MPS 9999 FEW040 29/19 Q1013 NOSIG
ZHCC,2023-08-30 06:00,ZHCC 300600Z VRB01MPS 9999 SCT040 30/19 Q1012 NOSIG
ZHCC,2023-08-30 07:00,ZHCC 300700Z 10002MPS 010V170 9999 SCT040 29/19 Q1012 NOSIG
ZHCC,2023-08-30 08:00,ZHCC 300800Z 12002MPS 090V160 9999 SCT040 30/20 Q1012 NOSIG
ZHCC,2023-08-30 09:00,ZHCC 300900Z 13003MPS 100V160 9999 SCT040 29/21 Q1012 NOSIG
ZHCC,2023-08-30 10:00,ZHCC 301000Z 12002MPS 9999 FEW040 28/21 Q1012 NOSIG
ZHCC,2023-08-30 11:00,ZHCC 301100Z VRB01MPS CAVOK 26/20 Q1012 NOSIG
ZHCC,2023-08-30 12:00,ZHCC 301200Z VRB01MPS CAVOK 25/20 Q1013 NOSIG
ZHCC,2023-08-30 13:00,ZHCC 301300Z VRB01MPS CAVOK 25/20 Q1013 NOSIG
ZHCC,2023-08-30 14:00,ZHCC 301400Z 14001MPS CAVOK 23/21 Q1013 NOSIG
ZHCC,2023-08-30 15:00,ZHCC 301500Z VRB01MPS CAVOK 22/20 Q1013 NOSIG
ZHCC,2023-08-30 16:00,ZHCC 301600Z 22001MPS CAVOK 22/20 Q1013 NOSIG
ZHCC,2023-08-30 17:00,ZHCC 301700Z 23002MPS 190V260 CAVOK 23/20 Q1013 NOSIG
ZHCC,2023-08-30 18:00,ZHCC 301800Z VRB01MPS CAVOK 22/20 Q1012 NOSIG
ZHCC,2023-08-30 19:00,ZHCC 301900Z 20001MPS CAVOK 21/20 Q1012 NOSIG
ZHCC,2023-08-30 20:00,ZHCC 302000Z 22001MPS CAVOK 20/19 Q1012 NOSIG
ZHCC,2023-08-30 21:00,ZHCC 302100Z VRB01MPS 7000 NSC 20/19 Q1012 NOSIG
ZHCC,2023-08-30 22:00,ZHCC 302200Z VRB01MPS 4000 BR NSC 20/20 Q1012 NOSIG
ZHCC,2023-08-30 23:00,ZHCC 302300Z 00000MPS 4000 BR NSC 22/21 Q1012 NOSIG
ZHCC,2023-08-31 00:00,ZHCC 310000Z VRB02MPS 6000 NSC 25/20 Q1012 NOSIG
ZHCC,2023-08-31 01:00,ZHCC 310100Z 22003MPS 190V260 CAVOK 26/20 Q1013 NOSIG
ZHCC,2023-08-31 02:00,ZHCC 310200Z 21004MPS 170V230 CAVOK 28/20 Q1013 NOSIG
ZHCC,2023-08-31 03:00,ZHCC 310300Z 19003MPS 130V240 CAVOK 29/20 Q1012 NOSIG
ZHCC,2023-08-31 04:00,ZHCC 310400Z 19004MPS 130V230 CAVOK 29/21 Q1012 NOSIG
ZHCC,2023-08-31 05:00,ZHCC 310500Z 17003MPS 110V220 CAVOK 30/21 Q1011 NOSIG
ZHCC,2023-08-31 06:00,ZHCC 310600Z 17003MPS 100V220 CAVOK 31/21 Q1011 NOSIG
ZHCC,2023-08-31 07:00,ZHCC 310700Z 18004MPS 110V220 CAVOK 31/20 Q1010 NOSIG
ZHCC,2023-08-31 08:00,ZHCC 310800Z 19003MPS 130V240 CAVOK 31/20 Q1010 NOSIG
ZHCC,2023-08-31 09:00,ZHCC 310900Z 20003MPS 160V250 CAVOK 31/21 Q1010 NOSIG
ZHCC,2023-08-31 10:00,ZHCC 311000Z 18002MPS 080V240 CAVOK 30/21 Q1010 NOSIG
ZHCC,2023-08-31 11:00,ZHCC 311100Z 18002MPS 120V230 CAVOK 28/21 Q1010 NOSIG
ZHCC,2023-08-31 12:00,ZHCC 311200Z 12002MPS 100V160 CAVOK 25/22 Q1011 NOSIG
ZHCC,2023-08-31 13:00,ZHCC 311300Z VRB01MPS CAVOK 25/21 Q1011 NOSIG
ZHCC,2023-08-31 14:00,ZHCC 311400Z VRB01MPS CAVOK 25/21 Q1012 NOSIG
ZHCC,2023-08-31 15:00,ZHCC 311500Z 00000MPS CAVOK 23/21 Q1012 NOSIG
ZHCC,2023-08-31 16:00,ZHCC 311600Z VRB01MPS CAVOK 24/21 Q1012 NOSIG
ZHCC,2023-08-31 17:00,ZHCC 311700Z VRB01MPS CAVOK 23/20 Q1012 NOSIG
ZHCC,2023-08-31 18:00,ZHCC 311800Z VRB01MPS 8000 NSC 22/20 Q1012 NOSIG
ZHCC,2023-08-31 19:00,ZHCC 311900Z VRB01MPS 8000 NSC 22/20 Q1012 NOSIG
ZHCC,2023-08-31 20:00,ZHCC 312000Z VRB01MPS 8000 NSC 21/20 Q1012 NOSIG
ZHCC,2023-08-31 21:00,ZHCC 312100Z VRB01MPS 6000 NSC 22/20 Q1012 NOSIG
ZHCC,2023-08-31 22:00,ZHCC 312200Z 00000MPS 3000 BR NSC 21/20 Q1013 NOSIG
ZHCC,2023-08-31 23:00,ZHCC 312300Z 12001MPS 4000 BR NSC 22/21 Q1013 NOSIG
ZHCC,2023-09-01 00:00,ZHCC 010000Z VRB01MPS 6000 NSC 24/21 Q1014 NOSIG
ZHCC,2023-09-01 01:00,ZHCC 010100Z VRB01MPS CAVOK 27/21 Q1014 NOSIG
ZHCC,2023-09-01 02:00,ZHCC 010200Z 14002MPS 080V200 CAVOK 27/20 Q1015 NOSIG
ZHCC,2023-09-01 03:00,ZHCC 010300Z 12003MPS 080V160 CAVOK 28/21 Q1015 NOSIG
ZHCC,2023-09-01 04:00,ZHCC 010400Z 12003MPS 070V160 CAVOK 29/19 Q1014 NOSIG
ZHCC,2023-09-01 05:00,ZHCC 010500Z 10002MPS 070V150 CAVOK 29/19 Q1014 NOSIG
ZHCC,2023-09-01 06:00,ZHCC 010600Z 12003MPS 090V160 CAVOK 30/21 Q1013 NOSIG
ZHCC,2023-09-01 07:00,ZHCC 010700Z 08003MPS 050V120 CAVOK 29/20 Q1013 NOSIG
ZHCC,2023-09-01 08:00,ZHCC 010800Z 04003MPS 010V080 CAVOK 29/20 Q1013 NOSIG
ZHCC,2023-09-01 09:00,ZHCC 010900Z 10003MPS 050V140 CAVOK 29/20 Q1013 NOSIG
ZHCC,2023-09-01 10:00,ZHCC 011000Z 10002MPS 070V130 CAVOK 28/21 Q1013 NOSIG
ZHCC,2023-09-01 11:00,ZHCC 011100Z 12002MPS CAVOK 26/21 Q1013 NOSIG
ZHCC,2023-09-01 12:00,ZHCC 011200Z 12002MPS CAVOK 25/21 Q1013 NOSIG
ZHCC,2023-09-01 13:00,ZHCC 011300Z 12001MPS CAVOK 25/21 Q1014 NOSIG
ZHCC,2023-09-01 14:00,ZHCC 011400Z VRB01MPS CAVOK 24/21 Q1015 NOSIG
ZHCC,2023-09-01 15:00,ZHCC 011500Z 08002MPS CAVOK 24/20 Q1014 NOSIG
ZHCC,2023-09-01 16:00,ZHCC 011600Z VRB01MPS CAVOK 23/21 Q1014 NOSIG
ZHCC,2023-09-01 17:00,ZHCC 011700Z 07001MPS CAVOK 24/21 Q1014 NOSIG
ZHCC,2023-09-01 18:00,ZHCC 011800Z VRB01MPS 8000 NSC 24/21 Q1014 NOSIG
ZHCC,2023-09-01 19:00,ZHCC 011900Z 10001MPS 7000 NSC 22/21 Q1013 NOSIG
ZHCC,2023-09-01 20:00,ZHCC 012000Z 09001MPS 7000 NSC 23/21 Q1013 NOSIG
ZHCC,2023-09-01 21:00,ZHCC 012100Z 00000MPS 5000 BR NSC 22/21 Q1013 NOSIG
ZHCC,2023-09-01 22:00,ZHCC 012200Z 00000MPS 3000 BR NSC 21/20 Q1013 NOSIG
ZHCC,2023-09-01 23:00,ZHCC 012300Z 00000MPS 3000 BR NSC 22/21 Q1013 NOSIG
ZHCC,2023-09-02 00:00,ZHCC 020000Z VRB01MPS 3500 BR NSC 24/22 Q1014 NOSIG
ZHCC,2023-09-02 01:00,ZHCC 020100Z VRB01MPS 6000 NSC 27/22 Q1014 NOSIG
ZHCC,2023-09-02 02:00,ZHCC 020200Z 13002MPS 090V180 CAVOK 28/20 Q1014 NOSIG
ZHCC,2023-09-02 03:00,ZHCC 020300Z 10003MPS 070V130 CAVOK 28/20 Q1014 NOSIG
ZHCC,2023-09-02 04:00,ZHCC 020400Z 12002MPS 080V160 9999 SCT040 29/20 Q1014 NOSIG
ZHCC,2023-09-02 05:00,ZHCC 020500Z 12002MPS 090V190 9999 FEW040 29/20 Q1013 NOSIG
ZHCC,2023-09-02 06:00,ZHCC 020600Z 12003MPS CAVOK 29/20 Q1013 NOSIG
ZHCC,2023-09-02 07:00,ZHCC 020700Z 14002MPS 100V190 CAVOK 29/20 Q1012 NOSIG
ZHCC,2023-09-02 08:00,ZHCC 020800Z 14002MPS 110V200 9999 FEW040 29/20 Q1012 NOSIG
ZHCC,2023-09-02 09:00,ZHCC 020900Z 14002MPS 100V190 9999 FEW040 28/20 Q1011 NOSIG
ZHCC,2023-09-02 10:00,ZHCC 021000Z VRB01MPS 9999 FEW040 28/20 Q1011 NOSIG
ZHCC,2023-09-02 11:00,ZHCC 021100Z VRB01MPS CAVOK 26/21 Q1011 NOSIG
ZHCC,2023-09-02 12:00,ZHCC 021200Z VRB01MPS CAVOK 24/22 Q1011 NOSIG
ZHCC,2023-09-02 13:00,ZHCC 021300Z VRB01MPS 8000 NSC 23/21 Q1012 NOSIG
ZHCC,2023-09-02 14:00,ZHCC 021400Z VRB01MPS 8000 NSC 23/22 Q1012 NOSIG
ZHCC,2023-09-02 15:00,ZHCC 021500Z 00000MPS 8000 NSC 22/21 Q1012 NOSIG
ZHCC,2023-09-02 16:00,ZHCC 021600Z VRB01MPS 8000 NSC 22/21 Q1012 NOSIG
ZHCC,2023-09-02 17:00,ZHCC 021700Z 00000MPS 5000 BR NSC 21/20 Q1012 NOSIG
ZHCC,2023-09-02 18:00,ZHCC 021800Z VRB01MPS 5000 BR NSC 22/20 Q1011 NOSIG
ZHCC,2023-09-02 19:00,ZHCC 021900Z 00000MPS 5000 BR NSC 21/20 Q1011 NOSIG
ZHCC,2023-09-02 20:00,ZHCC 022000Z 22001MPS 4000 BR NSC 20/19 Q1011 NOSIG
ZHCC,2023-09-02 21:00,ZHCC 022100Z 00000MPS 4000 BR NSC 20/20 Q1011 NOSIG
ZHCC,2023-09-02 22:00,ZHCC 022200Z VRB01MPS 3000 BR NSC 20/19 Q1011 NOSIG
ZHCC,2023-09-02 23:00,ZHCC 022300Z VRB01MPS 3000 BR NSC 21/20 Q1012 NOSIG
ZHCC,2023-09-03 00:00,ZHCC 030000Z 28002MPS 3000 BR NSC 24/21 Q1012 NOSIG
ZHCC,2023-09-03 01:00,ZHCC 030100Z 23002MPS 190V280 6000 NSC 26/21 Q1012 NOSIG
ZHCC,2023-09-03 02:00,ZHCC 030200Z 23003MPS 190V290 CAVOK 28/20 Q1012 NOSIG
ZHCC,2023-09-03 03:00,ZHCC 030300Z 20002MPS 140V240 CAVOK 29/20 Q1012 NOSIG
ZHCC,2023-09-03 04:00,ZHCC 030400Z 17002MPS 110V260 CAVOK 30/19 Q1011 NOSIG
ZHCC,2023-09-03 05:00,ZHCC 030500Z VRB02MPS CAVOK 31/18 Q1011 NOSIG
ZHCC,2023-09-03 06:00,ZHCC 030600Z 23003MPS 160V270 CAVOK 32/18 Q1010 NOSIG
ZHCC,2023-09-03 07:00,ZHCC 030700Z 16002MPS 090V240 CAVOK 32/19 Q1010 NOSIG
ZHCC,2023-09-03 08:00,ZHCC 030800Z 20003MPS 140V240 CAVOK 32/16 Q1010 NOSIG
ZHCC,2023-09-03 09:00,ZHCC 030900Z 20002MPS 120V250 CAVOK 32/17 Q1010 NOSIG
ZHCC,2023-09-03 10:00,ZHCC 031000Z 13002MPS 110V170 CAVOK 30/20 Q1010 NOSIG
ZHCC,2023-09-03 11:00,ZHCC 031100Z VRB01MPS CAVOK 28/20 Q1010 NOSIG
ZHCC,2023-09-03 12:00,ZHCC 031200Z VRB01MPS CAVOK 26/21 Q1010 NOSIG
ZHCC,2023-09-03 13:00,ZHCC 031300Z 14001MPS CAVOK 24/21 Q1011 NOSIG
ZHCC,2023-09-03 14:00,ZHCC 031400Z VRB01MPS CAVOK 23/21 Q1011 NOSIG
ZHCC,2023-09-03 15:00,ZHCC 031500Z 00000MPS CAVOK 23/21 Q1011 NOSIG
ZHCC,2023-09-03 16:00,ZHCC 031600Z VRB01MPS CAVOK 24/21 Q1012 NOSIG
ZHCC,2023-09-03 17:00,ZHCC 031700Z 19001MPS 8000 NSC 22/21 Q1011 NOSIG
ZHCC,2023-09-03 18:00,ZHCC 031800Z 21001MPS 6000 NSC 21/20 Q1012 NOSIG
ZHCC,2023-09-03 19:00,ZHCC 031900Z 00000MPS 6000 NSC 21/20 Q1011 NOSIG
ZHCC,2023-09-03 20:00,ZHCC 032000Z 00000MPS 6000 NSC 21/20 Q1012 NOSIG
ZHCC,2023-09-03 21:00,ZHCC 032100Z 00000MPS 6000 NSC 20/20 Q1012 NOSIG
ZHCC,2023-09-03 22:00,ZHCC 032200Z 31001MPS 5000 BR NSC 20/20 Q1012 NOSIG
ZHCC,2023-09-03 23:00,ZHCC 032300Z 28001MPS 5000 BR NSC 21/20 Q1012 NOSIG
ZHCC,2023-09-04 00:00,ZHCC 040000Z 00000MPS 6000 NSC 26/22 Q1013 NOSIG
ZHCC,2023-09-04 01:00,ZHCC 040100Z VRB01MPS CAVOK 28/20 Q1013 NOSIG
ZHCC,2023-09-04 02:00,ZHCC 040200Z 14002MPS 100V190 CAVOK 29/20 Q1014 NOSIG
ZHCC,2023-09-04 03:00,ZHCC 040300Z VRB02MPS CAVOK 30/20 Q1013 NOSIG
ZHCC,2023-09-04 04:00,ZHCC 040400Z VRB02MPS CAVOK 31/20 Q1013 NOSIG
ZHCC,2023-09-04 05:00,ZHCC 040500Z 17002MPS 070V240 CAVOK 31/21 Q1013 NOSIG
ZHCC,2023-09-04 06:00,ZHCC 040600Z 12002MPS 080V180 CAVOK 32/20 Q1012 NOSIG
ZHCC,2023-09-04 07:00,ZHCC 040700Z 14002MPS 100V200 9999 FEW030 32/20 Q1012 NOSIG
ZHCC,2023-09-04 08:00,ZHCC 040800Z 13003MPS 090V190 9999 FEW030 32/19 Q1011 NOSIG
ZHCC,2023-09-04 09:00,ZHCC 040900Z 13002MPS 9999 FEW030 31/20 Q1011 NOSIG
ZHCC,2023-09-04 10:00,ZHCC 041000Z 13002MPS CAVOK 29/21 Q1011 NOSIG
ZHCC,2023-09-04 11:00,ZHCC 041100Z 14001MPS CAVOK 27/21 Q1011 NOSIG
ZHCC,2023-09-04 12:00,ZHCC 041200Z 16001MPS CAVOK 27/21 Q1012 NOSIG
ZHCC,2023-09-04 13:00,ZHCC 041300Z VRB01MPS CAVOK 25/22 Q1013 NOSIG
ZHCC,2023-09-04 14:00,ZHCC 041400Z 16001MPS CAVOK 24/22 Q1013 NOSIG
ZHCC,2023-09-04 15:00,ZHCC 041500Z 00000MPS CAVOK 24/22 Q1013 NOSIG
ZHCC,2023-09-04 16:00,ZHCC 041600Z 00000MPS CAVOK 24/21 Q1013 NOSIG
ZHCC,2023-09-04 17:00,ZHCC 041700Z VRB01MPS CAVOK 23/21 Q1013 NOSIG
ZHCC,2023-09-04 18:00,ZHCC 041800Z VRB01MPS CAVOK 23/21 Q1013 NOSIG
ZHCC,2023-09-04 19:00,ZHCC 041900Z 00000MPS 6000 NSC 21/21 Q1013 NOSIG
ZHCC,2023-09-04 20:00,ZHCC 042000Z 29001MPS 6000 NSC 21/21 Q1013 NOSIG
ZHCC,2023-09-04 21:00,ZHCC 042100Z VRB01MPS 5000 BR NSC 21/20 Q1013 NOSIG
ZHCC,2023-09-04 22:00,ZHCC 042200Z 00000MPS 3500 BR NSC 21/20 Q1014 NOSIG
ZHCC,2023-09-04 23:00,ZHCC 042300Z 00000MPS 4000 BR NSC 23/22 Q1015 NOSIG
ZHCC,2023-09-05 00:00,ZHCC 050000Z 06002MPS 4500 BR NSC 26/21 Q1015 NOSIG
ZHCC,2023-09-05 01:00,ZHCC 050100Z 06003MPS 6000 NSC 28/22 Q1015 NOSIG
ZHCC,2023-09-05 02:00,ZHCC 050200Z 08004MPS 8000 NSC 29/21 Q1016 NOSIG
ZHCC,2023-09-05 03:00,ZHCC 050300Z 05004MPS 010V100 8000 FEW030 30/21 Q1016 NOSIG
ZHCC,2023-09-05 04:00,ZHCC 050400Z 08005MPS 8000 FEW030 31/21 Q1015 NOSIG
ZHCC,2023-09-05 05:00,ZHCC 050500Z 11005MPS 070V130 8000 FEW030 32/21 Q1014 NOSIG
ZHCC,2023-09-05 06:00,ZHCC 050600Z 08004MPS 060V130 9000 FEW030 31/21 Q1014 NOSIG
ZHCC,2023-09-05 07:00,ZHCC 050700Z 10004MPS 060V120 CAVOK 31/20 Q1014 NOSIG
ZHCC,2023-09-05 08:00,ZHCC 050800Z 09003MPS 040V160 CAVOK 31/21 Q1013 NOSIG
ZHCC,2023-09-05 09:00,ZHCC 050900Z 10003MPS 070V140 CAVOK 31/21 Q1013 NOSIG
ZHCC,2023-09-05 10:00,ZHCC 051000Z 10002MPS 050V130 CAVOK 29/21 Q1013 NOSIG
ZHCC,2023-09-05 11:00,ZHCC 051100Z 08003MPS CAVOK 29/21 Q1013 NOSIG
ZHCC,2023-09-05 12:00,ZHCC 051200Z 07003MPS CAVOK 29/21 Q1014 NOSIG
ZHCC,2023-09-05 13:00,ZHCC 051300Z 07003MPS CAVOK 28/22 Q1014 NOSIG
ZHCC,2023-09-05 14:00,ZHCC 051400Z VRB01MPS CAVOK 26/22 Q1015 NOSIG
ZHCC,2023-09-05 15:00,ZHCC 051500Z VRB01MPS 8000 NSC 25/22 Q1015 NOSIG
ZHCC,2023-09-05 16:00,ZHCC 051600Z 00000MPS 6000 NSC 25/22 Q1015 NOSIG
ZHCC,2023-09-05 17:00,ZHCC 051700Z 00000MPS 6000 NSC 24/22 Q1015 NOSIG
ZHCC,2023-09-05 18:00,ZHCC 051800Z VRB01MPS 6000 NSC 24/22 Q1015 NOSIG
ZHCC,2023-09-05 19:00,ZHCC 051900Z 29002MPS 5000 BR NSC 23/22 Q1015 NOSIG
ZHCC,2023-09-05 20:00,ZHCC 052000Z 30002MPS 5000 BR NSC 23/21 Q1015 NOSIG
ZHCC,2023-09-05 21:00,ZHCC 052100Z VRB01MPS 5000 BR NSC 23/22 Q1015 NOSIG
ZHCC,2023-09-05 22:00,ZHCC 052200Z 00000MPS 4000 BR NSC 23/21 Q1015 NOSIG
ZHCC,2023-09-05 23:00,ZHCC 052300Z VRB01MPS 3000 BR NSC 24/22 Q1016 NOSIG
ZHCC,2023-09-06 00:00,ZHCC 060000Z VRB01MPS 3000 BR NSC 26/23 Q1016 NOSIG
ZHCC,2023-09-06 01:00,ZHCC 060100Z 06002MPS 030V090 3000 BR NSC 28/23 Q1016 NOSIG
ZHCC,2023-09-06 02:00,ZHCC 060200Z 06002MPS 360V110 4000 HZ NSC 29/22 Q1017 NOSIG
ZHCC,2023-09-06 03:00,ZHCC 060300Z 04003MPS 350V070 4000 HZ SCT030 30/22 Q1016 NOSIG
ZHCC,2023-09-06 04:00,ZHCC 060400Z 05003MPS 360V100 5000 HZ SCT030 31/22 Q1016 NOSIG
ZHCC,2023-09-06 05:00,ZHCC 060500Z 04003MPS 330V110 6000 SCT040 32/20 Q1015 NOSIG
ZHCC,2023-09-06 06:00,ZHCC 060600Z 06004MPS 030V100 6000 SCT030 32/20 Q1015 NOSIG
ZHCC,2023-09-06 07:00,ZHCC 060700Z 04004MPS 340V090 6000 SCT030 32/20 Q1014 NOSIG
ZHCC,2023-09-06 08:00,ZHCC 060800Z 04003MPS 010V080 8000 SCT030 32/20 Q1014 NOSIG
ZHCC,2023-09-06 09:00,ZHCC 060900Z 07005MPS 9999 SCT030 31/20 Q1013 NOSIG
ZHCC,2023-09-06 10:00,ZHCC 061000Z 07004MPS CAVOK 31/20 Q1013 NOSIG
ZHCC,2023-09-06 11:00,ZHCC 061100Z 07002MPS 030V110 8000 NSC 29/21 Q1013 NOSIG
ZHCC,2023-09-06 12:00,ZHCC 061200Z 05002MPS 030V090 8000 NSC 29/21 Q1014 NOSIG
ZHCC,2023-09-06 13:00,ZHCC 061300Z 04003MPS 8000 NSC 29/21 Q1015 NOSIG
ZHCC,2023-09-06 14:00,ZHCC 061400Z 05002MPS 7000 SCT046 28/21 Q1015 NOSIG
ZHCC,2023-09-06 15:00,ZHCC 061500Z 09002MPS 6000 NSC 27/21 Q1015 NOSIG
ZHCC,2023-09-06 16:00,ZHCC 061600Z 10002MPS 070V130 6000 NSC 26/21 Q1015 NOSIG
ZHCC,2023-09-06 17:00,ZHCC 061700Z 09002MPS 5000 BR NSC 25/21 Q1015 NOSIG
ZHCC,2023-09-06 18:00,ZHCC 061800Z 00000MPS 5000 BR NSC 23/21 Q1015 NOSIG
ZHCC,2023-09-06 19:00,ZHCC 061900Z 00000MPS 4000 BR NSC 22/21 Q1015 NOSIG
ZHCC,2023-09-06 20:00,ZHCC 062000Z 00000MPS 4000 BR NSC 21/20 Q1015 NOSIG
ZHCC,2023-09-06 21:00,ZHCC 062100Z 00000MPS 4000 BR NSC 22/21 Q1015 BECMG TL2240 2500
ZHCC,2023-09-06 22:00,ZHCC 062200Z 00000MPS 3000 BR NSC 22/21 Q1015 BECMG TL2240 2500
ZHCC,2023-09-06 23:00,ZHCC 062300Z 28001MPS 2500 BR NSC 23/21 Q1016 BECMG TL0040 3000
ZHCC,2023-09-07 00:00,ZHCC 070000Z 00000MPS 2500 BR NSC 27/23 Q1016 BECMG TL0040 3000
ZHCC,2023-09-07 01:00,ZHCC 070100Z VRB01MPS 5000 HZ NSC 29/21 Q1016 NOSIG
ZHCC,2023-09-07 02:00,ZHCC 070200Z 10002MPS 040V180 CAVOK 30/20 Q1016 NOSIG
ZHCC,2023-09-07 03:00,ZHCC 070300Z 09004MPS 040V120 9999 SCT040 30/20 Q1016 NOSIG
ZHCC,2023-09-07 04:00,ZHCC 070400Z 11004MPS 9999 SCT040 30/20 Q1015 NOSIG
ZHCC,2023-09-07 05:00,ZHCC 070500Z 08004MPS 060V140 9999 SCT040 31/20 Q1014 NOSIG
ZHCC,2023-09-07 06:00,ZHCC 070600Z VRB02MPS 9999 SCT040 32/19 Q1013 NOSIG
ZHCC,2023-09-07 07:00,ZHCC 070700Z 10003MPS 070V140 9999 SCT040 32/20 Q1013 NOSIG
ZHCC,2023-09-07 08:00,ZHCC 070800Z 10002MPS 040V150 9999 SCT040 31/19 Q1013 NOSIG
ZHCC,2023-09-07 09:00,ZHCC 070900Z 14002MPS 100V200 9999 SCT040 31/19 Q1012 NOSIG
ZHCC,2023-09-07 10:00,ZHCC 071000Z 13002MPS 100V160 9999 FEW040 30/20 Q1012 NOSIG
ZHCC,2023-09-07 11:00,ZHCC 071100Z 13001MPS CAVOK 27/21 Q1012 NOSIG
ZHCC,2023-09-07 12:00,ZHCC 071200Z 17001MPS CAVOK 26/21 Q1013 NOSIG
ZHCC,2023-09-07 13:00,ZHCC 071300Z 16001MPS CAVOK 25/21 Q1013 NOSIG
ZHCC,2023-09-07 14:00,ZHCC 071400Z 00000MPS CAVOK 25/21 Q1014 NOSIG
ZHCC,2023-09-07 15:00,ZHCC 071500Z 00000MPS CAVOK 24/21 Q1014 NOSIG
ZHCC,2023-09-07 16:00,ZHCC 071600Z VRB01MPS CAVOK 23/21 Q1013 NOSIG
ZHCC,2023-09-07 17:00,ZHCC 071700Z 00000MPS CAVOK 22/20 Q1013 NOSIG
ZHCC,2023-09-07 18:00,ZHCC 071800Z 00000MPS CAVOK 22/20 Q1013 NOSIG
ZHCC,2023-09-07 19:00,ZHCC 071900Z 00000MPS CAVOK 21/20 Q1013 NOSIG
ZHCC,2023-09-07 20:00,ZHCC 072000Z 00000MPS CAVOK 21/20 Q1013 NOSIG
ZHCC,2023-09-07 21:00,ZHCC 072100Z 00000MPS CAVOK 21/20 Q1013 NOSIG
ZHCC,2023-09-07 22:00,ZHCC 072200Z 12001MPS CAVOK 21/20 Q1014 NOSIG
ZHCC,2023-09-07 23:00,ZHCC 072300Z 14001MPS CAVOK 23/20 Q1014 NOSIG
ZHCC,2023-09-08 00:00,ZHCC 080000Z VRB01MPS CAVOK 26/21 Q1014 NOSIG
ZHCC,2023-09-08 01:00,ZHCC 080100Z 18002MPS 140V210 CAVOK 28/20 Q1014 NOSIG
ZHCC,2023-09-08 02:00,ZHCC 080200Z 14003MPS 100V220 CAVOK 29/20 Q1014 NOSIG
ZHCC,2023-09-08 03:00,ZHCC 080300Z 14002MPS 100V200 CAVOK 30/20 Q1013 NOSIG
ZHCC,2023-09-08 04:00,ZHCC 080400Z VRB02MPS 9999 FEW040 31/19 Q1013 NOSIG
ZHCC,2023-09-08 05:00,ZHCC 080500Z 14003MPS 100V200 9999 FEW040 31/20 Q1012 NOSIG
ZHCC,2023-09-08 06:00,ZHCC 080600Z 07004MPS 040V110 9999 SCT040 30/18 Q1012 NOSIG
ZHCC,2023-09-08 07:00,ZHCC 080700Z 12002MPS 040V170 CAVOK 31/18 Q1011 NOSIG
ZHCC,2023-09-08 08:00,ZHCC 080800Z 10003MPS 060V120 CAVOK 32/18 Q1011 NOSIG
ZHCC,2023-09-08 09:00,ZHCC 080900Z 11004MPS CAVOK 31/17 Q1011 NOSIG
ZHCC,2023-09-08 10:00,ZHCC 081000Z 12003MPS CAVOK 29/18 Q1010 NOSIG
ZHCC,2023-09-08 11:00,ZHCC 081100Z 13002MPS CAVOK 27/20 Q1010 NOSIG
ZHCC,2023-09-08 12:00,ZHCC 081200Z 12001MPS CAVOK 26/20 Q1011 NOSIG
ZHCC,2023-09-08 13:00,ZHCC 081300Z 13001MPS CAVOK 25/20 Q1011 NOSIG
ZHCC,2023-09-08 14:00,ZHCC 081400Z 14001MPS CAVOK 24/20 Q1011 NOSIG
ZHCC,2023-09-08 15:00,ZHCC 081500Z 13001MPS CAVOK 24/20 Q1011 NOSIG
ZHCC,2023-09-08 16:00,ZHCC 081600Z VRB01MPS CAVOK 24/19 Q1011 NOSIG
ZHCC,2023-09-08 17:00,ZHCC 081700Z VRB01MPS CAVOK 24/19 Q1011 NOSIG
ZHCC,2023-09-08 18:00,ZHCC 081800Z VRB01MPS CAVOK 23/19 Q1011 NOSIG
ZHCC,2023-09-08 19:00,ZHCC 081900Z VRB01MPS CAVOK 22/20 Q1010 NOSIG
ZHCC,2023-09-08 20:00,ZHCC 082000Z VRB01MPS CAVOK 23/20 Q1010 NOSIG
ZHCC,2023-09-08 21:00,ZHCC 082100Z 11001MPS CAVOK 23/20 Q1010 NOSIG
ZHCC,2023-09-08 22:00,ZHCC 082200Z VRB01MPS 6000 NSC 21/20 Q1010 NOSIG
ZHCC,2023-09-08 23:00,ZHCC 082300Z 00000MPS 6000 NSC 23/21 Q1010 NOSIG
ZHCC,2023-09-09 00:00,ZHCC 090000Z VRB01MPS 6000 NSC 25/21 Q1011 NOSIG
ZHCC,2023-09-09 01:00,ZHCC 090100Z 21002MPS 140V240 8000 NSC 27/21 Q1011 NOSIG
ZHCC,2023-09-09 02:00,ZHCC 090200Z 16002MPS 090V250 8000 NSC 29/22 Q1011 NOSIG
ZHCC,2023-09-09 03:00,ZHCC 090300Z VRB02MPS 8000 NSC 30/22 Q1010 NOSIG
ZHCC,2023-09-09 04:00,ZHCC 090400Z 13003MPS 100V220 9999 FEW040 31/21 Q1010 NOSIG
ZHCC,2023-09-09 05:00,ZHCC 090500Z 12003MPS 080V200 9999 SCT040 32/21 Q1009 NOSIG
ZHCC,2023-09-09 06:00,ZHCC 090600Z 16003MPS 100V220 9999 SCT040 31/20 Q1008 NOSIG
ZHCC,2023-09-09 07:00,ZHCC 090700Z 16002MPS 110V220 CAVOK 31/21 Q1008 NOSIG
ZHCC,2023-09-09 08:00,ZHCC 090800Z 16002MPS 120V220 CAVOK 31/21 Q1008 NOSIG
ZHCC,2023-09-09 09:00,ZHCC 090900Z 14002MPS 110V180 CAVOK 31/21 Q1008 NOSIG
ZHCC,2023-09-09 10:00,ZHCC 091000Z 12002MPS CAVOK 29/22 Q1008 NOSIG
ZHCC,2023-09-09 11:00,ZHCC 091100Z 12002MPS CAVOK 28/22 Q1008 NOSIG
ZHCC,2023-09-09 12:00,ZHCC 091200Z 12001MPS CAVOK 27/22 Q1009 NOSIG
ZHCC,2023-09-09 13:00,ZHCC 091300Z 12003MPS CAVOK 27/22 Q1009 NOSIG
ZHCC,2023-09-09 14:00,ZHCC 091400Z 13001MPS CAVOK 27/21 Q1009 NOSIG
ZHCC,2023-09-09 15:00,ZHCC 091500Z 12002MPS CAVOK 26/21 Q1009 NOSIG
ZHCC,2023-09-09 16:00,ZHCC 091600Z VRB01MPS CAVOK 26/21 Q1009 NOSIG
ZHCC,2023-09-09 17:00,ZHCC 091700Z VRB01MPS CAVOK 25/21 Q1008 NOSIG
ZHCC,2023-09-09 18:00,ZHCC 091800Z 12002MPS CAVOK 25/21 Q1008 NOSIG
ZHCC,2023-09-09 19:00,ZHCC 091900Z 11002MPS CAVOK 25/21 Q1008 NOSIG
ZHCC,2023-09-09 20:00,ZHCC 092000Z 00000MPS 8000 -SHRA FEW040CB 24/22 Q1008 BECMG TL2040 TSRA
ZHCC,2023-09-09 21:00,ZHCC 092100Z 36002MPS 320V050 5000 +TSRA BR FEW040CB BKN046 23/22 Q1009 NOSIG
ZHCC,2023-09-09 22:00,ZHCC 092200Z 04003MPS 3000 -SHRA BR FEW040CB BKN046 23/22 Q1009 RETSRA BECMG TL2320 SHRA
ZHCC,2023-09-09 23:00,ZHCC 092300Z 02004MPS 1600 -SHRA BR FEW040CB BKN046 23/22 Q1010 NOSIG
ZHCC,2023-09-10 00:00,ZHCC 100000Z 07004MPS 1600 BR NSC 23/22 Q1010 BECMG TL0140 3000
ZHCC,2023-09-10 01:00,ZHCC 100100Z VRB01MPS 3000 BR NSC 23/22 Q1010 NOSIG
ZHCC,2023-09-10 02:00,ZHCC 100200Z VRB01MPS 4000 BR NSC 24/22 Q1011 NOSIG
ZHCC,2023-09-10 03:00,ZHCC 100300Z VRB01MPS 6000 NSC 26/22 Q1011 NOSIG
ZHCC,2023-09-10 04:00,ZHCC 100400Z 06003MPS 010V100 6000 SCT026 27/21 Q1010 NOSIG
ZHCC,2023-09-10 05:00,ZHCC 100500Z 07003MPS 010V110 7000 SCT026 27/21 Q1010 NOSIG
ZHCC,2023-09-10 06:00,ZHCC 100600Z 09002MPS 010V170 8000 SCT026 28/21 Q1009 NOSIG
ZHCC,2023-09-10 07:00,ZHCC 100700Z 12002MPS 050V180 8000 SCT026 29/21 Q1009 NOSIG
ZHCC,2023-09-10 08:00,ZHCC 100800Z 04003MPS 360V080 9999 SCT026 28/21 Q1008 NOSIG
ZHCC,2023-09-10 09:00,ZHCC 100900Z 14002MPS 100V180 9999 FEW026 28/21 Q1008 NOSIG
ZHCC,2023-09-10 10:00,ZHCC 101000Z 16002MPS 120V190 9999 FEW026 27/21 Q1009 NOSIG
ZHCC,2023-09-10 11:00,ZHCC 101100Z 13001MPS CAVOK 26/22 Q1008 NOSIG
ZHCC,2023-09-10 12:00,ZHCC 101200Z 00000MPS CAVOK 25/22 Q1009 NOSIG
ZHCC,2023-09-10 13:00,ZHCC 101300Z 04002MPS CAVOK 27/21 Q1010 NOSIG
ZHCC,2023-09-10 14:00,ZHCC 101400Z VRB01MPS 9000 NSC 25/22 Q1010 NOSIG
ZHCC,2023-09-10 15:00,ZHCC 101500Z 26001MPS 9000 NSC 23/22 Q1010 NOSIG
ZHCC,2023-09-10 16:00,ZHCC 101600Z 31002MPS 9000 NSC 23/22 Q1010 NOSIG
ZHCC,2023-09-10 17:00,ZHCC 101700Z 28001MPS 8000 NSC 24/22 Q1009 NOSIG
ZHCC,2023-09-10 18:00,ZHCC 101800Z 28001MPS 6000 NSC 23/22 Q1009 NOSIG
ZHCC,2023-09-10 19:00,ZHCC 101900Z 29001MPS 6000 NSC 23/22 Q1009 NOSIG
ZHCC,2023-09-10 20:00,ZHCC 102000Z 30001MPS 5000 BR NSC 23/22 Q1008 NOSIG
ZHCC,2023-09-10 21:00,ZHCC 102100Z 28001MPS 4000 BR NSC 23/22 Q1008 NOSIG
ZHCC,2023-09-10 22:00,ZHCC 102200Z VRB01MPS 4000 BR NSC 23/22 Q1008 BECMG TL2340 2000
ZHCC,2023-09-10 23:00,ZHCC 102300Z 27001MPS 2000 BR NSC 23/22 Q1009 BECMG TL0040 3000
ZHCC,2023-09-11 00:00,ZHCC 110000Z VRB01MPS 2000 BR NSC 24/23 Q1009 BECMG TL0140 3000
ZHCC,2023-09-11 01:00,ZHCC 110100Z VRB01MPS 2500 BR NSC 25/23 Q1009 BECMG TL0210 3000
ZHCC,2023-09-11 02:00,ZHCC 110200Z VRB01MPS 5000 BR NSC 27/22 Q1009 NOSIG
ZHCC,2023-09-11 03:00,ZHCC 110300Z VRB01MPS 5000 BR NSC 27/22 Q1010 NOSIG
ZHCC,2023-09-11 04:00,ZHCC 110400Z 29002MPS 250V330 5000 HZ NSC 27/22 Q1010 NOSIG
ZHCC,2023-09-11 05:00,ZHCC 110500Z VRB01MPS 5000 HZ NSC 28/22 Q1010 NOSIG
ZHCC,2023-09-11 06:00,ZHCC 110600Z 28002MPS 7000 FEW020 BKN030 28/22 Q1009 NOSIG
ZHCC,2023-09-11 07:00,ZHCC 110700Z 27001MPS 7000 FEW040 27/22 Q1009 NOSIG
ZHCC,2023-09-11 08:00,ZHCC 110800Z VRB01MPS 7000 -RA FEW040 27/23 Q1009 NOSIG
ZHCC,2023-09-11 09:00,ZHCC 110900Z VRB01MPS 7000 -RA FEW040 27/23 Q1009 NOSIG
ZHCC,2023-09-11 10:00,ZHCC 111000Z 00000MPS 7000 -RA NSC 26/23 Q1009 NOSIG
ZHCC,2023-09-11 11:00,ZHCC 111100Z 15002MPS 7000 -RA NSC 25/23 Q1010 NOSIG
ZHCC,2023-09-11 12:00,ZHCC 111200Z VRB01MPS 7000 NSC 25/22 Q1010 NOSIG
ZHCC,2023-09-11 13:00,ZHCC 111300Z 22001MPS 7000 NSC 25/22 Q1011 NOSIG
ZHCC,2023-09-11 14:00,ZHCC 111400Z VRB01MPS 7000 NSC 25/22 Q1011 NOSIG
ZHCC,2023-09-11 15:00,ZHCC 111500Z VRB01MPS 7000 NSC 24/23 Q1011 NOSIG
ZHCC,2023-09-11 16:00,ZHCC 111600Z 00000MPS 5000 BR NSC 24/22 Q1012 NOSIG
ZHCC,2023-09-11 17:00,ZHCC 111700Z 31002MPS 4000 BR NSC 24/23 Q1012 NOSIG
ZHCC,2023-09-11 18:00,ZHCC 111800Z 25002MPS 6000 -RA NSC 22/20 Q1011 RETS NOSIG
ZHCC,2023-09-11 19:00,ZHCC 111900Z 26001MPS CAVOK 22/20 Q1011 NOSIG
ZHCC,2023-09-11 20:00,ZHCC 112000Z 30001MPS 9999 OVC040 21/20 Q1011 NOSIG
ZHCC,2023-09-11 21:00,ZHCC 112100Z 31002MPS 9999 OVC040 21/19 Q1011 NOSIG
ZHCC,2023-09-11 22:00,ZHCC 112200Z VRB01MPS 9999 OVC040 22/20 Q1012 NOSIG
ZHCC,2023-09-11 23:00,ZHCC 112300Z 29002MPS 9999 OVC040 22/21 Q1012 NOSIG
ZHCC,2023-09-12 00:00,ZHCC 120000Z 34004MPS 9999 OVC040 23/20 Q1012 NOSIG
ZHCC,2023-09-12 01:00,ZHCC 120100Z 33003MPS 9999 OVC033 24/21 Q1013 NOSIG
ZHCC,2023-09-12 02:00,ZHCC 120200Z VRB01MPS 6000 -RA OVC020 24/21 Q1014 NOSIG
ZHCC,2023-09-12 03:00,ZHCC 120300Z 32002MPS 270V360 6000 OVC020 24/21 Q1014 RESHRA BECMG TL0340 SHRA FEW030CB BKN030
ZHCC,2023-09-12 04:00,ZHCC 120400Z 13003MPS 5000 SHRA BR FEW007 FEW020CB BKN020 21/20 Q1014 BECMG TL0520 -SHRA
ZHCC,2023-09-12 05:00,ZHCC 120500Z VRB01MPS 6000 -SHRA FEW030CB BKN030 21/20 Q1013 RESHRA BECMG TL0520 SHRA
ZHCC,2023-09-12 06:00,ZHCC 120600Z VRB01MPS 6000 SHRA FEW030CB BKN030 22/21 Q1013 BECMG TL0630 -SHRA
ZHCC,2023-09-12 07:00,ZHCC 120700Z 29002MPS 250V320 7000 -SHRA FEW005 OVC030 22/21 Q1012 RESHRA NOSIG
ZHCC,2023-09-12 08:00,ZHCC 120800Z VRB01MPS 6000 OVC040 23/21 Q1012 NOSIG
ZHCC,2023-09-12 09:00,ZHCC 120900Z 28002MPS 6000 OVC040 23/22 Q1012 NOSIG
ZHCC,2023-09-12 10:00,ZHCC 121000Z 31002MPS 3500 BR FEW015 OVC040 23/22 Q1012 NOSIG
ZHCC,2023-09-12 11:00,ZHCC 121100Z 31002MPS 5000 BR OVC020 23/22 Q1012 NOSIG
ZHCC,2023-09-12 12:00,ZHCC 121200Z 02003MPS 340V080 6000 OVC020 24/21 Q1013 NOSIG
ZHCC,2023-09-12 13:00,ZHCC 121300Z 36002MPS 340V070 6000 OVC030 24/21 Q1014 NOSIG
ZHCC,2023-09-12 14:00,ZHCC 121400Z 35002MPS 310V020 6000 BKN030 23/21 Q1014 NOSIG
ZHCC,2023-09-12 15:00,ZHCC 121500Z 34003MPS 320V020 6000 BKN030 23/21 Q1014 NOSIG
ZHCC,2023-09-12 16:00,ZHCC 121600Z 36003MPS 6000 SCT030 23/21 Q1014 NOSIG
ZHCC,2023-09-12 17:00,ZHCC 121700Z 36004MPS 7000 BKN030 22/20 Q1014 NOSIG
ZHCC,2023-09-12 18:00,ZHCC 121800Z 34003G08MPS 280V020 7000 SCT020 BKN040 22/20 Q1014 NOSIG
ZHCC,2023-09-12 19:00,ZHCC 121900Z 36004MPS 7000 OVC020 22/20 Q1014 NOSIG
ZHCC,2023-09-12 20:00,ZHCC 122000Z 01004MPS 340V050 7000 OVC030 22/19 Q1013 NOSIG
ZHCC,2023-09-12 21:00,ZHCC 122100Z 01004MPS 8000 BKN020 22/19 Q1013 NOSIG
ZHCC,2023-09-12 22:00,ZHCC 122200Z 36003MPS 7000 BKN030 21/19 Q1014 NOSIG
ZHCC,2023-09-12 23:00,ZHCC 122300Z 36003MPS 330V060 7000 BKN040 21/19 Q1014 NOSIG
ZHCC,2023-09-13 00:00,ZHCC 130000Z 01004MPS 340V050 8000 BKN030 22/19 Q1015 NOSIG
ZHCC,2023-09-13 01:00,ZHCC 130100Z 02004MPS 360V060 9999 BKN040 23/19 Q1015 NOSIG
ZHCC,2023-09-13 02:00,ZHCC 130200Z 01004MPS 9999 FEW020 SCT040 25/19 Q1015 NOSIG
ZHCC,2023-09-13 03:00,ZHCC 130300Z 04006MPS 9999 SCT030 26/19 Q1015 NOSIG
ZHCC,2023-09-13 04:00,ZHCC 130400Z 02005MPS 9999 SCT030 26/18 Q1014 NOSIG
ZHCC,2023-09-13 05:00,ZHCC 130500Z 03004G10MPS 350V080 9999 SCT030 27/18 Q1014 NOSIG
ZHCC,2023-09-13 06:00,ZHCC 130600Z 04004MPS 330V080 9999 SCT030 28/18 Q1013 NOSIG
ZHCC,2023-09-13 07:00,ZHCC 130700Z 03003MPS 330V070 9999 SCT030 29/17 Q1013 NOSIG
ZHCC,2023-09-13 08:00,ZHCC 130800Z 01003MPS 330V050 9999 SCT030 29/16 Q1012 NOSIG
ZHCC,2023-09-13 09:00,ZHCC 130900Z VRB02G07MPS CAVOK 28/17 Q1012 NOSIG
ZHCC,2023-09-13 10:00,ZHCC 131000Z 06003MPS 030V120 CAVOK 27/16 Q1013 NOSIG
ZHCC,2023-09-13 11:00,ZHCC 131100Z VRB01MPS CAVOK 24/18 Q1013 NOSIG
ZHCC,2023-09-13 12:00,ZHCC 131200Z 00000MPS CAVOK 22/19 Q1013 NOSIG
ZHCC,2023-09-13 13:00,ZHCC 131300Z 00000MPS CAVOK 22/19 Q1014 NOSIG
ZHCC,2023-09-13 14:00,ZHCC 131400Z VRB01MPS CAVOK 22/18 Q1014 NOSIG
ZHCC,2023-09-13 15:00,ZHCC 131500Z 00000MPS CAVOK 21/18 Q1014 NOSIG
ZHCC,2023-09-13 16:00,ZHCC 131600Z 00000MPS CAVOK 21/18 Q1014 NOSIG
ZHCC,2023-09-13 17:00,ZHCC 131700Z VRB01MPS CAVOK 20/18 Q1014 NOSIG
ZHCC,2023-09-13 18:00,ZHCC 131800Z 00000MPS CAVOK 19/18 Q1014 NOSIG
ZHCC,2023-09-13 19:00,ZHCC 131900Z VRB01MPS CAVOK 19/17 Q1014 NOSIG
ZHCC,2023-09-13 20:00,ZHCC 132000Z VRB01MPS CAVOK 19/18 Q1014 NOSIG
ZHCC,2023-09-13 21:00,ZHCC 132100Z VRB01MPS CAVOK 18/17 Q1014 NOSIG
ZHCC,2023-09-13 22:00,ZHCC 132200Z VRB01MPS CAVOK 18/16 Q1014 NOSIG
ZHCC,2023-09-13 23:00,ZHCC 132300Z 28002MPS CAVOK 18/17 Q1014 NOSIG
ZHCC,2023-09-14 00:00,ZHCC 140000Z 32002MPS 300V010 CAVOK 23/19 Q1015 NOSIG
ZHCC,2023-09-14 01:00,ZHCC 140100Z VRB01MPS CAVOK 26/17 Q1016 NOSIG
ZHCC,2023-09-14 02:00,ZHCC 140200Z 07002MPS 030V110 CAVOK 26/15 Q1016 NOSIG
ZHCC,2023-09-14 03:00,ZHCC 140300Z 09002MPS 040V140 CAVOK 28/16 Q1016 NOSIG
ZHCC,2023-09-14 04:00,ZHCC 140400Z 11002MPS 060V210 CAVOK 28/15 Q1015 NOSIG
ZHCC,2023-09-14 05:00,ZHCC 140500Z 13002MPS 080V190 CAVOK 29/17 Q1014 NOSIG
ZHCC,2023-09-14 06:00,ZHCC 140600Z 05002MPS 330V140 CAVOK 29/16 Q1013 NOSIG
ZHCC,2023-09-14 07:00,ZHCC 140700Z VRB02MPS CAVOK 30/16 Q1013 NOSIG
ZHCC,2023-09-14 08:00,ZHCC 140800Z 10002MPS 060V160 CAVOK 29/16 Q1012 NOSIG
ZHCC,2023-09-14 09:00,ZHCC 140900Z 12002MPS 070V170 CAVOK 29/17 Q1012 NOSIG
ZHCC,2023-09-14 10:00,ZHCC 141000Z 13001MPS CAVOK 27/18 Q1013 NOSIG
ZHCC,2023-09-14 11:00,ZHCC 141100Z 14001MPS CAVOK 25/19 Q1013 NOSIG
ZHCC,2023-09-14 12:00,ZHCC 141200Z VRB01MPS CAVOK 24/19 Q1014 NOSIG
ZHCC,2023-09-14 13:00,ZHCC 141300Z VRB01MPS CAVOK 23/19 Q1014 NOSIG
ZHCC,2023-09-14 14:00,ZHCC 141400Z 00000MPS CAVOK 23/19 Q1014 NOSIG
ZHCC,2023-09-14 15:00,ZHCC 141500Z VRB01MPS CAVOK 23/19 Q1014 NOSIG
ZHCC,2023-09-14 16:00,ZHCC 141600Z 20001MPS CAVOK 22/20 Q1014 NOSIG
ZHCC,2023-09-14 17:00,ZHCC 141700Z VRB01MPS 9999 SCT046 22/20 Q1013 NOSIG
ZHCC,2023-09-14 18:00,ZHCC 141800Z 00000MPS CAVOK 21/20 Q1013 NOSIG
ZHCC,2023-09-14 19:00,ZHCC 141900Z VRB01MPS CAVOK 21/20 Q1013 NOSIG
ZHCC,2023-09-14 20:00,ZHCC 142000Z VRB01MPS 7000 NSC 21/20 Q1013 NOSIG
ZHCC,2023-09-14 21:00,ZHCC 142100Z 00000MPS 7000 NSC 20/19 Q1013 NOSIG
ZHCC,2023-09-14 22:00,ZHCC 142200Z VRB01MPS 6000 NSC 21/19 Q1013 NOSIG
ZHCC,2023-09-14 23:00,ZHCC 142300Z VRB01MPS 5000 BR NSC 21/20 Q1013 NOSIG
ZHCC,2023-09-15 00:00,ZHCC 150000Z VRB01MPS 5000 BR NSC 24/20 Q1014 NOSIG
ZHCC,2023-09-15 01:00,ZHCC 150100Z VRB01MPS 6000 NSC 26/20 Q1014 NOSIG
ZHCC,2023-09-15 02:00,ZHCC 150200Z 21002MPS 140V280 8000 NSC 27/19 Q1014 NOSIG
ZHCC,2023-09-15 03:00,ZHCC 150300Z 20003MPS 140V270 9999 FEW040 28/19 Q1014 NOSIG
ZHCC,2023-09-15 04:00,ZHCC 150400Z 15002MPS 100V210 9999 FEW040 29/18 Q1013 NOSIG
ZHCC,2023-09-15 05:00,ZHCC 150500Z VRB03MPS 9999 FEW040 29/17 Q1012 NOSIG
ZHCC,2023-09-15 06:00,ZHCC 150600Z 20002MPS 110V280 9999 SCT046 30/17 Q1012 NOSIG
ZHCC,2023-09-15 07:00,ZHCC 150700Z VRB02MPS 9999 SCT046 30/17 Q1011 NOSIG
ZHCC,2023-09-15 08:00,ZHCC 150800Z 19002MPS 130V240 CAVOK 29/18 Q1011 NOSIG
ZHCC,2023-09-15 09:00,ZHCC 150900Z 14003MPS 100V180 CAVOK 29/17 Q1011 NOSIG
ZHCC,2023-09-15 10:00,ZHCC 151000Z VRB01MPS CAVOK 28/18 Q1011 NOSIG
ZHCC,2023-09-15 11:00,ZHCC 151100Z 14002MPS 100V160 CAVOK 26/18 Q1011 NOSIG
ZHCC,2023-09-15 12:00,ZHCC 151200Z 14001MPS CAVOK 24/18 Q1011 NOSIG
ZHCC,2023-09-15 13:00,ZHCC 151300Z VRB01MPS CAVOK 24/18 Q1012 NOSIG
ZHCC,2023-09-15 14:00,ZHCC 151400Z VRB01MPS CAVOK 23/19 Q1013 NOSIG
ZHCC,2023-09-15 15:00,ZHCC 151500Z 00000MPS CAVOK 22/19 Q1013 NOSIG
ZHCC,2023-09-15 16:00,ZHCC 151600Z 00000MPS CAVOK 21/19 Q1013 NOSIG
ZHCC,2023-09-15 17:00,ZHCC 151700Z 15001MPS CAVOK 20/19 Q1013 NOSIG
ZHCC,2023-09-15 18:00,ZHCC 151800Z 21001MPS CAVOK 21/19 Q1012 NOSIG
ZHCC,2023-09-15 19:00,ZHCC 151900Z VRB01MPS CAVOK 19/18 Q1012 NOSIG
ZHCC,2023-09-15 20:00,ZHCC 152000Z VRB01MPS 8000 NSC 19/18 Q1012 NOSIG
ZHCC,2023-09-15 21:00,ZHCC 152100Z VRB01MPS 8000 NSC 20/18 Q1012 NOSIG
ZHCC,2023-09-15 22:00,ZHCC 152200Z VRB01MPS 7000 NSC 20/18 Q1012 NOSIG
ZHCC,2023-09-15 23:00,ZHCC 152300Z VRB01MPS 5000 BR NSC 21/19 Q1012 NOSIG
ZHCC,2023-09-16 00:00,ZHCC 160000Z VRB01MPS 6000 NSC 23/20 Q1013 NOSIG
ZHCC,2023-09-16 01:00,ZHCC 160100Z VRB01MPS 8000 NSC 26/18 Q1013 NOSIG
ZHCC,2023-09-16 02:00,ZHCC 160200Z 20002MPS 130V250 CAVOK 27/18 Q1013 NOSIG
ZHCC,2023-09-16 03:00,ZHCC 160300Z 19003MPS 120V260 CAVOK 29/17 Q1013 NOSIG
ZHCC,2023-09-16 04:00,ZHCC 160400Z 18002MPS 080V240 CAVOK 30/17 Q1012 NOSIG
ZHCC,2023-09-16 05:00,ZHCC 160500Z 15002MPS 090V240 CAVOK 30/17 Q1011 NOSIG
ZHCC,2023-09-16 06:00,ZHCC 160600Z 17002MPS 100V230 CAVOK 31/18 Q1010 NOSIG
ZHCC,2023-09-16 07:00,ZHCC 160700Z 12003MPS 090V190 9999 FEW040 31/18 Q1010 NOSIG
ZHCC,2023-09-16 08:00,ZHCC 160800Z 15002MPS 110V220 9999 FEW040 30/17 Q1010 NOSIG
ZHCC,2023-09-16 09:00,ZHCC 160900Z 14002MPS 100V170 CAVOK 29/18 Q1010 NOSIG
ZHCC,2023-09-16 10:00,ZHCC 161000Z 13001MPS CAVOK 28/18 Q1010 NOSIG
ZHCC,2023-09-16 11:00,ZHCC 161100Z 13001MPS CAVOK 25/19 Q1010 NOSIG
ZHCC,2023-09-16 12:00,ZHCC 161200Z VRB01MPS CAVOK 26/18 Q1010 NOSIG
ZHCC,2023-09-16 13:00,ZHCC 161300Z 14002MPS CAVOK 25/18 Q1011 NOSIG
ZHCC,2023-09-16 14:00,ZHCC 161400Z VRB01MPS CAVOK 24/18 Q1011 NOSIG
ZHCC,2023-09-16 15:00,ZHCC 161500Z 13001MPS CAVOK 23/19 Q1010 NOSIG
ZHCC,2023-09-16 16:00,ZHCC 161600Z VRB01MPS CAVOK 22/19 Q1011 NOSIG
ZHCC,2023-09-16 17:00,ZHCC 161700Z 00000MPS CAVOK 22/19 Q1010 NOSIG
ZHCC,2023-09-16 18:00,ZHCC 161800Z 00000MPS CAVOK 22/20 Q1010 NOSIG
ZHCC,2023-09-16 19:00,ZHCC 161900Z 15001MPS CAVOK 22/19 Q1010 NOSIG
ZHCC,2023-09-16 20:00,ZHCC 162000Z 13001MPS CAVOK 21/19 Q1010 NOSIG
ZHCC,2023-09-16 21:00,ZHCC 162100Z 14001MPS CAVOK 21/19 Q1010 NOSIG
ZHCC,2023-09-16 22:00,ZHCC 162200Z VRB01MPS CAVOK 20/19 Q1010 NOSIG
ZHCC,2023-09-16 23:00,ZHCC 162300Z VRB01MPS CAVOK 23/19 Q1011 NOSIG
ZHCC,2023-09-17 00:00,ZHCC 170000Z VRB01MPS CAVOK 24/19 Q1011 NOSIG
ZHCC,2023-09-17 01:00,ZHCC 170100Z 17002MPS 060V230 CAVOK 25/19 Q1011 NOSIG
ZHCC,2023-09-17 02:00,ZHCC 170200Z 20002MPS 160V240 CAVOK 28/20 Q1011 NOSIG
ZHCC,2023-09-17 03:00,ZHCC 170300Z 15003MPS 100V210 CAVOK 29/21 Q1011 NOSIG
ZHCC,2023-09-17 04:00,ZHCC 170400Z 18003MPS 110V240 CAVOK 30/21 Q1010 NOSIG
ZHCC,2023-09-17 05:00,ZHCC 170500Z 21003MPS 160V240 9999 SCT040 30/21 Q1010 NOSIG
ZHCC,2023-09-17 06:00,ZHCC 170600Z 19003MPS 120V230 9999 SCT040 31/21 Q1009 NOSIG
ZHCC,2023-09-17 07:00,ZHCC 170700Z 20002MPS 120V250 9999 SCT040 31/21 Q1008 NOSIG
ZHCC,2023-09-17 08:00,ZHCC 170800Z 16002MPS 100V210 CAVOK 31/21 Q1008 NOSIG
ZHCC,2023-09-17 09:00,ZHCC 170900Z 18002MPS 140V230 CAVOK 31/21 Q1008 NOSIG
ZHCC,2023-09-17 10:00,ZHCC 171000Z VRB01MPS CAVOK 30/21 Q1007 NOSIG
ZHCC,2023-09-17 11:00,ZHCC 171100Z VRB01MPS CAVOK 28/21 Q1008 NOSIG
ZHCC,2023-09-17 12:00,ZHCC 171200Z 13001MPS CAVOK 27/22 Q1009 NOSIG
ZHCC,2023-09-17 13:00,ZHCC 171300Z VRB01MPS CAVOK 27/22 Q1009 NOSIG
ZHCC,2023-09-17 14:00,ZHCC 171400Z 11001MPS CAVOK 26/22 Q1010 NOSIG
ZHCC,2023-09-17 15:00,ZHCC 171500Z VRB01MPS CAVOK 26/23 Q1010 NOSIG
ZHCC,2023-09-17 16:00,ZHCC 171600Z VRB01MPS CAVOK 26/22 Q1010 NOSIG
ZHCC,2023-09-17 17:00,ZHCC 171700Z 00000MPS CAVOK 25/23 Q1009 NOSIG
ZHCC,2023-09-17 18:00,ZHCC 171800Z 21001MPS CAVOK 26/22 Q1009 NOSIG
ZHCC,2023-09-17 19:00,ZHCC 171900Z 19002MPS 160V220 CAVOK 26/22 Q1008 NOSIG
ZHCC,2023-09-17 20:00,ZHCC 172000Z 23002MPS 190V270 CAVOK 25/23 Q1009 NOSIG
ZHCC,2023-09-17 21:00,ZHCC 172100Z 23003MPS 200V270 CAVOK 25/23 Q1009 NOSIG
ZHCC,2023-09-17 22:00,ZHCC 172200Z VRB01MPS 6000 NSC 24/22 Q1010 NOSIG
ZHCC,2023-09-17 23:00,ZHCC 172300Z VRB01MPS 5000 BR NSC 24/23 Q1010 NOSIG
ZHCC,2023-09-18 00:00,ZHCC 180000Z 34002MPS CAVOK 26/21 Q1011 NOSIG
ZHCC,2023-09-18 01:00,ZHCC 180100Z VRB01MPS CAVOK 27/20 Q1011 NOSIG
ZHCC,2023-09-18 02:00,ZHCC 180200Z VRB01MPS CAVOK 29/21 Q1011 NOSIG
ZHCC,2023-09-18 03:00,ZHCC 180300Z 16003MPS 100V230 CAVOK 29/20 Q1011 NOSIG
ZHCC,2023-09-18 04:00,ZHCC 180400Z 12003MPS 090V150 9999 FEW033 29/21 Q1011 NOSIG
ZHCC,2023-09-18 05:00,ZHCC 180500Z 15002MPS 080V240 9999 FEW033 30/21 Q1010 NOSIG
ZHCC,2023-09-18 06:00,ZHCC 180600Z 18003MPS 110V250 9999 FEW033 31/21 Q1010 NOSIG
ZHCC,2023-09-18 07:00,ZHCC 180700Z 14003MPS 080V190 9999 FEW033 31/22 Q1009 NOSIG
ZHCC,2023-09-18 08:00,ZHCC 180800Z 14003MPS 100V190 9999 SCT033 30/22 Q1009 NOSIG
ZHCC,2023-09-18 09:00,ZHCC 180900Z 15002MPS 110V200 9999 SCT033 29/22 Q1009 NOSIG
ZHCC,2023-09-18 10:00,ZHCC 181000Z 16002MPS 110V200 9999 SCT033 28/22 Q1010 NOSIG
ZHCC,2023-09-18 11:00,ZHCC 181100Z VRB01MPS 9999 SCT033 27/22 Q1010 NOSIG
ZHCC,2023-09-18 12:00,ZHCC 181200Z VRB01MPS 9999 SCT033 26/22 Q1010 NOSIG
ZHCC,2023-09-18 13:00,ZHCC 181300Z VRB01MPS CAVOK 26/22 Q1011 NOSIG
ZHCC,2023-09-18 14:00,ZHCC 181400Z 15001MPS CAVOK 25/23 Q1011 NOSIG
ZHCC,2023-09-18 15:00,ZHCC 181500Z VRB01MPS CAVOK 25/23 Q1011 NOSIG
ZHCC,2023-09-18 16:00,ZHCC 181600Z 10002MPS CAVOK 25/23 Q1011 NOSIG
ZHCC,2023-09-18 17:00,ZHCC 181700Z 11002MPS CAVOK 25/23 Q1010 NOSIG
ZHCC,2023-09-18 18:00,ZHCC 181800Z VRB01MPS 9999 BKN040 25/23 Q1011 NOSIG
ZHCC,2023-09-18 19:00,ZHCC 181900Z VRB01MPS 9999 BKN040 25/23 Q1010 NOSIG
ZHCC,2023-09-18 20:00,ZHCC 182000Z VRB01MPS 5000 -SHRA BR FEW030CB BKN030 24/23 Q1010 RESHRA NOSIG
ZHCC,2023-09-18 21:00,ZHCC 182100Z 12002MPS 100V160 6000 -SHRA FEW030CB BKN030 24/23 Q1010 NOSIG
ZHCC,2023-09-18 22:00,ZHCC 182200Z 10002MPS 6000 FEW010 FEW030CB BKN030 24/23 Q1010 NOSIG
ZHCC,2023-09-18 23:00,ZHCC 182300Z 11002MPS 4000 BR FEW010 OVC040 24/23 Q1010 NOSIG
ZHCC,2023-09-19 00:00,ZHCC 190000Z 14002MPS 080V210 6000 BKN040 24/23 Q1010 NOSIG
ZHCC,2023-09-19 01:00,ZHCC 190100Z 11003MPS 8000 BKN030 25/23 Q1010 NOSIG
ZHCC,2023-09-19 02:00,ZHCC 190200Z 09002MPS 8000 -RA FEW015 BKN030 25/23 Q1011 NOSIG
ZHCC,2023-09-19 03:00,ZHCC 190300Z 05003MPS 6000 -RA SCT015 BKN030 25/23 Q1010 BECMG TL0330 SHRA
ZHCC,2023-09-19 04:00,ZHCC 190400Z 07005MPS 3500 -SHRA BR FEW009 FEW030CB BKN030 24/24 Q1010 RESHRA NOSIG
ZHCC,2023-09-19 05:00,ZHCC 190500Z 07004MPS 3000 -SHRA BR SCT005 FEW030CB BKN030 24/24 Q1009 RESHRA BECMG TL0515 2000 +SHRA
ZHCC,2023-09-19 06:00,ZHCC 190600Z 04005MPS 4000 +SHRA BR SCT006 FEW020CB BKN020 22/22 Q1009 BECMG TL0720 -SHRA
ZHCC,2023-09-19 07:00,ZHCC 190700Z 04006MPS 6000 -SHRA SCT007 OVC030 22/22 Q1009 RESHRA BECMG TL0740 +SHRA
ZHCC,2023-09-19 08:00,ZHCC 190800Z 02007MPS 5000 +SHRA BR SCT008 FEW030CB BKN030 21/21 Q1010 BECMG TL0920 -SHRA
ZHCC,2023-09-19 09:00,ZHCC 190900Z 02010G16MPS 3000 +SHRA BR SCT007 FEW030CB BKN030 19/18 Q1011 BECMG TL0940 -SHRA
ZHCC,2023-09-19 10:00,ZHCC 191000Z 01009G14MPS 8000 -SHRA SCT010 OVC030 19/18 Q1011 RESHRA NOSIG
ZHCC,2023-09-19 11:00,ZHCC 191100Z 01009MPS 9999 SCT010 OVC030 19/17 Q1012 NOSIG
ZHCC,2023-09-19 12:00,ZHCC 191200Z 36008MPS 330V040 9999 SCT010 OVC030 18/16 Q1014 NOSIG
ZHCC,2023-09-19 13:00,ZHCC 191300Z 01008MPS 9999 SCT010 OVC030 18/16 Q1015 NOSIG
ZHCC,2023-09-19 14:00,ZHCC 191400Z 36006MPS 330V030 9999 -SHRA SCT010 OVC030 19/16 Q1015 NOSIG
ZHCC,2023-09-19 15:00,ZHCC 191500Z 36005MPS 9999 -SHRA SCT010 OVC030 18/17 Q1015 NOSIG
ZHCC,2023-09-19 16:00,ZHCC 191600Z 36005MPS 9999 OVC040 19/16 Q1016 NOSIG
ZHCC,2023-09-19 17:00,ZHCC 191700Z 34006MPS 9999 OVC040 19/16 Q1016 NOSIG
ZHCC,2023-09-19 18:00,ZHCC 191800Z 35006MPS CAVOK 20/16 Q1016 NOSIG
ZHCC,2023-09-19 19:00,ZHCC 191900Z 36004MPS CAVOK 20/15 Q1016 NOSIG
ZHCC,2023-09-19 20:00,ZHCC 192000Z 35004MPS 9999 BKN040 20/15 Q1016 NOSIG
ZHCC,2023-09-19 21:00,ZHCC 192100Z 33004MPS CAVOK 19/15 Q1016 NOSIG
ZHCC,2023-09-19 22:00,ZHCC 192200Z 35004MPS CAVOK 20/14 Q1017 NOSIG
ZHCC,2023-09-19 23:00,ZHCC 192300Z 36005MPS 330V030 CAVOK 20/13 Q1017 NOSIG
ZHCC,2023-09-20 00:00,ZHCC 200000Z 01007MPS 340V040 CAVOK 21/12 Q1018 NOSIG
ZHCC,2023-09-20 01:00,ZHCC 200100Z 01007MPS 340V050 CAVOK 22/13 Q1018 NOSIG
ZHCC,2023-09-20 02:00,ZHCC 200200Z 01006MPS 340V050 CAVOK 23/14 Q1018 NOSIG
ZHCC,2023-09-20 03:00,ZHCC 200300Z 02007MPS 350V060 9999 FEW030 24/15 Q1018 NOSIG
ZHCC,2023-09-20 04:00,ZHCC 200400Z 03007MPS 9999 FEW040 25/15 Q1018 NOSIG
ZHCC,2023-09-20 05:00,ZHCC 200500Z 02007MPS 9999 FEW040 25/15 Q1017 NOSIG
ZHCC,2023-09-20 06:00,ZHCC 200600Z 02006G11MPS 340V060 9999 FEW040 26/14 Q1017 NOSIG
ZHCC,2023-09-20 07:00,ZHCC 200700Z 02006MPS 350V060 CAVOK 26/13 Q1017 NOSIG
ZHCC,2023-09-20 08:00,ZHCC 200800Z 02006MPS 350V060 CAVOK 26/13 Q1017 NOSIG
ZHCC,2023-09-20 09:00,ZHCC 200900Z 02005MPS CAVOK 25/14 Q1016 NOSIG
ZHCC,2023-09-20 10:00,ZHCC 201000Z 02003MPS 340V050 CAVOK 24/14 Q1017 NOSIG
ZHCC,2023-09-20 11:00,ZHCC 201100Z 01004MPS 340V040 CAVOK 24/14 Q1017 NOSIG
ZHCC,2023-09-20 12:00,ZHCC 201200Z 01003MPS 350V050 CAVOK 23/14 Q1018 NOSIG
ZHCC,2023-09-20 13:00,ZHCC 201300Z 01004MPS 340V060 CAVOK 23/14 Q1019 NOSIG
ZHCC,2023-09-20 14:00,ZHCC 201400Z 02004MPS 350V050 CAVOK 23/14 Q1019 NOSIG
ZHCC,2023-09-20 15:00,ZHCC 201500Z 01003MPS CAVOK 23/14 Q1018 NOSIG
ZHCC,2023-09-20 16:00,ZHCC 201600Z 02003MPS 350V060 CAVOK 23/14 Q1018 NOSIG
ZHCC,2023-09-20 17:00,ZHCC 201700Z 36003MPS 340V050 CAVOK 22/14 Q1018 NOSIG
ZHCC,2023-09-20 18:00,ZHCC 201800Z 32003MPS 300V020 CAVOK 21/15 Q1018 NOSIG
ZHCC,2023-09-20 19:00,ZHCC 201900Z 34003MPS CAVOK 21/14 Q1018 NOSIG
ZHCC,2023-09-20 20:00,ZHCC 202000Z 34002MPS CAVOK 21/14 Q1018 NOSIG
ZHCC,2023-09-20 21:00,ZHCC 202100Z 32002MPS 9999 -RA OVC046 19/17 Q1018 NOSIG
ZHCC,2023-09-20 22:00,ZHCC 202200Z 32002MPS 280V010 9999 -RA OVC046 20/15 Q1019 NOSIG
ZHCC,2023-09-20 23:00,ZHCC 202300Z 25001MPS 9999 -RA OVC046 19/17 Q1019 NOSIG
ZHCC,2023-09-21 00:00,ZHCC 210000Z VRB01MPS CAVOK 20/17 Q1019 NOSIG
ZHCC,2023-09-21 01:00,ZHCC 210100Z VRB01MPS CAVOK 23/15 Q1020 NOSIG
ZHCC,2023-09-21 02:00,ZHCC 210200Z 08003MPS CAVOK 24/12 Q1020 NOSIG
ZHCC,2023-09-21 03:00,ZHCC 210300Z VRB02MPS CAVOK 25/12 Q1020 NOSIG
ZHCC,2023-09-21 04:00,ZHCC 210400Z 12002MPS 060V200 CAVOK 26/11 Q1019 NOSIG
ZHCC,2023-09-21 05:00,ZHCC 210500Z 07003MPS 010V130 CAVOK 26/12 Q1018 NOSIG
ZHCC,2023-09-21 06:00,ZHCC 210600Z VRB02MPS CAVOK 27/11 Q1017 NOSIG
ZHCC,2023-09-21 07:00,ZHCC 210700Z VRB02MPS CAVOK 26/12 Q1017 NOSIG
ZHCC,2023-09-21 08:00,ZHCC 210800Z 08003MPS 360V170 CAVOK 27/12 Q1016 NOSIG
ZHCC,2023-09-21 09:00,ZHCC 210900Z 13002MPS 100V160 CAVOK 26/11 Q1016 NOSIG
ZHCC,2023-09-21 10:00,ZHCC 211000Z 13002MPS CAVOK 23/11 Q1016 NOSIG
ZHCC,2023-09-21 11:00,ZHCC 211100Z 12002MPS CAVOK 21/12 Q1017 NOSIG
ZHCC,2023-09-21 12:00,ZHCC 211200Z 14001MPS CAVOK 20/15 Q1017 NOSIG
ZHCC,2023-09-21 13:00,ZHCC 211300Z VRB01MPS CAVOK 19/14 Q1017 NOSIG
ZHCC,2023-09-21 14:00,ZHCC 211400Z 26001MPS CAVOK 20/15 Q1017 NOSIG
ZHCC,2023-09-21 15:00,ZHCC 211500Z 30001MPS CAVOK 18/16 Q1017 NOSIG
ZHCC,2023-09-21 16:00,ZHCC 211600Z 20001MPS CAVOK 18/15 Q1017 NOSIG
ZHCC,2023-09-21 17:00,ZHCC 211700Z 28001MPS CAVOK 17/15 Q1017 NOSIG
ZHCC,2023-09-21 18:00,ZHCC 211800Z 00000MPS CAVOK 17/15 Q1017 NOSIG
ZHCC,2023-09-21 19:00,ZHCC 211900Z 13001MPS CAVOK 17/15 Q1016 NOSIG
ZHCC,2023-09-21 20:00,ZHCC 212000Z VRB01MPS CAVOK 16/15 Q1017 NOSIG
ZHCC,2023-09-21 21:00,ZHCC 212100Z 25001MPS CAVOK 15/14 Q1017 NOSIG
ZHCC,2023-09-21 22:00,ZHCC 212200Z 00000MPS CAVOK 15/15 Q1017 NOSIG
ZHCC,2023-09-21 23:00,ZHCC 212300Z 00000MPS CAVOK 15/15 Q1017 NOSIG
ZHCC,2023-09-22 00:00,ZHCC 220000Z VRB01MPS CAVOK 20/15 Q1018 NOSIG
ZHCC,2023-09-22 01:00,ZHCC 220100Z VRB01MPS CAVOK 23/15 Q1018 NOSIG
ZHCC,2023-09-22 02:00,ZHCC 220200Z 10002MPS 070V130 CAVOK 25/12 Q1018 NOSIG
ZHCC,2023-09-22 03:00,ZHCC 220300Z 11003MPS 090V160 CAVOK 25/12 Q1018 NOSIG
ZHCC,2023-09-22 04:00,ZHCC 220400Z 14002MPS 070V210 CAVOK 26/13 Q1017 NOSIG
ZHCC,2023-09-22 05:00,ZHCC 220500Z 10003MPS 020V150 CAVOK 26/10 Q1017 NOSIG
ZHCC,2023-09-22 06:00,ZHCC 220600Z VRB01MPS CAVOK 26/11 Q1016 NOSIG
ZHCC,2023-09-22 07:00,ZHCC 220700Z 11003MPS 070V170 CAVOK 27/11 Q1016 NOSIG
ZHCC,2023-09-22 08:00,ZHCC 220800Z 11002MPS 060V150 CAVOK 26/11 Q1016 NOSIG
ZHCC,2023-09-22 09:00,ZHCC 220900Z 06004MPS CAVOK 26/11 Q1016 NOSIG
ZHCC,2023-09-22 10:00,ZHCC 221000Z 08004MPS CAVOK 25/11 Q1016 NOSIG
ZHCC,2023-09-22 11:00,ZHCC 221100Z 08003MPS CAVOK 24/10 Q1017 NOSIG
ZHCC,2023-09-22 12:00,ZHCC 221200Z 06003MPS CAVOK 24/10 Q1018 NOSIG
ZHCC,2023-09-22 13:00,ZHCC 221300Z 08004MPS CAVOK 24/11 Q1018 NOSIG
ZHCC,2023-09-22 14:00,ZHCC 221400Z 08005MPS CAVOK 24/11 Q1018 NOSIG
ZHCC,2023-09-22 15:00,ZHCC 221500Z 07005MPS CAVOK 23/12 Q1018 NOSIG
ZHCC,2023-09-22 16:00,ZHCC 221600Z 05004MPS CAVOK 22/12 Q1018 NOSIG
ZHCC,2023-09-22 17:00,ZHCC 221700Z 07003MPS CAVOK 22/13 Q1018 NOSIG
ZHCC,2023-09-22 18:00,ZHCC 221800Z 09002MPS CAVOK 21/13 Q1019 NOSIG
ZHCC,2023-09-22 19:00,ZHCC 221900Z 12001MPS CAVOK 20/14 Q1019 NOSIG
ZHCC,2023-09-22 20:00,ZHCC 222000Z 11002MPS CAVOK 20/15 Q1019 NOSIG
ZHCC,2023-09-22 21:00,ZHCC 222100Z 11001MPS CAVOK 20/15 Q1019 NOSIG
ZHCC,2023-09-22 22:00,ZHCC 222200Z 05002MPS CAVOK 20/16 Q1020 NOSIG
ZHCC,2023-09-22 23:00,ZHCC 222300Z 10002MPS 080V140 CAVOK 20/16 Q1021 NOSIG
ZHCC,2023-09-23 00:00,ZHCC 230000Z VRB01MPS CAVOK 20/16 Q1021 NOSIG
ZHCC,2023-09-23 01:00,ZHCC 230100Z 05002MPS 020V090 CAVOK 21/16 Q1021 NOSIG
ZHCC,2023-09-23 02:00,ZHCC 230200Z 14002MPS 110V180 CAVOK 21/16 Q1022 NOSIG
ZHCC,2023-09-23 03:00,ZHCC 230300Z 10004MPS CAVOK 22/16 Q1021 NOSIG
ZHCC,2023-09-23 04:00,ZHCC 230400Z 08003MPS 050V110 CAVOK 23/12 Q1021 NOSIG
ZHCC,2023-09-23 05:00,ZHCC 230500Z 17002MPS 120V210 CAVOK 23/14 Q1020 NOSIG
ZHCC,2023-09-23 06:00,ZHCC 230600Z 12003MPS CAVOK 22/13 Q1020 NOSIG
ZHCC,2023-09-23 07:00,ZHCC 230700Z 14002MPS 110V180 9999 -RA NSC 21/14 Q1019 NOSIG
ZHCC,2023-09-23 08:00,ZHCC 230800Z 12002MPS 090V160 9999 -RA NSC 20/14 Q1019 NOSIG
ZHCC,2023-09-23 09:00,ZHCC 230900Z 12003MPS 9999 -RA NSC 19/14 Q1019 NOSIG
ZHCC,2023-09-23 10:00,ZHCC 231000Z VRB01MPS 9999 -RA OVC046 19/14 Q1019 NOSIG
ZHCC,2023-09-23 11:00,ZHCC 231100Z 26001MPS 9999 -RA OVC046 18/16 Q1020 NOSIG
ZHCC,2023-09-23 12:00,ZHCC 231200Z VRB01MPS 9999 -RA OVC046 17/16 Q1020 NOSIG
ZHCC,2023-09-23 13:00,ZHCC 231300Z 14001MPS 9999 -RA OVC046 17/15 Q1021 NOSIG
ZHCC,2023-09-23 14:00,ZHCC 231400Z VRB01MPS 9999 -RA OVC046 16/15 Q1021 NOSIG
ZHCC,2023-09-23 15:00,ZHCC 231500Z 04002MPS 020V080 9999 -RA OVC046 17/15 Q1021 NOSIG
ZHCC,2023-09-23 16:00,ZHCC 231600Z VRB01MPS 9999 -RA OVC046 16/15 Q1020 NOSIG
ZHCC,2023-09-23 17:00,ZHCC 231700Z VRB01MPS 9999 -RA OVC046 16/15 Q1020 NOSIG
ZHCC,2023-09-23 18:00,ZHCC 231800Z 10001MPS 7000 -RA OVC040 16/15 Q1019 NOSIG
ZHCC,2023-09-23 19:00,ZHCC 231900Z 07002MPS 7000 -RA OVC040 16/15 Q1019 NOSIG
ZHCC,2023-09-23 20:00,ZHCC 232000Z 04002MPS 5000 -RA BR OVC040 16/15 Q1018 NOSIG
ZHCC,2023-09-23 21:00,ZHCC 232100Z 02002MPS 350V050 5000 -RA BR OVC040 16/15 Q1018 NOSIG
ZHCC,2023-09-23 22:00,ZHCC 232200Z 36003MPS 5000 -RA BR OVC040 16/16 Q1018 NOSIG
ZHCC,2023-09-23 23:00,ZHCC 232300Z 02003MPS 4000 -RA BR OVC040 16/16 Q1019 BECMG TL2340 2000
ZHCC,2023-09-24 00:00,ZHCC 240000Z 05004MPS 2500 -RA BR OVC040 16/16 Q1018 BECMG TL0140 3000
ZHCC,2023-09-24 01:00,ZHCC 240100Z 04003MPS 020V080 2500 -RA BR FEW007 OVC040 16/16 Q1019 BECMG TL0240 3000
ZHCC,2023-09-24 02:00,ZHCC 240200Z 04003MPS 3500 BR FEW007 OVC040 17/16 Q1019 NOSIG
ZHCC,2023-09-24 03:00,ZHCC 240300Z 03003MPS 360V060 4500 BR FEW007 OVC040 17/16 Q1018 NOSIG
ZHCC,2023-09-24 04:00,ZHCC 240400Z 04003MPS 010V090 3000 -DZ BR FEW008 OVC040 17/16 Q1018 BECMG TL0440 2500
ZHCC,2023-09-24 05:00,ZHCC 240500Z 02003MPS 350V060 3500 -RA BR FEW006 OVC030 17/16 Q1018 NOSIG
ZHCC,2023-09-24 06:00,ZHCC 240600Z 36003MPS 330V040 3500 -RA BR FEW005 OVC030 17/16 Q1017 NOSIG
ZHCC,2023-09-24 07:00,ZHCC 240700Z 03003MPS 4000 -RA BR FEW005 OVC030 18/17 Q1017 NOSIG
ZHCC,2023-09-24 08:00,ZHCC 240800Z VRB03MPS 7000 FEW005 OVC030 18/17 Q1016 NOSIG
ZHCC,2023-09-24 09:00,ZHCC 240900Z 04003MPS 6000 -RA FEW007 OVC030 18/17 Q1016 NOSIG
ZHCC,2023-09-24 10:00,ZHCC 241000Z 04003MPS 8000 -RA FEW007 OVC030 17/17 Q1017 NOSIG
ZHCC,2023-09-24 11:00,ZHCC 241100Z 01002MPS 340V040 8000 -RA FEW007 OVC030 17/16 Q1017 NOSIG
ZHCC,2023-09-24 12:00,ZHCC 241200Z 02003MPS 8000 FEW007 OVC030 17/16 Q1018 NOSIG
ZHCC,2023-09-24 13:00,ZHCC 241300Z 03003MPS 350V060 8000 -RA FEW007 OVC030 17/16 Q1018 NOSIG
ZHCC,2023-09-24 14:00,ZHCC 241400Z 04003MPS 8000 FEW007 OVC030 17/16 Q1018 NOSIG
ZHCC,2023-09-24 15:00,ZHCC 241500Z 04003MPS 020V080 8000 FEW007 OVC030 17/16 Q1018 NOSIG
ZHCC,2023-09-24 16:00,ZHCC 241600Z 36002MPS 8000 FEW007 OVC030 17/16 Q1018 NOSIG
ZHCC,2023-09-24 17:00,ZHCC 241700Z 33002MPS 8000 FEW007 OVC030 17/16 Q1018 NOSIG
ZHCC,2023-09-24 18:00,ZHCC 241800Z 34002MPS 8000 FEW007 OVC030 17/16 Q1017 NOSIG
ZHCC,2023-09-24 19:00,ZHCC 241900Z 34002MPS 320V020 8000 FEW007 OVC030 17/16 Q1017 NOSIG
ZHCC,2023-09-24 20:00,ZHCC 242000Z VRB01MPS 6000 FEW015 OVC030 17/16 Q1017 NOSIG
ZHCC,2023-09-24 21:00,ZHCC 242100Z 36002MPS 6000 FEW010 OVC030 17/16 Q1017 NOSIG
ZHCC,2023-09-24 22:00,ZHCC 242200Z 35002MPS 310V020 6000 -RA FEW010 OVC030 17/16 Q1017 NOSIG
ZHCC,2023-09-24 23:00,ZHCC 242300Z 31002MPS 5000 -RA BR FEW010 OVC030 17/16 Q1017 NOSIG
ZHCC,2023-09-25 00:00,ZHCC 250000Z VRB01MPS 5000 -RA BR FEW010 OVC030 17/16 Q1018 NOSIG
ZHCC,2023-09-25 01:00,ZHCC 250100Z 35002MPS 7000 BKN046 18/16 Q1018 NOSIG
ZHCC,2023-09-25 02:00,ZHCC 250200Z VRB01MPS 7000 FEW010 OVC046 19/16 Q1019 NOSIG
ZHCC,2023-09-25 03:00,ZHCC 250300Z VRB01MPS 7000 FEW015 OVC046 19/16 Q1018 NOSIG
ZHCC,2023-09-25 04:00,ZHCC 250400Z 30003MPS 6000 -RA FEW015 OVC046 19/17 Q1018 NOSIG
ZHCC,2023-09-25 05:00,ZHCC 250500Z 30002MPS 6000 -RA SCT015 OVC040 19/17 Q1018 NOSIG
ZHCC,2023-09-25 06:00,ZHCC 250600Z 28001MPS 4000 -RA BR SCT015 OVC040 19/17 Q1017 NOSIG
ZHCC,2023-09-25 07:00,ZHCC 250700Z VRB01MPS 5000 -RA BR SCT015 OVC040 19/17 Q1016 NOSIG
ZHCC,2023-09-25 08:00,ZHCC 250800Z VRB01MPS 6000 FEW015 OVC040 19/17 Q1016 NOSIG
ZHCC,2023-09-25 09:00,ZHCC 250900Z VRB01MPS 6000 -RA FEW015 OVC033 19/17 Q1016 NOSIG
ZHCC,2023-09-25 10:00,ZHCC 251000Z 31001MPS 6000 -RA FEW015 OVC033 19/17 Q1016 NOSIG
ZHCC,2023-09-25 11:00,ZHCC 251100Z 00000MPS 6000 FEW010 OVC030 18/18 Q1016 NOSIG
ZHCC,2023-09-25 12:00,ZHCC 251200Z 19001MPS 4000 BR OVC040 18/18 Q1016 NOSIG
ZHCC,2023-09-25 13:00,ZHCC 251300Z VRB01MPS 3500 BR NSC 18/18 Q1017 NOSIG
ZHCC,2023-09-25 14:00,ZHCC 251400Z VRB01MPS 4000 -RA BR FEW005 19/18 Q1017 NOSIG
ZHCC,2023-09-25 15:00,ZHCC 251500Z VRB01MPS 3000 -RA BR FEW005 18/18 Q1017 NOSIG
ZHCC,2023-09-25 16:00,ZHCC 251600Z VRB01MPS 3000 -RA BR NSC 18/18 Q1017 NOSIG
ZHCC,2023-09-25 17:00,ZHCC 251700Z VRB01MPS 4000 -RA BR NSC 18/18 Q1017 NOSIG
ZHCC,2023-09-25 18:00,ZHCC 251800Z 29001MPS 4000 -RA BR NSC 18/18 Q1016 NOSIG
ZHCC,2023-09-25 19:00,ZHCC 251900Z VRB01MPS 3000 -RA BR NSC 18/18 Q1016 NOSIG
ZHCC,2023-09-25 20:00,ZHCC 252000Z 00000MPS 3000 BR NSC 18/18 Q1016 NOSIG
ZHCC,2023-09-25 21:00,ZHCC 252100Z VRB01MPS 3000 -RA BR NSC 18/18 Q1016 BECMG TL2240 2000
ZHCC,2023-09-25 22:00,ZHCC 252200Z 26001MPS 3000 BR NSC 18/18 Q1016 BECMG TL2240 2000
ZHCC,2023-09-25 23:00,ZHCC 252300Z VRB01MPS 2000 -RA BR OVC046 18/18 Q1017 BECMG TL0040 3000
ZHCC,2023-09-26 00:00,ZHCC 260000Z VRB01MPS 2500 BR OVC046 19/18 Q1017 BECMG TL0140 3000
ZHCC,2023-09-26 01:00,ZHCC 260100Z 18002MPS 150V210 3000 BR OVC046 19/18 Q1017 NOSIG
ZHCC,2023-09-26 02:00,ZHCC 260200Z VRB01MPS 4000 -RA BR OVC046 20/18 Q1017 NOSIG
ZHCC,2023-09-26 03:00,ZHCC 260300Z 26002MPS 6000 NSC 20/18 Q1018 NOSIG
ZHCC,2023-09-26 04:00,ZHCC 260400Z VRB01MPS 8000 NSC 21/18 Q1017 NOSIG
ZHCC,2023-09-26 05:00,ZHCC 260500Z VRB01MPS CAVOK 21/18 Q1016 NOSIG
ZHCC,2023-09-26 06:00,ZHCC 260600Z 32002MPS 280V340 CAVOK 21/17 Q1016 NOSIG
ZHCC,2023-09-26 07:00,ZHCC 260700Z 32004MPS 9999 -RA NSC 21/17 Q1016 NOSIG
ZHCC,2023-09-26 08:00,ZHCC 260800Z 32003MPS 9999 -RA NSC 21/17 Q1016 NOSIG
ZHCC,2023-09-26 09:00,ZHCC 260900Z 33001MPS CAVOK 21/17 Q1015 NOSIG
ZHCC,2023-09-26 10:00,ZHCC 261000Z 32001MPS CAVOK 21/17 Q1016 NOSIG
ZHCC,2023-09-26 11:00,ZHCC 261100Z 00000MPS CAVOK 19/18 Q1016 NOSIG
ZHCC,2023-09-26 12:00,ZHCC 261200Z 00000MPS CAVOK 19/18 Q1016 NOSIG
ZHCC,2023-09-26 13:00,ZHCC 261300Z VRB01MPS CAVOK 19/18 Q1016 NOSIG
ZHCC,2023-09-26 14:00,ZHCC 261400Z 00000MPS CAVOK 19/18 Q1016 NOSIG
ZHCC,2023-09-26 15:00,ZHCC 261500Z 00000MPS CAVOK 19/18 Q1016 NOSIG
ZHCC,2023-09-26 16:00,ZHCC 261600Z VRB01MPS CAVOK 19/18 Q1016 NOSIG
ZHCC,2023-09-26 17:00,ZHCC 261700Z 20001MPS 6000 NSC 19/18 Q1015 NOSIG
ZHCC,2023-09-26 18:00,ZHCC 261800Z VRB01MPS 6000 NSC 19/18 Q1015 NOSIG
ZHCC,2023-09-26 19:00,ZHCC 261900Z 00000MPS 6000 NSC 19/18 Q1015 NOSIG
ZHCC,2023-09-26 20:00,ZHCC 262000Z 31001MPS 6000 NSC 19/18 Q1014 NOSIG
ZHCC,2023-09-26 21:00,ZHCC 262100Z VRB01MPS 6000 NSC 19/18 Q1014 NOSIG
ZHCC,2023-09-26 22:00,ZHCC 262200Z 00000MPS 6000 NSC 19/18 Q1014 NOSIG
ZHCC,2023-09-26 23:00,ZHCC 262300Z VRB01MPS 6000 NSC 19/18 Q1014 NOSIG
ZHCC,2023-09-27 00:00,ZHCC 270000Z VRB01MPS 6000 NSC 19/18 Q1015 NOSIG
ZHCC,2023-09-27 01:00,ZHCC 270100Z 20002MPS 160V240 8000 NSC 20/18 Q1015 NOSIG
ZHCC,2023-09-27 02:00,ZHCC 270200Z VRB01MPS 8000 NSC 21/18 Q1015 NOSIG
ZHCC,2023-09-27 03:00,ZHCC 270300Z VRB01MPS 8000 NSC 21/18 Q1016 NOSIG
ZHCC,2023-09-27 04:00,ZHCC 270400Z 30002MPS 9999 BKN040 21/19 Q1016 NOSIG
ZHCC,2023-09-27 05:00,ZHCC 270500Z 32002MPS 290V350 9999 BKN040 22/18 Q1016 NOSIG
ZHCC,2023-09-27 06:00,ZHCC 270600Z 32005MPS 9999 -RA NSC 21/18 Q1016 NOSIG
ZHCC,2023-09-27 07:00,ZHCC 270700Z 33003MPS 9999 -RA NSC 19/16 Q1016 NOSIG
ZHCC,2023-09-27 08:00,ZHCC 270800Z VRB01MPS 9999 -RA NSC 19/16 Q1016 NOSIG
ZHCC,2023-09-27 09:00,ZHCC 270900Z 26002MPS 210V290 CAVOK 19/17 Q1016 NOSIG
ZHCC,2023-09-27 10:00,ZHCC 271000Z 27001MPS CAVOK 19/17 Q1016 NOSIG
ZHCC,2023-09-27 11:00,ZHCC 271100Z 23001MPS CAVOK 18/17 Q1016 NOSIG
ZHCC,2023-09-27 12:00,ZHCC 271200Z 27001MPS CAVOK 18/17 Q1017 NOSIG
ZHCC,2023-09-27 13:00,ZHCC 271300Z VRB01MPS CAVOK 18/17 Q1017 NOSIG
ZHCC,2023-09-27 14:00,ZHCC 271400Z VRB01MPS CAVOK 17/17 Q1018 NOSIG
ZHCC,2023-09-27 15:00,ZHCC 271500Z 26001MPS CAVOK 18/17 Q1017 NOSIG
ZHCC,2023-09-27 16:00,ZHCC 271600Z 00000MPS CAVOK 17/17 Q1017 NOSIG
ZHCC,2023-09-27 17:00,ZHCC 271700Z VRB01MPS CAVOK 17/16 Q1017 NOSIG
ZHCC,2023-09-27 18:00,ZHCC 271800Z 00000MPS CAVOK 17/16 Q1017 NOSIG
ZHCC,2023-09-27 19:00,ZHCC 271900Z 00000MPS 6000 PRFG NSC 16/15 Q1017 NOSIG
ZHCC,2023-09-27 20:00,ZHCC 272000Z 30001MPS 6000 PRFG NSC 15/15 Q1017 NOSIG
ZHCC,2023-09-27 21:00,ZHCC 272100Z VRB01MPS 5000 PRFG BR NSC 16/15 Q1017 BECMG TL2240 2500
ZHCC,2023-09-27 22:00,ZHCC 272200Z 00000MPS 5000 BR NSC 15/15 Q1017 NOSIG
ZHCC,2023-09-27 23:00,ZHCC 272300Z VRB01MPS 5000 BR NSC 16/16 Q1018 NOSIG
ZHCC,2023-09-28 00:00,ZHCC 280000Z 00000MPS 5000 BR NSC 18/17 Q1019 NOSIG
ZHCC,2023-09-28 01:00,ZHCC 280100Z VRB01MPS CAVOK 21/16 Q1019 NOSIG
ZHCC,2023-09-28 02:00,ZHCC 280200Z 13002MPS 090V180 9999 FEW040 21/16 Q1019 NOSIG
ZHCC,2023-09-28 03:00,ZHCC 280300Z 08002MPS 360V110 9999 FEW033 22/15 Q1019 NOSIG
ZHCC,2023-09-28 04:00,ZHCC 280400Z 07002MPS 010V140 9999 FEW026 23/16 Q1019 NOSIG
ZHCC,2023-09-28 05:00,ZHCC 280500Z VRB01MPS 9999 FEW026 23/15 Q1018 NOSIG
ZHCC,2023-09-28 06:00,ZHCC 280600Z 34002MPS 9999 -RA FEW026 22/16 Q1017 NOSIG
ZHCC,2023-09-28 07:00,ZHCC 280700Z 36003MPS 9999 -RA FEW026 22/17 Q1017 NOSIG
ZHCC,2023-09-28 08:00,ZHCC 280800Z 33005MPS 9999 OVC040 21/18 Q1018 NOSIG
ZHCC,2023-09-28 09:00,ZHCC 280900Z 36005MPS 6000 -RA FEW010 OVC040 20/17 Q1018 NOSIG
ZHCC,2023-09-28 10:00,ZHCC 281000Z 32003MPS 6000 -RA FEW010 OVC040 18/17 Q1018 NOSIG
ZHCC,2023-09-28 11:00,ZHCC 281100Z 33003MPS 6000 -RA FEW010 OVC040 18/17 Q1018 NOSIG
ZHCC,2023-09-28 12:00,ZHCC 281200Z 34002MPS 4000 -RA BR FEW006 OVC040 18/17 Q1019 NOSIG
ZHCC,2023-09-28 13:00,ZHCC 281300Z 30002MPS 4000 RA BR FEW006 OVC040 18/17 Q1019 BECMG TL1330 -RA
ZHCC,2023-09-28 14:00,ZHCC 281400Z VRB01MPS 3000 -RA BR FEW006 OVC040 18/17 Q1019 RERA NOSIG
ZHCC,2023-09-28 15:00,ZHCC 281500Z 34004MPS 4000 -RA BR FEW006 OVC040 17/16 Q1019 NOSIG
ZHCC,2023-09-28 16:00,ZHCC 281600Z 36002MPS 5000 -RA BR SCT006 OVC040 17/16 Q1018 NOSIG
ZHCC,2023-09-28 17:00,ZHCC 281700Z VRB01MPS 5000 -RA BR SCT006 OVC040 17/16 Q1018 BECMG TL1730 RA
ZHCC,2023-09-28 18:00,ZHCC 281800Z VRB01MPS 5000 -RA BR SCT006 OVC040 16/16 Q1018 RERA NOSIG
ZHCC,2023-09-28 19:00,ZHCC 281900Z VRB01MPS 5000 -RA BR FEW010 OVC040 17/16 Q1017 NOSIG
ZHCC,2023-09-28 20:00,ZHCC 282000Z VRB01MPS 5000 BR OVC030 17/16 Q1017 NOSIG
ZHCC,2023-09-28 21:00,ZHCC 282100Z 27001MPS 5000 BR OVC020 17/16 Q1017 NOSIG
ZHCC,2023-09-28 22:00,ZHCC 282200Z 30001MPS 5000 BR OVC040 17/16 Q1017 NOSIG
ZHCC,2023-09-28 23:00,ZHCC 282300Z VRB01MPS 4000 BR OVC020 17/16 Q1018 NOSIG
ZHCC,2023-09-29 00:00,ZHCC 290000Z 00000MPS 6000 OVC020 17/16 Q1018 NOSIG
ZHCC,2023-09-29 01:00,ZHCC 290100Z 28001MPS 8000 OVC020 18/17 Q1018 NOSIG
ZHCC,2023-09-29 02:00,ZHCC 290200Z 18001MPS CAVOK 20/17 Q1018 NOSIG
ZHCC,2023-09-29 03:00,ZHCC 290300Z VRB01MPS CAVOK 22/17 Q1018 NOSIG
ZHCC,2023-09-29 04:00,ZHCC 290400Z 27002MPS 220V330 CAVOK 22/17 Q1016 NOSIG
ZHCC,2023-09-29 05:00,ZHCC 290500Z 23002MPS 180V320 CAVOK 23/17 Q1016 NOSIG
ZHCC,2023-09-29 06:00,ZHCC 290600Z 25002MPS 190V290 CAVOK 24/17 Q1015 NOSIG
ZHCC,2023-09-29 07:00,ZHCC 290700Z 19002MPS 130V240 CAVOK 24/17 Q1014 NOSIG
ZHCC,2023-09-29 08:00,ZHCC 290800Z 21003MPS 170V240 CAVOK 24/18 Q1014 NOSIG
ZHCC,2023-09-29 09:00,ZHCC 290900Z 19003MPS 130V210 CAVOK 24/18 Q1014 NOSIG
ZHCC,2023-09-29 10:00,ZHCC 291000Z VRB01MPS CAVOK 22/19 Q1014 NOSIG
ZHCC,2023-09-29 11:00,ZHCC 291100Z VRB01MPS CAVOK 22/19 Q1014 NOSIG
ZHCC,2023-09-29 12:00,ZHCC 291200Z VRB01MPS CAVOK 20/19 Q1014 NOSIG
ZHCC,2023-09-29 13:00,ZHCC 291300Z VRB01MPS CAVOK 20/18 Q1015 NOSIG
ZHCC,2023-09-29 14:00,ZHCC 291400Z VRB01MPS 7000 NSC 18/18 Q1015 NOSIG
ZHCC,2023-09-29 15:00,ZHCC 291500Z 29001MPS 7000 NSC 18/18 Q1014 NOSIG
ZHCC,2023-09-29 16:00,ZHCC 291600Z VRB01MPS 8000 NSC 18/17 Q1014 NOSIG
ZHCC,2023-09-29 17:00,ZHCC 291700Z 00000MPS 8000 NSC 16/16 Q1014 NOSIG
ZHCC,2023-09-29 18:00,ZHCC 291800Z 26001MPS 8000 NSC 16/15 Q1014 NOSIG
ZHCC,2023-09-29 19:00,ZHCC 291900Z 27002MPS CAVOK 17/15 Q1014 NOSIG
ZHCC,2023-09-29 20:00,ZHCC 292000Z 26002MPS CAVOK 18/15 Q1015 NOSIG
ZHCC,2023-09-29 21:00,ZHCC 292100Z 35002MPS CAVOK 19/14 Q1015 NOSIG
ZHCC,2023-09-29 22:00,ZHCC 292200Z 34003MPS CAVOK 19/14 Q1016 NOSIG
ZHCC,2023-09-29 23:00,ZHCC 292300Z 33002MPS CAVOK 17/14 Q1016 NOSIG
ZHCC,2023-09-30 00:00,ZHCC 300000Z 32003MPS CAVOK 21/15 Q1017 NOSIG
ZHCC,2023-09-30 01:00,ZHCC 300100Z 02007MPS CAVOK 23/13 Q1018 NOSIG
ZHCC,2023-09-30 02:00,ZHCC 300200Z 02006MPS CAVOK 23/14 Q1018 NOSIG
ZHCC,2023-09-30 03:00,ZHCC 300300Z 02008MPS CAVOK 25/13 Q1018 NOSIG
ZHCC,2023-09-30 04:00,ZHCC 300400Z 36007MPS CAVOK 26/12 Q1018 NOSIG
ZHCC,2023-09-30 05:00,ZHCC 300500Z 02007MPS 350V050 CAVOK 26/11 Q1017 NOSIG
ZHCC,2023-09-30 06:00,ZHCC 300600Z 04006MPS 360V080 CAVOK 26/13 Q1017 NOSIG
ZHCC,2023-09-30 07:00,ZHCC 300700Z 06006MPS CAVOK 25/14 Q1016 NOSIG
ZHCC,2023-09-30 08:00,ZHCC 300800Z 05004MPS CAVOK 24/13 Q1017 NOSIG
ZHCC,2023-09-30 09:00,ZHCC 300900Z 07005MPS 7000 NSC 23/16 Q1016 NOSIG
ZHCC,2023-09-30 10:00,ZHCC 301000Z 10003MPS 6000 NSC 21/17 Q1017 NOSIG
ZHCC,2023-09-30 11:00,ZHCC 301100Z 11002MPS 6000 NSC 20/17 Q1017 NOSIG
ZHCC,2023-09-30 12:00,ZHCC 301200Z VRB01MPS 6000 NSC 20/17 Q1017 NOSIG
ZHCC,2023-09-30 13:00,ZHCC 301300Z VRB01MPS 6000 NSC 19/17 Q1018 NOSIG
ZHCC,2023-09-30 14:00,ZHCC 301400Z VRB01MPS 6000 NSC 19/17 Q1018 NOSIG
ZHCC,2023-09-30 15:00,ZHCC 301500Z 22002MPS 6000 NSC 19/17 Q1018 NOSIG
ZHCC,2023-09-30 16:00,ZHCC 301600Z 32001MPS 5000 BR NSC 17/16 Q1018 NOSIG
ZHCC,2023-09-30 17:00,ZHCC 301700Z 30001MPS 5000 BR NSC 15/14 Q1018 NOSIG
ZHCC,2023-09-30 18:00,ZHCC 301800Z 29002MPS 3000 BR NSC 15/14 Q1018 NOSIG
ZHCC,2023-09-30 19:00,ZHCC 301900Z VRB01MPS 4000 BR NSC 16/15 Q1019 NOSIG
ZHCC,2023-09-30 20:00,ZHCC 302000Z 26001MPS 4000 BR NSC 16/15 Q1019 NOSIG
ZHCC,2023-09-30 21:00,ZHCC 302100Z 29001MPS 3000 BR NSC 15/14 Q1019 BECMG TL2220 2000
ZHCC,2023-09-30 22:00,ZHCC 302200Z 29001MPS 2000 R30L/1400N R30R/P2000 BR NSC 16/15 Q1019 BECMG TL2340 3000
ZHCC,2023-09-30 23:00,ZHCC 302300Z 00000MPS 2000 R30L/1400N R30R/P2000 BR NSC 15/15 Q1019 BECMG TL0040 3000
ZHCC,2023-10-01 00:00,ZHCC 010000Z 06002MPS 5000 HZ NSC 18/13 Q1020 NOSIG
ZHCC,2023-10-01 01:00,ZHCC 010100Z 06002MPS 040V100 7000 NSC 19/13 Q1020 NOSIG
ZHCC,2023-10-01 02:00,ZHCC 010200Z 08002MPS 050V110 CAVOK 21/11 Q1021 NOSIG
ZHCC,2023-10-01 03:00,ZHCC 010300Z 09004MPS 060V130 CAVOK 23/07 Q1020 NOSIG
ZHCC,2023-10-01 04:00,ZHCC 010400Z 09005MPS 060V120 CAVOK 23/06 Q1019 NOSIG
ZHCC,2023-10-01 05:00,ZHCC 010500Z 09003MPS 050V130 CAVOK 24/05 Q1019 NOSIG
ZHCC,2023-10-01 06:00,ZHCC 010600Z 08003MPS 040V100 CAVOK 24/06 Q1018 NOSIG
ZHCC,2023-10-01 07:00,ZHCC 010700Z 06004MPS 030V100 CAVOK 24/05 Q1018 NOSIG
ZHCC,2023-10-01 08:00,ZHCC 010800Z 05003MPS CAVOK 23/07 Q1018 NOSIG
ZHCC,2023-10-01 09:00,ZHCC 010900Z 03003MPS 010V070 CAVOK 23/06 Q1018 NOSIG
ZHCC,2023-10-01 10:00,ZHCC 011000Z VRB01MPS 9999 -RA NSC 20/11 Q1018 NOSIG
ZHCC,2023-10-01 11:00,ZHCC 011100Z 22001MPS 9999 -RA NSC 19/13 Q1018 NOSIG
ZHCC,2023-10-01 12:00,ZHCC 011200Z 26003MPS 9999 -RA NSC 17/15 Q1019 NOSIG
ZHCC,2023-10-01 13:00,ZHCC 011300Z 30003MPS 9999 -RA NSC 17/15 Q1020 NOSIG
ZHCC,2023-10-01 14:00,ZHCC 011400Z 32004MPS 9999 -RA NSC 16/13 Q1021 NOSIG
ZHCC,2023-10-01 15:00,ZHCC 011500Z 29003MPS 9999 -RA NSC 15/12 Q1021 NOSIG
ZHCC,2023-10-01 16:00,ZHCC 011600Z 30004MPS 9999 -RA NSC 15/13 Q1021 NOSIG
ZHCC,2023-10-01 17:00,ZHCC 011700Z 32003MPS CAVOK 15/14 Q1020 NOSIG
ZHCC,2023-10-01 18:00,ZHCC 011800Z 28003MPS 250V310 CAVOK 15/13 Q1019 NOSIG
ZHCC,2023-10-01 19:00,ZHCC 011900Z VRB01MPS 9999 -RA NSC 15/13 Q1019 NOSIG
ZHCC,2023-10-01 20:00,ZHCC 012000Z VRB01MPS CAVOK 15/13 Q1019 NOSIG
ZHCC,2023-10-01 21:00,ZHCC 012100Z VRB01MPS CAVOK 15/13 Q1019 NOSIG
ZHCC,2023-10-01 22:00,ZHCC 012200Z 00000MPS CAVOK 15/13 Q1019 NOSIG
ZHCC,2023-10-01 23:00,ZHCC 012300Z 34002MPS 9999 OVC040 16/13 Q1020 NOSIG
ZHCC,2023-10-02 00:00,ZHCC 020000Z 32003MPS 9999 OVC040 16/13 Q1020 NOSIG
ZHCC,2023-10-02 01:00,ZHCC 020100Z 35003MPS 310V010 9999 OVC040 16/13 Q1021 NOSIG
ZHCC,2023-10-02 02:00,ZHCC 020200Z 34003MPS 9999 OVC040 16/13 Q1020 NOSIG
ZHCC,2023-10-02 03:00,ZHCC 020300Z 32003MPS 9999 OVC040 16/14 Q1020 NOSIG
ZHCC,2023-10-02 04:00,ZHCC 020400Z 30003MPS 9999 OVC040 17/14 Q1019 NOSIG
ZHCC,2023-10-02 05:00,ZHCC 020500Z 31002MPS 260V360 9999 OVC040 18/14 Q1019 NOSIG
ZHCC,2023-10-02 06:00,ZHCC 020600Z 31004MPS 9999 -DZ SCT026 OVC040 17/14 Q1018 NOSIG
ZHCC,2023-10-02 07:00,ZHCC 020700Z 34004MPS 9999 OVC040 17/14 Q1018 NOSIG
ZHCC,2023-10-02 08:00,ZHCC 020800Z 32003MPS 9999 OVC040 17/14 Q1018 NOSIG
ZHCC,2023-10-02 09:00,ZHCC 020900Z 33002MPS 9999 OVC040 17/14 Q1018 NOSIG
ZHCC,2023-10-02 10:00,ZHCC 021000Z VRB01MPS 9999 OVC040 16/14 Q1017 NOSIG
ZHCC,2023-10-02 11:00,ZHCC 021100Z 30002MPS 9999 OVC040 16/14 Q1018 NOSIG
ZHCC,2023-10-02 12:00,ZHCC 021200Z 35002MPS 9999 OVC040 16/14 Q1018 NOSIG
ZHCC,2023-10-02 13:00,ZHCC 021300Z 32003MPS 9999 OVC040 16/14 Q1019 NOSIG
ZHCC,2023-10-02 14:00,ZHCC 021400Z 30001MPS 9999 OVC040 16/15 Q1019 NOSIG
ZHCC,2023-10-02 15:00,ZHCC 021500Z 29002MPS 9999 OVC040 16/15 Q1018 NOSIG
ZHCC,2023-10-02 16:00,ZHCC 021600Z VRB01MPS 9999 OVC040 16/15 Q1018 NOSIG
ZHCC,2023-10-02 17:00,ZHCC 021700Z 28002MPS 9999 OVC040 16/15 Q1018 NOSIG
ZHCC,2023-10-02 18:00,ZHCC 021800Z 29002MPS 9999 OVC040 16/14 Q1017 NOSIG
ZHCC,2023-10-02 19:00,ZHCC 021900Z 27001MPS CAVOK 16/15 Q1017 NOSIG
ZHCC,2023-10-02 20:00,ZHCC 022000Z 28001MPS CAVOK 16/15 Q1017 NOSIG
ZHCC,2023-10-02 21:00,ZHCC 022100Z VRB01MPS CAVOK 16/14 Q1016 NOSIG
ZHCC,2023-10-02 22:00,ZHCC 022200Z 27001MPS CAVOK 16/15 Q1017 NOSIG
ZHCC,2023-10-02 23:00,ZHCC 022300Z VRB01MPS 7000 NSC 16/15 Q1017 NOSIG
ZHCC,2023-10-03 00:00,ZHCC 030000Z VRB01MPS CAVOK 18/15 Q1018 NOSIG
ZHCC,2023-10-03 01:00,ZHCC 030100Z 19002MPS 120V240 CAVOK 19/14 Q1017 NOSIG
ZHCC,2023-10-03 02:00,ZHCC 030200Z 20002MPS 120V250 CAVOK 21/15 Q1018 NOSIG
ZHCC,2023-10-03 03:00,ZHCC 030300Z VRB01MPS CAVOK 22/14 Q1018 NOSIG
ZHCC,2023-10-03 04:00,ZHCC 030400Z 11002MPS 070V140 9999 SCT030 22/14 Q1017 NOSIG
ZHCC,2023-10-03 05:00,ZHCC 030500Z VRB02MPS 9999 SCT030 23/15 Q1016 NOSIG
ZHCC,2023-10-03 06:00,ZHCC 030600Z VRB01MPS 9999 BKN040 24/15 Q1016 NOSIG
ZHCC,2023-10-03 07:00,ZHCC 030700Z 16002MPS 090V250 9999 SCT040 24/15 Q1015 NOSIG
ZHCC,2023-10-03 08:00,ZHCC 030800Z 15002MPS 110V190 9999 SCT040 23/15 Q1015 NOSIG
ZHCC,2023-10-03 09:00,ZHCC 030900Z VRB01MPS CAVOK 23/15 Q1015 NOSIG
ZHCC,2023-10-03 10:00,ZHCC 031000Z VRB01MPS CAVOK 21/16 Q1015 NOSIG
ZHCC,2023-10-03 11:00,ZHCC 031100Z VRB01MPS CAVOK 20/16 Q1015 NOSIG
ZHCC,2023-10-03 12:00,ZHCC 031200Z 00000MPS CAVOK 19/17 Q1017 NOSIG
ZHCC,2023-10-03 13:00,ZHCC 031300Z VRB01MPS CAVOK 19/16 Q1017 NOSIG
ZHCC,2023-10-03 14:00,ZHCC 031400Z VRB01MPS CAVOK 18/16 Q1017 NOSIG
ZHCC,2023-10-03 15:00,ZHCC 031500Z VRB01MPS CAVOK 18/17 Q1017 NOSIG
ZHCC,2023-10-03 16:00,ZHCC 031600Z 19002MPS 160V220 CAVOK 20/16 Q1017 NOSIG
ZHCC,2023-10-03 17:00,ZHCC 031700Z 19002MPS 150V220 8000 NSC 19/16 Q1017 NOSIG
ZHCC,2023-10-03 18:00,ZHCC 031800Z VRB01MPS 8000 NSC 19/16 Q1017 NOSIG
ZHCC,2023-10-03 19:00,ZHCC 031900Z VRB01MPS 8000 NSC 19/16 Q1017 NOSIG
ZHCC,2023-10-03 20:00,ZHCC 032000Z 00000MPS CAVOK 19/16 Q1016 NOSIG
ZHCC,2023-10-03 21:00,ZHCC 032100Z 00000MPS CAVOK 18/16 Q1017 NOSIG
ZHCC,2023-10-03 22:00,ZHCC 032200Z VRB01MPS CAVOK 18/16 Q1017 NOSIG
ZHCC,2023-10-03 23:00,ZHCC 032300Z 00000MPS 7000 NSC 18/17 Q1018 NOSIG
ZHCC,2023-10-04 00:00,ZHCC 040000Z 30002MPS 260V320 6000 NSC 19/17 Q1019 NOSIG
ZHCC,2023-10-04 01:00,ZHCC 040100Z 12001MPS 6000 NSC 20/17 Q1019 NOSIG
ZHCC,2023-10-04 02:00,ZHCC 040200Z VRB01MPS 6000 NSC 21/17 Q1019 NOSIG
ZHCC,2023-10-04 03:00,ZHCC 040300Z 03003MPS 360V070 6000 NSC 21/17 Q1019 NOSIG
ZHCC,2023-10-04 04:00,ZHCC 040400Z 01004MPS 340V040 6000 -RA OVC046 20/18 Q1019 NOSIG
ZHCC,2023-10-04 05:00,ZHCC 040500Z 01002MPS 340V040 6000 -RA OVC046 21/18 Q1019 NOSIG
ZHCC,2023-10-04 06:00,ZHCC 040600Z 33003MPS 6000 NSC 22/18 Q1019 NOSIG
ZHCC,2023-10-04 07:00,ZHCC 040700Z 33002MPS 300V360 6000 -RA OVC040 21/18 Q1020 NOSIG
ZHCC,2023-10-04 08:00,ZHCC 040800Z 31002MPS 5000 -RA BR OVC040 21/18 Q1020 NOSIG
ZHCC,2023-10-04 09:00,ZHCC 040900Z 34002MPS 310V020 5000 -RA BR OVC040 20/18 Q1021 BECMG TL0930 RA
ZHCC,2023-10-04 10:00,ZHCC 041000Z 29002MPS 4000 -RA BR OVC040 19/17 Q1021 NOSIG
ZHCC,2023-10-04 11:00,ZHCC 041100Z 28002MPS 240V310 4000 -RA BR OVC040 18/17 Q1022 NOSIG
ZHCC,2023-10-04 12:00,ZHCC 041200Z 28001MPS 4000 -RA BR OVC040 18/17 Q1022 NOSIG
ZHCC,2023-10-04 13:00,ZHCC 041300Z 26002MPS 230V300 4000 BR NSC 18/16 Q1023 NOSIG
ZHCC,2023-10-04 14:00,ZHCC 041400Z 29002MPS 4000 BR NSC 18/17 Q1023 NOSIG
ZHCC,2023-10-04 15:00,ZHCC 041500Z 24001MPS 4000 BR NSC 18/17 Q1023 NOSIG
ZHCC,2023-10-04 16:00,ZHCC 041600Z 28002MPS 4000 BR NSC 17/17 Q1023 NOSIG
ZHCC,2023-10-04 17:00,ZHCC 041700Z 31002MPS 4000 BR NSC 18/17 Q1023 NOSIG
ZHCC,2023-10-04 18:00,ZHCC 041800Z 32002MPS 4000 BR NSC 18/17 Q1023 NOSIG
ZHCC,2023-10-04 19:00,ZHCC 041900Z 32004MPS 6000 NSC 18/16 Q1022 NOSIG
ZHCC,2023-10-04 20:00,ZHCC 042000Z 33004MPS 6000 NSC 18/16 Q1022 NOSIG
ZHCC,2023-10-04 21:00,ZHCC 042100Z 33003MPS 6000 NSC 17/16 Q1022 NOSIG
ZHCC,2023-10-04 22:00,ZHCC 042200Z 36003MPS 6000 NSC 18/15 Q1023 NOSIG
ZHCC,2023-10-04 23:00,ZHCC 042300Z 03002MPS 010V070 8000 NSC 18/13 Q1023 NOSIG
ZHCC,2023-10-05 00:00,ZHCC 050000Z 05003MPS CAVOK 18/12 Q1024 NOSIG
ZHCC,2023-10-05 01:00,ZHCC 050100Z 05004MPS 030V090 CAVOK 19/12 Q1025 NOSIG
ZHCC,2023-10-05 02:00,ZHCC 050200Z 06004MPS 030V100 CAVOK 19/12 Q1025 NOSIG
ZHCC,2023-10-05 03:00,ZHCC 050300Z 06004MPS CAVOK 19/12 Q1024 NOSIG
ZHCC,2023-10-05 04:00,ZHCC 050400Z 07004MPS CAVOK 20/11 Q1024 NOSIG
ZHCC,2023-10-05 05:00,ZHCC 050500Z 05003MPS CAVOK 20/11 Q1023 NOSIG
ZHCC,2023-10-05 06:00,ZHCC 050600Z 05004MPS CAVOK 20/10 Q1022 NOSIG
ZHCC,2023-10-05 07:00,ZHCC 050700Z 01004MPS CAVOK 19/12 Q1022 NOSIG
ZHCC,2023-10-05 08:00,ZHCC 050800Z 36004MPS CAVOK 19/11 Q1023 NOSIG
ZHCC,2023-10-05 09:00,ZHCC 050900Z 01003MPS CAVOK 19/10 Q1023 NOSIG
ZHCC,2023-10-05 10:00,ZHCC 051000Z 01003MPS 9999 -RA NSC 19/10 Q1023 NOSIG
ZHCC,2023-10-05 11:00,ZHCC 051100Z 01004MPS CAVOK 18/08 Q1023 NOSIG
ZHCC,2023-10-05 12:00,ZHCC 051200Z 02004MPS CAVOK 18/08 Q1024 NOSIG
ZHCC,2023-10-05 13:00,ZHCC 051300Z 03003MPS 340V060 CAVOK 18/08 Q1024 NOSIG
ZHCC,2023-10-05 14:00,ZHCC 051400Z 02002MPS CAVOK 18/07 Q1024 NOSIG
ZHCC,2023-10-05 15:00,ZHCC 051500Z 30002MPS CAVOK 16/09 Q1024 NOSIG
ZHCC,2023-10-05 16:00,ZHCC 051600Z 27002MPS CAVOK 16/10 Q1024 NOSIG
ZHCC,2023-10-05 17:00,ZHCC 051700Z 28002MPS 9999 -RA NSC 15/11 Q1024 NOSIG
ZHCC,2023-10-05 18:00,ZHCC 051800Z 31002MPS 270V340 CAVOK 15/12 Q1024 NOSIG
ZHCC,2023-10-05 19:00,ZHCC 051900Z VRB01MPS CAVOK 16/10 Q1023 NOSIG
ZHCC,2023-10-05 20:00,ZHCC 052000Z 30002MPS 250V330 CAVOK 15/11 Q1023 NOSIG
ZHCC,2023-10-05 21:00,ZHCC 052100Z 31003MPS CAVOK 15/10 Q1023 NOSIG
ZHCC,2023-10-05 22:00,ZHCC 052200Z 33005MPS CAVOK 16/08 Q1023 NOSIG
ZHCC,2023-10-05 23:00,ZHCC 052300Z 32003MPS 9999 -RA NSC 15/09 Q1023 NOSIG
ZHCC,2023-10-06 00:00,ZHCC 060000Z 26002MPS 230V290 9999 -RA NSC 15/10 Q1024 NOSIG
ZHCC,2023-10-06 01:00,ZHCC 060100Z 30003MPS 9999 -RA NSC 15/10 Q1025 NOSIG
ZHCC,2023-10-06 02:00,ZHCC 060200Z 30002MPS 9999 -RA NSC 15/11 Q1025 NOSIG
ZHCC,2023-10-06 03:00,ZHCC 060300Z 30003MPS 9999 -RA NSC 15/12 Q1025 NOSIG
ZHCC,2023-10-06 04:00,ZHCC 060400Z 28002MPS 250V310 CAVOK 16/11 Q1024 NOSIG
ZHCC,2023-10-06 05:00,ZHCC 060500Z 32003MPS CAVOK 18/10 Q1024 NOSIG
ZHCC,2023-10-06 06:00,ZHCC 060600Z 32002MPS CAVOK 18/10 Q1023 NOSIG
ZHCC,2023-10-06 07:00,ZHCC 060700Z 33003MPS CAVOK 18/10 Q1023 NOSIG
ZHCC,2023-10-06 08:00,ZHCC 060800Z 32002MPS CAVOK 18/10 Q1023 NOSIG
ZHCC,2023-10-06 09:00,ZHCC 060900Z 29001MPS CAVOK 18/11 Q1023 NOSIG
ZHCC,2023-10-06 10:00,ZHCC 061000Z 20001MPS CAVOK 17/12 Q1023 NOSIG
ZHCC,2023-10-06 11:00,ZHCC 061100Z 20001MPS CAVOK 16/13 Q1023 NOSIG
ZHCC,2023-10-06 12:00,ZHCC 061200Z 24001MPS CAVOK 16/12 Q1023 NOSIG
ZHCC,2023-10-06 13:00,ZHCC 061300Z 25002MPS CAVOK 16/13 Q1024 NOSIG
ZHCC,2023-10-06 14:00,ZHCC 061400Z 26002MPS CAVOK 15/13 Q1024 NOSIG
ZHCC,2023-10-06 15:00,ZHCC 061500Z VRB01MPS CAVOK 15/12 Q1023 NOSIG
ZHCC,2023-10-06 16:00,ZHCC 061600Z 24001MPS CAVOK 14/13 Q1023 NOSIG
ZHCC,2023-10-06 17:00,ZHCC 061700Z 26002MPS CAVOK 15/12 Q1023 NOSIG
ZHCC,2023-10-06 18:00,ZHCC 061800Z 25001MPS CAVOK 14/12 Q1022 NOSIG
ZHCC,2023-10-06 19:00,ZHCC 061900Z 00000MPS CAVOK 14/13 Q1022 NOSIG
ZHCC,2023-10-06 20:00,ZHCC 062000Z 27001MPS CAVOK 13/13 Q1022 NOSIG
ZHCC,2023-10-06 21:00,ZHCC 062100Z 00000MPS CAVOK 13/13 Q1022 NOSIG
ZHCC,2023-10-06 22:00,ZHCC 062200Z VRB01MPS CAVOK 13/12 Q1022 NOSIG
ZHCC,2023-10-06 23:00,ZHCC 062300Z VRB01MPS CAVOK 13/13 Q1023 NOSIG
ZHCC,2023-10-07 00:00,ZHCC 070000Z 14001MPS CAVOK 15/13 Q1023 NOSIG
ZHCC,2023-10-07 01:00,ZHCC 070100Z VRB01MPS CAVOK 16/12 Q1024 NOSIG
ZHCC,2023-10-07 02:00,ZHCC 070200Z VRB01MPS CAVOK 17/11 Q1023 NOSIG
ZHCC,2023-10-07 03:00,ZHCC 070300Z 20002MPS 150V240 CAVOK 17/10 Q1023 NOSIG
ZHCC,2023-10-07 04:00,ZHCC 070400Z 21003MPS 180V250 CAVOK 19/10 Q1022 NOSIG
ZHCC,2023-10-07 05:00,ZHCC 070500Z 21002MPS 160V270 CAVOK 20/10 Q1022 NOSIG
ZHCC,2023-10-07 06:00,ZHCC 070600Z 22002MPS 170V260 CAVOK 20/10 Q1021 NOSIG
ZHCC,2023-10-07 07:00,ZHCC 070700Z 22002MPS 110V280 CAVOK 20/09 Q1021 NOSIG
ZHCC,2023-10-07 08:00,ZHCC 070800Z 26002MPS 210V290 CAVOK 20/09 Q1020 NOSIG
ZHCC,2023-10-07 09:00,ZHCC 070900Z 29001MPS CAVOK 19/11 Q1021 NOSIG
ZHCC,2023-10-07 10:00,ZHCC 071000Z 00000MPS CAVOK 18/12 Q1021 NOSIG
ZHCC,2023-10-07 11:00,ZHCC 071100Z 00000MPS CAVOK 17/14 Q1021 NOSIG
ZHCC,2023-10-07 12:00,ZHCC 071200Z 25001MPS CAVOK 17/12 Q1022 NOSIG
ZHCC,2023-10-07 13:00,ZHCC 071300Z 21001MPS CAVOK 17/13 Q1022 NOSIG
ZHCC,2023-10-07 14:00,ZHCC 071400Z 16001MPS CAVOK 17/13 Q1022 NOSIG
ZHCC,2023-10-07 15:00,ZHCC 071500Z 00000MPS CAVOK 16/13 Q1022 NOSIG
ZHCC,2023-10-07 16:00,ZHCC 071600Z 23001MPS CAVOK 16/14 Q1022 NOSIG
ZHCC,2023-10-07 17:00,ZHCC 071700Z 21001MPS CAVOK 16/14 Q1022 NOSIG
ZHCC,2023-10-07 18:00,ZHCC 071800Z 20002MPS 170V230 CAVOK 16/13 Q1021 NOSIG
ZHCC,2023-10-07 19:00,ZHCC 071900Z 20002MPS 140V240 CAVOK 16/13 Q1021 NOSIG
ZHCC,2023-10-07 20:00,ZHCC 072000Z VRB01MPS CAVOK 15/13 Q1021 NOSIG
ZHCC,2023-10-07 21:00,ZHCC 072100Z VRB01MPS 7000 NSC 13/12 Q1021 NOSIG
ZHCC,2023-10-07 22:00,ZHCC 072200Z VRB01MPS 5000 BR NSC 12/12 Q1021 NOSIG
ZHCC,2023-10-07 23:00,ZHCC 072300Z 19002MPS 160V220 2000 BR NSC 14/13 Q1022 BECMG TL0040 3000
ZHCC,2023-10-08 00:00,ZHCC 080000Z 20002MPS 160V220 3500 BR NSC 15/14 Q1022 NOSIG
ZHCC,2023-10-08 01:00,ZHCC 080100Z 21002MPS 170V240 8000 NSC 17/14 Q1022 NOSIG
ZHCC,2023-10-08 02:00,ZHCC 080200Z 20002MPS 140V250 CAVOK 19/13 Q1022 NOSIG
ZHCC,2023-10-08 03:00,ZHCC 080300Z 18002MPS 080V230 CAVOK 21/13 Q1022 NOSIG
ZHCC,2023-10-08 04:00,ZHCC 080400Z 18003MPS 080V210 CAVOK 21/12 Q1021 NOSIG
ZHCC,2023-10-08 05:00,ZHCC 080500Z 21003MPS 120V240 CAVOK 23/11 Q1021 NOSIG
ZHCC,2023-10-08 06:00,ZHCC 080600Z 20002MPS 140V250 CAVOK 23/11 Q1020 NOSIG
ZHCC,2023-10-08 07:00,ZHCC 080700Z 19003MPS 130V240 CAVOK 23/12 Q1019 NOSIG
ZHCC,2023-10-08 08:00,ZHCC 080800Z 22003MPS 150V270 CAVOK 24/12 Q1020 NOSIG
ZHCC,2023-10-08 09:00,ZHCC 080900Z 20002MPS 170V240 CAVOK 23/11 Q1020 NOSIG
ZHCC,2023-10-08 10:00,ZHCC 081000Z VRB01MPS CAVOK 21/14 Q1020 NOSIG
ZHCC,2023-10-08 11:00,ZHCC 081100Z VRB01MPS CAVOK 18/14 Q1021 NOSIG
ZHCC,2023-10-08 12:00,ZHCC 081200Z VRB01MPS CAVOK 17/13 Q1021 NOSIG
ZHCC,2023-10-08 13:00,ZHCC 081300Z VRB01MPS CAVOK 18/13 Q1022 NOSIG
ZHCC,2023-10-08 14:00,ZHCC 081400Z VRB01MPS CAVOK 17/14 Q1022 NOSIG
ZHCC,2023-10-08 15:00,ZHCC 081500Z VRB01MPS CAVOK 18/14 Q1022 NOSIG
ZHCC,2023-10-08 16:00,ZHCC 081600Z VRB01MPS CAVOK 18/14 Q1022 NOSIG
ZHCC,2023-10-08 17:00,ZHCC 081700Z 00000MPS CAVOK 17/15 Q1022 NOSIG
ZHCC,2023-10-08 18:00,ZHCC 081800Z 00000MPS CAVOK 16/14 Q1022 NOSIG
ZHCC,2023-10-08 19:00,ZHCC 081900Z VRB01MPS CAVOK 16/14 Q1022 NOSIG
ZHCC,2023-10-08 20:00,ZHCC 082000Z VRB01MPS CAVOK 16/14 Q1022 NOSIG
ZHCC,2023-10-08 21:00,ZHCC 082100Z 31002MPS CAVOK 16/14 Q1022 NOSIG
ZHCC,2023-10-08 22:00,ZHCC 082200Z 01002MPS 320V060 CAVOK 17/14 Q1023 NOSIG
ZHCC,2023-10-08 23:00,ZHCC 082300Z 33002MPS 8000 NSC 15/14 Q1023 NOSIG
ZHCC,2023-10-09 00:00,ZHCC 090000Z 34003MPS 8000 NSC 18/14 Q1024 NOSIG
ZHCC,2023-10-09 01:00,ZHCC 090100Z 35003MPS 6000 NSC 19/14 Q1025 NOSIG
ZHCC,2023-10-09 02:00,ZHCC 090200Z 01003MPS 350V050 8000 NSC 21/13 Q1025 NOSIG
ZHCC,2023-10-09 03:00,ZHCC 090300Z 02003MPS 350V050 8000 NSC 22/14 Q1025 NOSIG
ZHCC,2023-10-09 04:00,ZHCC 090400Z 03003MPS 340V070 8000 NSC 23/13 Q1025 NOSIG
ZHCC,2023-10-09 05:00,ZHCC 090500Z 06003MPS 010V090 8000 NSC 24/13 Q1024 NOSIG
ZHCC,2023-10-09 06:00,ZHCC 090600Z VRB01MPS 8000 NSC 24/13 Q1024 NOSIG
ZHCC,2023-10-09 07:00,ZHCC 090700Z 03001MPS 8000 NSC 24/13 Q1023 NOSIG
ZHCC,2023-10-09 08:00,ZHCC 090800Z 33002MPS 280V050 8000 NSC 24/12 Q1023 NOSIG
ZHCC,2023-10-09 09:00,ZHCC 090900Z 29002MPS CAVOK 23/14 Q1023 NOSIG
ZHCC,2023-10-09 10:00,ZHCC 091000Z 32002MPS CAVOK 20/14 Q1024 NOSIG
ZHCC,2023-10-09 11:00,ZHCC 091100Z 28001MPS CAVOK 18/15 Q1024 NOSIG
ZHCC,2023-10-09 12:00,ZHCC 091200Z 27001MPS 8000 NSC 17/15 Q1025 NOSIG
ZHCC,2023-10-09 13:00,ZHCC 091300Z 00000MPS 8000 NSC 17/15 Q1025 NOSIG
ZHCC,2023-10-09 14:00,ZHCC 091400Z 30001MPS 8000 NSC 17/15 Q1026 NOSIG
ZHCC,2023-10-09 15:00,ZHCC 091500Z 28001MPS 8000 NSC 17/14 Q1026 NOSIG
ZHCC,2023-10-09 16:00,ZHCC 091600Z 30001MPS 6000 NSC 17/14 Q1026 NOSIG
ZHCC,2023-10-09 17:00,ZHCC 091700Z 28001MPS 6000 NSC 16/14 Q1026 NOSIG
ZHCC,2023-10-09 18:00,ZHCC 091800Z 29001MPS 6000 NSC 16/14 Q1026 NOSIG
ZHCC,2023-10-09 19:00,ZHCC 091900Z 31002MPS 6000 NSC 15/14 Q1026 NOSIG
ZHCC,2023-10-09 20:00,ZHCC 092000Z 27001MPS 6000 NSC 16/14 Q1026 NOSIG
ZHCC,2023-10-09 21:00,ZHCC 092100Z VRB01MPS 8000 NSC 16/13 Q1026 NOSIG
ZHCC,2023-10-09 22:00,ZHCC 092200Z VRB01MPS 8000 NSC 16/12 Q1026 NOSIG
ZHCC,2023-10-09 23:00,ZHCC 092300Z 31002MPS 7000 NSC 15/13 Q1027 NOSIG
ZHCC,2023-10-10 00:00,ZHCC 100000Z 35002MPS 320V020 6000 NSC 17/11 Q1028 NOSIG
ZHCC,2023-10-10 01:00,ZHCC 100100Z 32002MPS 280V360 7000 NSC 18/10 Q1028 NOSIG
ZHCC,2023-10-10 02:00,ZHCC 100200Z 04003MPS 350V060 CAVOK 20/09 Q1028 NOSIG
ZHCC,2023-10-10 03:00,ZHCC 100300Z 05002MPS 010V080 CAVOK 21/06 Q1028 NOSIG
ZHCC,2023-10-10 04:00,ZHCC 100400Z VRB02MPS CAVOK 22/07 Q1027 NOSIG
ZHCC,2023-10-10 05:00,ZHCC 100500Z VRB02MPS CAVOK 23/07 Q1026 NOSIG
ZHCC,2023-10-10 06:00,ZHCC 100600Z VRB01MPS CAVOK 23/06 Q1024 NOSIG
ZHCC,2023-10-10 07:00,ZHCC 100700Z 09003MPS 040V120 CAVOK 24/07 Q1024 NOSIG
ZHCC,2023-10-10 08:00,ZHCC 100800Z VRB02MPS CAVOK 24/07 Q1023 NOSIG
ZHCC,2023-10-10 09:00,ZHCC 100900Z 06002MPS 020V100 CAVOK 23/07 Q1023 NOSIG
ZHCC,2023-10-10 10:00,ZHCC 101000Z VRB01MPS CAVOK 19/10 Q1023 NOSIG
ZHCC,2023-10-10 11:00,ZHCC 101100Z 00000MPS CAVOK 17/12 Q1024 NOSIG
ZHCC,2023-10-10 12:00,ZHCC 101200Z 00000MPS CAVOK 16/12 Q1024 NOSIG
ZHCC,2023-10-10 13:00,ZHCC 101300Z 00000MPS CAVOK 15/11 Q1025 NOSIG
ZHCC,2023-10-10 14:00,ZHCC 101400Z 00000MPS CAVOK 15/11 Q1025 NOSIG
ZHCC,2023-10-10 15:00,ZHCC 101500Z 00000MPS CAVOK 14/11 Q1025 NOSIG
ZHCC,2023-10-10 16:00,ZHCC 101600Z 00000MPS CAVOK 14/10 Q1025 NOSIG
ZHCC,2023-10-10 17:00,ZHCC 101700Z VRB01MPS CAVOK 13/10 Q1025 NOSIG
ZHCC,2023-10-10 18:00,ZHCC 101800Z 09001MPS CAVOK 13/10 Q1025 NOSIG
ZHCC,2023-10-10 19:00,ZHCC 101900Z 00000MPS CAVOK 12/10 Q1025 NOSIG
ZHCC,2023-10-10 20:00,ZHCC 102000Z 00000MPS CAVOK 11/09 Q1025 NOSIG
ZHCC,2023-10-10 21:00,ZHCC 102100Z 29001MPS 8000 NSC 10/09 Q1025 NOSIG
ZHCC,2023-10-10 22:00,ZHCC 102200Z 00000MPS 8000 NSC 11/09 Q1025 NOSIG
ZHCC,2023-10-10 23:00,ZHCC 102300Z 26001MPS 7000 NSC 11/10 Q1026 NOSIG
ZHCC,2023-10-11 00:00,ZHCC 110000Z 00000MPS 8000 NSC 17/13 Q1027 NOSIG
ZHCC,2023-10-11 01:00,ZHCC 110100Z VRB01MPS CAVOK 20/10 Q1027 NOSIG
ZHCC,2023-10-11 02:00,ZHCC 110200Z VRB01MPS CAVOK 22/08 Q1028 NOSIG
ZHCC,2023-10-11 03:00,ZHCC 110300Z 12002MPS 040V190 CAVOK 23/08 Q1027 NOSIG
ZHCC,2023-10-11 04:00,ZHCC 110400Z 06003MPS 350V130 CAVOK 23/07 Q1026 NOSIG
ZHCC,2023-10-11 05:00,ZHCC 110500Z 04004MPS 010V080 CAVOK 24/07 Q1026 NOSIG
ZHCC,2023-10-11 06:00,ZHCC 110600Z 07003MPS 040V120 CAVOK 23/07 Q1025 NOSIG
ZHCC,2023-10-11 07:00,ZHCC 110700Z 07002MPS 350V100 CAVOK 23/07 Q1025 NOSIG
ZHCC,2023-10-11 08:00,ZHCC 110800Z 05003MPS 020V100 CAVOK 23/08 Q1025 NOSIG
ZHCC,2023-10-11 09:00,ZHCC 110900Z 06003MPS CAVOK 22/07 Q1024 NOSIG
ZHCC,2023-10-11 10:00,ZHCC 111000Z 06002MPS CAVOK 22/08 Q1024 NOSIG
ZHCC,2023-10-11 11:00,ZHCC 111100Z VRB01MPS CAVOK 20/09 Q1025 NOSIG
ZHCC,2023-10-11 12:00,ZHCC 111200Z 00000MPS CAVOK 18/11 Q1025 NOSIG
ZHCC,2023-10-11 13:00,ZHCC 111300Z 05002MPS 020V080 CAVOK 19/11 Q1026 NOSIG
ZHCC,2023-10-11 14:00,ZHCC 111400Z VRB01MPS CAVOK 17/12 Q1026 NOSIG
ZHCC,2023-10-11 15:00,ZHCC 111500Z 00000MPS CAVOK 16/12 Q1026 NOSIG
ZHCC,2023-10-11 16:00,ZHCC 111600Z VRB01MPS CAVOK 17/12 Q1026 NOSIG
ZHCC,2023-10-11 17:00,ZHCC 111700Z VRB01MPS CAVOK 16/12 Q1026 NOSIG
ZHCC,2023-10-11 18:00,ZHCC 111800Z VRB01MPS CAVOK 18/10 Q1025 NOSIG
ZHCC,2023-10-11 19:00,ZHCC 111900Z 27001MPS CAVOK 15/12 Q1025 NOSIG
ZHCC,2023-10-11 20:00,ZHCC 112000Z VRB01MPS CAVOK 13/11 Q1025 NOSIG
ZHCC,2023-10-11 21:00,ZHCC 112100Z 29001MPS CAVOK 12/11 Q1025 NOSIG
ZHCC,2023-10-11 22:00,ZHCC 112200Z 23001MPS CAVOK 14/12 Q1025 NOSIG
ZHCC,2023-10-11 23:00,ZHCC 112300Z VRB01MPS CAVOK 15/12 Q1026 NOSIG
ZHCC,2023-10-12 00:00,ZHCC 120000Z 28001MPS CAVOK 16/13 Q1027 NOSIG
ZHCC,2023-10-12 01:00,ZHCC 120100Z VRB01MPS 6000 NSC 17/13 Q1027 NOSIG
ZHCC,2023-10-12 02:00,ZHCC 120200Z VRB01MPS 6000 NSC 18/13 Q1027 NOSIG
ZHCC,2023-10-12 03:00,ZHCC 120300Z 30002MPS 6000 NSC 18/13 Q1027 NOSIG
ZHCC,2023-10-12 04:00,ZHCC 120400Z VRB01MPS 7000 NSC 20/12 Q1026 NOSIG
ZHCC,2023-10-12 05:00,ZHCC 120500Z VRB01MPS 7000 NSC 20/12 Q1025 NOSIG
ZHCC,2023-10-12 06:00,ZHCC 120600Z 34003MPS 7000 NSC 21/11 Q1024 NOSIG
ZHCC,2023-10-12 07:00,ZHCC 120700Z VRB01MPS 7000 NSC 20/11 Q1024 NOSIG
ZHCC,2023-10-12 08:00,ZHCC 120800Z VRB01MPS 7000 NSC 21/11 Q1024 NOSIG
ZHCC,2023-10-12 09:00,ZHCC 120900Z VRB01MPS 7000 NSC 19/13 Q1024 NOSIG
ZHCC,2023-10-12 10:00,ZHCC 121000Z 16001MPS 6000 NSC 18/13 Q1023 NOSIG
ZHCC,2023-10-12 11:00,ZHCC 121100Z VRB01MPS 6000 NSC 16/13 Q1024 NOSIG
ZHCC,2023-10-12 12:00,ZHCC 121200Z VRB01MPS 6000 NSC 15/13 Q1024 NOSIG
ZHCC,2023-10-12 13:00,ZHCC 121300Z 00000MPS 5000 BR NSC 14/13 Q1024 NOSIG
ZHCC,2023-10-12 14:00,ZHCC 121400Z 22001MPS 4000 BR NSC 13/12 Q1024 NOSIG
ZHCC,2023-10-12 15:00,ZHCC 121500Z 20001MPS 4000 BR NSC 14/13 Q1024 NOSIG
ZHCC,2023-10-12 16:00,ZHCC 121600Z 26001MPS 4000 BR NSC 15/13 Q1023 NOSIG
ZHCC,2023-10-12 17:00,ZHCC 121700Z 27002MPS 4000 BR NSC 14/12 Q1023 NOSIG
ZHCC,2023-10-12 18:00,ZHCC 121800Z 26001MPS 4000 BR NSC 13/12 Q1023 NOSIG
ZHCC,2023-10-12 19:00,ZHCC 121900Z 26002MPS 4000 BR NSC 11/10 Q1022 NOSIG
ZHCC,2023-10-12 20:00,ZHCC 122000Z 25001MPS 4000 BR NSC 12/11 Q1022 NOSIG
ZHCC,2023-10-12 21:00,ZHCC 122100Z VRB01MPS 4500 BR NSC 11/10 Q1021 NOSIG
ZHCC,2023-10-12 22:00,ZHCC 122200Z 26001MPS 6000 NSC 12/10 Q1021 NOSIG
ZHCC,2023-10-12 23:00,ZHCC 122300Z VRB01MPS 6000 NSC 11/09 Q1021 NOSIG
ZHCC,2023-10-13 00:00,ZHCC 130000Z VRB01MPS 8000 NSC 16/11 Q1021 NOSIG
ZHCC,2023-10-13 01:00,ZHCC 130100Z 22002MPS 190V270 CAVOK 19/10 Q1022 NOSIG
ZHCC,2023-10-13 02:00,ZHCC 130200Z 27003MPS 220V300 CAVOK 21/11 Q1021 NOSIG
ZHCC,2023-10-13 03:00,ZHCC 130300Z 22002MPS 170V310 CAVOK 22/12 Q1021 NOSIG
ZHCC,2023-10-13 04:00,ZHCC 130400Z VRB02MPS CAVOK 23/12 Q1020 NOSIG
ZHCC,2023-10-13 05:00,ZHCC 130500Z VRB02MPS CAVOK 25/12 Q1018 NOSIG
ZHCC,2023-10-13 06:00,ZHCC 130600Z VRB02MPS 9999 FEW040 25/11 Q1017 NOSIG
ZHCC,2023-10-13 07:00,ZHCC 130700Z 30003MPS 250V340 9999 FEW040 25/11 Q1017 NOSIG
ZHCC,2023-10-13 08:00,ZHCC 130800Z 29002MPS 240V320 CAVOK 25/11 Q1016 NOSIG
ZHCC,2023-10-13 09:00,ZHCC 130900Z VRB01MPS CAVOK 24/12 Q1016 NOSIG
ZHCC,2023-10-13 10:00,ZHCC 131000Z 28001MPS CAVOK 21/13 Q1016 NOSIG
ZHCC,2023-10-13 11:00,ZHCC 131100Z 00000MPS CAVOK 17/13 Q1017 NOSIG
ZHCC,2023-10-13 12:00,ZHCC 131200Z 30001MPS CAVOK 16/14 Q1017 NOSIG
ZHCC,2023-10-13 13:00,ZHCC 131300Z 00000MPS 8000 NSC 16/13 Q1017 NOSIG
ZHCC,2023-10-13 14:00,ZHCC 131400Z VRB01MPS 8000 NSC 15/13 Q1017 NOSIG
ZHCC,2023-10-13 15:00,ZHCC 131500Z 24002MPS 8000 NSC 17/13 Q1017 NOSIG
ZHCC,2023-10-13 16:00,ZHCC 131600Z 25002MPS 8000 NSC 16/13 Q1016 NOSIG
ZHCC,2023-10-13 17:00,ZHCC 131700Z 25002MPS 8000 NSC 17/12 Q1016 NOSIG
ZHCC,2023-10-13 18:00,ZHCC 131800Z 26002MPS 8000 NSC 13/11 Q1015 NOSIG
ZHCC,2023-10-13 19:00,ZHCC 131900Z 26002MPS 8000 NSC 15/12 Q1015 NOSIG
ZHCC,2023-10-13 20:00,ZHCC 132000Z 27003MPS CAVOK 15/10 Q1014 NOSIG
ZHCC,2023-10-13 21:00,ZHCC 132100Z 26002MPS CAVOK 14/10 Q1015 NOSIG
ZHCC,2023-10-13 22:00,ZHCC 132200Z 00000MPS CAVOK 12/10 Q1015 NOSIG
ZHCC,2023-10-13 23:00,ZHCC 132300Z VRB01MPS CAVOK 13/10 Q1016 NOSIG
ZHCC,2023-10-14 00:00,ZHCC 140000Z VRB01G06MPS CAVOK 17/13 Q1016 NOSIG
ZHCC,2023-10-14 01:00,ZHCC 140100Z 32003MPS CAVOK 21/12 Q1016 NOSIG
ZHCC,2023-10-14 02:00,ZHCC 140200Z 32005MPS 290V360 CAVOK 24/10 Q1016 NOSIG
ZHCC,2023-10-14 03:00,ZHCC 140300Z 32005MPS CAVOK 25/09 Q1016 NOSIG
ZHCC,2023-10-14 04:00,ZHCC 140400Z 34004MPS 290V010 CAVOK 26/09 Q1015 NOSIG
ZHCC,2023-10-14 05:00,ZHCC 140500Z 34002MPS 260V030 CAVOK 26/07 Q1014 NOSIG
ZHCC,2023-10-14 06:00,ZHCC 140600Z 36003MPS 300V050 CAVOK 26/07 Q1014 NOSIG
ZHCC,2023-10-14 07:00,ZHCC 140700Z 33003MPS 300V040 CAVOK 27/05 Q1013 NOSIG
ZHCC,2023-10-14 08:00,ZHCC 140800Z 33003MPS 300V010 CAVOK 27/03 Q1013 NOSIG
ZHCC,2023-10-14 09:00,ZHCC 140900Z 28002MPS CAVOK 25/07 Q1013 NOSIG
ZHCC,2023-10-14 10:00,ZHCC 141000Z 21001MPS CAVOK 20/08 Q1013 NOSIG
ZHCC,2023-10-14 11:00,ZHCC 141100Z VRB01MPS CAVOK 17/10 Q1014 NOSIG
ZHCC,2023-10-14 12:00,ZHCC 141200Z VRB01MPS CAVOK 15/10 Q1014 NOSIG
ZHCC,2023-10-14 13:00,ZHCC 141300Z 20001MPS CAVOK 14/10 Q1014 NOSIG
ZHCC,2023-10-14 14:00,ZHCC 141400Z 23002MPS 180V300 CAVOK 14/09 Q1014 NOSIG
ZHCC,2023-10-14 15:00,ZHCC 141500Z 00000MPS CAVOK 13/09 Q1014 NOSIG
ZHCC,2023-10-14 16:00,ZHCC 141600Z 23002MPS CAVOK 13/09 Q1014 NOSIG
ZHCC,2023-10-14 17:00,ZHCC 141700Z 25002MPS CAVOK 16/08 Q1014 NOSIG
ZHCC,2023-10-14 18:00,ZHCC 141800Z 26003MPS CAVOK 16/08 Q1013 NOSIG
ZHCC,2023-10-14 19:00,ZHCC 141900Z 26002MPS CAVOK 16/08 Q1013 NOSIG
ZHCC,2023-10-14 20:00,ZHCC 142000Z 26003MPS CAVOK 14/07 Q1013 NOSIG
ZHCC,2023-10-14 21:00,ZHCC 142100Z 27002MPS CAVOK 12/07 Q1013 NOSIG
ZHCC,2023-10-14 22:00,ZHCC 142200Z 27002MPS CAVOK 12/07 Q1013 NOSIG
ZHCC,2023-10-14 23:00,ZHCC 142300Z 26003MPS CAVOK 13/07 Q1013 NOSIG
ZHCC,2023-10-15 00:00,ZHCC 150000Z 27003MPS CAVOK 18/09 Q1014 NOSIG
ZHCC,2023-10-15 01:00,ZHCC 150100Z 27003MPS CAVOK 22/10 Q1015 NOSIG
ZHCC,2023-10-15 02:00,ZHCC 150200Z 30006MPS CAVOK 26/07 Q1015 NOSIG
ZHCC,2023-10-15 03:00,ZHCC 150300Z 30005MPS CAVOK 28/06 Q1015 NOSIG
ZHCC,2023-10-15 04:00,ZHCC 150400Z 32005MPS 270V350 CAVOK 29/05 Q1014 NOSIG
ZHCC,2023-10-15 05:00,ZHCC 150500Z 33003MPS 290V020 CAVOK 29/06 Q1014 NOSIG
ZHCC,2023-10-15 06:00,ZHCC 150600Z 01002MPS 310V060 CAVOK 29/05 Q1013 NOSIG
ZHCC,2023-10-15 07:00,ZHCC 150700Z 32003MPS 260V010 CAVOK 30/05 Q1013 NOSIG
ZHCC,2023-10-15 08:00,ZHCC 150800Z 33003MPS 300V010 CAVOK 30/04 Q1013 NOSIG
ZHCC,2023-10-15 09:00,ZHCC 150900Z 32002MPS CAVOK 28/04 Q1014 NOSIG
ZHCC,2023-10-15 10:00,ZHCC 151000Z 00000MPS CAVOK 21/09 Q1014 NOSIG
ZHCC,2023-10-15 11:00,ZHCC 151100Z 00000MPS CAVOK 19/10 Q1014 NOSIG
ZHCC,2023-10-15 12:00,ZHCC 151200Z 00000MPS CAVOK 15/10 Q1015 NOSIG
ZHCC,2023-10-15 13:00,ZHCC 151300Z VRB01MPS CAVOK 13/10 Q1016 NOSIG
ZHCC,2023-10-15 14:00,ZHCC 151400Z 00000MPS CAVOK 13/10 Q1016 NOSIG
ZHCC,2023-10-15 15:00,ZHCC 151500Z VRB01MPS CAVOK 12/09 Q1017 NOSIG
ZHCC,2023-10-15 16:00,ZHCC 151600Z 29001MPS CAVOK 14/10 Q1017 NOSIG
ZHCC,2023-10-15 17:00,ZHCC 151700Z 24001MPS CAVOK 12/09 Q1017 NOSIG
ZHCC,2023-10-15 18:00,ZHCC 151800Z 29001MPS CAVOK 12/10 Q1017 NOSIG
ZHCC,2023-10-15 19:00,ZHCC 151900Z 29002MPS CAVOK 15/08 Q1018 NOSIG
ZHCC,2023-10-15 20:00,ZHCC 152000Z 32002MPS 280V350 CAVOK 14/09 Q1018 NOSIG
ZHCC,2023-10-15 21:00,ZHCC 152100Z 30002MPS CAVOK 14/08 Q1018 NOSIG
ZHCC,2023-10-15 22:00,ZHCC 152200Z 31002MPS 7000 NSC 13/08 Q1019 NOSIG
ZHCC,2023-10-15 23:00,ZHCC 152300Z 30002MPS 7000 NSC 13/09 Q1019 NOSIG
ZHCC,2023-10-16 00:00,ZHCC 160000Z 01003MPS 5000 HZ NSC 17/10 Q1020 NOSIG
ZHCC,2023-10-16 01:00,ZHCC 160100Z 02004MPS 5000 HZ NSC 18/11 Q1021 NOSIG
ZHCC,2023-10-16 02:00,ZHCC 160200Z 02004MPS 350V060 5000 HZ NSC 20/11 Q1021 NOSIG
ZHCC,2023-10-16 03:00,ZHCC 160300Z 05004MPS 030V090 5000 HZ NSC 22/11 Q1021 NOSIG
ZHCC,2023-10-16 04:00,ZHCC 160400Z 04003MPS 330V100 5000 HZ NSC 23/11 Q1020 NOSIG
ZHCC,2023-10-16 05:00,ZHCC 160500Z 04003MPS 350V090 5000 HZ NSC 24/11 Q1019 NOSIG
ZHCC,2023-10-16 06:00,ZHCC 160600Z 05003MPS 360V100 6000 NSC 25/10 Q1019 NOSIG
ZHCC,2023-10-16 07:00,ZHCC 160700Z 08002MPS 020V140 6000 NSC 25/10 Q1018 NOSIG
ZHCC,2023-10-16 08:00,ZHCC 160800Z 07002MPS 010V120 6000 NSC 25/11 Q1018 NOSIG
ZHCC,2023-10-16 09:00,ZHCC 160900Z 06003MPS 5000 HZ NSC 24/11 Q1018 NOSIG
ZHCC,2023-10-16 10:00,ZHCC 161000Z 06003MPS 5000 HZ NSC 23/11 Q1018 NOSIG
ZHCC,2023-10-16 11:00,ZHCC 161100Z VRB01MPS 6000 NSC 20/12 Q1019 NOSIG
ZHCC,2023-10-16 12:00,ZHCC 161200Z VRB01MPS 6000 NSC 19/12 Q1019 NOSIG
ZHCC,2023-10-16 13:00,ZHCC 161300Z VRB01MPS 5000 HZ NSC 19/12 Q1019 NOSIG
ZHCC,2023-10-16 14:00,ZHCC 161400Z VRB01MPS 5000 HZ NSC 18/12 Q1020 NOSIG
ZHCC,2023-10-16 15:00,ZHCC 161500Z 07002MPS 040V100 5000 HZ NSC 20/12 Q1020 NOSIG
ZHCC,2023-10-16 16:00,ZHCC 161600Z 07002MPS 5000 HZ NSC 18/12 Q1019 NOSIG
ZHCC,2023-10-16 17:00,ZHCC 161700Z VRB01MPS 5000 HZ NSC 17/11 Q1019 NOSIG
ZHCC,2023-10-16 18:00,ZHCC 161800Z 00000MPS 4000 BR NSC 14/11 Q1019 NOSIG
ZHCC,2023-10-16 19:00,ZHCC 161900Z 32001MPS 4000 BR NSC 13/11 Q1019 NOSIG
ZHCC,2023-10-16 20:00,ZHCC 162000Z 29001MPS 4000 BR NSC 13/11 Q1019 NOSIG
ZHCC,2023-10-16 21:00,ZHCC 162100Z VRB01MPS 3000 BR NSC 12/11 Q1019 BECMG TL2240 2000
ZHCC,2023-10-16 22:00,ZHCC 162200Z 28001MPS 2500 BR NSC 12/11 Q1019 BECMG TL2340 3000
ZHCC,2023-10-16 23:00,ZHCC 162300Z 00000MPS 1500 BR NSC 11/11 Q1019 BECMG TL0040 3000
ZHCC,2023-10-17 00:00,ZHCC 170000Z 08002MPS 2000 BR NSC 17/12 Q1019 BECMG TL0040 3000
ZHCC,2023-10-17 01:00,ZHCC 170100Z VRB01MPS 3000 HZ NSC 19/13 Q1020 NOSIG
ZHCC,2023-10-17 02:00,ZHCC 170200Z VRB02MPS 3000 HZ NSC 22/12 Q1020 NOSIG
ZHCC,2023-10-17 03:00,ZHCC 170300Z 16003MPS 100V200 5000 HZ NSC 25/12 Q1019 NOSIG
ZHCC,2023-10-17 04:00,ZHCC 170400Z 17003MPS 110V220 8000 NSC 26/11 Q1018 NOSIG
ZHCC,2023-10-17 05:00,ZHCC 170500Z 17004MPS 100V220 CAVOK 27/09 Q1016 NOSIG
ZHCC,2023-10-17 06:00,ZHCC 170600Z 17004MPS 120V220 9999 SCT046 26/09 Q1015 NOSIG
ZHCC,2023-10-17 07:00,ZHCC 170700Z 19003MPS 120V250 9999 SCT046 26/09 Q1015 NOSIG
ZHCC,2023-10-17 08:00,ZHCC 170800Z 18002MPS 120V230 9999 SCT046 27/09 Q1014 NOSIG
ZHCC,2023-10-17 09:00,ZHCC 170900Z 26002MPS 220V280 9999 SCT046 25/11 Q1015 NOSIG
ZHCC,2023-10-17 10:00,ZHCC 171000Z VRB01MPS 8000 NSC 23/13 Q1015 NOSIG
ZHCC,2023-10-17 11:00,ZHCC 171100Z 00000MPS 8000 NSC 21/15 Q1016 NOSIG
ZHCC,2023-10-17 12:00,ZHCC 171200Z VRB01MPS 8000 NSC 21/14 Q1016 NOSIG
ZHCC,2023-10-17 13:00,ZHCC 171300Z 00000MPS 8000 NSC 21/14 Q1016 NOSIG
ZHCC,2023-10-17 14:00,ZHCC 171400Z VRB01MPS 8000 -RA OVC046 20/15 Q1017 NOSIG
ZHCC,2023-10-17 15:00,ZHCC 171500Z 28002MPS CAVOK 20/14 Q1016 NOSIG
ZHCC,2023-10-17 16:00,ZHCC 171600Z 31001MPS 6000 NSC 19/14 Q1016 NOSIG
ZHCC,2023-10-17 17:00,ZHCC 171700Z 28002MPS 6000 NSC 18/14 Q1016 NOSIG
ZHCC,2023-10-17 18:00,ZHCC 171800Z VRB03G09MPS 6000 NSC 19/14 Q1016 NOSIG
ZHCC,2023-10-17 19:00,ZHCC 171900Z 27003MPS 5000 BR NSC 17/14 Q1016 NOSIG
ZHCC,2023-10-17 20:00,ZHCC 172000Z 30003MPS 4000 BR NSC 17/15 Q1016 NOSIG
ZHCC,2023-10-17 21:00,ZHCC 172100Z 27002MPS 4000 BR NSC 17/14 Q1016 NOSIG
ZHCC,2023-10-17 22:00,ZHCC 172200Z 28004MPS 4000 BR NSC 18/15 Q1017 NOSIG
ZHCC,2023-10-17 23:00,ZHCC 172300Z 29005MPS 4000 HZ NSC 19/14 Q1017 NOSIG
ZHCC,2023-10-18 00:00,ZHCC 180000Z 29005MPS 6000 NSC 21/14 Q1018 NOSIG
ZHCC,2023-10-18 01:00,ZHCC 180100Z 30005MPS CAVOK 21/13 Q1018 NOSIG
ZHCC,2023-10-18 02:00,ZHCC 180200Z 31004MPS 280V350 CAVOK 23/13 Q1018 NOSIG
ZHCC,2023-10-18 03:00,ZHCC 180300Z 33005MPS 300V020 CAVOK 25/14 Q1018 NOSIG
ZHCC,2023-10-18 04:00,ZHCC 180400Z 02005MPS CAVOK 24/14 Q1018 NOSIG
ZHCC,2023-10-18 05:00,ZHCC 180500Z 36004MPS 340V040 5000 HZ NSC 24/14 Q1017 NOSIG
ZHCC,2023-10-18 06:00,ZHCC 180600Z 04004MPS 360V080 5000 HZ FEW040 24/14 Q1017 NOSIG
ZHCC,2023-10-18 07:00,ZHCC 180700Z 05005MPS 8000 NSC 23/13 Q1017 NOSIG
ZHCC,2023-10-18 08:00,ZHCC 180800Z 03004MPS 360V060 8000 NSC 23/13 Q1017 NOSIG
ZHCC,2023-10-18 09:00,ZHCC 180900Z 03004MPS CAVOK 22/11 Q1017 NOSIG
ZHCC,2023-10-18 10:00,ZHCC 181000Z 04003MPS 9999 SCT046 22/11 Q1018 NOSIG
ZHCC,2023-10-18 11:00,ZHCC 181100Z 33003MPS 300V010 9999 -RA SCT046 21/13 Q1019 NOSIG
ZHCC,2023-10-18 12:00,ZHCC 181200Z 33003MPS 9999 -RA SCT046 20/13 Q1019 NOSIG
ZHCC,2023-10-18 13:00,ZHCC 181300Z 33005MPS 9999 SCT046 19/13 Q1020 NOSIG
ZHCC,2023-10-18 14:00,ZHCC 181400Z 31004MPS 9999 -RA OVC046 17/14 Q1021 NOSIG
ZHCC,2023-10-18 15:00,ZHCC 181500Z 30004MPS 7000 -RA OVC046 17/14 Q1021 NOSIG
ZHCC,2023-10-18 16:00,ZHCC 181600Z 30005MPS 6000 -SHRA OVC046 16/15 Q1021 NOSIG
ZHCC,2023-10-18 17:00,ZHCC 181700Z 30004MPS 6000 -SHRA OVC046 16/14 Q1021 NOSIG
ZHCC,2023-10-18 18:00,ZHCC 181800Z 30004MPS 6000 -SHRA OVC046 15/13 Q1021 NOSIG
ZHCC,2023-10-18 19:00,ZHCC 181900Z 29004MPS 7000 -SHRA OVC046 15/13 Q1021 NOSIG
ZHCC,2023-10-18 20:00,ZHCC 182000Z 26003MPS 7000 -SHRA OVC046 15/13 Q1021 NOSIG
ZHCC,2023-10-18 21:00,ZHCC 182100Z 27003MPS 8000 -SHRA OVC046 15/13 Q1021 NOSIG
ZHCC,2023-10-18 22:00,ZHCC 182200Z 26003MPS 7000 NSC 15/13 Q1021 NOSIG
ZHCC,2023-10-18 23:00,ZHCC 182300Z 28003MPS 5000 BR NSC 15/13 Q1021 NOSIG
ZHCC,2023-10-19 00:00,ZHCC 190000Z 26003MPS 5000 BR NSC 15/14 Q1022 NOSIG
ZHCC,2023-10-19 01:00,ZHCC 190100Z 27004MPS 5000 BR NSC 16/13 Q1022 NOSIG
ZHCC,2023-10-19 02:00,ZHCC 190200Z 27003MPS 7000 NSC 16/13 Q1023 NOSIG
ZHCC,2023-10-19 03:00,ZHCC 190300Z 29005MPS 8000 -RA NSC 16/12 Q1023 NOSIG
ZHCC,2023-10-19 04:00,ZHCC 190400Z 30003MPS 8000 -RA NSC 16/13 Q1023 NOSIG
ZHCC,2023-10-19 05:00,ZHCC 190500Z 29003MPS 8000 -RA NSC 15/13 Q1023 NOSIG
ZHCC,2023-10-19 06:00,ZHCC 190600Z 26003MPS 8000 -RA NSC 15/13 Q1023 NOSIG
ZHCC,2023-10-19 07:00,ZHCC 190700Z 20003MPS 170V240 9999 -RA NSC 15/12 Q1022 NOSIG
ZHCC,2023-10-19 08:00,ZHCC 190800Z 22003MPS CAVOK 15/12 Q1022 NOSIG
ZHCC,2023-10-19 09:00,ZHCC 190900Z 25002MPS 220V280 CAVOK 15/13 Q1023 NOSIG
ZHCC,2023-10-19 10:00,ZHCC 191000Z 25002MPS CAVOK 15/12 Q1023 NOSIG
ZHCC,2023-10-19 11:00,ZHCC 191100Z 24002MPS 210V270 CAVOK 15/11 Q1023 NOSIG
ZHCC,2023-10-19 12:00,ZHCC 191200Z 26002MPS CAVOK 13/11 Q1024 NOSIG
ZHCC,2023-10-19 13:00,ZHCC 191300Z 00000MPS CAVOK 12/11 Q1024 NOSIG
ZHCC,2023-10-19 14:00,ZHCC 191400Z 00000MPS CAVOK 11/11 Q1025 NOSIG
ZHCC,2023-10-19 15:00,ZHCC 191500Z VRB01MPS 7000 NSC 11/10 Q1026 NOSIG
ZHCC,2023-10-19 16:00,ZHCC 191600Z 00000MPS 7000 NSC 11/11 Q1026 NOSIG
ZHCC,2023-10-19 17:00,ZHCC 191700Z 26001MPS 5000 BR NSC 11/10 Q1026 NOSIG
ZHCC,2023-10-19 18:00,ZHCC 191800Z 26001MPS 5000 BR NSC 10/10 Q1026 NOSIG
ZHCC,2023-10-19 19:00,ZHCC 191900Z 28001MPS 5000 BR NSC 09/09 Q1026 NOSIG
ZHCC,2023-10-19 20:00,ZHCC 192000Z 29003MPS 6000 NSC 10/10 Q1026 NOSIG
ZHCC,2023-10-19 21:00,ZHCC 192100Z 29002MPS 6000 NSC 11/10 Q1026 NOSIG
ZHCC,2023-10-19 22:00,ZHCC 192200Z 31002MPS 6000 NSC 10/09 Q1027 NOSIG
ZHCC,2023-10-19 23:00,ZHCC 192300Z 30002MPS 270V330 5000 BR NSC 11/10 Q1028 NOSIG
ZHCC,2023-10-20 00:00,ZHCC 200000Z 36003MPS 5000 BR NSC 14/11 Q1029 NOSIG
ZHCC,2023-10-20 01:00,ZHCC 200100Z 36005MPS 330V030 8000 NSC 15/10 Q1030 NOSIG
ZHCC,2023-10-20 02:00,ZHCC 200200Z 04006MPS CAVOK 15/02 Q1030 NOSIG
ZHCC,2023-10-20 03:00,ZHCC 200300Z 06004MPS 360V100 CAVOK 17/02 Q1030 NOSIG
ZHCC,2023-10-20 04:00,ZHCC 200400Z 09004MPS 070V150 CAVOK 17/01 Q1029 NOSIG
ZHCC,2023-10-20 05:00,ZHCC 200500Z 09002MPS 020V180 CAVOK 18/02 Q1028 NOSIG
ZHCC,2023-10-20 06:00,ZHCC 200600Z VRB01MPS CAVOK 19/M00 Q1027 NOSIG
ZHCC,2023-10-20 07:00,ZHCC 200700Z 12002MPS 080V160 CAVOK 19/00 Q1027 NOSIG
ZHCC,2023-10-20 08:00,ZHCC 200800Z VRB01MPS CAVOK 20/01 Q1026 NOSIG
ZHCC,2023-10-20 09:00,ZHCC 200900Z 13001MPS CAVOK 18/02 Q1026 NOSIG
ZHCC,2023-10-20 10:00,ZHCC 201000Z 15001MPS CAVOK 15/05 Q1026 NOSIG
ZHCC,2023-10-20 11:00,ZHCC 201100Z VRB01MPS CAVOK 14/05 Q1026 NOSIG
ZHCC,2023-10-20 12:00,ZHCC 201200Z VRB01MPS CAVOK 12/06 Q1026 NOSIG
ZHCC,2023-10-20 13:00,ZHCC 201300Z VRB01MPS CAVOK 11/07 Q1027 NOSIG
ZHCC,2023-10-20 14:00,ZHCC 201400Z VRB01MPS CAVOK 11/07 Q1027 NOSIG
ZHCC,2023-10-20 15:00,ZHCC 201500Z VRB01MPS CAVOK 10/07 Q1026 NOSIG
ZHCC,2023-10-20 16:00,ZHCC 201600Z 00000MPS 8000 NSC 09/07 Q1026 NOSIG
ZHCC,2023-10-20 17:00,ZHCC 201700Z 21001MPS 8000 NSC 09/07 Q1026 NOSIG
ZHCC,2023-10-20 18:00,ZHCC 201800Z VRB01MPS 8000 NSC 09/07 Q1025 NOSIG
ZHCC,2023-10-20 19:00,ZHCC 201900Z 31001MPS 6000 NSC 08/06 Q1025 NOSIG
ZHCC,2023-10-20 20:00,ZHCC 202000Z 00000MPS 6000 NSC 07/06 Q1024 NOSIG
ZHCC,2023-10-20 21:00,ZHCC 202100Z 30001MPS 6000 NSC 08/07 Q1024 NOSIG
ZHCC,2023-10-20 22:00,ZHCC 202200Z 00000MPS 6000 NSC 08/07 Q1024 NOSIG
ZHCC,2023-10-20 23:00,ZHCC 202300Z 00000MPS 4500 BR NSC 08/07 Q1025 NOSIG
ZHCC,2023-10-21 00:00,ZHCC 210000Z 00000MPS 4500 BR NSC 12/10 Q1026 NOSIG
ZHCC,2023-10-21 01:00,ZHCC 210100Z VRB01MPS 5000 HZ NSC 16/08 Q1026 NOSIG
ZHCC,2023-10-21 02:00,ZHCC 210200Z VRB01MPS 7000 NSC 18/08 Q1026 NOSIG
ZHCC,2023-10-21 03:00,ZHCC 210300Z VRB01MPS CAVOK 20/08 Q1026 NOSIG
ZHCC,2023-10-21 04:00,ZHCC 210400Z VRB01MPS CAVOK 22/06 Q1025 NOSIG
ZHCC,2023-10-21 05:00,ZHCC 210500Z VRB01MPS CAVOK 23/06 Q1024 NOSIG
ZHCC,2023-10-21 06:00,ZHCC 210600Z VRB02MPS CAVOK 23/06 Q1023 NOSIG
ZHCC,2023-10-21 07:00,ZHCC 210700Z VRB02MPS CAVOK 23/05 Q1023 NOSIG
ZHCC,2023-10-21 08:00,ZHCC 210800Z 20002MPS 150V240 CAVOK 22/04 Q1022 NOSIG
ZHCC,2023-10-21 09:00,ZHCC 210900Z VRB01MPS CAVOK 21/05 Q1022 NOSIG
ZHCC,2023-10-21 10:00,ZHCC 211000Z VRB01MPS CAVOK 18/07 Q1022 NOSIG
ZHCC,2023-10-21 11:00,ZHCC 211100Z VRB01MPS CAVOK 15/09 Q1023 NOSIG
ZHCC,2023-10-21 12:00,ZHCC 211200Z 19002MPS 160V230 CAVOK 18/06 Q1023 NOSIG
ZHCC,2023-10-21 13:00,ZHCC 211300Z 20002MPS CAVOK 18/08 Q1023 NOSIG
ZHCC,2023-10-21 14:00,ZHCC 211400Z VRB01MPS CAVOK 15/10 Q1023 NOSIG
ZHCC,2023-10-21 15:00,ZHCC 211500Z VRB01MPS CAVOK 13/09 Q1023 NOSIG
ZHCC,2023-10-21 16:00,ZHCC 211600Z VRB01MPS CAVOK 11/09 Q1023 NOSIG
ZHCC,2023-10-21 17:00,ZHCC 211700Z VRB01MPS CAVOK 10/09 Q1023 NOSIG
ZHCC,2023-10-21 18:00,ZHCC 211800Z 20001MPS CAVOK 11/10 Q1022 NOSIG
ZHCC,2023-10-21 19:00,ZHCC 211900Z VRB01MPS 8000 NSC 10/09 Q1022 NOSIG
ZHCC,2023-10-21 20:00,ZHCC 212000Z 28001MPS 6000 NSC 09/08 Q1021 NOSIG
ZHCC,2023-10-21 21:00,ZHCC 212100Z 00000MPS 6000 NSC 09/08 Q1021 NOSIG
ZHCC,2023-10-21 22:00,ZHCC 212200Z 00000MPS 6000 NSC 09/08 Q1022 NOSIG
ZHCC,2023-10-21 23:00,ZHCC 212300Z 00000MPS 3000 BR NSC 08/07 Q1022 NOSIG
ZHCC,2023-10-22 00:00,ZHCC 220000Z VRB01MPS 4000 BR NSC 14/11 Q1023 NOSIG
ZHCC,2023-10-22 01:00,ZHCC 220100Z 22002MPS 190V260 7000 NSC 17/10 Q1023 NOSIG
ZHCC,2023-10-22 02:00,ZHCC 220200Z VRB01MPS CAVOK 19/10 Q1023 NOSIG
ZHCC,2023-10-22 03:00,ZHCC 220300Z VRB01MPS CAVOK 22/10 Q1022 NOSIG
ZHCC,2023-10-22 04:00,ZHCC 220400Z VRB02MPS CAVOK 23/10 Q1021 NOSIG
ZHCC,2023-10-22 05:00,ZHCC 220500Z 13002MPS 060V200 CAVOK 24/08 Q1020 NOSIG
ZHCC,2023-10-22 06:00,ZHCC 220600Z 18002MPS 100V250 CAVOK 24/07 Q1019 NOSIG
ZHCC,2023-10-22 07:00,ZHCC 220700Z 18002MPS 110V250 CAVOK 25/06 Q1019 NOSIG
ZHCC,2023-10-22 08:00,ZHCC 220800Z 22002MPS 180V260 CAVOK 25/07 Q1019 NOSIG
ZHCC,2023-10-22 09:00,ZHCC 220900Z 18002MPS 110V230 CAVOK 23/07 Q1019 NOSIG
ZHCC,2023-10-22 10:00,ZHCC 221000Z VRB01MPS CAVOK 20/08 Q1019 NOSIG
ZHCC,2023-10-22 11:00,ZHCC 221100Z VRB01MPS CAVOK 16/10 Q1020 NOSIG
ZHCC,2023-10-22 12:00,ZHCC 221200Z VRB01MPS CAVOK 15/10 Q1020 NOSIG
ZHCC,2023-10-22 13:00,ZHCC 221300Z 19002MPS 160V220 CAVOK 18/09 Q1021 NOSIG
ZHCC,2023-10-22 14:00,ZHCC 221400Z VRB01MPS CAVOK 17/09 Q1021 NOSIG
ZHCC,2023-10-22 15:00,ZHCC 221500Z VRB01MPS CAVOK 14/10 Q1021 NOSIG
ZHCC,2023-10-22 16:00,ZHCC 221600Z 00000MPS CAVOK 12/10 Q1021 NOSIG
ZHCC,2023-10-22 17:00,ZHCC 221700Z 19002MPS CAVOK 14/10 Q1020 NOSIG
ZHCC,2023-10-22 18:00,ZHCC 221800Z VRB01MPS CAVOK 13/10 Q1020 NOSIG
ZHCC,2023-10-22 19:00,ZHCC 221900Z VRB01MPS CAVOK 11/10 Q1019 NOSIG
ZHCC,2023-10-22 20:00,ZHCC 222000Z VRB01MPS 7000 NSC 11/09 Q1019 NOSIG
ZHCC,2023-10-22 21:00,ZHCC 222100Z 29001MPS 7000 NSC 10/09 Q1020 NOSIG
ZHCC,2023-10-22 22:00,ZHCC 222200Z 26001MPS 7000 NSC 10/09 Q1020 NOSIG
ZHCC,2023-10-22 23:00,ZHCC 222300Z 00000MPS 5000 BR NSC 10/10 Q1020 NOSIG
ZHCC,2023-10-23 00:00,ZHCC 230000Z VRB01MPS 5000 BR NSC 15/11 Q1020 NOSIG
ZHCC,2023-10-23 01:00,ZHCC 230100Z VRB01MPS 5000 HZ NSC 18/12 Q1021 NOSIG
ZHCC,2023-10-23 02:00,ZHCC 230200Z 19004MPS 6000 NSC 19/11 Q1020 NOSIG
ZHCC,2023-10-23 03:00,ZHCC 230300Z 17003MPS 130V220 7000 NSC 22/12 Q1020 NOSIG
ZHCC,2023-10-23 04:00,ZHCC 230400Z 19003MPS 130V250 7000 NSC 23/12 Q1019 NOSIG
ZHCC,2023-10-23 05:00,ZHCC 230500Z 19003MPS 120V240 7000 NSC 24/12 Q1018 NOSIG
ZHCC,2023-10-23 06:00,ZHCC 230600Z 20005MPS 140V240 9000 NSC 24/10 Q1017 NOSIG
ZHCC,2023-10-23 07:00,ZHCC 230700Z 19003MPS 130V230 CAVOK 24/12 Q1016 NOSIG
ZHCC,2023-10-23 08:00,ZHCC 230800Z 19004MPS 160V220 CAVOK 23/11 Q1016 NOSIG
ZHCC,2023-10-23 09:00,ZHCC 230900Z 19002MPS 140V220 CAVOK 22/11 Q1016 NOSIG
ZHCC,2023-10-23 10:00,ZHCC 231000Z VRB01MPS 7000 NSC 21/12 Q1016 NOSIG
ZHCC,2023-10-23 11:00,ZHCC 231100Z 19001MPS 8000 NSC 18/13 Q1017 NOSIG
ZHCC,2023-10-23 12:00,ZHCC 231200Z VRB01MPS 8000 NSC 19/13 Q1017 NOSIG
ZHCC,2023-10-23 13:00,ZHCC 231300Z 18001MPS 8000 NSC 18/13 Q1017 NOSIG
ZHCC,2023-10-23 14:00,ZHCC 231400Z 19002MPS 6000 NSC 18/12 Q1017 NOSIG
ZHCC,2023-10-23 15:00,ZHCC 231500Z 21002MPS 180V250 6000 NSC 19/12 Q1017 NOSIG
ZHCC,2023-10-23 16:00,ZHCC 231600Z 25001MPS 6000 NSC 15/13 Q1017 NOSIG
ZHCC,2023-10-23 17:00,ZHCC 231700Z VRB01MPS 5000 BR NSC 14/12 Q1017 NOSIG
ZHCC,2023-10-23 18:00,ZHCC 231800Z VRB01MPS 5000 BR NSC 14/12 Q1017 NOSIG
ZHCC,2023-10-23 19:00,ZHCC 231900Z 26001MPS 5000 BR NSC 12/11 Q1017 NOSIG
ZHCC,2023-10-23 20:00,ZHCC 232000Z 29001MPS 5000 BR NSC 12/11 Q1016 NOSIG
ZHCC,2023-10-23 21:00,ZHCC 232100Z 25001MPS 4000 BR NSC 12/11 Q1017 BECMG TL2240 2000
ZHCC,2023-10-23 22:00,ZHCC 232200Z VRB01MPS 3500 BR NSC 12/11 Q1017 BECMG TL2320 2000
ZHCC,2023-10-23 23:00,ZHCC 232300Z 24002MPS 2500 BR NSC 14/12 Q1017 BECMG TL0040 3000
ZHCC,2023-10-24 00:00,ZHCC 240000Z 27002MPS 240V300 3500 BR NSC 17/13 Q1018 NOSIG
ZHCC,2023-10-24 01:00,ZHCC 240100Z VRB01MPS 6000 NSC 20/13 Q1018 NOSIG
ZHCC,2023-10-24 02:00,ZHCC 240200Z VRB02MPS 8000 NSC 23/13 Q1018 NOSIG
ZHCC,2023-10-24 03:00,ZHCC 240300Z 19002MPS 080V250 8000 NSC 24/13 Q1018 NOSIG
ZHCC,2023-10-24 04:00,ZHCC 240400Z 18002MPS 090V260 CAVOK 26/13 Q1017 NOSIG
ZHCC,2023-10-24 05:00,ZHCC 240500Z 19002MPS 140V260 CAVOK 27/13 Q1016 NOSIG
ZHCC,2023-10-24 06:00,ZHCC 240600Z VRB01MPS CAVOK 27/12 Q1015 NOSIG
ZHCC,2023-10-24 07:00,ZHCC 240700Z VRB01MPS CAVOK 28/11 Q1015 NOSIG
ZHCC,2023-10-24 08:00,ZHCC 240800Z 20002MPS 110V230 CAVOK 28/11 Q1015 NOSIG
ZHCC,2023-10-24 09:00,ZHCC 240900Z VRB01MPS CAVOK 26/11 Q1015 NOSIG
ZHCC,2023-10-24 10:00,ZHCC 241000Z 19002MPS 150V210 CAVOK 23/12 Q1015 NOSIG
ZHCC,2023-10-24 11:00,ZHCC 241100Z VRB01MPS CAVOK 20/12 Q1016 NOSIG
ZHCC,2023-10-24 12:00,ZHCC 241200Z 19002MPS CAVOK 22/11 Q1017 NOSIG
ZHCC,2023-10-24 13:00,ZHCC 241300Z 20002MPS CAVOK 19/12 Q1017 NOSIG
ZHCC,2023-10-24 14:00,ZHCC 241400Z 20002MPS CAVOK 19/12 Q1017 NOSIG
ZHCC,2023-10-24 15:00,ZHCC 241500Z 22001MPS CAVOK 17/13 Q1018 NOSIG
ZHCC,2023-10-24 16:00,ZHCC 241600Z VRB01MPS CAVOK 15/13 Q1017 NOSIG
ZHCC,2023-10-24 17:00,ZHCC 241700Z VRB01MPS CAVOK 15/12 Q1017 NOSIG
ZHCC,2023-10-24 18:00,ZHCC 241800Z 27001MPS CAVOK 14/12 Q1017 NOSIG
ZHCC,2023-10-24 19:00,ZHCC 241900Z 00000MPS CAVOK 14/12 Q1017 NOSIG
ZHCC,2023-10-24 20:00,ZHCC 242000Z VRB01MPS CAVOK 13/11 Q1017 NOSIG
ZHCC,2023-10-24 21:00,ZHCC 242100Z VRB01MPS CAVOK 12/10 Q1016 NOSIG
ZHCC,2023-10-24 22:00,ZHCC 242200Z VRB01MPS CAVOK 12/11 Q1016 NOSIG
ZHCC,2023-10-24 23:00,ZHCC 242300Z VRB01MPS CAVOK 12/11 Q1017 NOSIG
ZHCC,2023-10-25 00:00,ZHCC 250000Z 27001MPS CAVOK 16/13 Q1018 NOSIG
ZHCC,2023-10-25 01:00,ZHCC 250100Z 31003MPS CAVOK 22/11 Q1018 NOSIG
ZHCC,2023-10-25 02:00,ZHCC 250200Z 27003MPS 220V300 CAVOK 25/09 Q1018 NOSIG
ZHCC,2023-10-25 03:00,ZHCC 250300Z 27003MPS 240V310 CAVOK 28/08 Q1018 NOSIG
ZHCC,2023-10-25 04:00,ZHCC 250400Z 30003MPS 270V330 CAVOK 30/05 Q1017 NOSIG
ZHCC,2023-10-25 05:00,ZHCC 250500Z 29003MPS 260V330 CAVOK 30/04 Q1016 NOSIG
ZHCC,2023-10-25 06:00,ZHCC 250600Z VRB01MPS CAVOK 31/05 Q1015 NOSIG
ZHCC,2023-10-25 07:00,ZHCC 250700Z 22003MPS 180V270 CAVOK 30/09 Q1015 NOSIG
ZHCC,2023-10-25 08:00,ZHCC 250800Z 21003MPS 170V240 CAVOK 29/09 Q1015 NOSIG
ZHCC,2023-10-25 09:00,ZHCC 250900Z 20002MPS CAVOK 27/08 Q1015 NOSIG
ZHCC,2023-10-25 10:00,ZHCC 251000Z VRB01MPS CAVOK 24/10 Q1015 NOSIG
ZHCC,2023-10-25 11:00,ZHCC 251100Z 21002MPS 180V240 CAVOK 25/09 Q1016 NOSIG
ZHCC,2023-10-25 12:00,ZHCC 251200Z VRB01MPS CAVOK 21/11 Q1016 NOSIG
ZHCC,2023-10-25 13:00,ZHCC 251300Z VRB01MPS CAVOK 18/11 Q1016 NOSIG
ZHCC,2023-10-25 14:00,ZHCC 251400Z VRB01MPS CAVOK 16/12 Q1017 NOSIG
ZHCC,2023-10-25 15:00,ZHCC 251500Z 24002MPS CAVOK 20/10 Q1017 NOSIG
ZHCC,2023-10-25 16:00,ZHCC 251600Z 24002MPS CAVOK 19/10 Q1016 NOSIG
ZHCC,2023-10-25 17:00,ZHCC 251700Z 27002MPS CAVOK 16/10 Q1016 NOSIG
ZHCC,2023-10-25 18:00,ZHCC 251800Z 29003MPS CAVOK 17/09 Q1016 NOSIG
ZHCC,2023-10-25 19:00,ZHCC 251900Z 31005MPS CAVOK 19/08 Q1016 NOSIG
ZHCC,2023-10-25 20:00,ZHCC 252000Z 30005MPS CAVOK 20/07 Q1016 NOSIG
ZHCC,2023-10-25 21:00,ZHCC 252100Z 30004MPS CAVOK 19/06 Q1016 NOSIG
ZHCC,2023-10-25 22:00,ZHCC 252200Z 27003MPS CAVOK 19/06 Q1017 NOSIG
ZHCC,2023-10-25 23:00,ZHCC 252300Z 31004MPS CAVOK 18/06 Q1017 NOSIG
ZHCC,2023-10-26 00:00,ZHCC 260000Z 30003MPS CAVOK 22/06 Q1018 NOSIG
ZHCC,2023-10-26 01:00,ZHCC 260100Z 32004MPS CAVOK 24/06 Q1019 NOSIG
ZHCC,2023-10-26 02:00,ZHCC 260200Z 33004MPS CAVOK 27/05 Q1019 NOSIG
ZHCC,2023-10-26 03:00,ZHCC 260300Z 32005MPS CAVOK 27/05 Q1019 NOSIG
ZHCC,2023-10-26 04:00,ZHCC 260400Z 34004MPS CAVOK 27/05 Q1019 NOSIG
ZHCC,2023-10-26 05:00,ZHCC 260500Z 34003MPS 300V050 CAVOK 28/05 Q1018 NOSIG
ZHCC,2023-10-26 06:00,ZHCC 260600Z 34004MPS 310V020 CAVOK 28/04 Q1018 NOSIG
ZHCC,2023-10-26 07:00,ZHCC 260700Z 35004MPS 320V030 CAVOK 28/05 Q1018 NOSIG
ZHCC,2023-10-26 08:00,ZHCC 260800Z 36004MPS CAVOK 27/05 Q1017 NOSIG
ZHCC,2023-10-26 09:00,ZHCC 260900Z 05004MPS CAVOK 26/03 Q1018 NOSIG
ZHCC,2023-10-26 10:00,ZHCC 261000Z 05003MPS 6000 NSC 23/05 Q1018 NOSIG
ZHCC,2023-10-26 11:00,ZHCC 261100Z 04003MPS 6000 NSC 22/07 Q1019 NOSIG
ZHCC,2023-10-26 12:00,ZHCC 261200Z 04004MPS 6000 NSC 21/10 Q1020 NOSIG
ZHCC,2023-10-26 13:00,ZHCC 261300Z 04003MPS 010V080 6000 NSC 20/10 Q1020 NOSIG
ZHCC,2023-10-26 14:00,ZHCC 261400Z 04004MPS 350V060 6000 NSC 20/10 Q1021 NOSIG
ZHCC,2023-10-26 15:00,ZHCC 261500Z 02004MPS 8000 NSC 19/09 Q1021 NOSIG
ZHCC,2023-10-26 16:00,ZHCC 261600Z VRB01MPS CAVOK 16/09 Q1021 NOSIG
ZHCC,2023-10-26 17:00,ZHCC 261700Z 29002MPS CAVOK 15/10 Q1021 NOSIG
ZHCC,2023-10-26 18:00,ZHCC 261800Z 34002MPS CAVOK 13/09 Q1021 NOSIG
ZHCC,2023-10-26 19:00,ZHCC 261900Z 28002MPS CAVOK 14/09 Q1020 NOSIG
ZHCC,2023-10-26 20:00,ZHCC 262000Z 29001MPS CAVOK 14/09 Q1020 NOSIG
ZHCC,2023-10-26 21:00,ZHCC 262100Z 36002MPS 320V020 CAVOK 13/08 Q1020 NOSIG
ZHCC,2023-10-26 22:00,ZHCC 262200Z 28002MPS CAVOK 13/09 Q1020 NOSIG
ZHCC,2023-10-26 23:00,ZHCC 262300Z 30002MPS CAVOK 12/08 Q1021 NOSIG
ZHCC,2023-10-27 00:00,ZHCC 270000Z 30001MPS CAVOK 14/10 Q1021 NOSIG
ZHCC,2023-10-27 01:00,ZHCC 270100Z VRB01MPS CAVOK 17/09 Q1022 NOSIG
ZHCC,2023-10-27 02:00,ZHCC 270200Z VRB01MPS CAVOK 19/08 Q1022 NOSIG
ZHCC,2023-10-27 03:00,ZHCC 270300Z VRB01MPS 8000 NSC 20/09 Q1021 NOSIG
ZHCC,2023-10-27 04:00,ZHCC 270400Z VRB01MPS 8000 NSC 21/09 Q1020 NOSIG
ZHCC,2023-10-27 05:00,ZHCC 270500Z VRB01MPS 8000 NSC 22/09 Q1019 NOSIG
ZHCC,2023-10-27 06:00,ZHCC 270600Z VRB01MPS 8000 FEW030 23/10 Q1018 NOSIG
ZHCC,2023-10-27 07:00,ZHCC 270700Z VRB01MPS 8000 FEW030 23/10 Q1018 NOSIG
ZHCC,2023-10-27 08:00,ZHCC 270800Z VRB01MPS 6000 NSC 22/10 Q1017 NOSIG
ZHCC,2023-10-27 09:00,ZHCC 270900Z 14001MPS 6000 NSC 21/11 Q1017 NOSIG
ZHCC,2023-10-27 10:00,ZHCC 271000Z VRB01MPS 6000 NSC 19/11 Q1017 NOSIG
ZHCC,2023-10-27 11:00,ZHCC 271100Z VRB01MPS 6000 NSC 17/12 Q1018 NOSIG
ZHCC,2023-10-27 12:00,ZHCC 271200Z 00000MPS 5000 HZ NSC 16/12 Q1018 NOSIG
ZHCC,2023-10-27 13:00,ZHCC 271300Z 00000MPS 4000 HZ NSC 16/13 Q1018 NOSIG
ZHCC,2023-10-27 14:00,ZHCC 271400Z 19001MPS 4000 HZ NSC 16/13 Q1018 NOSIG
ZHCC,2023-10-27 15:00,ZHCC 271500Z VRB01MPS 4000 HZ NSC 14/12 Q1018 NOSIG
ZHCC,2023-10-27 16:00,ZHCC 271600Z VRB01MPS 4500 BR NSC 14/12 Q1018 NOSIG
ZHCC,2023-10-27 17:00,ZHCC 271700Z 22001MPS 4000 BR NSC 12/11 Q1018 NOSIG
ZHCC,2023-10-27 18:00,ZHCC 271800Z 00000MPS 4000 BR NSC 12/11 Q1017 NOSIG
ZHCC,2023-10-27 19:00,ZHCC 271900Z 00000MPS 4000 BR NSC 11/10 Q1017 NOSIG
ZHCC,2023-10-27 20:00,ZHCC 272000Z 00000MPS 4000 BR NSC 11/10 Q1017 NOSIG
ZHCC,2023-10-27 21:00,ZHCC 272100Z VRB01MPS 4000 BR NSC 11/10 Q1017 NOSIG
ZHCC,2023-10-27 22:00,ZHCC 272200Z VRB01MPS 4000 BR NSC 12/11 Q1017 NOSIG
ZHCC,2023-10-27 23:00,ZHCC 272300Z 00000MPS 2300 BR NSC 10/09 Q1017 BECMG TL0040 3000
ZHCC,2023-10-28 00:00,ZHCC 280000Z VRB01MPS 2300 BR NSC 14/12 Q1018 BECMG TL0040 3000
ZHCC,2023-10-28 01:00,ZHCC 280100Z 21002MPS 180V240 3000 HZ NSC 18/12 Q1018 NOSIG
ZHCC,2023-10-28 02:00,ZHCC 280200Z 20003MPS 170V250 4000 HZ NSC 21/12 Q1018 NOSIG
ZHCC,2023-10-28 03:00,ZHCC 280300Z 23002MPS 190V270 4000 HZ NSC 23/12 Q1018 NOSIG
ZHCC,2023-10-28 04:00,ZHCC 280400Z 20003MPS 160V240 4000 HZ NSC 25/10 Q1018 NOSIG
ZHCC,2023-10-28 05:00,ZHCC 280500Z 20003MPS 160V230 CAVOK 26/09 Q1017 NOSIG
ZHCC,2023-10-28 06:00,ZHCC 280600Z 22003MPS 170V250 CAVOK 27/07 Q1016 NOSIG
ZHCC,2023-10-28 07:00,ZHCC 280700Z 21003MPS 170V250 CAVOK 27/06 Q1016 NOSIG
ZHCC,2023-10-28 08:00,ZHCC 280800Z VRB02MPS CAVOK 26/07 Q1016 NOSIG
ZHCC,2023-10-28 09:00,ZHCC 280900Z 17002MPS 110V220 CAVOK 25/06 Q1016 NOSIG
ZHCC,2023-10-28 10:00,ZHCC 281000Z VRB01MPS CAVOK 22/07 Q1016 NOSIG
ZHCC,2023-10-28 11:00,ZHCC 281100Z 00000MPS CAVOK 18/09 Q1017 NOSIG
ZHCC,2023-10-28 12:00,ZHCC 281200Z 19002MPS 130V220 CAVOK 20/10 Q1017 NOSIG
ZHCC,2023-10-28 13:00,ZHCC 281300Z 18001MPS CAVOK 18/10 Q1017 NOSIG
ZHCC,2023-10-28 14:00,ZHCC 281400Z 20001MPS CAVOK 15/11 Q1017 NOSIG
ZHCC,2023-10-28 15:00,ZHCC 281500Z VRB01MPS CAVOK 13/11 Q1018 NOSIG
ZHCC,2023-10-28 16:00,ZHCC 281600Z VRB01MPS 8000 NSC 13/11 Q1018 NOSIG
ZHCC,2023-10-28 17:00,ZHCC 281700Z 00000MPS 8000 NSC 12/10 Q1017 NOSIG
ZHCC,2023-10-28 18:00,ZHCC 281800Z VRB01MPS 6000 NSC 11/10 Q1017 NOSIG
ZHCC,2023-10-28 19:00,ZHCC 281900Z 00000MPS 6000 NSC 12/11 Q1017 NOSIG
ZHCC,2023-10-28 20:00,ZHCC 282000Z 00000MPS 6000 NSC 11/10 Q1017 NOSIG
ZHCC,2023-10-28 21:00,ZHCC 282100Z 00000MPS 5000 BR NSC 09/08 Q1017 NOSIG
ZHCC,2023-10-28 22:00,ZHCC 282200Z 31002MPS 5000 BR NSC 10/10 Q1017 BECMG TL2300 2000
ZHCC,2023-10-28 23:00,ZHCC 282300Z 00000MPS 2000 BR NSC 10/10 Q1017 BECMG TL0020 3000
ZHCC,2023-10-29 00:00,ZHCC 290000Z VRB01MPS 4000 BR NSC 14/12 Q1018 NOSIG
ZHCC,2023-10-29 01:00,ZHCC 290100Z 21002MPS 170V250 5000 HZ NSC 18/12 Q1019 NOSIG
ZHCC,2023-10-29 02:00,ZHCC 290200Z 18002MPS 140V240 5000 HZ NSC 21/12 Q1019 NOSIG
ZHCC,2023-10-29 03:00,ZHCC 290300Z 19002MPS 130V270 5000 HZ NSC 23/13 Q1019 NOSIG
ZHCC,2023-10-29 04:00,ZHCC 290400Z 20003MPS 120V230 8000 NSC 24/11 Q1018 NOSIG
ZHCC,2023-10-29 05:00,ZHCC 290500Z 18003MPS 120V230 CAVOK 26/11 Q1017 NOSIG
ZHCC,2023-10-29 06:00,ZHCC 290600Z 20003MPS 130V250 CAVOK 27/10 Q1016 NOSIG
ZHCC,2023-10-29 07:00,ZHCC 290700Z 18003MPS 110V250 CAVOK 27/10 Q1016 NOSIG
ZHCC,2023-10-29 08:00,ZHCC 290800Z 18003MPS 120V220 CAVOK 27/08 Q1016 NOSIG
ZHCC,2023-10-29 09:00,ZHCC 290900Z 18002MPS 120V220 CAVOK 25/09 Q1016 NOSIG
ZHCC,2023-10-29 10:00,ZHCC 291000Z 18002MPS 140V210 CAVOK 23/10 Q1016 NOSIG
ZHCC,2023-10-29 11:00,ZHCC 291100Z 19002MPS 160V220 CAVOK 22/11 Q1017 NOSIG
ZHCC,2023-10-29 12:00,ZHCC 291200Z 20003MPS CAVOK 22/11 Q1017 NOSIG
ZHCC,2023-10-29 13:00,ZHCC 291300Z 20002MPS CAVOK 21/11 Q1018 NOSIG
ZHCC,2023-10-29 14:00,ZHCC 291400Z 21002MPS 170V250 CAVOK 21/12 Q1018 NOSIG
ZHCC,2023-10-29 15:00,ZHCC 291500Z 20001MPS CAVOK 18/11 Q1018 NOSIG
ZHCC,2023-10-29 16:00,ZHCC 291600Z 19001MPS CAVOK 14/11 Q1018 NOSIG
ZHCC,2023-10-29 17:00,ZHCC 291700Z 19002MPS CAVOK 16/11 Q1017 NOSIG
ZHCC,2023-10-29 18:00,ZHCC 291800Z 00000MPS CAVOK 12/10 Q1017 NOSIG
ZHCC,2023-10-29 19:00,ZHCC 291900Z 00000MPS CAVOK 13/11 Q1017 NOSIG
ZHCC,2023-10-29 20:00,ZHCC 292000Z 30001MPS CAVOK 11/10 Q1017 NOSIG
ZHCC,2023-10-29 21:00,ZHCC 292100Z 00000MPS CAVOK 11/10 Q1017 NOSIG
ZHCC,2023-10-29 22:00,ZHCC 292200Z 00000MPS CAVOK 11/10 Q1017 NOSIG
ZHCC,2023-10-29 23:00,ZHCC 292300Z VRB01MPS 7000 NSC 11/09 Q1017 NOSIG
ZHCC,2023-10-30 00:00,ZHCC 300000Z 28001MPS 7000 NSC 15/12 Q1018 NOSIG
ZHCC,2023-10-30 01:00,ZHCC 300100Z VRB01MPS 7000 NSC 20/11 Q1019 NOSIG
ZHCC,2023-10-30 02:00,ZHCC 300200Z VRB01MPS 7000 NSC 23/11 Q1019 NOSIG
ZHCC,2023-10-30 03:00,ZHCC 300300Z VRB01MPS 7000 NSC 25/11 Q1019 NOSIG
ZHCC,2023-10-30 04:00,ZHCC 300400Z VRB01MPS CAVOK 27/11 Q1018 NOSIG
ZHCC,2023-10-30 05:00,ZHCC 300500Z 12002MPS 080V180 CAVOK 27/09 Q1017 NOSIG
ZHCC,2023-10-30 06:00,ZHCC 300600Z 14002MPS 030V200 CAVOK 28/08 Q1017 NOSIG
ZHCC,2023-10-30 07:00,ZHCC 300700Z 14002MPS 090V200 CAVOK 28/11 Q1016 NOSIG
ZHCC,2023-10-30 08:00,ZHCC 300800Z 15002MPS 110V200 CAVOK 28/09 Q1016 NOSIG
ZHCC,2023-10-30 09:00,ZHCC 300900Z 13002MPS CAVOK 26/10 Q1016 NOSIG
ZHCC,2023-10-30 10:00,ZHCC 301000Z 14002MPS CAVOK 23/10 Q1017 NOSIG
ZHCC,2023-10-30 11:00,ZHCC 301100Z VRB01MPS CAVOK 20/10 Q1017 NOSIG
ZHCC,2023-10-30 12:00,ZHCC 301200Z VRB01MPS CAVOK 17/11 Q1017 NOSIG
ZHCC,2023-10-30 13:00,ZHCC 301300Z 19002MPS 160V220 CAVOK 21/13 Q1018 NOSIG
ZHCC,2023-10-30 14:00,ZHCC 301400Z VRB01MPS CAVOK 20/13 Q1018 NOSIG
ZHCC,2023-10-30 15:00,ZHCC 301500Z 19003MPS CAVOK 21/12 Q1018 NOSIG
ZHCC,2023-10-30 16:00,ZHCC 301600Z 21002MPS 180V240 CAVOK 20/12 Q1018 NOSIG
ZHCC,2023-10-30 17:00,ZHCC 301700Z VRB01MPS CAVOK 18/12 Q1018 NOSIG
ZHCC,2023-10-30 18:00,ZHCC 301800Z 21002MPS 180V250 CAVOK 16/12 Q1018 NOSIG
ZHCC,2023-10-30 19:00,ZHCC 301900Z 25001MPS CAVOK 14/12 Q1018 NOSIG
ZHCC,2023-10-30 20:00,ZHCC 302000Z VRB01MPS CAVOK 14/11 Q1017 NOSIG
ZHCC,2023-10-30 21:00,ZHCC 302100Z 27002MPS CAVOK 13/11 Q1018 NOSIG
ZHCC,2023-10-30 22:00,ZHCC 302200Z 19001MPS CAVOK 13/10 Q1017 NOSIG
ZHCC,2023-10-30 23:00,ZHCC 302300Z 19001MPS CAVOK 13/11 Q1018 NOSIG
ZHCC,2023-10-31 00:00,ZHCC 310000Z VRB01MPS CAVOK 17/13 Q1018 NOSIG
ZHCC,2023-10-31 01:00,ZHCC 310100Z 21003MPS CAVOK 21/12 Q1019 NOSIG
ZHCC,2023-10-31 02:00,ZHCC 310200Z 20003MPS 160V240 CAVOK 24/13 Q1019 NOSIG
ZHCC,2023-10-31 03:00,ZHCC 310300Z 18002MPS 140V260 CAVOK 25/14 Q1018 NOSIG
ZHCC,2023-10-31 04:00,ZHCC 310400Z 18003MPS 120V220 CAVOK 27/14 Q1017 NOSIG
ZHCC,2023-10-31 05:00,ZHCC 310500Z 18003MPS 140V230 CAVOK 27/12 Q1016 NOSIG
ZHCC,2023-10-31 06:00,ZHCC 310600Z 19004MPS 130V220 CAVOK 28/12 Q1015 NOSIG
ZHCC,2023-10-31 07:00,ZHCC 310700Z 19003MPS 150V240 CAVOK 29/12 Q1015 NOSIG
ZHCC,2023-10-31 08:00,ZHCC 310800Z 20003MPS 120V240 CAVOK 28/12 Q1014 NOSIG
ZHCC,2023-10-31 09:00,ZHCC 310900Z 19002MPS 140V230 CAVOK 27/12 Q1015 NOSIG
ZHCC,2023-10-31 10:00,ZHCC 311000Z 20002MPS CAVOK 25/13 Q1015 NOSIG
ZHCC,2023-10-31 11:00,ZHCC 311100Z 19002MPS 160V230 CAVOK 24/13 Q1016 NOSIG
ZHCC,2023-10-31 12:00,ZHCC 311200Z 20002MPS 160V240 CAVOK 23/13 Q1016 NOSIG
ZHCC,2023-10-31 13:00,ZHCC 311300Z 20003MPS 180V240 CAVOK 23/14 Q1016 NOSIG
ZHCC,2023-10-31 14:00,ZHCC 311400Z 22004MPS 180V240 CAVOK 23/14 Q1016 NOSIG
ZHCC,2023-10-31 15:00,ZHCC 311500Z 21003MPS 180V240 CAVOK 23/13 Q1016 NOSIG
ZHCC,2023-10-31 16:00,ZHCC 311600Z 21003MPS 180V240 CAVOK 22/13 Q1016 NOSIG
ZHCC,2023-10-31 17:00,ZHCC 311700Z 21003MPS CAVOK 21/13 Q1015 NOSIG
ZHCC,2023-10-31 18:00,ZHCC 311800Z 22002MPS CAVOK 21/13 Q1015 NOSIG
ZHCC,2023-10-31 19:00,ZHCC 311900Z VRB01MPS CAVOK 20/13 Q1014 NOSIG
ZHCC,2023-10-31 20:00,ZHCC 312000Z 23002MPS 200V260 CAVOK 21/13 Q1014 NOSIG
ZHCC,2023-10-31 21:00,ZHCC 312100Z VRB01MPS CAVOK 17/12 Q1015 NOSIG
ZHCC,2023-10-31 22:00,ZHCC 312200Z 21002MPS 170V240 CAVOK 19/13 Q1014 NOSIG
ZHCC,2023-10-31 23:00,ZHCC 312300Z VRB01MPS CAVOK 19/13 Q1015 NOSIG
ZHCC,2023-11-01 00:00,ZHCC 010000Z 21003MPS 180V240 CAVOK 21/13 Q1015 NOSIG
ZHCC,2023-11-01 01:00,ZHCC 010100Z 21003MPS 180V260 CAVOK 23/14 Q1016 NOSIG
ZHCC,2023-11-01 02:00,ZHCC 010200Z 20005MPS 160V220 CAVOK 24/13 Q1016 NOSIG
ZHCC,2023-11-01 03:00,ZHCC 010300Z 19004MPS 130V230 CAVOK 26/14 Q1015 NOSIG
ZHCC,2023-11-01 04:00,ZHCC 010400Z 20005MPS 170V230 CAVOK 26/13 Q1014 NOSIG
ZHCC,2023-11-01 05:00,ZHCC 010500Z 19004MPS 140V230 CAVOK 27/13 Q1013 NOSIG
ZHCC,2023-11-01 06:00,ZHCC 010600Z 19004MPS 140V220 CAVOK 28/13 Q1013 NOSIG
ZHCC,2023-11-01 07:00,ZHCC 010700Z 20003MPS 140V260 CAVOK 29/12 Q1012 NOSIG
ZHCC,2023-11-01 08:00,ZHCC 010800Z 18004MPS 140V230 CAVOK 28/13 Q1012 NOSIG
ZHCC,2023-11-01 09:00,ZHCC 010900Z 18003MPS 140V210 CAVOK 27/13 Q1012 NOSIG
ZHCC,2023-11-01 10:00,ZHCC 011000Z 19002MPS 160V220 CAVOK 25/14 Q1012 NOSIG
ZHCC,2023-11-01 11:00,ZHCC 011100Z 19002MPS 160V240 CAVOK 24/14 Q1012 NOSIG
ZHCC,2023-11-01 12:00,ZHCC 011200Z 18002MPS 150V210 CAVOK 23/13 Q1013 NOSIG
ZHCC,2023-11-01 13:00,ZHCC 011300Z VRB01MPS CAVOK 22/13 Q1013 NOSIG
ZHCC,2023-11-01 14:00,ZHCC 011400Z 19002MPS 120V230 CAVOK 22/13 Q1013 NOSIG
ZHCC,2023-11-01 15:00,ZHCC 011500Z 21004MPS 170V250 CAVOK 22/12 Q1013 NOSIG
ZHCC,2023-11-01 16:00,ZHCC 011600Z 20004MPS 170V240 CAVOK 21/12 Q1012 NOSIG
ZHCC,2023-11-01 17:00,ZHCC 011700Z 21003MPS 180V240 CAVOK 21/12 Q1012 NOSIG
ZHCC,2023-11-01 18:00,ZHCC 011800Z 19003MPS 140V240 CAVOK 20/12 Q1012 NOSIG
ZHCC,2023-11-01 19:00,ZHCC 011900Z 19003MPS CAVOK 20/12 Q1011 NOSIG
ZHCC,2023-11-01 20:00,ZHCC 012000Z 18002MPS 140V220 CAVOK 19/12 Q1011 NOSIG
ZHCC,2023-11-01 21:00,ZHCC 012100Z 19002MPS 130V230 CAVOK 18/12 Q1011 NOSIG
ZHCC,2023-11-01 22:00,ZHCC 012200Z 20002MPS 140V240 CAVOK 19/12 Q1011 NOSIG
ZHCC,2023-11-01 23:00,ZHCC 012300Z 19002MPS 160V230 CAVOK 18/12 Q1011 NOSIG
ZHCC,2023-11-02 00:00,ZHCC 020000Z 23002MPS 180V260 CAVOK 20/13 Q1012 NOSIG
ZHCC,2023-11-02 01:00,ZHCC 020100Z 20003MPS 180V240 CAVOK 21/13 Q1012 NOSIG
ZHCC,2023-11-02 02:00,ZHCC 020200Z 22003MPS 180V250 CAVOK 23/14 Q1012 NOSIG
ZHCC,2023-11-02 03:00,ZHCC 020300Z 20003MPS 150V240 CAVOK 25/14 Q1011 NOSIG
ZHCC,2023-11-02 04:00,ZHCC 020400Z 21003MPS 160V250 CAVOK 26/14 Q1011 NOSIG
ZHCC,2023-11-02 05:00,ZHCC 020500Z 22003MPS 160V280 CAVOK 28/14 Q1010 NOSIG
ZHCC,2023-11-02 06:00,ZHCC 020600Z 29006MPS CAVOK 30/12 Q1009 NOSIG
ZHCC,2023-11-02 07:00,ZHCC 020700Z 26003MPS 240V300 CAVOK 30/12 Q1008 NOSIG
ZHCC,2023-11-02 08:00,ZHCC 020800Z 30004MPS CAVOK 30/12 Q1009 NOSIG
ZHCC,2023-11-02 09:00,ZHCC 020900Z 28002MPS 240V320 CAVOK 27/12 Q1009 NOSIG
ZHCC,2023-11-02 10:00,ZHCC 021000Z 24002MPS 210V270 CAVOK 25/13 Q1010 NOSIG
ZHCC,2023-11-02 11:00,ZHCC 021100Z 26001MPS CAVOK 22/13 Q1011 NOSIG
ZHCC,2023-11-02 12:00,ZHCC 021200Z 23002MPS CAVOK 23/13 Q1011 NOSIG
ZHCC,2023-11-02 13:00,ZHCC 021300Z 22002MPS CAVOK 23/12 Q1011 NOSIG
ZHCC,2023-11-02 14:00,ZHCC 021400Z 27003MPS CAVOK 21/06 Q1012 NOSIG
ZHCC,2023-11-02 15:00,ZHCC 021500Z 29005MPS CAVOK 23/M01 Q1013 BECMG TL1640 36007MPS
ZHCC,2023-11-02 16:00,ZHCC 021600Z 32006MPS CAVOK 24/M03 Q1013 NOSIG
ZHCC,2023-11-02 17:00,ZHCC 021700Z 33004MPS CAVOK 23/M02 Q1014 NOSIG
ZHCC,2023-11-02 18:00,ZHCC 021800Z 35006MPS 6000 NSC 22/07 Q1014 NOSIG
ZHCC,2023-11-02 19:00,ZHCC 021900Z 36007MPS 330V040 6000 NSC 21/05 Q1015 NOSIG
ZHCC,2023-11-02 20:00,ZHCC 022000Z 36008MPS 340V040 6000 NSC 20/06 Q1016 NOSIG
ZHCC,2023-11-02 21:00,ZHCC 022100Z 02007MPS 6000 NSC 19/05 Q1016 NOSIG
ZHCC,2023-11-02 22:00,ZHCC 022200Z 02007MPS 6000 NSC 19/06 Q1016 NOSIG
ZHCC,2023-11-02 23:00,ZHCC 022300Z 02006MPS 340V040 4000 SA NSC 18/06 Q1017 NOSIG
ZHCC,2023-11-03 00:00,ZHCC 030000Z 01005MPS 4000 HZ NSC 19/06 Q1018 NOSIG
ZHCC,2023-11-03 01:00,ZHCC 030100Z 03005MPS 4000 HZ NSC 19/07 Q1019 NOSIG
ZHCC,2023-11-03 02:00,ZHCC 030200Z 36006MPS 4000 HZ NSC 19/06 Q1020 NOSIG
ZHCC,2023-11-03 03:00,ZHCC 030300Z 36006MPS 4000 HZ NSC 19/05 Q1020 NOSIG
ZHCC,2023-11-03 04:00,ZHCC 030400Z 36005MPS 330V030 6000 NSC 19/04 Q1019 NOSIG
ZHCC,2023-11-03 05:00,ZHCC 030500Z 36005MPS 8000 FEW040 19/03 Q1019 NOSIG
ZHCC,2023-11-03 06:00,ZHCC 030600Z 36005MPS 8000 SCT040 18/03 Q1019 NOSIG
ZHCC,2023-11-03 07:00,ZHCC 030700Z 36005MPS 8000 -RA SCT040 17/07 Q1019 NOSIG
ZHCC,2023-11-03 08:00,ZHCC 030800Z 34003MPS 5000 -RA BR SCT040 14/11 Q1020 NOSIG
ZHCC,2023-11-03 09:00,ZHCC 030900Z 06002MPS 020V120 5000 -RA BR SCT040 14/12 Q1020 NOSIG
ZHCC,2023-11-03 10:00,ZHCC 031000Z 12002MPS 100V160 CAVOK 13/11 Q1019 NOSIG
ZHCC,2023-11-03 11:00,ZHCC 031100Z 00000MPS CAVOK 13/10 Q1019 NOSIG
ZHCC,2023-11-03 12:00,ZHCC 031200Z 00000MPS CAVOK 13/11 Q1020 NOSIG
ZHCC,2023-11-03 13:00,ZHCC 031300Z VRB01MPS CAVOK 14/12 Q1020 NOSIG
ZHCC,2023-11-03 14:00,ZHCC 031400Z 28001MPS 7000 NSC 13/13 Q1020 NOSIG
ZHCC,2023-11-03 15:00,ZHCC 031500Z 30001MPS 7000 NSC 14/12 Q1019 NOSIG
ZHCC,2023-11-03 16:00,ZHCC 031600Z 28002MPS 7000 NSC 13/12 Q1019 NOSIG
ZHCC,2023-11-03 17:00,ZHCC 031700Z 30001MPS 7000 NSC 13/12 Q1019 NOSIG
ZHCC,2023-11-03 18:00,ZHCC 031800Z VRB01MPS 7000 NSC 14/12 Q1019 NOSIG
ZHCC,2023-11-03 19:00,ZHCC 031900Z VRB01MPS 7000 NSC 14/12 Q1018 NOSIG
ZHCC,2023-11-03 20:00,ZHCC 032000Z 15002MPS 120V200 7000 NSC 14/12 Q1018 NOSIG
ZHCC,2023-11-03 21:00,ZHCC 032100Z VRB01MPS 7000 NSC 13/12 Q1018 NOSIG
ZHCC,2023-11-03 22:00,ZHCC 032200Z 15001MPS 7000 NSC 13/12 Q1018 NOSIG
ZHCC,2023-11-03 23:00,ZHCC 032300Z 00000MPS 6000 NSC 13/12 Q1018 NOSIG
ZHCC,2023-11-04 00:00,ZHCC 040000Z 11002MPS 5000 BR NSC 14/12 Q1019 NOSIG
ZHCC,2023-11-04 01:00,ZHCC 040100Z 12002MPS 6000 NSC 14/12 Q1020 NOSIG
ZHCC,2023-11-04 02:00,ZHCC 040200Z 06003MPS 6000 NSC 14/12 Q1020 NOSIG
ZHCC,2023-11-04 03:00,ZHCC 040300Z 05002MPS 8000 NSC 15/12 Q1020 NOSIG
ZHCC,2023-11-04 04:00,ZHCC 040400Z 01002MPS 340V050 8000 OVC033 15/11 Q1019 NOSIG
ZHCC,2023-11-04 05:00,ZHCC 040500Z 02002MPS 9999 OVC033 16/10 Q1018 NOSIG
ZHCC,2023-11-04 06:00,ZHCC 040600Z 03002MPS 350V080 9999 OVC033 16/10 Q1017 NOSIG
ZHCC,2023-11-04 07:00,ZHCC 040700Z 03003MPS 360V060 9999 OVC046 16/11 Q1017 NOSIG
ZHCC,2023-11-04 08:00,ZHCC 040800Z 02003MPS 340V050 7000 NSC 15/11 Q1017 NOSIG
ZHCC,2023-11-04 09:00,ZHCC 040900Z 03003MPS 5000 BR NSC 15/11 Q1017 NOSIG
ZHCC,2023-11-04 10:00,ZHCC 041000Z 05003MPS 5000 -RA BR OVC040 15/12 Q1017 NOSIG
ZHCC,2023-11-04 11:00,ZHCC 041100Z 03003MPS 5000 -RA BR OVC040 14/13 Q1017 NOSIG
ZHCC,2023-11-04 12:00,ZHCC 041200Z 03002MPS 350V080 3000 -RA BR OVC030 14/13 Q1017 NOSIG
ZHCC,2023-11-04 13:00,ZHCC 041300Z 05002MPS 2000 -RA BR OVC030 14/13 Q1017 BECMG TL1440 3000
ZHCC,2023-11-04 14:00,ZHCC 041400Z 02003MPS 2000 -RA BR OVC030 14/14 Q1016 NOSIG
ZHCC,2023-11-04 15:00,ZHCC 041500Z 03002MPS 2000 -RA BR OVC030 15/14 Q1016 NOSIG
ZHCC,2023-11-04 16:00,ZHCC 041600Z 34004MPS 2000 RA BR OVC030 14/14 Q1015 NOSIG
ZHCC,2023-11-04 17:00,ZHCC 041700Z 36003MPS 5000 -RA BR OVC030 14/14 Q1015 RERA NOSIG
ZHCC,2023-11-04 18:00,ZHCC 041800Z 02004MPS 360V060 4000 -RA BR OVC030 14/14 Q1014 NOSIG
ZHCC,2023-11-04 19:00,ZHCC 041900Z 02005MPS 360V060 4000 -RA BR OVC030 13/12 Q1014 NOSIG
ZHCC,2023-11-04 20:00,ZHCC 042000Z 03004MPS 4000 RA BR SCT007 OVC030 12/11 Q1014 NOSIG
ZHCC,2023-11-04 21:00,ZHCC 042100Z 02005MPS 4000 RA BR SCT007 OVC030 12/11 Q1013 BECMG TL2140 -RA
ZHCC,2023-11-04 22:00,ZHCC 042200Z 02006MPS 350V050 5000 -RA BR SCT007 OVC030 12/11 Q1013 RERA NOSIG
ZHCC,2023-11-04 23:00,ZHCC 042300Z 01007MPS 5000 -RA BR SCT007 OVC023 12/11 Q1013 RERA NOSIG
ZHCC,2023-11-05 00:00,ZHCC 050000Z 01008MPS 7000 -RA SCT010 OVC023 12/10 Q1014 NOSIG
ZHCC,2023-11-05 01:00,ZHCC 050100Z 36006G11MPS 3000 -RA BR SCT008 OVC023 12/11 Q1015 NOSIG
ZHCC,2023-11-05 02:00,ZHCC 050200Z 33006MPS 5000 -RA BR SCT010 OVC023 12/11 Q1015 NOSIG
ZHCC,2023-11-05 03:00,ZHCC 050300Z 34006MPS 8000 -RA FEW010 OVC030 12/11 Q1015 NOSIG
ZHCC,2023-11-05 04:00,ZHCC 050400Z 32005MPS 9999 OVC030 13/11 Q1015 NOSIG
ZHCC,2023-11-05 05:00,ZHCC 050500Z 31005MPS 9999 OVC040 13/11 Q1015 NOSIG
ZHCC,2023-11-05 06:00,ZHCC 050600Z 30005MPS 9999 -RA OVC040 13/12 Q1014 NOSIG
ZHCC,2023-11-05 07:00,ZHCC 050700Z 30005MPS CAVOK 14/11 Q1014 NOSIG
ZHCC,2023-11-05 08:00,ZHCC 050800Z 30006MPS CAVOK 15/11 Q1015 NOSIG
ZHCC,2023-11-05 09:00,ZHCC 050900Z 30006MPS CAVOK 15/09 Q1016 NOSIG
ZHCC,2023-11-05 10:00,ZHCC 051000Z 29006MPS CAVOK 15/06 Q1017 NOSIG
ZHCC,2023-11-05 11:00,ZHCC 051100Z 28004MPS CAVOK 13/06 Q1018 BECMG TL1240 30010MPS
ZHCC,2023-11-05 12:00,ZHCC 051200Z 29009MPS CAVOK 13/01 Q1019 NOSIG
ZHCC,2023-11-05 13:00,ZHCC 051300Z 29008MPS CAVOK 12/M03 Q1020 NOSIG
ZHCC,2023-11-05 14:00,ZHCC 051400Z 30011G18MPS CAVOK 12/M07 Q1021 NOSIG
ZHCC,2023-11-05 15:00,ZHCC 051500Z 30012G18MPS CAVOK 11/M08 Q1021 NOSIG
ZHCC,2023-11-05 16:00,ZHCC 051600Z 30009MPS CAVOK 11/M08 Q1021 NOSIG
ZHCC,2023-11-05 17:00,ZHCC 051700Z 30007MPS CAVOK 10/M07 Q1022 NOSIG
ZHCC,2023-11-05 18:00,ZHCC 051800Z 30005MPS CAVOK 09/M06 Q1022 NOSIG
ZHCC,2023-11-05 19:00,ZHCC 051900Z 30006G11MPS CAVOK 09/M06 Q1022 NOSIG
ZHCC,2023-11-05 20:00,ZHCC 052000Z 29004MPS CAVOK 08/M05 Q1022 NOSIG
ZHCC,2023-11-05 21:00,ZHCC 052100Z 29003MPS CAVOK 06/M04 Q1022 NOSIG
ZHCC,2023-11-05 22:00,ZHCC 052200Z 26004MPS CAVOK 06/M04 Q1023 NOSIG
ZHCC,2023-11-05 23:00,ZHCC 052300Z 28003MPS CAVOK 05/M03 Q1023 NOSIG
ZHCC,2023-11-06 00:00,ZHCC 060000Z 29001MPS CAVOK 08/M03 Q1024 BECMG TL0140 30008MPS
ZHCC,2023-11-06 01:00,ZHCC 060100Z 28005MPS 250V310 CAVOK 10/M04 Q1024 NOSIG
ZHCC,2023-11-06 02:00,ZHCC 060200Z 28006MPS CAVOK 12/M05 Q1024 NOSIG
ZHCC,2023-11-06 03:00,ZHCC 060300Z 28005MPS 250V310 CAVOK 13/M04 Q1023 NOSIG
ZHCC,2023-11-06 04:00,ZHCC 060400Z 28006MPS CAVOK 13/M07 Q1022 NOSIG
ZHCC,2023-11-06 05:00,ZHCC 060500Z 31005MPS 260V340 CAVOK 15/M04 Q1021 NOSIG
ZHCC,2023-11-06 06:00,ZHCC 060600Z 29005MPS 260V320 CAVOK 15/M04 Q1021 NOSIG
ZHCC,2023-11-06 07:00,ZHCC 060700Z 28003MPS 250V310 CAVOK 15/M04 Q1021 NOSIG
ZHCC,2023-11-06 08:00,ZHCC 060800Z 27004MPS 240V300 CAVOK 16/M05 Q1020 NOSIG
ZHCC,2023-11-06 09:00,ZHCC 060900Z 28003MPS CAVOK 15/M06 Q1020 NOSIG
ZHCC,2023-11-06 10:00,ZHCC 061000Z 23001MPS CAVOK 12/M02 Q1020 NOSIG
ZHCC,2023-11-06 11:00,ZHCC 061100Z 25003MPS CAVOK 10/M01 Q1021 NOSIG
ZHCC,2023-11-06 12:00,ZHCC 061200Z VRB01MPS CAVOK 08/M02 Q1022 NOSIG
ZHCC,2023-11-06 13:00,ZHCC 061300Z 23002MPS CAVOK 06/01 Q1022 NOSIG
ZHCC,2023-11-06 14:00,ZHCC 061400Z VRB01MPS CAVOK 06/01 Q1022 NOSIG
ZHCC,2023-11-06 15:00,ZHCC 061500Z 00000MPS CAVOK 05/02 Q1022 NOSIG
ZHCC,2023-11-06 16:00,ZHCC 061600Z VRB01MPS CAVOK 06/01 Q1022 NOSIG
ZHCC,2023-11-06 17:00,ZHCC 061700Z 00000MPS CAVOK 03/01 Q1021 NOSIG
ZHCC,2023-11-06 18:00,ZHCC 061800Z VRB01MPS CAVOK 04/02 Q1021 NOSIG
ZHCC,2023-11-06 19:00,ZHCC 061900Z VRB01MPS CAVOK 04/02 Q1021 NOSIG
ZHCC,2023-11-06 20:00,ZHCC 062000Z VRB01MPS CAVOK 04/02 Q1021 NOSIG
ZHCC,2023-11-06 21:00,ZHCC 062100Z VRB01MPS CAVOK 05/02 Q1020 NOSIG
ZHCC,2023-11-06 22:00,ZHCC 062200Z VRB01MPS CAVOK 06/02 Q1020 NOSIG
ZHCC,2023-11-06 23:00,ZHCC 062300Z 00000MPS CAVOK 04/03 Q1021 NOSIG
ZHCC,2023-11-07 00:00,ZHCC 070000Z 14002MPS CAVOK 08/03 Q1021 NOSIG
ZHCC,2023-11-07 01:00,ZHCC 070100Z 15002MPS 110V210 CAVOK 10/05 Q1021 NOSIG
ZHCC,2023-11-07 02:00,ZHCC 070200Z 14002MPS 100V200 CAVOK 13/05 Q1021 NOSIG
ZHCC,2023-11-07 03:00,ZHCC 070300Z 14003MPS 100V210 CAVOK 15/05 Q1020 NOSIG
ZHCC,2023-11-07 04:00,ZHCC 070400Z 15003MPS 110V210 CAVOK 16/06 Q1019 NOSIG
ZHCC,2023-11-07 05:00,ZHCC 070500Z 16004MPS 110V210 CAVOK 17/07 Q1017 NOSIG
ZHCC,2023-11-07 06:00,ZHCC 070600Z 16003MPS 110V220 CAVOK 18/08 Q1016 NOSIG
ZHCC,2023-11-07 07:00,ZHCC 070700Z 15003MPS 090V200 CAVOK 18/08 Q1016 NOSIG
ZHCC,2023-11-07 08:00,ZHCC 070800Z 16003MPS 120V190 CAVOK 18/08 Q1016 NOSIG
ZHCC,2023-11-07 09:00,ZHCC 070900Z 17002MPS 090V230 CAVOK 17/08 Q1016 NOSIG
ZHCC,2023-11-07 10:00,ZHCC 071000Z VRB01MPS CAVOK 15/08 Q1016 NOSIG
ZHCC,2023-11-07 11:00,ZHCC 071100Z VRB01MPS CAVOK 15/08 Q1016 NOSIG
ZHCC,2023-11-07 12:00,ZHCC 071200Z 14003MPS 110V170 CAVOK 13/08 Q1015 NOSIG
ZHCC,2023-11-07 13:00,ZHCC 071300Z VRB01MPS CAVOK 14/08 Q1016 NOSIG
ZHCC,2023-11-07 14:00,ZHCC 071400Z 12002MPS CAVOK 13/08 Q1016 NOSIG
ZHCC,2023-11-07 15:00,ZHCC 071500Z 00000MPS CAVOK 12/07 Q1016 NOSIG
ZHCC,2023-11-07 16:00,ZHCC 071600Z 07002MPS 040V100 CAVOK 11/08 Q1016 NOSIG
ZHCC,2023-11-07 17:00,ZHCC 071700Z 10002MPS CAVOK 11/07 Q1016 NOSIG
ZHCC,2023-11-07 18:00,ZHCC 071800Z 12002MPS CAVOK 11/07 Q1015 NOSIG
ZHCC,2023-11-07 19:00,ZHCC 071900Z 12001MPS CAVOK 10/07 Q1015 NOSIG
ZHCC,2023-11-07 20:00,ZHCC 072000Z 29001MPS 7000 NSC 09/07 Q1015 NOSIG
ZHCC,2023-11-07 21:00,ZHCC 072100Z VRB01MPS 7000 NSC 09/07 Q1015 NOSIG
ZHCC,2023-11-07 22:00,ZHCC 072200Z VRB01MPS 7000 NSC 09/07 Q1015 NOSIG
ZHCC,2023-11-07 23:00,ZHCC 072300Z 27001MPS 4000 BR NSC 09/07 Q1016 NOSIG
ZHCC,2023-11-08 00:00,ZHCC 080000Z VRB01MPS 4000 BR NSC 10/09 Q1016 NOSIG
ZHCC,2023-11-08 01:00,ZHCC 080100Z VRB01MPS 4000 BR NSC 13/09 Q1017 NOSIG
ZHCC,2023-11-08 02:00,ZHCC 080200Z VRB01MPS 4000 BR NSC 15/10 Q1017 NOSIG
ZHCC,2023-11-08 03:00,ZHCC 080300Z 34002MPS 290V030 4000 HZ NSC 18/09 Q1016 NOSIG
ZHCC,2023-11-08 04:00,ZHCC 080400Z VRB01MPS 4000 HZ NSC 19/10 Q1016 NOSIG
ZHCC,2023-11-08 05:00,ZHCC 080500Z 13002MPS 060V180 4000 HZ NSC 20/10 Q1015 NOSIG
ZHCC,2023-11-08 06:00,ZHCC 080600Z VRB01MPS 5000 HZ NSC 20/09 Q1014 NOSIG
ZHCC,2023-11-08 07:00,ZHCC 080700Z 11002MPS 080V140 5000 HZ NSC 20/10 Q1014 NOSIG
ZHCC,2023-11-08 08:00,ZHCC 080800Z 12002MPS 5000 HZ NSC 20/11 Q1014 NOSIG
ZHCC,2023-11-08 09:00,ZHCC 080900Z VRB01MPS 5000 HZ NSC 18/11 Q1014 NOSIG
ZHCC,2023-11-08 10:00,ZHCC 081000Z VRB01MPS 5000 HZ NSC 15/11 Q1015 NOSIG
ZHCC,2023-11-08 11:00,ZHCC 081100Z 13001MPS 5000 BR NSC 13/11 Q1016 NOSIG
ZHCC,2023-11-08 12:00,ZHCC 081200Z 00000MPS 5000 BR NSC 13/11 Q1016 NOSIG
ZHCC,2023-11-08 13:00,ZHCC 081300Z 19001MPS 4000 BR NSC 13/11 Q1017 NOSIG
ZHCC,2023-11-08 14:00,ZHCC 081400Z VRB01MPS 4000 BR NSC 13/10 Q1017 NOSIG
ZHCC,2023-11-08 15:00,ZHCC 081500Z 25001MPS 3000 BR NSC 12/10 Q1017 NOSIG
ZHCC,2023-11-08 16:00,ZHCC 081600Z 00000MPS 3000 BR NSC 11/09 Q1017 NOSIG
ZHCC,2023-11-08 17:00,ZHCC 081700Z VRB01MPS 3000 BR NSC 12/10 Q1017 NOSIG
ZHCC,2023-11-08 18:00,ZHCC 081800Z 30001MPS 3000 BR NSC 12/11 Q1017 NOSIG
ZHCC,2023-11-08 19:00,ZHCC 081900Z 27001MPS 3000 BR NSC 11/10 Q1017 NOSIG
ZHCC,2023-11-08 20:00,ZHCC 082000Z 30002MPS 280V350 3000 BR NSC 11/10 Q1017 NOSIG
ZHCC,2023-11-08 21:00,ZHCC 082100Z 33005MPS 3000 BR NSC 12/11 Q1018 NOSIG
ZHCC,2023-11-08 22:00,ZHCC 082200Z 02004MPS 340V050 3000 BR NSC 12/09 Q1019 BECMG TL2340 2000
ZHCC,2023-11-08 23:00,ZHCC 082300Z 01004G13MPS 310V040 2000 BR NSC 11/08 Q1021 BECMG TL0040 3000
ZHCC,2023-11-09 00:00,ZHCC 090000Z 01005MPS 1700 BR NSC 11/08 Q1022 BECMG TL0140 3000
ZHCC,2023-11-09 01:00,ZHCC 090100Z 01006MPS 2000 BR NSC 12/08 Q1023 NOSIG
ZHCC,2023-11-09 02:00,ZHCC 090200Z 02006MPS 2300 HZ NSC 13/06 Q1024 BECMG TL0340 3000
ZHCC,2023-11-09 03:00,ZHCC 090300Z 02007MPS 360V060 2800 HZ NSC 14/04 Q1024 BECMG TL0340 3000
ZHCC,2023-11-09 04:00,ZHCC 090400Z 02006G12MPS 350V060 3500 HZ NSC 14/03 Q1023 NOSIG
ZHCC,2023-11-09 05:00,ZHCC 090500Z 03007MPS 350V050 3500 HZ NSC 14/03 Q1022 NOSIG
ZHCC,2023-11-09 06:00,ZHCC 090600Z 02007MPS 3500 HZ NSC 12/05 Q1022 NOSIG
ZHCC,2023-11-09 07:00,ZHCC 090700Z 03007MPS 5000 HZ NSC 12/03 Q1023 NOSIG
ZHCC,2023-11-09 08:00,ZHCC 090800Z 04007MPS CAVOK 12/00 Q1024 NOSIG
ZHCC,2023-11-09 09:00,ZHCC 090900Z 04005MPS CAVOK 11/00 Q1025 NOSIG
ZHCC,2023-11-09 10:00,ZHCC 091000Z 03004MPS 360V070 CAVOK 11/00 Q1026 NOSIG
ZHCC,2023-11-09 11:00,ZHCC 091100Z 01004MPS CAVOK 10/M01 Q1027 NOSIG
ZHCC,2023-11-09 12:00,ZHCC 091200Z 03006MPS 360V060 CAVOK 09/M02 Q1028 NOSIG
ZHCC,2023-11-09 13:00,ZHCC 091300Z 02006MPS CAVOK 08/M04 Q1029 NOSIG
ZHCC,2023-11-09 14:00,ZHCC 091400Z 02005MPS CAVOK 08/M04 Q1029 NOSIG
ZHCC,2023-11-09 15:00,ZHCC 091500Z 02006MPS 350V050 CAVOK 07/M08 Q1029 NOSIG
ZHCC,2023-11-09 16:00,ZHCC 091600Z 03005MPS 360V060 CAVOK 07/M08 Q1030 NOSIG
ZHCC,2023-11-09 17:00,ZHCC 091700Z 03005MPS CAVOK 06/M07 Q1030 NOSIG
ZHCC,2023-11-09 18:00,ZHCC 091800Z 02004MPS 350V050 CAVOK 06/M08 Q1030 NOSIG
ZHCC,2023-11-09 19:00,ZHCC 091900Z 03005MPS CAVOK 06/M09 Q1030 NOSIG
ZHCC,2023-11-09 20:00,ZHCC 092000Z 02005MPS 350V050 CAVOK 05/M08 Q1031 NOSIG
ZHCC,2023-11-09 21:00,ZHCC 092100Z 03006MPS CAVOK 05/M09 Q1031 NOSIG
ZHCC,2023-11-09 22:00,ZHCC 092200Z 03006MPS 010V070 CAVOK 05/M09 Q1032 NOSIG
ZHCC,2023-11-09 23:00,ZHCC 092300Z 03005MPS CAVOK 04/M09 Q1033 NOSIG
ZHCC,2023-11-10 00:00,ZHCC 100000Z 04006MPS CAVOK 04/M09 Q1033 NOSIG
ZHCC,2023-11-10 01:00,ZHCC 100100Z 03005MPS CAVOK 05/M09 Q1034 NOSIG
ZHCC,2023-11-10 02:00,ZHCC 100200Z 02005MPS CAVOK 05/M09 Q1035 NOSIG
ZHCC,2023-11-10 03:00,ZHCC 100300Z 01005MPS CAVOK 05/M09 Q1034 NOSIG
ZHCC,2023-11-10 04:00,ZHCC 100400Z 01004MPS CAVOK 05/M09 Q1034 NOSIG
ZHCC,2023-11-10 05:00,ZHCC 100500Z 02004MPS 340V050 CAVOK 05/M09 Q1033 NOSIG
ZHCC,2023-11-10 06:00,ZHCC 100600Z 04005MPS CAVOK 05/M09 Q1032 NOSIG
ZHCC,2023-11-10 07:00,ZHCC 100700Z 02004MPS 350V050 CAVOK 05/M09 Q1032 NOSIG
ZHCC,2023-11-10 08:00,ZHCC 100800Z 02004MPS 340V060 CAVOK 05/M08 Q1031 NOSIG
ZHCC,2023-11-10 09:00,ZHCC 100900Z 03005MPS CAVOK 05/M07 Q1031 NOSIG
ZHCC,2023-11-10 10:00,ZHCC 101000Z 03005MPS 360V060 CAVOK 05/M07 Q1032 NOSIG
ZHCC,2023-11-10 11:00,ZHCC 101100Z 03005MPS 350V060 CAVOK 05/M06 Q1033 NOSIG
ZHCC,2023-11-10 12:00,ZHCC 101200Z 02005MPS CAVOK 05/M06 Q1034 NOSIG
ZHCC,2023-11-10 13:00,ZHCC 101300Z 03004MPS 330V080 9999 OVC046 04/M07 Q1034 NOSIG
ZHCC,2023-11-10 14:00,ZHCC 101400Z 02006MPS 9999 -SN OVC046 04/M07 Q1035 NOSIG
ZHCC,2023-11-10 15:00,ZHCC 101500Z 01007MPS 9999 -RASN OVC046 02/M03 Q1035 NOSIG
ZHCC,2023-11-10 16:00,ZHCC 101600Z 02005MPS 9999 OVC046 01/M01 Q1035 NOSIG
ZHCC,2023-11-10 17:00,ZHCC 101700Z 02003MPS 9999 -RASN OVC046 01/M01 Q1035 NOSIG
ZHCC,2023-11-10 18:00,ZHCC 101800Z 02004MPS 350V060 9999 OVC046 02/M01 Q1034 NOSIG
ZHCC,2023-11-10 19:00,ZHCC 101900Z 01003MPS 340V040 9999 OVC046 02/M01 Q1034 NOSIG
ZHCC,2023-11-10 20:00,ZHCC 102000Z 01003MPS 340V050 9999 OVC046 02/M01 Q1034 NOSIG
ZHCC,2023-11-10 21:00,ZHCC 102100Z 02003MPS 9999 OVC046 02/M00 Q1034 NOSIG
ZHCC,2023-11-10 22:00,ZHCC 102200Z 35003MPS 7000 OVC046 02/00 Q1034 NOSIG
ZHCC,2023-11-10 23:00,ZHCC 102300Z 02004MPS 5000 BR OVC046 02/00 Q1034 NOSIG
ZHCC,2023-11-11 00:00,ZHCC 110000Z 02004MPS 5000 BR OVC046 02/00 Q1034 NOSIG
ZHCC,2023-11-11 01:00,ZHCC 110100Z 36004MPS 320V020 5000 BR OVC020 02/M00 Q1036 NOSIG
ZHCC,2023-11-11 02:00,ZHCC 110200Z 36004MPS 340V040 5000 BR OVC020 02/M00 Q1036 NOSIG
ZHCC,2023-11-11 03:00,ZHCC 110300Z 36005MPS 5000 BR OVC020 02/M01 Q1036 NOSIG
ZHCC,2023-11-11 04:00,ZHCC 110400Z 35003MPS 320V030 8000 OVC026 03/M01 Q1035 NOSIG
ZHCC,2023-11-11 05:00,ZHCC 110500Z 36003MPS 330V030 9999 OVC040 03/M01 Q1035 NOSIG
ZHCC,2023-11-11 06:00,ZHCC 110600Z 01004MPS 340V040 9999 OVC026 03/M01 Q1034 NOSIG
ZHCC,2023-11-11 07:00,ZHCC 110700Z 36004MPS 9999 OVC026 03/M01 Q1034 NOSIG
ZHCC,2023-11-11 08:00,ZHCC 110800Z 35003MPS 7000 BKN046 03/M01 Q1034 NOSIG
ZHCC,2023-11-11 09:00,ZHCC 110900Z 35003MPS 7000 BKN046 03/M01 Q1034 NOSIG
ZHCC,2023-11-11 10:00,ZHCC 111000Z 01001MPS CAVOK 03/M01 Q1035 NOSIG
ZHCC,2023-11-11 11:00,ZHCC 111100Z VRB01MPS CAVOK 02/M00 Q1035 NOSIG
ZHCC,2023-11-11 12:00,ZHCC 111200Z 29001MPS 8000 NSC 01/M01 Q1036 NOSIG
ZHCC,2023-11-11 13:00,ZHCC 111300Z VRB01MPS 6000 NSC M00/M02 Q1037 NOSIG
ZHCC,2023-11-11 14:00,ZHCC 111400Z 27001MPS 6000 NSC M00/M01 Q1037 NOSIG
ZHCC,2023-11-11 15:00,ZHCC 111500Z 24001MPS 6000 NSC M00/M01 Q1037 NOSIG
ZHCC,2023-11-11 16:00,ZHCC 111600Z VRB01MPS 6000 NSC M02/M02 Q1036 NOSIG
ZHCC,2023-11-11 17:00,ZHCC 111700Z 28001MPS 6000 NSC M02/M02 Q1036 NOSIG
ZHCC,2023-11-11 18:00,ZHCC 111800Z 00000MPS 5000 BR NSC M02/M02 Q1036 NOSIG
ZHCC,2023-11-11 19:00,ZHCC 111900Z 00000MPS 5000 BR NSC M02/M02 Q1036 NOSIG
ZHCC,2023-11-11 20:00,ZHCC 112000Z 00000MPS 4000 BR NSC M02/M02 Q1036 NOSIG
ZHCC,2023-11-11 21:00,ZHCC 112100Z 32001MPS 4000 BR NSC M02/M02 Q1036 BECMG TL2240 2000
ZHCC,2023-11-11 22:00,ZHCC 112200Z 00000MPS 4000 BR NSC M02/M02 Q1036 BECMG TL2240 2000
ZHCC,2023-11-11 23:00,ZHCC 112300Z 00000MPS 2500 BR NSC M02/M02 Q1036 BECMG TL0040 3000
ZHCC,2023-11-12 00:00,ZHCC 120000Z 00000MPS 2800 BR NSC M01/M02 Q1037 BECMG TL0040 3000
ZHCC,2023-11-12 01:00,ZHCC 120100Z VRB01MPS 3000 BR NSC 04/02 Q1038 NOSIG
ZHCC,2023-11-12 02:00,ZHCC 120200Z VRB01MPS 4000 BR NSC 06/01 Q1038 NOSIG
ZHCC,2023-11-12 03:00,ZHCC 120300Z 31003MPS 6000 NSC 09/M01 Q1037 NOSIG
ZHCC,2023-11-12 04:00,ZHCC 120400Z 35004MPS 310V020 8000 NSC 10/M03 Q1036 NOSIG
ZHCC,2023-11-12 05:00,ZHCC 120500Z 33003MPS 290V360 CAVOK 11/M06 Q1035 NOSIG
ZHCC,2023-11-12 06:00,ZHCC 120600Z 32004MPS 280V360 CAVOK 12/M06 Q1035 NOSIG
ZHCC,2023-11-12 07:00,ZHCC 120700Z 32004MPS 290V360 CAVOK 11/M07 Q1035 NOSIG
ZHCC,2023-11-12 08:00,ZHCC 120800Z 32002MPS 290V360 CAVOK 11/M07 Q1035 NOSIG
ZHCC,2023-11-12 09:00,ZHCC 120900Z 00000MPS CAVOK 08/M03 Q1035 NOSIG
ZHCC,2023-11-12 10:00,ZHCC 121000Z 12003MPS 7000 NSC 07/01 Q1036 NOSIG
ZHCC,2023-11-12 11:00,ZHCC 121100Z 09004MPS 7000 NSC 06/M01 Q1037 NOSIG
ZHCC,2023-11-12 12:00,ZHCC 121200Z 08004MPS 6000 NSC 06/M01 Q1038 NOSIG
ZHCC,2023-11-12 13:00,ZHCC 121300Z 07002MPS 5000 HZ NSC 06/M01 Q1039 NOSIG
ZHCC,2023-11-12 14:00,ZHCC 121400Z 07002MPS 5000 HZ NSC 04/M01 Q1039 NOSIG
ZHCC,2023-11-12 15:00,ZHCC 121500Z 06002MPS 5000 HZ NSC 05/M01 Q1039 NOSIG
ZHCC,2023-11-12 16:00,ZHCC 121600Z VRB01MPS 5000 HZ NSC 04/M00 Q1039 NOSIG
ZHCC,2023-11-12 17:00,ZHCC 121700Z 25001MPS 5000 HZ NSC 02/01 Q1039 NOSIG
ZHCC,2023-11-12 18:00,ZHCC 121800Z 00000MPS 5000 BR NSC 02/00 Q1038 NOSIG
ZHCC,2023-11-12 19:00,ZHCC 121900Z VRB01MPS 5000 BR NSC 02/00 Q1038 NOSIG
ZHCC,2023-11-12 20:00,ZHCC 122000Z 00000MPS 5000 BR NSC 02/01 Q1038 NOSIG
ZHCC,2023-11-12 21:00,ZHCC 122100Z 09001MPS 5000 BR NSC 03/M00 Q1038 NOSIG
ZHCC,2023-11-12 22:00,ZHCC 122200Z VRB01MPS 5000 BR NSC 03/M00 Q1037 NOSIG
ZHCC,2023-11-12 23:00,ZHCC 122300Z VRB01MPS 4000 BR NSC 03/M01 Q1037 NOSIG
ZHCC,2023-11-13 00:00,ZHCC 130000Z VRB01MPS 4000 HZ NSC 03/M02 Q1037 NOSIG
ZHCC,2023-11-13 01:00,ZHCC 130100Z 16002MPS 100V220 6000 NSC 06/M02 Q1038 NOSIG
ZHCC,2023-11-13 02:00,ZHCC 130200Z 18003MPS 140V240 CAVOK 07/M08 Q1037 NOSIG
ZHCC,2023-11-13 03:00,ZHCC 130300Z 17003MPS 110V200 CAVOK 09/M07 Q1036 NOSIG
ZHCC,2023-11-13 04:00,ZHCC 130400Z 21004MPS 140V250 CAVOK 09/M09 Q1035 NOSIG
ZHCC,2023-11-13 05:00,ZHCC 130500Z 19003MPS 160V240 CAVOK 09/M08 Q1034 NOSIG
ZHCC,2023-11-13 06:00,ZHCC 130600Z 17004MPS 120V230 CAVOK 10/M07 Q1032 NOSIG
ZHCC,2023-11-13 07:00,ZHCC 130700Z 19003MPS 140V250 CAVOK 10/M07 Q1032 NOSIG
ZHCC,2023-11-13 08:00,ZHCC 130800Z 19003MPS 140V250 CAVOK 09/M07 Q1031 NOSIG
ZHCC,2023-11-13 09:00,ZHCC 130900Z 19003MPS 150V220 CAVOK 08/M07 Q1031 NOSIG
ZHCC,2023-11-13 10:00,ZHCC 131000Z 19002MPS 140V240 CAVOK 07/M07 Q1031 NOSIG
ZHCC,2023-11-13 11:00,ZHCC 131100Z VRB01MPS CAVOK 05/M07 Q1031 NOSIG
ZHCC,2023-11-13 12:00,ZHCC 131200Z VRB01MPS CAVOK 04/M05 Q1031 NOSIG
ZHCC,2023-11-13 13:00,ZHCC 131300Z 20002MPS 160V230 CAVOK 05/M05 Q1031 NOSIG
ZHCC,2023-11-13 14:00,ZHCC 131400Z 20002MPS 180V240 CAVOK 04/M05 Q1031 NOSIG
ZHCC,2023-11-13 15:00,ZHCC 131500Z 20001MPS CAVOK 03/M04 Q1030 NOSIG
ZHCC,2023-11-13 16:00,ZHCC 131600Z 20002MPS 170V240 CAVOK 04/M05 Q1030 NOSIG
ZHCC,2023-11-13 17:00,ZHCC 131700Z 21002MPS 180V240 CAVOK 04/M04 Q1029 NOSIG
ZHCC,2023-11-13 18:00,ZHCC 131800Z 19002MPS 160V220 CAVOK 03/M04 Q1029 NOSIG
ZHCC,2023-11-13 19:00,ZHCC 131900Z 19001MPS CAVOK 03/M04 Q1028 NOSIG
ZHCC,2023-11-13 20:00,ZHCC 132000Z 00000MPS CAVOK 01/M03 Q1028 NOSIG
ZHCC,2023-11-13 21:00,ZHCC 132100Z 19001MPS CAVOK 00/M03 Q1027 NOSIG
ZHCC,2023-11-13 22:00,ZHCC 132200Z 00000MPS CAVOK M00/M03 Q1027 NOSIG
ZHCC,2023-11-13 23:00,ZHCC 132300Z VRB01MPS 6000 NSC 01/M03 Q1027 NOSIG
ZHCC,2023-11-14 00:00,ZHCC 140000Z 00000MPS 6000 NSC 02/M01 Q1028 NOSIG
ZHCC,2023-11-14 01:00,ZHCC 140100Z 19002MPS 140V220 7000 NSC 05/M02 Q1028 NOSIG
ZHCC,2023-11-14 02:00,ZHCC 140200Z VRB01MPS 7000 NSC 08/M01 Q1028 NOSIG
ZHCC,2023-11-14 03:00,ZHCC 140300Z VRB02MPS 7000 NSC 11/M00 Q1028 NOSIG
ZHCC,2023-11-14 04:00,ZHCC 140400Z VRB02MPS 7000 NSC 13/01 Q1027 NOSIG
ZHCC,2023-11-14 05:00,ZHCC 140500Z 19002MPS 090V250 7000 NSC 13/01 Q1026 NOSIG
ZHCC,2023-11-14 06:00,ZHCC 140600Z 15002MPS 090V210 7000 NSC 14/01 Q1025 NOSIG
ZHCC,2023-11-14 07:00,ZHCC 140700Z VRB02MPS 7000 NSC 14/01 Q1025 NOSIG
ZHCC,2023-11-14 08:00,ZHCC 140800Z 13002MPS 100V200 7000 NSC 14/01 Q1025 NOSIG
ZHCC,2023-11-14 09:00,ZHCC 140900Z 13002MPS 7000 NSC 12/02 Q1025 NOSIG
ZHCC,2023-11-14 10:00,ZHCC 141000Z 13001MPS 7000 NSC 09/02 Q1025 NOSIG
ZHCC,2023-11-14 11:00,ZHCC 141100Z 13001MPS 7000 NSC 06/02 Q1026 NOSIG
ZHCC,2023-11-14 12:00,ZHCC 141200Z VRB01MPS 7000 NSC 05/02 Q1026 NOSIG
ZHCC,2023-11-14 13:00,ZHCC 141300Z VRB01MPS 7000 NSC 05/02 Q1027 NOSIG
ZHCC,2023-11-14 14:00,ZHCC 141400Z VRB01MPS 7000 NSC 06/01 Q1027 NOSIG
ZHCC,2023-11-14 15:00,ZHCC 141500Z VRB01MPS 7000 NSC 06/02 Q1027 NOSIG
ZHCC,2023-11-14 16:00,ZHCC 141600Z VRB01MPS 5000 BR NSC 04/02 Q1027 NOSIG
ZHCC,2023-11-14 17:00,ZHCC 141700Z VRB01MPS 5000 BR NSC 03/01 Q1027 NOSIG
ZHCC,2023-11-14 18:00,ZHCC 141800Z 10001MPS 4000 BR NSC 02/01 Q1027 NOSIG
ZHCC,2023-11-14 19:00,ZHCC 141900Z VRB01MPS 4000 BR NSC 03/02 Q1026 NOSIG
ZHCC,2023-11-14 20:00,ZHCC 142000Z 27001MPS 4000 BR NSC 02/01 Q1026 NOSIG
ZHCC,2023-11-14 21:00,ZHCC 142100Z 24001MPS 3000 BR NSC 02/01 Q1027 BECMG TL2240 2000
ZHCC,2023-11-14 22:00,ZHCC 142200Z 00000MPS 3000 BR NSC 03/02 Q1027 BECMG TL2240 2000
ZHCC,2023-11-14 23:00,ZHCC 142300Z VRB01MPS 2000 BR NSC 03/02 Q1027 BECMG TL0040 3000
ZHCC,2023-11-15 00:00,ZHCC 150000Z VRB01MPS 2000 BR NSC 05/03 Q1028 BECMG TL0140 3000
ZHCC,2023-11-15 01:00,ZHCC 150100Z VRB01MPS 2000 BR NSC 07/05 Q1029 NOSIG
ZHCC,2023-11-15 02:00,ZHCC 150200Z VRB01MPS 2800 HZ NSC 09/03 Q1028 BECMG TL0320 3000
ZHCC,2023-11-15 03:00,ZHCC 150300Z VRB01MPS 3500 HZ NSC 11/03 Q1028 NOSIG
ZHCC,2023-11-15 04:00,ZHCC 150400Z VRB01MPS 4000 HZ NSC 13/04 Q1027 NOSIG
ZHCC,2023-11-15 05:00,ZHCC 150500Z VRB01MPS 4500 HZ NSC 13/04 Q1026 NOSIG
ZHCC,2023-11-15 06:00,ZHCC 150600Z VRB01MPS 4500 HZ NSC 13/05 Q1025 NOSIG
ZHCC,2023-11-15 07:00,ZHCC 150700Z VRB01MPS 4500 HZ NSC 13/04 Q1026 NOSIG
ZHCC,2023-11-15 08:00,ZHCC 150800Z 19002MPS 4000 HZ NSC 13/05 Q1026 NOSIG
ZHCC,2023-11-15 09:00,ZHCC 150900Z 19002MPS 3500 HZ NSC 12/05 Q1027 BECMG TL1040 30005MPS
ZHCC,2023-11-15 10:00,ZHCC 151000Z 19002MPS 160V220 4000 HZ NSC 11/06 Q1027 BECMG TL1140 30007MPS
ZHCC,2023-11-15 11:00,ZHCC 151100Z 24002MPS 210V280 4000 HZ NSC 11/06 Q1027 BECMG TL1240 31007MPS
ZHCC,2023-11-15 12:00,ZHCC 151200Z 29006MPS CAVOK 13/M01 Q1028 NOSIG
ZHCC,2023-11-15 13:00,ZHCC 151300Z 29006MPS CAVOK 13/M00 Q1028 NOSIG
ZHCC,2023-11-15 14:00,ZHCC 151400Z 30008G13MPS CAVOK 12/M01 Q1029 NOSIG
ZHCC,2023-11-15 15:00,ZHCC 151500Z 30010G15MPS CAVOK 12/M03 Q1029 NOSIG
ZHCC,2023-11-15 16:00,ZHCC 151600Z 29009G15MPS CAVOK 12/M04 Q1030 NOSIG
ZHCC,2023-11-15 17:00,ZHCC 151700Z 30011G17MPS CAVOK 12/M05 Q1030 NOSIG
ZHCC,2023-11-15 18:00,ZHCC 151800Z 29007G13MPS CAVOK 10/M04 Q1030 NOSIG
ZHCC,2023-11-15 19:00,ZHCC 151900Z 28006MPS CAVOK 10/M03 Q1030 NOSIG
ZHCC,2023-11-15 20:00,ZHCC 152000Z 29007MPS CAVOK 10/M05 Q1030 NOSIG
ZHCC,2023-11-15 21:00,ZHCC 152100Z 29007MPS 270V330 CAVOK 10/M07 Q1031 NOSIG
ZHCC,2023-11-15 22:00,ZHCC 152200Z 30009G14MPS CAVOK 09/M07 Q1032 NOSIG
ZHCC,2023-11-15 23:00,ZHCC 152300Z 29009MPS CAVOK 09/M08 Q1032 NOSIG
ZHCC,2023-11-16 00:00,ZHCC 160000Z 29009MPS CAVOK 09/M08 Q1033 NOSIG
ZHCC,2023-11-16 01:00,ZHCC 160100Z 30009MPS CAVOK 10/M07 Q1033 NOSIG
ZHCC,2023-11-16 02:00,ZHCC 160200Z 31012MPS CAVOK 11/M08 Q1033 NOSIG
ZHCC,2023-11-16 03:00,ZHCC 160300Z 31011MPS CAVOK 12/M08 Q1033 NOSIG
ZHCC,2023-11-16 04:00,ZHCC 160400Z 31009G14MPS CAVOK 13/M08 Q1032 NOSIG
ZHCC,2023-11-16 05:00,ZHCC 160500Z 29007MPS 260V330 CAVOK 13/M08 Q1031 NOSIG
ZHCC,2023-11-16 06:00,ZHCC 160600Z 28006MPS 240V310 CAVOK 14/M07 Q1030 NOSIG
ZHCC,2023-11-16 07:00,ZHCC 160700Z 28008G13MPS CAVOK 14/M08 Q1029 NOSIG
ZHCC,2023-11-16 08:00,ZHCC 160800Z 30006MPS CAVOK 14/M08 Q1029 NOSIG
ZHCC,2023-11-16 09:00,ZHCC 160900Z 27005MPS CAVOK 12/M08 Q1028 NOSIG
ZHCC,2023-11-16 10:00,ZHCC 161000Z 26003MPS CAVOK 10/M06 Q1028 NOSIG
ZHCC,2023-11-16 11:00,ZHCC 161100Z 26002MPS 230V290 CAVOK 10/M07 Q1028 NOSIG
ZHCC,2023-11-16 12:00,ZHCC 161200Z 25002MPS CAVOK 09/M06 Q1028 NOSIG
ZHCC,2023-11-16 13:00,ZHCC 161300Z 26002MPS 230V300 CAVOK 08/M07 Q1028 NOSIG
ZHCC,2023-11-16 14:00,ZHCC 161400Z VRB01MPS CAVOK 06/M06 Q1028 NOSIG
ZHCC,2023-11-16 15:00,ZHCC 161500Z 26004MPS CAVOK 06/M05 Q1027 NOSIG
ZHCC,2023-11-16 16:00,ZHCC 161600Z VRB02MPS CAVOK 07/M06 Q1027 NOSIG
ZHCC,2023-11-16 17:00,ZHCC 161700Z VRB01MPS CAVOK 06/M06 Q1026 NOSIG
ZHCC,2023-11-16 18:00,ZHCC 161800Z 16002MPS CAVOK 06/M05 Q1026 NOSIG
ZHCC,2023-11-16 19:00,ZHCC 161900Z 08001MPS CAVOK 04/M05 Q1026 NOSIG
ZHCC,2023-11-16 20:00,ZHCC 162000Z 26004MPS CAVOK 07/M06 Q1025 NOSIG
ZHCC,2023-11-16 21:00,ZHCC 162100Z 28004MPS CAVOK 09/M08 Q1025 NOSIG
ZHCC,2023-11-16 22:00,ZHCC 162200Z 30005MPS CAVOK 09/M08 Q1026 NOSIG
ZHCC,2023-11-16 23:00,ZHCC 162300Z 30004MPS CAVOK 07/M08 Q1027 NOSIG
ZHCC,2023-11-17 00:00,ZHCC 170000Z 30005MPS CAVOK 10/M07 Q1028 NOSIG
ZHCC,2023-11-17 01:00,ZHCC 170100Z 31006MPS CAVOK 13/M08 Q1028 NOSIG
ZHCC,2023-11-17 02:00,ZHCC 170200Z 32007MPS CAVOK 14/M09 Q1029 NOSIG
ZHCC,2023-11-17 03:00,ZHCC 170300Z 32006MPS CAVOK 15/M10 Q1028 NOSIG
ZHCC,2023-11-17 04:00,ZHCC 170400Z 31005MPS 270V340 CAVOK 16/M10 Q1028 NOSIG
ZHCC,2023-11-17 05:00,ZHCC 170500Z 32005MPS CAVOK 17/M10 Q1027 NOSIG
ZHCC,2023-11-17 06:00,ZHCC 170600Z 29006MPS CAVOK 16/M09 Q1026 NOSIG
ZHCC,2023-11-17 07:00,ZHCC 170700Z 31004MPS 260V340 CAVOK 17/M08 Q1026 NOSIG
ZHCC,2023-11-17 08:00,ZHCC 170800Z 32005MPS 280V340 CAVOK 17/M08 Q1025 NOSIG
ZHCC,2023-11-17 09:00,ZHCC 170900Z 30002MPS CAVOK 14/M06 Q1025 NOSIG
ZHCC,2023-11-17 10:00,ZHCC 171000Z VRB01MPS CAVOK 09/M03 Q1025 NOSIG
ZHCC,2023-11-17 11:00,ZHCC 171100Z 16002MPS CAVOK 11/M04 Q1026 NOSIG
ZHCC,2023-11-17 12:00,ZHCC 171200Z 00000MPS CAVOK 08/M03 Q1026 NOSIG
ZHCC,2023-11-17 13:00,ZHCC 171300Z VRB01MPS CAVOK 06/M03 Q1027 NOSIG
ZHCC,2023-11-17 14:00,ZHCC 171400Z VRB01MPS CAVOK 07/M04 Q1027 NOSIG
ZHCC,2023-11-17 15:00,ZHCC 171500Z VRB01MPS CAVOK 05/M03 Q1027 NOSIG
ZHCC,2023-11-17 16:00,ZHCC 171600Z VRB01MPS CAVOK 03/M02 Q1027 NOSIG
ZHCC,2023-11-17 17:00,ZHCC 171700Z VRB01MPS CAVOK 04/M03 Q1026 NOSIG
ZHCC,2023-11-17 18:00,ZHCC 171800Z VRB01MPS CAVOK 04/M03 Q1027 NOSIG
ZHCC,2023-11-17 19:00,ZHCC 171900Z VRB01MPS CAVOK 03/M02 Q1027 NOSIG
ZHCC,2023-11-17 20:00,ZHCC 172000Z VRB01MPS CAVOK 02/M02 Q1027 NOSIG
ZHCC,2023-11-17 21:00,ZHCC 172100Z VRB01MPS CAVOK 01/M03 Q1026 NOSIG
ZHCC,2023-11-17 22:00,ZHCC 172200Z 30002MPS CAVOK 00/M03 Q1027 NOSIG
ZHCC,2023-11-17 23:00,ZHCC 172300Z VRB01MPS CAVOK 01/M03 Q1027 NOSIG
ZHCC,2023-11-18 00:00,ZHCC 180000Z 36001MPS CAVOK 03/M00 Q1027 NOSIG
ZHCC,2023-11-18 01:00,ZHCC 180100Z VRB01MPS CAVOK 09/M01 Q1027 NOSIG
ZHCC,2023-11-18 02:00,ZHCC 180200Z 29002MPS CAVOK 12/M03 Q1027 NOSIG
ZHCC,2023-11-18 03:00,ZHCC 180300Z 15002MPS 090V250 CAVOK 15/M03 Q1026 NOSIG
ZHCC,2023-11-18 04:00,ZHCC 180400Z 16002MPS 100V200 CAVOK 16/M02 Q1025 NOSIG
ZHCC,2023-11-18 05:00,ZHCC 180500Z 19003MPS 140V230 CAVOK 17/M01 Q1023 NOSIG
ZHCC,2023-11-18 06:00,ZHCC 180600Z 19003MPS 140V240 CAVOK 18/M01 Q1022 NOSIG
ZHCC,2023-11-18 07:00,ZHCC 180700Z 19005MPS CAVOK 18/M01 Q1021 NOSIG
ZHCC,2023-11-18 08:00,ZHCC 180800Z 21004MPS 170V240 CAVOK 18/00 Q1021 NOSIG
ZHCC,2023-11-18 09:00,ZHCC 180900Z 20003MPS 160V230 CAVOK 17/01 Q1020 NOSIG
ZHCC,2023-11-18 10:00,ZHCC 181000Z 20003MPS 170V240 CAVOK 16/01 Q1020 NOSIG
ZHCC,2023-11-18 11:00,ZHCC 181100Z 21003MPS 170V240 CAVOK 15/02 Q1020 NOSIG
ZHCC,2023-11-18 12:00,ZHCC 181200Z 20003MPS 170V240 CAVOK 14/03 Q1020 NOSIG
ZHCC,2023-11-18 13:00,ZHCC 181300Z 22003MPS CAVOK 13/03 Q1020 NOSIG
ZHCC,2023-11-18 14:00,ZHCC 181400Z 23003MPS CAVOK 12/03 Q1019 NOSIG
ZHCC,2023-11-18 15:00,ZHCC 181500Z 24003MPS CAVOK 12/02 Q1019 NOSIG
ZHCC,2023-11-18 16:00,ZHCC 181600Z 22001MPS CAVOK 10/02 Q1019 NOSIG
ZHCC,2023-11-18 17:00,ZHCC 181700Z 00000MPS CAVOK 05/02 Q1019 NOSIG
ZHCC,2023-11-18 18:00,ZHCC 181800Z VRB01MPS CAVOK 06/01 Q1018 NOSIG
ZHCC,2023-11-18 19:00,ZHCC 181900Z VRB01MPS CAVOK 05/00 Q1018 NOSIG
ZHCC,2023-11-18 20:00,ZHCC 182000Z 12002MPS 080V170 CAVOK 06/01 Q1018 NOSIG
ZHCC,2023-11-18 21:00,ZHCC 182100Z VRB01MPS CAVOK 05/00 Q1018 NOSIG
ZHCC,2023-11-18 22:00,ZHCC 182200Z 26002MPS CAVOK 02/M00 Q1018 NOSIG
ZHCC,2023-11-18 23:00,ZHCC 182300Z 23002MPS CAVOK 05/M02 Q1018 NOSIG
ZHCC,2023-11-19 00:00,ZHCC 190000Z VRB01MPS CAVOK 09/01 Q1019 NOSIG
ZHCC,2023-11-19 01:00,ZHCC 190100Z VRB01MPS CAVOK 12/02 Q1020 NOSIG
ZHCC,2023-11-19 02:00,ZHCC 190200Z 28002MPS 250V330 CAVOK 18/M03 Q1020 NOSIG
ZHCC,2023-11-19 03:00,ZHCC 190300Z 31006MPS CAVOK 20/M06 Q1020 NOSIG
ZHCC,2023-11-19 04:00,ZHCC 190400Z 35004MPS 310V020 CAVOK 21/M06 Q1020 NOSIG
ZHCC,2023-11-19 05:00,ZHCC 190500Z 02004MPS CAVOK 21/M08 Q1019 NOSIG
ZHCC,2023-11-19 06:00,ZHCC 190600Z 01003MPS 340V060 CAVOK 21/M05 Q1019 NOSIG
ZHCC,2023-11-19 07:00,ZHCC 190700Z 04003MPS 360V080 CAVOK 21/M06 Q1019 NOSIG
ZHCC,2023-11-19 08:00,ZHCC 190800Z 05004MPS CAVOK 19/M07 Q1020 NOSIG
ZHCC,2023-11-19 09:00,ZHCC 190900Z 05003MPS CAVOK 18/M05 Q1020 NOSIG
ZHCC,2023-11-19 10:00,ZHCC 191000Z 04003MPS CAVOK 16/M04 Q1021 NOSIG
ZHCC,2023-11-19 11:00,ZHCC 191100Z VRB01MPS CAVOK 15/M03 Q1021 NOSIG
ZHCC,2023-11-19 12:00,ZHCC 191200Z 00000MPS CAVOK 11/M01 Q1022 NOSIG
ZHCC,2023-11-19 13:00,ZHCC 191300Z 31001MPS CAVOK 08/00 Q1022 NOSIG
ZHCC,2023-11-19 14:00,ZHCC 191400Z 27001MPS CAVOK 06/00 Q1023 NOSIG
ZHCC,2023-11-19 15:00,ZHCC 191500Z 27001MPS CAVOK 07/M00 Q1023 NOSIG
ZHCC,2023-11-19 16:00,ZHCC 191600Z 27001MPS CAVOK 05/00 Q1023 NOSIG
ZHCC,2023-11-19 17:00,ZHCC 191700Z 28001MPS CAVOK 03/M01 Q1023 NOSIG
ZHCC,2023-11-19 18:00,ZHCC 191800Z 28001MPS CAVOK 03/M01 Q1023 NOSIG
ZHCC,2023-11-19 19:00,ZHCC 191900Z 22001MPS CAVOK 02/M01 Q1023 NOSIG
ZHCC,2023-11-19 20:00,ZHCC 192000Z VRB01MPS 7000 NSC 02/M01 Q1022 NOSIG
ZHCC,2023-11-19 21:00,ZHCC 192100Z 00000MPS 7000 NSC 04/M00 Q1022 NOSIG
ZHCC,2023-11-19 22:00,ZHCC 192200Z 29001MPS 6000 NSC 00/M02 Q1023 NOSIG
ZHCC,2023-11-19 23:00,ZHCC 192300Z 29001MPS 5000 BR NSC 02/M01 Q1023 NOSIG
ZHCC,2023-11-20 00:00,ZHCC 200000Z VRB01MPS 4000 BR NSC 03/00 Q1023 NOSIG
ZHCC,2023-11-20 01:00,ZHCC 200100Z 00000MPS 4000 BR NSC 10/03 Q1024 NOSIG
ZHCC,2023-11-20 02:00,ZHCC 200200Z 13002MPS 110V180 4000 HZ NSC 12/03 Q1023 NOSIG
ZHCC,2023-11-20 03:00,ZHCC 200300Z 18002MPS 100V230 4000 HZ NSC 14/03 Q1023 NOSIG
ZHCC,2023-11-20 04:00,ZHCC 200400Z 18002MPS 140V240 4000 HZ NSC 16/03 Q1022 NOSIG
ZHCC,2023-11-20 05:00,ZHCC 200500Z 16003MPS 090V200 4000 HZ NSC 17/03 Q1021 NOSIG
ZHCC,2023-11-20 06:00,ZHCC 200600Z 18003MPS 060V220 4000 HZ NSC 18/03 Q1020 NOSIG
ZHCC,2023-11-20 07:00,ZHCC 200700Z 15002MPS 100V200 4000 HZ NSC 18/04 Q1019 NOSIG
ZHCC,2023-11-20 08:00,ZHCC 200800Z 15002MPS 110V190 4000 HZ NSC 18/04 Q1019 NOSIG
ZHCC,2023-11-20 09:00,ZHCC 200900Z 13001MPS 4000 HZ NSC 15/04 Q1019 NOSIG
ZHCC,2023-11-20 10:00,ZHCC 201000Z 14001MPS 5000 HZ NSC 11/04 Q1019 NOSIG
ZHCC,2023-11-20 11:00,ZHCC 201100Z 13002MPS 5000 HZ NSC 11/04 Q1019 NOSIG
ZHCC,2023-11-20 12:00,ZHCC 201200Z VRB01MPS 5000 HZ NSC 10/04 Q1019 NOSIG
ZHCC,2023-11-20 13:00,ZHCC 201300Z VRB01MPS 5000 HZ NSC 11/03 Q1019 NOSIG
ZHCC,2023-11-20 14:00,ZHCC 201400Z VRB01MPS 5000 HZ NSC 10/04 Q1019 NOSIG
ZHCC,2023-11-20 15:00,ZHCC 201500Z VRB01MPS 5000 HZ NSC 08/04 Q1019 NOSIG
ZHCC,2023-11-20 16:00,ZHCC 201600Z 15001MPS 5000 BR NSC 08/04 Q1018 NOSIG
ZHCC,2023-11-20 17:00,ZHCC 201700Z 08001MPS 5000 BR NSC 07/04 Q1018 NOSIG
ZHCC,2023-11-20 18:00,ZHCC 201800Z 18002MPS 5000 BR NSC 08/04 Q1017 NOSIG
ZHCC,2023-11-20 19:00,ZHCC 201900Z VRB01MPS 5000 BR NSC 10/05 Q1017 NOSIG
ZHCC,2023-11-20 20:00,ZHCC 202000Z VRB01MPS 5000 BR NSC 06/04 Q1016 NOSIG
ZHCC,2023-11-20 21:00,ZHCC 202100Z VRB01MPS 4000 BR NSC 05/04 Q1016 BECMG TL2240 2500
ZHCC,2023-11-20 22:00,ZHCC 202200Z 00000MPS 4000 BR NSC 06/04 Q1016 NOSIG
ZHCC,2023-11-20 23:00,ZHCC 202300Z 12001MPS 2500 BR NSC 05/04 Q1016 BECMG TL0040 3000
ZHCC,2023-11-21 00:00,ZHCC 210000Z 00000MPS 2500 BR NSC 07/05 Q1016 BECMG TL0040 3000
ZHCC,2023-11-21 01:00,ZHCC 210100Z VRB01MPS 3000 HZ NSC 12/07 Q1017 NOSIG
ZHCC,2023-11-21 02:00,ZHCC 210200Z VRB01MPS 3500 HZ NSC 15/08 Q1016 NOSIG
ZHCC,2023-11-21 03:00,ZHCC 210300Z 20002MPS 100V240 4500 HZ NSC 17/09 Q1015 NOSIG
ZHCC,2023-11-21 04:00,ZHCC 210400Z 21003MPS 180V270 5000 HZ NSC 18/09 Q1014 NOSIG
ZHCC,2023-11-21 05:00,ZHCC 210500Z 18004MPS 130V230 5000 HZ NSC 19/09 Q1013 NOSIG
ZHCC,2023-11-21 06:00,ZHCC 210600Z 20004MPS 150V230 5000 HZ NSC 19/09 Q1012 NOSIG
ZHCC,2023-11-21 07:00,ZHCC 210700Z 18003MPS 130V220 5000 HZ NSC 19/09 Q1012 NOSIG
ZHCC,2023-11-21 08:00,ZHCC 210800Z 20003MPS 160V240 5000 HZ NSC 19/10 Q1012 NOSIG
ZHCC,2023-11-21 09:00,ZHCC 210900Z VRB01MPS 5000 HZ NSC 18/10 Q1012 NOSIG
ZHCC,2023-11-21 10:00,ZHCC 211000Z 18001MPS 5000 HZ NSC 14/10 Q1012 NOSIG
ZHCC,2023-11-21 11:00,ZHCC 211100Z 19002MPS 140V220 5000 HZ NSC 15/10 Q1013 NOSIG
ZHCC,2023-11-21 12:00,ZHCC 211200Z 20002MPS 5000 HZ NSC 16/10 Q1013 NOSIG
ZHCC,2023-11-21 13:00,ZHCC 211300Z 21002MPS 5000 HZ NSC 16/10 Q1013 NOSIG
ZHCC,2023-11-21 14:00,ZHCC 211400Z 26002MPS 230V290 5000 HZ NSC 15/10 Q1013 NOSIG
ZHCC,2023-11-21 15:00,ZHCC 211500Z 24002MPS 210V280 5000 HZ NSC 15/10 Q1013 NOSIG
ZHCC,2023-11-21 16:00,ZHCC 211600Z 23002MPS 4500 HZ NSC 14/10 Q1013 NOSIG
ZHCC,2023-11-21 17:00,ZHCC 211700Z 19001MPS 4500 BR NSC 13/10 Q1013 NOSIG
ZHCC,2023-11-21 18:00,ZHCC 211800Z 28002MPS 4000 BR NSC 10/09 Q1013 NOSIG
ZHCC,2023-11-21 19:00,ZHCC 211900Z 26003MPS 4500 BR NSC 13/09 Q1013 NOSIG
ZHCC,2023-11-21 20:00,ZHCC 212000Z 27003MPS 4500 BR NSC 13/08 Q1012 NOSIG
ZHCC,2023-11-21 21:00,ZHCC 212100Z 29003MPS 6000 NSC 13/07 Q1012 NOSIG
ZHCC,2023-11-21 22:00,ZHCC 212200Z 27002MPS 8000 NSC 15/03 Q1012 NOSIG
ZHCC,2023-11-21 23:00,ZHCC 212300Z 27003MPS 8000 NSC 14/02 Q1013 NOSIG
ZHCC,2023-11-22 00:00,ZHCC 220000Z 26002MPS 6000 NSC 15/04 Q1014 NOSIG
ZHCC,2023-11-22 01:00,ZHCC 220100Z 28003MPS 5000 HZ NSC 16/04 Q1015 NOSIG
ZHCC,2023-11-22 02:00,ZHCC 220200Z 28006MPS 5000 HZ NSC 18/02 Q1015 NOSIG
ZHCC,2023-11-22 03:00,ZHCC 220300Z 29009MPS 8000 NSC 20/M03 Q1015 NOSIG
ZHCC,2023-11-22 04:00,ZHCC 220400Z 29008MPS CAVOK 21/M03 Q1014 NOSIG
ZHCC,2023-11-22 05:00,ZHCC 220500Z 30007MPS CAVOK 22/M03 Q1013 NOSIG
ZHCC,2023-11-22 06:00,ZHCC 220600Z 31007MPS CAVOK 22/M03 Q1013 NOSIG
ZHCC,2023-11-22 07:00,ZHCC 220700Z 31006MPS CAVOK 21/M03 Q1013 NOSIG
ZHCC,2023-11-22 08:00,ZHCC 220800Z 30004MPS 270V330 CAVOK 21/M03 Q1013 NOSIG
ZHCC,2023-11-22 09:00,ZHCC 220900Z VRB01MPS CAVOK 19/M02 Q1013 NOSIG
ZHCC,2023-11-22 10:00,ZHCC 221000Z 22002MPS CAVOK 16/M02 Q1013 NOSIG
ZHCC,2023-11-22 11:00,ZHCC 221100Z 24001MPS CAVOK 09/01 Q1014 NOSIG
ZHCC,2023-11-22 12:00,ZHCC 221200Z 25003MPS CAVOK 15/M02 Q1015 NOSIG
ZHCC,2023-11-22 13:00,ZHCC 221300Z 27002MPS CAVOK 10/M02 Q1016 NOSIG
ZHCC,2023-11-22 14:00,ZHCC 221400Z 28004MPS CAVOK 13/M03 Q1016 NOSIG
ZHCC,2023-11-22 15:00,ZHCC 221500Z 29004MPS CAVOK 15/M05 Q1017 NOSIG
ZHCC,2023-11-22 16:00,ZHCC 221600Z 29004MPS CAVOK 15/M05 Q1018 NOSIG
ZHCC,2023-11-22 17:00,ZHCC 221700Z 27004MPS CAVOK 13/M04 Q1018 NOSIG
ZHCC,2023-11-22 18:00,ZHCC 221800Z 29003MPS CAVOK 11/M04 Q1019 NOSIG
ZHCC,2023-11-22 19:00,ZHCC 221900Z 30006MPS CAVOK 14/M04 Q1020 NOSIG
ZHCC,2023-11-22 20:00,ZHCC 222000Z 31008MPS 280V350 CAVOK 14/M08 Q1021 NOSIG
ZHCC,2023-11-22 21:00,ZHCC 222100Z 31012MPS CAVOK 13/M10 Q1022 NOSIG
ZHCC,2023-11-22 22:00,ZHCC 222200Z 30009MPS CAVOK 11/M12 Q1023 NOSIG
ZHCC,2023-11-22 23:00,ZHCC 222300Z 31009MPS CAVOK 10/M15 Q1025 NOSIG
ZHCC,2023-11-23 00:00,ZHCC 230000Z 31010G15MPS 280V340 CAVOK 10/M16 Q1026 NOSIG
ZHCC,2023-11-23 01:00,ZHCC 230100Z 32009G14MPS CAVOK 11/M15 Q1027 NOSIG
ZHCC,2023-11-23 02:00,ZHCC 230200Z 30008MPS CAVOK 11/M17 Q1028 NOSIG
ZHCC,2023-11-23 03:00,ZHCC 230300Z 32010MPS CAVOK 12/M18 Q1028 NOSIG
ZHCC,2023-11-23 04:00,ZHCC 230400Z 32008G13MPS CAVOK 12/M17 Q1028 NOSIG
ZHCC,2023-11-23 05:00,ZHCC 230500Z 33008MPS CAVOK 13/M17 Q1027 NOSIG
ZHCC,2023-11-23 06:00,ZHCC 230600Z 33008MPS 300V360 CAVOK 13/M19 Q1026 NOSIG
ZHCC,2023-11-23 07:00,ZHCC 230700Z 32007MPS 290V350 CAVOK 13/M19 Q1026 NOSIG
ZHCC,2023-11-23 08:00,ZHCC 230800Z 35004MPS CAVOK 12/M19 Q1026 NOSIG
ZHCC,2023-11-23 09:00,ZHCC 230900Z 33003MPS CAVOK 10/M18 Q1026 NOSIG
ZHCC,2023-11-23 10:00,ZHCC 231000Z VRB01MPS CAVOK 08/M12 Q1027 NOSIG
ZHCC,2023-11-23 11:00,ZHCC 231100Z 08005MPS CAVOK 08/M11 Q1028 NOSIG
ZHCC,2023-11-23 12:00,ZHCC 231200Z 07005MPS CAVOK 07/M11 Q1029 NOSIG
ZHCC,2023-11-23 13:00,ZHCC 231300Z 07006MPS CAVOK 06/M11 Q1029 NOSIG
ZHCC,2023-11-23 14:00,ZHCC 231400Z 06005MPS CAVOK 05/M10 Q1030 NOSIG
ZHCC,2023-11-23 15:00,ZHCC 231500Z 06005MPS CAVOK 04/M13 Q1031 NOSIG
ZHCC,2023-11-23 16:00,ZHCC 231600Z 07004MPS CAVOK 03/M13 Q1032 NOSIG
ZHCC,2023-11-23 17:00,ZHCC 231700Z 06003MPS CAVOK 03/M14 Q1032 NOSIG
ZHCC,2023-11-23 18:00,ZHCC 231800Z 05004MPS CAVOK 02/M14 Q1032 NOSIG
ZHCC,2023-11-23 19:00,ZHCC 231900Z 04004MPS CAVOK 02/M15 Q1033 NOSIG
ZHCC,2023-11-23 20:00,ZHCC 232000Z 04003MPS CAVOK 01/M15 Q1033 NOSIG
ZHCC,2023-11-23 21:00,ZHCC 232100Z 04003MPS CAVOK 01/M15 Q1033 NOSIG
ZHCC,2023-11-23 22:00,ZHCC 232200Z 05003MPS CAVOK 01/M15 Q1033 NOSIG
ZHCC,2023-11-23 23:00,ZHCC 232300Z 04003MPS CAVOK 01/M15 Q1034 NOSIG
ZHCC,2023-11-24 00:00,ZHCC 240000Z 04004MPS CAVOK 01/M16 Q1035 NOSIG
ZHCC,2023-11-24 01:00,ZHCC 240100Z 05005MPS CAVOK 02/M16 Q1036 NOSIG
ZHCC,2023-11-24 02:00,ZHCC 240200Z 03004MPS 360V060 CAVOK 04/M17 Q1036 NOSIG
ZHCC,2023-11-24 03:00,ZHCC 240300Z 05003MPS 350V090 CAVOK 04/M16 Q1036 NOSIG
ZHCC,2023-11-24 04:00,ZHCC 240400Z 06003MPS 010V110 CAVOK 05/M16 Q1035 NOSIG
ZHCC,2023-11-24 05:00,ZHCC 240500Z 07004MPS 030V100 CAVOK 05/M18 Q1034 NOSIG
ZHCC,2023-11-24 06:00,ZHCC 240600Z 08003MPS 060V130 CAVOK 05/M17 Q1033 NOSIG
ZHCC,2023-11-24 07:00,ZHCC 240700Z 08004MPS 050V110 CAVOK 05/M16 Q1032 NOSIG
ZHCC,2023-11-24 08:00,ZHCC 240800Z 08004MPS CAVOK 05/M16 Q1032 NOSIG
ZHCC,2023-11-24 09:00,ZHCC 240900Z 09004MPS 050V110 CAVOK 05/M15 Q1032 NOSIG
ZHCC,2023-11-24 10:00,ZHCC 241000Z 08004MPS 050V110 CAVOK 05/M16 Q1032 NOSIG
ZHCC,2023-11-24 11:00,ZHCC 241100Z 08004MPS CAVOK 05/M14 Q1032 NOSIG
ZHCC,2023-11-24 12:00,ZHCC 241200Z 08004MPS CAVOK 05/M14 Q1033 NOSIG
ZHCC,2023-11-24 13:00,ZHCC 241300Z 06004MPS 030V100 CAVOK 05/M14 Q1033 NOSIG
ZHCC,2023-11-24 14:00,ZHCC 241400Z 06004MPS CAVOK 05/M14 Q1033 NOSIG
ZHCC,2023-11-24 15:00,ZHCC 241500Z 06004MPS CAVOK 04/M13 Q1033 NOSIG
ZHCC,2023-11-24 16:00,ZHCC 241600Z 07004MPS CAVOK 04/M12 Q1033 NOSIG
ZHCC,2023-11-24 17:00,ZHCC 241700Z 06004MPS CAVOK 04/M12 Q1032 NOSIG
ZHCC,2023-11-24 18:00,ZHCC 241800Z 06004MPS CAVOK 04/M11 Q1032 NOSIG
ZHCC,2023-11-24 19:00,ZHCC 241900Z 05004MPS CAVOK 04/M12 Q1032 NOSIG
ZHCC,2023-11-24 20:00,ZHCC 242000Z 07004MPS CAVOK 04/M12 Q1031 NOSIG
ZHCC,2023-11-24 21:00,ZHCC 242100Z 06004MPS CAVOK 04/M12 Q1031 NOSIG
ZHCC,2023-11-24 22:00,ZHCC 242200Z 06003MPS CAVOK 04/M12 Q1031 NOSIG
ZHCC,2023-11-24 23:00,ZHCC 242300Z 05003MPS CAVOK 04/M12 Q1031 NOSIG
ZHCC,2023-11-25 00:00,ZHCC 250000Z 05003MPS 020V080 CAVOK 04/M11 Q1031 NOSIG
ZHCC,2023-11-25 01:00,ZHCC 250100Z 03002MPS 360V080 CAVOK 04/M10 Q1032 NOSIG
ZHCC,2023-11-25 02:00,ZHCC 250200Z 02002MPS 330V080 CAVOK 04/M09 Q1031 NOSIG
ZHCC,2023-11-25 03:00,ZHCC 250300Z 02002MPS 330V070 CAVOK 05/M09 Q1031 NOSIG
ZHCC,2023-11-25 04:00,ZHCC 250400Z 34004MPS 310V010 CAVOK 04/M08 Q1030 NOSIG
ZHCC,2023-11-25 05:00,ZHCC 250500Z 36002MPS CAVOK 05/M08 Q1029 NOSIG
ZHCC,2023-11-25 06:00,ZHCC 250600Z 35004MPS 320V020 CAVOK 04/M08 Q1028 NOSIG
ZHCC,2023-11-25 07:00,ZHCC 250700Z 34004MPS 9999 -RA NSC 04/M05 Q1028 NOSIG
ZHCC,2023-11-25 08:00,ZHCC 250800Z 33003MPS 9999 -RA NSC 03/M03 Q1028 NOSIG
ZHCC,2023-11-25 09:00,ZHCC 250900Z 31002G08MPS 260V020 8000 -RA NSC 02/M02 Q1029 NOSIG
ZHCC,2023-11-25 10:00,ZHCC 251000Z 30001MPS 8000 -RA NSC 02/M00 Q1028 NOSIG
ZHCC,2023-11-25 11:00,ZHCC 251100Z 29001MPS 9000 -RA NSC 02/00 Q1029 NOSIG
ZHCC,2023-11-25 12:00,ZHCC 251200Z VRB01MPS CAVOK 02/00 Q1028 NOSIG
ZHCC,2023-11-25 13:00,ZHCC 251300Z 21002MPS 170V240 8000 NSC 03/M00 Q1028 NOSIG
ZHCC,2023-11-25 14:00,ZHCC 251400Z 18002MPS 130V210 8000 NSC 03/01 Q1028 NOSIG
ZHCC,2023-11-25 15:00,ZHCC 251500Z 19002MPS 120V230 8000 NSC 03/00 Q1028 NOSIG
ZHCC,2023-11-25 16:00,ZHCC 251600Z 19003MPS 140V220 8000 NSC 03/00 Q1027 NOSIG
ZHCC,2023-11-25 17:00,ZHCC 251700Z 19003MPS 160V220 8000 NSC 02/00 Q1026 NOSIG
ZHCC,2023-11-25 18:00,ZHCC 251800Z 20002MPS 170V230 5000 BR NSC 02/01 Q1026 NOSIG
ZHCC,2023-11-25 19:00,ZHCC 251900Z 19001MPS 5000 BR NSC 02/01 Q1026 NOSIG
ZHCC,2023-11-25 20:00,ZHCC 252000Z 20002MPS 4000 BR NSC 02/01 Q1025 NOSIG
ZHCC,2023-11-25 21:00,ZHCC 252100Z 00000MPS 4000 BR NSC 01/M00 Q1025 NOSIG
ZHCC,2023-11-25 22:00,ZHCC 252200Z 00000MPS 3000 BR NSC M01/M01 Q1025 BECMG TL2340 2000
ZHCC,2023-11-25 23:00,ZHCC 252300Z VRB01MPS 1800 PRFG BR NSC M01/M02 Q1025 NOSIG
ZHCC,2023-11-26 00:00,ZHCC 260000Z 00000MPS 2000 BR NSC M00/M01 Q1025 BECMG TL0140 3000
ZHCC,2023-11-26 01:00,ZHCC 260100Z VRB01MPS 2500 BR NSC 02/02 Q1025 BECMG TL0140 3000
ZHCC,2023-11-26 02:00,ZHCC 260200Z 32001MPS 6000 NSC 07/01 Q1025 NOSIG
ZHCC,2023-11-26 03:00,ZHCC 260300Z 08002MPS 020V140 CAVOK 08/01 Q1024 NOSIG
ZHCC,2023-11-26 04:00,ZHCC 260400Z VRB01MPS CAVOK 10/M02 Q1023 NOSIG
ZHCC,2023-11-26 05:00,ZHCC 260500Z VRB01MPS CAVOK 11/M01 Q1021 NOSIG
ZHCC,2023-11-26 06:00,ZHCC 260600Z 17003MPS 140V210 8000 NSC 12/01 Q1020 NOSIG
ZHCC,2023-11-26 07:00,ZHCC 260700Z 16003MPS 120V200 8000 NSC 12/01 Q1019 NOSIG
ZHCC,2023-11-26 08:00,ZHCC 260800Z 19003MPS 150V220 8000 NSC 11/02 Q1018 NOSIG
ZHCC,2023-11-26 09:00,ZHCC 260900Z 18002MPS 130V220 8000 NSC 10/03 Q1018 NOSIG
ZHCC,2023-11-26 10:00,ZHCC 261000Z 19002MPS 160V220 8000 NSC 10/03 Q1018 NOSIG
ZHCC,2023-11-26 11:00,ZHCC 261100Z 18003MPS 150V210 8000 NSC 09/03 Q1018 NOSIG
ZHCC,2023-11-26 12:00,ZHCC 261200Z 19003MPS 8000 NSC 08/04 Q1019 NOSIG
ZHCC,2023-11-26 13:00,ZHCC 261300Z 20003MPS 180V240 6000 NSC 07/04 Q1018 NOSIG
ZHCC,2023-11-26 14:00,ZHCC 261400Z 21002MPS 6000 NSC 07/03 Q1018 NOSIG
ZHCC,2023-11-26 15:00,ZHCC 261500Z 21002MPS 7000 NSC 07/03 Q1018 NOSIG
ZHCC,2023-11-26 16:00,ZHCC 261600Z VRB01MPS 7000 NSC 04/02 Q1018 NOSIG
ZHCC,2023-11-26 17:00,ZHCC 261700Z 30001MPS 7000 NSC 03/02 Q1018 NOSIG
ZHCC,2023-11-26 18:00,ZHCC 261800Z VRB01MPS 7000 NSC 03/00 Q1018 NOSIG
ZHCC,2023-11-26 19:00,ZHCC 261900Z 26005MPS CAVOK 10/M01 Q1018 NOSIG
ZHCC,2023-11-26 20:00,ZHCC 262000Z 30003MPS CAVOK 07/M01 Q1018 NOSIG
ZHCC,2023-11-26 21:00,ZHCC 262100Z VRB01MPS CAVOK 05/M01 Q1019 NOSIG
ZHCC,2023-11-26 22:00,ZHCC 262200Z 26002MPS CAVOK 05/M01 Q1019 NOSIG
ZHCC,2023-11-26 23:00,ZHCC 262300Z 29004MPS CAVOK 10/M03 Q1019 NOSIG
ZHCC,2023-11-27 00:00,ZHCC 270000Z 30006MPS CAVOK 13/M03 Q1020 NOSIG
ZHCC,2023-11-27 01:00,ZHCC 270100Z 31007MPS CAVOK 15/M04 Q1021 NOSIG
ZHCC,2023-11-27 02:00,ZHCC 270200Z 31008MPS CAVOK 16/M04 Q1021 NOSIG
ZHCC,2023-11-27 03:00,ZHCC 270300Z 31009G14MPS CAVOK 18/M05 Q1021 NOSIG
ZHCC,2023-11-27 04:00,ZHCC 270400Z 30009G14MPS CAVOK 18/M07 Q1021 NOSIG
ZHCC,2023-11-27 05:00,ZHCC 270500Z 29007MPS CAVOK 19/M05 Q1020 NOSIG
ZHCC,2023-11-27 06:00,ZHCC 270600Z 30009MPS 260V320 CAVOK 19/M05 Q1019 NOSIG
ZHCC,2023-11-27 07:00,ZHCC 270700Z 30006MPS CAVOK 18/M04 Q1019 NOSIG
ZHCC,2023-11-27 08:00,ZHCC 270800Z 28006MPS CAVOK 18/M05 Q1019 NOSIG
ZHCC,2023-11-27 09:00,ZHCC 270900Z 28006MPS CAVOK 17/M05 Q1020 NOSIG
ZHCC,2023-11-27 10:00,ZHCC 271000Z 30004MPS CAVOK 14/M05 Q1021 NOSIG
ZHCC,2023-11-27 11:00,ZHCC 271100Z 28002MPS CAVOK 11/M04 Q1022 NOSIG
ZHCC,2023-11-27 12:00,ZHCC 271200Z 25001MPS CAVOK 08/M04 Q1022 NOSIG
ZHCC,2023-11-27 13:00,ZHCC 271300Z 30002MPS CAVOK 09/M03 Q1023 NOSIG
ZHCC,2023-11-27 14:00,ZHCC 271400Z VRB01MPS CAVOK 09/M04 Q1024 NOSIG
ZHCC,2023-11-27 15:00,ZHCC 271500Z VRB01MPS CAVOK 07/M04 Q1025 NOSIG
ZHCC,2023-11-27 16:00,ZHCC 271600Z VRB01MPS CAVOK 05/M04 Q1025 NOSIG
ZHCC,2023-11-27 17:00,ZHCC 271700Z 12002MPS 080V160 CAVOK 08/M06 Q1025 NOSIG
ZHCC,2023-11-27 18:00,ZHCC 271800Z 11003MPS CAVOK 06/M05 Q1025 NOSIG
ZHCC,2023-11-27 19:00,ZHCC 271900Z 07004MPS CAVOK 06/M04 Q1025 NOSIG
ZHCC,2023-11-27 20:00,ZHCC 272000Z 11002MPS CAVOK 06/M04 Q1025 NOSIG
ZHCC,2023-11-27 21:00,ZHCC 272100Z VRB01MPS CAVOK 03/M04 Q1025 NOSIG
ZHCC,2023-11-27 22:00,ZHCC 272200Z VRB01MPS CAVOK 03/M03 Q1025 NOSIG
ZHCC,2023-11-27 23:00,ZHCC 272300Z 22001MPS 8000 NSC 01/M04 Q1025 NOSIG
ZHCC,2023-11-28 00:00,ZHCC 280000Z VRB01MPS 8000 NSC 03/M03 Q1025 NOSIG
ZHCC,2023-11-28 01:00,ZHCC 280100Z 10002MPS 8000 NSC 07/M04 Q1025 NOSIG
ZHCC,2023-11-28 02:00,ZHCC 280200Z 11003MPS 8000 NSC 09/M05 Q1025 NOSIG
ZHCC,2023-11-28 03:00,ZHCC 280300Z 11003MPS 080V150 8000 NSC 10/M05 Q1025 NOSIG
ZHCC,2023-11-28 04:00,ZHCC 280400Z 14004MPS 110V190 CAVOK 12/M07 Q1023 NOSIG
ZHCC,2023-11-28 05:00,ZHCC 280500Z 18003MPS 130V210 CAVOK 12/M06 Q1021 NOSIG
ZHCC,2023-11-28 06:00,ZHCC 280600Z 17003MPS 120V210 CAVOK 14/M07 Q1019 NOSIG
ZHCC,2023-11-28 07:00,ZHCC 280700Z 16002MPS 100V220 CAVOK 13/M05 Q1019 NOSIG
ZHCC,2023-11-28 08:00,ZHCC 280800Z 16002MPS 110V210 CAVOK 13/M04 Q1019 NOSIG
ZHCC,2023-11-28 09:00,ZHCC 280900Z 15002MPS 120V180 CAVOK 12/M04 Q1018 NOSIG
ZHCC,2023-11-28 10:00,ZHCC 281000Z 13002MPS CAVOK 10/M04 Q1018 NOSIG
ZHCC,2023-11-28 11:00,ZHCC 281100Z VRB01MPS CAVOK 08/M03 Q1018 NOSIG
ZHCC,2023-11-28 12:00,ZHCC 281200Z VRB01MPS CAVOK 07/M03 Q1019 NOSIG
ZHCC,2023-11-28 13:00,ZHCC 281300Z VRB01MPS CAVOK 07/M02 Q1019 NOSIG
ZHCC,2023-11-28 14:00,ZHCC 281400Z 29001MPS CAVOK 07/M02 Q1020 NOSIG
ZHCC,2023-11-28 15:00,ZHCC 281500Z 30001MPS CAVOK 06/M02 Q1021 NOSIG
ZHCC,2023-11-28 16:00,ZHCC 281600Z 32003MPS CAVOK 06/M02 Q1021 NOSIG
ZHCC,2023-11-28 17:00,ZHCC 281700Z 31003MPS CAVOK 07/M02 Q1021 NOSIG
ZHCC,2023-11-28 18:00,ZHCC 281800Z 34004MPS CAVOK 08/M03 Q1022 NOSIG
ZHCC,2023-11-28 19:00,ZHCC 281900Z 34004G12MPS 250V010 CAVOK 07/M03 Q1023 NOSIG
ZHCC,2023-11-28 20:00,ZHCC 282000Z 36005MPS 8000 NSC 07/M03 Q1024 NOSIG
ZHCC,2023-11-28 21:00,ZHCC 282100Z 01006MPS 8000 NSC 06/M04 Q1025 NOSIG
ZHCC,2023-11-28 22:00,ZHCC 282200Z 02006MPS CAVOK 05/M06 Q1026 NOSIG
ZHCC,2023-11-28 23:00,ZHCC 282300Z 03007MPS 360V060 CAVOK 05/M08 Q1028 NOSIG
ZHCC,2023-11-29 00:00,ZHCC 290000Z 03008MPS 360V060 CAVOK 05/M10 Q1029 NOSIG
ZHCC,2023-11-29 01:00,ZHCC 290100Z 03008MPS CAVOK 05/M10 Q1030 NOSIG
ZHCC,2023-11-29 02:00,ZHCC 290200Z 03009MPS CAVOK 04/M10 Q1032 NOSIG
ZHCC,2023-11-29 03:00,ZHCC 290300Z 03007MPS 360V070 CAVOK 05/M10 Q1033 NOSIG
ZHCC,2023-11-29 04:00,ZHCC 290400Z 04006MPS 010V080 CAVOK 05/M12 Q1033 NOSIG
ZHCC,2023-11-29 05:00,ZHCC 290500Z 04005MPS 360V070 CAVOK 05/M12 Q1032 NOSIG
ZHCC,2023-11-29 06:00,ZHCC 290600Z 05005MPS 010V080 CAVOK 05/M12 Q1032 NOSIG
ZHCC,2023-11-29 07:00,ZHCC 290700Z 03004MPS CAVOK 05/M12 Q1032 NOSIG
ZHCC,2023-11-29 08:00,ZHCC 290800Z 03004MPS CAVOK 05/M11 Q1033 NOSIG
ZHCC,2023-11-29 09:00,ZHCC 290900Z 04004MPS CAVOK 04/M11 Q1033 NOSIG
ZHCC,2023-11-29 10:00,ZHCC 291000Z 07003MPS CAVOK 04/M10 Q1034 NOSIG
ZHCC,2023-11-29 11:00,ZHCC 291100Z 07003MPS CAVOK 03/M12 Q1035 NOSIG
ZHCC,2023-11-29 12:00,ZHCC 291200Z 06002MPS CAVOK 03/M12 Q1036 NOSIG
ZHCC,2023-11-29 13:00,ZHCC 291300Z VRB01MPS CAVOK 01/M10 Q1036 NOSIG
ZHCC,2023-11-29 14:00,ZHCC 291400Z 23001MPS CAVOK M02/M08 Q1037 NOSIG
ZHCC,2023-11-29 15:00,ZHCC 291500Z 29001MPS CAVOK M02/M08 Q1036 NOSIG
ZHCC,2023-11-29 16:00,ZHCC 291600Z VRB01MPS CAVOK M03/M08 Q1037 NOSIG
ZHCC,2023-11-29 17:00,ZHCC 291700Z 00000MPS CAVOK M03/M08 Q1037 NOSIG
ZHCC,2023-11-29 18:00,ZHCC 291800Z VRB01MPS CAVOK M04/M08 Q1037 NOSIG
ZHCC,2023-11-29 19:00,ZHCC 291900Z 15001MPS CAVOK M02/M08 Q1037 NOSIG
ZHCC,2023-11-29 20:00,ZHCC 292000Z 00000MPS CAVOK M03/M08 Q1037 NOSIG
ZHCC,2023-11-29 21:00,ZHCC 292100Z 00000MPS CAVOK M03/M08 Q1037 NOSIG
ZHCC,2023-11-29 22:00,ZHCC 292200Z 00000MPS CAVOK M04/M08 Q1036 NOSIG
ZHCC,2023-11-29 23:00,ZHCC 292300Z 18001MPS CAVOK M04/M08 Q1037 NOSIG
ZHCC,2023-11-30 00:00,ZHCC 300000Z VRB01MPS CAVOK M02/M07 Q1037 NOSIG
ZHCC,2023-11-30 01:00,ZHCC 300100Z VRB01MPS CAVOK 02/M09 Q1037 NOSIG
ZHCC,2023-11-30 02:00,ZHCC 300200Z 18002MPS 120V220 CAVOK 04/M12 Q1038 NOSIG
ZHCC,2023-11-30 03:00,ZHCC 300300Z 25002MPS 210V330 CAVOK 04/M13 Q1037 NOSIG
ZHCC,2023-11-30 04:00,ZHCC 300400Z 26002MPS 210V330 CAVOK 05/M12 Q1036 NOSIG
ZHCC,2023-11-30 05:00,ZHCC 300500Z VRB02MPS CAVOK 06/M11 Q1034 NOSIG
ZHCC,2023-11-30 06:00,ZHCC 300600Z 23003MPS 190V270 CAVOK 07/M13 Q1033 NOSIG
ZHCC,2023-11-30 07:00,ZHCC 300700Z 16002MPS 130V190 CAVOK 07/M12 Q1033 NOSIG
ZHCC,2023-11-30 08:00,ZHCC 300800Z 18003MPS 150V220 CAVOK 06/M11 Q1032 NOSIG
ZHCC,2023-11-30 09:00,ZHCC 300900Z 18003MPS 140V210 CAVOK 05/M11 Q1033 NOSIG
ZHCC,2023-11-30 10:00,ZHCC 301000Z 18002MPS CAVOK 03/M11 Q1033 NOSIG
ZHCC,2023-11-30 11:00,ZHCC 301100Z 18002MPS 150V210 CAVOK 03/M10 Q1033 NOSIG
ZHCC,2023-11-30 12:00,ZHCC 301200Z 20003MPS CAVOK 03/M10 Q1033 NOSIG
ZHCC,2023-11-30 13:00,ZHCC 301300Z 22002MPS 190V260 CAVOK 02/M10 Q1034 NOSIG
ZHCC,2023-11-30 14:00,ZHCC 301400Z 26002MPS CAVOK M02/M09 Q1034 NOSIG
ZHCC,2023-11-30 15:00,ZHCC 301500Z 25003MPS CAVOK 03/M13 Q1034 NOSIG
ZHCC,2023-11-30 16:00,ZHCC 301600Z 28002MPS CAVOK 01/M13 Q1034 NOSIG
ZHCC,2023-11-30 17:00,ZHCC 301700Z 29004MPS CAVOK 02/M15 Q1034 NOSIG
ZHCC,2023-11-30 18:00,ZHCC 301800Z 29004MPS CAVOK 02/M15 Q1033 NOSIG
ZHCC,2023-11-30 19:00,ZHCC 301900Z 30004MPS CAVOK 02/M16 Q1033 NOSIG
ZHCC,2023-11-30 20:00,ZHCC 302000Z 29003MPS CAVOK 02/M16 Q1033 NOSIG
ZHCC,2023-11-30 21:00,ZHCC 302100Z 31002MPS 280V340 CAVOK 02/M17 Q1033 NOSIG
ZHCC,2023-11-30 22:00,ZHCC 302200Z 30002MPS CAVOK 00/M15 Q1033 NOSIG
ZHCC,2023-11-30 23:00,ZHCC 302300Z 26002MPS CAVOK M01/M12 Q1033 NOSIG
ZHCC,2023-12-01 00:00,ZHCC 010000Z 26002MPS CAVOK M01/M10 Q1033 NOSIG
ZHCC,2023-12-01 01:00,ZHCC 010100Z 28004MPS CAVOK 05/M14 Q1034 NOSIG
ZHCC,2023-12-01 02:00,ZHCC 010200Z 32005MPS CAVOK 07/M15 Q1033 NOSIG
ZHCC,2023-12-01 03:00,ZHCC 010300Z 32005MPS 280V340 CAVOK 08/M16 Q1033 NOSIG
ZHCC,2023-12-01 04:00,ZHCC 010400Z 31004MPS 280V360 CAVOK 09/M16 Q1032 NOSIG
ZHCC,2023-12-01 05:00,ZHCC 010500Z 28004MPS 240V310 CAVOK 09/M16 Q1031 NOSIG
ZHCC,2023-12-01 06:00,ZHCC 010600Z 33003MPS 300V010 CAVOK 10/M16 Q1030 NOSIG
ZHCC,2023-12-01 07:00,ZHCC 010700Z 30002MPS 250V010 CAVOK 10/M16 Q1029 NOSIG
ZHCC,2023-12-01 08:00,ZHCC 010800Z 18001MPS CAVOK 10/M16 Q1028 NOSIG
ZHCC,2023-12-01 09:00,ZHCC 010900Z 10002MPS 040V130 CAVOK 07/M15 Q1028 NOSIG
ZHCC,2023-12-01 10:00,ZHCC 011000Z 11003MPS 080V140 CAVOK 06/M14 Q1028 NOSIG
ZHCC,2023-12-01 11:00,ZHCC 011100Z 12002MPS CAVOK 03/M12 Q1028 NOSIG
ZHCC,2023-12-01 12:00,ZHCC 011200Z 14001MPS CAVOK 03/M13 Q1028 NOSIG
ZHCC,2023-12-01 13:00,ZHCC 011300Z VRB01MPS CAVOK 01/M11 Q1028 NOSIG
ZHCC,2023-12-01 14:00,ZHCC 011400Z 18001MPS CAVOK M01/M09 Q1028 NOSIG
ZHCC,2023-12-01 15:00,ZHCC 011500Z 20002MPS CAVOK M00/M10 Q1028 NOSIG
ZHCC,2023-12-01 16:00,ZHCC 011600Z 20001MPS CAVOK M02/M09 Q1028 NOSIG
ZHCC,2023-12-01 17:00,ZHCC 011700Z VRB01MPS CAVOK M03/M08 Q1027 NOSIG
ZHCC,2023-12-01 18:00,ZHCC 011800Z VRB01MPS CAVOK M04/M09 Q1027 NOSIG
ZHCC,2023-12-01 19:00,ZHCC 011900Z 00000MPS CAVOK M03/M09 Q1026 NOSIG
ZHCC,2023-12-01 20:00,ZHCC 012000Z 23002MPS CAVOK M05/M10 Q1026 NOSIG
ZHCC,2023-12-01 21:00,ZHCC 012100Z 23001MPS CAVOK M04/M09 Q1025 NOSIG
ZHCC,2023-12-01 22:00,ZHCC 012200Z 24002MPS CAVOK 02/M11 Q1025 NOSIG
ZHCC,2023-12-01 23:00,ZHCC 012300Z 26002MPS CAVOK 00/M11 Q1025 NOSIG
ZHCC,2023-12-02 00:00,ZHCC 020000Z 25002MPS 220V280 CAVOK 01/M10 Q1025 NOSIG
ZHCC,2023-12-02 01:00,ZHCC 020100Z VRB01MPS CAVOK 05/M10 Q1026 NOSIG
ZHCC,2023-12-02 02:00,ZHCC 020200Z VRB01MPS CAVOK 09/M10 Q1026 NOSIG
ZHCC,2023-12-02 03:00,ZHCC 020300Z 30003MPS 240V350 CAVOK 12/M11 Q1026 NOSIG
ZHCC,2023-12-02 04:00,ZHCC 020400Z 33006MPS CAVOK 13/M14 Q1026 NOSIG
ZHCC,2023-12-02 05:00,ZHCC 020500Z 36005MPS CAVOK 13/M15 Q1026 NOSIG
ZHCC,2023-12-02 06:00,ZHCC 020600Z 35004MPS 300V020 CAVOK 13/M15 Q1025 NOSIG
ZHCC,2023-12-02 07:00,ZHCC 020700Z 36003MPS CAVOK 13/M13 Q1025 NOSIG
ZHCC,2023-12-02 08:00,ZHCC 020800Z 36004MPS 340V040 CAVOK 12/M15 Q1026 NOSIG
ZHCC,2023-12-02 09:00,ZHCC 020900Z 01002MPS CAVOK 10/M14 Q1026 NOSIG
ZHCC,2023-12-02 10:00,ZHCC 021000Z 01002MPS CAVOK 09/M12 Q1026 NOSIG
ZHCC,2023-12-02 11:00,ZHCC 021100Z VRB01MPS CAVOK 06/M12 Q1027 NOSIG
ZHCC,2023-12-02 12:00,ZHCC 021200Z 29001MPS CAVOK 02/M10 Q1028 NOSIG
ZHCC,2023-12-02 13:00,ZHCC 021300Z 00000MPS CAVOK 00/M10 Q1028 NOSIG
ZHCC,2023-12-02 14:00,ZHCC 021400Z 25001MPS CAVOK 01/M08 Q1029 NOSIG
ZHCC,2023-12-02 15:00,ZHCC 021500Z VRB01MPS CAVOK M02/M08 Q1029 NOSIG
ZHCC,2023-12-02 16:00,ZHCC 021600Z 31001MPS CAVOK M02/M09 Q1029 NOSIG
ZHCC,2023-12-02 17:00,ZHCC 021700Z 26001MPS CAVOK M01/M08 Q1029 NOSIG
ZHCC,2023-12-02 18:00,ZHCC 021800Z 25001MPS CAVOK M02/M08 Q1029 NOSIG
ZHCC,2023-12-02 19:00,ZHCC 021900Z 27001MPS CAVOK M04/M08 Q1029 NOSIG
ZHCC,2023-12-02 20:00,ZHCC 022000Z 28001MPS CAVOK M01/M08 Q1029 NOSIG
ZHCC,2023-12-02 21:00,ZHCC 022100Z 30001MPS CAVOK M03/M07 Q1028 NOSIG
ZHCC,2023-12-02 22:00,ZHCC 022200Z 29001MPS CAVOK M04/M08 Q1028 NOSIG
ZHCC,2023-12-02 23:00,ZHCC 022300Z 00000MPS CAVOK M04/M08 Q1029 NOSIG
ZHCC,2023-12-03 00:00,ZHCC 030000Z VRB01MPS CAVOK M02/M07 Q1029 NOSIG
ZHCC,2023-12-03 01:00,ZHCC 030100Z 27001MPS CAVOK 04/M06 Q1029 NOSIG
ZHCC,2023-12-03 02:00,ZHCC 030200Z VRB01MPS CAVOK 08/M10 Q1029 NOSIG
ZHCC,2023-12-03 03:00,ZHCC 030300Z 19002MPS 160V220 CAVOK 09/M11 Q1029 NOSIG
ZHCC,2023-12-03 04:00,ZHCC 030400Z 17002MPS 110V230 CAVOK 11/M10 Q1028 NOSIG
ZHCC,2023-12-03 05:00,ZHCC 030500Z 18002MPS 120V210 CAVOK 12/M10 Q1026 NOSIG
ZHCC,2023-12-03 06:00,ZHCC 030600Z 15003MPS 110V220 CAVOK 12/M11 Q1025 NOSIG
ZHCC,2023-12-03 07:00,ZHCC 030700Z 17003MPS 130V220 CAVOK 12/M11 Q1024 NOSIG
ZHCC,2023-12-03 08:00,ZHCC 030800Z 18003MPS 130V200 CAVOK 12/M10 Q1024 NOSIG
ZHCC,2023-12-03 09:00,ZHCC 030900Z 18003MPS CAVOK 11/M09 Q1023 NOSIG
ZHCC,2023-12-03 10:00,ZHCC 031000Z VRB01MPS CAVOK 09/M09 Q1024 NOSIG
ZHCC,2023-12-03 11:00,ZHCC 031100Z 18002MPS CAVOK 08/M08 Q1024 NOSIG
ZHCC,2023-12-03 12:00,ZHCC 031200Z 18002MPS 160V220 CAVOK 08/M08 Q1024 NOSIG
ZHCC,2023-12-03 13:00,ZHCC 031300Z 19002MPS 160V220 CAVOK 07/M08 Q1024 NOSIG
ZHCC,2023-12-03 14:00,ZHCC 031400Z 21002MPS 180V240 CAVOK 08/M08 Q1023 NOSIG
ZHCC,2023-12-03 15:00,ZHCC 031500Z 20002MPS 160V240 CAVOK 08/M08 Q1023 NOSIG
ZHCC,2023-12-03 16:00,ZHCC 031600Z 20002MPS 170V230 CAVOK 08/M07 Q1022 NOSIG
ZHCC,2023-12-03 17:00,ZHCC 031700Z 22001MPS CAVOK 06/M07 Q1021 NOSIG
ZHCC,2023-12-03 18:00,ZHCC 031800Z 20001MPS CAVOK 03/M06 Q1021 NOSIG
ZHCC,2023-12-03 19:00,ZHCC 031900Z VRB01MPS CAVOK 03/M06 Q1020 NOSIG
ZHCC,2023-12-03 20:00,ZHCC 032000Z VRB01MPS CAVOK 02/M06 Q1019 NOSIG
ZHCC,2023-12-03 21:00,ZHCC 032100Z VRB01MPS CAVOK M02/M05 Q1018 NOSIG
ZHCC,2023-12-03 22:00,ZHCC 032200Z VRB01MPS CAVOK M01/M06 Q1018 NOSIG
ZHCC,2023-12-03 23:00,ZHCC 032300Z VRB01MPS CAVOK M02/M06 Q1018 NOSIG
ZHCC,2023-12-04 00:00,ZHCC 040000Z VRB01MPS 8000 NSC 02/M06 Q1018 NOSIG
ZHCC,2023-12-04 01:00,ZHCC 040100Z 24002MPS 8000 NSC 08/M05 Q1018 NOSIG
ZHCC,2023-12-04 02:00,ZHCC 040200Z 24003MPS 210V280 8000 NSC 12/M05 Q1018 NOSIG
ZHCC,2023-12-04 03:00,ZHCC 040300Z 26003MPS 8000 NSC 14/M03 Q1017 NOSIG
ZHCC,2023-12-04 04:00,ZHCC 040400Z 26002MPS 210V290 CAVOK 16/M03 Q1016 NOSIG
ZHCC,2023-12-04 05:00,ZHCC 040500Z 22002MPS 180V260 CAVOK 19/M02 Q1015 NOSIG
ZHCC,2023-12-04 06:00,ZHCC 040600Z 27004MPS 240V300 CAVOK 20/M09 Q1014 NOSIG
ZHCC,2023-12-04 07:00,ZHCC 040700Z 27003MPS 230V300 CAVOK 20/M07 Q1013 NOSIG
ZHCC,2023-12-04 08:00,ZHCC 040800Z 29006MPS CAVOK 19/M11 Q1014 NOSIG
ZHCC,2023-12-04 09:00,ZHCC 040900Z 25002MPS CAVOK 17/M09 Q1014 NOSIG
ZHCC,2023-12-04 10:00,ZHCC 041000Z 26003MPS CAVOK 14/M06 Q1014 NOSIG
ZHCC,2023-12-04 11:00,ZHCC 041100Z 26003MPS CAVOK 14/M07 Q1015 NOSIG
ZHCC,2023-12-04 12:00,ZHCC 041200Z 26003MPS CAVOK 11/M06 Q1015 NOSIG
ZHCC,2023-12-04 13:00,ZHCC 041300Z VRB01MPS CAVOK 09/M06 Q1015 NOSIG
ZHCC,2023-12-04 14:00,ZHCC 041400Z 34001MPS CAVOK 05/M05 Q1016 NOSIG
ZHCC,2023-12-04 15:00,ZHCC 041500Z 00000MPS CAVOK 04/M05 Q1016 NOSIG
ZHCC,2023-12-04 16:00,ZHCC 041600Z VRB01MPS CAVOK 03/M05 Q1016 NOSIG
ZHCC,2023-12-04 17:00,ZHCC 041700Z 00000MPS CAVOK 03/M04 Q1016 NOSIG
ZHCC,2023-12-04 18:00,ZHCC 041800Z VRB01MPS CAVOK 02/M05 Q1016 NOSIG
ZHCC,2023-12-04 19:00,ZHCC 041900Z VRB01MPS CAVOK 04/M04 Q1015 NOSIG
ZHCC,2023-12-04 20:00,ZHCC 042000Z 30001MPS CAVOK 02/M05 Q1015 NOSIG
ZHCC,2023-12-04 21:00,ZHCC 042100Z 27001MPS CAVOK 01/M05 Q1014 NOSIG
ZHCC,2023-12-04 22:00,ZHCC 042200Z 00000MPS CAVOK 01/M05 Q1015 NOSIG
ZHCC,2023-12-04 23:00,ZHCC 042300Z 27001MPS CAVOK M00/M05 Q1015 NOSIG
ZHCC,2023-12-05 00:00,ZHCC 050000Z VRB01MPS CAVOK 01/M04 Q1015 NOSIG
ZHCC,2023-12-05 01:00,ZHCC 050100Z VRB01MPS CAVOK 09/M02 Q1016 NOSIG
ZHCC,2023-12-05 02:00,ZHCC 050200Z VRB01MPS CAVOK 13/M04 Q1016 NOSIG
ZHCC,2023-12-05 03:00,ZHCC 050300Z 20002MPS 140V250 CAVOK 14/02 Q1016 NOSIG
ZHCC,2023-12-05 04:00,ZHCC 050400Z 23002MPS 180V260 8000 NSC 15/02 Q1014 NOSIG
ZHCC,2023-12-05 05:00,ZHCC 050500Z 20002MPS 160V270 8000 NSC 17/03 Q1013 NOSIG
ZHCC,2023-12-05 06:00,ZHCC 050600Z 19003MPS 150V220 8000 NSC 18/03 Q1012 NOSIG
ZHCC,2023-12-05 07:00,ZHCC 050700Z 18003MPS 140V210 8000 NSC 18/04 Q1012 NOSIG
ZHCC,2023-12-05 08:00,ZHCC 050800Z 20002MPS 140V240 8000 NSC 18/04 Q1013 NOSIG
ZHCC,2023-12-05 09:00,ZHCC 050900Z 18002MPS 150V220 8000 NSC 16/03 Q1013 NOSIG
ZHCC,2023-12-05 10:00,ZHCC 051000Z 20003MPS 8000 NSC 15/02 Q1014 BECMG TL1140 30006G12MPS
ZHCC,2023-12-05 11:00,ZHCC 051100Z 21003MPS 8000 NSC 14/02 Q1014 BECMG TL1240 30006G12MPS
ZHCC,2023-12-05 12:00,ZHCC 051200Z 27002MPS 8000 NSC 13/00 Q1015 BECMG TL1340 30008G15MPS
ZHCC,2023-12-05 13:00,ZHCC 051300Z 29006MPS CAVOK 17/M05 Q1016 BECMG TL1440 30011G16MPS
ZHCC,2023-12-05 14:00,ZHCC 051400Z 29007MPS CAVOK 17/M08 Q1017 NOSIG
ZHCC,2023-12-05 15:00,ZHCC 051500Z 29005MPS CAVOK 16/M09 Q1018 NOSIG
ZHCC,2023-12-05 16:00,ZHCC 051600Z 26003MPS CAVOK 14/M08 Q1018 NOSIG
ZHCC,2023-12-05 17:00,ZHCC 051700Z 30009G15MPS CAVOK 16/M08 Q1018 NOSIG
ZHCC,2023-12-05 18:00,ZHCC 051800Z 30008G13MPS CAVOK 14/M08 Q1019 NOSIG
ZHCC,2023-12-05 19:00,ZHCC 051900Z 30010G20MPS CAVOK 14/M08 Q1020 NOSIG
ZHCC,2023-12-05 20:00,ZHCC 052000Z 31010MPS CAVOK 13/M10 Q1020 NOSIG
ZHCC,2023-12-05 21:00,ZHCC 052100Z 31008MPS CAVOK 12/M10 Q1021 NOSIG
ZHCC,2023-12-05 22:00,ZHCC 052200Z 30007MPS CAVOK 11/M10 Q1021 NOSIG
ZHCC,2023-12-05 23:00,ZHCC 052300Z 28007G13MPS CAVOK 11/M10 Q1022 NOSIG
ZHCC,2023-12-06 00:00,ZHCC 060000Z 29005MPS CAVOK 10/M09 Q1022 NOSIG
ZHCC,2023-12-06 01:00,ZHCC 060100Z 29005MPS CAVOK 12/M08 Q1023 NOSIG
ZHCC,2023-12-06 02:00,ZHCC 060200Z 30006MPS CAVOK 13/M08 Q1023 NOSIG
ZHCC,2023-12-06 03:00,ZHCC 060300Z 28009G14MPS CAVOK 14/M09 Q1022 NOSIG
ZHCC,2023-12-06 04:00,ZHCC 060400Z 29009MPS CAVOK 15/M11 Q1021 NOSIG
ZHCC,2023-12-06 05:00,ZHCC 060500Z 30007G12MPS 280V010 CAVOK 16/M10 Q1019 NOSIG
ZHCC,2023-12-06 06:00,ZHCC 060600Z 28006MPS CAVOK 16/M10 Q1018 NOSIG
ZHCC,2023-12-06 07:00,ZHCC 060700Z 27006MPS 240V300 CAVOK 17/M11 Q1017 NOSIG
ZHCC,2023-12-06 08:00,ZHCC 060800Z 24004MPS 210V270 CAVOK 16/M09 Q1017 NOSIG
ZHCC,2023-12-06 09:00,ZHCC 060900Z 22002MPS 190V250 CAVOK 15/M08 Q1016 NOSIG
ZHCC,2023-12-06 10:00,ZHCC 061000Z 23003MPS CAVOK 13/M07 Q1016 NOSIG
ZHCC,2023-12-06 11:00,ZHCC 061100Z 20003MPS CAVOK 14/M09 Q1016 NOSIG
ZHCC,2023-12-06 12:00,ZHCC 061200Z 22003MPS CAVOK 13/M09 Q1016 NOSIG
ZHCC,2023-12-06 13:00,ZHCC 061300Z 21003MPS CAVOK 13/M09 Q1016 NOSIG
ZHCC,2023-12-06 14:00,ZHCC 061400Z 21003MPS CAVOK 12/M09 Q1016 NOSIG
ZHCC,2023-12-06 15:00,ZHCC 061500Z 21002MPS 180V240 CAVOK 12/M08 Q1015 NOSIG
ZHCC,2023-12-06 16:00,ZHCC 061600Z 16002MPS CAVOK 09/M07 Q1015 NOSIG
ZHCC,2023-12-06 17:00,ZHCC 061700Z 21002MPS CAVOK 09/M07 Q1014 NOSIG
ZHCC,2023-12-06 18:00,ZHCC 061800Z 19002MPS CAVOK 09/M07 Q1014 NOSIG
ZHCC,2023-12-06 19:00,ZHCC 061900Z VRB01MPS CAVOK 08/M07 Q1013 NOSIG
ZHCC,2023-12-06 20:00,ZHCC 062000Z VRB01MPS CAVOK 05/M06 Q1012 NOSIG
ZHCC,2023-12-06 21:00,ZHCC 062100Z VRB01MPS CAVOK 03/M05 Q1011 NOSIG
ZHCC,2023-12-06 22:00,ZHCC 062200Z VRB01MPS CAVOK 02/M05 Q1011 NOSIG
ZHCC,2023-12-06 23:00,ZHCC 062300Z 22002MPS CAVOK 04/M04 Q1011 NOSIG
ZHCC,2023-12-07 00:00,ZHCC 070000Z 00000MPS CAVOK 03/M04 Q1011 NOSIG
ZHCC,2023-12-07 01:00,ZHCC 070100Z 20001MPS CAVOK 12/M04 Q1011 NOSIG
ZHCC,2023-12-07 02:00,ZHCC 070200Z 21002MPS CAVOK 16/M06 Q1011 NOSIG
ZHCC,2023-12-07 03:00,ZHCC 070300Z 20003MPS CAVOK 19/M05 Q1011 NOSIG
ZHCC,2023-12-07 04:00,ZHCC 070400Z 20004MPS CAVOK 20/M03 Q1009 NOSIG
ZHCC,2023-12-07 05:00,ZHCC 070500Z 21004MPS 160V260 CAVOK 20/M03 Q1008 NOSIG
ZHCC,2023-12-07 06:00,ZHCC 070600Z 18004MPS 140V230 CAVOK 21/M02 Q1007 NOSIG
ZHCC,2023-12-07 07:00,ZHCC 070700Z 19004MPS 160V230 CAVOK 21/M02 Q1007 NOSIG
ZHCC,2023-12-07 08:00,ZHCC 070800Z 20005G10MPS CAVOK 21/M02 Q1007 NOSIG
ZHCC,2023-12-07 09:00,ZHCC 070900Z 20005MPS CAVOK 20/M01 Q1006 NOSIG
ZHCC,2023-12-07 10:00,ZHCC 071000Z 21004MPS CAVOK 18/M01 Q1007 NOSIG
ZHCC,2023-12-07 11:00,ZHCC 071100Z 19003MPS 160V230 CAVOK 17/00 Q1007 NOSIG
ZHCC,2023-12-07 12:00,ZHCC 071200Z 21005MPS CAVOK 18/M00 Q1008 NOSIG
ZHCC,2023-12-07 13:00,ZHCC 071300Z 21004MPS CAVOK 17/M00 Q1008 NOSIG
ZHCC,2023-12-07 14:00,ZHCC 071400Z 21003MPS CAVOK 15/00 Q1008 NOSIG
ZHCC,2023-12-07 15:00,ZHCC 071500Z 20002MPS CAVOK 15/00 Q1008 NOSIG
ZHCC,2023-12-07 16:00,ZHCC 071600Z 22002MPS 190V260 CAVOK 14/01 Q1008 NOSIG
ZHCC,2023-12-07 17:00,ZHCC 071700Z 23003MPS CAVOK 14/00 Q1008 NOSIG
ZHCC,2023-12-07 18:00,ZHCC 071800Z 24002MPS CAVOK 11/M01 Q1008 NOSIG
ZHCC,2023-12-07 19:00,ZHCC 071900Z 00000MPS CAVOK 08/M01 Q1007 NOSIG
ZHCC,2023-12-07 20:00,ZHCC 072000Z 00000MPS CAVOK 05/M02 Q1007 NOSIG
ZHCC,2023-12-07 21:00,ZHCC 072100Z 20001MPS CAVOK 05/M01 Q1007 NOSIG
ZHCC,2023-12-07 22:00,ZHCC 072200Z 19002MPS CAVOK 05/M02 Q1007 NOSIG
ZHCC,2023-12-07 23:00,ZHCC 072300Z VRB01MPS CAVOK 05/M02 Q1008 NOSIG
ZHCC,2023-12-08 00:00,ZHCC 080000Z VRB01MPS CAVOK 07/M01 Q1008 NOSIG
ZHCC,2023-12-08 01:00,ZHCC 080100Z VRB01MPS CAVOK 14/01 Q1009 NOSIG
ZHCC,2023-12-08 02:00,ZHCC 080200Z 24003MPS 220V280 CAVOK 18/M02 Q1009 NOSIG
ZHCC,2023-12-08 03:00,ZHCC 080300Z 19002MPS 150V220 CAVOK 21/M00 Q1009 NOSIG
ZHCC,2023-12-08 04:00,ZHCC 080400Z 19003MPS 150V210 CAVOK 21/01 Q1008 NOSIG
ZHCC,2023-12-08 05:00,ZHCC 080500Z 17003MPS 130V210 CAVOK 22/03 Q1007 NOSIG
ZHCC,2023-12-08 06:00,ZHCC 080600Z 18003MPS 160V220 CAVOK 22/03 Q1007 NOSIG
ZHCC,2023-12-08 07:00,ZHCC 080700Z 19006MPS CAVOK 22/03 Q1007 NOSIG
ZHCC,2023-12-08 08:00,ZHCC 080800Z 18004MPS 140V220 CAVOK 20/05 Q1007 NOSIG
ZHCC,2023-12-08 09:00,ZHCC 080900Z 18003MPS 160V220 CAVOK 18/06 Q1007 NOSIG
ZHCC,2023-12-08 10:00,ZHCC 081000Z 18003MPS CAVOK 18/05 Q1008 NOSIG
ZHCC,2023-12-08 11:00,ZHCC 081100Z 18003MPS 150V220 CAVOK 17/05 Q1009 NOSIG
ZHCC,2023-12-08 12:00,ZHCC 081200Z 19003MPS 160V220 CAVOK 16/06 Q1009 NOSIG
ZHCC,2023-12-08 13:00,ZHCC 081300Z VRB01MPS CAVOK 15/05 Q1009 NOSIG
ZHCC,2023-12-08 14:00,ZHCC 081400Z 24001MPS CAVOK 10/04 Q1010 NOSIG
ZHCC,2023-12-08 15:00,ZHCC 081500Z 00000MPS CAVOK 08/04 Q1010 NOSIG
ZHCC,2023-12-08 16:00,ZHCC 081600Z VRB01MPS CAVOK 08/04 Q1010 NOSIG
ZHCC,2023-12-08 17:00,ZHCC 081700Z 29001MPS CAVOK 06/03 Q1010 NOSIG
ZHCC,2023-12-08 18:00,ZHCC 081800Z VRB01MPS CAVOK 07/03 Q1010 NOSIG
ZHCC,2023-12-08 19:00,ZHCC 081900Z 18001MPS CAVOK 06/03 Q1010 NOSIG
ZHCC,2023-12-08 20:00,ZHCC 082000Z 00000MPS CAVOK 07/02 Q1011 NOSIG
ZHCC,2023-12-08 21:00,ZHCC 082100Z VRB01MPS CAVOK 05/02 Q1011 NOSIG
ZHCC,2023-12-08 22:00,ZHCC 082200Z VRB01MPS CAVOK 06/03 Q1011 NOSIG
ZHCC,2023-12-08 23:00,ZHCC 082300Z VRB01MPS CAVOK 03/M00 Q1012 NOSIG
ZHCC,2023-12-09 00:00,ZHCC 090000Z 36005MPS 300V060 CAVOK 12/03 Q1013 NOSIG
ZHCC,2023-12-09 01:00,ZHCC 090100Z 03006G11MPS CAVOK 11/04 Q1015 NOSIG
ZHCC,2023-12-09 02:00,ZHCC 090200Z 04007MPS 3500 HZ NSC 11/04 Q1016 NOSIG
ZHCC,2023-12-09 03:00,ZHCC 090300Z 03006MPS 010V070 3500 HZ NSC 12/04 Q1016 NOSIG
ZHCC,2023-12-09 04:00,ZHCC 090400Z 04007MPS 3500 HZ NSC 13/03 Q1016 NOSIG
ZHCC,2023-12-09 05:00,ZHCC 090500Z 04006MPS 3500 HZ NSC 14/03 Q1015 NOSIG
ZHCC,2023-12-09 06:00,ZHCC 090600Z 04006MPS 360V070 3500 HZ NSC 13/03 Q1015 NOSIG
ZHCC,2023-12-09 07:00,ZHCC 090700Z 03007MPS 350V060 3500 HZ NSC 11/04 Q1015 NOSIG
ZHCC,2023-12-09 08:00,ZHCC 090800Z 04007MPS 4000 HZ NSC 10/04 Q1016 NOSIG
ZHCC,2023-12-09 09:00,ZHCC 090900Z 03006MPS 360V060 4000 HZ NSC 08/03 Q1017 NOSIG
ZHCC,2023-12-09 10:00,ZHCC 091000Z 03008MPS 350V050 7000 NSC 07/02 Q1018 NOSIG
ZHCC,2023-12-09 11:00,ZHCC 091100Z 03008MPS 7000 NSC 07/02 Q1018 NOSIG
ZHCC,2023-12-09 12:00,ZHCC 091200Z 03008MPS 7000 NSC 07/02 Q1019 NOSIG
ZHCC,2023-12-09 13:00,ZHCC 091300Z 03008MPS 360V060 7000 NSC 07/02 Q1020 NOSIG
ZHCC,2023-12-09 14:00,ZHCC 091400Z 02008MPS 350V060 7000 NSC 07/01 Q1021 NOSIG
ZHCC,2023-12-09 15:00,ZHCC 091500Z 03009MPS 360V060 CAVOK 07/M00 Q1021 NOSIG
ZHCC,2023-12-09 16:00,ZHCC 091600Z 03008MPS CAVOK 07/M00 Q1022 NOSIG
ZHCC,2023-12-09 17:00,ZHCC 091700Z 03010MPS CAVOK 06/M01 Q1022 NOSIG
ZHCC,2023-12-09 18:00,ZHCC 091800Z 03009MPS 9999 BKN030 06/M01 Q1022 NOSIG
ZHCC,2023-12-09 19:00,ZHCC 091900Z 02008MPS 360V060 9999 OVC030 05/M01 Q1022 NOSIG
ZHCC,2023-12-09 20:00,ZHCC 092000Z 04008MPS 9999 OVC030 05/M00 Q1023 NOSIG
ZHCC,2023-12-09 21:00,ZHCC 092100Z 04009MPS 9999 OVC030 04/00 Q1024 NOSIG
ZHCC,2023-12-09 22:00,ZHCC 092200Z 03007G13MPS 8000 -RA OVC030 04/00 Q1024 NOSIG
ZHCC,2023-12-09 23:00,ZHCC 092300Z 02009G14MPS 8000 -RA OVC030 03/00 Q1024 NOSIG
ZHCC,2023-12-10 00:00,ZHCC 100000Z 03009MPS 360V060 6000 -RA OVC030 03/00 Q1025 NOSIG
ZHCC,2023-12-10 01:00,ZHCC 100100Z 02007MPS 350V050 5000 -RA BR OVC030 03/01 Q1027 NOSIG
ZHCC,2023-12-10 02:00,ZHCC 100200Z 02007MPS 4000 -RA BR OVC020 02/01 Q1027 NOSIG
ZHCC,2023-12-10 03:00,ZHCC 100300Z 02008MPS 4000 -RA BR OVC020 02/00 Q1027 NOSIG
ZHCC,2023-12-10 04:00,ZHCC 100400Z 02007MPS 7000 -RA OVC020 02/00 Q1027 NOSIG
ZHCC,2023-12-10 05:00,ZHCC 100500Z 03007G13MPS 350V050 5000 -RA BR OVC020 02/00 Q1026 NOSIG
ZHCC,2023-12-10 06:00,ZHCC 100600Z 03009G14MPS 4000 -RA BR OVC020 01/M00 Q1025 NOSIG
ZHCC,2023-12-10 07:00,ZHCC 100700Z 03009G14MPS 5000 BR OVC020 01/M01 Q1025 NOSIG
ZHCC,2023-12-10 08:00,ZHCC 100800Z 03009MPS 6000 OVC020 01/M01 Q1025 NOSIG
ZHCC,2023-12-10 09:00,ZHCC 100900Z 03007MPS 360V060 4000 -RA BR OVC020 01/M01 Q1025 NOSIG
ZHCC,2023-12-10 10:00,ZHCC 101000Z 03008G13MPS 360V060 6000 OVC020 01/M01 Q1025 NOSIG
ZHCC,2023-12-10 11:00,ZHCC 101100Z 02008G13MPS 350V050 8000 OVC020 01/M01 Q1026 NOSIG
ZHCC,2023-12-10 12:00,ZHCC 101200Z 02007G12MPS 8000 OVC020 01/M01 Q1027 NOSIG
ZHCC,2023-12-10 13:00,ZHCC 101300Z 03008G14MPS 8000 -RA OVC020 01/M02 Q1026 NOSIG
ZHCC,2023-12-10 14:00,ZHCC 101400Z 02006MPS 8000 -PLSN OVC020 01/M02 Q1027 NOSIG
ZHCC,2023-12-10 15:00,ZHCC 101500Z 01007MPS 340V040 0800 R12R/1300N R12L/1400N SN OVC020 M01/M01 Q1027 NOSIG
ZHCC,2023-12-10 16:00,ZHCC 101600Z 02009MPS 2000 -SN OVC020 M01/M01 Q1027 RESN NOSIG
ZHCC,2023-12-10 17:00,ZHCC 101700Z 01008MPS 1600 -SN OVC020 M01/M02 Q1028 NOSIG
ZHCC,2023-12-10 18:00,ZHCC 101800Z 01008MPS 1600 -SN OVC020 M01/M02 Q1028 NOSIG
ZHCC,2023-12-10 19:00,ZHCC 101900Z 02006MPS 0900 R12R/1100N R12L/1200N SN OVC020 M02/M02 Q1028 NOSIG
ZHCC,2023-12-10 20:00,ZHCC 102000Z 03005MPS 340V050 2000 -SN OVC020 M02/M02 Q1027 RESN BECMG TL2040 3000
ZHCC,2023-12-10 21:00,ZHCC 102100Z 02006MPS 350V070 4000 -SN BR OVC020 M02/M04 Q1028 NOSIG
ZHCC,2023-12-10 22:00,ZHCC 102200Z 36007MPS 340V040 8000 -SN OVC020 M03/M05 Q1029 NOSIG
ZHCC,2023-12-10 23:00,ZHCC 102300Z 01006MPS 3000 -SN BR OVC020 M03/M04 Q1029 BECMG TL2350 2500
ZHCC,2023-12-11 00:00,ZHCC 110000Z 02005MPS 8000 -SN OVC040 M02/M05 Q1029 NOSIG
ZHCC,2023-12-11 01:00,ZHCC 110100Z 01005MPS 340V040 9999 BKN040 M01/M05 Q1030 NOSIG
ZHCC,2023-12-11 02:00,ZHCC 110200Z 36006MPS 9999 FEW020 BKN040 M01/M04 Q1031 NOSIG
ZHCC,2023-12-11 03:00,ZHCC 110300Z 01005MPS 9999 FEW020 BKN040 M01/M04 Q1030 NOSIG
ZHCC,2023-12-11 04:00,ZHCC 110400Z 01005MPS 9999 FEW020 BKN040 M01/M04 Q1030 NOSIG
ZHCC,2023-12-11 05:00,ZHCC 110500Z 35004MPS 330V040 9999 FEW020 SCT040 01/M04 Q1029 NOSIG
ZHCC,2023-12-11 06:00,ZHCC 110600Z 02004MPS 350V050 9999 FEW020 BKN033 00/M04 Q1029 NOSIG
ZHCC,2023-12-11 07:00,ZHCC 110700Z 01004MPS 340V050 9999 OVC030 M00/M04 Q1028 NOSIG
ZHCC,2023-12-11 08:00,ZHCC 110800Z 03004MPS 9999 OVC030 M01/M04 Q1028 NOSIG
ZHCC,2023-12-11 09:00,ZHCC 110900Z 02004MPS 9999 OVC030 M01/M05 Q1028 NOSIG
ZHCC,2023-12-11 10:00,ZHCC 111000Z 02002MPS 350V060 9999 OVC030 M01/M04 Q1029 NOSIG
ZHCC,2023-12-11 11:00,ZHCC 111100Z 01002MPS 9999 OVC030 M01/M05 Q1030 NOSIG
ZHCC,2023-12-11 12:00,ZHCC 111200Z 01003MPS 9999 OVC030 M01/M05 Q1031 NOSIG
ZHCC,2023-12-11 13:00,ZHCC 111300Z 01003MPS CAVOK M01/M05 Q1030 NOSIG
ZHCC,2023-12-11 14:00,ZHCC 111400Z 05001MPS 9999 SCT030 M01/M05 Q1031 NOSIG
ZHCC,2023-12-11 15:00,ZHCC 111500Z 28002MPS 9999 SCT030 M02/M05 Q1030 NOSIG
ZHCC,2023-12-11 16:00,ZHCC 111600Z 00000MPS 9999 SCT030 M02/M05 Q1030 NOSIG
ZHCC,2023-12-11 17:00,ZHCC 111700Z 11003MPS 8000 FEW030 M02/M04 Q1029 NOSIG
ZHCC,2023-12-11 18:00,ZHCC 111800Z VRB01MPS 8000 SCT030 M01/M04 Q1029 NOSIG
ZHCC,2023-12-11 19:00,ZHCC 111900Z 02002MPS 340V050 8000 BKN020 M01/M05 Q1029 NOSIG
ZHCC,2023-12-11 20:00,ZHCC 112000Z 05002MPS 8000 OVC020 M01/M05 Q1029 NOSIG
ZHCC,2023-12-11 21:00,ZHCC 112100Z 08002MPS 040V110 8000 OVC020 M02/M05 Q1029 NOSIG
ZHCC,2023-12-11 22:00,ZHCC 112200Z 08002MPS 030V100 7000 OVC020 M02/M05 Q1029 NOSIG
ZHCC,2023-12-11 23:00,ZHCC 112300Z VRB01MPS 7000 OVC020 M02/M05 Q1029 NOSIG
ZHCC,2023-12-12 00:00,ZHCC 120000Z 11001MPS 6000 OVC020 M02/M05 Q1030 NOSIG
ZHCC,2023-12-12 01:00,ZHCC 120100Z VRB01MPS 6000 OVC020 M01/M05 Q1030 NOSIG
ZHCC,2023-12-12 02:00,ZHCC 120200Z 00000MPS 6000 OVC020 M01/M05 Q1031 NOSIG
ZHCC,2023-12-12 03:00,ZHCC 120300Z VRB01MPS 6000 OVC020 M00/M05 Q1030 NOSIG
ZHCC,2023-12-12 04:00,ZHCC 120400Z 14002MPS 100V170 6000 OVC020 00/M04 Q1030 NOSIG
ZHCC,2023-12-12 05:00,ZHCC 120500Z VRB01MPS 6000 OVC020 00/M04 Q1028 NOSIG
ZHCC,2023-12-12 06:00,ZHCC 120600Z VRB01MPS 6000 OVC020 01/M03 Q1027 NOSIG
ZHCC,2023-12-12 07:00,ZHCC 120700Z VRB01MPS 6000 OVC020 01/M03 Q1026 NOSIG
ZHCC,2023-12-12 08:00,ZHCC 120800Z 12002MPS 6000 OVC020 01/M03 Q1026 NOSIG
ZHCC,2023-12-12 09:00,ZHCC 120900Z VRB01MPS 6000 OVC020 00/M03 Q1026 NOSIG
ZHCC,2023-12-12 10:00,ZHCC 121000Z 12001MPS 6000 OVC020 00/M03 Q1026 NOSIG
ZHCC,2023-12-12 11:00,ZHCC 121100Z 09004MPS 6000 OVC020 M00/M03 Q1027 NOSIG
ZHCC,2023-12-12 12:00,ZHCC 121200Z 08005MPS 7000 OVC026 M00/M04 Q1026 NOSIG
ZHCC,2023-12-12 13:00,ZHCC 121300Z 09004MPS 5000 BR OVC026 M01/M03 Q1026 NOSIG
ZHCC,2023-12-12 14:00,ZHCC 121400Z 09003MPS 5000 BR OVC020 M01/M03 Q1027 NOSIG
ZHCC,2023-12-12 15:00,ZHCC 121500Z 09004MPS 4500 BR OVC020 M01/M03 Q1027 NOSIG
ZHCC,2023-12-12 16:00,ZHCC 121600Z 09005MPS 4500 BR OVC020 M01/M03 Q1026 NOSIG
ZHCC,2023-12-12 17:00,ZHCC 121700Z 10004MPS 4500 BR OVC020 M02/M03 Q1026 NOSIG
ZHCC,2023-12-12 18:00,ZHCC 121800Z 11003MPS 4500 BR OVC020 M01/M02 Q1026 NOSIG
ZHCC,2023-12-12 19:00,ZHCC 121900Z 09004MPS 4500 -PL BR OVC020 M01/M03 Q1025 NOSIG
ZHCC,2023-12-12 20:00,ZHCC 122000Z 09003MPS 4500 BR OVC020 M01/M03 Q1025 NOSIG
ZHCC,2023-12-12 21:00,ZHCC 122100Z 06002MPS 4500 -RA BR OVC020 M01/M02 Q1024 NOSIG
ZHCC,2023-12-12 22:00,ZHCC 122200Z 04003MPS 4500 BR OVC020 M01/M02 Q1024 REFZRA NOSIG
ZHCC,2023-12-12 23:00,ZHCC 122300Z 05003MPS 4500 BR OVC020 M01/M02 Q1024 NOSIG
ZHCC,2023-12-13 00:00,ZHCC 130000Z 04004MPS 3000 BR OVC020 M01/M02 Q1025 NOSIG
ZHCC,2023-12-13 01:00,ZHCC 130100Z 04005MPS 3000 BR OVC020 M01/M02 Q1025 NOSIG
ZHCC,2023-12-13 02:00,ZHCC 130200Z 04004MPS 1300 R12R/1800N R12L/1700N BR OVC020 M01/M02 Q1025 NOSIG
ZHCC,2023-12-13 03:00,ZHCC 130300Z 03004MPS 1100 R12R/1600N R12L/1400N -DZ BR OVC005 M01/M01 Q1025 NOSIG
ZHCC,2023-12-13 04:00,ZHCC 130400Z 03004MPS 1100 R12R/1600N R12L/1300N -FZDZ BR OVC005 M01/M01 Q1024 NOSIG
ZHCC,2023-12-13 05:00,ZHCC 130500Z 02004MPS 350V050 1100 R12R/1700N R12L/1500N -FZDZ BR OVC005 M01/M01 Q1024 NOSIG
ZHCC,2023-12-13 06:00,ZHCC 130600Z 04005MPS 1100 R12R/1600N R12L/1300N -FZDZ BR OVC005 M00/M01 Q1023 NOSIG
ZHCC,2023-12-13 07:00,ZHCC 130700Z 03005MPS 360V070 1100 R12R/1800N R12L/1400N -DZ BR OVC003 M01/M01 Q1023 REFZDZ NOSIG
ZHCC,2023-12-13 08:00,ZHCC 130800Z 03005MPS 010V070 1100 R12R/1900N R12L/1600N -DZ BR OVC004 M01/M01 Q1023 NOSIG
ZHCC,2023-12-13 09:00,ZHCC 130900Z 03006MPS 1400 R12R/P2000 R12L/P2000 -FZDZ BR OVC004 M01/M01 Q1023 BECMG TL1020 1600
ZHCC,2023-12-13 10:00,ZHCC 131000Z 03005MPS 360V060 2500 -FZDZ BR OVC004 M01/M01 Q1024 NOSIG
ZHCC,2023-12-13 11:00,ZHCC 131100Z 02005MPS 350V060 2200 -FZDZ BR OVC004 M01/M01 Q1024 NOSIG
ZHCC,2023-12-13 12:00,ZHCC 131200Z 03005MPS 360V060 2200 -FZDZ BR OVC004 M01/M01 Q1025 NOSIG
ZHCC,2023-12-13 13:00,ZHCC 131300Z 03005MPS 2500 -FZDZ BR OVC004 M01/M01 Q1025 NOSIG
ZHCC,2023-12-13 14:00,ZHCC 131400Z 02005MPS 2500 -FZDZ BR OVC004 M01/M01 Q1026 NOSIG
ZHCC,2023-12-13 15:00,ZHCC 131500Z 03006MPS 2500 -FZDZ BR OVC004 M01/M02 Q1026 NOSIG
ZHCC,2023-12-13 16:00,ZHCC 131600Z 02005MPS 2500 -FZDZ BR OVC006 M01/M02 Q1026 BECMG TL1700 3000
ZHCC,2023-12-13 17:00,ZHCC 131700Z 02006MPS 3000 -FZDZ BR OVC006 M01/M02 Q1025 NOSIG
ZHCC,2023-12-13 18:00,ZHCC 131800Z 02005MPS 360V060 3000 -FZDZ BR OVC006 M01/M02 Q1025 NOSIG
ZHCC,2023-12-13 19:00,ZHCC 131900Z 02005MPS 3500 -FZDZ BR OVC009 M01/M02 Q1025 NOSIG
ZHCC,2023-12-13 20:00,ZHCC 132000Z 02005MPS 340V050 3500 BR OVC009 M01/M02 Q1024 REFZDZ NOSIG
ZHCC,2023-12-13 21:00,ZHCC 132100Z 03006MPS 360V060 3500 -FZDZ BR OVC009 M01/M02 Q1024 NOSIG
ZHCC,2023-12-13 22:00,ZHCC 132200Z 03005MPS 3000 -FZDZ BR OVC006 M01/M02 Q1024 BECMG TL2340 2000
ZHCC,2023-12-13 23:00,ZHCC 132300Z 03007MPS 4000 -FZDZ BR OVC006 M01/M02 Q1024 NOSIG
ZHCC,2023-12-14 00:00,ZHCC 140000Z 03005MPS 3000 BR OVC006 M01/M02 Q1024 REFZDZ NOSIG
ZHCC,2023-12-14 01:00,ZHCC 140100Z 01007MPS 2000 -FZRA BR SCT004 OVC020 M01/M02 Q1024 NOSIG
ZHCC,2023-12-14 02:00,ZHCC 140200Z 02006MPS 2500 -FZRA BR SCT004 OVC020 M01/M02 Q1024 NOSIG
ZHCC,2023-12-14 03:00,ZHCC 140300Z 01005MPS 2000 -FZRA BR SCT004 OVC020 M01/M01 Q1024 NOSIG
ZHCC,2023-12-14 04:00,ZHCC 140400Z 01006MPS 2500 -FZRA BR SCT004 OVC020 M01/M02 Q1024 BECMG TL0540 3000
ZHCC,2023-12-14 05:00,ZHCC 140500Z 02005MPS 350V050 3000 -SNRA BR SCT004 OVC020 M00/M01 Q1023 REFZRA BECMG TL0640 2000
ZHCC,2023-12-14 06:00,ZHCC 140600Z 01004MPS 3000 -SNRA BR SCT004 OVC020 M00/M01 Q1022 BECMG TL0740 2000
ZHCC,2023-12-14 07:00,ZHCC 140700Z 02006MPS 8000 -SNRA SCT004 OVC020 M00/M02 Q1021 NOSIG
ZHCC,2023-12-14 08:00,ZHCC 140800Z 02006MPS 5000 -PL BR SCT006 OVC020 M00/M02 Q1022 NOSIG
ZHCC,2023-12-14 09:00,ZHCC 140900Z 02003MPS 350V050 6000 TS -FZRAPL SCT006 FEW020CB BKN020 M00/M01 Q1023 BECMG TL1040 -SHSN
ZHCC,2023-12-14 10:00,ZHCC 141000Z 36004MPS 6000 -FZRAPL SCT006 FEW020CB BKN020 M00/M01 Q1024 RETS NOSIG
ZHCC,2023-12-14 11:00,ZHCC 141100Z 36005MPS 6000 -FZPLRA SCT006 FEW020CB BKN020 M00/M02 Q1025 NOSIG
ZHCC,2023-12-14 12:00,ZHCC 141200Z 01005MPS 6000 -SHRASN SCT010 FEW020CB BKN020 M01/M02 Q1024 REFZRA NOSIG
ZHCC,2023-12-14 13:00,ZHCC 141300Z 36004MPS 8000 SCT010 FEW020CB BKN030 M00/M02 Q1025 NOSIG
ZHCC,2023-12-14 14:00,ZHCC 141400Z 36003MPS 8000 SCT010 FEW023CB BKN030 M01/M02 Q1025 NOSIG
ZHCC,2023-12-14 15:00,ZHCC 141500Z 36004MPS 8000 FEW015 BKN030 M01/M03 Q1026 NOSIG
ZHCC,2023-12-14 16:00,ZHCC 141600Z 35003MPS 8000 BKN030 M01/M03 Q1026 NOSIG
ZHCC,2023-12-14 17:00,ZHCC 141700Z 01004MPS 9999 BKN030 M01/M04 Q1026 NOSIG
ZHCC,2023-12-14 18:00,ZHCC 141800Z 02002MPS 350V050 9999 BKN030 M02/M04 Q1027 NOSIG
ZHCC,2023-12-14 19:00,ZHCC 141900Z 03002MPS 9999 OVC020 M01/M04 Q1027 NOSIG
ZHCC,2023-12-14 20:00,ZHCC 142000Z 04002MPS 9999 OVC020 M02/M04 Q1027 NOSIG
ZHCC,2023-12-14 21:00,ZHCC 142100Z 02003MPS 9999 OVC020 M02/M04 Q1027 NOSIG
ZHCC,2023-12-14 22:00,ZHCC 142200Z 03004MPS 9999 OVC020 M03/M05 Q1026 NOSIG
ZHCC,2023-12-14 23:00,ZHCC 142300Z 04003MPS 8000 NSC M03/M05 Q1027 NOSIG
ZHCC,2023-12-15 00:00,ZHCC 150000Z 02003MPS 7000 NSC M03/M05 Q1028 NOSIG
ZHCC,2023-12-15 01:00,ZHCC 150100Z 36003MPS 8000 NSC M02/M05 Q1030 NOSIG
ZHCC,2023-12-15 02:00,ZHCC 150200Z 35003MPS 8000 BKN030 M02/M05 Q1031 NOSIG
ZHCC,2023-12-15 03:00,ZHCC 150300Z 36003MPS 320V020 3000 -SN BR OVC030 M02/M04 Q1032 NOSIG
ZHCC,2023-12-15 04:00,ZHCC 150400Z 34002MPS 310V010 3000 -SN BR OVC030 M02/M03 Q1032 NOSIG
ZHCC,2023-12-15 05:00,ZHCC 150500Z 05003MPS 330V080 3000 -SN BR OVC030 M02/M04 Q1032 NOSIG
ZHCC,2023-12-15 06:00,ZHCC 150600Z 30006MPS 6000 -SN OVC030 M01/M07 Q1033 NOSIG
ZHCC,2023-12-15 07:00,ZHCC 150700Z 31006MPS 4500 -SN OVC030 M02/M06 Q1033 NOSIG
ZHCC,2023-12-15 08:00,ZHCC 150800Z 30006MPS 1000 R30L/1300N R30R/1400N -SN OVC016 M03/M04 Q1034 NOSIG
ZHCC,2023-12-15 09:00,ZHCC 150900Z 30007MPS 9999 OVC040 M02/M07 Q1035 NOSIG
ZHCC,2023-12-15 10:00,ZHCC 151000Z 29007MPS CAVOK M02/M09 Q1035 NOSIG
ZHCC,2023-12-15 11:00,ZHCC 151100Z 30007MPS CAVOK M02/M09 Q1036 NOSIG
ZHCC,2023-12-15 12:00,ZHCC 151200Z 29007MPS CAVOK M02/M10 Q1037 NOSIG
ZHCC,2023-12-15 13:00,ZHCC 151300Z 29008MPS CAVOK M02/M11 Q1037 NOSIG
ZHCC,2023-12-15 14:00,ZHCC 151400Z 30009MPS CAVOK M02/M12 Q1038 NOSIG
ZHCC,2023-12-15 15:00,ZHCC 151500Z 30009G14MPS CAVOK M03/M14 Q1038 NOSIG
ZHCC,2023-12-15 16:00,ZHCC 151600Z 29007G12MPS CAVOK M03/M13 Q1038 NOSIG
ZHCC,2023-12-15 17:00,ZHCC 151700Z 30007G12MPS CAVOK M04/M14 Q1038 NOSIG
ZHCC,2023-12-15 18:00,ZHCC 151800Z 30007MPS CAVOK M04/M14 Q1038 NOSIG
ZHCC,2023-12-15 19:00,ZHCC 151900Z 29007G12MPS CAVOK M04/M14 Q1038 NOSIG
ZHCC,2023-12-15 20:00,ZHCC 152000Z 28006MPS CAVOK M05/M13 Q1038 NOSIG
ZHCC,2023-12-15 21:00,ZHCC 152100Z 27005MPS CAVOK M05/M13 Q1038 NOSIG
ZHCC,2023-12-15 22:00,ZHCC 152200Z 26005MPS CAVOK M05/M13 Q1038 NOSIG
ZHCC,2023-12-15 23:00,ZHCC 152300Z 27005MPS CAVOK M05/M13 Q1039 NOSIG
ZHCC,2023-12-16 00:00,ZHCC 160000Z 27006MPS CAVOK M05/M14 Q1040 NOSIG
ZHCC,2023-12-16 01:00,ZHCC 160100Z 28007MPS CAVOK M04/M13 Q1040 NOSIG
ZHCC,2023-12-16 02:00,ZHCC 160200Z 28006MPS CAVOK M03/M13 Q1041 NOSIG
ZHCC,2023-12-16 03:00,ZHCC 160300Z 28010MPS CAVOK M03/M15 Q1040 NOSIG
ZHCC,2023-12-16 04:00,ZHCC 160400Z 28008MPS CAVOK M02/M14 Q1040 NOSIG
ZHCC,2023-12-16 05:00,ZHCC 160500Z 30009G14MPS CAVOK M02/M14 Q1039 NOSIG
ZHCC,2023-12-16 06:00,ZHCC 160600Z 30008MPS CAVOK M02/M13 Q1038 NOSIG
ZHCC,2023-12-16 07:00,ZHCC 160700Z 28007MPS CAVOK M01/M14 Q1038 NOSIG
ZHCC,2023-12-16 08:00,ZHCC 160800Z 29006MPS CAVOK M02/M14 Q1038 NOSIG
ZHCC,2023-12-16 09:00,ZHCC 160900Z 28004MPS CAVOK M02/M14 Q1038 NOSIG
ZHCC,2023-12-16 10:00,ZHCC 161000Z 27002MPS CAVOK M03/M13 Q1039 NOSIG
ZHCC,2023-12-16 11:00,ZHCC 161100Z VRB01MPS CAVOK M04/M11 Q1040 NOSIG
ZHCC,2023-12-16 12:00,ZHCC 161200Z 27002MPS CAVOK M04/M11 Q1040 NOSIG
ZHCC,2023-12-16 13:00,ZHCC 161300Z 29005MPS CAVOK M03/M13 Q1040 NOSIG
ZHCC,2023-12-16 14:00,ZHCC 161400Z 29004MPS CAVOK M03/M13 Q1041 NOSIG
ZHCC,2023-12-16 15:00,ZHCC 161500Z 28004MPS 250V310 CAVOK M04/M14 Q1041 NOSIG
ZHCC,2023-12-16 16:00,ZHCC 161600Z 29003MPS CAVOK M04/M15 Q1040 NOSIG
ZHCC,2023-12-16 17:00,ZHCC 161700Z 30004MPS CAVOK M05/M16 Q1040 NOSIG
ZHCC,2023-12-16 18:00,ZHCC 161800Z 30003MPS CAVOK M05/M17 Q1039 NOSIG
ZHCC,2023-12-16 19:00,ZHCC 161900Z 30002MPS CAVOK M06/M17 Q1039 NOSIG
ZHCC,2023-12-16 20:00,ZHCC 162000Z 24002MPS CAVOK M06/M15 Q1039 NOSIG
ZHCC,2023-12-16 21:00,ZHCC 162100Z VRB01MPS CAVOK M08/M14 Q1039 NOSIG
ZHCC,2023-12-16 22:00,ZHCC 162200Z VRB01MPS CAVOK M09/M14 Q1039 NOSIG
ZHCC,2023-12-16 23:00,ZHCC 162300Z VRB01MPS CAVOK M10/M14 Q1039 NOSIG
ZHCC,2023-12-17 00:00,ZHCC 170000Z VRB01MPS CAVOK M10/M13 Q1039 NOSIG
ZHCC,2023-12-17 01:00,ZHCC 170100Z 22002MPS CAVOK M05/M13 Q1039 NOSIG
ZHCC,2023-12-17 02:00,ZHCC 170200Z VRB01MPS CAVOK M03/M12 Q1038 NOSIG
ZHCC,2023-12-17 03:00,ZHCC 170300Z 22002MPS 180V250 CAVOK M03/M13 Q1038 NOSIG
ZHCC,2023-12-17 04:00,ZHCC 170400Z 17002MPS 110V220 CAVOK M02/M13 Q1038 NOSIG
ZHCC,2023-12-17 05:00,ZHCC 170500Z 15003MPS 110V190 CAVOK M02/M13 Q1036 NOSIG
ZHCC,2023-12-17 06:00,ZHCC 170600Z 16002MPS 120V220 CAVOK M02/M12 Q1035 NOSIG
ZHCC,2023-12-17 07:00,ZHCC 170700Z 12004MPS CAVOK M02/M12 Q1034 NOSIG
ZHCC,2023-12-17 08:00,ZHCC 170800Z 13003MPS CAVOK M02/M13 Q1034 NOSIG
ZHCC,2023-12-17 09:00,ZHCC 170900Z 11003MPS CAVOK M03/M09 Q1034 NOSIG
ZHCC,2023-12-17 10:00,ZHCC 171000Z 10003MPS CAVOK M03/M09 Q1035 NOSIG
ZHCC,2023-12-17 11:00,ZHCC 171100Z 11003MPS CAVOK M03/M08 Q1034 NOSIG
ZHCC,2023-12-17 12:00,ZHCC 171200Z VRB01MPS CAVOK M03/M08 Q1035 NOSIG
ZHCC,2023-12-17 13:00,ZHCC 171300Z 14002MPS CAVOK M02/M08 Q1035 NOSIG
ZHCC,2023-12-17 14:00,ZHCC 171400Z 14002MPS 100V160 CAVOK M02/M08 Q1035 NOSIG
ZHCC,2023-12-17 15:00,ZHCC 171500Z 15002MPS 110V200 CAVOK M02/M08 Q1035 NOSIG
ZHCC,2023-12-17 16:00,ZHCC 171600Z 14002MPS CAVOK M02/M07 Q1035 NOSIG
ZHCC,2023-12-17 17:00,ZHCC 171700Z VRB01MPS CAVOK M02/M07 Q1036 NOSIG
ZHCC,2023-12-17 18:00,ZHCC 171800Z VRB01MPS CAVOK M02/M06 Q1035 NOSIG
ZHCC,2023-12-17 19:00,ZHCC 171900Z 14002MPS 120V200 CAVOK M03/M07 Q1034 NOSIG
ZHCC,2023-12-17 20:00,ZHCC 172000Z VRB01MPS CAVOK M03/M08 Q1034 NOSIG
ZHCC,2023-12-17 21:00,ZHCC 172100Z 10002MPS CAVOK M03/M06 Q1033 NOSIG
ZHCC,2023-12-17 22:00,ZHCC 172200Z 14002MPS CAVOK M03/M07 Q1034 NOSIG
ZHCC,2023-12-17 23:00,ZHCC 172300Z 11001MPS CAVOK M03/M06 Q1034 NOSIG
ZHCC,2023-12-18 00:00,ZHCC 180000Z 11002MPS CAVOK M03/M06 Q1034 NOSIG
ZHCC,2023-12-18 01:00,ZHCC 180100Z 15002MPS 110V210 CAVOK M03/M07 Q1034 NOSIG
ZHCC,2023-12-18 02:00,ZHCC 180200Z VRB01MPS CAVOK M03/M07 Q1035 NOSIG
ZHCC,2023-12-18 03:00,ZHCC 180300Z 15002MPS 110V190 CAVOK M02/M07 Q1034 NOSIG
ZHCC,2023-12-18 04:00,ZHCC 180400Z 12002MPS 090V160 CAVOK M02/M07 Q1033 NOSIG
ZHCC,2023-12-18 05:00,ZHCC 180500Z VRB01MPS CAVOK M01/M07 Q1032 NOSIG
ZHCC,2023-12-18 06:00,ZHCC 180600Z 18002MPS 130V270 CAVOK M01/M07 Q1031 NOSIG
ZHCC,2023-12-18 07:00,ZHCC 180700Z 17002MPS 130V220 CAVOK M00/M07 Q1031 NOSIG
ZHCC,2023-12-18 08:00,ZHCC 180800Z 17002MPS 130V220 CAVOK M01/M07 Q1030 NOSIG
ZHCC,2023-12-18 09:00,ZHCC 180900Z 17002MPS 140V220 CAVOK M01/M07 Q1031 NOSIG
ZHCC,2023-12-18 10:00,ZHCC 181000Z 15002MPS 120V180 CAVOK M01/M07 Q1031 NOSIG
ZHCC,2023-12-18 11:00,ZHCC 181100Z 18002MPS 130V210 CAVOK M02/M07 Q1032 NOSIG
ZHCC,2023-12-18 12:00,ZHCC 181200Z VRB01MPS CAVOK M02/M07 Q1032 NOSIG
ZHCC,2023-12-18 13:00,ZHCC 181300Z 20002MPS 170V230 CAVOK M02/M07 Q1033 NOSIG
ZHCC,2023-12-18 14:00,ZHCC 181400Z 17002MPS 140V210 CAVOK M03/M07 Q1032 NOSIG
ZHCC,2023-12-18 15:00,ZHCC 181500Z 19002MPS 150V220 CAVOK M03/M07 Q1032 NOSIG
ZHCC,2023-12-18 16:00,ZHCC 181600Z 19002MPS 160V220 CAVOK M03/M07 Q1032 NOSIG
ZHCC,2023-12-18 17:00,ZHCC 181700Z 19003MPS CAVOK M03/M06 Q1031 NOSIG
ZHCC,2023-12-18 18:00,ZHCC 181800Z 19003MPS 160V220 CAVOK M03/M06 Q1031 NOSIG
ZHCC,2023-12-18 19:00,ZHCC 181900Z VRB01MPS CAVOK M03/M06 Q1030 NOSIG
ZHCC,2023-12-18 20:00,ZHCC 182000Z 19002MPS 160V230 CAVOK M03/M06 Q1030 NOSIG
ZHCC,2023-12-18 21:00,ZHCC 182100Z VRB01MPS CAVOK M03/M06 Q1030 NOSIG
ZHCC,2023-12-18 22:00,ZHCC 182200Z 18002MPS 8000 NSC M04/M06 Q1031 NOSIG
ZHCC,2023-12-18 23:00,ZHCC 182300Z VRB01MPS 8000 NSC M05/M07 Q1031 NOSIG
ZHCC,2023-12-19 00:00,ZHCC 190000Z VRB01MPS 6000 NSC M05/M06 Q1032 NOSIG
ZHCC,2023-12-19 01:00,ZHCC 190100Z 00000MPS 5000 BR NSC M03/M05 Q1033 NOSIG
ZHCC,2023-12-19 02:00,ZHCC 190200Z 03003MPS 360V080 5000 HZ NSC M01/M05 Q1034 NOSIG
ZHCC,2023-12-19 03:00,ZHCC 190300Z 35005MPS 7000 NSC 01/M06 Q1034 NOSIG
ZHCC,2023-12-19 04:00,ZHCC 190400Z 35005MPS 5000 HZ NSC 01/M06 Q1034 NOSIG
ZHCC,2023-12-19 05:00,ZHCC 190500Z 36005MPS 5000 HZ NSC 01/M05 Q1033 NOSIG
ZHCC,2023-12-19 06:00,ZHCC 190600Z 01003MPS 340V050 5000 HZ NSC 02/M06 Q1033 NOSIG
ZHCC,2023-12-19 07:00,ZHCC 190700Z 01004MPS 340V040 5000 HZ NSC 01/M06 Q1034 NOSIG
ZHCC,2023-12-19 08:00,ZHCC 190800Z 03004MPS 5000 HZ NSC 00/M07 Q1034 NOSIG
ZHCC,2023-12-19 09:00,ZHCC 190900Z 01004MPS 5000 HZ NSC M01/M06 Q1035 NOSIG
ZHCC,2023-12-19 10:00,ZHCC 191000Z 03004MPS 4500 HZ NSC M02/M08 Q1036 NOSIG
ZHCC,2023-12-19 11:00,ZHCC 191100Z 01004MPS 4000 HZ NSC M03/M08 Q1038 NOSIG
ZHCC,2023-12-19 12:00,ZHCC 191200Z 01004MPS 4000 HZ NSC M04/M09 Q1039 NOSIG
ZHCC,2023-12-19 13:00,ZHCC 191300Z 03005MPS 4500 HZ NSC M04/M10 Q1039 NOSIG
ZHCC,2023-12-19 14:00,ZHCC 191400Z 03005MPS 4500 HZ NSC M05/M11 Q1039 NOSIG
ZHCC,2023-12-19 15:00,ZHCC 191500Z 36003MPS 4500 HZ NSC M05/M11 Q1041 NOSIG
ZHCC,2023-12-19 16:00,ZHCC 191600Z 02004MPS 4500 HZ NSC M06/M11 Q1040 NOSIG
ZHCC,2023-12-19 17:00,ZHCC 191700Z 01002MPS 4500 HZ NSC M06/M11 Q1040 NOSIG
ZHCC,2023-12-19 18:00,ZHCC 191800Z 36003MPS 5000 HZ NSC M06/M12 Q1040 NOSIG
ZHCC,2023-12-19 19:00,ZHCC 191900Z 03003MPS 5000 HZ NSC M06/M12 Q1040 NOSIG
ZHCC,2023-12-19 20:00,ZHCC 192000Z 04004MPS 5000 HZ NSC M07/M13 Q1039 NOSIG
ZHCC,2023-12-19 21:00,ZHCC 192100Z 04003MPS 5000 HZ NSC M07/M14 Q1039 NOSIG
ZHCC,2023-12-19 22:00,ZHCC 192200Z 04002MPS 5000 HZ NSC M07/M14 Q1039 NOSIG
ZHCC,2023-12-19 23:00,ZHCC 192300Z 05003MPS 8000 NSC M07/M14 Q1040 NOSIG
ZHCC,2023-12-20 00:00,ZHCC 200000Z 05002MPS CAVOK M08/M15 Q1040 NOSIG
ZHCC,2023-12-20 01:00,ZHCC 200100Z 08001MPS CAVOK M07/M16 Q1041 NOSIG
ZHCC,2023-12-20 02:00,ZHCC 200200Z 10002MPS 080V140 CAVOK M06/M17 Q1041 NOSIG
ZHCC,2023-12-20 03:00,ZHCC 200300Z VRB01MPS CAVOK M04/M15 Q1040 NOSIG
ZHCC,2023-12-20 04:00,ZHCC 200400Z VRB01MPS CAVOK M04/M16 Q1039 NOSIG
ZHCC,2023-12-20 05:00,ZHCC 200500Z 20002MPS 170V240 CAVOK M03/M15 Q1037 NOSIG
ZHCC,2023-12-20 06:00,ZHCC 200600Z VRB01MPS CAVOK M02/M13 Q1036 NOSIG
ZHCC,2023-12-20 07:00,ZHCC 200700Z 12002MPS 080V170 CAVOK M01/M13 Q1036 NOSIG
ZHCC,2023-12-20 08:00,ZHCC 200800Z 14002MPS 070V210 CAVOK M02/M12 Q1036 NOSIG
ZHCC,2023-12-20 09:00,ZHCC 200900Z 10004MPS CAVOK M03/M11 Q1036 NOSIG
ZHCC,2023-12-20 10:00,ZHCC 201000Z 07004MPS CAVOK M04/M12 Q1037 NOSIG
ZHCC,2023-12-20 11:00,ZHCC 201100Z 06003MPS 030V090 CAVOK M05/M13 Q1038 NOSIG
ZHCC,2023-12-20 12:00,ZHCC 201200Z 05003MPS CAVOK M05/M13 Q1039 NOSIG
ZHCC,2023-12-20 13:00,ZHCC 201300Z 05002MPS 020V080 CAVOK M06/M14 Q1040 NOSIG
ZHCC,2023-12-20 14:00,ZHCC 201400Z VRB01MPS CAVOK M06/M15 Q1040 NOSIG
ZHCC,2023-12-20 15:00,ZHCC 201500Z VRB01MPS CAVOK M07/M13 Q1041 NOSIG
ZHCC,2023-12-20 16:00,ZHCC 201600Z 32002MPS CAVOK M09/M14 Q1041 NOSIG
ZHCC,2023-12-20 17:00,ZHCC 201700Z 32002MPS CAVOK M08/M13 Q1041 NOSIG
ZHCC,2023-12-20 18:00,ZHCC 201800Z 02003MPS 340V050 CAVOK M07/M13 Q1042 NOSIG
ZHCC,2023-12-20 19:00,ZHCC 201900Z VRB01MPS CAVOK M09/M13 Q1042 NOSIG
ZHCC,2023-12-20 20:00,ZHCC 202000Z 11002MPS CAVOK M10/M13 Q1042 NOSIG
ZHCC,2023-12-20 21:00,ZHCC 202100Z 13003MPS 100V180 CAVOK M08/M14 Q1042 NOSIG
ZHCC,2023-12-20 22:00,ZHCC 202200Z 16002MPS 130V220 CAVOK M08/M13 Q1042 NOSIG
ZHCC,2023-12-20 23:00,ZHCC 202300Z 29003MPS CAVOK M07/M17 Q1043 NOSIG
ZHCC,2023-12-21 00:00,ZHCC 210000Z 29002MPS CAVOK M08/M17 Q1043 NOSIG
ZHCC,2023-12-21 01:00,ZHCC 210100Z 31005MPS CAVOK M06/M16 Q1044 NOSIG
ZHCC,2023-12-21 02:00,ZHCC 210200Z 31005MPS 280V340 CAVOK M04/M16 Q1045 NOSIG
ZHCC,2023-12-21 03:00,ZHCC 210300Z 31005MPS CAVOK M03/M16 Q1045 NOSIG
ZHCC,2023-12-21 04:00,ZHCC 210400Z 33004MPS CAVOK M02/M16 Q1044 NOSIG
ZHCC,2023-12-21 05:00,ZHCC 210500Z 32005MPS CAVOK M02/M17 Q1043 NOSIG
ZHCC,2023-12-21 06:00,ZHCC 210600Z 31005MPS 270V330 CAVOK M02/M17 Q1042 NOSIG
ZHCC,2023-12-21 07:00,ZHCC 210700Z 32005MPS 300V060 CAVOK M01/M18 Q1042 NOSIG
ZHCC,2023-12-21 08:00,ZHCC 210800Z 32004MPS CAVOK M01/M17 Q1042 NOSIG
ZHCC,2023-12-21 09:00,ZHCC 210900Z 30003MPS CAVOK M03/M16 Q1042 NOSIG
ZHCC,2023-12-21 10:00,ZHCC 211000Z 27001MPS CAVOK M04/M15 Q1042 NOSIG
ZHCC,2023-12-21 11:00,ZHCC 211100Z 22002MPS CAVOK M04/M15 Q1043 NOSIG
ZHCC,2023-12-21 12:00,ZHCC 211200Z 21001MPS CAVOK M07/M13 Q1043 NOSIG
ZHCC,2023-12-21 13:00,ZHCC 211300Z 18001MPS CAVOK M07/M13 Q1043 NOSIG
ZHCC,2023-12-21 14:00,ZHCC 211400Z 22002MPS CAVOK M06/M14 Q1043 NOSIG
ZHCC,2023-12-21 15:00,ZHCC 211500Z 21002MPS CAVOK M05/M14 Q1043 NOSIG
ZHCC,2023-12-21 16:00,ZHCC 211600Z VRB01MPS CAVOK M08/M14 Q1043 NOSIG
ZHCC,2023-12-21 17:00,ZHCC 211700Z VRB01MPS CAVOK M09/M14 Q1043 NOSIG
ZHCC,2023-12-21 18:00,ZHCC 211800Z 19001MPS CAVOK M10/M14 Q1043 NOSIG
ZHCC,2023-12-21 19:00,ZHCC 211900Z VRB01MPS CAVOK M10/M14 Q1043 NOSIG
ZHCC,2023-12-21 20:00,ZHCC 212000Z 00000MPS CAVOK M10/M14 Q1042 NOSIG
ZHCC,2023-12-21 21:00,ZHCC 212100Z VRB01MPS CAVOK M11/M14 Q1042 NOSIG
ZHCC,2023-12-21 22:00,ZHCC 212200Z VRB01MPS CAVOK M11/M14 Q1041 NOSIG
ZHCC,2023-12-21 23:00,ZHCC 212300Z 24002MPS CAVOK M11/M14 Q1043 NOSIG
ZHCC,2023-12-22 00:00,ZHCC 220000Z 28002MPS CAVOK M10/M14 Q1043 NOSIG
ZHCC,2023-12-22 01:00,ZHCC 220100Z 29002MPS CAVOK M06/M13 Q1043 NOSIG
ZHCC,2023-12-22 02:00,ZHCC 220200Z 00000MPS CAVOK M01/M15 Q1043 NOSIG
ZHCC,2023-12-22 03:00,ZHCC 220300Z VRB01MPS CAVOK M01/M15 Q1042 NOSIG
ZHCC,2023-12-22 04:00,ZHCC 220400Z 27003MPS 230V290 CAVOK M01/M15 Q1042 NOSIG
ZHCC,2023-12-22 05:00,ZHCC 220500Z 24003MPS CAVOK 00/M16 Q1041 NOSIG
ZHCC,2023-12-22 06:00,ZHCC 220600Z 20003MPS 150V240 CAVOK 01/M15 Q1040 NOSIG
ZHCC,2023-12-22 07:00,ZHCC 220700Z 20003MPS 140V240 CAVOK 01/M14 Q1039 NOSIG
ZHCC,2023-12-22 08:00,ZHCC 220800Z 16002MPS 120V200 CAVOK 00/M14 Q1039 NOSIG
ZHCC,2023-12-22 09:00,ZHCC 220900Z 17002MPS 120V200 CAVOK M00/M13 Q1039 NOSIG
ZHCC,2023-12-22 10:00,ZHCC 221000Z 17002MPS 130V210 CAVOK M01/M12 Q1039 NOSIG
ZHCC,2023-12-22 11:00,ZHCC 221100Z 19002MPS CAVOK M01/M11 Q1039 NOSIG
ZHCC,2023-12-22 12:00,ZHCC 221200Z 19002MPS CAVOK M01/M10 Q1039 NOSIG
ZHCC,2023-12-22 13:00,ZHCC 221300Z 19003MPS CAVOK M01/M11 Q1038 NOSIG
ZHCC,2023-12-22 14:00,ZHCC 221400Z 21003MPS 180V240 CAVOK M01/M10 Q1038 NOSIG
ZHCC,2023-12-22 15:00,ZHCC 221500Z 20002MPS CAVOK M02/M10 Q1038 NOSIG
ZHCC,2023-12-22 16:00,ZHCC 221600Z 20002MPS 160V220 CAVOK M02/M09 Q1038 NOSIG
ZHCC,2023-12-22 17:00,ZHCC 221700Z 20002MPS CAVOK M03/M09 Q1037 NOSIG
ZHCC,2023-12-22 18:00,ZHCC 221800Z 21002MPS CAVOK M03/M10 Q1037 NOSIG
ZHCC,2023-12-22 19:00,ZHCC 221900Z 22002MPS CAVOK M03/M10 Q1037 NOSIG
ZHCC,2023-12-22 20:00,ZHCC 222000Z 24002MPS CAVOK M03/M10 Q1036 NOSIG
ZHCC,2023-12-22 21:00,ZHCC 222100Z 28003MPS CAVOK M05/M11 Q1035 NOSIG
ZHCC,2023-12-22 22:00,ZHCC 222200Z VRB01MPS CAVOK M05/M11 Q1036 NOSIG
ZHCC,2023-12-22 23:00,ZHCC 222300Z 16001MPS CAVOK M05/M11 Q1036 NOSIG
ZHCC,2023-12-23 00:00,ZHCC 230000Z 00000MPS CAVOK M05/M10 Q1036 NOSIG
ZHCC,2023-12-23 01:00,ZHCC 230100Z VRB01MPS CAVOK M03/M08 Q1037 NOSIG
ZHCC,2023-12-23 02:00,ZHCC 230200Z 27002MPS 250V320 CAVOK 00/M11 Q1038 NOSIG
ZHCC,2023-12-23 03:00,ZHCC 230300Z 32003MPS 280V340 CAVOK 02/M11 Q1037 NOSIG
ZHCC,2023-12-23 04:00,ZHCC 230400Z 32004MPS CAVOK 04/M12 Q1036 NOSIG
ZHCC,2023-12-23 05:00,ZHCC 230500Z 31005MPS CAVOK 05/M12 Q1036 NOSIG
ZHCC,2023-12-23 06:00,ZHCC 230600Z 32004MPS CAVOK 05/M12 Q1035 NOSIG
ZHCC,2023-12-23 07:00,ZHCC 230700Z 30004MPS CAVOK 05/M12 Q1035 NOSIG
ZHCC,2023-12-23 08:00,ZHCC 230800Z 31003MPS CAVOK 05/M12 Q1035 NOSIG
ZHCC,2023-12-23 09:00,ZHCC 230900Z 29001MPS CAVOK 03/M10 Q1036 NOSIG
ZHCC,2023-12-23 10:00,ZHCC 231000Z 05003MPS CAVOK 00/M08 Q1037 NOSIG
ZHCC,2023-12-23 11:00,ZHCC 231100Z 04004MPS CAVOK M01/M08 Q1038 NOSIG
ZHCC,2023-12-23 12:00,ZHCC 231200Z 03003MPS CAVOK M02/M08 Q1038 NOSIG
ZHCC,2023-12-23 13:00,ZHCC 231300Z 01002MPS 5000 HZ NSC M03/M08 Q1039 NOSIG
ZHCC,2023-12-23 14:00,ZHCC 231400Z 02002MPS 5000 HZ NSC M03/M08 Q1039 NOSIG
ZHCC,2023-12-23 15:00,ZHCC 231500Z 31002MPS 4000 HZ NSC M06/M09 Q1039 NOSIG
ZHCC,2023-12-23 16:00,ZHCC 231600Z 28002MPS 4000 BR NSC M05/M08 Q1039 NOSIG
ZHCC,2023-12-23 17:00,ZHCC 231700Z VRB01MPS 4000 BR NSC M06/M08 Q1039 NOSIG
ZHCC,2023-12-23 18:00,ZHCC 231800Z 28002MPS 4000 BR NSC M06/M09 Q1039 NOSIG
ZHCC,2023-12-23 19:00,ZHCC 231900Z 26002MPS 4000 BR NSC M07/M09 Q1038 NOSIG
ZHCC,2023-12-23 20:00,ZHCC 232000Z VRB01MPS 4000 BR NSC M07/M10 Q1038 NOSIG
ZHCC,2023-12-23 21:00,ZHCC 232100Z 26002MPS 4500 BR NSC M09/M11 Q1037 NOSIG
ZHCC,2023-12-23 22:00,ZHCC 232200Z 28002MPS 250V320 4500 BR NSC M07/M10 Q1037 NOSIG
ZHCC,2023-12-23 23:00,ZHCC 232300Z 26004MPS 8000 NSC M04/M10 Q1037 NOSIG
ZHCC,2023-12-24 00:00,ZHCC 240000Z 28004MPS CAVOK M03/M10 Q1037 NOSIG
ZHCC,2023-12-24 01:00,ZHCC 240100Z 28006MPS CAVOK M00/M10 Q1037 NOSIG
ZHCC,2023-12-24 02:00,ZHCC 240200Z 28008G13MPS CAVOK 02/M12 Q1037 NOSIG
ZHCC,2023-12-24 03:00,ZHCC 240300Z 29009MPS CAVOK 03/M13 Q1037 NOSIG
ZHCC,2023-12-24 04:00,ZHCC 240400Z 29009MPS CAVOK 04/M13 Q1036 NOSIG
ZHCC,2023-12-24 05:00,ZHCC 240500Z 29007MPS CAVOK 05/M13 Q1034 NOSIG
ZHCC,2023-12-24 06:00,ZHCC 240600Z 29007MPS CAVOK 05/M12 Q1034 NOSIG
ZHCC,2023-12-24 07:00,ZHCC 240700Z 31007MPS CAVOK 06/M12 Q1033 NOSIG
ZHCC,2023-12-24 08:00,ZHCC 240800Z 30004MPS CAVOK 06/M10 Q1033 NOSIG
ZHCC,2023-12-24 09:00,ZHCC 240900Z 29003MPS CAVOK 03/M10 Q1033 NOSIG
ZHCC,2023-12-24 10:00,ZHCC 241000Z 27002MPS CAVOK M00/M07 Q1033 NOSIG
ZHCC,2023-12-24 11:00,ZHCC 241100Z 24001MPS CAVOK M01/M07 Q1032 NOSIG
ZHCC,2023-12-24 12:00,ZHCC 241200Z VRB01MPS CAVOK M04/M08 Q1032 NOSIG
ZHCC,2023-12-24 13:00,ZHCC 241300Z VRB01MPS CAVOK M04/M08 Q1032 NOSIG
ZHCC,2023-12-24 14:00,ZHCC 241400Z VRB01MPS CAVOK M04/M08 Q1032 NOSIG
ZHCC,2023-12-24 15:00,ZHCC 241500Z VRB01MPS CAVOK M03/M08 Q1032 NOSIG
ZHCC,2023-12-24 16:00,ZHCC 241600Z 25001MPS CAVOK M04/M08 Q1032 NOSIG
ZHCC,2023-12-24 17:00,ZHCC 241700Z VRB01MPS CAVOK M05/M08 Q1032 NOSIG
ZHCC,2023-12-24 18:00,ZHCC 241800Z VRB01MPS CAVOK M05/M09 Q1031 NOSIG
ZHCC,2023-12-24 19:00,ZHCC 241900Z VRB01MPS CAVOK M05/M08 Q1031 NOSIG
ZHCC,2023-12-24 20:00,ZHCC 242000Z VRB01MPS CAVOK M04/M08 Q1031 NOSIG
ZHCC,2023-12-24 21:00,ZHCC 242100Z VRB01MPS CAVOK M06/M10 Q1031 NOSIG
ZHCC,2023-12-24 22:00,ZHCC 242200Z 32003MPS CAVOK M02/M09 Q1031 NOSIG
ZHCC,2023-12-24 23:00,ZHCC 242300Z 30001MPS CAVOK M04/M09 Q1031 NOSIG
ZHCC,2023-12-25 00:00,ZHCC 250000Z VRB01MPS CAVOK M05/M09 Q1031 NOSIG
ZHCC,2023-12-25 01:00,ZHCC 250100Z 00000MPS CAVOK 02/M06 Q1032 NOSIG
ZHCC,2023-12-25 02:00,ZHCC 250200Z VRB01MPS CAVOK 04/M09 Q1032 NOSIG
ZHCC,2023-12-25 03:00,ZHCC 250300Z 26002MPS 210V300 CAVOK 05/M09 Q1032 NOSIG
ZHCC,2023-12-25 04:00,ZHCC 250400Z VRB01MPS CAVOK 07/M08 Q1031 NOSIG
ZHCC,2023-12-25 05:00,ZHCC 250500Z 19002MPS 160V220 CAVOK 08/M09 Q1029 NOSIG
ZHCC,2023-12-25 06:00,ZHCC 250600Z 18002MPS 120V230 CAVOK 08/M08 Q1028 NOSIG
ZHCC,2023-12-25 07:00,ZHCC 250700Z 13003MPS CAVOK 08/M06 Q1028 NOSIG
ZHCC,2023-12-25 08:00,ZHCC 250800Z 15002MPS 120V180 CAVOK 07/M06 Q1027 NOSIG
ZHCC,2023-12-25 09:00,ZHCC 250900Z 13001MPS 8000 NSC 05/M04 Q1027 NOSIG
ZHCC,2023-12-25 10:00,ZHCC 251000Z VRB01MPS 8000 NSC 03/M03 Q1027 NOSIG
ZHCC,2023-12-25 11:00,ZHCC 251100Z VRB01MPS 7000 NSC 01/M03 Q1027 NOSIG
ZHCC,2023-12-25 12:00,ZHCC 251200Z VRB01MPS 5000 BR NSC 01/M03 Q1027 NOSIG
ZHCC,2023-12-25 13:00,ZHCC 251300Z 19001MPS 5000 BR NSC 00/M02 Q1027 NOSIG
ZHCC,2023-12-25 14:00,ZHCC 251400Z 20001MPS 5000 BR NSC 00/M02 Q1027 NOSIG
ZHCC,2023-12-25 15:00,ZHCC 251500Z 18002MPS 5000 HZ NSC 03/M02 Q1027 NOSIG
ZHCC,2023-12-25 16:00,ZHCC 251600Z VRB01MPS 5000 HZ NSC 02/M03 Q1027 NOSIG
ZHCC,2023-12-25 17:00,ZHCC 251700Z 26001MPS 5000 BR NSC M00/M03 Q1026 NOSIG
ZHCC,2023-12-25 18:00,ZHCC 251800Z VRB01MPS 5000 BR NSC M03/M04 Q1026 NOSIG
ZHCC,2023-12-25 19:00,ZHCC 251900Z 20001MPS 5000 BR NSC M02/M03 Q1025 NOSIG
ZHCC,2023-12-25 20:00,ZHCC 252000Z VRB01MPS 5000 BR NSC M03/M04 Q1024 NOSIG
ZHCC,2023-12-25 21:00,ZHCC 252100Z VRB01MPS 4000 BR NSC M02/M03 Q1024 BECMG TL2240 2000
ZHCC,2023-12-25 22:00,ZHCC 252200Z VRB01MPS 4000 BR NSC M03/M04 Q1024 BECMG TL2320 2500
ZHCC,2023-12-25 23:00,ZHCC 252300Z 13001MPS 3500 BR NSC M03/M04 Q1024 BECMG TL2340 2500
ZHCC,2023-12-26 00:00,ZHCC 260000Z VRB01MPS 2000 BR NSC M02/M03 Q1025 BECMG TL0140 3000
ZHCC,2023-12-26 01:00,ZHCC 260100Z 00000MPS 2500 BR NSC 00/M01 Q1025 BECMG TL0240 3000
ZHCC,2023-12-26 02:00,ZHCC 260200Z 00000MPS 3000 HZ NSC 04/M01 Q1026 NOSIG
ZHCC,2023-12-26 03:00,ZHCC 260300Z 04004MPS 3000 HZ NSC 06/M02 Q1027 NOSIG
ZHCC,2023-12-26 04:00,ZHCC 260400Z 35005MPS 320V020 6000 NSC 07/M04 Q1027 NOSIG
ZHCC,2023-12-26 05:00,ZHCC 260500Z 02005MPS 8000 NSC 07/M06 Q1026 NOSIG
ZHCC,2023-12-26 06:00,ZHCC 260600Z 03005MPS 350V060 6000 NSC 06/M06 Q1026 NOSIG
ZHCC,2023-12-26 07:00,ZHCC 260700Z 03006MPS 5000 HZ NSC 04/M05 Q1027 NOSIG
ZHCC,2023-12-26 08:00,ZHCC 260800Z 03005MPS 3000 HZ NSC 03/M06 Q1028 BECMG TL0900 2500
ZHCC,2023-12-26 09:00,ZHCC 260900Z 03005MPS 350V050 2500 HZ NSC 02/M04 Q1029 BECMG TL1000 3000
ZHCC,2023-12-26 10:00,ZHCC 261000Z 03005MPS 360V060 3000 HZ NSC 01/M04 Q1030 NOSIG
ZHCC,2023-12-26 11:00,ZHCC 261100Z 03006MPS 3000 HZ NSC 01/M04 Q1030 NOSIG
ZHCC,2023-12-26 12:00,ZHCC 261200Z 03006MPS 4000 HZ NSC 00/M05 Q1031 NOSIG
ZHCC,2023-12-26 13:00,ZHCC 261300Z 02005MPS 350V060 4000 HZ NSC 00/M06 Q1032 NOSIG
ZHCC,2023-12-26 14:00,ZHCC 261400Z 02005MPS 5000 HZ NSC 00/M07 Q1032 NOSIG
ZHCC,2023-12-26 15:00,ZHCC 261500Z 02005MPS 5000 HZ NSC M00/M06 Q1033 NOSIG
ZHCC,2023-12-26 16:00,ZHCC 261600Z 02005MPS 340V060 5000 HZ NSC M00/M06 Q1033 NOSIG
ZHCC,2023-12-26 17:00,ZHCC 261700Z 02005MPS 340V040 5000 HZ NSC M00/M06 Q1033 NOSIG
ZHCC,2023-12-26 18:00,ZHCC 261800Z 02004MPS 340V050 5000 HZ NSC M00/M06 Q1033 NOSIG
ZHCC,2023-12-26 19:00,ZHCC 261900Z 04003G10MPS 360V110 5000 HZ NSC M01/M06 Q1032 NOSIG
ZHCC,2023-12-26 20:00,ZHCC 262000Z 02004MPS 340V040 5000 HZ NSC M01/M05 Q1032 NOSIG
ZHCC,2023-12-26 21:00,ZHCC 262100Z 02004MPS 340V040 5000 HZ NSC M01/M05 Q1032 NOSIG
ZHCC,2023-12-26 22:00,ZHCC 262200Z 01004MPS 5000 HZ NSC M01/M05 Q1033 NOSIG
ZHCC,2023-12-26 23:00,ZHCC 262300Z 02004MPS 350V050 6000 NSC M01/M05 Q1033 NOSIG
ZHCC,2023-12-27 00:00,ZHCC 270000Z 01003MPS 340V040 5000 HZ NSC M01/M05 Q1033 NOSIG
ZHCC,2023-12-27 01:00,ZHCC 270100Z 01003MPS 340V040 4000 HZ NSC M00/M05 Q1033 NOSIG
ZHCC,2023-12-27 02:00,ZHCC 270200Z 02004MPS 4500 HZ NSC 01/M05 Q1034 NOSIG
ZHCC,2023-12-27 03:00,ZHCC 270300Z 02005MPS 5000 HZ NSC 02/M06 Q1034 NOSIG
ZHCC,2023-12-27 04:00,ZHCC 270400Z 03005MPS 5000 HZ NSC 03/M05 Q1032 NOSIG
ZHCC,2023-12-27 05:00,ZHCC 270500Z 02003MPS 350V060 5000 HZ NSC 04/M05 Q1031 NOSIG
ZHCC,2023-12-27 06:00,ZHCC 270600Z 36003MPS 320V040 5000 HZ NSC 04/M05 Q1030 NOSIG
ZHCC,2023-12-27 07:00,ZHCC 270700Z 04003MPS 010V080 5000 HZ NSC 04/M04 Q1030 NOSIG
ZHCC,2023-12-27 08:00,ZHCC 270800Z 08003MPS 5000 HZ NSC 03/M05 Q1030 NOSIG
ZHCC,2023-12-27 09:00,ZHCC 270900Z 08003MPS 6000 NSC 02/M05 Q1029 NOSIG
ZHCC,2023-12-27 10:00,ZHCC 271000Z 08003MPS 7000 NSC M01/M05 Q1030 NOSIG
ZHCC,2023-12-27 11:00,ZHCC 271100Z 06002MPS 7000 NSC 00/M04 Q1030 NOSIG
ZHCC,2023-12-27 12:00,ZHCC 271200Z 04002MPS 7000 NSC M00/M04 Q1030 NOSIG
ZHCC,2023-12-27 13:00,ZHCC 271300Z 04002MPS 7000 NSC M00/M04 Q1030 NOSIG
ZHCC,2023-12-27 14:00,ZHCC 271400Z 03002MPS 7000 NSC M00/M04 Q1030 NOSIG
ZHCC,2023-12-27 15:00,ZHCC 271500Z 28001MPS 7000 NSC M02/M05 Q1030 NOSIG
ZHCC,2023-12-27 16:00,ZHCC 271600Z 30001MPS 6000 NSC M03/M04 Q1030 NOSIG
ZHCC,2023-12-27 17:00,ZHCC 271700Z 30001MPS 6000 NSC M03/M05 Q1030 NOSIG
ZHCC,2023-12-27 18:00,ZHCC 271800Z 28001MPS 5000 BR NSC M04/M05 Q1030 NOSIG
ZHCC,2023-12-27 19:00,ZHCC 271900Z 28001MPS 5000 BR NSC M05/M07 Q1030 NOSIG
ZHCC,2023-12-27 20:00,ZHCC 272000Z 25001MPS 5000 BR NSC M04/M05 Q1030 NOSIG
ZHCC,2023-12-27 21:00,ZHCC 272100Z VRB01MPS 5000 BR NSC M05/M06 Q1029 NOSIG
ZHCC,2023-12-27 22:00,ZHCC 272200Z VRB01MPS 5000 BR NSC M04/M05 Q1030 NOSIG
ZHCC,2023-12-27 23:00,ZHCC 272300Z 00000MPS 5000 BR NSC M06/M07 Q1030 NOSIG
ZHCC,2023-12-28 00:00,ZHCC 280000Z 30001MPS 3000 BR NSC M04/M05 Q1030 NOSIG
ZHCC,2023-12-28 01:00,ZHCC 280100Z 00000MPS 3500 BR NSC M02/M03 Q1030 NOSIG
ZHCC,2023-12-28 02:00,ZHCC 280200Z VRB01MPS 5000 HZ NSC 01/M04 Q1031 NOSIG
ZHCC,2023-12-28 03:00,ZHCC 280300Z VRB01MPS 5000 HZ NSC 02/M04 Q1031 NOSIG
ZHCC,2023-12-28 04:00,ZHCC 280400Z VRB01MPS 5000 HZ NSC 03/M03 Q1030 NOSIG
ZHCC,2023-12-28 05:00,ZHCC 280500Z VRB01MPS 5000 HZ NSC 04/M04 Q1030 NOSIG
ZHCC,2023-12-28 06:00,ZHCC 280600Z 06002MPS 030V100 5000 HZ NSC 04/M04 Q1029 NOSIG
ZHCC,2023-12-28 07:00,ZHCC 280700Z 09002MPS 040V110 5000 HZ NSC 05/M03 Q1028 NOSIG
ZHCC,2023-12-28 08:00,ZHCC 280800Z 12002MPS 090V150 5000 HZ NSC 04/M03 Q1029 NOSIG
ZHCC,2023-12-28 09:00,ZHCC 280900Z 11002MPS 4000 HZ NSC 02/M03 Q1029 NOSIG
ZHCC,2023-12-28 10:00,ZHCC 281000Z 10002MPS 5000 HZ NSC 01/M04 Q1029 NOSIG
ZHCC,2023-12-28 11:00,ZHCC 281100Z VRB01MPS 5000 HZ NSC 01/M03 Q1030 NOSIG
ZHCC,2023-12-28 12:00,ZHCC 281200Z VRB01MPS 4000 BR NSC M00/M03 Q1030 NOSIG
ZHCC,2023-12-28 13:00,ZHCC 281300Z 00000MPS 4000 BR NSC M01/M03 Q1030 NOSIG
ZHCC,2023-12-28 14:00,ZHCC 281400Z 28001MPS 4000 BR NSC M01/M03 Q1030 NOSIG
ZHCC,2023-12-28 15:00,ZHCC 281500Z VRB01MPS 4000 BR NSC M02/M03 Q1029 NOSIG
ZHCC,2023-12-28 16:00,ZHCC 281600Z 30001MPS 3500 BR NSC M02/M03 Q1030 NOSIG
ZHCC,2023-12-28 17:00,ZHCC 281700Z 15001MPS 3500 BR NSC M02/M03 Q1029 NOSIG
ZHCC,2023-12-28 18:00,ZHCC 281800Z 00000MPS 3500 BR NSC M03/M04 Q1029 NOSIG
ZHCC,2023-12-28 19:00,ZHCC 281900Z 00000MPS 3500 BR NSC M01/M03 Q1029 NOSIG
ZHCC,2023-12-28 20:00,ZHCC 282000Z 28001MPS 3500 BR NSC M00/M02 Q1028 NOSIG
ZHCC,2023-12-28 21:00,ZHCC 282100Z VRB01MPS 3500 -RA BR NSC M00/M02 Q1028 BECMG TL2240 2500
ZHCC,2023-12-28 22:00,ZHCC 282200Z 00000MPS 3500 -RA BR NSC 00/M01 Q1027 BECMG TL2340 2500
ZHCC,2023-12-28 23:00,ZHCC 282300Z 00000MPS 3500 BR NSC 00/M01 Q1027 NOSIG
ZHCC,2023-12-29 00:00,ZHCC 290000Z VRB01MPS 2500 BR NSC 01/M01 Q1027 BECMG TL0140 3000
ZHCC,2023-12-29 01:00,ZHCC 290100Z VRB01MPS 2000 BR NSC 01/M01 Q1027 NOSIG
ZHCC,2023-12-29 02:00,ZHCC 290200Z VRB01MPS 2000 BR NSC 02/M01 Q1028 BECMG TL0340 3000
ZHCC,2023-12-29 03:00,ZHCC 290300Z VRB01MPS 2000 BR NSC 02/M01 Q1027 BECMG TL0440 3000
ZHCC,2023-12-29 04:00,ZHCC 290400Z 17002MPS 100V250 2000 BR NSC 03/M01 Q1025 NOSIG
ZHCC,2023-12-29 05:00,ZHCC 290500Z VRB01MPS 2000 BR NSC 03/M01 Q1024 NOSIG
ZHCC,2023-12-29 06:00,ZHCC 290600Z VRB01MPS 2000 BR NSC 04/M01 Q1023 NOSIG
ZHCC,2023-12-29 07:00,ZHCC 290700Z 19002MPS 140V230 2000 BR NSC 04/M01 Q1022 NOSIG
ZHCC,2023-12-29 08:00,ZHCC 290800Z 19002MPS 160V240 2000 BR NSC 04/M01 Q1022 NOSIG
ZHCC,2023-12-29 09:00,ZHCC 290900Z 19003MPS 150V220 1500 BR NSC 04/00 Q1021 NOSIG
ZHCC,2023-12-29 10:00,ZHCC 291000Z 19003MPS 160V220 2500 BR NSC 04/00 Q1021 BECMG TL1140 3000
ZHCC,2023-12-29 11:00,ZHCC 291100Z 19003MPS 2500 BR NSC 04/00 Q1021 BECMG TL1140 3000
ZHCC,2023-12-29 12:00,ZHCC 291200Z 19003MPS 3000 BR NSC 03/00 Q1021 BECMG TL1240 2000
ZHCC,2023-12-29 13:00,ZHCC 291300Z 19002MPS 160V240 2500 BR NSC 03/M00 Q1020 NOSIG
ZHCC,2023-12-29 14:00,ZHCC 291400Z 20002MPS 170V240 2500 BR NSC 03/M00 Q1020 BECMG TL1540 3000
ZHCC,2023-12-29 15:00,ZHCC 291500Z VRB01MPS 2500 BR NSC 02/M01 Q1019 BECMG TL1540 3000
ZHCC,2023-12-29 16:00,ZHCC 291600Z 00000MPS 3000 BR NSC 01/M01 Q1019 BECMG TL1640 2000
ZHCC,2023-12-29 17:00,ZHCC 291700Z 18002MPS 2000 BR NSC 01/M00 Q1018 NOSIG
ZHCC,2023-12-29 18:00,ZHCC 291800Z 18004MPS 2000 BR NSC 02/M00 Q1017 NOSIG
ZHCC,2023-12-29 19:00,ZHCC 291900Z VRB01MPS 2000 BR NSC M00/M02 Q1017 NOSIG
ZHCC,2023-12-29 20:00,ZHCC 292000Z 00000MPS 2000 BR NSC M02/M03 Q1016 NOSIG
ZHCC,2023-12-29 21:00,ZHCC 292100Z 18002MPS 130V240 2000 BR NSC M03/M03 Q1015 NOSIG
ZHCC,2023-12-29 22:00,ZHCC 292200Z VRB01MPS 2000 BR NSC M02/M03 Q1015 BECMG TL2340 1300
ZHCC,2023-12-29 23:00,ZHCC 292300Z VRB01MPS 2000 BR NSC M02/M03 Q1015 BECMG TL2340 1300
ZHCC,2023-12-30 00:00,ZHCC 300000Z 31002MPS 1200 R12R/1200N R12L/1400N BR NSC M02/M03 Q1016 BECMG TL0100 1600 BECMG TL0140 3000
ZHCC,2023-12-30 01:00,ZHCC 300100Z VRB01MPS 1200 R12R/1200N R12L/1500N BR NSC 01/M00 Q1016 BECMG TL0240 3000
ZHCC,2023-12-30 02:00,ZHCC 300200Z 27002MPS 220V330 2000 HZ NSC 07/00 Q1017 BECMG TL0240 3000
ZHCC,2023-12-30 03:00,ZHCC 300300Z 29003MPS 230V320 5000 HZ NSC 12/M02 Q1016 NOSIG
ZHCC,2023-12-30 04:00,ZHCC 300400Z 30005MPS 6000 NSC 14/M04 Q1015 NOSIG
ZHCC,2023-12-30 05:00,ZHCC 300500Z 31007MPS 7000 NSC 15/M06 Q1015 NOSIG
ZHCC,2023-12-30 06:00,ZHCC 300600Z 30008MPS 7000 NSC 14/M06 Q1015 NOSIG
ZHCC,2023-12-30 07:00,ZHCC 300700Z 29009MPS 7000 NSC 14/M06 Q1016 NOSIG
ZHCC,2023-12-30 08:00,ZHCC 300800Z 27005MPS 7000 NSC 14/M05 Q1016 NOSIG
ZHCC,2023-12-30 09:00,ZHCC 300900Z 27005MPS 7000 NSC 12/M05 Q1017 NOSIG
ZHCC,2023-12-30 10:00,ZHCC 301000Z 28003MPS 7000 NSC 10/M05 Q1018 NOSIG
ZHCC,2023-12-30 11:00,ZHCC 301100Z 27003MPS 8000 NSC 09/M05 Q1020 NOSIG
ZHCC,2023-12-30 12:00,ZHCC 301200Z 30005MPS CAVOK 08/M05 Q1021 NOSIG
ZHCC,2023-12-30 13:00,ZHCC 301300Z 31007MPS CAVOK 10/M07 Q1022 NOSIG
ZHCC,2023-12-30 14:00,ZHCC 301400Z 32007MPS CAVOK 09/M07 Q1022 NOSIG
ZHCC,2023-12-30 15:00,ZHCC 301500Z 04002MPS 350V100 0600 R12R/P2000 R12L/0900N FG NSC 00/M02 Q1023 NOSIG
ZHCC,2023-12-30 16:00,ZHCC 301600Z VRB01MPS 3500 BR NSC 00/M02 Q1024 NOSIG
ZHCC,2023-12-30 17:00,ZHCC 301700Z 12003MPS 090V160 0300 R12R/0225N R12L/0200N FZFG VV002 M03/M03 Q1025 NOSIG
ZHCC,2023-12-30 18:00,ZHCC 301800Z 31001MPS 0300 R12R/0550N R12L/0175N FZFG VV002 M04/M04 Q1025 NOSIG
ZHCC,2023-12-30 19:00,ZHCC 301900Z 28001MPS 3000 BR NSC M02/M02 Q1026 NOSIG
ZHCC,2023-12-30 20:00,ZHCC 302000Z 26001MPS 3000 BR NSC M02/M03 Q1026 BECMG TL2140 1500
ZHCC,2023-12-30 21:00,ZHCC 302100Z 27001MPS 3000 BR NSC M03/M04 Q1027 BECMG TL2140 1500
ZHCC,2023-12-30 22:00,ZHCC 302200Z 28001MPS 2500 BR NSC M05/M06 Q1027 BECMG TL2340 1200
ZHCC,2023-12-30 23:00,ZHCC 302300Z 29002MPS 2500 BR NSC M03/M05 Q1028 NOSIG
