station,valid,metar
ZHCC,2009-01-01 00:00,ZHCC 010000Z AUTO 16002KT 6SM M08/M12 A3068 RMK SLP409 T10771120 52008 IEM_DS3505
ZHCC,2009-01-01 01:00,ZHCC 010100Z AUTO 2SM M04/M14 A3068 RMK T10401140 IEM_DS3505
ZHCC,2009-01-01 02:00,ZHCC 010200Z AUTO 09004KT 2 1/2SM M01/M15 A3071 RMK T10101150 IEM_DS3505
ZHCC,2009-01-01 03:00,ZHCC 010300Z AUTO 09004KT 6SM 01/M17 A3071 RMK SLP414 T00101168 52007 IEM_DS3505
ZHCC,2009-01-01 04:00,ZHCC 010400Z AUTO 2 1/2SM 01/M18 A3068 RMK T00101180 IEM_DS3505
ZHCC,2009-01-01 05:00,ZHCC 010500Z AUTO 21004KT 2 1/2SM 02/M17 A3065 RMK T00201170 IEM_DS3505
ZHCC,2009-01-01 06:00,ZHCC 010600Z AUTO 18006KT 7SM 04/M19 A3062 RMK SLP378 T00351186 57035 IEM_DS3505
ZHCC,2009-01-01 07:00,ZHCC 010700Z AUTO 2 1/2SM 03/M18 A3059 RMK T00301180 IEM_DS3505
ZHCC,2009-01-01 08:00,ZHCC 010800Z AUTO 3SM 02/M18 A3059 RMK T00201180 IEM_DS3505
ZHCC,2009-01-01 09:00,ZHCC 010900Z AUTO 14004KT 7SM 02/M18 A3059 RMK SLP369 T00241177 57010 IEM_DS3505
ZHCC,2009-01-01 10:00,ZHCC 011000Z AUTO 2 1/2SM 00/M16 A3059 RMK T00001160 IEM_DS3505
ZHCC,2009-01-01 11:00,ZHCC 011100Z AUTO 16002KT 2SM M01/M16 A3059 RMK T10101160 IEM_DS3505
ZHCC,2009-01-01 12:00,ZHCC 011200Z AUTO 11004KT 7SM M00/M17 A3059 RMK SLP377 T10051172 52007 IEM_DS3505
ZHCC,2009-01-01 13:00,ZHCC 011300Z AUTO 17002KT 2SM M02/M16 A3059 RMK T10201160 IEM_DS3505
ZHCC,2009-01-01 14:00,ZHCC 011400Z AUTO 17002KT 2SM M02/M17 A3062 RMK T10201170 IEM_DS3505
ZHCC,2009-01-01 15:00,ZHCC 011500Z AUTO 16002KT 6SM M05/M14 A3062 RMK SLP382 T10491142 52006 IEM_DS3505
ZHCC,2009-01-01 16:00,ZHCC 011600Z AUTO 22002KT 2SM M06/M17 A3062 RMK T10601170 IEM_DS3505
ZHCC,2009-01-01 17:00,ZHCC 011700Z AUTO 22002KT 1 1/4SM M07/M15 A3059 RMK T10701150 IEM_DS3505
ZHCC,2009-01-01 18:00,ZHCC 011800Z AUTO 00000KT 6SM M05/M16 A3059 RMK SLP374 T10481155 57007 IEM_DS3505
ZHCC,2009-01-01 21:00,ZHCC 012100Z AUTO 22002KT 6SM M06/M13 RMK SLP369 T10591130 57006 IEM_DS3505
ZHCC,2009-01-01 22:00,ZHCC 012200Z AUTO 00000KT 2SM M07/M14 A3056 RMK T10701140 IEM_DS3505
ZHCC,2009-01-01 23:00,ZHCC 012300Z AUTO 19002KT 1 1/4SM M06/M12 A3056 RMK T10601120 IEM_DS3505
ZHCC,2009-01-02 00:00,ZHCC 020000Z AUTO 16002KT 6SM M05/M12 A3056 RMK SLP367 T10501118 57002 IEM_DS3505
ZHCC,2009-01-02 01:00,ZHCC 020100Z AUTO 19004KT 1SM M03/M12 A3056 RMK T10301120 IEM_DS3505
ZHCC,2009-01-02 02:00,ZHCC 020200Z AUTO 21006KT 1 1/2SM M01/M14 A3059 RMK T10101140 IEM_DS3505
ZHCC,2009-01-02 03:00,ZHCC 020300Z AUTO 34002KT 6SM 03/M15 A3059 RMK SLP373 T00301146 52007 IEM_DS3505
ZHCC,2009-01-02 04:00,ZHCC 020400Z AUTO 21006KT 2SM 02/M14 A3056 RMK T00201140 IEM_DS3505
ZHCC,2009-01-02 05:00,ZHCC 020500Z AUTO 20006KT 2SM 03/M15 A3050 RMK T00301150 IEM_DS3505
ZHCC,2009-01-02 06:00,ZHCC 020600Z AUTO 14004KT 6SM 05/M16 A3047 RMK SLP332 T00481157 57040 IEM_DS3505
ZHCC,2009-01-02 07:00,ZHCC 020700Z AUTO 17006KT 2SM 04/M15 A3047 RMK T00401150 IEM_DS3505
ZHCC,2009-01-02 08:00,ZHCC 020800Z AUTO 17006KT 2SM 03/M14 A3047 RMK T00301140 IEM_DS3505
ZHCC,2009-01-02 09:00,ZHCC 020900Z AUTO 14004KT 6SM 04/M15 A3045 RMK SLP324 T00361151 57009 IEM_DS3505
ZHCC,2009-01-02 10:00,ZHCC 021000Z AUTO 15004KT 2SM 01/M14 A3045 RMK T00101140 IEM_DS3505
ZHCC,2009-01-02 11:00,ZHCC 021100Z AUTO 17004KT 1 1/2SM 00/M14 A3047 RMK T00001140 IEM_DS3505
ZHCC,2009-01-02 12:00,ZHCC 021200Z AUTO 14004KT 6SM 02/M14 A3047 RMK SLP335 T00151138 52011 IEM_DS3505
ZHCC,2009-01-02 13:00,ZHCC 021300Z AUTO 1 1/2SM 00/M13 A3047 RMK T00001130 IEM_DS3505
ZHCC,2009-01-02 14:00,ZHCC 021400Z AUTO 1 1/2SM 00/M13 A3047 RMK T00001130 IEM_DS3505
ZHCC,2009-01-02 15:00,ZHCC 021500Z AUTO 18004KT 6SM 01/M13 A3047 RMK SLP329 T00111130 57004 IEM_DS3505
ZHCC,2009-01-02 16:00,ZHCC 021600Z AUTO 1 1/2SM 00/M13 A3045 RMK T00001130 IEM_DS3505
ZHCC,2009-01-02 17:00,ZHCC 021700Z AUTO 1 1/2SM 00/M13 A3045 RMK T00001130 IEM_DS3505
ZHCC,2009-01-02 18:00,ZHCC 021800Z AUTO 18004KT 6SM 01/M13 A3045 RMK SLP320 T00101131 57008 IEM_DS3505
ZHCC,2009-01-02 19:00,ZHCC 021900Z AUTO 18004KT 1 1/2SM M01/M13 A3042 RMK T10101130 IEM_DS3505
ZHCC,2009-01-02 20:00,ZHCC 022000Z AUTO 1 1/2SM M01/M13 A3042 RMK T10101130 IEM_DS3505
ZHCC,2009-01-02 21:00,ZHCC 022100Z AUTO 11002KT 6SM 01/M13 A3039 RMK SLP306 T00071130 57015 IEM_DS3505
ZHCC,2009-01-02 22:00,ZHCC 022200Z AUTO 1 1/4SM M01/M12 A3039 RMK T10101120 IEM_DS3505
ZHCC,2009-01-02 23:00,ZHCC 022300Z AUTO 1 1/4SM M01/M12 A3042 RMK T10101120 IEM_DS3505
ZHCC,2009-01-03 00:00,ZHCC 030000Z AUTO 11004KT 5SM 00/M12 A3042 RMK SLP308 T00021118 52002 IEM_DS3505
ZHCC,2009-01-03 01:00,ZHCC 030100Z AUTO 17004KT 1 1/4SM 00/M10 A3042 RMK T00001100 IEM_DS3505
ZHCC,2009-01-03 02:00,ZHCC 030200Z AUTO 17004KT 1 1/2SM 00/M09 A3045 RMK T00001090 IEM_DS3505
ZHCC,2009-01-03 03:00,ZHCC 030300Z AUTO 16004KT 6SM 03/M10 A3042 RMK SLP316 T00271105 52008 IEM_DS3505
ZHCC,2009-01-03 04:00,ZHCC 030400Z AUTO 2SM 02/M09 A3039 RMK T00201090 IEM_DS3505
ZHCC,2009-01-03 05:00,ZHCC 030500Z AUTO 12004KT 2SM 02/M10 A3036 RMK T00201100 IEM_DS3505
ZHCC,2009-01-03 06:00,ZHCC 030600Z AUTO 14004KT 6SM 03/M10 A3033 RMK SLP287 T00331100 57028 IEM_DS3505
ZHCC,2009-01-03 07:00,ZHCC 030700Z AUTO 12004KT 2SM 03/M10 A3033 RMK T00301100 IEM_DS3505
ZHCC,2009-01-03 08:00,ZHCC 030800Z AUTO 09004KT 2SM 03/M10 A3036 RMK T00301100 IEM_DS3505
ZHCC,2009-01-03 09:00,ZHCC 030900Z AUTO 07004KT 6SM 03/M11 A3036 RMK SLP292 T00301110 52004 IEM_DS3505
ZHCC,2009-01-03 10:00,ZHCC 031000Z AUTO 07004KT 2SM 01/M10 A3039 RMK T00101100 IEM_DS3505
ZHCC,2009-01-03 11:00,ZHCC 031100Z AUTO 06004KT 2SM 00/M12 A3039 RMK T00001120 IEM_DS3505
ZHCC,2009-01-03 12:00,ZHCC 031200Z AUTO 09002KT 6SM 00/M10 A3039 RMK SLP305 T00051101 52012 IEM_DS3505
ZHCC,2009-01-03 13:00,ZHCC 031300Z AUTO 06002KT 2SM M01/M10 A3039 RMK T10101100 IEM_DS3505
ZHCC,2009-01-03 14:00,ZHCC 031400Z AUTO 00000KT 2SM M02/M10 A3039 RMK T10201100 IEM_DS3505
ZHCC,2009-01-03 15:00,ZHCC 031500Z AUTO 09002KT 6SM M00/M09 A3039 RMK SLP306 T10011093 52002 IEM_DS3505
ZHCC,2009-01-03 16:00,ZHCC 031600Z AUTO 30002KT 2SM M04/M10 A3039 RMK T10401100 IEM_DS3505
ZHCC,2009-01-03 17:00,ZHCC 031700Z AUTO 30002KT 1 1/4SM M04/M09 A3039 RMK T10401090 IEM_DS3505
ZHCC,2009-01-03 18:00,ZHCC 031800Z AUTO 16002KT 6SM M02/M09 A3039 RMK SLP307 T10231086 54000 IEM_DS3505
ZHCC,2009-01-03 19:00,ZHCC 031900Z AUTO 30002KT 1SM M04/M09 A3039 RMK T10401090 IEM_DS3505
ZHCC,2009-01-03 20:00,ZHCC 032000Z AUTO 28002KT 1SM M03/M08 A3039 RMK T10301080 IEM_DS3505
ZHCC,2009-01-03 21:00,ZHCC 032100Z AUTO 25002KT 6SM M01/M08 A3039 RMK SLP305 T10141082 57001 IEM_DS3505
ZHCC,2009-01-03 22:00,ZHCC 032200Z AUTO 30004KT 1 1/4SM M02/M08 A3039 RMK T10201080 IEM_DS3505
ZHCC,2009-01-03 23:00,ZHCC 032300Z AUTO 00000KT 1 1/4SM M02/M08 A3042 RMK T10201080 IEM_DS3505
ZHCC,2009-01-04 00:00,ZHCC 040000Z AUTO 07002KT 4SM M01/M07 A3042 RMK SLP318 T10111072 52012 IEM_DS3505
ZHCC,2009-01-04 01:00,ZHCC 040100Z AUTO 35006KT 1 1/4SM M02/M08 A3045 RMK T10201080 IEM_DS3505
ZHCC,2009-01-04 02:00,ZHCC 040200Z AUTO 01006KT 1 1/4SM 00/M07 A3045 RMK T00001070 IEM_DS3505
ZHCC,2009-01-04 03:00,ZHCC 040300Z AUTO 04004KT 4SM 01/M11 A3045 RMK SLP327 T00141107 52009 IEM_DS3505
ZHCC,2009-01-04 04:00,ZHCC 040400Z AUTO 36006KT 1SM 02/M09 A3042 RMK T00201090 IEM_DS3505
ZHCC,2009-01-04 05:00,ZHCC 040500Z AUTO 36006KT 1SM 03/M10 A3039 RMK T00301100 IEM_DS3505
ZHCC,2009-01-04 06:00,ZHCC 040600Z AUTO 02004KT 4SM 04/M12 A3036 RMK SLP294 T00381122 57032 IEM_DS3505
ZHCC,2009-01-04 07:00,ZHCC 040700Z AUTO 03004KT 1 1/4SM 03/M11 A3036 RMK T00301110 IEM_DS3505
ZHCC,2009-01-04 08:00,ZHCC 040800Z AUTO 05006KT 1SM 03/M11 A3036 RMK T00301110 IEM_DS3505
ZHCC,2009-01-04 09:00,ZHCC 040900Z AUTO 09004KT 4SM 03/M12 A3036 RMK SLP296 T00291122 52002 IEM_DS3505
ZHCC,2009-01-04 10:00,ZHCC 041000Z AUTO 1SM 01/M12 A3039 RMK T00101120 IEM_DS3505
ZHCC,2009-01-04 11:00,ZHCC 041100Z AUTO 1SM 01/M12 A3039 RMK T00101120 IEM_DS3505
ZHCC,2009-01-04 12:00,ZHCC 041200Z AUTO 09002KT 4SM M01/M12 A3042 RMK SLP314 T10081115 52017 IEM_DS3505
ZHCC,2009-01-04 13:00,ZHCC 041300Z AUTO 04006KT 1 1/4SM 00/M12 A3042 RMK T00001120 IEM_DS3505
ZHCC,2009-01-04 14:00,ZHCC 041400Z AUTO 03004KT 1 1/4SM M01/M12 A3042 RMK T10101120 IEM_DS3505
ZHCC,2009-01-04 15:00,ZHCC 041500Z AUTO 11002KT 4SM M02/M12 A3045 RMK SLP327 T10181119 52013 IEM_DS3505
ZHCC,2009-01-04 16:00,ZHCC 041600Z AUTO 36004KT 1SM M02/M12 A3045 RMK T10201120 IEM_DS3505
ZHCC,2009-01-04 17:00,ZHCC 041700Z AUTO 36006KT 1SM M02/M12 A3045 RMK T10201120 IEM_DS3505
ZHCC,2009-01-04 18:00,ZHCC 041800Z AUTO 04004KT 4SM M01/M12 A3045 RMK SLP327 T10111115 52001 IEM_DS3505
ZHCC,2009-01-04 19:00,ZHCC 041900Z AUTO 36006KT 1SM M03/M11 A3045 RMK T10301110 IEM_DS3505
ZHCC,2009-01-04 20:00,ZHCC 042000Z AUTO 36006KT 1SM M03/M10 A3045 RMK T10301100 IEM_DS3505
ZHCC,2009-01-04 21:00,ZHCC 042100Z AUTO 02002KT 4SM M03/M08 A3045 RMK SLP327 T10321084 57001 IEM_DS3505
ZHCC,2009-01-04 22:00,ZHCC 042200Z AUTO 01006KT 1SM M04/M08 A3047 RMK T10401080 IEM_DS3505
ZHCC,2009-01-04 23:00,ZHCC 042300Z AUTO 36006KT 1SM M04/M08 A3047 RMK T10401080 IEM_DS3505
ZHCC,2009-01-05 00:00,ZHCC 050000Z AUTO 07004KT 2 1/2SM M03/M06 A3050 RMK SLP347 T10261062 52019 IEM_DS3505
ZHCC,2009-01-05 01:00,ZHCC 050100Z AUTO 36004KT 1SM M03/M06 A3050 RMK T10301060 IEM_DS3505
ZHCC,2009-01-05 02:00,ZHCC 050200Z AUTO 01008KT 1SM M02/M06 A3053 RMK T10201060 IEM_DS3505
ZHCC,2009-01-05 03:00,ZHCC 050300Z AUTO 36004KT 4SM 00/M07 A3053 RMK SLP355 T00031068 52008 IEM_DS3505
ZHCC,2009-01-05 04:00,ZHCC 050400Z AUTO 02010KT 1SM 01/M06 A3047 RMK T00101060 IEM_DS3505
ZHCC,2009-01-05 05:00,ZHCC 050500Z AUTO 02010KT 1SM 02/M05 A3045 RMK T00201050 IEM_DS3505
ZHCC,2009-01-05 06:00,ZHCC 050600Z AUTO 02006KT 4SM 03/M09 A3042 RMK SLP319 T00331093 57034 IEM_DS3505
ZHCC,2009-01-05 07:00,ZHCC 050700Z AUTO 05006KT 1SM 03/M07 A3042 RMK T00301070 IEM_DS3505
ZHCC,2009-01-05 08:00,ZHCC 050800Z AUTO 05006KT 1SM 02/M06 A3042 RMK T00201060 IEM_DS3505
ZHCC,2009-01-05 09:00,ZHCC 050900Z AUTO 04002KT 4SM 03/M07 A3045 RMK SLP323 T00271069 52003 IEM_DS3505
ZHCC,2009-01-05 10:00,ZHCC 051000Z AUTO 01004KT 1SM 02/M06 A3045 RMK T00201060 IEM_DS3505
ZHCC,2009-01-05 11:00,ZHCC 051100Z AUTO 02006KT 1SM 01/M06 A3047 RMK T00101060 IEM_DS3505
ZHCC,2009-01-05 12:00,ZHCC 051200Z AUTO 09002KT 4SM 01/M06 A3047 RMK SLP339 T00121064 52015 IEM_DS3505
ZHCC,2009-01-05 13:00,ZHCC 051300Z AUTO 02004KT 1SM 00/M06 A3050 RMK T00001060 IEM_DS3505
ZHCC,2009-01-05 14:00,ZHCC 051400Z AUTO 01004KT 1SM 00/M06 A3050 RMK T00001060 IEM_DS3505
ZHCC,2009-01-05 15:00,ZHCC 051500Z AUTO 11004KT 4SM 00/M06 A3050 RMK SLP341 T00031061 52003 IEM_DS3505
ZHCC,2009-01-05 16:00,ZHCC 051600Z AUTO 04002KT 1SM M01/M06 A3047 RMK T10101060 IEM_DS3505
ZHCC,2009-01-05 17:00,ZHCC 051700Z AUTO 00000KT 1SM M01/M06 A3047 RMK T10101060 IEM_DS3505
ZHCC,2009-01-05 18:00,ZHCC 051800Z AUTO 00000KT 4SM M02/M07 A3047 RMK SLP334 T10221069 57007 IEM_DS3505
ZHCC,2009-01-05 19:00,ZHCC 051900Z AUTO 29002KT 1SM M02/M07 A3047 RMK T10201070 IEM_DS3505
ZHCC,2009-01-05 20:00,ZHCC 052000Z AUTO 29002KT 1SM M04/M07 A3045 RMK T10401070 IEM_DS3505
ZHCC,2009-01-05 21:00,ZHCC 052100Z AUTO 22002KT 3SM M04/M07 A3045 RMK SLP326 T10401069 57008 IEM_DS3505
ZHCC,2009-01-05 22:00,ZHCC 052200Z AUTO 00000KT 1SM M04/M07 A3045 RMK T10401070 IEM_DS3505
ZHCC,2009-01-05 23:00,ZHCC 052300Z AUTO 00000KT 1SM M04/M07 A3045 RMK T10401070 IEM_DS3505
ZHCC,2009-01-06 00:00,ZHCC 060000Z AUTO 18002KT 3SM M05/M07 A3047 RMK SLP334 T10481068 52007 IEM_DS3505
ZHCC,2009-01-06 01:00,ZHCC 060100Z AUTO 1SM M03/M06 A3047 RMK T10301060 IEM_DS3505
ZHCC,2009-01-06 02:00,ZHCC 060200Z AUTO 1SM M02/M05 A3050 RMK T10201050 IEM_DS3505
ZHCC,2009-01-06 03:00,ZHCC 060300Z AUTO 16002KT 2SM 00/M05 RMK SLP342 T00001054 52009 IEM_DS3505
ZHCC,2009-01-06 04:00,ZHCC 060400Z AUTO 22002KT 1SM 01/M05 A3047 RMK T00101050 IEM_DS3505
ZHCC,2009-01-06 05:00,ZHCC 060500Z AUTO 29002KT 1SM 02/M05 A3045 RMK T00201050 IEM_DS3505
ZHCC,2009-01-06 06:00,ZHCC 060600Z AUTO 29004KT 1 1/4SM 02/M06 A3042 RMK SLP314 T00241064 57028 IEM_DS3505
ZHCC,2009-01-06 07:00,ZHCC 060700Z AUTO 36004KT 1SM 03/M06 A3042 RMK T00301060 IEM_DS3505
ZHCC,2009-01-06 08:00,ZHCC 060800Z AUTO 01006KT 1SM 02/M05 A3042 RMK T00201050 IEM_DS3505
ZHCC,2009-01-06 09:00,ZHCC 060900Z AUTO 32002KT 3SM 02/M06 A3045 RMK SLP325 T00201063 52010 IEM_DS3505
ZHCC,2009-01-06 10:00,ZHCC 061000Z AUTO 01004KT 1SM 00/M06 A3047 RMK T00001060 IEM_DS3505
ZHCC,2009-01-06 11:00,ZHCC 061100Z AUTO 1SM 00/M06 A3047 RMK T00001060 IEM_DS3505
ZHCC,2009-01-06 12:00,ZHCC 061200Z AUTO 14004KT 2 1/2SM M01/M06 A3047 RMK SLP341 T10071061 52015 IEM_DS3505
ZHCC,2009-01-06 13:00,ZHCC 061300Z AUTO 36004KT 1SM M02/M07 A3050 RMK T10201070 IEM_DS3505
ZHCC,2009-01-06 14:00,ZHCC 061400Z AUTO 00000KT 1SM M01/M06 A3050 RMK T10101060 IEM_DS3505
ZHCC,2009-01-06 15:00,ZHCC 061500Z AUTO 00000KT 2 1/2SM M02/M06 A3050 RMK SLP351 T10201060 52011 IEM_DS3505
ZHCC,2009-01-06 16:00,ZHCC 061600Z AUTO 36002KT 1SM M03/M07 A3050 RMK T10301070 IEM_DS3505
ZHCC,2009-01-06 17:00,ZHCC 061700Z AUTO 00000KT 1SM M04/M08 A3050 RMK T10401080 IEM_DS3505
ZHCC,2009-01-06 18:00,ZHCC 061800Z AUTO 00000KT 2 1/2SM M04/M06 A3050 RMK SLP345 T10361065 57006 IEM_DS3505
ZHCC,2009-01-06 19:00,ZHCC 061900Z AUTO 00000KT 1SM M05/M08 A3050 RMK T10501080 IEM_DS3505
ZHCC,2009-01-06 20:00,ZHCC 062000Z AUTO 28002KT 1/2SM M06/M09 A3050 RMK T10601090 IEM_DS3505
ZHCC,2009-01-06 21:00,ZHCC 062100Z AUTO 22002KT 2SM M04/M07 A3050 RMK SLP341 T10431066 57004 IEM_DS3505
ZHCC,2009-01-06 22:00,ZHCC 062200Z AUTO 35002KT 1SM M06/M08 A3050 RMK T10601080 IEM_DS3505
ZHCC,2009-01-06 23:00,ZHCC 062300Z AUTO 00000KT 1SM M06/M08 A3050 RMK T10601080 IEM_DS3505
ZHCC,2009-01-07 00:00,ZHCC 070000Z AUTO 20002KT 1SM M04/M06 A3050 RMK SLP348 T10441064 52006 IEM_DS3505
ZHCC,2009-01-07 01:00,ZHCC 070100Z AUTO 00000KT 3/8SM M04/M06 A3053 RMK T10401060 IEM_DS3505
ZHCC,2009-01-07 02:00,ZHCC 070200Z AUTO 1SM M01/M03 A3053 RMK T10101030 IEM_DS3505
ZHCC,2009-01-07 03:00,ZHCC 070300Z AUTO 18002KT 1 1/4SM 02/M05 A3053 RMK SLP355 T00181049 52008 IEM_DS3505
ZHCC,2009-01-07 04:00,ZHCC 070400Z AUTO 18004KT 1SM 02/M05 A3050 RMK T00201050 IEM_DS3505
ZHCC,2009-01-07 05:00,ZHCC 070500Z AUTO 17004KT 1SM 03/M05 A3047 RMK T00301050 IEM_DS3505
ZHCC,2009-01-07 06:00,ZHCC 070600Z AUTO 18002KT 2SM 05/M06 A3042 RMK SLP313 T00541065 57040 IEM_DS3505
ZHCC,2009-01-07 07:00,ZHCC 070700Z AUTO 15004KT 1SM 04/M05 A3042 RMK T00401050 IEM_DS3505
ZHCC,2009-01-07 08:00,ZHCC 070800Z AUTO 16004KT 1SM 04/M05 A3042 RMK T00401050 IEM_DS3505
ZHCC,2009-01-07 09:00,ZHCC 070900Z AUTO 16004KT 2 1/2SM 04/M07 A3042 RMK SLP307 T00431066 57007 IEM_DS3505
ZHCC,2009-01-07 10:00,ZHCC 071000Z AUTO 1SM 01/M05 A3042 RMK T00101050 IEM_DS3505
ZHCC,2009-01-07 11:00,ZHCC 071100Z AUTO 17004KT 1SM 00/M04 A3042 RMK T00001040 IEM_DS3505
ZHCC,2009-01-07 12:00,ZHCC 071200Z AUTO 18004KT 2SM 01/M05 A3045 RMK SLP320 T00081046 52012 IEM_DS3505
ZHCC,2009-01-07 13:00,ZHCC 071300Z AUTO 20004KT 3/8SM M01/M04 A3045 RMK T10101040 IEM_DS3505
ZHCC,2009-01-07 14:00,ZHCC 071400Z AUTO 20006KT 1/4SM M01/M03 A3045 RMK T10101030 IEM_DS3505
ZHCC,2009-01-07 15:00,ZHCC 071500Z AUTO 27002KT 2SM M01/M06 A3045 RMK SLP317 T10141058 57002 IEM_DS3505
ZHCC,2009-01-07 16:00,ZHCC 071600Z AUTO 22006KT 1/4SM M01/M03 A3045 RMK T10101030 IEM_DS3505
ZHCC,2009-01-07 17:00,ZHCC 071700Z AUTO 20004KT 1/8SM M02/M04 A3042 RMK T10201040 IEM_DS3505
ZHCC,2009-01-07 18:00,ZHCC 071800Z AUTO 25002KT 2SM M04/M07 A3042 RMK SLP311 T10421067 57006 IEM_DS3505
ZHCC,2009-01-07 19:00,ZHCC 071900Z AUTO 19004KT 1/8SM M05/M06 A3042 RMK T10501060 IEM_DS3505
ZHCC,2009-01-07 20:00,ZHCC 072000Z AUTO 20004KT 1/8SM M04/M05 A3042 RMK T10401050 IEM_DS3505
ZHCC,2009-01-07 21:00,ZHCC 072100Z AUTO 09002KT 4SM M03/M08 A3039 RMK SLP301 T10291082 57009 IEM_DS3505
ZHCC,2009-01-07 22:00,ZHCC 072200Z AUTO 22004KT 0SM M04/M05 A3039 RMK T10401050 IEM_DS3505
ZHCC,2009-01-07 23:00,ZHCC 072300Z AUTO 22004KT 1/4SM M04/M05 A3042 RMK T10401050 IEM_DS3505
ZHCC,2009-01-08 00:00,ZHCC 080000Z AUTO 27002KT 6SM 00/M09 A3042 RMK SLP319 T00051090 52017 IEM_DS3505
ZHCC,2009-01-08 01:00,ZHCC 080100Z AUTO 24006KT 1SM M02/M03 A3045 RMK T10201030 IEM_DS3505
ZHCC,2009-01-08 02:00,ZHCC 080200Z AUTO 27008KT 1 1/4SM 02/01 A3045 RMK T00200010 IEM_DS3505
ZHCC,2009-01-08 03:00,ZHCC 080300Z AUTO 29010KT 7SM 06/M10 A3045 RMK SLP328 T00571101 52010 IEM_DS3505
ZHCC,2009-01-08 04:00,ZHCC 080400Z AUTO 35019G29KT 2SM 07/M09 A3045 RMK T00701090 IEM_DS3505
ZHCC,2009-01-08 05:00,ZHCC 080500Z AUTO 34019G29KT 2 1/2SM 07/M10 A3042 RMK T00701100 IEM_DS3505
ZHCC,2009-01-08 06:00,ZHCC 080600Z AUTO 27010KT 8SM 08/M11 A3039 RMK SLP302 T00821112 57026 IEM_DS3505
ZHCC,2009-01-08 07:00,ZHCC 080700Z AUTO 33012KT 2 1/2SM 08/M10 A3039 RMK T00801100 IEM_DS3505
ZHCC,2009-01-08 08:00,ZHCC 080800Z AUTO 34010KT 2 1/2SM 08/M10 A3039 RMK T00801100 IEM_DS3505
ZHCC,2009-01-08 09:00,ZHCC 080900Z AUTO 27010KT 8SM 08/M16 A3042 RMK SLP311 T00761159 52009 IEM_DS3505
ZHCC,2009-01-08 10:00,ZHCC 081000Z AUTO 27014KT 3SM 05/M13 A3045 RMK T00501130 IEM_DS3505
ZHCC,2009-01-08 11:00,ZHCC 081100Z AUTO 27014KT 3SM 04/M13 A3047 RMK T00401130 IEM_DS3505
ZHCC,2009-01-08 12:00,ZHCC 081200Z AUTO 29012KT 8SM 04/M15 A3050 RMK SLP346 T00451154 52035 IEM_DS3505
ZHCC,2009-01-08 13:00,ZHCC 081300Z AUTO 35019G31KT 3SM 03/M15 A3053 RMK T00301150 IEM_DS3505
ZHCC,2009-01-08 14:00,ZHCC 081400Z AUTO 35008KT 3SM 03/M15 A3056 RMK T00301150 IEM_DS3505
ZHCC,2009-01-08 15:00,ZHCC 081500Z AUTO 32010KT 9SM 03/M17 A3059 RMK SLP371 T00291167 52026 IEM_DS3505
ZHCC,2009-01-08 16:00,ZHCC 081600Z AUTO 36006KT 1SM M01/M10 A3059 RMK T10101100 IEM_DS3505
ZHCC,2009-01-08 17:00,ZHCC 081700Z AUTO 36002KT 1SM M03/M11 A3059 RMK T10301110 IEM_DS3505
ZHCC,2009-01-08 18:00,ZHCC 081800Z AUTO 09002KT 9SM M00/M17 A3059 RMK SLP372 T10041167 54000 IEM_DS3505
ZHCC,2009-01-08 19:00,ZHCC 081900Z AUTO 00000KT 1SM M04/M11 A3059 RMK T10401110 IEM_DS3505
ZHCC,2009-01-08 20:00,ZHCC 082000Z AUTO 08004KT 1SM M07/M12 A3059 RMK T10701120 IEM_DS3505
ZHCC,2009-01-08 21:00,ZHCC 082100Z AUTO 11002KT 7SM M03/M09 A3059 RMK SLP370 T10301090 57002 IEM_DS3505
ZHCC,2009-01-08 22:00,ZHCC 082200Z AUTO 00000KT 1 1/4SM M05/M10 A3059 RMK T10501100 IEM_DS3505
ZHCC,2009-01-08 23:00,ZHCC 082300Z AUTO 28004KT 1SM M06/M10 A3062 RMK T10601100 IEM_DS3505
ZHCC,2009-01-09 00:00,ZHCC 090000Z AUTO 11002KT 3SM M06/M09 A3062 RMK SLP386 T10591091 52014 IEM_DS3505
ZHCC,2009-01-09 01:00,ZHCC 090100Z AUTO 01002KT 1SM M05/M07 A3065 RMK T10501070 IEM_DS3505
ZHCC,2009-01-09 02:00,ZHCC 090200Z AUTO 02004KT 1SM M03/M05 A3065 RMK T10301050 IEM_DS3505
ZHCC,2009-01-09 03:00,ZHCC 090300Z AUTO 11004KT 2 1/2SM M00/M06 A3065 RMK SLP397 T10031061 52012 IEM_DS3505
ZHCC,2009-01-09 04:00,ZHCC 090400Z AUTO 34006KT 1 1/4SM 00/M06 A3062 RMK T00001060 IEM_DS3505
ZHCC,2009-01-09 05:00,ZHCC 090500Z AUTO 35006KT 1 1/4SM 03/M09 A3059 RMK T00301090 IEM_DS3505
ZHCC,2009-01-09 06:00,ZHCC 090600Z AUTO 32010KT 9SM 04/M21 A3056 RMK SLP364 T00431209 57033 IEM_DS3505
ZHCC,2009-01-09 07:00,ZHCC 090700Z AUTO 36006KT 2 1/2SM 04/M16 A3056 RMK T00401160 IEM_DS3505
ZHCC,2009-01-09 08:00,ZHCC 090800Z AUTO 35010KT 4SM 04/M20 A3056 RMK T00401200 IEM_DS3505
ZHCC,2009-01-09 09:00,ZHCC 090900Z AUTO 09004KT 10SM 02/M13 A3056 RMK SLP360 T00241126 57005 IEM_DS3505
ZHCC,2009-01-09 10:00,ZHCC 091000Z AUTO 09006KT 2SM M01/M12 A3056 RMK T10101120 IEM_DS3505
ZHCC,2009-01-09 11:00,ZHCC 091100Z AUTO 12004KT 2SM M02/M12 A3059 RMK T10201120 IEM_DS3505
ZHCC,2009-01-09 12:00,ZHCC 091200Z AUTO 09004KT 7SM M02/M12 A3059 RMK SLP377 T10161120 52015 IEM_DS3505
ZHCC,2009-01-09 13:00,ZHCC 091300Z AUTO 00000KT 2SM M04/M12 A3059 RMK T10401120 IEM_DS3505
ZHCC,2009-01-09 14:00,ZHCC 091400Z AUTO 00000KT 2SM M05/M12 A3062 RMK T10501120 IEM_DS3505
ZHCC,2009-01-09 15:00,ZHCC 091500Z AUTO 16002KT 7SM M04/M12 A3062 RMK SLP382 T10361116 52006 IEM_DS3505
ZHCC,2009-01-09 16:00,ZHCC 091600Z AUTO 2SM M05/M11 A3059 RMK T10501110 IEM_DS3505
ZHCC,2009-01-09 17:00,ZHCC 091700Z AUTO 1 1/4SM M04/M11 A3059 RMK T10401110 IEM_DS3505
ZHCC,2009-01-09 18:00,ZHCC 091800Z AUTO 22002KT 6SM M06/M12 A3059 RMK SLP368 T10641117 57013 IEM_DS3505
ZHCC,2009-01-09 19:00,ZHCC 091900Z AUTO 20002KT 1 1/4SM M05/M11 A3056 RMK T10501110 IEM_DS3505
ZHCC,2009-01-09 20:00,ZHCC 092000Z AUTO 22002KT 1SM M08/M13 A3053 RMK T10801130 IEM_DS3505
ZHCC,2009-01-09 21:00,ZHCC 092100Z AUTO 25002KT 6SM M07/M12 A3050 RMK SLP349 T10731118 57020 IEM_DS3505
ZHCC,2009-01-09 22:00,ZHCC 092200Z AUTO 1 1/4SM M09/M12 A3050 RMK T10901120 IEM_DS3505
ZHCC,2009-01-09 23:00,ZHCC 092300Z AUTO 00000KT 1SM M10/M14 A3050 RMK T11001140 IEM_DS3505
ZHCC,2009-01-10 00:00,ZHCC 100000Z AUTO 18002KT 6SM M08/M12 A3047 RMK SLP339 T10781123 57011 IEM_DS3505
ZHCC,2009-01-10 01:00,ZHCC 100100Z AUTO 21002KT 1SM M03/M07 A3047 RMK T10301070 IEM_DS3505
ZHCC,2009-01-10 02:00,ZHCC 100200Z AUTO 22006KT 1 1/4SM 00/M12 A3047 RMK T00001120 IEM_DS3505
ZHCC,2009-01-10 03:00,ZHCC 100300Z AUTO 20002KT 7SM 05/M17 A3045 RMK SLP314 T00521166 57021 IEM_DS3505
ZHCC,2009-01-10 04:00,ZHCC 100400Z AUTO 20010KT 2SM 04/M09 A3039 RMK T00401090 IEM_DS3505
ZHCC,2009-01-10 05:00,ZHCC 100500Z AUTO 21012KT 2SM 06/M10 A3033 RMK T00601100 IEM_DS3505
ZHCC,2009-01-10 06:00,ZHCC 100600Z AUTO 27006KT 8SM 09/M17 A3027 RMK SLP259 T00911170 57054 IEM_DS3505
ZHCC,2009-01-10 07:00,ZHCC 100700Z AUTO 21012KT 2SM 07/M11 A3024 RMK T00701110 IEM_DS3505
ZHCC,2009-01-10 08:00,ZHCC 100800Z AUTO 21008KT 2SM 07/M11 A3024 RMK T00701110 IEM_DS3505
ZHCC,2009-01-10 09:00,ZHCC 100900Z AUTO 20006KT 8SM 08/M12 A3021 RMK SLP241 T00751118 57019 IEM_DS3505
ZHCC,2009-01-10 10:00,ZHCC 101000Z AUTO 19006KT 2SM 04/M06 A3021 RMK T00401060 IEM_DS3505
ZHCC,2009-01-10 11:00,ZHCC 101100Z AUTO 20008KT 2SM 02/M05 A3021 RMK T00201050 IEM_DS3505
ZHCC,2009-01-10 12:00,ZHCC 101200Z AUTO 22006KT 7SM 03/M07 A3021 RMK SLP237 T00311068 57005 IEM_DS3505
ZHCC,2009-01-10 13:00,ZHCC 101300Z AUTO 20006KT 2SM 01/M06 A3018 RMK T00101060 IEM_DS3505
ZHCC,2009-01-10 14:00,ZHCC 101400Z AUTO 22006KT 1 1/4SM 01/M05 A3018 RMK T00101050 IEM_DS3505
ZHCC,2009-01-10 15:00,ZHCC 101500Z AUTO 27002KT 6SM M01/M09 A3018 RMK SLP232 T10081089 57003 IEM_DS3505
ZHCC,2009-01-10 16:00,ZHCC 101600Z AUTO 26004KT 1 1/4SM M02/M08 A3018 RMK T10201080 IEM_DS3505
ZHCC,2009-01-10 17:00,ZHCC 101700Z AUTO 1 1/4SM M04/M07 A3021 RMK T10401070 IEM_DS3505
ZHCC,2009-01-10 18:00,ZHCC 101800Z AUTO 02004KT 7SM 01/M11 A3024 RMK SLP250 T00111110 52020 IEM_DS3505
ZHCC,2009-01-10 19:00,ZHCC 101900Z AUTO 36008KT 2SM 00/M10 A3024 RMK T00001100 IEM_DS3505
ZHCC,2009-01-10 20:00,ZHCC 102000Z AUTO 36008KT 2SM 01/M12 A3027 RMK T00101120 IEM_DS3505
ZHCC,2009-01-10 21:00,ZHCC 102100Z AUTO 09002KT 7SM M04/M10 A3027 RMK SLP269 T10391105 52017 IEM_DS3505
ZHCC,2009-01-10 22:00,ZHCC 102200Z AUTO 36010KT 2 1/2SM 00/M14 A3030 RMK T00001140 IEM_DS3505
ZHCC,2009-01-10 23:00,ZHCC 102300Z AUTO 36012KT 2 1/2SM 00/M14 A3033 RMK T00001140 IEM_DS3505
ZHCC,2009-01-11 00:00,ZHCC 110000Z AUTO 02010KT 6SM 00/M16 A3039 RMK SLP306 T00021157 52036 IEM_DS3505
ZHCC,2009-01-11 01:00,ZHCC 110100Z AUTO 36014KT 2SM M03/M15 A3045 RMK T10301150 IEM_DS3505
ZHCC,2009-01-11 02:00,ZHCC 110200Z AUTO 02017KT 2 1/2SM M02/M17 A3047 RMK T10201170 IEM_DS3505
ZHCC,2009-01-11 03:00,ZHCC 110300Z AUTO 04008KT 7SM M00/M20 A3047 RMK SLP342 T10041195 52034 IEM_DS3505
ZHCC,2009-01-11 04:00,ZHCC 110400Z AUTO 03016KT 4SM 00/M18 A3047 RMK T00001180 IEM_DS3505
ZHCC,2009-01-11 05:00,ZHCC 110500Z AUTO 03014KT 4SM 01/M18 A3047 RMK T00101180 IEM_DS3505
ZHCC,2009-01-11 06:00,ZHCC 110600Z AUTO 04008KT 11SM 01/M19 A3047 RMK SLP334 T00111194 57007 IEM_DS3505
ZHCC,2009-01-11 07:00,ZHCC 110700Z AUTO 06012KT 4SM 01/M18 A3047 RMK T00101180 IEM_DS3505
ZHCC,2009-01-11 08:00,ZHCC 110800Z AUTO 03010KT 4SM 00/M19 A3050 RMK T00001190 IEM_DS3505
ZHCC,2009-01-11 09:00,ZHCC 110900Z AUTO 04008KT 11SM 00/M20 A3050 RMK SLP352 T00001203 52017 IEM_DS3505
ZHCC,2009-01-11 10:00,ZHCC 111000Z AUTO 04006KT 4SM M02/M19 A3056 RMK T10201190 IEM_DS3505
ZHCC,2009-01-11 11:00,ZHCC 111100Z AUTO 03004KT 4SM M02/M19 A3059 RMK T10201190 IEM_DS3505
ZHCC,2009-01-11 12:00,ZHCC 111200Z AUTO 07004KT 11SM M02/M19 A3062 RMK SLP393 T10221187 52040 IEM_DS3505
ZHCC,2009-01-11 13:00,ZHCC 111300Z AUTO 01004KT 4SM M03/M19 A3065 RMK T10301190 IEM_DS3505
ZHCC,2009-01-11 14:00,ZHCC 111400Z AUTO 33002KT 4SM M04/M19 A3068 RMK T10401190 IEM_DS3505
ZHCC,2009-01-11 15:00,ZHCC 111500Z AUTO 02002KT 11SM M05/M18 A3071 RMK SLP418 T10491184 52024 IEM_DS3505
ZHCC,2009-01-11 16:00,ZHCC 111600Z AUTO 4SM M05/M18 A3074 RMK T10501180 IEM_DS3505
ZHCC,2009-01-11 17:00,ZHCC 111700Z AUTO 27002KT M06/M18 A3074 RMK T10601180 IEM_DS3505
ZHCC,2009-01-11 18:00,ZHCC 111800Z AUTO 25002KT 10SM M05/M17 A3074 RMK SLP427 T10491167 52010 IEM_DS3505
ZHCC,2009-01-11 19:00,ZHCC 111900Z AUTO 26002KT M10/M18 A3074 RMK T11001180 IEM_DS3505
ZHCC,2009-01-11 20:00,ZHCC 112000Z AUTO 26002KT M07/M17 A3074 RMK T10701170 IEM_DS3505
ZHCC,2009-01-11 21:00,ZHCC 112100Z AUTO 25004KT 10SM M07/M16 A3074 RMK SLP427 T10661163 57001 IEM_DS3505
ZHCC,2009-01-11 22:00,ZHCC 112200Z AUTO 22002KT 2 1/2SM M09/M15 A3074 RMK T10901150 IEM_DS3505
ZHCC,2009-01-11 23:00,ZHCC 112300Z AUTO 2 1/2SM M08/M18 A3074 RMK T10801180 IEM_DS3505
ZHCC,2009-01-12 00:00,ZHCC 120000Z AUTO 22002KT 8SM M08/M17 A3074 RMK SLP427 T10801166 57001 IEM_DS3505
ZHCC,2009-01-12 01:00,ZHCC 120100Z AUTO 26004KT 2 1/2SM M04/M16 A3074 RMK T10401160 IEM_DS3505
ZHCC,2009-01-12 02:00,ZHCC 120200Z AUTO 27008KT 2 1/2SM M01/M15 A3074 RMK T10101150 IEM_DS3505
ZHCC,2009-01-12 03:00,ZHCC 120300Z AUTO 27010KT 7SM 01/M20 A3074 RMK SLP426 T00101195 52001 IEM_DS3505
ZHCC,2009-01-12 04:00,ZHCC 120400Z AUTO 34016KT 3SM 02/M19 A3071 RMK T00201190 IEM_DS3505
ZHCC,2009-01-12 05:00,ZHCC 120500Z AUTO 34014KT 6SM 02/M19 A3068 RMK T00201190 IEM_DS3505
ZHCC,2009-01-12 06:00,ZHCC 120600Z AUTO 27012G21KT 9SM 04/M21 A3065 RMK SLP391 T00351207 57034 IEM_DS3505
ZHCC,2009-01-12 07:00,ZHCC 120700Z AUTO 34012KT 6SM 03/M20 A3062 RMK T00301200 IEM_DS3505
ZHCC,2009-01-12 08:00,ZHCC 120800Z AUTO 34012KT 6SM 03/M19 A3062 RMK T00301190 IEM_DS3505
ZHCC,2009-01-12 09:00,ZHCC 120900Z AUTO 29004KT 11SM 04/M21 A3062 RMK SLP383 T00361206 57009 IEM_DS3505
ZHCC,2009-01-12 10:00,ZHCC 121000Z AUTO 27004KT 6SM 01/M20 A3065 RMK T00101200 IEM_DS3505
ZHCC,2009-01-12 11:00,ZHCC 121100Z AUTO 6SM M02/M17 A3065 RMK T10201170 IEM_DS3505
ZHCC,2009-01-12 12:00,ZHCC 121200Z AUTO 27006KT 11SM 00/M19 A3065 RMK SLP396 T00051188 52012 IEM_DS3505
ZHCC,2009-01-12 13:00,ZHCC 121300Z AUTO 26008KT 6SM M02/M18 A3065 RMK T10201180 IEM_DS3505
ZHCC,2009-01-12 14:00,ZHCC 121400Z AUTO 26008KT 6SM M02/M18 A3068 RMK T10201180 IEM_DS3505
ZHCC,2009-01-12 15:00,ZHCC 121500Z AUTO 27004KT 11SM M01/M19 A3068 RMK SLP401 T10061187 52007 IEM_DS3505
ZHCC,2009-01-12 16:00,ZHCC 121600Z AUTO 27008KT 6SM M04/M19 A3065 RMK T10401190 IEM_DS3505
ZHCC,2009-01-12 17:00,ZHCC 121700Z AUTO 26006KT M03/M18 A3065 RMK T10301180 IEM_DS3505
ZHCC,2009-01-12 18:00,ZHCC 121800Z AUTO 29006KT 11SM M02/M19 A3062 RMK SLP386 T10151190 57014 IEM_DS3505
ZHCC,2009-01-12 19:00,ZHCC 121900Z AUTO 27006KT M06/M19 A3062 RMK T10601190 IEM_DS3505
ZHCC,2009-01-12 20:00,ZHCC 122000Z AUTO 26002KT M06/M18 A3062 RMK T10601180 IEM_DS3505
ZHCC,2009-01-12 21:00,ZHCC 122100Z AUTO 27010KT 11SM M01/M19 A3059 RMK SLP372 T10081194 57014 IEM_DS3505
ZHCC,2009-01-12 22:00,ZHCC 122200Z AUTO 27006KT 6SM M05/M19 A3059 RMK T10501190 IEM_DS3505
ZHCC,2009-01-12 23:00,ZHCC 122300Z AUTO 26006KT 6SM M07/M18 A3059 RMK T10701180 IEM_DS3505
ZHCC,2009-01-13 00:00,ZHCC 130000Z AUTO 27008KT 11SM M01/M19 A3056 RMK SLP367 T10081194 57006 IEM_DS3505
ZHCC,2009-01-13 01:00,ZHCC 130100Z AUTO 26004KT 4SM M02/M17 A3059 RMK T10201170 IEM_DS3505
ZHCC,2009-01-13 02:00,ZHCC 130200Z AUTO 26008KT 4SM 02/M16 A3059 RMK T00201160 IEM_DS3505
ZHCC,2009-01-13 03:00,ZHCC 130300Z AUTO 29010KT 11SM 04/M20 A3056 RMK SLP365 T00421202 57001 IEM_DS3505
ZHCC,2009-01-13 04:00,ZHCC 130400Z AUTO 24006KT 6SM 05/M17 A3053 RMK T00501170 IEM_DS3505
ZHCC,2009-01-13 05:00,ZHCC 130500Z AUTO 24006KT 6SM 07/M17 A3047 RMK T00701170 IEM_DS3505
ZHCC,2009-01-13 06:00,ZHCC 130600Z AUTO 27006KT 11SM 09/M20 A3045 RMK SLP320 T00861202 57043 IEM_DS3505
ZHCC,2009-01-13 07:00,ZHCC 130700Z AUTO 19006KT 5SM 08/M17 A3042 RMK T00801170 IEM_DS3505
ZHCC,2009-01-13 08:00,ZHCC 130800Z AUTO 18006KT 5SM 08/M16 A3042 RMK T00801160 IEM_DS3505
ZHCC,2009-01-13 09:00,ZHCC 130900Z AUTO 27002KT 11SM 09/M19 A3042 RMK SLP307 T00871191 57013 IEM_DS3505
ZHCC,2009-01-13 10:00,ZHCC 131000Z AUTO 18006KT 4SM 05/M17 A3042 RMK T00501170 IEM_DS3505
ZHCC,2009-01-13 11:00,ZHCC 131100Z AUTO 18008KT 2 1/2SM 03/M15 A3042 RMK T00301150 IEM_DS3505
ZHCC,2009-01-13 12:00,ZHCC 131200Z AUTO 18002KT 7SM 01/M16 A3045 RMK SLP318 T00141165 52009 IEM_DS3505
ZHCC,2009-01-13 13:00,ZHCC 131300Z AUTO 18006KT 1 1/2SM 01/M14 A3045 RMK T00101140 IEM_DS3505
ZHCC,2009-01-13 14:00,ZHCC 131400Z AUTO 19004KT 1 1/2SM M03/M15 A3045 RMK T10301150 IEM_DS3505
ZHCC,2009-01-13 15:00,ZHCC 131500Z AUTO 22002KT 7SM M02/M15 RMK SLP329 T10191147 52011 IEM_DS3505
ZHCC,2009-01-13 16:00,ZHCC 131600Z AUTO 17004KT 1 1/4SM M03/M12 A3047 RMK T10301120 IEM_DS3505
ZHCC,2009-01-13 17:00,ZHCC 131700Z AUTO 36004KT 1 1/2SM M04/M12 A3047 RMK T10401120 IEM_DS3505
ZHCC,2009-01-13 18:00,ZHCC 131800Z AUTO 34004KT 7SM 02/M16 A3050 RMK SLP344 T00251165 52018 IEM_DS3505
ZHCC,2009-01-13 19:00,ZHCC 131900Z AUTO 36010KT 2SM 00/M15 A3053 RMK T00001150 IEM_DS3505
ZHCC,2009-01-13 20:00,ZHCC 132000Z AUTO 36010KT 2SM M02/M15 A3056 RMK T10201150 IEM_DS3505
ZHCC,2009-01-13 21:00,ZHCC 132100Z AUTO 04006KT 8SM 01/M17 A3056 RMK SLP371 T00121171 52026 IEM_DS3505
ZHCC,2009-01-13 22:00,ZHCC 132200Z AUTO 36014KT 2SM M02/M16 A3062 RMK T10201160 IEM_DS3505
ZHCC,2009-01-13 23:00,ZHCC 132300Z AUTO 02016KT 2SM M03/M17 A3065 RMK T10301170 IEM_DS3505
ZHCC,2009-01-14 00:00,ZHCC 140000Z AUTO 04010KT 8SM M02/M21 A3071 RMK SLP416 T10221206 52041 IEM_DS3505
ZHCC,2009-01-14 01:00,ZHCC 140100Z AUTO 02016KT 2 1/2SM M03/M19 A3071 RMK T10301190 IEM_DS3505
ZHCC,2009-01-14 02:00,ZHCC 140200Z AUTO 04017KT 2 1/2SM M02/M17 A3074 RMK T10201170 IEM_DS3505
ZHCC,2009-01-14 03:00,ZHCC 140300Z AUTO 04006KT 8SM 00/M16 A3077 RMK SLP440 T00041160 52024 IEM_DS3505
ZHCC,2009-01-14 04:00,ZHCC 140400Z AUTO 03010KT 2 1/2SM 00/M15 A3077 RMK T00001150 IEM_DS3505
ZHCC,2009-01-14 05:00,ZHCC 140500Z AUTO 03012KT 2 1/2SM 01/M15 A3071 RMK T00101150 IEM_DS3505
ZHCC,2009-01-14 06:00,ZHCC 140600Z AUTO 04008KT 9SM 02/M14 A3071 RMK SLP413 T00211145 57025 IEM_DS3505
ZHCC,2009-01-14 07:00,ZHCC 140700Z AUTO 02008KT 2 1/2SM 02/M14 A3068 RMK T00201140 IEM_DS3505
ZHCC,2009-01-14 08:00,ZHCC 140800Z AUTO 04008KT 2 1/2SM 02/M15 A3068 RMK T00201150 IEM_DS3505
ZHCC,2009-01-14 09:00,ZHCC 140900Z AUTO 09006KT 9SM 02/M16 A3068 RMK SLP404 T00151155 57009 IEM_DS3505
ZHCC,2009-01-14 10:00,ZHCC 141000Z AUTO 05004KT 2 1/2SM 00/M15 A3068 RMK T00001150 IEM_DS3505
ZHCC,2009-01-14 11:00,ZHCC 141100Z AUTO 05004KT 2 1/2SM M01/M16 A3068 RMK T10101160 IEM_DS3505
ZHCC,2009-01-14 12:00,ZHCC 141200Z AUTO 11002KT 9SM M02/M14 A3068 RMK SLP405 T10241145 57001 IEM_DS3505
ZHCC,2009-01-14 13:00,ZHCC 141300Z AUTO 00000KT 2 1/2SM M03/M14 A3065 RMK T10301140 IEM_DS3505
ZHCC,2009-01-14 14:00,ZHCC 141400Z AUTO 00000KT 2 1/2SM M04/M14 A3065 RMK T10401140 IEM_DS3505
ZHCC,2009-01-14 15:00,ZHCC 141500Z AUTO 18002KT 8SM M05/M14 A3062 RMK SLP390 T10531141 57015 IEM_DS3505
ZHCC,2009-01-14 16:00,ZHCC 141600Z AUTO 08004KT 2 1/2SM M06/M13 A3062 RMK T10601130 IEM_DS3505
ZHCC,2009-01-14 17:00,ZHCC 141700Z AUTO 08004KT M07/M14 A3059 RMK T10701140 IEM_DS3505
ZHCC,2009-01-14 18:00,ZHCC 141800Z AUTO 18002KT 7SM M06/M14 A3059 RMK SLP371 T10641144 57019 IEM_DS3505
ZHCC,2009-01-14 19:00,ZHCC 141900Z AUTO 22006KT 2SM M04/M14 A3056 RMK T10401140 IEM_DS3505
ZHCC,2009-01-14 20:00,ZHCC 142000Z AUTO 22006KT 2SM M04/M13 A3053 RMK T10401130 IEM_DS3505
ZHCC,2009-01-14 21:00,ZHCC 142100Z AUTO 22002KT 7SM M05/M14 A3050 RMK SLP345 T10481144 57025 IEM_DS3505
ZHCC,2009-01-14 22:00,ZHCC 142200Z AUTO 21004KT 2 1/2SM M05/M13 A3047 RMK T10501130 IEM_DS3505
ZHCC,2009-01-14 23:00,ZHCC 142300Z AUTO 22004KT 2 1/2SM M05/M13 A3045 RMK T10501130 IEM_DS3505
ZHCC,2009-01-15 00:00,ZHCC 150000Z AUTO 16002KT 7SM M07/M13 A3045 RMK SLP330 T10721134 57017 IEM_DS3505
ZHCC,2009-01-15 01:00,ZHCC 150100Z AUTO 17004KT 2SM M05/M12 A3045 RMK T10501120 IEM_DS3505
ZHCC,2009-01-15 02:00,ZHCC 150200Z AUTO 18006KT 2SM M02/M12 A3042 RMK T10201120 IEM_DS3505
ZHCC,2009-01-15 03:00,ZHCC 150300Z AUTO 14004KT 4SM 02/M13 A3042 RMK SLP309 T00181131 57019 IEM_DS3505
ZHCC,2009-01-15 04:00,ZHCC 150400Z AUTO 18008KT 2SM 02/M12 A3036 RMK T00201120 IEM_DS3505
ZHCC,2009-01-15 05:00,ZHCC 150500Z AUTO 18008KT 2SM 04/M11 A3033 RMK T00401110 IEM_DS3505
ZHCC,2009-01-15 06:00,ZHCC 150600Z AUTO 16004KT 5SM 06/M13 A3027 RMK SLP260 T00591131 57047 IEM_DS3505
ZHCC,2009-01-15 07:00,ZHCC 150700Z AUTO 20008KT 2SM 06/M11 A3024 RMK T00601110 IEM_DS3505
ZHCC,2009-01-15 08:00,ZHCC 150800Z AUTO 20008KT 2SM 06/M10 A3024 RMK T00601100 IEM_DS3505
ZHCC,2009-01-15 09:00,ZHCC 150900Z AUTO 18004KT 5SM 05/M12 A3024 RMK SLP255 T00541116 57005 IEM_DS3505
ZHCC,2009-01-15 10:00,ZHCC 151000Z AUTO 19004KT 1 1/4SM 03/M10 A3027 RMK T00301100 IEM_DS3505
ZHCC,2009-01-15 11:00,ZHCC 151100Z AUTO 19004KT 1 1/4SM 02/M10 A3027 RMK T00201100 IEM_DS3505
ZHCC,2009-01-15 12:00,ZHCC 151200Z AUTO 29002KT 5SM 01/M11 A3027 RMK SLP268 T00101111 52011 IEM_DS3505
ZHCC,2009-01-15 13:00,ZHCC 151300Z AUTO 1 1/4SM 01/M10 A3027 RMK T00101100 IEM_DS3505
ZHCC,2009-01-15 14:00,ZHCC 151400Z AUTO 1 1/4SM M01/M10 A3030 RMK T10101100 IEM_DS3505
ZHCC,2009-01-15 15:00,ZHCC 151500Z AUTO 25002KT 4SM M02/M11 A3030 RMK SLP275 T10241112 52008 IEM_DS3505
ZHCC,2009-01-15 16:00,ZHCC 151600Z AUTO 31002KT 1 1/4SM M03/M12 A3030 RMK T10301120 IEM_DS3505
ZHCC,2009-01-15 17:00,ZHCC 151700Z AUTO 00000KT 1SM M03/M11 A3030 RMK T10301110 IEM_DS3505
ZHCC,2009-01-15 18:00,ZHCC 151800Z AUTO 20002KT 4SM M05/M11 A3030 RMK SLP274 T10501109 54000 IEM_DS3505
ZHCC,2009-01-15 19:00,ZHCC 151900Z AUTO 02002KT 1 1/4SM M02/M12 A3030 RMK T10201120 IEM_DS3505
ZHCC,2009-01-15 20:00,ZHCC 152000Z AUTO 36002KT 1 1/4SM M03/M13 A3030 RMK T10301130 IEM_DS3505
ZHCC,2009-01-15 21:00,ZHCC 152100Z AUTO 22002KT 3SM M05/M11 A3030 RMK SLP274 T10511112 54000 IEM_DS3505
ZHCC,2009-01-15 22:00,ZHCC 152200Z AUTO 36006KT 1 1/4SM M04/M11 A3030 RMK T10401110 IEM_DS3505
ZHCC,2009-01-15 23:00,ZHCC 152300Z AUTO 32004KT 1 1/4SM M06/M12 A3033 RMK T10601120 IEM_DS3505
ZHCC,2009-01-16 00:00,ZHCC 160000Z AUTO 20002KT 2SM M04/M10 A3039 RMK SLP299 T10441104 52023 IEM_DS3505
ZHCC,2009-01-16 01:00,ZHCC 160100Z AUTO 35006KT 1SM M02/M10 A3039 RMK T10201100 IEM_DS3505
ZHCC,2009-01-16 02:00,ZHCC 160200Z AUTO 03006KT 1SM 00/M11 A3036 RMK T00001110 IEM_DS3505
ZHCC,2009-01-16 03:00,ZHCC 160300Z AUTO 11004KT 2SM 03/M12 A3036 RMK SLP290 T00291122 57007 IEM_DS3505
ZHCC,2009-01-16 04:00,ZHCC 160400Z AUTO 05006KT 1 1/4SM 04/M11 A3033 RMK T00401110 IEM_DS3505
ZHCC,2009-01-16 05:00,ZHCC 160500Z AUTO 05006KT 1 1/4SM 05/M11 A3027 RMK T00501110 IEM_DS3505
ZHCC,2009-01-16 06:00,ZHCC 160600Z AUTO 11002KT 4SM 05/M12 A3024 RMK SLP252 T00521123 57038 IEM_DS3505
ZHCC,2009-01-16 07:00,ZHCC 160700Z AUTO 18004KT 1 1/4SM 06/M11 A3024 RMK T00601110 IEM_DS3505
ZHCC,2009-01-16 08:00,ZHCC 160800Z AUTO 14004KT 1 1/4SM 05/M11 A3024 RMK T00501110 IEM_DS3505
ZHCC,2009-01-16 09:00,ZHCC 160900Z AUTO 11002KT 3SM 05/M12 A3021 RMK SLP247 T00511119 57005 IEM_DS3505
ZHCC,2009-01-16 10:00,ZHCC 161000Z AUTO 18004KT 1SM 04/M11 A3024 RMK T00401110 IEM_DS3505
ZHCC,2009-01-16 11:00,ZHCC 161100Z AUTO 18004KT 1SM 03/M11 A3027 RMK T00301110 IEM_DS3505
ZHCC,2009-01-16 12:00,ZHCC 161200Z AUTO 00000KT 3SM 01/M10 A3027 RMK SLP267 T00061102 52019 IEM_DS3505
ZHCC,2009-01-16 13:00,ZHCC 161300Z AUTO 19002KT 1SM M02/M11 A3030 RMK T10201110 IEM_DS3505
ZHCC,2009-01-16 14:00,ZHCC 161400Z AUTO 22004KT 1SM M03/M10 A3030 RMK T10301100 IEM_DS3505
ZHCC,2009-01-16 15:00,ZHCC 161500Z AUTO 22002KT 3SM M02/M10 A3027 RMK SLP262 T10171098 57004 IEM_DS3505
ZHCC,2009-01-16 16:00,ZHCC 161600Z AUTO 22004KT 1SM M03/M10 A3024 RMK T10301100 IEM_DS3505
ZHCC,2009-01-16 17:00,ZHCC 161700Z AUTO 31004KT 1SM M03/M09 A3024 RMK T10301090 IEM_DS3505
ZHCC,2009-01-16 18:00,ZHCC 161800Z AUTO 22004KT 3SM M03/M09 A3024 RMK SLP255 T10311093 57007 IEM_DS3505
ZHCC,2009-01-16 19:00,ZHCC 161900Z AUTO 34004KT 1SM M03/M10 A3024 RMK T10301100 IEM_DS3505
ZHCC,2009-01-16 20:00,ZHCC 162000Z AUTO 35004KT 1SM M04/M10 A3024 RMK T10401100 IEM_DS3505
ZHCC,2009-01-16 21:00,ZHCC 162100Z AUTO 25002KT 3SM M04/M10 A3021 RMK SLP251 T10441098 57004 IEM_DS3505
ZHCC,2009-01-16 22:00,ZHCC 162200Z AUTO 35006KT 1SM M05/M10 A3021 RMK T10501100 IEM_DS3505
ZHCC,2009-01-16 23:00,ZHCC 162300Z AUTO 36006KT 1SM M04/M09 A3024 RMK T10401090 IEM_DS3505
ZHCC,2009-01-17 00:00,ZHCC 170000Z AUTO 27002KT 1 1/4SM M06/M09 A3024 RMK SLP258 T10551094 52006 IEM_DS3505
ZHCC,2009-01-17 01:00,ZHCC 170100Z AUTO 36004KT 1SM M03/M08 A3024 RMK T10301080 IEM_DS3505
ZHCC,2009-01-17 02:00,ZHCC 170200Z AUTO 35004KT 1SM M01/M08 A3024 RMK T10101080 IEM_DS3505
ZHCC,2009-01-17 03:00,ZHCC 170300Z AUTO 18002KT 1 1/4SM 02/M09 A3024 RMK SLP252 T00181086 57005 IEM_DS3505
ZHCC,2009-01-17 04:00,ZHCC 170400Z AUTO 23002KT 1SM 02/M08 A3018 RMK T00201080 IEM_DS3505
ZHCC,2009-01-17 05:00,ZHCC 170500Z AUTO 1SM 04/M08 A3015 RMK T00401080 IEM_DS3505
ZHCC,2009-01-17 06:00,ZHCC 170600Z AUTO 27002KT 1 1/4SM 05/M10 A3009 RMK SLP205 T00501099 57046 IEM_DS3505
ZHCC,2009-01-17 07:00,ZHCC 170700Z AUTO 18004KT 1SM 04/M08 A3009 RMK T00401080 IEM_DS3505
ZHCC,2009-01-17 08:00,ZHCC 170800Z AUTO 1SM 05/M07 A3009 RMK T00501070 IEM_DS3505
ZHCC,2009-01-17 09:00,ZHCC 170900Z AUTO 14002KT 3SM 05/M09 A3009 RMK SLP195 T00521086 57010 IEM_DS3505
ZHCC,2009-01-17 10:00,ZHCC 171000Z AUTO 17006KT 1SM 01/M08 A3006 RMK T00101080 IEM_DS3505
ZHCC,2009-01-17 11:00,ZHCC 171100Z AUTO 20004KT 1SM 01/M08 A3009 RMK T00101080 IEM_DS3505
ZHCC,2009-01-17 12:00,ZHCC 171200Z AUTO 00000KT 2 1/2SM 00/M08 A3009 RMK SLP210 T00001084 52013 IEM_DS3505
ZHCC,2009-01-17 13:00,ZHCC 171300Z AUTO 22004KT 1SM 00/M08 A3012 RMK T00001080 IEM_DS3505
ZHCC,2009-01-17 14:00,ZHCC 171400Z AUTO 22004KT 1SM 01/M08 A3009 RMK T00101080 IEM_DS3505
ZHCC,2009-01-17 15:00,ZHCC 171500Z AUTO 00000KT 2 1/2SM M02/M08 A3009 RMK SLP205 T10201079 57003 IEM_DS3505
ZHCC,2009-01-17 16:00,ZHCC 171600Z AUTO 26006KT 1SM 01/M10 A3009 RMK T00101100 IEM_DS3505
ZHCC,2009-01-17 17:00,ZHCC 171700Z AUTO 26008KT 1 1/4SM 03/M10 A3009 RMK T00301100 IEM_DS3505
ZHCC,2009-01-17 18:00,ZHCC 171800Z AUTO 29002KT 6SM 06/M12 A3012 RMK SLP215 T00561124 52012 IEM_DS3505
ZHCC,2009-01-17 19:00,ZHCC 171900Z AUTO 28008KT 2SM 06/M12 A3015 RMK T00601120 IEM_DS3505
ZHCC,2009-01-17 20:00,ZHCC 172000Z AUTO 30012KT 1 1/2SM 06/M12 A3015 RMK T00601120 IEM_DS3505
ZHCC,2009-01-17 21:00,ZHCC 172100Z AUTO 25006KT 7SM 04/M12 A3018 RMK SLP229 T00451120 52014 IEM_DS3505
ZHCC,2009-01-17 22:00,ZHCC 172200Z AUTO 30014KT 3SM 06/M11 A3021 RMK T00601110 IEM_DS3505
ZHCC,2009-01-17 23:00,ZHCC 172300Z AUTO 30012KT 3SM 05/M11 A3021 RMK T00501110 IEM_DS3505
ZHCC,2009-01-18 00:00,ZHCC 180000Z AUTO 29008KT 7SM 05/M12 A3024 RMK SLP257 T00511115 52026 IEM_DS3505
ZHCC,2009-01-18 01:00,ZHCC 180100Z AUTO 31008KT 2SM 06/M10 A3027 RMK T00601100 IEM_DS3505
ZHCC,2009-01-18 02:00,ZHCC 180200Z AUTO 31014KT 2SM 08/M10 A3030 RMK T00801100 IEM_DS3505
ZHCC,2009-01-18 03:00,ZHCC 180300Z AUTO 29008G29KT 7SM 09/M12 A3030 RMK SLP268 T00881117 52011 IEM_DS3505
ZHCC,2009-01-18 04:00,ZHCC 180400Z AUTO 33019KT 3SM 10/M13 A3027 RMK T01001130 IEM_DS3505
ZHCC,2009-01-18 05:00,ZHCC 180500Z AUTO 31016KT 3SM 10/M12 A3024 RMK T01001120 IEM_DS3505
ZHCC,2009-01-18 06:00,ZHCC 180600Z AUTO 27012KT 7SM 12/M16 A3021 RMK SLP236 T01201165 57028 IEM_DS3505
ZHCC,2009-01-18 07:00,ZHCC 180700Z AUTO 31016KT 3SM 12/M15 A3018 RMK T01201150 IEM_DS3505
ZHCC,2009-01-18 08:00,ZHCC 180800Z AUTO 29010KT 3SM 11/M14 A3018 RMK T01101140 IEM_DS3505
ZHCC,2009-01-18 09:00,ZHCC 180900Z AUTO 25006KT 10SM 11/M15 A3018 RMK SLP230 T01081148 57007 IEM_DS3505
ZHCC,2009-01-18 10:00,ZHCC 181000Z AUTO 26004KT 2 1/2SM 07/M13 A3021 RMK T00701130 IEM_DS3505
ZHCC,2009-01-18 11:00,ZHCC 181100Z AUTO 27004KT 2 1/2SM 03/M13 A3024 RMK T00301130 IEM_DS3505
ZHCC,2009-01-18 12:00,ZHCC 181200Z AUTO 27004KT 9SM 05/M14 A3024 RMK SLP250 T00531136 52019 IEM_DS3505
ZHCC,2009-01-18 13:00,ZHCC 181300Z AUTO 29004KT 3SM 03/M13 A3024 RMK T00301130 IEM_DS3505
ZHCC,2009-01-18 14:00,ZHCC 181400Z AUTO 22006KT 3SM 04/M12 A3024 RMK T00401120 IEM_DS3505
ZHCC,2009-01-18 15:00,ZHCC 181500Z AUTO 18002KT 7SM 02/M13 A3024 RMK SLP250 T00191127 54000 IEM_DS3505
ZHCC,2009-01-18 16:00,ZHCC 181600Z AUTO 00000KT 3SM M01/M10 A3021 RMK T10101100 IEM_DS3505
ZHCC,2009-01-18 17:00,ZHCC 181700Z AUTO 24002KT 3SM M03/M11 A3021 RMK T10301110 IEM_DS3505
ZHCC,2009-01-18 18:00,ZHCC 181800Z AUTO 18002KT 7SM M01/M12 A3021 RMK SLP240 T10131123 57010 IEM_DS3505
ZHCC,2009-01-18 19:00,ZHCC 181900Z AUTO 20008KT 3SM 00/M10 A3021 RMK T00001100 IEM_DS3505
ZHCC,2009-01-18 20:00,ZHCC 182000Z AUTO 23006KT 1 1/2SM 00/M11 A3021 RMK T00001110 IEM_DS3505
ZHCC,2009-01-18 21:00,ZHCC 182100Z AUTO 00000KT 7SM M00/M12 A3018 RMK SLP232 T10031120 57008 IEM_DS3505
ZHCC,2009-01-18 22:00,ZHCC 182200Z AUTO 20004KT 2 1/2SM M01/M10 A3018 RMK T10101100 IEM_DS3505
ZHCC,2009-01-18 23:00,ZHCC 182300Z AUTO 19004KT 2 1/2SM M01/M10 A3018 RMK T10101100 IEM_DS3505
ZHCC,2009-01-19 00:00,ZHCC 190000Z AUTO 18004KT 7SM 02/M12 A3021 RMK SLP236 T00241122 52003 IEM_DS3505
ZHCC,2009-01-19 01:00,ZHCC 190100Z AUTO 20004KT 1 1/4SM 04/M10 A3021 RMK T00401100 IEM_DS3505
ZHCC,2009-01-19 02:00,ZHCC 190200Z AUTO 20004KT 1 1/4SM 05/M09 A3024 RMK T00501090 IEM_DS3505
ZHCC,2009-01-19 03:00,ZHCC 190300Z AUTO 18002KT 7SM 06/M11 A3024 RMK SLP246 T00601107 52010 IEM_DS3505
ZHCC,2009-01-19 04:00,ZHCC 190400Z AUTO 20006KT 1 1/4SM 05/M09 A3021 RMK T00501090 IEM_DS3505
ZHCC,2009-01-19 05:00,ZHCC 190500Z AUTO 20008KT 2SM 07/M05 A3015 RMK T00701050 IEM_DS3505
ZHCC,2009-01-19 06:00,ZHCC 190600Z AUTO 25006KT 7SM 06/M01 A3012 RMK 60000 SLP215 T00551008 57031 IEM_DS3505
ZHCC,2009-01-19 07:00,ZHCC 190700Z AUTO 21004KT 1 1/2SM 04/00 A3012 RMK T00400000 IEM_DS3505
ZHCC,2009-01-19 08:00,ZHCC 190800Z AUTO 00000KT 2SM 04/00 A3009 RMK T00400000 IEM_DS3505
ZHCC,2009-01-19 09:00,ZHCC 190900Z AUTO 07002KT 6SM 05/01 A3009 RMK SLP209 T00470007 57006 IEM_DS3505
ZHCC,2009-01-19 10:00,ZHCC 191000Z AUTO 00000KT 2SM 04/00 A3012 RMK T00400000 IEM_DS3505
ZHCC,2009-01-19 11:00,ZHCC 191100Z AUTO 00000KT 1 1/4SM 03/00 A3015 RMK T00300000 IEM_DS3505
ZHCC,2009-01-19 12:00,ZHCC 191200Z AUTO 18002KT 5SM 04/00 A3018 RMK 60000 SLP231 T00360005 52022 IEM_DS3505
ZHCC,2009-01-19 13:00,ZHCC 191300Z AUTO 17002KT 1 1/4SM 03/00 A3018 RMK T00300000 IEM_DS3505
ZHCC,2009-01-19 14:00,ZHCC 191400Z AUTO 1 1/4SM 03/00 A3021 RMK T00300000 IEM_DS3505
ZHCC,2009-01-19 15:00,ZHCC 191500Z AUTO 20002KT 3SM M00/M02 A3018 RMK SLP230 T10031017 57001 IEM_DS3505
ZHCC,2009-01-19 16:00,ZHCC 191600Z AUTO 22004KT 1 1/4SM 02/M01 A3018 RMK T00201010 IEM_DS3505
ZHCC,2009-01-19 17:00,ZHCC 191700Z AUTO 22004KT 1 1/4SM 01/M02 A3018 RMK T00101020 IEM_DS3505
ZHCC,2009-01-19 18:00,ZHCC 191800Z AUTO 00000KT 5SM 00/M03 A3015 RMK SLP227 T00011031 57003 IEM_DS3505
ZHCC,2009-01-19 19:00,ZHCC 191900Z AUTO 1SM 00/M03 A3015 RMK T00001030 IEM_DS3505
ZHCC,2009-01-19 20:00,ZHCC 192000Z AUTO 1 1/4SM M02/M04 A3015 RMK T10201040 IEM_DS3505
ZHCC,2009-01-19 21:00,ZHCC 192100Z AUTO 22002KT 4SM 00/M03 A3012 RMK 70000 SLP209 T00041026 57018 IEM_DS3505
ZHCC,2009-01-19 22:00,ZHCC 192200Z AUTO 22004KT 1 1/4SM 01/M03 A3012 RMK T00101030 IEM_DS3505
ZHCC,2009-01-19 23:00,ZHCC 192300Z AUTO 1 1/4SM 01/M03 A3012 RMK T00101030 IEM_DS3505
ZHCC,2009-01-20 00:00,ZHCC 200000Z AUTO 07002KT 4SM 02/M02 A3015 RMK 70000 SLP221 T00161023 52012 IEM_DS3505
ZHCC,2009-01-20 01:00,ZHCC 200100Z AUTO 22002KT 1SM 01/M03 A3018 RMK T00101030 IEM_DS3505
ZHCC,2009-01-20 02:00,ZHCC 200200Z AUTO 27002KT 1SM 04/M01 A3018 RMK T00401010 IEM_DS3505
ZHCC,2009-01-20 03:00,ZHCC 200300Z AUTO 00000KT 3SM 07/M01 A3015 RMK SLP224 T00701009 52003 IEM_DS3505
ZHCC,2009-01-20 04:00,ZHCC 200400Z AUTO 28006KT 1 1/2SM 10/M01 A3015 RMK T01001010 IEM_DS3505
ZHCC,2009-01-20 05:00,ZHCC 200500Z AUTO 19004KT 1SM 07/M01 A3012 RMK T00701010 IEM_DS3505
ZHCC,2009-01-20 06:00,ZHCC 200600Z AUTO 29010KT 9SM 11/M05 A3012 RMK SLP209 T01131052 57014 IEM_DS3505
ZHCC,2009-01-20 07:00,ZHCC 200700Z AUTO 1SM 11/M01 A3012 RMK T01101010 IEM_DS3505
ZHCC,2009-01-20 08:00,ZHCC 200800Z AUTO 33014KT 2SM 12/M04 A3015 RMK T01201040 IEM_DS3505
ZHCC,2009-01-20 09:00,ZHCC 200900Z AUTO 27006KT 8SM 12/M04 A3015 RMK SLP222 T01171040 52013 IEM_DS3505
ZHCC,2009-01-20 10:00,ZHCC 201000Z AUTO 32008KT 2SM 10/M03 A3018 RMK T01001030 IEM_DS3505
ZHCC,2009-01-20 11:00,ZHCC 201100Z AUTO 32008KT 2SM 10/M04 A3021 RMK T01001040 IEM_DS3505
ZHCC,2009-01-20 12:00,ZHCC 201200Z AUTO 27004KT 8SM 10/M07 A3021 RMK SLP243 T01011067 52021 IEM_DS3505
ZHCC,2009-01-20 13:00,ZHCC 201300Z AUTO 28006KT 2SM 09/M07 A3021 RMK T00901070 IEM_DS3505
ZHCC,2009-01-20 14:00,ZHCC 201400Z AUTO 31006KT 2SM 09/M09 A3024 RMK T00901090 IEM_DS3505
ZHCC,2009-01-20 15:00,ZHCC 201500Z AUTO 27010KT 8SM 10/M10 A3024 RMK SLP250 T01011096 52008 IEM_DS3505
ZHCC,2009-01-20 16:00,ZHCC 201600Z AUTO 30010KT 2SM 09/M09 A3024 RMK T00901090 IEM_DS3505
ZHCC,2009-01-20 17:00,ZHCC 201700Z AUTO 27008KT 2SM 07/M08 A3021 RMK T00701080 IEM_DS3505
ZHCC,2009-01-20 18:00,ZHCC 201800Z AUTO 29006KT 8SM 09/M07 A3021 RMK SLP238 T00871071 57011 IEM_DS3505
ZHCC,2009-01-20 19:00,ZHCC 201900Z AUTO 35006KT 2SM 05/M07 A3021 RMK T00501070 IEM_DS3505
ZHCC,2009-01-20 20:00,ZHCC 202000Z AUTO 34002KT 02/M09 A3021 RMK T00201090 IEM_DS3505
ZHCC,2009-01-20 21:00,ZHCC 202100Z AUTO 22006KT 9SM 06/M05 A3018 RMK SLP222 T00611049 57016 IEM_DS3505
ZHCC,2009-01-20 22:00,ZHCC 202200Z AUTO 21006KT 2SM M01/M07 A3018 RMK T10101070 IEM_DS3505
ZHCC,2009-01-20 23:00,ZHCC 202300Z AUTO 26006KT 3SM 03/M04 A3018 RMK T00301040 IEM_DS3505
ZHCC,2009-01-21 00:00,ZHCC 210000Z AUTO 00000KT 7SM 01/M06 A3018 RMK SLP227 T00091058 52003 IEM_DS3505
ZHCC,2009-01-21 01:00,ZHCC 210100Z AUTO 20004KT 2 1/2SM 08/M06 A3018 RMK T00801060 IEM_DS3505
ZHCC,2009-01-21 02:00,ZHCC 210200Z AUTO 22006KT 2 1/2SM 10/M05 A3018 RMK T01001050 IEM_DS3505
ZHCC,2009-01-21 03:00,ZHCC 210300Z AUTO 29006KT 9SM 12/M07 A3015 RMK SLP212 T01241066 57012 IEM_DS3505
ZHCC,2009-01-21 04:00,ZHCC 210400Z AUTO 26012KT 4SM 16/M08 A3009 RMK T01601080 IEM_DS3505
ZHCC,2009-01-21 05:00,ZHCC 210500Z AUTO 26010KT 6SM 16/M09 A3006 RMK T01601090 IEM_DS3505
ZHCC,2009-01-21 06:00,ZHCC 210600Z AUTO 29010KT 11SM 17/M13 A3003 RMK SLP166 T01731134 57044 IEM_DS3505
ZHCC,2009-01-21 07:00,ZHCC 210700Z AUTO 22014KT 6SM 17/M10 A3000 RMK T01701100 IEM_DS3505
ZHCC,2009-01-21 08:00,ZHCC 210800Z AUTO 21010KT 6SM 16/M10 A3000 RMK T01601100 IEM_DS3505
ZHCC,2009-01-21 09:00,ZHCC 210900Z AUTO 22006KT 11SM 16/M13 A2997 RMK SLP153 T01641131 57014 IEM_DS3505
ZHCC,2009-01-21 10:00,ZHCC 211000Z AUTO 20008KT 4SM 12/M07 A2997 RMK T01201070 IEM_DS3505
ZHCC,2009-01-21 11:00,ZHCC 211100Z AUTO 20006KT 4SM 10/M05 A2997 RMK T01001050 IEM_DS3505
ZHCC,2009-01-21 12:00,ZHCC 211200Z AUTO 20006KT 11SM 11/M08 A2994 RMK SLP147 T01081084 57009 IEM_DS3505
ZHCC,2009-01-21 13:00,ZHCC 211300Z AUTO 19008KT 4SM 09/M04 A2994 RMK T00901040 IEM_DS3505
ZHCC,2009-01-21 14:00,ZHCC 211400Z AUTO 18004KT 4SM 07/M04 A2991 RMK T00701040 IEM_DS3505
ZHCC,2009-01-21 15:00,ZHCC 211500Z AUTO 18006KT 10SM 09/M05 A2988 RMK SLP122 T00881051 57022 IEM_DS3505
ZHCC,2009-01-21 16:00,ZHCC 211600Z AUTO 21010KT 4SM 08/00 A2985 RMK T00800000 IEM_DS3505
ZHCC,2009-01-21 17:00,ZHCC 211700Z AUTO 20008KT 06/00 A2983 RMK T00600000 IEM_DS3505
ZHCC,2009-01-21 18:00,ZHCC 211800Z AUTO 20002KT 10SM 05/M04 A2980 RMK SLP096 T00461042 57026 IEM_DS3505
ZHCC,2009-01-21 19:00,ZHCC 211900Z AUTO 22006KT 2SM 06/00 A2980 RMK T00600000 IEM_DS3505
ZHCC,2009-01-21 20:00,ZHCC 212000Z AUTO 19008KT 2SM 06/01 A2977 RMK T00600010 IEM_DS3505
ZHCC,2009-01-21 21:00,ZHCC 212100Z AUTO 16004KT 9SM 03/M02 A2980 RMK SLP088 T00331024 57008 IEM_DS3505
ZHCC,2009-01-21 22:00,ZHCC 212200Z AUTO 20004KT 3SM 06/01 A2980 RMK T00600010 IEM_DS3505
ZHCC,2009-01-21 23:00,ZHCC 212300Z AUTO 22004KT 3SM 05/01 A2980 RMK T00500010 IEM_DS3505
ZHCC,2009-01-22 00:00,ZHCC 220000Z AUTO 22004KT 8SM 04/M05 A2985 RMK SLP119 T00441046 52030 IEM_DS3505
ZHCC,2009-01-22 01:00,ZHCC 220100Z AUTO 03016G25KT 1 1/4SM 03/M03 RMK T00301030 IEM_DS3505
ZHCC,2009-01-22 02:00,ZHCC 220200Z AUTO 02017G27KT 1SM 02/M06 A3006 RMK T00201060 IEM_DS3505
ZHCC,2009-01-22 03:00,ZHCC 220300Z AUTO 04010G29KT 2 1/2SM 03/M10 A3012 RMK T00321097 52097 IEM_DS3505
ZHCC,2009-01-22 04:00,ZHCC 220400Z AUTO 02021G37KT 1 1/4SM 03/M11 A3012 RMK T00301110 IEM_DS3505
ZHCC,2009-01-22 05:00,ZHCC 220500Z AUTO 04017KT 1 1/4SM 04/M12 A3012 RMK T00401120 IEM_DS3505
ZHCC,2009-01-22 06:00,ZHCC 220600Z AUTO 04014KT 4SM 03/M14 A3015 RMK SLP230 T00301142 52010 IEM_DS3505
ZHCC,2009-01-22 07:00,ZHCC 220700Z AUTO 02014KT 2SM 03/M13 A3021 RMK T00301130 IEM_DS3505
ZHCC,2009-01-22 08:00,ZHCC 220800Z AUTO 02012KT 2SM 03/M14 A3024 RMK T00301140 IEM_DS3505
ZHCC,2009-01-22 09:00,ZHCC 220900Z AUTO 07006KT 6SM 02/M16 A3027 RMK SLP269 T00191161 52038 IEM_DS3505
ZHCC,2009-01-22 10:00,ZHCC 221000Z AUTO 04010KT 2SM 01/M16 A3033 RMK T00101160 IEM_DS3505
ZHCC,2009-01-22 11:00,ZHCC 221100Z AUTO 03008KT 2SM 00/M17 A3042 RMK T00001170 IEM_DS3505
ZHCC,2009-01-22 12:00,ZHCC 221200Z AUTO 04006KT 8SM M00/M20 A3045 RMK SLP332 T10011204 52062 IEM_DS3505
ZHCC,2009-01-22 13:00,ZHCC 221300Z AUTO 01006KT 2SM M02/M20 A3050 RMK T10201200 IEM_DS3505
ZHCC,2009-01-22 14:00,ZHCC 221400Z AUTO 36006KT 2 1/2SM M03/M21 A3053 RMK T10301210 IEM_DS3505
ZHCC,2009-01-22 15:00,ZHCC 221500Z AUTO 32019KT 9SM M01/M28 A3059 RMK SLP373 T10071276 52040 IEM_DS3505
ZHCC,2009-01-22 16:00,ZHCC 221600Z AUTO 33027G37KT 2SM M02/M28 A3059 RMK T10201280 IEM_DS3505
ZHCC,2009-01-22 18:00,ZHCC 221800Z AUTO 34017G43KT 6SM M03/M32 A3059 RMK SLP388 T10301315 40059//// 52014 IEM_DS3505
ZHCC,2009-01-22 19:00,ZHCC 221900Z AUTO 2SM M05/M32 A3062 RMK T10501320 IEM_DS3505
ZHCC,2009-01-22 20:00,ZHCC 222000Z AUTO 33027G45KT M05/M32 A3062 RMK T10501320 IEM_DS3505
ZHCC,2009-01-22 21:00,ZHCC 222100Z AUTO 32017G41KT 9SM M06/M32 A3065 RMK SLP412 T10591317 52023 IEM_DS3505
ZHCC,2009-01-22 22:00,ZHCC 222200Z AUTO 33023G35KT 2 1/2SM M07/M33 A3068 RMK T10701330 IEM_DS3505
ZHCC,2009-01-22 23:00,ZHCC 222300Z AUTO 32027G39KT 4SM M08/M32 A3074 RMK T10801320 IEM_DS3505
ZHCC,2009-01-23 00:00,ZHCC 230000Z AUTO 32014G37KT 9SM M08/M33 A3074 RMK SLP437 T10771331 52023 IEM_DS3505
ZHCC,2009-01-23 01:00,ZHCC 230100Z AUTO 32031G47KT 4SM M08/M33 A3074 RMK T10801330 IEM_DS3505
ZHCC,2009-01-23 02:00,ZHCC 230200Z AUTO 32027G39KT 6SM M07/M34 A3077 RMK T10701340 IEM_DS3505
ZHCC,2009-01-23 03:00,ZHCC 230300Z AUTO 32016G35KT 11SM M07/M33 A3077 RMK SLP445 T10661332 52008 IEM_DS3505
ZHCC,2009-01-23 04:00,ZHCC 230400Z AUTO 32021G31KT 6SM M06/M33 A3071 RMK T10601330 IEM_DS3505
ZHCC,2009-01-23 05:00,ZHCC 230500Z AUTO 31023KT 6SM M05/M32 A3068 RMK T10501320 IEM_DS3505
ZHCC,2009-01-23 06:00,ZHCC 230600Z AUTO 27012G29KT 11SM M04/M32 A3065 RMK SLP402 T10381321 57042 IEM_DS3505
ZHCC,2009-01-23 07:00,ZHCC 230700Z AUTO 31019G31KT 6SM M04/M31 A3065 RMK T10401310 IEM_DS3505
ZHCC,2009-01-23 08:00,ZHCC 230800Z AUTO 30019KT 6SM M04/M31 A3065 RMK T10401310 IEM_DS3505
ZHCC,2009-01-23 09:00,ZHCC 230900Z AUTO 27008KT 11SM M04/M31 A3065 RMK SLP398 T10351308 57005 IEM_DS3505
ZHCC,2009-01-23 10:00,ZHCC 231000Z AUTO 30016KT 6SM M06/M31 A3065 RMK T10601310 IEM_DS3505
ZHCC,2009-01-23 11:00,ZHCC 231100Z AUTO 30014KT 6SM M06/M31 A3065 RMK T10601310 IEM_DS3505
ZHCC,2009-01-23 12:00,ZHCC 231200Z AUTO 27010KT 11SM M05/M29 A3065 RMK SLP400 T10521294 52001 IEM_DS3505
ZHCC,2009-01-23 13:00,ZHCC 231300Z AUTO 27014KT 6SM M07/M29 A3065 RMK T10701290 IEM_DS3505
ZHCC,2009-01-23 14:00,ZHCC 231400Z AUTO 27012KT 6SM M07/M29 A3065 RMK T10701290 IEM_DS3505
ZHCC,2009-01-23 15:00,ZHCC 231500Z AUTO 27014KT 11SM M06/M30 A3065 RMK SLP396 T10551305 57003 IEM_DS3505
ZHCC,2009-01-23 16:00,ZHCC 231600Z AUTO 28016KT 6SM M07/M29 A3065 RMK T10701290 IEM_DS3505
ZHCC,2009-01-23 17:00,ZHCC 231700Z AUTO 29014KT 6SM M07/M29 A3062 RMK T10701290 IEM_DS3505
ZHCC,2009-01-23 18:00,ZHCC 231800Z AUTO 27012KT 11SM M06/M30 A3059 RMK SLP380 T10611301 57015 IEM_DS3505
ZHCC,2009-01-23 19:00,ZHCC 231900Z AUTO 29014KT 6SM M07/M30 A3056 RMK T10701300 IEM_DS3505
ZHCC,2009-01-23 20:00,ZHCC 232000Z AUTO 28016KT 6SM M07/M30 A3056 RMK T10701300 IEM_DS3505
ZHCC,2009-01-23 21:00,ZHCC 232100Z AUTO 27008KT 10SM M07/M30 A3053 RMK SLP363 T10661297 57017 IEM_DS3505
ZHCC,2009-01-23 22:00,ZHCC 232200Z AUTO 29012KT 6SM M08/M30 A3053 RMK T10801300 IEM_DS3505
ZHCC,2009-01-23 23:00,ZHCC 232300Z AUTO 30012KT 6SM M08/M30 A3053 RMK T10801300 IEM_DS3505
ZHCC,2009-01-24 00:00,ZHCC 240000Z AUTO 27006KT 11SM M06/M29 A3053 RMK SLP356 T10641288 57008 IEM_DS3505
ZHCC,2009-01-24 01:00,ZHCC 240100Z AUTO 27014KT 6SM M06/M27 A3050 RMK T10601270 IEM_DS3505
ZHCC,2009-01-24 02:00,ZHCC 240200Z AUTO 28019G31KT 6SM M03/M27 A3047 RMK T10301270 IEM_DS3505
ZHCC,2009-01-24 03:00,ZHCC 240300Z AUTO 27017G31KT 11SM M02/M29 A3045 RMK SLP332 T10161293 57022 IEM_DS3505
ZHCC,2009-01-24 04:00,ZHCC 240400Z AUTO 31023KT 6SM 00/M28 A3042 RMK T00001280 IEM_DS3505
ZHCC,2009-01-24 05:00,ZHCC 240500Z AUTO 31019KT 6SM 01/M27 A3036 RMK T00101270 IEM_DS3505
ZHCC,2009-01-24 06:00,ZHCC 240600Z AUTO 29014G29KT 11SM 02/M27 A3033 RMK SLP282 T00181266 57049 IEM_DS3505
ZHCC,2009-01-24 07:00,ZHCC 240700Z AUTO 28012KT 6SM 03/M26 A3030 RMK T00301260 IEM_DS3505
ZHCC,2009-01-24 08:00,ZHCC 240800Z AUTO 27012KT 6SM 03/M26 A3030 RMK T00301260 IEM_DS3505
ZHCC,2009-01-24 09:00,ZHCC 240900Z AUTO 27012KT 12SM 02/M26 A3027 RMK SLP272 T00231262 57009 IEM_DS3505
ZHCC,2009-01-24 10:00,ZHCC 241000Z AUTO 27010KT 6SM 00/M26 A3027 RMK T00001260 IEM_DS3505
ZHCC,2009-01-24 11:00,ZHCC 241100Z AUTO 27012KT 6SM 00/M26 A3030 RMK T00001260 IEM_DS3505
ZHCC,2009-01-24 12:00,ZHCC 241200Z AUTO 27010KT 12SM 00/M26 A3027 RMK SLP271 T00021259 57002 IEM_DS3505
ZHCC,2009-01-24 13:00,ZHCC 241300Z AUTO 27006KT 6SM M02/M26 A3027 RMK T10201260 IEM_DS3505
ZHCC,2009-01-24 14:00,ZHCC 241400Z AUTO 28004KT 6SM M03/M26 A3027 RMK T10301260 IEM_DS3505
ZHCC,2009-01-24 15:00,ZHCC 241500Z AUTO 27006KT 11SM M00/M26 A3024 RMK SLP266 T10041264 57004 IEM_DS3505
ZHCC,2009-01-24 16:00,ZHCC 241600Z AUTO 30016KT 6SM M01/M26 A3024 RMK T10101260 IEM_DS3505
ZHCC,2009-01-24 17:00,ZHCC 241700Z AUTO 30016KT 6SM M01/M26 A3024 RMK T10101260 IEM_DS3505
ZHCC,2009-01-24 18:00,ZHCC 241800Z AUTO 27006KT 11SM M02/M26 A3024 RMK SLP260 T10221261 57005 IEM_DS3505
ZHCC,2009-01-24 19:00,ZHCC 241900Z AUTO 35002KT M03/M25 A3024 RMK T10301250 IEM_DS3505
ZHCC,2009-01-24 20:00,ZHCC 242000Z AUTO 27006KT M04/M25 A3021 RMK T10401250 IEM_DS3505
ZHCC,2009-01-24 21:00,ZHCC 242100Z AUTO 27004KT 10SM M04/M25 A3021 RMK SLP247 T10421250 57013 IEM_DS3505
ZHCC,2009-01-24 22:00,ZHCC 242200Z AUTO 31012KT 6SM M03/M25 A3021 RMK T10301250 IEM_DS3505
ZHCC,2009-01-24 23:00,ZHCC 242300Z AUTO 29004KT 6SM M06/M26 A3021 RMK T10601260 IEM_DS3505
ZHCC,2009-01-25 00:00,ZHCC 250000Z AUTO 25006KT 10SM M02/M25 A3021 RMK SLP249 T10241248 52001 IEM_DS3505
ZHCC,2009-01-25 01:00,ZHCC 250100Z AUTO 27012KT 4SM M01/M23 A3024 RMK T10101230 IEM_DS3505
ZHCC,2009-01-25 02:00,ZHCC 250200Z AUTO 26010KT 4SM 01/M22 A3024 RMK T00101220 IEM_DS3505
ZHCC,2009-01-25 03:00,ZHCC 250300Z AUTO 27014KT 11SM 05/M26 A3024 RMK SLP250 T00471255 52003 IEM_DS3505
ZHCC,2009-01-25 04:00,ZHCC 250400Z AUTO 30014KT 6SM 06/M23 A3021 RMK T00601230 IEM_DS3505
ZHCC,2009-01-25 05:00,ZHCC 250500Z AUTO 30017KT 6SM 07/M24 A3018 RMK T00701240 IEM_DS3505
ZHCC,2009-01-25 06:00,ZHCC 250600Z AUTO 27010KT 12SM 07/M25 A3015 RMK SLP224 T00711250 57025 IEM_DS3505
ZHCC,2009-01-25 07:00,ZHCC 250700Z AUTO 31019KT 6SM 08/M25 A3015 RMK T00801250 IEM_DS3505
ZHCC,2009-01-25 08:00,ZHCC 250800Z AUTO 32014KT 6SM 07/M24 A3015 RMK T00701240 IEM_DS3505
ZHCC,2009-01-25 09:00,ZHCC 250900Z AUTO 27006KT 14SM 07/M24 A3018 RMK SLP229 T00711237 52004 IEM_DS3505
ZHCC,2009-01-25 10:00,ZHCC 251000Z AUTO 25004KT 4SM 04/M22 A3018 RMK T00401220 IEM_DS3505
ZHCC,2009-01-25 11:00,ZHCC 251100Z AUTO 25006KT 3SM 02/M22 A3021 RMK T00201220 IEM_DS3505
ZHCC,2009-01-25 12:00,ZHCC 251200Z AUTO 25006KT 11SM 04/M22 A3024 RMK SLP252 T00411219 52022 IEM_DS3505
ZHCC,2009-01-25 13:00,ZHCC 251300Z AUTO 27008KT 2 1/2SM 02/M22 A3024 RMK T00201220 IEM_DS3505
ZHCC,2009-01-25 14:00,ZHCC 251400Z AUTO 30012KT 2 1/2SM 02/M22 A3024 RMK T00201220 IEM_DS3505
ZHCC,2009-01-25 15:00,ZHCC 251500Z AUTO 29008KT 11SM 03/M23 A3027 RMK SLP268 T00281229 52018 IEM_DS3505
ZHCC,2009-01-25 16:00,ZHCC 251600Z AUTO 34016KT 03/M23 A3030 RMK T00301230 IEM_DS3505
ZHCC,2009-01-25 17:00,ZHCC 251700Z AUTO 33016KT 02/M23 A3030 RMK T00201230 IEM_DS3505
ZHCC,2009-01-25 18:00,ZHCC 251800Z AUTO 27006KT 9SM 03/M25 A3030 RMK SLP280 T00281248 52012 IEM_DS3505
ZHCC,2009-01-25 19:00,ZHCC 251900Z AUTO 32012KT 02/M25 A3033 RMK T00201250 IEM_DS3505
ZHCC,2009-01-25 20:00,ZHCC 252000Z AUTO 33014KT 00/M25 A3033 RMK T00001250 IEM_DS3505
ZHCC,2009-01-25 21:00,ZHCC 252100Z AUTO 25004KT 9SM M00/M24 A3033 RMK SLP280 T10051240 57001 IEM_DS3505
ZHCC,2009-01-25 22:00,ZHCC 252200Z AUTO 27012KT 6SM M01/M24 A3033 RMK T10101240 IEM_DS3505
ZHCC,2009-01-25 23:00,ZHCC 252300Z AUTO 30008KT 6SM M02/M24 A3033 RMK T10201240 IEM_DS3505
ZHCC,2009-01-26 00:00,ZHCC 260000Z AUTO 29004KT 9SM 00/M25 A3033 RMK SLP286 T00011251 52006 IEM_DS3505
ZHCC,2009-01-26 01:00,ZHCC 260100Z AUTO 31010KT 6SM 01/M23 A3036 RMK T00101230 IEM_DS3505
ZHCC,2009-01-26 02:00,ZHCC 260200Z AUTO 32010KT 6SM 04/M22 A3036 RMK T00401220 IEM_DS3505
ZHCC,2009-01-26 03:00,ZHCC 260300Z AUTO 27006KT 11SM 06/M22 A3033 RMK SLP288 T00551217 52003 IEM_DS3505
ZHCC,2009-01-26 04:00,ZHCC 260400Z AUTO 33016KT 6SM 08/M23 A3030 RMK T00801230 IEM_DS3505
ZHCC,2009-01-26 05:00,ZHCC 260500Z AUTO 27012KT 6SM 09/M22 A3024 RMK T00901220 IEM_DS3505
ZHCC,2009-01-26 06:00,ZHCC 260600Z AUTO 32008KT 12SM 09/M22 A3024 RMK SLP247 T00941219 57040 IEM_DS3505
ZHCC,2009-01-26 07:00,ZHCC 260700Z AUTO 6SM 09/M19 A3021 RMK T00901190 IEM_DS3505
ZHCC,2009-01-26 08:00,ZHCC 260800Z AUTO 6SM 09/M18 A3021 RMK T00901180 IEM_DS3505
ZHCC,2009-01-26 09:00,ZHCC 260900Z AUTO 27002KT 12SM 09/M19 A3021 RMK SLP235 T00941186 57013 IEM_DS3505
ZHCC,2009-01-26 10:00,ZHCC 261000Z AUTO 6SM 06/M17 A3021 RMK T00601170 IEM_DS3505
ZHCC,2009-01-26 11:00,ZHCC 261100Z AUTO 6SM 06/M16 A3021 RMK T00601160 IEM_DS3505
ZHCC,2009-01-26 12:00,ZHCC 261200Z AUTO 14002KT 11SM 02/M16 A3021 RMK SLP244 T00201165 52008 IEM_DS3505
ZHCC,2009-01-26 13:00,ZHCC 261300Z AUTO 21004KT 6SM 04/M13 A3021 RMK T00401130 IEM_DS3505
ZHCC,2009-01-26 14:00,ZHCC 261400Z AUTO 18004KT 4SM 03/M14 A3021 RMK T00301140 IEM_DS3505
ZHCC,2009-01-26 15:00,ZHCC 261500Z AUTO 11002KT 10SM M01/M15 A3021 RMK SLP239 T10121154 57005 IEM_DS3505
ZHCC,2009-01-26 16:00,ZHCC 261600Z AUTO 20004KT 4SM 02/M12 A3021 RMK T00201120 IEM_DS3505
ZHCC,2009-01-26 17:00,ZHCC 261700Z AUTO 20006KT 1SM 01/M11 A3021 RMK T00101110 IEM_DS3505
ZHCC,2009-01-26 18:00,ZHCC 261800Z AUTO 00000KT 9SM M03/M13 A3021 RMK SLP238 T10271133 54000 IEM_DS3505
ZHCC,2009-01-26 19:00,ZHCC 261900Z AUTO 19006KT 1 1/4SM 00/M09 A3021 RMK T00001090 IEM_DS3505
ZHCC,2009-01-26 20:00,ZHCC 262000Z AUTO 21008KT 1 1/4SM 00/M09 A3018 RMK T00001090 IEM_DS3505
ZHCC,2009-01-26 21:00,ZHCC 262100Z AUTO 27002KT 7SM M04/M12 A3018 RMK SLP231 T10371121 57007 IEM_DS3505
ZHCC,2009-01-26 22:00,ZHCC 262200Z AUTO 21006KT 3SM M01/M09 A3018 RMK T10101090 IEM_DS3505
ZHCC,2009-01-26 23:00,ZHCC 262300Z AUTO 21006KT 4SM M01/M09 A3018 RMK T10101090 IEM_DS3505
ZHCC,2009-01-27 00:00,ZHCC 270000Z AUTO 16002KT 7SM M04/M11 A3018 RMK SLP231 T10361109 57002 IEM_DS3505
ZHCC,2009-01-27 01:00,ZHCC 270100Z AUTO 18006KT 1 1/2SM 01/M07 A3018 RMK T00101070 IEM_DS3505
ZHCC,2009-01-27 02:00,ZHCC 270200Z AUTO 23008KT 1 1/2SM 04/M05 A3018 RMK T00401050 IEM_DS3505
ZHCC,2009-01-27 03:00,ZHCC 270300Z AUTO 18002KT 6SM 08/M12 A3015 RMK SLP219 T00781120 57010 IEM_DS3505
ZHCC,2009-01-27 04:00,ZHCC 270400Z AUTO 20012KT 1 1/4SM 08/M04 A3012 RMK T00801040 IEM_DS3505
ZHCC,2009-01-27 05:00,ZHCC 270500Z AUTO 20012KT 1 1/4SM 10/M04 A3009 RMK T01001040 IEM_DS3505
ZHCC,2009-01-27 06:00,ZHCC 270600Z AUTO 09002KT 6SM 12/M07 A3003 RMK SLP175 T01221072 57043 IEM_DS3505
ZHCC,2009-01-27 07:00,ZHCC 270700Z AUTO 20010KT 1 1/2SM 12/M02 A3000 RMK T01201020 IEM_DS3505
ZHCC,2009-01-27 08:00,ZHCC 270800Z AUTO 18008KT 1 1/2SM 12/M01 A3000 RMK T01201010 IEM_DS3505
ZHCC,2009-01-27 09:00,ZHCC 270900Z AUTO 16008KT 6SM 12/M03 A3000 RMK SLP167 T01211029 57008 IEM_DS3505
ZHCC,2009-01-27 10:00,ZHCC 271000Z AUTO 18006KT 2SM 09/M02 A3000 RMK T00901020 IEM_DS3505
ZHCC,2009-01-27 11:00,ZHCC 271100Z AUTO 18004KT 1 1/2SM 08/M03 A3003 RMK T00801030 IEM_DS3505
ZHCC,2009-01-27 12:00,ZHCC 271200Z AUTO 18004KT 6SM 08/M03 A3003 RMK SLP175 T00841034 52007 IEM_DS3505
ZHCC,2009-01-27 13:00,ZHCC 271300Z AUTO 19006KT 3SM 07/M02 A3003 RMK T00701020 IEM_DS3505
ZHCC,2009-01-27 14:00,ZHCC 271400Z AUTO 19006KT 3SM 06/M02 A3003 RMK T00601020 IEM_DS3505
ZHCC,2009-01-27 15:00,ZHCC 271500Z AUTO 20002KT 6SM 05/M03 A3000 RMK SLP168 T00501026 57005 IEM_DS3505
ZHCC,2009-01-27 16:00,ZHCC 271600Z AUTO 18006KT 3SM 05/M01 A3000 RMK T00501010 IEM_DS3505
ZHCC,2009-01-27 17:00,ZHCC 271700Z AUTO 20012KT 1 1/2SM 06/M01 A3000 RMK T00601010 IEM_DS3505
ZHCC,2009-01-27 18:00,ZHCC 271800Z AUTO 27002KT 6SM 02/M03 A3000 RMK SLP172 T00231030 52005 IEM_DS3505
ZHCC,2009-01-27 19:00,ZHCC 271900Z AUTO 1 1/2SM 03/M02 A3003 RMK T00301020 IEM_DS3505
ZHCC,2009-01-27 20:00,ZHCC 272000Z AUTO 16004KT 1 1/2SM 03/M03 A3003 RMK T00301030 IEM_DS3505
ZHCC,2009-01-27 21:00,ZHCC 272100Z AUTO 16004KT 6SM 04/M04 A3000 RMK SLP168 T00401040 57004 IEM_DS3505
ZHCC,2009-01-27 22:00,ZHCC 272200Z AUTO 19004KT 1 1/4SM 02/M03 A3003 RMK T00201030 IEM_DS3505
ZHCC,2009-01-27 23:00,ZHCC 272300Z AUTO 18004KT 1 1/4SM 00/M04 A3003 RMK T00001040 IEM_DS3505
ZHCC,2009-01-28 00:00,ZHCC 280000Z AUTO 09002KT 7SM M01/M05 A3006 RMK SLP183 T10081047 52013 IEM_DS3505
ZHCC,2009-01-28 01:00,ZHCC 280100Z AUTO 19006KT 1 1/4SM 03/M03 A3009 RMK T00301030 IEM_DS3505
ZHCC,2009-01-28 02:00,ZHCC 280200Z AUTO 19004KT 1 1/2SM 05/M03 A3009 RMK T00501030 IEM_DS3505
ZHCC,2009-01-28 03:00,ZHCC 280300Z AUTO 16002KT 7SM 08/M04 A3006 RMK SLP189 T00821036 52007 IEM_DS3505
ZHCC,2009-01-28 04:00,ZHCC 280400Z AUTO 19006KT 1 1/2SM 07/M02 A3006 RMK T00701020 IEM_DS3505
ZHCC,2009-01-28 05:00,ZHCC 280500Z AUTO 18006KT 2SM 07/M02 A3003 RMK T00701020 IEM_DS3505
ZHCC,2009-01-28 06:00,ZHCC 280600Z AUTO 16004KT 7SM 10/M03 A3003 RMK SLP174 T00991034 57015 IEM_DS3505
ZHCC,2009-01-28 07:00,ZHCC 280700Z AUTO 18006KT 2SM 07/M02 A3003 RMK T00701020 IEM_DS3505
ZHCC,2009-01-28 08:00,ZHCC 280800Z AUTO 17004KT 2SM 07/M01 A3003 RMK T00701010 IEM_DS3505
ZHCC,2009-01-28 09:00,ZHCC 280900Z AUTO 16002KT 6SM 08/M02 A3003 RMK SLP183 T00791019 52009 IEM_DS3505
ZHCC,2009-01-28 10:00,ZHCC 281000Z AUTO 14004KT 1 1/4SM 07/M01 A3006 RMK T00701010 IEM_DS3505
ZHCC,2009-01-28 11:00,ZHCC 281100Z AUTO 17004KT 1 1/4SM 06/M01 A3006 RMK T00601010 IEM_DS3505
ZHCC,2009-01-28 12:00,ZHCC 281200Z AUTO 09002KT 6SM 05/M02 A3009 RMK SLP203 T00511018 52018 IEM_DS3505
ZHCC,2009-01-28 13:00,ZHCC 281300Z AUTO 00000KT 1 1/4SM 05/M02 A3009 RMK T00501020 IEM_DS3505
ZHCC,2009-01-28 14:00,ZHCC 281400Z AUTO 12002KT 1 1/4SM 04/M01 A3009 RMK T00401010 IEM_DS3505
ZHCC,2009-01-28 15:00,ZHCC 281500Z AUTO 00000KT 5SM 02/M03 A3009 RMK SLP203 T00171028 52001 IEM_DS3505
ZHCC,2009-01-28 16:00,ZHCC 281600Z AUTO 00000KT 1 1/4SM 01/M03 A3009 RMK T00101030 IEM_DS3505
ZHCC,2009-01-28 17:00,ZHCC 281700Z AUTO 31002KT 1SM 01/M03 A3009 RMK T00101030 IEM_DS3505
ZHCC,2009-01-28 18:00,ZHCC 281800Z AUTO 00000KT 4SM 00/M04 A3012 RMK SLP213 T00001035 52010 IEM_DS3505
ZHCC,2009-01-28 19:00,ZHCC 281900Z AUTO 32004KT 1SM 01/M03 A3015 RMK T00101030 IEM_DS3505
ZHCC,2009-01-28 20:00,ZHCC 282000Z AUTO 33004KT 1SM 00/M03 A3012 RMK T00001030 IEM_DS3505
ZHCC,2009-01-28 21:00,ZHCC 282100Z AUTO 25002KT 3SM M01/M04 A3012 RMK SLP221 T10131045 52007 IEM_DS3505
ZHCC,2009-01-28 22:00,ZHCC 282200Z AUTO 35008KT 1 1/4SM 00/M04 A3015 RMK T00001040 IEM_DS3505
ZHCC,2009-01-28 23:00,ZHCC 282300Z AUTO 35006KT 1SM 00/M06 A3015 RMK T00001060 IEM_DS3505
ZHCC,2009-01-29 00:00,ZHCC 290000Z AUTO 36002KT 2 1/2SM M01/M08 A3018 RMK SLP237 T10131078 52015 IEM_DS3505
ZHCC,2009-01-29 01:00,ZHCC 290100Z AUTO 36006KT 1SM 02/M08 A3021 RMK T00201080 IEM_DS3505
ZHCC,2009-01-29 02:00,ZHCC 290200Z AUTO 01010KT 1SM 04/M08 A3021 RMK T00401080 IEM_DS3505
ZHCC,2009-01-29 03:00,ZHCC 290300Z AUTO 04006KT 4SM 07/M09 A3021 RMK SLP242 T00701094 52006 IEM_DS3505
ZHCC,2009-01-29 04:00,ZHCC 290400Z AUTO 01008KT 1SM 07/M07 A3018 RMK T00701070 IEM_DS3505
ZHCC,2009-01-29 05:00,ZHCC 290500Z AUTO 01010KT 1SM 09/M07 A3015 RMK T00901070 IEM_DS3505
ZHCC,2009-01-29 06:00,ZHCC 290600Z AUTO 07004KT 4SM 10/M07 A3012 RMK SLP213 T00961067 57028 IEM_DS3505
ZHCC,2009-01-29 07:00,ZHCC 290700Z AUTO 02008KT 1SM 10/M06 A3012 RMK T01001060 IEM_DS3505
ZHCC,2009-01-29 08:00,ZHCC 290800Z AUTO 02008KT 1SM 10/M06 A3012 RMK T01001060 IEM_DS3505
ZHCC,2009-01-29 09:00,ZHCC 290900Z AUTO 02002KT 2 1/2SM 10/M08 A3015 RMK SLP217 T00991078 52004 IEM_DS3505
ZHCC,2009-01-29 10:00,ZHCC 291000Z AUTO 36006KT 1SM 08/M08 A3015 RMK T00801080 IEM_DS3505
ZHCC,2009-01-29 11:00,ZHCC 291100Z AUTO 03004KT 1SM 07/M08 A3018 RMK T00701080 IEM_DS3505
ZHCC,2009-01-29 12:00,ZHCC 291200Z AUTO 27002KT 2 1/2SM 03/M08 RMK SLP238 T00341077 52019 IEM_DS3505
ZHCC,2009-01-29 15:00,ZHCC 291500Z AUTO 00000KT 2SM 01/M06 RMK SLP247 T00081059 52010 IEM_DS3505
ZHCC,2009-01-29 18:00,ZHCC 291800Z AUTO 25002KT 2SM M01/M07 RMK SLP247 T10061068 54000 IEM_DS3505
ZHCC,2009-01-29 21:00,ZHCC 292100Z AUTO 04004KT 2SM M00/M07 RMK SLP247 T10021070 54000 IEM_DS3505
ZHCC,2009-01-29 22:00,ZHCC 292200Z AUTO 36006KT 1SM 00/M07 A3021 RMK T00001070 IEM_DS3505
ZHCC,2009-01-29 23:00,ZHCC 292300Z AUTO 35004KT 1SM M02/M09 A3024 RMK T10201090 IEM_DS3505
ZHCC,2009-01-30 00:00,ZHCC 300000Z AUTO 20002KT 1 1/4SM M02/M08 A3024 RMK SLP262 T10211076 52013 IEM_DS3505
ZHCC,2009-01-30 01:00,ZHCC 300100Z AUTO 36006KT 1SM 01/M05 A3027 RMK T00101050 IEM_DS3505
ZHCC,2009-01-30 02:00,ZHCC 300200Z AUTO 02010KT 1SM 02/M04 A3030 RMK T00201040 IEM_DS3505
ZHCC,2009-01-30 03:00,ZHCC 300300Z AUTO 14002G21KT 2 1/2SM 05/M04 A3027 RMK SLP267 T00491044 52006 IEM_DS3505
ZHCC,2009-01-30 04:00,ZHCC 300400Z AUTO 02010KT 1SM 06/M04 A3024 RMK T00601040 IEM_DS3505
ZHCC,2009-01-30 05:00,ZHCC 300500Z AUTO 05008KT 1SM 08/M04 A3018 RMK T00801040 IEM_DS3505
ZHCC,2009-01-30 06:00,ZHCC 300600Z AUTO 07006KT 4SM 08/M07 A3018 RMK SLP232 T00841069 57034 IEM_DS3505
ZHCC,2009-01-30 07:00,ZHCC 300700Z AUTO 02006KT 1SM 08/M05 A3018 RMK T00801050 IEM_DS3505
ZHCC,2009-01-30 08:00,ZHCC 300800Z AUTO 04006KT 1SM 08/M05 A3015 RMK T00801050 IEM_DS3505
ZHCC,2009-01-30 09:00,ZHCC 300900Z AUTO 04004KT 4SM 07/M05 A3018 RMK SLP231 T00731054 57001 IEM_DS3505
ZHCC,2009-01-30 10:00,ZHCC 301000Z AUTO 07004KT 1SM 06/M05 A3018 RMK T00601050 IEM_DS3505
ZHCC,2009-01-30 11:00,ZHCC 301100Z AUTO 06006KT 1SM 04/M04 A3021 RMK T00401040 IEM_DS3505
ZHCC,2009-01-30 12:00,ZHCC 301200Z AUTO 07004KT 2 1/2SM 04/M03 A3021 RMK SLP249 T00411034 52017 IEM_DS3505
ZHCC,2009-01-30 13:00,ZHCC 301300Z AUTO 05008KT 1SM 02/M04 A3024 RMK T00201040 IEM_DS3505
ZHCC,2009-01-30 14:00,ZHCC 301400Z AUTO 04006KT 1SM 00/M04 A3024 RMK T00001040 IEM_DS3505
ZHCC,2009-01-30 15:00,ZHCC 301500Z AUTO 09004KT 2SM 01/M04 A3027 RMK SLP260 T00081035 52011 IEM_DS3505
ZHCC,2009-01-30 16:00,ZHCC 301600Z AUTO 04006KT 1SM 00/M03 A3024 RMK T00001030 IEM_DS3505
ZHCC,2009-01-30 17:00,ZHCC 301700Z AUTO 03004KT 1SM M01/M04 A3024 RMK T10101040 IEM_DS3505
ZHCC,2009-01-30 18:00,ZHCC 301800Z AUTO 09004KT 2 1/2SM M01/M04 A3027 RMK SLP261 T10061035 52002 IEM_DS3505
ZHCC,2009-01-30 19:00,ZHCC 301900Z AUTO 00000KT 1SM M02/M04 A3027 RMK T10201040 IEM_DS3505
ZHCC,2009-01-30 20:00,ZHCC 302000Z AUTO 01004KT 1/2SM M03/M05 A3024 RMK T10301050 IEM_DS3505
ZHCC,2009-01-30 21:00,ZHCC 302100Z AUTO 09004KT 2 1/2SM M02/M04 A3024 RMK SLP255 T10231036 57007 IEM_DS3505
ZHCC,2009-01-30 22:00,ZHCC 302200Z AUTO 01006KT 1/4SM M03/M04 A3024 RMK T10301040 IEM_DS3505
ZHCC,2009-01-30 23:00,ZHCC 302300Z AUTO 02006KT 1/4SM M03/M04 A3024 RMK T10301040 IEM_DS3505
ZHCC,2009-01-31 00:00,ZHCC 310000Z AUTO 07004KT 1 1/4SM M02/M03 A3027 RMK SLP270 T10191033 52014 IEM_DS3505
ZHCC,2009-01-31 01:00,ZHCC 310100Z AUTO 01006KT 3/8SM M03/M03 A3030 RMK T10301030 IEM_DS3505
ZHCC,2009-01-31 02:00,ZHCC 310200Z AUTO 02008KT 1/2SM M02/M03 A3033 RMK T10201030 IEM_DS3505
ZHCC,2009-01-31 03:00,ZHCC 310300Z AUTO 07004KT 1 1/4SM M01/M03 A3030 RMK SLP280 T10081033 52010 IEM_DS3505
ZHCC,2009-01-31 04:00,ZHCC 310400Z AUTO 01006KT 1/2SM M01/M02 A3027 RMK T10101020 IEM_DS3505
ZHCC,2009-01-31 05:00,ZHCC 310500Z AUTO 01006KT 1SM 00/M02 A3024 RMK T00001020 IEM_DS3505
ZHCC,2009-01-31 06:00,ZHCC 310600Z AUTO 09004KT 1 1/4SM 01/M03 A3021 RMK SLP250 T00101029 57030 IEM_DS3505
ZHCC,2009-01-31 07:00,ZHCC 310700Z AUTO 02004KT 1SM 01/M01 A3021 RMK T00101010 IEM_DS3505
ZHCC,2009-01-31 08:00,ZHCC 310800Z AUTO 03004KT 1SM 01/M01 A3024 RMK T00101010 IEM_DS3505
ZHCC,2009-01-31 09:00,ZHCC 310900Z AUTO 07004KT 2SM 02/M02 A3024 RMK SLP256 T00211024 52006 IEM_DS3505
ZHCC,2009-01-31 10:00,ZHCC 311000Z AUTO 07006KT 1SM 01/M01 A3027 RMK T00101010 IEM_DS3505
ZHCC,2009-01-31 11:00,ZHCC 311100Z AUTO 04006KT 1SM 01/M01 A3027 RMK T00101010 IEM_DS3505
ZHCC,2009-01-31 12:00,ZHCC 311200Z AUTO 04002KT 2SM 02/M02 A3030 RMK SLP275 T00201016 52019 IEM_DS3505
ZHCC,2009-01-31 13:00,ZHCC 311300Z AUTO 02006KT 1SM 01/M01 A3030 RMK T00101010 IEM_DS3505
ZHCC,2009-01-31 14:00,ZHCC 311400Z AUTO 03006KT 3/8SM 01/M01 A3030 RMK T00101010 IEM_DS3505
ZHCC,2009-01-31 15:00,ZHCC 311500Z AUTO 07008KT 1 1/4SM 01/M00 A3030 RMK SLP279 T00141002 52004 IEM_DS3505
ZHCC,2009-01-31 16:00,ZHCC 311600Z AUTO 36004KT 1/8SM 01/00 A3033 RMK T00100000 IEM_DS3505
ZHCC,2009-01-31 17:00,ZHCC 311700Z AUTO 02006KT 1/8SM 01/00 A3033 RMK T00100000 IEM_DS3505
ZHCC,2009-01-31 18:00,ZHCC 311800Z AUTO 02004KT 1 1/4SM 02/M02 A3033 RMK SLP282 T00151017 52003 IEM_DS3505
ZHCC,2009-01-31 19:00,ZHCC 311900Z AUTO 02008KT 3/8SM 00/00 A3033 RMK T00000000 IEM_DS3505
ZHCC,2009-01-31 20:00,ZHCC 312000Z AUTO 01006KT 1SM 00/M01 A3033 RMK T00001010 IEM_DS3505
ZHCC,2009-01-31 21:00,ZHCC 312100Z AUTO 07002KT 1 1/4SM 01/M03 A3033 RMK SLP283 T00131032 52001 IEM_DS3505
ZHCC,2009-01-31 22:00,ZHCC 312200Z AUTO 02006KT 1SM 00/M01 A3033 RMK T00001010 IEM_DS3505
ZHCC,2009-01-31 23:00,ZHCC 312300Z AUTO 02006KT 1SM 00/M01 A3033 RMK T00001010 IEM_DS3505
ZHCC,2009-02-01 00:00,ZHCC 010000Z AUTO 04002KT 1 1/4SM 01/M03 A3033 RMK SLP287 T00121027 52004 IEM_DS3505
ZHCC,2009-02-01 01:00,ZHCC 010100Z AUTO 35004KT 1SM 00/M02 A3036 RMK T00001020 IEM_DS3505
ZHCC,2009-02-01 02:00,ZHCC 010200Z AUTO 36006KT 1SM 01/M02 A3036 RMK T00101020 IEM_DS3505
ZHCC,2009-02-01 03:00,ZHCC 010300Z AUTO 07004KT 1 1/4SM 02/M02 A3036 RMK SLP290 T00241025 52003 IEM_DS3505
ZHCC,2009-02-01 04:00,ZHCC 010400Z AUTO 01006KT 1SM 02/M01 A3033 RMK T00201010 IEM_DS3505
ZHCC,2009-02-01 05:00,ZHCC 010500Z AUTO 36008KT 1SM 02/M01 A3030 RMK T00201010 IEM_DS3505
ZHCC,2009-02-01 06:00,ZHCC 010600Z AUTO 02004KT 2SM 04/M03 A3027 RMK SLP263 T00381028 57026 IEM_DS3505
ZHCC,2009-02-01 07:00,ZHCC 010700Z AUTO 35006KT 1SM 04/M01 A3027 RMK T00401010 IEM_DS3505
ZHCC,2009-02-01 08:00,ZHCC 010800Z AUTO 35006KT 1SM 04/M01 A3024 RMK T00401010 IEM_DS3505
ZHCC,2009-02-01 09:00,ZHCC 010900Z AUTO 34004KT 2SM 05/M02 A3027 RMK SLP258 T00461023 57005 IEM_DS3505
ZHCC,2009-02-01 10:00,ZHCC 011000Z AUTO 36004KT 1SM 02/M03 A3024 RMK T00201030 IEM_DS3505
ZHCC,2009-02-01 11:00,ZHCC 011100Z AUTO 36006KT 1SM 02/M02 A3027 RMK T00201020 IEM_DS3505
ZHCC,2009-02-01 12:00,ZHCC 011200Z AUTO 07002KT 1 1/4SM 01/M03 A3027 RMK SLP265 T00121029 52006 IEM_DS3505
ZHCC,2009-02-01 13:00,ZHCC 011300Z AUTO 33006KT 1SM 00/M04 A3030 RMK T00001040 IEM_DS3505
ZHCC,2009-02-01 14:00,ZHCC 011400Z AUTO 34006KT 1SM M01/M04 A3030 RMK T10101040 IEM_DS3505
ZHCC,2009-02-01 15:00,ZHCC 011500Z AUTO 25004KT 1 1/4SM 02/M02 A3027 RMK SLP271 T00151024 52007 IEM_DS3505
ZHCC,2009-02-01 16:00,ZHCC 011600Z AUTO 35004KT 1SM 00/M03 A3027 RMK T00001030 IEM_DS3505
ZHCC,2009-02-01 17:00,ZHCC 011700Z AUTO 34002KT 1SM 00/M02 A3027 RMK T00001020 IEM_DS3505
ZHCC,2009-02-01 18:00,ZHCC 011800Z AUTO 00000KT 1 1/4SM 01/M03 A3027 RMK SLP262 T00091028 57009 IEM_DS3505
ZHCC,2009-02-01 19:00,ZHCC 011900Z AUTO 35004KT 1SM 01/M02 A3024 RMK T00101020 IEM_DS3505
ZHCC,2009-02-01 20:00,ZHCC 012000Z AUTO 35006KT 1SM 01/M02 A3024 RMK T00101020 IEM_DS3505
ZHCC,2009-02-01 21:00,ZHCC 012100Z AUTO 22004KT 1 1/4SM 02/M02 A3024 RMK SLP250 T00211022 57011 IEM_DS3505
ZHCC,2009-02-01 22:00,ZHCC 012200Z AUTO 35002KT 1SM 00/M02 A3024 RMK T00001020 IEM_DS3505
ZHCC,2009-02-01 23:00,ZHCC 012300Z AUTO 35002KT 1SM 00/M03 A3024 RMK T00001030 IEM_DS3505
ZHCC,2009-02-02 00:00,ZHCC 020000Z AUTO 00000KT 2 1/2SM 01/M02 A3024 RMK SLP257 T00141020 52006 IEM_DS3505
ZHCC,2009-02-02 01:00,ZHCC 020100Z AUTO 36004KT 1SM 02/M02 A3027 RMK T00201020 IEM_DS3505
ZHCC,2009-02-02 02:00,ZHCC 020200Z AUTO 02008KT 1SM 03/M02 A3027 RMK T00301020 IEM_DS3505
ZHCC,2009-02-02 03:00,ZHCC 020300Z AUTO 04004KT 1 1/4SM 04/M02 A3030 RMK SLP270 T00441025 52013 IEM_DS3505
ZHCC,2009-02-02 04:00,ZHCC 020400Z AUTO 01008KT 1SM 04/M02 A3027 RMK T00401020 IEM_DS3505
ZHCC,2009-02-02 05:00,ZHCC 020500Z AUTO 02008KT 1SM 04/M02 A3024 RMK T00401020 IEM_DS3505
ZHCC,2009-02-02 06:00,ZHCC 020600Z AUTO 36004KT 2SM 05/M03 A3021 RMK SLP249 T00471026 57021 IEM_DS3505
ZHCC,2009-02-02 07:00,ZHCC 020700Z AUTO 36008KT 1SM 05/M02 A3021 RMK T00501020 IEM_DS3505
ZHCC,2009-02-02 08:00,ZHCC 020800Z AUTO 01008KT 1SM 05/M02 A3024 RMK T00501020 IEM_DS3505
ZHCC,2009-02-02 09:00,ZHCC 020900Z AUTO 04002KT 2SM 05/M03 A3024 RMK SLP250 T00511029 52002 IEM_DS3505
ZHCC,2009-02-02 10:00,ZHCC 021000Z AUTO 01006KT 1SM 04/M03 A3024 RMK T00401030 IEM_DS3505
ZHCC,2009-02-02 11:00,ZHCC 021100Z AUTO 01008KT 1SM 04/M04 A3027 RMK T00401040 IEM_DS3505
ZHCC,2009-02-02 12:00,ZHCC 021200Z AUTO 02002KT 2SM 04/M02 A3030 RMK SLP274 T00451017 52023 IEM_DS3505
ZHCC,2009-02-02 13:00,ZHCC 021300Z AUTO 02010KT 1SM 03/M03 A3030 RMK T00301030 IEM_DS3505
ZHCC,2009-02-02 14:00,ZHCC 021400Z AUTO 01008KT 1SM 03/M04 A3033 RMK T00301040 IEM_DS3505
ZHCC,2009-02-02 15:00,ZHCC 021500Z AUTO 04006KT 3SM 04/M05 A3033 RMK SLP284 T00431052 52011 IEM_DS3505
ZHCC,2009-02-02 16:00,ZHCC 021600Z AUTO 02008KT 1SM 03/M05 A3033 RMK T00301050 IEM_DS3505
ZHCC,2009-02-02 17:00,ZHCC 021700Z AUTO 02010KT 1SM 03/M05 A3033 RMK T00301050 IEM_DS3505
ZHCC,2009-02-02 18:00,ZHCC 021800Z AUTO 04004KT 3SM 04/M04 A3033 RMK SLP284 T00361044 54000 IEM_DS3505
ZHCC,2009-02-02 19:00,ZHCC 021900Z AUTO 01008KT 1SM 02/M05 A3033 RMK T00201050 IEM_DS3505
ZHCC,2009-02-02 20:00,ZHCC 022000Z AUTO 01006KT 1SM 02/M05 A3030 RMK T00201050 IEM_DS3505
ZHCC,2009-02-02 21:00,ZHCC 022100Z AUTO 07002KT 3SM 02/M06 A3030 RMK SLP279 T00211062 57006 IEM_DS3505
ZHCC,2009-02-02 22:00,ZHCC 022200Z AUTO 36008KT 1SM 01/M05 A3033 RMK T00101050 IEM_DS3505
ZHCC,2009-02-02 23:00,ZHCC 022300Z AUTO 36008KT 1SM 01/M06 A3033 RMK T00101060 IEM_DS3505
ZHCC,2009-02-03 00:00,ZHCC 030000Z AUTO 25002KT 2SM 00/M05 A3033 RMK SLP284 T00021052 52005 IEM_DS3505
ZHCC,2009-02-03 01:00,ZHCC 030100Z AUTO 01008KT 1SM 02/M05 A3033 RMK T00201050 IEM_DS3505
ZHCC,2009-02-03 02:00,ZHCC 030200Z AUTO 03008KT 1SM 03/M05 A3033 RMK T00301050 IEM_DS3505
ZHCC,2009-02-03 03:00,ZHCC 030300Z AUTO 18004KT 3SM 06/M05 A3036 RMK SLP287 T00601047 52004 IEM_DS3505
ZHCC,2009-02-03 04:00,ZHCC 030400Z AUTO 02010KT 1SM 05/M05 A3033 RMK T00501050 IEM_DS3505
ZHCC,2009-02-03 05:00,ZHCC 030500Z AUTO 03008KT 1SM 06/M05 A3027 RMK T00601050 IEM_DS3505
ZHCC,2009-02-03 06:00,ZHCC 030600Z AUTO 02004KT 2SM 07/M04 A3021 RMK SLP242 T00701044 57044 IEM_DS3505
ZHCC,2009-02-03 07:00,ZHCC 030700Z AUTO 05004KT 1SM 07/M05 A3021 RMK T00701050 IEM_DS3505
ZHCC,2009-02-03 08:00,ZHCC 030800Z AUTO 08004KT 1 1/4SM 07/M06 A3021 RMK T00701060 IEM_DS3505
ZHCC,2009-02-03 09:00,ZHCC 030900Z AUTO 09004KT 4SM 07/M06 A3021 RMK SLP241 T00671063 57002 IEM_DS3505
ZHCC,2009-02-03 10:00,ZHCC 031000Z AUTO 13004KT 1 1/4SM 05/M05 A3021 RMK T00501050 IEM_DS3505
ZHCC,2009-02-03 11:00,ZHCC 031100Z AUTO 10004KT 1 1/4SM 04/M05 A3021 RMK T00401050 IEM_DS3505
ZHCC,2009-02-03 12:00,ZHCC 031200Z AUTO 18002KT 3SM 02/M06 A3021 RMK SLP246 T00251059 52004 IEM_DS3505
ZHCC,2009-02-03 13:00,ZHCC 031300Z AUTO 15002KT 1 1/4SM 02/M05 A3021 RMK T00201050 IEM_DS3505
ZHCC,2009-02-03 14:00,ZHCC 031400Z AUTO 12004KT 1 1/4SM 02/M04 A3021 RMK T00201040 IEM_DS3505
ZHCC,2009-02-03 15:00,ZHCC 031500Z AUTO 00000KT 3SM 00/M05 A3021 RMK SLP240 T00021054 57005 IEM_DS3505
ZHCC,2009-02-03 16:00,ZHCC 031600Z AUTO 20002KT 1SM M01/M05 A3021 RMK T10101050 IEM_DS3505
ZHCC,2009-02-03 17:00,ZHCC 031700Z AUTO 00000KT 1SM M02/M06 A3018 RMK T10201060 IEM_DS3505
ZHCC,2009-02-03 18:00,ZHCC 031800Z AUTO 11002KT 3SM M02/M06 A3018 RMK SLP230 T10161056 57010 IEM_DS3505
ZHCC,2009-02-03 19:00,ZHCC 031900Z AUTO 1SM M02/M06 A3018 RMK T10201060 IEM_DS3505
ZHCC,2009-02-03 20:00,ZHCC 032000Z AUTO 20002KT 1SM M02/M05 A3015 RMK T10201050 IEM_DS3505
ZHCC,2009-02-03 21:00,ZHCC 032100Z AUTO 16002KT 3SM M02/M06 A3012 RMK SLP215 T10171055 57015 IEM_DS3505
ZHCC,2009-02-03 22:00,ZHCC 032200Z AUTO 00000KT 1SM M03/M05 A3012 RMK T10301050 IEM_DS3505
ZHCC,2009-02-03 23:00,ZHCC 032300Z AUTO 00000KT 1SM M04/M06 A3012 RMK T10401060 IEM_DS3505
ZHCC,2009-02-04 00:00,ZHCC 040000Z AUTO 18002KT 2SM M02/M05 A3012 RMK SLP216 T10231053 54000 IEM_DS3505
ZHCC,2009-02-04 01:00,ZHCC 040100Z AUTO 1SM 01/M02 A3015 RMK T00101020 IEM_DS3505
ZHCC,2009-02-04 02:00,ZHCC 040200Z AUTO 20004KT 1SM 03/M01 A3015 RMK T00301010 IEM_DS3505
ZHCC,2009-02-04 03:00,ZHCC 040300Z AUTO 32004KT 1 1/4SM 08/M02 A3012 RMK SLP215 T00771023 54000 IEM_DS3505
ZHCC,2009-02-04 04:00,ZHCC 040400Z AUTO 20006KT 1SM 08/01 A3009 RMK T00800010 IEM_DS3505
ZHCC,2009-02-04 05:00,ZHCC 040500Z AUTO 20006KT 1SM 10/02 A3006 RMK T01000020 IEM_DS3505
ZHCC,2009-02-04 06:00,ZHCC 040600Z AUTO 27002KT 2SM 12/M02 A3003 RMK SLP172 T01221021 57041 IEM_DS3505
ZHCC,2009-02-04 07:00,ZHCC 040700Z AUTO 20008KT 1SM 11/02 A3000 RMK T01100020 IEM_DS3505
ZHCC,2009-02-04 08:00,ZHCC 040800Z AUTO 18006KT 1SM 11/02 A3000 RMK T01100020 IEM_DS3505
ZHCC,2009-02-04 09:00,ZHCC 040900Z AUTO 18006KT 1 1/4SM 12/01 A3003 RMK SLP172 T01180009 54000 IEM_DS3505
ZHCC,2009-02-04 10:00,ZHCC 041000Z AUTO 18004KT 1SM 09/02 A3003 RMK T00900020 IEM_DS3505
ZHCC,2009-02-04 11:00,ZHCC 041100Z AUTO 20004KT 1SM 08/02 A3003 RMK T00800020 IEM_DS3505
ZHCC,2009-02-04 12:00,ZHCC 041200Z AUTO 20004KT 2 1/2SM 07/01 A3006 RMK SLP193 T00730012 52019 IEM_DS3505
ZHCC,2009-02-04 13:00,ZHCC 041300Z AUTO 1SM 07/03 A3009 RMK T00700030 IEM_DS3505
ZHCC,2009-02-04 14:00,ZHCC 041400Z AUTO 18002KT 1SM 04/01 A3009 RMK T00400010 IEM_DS3505
ZHCC,2009-02-04 15:00,ZHCC 041500Z AUTO 00000KT 2SM 03/M00 A3012 RMK SLP207 T00311002 52015 IEM_DS3505
ZHCC,2009-02-04 16:00,ZHCC 041600Z AUTO 00000KT 1SM 02/00 A3012 RMK T00200000 IEM_DS3505
ZHCC,2009-02-04 17:00,ZHCC 041700Z AUTO 00000KT 1/2SM 01/00 A3012 RMK T00100000 IEM_DS3505
ZHCC,2009-02-04 18:00,ZHCC 041800Z AUTO 00000KT 2SM 02/M01 A3012 RMK SLP215 T00231008 52009 IEM_DS3505
ZHCC,2009-02-04 19:00,ZHCC 041900Z AUTO 28002KT 3/8SM 01/00 A3015 RMK T00100000 IEM_DS3505
ZHCC,2009-02-04 20:00,ZHCC 042000Z AUTO 30002KT 3/8SM 02/00 A3015 RMK T00200000 IEM_DS3505
ZHCC,2009-02-04 21:00,ZHCC 042100Z AUTO 32002KT 2SM 02/M01 A3015 RMK SLP223 T00231006 52008 IEM_DS3505
ZHCC,2009-02-04 22:00,ZHCC 042200Z AUTO 35004KT 1/2SM 02/00 A3018 RMK T00200000 IEM_DS3505
ZHCC,2009-02-04 23:00,ZHCC 042300Z AUTO 3/8SM 00/M01 A3021 RMK T00001010 IEM_DS3505
ZHCC,2009-02-05 00:00,ZHCC 050000Z AUTO 25002KT 1SM 00/M02 A3021 RMK SLP251 T00021017 52026 IEM_DS3505
ZHCC,2009-02-05 01:00,ZHCC 050100Z AUTO 36004KT 3/8SM 02/01 A3024 RMK T00200010 IEM_DS3505
ZHCC,2009-02-05 02:00,ZHCC 050200Z AUTO 36006KT 1/2SM 03/02 A3024 RMK T00300020 IEM_DS3505
ZHCC,2009-02-05 03:00,ZHCC 050300Z AUTO 34002KT 1SM 06/M00 A3027 RMK SLP261 T00651002 52010 IEM_DS3505
ZHCC,2009-02-05 04:00,ZHCC 050400Z AUTO 36006KT 1SM 08/03 A3024 RMK T00800030 IEM_DS3505
ZHCC,2009-02-05 05:00,ZHCC 050500Z AUTO 01008KT 1SM 09/03 A3021 RMK T00900030 IEM_DS3505
ZHCC,2009-02-05 06:00,ZHCC 050600Z AUTO 07004KT 1 1/4SM 10/01 A3021 RMK SLP237 T01020008 57023 IEM_DS3505
ZHCC,2009-02-05 07:00,ZHCC 050700Z AUTO 03006KT 1SM 11/04 A3018 RMK T01100040 IEM_DS3505
ZHCC,2009-02-05 08:00,ZHCC 050800Z AUTO 04006KT 1SM 11/04 A3018 RMK T01100040 IEM_DS3505
ZHCC,2009-02-05 09:00,ZHCC 050900Z AUTO 09006KT 1 1/4SM 10/03 A3018 RMK SLP232 T01020028 57005 IEM_DS3505
ZHCC,2009-02-05 10:00,ZHCC 051000Z AUTO 11004KT 1SM 09/04 A3021 RMK T00900040 IEM_DS3505
ZHCC,2009-02-05 11:00,ZHCC 051100Z AUTO 07004KT 1SM 09/05 A3021 RMK T00900050 IEM_DS3505
ZHCC,2009-02-05 12:00,ZHCC 051200Z AUTO 04004KT 1SM 08/02 A3024 RMK SLP250 T00830023 52017 IEM_DS3505
ZHCC,2009-02-05 13:00,ZHCC 051300Z AUTO 06006KT 1SM 08/05 A3027 RMK T00800050 IEM_DS3505
ZHCC,2009-02-05 14:00,ZHCC 051400Z AUTO 04006KT 1SM 07/04 A3027 RMK T00700040 IEM_DS3505
ZHCC,2009-02-05 15:00,ZHCC 051500Z AUTO 07002KT 1SM 08/04 A3027 RMK SLP261 T00750037 52012 IEM_DS3505
ZHCC,2009-02-05 16:00,ZHCC 051600Z AUTO 04004KT 1SM 07/04 A3027 RMK T00700040 IEM_DS3505
ZHCC,2009-02-05 17:00,ZHCC 051700Z AUTO 32004KT 1/2SM 06/04 A3027 RMK T00600040 IEM_DS3505
ZHCC,2009-02-05 18:00,ZHCC 051800Z AUTO 07002KT 1 1/4SM 07/04 A3027 RMK SLP261 T00710041 52001 IEM_DS3505
ZHCC,2009-02-05 19:00,ZHCC 051900Z AUTO 36004KT 1/2SM 06/04 A3024 RMK T00600040 IEM_DS3505
ZHCC,2009-02-05 20:00,ZHCC 052000Z AUTO 01006KT 1/2SM 06/04 A3027 RMK T00600040 IEM_DS3505
ZHCC,2009-02-05 21:00,ZHCC 052100Z AUTO 07002KT 1 1/4SM 07/03 A3024 RMK SLP252 T00680032 57009 IEM_DS3505
ZHCC,2009-02-05 22:00,ZHCC 052200Z AUTO 36002KT 1SM 06/04 A3024 RMK T00600040 IEM_DS3505
ZHCC,2009-02-05 23:00,ZHCC 052300Z AUTO 1/2SM 06/04 A3027 RMK T00600040 IEM_DS3505
ZHCC,2009-02-06 00:00,ZHCC 060000Z AUTO 04002KT 1SM 07/03 A3030 RMK SLP268 T00680027 52016 IEM_DS3505
ZHCC,2009-02-06 01:00,ZHCC 060100Z AUTO 35004KT 1/2SM 06/04 A3030 RMK T00600040 IEM_DS3505
ZHCC,2009-02-06 02:00,ZHCC 060200Z AUTO 00000KT 1SM 07/04 A3027 RMK T00700040 IEM_DS3505
ZHCC,2009-02-06 03:00,ZHCC 060300Z AUTO 18002KT 1SM 09/04 A3027 RMK SLP258 T00890041 57010 IEM_DS3505
ZHCC,2009-02-06 04:00,ZHCC 060400Z AUTO 1SM 08/06 A3024 RMK T00800060 IEM_DS3505
ZHCC,2009-02-06 05:00,ZHCC 060500Z AUTO 18004KT 1SM 10/07 A3021 RMK T01000070 IEM_DS3505
ZHCC,2009-02-06 06:00,ZHCC 060600Z AUTO 14006KT 1 1/4SM 13/05 A3015 RMK SLP215 T01270054 57042 IEM_DS3505
ZHCC,2009-02-06 07:00,ZHCC 060700Z AUTO 18004KT 1SM 12/08 A3012 RMK T01200080 IEM_DS3505
ZHCC,2009-02-06 08:00,ZHCC 060800Z AUTO 15006KT 1SM 12/07 A3012 RMK T01200070 IEM_DS3505
ZHCC,2009-02-06 09:00,ZHCC 060900Z AUTO 14004KT 3SM 13/06 A3012 RMK SLP204 T01260058 57011 IEM_DS3505
ZHCC,2009-02-06 10:00,ZHCC 061000Z AUTO 14004KT 1SM 10/06 A3012 RMK T01000060 IEM_DS3505
ZHCC,2009-02-06 11:00,ZHCC 061100Z AUTO 13004KT 1SM 09/06 A3012 RMK T00900060 IEM_DS3505
ZHCC,2009-02-06 12:00,ZHCC 061200Z AUTO 11004KT 3SM 10/06 A3015 RMK SLP213 T01000062 52009 IEM_DS3505
ZHCC,2009-02-06 13:00,ZHCC 061300Z AUTO 12002KT 1SM 09/07 A3015 RMK T00900070 IEM_DS3505
ZHCC,2009-02-06 14:00,ZHCC 061400Z AUTO 00000KT 1SM 09/06 A3015 RMK T00900060 IEM_DS3505
ZHCC,2009-02-06 15:00,ZHCC 061500Z AUTO 32002KT 1 1/4SM 09/06 A3015 RMK SLP222 T00920061 52009 IEM_DS3505
ZHCC,2009-02-06 16:00,ZHCC 061600Z AUTO 32002KT 1SM 09/06 A3018 RMK T00900060 IEM_DS3505
ZHCC,2009-02-06 17:00,ZHCC 061700Z AUTO 05004KT 1/2SM 09/07 A3018 RMK T00900070 IEM_DS3505
ZHCC,2009-02-06 18:00,ZHCC 061800Z AUTO 16002KT 1 1/4SM 09/06 A3015 RMK SLP219 T00910060 57002 IEM_DS3505
ZHCC,2009-02-06 19:00,ZHCC 061900Z AUTO 00000KT 1/2SM 08/06 A3015 RMK T00800060 IEM_DS3505
ZHCC,2009-02-06 20:00,ZHCC 062000Z AUTO 00000KT 1/2SM 09/07 A3015 RMK T00900070 IEM_DS3505
ZHCC,2009-02-06 21:00,ZHCC 062100Z AUTO 00000KT 2SM 09/06 A3015 RMK SLP218 T00910062 57001 IEM_DS3505
ZHCC,2009-02-06 22:00,ZHCC 062200Z AUTO 01004KT 1SM 09/07 A3015 RMK T00900070 IEM_DS3505
ZHCC,2009-02-06 23:00,ZHCC 062300Z AUTO 00000KT 1SM 08/07 A3018 RMK T00800070 IEM_DS3505
ZHCC,2009-02-07 00:00,ZHCC 070000Z AUTO 18002KT 1SM 09/06 A3018 RMK SLP227 T00910062 52008 IEM_DS3505
ZHCC,2009-02-07 01:00,ZHCC 070100Z AUTO 10002KT 1SM 09/07 A3021 RMK T00900070 IEM_DS3505
ZHCC,2009-02-07 02:00,ZHCC 070200Z AUTO 10002KT 1SM 09/07 A3021 RMK T00900070 IEM_DS3505
ZHCC,2009-02-07 03:00,ZHCC 070300Z AUTO 02002KT 1SM 10/07 A3024 RMK SLP250 T00990066 52023 IEM_DS3505
ZHCC,2009-02-07 04:00,ZHCC 070400Z AUTO 00000KT 1/2SM 09/07 A3024 RMK T00900070 IEM_DS3505
ZHCC,2009-02-07 05:00,ZHCC 070500Z AUTO 1/2SM 09/07 A3021 RMK T00900070 IEM_DS3505
ZHCC,2009-02-07 06:00,ZHCC 070600Z AUTO 04004KT 1SM 09/07 A3021 RMK 60000 SLP242 T00890069 57008 IEM_DS3505
ZHCC,2009-02-07 07:00,ZHCC 070700Z AUTO 02010KT 1/2SM 08/06 A3024 RMK T00800060 IEM_DS3505
ZHCC,2009-02-07 08:00,ZHCC 070800Z AUTO 03010KT 1/4SM 06/05 A3024 RMK T00600050 IEM_DS3505
ZHCC,2009-02-07 09:00,ZHCC 070900Z AUTO 04010KT 1SM 06/05 A3024 RMK SLP258 T00620048 52015 IEM_DS3505
ZHCC,2009-02-07 10:00,ZHCC 071000Z AUTO 03010KT 1/4SM 05/04 A3027 RMK T00500040 IEM_DS3505
ZHCC,2009-02-07 11:00,ZHCC 071100Z AUTO 03010KT 1/4SM 05/04 A3030 RMK T00500040 IEM_DS3505
ZHCC,2009-02-07 12:00,ZHCC 071200Z AUTO 04004KT 3/8SM 06/04 A3033 RMK 60008 SLP280 T00610038 52021 IEM_DS3505
ZHCC,2009-02-07 13:00,ZHCC 071300Z AUTO 02012KT 1/4SM 05/04 A3033 RMK T00500040 IEM_DS3505
ZHCC,2009-02-07 14:00,ZHCC 071400Z AUTO 02010G23KT 1/4SM 05/04 A3036 RMK T00500040 IEM_DS3505
ZHCC,2009-02-07 15:00,ZHCC 071500Z AUTO 04006KT 1SM 06/02 A3036 RMK SLP292 T00580021 52012 IEM_DS3505
ZHCC,2009-02-07 16:00,ZHCC 071600Z AUTO 03012KT 3/8SM 05/04 A3036 RMK T00500040 IEM_DS3505
ZHCC,2009-02-07 17:00,ZHCC 071700Z AUTO 02008KT 1SM 05/04 A3033 RMK T00500040 IEM_DS3505
ZHCC,2009-02-07 18:00,ZHCC 071800Z AUTO 07002KT 1 1/4SM 06/01 A3033 RMK 60002 SLP287 T00580013 57005 IEM_DS3505
ZHCC,2009-02-07 19:00,ZHCC 071900Z AUTO 02006KT 1SM 05/03 A3033 RMK T00500030 IEM_DS3505
ZHCC,2009-02-07 20:00,ZHCC 072000Z AUTO 36006KT 3/8SM 04/03 A3033 RMK T00400030 IEM_DS3505
ZHCC,2009-02-07 21:00,ZHCC 072100Z AUTO 04004KT 1 1/4SM 05/01 A3030 RMK 70013 SLP280 T00520008 57008 IEM_DS3505
ZHCC,2009-02-07 22:00,ZHCC 072200Z AUTO 36006KT 1SM 04/02 A3033 RMK T00400020 IEM_DS3505
ZHCC,2009-02-07 23:00,ZHCC 072300Z AUTO 01008KT 1/2SM 04/02 A3033 RMK T00400020 IEM_DS3505
ZHCC,2009-02-08 00:00,ZHCC 080000Z AUTO 02006KT 2SM 05/01 A3033 RMK 60008 70014 SLP286 T00500006 52006 IEM_DS3505
ZHCC,2009-02-08 01:00,ZHCC 080100Z AUTO 36006KT 1/2SM 04/02 A3033 RMK T00400020 IEM_DS3505
ZHCC,2009-02-08 02:00,ZHCC 080200Z AUTO 36006KT 1/2SM 04/02 A3033 RMK T00400020 IEM_DS3505
ZHCC,2009-02-08 03:00,ZHCC 080300Z AUTO 02004KT 2 1/2SM 05/01 A3033 RMK SLP287 T00470010 52001 IEM_DS3505
ZHCC,2009-02-08 04:00,ZHCC 080400Z AUTO 35006KT 1/2SM 04/01 A3033 RMK T00400010 IEM_DS3505
ZHCC,2009-02-08 05:00,ZHCC 080500Z AUTO 01006KT 1/2SM 04/02 A3027 RMK T00400020 IEM_DS3505
ZHCC,2009-02-08 06:00,ZHCC 080600Z AUTO 02002KT 1SM 05/03 A3024 RMK 60002 SLP257 T00460028 57029 IEM_DS3505
ZHCC,2009-02-08 07:00,ZHCC 080700Z AUTO 01004KT 1/2SM 03/02 A3024 RMK T00300020 IEM_DS3505
ZHCC,2009-02-08 08:00,ZHCC 080800Z AUTO 34006KT 1/2SM 04/02 A3021 RMK T00400020 IEM_DS3505
ZHCC,2009-02-08 09:00,ZHCC 080900Z AUTO 22002KT 1SM 04/03 A3021 RMK SLP243 T00450030 57014 IEM_DS3505
ZHCC,2009-02-08 10:00,ZHCC 081000Z AUTO 28002KT 1/2SM 04/03 A3021 RMK T00400030 IEM_DS3505
ZHCC,2009-02-08 11:00,ZHCC 081100Z AUTO 27002KT 1/2SM 04/03 A3021 RMK T00400030 IEM_DS3505
ZHCC,2009-02-08 12:00,ZHCC 081200Z AUTO 22002KT 1SM 04/02 A3021 RMK 60012 SLP243 T00360024 57001 IEM_DS3505
ZHCC,2009-02-08 13:00,ZHCC 081300Z AUTO 25006KT 1/2SM 03/02 A3021 RMK T00300020 IEM_DS3505
ZHCC,2009-02-08 14:00,ZHCC 081400Z AUTO 25004KT 1/2SM 03/02 A3021 RMK T00300020 IEM_DS3505
ZHCC,2009-02-08 15:00,ZHCC 081500Z AUTO 27006KT 1 1/4SM 03/02 A3021 RMK SLP238 T00330023 57005 IEM_DS3505
ZHCC,2009-02-08 16:00,ZHCC 081600Z AUTO 22004KT 1/8SM 02/01 A3018 RMK T00200010 IEM_DS3505
ZHCC,2009-02-08 17:00,ZHCC 081700Z AUTO 22004KT 1/8SM 01/01 A3018 RMK T00100010 IEM_DS3505
ZHCC,2009-02-08 18:00,ZHCC 081800Z AUTO 27006KT 5SM 06/03 A3018 RMK SLP227 T00610026 57010 IEM_DS3505
ZHCC,2009-02-08 19:00,ZHCC 081900Z AUTO 28012KT 1SM 05/04 A3015 RMK T00500040 IEM_DS3505
ZHCC,2009-02-08 20:00,ZHCC 082000Z AUTO 27016KT 1SM 06/05 A3015 RMK T00600050 IEM_DS3505
ZHCC,2009-02-08 21:00,ZHCC 082100Z AUTO 25006KT 6SM 06/02 A3015 RMK 70013 SLP220 T00600025 57007 IEM_DS3505
ZHCC,2009-02-08 22:00,ZHCC 082200Z AUTO 27014KT 2SM 06/04 A3015 RMK T00600040 IEM_DS3505
ZHCC,2009-02-08 23:00,ZHCC 082300Z AUTO 28008KT 1 1/2SM 05/03 A3015 RMK T00500030 IEM_DS3505
ZHCC,2009-02-09 00:00,ZHCC 090000Z AUTO 27010KT 5SM 07/02 A3018 RMK 70011 SLP230 T00680025 52010 IEM_DS3505
ZHCC,2009-02-09 01:00,ZHCC 090100Z AUTO 28010KT 2SM 07/04 A3021 RMK T00700040 IEM_DS3505
ZHCC,2009-02-09 02:00,ZHCC 090200Z AUTO 32017KT 2 1/2SM 11/04 A3018 RMK T01100040 IEM_DS3505
ZHCC,2009-02-09 03:00,ZHCC 090300Z AUTO 32008KT 6SM 12/01 A3018 RMK SLP235 T01170011 52006 IEM_DS3505
ZHCC,2009-02-09 04:00,ZHCC 090400Z AUTO 31021KT 2 1/2SM 14/00 A3018 RMK T01400000 IEM_DS3505
ZHCC,2009-02-09 05:00,ZHCC 090500Z AUTO 32019KT 2 1/2SM 14/M01 A3015 RMK T01401010 IEM_DS3505
ZHCC,2009-02-09 06:00,ZHCC 090600Z AUTO 29010KT 7SM 15/M00 A3012 RMK SLP210 T01481005 57023 IEM_DS3505
ZHCC,2009-02-09 07:00,ZHCC 090700Z AUTO 36012KT 2 1/2SM 15/M01 A3012 RMK T01501010 IEM_DS3505
ZHCC,2009-02-09 08:00,ZHCC 090800Z AUTO 02010KT 2 1/2SM 15/M01 A3012 RMK T01501010 IEM_DS3505
ZHCC,2009-02-09 09:00,ZHCC 090900Z AUTO 27006KT 10SM 15/M02 A3012 RMK SLP200 T01511015 57010 IEM_DS3505
ZHCC,2009-02-09 10:00,ZHCC 091000Z AUTO 01006KT 2 1/2SM 12/00 A3009 RMK T01200000 IEM_DS3505
ZHCC,2009-02-09 11:00,ZHCC 091100Z AUTO 27004KT 2 1/2SM 11/01 A3009 RMK T01100010 IEM_DS3505
ZHCC,2009-02-09 12:00,ZHCC 091200Z AUTO 25002KT 7SM 08/01 A3009 RMK SLP202 T00850007 54000 IEM_DS3505
ZHCC,2009-02-09 13:00,ZHCC 091300Z AUTO 19006KT 2 1/2SM 09/00 A3009 RMK T00900000 IEM_DS3505
ZHCC,2009-02-09 14:00,ZHCC 091400Z AUTO 20006KT 2 1/2SM 08/00 A3009 RMK T00800000 IEM_DS3505
ZHCC,2009-02-09 15:00,ZHCC 091500Z AUTO 25002KT 7SM 06/00 A3009 RMK SLP197 T00580004 57004 IEM_DS3505
ZHCC,2009-02-09 16:00,ZHCC 091600Z AUTO 23006KT 2SM 08/00 A3009 RMK T00800000 IEM_DS3505
ZHCC,2009-02-09 17:00,ZHCC 091700Z AUTO 21006KT 1 1/4SM 07/M01 A3006 RMK T00701010 IEM_DS3505
ZHCC,2009-02-09 18:00,ZHCC 091800Z AUTO 27002KT 7SM 04/M01 A3003 RMK SLP177 T00411009 57019 IEM_DS3505
ZHCC,2009-02-09 19:00,ZHCC 091900Z AUTO 18008KT 1 1/2SM 07/00 A3000 RMK T00700000 IEM_DS3505
ZHCC,2009-02-09 20:00,ZHCC 092000Z AUTO 18008KT 1 1/2SM 06/00 A2997 RMK T00600000 IEM_DS3505
ZHCC,2009-02-09 21:00,ZHCC 092100Z AUTO 25002KT 7SM 03/M01 A2997 RMK SLP152 T00281006 57025 IEM_DS3505
ZHCC,2009-02-09 22:00,ZHCC 092200Z AUTO 22006KT 2SM 04/00 A2994 RMK T00400000 IEM_DS3505
ZHCC,2009-02-09 23:00,ZHCC 092300Z AUTO 19006KT 1 1/4SM 03/M01 A2994 RMK T00301010 IEM_DS3505
ZHCC,2009-02-10 00:00,ZHCC 100000Z AUTO 22002KT 6SM 02/M00 A2997 RMK SLP156 T00201004 52002 IEM_DS3505
ZHCC,2009-02-10 01:00,ZHCC 100100Z AUTO 20002KT 1 1/4SM 06/03 A2994 RMK T00600030 IEM_DS3505
ZHCC,2009-02-10 02:00,ZHCC 100200Z AUTO 22004KT 1 1/2SM 10/03 A2994 RMK T01000030 IEM_DS3505
ZHCC,2009-02-10 03:00,ZHCC 100300Z AUTO 27004KT 5SM 14/01 A2991 RMK SLP137 T01380008 57017 IEM_DS3505
ZHCC,2009-02-10 04:00,ZHCC 100400Z AUTO 2SM 16/04 A2991 RMK T01600040 IEM_DS3505
ZHCC,2009-02-10 05:00,ZHCC 100500Z AUTO 17004KT 2SM 18/04 A2988 RMK T01800040 IEM_DS3505
ZHCC,2009-02-10 06:00,ZHCC 100600Z AUTO 27008KT 6SM A2983 RMK SLP105 57030 IEM_DS3505
ZHCC,2009-02-10 07:00,ZHCC 100700Z AUTO 16006KT 2 1/2SM 19/05 A2983 RMK T01900050 IEM_DS3505
ZHCC,2009-02-10 08:00,ZHCC 100800Z AUTO 17006KT 2 1/2SM 19/04 A2980 RMK T01900040 IEM_DS3505
ZHCC,2009-02-10 09:00,ZHCC 100900Z AUTO 20002KT 7SM 22/M02 A2983 RMK SLP094 T02161023 57011 IEM_DS3505
ZHCC,2009-02-10 10:00,ZHCC 101000Z AUTO 17004KT 2 1/2SM 16/06 A2983 RMK T01600060 IEM_DS3505
ZHCC,2009-02-10 11:00,ZHCC 101100Z AUTO 18006KT 2SM 14/07 A2983 RMK T01400070 IEM_DS3505
ZHCC,2009-02-10 12:00,ZHCC 101200Z AUTO 20004KT 6SM 14/07 A2983 RMK SLP104 T01400066 52008 IEM_DS3505
ZHCC,2009-02-10 13:00,ZHCC 101300Z AUTO 20006KT 2SM 13/08 A2985 RMK T01300080 IEM_DS3505
ZHCC,2009-02-10 14:00,ZHCC 101400Z AUTO 22004KT 1 1/4SM 11/07 A2985 RMK T01100070 IEM_DS3505
ZHCC,2009-02-10 15:00,ZHCC 101500Z AUTO 00000KT 6SM 08/05 A2985 RMK SLP116 T00780047 52013 IEM_DS3505
ZHCC,2009-02-10 16:00,ZHCC 101600Z AUTO 24004KT 1 1/4SM 07/04 A2985 RMK T00700040 IEM_DS3505
ZHCC,2009-02-10 17:00,ZHCC 101700Z AUTO 1 1/4SM 08/05 A2985 RMK T00800050 IEM_DS3505
ZHCC,2009-02-10 18:00,ZHCC 101800Z AUTO 27002KT 6SM 07/02 A2985 RMK SLP115 T00670024 52001 IEM_DS3505
ZHCC,2009-02-10 19:00,ZHCC 101900Z AUTO 30004KT 1 1/4SM 08/03 A2985 RMK T00800030 IEM_DS3505
ZHCC,2009-02-10 20:00,ZHCC 102000Z AUTO 21004KT 1SM 09/02 A2983 RMK T00900020 IEM_DS3505
ZHCC,2009-02-10 21:00,ZHCC 102100Z AUTO 25002KT 5SM 05/02 A2983 RMK SLP105 T00500017 57011 IEM_DS3505
ZHCC,2009-02-10 22:00,ZHCC 102200Z AUTO 00000KT 1SM 03/00 A2983 RMK T00300000 IEM_DS3505
ZHCC,2009-02-10 23:00,ZHCC 102300Z AUTO 30002KT 1 1/4SM 04/02 A2983 RMK T00400020 IEM_DS3505
ZHCC,2009-02-11 00:00,ZHCC 110000Z AUTO 00000KT 3SM 04/02 A2983 RMK SLP109 T00420019 52002 IEM_DS3505
ZHCC,2009-02-11 01:00,ZHCC 110100Z AUTO 1 1/4SM 09/06 A2983 RMK T00900060 IEM_DS3505
ZHCC,2009-02-11 02:00,ZHCC 110200Z AUTO 1 1/4SM 11/05 A2983 RMK T01100050 IEM_DS3505
ZHCC,2009-02-11 03:00,ZHCC 110300Z AUTO 07006KT 5SM 12/06 A2980 RMK SLP103 T01230061 57005 IEM_DS3505
ZHCC,2009-02-11 04:00,ZHCC 110400Z VRB02MPS 2000 R30/1400N HZ NSC 15/08 Q1008 NOSIG
ZHCC,2009-02-11 05:00,ZHCC 110500Z AUTO 08004KT 1 1/2SM 17/09 A2974 RMK T01700090 IEM_DS3505
ZHCC,2009-02-11 06:00,ZHCC 110600Z AUTO 14006KT 6SM 18/08 A2968 RMK SLP056 T01830083 57045 IEM_DS3505
ZHCC,2009-02-11 07:00,ZHCC 110700Z AUTO 13006KT 1 1/2SM 18/11 A2965 RMK T01800110 IEM_DS3505
ZHCC,2009-02-11 08:00,ZHCC 110800Z AUTO 12010KT 1 1/4SM 18/11 A2962 RMK T01800110 IEM_DS3505
ZHCC,2009-02-11 09:00,ZHCC 110900Z AUTO 11008KT 5SM 18/10 A2962 RMK SLP034 T01830102 57022 IEM_DS3505
ZHCC,2009-02-11 10:00,ZHCC 111000Z AUTO 13004KT 1 1/4SM 16/11 A2962 RMK T01600110 IEM_DS3505
ZHCC,2009-02-11 11:00,ZHCC 111100Z AUTO 11004KT 1 1/4SM 15/11 A2959 RMK T01500110 IEM_DS3505
ZHCC,2009-02-11 12:00,ZHCC 111200Z AUTO 07004KT 4SM 15/10 A2959 RMK SLP029 T01540104 57006 IEM_DS3505
ZHCC,2009-02-11 13:00,ZHCC 111300Z AUTO 07004KT 1 1/4SM 15/12 A2959 RMK T01500120 IEM_DS3505
ZHCC,2009-02-11 14:00,ZHCC 111400Z AUTO 08006KT 1 1/4SM 15/11 A2959 RMK T01500110 IEM_DS3505
ZHCC,2009-02-11 15:00,ZHCC 111500Z AUTO 07002KT 4SM 15/10 A2956 RMK SLP018 T01460102 57009 IEM_DS3505
ZHCC,2009-02-11 16:00,ZHCC 111600Z AUTO 05004KT 1 1/4SM 14/11 A2953 RMK T01400110 IEM_DS3505
ZHCC,2009-02-11 17:00,ZHCC 111700Z AUTO 35002KT 1 1/4SM 14/11 A2953 RMK T01400110 IEM_DS3505
ZHCC,2009-02-11 18:00,ZHCC 111800Z AUTO 07002KT 4SM 14/10 A2950 RMK SLP993 T01410099 57024 IEM_DS3505
ZHCC,2009-02-11 19:00,ZHCC 111900Z AUTO 02002KT 1 1/4SM 13/11 A2947 RMK T01300110 IEM_DS3505
ZHCC,2009-02-11 20:00,ZHCC 112000Z AUTO 15002KT 1SM 13/11 A2944 RMK T01300110 IEM_DS3505
ZHCC,2009-02-11 21:00,ZHCC 112100Z AUTO 00000KT 2 1/2SM 14/10 A2944 RMK SLP970 T01370097 57023 IEM_DS3505
ZHCC,2009-02-11 22:00,ZHCC 112200Z AUTO 06004KT 1 1/4SM 13/10 A2941 RMK T01300100 IEM_DS3505
ZHCC,2009-02-11 23:00,ZHCC 112300Z AUTO 05004KT 1 1/4SM 13/10 A2941 RMK T01300100 IEM_DS3505
ZHCC,2009-02-12 00:00,ZHCC 120000Z AUTO 07008KT 2SM 13/10 A2941 RMK SLP961 T01300096 57009 IEM_DS3505
ZHCC,2009-02-12 01:00,ZHCC 120100Z AUTO 06004KT 1SM 13/10 A2941 RMK T01300100 IEM_DS3505
ZHCC,2009-02-12 02:00,ZHCC 120200Z AUTO 06006KT 1SM 14/11 A2938 RMK T01400110 IEM_DS3505
ZHCC,2009-02-12 03:00,ZHCC 120300Z AUTO 04004KT 1 1/4SM 15/10 A2935 RMK SLP948 T01460098 57013 IEM_DS3505
ZHCC,2009-02-12 05:00,ZHCC 120500Z AUTO 02006KT 1SM 17/12 A2929 RMK T01700120 IEM_DS3505
ZHCC,2009-02-12 06:00,ZHCC 120600Z AUTO 04004KT 1 1/4SM 16/10 A2926 RMK SLP917 T01630095 57030 IEM_DS3505
ZHCC,2009-02-12 07:00,ZHCC 120700Z AUTO 02010KT 1SM 17/11 A2926 RMK T01700110 IEM_DS3505
ZHCC,2009-02-12 08:00,ZHCC 120800Z AUTO 01010KT 1SM 16/10 A2929 RMK T01600100 IEM_DS3505
ZHCC,2009-02-12 09:00,ZHCC 120900Z AUTO 02006KT 2SM 14/08 A2932 RMK SLP938 T01420075 52020 IEM_DS3505
ZHCC,2009-02-12 10:00,ZHCC 121000Z AUTO 36010KT 1SM 12/07 A2935 RMK T01200070 IEM_DS3505
ZHCC,2009-02-12 11:00,ZHCC 121100Z AUTO 36014KT 1SM 12/06 A2938 RMK T01200060 IEM_DS3505
ZHCC,2009-02-12 12:00,ZHCC 121200Z AUTO 32004KT 4SM 13/07 A2941 RMK SLP963 T01290071 52024 IEM_DS3505
ZHCC,2009-02-12 13:00,ZHCC 121300Z AUTO 01008KT 1SM 10/06 A2941 RMK T01000060 IEM_DS3505
ZHCC,2009-02-12 14:00,ZHCC 121400Z AUTO 01006KT 1SM 10/06 A2944 RMK T01000060 IEM_DS3505
ZHCC,2009-02-12 15:00,ZHCC 121500Z AUTO 09002KT 4SM 11/06 A2944 RMK SLP973 T01090065 52010 IEM_DS3505
ZHCC,2009-02-12 16:00,ZHCC 121600Z AUTO 05006KT 1SM 09/05 A2944 RMK T00900050 IEM_DS3505
ZHCC,2009-02-12 17:00,ZHCC 121700Z AUTO 04004KT 1/2SM 07/05 A2947 RMK T00700050 IEM_DS3505
ZHCC,2009-02-12 18:00,ZHCC 121800Z AUTO 11004KT 4SM 08/05 A2950 RMK SLP997 T00800048 52023 IEM_DS3505
ZHCC,2009-02-12 19:00,ZHCC 121900Z AUTO 01008KT 1/2SM 06/04 A2953 RMK T00600040 IEM_DS3505
ZHCC,2009-02-12 20:00,ZHCC 122000Z AUTO 01004KT 1/2SM 06/03 A2956 RMK T00600030 IEM_DS3505
ZHCC,2009-02-12 21:00,ZHCC 122100Z AUTO 07004KT 4SM 07/04 A2959 RMK SLP025 T00660039 52027 IEM_DS3505
ZHCC,2009-02-12 22:00,ZHCC 122200Z AUTO 02006KT 1SM 06/04 A2962 RMK T00600040 IEM_DS3505
ZHCC,2009-02-12 23:00,ZHCC 122300Z AUTO 36006KT 1SM 06/04 A2965 RMK T00600040 IEM_DS3505
ZHCC,2009-02-13 00:00,ZHCC 130000Z AUTO 04002KT 4SM 08/05 A2968 RMK SLP056 T00820046 52031 IEM_DS3505
ZHCC,2009-02-13 01:00,ZHCC 130100Z AUTO 03008KT 1SM 07/05 A2971 RMK T00700050 IEM_DS3505
ZHCC,2009-02-13 02:00,ZHCC 130200Z AUTO 02008KT 1SM 08/05 A2977 RMK T00800050 IEM_DS3505
ZHCC,2009-02-13 03:00,ZHCC 130300Z AUTO 07004KT 4SM 09/05 A2977 RMK SLP092 T00920048 52035 IEM_DS3505
ZHCC,2009-02-13 04:00,ZHCC 130400Z AUTO 02008KT 1 1/4SM 09/05 A2980 RMK T00900050 IEM_DS3505
ZHCC,2009-02-13 05:00,ZHCC 130500Z AUTO 02008KT 1 1/4SM 10/05 A2977 RMK T01000050 IEM_DS3505
ZHCC,2009-02-13 06:00,ZHCC 130600Z AUTO 11004KT 5SM 12/04 A2977 RMK SLP082 T01200042 57010 IEM_DS3505
ZHCC,2009-02-13 07:00,ZHCC 130700Z AUTO 04008KT 1 1/2SM 12/04 A2974 RMK T01200040 IEM_DS3505
ZHCC,2009-02-13 08:00,ZHCC 130800Z AUTO 05004KT 1 1/2SM 12/05 A2980 RMK T01200050 IEM_DS3505
ZHCC,2009-02-13 09:00,ZHCC 130900Z AUTO 07006KT 5SM 12/04 A2980 RMK SLP096 T01240041 52014 IEM_DS3505
ZHCC,2009-02-13 10:00,ZHCC 131000Z AUTO 07004KT 1 1/4SM 10/04 A2983 RMK T01000040 IEM_DS3505
ZHCC,2009-02-13 11:00,ZHCC 131100Z AUTO 09004KT 1 1/4SM 09/03 A2985 RMK T00900030 IEM_DS3505
ZHCC,2009-02-13 12:00,ZHCC 131200Z AUTO 07002KT 5SM 10/04 A2988 RMK SLP131 T00970043 52034 IEM_DS3505
ZHCC,2009-02-13 13:00,ZHCC 131300Z AUTO 00000KT 1 1/4SM 08/04 A2991 RMK T00800040 IEM_DS3505
ZHCC,2009-02-13 14:00,ZHCC 131400Z AUTO 09002KT 1 1/4SM 08/05 A2994 RMK T00800050 IEM_DS3505
ZHCC,2009-02-13 15:00,ZHCC 131500Z AUTO 11002KT 5SM 09/04 A2994 RMK SLP144 T00920044 52013 IEM_DS3505
ZHCC,2009-02-13 16:00,ZHCC 131600Z AUTO 14006KT 1 1/4SM 07/04 A2991 RMK T00700040 IEM_DS3505
ZHCC,2009-02-13 17:00,ZHCC 131700Z AUTO 00000KT 1 1/4SM 07/04 A2997 RMK T00700040 IEM_DS3505
ZHCC,2009-02-13 18:00,ZHCC 131800Z AUTO 09004KT 4SM 09/04 A2997 RMK SLP156 T00860044 52012 IEM_DS3505
ZHCC,2009-02-13 19:00,ZHCC 131900Z AUTO 06004KT 1SM 07/04 A2997 RMK T00700040 IEM_DS3505
ZHCC,2009-02-13 20:00,ZHCC 132000Z AUTO 00000KT 1SM 07/04 A2997 RMK T00700040 IEM_DS3505
ZHCC,2009-02-13 21:00,ZHCC 132100Z AUTO 04002KT 4SM 08/04 A2997 RMK SLP166 T00790043 52010 IEM_DS3505
ZHCC,2009-02-13 22:00,ZHCC 132200Z AUTO 00000KT 1SM 07/04 A3000 RMK T00700040 IEM_DS3505
ZHCC,2009-02-13 23:00,ZHCC 132300Z AUTO 1SM 07/04 A3003 RMK T00700040 IEM_DS3505
ZHCC,2009-02-14 00:00,ZHCC 140000Z AUTO 29006KT 2 1/2SM 09/05 RMK 60000 70000 SLP183 T00900050 52017 IEM_DS3505
ZHCC,2009-02-14 02:00,ZHCC 140200Z AUTO 1SM 08/06 A3006 RMK T00800060 IEM_DS3505
ZHCC,2009-02-14 03:00,ZHCC 140300Z AUTO 18008KT 2 1/2SM 11/06 A3006 RMK SLP183 T01090061 54000 IEM_DS3505
ZHCC,2009-02-14 04:00,ZHCC 140400Z AUTO 21006KT 1SM 10/08 A3003 RMK T01000080 IEM_DS3505
ZHCC,2009-02-14 05:00,ZHCC 140500Z AUTO 23006KT 1 1/4SM 12/08 A3000 RMK T01200080 IEM_DS3505
ZHCC,2009-02-14 06:00,ZHCC 140600Z AUTO 22006KT 6SM 14/03 A2997 RMK 60000 SLP151 T01390034 57031 IEM_DS3505
ZHCC,2009-02-14 07:00,ZHCC 140700Z AUTO 22004KT 2SM 13/06 A2997 RMK T01300060 IEM_DS3505
ZHCC,2009-02-14 08:00,ZHCC 140800Z AUTO 17006KT 1 1/2SM 12/07 A2994 RMK T01200070 IEM_DS3505
ZHCC,2009-02-14 09:00,ZHCC 140900Z AUTO 22008KT 6SM 14/04 A2994 RMK SLP142 T01440038 57009 IEM_DS3505
ZHCC,2009-02-14 10:00,ZHCC 141000Z AUTO 19006KT 1SM 10/07 A2997 RMK T01000070 IEM_DS3505
ZHCC,2009-02-14 11:00,ZHCC 141100Z AUTO 19004KT 1 1/4SM 09/06 A2997 RMK T00900060 IEM_DS3505
ZHCC,2009-02-14 12:00,ZHCC 141200Z AUTO 14002KT 6SM 10/07 A3000 RMK SLP161 T00990070 52018 IEM_DS3505
ZHCC,2009-02-14 13:00,ZHCC 141300Z AUTO 20004KT 1SM 08/06 A3000 RMK T00800060 IEM_DS3505
ZHCC,2009-02-14 14:00,ZHCC 141400Z AUTO 20004KT 1SM 08/06 A3000 RMK T00800060 IEM_DS3505
ZHCC,2009-02-14 15:00,ZHCC 141500Z AUTO 09002KT 5SM 08/06 A3000 RMK SLP165 T00820057 52004 IEM_DS3505
ZHCC,2009-02-14 16:00,ZHCC 141600Z AUTO 21004KT 1SM 08/06 A3000 RMK T00800060 IEM_DS3505
ZHCC,2009-02-14 17:00,ZHCC 141700Z AUTO 19004KT 1SM 08/06 A3003 RMK T00800060 IEM_DS3505
ZHCC,2009-02-14 18:00,ZHCC 141800Z AUTO 09002KT 4SM 08/06 A3003 RMK SLP182 T00820057 52017 IEM_DS3505
ZHCC,2009-02-14 19:00,ZHCC 141900Z AUTO 02008KT 1SM 08/06 A3006 RMK T00800060 IEM_DS3505
ZHCC,2009-02-14 20:00,ZHCC 142000Z AUTO 02012KT 1SM 08/06 A3009 RMK T00800060 IEM_DS3505
ZHCC,2009-02-14 21:00,ZHCC 142100Z AUTO 04016KT 6SM 07/01 A3012 RMK 70000 SLP208 T00660011 52026 IEM_DS3505
ZHCC,2009-02-14 22:00,ZHCC 142200Z AUTO 03016KT 1 1/4SM 05/01 A3018 RMK T00500010 IEM_DS3505
ZHCC,2009-02-14 23:00,ZHCC 142300Z AUTO 03016G25KT 1 1/4SM 03/M02 A3021 RMK T00301020 IEM_DS3505
ZHCC,2009-02-15 00:00,ZHCC 150000Z AUTO 02010G27KT 7SM 03/M04 A3027 RMK 60000 70000 SLP263 T00311041 52052 IEM_DS3505
ZHCC,2009-02-15 01:00,ZHCC 150100Z AUTO 03012KT 2SM 02/M04 A3030 RMK T00201040 IEM_DS3505
ZHCC,2009-02-15 02:00,ZHCC 150200Z AUTO 03012KT 2SM 02/M05 A3033 RMK T00201050 IEM_DS3505
ZHCC,2009-02-15 03:00,ZHCC 150300Z AUTO 07004KT 11SM 03/M06 A3033 RMK SLP282 T00301064 52018 IEM_DS3505
ZHCC,2009-02-15 04:00,ZHCC 150400Z AUTO 03010KT 3SM 03/M05 A3030 RMK T00301050 IEM_DS3505
ZHCC,2009-02-15 05:00,ZHCC 150500Z AUTO 03012KT 3SM 03/M05 A3027 RMK T00301050 IEM_DS3505
ZHCC,2009-02-15 06:00,ZHCC 150600Z AUTO 07006KT 11SM 04/M06 A3027 RMK 60000 SLP266 T00391064 57015 IEM_DS3505
ZHCC,2009-02-15 07:00,ZHCC 150700Z AUTO 02010KT 3SM 04/M05 A3024 RMK T00401050 IEM_DS3505
ZHCC,2009-02-15 08:00,ZHCC 150800Z AUTO 04008KT 3SM 04/M05 A3024 RMK T00401050 IEM_DS3505
ZHCC,2009-02-15 09:00,ZHCC 150900Z AUTO 07006KT 11SM 04/M06 A3024 RMK SLP254 T00411065 57012 IEM_DS3505
ZHCC,2009-02-15 10:00,ZHCC 151000Z AUTO 05006KT 2 1/2SM 03/M05 A3027 RMK T00301050 IEM_DS3505
ZHCC,2009-02-15 11:00,ZHCC 151100Z AUTO 06006KT 2 1/2SM 03/M05 A3027 RMK T00301050 IEM_DS3505
ZHCC,2009-02-15 12:00,ZHCC 151200Z AUTO 07004KT 7SM 04/M07 A3030 RMK SLP276 T00391069 52020 IEM_DS3505
ZHCC,2009-02-15 13:00,ZHCC 151300Z AUTO 03004KT 2 1/2SM 03/M05 A3033 RMK T00301050 IEM_DS3505
ZHCC,2009-02-15 14:00,ZHCC 151400Z AUTO 02004KT 2 1/2SM 03/M05 A3033 RMK T00301050 IEM_DS3505
ZHCC,2009-02-15 15:00,ZHCC 151500Z AUTO 07004KT 7SM 04/M08 A3036 RMK SLP291 T00401084 52015 IEM_DS3505
ZHCC,2009-02-15 16:00,ZHCC 151600Z AUTO 02004KT 2 1/2SM 03/M05 A3036 RMK T00301050 IEM_DS3505
ZHCC,2009-02-15 17:00,ZHCC 151700Z AUTO 2 1/2SM 03/M05 A3036 RMK T00301050 IEM_DS3505
ZHCC,2009-02-15 18:00,ZHCC 151800Z AUTO 11002KT 7SM 04/M06 A3033 RMK SLP281 T00391064 57009 IEM_DS3505
ZHCC,2009-02-15 19:00,ZHCC 151900Z AUTO 11004KT 2SM 03/M05 A3030 RMK T00301050 IEM_DS3505
ZHCC,2009-02-15 20:00,ZHCC 152000Z AUTO 10002KT 2SM 03/M05 A3030 RMK T00301050 IEM_DS3505
ZHCC,2009-02-15 21:00,ZHCC 152100Z AUTO 09004KT 7SM 04/M05 A3030 RMK 70000 SLP272 T00381054 57009 IEM_DS3505
ZHCC,2009-02-15 22:00,ZHCC 152200Z AUTO 10004KT 2 1/2SM 03/M03 A3030 RMK T00301030 IEM_DS3505
ZHCC,2009-02-15 23:00,ZHCC 152300Z AUTO 2SM 03/M01 A3033 RMK T00301010 IEM_DS3505
ZHCC,2009-02-16 00:00,ZHCC 160000Z AUTO 16006KT 6SM 04/00 A3033 RMK 70000 SLP281 T00380005 52009 IEM_DS3505
ZHCC,2009-02-16 01:00,ZHCC 160100Z AUTO 15006KT 1SM 03/01 A3036 RMK T00300010 IEM_DS3505
ZHCC,2009-02-16 02:00,ZHCC 160200Z AUTO 14006KT 1SM 03/01 A3039 RMK T00300010 IEM_DS3505
ZHCC,2009-02-16 03:00,ZHCC 160300Z AUTO 14004KT 5SM 04/02 A3039 RMK SLP300 T00450020 52018 IEM_DS3505
ZHCC,2009-02-16 04:00,ZHCC 160400Z AUTO 11006KT 1SM 03/02 A3039 RMK T00300020 IEM_DS3505
ZHCC,2009-02-16 05:00,ZHCC 160500Z AUTO 10008KT 1SM 03/02 A3036 RMK T00300020 IEM_DS3505
ZHCC,2009-02-16 06:00,ZHCC 160600Z AUTO 09004KT 4SM 04/02 A3036 RMK SLP287 T00420016 57012 IEM_DS3505
ZHCC,2009-02-16 07:00,ZHCC 160700Z AUTO 07008KT 1SM 03/02 A3033 RMK T00300020 IEM_DS3505
ZHCC,2009-02-16 08:00,ZHCC 160800Z AUTO 08006KT 1SM 03/02 A3036 RMK T00300020 IEM_DS3505
ZHCC,2009-02-16 09:00,ZHCC 160900Z AUTO 07006KT 2 1/2SM 03/02 A3036 RMK SLP298 T00330020 52010 IEM_DS3505
ZHCC,2009-02-16 11:00,ZHCC 161100Z AUTO 03010KT 1/2SM 01/00 A3042 RMK T00100000 IEM_DS3505
ZHCC,2009-02-16 12:00,ZHCC 161200Z AUTO 04006KT 1 1/4SM 02/M01 A3045 RMK 60000 SLP331 T00151007 52032 IEM_DS3505
ZHCC,2009-02-16 13:00,ZHCC 161300Z AUTO 02008KT 1SM 00/M01 A3047 RMK T00001010 IEM_DS3505
ZHCC,2009-02-16 14:00,ZHCC 161400Z AUTO 02006KT 1SM 00/M01 A3047 RMK T00001010 IEM_DS3505
ZHCC,2009-02-16 15:00,ZHCC 161500Z AUTO 07004KT 1 1/4SM 02/M01 A3047 RMK SLP337 T00161011 52006 IEM_DS3505
ZHCC,2009-02-16 16:00,ZHCC 161600Z AUTO 02008KT 1SM 00/M01 A3047 RMK T00001010 IEM_DS3505
ZHCC,2009-02-16 17:00,ZHCC 161700Z AUTO 03008KT 1SM 00/00 A3047 RMK T00000000 IEM_DS3505
ZHCC,2009-02-16 18:00,ZHCC 161800Z AUTO 04004KT 2 1/2SM 01/M02 A3047 RMK 60000 SLP341 T00141024 52004 IEM_DS3505
ZHCC,2009-02-16 19:00,ZHCC 161900Z AUTO 02008KT 1SM 00/M01 A3047 RMK T00001010 IEM_DS3505
ZHCC,2009-02-16 20:00,ZHCC 162000Z AUTO 04008KT 1SM 00/M01 A3045 RMK T00001010 IEM_DS3505
ZHCC,2009-02-16 21:00,ZHCC 162100Z AUTO 04006KT 2 1/2SM 01/M03 A3045 RMK 70000 SLP333 T00111028 57008 IEM_DS3505
ZHCC,2009-02-16 22:00,ZHCC 162200Z AUTO 02008KT 1SM 00/M01 A3045 RMK T00001010 IEM_DS3505
ZHCC,2009-02-16 23:00,ZHCC 162300Z AUTO 03008KT 1SM 00/M01 A3045 RMK T00001010 IEM_DS3505
ZHCC,2009-02-17 00:00,ZHCC 170000Z AUTO 04006KT 2 1/2SM 01/M02 A3047 RMK 60000 70000 SLP332 T00111023 57001 IEM_DS3505
ZHCC,2009-02-17 01:00,ZHCC 170100Z AUTO 04008KT 1SM 01/M01 A3047 RMK T00101010 IEM_DS3505
ZHCC,2009-02-17 02:00,ZHCC 170200Z AUTO 04006KT 1SM 01/00 A3045 RMK T00100000 IEM_DS3505
ZHCC,2009-02-17 03:00,ZHCC 170300Z AUTO 07002KT 2 1/2SM 02/M02 A3045 RMK SLP328 T00211020 57004 IEM_DS3505
ZHCC,2009-02-17 04:00,ZHCC 170400Z AUTO 01006KT 1SM 02/01 A3045 RMK T00200010 IEM_DS3505
ZHCC,2009-02-17 05:00,ZHCC 170500Z AUTO 02004KT 1SM 04/01 A3039 RMK T00400010 IEM_DS3505
ZHCC,2009-02-17 06:00,ZHCC 170600Z AUTO 07004KT 2SM 04/M01 A3036 RMK SLP292 T00371011 57035 IEM_DS3505
ZHCC,2009-02-17 07:00,ZHCC 170700Z AUTO 02006KT 1SM 04/00 A3033 RMK T00400000 IEM_DS3505
ZHCC,2009-02-17 08:00,ZHCC 170800Z AUTO 03006KT 1SM 04/00 A3033 RMK T00400000 IEM_DS3505
ZHCC,2009-02-17 09:00,ZHCC 170900Z AUTO 04002KT 2SM 04/M01 A3033 RMK SLP280 T00421012 57012 IEM_DS3505
ZHCC,2009-02-17 10:00,ZHCC 171000Z AUTO 01004KT 1SM 04/00 A3033 RMK T00400000 IEM_DS3505
ZHCC,2009-02-17 11:00,ZHCC 171100Z AUTO 36006KT 1SM 04/00 A3033 RMK T00400000 IEM_DS3505
ZHCC,2009-02-17 12:00,ZHCC 171200Z AUTO 07004KT 2SM 04/M00 A3033 RMK 60000 SLP286 T00351005 52006 IEM_DS3505
ZHCC,2009-02-17 13:00,ZHCC 171300Z AUTO 35004KT 1SM 03/00 A3036 RMK T00300000 IEM_DS3505
ZHCC,2009-02-17 14:00,ZHCC 171400Z AUTO 02004KT 1SM 03/00 A3036 RMK T00300000 IEM_DS3505
ZHCC,2009-02-17 15:00,ZHCC 171500Z AUTO 11002KT 2SM 04/M01 A3036 RMK SLP293 T00361008 52007 IEM_DS3505
ZHCC,2009-02-17 16:00,ZHCC 171600Z AUTO 36002KT 1SM 02/00 A3036 RMK T00200000 IEM_DS3505
ZHCC,2009-02-17 17:00,ZHCC 171700Z AUTO 01002KT 1SM 02/00 A3033 RMK T00200000 IEM_DS3505
ZHCC,2009-02-17 18:00,ZHCC 171800Z AUTO 18002KT 2SM 03/00 A3033 RMK 60000 SLP276 T00330000 57017 IEM_DS3505
ZHCC,2009-02-17 19:00,ZHCC 171900Z AUTO 16002KT 1SM 02/00 A3030 RMK T00200000 IEM_DS3505
ZHCC,2009-02-17 20:00,ZHCC 172000Z AUTO 00000KT 1SM 02/00 A3030 RMK T00200000 IEM_DS3505
ZHCC,2009-02-17 21:00,ZHCC 172100Z AUTO 11002KT 2SM 03/M00 A3027 RMK 70000 SLP266 T00321001 57009 IEM_DS3505
ZHCC,2009-02-17 22:00,ZHCC 172200Z AUTO 09004KT 1SM 02/00 A3027 RMK T00200000 IEM_DS3505
ZHCC,2009-02-17 23:00,ZHCC 172300Z AUTO 12004KT 1SM 02/M01 A3024 RMK T00201010 IEM_DS3505
ZHCC,2009-02-18 00:00,ZHCC 180000Z AUTO 11006KT 2SM 03/00 A3024 RMK 70000 SLP252 T00280002 57014 IEM_DS3505
ZHCC,2009-02-18 01:00,ZHCC 180100Z AUTO 15004KT 1 1/4SM 02/01 A3024 RMK T00200010 IEM_DS3505
ZHCC,2009-02-18 02:00,ZHCC 180200Z AUTO 1 1/4SM 03/01 A3027 RMK T00300010 IEM_DS3505
ZHCC,2009-02-18 03:00,ZHCC 180300Z AUTO 11004KT 3SM 04/01 A3027 RMK SLP263 T00380007 52011 IEM_DS3505
ZHCC,2009-02-18 04:00,ZHCC 180400Z AUTO 09006KT 1SM 03/02 A3027 RMK T00300020 IEM_DS3505
ZHCC,2009-02-18 05:00,ZHCC 180500Z AUTO 10008KT 1SM 03/01 A3021 RMK T00300010 IEM_DS3505
ZHCC,2009-02-18 06:00,ZHCC 180600Z AUTO 09008KT 3SM 04/01 A3018 RMK SLP233 T00430010 57030 IEM_DS3505
ZHCC,2009-02-18 07:00,ZHCC 180700Z AUTO 08008KT 1SM 03/01 A3015 RMK T00300010 IEM_DS3505
ZHCC,2009-02-18 08:00,ZHCC 180800Z AUTO 09010KT 1SM 03/02 A3018 RMK T00300020 IEM_DS3505
ZHCC,2009-02-18 09:00,ZHCC 180900Z AUTO 04010KT 1 1/4SM 01/M00 A3018 RMK SLP231 T00141002 57003 IEM_DS3505
ZHCC,2009-02-18 10:00,ZHCC 181000Z AUTO 03010KT 1/4SM 00/M01 A3018 RMK T00001010 IEM_DS3505
ZHCC,2009-02-18 11:00,ZHCC 181100Z AUTO 02010KT 1/4SM 00/M01 A3021 RMK T00001010 IEM_DS3505
ZHCC,2009-02-18 12:00,ZHCC 181200Z AUTO 04004KT 1SM 00/M01 A3021 RMK 60008 SLP249 T00001011 52018 IEM_DS3505
ZHCC,2009-02-18 13:00,ZHCC 181300Z AUTO 02010KT 3/8SM M01/M01 A3024 RMK T10101010 IEM_DS3505
ZHCC,2009-02-18 14:00,ZHCC 181400Z AUTO 02010KT 3/8SM M01/M02 A3027 RMK T10101020 IEM_DS3505
ZHCC,2009-02-18 15:00,ZHCC 181500Z AUTO 04008KT 1 1/4SM M00/M02 A3024 RMK SLP262 T10021018 52013 IEM_DS3505
ZHCC,2009-02-18 16:00,ZHCC 181600Z AUTO 02010KT 1/2SM M01/M02 A3027 RMK T10101020 IEM_DS3505
ZHCC,2009-02-18 17:00,ZHCC 181700Z AUTO 02010KT 1/2SM M01/M02 A3024 RMK T10101020 IEM_DS3505
ZHCC,2009-02-18 18:00,ZHCC 181800Z AUTO 01008KT 1/2SM M01/M02 A3024 RMK T10101020 IEM_DS3505
ZHCC,2009-02-18 19:00,ZHCC 181900Z AUTO 36008KT 1SM M01/M02 A3024 RMK T10101020 IEM_DS3505
ZHCC,2009-02-18 20:00,ZHCC 182000Z AUTO 01008KT 1SM M01/M02 A3021 RMK T10101020 IEM_DS3505
ZHCC,2009-02-18 21:00,ZHCC 182100Z AUTO 02006KT 2SM 00/M02 A3021 RMK 70013 SLP245 T00001025 57013 IEM_DS3505
ZHCC,2009-02-18 22:00,ZHCC 182200Z AUTO 36008KT 1SM M01/M02 A3021 RMK T10101020 IEM_DS3505
ZHCC,2009-02-18 23:00,ZHCC 182300Z AUTO 34006KT 1SM M01/M02 A3021 RMK T10101020 IEM_DS3505
ZHCC,2009-02-19 00:00,ZHCC 190000Z AUTO 22004KT 2SM 00/M02 A3021 RMK 60000 70013 SLP247 T00031019 52002 IEM_DS3505
ZHCC,2009-02-19 01:00,ZHCC 190100Z AUTO 36006KT 1SM M01/M01 A3021 RMK T10101010 IEM_DS3505
ZHCC,2009-02-19 02:00,ZHCC 190200Z AUTO 36004KT 1SM 00/00 A3021 RMK T00000000 IEM_DS3505
ZHCC,2009-02-19 03:00,ZHCC 190300Z AUTO 22004KT 2SM 03/M00 A3018 RMK SLP234 T00271002 57012 IEM_DS3505
ZHCC,2009-02-19 04:00,ZHCC 190400Z AUTO 1SM 03/02 A3018 RMK T00300020 IEM_DS3505
ZHCC,2009-02-19 05:00,ZHCC 190500Z AUTO 1SM 04/04 A3015 RMK T00400040 IEM_DS3505
ZHCC,2009-02-19 06:00,ZHCC 190600Z AUTO 16002KT 2 1/2SM 08/03 A3012 RMK SLP206 T00750026 57027 IEM_DS3505
ZHCC,2009-02-19 07:00,ZHCC 190700Z AUTO 1SM 07/04 A3009 RMK T00700040 IEM_DS3505
ZHCC,2009-02-19 08:00,ZHCC 190800Z AUTO 23004KT 1SM 08/04 A3012 RMK T00800040 IEM_DS3505
ZHCC,2009-02-19 09:00,ZHCC 190900Z AUTO 29008KT 5SM 10/M00 A3012 RMK SLP207 T01031002 52002 IEM_DS3505
ZHCC,2009-02-19 10:00,ZHCC 191000Z AUTO 03010KT 2SM 09/00 A3015 RMK T00900000 IEM_DS3505
ZHCC,2009-02-19 11:00,ZHCC 191100Z AUTO 02014KT 2SM 09/M03 A3018 RMK T00901030 IEM_DS3505
ZHCC,2009-02-19 12:00,ZHCC 191200Z AUTO 27010KT 5SM 09/M06 A3018 RMK SLP235 T00911063 52028 IEM_DS3505
ZHCC,2009-02-19 13:00,ZHCC 191300Z AUTO 03014KT 3SM 08/M08 A3021 RMK T00801080 IEM_DS3505
ZHCC,2009-02-19 14:00,ZHCC 191400Z AUTO 36014KT 3SM 07/M09 A3024 RMK T00701090 IEM_DS3505
ZHCC,2009-02-19 15:00,ZHCC 191500Z AUTO 27006KT 7SM 08/M09 A3024 RMK SLP254 T00751094 52019 IEM_DS3505
ZHCC,2009-02-19 16:00,ZHCC 191600Z AUTO 36014KT 3SM 06/M08 A3024 RMK T00601080 IEM_DS3505
ZHCC,2009-02-19 17:00,ZHCC 191700Z AUTO 36012KT 3SM 06/M09 A3027 RMK T00601090 IEM_DS3505
ZHCC,2009-02-19 18:00,ZHCC 191800Z AUTO 32008KT 7SM 07/M12 A3027 RMK SLP264 T00671115 52010 IEM_DS3505
ZHCC,2009-02-19 19:00,ZHCC 191900Z AUTO 32014KT 2 1/2SM 05/M11 A3030 RMK T00501110 IEM_DS3505
ZHCC,2009-02-19 20:00,ZHCC 192000Z AUTO 36016KT 2 1/2SM 04/M11 A3027 RMK T00401110 IEM_DS3505
ZHCC,2009-02-19 21:00,ZHCC 192100Z AUTO 34016KT 7SM 05/M21 A3030 RMK 70000 SLP264 T00501212 52001 IEM_DS3505
ZHCC,2009-02-19 22:00,ZHCC 192200Z AUTO 07002KT 2 1/2SM 03/M16 A3030 RMK T00301160 IEM_DS3505
ZHCC,2009-02-19 23:00,ZHCC 192300Z AUTO 31006KT 2 1/2SM 01/M15 A3033 RMK T00101150 IEM_DS3505
ZHCC,2009-02-20 00:00,ZHCC 200000Z AUTO 27008KT 10SM 02/M19 A3036 RMK SLP285 T00251188 52019 IEM_DS3505
ZHCC,2009-02-20 01:00,ZHCC 200100Z AUTO 32008KT 3SM 03/M15 A3036 RMK T00301150 IEM_DS3505
ZHCC,2009-02-20 02:00,ZHCC 200200Z AUTO 03014KT 4SM 06/M18 A3036 RMK T00601180 IEM_DS3505
ZHCC,2009-02-20 03:00,ZHCC 200300Z AUTO 27010KT 10SM 07/M21 A3033 RMK SLP284 T00711214 54000 IEM_DS3505
ZHCC,2009-02-20 04:00,ZHCC 200400Z AUTO 30008KT 4SM 08/M19 A3030 RMK T00801190 IEM_DS3505
ZHCC,2009-02-20 05:00,ZHCC 200500Z AUTO 28006KT 4SM 09/M18 A3027 RMK T00901180 IEM_DS3505
ZHCC,2009-02-20 06:00,ZHCC 200600Z AUTO 29004KT 10SM 10/M18 A3021 RMK SLP236 T01041178 57047 IEM_DS3505
ZHCC,2009-02-20 07:00,ZHCC 200700Z AUTO 4SM 10/M14 A3018 RMK T01001140 IEM_DS3505
ZHCC,2009-02-20 08:00,ZHCC 200800Z AUTO 18008KT 4SM 10/M11 A3015 RMK T01001110 IEM_DS3505
ZHCC,2009-02-20 09:00,ZHCC 200900Z AUTO 18010KT 8SM 10/M10 A3012 RMK SLP208 T01031105 57028 IEM_DS3505
ZHCC,2009-02-20 10:00,ZHCC 201000Z AUTO 16006KT 3SM 08/M08 A3012 RMK T00801080 IEM_DS3505
ZHCC,2009-02-20 11:00,ZHCC 201100Z AUTO 16006KT 4SM 07/M06 A3009 RMK T00701060 IEM_DS3505
ZHCC,2009-02-20 12:00,ZHCC 201200Z AUTO 18012KT 7SM 08/M07 A3009 RMK SLP200 T00791074 57009 IEM_DS3505
ZHCC,2009-02-20 13:00,ZHCC 201300Z AUTO 18006KT 4SM 06/M04 A3009 RMK T00601040 IEM_DS3505
ZHCC,2009-02-20 14:00,ZHCC 201400Z AUTO 18008KT 4SM 06/M03 A3009 RMK T00601030 IEM_DS3505
ZHCC,2009-02-20 15:00,ZHCC 201500Z AUTO 16006KT 7SM 07/M04 A3006 RMK SLP195 T00681043 57004 IEM_DS3505
ZHCC,2009-02-20 16:00,ZHCC 201600Z AUTO 18006KT 4SM 05/M03 A3006 RMK T00501030 IEM_DS3505
ZHCC,2009-02-20 17:00,ZHCC 201700Z AUTO 19006KT 4SM 05/M04 A3003 RMK T00501040 IEM_DS3505
ZHCC,2009-02-20 18:00,ZHCC 201800Z AUTO 20004KT 6SM 05/M03 A3000 RMK SLP163 T00461032 57031 IEM_DS3505
ZHCC,2009-02-20 19:00,ZHCC 201900Z AUTO 19004KT 1 1/2SM 03/M04 A2997 RMK T00301040 IEM_DS3505
ZHCC,2009-02-20 20:00,ZHCC 202000Z AUTO 20008KT 1 1/2SM 03/M03 A2991 RMK T00301030 IEM_DS3505
ZHCC,2009-02-20 21:00,ZHCC 202100Z AUTO 18002KT 7SM 02/M03 A2991 RMK SLP133 T00251034 57030 IEM_DS3505
ZHCC,2009-02-20 22:00,ZHCC 202200Z AUTO 17004KT 3SM 01/M03 A2988 RMK T00101030 IEM_DS3505
ZHCC,2009-02-20 23:00,ZHCC 202300Z AUTO 16004KT 2 1/2SM 01/M03 A2988 RMK T00101030 IEM_DS3505
ZHCC,2009-02-21 00:00,ZHCC 210000Z AUTO 00000KT 6SM 03/M02 A2991 RMK SLP134 T00281023 54000 IEM_DS3505
ZHCC,2009-02-21 01:00,ZHCC 210100Z AUTO 1 1/4SM 03/M01 A2988 RMK T00301010 IEM_DS3505
ZHCC,2009-02-21 02:00,ZHCC 210200Z AUTO 19006KT 1 1/4SM 06/01 A2988 RMK T00600010 IEM_DS3505
ZHCC,2009-02-21 03:00,ZHCC 210300Z AUTO 20002KT 5SM 09/M02 A2985 RMK SLP118 T00891024 57014 IEM_DS3505
ZHCC,2009-02-21 04:00,ZHCC 210400Z AUTO 18008KT 1 1/2SM 10/02 A2983 RMK T01000020 IEM_DS3505
ZHCC,2009-02-21 05:00,ZHCC 210500Z AUTO 20006KT 2SM 11/03 A2980 RMK T01100030 IEM_DS3505
ZHCC,2009-02-21 06:00,ZHCC 210600Z AUTO 16006KT 5SM 13/02 A2977 RMK SLP081 T01260019 57036 IEM_DS3505
ZHCC,2009-02-21 07:00,ZHCC 210700Z AUTO 17006KT 4SM 13/04 A2974 RMK T01300040 IEM_DS3505
ZHCC,2009-02-21 08:00,ZHCC 210800Z AUTO 17008KT 4SM 13/04 A2974 RMK T01300040 IEM_DS3505
ZHCC,2009-02-21 09:00,ZHCC 210900Z AUTO 16008KT 5SM 14/03 A2971 RMK SLP067 T01370032 57014 IEM_DS3505
ZHCC,2009-02-21 10:00,ZHCC 211000Z AUTO 17004KT 4SM 11/04 A2974 RMK T01100040 IEM_DS3505
ZHCC,2009-02-21 11:00,ZHCC 211100Z AUTO 15004KT 3SM 09/04 A2977 RMK T00900040 IEM_DS3505
ZHCC,2009-02-21 12:00,ZHCC 211200Z AUTO 11004KT 4SM 10/03 A2980 RMK SLP098 T01010029 52029 IEM_DS3505
ZHCC,2009-02-21 13:00,ZHCC 211300Z AUTO 3SM 09/04 A2980 RMK T00900040 IEM_DS3505
ZHCC,2009-02-21 14:00,ZHCC 211400Z AUTO 3SM 09/05 A2983 RMK T00900050 IEM_DS3505
ZHCC,2009-02-21 15:00,ZHCC 211500Z AUTO 25002KT 4SM 07/03 A2985 RMK SLP113 T00710032 52016 IEM_DS3505
ZHCC,2009-02-21 16:00,ZHCC 211600Z AUTO 3SM 09/05 A2983 RMK T00900050 IEM_DS3505
ZHCC,2009-02-21 17:00,ZHCC 211700Z AUTO 3SM 08/04 A2983 RMK T00800040 IEM_DS3505
ZHCC,2009-02-21 18:00,ZHCC 211800Z AUTO 25002KT 4SM 08/03 A2985 RMK SLP117 T00840033 52005 IEM_DS3505
ZHCC,2009-02-21 19:00,ZHCC 211900Z AUTO 32002KT 1SM 08/04 A2985 RMK T00800040 IEM_DS3505
ZHCC,2009-02-21 20:00,ZHCC 212000Z AUTO 36006KT 1SM 08/04 A2985 RMK T00800040 IEM_DS3505
ZHCC,2009-02-21 21:00,ZHCC 212100Z AUTO 04014KT 3SM 07/00 A2991 RMK SLP143 T00660001 52025 IEM_DS3505
ZHCC,2009-02-21 22:00,ZHCC 212200Z AUTO 02016KT 1 1/4SM 05/00 A2994 RMK T00500000 IEM_DS3505
ZHCC,2009-02-21 23:00,ZHCC 212300Z AUTO 02016KT 1 1/4SM 04/00 A2994 RMK T00400000 IEM_DS3505
ZHCC,2009-02-22 00:00,ZHCC 220000Z AUTO 04010KT 4SM 06/M04 A3000 RMK SLP170 T00631042 52026 IEM_DS3505
ZHCC,2009-02-22 01:00,ZHCC 220100Z AUTO 02016KT 1 1/2SM 05/M03 A3003 RMK T00501030 IEM_DS3505
ZHCC,2009-02-22 02:00,ZHCC 220200Z AUTO 02016KT 2SM 05/M04 A3003 RMK T00501040 IEM_DS3505
ZHCC,2009-02-22 03:00,ZHCC 220300Z AUTO 02014G25KT 6SM 07/M10 A3006 RMK SLP194 T00661097 52023 IEM_DS3505
ZHCC,2009-02-22 04:00,ZHCC 220400Z AUTO 02014G23KT 2SM 06/M07 A3006 RMK T00601070 IEM_DS3505
ZHCC,2009-02-22 05:00,ZHCC 220500Z AUTO 02014G23KT 2SM 06/M07 A3006 RMK T00601070 IEM_DS3505
ZHCC,2009-02-22 06:00,ZHCC 220600Z AUTO 07008G19KT 7SM 07/M10 A3003 RMK SLP182 T00741099 57011 IEM_DS3505
ZHCC,2009-02-22 07:00,ZHCC 220700Z AUTO 03012KT 2SM 06/M07 A3003 RMK T00601070 IEM_DS3505
ZHCC,2009-02-22 08:00,ZHCC 220800Z AUTO 03008KT 2SM 06/M06 A3003 RMK T00601060 IEM_DS3505
ZHCC,2009-02-22 09:00,ZHCC 220900Z AUTO 04006KT 7SM 08/M08 A3003 RMK SLP179 T00791082 57003 IEM_DS3505
ZHCC,2009-02-22 10:00,ZHCC 221000Z AUTO 05010KT 2SM 07/M06 A3003 RMK T00701060 IEM_DS3505
ZHCC,2009-02-22 11:00,ZHCC 221100Z AUTO 04008KT 2SM 06/M06 A3006 RMK T00601060 IEM_DS3505
ZHCC,2009-02-22 12:00,ZHCC 221200Z AUTO 07006KT 7SM 07/M06 A3009 RMK SLP203 T00701060 52023 IEM_DS3505
ZHCC,2009-02-22 13:00,ZHCC 221300Z AUTO 02004KT 2SM 06/M05 A3012 RMK T00601050 IEM_DS3505
ZHCC,2009-02-22 14:00,ZHCC 221400Z AUTO 01006KT 2SM 05/M05 A3012 RMK T00501050 IEM_DS3505
ZHCC,2009-02-22 15:00,ZHCC 221500Z AUTO 07002KT 7SM 06/M05 A3012 RMK SLP214 T00591054 52011 IEM_DS3505
ZHCC,2009-02-22 16:00,ZHCC 221600Z AUTO 04004KT 2SM 04/M04 A3012 RMK T00401040 IEM_DS3505
ZHCC,2009-02-22 17:00,ZHCC 221700Z AUTO 04002KT 2SM 03/M04 A3012 RMK T00301040 IEM_DS3505
ZHCC,2009-02-22 18:00,ZHCC 221800Z AUTO 09002KT 6SM 04/M04 A3009 RMK SLP204 T00421045 57010 IEM_DS3505
ZHCC,2009-02-22 19:00,ZHCC 221900Z AUTO 1 1/2SM 03/M04 A3006 RMK T00301040 IEM_DS3505
ZHCC,2009-02-22 20:00,ZHCC 222000Z AUTO 36004KT 1 1/2SM 03/M04 A3006 RMK T00301040 IEM_DS3505
ZHCC,2009-02-22 21:00,ZHCC 222100Z AUTO 09002KT 7SM 03/M04 A3006 RMK SLP191 T00321040 57013 IEM_DS3505
ZHCC,2009-02-22 22:00,ZHCC 222200Z AUTO 07004KT 1 1/2SM 02/M03 A3003 RMK T00201030 IEM_DS3505
ZHCC,2009-02-22 23:00,ZHCC 222300Z AUTO 10004KT 1 1/2SM 01/M03 A3006 RMK T00101030 IEM_DS3505
ZHCC,2009-02-23 00:00,ZHCC 230000Z AUTO 11004KT 6SM 03/M04 A3006 RMK SLP189 T00301038 57003 IEM_DS3505
ZHCC,2009-02-23 01:00,ZHCC 230100Z AUTO 15006KT 1 1/4SM 03/00 A3006 RMK T00300000 IEM_DS3505
ZHCC,2009-02-23 02:00,ZHCC 230200Z AUTO 15004KT 1 1/4SM 04/01 A3006 RMK T00400010 IEM_DS3505
ZHCC,2009-02-23 03:00,ZHCC 230300Z AUTO 14004KT 3SM 06/02 A3006 RMK SLP186 T00570016 57002 IEM_DS3505
ZHCC,2009-02-23 04:00,ZHCC 230400Z AUTO 12004KT 1 1/4SM 05/02 A3000 RMK T00500020 IEM_DS3505
ZHCC,2009-02-23 05:00,ZHCC 230500Z AUTO 14006KT 1 1/2SM 06/02 A2997 RMK T00600020 IEM_DS3505
ZHCC,2009-02-23 06:00,ZHCC 230600Z AUTO 11006KT 6SM 08/01 A2991 RMK SLP139 T00750014 57047 IEM_DS3505
ZHCC,2009-02-23 07:00,ZHCC 230700Z AUTO 12008KT 1 1/4SM 05/02 A2991 RMK T00500020 IEM_DS3505
ZHCC,2009-02-23 08:00,ZHCC 230800Z AUTO 15006KT 1 1/4SM 04/02 A2991 RMK T00400020 IEM_DS3505
ZHCC,2009-02-23 09:00,ZHCC 230900Z AUTO 14004KT 4SM 06/02 A2991 RMK SLP140 T00560023 52001 IEM_DS3505
ZHCC,2009-02-23 10:00,ZHCC 231000Z AUTO 15006KT 1SM 04/02 A2991 RMK T00400020 IEM_DS3505
ZHCC,2009-02-23 11:00,ZHCC 231100Z AUTO 14008KT 1SM 03/02 A2991 RMK T00300020 IEM_DS3505
ZHCC,2009-02-23 12:00,ZHCC 231200Z AUTO 11006KT 4SM 04/03 A2997 RMK SLP155 T00440026 52014 IEM_DS3505
ZHCC,2009-02-23 13:00,ZHCC 231300Z AUTO 15004KT 1SM 03/02 A2997 RMK T00300020 IEM_DS3505
ZHCC,2009-02-23 14:00,ZHCC 231400Z AUTO 14004KT 3/8SM 03/02 A3000 RMK T00300020 IEM_DS3505
ZHCC,2009-02-23 15:00,ZHCC 231500Z AUTO 14004KT 4SM 04/03 A3003 RMK SLP171 T00420027 52017 IEM_DS3505
ZHCC,2009-02-23 16:00,ZHCC 231600Z AUTO 15004KT 1/4SM 03/03 A3000 RMK T00300030 IEM_DS3505
ZHCC,2009-02-23 17:00,ZHCC 231700Z AUTO 1SM 03/03 A2997 RMK T00300030 IEM_DS3505
ZHCC,2009-02-23 18:00,ZHCC 231800Z AUTO 14002KT 4SM 04/03 A2997 RMK SLP165 T00410031 57006 IEM_DS3505
ZHCC,2009-02-23 19:00,ZHCC 231900Z AUTO 1SM 03/03 A2994 RMK T00300030 IEM_DS3505
ZHCC,2009-02-23 20:00,ZHCC 232000Z AUTO 00000KT 1SM 03/03 A2994 RMK T00300030 IEM_DS3505
ZHCC,2009-02-23 21:00,ZHCC 232100Z AUTO 11004KT 3SM 04/03 A2994 RMK 70000 SLP149 T00410032 57016 IEM_DS3505
ZHCC,2009-02-23 22:00,ZHCC 232200Z AUTO 09006KT 3/8SM 03/03 A2991 RMK T00300030 IEM_DS3505
ZHCC,2009-02-23 23:00,ZHCC 232300Z AUTO 06004KT 1/4SM 03/03 A2994 RMK T00300030 IEM_DS3505
ZHCC,2009-02-24 00:00,ZHCC 240000Z AUTO 09004KT 1 1/4SM 04/03 A2997 RMK 60000 70000 SLP158 T00410032 52008 IEM_DS3505
ZHCC,2009-02-24 01:00,ZHCC 240100Z AUTO 1SM 03/03 A3000 RMK T00300030 IEM_DS3505
ZHCC,2009-02-24 02:00,ZHCC 240200Z AUTO 02006KT 1/4SM 04/03 A3000 RMK T00400030 IEM_DS3505
ZHCC,2009-02-24 03:00,ZHCC 240300Z AUTO 04004KT 2SM 05/03 A3000 RMK SLP171 T00470032 52013 IEM_DS3505
ZHCC,2009-02-24 04:00,ZHCC 240400Z AUTO 06004KT 1SM 04/03 A3000 RMK T00400030 IEM_DS3505
ZHCC,2009-02-24 05:00,ZHCC 240500Z AUTO 03006KT 1SM 04/04 A2997 RMK T00400040 IEM_DS3505
ZHCC,2009-02-24 06:00,ZHCC 240600Z AUTO 04006KT 2SM 04/02 A2997 RMK 60020 SLP159 T00360020 57012 IEM_DS3505
ZHCC,2009-02-24 07:00,ZHCC 240700Z AUTO 02010KT 1/2SM 03/02 A2997 RMK T00300020 IEM_DS3505
ZHCC,2009-02-24 08:00,ZHCC 240800Z AUTO 02012KT 1/2SM 01/01 A3000 RMK T00100010 IEM_DS3505
ZHCC,2009-02-24 09:00,ZHCC 240900Z AUTO 02006KT 1 1/4SM 01/M00 A3003 RMK SLP189 T00111001 52029 IEM_DS3505
ZHCC,2009-02-24 10:00,ZHCC 241000Z AUTO 01012KT 3/8SM 00/00 A3009 RMK T00000000 IEM_DS3505
ZHCC,2009-02-24 11:00,ZHCC 241100Z AUTO 03012KT 3/8SM 00/00 A3012 RMK T00000000 IEM_DS3505
ZHCC,2009-02-24 12:00,ZHCC 241200Z AUTO 04006KT 1SM 01/00 A3015 RMK 60035 SLP228 T00140001 52039 IEM_DS3505
ZHCC,2009-02-24 13:00,ZHCC 241300Z AUTO 02012KT 1/2SM 01/00 A3018 RMK T00100000 IEM_DS3505
ZHCC,2009-02-24 14:00,ZHCC 241400Z AUTO 02012KT 1SM 01/00 A3021 RMK T00100000 IEM_DS3505
ZHCC,2009-02-24 15:00,ZHCC 241500Z AUTO 04008KT 4SM 02/M01 A3024 RMK SLP251 T00191012 52023 IEM_DS3505
ZHCC,2009-02-24 16:00,ZHCC 241600Z AUTO 03010KT 1SM 01/00 A3024 RMK T00100000 IEM_DS3505
ZHCC,2009-02-24 17:00,ZHCC 241700Z AUTO 03010KT 1SM 01/00 A3021 RMK T00100000 IEM_DS3505
ZHCC,2009-02-24 18:00,ZHCC 241800Z AUTO 04006KT 7SM 02/M03 A3021 RMK 60000 SLP245 T00251034 57006 IEM_DS3505
ZHCC,2009-02-24 19:00,ZHCC 241900Z AUTO 02012KT 1SM 01/00 A3021 RMK T00100000 IEM_DS3505
ZHCC,2009-02-24 20:00,ZHCC 242000Z AUTO 02012KT 1 1/4SM 01/M01 A3024 RMK T00101010 IEM_DS3505
ZHCC,2009-02-24 21:00,ZHCC 242100Z AUTO 04006KT 7SM 03/M04 A3024 RMK 70055 SLP255 T00281044 52009 IEM_DS3505
ZHCC,2009-02-24 22:00,ZHCC 242200Z AUTO 05012KT 2SM 02/M03 A3027 RMK T00201030 IEM_DS3505
ZHCC,2009-02-24 23:00,ZHCC 242300Z AUTO 04012KT 1 1/2SM 01/M03 A3030 RMK T00101030 IEM_DS3505
ZHCC,2009-02-25 00:00,ZHCC 250000Z AUTO 07012KT 6SM 02/M04 A3033 RMK 70055 SLP285 T00191044 52029 IEM_DS3505
ZHCC,2009-02-25 01:00,ZHCC 250100Z AUTO 03012KT 1 1/4SM 01/M02 A3033 RMK T00101020 IEM_DS3505
ZHCC,2009-02-25 02:00,ZHCC 250200Z AUTO 03010KT 1SM 01/M02 A3036 RMK T00101020 IEM_DS3505
ZHCC,2009-02-25 03:00,ZHCC 250300Z AUTO 04010KT 4SM 02/M03 A3039 RMK SLP304 T00191032 52019 IEM_DS3505
ZHCC,2009-02-25 04:00,ZHCC 250400Z AUTO 02010KT 1SM 00/M02 A3036 RMK T00001020 IEM_DS3505
ZHCC,2009-02-25 05:00,ZHCC 250500Z AUTO 02008KT 1SM 01/M01 A3033 RMK T00101010 IEM_DS3505
ZHCC,2009-02-25 06:00,ZHCC 250600Z AUTO 02006KT 6SM 03/M03 A3033 RMK 60000 SLP281 T00301033 57022 IEM_DS3505
ZHCC,2009-02-25 07:00,ZHCC 250700Z AUTO 04006KT 1/8SM 00/M01 A3033 RMK T00001010 IEM_DS3505
ZHCC,2009-02-25 08:00,ZHCC 250800Z AUTO 02006KT 1/2SM 00/M01 A3033 RMK T00001010 IEM_DS3505
ZHCC,2009-02-25 09:00,ZHCC 250900Z AUTO 02006KT 4SM 02/M01 A3033 RMK SLP288 T00151009 52007 IEM_DS3505
ZHCC,2009-02-25 10:00,ZHCC 251000Z AUTO 36006KT 1SM 00/M01 A3036 RMK T00001010 IEM_DS3505
ZHCC,2009-02-25 11:00,ZHCC 251100Z AUTO 01008KT 1SM 00/00 A3039 RMK T00000000 IEM_DS3505
ZHCC,2009-02-25 12:00,ZHCC 251200Z AUTO 07004KT 2SM 01/M00 A3039 RMK 60008 SLP308 T00081003 52019 IEM_DS3505
ZHCC,2009-02-25 13:00,ZHCC 251300Z AUTO 03006KT 1SM 00/M01 A3042 RMK T00001010 IEM_DS3505
ZHCC,2009-02-25 14:00,ZHCC 251400Z AUTO 03004KT 1/2SM 00/00 A3042 RMK T00000000 IEM_DS3505
ZHCC,2009-02-25 15:00,ZHCC 251500Z AUTO 04002KT 2SM 01/M01 A3042 RMK SLP312 T00101006 52004 IEM_DS3505
ZHCC,2009-02-25 16:00,ZHCC 251600Z AUTO 02004KT 1/2SM 00/00 A3039 RMK T00000000 IEM_DS3505
ZHCC,2009-02-25 17:00,ZHCC 251700Z AUTO 36004KT 1/2SM 00/00 A3039 RMK T00000000 IEM_DS3505
ZHCC,2009-02-25 18:00,ZHCC 251800Z AUTO 04002KT 2SM 01/M01 A3036 RMK 60000 SLP291 T00111011 57021 IEM_DS3505
ZHCC,2009-02-25 19:00,ZHCC 251900Z AUTO 34002KT 3/8SM 00/00 A3036 RMK T00000000 IEM_DS3505
ZHCC,2009-02-25 20:00,ZHCC 252000Z AUTO 3/8SM 00/00 A3036 RMK T00000000 IEM_DS3505
ZHCC,2009-02-25 21:00,ZHCC 252100Z AUTO 00000KT 2SM 01/M00 A3033 RMK 70007 SLP287 T00111005 57004 IEM_DS3505
ZHCC,2009-02-25 22:00,ZHCC 252200Z AUTO 34002KT 1SM 00/M01 A3036 RMK T00001010 IEM_DS3505
ZHCC,2009-02-25 23:00,ZHCC 252300Z AUTO 01002KT 1/2SM 00/M01 A3036 RMK T00001010 IEM_DS3505
ZHCC,2009-02-26 00:00,ZHCC 260000Z AUTO 11002KT 1 1/4SM 01/M00 A3036 RMK 60004 70013 SLP295 T00061004 52008 IEM_DS3505
ZHCC,2009-02-26 01:00,ZHCC 260100Z AUTO 3/8SM 00/00 A3039 RMK T00000000 IEM_DS3505
ZHCC,2009-02-26 02:00,ZHCC 260200Z AUTO 36002KT 3/8SM 00/00 A3039 RMK T00000000 IEM_DS3505
ZHCC,2009-02-26 03:00,ZHCC 260300Z AUTO 16002KT 1 1/4SM 01/00 A3039 RMK SLP305 T00140001 52010 IEM_DS3505
ZHCC,2009-02-26 04:00,ZHCC 260400Z AUTO 32006KT 1SM 01/01 A3036 RMK T00100010 IEM_DS3505
ZHCC,2009-02-26 05:00,ZHCC 260500Z AUTO 1SM 01/01 A3033 RMK T00100010 IEM_DS3505
ZHCC,2009-02-26 06:00,ZHCC 260600Z AUTO 00000KT 1 1/4SM 02/00 A3030 RMK 60008 SLP275 T00210000 57030 IEM_DS3505
ZHCC,2009-02-26 07:00,ZHCC 260700Z AUTO 03004KT 1SM 02/01 A3030 RMK T00200010 IEM_DS3505
ZHCC,2009-02-26 08:00,ZHCC 260800Z AUTO 04004KT 1SM 02/01 A3030 RMK T00200010 IEM_DS3505
ZHCC,2009-02-26 09:00,ZHCC 260900Z AUTO 00000KT 1 1/4SM 02/00 A3030 RMK SLP276 T00190003 52001 IEM_DS3505
ZHCC,2009-02-26 11:00,ZHCC 261100Z AUTO 1/2SM 01/00 A3030 RMK T00100000 IEM_DS3505
ZHCC,2009-02-26 12:00,ZHCC 261200Z AUTO 14002KT 1 1/4SM 02/00 A3033 RMK 60004 SLP284 T00170005 52008 IEM_DS3505
ZHCC,2009-02-26 13:00,ZHCC 261300Z AUTO 00000KT 1/2SM 01/00 A3036 RMK T00100000 IEM_DS3505
ZHCC,2009-02-26 14:00,ZHCC 261400Z AUTO 17002KT 1/2SM 01/00 A3036 RMK T00100000 IEM_DS3505
ZHCC,2009-02-26 15:00,ZHCC 261500Z AUTO 20002KT 2SM 02/00 A3036 RMK SLP292 T00180003 52008 IEM_DS3505
ZHCC,2009-02-26 16:00,ZHCC 261600Z AUTO 00000KT 1SM 01/00 A3033 RMK T00100000 IEM_DS3505
ZHCC,2009-02-26 17:00,ZHCC 261700Z AUTO 26002KT 1SM 01/00 A3030 RMK T00100000 IEM_DS3505
ZHCC,2009-02-26 18:00,ZHCC 261800Z AUTO 20002KT 4SM 01/00 A3030 RMK 60000 SLP275 T00140001 57016 IEM_DS3505
ZHCC,2009-02-26 19:00,ZHCC 261900Z AUTO 20004KT 1/4SM 01/00 A3030 RMK T00100000 IEM_DS3505
ZHCC,2009-02-26 20:00,ZHCC 262000Z AUTO 24002KT 3/8SM 01/00 A3027 RMK T00100000 IEM_DS3505
ZHCC,2009-02-26 21:00,ZHCC 262100Z AUTO 00000KT 3SM 02/00 A3027 RMK 70018 SLP263 T00160001 57012 IEM_DS3505
ZHCC,2009-02-26 22:00,ZHCC 262200Z AUTO 20002KT 1/2SM 00/00 A3027 RMK T00000000 IEM_DS3505
ZHCC,2009-02-26 23:00,ZHCC 262300Z AUTO 00000KT 1/8SM 00/M01 A3024 RMK T00001010 IEM_DS3505
ZHCC,2009-02-27 00:00,ZHCC 270000Z AUTO 18002KT 1SM 00/M00 A3030 RMK 70013 SLP269 T00041005 52005 IEM_DS3505
ZHCC,2009-02-27 01:00,ZHCC 270100Z AUTO 1/8SM 00/M01 A3033 RMK T00001010 IEM_DS3505
ZHCC,2009-02-27 02:00,ZHCC 270200Z AUTO 17004KT 3/8SM 01/01 A3033 RMK T00100010 IEM_DS3505
ZHCC,2009-02-27 03:00,ZHCC 270300Z AUTO 18004KT 2SM 05/02 A3033 RMK SLP276 T00540021 52008 IEM_DS3505
ZHCC,2009-02-27 04:00,ZHCC 270400Z AUTO 17006KT 1SM 03/03 A3033 RMK T00300030 IEM_DS3505
ZHCC,2009-02-27 05:00,ZHCC 270500Z AUTO 17006KT 1SM 05/04 A3030 RMK T00500040 IEM_DS3505
ZHCC,2009-02-27 06:00,ZHCC 270600Z AUTO 14006KT 3SM 07/02 A3024 RMK SLP254 T00690020 57021 IEM_DS3505
ZHCC,2009-02-27 07:00,ZHCC 270700Z AUTO 16004KT 1 1/4SM 06/05 A3024 RMK T00600050 IEM_DS3505
ZHCC,2009-02-27 08:00,ZHCC 270800Z AUTO 16004KT 1 1/4SM 07/05 A3024 RMK T00700050 IEM_DS3505
ZHCC,2009-02-27 09:00,ZHCC 270900Z AUTO 11004KT 4SM 08/03 A3021 RMK SLP241 T00800027 57012 IEM_DS3505
ZHCC,2009-02-27 10:00,ZHCC 271000Z AUTO 16004KT 1 1/4SM 06/03 A3024 RMK T00600030 IEM_DS3505
ZHCC,2009-02-27 11:00,ZHCC 271100Z AUTO 17004KT 1 1/4SM 05/03 A3024 RMK T00500030 IEM_DS3505
ZHCC,2009-02-27 12:00,ZHCC 271200Z AUTO 16002KT 4SM 06/03 A3027 RMK SLP263 T00630026 52021 IEM_DS3505
ZHCC,2009-02-27 13:00,ZHCC 271300Z AUTO 17004KT 1SM 05/03 A3030 RMK T00500030 IEM_DS3505
ZHCC,2009-02-27 14:00,ZHCC 271400Z AUTO 20002KT 1SM 04/02 A3033 RMK T00400020 IEM_DS3505
ZHCC,2009-02-27 15:00,ZHCC 271500Z AUTO 18002KT 4SM 05/02 A3030 RMK SLP276 T00520020 52013 IEM_DS3505
ZHCC,2009-02-27 16:00,ZHCC 271600Z AUTO 20002KT 1SM 03/01 A3030 RMK T00300010 IEM_DS3505
ZHCC,2009-02-27 17:00,ZHCC 271700Z AUTO 21002KT 1SM 03/01 A3030 RMK T00300010 IEM_DS3505
ZHCC,2009-02-27 18:00,ZHCC 271800Z AUTO 18002KT 2 1/2SM 04/02 A3030 RMK SLP272 T00400019 57004 IEM_DS3505
ZHCC,2009-02-27 19:00,ZHCC 271900Z AUTO 00000KT 1SM 02/00 A3027 RMK T00200000 IEM_DS3505
ZHCC,2009-02-27 20:00,ZHCC 272000Z AUTO 18002KT 1/2SM 00/M01 A3027 RMK T00001010 IEM_DS3505
ZHCC,2009-02-27 21:00,ZHCC 272100Z AUTO 22002KT 2SM 02/00 A3030 RMK SLP269 T00150003 57003 IEM_DS3505
ZHCC,2009-02-27 22:00,ZHCC 272200Z AUTO 00000KT 3/8SM 00/M01 A3033 RMK T00001010 IEM_DS3505
ZHCC,2009-02-27 23:00,ZHCC 272300Z AUTO 00000KT 3/8SM 00/M02 A3033 RMK T00001020 IEM_DS3505
ZHCC,2009-02-28 00:00,ZHCC 280000Z AUTO 29004KT 1SM 04/03 A3036 RMK SLP287 T00380028 52018 IEM_DS3505
ZHCC,2009-02-28 01:00,ZHCC 280100Z AUTO 35002KT 1/2SM 03/02 A3036 RMK T00300020 IEM_DS3505
ZHCC,2009-02-28 02:00,ZHCC 280200Z AUTO 05002KT 1/2SM 05/04 A3036 RMK T00500040 IEM_DS3505
ZHCC,2009-02-28 03:00,ZHCC 280300Z AUTO 27002KT 3/8SM 05/04 A3039 RMK SLP297 T00530040 52010 IEM_DS3505
ZHCC,2009-02-28 04:00,ZHCC 280400Z AUTO 05002KT 1/2SM 06/05 A3039 RMK T00600050 IEM_DS3505
ZHCC,2009-02-28 05:00,ZHCC 280500Z AUTO 1SM 08/06 A3033 RMK T00800060 IEM_DS3505
ZHCC,2009-02-28 06:00,ZHCC 280600Z AUTO 27002KT 2SM 10/04 A3033 RMK SLP275 T00960036 57021 IEM_DS3505
ZHCC,2009-02-28 07:00,ZHCC 280700Z AUTO 1SM 09/05 A3033 RMK T00900050 IEM_DS3505
ZHCC,2009-02-28 08:00,ZHCC 280800Z AUTO 1SM 10/04 A3030 RMK T01000040 IEM_DS3505
ZHCC,2009-02-28 09:00,ZHCC 280900Z AUTO 09002KT 2SM 10/04 A3030 RMK SLP266 T01020035 57009 IEM_DS3505
ZHCC,2009-02-28 10:00,ZHCC 281000Z AUTO 16002KT 1SM 08/04 A3033 RMK T00800040 IEM_DS3505
ZHCC,2009-02-28 11:00,ZHCC 281100Z AUTO 17002KT 1SM 07/03 A3033 RMK T00700030 IEM_DS3505
ZHCC,2009-02-28 12:00,ZHCC 281200Z AUTO 11002KT 1 1/4SM 06/04 A3036 RMK SLP288 T00560036 52021 IEM_DS3505
ZHCC,2009-02-28 13:00,ZHCC 281300Z AUTO 17002KT 1SM 05/02 A3039 RMK T00500020 IEM_DS3505
ZHCC,2009-02-28 14:00,ZHCC 281400Z AUTO 00000KT 1SM 04/01 A3039 RMK T00400010 IEM_DS3505
ZHCC,2009-02-28 15:00,ZHCC 281500Z AUTO 18004KT 1 1/4SM 05/02 A3039 RMK SLP302 T00510018 52014 IEM_DS3505
ZHCC,2009-02-28 16:00,ZHCC 281600Z AUTO 1SM 04/02 A3039 RMK T00400020 IEM_DS3505
ZHCC,2009-02-28 17:00,ZHCC 281700Z AUTO 18002KT 1SM 03/01 A3039 RMK T00300010 IEM_DS3505
ZHCC,2009-02-28 18:00,ZHCC 281800Z AUTO 09002KT 1 1/4SM 03/02 A3039 RMK SLP299 T00310018 57002 IEM_DS3505
ZHCC,2009-02-28 19:00,ZHCC 281900Z AUTO 00000KT 1SM 02/00 A3039 RMK T00200000 IEM_DS3505
ZHCC,2009-02-28 20:00,ZHCC 282000Z AUTO 28002KT 1SM 02/00 A3036 RMK T00200000 IEM_DS3505
ZHCC,2009-02-28 21:00,ZHCC 282100Z AUTO 25002KT 1 1/4SM 03/02 A3039 RMK SLP301 T00310021 52002 IEM_DS3505
ZHCC,2009-02-28 22:00,ZHCC 282200Z AUTO 19002KT 1SM 01/M01 A3042 RMK T00101010 IEM_DS3505
ZHCC,2009-02-28 23:00,ZHCC 282300Z AUTO 00000KT 1SM 01/00 A3042 RMK T00100000 IEM_DS3505
ZHCC,2009-03-01 00:00,ZHCC 010000Z AUTO 04002KT 3/8SM 03/02 A3045 RMK SLP320 T00260017 52017 IEM_DS3505
ZHCC,2009-03-01 01:00,ZHCC 010100Z AUTO 00000KT 1SM 06/05 A3045 RMK T00600050 IEM_DS3505
ZHCC,2009-03-01 02:00,ZHCC 010200Z AUTO 1 1/4SM 08/04 A3047 RMK T00800040 IEM_DS3505
ZHCC,2009-03-01 03:00,ZHCC 010300Z AUTO 07006KT 1 1/4SM 10/00 A3047 RMK T01000000 IEM_DS3505
ZHCC,2009-03-01 04:00,ZHCC 010400Z AUTO 07008KT 1 1/4SM 11/00 A3047 RMK T01100000 IEM_DS3505
ZHCC,2009-03-01 05:00,ZHCC 010500Z AUTO 03012KT 1SM 10/03 A3045 RMK T01000030 IEM_DS3505
ZHCC,2009-03-01 06:00,ZHCC 010600Z AUTO 04006KT 2SM 08/04 A3045 RMK SLP321 T00820037 57009 IEM_DS3505
ZHCC,2009-03-01 07:00,ZHCC 010700Z AUTO 02014KT 1SM 08/03 A3045 RMK T00800030 IEM_DS3505
ZHCC,2009-03-01 09:00,ZHCC 010900Z AUTO 04012KT 2SM 06/02 A3045 RMK SLP325 T00620017 52003 IEM_DS3505
ZHCC,2009-03-01 10:00,ZHCC 011000Z AUTO 03014KT 1SM 05/02 A3045 RMK T00500020 IEM_DS3505
ZHCC,2009-03-01 11:00,ZHCC 011100Z AUTO 03010KT 1SM 04/01 A3047 RMK T00400010 IEM_DS3505
ZHCC,2009-03-01 12:00,ZHCC 011200Z AUTO 04008KT 1 1/4SM 05/00 A3047 RMK SLP337 T00500002 52012 IEM_DS3505
ZHCC,2009-03-01 13:00,ZHCC 011300Z AUTO 05014KT 1SM 04/00 A3050 RMK T00400000 IEM_DS3505
ZHCC,2009-03-01 14:00,ZHCC 011400Z AUTO 03008KT 1SM 03/M01 A3050 RMK T00301010 IEM_DS3505
ZHCC,2009-03-01 15:00,ZHCC 011500Z AUTO 04008KT 5SM 04/M03 A3050 RMK SLP343 T00451026 52007 IEM_DS3505
ZHCC,2009-03-01 16:00,ZHCC 011600Z AUTO 02008KT 1SM 03/M02 A3047 RMK T00301020 IEM_DS3505
ZHCC,2009-03-01 17:00,ZHCC 011700Z AUTO 04008KT 1 1/4SM 03/M03 A3047 RMK T00301030 IEM_DS3505
ZHCC,2009-03-01 18:00,ZHCC 011800Z AUTO 07008KT 7SM 04/M05 A3045 RMK SLP324 T00421048 57019 IEM_DS3505
ZHCC,2009-03-01 19:00,ZHCC 011900Z AUTO 03008KT 1 1/2SM 03/M04 A3045 RMK T00301040 IEM_DS3505
ZHCC,2009-03-01 20:00,ZHCC 012000Z AUTO 03008KT 1 1/2SM 02/M04 A3042 RMK T00201040 IEM_DS3505
ZHCC,2009-03-01 21:00,ZHCC 012100Z AUTO 04008KT 6SM 03/M05 A3039 RMK SLP311 T00291050 57014 IEM_DS3505
ZHCC,2009-03-01 22:00,ZHCC 012200Z AUTO 03008KT 2 1/2SM 01/M04 A3042 RMK T00101040 IEM_DS3505
ZHCC,2009-03-01 23:00,ZHCC 012300Z AUTO 03008KT 3SM 01/M04 A3042 RMK T00101040 IEM_DS3505
ZHCC,2009-03-02 00:00,ZHCC 020000Z AUTO 04008KT 7SM 02/M05 A3042 RMK SLP315 T00181051 52004 IEM_DS3505
ZHCC,2009-03-02 01:00,ZHCC 020100Z AUTO 03006KT 3SM 01/M04 A3042 RMK T00101040 IEM_DS3505
ZHCC,2009-03-02 02:00,ZHCC 020200Z AUTO 05006KT 2 1/2SM 02/M03 A3042 RMK T00201030 IEM_DS3505
ZHCC,2009-03-02 03:00,ZHCC 020300Z AUTO 04004KT 6SM 01/M03 A3042 RMK SLP315 T00141029 54000 IEM_DS3505
ZHCC,2009-03-02 04:00,ZHCC 020400Z AUTO 04006KT 3/8SM 00/M01 A3042 RMK T00001010 IEM_DS3505
ZHCC,2009-03-02 05:00,ZHCC 020500Z AUTO 03004KT 1/4SM 00/M01 A3039 RMK T00001010 IEM_DS3505
ZHCC,2009-03-02 06:00,ZHCC 020600Z AUTO 36002KT 1SM 00/M01 A3039 RMK 60008 SLP310 T00021009 57006 IEM_DS3505
ZHCC,2009-03-02 07:00,ZHCC 020700Z AUTO 05006KT 3/8SM 00/M01 A3036 RMK T00001010 IEM_DS3505
ZHCC,2009-03-02 08:00,ZHCC 020800Z AUTO 06008KT 1SM 00/M01 A3036 RMK T00001010 IEM_DS3505
ZHCC,2009-03-02 09:00,ZHCC 020900Z AUTO 07004KT 1 1/4SM 00/M01 A3036 RMK SLP300 T00031011 57010 IEM_DS3505
ZHCC,2009-03-02 10:00,ZHCC 021000Z AUTO 06006KT 2 1/2SM M01/M01 A3039 RMK T10101010 IEM_DS3505
ZHCC,2009-03-02 11:00,ZHCC 021100Z AUTO 2 1/2SM M01/M01 A3039 RMK T10101010 IEM_DS3505
ZHCC,2009-03-02 12:00,ZHCC 021200Z AUTO 00000KT 5SM 00/M02 A3039 RMK 60008 SLP308 T00001019 52008 IEM_DS3505
ZHCC,2009-03-02 13:00,ZHCC 021300Z AUTO 26002KT 2SM M01/M02 A3042 RMK T10101020 IEM_DS3505
ZHCC,2009-03-02 14:00,ZHCC 021400Z AUTO 2SM M01/M02 A3042 RMK T10101020 IEM_DS3505
ZHCC,2009-03-02 20:00,ZHCC 022000Z AUTO 20002KT 1/8SM M02/M03 A3030 RMK T10201030 IEM_DS3505
ZHCC,2009-03-02 21:00,ZHCC 022100Z AUTO 20002KT 4SM M01/M03 A3027 RMK 70015 SLP265 T10131032 57023 IEM_DS3505
ZHCC,2009-03-02 22:00,ZHCC 022200Z AUTO 1/8SM M03/M03 A3027 RMK T10301030 IEM_DS3505
ZHCC,2009-03-02 23:00,ZHCC 022300Z AUTO 19004KT 1/2SM M02/M03 A3027 RMK T10201030 IEM_DS3505
ZHCC,2009-03-03 00:00,ZHCC 030000Z AUTO 20004KT 4SM M02/M03 A3027 RMK 70015 SLP260 T10161027 57006 IEM_DS3505
ZHCC,2009-03-03 01:00,ZHCC 030100Z AUTO 20004KT 1/2SM M01/M01 A3027 RMK T10101010 IEM_DS3505
ZHCC,2009-03-03 02:00,ZHCC 030200Z AUTO 19004KT 1SM 01/00 A3027 RMK T00100000 IEM_DS3505
ZHCC,2009-03-03 03:00,ZHCC 030300Z AUTO 25004KT 2 1/2SM 03/M00 A3027 RMK SLP259 T00321003 52001 IEM_DS3505
ZHCC,2009-03-03 04:00,ZHCC 030400Z AUTO 18004KT 1SM 03/03 A3024 RMK T00300030 IEM_DS3505
ZHCC,2009-03-03 05:00,ZHCC 030500Z AUTO 18006KT 1SM 04/04 A3018 RMK T00400040 IEM_DS3505
ZHCC,2009-03-03 06:00,ZHCC 030600Z AUTO 18006KT 5SM 07/01 A3015 RMK SLP219 T00700011 57039 IEM_DS3505
ZHCC,2009-03-03 07:00,ZHCC 030700Z AUTO 18008KT 1 1/4SM 05/03 A3012 RMK T00500030 IEM_DS3505
ZHCC,2009-03-03 08:00,ZHCC 030800Z AUTO 18008KT 1 1/4SM 05/03 A3012 RMK T00500030 IEM_DS3505
ZHCC,2009-03-03 09:00,ZHCC 030900Z AUTO 18006KT 4SM 06/02 A3012 RMK SLP203 T00590018 57016 IEM_DS3505
ZHCC,2009-03-03 10:00,ZHCC 031000Z AUTO 19008KT 1 1/4SM 04/01 A3012 RMK T00400010 IEM_DS3505
ZHCC,2009-03-03 11:00,ZHCC 031100Z AUTO 19008KT 1 1/4SM 03/01 A3012 RMK T00300010 IEM_DS3505
ZHCC,2009-03-03 12:00,ZHCC 031200Z AUTO 16006KT 4SM 04/01 A3012 RMK SLP213 T00410013 52009 IEM_DS3505
ZHCC,2009-03-03 13:00,ZHCC 031300Z AUTO 20006KT 1 1/4SM 03/01 A3015 RMK T00300010 IEM_DS3505
ZHCC,2009-03-03 14:00,ZHCC 031400Z AUTO 16004KT 1SM 03/01 A3015 RMK T00300010 IEM_DS3505
ZHCC,2009-03-03 15:00,ZHCC 031500Z AUTO 16004KT 4SM 04/01 A3012 RMK SLP212 T00400010 54000 IEM_DS3505
ZHCC,2009-03-03 16:00,ZHCC 031600Z AUTO 17004KT 1SM 02/01 A3012 RMK T00200010 IEM_DS3505
ZHCC,2009-03-03 17:00,ZHCC 031700Z AUTO 17004KT 1SM 02/00 A3009 RMK T00200000 IEM_DS3505
ZHCC,2009-03-03 18:00,ZHCC 031800Z AUTO 16008KT 2 1/2SM 03/01 A3006 RMK SLP188 T00280010 57023 IEM_DS3505
ZHCC,2009-03-03 19:00,ZHCC 031900Z AUTO 18006KT 1SM 01/M01 A3003 RMK T00101010 IEM_DS3505
ZHCC,2009-03-03 20:00,ZHCC 032000Z AUTO 16004KT 1/2SM 00/M01 A3003 RMK T00001010 IEM_DS3505
ZHCC,2009-03-03 21:00,ZHCC 032100Z AUTO 16002KT 2 1/2SM 01/M00 A3000 RMK SLP170 T00111002 57018 IEM_DS3505
ZHCC,2009-03-03 22:00,ZHCC 032200Z AUTO 15004KT 1/2SM 00/M01 A3000 RMK T00001010 IEM_DS3505
ZHCC,2009-03-03 23:00,ZHCC 032300Z AUTO 14004KT 1/2SM 00/M01 A3000 RMK T00001010 IEM_DS3505
ZHCC,2009-03-04 00:00,ZHCC 040000Z AUTO 16008KT 1 1/4SM 01/M00 A3000 RMK SLP176 T00101002 52005 IEM_DS3505
ZHCC,2009-03-04 01:00,ZHCC 040100Z AUTO 16004KT 1SM 00/00 A3003 RMK T00000000 IEM_DS3505
ZHCC,2009-03-04 02:00,ZHCC 040200Z AUTO 14004KT 1SM 02/01 A3003 RMK T00200010 IEM_DS3505
ZHCC,2009-03-04 03:00,ZHCC 040300Z AUTO 07004KT 2SM 05/02 A3003 RMK SLP174 T00470017 57001 IEM_DS3505
ZHCC,2009-03-04 04:00,ZHCC 040400Z AUTO 12006KT 1 1/4SM 05/04 A3000 RMK T00500040 IEM_DS3505
ZHCC,2009-03-04 05:00,ZHCC 040500Z AUTO 13008KT 1 1/4SM 06/04 A3000 RMK T00600040 IEM_DS3505
ZHCC,2009-03-04 06:00,ZHCC 040600Z AUTO 11006KT 3SM 06/02 A2997 RMK SLP160 T00640023 57013 IEM_DS3505
ZHCC,2009-03-04 07:00,ZHCC 040700Z AUTO 17006KT 2SM 06/03 A3000 RMK T00600030 IEM_DS3505
ZHCC,2009-03-04 08:00,ZHCC 040800Z AUTO 08008KT 2SM 07/03 A2997 RMK T00700030 IEM_DS3505
ZHCC,2009-03-04 09:00,ZHCC 040900Z AUTO 11004KT 3SM 07/02 A3000 RMK SLP172 T00660025 52011 IEM_DS3505
ZHCC,2009-03-04 10:00,ZHCC 041000Z AUTO 12006KT 1 1/4SM 06/03 A3000 RMK T00600030 IEM_DS3505
ZHCC,2009-03-04 11:00,ZHCC 041100Z AUTO 1 1/4SM 05/03 A3006 RMK T00500030 IEM_DS3505
ZHCC,2009-03-04 12:00,ZHCC 041200Z AUTO 18004KT 2 1/2SM 05/03 A3009 RMK 60000 SLP200 T00540032 52027 IEM_DS3505
ZHCC,2009-03-04 13:00,ZHCC 041300Z AUTO 24004KT 1 1/4SM 04/02 A3009 RMK T00400020 IEM_DS3505
ZHCC,2009-03-04 14:00,ZHCC 041400Z AUTO 23002KT 1SM 03/02 A3009 RMK T00300020 IEM_DS3505
ZHCC,2009-03-04 15:00,ZHCC 041500Z AUTO 22004KT 3SM 05/03 A3009 RMK SLP201 T00480033 52002 IEM_DS3505
ZHCC,2009-03-04 16:00,ZHCC 041600Z AUTO 22002KT 1SM 04/02 A3009 RMK T00400020 IEM_DS3505
ZHCC,2009-03-04 17:00,ZHCC 041700Z AUTO 1SM 03/02 A3006 RMK T00300020 IEM_DS3505
ZHCC,2009-03-04 18:00,ZHCC 041800Z AUTO 20002KT 2SM 03/02 A3006 RMK 60002 SLP189 T00310021 57012 IEM_DS3505
ZHCC,2009-03-04 19:00,ZHCC 041900Z AUTO 1/8SM 03/02 A3003 RMK T00300020 IEM_DS3505
ZHCC,2009-03-04 20:00,ZHCC 042000Z AUTO 22004KT 1/8SM 02/01 A3000 RMK T00200010 IEM_DS3505
ZHCC,2009-03-04 21:00,ZHCC 042100Z AUTO 27008KT 1SM 02/01 A3000 RMK 70002 SLP166 T00190012 57023 IEM_DS3505
ZHCC,2009-03-04 22:00,ZHCC 042200Z AUTO 28012KT 1 1/4SM 03/03 A3000 RMK T00300030 IEM_DS3505
ZHCC,2009-03-04 23:00,ZHCC 042300Z AUTO 29012KT 2SM 04/02 A3003 RMK T00400020 IEM_DS3505
ZHCC,2009-03-05 00:00,ZHCC 050000Z AUTO 29010KT 5SM 07/M02 A3006 RMK 70002 SLP193 T00701017 52028 IEM_DS3505
ZHCC,2009-03-05 01:00,ZHCC 050100Z AUTO 31017KT 3SM 08/01 A3009 RMK T00800010 IEM_DS3505
ZHCC,2009-03-05 02:00,ZHCC 050200Z AUTO 31019KT 4SM 10/M02 A3009 RMK T01001020 IEM_DS3505
ZHCC,2009-03-05 03:00,ZHCC 050300Z AUTO 29010KT 6SM 11/M04 A3009 RMK SLP200 T01131036 52008 IEM_DS3505
ZHCC,2009-03-05 04:00,ZHCC 050400Z AUTO 31019KT 4SM 13/M06 A3009 RMK T01301060 IEM_DS3505
ZHCC,2009-03-05 05:00,ZHCC 050500Z AUTO 32017KT 4SM 14/M06 A3009 RMK T01401060 IEM_DS3505
ZHCC,2009-03-05 06:00,ZHCC 050600Z AUTO 32012KT 8SM 14/M07 A3006 RMK SLP184 T01391069 57016 IEM_DS3505
ZHCC,2009-03-05 07:00,ZHCC 050700Z AUTO 32016G27KT 6SM 14/M08 A3003 RMK T01401080 IEM_DS3505
ZHCC,2009-03-05 08:00,ZHCC 050800Z AUTO 33014KT 6SM 14/M08 A3003 RMK T01401080 IEM_DS3505
ZHCC,2009-03-05 09:00,ZHCC 050900Z AUTO 27006KT 9SM 15/M09 A3006 RMK SLP182 T01471094 57002 IEM_DS3505
ZHCC,2009-03-05 10:00,ZHCC 051000Z AUTO 28006KT 6SM 12/M06 A3006 RMK T01201060 IEM_DS3505
ZHCC,2009-03-05 11:00,ZHCC 051100Z AUTO 26004KT 6SM 10/M06 A3009 RMK T01001060 IEM_DS3505
ZHCC,2009-03-05 12:00,ZHCC 051200Z AUTO 27006KT 8SM 12/M08 A3012 RMK SLP212 T01191075 52030 IEM_DS3505
ZHCC,2009-03-05 13:00,ZHCC 051300Z AUTO 29008KT 6SM 09/M05 A3015 RMK T00901050 IEM_DS3505
ZHCC,2009-03-05 14:00,ZHCC 051400Z AUTO 30012KT 6SM 09/M06 A3018 RMK T00901060 IEM_DS3505
ZHCC,2009-03-05 15:00,ZHCC 051500Z AUTO 29008KT 8SM 11/M08 A3018 RMK SLP234 T01111082 52023 IEM_DS3505
ZHCC,2009-03-05 16:00,ZHCC 051600Z AUTO 32016KT 6SM 09/M07 A3021 RMK T00901070 IEM_DS3505
ZHCC,2009-03-05 17:00,ZHCC 051700Z AUTO 32010KT 6SM 09/M07 A3021 RMK T00901070 IEM_DS3505
ZHCC,2009-03-05 18:00,ZHCC 051800Z AUTO 02006KT 8SM 10/M10 A3024 RMK SLP255 T00981098 52021 IEM_DS3505
ZHCC,2009-03-05 19:00,ZHCC 051900Z AUTO 04012KT 6SM 08/M08 A3027 RMK T00801080 IEM_DS3505
ZHCC,2009-03-05 20:00,ZHCC 052000Z AUTO 04012KT 6SM 06/M09 A3027 RMK T00601090 IEM_DS3505
ZHCC,2009-03-05 21:00,ZHCC 052100Z AUTO 04014KT 8SM 06/M11 RMK SLP270 T00571110 52014 IEM_DS3505
ZHCC,2009-03-05 22:00,ZHCC 052200Z AUTO 04010KT 6SM 03/M09 A3033 RMK T00301090 IEM_DS3505
ZHCC,2009-03-05 23:00,ZHCC 052300Z AUTO 04008KT 6SM 02/M09 A3039 RMK T00201090 IEM_DS3505
ZHCC,2009-03-06 00:00,ZHCC 060000Z AUTO 07006KT 11SM 05/M11 A3042 RMK SLP311 T00491112 52039 IEM_DS3505
ZHCC,2009-03-06 01:00,ZHCC 060100Z AUTO 04006KT 6SM 05/M08 A3042 RMK T00501080 IEM_DS3505
ZHCC,2009-03-06 02:00,ZHCC 060200Z AUTO 06010KT 6SM 07/M09 A3042 RMK T00701090 IEM_DS3505
ZHCC,2009-03-06 03:00,ZHCC 060300Z AUTO 09006KT 11SM 08/M12 A3042 RMK SLP309 T00801119 57001 IEM_DS3505
ZHCC,2009-03-06 04:00,ZHCC 060400Z AUTO 6SM 08/M10 A3039 RMK T00801100 IEM_DS3505
ZHCC,2009-03-06 05:00,ZHCC 060500Z AUTO 6SM 09/M10 A3036 RMK T00901100 IEM_DS3505
ZHCC,2009-03-06 06:00,ZHCC 060600Z AUTO 29004KT 13SM 10/M12 A3033 RMK SLP276 T01021118 57032 IEM_DS3505
ZHCC,2009-03-06 07:00,ZHCC 060700Z AUTO 10004KT 6SM 10/M10 A3030 RMK T01001100 IEM_DS3505
ZHCC,2009-03-06 08:00,ZHCC 060800Z AUTO 17004KT 6SM 10/M09 A3030 RMK T01001090 IEM_DS3505
ZHCC,2009-03-06 09:00,ZHCC 060900Z AUTO 20004KT 12SM 10/M09 A3027 RMK SLP260 T01041088 57017 IEM_DS3505
ZHCC,2009-03-06 10:00,ZHCC 061000Z AUTO 15004KT 6SM 09/M07 A3027 RMK T00901070 IEM_DS3505
ZHCC,2009-03-06 11:00,ZHCC 061100Z AUTO 6SM 08/M06 A3030 RMK T00801060 IEM_DS3505
ZHCC,2009-03-06 12:00,ZHCC 061200Z AUTO 16004KT 11SM 08/M06 A3030 RMK SLP270 T00821060 52009 IEM_DS3505
ZHCC,2009-03-06 13:00,ZHCC 061300Z AUTO 17004KT 6SM 07/M05 A3030 RMK T00701050 IEM_DS3505
ZHCC,2009-03-06 14:00,ZHCC 061400Z AUTO 17004KT 6SM 06/M05 A3030 RMK T00601050 IEM_DS3505
ZHCC,2009-03-06 15:00,ZHCC 061500Z AUTO 18004KT 11SM 06/M04 A3030 RMK SLP268 T00651037 57002 IEM_DS3505
ZHCC,2009-03-06 16:00,ZHCC 061600Z AUTO 18004KT 6SM 05/M04 A3027 RMK T00501040 IEM_DS3505
ZHCC,2009-03-06 17:00,ZHCC 061700Z AUTO 4SM 05/M04 A3024 RMK T00501040 IEM_DS3505
ZHCC,2009-03-06 18:00,ZHCC 061800Z AUTO 20002KT 9SM 03/M03 A3024 RMK SLP247 T00301031 57021 IEM_DS3505
ZHCC,2009-03-06 19:00,ZHCC 061900Z AUTO 20004KT 1 1/4SM 05/M04 A3021 RMK T00501040 IEM_DS3505
ZHCC,2009-03-06 20:00,ZHCC 062000Z AUTO 20004KT 1 1/2SM 04/M04 A3021 RMK T00401040 IEM_DS3505
ZHCC,2009-03-06 21:00,ZHCC 062100Z AUTO 18004KT 8SM 04/M04 A3018 RMK SLP229 T00401040 57017 IEM_DS3505
ZHCC,2009-03-06 22:00,ZHCC 062200Z AUTO 20004KT 3SM 04/M04 A3018 RMK T00401040 IEM_DS3505
ZHCC,2009-03-06 23:00,ZHCC 062300Z AUTO 19004KT 2SM 04/M04 A3018 RMK T00401040 IEM_DS3505
ZHCC,2009-03-07 00:00,ZHCC 070000Z AUTO 18002KT 7SM 06/M03 A3018 RMK SLP228 T00561030 57001 IEM_DS3505
ZHCC,2009-03-07 01:00,ZHCC 070100Z AUTO 18008KT 2SM 06/M02 A3018 RMK T00601020 IEM_DS3505
ZHCC,2009-03-07 02:00,ZHCC 070200Z AUTO 19008KT 2SM 09/M01 A3018 RMK T00901010 IEM_DS3505
ZHCC,2009-03-07 03:00,ZHCC 070300Z AUTO 20006KT 8SM 12/M03 A3012 RMK SLP206 T01211033 57021 IEM_DS3505
ZHCC,2009-03-07 04:00,ZHCC 070400Z AUTO 19008KT 2SM 11/00 A3009 RMK T01100000 IEM_DS3505
ZHCC,2009-03-07 05:00,ZHCC 070500Z AUTO 17008KT 2 1/2SM 13/00 A3006 RMK T01300000 IEM_DS3505
ZHCC,2009-03-07 06:00,ZHCC 070600Z AUTO 16012KT 8SM 15/M02 A3003 RMK SLP168 T01471022 57037 IEM_DS3505
ZHCC,2009-03-07 07:00,ZHCC 070700Z AUTO 19010KT 2 1/2SM 14/01 A3000 RMK T01400010 IEM_DS3505
ZHCC,2009-03-07 08:00,ZHCC 070800Z AUTO 18010KT 2 1/2SM 14/01 A2997 RMK T01400010 IEM_DS3505
ZHCC,2009-03-07 09:00,ZHCC 070900Z AUTO 18010KT 8SM 15/M00 A2994 RMK SLP146 T01481001 57022 IEM_DS3505
ZHCC,2009-03-07 10:00,ZHCC 071000Z AUTO 16006KT 2 1/2SM 12/03 A2994 RMK T01200030 IEM_DS3505
ZHCC,2009-03-07 11:00,ZHCC 071100Z AUTO 17006KT 2SM 11/03 A2997 RMK T01100030 IEM_DS3505
ZHCC,2009-03-07 12:00,ZHCC 071200Z AUTO 18006KT 8SM 12/00 A3000 RMK SLP163 T01190004 52017 IEM_DS3505
ZHCC,2009-03-07 13:00,ZHCC 071300Z AUTO 18006KT 1 1/4SM 09/04 A3000 RMK T00900040 IEM_DS3505
ZHCC,2009-03-07 14:00,ZHCC 071400Z AUTO 18004KT 1 1/4SM 09/04 A3000 RMK T00900040 IEM_DS3505
ZHCC,2009-03-07 15:00,ZHCC 071500Z AUTO 16002KT 6SM 10/03 A3003 RMK SLP168 T00980026 52006 IEM_DS3505
ZHCC,2009-03-07 16:00,ZHCC 071600Z AUTO 18006KT 1 1/4SM 08/04 A3000 RMK T00800040 IEM_DS3505
ZHCC,2009-03-07 17:00,ZHCC 071700Z AUTO 19006KT 1 1/4SM 07/03 A3000 RMK T00700030 IEM_DS3505
ZHCC,2009-03-07 18:00,ZHCC 071800Z AUTO 18004KT 6SM 08/04 A3000 RMK SLP163 T00770036 57005 IEM_DS3505
ZHCC,2009-03-07 19:00,ZHCC 071900Z AUTO 22002KT 1 1/4SM 05/02 A2997 RMK T00500020 IEM_DS3505
ZHCC,2009-03-07 20:00,ZHCC 072000Z AUTO 1 1/4SM 05/02 A2997 RMK T00500020 IEM_DS3505
ZHCC,2009-03-07 21:00,ZHCC 072100Z AUTO 29002KT 3SM 04/02 A2997 RMK SLP152 T00390021 57012 IEM_DS3505
ZHCC,2009-03-07 22:00,ZHCC 072200Z AUTO 18004KT 1SM 04/02 A2997 RMK T00400020 IEM_DS3505
ZHCC,2009-03-07 23:00,ZHCC 072300Z AUTO 26002KT 1SM 04/02 A2997 RMK T00400020 IEM_DS3505
ZHCC,2009-03-08 00:00,ZHCC 080000Z AUTO 29004KT 3SM 08/02 A3000 RMK SLP173 T00750016 52021 IEM_DS3505
ZHCC,2009-03-08 01:00,ZHCC 080100Z AUTO 1SM 08/06 A3003 RMK T00800060 IEM_DS3505
ZHCC,2009-03-08 02:00,ZHCC 080200Z AUTO 19004KT 1SM 09/05 A3006 RMK T00900050 IEM_DS3505
ZHCC,2009-03-08 03:00,ZHCC 080300Z AUTO 27004KT 3SM 12/00 RMK SLP179 T01210005 52006 IEM_DS3505
ZHCC,2009-03-08 04:00,ZHCC 080400Z AUTO 26004KT 1 1/4SM 15/04 A3000 RMK T01500040 IEM_DS3505
ZHCC,2009-03-08 05:00,ZHCC 080500Z AUTO 00000KT 1 1/4SM 16/03 A3000 RMK T01600030 IEM_DS3505
ZHCC,2009-03-08 06:00,ZHCC 080600Z AUTO 25004KT 4SM 17/01 A2997 RMK SLP150 T01690014 57028 IEM_DS3505
ZHCC,2009-03-08 07:00,ZHCC 080700Z AUTO 18006KT 1SM 16/06 A2994 RMK T01600060 IEM_DS3505
ZHCC,2009-03-08 08:00,ZHCC 080800Z AUTO 18006KT 1SM 15/08 A2997 RMK T01500080 IEM_DS3505
ZHCC,2009-03-08 09:00,ZHCC 080900Z AUTO 18006KT 4SM 17/04 A2997 RMK SLP150 T01660043 57001 IEM_DS3505
ZHCC,2009-03-08 10:00,ZHCC 081000Z AUTO 18006KT 1SM 12/07 A2997 RMK T01200070 IEM_DS3505
ZHCC,2009-03-08 11:00,ZHCC 081100Z AUTO 18006KT 1SM 11/07 A3000 RMK T01100070 IEM_DS3505
ZHCC,2009-03-08 12:00,ZHCC 081200Z AUTO 00000KT 4SM 11/06 A3003 RMK SLP170 T01110062 52020 IEM_DS3505
ZHCC,2009-03-08 13:00,ZHCC 081300Z AUTO 20002KT 1SM 09/06 A3003 RMK T00900060 IEM_DS3505
ZHCC,2009-03-08 14:00,ZHCC 081400Z AUTO 00000KT 1SM 07/04 A3006 RMK T00700040 IEM_DS3505
ZHCC,2009-03-08 15:00,ZHCC 081500Z AUTO 00000KT 2 1/2SM 06/04 A3006 RMK SLP187 T00650042 52016 IEM_DS3505
ZHCC,2009-03-08 16:00,ZHCC 081600Z AUTO 27002KT 1SM 05/04 A3006 RMK T00500040 IEM_DS3505
ZHCC,2009-03-08 17:00,ZHCC 081700Z AUTO 00000KT 3/8SM 03/02 A3003 RMK T00300020 IEM_DS3505
ZHCC,2009-03-08 18:00,ZHCC 081800Z AUTO 20002KT 3SM 04/02 A3003 RMK SLP174 T00450022 57012 IEM_DS3505
ZHCC,2009-03-08 19:00,ZHCC 081900Z AUTO 00000KT 1SM 03/01 A3000 RMK T00300010 IEM_DS3505
ZHCC,2009-03-08 20:00,ZHCC 082000Z AUTO 18002KT 1/2SM 03/01 A3000 RMK T00300010 IEM_DS3505
ZHCC,2009-03-08 21:00,ZHCC 082100Z AUTO 25002KT 3SM 06/M01 A3000 RMK SLP169 T00561013 57004 IEM_DS3505
ZHCC,2009-03-08 22:00,ZHCC 082200Z AUTO 03002KT 1SM 02/00 A3003 RMK T00200000 IEM_DS3505
ZHCC,2009-03-08 23:00,ZHCC 082300Z AUTO 26004KT 1 1/4SM 04/01 A3003 RMK T00400010 IEM_DS3505
ZHCC,2009-03-09 00:00,ZHCC 090000Z AUTO 25002KT 4SM 07/M01 A3003 RMK SLP182 T00691013 52011 IEM_DS3505
ZHCC,2009-03-09 01:00,ZHCC 090100Z AUTO 25004KT 1 1/2SM 12/02 A3006 RMK T01200020 IEM_DS3505
ZHCC,2009-03-09 02:00,ZHCC 090200Z AUTO 2SM 16/00 A3009 RMK T01600000 IEM_DS3505
ZHCC,2009-03-09 03:00,ZHCC 090300Z AUTO 11004KT 6SM 17/M02 A3009 RMK SLP193 T01711015 52013 IEM_DS3505
ZHCC,2009-03-09 04:00,ZHCC 090400Z AUTO 3SM A3009 RMK IEM_DS3505
ZHCC,2009-03-09 05:00,ZHCC 090500Z AUTO 03014KT 2SM 17/02 A3006 RMK T01700020 IEM_DS3505
ZHCC,2009-03-09 06:00,ZHCC 090600Z AUTO 07010KT 4SM 16/03 A3006 RMK SLP186 T01580026 57008 IEM_DS3505
ZHCC,2009-03-09 07:00,ZHCC 090700Z AUTO 04016KT 1 1/2SM 15/04 A3003 RMK T01500040 IEM_DS3505
ZHCC,2009-03-09 08:00,ZHCC 090800Z AUTO 06016KT 2 1/2SM 14/01 A3003 RMK T01400010 IEM_DS3505
ZHCC,2009-03-09 09:00,ZHCC 090900Z AUTO 07008KT 6SM 14/M02 A3003 RMK SLP181 T01421022 57005 IEM_DS3505
ZHCC,2009-03-09 10:00,ZHCC 091000Z AUTO 05012KT 2 1/2SM 13/00 A3003 RMK T01300000 IEM_DS3505
ZHCC,2009-03-09 11:00,ZHCC 091100Z AUTO 04012KT 1 1/2SM 12/01 A3009 RMK T01200010 IEM_DS3505
ZHCC,2009-03-09 12:00,ZHCC 091200Z AUTO 07012KT 6SM 11/M03 A3009 RMK SLP207 T01111030 52025 IEM_DS3505
ZHCC,2009-03-09 13:00,ZHCC 091300Z AUTO 04014KT 2SM 10/M01 A3012 RMK T01001010 IEM_DS3505
ZHCC,2009-03-09 14:00,ZHCC 091400Z AUTO 04014KT 2SM 09/M02 A3015 RMK T00901020 IEM_DS3505
ZHCC,2009-03-09 15:00,ZHCC 091500Z AUTO 07010KT 7SM 09/M07 A3018 RMK SLP226 T00931070 52021 IEM_DS3505
ZHCC,2009-03-09 16:00,ZHCC 091600Z AUTO 04008KT 2 1/2SM 08/M06 A3015 RMK T00801060 IEM_DS3505
ZHCC,2009-03-09 17:00,ZHCC 091700Z AUTO 02010KT 08/M07 A3018 RMK T00801070 IEM_DS3505
ZHCC,2009-03-09 18:00,ZHCC 091800Z AUTO 07008KT 7SM 07/M09 A3018 RMK SLP228 T00721088 52001 IEM_DS3505
ZHCC,2009-03-09 19:00,ZHCC 091900Z AUTO 04006KT 06/M08 A3015 RMK T00601080 IEM_DS3505
ZHCC,2009-03-09 20:00,ZHCC 092000Z AUTO 04010KT 05/M10 A3012 RMK T00501100 IEM_DS3505
ZHCC,2009-03-09 21:00,ZHCC 092100Z AUTO 07006KT 7SM 06/M11 A3012 RMK SLP221 T00621110 57008 IEM_DS3505
ZHCC,2009-03-09 22:00,ZHCC 092200Z AUTO 02010KT 6SM 05/M11 A3015 RMK T00501110 IEM_DS3505
ZHCC,2009-03-09 23:00,ZHCC 092300Z AUTO 04010KT 6SM 05/M10 A3015 RMK T00501100 IEM_DS3505
ZHCC,2009-03-10 00:00,ZHCC 100000Z AUTO 07008KT 11SM 06/M12 A3018 RMK SLP230 T00591121 52009 IEM_DS3505
ZHCC,2009-03-10 01:00,ZHCC 100100Z AUTO 03012KT 6SM 05/M10 A3021 RMK T00501100 IEM_DS3505
ZHCC,2009-03-10 02:00,ZHCC 100200Z AUTO 03012KT 6SM 05/M09 A3021 RMK T00501090 IEM_DS3505
ZHCC,2009-03-10 03:00,ZHCC 100300Z AUTO 04006KT 11SM 07/M12 A3021 RMK SLP243 T00691118 52012 IEM_DS3505
ZHCC,2009-03-10 04:00,ZHCC 100400Z AUTO 03012KT 6SM 07/M06 A3021 RMK T00701060 IEM_DS3505
ZHCC,2009-03-10 05:00,ZHCC 100500Z AUTO 05012KT 3SM 07/M04 A3018 RMK T00701040 IEM_DS3505
ZHCC,2009-03-10 06:00,ZHCC 100600Z AUTO 04008KT 9SM 08/M06 A3015 RMK SLP224 T00821063 57019 IEM_DS3505
ZHCC,2009-03-10 07:00,ZHCC 100700Z AUTO 04012KT 3SM 07/M03 A3012 RMK T00701030 IEM_DS3505
ZHCC,2009-03-10 08:00,ZHCC 100800Z AUTO 04012KT 2 1/2SM 07/M02 A3012 RMK T00701020 IEM_DS3505
ZHCC,2009-03-10 09:00,ZHCC 100900Z AUTO 04012KT 7SM 08/M07 A3015 RMK SLP221 T00791070 57003 IEM_DS3505
ZHCC,2009-03-10 10:00,ZHCC 101000Z AUTO 02010KT 2 1/2SM 07/M03 A3015 RMK T00701030 IEM_DS3505
ZHCC,2009-03-10 11:00,ZHCC 101100Z AUTO 03010KT 3SM 06/M04 A3018 RMK T00601040 IEM_DS3505
ZHCC,2009-03-10 12:00,ZHCC 101200Z AUTO 04010KT 7SM 07/M10 A3021 RMK SLP248 T00701098 52026 IEM_DS3505
ZHCC,2009-03-10 13:00,ZHCC 101300Z AUTO 02012KT 3SM 06/M06 A3024 RMK T00601060 IEM_DS3505
ZHCC,2009-03-10 14:00,ZHCC 101400Z AUTO 06006KT 2 1/2SM 05/M05 A3024 RMK T00501050 IEM_DS3505
ZHCC,2009-03-10 15:00,ZHCC 101500Z AUTO 04006KT 9SM 06/M08 A3024 RMK SLP259 T00631077 52011 IEM_DS3505
ZHCC,2009-03-10 16:00,ZHCC 101600Z AUTO 02008KT 2 1/2SM 05/M04 A3027 RMK T00501040 IEM_DS3505
ZHCC,2009-03-10 17:00,ZHCC 101700Z AUTO 02006KT 2SM 05/M04 A3024 RMK T00501040 IEM_DS3505
ZHCC,2009-03-10 18:00,ZHCC 101800Z AUTO 04008KT 9SM 06/M07 A3024 RMK SLP248 T00631070 57010 IEM_DS3505
ZHCC,2009-03-10 19:00,ZHCC 101900Z AUTO 02008KT 2SM 05/M06 A3024 RMK T00501060 IEM_DS3505
ZHCC,2009-03-10 20:00,ZHCC 102000Z AUTO 02008KT 2SM 05/M06 A3021 RMK T00501060 IEM_DS3505
ZHCC,2009-03-10 21:00,ZHCC 102100Z AUTO 04004KT 9SM 06/M07 A3021 RMK SLP245 T00621074 57003 IEM_DS3505
ZHCC,2009-03-10 22:00,ZHCC 102200Z AUTO 02008KT 2 1/2SM 05/M04 A3024 RMK T00501040 IEM_DS3505
ZHCC,2009-03-10 23:00,ZHCC 102300Z AUTO 03006KT 2 1/2SM 05/M03 A3021 RMK T00501030 IEM_DS3505
ZHCC,2009-03-11 00:00,ZHCC 110000Z AUTO 07004KT 8SM 06/M06 A3024 RMK SLP252 T00591063 52006 IEM_DS3505
ZHCC,2009-03-11 01:00,ZHCC 110100Z AUTO 05008KT 2SM 05/M02 A3024 RMK T00501020 IEM_DS3505
ZHCC,2009-03-11 02:00,ZHCC 110200Z AUTO 05006KT 2SM 05/M01 A3024 RMK T00501010 IEM_DS3505
ZHCC,2009-03-11 03:00,ZHCC 110300Z AUTO 09006KT 8SM 07/M01 A3024 RMK SLP251 T00711008 57001 IEM_DS3505
ZHCC,2009-03-11 04:00,ZHCC 110400Z AUTO 03006KT 2SM 07/01 A3021 RMK T00700010 IEM_DS3505
ZHCC,2009-03-11 05:00,ZHCC 110500Z AUTO 04008KT 2SM 07/02 A3018 RMK T00700020 IEM_DS3505
ZHCC,2009-03-11 06:00,ZHCC 110600Z AUTO 04006KT 7SM 09/02 A3012 RMK SLP217 T00910018 57033 IEM_DS3505
ZHCC,2009-03-11 07:00,ZHCC 110700Z AUTO 03008KT 2SM 09/02 A3012 RMK T00900020 IEM_DS3505
ZHCC,2009-03-11 08:00,ZHCC 110800Z AUTO 02006KT 2SM 09/03 A3009 RMK T00900030 IEM_DS3505
ZHCC,2009-03-11 09:00,ZHCC 110900Z AUTO 04004KT 6SM 08/03 A3009 RMK SLP202 T00850027 57015 IEM_DS3505
ZHCC,2009-03-11 10:00,ZHCC 111000Z AUTO 01006KT 2SM 08/03 A3012 RMK T00800030 IEM_DS3505
ZHCC,2009-03-11 11:00,ZHCC 111100Z AUTO 35004KT 2SM 08/03 A3012 RMK T00800030 IEM_DS3505
ZHCC,2009-03-11 12:00,ZHCC 111200Z AUTO 04004KT 6SM 08/03 RMK 60000 SLP215 T00850031 52013 IEM_DS3505
ZHCC,2009-03-11 13:00,ZHCC 111300Z AUTO 02006KT 1 1/4SM 07/04 A3015 RMK T00700040 IEM_DS3505
ZHCC,2009-03-11 14:00,ZHCC 111400Z AUTO 03006KT 1 1/4SM 07/04 A3015 RMK T00700040 IEM_DS3505
ZHCC,2009-03-11 15:00,ZHCC 111500Z AUTO 36002KT 5SM 09/03 A3015 RMK SLP219 T00890033 52004 IEM_DS3505
ZHCC,2009-03-11 16:00,ZHCC 111600Z AUTO 34004KT 1 1/4SM 07/04 A3012 RMK T00700040 IEM_DS3505
ZHCC,2009-03-11 17:00,ZHCC 111700Z AUTO 34006KT 1SM 07/04 A3012 RMK T00700040 IEM_DS3505
ZHCC,2009-03-11 18:00,ZHCC 111800Z AUTO 32010KT 4SM 07/04 A3012 RMK 60000 SLP214 T00700041 57004 IEM_DS3505
ZHCC,2009-03-11 19:00,ZHCC 111900Z AUTO 32012KT 1SM 06/04 A3009 RMK T00600040 IEM_DS3505
ZHCC,2009-03-11 20:00,ZHCC 112000Z AUTO 32012KT 3/8SM 06/04 A3009 RMK T00600040 IEM_DS3505
ZHCC,2009-03-11 21:00,ZHCC 112100Z AUTO 29006KT 4SM 06/05 A3012 RMK 70013 SLP214 T00600048 57001 IEM_DS3505
ZHCC,2009-03-11 23:00,ZHCC 112300Z AUTO 33008KT 1/2SM 05/04 A3012 RMK T00500040 IEM_DS3505
ZHCC,2009-03-12 00:00,ZHCC 120000Z AUTO 29004KT 1 1/4SM 06/05 A3012 RMK 60028 70029 SLP219 T00600048 52005 IEM_DS3505
ZHCC,2009-03-12 01:00,ZHCC 120100Z AUTO 35006KT 1/2SM 06/05 A3015 RMK T00600050 IEM_DS3505
ZHCC,2009-03-12 02:00,ZHCC 120200Z AUTO 36008KT 1SM 06/05 A3015 RMK T00600050 IEM_DS3505
ZHCC,2009-03-12 03:00,ZHCC 120300Z AUTO 32006KT 2SM 06/05 A3015 RMK SLP226 T00640046 52007 IEM_DS3505
ZHCC,2009-03-12 04:00,ZHCC 120400Z AUTO 34012KT 1SM 06/05 A3015 RMK T00600050 IEM_DS3505
ZHCC,2009-03-12 05:00,ZHCC 120500Z AUTO 32010KT 1SM 06/05 A3012 RMK T00600050 IEM_DS3505
ZHCC,2009-03-12 06:00,ZHCC 120600Z AUTO 32004KT 2 1/2SM 07/05 A3012 RMK 60016 SLP209 T00690047 57017 IEM_DS3505
ZHCC,2009-03-12 07:00,ZHCC 120700Z AUTO 33008KT 1SM 06/05 A3009 RMK T00600050 IEM_DS3505
ZHCC,2009-03-12 08:00,ZHCC 120800Z AUTO 34008KT 1SM 06/05 A3012 RMK T00600050 IEM_DS3505
ZHCC,2009-03-12 09:00,ZHCC 120900Z AUTO 34004KT 2SM 08/05 A3012 RMK SLP208 T00800053 57001 IEM_DS3505
ZHCC,2009-03-12 10:00,ZHCC 121000Z AUTO 36004KT 1SM 06/05 A3012 RMK T00600050 IEM_DS3505
ZHCC,2009-03-12 11:00,ZHCC 121100Z AUTO 36002KT 1SM 06/05 A3018 RMK T00600050 IEM_DS3505
ZHCC,2009-03-12 12:00,ZHCC 121200Z AUTO 36004KT 2SM 10/05 A3021 RMK 60000 SLP241 T00960048 52033 IEM_DS3505
ZHCC,2009-03-12 13:00,ZHCC 121300Z AUTO 35004KT 1SM 07/06 A3027 RMK T00700060 IEM_DS3505
ZHCC,2009-03-12 14:00,ZHCC 121400Z AUTO 32008KT 1 1/4SM 07/06 A3030 RMK T00700060 IEM_DS3505
ZHCC,2009-03-12 15:00,ZHCC 121500Z AUTO 32010KT 4SM 10/04 A3030 RMK SLP272 T00960036 52031 IEM_DS3505
ZHCC,2009-03-12 16:00,ZHCC 121600Z AUTO 33014G23KT 2SM 08/05 A3033 RMK T00800050 IEM_DS3505
ZHCC,2009-03-12 17:00,ZHCC 121700Z AUTO 32012KT 2SM 08/04 A3033 RMK T00800040 IEM_DS3505
ZHCC,2009-03-12 18:00,ZHCC 121800Z AUTO 32004KT 7SM 09/M02 A3036 RMK 60000 SLP288 T00861021 52015 IEM_DS3505
ZHCC,2009-03-12 19:00,ZHCC 121900Z AUTO 35008KT 1SM 08/02 A3033 RMK T00800020 IEM_DS3505
ZHCC,2009-03-12 20:00,ZHCC 122000Z AUTO 32010KT 1 1/4SM 07/01 A3036 RMK T00700010 IEM_DS3505
ZHCC,2009-03-12 21:00,ZHCC 122100Z AUTO 29004KT 6SM 07/M03 A3036 RMK 70034 SLP294 T00681032 52006 IEM_DS3505
ZHCC,2009-03-12 22:00,ZHCC 122200Z AUTO 31008KT 2SM 05/M02 A3039 RMK T00501020 IEM_DS3505
ZHCC,2009-03-12 23:00,ZHCC 122300Z AUTO 31012KT 3SM 05/M03 A3039 RMK T00501030 IEM_DS3505
ZHCC,2009-03-13 00:00,ZHCC 130000Z AUTO 29012KT 8SM 07/M08 A3042 RMK 70017 SLP318 T00691079 52024 IEM_DS3505
ZHCC,2009-03-13 01:00,ZHCC 130100Z AUTO 34016KT 5SM 07/M07 A3045 RMK T00701070 IEM_DS3505
ZHCC,2009-03-13 02:00,ZHCC 130200Z AUTO 34012KT 6SM 08/M07 A3047 RMK T00801070 IEM_DS3505
ZHCC,2009-03-13 03:00,ZHCC 130300Z AUTO 27010KT 9SM 08/M10 A3047 RMK SLP334 T00791104 52016 IEM_DS3505
ZHCC,2009-03-13 04:00,ZHCC 130400Z AUTO 30021KT 6SM 09/M10 A3047 RMK T00901100 IEM_DS3505
ZHCC,2009-03-13 05:00,ZHCC 130500Z AUTO 31021KT 6SM 09/M12 A3045 RMK T00901120 IEM_DS3505
ZHCC,2009-03-13 06:00,ZHCC 130600Z AUTO 29016G39KT 11SM 10/M13 A3039 RMK SLP304 T00981134 57029 IEM_DS3505
ZHCC,2009-03-13 07:00,ZHCC 130700Z AUTO 31027G41KT 6SM 10/M14 A3036 RMK T01001140 IEM_DS3505
ZHCC,2009-03-13 08:00,ZHCC 130800Z AUTO 30021G35KT 6SM 09/M12 A3036 RMK T00901120 IEM_DS3505
ZHCC,2009-03-13 09:00,ZHCC 130900Z AUTO 27012G31KT 14SM 10/M16 A3036 RMK SLP283 T00991155 57021 IEM_DS3505
ZHCC,2009-03-13 10:00,ZHCC 131000Z AUTO 31016KT 6SM 08/M14 A3036 RMK T00801140 IEM_DS3505
ZHCC,2009-03-13 11:00,ZHCC 131100Z AUTO 30010KT 6SM 06/M12 A3036 RMK T00601120 IEM_DS3505
ZHCC,2009-03-13 12:00,ZHCC 131200Z AUTO 29006KT 12SM 07/M13 A3036 RMK SLP294 T00711132 52010 IEM_DS3505
ZHCC,2009-03-13 13:00,ZHCC 131300Z AUTO 28010KT 6SM 05/M12 A3039 RMK T00501120 IEM_DS3505
ZHCC,2009-03-13 14:00,ZHCC 131400Z AUTO 30012KT 6SM 04/M11 A3039 RMK T00401110 IEM_DS3505
ZHCC,2009-03-13 15:00,ZHCC 131500Z AUTO 27004KT 12SM 05/M12 A3036 RMK SLP294 T00531117 54000 IEM_DS3505
ZHCC,2009-03-13 16:00,ZHCC 131600Z AUTO 31010KT 6SM 03/M11 A3036 RMK T00301110 IEM_DS3505
ZHCC,2009-03-13 17:00,ZHCC 131700Z AUTO 34008KT 6SM 04/M11 A3033 RMK T00401110 IEM_DS3505
ZHCC,2009-03-13 18:00,ZHCC 131800Z AUTO 27004KT 11SM 02/M10 A3033 RMK SLP278 T00231099 57016 IEM_DS3505
ZHCC,2009-03-13 19:00,ZHCC 131900Z AUTO 26006KT 1 1/2SM 02/M10 A3030 RMK T00201100 IEM_DS3505
ZHCC,2009-03-13 20:00,ZHCC 132000Z AUTO 25004KT 2SM 02/M09 A3030 RMK T00201090 IEM_DS3505
ZHCC,2009-03-13 21:00,ZHCC 132100Z AUTO 22002KT 11SM 01/M10 A3027 RMK SLP265 T00141098 57013 IEM_DS3505
ZHCC,2009-03-13 22:00,ZHCC 132200Z AUTO 19002KT 6SM M02/M08 A3027 RMK T10201080 IEM_DS3505
ZHCC,2009-03-13 23:00,ZHCC 132300Z AUTO 23006KT 6SM M02/M07 A3030 RMK T10201070 IEM_DS3505
ZHCC,2009-03-14 00:00,ZHCC 140000Z AUTO 00000KT 7SM 04/M07 A3030 RMK SLP269 T00371066 52003 IEM_DS3505
ZHCC,2009-03-14 01:00,ZHCC 140100Z AUTO 21008KT 2 1/2SM 05/M04 A3027 RMK T00501040 IEM_DS3505
ZHCC,2009-03-14 02:00,ZHCC 140200Z AUTO 20012KT 4SM 09/M06 A3027 RMK T00901060 IEM_DS3505
ZHCC,2009-03-14 03:00,ZHCC 140300Z AUTO 18006KT 7SM 12/M07 A3024 RMK SLP242 T01211068 57025 IEM_DS3505
ZHCC,2009-03-14 04:00,ZHCC 140400Z AUTO 19010KT 6SM 12/M02 A3021 RMK T01201020 IEM_DS3505
ZHCC,2009-03-14 05:00,ZHCC 140500Z AUTO 19012KT 6SM 13/M01 A3018 RMK T01301010 IEM_DS3505
ZHCC,2009-03-14 06:00,ZHCC 140600Z AUTO 16010KT 9SM 15/M04 A3012 RMK SLP197 T01531036 57044 IEM_DS3505
ZHCC,2009-03-14 07:00,ZHCC 140700Z AUTO 21014KT 6SM 14/01 A3009 RMK T01400010 IEM_DS3505
ZHCC,2009-03-14 08:00,ZHCC 140800Z AUTO 20014KT 6SM 15/02 A3006 RMK T01500020 IEM_DS3505
ZHCC,2009-03-14 09:00,ZHCC 140900Z AUTO 18014KT 9SM 16/M02 A3003 RMK SLP172 T01601016 57025 IEM_DS3505
ZHCC,2009-03-14 10:00,ZHCC 141000Z AUTO 21012KT 6SM 14/01 A3003 RMK T01400010 IEM_DS3505
ZHCC,2009-03-14 11:00,ZHCC 141100Z AUTO 21010KT 6SM 12/02 A3003 RMK T01200020 IEM_DS3505
ZHCC,2009-03-14 12:00,ZHCC 141200Z AUTO 18006KT 9SM 12/01 A3003 RMK SLP170 T01200007 57002 IEM_DS3505
ZHCC,2009-03-14 13:00,ZHCC 141300Z AUTO 21008KT 6SM 11/02 A3003 RMK T01100020 IEM_DS3505
ZHCC,2009-03-14 14:00,ZHCC 141400Z AUTO 21008KT 6SM 11/02 A3000 RMK T01100020 IEM_DS3505
ZHCC,2009-03-14 15:00,ZHCC 141500Z AUTO 22006KT 9SM 12/00 A3000 RMK SLP163 T01190000 57005 IEM_DS3505
ZHCC,2009-03-14 16:00,ZHCC 141600Z AUTO 20010KT 6SM 09/02 A3000 RMK T00900020 IEM_DS3505
ZHCC,2009-03-14 17:00,ZHCC 141700Z AUTO 21010KT 1 1/2SM 08/02 A2997 RMK T00800020 IEM_DS3505
ZHCC,2009-03-14 18:00,ZHCC 141800Z AUTO 25002KT 8SM 09/00 A2997 RMK SLP151 T00920004 57012 IEM_DS3505
ZHCC,2009-03-14 19:00,ZHCC 141900Z AUTO 22010KT 1 1/2SM 09/04 A2994 RMK T00900040 IEM_DS3505
ZHCC,2009-03-14 20:00,ZHCC 142000Z AUTO 22010KT 1 1/2SM 09/04 A2994 RMK T00900040 IEM_DS3505
ZHCC,2009-03-14 21:00,ZHCC 142100Z AUTO 25002KT 8SM 07/02 A2994 RMK SLP146 T00720015 57005 IEM_DS3505
ZHCC,2009-03-14 22:00,ZHCC 142200Z AUTO 22006KT 6SM 09/03 A2997 RMK T00900030 IEM_DS3505
ZHCC,2009-03-14 23:00,ZHCC 142300Z AUTO 22004KT 2 1/2SM 09/03 A2997 RMK T00900030 IEM_DS3505
ZHCC,2009-03-15 00:00,ZHCC 150000Z AUTO 20002KT 6SM 09/03 A2997 RMK SLP159 T00870031 52012 IEM_DS3505
ZHCC,2009-03-15 01:00,ZHCC 150100Z AUTO 22004KT 2SM 12/04 A2997 RMK T01200040 IEM_DS3505
ZHCC,2009-03-15 02:00,ZHCC 150200Z AUTO 24006KT 2SM 16/03 A2997 RMK T01600030 IEM_DS3505
ZHCC,2009-03-15 03:00,ZHCC 150300Z AUTO 27008KT 3SM 20/M05 A2997 RMK SLP148 T01971046 57008 IEM_DS3505
ZHCC,2009-03-15 04:00,ZHCC 150400Z AUTO 26012KT 1 1/4SM 21/M01 A2994 RMK T02101010 IEM_DS3505
ZHCC,2009-03-15 05:00,ZHCC 150500Z AUTO 27012KT 1 1/4SM 21/M02 A2991 RMK T02101020 IEM_DS3505
ZHCC,2009-03-15 06:00,ZHCC 150600Z AUTO 27012KT 4SM 22/M06 A2988 RMK SLP127 T02221056 57021 IEM_DS3505
ZHCC,2009-03-15 07:00,ZHCC 150700Z AUTO 28010KT 1 1/4SM 23/M03 A2988 RMK T02301030 IEM_DS3505
ZHCC,2009-03-15 08:00,ZHCC 150800Z AUTO 29010KT 1 1/4SM 23/M04 A2985 RMK T02301040 IEM_DS3505
ZHCC,2009-03-15 09:00,ZHCC 150900Z AUTO 27006KT 3SM 23/M05 A2985 RMK SLP111 T02321048 57016 IEM_DS3505
ZHCC,2009-03-15 10:00,ZHCC 151000Z AUTO 26006KT 1 1/4SM 20/M04 A2985 RMK T02001040 IEM_DS3505
ZHCC,2009-03-15 11:00,ZHCC 151100Z AUTO 24006KT 1 1/4SM 19/M03 A2988 RMK T01901030 IEM_DS3505
ZHCC,2009-03-15 12:00,ZHCC 151200Z AUTO 32004KT 6SM 19/M06 A2991 RMK SLP129 T01861055 52017 IEM_DS3505
ZHCC,2009-03-15 13:00,ZHCC 151300Z AUTO 23004KT 1 1/4SM 12/05 A2991 RMK T01200050 IEM_DS3505
ZHCC,2009-03-15 14:00,ZHCC 151400Z AUTO 20004KT 1 1/4SM 10/03 A2994 RMK T01000030 IEM_DS3505
ZHCC,2009-03-15 15:00,ZHCC 151500Z AUTO 22002KT 6SM 13/M04 A2994 RMK SLP141 T01281039 52013 IEM_DS3505
ZHCC,2009-03-15 16:00,ZHCC 151600Z AUTO 1 1/4SM 09/04 A2994 RMK T00900040 IEM_DS3505
ZHCC,2009-03-15 17:00,ZHCC 151700Z AUTO 22004KT 1SM 08/04 A2994 RMK T00800040 IEM_DS3505
ZHCC,2009-03-15 18:00,ZHCC 151800Z AUTO 00000KT 6SM 09/00 A2991 RMK SLP136 T00930000 57005 IEM_DS3505
ZHCC,2009-03-15 19:00,ZHCC 151900Z AUTO 21002KT 1SM 09/03 A2991 RMK T00900030 IEM_DS3505
ZHCC,2009-03-15 20:00,ZHCC 152000Z AUTO 00000KT 1SM 08/03 A2991 RMK T00800030 IEM_DS3505
ZHCC,2009-03-15 21:00,ZHCC 152100Z AUTO 34002KT 6SM 09/01 A2991 RMK SLP137 T00940006 52001 IEM_DS3505
ZHCC,2009-03-15 22:00,ZHCC 152200Z AUTO 20004KT 2SM 10/03 A2994 RMK T01000030 IEM_DS3505
ZHCC,2009-03-15 23:00,ZHCC 152300Z AUTO 22004KT 2SM 10/02 A2994 RMK T01000020 IEM_DS3505
ZHCC,2009-03-16 00:00,ZHCC 160000Z AUTO 00000KT 4SM 11/02 A2997 RMK SLP147 T01120022 52010 IEM_DS3505
ZHCC,2009-03-16 01:00,ZHCC 160100Z AUTO 1SM 14/04 A2997 RMK T01400040 IEM_DS3505
ZHCC,2009-03-16 02:00,ZHCC 160200Z AUTO 19008KT 1 1/4SM 16/05 A2997 RMK T01600050 IEM_DS3505
ZHCC,2009-03-16 03:00,ZHCC 160300Z AUTO 34002KT 4SM 20/00 A2997 RMK SLP148 T02000005 52001 IEM_DS3505
ZHCC,2009-03-16 04:00,ZHCC 160400Z AUTO 20008KT 1 1/4SM 21/05 A2994 RMK T02100050 IEM_DS3505
ZHCC,2009-03-16 05:00,ZHCC 160500Z AUTO 20010KT 2SM 23/06 A2991 RMK T02300060 IEM_DS3505
ZHCC,2009-03-16 06:00,ZHCC 160600Z AUTO 18006KT 4SM 26/01 A2985 RMK SLP107 T02570011 57040 IEM_DS3505
ZHCC,2009-03-16 07:00,ZHCC 160700Z AUTO 21017KT 3SM 24/03 A2983 RMK T02400030 IEM_DS3505
ZHCC,2009-03-16 08:00,ZHCC 160800Z AUTO 21017KT 3SM 23/02 A2983 RMK T02300020 IEM_DS3505
ZHCC,2009-03-16 09:00,ZHCC 160900Z AUTO 18010G25KT 5SM 24/00 A2980 RMK SLP088 T02380002 57019 IEM_DS3505
ZHCC,2009-03-16 10:00,ZHCC 161000Z AUTO 21012KT 5SM 20/06 A2980 RMK T02000060 IEM_DS3505
ZHCC,2009-03-16 11:00,ZHCC 161100Z AUTO 20010KT 6SM 18/09 A2983 RMK T01800090 IEM_DS3505
ZHCC,2009-03-16 12:00,ZHCC 161200Z AUTO 16004KT 6SM 18/05 A2983 RMK SLP095 T01830048 52006 IEM_DS3505
ZHCC,2009-03-16 13:00,ZHCC 161300Z AUTO 21006KT 6SM 16/10 A2983 RMK T01600100 IEM_DS3505
ZHCC,2009-03-16 14:00,ZHCC 161400Z AUTO 20008KT 6SM 15/09 A2985 RMK T01500090 IEM_DS3505
ZHCC,2009-03-16 15:00,ZHCC 161500Z AUTO 16004KT 6SM 17/02 A2983 RMK SLP093 T01690025 54000 IEM_DS3505
ZHCC,2009-03-16 16:00,ZHCC 161600Z AUTO 19010KT 6SM 13/08 A2980 RMK T01300080 IEM_DS3505
ZHCC,2009-03-16 17:00,ZHCC 161700Z AUTO 20010KT 1 1/4SM 12/07 A2980 RMK T01200070 IEM_DS3505
ZHCC,2009-03-16 18:00,ZHCC 161800Z AUTO 32004KT 6SM 15/03 A2980 RMK SLP082 T01470026 57010 IEM_DS3505
ZHCC,2009-03-16 19:00,ZHCC 161900Z AUTO 19006KT 1 1/4SM 11/06 A2977 RMK T01100060 IEM_DS3505
ZHCC,2009-03-16 20:00,ZHCC 162000Z AUTO 18008KT 1 1/4SM 09/06 A2974 RMK T00900060 IEM_DS3505
ZHCC,2009-03-16 21:00,ZHCC 162100Z AUTO 18004KT 6SM 11/04 A2974 RMK SLP064 T01110039 57019 IEM_DS3505
ZHCC,2009-03-16 22:00,ZHCC 162200Z AUTO 20012KT 4SM 10/07 A2971 RMK T01000070 IEM_DS3505
ZHCC,2009-03-16 23:00,ZHCC 162300Z AUTO 22008KT 2 1/2SM 10/06 A2974 RMK T01000060 IEM_DS3505
ZHCC,2009-03-17 00:00,ZHCC 170000Z AUTO 25002KT 4SM 13/04 A2974 RMK SLP066 T01300039 52001 IEM_DS3505
ZHCC,2009-03-17 01:00,ZHCC 170100Z AUTO 21008KT 2SM 15/09 A2974 RMK T01500090 IEM_DS3505
ZHCC,2009-03-17 02:00,ZHCC 170200Z AUTO 21010KT 2SM 18/10 A2974 RMK T01800100 IEM_DS3505
ZHCC,2009-03-17 03:00,ZHCC 170300Z AUTO 07004KT 4SM 24/05 A2971 RMK SLP056 T02390048 57008 IEM_DS3505
ZHCC,2009-03-17 04:00,ZHCC 170400Z AUTO 18008KT 2SM 21/11 A2968 RMK T02100110 IEM_DS3505
ZHCC,2009-03-17 05:00,ZHCC 170500Z AUTO 18010KT 2 1/2SM 22/10 A2965 RMK T02200100 IEM_DS3505
ZHCC,2009-03-17 06:00,ZHCC 170600Z AUTO 11008KT 5SM 27/08 A2962 RMK SLP026 T02660081 57029 IEM_DS3505
ZHCC,2009-03-17 07:00,ZHCC 170700Z AUTO 19010KT 2 1/2SM 23/12 A2962 RMK T02300120 IEM_DS3505
ZHCC,2009-03-17 08:00,ZHCC 170800Z AUTO 18010KT 2 1/2SM 22/13 A2962 RMK T02200130 IEM_DS3505
ZHCC,2009-03-17 09:00,ZHCC 170900Z AUTO 18008KT 5SM 24/11 A2959 RMK SLP018 T02400107 57009 IEM_DS3505
ZHCC,2009-03-17 10:00,ZHCC 171000Z AUTO 18008KT 2 1/2SM 20/12 A2962 RMK T02000120 IEM_DS3505
ZHCC,2009-03-17 11:00,ZHCC 171100Z AUTO 19008KT 2 1/2SM 18/12 A2962 RMK T01800120 IEM_DS3505
ZHCC,2009-03-17 12:00,ZHCC 171200Z AUTO 18004KT 6SM 19/11 A2962 RMK SLP028 T01880109 52009 IEM_DS3505
ZHCC,2009-03-17 13:00,ZHCC 171300Z AUTO 19006KT 2SM 16/12 A2965 RMK T01600120 IEM_DS3505
ZHCC,2009-03-17 14:00,ZHCC 171400Z AUTO 19006KT 2SM 16/12 A2962 RMK T01600120 IEM_DS3505
ZHCC,2009-03-17 15:00,ZHCC 171500Z AUTO 00000KT 6SM 14/08 A2965 RMK SLP036 T01450080 52009 IEM_DS3505
ZHCC,2009-03-17 16:00,ZHCC 171600Z AUTO 20006KT 1 1/2SM 15/11 A2965 RMK T01500110 IEM_DS3505
ZHCC,2009-03-17 17:00,ZHCC 171700Z AUTO 20004KT 1SM 15/10 A2965 RMK T01500100 IEM_DS3505
ZHCC,2009-03-17 18:00,ZHCC 171800Z AUTO 16002KT 6SM 12/07 A2965 RMK SLP033 T01200071 57003 IEM_DS3505
ZHCC,2009-03-17 19:00,ZHCC 171900Z AUTO 19004KT 1SM 13/09 A2962 RMK T01300090 IEM_DS3505
ZHCC,2009-03-17 20:00,ZHCC 172000Z AUTO 20004KT 2SM 14/11 A2962 RMK T01400110 IEM_DS3505
ZHCC,2009-03-17 21:00,ZHCC 172100Z AUTO 32002KT 6SM 10/06 A2962 RMK SLP032 T01010064 57002 IEM_DS3505
ZHCC,2009-03-17 22:00,ZHCC 172200Z AUTO 20004KT 1 1/4SM 11/09 A2962 RMK T01100090 IEM_DS3505
ZHCC,2009-03-17 23:00,ZHCC 172300Z AUTO 20004KT 1 1/4SM 13/10 A2965 RMK T01300100 IEM_DS3505
ZHCC,2009-03-18 00:00,ZHCC 180000Z AUTO 16002KT 5SM 13/08 A2968 RMK SLP048 T01340083 52015 IEM_DS3505
ZHCC,2009-03-18 01:00,ZHCC 180100Z AUTO 20004KT 1SM 17/13 A2968 RMK T01700130 IEM_DS3505
ZHCC,2009-03-18 02:00,ZHCC 180200Z AUTO 18010KT 1 1/4SM 19/14 A2968 RMK T01900140 IEM_DS3505
ZHCC,2009-03-18 03:00,ZHCC 180300Z AUTO 09004KT 6SM 24/10 A2968 RMK SLP049 T02430099 52003 IEM_DS3505
ZHCC,2009-03-18 04:00,ZHCC 180400Z AUTO 19008KT 1 1/4SM 23/15 A2968 RMK T02300150 IEM_DS3505
ZHCC,2009-03-18 05:00,ZHCC 180500Z AUTO 18008KT 2SM 24/15 A2965 RMK T02400150 IEM_DS3505
ZHCC,2009-03-18 06:00,ZHCC 180600Z AUTO 14008KT 7SM 27/09 A2962 RMK SLP028 T02730087 57021 IEM_DS3505
ZHCC,2009-03-18 07:00,ZHCC 180700Z AUTO 18008KT 2SM 25/17 A2962 RMK T02500170 IEM_DS3505
ZHCC,2009-03-18 08:00,ZHCC 180800Z AUTO 17008KT 2SM 25/16 A2962 RMK T02500160 IEM_DS3505
ZHCC,2009-03-18 09:00,ZHCC 180900Z AUTO 16008KT 6SM 26/13 A2962 RMK SLP028 T02610129 54000 IEM_DS3505
ZHCC,2009-03-18 10:00,ZHCC 181000Z AUTO 16004KT 2SM 23/17 A2962 RMK T02300170 IEM_DS3505
ZHCC,2009-03-18 11:00,ZHCC 181100Z AUTO 17004KT 1 1/4SM 21/16 A2965 RMK T02100160 IEM_DS3505
ZHCC,2009-03-18 12:00,ZHCC 181200Z AUTO 16006KT 6SM 22/16 A2968 RMK SLP047 T02240162 52018 IEM_DS3505
ZHCC,2009-03-18 13:00,ZHCC 181300Z AUTO 17006KT 1 1/4SM 20/16 A2968 RMK T02000160 IEM_DS3505
ZHCC,2009-03-18 14:00,ZHCC 181400Z AUTO 18004KT 1 1/4SM 19/17 A2971 RMK T01900170 IEM_DS3505
ZHCC,2009-03-18 15:00,ZHCC 181500Z AUTO 18004KT 6SM 20/16 A2971 RMK SLP060 T02040162 52015 IEM_DS3505
ZHCC,2009-03-18 16:00,ZHCC 181600Z AUTO 1SM 17/15 A2971 RMK T01700150 IEM_DS3505
ZHCC,2009-03-18 17:00,ZHCC 181700Z AUTO 24002KT 1/8SM 17/15 A2971 RMK T01700150 IEM_DS3505
ZHCC,2009-03-18 18:00,ZHCC 181800Z AUTO 29002KT 4SM 16/14 A2971 RMK SLP060 T01650145 54000 IEM_DS3505
ZHCC,2009-03-18 19:00,ZHCC 181900Z AUTO 18002KT 1/8SM 14/12 A2971 RMK T01400120 IEM_DS3505
ZHCC,2009-03-18 20:00,ZHCC 182000Z AUTO 1/8SM 12/11 A2971 RMK T01200110 IEM_DS3505
ZHCC,2009-03-18 21:00,ZHCC 182100Z AUTO 00000KT 2SM 14/13 A2971 RMK SLP067 T01410128 52006 IEM_DS3505
ZHCC,2009-03-18 22:00,ZHCC 182200Z AUTO 34004KT 1SM 13/13 A2977 RMK T01300130 IEM_DS3505
ZHCC,2009-03-18 23:00,ZHCC 182300Z AUTO 02014G23KT 1 1/4SM 17/14 A2983 RMK T01700140 IEM_DS3505
ZHCC,2009-03-19 00:00,ZHCC 190000Z AUTO 04008G29KT 3SM 20/04 A2988 RMK SLP119 T02040040 52052 IEM_DS3505
ZHCC,2009-03-19 01:00,ZHCC 190100Z AUTO 03029G43KT 1SM 17/11 A2991 RMK T01700110 IEM_DS3505
ZHCC,2009-03-19 02:00,ZHCC 190200Z AUTO 03025G37KT 1SM 13/08 A2997 RMK T01300080 IEM_DS3505
ZHCC,2009-03-19 03:00,ZHCC 190300Z AUTO 04010G33KT 3SM 16/06 A3000 RMK SLP168 T01610060 52047 IEM_DS3505
ZHCC,2009-03-19 04:00,ZHCC 190400Z AUTO 02023G33KT 1 1/4SM 16/07 A3000 RMK T01600070 IEM_DS3505
ZHCC,2009-03-19 05:00,ZHCC 190500Z AUTO 04021G33KT 1 1/4SM 16/05 A3000 RMK T01600050 IEM_DS3505
ZHCC,2009-03-19 06:00,ZHCC 190600Z AUTO 04014KT 6SM 18/01 A3000 RMK SLP170 T01830009 52001 IEM_DS3505
ZHCC,2009-03-19 07:00,ZHCC 190700Z AUTO 04019KT 2SM 18/04 A3000 RMK T01800040 IEM_DS3505
ZHCC,2009-03-19 08:00,ZHCC 190800Z AUTO 03017KT 3SM 17/03 A3000 RMK T01700030 IEM_DS3505
ZHCC,2009-03-19 09:00,ZHCC 190900Z AUTO 04010KT 7SM 17/02 A3003 RMK SLP172 T01730025 52002 IEM_DS3505
ZHCC,2009-03-19 10:00,ZHCC 191000Z AUTO 04010KT 3SM 16/03 A3003 RMK T01600030 IEM_DS3505
ZHCC,2009-03-19 11:00,ZHCC 191100Z AUTO 02008KT 3SM 15/04 A3006 RMK T01500040 IEM_DS3505
ZHCC,2009-03-19 12:00,ZHCC 191200Z AUTO 04010KT 7SM 15/02 A3006 RMK SLP186 T01500019 52014 IEM_DS3505
ZHCC,2009-03-19 13:00,ZHCC 191300Z AUTO 03006KT 3SM 14/04 A3009 RMK T01400040 IEM_DS3505
ZHCC,2009-03-19 14:00,ZHCC 191400Z AUTO 04008KT 3SM 14/04 A3009 RMK T01400040 IEM_DS3505
ZHCC,2009-03-19 15:00,ZHCC 191500Z AUTO 09004KT 8SM 14/02 A3009 RMK SLP198 T01400020 52011 IEM_DS3505
ZHCC,2009-03-19 16:00,ZHCC 191600Z AUTO 02006KT 3SM 13/03 A3009 RMK T01300030 IEM_DS3505
ZHCC,2009-03-19 17:00,ZHCC 191700Z AUTO 02006KT 1 1/2SM 12/03 A3009 RMK T01200030 IEM_DS3505
ZHCC,2009-03-19 18:00,ZHCC 191800Z AUTO 09006KT 9SM 13/01 A3009 RMK SLP196 T01290013 57002 IEM_DS3505
ZHCC,2009-03-19 19:00,ZHCC 191900Z AUTO 04008KT 2SM 11/02 A3009 RMK T01100020 IEM_DS3505
ZHCC,2009-03-19 20:00,ZHCC 192000Z AUTO 05008KT 2SM 11/01 A3006 RMK T01100010 IEM_DS3505
ZHCC,2009-03-19 21:00,ZHCC 192100Z AUTO 07004KT 9SM 12/01 A3006 RMK SLP190 T01180009 57006 IEM_DS3505
ZHCC,2009-03-19 22:00,ZHCC 192200Z AUTO 06004KT 6SM 10/02 A3009 RMK T01000020 IEM_DS3505
ZHCC,2009-03-19 23:00,ZHCC 192300Z AUTO 06004KT 4SM 09/02 A3009 RMK T00900020 IEM_DS3505
ZHCC,2009-03-20 00:00,ZHCC 200000Z AUTO 09004KT 6SM 11/01 A3009 RMK SLP194 T01080011 52003 IEM_DS3505
ZHCC,2009-03-20 01:00,ZHCC 200100Z AUTO 09004KT 3SM 11/04 A3009 RMK T01100040 IEM_DS3505
ZHCC,2009-03-20 02:00,ZHCC 200200Z AUTO 10010KT 3SM 12/04 A3006 RMK T01200040 IEM_DS3505
ZHCC,2009-03-20 03:00,ZHCC 200300Z AUTO 11006KT 7SM 14/03 A3003 RMK SLP175 T01430034 57018 IEM_DS3505
ZHCC,2009-03-20 04:00,ZHCC 200400Z AUTO 12006KT 3SM 14/06 A3000 RMK T01400060 IEM_DS3505
ZHCC,2009-03-20 05:00,ZHCC 200500Z AUTO 10004KT 2 1/2SM 14/06 A2997 RMK T01400060 IEM_DS3505
ZHCC,2009-03-20 06:00,ZHCC 200600Z AUTO 11004KT 6SM 14/04 A2994 RMK SLP144 T01440035 57031 IEM_DS3505
ZHCC,2009-03-20 07:00,ZHCC 200700Z AUTO 11006KT 2 1/2SM 14/07 A2991 RMK T01400070 IEM_DS3505
ZHCC,2009-03-20 08:00,ZHCC 200800Z AUTO 10006KT 2 1/2SM 14/07 A2988 RMK T01400070 IEM_DS3505
ZHCC,2009-03-20 09:00,ZHCC 200900Z AUTO 11006KT 6SM 15/05 A2985 RMK SLP120 T01460051 57024 IEM_DS3505
ZHCC,2009-03-20 10:00,ZHCC 201000Z AUTO 2 1/2SM 14/08 A2985 RMK T01400080 IEM_DS3505
ZHCC,2009-03-20 11:00,ZHCC 201100Z AUTO 2SM 13/08 A2983 RMK T01300080 IEM_DS3505
ZHCC,2009-03-20 12:00,ZHCC 201200Z AUTO 07004KT 6SM 14/06 A2983 RMK SLP111 T01430062 57009 IEM_DS3505
ZHCC,2009-03-20 13:00,ZHCC 201300Z AUTO 2SM 14/08 A2983 RMK T01400080 IEM_DS3505
ZHCC,2009-03-20 14:00,ZHCC 201400Z AUTO 36004KT 2SM 14/09 A2983 RMK T01400090 IEM_DS3505
ZHCC,2009-03-20 15:00,ZHCC 201500Z AUTO 04004KT 6SM 13/07 A2980 RMK SLP096 T01340074 57014 IEM_DS3505
ZHCC,2009-03-20 16:00,ZHCC 201600Z AUTO 03008KT 2SM 13/10 A2977 RMK T01300100 IEM_DS3505
ZHCC,2009-03-20 17:00,ZHCC 201700Z AUTO 03004KT 1 1/4SM 13/10 A2974 RMK T01300100 IEM_DS3505
ZHCC,2009-03-20 18:00,ZHCC 201800Z AUTO 02004KT 6SM 12/09 A2974 RMK 60003 SLP079 T01190086 57017 IEM_DS3505
ZHCC,2009-03-20 19:00,ZHCC 201900Z AUTO 02008KT 1SM 11/09 A2968 RMK T01100090 IEM_DS3505
ZHCC,2009-03-20 20:00,ZHCC 202000Z AUTO 36006KT 1SM 11/09 A2968 RMK T01100090 IEM_DS3505
ZHCC,2009-03-20 21:00,ZHCC 202100Z AUTO 04004KT 6SM 12/08 A2968 RMK 70003 SLP059 T01150078 57020 IEM_DS3505
ZHCC,2009-03-20 22:00,ZHCC 202200Z AUTO 36006KT 1 1/4SM 11/09 A2968 RMK T01100090 IEM_DS3505
ZHCC,2009-03-20 23:00,ZHCC 202300Z AUTO 35004KT 1 1/4SM 11/09 A2968 RMK T01100090 IEM_DS3505
ZHCC,2009-03-21 00:00,ZHCC 210000Z AUTO 36002KT 5SM 12/08 A2968 RMK 70003 SLP062 T01170080 52003 IEM_DS3505
ZHCC,2009-03-21 01:00,ZHCC 210100Z AUTO 35004KT 1 1/2SM 11/09 A2968 RMK T01100090 IEM_DS3505
ZHCC,2009-03-21 02:00,ZHCC 210200Z AUTO 33008KT 2SM 12/10 A2968 RMK T01200100 IEM_DS3505
ZHCC,2009-03-21 03:00,ZHCC 210300Z AUTO 27008KT 4SM 14/09 A2965 RMK SLP049 T01410089 57013 IEM_DS3505
ZHCC,2009-03-21 04:00,ZHCC 210400Z AUTO 31008KT 2SM 15/10 A2965 RMK T01500100 IEM_DS3505
ZHCC,2009-03-21 05:00,ZHCC 210500Z AUTO 28006KT 2SM 17/12 A2962 RMK T01700120 IEM_DS3505
ZHCC,2009-03-21 06:00,ZHCC 210600Z AUTO 29010KT 5SM 19/10 A2959 RMK SLP017 T01880096 57030 IEM_DS3505
ZHCC,2009-03-21 07:00,ZHCC 210700Z AUTO 32014KT 2SM 20/11 A2956 RMK T02000110 IEM_DS3505
ZHCC,2009-03-21 08:00,ZHCC 210800Z AUTO 30014KT 2SM 21/11 A2956 RMK T02100110 IEM_DS3505
ZHCC,2009-03-21 09:00,ZHCC 210900Z AUTO 27008KT 6SM 20/10 A2959 RMK SLP021 T01950097 52004 IEM_DS3505
ZHCC,2009-03-21 10:00,ZHCC 211000Z AUTO 29008KT 2SM 19/11 A2959 RMK T01900110 IEM_DS3505
ZHCC,2009-03-21 11:00,ZHCC 211100Z AUTO 32006KT 2 1/2SM 18/10 A2962 RMK T01800100 IEM_DS3505
ZHCC,2009-03-21 12:00,ZHCC 211200Z AUTO 32010KT 6SM 19/05 A2965 RMK SLP046 T01930050 52024 IEM_DS3505
ZHCC,2009-03-21 13:00,ZHCC 211300Z AUTO 01004KT 2SM 17/12 A2971 RMK T01700120 IEM_DS3505
ZHCC,2009-03-21 14:00,ZHCC 211400Z AUTO 03010KT 1 1/2SM 16/12 A2974 RMK T01600120 IEM_DS3505
ZHCC,2009-03-21 15:00,ZHCC 211500Z AUTO 04006KT 6SM 15/11 A2977 RMK SLP091 T01520106 52044 IEM_DS3505
ZHCC,2009-03-21 16:00,ZHCC 211600Z AUTO 31004KT 1 1/4SM 15/12 A2980 RMK T01500120 IEM_DS3505
ZHCC,2009-03-21 17:00,ZHCC 211700Z AUTO 31006KT 1SM 15/11 A2983 RMK T01500110 IEM_DS3505
ZHCC,2009-03-21 18:00,ZHCC 211800Z AUTO 07004KT 6SM 16/10 A2983 RMK SLP113 T01560099 52023 IEM_DS3505
ZHCC,2009-03-21 19:00,ZHCC 211900Z AUTO 04006KT 1SM 14/11 A2988 RMK T01400110 IEM_DS3505
ZHCC,2009-03-21 20:00,ZHCC 212000Z AUTO 02012KT 1SM 14/09 A2991 RMK T01400090 IEM_DS3505
ZHCC,2009-03-21 21:00,ZHCC 212100Z AUTO 04008KT 6SM 14/02 A2994 RMK SLP144 T01410017 52031 IEM_DS3505
ZHCC,2009-03-21 22:00,ZHCC 212200Z AUTO 04012KT 6SM 12/04 A2997 RMK T01200040 IEM_DS3505
ZHCC,2009-03-21 23:00,ZHCC 212300Z AUTO 03012KT 1 1/2SM 11/05 A3000 RMK T01100050 IEM_DS3505
ZHCC,2009-03-22 00:00,ZHCC 220000Z AUTO 04012KT 6SM 12/01 A3006 RMK SLP188 T01190010 52042 IEM_DS3505
ZHCC,2009-03-22 01:00,ZHCC 220100Z AUTO 04014G23KT 3SM 12/02 A3009 RMK T01200020 IEM_DS3505
ZHCC,2009-03-22 02:00,ZHCC 220200Z AUTO 05016G25KT 3SM 13/00 A3009 RMK T01300000 IEM_DS3505
ZHCC,2009-03-22 03:00,ZHCC 220300Z AUTO 04010KT 7SM 13/M03 A3009 RMK SLP207 T01281027 52018 IEM_DS3505
ZHCC,2009-03-22 04:00,ZHCC 220400Z AUTO 03014G23KT 6SM 14/00 A3009 RMK T01400000 IEM_DS3505
ZHCC,2009-03-22 05:00,ZHCC 220500Z AUTO 05010KT 6SM 15/00 A3009 RMK T01500000 IEM_DS3505
ZHCC,2009-03-22 06:00,ZHCC 220600Z AUTO 04012KT 9SM 15/M04 A3006 RMK SLP187 T01501038 57019 IEM_DS3505
ZHCC,2009-03-22 07:00,ZHCC 220700Z AUTO 07010KT 6SM 15/00 A3003 RMK T01500000 IEM_DS3505
ZHCC,2009-03-22 08:00,ZHCC 220800Z AUTO 07008KT 6SM 15/01 A3003 RMK T01500010 IEM_DS3505
ZHCC,2009-03-22 09:00,ZHCC 220900Z AUTO 07010KT 9SM 14/M02 A3003 RMK SLP181 T01421022 57006 IEM_DS3505
ZHCC,2009-03-22 10:00,ZHCC 221000Z AUTO 09010KT 6SM 13/00 A3006 RMK T01300000 IEM_DS3505
ZHCC,2009-03-22 11:00,ZHCC 221100Z AUTO 06008KT 6SM 12/00 A3006 RMK T01200000 IEM_DS3505
ZHCC,2009-03-22 12:00,ZHCC 221200Z AUTO 07006KT 7SM 12/M01 A3009 RMK SLP207 T01171011 52024 IEM_DS3505
ZHCC,2009-03-22 13:00,ZHCC 221300Z AUTO 04006KT 6SM 11/00 A3012 RMK T01100000 IEM_DS3505
ZHCC,2009-03-22 14:00,ZHCC 221400Z AUTO 05006KT 6SM 11/01 A3015 RMK T01100010 IEM_DS3505
ZHCC,2009-03-22 15:00,ZHCC 221500Z AUTO 04004KT 8SM 11/M01 A3018 RMK SLP231 T01111013 52024 IEM_DS3505
ZHCC,2009-03-22 16:00,ZHCC 221600Z AUTO 04006KT 6SM 10/01 A3018 RMK T01000010 IEM_DS3505
ZHCC,2009-03-22 17:00,ZHCC 221700Z AUTO 08004KT 6SM 10/01 A3018 RMK T01000010 IEM_DS3505
ZHCC,2009-03-22 18:00,ZHCC 221800Z AUTO 04002KT 8SM 10/M01 A3021 RMK SLP242 T01041013 52011 IEM_DS3505
ZHCC,2009-03-22 19:00,ZHCC 221900Z AUTO 36006KT 2SM 10/01 A3021 RMK T01000010 IEM_DS3505
ZHCC,2009-03-22 20:00,ZHCC 222000Z AUTO 17006KT 1 1/2SM 09/02 A3012 RMK T00900020 IEM_DS3505
ZHCC,2009-03-22 21:00,ZHCC 222100Z AUTO 09004KT 6SM 10/M00 A3021 RMK 70000 SLP236 T01041001 57006 IEM_DS3505
ZHCC,2009-03-22 22:00,ZHCC 222200Z AUTO 02004KT 3SM 08/03 A3018 RMK T00800030 IEM_DS3505
ZHCC,2009-03-22 23:00,ZHCC 222300Z AUTO 00000KT 2 1/2SM 08/04 A3021 RMK T00800040 IEM_DS3505
ZHCC,2009-03-23 00:00,ZHCC 230000Z AUTO 16004KT 6SM 09/02 A3021 RMK 60001 70001 SLP236 T00910024 57001 IEM_DS3505
ZHCC,2009-03-23 01:00,ZHCC 230100Z AUTO 17004KT 3SM 08/05 A3024 RMK T00800050 IEM_DS3505
ZHCC,2009-03-23 02:00,ZHCC 230200Z AUTO 17006KT 3SM 09/06 A3021 RMK T00900060 IEM_DS3505
ZHCC,2009-03-23 03:00,ZHCC 230300Z AUTO 18008KT 7SM 12/04 A3021 RMK SLP238 T01150040 52003 IEM_DS3505
ZHCC,2009-03-23 04:00,ZHCC 230400Z AUTO 18008KT 3SM 11/07 A3018 RMK T01100070 IEM_DS3505
ZHCC,2009-03-23 05:00,ZHCC 230500Z AUTO 19008KT 3SM 12/07 A3015 RMK T01200070 IEM_DS3505
ZHCC,2009-03-23 06:00,ZHCC 230600Z AUTO 16008KT 7SM 14/06 A3012 RMK SLP200 T01450061 57037 IEM_DS3505
ZHCC,2009-03-23 07:00,ZHCC 230700Z AUTO 18008KT 2 1/2SM 14/08 A3009 RMK T01400080 IEM_DS3505
ZHCC,2009-03-23 08:00,ZHCC 230800Z AUTO 17010KT 2 1/2SM 13/07 A3006 RMK T01300070 IEM_DS3505
ZHCC,2009-03-23 09:00,ZHCC 230900Z AUTO 16010KT 6SM 14/06 A3006 RMK SLP181 T01410060 57019 IEM_DS3505
ZHCC,2009-03-23 10:00,ZHCC 231000Z AUTO 18010KT 2 1/2SM 12/08 A3006 RMK T01200080 IEM_DS3505
ZHCC,2009-03-23 11:00,ZHCC 231100Z AUTO 18008KT 2SM 11/07 A3006 RMK T01100070 IEM_DS3505
ZHCC,2009-03-23 12:00,ZHCC 231200Z AUTO 16012KT 6SM 11/06 A3006 RMK SLP188 T01100064 52006 IEM_DS3505
ZHCC,2009-03-23 13:00,ZHCC 231300Z AUTO 18008KT 2SM 09/06 A3009 RMK T00900060 IEM_DS3505
ZHCC,2009-03-23 14:00,ZHCC 231400Z AUTO 18008KT 2SM 08/06 A3009 RMK T00800060 IEM_DS3505
ZHCC,2009-03-23 15:00,ZHCC 231500Z AUTO 16008KT 5SM 09/06 A3006 RMK SLP187 T00930060 57001 IEM_DS3505
ZHCC,2009-03-23 16:00,ZHCC 231600Z AUTO 19008KT 1 1/2SM 08/06 A3003 RMK T00800060 IEM_DS3505
ZHCC,2009-03-23 17:00,ZHCC 231700Z AUTO 19010KT 1SM 07/05 A3000 RMK T00700050 IEM_DS3505
ZHCC,2009-03-23 18:00,ZHCC 231800Z AUTO 16010KT 5SM 08/06 A2994 RMK SLP153 T00800055 57033 IEM_DS3505
ZHCC,2009-03-23 19:00,ZHCC 231900Z AUTO 19006KT 1SM 06/04 A2994 RMK T00600040 IEM_DS3505
ZHCC,2009-03-23 20:00,ZHCC 232000Z AUTO 20008KT 1 1/4SM 06/04 A2994 RMK T00600040 IEM_DS3505
ZHCC,2009-03-23 21:00,ZHCC 232100Z AUTO 16004KT 4SM 07/05 A2997 RMK 70001 SLP162 T00670047 52008 IEM_DS3505
ZHCC,2009-03-23 22:00,ZHCC 232200Z AUTO 16006KT 2SM 06/04 A2997 RMK T00600040 IEM_DS3505
ZHCC,2009-03-23 23:00,ZHCC 232300Z AUTO 17006KT 2SM 05/04 A2997 RMK T00500040 IEM_DS3505
ZHCC,2009-03-24 00:00,ZHCC 240000Z AUTO 36002KT 2 1/2SM 08/06 A3000 RMK SLP173 T00840055 52011 IEM_DS3505
ZHCC,2009-03-24 01:00,ZHCC 240100Z AUTO 02006KT 1 1/4SM 08/07 A3006 RMK T00800070 IEM_DS3505
ZHCC,2009-03-24 02:00,ZHCC 240200Z AUTO 04019KT 1SM 06/04 A3009 RMK T00600040 IEM_DS3505
ZHCC,2009-03-24 03:00,ZHCC 240300Z AUTO 04016KT 4SM 06/00 A3012 RMK SLP222 T00650000 52047 IEM_DS3505
ZHCC,2009-03-24 04:00,ZHCC 240400Z AUTO 03017KT 1 1/4SM 07/02 A3015 RMK T00700020 IEM_DS3505
ZHCC,2009-03-24 06:00,ZHCC 240600Z AUTO 04014G27KT 6SM 07/M01 A3015 RMK SLP232 T00731006 52010 IEM_DS3505
ZHCC,2009-03-24 07:00,ZHCC 240700Z AUTO 03019G33KT 2SM 07/01 A3018 RMK T00700010 IEM_DS3505
ZHCC,2009-03-24 08:00,ZHCC 240800Z AUTO 03019G29KT 2SM 07/01 A3021 RMK T00700010 IEM_DS3505
ZHCC,2009-03-24 09:00,ZHCC 240900Z AUTO 04008KT 6SM 07/M02 A3024 RMK SLP255 T00731019 52022 IEM_DS3505
ZHCC,2009-03-24 10:00,ZHCC 241000Z AUTO 05012KT 2SM 06/00 A3027 RMK T00600000 IEM_DS3505
ZHCC,2009-03-24 11:00,ZHCC 241100Z AUTO 04008KT 2SM 06/00 A3030 RMK T00600000 IEM_DS3505
ZHCC,2009-03-24 12:00,ZHCC 241200Z AUTO 07004KT 6SM 06/M02 A3033 RMK SLP283 T00581023 52028 IEM_DS3505
ZHCC,2009-03-24 13:00,ZHCC 241300Z AUTO 36002KT 2SM 04/M01 A3033 RMK T00401010 IEM_DS3505
ZHCC,2009-03-24 14:00,ZHCC 241400Z AUTO 27004KT 2SM 03/M01 A3036 RMK T00301010 IEM_DS3505
ZHCC,2009-03-24 15:00,ZHCC 241500Z AUTO 22002KT 6SM 04/M02 A3036 RMK SLP294 T00401020 52010 IEM_DS3505
ZHCC,2009-03-24 16:00,ZHCC 241600Z AUTO 23002KT 2SM 03/00 A3036 RMK T00300000 IEM_DS3505
ZHCC,2009-03-24 17:00,ZHCC 241700Z AUTO 1 1/2SM 03/00 A3036 RMK T00300000 IEM_DS3505
ZHCC,2009-03-24 18:00,ZHCC 241800Z AUTO 18002KT 6SM 05/M02 A3036 RMK SLP289 T00511020 57004 IEM_DS3505
ZHCC,2009-03-24 19:00,ZHCC 241900Z AUTO 22006KT 1 1/4SM 04/00 A3033 RMK T00400000 IEM_DS3505
ZHCC,2009-03-24 20:00,ZHCC 242000Z AUTO 19004KT 1SM 03/M01 A3030 RMK T00301010 IEM_DS3505
ZHCC,2009-03-24 21:00,ZHCC 242100Z AUTO 16004KT 6SM 04/M02 A3027 RMK SLP267 T00391021 57022 IEM_DS3505
ZHCC,2009-03-24 22:00,ZHCC 242200Z AUTO 16002KT 1 1/4SM 01/M02 A3027 RMK T00101020 IEM_DS3505
ZHCC,2009-03-24 23:00,ZHCC 242300Z AUTO 1SM 02/M01 A3030 RMK T00201010 IEM_DS3505
ZHCC,2009-03-25 00:00,ZHCC 250000Z AUTO 20004KT 6SM 05/M02 A3027 RMK SLP264 T00521015 57003 IEM_DS3505
ZHCC,2009-03-25 01:00,ZHCC 250100Z AUTO 21014KT 2 1/2SM 06/M02 A3024 RMK T00601020 IEM_DS3505
ZHCC,2009-03-25 02:00,ZHCC 250200Z AUTO 22014KT 2 1/2SM 09/M03 A3024 RMK T00901030 IEM_DS3505
ZHCC,2009-03-25 03:00,ZHCC 250300Z AUTO 20010KT 7SM 11/M05 A3021 RMK SLP235 T01141051 57028 IEM_DS3505
ZHCC,2009-03-25 04:00,ZHCC 250400Z AUTO 21014KT 2 1/2SM 11/M02 A3015 RMK T01101020 IEM_DS3505
ZHCC,2009-03-25 05:00,ZHCC 250500Z AUTO 21012KT 4SM 12/M01 A3012 RMK T01201010 IEM_DS3505
ZHCC,2009-03-25 06:00,ZHCC 250600Z AUTO 18010KT 9SM 15/M05 A3006 RMK SLP183 T01531046 57050 IEM_DS3505
ZHCC,2009-03-25 07:00,ZHCC 250700Z AUTO 19012KT 4SM 14/01 A3003 RMK T01400010 IEM_DS3505
ZHCC,2009-03-25 08:00,ZHCC 250800Z AUTO 19012KT 5SM 14/02 A3000 RMK T01400020 IEM_DS3505
ZHCC,2009-03-25 09:00,ZHCC 250900Z AUTO 18010KT 9SM 15/M00 A2997 RMK SLP153 T01491004 57030 IEM_DS3505
ZHCC,2009-03-25 10:00,ZHCC 251000Z AUTO 18006KT 5SM 13/03 A2994 RMK T01300030 IEM_DS3505
ZHCC,2009-03-25 11:00,ZHCC 251100Z AUTO 19006KT 5SM 12/02 A2994 RMK T01200020 IEM_DS3505
ZHCC,2009-03-25 12:00,ZHCC 251200Z AUTO 16006KT 8SM 13/00 A2994 RMK SLP152 T01260000 57001 IEM_DS3505
ZHCC,2009-03-25 13:00,ZHCC 251300Z AUTO 17004KT 4SM 10/04 A2997 RMK T01000040 IEM_DS3505
ZHCC,2009-03-25 14:00,ZHCC 251400Z AUTO 19006KT 4SM 11/04 A2997 RMK T01100040 IEM_DS3505
ZHCC,2009-03-25 15:00,ZHCC 251500Z AUTO 18002KT 7SM 11/02 A2997 RMK SLP158 T01080021 52007 IEM_DS3505
ZHCC,2009-03-25 16:00,ZHCC 251600Z AUTO 17004KT 3SM 09/04 A2997 RMK T00900040 IEM_DS3505
ZHCC,2009-03-25 17:00,ZHCC 251700Z AUTO 17004KT 1SM 08/04 A2997 RMK T00800040 IEM_DS3505
ZHCC,2009-03-25 18:00,ZHCC 251800Z AUTO 18002KT 6SM 08/03 A2997 RMK SLP154 T00810028 57004 IEM_DS3505
ZHCC,2009-03-25 19:00,ZHCC 251900Z AUTO 1SM 06/03 A2994 RMK T00600030 IEM_DS3505
ZHCC,2009-03-25 20:00,ZHCC 252000Z AUTO 19002KT 1SM 07/04 A2991 RMK T00700040 IEM_DS3505
ZHCC,2009-03-25 21:00,ZHCC 252100Z AUTO 27002KT 6SM 05/02 A2994 RMK SLP151 T00490019 57004 IEM_DS3505
ZHCC,2009-03-25 22:00,ZHCC 252200Z AUTO 00000KT 1 1/4SM 05/02 A2997 RMK T00500020 IEM_DS3505
ZHCC,2009-03-25 23:00,ZHCC 252300Z AUTO 30004KT 1SM 05/03 A3000 RMK T00500030 IEM_DS3505
ZHCC,2009-03-26 00:00,ZHCC 260000Z AUTO 27002KT 7SM 08/03 A3000 RMK SLP177 T00820031 52026 IEM_DS3505
ZHCC,2009-03-26 01:00,ZHCC 260100Z AUTO 36010KT 1 1/4SM 11/06 A3003 RMK T01100060 IEM_DS3505
ZHCC,2009-03-26 02:00,ZHCC 260200Z AUTO 03014KT 1 1/4SM 12/04 A3006 RMK T01200040 IEM_DS3505
ZHCC,2009-03-26 03:00,ZHCC 260300Z AUTO 04008KT 6SM 13/02 A3006 RMK SLP186 T01260019 52010 IEM_DS3505
ZHCC,2009-03-26 04:00,ZHCC 260400Z AUTO 04014KT 1 1/4SM 14/05 A3003 RMK T01400050 IEM_DS3505
ZHCC,2009-03-26 05:00,ZHCC 260500Z AUTO 04014KT 1 1/4SM 15/06 A3003 RMK T01500060 IEM_DS3505
ZHCC,2009-03-26 06:00,ZHCC 260600Z AUTO 02008KT 6SM 14/04 A3003 RMK SLP181 T01430043 57006 IEM_DS3505
ZHCC,2009-03-26 07:00,ZHCC 260700Z AUTO 04012KT 1 1/4SM 15/07 A3003 RMK T01500070 IEM_DS3505
ZHCC,2009-03-26 08:00,ZHCC 260800Z AUTO 04014KT 1 1/4SM 15/07 A3000 RMK T01500070 IEM_DS3505
ZHCC,2009-03-26 09:00,ZHCC 260900Z AUTO 07010KT 5SM 14/04 A3003 RMK SLP178 T01440044 57003 IEM_DS3505
ZHCC,2009-03-26 10:00,ZHCC 261000Z AUTO 04012KT 2SM 14/07 A3003 RMK T01400070 IEM_DS3505
ZHCC,2009-03-26 11:00,ZHCC 261100Z AUTO 03008KT 1 1/4SM 13/07 A3003 RMK T01300070 IEM_DS3505
ZHCC,2009-03-26 12:00,ZHCC 261200Z AUTO 04008KT 5SM 13/04 A3006 RMK SLP196 T01310040 52018 IEM_DS3505
ZHCC,2009-03-26 13:00,ZHCC 261300Z AUTO 03008KT 1 1/4SM 12/06 A3006 RMK T01200060 IEM_DS3505
ZHCC,2009-03-26 14:00,ZHCC 261400Z AUTO 04008KT 1 1/4SM 12/06 A3012 RMK T01200060 IEM_DS3505
ZHCC,2009-03-26 15:00,ZHCC 261500Z AUTO 04008KT 6SM 13/02 A3015 RMK SLP218 T01260022 52023 IEM_DS3505
ZHCC,2009-03-26 16:00,ZHCC 261600Z AUTO 05006KT 1 1/4SM 12/05 A3015 RMK T01200050 IEM_DS3505
ZHCC,2009-03-26 17:00,ZHCC 261700Z AUTO 03006KT 1 1/4SM 11/05 A3015 RMK T01100050 IEM_DS3505
ZHCC,2009-03-26 18:00,ZHCC 261800Z AUTO 04004KT 6SM 12/00 A3015 RMK SLP222 T01150000 52004 IEM_DS3505
ZHCC,2009-03-26 19:00,ZHCC 261900Z AUTO 03004KT 1 1/4SM 10/04 A3015 RMK T01000040 IEM_DS3505
ZHCC,2009-03-26 20:00,ZHCC 262000Z AUTO 04004KT 1 1/4SM 10/04 A3015 RMK T01000040 IEM_DS3505
ZHCC,2009-03-26 21:00,ZHCC 262100Z AUTO 07004KT 6SM 10/01 A3015 RMK SLP229 T01020011 52006 IEM_DS3505
ZHCC,2009-03-26 22:00,ZHCC 262200Z AUTO 06004KT 2SM 09/03 A3018 RMK T00900030 IEM_DS3505
ZHCC,2009-03-26 23:00,ZHCC 262300Z AUTO 04006KT 2 1/2SM 09/01 A3021 RMK T00900010 IEM_DS3505
ZHCC,2009-03-27 00:00,ZHCC 270000Z AUTO 07004KT 6SM 10/M03 A3021 RMK SLP249 T01011032 52020 IEM_DS3505
ZHCC,2009-03-27 01:00,ZHCC 270100Z AUTO 04006KT 6SM 10/M04 A3024 RMK T01001040 IEM_DS3505
ZHCC,2009-03-27 02:00,ZHCC 270200Z AUTO 04006KT 6SM 10/M04 A3027 RMK T01001040 IEM_DS3505
ZHCC,2009-03-27 03:00,ZHCC 270300Z AUTO 02002KT 8SM 11/M03 A3027 RMK SLP265 T01061031 52016 IEM_DS3505
ZHCC,2009-03-27 04:00,ZHCC 270400Z AUTO 03008KT 6SM 10/M01 A3027 RMK T01001010 IEM_DS3505
ZHCC,2009-03-27 05:00,ZHCC 270500Z AUTO 03008KT 6SM 11/M02 A3024 RMK T01101020 IEM_DS3505
ZHCC,2009-03-27 06:00,ZHCC 270600Z AUTO 04004KT 9SM 12/M05 A3024 RMK SLP248 T01221053 57017 IEM_DS3505
ZHCC,2009-03-27 07:00,ZHCC 270700Z AUTO 06008KT 6SM 12/M01 A3021 RMK T01201010 IEM_DS3505
ZHCC,2009-03-27 08:00,ZHCC 270800Z AUTO 04006KT 6SM 12/M02 A3021 RMK T01201020 IEM_DS3505
ZHCC,2009-03-27 09:00,ZHCC 270900Z AUTO 04004KT 9SM 12/M03 A3024 RMK SLP251 T01211029 52003 IEM_DS3505
ZHCC,2009-03-27 10:00,ZHCC 271000Z AUTO 36006KT 6SM 12/M01 A3024 RMK T01201010 IEM_DS3505
ZHCC,2009-03-27 11:00,ZHCC 271100Z AUTO 36006KT 4SM 11/00 A3024 RMK T01100000 IEM_DS3505
ZHCC,2009-03-27 12:00,ZHCC 271200Z AUTO 02002KT 8SM 12/M02 A3027 RMK SLP264 T01151020 52012 IEM_DS3505
ZHCC,2009-03-27 13:00,ZHCC 271300Z AUTO 35004KT 3SM 11/01 A3030 RMK T01100010 IEM_DS3505
ZHCC,2009-03-27 14:00,ZHCC 271400Z AUTO 35004KT 3SM 10/01 A3027 RMK T01000010 IEM_DS3505
ZHCC,2009-03-27 15:00,ZHCC 271500Z AUTO 29002KT 6SM 11/M01 A3027 RMK SLP267 T01071007 52003 IEM_DS3505
ZHCC,2009-03-27 16:00,ZHCC 271600Z AUTO 28002KT 3SM 09/01 A3027 RMK T00900010 IEM_DS3505
ZHCC,2009-03-27 17:00,ZHCC 271700Z AUTO 28004KT 1 1/4SM 08/02 A3027 RMK T00800020 IEM_DS3505
ZHCC,2009-03-27 18:00,ZHCC 271800Z AUTO 27002KT 6SM 09/M02 A3024 RMK SLP257 T00881016 57010 IEM_DS3505
ZHCC,2009-03-27 19:00,ZHCC 271900Z AUTO 32004KT 1 1/2SM 07/00 A3024 RMK T00700000 IEM_DS3505
ZHCC,2009-03-27 20:00,ZHCC 272000Z AUTO 32002KT 1 1/2SM 08/00 A3021 RMK T00800000 IEM_DS3505
ZHCC,2009-03-27 21:00,ZHCC 272100Z AUTO 25004KT 6SM 09/M02 A3021 RMK SLP240 T00921015 57017 IEM_DS3505
ZHCC,2009-03-27 22:00,ZHCC 272200Z AUTO 2SM 08/01 A3018 RMK T00800010 IEM_DS3505
ZHCC,2009-03-27 23:00,ZHCC 272300Z AUTO 18006KT 2SM 07/01 A3021 RMK T00700010 IEM_DS3505
ZHCC,2009-03-28 00:00,ZHCC 280000Z AUTO 20006KT 4SM 11/M01 A3021 RMK SLP239 T01111013 54000 IEM_DS3505
ZHCC,2009-03-28 01:00,ZHCC 280100Z AUTO 20006KT 2SM 10/04 A3021 RMK T01000040 IEM_DS3505
ZHCC,2009-03-28 02:00,ZHCC 280200Z AUTO 20006KT 2SM 10/04 A3018 RMK T01000040 IEM_DS3505
ZHCC,2009-03-28 03:00,ZHCC 280300Z AUTO 18006KT 4SM 14/M00 A3018 RMK SLP223 T01431002 57015 IEM_DS3505
ZHCC,2009-03-28 04:00,ZHCC 280400Z AUTO 20008KT 2SM 13/04 A3018 RMK T01300040 IEM_DS3505
ZHCC,2009-03-28 05:00,ZHCC 280500Z AUTO 19010KT 2SM 12/05 A3015 RMK T01200050 IEM_DS3505
ZHCC,2009-03-28 06:00,ZHCC 280600Z AUTO 18012KT 4SM 13/02 A3012 RMK SLP201 T01300025 57023 IEM_DS3505
ZHCC,2009-03-28 07:00,ZHCC 280700Z AUTO 19010KT 2SM 11/04 A3009 RMK T01100040 IEM_DS3505
ZHCC,2009-03-28 08:00,ZHCC 280800Z AUTO 20012KT 2SM 11/06 A3009 RMK T01100060 IEM_DS3505
ZHCC,2009-03-28 09:00,ZHCC 280900Z AUTO 16010KT 5SM 13/04 A3009 RMK SLP191 T01300037 57010 IEM_DS3505
ZHCC,2009-03-28 10:00,ZHCC 281000Z AUTO 19008KT 1 1/4SM 11/05 A3009 RMK T01100050 IEM_DS3505
ZHCC,2009-03-28 11:00,ZHCC 281100Z AUTO 18008KT 1 1/4SM 10/05 A3009 RMK T01000050 IEM_DS3505
ZHCC,2009-03-28 12:00,ZHCC 281200Z AUTO 18004KT 5SM 11/02 A3012 RMK SLP208 T01060022 52017 IEM_DS3505
ZHCC,2009-03-28 13:00,ZHCC 281300Z AUTO 18006KT 2SM 08/03 A3015 RMK T00800030 IEM_DS3505
ZHCC,2009-03-28 14:00,ZHCC 281400Z AUTO 18006KT 2SM 08/03 A3018 RMK T00800030 IEM_DS3505
ZHCC,2009-03-28 15:00,ZHCC 281500Z AUTO 16006KT 6SM 09/01 A3018 RMK SLP227 T00930010 52019 IEM_DS3505
ZHCC,2009-03-28 16:00,ZHCC 281600Z AUTO 19006KT 2SM 08/03 A3018 RMK T00800030 IEM_DS3505
ZHCC,2009-03-28 17:00,ZHCC 281700Z AUTO 20006KT 2SM 08/04 A3018 RMK T00800040 IEM_DS3505
ZHCC,2009-03-28 18:00,ZHCC 281800Z AUTO 14004KT 6SM 09/02 A3018 RMK SLP231 T00880017 52004 IEM_DS3505
ZHCC,2009-03-28 19:00,ZHCC 281900Z AUTO 07/03 A3018 RMK T00700030 IEM_DS3505
ZHCC,2009-03-28 20:00,ZHCC 282000Z AUTO 15002KT 1 1/4SM 06/03 A3018 RMK T00600030 IEM_DS3505
ZHCC,2009-03-28 21:00,ZHCC 282100Z AUTO 04006KT 6SM 08/02 A3021 RMK SLP241 T00790024 52009 IEM_DS3505
ZHCC,2009-03-28 22:00,ZHCC 282200Z AUTO 05006KT 1 1/4SM 06/04 A3021 RMK T00600040 IEM_DS3505
ZHCC,2009-03-28 23:00,ZHCC 282300Z AUTO 09004KT 2SM 06/03 A3024 RMK T00600030 IEM_DS3505
ZHCC,2009-03-29 00:00,ZHCC 290000Z AUTO 09006KT 6SM 08/02 A3024 RMK SLP258 T00760017 52016 IEM_DS3505
ZHCC,2009-03-29 01:00,ZHCC 290100Z AUTO 08004KT 3SM 09/05 A3027 RMK T00900050 IEM_DS3505
ZHCC,2009-03-29 02:00,ZHCC 290200Z AUTO 17004KT 4SM 11/05 A3027 RMK T01100050 IEM_DS3505
ZHCC,2009-03-29 03:00,ZHCC 290300Z AUTO 11008KT 6SM 12/02 A3024 RMK SLP247 T01200022 57010 IEM_DS3505
ZHCC,2009-03-29 04:00,ZHCC 290400Z AUTO 19008KT 4SM 13/05 A3021 RMK T01300050 IEM_DS3505
ZHCC,2009-03-29 05:00,ZHCC 290500Z AUTO 22010KT 4SM 14/04 A3018 RMK T01400040 IEM_DS3505
ZHCC,2009-03-29 06:00,ZHCC 290600Z AUTO 16012KT 10SM 16/02 A3015 RMK SLP215 T01600024 57030 IEM_DS3505
ZHCC,2009-03-29 07:00,ZHCC 290700Z AUTO 20010KT 4SM 15/05 A3015 RMK T01500050 IEM_DS3505
ZHCC,2009-03-29 08:00,ZHCC 290800Z AUTO 19010KT 4SM 14/05 A3012 RMK T01400050 IEM_DS3505
ZHCC,2009-03-29 09:00,ZHCC 290900Z AUTO 16012KT 9SM 15/04 A3012 RMK SLP200 T01460037 57016 IEM_DS3505
ZHCC,2009-03-29 10:00,ZHCC 291000Z AUTO 18008KT 4SM 13/05 A3012 RMK T01300050 IEM_DS3505
ZHCC,2009-03-29 11:00,ZHCC 291100Z AUTO 17006KT 4SM 12/05 A3012 RMK T01200050 IEM_DS3505
ZHCC,2009-03-29 12:00,ZHCC 291200Z AUTO 16010KT 7SM 12/04 A3012 RMK SLP210 T01210036 52009 IEM_DS3505
ZHCC,2009-03-29 13:00,ZHCC 291300Z AUTO 18004KT 3SM 10/05 A3015 RMK T01000050 IEM_DS3505
ZHCC,2009-03-29 14:00,ZHCC 291400Z AUTO 17004KT 3SM 09/05 A3018 RMK T00900050 IEM_DS3505
ZHCC,2009-03-29 15:00,ZHCC 291500Z AUTO 11006KT 7SM 10/04 A3018 RMK SLP232 T00990039 52023 IEM_DS3505
ZHCC,2009-03-29 16:00,ZHCC 291600Z AUTO 13002KT 4SM 07/04 A3021 RMK T00700040 IEM_DS3505
ZHCC,2009-03-29 17:00,ZHCC 291700Z AUTO 05006KT 1 1/4SM 07/04 A3021 RMK T00700040 IEM_DS3505
ZHCC,2009-03-29 18:00,ZHCC 291800Z AUTO 07006KT 7SM 07/M01 A3021 RMK SLP241 T00741008 52009 IEM_DS3505
ZHCC,2009-03-29 19:00,ZHCC 291900Z AUTO 05010KT 1 1/2SM 06/01 A3021 RMK T00600010 IEM_DS3505
ZHCC,2009-03-29 20:00,ZHCC 292000Z AUTO 05008KT 1 1/2SM 06/01 A3021 RMK T00600010 IEM_DS3505
ZHCC,2009-03-29 21:00,ZHCC 292100Z AUTO 04010KT 7SM 08/M01 A3018 RMK SLP239 T00791008 57002 IEM_DS3505
ZHCC,2009-03-29 22:00,ZHCC 292200Z AUTO 04010KT 6SM 07/02 A3021 RMK T00700020 IEM_DS3505
ZHCC,2009-03-29 23:00,ZHCC 292300Z AUTO 04010KT 2 1/2SM 07/02 A3024 RMK T00700020 IEM_DS3505
ZHCC,2009-03-30 00:00,ZHCC 300000Z AUTO 04004KT 6SM 07/M00 A3027 RMK SLP270 T00711001 52030 IEM_DS3505
ZHCC,2009-03-30 01:00,ZHCC 300100Z AUTO 04010KT 2SM 07/02 A3030 RMK T00700020 IEM_DS3505
ZHCC,2009-03-30 02:00,ZHCC 300200Z AUTO 04012KT 2SM 06/02 A3033 RMK T00600020 IEM_DS3505
ZHCC,2009-03-30 03:00,ZHCC 300300Z AUTO 02008KT 6SM 07/M00 A3033 RMK SLP284 T00711004 52013 IEM_DS3505
ZHCC,2009-03-30 04:00,ZHCC 300400Z AUTO 05014KT 2SM 07/02 A3033 RMK T00700020 IEM_DS3505
ZHCC,2009-03-30 05:00,ZHCC 300500Z AUTO 04012KT 2SM 08/02 A3030 RMK T00800020 IEM_DS3505
ZHCC,2009-03-30 06:00,ZHCC 300600Z AUTO 07012KT 6SM 10/M03 A3027 RMK SLP267 T00961030 57017 IEM_DS3505
ZHCC,2009-03-30 07:00,ZHCC 300700Z AUTO 06008KT 2SM 10/01 A3027 RMK T01000010 IEM_DS3505
ZHCC,2009-03-30 08:00,ZHCC 300800Z AUTO 07008KT 2SM 10/01 A3024 RMK T01000010 IEM_DS3505
ZHCC,2009-03-30 09:00,ZHCC 300900Z AUTO 07006KT 4SM 10/M01 A3024 RMK SLP246 T01041013 57020 IEM_DS3505
ZHCC,2009-03-30 11:00,ZHCC 301100Z AUTO 07006KT 2SM 08/00 A3027 RMK T00800000 IEM_DS3505
ZHCC,2009-03-30 12:00,ZHCC 301200Z AUTO 07004KT 4SM 09/M01 A3027 RMK SLP269 T00871009 52022 IEM_DS3505
ZHCC,2009-03-30 13:00,ZHCC 301300Z AUTO 2SM 06/01 A3030 RMK T00600010 IEM_DS3505
ZHCC,2009-03-30 14:00,ZHCC 301400Z AUTO 06004KT 2SM 06/01 A3033 RMK T00600010 IEM_DS3505
ZHCC,2009-03-30 15:00,ZHCC 301500Z AUTO 09006KT 4SM 07/M00 A3033 RMK SLP288 T00701002 52018 IEM_DS3505
ZHCC,2009-03-30 16:00,ZHCC 301600Z AUTO 06008KT 1 1/4SM 06/02 A3033 RMK T00600020 IEM_DS3505
ZHCC,2009-03-30 17:00,ZHCC 301700Z AUTO 08004KT 1 1/4SM 06/02 A3033 RMK T00600020 IEM_DS3505
ZHCC,2009-03-30 18:00,ZHCC 301800Z AUTO 07006KT 4SM 06/00 A3033 RMK SLP288 T00630002 54000 IEM_DS3505
ZHCC,2009-03-30 20:00,ZHCC 302000Z AUTO 1 1/4SM 05/01 A3033 RMK T00500010 IEM_DS3505
ZHCC,2009-03-30 21:00,ZHCC 302100Z AUTO 04004KT 3SM 06/00 A3036 RMK SLP295 T00560002 52007 IEM_DS3505
ZHCC,2009-03-30 22:00,ZHCC 302200Z AUTO 05008KT 1SM 04/02 A3036 RMK T00400020 IEM_DS3505
ZHCC,2009-03-30 23:00,ZHCC 302300Z AUTO 03004KT 1SM 04/02 A3039 RMK T00400020 IEM_DS3505
ZHCC,2009-03-31 00:00,ZHCC 310000Z AUTO 04002KT 4SM 05/00 A3042 RMK 60002 70002 SLP317 T00530003 52022 IEM_DS3505
ZHCC,2009-03-31 01:00,ZHCC 310100Z AUTO 04006KT 1 1/4SM 05/02 A3045 RMK T00500020 IEM_DS3505
ZHCC,2009-03-31 02:00,ZHCC 310200Z AUTO 05004KT 2SM 06/02 A3042 RMK T00600020 IEM_DS3505
ZHCC,2009-03-31 03:00,ZHCC 310300Z AUTO 02006KT 4SM 09/M02 A3042 RMK SLP315 T00911019 57002 IEM_DS3505
ZHCC,2009-03-31 04:00,ZHCC 310400Z AUTO 35006KT 2SM 10/M01 A3042 RMK T01001010 IEM_DS3505
ZHCC,2009-03-31 05:00,ZHCC 310500Z AUTO 05006KT 2SM 11/M02 A3039 RMK T01101020 IEM_DS3505
ZHCC,2009-03-31 06:00,ZHCC 310600Z AUTO 34004KT 6SM 11/M04 A3036 RMK 60000 SLP292 T01131044 57022 IEM_DS3505
ZHCC,2009-03-31 07:00,ZHCC 310700Z AUTO 2SM 11/M03 A3033 RMK T01101030 IEM_DS3505
ZHCC,2009-03-31 08:00,ZHCC 310800Z AUTO 05006KT 2SM 12/M03 A3033 RMK T01201030 IEM_DS3505
ZHCC,2009-03-31 09:00,ZHCC 310900Z AUTO 04004KT 6SM 12/M04 A3033 RMK SLP280 T01171040 57012 IEM_DS3505
ZHCC,2009-03-31 10:00,ZHCC 311000Z AUTO 13004KT 2SM 10/M01 A3033 RMK T01001010 IEM_DS3505
ZHCC,2009-03-31 11:00,ZHCC 311100Z AUTO 12006KT 2SM 08/M01 A3036 RMK T00801010 IEM_DS3505
ZHCC,2009-03-31 12:00,ZHCC 311200Z AUTO 07006KT 6SM 09/M02 A3039 RMK SLP303 T00941019 52022 IEM_DS3505
ZHCC,2009-03-31 13:00,ZHCC 311300Z AUTO 16002KT 2SM 08/M01 A3042 RMK T00801010 IEM_DS3505
ZHCC,2009-03-31 14:00,ZHCC 311400Z AUTO 17004KT 2SM 07/02 A3042 RMK T00700020 IEM_DS3505
ZHCC,2009-03-31 15:00,ZHCC 311500Z AUTO 09004KT 6SM 07/M01 A3045 RMK SLP321 T00731014 52018 IEM_DS3505
ZHCC,2009-03-31 16:00,ZHCC 311600Z AUTO 22002KT 1 1/2SM 06/03 A3045 RMK T00600030 IEM_DS3505
ZHCC,2009-03-31 17:00,ZHCC 311700Z AUTO 24002KT 1SM 04/01 A3045 RMK T00400010 IEM_DS3505
ZHCC,2009-03-31 18:00,ZHCC 311800Z AUTO 11002KT 4SM 05/02 A3045 RMK SLP325 T00490017 52004 IEM_DS3505
ZHCC,2009-03-31 19:00,ZHCC 311900Z AUTO 1SM 04/02 A3045 RMK T00400020 IEM_DS3505
ZHCC,2009-03-31 20:00,ZHCC 312000Z AUTO 00000KT 1/2SM 04/03 A3045 RMK T00400030 IEM_DS3505
ZHCC,2009-03-31 21:00,ZHCC 312100Z AUTO 07002KT 4SM 06/02 A3045 RMK 70002 SLP327 T00560021 52002 IEM_DS3505
ZHCC,2009-03-31 22:00,ZHCC 312200Z AUTO 1SM 04/03 A3047 RMK T00400030 IEM_DS3505
ZHCC,2009-03-31 23:00,ZHCC 312300Z AUTO 28002KT 1SM 05/03 A3047 RMK T00500030 IEM_DS3505
ZHCC,2009-04-01 00:00,ZHCC 010000Z AUTO 00000KT 3SM 08/02 A3050 RMK 70000 SLP342 T00800018 52015 IEM_DS3505
ZHCC,2009-04-01 01:00,ZHCC 010100Z AUTO 00000KT 1 1/4SM 08/05 A3050 RMK T00800050 IEM_DS3505
ZHCC,2009-04-01 02:00,ZHCC 010200Z AUTO 26002KT 1 1/2SM 10/03 A3050 RMK T01000030 IEM_DS3505
ZHCC,2009-04-01 03:00,ZHCC 010300Z AUTO 16006KT 6SM 12/M03 A3050 RMK SLP337 T01151027 57004 IEM_DS3505
ZHCC,2009-04-01 04:00,ZHCC 010400Z AUTO 23004KT 1 1/2SM 12/01 A3047 RMK T01200010 IEM_DS3505
ZHCC,2009-04-01 05:00,ZHCC 010500Z AUTO 12002KT 1 1/4SM 12/01 A3045 RMK T01200010 IEM_DS3505
ZHCC,2009-04-01 06:00,ZHCC 010600Z AUTO 16002KT 8SM 14/M04 A3042 RMK SLP305 T01381035 57032 IEM_DS3505
ZHCC,2009-04-01 07:00,ZHCC 010700Z AUTO 24004KT 2SM 13/00 A3039 RMK T01300000 IEM_DS3505
ZHCC,2009-04-01 08:00,ZHCC 010800Z AUTO 17006KT 2SM 13/M02 A3036 RMK T01301020 IEM_DS3505
ZHCC,2009-04-01 09:00,ZHCC 010900Z AUTO 11006KT 8SM 14/M04 A3036 RMK SLP286 T01371036 57019 IEM_DS3505
ZHCC,2009-04-01 10:00,ZHCC 011000Z AUTO 17008KT 2SM 12/00 A3036 RMK T01200000 IEM_DS3505
ZHCC,2009-04-01 11:00,ZHCC 011100Z AUTO 17006KT 2SM 10/00 A3036 RMK T01000000 IEM_DS3505
ZHCC,2009-04-01 12:00,ZHCC 011200Z AUTO 14006KT 6SM 10/M01 A3036 RMK SLP292 T01051012 52006 IEM_DS3505
ZHCC,2009-04-01 13:00,ZHCC 011300Z AUTO 18006KT 2SM 08/01 A3039 RMK T00800010 IEM_DS3505
ZHCC,2009-04-01 14:00,ZHCC 011400Z AUTO 18004KT 2SM 07/01 A3039 RMK T00700010 IEM_DS3505
ZHCC,2009-04-01 15:00,ZHCC 011500Z AUTO 18004KT 6SM 08/M00 A3039 RMK SLP296 T00781004 52004 IEM_DS3505
ZHCC,2009-04-01 16:00,ZHCC 011600Z AUTO 18004KT 2SM 06/01 A3036 RMK T00600010 IEM_DS3505
ZHCC,2009-04-01 17:00,ZHCC 011700Z AUTO 18004KT 1 1/2SM 05/00 A3036 RMK T00500000 IEM_DS3505
ZHCC,2009-04-01 18:00,ZHCC 011800Z AUTO 16004KT 6SM 07/M01 A3033 RMK SLP283 T00661011 57012 IEM_DS3505
ZHCC,2009-04-01 19:00,ZHCC 011900Z AUTO 18004KT 1 1/2SM 04/00 A3030 RMK T00400000 IEM_DS3505
ZHCC,2009-04-01 20:00,ZHCC 012000Z AUTO 20004KT 1 1/4SM 04/00 A3030 RMK T00400000 IEM_DS3505
ZHCC,2009-04-01 21:00,ZHCC 012100Z AUTO 16002KT 6SM 04/M02 RMK SLP269 T00451015 57015 IEM_DS3505
ZHCC,2009-04-01 22:00,ZHCC 012200Z AUTO 17004KT 1 1/4SM 03/00 A3030 RMK T00300000 IEM_DS3505
ZHCC,2009-04-01 23:00,ZHCC 012300Z AUTO 17004KT 2SM 04/00 A3030 RMK T00400000 IEM_DS3505
ZHCC,2009-04-02 00:00,ZHCC 020000Z AUTO 16008KT 5SM 07/M01 A3030 RMK SLP269 T00731011 54000 IEM_DS3505
ZHCC,2009-04-02 01:00,ZHCC 020100Z AUTO 18006KT 2 1/2SM 08/01 A3030 RMK T00800010 IEM_DS3505
ZHCC,2009-04-02 02:00,ZHCC 020200Z AUTO 17008KT 2 1/2SM 09/01 A3030 RMK T00900010 IEM_DS3505
ZHCC,2009-04-02 03:00,ZHCC 020300Z AUTO 16006KT 7SM 10/M01 A3030 RMK SLP265 T00961012 57004 IEM_DS3505
ZHCC,2009-04-02 04:00,ZHCC 020400Z AUTO 16008KT 2 1/2SM 10/00 A3027 RMK T01000000 IEM_DS3505
ZHCC,2009-04-02 05:00,ZHCC 020500Z AUTO 16010KT 4SM 09/M01 A3024 RMK T00901010 IEM_DS3505
ZHCC,2009-04-02 06:00,ZHCC 020600Z AUTO 16010KT 9SM 10/M04 A3021 RMK SLP243 T00991037 57022 IEM_DS3505
ZHCC,2009-04-02 07:00,ZHCC 020700Z AUTO 20006KT 4SM 09/01 A3018 RMK T00900010 IEM_DS3505
ZHCC,2009-04-02 08:00,ZHCC 020800Z AUTO 18008KT 4SM 08/03 A3018 RMK T00800030 IEM_DS3505
ZHCC,2009-04-02 09:00,ZHCC 020900Z AUTO 18006KT 8SM 08/00 A3018 RMK SLP232 T00820004 57012 IEM_DS3505
ZHCC,2009-04-02 10:00,ZHCC 021000Z AUTO 19006KT 4SM 07/03 A3018 RMK T00700030 IEM_DS3505
ZHCC,2009-04-02 11:00,ZHCC 021100Z AUTO 20004KT 4SM 06/03 A3018 RMK T00600030 IEM_DS3505
ZHCC,2009-04-02 12:00,ZHCC 021200Z AUTO 16004KT 6SM 07/02 A3018 RMK 60000 SLP233 T00660023 52002 IEM_DS3505
ZHCC,2009-04-02 13:00,ZHCC 021300Z AUTO 18004KT 2SM 06/04 A3018 RMK T00600040 IEM_DS3505
ZHCC,2009-04-02 14:00,ZHCC 021400Z AUTO 18004KT 2SM 06/04 A3018 RMK T00600040 IEM_DS3505
ZHCC,2009-04-02 15:00,ZHCC 021500Z AUTO 16004KT 4SM 06/03 A3018 RMK SLP230 T00640030 57003 IEM_DS3505
ZHCC,2009-04-02 16:00,ZHCC 021600Z AUTO 20004KT 1 1/4SM 06/04 A3015 RMK T00600040 IEM_DS3505
ZHCC,2009-04-02 17:00,ZHCC 021700Z AUTO 1SM 06/04 A3015 RMK T00600040 IEM_DS3505
ZHCC,2009-04-02 18:00,ZHCC 021800Z AUTO 16002KT 4SM 06/03 A3012 RMK 60000 SLP209 T00650026 57020 IEM_DS3505
ZHCC,2009-04-02 19:00,ZHCC 021900Z AUTO 18002KT 1SM 06/04 A3009 RMK T00600040 IEM_DS3505
ZHCC,2009-04-02 20:00,ZHCC 022000Z AUTO 16002KT 1 1/2SM 05/04 A3009 RMK T00500040 IEM_DS3505
ZHCC,2009-04-02 21:00,ZHCC 022100Z AUTO 18002KT 3SM 06/03 A3009 RMK 70000 SLP201 T00610026 57009 IEM_DS3505
ZHCC,2009-04-02 22:00,ZHCC 022200Z AUTO 1SM 05/03 A3009 RMK T00500030 IEM_DS3505
ZHCC,2009-04-02 23:00,ZHCC 022300Z AUTO 18002KT 1SM 05/04 A3009 RMK T00500040 IEM_DS3505
ZHCC,2009-04-03 00:00,ZHCC 030000Z AUTO 25004KT 2SM 07/03 A3012 RMK 70000 SLP215 T00720029 52014 IEM_DS3505
ZHCC,2009-04-03 01:00,ZHCC 030100Z AUTO 26002KT 1 1/4SM 07/05 A3009 RMK T00700050 IEM_DS3505
ZHCC,2009-04-03 02:00,ZHCC 030200Z AUTO 25004KT 1 1/2SM 09/05 A3012 RMK T00900050 IEM_DS3505
ZHCC,2009-04-03 03:00,ZHCC 030300Z AUTO 25004KT 4SM 10/02 A3012 RMK SLP210 T01000021 57004 IEM_DS3505
ZHCC,2009-04-03 04:00,ZHCC 030400Z AUTO 1 1/2SM 10/05 A3009 RMK T01000050 IEM_DS3505
ZHCC,2009-04-03 05:00,ZHCC 030500Z AUTO 1 1/2SM 12/05 A3006 RMK T01200050 IEM_DS3505
ZHCC,2009-04-03 06:00,ZHCC 030600Z AUTO 36004KT 6SM 14/02 A3006 RMK SLP186 T01360025 57023 IEM_DS3505
ZHCC,2009-04-03 07:00,ZHCC 030700Z AUTO 2SM 13/06 A3003 RMK T01300060 IEM_DS3505
ZHCC,2009-04-03 08:00,ZHCC 030800Z AUTO 17006KT 2 1/2SM 13/06 A3003 RMK T01300060 IEM_DS3505
ZHCC,2009-04-03 09:00,ZHCC 030900Z AUTO 14006KT 7SM 15/03 A3003 RMK SLP170 T01470032 57016 IEM_DS3505
ZHCC,2009-04-03 10:00,ZHCC 031000Z AUTO 16006KT 2SM 12/06 A3003 RMK T01200060 IEM_DS3505
ZHCC,2009-04-03 11:00,ZHCC 031100Z AUTO 18004KT 1 1/4SM 11/06 A3006 RMK T01100060 IEM_DS3505
ZHCC,2009-04-03 12:00,ZHCC 031200Z AUTO 14002KT 6SM 11/05 A3006 RMK SLP194 T01110046 52023 IEM_DS3505
ZHCC,2009-04-03 13:00,ZHCC 031300Z AUTO 17004KT 1 1/4SM 09/05 A3009 RMK T00900050 IEM_DS3505
ZHCC,2009-04-03 14:00,ZHCC 031400Z AUTO 17004KT 1 1/4SM 08/05 A3012 RMK T00800050 IEM_DS3505
ZHCC,2009-04-03 15:00,ZHCC 031500Z AUTO 16006KT 5SM 09/05 A3012 RMK SLP211 T00890047 52017 IEM_DS3505
ZHCC,2009-04-03 16:00,ZHCC 031600Z AUTO 21004KT 1 1/4SM 08/05 A3012 RMK T00800050 IEM_DS3505
ZHCC,2009-04-03 17:00,ZHCC 031700Z AUTO 20004KT 1SM 07/05 A3012 RMK T00700050 IEM_DS3505
ZHCC,2009-04-03 18:00,ZHCC 031800Z AUTO 20002KT 4SM 08/05 A3012 RMK SLP208 T00810047 57002 IEM_DS3505
ZHCC,2009-04-03 19:00,ZHCC 031900Z AUTO 26002KT 1/2SM 07/05 A3009 RMK T00700050 IEM_DS3505
ZHCC,2009-04-03 20:00,ZHCC 032000Z AUTO 29002KT 1SM 06/05 A3009 RMK T00600050 IEM_DS3505
ZHCC,2009-04-03 21:00,ZHCC 032100Z AUTO 25002KT 4SM 07/04 A3009 RMK SLP201 T00670044 57007 IEM_DS3505
ZHCC,2009-04-03 22:00,ZHCC 032200Z AUTO 00000KT 1SM 07/05 A3009 RMK T00700050 IEM_DS3505
ZHCC,2009-04-03 23:00,ZHCC 032300Z AUTO 19004KT 1SM 07/05 A3012 RMK T00700050 IEM_DS3505
ZHCC,2009-04-04 00:00,ZHCC 040000Z AUTO 18004KT 2SM 10/06 A3015 RMK SLP220 T00970055 52019 IEM_DS3505
ZHCC,2009-04-04 01:00,ZHCC 040100Z AUTO 19006KT 1SM 09/07 A3018 RMK T00900070 IEM_DS3505
ZHCC,2009-04-04 02:00,ZHCC 040200Z AUTO 18006KT 1SM 11/09 A3018 RMK T01100090 IEM_DS3505
ZHCC,2009-04-04 03:00,ZHCC 040300Z AUTO 18004KT 4SM 15/05 A3018 RMK SLP222 T01540053 52002 IEM_DS3505
ZHCC,2009-04-04 04:00,ZHCC 040400Z AUTO 16004KT 1 1/4SM 15/08 A3015 RMK T01500080 IEM_DS3505
ZHCC,2009-04-04 05:00,ZHCC 040500Z AUTO 16004KT 1 1/4SM 16/09 A3012 RMK T01600090 IEM_DS3505
ZHCC,2009-04-04 06:00,ZHCC 040600Z AUTO 11004KT 4SM 20/05 A3009 RMK SLP198 T01960053 57023 IEM_DS3505
ZHCC,2009-04-04 07:00,ZHCC 040700Z AUTO 16004KT 1 1/4SM 17/09 A3009 RMK T01700090 IEM_DS3505
ZHCC,2009-04-04 08:00,ZHCC 040800Z AUTO 16006KT 1 1/4SM 17/09 A3009 RMK T01700090 IEM_DS3505
ZHCC,2009-04-04 09:00,ZHCC 040900Z AUTO 14006KT 6SM 18/06 A3009 RMK SLP195 T01820061 57003 IEM_DS3505
ZHCC,2009-04-04 10:00,ZHCC 041000Z AUTO 16004KT 1 1/4SM 16/09 A3012 RMK T01600090 IEM_DS3505
ZHCC,2009-04-04 11:00,ZHCC 041100Z AUTO 16004KT 1 1/4SM 14/09 A3012 RMK T01400090 IEM_DS3505
ZHCC,2009-04-04 12:00,ZHCC 041200Z AUTO 14006KT 4SM 14/08 A3015 RMK SLP215 T01450080 52019 IEM_DS3505
ZHCC,2009-04-04 13:00,ZHCC 041300Z AUTO 1 1/4SM 12/09 A3018 RMK T01200090 IEM_DS3505
ZHCC,2009-04-04 14:00,ZHCC 041400Z AUTO 19004KT 1 1/4SM 11/09 A3018 RMK T01100090 IEM_DS3505
ZHCC,2009-04-04 15:00,ZHCC 041500Z AUTO 16004KT 3SM 12/08 A3018 RMK SLP231 T01210076 52017 IEM_DS3505
ZHCC,2009-04-04 16:00,ZHCC 041600Z AUTO 20004KT 1SM 11/09 A3018 RMK T01100090 IEM_DS3505
ZHCC,2009-04-04 17:00,ZHCC 041700Z AUTO 20004KT 1/2SM 10/08 A3018 RMK T01000080 IEM_DS3505
ZHCC,2009-04-04 18:00,ZHCC 041800Z AUTO 18004KT 3SM 11/08 A3018 RMK SLP222 T01130076 57008 IEM_DS3505
ZHCC,2009-04-04 19:00,ZHCC 041900Z AUTO 19004KT 1/2SM 09/08 A3015 RMK T00900080 IEM_DS3505
ZHCC,2009-04-04 20:00,ZHCC 042000Z AUTO 1SM 08/06 A3015 RMK T00800060 IEM_DS3505
ZHCC,2009-04-04 21:00,ZHCC 042100Z AUTO 20002KT 2SM 09/07 A3015 RMK SLP218 T00910069 57005 IEM_DS3505
ZHCC,2009-04-04 22:00,ZHCC 042200Z AUTO 20002KT 1/8SM 07/05 A3015 RMK T00700050 IEM_DS3505
ZHCC,2009-04-04 23:00,ZHCC 042300Z AUTO 0SM 06/05 A3018 RMK T00600050 IEM_DS3505
ZHCC,2009-04-05 00:00,ZHCC 050000Z AUTO 11002KT 1 1/4SM 12/08 A3018 RMK SLP233 T01170080 52015 IEM_DS3505
ZHCC,2009-04-05 01:00,ZHCC 050100Z AUTO 00000KT 1/8SM 09/09 A3021 RMK T00900090 IEM_DS3505
ZHCC,2009-04-05 02:00,ZHCC 050200Z AUTO 1SM 13/12 A3021 RMK T01300120 IEM_DS3505
ZHCC,2009-04-05 03:00,ZHCC 050300Z AUTO 02004KT 2SM 19/08 A3021 RMK SLP231 T01880076 57001 IEM_DS3505
ZHCC,2009-04-05 04:00,ZHCC 050400Z AUTO 21004KT 1SM 18/12 A3018 RMK T01800120 IEM_DS3505
ZHCC,2009-04-05 05:00,ZHCC 050500Z AUTO 09004KT 1 1/4SM 19/10 A3015 RMK T01900100 IEM_DS3505
ZHCC,2009-04-05 06:00,ZHCC 050600Z AUTO 09004KT 2 1/2SM 21/07 A3012 RMK SLP201 T02130068 57029 IEM_DS3505
ZHCC,2009-04-05 07:00,ZHCC 050700Z AUTO 12004KT 1 1/4SM 20/10 A3009 RMK T02000100 IEM_DS3505
ZHCC,2009-04-05 08:00,ZHCC 050800Z AUTO 14006KT 1 1/4SM 20/11 A3009 RMK T02000110 IEM_DS3505
ZHCC,2009-04-05 09:00,ZHCC 050900Z AUTO 07006KT 2SM 21/06 A3009 RMK SLP190 T02060062 57012 IEM_DS3505
ZHCC,2009-04-05 10:00,ZHCC 051000Z AUTO 14008KT 1 1/4SM 18/11 A3009 RMK T01800110 IEM_DS3505
ZHCC,2009-04-05 11:00,ZHCC 051100Z AUTO 16006KT 1 1/4SM 16/11 A3009 RMK T01600110 IEM_DS3505
ZHCC,2009-04-05 12:00,ZHCC 051200Z AUTO 14006KT 2SM 17/10 A3012 RMK SLP204 T01690096 52014 IEM_DS3505
ZHCC,2009-04-05 13:00,ZHCC 051300Z AUTO 17006KT 2SM 14/10 A3012 RMK T01400100 IEM_DS3505
ZHCC,2009-04-05 14:00,ZHCC 051400Z AUTO 18004KT 2SM 13/10 A3015 RMK T01300100 IEM_DS3505
ZHCC,2009-04-05 15:00,ZHCC 051500Z AUTO 16002KT 3SM 14/09 A3012 RMK SLP209 T01390089 52005 IEM_DS3505
ZHCC,2009-04-05 16:00,ZHCC 051600Z AUTO 22004KT 2SM 12/09 A3012 RMK T01200090 IEM_DS3505
ZHCC,2009-04-05 17:00,ZHCC 051700Z AUTO 21006KT 1 1/4SM 12/09 A3009 RMK T01200090 IEM_DS3505
ZHCC,2009-04-05 18:00,ZHCC 051800Z AUTO 20004KT 2SM 11/08 A3009 RMK SLP200 T01110085 57008 IEM_DS3505
ZHCC,2009-04-05 19:00,ZHCC 051900Z AUTO 23004KT 1SM 09/07 A3009 RMK T00900070 IEM_DS3505
ZHCC,2009-04-05 20:00,ZHCC 052000Z AUTO 27004KT 1SM 09/07 A3006 RMK T00900070 IEM_DS3505
ZHCC,2009-04-05 21:00,ZHCC 052100Z AUTO 27002KT 1 1/4SM 12/09 A3006 RMK SLP191 T01190091 57009 IEM_DS3505
ZHCC,2009-04-05 22:00,ZHCC 052200Z AUTO 30006KT 1SM 10/08 A3006 RMK T01000080 IEM_DS3505
ZHCC,2009-04-05 23:00,ZHCC 052300Z AUTO 00000KT 1SM 11/10 A3009 RMK T01100100 IEM_DS3505
ZHCC,2009-04-06 00:00,ZHCC 060000Z AUTO 27004KT 1SM 14/09 A3009 RMK SLP197 T01410093 52005 IEM_DS3505
ZHCC,2009-04-06 01:00,ZHCC 060100Z AUTO 33010KT 1SM 17/12 A3009 RMK T01700120 IEM_DS3505
ZHCC,2009-04-06 02:00,ZHCC 060200Z AUTO 35008KT 1SM 20/09 A3009 RMK T02000090 IEM_DS3505
ZHCC,2009-04-06 03:00,ZHCC 060300Z AUTO 29004KT 2SM 21/06 A3006 RMK SLP184 T02130056 57012 IEM_DS3505
ZHCC,2009-04-06 04:00,ZHCC 060400Z AUTO 1 1/4SM 22/07 A3006 RMK T02200070 IEM_DS3505
ZHCC,2009-04-06 05:00,ZHCC 060500Z AUTO 23002KT 2SM 24/03 A3003 RMK T02400030 IEM_DS3505
ZHCC,2009-04-06 06:00,ZHCC 060600Z AUTO 11006KT 5SM 25/ A3000 RMK SLP158 57025 IEM_DS3505
ZHCC,2009-04-06 07:00,ZHCC 060700Z AUTO 18004KT 2SM 24/04 A2997 RMK T02400040 IEM_DS3505
ZHCC,2009-04-06 08:00,ZHCC 060800Z AUTO 24006KT 2 1/2SM 24/01 A2994 RMK T02400010 IEM_DS3505
ZHCC,2009-04-06 09:00,ZHCC 060900Z AUTO 16004KT 7SM 24/M00 A2994 RMK SLP137 T02381005 57021 IEM_DS3505
ZHCC,2009-04-06 10:00,ZHCC 061000Z AUTO 18008KT 2 1/2SM 22/06 A2994 RMK T02200060 IEM_DS3505
ZHCC,2009-04-06 11:00,ZHCC 061100Z AUTO 18006KT 2SM 19/07 A2994 RMK T01900070 IEM_DS3505
ZHCC,2009-04-06 12:00,ZHCC 061200Z AUTO 16004KT 7SM 19/02 A2997 RMK SLP149 T01880022 52011 IEM_DS3505
ZHCC,2009-04-06 13:00,ZHCC 061300Z AUTO 17004KT 2 1/2SM 17/05 A2997 RMK T01700050 IEM_DS3505
ZHCC,2009-04-06 14:00,ZHCC 061400Z AUTO 18004KT 3SM 16/05 A2997 RMK T01600050 IEM_DS3505
ZHCC,2009-04-06 15:00,ZHCC 061500Z AUTO 16002KT 7SM 16/01 A2997 RMK SLP155 T01550013 52007 IEM_DS3505
ZHCC,2009-04-06 16:00,ZHCC 061600Z AUTO 20004KT 5SM 16/06 A2997 RMK T01600060 IEM_DS3505
ZHCC,2009-04-06 17:00,ZHCC 061700Z AUTO 18004KT 1 1/2SM 15/08 A2997 RMK T01500080 IEM_DS3505
ZHCC,2009-04-06 18:00,ZHCC 061800Z AUTO 14002KT 6SM 13/03 A2994 RMK SLP144 T01340032 57010 IEM_DS3505
ZHCC,2009-04-06 19:00,ZHCC 061900Z AUTO 18004KT 1 1/4SM 14/06 A2991 RMK T01400060 IEM_DS3505
ZHCC,2009-04-06 20:00,ZHCC 062000Z AUTO 3SM 12/06 A2991 RMK T01200060 IEM_DS3505
ZHCC,2009-04-06 21:00,ZHCC 062100Z AUTO 18002KT 6SM 11/04 A2991 RMK SLP138 T01120037 57007 IEM_DS3505
ZHCC,2009-04-06 22:00,ZHCC 062200Z AUTO 18004KT 2SM 11/07 A2994 RMK T01100070 IEM_DS3505
ZHCC,2009-04-06 23:00,ZHCC 062300Z AUTO 19004KT 2SM 12/07 A2994 RMK T01200070 IEM_DS3505
ZHCC,2009-04-07 00:00,ZHCC 070000Z AUTO 16002KT 6SM 16/06 A2997 RMK SLP150 T01550062 52012 IEM_DS3505
ZHCC,2009-04-07 01:00,ZHCC 070100Z AUTO 17006KT 2SM 17/10 A2997 RMK T01700100 IEM_DS3505
ZHCC,2009-04-07 02:00,ZHCC 070200Z AUTO 18010KT 2SM 19/07 A2997 RMK T01900070 IEM_DS3505
ZHCC,2009-04-07 03:00,ZHCC 070300Z AUTO 16006G21KT 6SM 22/06 A2997 RMK SLP151 T02230065 52001 IEM_DS3505
ZHCC,2009-04-07 04:00,ZHCC 070400Z AUTO 20010KT 4SM 22/06 A2997 RMK T02200060 IEM_DS3505
ZHCC,2009-04-07 05:00,ZHCC 070500Z AUTO 18008KT 4SM 23/06 A2994 RMK T02300060 IEM_DS3505
ZHCC,2009-04-07 06:00,ZHCC 070600Z AUTO 14008KT 7SM 25/04 A2991 RMK SLP130 T02460038 57020 IEM_DS3505
ZHCC,2009-04-07 07:00,ZHCC 070700Z AUTO 17008KT 4SM 23/06 A2991 RMK T02300060 IEM_DS3505
ZHCC,2009-04-07 08:00,ZHCC 070800Z AUTO 17008KT 4SM 23/06 A2988 RMK T02300060 IEM_DS3505
ZHCC,2009-04-07 09:00,ZHCC 070900Z AUTO 16010KT 7SM 23/04 A2988 RMK SLP123 T02300040 57008 IEM_DS3505
ZHCC,2009-04-07 10:00,ZHCC 071000Z AUTO 15008KT 4SM 21/07 A2991 RMK T02100070 IEM_DS3505
ZHCC,2009-04-07 11:00,ZHCC 071100Z AUTO 15004KT 4SM 19/08 A2991 RMK T01900080 IEM_DS3505
ZHCC,2009-04-07 12:00,ZHCC 071200Z AUTO 14004KT 7SM 19/06 A2994 RMK SLP140 T01940062 52017 IEM_DS3505
ZHCC,2009-04-07 13:00,ZHCC 071300Z AUTO 14002KT 4SM 16/09 A2997 RMK T01600090 IEM_DS3505
ZHCC,2009-04-07 14:00,ZHCC 071400Z AUTO 14004KT 4SM 15/09 A2997 RMK T01500090 IEM_DS3505
ZHCC,2009-04-07 15:00,ZHCC 071500Z AUTO 14004KT 7SM 17/08 A2997 RMK SLP158 T01740077 52019 IEM_DS3505
ZHCC,2009-04-07 16:00,ZHCC 071600Z AUTO 3SM 15/09 A3000 RMK T01500090 IEM_DS3505
ZHCC,2009-04-07 17:00,ZHCC 071700Z AUTO 1 1/2SM 15/09 A3000 RMK T01500090 IEM_DS3505
ZHCC,2009-04-07 18:00,ZHCC 071800Z AUTO 14004KT 7SM 15/07 A3000 RMK SLP161 T01530073 52003 IEM_DS3505
ZHCC,2009-04-07 19:00,ZHCC 071900Z AUTO 17004KT 1 1/4SM 13/08 A3000 RMK T01300080 IEM_DS3505
ZHCC,2009-04-07 20:00,ZHCC 072000Z AUTO 17004KT 1 1/4SM 12/08 A3000 RMK T01200080 IEM_DS3505
ZHCC,2009-04-07 21:00,ZHCC 072100Z AUTO 16006KT 7SM 13/08 A3000 RMK SLP168 T01330075 52006 IEM_DS3505
ZHCC,2009-04-07 22:00,ZHCC 072200Z AUTO 18004KT 1SM 12/08 A3003 RMK T01200080 IEM_DS3505
ZHCC,2009-04-07 23:00,ZHCC 072300Z AUTO 1SM 13/09 A3006 RMK T01300090 IEM_DS3505
ZHCC,2009-04-08 00:00,ZHCC 080000Z AUTO 16004KT 5SM 16/09 A3009 RMK SLP190 T01590086 52021 IEM_DS3505
ZHCC,2009-04-08 01:00,ZHCC 080100Z AUTO 18004KT 1 1/4SM 17/11 A3009 RMK T01700110 IEM_DS3505
ZHCC,2009-04-08 02:00,ZHCC 080200Z AUTO 18006KT 2SM 20/10 A3012 RMK T02000100 IEM_DS3505
ZHCC,2009-04-08 03:00,ZHCC 080300Z AUTO 14008KT 6SM 23/08 A3009 RMK SLP192 T02290075 52003 IEM_DS3505
ZHCC,2009-04-08 04:00,ZHCC 080400Z AUTO 19008KT 2SM 23/08 A3009 RMK T02300080 IEM_DS3505
ZHCC,2009-04-08 05:00,ZHCC 080500Z AUTO 18008KT 2SM 24/09 A3006 RMK T02400090 IEM_DS3505
ZHCC,2009-04-08 06:00,ZHCC 080600Z AUTO 16010KT 7SM 25/05 A3006 RMK SLP178 T02460054 57013 IEM_DS3505
ZHCC,2009-04-08 07:00,ZHCC 080700Z AUTO 17008KT 2 1/2SM 24/08 A3003 RMK T02400080 IEM_DS3505
ZHCC,2009-04-08 08:00,ZHCC 080800Z AUTO 15010KT 2 1/2SM 24/09 A3003 RMK T02400090 IEM_DS3505
ZHCC,2009-04-08 09:00,ZHCC 080900Z AUTO 16008KT 9SM 24/05 A3003 RMK SLP168 T02420046 57011 IEM_DS3505
ZHCC,2009-04-08 10:00,ZHCC 081000Z AUTO 15006KT 2 1/2SM 22/07 A3003 RMK T02200070 IEM_DS3505
ZHCC,2009-04-08 11:00,ZHCC 081100Z AUTO 14004KT 2 1/2SM 20/08 A3006 RMK T02000080 IEM_DS3505
ZHCC,2009-04-08 12:00,ZHCC 081200Z AUTO 14004KT 7SM 20/05 A3009 RMK SLP189 T02030051 52021 IEM_DS3505
ZHCC,2009-04-08 13:00,ZHCC 081300Z AUTO 14004KT 2SM 18/08 A3012 RMK T01800080 IEM_DS3505
ZHCC,2009-04-08 14:00,ZHCC 081400Z AUTO 13004KT 2SM 16/08 A3012 RMK T01600080 IEM_DS3505
ZHCC,2009-04-08 15:00,ZHCC 081500Z AUTO 11004KT 7SM 17/07 A3012 RMK SLP203 T01730071 52014 IEM_DS3505
ZHCC,2009-04-08 16:00,ZHCC 081600Z AUTO 2SM 16/08 A3012 RMK T01600080 IEM_DS3505
ZHCC,2009-04-08 17:00,ZHCC 081700Z AUTO 14002KT 1 1/2SM 13/07 A3012 RMK T01300070 IEM_DS3505
ZHCC,2009-04-08 18:00,ZHCC 081800Z AUTO 16004KT 7SM 16/06 A3012 RMK SLP207 T01550065 52004 IEM_DS3505
ZHCC,2009-04-08 19:00,ZHCC 081900Z AUTO 00000KT 1 1/2SM 11/06 A3012 RMK T01100060 IEM_DS3505
ZHCC,2009-04-08 20:00,ZHCC 082000Z AUTO 15002KT 1 1/2SM 10/07 A3012 RMK T01000070 IEM_DS3505
ZHCC,2009-04-08 21:00,ZHCC 082100Z AUTO 11004KT 7SM 13/05 A3012 RMK SLP203 T01300052 57004 IEM_DS3505
ZHCC,2009-04-08 22:00,ZHCC 082200Z AUTO 16002KT 2SM 09/06 A3012 RMK T00900060 IEM_DS3505
ZHCC,2009-04-08 23:00,ZHCC 082300Z AUTO 17002KT 2SM 11/08 A3015 RMK T01100080 IEM_DS3505
ZHCC,2009-04-09 00:00,ZHCC 090000Z AUTO 09004KT 6SM 16/05 A3015 RMK SLP215 T01600053 52011 IEM_DS3505
ZHCC,2009-04-09 01:00,ZHCC 090100Z AUTO 16006KT 2SM 17/07 A3015 RMK T01700070 IEM_DS3505
ZHCC,2009-04-09 02:00,ZHCC 090200Z AUTO 15010KT 3SM 18/06 A3015 RMK T01800060 IEM_DS3505
ZHCC,2009-04-09 03:00,ZHCC 090300Z AUTO 18010KT 7SM 22/04 A3012 RMK SLP204 T02150041 57010 IEM_DS3505
ZHCC,2009-04-09 04:00,ZHCC 090400Z AUTO 17010KT 5SM 22/06 A3012 RMK T02200060 IEM_DS3505
ZHCC,2009-04-09 05:00,ZHCC 090500Z AUTO 15010KT 5SM 23/07 A3009 RMK T02300070 IEM_DS3505
ZHCC,2009-04-09 06:00,ZHCC 090600Z AUTO 14008KT 9SM 24/02 A3006 RMK SLP181 T02420018 57023 IEM_DS3505
ZHCC,2009-04-09 07:00,ZHCC 090700Z AUTO 13010KT 6SM 24/05 A3003 RMK T02400050 IEM_DS3505
ZHCC,2009-04-09 08:00,ZHCC 090800Z AUTO 15010KT 6SM 23/05 A3003 RMK T02300050 IEM_DS3505
ZHCC,2009-04-09 09:00,ZHCC 090900Z AUTO 14010KT 11SM 24/M00 A3000 RMK SLP163 T02381005 57018 IEM_DS3505
ZHCC,2009-04-09 10:00,ZHCC 091000Z AUTO 14010KT 6SM 22/04 A3000 RMK T02200040 IEM_DS3505
ZHCC,2009-04-09 11:00,ZHCC 091100Z AUTO 14006KT 6SM 20/03 A3000 RMK T02000030 IEM_DS3505
ZHCC,2009-04-09 12:00,ZHCC 091200Z AUTO 14004KT 10SM 20/01 A3003 RMK SLP171 T02030007 52008 IEM_DS3505
ZHCC,2009-04-09 13:00,ZHCC 091300Z AUTO 12006KT 6SM 15/03 A3006 RMK T01500030 IEM_DS3505
ZHCC,2009-04-09 14:00,ZHCC 091400Z AUTO 13006KT 6SM 16/05 A3006 RMK T01600050 IEM_DS3505
ZHCC,2009-04-09 15:00,ZHCC 091500Z AUTO 14004KT 10SM 17/02 A3006 RMK SLP184 T01690025 52013 IEM_DS3505
ZHCC,2009-04-09 16:00,ZHCC 091600Z AUTO 00000KT 6SM 13/04 A3006 RMK T01300040 IEM_DS3505
ZHCC,2009-04-09 17:00,ZHCC 091700Z AUTO 13002KT 6SM 12/06 A3003 RMK T01200060 IEM_DS3505
ZHCC,2009-04-09 18:00,ZHCC 091800Z AUTO 00000KT 1 1/2SM 11/05 A3003 RMK T01100050 IEM_DS3505
ZHCC,2009-04-09 19:00,ZHCC 091900Z AUTO 14002KT 1 1/2SM 11/05 A3000 RMK T01100050 IEM_DS3505
ZHCC,2009-04-09 20:00,ZHCC 092000Z AUTO 6SM 13/05 A3000 RMK T01300050 IEM_DS3505
ZHCC,2009-04-09 21:00,ZHCC 092100Z AUTO 09004KT 7SM 14/03 A3000 RMK SLP161 T01400029 57008 IEM_DS3505
ZHCC,2009-04-09 22:00,ZHCC 092200Z AUTO 4SM 11/05 A3000 RMK T01100050 IEM_DS3505
ZHCC,2009-04-09 23:00,ZHCC 092300Z AUTO 14004KT 4SM 12/05 A3000 RMK T01200050 IEM_DS3505
ZHCC,2009-04-10 00:00,ZHCC 100000Z AUTO 09004KT 6SM 14/04 A3000 RMK SLP170 T01440035 52008 IEM_DS3505
ZHCC,2009-04-10 01:00,ZHCC 100100Z AUTO 16004KT 4SM 15/07 A3003 RMK T01500070 IEM_DS3505
ZHCC,2009-04-10 02:00,ZHCC 100200Z AUTO 17004KT 3SM 17/08 A3003 RMK T01700080 IEM_DS3505
ZHCC,2009-04-10 03:00,ZHCC 100300Z AUTO 16004KT 6SM 19/07 A3003 RMK SLP169 T01900071 54000 IEM_DS3505
ZHCC,2009-04-10 04:00,ZHCC 100400Z AUTO 17004KT 3SM 18/09 A3000 RMK T01800090 IEM_DS3505
ZHCC,2009-04-10 05:00,ZHCC 100500Z AUTO 18004KT 2SM 18/10 A3000 RMK T01800100 IEM_DS3505
ZHCC,2009-04-10 06:00,ZHCC 100600Z AUTO 18004KT 6SM 19/09 A3000 RMK 60000 SLP159 T01920094 57010 IEM_DS3505
ZHCC,2009-04-10 07:00,ZHCC 100700Z AUTO 14002KT 1 1/4SM 16/12 A2997 RMK T01600120 IEM_DS3505
ZHCC,2009-04-10 08:00,ZHCC 100800Z AUTO 1 1/4SM 17/11 A2997 RMK T01700110 IEM_DS3505
ZHCC,2009-04-10 09:00,ZHCC 100900Z AUTO 14004KT 6SM 19/10 A2994 RMK SLP138 T01910104 57021 IEM_DS3505
ZHCC,2009-04-10 10:00,ZHCC 101000Z AUTO 11004KT 1 1/4SM 17/12 A2994 RMK T01700120 IEM_DS3505
ZHCC,2009-04-10 11:00,ZHCC 101100Z AUTO 11002KT 1 1/4SM 16/12 A2994 RMK T01600120 IEM_DS3505
ZHCC,2009-04-10 12:00,ZHCC 101200Z AUTO 00000KT 6SM 18/10 A2994 RMK 60000 SLP151 T01780102 52012 IEM_DS3505
ZHCC,2009-04-10 13:00,ZHCC 101300Z AUTO 30002KT 1 1/4SM 16/12 A2997 RMK T01600120 IEM_DS3505
ZHCC,2009-04-10 14:00,ZHCC 101400Z AUTO 25002KT 1 1/4SM 16/12 A2997 RMK T01600120 IEM_DS3505
ZHCC,2009-04-10 15:00,ZHCC 101500Z AUTO 14002KT 6SM 18/10 A2997 RMK SLP151 T01770103 52001 IEM_DS3505
ZHCC,2009-04-10 16:00,ZHCC 101600Z AUTO 18002KT 1SM 16/12 A2997 RMK T01600120 IEM_DS3505
ZHCC,2009-04-10 17:00,ZHCC 101700Z AUTO 1SM 16/12 A2994 RMK T01600120 IEM_DS3505
ZHCC,2009-04-10 18:00,ZHCC 101800Z AUTO 29002KT 6SM 17/10 A2994 RMK SLP140 T01740103 57011 IEM_DS3505
ZHCC,2009-04-10 19:00,ZHCC 101900Z AUTO 00000KT 1SM 15/12 A2991 RMK T01500120 IEM_DS3505
ZHCC,2009-04-10 20:00,ZHCC 102000Z AUTO 09002KT 1 1/4SM 15/12 A2991 RMK T01500120 IEM_DS3505
ZHCC,2009-04-10 21:00,ZHCC 102100Z AUTO 29002KT 5SM 16/11 A2991 RMK 70000 SLP131 T01570107 57009 IEM_DS3505
ZHCC,2009-04-10 22:00,ZHCC 102200Z AUTO 29002KT 1SM 15/12 A2991 RMK T01500120 IEM_DS3505
ZHCC,2009-04-10 23:00,ZHCC 102300Z AUTO 31002KT 1SM 15/12 A2994 RMK T01500120 IEM_DS3505
ZHCC,2009-04-11 00:00,ZHCC 110000Z AUTO 32004KT 4SM 17/11 A2994 RMK 70000 SLP147 T01710109 52016 IEM_DS3505
ZHCC,2009-04-11 01:00,ZHCC 110100Z AUTO 35004KT 1SM 19/11 A2994 RMK T01900110 IEM_DS3505
ZHCC,2009-04-11 02:00,ZHCC 110200Z AUTO 01004KT 1SM 21/11 A2994 RMK T02100110 IEM_DS3505
ZHCC,2009-04-11 03:00,ZHCC 110300Z AUTO 34004KT 4SM 23/10 A2994 RMK SLP137 T02290097 57009 IEM_DS3505
ZHCC,2009-04-11 04:00,ZHCC 110400Z AUTO 1 1/4SM 24/12 A2991 RMK T02400120 IEM_DS3505
ZHCC,2009-04-11 05:00,ZHCC 110500Z AUTO 22004KT 1 1/4SM 24/12 A2988 RMK T02400120 IEM_DS3505
ZHCC,2009-04-11 06:00,ZHCC 110600Z AUTO 14002KT 6SM 26/10 A2985 RMK SLP111 T02590097 57025 IEM_DS3505
ZHCC,2009-04-11 07:00,ZHCC 110700Z AUTO 17008KT 1 1/2SM 24/14 A2985 RMK T02400140 IEM_DS3505
ZHCC,2009-04-11 08:00,ZHCC 110800Z AUTO 17008KT 1 1/2SM 24/14 A2985 RMK T02400140 IEM_DS3505
ZHCC,2009-04-11 09:00,ZHCC 110900Z AUTO 14006KT 7SM 24/13 A2985 RMK SLP105 T02450131 57006 IEM_DS3505
ZHCC,2009-04-11 10:00,ZHCC 111000Z AUTO 15004KT 1 1/2SM 22/15 A2985 RMK T02200150 IEM_DS3505
ZHCC,2009-04-11 11:00,ZHCC 111100Z AUTO 14004KT 1SM 20/15 A2988 RMK T02000150 IEM_DS3505
ZHCC,2009-04-11 12:00,ZHCC 111200Z AUTO 11004KT 7SM 21/15 A2991 RMK SLP127 T02140153 52021 IEM_DS3505
ZHCC,2009-04-11 13:00,ZHCC 111300Z AUTO 12004KT 1 1/4SM 17/13 A2994 RMK T01700130 IEM_DS3505
ZHCC,2009-04-11 14:00,ZHCC 111400Z AUTO 12004KT 1SM 16/13 A2994 RMK T01600130 IEM_DS3505
ZHCC,2009-04-11 15:00,ZHCC 111500Z AUTO 09004KT 5SM 18/14 A2994 RMK SLP146 T01820135 52019 IEM_DS3505
ZHCC,2009-04-11 16:00,ZHCC 111600Z AUTO 1SM 15/13 A2994 RMK T01500130 IEM_DS3505
ZHCC,2009-04-11 17:00,ZHCC 111700Z AUTO 18002KT 1SM 14/12 A2994 RMK T01400120 IEM_DS3505
ZHCC,2009-04-11 18:00,ZHCC 111800Z AUTO 11002KT 4SM 16/13 A2994 RMK SLP140 T01610132 57006 IEM_DS3505
ZHCC,2009-04-11 19:00,ZHCC 111900Z AUTO 00000KT 1SM 13/11 A2991 RMK T01300110 IEM_DS3505
ZHCC,2009-04-11 20:00,ZHCC 112000Z AUTO 01002KT 1SM 12/11 A2991 RMK T01200110 IEM_DS3505
ZHCC,2009-04-11 21:00,ZHCC 112100Z AUTO 09004KT 4SM 15/13 A2991 RMK SLP133 T01540127 57007 IEM_DS3505
ZHCC,2009-04-11 22:00,ZHCC 112200Z AUTO 14002KT 1/2SM 13/12 A2991 RMK T01300120 IEM_DS3505
ZHCC,2009-04-11 23:00,ZHCC 112300Z AUTO 00000KT 1/2SM 12/11 A2991 RMK T01200110 IEM_DS3505
ZHCC,2009-04-12 00:00,ZHCC 120000Z AUTO 00000KT 2SM 17/13 A2994 RMK SLP141 T01660133 52008 IEM_DS3505
ZHCC,2009-04-12 01:00,ZHCC 120100Z AUTO 24002KT 1SM 17/16 A2994 RMK T01700160 IEM_DS3505
ZHCC,2009-04-12 02:00,ZHCC 120200Z AUTO 20002KT 1SM 19/16 A2994 RMK T01900160 IEM_DS3505
ZHCC,2009-04-12 03:00,ZHCC 120300Z AUTO 18004KT 5SM 23/13 A2994 RMK SLP137 T02330132 57004 IEM_DS3505
ZHCC,2009-04-12 04:00,ZHCC 120400Z AUTO 09006KT 1 1/4SM 23/14 A2991 RMK T02300140 IEM_DS3505
ZHCC,2009-04-12 05:00,ZHCC 120500Z AUTO 1 1/4SM 24/13 A2988 RMK T02400130 IEM_DS3505
ZHCC,2009-04-12 06:00,ZHCC 120600Z AUTO 09004KT 6SM 26/11 A2985 RMK SLP109 T02560114 57027 IEM_DS3505
ZHCC,2009-04-12 07:00,ZHCC 120700Z AUTO 06006KT 1 1/2SM 25/12 A2983 RMK T02500120 IEM_DS3505
ZHCC,2009-04-12 08:00,ZHCC 120800Z AUTO 09006KT 1 1/2SM 25/10 A2980 RMK T02500100 IEM_DS3505
ZHCC,2009-04-12 09:00,ZHCC 120900Z AUTO 09004KT 6SM 25/11 A2980 RMK SLP083 T02540108 57026 IEM_DS3505
ZHCC,2009-04-12 10:00,ZHCC 121000Z AUTO 06004KT 1 1/2SM 24/10 A2977 RMK T02400100 IEM_DS3505
ZHCC,2009-04-12 11:00,ZHCC 121100Z AUTO 14004KT 1 1/2SM 22/14 A2977 RMK T02200140 IEM_DS3505
ZHCC,2009-04-12 12:00,ZHCC 121200Z AUTO 07002KT 6SM 21/12 A2980 RMK SLP087 T02140125 52003 IEM_DS3505
ZHCC,2009-04-12 13:00,ZHCC 121300Z AUTO 18002KT 1SM 18/13 A2980 RMK T01800130 IEM_DS3505
ZHCC,2009-04-12 14:00,ZHCC 121400Z AUTO 00000KT 1SM 17/14 A2980 RMK T01700140 IEM_DS3505
ZHCC,2009-04-12 15:00,ZHCC 121500Z AUTO 16002KT 6SM 18/13 A2980 RMK SLP086 T01800131 54000 IEM_DS3505
ZHCC,2009-04-12 16:00,ZHCC 121600Z AUTO 00000KT 1SM 16/13 A2977 RMK T01600130 IEM_DS3505
ZHCC,2009-04-12 17:00,ZHCC 121700Z AUTO 00000KT 1SM 15/13 A2977 RMK T01500130 IEM_DS3505
ZHCC,2009-04-12 18:00,ZHCC 121800Z AUTO 18002KT 4SM 16/13 A2974 RMK SLP071 T01640129 57015 IEM_DS3505
ZHCC,2009-04-12 19:00,ZHCC 121900Z AUTO 25002KT 1SM 14/12 A2974 RMK T01400120 IEM_DS3505
ZHCC,2009-04-12 20:00,ZHCC 122000Z AUTO 00000KT 1/2SM 14/13 A2971 RMK T01400130 IEM_DS3505
ZHCC,2009-04-12 21:00,ZHCC 122100Z AUTO 00000KT 4SM 15/12 A2971 RMK SLP057 T01530124 57014 IEM_DS3505
ZHCC,2009-04-12 22:00,ZHCC 122200Z AUTO 00000KT 1SM 14/12 A2971 RMK T01400120 IEM_DS3505
ZHCC,2009-04-12 23:00,ZHCC 122300Z AUTO 26002KT 1SM 15/14 A2971 RMK T01500140 IEM_DS3505
ZHCC,2009-04-13 00:00,ZHCC 130000Z AUTO 20004KT 2SM 19/12 A2971 RMK SLP062 T01870125 52005 IEM_DS3505
ZHCC,2009-04-13 01:00,ZHCC 130100Z AUTO 23002G14KT 1SM 20/15 A2971 RMK T02000150 IEM_DS3505
ZHCC,2009-04-13 02:00,ZHCC 130200Z AUTO 19004KT 1 1/4SM 22/16 A2971 RMK T02200160 IEM_DS3505
ZHCC,2009-04-13 03:00,ZHCC 130300Z AUTO 34002KT 2 1/2SM 26/13 A2971 RMK SLP053 T02620126 57008 IEM_DS3505
ZHCC,2009-04-13 04:00,ZHCC 130400Z AUTO 18004KT 1 1/4SM 25/15 A2968 RMK T02500150 IEM_DS3505
ZHCC,2009-04-13 05:00,ZHCC 130500Z AUTO 1 1/4SM 27/15 A2968 RMK T02700150 IEM_DS3505
ZHCC,2009-04-13 06:00,ZHCC 130600Z AUTO 07004KT 3SM 29/10 A2965 RMK SLP040 T02930099 57012 IEM_DS3505
ZHCC,2009-04-13 07:00,ZHCC 130700Z AUTO 1 1/4SM 28/13 A2965 RMK T02800130 IEM_DS3505
ZHCC,2009-04-13 08:00,ZHCC 130800Z AUTO 14004KT 1 1/4SM 28/15 A2965 RMK T02800150 IEM_DS3505
ZHCC,2009-04-13 09:00,ZHCC 130900Z AUTO 07004KT 6SM 29/10 A2965 RMK SLP037 T02860098 57004 IEM_DS3505
ZHCC,2009-04-13 10:00,ZHCC 131000Z AUTO 15004KT 1 1/4SM 25/15 A2968 RMK T02500150 IEM_DS3505
ZHCC,2009-04-13 11:00,ZHCC 131100Z AUTO 1 1/4SM 23/14 A2968 RMK T02300140 IEM_DS3505
ZHCC,2009-04-13 12:00,ZHCC 131200Z AUTO 14004KT 6SM 24/14 A2971 RMK SLP062 T02410142 52025 IEM_DS3505
ZHCC,2009-04-13 13:00,ZHCC 131300Z AUTO 17002KT 1 1/4SM 21/16 A2974 RMK T02100160 IEM_DS3505
ZHCC,2009-04-13 14:00,ZHCC 131400Z AUTO 1 1/4SM 21/16 A2977 RMK T02100160 IEM_DS3505
ZHCC,2009-04-13 15:00,ZHCC 131500Z AUTO 11002KT 5SM 22/15 A2977 RMK SLP074 T02150151 52013 IEM_DS3505
ZHCC,2009-04-13 16:00,ZHCC 131600Z AUTO 16002KT 1SM 19/15 A2977 RMK T01900150 IEM_DS3505
ZHCC,2009-04-13 17:00,ZHCC 131700Z AUTO 17002KT 1SM 18/14 A2977 RMK T01800140 IEM_DS3505
ZHCC,2009-04-13 18:00,ZHCC 131800Z AUTO 07002KT 5SM 18/15 A2974 RMK SLP075 T01810146 54000 IEM_DS3505
ZHCC,2009-04-13 19:00,ZHCC 131900Z AUTO 00000KT 1SM 16/14 A2977 RMK T01600140 IEM_DS3505
ZHCC,2009-04-13 20:00,ZHCC 132000Z AUTO 11004KT 1 1/4SM 16/14 A2977 RMK T01600140 IEM_DS3505
ZHCC,2009-04-13 21:00,ZHCC 132100Z AUTO 07004KT 2SM 18/15 A2977 RMK SLP080 T01760149 52005 IEM_DS3505
ZHCC,2009-04-13 22:00,ZHCC 132200Z AUTO 08002KT 1SM 15/13 A2977 RMK T01500130 IEM_DS3505
ZHCC,2009-04-13 23:00,ZHCC 132300Z AUTO 11002KT 1SM 15/14 A2980 RMK T01500140 IEM_DS3505
ZHCC,2009-04-14 00:00,ZHCC 140000Z AUTO 04006KT 1 1/4SM 18/15 A2980 RMK SLP097 T01770146 52016 IEM_DS3505
ZHCC,2009-04-14 01:00,ZHCC 140100Z AUTO 06008KT 1SM 18/16 A2983 RMK T01800160 IEM_DS3505
ZHCC,2009-04-14 02:00,ZHCC 140200Z AUTO 05008KT 1SM 19/16 A2983 RMK T01900160 IEM_DS3505
ZHCC,2009-04-14 03:00,ZHCC 140300Z AUTO 07008KT 2SM 20/13 A2983 RMK SLP097 T02030133 54000 IEM_DS3505
ZHCC,2009-04-14 04:00,ZHCC 140400Z AUTO 06008KT 1SM 22/16 A2980 RMK T02200160 IEM_DS3505
ZHCC,2009-04-14 05:00,ZHCC 140500Z AUTO 09008KT 1SM 23/16 A2974 RMK T02300160 IEM_DS3505
ZHCC,2009-04-14 06:00,ZHCC 140600Z AUTO 09008KT 3SM 24/15 A2974 RMK SLP062 T02410148 57034 IEM_DS3505
ZHCC,2009-04-14 07:00,ZHCC 140700Z AUTO 14008KT 1SM 26/19 A2968 RMK T02600190 IEM_DS3505
ZHCC,2009-04-14 08:00,ZHCC 140800Z AUTO 16006KT 1 1/4SM 26/17 A2968 RMK T02600170 IEM_DS3505
ZHCC,2009-04-14 09:00,ZHCC 140900Z AUTO 14008KT 6SM 27/15 A2965 RMK SLP035 T02690153 57027 IEM_DS3505
ZHCC,2009-04-14 10:00,ZHCC 141000Z AUTO 15008KT 1 1/4SM 25/18 A2965 RMK T02500180 IEM_DS3505
ZHCC,2009-04-14 11:00,ZHCC 141100Z AUTO 16006KT 1 1/2SM 24/19 A2965 RMK T02400190 IEM_DS3505
ZHCC,2009-04-14 12:00,ZHCC 141200Z AUTO 14004KT 6SM 24/18 A2965 RMK SLP038 T02430180 52003 IEM_DS3505
ZHCC,2009-04-14 13:00,ZHCC 141300Z AUTO 18006KT 1 1/2SM 22/18 A2968 RMK T02200180 IEM_DS3505
ZHCC,2009-04-14 14:00,ZHCC 141400Z AUTO 18006KT 1 1/4SM 22/18 A2968 RMK T02200180 IEM_DS3505
ZHCC,2009-04-14 15:00,ZHCC 141500Z AUTO 18006KT 6SM 23/16 A2965 RMK SLP033 T02270158 57005 IEM_DS3505
ZHCC,2009-04-14 16:00,ZHCC 141600Z AUTO 20006KT 1 1/4SM 21/16 A2965 RMK T02100160 IEM_DS3505
ZHCC,2009-04-14 17:00,ZHCC 141700Z AUTO 22006KT 1SM 22/16 A2965 RMK T02200160 IEM_DS3505
ZHCC,2009-04-14 18:00,ZHCC 141800Z AUTO 27004KT 6SM 21/16 A2962 RMK SLP028 T02140155 57004 IEM_DS3505
ZHCC,2009-04-14 19:00,ZHCC 141900Z AUTO 22006KT 1 1/4SM 21/15 A2962 RMK T02100150 IEM_DS3505
ZHCC,2009-04-14 20:00,ZHCC 142000Z AUTO 20004KT 1 1/4SM 21/15 A2962 RMK T02100150 IEM_DS3505
ZHCC,2009-04-14 21:00,ZHCC 142100Z AUTO 22002KT 3SM 18/15 A2959 RMK SLP023 T01760149 57005 IEM_DS3505
ZHCC,2009-04-14 22:00,ZHCC 142200Z AUTO 19004KT 2SM 19/15 A2962 RMK T01900150 IEM_DS3505
ZHCC,2009-04-14 23:00,ZHCC 142300Z AUTO 21004KT 1 1/2SM 20/16 A2962 RMK T02000160 IEM_DS3505
ZHCC,2009-04-15 00:00,ZHCC 150000Z AUTO 25002KT 1 1/4SM 21/15 A2962 RMK SLP031 T02060154 52008 IEM_DS3505
ZHCC,2009-04-15 01:00,ZHCC 150100Z AUTO 04016G27KT 1SM 21/16 A2971 RMK T02100160 IEM_DS3505
ZHCC,2009-04-15 02:00,ZHCC 150200Z AUTO 03021G31KT 1/2SM 17/14 A2980 RMK T01700140 IEM_DS3505
ZHCC,2009-04-15 03:00,ZHCC 150300Z AUTO 04014G37KT 1SM 11/06 A2985 RMK SLP122 T01140065 52087 IEM_DS3505
ZHCC,2009-04-15 04:00,ZHCC 150400Z AUTO 02023G33KT 1SM 10/06 A2988 RMK T01000060 IEM_DS3505
ZHCC,2009-04-15 06:00,ZHCC 150600Z AUTO 02010G31KT 4SM 12/06 A2991 RMK SLP139 T01240056 52017 IEM_DS3505
ZHCC,2009-04-15 07:00,ZHCC 150700Z AUTO 03019G29KT 2SM 11/05 A2991 RMK T01100050 IEM_DS3505
ZHCC,2009-04-15 08:00,ZHCC 150800Z AUTO 03019G29KT 2 1/2SM 11/05 A2991 RMK T01100050 IEM_DS3505
ZHCC,2009-04-15 09:00,ZHCC 150900Z AUTO 07010G25KT 7SM 11/04 A2994 RMK SLP148 T01140039 52007 IEM_DS3505
ZHCC,2009-04-15 10:00,ZHCC 151000Z AUTO 02014KT 2 1/2SM 09/04 A2994 RMK T00900040 IEM_DS3505
ZHCC,2009-04-15 11:00,ZHCC 151100Z AUTO 03010KT 2 1/2SM 09/03 A2997 RMK T00900030 IEM_DS3505
ZHCC,2009-04-15 12:00,ZHCC 151200Z AUTO 04010KT 7SM 10/02 A3000 RMK SLP168 T00990023 52021 IEM_DS3505
ZHCC,2009-04-15 13:00,ZHCC 151300Z AUTO 02010KT 2 1/2SM 08/03 A3000 RMK T00800030 IEM_DS3505
ZHCC,2009-04-15 14:00,ZHCC 151400Z AUTO 03010KT 2 1/2SM 09/03 A3003 RMK T00900030 IEM_DS3505
ZHCC,2009-04-15 15:00,ZHCC 151500Z AUTO 07006KT 7SM 10/03 A3003 RMK SLP178 T01000026 52007 IEM_DS3505
ZHCC,2009-04-15 16:00,ZHCC 151600Z AUTO 04008KT 3SM 08/04 A3003 RMK T00800040 IEM_DS3505
ZHCC,2009-04-15 17:00,ZHCC 151700Z AUTO 05006KT 3SM 08/03 A3003 RMK T00800030 IEM_DS3505
ZHCC,2009-04-15 18:00,ZHCC 151800Z AUTO 04006KT 7SM 09/04 A3003 RMK SLP176 T00890037 57002 IEM_DS3505
ZHCC,2009-04-15 19:00,ZHCC 151900Z AUTO 02004KT 3SM 07/02 A3003 RMK T00700020 IEM_DS3505
ZHCC,2009-04-15 20:00,ZHCC 152000Z AUTO 04004KT 3SM 07/02 A3003 RMK T00700020 IEM_DS3505
ZHCC,2009-04-15 21:00,ZHCC 152100Z AUTO 11004KT 6SM 08/02 A3003 RMK SLP174 T00790019 57002 IEM_DS3505
ZHCC,2009-04-15 22:00,ZHCC 152200Z AUTO 04002KT 3SM 06/01 A2997 RMK T00600010 IEM_DS3505
ZHCC,2009-04-15 23:00,ZHCC 152300Z AUTO 00000KT 3SM 07/03 A3000 RMK T00700030 IEM_DS3505
ZHCC,2009-04-16 00:00,ZHCC 160000Z AUTO 09004KT 7SM 10/M01 A3000 RMK SLP165 T00981007 57009 IEM_DS3505
ZHCC,2009-04-16 01:00,ZHCC 160100Z AUTO 07006KT 3SM 10/02 A2997 RMK T01000020 IEM_DS3505
ZHCC,2009-04-16 02:00,ZHCC 160200Z AUTO 09006KT 3SM 11/02 A2997 RMK T01100020 IEM_DS3505
ZHCC,2009-04-16 03:00,ZHCC 160300Z AUTO 36006KT 9SM 13/02 A2994 RMK SLP149 T01330025 57015 IEM_DS3505
ZHCC,2009-04-16 04:00,ZHCC 160400Z AUTO 08004KT 4SM 14/01 A2994 RMK T01400010 IEM_DS3505
ZHCC,2009-04-16 05:00,ZHCC 160500Z AUTO 4SM 15/01 A2991 RMK T01500010 IEM_DS3505
ZHCC,2009-04-16 06:00,ZHCC 160600Z AUTO 11004KT 9SM 17/02 A2988 RMK SLP126 T01680020 57022 IEM_DS3505
ZHCC,2009-04-16 07:00,ZHCC 160700Z AUTO 11008KT 4SM 17/02 A2985 RMK T01700020 IEM_DS3505
ZHCC,2009-04-16 08:00,ZHCC 160800Z AUTO 4SM 17/05 A2985 RMK T01700050 IEM_DS3505
ZHCC,2009-04-16 09:00,ZHCC 160900Z AUTO 11004KT 9SM 18/01 A2985 RMK SLP109 T01810012 57017 IEM_DS3505
ZHCC,2009-04-16 10:00,ZHCC 161000Z AUTO 11008KT 4SM 16/06 A2985 RMK T01600060 IEM_DS3505
ZHCC,2009-04-16 11:00,ZHCC 161100Z AUTO 14004KT 3SM 14/07 A2985 RMK T01400070 IEM_DS3505
ZHCC,2009-04-16 12:00,ZHCC 161200Z AUTO 11004KT 7SM 15/06 A2988 RMK SLP124 T01520060 52015 IEM_DS3505
ZHCC,2009-04-16 13:00,ZHCC 161300Z AUTO 12002KT 2 1/2SM 12/08 A2991 RMK T01200080 IEM_DS3505
ZHCC,2009-04-16 14:00,ZHCC 161400Z AUTO 15002KT 2 1/2SM 12/08 A2991 RMK T01200080 IEM_DS3505
ZHCC,2009-04-16 15:00,ZHCC 161500Z AUTO 14002KT 7SM 14/07 A2991 RMK SLP136 T01350073 52012 IEM_DS3505
ZHCC,2009-04-16 16:00,ZHCC 161600Z AUTO 14004KT 2SM 11/08 A2991 RMK T01100080 IEM_DS3505
ZHCC,2009-04-16 17:00,ZHCC 161700Z AUTO 2SM 11/08 A2991 RMK T01100080 IEM_DS3505
ZHCC,2009-04-16 18:00,ZHCC 161800Z AUTO 11002KT 6SM 12/08 A2991 RMK SLP134 T01210082 57001 IEM_DS3505
ZHCC,2009-04-16 19:00,ZHCC 161900Z AUTO 16002KT 1 1/4SM 11/09 A2991 RMK T01100090 IEM_DS3505
ZHCC,2009-04-16 20:00,ZHCC 162000Z AUTO 15002KT 1 1/4SM 11/09 A2988 RMK T01100090 IEM_DS3505
ZHCC,2009-04-16 21:00,ZHCC 162100Z AUTO 14004KT 6SM 13/09 A2988 RMK SLP124 T01300089 57010 IEM_DS3505
ZHCC,2009-04-16 22:00,ZHCC 162200Z AUTO 14002KT 1 1/4SM 11/09 A2988 RMK T01100090 IEM_DS3505
ZHCC,2009-04-16 23:00,ZHCC 162300Z AUTO 1 1/4SM 11/09 A2991 RMK T01100090 IEM_DS3505
ZHCC,2009-04-17 00:00,ZHCC 170000Z AUTO 14004KT 6SM 13/09 A2991 RMK SLP139 T01310086 52014 IEM_DS3505
ZHCC,2009-04-17 01:00,ZHCC 170100Z AUTO 1 1/4SM 12/09 A2994 RMK T01200090 IEM_DS3505
ZHCC,2009-04-17 02:00,ZHCC 170200Z AUTO 1 1/4SM 13/10 A2994 RMK T01300100 IEM_DS3505
ZHCC,2009-04-17 03:00,ZHCC 170300Z AUTO 11004KT 6SM 15/09 A2991 RMK SLP137 T01540089 57001 IEM_DS3505
ZHCC,2009-04-17 04:00,ZHCC 170400Z AUTO 15004KT 2SM 16/10 A2991 RMK T01600100 IEM_DS3505
ZHCC,2009-04-17 05:00,ZHCC 170500Z AUTO 14006KT 2SM 17/11 A2988 RMK T01700110 IEM_DS3505
ZHCC,2009-04-17 06:00,ZHCC 170600Z AUTO 11006KT 6SM 19/10 A2988 RMK SLP116 T01930098 57021 IEM_DS3505
ZHCC,2009-04-17 07:00,ZHCC 170700Z AUTO 12010KT 2SM 17/12 A2985 RMK T01700120 IEM_DS3505
ZHCC,2009-04-17 08:00,ZHCC 170800Z AUTO 13008KT 2SM 15/11 A2985 RMK T01500110 IEM_DS3505
ZHCC,2009-04-17 09:00,ZHCC 170900Z AUTO 14008KT 6SM 17/11 A2983 RMK SLP102 T01690114 57014 IEM_DS3505
ZHCC,2009-04-17 10:00,ZHCC 171000Z AUTO 15006KT 2SM 14/11 A2983 RMK T01400110 IEM_DS3505
ZHCC,2009-04-17 11:00,ZHCC 171100Z AUTO 18004KT 1 1/4SM 14/11 A2985 RMK T01400110 IEM_DS3505
ZHCC,2009-04-17 12:00,ZHCC 171200Z AUTO 18008KT 6SM 14/11 A2985 RMK SLP117 T01450111 52015 IEM_DS3505
ZHCC,2009-04-17 13:00,ZHCC 171300Z AUTO 18004KT 1 1/4SM 13/11 A2985 RMK T01300110 IEM_DS3505
ZHCC,2009-04-17 14:00,ZHCC 171400Z AUTO 20004KT 1 1/4SM 13/11 A2985 RMK T01300110 IEM_DS3505
ZHCC,2009-04-17 15:00,ZHCC 171500Z AUTO 16004KT 6SM 14/11 A2985 RMK SLP116 T01420112 57001 IEM_DS3505
ZHCC,2009-04-17 16:00,ZHCC 171600Z AUTO 17004KT 1 1/4SM 13/11 A2985 RMK T01300110 IEM_DS3505
ZHCC,2009-04-17 17:00,ZHCC 171700Z AUTO 18004KT 1 1/4SM 14/12 A2985 RMK T01400120 IEM_DS3505
ZHCC,2009-04-17 18:00,ZHCC 171800Z AUTO 18006KT 4SM 14/12 A2983 RMK SLP104 T01410118 57011 IEM_DS3505
ZHCC,2009-04-17 19:00,ZHCC 171900Z AUTO 22004KT 1SM 14/12 A2983 RMK T01400120 IEM_DS3505
ZHCC,2009-04-17 20:00,ZHCC 172000Z AUTO 24004KT 1SM 13/12 A2983 RMK T01300120 IEM_DS3505
ZHCC,2009-04-17 21:00,ZHCC 172100Z AUTO 22002KT 4SM 14/12 A2980 RMK SLP094 T01390116 57010 IEM_DS3505
ZHCC,2009-04-17 22:00,ZHCC 172200Z AUTO 12004KT 3/8SM 12/11 A2980 RMK T01200110 IEM_DS3505
ZHCC,2009-04-17 23:00,ZHCC 172300Z AUTO 12004KT 3/8SM 12/11 A2983 RMK T01200110 IEM_DS3505
ZHCC,2009-04-18 00:00,ZHCC 180000Z AUTO 07002KT 3SM 14/12 A2983 RMK SLP107 T01430123 52012 IEM_DS3505
ZHCC,2009-04-18 01:00,ZHCC 180100Z AUTO 14004KT 1SM 14/13 A2985 RMK T01400130 IEM_DS3505
ZHCC,2009-04-18 02:00,ZHCC 180200Z AUTO 15004KT 1SM 15/14 A2983 RMK T01500140 IEM_DS3505
ZHCC,2009-04-18 03:00,ZHCC 180300Z AUTO 07002KT 4SM 17/13 A2983 RMK SLP100 T01680131 57006 IEM_DS3505
ZHCC,2009-04-18 04:00,ZHCC 180400Z AUTO 18004KT 1 1/4SM 17/15 A2980 RMK T01700150 IEM_DS3505
ZHCC,2009-04-18 05:00,ZHCC 180500Z AUTO 16004KT 1 1/2SM 18/15 A2980 RMK T01800150 IEM_DS3505
ZHCC,2009-04-18 06:00,ZHCC 180600Z AUTO 04002KT 4SM 19/14 A2977 RMK SLP081 T01920136 57019 IEM_DS3505
ZHCC,2009-04-18 07:00,ZHCC 180700Z AUTO 3SM 22/16 A2974 RMK T02200160 IEM_DS3505
ZHCC,2009-04-18 08:00,ZHCC 180800Z AUTO 2 1/2SM 21/16 A2974 RMK T02100160 IEM_DS3505
ZHCC,2009-04-18 09:00,ZHCC 180900Z AUTO 02002KT 4SM 19/14 A2971 RMK SLP068 T01930143 57013 IEM_DS3505
ZHCC,2009-04-18 10:00,ZHCC 181000Z AUTO 2SM 20/16 A2974 RMK T02000160 IEM_DS3505
ZHCC,2009-04-18 11:00,ZHCC 181100Z AUTO 1SM 20/16 A2974 RMK T02000160 IEM_DS3505
ZHCC,2009-04-18 12:00,ZHCC 181200Z AUTO 27002KT 2 1/2SM 18/15 A2977 RMK 60000 SLP084 T01840151 52016 IEM_DS3505
ZHCC,2009-04-18 13:00,ZHCC 181300Z AUTO 28002KT 1/2SM 17/16 A2980 RMK T01700160 IEM_DS3505
ZHCC,2009-04-18 14:00,ZHCC 181400Z AUTO 30002KT 1/2SM 17/16 A2980 RMK T01700160 IEM_DS3505
ZHCC,2009-04-18 15:00,ZHCC 181500Z AUTO 04002KT 1SM 17/16 A2977 RMK SLP086 T01690161 52002 IEM_DS3505
ZHCC,2009-04-18 16:00,ZHCC 181600Z AUTO 03004KT 1/2SM 17/16 A2977 RMK T01700160 IEM_DS3505
ZHCC,2009-04-18 17:00,ZHCC 181700Z AUTO 03004KT 1/4SM 16/16 A2974 RMK T01600160 IEM_DS3505
ZHCC,2009-04-18 18:00,ZHCC 181800Z AUTO 32002KT 1SM 16/16 A2971 RMK 60075 SLP067 T01620156 57018 IEM_DS3505
ZHCC,2009-04-18 19:00,ZHCC 181900Z AUTO 1/4SM 16/16 A2971 RMK T01600160 IEM_DS3505
ZHCC,2009-04-18 20:00,ZHCC 182000Z AUTO 33004KT 3/8SM 16/15 A2971 RMK T01600150 IEM_DS3505
ZHCC,2009-04-18 21:00,ZHCC 182100Z AUTO 29002KT 1SM 16/16 A2968 RMK 70096 SLP057 T01650159 57010 IEM_DS3505
ZHCC,2009-04-18 22:00,ZHCC 182200Z AUTO 35004KT 1SM 16/15 A2968 RMK T01600150 IEM_DS3505
ZHCC,2009-04-18 23:00,ZHCC 182300Z AUTO 33004KT 1/2SM 16/16 A2971 RMK T01600160 IEM_DS3505
ZHCC,2009-04-19 00:00,ZHCC 190000Z AUTO 29004KT 1 1/4SM 16/16 A2971 RMK 60039 70113 SLP061 T01640158 52004 IEM_DS3505
ZHCC,2009-04-19 01:00,ZHCC 190100Z AUTO 35008KT 1SM 16/16 A2971 RMK T01600160 IEM_DS3505
ZHCC,2009-04-19 02:00,ZHCC 190200Z AUTO 35008KT 1SM 16/16 A2971 RMK T01600160 IEM_DS3505
ZHCC,2009-04-19 03:00,ZHCC 190300Z AUTO 34004KT 2SM 17/16 A2968 RMK SLP058 T01700162 57003 IEM_DS3505
ZHCC,2009-04-19 04:00,ZHCC 190400Z AUTO 01010KT 1SM 17/16 A2968 RMK T01700160 IEM_DS3505
ZHCC,2009-04-19 05:00,ZHCC 190500Z AUTO 02014KT 1SM 16/16 A2965 RMK T01600160 IEM_DS3505
ZHCC,2009-04-19 06:00,ZHCC 190600Z AUTO 36004KT 2SM 17/16 A2965 RMK 60059 SLP047 T01730162 57011 IEM_DS3505
ZHCC,2009-04-19 07:00,ZHCC 190700Z AUTO 01014G27KT 1SM 15/15 A2965 RMK T01500150 IEM_DS3505
ZHCC,2009-04-19 08:00,ZHCC 190800Z AUTO 02017KT 1SM 15/14 A2965 RMK T01500140 IEM_DS3505
ZHCC,2009-04-19 09:00,ZHCC 190900Z AUTO 04006G27KT 3SM 16/15 A2965 RMK SLP048 T01620151 52001 IEM_DS3505
ZHCC,2009-04-19 10:00,ZHCC 191000Z AUTO 03014KT 1SM 14/14 A2965 RMK T01400140 IEM_DS3505
ZHCC,2009-04-19 11:00,ZHCC 191100Z AUTO 04014KT 1SM 14/13 A2968 RMK T01400130 IEM_DS3505
ZHCC,2009-04-19 12:00,ZHCC 191200Z AUTO 04004KT 4SM 15/13 A2971 RMK 60020 SLP067 T01470127 52018 IEM_DS3505
ZHCC,2009-04-19 13:00,ZHCC 191300Z AUTO 03014KT 1SM 13/12 A2974 RMK T01300120 IEM_DS3505
ZHCC,2009-04-19 14:00,ZHCC 191400Z AUTO 04010KT 1SM 13/12 A2974 RMK T01300120 IEM_DS3505
ZHCC,2009-04-19 15:00,ZHCC 191500Z AUTO 04004KT 3SM 14/12 A2974 RMK SLP079 T01380117 52012 IEM_DS3505
ZHCC,2009-04-19 16:00,ZHCC 191600Z AUTO 02010KT 1SM 12/11 A2974 RMK T01200110 IEM_DS3505
ZHCC,2009-04-19 17:00,ZHCC 191700Z AUTO 01010KT 1SM 11/11 A2974 RMK T01100110 IEM_DS3505
ZHCC,2009-04-19 18:00,ZHCC 191800Z AUTO 07004KT 3SM 12/10 A2971 RMK SLP069 T01240101 57010 IEM_DS3505
ZHCC,2009-04-19 19:00,ZHCC 191900Z AUTO 02008KT 1SM 11/10 A2971 RMK T01100100 IEM_DS3505
ZHCC,2009-04-19 20:00,ZHCC 192000Z AUTO 03008KT 1SM 11/10 A2971 RMK T01100100 IEM_DS3505
ZHCC,2009-04-19 21:00,ZHCC 192100Z AUTO 07002KT 3SM 12/10 A2971 RMK 70096 SLP069 T01220099 57001 IEM_DS3505
ZHCC,2009-04-19 22:00,ZHCC 192200Z AUTO 02008KT 1SM 11/10 A2974 RMK T01100100 IEM_DS3505
ZHCC,2009-04-19 23:00,ZHCC 192300Z AUTO 02006KT 1SM 11/10 A2977 RMK T01100100 IEM_DS3505
ZHCC,2009-04-20 00:00,ZHCC 200000Z AUTO 09002KT 2SM 12/10 A2977 RMK 70079 SLP089 T01210100 52020 IEM_DS3505
ZHCC,2009-04-20 01:00,ZHCC 200100Z AUTO 02006KT 1SM 12/11 A2980 RMK T01200110 IEM_DS3505
ZHCC,2009-04-20 02:00,ZHCC 200200Z AUTO 01004KT 1SM 14/12 A2977 RMK T01400120 IEM_DS3505
ZHCC,2009-04-20 03:00,ZHCC 200300Z AUTO 29004KT 5SM 20/12 A2977 RMK SLP076 T01960116 57012 IEM_DS3505
ZHCC,2009-04-20 04:00,ZHCC 200400Z AUTO 1SM 21/13 A2974 RMK T02100130 IEM_DS3505
ZHCC,2009-04-20 05:00,ZHCC 200500Z AUTO 32016G25KT 2SM 24/03 A2971 RMK T02400030 IEM_DS3505
ZHCC,2009-04-20 06:00,ZHCC 200600Z AUTO 27008G29KT 9SM 25/01 A2971 RMK SLP058 T02540008 57016 IEM_DS3505
ZHCC,2009-04-20 07:00,ZHCC 200700Z AUTO 30012KT 4SM 25/02 A2968 RMK T02500020 IEM_DS3505
ZHCC,2009-04-20 08:00,ZHCC 200800Z AUTO 28012KT 4SM 25/01 A2968 RMK T02500010 IEM_DS3505
ZHCC,2009-04-20 09:00,ZHCC 200900Z AUTO 27008KT 11SM 26/M01 A2968 RMK SLP043 T02561012 57015 IEM_DS3505
ZHCC,2009-04-20 10:00,ZHCC 201000Z AUTO 28008KT 4SM 23/03 A2968 RMK T02300030 IEM_DS3505
ZHCC,2009-04-20 11:00,ZHCC 201100Z AUTO 26006KT 4SM 21/03 A2971 RMK T02100030 IEM_DS3505
ZHCC,2009-04-20 12:00,ZHCC 201200Z AUTO 29004KT 11SM 21/02 A2971 RMK SLP066 T02110019 52021 IEM_DS3505
ZHCC,2009-04-20 13:00,ZHCC 201300Z AUTO 03004KT 4SM 16/04 A2977 RMK T01600040 IEM_DS3505
ZHCC,2009-04-20 14:00,ZHCC 201400Z AUTO 32008KT 4SM 13/06 A2977 RMK T01300060 IEM_DS3505
ZHCC,2009-04-20 15:00,ZHCC 201500Z AUTO 25004KT 10SM 16/10 A2977 RMK SLP089 T01650101 52024 IEM_DS3505
ZHCC,2009-04-20 16:00,ZHCC 201600Z AUTO 32012KT 3SM 15/09 A2980 RMK T01500090 IEM_DS3505
ZHCC,2009-04-20 17:00,ZHCC 201700Z AUTO 36008KT 1SM 15/12 A2980 RMK T01500120 IEM_DS3505
ZHCC,2009-04-20 18:00,ZHCC 201800Z AUTO 34002KT 7SM 15/12 A2983 RMK SLP101 T01510121 52013 IEM_DS3505
ZHCC,2009-04-20 19:00,ZHCC 201900Z AUTO 34004KT 1SM 13/11 A2983 RMK T01300110 IEM_DS3505
ZHCC,2009-04-20 20:00,ZHCC 202000Z AUTO 35004KT 2SM 12/10 A2985 RMK T01200100 IEM_DS3505
ZHCC,2009-04-20 21:00,ZHCC 202100Z AUTO 07002KT 7SM 13/06 A2985 RMK SLP116 T01330057 52014 IEM_DS3505
ZHCC,2009-04-20 22:00,ZHCC 202200Z AUTO 02002KT 3SM 11/08 A2988 RMK T01100080 IEM_DS3505
ZHCC,2009-04-20 23:00,ZHCC 202300Z AUTO 30004KT 3SM 12/09 A2988 RMK T01200090 IEM_DS3505
ZHCC,2009-04-21 00:00,ZHCC 210000Z AUTO 25002KT 6SM 17/02 A2991 RMK SLP130 T01660019 52014 IEM_DS3505
ZHCC,2009-04-21 01:00,ZHCC 210100Z AUTO 13004KT 6SM 17/04 A2991 RMK T01700040 IEM_DS3505
ZHCC,2009-04-21 02:00,ZHCC 210200Z AUTO 6SM 18/03 A2994 RMK T01800030 IEM_DS3505
ZHCC,2009-04-21 03:00,ZHCC 210300Z AUTO 18008KT 9SM 20/04 A2991 RMK SLP132 T01990040 52001 IEM_DS3505
ZHCC,2009-04-21 04:00,ZHCC 210400Z AUTO 16006KT 6SM 19/04 A2991 RMK T01900040 IEM_DS3505
ZHCC,2009-04-21 05:00,ZHCC 210500Z AUTO 18006KT 6SM 20/07 A2988 RMK T02000070 IEM_DS3505
ZHCC,2009-04-21 06:00,ZHCC 210600Z AUTO 16008KT 9SM 22/06 A2985 RMK SLP105 T02160055 57026 IEM_DS3505
ZHCC,2009-04-21 07:00,ZHCC 210700Z AUTO 6SM 21/07 A2983 RMK T02100070 IEM_DS3505
ZHCC,2009-04-21 08:00,ZHCC 210800Z AUTO 14004KT 6SM 20/09 A2983 RMK T02000090 IEM_DS3505
ZHCC,2009-04-21 09:00,ZHCC 210900Z AUTO 16008KT 9SM 21/08 A2980 RMK SLP090 T02110077 57016 IEM_DS3505
ZHCC,2009-04-21 10:00,ZHCC 211000Z AUTO 15004KT 6SM 19/10 A2983 RMK T01900100 IEM_DS3505
ZHCC,2009-04-21 11:00,ZHCC 211100Z AUTO 16004KT 6SM 18/10 A2985 RMK T01800100 IEM_DS3505
ZHCC,2009-04-21 12:00,ZHCC 211200Z AUTO 18004KT 9SM 19/10 A2985 RMK SLP111 T01870095 52021 IEM_DS3505
ZHCC,2009-04-21 13:00,ZHCC 211300Z AUTO 17004KT 6SM 16/11 A2988 RMK T01600110 IEM_DS3505
ZHCC,2009-04-21 14:00,ZHCC 211400Z AUTO 17002KT 6SM 16/11 A2988 RMK T01600110 IEM_DS3505
ZHCC,2009-04-21 15:00,ZHCC 211500Z AUTO 18004KT 9SM 17/10 A2988 RMK SLP121 T01710100 52011 IEM_DS3505
ZHCC,2009-04-21 16:00,ZHCC 211600Z AUTO 6SM 15/11 A2988 RMK T01500110 IEM_DS3505
ZHCC,2009-04-21 17:00,ZHCC 211700Z AUTO 6SM 15/10 A2988 RMK T01500100 IEM_DS3505
ZHCC,2009-04-21 18:00,ZHCC 211800Z AUTO 18006KT 8SM 17/10 A2988 RMK 60000 SLP116 T01680102 57005 IEM_DS3505
ZHCC,2009-04-21 19:00,ZHCC 211900Z AUTO 1 1/2SM 15/11 A2988 RMK T01500110 IEM_DS3505
ZHCC,2009-04-21 20:00,ZHCC 212000Z AUTO 18004KT 1 1/2SM 15/11 A2988 RMK T01500110 IEM_DS3505
ZHCC,2009-04-21 21:00,ZHCC 212100Z AUTO 11004KT 6SM 16/10 A2991 RMK 70000 SLP127 T01600103 52011 IEM_DS3505
ZHCC,2009-04-21 22:00,ZHCC 212200Z AUTO 09004KT 6SM 14/11 A2991 RMK T01400110 IEM_DS3505
ZHCC,2009-04-21 23:00,ZHCC 212300Z AUTO 10006KT 4SM 14/11 A2991 RMK T01400110 IEM_DS3505
ZHCC,2009-04-22 00:00,ZHCC 220000Z AUTO 11004KT 6SM 16/11 A2994 RMK 60000 70000 SLP143 T01600112 52015 IEM_DS3505
ZHCC,2009-04-22 01:00,ZHCC 220100Z AUTO 12008KT 4SM 17/11 A2994 RMK T01700110 IEM_DS3505
ZHCC,2009-04-22 02:00,ZHCC 220200Z AUTO 13008KT 4SM 17/10 A2994 RMK T01700100 IEM_DS3505
ZHCC,2009-04-22 03:00,ZHCC 220300Z AUTO 11006KT 7SM 18/09 A2997 RMK SLP151 T01850093 52008 IEM_DS3505
ZHCC,2009-04-22 04:00,ZHCC 220400Z AUTO 09010KT 4SM 19/10 A2994 RMK T01900100 IEM_DS3505
ZHCC,2009-04-22 05:00,ZHCC 220500Z AUTO 10012KT 5SM 20/10 A2991 RMK T02000100 IEM_DS3505
ZHCC,2009-04-22 06:00,ZHCC 220600Z AUTO 09008KT 7SM 20/10 A2991 RMK SLP128 T02000096 57023 IEM_DS3505
ZHCC,2009-04-22 07:00,ZHCC 220700Z AUTO 10010KT 5SM 19/10 A2988 RMK T01900100 IEM_DS3505
ZHCC,2009-04-22 08:00,ZHCC 220800Z AUTO 09008KT 5SM 19/11 A2988 RMK T01900110 IEM_DS3505
ZHCC,2009-04-22 09:00,ZHCC 220900Z AUTO 09008KT 9SM 19/09 A2985 RMK SLP109 T01940087 57019 IEM_DS3505
ZHCC,2009-04-22 10:00,ZHCC 221000Z AUTO 08008KT 5SM 18/11 A2985 RMK T01800110 IEM_DS3505
ZHCC,2009-04-22 11:00,ZHCC 221100Z AUTO 06004KT 4SM 17/11 A2988 RMK T01700110 IEM_DS3505
ZHCC,2009-04-22 12:00,ZHCC 221200Z AUTO 02004KT 9SM 17/11 A2991 RMK 60000 SLP139 T01730113 52030 IEM_DS3505
ZHCC,2009-04-22 13:00,ZHCC 221300Z AUTO 35006KT 2 1/2SM 16/12 A2994 RMK T01600120 IEM_DS3505
ZHCC,2009-04-22 14:00,ZHCC 221400Z AUTO 01006KT 2SM 15/12 A2997 RMK T01500120 IEM_DS3505
ZHCC,2009-04-22 15:00,ZHCC 221500Z AUTO 02002KT 6SM 15/11 A2994 RMK SLP153 T01530113 52013 IEM_DS3505
ZHCC,2009-04-22 16:00,ZHCC 221600Z AUTO 36006KT 2SM 14/12 A2994 RMK T01400120 IEM_DS3505
ZHCC,2009-04-22 17:00,ZHCC 221700Z AUTO 01010KT 2SM 14/11 A2997 RMK T01400110 IEM_DS3505
ZHCC,2009-04-22 18:00,ZHCC 221800Z AUTO 32002KT 6SM 15/10 A2994 RMK 60004 SLP149 T01480100 57003 IEM_DS3505
ZHCC,2009-04-22 19:00,ZHCC 221900Z AUTO 36003MPS 1900 // NCD 13/11 Q1014
ZHCC,2009-04-22 20:00,ZHCC 222000Z AUTO 36008KT 1 1/4SM 13/11 A2991 RMK T01300110 IEM_DS3505
ZHCC,2009-04-22 21:00,ZHCC 222100Z AUTO 32002KT 6SM 14/10 A2991 RMK 70005 SLP139 T01410105 57010 IEM_DS3505
ZHCC,2009-04-22 22:00,ZHCC 222200Z AUTO 04008KT 2 1/2SM 13/10 A2991 RMK T01300100 IEM_DS3505
ZHCC,2009-04-22 23:00,ZHCC 222300Z AUTO 02004KT 1 1/2SM 13/11 A2994 RMK T01300110 IEM_DS3505
ZHCC,2009-04-23 00:00,ZHCC 230000Z AUTO 02004KT 7SM 15/11 A2994 RMK 60000 70005 SLP146 T01500106 52006 IEM_DS3505
ZHCC,2009-04-23 01:00,ZHCC 230100Z AUTO 04008KT 1 1/2SM 15/11 A2994 RMK T01500110 IEM_DS3505
ZHCC,2009-04-23 02:00,ZHCC 230200Z AUTO 03006KT 1 1/2SM 16/11 A2994 RMK T01600110 IEM_DS3505
ZHCC,2009-04-23 03:00,ZHCC 230300Z AUTO 07006KT 6SM 17/11 A2991 RMK SLP140 T01720108 57006 IEM_DS3505
ZHCC,2009-04-23 04:00,ZHCC 230400Z AUTO 06006KT 1 1/2SM 17/12 A2988 RMK T01700120 IEM_DS3505
ZHCC,2009-04-23 05:00,ZHCC 230500Z AUTO 04004KT 1 1/2SM 17/12 A2988 RMK T01700120 IEM_DS3505
ZHCC,2009-04-23 06:00,ZHCC 230600Z AUTO 04002KT 6SM 19/12 A2985 RMK SLP114 T01920118 57025 IEM_DS3505
ZHCC,2009-04-23 07:00,ZHCC 230700Z AUTO 07004KT 1 1/2SM 18/12 A2985 RMK T01800120 IEM_DS3505
ZHCC,2009-04-23 08:00,ZHCC 230800Z AUTO 08004KT 1 1/2SM 18/12 A2983 RMK T01800120 IEM_DS3505
ZHCC,2009-04-23 09:00,ZHCC 230900Z AUTO 02002KT 5SM 19/12 A2983 RMK SLP102 T01900123 57012 IEM_DS3505
ZHCC,2009-04-23 10:00,ZHCC 231000Z AUTO 12004KT 1 1/4SM 17/13 A2983 RMK T01700130 IEM_DS3505
ZHCC,2009-04-23 11:00,ZHCC 231100Z AUTO 15004KT 1 1/4SM 16/13 A2983 RMK T01600130 IEM_DS3505
ZHCC,2009-04-23 12:00,ZHCC 231200Z AUTO 16002KT 2 1/2SM 18/13 A2985 RMK SLP111 T01770126 52009 IEM_DS3505
ZHCC,2009-04-23 13:00,ZHCC 231300Z AUTO 16002KT 1SM 15/13 A2985 RMK T01500130 IEM_DS3505
ZHCC,2009-04-23 14:00,ZHCC 231400Z AUTO 17002KT 1SM 15/12 A2985 RMK T01500120 IEM_DS3505
ZHCC,2009-04-23 15:00,ZHCC 231500Z AUTO 20002KT 2 1/2SM 16/13 A2985 RMK SLP117 T01570128 52006 IEM_DS3505
ZHCC,2009-04-23 16:00,ZHCC 231600Z AUTO 20004KT 1SM 14/12 A2985 RMK T01400120 IEM_DS3505
ZHCC,2009-04-23 17:00,ZHCC 231700Z AUTO 20004KT 1SM 14/12 A2985 RMK T01400120 IEM_DS3505
ZHCC,2009-04-23 18:00,ZHCC 231800Z AUTO 22002KT 2SM 15/13 A2985 RMK SLP106 T01480128 57011 IEM_DS3505
ZHCC,2009-04-23 19:00,ZHCC 231900Z AUTO 1 1/4SM 13/12 A2983 RMK T01300120 IEM_DS3505
ZHCC,2009-04-23 20:00,ZHCC 232000Z AUTO 22004KT 1SM 14/12 A2983 RMK T01400120 IEM_DS3505
ZHCC,2009-04-23 21:00,ZHCC 232100Z AUTO 27006KT 6SM 18/10 A2983 RMK 70000 SLP099 T01840097 57006 IEM_DS3505
ZHCC,2009-04-23 22:00,ZHCC 232200Z AUTO 00000KT 1 1/4SM 15/13 A2983 RMK T01500130 IEM_DS3505
ZHCC,2009-04-23 23:00,ZHCC 232300Z AUTO 31017KT 1 1/4SM 17/03 A2985 RMK T01700030 IEM_DS3505
ZHCC,2009-04-24 00:00,ZHCC 240000Z AUTO 29012KT 3SM 18/M01 A2991 RMK SLP135 T01791013 52035 IEM_DS3505
ZHCC,2009-04-24 01:00,ZHCC 240100Z AUTO 32023G33KT 1 1/4SM 18/M01 A2991 RMK T01801010 IEM_DS3505
ZHCC,2009-04-24 03:00,ZHCC 240300Z AUTO 29014G25KT 4SM 19/M00 A2997 RMK SLP151 T01931001 52016 IEM_DS3505
ZHCC,2009-04-24 04:00,ZHCC 240400Z AUTO 33017G29KT 1 1/4SM 20/02 A2997 RMK T02000020 IEM_DS3505
ZHCC,2009-04-24 05:00,ZHCC 240500Z AUTO 32017KT 2SM 20/02 A2997 RMK T02000020 IEM_DS3505
ZHCC,2009-04-24 06:00,ZHCC 240600Z AUTO 29010KT 5SM 21/02 A2997 RMK SLP147 T02140022 57004 IEM_DS3505
ZHCC,2009-04-24 07:00,ZHCC 240700Z AUTO 32012KT 2SM 21/02 A2994 RMK T02100020 IEM_DS3505
ZHCC,2009-04-24 08:00,ZHCC 240800Z AUTO 33008KT 2SM 21/03 A2994 RMK T02100030 IEM_DS3505
ZHCC,2009-04-24 09:00,ZHCC 240900Z AUTO 22004KT 6SM 22/02 A2994 RMK SLP142 T02160018 57004 IEM_DS3505
ZHCC,2009-04-24 10:00,ZHCC 241000Z AUTO 11004KT 1 1/4SM 19/05 A2997 RMK T01900050 IEM_DS3505
ZHCC,2009-04-24 11:00,ZHCC 241100Z AUTO 09004KT 1 1/4SM 18/04 A2997 RMK T01800040 IEM_DS3505
ZHCC,2009-04-24 12:00,ZHCC 241200Z AUTO 11004KT 6SM 19/04 A3000 RMK SLP164 T01910037 52021 IEM_DS3505
ZHCC,2009-04-24 13:00,ZHCC 241300Z AUTO 16004KT 1 1/4SM 16/05 A3003 RMK T01600050 IEM_DS3505
ZHCC,2009-04-24 14:00,ZHCC 241400Z AUTO 12004KT 1 1/4SM 14/07 A3006 RMK T01400070 IEM_DS3505
ZHCC,2009-04-24 15:00,ZHCC 241500Z AUTO 07004KT 6SM 17/06 A3009 RMK SLP197 T01670065 52032 IEM_DS3505
ZHCC,2009-04-24 16:00,ZHCC 241600Z AUTO 05004KT 1 1/4SM 15/09 A3012 RMK T01500090 IEM_DS3505
ZHCC,2009-04-24 17:00,ZHCC 241700Z AUTO 35002KT 1SM 14/08 A3015 RMK T01400080 IEM_DS3505
ZHCC,2009-04-24 18:00,ZHCC 241800Z AUTO 04002KT 4SM 15/06 A3015 RMK SLP215 T01520060 52018 IEM_DS3505
ZHCC,2009-04-24 19:00,ZHCC 241900Z AUTO 01006KT 1SM 14/06 A3015 RMK T01400060 IEM_DS3505
ZHCC,2009-04-24 20:00,ZHCC 242000Z AUTO 03008KT 1 1/2SM 14/03 A3018 RMK T01400030 IEM_DS3505
ZHCC,2009-04-24 21:00,ZHCC 242100Z AUTO 04006KT 7SM 15/M02 A3018 RMK SLP229 T01481022 52014 IEM_DS3505
ZHCC,2009-04-24 22:00,ZHCC 242200Z AUTO 01006KT 6SM 12/00 A3021 RMK T01200000 IEM_DS3505
ZHCC,2009-04-24 23:00,ZHCC 242300Z AUTO 02006KT 6SM 13/M01 A3021 RMK T01301010 IEM_DS3505
ZHCC,2009-04-25 00:00,ZHCC 250000Z AUTO 02004KT 12SM 15/M02 A3024 RMK SLP248 T01531022 52018 IEM_DS3505
ZHCC,2009-04-25 01:00,ZHCC 250100Z AUTO 02006KT 6SM 16/00 A3027 RMK T01600000 IEM_DS3505
ZHCC,2009-04-25 02:00,ZHCC 250200Z AUTO 05010KT 6SM 17/M02 A3027 RMK T01701020 IEM_DS3505
ZHCC,2009-04-25 03:00,ZHCC 250300Z AUTO 36004KT 14SM 19/M02 A3027 RMK SLP248 T01891021 52001 IEM_DS3505
ZHCC,2009-04-25 04:00,ZHCC 250400Z AUTO 6SM 19/00 A3024 RMK T01900000 IEM_DS3505
ZHCC,2009-04-25 05:00,ZHCC 250500Z AUTO 6SM 20/00 A3021 RMK T02000000 IEM_DS3505
ZHCC,2009-04-25 06:00,ZHCC 250600Z AUTO 27004KT 14SM 22/M04 A3018 RMK SLP218 T02171036 57030 IEM_DS3505
ZHCC,2009-04-25 07:00,ZHCC 250700Z AUTO 04004KT 6SM 21/M02 A3015 RMK T02101020 IEM_DS3505
ZHCC,2009-04-25 08:00,ZHCC 250800Z AUTO 6SM 21/M02 A3012 RMK T02101020 IEM_DS3505
ZHCC,2009-04-25 09:00,ZHCC 250900Z AUTO 16004KT 14SM 22/M01 A3012 RMK SLP193 T02191014 57024 IEM_DS3505
ZHCC,2009-04-25 10:00,ZHCC 251000Z AUTO 14004KT 6SM 19/01 A3012 RMK T01900010 IEM_DS3505
ZHCC,2009-04-25 11:00,ZHCC 251100Z AUTO 15004KT 6SM 17/02 A3012 RMK T01700020 IEM_DS3505
ZHCC,2009-04-25 12:00,ZHCC 251200Z AUTO 14006KT 12SM 18/02 A3012 RMK SLP203 T01780017 52009 IEM_DS3505
ZHCC,2009-04-25 13:00,ZHCC 251300Z AUTO 6SM 14/05 A3015 RMK T01400050 IEM_DS3505
ZHCC,2009-04-25 14:00,ZHCC 251400Z AUTO 6SM 14/05 A3018 RMK T01400050 IEM_DS3505
ZHCC,2009-04-25 15:00,ZHCC 251500Z AUTO 11004KT 10SM 15/05 A3018 RMK SLP223 T01510048 52020 IEM_DS3505
ZHCC,2009-04-25 16:00,ZHCC 251600Z AUTO 6SM 12/06 A3021 RMK T01200060 IEM_DS3505
ZHCC,2009-04-25 17:00,ZHCC 251700Z AUTO 18004KT 1 1/2SM 13/05 A3021 RMK T01300050 IEM_DS3505
ZHCC,2009-04-25 18:00,ZHCC 251800Z AUTO 16004KT 10SM 14/05 A3018 RMK SLP226 T01400048 52003 IEM_DS3505
ZHCC,2009-04-25 19:00,ZHCC 251900Z AUTO 1 1/2SM 11/07 A3018 RMK T01100070 IEM_DS3505
ZHCC,2009-04-25 20:00,ZHCC 252000Z AUTO 6SM 11/06 A3018 RMK T01100060 IEM_DS3505
ZHCC,2009-04-25 21:00,ZHCC 252100Z AUTO 07002KT 9SM 12/05 A3018 RMK SLP227 T01210050 52001 IEM_DS3505
ZHCC,2009-04-25 22:00,ZHCC 252200Z AUTO 04004KT 5SM 10/06 A3021 RMK T01000060 IEM_DS3505
ZHCC,2009-04-25 23:00,ZHCC 252300Z AUTO 08002KT 5SM 11/08 A3021 RMK T01100080 IEM_DS3505
ZHCC,2009-04-26 00:00,ZHCC 260000Z AUTO 09002KT 7SM 15/05 A3024 RMK SLP243 T01530047 52015 IEM_DS3505
ZHCC,2009-04-26 01:00,ZHCC 260100Z AUTO 11004KT 6SM 17/06 A3024 RMK T01700060 IEM_DS3505
ZHCC,2009-04-26 02:00,ZHCC 260200Z AUTO 14004KT 6SM 19/04 A3024 RMK T01900040 IEM_DS3505
ZHCC,2009-04-26 03:00,ZHCC 260300Z AUTO 20002KT 6SM 20/03 A3021 RMK SLP231 T02030026 57011 IEM_DS3505
ZHCC,2009-04-26 04:00,ZHCC 260400Z AUTO 6SM 20/03 A3018 RMK T02000030 IEM_DS3505
ZHCC,2009-04-26 05:00,ZHCC 260500Z AUTO 16006KT 6SM 21/03 A3015 RMK T02100030 IEM_DS3505
ZHCC,2009-04-26 06:00,ZHCC 260600Z AUTO 22006KT 9SM 22/M00 A3015 RMK SLP205 T02191001 57026 IEM_DS3505
ZHCC,2009-04-26 07:00,ZHCC 260700Z AUTO 6SM 21/05 A3009 RMK T02100050 IEM_DS3505
ZHCC,2009-04-26 08:00,ZHCC 260800Z AUTO 16006KT 6SM 21/04 A3006 RMK T02100040 IEM_DS3505
ZHCC,2009-04-26 09:00,ZHCC 260900Z AUTO 14006KT 9SM 21/03 A3006 RMK SLP178 T02130030 57027 IEM_DS3505
ZHCC,2009-04-26 10:00,ZHCC 261000Z AUTO 15004KT 6SM 19/05 A3006 RMK T01900050 IEM_DS3505
ZHCC,2009-04-26 11:00,ZHCC 261100Z AUTO 15004KT 6SM 18/06 A3006 RMK T01800060 IEM_DS3505
ZHCC,2009-04-26 12:00,ZHCC 261200Z AUTO 14004KT 9SM 18/05 A3006 RMK SLP179 T01850050 52001 IEM_DS3505
ZHCC,2009-04-26 13:00,ZHCC 261300Z AUTO 18004KT 6SM 15/07 A3006 RMK T01500070 IEM_DS3505
ZHCC,2009-04-26 14:00,ZHCC 261400Z AUTO 6SM 15/08 A3009 RMK T01500080 IEM_DS3505
ZHCC,2009-04-26 15:00,ZHCC 261500Z AUTO 16002KT 7SM 16/07 A3009 RMK SLP190 T01570067 52011 IEM_DS3505
ZHCC,2009-04-26 16:00,ZHCC 261600Z AUTO 6SM 14/08 A3009 RMK T01400080 IEM_DS3505
ZHCC,2009-04-26 17:00,ZHCC 261700Z AUTO 1 1/2SM 14/06 A3006 RMK T01400060 IEM_DS3505
ZHCC,2009-04-26 18:00,ZHCC 261800Z AUTO 00000KT 6SM 13/06 A3006 RMK SLP178 T01260062 57012 IEM_DS3505
ZHCC,2009-04-26 19:00,ZHCC 261900Z AUTO 20004KT 1 1/2SM 13/06 A3003 RMK T01300060 IEM_DS3505
ZHCC,2009-04-26 20:00,ZHCC 262000Z AUTO 23004KT 1 1/4SM 12/07 A3003 RMK T01200070 IEM_DS3505
ZHCC,2009-04-26 21:00,ZHCC 262100Z AUTO 27002KT 6SM 11/06 A3003 RMK SLP170 T01110062 57008 IEM_DS3505
ZHCC,2009-04-26 22:00,ZHCC 262200Z AUTO 26002KT 4SM 09/06 A3003 RMK T00900060 IEM_DS3505
ZHCC,2009-04-26 23:00,ZHCC 262300Z AUTO 24004KT 4SM 13/10 A3003 RMK T01300100 IEM_DS3505
ZHCC,2009-04-27 00:00,ZHCC 270000Z AUTO 20004KT 6SM 18/07 A3003 RMK SLP171 T01840069 52002 IEM_DS3505
ZHCC,2009-04-27 01:00,ZHCC 270100Z AUTO 22004KT 2 1/2SM 18/08 A3003 RMK T01800080 IEM_DS3505
ZHCC,2009-04-27 02:00,ZHCC 270200Z AUTO 20004KT 2 1/2SM 20/10 A3003 RMK T02000100 IEM_DS3505
ZHCC,2009-04-27 03:00,ZHCC 270300Z AUTO 20004KT 7SM 25/08 A3003 RMK SLP162 T02500081 57008 IEM_DS3505
ZHCC,2009-04-27 04:00,ZHCC 270400Z AUTO 3SM 24/11 A3000 RMK T02400110 IEM_DS3505
ZHCC,2009-04-27 05:00,ZHCC 270500Z AUTO 21008KT 4SM 25/11 A2997 RMK T02500110 IEM_DS3505
ZHCC,2009-04-27 06:00,ZHCC 270600Z AUTO 20008KT 9SM 28/01 A2997 RMK SLP141 T02770013 57021 IEM_DS3505
ZHCC,2009-04-27 07:00,ZHCC 270700Z AUTO 20008KT 4SM 24/09 A2994 RMK T02400090 IEM_DS3505
ZHCC,2009-04-27 08:00,ZHCC 270800Z AUTO 20008KT 4SM 24/10 A2994 RMK T02400100 IEM_DS3505
ZHCC,2009-04-27 09:00,ZHCC 270900Z AUTO 18006KT 9SM 25/07 A2991 RMK SLP129 T02500067 57013 IEM_DS3505
ZHCC,2009-04-27 10:00,ZHCC 271000Z AUTO 18004KT 3SM 22/10 A2991 RMK T02200100 IEM_DS3505
ZHCC,2009-04-27 11:00,ZHCC 271100Z AUTO 18004KT 3SM 20/11 A2994 RMK T02000110 IEM_DS3505
ZHCC,2009-04-27 12:00,ZHCC 271200Z AUTO 18004KT 9SM 21/08 A2994 RMK SLP139 T02070077 52011 IEM_DS3505
ZHCC,2009-04-27 13:00,ZHCC 271300Z AUTO 18004KT 3SM 18/10 A2997 RMK T01800100 IEM_DS3505
ZHCC,2009-04-27 14:00,ZHCC 271400Z AUTO 3SM 17/10 A3000 RMK T01700100 IEM_DS3505
ZHCC,2009-04-27 15:00,ZHCC 271500Z AUTO 18004KT 8SM 19/09 A3000 RMK SLP148 T01870087 52010 IEM_DS3505
ZHCC,2009-04-27 16:00,ZHCC 271600Z AUTO 19004KT 2 1/2SM 16/10 A2997 RMK T01600100 IEM_DS3505
ZHCC,2009-04-27 17:00,ZHCC 271700Z AUTO 19004KT 1 1/4SM 16/10 A2997 RMK T01600100 IEM_DS3505
ZHCC,2009-04-27 18:00,ZHCC 271800Z AUTO 20002KT 6SM 17/09 A2994 RMK SLP141 T01710093 57007 IEM_DS3505
ZHCC,2009-04-27 19:00,ZHCC 271900Z AUTO 21004KT 1 1/4SM 17/10 A2994 RMK T01700100 IEM_DS3505
ZHCC,2009-04-27 20:00,ZHCC 272000Z AUTO 20004KT 1 1/4SM 16/09 A2994 RMK T01600090 IEM_DS3505
ZHCC,2009-04-27 21:00,ZHCC 272100Z AUTO 14002KT 5SM 13/09 A2991 RMK SLP132 T01300094 57010 IEM_DS3505
ZHCC,2009-04-27 22:00,ZHCC 272200Z AUTO 2SM 13/09 A2994 RMK T01300090 IEM_DS3505
ZHCC,2009-04-27 23:00,ZHCC 272300Z AUTO 1 1/4SM 14/10 A2994 RMK T01400100 IEM_DS3505
ZHCC,2009-04-28 00:00,ZHCC 280000Z AUTO 00000KT 2 1/2SM 19/11 A2997 RMK SLP145 T01900111 52013 IEM_DS3505
ZHCC,2009-04-28 01:00,ZHCC 280100Z AUTO 21006KT 2SM 19/12 A2997 RMK T01900120 IEM_DS3505
ZHCC,2009-04-28 02:00,ZHCC 280200Z AUTO 21008KT 4SM 21/13 A2997 RMK T02100130 IEM_DS3505
ZHCC,2009-04-28 03:00,ZHCC 280300Z AUTO 09004KT 5SM 27/10 A2997 RMK SLP143 T02730105 57001 IEM_DS3505
ZHCC,2009-04-28 04:00,ZHCC 280400Z AUTO 19006KT 4SM 24/13 A2994 RMK T02400130 IEM_DS3505
ZHCC,2009-04-28 05:00,ZHCC 280500Z AUTO 18006KT 4SM 26/14 A2994 RMK T02600140 IEM_DS3505
ZHCC,2009-04-28 06:00,ZHCC 280600Z AUTO 11010KT 9SM 28/09 A2991 RMK SLP125 T02840087 57018 IEM_DS3505
ZHCC,2009-04-28 07:00,ZHCC 280700Z AUTO 17006KT 4SM 26/15 A2991 RMK T02600150 IEM_DS3505
ZHCC,2009-04-28 08:00,ZHCC 280800Z AUTO 15006KT 4SM 26/15 A2991 RMK T02600150 IEM_DS3505
ZHCC,2009-04-28 09:00,ZHCC 280900Z AUTO 16008KT 9SM 26/13 A2991 RMK SLP126 T02600132 54000 IEM_DS3505
ZHCC,2009-04-28 10:00,ZHCC 281000Z AUTO 14004KT 4SM 24/14 A2994 RMK T02400140 IEM_DS3505
ZHCC,2009-04-28 11:00,ZHCC 281100Z AUTO 12004KT 4SM 22/15 A2994 RMK T02200150 IEM_DS3505
ZHCC,2009-04-28 12:00,ZHCC 281200Z AUTO 02006KT 8SM 23/14 A2997 RMK SLP152 T02310141 52026 IEM_DS3505
ZHCC,2009-04-28 13:00,ZHCC 281300Z AUTO 15004KT 4SM 21/14 A3000 RMK T02100140 IEM_DS3505
ZHCC,2009-04-28 14:00,ZHCC 281400Z AUTO 06004KT 4SM 20/14 A3003 RMK T02000140 IEM_DS3505
ZHCC,2009-04-28 15:00,ZHCC 281500Z AUTO 07006KT 7SM 20/13 A3006 RMK SLP177 T01980126 52026 IEM_DS3505
ZHCC,2009-04-28 16:00,ZHCC 281600Z AUTO 06006KT 1 1/2SM 17/13 A3006 RMK T01700130 IEM_DS3505
ZHCC,2009-04-28 17:00,ZHCC 281700Z AUTO 08006KT 1 1/4SM 16/13 A3003 RMK T01600130 IEM_DS3505
ZHCC,2009-04-28 18:00,ZHCC 281800Z AUTO 09006KT 6SM 18/11 A3003 RMK SLP172 T01750113 57005 IEM_DS3505
ZHCC,2009-04-28 19:00,ZHCC 281900Z AUTO 1SM 14/11 A3006 RMK T01400110 IEM_DS3505
ZHCC,2009-04-28 20:00,ZHCC 282000Z AUTO 04006KT 1SM 14/12 A3003 RMK T01400120 IEM_DS3505
ZHCC,2009-04-28 21:00,ZHCC 282100Z AUTO 09004KT 5SM 16/10 A3003 RMK SLP169 T01570105 57004 IEM_DS3505
ZHCC,2009-04-28 22:00,ZHCC 282200Z AUTO 1 1/4SM 13/10 A3003 RMK T01300100 IEM_DS3505
ZHCC,2009-04-28 23:00,ZHCC 282300Z AUTO 03004KT 1 1/4SM 15/12 A3006 RMK T01500120 IEM_DS3505
ZHCC,2009-04-29 00:00,ZHCC 290000Z AUTO 07004KT 3SM 18/11 A3009 RMK SLP189 T01810107 52020 IEM_DS3505
ZHCC,2009-04-29 01:00,ZHCC 290100Z AUTO 1 1/4SM 19/13 A3009 RMK T01900130 IEM_DS3505
ZHCC,2009-04-29 02:00,ZHCC 290200Z AUTO 09004KT 2SM 20/13 A3009 RMK T02000130 IEM_DS3505
ZHCC,2009-04-29 03:00,ZHCC 290300Z AUTO 09004KT 6SM 22/11 A3009 RMK SLP184 T02250110 57005 IEM_DS3505
ZHCC,2009-04-29 04:00,ZHCC 290400Z AUTO 2SM 23/11 A3006 RMK T02300110 IEM_DS3505
ZHCC,2009-04-29 05:00,ZHCC 290500Z AUTO 18008KT 3SM 23/11 A3003 RMK T02300110 IEM_DS3505
ZHCC,2009-04-29 06:00,ZHCC 290600Z AUTO 16010KT 7SM 25/10 A3000 RMK SLP159 T02510098 57025 IEM_DS3505
ZHCC,2009-04-29 07:00,ZHCC 290700Z AUTO 19006KT 4SM 24/11 A3000 RMK T02400110 IEM_DS3505
ZHCC,2009-04-29 08:00,ZHCC 290800Z AUTO 18006KT 6SM 24/11 A2997 RMK T02400110 IEM_DS3505
ZHCC,2009-04-29 09:00,ZHCC 290900Z AUTO 18010KT 9SM 24/10 A2997 RMK SLP143 T02420101 57016 IEM_DS3505
ZHCC,2009-04-29 10:00,ZHCC 291000Z AUTO 15006KT 6SM 22/12 A2994 RMK T02200120 IEM_DS3505
ZHCC,2009-04-29 11:00,ZHCC 291100Z AUTO 6SM 21/12 A2997 RMK T02100120 IEM_DS3505
ZHCC,2009-04-29 12:00,ZHCC 291200Z AUTO 16006KT 9SM 21/11 A2997 RMK SLP148 T02110112 52005 IEM_DS3505
ZHCC,2009-04-29 13:00,ZHCC 291300Z AUTO 18004KT 6SM 18/13 A2997 RMK T01800130 IEM_DS3505
ZHCC,2009-04-29 14:00,ZHCC 291400Z AUTO 16004KT 4SM 17/13 A3000 RMK T01700130 IEM_DS3505
ZHCC,2009-04-29 15:00,ZHCC 291500Z AUTO 20006KT 7SM 18/13 A2997 RMK SLP155 T01820133 52007 IEM_DS3505
ZHCC,2009-04-29 16:00,ZHCC 291600Z AUTO 19002KT 2 1/2SM 16/13 A3000 RMK T01600130 IEM_DS3505
ZHCC,2009-04-29 17:00,ZHCC 291700Z AUTO 17004KT 1 1/4SM 16/13 A2997 RMK T01600130 IEM_DS3505
ZHCC,2009-04-29 18:00,ZHCC 291800Z AUTO 16004KT 7SM 17/14 A2997 RMK SLP148 T01660135 57007 IEM_DS3505
ZHCC,2009-04-29 19:00,ZHCC 291900Z AUTO 18002KT 1SM 15/13 A2997 RMK T01500130 IEM_DS3505
ZHCC,2009-04-29 20:00,ZHCC 292000Z AUTO 17004KT 1SM 14/13 A2997 RMK T01400130 IEM_DS3505
ZHCC,2009-04-29 21:00,ZHCC 292100Z AUTO 16002KT 6SM 15/13 A2997 RMK SLP150 T01530130 52002 IEM_DS3505
ZHCC,2009-04-29 22:00,ZHCC 292200Z AUTO 1SM 14/13 A2997 RMK T01400130 IEM_DS3505
ZHCC,2009-04-29 23:00,ZHCC 292300Z AUTO 17004KT 1SM 14/13 A3000 RMK T01400130 IEM_DS3505
ZHCC,2009-04-30 00:00,ZHCC 300000Z AUTO 16006KT 4SM 18/14 A3000 RMK SLP159 T01790144 52009 IEM_DS3505
ZHCC,2009-04-30 01:00,ZHCC 300100Z AUTO 17006KT 1 1/4SM 18/16 A3000 RMK T01800160 IEM_DS3505
ZHCC,2009-04-30 02:00,ZHCC 300200Z AUTO 19006KT 1 1/4SM 20/16 A3000 RMK T02000160 IEM_DS3505
ZHCC,2009-04-30 03:00,ZHCC 300300Z AUTO 16008KT 4SM 23/14 A3000 RMK SLP153 T02310136 57006 IEM_DS3505
ZHCC,2009-04-30 04:00,ZHCC 300400Z AUTO 17008KT 2SM 22/16 A2997 RMK T02200160 IEM_DS3505
ZHCC,2009-04-30 05:00,ZHCC 300500Z AUTO 16008KT 2SM 22/15 A2994 RMK T02200150 IEM_DS3505
ZHCC,2009-04-30 06:00,ZHCC 300600Z AUTO 14012KT 5SM 24/14 A2994 RMK SLP137 T02400144 57016 IEM_DS3505
ZHCC,2009-04-30 07:00,ZHCC 300700Z AUTO 2SM 23/16 A2994 RMK T02300160 IEM_DS3505
ZHCC,2009-04-30 08:00,ZHCC 300800Z AUTO 18006KT 2SM 22/16 A2991 RMK T02200160 IEM_DS3505
ZHCC,2009-04-30 09:00,ZHCC 300900Z AUTO 16006KT 6SM 24/14 A2994 RMK SLP132 T02360140 57005 IEM_DS3505
ZHCC,2009-04-30 10:00,ZHCC 301000Z AUTO 17004KT 2SM 21/16 A2991 RMK T02100160 IEM_DS3505
ZHCC,2009-04-30 11:00,ZHCC 301100Z AUTO 18004KT 2SM 21/15 A2994 RMK T02100150 IEM_DS3505
ZHCC,2009-04-30 12:00,ZHCC 301200Z AUTO 14006KT 6SM 22/15 A2994 RMK SLP137 T02150146 52005 IEM_DS3505
ZHCC,2009-04-30 13:00,ZHCC 301300Z AUTO 1 1/2SM 19/16 A2997 RMK T01900160 IEM_DS3505
ZHCC,2009-04-30 14:00,ZHCC 301400Z AUTO 1 1/4SM 19/15 A2997 RMK T01900150 IEM_DS3505
ZHCC,2009-04-30 15:00,ZHCC 301500Z AUTO 16004KT 6SM 20/15 A2997 RMK SLP147 T01950147 52011 IEM_DS3505
ZHCC,2009-04-30 16:00,ZHCC 301600Z AUTO 18004KT 1SM 18/15 A2997 RMK T01800150 IEM_DS3505
ZHCC,2009-04-30 17:00,ZHCC 301700Z AUTO 18004KT 1SM 17/15 A2994 RMK T01700150 IEM_DS3505
ZHCC,2009-04-30 18:00,ZHCC 301800Z AUTO 11002KT 5SM 19/14 A2994 RMK SLP135 T01890144 57012 IEM_DS3505
ZHCC,2009-04-30 19:00,ZHCC 301900Z AUTO 20004KT 1SM 16/15 A2991 RMK T01600150 IEM_DS3505
ZHCC,2009-04-30 20:00,ZHCC 302000Z AUTO 1SM 16/15 A2991 RMK T01600150 IEM_DS3505
ZHCC,2009-04-30 21:00,ZHCC 302100Z AUTO 16002KT 5SM 18/14 A2991 RMK SLP132 T01830142 57003 IEM_DS3505
ZHCC,2009-04-30 22:00,ZHCC 302200Z AUTO 20004KT 1SM 16/15 A2994 RMK T01600150 IEM_DS3505
ZHCC,2009-04-30 23:00,ZHCC 302300Z AUTO 21004KT 1SM 17/15 A2994 RMK T01700150 IEM_DS3505
ZHCC,2009-05-01 00:00,ZHCC 010000Z AUTO 22006KT 4SM 21/14 A2994 RMK SLP140 T02110135 52008 IEM_DS3505
ZHCC,2009-05-01 01:00,ZHCC 010100Z AUTO 19004KT 1SM 18/17 A2994 RMK T01800170 IEM_DS3505
ZHCC,2009-05-01 03:00,ZHCC 010300Z AUTO 27010KT 6SM 22/10 A2997 RMK SLP152 T02190104 52011 IEM_DS3505
ZHCC,2009-05-01 04:00,ZHCC 010400Z AUTO 27010KT 1 1/4SM 21/12 A2997 RMK T02100120 IEM_DS3505
ZHCC,2009-05-01 05:00,ZHCC 010500Z AUTO 27006KT 1 1/4SM 21/11 A2997 RMK T02100110 IEM_DS3505
ZHCC,2009-05-01 06:00,ZHCC 010600Z AUTO 27006KT 6SM 24/07 A2994 RMK SLP136 T02360073 57015 IEM_DS3505
ZHCC,2009-05-01 07:00,ZHCC 010700Z AUTO 26006KT 2SM 23/11 A2994 RMK T02300110 IEM_DS3505
ZHCC,2009-05-01 08:00,ZHCC 010800Z AUTO 26006KT 2SM 23/09 A2991 RMK T02300090 IEM_DS3505
ZHCC,2009-05-01 09:00,ZHCC 010900Z AUTO 27004KT 4SM 26/07 A2991 RMK SLP130 T02590070 57006 IEM_DS3505
ZHCC,2009-05-01 10:00,ZHCC 011000Z AUTO 18004KT 2SM 23/11 A2994 RMK T02300110 IEM_DS3505
ZHCC,2009-05-01 11:00,ZHCC 011100Z AUTO 17004KT 2SM 20/13 A2994 RMK T02000130 IEM_DS3505
ZHCC,2009-05-01 12:00,ZHCC 011200Z AUTO 14002KT 3SM 22/10 A2997 RMK SLP150 T02170105 52020 IEM_DS3505
ZHCC,2009-05-01 13:00,ZHCC 011300Z AUTO 18006KT 2SM 18/13 A3000 RMK T01800130 IEM_DS3505
ZHCC,2009-05-01 14:00,ZHCC 011400Z AUTO 00000KT 1 1/4SM 18/14 A3003 RMK T01800140 IEM_DS3505
ZHCC,2009-05-01 15:00,ZHCC 011500Z AUTO 02002KT 2 1/2SM 19/12 A3003 RMK SLP179 T01870118 52028 IEM_DS3505
ZHCC,2009-05-01 16:00,ZHCC 011600Z AUTO 01004KT 1 1/4SM 17/14 A3006 RMK T01700140 IEM_DS3505
ZHCC,2009-05-01 17:00,ZHCC 011700Z AUTO 32006KT 1SM 17/14 A3006 RMK T01700140 IEM_DS3505
ZHCC,2009-05-01 18:00,ZHCC 011800Z AUTO 36002KT 2 1/2SM 21/14 A3003 RMK SLP179 T02060140 54000 IEM_DS3505
ZHCC,2009-05-01 19:00,ZHCC 011900Z AUTO 35004KT 1SM 18/14 A3003 RMK T01800140 IEM_DS3505
ZHCC,2009-05-01 20:00,ZHCC 012000Z AUTO 36006KT 1SM 18/14 A3006 RMK T01800140 IEM_DS3505
ZHCC,2009-05-01 21:00,ZHCC 012100Z AUTO 04002KT 5SM 20/14 A3006 RMK SLP180 T02030140 52002 IEM_DS3505
ZHCC,2009-05-01 22:00,ZHCC 012200Z AUTO 32004KT 1SM 17/15 A3009 RMK T01700150 IEM_DS3505
ZHCC,2009-05-01 23:00,ZHCC 012300Z AUTO 34006KT 1SM 18/16 A3009 RMK T01800160 IEM_DS3505
ZHCC,2009-05-02 00:00,ZHCC 020000Z AUTO 34004KT 4SM 21/14 RMK SLP202 T02100144 52021 IEM_DS3505
ZHCC,2009-05-02 01:00,ZHCC 020100Z AUTO 01008KT 1SM 21/17 A3012 RMK T02100170 IEM_DS3505
ZHCC,2009-05-02 02:00,ZHCC 020200Z AUTO 02008KT 1 1/4SM 23/16 A3012 RMK T02300160 IEM_DS3505
ZHCC,2009-05-02 03:00,ZHCC 020300Z AUTO 32004KT 5SM 25/12 A3012 RMK SLP202 T02490118 54000 IEM_DS3505
ZHCC,2009-05-02 04:00,ZHCC 020400Z AUTO 02006KT 1 1/4SM 25/12 A3012 RMK T02500120 IEM_DS3505
ZHCC,2009-05-02 05:00,ZHCC 020500Z AUTO 02006KT 2 1/2SM 26/11 A3009 RMK T02600110 IEM_DS3505
ZHCC,2009-05-02 06:00,ZHCC 020600Z AUTO 16002KT 7SM 28/05 A3009 RMK SLP182 T02830046 57019 IEM_DS3505
ZHCC,2009-05-02 07:00,ZHCC 020700Z AUTO 08004KT 2 1/2SM 27/06 A3006 RMK T02700060 IEM_DS3505
ZHCC,2009-05-02 08:00,ZHCC 020800Z AUTO 11004KT 2 1/2SM 27/09 A3003 RMK T02700090 IEM_DS3505
ZHCC,2009-05-02 09:00,ZHCC 020900Z AUTO 11006KT 9SM 27/02 A3003 RMK SLP162 T02730024 57020 IEM_DS3505
ZHCC,2009-05-02 10:00,ZHCC 021000Z AUTO 14006KT 2 1/2SM 24/12 A3003 RMK T02400120 IEM_DS3505
ZHCC,2009-05-02 11:00,ZHCC 021100Z AUTO 2 1/2SM 22/13 A3003 RMK T02200130 IEM_DS3505
ZHCC,2009-05-02 12:00,ZHCC 021200Z AUTO 16006KT 9SM 23/12 A3006 RMK SLP179 T02320116 52016 IEM_DS3505
ZHCC,2009-05-02 13:00,ZHCC 021300Z AUTO 2 1/2SM 20/13 A3009 RMK T02000130 IEM_DS3505
ZHCC,2009-05-02 14:00,ZHCC 021400Z AUTO 2 1/2SM 20/13 A3009 RMK T02000130 IEM_DS3505
ZHCC,2009-05-02 15:00,ZHCC 021500Z AUTO 18004KT 6SM 21/12 A3009 RMK SLP189 T02080122 52011 IEM_DS3505
ZHCC,2009-05-02 16:00,ZHCC 021600Z AUTO 1SM 19/13 A3009 RMK T01900130 IEM_DS3505
ZHCC,2009-05-02 17:00,ZHCC 021700Z AUTO 1 1/4SM 19/13 A3009 RMK T01900130 IEM_DS3505
ZHCC,2009-05-02 18:00,ZHCC 021800Z AUTO 16004KT 6SM 19/12 A3006 RMK SLP180 T01910121 57009 IEM_DS3505
ZHCC,2009-05-02 19:00,ZHCC 021900Z AUTO 1SM 17/13 A3006 RMK T01700130 IEM_DS3505
ZHCC,2009-05-02 20:00,ZHCC 022000Z AUTO 1SM 16/13 A3006 RMK T01600130 IEM_DS3505
ZHCC,2009-05-02 21:00,ZHCC 022100Z AUTO 20004KT 6SM 16/12 A3006 RMK SLP177 T01590121 57004 IEM_DS3505
ZHCC,2009-05-02 22:00,ZHCC 022200Z AUTO 1 1/4SM 17/13 A3006 RMK T01700130 IEM_DS3505
ZHCC,2009-05-02 23:00,ZHCC 022300Z AUTO 1 1/4SM 18/14 A3006 RMK T01800140 IEM_DS3505
ZHCC,2009-05-03 00:00,ZHCC 030000Z AUTO 25002KT 5SM 22/13 A3009 RMK SLP182 T02180129 52006 IEM_DS3505
ZHCC,2009-05-03 01:00,ZHCC 030100Z AUTO 20006KT 2SM 22/14 A3009 RMK T02200140 IEM_DS3505
ZHCC,2009-05-03 02:00,ZHCC 030200Z AUTO 18008KT 2SM 23/15 A3009 RMK T02300150 IEM_DS3505
ZHCC,2009-05-03 03:00,ZHCC 030300Z AUTO 14002KT 5SM 28/12 A3006 RMK SLP177 T02770125 57005 IEM_DS3505
ZHCC,2009-05-03 04:00,ZHCC 030400Z AUTO 21006KT 2SM 26/15 A3006 RMK T02600150 IEM_DS3505
ZHCC,2009-05-03 05:00,ZHCC 030500Z AUTO 19008KT 2SM 27/15 A3003 RMK T02700150 IEM_DS3505
ZHCC,2009-05-03 06:00,ZHCC 030600Z AUTO 16010KT 6SM 30/08 A3000 RMK SLP148 T02950080 57028 IEM_DS3505
ZHCC,2009-05-03 07:00,ZHCC 030700Z AUTO 18008KT 2SM 27/16 A2997 RMK T02700160 IEM_DS3505
ZHCC,2009-05-03 08:00,ZHCC 030800Z AUTO 17006KT 2 1/2SM 27/16 A2994 RMK T02700160 IEM_DS3505
ZHCC,2009-05-03 09:00,ZHCC 030900Z AUTO 14008KT 6SM 27/11 A2994 RMK SLP142 T02700114 57013 IEM_DS3505
ZHCC,2009-05-03 10:00,ZHCC 031000Z AUTO 19006KT 2 1/2SM 25/15 A2994 RMK T02500150 IEM_DS3505
ZHCC,2009-05-03 11:00,ZHCC 031100Z AUTO 12004KT 2 1/2SM 24/13 A2997 RMK T02400130 IEM_DS3505
ZHCC,2009-05-03 12:00,ZHCC 031200Z AUTO 18006KT 7SM 24/09 A2997 RMK 60004 SLP144 T02350087 52003 IEM_DS3505
ZHCC,2009-05-03 13:00,ZHCC 031300Z AUTO 18004KT 2 1/2SM 21/13 A3000 RMK T02100130 IEM_DS3505
ZHCC,2009-05-03 14:00,ZHCC 031400Z AUTO 18004KT 2 1/2SM 20/13 A3000 RMK T02000130 IEM_DS3505
ZHCC,2009-05-03 15:00,ZHCC 031500Z AUTO 18008KT 9SM 21/11 A3000 RMK SLP154 T02060108 52010 IEM_DS3505
ZHCC,2009-05-03 16:00,ZHCC 031600Z AUTO 19006KT 2 1/2SM 18/12 A3000 RMK T01800120 IEM_DS3505
ZHCC,2009-05-03 17:00,ZHCC 031700Z AUTO 18006KT 2SM 17/11 A3000 RMK T01700110 IEM_DS3505
ZHCC,2009-05-03 18:00,ZHCC 031800Z AUTO 16008KT 9SM 19/09 A2997 RMK SLP142 T01900086 57012 IEM_DS3505
ZHCC,2009-05-03 19:00,ZHCC 031900Z AUTO 18004KT 1 1/2SM 15/10 A2997 RMK T01500100 IEM_DS3505
ZHCC,2009-05-03 20:00,ZHCC 032000Z AUTO 17004KT 1 1/2SM 15/09 A2997 RMK T01500090 IEM_DS3505
ZHCC,2009-05-03 21:00,ZHCC 032100Z AUTO 16004KT 10SM 17/09 A2997 RMK 70006 SLP150 T01670087 52007 IEM_DS3505
ZHCC,2009-05-03 22:00,ZHCC 032200Z AUTO 15004KT 2SM 13/09 A2997 RMK T01300090 IEM_DS3505
ZHCC,2009-05-03 23:00,ZHCC 032300Z AUTO 16004KT 3SM 15/10 A3000 RMK T01500100 IEM_DS3505
ZHCC,2009-05-04 00:00,ZHCC 040000Z AUTO 16004KT 10SM 20/11 A3000 RMK 70006 SLP151 T01990106 52001 IEM_DS3505
ZHCC,2009-05-04 01:00,ZHCC 040100Z AUTO 17006KT 4SM 21/12 A3000 RMK T02100120 IEM_DS3505
ZHCC,2009-05-04 02:00,ZHCC 040200Z AUTO 17006KT 4SM 22/12 A3000 RMK T02200120 IEM_DS3505
ZHCC,2009-05-04 03:00,ZHCC 040300Z AUTO 16008KT 11SM 26/09 A3000 RMK SLP148 T02620087 57003 IEM_DS3505
ZHCC,2009-05-04 04:00,ZHCC 040400Z AUTO 17008KT 4SM 25/11 A2997 RMK T02500110 IEM_DS3505
ZHCC,2009-05-04 05:00,ZHCC 040500Z AUTO 16010KT 5SM 26/10 A2994 RMK T02600100 IEM_DS3505
ZHCC,2009-05-04 06:00,ZHCC 040600Z AUTO 14012KT 11SM 28/ A2991 RMK SLP126 57021 IEM_DS3505
ZHCC,2009-05-04 07:00,ZHCC 040700Z AUTO 16010KT 5SM 26/11 A2988 RMK T02600110 IEM_DS3505
ZHCC,2009-05-04 08:00,ZHCC 040800Z AUTO 15012KT 5SM 26/09 A2988 RMK T02600090 IEM_DS3505
ZHCC,2009-05-04 09:00,ZHCC 040900Z AUTO 16010KT 11SM 27/08 A2988 RMK SLP111 T02700084 57016 IEM_DS3505
ZHCC,2009-05-04 10:00,ZHCC 041000Z AUTO 15010KT 6SM 24/12 A2988 RMK T02400120 IEM_DS3505
ZHCC,2009-05-04 11:00,ZHCC 041100Z AUTO 15006KT 6SM 23/12 A2988 RMK T02300120 IEM_DS3505
ZHCC,2009-05-04 12:00,ZHCC 041200Z AUTO 14008KT 11SM 24/12 A2991 RMK SLP127 T02380115 52016 IEM_DS3505
ZHCC,2009-05-04 13:00,ZHCC 041300Z AUTO 14004KT 6SM 21/11 A2994 RMK T02100110 IEM_DS3505
ZHCC,2009-05-04 14:00,ZHCC 041400Z AUTO 14004KT 6SM 19/11 A2994 RMK T01900110 IEM_DS3505
ZHCC,2009-05-04 15:00,ZHCC 041500Z AUTO 16008KT 10SM 21/10 A2997 RMK SLP141 T02120098 52015 IEM_DS3505
ZHCC,2009-05-04 16:00,ZHCC 041600Z AUTO 17004KT 6SM 18/09 A2994 RMK T01800090 IEM_DS3505
ZHCC,2009-05-04 17:00,ZHCC 041700Z AUTO 18004KT 2SM 17/09 A2994 RMK T01700090 IEM_DS3505
ZHCC,2009-05-04 18:00,ZHCC 041800Z AUTO 11004KT 10SM 19/07 A2994 RMK SLP137 T01870072 57004 IEM_DS3505
ZHCC,2009-05-04 19:00,ZHCC 041900Z AUTO 2SM 16/08 A2991 RMK T01600080 IEM_DS3505
ZHCC,2009-05-04 20:00,ZHCC 042000Z AUTO 17002KT 2SM 16/08 A2991 RMK T01600080 IEM_DS3505
ZHCC,2009-05-04 21:00,ZHCC 042100Z AUTO 14006KT 9SM 18/06 A2994 RMK SLP133 T01780063 57005 IEM_DS3505
ZHCC,2009-05-04 22:00,ZHCC 042200Z AUTO 6SM 13/08 A2994 RMK T01300080 IEM_DS3505
ZHCC,2009-05-04 23:00,ZHCC 042300Z AUTO 14004KT 6SM 16/09 A2997 RMK T01600090 IEM_DS3505
ZHCC,2009-05-05 00:00,ZHCC 050000Z AUTO 11006KT 7SM 19/08 A2997 RMK SLP149 T01910075 52016 IEM_DS3505
ZHCC,2009-05-05 01:00,ZHCC 050100Z AUTO 15006KT 6SM 19/09 A3000 RMK T01900090 IEM_DS3505
ZHCC,2009-05-05 02:00,ZHCC 050200Z AUTO 15008KT 6SM 21/10 A3000 RMK T02100100 IEM_DS3505
ZHCC,2009-05-05 03:00,ZHCC 050300Z AUTO 14008KT 10SM 24/08 A3000 RMK SLP151 T02360077 52002 IEM_DS3505
ZHCC,2009-05-05 04:00,ZHCC 050400Z AUTO 13008KT 6SM 24/12 A2997 RMK T02400120 IEM_DS3505
ZHCC,2009-05-05 05:00,ZHCC 050500Z AUTO 13008KT 6SM 25/11 A2997 RMK T02500110 IEM_DS3505
ZHCC,2009-05-05 06:00,ZHCC 050600Z AUTO 14010KT 13SM 27/09 A2994 RMK SLP138 T02700094 57013 IEM_DS3505
ZHCC,2009-05-05 07:00,ZHCC 050700Z AUTO 15008KT 6SM 25/12 A2991 RMK T02500120 IEM_DS3505
ZHCC,2009-05-05 08:00,ZHCC 050800Z AUTO 15008KT 6SM 25/11 A2991 RMK T02500110 IEM_DS3505
ZHCC,2009-05-05 09:00,ZHCC 050900Z AUTO 14008KT 12SM 26/08 A2991 RMK SLP129 T02600085 57009 IEM_DS3505
ZHCC,2009-05-05 10:00,ZHCC 051000Z AUTO 15006KT 6SM 23/13 A2991 RMK T02300130 IEM_DS3505
ZHCC,2009-05-05 11:00,ZHCC 051100Z AUTO 14006KT 4SM 22/14 A2994 RMK T02200140 IEM_DS3505
ZHCC,2009-05-05 12:00,ZHCC 051200Z AUTO 11004KT 11SM 23/12 A2997 RMK SLP148 T02300123 52018 IEM_DS3505
ZHCC,2009-05-05 13:00,ZHCC 051300Z AUTO 16002KT 4SM 20/14 A2997 RMK T02000140 IEM_DS3505
ZHCC,2009-05-05 14:00,ZHCC 051400Z AUTO 17002KT 4SM 19/14 A3000 RMK T01900140 IEM_DS3505
ZHCC,2009-05-05 15:00,ZHCC 051500Z AUTO 16002KT 11SM 20/13 A3000 RMK SLP154 T02040131 52007 IEM_DS3505
ZHCC,2009-05-05 16:00,ZHCC 051600Z AUTO 4SM 18/14 A2997 RMK T01800140 IEM_DS3505
ZHCC,2009-05-05 17:00,ZHCC 051700Z AUTO 1 1/4SM 17/13 A2997 RMK T01700130 IEM_DS3505
ZHCC,2009-05-05 18:00,ZHCC 051800Z AUTO 18004KT 7SM 19/13 A2994 RMK SLP139 T01930130 57015 IEM_DS3505
ZHCC,2009-05-05 19:00,ZHCC 051900Z AUTO 00000KT 1 1/4SM 16/13 A2994 RMK T01600130 IEM_DS3505
ZHCC,2009-05-05 20:00,ZHCC 052000Z AUTO 16002KT 1SM 15/13 A2994 RMK T01500130 IEM_DS3505
ZHCC,2009-05-05 21:00,ZHCC 052100Z AUTO 09002KT 7SM 17/13 A2994 RMK SLP141 T01700131 52002 IEM_DS3505
ZHCC,2009-05-05 22:00,ZHCC 052200Z AUTO 15004KT 1 1/4SM 15/13 A2994 RMK T01500130 IEM_DS3505
ZHCC,2009-05-05 23:00,ZHCC 052300Z AUTO 15004KT 1 1/2SM 16/14 A2997 RMK T01600140 IEM_DS3505
ZHCC,2009-05-06 00:00,ZHCC 060000Z AUTO 16004KT 5SM 21/13 A3000 RMK SLP151 T02060133 52010 IEM_DS3505
ZHCC,2009-05-06 01:00,ZHCC 060100Z AUTO 16006KT 2SM 21/15 A3000 RMK T02100150 IEM_DS3505
ZHCC,2009-05-06 02:00,ZHCC 060200Z AUTO 18006KT 2SM 22/14 A3000 RMK T02200140 IEM_DS3505
ZHCC,2009-05-06 03:00,ZHCC 060300Z AUTO 16006KT 6SM 26/13 A3000 RMK SLP152 T02590131 52001 IEM_DS3505
ZHCC,2009-05-06 04:00,ZHCC 060400Z AUTO 16008KT 4SM 25/14 A2997 RMK T02500140 IEM_DS3505
ZHCC,2009-05-06 05:00,ZHCC 060500Z AUTO 16006KT 4SM 27/15 A2994 RMK T02700150 IEM_DS3505
ZHCC,2009-05-06 06:00,ZHCC 060600Z AUTO 16006KT 7SM 28/12 A2994 RMK SLP129 T02840119 57022 IEM_DS3505
ZHCC,2009-05-06 07:00,ZHCC 060700Z AUTO 6SM 27/14 A2991 RMK T02700140 IEM_DS3505
ZHCC,2009-05-06 08:00,ZHCC 060800Z AUTO 15006KT 6SM 27/15 A2988 RMK T02700150 IEM_DS3505
ZHCC,2009-05-06 09:00,ZHCC 060900Z AUTO 14008KT 8SM 28/13 A2985 RMK SLP105 T02780126 57024 IEM_DS3505
ZHCC,2009-05-06 10:00,ZHCC 061000Z AUTO 14006KT 6SM 25/13 A2985 RMK T02500130 IEM_DS3505
ZHCC,2009-05-06 11:00,ZHCC 061100Z AUTO 13004KT 6SM 23/12 A2985 RMK T02300120 IEM_DS3505
ZHCC,2009-05-06 12:00,ZHCC 061200Z AUTO 14004KT 8SM 24/11 A2985 RMK SLP112 T02440107 52006 IEM_DS3505
ZHCC,2009-05-06 13:00,ZHCC 061300Z AUTO 6SM 21/12 A2988 RMK T02100120 IEM_DS3505
ZHCC,2009-05-06 14:00,ZHCC 061400Z AUTO 6SM 20/13 A2988 RMK T02000130 IEM_DS3505
ZHCC,2009-05-06 15:00,ZHCC 061500Z AUTO 16004KT 8SM 21/13 A2988 RMK SLP115 T02120126 52004 IEM_DS3505
ZHCC,2009-05-06 16:00,ZHCC 061600Z AUTO 6SM 20/13 A2988 RMK T02000130 IEM_DS3505
ZHCC,2009-05-06 17:00,ZHCC 061700Z AUTO 17004KT 1 1/2SM 19/13 A2985 RMK T01900130 IEM_DS3505
ZHCC,2009-05-06 18:00,ZHCC 061800Z AUTO 16004KT 7SM 21/12 A2983 RMK SLP097 T02060115 57017 IEM_DS3505
ZHCC,2009-05-06 19:00,ZHCC 061900Z AUTO 19002KT 1 1/4SM 16/13 A2983 RMK T01600130 IEM_DS3505
ZHCC,2009-05-06 20:00,ZHCC 062000Z AUTO 1 1/4SM 17/12 A2983 RMK T01700120 IEM_DS3505
ZHCC,2009-05-06 21:00,ZHCC 062100Z AUTO 16004KT 7SM 19/11 A2983 RMK SLP095 T01920107 57003 IEM_DS3505
ZHCC,2009-05-06 22:00,ZHCC 062200Z AUTO 15002KT 4SM 15/12 A2983 RMK T01500120 IEM_DS3505
ZHCC,2009-05-06 23:00,ZHCC 062300Z AUTO 11004KT 4SM 17/14 A2983 RMK T01700140 IEM_DS3505
ZHCC,2009-05-07 00:00,ZHCC 070000Z AUTO 14004KT 6SM 23/12 A2983 RMK SLP098 T02280121 52003 IEM_DS3505
ZHCC,2009-05-07 01:00,ZHCC 070100Z AUTO 17004KT 6SM 22/14 A2985 RMK T02200140 IEM_DS3505
ZHCC,2009-05-07 02:00,ZHCC 070200Z AUTO 17006KT 6SM 25/15 A2985 RMK T02500150 IEM_DS3505
ZHCC,2009-05-07 03:00,ZHCC 070300Z AUTO 18008KT 7SM 28/11 A2985 RMK SLP098 T02850107 52001 IEM_DS3505
ZHCC,2009-05-07 04:00,ZHCC 070400Z AUTO 6SM 27/13 A2983 RMK T02700130 IEM_DS3505
ZHCC,2009-05-07 05:00,ZHCC 070500Z AUTO 18008KT 6SM 28/12 A2980 RMK T02800120 IEM_DS3505
ZHCC,2009-05-07 06:00,ZHCC 070600Z AUTO 16010KT 10SM 30/10 A2977 RMK SLP072 T03000105 57026 IEM_DS3505
ZHCC,2009-05-07 07:00,ZHCC 070700Z AUTO 17008KT 6SM 29/13 A2974 RMK T02900130 IEM_DS3505
ZHCC,2009-05-07 08:00,ZHCC 070800Z AUTO 16010KT 6SM 29/15 A2971 RMK T02900150 IEM_DS3505
ZHCC,2009-05-07 09:00,ZHCC 070900Z AUTO 16008KT 10SM 30/12 A2971 RMK SLP052 T02970122 57020 IEM_DS3505
ZHCC,2009-05-07 10:00,ZHCC 071000Z AUTO 15008KT 6SM 27/15 A2971 RMK T02700150 IEM_DS3505
ZHCC,2009-05-07 11:00,ZHCC 071100Z AUTO 14006KT 6SM 26/15 A2971 RMK T02600150 IEM_DS3505
ZHCC,2009-05-07 12:00,ZHCC 071200Z AUTO 14006KT 9SM 27/14 A2974 RMK SLP061 T02660137 52009 IEM_DS3505
ZHCC,2009-05-07 13:00,ZHCC 071300Z AUTO 14004KT 6SM 23/15 A2974 RMK T02300150 IEM_DS3505
ZHCC,2009-05-07 14:00,ZHCC 071400Z AUTO 16002KT 6SM 22/15 A2977 RMK T02200150 IEM_DS3505
ZHCC,2009-05-07 15:00,ZHCC 071500Z AUTO 16006KT 8SM 24/14 A2977 RMK SLP071 T02430144 52011 IEM_DS3505
ZHCC,2009-05-07 16:00,ZHCC 071600Z AUTO 6SM 21/15 A2977 RMK T02100150 IEM_DS3505
ZHCC,2009-05-07 17:00,ZHCC 071700Z AUTO 16004KT 1 1/2SM 20/15 A2974 RMK T02000150 IEM_DS3505
ZHCC,2009-05-07 18:00,ZHCC 071800Z AUTO 16006KT 8SM 23/15 A2974 RMK SLP055 T02290152 57016 IEM_DS3505
ZHCC,2009-05-07 19:00,ZHCC 071900Z AUTO 1 1/4SM 19/15 A2974 RMK T01900150 IEM_DS3505
ZHCC,2009-05-07 20:00,ZHCC 072000Z AUTO 17004KT 1 1/4SM 19/15 A2974 RMK T01900150 IEM_DS3505
ZHCC,2009-05-07 21:00,ZHCC 072100Z AUTO 14002KT 8SM 21/16 A2971 RMK SLP061 T02140157 52005 IEM_DS3505
ZHCC,2009-05-07 22:00,ZHCC 072200Z AUTO 1 1/4SM 18/15 A2974 RMK T01800150 IEM_DS3505
ZHCC,2009-05-07 23:00,ZHCC 072300Z AUTO 1 1/4SM 19/16 A2974 RMK T01900160 IEM_DS3505
ZHCC,2009-05-08 00:00,ZHCC 080000Z AUTO 14006KT 6SM 24/16 A2977 RMK SLP072 T02390164 52011 IEM_DS3505
ZHCC,2009-05-08 01:00,ZHCC 080100Z AUTO 18006KT 2SM 24/18 A2977 RMK T02400180 IEM_DS3505
ZHCC,2009-05-08 02:00,ZHCC 080200Z AUTO 20006KT 2SM 26/19 A2974 RMK T02600190 IEM_DS3505
ZHCC,2009-05-08 03:00,ZHCC 080300Z AUTO 16012KT 4SM 29/16 A2974 RMK SLP060 T02860162 57011 IEM_DS3505
ZHCC,2009-05-08 05:00,ZHCC 080500Z AUTO 18010G23KT 2SM 29/19 A2968 RMK T02900190 IEM_DS3505
ZHCC,2009-05-08 06:00,ZHCC 080600Z AUTO 16012G21KT 6SM 30/18 A2968 RMK SLP036 T03010176 57024 IEM_DS3505
ZHCC,2009-05-08 07:00,ZHCC 080700Z AUTO 20010G19KT 2 1/2SM 30/19 A2965 RMK T03000190 IEM_DS3505
ZHCC,2009-05-08 08:00,ZHCC 080800Z AUTO 18010G19KT 2 1/2SM 29/18 A2962 RMK T02900180 IEM_DS3505
ZHCC,2009-05-08 09:00,ZHCC 080900Z AUTO 16010G17KT 9SM 30/16 A2962 RMK SLP020 T03010165 57016 IEM_DS3505
ZHCC,2009-05-08 11:00,ZHCC 081100Z AUTO 16004KT 2 1/2SM 27/21 A2962 RMK T02700210 IEM_DS3505
ZHCC,2009-05-08 12:00,ZHCC 081200Z AUTO 16010KT 9SM 28/18 A2962 RMK SLP024 T02810185 52004 IEM_DS3505
ZHCC,2009-05-08 13:00,ZHCC 081300Z AUTO 16002KT 2SM 25/19 A2965 RMK T02500190 IEM_DS3505
ZHCC,2009-05-08 14:00,ZHCC 081400Z AUTO 3SM 26/19 A2965 RMK T02600190 IEM_DS3505
ZHCC,2009-05-08 15:00,ZHCC 081500Z AUTO 16006KT 7SM 26/18 A2965 RMK SLP032 T02640185 52009 IEM_DS3505
ZHCC,2009-05-08 16:00,ZHCC 081600Z AUTO 20004KT 3SM 24/19 A2965 RMK T02400190 IEM_DS3505
ZHCC,2009-05-08 17:00,ZHCC 081700Z AUTO 2 1/2SM 23/19 A2965 RMK T02300190 IEM_DS3505
ZHCC,2009-05-08 18:00,ZHCC 081800Z AUTO 20008KT 7SM 26/16 A2962 RMK SLP018 T02640161 57014 IEM_DS3505
ZHCC,2009-05-08 19:00,ZHCC 081900Z AUTO 20004KT 1SM 23/19 A2962 RMK T02300190 IEM_DS3505
ZHCC,2009-05-08 20:00,ZHCC 082000Z AUTO 1SM 23/19 A2959 RMK T02300190 IEM_DS3505
ZHCC,2009-05-08 21:00,ZHCC 082100Z AUTO 22004KT 7SM 25/17 A2959 RMK SLP016 T02520169 57002 IEM_DS3505
ZHCC,2009-05-08 22:00,ZHCC 082200Z AUTO 16004KT 1 1/4SM 22/18 A2962 RMK T02200180 IEM_DS3505
ZHCC,2009-05-08 23:00,ZHCC 082300Z AUTO 18004KT 1 1/4SM 22/19 A2962 RMK T02200190 IEM_DS3505
ZHCC,2009-05-09 00:00,ZHCC 090000Z AUTO 14006KT 6SM 26/18 A2962 RMK SLP022 T02600182 52006 IEM_DS3505
ZHCC,2009-05-09 01:00,ZHCC 090100Z AUTO 19004KT 2SM 25/20 A2962 RMK T02500200 IEM_DS3505
ZHCC,2009-05-09 02:00,ZHCC 090200Z AUTO 20004KT 2SM 26/20 A2962 RMK T02600200 IEM_DS3505
ZHCC,2009-05-09 03:00,ZHCC 090300Z AUTO 16006KT 6SM 29/18 A2962 RMK SLP016 T02880183 57006 IEM_DS3505
ZHCC,2009-05-09 04:00,ZHCC 090400Z AUTO 21008KT 2SM 27/20 A2962 RMK T02700200 IEM_DS3505
ZHCC,2009-05-09 05:00,ZHCC 090500Z AUTO 2SM 28/21 A2959 RMK T02800210 IEM_DS3505
ZHCC,2009-05-09 06:00,ZHCC 090600Z AUTO 16004KT 6SM 29/20 A2959 RMK SLP010 T02890198 57006 IEM_DS3505
ZHCC,2009-05-09 07:00,ZHCC 090700Z AUTO 17004KT 2 1/2SM 28/21 A2956 RMK T02800210 IEM_DS3505
ZHCC,2009-05-09 08:00,ZHCC 090800Z AUTO 16004KT 2 1/2SM 28/21 A2956 RMK T02800210 IEM_DS3505
ZHCC,2009-05-09 09:00,ZHCC 090900Z AUTO 16006KT 6SM 29/20 A2956 RMK SLP002 T02930199 57008 IEM_DS3505
ZHCC,2009-05-09 10:00,ZHCC 091000Z AUTO 12006KT 2SM 28/22 A2956 RMK T02800220 IEM_DS3505
ZHCC,2009-05-09 11:00,ZHCC 091100Z AUTO 12006KT 2SM 27/22 A2956 RMK T02700220 IEM_DS3505
ZHCC,2009-05-09 12:00,ZHCC 091200Z AUTO 09004KT 4SM 28/21 RMK 60000 SLP008 T02820212 52006 IEM_DS3505
ZHCC,2009-05-09 13:00,ZHCC 091300Z AUTO 15004KT 2SM 26/22 A2959 RMK T02600220 IEM_DS3505
ZHCC,2009-05-09 14:00,ZHCC 091400Z AUTO 15004KT 2SM 26/22 A2959 RMK T02600220 IEM_DS3505
ZHCC,2009-05-09 15:00,ZHCC 091500Z AUTO 07002KT 3SM 26/22 A2959 RMK SLP021 T02600219 52013 IEM_DS3505
ZHCC,2009-05-09 16:00,ZHCC 091600Z AUTO 17004KT 2SM 25/21 A2959 RMK T02500210 IEM_DS3505
ZHCC,2009-05-09 17:00,ZHCC 091700Z AUTO 1 1/4SM 25/21 A2962 RMK T02500210 IEM_DS3505
ZHCC,2009-05-09 18:00,ZHCC 091800Z AUTO 04010KT 6SM 18/14 A2965 RMK SLP041 T01850142 52018 IEM_DS3505
ZHCC,2009-05-09 19:00,ZHCC 091900Z AUTO 04017KT 2SM 16/13 A2965 RMK T01600130 IEM_DS3505
ZHCC,2009-05-09 20:00,ZHCC 092000Z AUTO 03016KT 2SM 14/12 A2968 RMK T01400120 IEM_DS3505
ZHCC,2009-05-09 21:00,ZHCC 092100Z AUTO 04014KT 8SM 15/11 A2971 RMK 70000 SLP064 T01490111 52022 IEM_DS3505
ZHCC,2009-05-09 22:00,ZHCC 092200Z AUTO 03014KT 4SM 13/11 A2974 RMK T01300110 IEM_DS3505
ZHCC,2009-05-09 23:00,ZHCC 092300Z AUTO 02012KT 2SM 12/11 A2980 RMK T01200110 IEM_DS3505
ZHCC,2009-05-10 00:00,ZHCC 100000Z AUTO 04012KT 7SM 14/11 A2980 RMK 60002 70002 SLP100 T01420108 52035 IEM_DS3505
ZHCC,2009-05-10 01:00,ZHCC 100100Z AUTO 03014KT 4SM 13/11 A2983 RMK T01300110 IEM_DS3505
ZHCC,2009-05-10 02:00,ZHCC 100200Z AUTO 02016G27KT 7SM 14/12 A2983 RMK T01400120 IEM_DS3505
ZHCC,2009-05-10 03:00,ZHCC 100300Z AUTO 04008G25KT 14SM 17/11 A2983 RMK SLP100 T01680111 54000 IEM_DS3505
ZHCC,2009-05-10 04:00,ZHCC 100400Z AUTO 03016KT 7SM 15/11 A2983 RMK T01500110 IEM_DS3505
ZHCC,2009-05-10 05:00,ZHCC 100500Z AUTO 03014G23KT 7SM 15/11 A2983 RMK T01500110 IEM_DS3505
ZHCC,2009-05-10 06:00,ZHCC 100600Z AUTO 04008KT 8SM 17/10 A2980 RMK 60000 SLP099 T01670105 57003 IEM_DS3505
ZHCC,2009-05-10 07:00,ZHCC 100700Z AUTO 02016KT 4SM 15/11 A2980 RMK T01500110 IEM_DS3505
ZHCC,2009-05-10 08:00,ZHCC 100800Z AUTO 03014G23KT 4SM 16/11 A2980 RMK T01600110 IEM_DS3505
ZHCC,2009-05-10 09:00,ZHCC 100900Z AUTO 04006KT 6SM 17/11 A2983 RMK SLP103 T01670108 52004 IEM_DS3505
ZHCC,2009-05-10 10:00,ZHCC 101000Z AUTO 02012KT 3SM 15/11 A2983 RMK T01500110 IEM_DS3505
ZHCC,2009-05-10 11:00,ZHCC 101100Z AUTO 03006KT 3SM 15/11 A2983 RMK T01500110 IEM_DS3505
ZHCC,2009-05-10 12:00,ZHCC 101200Z AUTO 02004KT 6SM 16/12 A2983 RMK 60000 SLP107 T01580116 52003 IEM_DS3505
ZHCC,2009-05-10 13:00,ZHCC 101300Z AUTO 02008KT 2SM 15/12 A2985 RMK T01500120 IEM_DS3505
ZHCC,2009-05-10 14:00,ZHCC 101400Z AUTO 02006KT 1 1/4SM 14/12 A2985 RMK T01400120 IEM_DS3505
ZHCC,2009-05-10 15:00,ZHCC 101500Z AUTO 36004KT 6SM 15/13 A2985 RMK SLP111 T01480128 52005 IEM_DS3505
ZHCC,2009-05-10 16:00,ZHCC 101600Z AUTO 01006KT 1SM 14/12 A2983 RMK T01400120 IEM_DS3505
ZHCC,2009-05-10 17:00,ZHCC 101700Z AUTO 01004KT 1SM 13/12 A2983 RMK T01300120 IEM_DS3505
ZHCC,2009-05-10 18:00,ZHCC 101800Z AUTO 04002KT 5SM 14/13 A2983 RMK 60047 SLP103 T01410128 57009 IEM_DS3505
ZHCC,2009-05-10 19:00,ZHCC 101900Z AUTO 02006KT 1SM 13/12 A2983 RMK T01300120 IEM_DS3505
ZHCC,2009-05-10 20:00,ZHCC 102000Z AUTO 03008KT 1SM 13/12 A2983 RMK T01300120 IEM_DS3505
ZHCC,2009-05-10 21:00,ZHCC 102100Z AUTO 07004KT 4SM 14/12 A2983 RMK 70102 SLP102 T01360123 57001 IEM_DS3505
ZHCC,2009-05-10 22:00,ZHCC 102200Z AUTO 03002KT 1SM 12/12 A2983 RMK T01200120 IEM_DS3505
ZHCC,2009-05-10 23:00,ZHCC 102300Z AUTO 01002KT 1SM 13/12 A2985 RMK T01300120 IEM_DS3505
ZHCC,2009-05-11 00:00,ZHCC 110000Z AUTO 09002KT 4SM 14/12 A2985 RMK 60055 70101 SLP115 T01440123 52013 IEM_DS3505
ZHCC,2009-05-11 01:00,ZHCC 110100Z AUTO 01004KT 1SM 13/13 A2985 RMK T01300130 IEM_DS3505
ZHCC,2009-05-11 02:00,ZHCC 110200Z AUTO 05004KT 1SM 14/13 A2985 RMK T01400130 IEM_DS3505
ZHCC,2009-05-11 03:00,ZHCC 110300Z AUTO 09004KT 4SM 16/13 A2985 RMK SLP114 T01560134 57001 IEM_DS3505
ZHCC,2009-05-11 04:00,ZHCC 110400Z AUTO 01004KT 1 1/4SM 15/14 A2985 RMK T01500140 IEM_DS3505
ZHCC,2009-05-11 05:00,ZHCC 110500Z AUTO 36006KT 1 1/4SM 16/14 A2985 RMK T01600140 IEM_DS3505
ZHCC,2009-05-11 06:00,ZHCC 110600Z AUTO 34004KT 2 1/2SM 18/14 A2983 RMK 60004 SLP107 T01800137 57006 IEM_DS3505
ZHCC,2009-05-11 07:00,ZHCC 110700Z AUTO 35006KT 1 1/4SM 17/14 A2985 RMK T01700140 IEM_DS3505
ZHCC,2009-05-11 08:00,ZHCC 110800Z AUTO 36006KT 1 1/4SM 17/15 A2983 RMK T01700150 IEM_DS3505
ZHCC,2009-05-11 09:00,ZHCC 110900Z AUTO 32006KT 2 1/2SM 17/15 A2983 RMK SLP109 T01700153 52001 IEM_DS3505
ZHCC,2009-05-11 10:00,ZHCC 111000Z AUTO 36008KT 1SM 17/15 A2985 RMK T01700150 IEM_DS3505
ZHCC,2009-05-11 11:00,ZHCC 111100Z AUTO 36004KT 1SM 17/15 A2985 RMK T01700150 IEM_DS3505
ZHCC,2009-05-11 12:00,ZHCC 111200Z AUTO 32002KT 2 1/2SM 17/16 A2988 RMK 60008 SLP123 T01730158 52014 IEM_DS3505
ZHCC,2009-05-11 13:00,ZHCC 111300Z AUTO 35004KT 1SM 16/15 A2991 RMK T01600150 IEM_DS3505
ZHCC,2009-05-11 14:00,ZHCC 111400Z AUTO 35004KT 1SM 16/15 A2991 RMK T01600150 IEM_DS3505
ZHCC,2009-05-11 15:00,ZHCC 111500Z AUTO 29002KT 2 1/2SM 18/16 A2991 RMK SLP133 T01750162 52011 IEM_DS3505
ZHCC,2009-05-11 16:00,ZHCC 111600Z AUTO 00000KT 1SM 16/16 A2991 RMK T01600160 IEM_DS3505
ZHCC,2009-05-11 17:00,ZHCC 111700Z AUTO 22004KT 3/8SM 16/16 A2991 RMK T01600160 IEM_DS3505
ZHCC,2009-05-11 18:00,ZHCC 111800Z AUTO 18002KT 4SM 17/16 A2991 RMK 60008 SLP129 T01710158 57004 IEM_DS3505
ZHCC,2009-05-11 19:00,ZHCC 111900Z AUTO 22004KT 1/2SM 16/16 A2991 RMK T01600160 IEM_DS3505
ZHCC,2009-05-11 20:00,ZHCC 112000Z AUTO 22002KT 3/8SM 16/15 A2991 RMK T01600150 IEM_DS3505
ZHCC,2009-05-11 21:00,ZHCC 112100Z AUTO 00000KT 2SM 16/15 A2991 RMK 70020 SLP135 T01560150 52005 IEM_DS3505
ZHCC,2009-05-11 23:00,ZHCC 112300Z AUTO 35004KT 1SM 17/16 A2994 RMK T01700160 IEM_DS3505
ZHCC,2009-05-12 00:00,ZHCC 120000Z AUTO 29006KT 5SM 21/17 A2994 RMK 70020 SLP147 T02100166 52014 IEM_DS3505
ZHCC,2009-05-12 01:00,ZHCC 120100Z AUTO 34012KT 2SM 21/19 A2997 RMK T02100190 IEM_DS3505
ZHCC,2009-05-12 02:00,ZHCC 120200Z AUTO 34010KT 2SM 24/18 A2997 RMK T02400180 IEM_DS3505
ZHCC,2009-05-12 03:00,ZHCC 120300Z AUTO 32002KT 7SM 26/15 A3000 RMK SLP155 T02580149 52009 IEM_DS3505
ZHCC,2009-05-12 04:00,ZHCC 120400Z AUTO 04012KT 3SM 26/16 A3000 RMK T02600160 IEM_DS3505
ZHCC,2009-05-12 05:00,ZHCC 120500Z AUTO 04010KT 3SM 27/15 A2997 RMK T02700150 IEM_DS3505
ZHCC,2009-05-12 06:00,ZHCC 120600Z AUTO 02008KT 9SM 28/13 A2997 RMK SLP147 T02790127 57008 IEM_DS3505
ZHCC,2009-05-12 07:00,ZHCC 120700Z AUTO 03012KT 3SM 28/14 A2994 RMK T02800140 IEM_DS3505
ZHCC,2009-05-12 08:00,ZHCC 120800Z AUTO 04010KT 3SM 27/14 A2994 RMK T02700140 IEM_DS3505
ZHCC,2009-05-12 09:00,ZHCC 120900Z AUTO 02008KT 9SM 27/12 A2994 RMK SLP141 T02690118 57006 IEM_DS3505
ZHCC,2009-05-12 10:00,ZHCC 121000Z AUTO 04008KT 3SM 26/15 A2994 RMK T02600150 IEM_DS3505
ZHCC,2009-05-12 11:00,ZHCC 121100Z AUTO 03004KT 3SM 24/15 A2997 RMK T02400150 IEM_DS3505
ZHCC,2009-05-12 12:00,ZHCC 121200Z AUTO 07002KT 9SM 25/12 A3000 RMK SLP155 T02460122 52014 IEM_DS3505
ZHCC,2009-05-12 13:00,ZHCC 121300Z AUTO 04004KT 2 1/2SM 23/15 A3000 RMK T02300150 IEM_DS3505
ZHCC,2009-05-12 14:00,ZHCC 121400Z AUTO 03004KT 2 1/2SM 22/15 A3003 RMK T02200150 IEM_DS3505
ZHCC,2009-05-12 15:00,ZHCC 121500Z AUTO 04004KT 7SM 23/13 A3003 RMK SLP166 T02340130 52012 IEM_DS3505
ZHCC,2009-05-12 16:00,ZHCC 121600Z AUTO 04004KT 1 1/4SM 21/15 A3000 RMK T02100150 IEM_DS3505
ZHCC,2009-05-12 17:00,ZHCC 121700Z AUTO 04004KT 1SM 20/15 A3003 RMK T02000150 IEM_DS3505
ZHCC,2009-05-12 18:00,ZHCC 121800Z AUTO 04004KT 6SM 21/16 A3003 RMK SLP164 T02100158 57002 IEM_DS3505
ZHCC,2009-05-12 19:00,ZHCC 121900Z AUTO 03002KT 1SM 19/16 A3000 RMK T01900160 IEM_DS3505
ZHCC,2009-05-12 20:00,ZHCC 122000Z AUTO 36004KT 1SM 18/16 A3003 RMK T01800160 IEM_DS3505
ZHCC,2009-05-12 21:00,ZHCC 122100Z AUTO 07002KT 2SM 20/16 A3003 RMK SLP167 T01950163 52002 IEM_DS3505
ZHCC,2009-05-12 22:00,ZHCC 122200Z AUTO 04004KT 1/2SM 18/16 A3003 RMK T01800160 IEM_DS3505
ZHCC,2009-05-12 23:00,ZHCC 122300Z AUTO 06004KT 1/2SM 18/16 A3006 RMK T01800160 IEM_DS3505
ZHCC,2009-05-13 00:00,ZHCC 130000Z AUTO 11002KT 2SM 19/16 A3006 RMK 60000 70000 SLP183 T01940157 52015 IEM_DS3505
ZHCC,2009-05-13 01:00,ZHCC 130100Z AUTO 1SM 19/17 A3006 RMK T01900170 IEM_DS3505
ZHCC,2009-05-13 02:00,ZHCC 130200Z AUTO 09004KT 1SM 20/18 A3006 RMK T02000180 IEM_DS3505
ZHCC,2009-05-13 03:00,ZHCC 130300Z AUTO 11004KT 2 1/2SM 22/16 A3006 RMK SLP176 T02250158 57006 IEM_DS3505
ZHCC,2009-05-13 04:00,ZHCC 130400Z AUTO 15006KT 1 1/4SM 23/16 A3003 RMK T02300160 IEM_DS3505
ZHCC,2009-05-13 05:00,ZHCC 130500Z AUTO 14008KT 1 1/4SM 24/17 A3000 RMK T02400170 IEM_DS3505
ZHCC,2009-05-13 06:00,ZHCC 130600Z AUTO 14006KT 4SM 26/15 A3000 RMK SLP153 T02570148 57023 IEM_DS3505
ZHCC,2009-05-13 07:00,ZHCC 130700Z AUTO 12008KT 1 1/2SM 24/17 A2997 RMK T02400170 IEM_DS3505
ZHCC,2009-05-13 08:00,ZHCC 130800Z AUTO 13006KT 1 1/2SM 24/17 A2994 RMK T02400170 IEM_DS3505
ZHCC,2009-05-13 09:00,ZHCC 130900Z AUTO 11006KT 7SM 25/16 A2994 RMK SLP134 T02470156 57019 IEM_DS3505
ZHCC,2009-05-13 10:00,ZHCC 131000Z AUTO 13006KT 1 1/2SM 23/17 A2994 RMK T02300170 IEM_DS3505
ZHCC,2009-05-13 11:00,ZHCC 131100Z AUTO 10006KT 1 1/2SM 22/17 A2991 RMK T02200170 IEM_DS3505
ZHCC,2009-05-13 12:00,ZHCC 131200Z AUTO 09004KT 6SM 23/16 A2991 RMK 60000 SLP134 T02310159 54000 IEM_DS3505
ZHCC,2009-05-13 13:00,ZHCC 131300Z AUTO 07004KT 1 1/4SM 22/17 A2994 RMK T02200170 IEM_DS3505
ZHCC,2009-05-13 14:00,ZHCC 131400Z AUTO 08006KT 1 1/4SM 22/17 A2994 RMK T02200170 IEM_DS3505
ZHCC,2009-05-13 15:00,ZHCC 131500Z AUTO 16004KT 6SM 21/17 A2994 RMK SLP145 T02140172 52011 IEM_DS3505
ZHCC,2009-05-13 16:00,ZHCC 131600Z AUTO 03006KT 1 1/4SM 20/17 A2994 RMK T02000170 IEM_DS3505
ZHCC,2009-05-13 17:00,ZHCC 131700Z AUTO 03006KT 1 1/4SM 19/16 A2994 RMK T01900160 IEM_DS3505
ZHCC,2009-05-13 18:00,ZHCC 131800Z AUTO 04006KT 6SM 18/13 A2994 RMK 60012 SLP139 T01830127 57006 IEM_DS3505
ZHCC,2009-05-13 19:00,ZHCC 131900Z AUTO 1 1/2SM 17/14 A2994 RMK T01700140 IEM_DS3505
ZHCC,2009-05-13 20:00,ZHCC 132000Z AUTO 03008KT 1 1/2SM 17/14 A2991 RMK T01700140 IEM_DS3505
ZHCC,2009-05-13 21:00,ZHCC 132100Z AUTO 04006KT 6SM 18/12 A2991 RMK 70013 SLP136 T01780116 57003 IEM_DS3505
ZHCC,2009-05-13 22:00,ZHCC 132200Z AUTO 03008KT 2 1/2SM 16/13 A2991 RMK T01600130 IEM_DS3505
ZHCC,2009-05-13 23:00,ZHCC 132300Z AUTO 04006KT 2 1/2SM 16/13 A2994 RMK T01600130 IEM_DS3505
ZHCC,2009-05-14 00:00,ZHCC 140000Z AUTO 04004KT 10SM 18/11 A2994 RMK 60000 70013 SLP139 T01750106 52002 IEM_DS3505
ZHCC,2009-05-14 01:00,ZHCC 140100Z AUTO 05008KT 2 1/2SM 17/13 A2991 RMK T01700130 IEM_DS3505
ZHCC,2009-05-14 02:00,ZHCC 140200Z AUTO 11002KT 2SM 17/13 A2997 RMK T01700130 IEM_DS3505
ZHCC,2009-05-14 03:00,ZHCC 140300Z AUTO 34004KT 8SM 17/12 A2997 RMK SLP152 T01700125 52013 IEM_DS3505
ZHCC,2009-05-14 04:00,ZHCC 140400Z AUTO 36006KT 2SM 16/13 A2994 RMK T01600130 IEM_DS3505
ZHCC,2009-05-14 05:00,ZHCC 140500Z AUTO 01010KT 2SM 15/13 A2991 RMK T01500130 IEM_DS3505
ZHCC,2009-05-14 06:00,ZHCC 140600Z AUTO 34002KT 7SM 15/13 A2994 RMK 60020 SLP145 T01520131 57008 IEM_DS3505
ZHCC,2009-05-14 07:00,ZHCC 140700Z AUTO 01010KT 2SM 14/13 A2991 RMK T01400130 IEM_DS3505
ZHCC,2009-05-14 08:00,ZHCC 140800Z AUTO 02008KT 1 1/4SM 13/12 A2991 RMK T01300120 IEM_DS3505
ZHCC,2009-05-14 09:00,ZHCC 140900Z AUTO 36004KT 7SM 14/12 A2994 RMK SLP142 T01350116 57006 IEM_DS3505
ZHCC,2009-05-14 10:00,ZHCC 141000Z AUTO 36010KT 1 1/4SM 13/12 A2994 RMK T01300120 IEM_DS3505
ZHCC,2009-05-14 11:00,ZHCC 141100Z AUTO 36008KT 1 1/4SM 12/11 A2994 RMK T01200110 IEM_DS3505
ZHCC,2009-05-14 12:00,ZHCC 141200Z AUTO 04004KT 6SM 14/12 A2994 RMK 60035 SLP149 T01360115 52004 IEM_DS3505
ZHCC,2009-05-14 13:00,ZHCC 141300Z AUTO 03006KT 1 1/4SM 12/12 A2997 RMK T01200120 IEM_DS3505
ZHCC,2009-05-14 14:00,ZHCC 141400Z AUTO 05006KT 1 1/4SM 12/12 A2997 RMK T01200120 IEM_DS3505
ZHCC,2009-05-14 15:00,ZHCC 141500Z AUTO 09002KT 5SM 13/12 A2997 RMK SLP156 T01320116 52007 IEM_DS3505
ZHCC,2009-05-14 16:00,ZHCC 141600Z AUTO 36002KT 1 1/4SM 12/11 A2997 RMK T01200110 IEM_DS3505
ZHCC,2009-05-14 17:00,ZHCC 141700Z AUTO 34002KT 1SM 12/11 A2994 RMK T01200110 IEM_DS3505
ZHCC,2009-05-14 18:00,ZHCC 141800Z AUTO 16002KT 4SM 13/12 A2994 RMK 60043 SLP142 T01270118 57015 IEM_DS3505
ZHCC,2009-05-14 19:00,ZHCC 141900Z AUTO 35002KT 1SM 12/11 A2991 RMK T01200110 IEM_DS3505
ZHCC,2009-05-14 20:00,ZHCC 142000Z AUTO 1SM 12/11 A2988 RMK T01200110 IEM_DS3505
ZHCC,2009-05-14 21:00,ZHCC 142100Z AUTO 09002KT 2 1/2SM 13/12 A2988 RMK 70133 SLP124 T01290120 57018 IEM_DS3505
ZHCC,2009-05-14 22:00,ZHCC 142200Z AUTO 36004KT 1SM 12/11 A2991 RMK T01200110 IEM_DS3505
ZHCC,2009-05-14 23:00,ZHCC 142300Z AUTO 02006KT 1SM 12/12 A2991 RMK T01200120 IEM_DS3505
ZHCC,2009-05-15 00:00,ZHCC 150000Z AUTO 34002KT 2SM 14/12 A2991 RMK 60039 70139 SLP135 T01350119 52011 IEM_DS3505
ZHCC,2009-05-15 01:00,ZHCC 150100Z AUTO 01006KT 1SM 13/12 A2991 RMK T01300120 IEM_DS3505
ZHCC,2009-05-15 02:00,ZHCC 150200Z AUTO 36006KT 1SM 13/12 A2994 RMK T01300120 IEM_DS3505
ZHCC,2009-05-15 03:00,ZHCC 150300Z AUTO 32004KT 1 1/4SM 14/12 A2991 RMK SLP143 T01370123 52008 IEM_DS3505
ZHCC,2009-05-15 04:00,ZHCC 150400Z AUTO 01008KT 1SM 13/12 A2991 RMK T01300120 IEM_DS3505
ZHCC,2009-05-15 05:00,ZHCC 150500Z AUTO 01006KT 1SM 13/13 A2988 RMK T01300130 IEM_DS3505
ZHCC,2009-05-15 06:00,ZHCC 150600Z AUTO 32006KT 1 1/4SM 14/12 A2988 RMK 60035 SLP127 T01430125 57016 IEM_DS3505
ZHCC,2009-05-15 07:00,ZHCC 150700Z AUTO 36006KT 1SM 13/13 A2988 RMK T01300130 IEM_DS3505
ZHCC,2009-05-15 08:00,ZHCC 150800Z AUTO 35006KT 1SM 13/13 A2988 RMK T01300130 IEM_DS3505
ZHCC,2009-05-15 09:00,ZHCC 150900Z AUTO 36004KT 5SM 16/12 A2988 RMK SLP120 T01630123 57006 IEM_DS3505
ZHCC,2009-05-15 10:00,ZHCC 151000Z AUTO 36006KT 1SM 14/14 A2988 RMK T01400140 IEM_DS3505
ZHCC,2009-05-15 11:00,ZHCC 151100Z AUTO 00000KT 1SM 14/13 A2988 RMK T01400130 IEM_DS3505
ZHCC,2009-05-15 12:00,ZHCC 151200Z AUTO 27002KT 4SM 16/13 A2988 RMK 60000 SLP126 T01550126 52006 IEM_DS3505
ZHCC,2009-05-15 13:00,ZHCC 151300Z AUTO 00000KT 1SM 14/13 A2991 RMK T01400130 IEM_DS3505
ZHCC,2009-05-15 14:00,ZHCC 151400Z AUTO 00000KT 1SM 13/12 A2991 RMK T01300120 IEM_DS3505
ZHCC,2009-05-15 15:00,ZHCC 151500Z AUTO 27002KT 3SM 15/13 A2988 RMK SLP129 T01540129 52003 IEM_DS3505
ZHCC,2009-05-15 16:00,ZHCC 151600Z AUTO 00000KT 1SM 13/12 A2991 RMK T01300120 IEM_DS3505
ZHCC,2009-05-15 17:00,ZHCC 151700Z AUTO 00000KT 1SM 13/12 A2988 RMK T01300120 IEM_DS3505
ZHCC,2009-05-15 18:00,ZHCC 151800Z AUTO 20002KT 2SM 15/14 A2988 RMK SLP120 T01480135 57009 IEM_DS3505
ZHCC,2009-05-15 19:00,ZHCC 151900Z AUTO 00000KT 1/2SM 13/13 A2985 RMK T01300130 IEM_DS3505
ZHCC,2009-05-15 20:00,ZHCC 152000Z AUTO 21002KT 1/2SM 13/12 A2985 RMK T01300120 IEM_DS3505
ZHCC,2009-05-15 21:00,ZHCC 152100Z AUTO 07002KT 1SM 13/12 A2983 RMK 70041 SLP107 T01320123 57013 IEM_DS3505
ZHCC,2009-05-15 22:00,ZHCC 152200Z AUTO 00000KT 1SM 12/12 A2983 RMK T01200120 IEM_DS3505
ZHCC,2009-05-15 23:00,ZHCC 152300Z AUTO 19004KT 1SM 13/13 A2985 RMK T01300130 IEM_DS3505
ZHCC,2009-05-16 00:00,ZHCC 160000Z AUTO 18002KT 1SM 16/13 A2985 RMK 70035 SLP113 T01600129 52006 IEM_DS3505
ZHCC,2009-05-16 01:00,ZHCC 160100Z AUTO 20006KT 1SM 15/14 A2988 RMK T01500140 IEM_DS3505
ZHCC,2009-05-16 02:00,ZHCC 160200Z AUTO 1SM 17/16 A2988 RMK T01700160 IEM_DS3505
ZHCC,2009-05-16 03:00,ZHCC 160300Z AUTO 02002KT 2 1/2SM 21/15 A2985 RMK SLP106 T02110150 57005 IEM_DS3505
ZHCC,2009-05-16 04:00,ZHCC 160400Z AUTO 16004KT 1SM 20/17 A2983 RMK T02000170 IEM_DS3505
ZHCC,2009-05-16 05:00,ZHCC 160500Z AUTO 1 1/4SM 21/17 A2980 RMK T02100170 IEM_DS3505
ZHCC,2009-05-16 06:00,ZHCC 160600Z AUTO 29004KT 4SM 25/14 A2980 RMK SLP084 T02540145 57021 IEM_DS3505
ZHCC,2009-05-16 07:00,ZHCC 160700Z AUTO 16004KT 1 1/4SM 23/18 A2977 RMK T02300180 IEM_DS3505
ZHCC,2009-05-16 08:00,ZHCC 160800Z AUTO 16004KT 2SM 23/18 A2977 RMK T02300180 IEM_DS3505
ZHCC,2009-05-16 09:00,ZHCC 160900Z AUTO 14006KT 7SM 26/17 A2977 RMK SLP068 T02620173 57016 IEM_DS3505
ZHCC,2009-05-16 10:00,ZHCC 161000Z AUTO 15004KT 2SM 22/18 A2977 RMK T02200180 IEM_DS3505
ZHCC,2009-05-16 11:00,ZHCC 161100Z AUTO 1SM 21/18 A2980 RMK T02100180 IEM_DS3505
ZHCC,2009-05-16 12:00,ZHCC 161200Z AUTO 16008KT 5SM 22/18 A2980 RMK SLP090 T02180178 52021 IEM_DS3505
ZHCC,2009-05-16 13:00,ZHCC 161300Z AUTO 18004KT 1SM 19/17 A2980 RMK T01900170 IEM_DS3505
ZHCC,2009-05-16 14:00,ZHCC 161400Z AUTO 21002KT 1SM 19/17 A2983 RMK T01900170 IEM_DS3505
ZHCC,2009-05-16 15:00,ZHCC 161500Z AUTO 34008KT 6SM 22/15 A2985 RMK SLP120 T02230154 52031 IEM_DS3505
ZHCC,2009-05-16 16:00,ZHCC 161600Z AUTO 02010KT 1 1/2SM 18/16 A2991 RMK T01800160 IEM_DS3505
ZHCC,2009-05-16 17:00,ZHCC 161700Z AUTO 36006KT 2SM 17/14 A2994 RMK T01700140 IEM_DS3505
ZHCC,2009-05-16 18:00,ZHCC 161800Z AUTO 32006KT 9SM 17/13 A2994 RMK SLP143 T01700131 52023 IEM_DS3505
ZHCC,2009-05-16 19:00,ZHCC 161900Z AUTO 34006KT 1 1/2SM 15/13 A2994 RMK T01500130 IEM_DS3505
ZHCC,2009-05-16 20:00,ZHCC 162000Z AUTO 33006KT 1 1/2SM 15/13 A2997 RMK T01500130 IEM_DS3505
ZHCC,2009-05-16 21:00,ZHCC 162100Z AUTO 25002KT 7SM 15/13 A3000 RMK SLP160 T01520129 52016 IEM_DS3505
ZHCC,2009-05-16 22:00,ZHCC 162200Z AUTO 30004KT 4SM 14/13 A3000 RMK T01400130 IEM_DS3505
ZHCC,2009-05-16 23:00,ZHCC 162300Z AUTO 27004KT 6SM 16/14 A3003 RMK T01600140 IEM_DS3505
ZHCC,2009-05-17 00:00,ZHCC 170000Z AUTO 27006KT 10SM 21/09 A3003 RMK SLP170 T02060086 52010 IEM_DS3505
ZHCC,2009-05-17 01:00,ZHCC 170100Z AUTO 32008KT 6SM 22/10 A3006 RMK T02200100 IEM_DS3505
ZHCC,2009-05-17 02:00,ZHCC 170200Z AUTO 31006KT 6SM 24/07 A3003 RMK T02400070 IEM_DS3505
ZHCC,2009-05-17 03:00,ZHCC 170300Z AUTO 34004KT 10SM 25/05 A3003 RMK SLP168 T02520054 57001 IEM_DS3505
ZHCC,2009-05-17 04:00,ZHCC 170400Z AUTO 6SM 25/07 A3000 RMK T02500070 IEM_DS3505
ZHCC,2009-05-17 05:00,ZHCC 170500Z AUTO 28006KT 6SM 25/07 A3000 RMK T02500070 IEM_DS3505
ZHCC,2009-05-17 06:00,ZHCC 170600Z AUTO 22006KT 10SM 27/05 A2997 RMK SLP144 T02690052 57024 IEM_DS3505
ZHCC,2009-05-17 07:00,ZHCC 170700Z AUTO 26004KT 6SM 26/06 A2994 RMK T02600060 IEM_DS3505
ZHCC,2009-05-17 08:00,ZHCC 170800Z AUTO 6SM 26/06 A2994 RMK T02600060 IEM_DS3505
ZHCC,2009-05-17 09:00,ZHCC 170900Z AUTO 20004KT 12SM 27/04 A2991 RMK SLP127 T02720037 57017 IEM_DS3505
ZHCC,2009-05-17 10:00,ZHCC 171000Z AUTO 20006KT 6SM 25/11 A2991 RMK T02500110 IEM_DS3505
ZHCC,2009-05-17 11:00,ZHCC 171100Z AUTO 18004KT 6SM 22/13 A2991 RMK T02200130 IEM_DS3505
ZHCC,2009-05-17 12:00,ZHCC 171200Z AUTO 18004KT 9SM 23/11 A2994 RMK SLP135 T02260114 52008 IEM_DS3505
ZHCC,2009-05-17 13:00,ZHCC 171300Z AUTO 21004KT 6SM 20/14 A2994 RMK T02000140 IEM_DS3505
ZHCC,2009-05-17 14:00,ZHCC 171400Z AUTO 21004KT 4SM 19/14 A2997 RMK T01900140 IEM_DS3505
ZHCC,2009-05-17 15:00,ZHCC 171500Z AUTO 16002KT 8SM 20/13 A2997 RMK SLP145 T01950130 52010 IEM_DS3505
ZHCC,2009-05-17 16:00,ZHCC 171600Z AUTO 21008KT 4SM 18/13 A2994 RMK T01800130 IEM_DS3505
ZHCC,2009-05-17 17:00,ZHCC 171700Z AUTO 22006KT 4SM 16/12 A2991 RMK T01600120 IEM_DS3505
ZHCC,2009-05-17 18:00,ZHCC 171800Z AUTO 22002KT 8SM 18/12 A2991 RMK SLP126 T01850118 57019 IEM_DS3505
ZHCC,2009-05-17 19:00,ZHCC 171900Z AUTO 26004KT 3SM 16/13 A2988 RMK T01600130 IEM_DS3505
ZHCC,2009-05-17 20:00,ZHCC 172000Z AUTO 25004KT 1 1/4SM 17/13 A2988 RMK T01700130 IEM_DS3505
ZHCC,2009-05-17 21:00,ZHCC 172100Z AUTO 27004KT 9SM 20/08 A2988 RMK SLP114 T01990076 57011 IEM_DS3505
ZHCC,2009-05-17 22:00,ZHCC 172200Z AUTO 27010KT 3SM 19/10 A2988 RMK T01900100 IEM_DS3505
ZHCC,2009-05-17 23:00,ZHCC 172300Z AUTO 27008KT 3SM 19/10 A2991 RMK T01900100 IEM_DS3505
ZHCC,2009-05-18 00:00,ZHCC 180000Z AUTO 27010KT 9SM 22/07 A2991 RMK SLP122 T02180072 52007 IEM_DS3505
ZHCC,2009-05-18 01:00,ZHCC 180100Z AUTO 27010KT 4SM 23/11 A2988 RMK T02300110 IEM_DS3505
ZHCC,2009-05-18 02:00,ZHCC 180200Z AUTO 31017KT 4SM 27/09 A2988 RMK T02700090 IEM_DS3505
ZHCC,2009-05-18 03:00,ZHCC 180300Z AUTO 29012KT 11SM 26/07 A2985 RMK SLP107 T02620073 57014 IEM_DS3505
ZHCC,2009-05-18 04:00,ZHCC 180400Z AUTO 33016KT 6SM 29/08 A2983 RMK T02900080 IEM_DS3505
ZHCC,2009-05-18 05:00,ZHCC 180500Z AUTO 30014KT 6SM 29/08 A2983 RMK T02900080 IEM_DS3505
ZHCC,2009-05-18 06:00,ZHCC 180600Z AUTO 27012KT 11SM 30/06 A2980 RMK SLP086 T03000060 57020 IEM_DS3505
ZHCC,2009-05-18 07:00,ZHCC 180700Z AUTO 31012KT 6SM 30/09 A2980 RMK T03000090 IEM_DS3505
ZHCC,2009-05-18 08:00,ZHCC 180800Z AUTO 30010KT 6SM 30/09 A2977 RMK T03000090 IEM_DS3505
ZHCC,2009-05-18 09:00,ZHCC 180900Z AUTO 27008KT 16SM 31/03 A2977 RMK SLP070 T03080030 57016 IEM_DS3505
ZHCC,2009-05-18 10:00,ZHCC 181000Z AUTO 25004KT 6SM 28/10 A2977 RMK T02800100 IEM_DS3505
ZHCC,2009-05-18 11:00,ZHCC 181100Z AUTO 22004KT 6SM 26/10 A2977 RMK T02600100 IEM_DS3505
ZHCC,2009-05-18 12:00,ZHCC 181200Z AUTO 25004KT 12SM 26/08 A2977 RMK SLP080 T02580079 52009 IEM_DS3505
ZHCC,2009-05-18 13:00,ZHCC 181300Z AUTO 21004KT 6SM 20/13 A2980 RMK T02000130 IEM_DS3505
ZHCC,2009-05-18 14:00,ZHCC 181400Z AUTO 24006KT 6SM 22/11 A2980 RMK T02200110 IEM_DS3505
ZHCC,2009-05-18 15:00,ZHCC 181500Z AUTO 22004KT 9SM 23/08 A2980 RMK SLP092 T02280081 52013 IEM_DS3505
ZHCC,2009-05-18 16:00,ZHCC 181600Z AUTO 22004KT 6SM 18/12 A2980 RMK T01800120 IEM_DS3505
ZHCC,2009-05-18 17:00,ZHCC 181700Z AUTO 27002KT 16/12 A2980 RMK T01600120 IEM_DS3505
ZHCC,2009-05-18 18:00,ZHCC 181800Z AUTO 22004KT 7SM 20/09 A2977 RMK SLP078 T01950091 57014 IEM_DS3505
ZHCC,2009-05-18 19:00,ZHCC 181900Z AUTO 23002KT A2977 RMK IEM_DS3505
ZHCC,2009-05-18 20:00,ZHCC 182000Z AUTO 26004KT 14/10 A2977 RMK T01400100 IEM_DS3505
ZHCC,2009-05-18 21:00,ZHCC 182100Z AUTO 22006KT 7SM 17/10 A2977 RMK SLP075 T01700104 57003 IEM_DS3505
ZHCC,2009-05-18 22:00,ZHCC 182200Z AUTO 24004KT 6SM 18/11 A2980 RMK T01800110 IEM_DS3505
ZHCC,2009-05-18 23:00,ZHCC 182300Z AUTO 26004KT 6SM 19/12 A2980 RMK T01900120 IEM_DS3505
ZHCC,2009-05-19 00:00,ZHCC 190000Z AUTO 25004KT 7SM 23/10 A2980 RMK SLP082 T02280103 52007 IEM_DS3505
ZHCC,2009-05-19 01:00,ZHCC 190100Z AUTO 24006KT 6SM 24/13 A2980 RMK T02400130 IEM_DS3505
ZHCC,2009-05-19 02:00,ZHCC 190200Z AUTO 21006KT 6SM 26/15 A2980 RMK T02600150 IEM_DS3505
ZHCC,2009-05-19 03:00,ZHCC 190300Z AUTO 18002KT 9SM 30/09 A2980 RMK SLP078 T02990089 57003 IEM_DS3505
ZHCC,2009-05-19 04:00,ZHCC 190400Z AUTO 17008KT 6SM 27/15 A2977 RMK T02700150 IEM_DS3505
ZHCC,2009-05-19 05:00,ZHCC 190500Z AUTO 18008KT 6SM 27/16 A2977 RMK T02700160 IEM_DS3505
ZHCC,2009-05-19 06:00,ZHCC 190600Z AUTO 18008KT 13SM 30/08 A2974 RMK SLP063 T03020080 57016 IEM_DS3505
ZHCC,2009-05-19 07:00,ZHCC 190700Z AUTO 21010KT 6SM 28/15 A2974 RMK T02800150 IEM_DS3505
ZHCC,2009-05-19 08:00,ZHCC 190800Z AUTO 21010KT 6SM 27/13 A2974 RMK T02700130 IEM_DS3505
ZHCC,2009-05-19 09:00,ZHCC 190900Z AUTO 16008KT 12SM 28/12 A2971 RMK SLP054 T02810125 57010 IEM_DS3505
ZHCC,2009-05-19 10:00,ZHCC 191000Z AUTO 19010KT 6SM 25/16 A2971 RMK T02500160 IEM_DS3505
ZHCC,2009-05-19 11:00,ZHCC 191100Z AUTO 20006KT 6SM 24/15 A2974 RMK T02400150 IEM_DS3505
ZHCC,2009-05-19 12:00,ZHCC 191200Z AUTO 16006KT 9SM 24/15 A2974 RMK SLP065 T02370152 52011 IEM_DS3505
ZHCC,2009-05-19 13:00,ZHCC 191300Z AUTO 21006KT 6SM 22/15 A2974 RMK T02200150 IEM_DS3505
ZHCC,2009-05-19 14:00,ZHCC 191400Z AUTO 21006KT 6SM 21/15 A2977 RMK T02100150 IEM_DS3505
ZHCC,2009-05-19 15:00,ZHCC 191500Z AUTO 18004KT 7SM 22/13 A2977 RMK SLP068 T02210132 52005 IEM_DS3505
ZHCC,2009-05-19 17:00,ZHCC 191700Z AUTO 21004KT 2SM 19/15 A2974 RMK T01900150 IEM_DS3505
ZHCC,2009-05-19 18:00,ZHCC 191800Z AUTO 18002KT 7SM 21/13 A2971 RMK SLP059 T02090129 57010 IEM_DS3505
ZHCC,2009-05-19 19:00,ZHCC 191900Z AUTO 18004KT 1 1/4SM 19/16 A2971 RMK T01900160 IEM_DS3505
ZHCC,2009-05-19 20:00,ZHCC 192000Z AUTO 18004KT 1 1/4SM 18/16 A2971 RMK T01800160 IEM_DS3505
ZHCC,2009-05-19 21:00,ZHCC 192100Z AUTO 16004KT 6SM 19/13 A2971 RMK SLP055 T01910131 57004 IEM_DS3505
ZHCC,2009-05-19 22:00,ZHCC 192200Z AUTO 20006KT 1 1/4SM 18/15 A2971 RMK T01800150 IEM_DS3505
ZHCC,2009-05-19 23:00,ZHCC 192300Z AUTO 21008KT 1 1/4SM 18/16 A2971 RMK T01800160 IEM_DS3505
ZHCC,2009-05-20 00:00,ZHCC 200000Z AUTO 22006KT 3SM 23/14 A2971 RMK SLP057 T02330138 52002 IEM_DS3505
ZHCC,2009-05-20 01:00,ZHCC 200100Z AUTO 22010KT 1SM 21/17 A2974 RMK T02100170 IEM_DS3505
ZHCC,2009-05-20 02:00,ZHCC 200200Z AUTO 25010KT 2SM 23/13 A2974 RMK T02300130 IEM_DS3505
ZHCC,2009-05-20 03:00,ZHCC 200300Z AUTO 20010KT 4SM 27/11 A2974 RMK SLP058 T02690106 52001 IEM_DS3505
ZHCC,2009-05-20 04:00,ZHCC 200400Z AUTO 16010KT 2SM 24/16 A2974 RMK T02400160 IEM_DS3505
ZHCC,2009-05-20 05:00,ZHCC 200500Z AUTO 16010KT 2SM 25/15 A2974 RMK T02500150 IEM_DS3505
ZHCC,2009-05-20 06:00,ZHCC 200600Z AUTO 16012KT 6SM 27/11 A2974 RMK SLP052 T02670112 57006 IEM_DS3505
ZHCC,2009-05-20 07:00,ZHCC 200700Z AUTO 15010KT 6SM 24/14 A2971 RMK T02400140 IEM_DS3505
ZHCC,2009-05-20 08:00,ZHCC 200800Z AUTO 16010KT 6SM 24/14 A2971 RMK T02400140 IEM_DS3505
ZHCC,2009-05-20 09:00,ZHCC 200900Z AUTO 14012KT 7SM 25/10 A2971 RMK SLP047 T02510098 57006 IEM_DS3505
ZHCC,2009-05-20 10:00,ZHCC 201000Z AUTO 15008KT 6SM 22/15 A2971 RMK T02200150 IEM_DS3505
ZHCC,2009-05-20 11:00,ZHCC 201100Z AUTO 16006KT 6SM 21/15 A2971 RMK T02100150 IEM_DS3505
ZHCC,2009-05-20 12:00,ZHCC 201200Z AUTO 14006KT 7SM 21/14 A2974 RMK SLP066 T02140141 52019 IEM_DS3505
ZHCC,2009-05-20 13:00,ZHCC 201300Z AUTO 16004KT 4SM 18/15 A2977 RMK T01800150 IEM_DS3505
ZHCC,2009-05-20 14:00,ZHCC 201400Z AUTO 15004KT 4SM 18/14 A2980 RMK T01800140 IEM_DS3505
ZHCC,2009-05-20 15:00,ZHCC 201500Z AUTO 14006KT 6SM 19/15 A2980 RMK SLP086 T01900147 52020 IEM_DS3505
ZHCC,2009-05-20 16:00,ZHCC 201600Z AUTO 15004KT 2 1/2SM 16/14 A2980 RMK T01600140 IEM_DS3505
ZHCC,2009-05-20 17:00,ZHCC 201700Z AUTO 17004KT 2 1/2SM 16/14 A2977 RMK T01600140 IEM_DS3505
ZHCC,2009-05-20 18:00,ZHCC 201800Z AUTO 16006KT 6SM 17/14 A2977 RMK SLP080 T01730138 57006 IEM_DS3505
ZHCC,2009-05-20 19:00,ZHCC 201900Z AUTO 1 1/2SM 15/13 A2977 RMK T01500130 IEM_DS3505
ZHCC,2009-05-20 20:00,ZHCC 202000Z AUTO 1 1/4SM 15/13 A2980 RMK T01500130 IEM_DS3505
ZHCC,2009-05-20 21:00,ZHCC 202100Z AUTO 18004KT 6SM 16/14 A2980 RMK SLP091 T01630136 52010 IEM_DS3505
ZHCC,2009-05-20 22:00,ZHCC 202200Z AUTO 19004KT 1SM 14/13 A2980 RMK T01400130 IEM_DS3505
ZHCC,2009-05-20 23:00,ZHCC 202300Z AUTO 18004KT 1SM 15/14 A2983 RMK T01500140 IEM_DS3505
ZHCC,2009-05-21 00:00,ZHCC 210000Z AUTO 16006KT 6SM 19/15 A2983 RMK SLP093 T01940147 52002 IEM_DS3505
ZHCC,2009-05-21 01:00,ZHCC 210100Z AUTO 20008KT 2SM 19/17 A2983 RMK T01900170 IEM_DS3505
ZHCC,2009-05-21 02:00,ZHCC 210200Z AUTO 21008KT 2 1/2SM 21/17 A2983 RMK T02100170 IEM_DS3505
ZHCC,2009-05-21 03:00,ZHCC 210300Z AUTO 20006KT 6SM 25/15 A2983 RMK SLP085 T02530150 57007 IEM_DS3505
ZHCC,2009-05-21 04:00,ZHCC 210400Z AUTO 19008KT 2 1/2SM 24/18 A2980 RMK T02400180 IEM_DS3505
ZHCC,2009-05-21 05:00,ZHCC 210500Z AUTO 18008KT 2 1/2SM 25/19 A2980 RMK T02500190 IEM_DS3505
ZHCC,2009-05-21 06:00,ZHCC 210600Z AUTO 16010KT 6SM 28/17 A2977 RMK SLP073 T02760166 57012 IEM_DS3505
ZHCC,2009-05-21 07:00,ZHCC 210700Z AUTO 18010KT 2SM 26/20 A2977 RMK T02600200 IEM_DS3505
ZHCC,2009-05-21 08:00,ZHCC 210800Z AUTO 18010KT 2SM 27/20 A2974 RMK T02700200 IEM_DS3505
ZHCC,2009-05-21 09:00,ZHCC 210900Z AUTO 16008KT 4SM 28/18 A2974 RMK SLP067 T02840185 57006 IEM_DS3505
ZHCC,2009-05-21 10:00,ZHCC 211000Z AUTO 2SM 26/20 A2977 RMK T02600200 IEM_DS3505
ZHCC,2009-05-21 11:00,ZHCC 211100Z AUTO 14006KT 2SM 25/20 A2977 RMK T02500200 IEM_DS3505
ZHCC,2009-05-21 12:00,ZHCC 211200Z AUTO 11004KT 3SM 26/19 A2977 RMK SLP076 T02630194 52009 IEM_DS3505
ZHCC,2009-05-21 13:00,ZHCC 211300Z AUTO 17004KT 2SM 24/20 A2980 RMK T02400200 IEM_DS3505
ZHCC,2009-05-21 14:00,ZHCC 211400Z AUTO 17002KT 2SM 23/20 A2983 RMK T02300200 IEM_DS3505
ZHCC,2009-05-21 15:00,ZHCC 211500Z AUTO 16004KT 2 1/2SM 25/20 A2983 RMK SLP092 T02490197 52017 IEM_DS3505
ZHCC,2009-05-21 16:00,ZHCC 211600Z AUTO 21002KT 2SM 23/20 A2983 RMK T02300200 IEM_DS3505
ZHCC,2009-05-21 17:00,ZHCC 211700Z AUTO 1SM 23/20 A2983 RMK T02300200 IEM_DS3505
ZHCC,2009-05-21 18:00,ZHCC 211800Z AUTO 27010KT 2SM 22/19 A2983 RMK 60002 SLP107 T02220194 52015 IEM_DS3505
ZHCC,2009-05-21 19:00,ZHCC 211900Z AUTO 32012KT 1SM 21/19 A2985 RMK T02100190 IEM_DS3505
ZHCC,2009-05-21 20:00,ZHCC 212000Z AUTO 35004KT 1 1/4SM 20/18 A2988 RMK T02000180 IEM_DS3505
ZHCC,2009-05-21 21:00,ZHCC 212100Z AUTO 29008KT 2SM 22/14 A2988 RMK 70012 SLP124 T02230142 52017 IEM_DS3505
ZHCC,2009-05-21 22:00,ZHCC 212200Z AUTO 35008KT 3SM 20/17 A2991 RMK T02000170 IEM_DS3505
ZHCC,2009-05-21 23:00,ZHCC 212300Z AUTO 36006KT 2 1/2SM 20/17 A2994 RMK T02000170 IEM_DS3505
ZHCC,2009-05-22 00:00,ZHCC 220000Z AUTO 04008KT 9SM 20/14 A2997 RMK 60012 70012 SLP157 T01980137 52031 IEM_DS3505
ZHCC,2009-05-22 01:00,ZHCC 220100Z AUTO 04008KT 2SM 19/15 A3000 RMK T01900150 IEM_DS3505
ZHCC,2009-05-22 02:00,ZHCC 220200Z AUTO 03008KT 2SM 19/15 A3003 RMK T01900150 IEM_DS3505
ZHCC,2009-05-22 03:00,ZHCC 220300Z AUTO 04006KT 7SM 20/14 A3003 RMK SLP177 T02000139 52020 IEM_DS3505
ZHCC,2009-05-22 04:00,ZHCC 220400Z AUTO 05006KT 2SM 19/14 A3003 RMK T01900140 IEM_DS3505
ZHCC,2009-05-22 05:00,ZHCC 220500Z AUTO 36004KT 2SM 20/14 A3003 RMK T02000140 IEM_DS3505
ZHCC,2009-05-22 06:00,ZHCC 220600Z AUTO 20002KT 6SM 21/14 A3000 RMK 60000 SLP163 T02140141 57014 IEM_DS3505
ZHCC,2009-05-22 07:00,ZHCC 220700Z AUTO 34004KT 3SM 21/14 A3000 RMK T02100140 IEM_DS3505
ZHCC,2009-05-22 08:00,ZHCC 220800Z AUTO 27004KT 2SM 21/15 A3000 RMK T02100150 IEM_DS3505
ZHCC,2009-05-22 09:00,ZHCC 220900Z AUTO 22006KT 4SM 22/15 A3000 RMK SLP152 T02150146 57011 IEM_DS3505
ZHCC,2009-05-22 10:00,ZHCC 221000Z AUTO 26004KT 1 1/4SM 20/16 A2997 RMK T02000160 IEM_DS3505
ZHCC,2009-05-22 11:00,ZHCC 221100Z AUTO 28004KT 2SM 19/16 A3000 RMK T01900160 IEM_DS3505
ZHCC,2009-05-22 12:00,ZHCC 221200Z AUTO 25002KT 4SM 21/13 A3000 RMK 60000 SLP161 T02060131 52008 IEM_DS3505
ZHCC,2009-05-22 13:00,ZHCC 221300Z AUTO 30004KT 2SM 18/15 A3003 RMK T01800150 IEM_DS3505
ZHCC,2009-05-22 14:00,ZHCC 221400Z AUTO 27002KT 1 1/4SM 17/15 A3003 RMK T01700150 IEM_DS3505
ZHCC,2009-05-22 15:00,ZHCC 221500Z AUTO 00000KT 3SM 17/13 A3003 RMK SLP174 T01720133 52012 IEM_DS3505
ZHCC,2009-05-22 16:00,ZHCC 221600Z AUTO 27004KT 2SM 17/14 A3003 RMK T01700140 IEM_DS3505
ZHCC,2009-05-22 17:00,ZHCC 221700Z AUTO 29004KT 2SM 16/13 A3003 RMK T01600130 IEM_DS3505
ZHCC,2009-05-22 18:00,ZHCC 221800Z AUTO 22002KT 2 1/2SM 15/12 A3003 RMK SLP170 T01480125 57004 IEM_DS3505
ZHCC,2009-05-22 19:00,ZHCC 221900Z AUTO 00000KT A3003 RMK IEM_DS3505
ZHCC,2009-05-22 20:00,ZHCC 222000Z AUTO 28002KT 14/11 A3000 RMK T01400110 IEM_DS3505
ZHCC,2009-05-22 21:00,ZHCC 222100Z AUTO 22002KT 4SM 14/11 A3003 RMK 70000 SLP167 T01390111 57003 IEM_DS3505
ZHCC,2009-05-22 22:00,ZHCC 222200Z AUTO 25002KT 2 1/2SM 12/10 A3003 RMK T01200100 IEM_DS3505
ZHCC,2009-05-22 23:00,ZHCC 222300Z AUTO 28002KT 3SM 16/14 A3003 RMK T01600140 IEM_DS3505
ZHCC,2009-05-23 00:00,ZHCC 230000Z AUTO 27004KT 6SM 21/10 A3003 RMK 70000 SLP166 T02070099 54000 IEM_DS3505
ZHCC,2009-05-23 01:00,ZHCC 230100Z AUTO 28004KT 6SM 23/11 A3003 RMK T02300110 IEM_DS3505
ZHCC,2009-05-23 02:00,ZHCC 230200Z AUTO 6SM 25/07 A3003 RMK T02500070 IEM_DS3505
ZHCC,2009-05-23 03:00,ZHCC 230300Z AUTO 25002KT 10SM 26/04 A3000 RMK SLP159 T02650043 57006 IEM_DS3505
ZHCC,2009-05-23 04:00,ZHCC 230400Z AUTO 32002KT 6SM 27/07 A3000 RMK T02700070 IEM_DS3505
ZHCC,2009-05-23 05:00,ZHCC 230500Z AUTO 08002KT 6SM 28/07 A2997 RMK T02800070 IEM_DS3505
ZHCC,2009-05-23 06:00,ZHCC 230600Z AUTO 14002KT 11SM 29/02 A2994 RMK SLP135 T02890022 57024 IEM_DS3505
ZHCC,2009-05-23 07:00,ZHCC 230700Z AUTO 04002KT 6SM 28/04 A2994 RMK T02800040 IEM_DS3505
ZHCC,2009-05-23 08:00,ZHCC 230800Z AUTO 23006KT 6SM 28/08 A2991 RMK T02800080 IEM_DS3505
ZHCC,2009-05-23 09:00,ZHCC 230900Z AUTO 20004KT 11SM 29/01 A2988 RMK SLP115 T02900007 57020 IEM_DS3505
ZHCC,2009-05-23 10:00,ZHCC 231000Z AUTO 19008KT 6SM 26/08 A2988 RMK T02600080 IEM_DS3505
ZHCC,2009-05-23 11:00,ZHCC 231100Z AUTO 16004KT 6SM 24/09 A2991 RMK T02400090 IEM_DS3505
ZHCC,2009-05-23 12:00,ZHCC 231200Z AUTO 14004KT 11SM 24/06 A2991 RMK SLP128 T02450063 52013 IEM_DS3505
ZHCC,2009-05-23 13:00,ZHCC 231300Z AUTO 18006KT 6SM 21/10 A2994 RMK T02100100 IEM_DS3505
ZHCC,2009-05-23 14:00,ZHCC 231400Z AUTO 19004KT 6SM 20/10 A2994 RMK T02000100 IEM_DS3505
ZHCC,2009-05-23 15:00,ZHCC 231500Z AUTO 18004KT 10SM 22/08 A2994 RMK SLP139 T02160082 52012 IEM_DS3505
ZHCC,2009-05-23 16:00,ZHCC 231600Z AUTO 20004KT 6SM 19/11 A2994 RMK T01900110 IEM_DS3505
ZHCC,2009-05-23 17:00,ZHCC 231700Z AUTO 22004KT 6SM 18/11 A2994 RMK T01800110 IEM_DS3505
ZHCC,2009-05-23 18:00,ZHCC 231800Z AUTO 14002KT 10SM 18/09 A2991 RMK SLP130 T01810089 57009 IEM_DS3505
ZHCC,2009-05-23 19:00,ZHCC 231900Z AUTO 22004KT A2991 RMK IEM_DS3505
ZHCC,2009-05-23 20:00,ZHCC 232000Z AUTO 21004KT 17/10 A2991 RMK T01700100 IEM_DS3505
ZHCC,2009-05-23 21:00,ZHCC 232100Z AUTO 18002KT 7SM 17/10 A2991 RMK SLP126 T01660100 57005 IEM_DS3505
ZHCC,2009-05-23 22:00,ZHCC 232200Z AUTO 22004KT 2SM 15/11 A2991 RMK T01500110 IEM_DS3505
ZHCC,2009-05-23 23:00,ZHCC 232300Z AUTO 20004KT 2 1/2SM 17/14 A2991 RMK T01700140 IEM_DS3505
ZHCC,2009-05-24 00:00,ZHCC 240000Z AUTO 16004KT 6SM 23/10 A2994 RMK SLP130 T02300098 52005 IEM_DS3505
ZHCC,2009-05-24 01:00,ZHCC 240100Z AUTO 19008KT 3SM 23/14 A2994 RMK T02300140 IEM_DS3505
ZHCC,2009-05-24 02:00,ZHCC 240200Z AUTO 19008KT 3SM 24/14 A2994 RMK T02400140 IEM_DS3505
ZHCC,2009-05-24 03:00,ZHCC 240300Z AUTO 16006KT 9SM 27/08 A2991 RMK SLP128 T02720076 57002 IEM_DS3505
ZHCC,2009-05-24 04:00,ZHCC 240400Z AUTO 18004KT 6SM 26/11 A2991 RMK T02600110 IEM_DS3505
ZHCC,2009-05-24 05:00,ZHCC 240500Z AUTO 15004KT 6SM 26/11 A2988 RMK T02600110 IEM_DS3505
ZHCC,2009-05-24 06:00,ZHCC 240600Z AUTO 11002KT 10SM 28/07 A2988 RMK SLP110 T02840071 57018 IEM_DS3505
ZHCC,2009-05-24 07:00,ZHCC 240700Z AUTO 17006KT 6SM 26/13 A2985 RMK T02600130 IEM_DS3505
ZHCC,2009-05-24 08:00,ZHCC 240800Z AUTO 18004KT 6SM 25/14 A2985 RMK T02500140 IEM_DS3505
ZHCC,2009-05-24 09:00,ZHCC 240900Z AUTO 16006KT 10SM 26/10 A2985 RMK SLP106 T02650098 57005 IEM_DS3505
ZHCC,2009-05-24 10:00,ZHCC 241000Z AUTO 6SM 24/14 A2985 RMK T02400140 IEM_DS3505
ZHCC,2009-05-24 11:00,ZHCC 241100Z AUTO 14004KT 6SM 23/15 A2985 RMK T02300150 IEM_DS3505
ZHCC,2009-05-24 12:00,ZHCC 241200Z AUTO 16006KT 9SM 24/12 A2988 RMK SLP112 T02430120 52007 IEM_DS3505
ZHCC,2009-05-24 13:00,ZHCC 241300Z AUTO 6SM 21/16 A2988 RMK T02100160 IEM_DS3505
ZHCC,2009-05-24 14:00,ZHCC 241400Z AUTO 6SM 21/15 A2991 RMK T02100150 IEM_DS3505
ZHCC,2009-05-24 15:00,ZHCC 241500Z AUTO 16006KT 8SM 23/14 A2991 RMK SLP117 T02300138 52006 IEM_DS3505
ZHCC,2009-05-24 16:00,ZHCC 241600Z AUTO 21008KT 4SM 20/14 A2991 RMK T02000140 IEM_DS3505
ZHCC,2009-05-24 17:00,ZHCC 241700Z AUTO 22006KT 18/15 A2991 RMK T01800150 IEM_DS3505
ZHCC,2009-05-24 18:00,ZHCC 241800Z AUTO 18010KT 8SM 20/14 A2991 RMK SLP123 T01980140 52005 IEM_DS3505
ZHCC,2009-05-24 19:00,ZHCC 241900Z AUTO 21004KT A2991 RMK IEM_DS3505
ZHCC,2009-05-24 20:00,ZHCC 242000Z AUTO 18006KT 17/14 A2991 RMK T01700140 IEM_DS3505
ZHCC,2009-05-24 21:00,ZHCC 242100Z AUTO 16008KT 7SM 18/14 A2991 RMK 70000 SLP131 T01800145 52007 IEM_DS3505
ZHCC,2009-05-24 22:00,ZHCC 242200Z AUTO 15006KT 2 1/2SM 16/15 A2994 RMK T01600150 IEM_DS3505
ZHCC,2009-05-24 23:00,ZHCC 242300Z AUTO 16006KT 2 1/2SM 16/15 A2991 RMK T01600150 IEM_DS3505
ZHCC,2009-05-25 00:00,ZHCC 250000Z AUTO 09004KT 7SM 18/16 A2994 RMK 60001 70001 SLP152 T01790157 52020 IEM_DS3505
ZHCC,2009-05-25 01:00,ZHCC 250100Z AUTO 02004KT 2 1/2SM 17/16 A2997 RMK T01700160 IEM_DS3505
ZHCC,2009-05-25 02:00,ZHCC 250200Z AUTO 09006KT 2 1/2SM 18/17 A2997 RMK T01800170 IEM_DS3505
ZHCC,2009-05-25 03:00,ZHCC 250300Z AUTO 14006KT 7SM 20/14 A2997 RMK SLP151 T02000144 54000 IEM_DS3505
ZHCC,2009-05-25 04:00,ZHCC 250400Z AUTO 10006KT 3SM 19/17 A2997 RMK T01900170 IEM_DS3505
ZHCC,2009-05-25 05:00,ZHCC 250500Z AUTO 10008KT 3SM 19/16 A2997 RMK T01900160 IEM_DS3505
ZHCC,2009-05-25 06:00,ZHCC 250600Z AUTO 11008KT 6SM 21/13 A2997 RMK 60000 SLP149 T02110133 57003 IEM_DS3505
ZHCC,2009-05-25 07:00,ZHCC 250700Z AUTO 12012KT 7SM 18/14 A2997 RMK T01800140 IEM_DS3505
ZHCC,2009-05-25 08:00,ZHCC 250800Z AUTO 12010KT 7SM 19/14 A2997 RMK T01900140 IEM_DS3505
ZHCC,2009-05-25 09:00,ZHCC 250900Z AUTO 11006KT 8SM 20/13 A2997 RMK SLP151 T01990127 52001 IEM_DS3505
ZHCC,2009-05-25 10:00,ZHCC 251000Z AUTO 12006KT 6SM 18/14 A2997 RMK T01800140 IEM_DS3505
ZHCC,2009-05-25 11:00,ZHCC 251100Z AUTO 14004KT 6SM 18/14 A3000 RMK T01800140 IEM_DS3505
ZHCC,2009-05-25 12:00,ZHCC 251200Z AUTO 09004KT 7SM 19/13 A3000 RMK SLP161 T01890129 52010 IEM_DS3505
ZHCC,2009-05-25 13:00,ZHCC 251300Z AUTO 18002KT 6SM 17/14 A3000 RMK T01700140 IEM_DS3505
ZHCC,2009-05-25 14:00,ZHCC 251400Z AUTO 00000KT 6SM 17/14 A3000 RMK T01700140 IEM_DS3505
ZHCC,2009-05-25 15:00,ZHCC 251500Z AUTO 29002KT 7SM 16/13 A3000 RMK SLP167 T01610127 52006 IEM_DS3505
ZHCC,2009-05-25 16:00,ZHCC 251600Z AUTO 00000KT 6SM 16/14 A3000 RMK T01600140 IEM_DS3505
ZHCC,2009-05-25 17:00,ZHCC 251700Z AUTO 00000KT 16/14 A3003 RMK T01600140 IEM_DS3505
ZHCC,2009-05-25 18:00,ZHCC 251800Z AUTO 11002KT 7SM 17/13 A3000 RMK SLP163 T01690134 57004 IEM_DS3505
ZHCC,2009-05-25 19:00,ZHCC 251900Z AUTO 03004KT 15/13 A3000 RMK T01500130 IEM_DS3505
ZHCC,2009-05-25 20:00,ZHCC 252000Z AUTO 00000KT 1 1/4SM 14/13 A3000 RMK T01400130 IEM_DS3505
ZHCC,2009-05-25 21:00,ZHCC 252100Z AUTO 16002KT 3SM 16/14 A3003 RMK 70001 SLP168 T01590136 52005 IEM_DS3505
ZHCC,2009-05-25 22:00,ZHCC 252200Z AUTO 36002KT 2SM 15/14 A3003 RMK T01500140 IEM_DS3505
ZHCC,2009-05-25 23:00,ZHCC 252300Z AUTO 03004KT 3SM 16/15 A3006 RMK T01600150 IEM_DS3505
ZHCC,2009-05-26 00:00,ZHCC 260000Z AUTO 34002KT 4SM 20/12 A3006 RMK 70000 SLP182 T01960124 52014 IEM_DS3505
ZHCC,2009-05-26 01:00,ZHCC 260100Z AUTO 3SM 20/14 A3006 RMK T02000140 IEM_DS3505
ZHCC,2009-05-26 02:00,ZHCC 260200Z AUTO 08006KT 3SM 21/14 A3006 RMK T02100140 IEM_DS3505
ZHCC,2009-05-26 03:00,ZHCC 260300Z AUTO 04004KT 6SM 22/12 A3006 RMK SLP172 T02250125 57010 IEM_DS3505
ZHCC,2009-05-26 04:00,ZHCC 260400Z AUTO 06008KT 3SM 22/14 A3003 RMK T02200140 IEM_DS3505
ZHCC,2009-05-26 05:00,ZHCC 260500Z AUTO 10006KT 4SM 23/14 A3003 RMK T02300140 IEM_DS3505
ZHCC,2009-05-26 06:00,ZHCC 260600Z AUTO 07004KT 7SM 25/12 A3000 RMK SLP153 T02540119 57018 IEM_DS3505
ZHCC,2009-05-26 07:00,ZHCC 260700Z AUTO 10008KT 6SM 25/13 A2997 RMK T02500130 IEM_DS3505
ZHCC,2009-05-26 08:00,ZHCC 260800Z AUTO 11010KT 6SM 25/14 A2997 RMK T02500140 IEM_DS3505
ZHCC,2009-05-26 09:00,ZHCC 260900Z AUTO 14010KT 7SM 26/12 A2994 RMK SLP138 T02590117 57015 IEM_DS3505
ZHCC,2009-05-26 10:00,ZHCC 261000Z AUTO 13006KT 4SM 23/15 A2994 RMK T02300150 IEM_DS3505
ZHCC,2009-05-26 11:00,ZHCC 261100Z AUTO 14002KT 4SM 22/16 A2997 RMK T02200160 IEM_DS3505
ZHCC,2009-05-26 12:00,ZHCC 261200Z AUTO 11004KT 7SM 23/14 A2997 RMK SLP143 T02330135 52006 IEM_DS3505
ZHCC,2009-05-26 13:00,ZHCC 261300Z AUTO 14002KT 3SM 19/16 A2997 RMK T01900160 IEM_DS3505
ZHCC,2009-05-26 14:00,ZHCC 261400Z AUTO 12002KT 3SM 18/15 A2997 RMK T01800150 IEM_DS3505
ZHCC,2009-05-26 15:00,ZHCC 261500Z AUTO 09002KT 7SM 21/14 A2997 RMK SLP146 T02100142 52003 IEM_DS3505
ZHCC,2009-05-26 16:00,ZHCC 261600Z AUTO 11004KT 3SM 18/15 A2994 RMK T01800150 IEM_DS3505
ZHCC,2009-05-26 17:00,ZHCC 261700Z AUTO 10002KT 18/15 A2994 RMK T01800150 IEM_DS3505
ZHCC,2009-05-26 18:00,ZHCC 261800Z AUTO 07004KT 6SM 19/14 A2994 RMK SLP136 T01940144 57010 IEM_DS3505
ZHCC,2009-05-26 19:00,ZHCC 261900Z AUTO 10004KT 17/15 A2991 RMK T01700150 IEM_DS3505
ZHCC,2009-05-26 20:00,ZHCC 262000Z AUTO 11004KT 2SM 17/15 A2994 RMK T01700150 IEM_DS3505
ZHCC,2009-05-26 21:00,ZHCC 262100Z AUTO 11002KT 4SM 19/15 A2994 RMK SLP139 T01870146 52003 IEM_DS3505
ZHCC,2009-05-26 22:00,ZHCC 262200Z AUTO 1 1/4SM 17/15 A2994 RMK T01700150 IEM_DS3505
ZHCC,2009-05-26 23:00,ZHCC 262300Z AUTO 11004KT 1 1/4SM 18/16 A2994 RMK T01800160 IEM_DS3505
ZHCC,2009-05-27 00:00,ZHCC 270000Z AUTO 09004KT 3SM 20/15 A2994 RMK SLP140 T02000148 52001 IEM_DS3505
ZHCC,2009-05-27 01:00,ZHCC 270100Z AUTO 13006KT 2 1/2SM 21/16 A2994 RMK T02100160 IEM_DS3505
ZHCC,2009-05-27 02:00,ZHCC 270200Z AUTO 13010KT 3SM 22/16 A2994 RMK T02200160 IEM_DS3505
ZHCC,2009-05-27 03:00,ZHCC 270300Z AUTO 09008KT 7SM 24/14 A2991 RMK SLP129 T02390135 57011 IEM_DS3505
ZHCC,2009-05-27 04:00,ZHCC 270400Z AUTO 13010KT 4SM 23/15 A2991 RMK T02300150 IEM_DS3505
ZHCC,2009-05-27 05:00,ZHCC 270500Z AUTO 13008KT 4SM 23/16 A2988 RMK T02300160 IEM_DS3505
ZHCC,2009-05-27 06:00,ZHCC 270600Z AUTO 11006KT 9SM 24/13 A2988 RMK SLP114 T02420131 57015 IEM_DS3505
ZHCC,2009-05-27 07:00,ZHCC 270700Z AUTO 12008KT 4SM 22/15 A2985 RMK T02200150 IEM_DS3505
ZHCC,2009-05-27 08:00,ZHCC 270800Z AUTO 12004KT 4SM 22/15 A2985 RMK T02200150 IEM_DS3505
ZHCC,2009-05-27 09:00,ZHCC 270900Z AUTO 11002KT 7SM 23/14 A2985 RMK SLP110 T02300140 57004 IEM_DS3505
ZHCC,2009-05-27 10:00,ZHCC 271000Z AUTO 06004KT 3SM 21/17 A2988 RMK T02100170 IEM_DS3505
ZHCC,2009-05-27 11:00,ZHCC 271100Z AUTO 32002KT 3SM 21/17 A2991 RMK T02100170 IEM_DS3505
ZHCC,2009-05-27 12:00,ZHCC 271200Z AUTO 04002KT 6SM 21/16 A2994 RMK 60004 SLP138 T02070165 52027 IEM_DS3505
ZHCC,2009-05-27 13:00,ZHCC 271300Z AUTO 28002KT 2SM 19/17 A2994 RMK T01900170 IEM_DS3505
ZHCC,2009-05-27 14:00,ZHCC 271400Z AUTO 35004KT 2SM 19/17 A2997 RMK T01900170 IEM_DS3505
ZHCC,2009-05-27 15:00,ZHCC 271500Z AUTO 25004KT 3SM 20/18 A2997 RMK SLP149 T01950175 52012 IEM_DS3505
ZHCC,2009-05-27 16:00,ZHCC 271600Z AUTO 2SM 19/17 A2997 RMK T01900170 IEM_DS3505
ZHCC,2009-05-27 17:00,ZHCC 271700Z AUTO 34004KT 1SM 18/17 A2997 RMK T01800170 IEM_DS3505
ZHCC,2009-05-27 18:00,ZHCC 271800Z AUTO 29002KT 3SM 19/17 A2997 RMK 60003 SLP153 T01920166 52004 IEM_DS3505
ZHCC,2009-05-27 19:00,ZHCC 271900Z AUTO 01004KT 2SM 18/16 A3000 RMK T01800160 IEM_DS3505
ZHCC,2009-05-27 20:00,ZHCC 272000Z AUTO 01006KT 1 1/2SM 17/16 A3000 RMK T01700160 IEM_DS3505
ZHCC,2009-05-27 21:00,ZHCC 272100Z AUTO 27002KT 4SM 18/16 A3000 RMK 70011 SLP164 T01840158 52010 IEM_DS3505
ZHCC,2009-05-27 22:00,ZHCC 272200Z AUTO 31004KT 1 1/4SM 17/16 A3003 RMK T01700160 IEM_DS3505
ZHCC,2009-05-27 23:00,ZHCC 272300Z AUTO 32006KT 1 1/2SM 17/16 A3003 RMK T01700160 IEM_DS3505
ZHCC,2009-05-28 00:00,ZHCC 280000Z AUTO 29002KT 4SM 19/16 A3006 RMK 60004 70013 SLP183 T01870158 52018 IEM_DS3505
ZHCC,2009-05-28 01:00,ZHCC 280100Z AUTO 35006KT 2SM 18/17 A3006 RMK T01800170 IEM_DS3505
ZHCC,2009-05-28 02:00,ZHCC 280200Z AUTO 35006KT 2SM 18/17 A3006 RMK T01800170 IEM_DS3505
ZHCC,2009-05-28 03:00,ZHCC 280300Z AUTO 29006KT 5SM 20/16 A3006 RMK SLP188 T02000160 52005 IEM_DS3505
ZHCC,2009-05-28 04:00,ZHCC 280400Z AUTO 34010KT 2SM 19/17 A3006 RMK T01900170 IEM_DS3505
ZHCC,2009-05-28 05:00,ZHCC 280500Z AUTO 34008KT 2SM 20/18 A3006 RMK T02000180 IEM_DS3505
ZHCC,2009-05-28 06:00,ZHCC 280600Z AUTO 29004KT 4SM 20/17 A3006 RMK 60000 SLP185 T02050169 57003 IEM_DS3505
ZHCC,2009-05-28 07:00,ZHCC 280700Z AUTO 35010KT 2SM 20/17 A3006 RMK T02000170 IEM_DS3505
ZHCC,2009-05-28 08:00,ZHCC 280800Z AUTO 34010KT 2SM 19/17 A3006 RMK T01900170 IEM_DS3505
ZHCC,2009-05-28 09:00,ZHCC 280900Z AUTO 29006KT 4SM 19/16 A3006 RMK SLP182 T01910160 57003 IEM_DS3505
ZHCC,2009-05-28 10:00,ZHCC 281000Z AUTO 32008KT 2 1/2SM 18/16 A3006 RMK T01800160 IEM_DS3505
ZHCC,2009-05-28 11:00,ZHCC 281100Z AUTO 32008KT 3SM 18/16 A3006 RMK T01800160 IEM_DS3505
ZHCC,2009-05-28 12:00,ZHCC 281200Z AUTO 32004KT 3SM 19/16 A3006 RMK 60001 SLP184 T01890165 52002 IEM_DS3505
ZHCC,2009-05-28 13:00,ZHCC 281300Z AUTO 31006KT 2 1/2SM 18/16 A3006 RMK T01800160 IEM_DS3505
ZHCC,2009-05-28 14:00,ZHCC 281400Z AUTO 31006KT 2 1/2SM 18/16 A3009 RMK T01800160 IEM_DS3505
ZHCC,2009-05-28 15:00,ZHCC 281500Z AUTO 29004KT 3SM 19/16 A3009 RMK SLP190 T01890161 52006 IEM_DS3505
ZHCC,2009-05-28 16:00,ZHCC 281600Z AUTO 32010KT 2 1/2SM 17/16 A3006 RMK T01700160 IEM_DS3505
ZHCC,2009-05-28 17:00,ZHCC 281700Z AUTO 32010KT 18/16 A3006 RMK T01800160 IEM_DS3505
ZHCC,2009-05-28 18:00,ZHCC 281800Z AUTO 27006KT 4SM 19/15 A3006 RMK SLP176 T01930154 57013 IEM_DS3505
ZHCC,2009-05-28 19:00,ZHCC 281900Z AUTO 20004KT 1 1/2SM 18/16 A3006 RMK T01800160 IEM_DS3505
ZHCC,2009-05-28 20:00,ZHCC 282000Z AUTO 00000KT 2SM 18/16 A3003 RMK T01800160 IEM_DS3505
ZHCC,2009-05-28 21:00,ZHCC 282100Z AUTO 25002KT 4SM 19/15 A3003 RMK 70003 SLP171 T01880151 57006 IEM_DS3505
ZHCC,2009-05-28 22:00,ZHCC 282200Z AUTO 24004KT 2SM 17/16 A3003 RMK T01700160 IEM_DS3505
ZHCC,2009-05-28 23:00,ZHCC 282300Z AUTO 2SM 18/16 A3003 RMK T01800160 IEM_DS3505
ZHCC,2009-05-29 00:00,ZHCC 290000Z AUTO 29010KT 6SM 22/15 A3006 RMK 70001 SLP177 T02150151 52007 IEM_DS3505
ZHCC,2009-05-29 01:00,ZHCC 290100Z AUTO 28006KT 3SM 22/18 A3006 RMK T02200180 IEM_DS3505
ZHCC,2009-05-29 02:00,ZHCC 290200Z AUTO 29006KT 4SM 25/15 A3003 RMK T02500150 IEM_DS3505
ZHCC,2009-05-29 03:00,ZHCC 290300Z AUTO 25006KT 9SM 26/12 A3003 RMK SLP163 T02600125 57013 IEM_DS3505
ZHCC,2009-05-29 04:00,ZHCC 290400Z AUTO 22004KT 6SM 27/16 A3000 RMK T02700160 IEM_DS3505
ZHCC,2009-05-29 05:00,ZHCC 290500Z AUTO 32010KT 6SM 26/13 A2997 RMK T02600130 IEM_DS3505
ZHCC,2009-05-29 06:00,ZHCC 290600Z AUTO 25006KT 9SM 27/12 A2997 RMK SLP142 T02740118 57021 IEM_DS3505
ZHCC,2009-05-29 07:00,ZHCC 290700Z AUTO 28008KT 6SM 27/13 A2994 RMK T02700130 IEM_DS3505
ZHCC,2009-05-29 08:00,ZHCC 290800Z AUTO 27006KT 6SM 26/14 A2994 RMK T02600140 IEM_DS3505
ZHCC,2009-05-29 09:00,ZHCC 290900Z AUTO 22006KT 9SM 28/10 A2991 RMK SLP126 T02770095 57015 IEM_DS3505
ZHCC,2009-05-29 10:00,ZHCC 291000Z AUTO 26004KT 6SM 26/14 A2991 RMK T02600140 IEM_DS3505
ZHCC,2009-05-29 11:00,ZHCC 291100Z AUTO 23002KT 4SM 25/14 A2991 RMK T02500140 IEM_DS3505
ZHCC,2009-05-29 12:00,ZHCC 291200Z AUTO 25002KT 7SM 25/14 A2991 RMK SLP128 T02530144 52002 IEM_DS3505
ZHCC,2009-05-29 13:00,ZHCC 291300Z AUTO 25006KT 3SM 23/15 A2991 RMK T02300150 IEM_DS3505
ZHCC,2009-05-29 14:00,ZHCC 291400Z AUTO 24004KT 3SM 22/16 A2994 RMK T02200160 IEM_DS3505
ZHCC,2009-05-29 15:00,ZHCC 291500Z AUTO 27008KT 6SM 24/13 A2991 RMK SLP130 T02420128 52002 IEM_DS3505
ZHCC,2009-05-29 16:00,ZHCC 291600Z AUTO 26004KT 3SM 20/15 A2991 RMK T02000150 IEM_DS3505
ZHCC,2009-05-29 17:00,ZHCC 291700Z AUTO 30008KT 21/13 A2991 RMK T02100130 IEM_DS3505
ZHCC,2009-05-29 18:00,ZHCC 291800Z AUTO 27010KT 6SM 24/07 A2988 RMK SLP123 T02380070 57006 IEM_DS3505
ZHCC,2009-05-29 19:00,ZHCC 291900Z AUTO 31012KT A2988 RMK IEM_DS3505
ZHCC,2009-05-29 20:00,ZHCC 292000Z AUTO 31010KT 21/06 A2991 RMK T02100060 IEM_DS3505
ZHCC,2009-05-29 21:00,ZHCC 292100Z AUTO 27006KT 7SM 21/04 A2991 RMK SLP129 T02140040 52005 IEM_DS3505
ZHCC,2009-05-29 22:00,ZHCC 292200Z AUTO 27004KT 6SM 19/05 A2991 RMK T01900050 IEM_DS3505
ZHCC,2009-05-29 23:00,ZHCC 292300Z AUTO 31010KT 6SM 21/06 A2991 RMK T02100060 IEM_DS3505
ZHCC,2009-05-30 00:00,ZHCC 300000Z AUTO 27006KT 10SM 22/04 A2991 RMK SLP136 T02250045 52007 IEM_DS3505
ZHCC,2009-05-30 01:00,ZHCC 300100Z AUTO 34008KT 6SM 24/05 A2994 RMK T02400050 IEM_DS3505
ZHCC,2009-05-30 02:00,ZHCC 300200Z AUTO 34010KT 6SM 27/05 A2991 RMK T02700050 IEM_DS3505
ZHCC,2009-05-30 03:00,ZHCC 300300Z AUTO 32002KT 11SM 28/01 A2991 RMK SLP123 T02790014 57012 IEM_DS3505
ZHCC,2009-05-30 04:00,ZHCC 300400Z AUTO 34010KT 6SM 28/01 A2988 RMK T02800010 IEM_DS3505
ZHCC,2009-05-30 05:00,ZHCC 300500Z AUTO 36008KT 6SM 29/01 A2985 RMK T02900010 IEM_DS3505
ZHCC,2009-05-30 06:00,ZHCC 300600Z AUTO 34004KT 11SM 30/M02 A2985 RMK SLP098 T03001025 57024 IEM_DS3505
ZHCC,2009-05-30 07:00,ZHCC 300700Z AUTO 34008KT 6SM 30/M01 A2983 RMK T03001010 IEM_DS3505
ZHCC,2009-05-30 08:00,ZHCC 300800Z AUTO 29006KT 6SM 30/01 A2980 RMK T03000010 IEM_DS3505
ZHCC,2009-05-30 09:00,ZHCC 300900Z AUTO 29006KT 16SM 31/M02 A2977 RMK SLP077 T03061020 57022 IEM_DS3505
ZHCC,2009-05-30 10:00,ZHCC 301000Z AUTO 27006KT 6SM 29/02 A2977 RMK T02900020 IEM_DS3505
ZHCC,2009-05-30 11:00,ZHCC 301100Z AUTO 23004KT 6SM 25/08 A2977 RMK T02500080 IEM_DS3505
ZHCC,2009-05-30 12:00,ZHCC 301200Z AUTO 25002KT 12SM 26/02 A2980 RMK SLP077 T02640023 54000 IEM_DS3505
ZHCC,2009-05-30 13:00,ZHCC 301300Z AUTO 22006KT 6SM 21/08 A2980 RMK T02100080 IEM_DS3505
ZHCC,2009-05-30 14:00,ZHCC 301400Z AUTO 24006KT 6SM 21/06 A2980 RMK T02100060 IEM_DS3505
ZHCC,2009-05-30 15:00,ZHCC 301500Z AUTO 25002KT 10SM 23/03 A2980 RMK SLP089 T02290029 52012 IEM_DS3505
ZHCC,2009-05-30 16:00,ZHCC 301600Z AUTO 27008KT 6SM 22/05 A2980 RMK T02200050 IEM_DS3505
ZHCC,2009-05-30 17:00,ZHCC 301700Z AUTO 27008KT 21/06 A2977 RMK T02100060 IEM_DS3505
ZHCC,2009-05-30 18:00,ZHCC 301800Z AUTO 27006KT 9SM 22/04 A2977 RMK SLP076 T02230039 57012 IEM_DS3505
ZHCC,2009-05-30 19:00,ZHCC 301900Z AUTO 28006KT A2977 RMK IEM_DS3505
ZHCC,2009-05-30 20:00,ZHCC 302000Z AUTO 27004KT 17/09 A2977 RMK T01700090 IEM_DS3505
ZHCC,2009-05-30 21:00,ZHCC 302100Z AUTO 29004KT 9SM 22/05 A2974 RMK SLP072 T02230048 57004 IEM_DS3505
ZHCC,2009-05-30 22:00,ZHCC 302200Z AUTO 30008KT 6SM 18/09 A2977 RMK T01800090 IEM_DS3505
ZHCC,2009-05-30 23:00,ZHCC 302300Z AUTO 31006KT 6SM 21/10 A2977 RMK T02100100 IEM_DS3505
ZHCC,2009-05-31 00:00,ZHCC 310000Z AUTO 29004KT 7SM 25/08 A2980 RMK SLP085 T02480075 52012 IEM_DS3505
ZHCC,2009-05-31 01:00,ZHCC 310100Z AUTO 32014KT 6SM 27/09 A2977 RMK T02700090 IEM_DS3505
ZHCC,2009-05-31 02:00,ZHCC 310200Z AUTO 32014KT 6SM 29/08 A2977 RMK T02900080 IEM_DS3505
ZHCC,2009-05-31 03:00,ZHCC 310300Z AUTO 27010KT 9SM 31/05 A2977 RMK SLP070 T03060051 57014 IEM_DS3505
ZHCC,2009-05-31 04:00,ZHCC 310400Z AUTO 6SM 32/02 A2974 RMK T03200020 IEM_DS3505
ZHCC,2009-05-31 05:00,ZHCC 310500Z AUTO 30006KT 6SM 33/00 A2971 RMK T03300000 IEM_DS3505
ZHCC,2009-05-31 06:00,ZHCC 310600Z AUTO 25004KT 10SM 34/M00 A2968 RMK SLP043 T03411005 57026 IEM_DS3505
ZHCC,2009-05-31 07:00,ZHCC 310700Z AUTO 6SM 33/01 A2968 RMK T03300010 IEM_DS3505
ZHCC,2009-05-31 08:00,ZHCC 310800Z AUTO 6SM 33/03 A2965 RMK T03300030 IEM_DS3505
ZHCC,2009-05-31 09:00,ZHCC 310900Z AUTO 20006KT 11SM 34/M03 A2962 RMK SLP020 T03401033 57023 IEM_DS3505
ZHCC,2009-05-31 10:00,ZHCC 311000Z AUTO 23004KT 6SM 32/03 A2962 RMK T03200030 IEM_DS3505
ZHCC,2009-05-31 11:00,ZHCC 311100Z AUTO 22004KT 6SM 29/07 A2962 RMK T02900070 IEM_DS3505
ZHCC,2009-05-31 12:00,ZHCC 311200Z AUTO 20004KT 11SM 30/02 A2962 RMK SLP024 T02950019 52004 IEM_DS3505
ZHCC,2009-05-31 13:00,ZHCC 311300Z AUTO 22006KT 6SM 26/08 A2965 RMK T02600080 IEM_DS3505
ZHCC,2009-05-31 14:00,ZHCC 311400Z AUTO 22006KT 6SM 26/08 A2965 RMK T02600080 IEM_DS3505
ZHCC,2009-05-31 15:00,ZHCC 311500Z AUTO 22006KT 10SM 28/05 A2965 RMK SLP031 T02770053 52007 IEM_DS3505
ZHCC,2009-05-31 16:00,ZHCC 311600Z AUTO 21004KT 6SM 20/11 A2965 RMK T02000110 IEM_DS3505
ZHCC,2009-05-31 17:00,ZHCC 311700Z AUTO 23004KT 22/10 A2962 RMK T02200100 IEM_DS3505
ZHCC,2009-05-31 18:00,ZHCC 311800Z AUTO 00000KT 7SM 23/08 A2962 RMK SLP021 T02310084 57010 IEM_DS3505
ZHCC,2009-05-31 19:00,ZHCC 311900Z AUTO 21008KT A2959 RMK IEM_DS3505
ZHCC,2009-05-31 20:00,ZHCC 312000Z AUTO 23004KT 19/12 A2959 RMK T01900120 IEM_DS3505
ZHCC,2009-05-31 21:00,ZHCC 312100Z AUTO 18002KT 7SM 19/10 A2959 RMK SLP019 T01900095 57003 IEM_DS3505
ZHCC,2009-05-31 22:00,ZHCC 312200Z AUTO 22004KT 2SM 20/12 A2959 RMK T02000120 IEM_DS3505
ZHCC,2009-05-31 23:00,ZHCC 312300Z AUTO 25002KT 2SM 22/13 A2959 RMK T02200130 IEM_DS3505
ZHCC,2009-06-01 00:00,ZHCC 010000Z AUTO 22002KT 6SM 25/10 A2962 RMK SLP017 T02520095 57001 IEM_DS3505
ZHCC,2009-06-01 01:00,ZHCC 010100Z AUTO 2 1/2SM 26/15 A2962 RMK T02600150 IEM_DS3505
ZHCC,2009-06-01 02:00,ZHCC 010200Z AUTO 21004KT 3SM 28/15 A2959 RMK T02800150 IEM_DS3505
ZHCC,2009-06-01 03:00,ZHCC 010300Z AUTO 29002KT 7SM 32/10 A2959 RMK SLP007 T03210096 57009 IEM_DS3505
ZHCC,2009-06-01 04:00,ZHCC 010400Z AUTO 17004KT 5SM 31/13 A2956 RMK T03100130 IEM_DS3505
ZHCC,2009-06-01 05:00,ZHCC 010500Z AUTO 18008KT 6SM 32/11 A2953 RMK T03200110 IEM_DS3505
ZHCC,2009-06-01 06:00,ZHCC 010600Z AUTO 18006KT 11SM 35/04 A2950 RMK SLP980 T03490044 57027 IEM_DS3505
ZHCC,2009-06-01 07:00,ZHCC 010700Z AUTO 20008KT 6SM 31/11 A2950 RMK T03100110 IEM_DS3505
ZHCC,2009-06-01 08:00,ZHCC 010800Z AUTO 18010KT 6SM 31/12 A2947 RMK T03100120 IEM_DS3505
ZHCC,2009-06-01 09:00,ZHCC 010900Z AUTO 18012KT 11SM 33/10 A2947 RMK SLP969 T03270095 57012 IEM_DS3505
ZHCC,2009-06-01 10:00,ZHCC 011000Z AUTO 6SM 29/12 A2947 RMK T02900120 IEM_DS3505
ZHCC,2009-06-01 11:00,ZHCC 011100Z AUTO 20008KT 6SM 28/14 A2950 RMK T02800140 IEM_DS3505
ZHCC,2009-06-01 12:00,ZHCC 011200Z AUTO 18006KT 9SM 28/12 A2950 RMK SLP982 T02800124 52013 IEM_DS3505
ZHCC,2009-06-01 13:00,ZHCC 011300Z AUTO 20006KT 6SM 25/15 A2953 RMK T02500150 IEM_DS3505
ZHCC,2009-06-01 14:00,ZHCC 011400Z AUTO 20006KT 6SM 24/15 A2953 RMK T02400150 IEM_DS3505
ZHCC,2009-06-01 15:00,ZHCC 011500Z AUTO 20006KT 8SM 26/14 A2950 RMK SLP981 T02600135 54000 IEM_DS3505
ZHCC,2009-06-01 16:00,ZHCC 011600Z AUTO 20008KT 6SM 22/16 A2950 RMK T02200160 IEM_DS3505
ZHCC,2009-06-01 17:00,ZHCC 011700Z AUTO 21008KT 22/16 A2947 RMK T02200160 IEM_DS3505
ZHCC,2009-06-01 18:00,ZHCC 011800Z AUTO 25002KT 7SM 23/14 A2947 RMK SLP971 T02300135 57010 IEM_DS3505
ZHCC,2009-06-01 19:00,ZHCC 011900Z AUTO 21004KT A2947 RMK IEM_DS3505
ZHCC,2009-06-01 20:00,ZHCC 012000Z AUTO 19004KT 21/16 A2944 RMK T02100160 IEM_DS3505
ZHCC,2009-06-01 21:00,ZHCC 012100Z AUTO 27002KT 6SM A2947 RMK SLP970 57002 IEM_DS3505
ZHCC,2009-06-01 22:00,ZHCC 012200Z AUTO 21004KT 2SM 19/16 A2947 RMK T01900160 IEM_DS3505
ZHCC,2009-06-01 23:00,ZHCC 012300Z AUTO 22002KT 2SM 22/18 A2947 RMK T02200180 IEM_DS3505
ZHCC,2009-06-02 00:00,ZHCC 020000Z AUTO 27006KT 7SM 28/11 A2947 RMK SLP971 T02830110 52002 IEM_DS3505
ZHCC,2009-06-02 01:00,ZHCC 020100Z AUTO 2 1/2SM 27/ A2947 RMK IEM_DS3505
ZHCC,2009-06-02 02:00,ZHCC 020200Z AUTO 34006KT 6SM 32/12 A2947 RMK T03200120 IEM_DS3505
ZHCC,2009-06-02 03:00,ZHCC 020300Z AUTO 07008KT 7SM 33/07 A2950 RMK SLP978 T03340074 52007 IEM_DS3505
ZHCC,2009-06-02 04:00,ZHCC 020400Z AUTO 05012KT 6SM 33/11 A2950 RMK T03300110 IEM_DS3505
ZHCC,2009-06-02 05:00,ZHCC 020500Z AUTO 02010KT 6SM 34/11 A2947 RMK T03400110 IEM_DS3505
ZHCC,2009-06-02 06:00,ZHCC 020600Z AUTO 07010KT 10SM 35/05 A2947 RMK SLP970 T03490054 57008 IEM_DS3505
ZHCC,2009-06-02 07:00,ZHCC 020700Z AUTO 06010KT 6SM 35/10 A2947 RMK T03500100 IEM_DS3505
ZHCC,2009-06-02 08:00,ZHCC 020800Z AUTO 06010KT 6SM 34/10 A2947 RMK T03400100 IEM_DS3505
ZHCC,2009-06-02 09:00,ZHCC 020900Z AUTO 09008KT 9SM 34/06 A2944 RMK SLP966 T03420065 57005 IEM_DS3505
ZHCC,2009-06-02 10:00,ZHCC 021000Z AUTO 06006KT 6SM 33/11 A2947 RMK T03300110 IEM_DS3505
ZHCC,2009-06-02 11:00,ZHCC 021100Z AUTO 03004KT 6SM 31/11 A2950 RMK T03100110 IEM_DS3505
ZHCC,2009-06-02 12:00,ZHCC 021200Z AUTO 07004KT 9SM 31/09 A2950 RMK SLP981 T03090086 52016 IEM_DS3505
ZHCC,2009-06-02 13:00,ZHCC 021300Z AUTO 6SM 27/13 A2950 RMK T02700130 IEM_DS3505
ZHCC,2009-06-02 14:00,ZHCC 021400Z AUTO 09002KT 6SM 26/13 A2953 RMK T02600130 IEM_DS3505
ZHCC,2009-06-02 15:00,ZHCC 021500Z AUTO 04002KT 8SM 28/10 A2953 RMK SLP998 T02820095 52017 IEM_DS3505
ZHCC,2009-06-02 16:00,ZHCC 021600Z AUTO 6SM 22/15 A2953 RMK T02200150 IEM_DS3505
ZHCC,2009-06-02 17:00,ZHCC 021700Z AUTO 00000KT 21/14 A2953 RMK T02100140 IEM_DS3505
ZHCC,2009-06-02 18:00,ZHCC 021800Z AUTO 09004KT 8SM 26/11 A2953 RMK SLP996 T02560114 57002 IEM_DS3505
ZHCC,2009-06-02 19:00,ZHCC 021900Z AUTO 03004KT 22/14 A2953 RMK T02200140 IEM_DS3505
ZHCC,2009-06-02 20:00,ZHCC 022000Z AUTO 02004KT 6SM 21/14 A2953 RMK T02100140 IEM_DS3505
ZHCC,2009-06-02 21:00,ZHCC 022100Z AUTO 00000KT 6SM 23/13 A2953 RMK SLP003 T02300129 52006 IEM_DS3505
ZHCC,2009-06-02 22:00,ZHCC 022200Z AUTO 6SM 20/14 A2956 RMK T02000140 IEM_DS3505
ZHCC,2009-06-02 23:00,ZHCC 022300Z AUTO 4SM 21/16 A2956 RMK T02100160 IEM_DS3505
ZHCC,2009-06-03 00:00,ZHCC 030000Z AUTO 27002KT 6SM 26/15 A2956 RMK SLP008 T02580149 52005 IEM_DS3505
ZHCC,2009-06-03 01:00,ZHCC 030100Z AUTO 01006KT 4SM 26/16 A2956 RMK T02600160 IEM_DS3505
ZHCC,2009-06-03 02:00,ZHCC 030200Z AUTO 04006KT 3SM 27/17 A2956 RMK T02700170 IEM_DS3505
ZHCC,2009-06-03 03:00,ZHCC 030300Z AUTO 07004KT 7SM 30/14 A2956 RMK SLP003 T03020139 57004 IEM_DS3505
ZHCC,2009-06-03 04:00,ZHCC 030400Z AUTO 08006KT 3SM 30/17 A2956 RMK T03000170 IEM_DS3505
ZHCC,2009-06-03 05:00,ZHCC 030500Z AUTO 14002KT 3SM 31/18 A2953 RMK T03100180 IEM_DS3505
ZHCC,2009-06-03 06:00,ZHCC 030600Z AUTO 11004KT 8SM 33/14 A2950 RMK SLP981 T03330139 57022 IEM_DS3505
ZHCC,2009-06-03 07:00,ZHCC 030700Z AUTO 09006KT 3SM 33/17 A2947 RMK T03300170 IEM_DS3505
ZHCC,2009-06-03 08:00,ZHCC 030800Z AUTO 12004KT 3SM 34/19 A2947 RMK T03400190 IEM_DS3505
ZHCC,2009-06-03 09:00,ZHCC 030900Z AUTO 07006KT 8SM 35/14 A2944 RMK SLP958 T03460145 57023 IEM_DS3505
ZHCC,2009-06-03 10:00,ZHCC 031000Z AUTO 08008KT 3SM 33/18 A2947 RMK T03300180 IEM_DS3505
ZHCC,2009-06-03 11:00,ZHCC 031100Z AUTO 03006KT 3SM 31/18 A2950 RMK T03100180 IEM_DS3505
ZHCC,2009-06-03 12:00,ZHCC 031200Z AUTO 04010G25KT 4SM 27/10 A2950 RMK SLP984 T02710103 52025 IEM_DS3505
ZHCC,2009-06-03 13:00,ZHCC 031300Z AUTO 09014KT 4SM 25/13 A2953 RMK T02500130 IEM_DS3505
ZHCC,2009-06-03 14:00,ZHCC 031400Z AUTO 36008KT 4SM 25/13 A2962 RMK T02500130 IEM_DS3505
ZHCC,2009-06-03 15:00,ZHCC 031500Z AUTO 34006KT 8SM 26/12 A2959 RMK SLP014 T02560121 52030 IEM_DS3505
ZHCC,2009-06-03 16:00,ZHCC 031600Z AUTO 07004KT 4SM 23/14 A2956 RMK T02300140 IEM_DS3505
ZHCC,2009-06-03 17:00,ZHCC 031700Z AUTO 19008KT 4SM 22/14 A2956 RMK T02200140 IEM_DS3505
ZHCC,2009-06-03 18:00,ZHCC 031800Z AUTO 20006KT 9SM 24/13 A2953 RMK 60001 SLP999 T02380131 57015 IEM_DS3505
ZHCC,2009-06-03 19:00,ZHCC 031900Z AUTO 30004KT 6SM 22/13 A2956 RMK T02200130 IEM_DS3505
ZHCC,2009-06-03 20:00,ZHCC 032000Z AUTO 23006KT 22/13 A2956 RMK T02200130 IEM_DS3505
ZHCC,2009-06-03 21:00,ZHCC 032100Z AUTO 22002KT 11SM 23/12 A2956 RMK 70001 SLP011 T02280121 52012 IEM_DS3505
ZHCC,2009-06-03 22:00,ZHCC 032200Z AUTO 22008KT 6SM 21/13 A2959 RMK T02100130 IEM_DS3505
ZHCC,2009-06-03 23:00,ZHCC 032300Z AUTO 01004KT 6SM 22/14 A2962 RMK T02200140 IEM_DS3505
ZHCC,2009-06-04 00:00,ZHCC 040000Z AUTO 20004KT 11SM 26/12 A2962 RMK 70001 SLP022 T02580116 52010 IEM_DS3505
ZHCC,2009-06-04 01:00,ZHCC 040100Z AUTO 17004KT 6SM 25/16 A2962 RMK T02500160 IEM_DS3505
ZHCC,2009-06-04 02:00,ZHCC 040200Z AUTO 22006KT 6SM 26/15 A2962 RMK T02600150 IEM_DS3505
ZHCC,2009-06-04 03:00,ZHCC 040300Z AUTO 20006KT 11SM 31/11 A2959 RMK SLP010 T03060106 57011 IEM_DS3505
ZHCC,2009-06-04 04:00,ZHCC 040400Z AUTO 21008KT 6SM 29/16 A2956 RMK T02900160 IEM_DS3505
ZHCC,2009-06-04 05:00,ZHCC 040500Z AUTO 19008KT 6SM 30/14 A2956 RMK T03000140 IEM_DS3505
ZHCC,2009-06-04 06:00,ZHCC 040600Z AUTO 14008KT 11SM 32/13 A2953 RMK SLP990 T03250127 57020 IEM_DS3505
ZHCC,2009-06-04 07:00,ZHCC 040700Z AUTO 6SM 32/15 A2950 RMK T03200150 IEM_DS3505
ZHCC,2009-06-04 08:00,ZHCC 040800Z AUTO 16006KT 6SM 32/16 A2950 RMK T03200160 IEM_DS3505
ZHCC,2009-06-04 09:00,ZHCC 040900Z AUTO 18006KT 11SM 34/12 A2947 RMK SLP971 T03350119 57018 IEM_DS3505
ZHCC,2009-06-04 10:00,ZHCC 041000Z AUTO 17004KT 6SM 31/16 A2947 RMK T03100160 IEM_DS3505
ZHCC,2009-06-04 11:00,ZHCC 041100Z AUTO 16004KT 4SM 29/17 A2950 RMK T02900170 IEM_DS3505
ZHCC,2009-06-04 12:00,ZHCC 041200Z AUTO 14004KT 7SM 31/14 A2950 RMK SLP980 T03060143 52009 IEM_DS3505
ZHCC,2009-06-04 13:00,ZHCC 041300Z AUTO 17004KT 2SM 27/17 A2950 RMK T02700170 IEM_DS3505
ZHCC,2009-06-04 14:00,ZHCC 041400Z AUTO 19004KT 2SM 25/17 A2953 RMK T02500170 IEM_DS3505
ZHCC,2009-06-04 15:00,ZHCC 041500Z AUTO 16004KT 7SM 28/15 A2953 RMK SLP987 T02770154 52007 IEM_DS3505
ZHCC,2009-06-04 16:00,ZHCC 041600Z AUTO 19006KT 2SM 24/17 A2950 RMK T02400170 IEM_DS3505
ZHCC,2009-06-04 17:00,ZHCC 041700Z AUTO 19006KT 1SM 24/17 A2950 RMK T02400170 IEM_DS3505
ZHCC,2009-06-04 18:00,ZHCC 041800Z AUTO 00000KT 6SM 24/16 A2950 RMK SLP981 T02390164 57006 IEM_DS3505
ZHCC,2009-06-04 19:00,ZHCC 041900Z AUTO 21006KT 1SM 22/17 A2950 RMK T02200170 IEM_DS3505
ZHCC,2009-06-04 20:00,ZHCC 042000Z AUTO 28004KT 1SM 20/17 A2950 RMK T02000170 IEM_DS3505
ZHCC,2009-06-04 21:00,ZHCC 042100Z AUTO 22002KT 6SM 24/15 A2950 RMK SLP982 T02380150 52001 IEM_DS3505
ZHCC,2009-06-04 22:00,ZHCC 042200Z AUTO 00000KT 1SM 19/17 A2950 RMK T01900170 IEM_DS3505
ZHCC,2009-06-04 23:00,ZHCC 042300Z AUTO 35002KT 1 1/4SM 23/19 A2950 RMK T02300190 IEM_DS3505
ZHCC,2009-06-05 00:00,ZHCC 050000Z AUTO 32002KT 7SM 28/12 A2950 RMK SLP988 T02760124 52006 IEM_DS3505
ZHCC,2009-06-05 01:00,ZHCC 050100Z AUTO 21004KT 2 1/2SM 29/18 A2953 RMK T02900180 IEM_DS3505
ZHCC,2009-06-05 02:00,ZHCC 050200Z AUTO 15002KT 2 1/2SM 31/15 A2950 RMK T03100150 IEM_DS3505
ZHCC,2009-06-05 03:00,ZHCC 050300Z AUTO 07002KT 7SM 34/12 A2950 RMK SLP982 T03360120 57005 IEM_DS3505
ZHCC,2009-06-05 04:00,ZHCC 050400Z AUTO 4SM 34/14 A2950 RMK T03400140 IEM_DS3505
ZHCC,2009-06-05 05:00,ZHCC 050500Z AUTO 4SM 35/14 A2947 RMK T03500140 IEM_DS3505
ZHCC,2009-06-05 06:00,ZHCC 050600Z AUTO 29002KT 10SM 38/ A2947 RMK SLP963 57019 IEM_DS3505
ZHCC,2009-06-05 07:00,ZHCC 050700Z AUTO 07008KT 4SM 35/15 A2944 RMK T03500150 IEM_DS3505
ZHCC,2009-06-05 08:00,ZHCC 050800Z AUTO 08010KT 4SM 35/16 A2941 RMK T03500160 IEM_DS3505
ZHCC,2009-06-05 09:00,ZHCC 050900Z AUTO 07006KT 7SM 35/12 A2941 RMK SLP951 T03540118 57012 IEM_DS3505
ZHCC,2009-06-05 10:00,ZHCC 051000Z AUTO 06008KT 4SM 33/15 A2941 RMK T03300150 IEM_DS3505
ZHCC,2009-06-05 11:00,ZHCC 051100Z AUTO 08008KT 4SM 32/14 A2944 RMK T03200140 IEM_DS3505
ZHCC,2009-06-05 12:00,ZHCC 051200Z AUTO 09002KT 7SM 32/14 A2944 RMK SLP963 T03170135 52011 IEM_DS3505
ZHCC,2009-06-05 13:00,ZHCC 051300Z AUTO 09006KT 4SM 30/15 A2947 RMK T03000150 IEM_DS3505
ZHCC,2009-06-05 14:00,ZHCC 051400Z AUTO 06006KT 3SM 28/16 A2950 RMK T02800160 IEM_DS3505
ZHCC,2009-06-05 15:00,ZHCC 051500Z AUTO 07004KT 6SM 30/14 A2953 RMK SLP988 T02970143 52026 IEM_DS3505
ZHCC,2009-06-05 16:00,ZHCC 051600Z AUTO 12012KT 3SM 26/17 A2953 RMK T02600170 IEM_DS3505
ZHCC,2009-06-05 17:00,ZHCC 051700Z AUTO 12008KT 2 1/2SM 24/14 A2953 RMK T02400140 IEM_DS3505
ZHCC,2009-06-05 18:00,ZHCC 051800Z AUTO 11006KT 6SM 26/13 A2953 RMK SLP995 T02550130 52007 IEM_DS3505
ZHCC,2009-06-05 19:00,ZHCC 051900Z AUTO 09008KT 1SM 23/15 A2953 RMK T02300150 IEM_DS3505
ZHCC,2009-06-05 20:00,ZHCC 052000Z AUTO 09004KT 1SM 22/15 A2953 RMK T02200150 IEM_DS3505
ZHCC,2009-06-05 21:00,ZHCC 052100Z AUTO 07006KT 6SM 24/14 A2953 RMK SLP994 T02360143 57002 IEM_DS3505
ZHCC,2009-06-05 22:00,ZHCC 052200Z AUTO 08006KT 1SM 21/16 A2953 RMK T02100160 IEM_DS3505
ZHCC,2009-06-05 23:00,ZHCC 052300Z AUTO 08006KT 1SM 21/16 A2953 RMK T02100160 IEM_DS3505
ZHCC,2009-06-06 00:00,ZHCC 060000Z AUTO 34004KT 5SM 22/15 A2956 RMK 60000 70000 SLP013 T02240150 52018 IEM_DS3505
ZHCC,2009-06-06 01:00,ZHCC 060100Z AUTO 04008KT 1SM 20/16 A2959 RMK T02000160 IEM_DS3505
ZHCC,2009-06-06 02:00,ZHCC 060200Z AUTO 1SM 19/17 A2965 RMK T01900170 IEM_DS3505
ZHCC,2009-06-06 03:00,ZHCC 060300Z AUTO 04004KT 5SM 23/18 A2959 RMK SLP021 T02260175 52007 IEM_DS3505
ZHCC,2009-06-06 04:00,ZHCC 060400Z AUTO 01008KT 1 1/4SM 23/19 A2962 RMK T02300190 IEM_DS3505
ZHCC,2009-06-06 06:00,ZHCC 060600Z AUTO 36006KT 6SM 25/17 A2965 RMK 60000 SLP035 T02460168 52014 IEM_DS3505
ZHCC,2009-06-06 07:00,ZHCC 060700Z AUTO 03012KT 2 1/2SM 24/19 A2959 RMK T02400190 IEM_DS3505
ZHCC,2009-06-06 08:00,ZHCC 060800Z AUTO 05008KT 2SM 23/18 A2962 RMK T02300180 IEM_DS3505
ZHCC,2009-06-06 09:00,ZHCC 060900Z AUTO 04004KT 6SM 25/17 A2962 RMK SLP026 T02480170 57010 IEM_DS3505
ZHCC,2009-06-06 10:00,ZHCC 061000Z AUTO 05010KT 3SM 23/17 A2962 RMK T02300170 IEM_DS3505
ZHCC,2009-06-06 11:00,ZHCC 061100Z AUTO 07008KT 2SM 22/18 A2965 RMK T02200180 IEM_DS3505
ZHCC,2009-06-06 12:00,ZHCC 061200Z AUTO 07006KT 4SM 23/17 A2965 RMK SLP042 T02260171 52015 IEM_DS3505
ZHCC,2009-06-06 13:00,ZHCC 061300Z AUTO 1 1/4SM 20/18 A2968 RMK T02000180 IEM_DS3505
ZHCC,2009-06-06 14:00,ZHCC 061400Z AUTO 1 1/4SM 21/18 A2971 RMK T02100180 IEM_DS3505
ZHCC,2009-06-06 15:00,ZHCC 061500Z AUTO 07002KT 3SM 22/18 A2968 RMK SLP054 T02180176 52012 IEM_DS3505
ZHCC,2009-06-06 16:00,ZHCC 061600Z AUTO 32002KT 1 1/4SM 20/18 A2968 RMK T02000180 IEM_DS3505
ZHCC,2009-06-06 17:00,ZHCC 061700Z AUTO 02008KT 1 1/4SM 20/18 A2968 RMK T02000180 IEM_DS3505
ZHCC,2009-06-06 18:00,ZHCC 061800Z AUTO 34002KT 2 1/2SM 21/18 A2968 RMK SLP049 T02120176 57005 IEM_DS3505
ZHCC,2009-06-06 19:00,ZHCC 061900Z AUTO 03004KT 3/8SM 19/18 A2968 RMK T01900180 IEM_DS3505
ZHCC,2009-06-06 20:00,ZHCC 062000Z AUTO 08004KT 3/8SM 19/18 A2968 RMK T01900180 IEM_DS3505
ZHCC,2009-06-06 21:00,ZHCC 062100Z AUTO 09004KT 2 1/2SM 20/17 A2971 RMK 70000 SLP058 T01990173 52009 IEM_DS3505
ZHCC,2009-06-06 22:00,ZHCC 062200Z AUTO 05004KT 3/8SM 19/18 A2971 RMK T01900180 IEM_DS3505
ZHCC,2009-06-06 23:00,ZHCC 062300Z AUTO 08006KT 1/2SM 19/18 A2971 RMK T01900180 IEM_DS3505
ZHCC,2009-06-07 00:00,ZHCC 070000Z AUTO 11004KT 2SM 21/17 A2971 RMK 70000 SLP062 T02080172 52004 IEM_DS3505
ZHCC,2009-06-07 01:00,ZHCC 070100Z AUTO 07004KT 1 1/4SM 21/19 A2971 RMK T02100190 IEM_DS3505
ZHCC,2009-06-07 02:00,ZHCC 070200Z AUTO 08004KT 2SM 22/19 A2971 RMK T02200190 IEM_DS3505
ZHCC,2009-06-07 03:00,ZHCC 070300Z AUTO 04004KT 5SM 25/17 A2968 RMK SLP052 T02510171 57009 IEM_DS3505
ZHCC,2009-06-07 04:00,ZHCC 070400Z AUTO 09006KT 2SM 25/19 A2968 RMK T02500190 IEM_DS3505
ZHCC,2009-06-07 05:00,ZHCC 070500Z AUTO 09006KT 2SM 26/19 A2968 RMK T02600190 IEM_DS3505
ZHCC,2009-06-07 06:00,ZHCC 070600Z AUTO 14006KT 6SM 28/17 A2968 RMK SLP040 T02750174 57012 IEM_DS3505
ZHCC,2009-06-07 07:00,ZHCC 070700Z AUTO 17006KT 2SM 27/20 A2965 RMK T02700200 IEM_DS3505
ZHCC,2009-06-07 08:00,ZHCC 070800Z AUTO 20006KT 2SM 27/20 A2962 RMK T02700200 IEM_DS3505
ZHCC,2009-06-07 09:00,ZHCC 070900Z AUTO 11008KT 6SM 28/18 A2962 RMK SLP019 T02810179 57021 IEM_DS3505
ZHCC,2009-06-07 10:00,ZHCC 071000Z AUTO 18004KT 1 1/2SM 25/20 A2962 RMK T02500200 IEM_DS3505
ZHCC,2009-06-07 11:00,ZHCC 071100Z AUTO 19004KT 1 1/2SM 24/19 A2965 RMK T02400190 IEM_DS3505
ZHCC,2009-06-07 12:00,ZHCC 071200Z AUTO 14004KT 6SM 26/18 A2962 RMK SLP028 T02560175 52009 IEM_DS3505
ZHCC,2009-06-07 13:00,ZHCC 071300Z AUTO 00000KT 1 1/4SM 22/20 A2965 RMK T02200200 IEM_DS3505
ZHCC,2009-06-07 15:00,ZHCC 071500Z AUTO 27004KT 6SM 24/18 A2968 RMK SLP048 T02450182 52020 IEM_DS3505
ZHCC,2009-06-07 16:00,ZHCC 071600Z AUTO 29002KT 1SM 22/20 A2968 RMK T02200200 IEM_DS3505
ZHCC,2009-06-07 17:00,ZHCC 071700Z AUTO 32004KT 1SM 21/20 A2968 RMK T02100200 IEM_DS3505
ZHCC,2009-06-07 18:00,ZHCC 071800Z AUTO 25002KT 2 1/2SM 22/20 A2971 RMK 60004 SLP053 T02240198 52005 IEM_DS3505
ZHCC,2009-06-07 19:00,ZHCC 071900Z AUTO 02004KT 3/8SM 21/20 A2965 RMK T02100200 IEM_DS3505
ZHCC,2009-06-07 20:00,ZHCC 072000Z AUTO 34002KT 1SM 20/19 A2968 RMK T02000190 IEM_DS3505
ZHCC,2009-06-07 21:00,ZHCC 072100Z AUTO 25004KT 2 1/2SM 21/18 A2968 RMK 70006 SLP048 T02100184 57005 IEM_DS3505
ZHCC,2009-06-07 22:00,ZHCC 072200Z AUTO 07004KT 3/8SM 20/19 A2968 RMK T02000190 IEM_DS3505
ZHCC,2009-06-07 23:00,ZHCC 072300Z AUTO 01004KT 1SM 20/19 A2968 RMK T02000190 IEM_DS3505
ZHCC,2009-06-08 00:00,ZHCC 080000Z AUTO 14002KT 2 1/2SM 21/19 A2968 RMK 60012 70017 SLP044 T02140191 57004 IEM_DS3505
ZHCC,2009-06-08 01:00,ZHCC 080100Z AUTO 07004KT 1 1/4SM 20/19 A2968 RMK T02000190 IEM_DS3505
ZHCC,2009-06-08 02:00,ZHCC 080200Z AUTO 08006KT 1SM 20/19 A2971 RMK T02000190 IEM_DS3505
ZHCC,2009-06-08 03:00,ZHCC 080300Z AUTO 09002KT 2 1/2SM 21/19 A2971 RMK SLP062 T02110192 52017 IEM_DS3505
ZHCC,2009-06-08 05:00,ZHCC 080500Z AUTO 06006KT 1SM 20/19 A2971 RMK T02000190 IEM_DS3505
ZHCC,2009-06-08 06:00,ZHCC 080600Z AUTO 14006KT 2 1/2SM 21/19 A2971 RMK 60016 SLP057 T02070192 57005 IEM_DS3505
ZHCC,2009-06-08 07:00,ZHCC 080700Z AUTO 08008KT 1 1/4SM 20/19 A2968 RMK T02000190 IEM_DS3505
ZHCC,2009-06-08 08:00,ZHCC 080800Z AUTO 10010KT 2SM 20/20 A2965 RMK T02000200 IEM_DS3505
ZHCC,2009-06-08 09:00,ZHCC 080900Z AUTO 11004KT 5SM 23/19 A2965 RMK SLP040 T02260192 57017 IEM_DS3505
ZHCC,2009-06-08 10:00,ZHCC 081000Z AUTO 10006KT 2 1/2SM 21/20 A2965 RMK T02100200 IEM_DS3505
ZHCC,2009-06-08 11:00,ZHCC 081100Z AUTO 2 1/2SM 21/20 A2965 RMK T02100200 IEM_DS3505
ZHCC,2009-06-08 12:00,ZHCC 081200Z AUTO 14002KT 6SM 22/20 A2965 RMK 60000 SLP041 T02210195 52001 IEM_DS3505
ZHCC,2009-06-08 13:00,ZHCC 081300Z AUTO 00000KT 2SM 21/20 A2968 RMK T02100200 IEM_DS3505
ZHCC,2009-06-08 14:00,ZHCC 081400Z AUTO 18002KT 2SM 21/20 A2968 RMK T02100200 IEM_DS3505
ZHCC,2009-06-08 15:00,ZHCC 081500Z AUTO 18002KT 5SM 21/19 A2968 RMK SLP048 T02090192 52007 IEM_DS3505
ZHCC,2009-06-08 16:00,ZHCC 081600Z AUTO 21002KT 1SM 19/19 A2968 RMK T01900190 IEM_DS3505
ZHCC,2009-06-08 17:00,ZHCC 081700Z AUTO 20002KT 3/8SM 20/19 A2968 RMK T02000190 IEM_DS3505
ZHCC,2009-06-08 18:00,ZHCC 081800Z AUTO 16002KT 4SM 20/19 A2965 RMK SLP041 T02020189 57007 IEM_DS3505
ZHCC,2009-06-08 19:00,ZHCC 081900Z AUTO 1/8SM 19/19 A2965 RMK T01900190 IEM_DS3505
ZHCC,2009-06-08 20:00,ZHCC 082000Z AUTO 26002KT 1/8SM 19/18 A2965 RMK T01900180 IEM_DS3505
ZHCC,2009-06-08 21:00,ZHCC 082100Z AUTO 00000KT 2SM 19/18 A2965 RMK 70028 SLP040 T01920180 57001 IEM_DS3505
ZHCC,2009-06-08 22:00,ZHCC 082200Z AUTO 00000KT 1/8SM 18/18 A2968 RMK T01800180 IEM_DS3505
ZHCC,2009-06-08 23:00,ZHCC 082300Z AUTO 3/8SM 19/19 A2968 RMK T01900190 IEM_DS3505
ZHCC,2009-06-09 00:00,ZHCC 090000Z AUTO 34006KT 2SM 22/19 A2968 RMK 70017 SLP052 T02190191 52012 IEM_DS3505
ZHCC,2009-06-09 02:00,ZHCC 090200Z AUTO 35006KT 1SM 22/22 A2971 RMK T02200220 IEM_DS3505
ZHCC,2009-06-09 03:00,ZHCC 090300Z AUTO 04002KT 3SM 27/19 A2971 RMK SLP053 T02690187 52002 IEM_DS3505
ZHCC,2009-06-09 04:00,ZHCC 090400Z AUTO 1 1/2SM 25/20 A2971 RMK T02500200 IEM_DS3505
ZHCC,2009-06-09 06:00,ZHCC 090600Z AUTO 18004KT 3SM 28/19 A2968 RMK SLP040 T02830190 57013 IEM_DS3505
ZHCC,2009-06-09 07:00,ZHCC 090700Z AUTO 00000KT 1 1/4SM 27/20 A2968 RMK T02700200 IEM_DS3505
ZHCC,2009-06-09 08:00,ZHCC 090800Z AUTO 13006KT 1 1/2SM 27/20 A2965 RMK T02700200 IEM_DS3505
ZHCC,2009-06-09 09:00,ZHCC 090900Z AUTO 14008KT 3SM 29/19 A2965 RMK SLP033 T02860190 57007 IEM_DS3505
ZHCC,2009-06-09 10:00,ZHCC 091000Z AUTO 14006KT 1 1/2SM 26/20 A2965 RMK T02600200 IEM_DS3505
ZHCC,2009-06-09 11:00,ZHCC 091100Z AUTO 15004KT 2SM 25/20 A2965 RMK T02500200 IEM_DS3505
ZHCC,2009-06-09 12:00,ZHCC 091200Z AUTO 11006KT 3SM 26/19 A2965 RMK SLP035 T02620189 52002 IEM_DS3505
ZHCC,2009-06-09 13:00,ZHCC 091300Z AUTO 16006KT 1 1/4SM 24/20 A2968 RMK T02400200 IEM_DS3505
ZHCC,2009-06-09 14:00,ZHCC 091400Z AUTO 17006KT 1 1/4SM 24/20 A2968 RMK T02400200 IEM_DS3505
ZHCC,2009-06-09 15:00,ZHCC 091500Z AUTO 14002KT 4SM 25/19 A2968 RMK SLP048 T02460194 52014 IEM_DS3505
ZHCC,2009-06-09 16:00,ZHCC 091600Z AUTO 18006KT 1 1/4SM 22/19 A2971 RMK T02200190 IEM_DS3505
ZHCC,2009-06-09 17:00,ZHCC 091700Z AUTO 00000KT 1SM 22/19 A2971 RMK T02200190 IEM_DS3505
ZHCC,2009-06-09 18:00,ZHCC 091800Z AUTO 29002KT 4SM 24/18 A2968 RMK SLP048 T02350182 54000 IEM_DS3505
ZHCC,2009-06-09 19:00,ZHCC 091900Z AUTO 32004KT 1SM 21/19 A2968 RMK T02100190 IEM_DS3505
ZHCC,2009-06-09 20:00,ZHCC 092000Z AUTO 35006KT 1 1/2SM 22/19 A2968 RMK T02200190 IEM_DS3505
ZHCC,2009-06-09 21:00,ZHCC 092100Z AUTO 32006KT 6SM 25/16 A2971 RMK SLP053 T02470156 52005 IEM_DS3505
ZHCC,2009-06-09 22:00,ZHCC 092200Z AUTO 34008KT 1 1/4SM 22/18 A2971 RMK T02200180 IEM_DS3505
ZHCC,2009-06-09 23:00,ZHCC 092300Z AUTO 32008KT 2SM 24/18 A2971 RMK T02400180 IEM_DS3505
ZHCC,2009-06-10 00:00,ZHCC 100000Z AUTO 29006KT 6SM 27/14 A2974 RMK SLP067 T02700137 52014 IEM_DS3505
ZHCC,2009-06-10 01:00,ZHCC 100100Z AUTO 36008KT 2 1/2SM 27/17 A2974 RMK T02700170 IEM_DS3505
ZHCC,2009-06-10 02:00,ZHCC 100200Z AUTO 01008KT 3SM 29/16 A2974 RMK T02900160 IEM_DS3505
ZHCC,2009-06-10 03:00,ZHCC 100300Z AUTO 29004KT 8SM 32/11 A2974 RMK SLP062 T03170110 57004 IEM_DS3505
ZHCC,2009-06-10 04:00,ZHCC 100400Z AUTO 3SM 30/16 A2974 RMK T03000160 IEM_DS3505
ZHCC,2009-06-10 05:00,ZHCC 100500Z AUTO 05010KT 6SM 31/16 A2971 RMK T03100160 IEM_DS3505
ZHCC,2009-06-10 06:00,ZHCC 100600Z AUTO 04008KT 10SM 33/10 A2971 RMK SLP048 T03270095 57014 IEM_DS3505
ZHCC,2009-06-10 07:00,ZHCC 100700Z AUTO 05010KT 6SM 32/13 A2971 RMK T03200130 IEM_DS3505
ZHCC,2009-06-10 08:00,ZHCC 100800Z AUTO 08008KT 6SM 32/13 A2968 RMK T03200130 IEM_DS3505
ZHCC,2009-06-10 09:00,ZHCC 100900Z AUTO 14006KT 10SM 32/08 A2968 RMK SLP038 T03220085 57010 IEM_DS3505
ZHCC,2009-06-10 10:00,ZHCC 101000Z AUTO 17004KT 6SM 29/15 A2968 RMK T02900150 IEM_DS3505
ZHCC,2009-06-10 11:00,ZHCC 101100Z AUTO 18002KT 6SM 28/18 A2968 RMK T02800180 IEM_DS3505
ZHCC,2009-06-10 12:00,ZHCC 101200Z AUTO 18002KT 9SM 29/11 A2968 RMK SLP044 T02920113 52006 IEM_DS3505
ZHCC,2009-06-10 13:00,ZHCC 101300Z AUTO 20002KT 6SM 25/17 A2971 RMK T02500170 IEM_DS3505
ZHCC,2009-06-10 14:00,ZHCC 101400Z AUTO 21002KT 4SM 22/18 A2971 RMK T02200180 IEM_DS3505
ZHCC,2009-06-10 15:00,ZHCC 101500Z AUTO 18002KT 8SM 26/14 A2971 RMK SLP054 T02580140 52010 IEM_DS3505
ZHCC,2009-06-10 16:00,ZHCC 101600Z AUTO 4SM 23/17 A2971 RMK T02300170 IEM_DS3505
ZHCC,2009-06-10 17:00,ZHCC 101700Z AUTO 23/16 A2968 RMK T02300160 IEM_DS3505
ZHCC,2009-06-10 18:00,ZHCC 101800Z AUTO 20002KT 7SM 23/15 A2968 RMK SLP046 T02260147 57008 IEM_DS3505
ZHCC,2009-06-10 19:00,ZHCC 101900Z AUTO 21002KT 2SM 22/16 A2968 RMK T02200160 IEM_DS3505
ZHCC,2009-06-10 20:00,ZHCC 102000Z AUTO 2SM 19/16 A2965 RMK T01900160 IEM_DS3505
ZHCC,2009-06-10 21:00,ZHCC 102100Z AUTO 22002KT 6SM 21/14 A2965 RMK SLP039 T02110138 57008 IEM_DS3505
ZHCC,2009-06-10 22:00,ZHCC 102200Z AUTO 26004KT 2SM 19/16 A2965 RMK T01900160 IEM_DS3505
ZHCC,2009-06-10 23:00,ZHCC 102300Z AUTO 25004KT 2 1/2SM 23/16 A2965 RMK T02300160 IEM_DS3505
ZHCC,2009-06-11 00:00,ZHCC 110000Z AUTO 22002KT 6SM 27/11 A2965 RMK SLP035 T02730109 57003 IEM_DS3505
ZHCC,2009-06-11 01:00,ZHCC 110100Z AUTO 22004KT 4SM 28/15 A2965 RMK T02800150 IEM_DS3505
ZHCC,2009-06-11 02:00,ZHCC 110200Z AUTO 22006KT 5SM 30/14 A2965 RMK T03000140 IEM_DS3505
ZHCC,2009-06-11 03:00,ZHCC 110300Z AUTO 18004KT 7SM 34/10 A2962 RMK SLP019 T03380104 57015 IEM_DS3505
ZHCC,2009-06-11 04:00,ZHCC 110400Z AUTO 20008KT 6SM 33/13 A2959 RMK T03300130 IEM_DS3505
ZHCC,2009-06-11 05:00,ZHCC 110500Z AUTO 26006KT 6SM 33/12 A2959 RMK T03300120 IEM_DS3505
ZHCC,2009-06-11 06:00,ZHCC 110600Z AUTO 20010KT 12SM 35/05 A2956 RMK SLP999 T03490054 57020 IEM_DS3505
ZHCC,2009-06-11 07:00,ZHCC 110700Z AUTO 23008KT 6SM 32/12 A2956 RMK T03200120 IEM_DS3505
ZHCC,2009-06-11 08:00,ZHCC 110800Z AUTO 22008KT 6SM 31/14 A2953 RMK T03100140 IEM_DS3505
ZHCC,2009-06-11 09:00,ZHCC 110900Z AUTO 18006KT 10SM 32/10 A2953 RMK SLP989 T03240099 57011 IEM_DS3505
ZHCC,2009-06-11 10:00,ZHCC 111000Z AUTO 22006KT 6SM 29/14 A2953 RMK T02900140 IEM_DS3505
ZHCC,2009-06-11 11:00,ZHCC 111100Z AUTO 22006KT 6SM 28/16 A2953 RMK T02800160 IEM_DS3505
ZHCC,2009-06-11 12:00,ZHCC 111200Z AUTO 20004KT 9SM 30/14 A2953 RMK SLP991 T02950137 52003 IEM_DS3505
ZHCC,2009-06-11 13:00,ZHCC 111300Z AUTO 22006KT 6SM 26/17 A2953 RMK T02600170 IEM_DS3505
ZHCC,2009-06-11 14:00,ZHCC 111400Z AUTO 21006KT 6SM 26/18 A2953 RMK T02600180 IEM_DS3505
ZHCC,2009-06-11 15:00,ZHCC 111500Z AUTO 20002KT 7SM 28/14 A2953 RMK SLP993 T02750138 52002 IEM_DS3505
ZHCC,2009-06-11 16:00,ZHCC 111600Z AUTO 22004KT 6SM 24/18 A2953 RMK T02400180 IEM_DS3505
ZHCC,2009-06-11 17:00,ZHCC 111700Z AUTO 22004KT 24/17 A2950 RMK T02400170 IEM_DS3505
ZHCC,2009-06-11 18:00,ZHCC 111800Z AUTO 22004KT 7SM 26/12 A2950 RMK SLP981 T02580116 57012 IEM_DS3505
ZHCC,2009-06-11 19:00,ZHCC 111900Z AUTO 22006KT A2950 RMK IEM_DS3505
ZHCC,2009-06-11 20:00,ZHCC 112000Z AUTO 22006KT 22/17 A2950 RMK T02200170 IEM_DS3505
ZHCC,2009-06-11 21:00,ZHCC 112100Z AUTO 27008KT 7SM 28/09 A2950 RMK SLP977 T02760094 57004 IEM_DS3505
ZHCC,2009-06-11 22:00,ZHCC 112200Z AUTO 00000KT 6SM 20/16 A2950 RMK T02000160 IEM_DS3505
ZHCC,2009-06-11 23:00,ZHCC 112300Z AUTO 08004KT 6SM 22/18 A2956 RMK T02200180 IEM_DS3505
ZHCC,2009-06-12 00:00,ZHCC 120000Z AUTO 04004KT 10SM 29/11 A2956 RMK SLP005 T02870113 52028 IEM_DS3505
ZHCC,2009-06-12 01:00,ZHCC 120100Z AUTO 03012KT 6SM 26/15 A2959 RMK T02600150 IEM_DS3505
ZHCC,2009-06-12 02:00,ZHCC 120200Z AUTO 03012KT 6SM 27/15 A2959 RMK T02700150 IEM_DS3505
ZHCC,2009-06-12 03:00,ZHCC 120300Z AUTO 02004KT 7SM 31/11 A2959 RMK SLP012 T03060111 52007 IEM_DS3505
ZHCC,2009-06-12 04:00,ZHCC 120400Z AUTO 02012KT 6SM 30/14 A2959 RMK T03000140 IEM_DS3505
ZHCC,2009-06-12 05:00,ZHCC 120500Z AUTO 03010KT 6SM 31/13 A2959 RMK T03100130 IEM_DS3505
ZHCC,2009-06-12 06:00,ZHCC 120600Z AUTO 07008KT 7SM 33/09 A2959 RMK SLP006 T03260094 57006 IEM_DS3505
ZHCC,2009-06-12 07:00,ZHCC 120700Z AUTO 04010G19KT 6SM 32/13 A2956 RMK T03200130 IEM_DS3505
ZHCC,2009-06-12 08:00,ZHCC 120800Z AUTO 07010KT 6SM 32/13 A2956 RMK T03200130 IEM_DS3505
ZHCC,2009-06-12 09:00,ZHCC 120900Z AUTO 36006KT 7SM 33/07 A2959 RMK SLP011 T03260067 52005 IEM_DS3505
ZHCC,2009-06-12 10:00,ZHCC 121000Z AUTO 01010KT 6SM 30/10 A2959 RMK T03000100 IEM_DS3505
ZHCC,2009-06-12 11:00,ZHCC 121100Z AUTO 34008KT 6SM 28/10 A2962 RMK T02800100 IEM_DS3505
ZHCC,2009-06-12 12:00,ZHCC 121200Z AUTO 22008KT 7SM 29/08 A2962 RMK SLP020 T02900076 52008 IEM_DS3505
ZHCC,2009-06-12 13:00,ZHCC 121300Z AUTO 07006KT 6SM 26/11 A2962 RMK T02600110 IEM_DS3505
ZHCC,2009-06-12 14:00,ZHCC 121400Z AUTO 01004KT 6SM 23/12 A2965 RMK T02300120 IEM_DS3505
ZHCC,2009-06-12 15:00,ZHCC 121500Z AUTO 25004KT 7SM 26/10 A2968 RMK SLP045 T02610103 52025 IEM_DS3505
ZHCC,2009-06-12 16:00,ZHCC 121600Z AUTO 30006KT 6SM 23/12 A2968 RMK T02300120 IEM_DS3505
ZHCC,2009-06-12 17:00,ZHCC 121700Z AUTO 20002KT 6SM 20/13 A2965 RMK T02000130 IEM_DS3505
ZHCC,2009-06-12 18:00,ZHCC 121800Z AUTO 29004KT 7SM 23/12 A2965 RMK SLP037 T02340124 57008 IEM_DS3505
ZHCC,2009-06-12 19:00,ZHCC 121900Z AUTO 31006KT A2965 RMK IEM_DS3505
ZHCC,2009-06-12 20:00,ZHCC 122000Z AUTO 00000KT 19/14 A2968 RMK T01900140 IEM_DS3505
ZHCC,2009-06-12 21:00,ZHCC 122100Z AUTO 00000KT 7SM 21/14 A2968 RMK SLP048 T02060138 52010 IEM_DS3505
ZHCC,2009-06-12 22:00,ZHCC 122200Z AUTO 36002KT 6SM 19/15 A2968 RMK T01900150 IEM_DS3505
ZHCC,2009-06-12 23:00,ZHCC 122300Z AUTO 02004KT 6SM 22/15 A2971 RMK T02200150 IEM_DS3505
ZHCC,2009-06-13 00:00,ZHCC 130000Z AUTO 22004KT 6SM 26/14 A2971 RMK SLP058 T02580140 52010 IEM_DS3505
ZHCC,2009-06-13 01:00,ZHCC 130100Z AUTO 6SM 27/16 A2971 RMK T02700160 IEM_DS3505
ZHCC,2009-06-13 02:00,ZHCC 130200Z AUTO 14004KT 6SM 30/14 A2971 RMK T03000140 IEM_DS3505
ZHCC,2009-06-13 03:00,ZHCC 130300Z AUTO 14002KT 6SM 32/10 A2971 RMK SLP051 T03170104 57006 IEM_DS3505
ZHCC,2009-06-13 04:00,ZHCC 130400Z AUTO 6SM 31/14 A2971 RMK T03100140 IEM_DS3505
ZHCC,2009-06-13 05:00,ZHCC 130500Z AUTO 6SM 32/14 A2968 RMK T03200140 IEM_DS3505
ZHCC,2009-06-13 06:00,ZHCC 130600Z AUTO 18008KT 6SM 34/10 A2965 RMK SLP032 T03430102 57019 IEM_DS3505
ZHCC,2009-06-13 07:00,ZHCC 130700Z AUTO 18004KT 6SM 33/15 A2965 RMK T03300150 IEM_DS3505
ZHCC,2009-06-13 08:00,ZHCC 130800Z AUTO 16006KT 6SM 33/14 A2965 RMK T03300140 IEM_DS3505
ZHCC,2009-06-13 09:00,ZHCC 130900Z AUTO 16004KT 11SM 35/12 A2962 RMK SLP021 T03460117 57011 IEM_DS3505
ZHCC,2009-06-13 10:00,ZHCC 131000Z AUTO 10006KT 6SM 32/15 A2965 RMK T03200150 IEM_DS3505
ZHCC,2009-06-13 11:00,ZHCC 131100Z AUTO 06008KT 6SM 31/15 A2968 RMK T03100150 IEM_DS3505
ZHCC,2009-06-13 12:00,ZHCC 131200Z AUTO 07004KT 9SM 31/11 A2968 RMK SLP037 T03130112 52016 IEM_DS3505
ZHCC,2009-06-13 13:00,ZHCC 131300Z AUTO 12004KT 6SM 27/16 A2968 RMK T02700160 IEM_DS3505
ZHCC,2009-06-13 14:00,ZHCC 131400Z AUTO 04006KT 6SM 27/16 A2971 RMK T02700160 IEM_DS3505
ZHCC,2009-06-13 15:00,ZHCC 131500Z AUTO 22004KT 8SM 27/10 A2971 RMK SLP055 T02690102 52018 IEM_DS3505
ZHCC,2009-06-13 16:00,ZHCC 131600Z AUTO 00000KT 6SM 23/17 A2971 RMK T02300170 IEM_DS3505
ZHCC,2009-06-13 17:00,ZHCC 131700Z AUTO 04004KT 6SM 23/17 A2971 RMK T02300170 IEM_DS3505
ZHCC,2009-06-13 18:00,ZHCC 131800Z AUTO 04006KT 8SM 27/11 A2971 RMK SLP063 T02670112 52008 IEM_DS3505
ZHCC,2009-06-13 19:00,ZHCC 131900Z AUTO 06006KT 3/8SM 22/18 A2974 RMK T02200180 IEM_DS3505
ZHCC,2009-06-13 20:00,ZHCC 132000Z AUTO 08004KT 3/8SM 22/19 A2971 RMK T02200190 IEM_DS3505
ZHCC,2009-06-13 21:00,ZHCC 132100Z AUTO 22002KT 6SM 22/17 A2974 RMK SLP060 T02250170 57003 IEM_DS3505
ZHCC,2009-06-13 22:00,ZHCC 132200Z AUTO 00000KT 3/8SM 21/19 A2974 RMK T02100190 IEM_DS3505
ZHCC,2009-06-13 23:00,ZHCC 132300Z AUTO 04004KT 3/8SM 22/20 A2974 RMK T02200200 IEM_DS3505
ZHCC,2009-06-14 00:00,ZHCC 140000Z AUTO 04004KT 2SM 26/17 A2974 RMK SLP063 T02570171 52003 IEM_DS3505
ZHCC,2009-06-14 01:00,ZHCC 140100Z AUTO 03004KT 1/2SM 26/21 A2974 RMK T02600210 IEM_DS3505
ZHCC,2009-06-14 02:00,ZHCC 140200Z AUTO 04004KT 1/2SM 28/21 A2971 RMK T02800210 IEM_DS3505
ZHCC,2009-06-14 03:00,ZHCC 140300Z AUTO 02004KT 1 1/4SM 30/18 A2971 RMK SLP055 T02990177 57008 IEM_DS3505
ZHCC,2009-06-14 04:00,ZHCC 140400Z AUTO 06006KT 1/2SM 31/21 A2971 RMK T03100210 IEM_DS3505
ZHCC,2009-06-14 05:00,ZHCC 140500Z AUTO 05004KT 1/2SM 32/21 A2968 RMK T03200210 IEM_DS3505
ZHCC,2009-06-14 06:00,ZHCC 140600Z AUTO 11006KT 2SM 34/18 A2965 RMK SLP031 T03350181 57023 IEM_DS3505
ZHCC,2009-06-14 07:00,ZHCC 140700Z AUTO 15006KT 1 1/4SM 33/21 A2962 RMK T03300210 IEM_DS3505
ZHCC,2009-06-14 08:00,ZHCC 140800Z AUTO 13004KT 1SM 33/21 A2962 RMK T03300210 IEM_DS3505
ZHCC,2009-06-14 09:00,ZHCC 140900Z AUTO 04006KT 2SM 33/18 A2962 RMK SLP020 T03320182 57012 IEM_DS3505
ZHCC,2009-06-14 10:00,ZHCC 141000Z AUTO 03006KT 1SM 31/22 A2962 RMK T03100220 IEM_DS3505
ZHCC,2009-06-14 11:00,ZHCC 141100Z AUTO 01014KT 1SM 30/18 A2962 RMK T03000180 IEM_DS3505
ZHCC,2009-06-14 12:00,ZHCC 141200Z AUTO 07012KT 2SM 27/16 A2965 RMK 60000 SLP033 T02700157 52012 IEM_DS3505
ZHCC,2009-06-14 14:00,ZHCC 141400Z AUTO 14006KT 2SM 22/19 A2971 RMK T02200190 IEM_DS3505
ZHCC,2009-06-14 15:00,ZHCC 141500Z AUTO 11006KT 5SM 25/17 A2974 RMK SLP059 T02470174 52026 IEM_DS3505
ZHCC,2009-06-14 16:00,ZHCC 141600Z AUTO 19004KT 2SM 22/18 A2971 RMK T02200180 IEM_DS3505
ZHCC,2009-06-14 17:00,ZHCC 141700Z AUTO 2SM 21/18 A2974 RMK T02100180 IEM_DS3505
ZHCC,2009-06-14 18:00,ZHCC 141800Z AUTO 07004KT 5SM 22/18 A2974 RMK SLP065 T02240184 52006 IEM_DS3505
ZHCC,2009-06-14 19:00,ZHCC 141900Z AUTO 12004KT 1 1/2SM 20/18 A2974 RMK T02000180 IEM_DS3505
ZHCC,2009-06-14 20:00,ZHCC 142000Z AUTO 1 1/4SM 20/18 A2977 RMK T02000180 IEM_DS3505
ZHCC,2009-06-14 21:00,ZHCC 142100Z AUTO 11004KT 4SM 21/18 A2974 RMK 70000 SLP070 T02130183 52005 IEM_DS3505
ZHCC,2009-06-14 22:00,ZHCC 142200Z AUTO 13004KT 1SM 19/18 A2977 RMK T01900180 IEM_DS3505
ZHCC,2009-06-14 23:00,ZHCC 142300Z AUTO 1 1/2SM 20/19 A2977 RMK T02000190 IEM_DS3505
ZHCC,2009-06-15 00:00,ZHCC 150000Z AUTO 09004KT 4SM 23/19 A2977 RMK 70000 SLP079 T02330186 52008 IEM_DS3505
ZHCC,2009-06-15 01:00,ZHCC 150100Z AUTO 12006KT 3SM 23/21 A2977 RMK T02300210 IEM_DS3505
ZHCC,2009-06-15 02:00,ZHCC 150200Z AUTO 12006KT 3SM 25/21 A2977 RMK T02500210 IEM_DS3505
ZHCC,2009-06-15 03:00,ZHCC 150300Z AUTO 11006KT 6SM 28/19 A2977 RMK SLP071 T02750190 57007 IEM_DS3505
ZHCC,2009-06-15 04:00,ZHCC 150400Z AUTO 11006KT 4SM 28/21 A2977 RMK T02800210 IEM_DS3505
ZHCC,2009-06-15 05:00,ZHCC 150500Z AUTO 4SM 29/21 A2974 RMK T02900210 IEM_DS3505
ZHCC,2009-06-15 06:00,ZHCC 150600Z AUTO 07006KT 8SM 32/20 A2971 RMK SLP053 T03160196 57018 IEM_DS3505
ZHCC,2009-06-15 07:00,ZHCC 150700Z AUTO 11010KT 6SM 31/22 A2971 RMK T03100220 IEM_DS3505
ZHCC,2009-06-15 08:00,ZHCC 150800Z AUTO 13010KT 6SM 31/23 A2968 RMK T03100230 IEM_DS3505
ZHCC,2009-06-15 09:00,ZHCC 150900Z AUTO 09010KT 9SM 32/20 A2968 RMK SLP039 T03180204 57014 IEM_DS3505
ZHCC,2009-06-15 10:00,ZHCC 151000Z AUTO 12008KT 6SM 30/22 A2968 RMK T03000220 IEM_DS3505
ZHCC,2009-06-15 11:00,ZHCC 151100Z AUTO 12008KT 5SM 28/22 A2971 RMK T02800220 IEM_DS3505
ZHCC,2009-06-15 12:00,ZHCC 151200Z AUTO 09006KT 7SM 29/20 A2971 RMK SLP057 T02940197 52018 IEM_DS3505
ZHCC,2009-06-15 13:00,ZHCC 151300Z AUTO 11006KT 4SM 26/21 A2974 RMK T02600210 IEM_DS3505
ZHCC,2009-06-15 14:00,ZHCC 151400Z AUTO 13004KT 3SM 26/21 A2974 RMK T02600210 IEM_DS3505
ZHCC,2009-06-15 15:00,ZHCC 151500Z AUTO 14006KT 7SM 28/20 A2977 RMK SLP065 T02760202 52008 IEM_DS3505
ZHCC,2009-06-15 16:00,ZHCC 151600Z AUTO 15004KT 3SM 25/21 A2974 RMK T02500210 IEM_DS3505
ZHCC,2009-06-15 17:00,ZHCC 151700Z AUTO 25/21 A2974 RMK T02500210 IEM_DS3505
ZHCC,2009-06-15 18:00,ZHCC 151800Z AUTO 16002KT 6SM 27/20 A2974 RMK SLP064 T02680199 54000 IEM_DS3505
ZHCC,2009-06-15 19:00,ZHCC 151900Z AUTO 1 1/2SM 24/21 A2974 RMK T02400210 IEM_DS3505
ZHCC,2009-06-15 20:00,ZHCC 152000Z AUTO 16002KT 1 1/2SM 23/21 A2974 RMK T02300210 IEM_DS3505
ZHCC,2009-06-15 21:00,ZHCC 152100Z AUTO 16006KT 6SM 25/21 A2974 RMK SLP063 T02540211 57001 IEM_DS3505
ZHCC,2009-06-15 22:00,ZHCC 152200Z AUTO 18004KT 1 1/4SM 23/21 A2974 RMK T02300210 IEM_DS3505
ZHCC,2009-06-15 23:00,ZHCC 152300Z AUTO 1 1/4SM 24/22 A2977 RMK T02400220 IEM_DS3505
ZHCC,2009-06-16 00:00,ZHCC 160000Z AUTO 20004KT 3SM 27/22 A2977 RMK SLP074 T02730223 52010 IEM_DS3505
ZHCC,2009-06-16 01:00,ZHCC 160100Z AUTO 17004KT 2SM 27/24 A2977 RMK T02700240 IEM_DS3505
ZHCC,2009-06-16 02:00,ZHCC 160200Z AUTO 17006KT 2SM 29/24 A2977 RMK T02900240 IEM_DS3505
ZHCC,2009-06-16 03:00,ZHCC 160300Z AUTO 14006KT 4SM 33/21 A2974 RMK SLP060 T03340209 57012 IEM_DS3505
ZHCC,2009-06-16 04:00,ZHCC 160400Z AUTO 20006KT 5SM 33/23 A2974 RMK T03300230 IEM_DS3505
ZHCC,2009-06-16 05:00,ZHCC 160500Z AUTO 18008KT 6SM 34/20 A2971 RMK T03400200 IEM_DS3505
ZHCC,2009-06-16 06:00,ZHCC 160600Z AUTO 18008KT 6SM 36/14 A2968 RMK SLP038 T03630143 57022 IEM_DS3505
ZHCC,2009-06-16 07:00,ZHCC 160700Z AUTO 17008KT 6SM 35/18 A2965 RMK T03500180 IEM_DS3505
ZHCC,2009-06-16 08:00,ZHCC 160800Z AUTO 16006KT 6SM 35/18 A2965 RMK T03500180 IEM_DS3505
ZHCC,2009-06-16 09:00,ZHCC 160900Z AUTO 18010KT 6SM 37/13 A2962 RMK SLP021 T03680129 57017 IEM_DS3505
ZHCC,2009-06-16 10:00,ZHCC 161000Z AUTO 18004KT 6SM 34/17 A2962 RMK T03400170 IEM_DS3505
ZHCC,2009-06-16 11:00,ZHCC 161100Z AUTO 18002KT 6SM 32/17 A2962 RMK T03200170 IEM_DS3505
ZHCC,2009-06-16 12:00,ZHCC 161200Z AUTO 14004KT 6SM 33/12 A2965 RMK SLP029 T03340124 52008 IEM_DS3505
ZHCC,2009-06-16 13:00,ZHCC 161300Z AUTO 6SM 29/19 A2965 RMK T02900190 IEM_DS3505
ZHCC,2009-06-16 14:00,ZHCC 161400Z AUTO 15002KT 6SM 27/20 A2968 RMK T02700200 IEM_DS3505
ZHCC,2009-06-16 15:00,ZHCC 161500Z AUTO 16006KT 6SM 31/15 A2968 RMK SLP034 T03120148 52006 IEM_DS3505
ZHCC,2009-06-16 16:00,ZHCC 161600Z AUTO 6SM 26/20 A2968 RMK T02600200 IEM_DS3505
ZHCC,2009-06-16 17:00,ZHCC 161700Z AUTO 6SM 26/21 A2968 RMK T02600210 IEM_DS3505
ZHCC,2009-06-16 18:00,ZHCC 161800Z AUTO 04002KT 8SM 30/15 A2968 RMK SLP036 T02950149 52002 IEM_DS3505
ZHCC,2009-06-16 19:00,ZHCC 161900Z AUTO 3SM 25/20 A2968 RMK T02500200 IEM_DS3505
ZHCC,2009-06-16 20:00,ZHCC 162000Z AUTO 00000KT 2SM 25/21 A2968 RMK T02500210 IEM_DS3505
ZHCC,2009-06-16 21:00,ZHCC 162100Z AUTO 07008KT 5SM 24/19 A2971 RMK SLP053 T02410194 52016 IEM_DS3505
ZHCC,2009-06-16 22:00,ZHCC 162200Z AUTO 05012KT 1SM 22/20 A2971 RMK T02200200 IEM_DS3505
ZHCC,2009-06-16 23:00,ZHCC 162300Z AUTO 05008KT 1SM 22/20 A2974 RMK T02200200 IEM_DS3505
ZHCC,2009-06-17 00:00,ZHCC 170000Z AUTO 04006KT 2 1/2SM 24/19 A2974 RMK SLP069 T02380193 52015 IEM_DS3505
ZHCC,2009-06-17 01:00,ZHCC 170100Z AUTO 02004KT 1 1/4SM 24/21 A2974 RMK T02400210 IEM_DS3505
ZHCC,2009-06-17 02:00,ZHCC 170200Z AUTO 03006KT 1 1/4SM 25/21 A2974 RMK T02500210 IEM_DS3505
ZHCC,2009-06-17 03:00,ZHCC 170300Z AUTO 09008KT 3SM 28/20 A2974 RMK SLP061 T02820202 57008 IEM_DS3505
ZHCC,2009-06-17 04:00,ZHCC 170400Z AUTO 2SM 28/23 A2974 RMK T02800230 IEM_DS3505
ZHCC,2009-06-17 05:00,ZHCC 170500Z AUTO 19004KT 2SM 30/23 A2971 RMK T03000230 IEM_DS3505
ZHCC,2009-06-17 06:00,ZHCC 170600Z AUTO 14004KT 3SM 32/20 A2971 RMK SLP043 T03250197 57017 IEM_DS3505
ZHCC,2009-06-17 07:00,ZHCC 170700Z AUTO 18006KT 5SM 31/20 A2968 RMK T03100200 IEM_DS3505
ZHCC,2009-06-17 08:00,ZHCC 170800Z AUTO 21008KT 5SM 29/20 A2968 RMK T02900200 IEM_DS3505
ZHCC,2009-06-17 09:00,ZHCC 170900Z AUTO 20008KT 6SM 30/19 A2968 RMK SLP039 T03050186 57006 IEM_DS3505
ZHCC,2009-06-17 10:00,ZHCC 171000Z AUTO 22006KT 5SM 28/19 A2968 RMK T02800190 IEM_DS3505
ZHCC,2009-06-17 11:00,ZHCC 171100Z AUTO 21004KT 5SM 27/19 A2968 RMK T02700190 IEM_DS3505
ZHCC,2009-06-17 12:00,ZHCC 171200Z AUTO 20006KT 6SM 28/17 A2968 RMK SLP041 T02810173 52002 IEM_DS3505
ZHCC,2009-06-17 13:00,ZHCC 171300Z AUTO 4SM 25/20 A2971 RMK T02500200 IEM_DS3505
ZHCC,2009-06-17 14:00,ZHCC 171400Z AUTO 20004KT 4SM 24/20 A2971 RMK T02400200 IEM_DS3505
ZHCC,2009-06-17 15:00,ZHCC 171500Z AUTO 11004KT 6SM 25/18 A2971 RMK SLP056 T02540183 52015 IEM_DS3505
ZHCC,2009-06-17 16:00,ZHCC 171600Z AUTO 00000KT 3SM 22/19 A2971 RMK T02200190 IEM_DS3505
ZHCC,2009-06-17 17:00,ZHCC 171700Z AUTO 14002KT 22/19 A2968 RMK T02200190 IEM_DS3505
ZHCC,2009-06-17 18:00,ZHCC 171800Z AUTO 11004KT 6SM 24/19 A2968 RMK SLP043 T02440192 57012 IEM_DS3505
ZHCC,2009-06-17 19:00,ZHCC 171900Z AUTO 13002KT 2SM 23/20 A2968 RMK T02300200 IEM_DS3505
ZHCC,2009-06-17 20:00,ZHCC 172000Z AUTO 12004KT 2SM 22/20 A2968 RMK T02200200 IEM_DS3505
ZHCC,2009-06-17 21:00,ZHCC 172100Z AUTO 09004KT 4SM 24/20 A2968 RMK SLP045 T02420197 52001 IEM_DS3505
ZHCC,2009-06-17 22:00,ZHCC 172200Z AUTO 2SM 23/20 A2968 RMK T02300200 IEM_DS3505
ZHCC,2009-06-17 23:00,ZHCC 172300Z AUTO 15002KT 2SM 24/21 A2971 RMK T02400210 IEM_DS3505
ZHCC,2009-06-18 00:00,ZHCC 180000Z AUTO 07004KT 4SM 25/20 A2971 RMK 60000 70000 SLP055 T02460203 52010 IEM_DS3505
ZHCC,2009-06-18 01:00,ZHCC 180100Z AUTO 1 1/2SM 25/22 A2968 RMK T02500220 IEM_DS3505
ZHCC,2009-06-18 02:00,ZHCC 180200Z AUTO 08004KT 1 1/2SM 25/22 A2968 RMK T02500220 IEM_DS3505
ZHCC,2009-06-18 03:00,ZHCC 180300Z AUTO 02002KT 4SM 27/21 A2968 RMK SLP043 T02720210 57012 IEM_DS3505
ZHCC,2009-06-18 04:00,ZHCC 180400Z AUTO 06006KT 1 1/2SM 28/23 A2965 RMK T02800230 IEM_DS3505
ZHCC,2009-06-18 05:00,ZHCC 180500Z AUTO 12006KT 1 1/4SM 28/24 A2965 RMK T02800240 IEM_DS3505
ZHCC,2009-06-18 06:00,ZHCC 180600Z AUTO 11002KT 1 1/4SM 29/22 RMK SLP027 T02860221 57016 IEM_DS3505
ZHCC,2009-06-18 07:00,ZHCC 180700Z AUTO 2SM 30/24 A2959 RMK T03000240 IEM_DS3505
ZHCC,2009-06-18 08:00,ZHCC 180800Z AUTO 2SM 30/24 A2959 RMK T03000240 IEM_DS3505
ZHCC,2009-06-18 09:00,ZHCC 180900Z AUTO 36002KT 1 1/4SM 29/23 A2956 RMK SLP007 T02930228 57019 IEM_DS3505
ZHCC,2009-06-18 10:00,ZHCC 181000Z AUTO 10002KT 2SM 27/25 A2956 RMK T02700250 IEM_DS3505
ZHCC,2009-06-18 11:00,ZHCC 181100Z AUTO 12004KT 2SM 27/25 A2956 RMK T02700250 IEM_DS3505
ZHCC,2009-06-18 12:00,ZHCC 181200Z AUTO 09002KT 2SM 28/23 A2959 RMK SLP010 T02800234 52002 IEM_DS3505
ZHCC,2009-06-18 13:00,ZHCC 181300Z AUTO 05002KT 2SM 26/24 A2959 RMK T02600240 IEM_DS3505
ZHCC,2009-06-18 14:00,ZHCC 181400Z AUTO 00000KT 2SM 26/24 A2959 RMK T02600240 IEM_DS3505
ZHCC,2009-06-18 15:00,ZHCC 181500Z AUTO 27002KT 2SM 27/23 A2956 RMK SLP009 T02700226 54000 IEM_DS3505
ZHCC,2009-06-18 16:00,ZHCC 181600Z AUTO 36002KT 1 1/4SM 26/24 A2956 RMK T02600240 IEM_DS3505
ZHCC,2009-06-18 17:00,ZHCC 181700Z AUTO 00000KT 1SM 25/24 A2953 RMK T02500240 IEM_DS3505
ZHCC,2009-06-18 18:00,ZHCC 181800Z AUTO 14002KT 2SM 26/22 A2953 RMK SLP991 T02600221 57018 IEM_DS3505
ZHCC,2009-06-18 19:00,ZHCC 181900Z AUTO 13002KT 1SM 25/24 A2950 RMK T02500240 IEM_DS3505
ZHCC,2009-06-18 20:00,ZHCC 182000Z AUTO 30002KT 1 1/4SM 24/23 A2950 RMK T02400230 IEM_DS3505
ZHCC,2009-06-18 21:00,ZHCC 182100Z AUTO 22004KT 2SM 26/22 A2950 RMK 70001 SLP990 T02580221 57001 IEM_DS3505
ZHCC,2009-06-18 22:00,ZHCC 182200Z AUTO 00000KT 1SM 25/24 A2953 RMK T02500240 IEM_DS3505
ZHCC,2009-06-18 23:00,ZHCC 182300Z AUTO 26004KT 1SM 26/25 A2953 RMK T02600250 IEM_DS3505
ZHCC,2009-06-19 00:00,ZHCC 190000Z AUTO 29004KT 1 1/4SM 27/22 A2953 RMK 70001 SLP992 T02710225 52002 IEM_DS3505
ZHCC,2009-06-19 01:00,ZHCC 190100Z AUTO 24004KT 1SM 28/26 A2953 RMK T02800260 IEM_DS3505
ZHCC,2009-06-19 02:00,ZHCC 190200Z AUTO 24004KT 1 1/4SM 28/25 A2950 RMK T02800250 IEM_DS3505
ZHCC,2009-06-19 03:00,ZHCC 190300Z AUTO 29004KT 2SM 32/23 A2950 RMK SLP983 T03190232 57008 IEM_DS3505
ZHCC,2009-06-19 04:00,ZHCC 190400Z AUTO 24004KT 2SM 29/25 A2950 RMK T02900250 IEM_DS3505
ZHCC,2009-06-19 05:00,ZHCC 190500Z AUTO 25006KT 1 1/4SM 31/25 A2950 RMK T03100250 IEM_DS3505
ZHCC,2009-06-19 06:00,ZHCC 190600Z AUTO 27006KT 7SM 33/22 A2950 RMK SLP978 T03290221 57005 IEM_DS3505
ZHCC,2009-06-19 07:00,ZHCC 190700Z AUTO 31012KT 2 1/2SM 32/24 A2950 RMK T03200240 IEM_DS3505
ZHCC,2009-06-19 08:00,ZHCC 190800Z AUTO 32016KT 2 1/2SM 33/24 A2950 RMK T03300240 IEM_DS3505
ZHCC,2009-06-19 09:00,ZHCC 190900Z AUTO 27010KT 7SM 32/15 A2950 RMK SLP980 T03230149 52002 IEM_DS3505
ZHCC,2009-06-19 10:00,ZHCC 191000Z AUTO 32017KT 2SM 31/16 A2950 RMK T03100160 IEM_DS3505
ZHCC,2009-06-19 11:00,ZHCC 191100Z AUTO 32016G27KT 2SM 30/15 A2953 RMK T03000150 IEM_DS3505
ZHCC,2009-06-19 12:00,ZHCC 191200Z AUTO 29008KT 6SM 29/12 A2956 RMK 60000 SLP010 T02940124 52029 IEM_DS3505
ZHCC,2009-06-19 13:00,ZHCC 191300Z AUTO 35012KT 2SM 27/16 A2962 RMK T02700160 IEM_DS3505
ZHCC,2009-06-19 14:00,ZHCC 191400Z AUTO 35008KT 2 1/2SM 26/16 A2962 RMK T02600160 IEM_DS3505
ZHCC,2009-06-19 15:00,ZHCC 191500Z AUTO 27010KT 7SM 26/13 A2962 RMK SLP025 T02650126 52015 IEM_DS3505
ZHCC,2009-06-19 16:00,ZHCC 191600Z AUTO 31012KT 3SM 25/14 A2962 RMK T02500140 IEM_DS3505
ZHCC,2009-06-19 17:00,ZHCC 191700Z AUTO 32012KT 25/12 A2962 RMK T02500120 IEM_DS3505
ZHCC,2009-06-19 18:00,ZHCC 191800Z AUTO 27010KT 7SM 26/09 A2962 RMK SLP026 T02600089 52002 IEM_DS3505
ZHCC,2009-06-19 19:00,ZHCC 191900Z AUTO 32010KT A2962 RMK IEM_DS3505
ZHCC,2009-06-19 20:00,ZHCC 192000Z AUTO 34006KT 24/10 A2962 RMK T02400100 IEM_DS3505
ZHCC,2009-06-19 21:00,ZHCC 192100Z AUTO 29008KT 7SM 26/08 A2965 RMK 70000 SLP031 T02550085 52004 IEM_DS3505
ZHCC,2009-06-19 22:00,ZHCC 192200Z AUTO 32008KT 3SM 24/11 A2965 RMK T02400110 IEM_DS3505
ZHCC,2009-06-19 23:00,ZHCC 192300Z AUTO 30006KT 3SM 23/12 A2965 RMK T02300120 IEM_DS3505
ZHCC,2009-06-20 00:00,ZHCC 200000Z AUTO 27008KT 6SM 26/10 A2965 RMK 70000 SLP039 T02620104 52008 IEM_DS3505
ZHCC,2009-06-20 01:00,ZHCC 200100Z AUTO 32010KT 3SM 27/13 A2965 RMK T02700130 IEM_DS3505
ZHCC,2009-06-20 02:00,ZHCC 200200Z AUTO 31012KT 4SM 29/13 A2965 RMK T02900130 IEM_DS3505
ZHCC,2009-06-20 03:00,ZHCC 200300Z AUTO 27004KT 7SM 31/09 A2965 RMK SLP033 T03130089 57006 IEM_DS3505
ZHCC,2009-06-20 04:00,ZHCC 200400Z AUTO 4SM 31/13 A2962 RMK T03100130 IEM_DS3505
ZHCC,2009-06-20 05:00,ZHCC 200500Z AUTO 27004KT 4SM 32/13 A2962 RMK T03200130 IEM_DS3505
ZHCC,2009-06-20 06:00,ZHCC 200600Z AUTO 14004KT 7SM 34/11 A2959 RMK SLP010 T03390111 57022 IEM_DS3505
ZHCC,2009-06-20 07:00,ZHCC 200700Z AUTO 18006KT 4SM 31/15 A2959 RMK T03100150 IEM_DS3505
ZHCC,2009-06-20 08:00,ZHCC 200800Z AUTO 16006KT 4SM 31/15 A2956 RMK T03100150 IEM_DS3505
ZHCC,2009-06-20 09:00,ZHCC 200900Z AUTO 16008KT 8SM 34/11 A2956 RMK SLP991 T03370110 57019 IEM_DS3505
ZHCC,2009-06-20 10:00,ZHCC 201000Z AUTO 16006KT 4SM 30/15 A2953 RMK T03000150 IEM_DS3505
ZHCC,2009-06-20 11:00,ZHCC 201100Z AUTO 18006KT 4SM 28/16 A2953 RMK T02800160 IEM_DS3505
ZHCC,2009-06-20 12:00,ZHCC 201200Z AUTO 18006KT 7SM 29/14 A2953 RMK SLP991 T02910137 57001 IEM_DS3505
ZHCC,2009-06-20 13:00,ZHCC 201300Z AUTO 18004KT 4SM 25/18 A2956 RMK T02500180 IEM_DS3505
ZHCC,2009-06-20 14:00,ZHCC 201400Z AUTO 19004KT 4SM 24/18 A2956 RMK T02400180 IEM_DS3505
ZHCC,2009-06-20 15:00,ZHCC 201500Z AUTO 14002KT 6SM 26/17 A2956 RMK SLP000 T02600174 52010 IEM_DS3505
ZHCC,2009-06-20 16:00,ZHCC 201600Z AUTO 19004KT 4SM 23/19 A2956 RMK T02300190 IEM_DS3505
ZHCC,2009-06-20 17:00,ZHCC 201700Z AUTO 4SM 22/19 A2953 RMK T02200190 IEM_DS3505
ZHCC,2009-06-20 18:00,ZHCC 201800Z AUTO 18002KT 6SM 25/16 A2953 RMK SLP989 T02510157 57011 IEM_DS3505
ZHCC,2009-06-20 19:00,ZHCC 201900Z AUTO 00000KT 21/18 A2950 RMK T02100180 IEM_DS3505
ZHCC,2009-06-20 20:00,ZHCC 202000Z AUTO 19004KT 1 1/2SM 21/19 A2950 RMK T02100190 IEM_DS3505
ZHCC,2009-06-20 21:00,ZHCC 202100Z AUTO 18002KT 5SM 22/16 A2950 RMK SLP985 T02230159 57005 IEM_DS3505
ZHCC,2009-06-20 22:00,ZHCC 202200Z AUTO 00000KT 2SM 20/18 A2950 RMK T02000180 IEM_DS3505
ZHCC,2009-06-20 23:00,ZHCC 202300Z AUTO 00000KT 2SM 22/21 A2950 RMK T02200210 IEM_DS3505
ZHCC,2009-06-21 00:00,ZHCC 210000Z AUTO 25002KT 6SM 29/14 A2950 RMK SLP988 T02860141 52004 IEM_DS3505
ZHCC,2009-06-21 01:00,ZHCC 210100Z AUTO 19004KT 2 1/2SM 28/20 A2950 RMK T02800200 IEM_DS3505
ZHCC,2009-06-21 02:00,ZHCC 210200Z AUTO 23004KT 4SM 30/19 A2950 RMK T03000190 IEM_DS3505
ZHCC,2009-06-21 03:00,ZHCC 210300Z AUTO 27004KT 8SM 36/10 A2950 RMK SLP975 T03550098 57012 IEM_DS3505
ZHCC,2009-06-21 04:00,ZHCC 210400Z AUTO 18006KT 6SM 34/16 A2947 RMK T03400160 IEM_DS3505
ZHCC,2009-06-21 05:00,ZHCC 210500Z AUTO 20004KT 6SM 35/16 A2947 RMK T03500160 IEM_DS3505
ZHCC,2009-06-21 06:00,ZHCC 210600Z AUTO 32006KT 11SM 39/ A2944 RMK SLP959 57016 IEM_DS3505
ZHCC,2009-06-21 07:00,ZHCC 210700Z AUTO 6SM 36/18 A2944 RMK T03600180 IEM_DS3505
ZHCC,2009-06-21 08:00,ZHCC 210800Z AUTO 14006KT 6SM 35/18 A2941 RMK T03500180 IEM_DS3505
ZHCC,2009-06-21 09:00,ZHCC 210900Z AUTO 20006KT 11SM 40/ A2941 RMK SLP944 57015 IEM_DS3505
ZHCC,2009-06-21 10:00,ZHCC 211000Z AUTO 16004KT 6SM 34/19 A2938 RMK T03400190 IEM_DS3505
ZHCC,2009-06-21 11:00,ZHCC 211100Z AUTO 17004KT 6SM 32/20 A2941 RMK T03200200 IEM_DS3505
ZHCC,2009-06-21 12:00,ZHCC 211200Z AUTO 18004KT 11SM 34/15 A2941 RMK SLP952 T03390154 52008 IEM_DS3505
ZHCC,2009-06-21 13:00,ZHCC 211300Z AUTO 19004KT 6SM 29/21 A2944 RMK T02900210 IEM_DS3505
ZHCC,2009-06-21 14:00,ZHCC 211400Z AUTO 20004KT 6SM 28/21 A2947 RMK T02800210 IEM_DS3505
ZHCC,2009-06-21 15:00,ZHCC 211500Z AUTO 27006KT 7SM 32/ A2947 RMK SLP970 52019 IEM_DS3505
ZHCC,2009-06-21 16:00,ZHCC 211600Z AUTO 00000KT 6SM 26/21 A2947 RMK T02600210 IEM_DS3505
ZHCC,2009-06-21 17:00,ZHCC 211700Z AUTO 26/19 A2947 RMK T02600190 IEM_DS3505
ZHCC,2009-06-21 18:00,ZHCC 211800Z AUTO 29006KT 8SM 32/12 A2947 RMK SLP968 T03220119 57001 IEM_DS3505
ZHCC,2009-06-21 19:00,ZHCC 211900Z AUTO 29006KT A2947 RMK IEM_DS3505
ZHCC,2009-06-21 20:00,ZHCC 212000Z AUTO 02017KT 27/15 A2953 RMK T02700150 IEM_DS3505
ZHCC,2009-06-21 21:00,ZHCC 212100Z AUTO 02008G25KT 7SM 27/08 A2959 RMK SLP014 T02740083 52044 IEM_DS3505
ZHCC,2009-06-21 22:00,ZHCC 212200Z AUTO 02016G25KT 6SM 25/10 A2962 RMK T02500100 IEM_DS3505
ZHCC,2009-06-21 23:00,ZHCC 212300Z AUTO 02014KT 6SM 24/11 A2965 RMK T02400110 IEM_DS3505
ZHCC,2009-06-22 00:00,ZHCC 220000Z AUTO 36008KT 11SM 28/07 A2968 RMK SLP040 T02760069 52025 IEM_DS3505
ZHCC,2009-06-22 01:00,ZHCC 220100Z AUTO 02012KT 6SM 27/11 A2968 RMK T02700110 IEM_DS3505
ZHCC,2009-06-22 02:00,ZHCC 220200Z AUTO 05012KT 6SM 28/10 A2968 RMK T02800100 IEM_DS3505
ZHCC,2009-06-22 03:00,ZHCC 220300Z AUTO 34008KT 16SM 31/07 A2968 RMK SLP043 T03070066 52003 IEM_DS3505
ZHCC,2009-06-22 04:00,ZHCC 220400Z AUTO 06012KT 6SM 30/10 A2968 RMK T03000100 IEM_DS3505
ZHCC,2009-06-22 05:00,ZHCC 220500Z AUTO 01010KT 6SM 31/10 A2965 RMK T03100100 IEM_DS3505
ZHCC,2009-06-22 06:00,ZHCC 220600Z AUTO 02006KT 16SM 34/06 A2965 RMK SLP028 T03360060 57014 IEM_DS3505
ZHCC,2009-06-22 07:00,ZHCC 220700Z AUTO 02008KT 6SM 32/10 A2965 RMK T03200100 IEM_DS3505
ZHCC,2009-06-22 08:00,ZHCC 220800Z AUTO 04008KT 6SM 32/10 A2962 RMK T03200100 IEM_DS3505
ZHCC,2009-06-22 09:00,ZHCC 220900Z AUTO 14004KT 16SM 34/06 A2962 RMK SLP015 T03400055 57014 IEM_DS3505
ZHCC,2009-06-22 10:00,ZHCC 221000Z AUTO 10008KT 6SM 31/09 A2962 RMK T03100090 IEM_DS3505
ZHCC,2009-06-22 11:00,ZHCC 221100Z AUTO 12006KT 6SM 28/11 A2962 RMK T02800110 IEM_DS3505
ZHCC,2009-06-22 12:00,ZHCC 221200Z AUTO 14006KT 12SM 30/08 A2965 RMK SLP027 T03030075 52011 IEM_DS3505
ZHCC,2009-06-22 13:00,ZHCC 221300Z AUTO 6SM 24/13 A2965 RMK T02400130 IEM_DS3505
ZHCC,2009-06-22 14:00,ZHCC 221400Z AUTO 6SM 23/13 A2965 RMK T02300130 IEM_DS3505
ZHCC,2009-06-22 15:00,ZHCC 221500Z AUTO 18002KT 10SM 28/08 A2968 RMK SLP040 T02800083 52013 IEM_DS3505
ZHCC,2009-06-22 16:00,ZHCC 221600Z AUTO 20004KT 6SM 23/14 A2968 RMK T02300140 IEM_DS3505
ZHCC,2009-06-22 17:00,ZHCC 221700Z AUTO 20002KT 6SM 24/13 A2965 RMK T02400130 IEM_DS3505
ZHCC,2009-06-22 18:00,ZHCC 221800Z AUTO 18002KT 9SM 27/08 A2965 RMK SLP031 T02700075 57008 IEM_DS3505
ZHCC,2009-06-22 19:00,ZHCC 221900Z AUTO 00000KT 21/16 A2965 RMK T02100160 IEM_DS3505
ZHCC,2009-06-22 20:00,ZHCC 222000Z AUTO 21002KT 6SM 22/15 A2962 RMK T02200150 IEM_DS3505
ZHCC,2009-06-22 21:00,ZHCC 222100Z AUTO 25002KT 7SM 24/11 A2962 RMK SLP029 T02410111 57003 IEM_DS3505
ZHCC,2009-06-22 22:00,ZHCC 222200Z AUTO 23002KT 3SM 23/15 A2962 RMK T02300150 IEM_DS3505
ZHCC,2009-06-22 23:00,ZHCC 222300Z AUTO 25004KT 2 1/2SM 25/14 A2965 RMK T02500140 IEM_DS3505
ZHCC,2009-06-23 00:00,ZHCC 230000Z AUTO 22002KT 6SM 29/10 A2965 RMK SLP030 T02870104 52001 IEM_DS3505
ZHCC,2009-06-23 01:00,ZHCC 230100Z AUTO 3SM 28/17 A2965 RMK T02800170 IEM_DS3505
ZHCC,2009-06-23 02:00,ZHCC 230200Z AUTO 19004KT 3SM 29/17 A2965 RMK T02900170 IEM_DS3505
ZHCC,2009-06-23 03:00,ZHCC 230300Z AUTO 20004KT 7SM 33/10 A2962 RMK SLP020 T03280096 57009 IEM_DS3505
ZHCC,2009-06-23 04:00,ZHCC 230400Z AUTO 19006KT 3SM 31/ A2962 RMK IEM_DS3505
ZHCC,2009-06-23 05:00,ZHCC 230500Z AUTO 21006KT 3SM 33/17 A2959 RMK T03300170 IEM_DS3505
ZHCC,2009-06-23 06:00,ZHCC 230600Z AUTO 18008KT 9SM 38/ A2956 RMK SLP997 57022 IEM_DS3505
ZHCC,2009-06-23 07:00,ZHCC 230700Z AUTO 6SM 35/13 A2956 RMK T03500130 IEM_DS3505
ZHCC,2009-06-23 08:00,ZHCC 230800Z AUTO 20010KT 6SM 35/11 A2953 RMK T03500110 IEM_DS3505
ZHCC,2009-06-23 09:00,ZHCC 230900Z AUTO 18010KT 11SM 37/06 A2950 RMK SLP976 T03730063 57021 IEM_DS3505
ZHCC,2009-06-23 10:00,ZHCC 231000Z AUTO 20006KT 6SM 33/15 A2950 RMK T03300150 IEM_DS3505
ZHCC,2009-06-23 11:00,ZHCC 231100Z AUTO 6SM 32/17 A2950 RMK T03200170 IEM_DS3505
ZHCC,2009-06-23 12:00,ZHCC 231200Z AUTO 16006KT 10SM 33/13 A2953 RMK SLP985 T03260128 52009 IEM_DS3505
ZHCC,2009-06-23 13:00,ZHCC 231300Z AUTO 20006KT 6SM 29/18 A2953 RMK T02900180 IEM_DS3505
ZHCC,2009-06-23 14:00,ZHCC 231400Z AUTO 21006KT 6SM 28/18 A2953 RMK T02800180 IEM_DS3505
ZHCC,2009-06-23 15:00,ZHCC 231500Z AUTO 00000KT 7SM 28/14 A2953 RMK SLP991 T02770143 52005 IEM_DS3505
ZHCC,2009-06-23 16:00,ZHCC 231600Z AUTO 20004KT 6SM 26/18 A2953 RMK T02600180 IEM_DS3505
ZHCC,2009-06-23 17:00,ZHCC 231700Z AUTO 00000KT 23/18 A2953 RMK T02300180 IEM_DS3505
ZHCC,2009-06-23 18:00,ZHCC 231800Z AUTO 00000KT 6SM 26/15 A2953 RMK SLP993 T02610152 52003 IEM_DS3505
ZHCC,2009-06-23 19:00,ZHCC 231900Z AUTO 00000KT A2953 RMK IEM_DS3505
ZHCC,2009-06-23 20:00,ZHCC 232000Z AUTO 00000KT 21/18 A2953 RMK T02100180 IEM_DS3505
ZHCC,2009-06-23 21:00,ZHCC 232100Z AUTO 09004KT 7SM 26/15 A2956 RMK SLP998 T02560153 52005 IEM_DS3505
ZHCC,2009-06-23 22:00,ZHCC 232200Z AUTO 00000KT 4SM 20/18 A2956 RMK T02000180 IEM_DS3505
ZHCC,2009-06-23 23:00,ZHCC 232300Z AUTO 00000KT 3SM 24/21 A2959 RMK T02400210 IEM_DS3505
ZHCC,2009-06-24 00:00,ZHCC 240000Z AUTO 09004KT 7SM 29/17 A2959 RMK SLP016 T02940166 52017 IEM_DS3505
ZHCC,2009-06-24 01:00,ZHCC 240100Z AUTO 06006KT 5SM 31/18 A2959 RMK T03100180 IEM_DS3505
ZHCC,2009-06-24 02:00,ZHCC 240200Z AUTO 35004KT 6SM 33/17 A2959 RMK T03300170 IEM_DS3505
ZHCC,2009-06-24 03:00,ZHCC 240300Z AUTO 02004KT 7SM 36/14 A2959 RMK SLP008 T03620137 57007 IEM_DS3505
ZHCC,2009-06-24 04:00,ZHCC 240400Z AUTO 6SM 37/17 A2959 RMK T03700170 IEM_DS3505
ZHCC,2009-06-24 05:00,ZHCC 240500Z AUTO 11004KT 6SM 37/17 A2956 RMK T03700170 IEM_DS3505
ZHCC,2009-06-24 06:00,ZHCC 240600Z AUTO 25006KT 10SM 41/ A2953 RMK SLP988 57019 IEM_DS3505
ZHCC,2009-06-24 07:00,ZHCC 240700Z AUTO 12004KT 6SM 38/16 A2953 RMK T03800160 IEM_DS3505
ZHCC,2009-06-24 08:00,ZHCC 240800Z AUTO 20004KT 6SM 38/14 A2950 RMK T03800140 IEM_DS3505
ZHCC,2009-06-24 09:00,ZHCC 240900Z AUTO 09004KT 11SM 41/ A2950 RMK SLP971 57017 IEM_DS3505
ZHCC,2009-06-24 10:00,ZHCC 241000Z AUTO 14004KT 6SM 37/17 A2950 RMK T03700170 IEM_DS3505
ZHCC,2009-06-24 11:00,ZHCC 241100Z AUTO 11006KT 6SM 33/16 A2950 RMK T03300160 IEM_DS3505
ZHCC,2009-06-24 12:00,ZHCC 241200Z AUTO 14006KT 9SM 36/11 A2950 RMK SLP979 T03560106 52007 IEM_DS3505
ZHCC,2009-06-24 13:00,ZHCC 241300Z AUTO 15004KT 6SM 31/17 A2953 RMK T03100170 IEM_DS3505
ZHCC,2009-06-24 14:00,ZHCC 241400Z AUTO 17004KT 6SM 29/18 A2953 RMK T02900180 IEM_DS3505
ZHCC,2009-06-24 15:00,ZHCC 241500Z AUTO 18004KT 9SM 31/15 A2953 RMK SLP987 T03090153 52009 IEM_DS3505
ZHCC,2009-06-24 16:00,ZHCC 241600Z AUTO 6SM 27/19 A2953 RMK T02700190 IEM_DS3505
ZHCC,2009-06-24 17:00,ZHCC 241700Z AUTO 19004KT 26/20 A2953 RMK T02600200 IEM_DS3505
ZHCC,2009-06-24 18:00,ZHCC 241800Z AUTO 16002KT 7SM 26/16 A2953 RMK SLP991 T02560165 52004 IEM_DS3505
ZHCC,2009-06-24 19:00,ZHCC 241900Z AUTO 2SM 25/21 A2953 RMK T02500210 IEM_DS3505
ZHCC,2009-06-24 20:00,ZHCC 242000Z AUTO 22002KT 1 1/2SM 25/22 A2953 RMK T02500220 IEM_DS3505
ZHCC,2009-06-24 21:00,ZHCC 242100Z AUTO 20002KT 7SM 24/16 A2953 RMK SLP997 T02390157 52005 IEM_DS3505
ZHCC,2009-06-24 22:00,ZHCC 242200Z AUTO 19004KT 1SM 24/22 A2956 RMK T02400220 IEM_DS3505
ZHCC,2009-06-24 23:00,ZHCC 242300Z AUTO 20002KT 1SM 26/24 A2956 RMK T02600240 IEM_DS3505
ZHCC,2009-06-25 00:00,ZHCC 250000Z AUTO 16002KT 6SM 32/17 A2956 RMK SLP002 T03210168 52006 IEM_DS3505
ZHCC,2009-06-25 01:00,ZHCC 250100Z AUTO 18006KT 1 1/2SM 30/ A2959 RMK IEM_DS3505
ZHCC,2009-06-25 02:00,ZHCC 250200Z AUTO 20006KT 2SM 32/25 A2959 RMK T03200250 IEM_DS3505
ZHCC,2009-06-25 03:00,ZHCC 250300Z AUTO 16008KT 8SM 38/17 A2956 RMK SLP995 T03770166 57007 IEM_DS3505
ZHCC,2009-06-25 04:00,ZHCC 250400Z AUTO 20008KT 4SM 35/23 A2956 RMK T03500230 IEM_DS3505
ZHCC,2009-06-25 05:00,ZHCC 250500Z AUTO 17008KT 6SM 37/19 A2953 RMK T03700190 IEM_DS3505
ZHCC,2009-06-25 06:00,ZHCC 250600Z AUTO 18010KT 9SM 41/ A2953 RMK SLP984 57011 IEM_DS3505
ZHCC,2009-06-25 07:00,ZHCC 250700Z AUTO 17008KT 6SM 38/19 A2953 RMK T03800190 IEM_DS3505
ZHCC,2009-06-25 08:00,ZHCC 250800Z AUTO 19006KT 6SM 38/15 A2953 RMK T03800150 IEM_DS3505
ZHCC,2009-06-25 09:00,ZHCC 250900Z AUTO 18010KT 9SM 40/08 A2950 RMK SLP977 T03960082 57008 IEM_DS3505
ZHCC,2009-06-25 10:00,ZHCC 251000Z AUTO 19004KT 6SM 36/14 A2950 RMK T03600140 IEM_DS3505
ZHCC,2009-06-25 11:00,ZHCC 251100Z AUTO 6SM 34/17 A2953 RMK T03400170 IEM_DS3505
ZHCC,2009-06-25 12:00,ZHCC 251200Z AUTO 16004KT 9SM 35/11 A2953 RMK SLP990 T03480106 52014 IEM_DS3505
ZHCC,2009-06-25 13:00,ZHCC 251300Z AUTO 16004KT 6SM 31/14 A2956 RMK T03100140 IEM_DS3505
ZHCC,2009-06-25 14:00,ZHCC 251400Z AUTO 16004KT 6SM 29/17 A2959 RMK T02900170 IEM_DS3505
ZHCC,2009-06-25 15:00,ZHCC 251500Z AUTO 6SM 29/18 A2959 RMK T02900180 IEM_DS3505
ZHCC,2009-06-25 16:00,ZHCC 251600Z AUTO 17004KT 6SM 28/19 A2959 RMK T02800190 IEM_DS3505
ZHCC,2009-06-25 17:00,ZHCC 251700Z AUTO 16004KT 27/21 A2959 RMK T02700210 IEM_DS3505
ZHCC,2009-06-25 18:00,ZHCC 251800Z AUTO 16008KT 7SM 31/20 A2959 RMK SLP002 T03080201 57004 IEM_DS3505
ZHCC,2009-06-25 19:00,ZHCC 251900Z AUTO 1 1/2SM 26/21 A2959 RMK T02600210 IEM_DS3505
ZHCC,2009-06-25 20:00,ZHCC 252000Z AUTO 18002KT 1 1/2SM 26/22 A2959 RMK T02600220 IEM_DS3505
ZHCC,2009-06-25 21:00,ZHCC 252100Z AUTO 18004KT 6SM 29/22 A2959 RMK SLP003 T02900220 52001 IEM_DS3505
ZHCC,2009-06-25 22:00,ZHCC 252200Z AUTO 1 1/4SM 25/22 A2959 RMK T02500220 IEM_DS3505
ZHCC,2009-06-25 23:00,ZHCC 252300Z AUTO 16004KT 1 1/4SM 26/23 A2959 RMK T02600230 IEM_DS3505
ZHCC,2009-06-26 00:00,ZHCC 260000Z AUTO 16006KT 6SM 30/23 A2962 RMK SLP016 T03040226 52012 IEM_DS3505
ZHCC,2009-06-26 01:00,ZHCC 260100Z AUTO 17004KT 1 1/4SM 29/25 A2962 RMK T02900250 IEM_DS3505
ZHCC,2009-06-26 03:00,ZHCC 260300Z AUTO 18010KT 7SM 35/18 A2959 RMK SLP009 T03490185 57007 IEM_DS3505
ZHCC,2009-06-26 04:00,ZHCC 260400Z AUTO 16006KT 3SM 34/22 A2959 RMK T03400220 IEM_DS3505
ZHCC,2009-06-26 05:00,ZHCC 260500Z AUTO 14008KT 3SM 34/22 A2956 RMK T03400220 IEM_DS3505
ZHCC,2009-06-26 06:00,ZHCC 260600Z AUTO 11006KT 10SM 38/15 A2956 RMK SLP991 T03780150 57017 IEM_DS3505
ZHCC,2009-06-26 07:00,ZHCC 260700Z AUTO 17006KT 7SM 35/20 A2953 RMK T03500200 IEM_DS3505
ZHCC,2009-06-26 08:00,ZHCC 260800Z AUTO 16006KT 6SM 35/20 A2950 RMK T03500200 IEM_DS3505
ZHCC,2009-06-26 09:00,ZHCC 260900Z AUTO 14008KT 11SM 37/16 A2950 RMK SLP974 T03730157 57017 IEM_DS3505
ZHCC,2009-06-26 10:00,ZHCC 261000Z AUTO 14006KT 6SM 34/21 A2950 RMK T03400210 IEM_DS3505
ZHCC,2009-06-26 11:00,ZHCC 261100Z AUTO 13006KT 6SM 33/21 A2950 RMK T03300210 IEM_DS3505
ZHCC,2009-06-26 12:00,ZHCC 261200Z AUTO 11006KT 11SM 34/19 A2953 RMK SLP987 T03370190 52012 IEM_DS3505
ZHCC,2009-06-26 13:00,ZHCC 261300Z AUTO 15004KT 6SM 30/22 A2953 RMK T03000220 IEM_DS3505
ZHCC,2009-06-26 14:00,ZHCC 261400Z AUTO 6SM 29/22 A2956 RMK T02900220 IEM_DS3505
ZHCC,2009-06-26 15:00,ZHCC 261500Z AUTO 11004KT 9SM 31/20 A2956 RMK SLP998 T03100203 52011 IEM_DS3505
ZHCC,2009-06-26 16:00,ZHCC 261600Z AUTO 20004KT 6SM 28/22 A2953 RMK T02800220 IEM_DS3505
ZHCC,2009-06-26 17:00,ZHCC 261700Z AUTO 20004KT 6SM 28/22 A2953 RMK T02800220 IEM_DS3505
ZHCC,2009-06-26 18:00,ZHCC 261800Z AUTO 18004KT 7SM 30/21 A2953 RMK SLP988 T02990213 57009 IEM_DS3505
ZHCC,2009-06-26 19:00,ZHCC 261900Z AUTO 3SM 27/22 A2953 RMK T02700220 IEM_DS3505
ZHCC,2009-06-26 20:00,ZHCC 262000Z AUTO 18004KT 3SM 26/22 A2953 RMK T02600220 IEM_DS3505
ZHCC,2009-06-26 21:00,ZHCC 262100Z AUTO 18004KT 6SM 29/23 A2953 RMK SLP989 T02860228 54000 IEM_DS3505
ZHCC,2009-06-26 22:00,ZHCC 262200Z AUTO 3SM 26/23 A2953 RMK T02600230 IEM_DS3505
ZHCC,2009-06-26 23:00,ZHCC 262300Z AUTO 2SM 26/24 A2956 RMK T02600240 IEM_DS3505
ZHCC,2009-06-27 00:00,ZHCC 270000Z AUTO 16004KT 6SM 29/23 A2956 RMK SLP002 T02920232 52013 IEM_DS3505
ZHCC,2009-06-27 01:00,ZHCC 270100Z AUTO 17006KT 2SM 28/25 A2956 RMK T02800250 IEM_DS3505
ZHCC,2009-06-27 02:00,ZHCC 270200Z AUTO 20006KT 2SM 30/26 A2956 RMK T03000260 IEM_DS3505
ZHCC,2009-06-27 03:00,ZHCC 270300Z AUTO 14002KT 6SM 34/23 A2956 RMK SLP994 T03390227 57008 IEM_DS3505
ZHCC,2009-06-27 04:00,ZHCC 270400Z AUTO 2 1/2SM 34/26 A2953 RMK T03400260 IEM_DS3505
ZHCC,2009-06-27 05:00,ZHCC 270500Z AUTO 18006KT 2 1/2SM 34/25 A2953 RMK T03400250 IEM_DS3505
ZHCC,2009-06-27 06:00,ZHCC 270600Z AUTO 16006KT 6SM 37/21 A2950 RMK SLP976 T03720213 57017 IEM_DS3505
ZHCC,2009-06-27 07:00,ZHCC 270700Z AUTO 17004KT 3SM 34/26 A2950 RMK T03400260 IEM_DS3505
ZHCC,2009-06-27 08:00,ZHCC 270800Z AUTO 18006KT 3SM 35/26 A2947 RMK T03500260 IEM_DS3505
ZHCC,2009-06-27 09:00,ZHCC 270900Z AUTO 14004KT 6SM 37/20 A2947 RMK SLP967 T03680202 57009 IEM_DS3505
ZHCC,2009-06-27 10:00,ZHCC 271000Z AUTO 14002KT 3SM 34/26 A2947 RMK T03400260 IEM_DS3505
ZHCC,2009-06-27 11:00,ZHCC 271100Z AUTO 13002KT 3SM 33/26 A2947 RMK T03300260 IEM_DS3505
ZHCC,2009-06-27 12:00,ZHCC 271200Z AUTO 34014KT 2SM 24/22 A2950 RMK 60091 SLP996 T02450218 52026 IEM_DS3505
ZHCC,2009-06-27 13:00,ZHCC 271300Z AUTO 14010KT 2SM A2959 RMK IEM_DS3505
ZHCC,2009-06-27 14:00,ZHCC 271400Z AUTO 12008KT 5SM A2956 RMK IEM_DS3505
ZHCC,2009-06-27 15:00,ZHCC 271500Z AUTO 09002KT 6SM 25/21 A2956 RMK SLP007 T02490214 52012 IEM_DS3505
ZHCC,2009-06-27 18:00,ZHCC 271800Z AUTO 27004KT 6SM 26/22 RMK 60071 SLP000 T02550216 57006 IEM_DS3505
ZHCC,2009-06-27 20:00,ZHCC 272000Z AUTO 20002KT 2 1/2SM 24/23 A2956 RMK T02400230 IEM_DS3505
ZHCC,2009-06-27 21:00,ZHCC 272100Z AUTO 00000KT 6SM 25/21 A2956 RMK 70163 SLP998 T02540209 57002 IEM_DS3505
ZHCC,2009-06-27 23:00,ZHCC 272300Z AUTO 24002KT 3SM 25/24 A2953 RMK T02500240 IEM_DS3505
ZHCC,2009-06-28 00:00,ZHCC 280000Z AUTO 36002KT 5SM 30/21 A2953 RMK 70163 SLP997 T02950212 57003 IEM_DS3505
ZHCC,2009-06-28 01:00,ZHCC 280100Z AUTO 35004KT 3SM 29/24 A2953 RMK T02900240 IEM_DS3505
ZHCC,2009-06-28 02:00,ZHCC 280200Z AUTO 34006KT 3SM 31/24 A2956 RMK T03100240 IEM_DS3505
ZHCC,2009-06-28 03:00,ZHCC 280300Z AUTO 36004KT 3SM 31/23 A2956 RMK T03100230 IEM_DS3505
ZHCC,2009-06-28 05:00,ZHCC 280500Z AUTO 3SM 31/22 A2956 RMK T03100220 IEM_DS3505
ZHCC,2009-06-28 06:00,ZHCC 280600Z AUTO 36002KT 9SM 33/ A2959 RMK SLP008 52007 IEM_DS3505
ZHCC,2009-06-28 07:00,ZHCC 280700Z AUTO 34004KT 3SM 31/23 A2959 RMK T03100230 IEM_DS3505
ZHCC,2009-06-28 08:00,ZHCC 280800Z AUTO 27004KT 2 1/2SM 29/24 A2956 RMK T02900240 IEM_DS3505
ZHCC,2009-06-28 09:00,ZHCC 280900Z AUTO 27006KT 6SM 31/18 A2956 RMK SLP999 T03070184 57010 IEM_DS3505
ZHCC,2009-06-28 10:00,ZHCC 281000Z AUTO 27004KT 2SM 28/23 A2953 RMK T02800230 IEM_DS3505
ZHCC,2009-06-28 11:00,ZHCC 281100Z AUTO 27004KT 2SM 27/21 A2956 RMK T02700210 IEM_DS3505
ZHCC,2009-06-28 12:00,ZHCC 281200Z AUTO 29006KT 7SM 28/16 A2956 RMK 60000 SLP004 T02770160 52005 IEM_DS3505
ZHCC,2009-06-28 13:00,ZHCC 281300Z AUTO 27008KT 4SM 25/19 A2956 RMK T02500190 IEM_DS3505
ZHCC,2009-06-28 14:00,ZHCC 281400Z AUTO 28008KT 4SM 24/18 A2959 RMK T02400180 IEM_DS3505
ZHCC,2009-06-28 15:00,ZHCC 281500Z AUTO 27004KT 7SM 26/15 A2959 RMK SLP013 T02580149 52010 IEM_DS3505
ZHCC,2009-06-28 16:00,ZHCC 281600Z AUTO 28004KT 4SM 23/18 A2959 RMK T02300180 IEM_DS3505
ZHCC,2009-06-28 17:00,ZHCC 281700Z AUTO 27006KT 4SM 23/17 A2959 RMK T02300170 IEM_DS3505
ZHCC,2009-06-28 18:00,ZHCC 281800Z AUTO 27006KT 7SM 26/14 A2956 RMK SLP005 T02560135 57008 IEM_DS3505
ZHCC,2009-06-28 19:00,ZHCC 281900Z AUTO 28006KT A2956 RMK IEM_DS3505
ZHCC,2009-06-28 20:00,ZHCC 282000Z AUTO 30006KT 21/16 A2956 RMK T02100160 IEM_DS3505
ZHCC,2009-06-28 21:00,ZHCC 282100Z AUTO 27008KT 12SM 26/12 A2956 RMK 70000 SLP002 T02570125 57004 IEM_DS3505
ZHCC,2009-06-28 22:00,ZHCC 282200Z AUTO 27004KT 3SM 21/16 A2956 RMK T02100160 IEM_DS3505
ZHCC,2009-06-28 23:00,ZHCC 282300Z AUTO 27004KT 3SM 23/17 A2956 RMK T02300170 IEM_DS3505
ZHCC,2009-06-29 00:00,ZHCC 290000Z AUTO 27010KT 12SM 28/13 A2956 RMK 70000 SLP006 T02810132 52004 IEM_DS3505
ZHCC,2009-06-29 01:00,ZHCC 290100Z AUTO 31006KT 4SM 29/17 A2956 RMK T02900170 IEM_DS3505
ZHCC,2009-06-29 02:00,ZHCC 290200Z AUTO 28004KT 6SM 31/18 A2956 RMK T03100180 IEM_DS3505
ZHCC,2009-06-29 03:00,ZHCC 290300Z AUTO 29008KT 12SM 33/12 A2956 RMK SLP004 T03300121 57001 IEM_DS3505
ZHCC,2009-06-29 04:00,ZHCC 290400Z AUTO 15004KT 6SM 32/20 A2956 RMK T03200200 IEM_DS3505
ZHCC,2009-06-29 05:00,ZHCC 290500Z AUTO 15004KT 6SM 32/20 A2956 RMK T03200200 IEM_DS3505
ZHCC,2009-06-29 06:00,ZHCC 290600Z AUTO 07004KT 14SM 35/ RMK SLP994 57010 IEM_DS3505
ZHCC,2009-06-29 07:00,ZHCC 290700Z AUTO 18004KT 4SM 31/21 A2956 RMK T03100210 IEM_DS3505
ZHCC,2009-06-29 08:00,ZHCC 290800Z AUTO 19004KT 4SM 30/22 A2953 RMK T03000220 IEM_DS3505
ZHCC,2009-06-29 09:00,ZHCC 290900Z AUTO 18008KT 9SM 33/16 A2953 RMK SLP987 T03260164 57007 IEM_DS3505
ZHCC,2009-06-29 10:00,ZHCC 291000Z AUTO 4SM 29/23 A2953 RMK T02900230 IEM_DS3505
ZHCC,2009-06-29 11:00,ZHCC 291100Z AUTO 17004KT 4SM 28/23 A2953 RMK T02800230 IEM_DS3505
ZHCC,2009-06-29 12:00,ZHCC 291200Z AUTO 16004KT 7SM 30/18 A2956 RMK SLP996 T03030184 52009 IEM_DS3505
ZHCC,2009-06-29 13:00,ZHCC 291300Z AUTO 18004KT 4SM 27/22 A2956 RMK T02700220 IEM_DS3505
ZHCC,2009-06-29 14:00,ZHCC 291400Z AUTO 18004KT 4SM 26/21 A2956 RMK T02600210 IEM_DS3505
ZHCC,2009-06-29 15:00,ZHCC 291500Z AUTO 16004KT 7SM 28/19 A2956 RMK SLP002 T02790194 52006 IEM_DS3505
ZHCC,2009-06-29 16:00,ZHCC 291600Z AUTO 3SM 25/21 A2956 RMK T02500210 IEM_DS3505
ZHCC,2009-06-29 17:00,ZHCC 291700Z AUTO 19004KT 2 1/2SM 25/21 A2956 RMK T02500210 IEM_DS3505
ZHCC,2009-06-29 18:00,ZHCC 291800Z AUTO 16002KT 7SM 26/19 A2956 RMK SLP996 T02650194 57006 IEM_DS3505
ZHCC,2009-06-29 19:00,ZHCC 291900Z AUTO 20004KT 2SM 24/21 A2953 RMK T02400210 IEM_DS3505
ZHCC,2009-06-29 20:00,ZHCC 292000Z AUTO 18004KT 2SM 24/21 A2953 RMK T02400210 IEM_DS3505
ZHCC,2009-06-29 21:00,ZHCC 292100Z AUTO 11002KT 7SM 24/20 A2953 RMK SLP995 T02440195 57001 IEM_DS3505
ZHCC,2009-06-29 22:00,ZHCC 292200Z AUTO 2SM 23/21 A2956 RMK T02300210 IEM_DS3505
ZHCC,2009-06-29 23:00,ZHCC 292300Z AUTO 18004KT 2SM 24/22 A2956 RMK T02400220 IEM_DS3505
ZHCC,2009-06-30 00:00,ZHCC 300000Z AUTO 29002KT 6SM 29/17 A2956 RMK SLP009 T02940169 52014 IEM_DS3505
ZHCC,2009-06-30 01:00,ZHCC 300100Z AUTO 2SM 27/24 A2959 RMK T02700240 IEM_DS3505
ZHCC,2009-06-30 02:00,ZHCC 300200Z AUTO 01004KT 2SM 30/23 A2959 RMK T03000230 IEM_DS3505
ZHCC,2009-06-30 03:00,ZHCC 300300Z AUTO 07008KT 8SM 35/ A2956 RMK SLP006 57002 IEM_DS3505
ZHCC,2009-06-30 04:00,ZHCC 300400Z AUTO 03012KT 4SM 34/15 A2956 RMK T03400150 IEM_DS3505
ZHCC,2009-06-30 05:00,ZHCC 300500Z AUTO 03008KT 6SM 34/16 A2956 RMK T03400160 IEM_DS3505
ZHCC,2009-06-30 06:00,ZHCC 300600Z AUTO 09006KT 9SM 36/07 A2956 RMK SLP998 T03640074 57008 IEM_DS3505
ZHCC,2009-06-30 07:00,ZHCC 300700Z AUTO 07004KT 6SM 35/15 A2956 RMK T03500150 IEM_DS3505
ZHCC,2009-06-30 08:00,ZHCC 300800Z AUTO 12004KT 6SM 36/16 A2956 RMK T03600160 IEM_DS3505
ZHCC,2009-06-30 09:00,ZHCC 300900Z AUTO 14006KT 9SM 36/09 A2953 RMK SLP993 T03620089 57006 IEM_DS3505
ZHCC,2009-06-30 10:00,ZHCC 301000Z AUTO 14002KT 6SM 32/ A2953 RMK IEM_DS3505
ZHCC,2009-06-30 11:00,ZHCC 301100Z AUTO 13004KT 6SM 31/23 A2956 RMK T03100230 IEM_DS3505
ZHCC,2009-06-30 12:00,ZHCC 301200Z AUTO 11006KT 8SM 33/18 A2959 RMK SLP005 T03260176 52012 IEM_DS3505
ZHCC,2009-06-30 13:00,ZHCC 301300Z AUTO 18004KT 6SM 29/21 A2959 RMK T02900210 IEM_DS3505
ZHCC,2009-06-30 14:00,ZHCC 301400Z AUTO 19006KT 6SM 28/20 A2962 RMK T02800200 IEM_DS3505
ZHCC,2009-06-30 15:00,ZHCC 301500Z AUTO 16004KT 7SM 29/18 A2962 RMK SLP019 T02910185 52015 IEM_DS3505
ZHCC,2009-06-30 16:00,ZHCC 301600Z AUTO 6SM 25/20 A2962 RMK T02500200 IEM_DS3505
ZHCC,2009-06-30 17:00,ZHCC 301700Z AUTO 6SM 24/20 A2965 RMK T02400200 IEM_DS3505
ZHCC,2009-06-30 18:00,ZHCC 301800Z AUTO 11004KT 7SM 26/19 A2965 RMK SLP026 T02650191 52006 IEM_DS3505
ZHCC,2009-06-30 19:00,ZHCC 301900Z AUTO 14004KT 23/20 A2965 RMK T02300200 IEM_DS3505
ZHCC,2009-06-30 20:00,ZHCC 302000Z AUTO 15002KT 6SM 22/20 A2965 RMK T02200200 IEM_DS3505
ZHCC,2009-06-30 21:00,ZHCC 302100Z AUTO 11002KT 7SM 24/20 A2965 RMK SLP032 T02410200 52006 IEM_DS3505
ZHCC,2009-06-30 22:00,ZHCC 302200Z AUTO 20004KT 4SM 22/20 A2965 RMK T02200200 IEM_DS3505
ZHCC,2009-06-30 23:00,ZHCC 302300Z AUTO 4SM 23/21 A2968 RMK T02300210 IEM_DS3505
ZHCC,2009-07-01 00:00,ZHCC 010000Z AUTO 14002KT 7SM 27/20 A2968 RMK SLP046 T02710197 52013 IEM_DS3505
ZHCC,2009-07-01 01:00,ZHCC 010100Z AUTO 11004KT 4SM 27/22 A2968 RMK T02700220 IEM_DS3505
ZHCC,2009-07-01 02:00,ZHCC 010200Z AUTO 09004KT 4SM 28/22 A2968 RMK T02800220 IEM_DS3505
ZHCC,2009-07-01 03:00,ZHCC 010300Z AUTO 07008KT 9SM 31/18 A2968 RMK SLP041 T03130183 57004 IEM_DS3505
ZHCC,2009-07-01 04:00,ZHCC 010400Z AUTO 10006KT 6SM 31/21 A2968 RMK T03100210 IEM_DS3505
ZHCC,2009-07-01 05:00,ZHCC 010500Z AUTO 09006KT 6SM 32/22 A2965 RMK T03200220 IEM_DS3505
ZHCC,2009-07-01 06:00,ZHCC 010600Z AUTO 14006KT 11SM 34/19 A2965 RMK SLP026 T03370186 57015 IEM_DS3505
ZHCC,2009-07-01 07:00,ZHCC 010700Z AUTO 09008KT 6SM 33/22 A2962 RMK T03300220 IEM_DS3505
ZHCC,2009-07-01 08:00,ZHCC 010800Z AUTO 11006KT 6SM 33/22 A2962 RMK T03300220 IEM_DS3505
ZHCC,2009-07-01 09:00,ZHCC 010900Z AUTO 09006KT 16SM 34/18 A2962 RMK SLP017 T03380175 57010 IEM_DS3505
ZHCC,2009-07-01 10:00,ZHCC 011000Z AUTO 16004KT 6SM 31/23 A2962 RMK T03100230 IEM_DS3505
ZHCC,2009-07-01 11:00,ZHCC 011100Z AUTO 18002KT 6SM 30/24 A2962 RMK T03000240 IEM_DS3505
ZHCC,2009-07-01 12:00,ZHCC 011200Z AUTO 14004KT 12SM 31/20 A2965 RMK SLP027 T03110204 52010 IEM_DS3505
ZHCC,2009-07-01 13:00,ZHCC 011300Z AUTO 14002KT 3SM 27/24 A2968 RMK T02700240 IEM_DS3505
ZHCC,2009-07-01 14:00,ZHCC 011400Z AUTO 14004KT 3SM 27/23 A2968 RMK T02700230 IEM_DS3505
ZHCC,2009-07-01 15:00,ZHCC 011500Z AUTO 09002KT 9SM 30/22 A2968 RMK SLP043 T02950215 52017 IEM_DS3505
ZHCC,2009-07-01 16:00,ZHCC 011600Z AUTO 3SM 26/23 A2968 RMK T02600230 IEM_DS3505
ZHCC,2009-07-01 17:00,ZHCC 011700Z AUTO 3SM 26/23 A2968 RMK T02600230 IEM_DS3505
ZHCC,2009-07-01 18:00,ZHCC 011800Z AUTO 11004KT 6SM 28/22 A2968 RMK SLP039 T02750218 57004 IEM_DS3505
ZHCC,2009-07-01 19:00,ZHCC 011900Z AUTO 15002KT 2SM 25/22 A2968 RMK T02500220 IEM_DS3505
ZHCC,2009-07-01 20:00,ZHCC 012000Z AUTO 00000KT 2SM 24/23 A2968 RMK T02400230 IEM_DS3505
ZHCC,2009-07-01 21:00,ZHCC 012100Z AUTO 09002KT 6SM 26/22 A2968 RMK SLP042 T02550222 52002 IEM_DS3505
ZHCC,2009-07-01 22:00,ZHCC 012200Z AUTO 00000KT 1 1/4SM 24/23 A2968 RMK T02400230 IEM_DS3505
ZHCC,2009-07-01 23:00,ZHCC 012300Z AUTO 10002KT 1 1/4SM 25/23 A2968 RMK T02500230 IEM_DS3505
ZHCC,2009-07-02 00:00,ZHCC 020000Z AUTO 07002KT 4SM 29/23 A2968 RMK SLP046 T02910231 52005 IEM_DS3505
ZHCC,2009-07-02 01:00,ZHCC 020100Z AUTO 09004KT 4SM 29/24 A2971 RMK T02900240 IEM_DS3505
ZHCC,2009-07-02 02:00,ZHCC 020200Z AUTO 09008KT 5SM 30/24 A2971 RMK T03000240 IEM_DS3505
ZHCC,2009-07-02 03:00,ZHCC 020300Z AUTO 11006KT 9SM 32/19 A2971 RMK SLP046 T03240193 54000 IEM_DS3505
ZHCC,2009-07-02 04:00,ZHCC 020400Z AUTO 10010KT 5SM 31/21 A2968 RMK T03100210 IEM_DS3505
ZHCC,2009-07-02 05:00,ZHCC 020500Z AUTO 12006KT 6SM 33/20 A2968 RMK T03300200 IEM_DS3505
ZHCC,2009-07-02 06:00,ZHCC 020600Z AUTO 16006KT 9SM 34/16 A2965 RMK SLP033 T03440158 57013 IEM_DS3505
ZHCC,2009-07-02 07:00,ZHCC 020700Z AUTO 16006KT 6SM 33/18 A2965 RMK T03300180 IEM_DS3505
ZHCC,2009-07-02 08:00,ZHCC 020800Z AUTO 16006KT 6SM 33/19 A2965 RMK T03300190 IEM_DS3505
ZHCC,2009-07-02 09:00,ZHCC 020900Z AUTO 14010KT 9SM 34/14 A2962 RMK SLP021 T03430142 57012 IEM_DS3505
ZHCC,2009-07-02 10:00,ZHCC 021000Z AUTO 15004KT 6SM 31/20 A2962 RMK T03100200 IEM_DS3505
ZHCC,2009-07-02 11:00,ZHCC 021100Z AUTO 6SM 30/21 A2962 RMK T03000210 IEM_DS3505
ZHCC,2009-07-02 12:00,ZHCC 021200Z AUTO 11004KT 9SM 32/16 A2965 RMK SLP028 T03190158 52007 IEM_DS3505
ZHCC,2009-07-02 13:00,ZHCC 021300Z AUTO 6SM 28/21 A2965 RMK T02800210 IEM_DS3505
ZHCC,2009-07-02 14:00,ZHCC 021400Z AUTO 19004KT 6SM 27/21 A2968 RMK T02700210 IEM_DS3505
ZHCC,2009-07-02 15:00,ZHCC 021500Z AUTO 16004KT 7SM 29/18 A2968 RMK SLP040 T02910179 52012 IEM_DS3505
ZHCC,2009-07-02 16:00,ZHCC 021600Z AUTO 20002KT 6SM 26/20 A2968 RMK T02600200 IEM_DS3505
ZHCC,2009-07-02 17:00,ZHCC 021700Z AUTO 19002KT 6SM 24/20 A2968 RMK T02400200 IEM_DS3505
ZHCC,2009-07-02 18:00,ZHCC 021800Z AUTO 16004KT 6SM 27/19 A2968 RMK SLP038 T02690187 57002 IEM_DS3505
ZHCC,2009-07-02 19:00,ZHCC 021900Z AUTO 19004KT 4SM 24/20 A2965 RMK T02400200 IEM_DS3505
ZHCC,2009-07-02 20:00,ZHCC 022000Z AUTO 2SM 23/20 A2965 RMK T02300200 IEM_DS3505
ZHCC,2009-07-02 21:00,ZHCC 022100Z AUTO 18002KT 6SM 25/20 A2965 RMK SLP035 T02460199 57004 IEM_DS3505
ZHCC,2009-07-02 22:00,ZHCC 022200Z AUTO 00000KT 2SM 22/20 A2968 RMK T02200200 IEM_DS3505
ZHCC,2009-07-02 23:00,ZHCC 022300Z AUTO 00000KT 1 1/4SM 25/23 A2968 RMK T02500230 IEM_DS3505
ZHCC,2009-07-03 00:00,ZHCC 030000Z AUTO 14004KT 6SM 30/22 A2968 RMK SLP040 T03040215 52006 IEM_DS3505
ZHCC,2009-07-03 01:00,ZHCC 030100Z AUTO 17004KT 2SM 29/24 A2968 RMK T02900240 IEM_DS3505
ZHCC,2009-07-03 02:00,ZHCC 030200Z AUTO 16004KT 3SM 30/23 A2968 RMK T03000230 IEM_DS3505
ZHCC,2009-07-03 03:00,ZHCC 030300Z AUTO 14006KT 9SM 34/18 A2968 RMK SLP038 T03430175 57002 IEM_DS3505
ZHCC,2009-07-03 04:00,ZHCC 030400Z AUTO 20008KT 5SM 33/20 A2968 RMK T03300200 IEM_DS3505
ZHCC,2009-07-03 05:00,ZHCC 030500Z AUTO 19006KT 6SM 34/18 A2965 RMK T03400180 IEM_DS3505
ZHCC,2009-07-03 06:00,ZHCC 030600Z AUTO 11008KT 12SM 36/12 A2962 RMK SLP020 T03620118 57018 IEM_DS3505
ZHCC,2009-07-03 07:00,ZHCC 030700Z AUTO 18006KT 7SM 34/16 A2962 RMK T03400160 IEM_DS3505
ZHCC,2009-07-03 08:00,ZHCC 030800Z AUTO 14006KT 7SM 34/16 A2962 RMK T03400160 IEM_DS3505
ZHCC,2009-07-03 09:00,ZHCC 030900Z AUTO 14010KT 12SM 36/12 A2959 RMK SLP008 T03560125 57012 IEM_DS3505
ZHCC,2009-07-03 10:00,ZHCC 031000Z AUTO 15004KT 6SM 32/18 A2959 RMK T03200180 IEM_DS3505
ZHCC,2009-07-03 11:00,ZHCC 031100Z AUTO 17004KT 6SM 31/18 A2959 RMK T03100180 IEM_DS3505
ZHCC,2009-07-03 12:00,ZHCC 031200Z AUTO 14006KT 12SM 32/14 A2962 RMK SLP014 T03220144 52006 IEM_DS3505
ZHCC,2009-07-03 13:00,ZHCC 031300Z AUTO 17004KT 6SM 27/20 A2962 RMK T02700200 IEM_DS3505
ZHCC,2009-07-03 14:00,ZHCC 031400Z AUTO 18004KT 6SM 27/20 A2965 RMK T02700200 IEM_DS3505
ZHCC,2009-07-03 15:00,ZHCC 031500Z AUTO 18006KT 9SM 30/15 A2965 RMK SLP028 T02970147 52015 IEM_DS3505
ZHCC,2009-07-03 16:00,ZHCC 031600Z AUTO 21004KT 6SM 26/18 A2965 RMK T02600180 IEM_DS3505
ZHCC,2009-07-03 17:00,ZHCC 031700Z AUTO 19004KT 6SM 24/19 A2965 RMK T02400190 IEM_DS3505
ZHCC,2009-07-03 18:00,ZHCC 031800Z AUTO 16004KT 7SM 26/16 A2962 RMK SLP024 T02600160 57005 IEM_DS3505
ZHCC,2009-07-03 19:00,ZHCC 031900Z AUTO 22006KT A2962 RMK IEM_DS3505
ZHCC,2009-07-03 20:00,ZHCC 032000Z AUTO 22004KT 23/18 A2962 RMK T02300180 IEM_DS3505
ZHCC,2009-07-03 21:00,ZHCC 032100Z AUTO 16002KT 6SM A2965 RMK SLP027 52003 IEM_DS3505
ZHCC,2009-07-03 22:00,ZHCC 032200Z AUTO 18006KT 4SM 23/19 A2965 RMK T02300190 IEM_DS3505
ZHCC,2009-07-03 23:00,ZHCC 032300Z AUTO 17004KT 3SM 24/20 A2965 RMK T02400200 IEM_DS3505
ZHCC,2009-07-04 00:00,ZHCC 040000Z AUTO 16004KT 7SM 29/19 A2968 RMK SLP036 T02940191 52009 IEM_DS3505
ZHCC,2009-07-04 02:00,ZHCC 040200Z AUTO 18006KT 2 1/2SM 28/23 A2968 RMK T02800230 IEM_DS3505
ZHCC,2009-07-04 03:00,ZHCC 040300Z AUTO 18008KT 9SM 34/14 A2968 RMK SLP037 T03380138 52001 IEM_DS3505
ZHCC,2009-07-04 04:00,ZHCC 040400Z AUTO 18008KT 3SM 31/20 A2968 RMK T03100200 IEM_DS3505
ZHCC,2009-07-04 05:00,ZHCC 040500Z AUTO 17008KT 3SM 33/18 A2965 RMK T03300180 IEM_DS3505
ZHCC,2009-07-04 06:00,ZHCC 040600Z AUTO 16010KT 10SM 35/14 A2965 RMK SLP023 T03520145 57014 IEM_DS3505
ZHCC,2009-07-04 07:00,ZHCC 040700Z AUTO 15008KT 4SM 33/22 A2962 RMK T03300220 IEM_DS3505
ZHCC,2009-07-04 08:00,ZHCC 040800Z AUTO 14008KT 4SM 33/21 A2962 RMK T03300210 IEM_DS3505
ZHCC,2009-07-04 09:00,ZHCC 040900Z AUTO 14010KT 9SM 34/17 A2962 RMK SLP017 T03400173 57007 IEM_DS3505
ZHCC,2009-07-04 10:00,ZHCC 041000Z AUTO 14006KT 4SM 31/20 A2962 RMK T03100200 IEM_DS3505
ZHCC,2009-07-04 11:00,ZHCC 041100Z AUTO 14004KT 4SM 30/20 A2962 RMK T03000200 IEM_DS3505
ZHCC,2009-07-04 12:00,ZHCC 041200Z AUTO 14006KT 9SM 32/17 A2965 RMK SLP025 T03150174 52009 IEM_DS3505
ZHCC,2009-07-04 13:00,ZHCC 041300Z AUTO 4SM 27/20 A2965 RMK T02700200 IEM_DS3505
ZHCC,2009-07-04 14:00,ZHCC 041400Z AUTO 16002KT 4SM 26/21 A2968 RMK T02600210 IEM_DS3505
ZHCC,2009-07-04 15:00,ZHCC 041500Z AUTO 16008KT 7SM 29/17 A2968 RMK SLP038 T02880173 52013 IEM_DS3505
ZHCC,2009-07-04 16:00,ZHCC 041600Z AUTO 18002KT 2 1/2SM 25/21 A2968 RMK T02500210 IEM_DS3505
ZHCC,2009-07-04 17:00,ZHCC 041700Z AUTO 14002KT 2 1/2SM 24/21 A2968 RMK T02400210 IEM_DS3505
ZHCC,2009-07-04 18:00,ZHCC 041800Z AUTO 14004KT 7SM 27/18 A2968 RMK SLP037 T02690185 57001 IEM_DS3505
ZHCC,2009-07-04 19:00,ZHCC 041900Z AUTO 17002KT 24/20 A2968 RMK T02400200 IEM_DS3505
ZHCC,2009-07-04 20:00,ZHCC 042000Z AUTO 2SM 23/20 A2968 RMK T02300200 IEM_DS3505
ZHCC,2009-07-04 21:00,ZHCC 042100Z AUTO 09002KT 6SM 25/19 A2968 RMK SLP040 T02530192 52002 IEM_DS3505
ZHCC,2009-07-04 22:00,ZHCC 042200Z AUTO 13002KT 2SM 23/20 A2968 RMK T02300200 IEM_DS3505
ZHCC,2009-07-04 23:00,ZHCC 042300Z AUTO 13004KT 2SM 24/21 A2968 RMK T02400210 IEM_DS3505
ZHCC,2009-07-05 00:00,ZHCC 050000Z AUTO 14004KT 6SM 27/20 A2971 RMK SLP049 T02720203 52009 IEM_DS3505
ZHCC,2009-07-05 01:00,ZHCC 050100Z AUTO 13004KT 2SM 27/24 A2971 RMK T02700240 IEM_DS3505
ZHCC,2009-07-05 02:00,ZHCC 050200Z AUTO 16004KT 2SM 29/24 A2971 RMK T02900240 IEM_DS3505
ZHCC,2009-07-05 03:00,ZHCC 050300Z AUTO 14006KT 6SM 31/21 A2971 RMK SLP048 T03140210 54000 IEM_DS3505
ZHCC,2009-07-05 04:00,ZHCC 050400Z AUTO 16006KT 2 1/2SM 30/23 A2971 RMK T03000230 IEM_DS3505
ZHCC,2009-07-05 05:00,ZHCC 050500Z AUTO 13008KT 3SM 31/24 A2968 RMK T03100240 IEM_DS3505
ZHCC,2009-07-05 06:00,ZHCC 050600Z AUTO 09006KT 7SM 33/21 A2965 RMK SLP031 T03290208 57017 IEM_DS3505
ZHCC,2009-07-05 07:00,ZHCC 050700Z AUTO 17008KT 4SM 26/23 A2968 RMK T02600230 IEM_DS3505
ZHCC,2009-07-05 08:00,ZHCC 050800Z AUTO 15006KT 4SM 26/25 A2965 RMK T02600250 IEM_DS3505
ZHCC,2009-07-05 09:00,ZHCC 050900Z AUTO 14006KT 6SM 29/23 A2968 RMK SLP035 T02870232 52002 IEM_DS3505
ZHCC,2009-07-05 10:00,ZHCC 051000Z AUTO 13006KT 3SM 27/25 A2965 RMK T02700250 IEM_DS3505
ZHCC,2009-07-05 12:00,ZHCC 051200Z AUTO 14010KT 6SM 28/24 A2968 RMK 60000 SLP042 T02760236 52007 IEM_DS3505
ZHCC,2009-07-05 13:00,ZHCC 051300Z AUTO 18004KT 3SM 25/24 A2968 RMK T02500240 IEM_DS3505
ZHCC,2009-07-05 14:00,ZHCC 051400Z AUTO 18004KT 3SM 25/24 A2971 RMK T02500240 IEM_DS3505
ZHCC,2009-07-05 15:00,ZHCC 051500Z AUTO 16004KT 6SM 26/23 A2971 RMK SLP047 T02650234 52006 IEM_DS3505
ZHCC,2009-07-05 16:00,ZHCC 051600Z AUTO 15004KT 2 1/2SM 24/23 A2971 RMK T02400230 IEM_DS3505
ZHCC,2009-07-05 17:00,ZHCC 051700Z AUTO 2 1/2SM 24/23 A2968 RMK T02400230 IEM_DS3505
ZHCC,2009-07-05 18:00,ZHCC 051800Z AUTO 16004KT 6SM 26/24 A2968 RMK SLP044 T02600235 57003 IEM_DS3505
ZHCC,2009-07-05 19:00,ZHCC 051900Z AUTO 17004KT 1SM 25/24 A2968 RMK T02500240 IEM_DS3505
ZHCC,2009-07-05 20:00,ZHCC 052000Z AUTO 17002KT 1SM 25/24 A2968 RMK T02500240 IEM_DS3505
ZHCC,2009-07-05 21:00,ZHCC 052100Z AUTO 16002KT 5SM 26/24 A2965 RMK 70000 SLP035 T02610238 57009 IEM_DS3505
ZHCC,2009-07-05 22:00,ZHCC 052200Z AUTO 17002KT 1/2SM 25/24 A2968 RMK T02500240 IEM_DS3505
ZHCC,2009-07-05 23:00,ZHCC 052300Z AUTO 16004KT 1/2SM 25/24 A2968 RMK T02500240 IEM_DS3505
ZHCC,2009-07-06 00:00,ZHCC 060000Z AUTO 14006KT 3SM 28/24 A2968 RMK 60000 70000 SLP042 T02760242 52007 IEM_DS3505
ZHCC,2009-07-06 01:00,ZHCC 060100Z AUTO 17004KT 1SM 26/25 A2968 RMK T02600250 IEM_DS3505
ZHCC,2009-07-06 02:00,ZHCC 060200Z AUTO 2SM 26/25 A2968 RMK T02600250 IEM_DS3505
ZHCC,2009-07-06 03:00,ZHCC 060300Z AUTO 36002KT 4SM 29/25 A2968 RMK SLP044 T02860254 52002 IEM_DS3505
ZHCC,2009-07-06 04:00,ZHCC 060400Z AUTO 2 1/2SM 28/26 A2968 RMK T02800260 IEM_DS3505
ZHCC,2009-07-06 05:00,ZHCC 060500Z AUTO 2 1/2SM 29/26 A2968 RMK T02900260 IEM_DS3505
ZHCC,2009-07-06 06:00,ZHCC 060600Z AUTO 07006KT 3SM 31/24 A2965 RMK 60016 SLP031 T03060245 57013 IEM_DS3505
ZHCC,2009-07-06 07:00,ZHCC 060700Z AUTO 11006KT 2 1/2SM 30/26 A2965 RMK T03000260 IEM_DS3505
ZHCC,2009-07-06 08:00,ZHCC 060800Z AUTO 2 1/2SM 29/26 A2962 RMK T02900260 IEM_DS3505
ZHCC,2009-07-06 09:00,ZHCC 060900Z AUTO 14006KT 7SM 32/24 A2962 RMK SLP019 T03180244 57012 IEM_DS3505
ZHCC,2009-07-06 10:00,ZHCC 061000Z AUTO 3SM 30/26 A2962 RMK T03000260 IEM_DS3505
ZHCC,2009-07-06 11:00,ZHCC 061100Z AUTO 15002KT 3SM 29/26 A2962 RMK T02900260 IEM_DS3505
ZHCC,2009-07-06 12:00,ZHCC 061200Z AUTO 09002KT 6SM 30/24 A2965 RMK SLP031 T02990243 52012 IEM_DS3505
ZHCC,2009-07-06 13:00,ZHCC 061300Z AUTO 12002KT 2 1/2SM 27/25 A2968 RMK T02700250 IEM_DS3505
ZHCC,2009-07-06 14:00,ZHCC 061400Z AUTO 00000KT 2SM 27/25 A2968 RMK T02700250 IEM_DS3505
ZHCC,2009-07-06 15:00,ZHCC 061500Z AUTO 00000KT 4SM 28/25 A2968 RMK SLP041 T02790247 52010 IEM_DS3505
ZHCC,2009-07-06 16:00,ZHCC 061600Z AUTO 12002KT 1 1/4SM 26/25 A2968 RMK T02600250 IEM_DS3505
ZHCC,2009-07-06 17:00,ZHCC 061700Z AUTO 00000KT 1SM 26/25 A2968 RMK T02600250 IEM_DS3505
ZHCC,2009-07-06 18:00,ZHCC 061800Z AUTO 09002KT 4SM 27/25 A2968 RMK SLP039 T02710249 57002 IEM_DS3505
ZHCC,2009-07-06 19:00,ZHCC 061900Z AUTO 04004KT 1SM 26/25 A2968 RMK T02600250 IEM_DS3505
ZHCC,2009-07-06 20:00,ZHCC 062000Z AUTO 02006KT 1SM 26/25 A2965 RMK T02600250 IEM_DS3505
ZHCC,2009-07-06 21:00,ZHCC 062100Z AUTO 04006KT 4SM 27/23 A2968 RMK 70015 SLP045 T02670228 52006 IEM_DS3505
ZHCC,2009-07-06 22:00,ZHCC 062200Z AUTO 03006KT 1SM 24/24 A2968 RMK T02400240 IEM_DS3505
ZHCC,2009-07-06 23:00,ZHCC 062300Z AUTO 03006KT 1SM 25/24 A2971 RMK T02500240 IEM_DS3505
ZHCC,2009-07-07 00:00,ZHCC 070000Z AUTO 07002KT 3SM 27/23 A2971 RMK 70015 SLP052 T02720228 52007 IEM_DS3505
ZHCC,2009-07-07 01:00,ZHCC 070100Z AUTO 04008KT 1 1/4SM 27/25 A2971 RMK T02700250 IEM_DS3505
ZHCC,2009-07-07 02:00,ZHCC 070200Z AUTO 05008KT 1 1/2SM 27/25 A2971 RMK T02700250 IEM_DS3505
ZHCC,2009-07-07 03:00,ZHCC 070300Z AUTO 07008KT 4SM 30/23 A2971 RMK SLP054 T03000234 52002 IEM_DS3505
ZHCC,2009-07-07 04:00,ZHCC 070400Z AUTO 08008KT 1 1/2SM 29/25 A2971 RMK T02900250 IEM_DS3505
ZHCC,2009-07-07 05:00,ZHCC 070500Z AUTO 08008KT 1 1/2SM 30/25 A2968 RMK T03000250 IEM_DS3505
ZHCC,2009-07-07 06:00,ZHCC 070600Z AUTO 09006KT 3SM 32/23 A2965 RMK SLP033 T03190229 57021 IEM_DS3505
ZHCC,2009-07-07 07:00,ZHCC 070700Z AUTO 08008KT 2 1/2SM 31/25 A2965 RMK T03100250 IEM_DS3505
ZHCC,2009-07-07 08:00,ZHCC 070800Z AUTO 18004KT 2SM 29/25 A2965 RMK T02900250 IEM_DS3505
ZHCC,2009-07-07 09:00,ZHCC 070900Z AUTO 16010KT 4SM 29/24 A2962 RMK SLP023 T02940238 57010 IEM_DS3505
ZHCC,2009-07-07 10:00,ZHCC 071000Z AUTO 00000KT 1 1/2SM 30/27 A2962 RMK T03000270 IEM_DS3505
ZHCC,2009-07-07 11:00,ZHCC 071100Z AUTO 02002KT 2SM 25/24 A2962 RMK T02500240 IEM_DS3505
ZHCC,2009-07-07 12:00,ZHCC 071200Z AUTO 18002KT 4SM 26/22 RMK 60016 SLP028 T02650215 52004 IEM_DS3505
ZHCC,2009-07-07 13:00,ZHCC 071300Z AUTO 00000KT 1SM 26/25 A2965 RMK T02600250 IEM_DS3505
ZHCC,2009-07-07 14:00,ZHCC 071400Z AUTO 10004KT 1 1/4SM 26/25 A2965 RMK T02600250 IEM_DS3505
ZHCC,2009-07-07 15:00,ZHCC 071500Z AUTO 07002KT 4SM 27/25 A2965 RMK SLP031 T02690246 52004 IEM_DS3505
ZHCC,2009-07-07 16:00,ZHCC 071600Z AUTO 11004KT 1 1/4SM 25/24 A2962 RMK T02500240 IEM_DS3505
ZHCC,2009-07-07 17:00,ZHCC 071700Z AUTO 12004KT 1 1/4SM 25/25 A2962 RMK T02500250 IEM_DS3505
ZHCC,2009-07-07 18:00,ZHCC 071800Z AUTO 11002KT 2 1/2SM 26/24 A2959 RMK SLP017 T02650243 57013 IEM_DS3505
ZHCC,2009-07-07 19:00,ZHCC 071900Z AUTO 12004KT 1 1/4SM 26/25 A2959 RMK T02600250 IEM_DS3505
ZHCC,2009-07-07 20:00,ZHCC 072000Z AUTO 1 1/4SM 25/25 A2956 RMK T02500250 IEM_DS3505
ZHCC,2009-07-07 21:00,ZHCC 072100Z AUTO 11004KT 3SM 26/25 A2956 RMK 70016 SLP004 T02640246 57014 IEM_DS3505
ZHCC,2009-07-07 22:00,ZHCC 072200Z AUTO 13006KT 1SM 25/25 A2956 RMK T02500250 IEM_DS3505
ZHCC,2009-07-07 23:00,ZHCC 072300Z AUTO 13004KT 1SM 25/25 A2956 RMK T02500250 IEM_DS3505
ZHCC,2009-07-08 00:00,ZHCC 080000Z AUTO 11004KT 2 1/2SM 26/25 A2956 RMK 60000 70016 SLP999 T02650247 57005 IEM_DS3505
ZHCC,2009-07-08 01:00,ZHCC 080100Z AUTO 15006KT 1 1/4SM 26/25 A2953 RMK T02600250 IEM_DS3505
ZHCC,2009-07-08 02:00,ZHCC 080200Z AUTO 16006KT 2SM 28/27 A2953 RMK T02800270 IEM_DS3505
ZHCC,2009-07-08 03:00,ZHCC 080300Z AUTO 16006KT 5SM 30/25 A2950 RMK SLP982 T03000246 57016 IEM_DS3505
ZHCC,2009-07-08 04:00,ZHCC 080400Z AUTO 18006KT 4SM 30/26 A2950 RMK T03000260 IEM_DS3505
ZHCC,2009-07-08 05:00,ZHCC 080500Z AUTO 18006KT 4SM 30/26 A2947 RMK T03000260 IEM_DS3505
ZHCC,2009-07-08 06:00,ZHCC 080600Z AUTO 18010KT 7SM 33/23 A2944 RMK SLP963 T03280232 57019 IEM_DS3505
ZHCC,2009-07-08 07:00,ZHCC 080700Z AUTO 20006KT 4SM 31/26 A2944 RMK T03100260 IEM_DS3505
ZHCC,2009-07-08 08:00,ZHCC 080800Z AUTO 20006KT 5SM 33/26 A2941 RMK T03300260 IEM_DS3505
ZHCC,2009-07-08 09:00,ZHCC 080900Z AUTO 18008KT 7SM 34/24 A2941 RMK SLP948 T03400240 57014 IEM_DS3505
ZHCC,2009-07-08 10:00,ZHCC 081000Z AUTO 20006KT 5SM 31/26 A2944 RMK T03100260 IEM_DS3505
ZHCC,2009-07-08 11:00,ZHCC 081100Z AUTO 22006KT 4SM 30/26 A2944 RMK T03000260 IEM_DS3505
ZHCC,2009-07-08 12:00,ZHCC 081200Z AUTO 04006KT 4SM 24/22 A2950 RMK 60083 SLP985 T02350219 52034 IEM_DS3505
ZHCC,2009-07-08 13:00,ZHCC 081300Z AUTO 04014G23KT 1 1/4SM 21/20 A2953 RMK T02100200 IEM_DS3505
ZHCC,2009-07-08 14:00,ZHCC 081400Z AUTO 03012KT 2SM 20/19 A2956 RMK T02000190 IEM_DS3505
ZHCC,2009-07-08 15:00,ZHCC 081500Z AUTO 04006KT 6SM 22/19 A2956 RMK SLP012 T02170187 52027 IEM_DS3505
ZHCC,2009-07-08 16:00,ZHCC 081600Z AUTO 02008KT 2 1/2SM 20/19 A2959 RMK T02000190 IEM_DS3505
ZHCC,2009-07-08 17:00,ZHCC 081700Z AUTO 03010KT 3SM 20/19 A2959 RMK T02000190 IEM_DS3505
ZHCC,2009-07-08 18:00,ZHCC 081800Z AUTO 02002KT 6SM 21/19 A2959 RMK 60008 SLP016 T02140190 52005 IEM_DS3505
ZHCC,2009-07-08 19:00,ZHCC 081900Z AUTO 30004KT 3SM 20/19 A2959 RMK T02000190 IEM_DS3505
ZHCC,2009-07-08 20:00,ZHCC 082000Z AUTO 34004KT 3SM 20/19 A2959 RMK T02000190 IEM_DS3505
ZHCC,2009-07-08 21:00,ZHCC 082100Z AUTO 29002KT 6SM 22/19 A2962 RMK 70091 SLP022 T02230189 52006 IEM_DS3505
ZHCC,2009-07-08 22:00,ZHCC 082200Z AUTO 29002KT 2SM 21/20 A2962 RMK T02100200 IEM_DS3505
ZHCC,2009-07-09 00:00,ZHCC 090000Z AUTO 14004KT 6SM 22/20 A2968 RMK 60002 70093 SLP040 T02210195 52016 IEM_DS3505
ZHCC,2009-07-09 01:00,ZHCC 090100Z AUTO 04004KT 2 1/2SM 21/20 A2965 RMK T02100200 IEM_DS3505
ZHCC,2009-07-09 02:00,ZHCC 090200Z AUTO 06004KT 5SM 23/21 A2968 RMK T02300210 IEM_DS3505
ZHCC,2009-07-09 03:00,ZHCC 090300Z AUTO 16004KT 4SM 27/20 A2968 RMK SLP043 T02680202 52003 IEM_DS3505
ZHCC,2009-07-09 04:00,ZHCC 090400Z AUTO 09002KT 5SM 27/21 A2968 RMK T02700210 IEM_DS3505
ZHCC,2009-07-09 05:00,ZHCC 090500Z AUTO 00000KT 7SM 28/21 A2965 RMK T02800210 IEM_DS3505
ZHCC,2009-07-09 06:00,ZHCC 090600Z AUTO 20002KT 4SM 30/20 A2965 RMK SLP031 T02950195 57011 IEM_DS3505
ZHCC,2009-07-09 07:00,ZHCC 090700Z AUTO 19004KT 7SM 28/21 A2965 RMK T02800210 IEM_DS3505
ZHCC,2009-07-09 08:00,ZHCC 090800Z AUTO 16004KT 6SM 29/22 A2965 RMK T02900220 IEM_DS3505
ZHCC,2009-07-09 09:00,ZHCC 090900Z AUTO 14004KT 5SM 30/20 A2965 RMK SLP027 T03040197 57004 IEM_DS3505
ZHCC,2009-07-09 10:00,ZHCC 091000Z AUTO 20004KT 4SM 27/22 A2965 RMK T02700220 IEM_DS3505
ZHCC,2009-07-09 11:00,ZHCC 091100Z AUTO 18004KT 4SM 26/22 A2965 RMK T02600220 IEM_DS3505
ZHCC,2009-07-09 12:00,ZHCC 091200Z AUTO 16006KT 4SM 27/21 A2968 RMK SLP038 T02730213 52010 IEM_DS3505
ZHCC,2009-07-09 13:00,ZHCC 091300Z AUTO 19006KT 1 1/2SM 24/22 A2968 RMK T02400220 IEM_DS3505
ZHCC,2009-07-09 14:00,ZHCC 091400Z AUTO 20004KT 1 1/4SM 23/22 A2971 RMK T02300220 IEM_DS3505
ZHCC,2009-07-09 15:00,ZHCC 091500Z AUTO 18004KT 4SM 24/21 A2971 RMK SLP050 T02450212 52013 IEM_DS3505
ZHCC,2009-07-09 16:00,ZHCC 091600Z AUTO 20006KT 1SM 23/22 A2971 RMK T02300220 IEM_DS3505
ZHCC,2009-07-09 17:00,ZHCC 091700Z AUTO 20004KT 1SM 22/22 A2968 RMK T02200220 IEM_DS3505
ZHCC,2009-07-09 18:00,ZHCC 091800Z AUTO 16002KT 4SM 24/21 A2968 RMK SLP045 T02370212 57005 IEM_DS3505
ZHCC,2009-07-09 19:00,ZHCC 091900Z AUTO 19004KT 1/2SM 22/21 A2968 RMK T02200210 IEM_DS3505
ZHCC,2009-07-09 20:00,ZHCC 092000Z AUTO 19004KT 1/2SM 22/21 A2968 RMK T02200210 IEM_DS3505
ZHCC,2009-07-09 21:00,ZHCC 092100Z AUTO 14002KT 2 1/2SM 23/21 A2968 RMK 70002 SLP043 T02280209 57002 IEM_DS3505
ZHCC,2009-07-09 22:00,ZHCC 092200Z AUTO 20002KT 1/2SM 21/20 A2968 RMK T02100200 IEM_DS3505
ZHCC,2009-07-09 23:00,ZHCC 092300Z AUTO 00000KT 1SM 23/22 A2968 RMK T02300220 IEM_DS3505
ZHCC,2009-07-10 00:00,ZHCC 100000Z AUTO 09002KT 2 1/2SM 26/20 A2968 RMK SLP046 T02610202 52003 IEM_DS3505
ZHCC,2009-07-10 01:00,ZHCC 100100Z AUTO 18006KT 2 1/2SM 25/23 A2971 RMK T02500230 IEM_DS3505
ZHCC,2009-07-10 02:00,ZHCC 100200Z AUTO 16004KT 2 1/2SM 25/22 A2971 RMK T02500220 IEM_DS3505
ZHCC,2009-07-10 03:00,ZHCC 100300Z AUTO 14006KT 6SM 28/21 A2971 RMK SLP051 T02780209 52005 IEM_DS3505
ZHCC,2009-07-10 04:00,ZHCC 100400Z AUTO 15006KT 3SM 26/22 A2971 RMK T02600220 IEM_DS3505
ZHCC,2009-07-10 05:00,ZHCC 100500Z AUTO 16006KT 2 1/2SM 26/22 A2968 RMK T02600220 IEM_DS3505
ZHCC,2009-07-10 06:00,ZHCC 100600Z AUTO 14004KT 7SM 28/21 A2968 RMK SLP045 T02780211 57006 IEM_DS3505
ZHCC,2009-07-10 07:00,ZHCC 100700Z AUTO 17004KT 1 1/2SM 25/22 A2968 RMK T02500220 IEM_DS3505
ZHCC,2009-07-10 08:00,ZHCC 100800Z AUTO 19004KT 2SM 24/22 A2968 RMK T02400220 IEM_DS3505
ZHCC,2009-07-10 09:00,ZHCC 100900Z AUTO 18004KT 6SM 25/21 A2968 RMK SLP037 T02530206 57009 IEM_DS3505
ZHCC,2009-07-10 10:00,ZHCC 101000Z AUTO 15004KT 1 1/4SM 22/21 A2968 RMK T02200210 IEM_DS3505
ZHCC,2009-07-10 11:00,ZHCC 101100Z AUTO 14004KT 2SM 22/21 A2968 RMK T02200210 IEM_DS3505
ZHCC,2009-07-10 12:00,ZHCC 101200Z AUTO 22002KT 6SM 23/20 A2968 RMK 60002 SLP053 T02300198 52016 IEM_DS3505
ZHCC,2009-07-10 13:00,ZHCC 101300Z AUTO 33004KT 1 1/4SM 22/21 A2974 RMK T02200210 IEM_DS3505
ZHCC,2009-07-10 14:00,ZHCC 101400Z AUTO 1 1/4SM 22/21 A2974 RMK T02200210 IEM_DS3505
ZHCC,2009-07-10 15:00,ZHCC 101500Z AUTO 29002KT 6SM 23/21 A2974 RMK SLP062 T02290208 52009 IEM_DS3505
ZHCC,2009-07-10 16:00,ZHCC 101600Z AUTO 17002KT 2 1/2SM 21/20 A2971 RMK T02100200 IEM_DS3505
ZHCC,2009-07-10 17:00,ZHCC 101700Z AUTO 00000KT 2 1/2SM 20/20 A2971 RMK T02000200 IEM_DS3505
ZHCC,2009-07-10 18:00,ZHCC 101800Z AUTO 14002KT 6SM 22/18 A2968 RMK 60016 SLP053 T02180184 57009 IEM_DS3505
ZHCC,2009-07-10 19:00,ZHCC 101900Z AUTO 30008KT 1SM 20/19 A2968 RMK T02000190 IEM_DS3505
ZHCC,2009-07-10 20:00,ZHCC 102000Z AUTO 35006KT 2 1/2SM 20/19 A2968 RMK T02000190 IEM_DS3505
ZHCC,2009-07-10 21:00,ZHCC 102100Z AUTO 34004KT 5SM 20/18 A2968 RMK 70075 SLP054 T01980185 54000 IEM_DS3505
ZHCC,2009-07-10 22:00,ZHCC 102200Z AUTO 35006KT 1 1/2SM 19/18 A2968 RMK T01900180 IEM_DS3505
ZHCC,2009-07-10 23:00,ZHCC 102300Z AUTO 01008KT 1 1/2SM 19/18 A2968 RMK T01900180 IEM_DS3505
ZHCC,2009-07-11 00:00,ZHCC 110000Z AUTO 25004KT 5SM 20/19 A2968 RMK 60102 70117 SLP054 T02030188 54000 IEM_DS3505
ZHCC,2009-07-11 01:00,ZHCC 110100Z AUTO 29004KT 2SM 20/19 A2971 RMK T02000190 IEM_DS3505
ZHCC,2009-07-11 02:00,ZHCC 110200Z AUTO 32002KT 2SM 20/19 A2968 RMK T02000190 IEM_DS3505
ZHCC,2009-07-11 03:00,ZHCC 110300Z AUTO 27004KT 6SM 24/19 A2968 RMK SLP042 T02430192 57011 IEM_DS3505
ZHCC,2009-07-11 04:00,ZHCC 110400Z AUTO 28004KT 3SM 22/22 A2968 RMK T02200220 IEM_DS3505
ZHCC,2009-07-11 05:00,ZHCC 110500Z AUTO 3SM 24/23 A2965 RMK T02400230 IEM_DS3505
ZHCC,2009-07-11 06:00,ZHCC 110600Z AUTO 32004KT 6SM 29/20 A2965 RMK 60002 SLP029 T02890195 57012 IEM_DS3505
ZHCC,2009-07-11 07:00,ZHCC 110700Z AUTO 18004KT 1 1/2SM 25/22 A2965 RMK T02500220 IEM_DS3505
ZHCC,2009-07-11 08:00,ZHCC 110800Z AUTO 16004KT 1 1/2SM 25/22 A2965 RMK T02500220 IEM_DS3505
ZHCC,2009-07-11 09:00,ZHCC 110900Z AUTO 11004KT 6SM 28/21 A2962 RMK SLP026 T02830208 57004 IEM_DS3505
ZHCC,2009-07-11 10:00,ZHCC 111000Z AUTO 1 1/4SM 25/22 A2962 RMK T02500220 IEM_DS3505
ZHCC,2009-07-11 11:00,ZHCC 111100Z AUTO 20004KT 1 1/4SM 24/22 A2962 RMK T02400220 IEM_DS3505
ZHCC,2009-07-11 12:00,ZHCC 111200Z AUTO 18002KT 3SM 26/22 A2962 RMK SLP025 T02580221 57001 IEM_DS3505
ZHCC,2009-07-11 13:00,ZHCC 111300Z AUTO 20006KT 1 1/4SM 23/22 A2962 RMK T02300220 IEM_DS3505
ZHCC,2009-07-11 14:00,ZHCC 111400Z AUTO 19004KT 1 1/4SM 22/21 A2965 RMK T02200210 IEM_DS3505
ZHCC,2009-07-11 15:00,ZHCC 111500Z AUTO 16002KT 3SM 24/22 A2965 RMK SLP034 T02430220 52009 IEM_DS3505
ZHCC,2009-07-11 16:00,ZHCC 111600Z AUTO 20002KT 1SM 22/21 A2965 RMK T02200210 IEM_DS3505
ZHCC,2009-07-11 17:00,ZHCC 111700Z AUTO 20002KT 1SM 22/21 A2965 RMK T02200210 IEM_DS3505
ZHCC,2009-07-11 18:00,ZHCC 111800Z AUTO 00000KT 2 1/2SM 24/22 A2965 RMK SLP037 T02350219 52004 IEM_DS3505
ZHCC,2009-07-11 19:00,ZHCC 111900Z AUTO 28004KT 1SM 22/21 A2965 RMK T02200210 IEM_DS3505
ZHCC,2009-07-11 20:00,ZHCC 112000Z AUTO 25002KT 1/2SM 22/21 A2965 RMK T02200210 IEM_DS3505
ZHCC,2009-07-11 21:00,ZHCC 112100Z AUTO 00000KT 1SM 23/21 A2968 RMK 70044 SLP041 T02260214 52004 IEM_DS3505
ZHCC,2009-07-11 22:00,ZHCC 112200Z AUTO 26002KT 1SM 22/21 A2968 RMK T02200210 IEM_DS3505
ZHCC,2009-07-11 23:00,ZHCC 112300Z AUTO 33002KT 1SM 23/22 A2968 RMK T02300220 IEM_DS3505
ZHCC,2009-07-12 00:00,ZHCC 120000Z AUTO 07004KT 3SM 27/18 A2971 RMK 70002 SLP053 T02690185 52012 IEM_DS3505
ZHCC,2009-07-12 01:00,ZHCC 120100Z AUTO 04002KT 2 1/2SM 26/23 A2971 RMK T02600230 IEM_DS3505
ZHCC,2009-07-12 02:00,ZHCC 120200Z AUTO 00000KT 2 1/2SM 28/22 A2971 RMK T02800220 IEM_DS3505
ZHCC,2009-07-12 03:00,ZHCC 120300Z AUTO 14006KT 7SM 30/20 A2971 RMK SLP048 T03000200 57005 IEM_DS3505
ZHCC,2009-07-12 04:00,ZHCC 120400Z AUTO 19006KT 2 1/2SM 29/22 A2968 RMK T02900220 IEM_DS3505
ZHCC,2009-07-12 05:00,ZHCC 120500Z AUTO 19008KT 2 1/2SM 30/24 A2968 RMK T03000240 IEM_DS3505
ZHCC,2009-07-12 06:00,ZHCC 120600Z AUTO 16008KT 6SM 32/20 A2968 RMK SLP036 T03240203 57011 IEM_DS3505
ZHCC,2009-07-12 07:00,ZHCC 120700Z AUTO 20010KT 4SM 30/22 A2965 RMK T03000220 IEM_DS3505
ZHCC,2009-07-12 08:00,ZHCC 120800Z AUTO 20008KT 6SM 30/22 A2965 RMK T03000220 IEM_DS3505
ZHCC,2009-07-12 09:00,ZHCC 120900Z AUTO 16006KT 7SM 33/20 A2965 RMK SLP024 T03260198 57012 IEM_DS3505
ZHCC,2009-07-12 10:00,ZHCC 121000Z AUTO 19006KT 6SM 29/23 A2962 RMK T02900230 IEM_DS3505
ZHCC,2009-07-12 11:00,ZHCC 121100Z AUTO 19006KT 6SM 27/23 A2965 RMK T02700230 IEM_DS3505
ZHCC,2009-07-12 12:00,ZHCC 121200Z AUTO 16010KT 6SM 29/19 A2965 RMK SLP025 T02880189 52001 IEM_DS3505
ZHCC,2009-07-12 13:00,ZHCC 121300Z AUTO 21008KT 4SM 26/22 A2965 RMK T02600220 IEM_DS3505
ZHCC,2009-07-12 14:00,ZHCC 121400Z AUTO 21006KT 2 1/2SM 25/22 A2968 RMK T02500220 IEM_DS3505
ZHCC,2009-07-12 15:00,ZHCC 121500Z AUTO 16004KT 6SM 27/20 A2968 RMK SLP038 T02720198 52013 IEM_DS3505
ZHCC,2009-07-12 16:00,ZHCC 121600Z AUTO 19006KT 2 1/2SM 24/22 A2968 RMK T02400220 IEM_DS3505
ZHCC,2009-07-12 17:00,ZHCC 121700Z AUTO 16004KT 2 1/2SM 23/21 A2968 RMK T02300210 IEM_DS3505
ZHCC,2009-07-12 18:00,ZHCC 121800Z AUTO 04002KT 6SM 24/22 A2965 RMK 60012 SLP034 T02420221 57004 IEM_DS3505
ZHCC,2009-07-12 19:00,ZHCC 121900Z AUTO 14008KT 1SM 22/21 A2965 RMK T02200210 IEM_DS3505
ZHCC,2009-07-12 20:00,ZHCC 122000Z AUTO 18004KT 1SM 22/21 A2965 RMK T02200210 IEM_DS3505
ZHCC,2009-07-12 21:00,ZHCC 122100Z AUTO 00000KT 2 1/2SM 23/22 A2962 RMK 70099 SLP028 T02290217 57006 IEM_DS3505
ZHCC,2009-07-12 22:00,ZHCC 122200Z AUTO 16004KT 1SM 22/21 A2965 RMK T02200210 IEM_DS3505
ZHCC,2009-07-12 23:00,ZHCC 122300Z AUTO 12004KT 1 1/4SM 22/21 A2962 RMK T02200210 IEM_DS3505
ZHCC,2009-07-13 00:00,ZHCC 130000Z AUTO 16004KT 2SM 23/21 A2965 RMK 60126 70137 SLP034 T02270213 52005 IEM_DS3505
ZHCC,2009-07-13 01:00,ZHCC 130100Z AUTO 17002KT 2SM 22/21 A2965 RMK T02200210 IEM_DS3505
ZHCC,2009-07-13 02:00,ZHCC 130200Z AUTO 19004KT 2SM 22/21 A2965 RMK T02200210 IEM_DS3505
ZHCC,2009-07-13 03:00,ZHCC 130300Z AUTO 18002KT 2SM 23/22 A2962 RMK SLP025 T02300216 57009 IEM_DS3505
ZHCC,2009-07-13 04:00,ZHCC 130400Z AUTO 17008KT 1SM 22/21 A2962 RMK T02200210 IEM_DS3505
ZHCC,2009-07-13 05:00,ZHCC 130500Z AUTO 19004KT 1SM 22/22 A2959 RMK T02200220 IEM_DS3505
ZHCC,2009-07-13 06:00,ZHCC 130600Z AUTO 22004KT 3SM 25/23 A2959 RMK 60059 SLP015 T02500227 57010 IEM_DS3505
ZHCC,2009-07-13 07:00,ZHCC 130700Z AUTO 25004KT 1 1/4SM 24/23 A2959 RMK T02400230 IEM_DS3505
ZHCC,2009-07-13 08:00,ZHCC 130800Z AUTO 1 1/2SM 25/24 A2956 RMK T02500240 IEM_DS3505
ZHCC,2009-07-13 09:00,ZHCC 130900Z AUTO 27004KT 4SM 25/23 A2956 RMK SLP006 T02520233 57009 IEM_DS3505
ZHCC,2009-07-13 10:00,ZHCC 131000Z AUTO 1 1/2SM 25/24 A2956 RMK T02500240 IEM_DS3505
ZHCC,2009-07-13 11:00,ZHCC 131100Z AUTO 34006KT 2SM 24/23 A2959 RMK T02400230 IEM_DS3505
ZHCC,2009-07-13 12:00,ZHCC 131200Z AUTO 00000KT 3SM 25/23 A2959 RMK 60000 SLP018 T02490226 52011 IEM_DS3505
ZHCC,2009-07-13 13:00,ZHCC 131300Z AUTO 00000KT 1 1/4SM 23/23 A2962 RMK T02300230 IEM_DS3505
ZHCC,2009-07-13 14:00,ZHCC 131400Z AUTO 33002KT 1 1/4SM 23/22 A2962 RMK T02300220 IEM_DS3505
ZHCC,2009-07-13 15:00,ZHCC 131500Z AUTO 00000KT 2 1/2SM 23/22 A2962 RMK SLP029 T02300220 52011 IEM_DS3505
ZHCC,2009-07-13 16:00,ZHCC 131600Z AUTO 00000KT 1SM 22/21 A2962 RMK T02200210 IEM_DS3505
ZHCC,2009-07-13 17:00,ZHCC 131700Z AUTO 35004KT 1SM 22/21 A2962 RMK T02200210 IEM_DS3505
ZHCC,2009-07-13 18:00,ZHCC 131800Z AUTO 00000KT 2SM 23/22 A2962 RMK SLP020 T02300222 57009 IEM_DS3505
ZHCC,2009-07-13 20:00,ZHCC 132000Z AUTO 00000KT 1/8SM 22/22 A2962 RMK T02200220 IEM_DS3505
ZHCC,2009-07-13 21:00,ZHCC 132100Z AUTO 18002G16KT 1 1/4SM 23/22 A2962 RMK 70098 SLP027 T02280218 52007 IEM_DS3505
ZHCC,2009-07-13 23:00,ZHCC 132300Z AUTO 00000KT 1SM 22/22 A2965 RMK T02200220 IEM_DS3505
ZHCC,2009-07-14 00:00,ZHCC 140000Z AUTO 16002KT 1 1/4SM 24/22 A2968 RMK 70060 SLP042 T02360219 52015 IEM_DS3505
ZHCC,2009-07-14 01:00,ZHCC 140100Z AUTO 11002KT 1 1/4SM 23/22 A2968 RMK T02300220 IEM_DS3505
ZHCC,2009-07-14 02:00,ZHCC 140200Z AUTO 00000KT 2SM 24/24 A2968 RMK T02400240 IEM_DS3505
ZHCC,2009-07-14 03:00,ZHCC 140300Z AUTO 18004KT 3SM 28/22 A2965 RMK SLP037 T02820217 57004 IEM_DS3505
ZHCC,2009-07-14 04:00,ZHCC 140400Z AUTO 22004KT 2SM 27/24 A2965 RMK T02700240 IEM_DS3505
ZHCC,2009-07-14 05:00,ZHCC 140500Z AUTO 22004KT 1 1/2SM 29/24 A2962 RMK T02900240 IEM_DS3505
ZHCC,2009-07-14 06:00,ZHCC 140600Z AUTO 25004KT 4SM 31/22 A2962 RMK SLP018 T03140221 57018 IEM_DS3505
ZHCC,2009-07-14 07:00,ZHCC 140700Z AUTO 17004KT 1 1/4SM 29/25 A2962 RMK T02900250 IEM_DS3505
ZHCC,2009-07-14 08:00,ZHCC 140800Z AUTO 15004KT 1 1/4SM 29/25 A2959 RMK T02900250 IEM_DS3505
ZHCC,2009-07-14 09:00,ZHCC 140900Z AUTO 16004KT 3SM 31/24 A2959 RMK SLP014 T03070239 57004 IEM_DS3505
ZHCC,2009-07-14 10:00,ZHCC 141000Z AUTO 16004KT 1 1/4SM 28/25 A2959 RMK T02800250 IEM_DS3505
ZHCC,2009-07-14 11:00,ZHCC 141100Z AUTO 15004KT 1 1/4SM 27/25 A2962 RMK T02700250 IEM_DS3505
ZHCC,2009-07-14 12:00,ZHCC 141200Z AUTO 09004KT 2 1/2SM 28/24 A2962 RMK SLP025 T02840240 52010 IEM_DS3505
ZHCC,2009-07-14 13:00,ZHCC 141300Z AUTO 14004KT 1SM 26/24 A2965 RMK T02600240 IEM_DS3505
ZHCC,2009-07-14 14:00,ZHCC 141400Z AUTO 15002KT 1SM 25/24 A2965 RMK T02500240 IEM_DS3505
ZHCC,2009-07-14 15:00,ZHCC 141500Z AUTO 14002KT 2 1/2SM 27/24 A2965 RMK SLP035 T02670236 52011 IEM_DS3505
ZHCC,2009-07-14 16:00,ZHCC 141600Z AUTO 17004KT 1SM 25/24 A2965 RMK T02500240 IEM_DS3505
ZHCC,2009-07-14 17:00,ZHCC 141700Z AUTO 21002KT 1SM 24/23 A2965 RMK T02400230 IEM_DS3505
ZHCC,2009-07-14 18:00,ZHCC 141800Z AUTO 00000KT 2 1/2SM 25/23 A2965 RMK SLP036 T02480232 52001 IEM_DS3505
ZHCC,2009-07-14 19:00,ZHCC 141900Z AUTO 22004KT 1/2SM 23/23 A2965 RMK T02300230 IEM_DS3505
ZHCC,2009-07-14 20:00,ZHCC 142000Z AUTO 00000KT 1SM 23/23 A2965 RMK T02300230 IEM_DS3505
ZHCC,2009-07-14 21:00,ZHCC 142100Z AUTO 00000KT 1 1/4SM 24/23 A2968 RMK SLP040 T02420230 52004 IEM_DS3505
ZHCC,2009-07-14 22:00,ZHCC 142200Z AUTO 00000KT 3/8SM 23/22 A2968 RMK T02300220 IEM_DS3505
ZHCC,2009-07-14 23:00,ZHCC 142300Z AUTO 12004KT 3/8SM 24/24 A2968 RMK T02400240 IEM_DS3505
ZHCC,2009-07-15 00:00,ZHCC 150000Z AUTO 14002KT 1 1/4SM 27/24 A2971 RMK SLP048 T02740236 52008 IEM_DS3505
ZHCC,2009-07-15 01:00,ZHCC 150100Z AUTO 13004KT 1 1/4SM 26/25 A2968 RMK T02600250 IEM_DS3505
ZHCC,2009-07-15 02:00,ZHCC 150200Z AUTO 16004KT 2SM 27/26 A2971 RMK T02700260 IEM_DS3505
ZHCC,2009-07-15 03:00,ZHCC 150300Z AUTO 20004KT 4SM 31/23 A2971 RMK SLP048 T03070226 54000 IEM_DS3505
ZHCC,2009-07-15 04:00,ZHCC 150400Z AUTO 16006KT 2 1/2SM 30/25 A2968 RMK T03000250 IEM_DS3505
ZHCC,2009-07-15 05:00,ZHCC 150500Z AUTO 16006KT 3SM 30/23 A2968 RMK T03000230 IEM_DS3505
ZHCC,2009-07-15 06:00,ZHCC 150600Z AUTO 16006KT 6SM 32/20 A2965 RMK SLP031 T03250204 57017 IEM_DS3505
ZHCC,2009-07-15 07:00,ZHCC 150700Z AUTO 12006KT 4SM 31/24 A2965 RMK T03100240 IEM_DS3505
ZHCC,2009-07-15 08:00,ZHCC 150800Z AUTO 14004KT 4SM 30/24 A2965 RMK T03000240 IEM_DS3505
ZHCC,2009-07-15 09:00,ZHCC 150900Z AUTO 11006KT 6SM 31/22 A2965 RMK SLP029 T03120220 57002 IEM_DS3505
ZHCC,2009-07-15 10:00,ZHCC 151000Z AUTO 13006KT 4SM 29/25 A2965 RMK T02900250 IEM_DS3505
ZHCC,2009-07-15 11:00,ZHCC 151100Z AUTO 12004KT 3SM 28/25 A2965 RMK T02800250 IEM_DS3505
ZHCC,2009-07-15 12:00,ZHCC 151200Z AUTO 11002KT 6SM 30/23 A2965 RMK SLP036 T02980233 52007 IEM_DS3505
ZHCC,2009-07-15 13:00,ZHCC 151300Z AUTO 13004KT 2 1/2SM 27/24 A2968 RMK T02700240 IEM_DS3505
ZHCC,2009-07-15 14:00,ZHCC 151400Z AUTO 00000KT 2SM 27/24 A2968 RMK T02700240 IEM_DS3505
ZHCC,2009-07-15 15:00,ZHCC 151500Z AUTO 16002KT 4SM 28/23 A2965 RMK SLP035 T02820231 57001 IEM_DS3505
ZHCC,2009-07-15 16:00,ZHCC 151600Z AUTO 14002KT 1 1/4SM 26/24 A2965 RMK T02600240 IEM_DS3505
ZHCC,2009-07-15 17:00,ZHCC 151700Z AUTO 1 1/4SM 25/24 A2965 RMK T02500240 IEM_DS3505
ZHCC,2009-07-15 18:00,ZHCC 151800Z AUTO 14006KT 4SM 27/23 A2962 RMK SLP023 T02720234 57011 IEM_DS3505
ZHCC,2009-07-15 19:00,ZHCC 151900Z AUTO 15004KT 1 1/4SM 25/24 A2962 RMK T02500240 IEM_DS3505
ZHCC,2009-07-15 20:00,ZHCC 152000Z AUTO 15002KT 1SM 25/24 A2962 RMK T02500240 IEM_DS3505
ZHCC,2009-07-15 21:00,ZHCC 152100Z AUTO 11004KT 3SM 27/24 A2962 RMK SLP023 T02660237 57001 IEM_DS3505
ZHCC,2009-07-15 22:00,ZHCC 152200Z AUTO 11002KT 1 1/4SM 25/24 A2962 RMK T02500240 IEM_DS3505
ZHCC,2009-07-15 23:00,ZHCC 152300Z AUTO 14002KT 1 1/4SM 25/24 A2962 RMK T02500240 IEM_DS3505
ZHCC,2009-07-16 00:00,ZHCC 160000Z AUTO 16006KT 2 1/2SM 28/24 A2962 RMK SLP018 T02760242 57005 IEM_DS3505
ZHCC,2009-07-16 01:00,ZHCC 160100Z AUTO 14004KT 1SM 26/25 A2962 RMK T02600250 IEM_DS3505
ZHCC,2009-07-16 02:00,ZHCC 160200Z AUTO 15006KT 1SM 27/26 A2959 RMK T02700260 IEM_DS3505
ZHCC,2009-07-16 03:00,ZHCC 160300Z AUTO 16004KT 3SM 30/26 A2959 RMK SLP011 T02960256 57007 IEM_DS3505
ZHCC,2009-07-16 04:00,ZHCC 160400Z AUTO 16008KT 1 1/4SM 30/28 A2956 RMK T03000280 IEM_DS3505
ZHCC,2009-07-16 05:00,ZHCC 160500Z AUTO 17006KT 1SM 30/28 A2956 RMK T03000280 IEM_DS3505
ZHCC,2009-07-16 06:00,ZHCC 160600Z AUTO 16008KT 3SM 33/26 A2953 RMK SLP985 T03330256 57025 IEM_DS3505
ZHCC,2009-07-16 07:00,ZHCC 160700Z AUTO 20008KT 1 1/2SM 32/28 A2950 RMK T03200280 IEM_DS3505
ZHCC,2009-07-16 08:00,ZHCC 160800Z AUTO 19008KT 1 1/2SM 32/28 A2950 RMK T03200280 IEM_DS3505
ZHCC,2009-07-16 09:00,ZHCC 160900Z AUTO 16008KT 3SM 33/26 A2950 RMK SLP977 T03340259 57008 IEM_DS3505
ZHCC,2009-07-16 10:00,ZHCC 161000Z AUTO 17006KT 1 1/4SM 32/29 A2950 RMK T03200290 IEM_DS3505
ZHCC,2009-07-16 11:00,ZHCC 161100Z AUTO 14004KT 1 1/4SM 31/28 A2950 RMK T03100280 IEM_DS3505
ZHCC,2009-07-16 12:00,ZHCC 161200Z AUTO 11006KT 2 1/2SM 32/27 A2950 RMK SLP981 T03210271 52004 IEM_DS3505
ZHCC,2009-07-16 13:00,ZHCC 161300Z AUTO 16006KT 2SM 29/27 A2950 RMK T02900270 IEM_DS3505
ZHCC,2009-07-16 14:00,ZHCC 161400Z AUTO 17006KT 2SM 29/28 A2953 RMK T02900280 IEM_DS3505
ZHCC,2009-07-16 15:00,ZHCC 161500Z AUTO 14004KT 2 1/2SM 30/27 A2950 RMK SLP982 T03020270 52001 IEM_DS3505
ZHCC,2009-07-16 16:00,ZHCC 161600Z AUTO 18006KT 1 1/2SM 28/27 A2950 RMK T02800270 IEM_DS3505
ZHCC,2009-07-16 17:00,ZHCC 161700Z AUTO 19004KT 1 1/4SM 28/27 A2950 RMK T02800270 IEM_DS3505
ZHCC,2009-07-16 18:00,ZHCC 161800Z AUTO 16004KT 2 1/2SM 30/25 A2947 RMK SLP966 T02960249 57015 IEM_DS3505
ZHCC,2009-07-16 19:00,ZHCC 161900Z AUTO 19006KT 1 1/2SM 27/26 A2947 RMK T02700260 IEM_DS3505
ZHCC,2009-07-16 20:00,ZHCC 162000Z AUTO 19006KT 2SM 27/26 A2947 RMK T02700260 IEM_DS3505
ZHCC,2009-07-16 21:00,ZHCC 162100Z AUTO 09004KT 3SM 28/25 A2947 RMK SLP968 T02800254 52002 IEM_DS3505
ZHCC,2009-07-16 22:00,ZHCC 162200Z AUTO 18006KT 1SM 26/25 A2947 RMK T02600250 IEM_DS3505
ZHCC,2009-07-16 23:00,ZHCC 162300Z AUTO 18006KT 1 1/4SM 27/26 A2947 RMK T02700260 IEM_DS3505
ZHCC,2009-07-17 00:00,ZHCC 170000Z AUTO 16006KT 2 1/2SM 30/25 A2947 RMK SLP967 T02990252 57001 IEM_DS3505
ZHCC,2009-07-17 01:00,ZHCC 170100Z AUTO 19010KT 1 1/4SM 29/27 A2947 RMK T02900270 IEM_DS3505
ZHCC,2009-07-17 02:00,ZHCC 170200Z AUTO 20010KT 2SM 30/27 A2947 RMK T03000270 IEM_DS3505
ZHCC,2009-07-17 03:00,ZHCC 170300Z AUTO 20006KT 6SM 33/26 A2947 RMK SLP963 T03300255 57004 IEM_DS3505
ZHCC,2009-07-17 04:00,ZHCC 170400Z AUTO 21010KT 2SM 32/27 A2944 RMK T03200270 IEM_DS3505
ZHCC,2009-07-17 05:00,ZHCC 170500Z AUTO 20008KT 2SM 32/28 A2944 RMK T03200280 IEM_DS3505
ZHCC,2009-07-17 06:00,ZHCC 170600Z AUTO 20006KT 6SM 35/26 A2944 RMK SLP956 T03460260 57007 IEM_DS3505
ZHCC,2009-07-17 07:00,ZHCC 170700Z AUTO 21010KT 3SM 33/28 A2944 RMK T03300280 IEM_DS3505
ZHCC,2009-07-17 08:00,ZHCC 170800Z AUTO 22012KT 3SM 33/27 A2944 RMK T03300270 IEM_DS3505
ZHCC,2009-07-17 09:00,ZHCC 170900Z AUTO 16004KT 6SM 34/26 A2944 RMK SLP956 T03400260 54000 IEM_DS3505
ZHCC,2009-07-17 10:00,ZHCC 171000Z AUTO 22006KT 2 1/2SM 32/27 A2944 RMK T03200270 IEM_DS3505
ZHCC,2009-07-17 11:00,ZHCC 171100Z AUTO 26002KT 2 1/2SM 31/27 A2947 RMK T03100270 IEM_DS3505
ZHCC,2009-07-17 12:00,ZHCC 171200Z AUTO 27002KT 5SM 30/26 A2950 RMK 60039 SLP975 T02960260 52018 IEM_DS3505
ZHCC,2009-07-17 13:00,ZHCC 171300Z AUTO 21004KT 2SM 29/27 A2950 RMK T02900270 IEM_DS3505
ZHCC,2009-07-17 14:00,ZHCC 171400Z AUTO 1 1/4SM 29/27 A2950 RMK T02900270 IEM_DS3505
ZHCC,2009-07-17 15:00,ZHCC 171500Z AUTO 07004KT 4SM 30/27 A2950 RMK SLP983 T02980270 52009 IEM_DS3505
ZHCC,2009-07-17 16:00,ZHCC 171600Z AUTO 04006KT 1SM 28/27 A2950 RMK T02800270 IEM_DS3505
ZHCC,2009-07-17 17:00,ZHCC 171700Z AUTO 04010KT 1SM 26/25 A2953 RMK T02600250 IEM_DS3505
ZHCC,2009-07-17 18:00,ZHCC 171800Z AUTO 07002KT 2 1/2SM 25/23 A2953 RMK SLP994 T02540231 52010 IEM_DS3505
ZHCC,2009-07-17 19:00,ZHCC 171900Z AUTO 03010KT A2953 RMK IEM_DS3505
ZHCC,2009-07-17 20:00,ZHCC 172000Z AUTO 04008KT 23/21 A2956 RMK T02300210 IEM_DS3505
ZHCC,2009-07-17 21:00,ZHCC 172100Z AUTO 07004KT 3SM 24/20 A2959 RMK 70039 SLP014 T02370202 52019 IEM_DS3505
ZHCC,2009-07-17 22:00,ZHCC 172200Z AUTO 03006KT 2 1/2SM 23/21 A2959 RMK T02300210 IEM_DS3505
ZHCC,2009-07-17 23:00,ZHCC 172300Z AUTO 04004KT 2SM 23/21 A2962 RMK T02300210 IEM_DS3505
ZHCC,2009-07-18 00:00,ZHCC 180000Z AUTO 04004KT 3SM 24/20 A2965 RMK 70039 SLP032 T02420201 52017 IEM_DS3505
ZHCC,2009-07-18 01:00,ZHCC 180100Z AUTO 04008KT 2SM 24/21 A2965 RMK T02400210 IEM_DS3505
ZHCC,2009-07-18 02:00,ZHCC 180200Z AUTO 04010KT 2 1/2SM 25/22 A2965 RMK T02500220 IEM_DS3505
ZHCC,2009-07-18 03:00,ZHCC 180300Z AUTO 07004KT 4SM 27/21 A2965 RMK SLP039 T02660207 52008 IEM_DS3505
ZHCC,2009-07-18 04:00,ZHCC 180400Z AUTO 02006KT 2 1/2SM 26/22 A2965 RMK T02600220 IEM_DS3505
ZHCC,2009-07-18 05:00,ZHCC 180500Z AUTO 04006KT 2 1/2SM 27/23 A2965 RMK T02700230 IEM_DS3505
ZHCC,2009-07-18 06:00,ZHCC 180600Z AUTO 09006KT 10SM 29/22 A2965 RMK SLP029 T02920219 57010 IEM_DS3505
ZHCC,2009-07-18 07:00,ZHCC 180700Z AUTO 06006KT 2 1/2SM 28/23 A2962 RMK T02800230 IEM_DS3505
ZHCC,2009-07-18 09:00,ZHCC 180900Z AUTO 07006KT 7SM 30/23 A2962 RMK SLP023 T03000230 57007 IEM_DS3505
ZHCC,2009-07-18 10:00,ZHCC 181000Z AUTO 08004KT 3SM 28/24 A2962 RMK T02800240 IEM_DS3505
ZHCC,2009-07-18 11:00,ZHCC 181100Z AUTO 08004KT 2 1/2SM 27/24 A2965 RMK T02700240 IEM_DS3505
ZHCC,2009-07-18 12:00,ZHCC 181200Z AUTO 09004KT 6SM 28/23 A2965 RMK SLP033 T02780230 52010 IEM_DS3505
ZHCC,2009-07-18 13:00,ZHCC 181300Z AUTO 2SM 26/24 A2965 RMK T02600240 IEM_DS3505
ZHCC,2009-07-18 14:00,ZHCC 181400Z AUTO 36004KT 2SM 26/23 A2968 RMK T02600230 IEM_DS3505
ZHCC,2009-07-18 15:00,ZHCC 181500Z AUTO 07004KT 5SM 27/23 A2968 RMK SLP041 T02690234 52008 IEM_DS3505
ZHCC,2009-07-18 16:00,ZHCC 181600Z AUTO 00000KT 1 1/4SM 24/23 A2968 RMK T02400230 IEM_DS3505
ZHCC,2009-07-18 17:00,ZHCC 181700Z AUTO 35002KT 1 1/4SM 24/23 A2968 RMK T02400230 IEM_DS3505
ZHCC,2009-07-18 18:00,ZHCC 181800Z AUTO 07002KT 4SM 26/23 A2968 RMK SLP041 T02580233 52001 IEM_DS3505
ZHCC,2009-07-18 19:00,ZHCC 181900Z AUTO 01002KT 1SM 24/23 A2965 RMK T02400230 IEM_DS3505
ZHCC,2009-07-18 20:00,ZHCC 182000Z AUTO 00000KT 1SM 23/23 A2965 RMK T02300230 IEM_DS3505
ZHCC,2009-07-18 21:00,ZHCC 182100Z AUTO 07002KT 2 1/2SM 25/23 A2965 RMK SLP039 T02470229 57003 IEM_DS3505
ZHCC,2009-07-18 22:00,ZHCC 182200Z AUTO 00000KT 1/2SM 23/22 A2968 RMK T02300220 IEM_DS3505
ZHCC,2009-07-18 23:00,ZHCC 182300Z AUTO 00000KT 1SM 24/23 A2968 RMK T02400230 IEM_DS3505
ZHCC,2009-07-19 00:00,ZHCC 190000Z AUTO 14004KT 2SM 26/23 A2971 RMK SLP051 T02610226 52012 IEM_DS3505
ZHCC,2009-07-19 01:00,ZHCC 190100Z AUTO 1 1/4SM 26/25 A2971 RMK T02600250 IEM_DS3505
ZHCC,2009-07-19 02:00,ZHCC 190200Z AUTO 1 1/2SM 27/26 A2971 RMK T02700260 IEM_DS3505
ZHCC,2009-07-19 03:00,ZHCC 190300Z AUTO 09004KT 3SM 30/23 A2968 RMK SLP045 T03000230 57005 IEM_DS3505
ZHCC,2009-07-19 04:00,ZHCC 190400Z AUTO 1 1/2SM 29/24 A2968 RMK T02900240 IEM_DS3505
ZHCC,2009-07-19 05:00,ZHCC 190500Z AUTO 13004KT 1 1/2SM 30/25 A2968 RMK T03000250 IEM_DS3505
ZHCC,2009-07-19 06:00,ZHCC 190600Z AUTO 16004KT 4SM 32/24 A2965 RMK SLP030 T03240239 57015 IEM_DS3505
ZHCC,2009-07-19 07:00,ZHCC 190700Z AUTO 13006KT 2SM 30/25 A2965 RMK T03000250 IEM_DS3505
ZHCC,2009-07-19 08:00,ZHCC 190800Z AUTO 18004KT 2SM 31/26 A2962 RMK T03100260 IEM_DS3505
ZHCC,2009-07-19 09:00,ZHCC 190900Z AUTO 11006KT 4SM 32/24 A2962 RMK SLP017 T03160242 57013 IEM_DS3505
ZHCC,2009-07-19 10:00,ZHCC 191000Z AUTO 16004KT 2SM 30/26 A2962 RMK T03000260 IEM_DS3505
ZHCC,2009-07-19 11:00,ZHCC 191100Z AUTO 16004KT 1 1/2SM 29/26 A2962 RMK T02900260 IEM_DS3505
ZHCC,2009-07-19 12:00,ZHCC 191200Z AUTO 14004KT 3SM 30/25 A2962 RMK SLP020 T03020248 52003 IEM_DS3505
ZHCC,2009-07-19 13:00,ZHCC 191300Z AUTO 17004KT 1SM 28/26 A2965 RMK T02800260 IEM_DS3505
ZHCC,2009-07-19 14:00,ZHCC 191400Z AUTO 16002KT 1SM 28/26 A2965 RMK T02800260 IEM_DS3505
ZHCC,2009-07-19 15:00,ZHCC 191500Z AUTO 11002KT 3SM 29/26 A2965 RMK SLP028 T02910255 52009 IEM_DS3505
ZHCC,2009-07-19 16:00,ZHCC 191600Z AUTO 17006KT 1SM 27/26 A2962 RMK T02700260 IEM_DS3505
ZHCC,2009-07-19 17:00,ZHCC 191700Z AUTO 17006KT 1SM 27/26 A2962 RMK T02700260 IEM_DS3505
ZHCC,2009-07-19 18:00,ZHCC 191800Z AUTO 16006KT 2 1/2SM 29/26 A2962 RMK SLP015 T02920264 57013 IEM_DS3505
ZHCC,2009-07-19 19:00,ZHCC 191900Z AUTO 00000KT 3/8SM 28/27 A2959 RMK T02800270 IEM_DS3505
ZHCC,2009-07-19 20:00,ZHCC 192000Z AUTO 17002KT 3/8SM 28/27 A2959 RMK T02800270 IEM_DS3505
ZHCC,2009-07-19 21:00,ZHCC 192100Z AUTO 14002KT 2SM 28/26 A2956 RMK SLP006 T02850265 57009 IEM_DS3505
ZHCC,2009-07-19 22:00,ZHCC 192200Z AUTO 18004KT 3/8SM 28/27 A2959 RMK T02800270 IEM_DS3505
ZHCC,2009-07-19 23:00,ZHCC 192300Z AUTO 18004KT 3/8SM 28/27 A2962 RMK T02800270 IEM_DS3505
ZHCC,2009-07-20 00:00,ZHCC 200000Z AUTO 20002KT 1 1/4SM 29/27 A2962 RMK SLP018 T02940266 52012 IEM_DS3505
ZHCC,2009-07-20 01:00,ZHCC 200100Z AUTO 20006KT 1/2SM 29/28 A2962 RMK T02900280 IEM_DS3505
ZHCC,2009-07-20 02:00,ZHCC 200200Z AUTO 20010KT 1SM 30/29 A2962 RMK T03000290 IEM_DS3505
ZHCC,2009-07-20 03:00,ZHCC 200300Z AUTO 18002KT 2SM 34/27 A2959 RMK SLP011 T03380273 57006 IEM_DS3505
ZHCC,2009-07-20 04:00,ZHCC 200400Z AUTO 21010KT 1SM 32/29 A2959 RMK T03200290 IEM_DS3505
ZHCC,2009-07-20 05:00,ZHCC 200500Z AUTO 20008KT 1 1/4SM 33/29 A2959 RMK T03300290 IEM_DS3505
ZHCC,2009-07-20 06:00,ZHCC 200600Z AUTO 20004KT 4SM 35/26 A2959 RMK SLP003 T03470261 57008 IEM_DS3505
ZHCC,2009-07-20 07:00,ZHCC 200700Z AUTO 20008KT 1 1/4SM 33/28 A2956 RMK T03300280 IEM_DS3505
ZHCC,2009-07-20 09:00,ZHCC 200900Z AUTO 04006KT 5SM 34/24 A2956 RMK SLP999 T03370240 57004 IEM_DS3505
ZHCC,2009-07-20 10:00,ZHCC 201000Z AUTO 19006KT 3SM 32/27 A2956 RMK T03200270 IEM_DS3505
ZHCC,2009-07-20 11:00,ZHCC 201100Z AUTO 22006KT 3SM 31/27 A2956 RMK T03100270 IEM_DS3505
ZHCC,2009-07-20 12:00,ZHCC 201200Z AUTO 16004KT 5SM 32/26 A2959 RMK SLP004 T03160257 52004 IEM_DS3505
ZHCC,2009-07-20 13:00,ZHCC 201300Z AUTO 20004KT 3SM 29/26 A2959 RMK T02900260 IEM_DS3505
ZHCC,2009-07-20 14:00,ZHCC 201400Z AUTO 21006KT 3SM 29/27 A2962 RMK T02900270 IEM_DS3505
ZHCC,2009-07-20 15:00,ZHCC 201500Z AUTO 07002KT 4SM 30/26 A2962 RMK SLP015 T03050260 52012 IEM_DS3505
ZHCC,2009-07-20 16:00,ZHCC 201600Z AUTO 21006KT 3SM 29/26 A2959 RMK T02900260 IEM_DS3505
ZHCC,2009-07-20 17:00,ZHCC 201700Z AUTO 21006KT 3SM 29/26 A2959 RMK T02900260 IEM_DS3505
ZHCC,2009-07-20 18:00,ZHCC 201800Z AUTO 32004KT 2 1/2SM 29/26 A2959 RMK SLP011 T02890255 57004 IEM_DS3505
ZHCC,2009-07-20 19:00,ZHCC 201900Z AUTO 30004KT 1 1/2SM 28/26 A2959 RMK T02800260 IEM_DS3505
ZHCC,2009-07-20 20:00,ZHCC 202000Z AUTO 35002KT 1SM 27/26 A2959 RMK T02700260 IEM_DS3505
ZHCC,2009-07-20 21:00,ZHCC 202100Z AUTO 22002KT 2SM 28/25 A2959 RMK SLP018 T02790251 52006 IEM_DS3505
ZHCC,2009-07-20 22:00,ZHCC 202200Z AUTO 03004KT 1SM 27/26 A2962 RMK T02700260 IEM_DS3505
ZHCC,2009-07-20 23:00,ZHCC 202300Z AUTO 36004KT 1SM 27/26 A2962 RMK T02700260 IEM_DS3505
ZHCC,2009-07-21 00:00,ZHCC 210000Z AUTO 32002KT 2SM 30/26 A2965 RMK SLP029 T02950257 52011 IEM_DS3505
ZHCC,2009-07-21 01:00,ZHCC 210100Z AUTO 01004KT 1SM 29/28 A2962 RMK T02900280 IEM_DS3505
ZHCC,2009-07-21 02:00,ZHCC 210200Z AUTO 02010KT 1 1/4SM 31/27 A2965 RMK T03100270 IEM_DS3505
ZHCC,2009-07-21 03:00,ZHCC 210300Z AUTO 04006KT 3SM 33/25 A2965 RMK SLP028 T03270247 57001 IEM_DS3505
ZHCC,2009-07-21 04:00,ZHCC 210400Z AUTO 04010KT 2SM 31/26 A2962 RMK T03100260 IEM_DS3505
ZHCC,2009-07-21 05:00,ZHCC 210500Z AUTO 03008KT 2 1/2SM 32/27 A2962 RMK T03200270 IEM_DS3505
ZHCC,2009-07-21 06:00,ZHCC 210600Z AUTO 07006KT 6SM 34/24 A2962 RMK SLP019 T03400243 57009 IEM_DS3505
ZHCC,2009-07-21 07:00,ZHCC 210700Z AUTO 07008KT 2 1/2SM 33/27 A2959 RMK T03300270 IEM_DS3505
ZHCC,2009-07-21 08:00,ZHCC 210800Z AUTO 08010KT 2SM 32/27 A2959 RMK T03200270 IEM_DS3505
ZHCC,2009-07-21 09:00,ZHCC 210900Z AUTO 02008KT 6SM 33/23 A2959 RMK SLP008 T03260233 57011 IEM_DS3505
ZHCC,2009-07-21 10:00,ZHCC 211000Z AUTO 08008KT 2SM 31/27 A2956 RMK T03100270 IEM_DS3505
ZHCC,2009-07-21 11:00,ZHCC 211100Z AUTO 03006KT 1 1/4SM 30/26 A2959 RMK T03000260 IEM_DS3505
ZHCC,2009-07-21 12:00,ZHCC 211200Z AUTO 04004KT 5SM 30/24 A2959 RMK SLP013 T03040243 52005 IEM_DS3505
ZHCC,2009-07-21 13:00,ZHCC 211300Z AUTO 04004KT 1 1/4SM 29/26 A2962 RMK T02900260 IEM_DS3505
ZHCC,2009-07-21 14:00,ZHCC 211400Z AUTO 04004KT 1 1/4SM 28/26 A2962 RMK T02800260 IEM_DS3505
ZHCC,2009-07-21 15:00,ZHCC 211500Z AUTO 09004KT 3SM 29/26 A2965 RMK SLP029 T02880256 52016 IEM_DS3505
ZHCC,2009-07-21 16:00,ZHCC 211600Z AUTO 06006KT 1SM 28/26 A2962 RMK T02800260 IEM_DS3505
ZHCC,2009-07-21 17:00,ZHCC 211700Z AUTO 08006KT 1SM 27/26 A2962 RMK T02700260 IEM_DS3505
ZHCC,2009-07-21 18:00,ZHCC 211800Z AUTO 07004KT 2SM 28/25 A2959 RMK SLP016 T02790253 57013 IEM_DS3505
ZHCC,2009-07-21 19:00,ZHCC 211900Z AUTO 11006KT 1SM 27/26 A2959 RMK T02700260 IEM_DS3505
ZHCC,2009-07-21 20:00,ZHCC 212000Z AUTO 11002KT 1SM 26/25 A2959 RMK T02600250 IEM_DS3505
ZHCC,2009-07-21 21:00,ZHCC 212100Z AUTO 14002KT 2 1/2SM 27/25 A2956 RMK 70000 SLP006 T02720247 57010 IEM_DS3505
ZHCC,2009-07-21 22:00,ZHCC 212200Z AUTO 03004KT 1SM 26/25 A2956 RMK T02600250 IEM_DS3505
ZHCC,2009-07-21 23:00,ZHCC 212300Z AUTO 04006KT 1SM 26/25 A2959 RMK T02600250 IEM_DS3505
ZHCC,2009-07-22 00:00,ZHCC 220000Z AUTO 36002KT 1 1/4SM 27/25 A2959 RMK 60000 70001 SLP012 T02730249 52005 IEM_DS3505
ZHCC,2009-07-22 01:00,ZHCC 220100Z AUTO 04006KT 1/2SM 26/25 A2959 RMK T02600250 IEM_DS3505
ZHCC,2009-07-22 02:00,ZHCC 220200Z AUTO 01006KT 1/2SM 26/25 A2959 RMK T02600250 IEM_DS3505
ZHCC,2009-07-22 03:00,ZHCC 220300Z AUTO 04002KT 2SM 27/25 A2959 RMK SLP010 T02740254 57002 IEM_DS3505
ZHCC,2009-07-22 04:00,ZHCC 220400Z AUTO 10004KT 1SM 26/25 A2959 RMK T02600250 IEM_DS3505
ZHCC,2009-07-22 05:00,ZHCC 220500Z AUTO 00000KT 1 1/2SM 25/24 A2959 RMK T02500240 IEM_DS3505
ZHCC,2009-07-22 06:00,ZHCC 220600Z AUTO 11006KT 6SM 27/22 A2956 RMK 60024 SLP006 T02740224 57004 IEM_DS3505
ZHCC,2009-07-22 07:00,ZHCC 220700Z AUTO 04004KT 2 1/2SM 25/24 A2956 RMK T02500240 IEM_DS3505
ZHCC,2009-07-22 08:00,ZHCC 220800Z AUTO 01002KT 4SM 25/24 A2953 RMK T02500240 IEM_DS3505
ZHCC,2009-07-22 09:00,ZHCC 220900Z AUTO 29002KT 6SM 27/23 A2953 RMK SLP996 T02720226 57010 IEM_DS3505
ZHCC,2009-07-22 10:00,ZHCC 221000Z AUTO 05002KT 4SM 25/24 A2953 RMK T02500240 IEM_DS3505
ZHCC,2009-07-22 11:00,ZHCC 221100Z AUTO 03004KT 3SM 25/24 A2953 RMK T02500240 IEM_DS3505
ZHCC,2009-07-22 12:00,ZHCC 221200Z AUTO 32006KT 6SM 26/22 A2956 RMK 60001 SLP001 T02610224 52005 IEM_DS3505
ZHCC,2009-07-22 13:00,ZHCC 221300Z AUTO 34004KT 2SM 25/24 A2956 RMK T02500240 IEM_DS3505
ZHCC,2009-07-22 14:00,ZHCC 221400Z AUTO 35006KT 1 1/4SM 24/23 A2956 RMK T02400230 IEM_DS3505
ZHCC,2009-07-22 15:00,ZHCC 221500Z AUTO 29008KT 6SM 25/22 A2956 RMK SLP004 T02470218 52002 IEM_DS3505
ZHCC,2009-07-22 16:00,ZHCC 221600Z AUTO 32006KT 1 1/2SM 24/23 A2953 RMK T02400230 IEM_DS3505
ZHCC,2009-07-22 17:00,ZHCC 221700Z AUTO 32004KT 1 1/4SM 24/23 A2953 RMK T02400230 IEM_DS3505
ZHCC,2009-07-22 18:00,ZHCC 221800Z AUTO 25002KT 6SM 24/22 A2953 RMK 60000 SLP994 T02430216 57010 IEM_DS3505
ZHCC,2009-07-22 19:00,ZHCC 221900Z AUTO 00000KT 1SM 23/22 A2950 RMK T02300220 IEM_DS3505
ZHCC,2009-07-22 20:00,ZHCC 222000Z AUTO 00000KT 1SM 23/22 A2950 RMK T02300220 IEM_DS3505
ZHCC,2009-07-22 21:00,ZHCC 222100Z AUTO 00000KT 6SM 23/21 A2950 RMK 70027 SLP988 T02280211 57006 IEM_DS3505
ZHCC,2009-07-22 22:00,ZHCC 222200Z AUTO 00000KT 1SM 23/22 A2950 RMK T02300220 IEM_DS3505
ZHCC,2009-07-22 23:00,ZHCC 222300Z AUTO 00000KT 1 1/4SM 23/23 A2950 RMK T02300230 IEM_DS3505
ZHCC,2009-07-23 00:00,ZHCC 230000Z AUTO 27006KT 5SM 27/20 A2950 RMK 70026 SLP987 T02680204 54000 IEM_DS3505
ZHCC,2009-07-23 01:00,ZHCC 230100Z AUTO 00000KT 2SM 26/25 A2950 RMK T02600250 IEM_DS3505
ZHCC,2009-07-23 02:00,ZHCC 230200Z AUTO 00000KT 2SM 28/25 A2950 RMK T02800250 IEM_DS3505
ZHCC,2009-07-23 03:00,ZHCC 230300Z AUTO 29006KT 6SM 31/20 A2950 RMK SLP985 T03090199 57002 IEM_DS3505
ZHCC,2009-07-23 04:00,ZHCC 230400Z AUTO 2SM 31/25 A2953 RMK T03100250 IEM_DS3505
ZHCC,2009-07-23 05:00,ZHCC 230500Z AUTO 14006KT 2SM 31/25 A2953 RMK T03100250 IEM_DS3505
ZHCC,2009-07-23 06:00,ZHCC 230600Z AUTO 02002KT 6SM 34/19 A2953 RMK SLP985 T03450193 52001 IEM_DS3505
ZHCC,2009-07-23 07:00,ZHCC 230700Z AUTO 12004KT 2SM 31/25 A2950 RMK T03100250 IEM_DS3505
ZHCC,2009-07-23 08:00,ZHCC 230800Z AUTO 14004KT 2SM 31/26 A2950 RMK T03100260 IEM_DS3505
ZHCC,2009-07-23 09:00,ZHCC 230900Z AUTO 14004KT 7SM 33/24 A2947 RMK SLP972 T03280243 57013 IEM_DS3505
ZHCC,2009-07-23 11:00,ZHCC 231100Z AUTO 17002KT 1 1/4SM 29/25 A2950 RMK T02900250 IEM_DS3505
ZHCC,2009-07-23 12:00,ZHCC 231200Z AUTO 14004KT 5SM 30/24 A2950 RMK SLP985 T02970243 52013 IEM_DS3505
ZHCC,2009-07-23 13:00,ZHCC 231300Z AUTO 16004KT 1SM 27/25 A2953 RMK T02700250 IEM_DS3505
ZHCC,2009-07-23 14:00,ZHCC 231400Z AUTO 17004KT 1SM 26/25 A2953 RMK T02600250 IEM_DS3505
ZHCC,2009-07-23 15:00,ZHCC 231500Z AUTO 11004KT 3SM 28/24 A2953 RMK SLP987 T02770243 52002 IEM_DS3505
ZHCC,2009-07-23 16:00,ZHCC 231600Z AUTO 15006KT 1SM 25/24 A2953 RMK T02500240 IEM_DS3505
ZHCC,2009-07-23 17:00,ZHCC 231700Z AUTO 14006KT 1SM 25/24 A2953 RMK T02500240 IEM_DS3505
ZHCC,2009-07-23 18:00,ZHCC 231800Z AUTO 11006KT 1 1/4SM 26/24 A2953 RMK SLP989 T02620242 52002 IEM_DS3505
ZHCC,2009-07-23 19:00,ZHCC 231900Z AUTO 13006KT 1SM 24/23 A2953 RMK T02400230 IEM_DS3505
ZHCC,2009-07-23 20:00,ZHCC 232000Z AUTO 11008KT 1/2SM 24/23 A2953 RMK T02400230 IEM_DS3505
ZHCC,2009-07-23 21:00,ZHCC 232100Z AUTO 07008KT 1 1/4SM 24/23 A2956 RMK SLP010 T02420226 52020 IEM_DS3505
ZHCC,2009-07-23 22:00,ZHCC 232200Z AUTO 07014KT 1/2SM 22/21 A2962 RMK T02200210 IEM_DS3505
ZHCC,2009-07-23 23:00,ZHCC 232300Z AUTO 12008KT 1 1/4SM 21/21 A2959 RMK T02100210 IEM_DS3505
ZHCC,2009-07-24 00:00,ZHCC 240000Z AUTO 16006KT 6SM 24/20 A2959 RMK 60004 70004 SLP015 T02440195 52005 IEM_DS3505
ZHCC,2009-07-24 01:00,ZHCC 240100Z AUTO 21006KT 4SM 24/23 A2956 RMK T02400230 IEM_DS3505
ZHCC,2009-07-24 02:00,ZHCC 240200Z AUTO 22006KT 4SM 26/23 A2959 RMK T02600230 IEM_DS3505
ZHCC,2009-07-24 03:00,ZHCC 240300Z AUTO 16004KT 7SM 29/20 A2959 RMK SLP010 T02930196 57005 IEM_DS3505
ZHCC,2009-07-24 04:00,ZHCC 240400Z AUTO 4SM 29/23 A2959 RMK T02900230 IEM_DS3505
ZHCC,2009-07-24 05:00,ZHCC 240500Z AUTO 12006KT 4SM 29/23 A2959 RMK T02900230 IEM_DS3505
ZHCC,2009-07-24 06:00,ZHCC 240600Z AUTO 09008KT 9SM 30/21 A2959 RMK SLP009 T02960213 57001 IEM_DS3505
ZHCC,2009-07-24 07:00,ZHCC 240700Z AUTO 11008KT 4SM 28/23 A2959 RMK T02800230 IEM_DS3505
ZHCC,2009-07-24 08:00,ZHCC 240800Z AUTO 11008KT 4SM 29/23 A2959 RMK T02900230 IEM_DS3505
ZHCC,2009-07-24 09:00,ZHCC 240900Z AUTO 09008KT 7SM 28/21 A2959 RMK SLP017 T02840214 52007 IEM_DS3505
ZHCC,2009-07-24 10:00,ZHCC 241000Z AUTO 09008KT 3SM 27/22 A2959 RMK T02700220 IEM_DS3505
ZHCC,2009-07-24 11:00,ZHCC 241100Z AUTO 08008KT 2 1/2SM 27/23 A2962 RMK T02700230 IEM_DS3505
ZHCC,2009-07-24 12:00,ZHCC 241200Z AUTO 07004KT 5SM 26/21 A2962 RMK SLP029 T02650210 52012 IEM_DS3505
ZHCC,2009-07-24 13:00,ZHCC 241300Z AUTO 05004KT 2SM 25/22 A2965 RMK T02500220 IEM_DS3505
ZHCC,2009-07-24 14:00,ZHCC 241400Z AUTO 06006KT 1 1/4SM 25/22 A2965 RMK T02500220 IEM_DS3505
ZHCC,2009-07-24 15:00,ZHCC 241500Z AUTO 07004KT 3SM 26/21 A2968 RMK SLP044 T02550210 52015 IEM_DS3505
ZHCC,2009-07-24 16:00,ZHCC 241600Z AUTO 04006KT 1 1/4SM 24/22 A2968 RMK T02400220 IEM_DS3505
ZHCC,2009-07-24 17:00,ZHCC 241700Z AUTO 04008KT 1SM 24/22 A2968 RMK T02400220 IEM_DS3505
ZHCC,2009-07-24 18:00,ZHCC 241800Z AUTO 04008KT 3SM 24/21 A2971 RMK SLP051 T02440209 52007 IEM_DS3505
ZHCC,2009-07-24 19:00,ZHCC 241900Z AUTO 05008KT 1SM 23/22 A2968 RMK T02300220 IEM_DS3505
ZHCC,2009-07-24 20:00,ZHCC 242000Z AUTO 05008KT 1SM 23/22 A2968 RMK T02300220 IEM_DS3505
ZHCC,2009-07-24 21:00,ZHCC 242100Z AUTO 04006KT 3SM 24/20 A2971 RMK 70004 SLP054 T02410204 52003 IEM_DS3505
ZHCC,2009-07-24 22:00,ZHCC 242200Z AUTO 03006KT 1SM 23/21 A2971 RMK T02300210 IEM_DS3505
ZHCC,2009-07-24 23:00,ZHCC 242300Z AUTO 04008KT 1SM 23/21 A2971 RMK T02300210 IEM_DS3505
ZHCC,2009-07-25 00:00,ZHCC 250000Z AUTO 07006KT 2SM 24/20 A2974 RMK SLP066 T02420203 52011 IEM_DS3505
ZHCC,2009-07-25 01:00,ZHCC 250100Z AUTO 05010KT 1SM 24/21 A2974 RMK T02400210 IEM_DS3505
ZHCC,2009-07-25 02:00,ZHCC 250200Z AUTO 05010KT 1SM 25/22 A2974 RMK T02500220 IEM_DS3505
ZHCC,2009-07-25 03:00,ZHCC 250300Z AUTO 04008KT 4SM 26/20 A2974 RMK SLP069 T02610197 52003 IEM_DS3505
ZHCC,2009-07-25 04:00,ZHCC 250400Z AUTO 03010KT 1 1/2SM 25/21 A2974 RMK T02500210 IEM_DS3505
ZHCC,2009-07-25 05:00,ZHCC 250500Z AUTO 05010KT 2 1/2SM 25/21 A2977 RMK T02500210 IEM_DS3505
ZHCC,2009-07-25 06:00,ZHCC 250600Z AUTO 07008KT 6SM 26/18 A2974 RMK SLP069 T02640185 54000 IEM_DS3505
ZHCC,2009-07-25 07:00,ZHCC 250700Z AUTO 04008KT 2 1/2SM 25/20 A2974 RMK T02500200 IEM_DS3505
ZHCC,2009-07-25 08:00,ZHCC 250800Z AUTO 06006KT 3SM 26/20 A2974 RMK T02600200 IEM_DS3505
ZHCC,2009-07-25 09:00,ZHCC 250900Z AUTO 07006KT 7SM 27/19 A2974 RMK SLP061 T02680189 57008 IEM_DS3505
ZHCC,2009-07-25 10:00,ZHCC 251000Z AUTO 06004KT 3SM 25/20 A2971 RMK T02500200 IEM_DS3505
ZHCC,2009-07-25 11:00,ZHCC 251100Z AUTO 02004KT 3SM 25/21 A2974 RMK T02500210 IEM_DS3505
ZHCC,2009-07-25 12:00,ZHCC 251200Z AUTO 02004KT 8SM 26/19 A2974 RMK SLP068 T02620191 52007 IEM_DS3505
ZHCC,2009-07-25 13:00,ZHCC 251300Z AUTO 36004KT 2 1/2SM 24/21 A2977 RMK T02400210 IEM_DS3505
ZHCC,2009-07-25 14:00,ZHCC 251400Z AUTO 28004KT 2SM 23/20 A2977 RMK T02300200 IEM_DS3505
ZHCC,2009-07-25 15:00,ZHCC 251500Z AUTO 02002KT 6SM 25/19 A2977 RMK SLP075 T02490191 52007 IEM_DS3505
ZHCC,2009-07-25 16:00,ZHCC 251600Z AUTO 2SM 22/20 A2977 RMK T02200200 IEM_DS3505
ZHCC,2009-07-25 17:00,ZHCC 251700Z AUTO 32002KT 1 1/4SM 21/20 A2977 RMK T02100200 IEM_DS3505
ZHCC,2009-07-25 18:00,ZHCC 251800Z AUTO 00000KT 5SM 22/20 A2977 RMK SLP075 T02190198 54000 IEM_DS3505
ZHCC,2009-07-25 19:00,ZHCC 251900Z AUTO 29002KT 1 1/4SM 21/19 A2977 RMK T02100190 IEM_DS3505
ZHCC,2009-07-25 20:00,ZHCC 252000Z AUTO 28002KT 1SM 21/19 A2977 RMK T02100190 IEM_DS3505
ZHCC,2009-07-25 21:00,ZHCC 252100Z AUTO 22002KT 2 1/2SM 21/20 A2977 RMK SLP076 T02130196 52001 IEM_DS3505
ZHCC,2009-07-25 22:00,ZHCC 252200Z AUTO 29002KT 1 1/4SM 21/20 A2977 RMK T02100200 IEM_DS3505
ZHCC,2009-07-25 23:00,ZHCC 252300Z AUTO 27002KT 1 1/4SM 22/21 A2977 RMK T02200210 IEM_DS3505
ZHCC,2009-07-26 00:00,ZHCC 260000Z AUTO 20002KT 2SM 25/20 A2977 RMK SLP080 T02530203 52004 IEM_DS3505
ZHCC,2009-07-26 01:00,ZHCC 260100Z AUTO 04004KT 2SM 26/21 A2977 RMK T02600210 IEM_DS3505
ZHCC,2009-07-26 02:00,ZHCC 260200Z AUTO 2SM 26/21 A2980 RMK T02600210 IEM_DS3505
ZHCC,2009-07-26 03:00,ZHCC 260300Z AUTO 09006KT 6SM 29/18 A2977 RMK SLP074 T02880180 57005 IEM_DS3505
ZHCC,2009-07-26 04:00,ZHCC 260400Z AUTO 2SM 28/20 A2974 RMK T02800200 IEM_DS3505
ZHCC,2009-07-26 05:00,ZHCC 260500Z AUTO 09004KT 2SM 28/20 A2974 RMK T02800200 IEM_DS3505
ZHCC,2009-07-26 06:00,ZHCC 260600Z AUTO 09006KT 6SM 30/18 A2971 RMK SLP055 T02950177 57019 IEM_DS3505
ZHCC,2009-07-26 07:00,ZHCC 260700Z AUTO 2SM 29/20 A2971 RMK T02900200 IEM_DS3505
ZHCC,2009-07-26 08:00,ZHCC 260800Z AUTO 04004KT 2SM 28/20 A2971 RMK T02800200 IEM_DS3505
ZHCC,2009-07-26 09:00,ZHCC 260900Z AUTO 11006KT 6SM 29/18 A2968 RMK SLP046 T02920177 57009 IEM_DS3505
ZHCC,2009-07-26 10:00,ZHCC 261000Z AUTO 2 1/2SM 28/20 A2968 RMK T02800200 IEM_DS3505
ZHCC,2009-07-26 11:00,ZHCC 261100Z AUTO 2SM 27/22 A2968 RMK T02700220 IEM_DS3505
ZHCC,2009-07-26 12:00,ZHCC 261200Z AUTO 07002KT 6SM 28/18 A2971 RMK SLP051 T02750177 52005 IEM_DS3505
ZHCC,2009-07-26 13:00,ZHCC 261300Z AUTO 00000KT 2SM 25/22 A2971 RMK T02500220 IEM_DS3505
ZHCC,2009-07-26 14:00,ZHCC 261400Z AUTO 06004KT 2SM 26/21 A2971 RMK T02600210 IEM_DS3505
ZHCC,2009-07-26 15:00,ZHCC 261500Z AUTO 07006KT 6SM 26/19 A2971 RMK SLP057 T02630189 52006 IEM_DS3505
ZHCC,2009-07-26 16:00,ZHCC 261600Z AUTO 09004KT 1 1/2SM 24/21 A2971 RMK T02400210 IEM_DS3505
ZHCC,2009-07-26 17:00,ZHCC 261700Z AUTO 12004KT 1 1/4SM 23/21 A2971 RMK T02300210 IEM_DS3505
ZHCC,2009-07-26 18:00,ZHCC 261800Z AUTO 09002KT 6SM 25/20 A2968 RMK SLP048 T02500196 57009 IEM_DS3505
ZHCC,2009-07-26 19:00,ZHCC 261900Z AUTO 00000KT 1SM 23/21 A2968 RMK T02300210 IEM_DS3505
ZHCC,2009-07-26 20:00,ZHCC 262000Z AUTO 00000KT 1SM 22/21 A2968 RMK T02200210 IEM_DS3505
ZHCC,2009-07-26 21:00,ZHCC 262100Z AUTO 16002KT 4SM 24/20 A2968 RMK SLP045 T02390196 57003 IEM_DS3505
ZHCC,2009-07-26 22:00,ZHCC 262200Z AUTO 00000KT 1SM 22/21 A2968 RMK T02200210 IEM_DS3505
ZHCC,2009-07-26 23:00,ZHCC 262300Z AUTO 30002KT 1SM 23/22 A2968 RMK T02300220 IEM_DS3505
ZHCC,2009-07-27 00:00,ZHCC 270000Z AUTO 09002KT 2 1/2SM 26/19 A2968 RMK SLP047 T02550192 52002 IEM_DS3505
ZHCC,2009-07-27 01:00,ZHCC 270100Z AUTO 07002KT 1 1/4SM 25/22 A2968 RMK T02500220 IEM_DS3505
ZHCC,2009-07-27 02:00,ZHCC 270200Z AUTO 16004KT 1 1/4SM 26/21 A2968 RMK T02600210 IEM_DS3505
ZHCC,2009-07-27 03:00,ZHCC 270300Z AUTO 07002KT 4SM 28/20 RMK SLP045 T02790199 57002 IEM_DS3505
ZHCC,2009-07-27 04:00,ZHCC 270400Z AUTO 04004KT 1 1/2SM 27/21 A2968 RMK T02700210 IEM_DS3505
ZHCC,2009-07-27 05:00,ZHCC 270500Z AUTO 04004KT 1 1/2SM 27/20 A2965 RMK T02700200 IEM_DS3505
ZHCC,2009-07-27 06:00,ZHCC 270600Z AUTO 04006KT 6SM 29/19 A2965 RMK SLP031 T02870191 57014 IEM_DS3505
ZHCC,2009-07-27 07:00,ZHCC 270700Z AUTO 02006KT 2SM 28/21 A2962 RMK T02800210 IEM_DS3505
ZHCC,2009-07-27 08:00,ZHCC 270800Z AUTO 08006KT 1 1/4SM 28/22 A2962 RMK T02800220 IEM_DS3505
ZHCC,2009-07-27 09:00,ZHCC 270900Z AUTO 04004KT 6SM 29/19 A2962 RMK SLP024 T02870188 57007 IEM_DS3505
ZHCC,2009-07-27 11:00,ZHCC 271100Z AUTO 02004KT 1 1/4SM 26/22 A2962 RMK T02600220 IEM_DS3505
ZHCC,2009-07-27 12:00,ZHCC 271200Z AUTO 02004KT 3SM 27/19 A2962 RMK SLP024 T02730186 54000 IEM_DS3505
ZHCC,2009-07-27 13:00,ZHCC 271300Z AUTO 04004KT 1 1/4SM 25/22 A2965 RMK T02500220 IEM_DS3505
ZHCC,2009-07-27 14:00,ZHCC 271400Z AUTO 05004KT 1SM 25/22 A2965 RMK T02500220 IEM_DS3505
ZHCC,2009-07-27 15:00,ZHCC 271500Z AUTO 04002KT 3SM 26/20 A2965 RMK SLP038 T02580201 52014 IEM_DS3505
ZHCC,2009-07-27 18:00,ZHCC 271800Z AUTO 00000KT 2 1/2SM 25/21 A2962 RMK SLP026 T02460207 57012 IEM_DS3505
ZHCC,2009-07-27 19:00,ZHCC 271900Z AUTO 00000KT 1/2SM 23/21 A2962 RMK T02300210 IEM_DS3505
ZHCC,2009-07-27 20:00,ZHCC 272000Z AUTO 00000KT 1/2SM 23/22 A2962 RMK T02300220 IEM_DS3505
ZHCC,2009-07-27 21:00,ZHCC 272100Z AUTO 07002KT 2SM 24/20 A2962 RMK SLP031 T02440199 52005 IEM_DS3505
ZHCC,2009-07-27 22:00,ZHCC 272200Z AUTO 33004KT 1SM 22/21 A2965 RMK T02200210 IEM_DS3505
ZHCC,2009-07-27 23:00,ZHCC 272300Z AUTO 32002KT 1SM 22/21 A2965 RMK T02200210 IEM_DS3505
ZHCC,2009-07-28 00:00,ZHCC 280000Z AUTO 25002KT 2SM 25/21 A2965 RMK SLP036 T02520211 52005 IEM_DS3505
ZHCC,2009-07-28 01:00,ZHCC 280100Z AUTO 03004KT 1SM 25/23 A2965 RMK T02500230 IEM_DS3505
ZHCC,2009-07-28 02:00,ZHCC 280200Z AUTO 05004KT 1SM 26/22 A2965 RMK T02600220 IEM_DS3505
ZHCC,2009-07-28 03:00,ZHCC 280300Z AUTO 07002KT 3SM 29/19 A2965 RMK SLP035 T02880194 54000 IEM_DS3505
ZHCC,2009-07-28 04:00,ZHCC 280400Z AUTO 1 1/4SM 28/22 A2965 RMK T02800220 IEM_DS3505
ZHCC,2009-07-28 05:00,ZHCC 280500Z AUTO 08002KT 1 1/4SM 28/22 A2965 RMK T02800220 IEM_DS3505
ZHCC,2009-07-28 06:00,ZHCC 280600Z AUTO 11004KT 3SM 31/20 A2965 RMK SLP025 T03060196 57010 IEM_DS3505
ZHCC,2009-07-28 07:00,ZHCC 280700Z AUTO 12004KT 1 1/4SM 30/23 A2962 RMK T03000230 IEM_DS3505
ZHCC,2009-07-28 08:00,ZHCC 280800Z AUTO 15004KT 1 1/4SM 29/22 A2962 RMK T02900220 IEM_DS3505
ZHCC,2009-07-28 09:00,ZHCC 280900Z AUTO 14006KT 3SM 30/20 A2962 RMK SLP020 T03010198 57005 IEM_DS3505
ZHCC,2009-07-28 10:00,ZHCC 281000Z AUTO 16004KT 1 1/4SM 28/23 A2962 RMK T02800230 IEM_DS3505
ZHCC,2009-07-28 11:00,ZHCC 281100Z AUTO 15004KT 1 1/4SM 27/23 A2962 RMK T02700230 IEM_DS3505
ZHCC,2009-07-28 12:00,ZHCC 281200Z AUTO 14006KT 3SM 28/21 A2965 RMK SLP028 T02780214 52007 IEM_DS3505
ZHCC,2009-07-28 13:00,ZHCC 281300Z AUTO 17004KT 1SM 25/23 A2965 RMK T02500230 IEM_DS3505
ZHCC,2009-07-28 14:00,ZHCC 281400Z AUTO 20004KT 1SM 24/23 A2968 RMK T02400230 IEM_DS3505
ZHCC,2009-07-28 15:00,ZHCC 281500Z AUTO 18004KT 2SM 26/22 A2968 RMK SLP045 T02560219 52017 IEM_DS3505
ZHCC,2009-07-28 16:00,ZHCC 281600Z AUTO 23002KT 1SM 23/22 A2968 RMK T02300220 IEM_DS3505
ZHCC,2009-07-28 17:00,ZHCC 281700Z AUTO 22004KT 1SM 23/22 A2968 RMK T02300220 IEM_DS3505
ZHCC,2009-07-28 18:00,ZHCC 281800Z AUTO 18002KT 2SM 24/21 A2968 RMK SLP045 T02370208 54000 IEM_DS3505
ZHCC,2009-07-28 19:00,ZHCC 281900Z AUTO 00000KT 1SM 22/21 A2968 RMK T02200210 IEM_DS3505
ZHCC,2009-07-28 20:00,ZHCC 282000Z AUTO 17002KT 1SM 22/21 A2968 RMK T02200210 IEM_DS3505
ZHCC,2009-07-28 21:00,ZHCC 282100Z AUTO 00000KT 2SM 22/20 A2968 RMK SLP047 T02240203 52002 IEM_DS3505
ZHCC,2009-07-28 22:00,ZHCC 282200Z AUTO 17004KT 1SM 22/21 A2971 RMK T02200210 IEM_DS3505
ZHCC,2009-07-28 23:00,ZHCC 282300Z AUTO 18004KT 1SM 22/21 A2974 RMK T02200210 IEM_DS3505
ZHCC,2009-07-29 00:00,ZHCC 290000Z AUTO 18006KT 2 1/2SM 26/21 A2974 RMK SLP062 T02550212 52015 IEM_DS3505
ZHCC,2009-07-29 01:00,ZHCC 290100Z AUTO 17004KT 2SM 25/24 A2974 RMK T02500240 IEM_DS3505
ZHCC,2009-07-29 02:00,ZHCC 290200Z AUTO 15006KT 2 1/2SM 26/23 A2974 RMK T02600230 IEM_DS3505
ZHCC,2009-07-29 03:00,ZHCC 290300Z AUTO 16008KT 6SM 28/20 A2974 RMK SLP066 T02770198 52004 IEM_DS3505
ZHCC,2009-07-29 04:00,ZHCC 290400Z AUTO 16004KT 3SM 28/22 A2974 RMK T02800220 IEM_DS3505
ZHCC,2009-07-29 05:00,ZHCC 290500Z AUTO 17004KT 3SM 28/22 A2974 RMK T02800220 IEM_DS3505
ZHCC,2009-07-29 06:00,ZHCC 290600Z AUTO 16008KT 6SM 30/20 A2971 RMK SLP056 T03030197 57010 IEM_DS3505
ZHCC,2009-07-29 07:00,ZHCC 290700Z AUTO 15004KT 4SM 29/22 A2971 RMK T02900220 IEM_DS3505
ZHCC,2009-07-29 08:00,ZHCC 290800Z AUTO 16004KT 4SM 29/23 A2971 RMK T02900230 IEM_DS3505
ZHCC,2009-07-29 09:00,ZHCC 290900Z AUTO 14006KT 7SM 30/20 A2968 RMK SLP045 T02980195 57011 IEM_DS3505
ZHCC,2009-07-29 10:00,ZHCC 291000Z AUTO 14004KT 4SM 28/23 A2968 RMK T02800230 IEM_DS3505
ZHCC,2009-07-29 11:00,ZHCC 291100Z AUTO 12004KT 4SM 27/23 A2968 RMK T02700230 IEM_DS3505
ZHCC,2009-07-29 12:00,ZHCC 291200Z AUTO 11004KT 7SM 28/21 A2971 RMK SLP047 T02830211 52002 IEM_DS3505
ZHCC,2009-07-29 13:00,ZHCC 291300Z AUTO 13004KT 2 1/2SM 25/22 A2971 RMK T02500220 IEM_DS3505
ZHCC,2009-07-29 14:00,ZHCC 291400Z AUTO 12004KT 2 1/2SM 25/22 A2971 RMK T02500220 IEM_DS3505
ZHCC,2009-07-29 15:00,ZHCC 291500Z AUTO 14004KT 6SM 26/22 A2971 RMK SLP056 T02640218 52009 IEM_DS3505
ZHCC,2009-07-29 16:00,ZHCC 291600Z AUTO 17002KT 2SM 24/22 A2974 RMK T02400220 IEM_DS3505
ZHCC,2009-07-29 17:00,ZHCC 291700Z AUTO 15002KT 2SM 24/22 A2974 RMK T02400220 IEM_DS3505
ZHCC,2009-07-29 18:00,ZHCC 291800Z AUTO 14004KT 6SM 26/22 A2971 RMK SLP056 T02560219 52001 IEM_DS3505
ZHCC,2009-07-29 19:00,ZHCC 291900Z AUTO 00000KT 1SM 23/22 A2971 RMK T02300220 IEM_DS3505
ZHCC,2009-07-29 20:00,ZHCC 292000Z AUTO 00000KT 1SM 23/22 A2971 RMK T02300220 IEM_DS3505
ZHCC,2009-07-29 21:00,ZHCC 292100Z AUTO 20002KT 4SM 24/22 A2971 RMK SLP059 T02410218 52002 IEM_DS3505
ZHCC,2009-07-29 22:00,ZHCC 292200Z AUTO 11004KT 1/2SM 22/21 A2974 RMK T02200210 IEM_DS3505
ZHCC,2009-07-29 23:00,ZHCC 292300Z AUTO 12004KT 1SM 23/22 A2974 RMK T02300220 IEM_DS3505
ZHCC,2009-07-30 00:00,ZHCC 300000Z AUTO 16004KT 3SM 26/22 A2974 RMK SLP062 T02570222 52003 IEM_DS3505
ZHCC,2009-07-30 01:00,ZHCC 300100Z AUTO 15004KT 2SM 25/24 A2974 RMK T02500240 IEM_DS3505
ZHCC,2009-07-30 02:00,ZHCC 300200Z AUTO 12004KT 2SM 27/24 A2974 RMK T02700240 IEM_DS3505
ZHCC,2009-07-30 03:00,ZHCC 300300Z AUTO 11006KT 4SM 29/21 A2974 RMK SLP064 T02910211 52002 IEM_DS3505
ZHCC,2009-07-30 04:00,ZHCC 300400Z AUTO 12006KT 3SM 28/23 A2974 RMK T02800230 IEM_DS3505
ZHCC,2009-07-30 05:00,ZHCC 300500Z AUTO 10006KT 4SM 28/22 A2971 RMK T02800220 IEM_DS3505
ZHCC,2009-07-30 06:00,ZHCC 300600Z AUTO 07006KT 7SM 31/21 A2971 RMK SLP052 T03070206 57011 IEM_DS3505
ZHCC,2009-07-30 07:00,ZHCC 300700Z AUTO 08008KT 4SM 29/22 A2971 RMK T02900220 IEM_DS3505
ZHCC,2009-07-30 08:00,ZHCC 300800Z AUTO 10008KT 4SM 30/23 A2971 RMK T03000230 IEM_DS3505
ZHCC,2009-07-30 09:00,ZHCC 300900Z AUTO 07008KT 10SM 30/20 A2971 RMK SLP048 T03010198 57005 IEM_DS3505
ZHCC,2009-07-30 10:00,ZHCC 301000Z AUTO 12004KT 4SM 28/23 A2971 RMK T02800230 IEM_DS3505
ZHCC,2009-07-30 11:00,ZHCC 301100Z AUTO 13004KT 4SM 27/23 A2971 RMK T02700230 IEM_DS3505
ZHCC,2009-07-30 12:00,ZHCC 301200Z AUTO 14004KT 6SM 28/21 A2971 RMK SLP055 T02830211 52007 IEM_DS3505
ZHCC,2009-07-30 13:00,ZHCC 301300Z AUTO 15004KT 3SM 25/23 A2974 RMK T02500230 IEM_DS3505
ZHCC,2009-07-30 14:00,ZHCC 301400Z AUTO 00000KT 2SM 25/23 A2977 RMK T02500230 IEM_DS3505
ZHCC,2009-07-30 15:00,ZHCC 301500Z AUTO 09002KT 6SM 27/22 A2980 RMK SLP078 T02670219 52023 IEM_DS3505
ZHCC,2009-07-30 16:00,ZHCC 301600Z AUTO 13004KT 2SM 24/23 A2977 RMK T02400230 IEM_DS3505
ZHCC,2009-07-30 17:00,ZHCC 301700Z AUTO 13004KT 1 1/4SM 24/22 A2977 RMK T02400220 IEM_DS3505
ZHCC,2009-07-30 18:00,ZHCC 301800Z AUTO 14002KT 6SM 25/22 A2977 RMK SLP073 T02530220 57005 IEM_DS3505
ZHCC,2009-07-30 19:00,ZHCC 301900Z AUTO 11002KT 1 1/4SM 23/22 A2977 RMK T02300220 IEM_DS3505
ZHCC,2009-07-30 20:00,ZHCC 302000Z AUTO 00000KT 1SM 23/22 A2977 RMK T02300220 IEM_DS3505
ZHCC,2009-07-30 21:00,ZHCC 302100Z AUTO 09002KT 5SM 24/22 A2977 RMK SLP073 T02440219 54000 IEM_DS3505
ZHCC,2009-07-30 22:00,ZHCC 302200Z AUTO 00000KT 1SM 23/22 A2977 RMK T02300220 IEM_DS3505
ZHCC,2009-07-30 23:00,ZHCC 302300Z AUTO 1SM 23/22 A2977 RMK T02300220 IEM_DS3505
ZHCC,2009-07-31 00:00,ZHCC 310000Z AUTO 04006KT 5SM 25/22 A2980 RMK 60000 70000 SLP081 T02460221 52008 IEM_DS3505
ZHCC,2009-07-31 01:00,ZHCC 310100Z AUTO 08006KT 1 1/4SM 23/22 A2980 RMK T02300220 IEM_DS3505
ZHCC,2009-07-31 02:00,ZHCC 310200Z AUTO 07006KT 1SM 24/23 A2980 RMK T02400230 IEM_DS3505
ZHCC,2009-07-31 03:00,ZHCC 310300Z AUTO 07002KT 5SM 26/22 A2983 RMK SLP090 T02650224 52009 IEM_DS3505
ZHCC,2009-07-31 04:00,ZHCC 310400Z AUTO 10006KT 2 1/2SM 26/24 A2980 RMK T02600240 IEM_DS3505
ZHCC,2009-07-31 05:00,ZHCC 310500Z AUTO 11008KT 3SM 27/24 A2980 RMK T02700240 IEM_DS3505
ZHCC,2009-07-31 06:00,ZHCC 310600Z AUTO 09004KT 5SM 30/22 A2977 RMK 60002 SLP076 T02970224 57014 IEM_DS3505
ZHCC,2009-07-31 07:00,ZHCC 310700Z AUTO 11004KT 3SM 28/23 A2977 RMK T02800230 IEM_DS3505
ZHCC,2009-07-31 08:00,ZHCC 310800Z AUTO 13004KT 3SM 28/24 A2977 RMK T02800240 IEM_DS3505
ZHCC,2009-07-31 09:00,ZHCC 310900Z AUTO 11006KT 7SM 30/22 A2974 RMK SLP065 T02950217 57011 IEM_DS3505
ZHCC,2009-07-31 10:00,ZHCC 311000Z AUTO 12004KT 4SM 27/23 A2974 RMK T02700230 IEM_DS3505
ZHCC,2009-07-31 11:00,ZHCC 311100Z AUTO 19002KT 4SM 26/23 A2977 RMK T02600230 IEM_DS3505
ZHCC,2009-07-31 12:00,ZHCC 311200Z AUTO 16004KT 7SM 28/22 A2977 RMK SLP071 T02760223 52006 IEM_DS3505
ZHCC,2009-07-31 13:00,ZHCC 311300Z AUTO 17002KT 3SM 25/23 A2977 RMK T02500230 IEM_DS3505
ZHCC,2009-07-31 14:00,ZHCC 311400Z AUTO 17002KT 2 1/2SM 24/23 A2977 RMK T02400230 IEM_DS3505
ZHCC,2009-07-31 15:00,ZHCC 311500Z AUTO 16004KT 6SM 26/23 A2977 RMK SLP075 T02590226 52004 IEM_DS3505
ZHCC,2009-07-31 16:00,ZHCC 311600Z AUTO 21002KT 1 1/2SM 24/23 A2977 RMK T02400230 IEM_DS3505
ZHCC,2009-07-31 17:00,ZHCC 311700Z AUTO 00000KT 1SM 23/23 A2977 RMK T02300230 IEM_DS3505
ZHCC,2009-07-31 18:00,ZHCC 311800Z AUTO 20002KT 2SM 24/22 A2974 RMK SLP068 T02440223 57007 IEM_DS3505
ZHCC,2009-07-31 19:00,ZHCC 311900Z AUTO 00000KT 1/2SM 22/21 A2974 RMK T02200210 IEM_DS3505
ZHCC,2009-07-31 20:00,ZHCC 312000Z AUTO 00000KT 1/8SM 22/22 A2974 RMK T02200220 IEM_DS3505
ZHCC,2009-07-31 21:00,ZHCC 312100Z AUTO 00000KT 2SM 23/22 A2974 RMK 70002 SLP063 T02310219 57005 IEM_DS3505
ZHCC,2009-07-31 22:00,ZHCC 312200Z AUTO 18002KT 1/4SM 22/22 A2974 RMK T02200220 IEM_DS3505
ZHCC,2009-07-31 23:00,ZHCC 312300Z AUTO 14002KT 1/8SM 23/22 A2974 RMK T02300220 IEM_DS3505
ZHCC,2009-08-01 00:00,ZHCC 010000Z AUTO 14004KT 2SM 26/22 A2977 RMK 70002 SLP072 T02630224 52009 IEM_DS3505
ZHCC,2009-08-01 01:00,ZHCC 010100Z AUTO 16002KT 1 1/4SM 24/23 A2977 RMK T02400230 IEM_DS3505
ZHCC,2009-08-01 02:00,ZHCC 010200Z AUTO 20002KT 2SM 25/25 A2977 RMK T02500250 IEM_DS3505
ZHCC,2009-08-01 03:00,ZHCC 010300Z AUTO 18004KT 6SM 29/22 A2977 RMK SLP069 T02880221 57003 IEM_DS3505
ZHCC,2009-08-01 04:00,ZHCC 010400Z AUTO 3SM 28/25 A2974 RMK T02800250 IEM_DS3505
ZHCC,2009-08-01 05:00,ZHCC 010500Z AUTO 4SM 29/24 A2971 RMK T02900240 IEM_DS3505
ZHCC,2009-08-01 06:00,ZHCC 010600Z AUTO 14004KT 7SM 30/22 A2971 RMK SLP050 T03000219 57019 IEM_DS3505
ZHCC,2009-08-01 07:00,ZHCC 010700Z AUTO 4SM 29/24 A2971 RMK T02900240 IEM_DS3505
ZHCC,2009-08-01 08:00,ZHCC 010800Z AUTO 15004KT 4SM 28/24 A2968 RMK T02800240 IEM_DS3505
ZHCC,2009-08-01 09:00,ZHCC 010900Z AUTO 14004KT 9SM 30/22 A2968 RMK SLP035 T03030217 57015 IEM_DS3505
ZHCC,2009-08-01 10:00,ZHCC 011000Z AUTO 12004KT 4SM 28/24 A2965 RMK T02800240 IEM_DS3505
ZHCC,2009-08-01 11:00,ZHCC 011100Z AUTO 13004KT 3SM 27/24 A2968 RMK T02700240 IEM_DS3505
ZHCC,2009-08-01 12:00,ZHCC 011200Z AUTO 14004KT 9SM 28/23 A2968 RMK SLP040 T02830230 52005 IEM_DS3505
ZHCC,2009-08-01 13:00,ZHCC 011300Z AUTO 00000KT 3SM 26/24 A2968 RMK T02600240 IEM_DS3505
ZHCC,2009-08-01 14:00,ZHCC 011400Z AUTO 17002KT 2 1/2SM 25/23 A2968 RMK T02500230 IEM_DS3505
ZHCC,2009-08-01 15:00,ZHCC 011500Z AUTO 16002KT 5SM 27/23 A2971 RMK SLP045 T02660227 52006 IEM_DS3505
ZHCC,2009-08-01 16:00,ZHCC 011600Z AUTO 16002KT 1 1/4SM 24/23 A2968 RMK T02400230 IEM_DS3505
ZHCC,2009-08-01 17:00,ZHCC 011700Z AUTO 00000KT 1SM 24/23 A2968 RMK T02400230 IEM_DS3505
ZHCC,2009-08-01 18:00,ZHCC 011800Z AUTO 18002KT 5SM 26/22 A2965 RMK SLP034 T02600223 57011 IEM_DS3505
ZHCC,2009-08-01 19:00,ZHCC 011900Z AUTO 00000KT 1SM 24/23 A2965 RMK T02400230 IEM_DS3505
ZHCC,2009-08-01 20:00,ZHCC 012000Z AUTO 00000KT 1SM 24/23 A2965 RMK T02400230 IEM_DS3505
ZHCC,2009-08-01 21:00,ZHCC 012100Z AUTO 16002KT 4SM 25/23 A2965 RMK 70000 SLP036 T02540229 52002 IEM_DS3505
ZHCC,2009-08-01 22:00,ZHCC 012200Z AUTO 16002KT 1SM 24/23 A2968 RMK T02400230 IEM_DS3505
ZHCC,2009-08-01 23:00,ZHCC 012300Z AUTO 15002KT 1/2SM 24/23 A2968 RMK T02400230 IEM_DS3505
ZHCC,2009-08-02 00:00,ZHCC 020000Z AUTO 16002KT 2 1/2SM 27/23 A2968 RMK 60000 70000 SLP044 T02730233 52008 IEM_DS3505
ZHCC,2009-08-02 01:00,ZHCC 020100Z AUTO 18004KT 1SM 26/25 A2968 RMK T02600250 IEM_DS3505
ZHCC,2009-08-02 02:00,ZHCC 020200Z AUTO 17002KT 2SM 28/26 A2968 RMK T02800260 IEM_DS3505
ZHCC,2009-08-02 03:00,ZHCC 020300Z AUTO 20002KT 4SM 31/23 A2968 RMK SLP037 T03120228 57007 IEM_DS3505
ZHCC,2009-08-02 04:00,ZHCC 020400Z AUTO 15004KT 2 1/2SM 30/24 A2965 RMK T03000240 IEM_DS3505
ZHCC,2009-08-02 05:00,ZHCC 020500Z AUTO 18004KT 2 1/2SM 31/24 A2965 RMK T03100240 IEM_DS3505
ZHCC,2009-08-02 06:00,ZHCC 020600Z AUTO 09006KT 4SM 33/22 A2962 RMK SLP019 T03270222 57017 IEM_DS3505
ZHCC,2009-08-02 07:00,ZHCC 020700Z AUTO 15006KT 3SM 31/24 A2962 RMK T03100240 IEM_DS3505
ZHCC,2009-08-02 08:00,ZHCC 020800Z AUTO 15006KT 3SM 29/24 A2962 RMK T02900240 IEM_DS3505
ZHCC,2009-08-02 09:00,ZHCC 020900Z AUTO 07002KT 2SM 24/23 A2965 RMK SLP031 T02440228 52010 IEM_DS3505
ZHCC,2009-08-02 10:00,ZHCC 021000Z AUTO 09008KT 3SM 26/24 A2962 RMK T02600240 IEM_DS3505
ZHCC,2009-08-02 11:00,ZHCC 021100Z AUTO 10006KT 3SM 27/24 A2965 RMK T02700240 IEM_DS3505
ZHCC,2009-08-02 12:00,ZHCC 021200Z AUTO 00000KT 3SM 26/23 A2965 RMK 60209 SLP038 T02560233 52007 IEM_DS3505
ZHCC,2009-08-02 13:00,ZHCC 021300Z AUTO 01006KT 2SM 25/23 A2968 RMK T02500230 IEM_DS3505
ZHCC,2009-08-02 14:00,ZHCC 021400Z AUTO 01004KT 2SM 25/23 A2971 RMK T02500230 IEM_DS3505
ZHCC,2009-08-02 15:00,ZHCC 021500Z AUTO 07002KT 3SM 25/23 A2971 RMK SLP052 T02520227 52015 IEM_DS3505
ZHCC,2009-08-02 16:00,ZHCC 021600Z AUTO 35004KT 1 1/4SM 24/23 A2971 RMK T02400230 IEM_DS3505
ZHCC,2009-08-02 17:00,ZHCC 021700Z AUTO 35002KT 1 1/4SM 24/23 A2971 RMK T02400230 IEM_DS3505
ZHCC,2009-08-02 18:00,ZHCC 021800Z AUTO 04002KT 3SM 24/22 A2968 RMK SLP049 T02420223 57003 IEM_DS3505
ZHCC,2009-08-02 19:00,ZHCC 021900Z AUTO 00000KT 1SM 23/23 A2968 RMK T02300230 IEM_DS3505
ZHCC,2009-08-02 20:00,ZHCC 022000Z AUTO 00000KT 1SM 23/23 A2971 RMK T02300230 IEM_DS3505
ZHCC,2009-08-02 21:00,ZHCC 022100Z AUTO 07004KT 3SM 25/22 A2971 RMK 70207 SLP055 T02460223 52004 IEM_DS3505
ZHCC,2009-08-02 22:00,ZHCC 022200Z AUTO 05006KT 1/2SM 23/23 A2971 RMK T02300230 IEM_DS3505
ZHCC,2009-08-02 23:00,ZHCC 022300Z AUTO 06006KT 1/2SM 24/23 A2971 RMK T02400230 IEM_DS3505
ZHCC,2009-08-03 00:00,ZHCC 030000Z AUTO 07004KT 1 1/4SM 25/23 A2974 RMK 70207 SLP065 T02530226 52010 IEM_DS3505
ZHCC,2009-08-03 01:00,ZHCC 030100Z AUTO 08006KT 1SM 24/23 A2974 RMK T02400230 IEM_DS3505
ZHCC,2009-08-03 02:00,ZHCC 030200Z AUTO 03006KT 1SM 25/23 A2974 RMK T02500230 IEM_DS3505
ZHCC,2009-08-03 03:00,ZHCC 030300Z AUTO 02004KT 2SM 26/22 A2974 RMK SLP069 T02560223 52004 IEM_DS3505
ZHCC,2009-08-03 04:00,ZHCC 030400Z AUTO 05006KT 1SM 25/24 A2974 RMK T02500240 IEM_DS3505
ZHCC,2009-08-03 05:00,ZHCC 030500Z AUTO 06006KT 1 1/4SM 26/24 A2974 RMK T02600240 IEM_DS3505
ZHCC,2009-08-03 06:00,ZHCC 030600Z AUTO 07004KT 2SM 27/22 A2971 RMK SLP062 T02660224 57007 IEM_DS3505
ZHCC,2009-08-03 07:00,ZHCC 030700Z AUTO 04006KT 1 1/4SM 26/23 A2971 RMK T02600230 IEM_DS3505
ZHCC,2009-08-03 08:00,ZHCC 030800Z AUTO 04006KT 1 1/4SM 25/23 A2971 RMK T02500230 IEM_DS3505
ZHCC,2009-08-03 09:00,ZHCC 030900Z AUTO 11002KT 2 1/2SM 26/22 A2974 RMK SLP061 T02630217 57001 IEM_DS3505
ZHCC,2009-08-03 10:00,ZHCC 031000Z AUTO 03004KT 1 1/4SM 25/23 A2974 RMK T02500230 IEM_DS3505
ZHCC,2009-08-03 11:00,ZHCC 031100Z AUTO 03004KT 1SM 25/23 A2974 RMK T02500230 IEM_DS3505
ZHCC,2009-08-03 12:00,ZHCC 031200Z AUTO 16002KT 1 1/4SM 25/22 A2974 RMK 60002 SLP064 T02480223 52003 IEM_DS3505
ZHCC,2009-08-03 13:00,ZHCC 031300Z AUTO 1SM 24/23 A2974 RMK T02400230 IEM_DS3505
ZHCC,2009-08-03 14:00,ZHCC 031400Z AUTO 04004KT 1SM 24/23 A2974 RMK T02400230 IEM_DS3505
ZHCC,2009-08-03 15:00,ZHCC 031500Z AUTO 00000KT 1 1/4SM 24/23 A2974 RMK SLP068 T02430227 52004 IEM_DS3505
ZHCC,2009-08-03 16:00,ZHCC 031600Z AUTO 3/8SM 24/23 A2974 RMK T02400230 IEM_DS3505
ZHCC,2009-08-03 17:00,ZHCC 031700Z AUTO 06004KT 3/8SM 24/23 A2974 RMK T02400230 IEM_DS3505
ZHCC,2009-08-03 18:00,ZHCC 031800Z AUTO 11002KT 1 1/4SM 25/23 A2974 RMK 60000 SLP066 T02460228 57002 IEM_DS3505
ZHCC,2009-08-03 19:00,ZHCC 031900Z AUTO 00000KT 3/8SM 23/23 A2974 RMK T02300230 IEM_DS3505
ZHCC,2009-08-03 20:00,ZHCC 032000Z AUTO 00000KT 1/2SM 23/22 A2974 RMK T02300220 IEM_DS3505
ZHCC,2009-08-03 21:00,ZHCC 032100Z AUTO 16002KT 1 1/4SM 24/23 A2974 RMK 70002 SLP063 T02400228 57003 IEM_DS3505
ZHCC,2009-08-03 22:00,ZHCC 032200Z AUTO 00000KT 3/8SM 23/22 A2974 RMK T02300220 IEM_DS3505
ZHCC,2009-08-03 23:00,ZHCC 032300Z AUTO 00000KT 1SM 23/23 A2974 RMK T02300230 IEM_DS3505
ZHCC,2009-08-04 00:00,ZHCC 040000Z AUTO 04002KT 1 1/4SM 25/22 A2977 RMK 60000 70002 SLP074 T02510224 52011 IEM_DS3505
ZHCC,2009-08-04 01:00,ZHCC 040100Z AUTO 1 1/4SM 24/24 A2977 RMK T02400240 IEM_DS3505
ZHCC,2009-08-04 02:00,ZHCC 040200Z AUTO 1 1/4SM 25/24 A2977 RMK T02500240 IEM_DS3505
ZHCC,2009-08-04 03:00,ZHCC 040300Z AUTO 09002KT 2 1/2SM 28/22 A2977 RMK SLP072 T02750218 57002 IEM_DS3505
ZHCC,2009-08-04 04:00,ZHCC 040400Z AUTO 08006KT 2 1/2SM 27/22 A2974 RMK T02700220 IEM_DS3505
ZHCC,2009-08-04 05:00,ZHCC 040500Z AUTO 08006KT 3SM 28/22 A2974 RMK T02800220 IEM_DS3505
ZHCC,2009-08-04 06:00,ZHCC 040600Z AUTO 07004KT 3SM 29/20 A2971 RMK 60000 SLP058 T02910205 57013 IEM_DS3505
ZHCC,2009-08-04 07:00,ZHCC 040700Z AUTO 07008KT 3SM 29/23 A2971 RMK T02900230 IEM_DS3505
ZHCC,2009-08-04 08:00,ZHCC 040800Z AUTO 08010KT 3SM 28/22 A2971 RMK T02800220 IEM_DS3505
ZHCC,2009-08-04 09:00,ZHCC 040900Z AUTO 07004KT 4SM 29/21 A2968 RMK SLP046 T02870212 57012 IEM_DS3505
ZHCC,2009-08-04 10:00,ZHCC 041000Z AUTO 14002KT 4SM 27/22 A2968 RMK T02700220 IEM_DS3505
ZHCC,2009-08-04 11:00,ZHCC 041100Z AUTO 15002KT 3SM 26/22 A2971 RMK T02600220 IEM_DS3505
ZHCC,2009-08-04 12:00,ZHCC 041200Z AUTO 27004KT 3SM 26/22 A2971 RMK SLP055 T02640218 52009 IEM_DS3505
ZHCC,2009-08-04 13:00,ZHCC 041300Z AUTO 07006KT 3SM 25/23 A2971 RMK T02500230 IEM_DS3505
ZHCC,2009-08-04 14:00,ZHCC 041400Z AUTO 13002KT 3SM 25/22 A2974 RMK T02500220 IEM_DS3505
ZHCC,2009-08-04 15:00,ZHCC 041500Z AUTO 32004KT 2SM 24/22 A2974 RMK SLP065 T02390225 52009 IEM_DS3505
ZHCC,2009-08-04 16:00,ZHCC 041600Z AUTO 09004KT 1SM 23/22 A2974 RMK T02300220 IEM_DS3505
ZHCC,2009-08-04 18:00,ZHCC 041800Z AUTO 29002KT 2SM 23/22 A2971 RMK 60220 SLP059 T02280216 57005 IEM_DS3505
ZHCC,2009-08-04 19:00,ZHCC 041900Z AUTO 00000KT 1SM 23/23 A2971 RMK T02300230 IEM_DS3505
ZHCC,2009-08-04 20:00,ZHCC 042000Z AUTO 00000KT 1SM 23/23 A2971 RMK T02300230 IEM_DS3505
ZHCC,2009-08-04 21:00,ZHCC 042100Z AUTO 36002KT 2 1/2SM 24/22 A2971 RMK 70231 SLP057 T02370225 57002 IEM_DS3505
ZHCC,2009-08-04 22:00,ZHCC 042200Z AUTO 03006KT 3/8SM 23/23 A2971 RMK T02300230 IEM_DS3505
ZHCC,2009-08-04 23:00,ZHCC 042300Z AUTO 03004KT 3/8SM 23/23 A2971 RMK T02300230 IEM_DS3505
ZHCC,2009-08-05 00:00,ZHCC 050000Z AUTO 04006KT 2SM 24/22 A2974 RMK 60024 70245 SLP064 T02350223 52006 IEM_DS3505
ZHCC,2009-08-05 01:00,ZHCC 050100Z AUTO 06006KT 1SM 23/22 A2974 RMK T02300220 IEM_DS3505
ZHCC,2009-08-05 02:00,ZHCC 050200Z AUTO 05008KT 1SM 23/23 A2974 RMK T02300230 IEM_DS3505
ZHCC,2009-08-05 03:00,ZHCC 050300Z AUTO 04006KT 1 1/4SM 23/22 A2974 RMK SLP072 T02330221 52007 IEM_DS3505
ZHCC,2009-08-05 04:00,ZHCC 050400Z AUTO 07008KT 1 1/4SM 23/22 A2974 RMK T02300220 IEM_DS3505
ZHCC,2009-08-05 05:00,ZHCC 050500Z AUTO 06004KT 1 1/4SM 23/22 A2974 RMK T02300220 IEM_DS3505
ZHCC,2009-08-05 06:00,ZHCC 050600Z AUTO 07004KT 2 1/2SM 23/22 A2974 RMK 60091 SLP071 T02340218 57001 IEM_DS3505
ZHCC,2009-08-05 07:00,ZHCC 050700Z AUTO 06004KT 1SM 22/22 A2974 RMK T02200220 IEM_DS3505
ZHCC,2009-08-05 08:00,ZHCC 050800Z AUTO 08008KT 1SM 22/22 A2974 RMK T02200220 IEM_DS3505
ZHCC,2009-08-05 09:00,ZHCC 050900Z AUTO 07004KT 2SM 23/22 A2974 RMK SLP064 T02330217 57006 IEM_DS3505
ZHCC,2009-08-05 10:00,ZHCC 051000Z AUTO 04006KT 1 1/4SM 22/21 A2974 RMK T02200210 IEM_DS3505
ZHCC,2009-08-05 11:00,ZHCC 051100Z AUTO 06006KT 2SM 22/21 A2974 RMK T02200210 IEM_DS3505
ZHCC,2009-08-05 12:00,ZHCC 051200Z AUTO 34002KT 2SM 23/21 A2974 RMK 60008 SLP072 T02260211 52007 IEM_DS3505
ZHCC,2009-08-05 13:00,ZHCC 051300Z AUTO 03004KT 2 1/2SM 21/21 A2977 RMK T02100210 IEM_DS3505
ZHCC,2009-08-05 14:00,ZHCC 051400Z AUTO 01004KT 1 1/4SM 22/21 A2977 RMK T02200210 IEM_DS3505
ZHCC,2009-08-05 15:00,ZHCC 051500Z AUTO 02002KT 3SM 22/20 A2977 RMK SLP079 T02240196 52007 IEM_DS3505
ZHCC,2009-08-05 16:00,ZHCC 051600Z AUTO 36004KT 1 1/4SM 21/21 A2977 RMK T02100210 IEM_DS3505
ZHCC,2009-08-05 17:00,ZHCC 051700Z AUTO 1 1/4SM 21/20 A2977 RMK T02100200 IEM_DS3505
ZHCC,2009-08-05 18:00,ZHCC 051800Z AUTO 00000KT 4SM 23/21 A2977 RMK 60000 SLP076 T02260207 57003 IEM_DS3505
ZHCC,2009-08-05 19:00,ZHCC 051900Z AUTO 35004KT 1SM 21/21 A2977 RMK T02100210 IEM_DS3505
ZHCC,2009-08-05 20:00,ZHCC 052000Z AUTO 01006KT 1SM 21/21 A2977 RMK T02100210 IEM_DS3505
ZHCC,2009-08-05 21:00,ZHCC 052100Z AUTO 02002KT 2 1/2SM 23/21 A2977 RMK 70113 SLP076 T02280211 54000 IEM_DS3505
ZHCC,2009-08-05 22:00,ZHCC 052200Z AUTO 36006KT 1/2SM 22/21 A2977 RMK T02200210 IEM_DS3505
ZHCC,2009-08-05 23:00,ZHCC 052300Z AUTO 01006KT 1/2SM 22/21 A2977 RMK T02200210 IEM_DS3505
ZHCC,2009-08-06 00:00,ZHCC 060000Z AUTO 04004KT 2SM 23/21 A2980 RMK 70099 SLP087 T02310210 52011 IEM_DS3505
ZHCC,2009-08-06 02:00,ZHCC 060200Z AUTO 03008KT 1SM 23/22 A2980 RMK T02300220 IEM_DS3505
ZHCC,2009-08-06 03:00,ZHCC 060300Z AUTO 04004KT 2SM 25/21 A2980 RMK SLP093 T02540213 52006 IEM_DS3505
ZHCC,2009-08-06 04:00,ZHCC 060400Z AUTO 02008KT 1 1/4SM 25/23 A2980 RMK T02500230 IEM_DS3505
ZHCC,2009-08-06 05:00,ZHCC 060500Z AUTO 02006KT 1 1/4SM 26/23 A2980 RMK T02600230 IEM_DS3505
ZHCC,2009-08-06 06:00,ZHCC 060600Z AUTO 34002KT 2 1/2SM 28/22 A2980 RMK SLP083 T02840217 57009 IEM_DS3505
ZHCC,2009-08-06 07:00,ZHCC 060700Z AUTO 02008KT 1 1/2SM 28/23 A2977 RMK T02800230 IEM_DS3505
ZHCC,2009-08-06 08:00,ZHCC 060800Z AUTO 05006KT 1 1/2SM 28/23 A2977 RMK T02800230 IEM_DS3505
ZHCC,2009-08-06 09:00,ZHCC 060900Z AUTO 04004KT 6SM 29/21 A2974 RMK SLP068 T02890206 57015 IEM_DS3505
ZHCC,2009-08-06 10:00,ZHCC 061000Z AUTO 02004KT 1 1/2SM 28/23 A2974 RMK T02800230 IEM_DS3505
ZHCC,2009-08-06 11:00,ZHCC 061100Z AUTO 04004KT 1 1/4SM 27/23 A2977 RMK T02700230 IEM_DS3505
ZHCC,2009-08-06 12:00,ZHCC 061200Z AUTO 07002KT 4SM 27/22 A2977 RMK SLP076 T02690219 52008 IEM_DS3505
ZHCC,2009-08-06 13:00,ZHCC 061300Z AUTO 06004KT 1 1/4SM 25/23 A2980 RMK T02500230 IEM_DS3505
ZHCC,2009-08-06 14:00,ZHCC 061400Z AUTO 06004KT 1 1/4SM 25/23 A2980 RMK T02500230 IEM_DS3505
ZHCC,2009-08-06 15:00,ZHCC 061500Z AUTO 04002KT 1 1/4SM 25/22 A2980 RMK SLP089 T02460219 52013 IEM_DS3505
ZHCC,2009-08-06 16:00,ZHCC 061600Z AUTO 08006KT 1 1/4SM 24/23 A2980 RMK T02400230 IEM_DS3505
ZHCC,2009-08-06 17:00,ZHCC 061700Z AUTO 08004KT 1SM 23/22 A2980 RMK T02300220 IEM_DS3505
ZHCC,2009-08-06 18:00,ZHCC 061800Z AUTO 09002KT 1 1/4SM 24/22 A2980 RMK SLP089 T02440225 54000 IEM_DS3505
ZHCC,2009-08-06 19:00,ZHCC 061900Z AUTO 04004KT 3/8SM 23/22 A2980 RMK T02300220 IEM_DS3505
ZHCC,2009-08-06 20:00,ZHCC 062000Z AUTO 1/4SM 22/22 A2980 RMK T02200220 IEM_DS3505
ZHCC,2009-08-06 21:00,ZHCC 062100Z AUTO 00000KT 2 1/2SM 23/22 A2980 RMK SLP088 T02270215 57001 IEM_DS3505
ZHCC,2009-08-06 22:00,ZHCC 062200Z AUTO 09002KT 1/2SM 22/21 A2980 RMK T02200210 IEM_DS3505
ZHCC,2009-08-07 00:00,ZHCC 070000Z AUTO 00000KT 2 1/2SM 25/22 A2983 RMK SLP096 T02510220 52008 IEM_DS3505
ZHCC,2009-08-07 01:00,ZHCC 070100Z AUTO 04006KT 2 1/2SM 24/23 A2983 RMK T02400230 IEM_DS3505
ZHCC,2009-08-07 02:00,ZHCC 070200Z AUTO 04004KT 3SM 26/24 A2983 RMK T02600240 IEM_DS3505
ZHCC,2009-08-07 03:00,ZHCC 070300Z AUTO 36004KT 4SM 28/22 A2983 RMK SLP090 T02840219 57006 IEM_DS3505
ZHCC,2009-08-07 04:00,ZHCC 070400Z AUTO 02006KT 3SM 28/23 A2980 RMK T02800230 IEM_DS3505
ZHCC,2009-08-07 05:00,ZHCC 070500Z AUTO 04008KT 3SM 28/23 A2980 RMK T02800230 IEM_DS3505
ZHCC,2009-08-07 06:00,ZHCC 070600Z AUTO 07006KT 5SM 30/21 A2977 RMK SLP077 T02980212 57012 IEM_DS3505
ZHCC,2009-08-07 07:00,ZHCC 070700Z AUTO 07008KT 3SM 29/23 A2977 RMK T02900230 IEM_DS3505
ZHCC,2009-08-07 08:00,ZHCC 070800Z AUTO 07008KT 3SM 29/23 A2974 RMK T02900230 IEM_DS3505
ZHCC,2009-08-07 09:00,ZHCC 070900Z AUTO 07004KT 6SM 30/21 A2974 RMK SLP066 T02960210 57011 IEM_DS3505
ZHCC,2009-08-07 10:00,ZHCC 071000Z AUTO 07006KT 3SM 29/23 A2974 RMK T02900230 IEM_DS3505
ZHCC,2009-08-07 11:00,ZHCC 071100Z AUTO 2 1/2SM 27/23 A2977 RMK T02700230 IEM_DS3505
ZHCC,2009-08-07 12:00,ZHCC 071200Z AUTO 04002KT 6SM 28/22 A2977 RMK SLP074 T02790219 52008 IEM_DS3505
ZHCC,2009-08-07 13:00,ZHCC 071300Z AUTO 04004KT 2SM 26/23 A2977 RMK T02600230 IEM_DS3505
ZHCC,2009-08-07 14:00,ZHCC 071400Z AUTO 04004KT 2SM 26/23 A2980 RMK T02600230 IEM_DS3505
ZHCC,2009-08-07 15:00,ZHCC 071500Z AUTO 07004KT 5SM 27/22 A2980 RMK SLP080 T02720224 52006 IEM_DS3505
ZHCC,2009-08-07 16:00,ZHCC 071600Z AUTO 04004KT 1 1/4SM 25/23 A2977 RMK T02500230 IEM_DS3505
ZHCC,2009-08-07 17:00,ZHCC 071700Z AUTO 04004KT 1SM 25/23 A2977 RMK T02500230 IEM_DS3505
ZHCC,2009-08-07 18:00,ZHCC 071800Z AUTO 07002KT 4SM 26/23 A2977 RMK SLP073 T02630230 57007 IEM_DS3505
ZHCC,2009-08-07 19:00,ZHCC 071900Z AUTO 03004KT 1SM 25/24 A2974 RMK T02500240 IEM_DS3505
ZHCC,2009-08-07 20:00,ZHCC 072000Z AUTO 03004KT 1SM 25/24 A2974 RMK T02500240 IEM_DS3505
ZHCC,2009-08-07 21:00,ZHCC 072100Z AUTO 02002KT 3SM 26/23 A2974 RMK SLP071 T02550232 57002 IEM_DS3505
ZHCC,2009-08-07 22:00,ZHCC 072200Z AUTO 02004KT 1SM 24/23 A2974 RMK T02400230 IEM_DS3505
ZHCC,2009-08-08 00:00,ZHCC 080000Z AUTO 36002KT 1 1/4SM 26/23 A2977 RMK SLP076 T02580231 52005 IEM_DS3505
ZHCC,2009-08-08 01:00,ZHCC 080100Z AUTO 06006KT 1SM 25/24 A2977 RMK T02500240 IEM_DS3505
ZHCC,2009-08-08 02:00,ZHCC 080200Z AUTO 04006KT 1SM 26/24 A2977 RMK T02600240 IEM_DS3505
ZHCC,2009-08-08 03:00,ZHCC 080300Z AUTO 04006KT 2SM 28/23 A2977 RMK SLP076 T02760230 54000 IEM_DS3505
ZHCC,2009-08-08 04:00,ZHCC 080400Z AUTO 08008KT 1 1/2SM 26/24 A2977 RMK T02600240 IEM_DS3505
ZHCC,2009-08-08 05:00,ZHCC 080500Z AUTO 07010KT 2 1/2SM 27/25 A2974 RMK T02700250 IEM_DS3505
ZHCC,2009-08-08 06:00,ZHCC 080600Z AUTO 09006KT 2SM 28/23 A2974 RMK 60000 SLP064 T02830232 57012 IEM_DS3505
ZHCC,2009-08-08 07:00,ZHCC 080700Z AUTO 05012KT 3SM 29/24 A2971 RMK T02900240 IEM_DS3505
ZHCC,2009-08-08 08:00,ZHCC 080800Z AUTO 02008KT 3SM 28/24 A2971 RMK T02800240 IEM_DS3505
ZHCC,2009-08-08 09:00,ZHCC 080900Z AUTO 07006KT 2 1/2SM 29/22 A2971 RMK SLP052 T02900223 57012 IEM_DS3505
ZHCC,2009-08-08 10:00,ZHCC 081000Z AUTO 06004KT 3SM 28/24 A2971 RMK T02800240 IEM_DS3505
ZHCC,2009-08-08 11:00,ZHCC 081100Z AUTO 09006KT 2SM 27/23 A2971 RMK T02700230 IEM_DS3505
ZHCC,2009-08-08 12:00,ZHCC 081200Z AUTO 04002KT 4SM 28/23 A2971 RMK SLP057 T02750229 52005 IEM_DS3505
ZHCC,2009-08-08 13:00,ZHCC 081300Z AUTO 01004KT 2SM 26/23 A2974 RMK T02600230 IEM_DS3505
ZHCC,2009-08-08 14:00,ZHCC 081400Z AUTO 36004KT 2SM 26/23 A2974 RMK T02600230 IEM_DS3505
ZHCC,2009-08-08 15:00,ZHCC 081500Z AUTO 09004KT 2 1/2SM 27/24 A2974 RMK SLP066 T02680235 52009 IEM_DS3505
ZHCC,2009-08-08 16:00,ZHCC 081600Z AUTO 05002KT 1 1/4SM 25/23 A2974 RMK T02500230 IEM_DS3505
ZHCC,2009-08-08 17:00,ZHCC 081700Z AUTO 36004KT 1 1/4SM 25/23 A2974 RMK T02500230 IEM_DS3505
ZHCC,2009-08-08 18:00,ZHCC 081800Z AUTO 00000KT 1 1/4SM 26/24 RMK SLP062 T02610236 57004 IEM_DS3505
ZHCC,2009-08-08 19:00,ZHCC 081900Z AUTO 08002KT 1SM 25/24 A2971 RMK T02500240 IEM_DS3505
ZHCC,2009-08-08 20:00,ZHCC 082000Z AUTO 00000KT 1/2SM 24/23 A2971 RMK T02400230 IEM_DS3505
ZHCC,2009-08-08 21:00,ZHCC 082100Z AUTO 09002KT 1 1/4SM 25/23 A2971 RMK 70000 SLP056 T02540233 57006 IEM_DS3505
ZHCC,2009-08-08 22:00,ZHCC 082200Z AUTO 04004KT 1SM 24/23 A2971 RMK T02400230 IEM_DS3505
ZHCC,2009-08-08 23:00,ZHCC 082300Z AUTO 06004KT 1 1/4SM 24/23 A2974 RMK T02400230 IEM_DS3505
ZHCC,2009-08-09 00:00,ZHCC 090000Z AUTO 04002KT 4SM 27/22 A2974 RMK 70000 SLP066 T02710221 52010 IEM_DS3505
ZHCC,2009-08-09 01:00,ZHCC 090100Z AUTO 03006KT 2SM 26/24 A2974 RMK T02600240 IEM_DS3505
ZHCC,2009-08-09 02:00,ZHCC 090200Z AUTO 06006KT 2 1/2SM 27/24 A2974 RMK T02700240 IEM_DS3505
ZHCC,2009-08-09 03:00,ZHCC 090300Z AUTO 04006KT 3SM 29/22 A2974 RMK SLP069 T02910223 52003 IEM_DS3505
ZHCC,2009-08-09 04:00,ZHCC 090400Z AUTO 02006KT 3SM 28/24 A2974 RMK T02800240 IEM_DS3505
ZHCC,2009-08-09 05:00,ZHCC 090500Z AUTO 05006KT 3SM 29/24 A2971 RMK T02900240 IEM_DS3505
ZHCC,2009-08-09 06:00,ZHCC 090600Z AUTO 11004KT 6SM 31/22 A2971 RMK SLP048 T03060219 57020 IEM_DS3505
ZHCC,2009-08-09 07:00,ZHCC 090700Z AUTO 03006KT 4SM 29/24 A2968 RMK T02900240 IEM_DS3505
ZHCC,2009-08-09 08:00,ZHCC 090800Z AUTO 07006KT 4SM 30/24 A2965 RMK T03000240 IEM_DS3505
ZHCC,2009-08-09 09:00,ZHCC 090900Z AUTO 07004KT 8SM 31/22 A2965 RMK SLP032 T03090220 57016 IEM_DS3505
ZHCC,2009-08-09 10:00,ZHCC 091000Z AUTO 08004KT 6SM 29/24 A2965 RMK T02900240 IEM_DS3505
ZHCC,2009-08-09 11:00,ZHCC 091100Z AUTO 12004KT 3SM 28/24 A2965 RMK T02800240 IEM_DS3505
ZHCC,2009-08-09 12:00,ZHCC 091200Z AUTO 09002KT 7SM 29/23 A2968 RMK SLP044 T02890233 52012 IEM_DS3505
ZHCC,2009-08-09 13:00,ZHCC 091300Z AUTO 00000KT 3SM 26/24 A2971 RMK T02600240 IEM_DS3505
ZHCC,2009-08-09 14:00,ZHCC 091400Z AUTO 05004KT 2SM 27/25 A2971 RMK T02700250 IEM_DS3505
ZHCC,2009-08-09 15:00,ZHCC 091500Z AUTO 00000KT 3SM 26/24 A2971 RMK SLP058 T02590239 52013 IEM_DS3505
ZHCC,2009-08-09 16:00,ZHCC 091600Z AUTO 2SM 26/24 A2971 RMK T02600240 IEM_DS3505
ZHCC,2009-08-09 17:00,ZHCC 091700Z AUTO 32004KT 1 1/4SM 25/24 A2971 RMK T02500240 IEM_DS3505
ZHCC,2009-08-09 18:00,ZHCC 091800Z AUTO 25002KT 2 1/2SM 25/23 A2971 RMK SLP053 T02520234 57004 IEM_DS3505
ZHCC,2009-08-09 19:00,ZHCC 091900Z AUTO 01002KT 1SM 24/23 A2971 RMK T02400230 IEM_DS3505
ZHCC,2009-08-09 20:00,ZHCC 092000Z AUTO 04004KT 1 1/4SM 24/23 A2971 RMK T02400230 IEM_DS3505
ZHCC,2009-08-09 21:00,ZHCC 092100Z AUTO 25002KT 2 1/2SM 25/23 A2971 RMK SLP059 T02490231 52005 IEM_DS3505
ZHCC,2009-08-09 22:00,ZHCC 092200Z AUTO 33004KT 1SM 24/23 A2974 RMK T02400230 IEM_DS3505
ZHCC,2009-08-09 23:00,ZHCC 092300Z AUTO 33004KT 1SM 25/24 A2974 RMK T02500240 IEM_DS3505
ZHCC,2009-08-10 00:00,ZHCC 100000Z AUTO 02004KT 2SM 27/23 A2974 RMK SLP069 T02690232 52010 IEM_DS3505
ZHCC,2009-08-10 01:00,ZHCC 100100Z AUTO 06006KT 1 1/4SM 26/25 A2974 RMK T02600250 IEM_DS3505
ZHCC,2009-08-10 03:00,ZHCC 100300Z AUTO 32006KT 4SM 29/24 A2974 RMK SLP068 T02930235 57001 IEM_DS3505
ZHCC,2009-08-10 04:00,ZHCC 100400Z AUTO 35008KT 1 1/2SM 29/25 A2974 RMK T02900250 IEM_DS3505
ZHCC,2009-08-10 05:00,ZHCC 100500Z AUTO 36010KT 1 1/2SM 30/25 A2971 RMK T03000250 IEM_DS3505
ZHCC,2009-08-10 06:00,ZHCC 100600Z AUTO 04004KT 5SM 31/22 A2971 RMK SLP055 T03090217 57012 IEM_DS3505
ZHCC,2009-08-10 07:00,ZHCC 100700Z AUTO 01008KT 2 1/2SM 30/24 A2971 RMK T03000240 IEM_DS3505
ZHCC,2009-08-10 08:00,ZHCC 100800Z AUTO 01008KT 2SM 30/25 A2971 RMK T03000250 IEM_DS3505
ZHCC,2009-08-10 09:00,ZHCC 100900Z AUTO 29006KT 5SM 28/23 A2971 RMK SLP057 T02770231 52001 IEM_DS3505
ZHCC,2009-08-10 10:00,ZHCC 101000Z AUTO 33008KT 1 1/4SM 27/24 A2971 RMK T02700240 IEM_DS3505
ZHCC,2009-08-10 11:00,ZHCC 101100Z AUTO 32008KT 1SM 26/23 A2971 RMK T02600230 IEM_DS3505
ZHCC,2009-08-10 12:00,ZHCC 101200Z AUTO 27002KT 4SM 26/22 A2974 RMK SLP061 T02620223 52004 IEM_DS3505
ZHCC,2009-08-10 13:00,ZHCC 101300Z AUTO 32006KT 1SM 25/23 A2974 RMK T02500230 IEM_DS3505
ZHCC,2009-08-10 14:00,ZHCC 101400Z AUTO 33006KT 1SM 25/23 A2974 RMK T02500230 IEM_DS3505
ZHCC,2009-08-10 15:00,ZHCC 101500Z AUTO 27004KT 3SM 26/22 A2974 RMK SLP067 T02590224 52006 IEM_DS3505
ZHCC,2009-08-10 16:00,ZHCC 101600Z AUTO 31008KT 1SM 24/23 A2974 RMK T02400230 IEM_DS3505
ZHCC,2009-08-10 17:00,ZHCC 101700Z AUTO 34004KT 1SM 24/23 A2974 RMK T02400230 IEM_DS3505
ZHCC,2009-08-10 18:00,ZHCC 101800Z AUTO 32002KT 3SM 26/22 A2974 RMK SLP067 T02550220 54000 IEM_DS3505
ZHCC,2009-08-10 19:00,ZHCC 101900Z AUTO 00000KT 1SM 24/22 A2974 RMK T02400220 IEM_DS3505
ZHCC,2009-08-10 20:00,ZHCC 102000Z AUTO 00000KT 1SM 24/22 A2974 RMK T02400220 IEM_DS3505
ZHCC,2009-08-10 21:00,ZHCC 102100Z AUTO 27002KT 2 1/2SM 24/22 A2974 RMK SLP067 T02410220 54000 IEM_DS3505
ZHCC,2009-08-10 22:00,ZHCC 102200Z AUTO 33004KT 1SM 23/22 A2974 RMK T02300220 IEM_DS3505
ZHCC,2009-08-10 23:00,ZHCC 102300Z AUTO 33006KT 1SM 24/23 A2977 RMK T02400230 IEM_DS3505
ZHCC,2009-08-11 00:00,ZHCC 110000Z AUTO 32004KT 1 1/4SM 27/20 A2977 RMK SLP075 T02670198 52008 IEM_DS3505
ZHCC,2009-08-11 01:00,ZHCC 110100Z AUTO 34008KT 1 1/2SM 28/22 A2977 RMK T02800220 IEM_DS3505
ZHCC,2009-08-11 02:00,ZHCC 110200Z AUTO 36008KT 2SM 29/22 A2977 RMK T02900220 IEM_DS3505
ZHCC,2009-08-11 03:00,ZHCC 110300Z AUTO 32008KT 6SM 30/20 A2977 RMK SLP074 T03050198 57001 IEM_DS3505
ZHCC,2009-08-11 04:00,ZHCC 110400Z AUTO 32008KT 2 1/2SM 31/22 A2974 RMK T03100220 IEM_DS3505
ZHCC,2009-08-11 05:00,ZHCC 110500Z AUTO 35010KT 2 1/2SM 31/22 A2974 RMK T03100220 IEM_DS3505
ZHCC,2009-08-11 06:00,ZHCC 110600Z AUTO 04002KT 7SM 33/18 A2974 RMK SLP060 T03340180 57013 IEM_DS3505
ZHCC,2009-08-11 07:00,ZHCC 110700Z AUTO 34008KT 4SM 32/21 A2971 RMK T03200210 IEM_DS3505
ZHCC,2009-08-11 08:00,ZHCC 110800Z AUTO 32008KT 4SM 31/23 A2971 RMK T03100230 IEM_DS3505
ZHCC,2009-08-11 09:00,ZHCC 110900Z AUTO 04004KT 7SM 33/16 A2971 RMK SLP053 T03260164 57007 IEM_DS3505
ZHCC,2009-08-11 10:00,ZHCC 111000Z AUTO 33004KT 3SM 31/21 A2971 RMK T03100210 IEM_DS3505
ZHCC,2009-08-11 11:00,ZHCC 111100Z AUTO 34004KT 3SM 29/21 A2971 RMK T02900210 IEM_DS3505
ZHCC,2009-08-11 12:00,ZHCC 111200Z AUTO 00000KT 7SM 28/22 RMK SLP058 T02750215 52004 IEM_DS3505
ZHCC,2009-08-11 13:00,ZHCC 111300Z AUTO 26004KT 2SM 25/23 A2974 RMK T02500230 IEM_DS3505
ZHCC,2009-08-11 14:00,ZHCC 111400Z AUTO 30006KT 2SM 25/22 A2974 RMK T02500220 IEM_DS3505
ZHCC,2009-08-11 15:00,ZHCC 111500Z AUTO 25002KT 6SM 28/22 A2971 RMK SLP058 T02760221 52001 IEM_DS3505
ZHCC,2009-08-11 16:00,ZHCC 111600Z AUTO 26006KT 1 1/4SM 25/23 A2971 RMK T02500230 IEM_DS3505
ZHCC,2009-08-11 17:00,ZHCC 111700Z AUTO 22004KT 1 1/4SM 24/22 A2971 RMK T02400220 IEM_DS3505
ZHCC,2009-08-11 18:00,ZHCC 111800Z AUTO 29002KT 6SM 26/20 A2971 RMK SLP050 T02570205 57008 IEM_DS3505
ZHCC,2009-08-11 19:00,ZHCC 111900Z AUTO 22002KT 1 1/4SM 23/21 A2968 RMK T02300210 IEM_DS3505
ZHCC,2009-08-11 20:00,ZHCC 112000Z AUTO 23004KT 2SM 23/21 A2968 RMK T02300210 IEM_DS3505
ZHCC,2009-08-11 21:00,ZHCC 112100Z AUTO 25002KT 6SM 25/18 A2968 RMK SLP046 T02520184 57004 IEM_DS3505
ZHCC,2009-08-11 22:00,ZHCC 112200Z AUTO 00000KT 1 1/2SM 21/19 A2971 RMK T02100190 IEM_DS3505
ZHCC,2009-08-11 23:00,ZHCC 112300Z AUTO 00000KT 1 1/2SM 23/21 A2971 RMK T02300210 IEM_DS3505
ZHCC,2009-08-12 00:00,ZHCC 120000Z AUTO 29006KT 7SM 28/18 A2971 RMK SLP055 T02800181 52008 IEM_DS3505
ZHCC,2009-08-12 01:00,ZHCC 120100Z AUTO 18002KT 2 1/2SM 28/22 A2971 RMK T02800220 IEM_DS3505
ZHCC,2009-08-12 02:00,ZHCC 120200Z AUTO 28006KT 2 1/2SM 30/22 A2971 RMK T03000220 IEM_DS3505
ZHCC,2009-08-12 03:00,ZHCC 120300Z AUTO 32006KT 8SM 33/17 A2971 RMK SLP050 T03280170 57003 IEM_DS3505
ZHCC,2009-08-12 04:00,ZHCC 120400Z AUTO 35004KT 3SM 33/21 A2971 RMK T03300210 IEM_DS3505
ZHCC,2009-08-12 05:00,ZHCC 120500Z AUTO 20002KT 3SM 34/18 A2968 RMK T03400180 IEM_DS3505
ZHCC,2009-08-12 06:00,ZHCC 120600Z AUTO 29004KT 10SM 36/15 A2968 RMK SLP036 T03640150 57014 IEM_DS3505
ZHCC,2009-08-12 07:00,ZHCC 120700Z AUTO 12004KT 5SM 36/18 A2965 RMK T03600180 IEM_DS3505
ZHCC,2009-08-12 08:00,ZHCC 120800Z AUTO 6SM 34/21 A2965 RMK T03400210 IEM_DS3505
ZHCC,2009-08-12 09:00,ZHCC 120900Z AUTO 18004KT 10SM 36/ A2965 RMK SLP028 57008 IEM_DS3505
ZHCC,2009-08-12 10:00,ZHCC 121000Z AUTO 12004KT 6SM 32/24 A2965 RMK T03200240 IEM_DS3505
ZHCC,2009-08-12 11:00,ZHCC 121100Z AUTO 13004KT 6SM 29/24 A2965 RMK T02900240 IEM_DS3505
ZHCC,2009-08-12 12:00,ZHCC 121200Z AUTO 11004KT 10SM 30/20 A2968 RMK SLP036 T03040203 52007 IEM_DS3505
ZHCC,2009-08-12 13:00,ZHCC 121300Z AUTO 16004KT 3SM 27/24 A2968 RMK T02700240 IEM_DS3505
ZHCC,2009-08-12 14:00,ZHCC 121400Z AUTO 16004KT 3SM 25/22 A2968 RMK T02500220 IEM_DS3505
ZHCC,2009-08-12 15:00,ZHCC 121500Z AUTO 00000KT 7SM 26/22 A2968 RMK SLP045 T02550220 52009 IEM_DS3505
ZHCC,2009-08-12 16:00,ZHCC 121600Z AUTO 11002KT 2SM 23/22 A2971 RMK T02300220 IEM_DS3505
ZHCC,2009-08-12 17:00,ZHCC 121700Z AUTO 16004KT 2SM 23/22 A2968 RMK T02300220 IEM_DS3505
ZHCC,2009-08-12 18:00,ZHCC 121800Z AUTO 11002KT 7SM 24/21 A2968 RMK SLP042 T02350210 57002 IEM_DS3505
ZHCC,2009-08-12 19:00,ZHCC 121900Z AUTO 1SM 23/22 A2968 RMK T02300220 IEM_DS3505
ZHCC,2009-08-12 20:00,ZHCC 122000Z AUTO 24002KT 1/8SM 22/21 A2968 RMK T02200210 IEM_DS3505
ZHCC,2009-08-12 21:00,ZHCC 122100Z AUTO 27002KT 6SM 22/20 A2968 RMK SLP047 T02240199 52004 IEM_DS3505
ZHCC,2009-08-12 22:00,ZHCC 122200Z AUTO 00000KT 3/8SM 21/20 A2971 RMK T02100200 IEM_DS3505
ZHCC,2009-08-12 23:00,ZHCC 122300Z AUTO 00000KT 1SM 22/22 A2971 RMK T02200220 IEM_DS3505
ZHCC,2009-08-13 00:00,ZHCC 130000Z AUTO 16002KT 4SM 27/20 A2971 RMK SLP054 T02690198 52007 IEM_DS3505
ZHCC,2009-08-13 01:00,ZHCC 130100Z AUTO 3SM 28/25 A2971 RMK T02800250 IEM_DS3505
ZHCC,2009-08-13 02:00,ZHCC 130200Z AUTO 4SM 30/22 A2971 RMK T03000220 IEM_DS3505
ZHCC,2009-08-13 03:00,ZHCC 130300Z AUTO 16006KT 4SM 32/17 A2971 RMK SLP054 T03250172 54000 IEM_DS3505
ZHCC,2009-08-13 04:00,ZHCC 130400Z AUTO 14006KT 4SM 31/21 A2971 RMK T03100210 IEM_DS3505
ZHCC,2009-08-13 05:00,ZHCC 130500Z AUTO 17004KT 4SM 32/21 A2971 RMK T03200210 IEM_DS3505
ZHCC,2009-08-13 06:00,ZHCC 130600Z AUTO 14008KT 7SM 34/18 A2968 RMK SLP042 T03400185 57012 IEM_DS3505
ZHCC,2009-08-13 07:00,ZHCC 130700Z AUTO 14006KT 4SM 32/21 A2968 RMK T03200210 IEM_DS3505
ZHCC,2009-08-13 08:00,ZHCC 130800Z AUTO 13006KT 4SM 32/22 A2968 RMK T03200220 IEM_DS3505
ZHCC,2009-08-13 09:00,ZHCC 130900Z AUTO 14010KT 10SM 34/18 A2968 RMK SLP035 T03350176 57007 IEM_DS3505
ZHCC,2009-08-13 10:00,ZHCC 131000Z AUTO 13004KT 4SM 30/22 A2968 RMK T03000220 IEM_DS3505
ZHCC,2009-08-13 11:00,ZHCC 131100Z AUTO 13004KT 4SM 28/22 A2968 RMK T02800220 IEM_DS3505
ZHCC,2009-08-13 12:00,ZHCC 131200Z AUTO 11004KT 9SM 30/19 A2971 RMK SLP050 T03010192 52015 IEM_DS3505
ZHCC,2009-08-13 13:00,ZHCC 131300Z AUTO 15002KT 3SM 25/22 A2971 RMK T02500220 IEM_DS3505
ZHCC,2009-08-13 14:00,ZHCC 131400Z AUTO 14004KT 3SM 26/23 A2974 RMK T02600230 IEM_DS3505
ZHCC,2009-08-13 15:00,ZHCC 131500Z AUTO 16002KT 7SM 27/20 A2974 RMK SLP062 T02680197 52012 IEM_DS3505
ZHCC,2009-08-13 16:00,ZHCC 131600Z AUTO 2 1/2SM 24/22 A2974 RMK T02400220 IEM_DS3505
ZHCC,2009-08-13 17:00,ZHCC 131700Z AUTO 21002KT 2SM 24/22 A2974 RMK T02400220 IEM_DS3505
ZHCC,2009-08-13 18:00,ZHCC 131800Z AUTO 11002KT 7SM 23/20 A2971 RMK SLP058 T02310202 57004 IEM_DS3505
ZHCC,2009-08-13 19:00,ZHCC 131900Z AUTO 00000KT 1/2SM 22/20 A2971 RMK T02200200 IEM_DS3505
ZHCC,2009-08-13 20:00,ZHCC 132000Z AUTO 00000KT 3/8SM 21/20 A2971 RMK T02100200 IEM_DS3505
ZHCC,2009-08-13 21:00,ZHCC 132100Z AUTO 11002KT 2SM 22/20 A2971 RMK SLP055 T02170200 57004 IEM_DS3505
ZHCC,2009-08-13 22:00,ZHCC 132200Z AUTO 19002KT 1/2SM 21/20 A2974 RMK T02100200 IEM_DS3505
ZHCC,2009-08-13 23:00,ZHCC 132300Z AUTO 00000KT 1SM 23/22 A2974 RMK T02300220 IEM_DS3505
ZHCC,2009-08-14 00:00,ZHCC 140000Z AUTO 22002KT 2 1/2SM 27/20 A2974 RMK SLP066 T02660204 52012 IEM_DS3505
ZHCC,2009-08-14 01:00,ZHCC 140100Z AUTO 19004KT 1 1/4SM 27/25 A2974 RMK T02700250 IEM_DS3505
ZHCC,2009-08-14 02:00,ZHCC 140200Z AUTO 19004KT 2SM 29/25 A2974 RMK T02900250 IEM_DS3505
ZHCC,2009-08-14 03:00,ZHCC 140300Z AUTO 16008KT 6SM 32/20 RMK SLP064 T03240196 57002 IEM_DS3505
ZHCC,2009-08-14 04:00,ZHCC 140400Z AUTO 18004KT 3SM 32/20 A2974 RMK T03200200 IEM_DS3505
ZHCC,2009-08-14 05:00,ZHCC 140500Z AUTO 17006KT 4SM 32/22 A2974 RMK T03200220 IEM_DS3505
ZHCC,2009-08-14 06:00,ZHCC 140600Z AUTO 16008KT 8SM 34/16 A2971 RMK SLP053 T03400155 57011 IEM_DS3505
ZHCC,2009-08-14 07:00,ZHCC 140700Z AUTO 16006KT 4SM 32/22 A2971 RMK T03200220 IEM_DS3505
ZHCC,2009-08-14 08:00,ZHCC 140800Z AUTO 18004KT 6SM 32/21 A2971 RMK T03200210 IEM_DS3505
ZHCC,2009-08-14 09:00,ZHCC 140900Z AUTO 16006KT 9SM 33/20 A2968 RMK SLP042 T03300195 57012 IEM_DS3505
ZHCC,2009-08-14 10:00,ZHCC 141000Z AUTO 6SM 30/23 A2968 RMK T03000230 IEM_DS3505
ZHCC,2009-08-14 11:00,ZHCC 141100Z AUTO 6SM 28/23 A2971 RMK T02800230 IEM_DS3505
ZHCC,2009-08-14 12:00,ZHCC 141200Z AUTO 11004KT 9SM 30/20 A2971 RMK SLP054 T02950201 52013 IEM_DS3505
ZHCC,2009-08-14 13:00,ZHCC 141300Z AUTO 6SM 26/23 A2974 RMK T02600230 IEM_DS3505
ZHCC,2009-08-14 14:00,ZHCC 141400Z AUTO 3SM 26/23 A2977 RMK T02600230 IEM_DS3505
ZHCC,2009-08-14 15:00,ZHCC 141500Z AUTO 16004KT 7SM 28/22 A2977 RMK SLP070 T02750218 52016 IEM_DS3505
ZHCC,2009-08-14 16:00,ZHCC 141600Z AUTO 19002KT 2SM 25/23 A2977 RMK T02500230 IEM_DS3505
ZHCC,2009-08-14 17:00,ZHCC 141700Z AUTO 1SM 25/23 A2974 RMK T02500230 IEM_DS3505
ZHCC,2009-08-14 18:00,ZHCC 141800Z AUTO 18004KT 7SM 26/23 A2974 RMK SLP064 T02610228 57006 IEM_DS3505
ZHCC,2009-08-14 19:00,ZHCC 141900Z AUTO 1SM 24/23 A2974 RMK T02400230 IEM_DS3505
ZHCC,2009-08-14 20:00,ZHCC 142000Z AUTO 19002KT 1SM 24/23 A2974 RMK T02400230 IEM_DS3505
ZHCC,2009-08-14 21:00,ZHCC 142100Z AUTO 16004KT 5SM 24/22 A2974 RMK SLP062 T02450224 57002 IEM_DS3505
ZHCC,2009-08-14 22:00,ZHCC 142200Z AUTO 20002KT 3/8SM 23/23 A2974 RMK T02300230 IEM_DS3505
ZHCC,2009-08-14 23:00,ZHCC 142300Z AUTO 1/8SM 24/23 A2977 RMK T02400230 IEM_DS3505
ZHCC,2009-08-15 00:00,ZHCC 150000Z AUTO 16004KT 3SM 28/22 A2977 RMK SLP071 T02760221 52009 IEM_DS3505
ZHCC,2009-08-15 01:00,ZHCC 150100Z AUTO 1SM 26/25 A2977 RMK T02600250 IEM_DS3505
ZHCC,2009-08-15 02:00,ZHCC 150200Z AUTO 16004KT 1 1/2SM 28/27 A2977 RMK T02800270 IEM_DS3505
ZHCC,2009-08-15 03:00,ZHCC 150300Z AUTO 16002KT 4SM 32/22 A2977 RMK SLP073 T03180222 52002 IEM_DS3505
ZHCC,2009-08-15 04:00,ZHCC 150400Z AUTO 16006KT 2 1/2SM 31/23 A2977 RMK T03100230 IEM_DS3505
ZHCC,2009-08-15 05:00,ZHCC 150500Z AUTO 14004KT 3SM 32/23 A2977 RMK T03200230 IEM_DS3505
ZHCC,2009-08-15 06:00,ZHCC 150600Z AUTO 14004KT 6SM 34/19 A2977 RMK SLP064 T03370190 57009 IEM_DS3505
ZHCC,2009-08-15 07:00,ZHCC 150700Z AUTO 14004KT 3SM 32/23 A2974 RMK T03200230 IEM_DS3505
ZHCC,2009-08-15 08:00,ZHCC 150800Z AUTO 13004KT 3SM 32/24 A2974 RMK T03200240 IEM_DS3505
ZHCC,2009-08-15 09:00,ZHCC 150900Z AUTO 16004KT 6SM 33/22 A2974 RMK SLP057 T03310216 57007 IEM_DS3505
ZHCC,2009-08-15 10:00,ZHCC 151000Z AUTO 12002KT 3SM 30/24 A2974 RMK T03000240 IEM_DS3505
ZHCC,2009-08-15 11:00,ZHCC 151100Z AUTO 13002KT 3SM 28/24 A2974 RMK T02800240 IEM_DS3505
ZHCC,2009-08-15 12:00,ZHCC 151200Z AUTO 09004KT 6SM 30/21 A2977 RMK SLP070 T03030214 52013 IEM_DS3505
ZHCC,2009-08-15 13:00,ZHCC 151300Z AUTO 12004KT 2 1/2SM 27/24 A2980 RMK T02700240 IEM_DS3505
ZHCC,2009-08-15 14:00,ZHCC 151400Z AUTO 12004KT 2 1/2SM 26/24 A2980 RMK T02600240 IEM_DS3505
ZHCC,2009-08-15 15:00,ZHCC 151500Z AUTO 11002KT 4SM 28/23 A2980 RMK SLP081 T02840226 52011 IEM_DS3505
ZHCC,2009-08-15 16:00,ZHCC 151600Z AUTO 11002KT 2SM 26/24 A2980 RMK T02600240 IEM_DS3505
ZHCC,2009-08-15 17:00,ZHCC 151700Z AUTO 08004KT 1 1/2SM 26/24 A2980 RMK T02600240 IEM_DS3505
ZHCC,2009-08-15 18:00,ZHCC 151800Z AUTO 00000KT 3SM 26/23 A2980 RMK SLP081 T02610232 54000 IEM_DS3505
ZHCC,2009-08-15 19:00,ZHCC 151900Z AUTO 00000KT 1SM 25/23 A2980 RMK T02500230 IEM_DS3505
ZHCC,2009-08-15 20:00,ZHCC 152000Z AUTO 15002KT 1SM 25/24 A2980 RMK T02500240 IEM_DS3505
ZHCC,2009-08-15 21:00,ZHCC 152100Z AUTO 14002KT 3SM 25/23 A2980 RMK SLP083 T02490231 52002 IEM_DS3505
ZHCC,2009-08-15 22:00,ZHCC 152200Z AUTO 18002KT 3/8SM 25/24 A2983 RMK T02500240 IEM_DS3505
ZHCC,2009-08-15 23:00,ZHCC 152300Z AUTO 00000KT 3/8SM 25/24 A2983 RMK T02500240 IEM_DS3505
ZHCC,2009-08-16 00:00,ZHCC 160000Z AUTO 07002KT 2SM 28/24 A2983 RMK SLP092 T02820240 52009 IEM_DS3505
ZHCC,2009-08-16 01:00,ZHCC 160100Z AUTO 12004KT 1 1/4SM 27/26 A2983 RMK T02700260 IEM_DS3505
ZHCC,2009-08-16 02:00,ZHCC 160200Z AUTO 13004KT 1 1/2SM 29/26 A2983 RMK T02900260 IEM_DS3505
ZHCC,2009-08-16 03:00,ZHCC 160300Z AUTO 14004KT 4SM 32/24 A2983 RMK SLP095 T03180236 52003 IEM_DS3505
ZHCC,2009-08-16 04:00,ZHCC 160400Z AUTO 11004KT 2SM 31/25 A2983 RMK T03100250 IEM_DS3505
ZHCC,2009-08-16 05:00,ZHCC 160500Z AUTO 13006KT 2SM 31/25 A2983 RMK T03100250 IEM_DS3505
ZHCC,2009-08-16 06:00,ZHCC 160600Z AUTO 14008KT 5SM 33/21 A2980 RMK SLP079 T03300209 57016 IEM_DS3505
ZHCC,2009-08-16 07:00,ZHCC 160700Z AUTO 10008KT 2SM 32/23 A2977 RMK T03200230 IEM_DS3505
ZHCC,2009-08-16 08:00,ZHCC 160800Z AUTO 09010KT 3SM 32/22 A2977 RMK T03200220 IEM_DS3505
ZHCC,2009-08-16 09:00,ZHCC 160900Z AUTO 14006KT 5SM 33/22 A2977 RMK SLP070 T03260221 57009 IEM_DS3505
ZHCC,2009-08-16 10:00,ZHCC 161000Z AUTO 11002KT 2SM 30/25 A2977 RMK T03000250 IEM_DS3505
ZHCC,2009-08-16 11:00,ZHCC 161100Z AUTO 07006KT 2SM 30/24 A2977 RMK T03000240 IEM_DS3505
ZHCC,2009-08-16 12:00,ZHCC 161200Z AUTO 02002KT 5SM 30/23 A2983 RMK 60000 SLP089 T02990231 52019 IEM_DS3505
ZHCC,2009-08-16 13:00,ZHCC 161300Z AUTO 20002KT 1 1/4SM 27/25 A2983 RMK T02700250 IEM_DS3505
ZHCC,2009-08-16 14:00,ZHCC 161400Z AUTO 10006KT 1 1/4SM 26/24 A2983 RMK T02600240 IEM_DS3505
ZHCC,2009-08-16 15:00,ZHCC 161500Z AUTO 16002KT 5SM 28/24 A2980 RMK SLP081 T02810241 57008 IEM_DS3505
ZHCC,2009-08-16 16:00,ZHCC 161600Z AUTO 02002KT 2SM 26/24 A2980 RMK T02600240 IEM_DS3505
ZHCC,2009-08-16 17:00,ZHCC 161700Z AUTO 06006KT 1SM 25/24 A2980 RMK T02500240 IEM_DS3505
ZHCC,2009-08-16 18:00,ZHCC 161800Z AUTO 09004KT 3SM 25/24 A2977 RMK 60039 SLP076 T02540238 57005 IEM_DS3505
ZHCC,2009-08-16 19:00,ZHCC 161900Z AUTO 1SM 24/23 A2977 RMK T02400230 IEM_DS3505
ZHCC,2009-08-16 20:00,ZHCC 162000Z AUTO 1SM 24/23 A2977 RMK T02400230 IEM_DS3505
ZHCC,2009-08-16 21:00,ZHCC 162100Z AUTO 14008KT 3SM 25/23 A2977 RMK 70243 SLP082 T02460232 52005 IEM_DS3505
ZHCC,2009-08-16 22:00,ZHCC 162200Z AUTO 21004KT 2SM 23/23 A2980 RMK T02300230 IEM_DS3505
ZHCC,2009-08-16 23:00,ZHCC 162300Z AUTO 3SM 23/23 A2977 RMK T02300230 IEM_DS3505
ZHCC,2009-08-17 00:00,ZHCC 170000Z AUTO 09006KT 6SM 24/23 A2977 RMK 60256 70298 SLP077 T02430231 57005 IEM_DS3505
ZHCC,2009-08-17 01:00,ZHCC 170100Z AUTO 08006KT 4SM 23/23 A2977 RMK T02300230 IEM_DS3505
ZHCC,2009-08-17 03:00,ZHCC 170300Z AUTO 11004KT 7SM 26/23 A2977 RMK SLP081 T02550234 52004 IEM_DS3505
ZHCC,2009-08-17 04:00,ZHCC 170400Z AUTO 36004KT 5SM 25/24 A2977 RMK T02500240 IEM_DS3505
ZHCC,2009-08-17 05:00,ZHCC 170500Z AUTO 30006KT 3SM 25/24 A2977 RMK T02500240 IEM_DS3505
ZHCC,2009-08-17 06:00,ZHCC 170600Z AUTO 04004KT 6SM 25/23 A2977 RMK 60002 SLP077 T02460227 57005 IEM_DS3505
ZHCC,2009-08-17 07:00,ZHCC 170700Z AUTO 36010KT 5SM 24/24 A2974 RMK T02400240 IEM_DS3505
ZHCC,2009-08-17 08:00,ZHCC 170800Z AUTO 34008KT 5SM 25/24 A2974 RMK T02500240 IEM_DS3505
ZHCC,2009-08-17 09:00,ZHCC 170900Z AUTO 02004KT 7SM 26/22 A2974 RMK SLP069 T02620223 57008 IEM_DS3505
ZHCC,2009-08-17 10:00,ZHCC 171000Z AUTO 35010KT 3SM 25/23 A2974 RMK T02500230 IEM_DS3505
ZHCC,2009-08-17 11:00,ZHCC 171100Z AUTO 34008KT 3SM 24/23 A2980 RMK T02400230 IEM_DS3505
ZHCC,2009-08-17 12:00,ZHCC 171200Z AUTO 07002KT 9SM 25/21 A2980 RMK 60000 SLP088 T02470214 52019 IEM_DS3505
ZHCC,2009-08-17 13:00,ZHCC 171300Z AUTO 34004KT 3SM 23/22 A2980 RMK T02300220 IEM_DS3505
ZHCC,2009-08-17 14:00,ZHCC 171400Z AUTO 35006KT 3SM 23/22 A2980 RMK T02300220 IEM_DS3505
ZHCC,2009-08-17 15:00,ZHCC 171500Z AUTO 04006KT 5SM 24/21 A2980 RMK SLP093 T02410214 52005 IEM_DS3505
ZHCC,2009-08-17 16:00,ZHCC 171600Z AUTO 33006KT 3SM 23/22 A2983 RMK T02300220 IEM_DS3505
ZHCC,2009-08-17 17:00,ZHCC 171700Z AUTO 35006KT 3SM 23/22 A2980 RMK T02300220 IEM_DS3505
ZHCC,2009-08-17 18:00,ZHCC 171800Z AUTO 36002KT 5SM 24/21 A2983 RMK SLP095 T02430212 52002 IEM_DS3505
ZHCC,2009-08-17 19:00,ZHCC 171900Z AUTO 33006KT 2SM 23/22 A2980 RMK T02300220 IEM_DS3505
ZHCC,2009-08-17 20:00,ZHCC 172000Z AUTO 32006KT 1 1/4SM 22/22 A2980 RMK T02200220 IEM_DS3505
ZHCC,2009-08-17 21:00,ZHCC 172100Z AUTO 02002KT 4SM 23/21 A2980 RMK 70057 SLP091 T02310210 57004 IEM_DS3505
ZHCC,2009-08-17 22:00,ZHCC 172200Z AUTO 36004KT 1SM 22/21 A2983 RMK T02200210 IEM_DS3505
ZHCC,2009-08-17 23:00,ZHCC 172300Z AUTO 35008KT 1SM 22/21 A2983 RMK T02200210 IEM_DS3505
ZHCC,2009-08-18 00:00,ZHCC 180000Z AUTO 07002KT 3SM 24/21 A2983 RMK 70002 SLP101 T02400211 52009 IEM_DS3505
ZHCC,2009-08-18 01:00,ZHCC 180100Z AUTO 35010KT 2SM 23/22 A2985 RMK T02300220 IEM_DS3505
ZHCC,2009-08-18 02:00,ZHCC 180200Z AUTO 02010KT 2 1/2SM 24/22 A2985 RMK T02400220 IEM_DS3505
ZHCC,2009-08-18 03:00,ZHCC 180300Z AUTO 07006KT 5SM 26/21 A2985 RMK SLP103 T02630208 52003 IEM_DS3505
ZHCC,2009-08-18 04:00,ZHCC 180400Z AUTO 04006KT 3SM 26/22 A2983 RMK T02600220 IEM_DS3505
ZHCC,2009-08-18 05:00,ZHCC 180500Z AUTO 06006KT 3SM 27/23 A2980 RMK T02700230 IEM_DS3505
ZHCC,2009-08-18 06:00,ZHCC 180600Z AUTO 11002KT 6SM 29/21 A2980 RMK SLP082 T02900210 57020 IEM_DS3505
ZHCC,2009-08-18 07:00,ZHCC 180700Z AUTO 05004KT 3SM 28/23 A2977 RMK T02800230 IEM_DS3505
ZHCC,2009-08-18 08:00,ZHCC 180800Z AUTO 00000KT 3SM 27/23 A2977 RMK T02700230 IEM_DS3505
ZHCC,2009-08-18 09:00,ZHCC 180900Z AUTO 07004KT 6SM 29/22 A2977 RMK SLP073 T02880216 57010 IEM_DS3505
ZHCC,2009-08-18 10:00,ZHCC 181000Z AUTO 09002KT 3SM 27/23 A2977 RMK T02700230 IEM_DS3505
ZHCC,2009-08-18 11:00,ZHCC 181100Z AUTO 05004KT 2 1/2SM 27/23 A2977 RMK T02700230 IEM_DS3505
ZHCC,2009-08-18 12:00,ZHCC 181200Z AUTO 11004KT 6SM 27/22 A2977 RMK SLP079 T02730220 52006 IEM_DS3505
ZHCC,2009-08-18 13:00,ZHCC 181300Z AUTO 11004KT 1 1/2SM 26/23 A2980 RMK T02600230 IEM_DS3505
ZHCC,2009-08-18 14:00,ZHCC 181400Z AUTO 11006KT 1 1/4SM 25/23 A2980 RMK T02500230 IEM_DS3505
ZHCC,2009-08-18 15:00,ZHCC 181500Z AUTO 09004KT 6SM 26/22 A2980 RMK SLP081 T02650224 52003 IEM_DS3505
ZHCC,2009-08-18 16:00,ZHCC 181600Z AUTO 1 1/4SM 25/23 A2977 RMK T02500230 IEM_DS3505
ZHCC,2009-08-18 17:00,ZHCC 181700Z AUTO 17002KT 1 1/4SM 25/23 A2977 RMK T02500230 IEM_DS3505
ZHCC,2009-08-18 18:00,ZHCC 181800Z AUTO 11002KT 4SM 26/22 A2977 RMK SLP070 T02600225 57011 IEM_DS3505
ZHCC,2009-08-18 19:00,ZHCC 181900Z AUTO 10002KT 1SM 25/23 A2974 RMK T02500230 IEM_DS3505
ZHCC,2009-08-18 20:00,ZHCC 182000Z AUTO 1SM 24/23 A2971 RMK T02400230 IEM_DS3505
ZHCC,2009-08-18 21:00,ZHCC 182100Z AUTO 14002KT 3SM 26/23 A2971 RMK SLP059 T02570226 57011 IEM_DS3505
ZHCC,2009-08-18 22:00,ZHCC 182200Z AUTO 00000KT 1SM 24/23 A2974 RMK T02400230 IEM_DS3505
ZHCC,2009-08-18 23:00,ZHCC 182300Z AUTO 20002KT 1SM 25/24 A2974 RMK T02500240 IEM_DS3505
ZHCC,2009-08-19 00:00,ZHCC 190000Z AUTO 27010KT 2 1/2SM 26/21 A2977 RMK 60000 70000 SLP073 T02610211 52014 IEM_DS3505
ZHCC,2009-08-19 01:00,ZHCC 190100Z AUTO 25006KT 1SM 26/25 A2977 RMK T02600250 IEM_DS3505
ZHCC,2009-08-19 02:00,ZHCC 190200Z AUTO 24002KT 2SM 27/25 A2977 RMK T02700250 IEM_DS3505
ZHCC,2009-08-19 03:00,ZHCC 190300Z AUTO 27008KT 9SM 29/20 A2977 RMK SLP071 T02940203 57002 IEM_DS3505
ZHCC,2009-08-19 04:00,ZHCC 190400Z AUTO 23006KT 4SM 30/24 A2974 RMK T03000240 IEM_DS3505
ZHCC,2009-08-19 05:00,ZHCC 190500Z AUTO 30004KT 7SM 31/24 A2974 RMK T03100240 IEM_DS3505
ZHCC,2009-08-19 06:00,ZHCC 190600Z AUTO 25006KT 12SM 32/21 A2971 RMK SLP055 T03160212 57015 IEM_DS3505
ZHCC,2009-08-19 07:00,ZHCC 190700Z AUTO 23006KT 6SM 32/23 A2971 RMK T03200230 IEM_DS3505
ZHCC,2009-08-19 08:00,ZHCC 190800Z AUTO 25008KT 6SM 32/23 A2971 RMK T03200230 IEM_DS3505
ZHCC,2009-08-19 09:00,ZHCC 190900Z AUTO 25008KT 14SM 31/19 A2971 RMK SLP050 T03100194 57005 IEM_DS3505
ZHCC,2009-08-19 10:00,ZHCC 191000Z AUTO 23004KT 6SM 30/22 A2971 RMK T03000220 IEM_DS3505
ZHCC,2009-08-19 11:00,ZHCC 191100Z AUTO 23004KT 6SM 28/22 A2971 RMK T02800220 IEM_DS3505
ZHCC,2009-08-19 12:00,ZHCC 191200Z AUTO 27004KT 12SM 28/19 A2974 RMK SLP063 T02850189 52012 IEM_DS3505
ZHCC,2009-08-19 13:00,ZHCC 191300Z AUTO 24002KT 4SM 25/22 A2977 RMK T02500220 IEM_DS3505
ZHCC,2009-08-19 14:00,ZHCC 191400Z AUTO 23002KT 3SM 25/21 A2977 RMK T02500210 IEM_DS3505
ZHCC,2009-08-19 15:00,ZHCC 191500Z AUTO 27008KT 9SM 28/18 A2977 RMK SLP067 T02750185 52005 IEM_DS3505
ZHCC,2009-08-19 16:00,ZHCC 191600Z AUTO 26002KT 3SM 24/21 A2977 RMK T02400210 IEM_DS3505
ZHCC,2009-08-19 17:00,ZHCC 191700Z AUTO 00000KT 3SM 24/22 A2977 RMK T02400220 IEM_DS3505
ZHCC,2009-08-19 18:00,ZHCC 191800Z AUTO 29004KT 8SM 27/18 A2977 RMK SLP077 T02700183 52010 IEM_DS3505
ZHCC,2009-08-19 19:00,ZHCC 191900Z AUTO 28004KT 3SM 24/22 A2977 RMK T02400220 IEM_DS3505
ZHCC,2009-08-19 20:00,ZHCC 192000Z AUTO 33004KT 3SM 25/21 A2977 RMK T02500210 IEM_DS3505
ZHCC,2009-08-19 21:00,ZHCC 192100Z AUTO 32004KT 8SM 26/19 RMK 70000 SLP083 T02610188 52005 IEM_DS3505
ZHCC,2009-08-19 22:00,ZHCC 192200Z AUTO 33006KT 2SM 25/22 A2980 RMK T02500220 IEM_DS3505
ZHCC,2009-08-19 23:00,ZHCC 192300Z AUTO 34006KT 2SM 25/22 A2980 RMK T02500220 IEM_DS3505
ZHCC,2009-08-20 00:00,ZHCC 200000Z AUTO 36002KT 7SM 26/21 A2983 RMK SLP093 T02650206 52010 IEM_DS3505
ZHCC,2009-08-20 01:00,ZHCC 200100Z AUTO 33006KT 1 1/4SM 25/23 A2983 RMK T02500230 IEM_DS3505
ZHCC,2009-08-20 02:00,ZHCC 200200Z AUTO 35006KT 1 1/4SM 26/23 A2983 RMK T02600230 IEM_DS3505
ZHCC,2009-08-20 03:00,ZHCC 200300Z AUTO 04004KT 6SM 29/21 A2983 RMK SLP094 T02860211 52001 IEM_DS3505
ZHCC,2009-08-20 04:00,ZHCC 200400Z AUTO 04006KT 2 1/2SM 28/23 A2983 RMK T02800230 IEM_DS3505
ZHCC,2009-08-20 05:00,ZHCC 200500Z AUTO 02008KT 3SM 28/22 A2980 RMK T02800220 IEM_DS3505
ZHCC,2009-08-20 06:00,ZHCC 200600Z AUTO 07006KT 6SM 30/20 A2980 RMK SLP081 T03010195 57013 IEM_DS3505
ZHCC,2009-08-20 07:00,ZHCC 200700Z AUTO 06006KT 6SM 30/22 A2977 RMK T03000220 IEM_DS3505
ZHCC,2009-08-20 08:00,ZHCC 200800Z AUTO 05006KT 6SM 30/22 A2974 RMK T03000220 IEM_DS3505
ZHCC,2009-08-20 09:00,ZHCC 200900Z AUTO 07004KT 9SM 30/19 A2974 RMK SLP061 T03050186 57019 IEM_DS3505
ZHCC,2009-08-20 10:00,ZHCC 201000Z AUTO 06004KT 6SM 29/21 A2974 RMK T02900210 IEM_DS3505
ZHCC,2009-08-20 11:00,ZHCC 201100Z AUTO 05006KT 6SM 28/20 A2974 RMK T02800200 IEM_DS3505
ZHCC,2009-08-20 12:00,ZHCC 201200Z AUTO 07004KT 9SM 28/18 A2977 RMK SLP069 T02830175 52007 IEM_DS3505
ZHCC,2009-08-20 13:00,ZHCC 201300Z AUTO 03004KT 6SM 26/20 A2977 RMK T02600200 IEM_DS3505
ZHCC,2009-08-20 14:00,ZHCC 201400Z AUTO 05006KT 6SM 25/20 A2977 RMK T02500200 IEM_DS3505
ZHCC,2009-08-20 15:00,ZHCC 201500Z AUTO 07002KT 9SM 26/17 A2980 RMK SLP081 T02650173 52012 IEM_DS3505
ZHCC,2009-08-20 16:00,ZHCC 201600Z AUTO 6SM 25/20 A2977 RMK T02500200 IEM_DS3505
ZHCC,2009-08-20 17:00,ZHCC 201700Z AUTO 03004KT 6SM 25/19 A2977 RMK T02500190 IEM_DS3505
ZHCC,2009-08-20 18:00,ZHCC 201800Z AUTO 07002KT 7SM 26/18 A2977 RMK SLP075 T02590183 57006 IEM_DS3505
ZHCC,2009-08-20 19:00,ZHCC 201900Z AUTO 03004KT 4SM 23/20 A2977 RMK T02300200 IEM_DS3505
ZHCC,2009-08-20 20:00,ZHCC 202000Z AUTO 04002KT 4SM 23/20 A2977 RMK T02300200 IEM_DS3505
ZHCC,2009-08-20 21:00,ZHCC 202100Z AUTO 07002KT 7SM 26/18 A2974 RMK SLP068 T02550182 57007 IEM_DS3505
ZHCC,2009-08-20 22:00,ZHCC 202200Z AUTO 36004KT 2 1/2SM 23/20 A2974 RMK T02300200 IEM_DS3505
ZHCC,2009-08-20 23:00,ZHCC 202300Z AUTO 36004KT 2 1/2SM 23/20 A2977 RMK T02300200 IEM_DS3505
ZHCC,2009-08-21 00:00,ZHCC 210000Z AUTO 07004KT 6SM 26/19 A2977 RMK SLP075 T02570191 52007 IEM_DS3505
ZHCC,2009-08-21 01:00,ZHCC 210100Z AUTO 02004KT 1 1/2SM 24/21 A2977 RMK T02400210 IEM_DS3505
ZHCC,2009-08-21 02:00,ZHCC 210200Z AUTO 02006KT 1 1/4SM 25/21 A2977 RMK T02500210 IEM_DS3505
ZHCC,2009-08-21 03:00,ZHCC 210300Z AUTO 02006KT 6SM 25/20 A2980 RMK SLP084 T02470195 52008 IEM_DS3505
ZHCC,2009-08-21 04:00,ZHCC 210400Z AUTO 31006KT 1SM 23/21 A2980 RMK T02300210 IEM_DS3505
ZHCC,2009-08-21 05:00,ZHCC 210500Z AUTO 34010KT 1 1/2SM 22/21 A2977 RMK T02200210 IEM_DS3505
ZHCC,2009-08-21 06:00,ZHCC 210600Z AUTO 34002KT 7SM 22/19 A2977 RMK 60028 SLP082 T02190189 57003 IEM_DS3505
ZHCC,2009-08-21 07:00,ZHCC 210700Z AUTO 34008KT 3SM 22/20 A2974 RMK T02200200 IEM_DS3505
ZHCC,2009-08-21 08:00,ZHCC 210800Z AUTO 35016KT 4SM 23/20 A2974 RMK T02300200 IEM_DS3505
ZHCC,2009-08-21 09:00,ZHCC 210900Z AUTO 04008KT 9SM 21/17 A2977 RMK SLP079 T02130169 57003 IEM_DS3505
ZHCC,2009-08-21 10:00,ZHCC 211000Z AUTO 01016G25KT 4SM 21/17 A2977 RMK T02100170 IEM_DS3505
ZHCC,2009-08-21 11:00,ZHCC 211100Z AUTO 34010KT 5SM 20/17 A2980 RMK T02000170 IEM_DS3505
ZHCC,2009-08-21 12:00,ZHCC 211200Z AUTO 04010KT 6SM 19/17 A2980 RMK 60039 SLP099 T01920166 52020 IEM_DS3505
ZHCC,2009-08-21 13:00,ZHCC 211300Z AUTO 35014KT 5SM 19/16 A2985 RMK T01900160 IEM_DS3505
ZHCC,2009-08-21 14:00,ZHCC 211400Z AUTO 36010KT 3SM 18/16 A2985 RMK T01800160 IEM_DS3505
ZHCC,2009-08-21 15:00,ZHCC 211500Z AUTO 04004KT 4SM 19/16 A2985 RMK SLP110 T01880160 52010 IEM_DS3505
ZHCC,2009-08-21 16:00,ZHCC 211600Z AUTO 36008KT 2SM 18/16 A2985 RMK T01800160 IEM_DS3505
ZHCC,2009-08-21 17:00,ZHCC 211700Z AUTO 02006KT 2SM 17/16 A2983 RMK T01700160 IEM_DS3505
ZHCC,2009-08-21 18:00,ZHCC 211800Z AUTO 36006KT 6SM 19/16 A2983 RMK 60028 SLP104 T01910158 57006 IEM_DS3505
ZHCC,2009-08-21 19:00,ZHCC 211900Z AUTO 36008KT 3SM 17/16 A2983 RMK T01700160 IEM_DS3505
ZHCC,2009-08-21 20:00,ZHCC 212000Z AUTO 02008KT 3SM 17/17 A2983 RMK T01700170 IEM_DS3505
ZHCC,2009-08-21 21:00,ZHCC 212100Z AUTO 02004KT 5SM 19/16 A2983 RMK 70096 SLP103 T01900159 57001 IEM_DS3505
ZHCC,2009-08-21 22:00,ZHCC 212200Z AUTO 01008KT 1SM 17/17 A2983 RMK T01700170 IEM_DS3505
ZHCC,2009-08-21 23:00,ZHCC 212300Z AUTO 01010KT 1SM 17/16 A2985 RMK T01700160 IEM_DS3505
ZHCC,2009-08-22 00:00,ZHCC 220000Z AUTO 02004KT 5SM 19/16 A2985 RMK 60002 70096 SLP118 T01860164 52014 IEM_DS3505
ZHCC,2009-08-22 01:00,ZHCC 220100Z AUTO 34008KT 2 1/2SM 18/17 A2988 RMK T01800170 IEM_DS3505
ZHCC,2009-08-22 02:00,ZHCC 220200Z AUTO 34010KT 4SM 18/18 A2988 RMK T01800180 IEM_DS3505
ZHCC,2009-08-22 03:00,ZHCC 220300Z AUTO 02006KT 5SM 20/17 A2988 RMK SLP119 T02010167 52001 IEM_DS3505
ZHCC,2009-08-22 04:00,ZHCC 220400Z AUTO 32006KT 4SM 19/18 A2988 RMK T01900180 IEM_DS3505
ZHCC,2009-08-22 05:00,ZHCC 220500Z AUTO 34008KT 4SM 20/18 A2988 RMK T02000180 IEM_DS3505
ZHCC,2009-08-22 06:00,ZHCC 220600Z AUTO 36004KT 5SM 21/17 A2988 RMK 60000 SLP118 T02090169 57001 IEM_DS3505
ZHCC,2009-08-22 07:00,ZHCC 220700Z AUTO 34008KT 4SM 21/19 A2985 RMK T02100190 IEM_DS3505
ZHCC,2009-08-22 08:00,ZHCC 220800Z AUTO 35010KT 4SM 21/18 A2985 RMK T02100180 IEM_DS3505
ZHCC,2009-08-22 09:00,ZHCC 220900Z AUTO 04004KT 6SM 22/17 A2985 RMK SLP110 T02160174 57007 IEM_DS3505
ZHCC,2009-08-22 10:00,ZHCC 221000Z AUTO 35006KT 3SM 21/18 A2985 RMK T02100180 IEM_DS3505
ZHCC,2009-08-22 11:00,ZHCC 221100Z AUTO 33004KT 3SM 21/18 A2988 RMK T02100180 IEM_DS3505
ZHCC,2009-08-22 12:00,ZHCC 221200Z AUTO 04002KT 4SM 22/18 A2988 RMK 60000 SLP121 T02150177 52010 IEM_DS3505
ZHCC,2009-08-22 13:00,ZHCC 221300Z AUTO 33004KT 3SM 20/18 A2991 RMK T02000180 IEM_DS3505
ZHCC,2009-08-22 14:00,ZHCC 221400Z AUTO 34004KT 3SM 20/18 A2991 RMK T02000180 IEM_DS3505
ZHCC,2009-08-22 15:00,ZHCC 221500Z AUTO 36002KT 4SM 21/17 A2991 RMK SLP132 T02110171 52011 IEM_DS3505
ZHCC,2009-08-22 16:00,ZHCC 221600Z AUTO 34004KT 3SM 20/18 A2991 RMK T02000180 IEM_DS3505
ZHCC,2009-08-22 17:00,ZHCC 221700Z AUTO 31002KT 3SM 20/18 A2991 RMK T02000180 IEM_DS3505
ZHCC,2009-08-22 18:00,ZHCC 221800Z AUTO 00000KT 4SM 21/18 A2991 RMK SLP128 T02060180 57003 IEM_DS3505
ZHCC,2009-08-22 19:00,ZHCC 221900Z AUTO 05002KT 2SM 19/18 A2991 RMK T01900180 IEM_DS3505
ZHCC,2009-08-22 20:00,ZHCC 222000Z AUTO 00000KT 1 1/2SM 18/17 A2991 RMK T01800170 IEM_DS3505
ZHCC,2009-08-22 21:00,ZHCC 222100Z AUTO 00000KT 3SM 19/18 A2991 RMK 70001 SLP126 T01910178 57003 IEM_DS3505
ZHCC,2009-08-22 22:00,ZHCC 222200Z AUTO 29002KT 1 1/4SM 18/17 A2991 RMK T01800170 IEM_DS3505
ZHCC,2009-08-22 23:00,ZHCC 222300Z AUTO 00000KT 1 1/4SM 19/18 A2991 RMK T01900180 IEM_DS3505
ZHCC,2009-08-23 00:00,ZHCC 230000Z AUTO 36002KT 3SM 22/18 A2994 RMK 70001 SLP137 T02160182 52012 IEM_DS3505
ZHCC,2009-08-23 01:00,ZHCC 230100Z AUTO 2SM 21/20 A2994 RMK T02100200 IEM_DS3505
ZHCC,2009-08-23 02:00,ZHCC 230200Z AUTO 2SM 23/21 A2994 RMK T02300210 IEM_DS3505
ZHCC,2009-08-23 03:00,ZHCC 230300Z AUTO 22004KT 5SM 26/18 A2994 RMK SLP138 T02620178 52002 IEM_DS3505
ZHCC,2009-08-23 04:00,ZHCC 230400Z AUTO 01004KT 2 1/2SM 26/19 A2994 RMK T02600190 IEM_DS3505
ZHCC,2009-08-23 05:00,ZHCC 230500Z AUTO 2 1/2SM 27/20 A2991 RMK T02700200 IEM_DS3505
ZHCC,2009-08-23 06:00,ZHCC 230600Z AUTO 11002KT 6SM 29/17 A2991 RMK SLP124 T02890174 57014 IEM_DS3505
ZHCC,2009-08-23 07:00,ZHCC 230700Z AUTO 36004KT 2 1/2SM 28/20 A2988 RMK T02800200 IEM_DS3505
ZHCC,2009-08-23 08:00,ZHCC 230800Z AUTO 2 1/2SM 28/20 A2988 RMK T02800200 IEM_DS3505
ZHCC,2009-08-23 09:00,ZHCC 230900Z AUTO 07004KT 7SM 28/18 A2988 RMK SLP112 T02830181 57012 IEM_DS3505
ZHCC,2009-08-23 10:00,ZHCC 231000Z AUTO 34004KT 2 1/2SM 27/19 A2985 RMK T02700190 IEM_DS3505
ZHCC,2009-08-23 11:00,ZHCC 231100Z AUTO 2 1/2SM 26/20 A2988 RMK T02600200 IEM_DS3505
ZHCC,2009-08-23 12:00,ZHCC 231200Z AUTO 09004KT 6SM 25/19 A2991 RMK SLP121 T02530192 52009 IEM_DS3505
ZHCC,2009-08-23 13:00,ZHCC 231300Z AUTO 08004KT 2SM 23/20 A2991 RMK T02300200 IEM_DS3505
ZHCC,2009-08-23 14:00,ZHCC 231400Z AUTO 08004KT 1 1/4SM 23/20 A2991 RMK T02300200 IEM_DS3505
ZHCC,2009-08-23 15:00,ZHCC 231500Z AUTO 09002KT 4SM 24/20 A2991 RMK SLP131 T02350196 52010 IEM_DS3505
ZHCC,2009-08-23 16:00,ZHCC 231600Z AUTO 00000KT 1SM 22/20 A2991 RMK T02200200 IEM_DS3505
ZHCC,2009-08-23 17:00,ZHCC 231700Z AUTO 00000KT 1SM 21/20 A2991 RMK T02100200 IEM_DS3505
ZHCC,2009-08-23 18:00,ZHCC 231800Z AUTO 09002KT 2 1/2SM 22/20 A2991 RMK SLP128 T02220197 57002 IEM_DS3505
ZHCC,2009-08-23 19:00,ZHCC 231900Z AUTO 00000KT 1/2SM 21/20 A2991 RMK T02100200 IEM_DS3505
ZHCC,2009-08-23 20:00,ZHCC 232000Z AUTO 07004KT 1SM 21/20 A2991 RMK T02100200 IEM_DS3505
ZHCC,2009-08-23 21:00,ZHCC 232100Z AUTO 09002KT 2 1/2SM 22/20 A2991 RMK SLP130 T02170196 52001 IEM_DS3505
ZHCC,2009-08-23 22:00,ZHCC 232200Z AUTO 07004KT 1/2SM 20/20 A2991 RMK T02000200 IEM_DS3505
ZHCC,2009-08-23 23:00,ZHCC 232300Z AUTO 11004KT 1/8SM 20/20 A2994 RMK T02000200 IEM_DS3505
ZHCC,2009-08-24 00:00,ZHCC 240000Z AUTO 09002KT 1 1/4SM 23/20 A2994 RMK SLP135 T02270204 52005 IEM_DS3505
ZHCC,2009-08-24 01:00,ZHCC 240100Z AUTO 09004KT 1SM 22/22 A2994 RMK T02200220 IEM_DS3505
ZHCC,2009-08-24 02:00,ZHCC 240200Z AUTO 11004KT 2SM 24/23 A2994 RMK T02400230 IEM_DS3505
ZHCC,2009-08-24 03:00,ZHCC 240300Z AUTO 07002KT 4SM 26/20 A2994 RMK SLP140 T02580197 52005 IEM_DS3505
ZHCC,2009-08-24 04:00,ZHCC 240400Z AUTO 12002KT 2 1/2SM 26/21 A2994 RMK T02600210 IEM_DS3505
ZHCC,2009-08-24 06:00,ZHCC 240600Z AUTO 07002KT 6SM 29/19 A2988 RMK SLP117 T02880192 57022 IEM_DS3505
ZHCC,2009-08-24 07:00,ZHCC 240700Z AUTO 02004KT 2 1/2SM 28/22 A2988 RMK T02800220 IEM_DS3505
ZHCC,2009-08-24 08:00,ZHCC 240800Z AUTO 2 1/2SM 28/22 A2985 RMK T02800220 IEM_DS3505
ZHCC,2009-08-24 09:00,ZHCC 240900Z AUTO 09004KT 6SM 28/20 A2985 RMK SLP105 T02840202 57012 IEM_DS3505
ZHCC,2009-08-24 10:00,ZHCC 241000Z AUTO 10006KT 2SM 27/22 A2985 RMK T02700220 IEM_DS3505
ZHCC,2009-08-24 11:00,ZHCC 241100Z AUTO 07006KT 1 1/4SM 26/22 A2985 RMK T02600220 IEM_DS3505
ZHCC,2009-08-24 12:00,ZHCC 241200Z AUTO 07002KT 6SM 26/20 A2988 RMK SLP112 T02610202 52006 IEM_DS3505
ZHCC,2009-08-24 13:00,ZHCC 241300Z AUTO 08006KT 1 1/4SM 25/21 A2988 RMK T02500210 IEM_DS3505
ZHCC,2009-08-24 14:00,ZHCC 241400Z AUTO 11004KT 1 1/4SM 24/21 A2988 RMK T02400210 IEM_DS3505
ZHCC,2009-08-24 15:00,ZHCC 241500Z AUTO 09002KT 6SM 24/21 A2988 RMK SLP116 T02430208 52005 IEM_DS3505
ZHCC,2009-08-24 16:00,ZHCC 241600Z AUTO 13002KT 1 1/4SM 24/22 A2988 RMK T02400220 IEM_DS3505
ZHCC,2009-08-24 17:00,ZHCC 241700Z AUTO 09004KT 1 1/4SM 23/21 A2985 RMK T02300210 IEM_DS3505
ZHCC,2009-08-24 18:00,ZHCC 241800Z AUTO 14002KT 4SM 25/21 A2985 RMK SLP102 T02470208 57014 IEM_DS3505
ZHCC,2009-08-24 19:00,ZHCC 241900Z AUTO 00000KT 1SM 23/21 A2983 RMK T02300210 IEM_DS3505
ZHCC,2009-08-24 20:00,ZHCC 242000Z AUTO 20002KT 1SM 23/22 A2983 RMK T02300220 IEM_DS3505
ZHCC,2009-08-24 21:00,ZHCC 242100Z AUTO 09002KT 3SM 25/21 A2983 RMK SLP097 T02460211 57005 IEM_DS3505
ZHCC,2009-08-24 22:00,ZHCC 242200Z AUTO 19002KT 1SM 23/22 A2983 RMK T02300220 IEM_DS3505
ZHCC,2009-08-24 23:00,ZHCC 242300Z AUTO 1SM 23/22 A2983 RMK T02300220 IEM_DS3505
ZHCC,2009-08-25 00:00,ZHCC 250000Z AUTO 16004KT 2 1/2SM 26/22 A2983 RMK SLP097 T02560215 54000 IEM_DS3505
ZHCC,2009-08-25 01:00,ZHCC 250100Z AUTO 18004KT 1SM 25/24 A2983 RMK T02500240 IEM_DS3505
ZHCC,2009-08-25 02:00,ZHCC 250200Z AUTO 20006KT 1 1/4SM 27/25 A2983 RMK T02700250 IEM_DS3505
ZHCC,2009-08-25 03:00,ZHCC 250300Z AUTO 18006KT 4SM 30/23 A2983 RMK SLP087 T02960228 57009 IEM_DS3505
ZHCC,2009-08-25 04:00,ZHCC 250400Z AUTO 20004KT 1 1/4SM 29/25 A2980 RMK T02900250 IEM_DS3505
ZHCC,2009-08-25 05:00,ZHCC 250500Z AUTO 19004KT 1 1/4SM 30/25 A2977 RMK T03000250 IEM_DS3505
ZHCC,2009-08-25 06:00,ZHCC 250600Z AUTO 20006KT 5SM 32/23 A2977 RMK SLP065 T03170233 57021 IEM_DS3505
ZHCC,2009-08-25 07:00,ZHCC 250700Z AUTO 1 1/2SM 30/25 A2974 RMK T03000250 IEM_DS3505
ZHCC,2009-08-25 09:00,ZHCC 250900Z AUTO 14006KT 4SM 32/24 A2971 RMK SLP048 T03160237 57017 IEM_DS3505
ZHCC,2009-08-25 10:00,ZHCC 251000Z AUTO 15002KT 1 1/2SM 30/26 A2971 RMK T03000260 IEM_DS3505
ZHCC,2009-08-25 11:00,ZHCC 251100Z AUTO 1 1/4SM 28/25 A2968 RMK T02800250 IEM_DS3505
ZHCC,2009-08-25 12:00,ZHCC 251200Z AUTO 14004KT 4SM 30/24 A2971 RMK SLP051 T02950244 52002 IEM_DS3505
ZHCC,2009-08-25 13:00,ZHCC 251300Z AUTO 13002KT 1 1/4SM 27/25 A2971 RMK T02700250 IEM_DS3505
ZHCC,2009-08-25 14:00,ZHCC 251400Z AUTO 14004KT 1 1/4SM 27/25 A2971 RMK T02700250 IEM_DS3505
ZHCC,2009-08-25 15:00,ZHCC 251500Z AUTO 14004KT 2SM 28/25 A2971 RMK SLP050 T02820248 54000 IEM_DS3505
ZHCC,2009-08-25 16:00,ZHCC 251600Z AUTO 15004KT 1 1/4SM 27/26 A2968 RMK T02700260 IEM_DS3505
ZHCC,2009-08-25 17:00,ZHCC 251700Z AUTO 18004KT 1 1/4SM 26/25 A2968 RMK T02600250 IEM_DS3505
ZHCC,2009-08-25 18:00,ZHCC 251800Z AUTO 22002KT 1 1/4SM 27/25 A2968 RMK SLP044 T02700248 57006 IEM_DS3505
ZHCC,2009-08-25 19:00,ZHCC 251900Z AUTO 1/2SM 26/25 A2968 RMK T02600250 IEM_DS3505
ZHCC,2009-08-25 20:00,ZHCC 252000Z AUTO 20004KT 1SM 26/25 A2968 RMK T02600250 IEM_DS3505
ZHCC,2009-08-25 21:00,ZHCC 252100Z AUTO 27008KT 2SM 27/23 A2968 RMK SLP042 T02730229 57002 IEM_DS3505
ZHCC,2009-08-25 22:00,ZHCC 252200Z AUTO 29002KT 1SM 25/24 A2968 RMK T02500240 IEM_DS3505
ZHCC,2009-08-25 23:00,ZHCC 252300Z AUTO 1SM 25/25 A2968 RMK T02500250 IEM_DS3505
ZHCC,2009-08-26 00:00,ZHCC 260000Z AUTO 25006KT 4SM 28/22 A2968 RMK SLP048 T02780221 52006 IEM_DS3505
ZHCC,2009-08-26 01:00,ZHCC 260100Z AUTO 25010KT 2 1/2SM 28/25 A2971 RMK T02800250 IEM_DS3505
ZHCC,2009-08-26 02:00,ZHCC 260200Z AUTO 25010KT 4SM 29/23 A2971 RMK T02900230 IEM_DS3505
ZHCC,2009-08-26 03:00,ZHCC 260300Z AUTO 29012KT 7SM 30/20 A2971 RMK SLP057 T02950198 52009 IEM_DS3505
ZHCC,2009-08-26 04:00,ZHCC 260400Z AUTO 27017KT 5SM 30/22 A2971 RMK T03000220 IEM_DS3505
ZHCC,2009-08-26 05:00,ZHCC 260500Z AUTO 26012KT 6SM 31/23 A2971 RMK T03100230 IEM_DS3505
ZHCC,2009-08-26 06:00,ZHCC 260600Z AUTO 27008KT 7SM 31/21 A2968 RMK SLP047 T03090208 57010 IEM_DS3505
ZHCC,2009-08-26 07:00,ZHCC 260700Z AUTO 01010KT 4SM 28/23 A2968 RMK T02800230 IEM_DS3505
ZHCC,2009-08-26 08:00,ZHCC 260800Z AUTO 35008KT 6SM 28/23 A2968 RMK T02800230 IEM_DS3505
ZHCC,2009-08-26 09:00,ZHCC 260900Z AUTO 09008KT 11SM 28/21 A2968 RMK SLP049 T02780206 52001 IEM_DS3505
ZHCC,2009-08-26 10:00,ZHCC 261000Z AUTO 04006KT 6SM 27/22 A2971 RMK T02700220 IEM_DS3505
ZHCC,2009-08-26 11:00,ZHCC 261100Z AUTO 35006KT 6SM 25/21 A2971 RMK T02500210 IEM_DS3505
ZHCC,2009-08-26 12:00,ZHCC 261200Z AUTO 11002KT 10SM 26/19 A2974 RMK SLP060 T02560190 52011 IEM_DS3505
ZHCC,2009-08-26 13:00,ZHCC 261300Z AUTO 00000KT 6SM 24/21 A2974 RMK T02400210 IEM_DS3505
ZHCC,2009-08-26 14:00,ZHCC 261400Z AUTO 19004KT 6SM 23/21 A2974 RMK T02300210 IEM_DS3505
ZHCC,2009-08-26 15:00,ZHCC 261500Z AUTO 22006KT 4SM 25/20 A2974 RMK SLP067 T02540200 52007 IEM_DS3505
ZHCC,2009-08-26 16:00,ZHCC 261600Z AUTO 23004KT 6SM 23/21 A2974 RMK T02300210 IEM_DS3505
ZHCC,2009-08-26 17:00,ZHCC 261700Z AUTO 00000KT 4SM 23/21 A2971 RMK T02300210 IEM_DS3505
ZHCC,2009-08-26 18:00,ZHCC 261800Z AUTO 25004KT 3SM 26/19 A2971 RMK SLP052 T02550192 57014 IEM_DS3505
ZHCC,2009-08-26 19:00,ZHCC 261900Z AUTO 00000KT 3SM 23/21 A2971 RMK T02300210 IEM_DS3505
ZHCC,2009-08-26 20:00,ZHCC 262000Z AUTO 00000KT 1 1/2SM 22/20 A2971 RMK T02200200 IEM_DS3505
ZHCC,2009-08-26 21:00,ZHCC 262100Z AUTO 20002KT 2 1/2SM 22/20 A2971 RMK SLP055 T02190196 52001 IEM_DS3505
ZHCC,2009-08-26 22:00,ZHCC 262200Z AUTO 18004KT 2 1/2SM 21/20 A2974 RMK T02100200 IEM_DS3505
ZHCC,2009-08-26 23:00,ZHCC 262300Z AUTO 00000KT 2SM 22/21 A2974 RMK T02200210 IEM_DS3505
ZHCC,2009-08-27 00:00,ZHCC 270000Z AUTO 22002KT 5SM 26/19 A2974 RMK SLP067 T02550189 52012 IEM_DS3505
ZHCC,2009-08-27 01:00,ZHCC 270100Z AUTO 2 1/2SM 26/23 A2974 RMK T02600230 IEM_DS3505
ZHCC,2009-08-27 02:00,ZHCC 270200Z AUTO 19004KT 4SM 28/22 A2974 RMK T02800220 IEM_DS3505
ZHCC,2009-08-27 03:00,ZHCC 270300Z AUTO 25004KT 7SM 31/19 A2974 RMK SLP062 T03140191 57003 IEM_DS3505
ZHCC,2009-08-27 04:00,ZHCC 270400Z AUTO 23002KT 4SM 32/22 A2974 RMK T03200220 IEM_DS3505
ZHCC,2009-08-27 05:00,ZHCC 270500Z AUTO 24002KT 4SM 31/22 A2974 RMK T03100220 IEM_DS3505
ZHCC,2009-08-27 06:00,ZHCC 270600Z AUTO 09004KT 11SM 34/18 A2971 RMK SLP052 T03400185 57010 IEM_DS3505
ZHCC,2009-08-27 07:00,ZHCC 270700Z AUTO 5SM 32/22 A2971 RMK T03200220 IEM_DS3505
ZHCC,2009-08-27 08:00,ZHCC 270800Z AUTO 16002KT 5SM 32/23 A2971 RMK T03200230 IEM_DS3505
ZHCC,2009-08-27 09:00,ZHCC 270900Z AUTO 18004KT 12SM 34/19 A2971 RMK SLP042 T03360193 57010 IEM_DS3505
ZHCC,2009-08-27 10:00,ZHCC 271000Z AUTO 5SM 30/23 A2971 RMK T03000230 IEM_DS3505
ZHCC,2009-08-27 11:00,ZHCC 271100Z AUTO 5SM 28/23 A2971 RMK T02800230 IEM_DS3505
ZHCC,2009-08-27 12:00,ZHCC 271200Z AUTO 16004KT 9SM 29/21 A2974 RMK SLP056 T02940211 52013 IEM_DS3505
ZHCC,2009-08-27 13:00,ZHCC 271300Z AUTO 4SM 26/23 A2974 RMK T02600230 IEM_DS3505
ZHCC,2009-08-27 14:00,ZHCC 271400Z AUTO 20002KT 2 1/2SM 25/23 A2977 RMK T02500230 IEM_DS3505
ZHCC,2009-08-27 15:00,ZHCC 271500Z AUTO 16002KT 6SM 26/22 A2977 RMK SLP070 T02600217 52015 IEM_DS3505
ZHCC,2009-08-27 16:00,ZHCC 271600Z AUTO 00000KT 1SM 23/22 A2977 RMK T02300220 IEM_DS3505
ZHCC,2009-08-27 17:00,ZHCC 271700Z AUTO 00000KT 1 1/4SM 23/22 A2977 RMK T02300220 IEM_DS3505
ZHCC,2009-08-27 18:00,ZHCC 271800Z AUTO 11002KT 3SM 23/21 A2977 RMK SLP073 T02260212 52002 IEM_DS3505
ZHCC,2009-08-27 19:00,ZHCC 271900Z AUTO 00000KT 3/8SM 22/21 A2977 RMK T02200210 IEM_DS3505
ZHCC,2009-08-27 20:00,ZHCC 272000Z AUTO 00000KT 3/8SM 21/21 A2980 RMK T02100210 IEM_DS3505
ZHCC,2009-08-27 21:00,ZHCC 272100Z AUTO 04006KT 4SM 24/21 A2980 RMK SLP090 T02380211 52017 IEM_DS3505
ZHCC,2009-08-27 22:00,ZHCC 272200Z AUTO 04006KT 1SM 22/21 A2983 RMK T02200210 IEM_DS3505
ZHCC,2009-08-27 23:00,ZHCC 272300Z AUTO 04006KT 1SM 22/21 A2985 RMK T02200210 IEM_DS3505
ZHCC,2009-08-28 00:00,ZHCC 280000Z AUTO 07006KT 6SM 25/21 A2988 RMK SLP108 T02490208 52018 IEM_DS3505
ZHCC,2009-08-28 01:00,ZHCC 280100Z AUTO 04012KT 1SM 23/22 A2988 RMK T02300220 IEM_DS3505
ZHCC,2009-08-28 02:00,ZHCC 280200Z AUTO 05010KT 1 1/4SM 25/23 A2988 RMK T02500230 IEM_DS3505
ZHCC,2009-08-28 03:00,ZHCC 280300Z AUTO 07008KT 4SM 28/22 A2988 RMK SLP112 T02830218 52003 IEM_DS3505
ZHCC,2009-08-28 04:00,ZHCC 280400Z AUTO 04008KT 1 1/4SM 26/23 A2988 RMK T02600230 IEM_DS3505
ZHCC,2009-08-28 05:00,ZHCC 280500Z AUTO 06010KT 2SM 29/23 A2985 RMK T02900230 IEM_DS3505
ZHCC,2009-08-28 06:00,ZHCC 280600Z AUTO 04008KT 5SM 28/22 A2983 RMK SLP103 T02850215 57009 IEM_DS3505
ZHCC,2009-08-28 07:00,ZHCC 280700Z AUTO 04010KT 1 1/2SM 29/23 A2983 RMK T02900230 IEM_DS3505
ZHCC,2009-08-28 08:00,ZHCC 280800Z AUTO 05012KT 1 1/2SM 29/23 A2983 RMK T02900230 IEM_DS3505
ZHCC,2009-08-28 09:00,ZHCC 280900Z AUTO 04006KT 6SM 29/19 A2983 RMK SLP098 T02890192 57005 IEM_DS3505
ZHCC,2009-08-28 10:00,ZHCC 281000Z AUTO 04008KT 1 1/2SM 27/21 A2985 RMK T02700210 IEM_DS3505
ZHCC,2009-08-28 11:00,ZHCC 281100Z AUTO 06008KT 2 1/2SM 26/21 A2985 RMK T02600210 IEM_DS3505
ZHCC,2009-08-28 12:00,ZHCC 281200Z AUTO 04012KT 6SM 26/16 A2988 RMK 60000 SLP120 T02620165 52022 IEM_DS3505
ZHCC,2009-08-28 13:00,ZHCC 281300Z AUTO 04010KT 2 1/2SM 25/19 A2988 RMK T02500190 IEM_DS3505
ZHCC,2009-08-28 14:00,ZHCC 281400Z AUTO 05006KT 1SM 22/20 A2994 RMK T02200200 IEM_DS3505
ZHCC,2009-08-28 15:00,ZHCC 281500Z AUTO 09004KT 6SM 24/18 A2994 RMK SLP139 T02410181 52019 IEM_DS3505
ZHCC,2009-08-28 16:00,ZHCC 281600Z AUTO 35010KT 2SM 21/20 A2994 RMK T02100200 IEM_DS3505
ZHCC,2009-08-28 17:00,ZHCC 281700Z AUTO 34012KT 2SM 20/19 A2994 RMK T02000190 IEM_DS3505
ZHCC,2009-08-28 18:00,ZHCC 281800Z AUTO 04012KT 5SM 20/18 A2994 RMK 60024 SLP138 T02050184 57002 IEM_DS3505
ZHCC,2009-08-28 19:00,ZHCC 281900Z AUTO 1 1/2SM 19/18 A2994 RMK T01900180 IEM_DS3505
ZHCC,2009-08-28 20:00,ZHCC 282000Z AUTO 34016KT 2SM 18/17 A2994 RMK T01800170 IEM_DS3505
ZHCC,2009-08-28 21:00,ZHCC 282100Z AUTO 02010G25KT 4SM 17/15 A2994 RMK 70070 SLP149 T01700153 52010 IEM_DS3505
ZHCC,2009-08-28 22:00,ZHCC 282200Z AUTO 35017G29KT 2SM 16/15 A2997 RMK T01600150 IEM_DS3505
ZHCC,2009-08-28 23:00,ZHCC 282300Z AUTO 34017G27KT 2SM 16/16 A3003 RMK T01600160 IEM_DS3505
ZHCC,2009-08-29 00:00,ZHCC 290000Z AUTO 04012G25KT 9SM 17/14 A3003 RMK 60091 70114 SLP179 T01660139 52029 IEM_DS3505
ZHCC,2009-08-29 01:00,ZHCC 290100Z AUTO 35016G27KT 3SM 15/14 A3006 RMK T01500140 IEM_DS3505
ZHCC,2009-08-29 02:00,ZHCC 290200Z AUTO 36016KT 3SM 15/14 A3012 RMK T01500140 IEM_DS3505
ZHCC,2009-08-29 03:00,ZHCC 290300Z AUTO 04006KT 7SM 16/13 A3012 RMK SLP207 T01630134 52027 IEM_DS3505
ZHCC,2009-08-29 04:00,ZHCC 290400Z AUTO 35010KT 3SM 15/15 A3012 RMK T01500150 IEM_DS3505
ZHCC,2009-08-29 05:00,ZHCC 290500Z AUTO 02014KT 3SM 15/14 A3012 RMK T01500140 IEM_DS3505
ZHCC,2009-08-29 06:00,ZHCC 290600Z AUTO 04006KT 9SM 17/14 A3012 RMK 60020 SLP200 T01690140 57007 IEM_DS3505
ZHCC,2009-08-29 07:00,ZHCC 290700Z AUTO 04010KT 4SM 16/14 A3012 RMK T01600140 IEM_DS3505
ZHCC,2009-08-29 08:00,ZHCC 290800Z AUTO 36006KT 7SM 15/14 A3012 RMK T01500140 IEM_DS3505
ZHCC,2009-08-29 09:00,ZHCC 290900Z AUTO 04006KT 9SM 17/12 A3012 RMK SLP205 T01680121 52004 IEM_DS3505
ZHCC,2009-08-29 10:00,ZHCC 291000Z AUTO 32006KT 7SM 16/13 A3012 RMK T01600130 IEM_DS3505
ZHCC,2009-08-29 11:00,ZHCC 291100Z AUTO 32004KT 6SM 15/13 A3012 RMK T01500130 IEM_DS3505
ZHCC,2009-08-29 12:00,ZHCC 291200Z AUTO 22002KT 9SM 16/13 A3015 RMK 60000 SLP207 T01610128 52002 IEM_DS3505
ZHCC,2009-08-29 13:00,ZHCC 291300Z AUTO 6SM 15/13 A3015 RMK T01500130 IEM_DS3505
ZHCC,2009-08-29 14:00,ZHCC 291400Z AUTO 00000KT 4SM 14/13 A3015 RMK T01400130 IEM_DS3505
ZHCC,2009-08-29 15:00,ZHCC 291500Z AUTO 00000KT 6SM 14/13 A3015 RMK SLP211 T01410128 52003 IEM_DS3505
ZHCC,2009-08-29 16:00,ZHCC 291600Z AUTO 26002KT 3SM 14/13 A3015 RMK T01400130 IEM_DS3505
ZHCC,2009-08-29 17:00,ZHCC 291700Z AUTO 28002KT 3SM 13/12 A3012 RMK T01300120 IEM_DS3505
ZHCC,2009-08-29 18:00,ZHCC 291800Z AUTO 22004KT 5SM 14/13 A3012 RMK SLP201 T01450132 57010 IEM_DS3505
ZHCC,2009-08-29 19:00,ZHCC 291900Z AUTO 27002KT 2SM 13/12 A3009 RMK T01300120 IEM_DS3505
ZHCC,2009-08-29 20:00,ZHCC 292000Z AUTO 00000KT 1SM 12/11 A3009 RMK T01200110 IEM_DS3505
ZHCC,2009-08-29 21:00,ZHCC 292100Z AUTO 00000KT 3SM 12/12 A3006 RMK 70062 SLP190 T01250117 57011 IEM_DS3505
ZHCC,2009-08-29 22:00,ZHCC 292200Z AUTO 22004KT 1 1/4SM 12/12 A3006 RMK T01200120 IEM_DS3505
ZHCC,2009-08-29 23:00,ZHCC 292300Z AUTO 00000KT 1 1/2SM 14/13 A3009 RMK T01400130 IEM_DS3505
ZHCC,2009-08-30 00:00,ZHCC 300000Z AUTO 00000KT 5SM 17/14 A3009 RMK 70019 SLP190 T01740135 52001 IEM_DS3505
ZHCC,2009-08-30 01:00,ZHCC 300100Z AUTO 17004KT 3SM 17/16 A3009 RMK T01700160 IEM_DS3505
ZHCC,2009-08-30 02:00,ZHCC 300200Z AUTO 4SM 19/17 A3009 RMK T01900170 IEM_DS3505
ZHCC,2009-08-30 03:00,ZHCC 300300Z AUTO 14004KT 12SM 23/10 A3009 RMK SLP185 T02310105 57004 IEM_DS3505
ZHCC,2009-08-30 04:00,ZHCC 300400Z AUTO 09002KT 6SM 22/14 A3006 RMK T02200140 IEM_DS3505
ZHCC,2009-08-30 05:00,ZHCC 300500Z AUTO 14004KT 7SM 23/15 A3003 RMK T02300150 IEM_DS3505
ZHCC,2009-08-30 06:00,ZHCC 300600Z AUTO 09004KT 14SM 25/11 A3003 RMK SLP164 T02540112 57020 IEM_DS3505
ZHCC,2009-08-30 07:00,ZHCC 300700Z AUTO 11002KT 6SM 24/14 A3000 RMK T02400140 IEM_DS3505
ZHCC,2009-08-30 08:00,ZHCC 300800Z AUTO 00000KT 6SM 24/15 A2997 RMK T02400150 IEM_DS3505
ZHCC,2009-08-30 09:00,ZHCC 300900Z AUTO 14004KT 13SM 26/13 A2997 RMK SLP148 T02580126 57016 IEM_DS3505
ZHCC,2009-08-30 10:00,ZHCC 301000Z AUTO 13004KT 6SM 23/16 A2997 RMK T02300160 IEM_DS3505
ZHCC,2009-08-30 11:00,ZHCC 301100Z AUTO 13004KT 6SM 20/16 A2997 RMK T02000160 IEM_DS3505
ZHCC,2009-08-30 12:00,ZHCC 301200Z AUTO 14006KT 12SM 22/14 A3000 RMK SLP154 T02210145 52006 IEM_DS3505
ZHCC,2009-08-30 13:00,ZHCC 301300Z AUTO 14004KT 6SM 18/16 A3000 RMK T01800160 IEM_DS3505
ZHCC,2009-08-30 14:00,ZHCC 301400Z AUTO 17002KT 4SM 18/15 A3003 RMK T01800150 IEM_DS3505
ZHCC,2009-08-30 15:00,ZHCC 301500Z AUTO 16004KT 7SM 19/15 A3003 RMK SLP166 T01930154 52012 IEM_DS3505
ZHCC,2009-08-30 16:00,ZHCC 301600Z AUTO 18002KT 3SM 17/15 A3003 RMK T01700150 IEM_DS3505
ZHCC,2009-08-30 17:00,ZHCC 301700Z AUTO 20004KT 3SM 17/15 A3003 RMK T01700150 IEM_DS3505
ZHCC,2009-08-30 18:00,ZHCC 301800Z AUTO 16004KT 6SM 18/15 A3000 RMK SLP159 T01760151 57007 IEM_DS3505
ZHCC,2009-08-30 19:00,ZHCC 301900Z AUTO 16/15 A3000 RMK T01600150 IEM_DS3505
ZHCC,2009-08-30 20:00,ZHCC 302000Z AUTO 2SM 16/14 A2997 RMK T01600140 IEM_DS3505
ZHCC,2009-08-30 21:00,ZHCC 302100Z AUTO 16002KT 2 1/2SM 17/14 A2997 RMK SLP151 T01690145 57008 IEM_DS3505
ZHCC,2009-08-30 22:00,ZHCC 302200Z AUTO 23002KT 2 1/2SM 16/14 A3000 RMK T01600140 IEM_DS3505
ZHCC,2009-08-30 23:00,ZHCC 302300Z AUTO 22002KT 2SM 17/16 A3000 RMK T01700160 IEM_DS3505
ZHCC,2009-08-31 00:00,ZHCC 310000Z AUTO 18002KT 4SM 20/16 A3000 RMK SLP162 T01970158 52011 IEM_DS3505
ZHCC,2009-08-31 01:00,ZHCC 310100Z AUTO 20004KT 4SM 21/18 A3003 RMK T02100180 IEM_DS3505
ZHCC,2009-08-31 02:00,ZHCC 310200Z AUTO 18006KT 4SM 22/18 A3003 RMK T02200180 IEM_DS3505
ZHCC,2009-08-31 03:00,ZHCC 310300Z AUTO 16004KT 4SM 25/16 A3003 RMK SLP161 T02470162 54000 IEM_DS3505
ZHCC,2009-08-31 04:00,ZHCC 310400Z AUTO 19006KT 4SM 24/17 A3000 RMK T02400170 IEM_DS3505
ZHCC,2009-08-31 05:00,ZHCC 310500Z AUTO 16006KT 6SM 25/17 A3000 RMK T02500170 IEM_DS3505
ZHCC,2009-08-31 06:00,ZHCC 310600Z AUTO 16004KT 7SM 27/15 A2997 RMK SLP145 T02700147 57016 IEM_DS3505
ZHCC,2009-08-31 07:00,ZHCC 310700Z AUTO 18004KT 6SM 26/17 A2994 RMK T02600170 IEM_DS3505
ZHCC,2009-08-31 08:00,ZHCC 310800Z AUTO 15006KT 6SM 25/17 A2994 RMK T02500170 IEM_DS3505
ZHCC,2009-08-31 09:00,ZHCC 310900Z AUTO 18006KT 11SM 27/14 A2994 RMK SLP131 T02690140 57014 IEM_DS3505
ZHCC,2009-08-31 10:00,ZHCC 311000Z AUTO 15004KT 6SM 24/17 A2994 RMK T02400170 IEM_DS3505
ZHCC,2009-08-31 11:00,ZHCC 311100Z AUTO 5SM 21/17 A2994 RMK T02100170 IEM_DS3505
ZHCC,2009-08-31 12:00,ZHCC 311200Z AUTO 14006KT 9SM 23/16 A2997 RMK SLP143 T02330159 52012 IEM_DS3505
ZHCC,2009-08-31 13:00,ZHCC 311300Z AUTO 16002KT 5SM 20/17 A2997 RMK T02000170 IEM_DS3505
ZHCC,2009-08-31 14:00,ZHCC 311400Z AUTO 16002KT 5SM 19/16 A2997 RMK T01900160 IEM_DS3505
ZHCC,2009-08-31 15:00,ZHCC 311500Z AUTO 11002KT 8SM 20/16 A2997 RMK SLP149 T02040162 52006 IEM_DS3505
ZHCC,2009-08-31 16:00,ZHCC 311600Z AUTO 3SM 18/16 A2997 RMK T01800160 IEM_DS3505
ZHCC,2009-08-31 17:00,ZHCC 311700Z AUTO 18002KT 2SM 18/16 A2997 RMK T01800160 IEM_DS3505
ZHCC,2009-08-31 18:00,ZHCC 311800Z AUTO 18004KT 7SM 18/16 A2997 RMK SLP145 T01850159 57004 IEM_DS3505
ZHCC,2009-08-31 19:00,ZHCC 311900Z AUTO 17002KT 1SM 16/15 A2994 RMK T01600150 IEM_DS3505
ZHCC,2009-08-31 20:00,ZHCC 312000Z AUTO 00000KT 1SM 16/15 A2994 RMK T01600150 IEM_DS3505
ZHCC,2009-08-31 21:00,ZHCC 312100Z AUTO 16004KT 6SM 18/16 A2994 RMK SLP142 T01810159 57003 IEM_DS3505
ZHCC,2009-08-31 22:00,ZHCC 312200Z AUTO 00000KT 1SM 16/15 A2997 RMK T01600150 IEM_DS3505
ZHCC,2009-08-31 23:00,ZHCC 312300Z AUTO 00000KT 1SM 16/16 A2997 RMK T01600160 IEM_DS3505
ZHCC,2009-09-01 00:00,ZHCC 010000Z AUTO 11002KT 5SM 22/18 A3000 RMK SLP151 T02170175 52009 IEM_DS3505
ZHCC,2009-09-01 01:00,ZHCC 010100Z AUTO 17004KT 1 1/4SM 20/19 A3000 RMK T02000190 IEM_DS3505
ZHCC,2009-09-01 02:00,ZHCC 010200Z AUTO 16004KT 2SM 22/21 A3000 RMK T02200210 IEM_DS3505
ZHCC,2009-09-01 03:00,ZHCC 010300Z AUTO 18006KT 6SM 25/17 A3000 RMK SLP150 T02500170 57001 IEM_DS3505
ZHCC,2009-09-01 04:00,ZHCC 010400Z AUTO 3SM 25/19 A2997 RMK T02500190 IEM_DS3505
ZHCC,2009-09-01 05:00,ZHCC 010500Z AUTO 17004KT 3SM 26/19 A2994 RMK T02600190 IEM_DS3505
ZHCC,2009-09-01 06:00,ZHCC 010600Z AUTO 09004KT 9SM 27/17 A2994 RMK SLP133 T02740167 57017 IEM_DS3505
ZHCC,2009-09-01 07:00,ZHCC 010700Z AUTO 14004KT 3SM 26/18 A2991 RMK T02600180 IEM_DS3505
ZHCC,2009-09-01 08:00,ZHCC 010800Z AUTO 15006KT 3SM 26/18 A2991 RMK T02600180 IEM_DS3505
ZHCC,2009-09-01 09:00,ZHCC 010900Z AUTO 14006KT 9SM 27/16 A2991 RMK SLP125 T02720156 57008 IEM_DS3505
ZHCC,2009-09-01 10:00,ZHCC 011000Z AUTO 12006KT 3SM 24/19 A2991 RMK T02400190 IEM_DS3505
ZHCC,2009-09-01 12:00,ZHCC 011200Z AUTO 11006KT 7SM 24/18 A2994 RMK SLP135 T02390179 52010 IEM_DS3505
ZHCC,2009-09-01 13:00,ZHCC 011300Z AUTO 14004KT 2 1/2SM 21/19 A2994 RMK T02100190 IEM_DS3505
ZHCC,2009-09-01 14:00,ZHCC 011400Z AUTO 2 1/2SM 20/18 A2994 RMK T02000180 IEM_DS3505
ZHCC,2009-09-01 15:00,ZHCC 011500Z AUTO 14002KT 6SM 22/18 A2997 RMK SLP143 T02220182 52009 IEM_DS3505
ZHCC,2009-09-01 16:00,ZHCC 011600Z AUTO 00000KT 1 1/4SM 20/18 A2997 RMK T02000180 IEM_DS3505
ZHCC,2009-09-01 17:00,ZHCC 011700Z AUTO 15002KT 1 1/4SM 19/18 A2997 RMK T01900180 IEM_DS3505
ZHCC,2009-09-01 18:00,ZHCC 011800Z AUTO 11002KT 4SM 20/18 A2997 RMK SLP145 T01980181 52002 IEM_DS3505
ZHCC,2009-09-01 19:00,ZHCC 011900Z AUTO 00000KT 1SM 19/18 A2994 RMK T01900180 IEM_DS3505
ZHCC,2009-09-01 20:00,ZHCC 012000Z AUTO 00000KT 1SM 19/18 A2994 RMK T01900180 IEM_DS3505
ZHCC,2009-09-01 21:00,ZHCC 012100Z AUTO 09002KT 4SM 21/19 A2994 RMK SLP135 T02060187 57010 IEM_DS3505
ZHCC,2009-09-01 22:00,ZHCC 012200Z AUTO 00000KT 1SM 20/19 A2994 RMK T02000190 IEM_DS3505
ZHCC,2009-09-01 23:00,ZHCC 012300Z AUTO 14002KT 1SM 20/19 A2997 RMK T02000190 IEM_DS3505
ZHCC,2009-09-02 00:00,ZHCC 020000Z AUTO 14004KT 4SM 22/20 A2997 RMK SLP144 T02200196 52008 IEM_DS3505
ZHCC,2009-09-02 01:00,ZHCC 020100Z AUTO 14004KT 1 1/2SM 22/21 A2997 RMK T02200210 IEM_DS3505
ZHCC,2009-09-02 02:00,ZHCC 020200Z AUTO 13002KT 2SM 23/22 A2997 RMK T02300220 IEM_DS3505
ZHCC,2009-09-02 03:00,ZHCC 020300Z AUTO 11004KT 5SM 26/19 A2997 RMK SLP142 T02580192 57001 IEM_DS3505
ZHCC,2009-09-02 04:00,ZHCC 020400Z AUTO 15004KT 2 1/2SM 25/21 A2994 RMK T02500210 IEM_DS3505
ZHCC,2009-09-02 05:00,ZHCC 020500Z AUTO 14002KT 3SM 25/20 A2991 RMK T02500200 IEM_DS3505
ZHCC,2009-09-02 06:00,ZHCC 020600Z AUTO 09006KT 6SM 27/18 A2991 RMK SLP123 T02720179 57019 IEM_DS3505
ZHCC,2009-09-02 07:00,ZHCC 020700Z AUTO 13004KT 5SM 27/20 A2988 RMK T02700200 IEM_DS3505
ZHCC,2009-09-02 08:00,ZHCC 020800Z AUTO 16004KT 5SM 27/20 A2988 RMK T02700200 IEM_DS3505
ZHCC,2009-09-02 09:00,ZHCC 020900Z AUTO 11008KT 7SM 28/17 A2988 RMK SLP112 T02750171 57011 IEM_DS3505
ZHCC,2009-09-02 10:00,ZHCC 021000Z AUTO 12004KT 5SM 25/20 A2988 RMK T02500200 IEM_DS3505
ZHCC,2009-09-02 11:00,ZHCC 021100Z AUTO 12004KT 4SM 24/20 A2988 RMK T02400200 IEM_DS3505
ZHCC,2009-09-02 12:00,ZHCC 021200Z AUTO 07002KT 6SM 24/20 A2991 RMK SLP124 T02440199 52012 IEM_DS3505
ZHCC,2009-09-02 13:00,ZHCC 021300Z AUTO 11004KT 3SM 23/20 A2991 RMK T02300200 IEM_DS3505
ZHCC,2009-09-02 14:00,ZHCC 021400Z AUTO 11002KT 3SM 23/20 A2991 RMK T02300200 IEM_DS3505
ZHCC,2009-09-02 15:00,ZHCC 021500Z AUTO 11002KT 6SM 22/20 A2991 RMK SLP128 T02220199 52004 IEM_DS3505
ZHCC,2009-09-02 16:00,ZHCC 021600Z AUTO 12004KT 2 1/2SM 23/21 A2991 RMK T02300210 IEM_DS3505
ZHCC,2009-09-02 17:00,ZHCC 021700Z AUTO 12004KT 2SM 23/21 A2991 RMK T02300210 IEM_DS3505
ZHCC,2009-09-02 18:00,ZHCC 021800Z AUTO 07002KT 5SM 22/21 A2991 RMK 60020 SLP125 T02230206 57003 IEM_DS3505
ZHCC,2009-09-02 19:00,ZHCC 021900Z AUTO 00000KT 1SM 22/20 A2991 RMK T02200200 IEM_DS3505
ZHCC,2009-09-02 20:00,ZHCC 022000Z AUTO 28002KT 1SM 21/20 A2988 RMK T02100200 IEM_DS3505
ZHCC,2009-09-02 21:00,ZHCC 022100Z AUTO 00000KT 3SM 22/21 A2988 RMK 70018 SLP117 T02190207 57008 IEM_DS3505
ZHCC,2009-09-02 22:00,ZHCC 022200Z AUTO 03002KT 1SM 20/20 A2988 RMK T02000200 IEM_DS3505
ZHCC,2009-09-02 23:00,ZHCC 022300Z AUTO 1SM 21/21 A2991 RMK T02100210 IEM_DS3505
ZHCC,2009-09-03 00:00,ZHCC 030000Z AUTO 09004KT 2SM 23/22 A2991 RMK 70018 SLP125 T02340217 52008 IEM_DS3505
ZHCC,2009-09-03 01:00,ZHCC 030100Z AUTO 11004KT 1SM 24/23 A2991 RMK T02400230 IEM_DS3505
ZHCC,2009-09-03 02:00,ZHCC 030200Z AUTO 1 1/4SM 24/23 A2991 RMK T02400230 IEM_DS3505
ZHCC,2009-09-03 03:00,ZHCC 030300Z AUTO 07004KT 3SM 26/22 A2991 RMK SLP125 T02640220 54000 IEM_DS3505
ZHCC,2009-09-03 04:00,ZHCC 030400Z AUTO 08004KT 2 1/2SM 27/25 A2988 RMK T02700250 IEM_DS3505
ZHCC,2009-09-03 05:00,ZHCC 030500Z AUTO 06006KT 2 1/2SM 27/24 A2985 RMK T02700240 IEM_DS3505
ZHCC,2009-09-03 06:00,ZHCC 030600Z AUTO 09006KT 4SM 29/22 A2985 RMK SLP100 T02910216 57024 IEM_DS3505
ZHCC,2009-09-03 07:00,ZHCC 030700Z AUTO 12006KT 2 1/2SM 28/23 A2983 RMK T02800230 IEM_DS3505
ZHCC,2009-09-03 08:00,ZHCC 030800Z AUTO 11008KT 2SM 27/24 A2983 RMK T02700240 IEM_DS3505
ZHCC,2009-09-03 09:00,ZHCC 030900Z AUTO 09006KT 4SM 28/22 A2983 RMK SLP090 T02820222 57010 IEM_DS3505
ZHCC,2009-09-03 10:00,ZHCC 031000Z AUTO 09004KT 1 1/4SM 26/24 A2983 RMK T02600240 IEM_DS3505
ZHCC,2009-09-03 11:00,ZHCC 031100Z AUTO 1 1/4SM 25/23 A2983 RMK T02500230 IEM_DS3505
ZHCC,2009-09-03 12:00,ZHCC 031200Z AUTO 07002KT 5SM 26/23 A2983 RMK 60000 SLP099 T02590232 52009 IEM_DS3505
ZHCC,2009-09-03 13:00,ZHCC 031300Z AUTO 1SM 25/24 A2985 RMK T02500240 IEM_DS3505
ZHCC,2009-09-03 14:00,ZHCC 031400Z AUTO 34002KT 1SM 25/24 A2985 RMK T02500240 IEM_DS3505
ZHCC,2009-09-03 15:00,ZHCC 031500Z AUTO 09004KT 2SM 26/24 A2985 RMK SLP102 T02570239 52003 IEM_DS3505
ZHCC,2009-09-03 16:00,ZHCC 031600Z AUTO 09002KT 1SM 25/24 A2985 RMK T02500240 IEM_DS3505
ZHCC,2009-09-03 17:00,ZHCC 031700Z AUTO 12002KT 1SM 24/24 A2983 RMK T02400240 IEM_DS3505
ZHCC,2009-09-03 18:00,ZHCC 031800Z AUTO 00000KT 2SM 25/24 A2983 RMK SLP095 T02470235 57006 IEM_DS3505
ZHCC,2009-09-03 19:00,ZHCC 031900Z AUTO 13004KT 3/8SM 24/23 A2983 RMK T02400230 IEM_DS3505
ZHCC,2009-09-03 20:00,ZHCC 032000Z AUTO 13004KT 1/2SM 24/23 A2980 RMK T02400230 IEM_DS3505
ZHCC,2009-09-03 21:00,ZHCC 032100Z AUTO 09002KT 1SM 24/23 A2980 RMK 70000 SLP086 T02430229 57010 IEM_DS3505
ZHCC,2009-09-03 22:00,ZHCC 032200Z AUTO 11004KT 1SM 23/22 A2980 RMK T02300220 IEM_DS3505
ZHCC,2009-09-03 23:00,ZHCC 032300Z AUTO 12004KT 1SM 23/22 A2983 RMK T02300220 IEM_DS3505
ZHCC,2009-09-04 00:00,ZHCC 040000Z AUTO 14004KT 1SM 25/23 A2983 RMK 70000 SLP090 T02470228 52004 IEM_DS3505
ZHCC,2009-09-04 01:00,ZHCC 040100Z AUTO 17004KT 1SM 23/23 A2983 RMK T02300230 IEM_DS3505
ZHCC,2009-09-04 02:00,ZHCC 040200Z AUTO 1 1/4SM 24/24 A2983 RMK T02400240 IEM_DS3505
ZHCC,2009-09-04 03:00,ZHCC 040300Z AUTO 16008KT 5SM 28/23 A2980 RMK SLP083 T02780227 57006 IEM_DS3505
ZHCC,2009-09-04 04:00,ZHCC 040400Z AUTO 2SM 27/25 A2977 RMK T02700250 IEM_DS3505
ZHCC,2009-09-04 05:00,ZHCC 040500Z AUTO 2SM 28/25 A2977 RMK T02800250 IEM_DS3505
ZHCC,2009-09-04 06:00,ZHCC 040600Z AUTO 16006KT 6SM 31/22 A2974 RMK SLP062 T03060225 57021 IEM_DS3505
ZHCC,2009-09-04 07:00,ZHCC 040700Z AUTO 17004KT 2 1/2SM 30/24 A2971 RMK T03000240 IEM_DS3505
ZHCC,2009-09-04 08:00,ZHCC 040800Z AUTO 12006KT 2 1/2SM 29/24 A2971 RMK T02900240 IEM_DS3505
ZHCC,2009-09-04 09:00,ZHCC 040900Z AUTO 11006KT 6SM 31/23 A2971 RMK SLP050 T03060228 57012 IEM_DS3505
ZHCC,2009-09-04 10:00,ZHCC 041000Z AUTO 13006KT 2SM 28/24 A2971 RMK T02800240 IEM_DS3505
ZHCC,2009-09-04 11:00,ZHCC 041100Z AUTO 13006KT 1 1/2SM 27/24 A2971 RMK T02700240 IEM_DS3505
ZHCC,2009-09-04 12:00,ZHCC 041200Z AUTO 11006KT 6SM 28/23 A2971 RMK SLP054 T02800232 52004 IEM_DS3505
ZHCC,2009-09-04 13:00,ZHCC 041300Z AUTO 13004KT 2SM 26/23 A2974 RMK T02600230 IEM_DS3505
ZHCC,2009-09-04 14:00,ZHCC 041400Z AUTO 13004KT 2SM 25/24 A2974 RMK T02500240 IEM_DS3505
ZHCC,2009-09-04 15:00,ZHCC 041500Z AUTO 14002KT 5SM 26/23 A2974 RMK SLP062 T02610232 52008 IEM_DS3505
ZHCC,2009-09-04 16:00,ZHCC 041600Z AUTO 15004KT 1 1/4SM 25/24 A2974 RMK T02500240 IEM_DS3505
ZHCC,2009-09-04 17:00,ZHCC 041700Z AUTO 16004KT 1 1/4SM 25/24 A2974 RMK T02500240 IEM_DS3505
ZHCC,2009-09-04 18:00,ZHCC 041800Z AUTO 18002KT 3SM 26/23 A2971 RMK SLP055 T02610234 57006 IEM_DS3505
ZHCC,2009-09-04 19:00,ZHCC 041900Z AUTO 16002KT 1 1/4SM 24/23 A2971 RMK T02400230 IEM_DS3505
ZHCC,2009-09-04 20:00,ZHCC 042000Z AUTO 1 1/4SM 24/23 A2971 RMK T02400230 IEM_DS3505
ZHCC,2009-09-04 21:00,ZHCC 042100Z AUTO 14004KT 3SM 25/23 A2971 RMK SLP051 T02520229 57004 IEM_DS3505
ZHCC,2009-09-04 22:00,ZHCC 042200Z AUTO 18002KT 1SM 24/23 A2971 RMK T02400230 IEM_DS3505
ZHCC,2009-09-04 23:00,ZHCC 042300Z AUTO 00000KT 1SM 24/23 A2971 RMK T02400230 IEM_DS3505
ZHCC,2009-09-05 00:00,ZHCC 050000Z AUTO 14004KT 2 1/2SM 26/23 A2974 RMK SLP060 T02590234 52008 IEM_DS3505
ZHCC,2009-09-05 01:00,ZHCC 050100Z AUTO 1SM 25/24 A2971 RMK T02500240 IEM_DS3505
ZHCC,2009-09-05 02:00,ZHCC 050200Z AUTO 1 1/4SM 26/25 A2974 RMK T02600250 IEM_DS3505
ZHCC,2009-09-05 03:00,ZHCC 050300Z AUTO 14002KT 3SM 30/25 A2971 RMK SLP055 T03010247 57004 IEM_DS3505
ZHCC,2009-09-05 04:00,ZHCC 050400Z AUTO 14004KT 2SM 29/27 A2971 RMK T02900270 IEM_DS3505
ZHCC,2009-09-05 05:00,ZHCC 050500Z AUTO 13004KT 2SM 31/27 A2968 RMK T03100270 IEM_DS3505
ZHCC,2009-09-05 06:00,ZHCC 050600Z AUTO 16004KT 6SM 33/22 A2968 RMK SLP036 T03300225 57019 IEM_DS3505
ZHCC,2009-09-05 07:00,ZHCC 050700Z AUTO 15004KT 2 1/2SM 32/25 A2965 RMK T03200250 IEM_DS3505
ZHCC,2009-09-05 08:00,ZHCC 050800Z AUTO 16004KT 2 1/2SM 32/25 A2965 RMK T03200250 IEM_DS3505
ZHCC,2009-09-05 09:00,ZHCC 050900Z AUTO 04004KT 6SM 32/24 A2965 RMK SLP030 T03220245 57006 IEM_DS3505
ZHCC,2009-09-05 10:00,ZHCC 051000Z AUTO 12006KT 2 1/2SM 30/25 A2965 RMK T03000250 IEM_DS3505
ZHCC,2009-09-05 11:00,ZHCC 051100Z AUTO 05008KT 2SM 28/25 A2965 RMK T02800250 IEM_DS3505
ZHCC,2009-09-05 12:00,ZHCC 051200Z AUTO 07008KT 4SM 26/23 A2968 RMK SLP048 T02620229 52017 IEM_DS3505
ZHCC,2009-09-05 13:00,ZHCC 051300Z AUTO 05008KT 1 1/4SM 25/24 A2971 RMK T02500240 IEM_DS3505
ZHCC,2009-09-05 14:00,ZHCC 051400Z AUTO 06008KT 1SM 25/23 A2971 RMK T02500230 IEM_DS3505
ZHCC,2009-09-05 15:00,ZHCC 051500Z AUTO 07006KT 3SM 25/22 A2974 RMK SLP062 T02480225 52014 IEM_DS3505
ZHCC,2009-09-05 16:00,ZHCC 051600Z AUTO 04006KT 1SM 24/23 A2974 RMK T02400230 IEM_DS3505
ZHCC,2009-09-05 17:00,ZHCC 051700Z AUTO 04004KT 1SM 24/23 A2974 RMK T02400230 IEM_DS3505
ZHCC,2009-09-05 18:00,ZHCC 051800Z AUTO 04004KT 2SM 24/22 A2974 RMK SLP063 T02430220 52002 IEM_DS3505
ZHCC,2009-09-05 19:00,ZHCC 051900Z AUTO 04004KT 1/2SM 23/23 A2974 RMK T02300230 IEM_DS3505
ZHCC,2009-09-05 20:00,ZHCC 052000Z AUTO 06004KT 1/2SM 23/23 A2974 RMK T02300230 IEM_DS3505
ZHCC,2009-09-05 21:00,ZHCC 052100Z AUTO 09002KT 2SM 24/22 A2974 RMK SLP065 T02430222 52002 IEM_DS3505
ZHCC,2009-09-05 22:00,ZHCC 052200Z AUTO 04004KT 1/2SM 23/23 A2974 RMK T02300230 IEM_DS3505
ZHCC,2009-09-05 23:00,ZHCC 052300Z AUTO 03004KT 1/2SM 23/23 A2977 RMK T02300230 IEM_DS3505
ZHCC,2009-09-06 00:00,ZHCC 060000Z AUTO 09002KT 1 1/4SM 24/22 A2977 RMK 60016 70016 SLP080 T02390223 52013 IEM_DS3505
ZHCC,2009-09-06 01:00,ZHCC 060100Z AUTO 03006KT 1/2SM 23/23 A2977 RMK T02300230 IEM_DS3505
ZHCC,2009-09-06 02:00,ZHCC 060200Z AUTO 04006KT 1/2SM 23/23 A2977 RMK T02300230 IEM_DS3505
ZHCC,2009-09-06 03:00,ZHCC 060300Z AUTO 07006KT 2SM 24/22 A2977 RMK SLP079 T02370223 57001 IEM_DS3505
ZHCC,2009-09-06 04:00,ZHCC 060400Z AUTO 05008KT 1SM 24/23 A2977 RMK T02400230 IEM_DS3505
ZHCC,2009-09-06 05:00,ZHCC 060500Z AUTO 04012KT 1SM 24/23 A2977 RMK T02400230 IEM_DS3505
ZHCC,2009-09-06 06:00,ZHCC 060600Z AUTO 04008KT 6SM 21/18 A2977 RMK 60063 SLP085 T02110185 52005 IEM_DS3505
ZHCC,2009-09-06 07:00,ZHCC 060700Z AUTO 02012KT 3SM 19/19 A2980 RMK T01900190 IEM_DS3505
ZHCC,2009-09-06 08:00,ZHCC 060800Z AUTO 03010KT 4SM 19/18 A2980 RMK T01900180 IEM_DS3505
ZHCC,2009-09-06 09:00,ZHCC 060900Z AUTO 04012KT 9SM 19/16 A2980 RMK SLP098 T01930156 52012 IEM_DS3505
ZHCC,2009-09-06 10:00,ZHCC 061000Z AUTO 03012KT 4SM 18/16 A2983 RMK T01800160 IEM_DS3505
ZHCC,2009-09-06 11:00,ZHCC 061100Z AUTO 04012KT 4SM 17/15 A2983 RMK T01700150 IEM_DS3505
ZHCC,2009-09-06 12:00,ZHCC 061200Z AUTO 04010KT 10SM 18/14 A2985 RMK SLP116 T01780139 52018 IEM_DS3505
ZHCC,2009-09-06 13:00,ZHCC 061300Z AUTO 03016KT 7SM 17/14 A2988 RMK T01700140 IEM_DS3505
ZHCC,2009-09-06 14:00,ZHCC 061400Z AUTO 03014KT 7SM 16/14 A2988 RMK T01600140 IEM_DS3505
ZHCC,2009-09-06 15:00,ZHCC 061500Z AUTO 04008KT 10SM 17/13 A2991 RMK SLP133 T01690130 52016 IEM_DS3505
ZHCC,2009-09-06 16:00,ZHCC 061600Z AUTO 03010KT 7SM 15/13 A2991 RMK T01500130 IEM_DS3505
ZHCC,2009-09-06 17:00,ZHCC 061700Z AUTO 03008KT 7SM 15/14 A2991 RMK T01500140 IEM_DS3505
ZHCC,2009-09-06 18:00,ZHCC 061800Z AUTO 02008KT 10SM 17/13 A2991 RMK SLP133 T01700133 54000 IEM_DS3505
ZHCC,2009-09-06 19:00,ZHCC 061900Z AUTO 03008KT 15/14 A2991 RMK T01500140 IEM_DS3505
ZHCC,2009-09-06 20:00,ZHCC 062000Z AUTO 02008KT 7SM 15/13 A2991 RMK T01500130 IEM_DS3505
ZHCC,2009-09-06 21:00,ZHCC 062100Z AUTO 04008KT 7SM 16/13 A2991 RMK 70099 SLP134 T01600133 54000 IEM_DS3505
ZHCC,2009-09-06 22:00,ZHCC 062200Z AUTO 02008KT 2SM 15/13 A2991 RMK T01500130 IEM_DS3505
ZHCC,2009-09-06 23:00,ZHCC 062300Z AUTO 01008KT 2SM 15/13 A2994 RMK T01500130 IEM_DS3505
ZHCC,2009-09-07 00:00,ZHCC 070000Z AUTO 04006KT 6SM 16/13 A2994 RMK 60020 70083 SLP151 T01610134 52017 IEM_DS3505
ZHCC,2009-09-07 01:00,ZHCC 070100Z AUTO 35010KT 2SM 15/14 A2997 RMK T01500140 IEM_DS3505
ZHCC,2009-09-07 02:00,ZHCC 070200Z AUTO 36010KT 2 1/2SM 15/14 A2997 RMK T01500140 IEM_DS3505
ZHCC,2009-09-07 03:00,ZHCC 070300Z AUTO 04006KT 7SM 16/13 A2997 RMK SLP159 T01640133 52007 IEM_DS3505
ZHCC,2009-09-07 04:00,ZHCC 070400Z AUTO 01012KT 7SM 15/14 A2997 RMK T01500140 IEM_DS3505
ZHCC,2009-09-07 05:00,ZHCC 070500Z AUTO 35012KT 7SM 15/14 A2997 RMK T01500140 IEM_DS3505
ZHCC,2009-09-07 06:00,ZHCC 070600Z AUTO 04004KT 9SM 17/13 A2994 RMK SLP149 T01690130 57009 IEM_DS3505
ZHCC,2009-09-07 07:00,ZHCC 070700Z AUTO 02012KT 5SM 16/13 A2994 RMK T01600130 IEM_DS3505
ZHCC,2009-09-07 08:00,ZHCC 070800Z AUTO 36012KT 5SM 16/14 A2994 RMK T01600140 IEM_DS3505
ZHCC,2009-09-07 09:00,ZHCC 070900Z AUTO 04006KT 11SM 17/13 A2994 RMK SLP149 T01670130 57001 IEM_DS3505
ZHCC,2009-09-07 10:00,ZHCC 071000Z AUTO 36010KT 5SM 15/13 A2994 RMK T01500130 IEM_DS3505
ZHCC,2009-09-07 11:00,ZHCC 071100Z AUTO 35010KT 7SM 15/13 A2997 RMK T01500130 IEM_DS3505
ZHCC,2009-09-07 12:00,ZHCC 071200Z AUTO 07006KT 9SM 16/13 A2997 RMK 60000 SLP159 T01650134 52010 IEM_DS3505
ZHCC,2009-09-07 13:00,ZHCC 071300Z AUTO 36008KT 7SM 15/13 A3000 RMK T01500130 IEM_DS3505
ZHCC,2009-09-07 14:00,ZHCC 071400Z AUTO 34008KT 4SM 15/13 A3000 RMK T01500130 IEM_DS3505
ZHCC,2009-09-07 15:00,ZHCC 071500Z AUTO 04004KT 5SM 16/13 A3000 RMK SLP168 T01610130 52009 IEM_DS3505
ZHCC,2009-09-07 16:00,ZHCC 071600Z AUTO 35008KT 4SM 15/13 A3000 RMK T01500130 IEM_DS3505
ZHCC,2009-09-07 17:00,ZHCC 071700Z AUTO 36008KT 4SM 14/13 A3000 RMK T01400130 IEM_DS3505
ZHCC,2009-09-07 18:00,ZHCC 071800Z AUTO 04006KT 6SM 16/12 A3000 RMK SLP165 T01600122 57003 IEM_DS3505
ZHCC,2009-09-07 19:00,ZHCC 071900Z AUTO 34006KT 14/13 A3000 RMK T01400130 IEM_DS3505
ZHCC,2009-09-07 20:00,ZHCC 072000Z AUTO 34006KT 4SM 14/13 A3000 RMK T01400130 IEM_DS3505
ZHCC,2009-09-07 21:00,ZHCC 072100Z AUTO 04004KT 5SM 16/11 A3000 RMK 70000 SLP166 T01620114 52001 IEM_DS3505
ZHCC,2009-09-07 22:00,ZHCC 072200Z AUTO 33004KT 4SM 14/13 A3003 RMK T01400130 IEM_DS3505
ZHCC,2009-09-07 23:00,ZHCC 072300Z AUTO 35004KT 4SM 14/13 A3003 RMK T01400130 IEM_DS3505
ZHCC,2009-09-08 00:00,ZHCC 080000Z AUTO 04004KT 6SM 17/12 A3003 RMK 70000 SLP179 T01680117 52013 IEM_DS3505
ZHCC,2009-09-08 01:00,ZHCC 080100Z AUTO 35008KT 7SM 15/13 A3006 RMK T01500130 IEM_DS3505
ZHCC,2009-09-08 02:00,ZHCC 080200Z AUTO 35006KT 7SM 16/13 A3006 RMK T01600130 IEM_DS3505
ZHCC,2009-09-08 03:00,ZHCC 080300Z AUTO 04006KT 6SM 18/13 A3006 RMK SLP181 T01810132 52002 IEM_DS3505
ZHCC,2009-09-08 04:00,ZHCC 080400Z AUTO 04008KT 7SM 17/13 A3003 RMK T01700130 IEM_DS3505
ZHCC,2009-09-08 05:00,ZHCC 080500Z AUTO 35008KT 7SM 18/13 A3003 RMK T01800130 IEM_DS3505
ZHCC,2009-09-08 06:00,ZHCC 080600Z AUTO 04008KT 7SM 19/14 A3000 RMK SLP167 T01860135 57014 IEM_DS3505
ZHCC,2009-09-08 07:00,ZHCC 080700Z AUTO 02010KT 7SM 18/14 A3000 RMK T01800140 IEM_DS3505
ZHCC,2009-09-08 08:00,ZHCC 080800Z AUTO 02012KT 7SM 17/14 A3000 RMK T01700140 IEM_DS3505
ZHCC,2009-09-08 09:00,ZHCC 080900Z AUTO 02004KT 8SM 18/13 A3000 RMK SLP165 T01780133 57002 IEM_DS3505
ZHCC,2009-09-08 10:00,ZHCC 081000Z AUTO 35008KT 7SM 17/13 A3003 RMK T01700130 IEM_DS3505
ZHCC,2009-09-08 11:00,ZHCC 081100Z AUTO 35008KT 7SM 16/13 A3000 RMK T01600130 IEM_DS3505
ZHCC,2009-09-08 12:00,ZHCC 081200Z AUTO 36004KT 8SM 17/12 A3003 RMK 60000 SLP171 T01700115 52006 IEM_DS3505
ZHCC,2009-09-08 13:00,ZHCC 081300Z AUTO 35006KT 7SM 15/13 A3006 RMK T01500130 IEM_DS3505
ZHCC,2009-09-08 14:00,ZHCC 081400Z AUTO 34006KT 7SM 15/12 A3006 RMK T01500120 IEM_DS3505
ZHCC,2009-09-08 15:00,ZHCC 081500Z AUTO 36002KT 7SM 17/11 A3006 RMK SLP180 T01670112 52009 IEM_DS3505
ZHCC,2009-09-08 17:00,ZHCC 081700Z AUTO 30004KT 15/12 A3003 RMK T01500120 IEM_DS3505
ZHCC,2009-09-08 18:00,ZHCC 081800Z AUTO 32004KT 6SM 16/12 A3003 RMK SLP175 T01640122 57005 IEM_DS3505
ZHCC,2009-09-08 19:00,ZHCC 081900Z AUTO 30004KT A3003 RMK IEM_DS3505
ZHCC,2009-09-08 20:00,ZHCC 082000Z AUTO 27006KT 15/12 A3003 RMK T01500120 IEM_DS3505
ZHCC,2009-09-08 21:00,ZHCC 082100Z AUTO 25002KT 4SM 16/12 A3003 RMK 70005 SLP176 T01550124 52001 IEM_DS3505
ZHCC,2009-09-08 22:00,ZHCC 082200Z AUTO 31004KT 2SM 14/12 A3006 RMK T01400120 IEM_DS3505
ZHCC,2009-09-08 23:00,ZHCC 082300Z AUTO 00000KT 2SM 14/12 A3006 RMK T01400120 IEM_DS3505
ZHCC,2009-09-09 00:00,ZHCC 090000Z AUTO 18004KT 5SM 16/13 A3006 RMK 60004 70005 SLP184 T01590126 52008 IEM_DS3505
ZHCC,2009-09-09 01:00,ZHCC 090100Z AUTO 08004KT 1 1/4SM 14/13 A3006 RMK T01400130 IEM_DS3505
ZHCC,2009-09-09 02:00,ZHCC 090200Z AUTO 08004KT 1 1/2SM 14/13 A3009 RMK T01400130 IEM_DS3505
ZHCC,2009-09-09 03:00,ZHCC 090300Z AUTO 04002KT 7SM 17/14 A3006 RMK SLP185 T01720137 52001 IEM_DS3505
ZHCC,2009-09-09 04:00,ZHCC 090400Z AUTO 2SM 16/15 A3006 RMK T01600150 IEM_DS3505
ZHCC,2009-09-09 05:00,ZHCC 090500Z AUTO 2 1/2SM 18/16 A3003 RMK T01800160 IEM_DS3505
ZHCC,2009-09-09 06:00,ZHCC 090600Z AUTO 09002KT 8SM 21/13 A3000 RMK SLP163 T02100132 57021 IEM_DS3505
ZHCC,2009-09-09 07:00,ZHCC 090700Z AUTO 3SM 20/15 A3000 RMK T02000150 IEM_DS3505
ZHCC,2009-09-09 08:00,ZHCC 090800Z AUTO 00000KT 3SM 19/15 A2997 RMK T01900150 IEM_DS3505
ZHCC,2009-09-09 09:00,ZHCC 090900Z AUTO 18006KT 9SM 22/14 A2997 RMK SLP144 T02240143 57018 IEM_DS3505
ZHCC,2009-09-09 10:00,ZHCC 091000Z AUTO 15002KT 3SM 19/15 A2997 RMK T01900150 IEM_DS3505
ZHCC,2009-09-09 11:00,ZHCC 091100Z AUTO 16002KT 3SM 18/15 A2997 RMK T01800150 IEM_DS3505
ZHCC,2009-09-09 12:00,ZHCC 091200Z AUTO 11002KT 7SM 19/15 A2997 RMK SLP152 T01890146 52007 IEM_DS3505
ZHCC,2009-09-09 13:00,ZHCC 091300Z AUTO 18002KT 3SM 17/15 A3000 RMK T01700150 IEM_DS3505
ZHCC,2009-09-09 14:00,ZHCC 091400Z AUTO 3SM 17/15 A3000 RMK T01700150 IEM_DS3505
ZHCC,2009-09-09 15:00,ZHCC 091500Z AUTO 22002KT 5SM 17/14 A2997 RMK SLP152 T01710144 54000 IEM_DS3505
ZHCC,2009-09-09 16:00,ZHCC 091600Z AUTO 19002KT 1 1/4SM 16/14 A2997 RMK T01600140 IEM_DS3505
ZHCC,2009-09-09 17:00,ZHCC 091700Z AUTO 1 1/4SM 16/15 A2994 RMK T01600150 IEM_DS3505
ZHCC,2009-09-09 18:00,ZHCC 091800Z AUTO 11002KT 4SM 17/15 A2994 RMK SLP136 T01730151 57015 IEM_DS3505
ZHCC,2009-09-09 19:00,ZHCC 091900Z AUTO 19002KT 1 1/4SM 16/15 A2991 RMK T01600150 IEM_DS3505
ZHCC,2009-09-09 20:00,ZHCC 092000Z AUTO 15002KT 1SM 16/15 A2991 RMK T01600150 IEM_DS3505
ZHCC,2009-09-09 21:00,ZHCC 092100Z AUTO 11002KT 3SM 18/15 A2991 RMK 70000 SLP126 T01770151 57010 IEM_DS3505
ZHCC,2009-09-09 22:00,ZHCC 092200Z AUTO 00000KT 1 1/4SM 16/15 A2991 RMK T01600150 IEM_DS3505
ZHCC,2009-09-09 23:00,ZHCC 092300Z AUTO 16002KT 1 1/4SM 16/15 A2991 RMK T01600150 IEM_DS3505
ZHCC,2009-09-10 00:00,ZHCC 100000Z AUTO 00000KT 3SM 18/15 A2994 RMK SLP134 T01840153 52008 IEM_DS3505
ZHCC,2009-09-10 01:00,ZHCC 100100Z AUTO 14002KT 1 1/4SM 17/16 A2994 RMK T01700160 IEM_DS3505
ZHCC,2009-09-10 02:00,ZHCC 100200Z AUTO 2SM 18/17 A2994 RMK T01800170 IEM_DS3505
ZHCC,2009-09-10 03:00,ZHCC 100300Z AUTO 00000KT 5SM 20/15 A2994 RMK SLP141 T02040152 52006 IEM_DS3505
ZHCC,2009-09-10 04:00,ZHCC 100400Z AUTO 12004KT 2SM 19/16 A2994 RMK T01900160 IEM_DS3505
ZHCC,2009-09-10 05:00,ZHCC 100500Z AUTO 2SM 19/16 A2991 RMK T01900160 IEM_DS3505
ZHCC,2009-09-10 06:00,ZHCC 100600Z AUTO 09004KT 5SM 21/16 A2991 RMK SLP129 T02120155 57011 IEM_DS3505
ZHCC,2009-09-10 07:00,ZHCC 100700Z AUTO 11004KT 2SM 19/16 A2991 RMK T01900160 IEM_DS3505
ZHCC,2009-09-10 08:00,ZHCC 100800Z AUTO 13004KT 2SM 19/16 A2991 RMK T01900160 IEM_DS3505
ZHCC,2009-09-10 09:00,ZHCC 100900Z AUTO 04002KT 5SM 21/16 A2988 RMK SLP123 T02090157 57006 IEM_DS3505
ZHCC,2009-09-10 10:00,ZHCC 101000Z AUTO 13002KT 1 1/2SM 18/15 A2991 RMK T01800150 IEM_DS3505
ZHCC,2009-09-10 11:00,ZHCC 101100Z AUTO 16002KT 1 1/4SM 18/16 A2991 RMK T01800160 IEM_DS3505
ZHCC,2009-09-10 12:00,ZHCC 101200Z AUTO 11002KT 5SM 20/15 A2994 RMK SLP136 T01950152 52013 IEM_DS3505
ZHCC,2009-09-10 13:00,ZHCC 101300Z AUTO 00000KT 1 1/4SM 18/16 A2994 RMK T01800160 IEM_DS3505
ZHCC,2009-09-10 14:00,ZHCC 101400Z AUTO 21002KT 1 1/4SM 18/16 A2991 RMK T01800160 IEM_DS3505
ZHCC,2009-09-10 15:00,ZHCC 101500Z AUTO 00000KT 4SM 19/16 A2991 RMK SLP131 T01930162 57005 IEM_DS3505
ZHCC,2009-09-10 16:00,ZHCC 101600Z AUTO 00000KT 1 1/4SM 18/16 A2991 RMK T01800160 IEM_DS3505
ZHCC,2009-09-10 17:00,ZHCC 101700Z AUTO 19002KT 1 1/4SM 17/16 A2988 RMK T01700160 IEM_DS3505
ZHCC,2009-09-10 18:00,ZHCC 101800Z AUTO 18002KT 4SM 19/16 A2988 RMK SLP118 T01900159 57013 IEM_DS3505
ZHCC,2009-09-10 19:00,ZHCC 101900Z AUTO 20002KT 1SM 17/16 A2988 RMK T01700160 IEM_DS3505
ZHCC,2009-09-10 20:00,ZHCC 102000Z AUTO 22002KT 1SM 17/16 A2985 RMK T01700160 IEM_DS3505
ZHCC,2009-09-10 21:00,ZHCC 102100Z AUTO 00000KT 3SM 19/16 A2985 RMK SLP114 T01900160 57004 IEM_DS3505
ZHCC,2009-09-10 22:00,ZHCC 102200Z AUTO 16002KT 1SM 17/16 A2985 RMK T01700160 IEM_DS3505
ZHCC,2009-09-10 23:00,ZHCC 102300Z AUTO 00000KT 1SM 18/17 A2988 RMK T01800170 IEM_DS3505
ZHCC,2009-09-11 00:00,ZHCC 110000Z AUTO 00000KT 2 1/2SM 20/17 A2988 RMK SLP121 T02030171 52007 IEM_DS3505
ZHCC,2009-09-11 01:00,ZHCC 110100Z AUTO 21002KT 1SM 19/18 A2988 RMK T01900180 IEM_DS3505
ZHCC,2009-09-11 02:00,ZHCC 110200Z AUTO 20002KT 1SM 21/19 A2988 RMK T02100190 IEM_DS3505
ZHCC,2009-09-11 03:00,ZHCC 110300Z AUTO 29004KT 4SM 23/16 A2988 RMK SLP120 T02280161 54000 IEM_DS3505
ZHCC,2009-09-11 04:00,ZHCC 110400Z AUTO 28006KT 2SM 24/19 A2988 RMK T02400190 IEM_DS3505
ZHCC,2009-09-11 05:00,ZHCC 110500Z AUTO 27010KT 2 1/2SM 25/17 A2985 RMK T02500170 IEM_DS3505
ZHCC,2009-09-11 06:00,ZHCC 110600Z AUTO 29006KT 6SM 23/16 A2985 RMK SLP111 T02320160 57009 IEM_DS3505
ZHCC,2009-09-11 07:00,ZHCC 110700Z AUTO 31008KT 2 1/2SM 23/17 A2985 RMK T02300170 IEM_DS3505
ZHCC,2009-09-11 08:00,ZHCC 110800Z AUTO 33004KT 1 1/2SM 22/17 A2985 RMK T02200170 IEM_DS3505
ZHCC,2009-09-11 09:00,ZHCC 110900Z AUTO 32002KT 6SM 22/17 A2985 RMK SLP107 T02250172 57004 IEM_DS3505
ZHCC,2009-09-11 10:00,ZHCC 111000Z AUTO 05004KT 1 1/4SM 21/18 A2985 RMK T02100180 IEM_DS3505
ZHCC,2009-09-11 11:00,ZHCC 111100Z AUTO 00000KT 1 1/4SM 21/18 A2985 RMK T02100180 IEM_DS3505
ZHCC,2009-09-11 12:00,ZHCC 111200Z AUTO 00000KT 6SM 20/18 A2988 RMK 60000 SLP116 T02010181 52008 IEM_DS3505
ZHCC,2009-09-11 13:00,ZHCC 111300Z AUTO 00000KT 1SM 19/17 A2991 RMK T01900170 IEM_DS3505
ZHCC,2009-09-11 14:00,ZHCC 111400Z AUTO 00000KT 1SM 18/17 A2991 RMK T01800170 IEM_DS3505
ZHCC,2009-09-11 15:00,ZHCC 111500Z AUTO 00000KT 1SM 18/16 A2991 RMK SLP134 T01760165 52018 IEM_DS3505
ZHCC,2009-09-11 16:00,ZHCC 111600Z AUTO 00000KT 1SM 17/16 A2994 RMK T01700160 IEM_DS3505
ZHCC,2009-09-11 17:00,ZHCC 111700Z AUTO 00000KT 1SM 17/16 A2994 RMK T01700160 IEM_DS3505
ZHCC,2009-09-11 18:00,ZHCC 111800Z AUTO 00000KT 1SM 17/16 A2994 RMK SLP141 T01710163 52007 IEM_DS3505
ZHCC,2009-09-11 19:00,ZHCC 111900Z AUTO 27004KT 1SM 17/16 A2994 RMK T01700160 IEM_DS3505
ZHCC,2009-09-11 20:00,ZHCC 112000Z AUTO 34004KT 3/8SM 17/17 A2994 RMK T01700170 IEM_DS3505
ZHCC,2009-09-11 21:00,ZHCC 112100Z AUTO 29004KT 2SM 19/17 A2997 RMK 70000 SLP153 T01940168 52012 IEM_DS3505
ZHCC,2009-09-11 22:00,ZHCC 112200Z AUTO 32008KT 2SM 17/16 A3000 RMK T01700160 IEM_DS3505
ZHCC,2009-09-11 23:00,ZHCC 112300Z AUTO 34006KT 2 1/2SM 17/15 A3003 RMK T01700150 IEM_DS3505
ZHCC,2009-09-12 00:00,ZHCC 120000Z AUTO 02004KT 9SM 20/10 A3006 RMK 70000 SLP179 T02020103 52026 IEM_DS3505
ZHCC,2009-09-12 01:00,ZHCC 120100Z AUTO 35006KT 3SM 19/13 A3006 RMK T01900130 IEM_DS3505
ZHCC,2009-09-12 02:00,ZHCC 120200Z AUTO 35006KT 3SM 20/13 A3006 RMK T02000130 IEM_DS3505
ZHCC,2009-09-12 03:00,ZHCC 120300Z AUTO 07004KT 9SM 23/08 A3006 RMK SLP182 T02310084 52003 IEM_DS3505
ZHCC,2009-09-12 04:00,ZHCC 120400Z AUTO 34006KT 4SM 22/12 A3006 RMK T02200120 IEM_DS3505
ZHCC,2009-09-12 05:00,ZHCC 120500Z AUTO 34004KT 6SM 23/10 A3006 RMK T02300100 IEM_DS3505
ZHCC,2009-09-12 06:00,ZHCC 120600Z AUTO 36002KT 12SM 23/08 A3003 RMK 60000 SLP171 T02280085 57011 IEM_DS3505
ZHCC,2009-09-12 07:00,ZHCC 120700Z AUTO 31004KT 6SM 22/13 A3003 RMK T02200130 IEM_DS3505
ZHCC,2009-09-12 08:00,ZHCC 120800Z AUTO 30004KT 6SM 21/13 A3003 RMK T02100130 IEM_DS3505
ZHCC,2009-09-12 09:00,ZHCC 120900Z AUTO 27002KT 12SM 20/15 A3003 RMK SLP167 T02050148 57004 IEM_DS3505
ZHCC,2009-09-12 10:00,ZHCC 121000Z AUTO 28006KT 3SM 18/16 A3003 RMK T01800160 IEM_DS3505
ZHCC,2009-09-12 11:00,ZHCC 121100Z AUTO 26004KT 3SM 17/15 A3003 RMK T01700150 IEM_DS3505
ZHCC,2009-09-12 12:00,ZHCC 121200Z AUTO 25002KT 10SM 19/13 A3003 RMK 60001 SLP171 T01940131 52004 IEM_DS3505
ZHCC,2009-09-12 13:00,ZHCC 121300Z AUTO 26002KT 3SM 17/15 A3003 RMK T01700150 IEM_DS3505
ZHCC,2009-09-12 14:00,ZHCC 121400Z AUTO 23002KT 3SM 17/15 A3003 RMK T01700150 IEM_DS3505
ZHCC,2009-09-12 15:00,ZHCC 121500Z AUTO 29002KT 7SM 19/12 A3003 RMK SLP172 T01880125 52001 IEM_DS3505
ZHCC,2009-09-12 16:00,ZHCC 121600Z AUTO 26004KT 3SM 17/15 A3003 RMK T01700150 IEM_DS3505
ZHCC,2009-09-12 17:00,ZHCC 121700Z AUTO 24002KT 3SM 17/15 A3003 RMK T01700150 IEM_DS3505
ZHCC,2009-09-12 18:00,ZHCC 121800Z AUTO 22004KT 6SM 18/14 A3003 RMK SLP169 T01820135 57003 IEM_DS3505
ZHCC,2009-09-12 19:00,ZHCC 121900Z AUTO 00000KT 17/15 A3000 RMK T01700150 IEM_DS3505
ZHCC,2009-09-12 20:00,ZHCC 122000Z AUTO 23002KT 2SM 17/15 A3000 RMK T01700150 IEM_DS3505
ZHCC,2009-09-12 21:00,ZHCC 122100Z AUTO 00000KT 5SM 18/15 A3000 RMK 70001 SLP163 T01770153 57007 IEM_DS3505
ZHCC,2009-09-12 22:00,ZHCC 122200Z AUTO 23004KT 2SM 17/15 A3003 RMK T01700150 IEM_DS3505
ZHCC,2009-09-12 23:00,ZHCC 122300Z AUTO 00000KT 2SM 18/16 A3003 RMK T01800160 IEM_DS3505
ZHCC,2009-09-13 00:00,ZHCC 130000Z AUTO 32002KT 5SM 18/16 A3003 RMK 60002 70003 SLP176 T01850156 52013 IEM_DS3505
ZHCC,2009-09-13 01:00,ZHCC 130100Z AUTO 30004KT 2SM 18/16 A3006 RMK T01800160 IEM_DS3505
ZHCC,2009-09-13 02:00,ZHCC 130200Z AUTO 2SM 19/16 A3006 RMK T01900160 IEM_DS3505
ZHCC,2009-09-13 03:00,ZHCC 130300Z AUTO 25004KT 6SM 19/16 A3006 RMK SLP182 T01860162 52006 IEM_DS3505
ZHCC,2009-09-13 04:00,ZHCC 130400Z AUTO 31004KT 1 1/2SM 19/16 A3003 RMK T01900160 IEM_DS3505
ZHCC,2009-09-13 05:00,ZHCC 130500Z AUTO 21004KT 2 1/2SM 17/15 A3003 RMK T01700150 IEM_DS3505
ZHCC,2009-09-13 06:00,ZHCC 130600Z AUTO 22002KT 4SM 19/17 A3003 RMK 60008 SLP167 T01900170 57015 IEM_DS3505
ZHCC,2009-09-13 07:00,ZHCC 130700Z AUTO 29004KT 3SM 17/15 A3000 RMK T01700150 IEM_DS3505
ZHCC,2009-09-13 08:00,ZHCC 130800Z AUTO 31002KT 2 1/2SM 17/15 A3000 RMK T01700150 IEM_DS3505
ZHCC,2009-09-13 09:00,ZHCC 130900Z AUTO 34002KT 5SM 18/16 A3000 RMK SLP159 T01830161 57008 IEM_DS3505
ZHCC,2009-09-13 10:00,ZHCC 131000Z AUTO 13002KT 1 1/4SM 16/14 A3000 RMK T01600140 IEM_DS3505
ZHCC,2009-09-13 11:00,ZHCC 131100Z AUTO 00000KT 1 1/4SM 16/14 A3000 RMK T01600140 IEM_DS3505
ZHCC,2009-09-13 12:00,ZHCC 131200Z AUTO 22002KT 4SM 18/16 A3000 RMK 60012 SLP163 T01780163 52004 IEM_DS3505
ZHCC,2009-09-13 13:00,ZHCC 131300Z AUTO 17002KT 1SM 16/15 A3003 RMK T01600150 IEM_DS3505
ZHCC,2009-09-13 14:00,ZHCC 131400Z AUTO 32004KT 1SM 16/15 A3000 RMK T01600150 IEM_DS3505
ZHCC,2009-09-13 15:00,ZHCC 131500Z AUTO 00000KT 2 1/2SM 18/17 A3000 RMK SLP162 T01770166 57001 IEM_DS3505
ZHCC,2009-09-13 16:00,ZHCC 131600Z AUTO 29002KT 1SM 17/16 A3000 RMK T01700160 IEM_DS3505
ZHCC,2009-09-13 17:00,ZHCC 131700Z AUTO 25004KT 1SM 17/16 A3000 RMK T01700160 IEM_DS3505
ZHCC,2009-09-13 18:00,ZHCC 131800Z AUTO 25002KT 2 1/2SM 18/16 A2997 RMK 60016 SLP151 T01760163 57011 IEM_DS3505
ZHCC,2009-09-13 19:00,ZHCC 131900Z AUTO 23004KT 1SM 17/16 A2997 RMK T01700160 IEM_DS3505
ZHCC,2009-09-13 20:00,ZHCC 132000Z AUTO 17002KT 1 1/2SM 16/15 A2997 RMK T01600150 IEM_DS3505
ZHCC,2009-09-13 21:00,ZHCC 132100Z AUTO 20002KT 2 1/2SM 17/16 A2994 RMK 70048 SLP144 T01720161 57007 IEM_DS3505
ZHCC,2009-09-13 22:00,ZHCC 132200Z AUTO 25002KT 1SM 16/15 A2994 RMK T01600150 IEM_DS3505
ZHCC,2009-09-13 23:00,ZHCC 132300Z AUTO 19004KT 1SM 16/16 A2997 RMK T01600160 IEM_DS3505
ZHCC,2009-09-14 00:00,ZHCC 140000Z AUTO 00000KT 2 1/2SM 18/17 A2997 RMK 60012 70048 SLP146 T01810166 52002 IEM_DS3505
ZHCC,2009-09-14 01:00,ZHCC 140100Z AUTO 1SM 17/16 A2997 RMK T01700160 IEM_DS3505
ZHCC,2009-09-14 02:00,ZHCC 140200Z AUTO 19004KT 1 1/4SM 17/17 A2997 RMK T01700170 IEM_DS3505
ZHCC,2009-09-14 03:00,ZHCC 140300Z AUTO 29002KT 5SM 21/17 A2994 RMK SLP140 T02140170 57005 IEM_DS3505
ZHCC,2009-09-14 04:00,ZHCC 140400Z AUTO 23004KT 2SM 19/19 A2994 RMK T01900190 IEM_DS3505
ZHCC,2009-09-14 05:00,ZHCC 140500Z AUTO 2 1/2SM 20/20 A2994 RMK T02000200 IEM_DS3505
ZHCC,2009-09-14 06:00,ZHCC 140600Z AUTO 27004KT 7SM 22/16 A2991 RMK 60000 SLP127 T02250156 57013 IEM_DS3505
ZHCC,2009-09-14 07:00,ZHCC 140700Z AUTO 00000KT 2SM 21/20 A2988 RMK T02100200 IEM_DS3505
ZHCC,2009-09-14 08:00,ZHCC 140800Z AUTO 00000KT 1 1/2SM 21/19 A2988 RMK T02100190 IEM_DS3505
ZHCC,2009-09-14 09:00,ZHCC 140900Z AUTO 14002KT 6SM 21/18 A2988 RMK SLP119 T02120176 57008 IEM_DS3505
ZHCC,2009-09-14 10:00,ZHCC 141000Z AUTO 21002KT 2SM 20/19 A2988 RMK T02000190 IEM_DS3505
ZHCC,2009-09-14 11:00,ZHCC 141100Z AUTO 13002KT 1 1/4SM 19/18 A2988 RMK T01900180 IEM_DS3505
ZHCC,2009-09-14 12:00,ZHCC 141200Z AUTO 00000KT 2 1/2SM 19/18 A2991 RMK 60000 SLP129 T01930180 52010 IEM_DS3505
ZHCC,2009-09-14 13:00,ZHCC 141300Z AUTO 00000KT 1SM 18/18 A2994 RMK T01800180 IEM_DS3505
ZHCC,2009-09-14 14:00,ZHCC 141400Z AUTO 13002KT 1/2SM 18/18 A2994 RMK T01800180 IEM_DS3505
ZHCC,2009-09-14 15:00,ZHCC 141500Z AUTO 00000KT 1/4SM 19/18 A2994 RMK SLP138 T01900182 52009 IEM_DS3505
ZHCC,2009-09-14 16:00,ZHCC 141600Z AUTO 15004KT 1/8SM 18/17 A2994 RMK T01800170 IEM_DS3505
ZHCC,2009-09-14 17:00,ZHCC 141700Z AUTO 17002KT 1/8SM 17/17 A2991 RMK T01700170 IEM_DS3505
ZHCC,2009-09-14 18:00,ZHCC 141800Z AUTO 14002KT 1/4SM 18/17 A2991 RMK SLP131 T01750167 57007 IEM_DS3505
ZHCC,2009-09-14 19:00,ZHCC 141900Z AUTO 00000KT 1/8SM 16/16 A2991 RMK T01600160 IEM_DS3505
ZHCC,2009-09-14 20:00,ZHCC 142000Z AUTO 00000KT 1/8SM 16/15 A2991 RMK T01600150 IEM_DS3505
ZHCC,2009-09-14 21:00,ZHCC 142100Z AUTO 11002KT 1/8SM 16/16 A2991 RMK 70002 SLP134 T01630157 52003 IEM_DS3505
ZHCC,2009-09-14 22:00,ZHCC 142200Z AUTO 00000KT 1/8SM 15/14 A2991 RMK T01500140 IEM_DS3505
ZHCC,2009-09-14 23:00,ZHCC 142300Z AUTO 00000KT 1/8SM 15/15 A2994 RMK T01500150 IEM_DS3505
ZHCC,2009-09-15 00:00,ZHCC 150000Z AUTO 07002KT 1/8SM 16/15 A2994 RMK 70000 SLP147 T01600154 52012 IEM_DS3505
ZHCC,2009-09-15 01:00,ZHCC 150100Z AUTO 1/8SM 17/16 A2997 RMK T01700160 IEM_DS3505
ZHCC,2009-09-15 02:00,ZHCC 150200Z AUTO 12004KT 1SM 19/18 A2997 RMK T01900180 IEM_DS3505
ZHCC,2009-09-15 03:00,ZHCC 150300Z AUTO 09004KT 6SM 22/18 A2997 RMK SLP149 T02220176 52003 IEM_DS3505
ZHCC,2009-09-15 04:00,ZHCC 150400Z AUTO 14004KT 3SM 22/21 A2997 RMK T02200210 IEM_DS3505
ZHCC,2009-09-15 05:00,ZHCC 150500Z AUTO 3SM 25/19 A2994 RMK T02500190 IEM_DS3505
ZHCC,2009-09-15 06:00,ZHCC 150600Z AUTO 07002KT 7SM 27/16 A2991 RMK SLP128 T02680164 57020 IEM_DS3505
ZHCC,2009-09-15 07:00,ZHCC 150700Z AUTO 12004KT 5SM 26/17 A2991 RMK T02600170 IEM_DS3505
ZHCC,2009-09-15 08:00,ZHCC 150800Z AUTO 5SM 26/16 A2988 RMK T02600160 IEM_DS3505
ZHCC,2009-09-15 09:00,ZHCC 150900Z AUTO 09002KT 9SM 28/16 A2988 RMK SLP119 T02750155 57009 IEM_DS3505
ZHCC,2009-09-15 10:00,ZHCC 151000Z AUTO 14002KT 3SM 23/18 A2991 RMK T02300180 IEM_DS3505
ZHCC,2009-09-15 11:00,ZHCC 151100Z AUTO 11004KT 3SM 22/18 A2991 RMK T02200180 IEM_DS3505
ZHCC,2009-09-15 12:00,ZHCC 151200Z AUTO 00000KT 7SM 20/18 A2994 RMK SLP135 T02020180 52014 IEM_DS3505
ZHCC,2009-09-15 13:00,ZHCC 151300Z AUTO 12004KT 2SM 21/19 A2994 RMK T02100190 IEM_DS3505
ZHCC,2009-09-15 14:00,ZHCC 151400Z AUTO 13004KT 1 1/4SM 21/19 A2997 RMK T02100190 IEM_DS3505
ZHCC,2009-09-15 15:00,ZHCC 151500Z AUTO 11002KT 6SM 21/19 A2997 RMK SLP146 T02140186 52013 IEM_DS3505
ZHCC,2009-09-15 16:00,ZHCC 151600Z AUTO 13004KT 1SM 20/18 A2994 RMK T02000180 IEM_DS3505
ZHCC,2009-09-15 17:00,ZHCC 151700Z AUTO 1SM 20/18 A2994 RMK T02000180 IEM_DS3505
ZHCC,2009-09-15 18:00,ZHCC 151800Z AUTO 14004KT 4SM 21/18 A2994 RMK SLP132 T02090181 57013 IEM_DS3505
ZHCC,2009-09-15 19:00,ZHCC 151900Z AUTO 1SM 19/18 A2991 RMK T01900180 IEM_DS3505
ZHCC,2009-09-15 20:00,ZHCC 152000Z AUTO 1SM 19/18 A2994 RMK T01900180 IEM_DS3505
ZHCC,2009-09-15 21:00,ZHCC 152100Z AUTO 00000KT 3SM 20/17 A2994 RMK 70000 SLP132 T02010173 54000 IEM_DS3505
ZHCC,2009-09-15 22:00,ZHCC 152200Z AUTO 1SM 19/18 A2994 RMK T01900180 IEM_DS3505
ZHCC,2009-09-15 23:00,ZHCC 152300Z AUTO 22002KT 1SM 19/18 A2994 RMK T01900180 IEM_DS3505
ZHCC,2009-09-16 00:00,ZHCC 160000Z AUTO 00000KT 1 1/4SM 20/19 A2994 RMK 60000 70000 SLP142 T02030186 52008 IEM_DS3505
ZHCC,2009-09-16 01:00,ZHCC 160100Z AUTO 24002KT 1SM 19/18 A2997 RMK T01900180 IEM_DS3505
ZHCC,2009-09-16 02:00,ZHCC 160200Z AUTO 00000KT 1SM 20/19 A2997 RMK T02000190 IEM_DS3505
ZHCC,2009-09-16 03:00,ZHCC 160300Z AUTO 29002KT 1SM 22/19 A2997 RMK SLP154 T02170187 52013 IEM_DS3505
ZHCC,2009-09-16 04:00,ZHCC 160400Z AUTO 16002KT 1SM 21/20 A2997 RMK T02100200 IEM_DS3505
ZHCC,2009-09-16 05:00,ZHCC 160500Z AUTO 24002KT 2 1/2SM 21/20 A2994 RMK T02100200 IEM_DS3505
ZHCC,2009-09-16 06:00,ZHCC 160600Z AUTO 27004KT 1 1/4SM 23/18 A2994 RMK 60000 SLP135 T02260182 57019 IEM_DS3505
ZHCC,2009-09-16 07:00,ZHCC 160700Z AUTO 26002KT 3SM 23/18 A2991 RMK T02300180 IEM_DS3505
ZHCC,2009-09-16 08:00,ZHCC 160800Z AUTO 03002KT 2SM 23/19 A2991 RMK T02300190 IEM_DS3505
ZHCC,2009-09-16 09:00,ZHCC 160900Z AUTO 32002KT 2SM 23/18 A2991 RMK SLP126 T02280177 57009 IEM_DS3505
ZHCC,2009-09-16 10:00,ZHCC 161000Z AUTO 01004KT 1SM 22/19 A2991 RMK T02200190 IEM_DS3505
ZHCC,2009-09-16 11:00,ZHCC 161100Z AUTO 02004KT 1SM 21/19 A2988 RMK T02100190 IEM_DS3505
ZHCC,2009-09-16 12:00,ZHCC 161200Z AUTO 00000KT 1 1/4SM 20/15 A2991 RMK SLP129 T02030151 52002 IEM_DS3505
ZHCC,2009-09-16 13:00,ZHCC 161300Z AUTO 14004KT 1 1/4SM 20/18 A2994 RMK T02000180 IEM_DS3505
ZHCC,2009-09-16 14:00,ZHCC 161400Z AUTO 00000KT 1 1/4SM 20/18 A2994 RMK T02000180 IEM_DS3505
ZHCC,2009-09-16 15:00,ZHCC 161500Z AUTO 18002KT 1 1/4SM 20/16 A2991 RMK SLP134 T02030159 52006 IEM_DS3505
ZHCC,2009-09-16 16:00,ZHCC 161600Z AUTO 00000KT 1 1/4SM 19/18 A2991 RMK T01900180 IEM_DS3505
ZHCC,2009-09-16 17:00,ZHCC 161700Z AUTO 16002KT 1 1/4SM 19/18 A2991 RMK T01900180 IEM_DS3505
ZHCC,2009-09-16 18:00,ZHCC 161800Z AUTO 22002KT 1 1/4SM 19/18 A2991 RMK 60000 SLP127 T01940175 57007 IEM_DS3505
ZHCC,2009-09-16 19:00,ZHCC 161900Z AUTO 00000KT 1SM 19/18 A2988 RMK T01900180 IEM_DS3505
ZHCC,2009-09-16 20:00,ZHCC 162000Z AUTO 30004KT 1SM 19/18 A2988 RMK T01900180 IEM_DS3505
ZHCC,2009-09-16 21:00,ZHCC 162100Z AUTO 00000KT 1 1/4SM 19/16 A2988 RMK 70001 SLP115 T01880155 57012 IEM_DS3505
ZHCC,2009-09-16 22:00,ZHCC 162200Z AUTO 00000KT 1SM 18/18 A2988 RMK T01800180 IEM_DS3505
ZHCC,2009-09-16 23:00,ZHCC 162300Z AUTO 00000KT 1SM 18/18 A2988 RMK T01800180 IEM_DS3505
ZHCC,2009-09-17 00:00,ZHCC 170000Z AUTO 00000KT 2SM 20/16 A2988 RMK 60000 70001 SLP123 T01950163 52007 IEM_DS3505
ZHCC,2009-09-17 01:00,ZHCC 170100Z AUTO 00000KT 1SM 19/19 A2991 RMK T01900190 IEM_DS3505
ZHCC,2009-09-17 02:00,ZHCC 170200Z AUTO 1SM 20/19 A2991 RMK T02000190 IEM_DS3505
ZHCC,2009-09-17 03:00,ZHCC 170300Z AUTO 11002KT 2 1/2SM 22/18 A2991 RMK SLP128 T02170177 52006 IEM_DS3505
ZHCC,2009-09-17 04:00,ZHCC 170400Z AUTO 1 1/4SM 21/20 A2991 RMK T02100200 IEM_DS3505
ZHCC,2009-09-17 05:00,ZHCC 170500Z AUTO 12004KT 1 1/2SM 22/21 A2988 RMK T02200210 IEM_DS3505
ZHCC,2009-09-17 06:00,ZHCC 170600Z AUTO 14004KT 3SM 24/19 A2985 RMK 60000 SLP111 T02450191 57017 IEM_DS3505
ZHCC,2009-09-17 07:00,ZHCC 170700Z AUTO 11004KT 2SM 24/21 A2985 RMK T02400210 IEM_DS3505
ZHCC,2009-09-17 08:00,ZHCC 170800Z AUTO 12004KT 2SM 24/20 A2985 RMK T02400200 IEM_DS3505
ZHCC,2009-09-17 09:00,ZHCC 170900Z AUTO 07004KT 2 1/2SM 23/20 A2985 RMK SLP113 T02320200 52002 IEM_DS3505
ZHCC,2009-09-17 11:00,ZHCC 171100Z AUTO 11004KT 2SM 21/20 A2988 RMK T02100200 IEM_DS3505
ZHCC,2009-09-17 12:00,ZHCC 171200Z AUTO 11002KT 2 1/2SM 22/20 A2988 RMK 60000 SLP122 T02210202 52009 IEM_DS3505
ZHCC,2009-09-17 13:00,ZHCC 171300Z AUTO 00000KT 1 1/4SM 21/20 A2991 RMK T02100200 IEM_DS3505
ZHCC,2009-09-17 14:00,ZHCC 171400Z AUTO 11002KT 1SM 20/20 A2991 RMK T02000200 IEM_DS3505
ZHCC,2009-09-17 15:00,ZHCC 171500Z AUTO 07002KT 2SM 21/20 A2991 RMK SLP131 T02130199 52009 IEM_DS3505
ZHCC,2009-09-17 16:00,ZHCC 171600Z AUTO 1SM 20/20 A2991 RMK T02000200 IEM_DS3505
ZHCC,2009-09-17 17:00,ZHCC 171700Z AUTO 12002KT 1SM 20/20 A2991 RMK T02000200 IEM_DS3505
ZHCC,2009-09-17 18:00,ZHCC 171800Z AUTO 04002KT 1 1/4SM 21/20 A2991 RMK SLP133 T02110199 52002 IEM_DS3505
ZHCC,2009-09-17 19:00,ZHCC 171900Z AUTO 06004KT 1SM 20/20 A2991 RMK T02000200 IEM_DS3505
ZHCC,2009-09-17 20:00,ZHCC 172000Z AUTO 05004KT 1SM 20/19 A2991 RMK T02000190 IEM_DS3505
ZHCC,2009-09-17 21:00,ZHCC 172100Z AUTO 04002KT 1 1/4SM 21/19 A2991 RMK 70001 SLP131 T02070194 57002 IEM_DS3505
ZHCC,2009-09-17 22:00,ZHCC 172200Z AUTO 04006KT 1SM 20/19 A2994 RMK T02000190 IEM_DS3505
ZHCC,2009-09-17 23:00,ZHCC 172300Z AUTO 03006KT 1SM 19/19 A2994 RMK T01900190 IEM_DS3505
ZHCC,2009-09-18 00:00,ZHCC 180000Z AUTO 04004KT 3SM 20/18 A2997 RMK 60000 70001 SLP151 T02050183 52019 IEM_DS3505
ZHCC,2009-09-18 01:00,ZHCC 180100Z AUTO 04006KT 1 1/4SM 20/19 A2997 RMK T02000190 IEM_DS3505
ZHCC,2009-09-18 02:00,ZHCC 180200Z AUTO 03006KT 1 1/4SM 20/19 A2997 RMK T02000190 IEM_DS3505
ZHCC,2009-09-18 03:00,ZHCC 180300Z AUTO 04004KT 4SM 21/19 A2997 RMK SLP155 T02060193 52004 IEM_DS3505
ZHCC,2009-09-18 04:00,ZHCC 180400Z AUTO 05006KT 1SM 20/20 A2997 RMK T02000200 IEM_DS3505
ZHCC,2009-09-18 05:00,ZHCC 180500Z AUTO 05006KT 1SM 20/20 A2997 RMK T02000200 IEM_DS3505
ZHCC,2009-09-18 06:00,ZHCC 180600Z AUTO 07004KT 3SM 21/20 A2994 RMK 60016 SLP146 T02070195 57009 IEM_DS3505
ZHCC,2009-09-18 07:00,ZHCC 180700Z AUTO 05008KT 1SM 20/20 A2994 RMK T02000200 IEM_DS3505
ZHCC,2009-09-18 08:00,ZHCC 180800Z AUTO 06008KT 1SM 20/20 A2994 RMK T02000200 IEM_DS3505
ZHCC,2009-09-18 09:00,ZHCC 180900Z AUTO 07006KT 1 1/4SM 21/19 A2994 RMK SLP144 T02060194 57002 IEM_DS3505
ZHCC,2009-09-18 10:00,ZHCC 181000Z AUTO 07008KT 1SM 20/20 A2994 RMK T02000200 IEM_DS3505
ZHCC,2009-09-18 11:00,ZHCC 181100Z AUTO 06006KT 1SM 20/20 A2997 RMK T02000200 IEM_DS3505
ZHCC,2009-09-18 12:00,ZHCC 181200Z AUTO 04002KT 1 1/4SM 21/19 A2997 RMK 60016 SLP153 T02070194 52009 IEM_DS3505
ZHCC,2009-09-18 13:00,ZHCC 181300Z AUTO 10010KT 1SM 19/19 A3000 RMK T01900190 IEM_DS3505
ZHCC,2009-09-18 14:00,ZHCC 181400Z AUTO 11008KT 1SM 19/18 A3000 RMK T01900180 IEM_DS3505
ZHCC,2009-09-18 15:00,ZHCC 181500Z AUTO 11004KT 2SM 20/18 A3000 RMK SLP160 T01970185 52007 IEM_DS3505
ZHCC,2009-09-18 16:00,ZHCC 181600Z AUTO 2SM 19/18 A2997 RMK T01900180 IEM_DS3505
ZHCC,2009-09-18 17:00,ZHCC 181700Z AUTO 00000KT 2SM 19/18 A2997 RMK T01900180 IEM_DS3505
ZHCC,2009-09-18 18:00,ZHCC 181800Z AUTO 27002KT 2 1/2SM 20/18 A2994 RMK 60004 SLP147 T01970184 57013 IEM_DS3505
ZHCC,2009-09-18 19:00,ZHCC 181900Z AUTO 2SM 18/18 A2994 RMK T01800180 IEM_DS3505
ZHCC,2009-09-18 20:00,ZHCC 182000Z AUTO 33002KT 1SM 19/18 A2994 RMK T01900180 IEM_DS3505
ZHCC,2009-09-18 21:00,ZHCC 182100Z AUTO 27002KT 2 1/2SM 20/18 A2994 RMK 70034 SLP138 T01960184 57009 IEM_DS3505
ZHCC,2009-09-18 22:00,ZHCC 182200Z AUTO 02004KT 1SM 19/18 A2994 RMK T01900180 IEM_DS3505
ZHCC,2009-09-18 23:00,ZHCC 182300Z AUTO 09004KT 1/2SM 19/19 A2994 RMK T01900190 IEM_DS3505
ZHCC,2009-09-19 00:00,ZHCC 190000Z AUTO 00000KT 1 1/4SM 20/19 A2994 RMK 60002 70036 SLP144 T01990187 52006 IEM_DS3505
ZHCC,2009-09-19 01:00,ZHCC 190100Z AUTO 36004KT 1SM 20/19 A2997 RMK T02000190 IEM_DS3505
ZHCC,2009-09-19 02:00,ZHCC 190200Z AUTO 04004KT 1SM 20/19 A2997 RMK T02000190 IEM_DS3505
ZHCC,2009-09-19 03:00,ZHCC 190300Z AUTO 02004KT 1 1/4SM 21/19 A2994 RMK SLP143 T02090188 57001 IEM_DS3505
ZHCC,2009-09-19 04:00,ZHCC 190400Z AUTO 06006KT 2 1/2SM 21/20 A2994 RMK T02100200 IEM_DS3505
ZHCC,2009-09-19 05:00,ZHCC 190500Z AUTO 08006KT 2 1/2SM 21/20 A2991 RMK T02100200 IEM_DS3505
ZHCC,2009-09-19 06:00,ZHCC 190600Z AUTO 02004KT 2 1/2SM 22/19 A2988 RMK 60000 SLP124 T02220194 57018 IEM_DS3505
ZHCC,2009-09-19 07:00,ZHCC 190700Z AUTO 03004KT 2 1/2SM 21/19 A2988 RMK T02100190 IEM_DS3505
ZHCC,2009-09-19 08:00,ZHCC 190800Z AUTO 04004KT 2 1/2SM 21/18 A2988 RMK T02100180 IEM_DS3505
ZHCC,2009-09-19 09:00,ZHCC 190900Z AUTO 36004KT 3SM 21/17 A2988 RMK SLP120 T02100166 57005 IEM_DS3505
ZHCC,2009-09-19 11:00,ZHCC 191100Z AUTO 36004KT 2 1/2SM 20/17 A2988 RMK T02000170 IEM_DS3505
ZHCC,2009-09-19 12:00,ZHCC 191200Z AUTO 36004KT 2 1/2SM 20/19 A2991 RMK 60003 SLP130 T02050188 52010 IEM_DS3505
ZHCC,2009-09-19 13:00,ZHCC 191300Z AUTO 36004KT 1 1/4SM 19/18 A2991 RMK T01900180 IEM_DS3505
ZHCC,2009-09-19 14:00,ZHCC 191400Z AUTO 01004KT 1SM 19/18 A2991 RMK T01900180 IEM_DS3505
ZHCC,2009-09-19 15:00,ZHCC 191500Z AUTO 02002KT 2SM 19/18 A2991 RMK SLP133 T01910178 52003 IEM_DS3505
ZHCC,2009-09-19 16:00,ZHCC 191600Z AUTO 36004KT 1SM 19/18 A2991 RMK T01900180 IEM_DS3505
ZHCC,2009-09-19 17:00,ZHCC 191700Z AUTO 34006KT 1 1/4SM 18/18 A2991 RMK T01800180 IEM_DS3505
ZHCC,2009-09-19 18:00,ZHCC 191800Z AUTO 29004KT 2SM 18/17 A2991 RMK 60028 SLP133 T01830171 54000 IEM_DS3505
ZHCC,2009-09-19 19:00,ZHCC 191900Z AUTO 33004KT 2SM 18/17 A2991 RMK T01800170 IEM_DS3505
ZHCC,2009-09-19 20:00,ZHCC 192000Z AUTO 31006KT 1 1/4SM 18/17 A2991 RMK T01800170 IEM_DS3505
ZHCC,2009-09-19 21:00,ZHCC 192100Z AUTO 27002KT 2SM 18/17 A2991 RMK 70049 SLP131 T01840174 57002 IEM_DS3505
ZHCC,2009-09-19 22:00,ZHCC 192200Z AUTO 31004KT 1SM 18/17 A2991 RMK T01800170 IEM_DS3505
ZHCC,2009-09-19 23:00,ZHCC 192300Z AUTO 35002KT 1SM 18/17 A2991 RMK T01800170 IEM_DS3505
ZHCC,2009-09-20 00:00,ZHCC 200000Z AUTO 29004KT 7SM 20/17 A2994 RMK 60020 70049 SLP143 T01960166 52012 IEM_DS3505
ZHCC,2009-09-20 01:00,ZHCC 200100Z AUTO 34010KT 1 1/4SM 18/17 A3000 RMK T01800170 IEM_DS3505
ZHCC,2009-09-20 02:00,ZHCC 200200Z AUTO 32012G21KT 4SM 17/16 A3003 RMK T01700160 IEM_DS3505
ZHCC,2009-09-20 03:00,ZHCC 200300Z AUTO 02004KT 7SM 19/15 A3003 RMK SLP177 T01900151 52033 IEM_DS3505
ZHCC,2009-09-20 04:00,ZHCC 200400Z AUTO 33010KT 7SM 17/16 A3003 RMK T01700160 IEM_DS3505
ZHCC,2009-09-20 05:00,ZHCC 200500Z AUTO 34012KT 7SM 17/15 A3003 RMK T01700150 IEM_DS3505
ZHCC,2009-09-20 06:00,ZHCC 200600Z AUTO 36002KT 7SM 17/11 A3003 RMK 60004 SLP174 T01740112 57003 IEM_DS3505
ZHCC,2009-09-20 07:00,ZHCC 200700Z AUTO 31006KT 7SM 17/13 A3003 RMK T01700130 IEM_DS3505
ZHCC,2009-09-20 08:00,ZHCC 200800Z AUTO 30006KT 7SM 17/13 A3003 RMK T01700130 IEM_DS3505
ZHCC,2009-09-20 09:00,ZHCC 200900Z AUTO 04004KT 11SM 18/13 A3003 RMK SLP172 T01840126 57002 IEM_DS3505
ZHCC,2009-09-20 10:00,ZHCC 201000Z AUTO 33004KT 7SM 17/13 A3003 RMK T01700130 IEM_DS3505
ZHCC,2009-09-20 11:00,ZHCC 201100Z AUTO 30004KT 7SM 16/13 A3003 RMK T01600130 IEM_DS3505
ZHCC,2009-09-20 12:00,ZHCC 201200Z AUTO 00000KT 6SM 16/14 A3006 RMK 60000 SLP183 T01590141 52010 IEM_DS3505
ZHCC,2009-09-20 13:00,ZHCC 201300Z AUTO 26002KT 3SM 15/13 A3009 RMK T01500130 IEM_DS3505
ZHCC,2009-09-20 14:00,ZHCC 201400Z AUTO 26004KT 3SM 15/13 A3006 RMK T01500130 IEM_DS3505
ZHCC,2009-09-20 15:00,ZHCC 201500Z AUTO 00000KT 4SM 15/14 A3006 RMK SLP185 T01540139 52002 IEM_DS3505
ZHCC,2009-09-20 16:00,ZHCC 201600Z AUTO 23004KT 3SM 14/13 A3006 RMK T01400130 IEM_DS3505
ZHCC,2009-09-20 17:00,ZHCC 201700Z AUTO 25004KT 3SM 14/13 A3006 RMK T01400130 IEM_DS3505
ZHCC,2009-09-20 18:00,ZHCC 201800Z AUTO 00000KT 2 1/2SM 14/13 A3006 RMK SLP180 T01400127 57005 IEM_DS3505
ZHCC,2009-09-20 19:00,ZHCC 201900Z AUTO 00000KT 4SM 13/12 A3003 RMK T01300120 IEM_DS3505
ZHCC,2009-09-20 20:00,ZHCC 202000Z AUTO 00000KT 12/11 A3003 RMK T01200110 IEM_DS3505
ZHCC,2009-09-20 21:00,ZHCC 202100Z AUTO 29004KT 6SM 16/08 A3003 RMK 70008 SLP176 T01560081 57004 IEM_DS3505
ZHCC,2009-09-20 22:00,ZHCC 202200Z AUTO 25006KT 5SM 12/11 A3003 RMK T01200110 IEM_DS3505
ZHCC,2009-09-20 23:00,ZHCC 202300Z AUTO 27010KT 6SM 13/10 A3006 RMK T01300100 IEM_DS3505
ZHCC,2009-09-21 00:00,ZHCC 210000Z AUTO 27006KT 9SM 18/07 A3006 RMK 70006 SLP184 T01770072 52008 IEM_DS3505
ZHCC,2009-09-21 01:00,ZHCC 210100Z AUTO 28014KT 6SM 20/08 A3006 RMK T02000080 IEM_DS3505
ZHCC,2009-09-21 02:00,ZHCC 210200Z AUTO 29012KT 6SM 22/07 A3006 RMK T02200070 IEM_DS3505
ZHCC,2009-09-21 03:00,ZHCC 210300Z AUTO 29006KT 9SM 24/06 A3006 RMK SLP182 T02360055 57001 IEM_DS3505
ZHCC,2009-09-21 04:00,ZHCC 210400Z AUTO 28010KT 6SM 25/04 A3006 RMK T02500040 IEM_DS3505
ZHCC,2009-09-21 05:00,ZHCC 210500Z AUTO 25008KT 6SM 25/05 A3003 RMK T02500050 IEM_DS3505
ZHCC,2009-09-21 06:00,ZHCC 210600Z AUTO 34004KT 11SM 26/03 A3003 RMK SLP162 T02600033 57019 IEM_DS3505
ZHCC,2009-09-21 07:00,ZHCC 210700Z AUTO 31006KT 6SM 25/04 A3000 RMK T02500040 IEM_DS3505
ZHCC,2009-09-21 08:00,ZHCC 210800Z AUTO 30004KT 6SM 25/04 A3000 RMK T02500040 IEM_DS3505
ZHCC,2009-09-21 09:00,ZHCC 210900Z AUTO 02002KT 10SM 26/01 A3000 RMK SLP153 T02630009 57009 IEM_DS3505
ZHCC,2009-09-21 10:00,ZHCC 211000Z AUTO 00000KT 6SM 20/11 A3000 RMK T02000110 IEM_DS3505
ZHCC,2009-09-21 11:00,ZHCC 211100Z AUTO 12002KT 4SM 16/11 A3000 RMK T01600110 IEM_DS3505
ZHCC,2009-09-21 12:00,ZHCC 211200Z AUTO 18004KT 7SM 16/12 A3000 RMK SLP164 T01560118 52009 IEM_DS3505
ZHCC,2009-09-21 13:00,ZHCC 211300Z AUTO 14002KT 4SM 14/11 A3003 RMK T01400110 IEM_DS3505
ZHCC,2009-09-21 14:00,ZHCC 211400Z AUTO 16002KT 4SM 13/11 A3003 RMK T01300110 IEM_DS3505
ZHCC,2009-09-21 15:00,ZHCC 211500Z AUTO 09002KT 6SM 13/11 A3003 RMK SLP169 T01330107 52006 IEM_DS3505
ZHCC,2009-09-21 16:00,ZHCC 211600Z AUTO 00000KT 4SM 12/10 A3003 RMK T01200100 IEM_DS3505
ZHCC,2009-09-21 17:00,ZHCC 211700Z AUTO 00000KT 3SM 12/10 A3003 RMK T01200100 IEM_DS3505
ZHCC,2009-09-21 18:00,ZHCC 211800Z AUTO 00000KT 5SM 12/10 A3003 RMK SLP167 T01170101 57002 IEM_DS3505
ZHCC,2009-09-21 19:00,ZHCC 211900Z AUTO 23004KT 12/11 A3000 RMK T01200110 IEM_DS3505
ZHCC,2009-09-21 20:00,ZHCC 212000Z AUTO 00000KT 11/10 A3000 RMK T01100100 IEM_DS3505
ZHCC,2009-09-21 21:00,ZHCC 212100Z AUTO 20002KT 5SM 12/09 A3000 RMK SLP165 T01150092 57002 IEM_DS3505
ZHCC,2009-09-21 22:00,ZHCC 212200Z AUTO 00000KT 4SM 11/09 A3000 RMK T01100090 IEM_DS3505
ZHCC,2009-09-21 23:00,ZHCC 212300Z AUTO 00000KT 4SM 11/10 A3003 RMK T01100100 IEM_DS3505
ZHCC,2009-09-22 00:00,ZHCC 220000Z AUTO 22002KT 6SM 16/10 A3003 RMK SLP170 T01610102 52004 IEM_DS3505
ZHCC,2009-09-22 01:00,ZHCC 220100Z AUTO 00000KT 2 1/2SM 21/13 A3003 RMK T02100130 IEM_DS3505
ZHCC,2009-09-22 02:00,ZHCC 220200Z AUTO 17002KT 3SM 23/10 A3003 RMK T02300100 IEM_DS3505
ZHCC,2009-09-22 03:00,ZHCC 220300Z AUTO 02002KT 7SM 25/08 A3003 RMK SLP164 T02470078 57005 IEM_DS3505
ZHCC,2009-09-22 04:00,ZHCC 220400Z AUTO 18004KT 4SM 26/10 A3000 RMK T02600100 IEM_DS3505
ZHCC,2009-09-22 05:00,ZHCC 220500Z AUTO 22006KT 4SM 27/09 A2997 RMK T02700090 IEM_DS3505
ZHCC,2009-09-22 06:00,ZHCC 220600Z AUTO 18006KT 7SM 28/03 A2994 RMK SLP136 T02850034 57027 IEM_DS3505
ZHCC,2009-09-22 07:00,ZHCC 220700Z AUTO 19004KT 6SM 27/08 A2994 RMK T02700080 IEM_DS3505
ZHCC,2009-09-22 08:00,ZHCC 220800Z AUTO 18006KT 6SM 27/08 A2991 RMK T02700080 IEM_DS3505
ZHCC,2009-09-22 09:00,ZHCC 220900Z AUTO 18004KT 10SM 27/07 A2991 RMK SLP126 T02740068 57010 IEM_DS3505
ZHCC,2009-09-22 10:00,ZHCC 221000Z AUTO 15002KT 6SM 23/12 A2991 RMK T02300120 IEM_DS3505
ZHCC,2009-09-22 11:00,ZHCC 221100Z AUTO 15002KT 6SM 20/13 A2991 RMK T02000130 IEM_DS3505
ZHCC,2009-09-22 12:00,ZHCC 221200Z AUTO 16004KT 8SM 20/10 A2994 RMK SLP136 T01960095 52009 IEM_DS3505
ZHCC,2009-09-22 13:00,ZHCC 221300Z AUTO 15002KT 4SM 18/12 A2994 RMK T01800120 IEM_DS3505
ZHCC,2009-09-22 14:00,ZHCC 221400Z AUTO 4SM 18/11 A2994 RMK T01800110 IEM_DS3505
ZHCC,2009-09-22 15:00,ZHCC 221500Z AUTO 18004KT 7SM 20/10 A2994 RMK SLP138 T01970101 52004 IEM_DS3505
ZHCC,2009-09-22 16:00,ZHCC 221600Z AUTO 21002KT 3SM 16/12 A2994 RMK T01600120 IEM_DS3505
ZHCC,2009-09-22 17:00,ZHCC 221700Z AUTO 3SM 15/12 A2994 RMK T01500120 IEM_DS3505
ZHCC,2009-09-22 18:00,ZHCC 221800Z AUTO 18004KT 7SM 17/11 A2994 RMK SLP137 T01720106 57001 IEM_DS3505
ZHCC,2009-09-22 19:00,ZHCC 221900Z AUTO 17002KT 3SM 14/11 A2994 RMK T01400110 IEM_DS3505
ZHCC,2009-09-22 20:00,ZHCC 222000Z AUTO 3SM 15/12 A2994 RMK T01500120 IEM_DS3505
ZHCC,2009-09-22 21:00,ZHCC 222100Z AUTO 16004KT 7SM 14/11 A2994 RMK SLP138 T01450107 54000 IEM_DS3505
ZHCC,2009-09-22 22:00,ZHCC 222200Z AUTO 15002KT 2SM 14/11 A2994 RMK T01400110 IEM_DS3505
ZHCC,2009-09-22 23:00,ZHCC 222300Z AUTO 2SM 14/12 A2994 RMK T01400120 IEM_DS3505
ZHCC,2009-09-23 00:00,ZHCC 230000Z AUTO 16004KT 6SM 18/12 A2994 RMK SLP142 T01820122 52004 IEM_DS3505
ZHCC,2009-09-23 01:00,ZHCC 230100Z AUTO 17004KT 2 1/2SM 19/14 A2994 RMK T01900140 IEM_DS3505
ZHCC,2009-09-23 02:00,ZHCC 230200Z AUTO 19004KT 2 1/2SM 22/14 A2997 RMK T02200140 IEM_DS3505
ZHCC,2009-09-23 03:00,ZHCC 230300Z AUTO 22004KT 9SM 25/11 A2994 RMK SLP139 T02520114 57002 IEM_DS3505
ZHCC,2009-09-23 04:00,ZHCC 230400Z AUTO 19006KT 2 1/2SM 26/14 A2991 RMK T02600140 IEM_DS3505
ZHCC,2009-09-23 05:00,ZHCC 230500Z AUTO 17006KT 2 1/2SM 27/12 A2991 RMK T02700120 IEM_DS3505
ZHCC,2009-09-23 06:00,ZHCC 230600Z AUTO 14008KT 9SM 29/10 A2991 RMK SLP119 T02910098 57019 IEM_DS3505
ZHCC,2009-09-23 07:00,ZHCC 230700Z AUTO 19006KT 2 1/2SM 28/13 A2988 RMK T02800130 IEM_DS3505
ZHCC,2009-09-23 08:00,ZHCC 230800Z AUTO 18006KT 2 1/2SM 28/12 A2988 RMK T02800120 IEM_DS3505
ZHCC,2009-09-23 09:00,ZHCC 230900Z AUTO 18004KT 9SM 29/09 A2991 RMK SLP122 T02880090 52002 IEM_DS3505
ZHCC,2009-09-23 10:00,ZHCC 231000Z AUTO 12004KT 2 1/2SM 24/14 A2991 RMK T02400140 IEM_DS3505
ZHCC,2009-09-23 11:00,ZHCC 231100Z AUTO 12004KT 2 1/2SM 21/15 A2991 RMK T02100150 IEM_DS3505
ZHCC,2009-09-23 12:00,ZHCC 231200Z AUTO 14004KT 8SM 24/13 A2994 RMK SLP138 T02400132 52016 IEM_DS3505
ZHCC,2009-09-23 13:00,ZHCC 231300Z AUTO 14004KT 2 1/2SM 22/15 A2994 RMK T02200150 IEM_DS3505
ZHCC,2009-09-23 14:00,ZHCC 231400Z AUTO 00000KT 2 1/2SM 20/15 A2997 RMK T02000150 IEM_DS3505
ZHCC,2009-09-23 15:00,ZHCC 231500Z AUTO 16004KT 6SM 22/14 A2997 RMK SLP147 T02210137 52010 IEM_DS3505
ZHCC,2009-09-23 16:00,ZHCC 231600Z AUTO 2SM 20/16 A2997 RMK T02000160 IEM_DS3505
ZHCC,2009-09-23 17:00,ZHCC 231700Z AUTO 1 1/2SM 20/16 A2997 RMK T02000160 IEM_DS3505
ZHCC,2009-09-23 18:00,ZHCC 231800Z AUTO 14004KT 4SM 21/15 A2997 RMK SLP148 T02130149 52001 IEM_DS3505
ZHCC,2009-09-23 19:00,ZHCC 231900Z AUTO 00000KT 1SM 19/17 A2994 RMK T01900170 IEM_DS3505
ZHCC,2009-09-23 20:00,ZHCC 232000Z AUTO 00000KT 1SM 19/17 A2997 RMK T01900170 IEM_DS3505
ZHCC,2009-09-23 21:00,ZHCC 232100Z AUTO 11004KT 3SM 21/17 A2997 RMK SLP151 T02070169 52003 IEM_DS3505
ZHCC,2009-09-23 22:00,ZHCC 232200Z AUTO 00000KT 1SM 18/17 A2997 RMK T01800170 IEM_DS3505
ZHCC,2009-09-23 23:00,ZHCC 232300Z AUTO 05004KT 1SM 18/17 A3000 RMK T01800170 IEM_DS3505
ZHCC,2009-09-24 00:00,ZHCC 240000Z AUTO 09002KT 1 1/4SM 20/18 A3003 RMK SLP165 T02020176 52013 IEM_DS3505
ZHCC,2009-09-24 01:00,ZHCC 240100Z AUTO 12002KT 1SM 19/18 A3003 RMK T01900180 IEM_DS3505
ZHCC,2009-09-24 03:00,ZHCC 240300Z AUTO 34002KT 1 1/4SM 22/19 A3003 RMK SLP173 T02180190 52007 IEM_DS3505
ZHCC,2009-09-24 04:00,ZHCC 240400Z AUTO 1SM 20/19 A3003 RMK T02000190 IEM_DS3505
ZHCC,2009-09-24 05:00,ZHCC 240500Z AUTO 34004KT 1SM 20/19 A3000 RMK T02000190 IEM_DS3505
ZHCC,2009-09-24 06:00,ZHCC 240600Z AUTO 34004KT 1SM 22/20 A3000 RMK 60008 SLP159 T02220199 57013 IEM_DS3505
ZHCC,2009-09-24 07:00,ZHCC 240700Z AUTO 31008KT 1/2SM 20/20 A2997 RMK T02000200 IEM_DS3505
ZHCC,2009-09-24 08:00,ZHCC 240800Z AUTO 31006KT 1/2SM 20/20 A2997 RMK T02000200 IEM_DS3505
ZHCC,2009-09-24 09:00,ZHCC 240900Z AUTO 32004KT 1SM 22/19 A2997 RMK SLP155 T02150194 57005 IEM_DS3505
ZHCC,2009-09-24 10:00,ZHCC 241000Z AUTO 31008KT 1SM 19/18 A2997 RMK T01900180 IEM_DS3505
ZHCC,2009-09-24 11:00,ZHCC 241100Z AUTO 31004KT 1 1/4SM 19/18 A3000 RMK T01900180 IEM_DS3505
ZHCC,2009-09-24 12:00,ZHCC 241200Z AUTO 25002KT 1 1/4SM 19/17 A3000 RMK 60035 SLP165 T01880168 52009 IEM_DS3505
ZHCC,2009-09-24 13:00,ZHCC 241300Z AUTO 2SM 17/17 A3000 RMK T01700170 IEM_DS3505
ZHCC,2009-09-24 14:00,ZHCC 241400Z AUTO 28008KT 2 1/2SM 17/17 A3000 RMK T01700170 IEM_DS3505
ZHCC,2009-09-24 15:00,ZHCC 241500Z AUTO 25002KT 2 1/2SM 19/18 A3000 RMK SLP165 T01940175 52001 IEM_DS3505
ZHCC,2009-09-24 16:00,ZHCC 241600Z AUTO 30008KT 2SM 18/17 A3000 RMK T01800170 IEM_DS3505
ZHCC,2009-09-24 17:00,ZHCC 241700Z AUTO 30006KT 1 1/2SM 18/17 A3000 RMK T01800170 IEM_DS3505
ZHCC,2009-09-24 18:00,ZHCC 241800Z AUTO 27004KT 5SM 20/18 A3000 RMK 60016 SLP162 T01970177 57003 IEM_DS3505
ZHCC,2009-09-24 19:00,ZHCC 241900Z AUTO 36004KT 1SM 18/18 A3000 RMK T01800180 IEM_DS3505
ZHCC,2009-09-24 20:00,ZHCC 242000Z AUTO 32004KT 1/2SM 18/18 A3003 RMK T01800180 IEM_DS3505
ZHCC,2009-09-24 21:00,ZHCC 242100Z AUTO 00000KT 1 1/4SM 19/18 A3003 RMK 70059 SLP167 T01900178 52005 IEM_DS3505
ZHCC,2009-09-24 22:00,ZHCC 242200Z AUTO 30004KT 1/2SM 18/18 A3000 RMK T01800180 IEM_DS3505
ZHCC,2009-09-24 23:00,ZHCC 242300Z AUTO 29008KT 1/2SM 18/18 A3003 RMK T01800180 IEM_DS3505
ZHCC,2009-09-25 00:00,ZHCC 250000Z AUTO 27002KT 1SM 21/18 A3003 RMK 60000 70059 SLP176 T02060182 52008 IEM_DS3505
ZHCC,2009-09-25 02:00,ZHCC 250200Z AUTO 32008KT 1SM 22/20 A3006 RMK T02200200 IEM_DS3505
ZHCC,2009-09-25 03:00,ZHCC 250300Z AUTO 29006KT 3SM 25/18 A3006 RMK SLP178 T02510178 52004 IEM_DS3505
ZHCC,2009-09-25 04:00,ZHCC 250400Z AUTO 35010KT 1 1/2SM 25/19 A3003 RMK T02500190 IEM_DS3505
ZHCC,2009-09-25 05:00,ZHCC 250500Z AUTO 35008KT 3SM 25/19 A3003 RMK T02500190 IEM_DS3505
ZHCC,2009-09-25 06:00,ZHCC 250600Z AUTO 34002KT 6SM 27/17 A3003 RMK SLP161 T02740173 57017 IEM_DS3505
ZHCC,2009-09-25 07:00,ZHCC 250700Z AUTO 05006KT 4SM 26/19 A3000 RMK T02600190 IEM_DS3505
ZHCC,2009-09-25 08:00,ZHCC 250800Z AUTO 02004KT 4SM 26/19 A3000 RMK T02600190 IEM_DS3505
ZHCC,2009-09-25 09:00,ZHCC 250900Z AUTO 11002KT 7SM 27/17 A3000 RMK SLP159 T02710167 57002 IEM_DS3505
ZHCC,2009-09-25 10:00,ZHCC 251000Z AUTO 4SM 24/19 A3003 RMK T02400190 IEM_DS3505
ZHCC,2009-09-25 11:00,ZHCC 251100Z AUTO 00000KT 3SM 22/19 A3003 RMK T02200190 IEM_DS3505
ZHCC,2009-09-25 12:00,ZHCC 251200Z AUTO 00000KT 6SM 21/19 A3003 RMK SLP172 T02140191 52012 IEM_DS3505
ZHCC,2009-09-25 13:00,ZHCC 251300Z AUTO 00000KT 2 1/2SM 21/19 A3006 RMK T02100190 IEM_DS3505
ZHCC,2009-09-25 14:00,ZHCC 251400Z AUTO 05004KT 2 1/2SM 21/19 A3006 RMK T02100190 IEM_DS3505
ZHCC,2009-09-25 15:00,ZHCC 251500Z AUTO 00000KT 5SM 21/19 A3006 RMK SLP180 T02060191 52009 IEM_DS3505
ZHCC,2009-09-25 16:00,ZHCC 251600Z AUTO 21002KT 2SM 21/19 A3006 RMK T02100190 IEM_DS3505
ZHCC,2009-09-25 17:00,ZHCC 251700Z AUTO 23002KT 2SM 20/19 A3003 RMK T02000190 IEM_DS3505
ZHCC,2009-09-25 18:00,ZHCC 251800Z AUTO 27002KT 4SM 20/18 A3003 RMK SLP170 T01970184 57010 IEM_DS3505
ZHCC,2009-09-25 19:00,ZHCC 251900Z AUTO 24002KT 1SM 19/18 A3003 RMK T01900180 IEM_DS3505
ZHCC,2009-09-25 20:00,ZHCC 252000Z AUTO 00000KT 1 1/2SM 19/18 A3003 RMK T01900180 IEM_DS3505
ZHCC,2009-09-25 21:00,ZHCC 252100Z AUTO 00000KT 4SM 19/18 A3003 RMK SLP166 T01930178 57004 IEM_DS3505
ZHCC,2009-09-25 22:00,ZHCC 252200Z AUTO 23002KT 1 1/4SM 19/18 A3003 RMK T01900180 IEM_DS3505
ZHCC,2009-09-25 23:00,ZHCC 252300Z AUTO 27002KT 1 1/2SM 19/18 A3006 RMK T01900180 IEM_DS3505
ZHCC,2009-09-26 00:00,ZHCC 260000Z AUTO 00000KT 2 1/2SM 20/19 A3006 RMK SLP180 T02050192 52013 IEM_DS3505
ZHCC,2009-09-26 01:00,ZHCC 260100Z AUTO 22002KT 1 1/2SM 20/19 A3009 RMK T02000190 IEM_DS3505
ZHCC,2009-09-26 02:00,ZHCC 260200Z AUTO 26002KT 2SM 21/20 A3009 RMK T02100200 IEM_DS3505
ZHCC,2009-09-26 03:00,ZHCC 260300Z AUTO 09002KT 5SM 24/17 A3006 RMK SLP179 T02450167 54000 IEM_DS3505
ZHCC,2009-09-26 04:00,ZHCC 260400Z AUTO 3SM 23/20 A3006 RMK T02300200 IEM_DS3505
ZHCC,2009-09-26 05:00,ZHCC 260500Z AUTO 5SM 23/18 A3006 RMK T02300180 IEM_DS3505
ZHCC,2009-09-26 06:00,ZHCC 260600Z AUTO 18004KT 7SM 26/16 A3003 RMK SLP163 T02550164 57016 IEM_DS3505
ZHCC,2009-09-26 07:00,ZHCC 260700Z AUTO 19004KT 6SM 24/19 A3000 RMK T02400190 IEM_DS3505
ZHCC,2009-09-26 08:00,ZHCC 260800Z AUTO 6SM 24/18 A3000 RMK T02400180 IEM_DS3505
ZHCC,2009-09-26 09:00,ZHCC 260900Z AUTO 18006KT 7SM 25/16 A3000 RMK SLP155 T02530164 57008 IEM_DS3505
ZHCC,2009-09-26 10:00,ZHCC 261000Z AUTO 16002KT 6SM 23/19 A3000 RMK T02300190 IEM_DS3505
ZHCC,2009-09-26 11:00,ZHCC 261100Z AUTO 16002KT 6SM 21/18 A3000 RMK T02100180 IEM_DS3505
ZHCC,2009-09-26 12:00,ZHCC 261200Z AUTO 18004KT 6SM 21/17 A3003 RMK SLP166 T02140174 52010 IEM_DS3505
ZHCC,2009-09-26 13:00,ZHCC 261300Z AUTO 4SM 19/17 A3003 RMK T01900170 IEM_DS3505
ZHCC,2009-09-26 14:00,ZHCC 261400Z AUTO 24002KT 2 1/2SM 18/17 A3003 RMK T01800170 IEM_DS3505
ZHCC,2009-09-26 15:00,ZHCC 261500Z AUTO 00000KT 6SM 18/16 A3003 RMK SLP170 T01810163 52004 IEM_DS3505
ZHCC,2009-09-26 16:00,ZHCC 261600Z AUTO 25002KT 1 1/4SM 18/17 A3003 RMK T01800170 IEM_DS3505
ZHCC,2009-09-26 17:00,ZHCC 261700Z AUTO 00000KT 1 1/4SM 17/16 A3000 RMK T01700160 IEM_DS3505
ZHCC,2009-09-26 18:00,ZHCC 261800Z AUTO 22002KT 5SM 18/16 A3000 RMK SLP159 T01750162 57011 IEM_DS3505
ZHCC,2009-09-26 19:00,ZHCC 261900Z AUTO 00000KT 1SM 17/16 A3000 RMK T01700160 IEM_DS3505
ZHCC,2009-09-26 20:00,ZHCC 262000Z AUTO 28002KT 1 1/4SM 17/16 A2997 RMK T01700160 IEM_DS3505
ZHCC,2009-09-26 21:00,ZHCC 262100Z AUTO 00000KT 3SM 17/16 A2997 RMK SLP153 T01730158 57006 IEM_DS3505
ZHCC,2009-09-26 22:00,ZHCC 262200Z AUTO 24002KT 1SM 16/15 A2997 RMK T01600150 IEM_DS3505
ZHCC,2009-09-26 23:00,ZHCC 262300Z AUTO 00000KT 1SM 16/16 A3000 RMK T01600160 IEM_DS3505
ZHCC,2009-09-27 00:00,ZHCC 270000Z AUTO 00000KT 2SM 19/18 A3000 RMK SLP162 T01940177 52009 IEM_DS3505
ZHCC,2009-09-27 01:00,ZHCC 270100Z AUTO 1 1/4SM 19/19 A3003 RMK T01900190 IEM_DS3505
ZHCC,2009-09-27 02:00,ZHCC 270200Z AUTO 2SM 21/19 A3003 RMK T02100190 IEM_DS3505
ZHCC,2009-09-27 03:00,ZHCC 270300Z AUTO 14004KT 3SM 24/17 A3000 RMK SLP159 T02450172 57003 IEM_DS3505
ZHCC,2009-09-27 04:00,ZHCC 270400Z AUTO 2SM 23/18 A3000 RMK T02300180 IEM_DS3505
ZHCC,2009-09-27 05:00,ZHCC 270500Z AUTO 14006KT 5SM 25/17 A2997 RMK T02500170 IEM_DS3505
ZHCC,2009-09-27 06:00,ZHCC 270600Z AUTO 16006KT 6SM 27/16 A2997 RMK SLP142 T02690156 57016 IEM_DS3505
ZHCC,2009-09-27 07:00,ZHCC 270700Z AUTO 15002KT 5SM 25/17 A2997 RMK T02500170 IEM_DS3505
ZHCC,2009-09-27 08:00,ZHCC 270800Z AUTO 13004KT 6SM 25/17 A2997 RMK T02500170 IEM_DS3505
ZHCC,2009-09-27 09:00,ZHCC 270900Z AUTO 09004KT 7SM 26/16 A2997 RMK SLP144 T02590159 52002 IEM_DS3505
ZHCC,2009-09-27 10:00,ZHCC 271000Z AUTO 00000KT 4SM 23/19 A2997 RMK T02300190 IEM_DS3505
ZHCC,2009-09-27 11:00,ZHCC 271100Z AUTO 15002KT 3SM 21/18 A3000 RMK T02100180 IEM_DS3505
ZHCC,2009-09-27 12:00,ZHCC 271200Z AUTO 14004KT 6SM 23/17 A3003 RMK SLP163 T02330173 52018 IEM_DS3505
ZHCC,2009-09-27 13:00,ZHCC 271300Z AUTO 18002KT 2 1/2SM 20/18 A3003 RMK T02000180 IEM_DS3505
ZHCC,2009-09-27 14:00,ZHCC 271400Z AUTO 00000KT 1 1/4SM 19/17 A3003 RMK T01900170 IEM_DS3505
ZHCC,2009-09-27 15:00,ZHCC 271500Z AUTO 22002KT 4SM 19/17 A3003 RMK SLP172 T01910171 52009 IEM_DS3505
ZHCC,2009-09-27 16:00,ZHCC 271600Z AUTO 00000KT 1SM 17/16 A3003 RMK T01700160 IEM_DS3505
ZHCC,2009-09-27 17:00,ZHCC 271700Z AUTO 00000KT 1SM 17/16 A3003 RMK T01700160 IEM_DS3505
ZHCC,2009-09-27 18:00,ZHCC 271800Z AUTO 00000KT 1 1/4SM 18/16 A3003 RMK SLP170 T01760165 57001 IEM_DS3505
ZHCC,2009-09-27 19:00,ZHCC 271900Z AUTO 00000KT 1/8SM 16/16 A3003 RMK T01600160 IEM_DS3505
ZHCC,2009-09-27 20:00,ZHCC 272000Z AUTO 00000KT 1/8SM 16/16 A3003 RMK T01600160 IEM_DS3505
ZHCC,2009-09-27 21:00,ZHCC 272100Z AUTO 00000KT 1 1/4SM 17/16 A3003 RMK SLP174 T01660156 52003 IEM_DS3505
ZHCC,2009-09-27 22:00,ZHCC 272200Z AUTO 00000KT 1SM 15/14 A3006 RMK T01500140 IEM_DS3505
ZHCC,2009-09-27 23:00,ZHCC 272300Z AUTO 22002KT 1/2SM 16/15 A3006 RMK T01600150 IEM_DS3505
ZHCC,2009-09-28 00:00,ZHCC 280000Z AUTO 00000KT 1 1/4SM 19/18 A3009 RMK SLP189 T01930185 52015 IEM_DS3505
ZHCC,2009-09-28 01:00,ZHCC 280100Z AUTO 35004KT 1SM 19/19 A3009 RMK T01900190 IEM_DS3505
ZHCC,2009-09-28 02:00,ZHCC 280200Z AUTO 34002KT 1SM 21/20 A3012 RMK T02100200 IEM_DS3505
ZHCC,2009-09-28 03:00,ZHCC 280300Z AUTO 09002KT 2SM 25/17 A3009 RMK SLP193 T02500170 52004 IEM_DS3505
ZHCC,2009-09-28 04:00,ZHCC 280400Z AUTO 36004KT 1 1/2SM 25/19 A3009 RMK T02500190 IEM_DS3505
ZHCC,2009-09-28 05:00,ZHCC 280500Z AUTO 1 1/2SM 26/18 A3006 RMK T02600180 IEM_DS3505
ZHCC,2009-09-28 06:00,ZHCC 280600Z AUTO 07004KT 4SM 26/16 A3006 RMK SLP175 T02650159 57018 IEM_DS3505
ZHCC,2009-09-28 07:00,ZHCC 280700Z AUTO 1 1/2SM 26/17 A3003 RMK T02600170 IEM_DS3505
ZHCC,2009-09-28 08:00,ZHCC 280800Z AUTO 05004KT 2SM 27/17 A3003 RMK T02700170 IEM_DS3505
ZHCC,2009-09-28 09:00,ZHCC 280900Z AUTO 07002KT 6SM 27/16 A3003 RMK SLP170 T02680155 57005 IEM_DS3505
ZHCC,2009-09-28 10:00,ZHCC 281000Z AUTO 35004KT 1 1/4SM 25/18 A3003 RMK T02500180 IEM_DS3505
ZHCC,2009-09-28 11:00,ZHCC 281100Z AUTO 1 1/4SM 22/18 A3006 RMK T02200180 IEM_DS3505
ZHCC,2009-09-28 12:00,ZHCC 281200Z AUTO 00000KT 4SM 21/17 A3006 RMK SLP183 T02070173 52012 IEM_DS3505
ZHCC,2009-09-28 13:00,ZHCC 281300Z AUTO 1 1/4SM 21/18 A3009 RMK T02100180 IEM_DS3505
ZHCC,2009-09-28 14:00,ZHCC 281400Z AUTO 03002KT 1 1/4SM 20/18 A3009 RMK T02000180 IEM_DS3505
ZHCC,2009-09-28 15:00,ZHCC 281500Z AUTO 00000KT 1 1/4SM 19/18 A3009 RMK SLP193 T01940177 52011 IEM_DS3505
ZHCC,2009-09-28 16:00,ZHCC 281600Z AUTO 01002KT 1SM 20/18 A3009 RMK T02000180 IEM_DS3505
ZHCC,2009-09-28 17:00,ZHCC 281700Z AUTO 35002KT 1SM 20/18 A3009 RMK T02000180 IEM_DS3505
ZHCC,2009-09-28 18:00,ZHCC 281800Z AUTO 27002KT 1SM 19/18 A3009 RMK SLP188 T01890176 57004 IEM_DS3505
ZHCC,2009-09-28 19:00,ZHCC 281900Z AUTO 00000KT 1/4SM 19/17 A3009 RMK T01900170 IEM_DS3505
ZHCC,2009-09-28 20:00,ZHCC 282000Z AUTO 00000KT 1/2SM 18/16 A3009 RMK T01800160 IEM_DS3505
ZHCC,2009-09-28 21:00,ZHCC 282100Z AUTO 00000KT 1SM 18/17 A3009 RMK SLP192 T01780167 52003 IEM_DS3505
ZHCC,2009-09-28 22:00,ZHCC 282200Z AUTO 00000KT 1/4SM 17/16 A3012 RMK T01700160 IEM_DS3505
ZHCC,2009-09-28 23:00,ZHCC 282300Z AUTO 00000KT 1/4SM 17/16 A3012 RMK T01700160 IEM_DS3505
ZHCC,2009-09-29 00:00,ZHCC 290000Z AUTO 22002KT 1SM 20/18 A3015 RMK SLP210 T01980181 52017 IEM_DS3505
ZHCC,2009-09-29 01:00,ZHCC 290100Z AUTO 00000KT 1SM 21/20 A3015 RMK T02100200 IEM_DS3505
ZHCC,2009-09-29 02:00,ZHCC 290200Z AUTO 1SM 22/21 A3015 RMK T02200210 IEM_DS3505
ZHCC,2009-09-29 03:00,ZHCC 290300Z AUTO 16006KT 1 1/4SM 26/18 A3015 RMK SLP205 T02550179 57004 IEM_DS3505
ZHCC,2009-09-29 04:00,ZHCC 290400Z AUTO 12006KT 2SM 25/19 A3012 RMK T02500190 IEM_DS3505
ZHCC,2009-09-29 05:00,ZHCC 290500Z AUTO 12006KT 2 1/2SM 26/18 A3009 RMK T02600180 IEM_DS3505
ZHCC,2009-09-29 06:00,ZHCC 290600Z AUTO 14008KT 6SM 28/14 A3009 RMK SLP181 T02790145 57023 IEM_DS3505
ZHCC,2009-09-29 07:00,ZHCC 290700Z AUTO 13004KT 2 1/2SM 27/17 A3006 RMK T02700170 IEM_DS3505
ZHCC,2009-09-29 08:00,ZHCC 290800Z AUTO 16002KT 2 1/2SM 26/18 A3006 RMK T02600180 IEM_DS3505
ZHCC,2009-09-29 09:00,ZHCC 290900Z AUTO 14006KT 7SM 27/14 A3006 RMK SLP171 T02700144 57010 IEM_DS3505
ZHCC,2009-09-29 10:00,ZHCC 291000Z AUTO 14002KT 2SM 24/18 A3006 RMK T02400180 IEM_DS3505
ZHCC,2009-09-29 11:00,ZHCC 291100Z AUTO 13002KT 2SM 21/17 A3006 RMK T02100170 IEM_DS3505
ZHCC,2009-09-29 12:00,ZHCC 291200Z AUTO 14004KT 6SM 23/16 RMK SLP188 T02270158 52016 IEM_DS3505
ZHCC,2009-09-29 13:00,ZHCC 291300Z AUTO 2SM 19/17 A3012 RMK T01900170 IEM_DS3505
ZHCC,2009-09-29 14:00,ZHCC 291400Z AUTO 15004KT 2SM 20/16 A3009 RMK T02000160 IEM_DS3505
ZHCC,2009-09-29 15:00,ZHCC 291500Z AUTO 18002KT 5SM 22/15 A3009 RMK SLP193 T02150149 52006 IEM_DS3505
ZHCC,2009-09-29 16:00,ZHCC 291600Z AUTO 19002KT 1 1/4SM 18/15 A3009 RMK T01800150 IEM_DS3505
ZHCC,2009-09-29 17:00,ZHCC 291700Z AUTO 22002KT 1 1/4SM 18/15 A3012 RMK T01800150 IEM_DS3505
ZHCC,2009-09-29 18:00,ZHCC 291800Z AUTO 16002KT 4SM 19/14 A3012 RMK SLP196 T01880139 52003 IEM_DS3505
ZHCC,2009-09-29 19:00,ZHCC 291900Z AUTO 00000KT 1 1/4SM 16/14 A3012 RMK T01600140 IEM_DS3505
ZHCC,2009-09-29 20:00,ZHCC 292000Z AUTO 00000KT 1SM 15/13 A3012 RMK T01500130 IEM_DS3505
ZHCC,2009-09-29 21:00,ZHCC 292100Z AUTO 00000KT 4SM 16/14 A3009 RMK SLP194 T01550140 57003 IEM_DS3505
ZHCC,2009-09-29 22:00,ZHCC 292200Z AUTO 25002KT 1SM 14/13 A3012 RMK T01400130 IEM_DS3505
ZHCC,2009-09-29 23:00,ZHCC 292300Z AUTO 23002KT 1SM 14/13 A3012 RMK T01400130 IEM_DS3505
ZHCC,2009-09-30 00:00,ZHCC 300000Z AUTO 16002KT 2 1/2SM 20/15 A3015 RMK SLP206 T01950152 52012 IEM_DS3505
ZHCC,2009-09-30 01:00,ZHCC 300100Z AUTO 21004KT 1 1/4SM 20/19 A3015 RMK T02000190 IEM_DS3505
ZHCC,2009-09-30 02:00,ZHCC 300200Z AUTO 20006KT 2SM 23/18 A3015 RMK T02300180 IEM_DS3505
ZHCC,2009-09-30 03:00,ZHCC 300300Z AUTO 18006KT 5SM 26/14 A3015 RMK SLP205 T02580136 54000 IEM_DS3505
ZHCC,2009-09-30 04:00,ZHCC 300400Z AUTO 2 1/2SM 25/16 A3012 RMK T02500160 IEM_DS3505
ZHCC,2009-09-30 05:00,ZHCC 300500Z AUTO 13004KT 3SM 26/14 A3009 RMK T02600140 IEM_DS3505
ZHCC,2009-09-30 06:00,ZHCC 300600Z AUTO 18004KT 6SM 28/11 A3006 RMK SLP174 T02800107 57031 IEM_DS3505
ZHCC,2009-09-30 07:00,ZHCC 300700Z AUTO 16004KT 6SM 27/12 A3003 RMK T02700120 IEM_DS3505
ZHCC,2009-09-30 08:00,ZHCC 300800Z AUTO 6SM 27/12 A3003 RMK T02700120 IEM_DS3505
ZHCC,2009-09-30 09:00,ZHCC 300900Z AUTO 16004KT 6SM 28/10 A3003 RMK SLP163 T02750098 57012 IEM_DS3505
ZHCC,2009-09-30 10:00,ZHCC 301000Z AUTO 16004KT 4SM 22/14 A3003 RMK T02200140 IEM_DS3505
ZHCC,2009-09-30 11:00,ZHCC 301100Z AUTO 16002KT 3SM 21/14 A3003 RMK T02100140 IEM_DS3505
ZHCC,2009-09-30 12:00,ZHCC 301200Z AUTO 16004KT 6SM 23/12 A3003 RMK SLP170 T02270121 52007 IEM_DS3505
ZHCC,2009-09-30 13:00,ZHCC 301300Z AUTO 20002KT 3SM 19/14 A3006 RMK T01900140 IEM_DS3505
ZHCC,2009-09-30 14:00,ZHCC 301400Z AUTO 2 1/2SM 18/15 A3006 RMK T01800150 IEM_DS3505
ZHCC,2009-09-30 15:00,ZHCC 301500Z AUTO 16002KT 6SM 18/14 A3006 RMK SLP178 T01780135 52008 IEM_DS3505
ZHCC,2009-09-30 16:00,ZHCC 301600Z AUTO 22002KT 2SM 17/14 A3006 RMK T01700140 IEM_DS3505
ZHCC,2009-09-30 17:00,ZHCC 301700Z AUTO 1SM 17/14 A3003 RMK T01700140 IEM_DS3505
ZHCC,2009-09-30 18:00,ZHCC 301800Z AUTO 07002KT 5SM 17/14 A3003 RMK SLP168 T01660137 57009 IEM_DS3505
ZHCC,2009-09-30 19:00,ZHCC 301900Z AUTO 23002KT 1SM 17/13 A3003 RMK T01700130 IEM_DS3505
ZHCC,2009-09-30 20:00,ZHCC 302000Z AUTO 1SM 16/13 A3000 RMK T01600130 IEM_DS3505
ZHCC,2009-09-30 21:00,ZHCC 302100Z AUTO 22002KT 4SM 16/14 A3000 RMK SLP160 T01650138 57008 IEM_DS3505
ZHCC,2009-09-30 22:00,ZHCC 302200Z AUTO 00000KT 1SM 15/13 A3000 RMK T01500130 IEM_DS3505
ZHCC,2009-09-30 23:00,ZHCC 302300Z AUTO 00000KT 1SM 15/13 A3000 RMK T01500130 IEM_DS3505
ZHCC,2009-10-01 00:00,ZHCC 010000Z AUTO 00000KT 2 1/2SM 20/15 A3000 RMK SLP161 T02020150 54000 IEM_DS3505
ZHCC,2009-10-01 01:00,ZHCC 010100Z AUTO 1SM 20/17 A3003 RMK T02000170 IEM_DS3505
ZHCC,2009-10-01 02:00,ZHCC 010200Z AUTO 24004KT 1 1/4SM 24/16 A3000 RMK T02400160 IEM_DS3505
ZHCC,2009-10-01 03:00,ZHCC 010300Z AUTO 29006KT 4SM 27/15 A3000 RMK SLP155 T02690150 57005 IEM_DS3505
ZHCC,2009-10-01 04:00,ZHCC 010400Z AUTO 27006KT 2SM 28/17 A2997 RMK T02800170 IEM_DS3505
ZHCC,2009-10-01 05:00,ZHCC 010500Z AUTO 28008KT 2 1/2SM 28/16 A2997 RMK T02800160 IEM_DS3505
ZHCC,2009-10-01 06:00,ZHCC 010600Z AUTO 32006KT 5SM 30/15 A2994 RMK SLP137 T02950149 57018 IEM_DS3505
ZHCC,2009-10-01 07:00,ZHCC 010700Z AUTO 31006KT 2 1/2SM 29/17 A2994 RMK T02900170 IEM_DS3505
ZHCC,2009-10-01 08:00,ZHCC 010800Z AUTO 34006KT 2 1/2SM 28/16 A2994 RMK T02800160 IEM_DS3505
ZHCC,2009-10-01 09:00,ZHCC 010900Z AUTO 04004KT 6SM 29/13 A2994 RMK SLP137 T02880131 54000 IEM_DS3505
ZHCC,2009-10-01 10:00,ZHCC 011000Z AUTO 00000KT 2SM 25/17 A2994 RMK T02500170 IEM_DS3505
ZHCC,2009-10-01 11:00,ZHCC 011100Z AUTO 27002KT 1SM 21/17 A2997 RMK T02100170 IEM_DS3505
ZHCC,2009-10-01 12:00,ZHCC 011200Z AUTO 00000KT 4SM 22/17 A2997 RMK SLP150 T02160172 52012 IEM_DS3505
ZHCC,2009-10-01 13:00,ZHCC 011300Z AUTO 00000KT 1SM 19/17 A3000 RMK T01900170 IEM_DS3505
ZHCC,2009-10-01 14:00,ZHCC 011400Z AUTO 03002KT 1 1/4SM 19/17 A3000 RMK T01900170 IEM_DS3505
ZHCC,2009-10-01 15:00,ZHCC 011500Z AUTO 00000KT 4SM 20/17 A3000 RMK SLP160 T01950171 52011 IEM_DS3505
ZHCC,2009-10-01 16:00,ZHCC 011600Z AUTO 27002KT 1 1/4SM 18/17 A3000 RMK T01800170 IEM_DS3505
ZHCC,2009-10-01 17:00,ZHCC 011700Z AUTO 30002KT 1 1/4SM 18/17 A3000 RMK T01800170 IEM_DS3505
ZHCC,2009-10-01 18:00,ZHCC 011800Z AUTO 27002KT 2 1/2SM 19/17 A3003 RMK SLP168 T01870169 52008 IEM_DS3505
ZHCC,2009-10-01 19:00,ZHCC 011900Z AUTO 31004KT 1SM 19/17 A3000 RMK T01900170 IEM_DS3505
ZHCC,2009-10-01 20:00,ZHCC 012000Z AUTO 30004KT 1SM 18/16 A3003 RMK T01800160 IEM_DS3505
ZHCC,2009-10-01 21:00,ZHCC 012100Z AUTO 25002KT 2 1/2SM 18/16 A3003 RMK SLP169 T01790159 52001 IEM_DS3505
ZHCC,2009-10-01 22:00,ZHCC 012200Z AUTO 31004KT 1SM 18/16 A3003 RMK T01800160 IEM_DS3505
ZHCC,2009-10-02 00:00,ZHCC 020000Z AUTO 27002KT 2SM 21/15 A3009 RMK SLP188 T02130149 52018 IEM_DS3505
ZHCC,2009-10-02 01:00,ZHCC 020100Z AUTO 32006KT 1SM 21/17 A3009 RMK T02100170 IEM_DS3505
ZHCC,2009-10-02 02:00,ZHCC 020200Z AUTO 34006KT 1SM 23/17 A3009 RMK T02300170 IEM_DS3505
ZHCC,2009-10-02 03:00,ZHCC 020300Z AUTO 02004KT 6SM 26/13 A3009 RMK SLP190 T02550134 52002 IEM_DS3505
ZHCC,2009-10-02 04:00,ZHCC 020400Z AUTO 03002KT 1 1/2SM 26/14 A3006 RMK T02600140 IEM_DS3505
ZHCC,2009-10-02 05:00,ZHCC 020500Z AUTO 35004KT 2SM 26/13 A3006 RMK T02600130 IEM_DS3505
ZHCC,2009-10-02 06:00,ZHCC 020600Z AUTO 16004KT 7SM 28/13 A3003 RMK SLP160 T02820133 57029 IEM_DS3505
ZHCC,2009-10-02 07:00,ZHCC 020700Z AUTO 00000KT 2 1/2SM 28/15 A3000 RMK T02800150 IEM_DS3505
ZHCC,2009-10-02 08:00,ZHCC 020800Z AUTO 15004KT 2 1/2SM 27/15 A2997 RMK T02700150 IEM_DS3505
ZHCC,2009-10-02 09:00,ZHCC 020900Z AUTO 18004KT 5SM 27/15 A2997 RMK SLP141 T02720152 57019 IEM_DS3505
ZHCC,2009-10-02 10:00,ZHCC 021000Z AUTO 13002KT 1 1/4SM 23/17 A2997 RMK T02300170 IEM_DS3505
ZHCC,2009-10-02 11:00,ZHCC 021100Z AUTO 12004KT 1 1/4SM 22/17 A2997 RMK T02200170 IEM_DS3505
ZHCC,2009-10-02 12:00,ZHCC 021200Z AUTO 00000KT 3SM 22/16 A2997 RMK SLP150 T02220158 52009 IEM_DS3505
ZHCC,2009-10-02 13:00,ZHCC 021300Z AUTO 17004KT 1 1/4SM 20/17 A3000 RMK T02000170 IEM_DS3505
ZHCC,2009-10-02 14:00,ZHCC 021400Z AUTO 17004KT 1 1/4SM 20/17 A3000 RMK T02000170 IEM_DS3505
ZHCC,2009-10-02 15:00,ZHCC 021500Z AUTO 16004KT 3SM 22/16 A3000 RMK SLP152 T02180159 52002 IEM_DS3505
ZHCC,2009-10-02 16:00,ZHCC 021600Z AUTO 1 1/4SM 21/15 A3000 RMK T02100150 IEM_DS3505
ZHCC,2009-10-02 17:00,ZHCC 021700Z AUTO 1 1/4SM 20/15 A2997 RMK T02000150 IEM_DS3505
ZHCC,2009-10-02 18:00,ZHCC 021800Z AUTO 22002KT 2 1/2SM 18/16 A2997 RMK SLP148 T01840156 57004 IEM_DS3505
ZHCC,2009-10-02 19:00,ZHCC 021900Z AUTO 27002KT 3/8SM 18/15 A2997 RMK T01800150 IEM_DS3505
ZHCC,2009-10-02 20:00,ZHCC 022000Z AUTO 00000KT 3/8SM 17/14 A2994 RMK T01700140 IEM_DS3505
ZHCC,2009-10-02 21:00,ZHCC 022100Z AUTO 25002KT 2SM 17/15 A2994 RMK SLP143 T01660146 57005 IEM_DS3505
ZHCC,2009-10-02 22:00,ZHCC 022200Z AUTO 00000KT 3/8SM 16/14 A2997 RMK T01600140 IEM_DS3505
ZHCC,2009-10-02 23:00,ZHCC 022300Z AUTO 00000KT 3/8SM 15/14 A2997 RMK T01500140 IEM_DS3505
ZHCC,2009-10-03 00:00,ZHCC 030000Z AUTO 27002KT 1SM 19/15 A2997 RMK SLP155 T01940149 52011 IEM_DS3505
ZHCC,2009-10-03 01:00,ZHCC 030100Z AUTO 24004KT 1SM 22/20 A3000 RMK T02200200 IEM_DS3505
ZHCC,2009-10-03 03:00,ZHCC 030300Z AUTO 02004KT 2SM 27/13 A2997 RMK SLP148 T02740126 57005 IEM_DS3505
ZHCC,2009-10-03 04:00,ZHCC 030400Z AUTO 1 1/4SM 28/17 A2994 RMK T02800170 IEM_DS3505
ZHCC,2009-10-03 05:00,ZHCC 030500Z AUTO 03006KT 1 1/4SM 28/17 A2991 RMK T02800170 IEM_DS3505
ZHCC,2009-10-03 06:00,ZHCC 030600Z AUTO 02002KT 4SM 30/11 A2991 RMK SLP124 T03020107 57024 IEM_DS3505
ZHCC,2009-10-03 07:00,ZHCC 030700Z AUTO 01006KT 2SM 29/15 A2988 RMK T02900150 IEM_DS3505
ZHCC,2009-10-03 08:00,ZHCC 030800Z AUTO 01006KT 2SM 28/15 A2988 RMK T02800150 IEM_DS3505
ZHCC,2009-10-03 09:00,ZHCC 030900Z AUTO 09004KT 6SM 28/12 A2988 RMK SLP115 T02830118 57010 IEM_DS3505
ZHCC,2009-10-03 10:00,ZHCC 031000Z AUTO 09004KT 1 1/4SM 24/17 A2988 RMK T02400170 IEM_DS3505
ZHCC,2009-10-03 11:00,ZHCC 031100Z AUTO 1 1/4SM 23/17 A2991 RMK T02300170 IEM_DS3505
ZHCC,2009-10-03 12:00,ZHCC 031200Z AUTO 04008KT 5SM 25/09 A2991 RMK SLP134 T02490088 52019 IEM_DS3505
ZHCC,2009-10-03 13:00,ZHCC 031300Z AUTO 01006KT 1 1/4SM 22/13 A2994 RMK T02200130 IEM_DS3505
ZHCC,2009-10-03 14:00,ZHCC 031400Z AUTO 32002KT 1 1/4SM 21/12 A2994 RMK T02100120 IEM_DS3505
ZHCC,2009-10-03 15:00,ZHCC 031500Z AUTO 00000KT 7SM 20/12 A2994 RMK SLP140 T02030118 52007 IEM_DS3505
ZHCC,2009-10-03 16:00,ZHCC 031600Z AUTO 26002KT 1 1/4SM 19/14 A2994 RMK T01900140 IEM_DS3505
ZHCC,2009-10-03 17:00,ZHCC 031700Z AUTO 31004KT 1 1/4SM 18/14 A2994 RMK T01800140 IEM_DS3505
ZHCC,2009-10-03 18:00,ZHCC 031800Z AUTO 18002KT 6SM 18/13 A2994 RMK SLP143 T01850129 52003 IEM_DS3505
ZHCC,2009-10-03 19:00,ZHCC 031900Z AUTO 32002KT 1 1/4SM 18/12 A2994 RMK T01800120 IEM_DS3505
ZHCC,2009-10-03 20:00,ZHCC 032000Z AUTO 31004KT 1 1/4SM 16/12 A2994 RMK T01600120 IEM_DS3505
ZHCC,2009-10-03 21:00,ZHCC 032100Z AUTO 22002KT 4SM 17/14 A2997 RMK SLP149 T01730140 52005 IEM_DS3505
ZHCC,2009-10-03 22:00,ZHCC 032200Z AUTO 30006KT 1 1/4SM 15/12 A2997 RMK T01500120 IEM_DS3505
ZHCC,2009-10-03 23:00,ZHCC 032300Z AUTO 31006KT 1 1/4SM 17/12 A3000 RMK T01700120 IEM_DS3505
ZHCC,2009-10-04 00:00,ZHCC 040000Z AUTO 32004KT 3SM 20/11 A3003 RMK SLP175 T01980113 52026 IEM_DS3505
ZHCC,2009-10-04 01:00,ZHCC 040100Z AUTO 33008KT 1SM 20/12 A3006 RMK T02000120 IEM_DS3505
ZHCC,2009-10-04 02:00,ZHCC 040200Z AUTO 34010KT 1 1/4SM 22/13 A3006 RMK T02200130 IEM_DS3505
ZHCC,2009-10-04 03:00,ZHCC 040300Z AUTO 36006KT 5SM 24/10 A3006 RMK SLP182 T02430095 52007 IEM_DS3505
ZHCC,2009-10-04 04:00,ZHCC 040400Z AUTO 35012KT 2 1/2SM 25/11 A3006 RMK T02500110 IEM_DS3505
ZHCC,2009-10-04 05:00,ZHCC 040500Z AUTO 36012KT 2 1/2SM 25/11 A3003 RMK T02500110 IEM_DS3505
ZHCC,2009-10-04 06:00,ZHCC 040600Z AUTO 02006KT 6SM 26/08 A3003 RMK SLP165 T02640079 57017 IEM_DS3505
ZHCC,2009-10-04 07:00,ZHCC 040700Z AUTO 04008KT 2 1/2SM 26/11 A3000 RMK T02600110 IEM_DS3505
ZHCC,2009-10-04 08:00,ZHCC 040800Z AUTO 04010KT 2 1/2SM 26/11 A3000 RMK T02600110 IEM_DS3505
ZHCC,2009-10-04 09:00,ZHCC 040900Z AUTO 04008KT 7SM 26/07 A3003 RMK SLP171 T02550067 52005 IEM_DS3505
ZHCC,2009-10-04 10:00,ZHCC 041000Z AUTO 34006KT 2 1/2SM 23/10 A3003 RMK T02300100 IEM_DS3505
ZHCC,2009-10-04 11:00,ZHCC 041100Z AUTO 32006KT 2 1/2SM 22/10 A3006 RMK T02200100 IEM_DS3505
ZHCC,2009-10-04 12:00,ZHCC 041200Z AUTO 16002KT 6SM 22/09 A3006 RMK 60000 SLP182 T02190094 52011 IEM_DS3505
ZHCC,2009-10-04 13:00,ZHCC 041300Z AUTO 22006KT 2 1/2SM 19/13 A3009 RMK T01900130 IEM_DS3505
ZHCC,2009-10-04 14:00,ZHCC 041400Z AUTO 30002KT 2SM 17/13 A3006 RMK T01700130 IEM_DS3505
ZHCC,2009-10-04 15:00,ZHCC 041500Z AUTO 00000KT 4SM 17/12 A3009 RMK SLP188 T01720117 52006 IEM_DS3505
ZHCC,2009-10-04 16:00,ZHCC 041600Z AUTO 27006KT 1 1/2SM 16/12 A3009 RMK T01600120 IEM_DS3505
ZHCC,2009-10-04 17:00,ZHCC 041700Z AUTO 29010KT 2SM 15/12 A3006 RMK T01500120 IEM_DS3505
ZHCC,2009-10-04 18:00,ZHCC 041800Z AUTO 25002KT 4SM 18/13 A3006 RMK SLP183 T01760127 57005 IEM_DS3505
ZHCC,2009-10-04 19:00,ZHCC 041900Z AUTO 28004KT 1 1/4SM 15/12 A3006 RMK T01500120 IEM_DS3505
ZHCC,2009-10-04 20:00,ZHCC 042000Z AUTO 27004KT 1 1/4SM 15/12 A3006 RMK T01500120 IEM_DS3505
ZHCC,2009-10-04 21:00,ZHCC 042100Z AUTO 00000KT 2 1/2SM 14/12 A3006 RMK 70000 SLP177 T01450120 57006 IEM_DS3505
ZHCC,2009-10-04 22:00,ZHCC 042200Z AUTO 26006KT 1 1/4SM 13/11 A3006 RMK T01300110 IEM_DS3505
ZHCC,2009-10-04 23:00,ZHCC 042300Z AUTO 27004KT 1SM 13/11 A3006 RMK T01300110 IEM_DS3505
ZHCC,2009-10-05 00:00,ZHCC 050000Z AUTO 25002KT 2 1/2SM 18/13 A3006 RMK 70000 SLP184 T01770132 52006 IEM_DS3505
ZHCC,2009-10-05 01:00,ZHCC 050100Z AUTO 27006KT 1 1/4SM 20/16 A3006 RMK T02000160 IEM_DS3505
ZHCC,2009-10-05 02:00,ZHCC 050200Z AUTO 25004KT 2SM 23/13 A3006 RMK T02300130 IEM_DS3505
ZHCC,2009-10-05 03:00,ZHCC 050300Z AUTO 27006KT 4SM 24/12 A3006 RMK SLP177 T02400120 57006 IEM_DS3505
ZHCC,2009-10-05 04:00,ZHCC 050400Z AUTO 21004KT 2 1/2SM 26/12 A3003 RMK T02600120 IEM_DS3505
ZHCC,2009-10-05 05:00,ZHCC 050500Z AUTO 2 1/2SM 27/13 A3000 RMK T02700130 IEM_DS3505
ZHCC,2009-10-05 06:00,ZHCC 050600Z AUTO 29006KT 7SM 28/06 A2997 RMK SLP144 T02830064 57032 IEM_DS3505
ZHCC,2009-10-05 07:00,ZHCC 050700Z AUTO 25004KT 3SM 28/10 A2994 RMK T02800100 IEM_DS3505
ZHCC,2009-10-05 08:00,ZHCC 050800Z AUTO 25006KT 4SM 28/08 A2994 RMK T02800080 IEM_DS3505
ZHCC,2009-10-05 09:00,ZHCC 050900Z AUTO 32002KT 10SM 28/02 A2994 RMK SLP137 T02830025 57007 IEM_DS3505
ZHCC,2009-10-05 10:00,ZHCC 051000Z AUTO 00000KT 3SM 22/11 A2994 RMK T02200110 IEM_DS3505
ZHCC,2009-10-05 11:00,ZHCC 051100Z AUTO 3SM 18/12 A2997 RMK T01800120 IEM_DS3505
ZHCC,2009-10-05 12:00,ZHCC 051200Z AUTO 32002KT 6SM 19/11 A3000 RMK SLP155 T01920110 52016 IEM_DS3505
ZHCC,2009-10-05 13:00,ZHCC 051300Z AUTO 09002KT 3SM 17/12 A3000 RMK T01700120 IEM_DS3505
ZHCC,2009-10-05 14:00,ZHCC 051400Z AUTO 13002KT 3SM 15/12 A3003 RMK T01500120 IEM_DS3505
ZHCC,2009-10-05 15:00,ZHCC 051500Z AUTO 00000KT 4SM 16/12 A3003 RMK SLP170 T01620120 52016 IEM_DS3505
ZHCC,2009-10-05 16:00,ZHCC 051600Z AUTO 08002KT 3SM 15/12 A3003 RMK T01500120 IEM_DS3505
ZHCC,2009-10-05 17:00,ZHCC 051700Z AUTO 28002KT 3SM 14/11 A3003 RMK T01400110 IEM_DS3505
ZHCC,2009-10-05 18:00,ZHCC 051800Z AUTO 00000KT 3SM 15/12 A3003 RMK SLP172 T01480121 52002 IEM_DS3505
ZHCC,2009-10-05 19:00,ZHCC 051900Z AUTO 31002KT 1 1/2SM 13/11 A3003 RMK T01300110 IEM_DS3505
ZHCC,2009-10-05 20:00,ZHCC 052000Z AUTO 29002KT 1 1/2SM 13/11 A3003 RMK T01300110 IEM_DS3505
ZHCC,2009-10-05 21:00,ZHCC 052100Z AUTO 00000KT 3SM 14/12 A3003 RMK SLP175 T01420124 52003 IEM_DS3505
ZHCC,2009-10-05 22:00,ZHCC 052200Z AUTO 28002KT 1SM 14/12 A3006 RMK T01400120 IEM_DS3505
ZHCC,2009-10-05 23:00,ZHCC 052300Z AUTO 27004KT 1SM 13/11 A3006 RMK T01300110 IEM_DS3505
ZHCC,2009-10-06 00:00,ZHCC 060000Z AUTO 25002KT 2SM 17/12 A3009 RMK SLP190 T01710120 52014 IEM_DS3505
ZHCC,2009-10-06 01:00,ZHCC 060100Z AUTO 35004KT 1SM 18/13 A3009 RMK T01800130 IEM_DS3505
ZHCC,2009-10-06 02:00,ZHCC 060200Z AUTO 35006KT 1 1/4SM 20/12 A3009 RMK T02000120 IEM_DS3505
ZHCC,2009-10-06 03:00,ZHCC 060300Z AUTO 07002KT 2SM 24/09 A3009 RMK SLP190 T02380090 54000 IEM_DS3505
ZHCC,2009-10-06 04:00,ZHCC 060400Z AUTO 36004KT 1 1/4SM 24/13 A3009 RMK T02400130 IEM_DS3505
ZHCC,2009-10-06 05:00,ZHCC 060500Z AUTO 06002KT 1SM 26/13 A3006 RMK T02600130 IEM_DS3505
ZHCC,2009-10-06 06:00,ZHCC 060600Z AUTO 09004KT 3SM 27/09 A3003 RMK SLP168 T02740093 57021 IEM_DS3505
ZHCC,2009-10-06 07:00,ZHCC 060700Z AUTO 07004KT 1 1/4SM 27/12 A3003 RMK T02700120 IEM_DS3505
ZHCC,2009-10-06 08:00,ZHCC 060800Z AUTO 06006KT 2 1/2SM 27/09 A3003 RMK T02700090 IEM_DS3505
ZHCC,2009-10-06 09:00,ZHCC 060900Z AUTO 09002KT 3SM 26/07 A3003 RMK SLP165 T02620073 57003 IEM_DS3505
ZHCC,2009-10-06 10:00,ZHCC 061000Z AUTO 05004KT 2SM 24/08 A3003 RMK T02400080 IEM_DS3505
ZHCC,2009-10-06 11:00,ZHCC 061100Z AUTO 06006KT 1 1/2SM 23/08 A3006 RMK T02300080 IEM_DS3505
ZHCC,2009-10-06 12:00,ZHCC 061200Z AUTO 04008KT 3SM 24/07 A3006 RMK SLP182 T02400072 52017 IEM_DS3505
ZHCC,2009-10-06 13:00,ZHCC 061300Z AUTO 04008KT 1 1/4SM 21/10 A3009 RMK T02100100 IEM_DS3505
ZHCC,2009-10-06 14:00,ZHCC 061400Z AUTO 03006KT 1SM 20/10 A3012 RMK T02000100 IEM_DS3505
ZHCC,2009-10-06 15:00,ZHCC 061500Z AUTO 04006KT 3SM 21/09 A3012 RMK SLP199 T02130092 52017 IEM_DS3505
ZHCC,2009-10-06 16:00,ZHCC 061600Z AUTO 01008KT 1SM 19/11 A3012 RMK T01900110 IEM_DS3505
ZHCC,2009-10-06 17:00,ZHCC 061700Z AUTO 36006KT 1SM 19/12 A3012 RMK T01900120 IEM_DS3505
ZHCC,2009-10-06 18:00,ZHCC 061800Z AUTO 04006KT 3SM 20/11 A3012 RMK SLP199 T02050114 52001 IEM_DS3505
ZHCC,2009-10-06 19:00,ZHCC 061900Z AUTO 02010KT 1SM 18/13 A3012 RMK T01800130 IEM_DS3505
ZHCC,2009-10-06 20:00,ZHCC 062000Z AUTO 04010KT 1 1/4SM 18/14 A3009 RMK T01800140 IEM_DS3505
ZHCC,2009-10-06 21:00,ZHCC 062100Z AUTO 36002KT 3SM 19/14 RMK SLP197 T01900136 57003 IEM_DS3505
ZHCC,2009-10-06 22:00,ZHCC 062200Z AUTO 02006KT 1 1/4SM 17/14 A3012 RMK T01700140 IEM_DS3505
ZHCC,2009-10-06 23:00,ZHCC 062300Z AUTO 02008KT 1 1/4SM 17/14 A3012 RMK T01700140 IEM_DS3505
ZHCC,2009-10-07 00:00,ZHCC 070000Z AUTO 04006KT 3SM 18/13 A3015 RMK SLP210 T01800131 52013 IEM_DS3505
ZHCC,2009-10-07 01:00,ZHCC 070100Z AUTO 35010KT 2SM 17/14 A3015 RMK T01700140 IEM_DS3505
ZHCC,2009-10-07 02:00,ZHCC 070200Z AUTO 35010KT 2SM 16/14 A3015 RMK T01600140 IEM_DS3505
ZHCC,2009-10-07 03:00,ZHCC 070300Z AUTO 07004KT 4SM 17/13 A3015 RMK SLP215 T01720133 52004 IEM_DS3505
ZHCC,2009-10-07 04:00,ZHCC 070400Z AUTO 36010KT 1 1/4SM 16/14 A3012 RMK T01600140 IEM_DS3505
ZHCC,2009-10-07 05:00,ZHCC 070500Z AUTO 35008KT 1 1/2SM 16/14 A3009 RMK T01600140 IEM_DS3505
ZHCC,2009-10-07 06:00,ZHCC 070600Z AUTO 02004KT 4SM 18/13 A3006 RMK 60001 SLP190 T01790130 57025 IEM_DS3505
ZHCC,2009-10-07 07:00,ZHCC 070700Z AUTO 34006KT 1 1/2SM 17/13 A3006 RMK T01700130 IEM_DS3505
ZHCC,2009-10-07 08:00,ZHCC 070800Z AUTO 32006KT 1 1/2SM 16/13 A3009 RMK T01600130 IEM_DS3505
ZHCC,2009-10-07 09:00,ZHCC 070900Z AUTO 36004KT 4SM 18/12 A3009 RMK SLP190 T01760125 54000 IEM_DS3505
ZHCC,2009-10-07 10:00,ZHCC 071000Z AUTO 35008KT 2SM 16/12 A3006 RMK T01600120 IEM_DS3505
ZHCC,2009-10-07 11:00,ZHCC 071100Z AUTO 35010KT 2SM 16/12 A3009 RMK T01600120 IEM_DS3505
ZHCC,2009-10-07 12:00,ZHCC 071200Z AUTO 04004KT 4SM 18/12 A3009 RMK 60000 SLP198 T01770119 52007 IEM_DS3505
ZHCC,2009-10-07 13:00,ZHCC 071300Z AUTO 35008KT 2SM 16/12 A3009 RMK T01600120 IEM_DS3505
ZHCC,2009-10-07 14:00,ZHCC 071400Z AUTO 33006KT 2SM 16/11 A3009 RMK T01600110 IEM_DS3505
ZHCC,2009-10-07 15:00,ZHCC 071500Z AUTO 02002KT 4SM 17/11 A3009 RMK SLP194 T01670110 57004 IEM_DS3505
ZHCC,2009-10-07 16:00,ZHCC 071600Z AUTO 32008KT 2SM 15/11 A3009 RMK T01500110 IEM_DS3505
ZHCC,2009-10-07 17:00,ZHCC 071700Z AUTO 33006KT 2SM 15/11 A3009 RMK T01500110 IEM_DS3505
ZHCC,2009-10-07 18:00,ZHCC 071800Z AUTO 34002KT 4SM 16/12 A3006 RMK 60002 SLP186 T01640124 57008 IEM_DS3505
ZHCC,2009-10-07 19:00,ZHCC 071900Z AUTO 33006KT 2SM 15/12 A3006 RMK T01500120 IEM_DS3505
ZHCC,2009-10-07 20:00,ZHCC 072000Z AUTO 33004KT 1 1/2SM 15/12 A3006 RMK T01500120 IEM_DS3505
ZHCC,2009-10-07 21:00,ZHCC 072100Z AUTO 07002KT 4SM 16/13 A3003 RMK 70004 SLP178 T01630127 57008 IEM_DS3505
ZHCC,2009-10-07 22:00,ZHCC 072200Z AUTO 34006KT 2SM 15/11 A3003 RMK T01500110 IEM_DS3505
ZHCC,2009-10-07 23:00,ZHCC 072300Z AUTO 33004KT 2SM 14/11 A3006 RMK T01400110 IEM_DS3505
ZHCC,2009-10-08 00:00,ZHCC 080000Z AUTO 07004KT 4SM 16/10 A3006 RMK 60002 70005 SLP183 T01590100 52005 IEM_DS3505
ZHCC,2009-10-08 01:00,ZHCC 080100Z AUTO 36004KT 2 1/2SM 15/10 A3006 RMK T01500100 IEM_DS3505
ZHCC,2009-10-08 02:00,ZHCC 080200Z AUTO 34002KT 2 1/2SM 16/11 A3006 RMK T01600110 IEM_DS3505
ZHCC,2009-10-08 03:00,ZHCC 080300Z AUTO 11002KT 6SM 17/10 A3006 RMK SLP184 T01680095 52001 IEM_DS3505
ZHCC,2009-10-08 04:00,ZHCC 080400Z AUTO 31004KT 2 1/2SM 16/10 A3006 RMK T01600100 IEM_DS3505
ZHCC,2009-10-08 05:00,ZHCC 080500Z AUTO 36004KT 2SM 16/10 A3003 RMK T01600100 IEM_DS3505
ZHCC,2009-10-08 06:00,ZHCC 080600Z AUTO 11002KT 6SM 18/09 A3000 RMK SLP160 T01840092 57023 IEM_DS3505
ZHCC,2009-10-08 07:00,ZHCC 080700Z AUTO 02004KT 2SM 17/10 A3000 RMK T01700100 IEM_DS3505
ZHCC,2009-10-08 08:00,ZHCC 080800Z AUTO 07004KT 2SM 17/11 A2997 RMK T01700110 IEM_DS3505
ZHCC,2009-10-08 09:00,ZHCC 080900Z AUTO 14002KT 6SM 18/11 A2997 RMK SLP153 T01820106 57007 IEM_DS3505
ZHCC,2009-10-08 10:00,ZHCC 081000Z AUTO 00000KT 1 1/4SM 16/12 A3000 RMK T01600120 IEM_DS3505
ZHCC,2009-10-08 11:00,ZHCC 081100Z AUTO 00000KT 1 1/4SM 16/13 A3000 RMK T01600130 IEM_DS3505
ZHCC,2009-10-08 12:00,ZHCC 081200Z AUTO 16002KT 6SM 17/12 A3000 RMK SLP164 T01720117 52010 IEM_DS3505
ZHCC,2009-10-08 13:00,ZHCC 081300Z AUTO 1 1/4SM 16/13 A3000 RMK T01600130 IEM_DS3505
ZHCC,2009-10-08 14:00,ZHCC 081400Z AUTO 00000KT 1 1/4SM 15/13 A3000 RMK T01500130 IEM_DS3505
ZHCC,2009-10-08 15:00,ZHCC 081500Z AUTO 07002KT 4SM 16/12 A3000 RMK SLP165 T01650121 52001 IEM_DS3505
ZHCC,2009-10-08 16:00,ZHCC 081600Z AUTO 05002KT 1 1/4SM 15/13 A3000 RMK T01500130 IEM_DS3505
ZHCC,2009-10-08 17:00,ZHCC 081700Z AUTO 00000KT 1 1/4SM 16/12 A3000 RMK T01600120 IEM_DS3505
ZHCC,2009-10-08 18:00,ZHCC 081800Z AUTO 00000KT 3SM 16/13 A3000 RMK 60000 SLP164 T01650130 54000 IEM_DS3505
ZHCC,2009-10-08 19:00,ZHCC 081900Z AUTO 01004KT 1 1/4SM 15/12 A3000 RMK T01500120 IEM_DS3505
ZHCC,2009-10-08 20:00,ZHCC 082000Z AUTO 36002KT 1 1/4SM 15/12 A3003 RMK T01500120 IEM_DS3505
ZHCC,2009-10-08 21:00,ZHCC 082100Z AUTO 04002KT 3SM 17/12 A3003 RMK 70002 SLP177 T01690120 52012 IEM_DS3505
ZHCC,2009-10-08 22:00,ZHCC 082200Z AUTO 36004KT 1 1/4SM 15/12 A3006 RMK T01500120 IEM_DS3505
ZHCC,2009-10-08 23:00,ZHCC 082300Z AUTO 35004KT 1SM 15/12 A3006 RMK T01500120 IEM_DS3505
ZHCC,2009-10-09 00:00,ZHCC 090000Z AUTO 04004KT 1SM 16/12 A3009 RMK 60000 70000 SLP194 T01630121 52017 IEM_DS3505
ZHCC,2009-10-09 01:00,ZHCC 090100Z AUTO 35004KT 1SM 15/13 A3009 RMK T01500130 IEM_DS3505
ZHCC,2009-10-09 02:00,ZHCC 090200Z AUTO 02006KT 1SM 16/13 A3012 RMK T01600130 IEM_DS3505
ZHCC,2009-10-09 03:00,ZHCC 090300Z AUTO 07004KT 1 1/4SM 17/13 A3012 RMK SLP203 T01740129 52009 IEM_DS3505
ZHCC,2009-10-09 04:00,ZHCC 090400Z AUTO 36008KT 1SM 18/13 A3009 RMK T01800130 IEM_DS3505
ZHCC,2009-10-09 05:00,ZHCC 090500Z AUTO 36008KT 1SM 19/12 A3009 RMK T01900120 IEM_DS3505
ZHCC,2009-10-09 06:00,ZHCC 090600Z AUTO 02002KT 3SM 19/09 A3006 RMK SLP186 T01920094 57017 IEM_DS3505
ZHCC,2009-10-09 07:00,ZHCC 090700Z AUTO 03006KT 1 1/4SM 19/10 A3006 RMK T01900100 IEM_DS3505
ZHCC,2009-10-09 08:00,ZHCC 090800Z AUTO 03006KT 1 1/4SM 19/11 A3006 RMK T01900110 IEM_DS3505
ZHCC,2009-10-09 09:00,ZHCC 090900Z AUTO 04002KT 3SM 19/11 A3009 RMK SLP186 T01900111 52001 IEM_DS3505
ZHCC,2009-10-09 10:00,ZHCC 091000Z AUTO 32004KT 1SM 18/11 A3009 RMK T01800110 IEM_DS3505
ZHCC,2009-10-09 11:00,ZHCC 091100Z AUTO 32004KT 1 1/4SM 17/12 A3009 RMK T01700120 IEM_DS3505
ZHCC,2009-10-09 12:00,ZHCC 091200Z AUTO 00000KT 3SM 17/13 A3012 RMK SLP202 T01720131 52015 IEM_DS3505
ZHCC,2009-10-09 13:00,ZHCC 091300Z AUTO 35004KT 1SM 17/12 A3012 RMK T01700120 IEM_DS3505
ZHCC,2009-10-09 14:00,ZHCC 091400Z AUTO 35004KT 1SM 17/12 A3012 RMK T01700120 IEM_DS3505
ZHCC,2009-10-09 15:00,ZHCC 091500Z AUTO 04006KT 4SM 18/10 A3015 RMK SLP210 T01810097 52008 IEM_DS3505
ZHCC,2009-10-09 16:00,ZHCC 091600Z AUTO 35006KT 1 1/4SM 16/12 A3015 RMK T01600120 IEM_DS3505
ZHCC,2009-10-09 17:00,ZHCC 091700Z AUTO 36006KT 1 1/4SM 16/11 A3015 RMK T01600110 IEM_DS3505
ZHCC,2009-10-09 18:00,ZHCC 091800Z AUTO 04004KT 4SM 17/10 A3015 RMK SLP216 T01720099 52006 IEM_DS3505
ZHCC,2009-10-09 19:00,ZHCC 091900Z AUTO 35004KT 1SM 15/11 A3015 RMK T01500110 IEM_DS3505
ZHCC,2009-10-09 20:00,ZHCC 092000Z AUTO 35004KT 1SM 15/11 A3018 RMK T01500110 IEM_DS3505
ZHCC,2009-10-09 21:00,ZHCC 092100Z AUTO 04002KT 4SM 16/10 A3018 RMK SLP219 T01620096 52003 IEM_DS3505
ZHCC,2009-10-09 22:00,ZHCC 092200Z AUTO 35004KT 1SM 15/11 A3018 RMK T01500110 IEM_DS3505
ZHCC,2009-10-09 23:00,ZHCC 092300Z AUTO 35006KT 1SM 14/11 A3018 RMK T01400110 IEM_DS3505
ZHCC,2009-10-10 00:00,ZHCC 100000Z AUTO 07002KT 2 1/2SM 16/10 A3021 RMK SLP235 T01600097 52015 IEM_DS3505
ZHCC,2009-10-10 01:00,ZHCC 100100Z AUTO 02006KT 1SM 15/11 A3024 RMK T01500110 IEM_DS3505
ZHCC,2009-10-10 02:00,ZHCC 100200Z AUTO 34006KT 1SM 16/11 A3024 RMK T01600110 IEM_DS3505
ZHCC,2009-10-10 03:00,ZHCC 100300Z AUTO 04002KT 3SM 18/10 A3021 RMK SLP239 T01760102 52005 IEM_DS3505
ZHCC,2009-10-10 04:00,ZHCC 100400Z AUTO 32006KT 1SM 16/11 A3021 RMK T01600110 IEM_DS3505
ZHCC,2009-10-10 05:00,ZHCC 100500Z AUTO 35004KT 1SM 16/11 A3021 RMK T01600110 IEM_DS3505
ZHCC,2009-10-10 06:00,ZHCC 100600Z AUTO 02004KT 3SM 18/10 A3021 RMK SLP229 T01750104 57010 IEM_DS3505
ZHCC,2009-10-10 07:00,ZHCC 100700Z AUTO 34006KT 1SM 17/12 A3018 RMK T01700120 IEM_DS3505
ZHCC,2009-10-10 08:00,ZHCC 100800Z AUTO 32004KT 1SM 17/12 A3018 RMK T01700120 IEM_DS3505
ZHCC,2009-10-10 09:00,ZHCC 100900Z AUTO 36002KT 2SM 18/11 A3018 RMK SLP229 T01760114 57001 IEM_DS3505
ZHCC,2009-10-10 10:00,ZHCC 101000Z AUTO 32004KT 1/2SM 16/13 A3021 RMK T01600130 IEM_DS3505
ZHCC,2009-10-10 11:00,ZHCC 101100Z AUTO 32004KT 1SM 16/13 A3021 RMK T01600130 IEM_DS3505
ZHCC,2009-10-10 12:00,ZHCC 101200Z AUTO 27002KT 2SM 16/13 A3024 RMK 60000 SLP241 T01610130 52012 IEM_DS3505
ZHCC,2009-10-10 13:00,ZHCC 101300Z AUTO 32004KT 1SM 16/13 A3024 RMK T01600130 IEM_DS3505
ZHCC,2009-10-10 14:00,ZHCC 101400Z AUTO 31004KT 1SM 15/13 A3024 RMK T01500130 IEM_DS3505
ZHCC,2009-10-10 15:00,ZHCC 101500Z AUTO 29002KT 2SM 16/13 A3024 RMK SLP242 T01570134 52001 IEM_DS3505
ZHCC,2009-10-10 16:00,ZHCC 101600Z AUTO 31004KT 1SM 15/13 A3024 RMK T01500130 IEM_DS3505
ZHCC,2009-10-10 17:00,ZHCC 101700Z AUTO 31004KT 3/8SM 15/13 A3024 RMK T01500130 IEM_DS3505
ZHCC,2009-10-10 18:00,ZHCC 101800Z AUTO 32004KT 2SM 16/13 A3024 RMK 60000 SLP244 T01550130 52002 IEM_DS3505
ZHCC,2009-10-10 19:00,ZHCC 101900Z AUTO 32004KT 3/8SM 15/13 A3024 RMK T01500130 IEM_DS3505
ZHCC,2009-10-10 20:00,ZHCC 102000Z AUTO 32004KT 1/2SM 15/13 A3021 RMK T01500130 IEM_DS3505
ZHCC,2009-10-10 21:00,ZHCC 102100Z AUTO 25002KT 1SM 15/13 A3024 RMK 70001 SLP243 T01530132 57001 IEM_DS3505
ZHCC,2009-10-10 22:00,ZHCC 102200Z AUTO 31004KT 1/2SM 14/12 A3024 RMK T01400120 IEM_DS3505
ZHCC,2009-10-10 23:00,ZHCC 102300Z AUTO 31004KT 1/2SM 14/13 A3027 RMK T01400130 IEM_DS3505
ZHCC,2009-10-11 00:00,ZHCC 110000Z AUTO 32002KT 1SM 16/13 A3027 RMK 60001 70002 SLP254 T01560129 52011 IEM_DS3505
ZHCC,2009-10-11 01:00,ZHCC 110100Z AUTO 32006KT 1/2SM 15/12 A3027 RMK T01500120 IEM_DS3505
ZHCC,2009-10-11 02:00,ZHCC 110200Z AUTO 33004KT 1/2SM 15/12 A3027 RMK T01500120 IEM_DS3505
ZHCC,2009-10-11 03:00,ZHCC 110300Z AUTO 34002KT 1SM 17/10 A3027 RMK SLP252 T01710102 57002 IEM_DS3505
ZHCC,2009-10-11 04:00,ZHCC 110400Z AUTO 34004KT 1SM 16/12 A3024 RMK T01600120 IEM_DS3505
ZHCC,2009-10-11 05:00,ZHCC 110500Z AUTO 32006KT 1SM 17/12 A3021 RMK T01700120 IEM_DS3505
ZHCC,2009-10-11 06:00,ZHCC 110600Z AUTO 27002KT 1 1/4SM 18/10 A3021 RMK SLP232 T01750104 57020 IEM_DS3505
ZHCC,2009-10-11 07:00,ZHCC 110700Z AUTO 33004KT 1SM 17/11 A3021 RMK T01700110 IEM_DS3505
ZHCC,2009-10-11 08:00,ZHCC 110800Z AUTO 32004KT 1SM 17/11 A3021 RMK T01700110 IEM_DS3505
ZHCC,2009-10-11 09:00,ZHCC 110900Z AUTO 32004KT 2 1/2SM 17/10 A3021 RMK SLP231 T01700104 57001 IEM_DS3505
ZHCC,2009-10-11 10:00,ZHCC 111000Z AUTO 31004KT 1SM 16/12 A3021 RMK T01600120 IEM_DS3505
ZHCC,2009-10-11 11:00,ZHCC 111100Z AUTO 31004KT 1SM 15/11 A3021 RMK T01500110 IEM_DS3505
ZHCC,2009-10-11 12:00,ZHCC 111200Z AUTO 29002KT 2SM 16/13 A3024 RMK 60000 SLP242 T01600131 52011 IEM_DS3505
ZHCC,2009-10-11 13:00,ZHCC 111300Z AUTO 31004KT 1SM 15/13 A3024 RMK T01500130 IEM_DS3505
ZHCC,2009-10-11 14:00,ZHCC 111400Z AUTO 32004KT 1SM 14/12 A3024 RMK T01400120 IEM_DS3505
ZHCC,2009-10-11 15:00,ZHCC 111500Z AUTO 32004KT 2SM 15/12 A3024 RMK SLP245 T01480121 52003 IEM_DS3505
ZHCC,2009-10-11 16:00,ZHCC 111600Z AUTO 32004KT 1SM 14/12 A3024 RMK T01400120 IEM_DS3505
ZHCC,2009-10-11 17:00,ZHCC 111700Z AUTO 31004KT 1SM 13/12 A3024 RMK T01300120 IEM_DS3505
ZHCC,2009-10-11 18:00,ZHCC 111800Z AUTO 00000KT 2SM 14/12 A3024 RMK 60008 SLP242 T01410116 57003 IEM_DS3505
ZHCC,2009-10-11 19:00,ZHCC 111900Z AUTO 31004KT 1/4SM 13/12 A3021 RMK T01300120 IEM_DS3505
ZHCC,2009-10-11 20:00,ZHCC 112000Z AUTO 31002KT 3/8SM 13/12 A3021 RMK T01300120 IEM_DS3505
ZHCC,2009-10-11 21:00,ZHCC 112100Z AUTO 25002KT 2SM 14/12 A3018 RMK 70009 SLP225 T01370118 57017 IEM_DS3505
ZHCC,2009-10-11 22:00,ZHCC 112200Z AUTO 26004KT 3/8SM 13/12 A3021 RMK T01300120 IEM_DS3505
ZHCC,2009-10-11 23:00,ZHCC 112300Z AUTO 27004KT 3/8SM 13/12 A3021 RMK T01300120 IEM_DS3505
ZHCC,2009-10-12 00:00,ZHCC 120000Z AUTO 27004KT 1 1/4SM 14/12 A3021 RMK 60002 70009 SLP237 T01420121 52012 IEM_DS3505
ZHCC,2009-10-12 01:00,ZHCC 120100Z AUTO 00000KT 1/2SM 14/13 A3021 RMK T01400130 IEM_DS3505
ZHCC,2009-10-12 02:00,ZHCC 120200Z AUTO 24002KT 1SM 15/14 A3021 RMK T01500140 IEM_DS3505
ZHCC,2009-10-12 03:00,ZHCC 120300Z AUTO 32004KT 2 1/2SM 17/14 A3018 RMK SLP229 T01740135 57008 IEM_DS3505
ZHCC,2009-10-12 04:00,ZHCC 120400Z AUTO 22002KT 1 1/4SM 17/15 A3018 RMK T01700150 IEM_DS3505
ZHCC,2009-10-12 05:00,ZHCC 120500Z AUTO 20004KT 1 1/4SM 18/13 A3015 RMK T01800130 IEM_DS3505
ZHCC,2009-10-12 06:00,ZHCC 120600Z AUTO 20004KT 4SM 20/13 A3012 RMK SLP198 T02010126 57030 IEM_DS3505
ZHCC,2009-10-12 07:00,ZHCC 120700Z AUTO 20004KT 1SM 19/12 A3012 RMK T01900120 IEM_DS3505
ZHCC,2009-10-12 08:00,ZHCC 120800Z AUTO 21004KT 1SM 19/12 A3009 RMK T01900120 IEM_DS3505
ZHCC,2009-10-12 09:00,ZHCC 120900Z AUTO 20002KT 3SM 20/13 A3009 RMK SLP193 T01980130 57005 IEM_DS3505
ZHCC,2009-10-12 10:00,ZHCC 121000Z AUTO 1SM 17/12 A3012 RMK T01700120 IEM_DS3505
ZHCC,2009-10-12 11:00,ZHCC 121100Z AUTO 1SM 16/13 A3012 RMK T01600130 IEM_DS3505
ZHCC,2009-10-12 12:00,ZHCC 121200Z AUTO 04002KT 2SM 16/14 A3012 RMK SLP204 T01610136 52010 IEM_DS3505
ZHCC,2009-10-12 13:00,ZHCC 121300Z AUTO 1SM 15/13 A3012 RMK T01500130 IEM_DS3505
ZHCC,2009-10-12 14:00,ZHCC 121400Z AUTO 00000KT 1SM 15/12 A3015 RMK T01500120 IEM_DS3505
ZHCC,2009-10-12 15:00,ZHCC 121500Z AUTO 00000KT 2SM 14/13 A3015 RMK SLP208 T01440130 52004 IEM_DS3505
ZHCC,2009-10-12 16:00,ZHCC 121600Z AUTO 21002KT 1/2SM 14/12 A3012 RMK T01400120 IEM_DS3505
ZHCC,2009-10-12 17:00,ZHCC 121700Z AUTO 24004KT 3/8SM 14/13 A3012 RMK T01400130 IEM_DS3505
ZHCC,2009-10-12 18:00,ZHCC 121800Z AUTO 25002KT 2SM 15/13 A3012 RMK SLP202 T01510126 57005 IEM_DS3505
ZHCC,2009-10-12 19:00,ZHCC 121900Z AUTO 25002KT 3/8SM 14/13 A3012 RMK T01400130 IEM_DS3505
ZHCC,2009-10-12 20:00,ZHCC 122000Z AUTO 25004KT 1SM 14/13 A3012 RMK T01400130 IEM_DS3505
ZHCC,2009-10-12 21:00,ZHCC 122100Z AUTO 25004KT 2 1/2SM 16/12 A3012 RMK 70000 SLP198 T01640116 57004 IEM_DS3505
ZHCC,2009-10-12 22:00,ZHCC 122200Z AUTO 27004KT 1SM 13/11 A3012 RMK T01300110 IEM_DS3505
ZHCC,2009-10-12 23:00,ZHCC 122300Z AUTO 29008KT 1 1/4SM 13/12 A3012 RMK T01300120 IEM_DS3505
ZHCC,2009-10-13 00:00,ZHCC 130000Z AUTO 27008KT 2 1/2SM 18/11 A3015 RMK SLP220 T01780114 52022 IEM_DS3505
ZHCC,2009-10-13 01:00,ZHCC 130100Z AUTO 30010KT 4SM 20/13 A3018 RMK T02000130 IEM_DS3505
ZHCC,2009-10-13 02:00,ZHCC 130200Z AUTO 34012KT 4SM 20/12 A3021 RMK T02000120 IEM_DS3505
ZHCC,2009-10-13 03:00,ZHCC 130300Z AUTO 07006KT 6SM 21/10 A3021 RMK SLP234 T02140096 52014 IEM_DS3505
ZHCC,2009-10-13 04:00,ZHCC 130400Z AUTO 34012G21KT 4SM 21/09 A3021 RMK T02100090 IEM_DS3505
ZHCC,2009-10-13 05:00,ZHCC 130500Z AUTO 01008KT 4SM 22/09 A3018 RMK T02200090 IEM_DS3505
ZHCC,2009-10-13 06:00,ZHCC 130600Z AUTO 09004KT 6SM 24/10 A3015 RMK SLP207 T02360100 57026 IEM_DS3505
ZHCC,2009-10-13 07:00,ZHCC 130700Z AUTO 01004KT 5SM 22/09 A3015 RMK T02200090 IEM_DS3505
ZHCC,2009-10-13 08:00,ZHCC 130800Z AUTO 05006KT 5SM 22/08 A3015 RMK T02200080 IEM_DS3505
ZHCC,2009-10-13 09:00,ZHCC 130900Z AUTO 07004KT 7SM 22/07 A3015 RMK SLP209 T02220068 52002 IEM_DS3505
ZHCC,2009-10-13 10:00,ZHCC 131000Z AUTO 10004KT 5SM 18/09 A3018 RMK T01800090 IEM_DS3505
ZHCC,2009-10-13 11:00,ZHCC 131100Z AUTO 09010KT 5SM 18/07 A3018 RMK T01800070 IEM_DS3505
ZHCC,2009-10-13 12:00,ZHCC 131200Z AUTO 07002KT 6SM 16/10 A3021 RMK SLP233 T01560099 52022 IEM_DS3505
ZHCC,2009-10-13 13:00,ZHCC 131300Z AUTO 08002KT 4SM 14/08 A3024 RMK T01400080 IEM_DS3505
ZHCC,2009-10-13 14:00,ZHCC 131400Z AUTO 11002KT 4SM 14/07 A3024 RMK T01400070 IEM_DS3505
ZHCC,2009-10-13 15:00,ZHCC 131500Z AUTO 00000KT 5SM 12/10 A3027 RMK SLP251 T01250097 52018 IEM_DS3505
ZHCC,2009-10-13 16:00,ZHCC 131600Z AUTO 23002KT 3SM 12/06 A3027 RMK T01200060 IEM_DS3505
ZHCC,2009-10-13 17:00,ZHCC 131700Z AUTO 00000KT 3SM 10/06 A3027 RMK T01000060 IEM_DS3505
ZHCC,2009-10-13 18:00,ZHCC 131800Z AUTO 20002KT 4SM 11/08 A3027 RMK SLP250 T01070083 57001 IEM_DS3505
ZHCC,2009-10-13 19:00,ZHCC 131900Z AUTO 00000KT 09/06 A3024 RMK T00900060 IEM_DS3505
ZHCC,2009-10-13 20:00,ZHCC 132000Z AUTO 29002KT 2SM 09/07 A3024 RMK T00900070 IEM_DS3505
ZHCC,2009-10-13 21:00,ZHCC 132100Z AUTO 18002KT 3SM 09/07 A3024 RMK SLP244 T00910074 57006 IEM_DS3505
ZHCC,2009-10-13 22:00,ZHCC 132200Z AUTO 00000KT 2SM 08/08 A3024 RMK T00800080 IEM_DS3505
ZHCC,2009-10-13 23:00,ZHCC 132300Z AUTO 00000KT 1 1/4SM 09/07 A3024 RMK T00900070 IEM_DS3505
ZHCC,2009-10-14 00:00,ZHCC 140000Z AUTO 00000KT 4SM 12/10 A3027 RMK SLP255 T01240098 52010 IEM_DS3505
ZHCC,2009-10-14 01:00,ZHCC 140100Z AUTO 2SM 15/12 A3027 RMK T01500120 IEM_DS3505
ZHCC,2009-10-14 02:00,ZHCC 140200Z AUTO 22004KT 2 1/2SM 18/06 A3027 RMK T01800060 IEM_DS3505
ZHCC,2009-10-14 03:00,ZHCC 140300Z AUTO 20002KT 5SM 20/06 A3024 RMK SLP246 T02050061 57008 IEM_DS3505
ZHCC,2009-10-14 04:00,ZHCC 140400Z AUTO 20008KT 2 1/2SM 21/03 A3021 RMK T02100030 IEM_DS3505
ZHCC,2009-10-14 05:00,ZHCC 140500Z AUTO 19004KT 2 1/2SM 22/04 A3018 RMK T02200040 IEM_DS3505
ZHCC,2009-10-14 06:00,ZHCC 140600Z AUTO 34002KT 5SM 23/05 A3015 RMK SLP209 T02310051 57036 IEM_DS3505
ZHCC,2009-10-14 07:00,ZHCC 140700Z AUTO 3SM 23/04 A3015 RMK T02300040 IEM_DS3505
ZHCC,2009-10-14 08:00,ZHCC 140800Z AUTO 19004KT 2 1/2SM 22/06 A3012 RMK T02200060 IEM_DS3505
ZHCC,2009-10-14 09:00,ZHCC 140900Z AUTO 29002KT 4SM 22/09 A3012 RMK SLP199 T02230088 57011 IEM_DS3505
ZHCC,2009-10-14 10:00,ZHCC 141000Z AUTO 2SM 19/06 A3012 RMK T01900060 IEM_DS3505
ZHCC,2009-10-14 11:00,ZHCC 141100Z AUTO 2SM 16/07 A3012 RMK T01600070 IEM_DS3505
ZHCC,2009-10-14 12:00,ZHCC 141200Z AUTO 18004KT 3SM 17/07 A3012 RMK SLP206 T01740072 52007 IEM_DS3505
ZHCC,2009-10-14 13:00,ZHCC 141300Z AUTO 1 1/4SM 14/09 A3015 RMK T01400090 IEM_DS3505
ZHCC,2009-10-14 14:00,ZHCC 141400Z AUTO 1 1/4SM 12/08 A3015 RMK T01200080 IEM_DS3505
ZHCC,2009-10-14 15:00,ZHCC 141500Z AUTO 00000KT 4SM 13/08 A3012 RMK SLP204 T01270082 57001 IEM_DS3505
ZHCC,2009-10-14 16:00,ZHCC 141600Z AUTO 19004KT 1 1/4SM 15/07 A3012 RMK T01500070 IEM_DS3505
ZHCC,2009-10-14 17:00,ZHCC 141700Z AUTO 1 1/4SM 13/07 A3012 RMK T01300070 IEM_DS3505
ZHCC,2009-10-14 18:00,ZHCC 141800Z AUTO 22002KT 4SM 11/08 A3012 RMK SLP200 T01060082 57004 IEM_DS3505
ZHCC,2009-10-14 19:00,ZHCC 141900Z AUTO 24002KT 1SM 10/07 A3009 RMK T01000070 IEM_DS3505
ZHCC,2009-10-14 20:00,ZHCC 142000Z AUTO 00000KT 1SM 09/06 A3009 RMK T00900060 IEM_DS3505
ZHCC,2009-10-14 21:00,ZHCC 142100Z AUTO 25002KT 4SM 09/07 A3009 RMK SLP193 T00940070 57008 IEM_DS3505
ZHCC,2009-10-14 22:00,ZHCC 142200Z AUTO 00000KT 1SM 08/06 A3009 RMK T00800060 IEM_DS3505
ZHCC,2009-10-14 23:00,ZHCC 142300Z AUTO 00000KT 1SM 08/06 A3009 RMK T00800060 IEM_DS3505
ZHCC,2009-10-15 00:00,ZHCC 150000Z AUTO 00000KT 3SM 13/09 A3012 RMK SLP199 T01300091 52006 IEM_DS3505
ZHCC,2009-10-15 01:00,ZHCC 150100Z AUTO 1 1/4SM 16/14 A3012 RMK T01600140 IEM_DS3505
ZHCC,2009-10-15 02:00,ZHCC 150200Z AUTO 22004KT 1 1/2SM 20/11 A3009 RMK T02000110 IEM_DS3505
ZHCC,2009-10-15 03:00,ZHCC 150300Z AUTO 27002KT 4SM 23/07 A3009 RMK SLP185 T02330070 57012 IEM_DS3505
ZHCC,2009-10-15 04:00,ZHCC 150400Z AUTO 2 1/2SM 24/08 A3006 RMK T02400080 IEM_DS3505
ZHCC,2009-10-15 05:00,ZHCC 150500Z AUTO 16004KT 2 1/2SM 25/07 A3003 RMK T02500070 IEM_DS3505
ZHCC,2009-10-15 06:00,ZHCC 150600Z AUTO 16004KT 6SM 27/02 A3000 RMK SLP155 T02720023 57030 IEM_DS3505
ZHCC,2009-10-15 07:00,ZHCC 150700Z AUTO 17002KT 4SM 26/05 A3000 RMK T02600050 IEM_DS3505
ZHCC,2009-10-15 08:00,ZHCC 150800Z AUTO 20004KT 4SM 26/05 A2997 RMK T02600050 IEM_DS3505
ZHCC,2009-10-15 09:00,ZHCC 150900Z AUTO 14004KT 8SM 26/02 A2997 RMK SLP145 T02570024 57010 IEM_DS3505
ZHCC,2009-10-15 10:00,ZHCC 151000Z AUTO 18002KT 2SM 20/08 A2997 RMK T02000080 IEM_DS3505
ZHCC,2009-10-15 11:00,ZHCC 151100Z AUTO 18002KT 1 1/4SM 20/08 A3000 RMK T02000080 IEM_DS3505
ZHCC,2009-10-15 12:00,ZHCC 151200Z AUTO 00000KT 6SM 17/10 A3000 RMK SLP159 T01740098 52013 IEM_DS3505
ZHCC,2009-10-15 13:00,ZHCC 151300Z AUTO 1 1/2SM 16/11 A3000 RMK T01600110 IEM_DS3505
ZHCC,2009-10-15 14:00,ZHCC 151400Z AUTO 24002KT 1 1/4SM 16/10 A3000 RMK T01600100 IEM_DS3505
ZHCC,2009-10-15 15:00,ZHCC 151500Z AUTO 27004KT 4SM 19/09 A3000 RMK SLP162 T01910093 52005 IEM_DS3505
ZHCC,2009-10-15 16:00,ZHCC 151600Z AUTO 27004KT 1 1/2SM 17/11 A3000 RMK T01700110 IEM_DS3505
ZHCC,2009-10-15 18:00,ZHCC 151800Z AUTO 25002KT 4SM 16/09 RMK SLP145 T01630090 57016 IEM_DS3505
ZHCC,2009-10-15 19:00,ZHCC 151900Z AUTO 26004KT 1 1/2SM 16/10 A2994 RMK T01600100 IEM_DS3505
ZHCC,2009-10-15 20:00,ZHCC 152000Z AUTO 25006KT 1 1/2SM 17/10 A2994 RMK T01700100 IEM_DS3505
ZHCC,2009-10-15 21:00,ZHCC 152100Z AUTO 25002KT 6SM 17/09 A2991 RMK SLP130 T01720089 57015 IEM_DS3505
ZHCC,2009-10-15 22:00,ZHCC 152200Z AUTO 27006KT 2SM 15/10 A2991 RMK T01500100 IEM_DS3505
ZHCC,2009-10-15 23:00,ZHCC 152300Z AUTO 29008KT 1 1/2SM 16/10 A2991 RMK T01600100 IEM_DS3505
ZHCC,2009-10-16 00:00,ZHCC 160000Z AUTO 27004KT 7SM 20/10 A2994 RMK SLP141 T01950097 52009 IEM_DS3505
ZHCC,2009-10-16 01:00,ZHCC 160100Z AUTO 24010KT 2 1/2SM 22/10 A2994 RMK T02200100 IEM_DS3505
ZHCC,2009-10-16 02:00,ZHCC 160200Z AUTO 24008KT 2 1/2SM 23/09 A2991 RMK T02300090 IEM_DS3505
ZHCC,2009-10-16 03:00,ZHCC 160300Z AUTO 29016G31KT 6SM 26/02 A2988 RMK SLP119 T02570024 57020 IEM_DS3505
ZHCC,2009-10-16 04:00,ZHCC 160400Z AUTO 26023G33KT 2 1/2SM 26/04 A2985 RMK T02600040 IEM_DS3505
ZHCC,2009-10-16 05:00,ZHCC 160500Z AUTO 26029G45KT 3SM 27/M01 A2983 RMK T02701010 IEM_DS3505
ZHCC,2009-10-16 06:00,ZHCC 160600Z AUTO 27016G39KT 6SM 27/M04 A2983 RMK SLP102 T02701037 57017 IEM_DS3505
ZHCC,2009-10-16 07:00,ZHCC 160700Z AUTO 25021G33KT 4SM 26/M01 A2985 RMK T02601010 IEM_DS3505
ZHCC,2009-10-16 08:00,ZHCC 160800Z AUTO 28021G31KT 4SM 25/M02 A2985 RMK T02501020 IEM_DS3505
ZHCC,2009-10-16 09:00,ZHCC 160900Z AUTO 29010G25KT 6SM 24/M06 A2988 RMK SLP114 T02451057 52012 IEM_DS3505
ZHCC,2009-10-16 10:00,ZHCC 161000Z AUTO 28014KT 4SM 22/M03 A2991 RMK T02201030 IEM_DS3505
ZHCC,2009-10-16 11:00,ZHCC 161100Z AUTO 27008KT 4SM 19/M01 A2991 RMK T01901010 IEM_DS3505
ZHCC,2009-10-16 12:00,ZHCC 161200Z AUTO 32010KT 8SM 22/M07 A2994 RMK SLP145 T02181069 52030 IEM_DS3505
ZHCC,2009-10-16 13:00,ZHCC 161300Z AUTO 28016G25KT 5SM 19/M03 A2997 RMK T01901030 IEM_DS3505
ZHCC,2009-10-16 14:00,ZHCC 161400Z AUTO 30012KT 5SM 19/M05 A2997 RMK T01901050 IEM_DS3505
ZHCC,2009-10-16 15:00,ZHCC 161500Z AUTO 29010KT 11SM 20/M07 A2997 RMK SLP149 T02001074 52005 IEM_DS3505
ZHCC,2009-10-16 16:00,ZHCC 161600Z AUTO 33008KT 5SM 17/M05 A2997 RMK T01701050 IEM_DS3505
ZHCC,2009-10-16 17:00,ZHCC 161700Z AUTO 27016KT 5SM 17/M05 A2994 RMK T01701050 IEM_DS3505
ZHCC,2009-10-16 18:00,ZHCC 161800Z AUTO 29006KT 11SM 18/M06 A2997 RMK SLP149 T01791060 54000 IEM_DS3505
ZHCC,2009-10-16 19:00,ZHCC 161900Z AUTO 28004KT 13/M03 A2997 RMK T01301030 IEM_DS3505
ZHCC,2009-10-16 20:00,ZHCC 162000Z AUTO 35002KT 6SM 08/M01 A2997 RMK T00801010 IEM_DS3505
ZHCC,2009-10-16 21:00,ZHCC 162100Z AUTO 20002KT 8SM 11/M00 A2997 RMK SLP151 T01111004 54000 IEM_DS3505
ZHCC,2009-10-16 22:00,ZHCC 162200Z AUTO 24004KT 6SM 08/01 A2997 RMK T00800010 IEM_DS3505
ZHCC,2009-10-16 23:00,ZHCC 162300Z AUTO 26004KT 6SM 07/02 A2997 RMK T00700020 IEM_DS3505
ZHCC,2009-10-17 00:00,ZHCC 170000Z AUTO 22004KT 7SM 15/01 A3000 RMK SLP160 T01520010 52009 IEM_DS3505
ZHCC,2009-10-17 01:00,ZHCC 170100Z AUTO 27004KT 4SM 17/02 A3000 RMK T01700020 IEM_DS3505
ZHCC,2009-10-17 02:00,ZHCC 170200Z AUTO 25006KT 6SM 20/00 A3000 RMK T02000000 IEM_DS3505
ZHCC,2009-10-17 03:00,ZHCC 170300Z AUTO 29006KT 9SM 22/M00 A2997 RMK SLP146 T02151005 57013 IEM_DS3505
ZHCC,2009-10-17 04:00,ZHCC 170400Z AUTO 25006KT 6SM 24/00 A2994 RMK T02400000 IEM_DS3505
ZHCC,2009-10-17 05:00,ZHCC 170500Z AUTO 19004KT 6SM 24/00 A2988 RMK T02400000 IEM_DS3505
ZHCC,2009-10-17 06:00,ZHCC 170600Z AUTO 29006KT 11SM 25/M04 A2985 RMK SLP101 T02541040 57044 IEM_DS3505
ZHCC,2009-10-17 07:00,ZHCC 170700Z AUTO 25008KT 6SM 25/M02 A2983 RMK T02501020 IEM_DS3505
ZHCC,2009-10-17 08:00,ZHCC 170800Z AUTO 23008KT 6SM 26/M02 A2980 RMK T02601020 IEM_DS3505
ZHCC,2009-10-17 09:00,ZHCC 170900Z AUTO 25004KT 10SM 25/M04 A2980 RMK SLP086 T02491035 57016 IEM_DS3505
ZHCC,2009-10-17 10:00,ZHCC 171000Z AUTO 17002KT 4SM 19/05 A2983 RMK T01900050 IEM_DS3505
ZHCC,2009-10-17 11:00,ZHCC 171100Z AUTO 17004KT 4SM 16/05 A2983 RMK T01600050 IEM_DS3505
ZHCC,2009-10-17 12:00,ZHCC 171200Z AUTO 22002KT 9SM 16/05 A2983 RMK SLP101 T01550054 52013 IEM_DS3505
ZHCC,2009-10-17 13:00,ZHCC 171300Z AUTO 20004KT 3SM 16/07 A2983 RMK T01600070 IEM_DS3505
ZHCC,2009-10-17 14:00,ZHCC 171400Z AUTO 22004KT 4SM 17/05 A2983 RMK T01700050 IEM_DS3505
ZHCC,2009-10-17 15:00,ZHCC 171500Z AUTO 27002KT 6SM 15/05 A2983 RMK SLP101 T01500052 52002 IEM_DS3505
ZHCC,2009-10-17 16:00,ZHCC 171600Z AUTO 19006KT 4SM 16/06 A2983 RMK T01600060 IEM_DS3505
ZHCC,2009-10-17 17:00,ZHCC 171700Z AUTO 18002KT 4SM 12/06 A2983 RMK T01200060 IEM_DS3505
ZHCC,2009-10-17 18:00,ZHCC 171800Z AUTO 22004KT 6SM 13/06 A2983 RMK SLP098 T01320056 57003 IEM_DS3505
ZHCC,2009-10-17 19:00,ZHCC 171900Z AUTO 16006KT 1 1/2SM 13/07 A2980 RMK T01300070 IEM_DS3505
ZHCC,2009-10-17 20:00,ZHCC 172000Z AUTO 23002KT 1 1/4SM 11/06 A2980 RMK T01100060 IEM_DS3505
ZHCC,2009-10-17 21:00,ZHCC 172100Z AUTO 29004KT 6SM 14/06 A2980 RMK SLP093 T01430057 57005 IEM_DS3505
ZHCC,2009-10-17 22:00,ZHCC 172200Z AUTO 27004KT 4SM 12/09 A2983 RMK T01200090 IEM_DS3505
ZHCC,2009-10-18 00:00,ZHCC 180000Z AUTO 22004KT 5SM 17/07 A2985 RMK SLP110 T01720067 52016 IEM_DS3505
ZHCC,2009-10-18 01:00,ZHCC 180100Z AUTO 26008KT 3SM 19/09 A2985 RMK T01900090 IEM_DS3505
ZHCC,2009-10-18 02:00,ZHCC 180200Z AUTO 25012KT 4SM 21/06 A2988 RMK T02100060 IEM_DS3505
ZHCC,2009-10-18 03:00,ZHCC 180300Z AUTO 27012KT 6SM 23/02 A2988 RMK SLP110 T02280018 52001 IEM_DS3505
ZHCC,2009-10-18 04:00,ZHCC 180400Z AUTO 24014KT 4SM 23/04 A2985 RMK T02300040 IEM_DS3505
ZHCC,2009-10-18 05:00,ZHCC 180500Z AUTO 24014KT 4SM 24/04 A2980 RMK T02400040 IEM_DS3505
ZHCC,2009-10-18 06:00,ZHCC 180600Z AUTO 27010KT 6SM 25/01 A2977 RMK SLP082 T02510013 57028 IEM_DS3505
ZHCC,2009-10-18 07:00,ZHCC 180700Z AUTO 24012KT 3SM 24/03 A2977 RMK T02400030 IEM_DS3505
ZHCC,2009-10-18 08:00,ZHCC 180800Z AUTO 25014KT 3SM 25/02 A2977 RMK T02500020 IEM_DS3505
ZHCC,2009-10-18 09:00,ZHCC 180900Z AUTO 27006KT 6SM 24/01 A2977 RMK SLP078 T02430006 57003 IEM_DS3505
ZHCC,2009-10-18 10:00,ZHCC 181000Z AUTO 22006KT 3SM 22/02 A2980 RMK T02200020 IEM_DS3505
ZHCC,2009-10-18 11:00,ZHCC 181100Z AUTO 25006KT 3SM 19/03 A2983 RMK T01900030 IEM_DS3505
ZHCC,2009-10-18 12:00,ZHCC 181200Z AUTO 29010KT 6SM 23/M06 A2985 RMK SLP107 T02261062 52028 IEM_DS3505
ZHCC,2009-10-18 13:00,ZHCC 181300Z AUTO 28010KT 3SM 20/M02 A2988 RMK T02001020 IEM_DS3505
ZHCC,2009-10-18 14:00,ZHCC 181400Z AUTO 27012KT 3SM 19/M03 A2991 RMK T01901030 IEM_DS3505
ZHCC,2009-10-18 15:00,ZHCC 181500Z AUTO 29008G29KT 7SM 20/M07 A2994 RMK SLP137 T02041071 52031 IEM_DS3505
ZHCC,2009-10-18 16:00,ZHCC 181600Z AUTO 27012KT 4SM 18/M05 A2994 RMK T01801050 IEM_DS3505
ZHCC,2009-10-18 17:00,ZHCC 181700Z AUTO 28008KT 4SM 17/M05 A2994 RMK T01701050 IEM_DS3505
ZHCC,2009-10-18 18:00,ZHCC 181800Z AUTO 34004KT 9SM 18/M07 A2997 RMK SLP146 T01771069 52009 IEM_DS3505
ZHCC,2009-10-18 19:00,ZHCC 181900Z AUTO 19004KT A3000 RMK IEM_DS3505
ZHCC,2009-10-18 20:00,ZHCC 182000Z AUTO 31002KT 09/00 A3000 RMK T00900000 IEM_DS3505
ZHCC,2009-10-18 21:00,ZHCC 182100Z AUTO 22002KT 6SM 11/01 A3000 RMK SLP164 T01100010 52016 IEM_DS3505
ZHCC,2009-10-18 22:00,ZHCC 182200Z AUTO 12002KT 3SM 10/01 A3003 RMK T01000010 IEM_DS3505
ZHCC,2009-10-18 23:00,ZHCC 182300Z AUTO 00000KT 4SM 08/01 A3006 RMK T00800010 IEM_DS3505
ZHCC,2009-10-19 00:00,ZHCC 190000Z AUTO 22002KT 6SM 12/03 A3006 RMK SLP186 T01180031 52021 IEM_DS3505
ZHCC,2009-10-19 01:00,ZHCC 190100Z AUTO 13002KT 4SM 15/00 A3009 RMK T01500000 IEM_DS3505
ZHCC,2009-10-19 02:00,ZHCC 190200Z AUTO 4SM 17/00 A3009 RMK T01700000 IEM_DS3505
ZHCC,2009-10-19 03:00,ZHCC 190300Z AUTO 32004KT 7SM 19/M03 A3006 RMK SLP184 T01891027 57001 IEM_DS3505
ZHCC,2009-10-19 04:00,ZHCC 190400Z AUTO 23004KT 4SM 19/M01 A3006 RMK T01901010 IEM_DS3505
ZHCC,2009-10-19 05:00,ZHCC 190500Z AUTO 22004KT 4SM 19/00 A3003 RMK T01900000 IEM_DS3505
ZHCC,2009-10-19 06:00,ZHCC 190600Z AUTO 16006KT 7SM 21/M02 A3000 RMK SLP156 T02091016 57027 IEM_DS3505
ZHCC,2009-10-19 07:00,ZHCC 190700Z AUTO 4SM 19/00 A2997 RMK T01900000 IEM_DS3505
ZHCC,2009-10-19 08:00,ZHCC 190800Z AUTO 19004KT 4SM 19/01 A2997 RMK T01900010 IEM_DS3505
ZHCC,2009-10-19 09:00,ZHCC 190900Z AUTO 18004KT 7SM 20/00 A2997 RMK SLP147 T02030002 57011 IEM_DS3505
ZHCC,2009-10-19 10:00,ZHCC 191000Z AUTO 3SM 17/02 A2997 RMK T01700020 IEM_DS3505
ZHCC,2009-10-19 11:00,ZHCC 191100Z AUTO 3SM 17/02 A3000 RMK T01700020 IEM_DS3505
ZHCC,2009-10-19 12:00,ZHCC 191200Z AUTO 18002KT 7SM 17/02 A3000 RMK SLP157 T01670016 52009 IEM_DS3505
ZHCC,2009-10-19 13:00,ZHCC 191300Z AUTO 18004KT 3SM 15/02 A3000 RMK T01500020 IEM_DS3505
ZHCC,2009-10-19 14:00,ZHCC 191400Z AUTO 17004KT 3SM 14/02 A3000 RMK T01400020 IEM_DS3505
ZHCC,2009-10-19 15:00,ZHCC 191500Z AUTO 09002KT 6SM 13/04 A3000 RMK SLP165 T01340043 52009 IEM_DS3505
ZHCC,2009-10-19 16:00,ZHCC 191600Z AUTO 20004KT 3SM 14/03 A3000 RMK T01400030 IEM_DS3505
ZHCC,2009-10-19 17:00,ZHCC 191700Z AUTO 20004KT 3SM 14/03 A3000 RMK T01400030 IEM_DS3505
ZHCC,2009-10-19 18:00,ZHCC 191800Z AUTO 16002KT 6SM 11/05 A3000 RMK SLP160 T01100047 57005 IEM_DS3505
ZHCC,2009-10-19 19:00,ZHCC 191900Z AUTO 20004KT 12/04 A3000 RMK T01200040 IEM_DS3505
ZHCC,2009-10-19 20:00,ZHCC 192000Z AUTO 22004KT 12/04 A2997 RMK T01200040 IEM_DS3505
ZHCC,2009-10-19 21:00,ZHCC 192100Z AUTO 36002KT 4SM 10/06 A3000 RMK SLP159 T00970059 57001 IEM_DS3505
ZHCC,2009-10-19 22:00,ZHCC 192200Z AUTO 2SM 09/04 A3000 RMK T00900040 IEM_DS3505
ZHCC,2009-10-19 23:00,ZHCC 192300Z AUTO 2SM 11/06 A3000 RMK T01100060 IEM_DS3505
ZHCC,2009-10-20 00:00,ZHCC 200000Z AUTO 00000KT 3SM 13/08 A3000 RMK SLP168 T01300079 52008 IEM_DS3505
ZHCC,2009-10-20 01:00,ZHCC 200100Z AUTO 23004KT 2SM 18/08 A3003 RMK T01800080 IEM_DS3505
ZHCC,2009-10-20 02:00,ZHCC 200200Z AUTO 25006KT 3SM 21/07 A3003 RMK T02100070 IEM_DS3505
ZHCC,2009-10-20 03:00,ZHCC 200300Z AUTO 25004KT 4SM 23/07 A3000 RMK SLP160 T02310068 57006 IEM_DS3505
ZHCC,2009-10-20 04:00,ZHCC 200400Z AUTO 24008KT 5SM 26/05 A3000 RMK T02600050 IEM_DS3505
ZHCC,2009-10-20 05:00,ZHCC 200500Z AUTO 24010KT 5SM 27/04 A2997 RMK T02700040 IEM_DS3505
ZHCC,2009-10-20 06:00,ZHCC 200600Z AUTO 27008KT 7SM 27/M01 A2994 RMK SLP135 T02741006 57024 IEM_DS3505
ZHCC,2009-10-20 07:00,ZHCC 200700Z AUTO 24012KT 5SM 27/00 A2994 RMK T02700000 IEM_DS3505
ZHCC,2009-10-20 08:00,ZHCC 200800Z AUTO 23008KT 5SM 27/02 A2994 RMK T02700020 IEM_DS3505
ZHCC,2009-10-20 09:00,ZHCC 200900Z AUTO 25004KT 8SM 26/00 A2994 RMK SLP144 T02550002 52008 IEM_DS3505
ZHCC,2009-10-20 10:00,ZHCC 201000Z AUTO 24004KT 2SM 21/05 A2997 RMK T02100050 IEM_DS3505
ZHCC,2009-10-20 11:00,ZHCC 201100Z AUTO 22006KT 2 1/2SM 21/03 A3000 RMK T02100030 IEM_DS3505
ZHCC,2009-10-20 12:00,ZHCC 201200Z AUTO 25004KT 8SM 20/02 A3000 RMK SLP165 T02030022 52020 IEM_DS3505
ZHCC,2009-10-20 13:00,ZHCC 201300Z AUTO 22006KT 2 1/2SM 19/04 A3003 RMK T01900040 IEM_DS3505
ZHCC,2009-10-20 14:00,ZHCC 201400Z AUTO 23006KT 2 1/2SM 17/05 A3006 RMK T01700050 IEM_DS3505
ZHCC,2009-10-20 15:00,ZHCC 201500Z AUTO 27004KT 7SM 18/03 A3006 RMK SLP183 T01820029 52020 IEM_DS3505
ZHCC,2009-10-20 16:00,ZHCC 201600Z AUTO 26008KT 2 1/2SM 17/03 A3006 RMK T01700030 IEM_DS3505
ZHCC,2009-10-20 17:00,ZHCC 201700Z AUTO 26006KT 2 1/2SM 18/03 A3006 RMK T01800030 IEM_DS3505
ZHCC,2009-10-20 18:00,ZHCC 201800Z AUTO 27004KT 7SM 17/03 A3009 RMK SLP193 T01700033 52010 IEM_DS3505
ZHCC,2009-10-20 19:00,ZHCC 201900Z AUTO 26008KT 2 1/2SM 17/02 A3009 RMK T01700020 IEM_DS3505
ZHCC,2009-10-20 20:00,ZHCC 202000Z AUTO 27004KT 2 1/2SM 13/04 A3009 RMK T01300040 IEM_DS3505
ZHCC,2009-10-20 21:00,ZHCC 202100Z AUTO 00000KT 6SM 12/06 A3009 RMK SLP194 T01210055 54000 IEM_DS3505
ZHCC,2009-10-20 22:00,ZHCC 202200Z AUTO 27006KT 2 1/2SM 14/04 A3012 RMK T01400040 IEM_DS3505
ZHCC,2009-10-20 23:00,ZHCC 202300Z AUTO 30004KT 2 1/2SM 13/04 A3012 RMK T01300040 IEM_DS3505
ZHCC,2009-10-21 00:00,ZHCC 210000Z AUTO 18002KT 5SM 15/06 A3015 RMK SLP216 T01490065 52021 IEM_DS3505
ZHCC,2009-10-21 01:00,ZHCC 210100Z AUTO 33006KT 3SM 20/03 A3018 RMK T02000030 IEM_DS3505
ZHCC,2009-10-21 02:00,ZHCC 210200Z AUTO 32008KT 3SM 21/01 A3018 RMK T02100010 IEM_DS3505
ZHCC,2009-10-21 03:00,ZHCC 210300Z AUTO 32002KT 5SM 23/03 A3015 RMK SLP214 T02330027 57001 IEM_DS3505
ZHCC,2009-10-21 04:00,ZHCC 210400Z AUTO 35004KT 3SM 24/01 A3015 RMK T02400010 IEM_DS3505
ZHCC,2009-10-21 05:00,ZHCC 210500Z AUTO 01004KT 3SM 24/01 A3012 RMK T02400010 IEM_DS3505
ZHCC,2009-10-21 06:00,ZHCC 210600Z AUTO 14004KT 7SM 26/M04 A3009 RMK SLP185 T02581037 57028 IEM_DS3505
ZHCC,2009-10-21 07:00,ZHCC 210700Z AUTO 03002KT 3SM 25/01 A3006 RMK T02500010 IEM_DS3505
ZHCC,2009-10-21 08:00,ZHCC 210800Z AUTO 18006KT 3SM 25/00 A3006 RMK T02500000 IEM_DS3505
ZHCC,2009-10-21 09:00,ZHCC 210900Z AUTO 11004KT 8SM 25/M00 A3006 RMK SLP178 T02471004 57008 IEM_DS3505
ZHCC,2009-10-21 10:00,ZHCC 211000Z AUTO 17004KT 2 1/2SM 20/05 A3006 RMK T02000050 IEM_DS3505
ZHCC,2009-10-21 11:00,ZHCC 211100Z AUTO 17004KT 2 1/2SM 19/06 A3009 RMK T01900060 IEM_DS3505
ZHCC,2009-10-21 12:00,ZHCC 211200Z AUTO 18002KT 6SM 19/04 A3009 RMK SLP189 T01910041 52010 IEM_DS3505
ZHCC,2009-10-21 13:00,ZHCC 211300Z AUTO 18004KT 2 1/2SM 17/07 A3009 RMK T01700070 IEM_DS3505
ZHCC,2009-10-21 14:00,ZHCC 211400Z AUTO 18004KT 2 1/2SM 16/08 A3009 RMK T01600080 IEM_DS3505
ZHCC,2009-10-21 15:00,ZHCC 211500Z AUTO 20002KT 6SM 17/06 A3009 RMK SLP191 T01720055 52003 IEM_DS3505
ZHCC,2009-10-21 16:00,ZHCC 211600Z AUTO 22004KT 2 1/2SM 15/08 A3009 RMK T01500080 IEM_DS3505
ZHCC,2009-10-21 17:00,ZHCC 211700Z AUTO 22006KT 2 1/2SM 15/07 A3009 RMK T01500070 IEM_DS3505
ZHCC,2009-10-21 18:00,ZHCC 211800Z AUTO 22002KT 6SM 14/07 A3009 RMK SLP189 T01420070 57002 IEM_DS3505
ZHCC,2009-10-21 19:00,ZHCC 211900Z AUTO 24004KT 2 1/2SM 12/06 A3009 RMK T01200060 IEM_DS3505
ZHCC,2009-10-21 20:00,ZHCC 212000Z AUTO 22002KT 1 1/2SM 12/08 A3006 RMK T01200080 IEM_DS3505
ZHCC,2009-10-21 21:00,ZHCC 212100Z AUTO 00000KT 5SM 12/07 A3006 RMK SLP182 T01190072 57007 IEM_DS3505
ZHCC,2009-10-21 22:00,ZHCC 212200Z AUTO 00000KT 3SM 10/07 A3006 RMK T01000070 IEM_DS3505
ZHCC,2009-10-21 23:00,ZHCC 212300Z AUTO 00000KT 2SM 10/07 A3006 RMK T01000070 IEM_DS3505
ZHCC,2009-10-22 00:00,ZHCC 220000Z AUTO 00000KT 4SM 15/09 A3009 RMK SLP195 T01470091 52012 IEM_DS3505
ZHCC,2009-10-22 01:00,ZHCC 220100Z AUTO 1 1/2SM 19/09 A3012 RMK T01900090 IEM_DS3505
ZHCC,2009-10-22 02:00,ZHCC 220200Z AUTO 26004KT 2 1/2SM 23/08 A3012 RMK T02300080 IEM_DS3505
ZHCC,2009-10-22 03:00,ZHCC 220300Z AUTO 25006KT 5SM 25/06 A3009 RMK SLP189 T02460059 57004 IEM_DS3505
ZHCC,2009-10-22 04:00,ZHCC 220400Z AUTO 27008KT 4SM 27/05 A3006 RMK T02700050 IEM_DS3505
ZHCC,2009-10-22 05:00,ZHCC 220500Z AUTO 28008KT 4SM 27/04 A3003 RMK T02700040 IEM_DS3505
ZHCC,2009-10-22 06:00,ZHCC 220600Z AUTO 29004KT 10SM 28/01 A3003 RMK SLP161 T02840010 57028 IEM_DS3505
ZHCC,2009-10-22 07:00,ZHCC 220700Z AUTO 28006KT 4SM 28/01 A3000 RMK T02800010 IEM_DS3505
ZHCC,2009-10-22 08:00,ZHCC 220800Z AUTO 26008KT 4SM 27/M01 A3000 RMK T02701010 IEM_DS3505
ZHCC,2009-10-22 09:00,ZHCC 220900Z AUTO 22002KT 9SM 28/M00 A2997 RMK SLP148 T02771004 57013 IEM_DS3505
ZHCC,2009-10-22 10:00,ZHCC 221000Z AUTO 19002KT 4SM 19/05 A2997 RMK T01900050 IEM_DS3505
ZHCC,2009-10-22 11:00,ZHCC 221100Z AUTO 17006KT 4SM 19/07 A3000 RMK T01900070 IEM_DS3505
ZHCC,2009-10-22 12:00,ZHCC 221200Z AUTO 25002KT 6SM 17/08 A3000 RMK SLP164 T01710080 52014 IEM_DS3505
ZHCC,2009-10-22 13:00,ZHCC 221300Z AUTO 18002KT 3SM 15/07 A3003 RMK T01500070 IEM_DS3505
ZHCC,2009-10-22 14:00,ZHCC 221400Z AUTO 18006KT 3SM 18/07 A3003 RMK T01800070 IEM_DS3505
ZHCC,2009-10-22 15:00,ZHCC 221500Z AUTO 32002KT 6SM 17/07 A3003 RMK SLP169 T01670068 52007 IEM_DS3505
ZHCC,2009-10-22 16:00,ZHCC 221600Z AUTO 22004KT 3SM 16/08 A3003 RMK T01600080 IEM_DS3505
ZHCC,2009-10-22 17:00,ZHCC 221700Z AUTO 27002KT 15/07 A3003 RMK T01500070 IEM_DS3505
ZHCC,2009-10-22 18:00,ZHCC 221800Z AUTO 22002KT 6SM 15/07 A3003 RMK SLP168 T01460072 57001 IEM_DS3505
ZHCC,2009-10-22 19:00,ZHCC 221900Z AUTO 22002KT A3000 RMK IEM_DS3505
ZHCC,2009-10-22 20:00,ZHCC 222000Z AUTO 00000KT 11/07 A3000 RMK T01100070 IEM_DS3505
ZHCC,2009-10-22 21:00,ZHCC 222100Z AUTO 22002KT 6SM 12/08 A3000 RMK SLP164 T01160079 57004 IEM_DS3505
ZHCC,2009-10-22 22:00,ZHCC 222200Z AUTO 24002KT 2 1/2SM 10/07 A3000 RMK T01000070 IEM_DS3505
ZHCC,2009-10-22 23:00,ZHCC 222300Z AUTO 00000KT 2 1/2SM 12/07 A3003 RMK T01200070 IEM_DS3505
ZHCC,2009-10-23 00:00,ZHCC 230000Z AUTO 00000KT 5SM 14/09 A3003 RMK SLP173 T01440090 52007 IEM_DS3505
ZHCC,2009-10-23 01:00,ZHCC 230100Z AUTO 32002KT 2SM 20/09 A3003 RMK T02000090 IEM_DS3505
ZHCC,2009-10-23 02:00,ZHCC 230200Z AUTO 35004KT 2SM 23/07 A3003 RMK T02300070 IEM_DS3505
ZHCC,2009-10-23 03:00,ZHCC 230300Z AUTO 27002KT 5SM 24/08 A3003 RMK SLP166 T02370078 57005 IEM_DS3505
ZHCC,2009-10-23 04:00,ZHCC 230400Z AUTO 10004KT 2 1/2SM 27/08 A3000 RMK T02700080 IEM_DS3505
ZHCC,2009-10-23 05:00,ZHCC 230500Z AUTO 17004KT 3SM 27/05 A2997 RMK T02700050 IEM_DS3505
ZHCC,2009-10-23 06:00,ZHCC 230600Z AUTO 07006KT 6SM 28/04 A2994 RMK SLP139 T02850041 57026 IEM_DS3505
ZHCC,2009-10-23 07:00,ZHCC 230700Z AUTO 20004KT 6SM 28/03 A2994 RMK T02800030 IEM_DS3505
ZHCC,2009-10-23 08:00,ZHCC 230800Z AUTO 19006KT 6SM 27/04 A2994 RMK T02700040 IEM_DS3505
ZHCC,2009-10-23 09:00,ZHCC 230900Z AUTO 14004KT 8SM 27/00 A2994 RMK SLP133 T02740002 57007 IEM_DS3505
ZHCC,2009-10-23 10:00,ZHCC 231000Z AUTO 17002KT 2 1/2SM 21/07 A2994 RMK T02100070 IEM_DS3505
ZHCC,2009-10-23 11:00,ZHCC 231100Z AUTO 16002KT 2SM 20/08 A2994 RMK T02000080 IEM_DS3505
ZHCC,2009-10-23 12:00,ZHCC 231200Z AUTO 18004KT 6SM 21/04 A2997 RMK SLP148 T02080044 52014 IEM_DS3505
ZHCC,2009-10-23 13:00,ZHCC 231300Z AUTO 2 1/2SM 18/07 A2997 RMK T01800070 IEM_DS3505
ZHCC,2009-10-23 14:00,ZHCC 231400Z AUTO 21002KT 2 1/2SM 17/08 A3000 RMK T01700080 IEM_DS3505
ZHCC,2009-10-23 15:00,ZHCC 231500Z AUTO 18002KT 6SM 15/07 A3000 RMK SLP155 T01530066 52008 IEM_DS3505
ZHCC,2009-10-23 16:00,ZHCC 231600Z AUTO 2SM 15/07 A3000 RMK T01500070 IEM_DS3505
ZHCC,2009-10-23 17:00,ZHCC 231700Z AUTO 2SM 16/07 A3000 RMK T01600070 IEM_DS3505
ZHCC,2009-10-23 18:00,ZHCC 231800Z AUTO 16004KT 6SM 18/04 A3000 RMK SLP153 T01810043 57001 IEM_DS3505
ZHCC,2009-10-23 19:00,ZHCC 231900Z AUTO 2SM 15/08 A2997 RMK T01500080 IEM_DS3505
ZHCC,2009-10-23 20:00,ZHCC 232000Z AUTO 21002KT 2SM 16/06 A2997 RMK T01600060 IEM_DS3505
ZHCC,2009-10-23 21:00,ZHCC 232100Z AUTO 20002KT 4SM 13/07 A3000 RMK SLP154 T01270074 54000 IEM_DS3505
ZHCC,2009-10-23 22:00,ZHCC 232200Z AUTO 00000KT 2SM 11/07 A3000 RMK T01100070 IEM_DS3505
ZHCC,2009-10-24 00:00,ZHCC 240000Z AUTO 00000KT 4SM 15/10 A3003 RMK SLP167 T01530099 52012 IEM_DS3505
ZHCC,2009-10-24 02:00,ZHCC 240200Z AUTO 18004KT 2SM 22/10 A3003 RMK T02200100 IEM_DS3505
ZHCC,2009-10-24 03:00,ZHCC 240300Z AUTO 16008KT 6SM 24/07 A3003 RMK SLP170 T02400068 52003 IEM_DS3505
ZHCC,2009-10-24 04:00,ZHCC 240400Z AUTO 17006KT 2SM 23/10 A3003 RMK T02300100 IEM_DS3505
ZHCC,2009-10-24 05:00,ZHCC 240500Z AUTO 15006KT 2 1/2SM 22/10 A3000 RMK T02200100 IEM_DS3505
ZHCC,2009-10-24 06:00,ZHCC 240600Z AUTO 16006KT 6SM 24/07 A2997 RMK SLP150 T02430070 57019 IEM_DS3505
ZHCC,2009-10-24 07:00,ZHCC 240700Z AUTO 11004KT 4SM 22/10 A2997 RMK T02200100 IEM_DS3505
ZHCC,2009-10-24 08:00,ZHCC 240800Z AUTO 09004KT 4SM 23/09 A2997 RMK T02300090 IEM_DS3505
ZHCC,2009-10-24 09:00,ZHCC 240900Z AUTO 14002KT 7SM 24/06 A2997 RMK SLP146 T02380061 57005 IEM_DS3505
ZHCC,2009-10-24 10:00,ZHCC 241000Z AUTO 12002KT 3SM 18/09 A2997 RMK T01800090 IEM_DS3505
ZHCC,2009-10-24 11:00,ZHCC 241100Z AUTO 16002KT 3SM 16/09 A2997 RMK T01600090 IEM_DS3505
ZHCC,2009-10-24 12:00,ZHCC 241200Z AUTO 20002KT 6SM 16/09 A3000 RMK SLP159 T01580088 52012 IEM_DS3505
ZHCC,2009-10-24 13:00,ZHCC 241300Z AUTO 00000KT 3SM 15/09 A3000 RMK T01500090 IEM_DS3505
ZHCC,2009-10-24 14:00,ZHCC 241400Z AUTO 00000KT 3SM 13/09 A3003 RMK T01300090 IEM_DS3505
ZHCC,2009-10-24 15:00,ZHCC 241500Z AUTO 00000KT 6SM 13/09 A3003 RMK SLP173 T01340091 52015 IEM_DS3505
ZHCC,2009-10-24 16:00,ZHCC 241600Z AUTO 29002KT 3SM 12/09 A3003 RMK T01200090 IEM_DS3505
ZHCC,2009-10-24 17:00,ZHCC 241700Z AUTO 00000KT 3SM 12/09 A3006 RMK T01200090 IEM_DS3505
ZHCC,2009-10-24 18:00,ZHCC 241800Z AUTO 00000KT 4SM 12/09 A3003 RMK SLP176 T01210091 52003 IEM_DS3505
ZHCC,2009-10-24 19:00,ZHCC 241900Z AUTO 00000KT 10/08 A3003 RMK T01000080 IEM_DS3505
ZHCC,2009-10-24 20:00,ZHCC 242000Z AUTO 16002KT 10/07 A3003 RMK T01000070 IEM_DS3505
ZHCC,2009-10-24 21:00,ZHCC 242100Z AUTO 00000KT 4SM 11/09 A3003 RMK SLP178 T01080087 52001 IEM_DS3505
ZHCC,2009-10-24 22:00,ZHCC 242200Z AUTO 3SM 09/07 A3006 RMK T00900070 IEM_DS3505
ZHCC,2009-10-24 23:00,ZHCC 242300Z AUTO 00000KT 2SM 10/07 A3006 RMK T01000070 IEM_DS3505
ZHCC,2009-10-25 00:00,ZHCC 250000Z AUTO 00000KT 2 1/2SM 13/10 A3006 RMK SLP187 T01310101 52008 IEM_DS3505
ZHCC,2009-10-25 01:00,ZHCC 250100Z AUTO 2SM 17/14 A3009 RMK T01700140 IEM_DS3505
ZHCC,2009-10-25 03:00,ZHCC 250300Z AUTO 20002KT 6SM 23/08 A3009 RMK SLP191 T02290075 52006 IEM_DS3505
ZHCC,2009-10-25 04:00,ZHCC 250400Z AUTO 20004KT 2 1/2SM 23/10 A3009 RMK T02300100 IEM_DS3505
ZHCC,2009-10-25 05:00,ZHCC 250500Z AUTO 2 1/2SM 24/09 A3003 RMK T02400090 IEM_DS3505
ZHCC,2009-10-25 06:00,ZHCC 250600Z AUTO 16006KT 9SM 26/06 A3003 RMK SLP164 T02590055 57027 IEM_DS3505
ZHCC,2009-10-25 07:00,ZHCC 250700Z AUTO 15006KT 3SM 24/08 A3003 RMK T02400080 IEM_DS3505
ZHCC,2009-10-25 08:00,ZHCC 250800Z AUTO 17004KT 4SM 24/09 A3003 RMK T02400090 IEM_DS3505
ZHCC,2009-10-25 09:00,ZHCC 250900Z AUTO 16004KT 7SM 24/05 A3003 RMK SLP169 T02440052 52005 IEM_DS3505
ZHCC,2009-10-25 10:00,ZHCC 251000Z AUTO 16002KT 2 1/2SM 19/10 A3003 RMK T01900100 IEM_DS3505
ZHCC,2009-10-25 11:00,ZHCC 251100Z AUTO 00000KT 1 1/4SM 17/10 A3006 RMK T01700100 IEM_DS3505
ZHCC,2009-10-25 12:00,ZHCC 251200Z AUTO 00000KT 7SM 16/10 A3006 RMK SLP182 T01630095 52011 IEM_DS3505
ZHCC,2009-10-25 13:00,ZHCC 251300Z AUTO 26002KT 1 1/4SM 16/11 A3009 RMK T01600110 IEM_DS3505
ZHCC,2009-10-25 14:00,ZHCC 251400Z AUTO 00000KT 1 1/4SM 14/10 A3009 RMK T01400100 IEM_DS3505
ZHCC,2009-10-25 15:00,ZHCC 251500Z AUTO 00000KT 6SM 15/10 A3009 RMK SLP190 T01470101 52010 IEM_DS3505
ZHCC,2009-10-25 16:00,ZHCC 251600Z AUTO 00000KT 1 1/4SM 14/10 A3006 RMK T01400100 IEM_DS3505
ZHCC,2009-10-25 17:00,ZHCC 251700Z AUTO 00000KT 1 1/4SM 13/10 A3006 RMK T01300100 IEM_DS3505
ZHCC,2009-10-25 18:00,ZHCC 251800Z AUTO 25002KT 4SM 14/11 A3006 RMK SLP182 T01420106 57007 IEM_DS3505
ZHCC,2009-10-25 19:00,ZHCC 251900Z AUTO 28004KT 1 1/2SM 14/10 A3009 RMK T01400100 IEM_DS3505
ZHCC,2009-10-25 20:00,ZHCC 252000Z AUTO 29002KT 1 1/2SM 14/09 A3006 RMK T01400090 IEM_DS3505
ZHCC,2009-10-25 21:00,ZHCC 252100Z AUTO 00000KT 4SM 14/10 A3006 RMK SLP182 T01420100 57001 IEM_DS3505
ZHCC,2009-10-25 22:00,ZHCC 252200Z AUTO 00000KT 1 1/2SM 12/09 A3009 RMK T01200090 IEM_DS3505
ZHCC,2009-10-25 23:00,ZHCC 252300Z AUTO 00000KT 1 1/4SM 13/10 A3009 RMK T01300100 IEM_DS3505
ZHCC,2009-10-26 00:00,ZHCC 260000Z AUTO 16002KT 3SM 16/12 A3012 RMK SLP201 T01570117 52017 IEM_DS3505
ZHCC,2009-10-26 01:00,ZHCC 260100Z AUTO 1 1/4SM 17/14 A3012 RMK T01700140 IEM_DS3505
ZHCC,2009-10-26 02:00,ZHCC 260200Z AUTO 17002KT 2SM 21/10 A3012 RMK T02100100 IEM_DS3505
ZHCC,2009-10-26 03:00,ZHCC 260300Z AUTO 14004KT 4SM 24/07 A3012 RMK SLP197 T02420069 57002 IEM_DS3505
ZHCC,2009-10-26 04:00,ZHCC 260400Z AUTO 20006KT 2 1/2SM 24/08 A3009 RMK T02400080 IEM_DS3505
ZHCC,2009-10-26 05:00,ZHCC 260500Z AUTO 21006KT 2 1/2SM 24/06 A3009 RMK T02400060 IEM_DS3505
ZHCC,2009-10-26 06:00,ZHCC 260600Z AUTO 16006KT 5SM 26/05 A3006 RMK SLP172 T02560047 57024 IEM_DS3505
ZHCC,2009-10-26 07:00,ZHCC 260700Z AUTO 20006KT 2 1/2SM 24/06 A3003 RMK T02400060 IEM_DS3505
ZHCC,2009-10-26 08:00,ZHCC 260800Z AUTO 17004KT 3SM 25/07 A3003 RMK T02500070 IEM_DS3505
ZHCC,2009-10-26 09:00,ZHCC 260900Z AUTO 14002KT 6SM 24/05 A3003 RMK SLP168 T02420046 57005 IEM_DS3505
ZHCC,2009-10-26 10:00,ZHCC 261000Z AUTO 00000KT 3SM 20/08 A3003 RMK T02000080 IEM_DS3505
ZHCC,2009-10-26 11:00,ZHCC 261100Z AUTO 00000KT 2 1/2SM 17/10 A3006 RMK T01700100 IEM_DS3505
ZHCC,2009-10-26 12:00,ZHCC 261200Z AUTO 00000KT 4SM 17/10 A3006 RMK SLP184 T01660095 52015 IEM_DS3505
ZHCC,2009-10-26 13:00,ZHCC 261300Z AUTO 00000KT 2 1/2SM 16/09 A3006 RMK T01600090 IEM_DS3505
ZHCC,2009-10-26 14:00,ZHCC 261400Z AUTO 00000KT 2SM 15/09 A3009 RMK T01500090 IEM_DS3505
ZHCC,2009-10-26 15:00,ZHCC 261500Z AUTO 00000KT 4SM 15/10 A3009 RMK SLP191 T01510101 52008 IEM_DS3505
ZHCC,2009-10-26 16:00,ZHCC 261600Z AUTO 02006KT 1 1/4SM 17/10 A3009 RMK T01700100 IEM_DS3505
ZHCC,2009-10-26 17:00,ZHCC 261700Z AUTO 03006KT 1SM 16/11 A3006 RMK T01600110 IEM_DS3505
ZHCC,2009-10-26 18:00,ZHCC 261800Z AUTO 09002KT 4SM 18/11 A3006 RMK SLP183 T01750109 57007 IEM_DS3505
ZHCC,2009-10-26 19:00,ZHCC 261900Z AUTO 04004KT 3/8SM 15/11 A3006 RMK T01500110 IEM_DS3505
ZHCC,2009-10-26 20:00,ZHCC 262000Z AUTO 28004KT 3/8SM 14/11 A3006 RMK T01400110 IEM_DS3505
ZHCC,2009-10-26 21:00,ZHCC 262100Z AUTO 02002KT 4SM 17/10 A3006 RMK SLP181 T01670101 57002 IEM_DS3505
ZHCC,2009-10-26 22:00,ZHCC 262200Z AUTO 34004KT 1SM 14/11 A3006 RMK T01400110 IEM_DS3505
ZHCC,2009-10-26 23:00,ZHCC 262300Z AUTO 30004KT 1/2SM 13/10 A3006 RMK T01300100 IEM_DS3505
ZHCC,2009-10-27 00:00,ZHCC 270000Z AUTO 02002KT 3SM 17/09 A3009 RMK SLP194 T01710093 52011 IEM_DS3505
ZHCC,2009-10-27 01:00,ZHCC 270100Z AUTO 33006KT 1SM 16/11 A3009 RMK T01600110 IEM_DS3505
ZHCC,2009-10-27 02:00,ZHCC 270200Z AUTO 33004KT 1SM 17/11 A3009 RMK T01700110 IEM_DS3505
ZHCC,2009-10-27 03:00,ZHCC 270300Z AUTO 04004KT 3SM 20/10 A3009 RMK SLP192 T02050097 57002 IEM_DS3505
ZHCC,2009-10-27 04:00,ZHCC 270400Z AUTO 36004KT 1SM 20/11 A3006 RMK T02000110 IEM_DS3505
ZHCC,2009-10-27 05:00,ZHCC 270500Z AUTO 01002KT 1SM 21/10 A3003 RMK T02100100 IEM_DS3505
ZHCC,2009-10-27 06:00,ZHCC 270600Z AUTO 07002KT 3SM 23/08 A3000 RMK SLP164 T02290078 57026 IEM_DS3505
ZHCC,2009-10-27 07:00,ZHCC 270700Z AUTO 00000KT 1 1/4SM 23/11 A3000 RMK T02300110 IEM_DS3505
ZHCC,2009-10-27 08:00,ZHCC 270800Z AUTO 09002KT 1SM 23/11 A3000 RMK T02300110 IEM_DS3505
ZHCC,2009-10-27 09:00,ZHCC 270900Z AUTO 09002KT 4SM 22/09 A3000 RMK SLP156 T02190094 57008 IEM_DS3505
ZHCC,2009-10-27 10:00,ZHCC 271000Z AUTO 00000KT 1SM 18/12 A3000 RMK T01800120 IEM_DS3505
ZHCC,2009-10-27 11:00,ZHCC 271100Z AUTO 17002KT 1SM 17/12 A3003 RMK T01700120 IEM_DS3505
ZHCC,2009-10-27 12:00,ZHCC 271200Z AUTO 00000KT 3SM 16/12 A3003 RMK SLP173 T01610115 52015 IEM_DS3505
ZHCC,2009-10-27 13:00,ZHCC 271300Z AUTO 14002KT 1SM 15/12 A3006 RMK T01500120 IEM_DS3505
ZHCC,2009-10-27 14:00,ZHCC 271400Z AUTO 17004KT 1SM 15/12 A3006 RMK T01500120 IEM_DS3505
ZHCC,2009-10-27 15:00,ZHCC 271500Z AUTO 18002KT 3SM 16/12 A3006 RMK SLP179 T01600116 52007 IEM_DS3505
ZHCC,2009-10-27 16:00,ZHCC 271600Z AUTO 19004KT 1SM 14/11 A3006 RMK T01400110 IEM_DS3505
ZHCC,2009-10-27 17:00,ZHCC 271700Z AUTO 17004KT 1SM 13/10 A3006 RMK T01300100 IEM_DS3505
ZHCC,2009-10-27 18:00,ZHCC 271800Z AUTO 22002KT 2 1/2SM 14/11 A3003 RMK SLP172 T01380106 57007 IEM_DS3505
ZHCC,2009-10-27 19:00,ZHCC 271900Z AUTO 18004KT 1/2SM 14/11 A3003 RMK T01400110 IEM_DS3505
ZHCC,2009-10-27 20:00,ZHCC 272000Z AUTO 16002KT 3/8SM 12/10 A3003 RMK T01200100 IEM_DS3505
ZHCC,2009-10-27 21:00,ZHCC 272100Z AUTO 25002KT 3SM 15/11 A3003 RMK SLP168 T01470107 57004 IEM_DS3505
ZHCC,2009-10-27 22:00,ZHCC 272200Z AUTO 26002KT 1/2SM 11/09 A3003 RMK T01100090 IEM_DS3505
ZHCC,2009-10-27 23:00,ZHCC 272300Z AUTO 17002KT 3/8SM 10/09 A3003 RMK T01000090 IEM_DS3505
ZHCC,2009-10-28 00:00,ZHCC 280000Z AUTO 18002KT 1 1/4SM 14/11 RMK SLP181 T01400112 52011 IEM_DS3505
ZHCC,2009-10-28 01:00,ZHCC 280100Z AUTO 23002KT 1/2SM 16/15 A3006 RMK T01600150 IEM_DS3505
ZHCC,2009-10-28 02:00,ZHCC 280200Z AUTO 16002KT 1SM 20/15 A3006 RMK T02000150 IEM_DS3505
ZHCC,2009-10-28 03:00,ZHCC 280300Z AUTO 07002KT 4SM 24/10 A3006 RMK SLP172 T02360103 57006 IEM_DS3505
ZHCC,2009-10-28 04:00,ZHCC 280400Z AUTO 19006KT 1 1/2SM 23/12 A3003 RMK T02300120 IEM_DS3505
ZHCC,2009-10-28 05:00,ZHCC 280500Z AUTO 20006KT 1 1/2SM 24/12 A3000 RMK T02400120 IEM_DS3505
ZHCC,2009-10-28 06:00,ZHCC 280600Z AUTO 18004KT 5SM 26/10 A2997 RMK SLP151 T02620100 57021 IEM_DS3505
ZHCC,2009-10-28 07:00,ZHCC 280700Z AUTO 19004KT 2SM 24/13 A2997 RMK T02400130 IEM_DS3505
ZHCC,2009-10-28 08:00,ZHCC 280800Z AUTO 20006KT 2SM 24/11 A2997 RMK T02400110 IEM_DS3505
ZHCC,2009-10-28 09:00,ZHCC 280900Z AUTO 16006KT 5SM 24/10 A2997 RMK SLP146 T02440099 57005 IEM_DS3505
ZHCC,2009-10-28 10:00,ZHCC 281000Z AUTO 18002KT 2 1/2SM 20/11 A3000 RMK T02000110 IEM_DS3505
ZHCC,2009-10-28 11:00,ZHCC 281100Z AUTO 2SM 19/12 A3000 RMK T01900120 IEM_DS3505
ZHCC,2009-10-28 12:00,ZHCC 281200Z AUTO 20004KT 4SM 20/11 A3003 RMK SLP166 T02050106 52018 IEM_DS3505
ZHCC,2009-10-28 13:00,ZHCC 281300Z AUTO 2SM 16/12 A3003 RMK T01600120 IEM_DS3505
ZHCC,2009-10-28 14:00,ZHCC 281400Z AUTO 2SM 17/12 A3003 RMK T01700120 IEM_DS3505
ZHCC,2009-10-28 15:00,ZHCC 281500Z AUTO 00000KT 4SM 17/12 A3006 RMK SLP174 T01730116 52010 IEM_DS3505
ZHCC,2009-10-28 16:00,ZHCC 281600Z AUTO 19002KT 1 1/2SM 18/11 A3006 RMK T01800110 IEM_DS3505
ZHCC,2009-10-28 17:00,ZHCC 281700Z AUTO 00000KT 1 1/4SM 18/11 A3003 RMK T01800110 IEM_DS3505
ZHCC,2009-10-28 18:00,ZHCC 281800Z AUTO 16002KT 4SM 18/12 A3003 RMK SLP167 T01820115 57006 IEM_DS3505
ZHCC,2009-10-28 19:00,ZHCC 281900Z AUTO 00000KT 1SM 15/11 A3003 RMK T01500110 IEM_DS3505
ZHCC,2009-10-28 20:00,ZHCC 282000Z AUTO 00000KT 1SM 14/11 A3000 RMK T01400110 IEM_DS3505
ZHCC,2009-10-28 21:00,ZHCC 282100Z AUTO 20002KT 4SM 15/12 A3003 RMK SLP168 T01480116 57001 IEM_DS3505
ZHCC,2009-10-28 22:00,ZHCC 282200Z AUTO 1SM 14/11 A3003 RMK T01400110 IEM_DS3505
ZHCC,2009-10-28 23:00,ZHCC 282300Z AUTO 00000KT 1SM 14/11 A3003 RMK T01400110 IEM_DS3505
ZHCC,2009-10-29 00:00,ZHCC 290000Z AUTO 00000KT 2 1/2SM 16/12 A3006 RMK SLP181 T01630125 52013 IEM_DS3505
ZHCC,2009-10-29 01:00,ZHCC 290100Z AUTO 22002KT 1SM 17/14 A3009 RMK T01700140 IEM_DS3505
ZHCC,2009-10-29 02:00,ZHCC 290200Z AUTO 1SM 19/14 A3009 RMK T01900140 IEM_DS3505
ZHCC,2009-10-29 03:00,ZHCC 290300Z AUTO 04002KT 3SM 23/11 A3006 RMK SLP182 T02330114 52002 IEM_DS3505
ZHCC,2009-10-29 04:00,ZHCC 290400Z AUTO 17004KT 2SM 23/14 A3006 RMK T02300140 IEM_DS3505
ZHCC,2009-10-29 05:00,ZHCC 290500Z AUTO 19006KT 2SM 24/14 A3003 RMK T02400140 IEM_DS3505
ZHCC,2009-10-29 06:00,ZHCC 290600Z AUTO 14004KT 6SM 26/12 A3000 RMK SLP151 T02580116 57030 IEM_DS3505
ZHCC,2009-10-29 07:00,ZHCC 290700Z AUTO 18006KT 2SM 24/14 A3000 RMK T02400140 IEM_DS3505
ZHCC,2009-10-29 08:00,ZHCC 290800Z AUTO 15006KT 2SM 23/14 A3000 RMK T02300140 IEM_DS3505
ZHCC,2009-10-29 09:00,ZHCC 290900Z AUTO 14004KT 6SM 24/12 A3000 RMK SLP155 T02390122 52003 IEM_DS3505
ZHCC,2009-10-29 10:00,ZHCC 291000Z AUTO 2SM 21/14 A3000 RMK T02100140 IEM_DS3505
ZHCC,2009-10-29 11:00,ZHCC 291100Z AUTO 2SM 19/14 A3003 RMK T01900140 IEM_DS3505
ZHCC,2009-10-29 12:00,ZHCC 291200Z AUTO 16004KT 6SM 21/13 A3003 RMK SLP173 T02100129 52017 IEM_DS3505
ZHCC,2009-10-29 13:00,ZHCC 291300Z AUTO 16004KT 2SM 18/13 A3006 RMK T01800130 IEM_DS3505
ZHCC,2009-10-29 14:00,ZHCC 291400Z AUTO 1 1/4SM 17/13 A3006 RMK T01700130 IEM_DS3505
ZHCC,2009-10-29 15:00,ZHCC 291500Z AUTO 11004KT 5SM 19/13 A3006 RMK SLP182 T01890133 52010 IEM_DS3505
ZHCC,2009-10-29 16:00,ZHCC 291600Z AUTO 14002KT 1SM 15/13 A3006 RMK T01500130 IEM_DS3505
ZHCC,2009-10-29 17:00,ZHCC 291700Z AUTO 00000KT 1SM 15/13 A3006 RMK T01500130 IEM_DS3505
ZHCC,2009-10-29 18:00,ZHCC 291800Z AUTO 09004KT 4SM 18/14 A3006 RMK SLP183 T01770136 52001 IEM_DS3505
ZHCC,2009-10-29 19:00,ZHCC 291900Z AUTO 11004KT 1SM 15/13 A3006 RMK T01500130 IEM_DS3505
ZHCC,2009-10-29 20:00,ZHCC 292000Z AUTO 09002KT 1/2SM 15/13 A3006 RMK T01500130 IEM_DS3505
ZHCC,2009-10-29 21:00,ZHCC 292100Z AUTO 09004KT 4SM 17/13 A3006 RMK SLP180 T01660133 57003 IEM_DS3505
ZHCC,2009-10-29 22:00,ZHCC 292200Z AUTO 10004KT 1SM 15/13 A3006 RMK T01500130 IEM_DS3505
ZHCC,2009-10-29 23:00,ZHCC 292300Z AUTO 09004KT 1SM 15/14 A3009 RMK T01500140 IEM_DS3505
ZHCC,2009-10-30 00:00,ZHCC 300000Z AUTO 07002KT 2SM 17/14 A3009 RMK SLP197 T01720137 52016 IEM_DS3505
ZHCC,2009-10-30 01:00,ZHCC 300100Z AUTO 10004KT 1SM 16/15 A3012 RMK T01600150 IEM_DS3505
ZHCC,2009-10-30 02:00,ZHCC 300200Z AUTO 11004KT 1SM 17/15 A3012 RMK T01700150 IEM_DS3505
ZHCC,2009-10-30 03:00,ZHCC 300300Z AUTO 11004KT 2SM 18/14 A3012 RMK SLP198 T01840135 52001 IEM_DS3505
ZHCC,2009-10-30 04:00,ZHCC 300400Z AUTO 06004KT 1SM 17/14 A3009 RMK T01700140 IEM_DS3505
ZHCC,2009-10-30 05:00,ZHCC 300500Z AUTO 1SM 18/14 A3006 RMK T01800140 IEM_DS3505
ZHCC,2009-10-30 06:00,ZHCC 300600Z AUTO 07004KT 2 1/2SM 19/13 A3006 RMK SLP178 T01880134 57020 IEM_DS3505
ZHCC,2009-10-30 07:00,ZHCC 300700Z AUTO 03006KT 1SM 18/14 A3006 RMK T01800140 IEM_DS3505
ZHCC,2009-10-30 08:00,ZHCC 300800Z AUTO 02006KT 1SM 17/14 A3006 RMK T01700140 IEM_DS3505
ZHCC,2009-10-30 09:00,ZHCC 300900Z AUTO 04004KT 1 1/4SM 18/14 A3003 RMK SLP177 T01800137 57002 IEM_DS3505
ZHCC,2009-10-30 10:00,ZHCC 301000Z AUTO 02006KT 1SM 17/14 A3006 RMK T01700140 IEM_DS3505
ZHCC,2009-10-30 11:00,ZHCC 301100Z AUTO 03006KT 1SM 17/14 A3006 RMK T01700140 IEM_DS3505
ZHCC,2009-10-30 12:00,ZHCC 301200Z AUTO 04006KT 1SM 17/13 A3009 RMK SLP190 T01660129 52013 IEM_DS3505
ZHCC,2009-10-30 13:00,ZHCC 301300Z AUTO 02006KT 1/2SM 15/13 A3009 RMK T01500130 IEM_DS3505
ZHCC,2009-10-30 14:00,ZHCC 301400Z AUTO 03008KT 1SM 13/11 A3012 RMK T01300110 IEM_DS3505
ZHCC,2009-10-30 15:00,ZHCC 301500Z AUTO 07006KT 1 1/4SM 13/10 A3012 RMK SLP206 T01330099 52015 IEM_DS3505
ZHCC,2009-10-30 16:00,ZHCC 301600Z AUTO 02008KT 1 1/4SM 11/10 A3012 RMK T01100100 IEM_DS3505
ZHCC,2009-10-30 17:00,ZHCC 301700Z AUTO 04010KT 1 1/4SM 11/09 A3009 RMK T01100090 IEM_DS3505
ZHCC,2009-10-30 18:00,ZHCC 301800Z AUTO 04006KT 2SM 12/09 A3009 RMK 60000 SLP204 T01150087 57002 IEM_DS3505
ZHCC,2009-10-30 19:00,ZHCC 301900Z AUTO 02008KT 2SM 09/08 A3012 RMK T00900080 IEM_DS3505
ZHCC,2009-10-30 20:00,ZHCC 302000Z AUTO 02010KT 09/07 A3012 RMK T00900070 IEM_DS3505
ZHCC,2009-10-30 21:00,ZHCC 302100Z AUTO 04002KT 4SM 09/08 A3012 RMK 70002 SLP218 T00930077 52013 IEM_DS3505
ZHCC,2009-10-30 22:00,ZHCC 302200Z AUTO 01014KT 1 1/2SM 08/06 A3018 RMK T00800060 IEM_DS3505
ZHCC,2009-10-30 23:00,ZHCC 302300Z AUTO 35008KT 1 1/2SM 08/07 A3018 RMK T00800070 IEM_DS3505
ZHCC,2009-10-31 00:00,ZHCC 310000Z AUTO 09002KT 4SM 10/09 A3021 RMK 60008 70008 SLP235 T01040087 52017 IEM_DS3505
ZHCC,2009-10-31 01:00,ZHCC 310100Z AUTO 34006KT 1 1/4SM 09/08 A3021 RMK T00900080 IEM_DS3505
ZHCC,2009-10-31 02:00,ZHCC 310200Z AUTO 02006KT 1 1/4SM 09/08 A3021 RMK T00900080 IEM_DS3505
ZHCC,2009-10-31 03:00,ZHCC 310300Z AUTO 07004KT 5SM 11/09 A3021 RMK SLP237 T01060090 52001 IEM_DS3505
ZHCC,2009-10-31 04:00,ZHCC 310400Z AUTO 36006KT 1SM 09/08 A3021 RMK T00900080 IEM_DS3505
ZHCC,2009-10-31 05:00,ZHCC 310500Z AUTO 01004KT 1 1/4SM 09/09 A3021 RMK T00900090 IEM_DS3505
ZHCC,2009-10-31 06:00,ZHCC 310600Z AUTO 04006KT 4SM 11/09 A3021 RMK 60016 SLP240 T01130089 52003 IEM_DS3505
ZHCC,2009-10-31 07:00,ZHCC 310700Z AUTO 04008KT 2 1/2SM 10/09 A3021 RMK T01000090 IEM_DS3505
ZHCC,2009-10-31 08:00,ZHCC 310800Z AUTO 04006KT 2 1/2SM 10/09 A3024 RMK T01000090 IEM_DS3505
ZHCC,2009-10-31 09:00,ZHCC 310900Z AUTO 07002KT 5SM 11/08 A3024 RMK SLP250 T01140081 52009 IEM_DS3505
ZHCC,2009-10-31 10:00,ZHCC 311000Z AUTO 2 1/2SM 10/09 A3027 RMK T01000090 IEM_DS3505
ZHCC,2009-10-31 11:00,ZHCC 311100Z AUTO 03004KT 2 1/2SM 10/09 A3030 RMK T01000090 IEM_DS3505
ZHCC,2009-10-31 12:00,ZHCC 311200Z AUTO 00000KT 4SM 11/08 A3033 RMK SLP274 T01070083 52024 IEM_DS3505
ZHCC,2009-10-31 13:00,ZHCC 311300Z AUTO 29002KT 3SM 09/08 A3033 RMK T00900080 IEM_DS3505
ZHCC,2009-10-31 14:00,ZHCC 311400Z AUTO 32004KT 3SM 09/08 A3033 RMK T00900080 IEM_DS3505
ZHCC,2009-10-31 15:00,ZHCC 311500Z AUTO 00000KT 4SM 09/08 A3033 RMK SLP278 T00910080 52004 IEM_DS3505
ZHCC,2009-10-31 16:00,ZHCC 311600Z AUTO 00000KT 3SM 08/07 A3033 RMK T00800070 IEM_DS3505
ZHCC,2009-10-31 17:00,ZHCC 311700Z AUTO 17002KT 1SM 08/07 A3033 RMK T00800070 IEM_DS3505
ZHCC,2009-10-31 18:00,ZHCC 311800Z AUTO 00000KT 4SM 08/08 A3030 RMK SLP271 T00850076 57007 IEM_DS3505
ZHCC,2009-10-31 19:00,ZHCC 311900Z AUTO 20002KT 1 1/2SM 08/07 A3030 RMK T00800070 IEM_DS3505
ZHCC,2009-10-31 20:00,ZHCC 312000Z AUTO 13002KT 1 1/2SM 09/08 A3030 RMK T00900080 IEM_DS3505
ZHCC,2009-10-31 21:00,ZHCC 312100Z AUTO 16004KT 1/2SM 10/09 A3030 RMK 70023 SLP266 T00960088 57005 IEM_DS3505
ZHCC,2009-10-31 22:00,ZHCC 312200Z AUTO 00000KT 1 1/4SM 08/07 A3030 RMK T00800070 IEM_DS3505
ZHCC,2009-10-31 23:00,ZHCC 312300Z AUTO 1/2SM 09/08 A3033 RMK T00900080 IEM_DS3505
ZHCC,2009-11-01 00:00,ZHCC 010000Z AUTO 00000KT 1/2SM 10/09 A3033 RMK 70017 SLP281 T01020091 52015 IEM_DS3505
ZHCC,2009-11-01 01:00,ZHCC 010100Z AUTO 23002KT 1/2SM 09/09 A3036 RMK T00900090 IEM_DS3505
ZHCC,2009-11-01 02:00,ZHCC 010200Z AUTO 24004KT 1SM 10/09 A3036 RMK T01000090 IEM_DS3505
ZHCC,2009-11-01 03:00,ZHCC 010300Z AUTO 22004KT 2 1/2SM 14/10 A3036 RMK SLP285 T01380100 52004 IEM_DS3505
ZHCC,2009-11-01 04:00,ZHCC 010400Z AUTO 26006KT 2SM 15/14 A3033 RMK T01500140 IEM_DS3505
ZHCC,2009-11-01 05:00,ZHCC 010500Z AUTO 28014KT 4SM 19/05 A3030 RMK T01900050 IEM_DS3505
ZHCC,2009-11-01 06:00,ZHCC 010600Z AUTO 27008KT 9SM 20/00 A3027 RMK SLP253 T01950000 57030 IEM_DS3505
ZHCC,2009-11-01 07:00,ZHCC 010700Z AUTO 25012KT 5SM 19/02 A3027 RMK T01900020 IEM_DS3505
ZHCC,2009-11-01 08:00,ZHCC 010800Z AUTO 25012KT 6SM 19/02 A3030 RMK T01900020 IEM_DS3505
ZHCC,2009-11-01 09:00,ZHCC 010900Z AUTO 32008KT 9SM 19/M04 A3033 RMK SLP268 T01861041 52015 IEM_DS3505
ZHCC,2009-11-01 10:00,ZHCC 011000Z AUTO 30010KT 6SM 15/00 A3036 RMK T01500000 IEM_DS3505
ZHCC,2009-11-01 11:00,ZHCC 011100Z AUTO 30014KT 6SM 16/M04 A3042 RMK T01601040 IEM_DS3505
ZHCC,2009-11-01 12:00,ZHCC 011200Z AUTO 32008G29KT 9SM 15/M06 A3050 RMK SLP339 T01511064 52069 IEM_DS3505
ZHCC,2009-11-01 13:00,ZHCC 011300Z AUTO 36021G33KT 2 1/2SM 06/03 A3059 RMK T00600030 IEM_DS3505
ZHCC,2009-11-01 14:00,ZHCC 011400Z AUTO 36019G33KT 4SM 04/00 A3068 RMK T00400000 IEM_DS3505
ZHCC,2009-11-01 15:00,ZHCC 011500Z AUTO 04014G37KT 6SM 04/M02 A3074 RMK SLP425 T00411015 52083 IEM_DS3505
ZHCC,2009-11-01 16:00,ZHCC 011600Z AUTO 36014G23KT 4SM 02/M02 A3080 RMK T00201020 IEM_DS3505
ZHCC,2009-11-01 17:00,ZHCC 011700Z AUTO 01010KT 4SM 02/M02 A3083 RMK T00201020 IEM_DS3505
ZHCC,2009-11-01 18:00,ZHCC 011800Z AUTO 04006KT 10SM 04/M04 A3083 RMK SLP450 T00371045 52026 IEM_DS3505
ZHCC,2009-11-01 19:00,ZHCC 011900Z AUTO 02006KT 4SM 01/M03 A3083 RMK T00101030 IEM_DS3505
ZHCC,2009-11-01 20:00,ZHCC 012000Z AUTO 01006KT 01/M04 A3083 RMK T00101040 IEM_DS3505
ZHCC,2009-11-01 21:00,ZHCC 012100Z AUTO 04006KT 10SM 02/M04 A3086 RMK SLP461 T00191040 52010 IEM_DS3505
ZHCC,2009-11-01 22:00,ZHCC 012200Z AUTO 04004KT 6SM 00/M04 A3089 RMK T00001040 IEM_DS3505
ZHCC,2009-11-01 23:00,ZHCC 012300Z AUTO 04006KT 6SM M01/M05 A3089 RMK T10101050 IEM_DS3505
ZHCC,2009-11-02 00:00,ZHCC 020000Z AUTO 09004KT 11SM 02/M08 A3092 RMK SLP482 T00161077 52020 IEM_DS3505
ZHCC,2009-11-02 01:00,ZHCC 020100Z AUTO 04004KT 6SM 01/M08 A3092 RMK T00101080 IEM_DS3505
ZHCC,2009-11-02 02:00,ZHCC 020200Z AUTO 04006KT 6SM 02/M09 A3092 RMK T00201090 IEM_DS3505
ZHCC,2009-11-02 03:00,ZHCC 020300Z AUTO 07004KT 11SM 05/M10 A3092 RMK SLP479 T00501099 57005 IEM_DS3505
ZHCC,2009-11-02 04:00,ZHCC 020400Z AUTO 6SM 04/M09 A3086 RMK T00401090 IEM_DS3505
ZHCC,2009-11-02 05:00,ZHCC 020500Z AUTO 6SM 06/M09 A3083 RMK T00601090 IEM_DS3505
ZHCC,2009-11-02 06:00,ZHCC 020600Z AUTO 22006KT 11SM 08/M11 A3077 RMK SLP431 T00831106 57046 IEM_DS3505
ZHCC,2009-11-02 07:00,ZHCC 020700Z AUTO 6SM 07/M08 A3074 RMK T00701080 IEM_DS3505
ZHCC,2009-11-02 08:00,ZHCC 020800Z AUTO 6SM 07/M07 A3074 RMK T00701070 IEM_DS3505
ZHCC,2009-11-02 09:00,ZHCC 020900Z AUTO 20004KT 12SM 09/M12 A3071 RMK SLP409 T00871118 57022 IEM_DS3505
ZHCC,2009-11-02 10:00,ZHCC 021000Z AUTO 15004KT 6SM 05/M07 A3071 RMK T00501070 IEM_DS3505
ZHCC,2009-11-02 11:00,ZHCC 021100Z AUTO 15004KT 6SM 03/M06 A3068 RMK T00301060 IEM_DS3505
ZHCC,2009-11-02 12:00,ZHCC 021200Z AUTO 14002KT 10SM 05/M05 A3068 RMK SLP400 T00501054 57010 IEM_DS3505
ZHCC,2009-11-02 13:00,ZHCC 021300Z AUTO 6SM 02/M05 A3068 RMK T00201050 IEM_DS3505
ZHCC,2009-11-02 14:00,ZHCC 021400Z AUTO 19004KT 4SM 02/M04 A3068 RMK T00201040 IEM_DS3505
ZHCC,2009-11-02 15:00,ZHCC 021500Z AUTO 16006KT 9SM 03/M04 A3065 RMK SLP389 T00311035 57011 IEM_DS3505
ZHCC,2009-11-02 17:00,ZHCC 021700Z AUTO 20006KT 02/M04 A3062 RMK T00201040 IEM_DS3505
ZHCC,2009-11-02 18:00,ZHCC 021800Z AUTO 16004KT 9SM 02/M04 A3059 RMK SLP368 T00231036 57020 IEM_DS3505
ZHCC,2009-11-02 19:00,ZHCC 021900Z AUTO 20006KT 01/M04 A3056 RMK T00101040 IEM_DS3505
ZHCC,2009-11-02 20:00,ZHCC 022000Z AUTO 19004KT 00/M04 A3053 RMK T00001040 IEM_DS3505
ZHCC,2009-11-02 21:00,ZHCC 022100Z AUTO 16004KT 7SM 01/M03 A3050 RMK SLP343 T00131032 57025 IEM_DS3505
ZHCC,2009-11-02 22:00,ZHCC 022200Z AUTO 3SM M01/M04 A3050 RMK T10101040 IEM_DS3505
ZHCC,2009-11-02 23:00,ZHCC 022300Z AUTO 19004KT 3SM M01/M03 A3050 RMK T10101030 IEM_DS3505
ZHCC,2009-11-03 00:00,ZHCC 030000Z AUTO 16004KT 7SM 02/M02 A3050 RMK SLP339 T00221023 57004 IEM_DS3505
ZHCC,2009-11-03 01:00,ZHCC 030100Z AUTO 19004KT 3SM 03/00 A3050 RMK T00300000 IEM_DS3505
ZHCC,2009-11-03 02:00,ZHCC 030200Z AUTO 19008KT 3SM 05/M01 A3047 RMK T00501010 IEM_DS3505
ZHCC,2009-11-03 03:00,ZHCC 030300Z AUTO 16008KT 7SM 08/M02 A3045 RMK SLP318 T00831018 57020 IEM_DS3505
ZHCC,2009-11-03 04:00,ZHCC 030400Z AUTO 20008KT 4SM 09/00 A3042 RMK T00900000 IEM_DS3505
ZHCC,2009-11-03 05:00,ZHCC 030500Z AUTO 19010KT 4SM 10/M01 A3039 RMK T01001010 IEM_DS3505
ZHCC,2009-11-03 06:00,ZHCC 030600Z AUTO 14006KT 7SM 12/M02 A3033 RMK SLP277 T01191020 57040 IEM_DS3505
ZHCC,2009-11-03 07:00,ZHCC 030700Z AUTO 20008KT 3SM 11/M02 A3033 RMK T01101020 IEM_DS3505
ZHCC,2009-11-03 08:00,ZHCC 030800Z AUTO 20008KT 3SM 11/M01 A3030 RMK T01101010 IEM_DS3505
ZHCC,2009-11-03 09:00,ZHCC 030900Z AUTO 20006KT 7SM 12/M02 A3030 RMK SLP267 T01211025 57010 IEM_DS3505
ZHCC,2009-11-03 10:00,ZHCC 031000Z AUTO 19006KT 4SM 10/M01 A3030 RMK T01001010 IEM_DS3505
ZHCC,2009-11-03 11:00,ZHCC 031100Z AUTO 19008KT 6SM 10/M01 A3033 RMK T01001010 IEM_DS3505
ZHCC,2009-11-03 12:00,ZHCC 031200Z AUTO 18004KT 7SM 10/M00 A3033 RMK SLP272 T00951004 52005 IEM_DS3505
ZHCC,2009-11-03 13:00,ZHCC 031300Z AUTO 6SM 09/01 A3033 RMK T00900010 IEM_DS3505
ZHCC,2009-11-03 14:00,ZHCC 031400Z AUTO 19004KT 6SM 08/01 A3030 RMK T00800010 IEM_DS3505
ZHCC,2009-11-03 15:00,ZHCC 031500Z AUTO 00000KT 7SM 08/01 A3027 RMK SLP264 T00780008 57007 IEM_DS3505
ZHCC,2009-11-03 16:00,ZHCC 031600Z AUTO 6SM 08/02 A3027 RMK T00800020 IEM_DS3505
ZHCC,2009-11-03 17:00,ZHCC 031700Z AUTO 6SM 08/02 A3027 RMK T00800020 IEM_DS3505
ZHCC,2009-11-03 18:00,ZHCC 031800Z AUTO 00000KT 6SM 06/02 A3027 RMK SLP255 T00560015 57009 IEM_DS3505
ZHCC,2009-11-03 19:00,ZHCC 031900Z AUTO 06/02 A3024 RMK T00600020 IEM_DS3505
ZHCC,2009-11-03 20:00,ZHCC 032000Z AUTO 17004KT 06/02 A3021 RMK T00600020 IEM_DS3505
ZHCC,2009-11-03 21:00,ZHCC 032100Z AUTO 00000KT 7SM 07/02 A3021 RMK SLP230 T00740017 57024 IEM_DS3505
ZHCC,2009-11-03 22:00,ZHCC 032200Z AUTO 23002KT 4SM 07/02 A3021 RMK T00700020 IEM_DS3505
ZHCC,2009-11-03 23:00,ZHCC 032300Z AUTO 18004KT 2SM 06/02 A3021 RMK T00600020 IEM_DS3505
ZHCC,2009-11-04 00:00,ZHCC 040000Z AUTO 00000KT 4SM 08/03 A3021 RMK SLP240 T00780029 52009 IEM_DS3505
ZHCC,2009-11-04 01:00,ZHCC 040100Z AUTO 2SM 11/05 A3024 RMK T01100050 IEM_DS3505
ZHCC,2009-11-04 02:00,ZHCC 040200Z AUTO 2SM 13/05 A3024 RMK T01300050 IEM_DS3505
ZHCC,2009-11-04 03:00,ZHCC 040300Z AUTO 32006KT 7SM 18/M02 A3024 RMK SLP237 T01831015 54000 IEM_DS3505
ZHCC,2009-11-04 04:00,ZHCC 040400Z AUTO 28006KT 4SM 20/02 A3021 RMK T02000020 IEM_DS3505
ZHCC,2009-11-04 05:00,ZHCC 040500Z AUTO 29008KT 5SM 20/00 A3018 RMK T02000000 IEM_DS3505
ZHCC,2009-11-04 06:00,ZHCC 040600Z AUTO 32006KT 9SM 21/M01 A3018 RMK SLP219 T02061007 57018 IEM_DS3505
ZHCC,2009-11-04 07:00,ZHCC 040700Z AUTO 29004KT 6SM 21/00 A3018 RMK T02100000 IEM_DS3505
ZHCC,2009-11-04 08:00,ZHCC 040800Z AUTO 30002KT 6SM 21/00 A3018 RMK T02100000 IEM_DS3505
ZHCC,2009-11-04 09:00,ZHCC 040900Z AUTO 11002KT 9SM 19/03 A3018 RMK SLP216 T01860029 57003 IEM_DS3505
ZHCC,2009-11-04 10:00,ZHCC 041000Z AUTO 14004KT 1 1/2SM 16/06 A3018 RMK T01600060 IEM_DS3505
ZHCC,2009-11-04 11:00,ZHCC 041100Z AUTO 14004KT 1 1/2SM 14/07 A3018 RMK T01400070 IEM_DS3505
ZHCC,2009-11-04 12:00,ZHCC 041200Z AUTO 16002KT 6SM 10/05 A3021 RMK SLP231 T01020048 52013 IEM_DS3505
ZHCC,2009-11-04 13:00,ZHCC 041300Z AUTO 21002KT 2SM 10/06 A3021 RMK T01000060 IEM_DS3505
ZHCC,2009-11-04 14:00,ZHCC 041400Z AUTO 2SM 09/06 A3021 RMK T00900060 IEM_DS3505
ZHCC,2009-11-04 15:00,ZHCC 041500Z AUTO 20002KT 5SM 07/04 A3021 RMK SLP232 T00740045 52003 IEM_DS3505
ZHCC,2009-11-04 16:00,ZHCC 041600Z AUTO 00000KT 1 1/4SM 07/05 A3021 RMK T00700050 IEM_DS3505
ZHCC,2009-11-04 17:00,ZHCC 041700Z AUTO 1 1/4SM 07/05 A3018 RMK T00700050 IEM_DS3505
ZHCC,2009-11-04 18:00,ZHCC 041800Z AUTO 20002KT 4SM 06/02 A3018 RMK SLP223 T00580023 57009 IEM_DS3505
ZHCC,2009-11-04 19:00,ZHCC 041900Z AUTO 26004KT 09/01 A3015 RMK T00900010 IEM_DS3505
ZHCC,2009-11-04 20:00,ZHCC 042000Z AUTO 27004KT 06/00 A3015 RMK T00600000 IEM_DS3505
ZHCC,2009-11-04 21:00,ZHCC 042100Z AUTO 32002KT 5SM 06/00 A3015 RMK SLP214 T00560002 57010 IEM_DS3505
ZHCC,2009-11-04 22:00,ZHCC 042200Z AUTO 00000KT 3SM 06/00 A3015 RMK T00600000 IEM_DS3505
ZHCC,2009-11-04 23:00,ZHCC 042300Z AUTO 00000KT 1 1/4SM 04/00 A3015 RMK T00400000 IEM_DS3505
ZHCC,2009-11-05 00:00,ZHCC 050000Z AUTO 00000KT 4SM 07/02 A3015 RMK SLP221 T00680019 52006 IEM_DS3505
ZHCC,2009-11-05 01:00,ZHCC 050100Z AUTO 00000KT 1 1/4SM 13/05 A3018 RMK T01300050 IEM_DS3505
ZHCC,2009-11-05 02:00,ZHCC 050200Z AUTO 14002KT 2SM 18/02 A3015 RMK T01800020 IEM_DS3505
ZHCC,2009-11-05 03:00,ZHCC 050300Z AUTO 29002KT 4SM 19/M03 A3015 RMK SLP211 T01911031 57008 IEM_DS3505
ZHCC,2009-11-05 04:00,ZHCC 050400Z AUTO 18006KT 2SM 20/02 A3012 RMK T02000020 IEM_DS3505
ZHCC,2009-11-05 05:00,ZHCC 050500Z AUTO 18006KT 2 1/2SM 22/00 A3009 RMK T02200000 IEM_DS3505
ZHCC,2009-11-05 06:00,ZHCC 050600Z AUTO 18006KT 6SM 24/M03 A3006 RMK SLP172 T02431031 57038 IEM_DS3505
ZHCC,2009-11-05 07:00,ZHCC 050700Z AUTO 20006KT 5SM 23/M04 A3003 RMK T02301040 IEM_DS3505
ZHCC,2009-11-05 08:00,ZHCC 050800Z AUTO 18006KT 4SM 22/03 A3000 RMK T02200030 IEM_DS3505
ZHCC,2009-11-05 09:00,ZHCC 050900Z AUTO 14004KT 11SM 22/00 A3000 RMK SLP158 T02190004 57014 IEM_DS3505
ZHCC,2009-11-05 10:00,ZHCC 051000Z AUTO 18004KT 4SM 18/05 A3000 RMK T01800050 IEM_DS3505
ZHCC,2009-11-05 11:00,ZHCC 051100Z AUTO 19004KT 3SM 17/06 A3000 RMK T01700060 IEM_DS3505
ZHCC,2009-11-05 12:00,ZHCC 051200Z AUTO 18004KT 7SM 17/06 A3000 RMK SLP163 T01670062 52004 IEM_DS3505
ZHCC,2009-11-05 13:00,ZHCC 051300Z AUTO 19004KT 2SM 15/07 A3000 RMK T01500070 IEM_DS3505
ZHCC,2009-11-05 14:00,ZHCC 051400Z AUTO 20008KT 2SM 15/08 A3000 RMK T01500080 IEM_DS3505
ZHCC,2009-11-05 15:00,ZHCC 051500Z AUTO 20004KT 7SM 14/07 A3000 RMK SLP157 T01390072 57004 IEM_DS3505
ZHCC,2009-11-05 16:00,ZHCC 051600Z AUTO 20004KT 2SM 14/08 A2997 RMK T01400080 IEM_DS3505
ZHCC,2009-11-05 17:00,ZHCC 051700Z AUTO 2SM 13/08 A2997 RMK T01300080 IEM_DS3505
ZHCC,2009-11-05 18:00,ZHCC 051800Z AUTO 29002KT 6SM 12/08 A2997 RMK SLP145 T01190078 57011 IEM_DS3505
ZHCC,2009-11-05 19:00,ZHCC 051900Z AUTO 1 1/2SM 10/07 A2994 RMK T01000070 IEM_DS3505
ZHCC,2009-11-05 20:00,ZHCC 052000Z AUTO 18004KT 1 1/2SM 10/07 A2991 RMK T01000070 IEM_DS3505
ZHCC,2009-11-05 21:00,ZHCC 052100Z AUTO 09002KT 4SM 09/07 A2991 RMK SLP132 T00870068 57014 IEM_DS3505
ZHCC,2009-11-05 22:00,ZHCC 052200Z AUTO 19004KT 1 1/4SM 10/07 A2991 RMK T01000070 IEM_DS3505
ZHCC,2009-11-05 23:00,ZHCC 052300Z AUTO 21002KT 1SM 09/06 A2991 RMK T00900060 IEM_DS3505
ZHCC,2009-11-06 00:00,ZHCC 060000Z AUTO 22004KT 4SM 10/08 A2991 RMK SLP139 T01040075 52006 IEM_DS3505
ZHCC,2009-11-06 01:00,ZHCC 060100Z AUTO 17004KT 1SM 13/10 A2994 RMK T01300100 IEM_DS3505
ZHCC,2009-11-06 02:00,ZHCC 060200Z AUTO 22004KT 1SM 17/10 A2991 RMK T01700100 IEM_DS3505
ZHCC,2009-11-06 03:00,ZHCC 060300Z AUTO 29002KT 4SM 22/06 A2991 RMK SLP127 T02170060 57010 IEM_DS3505
ZHCC,2009-11-06 04:00,ZHCC 060400Z AUTO 16004KT 2SM 22/11 A2988 RMK T02200110 IEM_DS3505
ZHCC,2009-11-06 05:00,ZHCC 060500Z AUTO 18006KT 2SM 24/09 A2985 RMK T02400090 IEM_DS3505
ZHCC,2009-11-06 06:00,ZHCC 060600Z AUTO 02004KT 5SM 26/06 A2983 RMK SLP091 T02600061 57035 IEM_DS3505
ZHCC,2009-11-06 07:00,ZHCC 060700Z AUTO 16006KT 2 1/2SM 24/10 A2983 RMK T02400100 IEM_DS3505
ZHCC,2009-11-06 08:00,ZHCC 060800Z AUTO 17006KT 2SM 22/11 A2983 RMK T02200110 IEM_DS3505
ZHCC,2009-11-06 09:00,ZHCC 060900Z AUTO 11006KT 6SM 22/10 A2983 RMK SLP091 T02220097 57001 IEM_DS3505
ZHCC,2009-11-06 10:00,ZHCC 061000Z AUTO 16006KT 2SM 19/11 A2983 RMK T01900110 IEM_DS3505
ZHCC,2009-11-06 11:00,ZHCC 061100Z AUTO 18006KT 2SM 18/11 A2983 RMK T01800110 IEM_DS3505
ZHCC,2009-11-06 12:00,ZHCC 061200Z AUTO 16008KT 6SM 19/10 A2983 RMK SLP098 T01890099 52006 IEM_DS3505
ZHCC,2009-11-06 13:00,ZHCC 061300Z AUTO 19004KT 2SM 17/11 A2983 RMK T01700110 IEM_DS3505
ZHCC,2009-11-06 14:00,ZHCC 061400Z AUTO 17004KT 1 1/2SM 16/11 A2983 RMK T01600110 IEM_DS3505
ZHCC,2009-11-06 15:00,ZHCC 061500Z AUTO 09002KT 6SM 18/09 A2983 RMK SLP096 T01770093 54000 IEM_DS3505
ZHCC,2009-11-06 16:00,ZHCC 061600Z AUTO 16004KT 1 1/2SM 15/10 A2983 RMK T01500100 IEM_DS3505
ZHCC,2009-11-06 17:00,ZHCC 061700Z AUTO 1SM 15/10 A2980 RMK T01500100 IEM_DS3505
ZHCC,2009-11-06 18:00,ZHCC 061800Z AUTO 18004KT 5SM 17/09 A2980 RMK SLP088 T01700094 57007 IEM_DS3505
ZHCC,2009-11-06 19:00,ZHCC 061900Z AUTO 26004KT 1 1/4SM 15/10 A2980 RMK T01500100 IEM_DS3505
ZHCC,2009-11-06 20:00,ZHCC 062000Z AUTO 19004KT 1 1/4SM 16/10 A2977 RMK T01600100 IEM_DS3505
ZHCC,2009-11-06 21:00,ZHCC 062100Z AUTO 22002KT 4SM 16/10 A2977 RMK SLP080 T01610098 57009 IEM_DS3505
ZHCC,2009-11-06 22:00,ZHCC 062200Z AUTO 18004KT 1 1/4SM 15/11 A2980 RMK T01500110 IEM_DS3505
ZHCC,2009-11-06 23:00,ZHCC 062300Z AUTO 21004KT 1SM 16/11 A2980 RMK T01600110 IEM_DS3505
ZHCC,2009-11-07 00:00,ZHCC 070000Z AUTO 04002KT 3SM 16/11 A2983 RMK SLP097 T01580108 52016 IEM_DS3505
ZHCC,2009-11-07 01:00,ZHCC 070100Z AUTO 17004KT 1SM 16/12 A2983 RMK T01600120 IEM_DS3505
ZHCC,2009-11-07 02:00,ZHCC 070200Z AUTO 18004KT 1SM 17/13 A2983 RMK T01700130 IEM_DS3505
ZHCC,2009-11-07 03:00,ZHCC 070300Z AUTO 18004KT 5SM 22/11 A2980 RMK SLP089 T02230114 57006 IEM_DS3505
ZHCC,2009-11-07 04:00,ZHCC 070400Z AUTO 20008KT 1 1/4SM 20/14 A2980 RMK T02000140 IEM_DS3505
ZHCC,2009-11-07 05:00,ZHCC 070500Z AUTO 20006KT 1 1/2SM 23/14 A2977 RMK T02300140 IEM_DS3505
ZHCC,2009-11-07 06:00,ZHCC 070600Z AUTO 16006KT 7SM 26/12 A2974 RMK SLP065 T02650122 57023 IEM_DS3505
ZHCC,2009-11-07 07:00,ZHCC 070700Z AUTO 19006KT 2 1/2SM 24/14 A2974 RMK T02400140 IEM_DS3505
ZHCC,2009-11-07 08:00,ZHCC 070800Z AUTO 17006KT 2SM 23/14 A2974 RMK T02300140 IEM_DS3505
ZHCC,2009-11-07 09:00,ZHCC 070900Z AUTO 07002KT 8SM 25/13 A2974 RMK SLP068 T02460129 52002 IEM_DS3505
ZHCC,2009-11-07 10:00,ZHCC 071000Z AUTO 17004KT 1SM 19/15 A2977 RMK T01900150 IEM_DS3505
ZHCC,2009-11-07 11:00,ZHCC 071100Z AUTO 1SM 18/14 A2980 RMK T01800140 IEM_DS3505
ZHCC,2009-11-07 12:00,ZHCC 071200Z AUTO 16006KT 4SM 20/14 A2983 RMK SLP094 T01980137 52025 IEM_DS3505
ZHCC,2009-11-07 13:00,ZHCC 071300Z AUTO 18004KT 1SM 17/14 A2983 RMK T01700140 IEM_DS3505
ZHCC,2009-11-07 14:00,ZHCC 071400Z AUTO 1SM 16/13 A2983 RMK T01600130 IEM_DS3505
ZHCC,2009-11-07 15:00,ZHCC 071500Z AUTO 09004KT 4SM 17/13 A2983 RMK SLP101 T01720131 52007 IEM_DS3505
ZHCC,2009-11-07 16:00,ZHCC 071600Z AUTO 17002KT 1SM 14/12 A2983 RMK T01400120 IEM_DS3505
ZHCC,2009-11-07 17:00,ZHCC 071700Z AUTO 18004KT 1SM 15/13 A2983 RMK T01500130 IEM_DS3505
ZHCC,2009-11-07 18:00,ZHCC 071800Z AUTO 00000KT 3SM 14/12 A2983 RMK SLP096 T01370119 57004 IEM_DS3505
ZHCC,2009-11-07 19:00,ZHCC 071900Z AUTO 00000KT 1/4SM 12/11 A2983 RMK T01200110 IEM_DS3505
ZHCC,2009-11-07 20:00,ZHCC 072000Z AUTO 00000KT 1/4SM 11/10 A2983 RMK T01100100 IEM_DS3505
ZHCC,2009-11-07 21:00,ZHCC 072100Z AUTO 00000KT 2SM 14/12 A2983 RMK SLP099 T01380120 52002 IEM_DS3505
ZHCC,2009-11-07 22:00,ZHCC 072200Z AUTO 3/8SM 12/11 A2983 RMK T01200110 IEM_DS3505
ZHCC,2009-11-07 23:00,ZHCC 072300Z AUTO 33004KT 3/8SM 12/12 A2985 RMK T01200120 IEM_DS3505
ZHCC,2009-11-08 00:00,ZHCC 080000Z AUTO 07002KT 1SM 14/12 A2988 RMK SLP123 T01390121 52023 IEM_DS3505
ZHCC,2009-11-08 01:00,ZHCC 080100Z AUTO 02006KT 1/4SM 13/12 A2988 RMK T01300120 IEM_DS3505
ZHCC,2009-11-08 02:00,ZHCC 080200Z AUTO 02004KT 1/2SM 14/14 A2988 RMK T01400140 IEM_DS3505
ZHCC,2009-11-08 03:00,ZHCC 080300Z AUTO 04004KT 1SM 17/12 A2988 RMK SLP128 T01700119 52005 IEM_DS3505
ZHCC,2009-11-08 04:00,ZHCC 080400Z AUTO 05006KT 1SM 19/15 A2988 RMK T01900150 IEM_DS3505
ZHCC,2009-11-08 05:00,ZHCC 080500Z AUTO 04008KT 1SM 20/14 A2985 RMK T02000140 IEM_DS3505
ZHCC,2009-11-08 06:00,ZHCC 080600Z AUTO 07006KT 1 1/4SM 20/12 A2985 RMK SLP109 T02040119 57019 IEM_DS3505
ZHCC,2009-11-08 07:00,ZHCC 080700Z AUTO 04008KT 1SM 20/13 A2985 RMK T02000130 IEM_DS3505
ZHCC,2009-11-08 08:00,ZHCC 080800Z AUTO 04008KT 1SM 19/13 A2985 RMK T01900130 IEM_DS3505
ZHCC,2009-11-08 09:00,ZHCC 080900Z AUTO 04006KT 1SM 19/11 A2985 RMK SLP113 T01860109 52004 IEM_DS3505
ZHCC,2009-11-08 10:00,ZHCC 081000Z AUTO 04010KT 1SM 17/12 A2988 RMK T01700120 IEM_DS3505
ZHCC,2009-11-08 11:00,ZHCC 081100Z AUTO 04014KT 1SM 15/11 A2991 RMK T01500110 IEM_DS3505
ZHCC,2009-11-08 12:00,ZHCC 081200Z AUTO 04006KT 1SM 15/10 A2991 RMK SLP141 T01500098 52027 IEM_DS3505
ZHCC,2009-11-08 13:00,ZHCC 081300Z AUTO 02012KT 1SM 13/10 A2994 RMK T01300100 IEM_DS3505
ZHCC,2009-11-08 14:00,ZHCC 081400Z AUTO 04014G23KT 1SM 12/09 A2997 RMK T01200090 IEM_DS3505
ZHCC,2009-11-08 15:00,ZHCC 081500Z AUTO 07010KT 1SM 13/11 A3000 RMK SLP163 T01280107 52021 IEM_DS3505
ZHCC,2009-11-08 16:00,ZHCC 081600Z AUTO 04014KT 1SM 11/10 A3000 RMK T01100100 IEM_DS3505
ZHCC,2009-11-08 17:00,ZHCC 081700Z AUTO 04012KT 1SM 11/10 A3000 RMK T01100100 IEM_DS3505
ZHCC,2009-11-08 18:00,ZHCC 081800Z AUTO 07008KT 4SM 11/09 A3000 RMK SLP170 T01140088 52008 IEM_DS3505
ZHCC,2009-11-08 19:00,ZHCC 081900Z AUTO 02010KT 1 1/4SM 10/09 A3000 RMK T01000090 IEM_DS3505
ZHCC,2009-11-08 20:00,ZHCC 082000Z AUTO 02014G23KT 1 1/4SM 10/09 A3000 RMK T01000090 IEM_DS3505
ZHCC,2009-11-08 21:00,ZHCC 082100Z AUTO 04010G25KT 6SM 11/07 A3000 RMK SLP165 T01100073 57006 IEM_DS3505
ZHCC,2009-11-08 22:00,ZHCC 082200Z AUTO 03014G25KT 2SM 09/08 A3000 RMK T00900080 IEM_DS3505
ZHCC,2009-11-08 23:00,ZHCC 082300Z AUTO 04016G25KT 2SM 09/07 A3000 RMK T00900070 IEM_DS3505
ZHCC,2009-11-09 00:00,ZHCC 090000Z AUTO 07010G27KT 6SM 10/07 A3003 RMK SLP188 T00980067 52022 IEM_DS3505
ZHCC,2009-11-09 02:00,ZHCC 090200Z AUTO 03017G29KT 2SM 08/06 A3006 RMK T00800060 IEM_DS3505
ZHCC,2009-11-09 03:00,ZHCC 090300Z AUTO 04010G29KT 6SM 09/06 A3006 RMK SLP193 T00930055 52004 IEM_DS3505
ZHCC,2009-11-09 04:00,ZHCC 090400Z AUTO 03019G35KT 2SM 08/06 A3003 RMK T00800060 IEM_DS3505
ZHCC,2009-11-09 05:00,ZHCC 090500Z AUTO 02016G25KT 2SM 07/05 A3003 RMK T00700050 IEM_DS3505
ZHCC,2009-11-09 06:00,ZHCC 090600Z AUTO 04014G27KT 9SM 08/04 A3003 RMK SLP180 T00760036 57013 IEM_DS3505
ZHCC,2009-11-09 07:00,ZHCC 090700Z AUTO 02019G31KT 1 1/4SM 06/04 A3003 RMK T00600040 IEM_DS3505
ZHCC,2009-11-09 08:00,ZHCC 090800Z AUTO 03016G31KT 1 1/4SM 06/04 A3003 RMK T00600040 IEM_DS3505
ZHCC,2009-11-09 09:00,ZHCC 090900Z AUTO 04016KT 8SM 06/03 A3006 RMK SLP192 T00640030 52011 IEM_DS3505
ZHCC,2009-11-09 10:00,ZHCC 091000Z AUTO 03017G27KT 1 1/4SM 05/04 A3006 RMK T00500040 IEM_DS3505
ZHCC,2009-11-09 11:00,ZHCC 091100Z AUTO 03017KT 2 1/2SM 04/03 A3009 RMK T00400030 IEM_DS3505
ZHCC,2009-11-09 12:00,ZHCC 091200Z AUTO 04010KT 6SM 06/02 A3009 RMK 60000 SLP207 T00550016 52014 IEM_DS3505
ZHCC,2009-11-09 13:00,ZHCC 091300Z AUTO 02016G27KT 2 1/2SM 03/02 A3012 RMK T00300020 IEM_DS3505
ZHCC,2009-11-09 14:00,ZHCC 091400Z AUTO 02017G31KT 5SM 03/02 A3012 RMK T00300020 IEM_DS3505
ZHCC,2009-11-09 15:00,ZHCC 091500Z AUTO 04014G27KT 6SM 05/M01 A3012 RMK SLP217 T00481014 52010 IEM_DS3505
ZHCC,2009-11-09 16:00,ZHCC 091600Z AUTO 02014KT 5SM 03/01 A3012 RMK T00300010 IEM_DS3505
ZHCC,2009-11-09 17:00,ZHCC 091700Z AUTO 02014KT 5SM 03/00 A3012 RMK T00300000 IEM_DS3505
ZHCC,2009-11-09 18:00,ZHCC 091800Z AUTO 02008G23KT 6SM 04/M01 A3012 RMK 60000 SLP219 T00421010 52001 IEM_DS3505
ZHCC,2009-11-09 19:00,ZHCC 091900Z AUTO 03016KT 03/00 A3012 RMK T00300000 IEM_DS3505
ZHCC,2009-11-09 20:00,ZHCC 092000Z AUTO 02012KT 03/00 A3012 RMK T00300000 IEM_DS3505
ZHCC,2009-11-09 21:00,ZHCC 092100Z AUTO 02012G25KT 7SM 04/M02 A3015 RMK 70000 SLP223 T00381016 52004 IEM_DS3505
ZHCC,2009-11-09 22:00,ZHCC 092200Z AUTO 03014KT 4SM 02/M01 A3015 RMK T00201010 IEM_DS3505
ZHCC,2009-11-09 23:00,ZHCC 092300Z AUTO 02014G23KT 4SM 02/M01 A3015 RMK T00201010 IEM_DS3505
ZHCC,2009-11-10 00:00,ZHCC 100000Z AUTO 04010KT 7SM 03/M02 A3018 RMK 60000 70000 SLP236 T00331020 52012 IEM_DS3505
ZHCC,2009-11-10 01:00,ZHCC 100100Z AUTO 02012KT 4SM 02/M02 A3021 RMK T00201020 IEM_DS3505
ZHCC,2009-11-10 02:00,ZHCC 100200Z AUTO 36016KT 4SM 02/M02 A3024 RMK T00201020 IEM_DS3505
ZHCC,2009-11-10 03:00,ZHCC 100300Z AUTO 04012KT 8SM 03/M03 A3024 RMK SLP251 T00291028 52015 IEM_DS3505
ZHCC,2009-11-10 04:00,ZHCC 100400Z AUTO 36019KT 4SM 02/M02 A3021 RMK T00201020 IEM_DS3505
ZHCC,2009-11-10 05:00,ZHCC 100500Z AUTO 36017KT 4SM 01/M03 A3021 RMK T00101030 IEM_DS3505
ZHCC,2009-11-10 06:00,ZHCC 100600Z AUTO 07010G29KT 8SM 02/M04 A3015 RMK SLP231 T00221039 57020 IEM_DS3505
ZHCC,2009-11-10 07:00,ZHCC 100700Z AUTO 36016KT 4SM 01/M04 A3018 RMK T00101040 IEM_DS3505
ZHCC,2009-11-10 08:00,ZHCC 100800Z AUTO 36016KT 4SM 01/M04 A3018 RMK T00101040 IEM_DS3505
ZHCC,2009-11-10 09:00,ZHCC 100900Z AUTO 04014KT 8SM 01/M04 A3024 RMK SLP255 T00121044 52023 IEM_DS3505
ZHCC,2009-11-10 10:00,ZHCC 101000Z AUTO 36019KT 4SM 00/M04 A3024 RMK T00001040 IEM_DS3505
ZHCC,2009-11-10 11:00,ZHCC 101100Z AUTO 05016G25KT 4SM 00/M04 A3024 RMK T00001040 IEM_DS3505
ZHCC,2009-11-10 12:00,ZHCC 101200Z AUTO 07010G25KT 7SM 01/M04 A3027 RMK SLP265 T00111036 52010 IEM_DS3505
ZHCC,2009-11-10 13:00,ZHCC 101300Z AUTO 36016KT 4SM M01/M03 A3027 RMK T10101030 IEM_DS3505
ZHCC,2009-11-10 14:00,ZHCC 101400Z AUTO 01019KT 4SM M01/M03 A3030 RMK T10101030 IEM_DS3505
ZHCC,2009-11-10 15:00,ZHCC 101500Z AUTO 04012G29KT 6SM M00/M02 A3030 RMK SLP283 T10011018 52017 IEM_DS3505
ZHCC,2009-11-10 16:00,ZHCC 101600Z AUTO 36016KT 1/4SM M01/M03 A3033 RMK T10101030 IEM_DS3505
ZHCC,2009-11-10 17:00,ZHCC 101700Z AUTO 01014KT 2SM M01/M03 A3033 RMK T10101030 IEM_DS3505
ZHCC,2009-11-10 18:00,ZHCC 101800Z AUTO 04014KT 5SM M00/M02 A3033 RMK 60002 SLP286 T10041025 52003 IEM_DS3505
ZHCC,2009-11-10 19:00,ZHCC 101900Z AUTO 36012KT M02/M03 A3033 RMK T10201030 IEM_DS3505
ZHCC,2009-11-10 20:00,ZHCC 102000Z AUTO 36010KT M02/M03 A3033 RMK T10201030 IEM_DS3505
ZHCC,2009-11-10 21:00,ZHCC 102100Z AUTO 04008KT 6SM M01/M03 A3033 RMK 70003 SLP290 T10111027 52003 IEM_DS3505
ZHCC,2009-11-10 22:00,ZHCC 102200Z AUTO 03010KT 3SM M02/M03 A3036 RMK T10201030 IEM_DS3505
ZHCC,2009-11-10 23:00,ZHCC 102300Z AUTO 03008KT 3SM M02/M03 A3036 RMK T10201030 IEM_DS3505
ZHCC,2009-11-11 00:00,ZHCC 110000Z AUTO 04010KT 6SM M01/M03 A3039 RMK 60024 70023 SLP308 T10111031 52018 IEM_DS3505
ZHCC,2009-11-11 02:00,ZHCC 110200Z AUTO 03010KT 2SM M02/M03 A3039 RMK T10201030 IEM_DS3505
ZHCC,2009-11-11 03:00,ZHCC 110300Z AUTO 04012KT 7SM M01/M04 A3039 RMK SLP306 T10111035 57002 IEM_DS3505
ZHCC,2009-11-11 05:00,ZHCC 110500Z AUTO 03010KT 1 1/4SM M02/M03 A3036 RMK T10201030 IEM_DS3505
ZHCC,2009-11-11 06:00,ZHCC 110600Z AUTO 04010KT 4SM M01/M02 A3036 RMK 60008 SLP300 T10121025 57006 IEM_DS3505
ZHCC,2009-11-11 07:00,ZHCC 110700Z AUTO 02008KT 1SM M03/M03 A3036 RMK T10301030 IEM_DS3505
ZHCC,2009-11-11 08:00,ZHCC 110800Z AUTO 02008KT 1SM M02/M03 A3039 RMK T10201030 IEM_DS3505
ZHCC,2009-11-11 09:00,ZHCC 110900Z AUTO 02008KT 4SM M01/M02 A3042 RMK SLP317 T10071020 52017 IEM_DS3505
ZHCC,2009-11-11 10:00,ZHCC 111000Z AUTO 02008KT 1SM M02/M03 A3042 RMK T10201030 IEM_DS3505
ZHCC,2009-11-11 11:00,ZHCC 111100Z AUTO 01008KT 1SM M02/M03 A3042 RMK T10201030 IEM_DS3505
ZHCC,2009-11-11 12:00,ZHCC 111200Z AUTO 04008KT 2SM M01/M02 A3045 RMK 60039 SLP330 T10081018 52012 IEM_DS3505
ZHCC,2009-11-11 13:00,ZHCC 111300Z AUTO 02008KT 1SM M02/M03 A3047 RMK T10201030 IEM_DS3505
ZHCC,2009-11-11 14:00,ZHCC 111400Z AUTO 02006KT 1SM M02/M03 A3047 RMK T10201030 IEM_DS3505
ZHCC,2009-11-11 15:00,ZHCC 111500Z AUTO 04006KT 1 1/4SM M01/M02 A3047 RMK SLP336 T10101018 52006 IEM_DS3505
ZHCC,2009-11-11 16:00,ZHCC 111600Z AUTO 02008KT 2SM M03/M03 A3047 RMK T10301030 IEM_DS3505
ZHCC,2009-11-11 17:00,ZHCC 111700Z AUTO 36006KT 1 1/4SM M03/M03 A3047 RMK T10301030 IEM_DS3505
ZHCC,2009-11-11 18:00,ZHCC 111800Z AUTO 04004KT 2 1/2SM M01/M02 A3047 RMK 60047 SLP338 T10131021 52002 IEM_DS3505
ZHCC,2009-11-11 19:00,ZHCC 111900Z AUTO 01008KT 1/2SM M03/M03 A3047 RMK T10301030 IEM_DS3505
ZHCC,2009-11-11 20:00,ZHCC 112000Z AUTO 36004KT 1/4SM M02/M03 A3047 RMK T10201030 IEM_DS3505
ZHCC,2009-11-11 21:00,ZHCC 112100Z AUTO 04002KT 2 1/2SM M01/M02 A3047 RMK 70154 SLP333 T10091015 57005 IEM_DS3505
ZHCC,2009-11-11 22:00,ZHCC 112200Z AUTO 02004KT 3/8SM M02/M02 A3047 RMK T10201020 IEM_DS3505
ZHCC,2009-11-11 23:00,ZHCC 112300Z AUTO 36002KT 1/2SM M02/M02 A3047 RMK T10201020 IEM_DS3505
ZHCC,2009-11-12 00:00,ZHCC 120000Z AUTO 02002KT 4SM M00/M01 A3047 RMK 60063 70156 SLP338 T10051013 52005 IEM_DS3505
ZHCC,2009-11-12 01:00,ZHCC 120100Z AUTO 36004KT 1SM M02/M02 A3050 RMK T10201020 IEM_DS3505
ZHCC,2009-11-12 02:00,ZHCC 120200Z AUTO 35004KT 1 1/2SM M02/M02 A3050 RMK T10201020 IEM_DS3505
ZHCC,2009-11-12 03:00,ZHCC 120300Z AUTO 32004KT 5SM 00/M01 A3047 RMK SLP337 T00051008 54000 IEM_DS3505
ZHCC,2009-11-12 04:00,ZHCC 120400Z AUTO 36004KT 1SM M01/M02 A3045 RMK T10101020 IEM_DS3505
ZHCC,2009-11-12 05:00,ZHCC 120500Z AUTO 1SM M01/M01 A3042 RMK T10101010 IEM_DS3505
ZHCC,2009-11-12 06:00,ZHCC 120600Z AUTO 34006KT 6SM 02/M01 A3039 RMK 60000 SLP309 T00191014 57028 IEM_DS3505
ZHCC,2009-11-12 07:00,ZHCC 120700Z AUTO 32002KT 2 1/2SM 00/M01 A3039 RMK T00001010 IEM_DS3505
ZHCC,2009-11-12 08:00,ZHCC 120800Z AUTO 33004KT 2 1/2SM 00/M01 A3039 RMK T00001010 IEM_DS3505
ZHCC,2009-11-12 09:00,ZHCC 120900Z AUTO 07002KT 7SM 02/M02 A3039 RMK SLP308 T00151016 57001 IEM_DS3505
ZHCC,2009-11-12 10:00,ZHCC 121000Z AUTO 36004KT 2SM M01/M01 A3042 RMK T10101010 IEM_DS3505
ZHCC,2009-11-12 11:00,ZHCC 121100Z AUTO 2SM M02/M02 A3042 RMK T10201020 IEM_DS3505
ZHCC,2009-11-12 12:00,ZHCC 121200Z AUTO 00000KT 3SM M03/M04 A3042 RMK SLP317 T10281036 52008 IEM_DS3505
ZHCC,2009-11-12 13:00,ZHCC 121300Z AUTO 1SM M03/M04 A3042 RMK T10301040 IEM_DS3505
ZHCC,2009-11-12 14:00,ZHCC 121400Z AUTO 32004KT 1/2SM M04/M04 A3042 RMK T10401040 IEM_DS3505
ZHCC,2009-11-12 15:00,ZHCC 121500Z AUTO 00000KT 1/4SM M05/M05 A3042 RMK SLP319 T10481052 52002 IEM_DS3505
ZHCC,2009-11-12 16:00,ZHCC 121600Z AUTO 26002KT 1/4SM M08/M08 A3042 RMK T10801080 IEM_DS3505
ZHCC,2009-11-12 17:00,ZHCC 121700Z AUTO 00000KT 1/4SM M09/M10 A3042 RMK T10901100 IEM_DS3505
ZHCC,2009-11-12 18:00,ZHCC 121800Z AUTO 00000KT 1/8SM M09/M10 A3039 RMK T10901100 IEM_DS3505
ZHCC,2009-11-12 19:00,ZHCC 121900Z AUTO 00000KT 1/8SM M08/M09 A3039 RMK T10801090 IEM_DS3505
ZHCC,2009-11-12 20:00,ZHCC 122000Z AUTO 26002KT 1/8SM M10/M11 A3036 RMK T11001110 IEM_DS3505
ZHCC,2009-11-12 21:00,ZHCC 122100Z AUTO 22002KT 3/8SM M07/M08 A3036 RMK 70022 SLP289 T10711076 57016 IEM_DS3505
ZHCC,2009-11-12 22:00,ZHCC 122200Z AUTO 27002KT 1/4SM M11/M12 A3036 RMK T11101120 IEM_DS3505
ZHCC,2009-11-12 23:00,ZHCC 122300Z AUTO 00000KT 1/4SM M11/M13 A3036 RMK T11101130 IEM_DS3505
ZHCC,2009-11-13 00:00,ZHCC 130000Z AUTO 00000KT 1SM M06/M07 A3039 RMK 70000 SLP301 T10641071 52011 IEM_DS3505
ZHCC,2009-11-13 01:00,ZHCC 130100Z AUTO 19002KT 1/2SM M05/M06 A3039 RMK T10501060 IEM_DS3505
ZHCC,2009-11-13 02:00,ZHCC 130200Z AUTO 22004KT 1/2SM M02/M02 A3036 RMK T10201020 IEM_DS3505
ZHCC,2009-11-13 03:00,ZHCC 130300Z AUTO 09002KT 2SM 04/M02 A3036 RMK SLP294 T00411017 57005 IEM_DS3505
ZHCC,2009-11-13 04:00,ZHCC 130400Z AUTO 16004KT 1SM M01/M01 A3033 RMK T10101010 IEM_DS3505
ZHCC,2009-11-13 05:00,ZHCC 130500Z AUTO 18006KT 1SM 00/M01 A3030 RMK T00001010 IEM_DS3505
ZHCC,2009-11-13 06:00,ZHCC 130600Z AUTO 14004KT 4SM 05/M02 A3027 RMK SLP264 T00521019 57030 IEM_DS3505
ZHCC,2009-11-13 07:00,ZHCC 130700Z AUTO 17004KT 1 1/4SM 01/00 A3027 RMK T00100000 IEM_DS3505
ZHCC,2009-11-13 08:00,ZHCC 130800Z AUTO 15004KT 1 1/4SM 00/00 A3027 RMK T00000000 IEM_DS3505
ZHCC,2009-11-13 09:00,ZHCC 130900Z AUTO 07002KT 4SM 03/M02 A3027 RMK SLP258 T00331018 57006 IEM_DS3505
ZHCC,2009-11-13 10:00,ZHCC 131000Z AUTO 1SM M01/M02 A3027 RMK T10101020 IEM_DS3505
ZHCC,2009-11-13 11:00,ZHCC 131100Z AUTO 1SM M02/M02 A3027 RMK T10201020 IEM_DS3505
ZHCC,2009-11-13 12:00,ZHCC 131200Z AUTO 04002KT 1 1/4SM M01/M02 A3030 RMK SLP269 T10101024 52010 IEM_DS3505
ZHCC,2009-11-13 13:00,ZHCC 131300Z AUTO 18002KT 1/8SM M03/M03 A3030 RMK T10301030 IEM_DS3505
ZHCC,2009-11-13 14:00,ZHCC 131400Z AUTO 20004KT 1/8SM M02/M02 A3030 RMK T10201020 IEM_DS3505
ZHCC,2009-11-13 15:00,ZHCC 131500Z AUTO 09002KT 0SM M03/M03 A3030 RMK SLP274 T10301034 52007 IEM_DS3505
ZHCC,2009-11-13 16:00,ZHCC 131600Z AUTO 16002KT 1/8SM M02/M03 A3030 RMK T10201030 IEM_DS3505
ZHCC,2009-11-13 17:00,ZHCC 131700Z AUTO 16002KT 1/8SM M03/M03 A3030 RMK T10301030 IEM_DS3505
ZHCC,2009-11-13 18:00,ZHCC 131800Z AUTO 11002KT 0SM M02/M02 A3030 RMK SLP269 T10191023 57004 IEM_DS3505
ZHCC,2009-11-13 19:00,ZHCC 131900Z AUTO 17002KT 1/8SM M03/M03 A3030 RMK T10301030 IEM_DS3505
ZHCC,2009-11-13 20:00,ZHCC 132000Z AUTO 1/8SM M04/M04 A3030 RMK T10401040 IEM_DS3505
ZHCC,2009-11-13 21:00,ZHCC 132100Z AUTO 34002KT 1/2SM M02/M02 A3030 RMK SLP270 T10211024 54000 IEM_DS3505
ZHCC,2009-11-13 22:00,ZHCC 132200Z AUTO 1/8SM M04/M04 A3030 RMK T10401040 IEM_DS3505
ZHCC,2009-11-13 23:00,ZHCC 132300Z AUTO 03004KT 1/8SM M04/M04 A3030 RMK T10401040 IEM_DS3505
ZHCC,2009-11-14 00:00,ZHCC 140000Z AUTO 22004KT 1/2SM M02/M03 A3033 RMK SLP283 T10231027 52012 IEM_DS3505
ZHCC,2009-11-14 01:00,ZHCC 140100Z AUTO 02002KT 1/8SM M04/M04 A3033 RMK T10401040 IEM_DS3505
ZHCC,2009-11-14 02:00,ZHCC 140200Z AUTO 00000KT 1/8SM M03/M04 A3033 RMK T10301040 IEM_DS3505
ZHCC,2009-11-14 03:00,ZHCC 140300Z AUTO 34004KT 1SM M00/M02 A3033 RMK SLP285 T10021019 52002 IEM_DS3505
ZHCC,2009-11-14 04:00,ZHCC 140400Z AUTO 36004KT 1/4SM M02/M03 A3033 RMK T10201030 IEM_DS3505
ZHCC,2009-11-14 05:00,ZHCC 140500Z AUTO 02004KT 3/8SM M02/M02 A3030 RMK T10201020 IEM_DS3505
ZHCC,2009-11-14 06:00,ZHCC 140600Z AUTO 07006KT 1SM 02/M02 A3027 RMK SLP264 T00231015 57020 IEM_DS3505
ZHCC,2009-11-14 07:00,ZHCC 140700Z AUTO 3/8SM M02/M02 A3027 RMK T10201020 IEM_DS3505
ZHCC,2009-11-14 08:00,ZHCC 140800Z AUTO 3/8SM M02/M02 A3027 RMK T10201020 IEM_DS3505
ZHCC,2009-11-14 09:00,ZHCC 140900Z AUTO 07006KT 1 1/4SM M01/M03 A3030 RMK SLP271 T10101026 52006 IEM_DS3505
ZHCC,2009-11-14 10:00,ZHCC 141000Z AUTO 03004KT 3/8SM M03/M03 A3033 RMK T10301030 IEM_DS3505
ZHCC,2009-11-14 11:00,ZHCC 141100Z AUTO 36006KT 3/8SM M03/M03 A3036 RMK T10301030 IEM_DS3505
ZHCC,2009-11-14 12:00,ZHCC 141200Z AUTO 04004KT 1 1/4SM M01/M03 A3036 RMK SLP299 T10121026 52027 IEM_DS3505
ZHCC,2009-11-14 13:00,ZHCC 141300Z AUTO 01006KT 3/8SM M03/M03 A3039 RMK T10301030 IEM_DS3505
ZHCC,2009-11-14 14:00,ZHCC 141400Z AUTO 01006KT 1/2SM M03/M03 A3039 RMK T10301030 IEM_DS3505
ZHCC,2009-11-14 15:00,ZHCC 141500Z AUTO 07004KT 2SM M02/M04 A3039 RMK SLP306 T10181041 52008 IEM_DS3505
ZHCC,2009-11-14 16:00,ZHCC 141600Z AUTO 36006KT 1SM M04/M04 A3039 RMK T10401040 IEM_DS3505
ZHCC,2009-11-14 17:00,ZHCC 141700Z AUTO 34004KT 1 1/4SM M04/M04 A3042 RMK T10401040 IEM_DS3505
ZHCC,2009-11-14 18:00,ZHCC 141800Z AUTO 04002KT 4SM M01/M07 A3042 RMK SLP310 T10091073 52005 IEM_DS3505
ZHCC,2009-11-14 19:00,ZHCC 141900Z AUTO 34006KT 1 1/2SM M04/M04 A3042 RMK T10401040 IEM_DS3505
ZHCC,2009-11-14 20:00,ZHCC 142000Z AUTO 31006KT 2SM M03/M04 A3042 RMK T10301040 IEM_DS3505
ZHCC,2009-11-14 21:00,ZHCC 142100Z AUTO 04002KT 4SM M00/M08 A3045 RMK SLP319 T10051075 52008 IEM_DS3505
ZHCC,2009-11-14 22:00,ZHCC 142200Z AUTO 35008KT 3SM M03/M03 A3042 RMK T10301030 IEM_DS3505
ZHCC,2009-11-14 23:00,ZHCC 142300Z AUTO 33008KT 2SM M02/M03 A3045 RMK T10201030 IEM_DS3505
ZHCC,2009-11-15 00:00,ZHCC 150000Z AUTO 04006KT 6SM M00/M08 A3045 RMK SLP329 T10051080 52009 IEM_DS3505
ZHCC,2009-11-15 01:00,ZHCC 150100Z AUTO 35010KT 2SM M02/M04 A3045 RMK T10201040 IEM_DS3505
ZHCC,2009-11-15 02:00,ZHCC 150200Z AUTO 32008KT 2SM M02/M05 A3047 RMK T10201050 IEM_DS3505
ZHCC,2009-11-15 03:00,ZHCC 150300Z AUTO 36004KT 7SM M00/M08 A3050 RMK SLP351 T10051084 52022 IEM_DS3505
ZHCC,2009-11-15 04:00,ZHCC 150400Z AUTO 32008KT 2SM M02/M06 A3050 RMK T10201060 IEM_DS3505
ZHCC,2009-11-15 05:00,ZHCC 150500Z AUTO 31008KT 2SM M02/M06 A3047 RMK T10201060 IEM_DS3505
ZHCC,2009-11-15 06:00,ZHCC 150600Z AUTO 02004KT 9SM M00/M10 A3047 RMK SLP337 T10041101 57014 IEM_DS3505
ZHCC,2009-11-15 07:00,ZHCC 150700Z AUTO 33008KT 2 1/2SM M02/M08 A3047 RMK T10201080 IEM_DS3505
ZHCC,2009-11-15 08:00,ZHCC 150800Z AUTO 34008KT 1 1/4SM M03/M06 A3050 RMK T10301060 IEM_DS3505
ZHCC,2009-11-15 09:00,ZHCC 150900Z AUTO 09002KT 4SM M03/M05 A3050 RMK SLP345 T10271050 52008 IEM_DS3505
ZHCC,2009-11-15 10:00,ZHCC 151000Z AUTO 00000KT 2SM M04/M05 A3050 RMK T10401050 IEM_DS3505
ZHCC,2009-11-15 11:00,ZHCC 151100Z AUTO 27002KT 2 1/2SM M04/M05 A3053 RMK T10401050 IEM_DS3505
ZHCC,2009-11-15 12:00,ZHCC 151200Z AUTO 25002KT 4SM M02/M05 A3056 RMK 60002 SLP362 T10211049 52017 IEM_DS3505
ZHCC,2009-11-15 13:00,ZHCC 151300Z AUTO 26006KT 2 1/2SM M04/M05 A3056 RMK T10401050 IEM_DS3505
ZHCC,2009-11-15 14:00,ZHCC 151400Z AUTO 27008KT 2 1/2SM M03/M05 A3059 RMK T10301050 IEM_DS3505
ZHCC,2009-11-15 15:00,ZHCC 151500Z AUTO 32004KT 5SM M01/M06 A3059 RMK SLP381 T10141062 52019 IEM_DS3505
ZHCC,2009-11-15 16:00,ZHCC 151600Z AUTO 30006KT 2 1/2SM M03/M04 A3062 RMK T10301040 IEM_DS3505
ZHCC,2009-11-15 17:00,ZHCC 151700Z AUTO 31004KT 2 1/2SM M03/M05 A3062 RMK T10301050 IEM_DS3505
ZHCC,2009-11-15 18:00,ZHCC 151800Z AUTO 34002KT 6SM M01/M07 A3062 RMK SLP380 T10131074 57001 IEM_DS3505
ZHCC,2009-11-15 19:00,ZHCC 151900Z AUTO 32008KT 2 1/2SM M02/M07 A3062 RMK T10201070 IEM_DS3505
ZHCC,2009-11-15 20:00,ZHCC 152000Z AUTO 33010KT 3SM M03/M07 A3059 RMK T10301070 IEM_DS3505
ZHCC,2009-11-15 21:00,ZHCC 152100Z AUTO 32002KT 6SM M01/M08 A3059 RMK 70002 SLP383 T10131076 52002 IEM_DS3505
ZHCC,2009-11-15 22:00,ZHCC 152200Z AUTO 34008KT 3SM M03/M08 A3062 RMK T10301080 IEM_DS3505
ZHCC,2009-11-15 23:00,ZHCC 152300Z AUTO 36008KT 3SM M04/M09 A3065 RMK T10401090 IEM_DS3505
ZHCC,2009-11-16 00:00,ZHCC 160000Z AUTO 04006KT 6SM M02/M12 A3065 RMK 70002 SLP401 T10201115 52018 IEM_DS3505
ZHCC,2009-11-16 01:00,ZHCC 160100Z AUTO 35010KT 3SM M03/M10 A3068 RMK T10301100 IEM_DS3505
ZHCC,2009-11-16 02:00,ZHCC 160200Z AUTO 35010G21KT 3SM M03/M10 A3068 RMK T10301100 IEM_DS3505
ZHCC,2009-11-16 03:00,ZHCC 160300Z AUTO 04006G19KT 7SM M02/M11 A3068 RMK SLP415 T10151113 52014 IEM_DS3505
ZHCC,2009-11-16 04:00,ZHCC 160400Z AUTO 31008KT 3SM M02/M10 A3068 RMK T10201100 IEM_DS3505
ZHCC,2009-11-16 05:00,ZHCC 160500Z AUTO 32008KT 3SM M02/M10 A3065 RMK T10201100 IEM_DS3505
ZHCC,2009-11-16 06:00,ZHCC 160600Z AUTO 07002KT 7SM M01/M13 A3065 RMK SLP396 T10061128 57019 IEM_DS3505
ZHCC,2009-11-16 07:00,ZHCC 160700Z AUTO 31004KT 4SM M02/M12 A3065 RMK T10201120 IEM_DS3505
ZHCC,2009-11-16 08:00,ZHCC 160800Z AUTO 34002KT 4SM M02/M11 A3065 RMK T10201110 IEM_DS3505
ZHCC,2009-11-16 09:00,ZHCC 160900Z AUTO 16002KT 8SM M01/M12 A3065 RMK SLP395 T10091125 57001 IEM_DS3505
ZHCC,2009-11-16 10:00,ZHCC 161000Z AUTO 29004KT 4SM M02/M11 A3065 RMK T10201110 IEM_DS3505
ZHCC,2009-11-16 11:00,ZHCC 161100Z AUTO 31002KT 4SM M03/M11 A3068 RMK T10301110 IEM_DS3505
ZHCC,2009-11-16 12:00,ZHCC 161200Z AUTO 14002KT 6SM M02/M10 A3068 RMK SLP405 T10161097 52010 IEM_DS3505
ZHCC,2009-11-16 13:00,ZHCC 161300Z AUTO 00000KT 3SM M02/M09 A3068 RMK T10201090 IEM_DS3505
ZHCC,2009-11-16 14:00,ZHCC 161400Z AUTO 27002KT 3SM M03/M08 A3071 RMK T10301080 IEM_DS3505
ZHCC,2009-11-16 15:00,ZHCC 161500Z AUTO 00000KT 6SM M02/M06 A3071 RMK SLP411 T10251065 52006 IEM_DS3505
ZHCC,2009-11-16 16:00,ZHCC 161600Z AUTO 00000KT 3SM M05/M08 A3068 RMK T10501080 IEM_DS3505
ZHCC,2009-11-16 17:00,ZHCC 161700Z AUTO 16004KT 3SM M04/M07 A3071 RMK T10401070 IEM_DS3505
ZHCC,2009-11-16 18:00,ZHCC 161800Z AUTO 00000KT 5SM M04/M06 A3068 RMK SLP401 T10391064 57010 IEM_DS3505
ZHCC,2009-11-16 19:00,ZHCC 161900Z AUTO 20004KT 2SM M06/M08 A3065 RMK T10601080 IEM_DS3505
ZHCC,2009-11-16 20:00,ZHCC 162000Z AUTO 18006KT 2SM M07/M09 A3065 RMK T10701090 IEM_DS3505
ZHCC,2009-11-16 21:00,ZHCC 162100Z AUTO 29006KT 6SM M02/M08 A3062 RMK SLP389 T10151085 57012 IEM_DS3505
ZHCC,2009-11-16 22:00,ZHCC 162200Z AUTO 24006KT 2 1/2SM M04/M06 A3065 RMK T10401060 IEM_DS3505
ZHCC,2009-11-16 23:00,ZHCC 162300Z AUTO 27014KT 4SM M02/M09 A3065 RMK T10201090 IEM_DS3505
ZHCC,2009-11-17 00:00,ZHCC 170000Z AUTO 29006KT 9SM M01/M09 A3065 RMK SLP404 T10081094 52015 IEM_DS3505
ZHCC,2009-11-17 01:00,ZHCC 170100Z AUTO 27016KT 6SM M01/M09 A3068 RMK T10101090 IEM_DS3505
ZHCC,2009-11-17 02:00,ZHCC 170200Z AUTO 28014KT 6SM 00/M09 A3068 RMK T00001090 IEM_DS3505
ZHCC,2009-11-17 03:00,ZHCC 170300Z AUTO 29010KT 12SM 02/M13 A3068 RMK SLP404 T00181128 52001 IEM_DS3505
ZHCC,2009-11-17 04:00,ZHCC 170400Z AUTO 27017KT 6SM 01/M11 A3065 RMK T00101110 IEM_DS3505
ZHCC,2009-11-17 05:00,ZHCC 170500Z AUTO 26014KT 6SM 01/M10 A3062 RMK T00101100 IEM_DS3505
ZHCC,2009-11-17 06:00,ZHCC 170600Z AUTO 29004KT 16SM 03/M13 A3059 RMK SLP371 T00331126 57033 IEM_DS3505
ZHCC,2009-11-17 07:00,ZHCC 170700Z AUTO 27010KT 6SM 02/M10 A3056 RMK T00201100 IEM_DS3505
ZHCC,2009-11-17 08:00,ZHCC 170800Z AUTO 27010KT 6SM 02/M10 A3056 RMK T00201100 IEM_DS3505
ZHCC,2009-11-17 09:00,ZHCC 170900Z AUTO 25002KT 16SM 03/M10 A3053 RMK SLP349 T00311098 57021 IEM_DS3505
ZHCC,2009-11-17 10:00,ZHCC 171000Z AUTO 13002KT 6SM M01/M09 A3053 RMK T10101090 IEM_DS3505
ZHCC,2009-11-17 11:00,ZHCC 171100Z AUTO 17004KT 6SM M02/M06 A3053 RMK T10201060 IEM_DS3505
ZHCC,2009-11-17 12:00,ZHCC 171200Z AUTO 22002KT 10SM M00/M09 A3053 RMK SLP353 T10041088 52003 IEM_DS3505
ZHCC,2009-11-17 13:00,ZHCC 171300Z AUTO 17004KT 6SM M03/M08 A3053 RMK T10301080 IEM_DS3505
ZHCC,2009-11-17 14:00,ZHCC 171400Z AUTO 15006KT 6SM M02/M08 A3053 RMK T10201080 IEM_DS3505
ZHCC,2009-11-17 15:00,ZHCC 171500Z AUTO 18002KT 7SM M03/M07 A3053 RMK SLP350 T10281073 57003 IEM_DS3505
ZHCC,2009-11-17 16:00,ZHCC 171600Z AUTO 17006KT 6SM M02/M08 A3053 RMK T10201080 IEM_DS3505
ZHCC,2009-11-17 17:00,ZHCC 171700Z AUTO 17004KT M04/M08 A3050 RMK T10401080 IEM_DS3505
ZHCC,2009-11-17 18:00,ZHCC 171800Z AUTO 00000KT 6SM M04/M07 A3047 RMK SLP337 T10351071 57012 IEM_DS3505
ZHCC,2009-11-17 19:00,ZHCC 171900Z AUTO 23004KT M05/M08 A3047 RMK T10501080 IEM_DS3505
ZHCC,2009-11-17 20:00,ZHCC 172000Z AUTO 21004KT M04/M06 A3047 RMK T10401060 IEM_DS3505
ZHCC,2009-11-17 21:00,ZHCC 172100Z AUTO 29002KT 9SM M02/M08 A3045 RMK SLP325 T10171076 57012 IEM_DS3505
ZHCC,2009-11-17 22:00,ZHCC 172200Z AUTO 18004KT 6SM M04/M07 A3047 RMK T10401070 IEM_DS3505
ZHCC,2009-11-17 23:00,ZHCC 172300Z AUTO 25002KT 3SM M03/M06 A3047 RMK T10301060 IEM_DS3505
ZHCC,2009-11-18 00:00,ZHCC 180000Z AUTO 25004KT 9SM M01/M07 A3050 RMK SLP342 T10071069 52016 IEM_DS3505
ZHCC,2009-11-18 01:00,ZHCC 180100Z AUTO 15004KT 1 1/2SM 00/M06 A3050 RMK T00001060 IEM_DS3505
ZHCC,2009-11-18 02:00,ZHCC 180200Z AUTO 17006KT 1 1/2SM 01/M05 A3050 RMK T00101050 IEM_DS3505
ZHCC,2009-11-18 03:00,ZHCC 180300Z AUTO 27006KT 8SM 04/M10 A3047 RMK SLP336 T00431095 57005 IEM_DS3505
ZHCC,2009-11-18 04:00,ZHCC 180400Z AUTO 19006KT 2 1/2SM 03/M08 A3047 RMK T00301080 IEM_DS3505
ZHCC,2009-11-18 05:00,ZHCC 180500Z AUTO 17006KT 2 1/2SM 04/M08 A3045 RMK T00401080 IEM_DS3505
ZHCC,2009-11-18 06:00,ZHCC 180600Z AUTO 27004KT 11SM 06/M09 A3042 RMK SLP314 T00561090 57021 IEM_DS3505
ZHCC,2009-11-18 07:00,ZHCC 180700Z AUTO 17004KT 2SM 04/M03 A3042 RMK T00401030 IEM_DS3505
ZHCC,2009-11-18 08:00,ZHCC 180800Z AUTO 2SM 03/M03 A3042 RMK T00301030 IEM_DS3505
ZHCC,2009-11-18 09:00,ZHCC 180900Z AUTO 25002KT 11SM 05/M06 A3042 RMK SLP310 T00501062 57004 IEM_DS3505
ZHCC,2009-11-18 10:00,ZHCC 181000Z AUTO 1 1/4SM 02/M02 A3042 RMK T00201020 IEM_DS3505
ZHCC,2009-11-18 11:00,ZHCC 181100Z AUTO 18002KT 1 1/4SM 02/M02 A3045 RMK T00201020 IEM_DS3505
ZHCC,2009-11-18 12:00,ZHCC 181200Z AUTO 25002KT 10SM 04/M05 A3045 RMK SLP320 T00351054 52010 IEM_DS3505
ZHCC,2009-11-18 13:00,ZHCC 181300Z AUTO 00000KT 1 1/4SM 00/M03 A3045 RMK T00001030 IEM_DS3505
ZHCC,2009-11-18 14:00,ZHCC 181400Z AUTO 18002KT 1 1/4SM 00/M03 A3047 RMK T00001030 IEM_DS3505
ZHCC,2009-11-18 15:00,ZHCC 181500Z AUTO 00000KT 6SM M01/M04 A3050 RMK SLP335 T10081036 52015 IEM_DS3505
ZHCC,2009-11-18 16:00,ZHCC 181600Z AUTO 00000KT 1SM M01/M03 A3050 RMK T10101030 IEM_DS3505
ZHCC,2009-11-18 17:00,ZHCC 181700Z AUTO 33002KT 1SM M02/M04 A3050 RMK T10201040 IEM_DS3505
ZHCC,2009-11-18 18:00,ZHCC 181800Z AUTO 32006KT 6SM 01/M05 A3050 RMK SLP340 T00141051 52006 IEM_DS3505
ZHCC,2009-11-18 19:00,ZHCC 181900Z AUTO 32004KT M02/M04 A3050 RMK T10201040 IEM_DS3505
ZHCC,2009-11-18 20:00,ZHCC 182000Z AUTO 33006KT 2SM M02/M04 A3053 RMK T10201040 IEM_DS3505
ZHCC,2009-11-18 21:00,ZHCC 182100Z AUTO 34004KT 6SM M01/M04 A3050 RMK SLP348 T10061035 52007 IEM_DS3505
ZHCC,2009-11-18 22:00,ZHCC 182200Z AUTO 35006KT 1SM M02/M04 A3053 RMK T10201040 IEM_DS3505
ZHCC,2009-11-18 23:00,ZHCC 182300Z AUTO 34008KT 1SM M02/M04 A3056 RMK T10201040 IEM_DS3505
ZHCC,2009-11-19 00:00,ZHCC 190000Z AUTO 34002KT 5SM M00/M04 A3059 RMK SLP377 T10041038 52028 IEM_DS3505
ZHCC,2009-11-19 01:00,ZHCC 190100Z AUTO 31008KT 1SM M01/M03 A3062 RMK T10101030 IEM_DS3505
ZHCC,2009-11-19 02:00,ZHCC 190200Z AUTO 33006KT 1SM 01/M03 A3062 RMK T00101030 IEM_DS3505
ZHCC,2009-11-19 03:00,ZHCC 190300Z AUTO 32002KT 6SM 04/M07 RMK SLP382 T00391072 52005 IEM_DS3505
ZHCC,2009-11-19 04:00,ZHCC 190400Z AUTO 02004KT 1 1/4SM 02/M04 A3059 RMK T00201040 IEM_DS3505
ZHCC,2009-11-19 05:00,ZHCC 190500Z AUTO 1 1/4SM 03/M04 A3059 RMK T00301040 IEM_DS3505
ZHCC,2009-11-19 06:00,ZHCC 190600Z AUTO 09004KT 7SM 05/M10 A3056 RMK SLP358 T00501103 57023 IEM_DS3505
ZHCC,2009-11-19 07:00,ZHCC 190700Z AUTO 34002KT 2SM 04/M04 A3053 RMK T00401040 IEM_DS3505
ZHCC,2009-11-19 08:00,ZHCC 190800Z AUTO 00000KT 2SM 04/M05 A3056 RMK T00401050 IEM_DS3505
ZHCC,2009-11-19 09:00,ZHCC 190900Z AUTO 00000KT 7SM 04/M10 A3056 RMK SLP359 T00411104 54000 IEM_DS3505
ZHCC,2009-11-19 10:00,ZHCC 191000Z AUTO 29002KT 2SM 02/M05 A3056 RMK T00201050 IEM_DS3505
ZHCC,2009-11-19 11:00,ZHCC 191100Z AUTO 00000KT 2 1/2SM 02/M04 A3056 RMK T00201040 IEM_DS3505
ZHCC,2009-11-19 12:00,ZHCC 191200Z 15002MPS 4000 HZ NSC 02/M03 Q1035 NOSIG
ZHCC,2009-11-19 13:00,ZHCC 191300Z AUTO 2SM 02/M04 A3059 RMK T00201040 IEM_DS3505
ZHCC,2009-11-19 14:00,ZHCC 191400Z AUTO 22004KT 2SM 02/M03 A3059 RMK T00201030 IEM_DS3505
ZHCC,2009-11-19 15:00,ZHCC 191500Z AUTO 18002KT 6SM 02/M03 A3059 RMK SLP366 T00241031 52004 IEM_DS3505
ZHCC,2009-11-19 16:00,ZHCC 191600Z AUTO 2SM 02/M02 A3053 RMK T00201020 IEM_DS3505
ZHCC,2009-11-19 17:00,ZHCC 191700Z AUTO 22004KT 2SM 02/M02 A3053 RMK T00201020 IEM_DS3505
ZHCC,2009-11-19 18:00,ZHCC 191800Z AUTO 18004KT 1 1/4SM 02/M03 A3053 RMK T00201030 IEM_DS3505
ZHCC,2009-11-19 19:00,ZHCC 191900Z AUTO 18006KT 1 1/4SM 02/M03 A3050 RMK T00201030 IEM_DS3505
ZHCC,2009-11-19 20:00,ZHCC 192000Z AUTO 23006KT 02/M03 A3047 RMK T00201030 IEM_DS3505
ZHCC,2009-11-19 21:00,ZHCC 192100Z AUTO 27010KT 7SM 04/M05 A3047 RMK SLP332 T00421048 57013 IEM_DS3505
ZHCC,2009-11-19 22:00,ZHCC 192200Z AUTO 26012KT 4SM 04/M04 A3047 RMK T00401040 IEM_DS3505
ZHCC,2009-11-19 23:00,ZHCC 192300Z AUTO 26014KT 5SM 04/M04 A3050 RMK T00401040 IEM_DS3505
ZHCC,2009-11-20 00:00,ZHCC 200000Z AUTO 27008KT 8SM 05/M05 A3053 RMK SLP358 T00461052 52025 IEM_DS3505
ZHCC,2009-11-20 01:00,ZHCC 200100Z AUTO 27017KT 4SM 05/M04 A3056 RMK T00501040 IEM_DS3505
ZHCC,2009-11-20 02:00,ZHCC 200200Z AUTO 27017KT 3SM 06/M04 A3059 RMK T00601040 IEM_DS3505
ZHCC,2009-11-20 03:00,ZHCC 200300Z AUTO 29014G27KT 8SM 06/M05 A3059 RMK SLP370 T00641053 52013 IEM_DS3505
ZHCC,2009-11-20 04:00,ZHCC 200400Z AUTO 27019KT 3SM 08/M03 A3059 RMK T00801030 IEM_DS3505
ZHCC,2009-11-20 05:00,ZHCC 200500Z AUTO 28016KT 3SM 08/M04 A3056 RMK T00801040 IEM_DS3505
ZHCC,2009-11-20 06:00,ZHCC 200600Z AUTO 27006KT 6SM 09/M04 A3056 RMK SLP354 T00861036 57015 IEM_DS3505
ZHCC,2009-11-20 07:00,ZHCC 200700Z AUTO 28010KT 3SM 09/M04 A3056 RMK T00901040 IEM_DS3505
ZHCC,2009-11-20 08:00,ZHCC 200800Z AUTO 30008KT 3SM 08/M04 A3056 RMK T00801040 IEM_DS3505
ZHCC,2009-11-20 09:00,ZHCC 200900Z AUTO 29004KT 8SM 08/M06 A3056 RMK SLP358 T00781056 52004 IEM_DS3505
ZHCC,2009-11-20 10:00,ZHCC 201000Z AUTO 23004KT 3SM 06/M04 A3056 RMK T00601040 IEM_DS3505
ZHCC,2009-11-20 11:00,ZHCC 201100Z AUTO 24006KT 3SM 05/M05 A3059 RMK T00501050 IEM_DS3505
ZHCC,2009-11-20 12:00,ZHCC 201200Z AUTO 27004KT 8SM 05/M06 A3062 RMK SLP376 T00491055 52017 IEM_DS3505
ZHCC,2009-11-20 13:00,ZHCC 201300Z AUTO 26006KT 4SM 03/M06 A3062 RMK T00301060 IEM_DS3505
ZHCC,2009-11-20 14:00,ZHCC 201400Z AUTO 21004KT 4SM 03/M05 A3062 RMK T00301050 IEM_DS3505
ZHCC,2009-11-20 15:00,ZHCC 201500Z AUTO 29006KT 8SM 04/M06 A3062 RMK SLP382 T00441062 52006 IEM_DS3505
ZHCC,2009-11-20 16:00,ZHCC 201600Z AUTO 27010KT 4SM 02/M06 A3062 RMK T00201060 IEM_DS3505
ZHCC,2009-11-20 17:00,ZHCC 201700Z AUTO 27012KT 4SM 03/M06 A3059 RMK T00301060 IEM_DS3505
ZHCC,2009-11-20 18:00,ZHCC 201800Z AUTO 29006KT 7SM 04/M08 A3059 RMK SLP368 T00381082 57013 IEM_DS3505
ZHCC,2009-11-20 19:00,ZHCC 201900Z AUTO 27006KT 01/M07 A3056 RMK T00101070 IEM_DS3505
ZHCC,2009-11-20 20:00,ZHCC 202000Z AUTO 23004KT 00/M06 A3053 RMK T00001060 IEM_DS3505
ZHCC,2009-11-20 21:00,ZHCC 202100Z AUTO 25004KT 7SM 01/M06 A3053 RMK SLP348 T00081065 57021 IEM_DS3505
ZHCC,2009-11-20 22:00,ZHCC 202200Z AUTO 23004KT 3SM M01/M06 A3050 RMK T10101060 IEM_DS3505
ZHCC,2009-11-20 23:00,ZHCC 202300Z AUTO 18004KT 3SM M02/M06 A3050 RMK T10201060 IEM_DS3505
ZHCC,2009-11-21 00:00,ZHCC 210000Z AUTO 27002KT 6SM 01/M06 A3050 RMK SLP344 T00061065 57005 IEM_DS3505
ZHCC,2009-11-21 01:00,ZHCC 210100Z AUTO 22002KT 2 1/2SM 03/M04 A3050 RMK T00301040 IEM_DS3505
ZHCC,2009-11-21 02:00,ZHCC 210200Z AUTO 20006KT 2 1/2SM 05/M05 A3047 RMK T00501050 IEM_DS3505
ZHCC,2009-11-21 03:00,ZHCC 210300Z AUTO 20006KT 7SM 07/M06 A3047 RMK SLP326 T00731061 57016 IEM_DS3505
ZHCC,2009-11-21 04:00,ZHCC 210400Z AUTO 21008KT 3SM 07/M04 A3042 RMK T00701040 IEM_DS3505
ZHCC,2009-11-21 05:00,ZHCC 210500Z AUTO 22010KT 3SM 08/M05 A3039 RMK T00801050 IEM_DS3505
ZHCC,2009-11-21 06:00,ZHCC 210600Z AUTO 18010KT 11SM 10/M06 A3033 RMK SLP275 T00961055 57050 IEM_DS3505
ZHCC,2009-11-21 07:00,ZHCC 210700Z AUTO 20008KT 3SM 08/M03 A3030 RMK T00801030 IEM_DS3505
ZHCC,2009-11-21 08:00,ZHCC 210800Z AUTO 20008KT 4SM 08/M04 A3027 RMK T00801040 IEM_DS3505
ZHCC,2009-11-21 09:00,ZHCC 210900Z AUTO 16006KT 11SM 08/M03 A3027 RMK SLP255 T00791027 57021 IEM_DS3505
ZHCC,2009-11-21 10:00,ZHCC 211000Z AUTO 19004KT 3SM 05/M02 A3027 RMK T00501020 IEM_DS3505
ZHCC,2009-11-21 11:00,ZHCC 211100Z AUTO 18004KT 3SM 05/M02 A3027 RMK T00501020 IEM_DS3505
ZHCC,2009-11-21 12:00,ZHCC 211200Z AUTO 16002KT 11SM 04/M03 A3024 RMK SLP251 T00441027 57005 IEM_DS3505
ZHCC,2009-11-21 13:00,ZHCC 211300Z AUTO 19004KT 3SM 04/M02 A3024 RMK T00401020 IEM_DS3505
ZHCC,2009-11-21 14:00,ZHCC 211400Z AUTO 19004KT 3SM 03/M02 A3024 RMK T00301020 IEM_DS3505
ZHCC,2009-11-21 15:00,ZHCC 211500Z AUTO 16004KT 8SM 03/M03 A3021 RMK SLP241 T00301031 57008 IEM_DS3505
ZHCC,2009-11-21 16:00,ZHCC 211600Z AUTO 19004KT 3SM 02/M02 A3021 RMK T00201020 IEM_DS3505
ZHCC,2009-11-21 17:00,ZHCC 211700Z AUTO 20004KT 02/M02 A3018 RMK T00201020 IEM_DS3505
ZHCC,2009-11-21 18:00,ZHCC 211800Z AUTO 20002KT 7SM M01/M03 A3018 RMK SLP231 T10061028 57010 IEM_DS3505
ZHCC,2009-11-21 19:00,ZHCC 211900Z AUTO 24002KT M01/M04 A3018 RMK T10101040 IEM_DS3505
ZHCC,2009-11-21 20:00,ZHCC 212000Z AUTO 2SM M01/M04 A3015 RMK T10101040 IEM_DS3505
ZHCC,2009-11-21 21:00,ZHCC 212100Z AUTO 25002KT 5SM M01/M03 A3015 RMK SLP221 T10141030 57011 IEM_DS3505
ZHCC,2009-11-21 22:00,ZHCC 212200Z AUTO 32002KT 1 1/4SM M02/M04 A3015 RMK T10201040 IEM_DS3505
ZHCC,2009-11-21 23:00,ZHCC 212300Z AUTO 22002KT 1SM M03/M04 A3018 RMK T10301040 IEM_DS3505
ZHCC,2009-11-22 00:00,ZHCC 220000Z AUTO 00000KT 5SM M00/M02 A3018 RMK SLP233 T10041021 52011 IEM_DS3505
ZHCC,2009-11-22 01:00,ZHCC 220100Z AUTO 19004KT 1SM 03/01 A3018 RMK T00300010 IEM_DS3505
ZHCC,2009-11-22 02:00,ZHCC 220200Z AUTO 1 1/2SM 07/01 A3018 RMK T00700010 IEM_DS3505
ZHCC,2009-11-22 03:00,ZHCC 220300Z AUTO 25002KT 5SM 11/M02 A3018 RMK SLP227 T01071023 57003 IEM_DS3505
ZHCC,2009-11-22 04:00,ZHCC 220400Z AUTO 16004KT 2SM 11/01 A3015 RMK T01100010 IEM_DS3505
ZHCC,2009-11-22 05:00,ZHCC 220500Z AUTO 18006KT 2SM 12/02 A3012 RMK T01200020 IEM_DS3505
ZHCC,2009-11-22 06:00,ZHCC 220600Z AUTO 16004KT 8SM 15/M01 A3012 RMK SLP203 T01461011 57024 IEM_DS3505
ZHCC,2009-11-22 07:00,ZHCC 220700Z AUTO 17006KT 2SM 12/03 A3009 RMK T01200030 IEM_DS3505
ZHCC,2009-11-22 08:00,ZHCC 220800Z AUTO 17006KT 2SM 12/04 A3009 RMK T01200040 IEM_DS3505
ZHCC,2009-11-22 09:00,ZHCC 220900Z AUTO 14004KT 8SM 12/03 A3009 RMK SLP201 T01180031 57003 IEM_DS3505
ZHCC,2009-11-22 10:00,ZHCC 221000Z AUTO 1 1/2SM 08/04 A3012 RMK T00800040 IEM_DS3505
ZHCC,2009-11-22 11:00,ZHCC 221100Z AUTO 1 1/2SM 07/04 A3012 RMK T00700040 IEM_DS3505
ZHCC,2009-11-22 12:00,ZHCC 221200Z AUTO 20002KT 6SM 05/03 A3012 RMK SLP211 T00510026 52009 IEM_DS3505
ZHCC,2009-11-22 13:00,ZHCC 221300Z AUTO 21002KT 1 1/2SM 05/02 A3012 RMK T00500020 IEM_DS3505
ZHCC,2009-11-22 14:00,ZHCC 221400Z AUTO 21002KT 1 1/2SM 06/03 A3012 RMK T00600030 IEM_DS3505
ZHCC,2009-11-22 15:00,ZHCC 221500Z AUTO 00000KT 6SM 02/01 A3012 RMK SLP210 T00250012 52001 IEM_DS3505
ZHCC,2009-11-22 16:00,ZHCC 221600Z AUTO 21002KT 1 1/4SM 04/01 A3012 RMK T00400010 IEM_DS3505
ZHCC,2009-11-22 17:00,ZHCC 221700Z AUTO 00000KT 1 1/4SM 02/00 A3012 RMK T00200000 IEM_DS3505
ZHCC,2009-11-22 18:00,ZHCC 221800Z AUTO 00000KT 4SM 01/00 A3012 RMK SLP207 T00130004 57002 IEM_DS3505
ZHCC,2009-11-22 19:00,ZHCC 221900Z AUTO 28002KT 1SM 00/M01 A3012 RMK T00001010 IEM_DS3505
ZHCC,2009-11-22 20:00,ZHCC 222000Z AUTO 00000KT 1/2SM 00/M01 A3012 RMK T00001010 IEM_DS3505
ZHCC,2009-11-22 21:00,ZHCC 222100Z AUTO 29002KT 2SM 01/M00 A3009 RMK SLP201 T00061003 57007 IEM_DS3505
ZHCC,2009-11-22 22:00,ZHCC 222200Z AUTO 00000KT 3/8SM 00/M01 A3009 RMK T00001010 IEM_DS3505
ZHCC,2009-11-22 23:00,ZHCC 222300Z AUTO 3/8SM M01/M02 A3012 RMK T10101020 IEM_DS3505
ZHCC,2009-11-23 00:00,ZHCC 230000Z AUTO 32002KT 1 1/4SM 01/00 A3012 RMK SLP211 T00080001 52008 IEM_DS3505
ZHCC,2009-11-23 01:00,ZHCC 230100Z AUTO 17004KT 1/2SM 04/03 A3012 RMK T00400030 IEM_DS3505
ZHCC,2009-11-23 02:00,ZHCC 230200Z AUTO 1SM 06/06 A3012 RMK T00600060 IEM_DS3505
ZHCC,2009-11-23 03:00,ZHCC 230300Z AUTO 07004KT 4SM 10/03 A3012 RMK SLP203 T00960034 57006 IEM_DS3505
ZHCC,2009-11-23 04:00,ZHCC 230400Z AUTO 19008KT 1 1/4SM 11/06 A3006 RMK T01100060 IEM_DS3505
ZHCC,2009-11-23 05:00,ZHCC 230500Z AUTO 18006KT 1 1/4SM 12/05 A3003 RMK T01200050 IEM_DS3505
ZHCC,2009-11-23 06:00,ZHCC 230600Z AUTO 14002KT 6SM 14/05 A3003 RMK SLP171 T01350046 57031 IEM_DS3505
ZHCC,2009-11-23 07:00,ZHCC 230700Z AUTO 15006KT 2SM 13/06 A3000 RMK T01300060 IEM_DS3505
ZHCC,2009-11-23 08:00,ZHCC 230800Z AUTO 14006KT 2SM 13/06 A3000 RMK T01300060 IEM_DS3505
ZHCC,2009-11-23 09:00,ZHCC 230900Z AUTO 09004KT 5SM 12/05 A3000 RMK SLP168 T01220049 57004 IEM_DS3505
ZHCC,2009-11-23 10:00,ZHCC 231000Z AUTO 12004KT 2SM 09/06 A3000 RMK T00900060 IEM_DS3505
ZHCC,2009-11-23 11:00,ZHCC 231100Z AUTO 10004KT 2SM 08/05 A3003 RMK T00800050 IEM_DS3505
ZHCC,2009-11-23 12:00,ZHCC 231200Z AUTO 04004KT 3SM 08/05 A3003 RMK SLP181 T00840052 52012 IEM_DS3505
ZHCC,2009-11-23 13:00,ZHCC 231300Z AUTO 1 1/4SM 08/05 A3003 RMK T00800050 IEM_DS3505
ZHCC,2009-11-23 14:00,ZHCC 231400Z AUTO 35004KT 1SM 06/04 A3003 RMK T00600040 IEM_DS3505
ZHCC,2009-11-23 15:00,ZHCC 231500Z AUTO 27002KT 2SM 04/03 A3006 RMK SLP186 T00420029 52006 IEM_DS3505
ZHCC,2009-11-23 16:00,ZHCC 231600Z AUTO 34004KT 1SM 04/03 A3003 RMK T00400030 IEM_DS3505
ZHCC,2009-11-23 17:00,ZHCC 231700Z AUTO 1SM 03/02 A3003 RMK T00300020 IEM_DS3505
ZHCC,2009-11-23 18:00,ZHCC 231800Z AUTO 00000KT 1 1/4SM 03/02 A3003 RMK SLP184 T00290019 57001 IEM_DS3505
ZHCC,2009-11-23 19:00,ZHCC 231900Z AUTO 31002KT 3/8SM 02/01 A3003 RMK T00200010 IEM_DS3505
ZHCC,2009-11-23 20:00,ZHCC 232000Z AUTO 31006KT 3/8SM 03/02 A3003 RMK T00300020 IEM_DS3505
ZHCC,2009-11-23 21:00,ZHCC 232100Z AUTO 36002KT 2SM 04/00 A3003 RMK SLP180 T00400005 57004 IEM_DS3505
ZHCC,2009-11-23 22:00,ZHCC 232200Z AUTO 32006KT 1SM 02/01 A3003 RMK T00200010 IEM_DS3505
ZHCC,2009-11-23 23:00,ZHCC 232300Z AUTO 29004KT 3/8SM 01/00 A3003 RMK T00100000 IEM_DS3505
ZHCC,2009-11-24 00:00,ZHCC 240000Z AUTO 00000KT 1SM 02/01 A3003 RMK SLP183 T00240014 52002 IEM_DS3505
ZHCC,2009-11-24 01:00,ZHCC 240100Z AUTO 00000KT 3/8SM 04/03 A3003 RMK T00400030 IEM_DS3505
ZHCC,2009-11-24 02:00,ZHCC 240200Z AUTO 16004KT 1/2SM 07/06 A3003 RMK T00700060 IEM_DS3505
ZHCC,2009-11-24 03:00,ZHCC 240300Z AUTO 27006KT 2SM 12/03 A3003 RMK SLP176 T01220032 57006 IEM_DS3505
ZHCC,2009-11-24 04:00,ZHCC 240400Z AUTO 17006KT 1SM 12/06 A3000 RMK T01200060 IEM_DS3505
ZHCC,2009-11-24 05:00,ZHCC 240500Z AUTO 19004KT 1SM 13/07 A3000 RMK T01300070 IEM_DS3505
ZHCC,2009-11-24 06:00,ZHCC 240600Z AUTO 27008KT 6SM 16/M00 A3000 RMK SLP161 T01621001 57014 IEM_DS3505
ZHCC,2009-11-24 07:00,ZHCC 240700Z AUTO 1SM 15/07 A2997 RMK T01500070 IEM_DS3505
ZHCC,2009-11-24 08:00,ZHCC 240800Z AUTO 1SM 14/07 A2997 RMK T01400070 IEM_DS3505
ZHCC,2009-11-24 09:00,ZHCC 240900Z AUTO 27004KT 6SM 15/01 A3000 RMK SLP161 T01460008 54000 IEM_DS3505
ZHCC,2009-11-24 10:00,ZHCC 241000Z AUTO 00000KT 1SM 09/06 A3000 RMK T00900060 IEM_DS3505
ZHCC,2009-11-24 11:00,ZHCC 241100Z AUTO 00000KT 1SM 08/05 A3003 RMK T00800050 IEM_DS3505
ZHCC,2009-11-24 12:00,ZHCC 241200Z AUTO 09002KT 5SM 08/03 A3006 RMK SLP185 T00820027 52022 IEM_DS3505
ZHCC,2009-11-24 13:00,ZHCC 241300Z AUTO 28004KT 1SM 07/03 A3006 RMK T00700030 IEM_DS3505
ZHCC,2009-11-24 14:00,ZHCC 241400Z AUTO 36004KT 1 1/4SM 10/03 A3009 RMK T01000030 IEM_DS3505
ZHCC,2009-11-24 15:00,ZHCC 241500Z AUTO 36004KT 4SM 09/01 A3012 RMK SLP206 T00930007 52023 IEM_DS3505
ZHCC,2009-11-24 16:00,ZHCC 241600Z AUTO 32006KT 1SM 06/04 A3012 RMK T00600040 IEM_DS3505
ZHCC,2009-11-24 17:00,ZHCC 241700Z AUTO 32008KT 1SM 06/04 A3015 RMK T00600040 IEM_DS3505
ZHCC,2009-11-24 18:00,ZHCC 241800Z AUTO 36002KT 2SM 06/04 A3018 RMK SLP227 T00550037 52021 IEM_DS3505
ZHCC,2009-11-24 19:00,ZHCC 241900Z AUTO 31004KT 1/8SM 04/03 A3018 RMK T00400030 IEM_DS3505
ZHCC,2009-11-24 20:00,ZHCC 242000Z AUTO 32008KT 1/8SM 03/02 A3018 RMK T00300020 IEM_DS3505
ZHCC,2009-11-24 21:00,ZHCC 242100Z AUTO 00000KT 1 1/4SM 04/01 A3021 RMK SLP241 T00420007 52013 IEM_DS3505
ZHCC,2009-11-24 22:00,ZHCC 242200Z AUTO 32006KT 3/8SM 02/01 A3021 RMK T00200010 IEM_DS3505
ZHCC,2009-11-24 23:00,ZHCC 242300Z AUTO 35008KT 1/8SM 01/01 A3024 RMK T00100010 IEM_DS3505
ZHCC,2009-11-25 00:00,ZHCC 250000Z AUTO 32002KT 1SM 03/01 A3024 RMK SLP259 T00300007 52016 IEM_DS3505
ZHCC,2009-11-25 01:00,ZHCC 250100Z AUTO 32006KT 1/4SM 02/01 A3027 RMK T00200010 IEM_DS3505
ZHCC,2009-11-25 02:00,ZHCC 250200Z AUTO 34006KT 1/2SM 03/03 A3027 RMK T00300030 IEM_DS3505
ZHCC,2009-11-25 03:00,ZHCC 250300Z AUTO 04004KT 1 1/4SM 08/M00 A3024 RMK SLP254 T00821005 57004 IEM_DS3505
ZHCC,2009-11-25 04:00,ZHCC 250400Z AUTO 36006KT 1SM 08/04 A3021 RMK T00800040 IEM_DS3505
ZHCC,2009-11-25 05:00,ZHCC 250500Z AUTO 34006KT 1SM 09/03 A3018 RMK T00900030 IEM_DS3505
ZHCC,2009-11-25 06:00,ZHCC 250600Z AUTO 04004KT 2SM 10/M00 A3015 RMK SLP221 T01051003 57033 IEM_DS3505
ZHCC,2009-11-25 07:00,ZHCC 250700Z AUTO 08006KT 1 1/4SM 10/01 A3015 RMK T01000010 IEM_DS3505
ZHCC,2009-11-25 08:00,ZHCC 250800Z AUTO 08004KT 1SM 10/02 A3015 RMK T01000020 IEM_DS3505
ZHCC,2009-11-25 09:00,ZHCC 250900Z AUTO 07002KT 2SM 09/01 A3015 RMK SLP220 T00930010 57001 IEM_DS3505
ZHCC,2009-11-25 10:00,ZHCC 251000Z AUTO 04004KT 1SM 07/02 A3018 RMK T00700020 IEM_DS3505
ZHCC,2009-11-25 11:00,ZHCC 251100Z AUTO 06004KT 1SM 07/03 A3018 RMK T00700030 IEM_DS3505
ZHCC,2009-11-25 12:00,ZHCC 251200Z AUTO 00000KT 1 1/4SM 04/02 A3018 RMK SLP230 T00450019 52008 IEM_DS3505
ZHCC,2009-11-25 13:00,ZHCC 251300Z AUTO 04004KT 1SM 05/02 A3018 RMK T00500020 IEM_DS3505
ZHCC,2009-11-25 14:00,ZHCC 251400Z AUTO 04006KT 1SM 04/02 A3018 RMK T00400020 IEM_DS3505
ZHCC,2009-11-25 15:00,ZHCC 251500Z AUTO 11002KT 1SM 04/03 A3018 RMK SLP229 T00450030 54000 IEM_DS3505
ZHCC,2009-11-25 16:00,ZHCC 251600Z AUTO 3/8SM 03/02 A3018 RMK T00300020 IEM_DS3505
ZHCC,2009-11-25 17:00,ZHCC 251700Z AUTO 33002KT 1/8SM 02/01 A3018 RMK T00200010 IEM_DS3505
ZHCC,2009-11-25 18:00,ZHCC 251800Z AUTO 07002KT 1/2SM 02/02 A3018 RMK SLP228 T00250018 54000 IEM_DS3505
ZHCC,2009-11-25 19:00,ZHCC 251900Z AUTO 02006KT 1/8SM 02/01 A3018 RMK T00200010 IEM_DS3505
ZHCC,2009-11-25 20:00,ZHCC 252000Z AUTO 02004KT 1/8SM 02/01 A3018 RMK T00200010 IEM_DS3505
ZHCC,2009-11-25 21:00,ZHCC 252100Z AUTO 09002KT 1/2SM 02/02 A3018 RMK SLP226 T00250019 57003 IEM_DS3505
ZHCC,2009-11-25 22:00,ZHCC 252200Z AUTO 04004KT 1/8SM 02/01 A3015 RMK T00200010 IEM_DS3505
ZHCC,2009-11-25 23:00,ZHCC 252300Z AUTO 02006KT 1/8SM 02/01 A3018 RMK T00200010 IEM_DS3505
ZHCC,2009-11-26 00:00,ZHCC 260000Z AUTO 11002KT 1/2SM 03/02 A3021 RMK SLP240 T00310021 52013 IEM_DS3505
ZHCC,2009-11-26 01:00,ZHCC 260100Z AUTO 32006KT 1/8SM 02/02 A3021 RMK T00200020 IEM_DS3505
ZHCC,2009-11-26 02:00,ZHCC 260200Z AUTO 34004KT 3/8SM 02/02 A3024 RMK T00200020 IEM_DS3505
ZHCC,2009-11-26 03:00,ZHCC 260300Z AUTO 32004KT 1SM 05/03 RMK SLP247 T00520029 52007 IEM_DS3505
ZHCC,2009-11-26 04:00,ZHCC 260400Z AUTO 01006KT 3/8SM 04/03 A3021 RMK T00400030 IEM_DS3505
ZHCC,2009-11-26 05:00,ZHCC 260500Z AUTO 03004KT 1/2SM 04/04 A3015 RMK T00400040 IEM_DS3505
ZHCC,2009-11-26 06:00,ZHCC 260600Z AUTO 32004KT 1SM 06/03 A3015 RMK SLP219 T00640028 57027 IEM_DS3505
ZHCC,2009-11-26 07:00,ZHCC 260700Z AUTO 01004KT 1/2SM 05/05 A3015 RMK T00500050 IEM_DS3505
ZHCC,2009-11-26 08:00,ZHCC 260800Z AUTO 04006KT 1/2SM 05/04 A3015 RMK T00500040 IEM_DS3505
ZHCC,2009-11-26 09:00,ZHCC 260900Z AUTO 04004KT 1SM 05/03 A3018 RMK SLP227 T00530028 52007 IEM_DS3505
ZHCC,2009-11-26 10:00,ZHCC 261000Z AUTO 04008KT 1/2SM 04/03 A3018 RMK T00400030 IEM_DS3505
ZHCC,2009-11-26 11:00,ZHCC 261100Z AUTO 04008KT 1/2SM 04/03 A3021 RMK T00400030 IEM_DS3505
ZHCC,2009-11-26 12:00,ZHCC 261200Z AUTO 04002KT 1SM 05/03 A3024 RMK SLP256 T00470029 52029 IEM_DS3505
ZHCC,2009-11-26 13:00,ZHCC 261300Z AUTO 01006KT 1/2SM 04/03 A3027 RMK T00400030 IEM_DS3505
ZHCC,2009-11-26 15:00,ZHCC 261500Z AUTO 04004KT 1SM 04/02 A3030 RMK SLP278 T00400024 52022 IEM_DS3505
ZHCC,2009-11-26 16:00,ZHCC 261600Z AUTO 36008KT 1/4SM 03/02 A3033 RMK T00300020 IEM_DS3505
ZHCC,2009-11-26 17:00,ZHCC 261700Z AUTO 02010KT 3/8SM 02/02 A3036 RMK T00200020 IEM_DS3505
ZHCC,2009-11-26 18:00,ZHCC 261800Z AUTO 04004KT 1SM 03/01 A3036 RMK SLP294 T00330012 52016 IEM_DS3505
ZHCC,2009-11-26 19:00,ZHCC 261900Z AUTO 02010KT 1SM 02/01 A3036 RMK T00200010 IEM_DS3505
ZHCC,2009-11-26 20:00,ZHCC 262000Z AUTO 02010KT 1SM 02/01 A3036 RMK T00200010 IEM_DS3505
ZHCC,2009-11-26 21:00,ZHCC 262100Z AUTO 07008KT 1 1/4SM 03/00 A3039 RMK SLP303 T00320001 52008 IEM_DS3505
ZHCC,2009-11-26 22:00,ZHCC 262200Z AUTO 02010KT 1SM 02/01 A3042 RMK T00200010 IEM_DS3505
ZHCC,2009-11-26 23:00,ZHCC 262300Z AUTO 03014KT 1SM 02/00 A3042 RMK T00200000 IEM_DS3505
ZHCC,2009-11-27 00:00,ZHCC 270000Z AUTO 04010KT 1 1/4SM 03/M01 A3045 RMK SLP328 T00311007 52025 IEM_DS3505
ZHCC,2009-11-27 01:00,ZHCC 270100Z AUTO 03012KT 1SM 02/00 A3047 RMK T00200000 IEM_DS3505
ZHCC,2009-11-27 02:00,ZHCC 270200Z AUTO 02014KT 1SM 02/00 A3050 RMK T00200000 IEM_DS3505
ZHCC,2009-11-27 03:00,ZHCC 270300Z AUTO 04012KT 3SM 04/M01 A3050 RMK SLP341 T00381012 52013 IEM_DS3505
ZHCC,2009-11-27 04:00,ZHCC 270400Z AUTO 04010KT 1 1/2SM 03/00 A3047 RMK T00300000 IEM_DS3505
ZHCC,2009-11-27 05:00,ZHCC 270500Z AUTO 02014KT 1 1/2SM 04/00 A3045 RMK T00400000 IEM_DS3505
ZHCC,2009-11-27 06:00,ZHCC 270600Z AUTO 04006KT 6SM 05/M01 A3045 RMK SLP333 T00471013 57008 IEM_DS3505
ZHCC,2009-11-27 07:00,ZHCC 270700Z AUTO 04014KT 1 1/2SM 04/00 A3047 RMK T00400000 IEM_DS3505
ZHCC,2009-11-27 08:00,ZHCC 270800Z AUTO 02012KT 1 1/2SM 04/M01 A3047 RMK T00401010 IEM_DS3505
ZHCC,2009-11-27 09:00,ZHCC 270900Z AUTO 07006KT 7SM 05/M01 A3047 RMK SLP338 T00471013 52005 IEM_DS3505
ZHCC,2009-11-27 11:00,ZHCC 271100Z AUTO 03012KT 1 1/2SM 03/00 A3050 RMK T00300000 IEM_DS3505
ZHCC,2009-11-27 12:00,ZHCC 271200Z AUTO 02010KT 6SM 04/M01 A3050 RMK SLP350 T00421012 52011 IEM_DS3505
ZHCC,2009-11-27 13:00,ZHCC 271300Z AUTO 02010KT 2SM 03/00 A3053 RMK T00300000 IEM_DS3505
ZHCC,2009-11-27 14:00,ZHCC 271400Z AUTO 03010KT 2SM 03/M01 A3053 RMK T00301010 IEM_DS3505
ZHCC,2009-11-27 15:00,ZHCC 271500Z AUTO 04008KT 6SM 04/M02 A3050 RMK SLP347 T00391023 57002 IEM_DS3505
ZHCC,2009-11-27 16:00,ZHCC 271600Z AUTO 03008KT 2 1/2SM 03/M02 A3053 RMK T00301020 IEM_DS3505
ZHCC,2009-11-27 17:00,ZHCC 271700Z AUTO 04008KT 2 1/2SM 03/M02 A3050 RMK T00301020 IEM_DS3505
ZHCC,2009-11-27 18:00,ZHCC 271800Z AUTO 07006KT 6SM 03/M03 A3050 RMK SLP345 T00321032 57002 IEM_DS3505
ZHCC,2009-11-27 19:00,ZHCC 271900Z AUTO 02008KT 02/M03 A3050 RMK T00201030 IEM_DS3505
ZHCC,2009-11-27 20:00,ZHCC 272000Z AUTO 02008KT 02/M04 A3050 RMK T00201040 IEM_DS3505
ZHCC,2009-11-27 21:00,ZHCC 272100Z AUTO 04006KT 7SM 03/M05 A3050 RMK SLP340 T00301052 57005 IEM_DS3505
ZHCC,2009-11-27 22:00,ZHCC 272200Z AUTO 04010KT 2SM 01/M04 A3050 RMK T00101040 IEM_DS3505
ZHCC,2009-11-27 23:00,ZHCC 272300Z AUTO 02008KT 1 1/4SM 00/M03 A3053 RMK T00001030 IEM_DS3505
ZHCC,2009-11-28 00:00,ZHCC 280000Z AUTO 02004KT 6SM 02/M04 A3053 RMK 60000 70001 SLP357 T00161039 52016 IEM_DS3505
ZHCC,2009-11-28 01:00,ZHCC 280100Z AUTO 36012KT 2 1/2SM 01/M02 A3053 RMK T00101020 IEM_DS3505
ZHCC,2009-11-28 02:00,ZHCC 280200Z AUTO 36012KT 2 1/2SM 00/M02 A3053 RMK T00001020 IEM_DS3505
ZHCC,2009-11-28 03:00,ZHCC 280300Z AUTO 04006KT 6SM 01/M02 A3053 RMK SLP359 T00121017 52002 IEM_DS3505
ZHCC,2009-11-28 04:00,ZHCC 280400Z AUTO 32010KT 1 1/2SM 01/M02 A3050 RMK T00101020 IEM_DS3505
ZHCC,2009-11-28 05:00,ZHCC 280500Z AUTO 33010KT 1SM 00/M01 A3047 RMK T00001010 IEM_DS3505
ZHCC,2009-11-28 06:00,ZHCC 280600Z AUTO 02004KT 6SM 02/M01 A3047 RMK 60002 SLP331 T00171007 57028 IEM_DS3505
ZHCC,2009-11-28 07:00,ZHCC 280700Z AUTO 36008KT 2SM 00/M01 A3045 RMK T00001010 IEM_DS3505
ZHCC,2009-11-28 08:00,ZHCC 280800Z AUTO 35008KT 2SM 01/00 A3045 RMK T00100000 IEM_DS3505
ZHCC,2009-11-28 09:00,ZHCC 280900Z AUTO 07004KT 6SM 02/M01 A3047 RMK SLP328 T00171012 57003 IEM_DS3505
ZHCC,2009-11-28 10:00,ZHCC 281000Z AUTO 35004KT 2SM 00/M01 A3047 RMK T00001010 IEM_DS3505
ZHCC,2009-11-28 11:00,ZHCC 281100Z AUTO 35004KT 2 1/2SM 00/M01 A3047 RMK T00001010 IEM_DS3505
ZHCC,2009-11-28 12:00,ZHCC 281200Z AUTO 07002KT 7SM 01/M03 A3050 RMK 60000 SLP344 T00091034 52015 IEM_DS3505
ZHCC,2009-11-28 13:00,ZHCC 281300Z AUTO 30004KT 2 1/2SM M01/M03 A3050 RMK T10101030 IEM_DS3505
ZHCC,2009-11-28 14:00,ZHCC 281400Z AUTO 27004KT 2 1/2SM M02/M03 A3050 RMK T10201030 IEM_DS3505
ZHCC,2009-11-28 15:00,ZHCC 281500Z AUTO 22002KT 7SM M01/M03 A3050 RMK SLP343 T10091026 57001 IEM_DS3505
ZHCC,2009-11-28 16:00,ZHCC 281600Z AUTO 26004KT 2 1/2SM M02/M03 A3047 RMK T10201030 IEM_DS3505
ZHCC,2009-11-28 17:00,ZHCC 281700Z AUTO 26002KT M03/M04 A3045 RMK T10301040 IEM_DS3505
ZHCC,2009-11-28 18:00,ZHCC 281800Z AUTO 18002KT 6SM M02/M03 A3045 RMK SLP320 T10181026 57023 IEM_DS3505
ZHCC,2009-11-28 19:00,ZHCC 281900Z AUTO 15004KT M02/M03 A3045 RMK T10201030 IEM_DS3505
ZHCC,2009-11-28 20:00,ZHCC 282000Z AUTO 14004KT 1SM M02/M03 A3042 RMK T10201030 IEM_DS3505
ZHCC,2009-11-28 21:00,ZHCC 282100Z AUTO 09002KT 5SM M01/M02 A3039 RMK 70003 SLP303 T10121022 57017 IEM_DS3505
ZHCC,2009-11-28 22:00,ZHCC 282200Z AUTO 14004KT 1/2SM M02/M03 A3039 RMK T10201030 IEM_DS3505
ZHCC,2009-11-28 23:00,ZHCC 282300Z AUTO 13004KT 1/8SM M02/M03 A3042 RMK T10201030 IEM_DS3505
ZHCC,2009-11-29 00:00,ZHCC 290000Z AUTO 16002KT 2 1/2SM M01/M02 A3042 RMK 70002 SLP311 T10081015 52008 IEM_DS3505
ZHCC,2009-11-29 01:00,ZHCC 290100Z AUTO 1/4SM M01/M02 A3042 RMK T10101020 IEM_DS3505
ZHCC,2009-11-29 02:00,ZHCC 290200Z AUTO 18004KT 1/4SM 00/M01 A3042 RMK T00001010 IEM_DS3505
ZHCC,2009-11-29 03:00,ZHCC 290300Z AUTO 16004KT 4SM 04/01 A3042 RMK SLP312 T00380007 52002 IEM_DS3505
ZHCC,2009-11-29 04:00,ZHCC 290400Z AUTO 18004KT 1SM 02/01 A3039 RMK T00200010 IEM_DS3505
ZHCC,2009-11-29 05:00,ZHCC 290500Z AUTO 19004KT 1SM 03/02 A3036 RMK T00300020 IEM_DS3505
ZHCC,2009-11-29 06:00,ZHCC 290600Z AUTO 27004KT 5SM 08/01 A3033 RMK SLP281 T00830008 57030 IEM_DS3505
ZHCC,2009-11-29 07:00,ZHCC 290700Z AUTO 19004KT 1SM 06/04 A3033 RMK T00600040 IEM_DS3505
ZHCC,2009-11-29 08:00,ZHCC 290800Z AUTO 17004KT 1SM 06/04 A3033 RMK T00600040 IEM_DS3505
ZHCC,2009-11-29 09:00,ZHCC 290900Z AUTO 07004KT 4SM 07/02 A3030 RMK SLP273 T00710016 57008 IEM_DS3505
ZHCC,2009-11-29 10:00,ZHCC 291000Z AUTO 17004KT 1SM 03/01 A3033 RMK T00300010 IEM_DS3505
ZHCC,2009-11-29 11:00,ZHCC 291100Z AUTO 18004KT 1SM 03/01 A3033 RMK T00300010 IEM_DS3505
ZHCC,2009-11-29 12:00,ZHCC 291200Z AUTO 18002KT 3SM 04/02 A3033 RMK SLP283 T00380020 52009 IEM_DS3505
ZHCC,2009-11-29 13:00,ZHCC 291300Z AUTO 1SM 02/00 A3036 RMK T00200000 IEM_DS3505
ZHCC,2009-11-29 14:00,ZHCC 291400Z AUTO 1/4SM 01/00 A3033 RMK T00100000 IEM_DS3505
ZHCC,2009-11-29 15:00,ZHCC 291500Z AUTO 29004KT 3SM 04/01 RMK SLP277 T00410013 57004 IEM_DS3505
ZHCC,2009-11-29 16:00,ZHCC 291600Z AUTO 19002KT 1/8SM 00/M01 A3033 RMK T00001010 IEM_DS3505
ZHCC,2009-11-29 17:00,ZHCC 291700Z AUTO 1/8SM M02/M03 A3030 RMK T10201030 IEM_DS3505
ZHCC,2009-11-29 18:00,ZHCC 291800Z AUTO 27004KT 3SM 05/M00 A3030 RMK SLP271 T00491001 57005 IEM_DS3505
ZHCC,2009-11-29 19:00,ZHCC 291900Z AUTO 28004KT 1/8SM M01/M02 A3030 RMK T10101020 IEM_DS3505
ZHCC,2009-11-29 20:00,ZHCC 292000Z AUTO 28006KT 1SM 02/01 A3030 RMK T00200010 IEM_DS3505
ZHCC,2009-11-29 21:00,ZHCC 292100Z AUTO 27004KT 3SM 05/M00 A3030 RMK SLP274 T00471003 52003 IEM_DS3505
ZHCC,2009-11-29 22:00,ZHCC 292200Z AUTO 30010KT 2SM 03/02 A3033 RMK T00300020 IEM_DS3505
ZHCC,2009-11-29 23:00,ZHCC 292300Z AUTO 30008KT 2SM 04/01 A3033 RMK T00400010 IEM_DS3505
ZHCC,2009-11-30 00:00,ZHCC 300000Z AUTO 27008KT 5SM 06/M00 A3036 RMK SLP292 T00621003 52017 IEM_DS3505
ZHCC,2009-11-30 01:00,ZHCC 300100Z AUTO 27008KT 3SM 06/02 A3036 RMK T00600020 IEM_DS3505
ZHCC,2009-11-30 02:00,ZHCC 300200Z AUTO 27012KT 3SM 08/01 A3036 RMK T00800010 IEM_DS3505
ZHCC,2009-11-30 03:00,ZHCC 300300Z AUTO 29008KT 6SM 10/M01 A3036 RMK SLP292 T01021006 52001 IEM_DS3505
ZHCC,2009-11-30 04:00,ZHCC 300400Z AUTO 27012KT 4SM 11/00 A3036 RMK T01100000 IEM_DS3505
ZHCC,2009-11-30 05:00,ZHCC 300500Z AUTO 29006KT 4SM 12/00 A3030 RMK T01200000 IEM_DS3505
ZHCC,2009-11-30 06:00,ZHCC 300600Z AUTO 32006KT 7SM 12/M02 A3030 RMK SLP266 T01231020 57025 IEM_DS3505
ZHCC,2009-11-30 07:00,ZHCC 300700Z AUTO 27010KT 4SM 12/M01 A3027 RMK T01201010 IEM_DS3505
ZHCC,2009-11-30 08:00,ZHCC 300800Z AUTO 31006KT 4SM 12/M01 A3027 RMK T01201010 IEM_DS3505
ZHCC,2009-11-30 09:00,ZHCC 300900Z AUTO 20002KT 7SM 11/M01 A3030 RMK SLP265 T01091012 57001 IEM_DS3505
ZHCC,2009-11-30 10:00,ZHCC 301000Z AUTO 00000KT 4SM 07/00 A3030 RMK T00700000 IEM_DS3505
ZHCC,2009-11-30 11:00,ZHCC 301100Z AUTO 14002KT 4SM 04/M01 A3033 RMK T00401010 IEM_DS3505
ZHCC,2009-11-30 12:00,ZHCC 301200Z AUTO 14002KT 6SM 04/01 A3033 RMK SLP276 T00390006 52009 IEM_DS3505
ZHCC,2009-11-30 13:00,ZHCC 301300Z AUTO 18002KT 2SM 05/01 A3033 RMK T00500010 IEM_DS3505
ZHCC,2009-11-30 14:00,ZHCC 301400Z AUTO 1 1/4SM 05/02 A3033 RMK T00500020 IEM_DS3505
ZHCC,2009-11-30 15:00,ZHCC 301500Z AUTO 22002KT 6SM 02/M00 A3033 RMK SLP278 T00221002 52003 IEM_DS3505
ZHCC,2009-11-30 16:00,ZHCC 301600Z AUTO 00000KT 1/2SM 03/01 A3033 RMK T00300010 IEM_DS3505
ZHCC,2009-11-30 17:00,ZHCC 301700Z AUTO 23002KT 1/2SM 01/M01 A3033 RMK T00101010 IEM_DS3505
ZHCC,2009-11-30 18:00,ZHCC 301800Z AUTO 29002KT 5SM 01/M01 A3030 RMK SLP270 T00111011 57008 IEM_DS3505
ZHCC,2009-11-30 19:00,ZHCC 301900Z AUTO 00000KT 1SM 00/M02 A3030 RMK T00001020 IEM_DS3505
ZHCC,2009-11-30 20:00,ZHCC 302000Z AUTO 00000KT 1 1/4SM M01/M02 A3030 RMK T10101020 IEM_DS3505
ZHCC,2009-11-30 21:00,ZHCC 302100Z AUTO 22002KT 4SM 00/M01 A3030 RMK SLP273 T00041014 52003 IEM_DS3505
ZHCC,2009-11-30 22:00,ZHCC 302200Z AUTO 00000KT 1SM 00/M01 A3033 RMK T00001010 IEM_DS3505
ZHCC,2009-11-30 23:00,ZHCC 302300Z AUTO 03002KT 1SM M01/M02 A3033 RMK T10101020 IEM_DS3505
ZHCC,2009-12-01 00:00,ZHCC 010000Z AUTO 09004KT 1 1/4SM 01/M01 A3036 RMK SLP288 T00061007 52013 IEM_DS3505
ZHCC,2009-12-01 01:00,ZHCC 010100Z AUTO 36006KT 1SM 00/M01 A3036 RMK T00001010 IEM_DS3505
ZHCC,2009-12-01 02:00,ZHCC 010200Z AUTO 04004KT 1/8SM M01/M02 A3036 RMK T10101020 IEM_DS3505
ZHCC,2009-12-01 03:00,ZHCC 010300Z AUTO 09004KT 1SM 01/M00 A3036 RMK SLP292 T00091004 52003 IEM_DS3505
ZHCC,2009-12-01 04:00,ZHCC 010400Z AUTO 08004KT 1/2SM 02/01 A3033 RMK T00200010 IEM_DS3505
ZHCC,2009-12-01 05:00,ZHCC 010500Z AUTO 04004KT 1SM 04/02 A3033 RMK T00400020 IEM_DS3505
ZHCC,2009-12-01 06:00,ZHCC 010600Z AUTO 07006KT 3SM 06/01 A3030 RMK SLP266 T00640013 57024 IEM_DS3505
ZHCC,2009-12-01 07:00,ZHCC 010700Z AUTO 08006KT 1SM 05/02 A3027 RMK T00500020 IEM_DS3505
ZHCC,2009-12-01 08:00,ZHCC 010800Z AUTO 10006KT 1SM 03/01 A3027 RMK T00300010 IEM_DS3505
ZHCC,2009-12-01 09:00,ZHCC 010900Z AUTO 07006KT 1 1/4SM 04/02 A3027 RMK SLP266 T00370016 57001 IEM_DS3505
ZHCC,2009-12-01 10:00,ZHCC 011000Z AUTO 09004KT 1/8SM 01/00 A3030 RMK T00100000 IEM_DS3505
ZHCC,2009-12-01 11:00,ZHCC 011100Z AUTO 08004KT 1/8SM 00/M01 A3030 RMK T00001010 IEM_DS3505
ZHCC,2009-12-01 12:00,ZHCC 011200Z AUTO 14004KT 1/2SM 02/01 A3030 RMK SLP276 T00170010 52009 IEM_DS3505
ZHCC,2009-12-01 13:00,ZHCC 011300Z AUTO 17002KT 1/8SM 00/M01 A3033 RMK T00001010 IEM_DS3505
ZHCC,2009-12-01 14:00,ZHCC 011400Z AUTO 00000KT 1/8SM 00/00 A3033 RMK T00000000 IEM_DS3505
ZHCC,2009-12-01 15:00,ZHCC 011500Z AUTO 16002KT 3/8SM 02/01 A3033 RMK SLP284 T00180012 52008 IEM_DS3505
ZHCC,2009-12-01 16:00,ZHCC 011600Z AUTO 17002KT 1/4SM 01/00 A3033 RMK T00100000 IEM_DS3505
ZHCC,2009-12-01 17:00,ZHCC 011700Z AUTO 00000KT 1/8SM 01/00 A3030 RMK T00100000 IEM_DS3505
ZHCC,2009-12-01 18:00,ZHCC 011800Z AUTO 20002KT 1 1/4SM 03/02 A3033 RMK SLP276 T00320020 57006 IEM_DS3505
ZHCC,2009-12-01 19:00,ZHCC 011900Z AUTO 18004KT 1/4SM 01/01 A3030 RMK T00100010 IEM_DS3505
ZHCC,2009-12-01 20:00,ZHCC 012000Z AUTO 24004KT 3/8SM 02/01 A3030 RMK T00200010 IEM_DS3505
ZHCC,2009-12-01 21:00,ZHCC 012100Z AUTO 00000KT 1 1/4SM 04/02 A3030 RMK SLP267 T00390024 57009 IEM_DS3505
ZHCC,2009-12-01 22:00,ZHCC 012200Z AUTO 16004KT 1/4SM 02/02 A3030 RMK T00200020 IEM_DS3505
ZHCC,2009-12-01 23:00,ZHCC 012300Z AUTO 1/4SM 02/02 A3030 RMK T00200020 IEM_DS3505
ZHCC,2009-12-02 00:00,ZHCC 020000Z AUTO 27006KT 6SM 10/M00 A3033 RMK SLP275 T00951001 52008 IEM_DS3505
ZHCC,2009-12-02 01:00,ZHCC 020100Z AUTO 16002KT 1/8SM 03/03 A3033 RMK T00300030 IEM_DS3505
ZHCC,2009-12-02 03:00,ZHCC 020300Z AUTO 27012G29KT 6SM 12/M05 A3033 RMK SLP280 T01231048 52006 IEM_DS3505
ZHCC,2009-12-02 04:00,ZHCC 020400Z AUTO 31019KT 3SM 13/M04 A3030 RMK T01301040 IEM_DS3505
ZHCC,2009-12-02 05:00,ZHCC 020500Z AUTO 30017G27KT 3SM 13/M04 A3030 RMK T01301040 IEM_DS3505
ZHCC,2009-12-02 06:00,ZHCC 020600Z AUTO 27008G29KT 7SM 14/M08 A3030 RMK SLP270 T01401080 57009 IEM_DS3505
ZHCC,2009-12-02 07:00,ZHCC 020700Z AUTO 31019G31KT 6SM 13/M07 A3030 RMK T01301070 IEM_DS3505
ZHCC,2009-12-02 08:00,ZHCC 020800Z AUTO 26019KT 6SM 12/M06 A3033 RMK T01201060 IEM_DS3505
ZHCC,2009-12-02 09:00,ZHCC 020900Z AUTO 27010KT 10SM 12/M09 A3033 RMK SLP278 T01171087 52008 IEM_DS3505
ZHCC,2009-12-02 10:00,ZHCC 021000Z AUTO 26010KT 6SM 09/M07 A3036 RMK T00901070 IEM_DS3505
ZHCC,2009-12-02 11:00,ZHCC 021100Z AUTO 27014KT 6SM 08/M07 A3039 RMK T00801070 IEM_DS3505
ZHCC,2009-12-02 12:00,ZHCC 021200Z AUTO 29010KT 10SM 10/M09 A3039 RMK SLP299 T00981088 52021 IEM_DS3505
ZHCC,2009-12-02 13:00,ZHCC 021300Z AUTO 27016KT 6SM 08/M07 A3042 RMK T00801070 IEM_DS3505
ZHCC,2009-12-02 14:00,ZHCC 021400Z AUTO 27014KT 6SM 07/M07 A3042 RMK T00701070 IEM_DS3505
ZHCC,2009-12-02 15:00,ZHCC 021500Z AUTO 29008KT 10SM 08/M08 A3045 RMK SLP318 T00811084 52019 IEM_DS3505
ZHCC,2009-12-02 16:00,ZHCC 021600Z AUTO 27010KT 6SM 04/M06 A3045 RMK T00401060 IEM_DS3505
ZHCC,2009-12-02 17:00,ZHCC 021700Z AUTO 27014KT 6SM 04/M07 A3045 RMK T00401070 IEM_DS3505
ZHCC,2009-12-02 18:00,ZHCC 021800Z AUTO 27004KT 9SM 05/M08 A3045 RMK SLP316 T00531075 57002 IEM_DS3505
ZHCC,2009-12-02 19:00,ZHCC 021900Z AUTO 31006KT 6SM 04/M06 A3042 RMK T00401060 IEM_DS3505
ZHCC,2009-12-02 20:00,ZHCC 022000Z AUTO 32006KT 6SM 02/M07 A3042 RMK T00201070 IEM_DS3505
ZHCC,2009-12-02 21:00,ZHCC 022100Z AUTO 20002KT 8SM 01/M06 A3042 RMK SLP307 T00071055 57011 IEM_DS3505
ZHCC,2009-12-02 22:00,ZHCC 022200Z AUTO 30002KT 6SM 00/M05 A3042 RMK T00001050 IEM_DS3505
ZHCC,2009-12-02 23:00,ZHCC 022300Z AUTO 27004KT 4SM M01/M06 A3042 RMK T10101060 IEM_DS3505
ZHCC,2009-12-03 00:00,ZHCC 030000Z AUTO 16002KT 6SM M00/M05 A3042 RMK SLP309 T10041050 52002 IEM_DS3505
ZHCC,2009-12-03 01:00,ZHCC 030100Z AUTO 00000KT 2 1/2SM 03/M02 A3042 RMK T00301020 IEM_DS3505
ZHCC,2009-12-03 02:00,ZHCC 030200Z AUTO 12004KT 2 1/2SM 06/M02 A3042 RMK T00601020 IEM_DS3505
ZHCC,2009-12-03 03:00,ZHCC 030300Z AUTO 11006KT 6SM 08/M05 A3042 RMK SLP306 T00821046 57002 IEM_DS3505
ZHCC,2009-12-03 04:00,ZHCC 030400Z AUTO 15006KT 2 1/2SM 08/M02 A3036 RMK T00801020 IEM_DS3505
ZHCC,2009-12-03 05:00,ZHCC 030500Z AUTO 19008KT 2 1/2SM 09/M03 A3033 RMK T00901030 IEM_DS3505
ZHCC,2009-12-03 06:00,ZHCC 030600Z AUTO 18010KT 7SM 11/M05 A3030 RMK SLP262 T01091051 57043 IEM_DS3505
ZHCC,2009-12-03 07:00,ZHCC 030700Z AUTO 20008KT 2 1/2SM 10/M04 A3027 RMK T01001040 IEM_DS3505
ZHCC,2009-12-03 08:00,ZHCC 030800Z AUTO 18010KT 4SM 10/M04 A3024 RMK T01001040 IEM_DS3505
ZHCC,2009-12-03 09:00,ZHCC 030900Z AUTO 18006KT 7SM 09/M04 A3024 RMK SLP245 T00941042 57018 IEM_DS3505
ZHCC,2009-12-03 10:00,ZHCC 031000Z AUTO 17004KT 2 1/2SM 06/M03 A3021 RMK T00601030 IEM_DS3505
ZHCC,2009-12-03 11:00,ZHCC 031100Z AUTO 14004KT 2 1/2SM 06/M02 A3021 RMK T00601020 IEM_DS3505
ZHCC,2009-12-03 12:00,ZHCC 031200Z AUTO 16004KT 7SM 07/M02 A3021 RMK SLP242 T00691025 57004 IEM_DS3505
ZHCC,2009-12-03 13:00,ZHCC 031300Z AUTO 18006KT 2 1/2SM 05/M01 A3021 RMK T00501010 IEM_DS3505
ZHCC,2009-12-03 14:00,ZHCC 031400Z AUTO 20004KT 2 1/2SM 05/M01 A3021 RMK T00501010 IEM_DS3505
ZHCC,2009-12-03 15:00,ZHCC 031500Z AUTO 20004KT 6SM 05/M02 A3018 RMK SLP227 T00541020 57013 IEM_DS3505
ZHCC,2009-12-03 16:00,ZHCC 031600Z AUTO 19006KT 2 1/2SM 04/M01 A3015 RMK T00401010 IEM_DS3505
ZHCC,2009-12-03 17:00,ZHCC 031700Z AUTO 20004KT 2SM 03/M01 A3012 RMK T00301010 IEM_DS3505
ZHCC,2009-12-03 18:00,ZHCC 031800Z AUTO 18002KT 6SM 02/M02 A3012 RMK SLP205 T00171019 57022 IEM_DS3505
ZHCC,2009-12-03 19:00,ZHCC 031900Z AUTO 19004KT 02/M01 A3009 RMK T00201010 IEM_DS3505
ZHCC,2009-12-03 20:00,ZHCC 032000Z AUTO 19004KT 2SM 02/M02 A3006 RMK T00201020 IEM_DS3505
ZHCC,2009-12-03 21:00,ZHCC 032100Z AUTO 11002KT 6SM M00/M02 A3006 RMK SLP186 T10031022 57020 IEM_DS3505
ZHCC,2009-12-03 22:00,ZHCC 032200Z AUTO 00000KT 1 1/4SM 00/M03 A3003 RMK T00001030 IEM_DS3505
ZHCC,2009-12-03 23:00,ZHCC 032300Z AUTO 22004KT 2SM 02/M01 A3006 RMK T00201010 IEM_DS3505
ZHCC,2009-12-04 00:00,ZHCC 040000Z AUTO 27008KT 5SM 03/M02 A3006 RMK SLP188 T00271022 52002 IEM_DS3505
ZHCC,2009-12-04 01:00,ZHCC 040100Z AUTO 20006KT 2SM 07/00 A3006 RMK T00700000 IEM_DS3505
ZHCC,2009-12-04 02:00,ZHCC 040200Z AUTO 23010KT 2SM 08/M01 A3009 RMK T00801010 IEM_DS3505
ZHCC,2009-12-04 03:00,ZHCC 040300Z AUTO 27012G33KT 7SM 10/M05 A3009 RMK SLP198 T01011047 52012 IEM_DS3505
ZHCC,2009-12-04 04:00,ZHCC 040400Z AUTO 26023G33KT 2 1/2SM 12/M04 A3009 RMK T01201040 IEM_DS3505
ZHCC,2009-12-04 05:00,ZHCC 040500Z AUTO 26021G31KT 4SM 12/M05 A3006 RMK T01201050 IEM_DS3505
ZHCC,2009-12-04 06:00,ZHCC 040600Z AUTO 29019G35KT 6SM 13/M08 A3006 RMK SLP200 T01311081 52001 IEM_DS3505
ZHCC,2009-12-04 07:00,ZHCC 040700Z AUTO 27023KT 4SM 11/M05 A3012 RMK T01101050 IEM_DS3505
ZHCC,2009-12-04 08:00,ZHCC 040800Z AUTO 27029G39KT 4SM 11/M07 A3015 RMK T01101070 IEM_DS3505
ZHCC,2009-12-04 09:00,ZHCC 040900Z AUTO 29014G31KT 9SM 10/M14 A3018 RMK SLP230 T01011139 52029 IEM_DS3505
ZHCC,2009-12-04 10:00,ZHCC 041000Z AUTO 30010G19KT 4SM 08/M12 A3021 RMK T00801120 IEM_DS3505
ZHCC,2009-12-04 11:00,ZHCC 041100Z AUTO 29017G29KT 4SM 07/M12 A3024 RMK T00701120 IEM_DS3505
ZHCC,2009-12-04 12:00,ZHCC 041200Z AUTO 29014G41KT 9SM 08/M14 A3024 RMK SLP261 T00771139 52030 IEM_DS3505
ZHCC,2009-12-04 13:00,ZHCC 041300Z AUTO 28017G27KT 6SM 06/M13 A3030 RMK T00601130 IEM_DS3505
ZHCC,2009-12-04 14:00,ZHCC 041400Z AUTO 29014G23KT 6SM 05/M13 A3030 RMK T00501130 IEM_DS3505
ZHCC,2009-12-04 15:00,ZHCC 041500Z AUTO 32008KT 10SM 06/M16 A3030 RMK SLP273 T00631156 52014 IEM_DS3505
ZHCC,2009-12-04 16:00,ZHCC 041600Z AUTO 24010KT 6SM 02/M11 A3033 RMK T00201110 IEM_DS3505
ZHCC,2009-12-04 17:00,ZHCC 041700Z AUTO 27012KT 6SM 03/M12 A3030 RMK T00301120 IEM_DS3505
ZHCC,2009-12-04 18:00,ZHCC 041800Z AUTO 27004KT 10SM 03/M13 A3030 RMK SLP275 T00311128 52002 IEM_DS3505
ZHCC,2009-12-04 19:00,ZHCC 041900Z AUTO 27012KT 6SM 00/M13 A3030 RMK T00001130 IEM_DS3505
ZHCC,2009-12-04 20:00,ZHCC 042000Z AUTO 26008KT M02/M12 A3030 RMK T10201120 IEM_DS3505
ZHCC,2009-12-04 21:00,ZHCC 042100Z AUTO 29004KT 10SM 02/M13 A3030 RMK SLP271 T00211129 57005 IEM_DS3505
ZHCC,2009-12-04 22:00,ZHCC 042200Z AUTO 6SM M01/M12 A3030 RMK T10101120 IEM_DS3505
ZHCC,2009-12-04 23:00,ZHCC 042300Z AUTO 29002KT 6SM M01/M12 A3030 RMK T10101120 IEM_DS3505
ZHCC,2009-12-05 00:00,ZHCC 050000Z AUTO 29002KT 10SM M01/M09 A3027 RMK SLP265 T10141086 57008 IEM_DS3505
ZHCC,2009-12-05 01:00,ZHCC 050100Z AUTO 6SM 04/M10 A3030 RMK T00401100 IEM_DS3505
ZHCC,2009-12-05 02:00,ZHCC 050200Z AUTO 17006KT 4SM 04/M10 A3030 RMK T00401100 IEM_DS3505
ZHCC,2009-12-05 03:00,ZHCC 050300Z AUTO 16010KT 10SM 07/M11 A3027 RMK SLP260 T00731109 57003 IEM_DS3505
ZHCC,2009-12-05 04:00,ZHCC 050400Z AUTO 20006KT 4SM 06/M09 A3024 RMK T00601090 IEM_DS3505
ZHCC,2009-12-05 05:00,ZHCC 050500Z AUTO 19008KT 4SM 08/M10 A3018 RMK T00801100 IEM_DS3505
ZHCC,2009-12-05 06:00,ZHCC 050600Z AUTO 16008KT 10SM 10/M11 A3015 RMK SLP218 T01041110 57041 IEM_DS3505
ZHCC,2009-12-05 07:00,ZHCC 050700Z AUTO 18008KT 4SM 09/M07 A3015 RMK T00901070 IEM_DS3505
ZHCC,2009-12-05 08:00,ZHCC 050800Z AUTO 18008KT 4SM 08/M07 A3012 RMK T00801070 IEM_DS3505
ZHCC,2009-12-05 09:00,ZHCC 050900Z AUTO 16006KT 8SM 08/M08 A3015 RMK SLP216 T00841082 57003 IEM_DS3505
ZHCC,2009-12-05 10:00,ZHCC 051000Z AUTO 3SM 05/M07 A3015 RMK T00501070 IEM_DS3505
ZHCC,2009-12-05 11:00,ZHCC 051100Z AUTO 17004KT 3SM 04/M07 A3018 RMK T00401070 IEM_DS3505
ZHCC,2009-12-05 12:00,ZHCC 051200Z AUTO 11004KT 8SM 06/M08 A3018 RMK SLP227 T00601076 52009 IEM_DS3505
ZHCC,2009-12-05 13:00,ZHCC 051300Z AUTO 00000KT 3SM 02/M08 A3018 RMK T00201080 IEM_DS3505
ZHCC,2009-12-05 14:00,ZHCC 051400Z AUTO 00000KT 3SM 01/M07 A3018 RMK T00101070 IEM_DS3505
ZHCC,2009-12-05 15:00,ZHCC 051500Z AUTO 18004KT 8SM 04/M06 A3018 RMK SLP231 T00371063 52006 IEM_DS3505
ZHCC,2009-12-05 16:00,ZHCC 051600Z AUTO 00000KT 3SM 00/M05 A3018 RMK T00001050 IEM_DS3505
ZHCC,2009-12-05 17:00,ZHCC 051700Z AUTO 13004KT 1SM 01/M05 A3018 RMK T00101050 IEM_DS3505
ZHCC,2009-12-05 18:00,ZHCC 051800Z AUTO 00000KT 7SM 00/M05 A3018 RMK SLP230 T00021052 57001 IEM_DS3505
ZHCC,2009-12-05 19:00,ZHCC 051900Z AUTO 13004KT 01/M05 A3018 RMK T00101050 IEM_DS3505
ZHCC,2009-12-05 20:00,ZHCC 052000Z AUTO 14002KT M01/M06 A3018 RMK T10101060 IEM_DS3505
ZHCC,2009-12-05 21:00,ZHCC 052100Z AUTO 27002KT 7SM M01/M04 A3018 RMK SLP231 T10101045 54000 IEM_DS3505
ZHCC,2009-12-05 22:00,ZHCC 052200Z AUTO 05002KT 2SM M02/M05 A3018 RMK T10201050 IEM_DS3505
ZHCC,2009-12-05 23:00,ZHCC 052300Z AUTO 2SM M02/M06 A3018 RMK T10201060 IEM_DS3505
ZHCC,2009-12-06 00:00,ZHCC 060000Z AUTO 16002KT 4SM M01/M04 A3021 RMK SLP242 T10111044 52010 IEM_DS3505
ZHCC,2009-12-06 01:00,ZHCC 060100Z AUTO 2 1/2SM 01/M03 A3024 RMK T00101030 IEM_DS3505
ZHCC,2009-12-06 02:00,ZHCC 060200Z AUTO 36004KT 2 1/2SM 03/M03 A3024 RMK T00301030 IEM_DS3505
ZHCC,2009-12-06 03:00,ZHCC 060300Z AUTO 22002KT 4SM 05/M04 A3024 RMK SLP256 T00531035 52015 IEM_DS3505
ZHCC,2009-12-06 04:00,ZHCC 060400Z AUTO 32004KT 2 1/2SM 05/M03 A3024 RMK T00501030 IEM_DS3505
ZHCC,2009-12-06 05:00,ZHCC 060500Z AUTO 35004KT 2 1/2SM 06/M03 A3021 RMK T00601030 IEM_DS3505
ZHCC,2009-12-06 06:00,ZHCC 060600Z AUTO 04004KT 6SM 08/M04 A3018 RMK SLP235 T00801035 57021 IEM_DS3505
ZHCC,2009-12-06 07:00,ZHCC 060700Z AUTO 06004KT 2SM 07/M02 A3018 RMK T00701020 IEM_DS3505
ZHCC,2009-12-06 08:00,ZHCC 060800Z AUTO 07006KT 2SM 07/M02 A3021 RMK T00701020 IEM_DS3505
ZHCC,2009-12-06 09:00,ZHCC 060900Z AUTO 11004KT 6SM 07/M02 A3021 RMK SLP239 T00711021 52004 IEM_DS3505
ZHCC,2009-12-06 10:00,ZHCC 061000Z AUTO 10004KT 2SM 04/M02 A3024 RMK T00401020 IEM_DS3505
ZHCC,2009-12-06 11:00,ZHCC 061100Z AUTO 10004KT 2SM 04/M02 A3024 RMK T00401020 IEM_DS3505
ZHCC,2009-12-06 12:00,ZHCC 061200Z AUTO 09002KT 6SM 05/M02 A3027 RMK SLP259 T00511020 52019 IEM_DS3505
ZHCC,2009-12-06 13:00,ZHCC 061300Z AUTO 10002KT 2SM 03/M02 A3027 RMK T00301020 IEM_DS3505
ZHCC,2009-12-06 14:00,ZHCC 061400Z AUTO 10004KT 2SM 02/M03 A3027 RMK T00201030 IEM_DS3505
ZHCC,2009-12-06 15:00,ZHCC 061500Z AUTO 00000KT 4SM 01/M02 A3030 RMK SLP270 T00121019 52011 IEM_DS3505
ZHCC,2009-12-06 16:00,ZHCC 061600Z AUTO 2SM 02/M01 A3030 RMK T00201010 IEM_DS3505
ZHCC,2009-12-06 17:00,ZHCC 061700Z AUTO 00000KT 2SM 03/M02 A3027 RMK T00301020 IEM_DS3505
ZHCC,2009-12-06 18:00,ZHCC 061800Z AUTO 00000KT 4SM 01/M01 A3027 RMK SLP266 T00131014 57003 IEM_DS3505
ZHCC,2009-12-06 19:00,ZHCC 061900Z AUTO 06002KT 2SM 03/M02 A3030 RMK T00301020 IEM_DS3505
ZHCC,2009-12-06 20:00,ZHCC 062000Z AUTO 06002KT 2SM 02/M02 A3030 RMK T00201020 IEM_DS3505
ZHCC,2009-12-06 21:00,ZHCC 062100Z AUTO 00000KT 4SM 02/M02 A3027 RMK SLP266 T00191021 54000 IEM_DS3505
ZHCC,2009-12-06 22:00,ZHCC 062200Z AUTO 35002KT 2SM 02/M01 A3027 RMK T00201010 IEM_DS3505
ZHCC,2009-12-06 23:00,ZHCC 062300Z AUTO 00000KT 2SM 02/M01 A3027 RMK T00201010 IEM_DS3505
ZHCC,2009-12-07 00:00,ZHCC 070000Z AUTO 00000KT 3SM 03/M02 A3030 RMK SLP272 T00281021 52006 IEM_DS3505
ZHCC,2009-12-07 01:00,ZHCC 070100Z AUTO 03002KT 2SM 03/M01 A3030 RMK T00301010 IEM_DS3505
ZHCC,2009-12-07 02:00,ZHCC 070200Z AUTO 1 1/4SM 03/M01 A3033 RMK T00301010 IEM_DS3505
ZHCC,2009-12-07 03:00,ZHCC 070300Z AUTO 09002KT 3SM 05/M02 A3030 RMK SLP278 T00521022 52005 IEM_DS3505
ZHCC,2009-12-07 04:00,ZHCC 070400Z AUTO 00000KT 2SM 05/M02 A3030 RMK T00501020 IEM_DS3505
ZHCC,2009-12-07 05:00,ZHCC 070500Z AUTO 33004KT 2SM 06/M01 A3027 RMK T00601010 IEM_DS3505
ZHCC,2009-12-07 06:00,ZHCC 070600Z AUTO 27004KT 3SM 06/M02 A3024 RMK SLP258 T00621017 57019 IEM_DS3505
ZHCC,2009-12-07 07:00,ZHCC 070700Z AUTO 30008KT 1 1/4SM 06/00 A3024 RMK T00600000 IEM_DS3505
ZHCC,2009-12-07 08:00,ZHCC 070800Z AUTO 29006KT 1SM 06/00 A3027 RMK T00600000 IEM_DS3505
ZHCC,2009-12-07 09:00,ZHCC 070900Z AUTO 27004KT 4SM 06/M01 A3027 RMK SLP258 T00641010 54000 IEM_DS3505
ZHCC,2009-12-07 10:00,ZHCC 071000Z AUTO 26002KT 1 1/4SM 05/M01 A3027 RMK T00501010 IEM_DS3505
ZHCC,2009-12-07 11:00,ZHCC 071100Z AUTO 29004KT 1 1/4SM 05/00 A3030 RMK T00500000 IEM_DS3505
ZHCC,2009-12-07 12:00,ZHCC 071200Z AUTO 29004KT 3SM 06/M01 A3030 RMK SLP267 T00651009 52009 IEM_DS3505
ZHCC,2009-12-07 13:00,ZHCC 071300Z AUTO 30004KT 1SM 05/00 A3030 RMK T00500000 IEM_DS3505
ZHCC,2009-12-07 14:00,ZHCC 071400Z AUTO 28006KT 1SM 05/00 A3030 RMK T00500000 IEM_DS3505
ZHCC,2009-12-07 15:00,ZHCC 071500Z AUTO 29004KT 3SM 06/01 A3030 RMK SLP263 T00630006 57003 IEM_DS3505
ZHCC,2009-12-07 16:00,ZHCC 071600Z AUTO 14002KT 1SM 04/00 A3027 RMK T00400000 IEM_DS3505
ZHCC,2009-12-07 17:00,ZHCC 071700Z AUTO 17004KT 1SM 04/00 A3027 RMK T00400000 IEM_DS3505
ZHCC,2009-12-07 18:00,ZHCC 071800Z AUTO 18002KT 3SM 06/01 A3027 RMK SLP257 T00560006 57006 IEM_DS3505
ZHCC,2009-12-07 21:00,ZHCC 072100Z AUTO 20002KT 3SM 05/01 A3021 RMK SLP243 T00470010 57014 IEM_DS3505
ZHCC,2009-12-07 22:00,ZHCC 072200Z AUTO 17004KT 1SM 04/01 A3024 RMK T00400010 IEM_DS3505
ZHCC,2009-12-07 23:00,ZHCC 072300Z AUTO 18002KT 1SM 04/02 A3024 RMK T00400020 IEM_DS3505
ZHCC,2009-12-08 00:00,ZHCC 080000Z AUTO 27006KT 3SM 06/00 A3024 RMK SLP250 T00550001 52007 IEM_DS3505
ZHCC,2009-12-08 01:00,ZHCC 080100Z AUTO 00000KT 1SM 05/02 A3027 RMK T00500020 IEM_DS3505
ZHCC,2009-12-08 02:00,ZHCC 080200Z AUTO 28004KT 1SM 06/02 A3027 RMK T00600020 IEM_DS3505
ZHCC,2009-12-08 03:00,ZHCC 080300Z AUTO 32008KT 4SM 08/00 A3027 RMK SLP256 T00790002 52006 IEM_DS3505
ZHCC,2009-12-08 04:00,ZHCC 080400Z AUTO 30006KT 1 1/4SM 08/02 A3024 RMK T00800020 IEM_DS3505
ZHCC,2009-12-08 05:00,ZHCC 080500Z AUTO 33006KT 1 1/4SM 08/02 A3021 RMK T00800020 IEM_DS3505
ZHCC,2009-12-08 06:00,ZHCC 080600Z AUTO 02004KT 3SM 09/02 A3021 RMK SLP240 T00920016 57015 IEM_DS3505
ZHCC,2009-12-08 07:00,ZHCC 080700Z AUTO 03008KT 1SM 07/02 A3021 RMK T00700020 IEM_DS3505
ZHCC,2009-12-08 08:00,ZHCC 080800Z AUTO 36008KT 1SM 06/02 A3021 RMK T00600020 IEM_DS3505
ZHCC,2009-12-08 09:00,ZHCC 080900Z AUTO 04004KT 3SM 07/01 A3024 RMK SLP249 T00730014 52008 IEM_DS3505
ZHCC,2009-12-08 10:00,ZHCC 081000Z AUTO 1SM 06/02 A3024 RMK T00600020 IEM_DS3505
ZHCC,2009-12-08 11:00,ZHCC 081100Z AUTO 1SM 06/02 A3027 RMK T00600020 IEM_DS3505
ZHCC,2009-12-08 12:00,ZHCC 081200Z AUTO 07002KT 2 1/2SM 05/01 A3027 RMK SLP264 T00520010 52015 IEM_DS3505
ZHCC,2009-12-08 13:00,ZHCC 081300Z AUTO 34004KT 1SM 05/02 A3027 RMK T00500020 IEM_DS3505
ZHCC,2009-12-08 14:00,ZHCC 081400Z AUTO 33004KT 1SM 04/02 A3030 RMK T00400020 IEM_DS3505
ZHCC,2009-12-08 15:00,ZHCC 081500Z AUTO 25002KT 2 1/2SM 02/00 A3030 RMK SLP271 T00210005 52006 IEM_DS3505
ZHCC,2009-12-08 16:00,ZHCC 081600Z AUTO 35006KT 1SM 04/02 A3027 RMK T00400020 IEM_DS3505
ZHCC,2009-12-08 17:00,ZHCC 081700Z AUTO 36006KT 1SM 03/00 A3027 RMK T00300000 IEM_DS3505
ZHCC,2009-12-08 18:00,ZHCC 081800Z AUTO 00000KT 2SM 02/00 RMK SLP256 T00180005 57014 IEM_DS3505
ZHCC,2009-12-08 19:00,ZHCC 081900Z AUTO 35006KT 1SM 03/M01 A3027 RMK T00301010 IEM_DS3505
ZHCC,2009-12-08 20:00,ZHCC 082000Z AUTO 35004KT 1/2SM 02/M02 A3024 RMK T00201020 IEM_DS3505
ZHCC,2009-12-08 21:00,ZHCC 082100Z AUTO 18002KT 1SM 00/M01 A3024 RMK SLP250 T00041006 57007 IEM_DS3505
ZHCC,2009-12-08 22:00,ZHCC 082200Z AUTO 29002KT 1SM M01/M03 A3024 RMK T10101030 IEM_DS3505
ZHCC,2009-12-08 23:00,ZHCC 082300Z AUTO 33004KT 3/8SM 01/M02 A3024 RMK T00101020 IEM_DS3505
ZHCC,2009-12-09 00:00,ZHCC 090000Z AUTO 00000KT 1SM M01/M02 A3024 RMK SLP254 T10091019 52003 IEM_DS3505
ZHCC,2009-12-09 01:00,ZHCC 090100Z AUTO 32004KT 3/8SM 02/M01 A3024 RMK T00201010 IEM_DS3505
ZHCC,2009-12-09 02:00,ZHCC 090200Z AUTO 34004KT 3/8SM 03/00 A3027 RMK T00300000 IEM_DS3505
ZHCC,2009-12-09 03:00,ZHCC 090300Z AUTO 34002KT 1 1/4SM 06/M02 A3024 RMK SLP254 T00571015 52001 IEM_DS3505
ZHCC,2009-12-09 04:00,ZHCC 090400Z AUTO 34006KT 1SM 06/M01 A3021 RMK T00601010 IEM_DS3505
ZHCC,2009-12-09 05:00,ZHCC 090500Z AUTO 01004KT 1SM 07/M02 A3018 RMK T00701020 IEM_DS3505
ZHCC,2009-12-09 06:00,ZHCC 090600Z AUTO 09004KT 3SM 09/M02 A3015 RMK SLP218 T00861024 57035 IEM_DS3505
ZHCC,2009-12-09 07:00,ZHCC 090700Z AUTO 08004KT 1SM 08/01 A3012 RMK T00800010 IEM_DS3505
ZHCC,2009-12-09 08:00,ZHCC 090800Z AUTO 1 1/4SM 08/01 A3015 RMK T00800010 IEM_DS3505
ZHCC,2009-12-09 09:00,ZHCC 090900Z AUTO 04004KT 2SM 08/M00 A3015 RMK SLP220 T00751002 52001 IEM_DS3505
ZHCC,2009-12-09 10:00,ZHCC 091000Z AUTO 17002KT 1SM 06/01 A3018 RMK T00600010 IEM_DS3505
ZHCC,2009-12-09 11:00,ZHCC 091100Z AUTO 06004KT 1SM 06/02 A3018 RMK T00600020 IEM_DS3505
ZHCC,2009-12-09 12:00,ZHCC 091200Z AUTO 09002KT 2SM 06/01 A3015 RMK SLP225 T00560008 52005 IEM_DS3505
ZHCC,2009-12-09 13:00,ZHCC 091300Z AUTO 1SM 05/01 A3015 RMK T00500010 IEM_DS3505
ZHCC,2009-12-09 14:00,ZHCC 091400Z AUTO 00000KT 1SM 04/01 A3018 RMK T00400010 IEM_DS3505
ZHCC,2009-12-09 15:00,ZHCC 091500Z AUTO 00000KT 1 1/4SM 04/01 A3015 RMK SLP223 T00350011 57001 IEM_DS3505
ZHCC,2009-12-09 16:00,ZHCC 091600Z AUTO 00000KT 1SM 03/01 A3015 RMK T00300010 IEM_DS3505
ZHCC,2009-12-09 17:00,ZHCC 091700Z AUTO 1SM 03/01 A3012 RMK T00300010 IEM_DS3505
ZHCC,2009-12-09 18:00,ZHCC 091800Z AUTO 14004KT 1 1/4SM 04/02 A3009 RMK SLP201 T00420016 57021 IEM_DS3505
ZHCC,2009-12-09 19:00,ZHCC 091900Z AUTO 00000KT 1/2SM 04/02 A3009 RMK T00400020 IEM_DS3505
ZHCC,2009-12-09 20:00,ZHCC 092000Z AUTO 00000KT 3/8SM 04/02 A3009 RMK T00400020 IEM_DS3505
ZHCC,2009-12-09 21:00,ZHCC 092100Z AUTO 11004KT 1 1/4SM 05/02 A3006 RMK SLP193 T00490016 57008 IEM_DS3505
ZHCC,2009-12-09 22:00,ZHCC 092200Z AUTO 07002KT 1SM 04/02 A3006 RMK T00400020 IEM_DS3505
ZHCC,2009-12-09 23:00,ZHCC 092300Z AUTO 11002KT 1SM 03/01 A3006 RMK T00300010 IEM_DS3505
ZHCC,2009-12-10 00:00,ZHCC 100000Z AUTO 09002KT 1SM 03/01 A3006 RMK SLP188 T00330012 57006 IEM_DS3505
ZHCC,2009-12-10 01:00,ZHCC 100100Z AUTO 00000KT 1/2SM 03/02 A3006 RMK T00300020 IEM_DS3505
ZHCC,2009-12-10 02:00,ZHCC 100200Z AUTO 14002KT 1/2SM 05/04 A3006 RMK T00500040 IEM_DS3505
ZHCC,2009-12-10 03:00,ZHCC 100300Z AUTO 11004KT 1SM 07/02 A3006 RMK SLP190 T00700023 52002 IEM_DS3505
ZHCC,2009-12-10 04:00,ZHCC 100400Z AUTO 13008KT 1SM 07/04 A3003 RMK T00700040 IEM_DS3505
ZHCC,2009-12-10 05:00,ZHCC 100500Z AUTO 17006KT 1SM 07/04 A3000 RMK T00700040 IEM_DS3505
ZHCC,2009-12-10 06:00,ZHCC 100600Z AUTO 16006KT 1 1/4SM 08/03 A2997 RMK SLP154 T00840028 57035 IEM_DS3505
ZHCC,2009-12-10 07:00,ZHCC 100700Z AUTO 14006KT 1SM 08/04 A2997 RMK T00800040 IEM_DS3505
ZHCC,2009-12-10 08:00,ZHCC 100800Z AUTO 13006KT 1SM 08/04 A2997 RMK T00800040 IEM_DS3505
ZHCC,2009-12-10 09:00,ZHCC 100900Z AUTO 14004KT 2SM 08/04 A3000 RMK SLP163 T00840035 52010 IEM_DS3505
ZHCC,2009-12-10 10:00,ZHCC 101000Z AUTO 12004KT 1SM 07/04 A3000 RMK T00700040 IEM_DS3505
ZHCC,2009-12-10 11:00,ZHCC 101100Z AUTO 09004KT 1SM 07/04 A3003 RMK T00700040 IEM_DS3505
ZHCC,2009-12-10 12:00,ZHCC 101200Z AUTO 04002KT 1 1/4SM 08/04 A3003 RMK SLP183 T00780038 52019 IEM_DS3505
ZHCC,2009-12-10 13:00,ZHCC 101300Z AUTO 14002KT 1SM 07/05 A3006 RMK T00700050 IEM_DS3505
ZHCC,2009-12-10 14:00,ZHCC 101400Z AUTO 16004KT 1SM 07/05 A3009 RMK T00700050 IEM_DS3505
ZHCC,2009-12-10 15:00,ZHCC 101500Z AUTO 09002KT 1 1/4SM 07/04 A3009 RMK SLP199 T00740042 52016 IEM_DS3505
ZHCC,2009-12-10 16:00,ZHCC 101600Z AUTO 15002KT 1SM 07/05 A3009 RMK T00700050 IEM_DS3505
ZHCC,2009-12-10 17:00,ZHCC 101700Z AUTO 18004KT 1SM 07/05 A3009 RMK T00700050 IEM_DS3505
ZHCC,2009-12-10 18:00,ZHCC 101800Z AUTO 27004KT 1 1/4SM 07/04 A3009 RMK SLP199 T00710039 52001 IEM_DS3505
ZHCC,2009-12-10 19:00,ZHCC 101900Z AUTO 23002KT 1SM 06/05 A3006 RMK T00600050 IEM_DS3505
ZHCC,2009-12-10 20:00,ZHCC 102000Z AUTO 00000KT 1SM 06/04 A3009 RMK T00600040 IEM_DS3505
ZHCC,2009-12-10 21:00,ZHCC 102100Z AUTO 25004KT 1 1/4SM 07/04 A3006 RMK SLP192 T00680036 57007 IEM_DS3505
ZHCC,2009-12-10 22:00,ZHCC 102200Z AUTO 00000KT 1SM 06/05 A3006 RMK T00600050 IEM_DS3505
ZHCC,2009-12-10 23:00,ZHCC 102300Z AUTO 28004KT 1SM 06/05 A3012 RMK T00600050 IEM_DS3505
ZHCC,2009-12-11 00:00,ZHCC 110000Z AUTO 27006KT 1 1/4SM 09/02 A3012 RMK SLP207 T00860020 52015 IEM_DS3505
ZHCC,2009-12-11 01:00,ZHCC 110100Z AUTO 28006KT 1SM 07/05 A3015 RMK T00700050 IEM_DS3505
ZHCC,2009-12-11 02:00,ZHCC 110200Z AUTO 33004KT 1SM 08/05 A3018 RMK T00800050 IEM_DS3505
ZHCC,2009-12-11 03:00,ZHCC 110300Z AUTO 32006KT 1 1/4SM 10/02 A3021 RMK SLP234 T00960017 52026 IEM_DS3505
ZHCC,2009-12-11 04:00,ZHCC 110400Z AUTO 34008KT 1SM 08/04 A3018 RMK T00800040 IEM_DS3505
ZHCC,2009-12-11 05:00,ZHCC 110500Z AUTO 32010KT 1/2SM 07/04 A3018 RMK T00700040 IEM_DS3505
ZHCC,2009-12-11 06:00,ZHCC 110600Z AUTO 04006KT 1 1/4SM 09/02 A3018 RMK SLP234 T00890018 54000 IEM_DS3505
ZHCC,2009-12-11 07:00,ZHCC 110700Z AUTO 35014KT 1/2SM 07/02 A3018 RMK T00700020 IEM_DS3505
ZHCC,2009-12-11 08:00,ZHCC 110800Z AUTO 36010KT 1/2SM 07/00 A3021 RMK T00700000 IEM_DS3505
ZHCC,2009-12-11 09:00,ZHCC 110900Z AUTO 02006KT 1 1/4SM 07/M01 A3024 RMK SLP257 T00711008 52022 IEM_DS3505
ZHCC,2009-12-11 10:00,ZHCC 111000Z AUTO 35012KT 1/2SM 04/00 A3030 RMK T00400000 IEM_DS3505
ZHCC,2009-12-11 11:00,ZHCC 111100Z AUTO 35010KT 1/2SM 04/01 A3030 RMK T00400010 IEM_DS3505
ZHCC,2009-12-11 12:00,ZHCC 111200Z AUTO 04008KT 1SM 04/M02 A3033 RMK SLP284 T00451015 52027 IEM_DS3505
ZHCC,2009-12-11 13:00,ZHCC 111300Z AUTO 34008KT 1SM 02/00 A3036 RMK T00200000 IEM_DS3505
ZHCC,2009-12-11 14:00,ZHCC 111400Z AUTO 32008KT 1SM 02/M01 A3036 RMK T00201010 IEM_DS3505
ZHCC,2009-12-11 15:00,ZHCC 111500Z AUTO 02006KT 2SM 03/M04 A3039 RMK SLP302 T00341041 52018 IEM_DS3505
ZHCC,2009-12-11 16:00,ZHCC 111600Z AUTO 32006KT 1SM 01/M02 A3039 RMK T00101020 IEM_DS3505
ZHCC,2009-12-11 17:00,ZHCC 111700Z AUTO 33008KT 1 1/4SM 01/M03 A3039 RMK T00101030 IEM_DS3505
ZHCC,2009-12-11 18:00,ZHCC 111800Z AUTO 07004KT 2SM 02/M04 A3039 RMK SLP305 T00221045 52002 IEM_DS3505
ZHCC,2009-12-11 19:00,ZHCC 111900Z AUTO 35010KT 1 1/4SM 00/M04 A3039 RMK T00001040 IEM_DS3505
ZHCC,2009-12-11 20:00,ZHCC 112000Z AUTO 35008KT 1 1/2SM 00/M05 A3039 RMK T00001050 IEM_DS3505
ZHCC,2009-12-11 21:00,ZHCC 112100Z AUTO 02004KT 6SM 02/M09 A3039 RMK SLP307 T00161088 52001 IEM_DS3505
ZHCC,2009-12-11 22:00,ZHCC 112200Z AUTO 33010KT 2 1/2SM M01/M07 A3039 RMK T10101070 IEM_DS3505
ZHCC,2009-12-11 23:00,ZHCC 112300Z AUTO 35008KT 4SM M01/M08 A3039 RMK T10101080 IEM_DS3505
ZHCC,2009-12-12 00:00,ZHCC 120000Z AUTO 04004KT 9SM 01/M12 A3042 RMK SLP310 T00121119 52003 IEM_DS3505
ZHCC,2009-12-12 01:00,ZHCC 120100Z AUTO 35010KT 4SM 00/M10 A3042 RMK T00001100 IEM_DS3505
ZHCC,2009-12-12 02:00,ZHCC 120200Z AUTO 35010KT 4SM 01/M11 A3042 RMK T00101110 IEM_DS3505
ZHCC,2009-12-12 03:00,ZHCC 120300Z AUTO 04002KT 7SM 03/M14 A3042 RMK SLP314 T00331135 52004 IEM_DS3505
ZHCC,2009-12-12 04:00,ZHCC 120400Z AUTO 03010KT 4SM 03/M11 A3039 RMK T00301110 IEM_DS3505
ZHCC,2009-12-12 05:00,ZHCC 120500Z AUTO 01010KT 4SM 03/M11 A3033 RMK T00301110 IEM_DS3505
ZHCC,2009-12-12 06:00,ZHCC 120600Z AUTO 04004KT 8SM 04/M14 A3033 RMK SLP280 T00451143 57034 IEM_DS3505
ZHCC,2009-12-12 07:00,ZHCC 120700Z AUTO 34010KT 4SM 04/M12 A3033 RMK T00401120 IEM_DS3505
ZHCC,2009-12-12 08:00,ZHCC 120800Z AUTO 33008KT 4SM 03/M13 A3033 RMK T00301130 IEM_DS3505
ZHCC,2009-12-12 09:00,ZHCC 120900Z AUTO 02004KT 9SM 04/M16 A3033 RMK SLP283 T00441155 52003 IEM_DS3505
ZHCC,2009-12-12 10:00,ZHCC 121000Z AUTO 33004KT 4SM 03/M12 A3033 RMK T00301120 IEM_DS3505
ZHCC,2009-12-12 11:00,ZHCC 121100Z AUTO 4SM 03/M13 A3036 RMK T00301130 IEM_DS3505
ZHCC,2009-12-12 12:00,ZHCC 121200Z AUTO 04004KT 8SM 04/M13 A3036 RMK SLP298 T00371127 52015 IEM_DS3505
ZHCC,2009-12-12 13:00,ZHCC 121300Z AUTO 32008KT 4SM 02/M11 A3036 RMK T00201110 IEM_DS3505
ZHCC,2009-12-12 14:00,ZHCC 121400Z AUTO 31006KT 4SM 02/M11 A3039 RMK T00201110 IEM_DS3505
ZHCC,2009-12-12 15:00,ZHCC 121500Z AUTO 00000KT 8SM 02/M10 A3039 RMK SLP301 T00231099 52003 IEM_DS3505
ZHCC,2009-12-12 16:00,ZHCC 121600Z AUTO 32002KT 4SM 02/M10 A3036 RMK T00201100 IEM_DS3505
ZHCC,2009-12-12 17:00,ZHCC 121700Z AUTO 31002KT 01/M10 A3036 RMK T00101100 IEM_DS3505
ZHCC,2009-12-12 18:00,ZHCC 121800Z AUTO 16002KT 7SM M00/M06 A3036 RMK SLP295 T10051065 57007 IEM_DS3505
ZHCC,2009-12-12 19:00,ZHCC 121900Z AUTO 26002KT M01/M09 A3036 RMK T10101090 IEM_DS3505
ZHCC,2009-12-12 20:00,ZHCC 122000Z AUTO 22004KT M02/M08 A3036 RMK T10201080 IEM_DS3505
ZHCC,2009-12-12 21:00,ZHCC 122100Z AUTO 18002KT 7SM M03/M07 A3036 RMK SLP290 T10291071 57005 IEM_DS3505
ZHCC,2009-12-12 22:00,ZHCC 122200Z AUTO 00000KT 6SM M03/M08 A3036 RMK T10301080 IEM_DS3505
ZHCC,2009-12-12 23:00,ZHCC 122300Z AUTO 00000KT 4SM M03/M07 A3036 RMK T10301070 IEM_DS3505
ZHCC,2009-12-13 00:00,ZHCC 130000Z AUTO 09002KT 5SM M02/M06 A3033 RMK SLP287 T10211061 57003 IEM_DS3505
ZHCC,2009-12-13 01:00,ZHCC 130100Z AUTO 14002KT 2 1/2SM 00/M05 A3039 RMK T00001050 IEM_DS3505
ZHCC,2009-12-13 02:00,ZHCC 130200Z AUTO 16004KT 2 1/2SM 01/M04 A3039 RMK T00101040 IEM_DS3505
ZHCC,2009-12-13 03:00,ZHCC 130300Z AUTO 16004KT 6SM 04/M06 A3036 RMK SLP294 T00381065 52008 IEM_DS3505
ZHCC,2009-12-13 04:00,ZHCC 130400Z AUTO 18004KT 2 1/2SM 04/M05 A3033 RMK T00401050 IEM_DS3505
ZHCC,2009-12-13 05:00,ZHCC 130500Z AUTO 18004KT 2 1/2SM 05/M05 A3030 RMK T00501050 IEM_DS3505
ZHCC,2009-12-13 06:00,ZHCC 130600Z AUTO 11002KT 6SM 07/M08 A3027 RMK SLP259 T00711077 57034 IEM_DS3505
ZHCC,2009-12-13 07:00,ZHCC 130700Z AUTO 18006KT 2SM 05/M05 A3027 RMK T00501050 IEM_DS3505
ZHCC,2009-12-13 08:00,ZHCC 130800Z AUTO 16004KT 2SM 05/M06 A3024 RMK T00501060 IEM_DS3505
ZHCC,2009-12-13 09:00,ZHCC 130900Z AUTO 14004KT 6SM 05/M06 A3027 RMK SLP258 T00541056 57002 IEM_DS3505
ZHCC,2009-12-13 10:00,ZHCC 131000Z AUTO 17004KT 2SM 02/M05 A3027 RMK T00201050 IEM_DS3505
ZHCC,2009-12-13 11:00,ZHCC 131100Z AUTO 16004KT 2SM 02/M05 A3030 RMK T00201050 IEM_DS3505
ZHCC,2009-12-13 12:00,ZHCC 131200Z AUTO 07004KT 6SM 03/M05 A3030 RMK SLP278 T00271047 52019 IEM_DS3505
ZHCC,2009-12-13 13:00,ZHCC 131300Z AUTO 14004KT 2SM 02/M05 A3033 RMK T00201050 IEM_DS3505
ZHCC,2009-12-13 14:00,ZHCC 131400Z AUTO 10004KT 2SM 00/M05 A3036 RMK T00001050 IEM_DS3505
ZHCC,2009-12-13 15:00,ZHCC 131500Z AUTO 09002KT 6SM 01/M06 A3036 RMK SLP288 T00111056 52011 IEM_DS3505
ZHCC,2009-12-13 16:00,ZHCC 131600Z AUTO 1 1/4SM 00/M04 A3036 RMK T00001040 IEM_DS3505
ZHCC,2009-12-13 17:00,ZHCC 131700Z AUTO 12002KT 1SM M01/M04 A3036 RMK T10101040 IEM_DS3505
ZHCC,2009-12-13 18:00,ZHCC 131800Z AUTO 07002KT 4SM M02/M05 A3036 RMK SLP295 T10201051 52007 IEM_DS3505
ZHCC,2009-12-13 19:00,ZHCC 131900Z AUTO 10002KT 1SM M01/M03 A3039 RMK T10101030 IEM_DS3505
ZHCC,2009-12-13 20:00,ZHCC 132000Z AUTO 00000KT 1SM 00/M02 A3039 RMK T00001020 IEM_DS3505
ZHCC,2009-12-13 21:00,ZHCC 132100Z AUTO 07002KT 4SM 00/M02 A3036 RMK SLP287 T00001016 57008 IEM_DS3505
ZHCC,2009-12-13 22:00,ZHCC 132200Z AUTO 00000KT 1SM 00/M01 A3036 RMK T00001010 IEM_DS3505
ZHCC,2009-12-13 23:00,ZHCC 132300Z AUTO 03004KT 1SM 00/M02 A3042 RMK T00001020 IEM_DS3505
ZHCC,2009-12-14 00:00,ZHCC 140000Z AUTO 04002KT 1 1/4SM 01/M00 A3045 RMK SLP319 T00111005 52031 IEM_DS3505
ZHCC,2009-12-14 01:00,ZHCC 140100Z AUTO 01006KT 1SM 00/M01 A3045 RMK T00001010 IEM_DS3505
ZHCC,2009-12-14 02:00,ZHCC 140200Z AUTO 04004KT 1SM 01/00 A3047 RMK T00100000 IEM_DS3505
ZHCC,2009-12-14 03:00,ZHCC 140300Z AUTO 02004KT 4SM 03/M04 A3047 RMK SLP333 T00311037 52014 IEM_DS3505
ZHCC,2009-12-14 05:00,ZHCC 140500Z AUTO 02008KT 1 1/4SM 03/M03 A3042 RMK T00301030 IEM_DS3505
ZHCC,2009-12-14 06:00,ZHCC 140600Z AUTO 04004KT 5SM 04/M03 A3039 RMK SLP307 T00381032 57026 IEM_DS3505
ZHCC,2009-12-14 07:00,ZHCC 140700Z AUTO 02010KT 1SM 03/M02 A3039 RMK T00301020 IEM_DS3505
ZHCC,2009-12-14 08:00,ZHCC 140800Z AUTO 02012KT 1SM 03/M02 A3039 RMK T00301020 IEM_DS3505
ZHCC,2009-12-14 09:00,ZHCC 140900Z AUTO 04004KT 5SM 04/M05 A3042 RMK SLP315 T00361046 52008 IEM_DS3505
ZHCC,2009-12-14 10:00,ZHCC 141000Z AUTO 03012KT 1SM 01/M02 A3045 RMK T00101020 IEM_DS3505
ZHCC,2009-12-14 11:00,ZHCC 141100Z AUTO 03010KT 1SM 00/M01 A3045 RMK T00001010 IEM_DS3505
ZHCC,2009-12-14 12:00,ZHCC 141200Z AUTO 07006KT 4SM 02/M04 A3047 RMK 60000 SLP335 T00161035 52020 IEM_DS3505
ZHCC,2009-12-14 13:00,ZHCC 141300Z AUTO 04008KT 1SM 00/M01 A3050 RMK T00001010 IEM_DS3505
ZHCC,2009-12-14 14:00,ZHCC 141400Z AUTO 02010KT 2SM 00/M01 A3050 RMK T00001010 IEM_DS3505
ZHCC,2009-12-14 15:00,ZHCC 141500Z AUTO 04002KT 4SM 00/M01 A3053 RMK SLP352 T00041012 52016 IEM_DS3505
ZHCC,2009-12-14 16:00,ZHCC 141600Z AUTO 36008KT 1SM M01/M02 A3050 RMK T10101020 IEM_DS3505
ZHCC,2009-12-14 17:00,ZHCC 141700Z AUTO 36008KT 3/8SM M01/M01 A3050 RMK T10101010 IEM_DS3505
ZHCC,2009-12-14 18:00,ZHCC 141800Z AUTO 04006KT 4SM 01/M03 A3050 RMK 60002 SLP351 T00081028 54000 IEM_DS3505
ZHCC,2009-12-14 19:00,ZHCC 141900Z AUTO 02008KT 3/8SM M01/M01 A3050 RMK T10101010 IEM_DS3505
ZHCC,2009-12-14 20:00,ZHCC 142000Z AUTO 36008KT 3/8SM M01/M01 A3050 RMK T10101010 IEM_DS3505
ZHCC,2009-12-14 21:00,ZHCC 142100Z AUTO 02006KT 4SM 01/M03 A3050 RMK 70003 SLP348 T00081033 57003 IEM_DS3505
ZHCC,2009-12-14 22:00,ZHCC 142200Z AUTO 36008KT 1SM M01/M02 A3050 RMK T10101020 IEM_DS3505
ZHCC,2009-12-14 23:00,ZHCC 142300Z AUTO 01008KT 1SM M01/M02 A3053 RMK T10101020 IEM_DS3505
ZHCC,2009-12-15 00:00,ZHCC 150000Z AUTO 02002KT 2 1/2SM 00/M02 A3053 RMK 60002 70004 SLP358 T00041020 52009 IEM_DS3505
ZHCC,2009-12-15 02:00,ZHCC 150200Z AUTO 33008KT 1SM 00/M01 A3056 RMK T00001010 IEM_DS3505
ZHCC,2009-12-15 03:00,ZHCC 150300Z AUTO 04006KT 2 1/2SM 01/M02 A3056 RMK SLP367 T00131019 52009 IEM_DS3505
ZHCC,2009-12-15 04:00,ZHCC 150400Z AUTO 32008KT 3/8SM 00/M01 A3053 RMK T00001010 IEM_DS3505
ZHCC,2009-12-15 05:00,ZHCC 150500Z AUTO 35006KT 1/2SM 00/00 A3050 RMK T00000000 IEM_DS3505
ZHCC,2009-12-15 06:00,ZHCC 150600Z AUTO 07004KT 2SM 02/M01 A3050 RMK 60000 SLP342 T00241010 57024 IEM_DS3505
ZHCC,2009-12-15 07:00,ZHCC 150700Z AUTO 01006KT 1SM 01/01 A3050 RMK T00100010 IEM_DS3505
ZHCC,2009-12-15 08:00,ZHCC 150800Z AUTO 02004KT 1SM 01/00 A3050 RMK T00100000 IEM_DS3505
ZHCC,2009-12-15 09:00,ZHCC 150900Z AUTO 07004KT 2SM 02/M01 A3050 RMK SLP347 T00181011 52004 IEM_DS3505
ZHCC,2009-12-15 10:00,ZHCC 151000Z AUTO 02004KT 1/2SM 01/00 A3050 RMK T00100000 IEM_DS3505
ZHCC,2009-12-15 11:00,ZHCC 151100Z AUTO 02006KT 1SM 00/M01 A3053 RMK T00001010 IEM_DS3505
ZHCC,2009-12-15 12:00,ZHCC 151200Z AUTO 07002KT 2 1/2SM 01/M02 A3053 RMK 60000 SLP358 T00101022 52011 IEM_DS3505
ZHCC,2009-12-15 13:00,ZHCC 151300Z AUTO 34004KT 1 1/2SM 00/M02 A3053 RMK T00001020 IEM_DS3505
ZHCC,2009-12-15 14:00,ZHCC 151400Z AUTO 36002KT 2SM 00/M02 A3053 RMK T00001020 IEM_DS3505
ZHCC,2009-12-15 15:00,ZHCC 151500Z AUTO 07004KT 5SM 00/M06 A3053 RMK SLP359 T00031065 52001 IEM_DS3505
ZHCC,2009-12-15 16:00,ZHCC 151600Z AUTO 35004KT 2 1/2SM M01/M05 A3053 RMK T10101050 IEM_DS3505
ZHCC,2009-12-15 17:00,ZHCC 151700Z AUTO 2 1/2SM M01/M05 A3050 RMK T10101050 IEM_DS3505
ZHCC,2009-12-15 18:00,ZHCC 151800Z AUTO 09004KT 6SM M00/M07 A3050 RMK SLP345 T10021066 57014 IEM_DS3505
ZHCC,2009-12-15 19:00,ZHCC 151900Z AUTO 00000KT 2 1/2SM M01/M05 A3050 RMK T10101050 IEM_DS3505
ZHCC,2009-12-15 20:00,ZHCC 152000Z AUTO 26004KT 2 1/2SM M01/M05 A3050 RMK T10101050 IEM_DS3505
ZHCC,2009-12-15 21:00,ZHCC 152100Z AUTO 11002KT 6SM M00/M06 RMK 70002 SLP330 T10021058 57015 IEM_DS3505
ZHCC,2009-12-15 22:00,ZHCC 152200Z AUTO 14002KT 2SM M02/M05 A3047 RMK T10201050 IEM_DS3505
ZHCC,2009-12-15 23:00,ZHCC 152300Z AUTO 17004KT 2SM M02/M05 A3047 RMK T10201050 IEM_DS3505
ZHCC,2009-12-16 00:00,ZHCC 160000Z AUTO 22002KT 4SM M00/M04 A3047 RMK 70000 SLP335 T10031044 52005 IEM_DS3505
ZHCC,2009-12-16 01:00,ZHCC 160100Z AUTO 1 1/2SM M01/M04 A3050 RMK T10101040 IEM_DS3505
ZHCC,2009-12-16 02:00,ZHCC 160200Z AUTO 1 1/4SM 01/M02 A3050 RMK T00101020 IEM_DS3505
ZHCC,2009-12-16 03:00,ZHCC 160300Z AUTO 20004KT 2 1/2SM 03/M02 A3047 RMK SLP334 T00311015 54000 IEM_DS3505
ZHCC,2009-12-16 04:00,ZHCC 160400Z AUTO 23004KT 1SM 02/00 A3045 RMK T00200000 IEM_DS3505
ZHCC,2009-12-16 05:00,ZHCC 160500Z AUTO 24006KT 1 1/4SM 04/00 A3042 RMK T00400000 IEM_DS3505
ZHCC,2009-12-16 06:00,ZHCC 160600Z AUTO 27004KT 3SM 06/M01 A3039 RMK SLP299 T00591013 57034 IEM_DS3505
ZHCC,2009-12-16 07:00,ZHCC 160700Z AUTO 1 1/4SM 04/00 A3039 RMK T00400000 IEM_DS3505
ZHCC,2009-12-16 08:00,ZHCC 160800Z AUTO 1 1/4SM 05/00 A3036 RMK T00500000 IEM_DS3505
ZHCC,2009-12-16 09:00,ZHCC 160900Z AUTO 09004KT 4SM 04/M01 A3039 RMK SLP301 T00361012 52001 IEM_DS3505
ZHCC,2009-12-16 10:00,ZHCC 161000Z AUTO 06006KT 1SM 01/M01 A3039 RMK T00101010 IEM_DS3505
ZHCC,2009-12-16 11:00,ZHCC 161100Z AUTO 09004KT 1SM 00/M02 A3039 RMK T00001020 IEM_DS3505
ZHCC,2009-12-16 12:00,ZHCC 161200Z AUTO 04002KT 2 1/2SM 01/M02 A3042 RMK SLP313 T00081023 52011 IEM_DS3505
ZHCC,2009-12-16 13:00,ZHCC 161300Z AUTO 03004KT 1SM M01/M03 A3042 RMK T10101030 IEM_DS3505
ZHCC,2009-12-16 14:00,ZHCC 161400Z AUTO 36004KT 1SM M01/M03 A3045 RMK T10101030 IEM_DS3505
ZHCC,2009-12-16 15:00,ZHCC 161500Z AUTO 25002KT 2SM M02/M03 A3045 RMK SLP325 T10171030 52012 IEM_DS3505
ZHCC,2009-12-16 16:00,ZHCC 161600Z AUTO 1SM M02/M04 A3045 RMK T10201040 IEM_DS3505
ZHCC,2009-12-16 17:00,ZHCC 161700Z AUTO 01002KT 1SM M03/M04 A3045 RMK T10301040 IEM_DS3505
ZHCC,2009-12-16 18:00,ZHCC 161800Z AUTO 14002KT 2 1/2SM M02/M04 A3045 RMK SLP318 T10221039 57006 IEM_DS3505
ZHCC,2009-12-16 19:00,ZHCC 161900Z AUTO 1SM M05/M06 A3042 RMK T10501060 IEM_DS3505
ZHCC,2009-12-16 20:00,ZHCC 162000Z AUTO 32004KT 3/8SM M03/M05 A3042 RMK T10301050 IEM_DS3505
ZHCC,2009-12-16 21:00,ZHCC 162100Z AUTO 25002KT 1 1/4SM M03/M05 A3042 RMK SLP315 T10331047 57004 IEM_DS3505
ZHCC,2009-12-16 22:00,ZHCC 162200Z AUTO 29004KT 1SM M04/M06 A3042 RMK T10401060 IEM_DS3505
ZHCC,2009-12-16 23:00,ZHCC 162300Z AUTO 34006KT 6SM M03/M06 A3045 RMK T10301060 IEM_DS3505
ZHCC,2009-12-17 00:00,ZHCC 170000Z AUTO 29006KT 9SM 00/M09 A3045 RMK SLP323 T00011088 52008 IEM_DS3505
ZHCC,2009-12-17 01:00,ZHCC 170100Z AUTO 24006KT 6SM M01/M06 A3045 RMK T10101060 IEM_DS3505
ZHCC,2009-12-17 02:00,ZHCC 170200Z AUTO 28008KT 6SM 02/M06 A3047 RMK T00201060 IEM_DS3505
ZHCC,2009-12-17 03:00,ZHCC 170300Z AUTO 32006KT 11SM 04/M11 A3047 RMK SLP331 T00381106 52008 IEM_DS3505
ZHCC,2009-12-17 04:00,ZHCC 170400Z AUTO 30010KT 6SM 04/M10 A3045 RMK T00401100 IEM_DS3505
ZHCC,2009-12-17 05:00,ZHCC 170500Z AUTO 33004KT 6SM 04/M11 A3042 RMK T00401110 IEM_DS3505
ZHCC,2009-12-17 06:00,ZHCC 170600Z AUTO 07002KT 11SM 06/M12 A3039 RMK SLP303 T00561124 57027 IEM_DS3505
ZHCC,2009-12-17 07:00,ZHCC 170700Z AUTO 09010KT 6SM 03/M09 A3039 RMK T00301090 IEM_DS3505
ZHCC,2009-12-17 08:00,ZHCC 170800Z AUTO 09014KT 5SM 02/M07 A3039 RMK T00201070 IEM_DS3505
ZHCC,2009-12-17 09:00,ZHCC 170900Z AUTO 07008KT 9SM 02/M10 A3042 RMK SLP314 T00151097 52010 IEM_DS3505
ZHCC,2009-12-17 10:00,ZHCC 171000Z AUTO 08006KT 4SM M01/M09 A3045 RMK T10101090 IEM_DS3505
ZHCC,2009-12-17 11:00,ZHCC 171100Z AUTO 06006KT 2 1/2SM M01/M07 A3045 RMK T10101070 IEM_DS3505
ZHCC,2009-12-17 12:00,ZHCC 171200Z AUTO 09004KT 8SM M01/M07 A3047 RMK SLP337 T10111070 52023 IEM_DS3505
ZHCC,2009-12-17 13:00,ZHCC 171300Z AUTO 04004KT 1 1/4SM M03/M06 A3050 RMK T10301060 IEM_DS3505
ZHCC,2009-12-17 14:00,ZHCC 171400Z AUTO 1 1/4SM M04/M06 A3050 RMK T10401060 IEM_DS3505
ZHCC,2009-12-17 15:00,ZHCC 171500Z AUTO 04002KT 5SM M02/M05 A3053 RMK SLP354 T10201053 52017 IEM_DS3505
ZHCC,2009-12-17 16:00,ZHCC 171600Z AUTO 04006KT 1SM M03/M05 A3053 RMK T10301050 IEM_DS3505
ZHCC,2009-12-17 17:00,ZHCC 171700Z AUTO 02004KT 1SM M04/M06 A3053 RMK T10401060 IEM_DS3505
ZHCC,2009-12-17 18:00,ZHCC 171800Z AUTO 11002KT 2 1/2SM M04/M06 A3056 RMK SLP359 T10391060 52005 IEM_DS3505
ZHCC,2009-12-17 19:00,ZHCC 171900Z AUTO 35002KT 1SM M04/M06 A3056 RMK T10401060 IEM_DS3505
ZHCC,2009-12-17 20:00,ZHCC 172000Z AUTO 01002KT 1SM M03/M06 A3056 RMK T10301060 IEM_DS3505
ZHCC,2009-12-17 21:00,ZHCC 172100Z AUTO 20002KT 3SM M03/M07 A3056 RMK SLP364 T10341067 52004 IEM_DS3505
ZHCC,2009-12-17 22:00,ZHCC 172200Z AUTO 28002KT 1SM M04/M06 A3056 RMK T10401060 IEM_DS3505
ZHCC,2009-12-17 23:00,ZHCC 172300Z AUTO 00000KT 1SM M04/M06 A3059 RMK T10401060 IEM_DS3505
ZHCC,2009-12-18 00:00,ZHCC 180000Z AUTO 00000KT 2 1/2SM M04/M06 A3059 RMK SLP380 T10441059 52015 IEM_DS3505
ZHCC,2009-12-18 01:00,ZHCC 180100Z AUTO 28002KT 1SM M03/M05 A3062 RMK T10301050 IEM_DS3505
ZHCC,2009-12-18 02:00,ZHCC 180200Z AUTO 22004KT 1 1/4SM M02/M04 A3062 RMK T10201040 IEM_DS3505
ZHCC,2009-12-18 03:00,ZHCC 180300Z AUTO 27006KT 3SM 01/M06 A3062 RMK SLP383 T00101059 52004 IEM_DS3505
ZHCC,2009-12-18 04:00,ZHCC 180400Z AUTO 21002KT 1 1/4SM 02/M07 A3059 RMK T00201070 IEM_DS3505
ZHCC,2009-12-18 05:00,ZHCC 180500Z AUTO 27010KT 2SM 03/M12 A3056 RMK T00301120 IEM_DS3505
ZHCC,2009-12-18 06:00,ZHCC 180600Z AUTO 29006KT 7SM 04/M14 A3056 RMK SLP360 T00381135 57023 IEM_DS3505
ZHCC,2009-12-18 07:00,ZHCC 180700Z AUTO 28010KT 3SM 03/M12 A3056 RMK T00301120 IEM_DS3505
ZHCC,2009-12-18 08:00,ZHCC 180800Z AUTO 29006KT 3SM 03/M12 A3056 RMK T00301120 IEM_DS3505
ZHCC,2009-12-18 09:00,ZHCC 180900Z AUTO 32002KT 7SM 03/M12 A3056 RMK SLP361 T00341125 52001 IEM_DS3505
ZHCC,2009-12-18 10:00,ZHCC 181000Z AUTO 06006KT 2SM M01/M06 A3056 RMK T10101060 IEM_DS3505
ZHCC,2009-12-18 11:00,ZHCC 181100Z AUTO 01004KT 1 1/4SM M01/M06 A3059 RMK T10101060 IEM_DS3505
ZHCC,2009-12-18 12:00,ZHCC 181200Z AUTO 09002KT 6SM M01/M06 A3059 RMK SLP381 T10121065 52019 IEM_DS3505
ZHCC,2009-12-18 13:00,ZHCC 181300Z AUTO 05004KT 1 1/4SM M03/M07 A3062 RMK T10301070 IEM_DS3505
ZHCC,2009-12-18 14:00,ZHCC 181400Z AUTO 1 1/4SM M04/M07 A3062 RMK T10401070 IEM_DS3505
ZHCC,2009-12-18 15:00,ZHCC 181500Z AUTO 11002KT 6SM M04/M07 A3062 RMK SLP387 T10361074 52006 IEM_DS3505
ZHCC,2009-12-18 16:00,ZHCC 181600Z AUTO 00000KT 1SM M04/M07 A3062 RMK T10401070 IEM_DS3505
ZHCC,2009-12-18 17:00,ZHCC 181700Z AUTO 00000KT 1SM M06/M08 A3059 RMK T10601080 IEM_DS3505
ZHCC,2009-12-18 18:00,ZHCC 181800Z AUTO 00000KT 5SM M05/M07 A3059 RMK SLP375 T10521072 57011 IEM_DS3505
ZHCC,2009-12-18 19:00,ZHCC 181900Z AUTO 21002KT 1SM M07/M09 A3059 RMK T10701090 IEM_DS3505
ZHCC,2009-12-18 20:00,ZHCC 182000Z AUTO 22002KT 1SM M07/M09 A3059 RMK T10701090 IEM_DS3505
ZHCC,2009-12-18 21:00,ZHCC 182100Z AUTO 29004KT 5SM M04/M07 A3059 RMK SLP372 T10361067 57003 IEM_DS3505
ZHCC,2009-12-18 22:00,ZHCC 182200Z AUTO 26002KT 1SM M06/M08 A3059 RMK T10601080 IEM_DS3505
ZHCC,2009-12-18 23:00,ZHCC 182300Z AUTO 27002KT 1SM M05/M07 A3059 RMK T10501070 IEM_DS3505
ZHCC,2009-12-19 00:00,ZHCC 190000Z AUTO 27006KT 6SM M02/M12 A3059 RMK SLP375 T10201115 52002 IEM_DS3505
ZHCC,2009-12-19 01:00,ZHCC 190100Z AUTO 24008KT 2SM M02/M08 A3059 RMK T10201080 IEM_DS3505
ZHCC,2009-12-19 02:00,ZHCC 190200Z AUTO 27010KT 2SM 00/M08 A3062 RMK T00001080 IEM_DS3505
ZHCC,2009-12-19 03:00,ZHCC 190300Z AUTO 27010KT 5SM 02/M13 A3059 RMK SLP377 T00191127 52003 IEM_DS3505
ZHCC,2009-12-19 04:00,ZHCC 190400Z AUTO 26019KT 3SM 02/M13 A3056 RMK T00201130 IEM_DS3505
ZHCC,2009-12-19 05:00,ZHCC 190500Z AUTO 26017KT 3SM 03/M13 A3050 RMK T00301130 IEM_DS3505
ZHCC,2009-12-19 06:00,ZHCC 190600Z AUTO 27008KT 7SM 04/M13 A3050 RMK SLP342 T00381126 57035 IEM_DS3505
ZHCC,2009-12-19 07:00,ZHCC 190700Z AUTO 27014KT 3SM 04/M12 A3047 RMK T00401120 IEM_DS3505
ZHCC,2009-12-19 08:00,ZHCC 190800Z AUTO 26012KT 3SM 04/M12 A3047 RMK T00401120 IEM_DS3505
ZHCC,2009-12-19 09:00,ZHCC 190900Z AUTO 27008KT 9SM 04/M15 A3047 RMK SLP335 T00391154 57006 IEM_DS3505
ZHCC,2009-12-19 10:00,ZHCC 191000Z AUTO 26006KT 3SM 01/M13 A3047 RMK T00101130 IEM_DS3505
ZHCC,2009-12-19 11:00,ZHCC 191100Z AUTO 26006KT 3SM 00/M13 A3050 RMK T00001130 IEM_DS3505
ZHCC,2009-12-19 12:00,ZHCC 191200Z AUTO 29008KT 9SM 02/M14 A3050 RMK SLP341 T00171136 52006 IEM_DS3505
ZHCC,2009-12-19 13:00,ZHCC 191300Z AUTO 24010KT 5SM M01/M13 A3050 RMK T10101130 IEM_DS3505
ZHCC,2009-12-19 14:00,ZHCC 191400Z AUTO 27012KT 5SM M01/M12 A3050 RMK T10101120 IEM_DS3505
ZHCC,2009-12-19 15:00,ZHCC 191500Z AUTO 29008KT 7SM 01/M16 A3050 RMK SLP346 T00131157 52005 IEM_DS3505
ZHCC,2009-12-19 16:00,ZHCC 191600Z AUTO 24012KT 5SM M02/M14 A3050 RMK T10201140 IEM_DS3505
ZHCC,2009-12-19 17:00,ZHCC 191700Z AUTO 24012KT M02/M14 A3050 RMK T10201140 IEM_DS3505
ZHCC,2009-12-19 18:00,ZHCC 191800Z AUTO 29010KT 7SM M00/M19 A3050 RMK SLP341 T10021194 57004 IEM_DS3505
ZHCC,2009-12-19 19:00,ZHCC 191900Z AUTO 26016KT M02/M17 A3050 RMK T10201170 IEM_DS3505
ZHCC,2009-12-19 20:00,ZHCC 192000Z AUTO 26014KT M02/M18 A3050 RMK T10201180 IEM_DS3505
ZHCC,2009-12-19 21:00,ZHCC 192100Z AUTO 27012G27KT 8SM M01/M22 A3047 RMK SLP339 T10141215 57003 IEM_DS3505
ZHCC,2009-12-19 22:00,ZHCC 192200Z AUTO 26012KT 4SM M04/M17 A3050 RMK T10401170 IEM_DS3505
ZHCC,2009-12-19 23:00,ZHCC 192300Z AUTO 26012KT 4SM M03/M19 A3050 RMK T10301190 IEM_DS3505
ZHCC,2009-12-20 00:00,ZHCC 200000Z AUTO 27008KT 10SM M02/M20 A3050 RMK SLP348 T10201199 52009 IEM_DS3505
ZHCC,2009-12-20 01:00,ZHCC 200100Z AUTO 27017KT 6SM M01/M18 A3053 RMK T10101180 IEM_DS3505
ZHCC,2009-12-20 02:00,ZHCC 200200Z AUTO 27023G33KT 6SM 00/M18 A3053 RMK T00001180 IEM_DS3505
ZHCC,2009-12-20 03:00,ZHCC 200300Z AUTO 29016G31KT 11SM 01/M21 A3053 RMK SLP356 T00101213 52008 IEM_DS3505
ZHCC,2009-12-20 04:00,ZHCC 200400Z AUTO 27017G27KT 6SM 02/M18 A3050 RMK T00201180 IEM_DS3505
ZHCC,2009-12-20 05:00,ZHCC 200500Z AUTO 27017KT 6SM 03/M19 A3050 RMK T00301190 IEM_DS3505
ZHCC,2009-12-20 06:00,ZHCC 200600Z AUTO 29008KT 12SM 04/M21 A3047 RMK SLP333 T00401211 57022 IEM_DS3505
ZHCC,2009-12-20 07:00,ZHCC 200700Z AUTO 27016KT 6SM 03/M19 A3047 RMK T00301190 IEM_DS3505
ZHCC,2009-12-20 08:00,ZHCC 200800Z AUTO 27012KT 6SM 03/M19 A3047 RMK T00301190 IEM_DS3505
ZHCC,2009-12-20 09:00,ZHCC 200900Z AUTO 27008KT 12SM 04/M22 A3047 RMK SLP331 T00371222 57003 IEM_DS3505
ZHCC,2009-12-20 10:00,ZHCC 201000Z AUTO 22004KT 6SM 00/M18 A3047 RMK T00001180 IEM_DS3505
ZHCC,2009-12-20 11:00,ZHCC 201100Z AUTO 19004KT 6SM 00/M16 A3047 RMK T00001160 IEM_DS3505
ZHCC,2009-12-20 12:00,ZHCC 201200Z AUTO 25002KT 12SM M02/M16 A3047 RMK SLP336 T10221159 52004 IEM_DS3505
ZHCC,2009-12-20 13:00,ZHCC 201300Z AUTO 19006KT 6SM M01/M16 A3047 RMK T10101160 IEM_DS3505
ZHCC,2009-12-20 14:00,ZHCC 201400Z AUTO 20006KT 6SM M01/M17 A3047 RMK T10101170 IEM_DS3505
ZHCC,2009-12-20 15:00,ZHCC 201500Z AUTO 22002KT 10SM M02/M16 A3047 RMK SLP332 T10181160 57003 IEM_DS3505
ZHCC,2009-12-20 16:00,ZHCC 201600Z AUTO 24006KT 6SM M03/M17 A3047 RMK T10301170 IEM_DS3505
ZHCC,2009-12-20 17:00,ZHCC 201700Z AUTO 26008KT 6SM M04/M17 A3045 RMK T10401170 IEM_DS3505
ZHCC,2009-12-20 18:00,ZHCC 201800Z AUTO 20002KT 9SM M04/M16 A3042 RMK SLP315 T10401162 57017 IEM_DS3505
ZHCC,2009-12-20 19:00,ZHCC 201900Z AUTO 20004KT 6SM M07/M15 A3042 RMK T10701150 IEM_DS3505
ZHCC,2009-12-20 20:00,ZHCC 202000Z AUTO 22002KT M07/M14 A3039 RMK T10701140 IEM_DS3505
ZHCC,2009-12-20 21:00,ZHCC 202100Z AUTO 22002KT 9SM M07/M13 A3036 RMK SLP297 T10681133 57018 IEM_DS3505
ZHCC,2009-12-20 22:00,ZHCC 202200Z AUTO 00000KT 6SM M08/M13 A3036 RMK T10801130 IEM_DS3505
ZHCC,2009-12-20 23:00,ZHCC 202300Z AUTO 17004KT 6SM M08/M13 A3036 RMK T10801130 IEM_DS3505
ZHCC,2009-12-21 00:00,ZHCC 210000Z AUTO 18002KT 8SM M06/M14 A3036 RMK SLP291 T10591139 57008 IEM_DS3505
ZHCC,2009-12-21 01:00,ZHCC 210100Z AUTO 20004KT 2SM M03/M12 A3036 RMK T10301120 IEM_DS3505
ZHCC,2009-12-21 02:00,ZHCC 210200Z AUTO 21004KT 2 1/2SM 00/M12 A3036 RMK T00001120 IEM_DS3505
ZHCC,2009-12-21 03:00,ZHCC 210300Z AUTO 27002KT 6SM 05/M19 A3033 RMK SLP280 T00461191 57008 IEM_DS3505
ZHCC,2009-12-21 04:00,ZHCC 210400Z AUTO 19006KT 5SM 05/M13 A3027 RMK T00501130 IEM_DS3505
ZHCC,2009-12-21 05:00,ZHCC 210500Z AUTO 19008KT 6SM 06/M12 A3024 RMK T00601120 IEM_DS3505
ZHCC,2009-12-21 06:00,ZHCC 210600Z AUTO 32002KT 7SM 08/M18 A3021 RMK SLP232 T00851184 57047 IEM_DS3505
ZHCC,2009-12-21 07:00,ZHCC 210700Z AUTO 20008KT 6SM 06/M08 A3018 RMK T00601080 IEM_DS3505
ZHCC,2009-12-21 08:00,ZHCC 210800Z AUTO 20008KT 5SM 06/M07 A3015 RMK T00601070 IEM_DS3505
ZHCC,2009-12-21 09:00,ZHCC 210900Z AUTO 16008KT 7SM 06/M09 A3015 RMK SLP215 T00611094 57018 IEM_DS3505
ZHCC,2009-12-21 10:00,ZHCC 211000Z AUTO 19006KT 2SM 03/M02 A3015 RMK T00301020 IEM_DS3505
ZHCC,2009-12-21 11:00,ZHCC 211100Z AUTO 20008KT 2SM 03/M02 A3012 RMK T00301020 IEM_DS3505
ZHCC,2009-12-21 12:00,ZHCC 211200Z AUTO 16004KT 6SM 02/M03 A3012 RMK SLP211 T00211032 57004 IEM_DS3505
ZHCC,2009-12-21 13:00,ZHCC 211300Z AUTO 19006KT 1 1/4SM 01/M02 A3012 RMK T00101020 IEM_DS3505
ZHCC,2009-12-21 14:00,ZHCC 211400Z AUTO 19006KT 1 1/4SM 00/M03 A3012 RMK T00001030 IEM_DS3505
ZHCC,2009-12-21 15:00,ZHCC 211500Z AUTO 18006KT 6SM 02/M04 A3009 RMK SLP201 T00221043 57008 IEM_DS3505
ZHCC,2009-12-21 16:00,ZHCC 211600Z AUTO 19004KT 1 1/4SM 00/M03 A3009 RMK T00001030 IEM_DS3505
ZHCC,2009-12-21 17:00,ZHCC 211700Z AUTO 21004KT 1SM 00/M03 A3006 RMK T00001030 IEM_DS3505
ZHCC,2009-12-21 18:00,ZHCC 211800Z AUTO 00000KT 5SM M02/M05 A3003 RMK SLP183 T10201053 57017 IEM_DS3505
ZHCC,2009-12-21 19:00,ZHCC 211900Z AUTO 23004KT 00/M04 A3003 RMK T00001040 IEM_DS3505
ZHCC,2009-12-21 20:00,ZHCC 212000Z AUTO 24006KT 00/M04 A3003 RMK T00001040 IEM_DS3505
ZHCC,2009-12-21 21:00,ZHCC 212100Z AUTO 25004KT 5SM M01/M05 A3000 RMK SLP165 T10141053 57019 IEM_DS3505
ZHCC,2009-12-21 22:00,ZHCC 212200Z AUTO 22004KT 2 1/2SM 00/M05 A3000 RMK T00001050 IEM_DS3505
ZHCC,2009-12-21 23:00,ZHCC 212300Z AUTO 23002KT 2SM M01/M05 A3000 RMK T10101050 IEM_DS3505
ZHCC,2009-12-22 00:00,ZHCC 220000Z AUTO 22004KT 6SM M02/M05 A3000 RMK SLP175 T10221052 52009 IEM_DS3505
ZHCC,2009-12-22 01:00,ZHCC 220100Z AUTO 24006KT 2SM 04/M03 A3003 RMK T00401030 IEM_DS3505
ZHCC,2009-12-22 02:00,ZHCC 220200Z AUTO 20006KT 2SM 08/M02 A3003 RMK T00801020 IEM_DS3505
ZHCC,2009-12-22 03:00,ZHCC 220300Z AUTO 27004KT 7SM 10/M06 A3003 RMK SLP181 T01051063 52009 IEM_DS3505
ZHCC,2009-12-22 04:00,ZHCC 220400Z AUTO 08004KT 1 1/4SM 09/M01 A3003 RMK T00901010 IEM_DS3505
ZHCC,2009-12-22 05:00,ZHCC 220500Z AUTO 09004KT 1 1/4SM 10/M01 A3003 RMK T01001010 IEM_DS3505
ZHCC,2009-12-22 06:00,ZHCC 220600Z AUTO 29006KT 9SM 13/M08 A3000 RMK SLP169 T01321075 57012 IEM_DS3505
ZHCC,2009-12-22 07:00,ZHCC 220700Z AUTO 08004KT 2SM 12/M02 A3000 RMK T01201020 IEM_DS3505
ZHCC,2009-12-22 08:00,ZHCC 220800Z AUTO 09004KT 2SM 11/M02 A3003 RMK T01101020 IEM_DS3505
ZHCC,2009-12-22 09:00,ZHCC 220900Z AUTO 07004KT 7SM 10/M06 A3003 RMK SLP181 T01021062 52011 IEM_DS3505
ZHCC,2009-12-22 10:00,ZHCC 221000Z AUTO 08002KT 2SM 06/M02 A3006 RMK T00601020 IEM_DS3505
ZHCC,2009-12-22 11:00,ZHCC 221100Z AUTO 08002KT 1 1/4SM 05/M01 A3009 RMK T00501010 IEM_DS3505
ZHCC,2009-12-22 12:00,ZHCC 221200Z AUTO 00000KT 6SM 02/M04 A3009 RMK SLP202 T00251040 52019 IEM_DS3505
ZHCC,2009-12-22 13:00,ZHCC 221300Z AUTO 08002KT 2SM 02/M01 A3012 RMK T00201010 IEM_DS3505
ZHCC,2009-12-22 14:00,ZHCC 221400Z AUTO 12004KT 1 1/4SM 01/M02 A3012 RMK T00101020 IEM_DS3505
ZHCC,2009-12-22 15:00,ZHCC 221500Z AUTO 00000KT 5SM 00/M03 A3012 RMK SLP211 T00031033 52011 IEM_DS3505
ZHCC,2009-12-22 16:00,ZHCC 221600Z AUTO 10004KT 1 1/4SM 00/M02 A3012 RMK T00001020 IEM_DS3505
ZHCC,2009-12-22 17:00,ZHCC 221700Z AUTO 00000KT 1 1/4SM 00/M02 A3012 RMK T00001020 IEM_DS3505
ZHCC,2009-12-22 18:00,ZHCC 221800Z AUTO 25002KT 3SM M01/M03 A3012 RMK SLP210 T10071031 54000 IEM_DS3505
ZHCC,2009-12-22 19:00,ZHCC 221900Z AUTO 35004KT 1SM 00/M02 A3012 RMK T00001020 IEM_DS3505
ZHCC,2009-12-22 20:00,ZHCC 222000Z AUTO 34004KT 1SM 01/M01 A3012 RMK T00101010 IEM_DS3505
ZHCC,2009-12-22 21:00,ZHCC 222100Z AUTO 00000KT 3SM M00/M03 A3012 RMK SLP211 T10011030 54000 IEM_DS3505
ZHCC,2009-12-22 22:00,ZHCC 222200Z AUTO 30002KT 1 1/4SM 00/M02 A3015 RMK T00001020 IEM_DS3505
ZHCC,2009-12-22 23:00,ZHCC 222300Z AUTO 33004KT 1 1/4SM 01/M02 A3015 RMK T00101020 IEM_DS3505
ZHCC,2009-12-23 00:00,ZHCC 230000Z AUTO 00000KT 3SM 00/M04 A3015 RMK SLP224 T00001037 52011 IEM_DS3505
ZHCC,2009-12-23 01:00,ZHCC 230100Z AUTO 36004KT 1SM 02/M02 A3015 RMK T00201020 IEM_DS3505
ZHCC,2009-12-23 02:00,ZHCC 230200Z AUTO 35006KT 1SM 04/M01 A3018 RMK T00401010 IEM_DS3505
ZHCC,2009-12-23 03:00,ZHCC 230300Z AUTO 02002KT 5SM 06/M03 A3018 RMK SLP231 T00651034 52008 IEM_DS3505
ZHCC,2009-12-23 04:00,ZHCC 230400Z AUTO 06004KT 1 1/4SM 07/M01 A3015 RMK T00701010 IEM_DS3505
ZHCC,2009-12-23 05:00,ZHCC 230500Z AUTO 1 1/4SM 08/00 A3012 RMK T00800000 IEM_DS3505
ZHCC,2009-12-23 06:00,ZHCC 230600Z AUTO 02002KT 5SM 09/M03 A3009 RMK SLP200 T00891030 57030 IEM_DS3505
ZHCC,2009-12-23 07:00,ZHCC 230700Z AUTO 03006KT 1 1/2SM 09/00 A3009 RMK T00900000 IEM_DS3505
ZHCC,2009-12-23 08:00,ZHCC 230800Z AUTO 03008KT 1 1/2SM 08/M01 A3009 RMK T00801010 IEM_DS3505
ZHCC,2009-12-23 09:00,ZHCC 230900Z AUTO 04002KT 4SM 08/M03 A3009 RMK SLP199 T00771026 57001 IEM_DS3505
ZHCC,2009-12-23 10:00,ZHCC 231000Z AUTO 1 1/4SM 04/M02 A3009 RMK T00401020 IEM_DS3505
ZHCC,2009-12-23 11:00,ZHCC 231100Z AUTO 34004KT 1 1/4SM 04/M01 A3012 RMK T00401010 IEM_DS3505
ZHCC,2009-12-23 12:00,ZHCC 231200Z AUTO 14002KT 4SM 02/M03 A3012 RMK SLP213 T00171030 52012 IEM_DS3505
ZHCC,2009-12-23 13:00,ZHCC 231300Z AUTO 1 1/4SM 03/M03 A3012 RMK T00301030 IEM_DS3505
ZHCC,2009-12-23 14:00,ZHCC 231400Z AUTO 1 1/4SM 02/M03 A3012 RMK T00201030 IEM_DS3505
ZHCC,2009-12-23 15:00,ZHCC 231500Z AUTO 11002KT 4SM 02/M03 A3012 RMK SLP214 T00231032 52003 IEM_DS3505
ZHCC,2009-12-23 16:00,ZHCC 231600Z AUTO 30004KT 1SM 02/M02 A3012 RMK T00201020 IEM_DS3505
ZHCC,2009-12-23 17:00,ZHCC 231700Z AUTO 30006KT 1SM 02/M02 A3012 RMK T00201020 IEM_DS3505
ZHCC,2009-12-23 18:00,ZHCC 231800Z AUTO 25002KT 3SM 00/M03 A3012 RMK SLP210 T00041028 57004 IEM_DS3505
ZHCC,2009-12-23 19:00,ZHCC 231900Z AUTO 30004KT 1SM 01/M03 A3009 RMK T00101030 IEM_DS3505
ZHCC,2009-12-23 20:00,ZHCC 232000Z AUTO 30002KT 1SM 01/M04 A3009 RMK T00101040 IEM_DS3505
ZHCC,2009-12-23 21:00,ZHCC 232100Z AUTO 22002KT 3SM M01/M04 A3006 RMK SLP197 T10131035 57014 IEM_DS3505
ZHCC,2009-12-23 22:00,ZHCC 232200Z AUTO 28002KT 1SM 00/M03 A3006 RMK T00001030 IEM_DS3505
ZHCC,2009-12-23 23:00,ZHCC 232300Z AUTO 27004KT 1SM 00/M04 A3009 RMK T00001040 IEM_DS3505
ZHCC,2009-12-24 00:00,ZHCC 240000Z AUTO 20002KT 1SM M01/M03 A3009 RMK SLP202 T10141033 52004 IEM_DS3505
ZHCC,2009-12-24 01:00,ZHCC 240100Z AUTO 1/2SM 01/M02 A3009 RMK T00101020 IEM_DS3505
ZHCC,2009-12-24 02:00,ZHCC 240200Z AUTO 19002KT 1/2SM 03/00 A3012 RMK T00300000 IEM_DS3505
ZHCC,2009-12-24 03:00,ZHCC 240300Z AUTO 27004KT 1 1/4SM 05/M01 A3012 RMK SLP207 T00531014 52007 IEM_DS3505
ZHCC,2009-12-24 04:00,ZHCC 240400Z AUTO 15004KT 1SM 08/02 A3009 RMK T00800020 IEM_DS3505
ZHCC,2009-12-24 05:00,ZHCC 240500Z AUTO 16006KT 1SM 09/03 A3003 RMK T00900030 IEM_DS3505
ZHCC,2009-12-24 06:00,ZHCC 240600Z AUTO 25006KT 2 1/2SM 12/M01 A3003 RMK SLP174 T01211007 57032 IEM_DS3505
ZHCC,2009-12-24 07:00,ZHCC 240700Z AUTO 21004KT 1SM 10/04 A3003 RMK T01000040 IEM_DS3505
ZHCC,2009-12-24 08:00,ZHCC 240800Z AUTO 19004KT 1SM 10/04 A3003 RMK T01000040 IEM_DS3505
ZHCC,2009-12-24 09:00,ZHCC 240900Z AUTO 27012KT 4SM 11/M05 A3006 RMK SLP185 T01141051 52010 IEM_DS3505
ZHCC,2009-12-24 10:00,ZHCC 241000Z AUTO 29008KT 1SM 10/M02 A3009 RMK T01001020 IEM_DS3505
ZHCC,2009-12-24 11:00,ZHCC 241100Z AUTO 30017KT 2SM 10/M05 A3012 RMK T01001050 IEM_DS3505
ZHCC,2009-12-24 12:00,ZHCC 241200Z AUTO 27010KT 6SM 10/M08 A3015 RMK SLP226 T01021080 52041 IEM_DS3505
ZHCC,2009-12-24 13:00,ZHCC 241300Z AUTO 30014KT 2 1/2SM 09/M07 A3021 RMK T00901070 IEM_DS3505
ZHCC,2009-12-24 14:00,ZHCC 241400Z AUTO 30014KT 3SM 08/M12 A3021 RMK T00801120 IEM_DS3505
ZHCC,2009-12-24 15:00,ZHCC 241500Z AUTO 29012KT 7SM 08/M15 A3021 RMK SLP242 T00831146 52017 IEM_DS3505
ZHCC,2009-12-24 16:00,ZHCC 241600Z AUTO 27019KT 4SM 06/M12 A3024 RMK T00601120 IEM_DS3505
ZHCC,2009-12-24 17:00,ZHCC 241700Z AUTO 27021KT 4SM 06/M16 A3024 RMK T00601160 IEM_DS3505
ZHCC,2009-12-24 18:00,ZHCC 241800Z AUTO 29017G33KT 9SM 06/M20 A3024 RMK SLP263 T00561198 52021 IEM_DS3505
ZHCC,2009-12-24 19:00,ZHCC 241900Z AUTO 29014KT 04/M19 A3027 RMK T00401190 IEM_DS3505
ZHCC,2009-12-24 20:00,ZHCC 242000Z AUTO 27016G25KT 03/M22 A3027 RMK T00301220 IEM_DS3505
ZHCC,2009-12-24 21:00,ZHCC 242100Z AUTO 32012G25KT 8SM 03/M24 A3030 RMK SLP273 T00291237 52009 IEM_DS3505
ZHCC,2009-12-24 22:00,ZHCC 242200Z AUTO 27017KT 6SM 01/M22 A3033 RMK T00101220 IEM_DS3505
ZHCC,2009-12-24 23:00,ZHCC 242300Z AUTO 27016KT 6SM 01/M22 A3036 RMK T00101220 IEM_DS3505
ZHCC,2009-12-25 00:00,ZHCC 250000Z AUTO 32012KT 10SM 01/M24 A3039 RMK SLP301 T00091236 52027 IEM_DS3505
ZHCC,2009-12-25 01:00,ZHCC 250100Z AUTO 28021KT 3SM 01/M22 A3039 RMK T00101220 IEM_DS3505
ZHCC,2009-12-25 02:00,ZHCC 250200Z AUTO 28017G29KT 3SM 01/M21 A3042 RMK T00101210 IEM_DS3505
ZHCC,2009-12-25 03:00,ZHCC 250300Z AUTO 32010G27KT 9SM 02/M23 A3042 RMK SLP309 T00221226 52008 IEM_DS3505
ZHCC,2009-12-25 04:00,ZHCC 250400Z AUTO 27012KT 3SM 03/M21 A3036 RMK T00301210 IEM_DS3505
ZHCC,2009-12-25 05:00,ZHCC 250500Z AUTO 00000KT 2SM 04/M21 A3033 RMK T00401210 IEM_DS3505
ZHCC,2009-12-25 06:00,ZHCC 250600Z AUTO 27010KT 10SM 05/M21 A3030 RMK SLP272 T00471214 57037 IEM_DS3505
ZHCC,2009-12-25 07:00,ZHCC 250700Z AUTO 30008KT 3SM 05/M20 A3027 RMK T00501200 IEM_DS3505
ZHCC,2009-12-25 08:00,ZHCC 250800Z AUTO 28010KT 3SM 04/M21 A3027 RMK T00401210 IEM_DS3505
ZHCC,2009-12-25 09:00,ZHCC 250900Z AUTO 29004KT 10SM 04/M21 A3027 RMK SLP262 T00371214 57010 IEM_DS3505
ZHCC,2009-12-25 10:00,ZHCC 251000Z AUTO 01004KT 3SM 01/M20 A3027 RMK T00101200 IEM_DS3505
ZHCC,2009-12-25 11:00,ZHCC 251100Z AUTO 06006KT 3SM 00/M17 A3030 RMK T00001170 IEM_DS3505
ZHCC,2009-12-25 12:00,ZHCC 251200Z AUTO 09006KT 10SM 01/M19 A3030 RMK SLP274 T00111188 52010 IEM_DS3505
ZHCC,2009-12-25 13:00,ZHCC 251300Z AUTO 09006KT 2 1/2SM M02/M14 A3030 RMK T10201140 IEM_DS3505
ZHCC,2009-12-25 14:00,ZHCC 251400Z AUTO 12004KT 2 1/2SM M03/M14 A3033 RMK T10301140 IEM_DS3505
ZHCC,2009-12-25 15:00,ZHCC 251500Z AUTO 11004KT 9SM M01/M15 A3033 RMK SLP284 T10111146 52010 IEM_DS3505
ZHCC,2009-12-25 16:00,ZHCC 251600Z AUTO 10004KT 2 1/2SM M04/M13 A3033 RMK T10401130 IEM_DS3505
ZHCC,2009-12-25 17:00,ZHCC 251700Z AUTO 12004KT 2 1/2SM M04/M13 A3033 RMK T10401130 IEM_DS3505
ZHCC,2009-12-25 18:00,ZHCC 251800Z AUTO 09002KT 8SM M02/M13 A3030 RMK SLP278 T10231132 57006 IEM_DS3505
ZHCC,2009-12-25 19:00,ZHCC 251900Z AUTO 14004KT 1 1/2SM M03/M13 A3030 RMK T10301130 IEM_DS3505
ZHCC,2009-12-25 20:00,ZHCC 252000Z AUTO 1 1/2SM M04/M13 A3027 RMK T10401130 IEM_DS3505
ZHCC,2009-12-25 21:00,ZHCC 252100Z AUTO 07002KT 7SM M03/M14 A3027 RMK SLP263 T10311139 57015 IEM_DS3505
ZHCC,2009-12-25 22:00,ZHCC 252200Z AUTO 09002KT 2 1/2SM M06/M13 A3027 RMK T10601130 IEM_DS3505
ZHCC,2009-12-25 23:00,ZHCC 252300Z AUTO 12002KT 2 1/2SM M05/M13 A3027 RMK T10501130 IEM_DS3505
ZHCC,2009-12-26 00:00,ZHCC 260000Z AUTO 09002KT 7SM M04/M14 A3027 RMK SLP267 T10361144 52003 IEM_DS3505
ZHCC,2009-12-26 01:00,ZHCC 260100Z AUTO 13002KT 2SM M04/M13 A3027 RMK T10401130 IEM_DS3505
ZHCC,2009-12-26 02:00,ZHCC 260200Z AUTO 13004KT 2SM M03/M15 A3027 RMK T10301150 IEM_DS3505
ZHCC,2009-12-26 03:00,ZHCC 260300Z AUTO 16004KT 7SM M01/M16 A3027 RMK SLP266 T10061156 57001 IEM_DS3505
ZHCC,2009-12-26 04:00,ZHCC 260400Z AUTO 13006KT 2SM M01/M15 A3024 RMK T10101150 IEM_DS3505
ZHCC,2009-12-26 05:00,ZHCC 260500Z AUTO 2SM 00/M15 A3021 RMK T00001150 IEM_DS3505
ZHCC,2009-12-26 06:00,ZHCC 260600Z AUTO 09006KT 7SM 01/M17 A3021 RMK SLP241 T00091174 57024 IEM_DS3505
ZHCC,2009-12-26 07:00,ZHCC 260700Z AUTO 11002KT 2SM 00/M15 A3021 RMK T00001150 IEM_DS3505
ZHCC,2009-12-26 08:00,ZHCC 260800Z AUTO 30006KT 2SM 00/M15 A3024 RMK T00001150 IEM_DS3505
ZHCC,2009-12-26 09:00,ZHCC 260900Z AUTO 16002KT 7SM 01/M17 A3027 RMK SLP259 T00081170 52017 IEM_DS3505
ZHCC,2009-12-26 10:00,ZHCC 261000Z AUTO 00000KT 2SM 00/M14 A3027 RMK T00001140 IEM_DS3505
ZHCC,2009-12-26 11:00,ZHCC 261100Z AUTO 22002KT 2SM 00/M13 A3030 RMK T00001130 IEM_DS3505
ZHCC,2009-12-26 12:00,ZHCC 261200Z AUTO 25002KT 6SM 01/M14 A3033 RMK SLP284 T00101138 52025 IEM_DS3505
ZHCC,2009-12-26 13:00,ZHCC 261300Z AUTO 18004KT 1 1/4SM 00/M11 A3036 RMK T00001110 IEM_DS3505
ZHCC,2009-12-26 14:00,ZHCC 261400Z AUTO 12004KT 1 1/4SM M01/M10 A3036 RMK T10101100 IEM_DS3505
ZHCC,2009-12-26 15:00,ZHCC 261500Z AUTO 27008KT 6SM 02/M10 A3036 RMK SLP286 T00231099 52003 IEM_DS3505
ZHCC,2009-12-26 16:00,ZHCC 261600Z AUTO 15002KT 1 1/4SM M01/M08 A3036 RMK T10101080 IEM_DS3505
ZHCC,2009-12-26 17:00,ZHCC 261700Z AUTO 26012KT 2SM 02/M13 A3033 RMK T00201130 IEM_DS3505
ZHCC,2009-12-26 18:00,ZHCC 261800Z AUTO 27008KT 9SM 03/M15 A3033 RMK SLP289 T00261150 52003 IEM_DS3505
ZHCC,2009-12-26 19:00,ZHCC 261900Z AUTO 27016KT 2SM 02/M15 A3036 RMK T00201150 IEM_DS3505
ZHCC,2009-12-26 20:00,ZHCC 262000Z AUTO 27019G29KT 2SM 01/M16 A3036 RMK T00101160 IEM_DS3505
ZHCC,2009-12-26 21:00,ZHCC 262100Z AUTO 29014G31KT 9SM 02/M18 A3033 RMK SLP295 T00161184 52006 IEM_DS3505
ZHCC,2009-12-26 22:00,ZHCC 262200Z AUTO 28019G35KT 3SM 00/M17 A3036 RMK T00001170 IEM_DS3505
ZHCC,2009-12-26 23:00,ZHCC 262300Z AUTO 26016KT 6SM M01/M18 A3039 RMK T10101180 IEM_DS3505
ZHCC,2009-12-27 00:00,ZHCC 270000Z AUTO 29012KT 9SM 00/M20 A3042 RMK SLP312 T00001203 52016 IEM_DS3505
ZHCC,2009-12-27 01:00,ZHCC 270100Z AUTO 26014KT 6SM 00/M18 A3042 RMK T00001180 IEM_DS3505
ZHCC,2009-12-27 02:00,ZHCC 270200Z AUTO 27019KT 6SM 00/M20 A3042 RMK T00001200 IEM_DS3505
ZHCC,2009-12-27 03:00,ZHCC 270300Z AUTO 27010KT 10SM 02/M22 A3042 RMK SLP316 T00161215 52005 IEM_DS3505
ZHCC,2009-12-27 04:00,ZHCC 270400Z AUTO 27019KT 6SM 03/M18 A3039 RMK T00301180 IEM_DS3505
ZHCC,2009-12-27 05:00,ZHCC 270500Z AUTO 27017KT 6SM 03/M19 A3033 RMK T00301190 IEM_DS3505
ZHCC,2009-12-27 06:00,ZHCC 270600Z AUTO 27008KT 10SM 04/M21 A3030 RMK SLP275 T00351207 57040 IEM_DS3505
ZHCC,2009-12-27 07:00,ZHCC 270700Z AUTO 26014KT 6SM 03/M18 A3027 RMK T00301180 IEM_DS3505
ZHCC,2009-12-27 08:00,ZHCC 270800Z AUTO 27008KT 6SM 03/M18 A3027 RMK T00301180 IEM_DS3505
ZHCC,2009-12-27 09:00,ZHCC 270900Z AUTO 25004KT 11SM 03/M21 A3027 RMK SLP260 T00281206 57015 IEM_DS3505
ZHCC,2009-12-27 10:00,ZHCC 271000Z AUTO 23006KT 4SM 00/M18 A3027 RMK T00001180 IEM_DS3505
ZHCC,2009-12-27 11:00,ZHCC 271100Z AUTO 17004KT 4SM M02/M15 A3027 RMK T10201150 IEM_DS3505
ZHCC,2009-12-27 12:00,ZHCC 271200Z AUTO 25002KT 10SM M01/M18 A3027 RMK SLP263 T10071178 52002 IEM_DS3505
ZHCC,2009-12-27 13:00,ZHCC 271300Z AUTO 13004KT 4SM M05/M16 A3027 RMK T10501160 IEM_DS3505
ZHCC,2009-12-27 14:00,ZHCC 271400Z AUTO 13004KT 4SM M03/M16 A3027 RMK T10301160 IEM_DS3505
ZHCC,2009-12-27 15:00,ZHCC 271500Z AUTO 16004KT 9SM M02/M17 A3027 RMK SLP259 T10161169 57004 IEM_DS3505
ZHCC,2009-12-27 16:00,ZHCC 271600Z AUTO 17004KT 4SM M03/M15 A3024 RMK T10301150 IEM_DS3505
ZHCC,2009-12-27 17:00,ZHCC 271700Z AUTO 17004KT 1 1/2SM M04/M16 A3024 RMK T10401160 IEM_DS3505
ZHCC,2009-12-27 18:00,ZHCC 271800Z AUTO 18004KT 9SM M02/M17 A3021 RMK SLP242 T10241169 57017 IEM_DS3505
ZHCC,2009-12-27 19:00,ZHCC 271900Z AUTO 16004KT 1 1/4SM M04/M15 A3018 RMK T10401150 IEM_DS3505
ZHCC,2009-12-27 20:00,ZHCC 272000Z AUTO 1 1/2SM M05/M14 A3015 RMK T10501140 IEM_DS3505
ZHCC,2009-12-27 21:00,ZHCC 272100Z AUTO 16004KT 8SM M03/M16 A3012 RMK SLP213 T10291156 57029 IEM_DS3505
ZHCC,2009-12-27 22:00,ZHCC 272200Z AUTO 20004KT 2 1/2SM M04/M13 A3012 RMK T10401130 IEM_DS3505
ZHCC,2009-12-27 23:00,ZHCC 272300Z AUTO 2SM M05/M13 A3012 RMK T10501130 IEM_DS3505
ZHCC,2009-12-28 00:00,ZHCC 280000Z AUTO 20002KT 7SM M04/M13 A3012 RMK SLP209 T10391128 57005 IEM_DS3505
ZHCC,2009-12-28 01:00,ZHCC 280100Z AUTO 18004KT 1 1/2SM M04/M11 A3009 RMK T10401110 IEM_DS3505
ZHCC,2009-12-28 02:00,ZHCC 280200Z AUTO 18006KT 1 1/2SM M02/M10 A3009 RMK T10201100 IEM_DS3505
ZHCC,2009-12-28 03:00,ZHCC 280300Z AUTO 18006KT 7SM 03/M08 A3009 RMK SLP198 T00301081 57009 IEM_DS3505
ZHCC,2009-12-28 04:00,ZHCC 280400Z AUTO 20006KT 1 1/2SM 02/M06 A3003 RMK T00201060 IEM_DS3505
ZHCC,2009-12-28 05:00,ZHCC 280500Z AUTO 21008KT 2SM 04/M04 A3000 RMK T00401040 IEM_DS3505
ZHCC,2009-12-28 06:00,ZHCC 280600Z AUTO 25004KT 8SM 06/M10 A2997 RMK SLP157 T00571101 57040 IEM_DS3505
ZHCC,2009-12-28 07:00,ZHCC 280700Z AUTO 22008KT 2SM 06/M03 A2994 RMK T00601030 IEM_DS3505
ZHCC,2009-12-28 08:00,ZHCC 280800Z AUTO 20006KT 2SM 06/M02 A2994 RMK T00601020 IEM_DS3505
ZHCC,2009-12-28 09:00,ZHCC 280900Z AUTO 20004KT 8SM 06/M04 A2994 RMK SLP149 T00591040 57008 IEM_DS3505
ZHCC,2009-12-28 10:00,ZHCC 281000Z AUTO 2SM 03/M03 A2994 RMK T00301030 IEM_DS3505
ZHCC,2009-12-28 11:00,ZHCC 281100Z AUTO 19004KT 2SM 02/M02 A2994 RMK T00201020 IEM_DS3505
ZHCC,2009-12-28 12:00,ZHCC 281200Z AUTO 20002KT 8SM 01/M04 A2994 RMK SLP152 T00091036 52002 IEM_DS3505
ZHCC,2009-12-28 13:00,ZHCC 281300Z AUTO 21006KT 1 1/2SM 02/M02 A2994 RMK T00201020 IEM_DS3505
ZHCC,2009-12-28 14:00,ZHCC 281400Z AUTO 20004KT 1 1/2SM 02/M02 A2994 RMK T00201020 IEM_DS3505
ZHCC,2009-12-28 15:00,ZHCC 281500Z AUTO 20004KT 6SM 00/M05 A2994 RMK SLP146 T00031047 57005 IEM_DS3505
ZHCC,2009-12-28 16:00,ZHCC 281600Z AUTO 20004KT 1SM 00/M03 A2991 RMK T00001030 IEM_DS3505
ZHCC,2009-12-28 17:00,ZHCC 281700Z AUTO 21004KT 1SM 00/M03 A2991 RMK T00001030 IEM_DS3505
ZHCC,2009-12-28 18:00,ZHCC 281800Z AUTO 18002KT 4SM M03/M06 A2991 RMK SLP138 T10301063 57008 IEM_DS3505
ZHCC,2009-12-28 19:00,ZHCC 281900Z AUTO 24004KT 1SM M01/M03 A2991 RMK T10101030 IEM_DS3505
ZHCC,2009-12-28 20:00,ZHCC 282000Z AUTO 26004KT 1SM M03/M05 A2991 RMK T10301050 IEM_DS3505
ZHCC,2009-12-28 21:00,ZHCC 282100Z AUTO 22004KT 5SM M01/M08 A2991 RMK SLP140 T10121075 52003 IEM_DS3505
ZHCC,2009-12-28 22:00,ZHCC 282200Z AUTO 25004KT 2SM 00/M05 A2991 RMK T00001050 IEM_DS3505
ZHCC,2009-12-28 23:00,ZHCC 282300Z AUTO 28006KT 2SM 02/M07 A2994 RMK T00201070 IEM_DS3505
ZHCC,2009-12-29 00:00,ZHCC 290000Z AUTO 27008KT 7SM 06/M13 A2997 RMK SLP161 T00621129 52021 IEM_DS3505
ZHCC,2009-12-29 01:00,ZHCC 290100Z AUTO 26012KT 3SM 05/M10 A2997 RMK T00501100 IEM_DS3505
ZHCC,2009-12-29 02:00,ZHCC 290200Z AUTO 26012KT 3SM 09/M10 A3000 RMK T00901100 IEM_DS3505
ZHCC,2009-12-29 03:00,ZHCC 290300Z AUTO 32012KT 6SM 10/M13 A2997 RMK SLP163 T01001132 52003 IEM_DS3505
ZHCC,2009-12-29 04:00,ZHCC 290400Z AUTO 28017KT 3SM 11/M12 A2997 RMK T01101120 IEM_DS3505
ZHCC,2009-12-29 05:00,ZHCC 290500Z AUTO 28016KT 3SM 12/M12 A2994 RMK T01201120 IEM_DS3505
ZHCC,2009-12-29 06:00,ZHCC 290600Z AUTO 29008KT 7SM 12/M14 A2994 RMK SLP151 T01181140 57012 IEM_DS3505
ZHCC,2009-12-29 07:00,ZHCC 290700Z AUTO 27014KT 4SM 11/M12 A2994 RMK T01101120 IEM_DS3505
ZHCC,2009-12-29 08:00,ZHCC 290800Z AUTO 29010KT 4SM 11/M10 A2997 RMK T01101100 IEM_DS3505
ZHCC,2009-12-29 09:00,ZHCC 290900Z AUTO 27006KT 7SM 11/M13 A3000 RMK SLP164 T01071127 52013 IEM_DS3505
ZHCC,2009-12-29 10:00,ZHCC 291000Z AUTO 26012KT 4SM 08/M12 A3003 RMK T00801120 IEM_DS3505
ZHCC,2009-12-29 11:00,ZHCC 291100Z AUTO 26006KT 4SM 07/M12 A3006 RMK T00701120 IEM_DS3505
ZHCC,2009-12-29 12:00,ZHCC 291200Z AUTO 29006KT 7SM 08/M14 A3009 RMK SLP201 T00851138 52037 IEM_DS3505
ZHCC,2009-12-29 13:00,ZHCC 291300Z AUTO 27010KT 4SM 04/M12 A3012 RMK T00401120 IEM_DS3505
ZHCC,2009-12-29 14:00,ZHCC 291400Z AUTO 30006KT 3SM 04/M13 A3012 RMK T00401130 IEM_DS3505
ZHCC,2009-12-29 15:00,ZHCC 291500Z AUTO 25002KT 7SM 02/M12 A3015 RMK SLP220 T00201119 52018 IEM_DS3505
ZHCC,2009-12-29 16:00,ZHCC 291600Z AUTO 31008KT 2 1/2SM 02/M09 A3015 RMK T00201090 IEM_DS3505
ZHCC,2009-12-29 17:00,ZHCC 291700Z AUTO 32008KT 3SM 02/M09 A3015 RMK T00201090 IEM_DS3505
ZHCC,2009-12-29 18:00,ZHCC 291800Z AUTO 22004KT 7SM 00/M09 A3021 RMK SLP238 T00041086 52018 IEM_DS3505
ZHCC,2009-12-29 19:00,ZHCC 291900Z AUTO 27006KT 2SM M01/M09 A3021 RMK T10101090 IEM_DS3505
ZHCC,2009-12-29 20:00,ZHCC 292000Z AUTO 28008KT 1 1/4SM 01/M09 A3021 RMK T00101090 IEM_DS3505
ZHCC,2009-12-29 21:00,ZHCC 292100Z AUTO 29002KT 7SM M01/M09 A3024 RMK SLP246 T10071093 52008 IEM_DS3505
ZHCC,2009-12-29 22:00,ZHCC 292200Z AUTO 26002KT 2SM M01/M09 A3024 RMK T10101090 IEM_DS3505
ZHCC,2009-12-29 23:00,ZHCC 292300Z AUTO 22004KT 1 1/4SM M03/M11 A3027 RMK T10301110 IEM_DS3505
ZHCC,2009-12-30 00:00,ZHCC 300000Z AUTO 32008KT 7SM 03/M16 A3027 RMK SLP262 T00301161 52016 IEM_DS3505
ZHCC,2009-12-30 01:00,ZHCC 300100Z AUTO 30008KT 3SM 02/M13 A3030 RMK T00201130 IEM_DS3505
ZHCC,2009-12-30 02:00,ZHCC 300200Z AUTO 27014KT 3SM 04/M14 A3030 RMK T00401140 IEM_DS3505
ZHCC,2009-12-30 03:00,ZHCC 300300Z AUTO 29010KT 9SM 05/M16 A3033 RMK SLP280 T00491162 52016 IEM_DS3505
ZHCC,2009-12-30 04:00,ZHCC 300400Z AUTO 27019KT 3SM 05/M14 A3030 RMK T00501140 IEM_DS3505
ZHCC,2009-12-30 05:00,ZHCC 300500Z AUTO 26014KT 5SM 06/M16 A3027 RMK T00601160 IEM_DS3505
ZHCC,2009-12-30 06:00,ZHCC 300600Z AUTO 27006KT 9SM 07/M18 A3024 RMK SLP251 T00661182 57028 IEM_DS3505
ZHCC,2009-12-30 07:00,ZHCC 300700Z AUTO 27010KT 5SM 06/M15 A3021 RMK T00601150 IEM_DS3505
ZHCC,2009-12-30 08:00,ZHCC 300800Z AUTO 26012KT 5SM 06/M15 A3021 RMK T00601150 IEM_DS3505
ZHCC,2009-12-30 09:00,ZHCC 300900Z AUTO 27010KT 9SM 06/M20 A3021 RMK SLP246 T00591204 57006 IEM_DS3505
ZHCC,2009-12-30 10:00,ZHCC 301000Z AUTO 26006KT 5SM 02/M17 A3024 RMK T00201170 IEM_DS3505
ZHCC,2009-12-30 11:00,ZHCC 301100Z AUTO 22008KT 6SM 02/M16 A3027 RMK T00201160 IEM_DS3505
ZHCC,2009-12-30 12:00,ZHCC 301200Z AUTO 29004KT 9SM 04/M20 A3030 RMK SLP269 T00391204 52023 IEM_DS3505
ZHCC,2009-12-30 13:00,ZHCC 301300Z AUTO 24010KT 6SM 00/M18 A3030 RMK T00001180 IEM_DS3505
ZHCC,2009-12-30 14:00,ZHCC 301400Z AUTO 27012KT 6SM M01/M18 A3030 RMK T10101180 IEM_DS3505
ZHCC,2009-12-30 15:00,ZHCC 301500Z AUTO 32006KT 9SM 02/M19 A3033 RMK SLP285 T00181194 52016 IEM_DS3505
ZHCC,2009-12-30 16:00,ZHCC 301600Z AUTO 31008KT 6SM M01/M17 A3033 RMK T10101170 IEM_DS3505
ZHCC,2009-12-30 17:00,ZHCC 301700Z AUTO 32006KT 6SM M03/M14 A3033 RMK T10301140 IEM_DS3505
ZHCC,2009-12-30 18:00,ZHCC 301800Z AUTO 00000KT 9SM M03/M15 A3036 RMK SLP295 T10281148 52009 IEM_DS3505
ZHCC,2009-12-30 19:00,ZHCC 301900Z AUTO 27004KT 6SM M04/M15 A3036 RMK T10401150 IEM_DS3505
ZHCC,2009-12-30 20:00,ZHCC 302000Z AUTO 31004KT 6SM M05/M14 A3036 RMK T10501140 IEM_DS3505
ZHCC,2009-12-30 21:00,ZHCC 302100Z AUTO 00000KT 9SM M06/M13 A3033 RMK SLP289 T10561130 57006 IEM_DS3505
ZHCC,2009-12-30 22:00,ZHCC 302200Z AUTO 36004KT 6SM M06/M15 A3033 RMK T10601150 IEM_DS3505
ZHCC,2009-12-30 23:00,ZHCC 302300Z AUTO 26002KT 6SM M05/M14 A3036 RMK T10501140 IEM_DS3505
