station,valid,metar
ZGKL,2025-01-01 00:00,ZGKL 010000Z 00000MPS 6000 SCT066 04/04 Q1021 NOSIG
ZGKL,2025-01-01 01:00,ZGKL 010100Z 00000MPS 8000 SCT066 06/06 Q1022 NOSIG
ZGKL,2025-01-01 02:00,ZGKL 010200Z VRB01MPS 8000 NSC 08/06 Q1022 NOSIG
ZGKL,2025-01-01 03:00,ZGKL 010300Z VRB01MPS 8000 NSC 12/05 Q1022 NOSIG
ZGKL,2025-01-01 04:00,ZGKL 010400Z VRB01MPS 9000 NSC 14/02 Q1021 NOSIG
ZGKL,2025-01-01 05:00,ZGKL 010500Z VRB01MPS CAVOK 16/02 Q1019 NOSIG
ZGKL,2025-01-01 06:00,ZGKL 010600Z VRB01MPS 9999 BKN073 17/01 Q1018 NOSIG
ZGKL,2025-01-01 07:00,ZGKL 010700Z VRB01MPS 9999 FEW073 19/01 Q1017 NOSIG
ZGKL,2025-01-01 08:00,ZGKL 010800Z VRB01MPS CAVOK 19/01 Q1016 NOSIG
ZGKL,2025-01-01 09:00,ZGKL 010900Z VRB01MPS CAVOK 19/02 Q1016 NOSIG
ZGKL,2025-01-01 10:00,ZGKL 011000Z VRB01MPS CAVOK 16/03 Q1016 NOSIG
ZGKL,2025-01-01 11:00,ZGKL 011100Z VRB01MPS CAVOK 12/04 Q1017 NOSIG
ZGKL,2025-01-01 12:00,ZGKL 011200Z VRB01MPS CAVOK 11/05 Q1018 NOSIG
ZGKL,2025-01-01 13:00,ZGKL 011300Z 36001MPS 8000 NSC 09/05 Q1018 NOSIG
ZGKL,2025-01-01 14:00,ZGKL 011400Z VRB01MPS 7000 NSC 08/05 Q1019 NOSIG
ZGKL,2025-01-01 15:00,ZGKL 011500Z VRB01MPS 7000 NSC 08/05 Q1020 NOSIG
ZGKL,2025-01-01 16:00,ZGKL 011600Z 00000MPS 6000 SCT066 07/05 Q1020 NOSIG
ZGKL,2025-01-01 17:00,ZGKL 011700Z VRB01MPS 6000 SCT066 06/05 Q1021 NOSIG
ZGKL,2025-01-01 18:00,ZGKL 011800Z 04001MPS 6000 SCT066 06/05 Q1021 NOSIG
ZGKL,2025-01-01 19:00,ZGKL 011900Z 00000MPS 7000 SCT066 06/05 Q1021 NOSIG
ZGKL,2025-01-01 20:00,ZGKL 012000Z 00000MPS 7000 BKN073 05/04 Q1021 NOSIG
ZGKL,2025-01-01 21:00,ZGKL 012100Z VRB01MPS 6000 BKN073 05/04 Q1020 NOSIG
ZGKL,2025-01-01 22:00,ZGKL 012200Z VRB01MPS 5000 BR BKN073 05/04 Q1021 NOSIG
ZGKL,2025-01-01 23:00,ZGKL 012300Z 00000MPS 6000 BKN066 06/05 Q1021 NOSIG
ZGKL,2025-01-02 00:00,ZGKL 020000Z VRB01MPS 6000 BKN066 07/06 Q1022 NOSIG
ZGKL,2025-01-02 01:00,ZGKL 020100Z VRB01MPS 6000 OVC073 09/07 Q1023 NOSIG
ZGKL,2025-01-02 02:00,ZGKL 020200Z 00000MPS 6000 BKN073 11/07 Q1023 NOSIG
ZGKL,2025-01-02 03:00,ZGKL 020300Z VRB01MPS 6000 NSC 15/06 Q1023 NOSIG
ZGKL,2025-01-02 04:00,ZGKL 020400Z VRB01MPS 7000 NSC 18/04 Q1022 NOSIG
ZGKL,2025-01-02 05:00,ZGKL 020500Z 01002MPS 280V090 9000 NSC 20/05 Q1021 NOSIG
ZGKL,2025-01-02 06:00,ZGKL 020600Z 06003MPS 360V160 CAVOK 21/02 Q1020 NOSIG
ZGKL,2025-01-02 07:00,ZGKL 020700Z 06004MPS 020V090 CAVOK 22/00 Q1019 NOSIG
ZGKL,2025-01-02 08:00,ZGKL 020800Z 07005MPS CAVOK 21/01 Q1019 NOSIG
ZGKL,2025-01-02 09:00,ZGKL 020900Z 07004MPS CAVOK 20/00 Q1019 NOSIG
ZGKL,2025-01-02 10:00,ZGKL 021000Z 06005MPS CAVOK 18/01 Q1020 BECMG FM1130 35001MPS
ZGKL,2025-01-02 11:00,ZGKL 021100Z 05005MPS CAVOK 17/02 Q1021 BECMG FM1230 35002MPS
ZGKL,2025-01-02 12:00,ZGKL 021200Z 34002MPS CAVOK 14/02 Q1022 NOSIG
ZGKL,2025-01-02 13:00,ZGKL 021300Z 35002MPS CAVOK 13/02 Q1023 NOSIG
ZGKL,2025-01-02 14:00,ZGKL 021400Z 31002MPS 280V340 8000 NSC 12/03 Q1024 NOSIG
ZGKL,2025-01-02 15:00,ZGKL 021500Z VRB01MPS 8000 NSC 09/04 Q1025 NOSIG
ZGKL,2025-01-02 16:00,ZGKL 021600Z 03001MPS 8000 NSC 08/04 Q1025 NOSIG
ZGKL,2025-01-02 17:00,ZGKL 021700Z VRB01MPS 7000 NSC 08/04 Q1025 NOSIG
ZGKL,2025-01-02 18:00,ZGKL 021800Z VRB01MPS 7000 NSC 06/04 Q1025 NOSIG
ZGKL,2025-01-02 19:00,ZGKL 021900Z VRB01MPS 6000 NSC 07/05 Q1025 NOSIG
ZGKL,2025-01-02 20:00,ZGKL 022000Z VRB01MPS 6000 NSC 06/05 Q1024 NOSIG
ZGKL,2025-01-02 21:00,ZGKL 022100Z VRB01MPS 6000 NSC 05/04 Q1025 NOSIG
ZGKL,2025-01-02 22:00,ZGKL 022200Z VRB01MPS 6000 NSC 06/05 Q1025 NOSIG
ZGKL,2025-01-02 23:00,ZGKL 022300Z VRB01MPS 6000 NSC 06/05 Q1025 NOSIG
ZGKL,2025-01-03 00:00,ZGKL 030000Z 02001MPS 5000 BR NSC 05/04 Q1026 NOSIG
ZGKL,2025-01-03 01:00,ZGKL 030100Z VRB01MPS 5000 BR NSC 08/06 Q1027 BECMG FM0230 04005MPS
ZGKL,2025-01-03 02:00,ZGKL 030200Z VRB01MPS 6000 NSC 12/06 Q1027 NOSIG
ZGKL,2025-01-03 03:00,ZGKL 030300Z 36003MPS 310V030 7000 NSC 15/02 Q1027 NOSIG
ZGKL,2025-01-03 04:00,ZGKL 030400Z 04005MPS 010V090 8000 NSC 18/M03 Q1026 NOSIG
ZGKL,2025-01-03 05:00,ZGKL 030500Z 06006MPS 9000 NSC 19/M07 Q1024 NOSIG
ZGKL,2025-01-03 06:00,ZGKL 030600Z 03007MPS 9000 NSC 20/M06 Q1022 NOSIG
ZGKL,2025-01-03 07:00,ZGKL 030700Z 03004MPS 350V080 9000 NSC 20/M06 Q1021 NOSIG
ZGKL,2025-01-03 08:00,ZGKL 030800Z 02004MPS 360V070 CAVOK 20/M06 Q1021 NOSIG
ZGKL,2025-01-03 09:00,ZGKL 030900Z 04004MPS 010V100 CAVOK 19/M05 Q1021 NOSIG
ZGKL,2025-01-03 10:00,ZGKL 031000Z 06003MPS CAVOK 17/M05 Q1020 NOSIG
ZGKL,2025-01-03 11:00,ZGKL 031100Z VRB01MPS CAVOK 12/M02 Q1020 NOSIG
ZGKL,2025-01-03 12:00,ZGKL 031200Z 01002MPS CAVOK 11/00 Q1021 NOSIG
ZGKL,2025-01-03 13:00,ZGKL 031300Z 01002MPS CAVOK 09/01 Q1021 NOSIG
ZGKL,2025-01-03 14:00,ZGKL 031400Z 32002MPS 250V040 CAVOK 08/02 Q1022 NOSIG
ZGKL,2025-01-03 15:00,ZGKL 031500Z VRB01MPS 8000 NSC 07/02 Q1023 NOSIG
ZGKL,2025-01-03 16:00,ZGKL 031600Z VRB01MPS 8000 NSC 06/01 Q1023 NOSIG
ZGKL,2025-01-03 17:00,ZGKL 031700Z 00000MPS 8000 NSC 06/02 Q1024 NOSIG
ZGKL,2025-01-03 18:00,ZGKL 031800Z VRB01MPS 6000 NSC 04/02 Q1023 NOSIG
ZGKL,2025-01-03 19:00,ZGKL 031900Z 03001MPS 6000 NSC 04/02 Q1023 NOSIG
ZGKL,2025-01-03 20:00,ZGKL 032000Z 01001MPS 6000 NSC 03/01 Q1023 NOSIG
ZGKL,2025-01-03 21:00,ZGKL 032100Z 04001MPS 6000 NSC 02/01 Q1023 NOSIG
ZGKL,2025-01-03 22:00,ZGKL 032200Z 02001MPS 5000 BR NSC 02/02 Q1023 NOSIG
ZGKL,2025-01-03 23:00,ZGKL 032300Z VRB01MPS 5000 BR NSC 01/01 Q1023 NOSIG
ZGKL,2025-01-04 00:00,ZGKL 040000Z 00000MPS 5000 PRFG BR NSC 01/01 Q1023 NOSIG
ZGKL,2025-01-04 01:00,ZGKL 040100Z VRB01MPS 7000 NSC 06/04 Q1024 NOSIG
ZGKL,2025-01-04 02:00,ZGKL 040200Z VRB01MPS 7000 NSC 10/04 Q1024 NOSIG
ZGKL,2025-01-04 03:00,ZGKL 040300Z VRB01MPS 6000 NSC 14/M02 Q1023 NOSIG
ZGKL,2025-01-04 04:00,ZGKL 040400Z VRB01MPS 6000 NSC 16/M01 Q1022 NOSIG
ZGKL,2025-01-04 05:00,ZGKL 040500Z VRB02MPS 7000 NSC 17/M01 Q1021 NOSIG
ZGKL,2025-01-04 06:00,ZGKL 040600Z 08002MPS 020V150 7000 NSC 19/M01 Q1019 NOSIG
ZGKL,2025-01-04 07:00,ZGKL 040700Z VRB01MPS 7000 NSC 20/M02 Q1018 NOSIG
ZGKL,2025-01-04 08:00,ZGKL 040800Z VRB01MPS 7000 NSC 20/M02 Q1019 NOSIG
ZGKL,2025-01-04 09:00,ZGKL 040900Z VRB01MPS 8000 NSC 19/M01 Q1019 NOSIG
ZGKL,2025-01-04 10:00,ZGKL 041000Z 25001MPS 8000 NSC 15/01 Q1019 NOSIG
ZGKL,2025-01-04 11:00,ZGKL 041100Z 36001MPS 8000 NSC 12/02 Q1020 NOSIG
ZGKL,2025-01-04 12:00,ZGKL 041200Z VRB01MPS 7000 NSC 10/03 Q1022 NOSIG
ZGKL,2025-01-04 13:00,ZGKL 041300Z VRB01MPS 7000 NSC 10/02 Q1023 NOSIG
ZGKL,2025-01-04 14:00,ZGKL 041400Z 31003MPS 280V340 7000 NSC 10/02 Q1024 NOSIG
ZGKL,2025-01-04 15:00,ZGKL 041500Z VRB01MPS 8000 NSC 08/03 Q1025 NOSIG
ZGKL,2025-01-04 16:00,ZGKL 041600Z VRB01MPS 7000 NSC 08/03 Q1025 NOSIG
ZGKL,2025-01-04 17:00,ZGKL 041700Z VRB01MPS 7000 NSC 08/03 Q1026 NOSIG
ZGKL,2025-01-04 18:00,ZGKL 041800Z VRB01MPS 7000 NSC 07/04 Q1026 NOSIG
ZGKL,2025-01-04 19:00,ZGKL 041900Z VRB01MPS 7000 SCT073 08/04 Q1024 NOSIG
ZGKL,2025-01-04 20:00,ZGKL 042000Z VRB01MPS 7000 SCT073 09/04 Q1024 NOSIG
ZGKL,2025-01-04 21:00,ZGKL 042100Z 05002MPS 030V100 7000 FEW073 07/04 Q1024 NOSIG
ZGKL,2025-01-04 22:00,ZGKL 042200Z 01001MPS 7000 NSC 06/04 Q1025 NOSIG
ZGKL,2025-01-04 23:00,ZGKL 042300Z VRB01MPS 6000 NSC 06/04 Q1025 NOSIG
ZGKL,2025-01-05 00:00,ZGKL 050000Z VRB01MPS 5000 BR NSC 05/03 Q1025 NOSIG
ZGKL,2025-01-05 01:00,ZGKL 050100Z VRB01MPS 5000 BR NSC 08/04 Q1026 NOSIG
ZGKL,2025-01-05 02:00,ZGKL 050200Z VRB01MPS 5000 HZ NSC 12/03 Q1026 NOSIG
ZGKL,2025-01-05 03:00,ZGKL 050300Z VRB01MPS 4500 HZ NSC 14/03 Q1025 NOSIG
ZGKL,2025-01-05 04:00,ZGKL 050400Z 05002MPS 030V110 5000 HZ NSC 16/03 Q1024 NOSIG
ZGKL,2025-01-05 05:00,ZGKL 050500Z 06002MPS 360V160 7000 NSC 19/03 Q1022 NOSIG
ZGKL,2025-01-05 06:00,ZGKL 050600Z VRB02MPS 7000 NSC 20/01 Q1021 NOSIG
ZGKL,2025-01-05 07:00,ZGKL 050700Z VRB01MPS 8000 NSC 20/01 Q1019 NOSIG
ZGKL,2025-01-05 08:00,ZGKL 050800Z 03002MPS 330V110 8000 NSC 20/00 Q1019 NOSIG
ZGKL,2025-01-05 09:00,ZGKL 050900Z VRB01MPS 8000 NSC 19/00 Q1019 NOSIG
ZGKL,2025-01-05 10:00,ZGKL 051000Z 35001MPS 8000 NSC 15/02 Q1019 NOSIG
ZGKL,2025-01-05 11:00,ZGKL 051100Z VRB01MPS 8000 NSC 12/03 Q1019 NOSIG
ZGKL,2025-01-05 12:00,ZGKL 051200Z 35001MPS 7000 NSC 09/04 Q1020 NOSIG
ZGKL,2025-01-05 13:00,ZGKL 051300Z VRB01MPS 7000 NSC 08/03 Q1021 NOSIG
ZGKL,2025-01-05 14:00,ZGKL 051400Z 35003MPS 310V010 7000 NSC 11/02 Q1022 NOSIG
ZGKL,2025-01-05 15:00,ZGKL 051500Z 00000MPS 7000 NSC 07/02 Q1022 NOSIG
ZGKL,2025-01-05 16:00,ZGKL 051600Z VRB01MPS 6000 NSC 07/03 Q1022 NOSIG
ZGKL,2025-01-05 17:00,ZGKL 051700Z VRB01MPS 6000 FEW053 06/03 Q1022 NOSIG
ZGKL,2025-01-05 18:00,ZGKL 051800Z 02001MPS 6000 SCT053 04/03 Q1022 NOSIG
ZGKL,2025-01-05 19:00,ZGKL 051900Z 35001MPS 6000 SCT053 04/03 Q1022 NOSIG
ZGKL,2025-01-05 20:00,ZGKL 052000Z 36001MPS 5000 BR SCT053 04/03 Q1022 NOSIG
ZGKL,2025-01-05 21:00,ZGKL 052100Z 01001MPS 5000 BR FEW053 03/02 Q1021 NOSIG
ZGKL,2025-01-05 22:00,ZGKL 052200Z 36001MPS 4500 BR SCT053 02/02 Q1022 NOSIG
ZGKL,2025-01-05 23:00,ZGKL 052300Z 36002MPS 320V030 4500 BR SCT053 02/02 Q1022 NOSIG
ZGKL,2025-01-06 00:00,ZGKL 060000Z 00000MPS 4000 BR NSC 01/01 Q1023 NOSIG
ZGKL,2025-01-06 01:00,ZGKL 060100Z VRB01MPS 4200 BR NSC 06/04 Q1024 NOSIG
ZGKL,2025-01-06 02:00,ZGKL 060200Z VRB01MPS 4000 HZ NSC 12/04 Q1024 NOSIG
ZGKL,2025-01-06 03:00,ZGKL 060300Z VRB01MPS 4000 HZ NSC 14/03 Q1024 NOSIG
ZGKL,2025-01-06 04:00,ZGKL 060400Z 06002MPS 330V110 6000 NSC 16/01 Q1023 NOSIG
ZGKL,2025-01-06 05:00,ZGKL 060500Z 02002MPS 320V120 7000 NSC 18/00 Q1021 NOSIG
ZGKL,2025-01-06 06:00,ZGKL 060600Z 08002MPS 010V130 CAVOK 19/M03 Q1020 NOSIG
ZGKL,2025-01-06 07:00,ZGKL 060700Z 05002MPS 360V130 CAVOK 20/M03 Q1018 NOSIG
ZGKL,2025-01-06 08:00,ZGKL 060800Z 06002MPS 010V120 CAVOK 20/M04 Q1018 NOSIG
ZGKL,2025-01-06 09:00,ZGKL 060900Z 10002MPS 070V140 CAVOK 19/M02 Q1018 NOSIG
ZGKL,2025-01-06 10:00,ZGKL 061000Z 00000MPS CAVOK 15/M00 Q1018 NOSIG
ZGKL,2025-01-06 11:00,ZGKL 061100Z 01002MPS 350V050 CAVOK 12/01 Q1019 NOSIG
ZGKL,2025-01-06 12:00,ZGKL 061200Z 30002MPS CAVOK 11/M00 Q1020 NOSIG
ZGKL,2025-01-06 13:00,ZGKL 061300Z VRB01MPS CAVOK 08/00 Q1021 NOSIG
ZGKL,2025-01-06 14:00,ZGKL 061400Z VRB01MPS CAVOK 07/00 Q1021 NOSIG
ZGKL,2025-01-06 15:00,ZGKL 061500Z VRB01MPS CAVOK 06/00 Q1021 NOSIG
ZGKL,2025-01-06 16:00,ZGKL 061600Z 36001MPS CAVOK 06/01 Q1021 NOSIG
ZGKL,2025-01-06 17:00,ZGKL 061700Z VRB01MPS CAVOK 05/01 Q1021 NOSIG
ZGKL,2025-01-06 18:00,ZGKL 061800Z 00000MPS CAVOK 04/01 Q1021 NOSIG
ZGKL,2025-01-06 19:00,ZGKL 061900Z VRB01MPS CAVOK 04/02 Q1021 NOSIG
ZGKL,2025-01-06 20:00,ZGKL 062000Z VRB01MPS CAVOK 05/02 Q1021 NOSIG
ZGKL,2025-01-06 21:00,ZGKL 062100Z VRB01MPS CAVOK 06/02 Q1021 NOSIG
ZGKL,2025-01-06 22:00,ZGKL 062200Z VRB01MPS CAVOK 06/03 Q1021 NOSIG
ZGKL,2025-01-06 23:00,ZGKL 062300Z 00000MPS 9999 BKN066 07/03 Q1021 NOSIG
ZGKL,2025-01-07 00:00,ZGKL 070000Z 35002MPS 9000 BKN070 07/03 Q1022 NOSIG
ZGKL,2025-01-07 01:00,ZGKL 070100Z VRB01MPS 8000 SCT043 BKN073 08/04 Q1023 NOSIG
ZGKL,2025-01-07 02:00,ZGKL 070200Z 36002MPS 9000 SCT046 OVC073 10/04 Q1024 NOSIG
ZGKL,2025-01-07 03:00,ZGKL 070300Z 35002MPS 8000 SCT050 OVC066 12/03 Q1024 NOSIG
ZGKL,2025-01-07 04:00,ZGKL 070400Z VRB01MPS 8000 SCT050 OVC070 12/03 Q1023 NOSIG
ZGKL,2025-01-07 05:00,ZGKL 070500Z 36002MPS 320V050 8000 SCT050 OVC070 13/03 Q1022 NOSIG
ZGKL,2025-01-07 06:00,ZGKL 070600Z VRB02MPS 8000 FEW050 OVC073 14/02 Q1021 NOSIG
ZGKL,2025-01-07 07:00,ZGKL 070700Z 03004MPS 8000 FEW050 OVC073 14/02 Q1020 NOSIG
ZGKL,2025-01-07 08:00,ZGKL 070800Z 03004MPS 9000 FEW050 OVC066 14/02 Q1020 NOSIG
ZGKL,2025-01-07 09:00,ZGKL 070900Z 05003MPS 9000 FEW050 OVC066 13/02 Q1021 NOSIG
ZGKL,2025-01-07 10:00,ZGKL 071000Z 05003MPS 8000 FEW050 OVC073 12/02 Q1021 NOSIG
ZGKL,2025-01-07 11:00,ZGKL 071100Z 05003MPS 8000 FEW050 OVC073 12/02 Q1021 NOSIG
ZGKL,2025-01-07 12:00,ZGKL 071200Z 05003MPS 8000 BKN073 11/02 Q1022 NOSIG
ZGKL,2025-01-07 13:00,ZGKL 071300Z 05003MPS 8000 BKN073 11/01 Q1022 NOSIG
ZGKL,2025-01-07 14:00,ZGKL 071400Z 05002MPS 8000 NSC 11/01 Q1023 NOSIG
ZGKL,2025-01-07 15:00,ZGKL 071500Z 07003MPS 8000 NSC 11/01 Q1023 NOSIG
ZGKL,2025-01-07 16:00,ZGKL 071600Z 06002MPS 8000 NSC 10/01 Q1023 NOSIG
ZGKL,2025-01-07 17:00,ZGKL 071700Z 05002MPS 360V080 8000 NSC 10/01 Q1023 NOSIG
ZGKL,2025-01-07 18:00,ZGKL 071800Z VRB01MPS 8000 NSC 09/02 Q1022 NOSIG
ZGKL,2025-01-07 19:00,ZGKL 071900Z 33001MPS 8000 BKN073 08/02 Q1022 NOSIG
ZGKL,2025-01-07 20:00,ZGKL 072000Z VRB01MPS 8000 BKN073 08/03 Q1022 NOSIG
ZGKL,2025-01-07 21:00,ZGKL 072100Z VRB01MPS 8000 BKN073 09/01 Q1022 NOSIG
ZGKL,2025-01-07 22:00,ZGKL 072200Z 36001MPS 7000 BKN073 09/02 Q1022 NOSIG
ZGKL,2025-01-07 23:00,ZGKL 072300Z 35001MPS 6000 BKN073 08/02 Q1023 NOSIG
ZGKL,2025-01-08 00:00,ZGKL 080000Z VRB01MPS 5000 HZ BKN066 08/02 Q1024 NOSIG
ZGKL,2025-01-08 01:00,ZGKL 080100Z 03002MPS 360V060 4500 HZ BKN060 10/01 Q1025 NOSIG
ZGKL,2025-01-08 02:00,ZGKL 080200Z 02002MPS 340V050 5000 HZ BKN060 11/01 Q1025 NOSIG
ZGKL,2025-01-08 03:00,ZGKL 080300Z 04003MPS 020V080 5000 HZ BKN056 12/01 Q1025 NOSIG
ZGKL,2025-01-08 04:00,ZGKL 080400Z 02002MPS 310V080 5000 HZ OVC056 13/01 Q1024 NOSIG
ZGKL,2025-01-08 05:00,ZGKL 080500Z 04002MPS 360V070 7000 FEW040 OVC060 13/00 Q1024 NOSIG
ZGKL,2025-01-08 06:00,ZGKL 080600Z 05004MPS 7000 FEW040 OVC056 14/00 Q1022 NOSIG
ZGKL,2025-01-08 07:00,ZGKL 080700Z 03005MPS 7000 FEW043 BKN060 14/M00 Q1022 NOSIG
ZGKL,2025-01-08 08:00,ZGKL 080800Z 05004MPS 7000 FEW040 OVC060 13/M00 Q1022 NOSIG
ZGKL,2025-01-08 09:00,ZGKL 080900Z 05003MPS 8000 FEW043 OVC060 13/M00 Q1022 NOSIG
ZGKL,2025-01-08 10:00,ZGKL 081000Z 06003MPS 8000 FEW043 OVC060 12/01 Q1023 NOSIG
ZGKL,2025-01-08 11:00,ZGKL 081100Z 06004MPS 8000 FEW043 OVC060 11/M00 Q1023 NOSIG
ZGKL,2025-01-08 12:00,ZGKL 081200Z 05003MPS 020V080 7000 FEW043 OVC060 11/00 Q1024 NOSIG
ZGKL,2025-01-08 13:00,ZGKL 081300Z 03002MPS 360V070 7000 FEW043 OVC060 11/00 Q1025 NOSIG
ZGKL,2025-01-08 14:00,ZGKL 081400Z 04002MPS 7000 FEW043 OVC060 11/00 Q1025 NOSIG
ZGKL,2025-01-08 15:00,ZGKL 081500Z 04002MPS 6000 FEW050 OVC066 10/M01 Q1026 NOSIG
ZGKL,2025-01-08 16:00,ZGKL 081600Z 04002MPS 010V070 7000 FEW050 OVC066 10/M01 Q1025 NOSIG
ZGKL,2025-01-08 17:00,ZGKL 081700Z 01002MPS 340V050 7000 OVC060 10/M01 Q1025 NOSIG
ZGKL,2025-01-08 18:00,ZGKL 081800Z 07003MPS 6000 OVC060 10/M01 Q1025 NOSIG
ZGKL,2025-01-08 19:00,ZGKL 081900Z 07003MPS 7000 BKN060 09/M01 Q1025 NOSIG
ZGKL,2025-01-08 20:00,ZGKL 082000Z 34002MPS 290V050 7000 SCT056 09/00 Q1025 NOSIG
ZGKL,2025-01-08 21:00,ZGKL 082100Z VRB01MPS 7000 SCT053 08/00 Q1024 NOSIG
ZGKL,2025-01-08 22:00,ZGKL 082200Z VRB01MPS 6000 BKN056 09/01 Q1025 BECMG TL2300 05005MPS
ZGKL,2025-01-08 23:00,ZGKL 082300Z 04002MPS 010V070 6000 OVC056 09/01 Q1025 NOSIG
ZGKL,2025-01-09 00:00,ZGKL 090000Z VRB01MPS 4500 HZ SCT043 OVC060 09/01 Q1026 BECMG FM0130 05005MPS
ZGKL,2025-01-09 01:00,ZGKL 090100Z 03002MPS 4500 HZ SCT033 OVC050 09/01 Q1027 NOSIG
ZGKL,2025-01-09 02:00,ZGKL 090200Z VRB01MPS 5000 HZ SCT030 OVC046 09/02 Q1029 BECMG FM0330 04005MPS
ZGKL,2025-01-09 03:00,ZGKL 090300Z 01005MPS 6000 -RA SCT030 OVC043 09/03 Q1029 NOSIG
ZGKL,2025-01-09 04:00,ZGKL 090400Z 02005MPS 8000 -RA SCT030 OVC046 08/04 Q1029 NOSIG
ZGKL,2025-01-09 05:00,ZGKL 090500Z 05003MPS 020V080 6000 -SHRA FEW010 SCT026 OVC053 08/05 Q1029 NOSIG
ZGKL,2025-01-09 06:00,ZGKL 090600Z 04003MPS 7000 -RA FEW011 SCT030 OVC056 07/05 Q1028 NOSIG
ZGKL,2025-01-09 07:00,ZGKL 090700Z 05003MPS 9999 SCT033 OVC066 07/04 Q1028 NOSIG
ZGKL,2025-01-09 08:00,ZGKL 090800Z 04004MPS 9000 -RA FEW010 SCT030 OVC056 07/04 Q1029 NOSIG
ZGKL,2025-01-09 09:00,ZGKL 090900Z 06005MPS 9000 BKN030 OVC060 07/03 Q1029 NOSIG
ZGKL,2025-01-09 10:00,ZGKL 091000Z 06005MPS 9000 BKN030 OVC060 07/03 Q1030 NOSIG
ZGKL,2025-01-09 11:00,ZGKL 091100Z 05003MPS 9000 BKN030 OVC053 06/03 Q1031 NOSIG
ZGKL,2025-01-09 12:00,ZGKL 091200Z 04004MPS 020V080 9999 BKN033 OVC056 06/02 Q1032 NOSIG
ZGKL,2025-01-09 13:00,ZGKL 091300Z 04005MPS 9999 SCT033 OVC053 06/02 Q1033 NOSIG
ZGKL,2025-01-09 14:00,ZGKL 091400Z 03005MPS 9999 SCT036 OVC056 06/02 Q1034 NOSIG
ZGKL,2025-01-09 15:00,ZGKL 091500Z 03005MPS 9999 SCT040 OVC060 06/01 Q1034 NOSIG
ZGKL,2025-01-09 16:00,ZGKL 091600Z 01002MPS 9999 SCT046 05/01 Q1034 NOSIG
ZGKL,2025-01-09 17:00,ZGKL 091700Z VRB01MPS 9999 FEW053 04/01 Q1035 NOSIG
ZGKL,2025-01-09 18:00,ZGKL 091800Z VRB01MPS 9999 FEW053 03/01 Q1035 NOSIG
ZGKL,2025-01-09 19:00,ZGKL 091900Z 22001MPS 9000 FEW053 01/M00 Q1034 NOSIG
ZGKL,2025-01-09 20:00,ZGKL 092000Z 33002MPS 290V010 9000 NSC 03/00 Q1034 NOSIG
ZGKL,2025-01-09 21:00,ZGKL 092100Z 01001MPS 9000 NSC 01/M00 Q1034 NOSIG
ZGKL,2025-01-09 22:00,ZGKL 092200Z VRB01MPS 9000 NSC 01/M00 Q1034 NOSIG
ZGKL,2025-01-09 23:00,ZGKL 092300Z 03001MPS 8000 NSC 01/M00 Q1034 NOSIG
ZGKL,2025-01-10 00:00,ZGKL 100000Z VRB01MPS CAVOK 01/00 Q1035 BECMG FM0130 02005MPS
ZGKL,2025-01-10 01:00,ZGKL 100100Z 35002MPS 300V040 CAVOK 04/02 Q1036 NOSIG
ZGKL,2025-01-10 02:00,ZGKL 100200Z 36003MPS 330V030 CAVOK 07/00 Q1036 NOSIG
ZGKL,2025-01-10 03:00,ZGKL 100300Z 04004MPS 010V080 CAVOK 09/M02 Q1036 NOSIG
ZGKL,2025-01-10 04:00,ZGKL 100400Z 03005MPS 360V060 CAVOK 10/M03 Q1035 NOSIG
ZGKL,2025-01-10 05:00,ZGKL 100500Z 05006MPS 010V080 CAVOK 11/M07 Q1033 NOSIG
ZGKL,2025-01-10 06:00,ZGKL 100600Z 04005MPS 010V070 CAVOK 12/M05 Q1031 NOSIG
ZGKL,2025-01-10 07:00,ZGKL 100700Z 05004MPS 360V080 CAVOK 13/M06 Q1031 NOSIG
ZGKL,2025-01-10 08:00,ZGKL 100800Z 05005MPS CAVOK 13/M07 Q1030 NOSIG
ZGKL,2025-01-10 09:00,ZGKL 100900Z 05004MPS 9999 FEW033 BKN053 12/M06 Q1030 NOSIG
ZGKL,2025-01-10 10:00,ZGKL 101000Z 06006MPS 9999 SCT033 11/M06 Q1030 BECMG AT1130 36003MPS
ZGKL,2025-01-10 11:00,ZGKL 101100Z 06006MPS 9999 SCT033 10/M06 Q1031 NOSIG
ZGKL,2025-01-10 12:00,ZGKL 101200Z 04005MPS 9999 FEW033 10/M06 Q1032 NOSIG
ZGKL,2025-01-10 13:00,ZGKL 101300Z 05006MPS 020V080 CAVOK 09/M06 Q1033 NOSIG
ZGKL,2025-01-10 14:00,ZGKL 101400Z 05006MPS 9999 FEW066 09/M06 Q1034 BECMG AT1530 35001MPS
ZGKL,2025-01-10 15:00,ZGKL 101500Z 03003MPS 9999 -RA FEW053 08/M03 Q1034 NOSIG
ZGKL,2025-01-10 16:00,ZGKL 101600Z 35002MPS 290V050 9999 FEW053 BKN073 08/M04 Q1034 NOSIG
ZGKL,2025-01-10 17:00,ZGKL 101700Z 05004MPS 9999 SCT046 OVC073 09/M05 Q1034 NOSIG
ZGKL,2025-01-10 18:00,ZGKL 101800Z 36002MPS 320V030 9999 SCT046 08/M05 Q1034 NOSIG
ZGKL,2025-01-10 19:00,ZGKL 101900Z 04003MPS 010V070 9999 SCT050 OVC073 08/M06 Q1034 NOSIG
ZGKL,2025-01-10 20:00,ZGKL 102000Z VRB01MPS 9999 SCT050 08/M06 Q1034 NOSIG
ZGKL,2025-01-10 21:00,ZGKL 102100Z 35002MPS 320V020 9999 SCT050 08/M06 Q1034 NOSIG
ZGKL,2025-01-10 22:00,ZGKL 102200Z VRB01MPS 9999 FEW050 08/M06 Q1034 NOSIG
ZGKL,2025-01-10 23:00,ZGKL 102300Z 03002MPS 9999 FEW050 07/M06 Q1035 NOSIG
ZGKL,2025-01-11 00:00,ZGKL 110000Z VRB01MPS 9999 FEW050 07/M06 Q1036 NOSIG
ZGKL,2025-01-11 01:00,ZGKL 110100Z VRB01MPS 9999 FEW053 08/M05 Q1037 NOSIG
ZGKL,2025-01-11 02:00,ZGKL 110200Z VRB01MPS 9999 FEW060 08/M06 Q1038 NOSIG
ZGKL,2025-01-11 03:00,ZGKL 110300Z 02003MPS 340V040 CAVOK 10/M06 Q1038 NOSIG
ZGKL,2025-01-11 04:00,ZGKL 110400Z 03003MPS 350V070 CAVOK 11/M06 Q1036 NOSIG
ZGKL,2025-01-11 05:00,ZGKL 110500Z 02002MPS 320V080 CAVOK 13/M06 Q1035 NOSIG
ZGKL,2025-01-11 06:00,ZGKL 110600Z 08003MPS 040V140 CAVOK 14/M07 Q1033 NOSIG
ZGKL,2025-01-11 07:00,ZGKL 110700Z VRB01MPS CAVOK 14/M07 Q1032 NOSIG
ZGKL,2025-01-11 08:00,ZGKL 110800Z VRB01MPS CAVOK 15/M07 Q1031 NOSIG
ZGKL,2025-01-11 09:00,ZGKL 110900Z 09004MPS CAVOK 14/M09 Q1031 NOSIG
ZGKL,2025-01-11 10:00,ZGKL 111000Z 09002MPS CAVOK 12/M07 Q1031 NOSIG
ZGKL,2025-01-11 11:00,ZGKL 111100Z 28002MPS CAVOK 09/M03 Q1031 NOSIG
ZGKL,2025-01-11 12:00,ZGKL 111200Z VRB01MPS CAVOK 07/M02 Q1031 NOSIG
ZGKL,2025-01-11 13:00,ZGKL 111300Z VRB01MPS CAVOK 04/M02 Q1032 NOSIG
ZGKL,2025-01-11 14:00,ZGKL 111400Z VRB01MPS CAVOK 04/M01 Q1032 NOSIG
ZGKL,2025-01-11 15:00,ZGKL 111500Z VRB01MPS CAVOK 04/M02 Q1032 NOSIG
ZGKL,2025-01-11 16:00,ZGKL 111600Z 27001MPS 8000 NSC 01/M02 Q1032 NOSIG
ZGKL,2025-01-11 17:00,ZGKL 111700Z VRB01MPS CAVOK 02/M01 Q1032 NOSIG
ZGKL,2025-01-11 18:00,ZGKL 111800Z 00000MPS CAVOK 01/M02 Q1031 NOSIG
ZGKL,2025-01-11 19:00,ZGKL 111900Z VRB01MPS 8000 NSC M02/M03 Q1031 NOSIG
ZGKL,2025-01-11 20:00,ZGKL 112000Z 00000MPS 8000 NSC M01/M02 Q1031 NOSIG
ZGKL,2025-01-11 21:00,ZGKL 112100Z 03001MPS 7000 NSC M02/M03 Q1030 NOSIG
ZGKL,2025-01-11 22:00,ZGKL 112200Z VRB01MPS 7000 NSC M03/M04 Q1030 NOSIG
ZGKL,2025-01-11 23:00,ZGKL 112300Z 11001MPS 8000 NSC M02/M03 Q1030 NOSIG
ZGKL,2025-01-12 00:00,ZGKL 120000Z 00000MPS CAVOK M02/M03 Q1031 NOSIG
ZGKL,2025-01-12 01:00,ZGKL 120100Z VRB01MPS CAVOK 02/00 Q1031 NOSIG
ZGKL,2025-01-12 02:00,ZGKL 120200Z VRB01MPS CAVOK 06/M00 Q1031 NOSIG
ZGKL,2025-01-12 03:00,ZGKL 120300Z VRB01MPS CAVOK 10/M02 Q1031 NOSIG
ZGKL,2025-01-12 04:00,ZGKL 120400Z VRB01MPS CAVOK 13/M04 Q1029 NOSIG
ZGKL,2025-01-12 05:00,ZGKL 120500Z VRB01MPS CAVOK 16/M04 Q1028 NOSIG
ZGKL,2025-01-12 06:00,ZGKL 120600Z VRB01MPS CAVOK 18/M05 Q1026 NOSIG
ZGKL,2025-01-12 07:00,ZGKL 120700Z VRB01MPS CAVOK 19/M07 Q1025 NOSIG
ZGKL,2025-01-12 08:00,ZGKL 120800Z 20002MPS 140V240 CAVOK 19/M13 Q1024 NOSIG
ZGKL,2025-01-12 09:00,ZGKL 120900Z VRB01MPS CAVOK 19/M12 Q1023 NOSIG
ZGKL,2025-01-12 10:00,ZGKL 121000Z 12002MPS CAVOK 16/M10 Q1023 NOSIG
ZGKL,2025-01-12 11:00,ZGKL 121100Z 27003MPS CAVOK 12/M06 Q1023 NOSIG
ZGKL,2025-01-12 12:00,ZGKL 121200Z VRB01MPS CAVOK 08/M03 Q1024 NOSIG
ZGKL,2025-01-12 13:00,ZGKL 121300Z 34001MPS CAVOK 06/M03 Q1025 NOSIG
ZGKL,2025-01-12 14:00,ZGKL 121400Z VRB01MPS CAVOK 05/M03 Q1025 NOSIG
ZGKL,2025-01-12 15:00,ZGKL 121500Z VRB01MPS CAVOK 04/M02 Q1026 NOSIG
ZGKL,2025-01-12 16:00,ZGKL 121600Z VRB01MPS CAVOK 02/M02 Q1026 NOSIG
ZGKL,2025-01-12 17:00,ZGKL 121700Z 02001MPS CAVOK 02/M02 Q1026 NOSIG
ZGKL,2025-01-12 18:00,ZGKL 121800Z 00000MPS CAVOK 01/M02 Q1026 NOSIG
ZGKL,2025-01-12 19:00,ZGKL 121900Z 01001MPS CAVOK 00/M02 Q1025 NOSIG
ZGKL,2025-01-12 20:00,ZGKL 122000Z 00000MPS CAVOK 01/M02 Q1025 NOSIG
ZGKL,2025-01-12 21:00,ZGKL 122100Z 25001MPS CAVOK M00/M02 Q1025 NOSIG
ZGKL,2025-01-12 22:00,ZGKL 122200Z VRB01MPS CAVOK M00/M02 Q1025 NOSIG
ZGKL,2025-01-12 23:00,ZGKL 122300Z 00000MPS CAVOK M01/M02 Q1025 NOSIG
ZGKL,2025-01-13 00:00,ZGKL 130000Z 00000MPS CAVOK M00/M01 Q1026 NOSIG
ZGKL,2025-01-13 01:00,ZGKL 130100Z 00000MPS CAVOK 05/00 Q1026 NOSIG
ZGKL,2025-01-13 02:00,ZGKL 130200Z VRB01MPS CAVOK 10/M01 Q1027 NOSIG
ZGKL,2025-01-13 03:00,ZGKL 130300Z VRB01MPS CAVOK 13/M03 Q1026 NOSIG
ZGKL,2025-01-13 04:00,ZGKL 130400Z VRB01MPS CAVOK 16/M04 Q1025 NOSIG
ZGKL,2025-01-13 05:00,ZGKL 130500Z 04002MPS 320V130 CAVOK 19/M05 Q1023 NOSIG
ZGKL,2025-01-13 06:00,ZGKL 130600Z VRB02MPS CAVOK 19/M05 Q1021 NOSIG
ZGKL,2025-01-13 07:00,ZGKL 130700Z 19002MPS 140V270 CAVOK 20/M05 Q1020 NOSIG
ZGKL,2025-01-13 08:00,ZGKL 130800Z VRB01MPS CAVOK 21/M05 Q1019 NOSIG
ZGKL,2025-01-13 09:00,ZGKL 130900Z 08002MPS 050V110 CAVOK 20/M05 Q1019 NOSIG
ZGKL,2025-01-13 10:00,ZGKL 131000Z VRB01MPS CAVOK 18/M05 Q1019 NOSIG
ZGKL,2025-01-13 11:00,ZGKL 131100Z 28002MPS CAVOK 14/M01 Q1019 NOSIG
ZGKL,2025-01-13 12:00,ZGKL 131200Z VRB01MPS CAVOK 10/M01 Q1020 NOSIG
ZGKL,2025-01-13 13:00,ZGKL 131300Z 30002MPS CAVOK 08/00 Q1021 NOSIG
ZGKL,2025-01-13 14:00,ZGKL 131400Z 20001MPS CAVOK 06/01 Q1021 NOSIG
ZGKL,2025-01-13 15:00,ZGKL 131500Z 26002MPS CAVOK 06/01 Q1021 NOSIG
ZGKL,2025-01-13 16:00,ZGKL 131600Z VRB01MPS CAVOK 05/01 Q1022 NOSIG
ZGKL,2025-01-13 17:00,ZGKL 131700Z 00000MPS CAVOK 03/01 Q1022 NOSIG
ZGKL,2025-01-13 18:00,ZGKL 131800Z 00000MPS CAVOK 03/01 Q1022 NOSIG
ZGKL,2025-01-13 19:00,ZGKL 131900Z 02001MPS CAVOK 03/00 Q1022 NOSIG
ZGKL,2025-01-13 20:00,ZGKL 132000Z VRB01MPS CAVOK 02/01 Q1022 NOSIG
ZGKL,2025-01-13 21:00,ZGKL 132100Z 00000MPS CAVOK 02/00 Q1022 NOSIG
ZGKL,2025-01-13 22:00,ZGKL 132200Z 36001MPS CAVOK 01/M00 Q1022 NOSIG
ZGKL,2025-01-13 23:00,ZGKL 132300Z 00000MPS CAVOK 01/M00 Q1023 NOSIG
ZGKL,2025-01-14 00:00,ZGKL 140000Z 03001MPS CAVOK 01/00 Q1024 NOSIG
ZGKL,2025-01-14 01:00,ZGKL 140100Z 00000MPS CAVOK 06/02 Q1024 NOSIG
ZGKL,2025-01-14 02:00,ZGKL 140200Z VRB01MPS CAVOK 11/01 Q1025 NOSIG
ZGKL,2025-01-14 03:00,ZGKL 140300Z VRB01MPS CAVOK 15/01 Q1025 NOSIG
ZGKL,2025-01-14 04:00,ZGKL 140400Z VRB01MPS CAVOK 18/M00 Q1024 NOSIG
ZGKL,2025-01-14 05:00,ZGKL 140500Z VRB01MPS 9999 FEW060 21/00 Q1023 NOSIG
ZGKL,2025-01-14 06:00,ZGKL 140600Z VRB01MPS 9999 FEW056 21/00 Q1022 NOSIG
ZGKL,2025-01-14 07:00,ZGKL 140700Z VRB01MPS 9999 FEW056 22/01 Q1021 NOSIG
ZGKL,2025-01-14 08:00,ZGKL 140800Z 14002MPS 120V210 9999 SCT056 21/03 Q1021 NOSIG
ZGKL,2025-01-14 09:00,ZGKL 140900Z 17002MPS 9999 SCT050 SCT066 20/03 Q1022 NOSIG
ZGKL,2025-01-14 10:00,ZGKL 141000Z VRB01MPS 9999 SCT046 SCT060 19/02 Q1022 NOSIG
ZGKL,2025-01-14 11:00,ZGKL 141100Z 27002MPS 9999 SCT050 SCT066 17/05 Q1023 NOSIG
ZGKL,2025-01-14 12:00,ZGKL 141200Z VRB01MPS 9999 SCT046 SCT060 16/05 Q1024 NOSIG
ZGKL,2025-01-14 13:00,ZGKL 141300Z 04003MPS 9999 SCT046 SCT060 16/05 Q1025 NOSIG
ZGKL,2025-01-14 14:00,ZGKL 141400Z 36002MPS 330V030 9999 SCT046 17/03 Q1026 NOSIG
ZGKL,2025-01-14 15:00,ZGKL 141500Z 36002MPS 320V030 9999 SCT050 14/04 Q1026 BECMG AT1630 06005MPS
ZGKL,2025-01-14 16:00,ZGKL 141600Z 06008G13MPS CAVOK 16/M00 Q1027 NOSIG
ZGKL,2025-01-14 17:00,ZGKL 141700Z 04005MPS CAVOK 14/00 Q1028 NOSIG
ZGKL,2025-01-14 18:00,ZGKL 141800Z 36002MPS CAVOK 12/01 Q1028 NOSIG
ZGKL,2025-01-14 19:00,ZGKL 141900Z 05003MPS 300V070 CAVOK 12/01 Q1029 NOSIG
ZGKL,2025-01-14 20:00,ZGKL 142000Z 04004MPS CAVOK 11/02 Q1029 NOSIG
ZGKL,2025-01-14 21:00,ZGKL 142100Z 04003MPS CAVOK 10/02 Q1029 NOSIG
ZGKL,2025-01-14 22:00,ZGKL 142200Z 05004MPS 8000 NSC 10/02 Q1030 NOSIG
ZGKL,2025-01-14 23:00,ZGKL 142300Z 04003MPS 7000 NSC 10/01 Q1030 NOSIG
ZGKL,2025-01-15 00:00,ZGKL 150000Z 35002MPS 5000 HZ NSC 08/02 Q1031 NOSIG
ZGKL,2025-01-15 01:00,ZGKL 150100Z 03002MPS 5000 HZ NSC 11/02 Q1031 NOSIG
ZGKL,2025-01-15 02:00,ZGKL 150200Z 04005MPS 6000 NSC 13/02 Q1032 NOSIG
ZGKL,2025-01-15 03:00,ZGKL 150300Z 03006MPS 9000 NSC 15/02 Q1032 NOSIG
ZGKL,2025-01-15 04:00,ZGKL 150400Z 06006MPS 9000 NSC 16/01 Q1031 NOSIG
ZGKL,2025-01-15 05:00,ZGKL 150500Z 05007MPS 9000 NSC 17/01 Q1030 NOSIG
ZGKL,2025-01-15 06:00,ZGKL 150600Z 06006MPS CAVOK 18/02 Q1029 NOSIG
ZGKL,2025-01-15 07:00,ZGKL 150700Z 07007MPS 040V100 CAVOK 17/01 Q1028 NOSIG
ZGKL,2025-01-15 08:00,ZGKL 150800Z 08006MPS CAVOK 17/02 Q1027 NOSIG
ZGKL,2025-01-15 09:00,ZGKL 150900Z 06006MPS CAVOK 16/01 Q1028 NOSIG
ZGKL,2025-01-15 10:00,ZGKL 151000Z 05006MPS CAVOK 14/00 Q1028 NOSIG
ZGKL,2025-01-15 11:00,ZGKL 151100Z 04007MPS CAVOK 13/M01 Q1029 NOSIG
ZGKL,2025-01-15 12:00,ZGKL 151200Z 04005MPS CAVOK 12/M01 Q1029 NOSIG
ZGKL,2025-01-15 13:00,ZGKL 151300Z 03006MPS CAVOK 12/M03 Q1030 NOSIG
ZGKL,2025-01-15 14:00,ZGKL 151400Z 01005MPS CAVOK 10/M02 Q1031 NOSIG
ZGKL,2025-01-15 15:00,ZGKL 151500Z 34002MPS CAVOK 09/M02 Q1031 NOSIG
ZGKL,2025-01-15 16:00,ZGKL 151600Z VRB01MPS CAVOK 08/M03 Q1031 NOSIG
ZGKL,2025-01-15 17:00,ZGKL 151700Z VRB01MPS CAVOK 07/M02 Q1031 NOSIG
ZGKL,2025-01-15 18:00,ZGKL 151800Z VRB01MPS CAVOK 05/M01 Q1031 NOSIG
ZGKL,2025-01-15 19:00,ZGKL 151900Z VRB01MPS CAVOK 05/00 Q1031 NOSIG
ZGKL,2025-01-15 20:00,ZGKL 152000Z VRB01MPS CAVOK 04/01 Q1031 NOSIG
ZGKL,2025-01-15 21:00,ZGKL 152100Z VRB01MPS CAVOK 03/M01 Q1030 NOSIG
ZGKL,2025-01-15 22:00,ZGKL 152200Z 36001MPS CAVOK 02/M00 Q1031 NOSIG
ZGKL,2025-01-15 23:00,ZGKL 152300Z VRB01MPS 8000 NSC 02/00 Q1031 NOSIG
ZGKL,2025-01-16 00:00,ZGKL 160000Z VRB01MPS CAVOK 02/01 Q1031 BECMG FM0130 03005MPS
ZGKL,2025-01-16 01:00,ZGKL 160100Z VRB01MPS 9999 BKN066 05/02 Q1032 NOSIG
ZGKL,2025-01-16 02:00,ZGKL 160200Z VRB01MPS CAVOK 09/M00 Q1032 NOSIG
ZGKL,2025-01-16 03:00,ZGKL 160300Z VRB02MPS CAVOK 12/M03 Q1031 NOSIG
ZGKL,2025-01-16 04:00,ZGKL 160400Z VRB01MPS CAVOK 13/M06 Q1030 NOSIG
ZGKL,2025-01-16 05:00,ZGKL 160500Z VRB01MPS CAVOK 16/M05 Q1028 NOSIG
ZGKL,2025-01-16 06:00,ZGKL 160600Z 05002MPS 320V120 CAVOK 17/M05 Q1026 NOSIG
ZGKL,2025-01-16 07:00,ZGKL 160700Z VRB01MPS CAVOK 18/M04 Q1025 NOSIG
ZGKL,2025-01-16 08:00,ZGKL 160800Z VRB02MPS CAVOK 18/M04 Q1025 NOSIG
ZGKL,2025-01-16 09:00,ZGKL 160900Z 08002MPS 020V170 CAVOK 18/M04 Q1025 NOSIG
ZGKL,2025-01-16 10:00,ZGKL 161000Z VRB01MPS CAVOK 14/M02 Q1025 NOSIG
ZGKL,2025-01-16 11:00,ZGKL 161100Z VRB01MPS CAVOK 12/M00 Q1025 NOSIG
ZGKL,2025-01-16 12:00,ZGKL 161200Z 01001MPS CAVOK 09/M01 Q1026 NOSIG
ZGKL,2025-01-16 13:00,ZGKL 161300Z 03003MPS CAVOK 10/M03 Q1026 NOSIG
ZGKL,2025-01-16 14:00,ZGKL 161400Z 32003MPS CAVOK 10/M03 Q1027 NOSIG
ZGKL,2025-01-16 15:00,ZGKL 161500Z 34002MPS 310V040 CAVOK 08/M03 Q1027 NOSIG
ZGKL,2025-01-16 16:00,ZGKL 161600Z VRB01MPS CAVOK 06/M01 Q1028 NOSIG
ZGKL,2025-01-16 17:00,ZGKL 161700Z VRB01MPS CAVOK 05/M01 Q1027 NOSIG
ZGKL,2025-01-16 18:00,ZGKL 161800Z VRB01MPS CAVOK 04/00 Q1027 NOSIG
ZGKL,2025-01-16 19:00,ZGKL 161900Z VRB01MPS CAVOK 04/00 Q1027 NOSIG
ZGKL,2025-01-16 20:00,ZGKL 162000Z VRB01MPS CAVOK 02/00 Q1026 NOSIG
ZGKL,2025-01-16 21:00,ZGKL 162100Z VRB01MPS CAVOK 01/00 Q1026 NOSIG
ZGKL,2025-01-16 22:00,ZGKL 162200Z 01001MPS CAVOK 01/M00 Q1026 NOSIG
ZGKL,2025-01-16 23:00,ZGKL 162300Z VRB01MPS CAVOK 01/M00 Q1026 NOSIG
ZGKL,2025-01-17 00:00,ZGKL 170000Z 36001MPS CAVOK 00/M01 Q1027 NOSIG
ZGKL,2025-01-17 01:00,ZGKL 170100Z VRB01MPS CAVOK 04/01 Q1027 NOSIG
ZGKL,2025-01-17 02:00,ZGKL 170200Z VRB01MPS CAVOK 10/01 Q1027 NOSIG
ZGKL,2025-01-17 03:00,ZGKL 170300Z 06004MPS 020V090 CAVOK 14/M03 Q1027 NOSIG
ZGKL,2025-01-17 04:00,ZGKL 170400Z VRB03MPS CAVOK 15/M05 Q1025 NOSIG
ZGKL,2025-01-17 05:00,ZGKL 170500Z VRB01MPS CAVOK 17/M06 Q1023 NOSIG
ZGKL,2025-01-17 06:00,ZGKL 170600Z VRB01MPS CAVOK 18/M05 Q1022 NOSIG
ZGKL,2025-01-17 07:00,ZGKL 170700Z VRB01MPS CAVOK 18/M05 Q1020 NOSIG
ZGKL,2025-01-17 08:00,ZGKL 170800Z VRB01MPS CAVOK 19/M04 Q1020 NOSIG
ZGKL,2025-01-17 09:00,ZGKL 170900Z VRB01MPS CAVOK 18/M04 Q1019 NOSIG
ZGKL,2025-01-17 10:00,ZGKL 171000Z VRB01MPS CAVOK 15/M02 Q1019 NOSIG
ZGKL,2025-01-17 11:00,ZGKL 171100Z 30002MPS CAVOK 13/M01 Q1019 NOSIG
ZGKL,2025-01-17 12:00,ZGKL 171200Z 35001MPS CAVOK 10/M01 Q1019 NOSIG
ZGKL,2025-01-17 13:00,ZGKL 171300Z 33001MPS CAVOK 09/M01 Q1020 NOSIG
ZGKL,2025-01-17 14:00,ZGKL 171400Z VRB01MPS CAVOK 08/M00 Q1020 NOSIG
ZGKL,2025-01-17 15:00,ZGKL 171500Z 31002MPS CAVOK 07/M00 Q1021 NOSIG
ZGKL,2025-01-17 16:00,ZGKL 171600Z VRB01MPS CAVOK 06/M00 Q1021 NOSIG
ZGKL,2025-01-17 17:00,ZGKL 171700Z 03001MPS CAVOK 06/01 Q1021 NOSIG
ZGKL,2025-01-17 18:00,ZGKL 171800Z 35001MPS CAVOK 04/01 Q1021 NOSIG
ZGKL,2025-01-17 19:00,ZGKL 171900Z 36001MPS CAVOK 04/01 Q1021 NOSIG
ZGKL,2025-01-17 20:00,ZGKL 172000Z VRB01MPS CAVOK 03/01 Q1021 NOSIG
ZGKL,2025-01-17 21:00,ZGKL 172100Z VRB01MPS CAVOK 03/01 Q1021 NOSIG
ZGKL,2025-01-17 22:00,ZGKL 172200Z 35001MPS CAVOK 02/00 Q1022 NOSIG
ZGKL,2025-01-17 23:00,ZGKL 172300Z VRB01MPS 9999 FEW066 02/01 Q1022 NOSIG
ZGKL,2025-01-18 00:00,ZGKL 180000Z VRB01MPS 9999 FEW073 02/01 Q1023 NOSIG
ZGKL,2025-01-18 01:00,ZGKL 180100Z VRB01MPS 9999 BKN073 05/03 Q1023 NOSIG
ZGKL,2025-01-18 02:00,ZGKL 180200Z VRB01MPS 9999 FEW073 09/03 Q1024 NOSIG
ZGKL,2025-01-18 03:00,ZGKL 180300Z VRB01MPS 9000 NSC 14/01 Q1024 NOSIG
ZGKL,2025-01-18 04:00,ZGKL 180400Z VRB01MPS 9000 NSC 16/M00 Q1023 NOSIG
ZGKL,2025-01-18 05:00,ZGKL 180500Z VRB02MPS CAVOK 18/M00 Q1021 NOSIG
ZGKL,2025-01-18 06:00,ZGKL 180600Z 05002MPS 010V080 CAVOK 20/M00 Q1020 NOSIG
ZGKL,2025-01-18 07:00,ZGKL 180700Z VRB01MPS CAVOK 19/M01 Q1019 NOSIG
ZGKL,2025-01-18 08:00,ZGKL 180800Z 15002MPS 100V190 CAVOK 19/M01 Q1018 NOSIG
ZGKL,2025-01-18 09:00,ZGKL 180900Z 10002MPS 050V120 CAVOK 19/M01 Q1018 NOSIG
ZGKL,2025-01-18 10:00,ZGKL 181000Z VRB01MPS CAVOK 17/01 Q1018 NOSIG
ZGKL,2025-01-18 11:00,ZGKL 181100Z 27002MPS 9999 FEW073 15/02 Q1019 NOSIG
ZGKL,2025-01-18 12:00,ZGKL 181200Z VRB01MPS CAVOK 11/03 Q1019 NOSIG
ZGKL,2025-01-18 13:00,ZGKL 181300Z VRB01MPS 9999 BKN073 12/02 Q1020 NOSIG
ZGKL,2025-01-18 14:00,ZGKL 181400Z VRB01MPS 9999 BKN073 12/03 Q1020 NOSIG
ZGKL,2025-01-18 15:00,ZGKL 181500Z 29001MPS 9999 BKN073 12/04 Q1020 NOSIG
ZGKL,2025-01-18 16:00,ZGKL 181600Z VRB01MPS 9999 BKN073 11/04 Q1020 NOSIG
ZGKL,2025-01-18 17:00,ZGKL 181700Z VRB01MPS 9999 BKN073 11/05 Q1020 NOSIG
ZGKL,2025-01-18 18:00,ZGKL 181800Z 01001MPS 9999 BKN073 12/03 Q1020 NOSIG
ZGKL,2025-01-18 19:00,ZGKL 181900Z 00000MPS CAVOK 11/05 Q1020 NOSIG
ZGKL,2025-01-18 20:00,ZGKL 182000Z 36001MPS CAVOK 11/05 Q1019 NOSIG
ZGKL,2025-01-18 21:00,ZGKL 182100Z VRB01MPS CAVOK 10/05 Q1019 NOSIG
ZGKL,2025-01-18 22:00,ZGKL 182200Z VRB01MPS CAVOK 08/05 Q1019 NOSIG
ZGKL,2025-01-18 23:00,ZGKL 182300Z VRB01MPS 7000 SCT073 08/06 Q1019 NOSIG
ZGKL,2025-01-19 00:00,ZGKL 190000Z VRB01MPS 7000 NSC 06/05 Q1020 NOSIG
ZGKL,2025-01-19 01:00,ZGKL 190100Z 00000MPS 9000 NSC 09/05 Q1020 NOSIG
ZGKL,2025-01-19 02:00,ZGKL 190200Z VRB01MPS 9000 NSC 14/05 Q1021 NOSIG
ZGKL,2025-01-19 03:00,ZGKL 190300Z VRB01MPS 9000 NSC 16/02 Q1020 NOSIG
ZGKL,2025-01-19 04:00,ZGKL 190400Z VRB01MPS CAVOK 18/02 Q1019 NOSIG
ZGKL,2025-01-19 05:00,ZGKL 190500Z VRB01MPS CAVOK 20/02 Q1017 NOSIG
ZGKL,2025-01-19 06:00,ZGKL 190600Z VRB01MPS CAVOK 21/03 Q1016 NOSIG
ZGKL,2025-01-19 07:00,ZGKL 190700Z 16002MPS 070V210 CAVOK 22/03 Q1015 NOSIG
ZGKL,2025-01-19 08:00,ZGKL 190800Z 08002MPS 040V120 CAVOK 22/03 Q1014 NOSIG
ZGKL,2025-01-19 09:00,ZGKL 190900Z 11002MPS 070V150 CAVOK 21/03 Q1014 NOSIG
ZGKL,2025-01-19 10:00,ZGKL 191000Z 00000MPS CAVOK 18/04 Q1014 NOSIG
ZGKL,2025-01-19 11:00,ZGKL 191100Z VRB01MPS CAVOK 15/05 Q1014 NOSIG
ZGKL,2025-01-19 12:00,ZGKL 191200Z 30001MPS CAVOK 13/05 Q1015 NOSIG
ZGKL,2025-01-19 13:00,ZGKL 191300Z 36001MPS CAVOK 11/05 Q1015 NOSIG
ZGKL,2025-01-19 14:00,ZGKL 191400Z VRB01MPS 9000 NSC 11/05 Q1017 NOSIG
ZGKL,2025-01-19 15:00,ZGKL 191500Z VRB01MPS 8000 NSC 10/05 Q1017 NOSIG
ZGKL,2025-01-19 16:00,ZGKL 191600Z 01001MPS 8000 NSC 09/05 Q1018 NOSIG
ZGKL,2025-01-19 17:00,ZGKL 191700Z VRB01MPS 8000 SCT073 09/06 Q1018 NOSIG
ZGKL,2025-01-19 18:00,ZGKL 191800Z VRB01MPS 8000 BKN073 09/06 Q1018 NOSIG
ZGKL,2025-01-19 19:00,ZGKL 191900Z VRB01MPS 9999 BKN073 10/06 Q1017 NOSIG
ZGKL,2025-01-19 20:00,ZGKL 192000Z 04001MPS 9999 FEW060 10/06 Q1017 NOSIG
ZGKL,2025-01-19 21:00,ZGKL 192100Z VRB01MPS 9999 FEW060 10/07 Q1017 NOSIG
ZGKL,2025-01-19 22:00,ZGKL 192200Z 36002MPS 9999 FEW066 10/06 Q1017 NOSIG
ZGKL,2025-01-19 23:00,ZGKL 192300Z VRB01MPS 9999 SCT073 09/06 Q1018 NOSIG
ZGKL,2025-01-20 00:00,ZGKL 200000Z VRB01MPS CAVOK 09/07 Q1018 NOSIG
ZGKL,2025-01-20 01:00,ZGKL 200100Z 00000MPS CAVOK 11/07 Q1019 NOSIG
ZGKL,2025-01-20 02:00,ZGKL 200200Z VRB01MPS CAVOK 15/07 Q1020 NOSIG
ZGKL,2025-01-20 03:00,ZGKL 200300Z VRB01MPS CAVOK 18/04 Q1020 NOSIG
ZGKL,2025-01-20 04:00,ZGKL 200400Z VRB02MPS CAVOK 20/03 Q1019 NOSIG
ZGKL,2025-01-20 05:00,ZGKL 200500Z VRB01MPS CAVOK 21/03 Q1017 NOSIG
ZGKL,2025-01-20 06:00,ZGKL 200600Z VRB01MPS CAVOK 22/03 Q1016 NOSIG
ZGKL,2025-01-20 07:00,ZGKL 200700Z VRB01MPS CAVOK 22/03 Q1015 NOSIG
ZGKL,2025-01-20 08:00,ZGKL 200800Z 05002MPS 360V150 CAVOK 23/04 Q1014 NOSIG
ZGKL,2025-01-20 09:00,ZGKL 200900Z 15002MPS 120V180 CAVOK 22/04 Q1014 NOSIG
ZGKL,2025-01-20 10:00,ZGKL 201000Z 13001MPS CAVOK 20/04 Q1014 NOSIG
ZGKL,2025-01-20 11:00,ZGKL 201100Z 27002MPS CAVOK 17/06 Q1015 NOSIG
ZGKL,2025-01-20 12:00,ZGKL 201200Z VRB01MPS CAVOK 14/06 Q1015 NOSIG
ZGKL,2025-01-20 13:00,ZGKL 201300Z 34001MPS CAVOK 13/06 Q1016 NOSIG
ZGKL,2025-01-20 14:00,ZGKL 201400Z 29002MPS CAVOK 12/07 Q1017 NOSIG
ZGKL,2025-01-20 15:00,ZGKL 201500Z VRB01MPS CAVOK 10/06 Q1017 NOSIG
ZGKL,2025-01-20 16:00,ZGKL 201600Z 00000MPS CAVOK 10/06 Q1018 NOSIG
ZGKL,2025-01-20 17:00,ZGKL 201700Z 29001MPS 8000 NSC 08/06 Q1018 NOSIG
ZGKL,2025-01-20 18:00,ZGKL 201800Z 00000MPS 8000 NSC 07/06 Q1018 NOSIG
ZGKL,2025-01-20 19:00,ZGKL 201900Z 00000MPS 8000 NSC 06/05 Q1018 NOSIG
ZGKL,2025-01-20 20:00,ZGKL 202000Z VRB02MPS 7000 NSC 07/05 Q1017 NOSIG
ZGKL,2025-01-20 21:00,ZGKL 202100Z 00000MPS 7000 NSC 07/05 Q1017 NOSIG
ZGKL,2025-01-20 22:00,ZGKL 202200Z 00000MPS 6000 NSC 06/05 Q1017 NOSIG
ZGKL,2025-01-20 23:00,ZGKL 202300Z VRB01MPS 6000 NSC 07/06 Q1018 NOSIG
ZGKL,2025-01-21 00:00,ZGKL 210000Z 31001MPS 6000 NSC 08/07 Q1018 NOSIG
ZGKL,2025-01-21 01:00,ZGKL 210100Z 00000MPS 8000 FEW050 09/07 Q1019 NOSIG
ZGKL,2025-01-21 02:00,ZGKL 210200Z 00000MPS 8000 FEW050 12/08 Q1019 NOSIG
ZGKL,2025-01-21 03:00,ZGKL 210300Z VRB01MPS 8000 NSC 14/07 Q1019 NOSIG
ZGKL,2025-01-21 04:00,ZGKL 210400Z VRB01MPS 9000 NSC 16/06 Q1018 NOSIG
ZGKL,2025-01-21 05:00,ZGKL 210500Z VRB01MPS 9000 NSC 18/05 Q1017 NOSIG
ZGKL,2025-01-21 06:00,ZGKL 210600Z VRB01MPS 9000 NSC 20/04 Q1015 NOSIG
ZGKL,2025-01-21 07:00,ZGKL 210700Z VRB01MPS 9000 NSC 20/05 Q1014 NOSIG
ZGKL,2025-01-21 08:00,ZGKL 210800Z VRB01MPS 9000 NSC 21/05 Q1014 NOSIG
ZGKL,2025-01-21 09:00,ZGKL 210900Z VRB01MPS 9000 NSC 21/05 Q1013 NOSIG
ZGKL,2025-01-21 10:00,ZGKL 211000Z 20001MPS 9999 FEW066 17/07 Q1014 NOSIG
ZGKL,2025-01-21 11:00,ZGKL 211100Z 29002MPS 9999 FEW066 17/07 Q1014 NOSIG
ZGKL,2025-01-21 12:00,ZGKL 211200Z 00000MPS 9999 FEW066 15/07 Q1015 NOSIG
ZGKL,2025-01-21 13:00,ZGKL 211300Z VRB01MPS 8000 FEW066 15/07 Q1016 NOSIG
ZGKL,2025-01-21 14:00,ZGKL 211400Z 27001MPS 8000 FEW066 14/08 Q1016 NOSIG
ZGKL,2025-01-21 15:00,ZGKL 211500Z 26001MPS 8000 FEW066 13/09 Q1017 NOSIG
ZGKL,2025-01-21 16:00,ZGKL 211600Z 26001MPS 7000 NSC 13/09 Q1017 NOSIG
ZGKL,2025-01-21 17:00,ZGKL 211700Z VRB01MPS 7000 NSC 13/09 Q1017 NOSIG
ZGKL,2025-01-21 18:00,ZGKL 211800Z VRB01MPS 7000 NSC 14/09 Q1017 NOSIG
ZGKL,2025-01-21 19:00,ZGKL 211900Z 35001MPS 8000 NSC 13/09 Q1017 NOSIG
ZGKL,2025-01-21 20:00,ZGKL 212000Z VRB01MPS 8000 NSC 13/09 Q1017 NOSIG
ZGKL,2025-01-21 21:00,ZGKL 212100Z 00000MPS 8000 NSC 13/09 Q1016 NOSIG
ZGKL,2025-01-21 22:00,ZGKL 212200Z 19001MPS 7000 NSC 12/10 Q1017 NOSIG
ZGKL,2025-01-21 23:00,ZGKL 212300Z 00000MPS 7000 NSC 12/09 Q1018 NOSIG
ZGKL,2025-01-22 00:00,ZGKL 220000Z VRB01MPS 6000 FEW053 12/10 Q1018 NOSIG
ZGKL,2025-01-22 01:00,ZGKL 220100Z VRB01MPS 4500 BR SCT046 13/10 Q1018 NOSIG
ZGKL,2025-01-22 02:00,ZGKL 220200Z VRB01MPS 4500 BR SCT053 15/10 Q1019 NOSIG
ZGKL,2025-01-22 03:00,ZGKL 220300Z VRB01MPS 6000 SCT053 17/09 Q1019 NOSIG
ZGKL,2025-01-22 04:00,ZGKL 220400Z VRB01MPS 7000 NSC 20/08 Q1018 NOSIG
ZGKL,2025-01-22 05:00,ZGKL 220500Z VRB01MPS 9000 NSC 21/07 Q1017 NOSIG
ZGKL,2025-01-22 06:00,ZGKL 220600Z VRB01MPS 9000 NSC 23/08 Q1015 NOSIG
ZGKL,2025-01-22 07:00,ZGKL 220700Z 04002MPS 350V120 9000 SCT073 24/08 Q1014 NOSIG
ZGKL,2025-01-22 08:00,ZGKL 220800Z 02003MPS 9000 NSC 23/08 Q1014 NOSIG
ZGKL,2025-01-22 09:00,ZGKL 220900Z 34002MPS 310V010 9000 FEW060 21/08 Q1014 NOSIG
ZGKL,2025-01-22 10:00,ZGKL 221000Z 33002MPS 9000 SCT053 SCT073 20/08 Q1014 NOSIG
ZGKL,2025-01-22 11:00,ZGKL 221100Z 01001MPS 9000 FEW053 19/08 Q1015 NOSIG
ZGKL,2025-01-22 12:00,ZGKL 221200Z VRB01MPS 9000 NSC 18/09 Q1015 NOSIG
ZGKL,2025-01-22 13:00,ZGKL 221300Z 32001MPS 8000 SCT060 18/09 Q1016 NOSIG
ZGKL,2025-01-22 14:00,ZGKL 221400Z 36001MPS 8000 SCT066 17/09 Q1017 NOSIG
ZGKL,2025-01-22 15:00,ZGKL 221500Z 03003MPS 8000 SCT066 17/10 Q1017 NOSIG
ZGKL,2025-01-22 16:00,ZGKL 221600Z 34001MPS 8000 SCT066 16/10 Q1018 NOSIG
ZGKL,2025-01-22 17:00,ZGKL 221700Z VRB01MPS 9000 OVC073 16/10 Q1018 NOSIG
ZGKL,2025-01-22 18:00,ZGKL 221800Z VRB01MPS 9000 OVC070 16/11 Q1018 NOSIG
ZGKL,2025-01-22 19:00,ZGKL 221900Z 30001MPS 9000 OVC070 16/10 Q1017 NOSIG
ZGKL,2025-01-22 20:00,ZGKL 222000Z VRB01MPS 9000 OVC070 15/11 Q1017 NOSIG
ZGKL,2025-01-22 21:00,ZGKL 222100Z VRB01MPS 9000 OVC060 15/11 Q1017 NOSIG
ZGKL,2025-01-22 22:00,ZGKL 222200Z 00000MPS 9000 OVC060 14/11 Q1017 NOSIG
ZGKL,2025-01-22 23:00,ZGKL 222300Z 00000MPS 8000 SCT053 14/11 Q1017 NOSIG
ZGKL,2025-01-23 00:00,ZGKL 230000Z VRB01MPS 6000 SCT053 OVC066 14/11 Q1017 NOSIG
ZGKL,2025-01-23 01:00,ZGKL 230100Z VRB01MPS 8000 BKN050 OVC063 15/11 Q1018 NOSIG
ZGKL,2025-01-23 02:00,ZGKL 230200Z VRB01MPS 5000 PRFG BR FEW030 BKN046 OVC060 15/12 Q1019 NOSIG
ZGKL,2025-01-23 03:00,ZGKL 230300Z 01002MPS 350V050 4000 BR BKN043 OVC056 17/12 Q1018 NOSIG
ZGKL,2025-01-23 04:00,ZGKL 230400Z 34002MPS 4000 HZ BKN040 OVC053 17/11 Q1018 NOSIG
ZGKL,2025-01-23 05:00,ZGKL 230500Z 01002MPS 340V050 6000 BKN033 OVC050 18/12 Q1016 NOSIG
ZGKL,2025-01-23 06:00,ZGKL 230600Z VRB01MPS 8000 BKN036 OVC050 19/11 Q1015 NOSIG
ZGKL,2025-01-23 07:00,ZGKL 230700Z 10002MPS 020V140 8000 SCT036 BKN053 19/11 Q1014 NOSIG
ZGKL,2025-01-23 08:00,ZGKL 230800Z 07002MPS 030V160 8000 SCT040 BKN060 20/10 Q1013 NOSIG
ZGKL,2025-01-23 09:00,ZGKL 230900Z 06002MPS 020V100 8000 SCT040 BKN066 19/10 Q1013 NOSIG
ZGKL,2025-01-23 10:00,ZGKL 231000Z 02003MPS 8000 SCT036 BKN060 18/10 Q1013 NOSIG
ZGKL,2025-01-23 11:00,ZGKL 231100Z 03003MPS 8000 SCT046 18/10 Q1013 NOSIG
ZGKL,2025-01-23 12:00,ZGKL 231200Z 04003MPS 8000 SCT040 OVC050 18/10 Q1013 NOSIG
ZGKL,2025-01-23 13:00,ZGKL 231300Z 35001MPS 8000 SCT036 OVC046 17/11 Q1014 NOSIG
ZGKL,2025-01-23 14:00,ZGKL 231400Z 35001MPS 7000 SCT033 OVC043 15/13 Q1015 NOSIG
ZGKL,2025-01-23 15:00,ZGKL 231500Z 35002MPS 6000 SCT033 OVC043 15/13 Q1015 NOSIG
ZGKL,2025-01-23 16:00,ZGKL 231600Z VRB01MPS 6000 SCT033 OVC046 15/14 Q1015 NOSIG
ZGKL,2025-01-23 17:00,ZGKL 231700Z 32002MPS 5000 BR BKN033 OVC046 14/14 Q1014 NOSIG
ZGKL,2025-01-23 18:00,ZGKL 231800Z VRB01MPS 5000 BR SCT030 OVC043 14/14 Q1014 NOSIG
ZGKL,2025-01-23 19:00,ZGKL 231900Z VRB01MPS 5000 BR SCT030 OVC043 14/14 Q1014 NOSIG
ZGKL,2025-01-23 20:00,ZGKL 232000Z VRB01MPS 5000 BR SCT030 OVC040 14/14 Q1013 NOSIG
ZGKL,2025-01-23 21:00,ZGKL 232100Z VRB01MPS 6000 SCT030 OVC043 14/14 Q1013 NOSIG
ZGKL,2025-01-23 22:00,ZGKL 232200Z VRB01MPS 5000 BR SCT026 OVC040 14/14 Q1013 NOSIG
ZGKL,2025-01-23 23:00,ZGKL 232300Z VRB01MPS 5000 BR SCT026 OVC040 14/13 Q1013 NOSIG
ZGKL,2025-01-24 00:00,ZGKL 240000Z VRB01MPS 4000 BR FEW026 SCT036 OVC050 15/12 Q1014 NOSIG
ZGKL,2025-01-24 01:00,ZGKL 240100Z 01002MPS 3500 BR FEW026 SCT036 OVC053 15/12 Q1014 NOSIG
ZGKL,2025-01-24 02:00,ZGKL 240200Z 02002MPS 350V050 3600 BR FEW026 SCT033 OVC050 16/12 Q1015 NOSIG
ZGKL,2025-01-24 03:00,ZGKL 240300Z VRB01MPS 3300 -RA BR FEW023 SCT033 OVC046 16/13 Q1015 BECMG FM0430 2800
ZGKL,2025-01-24 04:00,ZGKL 240400Z VRB01MPS 3400 -RA BR FEW020 SCT030 OVC046 16/13 Q1014 BECMG FM0500 2800
ZGKL,2025-01-24 05:00,ZGKL 240500Z VRB01MPS 3400 -RA BR BKN030 OVC046 17/14 Q1013 NOSIG
ZGKL,2025-01-24 06:00,ZGKL 240600Z 34002MPS 290V010 2900 BR SCT026 OVC046 17/14 Q1012 BECMG FM0700 3200
ZGKL,2025-01-24 07:00,ZGKL 240700Z VRB01MPS 4000 BR SCT026 OVC046 18/14 Q1011 NOSIG
ZGKL,2025-01-24 08:00,ZGKL 240800Z VRB01MPS 4000 BR SCT026 OVC046 19/13 Q1010 NOSIG
ZGKL,2025-01-24 09:00,ZGKL 240900Z 03003MPS 4500 BR SCT033 BKN073 18/14 Q1010 NOSIG
ZGKL,2025-01-24 10:00,ZGKL 241000Z 06002MPS 4000 -RA BR FEW033 BKN060 17/13 Q1011 BECMG FM1100 2800
ZGKL,2025-01-24 11:00,ZGKL 241100Z VRB01MPS 4500 BR SCT033 BKN053 17/13 Q1011 NOSIG
ZGKL,2025-01-24 12:00,ZGKL 241200Z VRB01MPS 4200 BR SCT033 BKN053 17/13 Q1012 NOSIG
ZGKL,2025-01-24 13:00,ZGKL 241300Z VRB01MPS 3800 BR SCT026 BKN046 16/12 Q1013 BECMG FM1430 2800
ZGKL,2025-01-24 14:00,ZGKL 241400Z 02002MPS 360V060 3400 BR SCT030 OVC046 16/11 Q1013 BECMG FM1530 2800
ZGKL,2025-01-24 15:00,ZGKL 241500Z 02002MPS 2900 BR SCT030 BKN046 16/11 Q1014 NOSIG
ZGKL,2025-01-24 16:00,ZGKL 241600Z 02002MPS 2800 -RA BR SCT026 OVC043 15/11 Q1014 NOSIG
ZGKL,2025-01-24 17:00,ZGKL 241700Z 04002MPS 010V070 3500 BR SCT026 OVC043 15/11 Q1014 NOSIG
ZGKL,2025-01-24 18:00,ZGKL 241800Z 03003MPS 3500 BR SCT026 OVC043 15/11 Q1015 NOSIG
ZGKL,2025-01-24 19:00,ZGKL 241900Z 02003MPS 350V050 3500 BR SCT026 OVC043 15/11 Q1015 NOSIG
ZGKL,2025-01-24 20:00,ZGKL 242000Z 04003MPS 3500 BR SCT026 OVC043 14/10 Q1015 NOSIG
ZGKL,2025-01-24 21:00,ZGKL 242100Z 04003MPS 3500 BR SCT026 OVC043 14/10 Q1015 NOSIG
ZGKL,2025-01-24 22:00,ZGKL 242200Z 03003MPS 2800 -RA BR SCT026 OVC043 13/10 Q1015 BECMG TL2300 3500
ZGKL,2025-01-24 23:00,ZGKL 242300Z 02002MPS 350V050 3000 -RA BR SCT023 OVC043 13/10 Q1016 BECMG FM0030 2800
ZGKL,2025-01-25 00:00,ZGKL 250000Z 04002MPS 360V070 2100 BR SCT023 OVC046 13/10 Q1016 NOSIG
ZGKL,2025-01-25 01:00,ZGKL 250100Z 04003MPS 010V080 2000 -DZ BR SCT023 OVC040 13/10 Q1018 BECMG FM0130 3200
ZGKL,2025-01-25 02:00,ZGKL 250200Z 03003MPS 2000 -RA BR SCT023 OVC040 12/10 Q1018 NOSIG
ZGKL,2025-01-25 03:00,ZGKL 250300Z 05003MPS 1400 R01/P2000 -SHRA BR FEW010 SCT023 OVC040 11/10 Q1019 BECMG FM0400 2800
ZGKL,2025-01-25 04:00,ZGKL 250400Z 06002MPS 010V090 4000 -RA BR FEW010 SCT023 OVC043 11/10 Q1018 NOSIG
ZGKL,2025-01-25 05:00,ZGKL 250500Z 06003MPS 4000 -RA BR FEW006 SCT020 OVC040 11/10 Q1017 NOSIG
ZGKL,2025-01-25 06:00,ZGKL 250600Z 05002MPS 360V080 3500 -RA BR FEW006 SCT023 OVC043 11/10 Q1017 NOSIG
ZGKL,2025-01-25 07:00,ZGKL 250700Z 07002MPS 030V110 2500 SHRA BR FEW005 SCT020 FEW033CB BKN040 11/10 Q1016 BECMG FM0710 -RA FEW006 SCT020 OVC033
ZGKL,2025-01-25 08:00,ZGKL 250800Z 06003MPS 4000 -RA BR FEW006 SCT023 OVC043 10/10 Q1017 RESHRA NOSIG
ZGKL,2025-01-25 09:00,ZGKL 250900Z 05003MPS 020V080 5000 -DZ BR FEW013 SCT026 OVC043 10/10 Q1018 NOSIG
ZGKL,2025-01-25 10:00,ZGKL 251000Z 05003MPS 3500 -SHRA BR FEW013 SCT023 OVC040 10/10 Q1019 NOSIG
ZGKL,2025-01-25 11:00,ZGKL 251100Z 07003MPS 020V090 5000 -SHRA BR FEW006 SCT023 OVC040 10/09 Q1020 NOSIG
ZGKL,2025-01-25 12:00,ZGKL 251200Z 03003MPS 7000 -RA FEW006 SCT023 OVC043 09/09 Q1022 NOSIG
ZGKL,2025-01-25 13:00,ZGKL 251300Z 36003MPS 330V030 8000 -RA FEW010 SCT023 OVC043 09/08 Q1023 NOSIG
ZGKL,2025-01-25 14:00,ZGKL 251400Z 01002MPS 340V040 8000 -SHRA FEW005 SCT023 OVC043 09/08 Q1024 NOSIG
ZGKL,2025-01-25 15:00,ZGKL 251500Z 04003MPS 9999 FEW010 SCT026 OVC050 09/08 Q1025 NOSIG
ZGKL,2025-01-25 16:00,ZGKL 251600Z 06003MPS 9999 SCT026 OVC056 08/07 Q1026 NOSIG
ZGKL,2025-01-25 17:00,ZGKL 251700Z 05005MPS 9999 SCT026 OVC060 08/06 Q1026 NOSIG
ZGKL,2025-01-25 18:00,ZGKL 251800Z 06005MPS 9999 SCT030 OVC060 08/06 Q1027 NOSIG
ZGKL,2025-01-25 19:00,ZGKL 251900Z 03004MPS 9999 SCT030 OVC060 07/05 Q1027 NOSIG
ZGKL,2025-01-25 20:00,ZGKL 252000Z 05004MPS 9999 SCT030 OVC060 07/04 Q1028 NOSIG
ZGKL,2025-01-25 21:00,ZGKL 252100Z 04004MPS 010V070 9999 SCT036 OVC066 07/03 Q1029 NOSIG
ZGKL,2025-01-25 22:00,ZGKL 252200Z 03005MPS 9999 SCT036 BKN053 OVC066 07/03 Q1029 NOSIG
ZGKL,2025-01-25 23:00,ZGKL 252300Z 05005MPS 9999 FEW033 SCT053 07/03 Q1030 NOSIG
ZGKL,2025-01-26 00:00,ZGKL 260000Z 05004MPS 9999 FEW023 SCT040 BKN066 07/02 Q1031 NOSIG
ZGKL,2025-01-26 01:00,ZGKL 260100Z 03003MPS 9999 FEW023 SCT040 OVC060 08/02 Q1032 NOSIG
ZGKL,2025-01-26 02:00,ZGKL 260200Z 05004MPS 030V090 9999 SCT040 OVC060 08/02 Q1033 NOSIG
ZGKL,2025-01-26 03:00,ZGKL 260300Z 05006MPS 9999 SCT036 OVC060 08/02 Q1033 NOSIG
ZGKL,2025-01-26 04:00,ZGKL 260400Z 06007MPS 9999 -RA SCT033 OVC060 08/02 Q1033 NOSIG
ZGKL,2025-01-26 05:00,ZGKL 260500Z 06006MPS 030V090 9999 SCT040 BKN060 09/03 Q1031 NOSIG
ZGKL,2025-01-26 06:00,ZGKL 260600Z 06006MPS 9999 SCT040 OVC060 09/02 Q1030 NOSIG
ZGKL,2025-01-26 07:00,ZGKL 260700Z 07006MPS 9999 SCT040 BKN060 09/01 Q1029 NOSIG
ZGKL,2025-01-26 08:00,ZGKL 260800Z 06004MPS 030V110 9999 FEW040 SCT060 09/01 Q1029 NOSIG
ZGKL,2025-01-26 09:00,ZGKL 260900Z 05004MPS 020V080 9999 FEW043 SCT066 09/01 Q1029 NOSIG
ZGKL,2025-01-26 10:00,ZGKL 261000Z 03003MPS 360V060 9999 FEW043 SCT060 09/01 Q1030 NOSIG
ZGKL,2025-01-26 11:00,ZGKL 261100Z 03002MPS 9999 SCT043 SCT060 08/01 Q1030 NOSIG
ZGKL,2025-01-26 12:00,ZGKL 261200Z 36002MPS 330V040 9999 SCT040 SCT060 07/01 Q1031 NOSIG
ZGKL,2025-01-26 13:00,ZGKL 261300Z 04002MPS 360V090 9999 FEW066 07/01 Q1030 NOSIG
ZGKL,2025-01-26 14:00,ZGKL 261400Z 01002MPS 340V040 9999 FEW060 07/01 Q1031 NOSIG
ZGKL,2025-01-26 15:00,ZGKL 261500Z 32002MPS 9999 FEW070 06/02 Q1030 NOSIG
ZGKL,2025-01-26 16:00,ZGKL 261600Z VRB01MPS CAVOK 03/02 Q1030 NOSIG
ZGKL,2025-01-26 17:00,ZGKL 261700Z VRB01MPS CAVOK 03/02 Q1030 NOSIG
ZGKL,2025-01-26 18:00,ZGKL 261800Z VRB01MPS CAVOK 02/02 Q1029 NOSIG
ZGKL,2025-01-26 19:00,ZGKL 261900Z VRB01MPS 8000 PRFG NSC 02/02 Q1028 NOSIG
ZGKL,2025-01-26 20:00,ZGKL 262000Z VRB01MPS 8000 PRFG NSC 01/01 Q1028 NOSIG
ZGKL,2025-01-26 21:00,ZGKL 262100Z 01002MPS 330V030 7000 PRFG NSC 00/00 Q1027 NOSIG
ZGKL,2025-01-26 22:00,ZGKL 262200Z 35001MPS 7000 PRFG NSC M00/M01 Q1027 NOSIG
ZGKL,2025-01-26 23:00,ZGKL 262300Z 33001MPS 9999 BCFG NSC M00/M01 Q1027 NOSIG
ZGKL,2025-01-27 00:00,ZGKL 270000Z 28002MPS 270V330 CAVOK M00/M00 Q1028 NOSIG
ZGKL,2025-01-27 01:00,ZGKL 270100Z 01002MPS 340V040 CAVOK 03/01 Q1028 NOSIG
ZGKL,2025-01-27 02:00,ZGKL 270200Z VRB01MPS CAVOK 06/M01 Q1029 NOSIG
ZGKL,2025-01-27 03:00,ZGKL 270300Z VRB02MPS CAVOK 09/00 Q1029 NOSIG
ZGKL,2025-01-27 04:00,ZGKL 270400Z VRB02MPS CAVOK 12/M05 Q1028 NOSIG
ZGKL,2025-01-27 05:00,ZGKL 270500Z 01004MPS 340V040 CAVOK 14/M09 Q1026 NOSIG
ZGKL,2025-01-27 06:00,ZGKL 270600Z 06004MPS CAVOK 15/M11 Q1024 NOSIG
ZGKL,2025-01-27 07:00,ZGKL 270700Z 01002MPS 290V040 CAVOK 16/M10 Q1023 NOSIG
ZGKL,2025-01-27 08:00,ZGKL 270800Z 02002MPS 310V060 CAVOK 15/M11 Q1022 NOSIG
ZGKL,2025-01-27 09:00,ZGKL 270900Z 06004MPS CAVOK 15/M08 Q1022 NOSIG
ZGKL,2025-01-27 10:00,ZGKL 271000Z 08002MPS 040V110 CAVOK 13/M07 Q1023 NOSIG
ZGKL,2025-01-27 11:00,ZGKL 271100Z 06003MPS 9999 FEW050 12/M08 Q1023 NOSIG
ZGKL,2025-01-27 12:00,ZGKL 271200Z 03004MPS 9999 FEW050 11/M07 Q1024 NOSIG
ZGKL,2025-01-27 13:00,ZGKL 271300Z 04005MPS 9999 FEW050 11/M06 Q1025 NOSIG
ZGKL,2025-01-27 14:00,ZGKL 271400Z 02003MPS 9999 FEW050 11/M04 Q1026 NOSIG
ZGKL,2025-01-27 15:00,ZGKL 271500Z 32002MPS 9999 FEW050 10/M04 Q1027 NOSIG
ZGKL,2025-01-27 16:00,ZGKL 271600Z VRB01MPS CAVOK 09/M02 Q1028 NOSIG
ZGKL,2025-01-27 17:00,ZGKL 271700Z VRB01MPS CAVOK 08/02 Q1027 NOSIG
ZGKL,2025-01-27 18:00,ZGKL 271800Z 30001MPS CAVOK 08/01 Q1027 NOSIG
ZGKL,2025-01-27 19:00,ZGKL 271900Z VRB01MPS CAVOK 07/02 Q1027 NOSIG
ZGKL,2025-01-27 20:00,ZGKL 272000Z VRB01MPS CAVOK 07/03 Q1026 NOSIG
ZGKL,2025-01-27 21:00,ZGKL 272100Z 00000MPS CAVOK 07/03 Q1026 NOSIG
ZGKL,2025-01-27 22:00,ZGKL 272200Z VRB01MPS CAVOK 07/03 Q1026 NOSIG
ZGKL,2025-01-27 23:00,ZGKL 272300Z VRB01MPS CAVOK 06/03 Q1027 NOSIG
ZGKL,2025-01-28 00:00,ZGKL 280000Z VRB01MPS CAVOK 07/03 Q1028 NOSIG
ZGKL,2025-01-28 01:00,ZGKL 280100Z VRB01MPS 9999 FEW073 08/03 Q1028 NOSIG
ZGKL,2025-01-28 02:00,ZGKL 280200Z VRB01MPS CAVOK 12/M00 Q1029 NOSIG
ZGKL,2025-01-28 03:00,ZGKL 280300Z 04002MPS 360V090 CAVOK 13/M03 Q1029 NOSIG
ZGKL,2025-01-28 04:00,ZGKL 280400Z VRB02MPS CAVOK 16/M03 Q1028 NOSIG
ZGKL,2025-01-28 05:00,ZGKL 280500Z 05002MPS 350V120 CAVOK 17/M05 Q1026 NOSIG
ZGKL,2025-01-28 06:00,ZGKL 280600Z 08003MPS 050V130 CAVOK 17/M04 Q1025 NOSIG
ZGKL,2025-01-28 07:00,ZGKL 280700Z VRB01MPS CAVOK 18/M05 Q1024 NOSIG
ZGKL,2025-01-28 08:00,ZGKL 280800Z 04002MPS 330V080 CAVOK 19/M06 Q1024 NOSIG
ZGKL,2025-01-28 09:00,ZGKL 280900Z 06002MPS 020V100 CAVOK 18/M08 Q1024 NOSIG
ZGKL,2025-01-28 10:00,ZGKL 281000Z 05003MPS 9999 FEW066 16/M07 Q1024 NOSIG
ZGKL,2025-01-28 11:00,ZGKL 281100Z 36001MPS 9999 FEW066 13/M03 Q1024 NOSIG
ZGKL,2025-01-28 12:00,ZGKL 281200Z VRB01MPS 9999 FEW066 10/M02 Q1025 NOSIG
ZGKL,2025-01-28 13:00,ZGKL 281300Z 34002MPS 290V020 CAVOK 11/M03 Q1026 NOSIG
ZGKL,2025-01-28 14:00,ZGKL 281400Z VRB01MPS CAVOK 11/M01 Q1026 NOSIG
ZGKL,2025-01-28 15:00,ZGKL 281500Z 33001MPS CAVOK 10/00 Q1027 NOSIG
ZGKL,2025-01-28 16:00,ZGKL 281600Z VRB01MPS CAVOK 10/01 Q1027 NOSIG
ZGKL,2025-01-28 17:00,ZGKL 281700Z VRB01MPS 8000 NSC 09/03 Q1027 NOSIG
ZGKL,2025-01-28 18:00,ZGKL 281800Z 00000MPS 7000 NSC 09/02 Q1027 NOSIG
ZGKL,2025-01-28 19:00,ZGKL 281900Z VRB01MPS 7000 NSC 09/03 Q1027 NOSIG
ZGKL,2025-01-28 20:00,ZGKL 282000Z 36001MPS 6000 NSC 09/03 Q1026 NOSIG
ZGKL,2025-01-28 21:00,ZGKL 282100Z VRB01MPS 6000 NSC 08/04 Q1026 NOSIG
ZGKL,2025-01-28 22:00,ZGKL 282200Z 02003MPS 6000 NSC 08/05 Q1026 NOSIG
ZGKL,2025-01-28 23:00,ZGKL 282300Z 03003MPS 010V070 6000 FEW066 09/04 Q1026 NOSIG
ZGKL,2025-01-29 00:00,ZGKL 290000Z VRB01MPS 6000 FEW066 09/03 Q1026 NOSIG
ZGKL,2025-01-29 01:00,ZGKL 290100Z 00000MPS 8000 SCT060 10/03 Q1027 NOSIG
ZGKL,2025-01-29 02:00,ZGKL 290200Z 00000MPS 9999 FEW060 12/01 Q1028 NOSIG
ZGKL,2025-01-29 03:00,ZGKL 290300Z VRB01MPS 9999 FEW060 15/01 Q1027 NOSIG
ZGKL,2025-01-29 04:00,ZGKL 290400Z 02002MPS 330V060 CAVOK 16/01 Q1026 NOSIG
ZGKL,2025-01-29 05:00,ZGKL 290500Z 03002MPS 320V090 9999 FEW046 BKN066 16/M00 Q1025 NOSIG
ZGKL,2025-01-29 06:00,ZGKL 290600Z 08002MPS 030V130 9999 SCT053 17/M01 Q1023 NOSIG
ZGKL,2025-01-29 07:00,ZGKL 290700Z VRB01MPS 9999 SCT066 17/M01 Q1021 NOSIG
ZGKL,2025-01-29 08:00,ZGKL 290800Z VRB01MPS 9999 FEW066 17/M01 Q1020 NOSIG
ZGKL,2025-01-29 09:00,ZGKL 290900Z 09002MPS 060V130 CAVOK 18/M01 Q1019 NOSIG
ZGKL,2025-01-29 10:00,ZGKL 291000Z VRB01MPS CAVOK 16/M00 Q1019 NOSIG
ZGKL,2025-01-29 11:00,ZGKL 291100Z VRB01MPS 9999 FEW073 14/01 Q1019 NOSIG
ZGKL,2025-01-29 12:00,ZGKL 291200Z VRB01MPS CAVOK 12/03 Q1019 NOSIG
ZGKL,2025-01-29 13:00,ZGKL 291300Z 31002MPS 280V340 CAVOK 12/03 Q1020 NOSIG
ZGKL,2025-01-29 14:00,ZGKL 291400Z 35001MPS CAVOK 11/03 Q1020 NOSIG
ZGKL,2025-01-29 15:00,ZGKL 291500Z VRB01MPS CAVOK 11/03 Q1021 NOSIG
ZGKL,2025-01-29 16:00,ZGKL 291600Z VRB01MPS 9999 SCT070 10/04 Q1021 NOSIG
ZGKL,2025-01-29 17:00,ZGKL 291700Z 00000MPS 9999 SCT066 10/05 Q1021 NOSIG
ZGKL,2025-01-29 18:00,ZGKL 291800Z VRB01MPS 9999 SCT073 10/05 Q1021 NOSIG
ZGKL,2025-01-29 19:00,ZGKL 291900Z VRB01MPS 9999 SCT073 10/06 Q1020 NOSIG
ZGKL,2025-01-29 20:00,ZGKL 292000Z 04001MPS 9999 SCT066 10/05 Q1019 NOSIG
ZGKL,2025-01-29 21:00,ZGKL 292100Z VRB01MPS 9999 SCT066 10/06 Q1019 NOSIG
ZGKL,2025-01-29 22:00,ZGKL 292200Z 36001MPS 9999 SCT066 10/06 Q1019 NOSIG
ZGKL,2025-01-29 23:00,ZGKL 292300Z VRB01MPS 9999 SCT043 OVC066 10/06 Q1019 NOSIG
ZGKL,2025-01-30 00:00,ZGKL 300000Z VRB01MPS 9999 SCT040 BKN066 10/06 Q1019 NOSIG
ZGKL,2025-01-30 01:00,ZGKL 300100Z VRB01MPS 9999 SCT046 OVC066 11/06 Q1020 NOSIG
ZGKL,2025-01-30 02:00,ZGKL 300200Z 00000MPS 9999 SCT046 OVC060 11/06 Q1020 NOSIG
ZGKL,2025-01-30 03:00,ZGKL 300300Z 34001MPS 9999 SCT046 OVC060 12/06 Q1020 NOSIG
ZGKL,2025-01-30 04:00,ZGKL 300400Z VRB01MPS 9000 SCT040 OVC053 13/05 Q1019 NOSIG
ZGKL,2025-01-30 05:00,ZGKL 300500Z 01002MPS 340V040 9000 SCT040 OVC060 14/06 Q1018 NOSIG
ZGKL,2025-01-30 06:00,ZGKL 300600Z 00000MPS 9999 -RA SCT040 OVC060 13/05 Q1017 NOSIG
ZGKL,2025-01-30 07:00,ZGKL 300700Z VRB01MPS 9999 SCT040 OVC060 13/08 Q1016 NOSIG
ZGKL,2025-01-30 08:00,ZGKL 300800Z VRB01MPS 9999 SCT040 OVC060 13/07 Q1015 NOSIG
ZGKL,2025-01-30 09:00,ZGKL 300900Z 35002MPS 9999 -RA SCT040 OVC053 12/08 Q1015 NOSIG
ZGKL,2025-01-30 10:00,ZGKL 301000Z 36003MPS 9999 -RA SCT040 OVC053 11/10 Q1015 NOSIG
ZGKL,2025-01-30 11:00,ZGKL 301100Z 34002MPS 5000 -SHRA BR SCT033 OVC046 11/10 Q1015 BECMG FM1230 2500
ZGKL,2025-01-30 12:00,ZGKL 301200Z 01003MPS 6000 SCT033 OVC046 11/10 Q1015 NOSIG
ZGKL,2025-01-30 13:00,ZGKL 301300Z 36002MPS 6000 -RA SCT030 OVC043 10/10 Q1016 NOSIG
ZGKL,2025-01-30 14:00,ZGKL 301400Z 01002MPS 8000 SCT030 OVC043 10/09 Q1016 NOSIG
ZGKL,2025-01-30 15:00,ZGKL 301500Z VRB01MPS 6000 -RA SCT030 OVC043 10/09 Q1017 NOSIG
ZGKL,2025-01-30 16:00,ZGKL 301600Z 33002MPS 4500 -RA BR SCT026 OVC043 10/10 Q1016 NOSIG
ZGKL,2025-01-30 17:00,ZGKL 301700Z VRB01MPS 4500 -RA BR SCT026 OVC043 10/10 Q1016 NOSIG
ZGKL,2025-01-30 18:00,ZGKL 301800Z VRB01MPS 4500 -RA BR SCT026 OVC043 10/10 Q1016 NOSIG
ZGKL,2025-01-30 19:00,ZGKL 301900Z 00000MPS 4500 -RA BR SCT026 OVC043 10/10 Q1015 NOSIG
ZGKL,2025-01-30 20:00,ZGKL 302000Z 00000MPS 4500 -RA BR SCT026 OVC043 10/10 Q1015 NOSIG
ZGKL,2025-01-30 21:00,ZGKL 302100Z VRB01MPS 4500 -RA BR SCT026 OVC043 10/10 Q1014 NOSIG
ZGKL,2025-01-30 22:00,ZGKL 302200Z VRB01MPS 3000 -RA BR FEW004 SCT026 OVC043 10/10 Q1014 BECMG FM2300 2500 SHRA FEW030CB
ZGKL,2025-01-30 23:00,ZGKL 302300Z VRB01MPS 2800 -SHRA BR FEW006 BKN023 OVC036 10/10 Q1015 NOSIG
ZGKL,2025-01-31 00:00,ZGKL 310000Z VRB01MPS 2000 -RA BR FEW013 BKN023 OVC036 10/10 Q1015 NOSIG
ZGKL,2025-01-31 01:00,ZGKL 310100Z VRB01MPS 1600 -SHRA BR FEW010 BKN023 FEW036CB BKN036 10/10 Q1016 BECMG FM0200 1400 SHRA
ZGKL,2025-01-31 02:00,ZGKL 310200Z VRB01MPS 2200 -SHRA BR FEW010 SCT023 FEW036CB BKN036 11/11 Q1016 RESHRA BECMG TL0230 3000 FEW010 BKN026 OVC036
ZGKL,2025-01-31 03:00,ZGKL 310300Z VRB01MPS 2900 -SHRA BR FEW010 SCT023 FEW036CB BKN036 11/11 Q1016 BECMG TL0400 3200 FEW010 SCT023 OVC036
ZGKL,2025-01-31 04:00,ZGKL 310400Z 00000MPS 3500 -SHRA BR FEW009 SCT023 OVC036 11/11 Q1016 NOSIG
ZGKL,2025-01-31 05:00,ZGKL 310500Z VRB01MPS 4000 -RA BR SCT023 OVC036 11/11 Q1015 BECMG AT0600 FEW010 SCT026 FEW033CB BKN033
ZGKL,2025-01-31 06:00,ZGKL 310600Z VRB01MPS 4000 -SHRA BR FEW010 SCT023 OVC036 12/12 Q1014 BECMG AT0700 FEW010 SCT026 FEW033CB BKN033
ZGKL,2025-01-31 07:00,ZGKL 310700Z VRB01MPS 3400 -SHRA BR FEW010 FEW026CB SCT026 BKN036 12/12 Q1013 BECMG AT0800 FEW010 SCT026 OVC033
ZGKL,2025-01-31 08:00,ZGKL 310800Z 00000MPS 3200 -SHRA BR FEW010 FEW026CB SCT026 BKN036 12/12 Q1012 BECMG AT0900 FEW010 SCT026 OVC033
ZGKL,2025-01-31 09:00,ZGKL 310900Z VRB01MPS 4000 -RA BR FEW010 SCT026 OVC036 12/12 Q1012 NOSIG
ZGKL,2025-01-31 10:00,ZGKL 311000Z 00000MPS 4000 -RA BR FEW010 SCT026 OVC036 12/12 Q1013 NOSIG
ZGKL,2025-01-31 11:00,ZGKL 311100Z VRB01MPS 3000 -SHRA BR FEW004 SCT023 OVC033 12/12 Q1013 BECMG TL1230 2800
ZGKL,2025-01-31 12:00,ZGKL 311200Z VRB01MPS 3000 -SHRA BR FEW004 SCT023 OVC033 12/12 Q1013 BECMG TL1300 2800
ZGKL,2025-01-31 13:00,ZGKL 311300Z VRB01MPS 2300 -SHRA BR FEW004 SCT011 OVC033 12/12 Q1014 NOSIG
ZGKL,2025-01-31 14:00,ZGKL 311400Z VRB01MPS 2300 -SHRA BR FEW003 SCT012 OVC026 12/12 Q1015 BECMG TL1530 3000
ZGKL,2025-01-31 15:00,ZGKL 311500Z VRB01MPS 2900 -SHRA BR FEW004 SCT013 OVC026 12/12 Q1015 BECMG TL1600 3000
ZGKL,2025-01-31 16:00,ZGKL 311600Z 05003MPS 4000 -SHRA BR FEW004 SCT013 FEW026CB BKN026 12/12 Q1015 RESHRA BECMG AT1630 FEW006 SCT026 OVC033
ZGKL,2025-01-31 17:00,ZGKL 311700Z 06002MPS 020V080 5000 -RA BR FEW004 SCT010 OVC026 12/12 Q1015 NOSIG
ZGKL,2025-01-31 18:00,ZGKL 311800Z 05002MPS 5000 -RA BR FEW004 SCT010 OVC026 12/12 Q1015 NOSIG
ZGKL,2025-01-31 19:00,ZGKL 311900Z 08002MPS 030V110 4000 -SHRA BR FEW010 OVC026 11/11 Q1015 NOSIG
ZGKL,2025-01-31 20:00,ZGKL 312000Z VRB01MPS 5000 -RA BR FEW010 OVC026 11/11 Q1015 NOSIG
ZGKL,2025-01-31 21:00,ZGKL 312100Z VRB01MPS 5000 -RA BR SCT010 OVC026 11/11 Q1015 NOSIG
ZGKL,2025-01-31 22:00,ZGKL 312200Z 06002MPS 020V100 5000 -RA BR SCT010 OVC026 11/11 Q1015 NOSIG
ZGKL,2025-01-31 23:00,ZGKL 312300Z VRB01MPS 9999 -RA SCT026 OVC043 11/11 Q1016 NOSIG
ZGKL,2025-02-01 00:00,ZGKL 010000Z VRB01MPS 9999 -RA BKN026 OVC043 11/10 Q1016 NOSIG
ZGKL,2025-02-01 01:00,ZGKL 010100Z VRB01MPS 9999 -RA FEW010 BKN023 OVC040 11/11 Q1017 NOSIG
ZGKL,2025-02-01 02:00,ZGKL 010200Z VRB01MPS 9999 -RA FEW010 BKN023 OVC040 11/11 Q1018 NOSIG
ZGKL,2025-02-01 03:00,ZGKL 010300Z 07002MPS 040V100 9999 -RA FEW010 BKN023 OVC040 11/11 Q1018 NOSIG
ZGKL,2025-02-01 04:00,ZGKL 010400Z 09002MPS 040V130 9999 -RA FEW010 BKN023 OVC040 11/10 Q1017 NOSIG
ZGKL,2025-02-01 05:00,ZGKL 010500Z 10002MPS 030V130 8000 -RA FEW010 SCT026 OVC040 10/10 Q1016 NOSIG
ZGKL,2025-02-01 06:00,ZGKL 010600Z VRB01MPS 8000 -RA FEW006 SCT026 OVC040 11/10 Q1015 NOSIG
ZGKL,2025-02-01 07:00,ZGKL 010700Z 08002MPS 040V120 8000 -RA FEW006 SCT023 OVC040 11/10 Q1014 NOSIG
ZGKL,2025-02-01 08:00,ZGKL 010800Z VRB01MPS 8000 -DZ FEW006 SCT023 OVC040 10/10 Q1014 NOSIG
ZGKL,2025-02-01 09:00,ZGKL 010900Z VRB01MPS 8000 -DZ FEW013 SCT026 OVC043 10/09 Q1014 NOSIG
ZGKL,2025-02-01 10:00,ZGKL 011000Z 06003MPS 8000 -RA FEW006 SCT023 OVC040 10/08 Q1015 NOSIG
ZGKL,2025-02-01 11:00,ZGKL 011100Z 04002MPS 010V070 8000 -RA FEW006 SCT023 OVC040 09/09 Q1015 NOSIG
ZGKL,2025-02-01 12:00,ZGKL 011200Z 04002MPS 010V070 8000 -RA FEW006 SCT023 OVC040 09/08 Q1016 NOSIG
ZGKL,2025-02-01 13:00,ZGKL 011300Z 02002MPS 9999 FEW006 SCT030 OVC050 09/08 Q1017 NOSIG
ZGKL,2025-02-01 14:00,ZGKL 011400Z VRB01MPS 9999 FEW006 SCT030 OVC050 09/08 Q1017 NOSIG
ZGKL,2025-02-01 15:00,ZGKL 011500Z VRB01MPS 9999 FEW006 SCT030 OVC050 09/07 Q1018 NOSIG
ZGKL,2025-02-01 16:00,ZGKL 011600Z VRB01MPS 9999 FEW009 SCT030 OVC053 09/07 Q1018 NOSIG
ZGKL,2025-02-01 17:00,ZGKL 011700Z 03002MPS 9999 FEW016 SCT030 OVC053 09/07 Q1018 NOSIG
ZGKL,2025-02-01 18:00,ZGKL 011800Z 04003MPS 9999 FEW016 SCT030 OVC053 08/06 Q1018 NOSIG
ZGKL,2025-02-01 19:00,ZGKL 011900Z 05004MPS 9999 FEW016 SCT026 OVC046 08/06 Q1018 NOSIG
ZGKL,2025-02-01 20:00,ZGKL 012000Z 03003MPS 350V080 9999 FEW020 SCT030 OVC053 08/05 Q1018 NOSIG
ZGKL,2025-02-01 21:00,ZGKL 012100Z 04003MPS 010V080 9999 FEW020 SCT030 OVC053 08/05 Q1018 NOSIG
ZGKL,2025-02-01 22:00,ZGKL 012200Z 03003MPS 9999 FEW020 SCT030 OVC053 08/05 Q1018 NOSIG
ZGKL,2025-02-01 23:00,ZGKL 012300Z 02002MPS 9999 FEW020 SCT030 OVC053 08/05 Q1018 NOSIG
ZGKL,2025-02-02 00:00,ZGKL 020000Z VRB01MPS 9999 FEW020 SCT030 OVC053 08/05 Q1019 NOSIG
ZGKL,2025-02-02 01:00,ZGKL 020100Z 02001MPS 5000 -SHRA BR SCT030 OVC050 07/05 Q1019 NOSIG
ZGKL,2025-02-02 02:00,ZGKL 020200Z VRB01MPS 5000 -SHRA BR FEW010 SCT026 OVC046 07/06 Q1020 NOSIG
ZGKL,2025-02-02 03:00,ZGKL 020300Z VRB01MPS 4500 -SHRA BR FEW010 SCT023 OVC040 07/07 Q1020 NOSIG
ZGKL,2025-02-02 04:00,ZGKL 020400Z VRB01MPS 8000 -DZ SCT010 SCT023 OVC036 08/07 Q1020 NOSIG
ZGKL,2025-02-02 05:00,ZGKL 020500Z VRB01MPS 8000 -DZ FEW004 SCT010 BKN026 08/07 Q1019 NOSIG
ZGKL,2025-02-02 06:00,ZGKL 020600Z 07002MPS 040V120 8000 -DZ SCT010 SCT026 OVC040 09/08 Q1019 NOSIG
ZGKL,2025-02-02 07:00,ZGKL 020700Z 07003MPS 030V100 9999 SCT010 SCT023 OVC040 09/07 Q1018 NOSIG
ZGKL,2025-02-02 08:00,ZGKL 020800Z 05003MPS 9999 FEW015 BKN023 OVC043 09/06 Q1018 NOSIG
ZGKL,2025-02-02 09:00,ZGKL 020900Z 05003MPS 9999 -RA FEW015 SCT023 OVC046 08/06 Q1018 NOSIG
ZGKL,2025-02-02 10:00,ZGKL 021000Z 06003MPS 9999 FEW016 BKN023 OVC046 08/05 Q1018 NOSIG
ZGKL,2025-02-02 11:00,ZGKL 021100Z 05004MPS 9999 -SHRA BKN023 OVC046 08/05 Q1019 NOSIG
ZGKL,2025-02-02 12:00,ZGKL 021200Z 04003MPS 9999 -SHRA BKN023 OVC046 07/06 Q1020 NOSIG
ZGKL,2025-02-02 13:00,ZGKL 021300Z 01002MPS 320V060 9999 -SHRA BKN023 OVC046 07/06 Q1021 NOSIG
ZGKL,2025-02-02 14:00,ZGKL 021400Z 02002MPS 9999 -SHRA BKN023 OVC043 07/06 Q1022 NOSIG
ZGKL,2025-02-02 15:00,ZGKL 021500Z VRB01MPS 9999 -SHRA BKN023 OVC043 07/06 Q1023 NOSIG
ZGKL,2025-02-02 16:00,ZGKL 021600Z VRB01MPS 9999 BKN030 OVC050 07/06 Q1023 NOSIG
ZGKL,2025-02-02 17:00,ZGKL 021700Z VRB01MPS 9999 SCT026 OVC050 07/06 Q1023 NOSIG
ZGKL,2025-02-02 18:00,ZGKL 021800Z VRB01MPS 9999 SCT030 OVC050 07/06 Q1024 NOSIG
ZGKL,2025-02-02 19:00,ZGKL 021900Z 36002MPS 320V030 9999 FEW016 BKN026 OVC043 07/07 Q1023 NOSIG
ZGKL,2025-02-02 20:00,ZGKL 022000Z 02002MPS 330V050 9999 SCT030 OVC046 07/06 Q1023 NOSIG
ZGKL,2025-02-02 21:00,ZGKL 022100Z VRB01MPS 9999 -RA FEW013 SCT026 OVC043 07/06 Q1024 NOSIG
ZGKL,2025-02-02 22:00,ZGKL 022200Z VRB01MPS 8000 -RA FEW010 SCT023 OVC040 07/06 Q1024 NOSIG
ZGKL,2025-02-02 23:00,ZGKL 022300Z 02002MPS 8000 -RA FEW010 SCT023 OVC040 07/06 Q1025 NOSIG
ZGKL,2025-02-03 00:00,ZGKL 030000Z 02002MPS 340V050 9999 BKN030 OVC050 07/06 Q1026 NOSIG
ZGKL,2025-02-03 01:00,ZGKL 030100Z 02002MPS 310V050 9999 FEW010 BKN026 OVC040 07/06 Q1028 NOSIG
ZGKL,2025-02-03 02:00,ZGKL 030200Z 04003MPS 010V070 9999 FEW010 SCT026 OVC040 07/06 Q1028 NOSIG
ZGKL,2025-02-03 03:00,ZGKL 030300Z 03002MPS 360V070 9999 FEW013 SCT033 OVC060 08/06 Q1029 NOSIG
ZGKL,2025-02-03 04:00,ZGKL 030400Z 04004MPS 9999 FEW013 SCT030 OVC066 09/05 Q1028 NOSIG
ZGKL,2025-02-03 05:00,ZGKL 030500Z 04005MPS 9999 SCT023 BKN050 10/06 Q1028 NOSIG
ZGKL,2025-02-03 06:00,ZGKL 030600Z 05004MPS 360V090 9999 SCT023 SCT050 12/05 Q1026 NOSIG
ZGKL,2025-02-03 07:00,ZGKL 030700Z 04004MPS 360V080 9999 FEW026 SCT036 13/04 Q1025 NOSIG
ZGKL,2025-02-03 08:00,ZGKL 030800Z 05004MPS 360V090 9999 SCT030 SCT040 13/04 Q1025 NOSIG
ZGKL,2025-02-03 09:00,ZGKL 030900Z 04004MPS 9999 SCT033 12/04 Q1025 NOSIG
ZGKL,2025-02-03 10:00,ZGKL 031000Z 06004MPS CAVOK 11/03 Q1026 NOSIG
ZGKL,2025-02-03 11:00,ZGKL 031100Z 06004MPS CAVOK 09/03 Q1026 NOSIG
ZGKL,2025-02-03 12:00,ZGKL 031200Z 35002MPS 310V010 CAVOK 08/03 Q1028 NOSIG
ZGKL,2025-02-03 13:00,ZGKL 031300Z 36002MPS CAVOK 07/03 Q1028 NOSIG
ZGKL,2025-02-03 14:00,ZGKL 031400Z VRB01MPS 6000 NSC 06/04 Q1029 NOSIG
ZGKL,2025-02-03 15:00,ZGKL 031500Z 26001MPS 6000 NSC 05/03 Q1029 NOSIG
ZGKL,2025-02-03 16:00,ZGKL 031600Z VRB01MPS 6000 NSC 04/04 Q1029 NOSIG
ZGKL,2025-02-03 17:00,ZGKL 031700Z 00000MPS 5000 BR NSC 04/03 Q1028 NOSIG
ZGKL,2025-02-03 18:00,ZGKL 031800Z VRB01MPS 5000 PRFG BR NSC 03/03 Q1028 NOSIG
ZGKL,2025-02-03 19:00,ZGKL 031900Z 34002MPS 310V010 4500 BCFG BR NSC 03/03 Q1027 NOSIG
ZGKL,2025-02-03 20:00,ZGKL 032000Z 36001MPS 3800 PRFG BR NSC 02/02 Q1027 NOSIG
ZGKL,2025-02-03 21:00,ZGKL 032100Z 35001MPS 3500 PRFG BR NSC 02/02 Q1027 NOSIG
ZGKL,2025-02-03 22:00,ZGKL 032200Z 35002MPS 4500 BR NSC 02/02 Q1027 NOSIG
ZGKL,2025-02-03 23:00,ZGKL 032300Z 32001MPS 5000 BR NSC 02/02 Q1027 NOSIG
ZGKL,2025-02-04 00:00,ZGKL 040000Z VRB01MPS 5000 BR NSC 03/03 Q1028 NOSIG
ZGKL,2025-02-04 01:00,ZGKL 040100Z VRB01MPS 5000 BR NSC 05/03 Q1029 NOSIG
ZGKL,2025-02-04 02:00,ZGKL 040200Z VRB01MPS 7000 NSC 08/04 Q1028 NOSIG
ZGKL,2025-02-04 03:00,ZGKL 040300Z VRB02MPS CAVOK 11/03 Q1028 NOSIG
ZGKL,2025-02-04 04:00,ZGKL 040400Z 04003MPS 360V110 CAVOK 14/02 Q1027 NOSIG
ZGKL,2025-02-04 05:00,ZGKL 040500Z 08004MPS 040V150 CAVOK 15/02 Q1025 NOSIG
ZGKL,2025-02-04 06:00,ZGKL 040600Z 05003MPS 020V080 CAVOK 17/M00 Q1024 NOSIG
ZGKL,2025-02-04 07:00,ZGKL 040700Z 10003MPS 070V150 CAVOK 16/00 Q1022 NOSIG
ZGKL,2025-02-04 08:00,ZGKL 040800Z 07002MPS 020V120 CAVOK 16/M01 Q1021 NOSIG
ZGKL,2025-02-04 09:00,ZGKL 040900Z VRB02MPS CAVOK 16/M01 Q1020 NOSIG
ZGKL,2025-02-04 10:00,ZGKL 041000Z 08002MPS CAVOK 15/01 Q1020 NOSIG
ZGKL,2025-02-04 11:00,ZGKL 041100Z VRB01MPS CAVOK 11/03 Q1020 NOSIG
ZGKL,2025-02-04 12:00,ZGKL 041200Z VRB01MPS CAVOK 09/03 Q1020 NOSIG
ZGKL,2025-02-04 13:00,ZGKL 041300Z 35001MPS CAVOK 07/04 Q1021 NOSIG
ZGKL,2025-02-04 14:00,ZGKL 041400Z 30001MPS CAVOK 06/03 Q1021 NOSIG
ZGKL,2025-02-04 15:00,ZGKL 041500Z 30001MPS CAVOK 07/03 Q1021 NOSIG
ZGKL,2025-02-04 16:00,ZGKL 041600Z 32001MPS CAVOK 06/04 Q1021 NOSIG
ZGKL,2025-02-04 17:00,ZGKL 041700Z VRB01MPS CAVOK 07/04 Q1020 NOSIG
ZGKL,2025-02-04 18:00,ZGKL 041800Z 00000MPS CAVOK 07/04 Q1021 NOSIG
ZGKL,2025-02-04 19:00,ZGKL 041900Z 01001MPS 9999 SCT073 08/05 Q1020 NOSIG
ZGKL,2025-02-04 20:00,ZGKL 042000Z VRB01MPS 9999 SCT066 07/05 Q1020 NOSIG
ZGKL,2025-02-04 21:00,ZGKL 042100Z VRB01MPS 9999 SCT066 07/05 Q1020 NOSIG
ZGKL,2025-02-04 22:00,ZGKL 042200Z 00000MPS 9999 SCT066 08/05 Q1020 NOSIG
ZGKL,2025-02-04 23:00,ZGKL 042300Z VRB01MPS 9999 SCT066 08/06 Q1021 NOSIG
ZGKL,2025-02-05 00:00,ZGKL 050000Z VRB01MPS 9999 SCT066 08/06 Q1021 NOSIG
ZGKL,2025-02-05 01:00,ZGKL 050100Z VRB01MPS 9999 BKN053 09/06 Q1022 NOSIG
ZGKL,2025-02-05 02:00,ZGKL 050200Z 35001MPS 9999 SCT066 09/05 Q1022 NOSIG
ZGKL,2025-02-05 03:00,ZGKL 050300Z VRB01MPS 9999 SCT060 10/05 Q1023 NOSIG
ZGKL,2025-02-05 04:00,ZGKL 050400Z 02002MPS 340V060 9999 SCT056 11/04 Q1022 NOSIG
ZGKL,2025-02-05 05:00,ZGKL 050500Z 36002MPS 330V040 9999 SCT053 11/04 Q1021 NOSIG
ZGKL,2025-02-05 06:00,ZGKL 050600Z 35002MPS 9999 SCT056 11/05 Q1020 NOSIG
ZGKL,2025-02-05 07:00,ZGKL 050700Z 34002MPS 9999 -RA SCT050 OVC073 11/05 Q1019 NOSIG
ZGKL,2025-02-05 08:00,ZGKL 050800Z VRB01MPS 9999 SCT053 11/05 Q1019 NOSIG
ZGKL,2025-02-05 09:00,ZGKL 050900Z VRB01MPS 9999 SCT053 11/05 Q1019 NOSIG
ZGKL,2025-02-05 10:00,ZGKL 051000Z 02002MPS 9999 SCT053 11/04 Q1019 NOSIG
ZGKL,2025-02-05 11:00,ZGKL 051100Z VRB01MPS 9999 BKN050 OVC073 10/05 Q1019 NOSIG
ZGKL,2025-02-05 12:00,ZGKL 051200Z 36002MPS 330V030 9999 BKN046 OVC066 10/04 Q1020 NOSIG
ZGKL,2025-02-05 13:00,ZGKL 051300Z VRB01MPS 9999 SCT043 OVC060 10/05 Q1021 NOSIG
ZGKL,2025-02-05 14:00,ZGKL 051400Z 04003MPS 9999 SCT036 OVC053 10/04 Q1021 NOSIG
ZGKL,2025-02-05 15:00,ZGKL 051500Z 04004MPS 9999 SCT033 OVC050 10/03 Q1021 NOSIG
ZGKL,2025-02-05 16:00,ZGKL 051600Z 05003MPS 8000 -RA SCT030 OVC043 09/05 Q1021 NOSIG
ZGKL,2025-02-05 17:00,ZGKL 051700Z 06002MPS 9999 SCT026 OVC046 08/05 Q1021 NOSIG
ZGKL,2025-02-05 18:00,ZGKL 051800Z VRB01MPS 8000 -DZ SCT025 OVC043 08/05 Q1021 NOSIG
ZGKL,2025-02-05 19:00,ZGKL 051900Z VRB01MPS 8000 -DZ SCT023 OVC043 08/06 Q1021 NOSIG
ZGKL,2025-02-05 20:00,ZGKL 052000Z 35002MPS 8000 -DZ SCT020 OVC040 08/05 Q1021 NOSIG
ZGKL,2025-02-05 21:00,ZGKL 052100Z 01003MPS 6000 -RA SCT020 OVC040 07/06 Q1021 NOSIG
ZGKL,2025-02-05 22:00,ZGKL 052200Z 03002MPS 4000 -RA BR FEW010 SCT020 OVC036 07/07 Q1021 NOSIG
ZGKL,2025-02-05 23:00,ZGKL 052300Z 04003MPS 4500 -RA BR FEW010 SCT023 OVC036 07/06 Q1021 NOSIG
ZGKL,2025-02-06 00:00,ZGKL 060000Z 03002MPS 360V060 3500 -RA BR FEW013 SCT023 OVC036 07/06 Q1021 NOSIG
ZGKL,2025-02-06 01:00,ZGKL 060100Z VRB01MPS 3000 -RA BR FEW006 BKN023 OVC033 07/07 Q1022 BECMG FM0200 2500
ZGKL,2025-02-06 02:00,ZGKL 060200Z VRB01MPS 3500 -RA BR FEW006 SCT020 OVC033 07/06 Q1022 NOSIG
ZGKL,2025-02-06 03:00,ZGKL 060300Z VRB01MPS 2800 -DZ BR FEW006 SCT020 OVC033 08/07 Q1022 BECMG TL0430 3500
ZGKL,2025-02-06 04:00,ZGKL 060400Z 03002MPS 350V060 2500 -RA BR FEW006 SCT013 BKN023 08/07 Q1021 BECMG TL0500 3500
ZGKL,2025-02-06 05:00,ZGKL 060500Z 07003MPS 030V090 3000 -RA BR FEW006 SCT013 BKN023 08/07 Q1021 BECMG FM0600 2500
ZGKL,2025-02-06 06:00,ZGKL 060600Z 05003MPS 2400 -RA BR FEW006 SCT013 BKN023 08/07 Q1020 NOSIG
ZGKL,2025-02-06 07:00,ZGKL 060700Z 06002MPS 030V100 2400 -RA BR FEW006 SCT013 BKN023 08/07 Q1019 NOSIG
ZGKL,2025-02-06 08:00,ZGKL 060800Z 06003MPS 030V090 2400 -RA BR FEW006 SCT013 BKN023 07/07 Q1019 NOSIG
ZGKL,2025-02-06 09:00,ZGKL 060900Z 05002MPS 2400 -RA BR FEW006 SCT013 BKN023 07/07 Q1020 NOSIG
ZGKL,2025-02-06 10:00,ZGKL 061000Z 04003MPS 2400 -RA BR FEW006 SCT013 BKN023 07/07 Q1020 NOSIG
ZGKL,2025-02-06 11:00,ZGKL 061100Z 05003MPS 020V080 2900 -RA BR FEW006 SCT013 BKN023 07/07 Q1021 BECMG FM1200 3500
ZGKL,2025-02-06 12:00,ZGKL 061200Z 04003MPS 5000 -RA BR FEW006 SCT010 BKN026 07/06 Q1022 NOSIG
ZGKL,2025-02-06 13:00,ZGKL 061300Z 01003MPS 8000 -DZ FEW007 BKN026 OVC040 07/06 Q1023 NOSIG
ZGKL,2025-02-06 14:00,ZGKL 061400Z 02002MPS 9999 BKN033 OVC046 07/06 Q1024 NOSIG
ZGKL,2025-02-06 15:00,ZGKL 061500Z VRB01MPS 9999 -DZ BKN033 OVC046 07/06 Q1024 NOSIG
ZGKL,2025-02-06 16:00,ZGKL 061600Z VRB01MPS 9999 -DZ BKN033 OVC043 07/06 Q1025 NOSIG
ZGKL,2025-02-06 17:00,ZGKL 061700Z VRB01MPS 9999 BKN033 OVC043 07/06 Q1025 NOSIG
ZGKL,2025-02-06 18:00,ZGKL 061800Z 34002MPS 300V010 9999 BKN033 OVC043 07/06 Q1025 NOSIG
ZGKL,2025-02-06 19:00,ZGKL 061900Z 35002MPS 9999 BKN033 OVC043 07/05 Q1025 NOSIG
ZGKL,2025-02-06 20:00,ZGKL 062000Z 02003MPS 9999 BKN033 OVC043 07/05 Q1025 NOSIG
ZGKL,2025-02-06 21:00,ZGKL 062100Z 02003MPS 9999 BKN033 OVC043 07/05 Q1026 NOSIG
ZGKL,2025-02-06 22:00,ZGKL 062200Z VRB01MPS 9999 BKN033 OVC043 07/05 Q1026 NOSIG
ZGKL,2025-02-06 23:00,ZGKL 062300Z 35002MPS 9999 BKN033 OVC043 07/05 Q1026 NOSIG
ZGKL,2025-02-07 00:00,ZGKL 070000Z 34002MPS 320V020 9999 FEW020 BKN033 OVC046 07/05 Q1027 NOSIG
ZGKL,2025-02-07 01:00,ZGKL 070100Z VRB01MPS 9999 FEW020 BKN030 OVC043 07/05 Q1028 NOSIG
ZGKL,2025-02-07 02:00,ZGKL 070200Z 34002MPS 9999 FEW023 SCT033 OVC046 08/05 Q1029 NOSIG
ZGKL,2025-02-07 03:00,ZGKL 070300Z 35002MPS 9999 FEW023 SCT033 OVC046 08/05 Q1029 NOSIG
ZGKL,2025-02-07 04:00,ZGKL 070400Z 04002MPS 010V080 9999 -RA FEW020 SCT033 OVC050 09/05 Q1029 NOSIG
ZGKL,2025-02-07 05:00,ZGKL 070500Z 04004MPS 9999 -RA FEW020 SCT033 OVC050 09/04 Q1028 NOSIG
ZGKL,2025-02-07 06:00,ZGKL 070600Z 05006MPS 9999 FEW020 SCT033 OVC050 09/03 Q1027 NOSIG
ZGKL,2025-02-07 07:00,ZGKL 070700Z 05005MPS 9999 FEW020 SCT033 OVC053 09/03 Q1027 NOSIG
ZGKL,2025-02-07 08:00,ZGKL 070800Z 05005MPS 9999 SCT033 OVC060 09/02 Q1027 NOSIG
ZGKL,2025-02-07 09:00,ZGKL 070900Z 04004MPS 9999 SCT033 OVC060 09/02 Q1028 NOSIG
ZGKL,2025-02-07 10:00,ZGKL 071000Z 05005MPS 9999 SCT033 OVC060 09/01 Q1028 NOSIG
ZGKL,2025-02-07 11:00,ZGKL 071100Z 04005MPS 9999 SCT033 OVC060 08/01 Q1028 NOSIG
ZGKL,2025-02-07 12:00,ZGKL 071200Z 04007MPS 9999 -RA FEW020 SCT033 OVC056 08/00 Q1029 NOSIG
ZGKL,2025-02-07 13:00,ZGKL 071300Z 03007MPS 9999 SCT033 OVC060 08/M00 Q1029 NOSIG
ZGKL,2025-02-07 14:00,ZGKL 071400Z 03006MPS 9999 SCT036 OVC060 08/M01 Q1030 NOSIG
ZGKL,2025-02-07 15:00,ZGKL 071500Z 04005MPS 9999 SCT040 OVC060 08/M01 Q1030 NOSIG
ZGKL,2025-02-07 16:00,ZGKL 071600Z 05005MPS 9999 SCT040 OVC056 08/M01 Q1031 NOSIG
ZGKL,2025-02-07 17:00,ZGKL 071700Z 05005MPS 9999 SCT040 OVC056 08/M03 Q1031 NOSIG
ZGKL,2025-02-07 18:00,ZGKL 071800Z 04004MPS 9999 SCT040 OVC060 07/M05 Q1030 NOSIG
ZGKL,2025-02-07 19:00,ZGKL 071900Z 03004MPS 9999 SCT040 OVC060 07/M05 Q1030 NOSIG
ZGKL,2025-02-07 20:00,ZGKL 072000Z 03003MPS 9999 SCT040 OVC066 07/M06 Q1030 NOSIG
ZGKL,2025-02-07 21:00,ZGKL 072100Z 04003MPS 010V070 9999 SCT040 OVC066 06/M06 Q1030 NOSIG
ZGKL,2025-02-07 22:00,ZGKL 072200Z 04003MPS 010V070 9999 SCT040 OVC066 06/M06 Q1030 NOSIG
ZGKL,2025-02-07 23:00,ZGKL 072300Z 05004MPS 9999 BKN040 OVC066 06/M07 Q1031 NOSIG
ZGKL,2025-02-08 00:00,ZGKL 080000Z 06004MPS 9999 BKN040 OVC060 06/M07 Q1032 NOSIG
ZGKL,2025-02-08 01:00,ZGKL 080100Z 06004MPS 9999 SCT043 OVC066 06/M07 Q1032 NOSIG
ZGKL,2025-02-08 02:00,ZGKL 080200Z 05004MPS 9999 FEW043 BKN066 06/M07 Q1033 NOSIG
ZGKL,2025-02-08 03:00,ZGKL 080300Z 04004MPS 010V080 9999 SCT040 BKN066 08/M07 Q1033 NOSIG
ZGKL,2025-02-08 04:00,ZGKL 080400Z 06005MPS 350V080 9999 FEW053 09/M07 Q1032 NOSIG
ZGKL,2025-02-08 05:00,ZGKL 080500Z 05004MPS 360V090 CAVOK 10/M07 Q1031 NOSIG
ZGKL,2025-02-08 06:00,ZGKL 080600Z 06006MPS 030V090 CAVOK 11/M07 Q1029 NOSIG
ZGKL,2025-02-08 07:00,ZGKL 080700Z 06005MPS 010V090 CAVOK 11/M07 Q1028 NOSIG
ZGKL,2025-02-08 08:00,ZGKL 080800Z 05005MPS 030V090 CAVOK 11/M08 Q1027 NOSIG
ZGKL,2025-02-08 09:00,ZGKL 080900Z 06005MPS CAVOK 11/M09 Q1027 NOSIG
ZGKL,2025-02-08 10:00,ZGKL 081000Z 05005MPS CAVOK 09/M10 Q1027 NOSIG
ZGKL,2025-02-08 11:00,ZGKL 081100Z 05005MPS CAVOK 08/M10 Q1028 NOSIG
ZGKL,2025-02-08 12:00,ZGKL 081200Z 03006MPS CAVOK 07/M11 Q1029 NOSIG
ZGKL,2025-02-08 13:00,ZGKL 081300Z 01003MPS 340V040 CAVOK 05/M10 Q1030 NOSIG
ZGKL,2025-02-08 14:00,ZGKL 081400Z 02003MPS 350V050 CAVOK 05/M10 Q1030 NOSIG
ZGKL,2025-02-08 15:00,ZGKL 081500Z 33002MPS 310V010 CAVOK 04/M09 Q1031 NOSIG
ZGKL,2025-02-08 16:00,ZGKL 081600Z 35001MPS CAVOK 02/M05 Q1031 NOSIG
ZGKL,2025-02-08 17:00,ZGKL 081700Z 34001MPS CAVOK 01/M04 Q1031 NOSIG
ZGKL,2025-02-08 18:00,ZGKL 081800Z VRB01MPS CAVOK M00/M03 Q1031 NOSIG
ZGKL,2025-02-08 19:00,ZGKL 081900Z 35002MPS CAVOK 02/M06 Q1031 NOSIG
ZGKL,2025-02-08 20:00,ZGKL 082000Z 35002MPS CAVOK 01/M07 Q1030 NOSIG
ZGKL,2025-02-08 21:00,ZGKL 082100Z VRB01MPS CAVOK 01/M06 Q1029 NOSIG
ZGKL,2025-02-08 22:00,ZGKL 082200Z VRB01MPS CAVOK 01/M04 Q1029 NOSIG
ZGKL,2025-02-08 23:00,ZGKL 082300Z 00000MPS CAVOK 00/M03 Q1029 NOSIG
ZGKL,2025-02-09 00:00,ZGKL 090000Z VRB01MPS CAVOK 00/M03 Q1029 NOSIG
ZGKL,2025-02-09 01:00,ZGKL 090100Z VRB01MPS CAVOK 04/M04 Q1030 NOSIG
ZGKL,2025-02-09 02:00,ZGKL 090200Z 03002MPS 300V090 CAVOK 06/M08 Q1030 NOSIG
ZGKL,2025-02-09 03:00,ZGKL 090300Z 02003MPS 320V070 CAVOK 08/M09 Q1029 NOSIG
ZGKL,2025-02-09 04:00,ZGKL 090400Z 09003MPS 040V150 9999 FEW073 09/M12 Q1028 NOSIG
ZGKL,2025-02-09 05:00,ZGKL 090500Z 04003MPS 010V080 9999 SCT070 11/M12 Q1026 NOSIG
ZGKL,2025-02-09 06:00,ZGKL 090600Z VRB02MPS 9999 SCT066 11/M11 Q1024 NOSIG
ZGKL,2025-02-09 07:00,ZGKL 090700Z VRB01MPS 9999 BKN066 11/M10 Q1023 NOSIG
ZGKL,2025-02-09 08:00,ZGKL 090800Z 06003MPS 030V110 9999 FEW050 SCT066 11/M09 Q1022 NOSIG
ZGKL,2025-02-09 09:00,ZGKL 090900Z VRB01MPS 9999 SCT066 11/M09 Q1022 NOSIG
ZGKL,2025-02-09 10:00,ZGKL 091000Z VRB01MPS 9999 SCT060 11/M09 Q1022 NOSIG
ZGKL,2025-02-09 11:00,ZGKL 091100Z VRB01MPS 9999 BKN053 OVC073 10/M08 Q1022 NOSIG
ZGKL,2025-02-09 12:00,ZGKL 091200Z 21001MPS 9999 BKN053 OVC070 09/M02 Q1023 NOSIG
ZGKL,2025-02-09 13:00,ZGKL 091300Z VRB01MPS 9999 BKN050 OVC066 09/M02 Q1023 NOSIG
ZGKL,2025-02-09 14:00,ZGKL 091400Z 03002MPS 9999 BKN046 OVC066 10/M05 Q1024 NOSIG
ZGKL,2025-02-09 15:00,ZGKL 091500Z 02002MPS 9999 BKN046 OVC066 09/M05 Q1024 NOSIG
ZGKL,2025-02-09 16:00,ZGKL 091600Z 35001MPS 9999 BKN046 OVC060 09/M04 Q1024 NOSIG
ZGKL,2025-02-09 17:00,ZGKL 091700Z 35002MPS 9999 SCT046 OVC060 09/M03 Q1024 NOSIG
ZGKL,2025-02-09 18:00,ZGKL 091800Z VRB01MPS 9999 SCT043 OVC060 08/M01 Q1024 NOSIG
ZGKL,2025-02-09 19:00,ZGKL 091900Z 00000MPS 9999 SCT046 OVC060 08/M01 Q1024 NOSIG
ZGKL,2025-02-09 20:00,ZGKL 092000Z 01002MPS 9999 SCT043 OVC060 08/M00 Q1024 NOSIG
ZGKL,2025-02-09 21:00,ZGKL 092100Z 36001MPS 9999 SCT036 OVC053 08/01 Q1024 NOSIG
ZGKL,2025-02-09 22:00,ZGKL 092200Z 36002MPS 320V020 9999 SCT036 OVC053 08/M01 Q1024 NOSIG
ZGKL,2025-02-09 23:00,ZGKL 092300Z 04003MPS 9999 SCT036 OVC053 08/M04 Q1024 NOSIG
ZGKL,2025-02-10 00:00,ZGKL 100000Z 03004MPS 9999 SCT043 OVC060 08/M03 Q1025 NOSIG
ZGKL,2025-02-10 01:00,ZGKL 100100Z VRB01MPS 9999 SCT043 OVC060 08/M02 Q1026 NOSIG
ZGKL,2025-02-10 02:00,ZGKL 100200Z 36002MPS 320V040 9999 SCT040 OVC060 08/M01 Q1026 NOSIG
ZGKL,2025-02-10 03:00,ZGKL 100300Z 03002MPS 9999 SCT040 OVC060 09/M01 Q1026 NOSIG
ZGKL,2025-02-10 04:00,ZGKL 100400Z VRB01MPS 9999 SCT046 OVC060 09/00 Q1025 NOSIG
ZGKL,2025-02-10 05:00,ZGKL 100500Z VRB01MPS 9999 SCT043 OVC060 09/01 Q1024 NOSIG
ZGKL,2025-02-10 06:00,ZGKL 100600Z VRB01MPS 9999 SCT040 OVC060 10/02 Q1022 NOSIG
ZGKL,2025-02-10 07:00,ZGKL 100700Z 00000MPS 9999 SCT040 OVC056 11/02 Q1021 NOSIG
ZGKL,2025-02-10 08:00,ZGKL 100800Z VRB01MPS 9999 SCT040 OVC056 11/02 Q1020 NOSIG
ZGKL,2025-02-10 09:00,ZGKL 100900Z VRB01MPS 9999 SCT040 OVC053 11/02 Q1020 NOSIG
ZGKL,2025-02-10 10:00,ZGKL 101000Z VRB01MPS 9999 SCT040 OVC056 10/03 Q1020 NOSIG
ZGKL,2025-02-10 11:00,ZGKL 101100Z 00000MPS 9999 SCT040 OVC056 10/04 Q1020 NOSIG
ZGKL,2025-02-10 12:00,ZGKL 101200Z VRB01MPS 9999 SCT040 OVC056 10/04 Q1021 NOSIG
ZGKL,2025-02-10 13:00,ZGKL 101300Z 34001MPS 9999 SCT040 OVC056 09/04 Q1021 NOSIG
ZGKL,2025-02-10 14:00,ZGKL 101400Z VRB01MPS 9999 SCT033 OVC056 09/05 Q1021 NOSIG
ZGKL,2025-02-10 15:00,ZGKL 101500Z VRB01MPS 9999 SCT033 OVC056 09/05 Q1021 NOSIG
ZGKL,2025-02-10 16:00,ZGKL 101600Z 00000MPS 9999 SCT033 OVC056 09/05 Q1021 NOSIG
ZGKL,2025-02-10 17:00,ZGKL 101700Z VRB01MPS 9999 SCT033 OVC053 09/06 Q1021 NOSIG
ZGKL,2025-02-10 18:00,ZGKL 101800Z VRB01MPS 9999 SCT033 OVC046 09/06 Q1020 NOSIG
ZGKL,2025-02-10 19:00,ZGKL 101900Z VRB01MPS 9999 FEW033 OVC046 09/06 Q1019 NOSIG
ZGKL,2025-02-10 20:00,ZGKL 102000Z 34001MPS 9999 SCT040 OVC053 09/06 Q1019 NOSIG
ZGKL,2025-02-10 21:00,ZGKL 102100Z VRB01MPS 9999 SCT040 OVC053 09/07 Q1018 NOSIG
ZGKL,2025-02-10 22:00,ZGKL 102200Z 00000MPS 9999 SCT036 OVC050 09/07 Q1018 NOSIG
ZGKL,2025-02-10 23:00,ZGKL 102300Z VRB01MPS 9999 SCT036 OVC050 09/07 Q1019 NOSIG
ZGKL,2025-02-11 00:00,ZGKL 110000Z 00000MPS 8000 SCT036 OVC050 09/07 Q1019 NOSIG
ZGKL,2025-02-11 01:00,ZGKL 110100Z VRB01MPS 8000 SCT036 OVC050 09/08 Q1020 NOSIG
ZGKL,2025-02-11 02:00,ZGKL 110200Z VRB01MPS 6000 SCT033 OVC053 10/07 Q1020 NOSIG
ZGKL,2025-02-11 03:00,ZGKL 110300Z VRB01MPS 6000 SCT033 OVC053 11/07 Q1020 NOSIG
ZGKL,2025-02-11 04:00,ZGKL 110400Z 01002MPS 6000 SCT033 OVC053 12/08 Q1019 NOSIG
ZGKL,2025-02-11 05:00,ZGKL 110500Z VRB01MPS 7000 SCT036 OVC060 12/07 Q1018 NOSIG
ZGKL,2025-02-11 06:00,ZGKL 110600Z 35001MPS 7000 SCT033 OVC056 13/07 Q1016 NOSIG
ZGKL,2025-02-11 07:00,ZGKL 110700Z 03002MPS 7000 SCT030 OVC050 13/08 Q1015 NOSIG
ZGKL,2025-02-11 08:00,ZGKL 110800Z 34002MPS 300V360 7000 SCT030 OVC050 13/08 Q1014 NOSIG
ZGKL,2025-02-11 09:00,ZGKL 110900Z 34001MPS 7000 SCT030 OVC046 13/08 Q1014 NOSIG
ZGKL,2025-02-11 10:00,ZGKL 111000Z 00000MPS 6000 SCT030 OVC043 13/08 Q1015 NOSIG
ZGKL,2025-02-11 11:00,ZGKL 111100Z 21001MPS 6000 SCT030 OVC043 12/09 Q1015 NOSIG
ZGKL,2025-02-11 12:00,ZGKL 111200Z 34001MPS 7000 SCT030 OVC043 12/08 Q1016 NOSIG
ZGKL,2025-02-11 13:00,ZGKL 111300Z 36001MPS 8000 SCT030 OVC050 12/08 Q1017 NOSIG
ZGKL,2025-02-11 14:00,ZGKL 111400Z VRB01MPS 7000 SCT030 OVC050 12/09 Q1018 NOSIG
ZGKL,2025-02-11 15:00,ZGKL 111500Z VRB01MPS 6000 SCT030 OVC043 12/09 Q1018 NOSIG
ZGKL,2025-02-11 16:00,ZGKL 111600Z 00000MPS 6000 SCT030 OVC043 12/09 Q1018 NOSIG
ZGKL,2025-02-11 17:00,ZGKL 111700Z VRB01MPS 7000 SCT033 OVC043 12/09 Q1018 NOSIG
ZGKL,2025-02-11 18:00,ZGKL 111800Z 00000MPS 7000 SCT033 OVC043 12/10 Q1018 NOSIG
ZGKL,2025-02-11 19:00,ZGKL 111900Z VRB01MPS 7000 SCT030 OVC043 12/10 Q1018 NOSIG
ZGKL,2025-02-11 20:00,ZGKL 112000Z VRB01MPS 7000 SCT030 OVC043 12/10 Q1018 NOSIG
ZGKL,2025-02-11 21:00,ZGKL 112100Z VRB01MPS 6000 SCT026 OVC046 12/10 Q1018 NOSIG
ZGKL,2025-02-11 22:00,ZGKL 112200Z 00000MPS 5000 BR SCT026 OVC046 12/10 Q1018 NOSIG
ZGKL,2025-02-11 23:00,ZGKL 112300Z 00000MPS 5000 BR SCT026 OVC046 12/10 Q1019 NOSIG
ZGKL,2025-02-12 00:00,ZGKL 120000Z VRB01MPS 3000 -RA BR FEW013 SCT023 OVC043 12/11 Q1020 BECMG TL0100 2000
ZGKL,2025-02-12 01:00,ZGKL 120100Z VRB01MPS 1000 R01/1700D -RA BR FEW005 SCT020 OVC036 12/11 Q1021 BECMG TL0230 1600
ZGKL,2025-02-12 02:00,ZGKL 120200Z 04003MPS 010V070 1500 -RA BR FEW004 SCT023 OVC036 12/12 Q1022 BECMG TL0330 3000
ZGKL,2025-02-12 03:00,ZGKL 120300Z 06006MPS 2800 -RA BR FEW005 SCT023 OVC036 12/11 Q1023 BECMG TL0400 3500
ZGKL,2025-02-12 04:00,ZGKL 120400Z 06005MPS 4500 -RA BR FEW006 SCT016 OVC040 11/11 Q1023 NOSIG
ZGKL,2025-02-12 05:00,ZGKL 120500Z 04003MPS 010V070 4000 -RA BR FEW005 SCT011 OVC040 11/10 Q1023 NOSIG
ZGKL,2025-02-12 06:00,ZGKL 120600Z 05004MPS 010V080 8000 -DZ FEW009 SCT026 OVC046 10/09 Q1022 NOSIG
ZGKL,2025-02-12 07:00,ZGKL 120700Z 04005MPS 8000 SCT030 OVC050 10/08 Q1022 NOSIG
ZGKL,2025-02-12 08:00,ZGKL 120800Z 06004MPS 030V090 9000 SCT030 OVC050 10/07 Q1022 NOSIG
ZGKL,2025-02-12 09:00,ZGKL 120900Z 04005MPS 9000 SCT030 OVC053 10/06 Q1023 NOSIG
ZGKL,2025-02-12 10:00,ZGKL 121000Z 04005MPS 9000 SCT030 OVC053 10/06 Q1024 NOSIG
ZGKL,2025-02-12 11:00,ZGKL 121100Z 04005MPS 9999 SCT030 OVC053 10/06 Q1024 NOSIG
ZGKL,2025-02-12 12:00,ZGKL 121200Z 03004MPS 9999 SCT033 OVC053 10/06 Q1025 NOSIG
ZGKL,2025-02-12 13:00,ZGKL 121300Z 03005MPS 9999 SCT040 OVC060 10/05 Q1026 NOSIG
ZGKL,2025-02-12 14:00,ZGKL 121400Z 02005MPS 9999 SCT046 BKN066 10/04 Q1026 NOSIG
ZGKL,2025-02-12 15:00,ZGKL 121500Z 01005MPS 9999 SCT050 BKN066 10/04 Q1027 NOSIG
ZGKL,2025-02-12 16:00,ZGKL 121600Z 02006MPS 9999 SCT050 BKN066 10/04 Q1027 NOSIG
ZGKL,2025-02-12 17:00,ZGKL 121700Z 02004MPS 9000 SCT043 OVC060 10/03 Q1026 NOSIG
ZGKL,2025-02-12 18:00,ZGKL 121800Z 03003MPS 9000 BKN043 BKN060 10/03 Q1026 NOSIG
ZGKL,2025-02-12 19:00,ZGKL 121900Z 04002MPS 9000 BKN050 OVC066 09/03 Q1025 NOSIG
ZGKL,2025-02-12 20:00,ZGKL 122000Z 05003MPS 9000 BKN046 BKN066 09/03 Q1025 NOSIG
ZGKL,2025-02-12 21:00,ZGKL 122100Z 06002MPS 9000 BKN050 BKN070 09/02 Q1024 NOSIG
ZGKL,2025-02-12 22:00,ZGKL 122200Z 07004MPS 9000 BKN050 BKN070 09/01 Q1024 NOSIG
ZGKL,2025-02-12 23:00,ZGKL 122300Z 03002MPS 330V080 9000 SCT053 08/01 Q1024 NOSIG
ZGKL,2025-02-13 00:00,ZGKL 130000Z 06003MPS 7000 FEW046 BKN073 09/00 Q1025 NOSIG
ZGKL,2025-02-13 01:00,ZGKL 130100Z 06002MPS 010V080 8000 SCT046 BKN070 09/00 Q1025 NOSIG
ZGKL,2025-02-13 02:00,ZGKL 130200Z 04002MPS 010V080 8000 SCT050 BKN070 10/01 Q1026 NOSIG
ZGKL,2025-02-13 03:00,ZGKL 130300Z 07002MPS 020V110 8000 SCT050 OVC070 11/02 Q1025 NOSIG
ZGKL,2025-02-13 04:00,ZGKL 130400Z 06002MPS 010V120 8000 SCT050 OVC070 11/02 Q1025 NOSIG
ZGKL,2025-02-13 05:00,ZGKL 130500Z 02002MPS 350V050 8000 SCT046 OVC066 13/02 Q1023 NOSIG
ZGKL,2025-02-13 06:00,ZGKL 130600Z 05003MPS 020V080 8000 SCT046 OVC066 13/03 Q1022 NOSIG
ZGKL,2025-02-13 07:00,ZGKL 130700Z 05002MPS 010V120 8000 SCT046 OVC066 13/03 Q1021 NOSIG
ZGKL,2025-02-13 08:00,ZGKL 130800Z 03003MPS 350V070 8000 SCT046 OVC066 13/03 Q1020 NOSIG
ZGKL,2025-02-13 09:00,ZGKL 130900Z 03004MPS 8000 SCT046 OVC066 13/04 Q1019 NOSIG
ZGKL,2025-02-13 10:00,ZGKL 131000Z 05003MPS 8000 SCT046 OVC066 13/03 Q1019 NOSIG
ZGKL,2025-02-13 11:00,ZGKL 131100Z 02002MPS 8000 SCT040 OVC066 12/04 Q1020 NOSIG
ZGKL,2025-02-13 12:00,ZGKL 131200Z 03002MPS 8000 SCT040 OVC066 12/04 Q1020 NOSIG
ZGKL,2025-02-13 13:00,ZGKL 131300Z VRB01MPS 8000 SCT040 OVC066 12/05 Q1021 NOSIG
ZGKL,2025-02-13 14:00,ZGKL 131400Z VRB01MPS 8000 SCT046 OVC066 11/06 Q1021 NOSIG
ZGKL,2025-02-13 15:00,ZGKL 131500Z VRB01MPS 8000 SCT046 OVC066 12/05 Q1021 NOSIG
ZGKL,2025-02-13 16:00,ZGKL 131600Z 04003MPS 8000 SCT040 OVC066 12/05 Q1021 NOSIG
ZGKL,2025-02-13 17:00,ZGKL 131700Z 05003MPS 8000 SCT040 OVC066 11/04 Q1021 NOSIG
ZGKL,2025-02-13 18:00,ZGKL 131800Z 05003MPS 8000 SCT040 OVC066 11/04 Q1020 NOSIG
ZGKL,2025-02-13 19:00,ZGKL 131900Z VRB01MPS 8000 SCT040 OVC066 11/05 Q1020 NOSIG
ZGKL,2025-02-13 20:00,ZGKL 132000Z VRB01MPS 8000 SCT040 OVC066 10/05 Q1019 NOSIG
ZGKL,2025-02-13 21:00,ZGKL 132100Z VRB01MPS 8000 SCT040 OVC066 10/05 Q1019 NOSIG
ZGKL,2025-02-13 22:00,ZGKL 132200Z VRB01MPS 8000 SCT040 OVC066 10/05 Q1019 NOSIG
ZGKL,2025-02-13 23:00,ZGKL 132300Z 01002MPS 6000 SCT036 OVC060 10/05 Q1019 NOSIG
ZGKL,2025-02-14 00:00,ZGKL 140000Z 03002MPS 3000 -DZ BR SCT033 OVC053 09/06 Q1020 BECMG FM0100 2800
ZGKL,2025-02-14 01:00,ZGKL 140100Z 03001MPS 3000 -RA BR SCT030 OVC046 09/07 Q1021 BECMG FM0200 2800
ZGKL,2025-02-14 02:00,ZGKL 140200Z VRB01MPS 2700 BR FEW013 SCT033 OVC046 09/07 Q1021 BECMG FM0300 3000
ZGKL,2025-02-14 03:00,ZGKL 140300Z 09002MPS 2900 BR FEW012 SCT033 OVC046 09/07 Q1021 BECMG FM0350 3000
ZGKL,2025-02-14 04:00,ZGKL 140400Z VRB01MPS 3400 BR FEW011 SCT030 OVC046 10/07 Q1020 NOSIG
ZGKL,2025-02-14 05:00,ZGKL 140500Z VRB01MPS 4000 BR FEW011 SCT030 OVC046 11/07 Q1019 NOSIG
ZGKL,2025-02-14 06:00,ZGKL 140600Z VRB01MPS 4200 BR FEW013 SCT030 OVC046 11/08 Q1018 NOSIG
ZGKL,2025-02-14 07:00,ZGKL 140700Z VRB01MPS 4500 BR FEW013 SCT033 OVC050 11/08 Q1016 NOSIG
ZGKL,2025-02-14 08:00,ZGKL 140800Z 36002MPS 320V020 4000 BR FEW013 SCT033 OVC050 12/08 Q1016 NOSIG
ZGKL,2025-02-14 09:00,ZGKL 140900Z 36002MPS 320V030 3300 BR FEW013 SCT033 OVC050 12/09 Q1015 BECMG TL1040 2700
ZGKL,2025-02-14 10:00,ZGKL 141000Z VRB01MPS 3300 BR FEW013 SCT033 OVC050 11/09 Q1015 BECMG TL1100 2700
ZGKL,2025-02-14 11:00,ZGKL 141100Z VRB01MPS 2900 -DZ BR FEW013 SCT033 OVC046 11/09 Q1015 BECMG FM1200 3000
ZGKL,2025-02-14 12:00,ZGKL 141200Z 35001MPS 2700 -RA BR FEW013 SCT030 OVC043 11/10 Q1016 BECMG FM1300 3000
ZGKL,2025-02-14 13:00,ZGKL 141300Z VRB01MPS 3000 -RA BR FEW013 SCT026 OVC043 10/10 Q1017 BECMG FM1400 2600
ZGKL,2025-02-14 14:00,ZGKL 141400Z VRB01MPS 2300 -RA BR FEW010 SCT023 OVC040 10/10 Q1018 NOSIG
ZGKL,2025-02-14 15:00,ZGKL 141500Z 08002MPS 030V110 2300 -RA BR FEW010 SCT023 OVC040 10/10 Q1017 NOSIG
ZGKL,2025-02-14 16:00,ZGKL 141600Z 05002MPS 2500 -RA BR FEW010 SCT023 OVC040 10/09 Q1018 NOSIG
ZGKL,2025-02-14 17:00,ZGKL 141700Z VRB01MPS 2800 -RA BR FEW006 SCT023 OVC040 10/09 Q1018 NOSIG
ZGKL,2025-02-14 18:00,ZGKL 141800Z VRB01MPS 2600 -RA BR FEW006 SCT023 OVC040 10/09 Q1017 NOSIG
ZGKL,2025-02-14 19:00,ZGKL 141900Z VRB01MPS 2400 -RA BR FEW006 SCT023 OVC040 09/09 Q1017 NOSIG
ZGKL,2025-02-14 20:00,ZGKL 142000Z VRB01MPS 2400 -RA BR FEW006 SCT023 OVC040 09/09 Q1017 NOSIG
ZGKL,2025-02-14 21:00,ZGKL 142100Z VRB01MPS 2600 -RA BR FEW005 BKN023 OVC040 09/09 Q1017 NOSIG
ZGKL,2025-02-14 22:00,ZGKL 142200Z 05001MPS 2400 -RA BR FEW006 BKN023 OVC040 09/09 Q1017 NOSIG
ZGKL,2025-02-14 23:00,ZGKL 142300Z 05001MPS 2600 -RA BR FEW006 BKN023 OVC040 09/09 Q1018 BECMG FM0040 3000
ZGKL,2025-02-15 00:00,ZGKL 150000Z VRB01MPS 2300 -SHRA BR FEW005 BKN023 FEW040CB BKN040 09/09 Q1019 BECMG FM0040 3000
ZGKL,2025-02-15 01:00,ZGKL 150100Z VRB01MPS 2200 -SHRA BR FEW004 SCT013 BKN026 FEW033CB 09/09 Q1019 BECMG TL0200 3200
ZGKL,2025-02-15 02:00,ZGKL 150200Z 01002MPS 2500 -DZ BR FEW005 BKN023 OVC040 09/09 Q1020 BECMG TL0300 3200
ZGKL,2025-02-15 03:00,ZGKL 150300Z 07002MPS 030V100 3200 -DZ BR FEW005 BKN023 OVC040 09/09 Q1020 NOSIG
ZGKL,2025-02-15 04:00,ZGKL 150400Z VRB01MPS 3800 BR FEW006 BKN026 OVC040 10/09 Q1020 NOSIG
ZGKL,2025-02-15 05:00,ZGKL 150500Z VRB01MPS 4500 BR FEW010 SCT026 OVC036 11/09 Q1019 NOSIG
ZGKL,2025-02-15 06:00,ZGKL 150600Z VRB01MPS 5000 BR FEW013 BKN026 OVC036 12/09 Q1017 NOSIG
ZGKL,2025-02-15 07:00,ZGKL 150700Z VRB01MPS 5000 BR SCT013 SCT026 OVC040 12/09 Q1016 NOSIG
ZGKL,2025-02-15 08:00,ZGKL 150800Z VRB01MPS 5000 BR SCT013 SCT026 OVC040 11/09 Q1016 NOSIG
ZGKL,2025-02-15 09:00,ZGKL 150900Z 02002MPS 340V040 5000 BR FEW016 SCT023 OVC040 12/09 Q1016 NOSIG
ZGKL,2025-02-15 10:00,ZGKL 151000Z VRB01MPS 5000 -RA BR FEW016 SCT026 OVC040 11/09 Q1017 NOSIG
ZGKL,2025-02-15 11:00,ZGKL 151100Z 02002MPS 5000 BR FEW016 SCT026 OVC040 11/09 Q1017 NOSIG
ZGKL,2025-02-15 12:00,ZGKL 151200Z 05002MPS 010V080 5000 BR FEW013 SCT026 OVC040 11/08 Q1018 NOSIG
ZGKL,2025-02-15 13:00,ZGKL 151300Z 06002MPS 030V100 7000 FEW016 SCT026 OVC043 11/08 Q1018 NOSIG
ZGKL,2025-02-15 14:00,ZGKL 151400Z 05002MPS 7000 -DZ FEW013 SCT023 OVC040 11/08 Q1019 NOSIG
ZGKL,2025-02-15 15:00,ZGKL 151500Z VRB01MPS 8000 FEW016 SCT023 OVC036 11/07 Q1019 NOSIG
ZGKL,2025-02-15 16:00,ZGKL 151600Z VRB01MPS 9000 FEW016 SCT026 OVC036 10/08 Q1019 NOSIG
ZGKL,2025-02-15 17:00,ZGKL 151700Z VRB01MPS 9000 SCT030 OVC043 10/08 Q1020 NOSIG
ZGKL,2025-02-15 18:00,ZGKL 151800Z VRB01MPS 9000 -RA SCT030 OVC043 10/09 Q1020 NOSIG
ZGKL,2025-02-15 19:00,ZGKL 151900Z VRB01MPS 8000 -RA SCT033 OVC053 10/08 Q1020 NOSIG
ZGKL,2025-02-15 20:00,ZGKL 152000Z VRB01MPS 6000 SCT033 OVC053 10/09 Q1020 NOSIG
ZGKL,2025-02-15 21:00,ZGKL 152100Z 00000MPS 7000 SCT036 OVC053 10/09 Q1020 NOSIG
ZGKL,2025-02-15 22:00,ZGKL 152200Z VRB01MPS 5000 BR SCT033 OVC046 10/10 Q1020 NOSIG
ZGKL,2025-02-15 23:00,ZGKL 152300Z VRB01MPS 4000 BR SCT030 OVC043 10/09 Q1021 NOSIG
ZGKL,2025-02-16 00:00,ZGKL 160000Z 00000MPS 3200 BR BKN033 OVC046 10/10 Q1022 BECMG TL0130 2800
ZGKL,2025-02-16 01:00,ZGKL 160100Z VRB01MPS 2900 BR BKN036 OVC056 10/10 Q1022 BECMG TL0200 3500
ZGKL,2025-02-16 02:00,ZGKL 160200Z VRB01MPS 4000 BR BKN036 OVC053 11/10 Q1023 NOSIG
ZGKL,2025-02-16 03:00,ZGKL 160300Z VRB01MPS 5000 BR BKN033 OVC046 12/10 Q1023 NOSIG
ZGKL,2025-02-16 04:00,ZGKL 160400Z 00000MPS 8000 BKN033 OVC046 13/09 Q1023 NOSIG
ZGKL,2025-02-16 05:00,ZGKL 160500Z VRB01MPS 8000 FEW015 BKN033 OVC046 14/09 Q1022 NOSIG
ZGKL,2025-02-16 06:00,ZGKL 160600Z VRB01MPS 9999 BKN040 OVC060 14/08 Q1021 NOSIG
ZGKL,2025-02-16 07:00,ZGKL 160700Z VRB01MPS 9999 FEW020 BKN036 OVC050 14/06 Q1021 NOSIG
ZGKL,2025-02-16 08:00,ZGKL 160800Z 02002MPS 350V050 9999 -RA BKN033 OVC046 14/05 Q1020 NOSIG
ZGKL,2025-02-16 09:00,ZGKL 160900Z 11002MPS 060V170 9999 -RA BKN033 OVC060 11/07 Q1021 NOSIG
ZGKL,2025-02-16 10:00,ZGKL 161000Z VRB01MPS 9999 BKN033 OVC053 11/06 Q1021 NOSIG
ZGKL,2025-02-16 11:00,ZGKL 161100Z 25002MPS 7000 -SHRA BKN030 OVC050 10/07 Q1022 NOSIG
ZGKL,2025-02-16 12:00,ZGKL 161200Z VRB01MPS 9999 BKN033 OVC050 10/08 Q1023 NOSIG
ZGKL,2025-02-16 13:00,ZGKL 161300Z VRB01MPS 9999 SCT036 OVC050 10/08 Q1023 NOSIG
ZGKL,2025-02-16 14:00,ZGKL 161400Z 27002MPS 9999 SCT036 OVC050 10/08 Q1024 NOSIG
ZGKL,2025-02-16 15:00,ZGKL 161500Z VRB01MPS 9999 SCT036 OVC050 10/08 Q1024 NOSIG
ZGKL,2025-02-16 16:00,ZGKL 161600Z VRB01MPS 9999 SCT033 OVC046 10/09 Q1024 NOSIG
ZGKL,2025-02-16 17:00,ZGKL 161700Z 30001MPS 9999 SCT036 OVC050 10/09 Q1023 NOSIG
ZGKL,2025-02-16 18:00,ZGKL 161800Z VRB01MPS 9999 SCT036 OVC050 10/09 Q1023 NOSIG
ZGKL,2025-02-16 19:00,ZGKL 161900Z VRB01MPS 7000 SCT036 OVC053 10/08 Q1022 NOSIG
ZGKL,2025-02-16 20:00,ZGKL 162000Z VRB01MPS 7000 SCT036 OVC053 10/09 Q1022 NOSIG
ZGKL,2025-02-16 21:00,ZGKL 162100Z VRB01MPS 9999 SCT033 OVC053 10/08 Q1022 NOSIG
ZGKL,2025-02-16 22:00,ZGKL 162200Z 00000MPS 9999 SCT033 OVC050 10/09 Q1022 NOSIG
ZGKL,2025-02-16 23:00,ZGKL 162300Z 00000MPS 9999 SCT030 OVC046 10/08 Q1022 NOSIG
ZGKL,2025-02-17 00:00,ZGKL 170000Z VRB01MPS 4000 -SHRA BR FEW013 FEW026CB SCT026 BKN043 09/08 Q1022 TEMPO SHRA
ZGKL,2025-02-17 01:00,ZGKL 170100Z VRB01MPS 6000 -SHRA FEW013 FEW026CB SCT026 BKN043 08/07 Q1024 TEMPO SHRA
ZGKL,2025-02-17 02:00,ZGKL 170200Z VRB01MPS 5000 -SHRA BR FEW013 FEW026CB SCT026 BKN043 09/08 Q1024 NOSIG
ZGKL,2025-02-17 03:00,ZGKL 170300Z VRB01MPS 5000 -RA BR FEW004 SCT026 OVC043 09/08 Q1025 NOSIG
ZGKL,2025-02-17 04:00,ZGKL 170400Z VRB01MPS 5000 -RA BR FEW004 SCT026 OVC043 09/08 Q1025 NOSIG
ZGKL,2025-02-17 05:00,ZGKL 170500Z VRB01MPS 5000 -RA BR FEW004 SCT023 OVC040 09/08 Q1024 NOSIG
ZGKL,2025-02-17 06:00,ZGKL 170600Z 04002MPS 360V070 4000 -RA BR FEW004 SCT023 OVC040 09/08 Q1024 NOSIG
ZGKL,2025-02-17 07:00,ZGKL 170700Z 04003MPS 4500 -RA BR FEW004 SCT026 OVC040 09/08 Q1023 NOSIG
ZGKL,2025-02-17 08:00,ZGKL 170800Z VRB01MPS 5000 BR FEW006 BKN026 OVC043 09/08 Q1023 NOSIG
ZGKL,2025-02-17 09:00,ZGKL 170900Z VRB01MPS 6000 -RA FEW006 SCT026 OVC043 09/08 Q1023 NOSIG
ZGKL,2025-02-17 10:00,ZGKL 171000Z VRB01MPS 5000 -RA BR FEW006 BKN023 OVC043 09/08 Q1023 NOSIG
ZGKL,2025-02-17 11:00,ZGKL 171100Z VRB01MPS 5000 -RA BR FEW006 BKN023 OVC043 09/08 Q1024 NOSIG
ZGKL,2025-02-17 12:00,ZGKL 171200Z 03002MPS 5000 -RA BR FEW006 BKN023 OVC043 09/07 Q1025 NOSIG
ZGKL,2025-02-17 13:00,ZGKL 171300Z 03002MPS 9999 BKN023 OVC043 09/07 Q1025 NOSIG
ZGKL,2025-02-17 14:00,ZGKL 171400Z 04002MPS 020V080 9999 BKN023 OVC043 09/07 Q1026 NOSIG
ZGKL,2025-02-17 15:00,ZGKL 171500Z 34002MPS 310V010 9999 BKN030 OVC053 09/07 Q1026 NOSIG
ZGKL,2025-02-17 16:00,ZGKL 171600Z VRB01MPS 9999 BKN030 OVC053 08/07 Q1026 NOSIG
ZGKL,2025-02-17 17:00,ZGKL 171700Z VRB01MPS 9999 SCT030 OVC050 08/07 Q1026 NOSIG
ZGKL,2025-02-17 18:00,ZGKL 171800Z VRB01MPS 9999 SCT033 OVC050 08/06 Q1026 NOSIG
ZGKL,2025-02-17 19:00,ZGKL 171900Z VRB01MPS 9999 SCT033 OVC050 08/06 Q1025 NOSIG
ZGKL,2025-02-17 20:00,ZGKL 172000Z VRB01MPS 9999 SCT033 OVC053 08/07 Q1025 NOSIG
ZGKL,2025-02-17 21:00,ZGKL 172100Z 00000MPS 9999 BKN030 OVC050 08/07 Q1025 NOSIG
ZGKL,2025-02-17 22:00,ZGKL 172200Z 06001MPS 9999 BKN030 OVC050 08/06 Q1025 NOSIG
ZGKL,2025-02-17 23:00,ZGKL 172300Z VRB01MPS 9999 BKN030 OVC050 08/06 Q1025 NOSIG
ZGKL,2025-02-18 00:00,ZGKL 180000Z 00000MPS 9999 BKN030 OVC050 08/07 Q1026 NOSIG
ZGKL,2025-02-18 01:00,ZGKL 180100Z VRB01MPS 9999 BKN030 OVC050 09/07 Q1027 NOSIG
ZGKL,2025-02-18 02:00,ZGKL 180200Z VRB01MPS 9999 FEW020 SCT033 OVC053 09/06 Q1027 NOSIG
ZGKL,2025-02-18 03:00,ZGKL 180300Z VRB01MPS 9999 SCT033 OVC053 10/07 Q1027 NOSIG
ZGKL,2025-02-18 04:00,ZGKL 180400Z VRB01MPS 9999 SCT033 OVC053 10/07 Q1026 NOSIG
ZGKL,2025-02-18 05:00,ZGKL 180500Z 34002MPS 300V020 9999 -DZ FEW020 SCT033 OVC050 11/06 Q1025 NOSIG
ZGKL,2025-02-18 06:00,ZGKL 180600Z VRB01MPS 9999 FEW020 SCT026 OVC046 11/07 Q1024 NOSIG
ZGKL,2025-02-18 07:00,ZGKL 180700Z 04003MPS 9999 SCT026 OVC046 12/06 Q1023 NOSIG
ZGKL,2025-02-18 08:00,ZGKL 180800Z 04003MPS 9999 SCT026 OVC043 12/06 Q1022 NOSIG
ZGKL,2025-02-18 09:00,ZGKL 180900Z 07003MPS 9999 SCT026 OVC046 11/05 Q1022 NOSIG
ZGKL,2025-02-18 10:00,ZGKL 181000Z 05002MPS 9999 SCT026 OVC046 11/05 Q1022 NOSIG
ZGKL,2025-02-18 11:00,ZGKL 181100Z 05003MPS 9999 SCT026 OVC046 10/05 Q1022 NOSIG
ZGKL,2025-02-18 12:00,ZGKL 181200Z 03002MPS 350V060 9999 SCT026 OVC046 10/06 Q1023 NOSIG
ZGKL,2025-02-18 13:00,ZGKL 181300Z 04003MPS 010V070 9999 -RA SCT026 OVC046 10/06 Q1023 NOSIG
ZGKL,2025-02-18 14:00,ZGKL 181400Z 05003MPS 9999 -RA SCT026 OVC043 09/07 Q1024 NOSIG
ZGKL,2025-02-18 15:00,ZGKL 181500Z 06002MPS 9999 SCT026 OVC043 09/07 Q1024 NOSIG
ZGKL,2025-02-18 16:00,ZGKL 181600Z 05003MPS 9999 -RA SCT026 OVC043 09/07 Q1024 NOSIG
ZGKL,2025-02-18 17:00,ZGKL 181700Z VRB01MPS 9999 SCT023 OVC043 09/07 Q1024 NOSIG
ZGKL,2025-02-18 18:00,ZGKL 181800Z VRB01MPS 9999 SCT023 OVC040 09/07 Q1023 NOSIG
ZGKL,2025-02-18 19:00,ZGKL 181900Z 00000MPS 9999 FEW016 BKN023 OVC040 09/07 Q1023 NOSIG
ZGKL,2025-02-18 20:00,ZGKL 182000Z VRB01MPS 9999 SCT020 OVC036 09/07 Q1023 NOSIG
ZGKL,2025-02-18 21:00,ZGKL 182100Z 21001MPS 7000 FEW010 SCT020 OVC036 08/08 Q1022 NOSIG
ZGKL,2025-02-18 22:00,ZGKL 182200Z 28001MPS 7000 -RA SCT025 OVC043 09/07 Q1023 NOSIG
ZGKL,2025-02-18 23:00,ZGKL 182300Z VRB01MPS 5000 -RA BR FEW008 SCT023 OVC043 08/08 Q1024 NOSIG
ZGKL,2025-02-19 00:00,ZGKL 190000Z 03002MPS 340V050 3000 -RA BR FEW008 SCT023 OVC043 08/08 Q1024 BECMG TL0100 2500
ZGKL,2025-02-19 01:00,ZGKL 190100Z 04002MPS 2000 -DZ BR FEW004 SCT023 OVC036 08/08 Q1025 NOSIG
ZGKL,2025-02-19 02:00,ZGKL 190200Z 06002MPS 030V090 2000 -RA BR FEW004 SCT023 OVC036 09/08 Q1025 BECMG TL0330 3000
ZGKL,2025-02-19 03:00,ZGKL 190300Z 09001MPS 2800 -DZ BR FEW004 SCT020 OVC036 09/08 Q1025 BECMG TL0430 3500
ZGKL,2025-02-19 04:00,ZGKL 190400Z VRB01MPS 3000 -DZ BR FEW004 SCT020 OVC036 09/09 Q1024 BECMG FM0500 2800
ZGKL,2025-02-19 05:00,ZGKL 190500Z 05002MPS 2600 -DZ BR FEW004 SCT013 OVC030 09/09 Q1023 BECMG FM0650 3100
ZGKL,2025-02-19 06:00,ZGKL 190600Z 05002MPS 2800 -DZ BR FEW005 BKN020 OVC033 09/09 Q1022 BECMG FM0700 3100
ZGKL,2025-02-19 07:00,ZGKL 190700Z VRB01MPS 3000 -DZ BR FEW005 BKN020 OVC033 09/09 Q1021 BECMG FM0840 2500
ZGKL,2025-02-19 08:00,ZGKL 190800Z VRB01MPS 3000 -DZ BR FEW005 BKN020 OVC033 09/09 Q1021 BECMG FM0900 2500
ZGKL,2025-02-19 09:00,ZGKL 190900Z 07003MPS 2800 -DZ BR FEW006 BKN020 OVC036 09/09 Q1021 NOSIG
ZGKL,2025-02-19 10:00,ZGKL 191000Z 05002MPS 020V080 2900 -DZ BR FEW006 SCT023 OVC040 09/09 Q1021 BECMG TL1130 3000
ZGKL,2025-02-19 11:00,ZGKL 191100Z 06002MPS 3500 -DZ BR FEW006 SCT023 OVC036 09/09 Q1021 NOSIG
ZGKL,2025-02-19 12:00,ZGKL 191200Z 07002MPS 030V090 3500 -DZ BR FEW004 SCT011 BKN023 09/09 Q1022 NOSIG
ZGKL,2025-02-19 13:00,ZGKL 191300Z 06003MPS 4000 -DZ BR FEW004 SCT016 OVC040 09/09 Q1023 NOSIG
ZGKL,2025-02-19 14:00,ZGKL 191400Z VRB01MPS 4000 -DZ BR FEW003 SCT013 OVC040 09/09 Q1024 NOSIG
ZGKL,2025-02-19 15:00,ZGKL 191500Z 00000MPS 3800 -DZ BR FEW003 SCT010 OVC036 09/09 Q1024 NOSIG
ZGKL,2025-02-19 16:00,ZGKL 191600Z VRB01MPS 3500 -DZ BR FEW003 SCT010 BKN020 09/09 Q1024 NOSIG
ZGKL,2025-02-19 17:00,ZGKL 191700Z 00000MPS 3500 -DZ BR SCT006 BKN020 OVC033 09/09 Q1023 NOSIG
ZGKL,2025-02-19 18:00,ZGKL 191800Z VRB01MPS 4000 -SHRA BR FEW006 BKN020 OVC033 09/09 Q1023 NOSIG
ZGKL,2025-02-19 19:00,ZGKL 191900Z 06001MPS 3500 -SHRA BR FEW006 BKN020 OVC033 09/09 Q1023 NOSIG
ZGKL,2025-02-19 20:00,ZGKL 192000Z VRB01MPS 4000 -RA BR FEW006 BKN020 OVC033 09/09 Q1022 NOSIG
ZGKL,2025-02-19 21:00,ZGKL 192100Z 00000MPS 4000 -SHRA BR FEW006 BKN020 OVC033 09/09 Q1023 NOSIG
ZGKL,2025-02-19 22:00,ZGKL 192200Z VRB01MPS 4000 -SHRA BR FEW006 BKN020 OVC033 09/09 Q1022 NOSIG
ZGKL,2025-02-19 23:00,ZGKL 192300Z 00000MPS 3500 -SHRA BR SCT006 SCT023 OVC036 09/09 Q1023 BECMG FM2330 2000 SHRA FEW023CB
ZGKL,2025-02-20 00:00,ZGKL 200000Z 12001MPS 3000 -RA BR FEW004 BKN020 OVC036 09/09 Q1024 NOSIG
ZGKL,2025-02-20 01:00,ZGKL 200100Z VRB01MPS 3000 -RA BR FEW004 BKN020 OVC036 09/09 Q1024 BECMG FM0200 2800
ZGKL,2025-02-20 02:00,ZGKL 200200Z VRB01MPS 3000 -RA BR FEW004 BKN020 OVC036 09/09 Q1024 BECMG TL0300 2800
ZGKL,2025-02-20 03:00,ZGKL 200300Z VRB01MPS 2800 -RA BR FEW004 BKN020 OVC036 09/09 Q1025 BECMG TL0330 3200 SHRA FEW004 SCT026 FEW026CB BKN033
ZGKL,2025-02-20 04:00,ZGKL 200400Z VRB01MPS 5000 -SHRA BR FEW004 FEW026CB BKN026 BKN040 09/09 Q1024 RETS BECMG TL0500 FEW004 SCT026 OVC033
ZGKL,2025-02-20 05:00,ZGKL 200500Z 09002MPS 040V120 3500 -RA BR FEW004 SCT010 BKN023 10/09 Q1024 NOSIG
ZGKL,2025-02-20 06:00,ZGKL 200600Z 05002MPS 030V090 3000 -RA BR FEW004 SCT010 BKN023 10/09 Q1023 BECMG FM0700 2500
ZGKL,2025-02-20 07:00,ZGKL 200700Z 05002MPS 2800 -RA BR FEW003 SCT009 BKN023 10/09 Q1022 BECMG FM0800 4000
ZGKL,2025-02-20 08:00,ZGKL 200800Z 10002MPS 050V120 3000 -RA BR FEW003 SCT009 BKN020 10/10 Q1022 BECMG FM0900 2500
ZGKL,2025-02-20 09:00,ZGKL 200900Z 06003MPS 3000 -RA BR FEW003 SCT010 BKN020 09/09 Q1023 BECMG FM1000 2800
ZGKL,2025-02-20 10:00,ZGKL 201000Z 06003MPS 2800 -RA BR FEW003 SCT010 BKN020 09/09 Q1023 BECMG FM1100 3500
ZGKL,2025-02-20 11:00,ZGKL 201100Z VRB01MPS 5000 -RA BR FEW003 SCT010 BKN020 09/09 Q1024 NOSIG
ZGKL,2025-02-20 12:00,ZGKL 201200Z VRB01MPS 5000 -RA BR FEW003 SCT010 BKN020 09/09 Q1025 NOSIG
ZGKL,2025-02-20 13:00,ZGKL 201300Z VRB01MPS 5000 -RA BR FEW003 SCT010 BKN020 09/09 Q1025 NOSIG
ZGKL,2025-02-20 14:00,ZGKL 201400Z VRB01MPS 8000 -RA FEW003 SCT010 BKN020 09/09 Q1026 NOSIG
ZGKL,2025-02-20 15:00,ZGKL 201500Z VRB01MPS 8000 -RA FEW006 BKN023 OVC040 09/09 Q1026 NOSIG
ZGKL,2025-02-20 16:00,ZGKL 201600Z VRB01MPS 8000 -RA FEW006 BKN023 OVC040 09/09 Q1026 NOSIG
ZGKL,2025-02-20 17:00,ZGKL 201700Z VRB01MPS 9999 -RA FEW006 BKN023 OVC046 09/09 Q1026 NOSIG
ZGKL,2025-02-20 18:00,ZGKL 201800Z 04002MPS 010V070 9999 FEW006 BKN023 OVC046 09/08 Q1026 NOSIG
ZGKL,2025-02-20 19:00,ZGKL 201900Z 35002MPS 310V020 9999 -RA FEW006 BKN023 OVC040 09/08 Q1025 NOSIG
ZGKL,2025-02-20 20:00,ZGKL 202000Z VRB01MPS 9999 -RA FEW006 BKN026 OVC040 09/08 Q1025 NOSIG
ZGKL,2025-02-20 21:00,ZGKL 202100Z 00000MPS 9999 FEW006 SCT030 OVC043 08/08 Q1025 NOSIG
ZGKL,2025-02-20 22:00,ZGKL 202200Z 03002MPS 360V060 9999 FEW006 SCT030 OVC040 08/08 Q1025 NOSIG
ZGKL,2025-02-20 23:00,ZGKL 202300Z 05001MPS 9999 FEW006 SCT030 OVC040 08/08 Q1026 NOSIG
ZGKL,2025-02-21 00:00,ZGKL 210000Z 05002MPS 9999 FEW006 SCT030 OVC046 08/07 Q1026 NOSIG
ZGKL,2025-02-21 01:00,ZGKL 210100Z 03002MPS 360V060 7000 -RA FEW010 SCT030 OVC046 08/07 Q1027 NOSIG
ZGKL,2025-02-21 02:00,ZGKL 210200Z 03002MPS 360V060 6000 -RA FEW013 BKN030 OVC043 08/07 Q1027 NOSIG
ZGKL,2025-02-21 03:00,ZGKL 210300Z 03002MPS 360V060 5000 -RA BR FEW010 BKN026 OVC043 09/08 Q1027 NOSIG
ZGKL,2025-02-21 04:00,ZGKL 210400Z VRB01MPS 6000 FEW010 SCT026 OVC043 09/08 Q1027 NOSIG
ZGKL,2025-02-21 05:00,ZGKL 210500Z VRB01MPS 7000 FEW010 SCT026 OVC043 09/07 Q1026 NOSIG
ZGKL,2025-02-21 06:00,ZGKL 210600Z 04002MPS 350V070 8000 FEW010 SCT030 OVC046 10/07 Q1025 NOSIG
ZGKL,2025-02-21 07:00,ZGKL 210700Z 04002MPS 010V070 8000 FEW010 SCT026 OVC046 10/07 Q1024 NOSIG
ZGKL,2025-02-21 08:00,ZGKL 210800Z 07002MPS 030V100 8000 -RA FEW010 SCT026 OVC046 10/07 Q1024 NOSIG
ZGKL,2025-02-21 09:00,ZGKL 210900Z 08002MPS 050V140 8000 -RA FEW010 SCT026 OVC043 09/07 Q1024 NOSIG
ZGKL,2025-02-21 10:00,ZGKL 211000Z 05003MPS 7000 -RA FEW010 SCT026 OVC043 09/07 Q1025 NOSIG
ZGKL,2025-02-21 11:00,ZGKL 211100Z 05002MPS 010V070 8000 -RA FEW010 SCT023 OVC040 09/07 Q1025 NOSIG
ZGKL,2025-02-21 12:00,ZGKL 211200Z VRB01MPS 5000 -RA BR FEW010 BKN023 OVC040 08/07 Q1026 NOSIG
ZGKL,2025-02-21 13:00,ZGKL 211300Z 01002MPS 5000 -DZ BR FEW010 BKN023 OVC040 08/07 Q1026 NOSIG
ZGKL,2025-02-21 14:00,ZGKL 211400Z VRB01MPS 5000 BR FEW010 BKN023 OVC040 08/08 Q1026 NOSIG
ZGKL,2025-02-21 15:00,ZGKL 211500Z VRB01MPS 3500 -DZ BR SCT010 BKN020 OVC036 08/08 Q1026 NOSIG
ZGKL,2025-02-21 16:00,ZGKL 211600Z 06002MPS 3000 -RA BR FEW003 SCT006 BKN020 08/08 Q1026 NOSIG
ZGKL,2025-02-21 17:00,ZGKL 211700Z 02001MPS 4000 -RA BR FEW003 SCT006 BKN020 08/08 Q1026 NOSIG
ZGKL,2025-02-21 18:00,ZGKL 211800Z 05001MPS 5000 -RA BR FEW003 BKN023 OVC040 08/08 Q1026 NOSIG
ZGKL,2025-02-21 19:00,ZGKL 211900Z 03001MPS 4000 -RA BR FEW003 BKN023 OVC040 08/08 Q1025 NOSIG
ZGKL,2025-02-21 20:00,ZGKL 212000Z VRB01MPS 4000 -RA BR FEW003 BKN023 OVC040 08/08 Q1025 NOSIG
ZGKL,2025-02-21 21:00,ZGKL 212100Z 06001MPS 4500 -RA BR FEW003 BKN023 OVC040 08/08 Q1024 NOSIG
ZGKL,2025-02-21 22:00,ZGKL 212200Z 06001MPS 4500 -RA BR FEW003 BKN023 OVC040 08/08 Q1024 NOSIG
ZGKL,2025-02-21 23:00,ZGKL 212300Z 06002MPS 4000 -RA BR FEW003 BKN023 OVC036 08/08 Q1025 NOSIG
ZGKL,2025-02-22 00:00,ZGKL 220000Z 07001MPS 3500 -RA BR FEW003 BKN023 OVC033 08/08 Q1025 NOSIG
ZGKL,2025-02-22 01:00,ZGKL 220100Z VRB01MPS 3000 -RA BR FEW004 BKN023 OVC036 08/08 Q1027 BECMG FM0200 2500
ZGKL,2025-02-22 02:00,ZGKL 220200Z VRB01MPS 3400 -RA BR FEW004 BKN023 OVC036 08/08 Q1027 NOSIG
ZGKL,2025-02-22 03:00,ZGKL 220300Z 05002MPS 020V100 3200 -RA BR FEW004 BKN023 OVC033 09/08 Q1028 BECMG TL0450 2800
ZGKL,2025-02-22 04:00,ZGKL 220400Z 08003MPS 030V100 2900 -RA BR FEW004 BKN023 OVC036 09/08 Q1027 BECMG FM0500 3000
ZGKL,2025-02-22 05:00,ZGKL 220500Z 08003MPS 030V100 4500 -RA BR FEW004 BKN023 OVC036 09/08 Q1026 NOSIG
ZGKL,2025-02-22 06:00,ZGKL 220600Z 06002MPS 8000 -RA FEW004 BKN026 OVC040 09/08 Q1025 NOSIG
ZGKL,2025-02-22 07:00,ZGKL 220700Z 06002MPS 030V090 7000 -RA FEW004 BKN023 OVC040 09/08 Q1025 NOSIG
ZGKL,2025-02-22 08:00,ZGKL 220800Z 06002MPS 040V100 6000 -RA FEW004 BKN023 OVC040 09/08 Q1024 NOSIG
ZGKL,2025-02-22 09:00,ZGKL 220900Z 05003MPS 030V090 8000 -RA FEW005 BKN026 OVC040 09/08 Q1025 NOSIG
ZGKL,2025-02-22 10:00,ZGKL 221000Z 05002MPS 020V080 9999 -DZ FEW006 BKN030 OVC046 09/08 Q1025 NOSIG
ZGKL,2025-02-22 11:00,ZGKL 221100Z 01002MPS 340V060 9000 -RA BKN026 OVC043 09/08 Q1026 NOSIG
ZGKL,2025-02-22 12:00,ZGKL 221200Z VRB01MPS 9000 -RA FEW009 BKN026 OVC043 08/08 Q1027 NOSIG
ZGKL,2025-02-22 13:00,ZGKL 221300Z VRB01MPS 9999 -DZ BKN030 OVC046 08/08 Q1028 NOSIG
ZGKL,2025-02-22 14:00,ZGKL 221400Z VRB01MPS 9999 -DZ BKN030 OVC046 08/08 Q1029 NOSIG
ZGKL,2025-02-22 15:00,ZGKL 221500Z 02002MPS 340V040 9999 -RA FEW009 BKN026 OVC043 08/07 Q1029 NOSIG
ZGKL,2025-02-22 16:00,ZGKL 221600Z VRB01MPS 9999 FEW009 BKN026 OVC043 08/08 Q1029 NOSIG
ZGKL,2025-02-22 17:00,ZGKL 221700Z VRB01MPS 9999 SCT026 OVC043 08/08 Q1029 NOSIG
ZGKL,2025-02-22 18:00,ZGKL 221800Z 04003MPS 360V060 9999 SCT026 OVC040 08/07 Q1029 NOSIG
ZGKL,2025-02-22 19:00,ZGKL 221900Z 04002MPS 9999 -RA FEW009 SCT023 OVC036 08/06 Q1029 NOSIG
ZGKL,2025-02-22 20:00,ZGKL 222000Z 02001MPS 9999 -RA SCT026 OVC040 08/06 Q1029 NOSIG
ZGKL,2025-02-22 21:00,ZGKL 222100Z VRB01MPS 9999 SCT030 OVC043 08/06 Q1030 NOSIG
ZGKL,2025-02-22 22:00,ZGKL 222200Z VRB01MPS 9999 -RA SCT026 OVC043 07/06 Q1030 NOSIG
ZGKL,2025-02-22 23:00,ZGKL 222300Z 36001MPS 9999 -SHRA BKN026 OVC046 07/06 Q1031 TEMPO SHRA FEW026CB SCT030 BKN050
ZGKL,2025-02-23 00:00,ZGKL 230000Z 05002MPS 9999 FEW013 BKN030 OVC050 07/06 Q1033 NOSIG
ZGKL,2025-02-23 01:00,ZGKL 230100Z 05002MPS 9999 -RA FEW006 BKN030 OVC053 07/07 Q1034 NOSIG
ZGKL,2025-02-23 02:00,ZGKL 230200Z 05003MPS 020V080 9999 FEW006 BKN033 OVC056 08/06 Q1034 NOSIG
ZGKL,2025-02-23 03:00,ZGKL 230300Z 05006MPS 9999 FEW010 BKN036 OVC056 09/06 Q1034 NOSIG
ZGKL,2025-02-23 04:00,ZGKL 230400Z 05006MPS 9999 FEW020 BKN036 OVC056 09/05 Q1034 NOSIG
ZGKL,2025-02-23 05:00,ZGKL 230500Z 05005MPS 9999 FEW020 BKN036 OVC056 10/05 Q1033 NOSIG
ZGKL,2025-02-23 06:00,ZGKL 230600Z 05005MPS 9999 BKN036 OVC056 10/05 Q1032 NOSIG
ZGKL,2025-02-23 07:00,ZGKL 230700Z 06006MPS 9999 BKN036 OVC056 10/05 Q1031 NOSIG
ZGKL,2025-02-23 08:00,ZGKL 230800Z 05007MPS 9999 BKN036 OVC056 10/04 Q1031 NOSIG
ZGKL,2025-02-23 09:00,ZGKL 230900Z 05007MPS 9999 BKN036 OVC056 09/04 Q1031 NOSIG
ZGKL,2025-02-23 10:00,ZGKL 231000Z 04006MPS 9999 BKN036 OVC056 09/04 Q1031 NOSIG
ZGKL,2025-02-23 11:00,ZGKL 231100Z 05005MPS 9999 FEW026 BKN040 OVC070 08/04 Q1032 NOSIG
ZGKL,2025-02-23 12:00,ZGKL 231200Z 05004MPS 9999 FEW026 BKN040 OVC070 08/04 Q1033 NOSIG
ZGKL,2025-02-23 13:00,ZGKL 231300Z 01003MPS 9999 FEW026 BKN036 OVC066 08/04 Q1034 NOSIG
ZGKL,2025-02-23 14:00,ZGKL 231400Z 03004MPS 9999 SCT033 OVC066 08/04 Q1034 NOSIG
ZGKL,2025-02-23 15:00,ZGKL 231500Z 01003MPS 9999 SCT033 OVC066 08/04 Q1034 NOSIG
ZGKL,2025-02-23 16:00,ZGKL 231600Z 05003MPS 9999 SCT033 OVC066 08/03 Q1034 NOSIG
ZGKL,2025-02-23 17:00,ZGKL 231700Z 05003MPS 020V080 9999 SCT033 OVC066 08/03 Q1034 NOSIG
ZGKL,2025-02-23 18:00,ZGKL 231800Z 04004MPS 9999 SCT033 OVC066 08/03 Q1034 NOSIG
ZGKL,2025-02-23 19:00,ZGKL 231900Z 03003MPS 9999 SCT033 OVC066 08/03 Q1033 NOSIG
ZGKL,2025-02-23 20:00,ZGKL 232000Z 03003MPS 9999 SCT033 OVC066 08/04 Q1033 NOSIG
ZGKL,2025-02-23 21:00,ZGKL 232100Z VRB01MPS 9999 SCT033 OVC066 07/04 Q1032 NOSIG
ZGKL,2025-02-23 22:00,ZGKL 232200Z 02002MPS 9000 FEW030 SCT046 OVC066 08/04 Q1032 NOSIG
ZGKL,2025-02-23 23:00,ZGKL 232300Z 00000MPS 6000 SCT046 OVC066 07/04 Q1033 NOSIG
ZGKL,2025-02-24 00:00,ZGKL 240000Z VRB01MPS 6000 SCT046 OVC060 08/05 Q1033 NOSIG
ZGKL,2025-02-24 01:00,ZGKL 240100Z 04003MPS 7000 SCT033 OVC050 09/04 Q1033 NOSIG
ZGKL,2025-02-24 02:00,ZGKL 240200Z 04003MPS 6000 SCT033 OVC050 10/04 Q1034 NOSIG
ZGKL,2025-02-24 03:00,ZGKL 240300Z 04004MPS 010V080 7000 SCT030 OVC050 10/03 Q1034 NOSIG
ZGKL,2025-02-24 04:00,ZGKL 240400Z 03005MPS 7000 SCT030 OVC050 10/04 Q1033 NOSIG
ZGKL,2025-02-24 05:00,ZGKL 240500Z 04004MPS 6000 SCT030 OVC050 11/03 Q1032 NOSIG
ZGKL,2025-02-24 06:00,ZGKL 240600Z 05005MPS 7000 SCT033 OVC050 11/03 Q1030 NOSIG
ZGKL,2025-02-24 07:00,ZGKL 240700Z 04005MPS 7000 SCT033 OVC050 11/03 Q1029 NOSIG
ZGKL,2025-02-24 08:00,ZGKL 240800Z 06004MPS 7000 SCT036 OVC053 12/03 Q1028 NOSIG
ZGKL,2025-02-24 09:00,ZGKL 240900Z 07002MPS 7000 SCT036 OVC053 11/03 Q1028 NOSIG
ZGKL,2025-02-24 10:00,ZGKL 241000Z 05003MPS 7000 SCT036 OVC050 11/03 Q1028 NOSIG
ZGKL,2025-02-24 11:00,ZGKL 241100Z 06003MPS 010V080 6000 SCT036 OVC050 11/03 Q1028 NOSIG
ZGKL,2025-02-24 12:00,ZGKL 241200Z 06003MPS 6000 SCT033 OVC050 10/03 Q1028 NOSIG
ZGKL,2025-02-24 13:00,ZGKL 241300Z 03003MPS 7000 SCT033 OVC050 10/04 Q1028 NOSIG
ZGKL,2025-02-24 14:00,ZGKL 241400Z VRB01MPS 7000 SCT033 OVC050 10/04 Q1029 NOSIG
ZGKL,2025-02-24 15:00,ZGKL 241500Z VRB01MPS 6000 SCT033 OVC050 09/04 Q1029 NOSIG
ZGKL,2025-02-24 16:00,ZGKL 241600Z VRB01MPS 7000 SCT033 OVC050 09/05 Q1028 NOSIG
ZGKL,2025-02-24 17:00,ZGKL 241700Z VRB01MPS 7000 SCT033 OVC050 09/04 Q1028 NOSIG
ZGKL,2025-02-24 18:00,ZGKL 241800Z VRB01MPS 7000 SCT033 OVC050 09/04 Q1028 NOSIG
ZGKL,2025-02-24 19:00,ZGKL 241900Z VRB01MPS 6000 SCT033 OVC050 09/04 Q1028 NOSIG
ZGKL,2025-02-24 20:00,ZGKL 242000Z VRB01MPS 6000 SCT036 OVC053 09/04 Q1028 NOSIG
ZGKL,2025-02-24 21:00,ZGKL 242100Z 04002MPS 6000 SCT036 OVC053 09/04 Q1028 NOSIG
ZGKL,2025-02-24 22:00,ZGKL 242200Z 02002MPS 5000 HZ SCT036 OVC053 09/04 Q1028 NOSIG
ZGKL,2025-02-24 23:00,ZGKL 242300Z 02003MPS 5000 BR SCT033 OVC050 09/05 Q1029 NOSIG
ZGKL,2025-02-25 00:00,ZGKL 250000Z 07002MPS 360V090 1800 -RA BR FEW013 SCT026 OVC043 07/06 Q1030 BECMG FM0100 3000
ZGKL,2025-02-25 01:00,ZGKL 250100Z VRB01MPS 1300 R01/1800N -RA BR FEW010 SCT026 OVC040 08/07 Q1031 BECMG TL0230 2000
ZGKL,2025-02-25 02:00,ZGKL 250200Z 05001MPS 1500 -RA BR FEW004 SCT026 OVC040 08/07 Q1031 NOSIG
ZGKL,2025-02-25 03:00,ZGKL 250300Z VRB01MPS 2100 -DZ BR FEW004 SCT026 OVC040 08/08 Q1031 BECMG TL0430 3000
ZGKL,2025-02-25 04:00,ZGKL 250400Z VRB01MPS 2700 BR FEW010 SCT026 OVC043 08/08 Q1030 BECMG TL0530 3000
ZGKL,2025-02-25 05:00,ZGKL 250500Z 00000MPS 3200 BR FEW010 SCT023 OVC040 09/08 Q1029 NOSIG
ZGKL,2025-02-25 06:00,ZGKL 250600Z VRB01MPS 3000 -DZ BR FEW010 SCT023 OVC040 08/08 Q1029 BECMG FM0700 2500
ZGKL,2025-02-25 07:00,ZGKL 250700Z VRB01MPS 3000 -DZ BR FEW010 SCT023 OVC040 09/08 Q1028 BECMG FM0800 2500
ZGKL,2025-02-25 08:00,ZGKL 250800Z VRB02MPS 2800 -DZ BR FEW010 SCT023 OVC040 09/08 Q1027 BECMG FM0900 3000
ZGKL,2025-02-25 09:00,ZGKL 250900Z VRB01MPS 3800 BR FEW010 SCT026 OVC040 09/08 Q1027 NOSIG
ZGKL,2025-02-25 10:00,ZGKL 251000Z VRB01MPS 4200 BR FEW010 SCT026 OVC040 09/08 Q1027 NOSIG
ZGKL,2025-02-25 11:00,ZGKL 251100Z VRB01MPS 4500 BR FEW010 SCT026 OVC040 09/08 Q1027 NOSIG
ZGKL,2025-02-25 12:00,ZGKL 251200Z VRB01MPS 4200 BR FEW013 SCT026 OVC043 09/08 Q1028 NOSIG
ZGKL,2025-02-25 13:00,ZGKL 251300Z VRB01MPS 3800 BR FEW013 SCT026 OVC043 09/08 Q1028 BECMG FM1430 2800
ZGKL,2025-02-25 14:00,ZGKL 251400Z VRB01MPS 3300 BR SCT030 OVC046 09/08 Q1029 BECMG FM1530 2500
ZGKL,2025-02-25 15:00,ZGKL 251500Z VRB01MPS 2900 BR SCT026 OVC046 09/09 Q1029 NOSIG
ZGKL,2025-02-25 16:00,ZGKL 251600Z 00000MPS 2800 BR SCT026 OVC046 09/09 Q1029 NOSIG
ZGKL,2025-02-25 17:00,ZGKL 251700Z 00000MPS 3200 BR SCT026 OVC046 09/09 Q1028 NOSIG
ZGKL,2025-02-25 18:00,ZGKL 251800Z 25001MPS 2500 -RA BR SCT026 OVC040 09/09 Q1028 NOSIG
ZGKL,2025-02-25 19:00,ZGKL 251900Z 35001MPS 2200 -DZ BR FEW010 SCT023 OVC036 09/09 Q1027 NOSIG
ZGKL,2025-02-25 20:00,ZGKL 252000Z VRB01MPS 3000 -DZ BR FEW010 SCT023 OVC036 08/08 Q1026 NOSIG
ZGKL,2025-02-25 21:00,ZGKL 252100Z 00000MPS 2200 -RA BR FEW005 SCT023 OVC036 08/08 Q1026 NOSIG
ZGKL,2025-02-25 22:00,ZGKL 252200Z 20001MPS 2000 -RA BR FEW004 SCT023 OVC036 08/08 Q1026 BECMG FM2300 1400
ZGKL,2025-02-25 23:00,ZGKL 252300Z 15001MPS 2100 -RA BR FEW004 BKN023 OVC036 08/08 Q1027 NOSIG
ZGKL,2025-02-26 00:00,ZGKL 260000Z 20001MPS 1200 R19/1700N -RA BR FEW003 BKN023 OVC036 09/09 Q1027 BECMG TL0130 1600
ZGKL,2025-02-26 01:00,ZGKL 260100Z VRB01MPS 1800 -RA BR FEW004 BKN023 OVC036 09/09 Q1027 BECMG FM0230 3200
ZGKL,2025-02-26 02:00,ZGKL 260200Z VRB01MPS 2800 -RA BR FEW004 BKN023 OVC036 09/09 Q1027 BECMG TL0300 3200
ZGKL,2025-02-26 03:00,ZGKL 260300Z VRB01MPS 3200 -RA BR FEW004 BKN023 OVC036 10/09 Q1027 NOSIG
ZGKL,2025-02-26 04:00,ZGKL 260400Z VRB01MPS 3000 -RA BR FEW004 BKN023 OVC036 10/09 Q1026 NOSIG
ZGKL,2025-02-26 05:00,ZGKL 260500Z 15002MPS 3500 -RA BR FEW003 SCT010 OVC036 10/09 Q1024 NOSIG
ZGKL,2025-02-26 06:00,ZGKL 260600Z VRB01MPS 4000 -RA BR FEW005 SCT010 BKN023 10/09 Q1023 TEMPO SHRA FEW005 FEW030CB BKN040
ZGKL,2025-02-26 07:00,ZGKL 260700Z 15003MPS 3400 BR FEW003 SCT010 BKN023 10/10 Q1021 TEMPO SHRA FEW003 FEW030CB BKN040
ZGKL,2025-02-26 08:00,ZGKL 260800Z VRB01MPS 5000 BR FEW005 SCT011 BKN023 10/09 Q1021 NOSIG
ZGKL,2025-02-26 09:00,ZGKL 260900Z VRB01MPS 4000 -RA BR FEW013 SCT020 OVC040 10/09 Q1020 NOSIG
ZGKL,2025-02-26 10:00,ZGKL 261000Z VRB01MPS 4000 BR FEW010 SCT026 OVC043 10/10 Q1021 NOSIG
ZGKL,2025-02-26 11:00,ZGKL 261100Z VRB01MPS 4000 BR FEW010 SCT026 OVC043 10/10 Q1021 NOSIG
ZGKL,2025-02-26 12:00,ZGKL 261200Z 00000MPS 4000 -RA BR FEW005 SCT026 OVC043 10/10 Q1021 BECMG FM1330 2800
ZGKL,2025-02-26 13:00,ZGKL 261300Z VRB01MPS 3000 -RA BR FEW005 SCT026 OVC043 10/10 Q1022 BECMG TL1400 2800
ZGKL,2025-02-26 14:00,ZGKL 261400Z 00000MPS 2800 -RA BR FEW005 SCT026 OVC043 10/10 Q1022 BECMG TL1500 3100
ZGKL,2025-02-26 15:00,ZGKL 261500Z VRB01MPS 3000 -RA BR FEW005 SCT026 OVC043 10/10 Q1022 NOSIG
ZGKL,2025-02-26 16:00,ZGKL 261600Z VRB01MPS 3000 -RA BR SCT004 SCT023 OVC036 10/10 Q1022 BECMG TL1700 2000
ZGKL,2025-02-26 17:00,ZGKL 261700Z 00000MPS 2800 BR SCT003 SCT020 OVC033 10/10 Q1021 NOSIG
ZGKL,2025-02-26 18:00,ZGKL 261800Z VRB01MPS 3000 BR SCT005 SCT023 OVC033 10/10 Q1020 BECMG TL1950 2000
ZGKL,2025-02-26 19:00,ZGKL 261900Z 00000MPS 3000 -RA BR FEW004 SCT020 OVC033 10/10 Q1020 BECMG TL2050 1400
ZGKL,2025-02-26 20:00,ZGKL 262000Z 14001MPS 2800 -RA BR FEW004 SCT020 OVC033 10/10 Q1019 NOSIG
ZGKL,2025-02-26 21:00,ZGKL 262100Z VRB01MPS 2800 -DZ BR FEW004 SCT020 OVC033 10/10 Q1019 NOSIG
ZGKL,2025-02-26 22:00,ZGKL 262200Z 00000MPS 2800 -DZ BR FEW004 SCT020 OVC033 10/10 Q1019 NOSIG
ZGKL,2025-02-26 23:00,ZGKL 262300Z 00000MPS 2000 -DZ BR FEW004 SCT020 OVC033 10/10 Q1020 NOSIG
ZGKL,2025-02-27 00:00,ZGKL 270000Z 00000MPS 1600 -DZ BR FEW004 SCT020 OVC033 10/10 Q1020 TEMPO TL0040 1400
ZGKL,2025-02-27 01:00,ZGKL 270100Z 00000MPS 2000 -DZ BR FEW004 SCT023 OVC036 10/10 Q1020 BECMG FM0240 3000
ZGKL,2025-02-27 02:00,ZGKL 270200Z 00000MPS 2000 -DZ BR FEW003 SCT008 OVC036 11/11 Q1021 NOSIG
ZGKL,2025-02-27 03:00,ZGKL 270300Z 00000MPS 3600 BR FEW005 SCT023 OVC040 11/11 Q1020 NOSIG
ZGKL,2025-02-27 04:00,ZGKL 270400Z VRB01MPS 4000 -DZ BR FEW005 SCT020 OVC033 11/11 Q1020 NOSIG
ZGKL,2025-02-27 05:00,ZGKL 270500Z VRB01MPS 3200 -DZ BR FEW005 SCT010 OVC040 12/12 Q1018 BECMG FM0600 2700
ZGKL,2025-02-27 06:00,ZGKL 270600Z 00000MPS 2900 -DZ BR FEW005 SCT023 OVC040 13/12 Q1017 BECMG TL0640 3500
ZGKL,2025-02-27 07:00,ZGKL 270700Z 00000MPS 5000 BR FEW005 SCT023 OVC040 13/12 Q1016 NOSIG
ZGKL,2025-02-27 08:00,ZGKL 270800Z 00000MPS 6000 FEW005 SCT023 OVC040 13/12 Q1015 NOSIG
ZGKL,2025-02-27 09:00,ZGKL 270900Z VRB01MPS 3200 -RA BR FEW005 SCT026 OVC040 13/13 Q1015 BECMG FM1000 2500
ZGKL,2025-02-27 10:00,ZGKL 271000Z VRB01MPS 2200 -RA BR FEW005 SCT010 BKN023 13/13 Q1015 NOSIG
ZGKL,2025-02-27 11:00,ZGKL 271100Z VRB01MPS 2200 -RA BR FEW004 SCT010 BKN020 13/13 Q1015 NOSIG
ZGKL,2025-02-27 12:00,ZGKL 271200Z VRB01MPS 2000 -RA BR FEW006 SCT013 BKN020 13/13 Q1015 NOSIG
ZGKL,2025-02-27 13:00,ZGKL 271300Z 00000MPS 2800 BR FEW003 SCT013 OVC033 13/13 Q1016 BECMG FM1440 3000
ZGKL,2025-02-27 14:00,ZGKL 271400Z 00000MPS 2800 BR FEW003 SCT013 OVC033 13/13 Q1016 BECMG FM1500 3000
ZGKL,2025-02-27 15:00,ZGKL 271500Z VRB01MPS 3200 BR FEW002 SCT010 BKN020 13/13 Q1017 NOSIG
ZGKL,2025-02-27 16:00,ZGKL 271600Z VRB01MPS 3500 BR FEW002 SCT010 BKN026 13/13 Q1017 NOSIG
ZGKL,2025-02-27 17:00,ZGKL 271700Z 15001MPS 3300 BR FEW009 SCT026 OVC053 13/13 Q1017 NOSIG
ZGKL,2025-02-27 18:00,ZGKL 271800Z VRB01MPS 3000 BR FEW002 SCT026 OVC046 13/13 Q1016 NOSIG
ZGKL,2025-02-27 19:00,ZGKL 271900Z VRB01MPS 1600 R01/1200D BR FEW002 SCT010 OVC040 13/13 Q1015 NOSIG
ZGKL,2025-02-27 20:00,ZGKL 272000Z VRB01MPS 1700 PRFG BR FEW002 SCT010 BKN023 12/12 Q1014 NOSIG
ZGKL,2025-02-27 21:00,ZGKL 272100Z 00000MPS 1400 R01/0550U PRFG BR FEW002 BKN023 OVC040 12/12 Q1014 NOSIG
ZGKL,2025-02-27 22:00,ZGKL 272200Z 25001MPS 0700 R01/0700D FG FEW002 BKN020 OVC033 12/12 Q1014 TEMPO 0500
ZGKL,2025-02-27 23:00,ZGKL 272300Z 00000MPS 1400 R01/P2000 PRFG BR FEW003 SCT013 BKN020 12/12 Q1015 BECMG FM0000 1600
ZGKL,2025-02-28 00:00,ZGKL 280000Z 00000MPS 1600 PRFG BR FEW005 SCT013 BKN023 13/13 Q1016 NOSIG
ZGKL,2025-02-28 01:00,ZGKL 280100Z 00000MPS 2300 BR BKN023 BKN040 13/13 Q1017 BECMG FM0200 3000
ZGKL,2025-02-28 02:00,ZGKL 280200Z VRB01MPS 2900 BR BKN023 OVC040 14/14 Q1017 BECMG FM0300 3500
ZGKL,2025-02-28 03:00,ZGKL 280300Z VRB01MPS 3400 BR BKN026 OVC043 15/15 Q1017 NOSIG
ZGKL,2025-02-28 04:00,ZGKL 280400Z VRB01MPS 4000 BR BKN026 OVC043 15/15 Q1016 NOSIG
ZGKL,2025-02-28 05:00,ZGKL 280500Z VRB01MPS 3800 -RA BR BKN026 OVC050 17/16 Q1015 BECMG FM0630 2800
ZGKL,2025-02-28 06:00,ZGKL 280600Z 34001MPS 3400 -RA BR BKN026 OVC050 17/16 Q1014 BECMG FM0700 2800
ZGKL,2025-02-28 07:00,ZGKL 280700Z VRB01MPS 2900 -RA BR FEW020 BKN026 OVC050 17/17 Q1013 BECMG TL0800 3500
ZGKL,2025-02-28 08:00,ZGKL 280800Z VRB01MPS 2800 BR FEW020 BKN030 OVC050 17/17 Q1013 BECMG FM0900 3200
ZGKL,2025-02-28 09:00,ZGKL 280900Z VRB01MPS 4000 BR SCT033 BKN053 18/17 Q1012 NOSIG
ZGKL,2025-02-28 10:00,ZGKL 281000Z 33002MPS 300V360 3800 BR FEW023 SCT033 BKN060 17/17 Q1012 BECMG FM1130 2800
ZGKL,2025-02-28 11:00,ZGKL 281100Z VRB01MPS 2500 BR FEW015 SCT023 OVC046 17/17 Q1012 NOSIG
ZGKL,2025-02-28 12:00,ZGKL 281200Z VRB01MPS 2200 BR FEW015 SCT026 BKN046 16/16 Q1012 NOSIG
ZGKL,2025-02-28 13:00,ZGKL 281300Z VRB01MPS 2400 BR SCT026 OVC050 17/17 Q1013 NOSIG
ZGKL,2025-02-28 14:00,ZGKL 281400Z VRB01MPS 2800 BR SCT030 OVC050 16/16 Q1013 NOSIG
ZGKL,2025-02-28 15:00,ZGKL 281500Z VRB01MPS 2200 BR SCT030 OVC050 16/16 Q1014 NOSIG
ZGKL,2025-02-28 16:00,ZGKL 281600Z 18001MPS 2000 BR SCT030 OVC050 16/16 Q1014 NOSIG
ZGKL,2025-02-28 17:00,ZGKL 281700Z 16002MPS 2500 BR SCT033 OVC050 16/16 Q1013 NOSIG
ZGKL,2025-02-28 18:00,ZGKL 281800Z VRB01MPS 2500 BR SCT033 OVC050 16/16 Q1013 NOSIG
ZGKL,2025-02-28 19:00,ZGKL 281900Z 20001MPS 2700 BR SCT033 OVC050 16/16 Q1012 NOSIG
ZGKL,2025-02-28 20:00,ZGKL 282000Z VRB01MPS 2800 BR SCT033 OVC050 17/17 Q1012 NOSIG
ZGKL,2025-02-28 21:00,ZGKL 282100Z 17003MPS 7000 SCT033 OVC050 19/17 Q1012 NOSIG
ZGKL,2025-02-28 22:00,ZGKL 282200Z 18003MPS 9000 SCT033 OVC050 18/17 Q1012 NOSIG
ZGKL,2025-02-28 23:00,ZGKL 282300Z VRB01MPS 8000 BKN030 OVC046 18/17 Q1012 NOSIG
ZGKL,2025-03-01 00:00,ZGKL 010000Z VRB01MPS 8000 BKN030 BKN046 18/17 Q1013 NOSIG
ZGKL,2025-03-01 01:00,COR ZGKL 010100Z VRB05MPS 9999 FEW020 BKN030 OVC046 20/18 Q1013 BECMG FM0200 18005MPS
ZGKL,2025-03-01 02:00,ZGKL 010200Z 17005MPS 9999 FEW020 BKN030 OVC046 20/18 Q1013 NOSIG
ZGKL,2025-03-01 03:00,ZGKL 010300Z 16006MPS 9000 BKN033 OVC050 20/18 Q1013 NOSIG
ZGKL,2025-03-01 04:00,ZGKL 010400Z 18005MPS 9000 FEW023 BKN033 OVC050 20/18 Q1012 NOSIG
ZGKL,2025-03-01 05:00,ZGKL 010500Z 20003MPS 160V250 9999 -RA FEW010 SCT026 OVC043 21/18 Q1011 NOSIG
ZGKL,2025-03-01 06:00,ZGKL 010600Z 16003MPS 9999 FEW010 SCT026 OVC043 21/18 Q1009 NOSIG
ZGKL,2025-03-01 07:00,ZGKL 010700Z VRB01MPS 9999 SCT026 OVC046 21/18 Q1008 NOSIG
ZGKL,2025-03-01 08:00,ZGKL 010800Z VRB01MPS 9999 SCT026 BKN050 21/19 Q1008 NOSIG
ZGKL,2025-03-01 09:00,ZGKL 010900Z VRB01MPS 9999 SCT026 BKN050 21/19 Q1007 NOSIG
ZGKL,2025-03-01 10:00,ZGKL 011000Z VRB01MPS 9999 SCT030 BKN053 21/19 Q1007 NOSIG
ZGKL,2025-03-01 11:00,ZGKL 011100Z VRB01MPS 8000 FEW023 SCT036 BKN053 20/19 Q1007 NOSIG
ZGKL,2025-03-01 12:00,ZGKL 011200Z VRB01MPS 8000 SCT036 BKN050 19/19 Q1007 NOSIG
ZGKL,2025-03-01 13:00,ZGKL 011300Z VRB01MPS 7000 SCT036 BKN050 19/19 Q1008 NOSIG
ZGKL,2025-03-01 14:00,ZGKL 011400Z 35001MPS 5000 BR FEW036 SCT050 18/18 Q1008 NOSIG
ZGKL,2025-03-01 15:00,ZGKL 011500Z 22001MPS 1200 R01/0400D PRFG BR NSC 16/16 Q1008 TEMPO 0700 FG
ZGKL,2025-03-01 16:00,ZGKL 011600Z VRB01MPS 1200 R19/1900U PRFG BR NSC 17/17 Q1008 TEMPO 0700 FG
ZGKL,2025-03-01 17:00,ZGKL 011700Z VRB01MPS 3000 BR SCT026 OVC046 17/17 Q1008 NOSIG
ZGKL,2025-03-01 18:00,ZGKL 011800Z 18002MPS 100V250 5000 BR SCT026 OVC046 18/18 Q1009 NOSIG
ZGKL,2025-03-01 19:00,ZGKL 011900Z 18006MPS 6000 FEW026 OVC046 21/17 Q1008 NOSIG
ZGKL,2025-03-01 20:00,ZGKL 012000Z 18005MPS 9999 SCT026 OVC040 21/17 Q1008 NOSIG
ZGKL,2025-03-01 21:00,ZGKL 012100Z 17007MPS 9999 -RA SCT026 OVC040 20/18 Q1008 NOSIG
ZGKL,2025-03-01 22:00,ZGKL 012200Z 17004MPS 9000 -RA SCT026 OVC040 19/19 Q1009 NOSIG
ZGKL,2025-03-01 23:00,ZGKL 012300Z 18002MPS 7000 -RA FEW016 SCT026 OVC040 19/19 Q1009 NOSIG
ZGKL,2025-03-02 00:00,ZGKL 020000Z VRB01MPS 4000 -RA BR FEW020 SCT026 OVC040 19/19 Q1010 BECMG FM0100 18005MPS
ZGKL,2025-03-02 01:00,ZGKL 020100Z 00000MPS 3400 -RA BR FEW020 SCT026 OVC040 19/19 Q1011 BECMG TL0200 18006MPS
ZGKL,2025-03-02 02:00,ZGKL 020200Z 19003MPS 8000 FEW020 SCT030 OVC046 20/19 Q1010 NOSIG
ZGKL,2025-03-02 03:00,ZGKL 020300Z VRB01MPS 8000 SCT030 OVC046 20/20 Q1010 BECMG FM0400 18005MPS
ZGKL,2025-03-02 04:00,ZGKL 020400Z VRB01MPS 9999 SCT030 OVC050 20/20 Q1010 NOSIG
ZGKL,2025-03-02 05:00,ZGKL 020500Z VRB01MPS 9999 SCT026 OVC050 22/19 Q1009 NOSIG
ZGKL,2025-03-02 06:00,ZGKL 020600Z VRB01MPS 9999 SCT030 BKN050 23/19 Q1008 NOSIG
ZGKL,2025-03-02 07:00,ZGKL 020700Z 26002MPS 200V330 9999 FEW030 SCT053 25/19 Q1006 BECMG FM0830 18005MPS
ZGKL,2025-03-02 08:00,ZGKL 020800Z 20005MPS 170V240 9999 FEW033 27/18 Q1006 NOSIG
ZGKL,2025-03-02 09:00,ZGKL 020900Z 22005MPS CAVOK 28/19 Q1005 NOSIG
ZGKL,2025-03-02 10:00,ZGKL 021000Z 21003MPS 190V250 CAVOK 26/18 Q1005 NOSIG
ZGKL,2025-03-02 11:00,ZGKL 021100Z 18002MPS 9999 FEW033 22/18 Q1005 NOSIG
ZGKL,2025-03-02 12:00,ZGKL 021200Z 28002MPS 9999 FEW060 22/18 Q1006 NOSIG
ZGKL,2025-03-02 13:00,ZGKL 021300Z VRB01MPS 9999 SCT053 20/19 Q1006 NOSIG
ZGKL,2025-03-02 14:00,ZGKL 021400Z VRB01MPS 9999 FEW053 19/19 Q1007 NOSIG
ZGKL,2025-03-02 15:00,ZGKL 021500Z 14001MPS 8000 FEW053 18/18 Q1007 NOSIG
ZGKL,2025-03-02 16:00,ZGKL 021600Z VRB01MPS 7000 BKN050 18/18 Q1008 NOSIG
ZGKL,2025-03-02 17:00,ZGKL 021700Z 36001MPS 7000 SCT046 BKN060 18/18 Q1008 NOSIG
ZGKL,2025-03-02 18:00,ZGKL 021800Z VRB01MPS 7000 SCT040 BKN060 18/18 Q1008 NOSIG
ZGKL,2025-03-02 19:00,ZGKL 021900Z VRB01MPS 6000 SCT040 BKN060 18/18 Q1007 NOSIG
ZGKL,2025-03-02 20:00,ZGKL 022000Z 00000MPS 6000 SCT040 BKN060 18/18 Q1007 NOSIG
ZGKL,2025-03-02 21:00,ZGKL 022100Z VRB01MPS 8000 SCT040 BKN060 18/18 Q1007 NOSIG
ZGKL,2025-03-02 22:00,ZGKL 022200Z VRB01MPS 8000 SCT040 BKN060 18/18 Q1008 NOSIG
ZGKL,2025-03-02 23:00,ZGKL 022300Z VRB01MPS 9999 BKN036 OVC060 19/18 Q1009 NOSIG
ZGKL,2025-03-03 00:00,ZGKL 030000Z 20002MPS 9999 BKN036 OVC060 21/19 Q1009 NOSIG
ZGKL,2025-03-03 01:00,ZGKL 030100Z 19003MPS 9999 BKN033 OVC053 22/19 Q1010 BECMG FM0200 05006MPS
ZGKL,2025-03-03 02:00,ZGKL 030200Z 17003MPS 9999 BKN030 OVC053 23/19 Q1010 NOSIG
ZGKL,2025-03-03 03:00,ZGKL 030300Z 18003MPS 9999 BKN026 OVC050 23/19 Q1010 NOSIG
ZGKL,2025-03-03 04:00,ZGKL 030400Z VRB01MPS 9999 BKN026 OVC053 24/19 Q1010 BECMG FM0500 05006MPS
ZGKL,2025-03-03 05:00,ZGKL 030500Z VRB01MPS 8000 BKN030 OVC050 24/20 Q1009 NOSIG
ZGKL,2025-03-03 06:00,ZGKL 030600Z VRB01MPS 9000 FEW030 BKN046 26/19 Q1008 NOSIG
ZGKL,2025-03-03 07:00,ZGKL 030700Z 16002MPS 110V190 9000 FEW046 BKN073 27/19 Q1007 NOSIG
ZGKL,2025-03-03 08:00,ZGKL 030800Z 06004MPS 9000 FEW023 SCT050 25/18 Q1007 NOSIG
ZGKL,2025-03-03 09:00,ZGKL 030900Z 04005MPS 9000 FEW023 SCT043 22/16 Q1007 NOSIG
ZGKL,2025-03-03 10:00,ZGKL 031000Z 05008MPS 9000 SCT030 BKN060 18/14 Q1008 NOSIG
ZGKL,2025-03-03 11:00,ZGKL 031100Z 05005MPS 020V090 9000 SCT026 BKN053 16/12 Q1010 NOSIG
ZGKL,2025-03-03 12:00,ZGKL 031200Z 05004MPS 9999 SCT025 OVC050 14/11 Q1012 NOSIG
ZGKL,2025-03-03 13:00,ZGKL 031300Z 04005MPS 9999 SCT025 OVC050 14/10 Q1013 NOSIG
ZGKL,2025-03-03 14:00,ZGKL 031400Z 05004MPS 020V080 9999 SCT026 OVC050 13/09 Q1014 NOSIG
ZGKL,2025-03-03 15:00,ZGKL 031500Z 06005MPS 030V090 9999 SCT030 OVC053 12/08 Q1015 NOSIG
ZGKL,2025-03-03 16:00,ZGKL 031600Z 05006MPS 9999 SCT026 OVC050 11/07 Q1015 BECMG FM1730 2800 TSRA BR FEW010 SCT030CB BKN050
ZGKL,2025-03-03 17:00,ZGKL 031700Z 06005MPS 030V090 9999 -TSRA FEW026CB SCT026 BKN043 10/07 Q1015 BECMG FM1720 2800 TSRA BR
ZGKL,2025-03-03 18:00,ZGKL 031800Z VRB03G08MPS 9999 -TSRA FEW010 FEW026CB SCT026 BKN043 09/08 Q1014 BECMG FM1830 TSRA
ZGKL,2025-03-03 19:00,ZGKL 031900Z 05005MPS 9999 -SHRA FEW026CB SCT026 BKN043 08/08 Q1015 RETS BECMG FM2010 TSRA
ZGKL,2025-03-03 20:00,ZGKL 032000Z 30004MPS 250V040 9999 -TSRA FEW026CB SCT026 BKN043 08/08 Q1017 BECMG FM2030 05005MPS
ZGKL,2025-03-03 21:00,ZGKL 032100Z 03003MPS 360V070 9999 -TSRA FEW006 FEW026CB SCT026 BKN046 08/08 Q1014 RESHRA BECMG FM2200 -SHRA
ZGKL,2025-03-03 22:00,ZGKL 032200Z 07003MPS 360V120 9999 -TSRA FEW006 FEW026CB SCT026 BKN050 08/07 Q1015 RESHRA BECMG TL2250 -SHRA
ZGKL,2025-03-03 23:00,ZGKL 032300Z 02002MPS 340V070 9999 FEW023 SCT033 OVC053 07/06 Q1016 RETS NOSIG
ZGKL,2025-03-04 00:00,ZGKL 040000Z 04003MPS 020V080 9999 FEW009 SCT040 OVC060 08/06 Q1017 NOSIG
ZGKL,2025-03-04 01:00,ZGKL 040100Z 05004MPS 9999 FEW010 SCT040 OVC060 08/05 Q1018 NOSIG
ZGKL,2025-03-04 02:00,ZGKL 040200Z 06005MPS 9999 FEW010 SCT040 OVC060 08/05 Q1018 NOSIG
ZGKL,2025-03-04 03:00,ZGKL 040300Z 06005MPS 040V100 9999 SCT040 OVC060 08/05 Q1018 NOSIG
ZGKL,2025-03-04 04:00,ZGKL 040400Z 05005MPS 9999 SCT040 OVC060 09/05 Q1017 NOSIG
ZGKL,2025-03-04 05:00,ZGKL 040500Z 06005MPS 020V080 9999 SCT036 OVC053 09/05 Q1016 NOSIG
ZGKL,2025-03-04 06:00,ZGKL 040600Z 06004MPS 9999 SCT036 OVC060 09/05 Q1015 NOSIG
ZGKL,2025-03-04 07:00,ZGKL 040700Z 06003MPS 030V090 9999 FEW020 SCT036 OVC060 09/05 Q1014 NOSIG
ZGKL,2025-03-04 08:00,ZGKL 040800Z 05003MPS 9999 FEW023 SCT040 OVC060 09/04 Q1014 NOSIG
ZGKL,2025-03-04 09:00,ZGKL 040900Z 05004MPS 9999 FEW026 SCT036 OVC060 09/04 Q1014 NOSIG
ZGKL,2025-03-04 10:00,ZGKL 041000Z 05005MPS 9999 FEW026 SCT043 OVC066 08/04 Q1015 NOSIG
ZGKL,2025-03-04 11:00,ZGKL 041100Z 04005MPS 9999 FEW026 SCT043 OVC066 08/04 Q1015 NOSIG
ZGKL,2025-03-04 12:00,ZGKL 041200Z 05004MPS 9999 FEW026 SCT043 OVC066 07/03 Q1016 NOSIG
ZGKL,2025-03-04 13:00,ZGKL 041300Z 04005MPS 9999 FEW026 SCT043 OVC066 07/03 Q1017 NOSIG
ZGKL,2025-03-04 14:00,ZGKL 041400Z 05005MPS 020V080 9999 SCT043 OVC066 06/03 Q1018 NOSIG
ZGKL,2025-03-04 15:00,ZGKL 041500Z 04004MPS 9999 SCT043 OVC066 06/03 Q1018 NOSIG
ZGKL,2025-03-04 16:00,ZGKL 041600Z 05003MPS 020V110 9999 SCT026 OVC033 06/03 Q1018 NOSIG
ZGKL,2025-03-04 17:00,ZGKL 041700Z 05004MPS 9999 BKN026 OVC053 06/03 Q1017 NOSIG
ZGKL,2025-03-04 18:00,ZGKL 041800Z 04002MPS 360V070 9999 BKN026 OVC053 06/03 Q1017 NOSIG
ZGKL,2025-03-04 19:00,ZGKL 041900Z 03003MPS 350V070 9999 -RA BKN026 OVC050 06/03 Q1017 NOSIG
ZGKL,2025-03-04 20:00,ZGKL 042000Z 03002MPS 6000 -RA FEW006 BKN026 OVC046 05/04 Q1017 NOSIG
ZGKL,2025-03-04 21:00,ZGKL 042100Z 06003MPS 020V100 6000 -RA FEW006 BKN026 OVC046 05/04 Q1018 NOSIG
ZGKL,2025-03-04 22:00,ZGKL 042200Z 04002MPS 8000 -RA FEW006 BKN026 OVC046 05/04 Q1018 NOSIG
ZGKL,2025-03-04 23:00,ZGKL 042300Z VRB01MPS 9999 BKN026 OVC046 05/04 Q1018 NOSIG
ZGKL,2025-03-05 00:00,ZGKL 050000Z VRB01MPS 9999 BKN026 OVC046 05/04 Q1019 NOSIG
ZGKL,2025-03-05 01:00,ZGKL 050100Z 03002MPS 360V070 9999 BKN030 OVC053 06/04 Q1019 NOSIG
ZGKL,2025-03-05 02:00,ZGKL 050200Z VRB01MPS 9999 FEW010 BKN033 OVC060 06/04 Q1020 NOSIG
ZGKL,2025-03-05 03:00,ZGKL 050300Z 03002MPS 9999 FEW010 BKN030 OVC053 07/04 Q1020 NOSIG
ZGKL,2025-03-05 04:00,ZGKL 050400Z 05003MPS 9999 -RA FEW010 BKN026 OVC043 07/04 Q1020 BECMG FM0540 FEW030 FEW030CB BKN040
ZGKL,2025-03-05 05:00,ZGKL 050500Z 06004MPS 9999 FEW013 BKN026 FEW033CB BKN043 07/04 Q1019 BECMG TL0600 FEW020 BKN040
ZGKL,2025-03-05 06:00,ZGKL 050600Z 04003MPS 010V070 9999 FEW013 SCT026 OVC043 07/04 Q1019 BECMG FM0740 FEW010 FEW033CB BKN033
ZGKL,2025-03-05 07:00,ZGKL 050700Z 03005MPS 010V070 9999 FEW006 SCT026 OVC043 08/04 Q1019 BECMG TL0820 FEW008 FEW033CB BKN033
ZGKL,2025-03-05 08:00,ZGKL 050800Z 04004MPS 9999 FEW013 BKN030 FEW033CB BKN050 07/04 Q1019 BECMG TL0850 FEW007 SCT026 OVC040
ZGKL,2025-03-05 09:00,ZGKL 050900Z 04004MPS 9999 FEW013 BKN030 OVC050 07/03 Q1019 NOSIG
ZGKL,2025-03-05 10:00,ZGKL 051000Z 04003MPS 010V070 9999 FEW013 BKN030 OVC050 07/04 Q1020 NOSIG
ZGKL,2025-03-05 11:00,ZGKL 051100Z 03004MPS 360V060 9999 FEW020 BKN030 OVC050 07/03 Q1021 NOSIG
ZGKL,2025-03-05 12:00,ZGKL 051200Z 05004MPS 9999 BKN026 OVC046 07/03 Q1022 NOSIG
ZGKL,2025-03-05 13:00,ZGKL 051300Z 06003MPS 9999 BKN030 OVC053 07/04 Q1023 NOSIG
ZGKL,2025-03-05 14:00,ZGKL 051400Z 06003MPS 9999 SCT033 OVC053 07/04 Q1024 NOSIG
ZGKL,2025-03-05 15:00,ZGKL 051500Z 04003MPS 010V070 9999 SCT033 OVC053 07/03 Q1025 NOSIG
ZGKL,2025-03-05 16:00,ZGKL 051600Z 03003MPS 9999 SCT033 OVC053 07/03 Q1025 NOSIG
ZGKL,2025-03-05 17:00,ZGKL 051700Z 03003MPS 360V060 9999 FEW033CB SCT033 BKN050 07/03 Q1026 NOSIG
ZGKL,2025-03-05 18:00,ZGKL 051800Z 02003MPS 9999 -SHRA FEW033CB SCT033 BKN050 07/04 Q1026 NOSIG
ZGKL,2025-03-05 19:00,ZGKL 051900Z 02002MPS 9999 SCT033 OVC050 07/04 Q1026 NOSIG
ZGKL,2025-03-05 20:00,ZGKL 052000Z 04004MPS 9999 FEW033CB SCT033 BKN053 07/03 Q1025 NOSIG
ZGKL,2025-03-05 21:00,ZGKL 052100Z 05002MPS 9999 -SHRA FEW033CB SCT033 BKN053 06/04 Q1026 BECMG TL2200 SCT033 BKN050
ZGKL,2025-03-05 22:00,ZGKL 052200Z 05002MPS 020V080 9999 -RA SCT033 OVC053 06/04 Q1026 NOSIG
ZGKL,2025-03-05 23:00,ZGKL 052300Z 01003MPS 9999 FEW016 SCT033 OVC053 06/04 Q1027 NOSIG
ZGKL,2025-03-06 00:00,ZGKL 060000Z 03003MPS 9999 FEW020 SCT033 OVC053 07/04 Q1028 NOSIG
ZGKL,2025-03-06 01:00,ZGKL 060100Z 05004MPS 9999 FEW026 BKN043 07/04 Q1028 NOSIG
ZGKL,2025-03-06 02:00,ZGKL 060200Z 04005MPS 9999 FEW020 BKN040 09/03 Q1029 NOSIG
ZGKL,2025-03-06 03:00,ZGKL 060300Z 04007G12MPS 010V070 9999 FEW026 11/04 Q1028 NOSIG
ZGKL,2025-03-06 04:00,ZGKL 060400Z 02007MPS 9999 FEW016 SCT030 11/04 Q1027 NOSIG
ZGKL,2025-03-06 05:00,ZGKL 060500Z 05006MPS 9999 SCT033 BKN053 13/04 Q1027 NOSIG
ZGKL,2025-03-06 06:00,ZGKL 060600Z 02003MPS 340V060 9999 SCT033 BKN053 12/04 Q1026 NOSIG
ZGKL,2025-03-06 07:00,ZGKL 060700Z 02004MPS 9999 FEW020 SCT033 OVC053 12/04 Q1026 NOSIG
ZGKL,2025-03-06 08:00,ZGKL 060800Z 06006MPS 9999 SCT033 OVC050 12/04 Q1025 NOSIG
ZGKL,2025-03-06 09:00,ZGKL 060900Z 05006MPS 9999 SCT033 BKN046 11/04 Q1026 NOSIG
ZGKL,2025-03-06 10:00,ZGKL 061000Z 04007MPS 9999 SCT033 BKN050 10/04 Q1026 NOSIG
ZGKL,2025-03-06 11:00,ZGKL 061100Z 04006MPS 9999 BKN033 OVC060 09/04 Q1026 NOSIG
ZGKL,2025-03-06 12:00,ZGKL 061200Z 04005MPS 9999 BKN036 OVC060 09/04 Q1027 NOSIG
ZGKL,2025-03-06 13:00,ZGKL 061300Z 04003MPS 9999 BKN033 OVC053 09/04 Q1027 NOSIG
ZGKL,2025-03-06 14:00,ZGKL 061400Z 05003MPS 9999 BKN033 OVC053 09/04 Q1028 NOSIG
ZGKL,2025-03-06 15:00,ZGKL 061500Z 03004MPS 9999 BKN030 BKN043 08/04 Q1027 NOSIG
ZGKL,2025-03-06 16:00,ZGKL 061600Z 04003MPS 9999 SCT030 OVC046 08/04 Q1026 NOSIG
ZGKL,2025-03-06 17:00,ZGKL 061700Z 02003MPS 9999 SCT030 OVC046 08/04 Q1026 NOSIG
ZGKL,2025-03-06 18:00,ZGKL 061800Z 03003MPS 9999 SCT033 OVC050 08/04 Q1025 NOSIG
ZGKL,2025-03-06 19:00,ZGKL 061900Z VRB01MPS 8000 -SHRA FEW040CB SCT040 BKN060 08/05 Q1026 NOSIG
ZGKL,2025-03-06 20:00,ZGKL 062000Z VRB01MPS 7000 -SHRA FEW036CB SCT036 BKN053 07/06 Q1025 NOSIG
ZGKL,2025-03-06 21:00,ZGKL 062100Z VRB01MPS 7000 -SHRA FEW033CB SCT033 BKN050 07/06 Q1026 NOSIG
ZGKL,2025-03-06 22:00,ZGKL 062200Z VRB01MPS 4000 -SHRA BR FEW013 FEW026CB SCT026 BKN043 07/06 Q1026 TEMPO 2500 SHRA
ZGKL,2025-03-06 23:00,ZGKL 062300Z VRB01MPS 2300 -SHRA BR SCT023 FEW026CB BKN043 07/07 Q1026 BECMG FM0030 4000
ZGKL,2025-03-07 00:00,ZGKL 070000Z VRB01MPS 2800 -SHRA BR SCT023 OVC043 07/06 Q1027 BECMG FM0100 4000
ZGKL,2025-03-07 01:00,ZGKL 070100Z VRB01MPS 4000 -RA BR SCT033 OVC053 07/07 Q1028 NOSIG
ZGKL,2025-03-07 02:00,ZGKL 070200Z VRB01MPS 6000 FEW005 BKN036 BKN053 09/07 Q1028 NOSIG
ZGKL,2025-03-07 03:00,ZGKL 070300Z 05002MPS 010V090 9999 FEW005 SCT036 BKN050 10/07 Q1027 NOSIG
ZGKL,2025-03-07 04:00,ZGKL 070400Z 06003MPS 010V100 9999 FEW013 BKN056 12/07 Q1026 NOSIG
ZGKL,2025-03-07 05:00,ZGKL 070500Z 04004MPS 340V090 9999 FEW013 BKN056 12/05 Q1025 NOSIG
ZGKL,2025-03-07 06:00,ZGKL 070600Z 01004MPS 350V050 9999 FEW013 BKN056 12/05 Q1024 NOSIG
ZGKL,2025-03-07 07:00,ZGKL 070700Z 36004MPS 320V040 9999 FEW013 BKN056 12/06 Q1023 NOSIG
ZGKL,2025-03-07 08:00,ZGKL 070800Z 01004MPS 9999 FEW013 BKN056 12/06 Q1023 NOSIG
ZGKL,2025-03-07 09:00,ZGKL 070900Z 05004MPS 9999 FEW013 SCT026 BKN056 12/05 Q1022 NOSIG
ZGKL,2025-03-07 10:00,ZGKL 071000Z 06004MPS 9999 FEW013 SCT026 BKN056 11/05 Q1022 NOSIG
ZGKL,2025-03-07 11:00,ZGKL 071100Z 05005MPS 9000 SCT030 OVC050 10/04 Q1023 NOSIG
ZGKL,2025-03-07 12:00,ZGKL 071200Z 05004MPS 9999 SCT030 BKN066 10/04 Q1024 NOSIG
ZGKL,2025-03-07 13:00,ZGKL 071300Z 36003MPS 9999 SCT030 BKN066 09/04 Q1024 NOSIG
ZGKL,2025-03-07 14:00,ZGKL 071400Z 33002MPS 9999 SCT033 09/05 Q1025 NOSIG
ZGKL,2025-03-07 15:00,ZGKL 071500Z VRB01MPS 9999 SCT033 09/05 Q1025 NOSIG
ZGKL,2025-03-07 16:00,ZGKL 071600Z 34001MPS 9999 SCT033 09/05 Q1024 NOSIG
ZGKL,2025-03-07 17:00,ZGKL 071700Z VRB01MPS 9999 FEW050 09/06 Q1025 NOSIG
ZGKL,2025-03-07 18:00,ZGKL 071800Z 00000MPS 9999 FEW050 09/06 Q1024 NOSIG
ZGKL,2025-03-07 19:00,ZGKL 071900Z 25001MPS 9999 FEW040 BKN066 09/07 Q1023 NOSIG
ZGKL,2025-03-07 20:00,ZGKL 072000Z VRB01MPS 8000 -RA FEW040 OVC060 09/07 Q1023 NOSIG
ZGKL,2025-03-07 21:00,ZGKL 072100Z 00000MPS 8000 FEW040 OVC060 09/08 Q1022 NOSIG
ZGKL,2025-03-07 22:00,ZGKL 072200Z VRB01MPS 7000 -SHRA FEW040CB FEW040 BKN056 09/08 Q1023 NOSIG
ZGKL,2025-03-07 23:00,ZGKL 072300Z 02002MPS 5000 -SHRA BR FEW040CB SCT040 BKN056 09/08 Q1024 NOSIG
ZGKL,2025-03-08 00:00,ZGKL 080000Z VRB01MPS 9999 SCT040 OVC056 09/07 Q1024 NOSIG
ZGKL,2025-03-08 01:00,ZGKL 080100Z VRB01MPS 9999 FEW020 FEW033CB SCT033 BKN056 09/07 Q1025 BECMG FM0230 FEW015 SCT030 OVC050
ZGKL,2025-03-08 02:00,ZGKL 080200Z VRB01MPS 9999 FEW020 SCT033 OVC056 10/06 Q1025 NOSIG
ZGKL,2025-03-08 03:00,ZGKL 080300Z 00000MPS 9999 SCT040 OVC056 11/07 Q1025 NOSIG
ZGKL,2025-03-08 04:00,ZGKL 080400Z VRB01MPS 9999 SCT030 OVC053 11/07 Q1024 NOSIG
ZGKL,2025-03-08 05:00,ZGKL 080500Z 02002MPS 330V060 9999 SCT026 OVC053 13/07 Q1023 NOSIG
ZGKL,2025-03-08 06:00,ZGKL 080600Z VRB01MPS 9999 SCT030 OVC053 14/06 Q1022 NOSIG
ZGKL,2025-03-08 07:00,ZGKL 080700Z VRB01MPS 9999 SCT030 BKN053 14/06 Q1021 NOSIG
ZGKL,2025-03-08 08:00,ZGKL 080800Z VRB01MPS 9999 FEW023 SCT036 OVC053 14/06 Q1021 NOSIG
ZGKL,2025-03-08 09:00,ZGKL 080900Z 07002MPS 360V120 9999 FEW023 SCT040 OVC053 14/06 Q1020 NOSIG
ZGKL,2025-03-08 10:00,ZGKL 081000Z 10002MPS 070V170 9999 SCT040 OVC060 13/07 Q1021 NOSIG
ZGKL,2025-03-08 11:00,ZGKL 081100Z VRB01MPS 9999 SCT040 OVC060 12/08 Q1021 NOSIG
ZGKL,2025-03-08 12:00,ZGKL 081200Z VRB01MPS 9999 SCT033 OVC053 12/08 Q1021 NOSIG
ZGKL,2025-03-08 13:00,ZGKL 081300Z VRB01MPS 9999 SCT033 OVC053 12/08 Q1022 NOSIG
ZGKL,2025-03-08 14:00,ZGKL 081400Z VRB01MPS 9999 SCT033 OVC053 12/09 Q1022 NOSIG
ZGKL,2025-03-08 15:00,ZGKL 081500Z 04002MPS 9999 SCT033 OVC053 12/07 Q1023 NOSIG
ZGKL,2025-03-08 16:00,ZGKL 081600Z 05003MPS 9999 SCT030 OVC053 12/07 Q1023 NOSIG
ZGKL,2025-03-08 17:00,ZGKL 081700Z 06003MPS 9999 SCT030 OVC053 12/07 Q1023 NOSIG
ZGKL,2025-03-08 18:00,ZGKL 081800Z 05003MPS 9999 SCT026 OVC046 11/07 Q1023 NOSIG
ZGKL,2025-03-08 19:00,ZGKL 081900Z 02002MPS 6000 -RA FEW010 SCT026 OVC043 10/08 Q1023 NOSIG
ZGKL,2025-03-08 20:00,ZGKL 082000Z 04002MPS 4000 -RA BR FEW010 BKN023 OVC040 10/09 Q1023 NOSIG
ZGKL,2025-03-08 21:00,ZGKL 082100Z 04002MPS 3500 -RA BR FEW003 BKN023 OVC040 09/09 Q1022 NOSIG
ZGKL,2025-03-08 22:00,ZGKL 082200Z 04002MPS 3200 -RA BR FEW003 BKN023 OVC040 09/09 Q1023 BECMG TL2300 2500
ZGKL,2025-03-08 23:00,ZGKL 082300Z VRB01MPS 2500 -RA BR SCT010 BKN023 OVC040 09/09 Q1023 BECMG FM0030 3000
ZGKL,2025-03-09 00:00,ZGKL 090000Z VRB01MPS 2600 -RA BR SCT010 BKN023 OVC040 09/09 Q1023 BECMG TL0110 3000
ZGKL,2025-03-09 01:00,ZGKL 090100Z 00000MPS 2400 -DZ BR SCT010 BKN023 OVC040 10/09 Q1024 BECMG TL0200 3000
ZGKL,2025-03-09 02:00,ZGKL 090200Z VRB01MPS 3000 -DZ BR SCT010 BKN023 OVC036 10/10 Q1024 BECMG FM0300 2800
ZGKL,2025-03-09 03:00,ZGKL 090300Z VRB01MPS 3000 -DZ BR FEW005 SCT023 OVC040 11/10 Q1025 BECMG TL0400 2800
ZGKL,2025-03-09 04:00,ZGKL 090400Z VRB01MPS 2800 -RA BR FEW005 SCT013 BKN023 11/10 Q1024 BECMG FM0500 3000
ZGKL,2025-03-09 05:00,ZGKL 090500Z VRB01MPS 3000 -RA BR FEW010 BKN023 OVC040 11/11 Q1024 BECMG FM0600 2500
ZGKL,2025-03-09 06:00,ZGKL 090600Z VRB01MPS 3200 -RA BR FEW004 SCT011 BKN023 11/11 Q1023 BECMG FM0750 2800
ZGKL,2025-03-09 07:00,ZGKL 090700Z 00000MPS 2900 -RA BR FEW004 SCT010 BKN023 12/11 Q1022 BECMG FM0850 3200
ZGKL,2025-03-09 08:00,ZGKL 090800Z VRB01MPS 3800 -DZ BR FEW004 SCT010 BKN023 12/11 Q1022 NOSIG
ZGKL,2025-03-09 09:00,ZGKL 090900Z VRB01MPS 4000 -DZ BR FEW004 BKN023 OVC040 12/11 Q1022 NOSIG
ZGKL,2025-03-09 10:00,ZGKL 091000Z VRB01MPS 3400 -DZ BR FEW004 BKN023 OVC040 12/11 Q1022 BECMG FM1150 2500
ZGKL,2025-03-09 11:00,ZGKL 091100Z 11001MPS 3000 -RA BR FEW004 BKN023 OVC040 11/11 Q1022 BECMG TL1200 2800
ZGKL,2025-03-09 12:00,ZGKL 091200Z VRB01MPS 2800 -RA BR FEW003 SCT010 BKN020 12/12 Q1023 BECMG FM1300 3000
ZGKL,2025-03-09 13:00,ZGKL 091300Z 01001MPS 3000 -RA BR FEW003 SCT010 BKN020 12/12 Q1023 BECMG TL1400 2800
ZGKL,2025-03-09 14:00,ZGKL 091400Z 34001MPS 2600 -RA BR FEW002 SCT010 BKN020 11/11 Q1024 NOSIG
ZGKL,2025-03-09 15:00,ZGKL 091500Z 00000MPS 2200 -RA BR FEW002 SCT010 BKN020 11/11 Q1024 NOSIG
ZGKL,2025-03-09 16:00,ZGKL 091600Z 00000MPS 2100 -RA BR FEW002 SCT010 BKN020 12/12 Q1024 NOSIG
ZGKL,2025-03-09 17:00,ZGKL 091700Z 35001MPS 2300 -RA BR FEW002 SCT011 OVC026 12/12 Q1024 BECMG FM1850 1400
ZGKL,2025-03-09 18:00,ZGKL 091800Z VRB01MPS 2700 -RA BR FEW002 SCT013 OVC026 12/12 Q1023 BECMG FM1850 1400
ZGKL,2025-03-09 19:00,ZGKL 091900Z 07002MPS 3500 -RA BR FEW003 SCT013 OVC026 11/11 Q1023 NOSIG
ZGKL,2025-03-09 20:00,ZGKL 092000Z 04002MPS 3800 -DZ BR FEW004 SCT020 OVC033 11/11 Q1022 NOSIG
ZGKL,2025-03-09 21:00,ZGKL 092100Z 05002MPS 4200 -DZ BR FEW004 SCT023 OVC036 11/11 Q1022 NOSIG
ZGKL,2025-03-09 22:00,ZGKL 092200Z VRB01MPS 4000 -DZ BR FEW003 SCT023 OVC040 11/11 Q1022 NOSIG
ZGKL,2025-03-09 23:00,ZGKL 092300Z VRB01MPS 3500 -DZ BR FEW003 SCT023 OVC040 11/11 Q1022 NOSIG
ZGKL,2025-03-10 00:00,ZGKL 100000Z 03002MPS 350V050 3500 -DZ BR FEW004 SCT023 OVC040 11/11 Q1023 NOSIG
ZGKL,2025-03-10 01:00,ZGKL 100100Z VRB01MPS 3500 -DZ BR FEW004 SCT023 OVC040 11/11 Q1023 NOSIG
ZGKL,2025-03-10 02:00,ZGKL 100200Z VRB01MPS 4000 -DZ BR SCT010 SCT023 OVC040 12/12 Q1023 NOSIG
ZGKL,2025-03-10 03:00,ZGKL 100300Z VRB01MPS 4000 -DZ BR SCT010 SCT023 OVC040 12/12 Q1023 NOSIG
ZGKL,2025-03-10 04:00,ZGKL 100400Z 04002MPS 3500 -DZ BR FEW007 SCT023 OVC040 13/12 Q1022 NOSIG
ZGKL,2025-03-10 05:00,ZGKL 100500Z VRB01MPS 9999 FEW006 SCT011 BKN023 13/12 Q1021 NOSIG
ZGKL,2025-03-10 06:00,ZGKL 100600Z VRB01MPS 9000 -DZ SCT011 BKN023 OVC040 13/12 Q1020 NOSIG
ZGKL,2025-03-10 07:00,ZGKL 100700Z VRB01MPS 9000 FEW006 SCT013 BKN026 13/12 Q1019 NOSIG
ZGKL,2025-03-10 08:00,ZGKL 100800Z VRB01MPS 9999 FEW006 SCT011 BKN026 13/12 Q1018 NOSIG
ZGKL,2025-03-10 09:00,ZGKL 100900Z VRB01MPS 9000 -DZ FEW011 BKN023 OVC040 13/12 Q1018 NOSIG
ZGKL,2025-03-10 10:00,ZGKL 101000Z VRB01MPS 4000 -DZ BR FEW010 BKN023 OVC036 13/13 Q1018 BECMG FM1100 2500
ZGKL,2025-03-10 11:00,ZGKL 101100Z VRB01MPS 4000 -DZ BR FEW006 BKN023 OVC036 13/13 Q1018 BECMG FM1230 2500
ZGKL,2025-03-10 12:00,ZGKL 101200Z VRB01MPS 3500 BR FEW005 SCT023 OVC036 13/13 Q1018 BECMG FM1300 2800
ZGKL,2025-03-10 13:00,ZGKL 101300Z VRB01MPS 2900 BR SCT010 SCT023 OVC036 13/13 Q1019 BECMG FM1400 3100
ZGKL,2025-03-10 14:00,ZGKL 101400Z VRB01MPS 3200 BR FEW006 SCT010 OVC036 13/13 Q1020 BECMG FM1530 2500
ZGKL,2025-03-10 15:00,ZGKL 101500Z 20001MPS 3200 -DZ BR FEW006 SCT020 OVC036 13/13 Q1019 NOSIG
ZGKL,2025-03-10 16:00,ZGKL 101600Z 18001MPS 2800 BR SCT010 SCT020 OVC036 13/13 Q1019 NOSIG
ZGKL,2025-03-10 17:00,ZGKL 101700Z VRB01MPS 3500 -DZ BR FEW006 SCT020 OVC033 13/13 Q1018 NOSIG
ZGKL,2025-03-10 18:00,ZGKL 101800Z VRB01MPS 3000 -RA BR FEW006 SCT020 OVC033 13/13 Q1018 NOSIG
ZGKL,2025-03-10 19:00,ZGKL 101900Z 00000MPS 3000 -RA BR FEW005 SCT020 OVC033 13/13 Q1017 NOSIG
ZGKL,2025-03-10 20:00,ZGKL 102000Z 00000MPS 3000 -RA BR FEW005 SCT020 OVC033 13/13 Q1016 NOSIG
ZGKL,2025-03-10 21:00,ZGKL 102100Z 00000MPS 1800 -RA BR FEW006 SCT020 OVC033 13/13 Q1016 NOSIG
ZGKL,2025-03-10 22:00,ZGKL 102200Z VRB01MPS 1300 R01/P2000 -RA BR FEW003 SCT006 OVC033 13/13 Q1016 BECMG FM2330 1600
ZGKL,2025-03-10 23:00,ZGKL 102300Z 00000MPS 1600 -RA BCFG BR FEW003 SCT008 OVC030 13/13 Q1017 BECMG FM2330 1200
ZGKL,2025-03-11 00:00,ZGKL 110000Z 00000MPS 1800 -RA BCFG BR FEW003 SCT010 BKN020 13/13 Q1017 BECMG FM0130 3100
ZGKL,2025-03-11 01:00,ZGKL 110100Z 00000MPS 2500 -RA BCFG BR FEW003 SCT010 BKN020 13/13 Q1017 BECMG FM0240 3000
ZGKL,2025-03-11 02:00,ZGKL 110200Z VRB01MPS 3200 -DZ BR FEW003 SCT010 BKN023 14/14 Q1017 NOSIG
ZGKL,2025-03-11 03:00,ZGKL 110300Z VRB01MPS 3500 -DZ BR FEW004 SCT010 BKN023 14/14 Q1017 NOSIG
ZGKL,2025-03-11 04:00,ZGKL 110400Z 36001MPS 3500 -DZ BR FEW004 SCT010 BKN023 15/15 Q1016 NOSIG
ZGKL,2025-03-11 05:00,ZGKL 110500Z VRB01MPS 3500 -DZ BR FEW004 SCT010 BKN023 15/15 Q1015 NOSIG
ZGKL,2025-03-11 06:00,ZGKL 110600Z 00000MPS 5000 -DZ BR FEW004 SCT010 BKN023 16/16 Q1014 NOSIG
ZGKL,2025-03-11 07:00,ZGKL 110700Z 00000MPS 5000 BR FEW005 SCT010 BKN023 16/16 Q1013 NOSIG
ZGKL,2025-03-11 08:00,ZGKL 110800Z VRB01MPS 5000 BR FEW005 SCT010 BKN023 16/16 Q1012 NOSIG
ZGKL,2025-03-11 09:00,ZGKL 110900Z 35002MPS 3300 BR FEW005 SCT010 BKN023 16/16 Q1012 BECMG FM1000 2800
ZGKL,2025-03-11 10:00,ZGKL 111000Z VRB01MPS 3000 -DZ BR FEW005 SCT010 BKN023 16/16 Q1012 BECMG TL1040 2500
ZGKL,2025-03-11 11:00,ZGKL 111100Z 00000MPS 2800 -DZ BR FEW004 SCT010 BKN023 16/16 Q1013 NOSIG
ZGKL,2025-03-11 12:00,ZGKL 111200Z VRB01MPS 2800 BR FEW006 SCT013 BKN023 16/16 Q1013 BECMG FM1300 3000
ZGKL,2025-03-11 13:00,ZGKL 111300Z 27001MPS 2200 BCFG BR FEW004 SCT010 BKN023 16/16 Q1014 BECMG FM1440 1400
ZGKL,2025-03-11 14:00,ZGKL 111400Z VRB01MPS 2100 BCFG BR FEW008 BKN023 OVC033 16/16 Q1014 NOSIG
ZGKL,2025-03-11 15:00,ZGKL 111500Z 21001MPS 2300 BCFG BR FEW008 SCT023 OVC036 16/16 Q1014 NOSIG
ZGKL,2025-03-11 16:00,ZGKL 111600Z VRB01MPS 2400 -RA BR FEW008 SCT023 OVC036 16/16 Q1014 NOSIG
ZGKL,2025-03-11 17:00,ZGKL 111700Z VRB01MPS 2300 -SHRA BR FEW003 SCT020 OVC033 16/16 Q1014 NOSIG
ZGKL,2025-03-11 18:00,ZGKL 111800Z 00000MPS 2400 -RA BR FEW006 SCT023 OVC036 16/16 Q1014 NOSIG
ZGKL,2025-03-11 19:00,ZGKL 111900Z 00000MPS 1700 -RA BCFG BR FEW006 SCT023 OVC036 16/16 Q1013 NOSIG
ZGKL,2025-03-11 20:00,ZGKL 112000Z VRB01MPS 1800 -SHRA BR FEW006 SCT023 FEW033CB BKN033 16/16 Q1013 NOSIG
ZGKL,2025-03-11 21:00,ZGKL 112100Z 00000MPS 1700 BR FEW003 SCT023 OVC036 16/16 Q1013 NOSIG
ZGKL,2025-03-11 22:00,ZGKL 112200Z 00000MPS 1500 -RA BR FEW006 SCT026 OVC036 16/16 Q1013 BECMG FM2230 FEW006 FEW030CB BKN040
ZGKL,2025-03-11 23:00,ZGKL 112300Z VRB01MPS 1300 R01/1900U BR FEW006 SCT026 OVC036 16/16 Q1013 TEMPO 0700 FG BECMG FM0040 1500
ZGKL,2025-03-12 00:00,ZGKL 120000Z 34001MPS 1000 R01/P2000 -RA BR FEW002 SCT026 OVC033 16/16 Q1014 BECMG FM0130 1500
ZGKL,2025-03-12 01:00,ZGKL 120100Z 00000MPS 1600 BR FEW008 BKN026 OVC040 16/16 Q1014 BECMG FM0250 3100
ZGKL,2025-03-12 02:00,ZGKL 120200Z VRB01MPS 1900 BR FEW008 BKN030 BKN043 17/17 Q1015 BECMG FM0350 3100
ZGKL,2025-03-12 03:00,ZGKL 120300Z VRB01MPS 3000 -SHRA BR FEW007 FEW026CB BKN030 BKN043 18/18 Q1014 BECMG FM0450 2800
ZGKL,2025-03-12 04:00,ZGKL 120400Z 00000MPS 2500 -SHRA BR FEW008 FEW026CB BKN026 BKN040 18/18 Q1014 BECMG AT0500 FEW008 SCT026 OVC030
ZGKL,2025-03-12 05:00,ZGKL 120500Z VRB01MPS 1700 -RA BR FEW006 BKN023 OVC040 18/18 Q1013 NOSIG
ZGKL,2025-03-12 06:00,ZGKL 120600Z 35001MPS 1800 -SHRA BR FEW006 BKN026 OVC040 19/19 Q1012 NOSIG
ZGKL,2025-03-12 07:00,ZGKL 120700Z VRB01MPS 2000 BR FEW008 SCT026 OVC040 19/19 Q1011 NOSIG
ZGKL,2025-03-12 08:00,ZGKL 120800Z VRB01MPS 2100 -RA BR FEW008 BKN026 OVC040 19/19 Q1010 NOSIG
ZGKL,2025-03-12 09:00,ZGKL 120900Z 36001MPS 1800 -DZ BR FEW008 BKN026 OVC040 19/19 Q1010 NOSIG
ZGKL,2025-03-12 10:00,ZGKL 121000Z VRB01MPS 1700 BR FEW006 BKN026 OVC040 19/19 Q1010 NOSIG
ZGKL,2025-03-12 11:00,ZGKL 121100Z VRB01MPS 1700 BR FEW006 BKN026 OVC040 19/19 Q1011 NOSIG
ZGKL,2025-03-12 12:00,ZGKL 121200Z VRB01MPS 1600 BR FEW006 BKN026 OVC040 19/19 Q1011 NOSIG
ZGKL,2025-03-12 13:00,ZGKL 121300Z 03002MPS 350V060 2900 BR FEW009 BKN026 BKN043 19/19 Q1012 BECMG FM1400 4000
ZGKL,2025-03-12 14:00,ZGKL 121400Z 02003MPS 8000 -DZ FEW009 BKN026 BKN043 18/17 Q1013 NOSIG
ZGKL,2025-03-12 15:00,ZGKL 121500Z 02003MPS 9999 -SHRA FEW015 FEW026CB BKN026 BKN043 18/17 Q1013 NOSIG
ZGKL,2025-03-12 16:00,ZGKL 121600Z 03003MPS 360V080 9999 FEW013 FEW026CB BKN026 BKN043 17/16 Q1014 NOSIG
ZGKL,2025-03-12 17:00,ZGKL 121700Z 04002MPS 360V080 9999 -SHRA FEW016 FEW026CB BKN026 BKN043 17/15 Q1014 TEMPO FM1720 SHRA
ZGKL,2025-03-12 18:00,ZGKL 121800Z VRB01MPS 9999 -SHRA FEW013 FEW026CB BKN026 BKN043 16/15 Q1014 RESHRA NOSIG
ZGKL,2025-03-12 19:00,ZGKL 121900Z VRB01MPS 9999 -SHRA FEW016 FEW026CB SCT026 BKN040 16/15 Q1014 NOSIG
ZGKL,2025-03-12 20:00,ZGKL 122000Z 02002MPS 310V070 9999 -SHRA FEW016 FEW026CB SCT026 BKN040 16/15 Q1013 RESHRA NOSIG
ZGKL,2025-03-12 21:00,ZGKL 122100Z 03002MPS 340V060 9999 -SHRA FEW020 FEW026CB SCT026 BKN040 15/15 Q1013 NOSIG
ZGKL,2025-03-12 22:00,ZGKL 122200Z 06002MPS 6000 -SHRA FEW010 SCT023 FEW026CB BKN036 15/15 Q1014 RESHRA NOSIG
ZGKL,2025-03-12 23:00,ZGKL 122300Z VRB01MPS 4000 -SHRA BR FEW013 FEW026CB BKN026 BKN040 15/15 Q1015 NOSIG
ZGKL,2025-03-13 00:00,ZGKL 130000Z VRB01MPS 5000 -SHRA BR FEW026CB BKN030 BKN050 15/14 Q1016 NOSIG
ZGKL,2025-03-13 01:00,ZGKL 130100Z 06002MPS 5000 -SHRA BR FEW026CB BKN026 BKN050 15/14 Q1016 NOSIG
ZGKL,2025-03-13 02:00,ZGKL 130200Z VRB01MPS 5000 -SHRA BR FEW026CB BKN026 BKN050 15/14 Q1017 NOSIG
ZGKL,2025-03-13 03:00,ZGKL 130300Z VRB01MPS 6000 -SHRA FEW011 FEW030CB BKN030 BKN053 16/15 Q1017 NOSIG
ZGKL,2025-03-13 04:00,ZGKL 130400Z 08002MPS 030V120 7000 BKN030 OVC053 16/14 Q1016 NOSIG
ZGKL,2025-03-13 05:00,ZGKL 130500Z VRB01MPS 9000 FEW010 BKN030 OVC053 17/14 Q1015 NOSIG
ZGKL,2025-03-13 06:00,ZGKL 130600Z 09002MPS 7000 -RA FEW010 BKN026 OVC053 17/15 Q1014 NOSIG
ZGKL,2025-03-13 07:00,ZGKL 130700Z 10002MPS 4000 -SHRA BR FEW010 SCT026 OVC046 16/14 Q1013 BECMG FM0800 2800
ZGKL,2025-03-13 08:00,ZGKL 130800Z 06002MPS 030V090 4000 -RA BR FEW010 SCT026 OVC046 16/15 Q1013 NOSIG
ZGKL,2025-03-13 09:00,ZGKL 130900Z VRB01MPS 4000 BR SCT026 OVC040 15/15 Q1013 NOSIG
ZGKL,2025-03-13 10:00,ZGKL 131000Z 05003MPS 5000 BR SCT026 OVC050 15/14 Q1013 NOSIG
ZGKL,2025-03-13 11:00,ZGKL 131100Z 03002MPS 010V070 4000 -SHRA BR FEW026CB SCT026 BKN046 15/14 Q1013 NOSIG
ZGKL,2025-03-13 12:00,ZGKL 131200Z VRB01MPS 4000 -SHRA BR FEW005 FEW026CB SCT026 BKN046 14/14 Q1014 NOSIG
ZGKL,2025-03-13 13:00,ZGKL 131300Z 06002MPS 020V090 4000 -SHRA BR FEW005 FEW030CB SCT030 BKN050 14/14 Q1014 NOSIG
ZGKL,2025-03-13 14:00,ZGKL 131400Z 05002MPS 010V080 3000 SHRA BR FEW005 FEW030CB SCT030 BKN050 14/14 Q1015 BECMG TL1430 -SHRA
ZGKL,2025-03-13 15:00,ZGKL 131500Z VRB01MPS 5000 -SHRA BR FEW005 FEW026CB SCT026 BKN040 14/14 Q1015 RESHRA NOSIG
ZGKL,2025-03-13 16:00,ZGKL 131600Z VRB01MPS 5000 -SHRA BR FEW006 FEW026CB SCT026 BKN040 14/14 Q1015 NOSIG
ZGKL,2025-03-13 17:00,ZGKL 131700Z 04002MPS 5000 -RA BR FEW006 SCT026 OVC040 14/14 Q1015 NOSIG
ZGKL,2025-03-13 18:00,ZGKL 131800Z VRB01MPS 5000 -RA BR FEW006 SCT023 OVC040 14/14 Q1015 NOSIG
ZGKL,2025-03-13 19:00,ZGKL 131900Z VRB01MPS 5000 -RA BR FEW006 SCT023 OVC040 14/14 Q1014 NOSIG
ZGKL,2025-03-13 20:00,ZGKL 132000Z 00000MPS 5000 -RA BR FEW006 SCT023 OVC040 14/14 Q1014 NOSIG
ZGKL,2025-03-13 21:00,ZGKL 132100Z VRB01MPS 5000 -RA BR FEW006 SCT023 OVC040 14/14 Q1014 NOSIG
ZGKL,2025-03-13 22:00,ZGKL 132200Z 00000MPS 9999 FEW006 SCT023 OVC040 14/14 Q1014 NOSIG
ZGKL,2025-03-13 23:00,ZGKL 132300Z VRB01MPS 7000 -RA SCT023 OVC040 14/14 Q1015 NOSIG
ZGKL,2025-03-14 00:00,ZGKL 140000Z VRB01MPS 8000 -RA SCT026 OVC046 14/14 Q1016 NOSIG
ZGKL,2025-03-14 01:00,ZGKL 140100Z VRB01MPS 7000 -SHRA SCT026 FEW033CB BKN046 14/14 Q1016 BECMG FM0230 FEW010 SCT026 OVC050
ZGKL,2025-03-14 02:00,ZGKL 140200Z 00000MPS 8000 -SHRA SCT026 FEW033CB BKN046 14/14 Q1016 BECMG TL0240 FEW010 SCT026 OVC050
ZGKL,2025-03-14 03:00,ZGKL 140300Z 00000MPS 8000 FEW006 SCT026 OVC040 15/14 Q1016 BECMG TL0350 FEW008 SCT026 FEW033CB BKN040
ZGKL,2025-03-14 04:00,ZGKL 140400Z 03002MPS 340V070 7000 -RA FEW006 SCT026 OVC040 15/14 Q1015 BECMG FM0510 -TSRA FEW008 SCT026 FEW033CB BKN033
ZGKL,2025-03-14 05:00,ZGKL 140500Z VRB01MPS 4500 -SHRA BR FEW006 SCT023 FEW040CB BKN040 15/15 Q1015 RETSRA BECMG FM0600 FEW006 SCT020 OVC040
ZGKL,2025-03-14 06:00,ZGKL 140600Z VRB01MPS 5000 BR FEW006 SCT023 OVC033 15/15 Q1013 NOSIG
ZGKL,2025-03-14 07:00,ZGKL 140700Z VRB01MPS 2100 -RA BR FEW004 BKN020 OVC033 15/15 Q1013 NOSIG
ZGKL,2025-03-14 08:00,ZGKL 140800Z VRB01MPS 2400 -RA BR FEW004 BKN020 OVC033 15/15 Q1013 NOSIG
ZGKL,2025-03-14 09:00,ZGKL 140900Z VRB01MPS 2800 -RA BR FEW004 BKN020 OVC033 15/15 Q1013 BECMG FM1000 3200
ZGKL,2025-03-14 10:00,ZGKL 141000Z VRB01MPS 3500 -RA BR FEW005 SCT023 OVC033 15/15 Q1013 NOSIG
ZGKL,2025-03-14 11:00,ZGKL 141100Z VRB01MPS 3200 -SHRA BR FEW005 SCT023 FEW036CB BKN036 15/15 Q1014 RESHRA BECMG FM1200 2800 SHRA
ZGKL,2025-03-14 12:00,ZGKL 141200Z 07002MPS 030V090 6000 -SHRA FEW006 SCT013 BKN023 FEW036CB 15/15 Q1015 NOSIG
ZGKL,2025-03-14 13:00,ZGKL 141300Z 05002MPS 020V080 6000 -SHRA FEW006 BKN023 FEW036CB BKN036 15/15 Q1016 BECMG FM1450 -TSRA
ZGKL,2025-03-14 14:00,ZGKL 141400Z VRB01MPS 5000 -SHRA BR FEW005 BKN023 FEW036CB BKN036 14/14 Q1017 BECMG FM1520 2500 -TSRA
ZGKL,2025-03-14 15:00,ZGKL 141500Z VRB01MPS 2900 -TSRA BR FEW005 BKN023 FEW036CB BKN036 14/14 Q1017 RESHRA BECMG TL1620 3000 -SHRA
ZGKL,2025-03-14 16:00,ZGKL 141600Z 15003MPS 100V200 4000 -RA BR FEW004 BKN023 OVC040 14/14 Q1017 RETS NOSIG
ZGKL,2025-03-14 17:00,ZGKL 141700Z 04002MPS 8000 SCT033 OVC053 14/14 Q1017 NOSIG
ZGKL,2025-03-14 18:00,ZGKL 141800Z VRB01MPS 8000 -TSRA FEW033CB SCT033 BKN043 14/14 Q1017 TEMPO FM1810 TSRA
ZGKL,2025-03-14 19:00,ZGKL 141900Z 05003MPS 020V090 9999 -RA FEW010 SCT033 OVC053 14/13 Q1017 RETS NOSIG
ZGKL,2025-03-14 20:00,ZGKL 142000Z VRB01MPS 9999 SCT026 OVC043 13/13 Q1016 NOSIG
ZGKL,2025-03-14 21:00,ZGKL 142100Z 03002MPS 9999 SCT030 OVC046 13/13 Q1017 NOSIG
ZGKL,2025-03-14 22:00,ZGKL 142200Z 03002MPS 9999 SCT030 OVC046 13/12 Q1018 BECMG FM2300 FEW010 SCT026 FEW033CB BKN040
ZGKL,2025-03-14 23:00,ZGKL 142300Z 36002MPS 320V030 9999 SCT033 OVC053 13/12 Q1019 BECMG TL2340 FEW010 SCT026 FEW033CB BKN040
ZGKL,2025-03-15 00:00,ZGKL 150000Z 04002MPS 360V090 9999 FEW033CB SCT033 BKN053 13/12 Q1019 BECMG FM0100 FEW020 SCT033 BKN050
ZGKL,2025-03-15 01:00,ZGKL 150100Z 05003MPS 020V090 9999 SCT040 BKN053 13/11 Q1020 NOSIG
ZGKL,2025-03-15 02:00,ZGKL 150200Z 03002MPS 9999 -DZ SCT040 BKN053 13/11 Q1021 NOSIG
ZGKL,2025-03-15 03:00,ZGKL 150300Z 05004MPS 9999 FEW020 SCT033 OVC050 13/11 Q1022 NOSIG
ZGKL,2025-03-15 04:00,ZGKL 150400Z 05006MPS 9999 FEW020 SCT030 OVC050 13/10 Q1022 NOSIG
ZGKL,2025-03-15 05:00,ZGKL 150500Z 05005MPS 9999 FEW020 SCT030 OVC050 13/09 Q1022 NOSIG
ZGKL,2025-03-15 06:00,ZGKL 150600Z 05005MPS 9999 FEW020 OVC053 13/09 Q1021 NOSIG
ZGKL,2025-03-15 07:00,ZGKL 150700Z 05005MPS 020V090 9999 SCT033 BKN060 13/08 Q1021 NOSIG
ZGKL,2025-03-15 08:00,ZGKL 150800Z 07005MPS 9999 FEW033 BKN073 14/08 Q1021 NOSIG
ZGKL,2025-03-15 09:00,ZGKL 150900Z 06006MPS 9999 SCT033 BKN060 13/08 Q1021 NOSIG
ZGKL,2025-03-15 10:00,ZGKL 151000Z 05007MPS 9999 SCT030 BKN053 12/07 Q1022 NOSIG
ZGKL,2025-03-15 11:00,ZGKL 151100Z 05005MPS 9999 SCT030 OVC053 12/07 Q1023 NOSIG
ZGKL,2025-03-15 12:00,ZGKL 151200Z 04004MPS 9999 BKN046 11/07 Q1023 NOSIG
ZGKL,2025-03-15 13:00,ZGKL 151300Z 02004MPS 340V060 9999 FEW043 BKN066 11/07 Q1025 NOSIG
ZGKL,2025-03-15 14:00,ZGKL 151400Z 04005MPS 010V070 9999 SCT043 BKN066 11/07 Q1026 NOSIG
ZGKL,2025-03-15 15:00,ZGKL 151500Z 05004MPS 010V080 9999 SCT046 BKN070 11/06 Q1026 NOSIG
ZGKL,2025-03-15 16:00,ZGKL 151600Z 06006G11MPS 9999 -SHRA SCT030 OVC060 11/06 Q1027 NOSIG
ZGKL,2025-03-15 17:00,ZGKL 151700Z 05006MPS 9999 -SHRA SCT026 OVC053 11/05 Q1026 NOSIG
ZGKL,2025-03-15 18:00,ZGKL 151800Z 04005MPS 9999 SCT033 OVC060 11/05 Q1026 NOSIG
ZGKL,2025-03-15 19:00,ZGKL 151900Z 04004MPS 9999 -SHRA SCT033 OVC060 10/06 Q1026 NOSIG
ZGKL,2025-03-15 20:00,ZGKL 152000Z 04004MPS 9999 -SHRA SCT033 OVC060 10/07 Q1025 NOSIG
ZGKL,2025-03-15 21:00,ZGKL 152100Z 34002MPS 320V020 9999 -SHRA FEW026CB SCT033 BKN060 09/07 Q1026 NOSIG
ZGKL,2025-03-15 22:00,ZGKL 152200Z 01004MPS 9999 -RA SCT033 OVC060 09/07 Q1026 NOSIG
ZGKL,2025-03-15 23:00,ZGKL 152300Z VRB01MPS 9999 -RA SCT036 OVC060 09/08 Q1027 NOSIG
ZGKL,2025-03-16 00:00,ZGKL 160000Z VRB01MPS 9999 SCT043 BKN073 09/09 Q1028 NOSIG
ZGKL,2025-03-16 01:00,ZGKL 160100Z 35002MPS 320V030 9999 SCT056 BKN073 10/08 Q1028 BECMG FM0230 05007MPS
ZGKL,2025-03-16 02:00,ZGKL 160200Z 36002MPS 290V080 9999 FEW073 12/07 Q1028 BECMG FM0330 06005MPS
ZGKL,2025-03-16 03:00,ZGKL 160300Z 03006MPS CAVOK 14/06 Q1027 NOSIG
ZGKL,2025-03-16 04:00,ZGKL 160400Z 06008MPS CAVOK 16/04 Q1026 NOSIG
ZGKL,2025-03-16 05:00,ZGKL 160500Z 04008MPS 010V080 9999 FEW026 17/04 Q1025 NOSIG
ZGKL,2025-03-16 06:00,ZGKL 160600Z 06008MPS CAVOK 18/03 Q1024 NOSIG
ZGKL,2025-03-16 07:00,ZGKL 160700Z 06007MPS 020V110 CAVOK 18/04 Q1023 NOSIG
ZGKL,2025-03-16 08:00,ZGKL 160800Z 06007MPS CAVOK 18/03 Q1022 NOSIG
ZGKL,2025-03-16 09:00,ZGKL 160900Z 05007MPS CAVOK 18/03 Q1021 NOSIG
ZGKL,2025-03-16 10:00,ZGKL 161000Z 05008MPS CAVOK 16/02 Q1021 NOSIG
ZGKL,2025-03-16 11:00,ZGKL 161100Z 04007MPS CAVOK 14/03 Q1022 NOSIG
ZGKL,2025-03-16 12:00,ZGKL 161200Z 03006MPS CAVOK 13/03 Q1023 NOSIG
ZGKL,2025-03-16 13:00,ZGKL 161300Z 03005MPS CAVOK 13/03 Q1024 NOSIG
ZGKL,2025-03-16 14:00,ZGKL 161400Z 03005MPS CAVOK 13/03 Q1024 NOSIG
ZGKL,2025-03-16 15:00,ZGKL 161500Z 01006MPS CAVOK 13/03 Q1025 NOSIG
ZGKL,2025-03-16 16:00,ZGKL 161600Z 36003MPS 9999 -RA SCT056 12/05 Q1025 NOSIG
ZGKL,2025-03-16 17:00,ZGKL 161700Z 02002MPS 9999 -RA SCT060 12/06 Q1025 NOSIG
ZGKL,2025-03-16 18:00,ZGKL 161800Z 34002MPS 9999 -RA SCT060 11/06 Q1025 NOSIG
ZGKL,2025-03-16 19:00,ZGKL 161900Z 04003MPS 9999 SCT060 11/05 Q1025 NOSIG
ZGKL,2025-03-16 20:00,ZGKL 162000Z 05004MPS 9999 SCT060 11/05 Q1025 NOSIG
ZGKL,2025-03-16 21:00,ZGKL 162100Z 04004MPS 9999 SCT060 11/04 Q1025 NOSIG
ZGKL,2025-03-16 22:00,ZGKL 162200Z VRB01MPS 9999 -RA SCT053 10/04 Q1025 NOSIG
ZGKL,2025-03-16 23:00,ZGKL 162300Z 03006MPS 9999 SCT053 10/02 Q1026 NOSIG
ZGKL,2025-03-17 00:00,ZGKL 170000Z 04003MPS 9999 FEW036 SCT066 10/02 Q1026 NOSIG
ZGKL,2025-03-17 01:00,ZGKL 170100Z 03004MPS 9999 FEW036 SCT066 10/03 Q1026 NOSIG
ZGKL,2025-03-17 02:00,ZGKL 170200Z 04004MPS 9999 SCT036 11/03 Q1027 NOSIG
ZGKL,2025-03-17 03:00,ZGKL 170300Z 03004MPS 350V070 9999 SCT036 12/03 Q1026 NOSIG
ZGKL,2025-03-17 04:00,ZGKL 170400Z 01003MPS 340V060 9999 FEW050 13/04 Q1025 NOSIG
ZGKL,2025-03-17 05:00,ZGKL 170500Z 03003MPS 340V100 CAVOK 13/03 Q1024 NOSIG
ZGKL,2025-03-17 06:00,ZGKL 170600Z 02003MPS 330V080 CAVOK 15/04 Q1023 NOSIG
ZGKL,2025-03-17 07:00,ZGKL 170700Z 05003MPS 010V080 9999 FEW040 OVC066 14/03 Q1022 NOSIG
ZGKL,2025-03-17 08:00,ZGKL 170800Z 04002MPS 360V080 9999 FEW040 14/04 Q1022 NOSIG
ZGKL,2025-03-17 09:00,ZGKL 170900Z 03003MPS 360V100 9999 SCT040 OVC066 14/04 Q1022 NOSIG
ZGKL,2025-03-17 10:00,ZGKL 171000Z 04003MPS 9999 -RA SCT036 OVC066 13/05 Q1022 NOSIG
ZGKL,2025-03-17 11:00,ZGKL 171100Z 05003MPS 9999 SCT036 OVC066 13/05 Q1023 NOSIG
ZGKL,2025-03-17 12:00,ZGKL 171200Z 03004MPS 9999 SCT036 OVC066 12/06 Q1024 NOSIG
ZGKL,2025-03-17 13:00,ZGKL 171300Z 02004MPS 9999 SCT033 OVC066 12/06 Q1025 NOSIG
ZGKL,2025-03-17 14:00,ZGKL 171400Z 02003MPS 9999 SCT033 OVC060 12/06 Q1026 NOSIG
ZGKL,2025-03-17 15:00,ZGKL 171500Z 01003MPS 9999 -RA SCT033 OVC060 10/07 Q1027 NOSIG
ZGKL,2025-03-17 16:00,ZGKL 171600Z VRB01MPS 9999 SCT040 OVC066 10/07 Q1027 NOSIG
ZGKL,2025-03-17 17:00,ZGKL 171700Z 35002MPS 9999 SCT040 OVC066 10/07 Q1027 NOSIG
ZGKL,2025-03-17 18:00,ZGKL 171800Z VRB01MPS 9999 SCT036 OVC066 10/07 Q1027 NOSIG
ZGKL,2025-03-17 19:00,ZGKL 171900Z 33001MPS 9999 SCT043 OVC073 09/07 Q1026 NOSIG
ZGKL,2025-03-17 20:00,ZGKL 172000Z 33001MPS 9999 SCT043 09/08 Q1026 NOSIG
ZGKL,2025-03-17 21:00,ZGKL 172100Z VRB01MPS 9999 SCT053 09/08 Q1026 NOSIG
ZGKL,2025-03-17 22:00,ZGKL 172200Z VRB01MPS 9999 SCT053 08/08 Q1026 NOSIG
ZGKL,2025-03-17 23:00,ZGKL 172300Z VRB01MPS 9999 FEW053 08/07 Q1027 NOSIG
ZGKL,2025-03-18 00:00,ZGKL 180000Z 34001MPS 9999 FEW060 09/07 Q1027 NOSIG
ZGKL,2025-03-18 01:00,ZGKL 180100Z 02003MPS CAVOK 12/07 Q1028 NOSIG
ZGKL,2025-03-18 02:00,ZGKL 180200Z 02004MPS 340V050 9999 FEW060 15/07 Q1028 NOSIG
ZGKL,2025-03-18 03:00,ZGKL 180300Z 03005MPS 350V070 9999 FEW050 16/04 Q1028 NOSIG
ZGKL,2025-03-18 04:00,ZGKL 180400Z 36003MPS 310V030 9999 SCT046 BKN070 16/03 Q1027 NOSIG
ZGKL,2025-03-18 05:00,ZGKL 180500Z 01005MPS 9999 FEW056 19/03 Q1026 NOSIG
ZGKL,2025-03-18 06:00,ZGKL 180600Z 02006MPS CAVOK 19/01 Q1025 NOSIG
ZGKL,2025-03-18 07:00,ZGKL 180700Z 02006MPS CAVOK 20/M01 Q1024 NOSIG
ZGKL,2025-03-18 08:00,ZGKL 180800Z 03007MPS CAVOK 20/M05 Q1024 NOSIG
ZGKL,2025-03-18 09:00,ZGKL 180900Z 04005MPS 010V070 CAVOK 20/M01 Q1023 NOSIG
ZGKL,2025-03-18 10:00,ZGKL 181000Z 05005MPS CAVOK 19/M02 Q1023 NOSIG
ZGKL,2025-03-18 11:00,ZGKL 181100Z 04004MPS CAVOK 17/M03 Q1024 NOSIG
ZGKL,2025-03-18 12:00,ZGKL 181200Z 35003MPS CAVOK 14/M01 Q1025 NOSIG
ZGKL,2025-03-18 13:00,ZGKL 181300Z 34003MPS 300V360 CAVOK 13/M01 Q1026 NOSIG
ZGKL,2025-03-18 14:00,ZGKL 181400Z VRB01MPS 9999 FEW073 11/02 Q1027 NOSIG
ZGKL,2025-03-18 15:00,ZGKL 181500Z 02002MPS 330V050 9999 FEW066 12/05 Q1027 NOSIG
ZGKL,2025-03-18 16:00,ZGKL 181600Z VRB01MPS 9999 SCT060 10/06 Q1027 NOSIG
ZGKL,2025-03-18 17:00,ZGKL 181700Z VRB01MPS 9999 FEW066 10/07 Q1027 NOSIG
ZGKL,2025-03-18 18:00,ZGKL 181800Z 34001MPS CAVOK 10/06 Q1027 NOSIG
ZGKL,2025-03-18 19:00,ZGKL 181900Z VRB01MPS 9999 FEW066 09/06 Q1027 NOSIG
ZGKL,2025-03-18 20:00,ZGKL 182000Z 00000MPS 9999 FEW066 08/06 Q1027 NOSIG
ZGKL,2025-03-18 21:00,ZGKL 182100Z VRB01MPS 9999 FEW073 06/06 Q1027 NOSIG
ZGKL,2025-03-18 22:00,ZGKL 182200Z VRB01MPS 9999 FEW073 07/06 Q1027 NOSIG
ZGKL,2025-03-18 23:00,ZGKL 182300Z VRB01MPS 9999 SCT060 08/07 Q1028 NOSIG
ZGKL,2025-03-19 00:00,ZGKL 190000Z VRB01MPS 9999 FEW073 10/06 Q1029 NOSIG
ZGKL,2025-03-19 01:00,ZGKL 190100Z 03002MPS 350V060 CAVOK 13/07 Q1029 NOSIG
ZGKL,2025-03-19 02:00,ZGKL 190200Z 03003MPS 340V060 CAVOK 18/05 Q1030 NOSIG
ZGKL,2025-03-19 03:00,ZGKL 190300Z 05005MPS 020V090 CAVOK 20/01 Q1029 NOSIG
ZGKL,2025-03-19 04:00,ZGKL 190400Z 05004G09MPS 360V100 CAVOK 21/M01 Q1028 NOSIG
ZGKL,2025-03-19 05:00,ZGKL 190500Z 07005MPS 010V100 CAVOK 22/M01 Q1027 NOSIG
ZGKL,2025-03-19 06:00,ZGKL 190600Z 10003MPS 040V180 CAVOK 22/M01 Q1025 BECMG FM0700 VRB05MPS
ZGKL,2025-03-19 07:00,ZGKL 190700Z 35002MPS 300V050 CAVOK 23/M01 Q1024 NOSIG
ZGKL,2025-03-19 08:00,ZGKL 190800Z 15003MPS 110V220 9999 FEW040 22/M01 Q1024 NOSIG
ZGKL,2025-03-19 09:00,ZGKL 190900Z 17002MPS 140V250 CAVOK 22/M01 Q1023 NOSIG
ZGKL,2025-03-19 10:00,ZGKL 191000Z 22002MPS CAVOK 21/01 Q1023 NOSIG
ZGKL,2025-03-19 11:00,ZGKL 191100Z 25002MPS CAVOK 19/02 Q1023 NOSIG
ZGKL,2025-03-19 12:00,ZGKL 191200Z 29001MPS CAVOK 16/04 Q1024 NOSIG
ZGKL,2025-03-19 13:00,ZGKL 191300Z VRB01MPS CAVOK 14/05 Q1025 NOSIG
ZGKL,2025-03-19 14:00,ZGKL 191400Z VRB01MPS CAVOK 12/06 Q1026 NOSIG
ZGKL,2025-03-19 15:00,ZGKL 191500Z 36001MPS CAVOK 11/05 Q1027 NOSIG
ZGKL,2025-03-19 16:00,ZGKL 191600Z 32001MPS CAVOK 10/06 Q1027 NOSIG
ZGKL,2025-03-19 17:00,ZGKL 191700Z 34001MPS CAVOK 11/05 Q1027 NOSIG
ZGKL,2025-03-19 18:00,ZGKL 191800Z 36001MPS CAVOK 09/05 Q1027 NOSIG
ZGKL,2025-03-19 19:00,ZGKL 191900Z VRB01MPS CAVOK 08/05 Q1026 NOSIG
ZGKL,2025-03-19 20:00,ZGKL 192000Z 19001MPS CAVOK 07/06 Q1026 NOSIG
ZGKL,2025-03-19 21:00,ZGKL 192100Z VRB01MPS CAVOK 07/06 Q1026 NOSIG
ZGKL,2025-03-19 22:00,ZGKL 192200Z 19002MPS CAVOK 04/04 Q1027 NOSIG
ZGKL,2025-03-19 23:00,ZGKL 192300Z 00000MPS CAVOK 06/06 Q1027 NOSIG
ZGKL,2025-03-20 00:00,ZGKL 200000Z VRB01MPS CAVOK 09/07 Q1028 NOSIG
ZGKL,2025-03-20 01:00,ZGKL 200100Z VRB01MPS CAVOK 14/07 Q1028 NOSIG
ZGKL,2025-03-20 02:00,ZGKL 200200Z VRB01MPS CAVOK 17/04 Q1028 NOSIG
ZGKL,2025-03-20 03:00,ZGKL 200300Z VRB01MPS CAVOK 20/03 Q1028 NOSIG
ZGKL,2025-03-20 04:00,ZGKL 200400Z VRB01MPS CAVOK 23/02 Q1027 NOSIG
ZGKL,2025-03-20 05:00,ZGKL 200500Z VRB02MPS CAVOK 23/M04 Q1025 NOSIG
ZGKL,2025-03-20 06:00,ZGKL 200600Z 03002MPS 350V070 CAVOK 25/M02 Q1024 NOSIG
ZGKL,2025-03-20 07:00,ZGKL 200700Z VRB01MPS CAVOK 25/M02 Q1022 NOSIG
ZGKL,2025-03-20 08:00,ZGKL 200800Z 22002MPS 180V320 CAVOK 25/M02 Q1021 NOSIG
ZGKL,2025-03-20 09:00,ZGKL 200900Z VRB01MPS CAVOK 25/M02 Q1021 NOSIG
ZGKL,2025-03-20 10:00,ZGKL 201000Z VRB01MPS CAVOK 25/M01 Q1020 NOSIG
ZGKL,2025-03-20 11:00,ZGKL 201100Z 27002MPS 230V290 CAVOK 20/01 Q1021 NOSIG
ZGKL,2025-03-20 12:00,ZGKL 201200Z 31002MPS 280V360 CAVOK 17/05 Q1021 NOSIG
ZGKL,2025-03-20 13:00,ZGKL 201300Z 32002MPS CAVOK 15/07 Q1023 NOSIG
ZGKL,2025-03-20 14:00,ZGKL 201400Z VRB01MPS CAVOK 13/06 Q1024 NOSIG
ZGKL,2025-03-20 15:00,ZGKL 201500Z VRB01MPS CAVOK 13/06 Q1025 NOSIG
ZGKL,2025-03-20 16:00,ZGKL 201600Z 00000MPS CAVOK 10/07 Q1025 NOSIG
ZGKL,2025-03-20 17:00,ZGKL 201700Z 31001MPS CAVOK 11/08 Q1025 NOSIG
ZGKL,2025-03-20 18:00,ZGKL 201800Z VRB01MPS CAVOK 10/08 Q1025 NOSIG
ZGKL,2025-03-20 19:00,ZGKL 201900Z VRB01MPS CAVOK 10/08 Q1024 NOSIG
ZGKL,2025-03-20 20:00,ZGKL 202000Z 19001MPS CAVOK 09/08 Q1024 NOSIG
ZGKL,2025-03-20 21:00,ZGKL 202100Z 00000MPS CAVOK 10/08 Q1024 NOSIG
ZGKL,2025-03-20 22:00,ZGKL 202200Z VRB01MPS CAVOK 09/08 Q1025 NOSIG
ZGKL,2025-03-20 23:00,ZGKL 202300Z VRB01MPS CAVOK 08/08 Q1025 NOSIG
ZGKL,2025-03-21 00:00,ZGKL 210000Z 20001MPS 9999 SCT073 11/08 Q1025 NOSIG
ZGKL,2025-03-21 01:00,ZGKL 210100Z VRB01MPS 9999 FEW053 12/09 Q1026 NOSIG
ZGKL,2025-03-21 02:00,ZGKL 210200Z VRB01MPS CAVOK 17/08 Q1026 NOSIG
ZGKL,2025-03-21 03:00,ZGKL 210300Z VRB01MPS 9999 FEW070 19/06 Q1026 NOSIG
ZGKL,2025-03-21 04:00,ZGKL 210400Z 20002MPS 120V270 9999 FEW066 21/06 Q1025 NOSIG
ZGKL,2025-03-21 05:00,ZGKL 210500Z VRB01MPS 9999 FEW073 24/03 Q1023 NOSIG
ZGKL,2025-03-21 06:00,ZGKL 210600Z 13002MPS 040V210 CAVOK 25/03 Q1021 NOSIG
ZGKL,2025-03-21 07:00,ZGKL 210700Z VRB02MPS CAVOK 26/03 Q1020 NOSIG
ZGKL,2025-03-21 08:00,ZGKL 210800Z VRB02MPS CAVOK 26/03 Q1019 NOSIG
ZGKL,2025-03-21 09:00,ZGKL 210900Z 16002MPS 080V200 CAVOK 26/04 Q1018 NOSIG
ZGKL,2025-03-21 10:00,ZGKL 211000Z 17002MPS 130V190 CAVOK 25/04 Q1018 NOSIG
ZGKL,2025-03-21 11:00,ZGKL 211100Z 23002MPS CAVOK 21/07 Q1018 NOSIG
ZGKL,2025-03-21 12:00,ZGKL 211200Z VRB01MPS CAVOK 18/08 Q1019 NOSIG
ZGKL,2025-03-21 13:00,ZGKL 211300Z VRB01MPS CAVOK 15/09 Q1020 NOSIG
ZGKL,2025-03-21 14:00,ZGKL 211400Z VRB01MPS CAVOK 15/09 Q1021 NOSIG
ZGKL,2025-03-21 15:00,ZGKL 211500Z VRB01MPS CAVOK 15/10 Q1021 NOSIG
ZGKL,2025-03-21 16:00,ZGKL 211600Z 31001MPS CAVOK 14/10 Q1021 NOSIG
ZGKL,2025-03-21 17:00,ZGKL 211700Z 02001MPS CAVOK 15/10 Q1021 NOSIG
ZGKL,2025-03-21 18:00,ZGKL 211800Z 03001MPS CAVOK 15/11 Q1021 NOSIG
ZGKL,2025-03-21 19:00,ZGKL 211900Z 20001MPS CAVOK 13/11 Q1020 NOSIG
ZGKL,2025-03-21 20:00,ZGKL 212000Z VRB01MPS CAVOK 14/11 Q1020 NOSIG
ZGKL,2025-03-21 21:00,ZGKL 212100Z 16001MPS 9999 FEW060 13/11 Q1020 NOSIG
ZGKL,2025-03-21 22:00,ZGKL 212200Z 00000MPS CAVOK 12/10 Q1021 NOSIG
ZGKL,2025-03-21 23:00,ZGKL 212300Z 18001MPS CAVOK 10/10 Q1021 NOSIG
ZGKL,2025-03-22 00:00,ZGKL 220000Z VRB01MPS CAVOK 13/11 Q1022 NOSIG
ZGKL,2025-03-22 01:00,ZGKL 220100Z VRB01MPS CAVOK 16/11 Q1023 NOSIG
ZGKL,2025-03-22 02:00,ZGKL 220200Z VRB01MPS CAVOK 20/11 Q1023 NOSIG
ZGKL,2025-03-22 03:00,ZGKL 220300Z 18002MPS 130V240 CAVOK 23/08 Q1022 NOSIG
ZGKL,2025-03-22 04:00,ZGKL 220400Z 15003MPS 110V190 CAVOK 25/08 Q1022 NOSIG
ZGKL,2025-03-22 05:00,ZGKL 220500Z VRB03MPS CAVOK 27/09 Q1020 NOSIG
ZGKL,2025-03-22 06:00,ZGKL 220600Z 16003MPS 070V230 CAVOK 27/09 Q1019 NOSIG
ZGKL,2025-03-22 07:00,ZGKL 220700Z 16003MPS 100V190 CAVOK 27/09 Q1018 NOSIG
ZGKL,2025-03-22 08:00,ZGKL 220800Z 15004MPS 120V200 CAVOK 28/08 Q1016 NOSIG
ZGKL,2025-03-22 09:00,ZGKL 220900Z 17006MPS CAVOK 27/07 Q1016 BECMG FM1000 25003MPS
ZGKL,2025-03-22 10:00,ZGKL 221000Z 14003MPS CAVOK 26/07 Q1016 NOSIG
ZGKL,2025-03-22 11:00,ZGKL 221100Z VRB01MPS CAVOK 23/09 Q1016 NOSIG
ZGKL,2025-03-22 12:00,ZGKL 221200Z 23001MPS CAVOK 19/11 Q1017 NOSIG
ZGKL,2025-03-22 13:00,ZGKL 221300Z 27001MPS CAVOK 19/11 Q1018 NOSIG
ZGKL,2025-03-22 14:00,ZGKL 221400Z 17001MPS CAVOK 18/12 Q1018 NOSIG
ZGKL,2025-03-22 15:00,ZGKL 221500Z 00000MPS CAVOK 17/11 Q1018 NOSIG
ZGKL,2025-03-22 16:00,ZGKL 221600Z 00000MPS CAVOK 16/12 Q1019 NOSIG
ZGKL,2025-03-22 17:00,ZGKL 221700Z VRB01MPS CAVOK 14/12 Q1019 NOSIG
ZGKL,2025-03-22 18:00,ZGKL 221800Z 22001MPS CAVOK 14/13 Q1018 NOSIG
ZGKL,2025-03-22 19:00,ZGKL 221900Z 00000MPS CAVOK 14/12 Q1018 NOSIG
ZGKL,2025-03-22 20:00,ZGKL 222000Z 28001MPS CAVOK 15/13 Q1017 NOSIG
ZGKL,2025-03-22 21:00,ZGKL 222100Z VRB01MPS CAVOK 14/13 Q1017 NOSIG
ZGKL,2025-03-22 22:00,ZGKL 222200Z 19001MPS CAVOK 13/12 Q1018 NOSIG
ZGKL,2025-03-22 23:00,ZGKL 222300Z 00000MPS CAVOK 13/12 Q1018 NOSIG
ZGKL,2025-03-23 00:00,ZGKL 230000Z VRB01MPS CAVOK 15/12 Q1019 NOSIG
ZGKL,2025-03-23 01:00,ZGKL 230100Z VRB01MPS 9999 FEW030 18/12 Q1020 NOSIG
ZGKL,2025-03-23 02:00,ZGKL 230200Z VRB01MPS 9999 FEW066 20/12 Q1020 NOSIG
ZGKL,2025-03-23 03:00,ZGKL 230300Z 17002MPS 150V210 9999 FEW066 24/12 Q1020 NOSIG
ZGKL,2025-03-23 04:00,ZGKL 230400Z 15003MPS 090V210 9999 FEW066 26/13 Q1018 NOSIG
ZGKL,2025-03-23 05:00,ZGKL 230500Z 14003MPS 040V190 9999 FEW066 27/11 Q1017 NOSIG
ZGKL,2025-03-23 06:00,ZGKL 230600Z 13003MPS 060V220 9999 FEW073 29/11 Q1015 NOSIG
ZGKL,2025-03-23 07:00,ZGKL 230700Z 17004MPS 120V220 9999 FEW073 29/11 Q1014 NOSIG
ZGKL,2025-03-23 08:00,ZGKL 230800Z 15003MPS 120V200 9999 SCT066 28/10 Q1014 NOSIG
ZGKL,2025-03-23 09:00,ZGKL 230900Z 20002MPS 160V320 9999 FEW066 28/10 Q1013 NOSIG
ZGKL,2025-03-23 10:00,ZGKL 231000Z VRB01MPS 9999 FEW066 27/11 Q1013 NOSIG
ZGKL,2025-03-23 11:00,ZGKL 231100Z 00000MPS 9999 FEW066 23/12 Q1014 NOSIG
ZGKL,2025-03-23 12:00,ZGKL 231200Z VRB01MPS 9999 FEW066 21/12 Q1015 NOSIG
ZGKL,2025-03-23 13:00,ZGKL 231300Z 28001MPS 9999 FEW066 19/13 Q1015 NOSIG
ZGKL,2025-03-23 14:00,ZGKL 231400Z 28002MPS 9999 FEW066 20/12 Q1016 NOSIG
ZGKL,2025-03-23 15:00,ZGKL 231500Z 31001MPS 9999 FEW066 17/13 Q1016 NOSIG
ZGKL,2025-03-23 16:00,ZGKL 231600Z 19001MPS 9999 FEW066 15/13 Q1016 NOSIG
ZGKL,2025-03-23 17:00,ZGKL 231700Z 00000MPS 9999 FEW066 15/13 Q1016 NOSIG
ZGKL,2025-03-23 18:00,ZGKL 231800Z VRB01MPS CAVOK 14/13 Q1015 NOSIG
ZGKL,2025-03-23 19:00,ZGKL 231900Z VRB01MPS CAVOK 15/13 Q1014 NOSIG
ZGKL,2025-03-23 20:00,ZGKL 232000Z VRB01MPS 8000 FEW066 15/13 Q1014 NOSIG
ZGKL,2025-03-23 21:00,ZGKL 232100Z VRB01MPS 7000 FEW066 13/13 Q1014 NOSIG
ZGKL,2025-03-23 22:00,ZGKL 232200Z VRB01MPS 6000 FEW066 13/13 Q1015 NOSIG
ZGKL,2025-03-23 23:00,ZGKL 232300Z 11001MPS 7000 NSC 13/13 Q1015 NOSIG
ZGKL,2025-03-24 00:00,ZGKL 240000Z 00000MPS 8000 NSC 15/14 Q1016 NOSIG
ZGKL,2025-03-24 01:00,ZGKL 240100Z VRB01MPS 8000 NSC 19/14 Q1016 NOSIG
ZGKL,2025-03-24 02:00,ZGKL 240200Z VRB01MPS 9000 NSC 22/12 Q1016 NOSIG
ZGKL,2025-03-24 03:00,ZGKL 240300Z VRB01MPS 9000 NSC 25/11 Q1016 NOSIG
ZGKL,2025-03-24 04:00,ZGKL 240400Z VRB02MPS 9000 NSC 27/11 Q1015 NOSIG
ZGKL,2025-03-24 05:00,ZGKL 240500Z 18003MPS 080V220 CAVOK 28/12 Q1013 NOSIG
ZGKL,2025-03-24 06:00,ZGKL 240600Z 14003MPS 080V230 CAVOK 30/13 Q1012 NOSIG
ZGKL,2025-03-24 07:00,ZGKL 240700Z 07002MPS 040V120 CAVOK 31/12 Q1010 NOSIG
ZGKL,2025-03-24 08:00,ZGKL 240800Z 13002MPS 090V170 CAVOK 30/13 Q1009 NOSIG
ZGKL,2025-03-24 09:00,ZGKL 240900Z 18002MPS CAVOK 30/13 Q1008 NOSIG
ZGKL,2025-03-24 10:00,ZGKL 241000Z 19002MPS CAVOK 28/15 Q1008 NOSIG
ZGKL,2025-03-24 11:00,ZGKL 241100Z VRB01MPS CAVOK 27/14 Q1008 NOSIG
ZGKL,2025-03-24 12:00,ZGKL 241200Z VRB01MPS CAVOK 23/16 Q1009 NOSIG
ZGKL,2025-03-24 13:00,ZGKL 241300Z VRB01MPS 8000 NSC 21/16 Q1010 NOSIG
ZGKL,2025-03-24 14:00,ZGKL 241400Z VRB01MPS 8000 NSC 21/15 Q1010 NOSIG
ZGKL,2025-03-24 15:00,ZGKL 241500Z VRB01MPS 7000 NSC 19/16 Q1010 NOSIG
ZGKL,2025-03-24 16:00,ZGKL 241600Z 00000MPS 8000 NSC 19/15 Q1010 NOSIG
ZGKL,2025-03-24 17:00,ZGKL 241700Z VRB01MPS 7000 NSC 18/16 Q1010 NOSIG
ZGKL,2025-03-24 18:00,ZGKL 241800Z VRB01MPS 6000 NSC 17/16 Q1009 NOSIG
ZGKL,2025-03-24 19:00,ZGKL 241900Z 01002MPS 6000 NSC 16/15 Q1009 NOSIG
ZGKL,2025-03-24 20:00,ZGKL 242000Z VRB01MPS 6000 NSC 16/16 Q1008 NOSIG
ZGKL,2025-03-24 21:00,ZGKL 242100Z 02001MPS 6000 NSC 16/16 Q1008 NOSIG
ZGKL,2025-03-24 22:00,ZGKL 242200Z 36001MPS 6000 NSC 15/15 Q1008 NOSIG
ZGKL,2025-03-24 23:00,ZGKL 242300Z 00000MPS 5000 MIFG BR NSC 15/15 Q1009 NOSIG
ZGKL,2025-03-25 00:00,ZGKL 250000Z VRB01MPS 5000 BR NSC 17/16 Q1009 NOSIG
ZGKL,2025-03-25 01:00,ZGKL 250100Z VRB01MPS 4200 BR NSC 20/15 Q1009 NOSIG
ZGKL,2025-03-25 02:00,ZGKL 250200Z VRB01MPS 5000 HZ NSC 24/15 Q1009 NOSIG
ZGKL,2025-03-25 03:00,ZGKL 250300Z 17004G09MPS 9000 NSC 28/15 Q1009 NOSIG
ZGKL,2025-03-25 04:00,ZGKL 250400Z 16005MPS CAVOK 29/15 Q1008 NOSIG
ZGKL,2025-03-25 05:00,ZGKL 250500Z 17006MPS CAVOK 30/16 Q1006 NOSIG
ZGKL,2025-03-25 06:00,ZGKL 250600Z 18006MPS 150V220 CAVOK 31/16 Q1005 NOSIG
ZGKL,2025-03-25 07:00,ZGKL 250700Z 18007MPS CAVOK 32/16 Q1003 NOSIG
ZGKL,2025-03-25 08:00,ZGKL 250800Z 19006MPS CAVOK 32/16 Q1003 NOSIG
ZGKL,2025-03-25 09:00,ZGKL 250900Z 19006MPS CAVOK 31/16 Q1002 NOSIG
ZGKL,2025-03-25 10:00,ZGKL 251000Z 19005MPS CAVOK 30/16 Q1002 BECMG FM1130 25002MPS
ZGKL,2025-03-25 11:00,ZGKL 251100Z 22002MPS 130V250 CAVOK 28/16 Q1003 NOSIG
ZGKL,2025-03-25 12:00,ZGKL 251200Z VRB01MPS CAVOK 24/16 Q1003 NOSIG
ZGKL,2025-03-25 13:00,ZGKL 251300Z 34002MPS 280V010 9000 NSC 23/17 Q1004 NOSIG
ZGKL,2025-03-25 14:00,ZGKL 251400Z VRB01MPS 9000 NSC 22/17 Q1005 NOSIG
ZGKL,2025-03-25 15:00,ZGKL 251500Z 00000MPS 8000 NSC 21/17 Q1005 NOSIG
ZGKL,2025-03-25 16:00,ZGKL 251600Z 30002MPS 7000 NSC 20/17 Q1005 NOSIG
ZGKL,2025-03-25 17:00,ZGKL 251700Z VRB01MPS 7000 NSC 19/17 Q1005 NOSIG
ZGKL,2025-03-25 18:00,ZGKL 251800Z 00000MPS 6000 NSC 19/17 Q1004 NOSIG
ZGKL,2025-03-25 19:00,ZGKL 251900Z VRB01MPS 5000 BR NSC 18/17 Q1004 NOSIG
ZGKL,2025-03-25 20:00,ZGKL 252000Z 00000MPS 5000 BR NSC 18/17 Q1004 NOSIG
ZGKL,2025-03-25 21:00,ZGKL 252100Z VRB01MPS 5000 BR NSC 17/17 Q1004 NOSIG
ZGKL,2025-03-25 22:00,ZGKL 252200Z 19004MPS 9000 NSC 20/15 Q1004 NOSIG
ZGKL,2025-03-25 23:00,ZGKL 252300Z VRB01MPS 9000 PRFG NSC 18/16 Q1005 NOSIG
ZGKL,2025-03-26 00:00,ZGKL 260000Z 00000MPS 9999 SCT056 19/18 Q1005 NOSIG
ZGKL,2025-03-26 01:00,ZGKL 260100Z VRB01MPS 9999 SCT056 23/17 Q1005 BECMG TL0200 18005MPS
ZGKL,2025-03-26 02:00,ZGKL 260200Z 21004MPS 160V250 9999 FEW056 27/16 Q1005 NOSIG
ZGKL,2025-03-26 03:00,ZGKL 260300Z 19007MPS 9999 FEW066 27/16 Q1005 NOSIG
ZGKL,2025-03-26 04:00,ZGKL 260400Z 19008MPS 9999 FEW066 29/16 Q1004 NOSIG
ZGKL,2025-03-26 05:00,ZGKL 260500Z 17008MPS 140V210 CAVOK 30/17 Q1002 NOSIG
ZGKL,2025-03-26 06:00,ZGKL 260600Z 18009MPS 9999 FEW066 31/16 Q1000 NOSIG
ZGKL,2025-03-26 07:00,ZGKL 260700Z 18008MPS CAVOK 31/16 Q0999 NOSIG
ZGKL,2025-03-26 08:00,ZGKL 260800Z 18008MPS CAVOK 31/16 Q0998 NOSIG
ZGKL,2025-03-26 09:00,ZGKL 260900Z 19008MPS CAVOK 30/16 Q0998 BECMG FM1040 19003MPS
ZGKL,2025-03-26 10:00,ZGKL 261000Z 19007MPS CAVOK 30/16 Q0998 BECMG FM1130 19002MPS
ZGKL,2025-03-26 11:00,ZGKL 261100Z 20005MPS CAVOK 28/16 Q0998 BECMG FM1200 VRB02MPS
ZGKL,2025-03-26 12:00,ZGKL 261200Z 17003MPS CAVOK 27/16 Q0999 NOSIG
ZGKL,2025-03-26 13:00,ZGKL 261300Z VRB01MPS CAVOK 24/17 Q1000 NOSIG
ZGKL,2025-03-26 14:00,ZGKL 261400Z 24002MPS 180V280 CAVOK 23/17 Q1001 NOSIG
ZGKL,2025-03-26 15:00,ZGKL 261500Z 23002G07MPS 170V270 CAVOK 22/17 Q1002 NOSIG
ZGKL,2025-03-26 16:00,ZGKL 261600Z 17004MPS CAVOK 25/16 Q1002 NOSIG
ZGKL,2025-03-26 17:00,ZGKL 261700Z 28002MPS 230V300 CAVOK 21/17 Q1002 NOSIG
ZGKL,2025-03-26 18:00,ZGKL 261800Z VRB01MPS CAVOK 19/17 Q1002 NOSIG
ZGKL,2025-03-26 19:00,ZGKL 261900Z VRB01MPS 8000 NSC 18/17 Q1002 NOSIG
ZGKL,2025-03-26 20:00,ZGKL 262000Z VRB01MPS 8000 NSC 18/17 Q1002 NOSIG
ZGKL,2025-03-26 21:00,ZGKL 262100Z VRB01MPS 7000 NSC 18/16 Q1002 NOSIG
ZGKL,2025-03-26 22:00,ZGKL 262200Z VRB01MPS 5000 BR NSC 17/16 Q1002 NOSIG
ZGKL,2025-03-26 23:00,ZGKL 262300Z VRB01MPS 8000 PRFG NSC 17/16 Q1003 NOSIG
ZGKL,2025-03-27 00:00,ZGKL 270000Z VRB01MPS 8000 FEW073 19/17 Q1004 NOSIG
ZGKL,2025-03-27 01:00,ZGKL 270100Z VRB01MPS 8000 FEW073 23/18 Q1004 NOSIG
ZGKL,2025-03-27 02:00,ZGKL 270200Z VRB01MPS 9999 FEW033 BKN060 25/18 Q1005 NOSIG
ZGKL,2025-03-27 03:00,ZGKL 270300Z 20004MPS 160V270 9999 FEW033 OVC060 26/19 Q1004 NOSIG
ZGKL,2025-03-27 04:00,ZGKL 270400Z 20007MPS 170V240 9999 FEW033 OVC060 28/18 Q1003 NOSIG
ZGKL,2025-03-27 05:00,ZGKL 270500Z 19006MPS 9999 FEW033 SCT043 30/19 Q1002 NOSIG
ZGKL,2025-03-27 06:00,ZGKL 270600Z 22004MPS 190V260 9999 FEW043 30/19 Q1001 NOSIG
ZGKL,2025-03-27 07:00,ZGKL 270700Z 13003MPS 080V180 9999 FEW040 30/19 Q1000 NOSIG
ZGKL,2025-03-27 08:00,ZGKL 270800Z 11004MPS CAVOK 31/20 Q0999 NOSIG
ZGKL,2025-03-27 09:00,ZGKL 270900Z 13004MPS 090V150 CAVOK 31/20 Q0999 NOSIG
ZGKL,2025-03-27 10:00,ZGKL 271000Z 12004MPS CAVOK 29/19 Q1000 NOSIG
ZGKL,2025-03-27 11:00,ZGKL 271100Z 13004MPS 080V150 9999 FEW033 BKN060 28/19 Q1001 NOSIG
ZGKL,2025-03-27 12:00,ZGKL 271200Z VRB01MPS 9999 FEW033 BKN060 27/19 Q1002 NOSIG
ZGKL,2025-03-27 13:00,ZGKL 271300Z VRB01MPS 9999 FEW033 BKN060 26/19 Q1004 NOSIG
ZGKL,2025-03-27 14:00,ZGKL 271400Z VRB01MPS 9999 FEW033 BKN060 25/20 Q1005 NOSIG
ZGKL,2025-03-27 15:00,ZGKL 271500Z 35001MPS 9999 FEW033 BKN060 24/20 Q1006 NOSIG
ZGKL,2025-03-27 16:00,ZGKL 271600Z 35002MPS 9999 FEW040 BKN060 24/20 Q1006 BECMG FM1750 06005MPS
ZGKL,2025-03-27 17:00,ZGKL 271700Z 05010MPS 9999 FEW040 BKN060 24/12 Q1007 NOSIG
ZGKL,2025-03-27 18:00,ZGKL 271800Z 05007MPS 9999 SCT040 BKN060 22/10 Q1009 NOSIG
ZGKL,2025-03-27 19:00,ZGKL 271900Z 04006MPS 9999 SCT043 BKN060 21/09 Q1009 NOSIG
ZGKL,2025-03-27 20:00,ZGKL 272000Z 05007MPS 9999 SCT046 BKN066 20/07 Q1010 NOSIG
ZGKL,2025-03-27 21:00,ZGKL 272100Z 05007MPS 9999 SCT046 BKN066 19/06 Q1011 NOSIG
ZGKL,2025-03-27 22:00,ZGKL 272200Z 05007MPS 9999 SCT046 BKN066 18/05 Q1013 NOSIG
ZGKL,2025-03-27 23:00,ZGKL 272300Z 06009MPS 9999 SCT046 BKN066 17/04 Q1014 NOSIG
ZGKL,2025-03-28 00:00,ZGKL 280000Z 06009MPS 9999 SCT046 BKN066 16/03 Q1015 NOSIG
ZGKL,2025-03-28 01:00,ZGKL 280100Z 06008MPS 9999 SCT043 OVC066 15/03 Q1017 NOSIG
ZGKL,2025-03-28 02:00,ZGKL 280200Z 06007MPS 9999 SCT046 OVC066 15/04 Q1018 NOSIG
ZGKL,2025-03-28 03:00,ZGKL 280300Z 06006MPS 9999 SCT046 OVC066 15/05 Q1018 NOSIG
ZGKL,2025-03-28 04:00,ZGKL 280400Z 06005MPS 030V090 9999 SCT043 BKN070 15/05 Q1018 NOSIG
ZGKL,2025-03-28 05:00,ZGKL 280500Z 07007MPS 9999 SCT043 OVC066 15/05 Q1017 NOSIG
ZGKL,2025-03-28 06:00,ZGKL 280600Z 07007MPS 9999 SCT046 OVC066 14/06 Q1017 NOSIG
ZGKL,2025-03-28 07:00,ZGKL 280700Z 07008MPS 9999 SCT046 OVC066 14/06 Q1016 NOSIG
ZGKL,2025-03-28 08:00,ZGKL 280800Z 07007MPS 9999 SCT046 OVC066 13/06 Q1016 NOSIG
ZGKL,2025-03-28 09:00,ZGKL 280900Z 06008MPS 9999 SCT043 OVC066 13/06 Q1016 NOSIG
ZGKL,2025-03-28 10:00,ZGKL 281000Z 06008MPS 9999 SCT043 OVC066 12/05 Q1017 NOSIG
ZGKL,2025-03-28 11:00,ZGKL 281100Z 06005MPS 9999 SCT043 OVC066 12/05 Q1018 NOSIG
ZGKL,2025-03-28 12:00,ZGKL 281200Z 05005MPS 9999 SCT046 OVC066 12/04 Q1019 NOSIG
ZGKL,2025-03-28 13:00,ZGKL 281300Z 05006MPS 9999 SCT040 OVC066 11/04 Q1020 NOSIG
ZGKL,2025-03-28 14:00,ZGKL 281400Z 04004MPS 9999 SCT033 OVC060 11/03 Q1021 NOSIG
ZGKL,2025-03-28 15:00,ZGKL 281500Z 05007MPS 9999 SCT033 OVC060 11/04 Q1022 NOSIG
ZGKL,2025-03-28 16:00,ZGKL 281600Z 06005MPS 9999 SCT033 OVC056 10/04 Q1023 NOSIG
ZGKL,2025-03-28 17:00,ZGKL 281700Z 05005MPS 9999 SCT026 OVC053 10/04 Q1023 NOSIG
ZGKL,2025-03-28 18:00,ZGKL 281800Z 04004MPS 9999 SCT026 OVC053 10/04 Q1022 NOSIG
ZGKL,2025-03-28 19:00,ZGKL 281900Z 03004MPS 010V070 9999 -RA SCT026 OVC053 10/05 Q1022 NOSIG
ZGKL,2025-03-28 20:00,ZGKL 282000Z 07004MPS 9999 SCT033 OVC053 09/05 Q1021 NOSIG
ZGKL,2025-03-28 21:00,ZGKL 282100Z 06005MPS 9999 SCT033 OVC053 09/04 Q1021 NOSIG
ZGKL,2025-03-28 22:00,ZGKL 282200Z 07005MPS 9999 SCT033 OVC053 09/04 Q1022 NOSIG
ZGKL,2025-03-28 23:00,ZGKL 282300Z 06004MPS 9999 BKN030 OVC050 09/04 Q1022 NOSIG
ZGKL,2025-03-29 00:00,ZGKL 290000Z 05004MPS 9999 SCT030 OVC050 09/04 Q1024 NOSIG
ZGKL,2025-03-29 01:00,ZGKL 290100Z 06004MPS 9999 SCT030 OVC046 09/04 Q1025 NOSIG
ZGKL,2025-03-29 02:00,ZGKL 290200Z 06005MPS 9999 SCT026 OVC046 09/04 Q1026 NOSIG
ZGKL,2025-03-29 03:00,ZGKL 290300Z 05005MPS 9999 SCT030 OVC046 09/04 Q1026 NOSIG
ZGKL,2025-03-29 04:00,ZGKL 290400Z 04005MPS 360V070 9999 SCT030 OVC046 09/04 Q1026 NOSIG
ZGKL,2025-03-29 05:00,ZGKL 290500Z 04007MPS 9999 FEW015 BKN026 OVC043 09/03 Q1025 NOSIG
ZGKL,2025-03-29 06:00,ZGKL 290600Z 04006MPS 9999 FEW016 BKN026 OVC043 09/03 Q1024 NOSIG
ZGKL,2025-03-29 07:00,ZGKL 290700Z 03006MPS 9999 FEW013 BKN026 OVC043 09/03 Q1024 NOSIG
ZGKL,2025-03-29 08:00,ZGKL 290800Z 03006MPS 360V080 9000 -DZ FEW013 SCT026 OVC043 09/04 Q1023 NOSIG
ZGKL,2025-03-29 09:00,ZGKL 290900Z 05005MPS 9999 SCT026 OVC043 08/05 Q1023 NOSIG
ZGKL,2025-03-29 10:00,ZGKL 291000Z 04004MPS 010V070 9999 FEW016 SCT026 OVC043 08/04 Q1024 NOSIG
ZGKL,2025-03-29 11:00,ZGKL 291100Z 03003MPS 350V060 9999 FEW015 SCT026 OVC043 08/04 Q1024 NOSIG
ZGKL,2025-03-29 12:00,ZGKL 291200Z 04004MPS 9999 -RA FEW015 SCT026 OVC043 08/04 Q1025 NOSIG
ZGKL,2025-03-29 13:00,ZGKL 291300Z 04004MPS 9999 FEW016 SCT030 OVC043 08/03 Q1025 NOSIG
ZGKL,2025-03-29 14:00,ZGKL 291400Z 04003MPS 9999 -RA FEW015 SCT030 OVC043 07/04 Q1026 NOSIG
ZGKL,2025-03-29 15:00,ZGKL 291500Z 05003MPS 9999 -RA SCT030 OVC046 07/04 Q1027 NOSIG
ZGKL,2025-03-29 16:00,ZGKL 291600Z 06004MPS 9999 -RA SCT030 OVC043 07/04 Q1027 NOSIG
ZGKL,2025-03-29 17:00,ZGKL 291700Z 05003MPS 9999 -RA SCT026 OVC040 07/04 Q1027 NOSIG
ZGKL,2025-03-29 18:00,ZGKL 291800Z 02002MPS 9000 -RA SCT026 OVC040 07/05 Q1027 NOSIG
ZGKL,2025-03-29 19:00,ZGKL 291900Z VRB01MPS 9000 -RA SCT026 OVC040 06/05 Q1026 NOSIG
ZGKL,2025-03-29 20:00,ZGKL 292000Z VRB01MPS 9000 -DZ SCT026 OVC040 06/04 Q1026 NOSIG
ZGKL,2025-03-29 21:00,ZGKL 292100Z 33001MPS 7000 -SHRA FEW013 FEW026CB SCT026 OVC040 06/04 Q1026 NOSIG
ZGKL,2025-03-29 22:00,ZGKL 292200Z 05002MPS 9000 -RA SCT026 OVC040 06/05 Q1026 NOSIG
ZGKL,2025-03-29 23:00,ZGKL 292300Z VRB01MPS 9999 SCT033 OVC046 06/05 Q1027 NOSIG
ZGKL,2025-03-30 00:00,ZGKL 300000Z VRB01MPS 8000 -RA SCT036 OVC050 06/05 Q1028 NOSIG
ZGKL,2025-03-30 01:00,ZGKL 300100Z 02003MPS 340V050 8000 -RA FEW016 BKN040 OVC053 07/05 Q1029 NOSIG
ZGKL,2025-03-30 02:00,ZGKL 300200Z VRB01MPS 9000 FEW023 SCT043 OVC060 07/05 Q1029 NOSIG
ZGKL,2025-03-30 03:00,ZGKL 300300Z 02003MPS 9999 -RA FEW023 SCT046 OVC060 08/05 Q1029 NOSIG
ZGKL,2025-03-30 04:00,ZGKL 300400Z 06004MPS 9999 FEW016 BKN046 OVC060 09/05 Q1028 NOSIG
ZGKL,2025-03-30 05:00,ZGKL 300500Z 05003MPS 020V080 9999 FEW016 BKN046 OVC060 10/04 Q1027 NOSIG
ZGKL,2025-03-30 06:00,ZGKL 300600Z 04004MPS 9999 FEW010 SCT033 OVC060 10/04 Q1026 NOSIG
ZGKL,2025-03-30 07:00,ZGKL 300700Z 05004MPS 020V080 9999 FEW012 SCT033 OVC060 09/04 Q1025 NOSIG
ZGKL,2025-03-30 08:00,ZGKL 300800Z 06004MPS 9999 BKN033 OVC060 09/04 Q1024 NOSIG
ZGKL,2025-03-30 09:00,ZGKL 300900Z 06005MPS 9999 BKN040 OVC060 09/04 Q1024 BECMG FM1030 35002MPS
ZGKL,2025-03-30 10:00,ZGKL 301000Z 04004MPS 020V080 9999 BKN040 OVC060 08/04 Q1023 NOSIG
ZGKL,2025-03-30 11:00,ZGKL 301100Z 05004MPS 030V090 9999 FEW026 SCT050 OVC060 08/04 Q1024 NOSIG
ZGKL,2025-03-30 12:00,ZGKL 301200Z 03003MPS 9999 FEW026 SCT050 OVC060 08/04 Q1025 NOSIG
ZGKL,2025-03-30 13:00,ZGKL 301300Z 02003MPS 9999 FEW026 SCT046 OVC053 08/04 Q1025 NOSIG
ZGKL,2025-03-30 14:00,ZGKL 301400Z 02002MPS 340V060 9999 SCT050 OVC060 08/04 Q1026 NOSIG
ZGKL,2025-03-30 15:00,ZGKL 301500Z 01002MPS 9999 SCT050 OVC066 08/04 Q1026 NOSIG
ZGKL,2025-03-30 16:00,ZGKL 301600Z VRB01MPS 9999 SCT060 OVC073 08/04 Q1026 NOSIG
ZGKL,2025-03-30 17:00,ZGKL 301700Z 00000MPS 9999 SCT060 OVC073 08/04 Q1026 NOSIG
ZGKL,2025-03-30 18:00,ZGKL 301800Z 04002MPS 9999 SCT060 OVC073 08/04 Q1025 NOSIG
ZGKL,2025-03-30 19:00,ZGKL 301900Z VRB01MPS 9999 SCT060 OVC073 08/04 Q1025 NOSIG
ZGKL,2025-03-30 20:00,ZGKL 302000Z 01003MPS 9999 SCT060 OVC073 08/04 Q1025 NOSIG
ZGKL,2025-03-30 21:00,ZGKL 302100Z 03002MPS 350V060 9999 SCT060 OVC073 08/04 Q1024 NOSIG
ZGKL,2025-03-30 22:00,ZGKL 302200Z 03002MPS 9999 SCT040 OVC060 08/04 Q1024 NOSIG
ZGKL,2025-03-30 23:00,ZGKL 302300Z 02002MPS 320V050 7000 SCT043 OVC060 08/04 Q1024 NOSIG
ZGKL,2025-03-31 00:00,ZGKL 310000Z 36002MPS 330V040 7000 FEW046 OVC060 08/04 Q1025 NOSIG
ZGKL,2025-03-31 01:00,ZGKL 310100Z 01002MPS 330V080 7000 FEW046 OVC060 09/04 Q1025 NOSIG
ZGKL,2025-03-31 02:00,ZGKL 310200Z VRB02MPS 9000 FEW043 BKN056 10/04 Q1025 NOSIG
ZGKL,2025-03-31 03:00,ZGKL 310300Z VRB01MPS 9000 FEW016 SCT036 BKN060 12/05 Q1025 NOSIG
ZGKL,2025-03-31 04:00,ZGKL 310400Z VRB01MPS 9000 FEW020 SCT036 OVC053 13/05 Q1024 NOSIG
ZGKL,2025-03-31 05:00,ZGKL 310500Z VRB02MPS 9999 FEW023 SCT033 BKN050 13/05 Q1023 NOSIG
ZGKL,2025-03-31 06:00,ZGKL 310600Z 02002MPS 310V120 9999 SCT026 BKN050 14/05 Q1022 NOSIG
ZGKL,2025-03-31 07:00,ZGKL 310700Z VRB02MPS 9999 FEW020 SCT036 BKN060 16/06 Q1020 NOSIG
ZGKL,2025-03-31 08:00,ZGKL 310800Z 04003MPS 320V070 9999 FEW020 BKN070 16/05 Q1020 NOSIG
ZGKL,2025-03-31 09:00,ZGKL 310900Z 09003MPS 9999 FEW026 BKN070 14/05 Q1020 NOSIG
ZGKL,2025-03-31 10:00,ZGKL 311000Z 06004MPS 9999 SCT040 14/05 Q1020 NOSIG
ZGKL,2025-03-31 11:00,ZGKL 311100Z 05004MPS 9999 SCT040 BKN066 13/05 Q1021 NOSIG
ZGKL,2025-03-31 12:00,ZGKL 311200Z 05006MPS 9999 SCT040 BKN053 12/05 Q1022 NOSIG
ZGKL,2025-03-31 13:00,ZGKL 311300Z 03004MPS 9999 SCT043 OVC056 11/05 Q1023 NOSIG
ZGKL,2025-03-31 14:00,ZGKL 311400Z 01003MPS 9999 SCT040 BKN056 10/05 Q1024 NOSIG
ZGKL,2025-03-31 15:00,ZGKL 311500Z VRB01MPS 9999 SCT040 OVC066 10/05 Q1024 NOSIG
ZGKL,2025-03-31 16:00,ZGKL 311600Z 00000MPS 9999 SCT040 OVC066 10/05 Q1024 NOSIG
ZGKL,2025-03-31 17:00,ZGKL 311700Z VRB01MPS 9999 SCT040 OVC066 10/06 Q1024 NOSIG
ZGKL,2025-03-31 18:00,ZGKL 311800Z VRB01MPS 9999 SCT040 OVC066 10/06 Q1023 NOSIG
ZGKL,2025-03-31 19:00,ZGKL 311900Z VRB01MPS 9999 SCT040 BKN070 10/07 Q1023 NOSIG
ZGKL,2025-03-31 20:00,ZGKL 312000Z VRB01MPS 9999 SCT040 BKN070 10/06 Q1022 NOSIG
ZGKL,2025-03-31 21:00,ZGKL 312100Z VRB01MPS 9999 SCT040 BKN073 09/07 Q1022 NOSIG
ZGKL,2025-03-31 22:00,ZGKL 312200Z VRB01MPS 8000 SCT040 BKN073 09/07 Q1022 NOSIG
ZGKL,2025-03-31 23:00,ZGKL 312300Z 35001MPS 8000 FEW056 09/07 Q1022 NOSIG
ZGKL,2025-04-01 00:00,ZGKL 010000Z VRB01MPS 9999 FEW060 10/08 Q1023 NOSIG
ZGKL,2025-04-01 01:00,ZGKL 010100Z VRB01MPS CAVOK 13/07 Q1023 NOSIG
ZGKL,2025-04-01 02:00,ZGKL 010200Z VRB01MPS CAVOK 16/05 Q1023 NOSIG
ZGKL,2025-04-01 03:00,ZGKL 010300Z 04004MPS 360V090 CAVOK 18/04 Q1022 NOSIG
ZGKL,2025-04-01 04:00,ZGKL 010400Z VRB02MPS CAVOK 20/03 Q1021 NOSIG
ZGKL,2025-04-01 05:00,ZGKL 010500Z 05003MPS 320V130 CAVOK 20/03 Q1020 NOSIG
ZGKL,2025-04-01 06:00,ZGKL 010600Z 11003MPS 050V170 CAVOK 21/03 Q1019 NOSIG
ZGKL,2025-04-01 07:00,ZGKL 010700Z VRB03MPS CAVOK 23/02 Q1017 NOSIG
ZGKL,2025-04-01 08:00,ZGKL 010800Z 07003MPS 360V130 CAVOK 23/01 Q1017 NOSIG
ZGKL,2025-04-01 09:00,ZGKL 010900Z VRB03MPS CAVOK 23/02 Q1016 NOSIG
ZGKL,2025-04-01 10:00,ZGKL 011000Z 06003MPS 010V090 CAVOK 22/01 Q1016 NOSIG
ZGKL,2025-04-01 11:00,ZGKL 011100Z 05004MPS CAVOK 20/02 Q1017 NOSIG
ZGKL,2025-04-01 12:00,ZGKL 011200Z 02003MPS 350V060 CAVOK 18/02 Q1018 NOSIG
ZGKL,2025-04-01 13:00,ZGKL 011300Z 32002MPS CAVOK 16/02 Q1019 NOSIG
ZGKL,2025-04-01 14:00,ZGKL 011400Z 32002MPS CAVOK 16/02 Q1020 NOSIG
ZGKL,2025-04-01 15:00,ZGKL 011500Z VRB01MPS CAVOK 13/05 Q1021 NOSIG
ZGKL,2025-04-01 16:00,ZGKL 011600Z 31002MPS CAVOK 12/05 Q1021 NOSIG
ZGKL,2025-04-01 17:00,ZGKL 011700Z VRB01MPS CAVOK 11/07 Q1021 NOSIG
ZGKL,2025-04-01 18:00,ZGKL 011800Z VRB01MPS CAVOK 10/06 Q1021 NOSIG
ZGKL,2025-04-01 19:00,ZGKL 011900Z VRB01MPS CAVOK 08/06 Q1020 NOSIG
ZGKL,2025-04-01 20:00,ZGKL 012000Z VRB01MPS CAVOK 10/07 Q1020 NOSIG
ZGKL,2025-04-01 21:00,ZGKL 012100Z 36002MPS CAVOK 10/08 Q1020 NOSIG
ZGKL,2025-04-01 22:00,ZGKL 012200Z 32002MPS 270V350 CAVOK 11/08 Q1021 NOSIG
ZGKL,2025-04-01 23:00,ZGKL 012300Z VRB01MPS 9999 FEW066 11/08 Q1021 NOSIG
ZGKL,2025-04-02 00:00,ZGKL 020000Z VRB01MPS 9999 FEW073 12/08 Q1022 NOSIG
ZGKL,2025-04-02 01:00,ZGKL 020100Z VRB01MPS CAVOK 16/07 Q1023 NOSIG
ZGKL,2025-04-02 02:00,ZGKL 020200Z VRB01MPS CAVOK 19/07 Q1023 NOSIG
ZGKL,2025-04-02 03:00,ZGKL 020300Z VRB01MPS CAVOK 21/05 Q1022 NOSIG
ZGKL,2025-04-02 04:00,ZGKL 020400Z 03003MPS 350V140 CAVOK 23/04 Q1021 NOSIG
ZGKL,2025-04-02 05:00,ZGKL 020500Z VRB02MPS CAVOK 24/03 Q1020 NOSIG
ZGKL,2025-04-02 06:00,ZGKL 020600Z VRB02MPS CAVOK 24/01 Q1018 NOSIG
ZGKL,2025-04-02 07:00,ZGKL 020700Z VRB02MPS CAVOK 26/02 Q1017 NOSIG
ZGKL,2025-04-02 08:00,ZGKL 020800Z 09002MPS 030V130 CAVOK 25/00 Q1016 NOSIG
ZGKL,2025-04-02 09:00,ZGKL 020900Z 15002MPS 070V220 CAVOK 25/00 Q1016 NOSIG
ZGKL,2025-04-02 10:00,ZGKL 021000Z 20002MPS CAVOK 23/04 Q1016 NOSIG
ZGKL,2025-04-02 11:00,ZGKL 021100Z 20001MPS CAVOK 21/05 Q1016 NOSIG
ZGKL,2025-04-02 12:00,ZGKL 021200Z VRB01MPS CAVOK 18/06 Q1017 NOSIG
ZGKL,2025-04-02 13:00,ZGKL 021300Z 32002MPS 290V350 CAVOK 16/07 Q1018 NOSIG
ZGKL,2025-04-02 14:00,ZGKL 021400Z 34002MPS CAVOK 15/06 Q1019 NOSIG
ZGKL,2025-04-02 15:00,ZGKL 021500Z VRB01MPS CAVOK 14/06 Q1020 NOSIG
ZGKL,2025-04-02 16:00,ZGKL 021600Z 30001MPS CAVOK 13/07 Q1020 NOSIG
ZGKL,2025-04-02 17:00,ZGKL 021700Z VRB01MPS CAVOK 12/07 Q1020 NOSIG
ZGKL,2025-04-02 18:00,ZGKL 021800Z VRB01MPS CAVOK 11/07 Q1020 NOSIG
ZGKL,2025-04-02 19:00,ZGKL 021900Z 32001MPS CAVOK 11/07 Q1020 NOSIG
ZGKL,2025-04-02 20:00,ZGKL 022000Z 19001MPS CAVOK 10/08 Q1020 NOSIG
ZGKL,2025-04-02 21:00,ZGKL 022100Z 00000MPS CAVOK 10/08 Q1020 NOSIG
ZGKL,2025-04-02 22:00,ZGKL 022200Z 36001MPS CAVOK 10/08 Q1020 NOSIG
ZGKL,2025-04-02 23:00,ZGKL 022300Z 00000MPS CAVOK 10/09 Q1021 NOSIG
ZGKL,2025-04-03 00:00,ZGKL 030000Z VRB01MPS 9999 SCT060 12/09 Q1021 NOSIG
ZGKL,2025-04-03 01:00,ZGKL 030100Z 00000MPS 9999 SCT046 OVC073 13/09 Q1021 NOSIG
ZGKL,2025-04-03 02:00,ZGKL 030200Z VRB01MPS 9999 SCT043 OVC073 16/08 Q1022 NOSIG
ZGKL,2025-04-03 03:00,ZGKL 030300Z VRB01MPS CAVOK 20/06 Q1022 NOSIG
ZGKL,2025-04-03 04:00,ZGKL 030400Z VRB01MPS CAVOK 23/07 Q1020 NOSIG
ZGKL,2025-04-03 05:00,ZGKL 030500Z VRB01MPS CAVOK 24/05 Q1019 NOSIG
ZGKL,2025-04-03 06:00,ZGKL 030600Z VRB01MPS CAVOK 26/06 Q1017 NOSIG
ZGKL,2025-04-03 07:00,ZGKL 030700Z 19002MPS 100V220 9999 BKN053 25/07 Q1016 NOSIG
ZGKL,2025-04-03 08:00,ZGKL 030800Z VRB01MPS 9999 SCT046 BKN073 25/06 Q1015 NOSIG
ZGKL,2025-04-03 09:00,ZGKL 030900Z 20002MPS 9999 SCT060 24/05 Q1014 NOSIG
ZGKL,2025-04-03 10:00,ZGKL 031000Z VRB01MPS CAVOK 24/07 Q1014 NOSIG
ZGKL,2025-04-03 11:00,ZGKL 031100Z 00000MPS CAVOK 21/08 Q1014 NOSIG
ZGKL,2025-04-03 12:00,ZGKL 031200Z 28002MPS CAVOK 19/09 Q1015 NOSIG
ZGKL,2025-04-03 13:00,ZGKL 031300Z VRB01MPS CAVOK 16/10 Q1015 NOSIG
ZGKL,2025-04-03 14:00,ZGKL 031400Z 27001MPS CAVOK 16/11 Q1016 NOSIG
ZGKL,2025-04-03 15:00,ZGKL 031500Z VRB01MPS CAVOK 16/10 Q1016 NOSIG
ZGKL,2025-04-03 16:00,ZGKL 031600Z 21001MPS CAVOK 15/11 Q1016 NOSIG
ZGKL,2025-04-03 17:00,ZGKL 031700Z 01001MPS CAVOK 15/11 Q1016 NOSIG
ZGKL,2025-04-03 18:00,ZGKL 031800Z VRB01MPS CAVOK 16/11 Q1015 NOSIG
ZGKL,2025-04-03 19:00,ZGKL 031900Z VRB01MPS CAVOK 15/11 Q1015 NOSIG
ZGKL,2025-04-03 20:00,ZGKL 032000Z VRB01MPS 9000 NSC 15/12 Q1014 NOSIG
ZGKL,2025-04-03 21:00,ZGKL 032100Z VRB01MPS 9000 NSC 15/12 Q1014 NOSIG
ZGKL,2025-04-03 22:00,ZGKL 032200Z VRB01MPS 9999 BKN073 15/12 Q1015 NOSIG
ZGKL,2025-04-03 23:00,ZGKL 032300Z 00000MPS 6000 FEW046 BKN073 15/12 Q1015 NOSIG
ZGKL,2025-04-04 00:00,ZGKL 040000Z 02001MPS 6000 SCT043 BKN066 16/12 Q1016 NOSIG
ZGKL,2025-04-04 01:00,ZGKL 040100Z 00000MPS 6000 SCT043 OVC073 16/12 Q1016 NOSIG
ZGKL,2025-04-04 02:00,ZGKL 040200Z VRB01MPS 4500 BR SCT043 OVC070 16/12 Q1016 NOSIG
ZGKL,2025-04-04 03:00,ZGKL 040300Z VRB01MPS 3300 HZ SCT040 BKN066 17/11 Q1016 BECMG FM0440 2800
ZGKL,2025-04-04 04:00,ZGKL 040400Z VRB01MPS 2800 HZ SCT046 OVC066 18/11 Q1015 NOSIG
ZGKL,2025-04-04 05:00,ZGKL 040500Z 00000MPS 2500 HZ SCT046 OVC066 19/11 Q1015 BECMG FM0630 3100
ZGKL,2025-04-04 06:00,ZGKL 040600Z VRB01MPS 2500 HZ SCT040 OVC066 19/11 Q1014 BECMG TL0700 3100
ZGKL,2025-04-04 07:00,ZGKL 040700Z VRB01MPS 3000 HZ SCT040 OVC066 20/11 Q1013 BECMG FM0830 2800
ZGKL,2025-04-04 08:00,ZGKL 040800Z VRB01MPS 3000 HZ SCT033 OVC060 19/12 Q1012 BECMG TL0900 2800
ZGKL,2025-04-04 09:00,ZGKL 040900Z 34002MPS 2700 HZ SCT033 OVC060 19/12 Q1012 NOSIG
ZGKL,2025-04-04 10:00,ZGKL 041000Z VRB01MPS 2600 HZ SCT033 OVC060 19/12 Q1013 NOSIG
ZGKL,2025-04-04 11:00,ZGKL 041100Z 35001MPS 2800 HZ SCT033 OVC060 18/13 Q1014 BECMG FM1240 3000
ZGKL,2025-04-04 12:00,ZGKL 041200Z VRB01MPS 2900 HZ FEW033 OVC056 18/13 Q1015 BECMG FM1240 3000
ZGKL,2025-04-04 13:00,ZGKL 041300Z VRB01MPS 3000 HZ FEW033 OVC056 17/13 Q1016 NOSIG
ZGKL,2025-04-04 14:00,ZGKL 041400Z 29001MPS 3000 BR FEW033 OVC056 17/13 Q1017 BECMG FM1500 2800
ZGKL,2025-04-04 15:00,ZGKL 041500Z 24001MPS 2900 BR FEW033 OVC060 17/14 Q1017 BECMG FM1600 3000
ZGKL,2025-04-04 16:00,ZGKL 041600Z 27001MPS 4000 BR FEW046 OVC066 17/13 Q1017 NOSIG
ZGKL,2025-04-04 17:00,ZGKL 041700Z VRB01MPS 4000 BR FEW046 OVC073 17/13 Q1017 NOSIG
ZGKL,2025-04-04 18:00,ZGKL 041800Z VRB01MPS 4500 BR FEW046 OVC073 16/13 Q1016 NOSIG
ZGKL,2025-04-04 19:00,ZGKL 041900Z VRB01MPS 4000 BR FEW046 OVC073 16/14 Q1016 NOSIG
ZGKL,2025-04-04 20:00,ZGKL 042000Z 31001MPS 4200 BR SCT040 OVC066 16/14 Q1016 NOSIG
ZGKL,2025-04-04 21:00,ZGKL 042100Z VRB01MPS 4000 BR SCT040 OVC066 15/15 Q1016 NOSIG
ZGKL,2025-04-04 22:00,ZGKL 042200Z 00000MPS 3500 BR FEW040 OVC066 15/15 Q1017 NOSIG
ZGKL,2025-04-04 23:00,ZGKL 042300Z 00000MPS 3000 BCFG BR SCT040 OVC066 15/15 Q1017 NOSIG
ZGKL,2025-04-05 00:00,ZGKL 050000Z 36001MPS 3300 PRFG BR SCT036 OVC066 15/15 Q1018 BECMG FM0140 2800
ZGKL,2025-04-05 01:00,ZGKL 050100Z 36001MPS 3500 BR SCT050 17/15 Q1018 NOSIG
ZGKL,2025-04-05 02:00,ZGKL 050200Z VRB01MPS 3500 BR SCT053 18/15 Q1018 BECMG FM0330 2800
ZGKL,2025-04-05 03:00,ZGKL 050300Z VRB01MPS 3600 BR SCT056 20/14 Q1018 NOSIG
ZGKL,2025-04-05 04:00,ZGKL 050400Z VRB01MPS 4500 HZ SCT053 22/13 Q1017 NOSIG
ZGKL,2025-04-05 05:00,ZGKL 050500Z VRB01MPS 7000 SCT053 23/13 Q1017 NOSIG
ZGKL,2025-04-05 06:00,ZGKL 050600Z 02004MPS 360V070 9000 FEW060 25/12 Q1016 NOSIG
ZGKL,2025-04-05 07:00,ZGKL 050700Z 04004MPS CAVOK 25/11 Q1015 NOSIG
ZGKL,2025-04-05 08:00,ZGKL 050800Z 05004MPS 020V090 9999 SCT053 24/11 Q1014 NOSIG
ZGKL,2025-04-05 09:00,ZGKL 050900Z 05004MPS 9999 SCT053 BKN073 24/11 Q1014 NOSIG
ZGKL,2025-04-05 10:00,ZGKL 051000Z 04004MPS 9999 SCT053 BKN073 23/11 Q1014 NOSIG
ZGKL,2025-04-05 11:00,ZGKL 051100Z 06005MPS 9999 SCT060 22/10 Q1014 NOSIG
ZGKL,2025-04-05 12:00,ZGKL 051200Z 34002MPS 310V020 9999 SCT053 20/11 Q1015 NOSIG
ZGKL,2025-04-05 13:00,ZGKL 051300Z 01002MPS 340V070 9999 SCT053 19/11 Q1016 NOSIG
ZGKL,2025-04-05 14:00,ZGKL 051400Z VRB01MPS 8000 SCT053 19/11 Q1017 NOSIG
ZGKL,2025-04-05 15:00,ZGKL 051500Z 25001MPS 8000 FEW053 18/13 Q1017 NOSIG
ZGKL,2025-04-05 16:00,ZGKL 051600Z VRB01MPS 8000 FEW053 17/13 Q1017 NOSIG
ZGKL,2025-04-05 17:00,ZGKL 051700Z 00000MPS 8000 FEW053 16/13 Q1016 NOSIG
ZGKL,2025-04-05 18:00,ZGKL 051800Z VRB01MPS 8000 FEW053 16/14 Q1016 NOSIG
ZGKL,2025-04-05 19:00,ZGKL 051900Z VRB01MPS 6000 -RA SCT046 OVC066 16/14 Q1016 NOSIG
ZGKL,2025-04-05 20:00,ZGKL 052000Z 31002MPS 6000 SCT046 OVC066 16/14 Q1016 NOSIG
ZGKL,2025-04-05 21:00,ZGKL 052100Z VRB01MPS 5000 BR SCT046 OVC066 15/15 Q1016 NOSIG
ZGKL,2025-04-05 22:00,ZGKL 052200Z 29002MPS 260V330 5000 -SHRA BR FEW040CB SCT040 BKN060 15/15 Q1016 BECMG FM2300 TSRA
ZGKL,2025-04-05 23:00,ZGKL 052300Z 30001MPS 4000 -SHRA BR FEW040CB SCT040 BKN060 15/15 Q1017 BECMG TL2340 SHRA
ZGKL,2025-04-06 00:00,ZGKL 060000Z 00000MPS 4500 BR FEW040CB SCT040 BKN066 16/15 Q1018 BECMG TL0130 FEW020 SCT040 BKN060
ZGKL,2025-04-06 01:00,ZGKL 060100Z VRB01MPS 5000 BR FEW040CB SCT040 BKN070 16/15 Q1019 NOSIG
ZGKL,2025-04-06 02:00,ZGKL 060200Z 01004MPS 4500 BR SCT040 OVC066 16/15 Q1019 NOSIG
ZGKL,2025-04-06 03:00,ZGKL 060300Z 34002MPS 9999 SCT040 OVC073 16/14 Q1019 NOSIG
ZGKL,2025-04-06 04:00,ZGKL 060400Z VRB01MPS 9999 FEW046 OVC073 17/14 Q1019 NOSIG
ZGKL,2025-04-06 05:00,ZGKL 060500Z 00000MPS 8000 SCT043 OVC066 18/14 Q1018 NOSIG
ZGKL,2025-04-06 06:00,ZGKL 060600Z VRB01MPS 8000 SCT046 OVC073 19/13 Q1017 NOSIG
ZGKL,2025-04-06 07:00,ZGKL 060700Z VRB01MPS 8000 SCT053 OVC073 19/12 Q1016 NOSIG
ZGKL,2025-04-06 08:00,ZGKL 060800Z VRB01MPS 9000 NSC 21/11 Q1016 NOSIG
ZGKL,2025-04-06 09:00,ZGKL 060900Z VRB01MPS 9000 SCT053 BKN073 21/11 Q1015 NOSIG
ZGKL,2025-04-06 10:00,ZGKL 061000Z VRB01MPS 9000 FEW060 20/12 Q1015 NOSIG
ZGKL,2025-04-06 11:00,ZGKL 061100Z 00000MPS 9000 FEW060 19/13 Q1016 NOSIG
ZGKL,2025-04-06 12:00,ZGKL 061200Z 00000MPS 9000 FEW060 18/13 Q1016 NOSIG
ZGKL,2025-04-06 13:00,ZGKL 061300Z VRB01MPS 9000 FEW066 17/13 Q1017 NOSIG
ZGKL,2025-04-06 14:00,ZGKL 061400Z 01001MPS 9000 FEW066 17/14 Q1017 NOSIG
ZGKL,2025-04-06 15:00,ZGKL 061500Z VRB01MPS 8000 FEW070 16/14 Q1018 NOSIG
ZGKL,2025-04-06 16:00,ZGKL 061600Z VRB01MPS 8000 FEW046 16/15 Q1017 NOSIG
ZGKL,2025-04-06 17:00,ZGKL 061700Z 00000MPS 8000 FEW046 BKN066 16/15 Q1017 NOSIG
ZGKL,2025-04-06 18:00,ZGKL 061800Z 00000MPS 8000 BKN073 16/16 Q1016 NOSIG
ZGKL,2025-04-06 19:00,ZGKL 061900Z 00000MPS 6000 FEW053 OVC073 15/15 Q1016 NOSIG
ZGKL,2025-04-06 20:00,ZGKL 062000Z VRB01MPS 6000 FEW053 OVC073 16/16 Q1016 NOSIG
ZGKL,2025-04-06 21:00,ZGKL 062100Z 00000MPS 6000 FEW050 OVC073 16/16 Q1016 NOSIG
ZGKL,2025-04-06 22:00,ZGKL 062200Z VRB01MPS 6000 FEW046 OVC066 16/16 Q1017 NOSIG
ZGKL,2025-04-06 23:00,ZGKL 062300Z VRB01MPS 6000 SCT046 OVC066 16/16 Q1018 NOSIG
ZGKL,2025-04-07 00:00,ZGKL 070000Z VRB01MPS 6000 SCT040 OVC060 16/16 Q1018 NOSIG
ZGKL,2025-04-07 01:00,ZGKL 070100Z VRB01MPS 4500 -RA BR SCT040 OVC060 17/16 Q1019 NOSIG
ZGKL,2025-04-07 02:00,ZGKL 070200Z VRB01MPS 3500 BR SCT036 OVC056 18/15 Q1019 BECMG FM0330 2900
ZGKL,2025-04-07 03:00,ZGKL 070300Z VRB01MPS 3300 HZ SCT036 OVC060 19/15 Q1019 BECMG TL0400 2900
ZGKL,2025-04-07 04:00,ZGKL 070400Z VRB01MPS 4500 HZ SCT036 OVC060 21/14 Q1018 NOSIG
ZGKL,2025-04-07 05:00,ZGKL 070500Z VRB01MPS 4800 HZ SCT036 OVC056 23/15 Q1017 NOSIG
ZGKL,2025-04-07 06:00,ZGKL 070600Z 35002MPS 310V020 4500 HZ SCT043 OVC060 22/15 Q1016 NOSIG
ZGKL,2025-04-07 07:00,ZGKL 070700Z 34002MPS 300V030 5000 HZ SCT046 BKN066 23/15 Q1015 NOSIG
ZGKL,2025-04-07 08:00,ZGKL 070800Z VRB01MPS 6000 SCT050 BKN070 23/15 Q1014 NOSIG
ZGKL,2025-04-07 09:00,ZGKL 070900Z VRB01MPS 5000 HZ SCT050 OVC070 24/15 Q1014 NOSIG
ZGKL,2025-04-07 10:00,ZGKL 071000Z VRB01MPS 5000 HZ SCT050 OVC066 23/15 Q1014 NOSIG
ZGKL,2025-04-07 11:00,ZGKL 071100Z VRB01MPS 5000 HZ SCT050 OVC066 22/16 Q1015 NOSIG
ZGKL,2025-04-07 12:00,ZGKL 071200Z VRB01MPS 5000 BR SCT043 OVC066 21/17 Q1016 NOSIG
ZGKL,2025-04-07 13:00,ZGKL 071300Z 00000MPS 6000 SCT043 OVC066 21/17 Q1016 NOSIG
ZGKL,2025-04-07 14:00,ZGKL 071400Z VRB01MPS 6000 SCT043 OVC066 20/17 Q1017 NOSIG
ZGKL,2025-04-07 15:00,ZGKL 071500Z VRB01MPS 6000 SCT043 OVC066 20/17 Q1017 NOSIG
ZGKL,2025-04-07 16:00,ZGKL 071600Z VRB01MPS 6000 SCT043 OVC066 20/17 Q1017 NOSIG
ZGKL,2025-04-07 17:00,ZGKL 071700Z VRB01MPS 5000 BR SCT043 OVC066 19/17 Q1017 NOSIG
ZGKL,2025-04-07 18:00,ZGKL 071800Z 17001MPS 4500 BR SCT043 OVC066 19/18 Q1016 NOSIG
ZGKL,2025-04-07 19:00,ZGKL 071900Z VRB01MPS 4500 BR SCT040 OVC060 19/18 Q1016 NOSIG
ZGKL,2025-04-07 20:00,ZGKL 072000Z VRB01MPS 4000 BR SCT036 OVC053 19/18 Q1015 NOSIG
ZGKL,2025-04-07 21:00,ZGKL 072100Z 35001MPS 4000 BR SCT040 OVC053 19/18 Q1015 NOSIG
ZGKL,2025-04-07 22:00,ZGKL 072200Z VRB01MPS 5000 BR SCT033 OVC053 19/18 Q1016 NOSIG
ZGKL,2025-04-07 23:00,ZGKL 072300Z VRB01MPS 3000 BR SCT033 OVC053 18/18 Q1017 NOSIG
ZGKL,2025-04-08 00:00,ZGKL 080000Z VRB01MPS 4000 BR SCT033 OVC053 19/18 Q1017 NOSIG
ZGKL,2025-04-08 01:00,ZGKL 080100Z VRB01MPS 4000 BR SCT033 OVC053 20/18 Q1018 NOSIG
ZGKL,2025-04-08 02:00,ZGKL 080200Z VRB01MPS 3500 BR SCT033 OVC053 20/17 Q1018 BECMG FM0300 2800
ZGKL,2025-04-08 03:00,ZGKL 080300Z VRB01MPS 3200 BR SCT033 OVC056 21/18 Q1018 BECMG TL0400 2800
ZGKL,2025-04-08 04:00,ZGKL 080400Z 03002MPS 320V060 2900 BR SCT033 OVC056 22/17 Q1017 BECMG TL0500 3500
ZGKL,2025-04-08 05:00,ZGKL 080500Z VRB01MPS 3500 BR SCT026 OVC053 22/17 Q1016 NOSIG
ZGKL,2025-04-08 06:00,ZGKL 080600Z VRB01MPS 3200 -RA BR SCT030 OVC053 22/17 Q1015 BECMG FM0700 2800
ZGKL,2025-04-08 07:00,ZGKL 080700Z 35002MPS 2800 BR SCT030 OVC056 21/18 Q1015 BECMG TL0800 3300
ZGKL,2025-04-08 08:00,ZGKL 080800Z 35002MPS 2500 BR SCT026 OVC053 20/18 Q1014 NOSIG
ZGKL,2025-04-08 09:00,ZGKL 080900Z VRB01MPS 1600 -DZ BR FEW016 SCT026 OVC046 20/19 Q1014 BECMG TL1000 1300
ZGKL,2025-04-08 10:00,ZGKL 081000Z VRB01MPS 1000 R01/1200N -RA BR FEW010 SCT020 OVC033 19/19 Q1014 NOSIG
ZGKL,2025-04-08 11:00,ZGKL 081100Z VRB01MPS 0800 R01/1100U -RA FG FEW010 SCT020 OVC033 19/19 Q1014 TEMPO FM1130 0600
ZGKL,2025-04-08 12:00,ZGKL 081200Z VRB01MPS 0700 R01/1000U -RA FG FEW009 SCT020 OVC033 19/19 Q1015 TEMPO FM1230 0800
ZGKL,2025-04-08 13:00,ZGKL 081300Z VRB01MPS 0900 R01/1200U -RA FG SCT005 SCT020 OVC033 19/19 Q1015 NOSIG
ZGKL,2025-04-08 14:00,ZGKL 081400Z VRB01MPS 1000 R01/0900N -RA BR SCT005 SCT020 OVC033 19/19 Q1016 NOSIG
ZGKL,2025-04-08 15:00,ZGKL 081500Z VRB01MPS 1000 R01/1200U -RA BR FEW005 SCT020 OVC033 19/19 Q1015 NOSIG
ZGKL,2025-04-08 16:00,ZGKL 081600Z VRB01MPS 0800 R01/1000N -RA FG FEW003 SCT010 BKN020 19/19 Q1015 TEMPO FM1630 0700
ZGKL,2025-04-08 17:00,ZGKL 081700Z 00000MPS 1000 R01/1200U -RA BR FEW003 SCT009 BKN020 19/19 Q1015 NOSIG
ZGKL,2025-04-08 18:00,ZGKL 081800Z VRB01MPS 0900 R01/1300U -RA FG FEW003 SCT009 BKN020 19/19 Q1014 TEMPO FM1900 0700
ZGKL,2025-04-08 19:00,ZGKL 081900Z 00000MPS 0500 R01/0750N FG FEW002 SCT006 BKN016 19/19 Q1013 NOSIG
ZGKL,2025-04-08 20:00,ZGKL 082000Z VRB01MPS 0600 R01/0800N FG FEW001 SCT006 BKN016 19/19 Q1013 NOSIG
ZGKL,2025-04-08 21:00,ZGKL 082100Z VRB01MPS 0400 R01/0400N FG SCT001 SCT006 BKN016 19/19 Q1012 TEMPO TL2250 0700
ZGKL,2025-04-08 22:00,ZGKL 082200Z VRB01MPS 0500 R01/0700U FG SCT001 SCT006 BKN016 19/19 Q1013 BECMG TL2300 0600
ZGKL,2025-04-08 23:00,ZGKL 082300Z VRB01MPS 0200 R01/0750N FG FEW001 SCT006 BKN020 18/18 Q1013 BECMG FM0000 0600
ZGKL,2025-04-09 00:00,ZGKL 090000Z 20001MPS 0500 R01/0900D FG FEW006 SCT026 OVC040 19/19 Q1014 BECMG FM0100 0800
ZGKL,2025-04-09 01:00,COR ZGKL 090100Z 00000MPS 0900 R01/1300N FG FEW003 SCT026 OVC040 19/19 Q1014 BECMG FM0230 1600 BR
ZGKL,2025-04-09 02:00,ZGKL 090200Z VRB01MPS 1500 R19/1400D BR FEW003 SCT023 OVC036 20/20 Q1014 NOSIG
ZGKL,2025-04-09 03:00,ZGKL 090300Z VRB01MPS 2000 BR FEW005 SCT026 OVC040 20/20 Q1014 NOSIG
ZGKL,2025-04-09 04:00,ZGKL 090400Z VRB01MPS 2200 BR FEW013 SCT026 OVC040 21/20 Q1013 NOSIG
ZGKL,2025-04-09 05:00,ZGKL 090500Z 00000MPS 2200 BR FEW006 SCT026 OVC036 21/20 Q1012 NOSIG
ZGKL,2025-04-09 06:00,ZGKL 090600Z VRB01MPS 2100 BR FEW005 SCT010 OVC036 21/21 Q1011 BECMG FM0700 1300
ZGKL,2025-04-09 07:00,ZGKL 090700Z VRB01MPS 1200 R01/1200D -RA BR FEW005 SCT010 BKN023 20/20 Q1010 BECMG FM0800 1800
ZGKL,2025-04-09 08:00,ZGKL 090800Z VRB01MPS 1000 R01/1100D -RA BR FEW004 SCT010 BKN023 20/20 Q1009 NOSIG
ZGKL,2025-04-09 09:00,ZGKL 090900Z VRB01MPS 1000 R01/1200N -RA BR FEW004 SCT010 BKN023 20/20 Q1009 NOSIG
ZGKL,2025-04-09 10:00,ZGKL 091000Z VRB01MPS 1200 R01/1200N BR FEW004 SCT023 OVC033 20/20 Q1009 NOSIG
ZGKL,2025-04-09 11:00,ZGKL 091100Z VRB01MPS 1300 R01/1700N BR FEW004 SCT023 OVC036 20/20 Q1009 NOSIG
ZGKL,2025-04-09 12:00,ZGKL 091200Z VRB01MPS 1300 R01/1400U BR FEW004 OVC026 20/20 Q1009 NOSIG
ZGKL,2025-04-09 13:00,ZGKL 091300Z 30001MPS 1100 R01/1400N -SHRA BR FEW004 SCT013 OVC030 20/20 Q1010 NOSIG
ZGKL,2025-04-09 14:00,ZGKL 091400Z 26001MPS 1000 R01/1400D -SHRA PRFG BR FEW004 SCT013 OVC030 20/20 Q1010 BECMG FM1530 0700 FG
ZGKL,2025-04-09 15:00,ZGKL 091500Z VRB01MPS 1000 R01/1500U -SHRA BR FEW004 SCT013 OVC033 20/20 Q1010 NOSIG
ZGKL,2025-04-09 16:00,ZGKL 091600Z VRB01MPS 1000 R01/1400U PRFG BR FEW005 SCT010 OVC033 20/20 Q1010 NOSIG
ZGKL,2025-04-09 17:00,ZGKL 091700Z 00000MPS 0600 R01/1700N FG FEW002 SCT006 OVC030 20/20 Q1009 TEMPO 0900
ZGKL,2025-04-09 18:00,ZGKL 091800Z 00000MPS 0800 R01/1000D FG FEW002 SCT006 OVC030 20/20 Q1009 NOSIG
ZGKL,2025-04-09 19:00,ZGKL 091900Z VRB01MPS 0400 R01/0900U -RA FG FEW002 SCT006 OVC026 20/20 Q1009 NOSIG
ZGKL,2025-04-09 20:00,ZGKL 092000Z 00000MPS 0400 R01/0400N FG FEW002 SCT010 OVC026 19/19 Q1008 NOSIG
ZGKL,2025-04-09 21:00,ZGKL 092100Z 00000MPS 0200 R01/0550N FG FEW002 SCT010 OVC026 19/19 Q1008 NOSIG
ZGKL,2025-04-09 22:00,ZGKL 092200Z VRB01MPS 0200 R01/0325N FG VV003 19/19 Q1008 NOSIG
ZGKL,2025-04-09 23:00,ZGKL 092300Z 00000MPS 0400 R01/0500N FG VV003 19/19 Q1009 BECMG FM0030 0800
ZGKL,2025-04-10 00:00,ZGKL 100000Z VRB01MPS 0900 R01/1300U FG FEW003 SCT023 BKN046 20/20 Q1010 BECMG FM0130 1600 BR
ZGKL,2025-04-10 01:00,ZGKL 100100Z VRB01MPS 2000 BR FEW003 SCT026 OVC046 21/21 Q1010 BECMG FM0230 3000
ZGKL,2025-04-10 02:00,ZGKL 100200Z VRB01MPS 2600 BR FEW006 SCT026 OVC050 22/22 Q1010 BECMG TL0300 3000
ZGKL,2025-04-10 03:00,ZGKL 100300Z VRB01MPS 3200 BR FEW010 SCT026 OVC050 24/22 Q1010 NOSIG
ZGKL,2025-04-10 04:00,ZGKL 100400Z VRB01MPS 3500 BR FEW013 SCT026 BKN046 26/23 Q1009 NOSIG
ZGKL,2025-04-10 05:00,ZGKL 100500Z VRB01MPS 3700 HZ FEW013 SCT026 BKN046 28/22 Q1008 NOSIG
ZGKL,2025-04-10 06:00,ZGKL 100600Z VRB02MPS 4500 HZ FEW026 SCT046 29/21 Q1006 NOSIG
ZGKL,2025-04-10 07:00,ZGKL 100700Z 23002MPS 190V320 6000 FEW030 SCT046 30/21 Q1005 NOSIG
ZGKL,2025-04-10 08:00,ZGKL 100800Z 21002MPS 140V260 9999 SCT043 31/20 Q1004 NOSIG
ZGKL,2025-04-10 09:00,ZGKL 100900Z 16002MPS 110V220 9999 SCT043 31/20 Q1004 NOSIG
ZGKL,2025-04-10 10:00,ZGKL 101000Z 17003MPS 9999 SCT043 BKN073 29/20 Q1004 NOSIG
ZGKL,2025-04-10 11:00,ZGKL 101100Z 19002MPS 150V210 9999 SCT040 BKN060 27/21 Q1004 NOSIG
ZGKL,2025-04-10 12:00,ZGKL 101200Z 26001MPS 9999 SCT043 BKN060 26/22 Q1005 NOSIG
ZGKL,2025-04-10 13:00,ZGKL 101300Z 28001MPS 9999 SCT053 25/22 Q1005 NOSIG
ZGKL,2025-04-10 14:00,ZGKL 101400Z 22001MPS 8000 FEW050 23/23 Q1006 NOSIG
ZGKL,2025-04-10 15:00,ZGKL 101500Z 00000MPS 7000 FEW043 SCT060 23/23 Q1006 NOSIG
ZGKL,2025-04-10 16:00,ZGKL 101600Z VRB01MPS 7000 FEW043 SCT066 23/23 Q1006 NOSIG
ZGKL,2025-04-10 17:00,ZGKL 101700Z 00000MPS 6000 FEW043 SCT073 23/23 Q1006 NOSIG
ZGKL,2025-04-10 18:00,ZGKL 101800Z VRB01MPS 6000 SCT066 23/23 Q1006 NOSIG
ZGKL,2025-04-10 19:00,ZGKL 101900Z 12002MPS 6000 SCT066 23/21 Q1005 NOSIG
ZGKL,2025-04-10 20:00,ZGKL 102000Z VRB01MPS 7000 FEW033 23/21 Q1005 NOSIG
ZGKL,2025-04-10 21:00,ZGKL 102100Z 30002MPS 5000 BR FEW046 SCT073 22/22 Q1005 NOSIG
ZGKL,2025-04-10 22:00,ZGKL 102200Z VRB01MPS 6000 FEW043 BKN073 21/21 Q1005 NOSIG
ZGKL,2025-04-10 23:00,ZGKL 102300Z VRB01MPS 5000 PRFG BR FEW033 BKN050 21/21 Q1006 NOSIG
ZGKL,2025-04-11 00:00,ZGKL 110000Z VRB01MPS 4500 -RA BR FEW013 SCT033 OVC046 21/21 Q1006 NOSIG
ZGKL,2025-04-11 01:00,ZGKL 110100Z VRB01MPS 3500 BR SCT030 OVC046 22/22 Q1007 NOSIG
ZGKL,2025-04-11 02:00,ZGKL 110200Z 15002MPS 110V200 4000 BR SCT033 OVC046 24/22 Q1007 NOSIG
ZGKL,2025-04-11 03:00,ZGKL 110300Z 18007MPS 6000 SCT036 BKN053 27/22 Q1006 NOSIG
ZGKL,2025-04-11 04:00,ZGKL 110400Z 18005MPS 150V210 8000 SCT033 OVC050 27/21 Q1006 NOSIG
ZGKL,2025-04-11 05:00,ZGKL 110500Z 18006MPS 9000 SCT033 OVC050 28/21 Q1004 NOSIG
ZGKL,2025-04-11 06:00,ZGKL 110600Z 18007MPS 9000 SCT033 OVC050 28/21 Q1003 NOSIG
ZGKL,2025-04-11 07:00,ZGKL 110700Z 18006MPS 9000 SCT033 OVC050 29/21 Q1002 NOSIG
ZGKL,2025-04-11 08:00,ZGKL 110800Z 18007MPS 9000 SCT033 OVC050 29/21 Q1001 NOSIG
ZGKL,2025-04-11 09:00,ZGKL 110900Z 19007MPS 160V220 9000 SCT033 BKN050 29/21 Q1001 NOSIG
ZGKL,2025-04-11 10:00,ZGKL 111000Z 20003MPS 9000 SCT030 BKN050 28/21 Q1001 NOSIG
ZGKL,2025-04-11 11:00,ZGKL 111100Z 17002MPS 8000 SCT030 BKN053 27/22 Q1001 NOSIG
ZGKL,2025-04-11 12:00,ZGKL 111200Z 18004MPS 8000 SCT040 BKN066 27/21 Q1002 NOSIG
ZGKL,2025-04-11 13:00,ZGKL 111300Z 18007MPS 9999 SCT043 BKN066 28/21 Q1003 NOSIG
ZGKL,2025-04-11 14:00,ZGKL 111400Z 19007MPS 9999 SCT046 OVC066 27/21 Q1003 NOSIG
ZGKL,2025-04-11 15:00,ZGKL 111500Z 19006MPS 9999 SCT046 BKN066 27/21 Q1004 NOSIG
ZGKL,2025-04-11 16:00,ZGKL 111600Z 18007MPS 9999 SCT046 BKN066 27/21 Q1003 NOSIG
ZGKL,2025-04-11 17:00,ZGKL 111700Z 18006MPS 9999 SCT046 BKN066 27/21 Q1003 NOSIG
ZGKL,2025-04-11 18:00,ZGKL 111800Z 17006MPS 9999 SCT046 BKN066 27/21 Q1003 NOSIG
ZGKL,2025-04-11 19:00,ZGKL 111900Z 18005MPS 9999 SCT046 BKN066 26/21 Q1003 NOSIG
ZGKL,2025-04-11 20:00,ZGKL 112000Z 18005MPS 9999 SCT046 BKN066 25/21 Q1003 NOSIG
ZGKL,2025-04-11 21:00,ZGKL 112100Z 17004MPS 9999 SCT046 BKN066 26/21 Q1004 NOSIG
ZGKL,2025-04-11 22:00,ZGKL 112200Z 18003MPS 9999 SCT040 BKN060 25/21 Q1005 BECMG FM2350 05005MPS
ZGKL,2025-04-11 23:00,ZGKL 112300Z 18004MPS 9999 FEW026 25/21 Q1005 BECMG FM0030 05008MPS
ZGKL,2025-04-12 00:00,ZGKL 120000Z 16004MPS 8000 FEW033 SCT066 26/21 Q1007 BECMG FM0120 05008MPS -TSRA FEW010 SCT030CB BKN050
ZGKL,2025-04-12 01:00,ZGKL 120100Z 05011G21MPS 360V100 5000 SHRA FEW020 SCT026CB SCT026 BKN043 21/15 Q1011 BECMG FM0130 05006G11MPS TSRA
ZGKL,2025-04-12 02:00,ZGKL 120200Z 03007MPS 350V070 3000 TSRA FEW010 FEW026CB SCT026 BKN043 18/17 Q1014 BECMG FM0230 -SHRA
ZGKL,2025-04-12 03:00,ZGKL 120300Z 06005MPS 5000 -SHRA BR FEW013 SCT030 OVC046 17/17 Q1016 RETSRA NOSIG
ZGKL,2025-04-12 04:00,ZGKL 120400Z 06003MPS 030V100 8000 -SHRA FEW016 SCT033 OVC050 17/17 Q1018 NOSIG
ZGKL,2025-04-12 05:00,ZGKL 120500Z 03005MPS 9999 BKN050 OVC066 19/15 Q1018 NOSIG
ZGKL,2025-04-12 06:00,ZGKL 120600Z 03006MPS 9999 FEW026 SCT050 OVC066 20/13 Q1017 NOSIG
ZGKL,2025-04-12 07:00,ZGKL 120700Z 01005MPS 9999 SCT026 OVC050 21/12 Q1018 NOSIG
ZGKL,2025-04-12 08:00,ZGKL 120800Z 04008MPS 9999 FEW050 SCT066 21/10 Q1018 NOSIG
ZGKL,2025-04-12 09:00,ZGKL 120900Z 04007MPS 7000 NSC 22/08 Q1018 NOSIG
ZGKL,2025-04-12 10:00,ZGKL 121000Z 05004MPS 6000 FEW066 20/08 Q1017 NOSIG
ZGKL,2025-04-12 11:00,ZGKL 121100Z 03004MPS 6000 FEW066 19/09 Q1018 NOSIG
ZGKL,2025-04-12 12:00,ZGKL 121200Z 02003MPS 320V060 6000 FEW073 18/09 Q1018 NOSIG
ZGKL,2025-04-12 13:00,ZGKL 121300Z 35002MPS 6000 NSC 17/09 Q1020 NOSIG
ZGKL,2025-04-12 14:00,ZGKL 121400Z 33002MPS 6000 NSC 16/09 Q1021 NOSIG
ZGKL,2025-04-12 15:00,ZGKL 121500Z VRB01MPS 7000 NSC 15/10 Q1021 NOSIG
ZGKL,2025-04-12 16:00,ZGKL 121600Z VRB01MPS 7000 FEW066 14/12 Q1021 NOSIG
ZGKL,2025-04-12 17:00,ZGKL 121700Z VRB01MPS 7000 NSC 14/11 Q1020 NOSIG
ZGKL,2025-04-12 18:00,ZGKL 121800Z VRB01MPS 7000 FEW066 13/12 Q1020 NOSIG
ZGKL,2025-04-12 19:00,ZGKL 121900Z 00000MPS 8000 NSC 14/12 Q1019 NOSIG
ZGKL,2025-04-12 20:00,ZGKL 122000Z 00000MPS 8000 NSC 14/13 Q1019 NOSIG
ZGKL,2025-04-12 21:00,ZGKL 122100Z VRB01MPS 8000 NSC 14/13 Q1019 NOSIG
ZGKL,2025-04-12 22:00,ZGKL 122200Z VRB01MPS 7000 SCT066 14/13 Q1019 NOSIG
ZGKL,2025-04-12 23:00,ZGKL 122300Z VRB01MPS 7000 SCT060 14/13 Q1020 NOSIG
ZGKL,2025-04-13 00:00,ZGKL 130000Z VRB01MPS 7000 SCT073 15/13 Q1020 NOSIG
ZGKL,2025-04-13 01:00,ZGKL 130100Z VRB01MPS 7000 SCT066 17/11 Q1021 NOSIG
ZGKL,2025-04-13 02:00,ZGKL 130200Z VRB01MPS 5000 HZ FEW040 19/07 Q1021 NOSIG
ZGKL,2025-04-13 03:00,ZGKL 130300Z VRB01MPS 4500 HZ FEW046 20/06 Q1020 NOSIG
ZGKL,2025-04-13 04:00,ZGKL 130400Z VRB01MPS 4000 DU SCT053 20/07 Q1019 NOSIG
ZGKL,2025-04-13 05:00,ZGKL 130500Z VRB02MPS 4800 DU FEW053 22/10 Q1019 NOSIG
ZGKL,2025-04-13 06:00,ZGKL 130600Z 18003MPS 130V250 6000 FEW053 23/10 Q1017 NOSIG
ZGKL,2025-04-13 07:00,ZGKL 130700Z 18003MPS 130V210 7000 NSC 24/10 Q1016 NOSIG
ZGKL,2025-04-13 08:00,ZGKL 130800Z 18003MPS 150V210 8000 NSC 24/09 Q1015 NOSIG
ZGKL,2025-04-13 09:00,ZGKL 130900Z 19004MPS 8000 NSC 25/09 Q1014 NOSIG
ZGKL,2025-04-13 10:00,ZGKL 131000Z 17003MPS 8000 NSC 23/09 Q1014 NOSIG
ZGKL,2025-04-13 11:00,ZGKL 131100Z 16002MPS 6000 NSC 20/10 Q1014 NOSIG
ZGKL,2025-04-13 12:00,ZGKL 131200Z 19001MPS 7000 NSC 19/10 Q1014 NOSIG
ZGKL,2025-04-13 13:00,ZGKL 131300Z VRB01MPS 7000 NSC 17/11 Q1015 NOSIG
ZGKL,2025-04-13 14:00,ZGKL 131400Z 00000MPS 7000 NSC 15/12 Q1016 NOSIG
ZGKL,2025-04-13 15:00,ZGKL 131500Z 20001MPS 7000 NSC 14/13 Q1016 NOSIG
ZGKL,2025-04-13 16:00,ZGKL 131600Z 00000MPS CAVOK 14/12 Q1016 NOSIG
ZGKL,2025-04-13 17:00,ZGKL 131700Z VRB01MPS CAVOK 13/12 Q1016 NOSIG
ZGKL,2025-04-13 18:00,ZGKL 131800Z 00000MPS CAVOK 13/13 Q1015 NOSIG
ZGKL,2025-04-13 19:00,ZGKL 131900Z VRB01MPS CAVOK 12/12 Q1015 NOSIG
ZGKL,2025-04-13 20:00,ZGKL 132000Z 02002MPS CAVOK 11/11 Q1015 NOSIG
ZGKL,2025-04-13 21:00,ZGKL 132100Z 28001MPS CAVOK 11/11 Q1015 NOSIG
ZGKL,2025-04-13 22:00,ZGKL 132200Z 00000MPS 7000 NSC 11/11 Q1015 NOSIG
ZGKL,2025-04-13 23:00,ZGKL 132300Z VRB01MPS 7000 NSC 11/11 Q1016 NOSIG
ZGKL,2025-04-14 00:00,ZGKL 140000Z VRB01MPS 7000 NSC 13/13 Q1017 NOSIG
ZGKL,2025-04-14 01:00,ZGKL 140100Z VRB01MPS 7000 NSC 17/13 Q1017 NOSIG
ZGKL,2025-04-14 02:00,ZGKL 140200Z VRB01MPS 7000 NSC 20/11 Q1017 NOSIG
ZGKL,2025-04-14 03:00,ZGKL 140300Z VRB01MPS 7000 NSC 22/13 Q1017 NOSIG
ZGKL,2025-04-14 04:00,ZGKL 140400Z VRB02MPS 8000 NSC 26/13 Q1015 NOSIG
ZGKL,2025-04-14 05:00,ZGKL 140500Z VRB02MPS 8000 NSC 28/13 Q1014 NOSIG
ZGKL,2025-04-14 06:00,ZGKL 140600Z 18002MPS 130V240 9000 NSC 30/14 Q1013 NOSIG
ZGKL,2025-04-14 07:00,ZGKL 140700Z 19002MPS 140V230 9000 NSC 31/12 Q1011 NOSIG
ZGKL,2025-04-14 08:00,ZGKL 140800Z 18003MPS 150V210 9000 NSC 32/12 Q1011 NOSIG
ZGKL,2025-04-14 09:00,ZGKL 140900Z 17003MPS 130V200 9000 NSC 32/12 Q1010 NOSIG
ZGKL,2025-04-14 10:00,ZGKL 141000Z 18003MPS 9000 NSC 30/13 Q1010 NOSIG
ZGKL,2025-04-14 11:00,ZGKL 141100Z VRB01MPS 9000 NSC 27/10 Q1010 NOSIG
ZGKL,2025-04-14 12:00,ZGKL 141200Z VRB01MPS 9000 NSC 24/13 Q1011 NOSIG
ZGKL,2025-04-14 13:00,ZGKL 141300Z VRB01MPS 9000 NSC 22/13 Q1012 NOSIG
ZGKL,2025-04-14 14:00,ZGKL 141400Z VRB01MPS CAVOK 20/14 Q1013 NOSIG
ZGKL,2025-04-14 15:00,ZGKL 141500Z 33001MPS CAVOK 19/13 Q1013 NOSIG
ZGKL,2025-04-14 16:00,ZGKL 141600Z VRB01MPS CAVOK 18/12 Q1013 NOSIG
ZGKL,2025-04-14 17:00,ZGKL 141700Z VRB01MPS CAVOK 17/12 Q1013 NOSIG
ZGKL,2025-04-14 18:00,ZGKL 141800Z VRB01MPS CAVOK 16/12 Q1013 NOSIG
ZGKL,2025-04-14 19:00,ZGKL 141900Z VRB01MPS CAVOK 16/13 Q1013 NOSIG
ZGKL,2025-04-14 20:00,ZGKL 142000Z 00000MPS CAVOK 15/13 Q1013 NOSIG
ZGKL,2025-04-14 21:00,ZGKL 142100Z VRB01MPS CAVOK 14/13 Q1014 NOSIG
ZGKL,2025-04-14 22:00,ZGKL 142200Z VRB01MPS CAVOK 14/14 Q1014 NOSIG
ZGKL,2025-04-14 23:00,ZGKL 142300Z VRB01MPS CAVOK 14/14 Q1015 NOSIG
ZGKL,2025-04-15 00:00,ZGKL 150000Z VRB01MPS CAVOK 17/13 Q1016 NOSIG
ZGKL,2025-04-15 01:00,ZGKL 150100Z VRB01MPS CAVOK 21/12 Q1016 NOSIG
ZGKL,2025-04-15 02:00,ZGKL 150200Z VRB01MPS CAVOK 25/13 Q1016 NOSIG
ZGKL,2025-04-15 03:00,ZGKL 150300Z VRB01MPS CAVOK 27/14 Q1015 NOSIG
ZGKL,2025-04-15 04:00,ZGKL 150400Z VRB01MPS CAVOK 30/14 Q1014 NOSIG
ZGKL,2025-04-15 05:00,ZGKL 150500Z VRB01MPS CAVOK 30/12 Q1013 NOSIG
ZGKL,2025-04-15 06:00,ZGKL 150600Z 14002MPS 070V230 CAVOK 32/08 Q1012 NOSIG
ZGKL,2025-04-15 07:00,ZGKL 150700Z 12002MPS 070V210 CAVOK 33/10 Q1010 NOSIG
ZGKL,2025-04-15 08:00,ZGKL 150800Z VRB02MPS CAVOK 33/10 Q1009 NOSIG
ZGKL,2025-04-15 09:00,ZGKL 150900Z 12002MPS 070V190 CAVOK 32/10 Q1009 NOSIG
ZGKL,2025-04-15 10:00,ZGKL 151000Z 12001MPS CAVOK 32/08 Q1009 NOSIG
ZGKL,2025-04-15 11:00,ZGKL 151100Z 27002MPS CAVOK 28/14 Q1009 NOSIG
ZGKL,2025-04-15 12:00,ZGKL 151200Z VRB01MPS CAVOK 24/13 Q1010 NOSIG
ZGKL,2025-04-15 13:00,ZGKL 151300Z VRB01MPS CAVOK 21/14 Q1010 NOSIG
ZGKL,2025-04-15 14:00,ZGKL 151400Z VRB01MPS CAVOK 20/15 Q1011 NOSIG
ZGKL,2025-04-15 15:00,ZGKL 151500Z VRB01MPS CAVOK 19/15 Q1011 NOSIG
ZGKL,2025-04-15 16:00,ZGKL 151600Z 01001MPS CAVOK 19/13 Q1010 NOSIG
ZGKL,2025-04-15 17:00,ZGKL 151700Z VRB01MPS CAVOK 17/15 Q1010 NOSIG
ZGKL,2025-04-15 18:00,ZGKL 151800Z VRB01MPS CAVOK 17/15 Q1010 NOSIG
ZGKL,2025-04-15 19:00,ZGKL 151900Z VRB01MPS CAVOK 17/17 Q1010 NOSIG
ZGKL,2025-04-15 20:00,ZGKL 152000Z 01002MPS CAVOK 18/16 Q1010 NOSIG
ZGKL,2025-04-15 21:00,ZGKL 152100Z 35002MPS 320V020 CAVOK 18/15 Q1010 NOSIG
ZGKL,2025-04-15 22:00,ZGKL 152200Z VRB01MPS 9999 SCT066 17/14 Q1011 NOSIG
ZGKL,2025-04-15 23:00,ZGKL 152300Z VRB01MPS 9999 SCT066 17/15 Q1011 NOSIG
ZGKL,2025-04-16 00:00,ZGKL 160000Z VRB01MPS CAVOK 19/16 Q1011 NOSIG
ZGKL,2025-04-16 01:00,ZGKL 160100Z VRB01MPS CAVOK 23/16 Q1012 NOSIG
ZGKL,2025-04-16 02:00,ZGKL 160200Z 17005MPS CAVOK 28/13 Q1011 NOSIG
ZGKL,2025-04-16 03:00,ZGKL 160300Z 17006MPS CAVOK 30/09 Q1010 NOSIG
ZGKL,2025-04-16 04:00,ZGKL 160400Z 18008MPS 140V200 CAVOK 30/08 Q1009 NOSIG
ZGKL,2025-04-16 05:00,ZGKL 160500Z 18009MPS CAVOK 32/07 Q1008 NOSIG
ZGKL,2025-04-16 06:00,ZGKL 160600Z 18009MPS CAVOK 31/07 Q1006 NOSIG
ZGKL,2025-04-16 07:00,ZGKL 160700Z 19005MPS 170V230 CAVOK 33/08 Q1006 NOSIG
ZGKL,2025-04-16 08:00,ZGKL 160800Z 19006G11MPS 150V220 CAVOK 33/07 Q1005 NOSIG
ZGKL,2025-04-16 09:00,ZGKL 160900Z 19004MPS CAVOK 31/09 Q1004 NOSIG
ZGKL,2025-04-16 10:00,ZGKL 161000Z 15003MPS CAVOK 31/09 Q1004 NOSIG
ZGKL,2025-04-16 11:00,ZGKL 161100Z 16002MPS 130V200 CAVOK 27/12 Q1004 NOSIG
ZGKL,2025-04-16 12:00,ZGKL 161200Z VRB01MPS CAVOK 26/11 Q1005 NOSIG
ZGKL,2025-04-16 13:00,ZGKL 161300Z 28001MPS CAVOK 22/13 Q1005 NOSIG
ZGKL,2025-04-16 14:00,ZGKL 161400Z VRB01MPS CAVOK 22/14 Q1006 NOSIG
ZGKL,2025-04-16 15:00,ZGKL 161500Z VRB01MPS CAVOK 20/13 Q1007 NOSIG
ZGKL,2025-04-16 16:00,ZGKL 161600Z VRB01MPS CAVOK 19/15 Q1007 NOSIG
ZGKL,2025-04-16 17:00,ZGKL 161700Z VRB01MPS CAVOK 19/15 Q1007 NOSIG
ZGKL,2025-04-16 18:00,ZGKL 161800Z VRB01MPS CAVOK 20/15 Q1007 NOSIG
ZGKL,2025-04-16 19:00,ZGKL 161900Z 19003MPS CAVOK 21/14 Q1007 NOSIG
ZGKL,2025-04-16 20:00,ZGKL 162000Z 20002MPS 170V310 CAVOK 22/15 Q1007 NOSIG
ZGKL,2025-04-16 21:00,ZGKL 162100Z VRB01MPS CAVOK 20/15 Q1008 NOSIG
ZGKL,2025-04-16 22:00,ZGKL 162200Z VRB01MPS 9999 FEW046 SCT066 20/16 Q1008 NOSIG
ZGKL,2025-04-16 23:00,ZGKL 162300Z VRB01MPS 9999 BKN060 20/16 Q1008 NOSIG
ZGKL,2025-04-17 00:00,ZGKL 170000Z VRB01MPS 9999 SCT060 22/16 Q1009 BECMG FM0150 18005MPS
ZGKL,2025-04-17 01:00,ZGKL 170100Z 16002MPS 9999 SCT060 24/14 Q1009 NOSIG
ZGKL,2025-04-17 02:00,ZGKL 170200Z 16003MPS 9999 SCT060 25/13 Q1009 NOSIG
ZGKL,2025-04-17 03:00,ZGKL 170300Z 15005MPS 9999 SCT056 26/13 Q1009 NOSIG
ZGKL,2025-04-17 04:00,ZGKL 170400Z 16005MPS 130V190 9999 SCT056 27/14 Q1009 NOSIG
ZGKL,2025-04-17 05:00,ZGKL 170500Z 15004MPS 9999 SCT040 BKN056 25/14 Q1008 NOSIG
ZGKL,2025-04-17 06:00,ZGKL 170600Z 18004MPS 9999 SCT040 BKN053 26/16 Q1007 NOSIG
ZGKL,2025-04-17 07:00,ZGKL 170700Z 18005MPS 9999 FEW026 BKN040 26/16 Q1006 NOSIG
ZGKL,2025-04-17 08:00,ZGKL 170800Z 17005MPS 9999 FEW026 SCT040 26/17 Q1005 NOSIG
ZGKL,2025-04-17 09:00,ZGKL 170900Z 19004MPS 9999 SCT033 26/18 Q1005 NOSIG
ZGKL,2025-04-17 10:00,ZGKL 171000Z 21002MPS 9999 FEW033 BKN050 25/18 Q1005 NOSIG
ZGKL,2025-04-17 11:00,ZGKL 171100Z 35001MPS 9999 SCT043 24/18 Q1005 NOSIG
ZGKL,2025-04-17 12:00,ZGKL 171200Z 00000MPS 9999 SCT046 SCT060 23/19 Q1006 NOSIG
ZGKL,2025-04-17 13:00,ZGKL 171300Z 27001MPS 8000 SCT053 21/18 Q1006 NOSIG
ZGKL,2025-04-17 14:00,ZGKL 171400Z VRB01MPS 8000 SCT053 21/19 Q1007 NOSIG
ZGKL,2025-04-17 15:00,ZGKL 171500Z 36002MPS 8000 SCT036 SCT053 21/19 Q1007 NOSIG
ZGKL,2025-04-17 16:00,ZGKL 171600Z VRB01MPS 8000 SCT036 SCT053 21/18 Q1007 NOSIG
ZGKL,2025-04-17 17:00,ZGKL 171700Z 29001MPS 8000 SCT036 SCT053 21/18 Q1007 NOSIG
ZGKL,2025-04-17 18:00,ZGKL 171800Z VRB01MPS 8000 SCT036 SCT053 21/18 Q1007 NOSIG
ZGKL,2025-04-17 19:00,ZGKL 171900Z VRB01MPS 8000 SCT036 BKN053 21/18 Q1006 NOSIG
ZGKL,2025-04-17 20:00,ZGKL 172000Z 36001MPS 8000 SCT036 OVC053 21/18 Q1007 NOSIG
ZGKL,2025-04-17 21:00,ZGKL 172100Z VRB01MPS 8000 SCT033 OVC053 21/19 Q1007 NOSIG
ZGKL,2025-04-17 22:00,ZGKL 172200Z 28001MPS 8000 SCT033 OVC053 21/19 Q1007 NOSIG
ZGKL,2025-04-17 23:00,ZGKL 172300Z 00000MPS 8000 SCT033 OVC053 21/19 Q1007 NOSIG
ZGKL,2025-04-18 00:00,ZGKL 180000Z 25001MPS 8000 SCT033 OVC053 21/19 Q1008 NOSIG
ZGKL,2025-04-18 01:00,ZGKL 180100Z VRB01MPS 8000 SCT033 OVC050 23/19 Q1008 NOSIG
ZGKL,2025-04-18 02:00,ZGKL 180200Z VRB01MPS 9000 SCT030 OVC050 23/19 Q1009 NOSIG
ZGKL,2025-04-18 03:00,ZGKL 180300Z VRB01MPS 9000 SCT030 OVC046 23/20 Q1009 NOSIG
ZGKL,2025-04-18 04:00,ZGKL 180400Z 34001MPS 7000 SCT026 OVC046 23/19 Q1008 NOSIG
ZGKL,2025-04-18 05:00,ZGKL 180500Z 34002MPS 310V020 7000 SCT026 OVC046 24/19 Q1007 NOSIG
ZGKL,2025-04-18 06:00,ZGKL 180600Z 35002MPS 310V030 8000 SCT030 BKN060 26/20 Q1006 NOSIG
ZGKL,2025-04-18 07:00,ZGKL 180700Z 36002MPS 310V030 8000 SCT033 BKN053 28/21 Q1005 NOSIG
ZGKL,2025-04-18 08:00,ZGKL 180800Z VRB02MPS 8000 SCT033 BKN053 27/21 Q1004 NOSIG
ZGKL,2025-04-18 09:00,ZGKL 180900Z 36003MPS 320V020 8000 FEW036 SCT056 27/21 Q1004 NOSIG
ZGKL,2025-04-18 10:00,ZGKL 181000Z 35002MPS 8000 FEW036 BKN056 26/21 Q1003 NOSIG
ZGKL,2025-04-18 11:00,ZGKL 181100Z VRB01MPS 8000 SCT043 SCT060 25/21 Q1004 NOSIG
ZGKL,2025-04-18 12:00,ZGKL 181200Z VRB01MPS 8000 SCT043 SCT060 24/21 Q1004 NOSIG
ZGKL,2025-04-18 13:00,ZGKL 181300Z VRB01MPS 7000 SCT043 BKN056 24/21 Q1005 NOSIG
ZGKL,2025-04-18 14:00,ZGKL 181400Z VRB01MPS 6000 SCT040 BKN056 24/22 Q1005 NOSIG
ZGKL,2025-04-18 15:00,ZGKL 181500Z VRB01MPS 5000 BR SCT040 BKN060 24/22 Q1006 NOSIG
ZGKL,2025-04-18 16:00,ZGKL 181600Z VRB01MPS 5000 BR SCT040 BKN060 23/22 Q1006 NOSIG
ZGKL,2025-04-18 17:00,ZGKL 181700Z VRB01MPS 5000 BR SCT046 BKN066 23/22 Q1006 NOSIG
ZGKL,2025-04-18 18:00,ZGKL 181800Z 18001MPS 5000 BR SCT050 22/22 Q1005 NOSIG
ZGKL,2025-04-18 19:00,ZGKL 181900Z VRB01MPS 5000 BR SCT053 22/22 Q1005 NOSIG
ZGKL,2025-04-18 20:00,ZGKL 182000Z VRB01MPS 5000 BR FEW053 21/21 Q1005 NOSIG
ZGKL,2025-04-18 21:00,ZGKL 182100Z VRB01MPS 5000 BR FEW033 SCT053 BKN066 21/21 Q1005 NOSIG
ZGKL,2025-04-18 22:00,ZGKL 182200Z 00000MPS 5000 BR SCT046 BKN066 22/22 Q1005 BECMG TL2320 -TSRA FEW010 SCT026 FEW033CB BKN050
ZGKL,2025-04-18 23:00,ZGKL 182300Z VRB01MPS 4000 BR SCT056 22/22 Q1006 NOSIG
ZGKL,2025-04-19 00:00,ZGKL 190000Z 00000MPS 5000 BR SCT043 BKN073 23/23 Q1006 NOSIG
ZGKL,2025-04-19 01:00,ZGKL 190100Z VRB01MPS 6000 SCT043 BKN073 26/23 Q1006 NOSIG
ZGKL,2025-04-19 02:00,ZGKL 190200Z 25002MPS 210V340 9999 SCT043 BKN073 28/23 Q1007 NOSIG
ZGKL,2025-04-19 03:00,ZGKL 190300Z VRB01MPS 9999 SCT036 BKN066 28/24 Q1008 NOSIG
ZGKL,2025-04-19 04:00,ZGKL 190400Z 21003MPS 9999 FEW046 BKN073 31/24 Q1007 NOSIG
ZGKL,2025-04-19 05:00,ZGKL 190500Z 19004MPS 160V220 9999 FEW040 32/23 Q1005 NOSIG
ZGKL,2025-04-19 06:00,ZGKL 190600Z 17003MPS 110V240 9999 FEW030 34/23 Q1004 NOSIG
ZGKL,2025-04-19 07:00,ZGKL 190700Z 21005MPS 180V240 9999 FEW030 SCT043 34/22 Q1003 NOSIG
ZGKL,2025-04-19 08:00,ZGKL 190800Z 21003MPS 160V270 9999 FEW030 34/21 Q1003 BECMG FM0900 FEW030CB SCT050
ZGKL,2025-04-19 09:00,ZGKL 190900Z 21001MPS 9999 FEW030CB 34/21 Q1002 BECMG FM1000 -TSRA
ZGKL,2025-04-19 10:00,ZGKL 191000Z VRB02MPS 9999 FEW030CB FEW060 33/23 Q1002 NOSIG
ZGKL,2025-04-19 11:00,ZGKL 191100Z VRB02G07MPS 9999 FEW033CB SCT060 32/23 Q1003 BECMG TL1150 2800 TSRA
ZGKL,2025-04-19 12:00,ZGKL 191200Z 05004MPS 020V100 9999 FEW033CB SCT033 BKN073 27/20 Q1004 NOSIG
ZGKL,2025-04-19 13:00,ZGKL 191300Z 03006MPS 9999 TS FEW033CB SCT033 BKN073 26/20 Q1006 BECMG TL1400 NSW SCT026 BKN060
ZGKL,2025-04-19 14:00,ZGKL 191400Z 05002MPS 340V080 9999 -TSRA FEW033CB SCT033 BKN066 26/20 Q1006 BECMG FM1530 2800 TSRA
ZGKL,2025-04-19 15:00,ZGKL 191500Z 32002MPS 240V010 9999 TS FEW033CB SCT033 BKN060 23/23 Q1008 BECMG TL1630 NSW
ZGKL,2025-04-19 16:00,ZGKL 191600Z 06003MPS 010V090 9999 TS FEW020 FEW033CB SCT033 BKN053 24/21 Q1008 BECMG FM1650 18008G13MPS TSRAGS
ZGKL,2025-04-19 17:00,ZGKL 191700Z 05004MPS 020V090 8000 -TSRA FEW013 FEW033CB SCT033 BKN053 22/22 Q1008 RESHRA NOSIG
ZGKL,2025-04-19 18:00,ZGKL 191800Z 01004MPS 330V030 8000 -TSRA FEW010 FEW033CB SCT033 BKN060 22/22 Q1008 RESHRA NOSIG
ZGKL,2025-04-19 19:00,ZGKL 191900Z 26005MPS 4000 +TSRA FEW010 FEW030CB BKN030 BKN050 22/22 Q1010 BECMG FM2000 -RA
ZGKL,2025-04-19 20:00,ZGKL 192000Z 12003MPS 080V170 6000 -TSRA FEW007 FEW030CB SCT030 BKN053 21/21 Q1008 RESHRA BECMG FM2100 -RA
ZGKL,2025-04-19 21:00,ZGKL 192100Z 02002MPS 340V050 9999 FEW016 FEW033CB SCT033 BKN060 21/21 Q1008 RETSRA NOSIG
ZGKL,2025-04-19 22:00,ZGKL 192200Z 34002MPS 260V060 9999 FEW010 FEW033CB SCT033 BKN060 21/21 Q1009 BECMG TL2230 -TSRA
ZGKL,2025-04-19 23:00,ZGKL 192300Z VRB01MPS 9999 FEW033CB SCT033 BKN060 21/21 Q1009 BECMG TL2340 SCT026 BKN060
ZGKL,2025-04-20 00:00,ZGKL 200000Z 36002MPS 310V020 9999 FEW033CB SCT033 BKN060 22/22 Q1010 BECMG TL0100 SCT026 BKN060
ZGKL,2025-04-20 01:00,ZGKL 200100Z 06002MPS 030V090 9999 BKN020 OVC033 23/23 Q1011 NOSIG
ZGKL,2025-04-20 02:00,ZGKL 200200Z VRB01MPS 9999 FEW010 SCT020 OVC033 23/23 Q1011 NOSIG
ZGKL,2025-04-20 03:00,ZGKL 200300Z VRB01MPS 9999 FEW013 SCT023 OVC040 25/22 Q1011 NOSIG
ZGKL,2025-04-20 04:00,ZGKL 200400Z 36002MPS 300V060 9999 FEW013 SCT023 OVC040 26/22 Q1010 NOSIG
ZGKL,2025-04-20 05:00,ZGKL 200500Z 01002MPS 300V050 9999 FEW033 BKN060 27/22 Q1009 NOSIG
ZGKL,2025-04-20 06:00,ZGKL 200600Z VRB01MPS 9999 SCT040 BKN060 27/22 Q1008 NOSIG
ZGKL,2025-04-20 07:00,ZGKL 200700Z VRB01MPS 9999 BKN040 BKN066 28/23 Q1007 NOSIG
ZGKL,2025-04-20 08:00,ZGKL 200800Z VRB01MPS CAVOK 28/23 Q1006 NOSIG
ZGKL,2025-04-20 09:00,ZGKL 200900Z VRB01MPS CAVOK 29/23 Q1005 NOSIG
ZGKL,2025-04-20 10:00,ZGKL 201000Z 34002MPS CAVOK 28/23 Q1005 NOSIG
ZGKL,2025-04-20 11:00,ZGKL 201100Z 33002MPS CAVOK 26/24 Q1005 NOSIG
ZGKL,2025-04-20 12:00,ZGKL 201200Z 33002MPS 9999 SCT060 26/24 Q1006 NOSIG
ZGKL,2025-04-20 13:00,ZGKL 201300Z VRB01MPS 9999 SCT050 BKN066 25/25 Q1007 NOSIG
ZGKL,2025-04-20 14:00,ZGKL 201400Z VRB01MPS 9999 FEW033 BKN053 25/25 Q1008 NOSIG
ZGKL,2025-04-20 15:00,ZGKL 201500Z 21001MPS 9999 FEW050 BKN066 24/24 Q1008 NOSIG
ZGKL,2025-04-20 16:00,ZGKL 201600Z 20002MPS 8000 FEW043 BKN066 24/24 Q1008 NOSIG
ZGKL,2025-04-20 17:00,ZGKL 201700Z VRB01MPS 8000 FEW046 BKN066 24/24 Q1007 NOSIG
ZGKL,2025-04-20 18:00,ZGKL 201800Z VRB01MPS 8000 FEW050 24/24 Q1007 NOSIG
ZGKL,2025-04-20 19:00,ZGKL 201900Z 32002MPS 300V360 6000 FEW043 SCT060 24/24 Q1007 NOSIG
ZGKL,2025-04-20 20:00,ZGKL 202000Z VRB01MPS 6000 FEW040 BKN060 23/23 Q1006 NOSIG
ZGKL,2025-04-20 21:00,ZGKL 202100Z 00000MPS 6000 FEW046 SCT073 23/23 Q1007 NOSIG
ZGKL,2025-04-20 22:00,ZGKL 202200Z 16002MPS 8000 PRFG SCT040 23/23 Q1007 NOSIG
ZGKL,2025-04-20 23:00,ZGKL 202300Z 17005MPS 9999 FEW040 26/22 Q1008 NOSIG
ZGKL,2025-04-21 00:00,ZGKL 210000Z 17007MPS 9999 FEW040 27/22 Q1009 NOSIG
ZGKL,2025-04-21 01:00,ZGKL 210100Z 18006MPS 9999 SCT046 BKN060 28/22 Q1009 NOSIG
ZGKL,2025-04-21 02:00,ZGKL 210200Z 17007MPS 9999 FEW023 BKN066 29/22 Q1009 NOSIG
ZGKL,2025-04-21 03:00,ZGKL 210300Z 18008MPS 9999 FEW023 SCT050 30/21 Q1009 NOSIG
ZGKL,2025-04-21 04:00,ZGKL 210400Z 18009MPS 9999 FEW023 SCT050 31/21 Q1008 NOSIG
ZGKL,2025-04-21 05:00,ZGKL 210500Z 19007MPS 9999 SCT033 BKN053 30/21 Q1007 NOSIG
ZGKL,2025-04-21 06:00,ZGKL 210600Z 19007MPS 9999 SCT036 OVC056 30/21 Q1007 NOSIG
ZGKL,2025-04-21 07:00,ZGKL 210700Z 19009MPS 9999 FEW033 SCT073 32/22 Q1005 NOSIG
ZGKL,2025-04-21 08:00,ZGKL 210800Z 18007MPS 9999 FEW033 SCT053 32/22 Q1005 NOSIG
ZGKL,2025-04-21 09:00,ZGKL 210900Z 19004MPS 9999 FEW033 31/22 Q1004 NOSIG
ZGKL,2025-04-21 10:00,ZGKL 211000Z 15002MPS 9999 FEW040 31/22 Q1004 NOSIG
ZGKL,2025-04-21 11:00,ZGKL 211100Z 30001MPS 9999 FEW023 SCT050 29/23 Q1004 NOSIG
ZGKL,2025-04-21 12:00,ZGKL 211200Z 01002MPS 9999 BKN053 SCT066 27/23 Q1005 NOSIG
ZGKL,2025-04-21 13:00,ZGKL 211300Z 31002MPS 280V030 9999 SCT053 BKN066 27/24 Q1005 NOSIG
ZGKL,2025-04-21 14:00,ZGKL 211400Z 32002MPS 270V360 9999 FEW053 BKN066 26/24 Q1006 NOSIG
ZGKL,2025-04-21 15:00,ZGKL 211500Z VRB01MPS 9999 SCT053 BKN066 26/23 Q1006 NOSIG
ZGKL,2025-04-21 16:00,ZGKL 211600Z VRB01MPS 9999 FEW053 OVC066 25/23 Q1006 NOSIG
ZGKL,2025-04-21 17:00,ZGKL 211700Z VRB01MPS 9999 FEW066 24/24 Q1006 NOSIG
ZGKL,2025-04-21 18:00,ZGKL 211800Z 25001MPS 8000 FEW066 23/23 Q1006 NOSIG
ZGKL,2025-04-21 19:00,ZGKL 211900Z VRB01MPS 8000 FEW066 23/23 Q1006 NOSIG
ZGKL,2025-04-21 20:00,ZGKL 212000Z VRB01MPS 8000 NSC 23/23 Q1006 NOSIG
ZGKL,2025-04-21 21:00,ZGKL 212100Z VRB01MPS 6000 NSC 23/23 Q1007 NOSIG
ZGKL,2025-04-21 22:00,ZGKL 212200Z VRB01MPS 9999 FEW046 BKN066 23/23 Q1008 NOSIG
ZGKL,2025-04-21 23:00,ZGKL 212300Z VRB01MPS 9999 FEW050 23/23 Q1008 NOSIG
ZGKL,2025-04-22 00:00,ZGKL 220000Z 18002MPS 9999 FEW050 26/22 Q1009 NOSIG
ZGKL,2025-04-22 01:00,ZGKL 220100Z 19002MPS 150V240 9999 FEW046 28/21 Q1010 NOSIG
ZGKL,2025-04-22 02:00,ZGKL 220200Z 19004MPS 9999 FEW056 29/21 Q1009 NOSIG
ZGKL,2025-04-22 03:00,ZGKL 220300Z 19004MPS 160V220 9999 FEW040 BKN053 30/21 Q1009 NOSIG
ZGKL,2025-04-22 04:00,ZGKL 220400Z 05007MPS 9999 SCT036 OVC053 27/20 Q1009 NOSIG
ZGKL,2025-04-22 05:00,ZGKL 220500Z 04006MPS 9999 SCT033 OVC050 26/20 Q1009 NOSIG
ZGKL,2025-04-22 06:00,ZGKL 220600Z 03005MPS 360V060 9999 FEW020 FEW033CB SCT033 BKN050 25/20 Q1008 BECMG TL0640 TS
ZGKL,2025-04-22 07:00,ZGKL 220700Z 02005MPS 9999 FEW016 SCT030 FEW040CB BKN050 24/19 Q1008 NOSIG
ZGKL,2025-04-22 08:00,ZGKL 220800Z 04006MPS 020V080 9999 FEW013 SCT030 BKN056 23/20 Q1008 BECMG FM0930 SCT033 FEW033CB BKN060
ZGKL,2025-04-22 09:00,ZGKL 220900Z 06003MPS 9999 SCT030 FEW040CB BKN060 22/19 Q1008 BECMG TL0920 2500 TSRA
ZGKL,2025-04-22 10:00,ZGKL 221000Z 07002MPS 040V120 7000 -SHRA FEW013 FEW036CB SCT036 BKN056 22/19 Q1008 NOSIG
ZGKL,2025-04-22 11:00,ZGKL 221100Z 10002MPS 020V140 9999 FEW020 FEW033CB SCT033 BKN056 21/19 Q1009 BECMG FM1230 FEW030 SCT050
ZGKL,2025-04-22 12:00,ZGKL 221200Z 05004MPS 9999 FEW033CB SCT033 BKN060 21/18 Q1010 BECMG FM1230 FEW030 SCT050
ZGKL,2025-04-22 13:00,ZGKL 221300Z 04003MPS 9999 SCT033 BKN060 21/18 Q1011 NOSIG
ZGKL,2025-04-22 14:00,ZGKL 221400Z 04003MPS 010V070 9999 SCT040 BKN066 20/17 Q1012 NOSIG
ZGKL,2025-04-22 15:00,ZGKL 221500Z 34002MPS 300V010 9999 -TSRA FEW036CB SCT036 BKN060 20/17 Q1012 NOSIG
ZGKL,2025-04-22 16:00,ZGKL 221600Z 35002MPS 310V050 9999 SCT036 OVC060 20/17 Q1012 RETS NOSIG
ZGKL,2025-04-22 17:00,ZGKL 221700Z VRB01MPS 9999 SCT040 BKN060 19/18 Q1012 NOSIG
ZGKL,2025-04-22 18:00,ZGKL 221800Z 04002MPS 350V080 9999 BKN050 19/17 Q1011 NOSIG
ZGKL,2025-04-22 19:00,ZGKL 221900Z VRB01MPS 8000 FEW036 BKN050 19/17 Q1010 NOSIG
ZGKL,2025-04-22 20:00,ZGKL 222000Z VRB01MPS 8000 FEW036 BKN050 20/18 Q1011 NOSIG
ZGKL,2025-04-22 21:00,ZGKL 222100Z 19002MPS 160V220 9000 FEW040CB SCT040 BKN053 19/18 Q1011 NOSIG
ZGKL,2025-04-22 22:00,ZGKL 222200Z 28001MPS 6000 -SHRA FEW040CB SCT040 BKN053 19/18 Q1011 NOSIG
ZGKL,2025-04-22 23:00,ZGKL 222300Z 30001MPS 8000 -RA SCT040 OVC056 19/19 Q1012 NOSIG
ZGKL,2025-04-23 00:00,ZGKL 230000Z VRB01MPS 9999 -RA SCT040 OVC053 19/19 Q1012 NOSIG
ZGKL,2025-04-23 01:00,ZGKL 230100Z VRB01MPS 9000 SCT043 OVC060 20/18 Q1013 NOSIG
ZGKL,2025-04-23 02:00,ZGKL 230200Z VRB01MPS 9000 SCT040 OVC060 22/18 Q1013 NOSIG
ZGKL,2025-04-23 03:00,ZGKL 230300Z VRB01MPS 9000 SCT046 OVC070 23/17 Q1013 NOSIG
ZGKL,2025-04-23 04:00,ZGKL 230400Z VRB01MPS 9000 SCT043 OVC060 23/17 Q1012 NOSIG
ZGKL,2025-04-23 05:00,ZGKL 230500Z 02002MPS 340V060 9999 SCT043 OVC060 23/17 Q1011 NOSIG
ZGKL,2025-04-23 06:00,ZGKL 230600Z 02002MPS 340V070 9999 SCT043 OVC060 23/16 Q1010 NOSIG
ZGKL,2025-04-23 07:00,ZGKL 230700Z 04003MPS 9999 -RA SCT043 OVC060 23/16 Q1010 NOSIG
ZGKL,2025-04-23 08:00,ZGKL 230800Z 07002MPS 020V100 9000 -RA SCT043 OVC060 22/17 Q1009 NOSIG
ZGKL,2025-04-23 09:00,ZGKL 230900Z VRB01MPS 9000 -RA SCT043 OVC060 21/19 Q1009 NOSIG
ZGKL,2025-04-23 10:00,ZGKL 231000Z VRB01MPS 9000 -RA SCT043 OVC060 21/19 Q1009 NOSIG
ZGKL,2025-04-23 11:00,ZGKL 231100Z VRB01MPS 9000 SCT026 OVC046 21/20 Q1009 NOSIG
ZGKL,2025-04-23 12:00,ZGKL 231200Z VRB01MPS 9000 FEW013 SCT023 OVC040 20/19 Q1010 NOSIG
ZGKL,2025-04-23 13:00,ZGKL 231300Z 36001MPS 9999 SCT033 OVC053 20/19 Q1011 NOSIG
ZGKL,2025-04-23 14:00,ZGKL 231400Z VRB01MPS 9999 SCT033 OVC046 20/19 Q1012 NOSIG
ZGKL,2025-04-23 15:00,ZGKL 231500Z VRB01MPS 9999 SCT033 OVC050 20/19 Q1011 NOSIG
ZGKL,2025-04-23 16:00,ZGKL 231600Z VRB01MPS 9999 SCT033 OVC050 20/19 Q1011 NOSIG
ZGKL,2025-04-23 17:00,ZGKL 231700Z 00000MPS 9999 FEW033CB SCT033 BKN050 20/19 Q1010 NOSIG
ZGKL,2025-04-23 18:00,ZGKL 231800Z 00000MPS 9999 SCT033 OVC053 20/20 Q1010 NOSIG
ZGKL,2025-04-23 19:00,ZGKL 231900Z VRB01MPS 9999 SCT033 OVC053 20/20 Q1008 NOSIG
ZGKL,2025-04-23 20:00,ZGKL 232000Z VRB01MPS 9999 SCT033 OVC053 19/19 Q1008 NOSIG
ZGKL,2025-04-23 21:00,ZGKL 232100Z 00000MPS 9999 SCT033 OVC053 19/18 Q1008 NOSIG
ZGKL,2025-04-23 22:00,ZGKL 232200Z VRB01MPS 6000 -TSRA FEW011 FEW023CB SCT026 BKN043 18/18 Q1009 RESHRA TEMPO +TSRA
ZGKL,2025-04-23 23:00,ZGKL 232300Z 01003MPS 320V040 5000 TSRA FEW011 FEW026CB SCT026 BKN040 18/18 Q1010 BECMG FM2340 -TSRA
ZGKL,2025-04-24 00:00,ZGKL 240000Z 00000MPS 4500 -TSRA FEW006 FEW026CB SCT026 BKN043 18/18 Q1011 RESHRA TEMPO FM0020 TSRA
ZGKL,2025-04-24 01:00,ZGKL 240100Z VRB01MPS 4500 -SHRA BR FEW006 FEW026CB BKN026 BKN043 18/18 Q1011 RETS NOSIG
ZGKL,2025-04-24 02:00,ZGKL 240200Z VRB01MPS 9999 -SHRA FEW010 FEW026CB BKN026 BKN043 18/18 Q1012 RESHRA BECMG FM0300 FEW012 SCT030 OVC043
ZGKL,2025-04-24 03:00,ZGKL 240300Z 00000MPS 9999 FEW010 FEW026CB SCT026 BKN043 19/19 Q1012 BECMG TL0400 FEW012 SCT030 OVC043
ZGKL,2025-04-24 04:00,ZGKL 240400Z VRB01MPS 9999 FEW020 SCT033 OVC050 20/20 Q1012 NOSIG
ZGKL,2025-04-24 05:00,ZGKL 240500Z 16002MPS 100V210 9999 SCT013 BKN066 21/19 Q1011 NOSIG
ZGKL,2025-04-24 06:00,ZGKL 240600Z 13002MPS 080V160 9999 SCT020 SCT066 23/18 Q1010 NOSIG
ZGKL,2025-04-24 07:00,ZGKL 240700Z VRB01MPS 9999 SCT026 SCT046 25/20 Q1009 NOSIG
ZGKL,2025-04-24 08:00,ZGKL 240800Z 16002MPS 130V190 9999 SCT043 BKN066 24/19 Q1008 NOSIG
ZGKL,2025-04-24 09:00,ZGKL 240900Z VRB01MPS 9999 BKN043 BKN066 24/19 Q1008 NOSIG
ZGKL,2025-04-24 10:00,ZGKL 241000Z VRB01MPS 9999 SCT043 BKN066 24/19 Q1009 NOSIG
ZGKL,2025-04-24 11:00,ZGKL 241100Z 35003MPS 9999 FEW030 SCT043 BKN066 23/17 Q1010 NOSIG
ZGKL,2025-04-24 12:00,ZGKL 241200Z 02002MPS 340V050 9999 SCT043 BKN066 22/19 Q1011 NOSIG
ZGKL,2025-04-24 13:00,ZGKL 241300Z 06005MPS 030V090 9999 SCT043 OVC066 21/17 Q1012 BECMG FM1400 35002MPS
ZGKL,2025-04-24 14:00,ZGKL 241400Z 36002MPS 300V040 9999 SCT043 SCT066 21/17 Q1013 NOSIG
ZGKL,2025-04-24 15:00,ZGKL 241500Z 05003MPS 9999 SCT043 BKN073 21/17 Q1013 NOSIG
ZGKL,2025-04-24 16:00,ZGKL 241600Z 35002MPS 320V040 9999 SCT053 20/17 Q1014 NOSIG
ZGKL,2025-04-24 17:00,ZGKL 241700Z 04003MPS 9999 SCT046 BKN073 20/16 Q1013 NOSIG
ZGKL,2025-04-24 18:00,ZGKL 241800Z 04002MPS 9999 FEW030 SCT046 BKN073 20/16 Q1013 NOSIG
ZGKL,2025-04-24 19:00,ZGKL 241900Z 04004MPS 9999 -RA SCT033 OVC073 20/15 Q1013 NOSIG
ZGKL,2025-04-24 20:00,ZGKL 242000Z 05003MPS 010V080 9999 -RA FEW033 BKN073 19/15 Q1013 NOSIG
ZGKL,2025-04-24 21:00,ZGKL 242100Z 03003MPS 9999 SCT066 18/16 Q1013 NOSIG
ZGKL,2025-04-24 22:00,ZGKL 242200Z 31001MPS 9999 -RA SCT040 18/17 Q1014 NOSIG
ZGKL,2025-04-24 23:00,ZGKL 242300Z 00000MPS 9999 -RA SCT040 OVC066 18/17 Q1015 NOSIG
ZGKL,2025-04-25 00:00,ZGKL 250000Z VRB01MPS 9999 SCT046 18/16 Q1015 NOSIG
ZGKL,2025-04-25 01:00,ZGKL 250100Z 05002MPS 020V080 9999 SCT043 18/15 Q1016 NOSIG
ZGKL,2025-04-25 02:00,ZGKL 250200Z 03003MPS 360V070 9999 SCT046 20/16 Q1016 NOSIG
ZGKL,2025-04-25 03:00,ZGKL 250300Z 02005MPS 9999 FEW023 22/15 Q1016 NOSIG
ZGKL,2025-04-25 04:00,ZGKL 250400Z 05004MPS 010V080 9999 FEW026 23/15 Q1016 NOSIG
ZGKL,2025-04-25 05:00,ZGKL 250500Z 06005MPS 9999 FEW026 24/16 Q1015 NOSIG
ZGKL,2025-04-25 06:00,ZGKL 250600Z 05004MPS 360V120 9999 FEW026 25/16 Q1014 NOSIG
ZGKL,2025-04-25 07:00,ZGKL 250700Z 07004MPS 040V140 9999 FEW033 SCT050 24/15 Q1014 NOSIG
ZGKL,2025-04-25 08:00,ZGKL 250800Z 07003MPS 030V120 9999 FEW053 24/15 Q1013 NOSIG
ZGKL,2025-04-25 09:00,ZGKL 250900Z 09003MPS 060V130 9999 FEW040 24/15 Q1012 NOSIG
ZGKL,2025-04-25 10:00,ZGKL 251000Z 04003MPS 360V090 9999 FEW030 SCT053 24/15 Q1013 NOSIG
ZGKL,2025-04-25 11:00,ZGKL 251100Z 04003MPS 9999 FEW046 22/15 Q1013 NOSIG
ZGKL,2025-04-25 12:00,ZGKL 251200Z 05004MPS 9999 BKN046 21/14 Q1014 NOSIG
ZGKL,2025-04-25 13:00,ZGKL 251300Z 06004MPS 9999 SCT043 21/14 Q1014 NOSIG
ZGKL,2025-04-25 14:00,ZGKL 251400Z 05004MPS 9999 SCT043 21/14 Q1015 NOSIG
ZGKL,2025-04-25 15:00,ZGKL 251500Z 06005MPS 9999 SCT046 21/14 Q1016 NOSIG
ZGKL,2025-04-25 16:00,ZGKL 251600Z 04004MPS 9999 SCT050 BKN073 20/14 Q1015 NOSIG
ZGKL,2025-04-25 17:00,ZGKL 251700Z 35002MPS 320V020 9999 SCT050 OVC073 19/15 Q1015 NOSIG
ZGKL,2025-04-25 18:00,ZGKL 251800Z 00000MPS 6000 SCT050 OVC073 18/16 Q1014 NOSIG
ZGKL,2025-04-25 19:00,ZGKL 251900Z 00000MPS 7000 SCT050 18/16 Q1014 NOSIG
ZGKL,2025-04-25 20:00,ZGKL 252000Z 00000MPS 7000 SCT050 18/17 Q1014 NOSIG
ZGKL,2025-04-25 21:00,ZGKL 252100Z 00000MPS 7000 SCT050 18/17 Q1014 NOSIG
ZGKL,2025-04-25 22:00,ZGKL 252200Z 00000MPS 6000 SCT050 17/17 Q1014 NOSIG
ZGKL,2025-04-25 23:00,ZGKL 252300Z 00000MPS 7000 SCT050 18/18 Q1015 NOSIG
ZGKL,2025-04-26 00:00,ZGKL 260000Z VRB01MPS 7000 SCT046 19/17 Q1015 NOSIG
ZGKL,2025-04-26 01:00,ZGKL 260100Z VRB01MPS 7000 SCT046 19/16 Q1016 NOSIG
ZGKL,2025-04-26 02:00,ZGKL 260200Z VRB01MPS 9999 SCT046 21/16 Q1016 NOSIG
ZGKL,2025-04-26 03:00,ZGKL 260300Z VRB01MPS 9999 SCT046 BKN066 22/15 Q1016 NOSIG
ZGKL,2025-04-26 04:00,ZGKL 260400Z VRB01MPS 9999 SCT046 BKN066 22/15 Q1015 NOSIG
ZGKL,2025-04-26 05:00,ZGKL 260500Z VRB02MPS 9999 FEW023 SCT040 BKN060 25/16 Q1014 NOSIG
ZGKL,2025-04-26 06:00,ZGKL 260600Z 34002MPS 270V040 9999 SCT046 BKN066 25/16 Q1013 NOSIG
ZGKL,2025-04-26 07:00,ZGKL 260700Z VRB01MPS 9999 SCT043 BKN060 25/17 Q1011 NOSIG
ZGKL,2025-04-26 08:00,ZGKL 260800Z VRB01MPS 9999 SCT040 OVC056 25/17 Q1011 NOSIG
ZGKL,2025-04-26 09:00,ZGKL 260900Z 01002MPS 330V030 9999 SCT033 OVC050 24/17 Q1011 NOSIG
ZGKL,2025-04-26 10:00,ZGKL 261000Z 34001MPS 9999 SCT033 OVC050 23/18 Q1011 NOSIG
ZGKL,2025-04-26 11:00,ZGKL 261100Z 34002MPS 9999 SCT033 OVC050 23/18 Q1011 NOSIG
ZGKL,2025-04-26 12:00,ZGKL 261200Z 35002MPS 9999 FEW050 22/18 Q1012 NOSIG
ZGKL,2025-04-26 13:00,ZGKL 261300Z VRB01MPS 9999 FEW050 22/18 Q1012 NOSIG
ZGKL,2025-04-26 14:00,ZGKL 261400Z VRB01MPS 9999 FEW050 22/18 Q1013 NOSIG
ZGKL,2025-04-26 15:00,ZGKL 261500Z VRB01MPS 9999 FEW050 22/19 Q1013 NOSIG
ZGKL,2025-04-26 16:00,ZGKL 261600Z VRB01MPS 8000 -SHRA FEW026CB SCT026 BKN046 21/19 Q1013 NOSIG
ZGKL,2025-04-26 17:00,ZGKL 261700Z 28001MPS 8000 SCT026 OVC046 21/20 Q1013 NOSIG
ZGKL,2025-04-26 18:00,ZGKL 261800Z 27001MPS 7000 SCT026 OVC046 20/20 Q1012 NOSIG
ZGKL,2025-04-26 19:00,ZGKL 261900Z VRB01MPS 8000 FEW026CB SCT026 BKN050 20/20 Q1011 NOSIG
ZGKL,2025-04-26 20:00,ZGKL 262000Z VRB01MPS 7000 -SHRA FEW013 FEW026CB SCT026 BKN043 21/21 Q1012 NOSIG
ZGKL,2025-04-26 21:00,ZGKL 262100Z 03002MPS 360V070 5000 -SHRA BR FEW010 FEW023CB SCT023 BKN040 20/19 Q1012 BECMG FM2120 -TSRA
ZGKL,2025-04-26 22:00,ZGKL 262200Z 13002MPS 5000 -RA BR FEW010 SCT023 OVC040 20/20 Q1012 NOSIG
ZGKL,2025-04-26 23:00,ZGKL 262300Z VRB01MPS 3000 -RA BR FEW010 SCT023 OVC040 20/20 Q1012 BECMG FM2350 2500 TSRA SCT026 FEW033CB BKN046
ZGKL,2025-04-27 00:00,ZGKL 270000Z VRB01MPS 1800 TSRA BR FEW010 FEW023CB SCT023 BKN040 19/19 Q1013 BECMG TL0030 3000 -TSRA
ZGKL,2025-04-27 01:00,ZGKL 270100Z 36002MPS 1800 -SHRA BR FEW010 FEW023CB SCT023 BKN040 19/19 Q1013 RETSRA BECMG TL0230 3500 -RA BR BKN040
ZGKL,2025-04-27 02:00,ZGKL 270200Z VRB01MPS 2500 -SHRA BR FEW006 FEW026CB BKN026 BKN046 20/20 Q1014 BECMG TL0330 3500 BKN030
ZGKL,2025-04-27 03:00,ZGKL 270300Z VRB01MPS 4000 BR SCT020 SCT030 BKN053 21/21 Q1014 NOSIG
ZGKL,2025-04-27 04:00,ZGKL 270400Z 16002MPS 120V200 7000 FEW016 SCT033 BKN060 23/21 Q1013 NOSIG
ZGKL,2025-04-27 05:00,ZGKL 270500Z 16003MPS 130V200 6000 FEW013 SCT030 OVC053 23/22 Q1013 NOSIG
ZGKL,2025-04-27 06:00,ZGKL 270600Z 17003MPS 5000 BR SCT033 OVC053 23/21 Q1012 NOSIG
ZGKL,2025-04-27 07:00,ZGKL 270700Z 16002MPS 110V190 7000 SCT033 OVC050 24/21 Q1011 NOSIG
ZGKL,2025-04-27 08:00,ZGKL 270800Z 17003MPS 130V190 8000 SCT036 OVC053 24/21 Q1011 NOSIG
ZGKL,2025-04-27 09:00,ZGKL 270900Z 15002MPS 110V180 8000 SCT036 OVC053 24/21 Q1010 NOSIG
ZGKL,2025-04-27 10:00,ZGKL 271000Z VRB01MPS 8000 SCT040 OVC056 24/21 Q1011 NOSIG
ZGKL,2025-04-27 11:00,ZGKL 271100Z VRB01MPS 9000 SCT043 BKN060 23/21 Q1012 NOSIG
ZGKL,2025-04-27 12:00,ZGKL 271200Z VRB01MPS 9000 FEW043 OVC060 23/23 Q1012 NOSIG
ZGKL,2025-04-27 13:00,ZGKL 271300Z 35002MPS 9999 SCT043 OVC066 23/22 Q1013 NOSIG
ZGKL,2025-04-27 14:00,ZGKL 271400Z 34002MPS 9999 FEW033 SCT043 OVC066 23/18 Q1014 NOSIG
ZGKL,2025-04-27 15:00,ZGKL 271500Z 31002MPS 280V340 9999 SCT043 BKN066 22/19 Q1014 NOSIG
ZGKL,2025-04-27 16:00,ZGKL 271600Z VRB01MPS 9999 SCT046 BKN070 21/20 Q1014 NOSIG
ZGKL,2025-04-27 17:00,ZGKL 271700Z VRB01MPS 9999 SCT046 BKN070 21/20 Q1014 NOSIG
ZGKL,2025-04-27 18:00,ZGKL 271800Z 29002MPS 9999 FEW050 BKN073 20/20 Q1014 NOSIG
ZGKL,2025-04-27 19:00,ZGKL 271900Z VRB01MPS CAVOK 19/19 Q1014 NOSIG
ZGKL,2025-04-27 20:00,ZGKL 272000Z VRB01MPS CAVOK 19/19 Q1014 NOSIG
ZGKL,2025-04-27 21:00,ZGKL 272100Z 35002MPS CAVOK 19/19 Q1014 NOSIG
ZGKL,2025-04-27 22:00,ZGKL 272200Z 33001MPS 9999 SCT066 19/19 Q1014 NOSIG
ZGKL,2025-04-27 23:00,ZGKL 272300Z VRB01MPS 9999 FEW066 19/19 Q1015 NOSIG
ZGKL,2025-04-28 00:00,ZGKL 280000Z VRB01MPS 9999 FEW066 20/19 Q1016 NOSIG
ZGKL,2025-04-28 01:00,ZGKL 280100Z VRB01MPS CAVOK 23/18 Q1016 NOSIG
ZGKL,2025-04-28 02:00,ZGKL 280200Z 35002MPS 270V040 CAVOK 25/17 Q1017 NOSIG
ZGKL,2025-04-28 03:00,ZGKL 280300Z 02003MPS 270V060 CAVOK 27/18 Q1016 NOSIG
ZGKL,2025-04-28 04:00,ZGKL 280400Z 04007MPS 010V080 CAVOK 29/16 Q1016 NOSIG
ZGKL,2025-04-28 05:00,ZGKL 280500Z 05008MPS CAVOK 30/15 Q1015 NOSIG
ZGKL,2025-04-28 06:00,ZGKL 280600Z 07006MPS 030V110 CAVOK 30/15 Q1014 NOSIG
ZGKL,2025-04-28 07:00,ZGKL 280700Z 04006MPS CAVOK 31/16 Q1013 NOSIG
ZGKL,2025-04-28 08:00,ZGKL 280800Z 05006MPS 020V080 CAVOK 31/15 Q1013 NOSIG
ZGKL,2025-04-28 09:00,ZGKL 280900Z 06005MPS 030V090 CAVOK 30/14 Q1012 NOSIG
ZGKL,2025-04-28 10:00,ZGKL 281000Z 05005MPS CAVOK 29/14 Q1013 BECMG FM1130 34002MPS
ZGKL,2025-04-28 11:00,ZGKL 281100Z 04004MPS CAVOK 27/15 Q1013 NOSIG
ZGKL,2025-04-28 12:00,ZGKL 281200Z 32003MPS CAVOK 24/16 Q1014 NOSIG
ZGKL,2025-04-28 13:00,ZGKL 281300Z 35002MPS CAVOK 23/15 Q1014 NOSIG
ZGKL,2025-04-28 14:00,ZGKL 281400Z VRB01MPS CAVOK 22/16 Q1015 NOSIG
ZGKL,2025-04-28 15:00,ZGKL 281500Z 36001MPS CAVOK 21/16 Q1015 NOSIG
ZGKL,2025-04-28 16:00,ZGKL 281600Z VRB01MPS CAVOK 20/16 Q1015 NOSIG
ZGKL,2025-04-28 17:00,ZGKL 281700Z 33001MPS CAVOK 19/17 Q1015 NOSIG
ZGKL,2025-04-28 18:00,ZGKL 281800Z 35001MPS CAVOK 18/17 Q1015 NOSIG
ZGKL,2025-04-28 19:00,ZGKL 281900Z 29001MPS CAVOK 18/18 Q1014 NOSIG
ZGKL,2025-04-28 20:00,ZGKL 282000Z 31001MPS 8000 NSC 18/18 Q1014 NOSIG
ZGKL,2025-04-28 21:00,ZGKL 282100Z 30001MPS 8000 NSC 17/17 Q1014 NOSIG
ZGKL,2025-04-28 22:00,ZGKL 282200Z VRB01MPS 8000 NSC 17/17 Q1014 NOSIG
ZGKL,2025-04-28 23:00,ZGKL 282300Z 00000MPS CAVOK 17/17 Q1015 NOSIG
ZGKL,2025-04-29 00:00,ZGKL 290000Z VRB01MPS CAVOK 20/18 Q1015 NOSIG
ZGKL,2025-04-29 01:00,ZGKL 290100Z VRB01MPS CAVOK 23/17 Q1016 NOSIG
ZGKL,2025-04-29 02:00,ZGKL 290200Z VRB01MPS CAVOK 25/17 Q1016 NOSIG
ZGKL,2025-04-29 03:00,ZGKL 290300Z VRB02MPS CAVOK 27/18 Q1016 NOSIG
ZGKL,2025-04-29 04:00,ZGKL 290400Z 03002MPS 340V090 CAVOK 28/17 Q1015 NOSIG
ZGKL,2025-04-29 05:00,ZGKL 290500Z 15002MPS 100V270 CAVOK 29/16 Q1014 NOSIG
ZGKL,2025-04-29 06:00,ZGKL 290600Z VRB02MPS CAVOK 29/16 Q1013 NOSIG
ZGKL,2025-04-29 07:00,ZGKL 290700Z 10002MPS 060V190 CAVOK 30/17 Q1012 NOSIG
ZGKL,2025-04-29 08:00,ZGKL 290800Z 11003MPS 080V150 CAVOK 30/17 Q1011 NOSIG
ZGKL,2025-04-29 09:00,ZGKL 290900Z VRB01MPS CAVOK 30/18 Q1010 NOSIG
ZGKL,2025-04-29 10:00,ZGKL 291000Z VRB01MPS CAVOK 29/17 Q1011 NOSIG
ZGKL,2025-04-29 11:00,ZGKL 291100Z VRB01MPS CAVOK 26/19 Q1011 NOSIG
ZGKL,2025-04-29 12:00,ZGKL 291200Z 23001MPS CAVOK 24/20 Q1011 NOSIG
ZGKL,2025-04-29 13:00,ZGKL 291300Z VRB01MPS CAVOK 24/20 Q1012 NOSIG
ZGKL,2025-04-29 14:00,ZGKL 291400Z VRB01MPS CAVOK 24/20 Q1012 NOSIG
ZGKL,2025-04-29 15:00,ZGKL 291500Z 33002MPS 300V360 CAVOK 23/20 Q1012 NOSIG
ZGKL,2025-04-29 16:00,ZGKL 291600Z 28001MPS CAVOK 23/20 Q1012 NOSIG
ZGKL,2025-04-29 17:00,ZGKL 291700Z VRB01MPS CAVOK 22/21 Q1012 NOSIG
ZGKL,2025-04-29 18:00,ZGKL 291800Z 19001MPS CAVOK 22/21 Q1012 NOSIG
ZGKL,2025-04-29 19:00,ZGKL 291900Z 19001MPS CAVOK 22/22 Q1012 NOSIG
ZGKL,2025-04-29 20:00,ZGKL 292000Z 00000MPS CAVOK 22/22 Q1012 NOSIG
ZGKL,2025-04-29 21:00,ZGKL 292100Z 34002MPS 250V010 9999 SCT043 OVC066 22/20 Q1012 NOSIG
ZGKL,2025-04-29 22:00,ZGKL 292200Z VRB01MPS 9999 FEW013 FEW030CB SCT036 BKN060 22/20 Q1012 NOSIG
ZGKL,2025-04-29 23:00,ZGKL 292300Z VRB01MPS 6000 FEW016 FEW030CB SCT036 BKN053 22/21 Q1012 NOSIG
ZGKL,2025-04-30 00:00,ZGKL 300000Z VRB01MPS 6000 FEW013 FEW030CB SCT033 BKN053 22/21 Q1013 NOSIG
ZGKL,2025-04-30 01:00,ZGKL 300100Z 01002MPS 330V040 6000 SCT033 OVC053 23/21 Q1013 NOSIG
ZGKL,2025-04-30 02:00,ZGKL 300200Z 34002MPS 290V010 5000 BR SCT033 OVC053 22/21 Q1014 BECMG FM0330 SHRA FEW020 FEW033CB BKN033
ZGKL,2025-04-30 03:00,ZGKL 300300Z VRB01MPS 4000 -SHRA BR SCT026 FEW033CB BKN040 22/22 Q1014 BECMG FM0400 TSRA
ZGKL,2025-04-30 04:00,ZGKL 300400Z 35002MPS 2000 -SHRA BR FEW004 SCT023 FEW033CB BKN033 22/22 Q1013 BECMG FM0420 TSRA
ZGKL,2025-04-30 05:00,ZGKL 300500Z 36003MPS 2800 -TSRA BR FEW004 SCT023 FEW033CB BKN033 22/22 Q1013 RESHRA BECMG TL0630 3500 -RA
ZGKL,2025-04-30 06:00,ZGKL 300600Z 35002MPS 310V020 8000 SCT033 OVC050 22/22 Q1013 RETS NOSIG
ZGKL,2025-04-30 07:00,ZGKL 300700Z 36002MPS 310V040 9999 FEW013 25/21 Q1011 NOSIG
ZGKL,2025-04-30 08:00,ZGKL 300800Z 35002MPS 310V020 9999 SCT013 SCT033 25/20 Q1011 NOSIG
ZGKL,2025-04-30 09:00,ZGKL 300900Z 02002MPS 320V070 9999 FEW016 SCT066 25/21 Q1010 NOSIG
ZGKL,2025-04-30 10:00,ZGKL 301000Z VRB01MPS 9999 FEW023 25/20 Q1010 NOSIG
ZGKL,2025-04-30 11:00,ZGKL 301100Z VRB01MPS 9999 SCT033 24/21 Q1011 NOSIG
ZGKL,2025-04-30 12:00,ZGKL 301200Z VRB01MPS 9999 SCT040 23/21 Q1012 NOSIG
ZGKL,2025-04-30 13:00,ZGKL 301300Z VRB01MPS 9999 SCT053 22/22 Q1013 NOSIG
ZGKL,2025-04-30 14:00,ZGKL 301400Z 20002MPS 9999 SCT060 22/22 Q1013 NOSIG
ZGKL,2025-04-30 15:00,ZGKL 301500Z VRB01MPS 9999 -RA SCT040 22/22 Q1014 NOSIG
ZGKL,2025-04-30 16:00,ZGKL 301600Z VRB01MPS 9999 SCT046 21/21 Q1014 NOSIG
ZGKL,2025-04-30 17:00,ZGKL 301700Z VRB01MPS CAVOK 21/21 Q1013 NOSIG
ZGKL,2025-04-30 18:00,ZGKL 301800Z 19001MPS 9999 FEW060 21/21 Q1013 NOSIG
ZGKL,2025-04-30 19:00,ZGKL 301900Z 32001MPS CAVOK 20/20 Q1014 NOSIG
ZGKL,2025-04-30 20:00,ZGKL 302000Z VRB01MPS CAVOK 20/20 Q1013 NOSIG
ZGKL,2025-04-30 21:00,ZGKL 302100Z VRB01MPS CAVOK 20/20 Q1014 NOSIG
ZGKL,2025-04-30 22:00,ZGKL 302200Z VRB01MPS 8000 NSC 19/19 Q1014 NOSIG
ZGKL,2025-04-30 23:00,ZGKL 302300Z 00000MPS CAVOK 20/20 Q1015 NOSIG
ZGKL,2025-05-01 00:00,ZGKL 010000Z VRB01MPS CAVOK 22/20 Q1015 NOSIG
ZGKL,2025-05-01 01:00,ZGKL 010100Z VRB01MPS 9999 FEW066 25/19 Q1016 NOSIG
ZGKL,2025-05-01 02:00,ZGKL 010200Z VRB01MPS CAVOK 26/18 Q1016 NOSIG
ZGKL,2025-05-01 03:00,ZGKL 010300Z 26002MPS 220V360 CAVOK 27/19 Q1015 NOSIG
ZGKL,2025-05-01 04:00,ZGKL 010400Z VRB01MPS CAVOK 29/18 Q1015 BECMG FM0530 05005MPS
ZGKL,2025-05-01 05:00,ZGKL 010500Z 06003MPS 340V120 CAVOK 30/15 Q1014 NOSIG
ZGKL,2025-05-01 06:00,ZGKL 010600Z 06004MPS 030V100 CAVOK 32/16 Q1014 NOSIG
ZGKL,2025-05-01 07:00,ZGKL 010700Z 05004MPS 360V100 CAVOK 33/14 Q1013 NOSIG
ZGKL,2025-05-01 08:00,ZGKL 010800Z 05005MPS 020V090 CAVOK 33/13 Q1012 NOSIG
ZGKL,2025-05-01 09:00,ZGKL 010900Z 04004MPS 9999 FEW070 31/16 Q1011 NOSIG
ZGKL,2025-05-01 10:00,ZGKL 011000Z 05004MPS 9999 FEW066 30/14 Q1012 NOSIG
ZGKL,2025-05-01 11:00,ZGKL 011100Z VRB01MPS 9999 SCT066 28/15 Q1012 NOSIG
ZGKL,2025-05-01 12:00,ZGKL 011200Z VRB01MPS 9999 SCT066 27/14 Q1013 NOSIG
ZGKL,2025-05-01 13:00,ZGKL 011300Z VRB01MPS CAVOK 23/18 Q1014 NOSIG
ZGKL,2025-05-01 14:00,ZGKL 011400Z VRB01MPS CAVOK 22/18 Q1014 NOSIG
ZGKL,2025-05-01 15:00,ZGKL 011500Z VRB01MPS CAVOK 21/19 Q1015 NOSIG
ZGKL,2025-05-01 16:00,ZGKL 011600Z 29002MPS CAVOK 22/18 Q1014 NOSIG
ZGKL,2025-05-01 17:00,ZGKL 011700Z 35001MPS CAVOK 20/18 Q1014 NOSIG
ZGKL,2025-05-01 18:00,ZGKL 011800Z VRB01MPS CAVOK 19/19 Q1013 NOSIG
ZGKL,2025-05-01 19:00,ZGKL 011900Z 18002MPS CAVOK 17/17 Q1013 NOSIG
ZGKL,2025-05-01 20:00,ZGKL 012000Z VRB01MPS CAVOK 18/18 Q1013 NOSIG
ZGKL,2025-05-01 21:00,ZGKL 012100Z VRB01MPS 8000 NSC 17/17 Q1013 NOSIG
ZGKL,2025-05-01 22:00,ZGKL 012200Z 00000MPS CAVOK 17/17 Q1013 NOSIG
ZGKL,2025-05-01 23:00,ZGKL 012300Z VRB01MPS CAVOK 18/18 Q1013 NOSIG
ZGKL,2025-05-02 00:00,ZGKL 020000Z VRB01MPS CAVOK 20/18 Q1014 NOSIG
ZGKL,2025-05-02 01:00,ZGKL 020100Z VRB01MPS CAVOK 24/18 Q1014 NOSIG
ZGKL,2025-05-02 02:00,ZGKL 020200Z VRB01MPS CAVOK 26/17 Q1014 NOSIG
ZGKL,2025-05-02 03:00,ZGKL 020300Z VRB01MPS CAVOK 28/17 Q1013 NOSIG
ZGKL,2025-05-02 04:00,ZGKL 020400Z VRB01MPS CAVOK 30/17 Q1012 NOSIG
ZGKL,2025-05-02 05:00,ZGKL 020500Z VRB01MPS CAVOK 32/17 Q1011 NOSIG
ZGKL,2025-05-02 06:00,ZGKL 020600Z VRB02MPS CAVOK 32/15 Q1009 NOSIG
ZGKL,2025-05-02 07:00,ZGKL 020700Z 15002MPS 090V210 CAVOK 33/17 Q1009 NOSIG
ZGKL,2025-05-02 08:00,ZGKL 020800Z VRB02MPS CAVOK 33/16 Q1008 NOSIG
ZGKL,2025-05-02 09:00,ZGKL 020900Z 13003MPS 080V210 CAVOK 33/17 Q1007 NOSIG
ZGKL,2025-05-02 10:00,ZGKL 021000Z 14002MPS 110V170 CAVOK 32/18 Q1007 NOSIG
ZGKL,2025-05-02 11:00,ZGKL 021100Z 15003MPS CAVOK 30/18 Q1007 NOSIG
ZGKL,2025-05-02 12:00,ZGKL 021200Z 27002MPS CAVOK 28/19 Q1007 NOSIG
ZGKL,2025-05-02 13:00,ZGKL 021300Z 00000MPS CAVOK 24/20 Q1008 NOSIG
ZGKL,2025-05-02 14:00,ZGKL 021400Z VRB01MPS CAVOK 24/19 Q1008 NOSIG
ZGKL,2025-05-02 15:00,ZGKL 021500Z VRB01MPS CAVOK 23/20 Q1008 NOSIG
ZGKL,2025-05-02 16:00,ZGKL 021600Z 19001MPS CAVOK 22/22 Q1008 NOSIG
ZGKL,2025-05-02 17:00,ZGKL 021700Z VRB01MPS CAVOK 22/21 Q1008 NOSIG
ZGKL,2025-05-02 18:00,ZGKL 021800Z VRB01MPS CAVOK 22/21 Q1008 NOSIG
ZGKL,2025-05-02 19:00,ZGKL 021900Z VRB01MPS CAVOK 21/21 Q1008 NOSIG
ZGKL,2025-05-02 20:00,ZGKL 022000Z VRB01MPS CAVOK 21/21 Q1008 NOSIG
ZGKL,2025-05-02 21:00,ZGKL 022100Z VRB01MPS 9999 FEW060 21/20 Q1009 NOSIG
ZGKL,2025-05-02 22:00,ZGKL 022200Z 00000MPS 9999 FEW060 21/20 Q1009 NOSIG
ZGKL,2025-05-02 23:00,ZGKL 022300Z VRB01MPS 9999 FEW060 22/21 Q1010 NOSIG
ZGKL,2025-05-03 00:00,ZGKL 030000Z VRB01MPS CAVOK 23/22 Q1010 NOSIG
ZGKL,2025-05-03 01:00,ZGKL 030100Z VRB01MPS 8000 FEW040 26/21 Q1010 NOSIG
ZGKL,2025-05-03 02:00,ZGKL 030200Z 17004MPS CAVOK 29/22 Q1010 NOSIG
ZGKL,2025-05-03 03:00,ZGKL 030300Z 14004MPS 110V170 9999 FEW026 SCT043 29/22 Q1010 NOSIG
ZGKL,2025-05-03 04:00,ZGKL 030400Z 16002MPS 040V210 9999 FEW030 31/22 Q1009 NOSIG
ZGKL,2025-05-03 05:00,ZGKL 030500Z 17005MPS 130V210 9999 FEW030 31/22 Q1008 NOSIG
ZGKL,2025-05-03 06:00,ZGKL 030600Z 17005MPS 140V200 9999 FEW026 31/22 Q1007 NOSIG
ZGKL,2025-05-03 07:00,ZGKL 030700Z 16004MPS 9999 SCT060 32/22 Q1007 NOSIG
ZGKL,2025-05-03 08:00,ZGKL 030800Z 18004MPS 9999 FEW060 32/22 Q1006 NOSIG
ZGKL,2025-05-03 09:00,ZGKL 030900Z 21003MPS 180V250 CAVOK 32/22 Q1005 NOSIG
ZGKL,2025-05-03 10:00,ZGKL 031000Z 16003MPS CAVOK 31/21 Q1005 NOSIG
ZGKL,2025-05-03 11:00,ZGKL 031100Z 12002MPS 100V200 CAVOK 30/22 Q1005 NOSIG
ZGKL,2025-05-03 12:00,ZGKL 031200Z VRB01MPS 9999 FEW050 28/23 Q1006 NOSIG
ZGKL,2025-05-03 13:00,ZGKL 031300Z 31002MPS 280V090 9000 SCT043 BKN060 27/23 Q1007 NOSIG
ZGKL,2025-05-03 14:00,ZGKL 031400Z VRB01MPS 8000 FEW050 BKN066 26/23 Q1007 NOSIG
ZGKL,2025-05-03 15:00,ZGKL 031500Z VRB01MPS 8000 NSC 25/23 Q1007 NOSIG
ZGKL,2025-05-03 16:00,ZGKL 031600Z 34001MPS 8000 SCT066 25/23 Q1007 NOSIG
ZGKL,2025-05-03 17:00,ZGKL 031700Z 33002MPS 300V360 8000 FEW043CB SCT043 BKN060 25/23 Q1008 TEMPO SHRA
ZGKL,2025-05-03 18:00,ZGKL 031800Z 30002MPS 270V340 7000 FEW043CB SCT043 BKN066 24/24 Q1007 RETS NOSIG
ZGKL,2025-05-03 19:00,ZGKL 031900Z 35002MPS 300V030 8000 SCT040 BKN060 24/22 Q1006 BECMG FM2050 -TSRA FEW020 FEW036CB BKN036
ZGKL,2025-05-03 20:00,ZGKL 032000Z VRB01MPS 8000 SCT033 BKN056 24/24 Q1006 BECMG FM2030 2000 TSRA BR FEW020 FEW033CB BKN033
ZGKL,2025-05-03 21:00,ZGKL 032100Z 35002MPS 5000 -TSRA BR FEW033CB SCT033 BKN056 23/23 Q1006 BECMG FM2130 2500 TSRA
ZGKL,2025-05-03 22:00,ZGKL 032200Z 36007MPS 2000 R01/1400D +TSRA BR FEW005 SCT030CB SCT030 BKN050 21/21 Q1007 BECMG TL2340 3000 -SHRA
ZGKL,2025-05-03 23:00,ZGKL 032300Z VRB01MPS 7000 -TSRA FEW033CB SCT033 BKN060 21/21 Q1007 RESHRA BECMG TL0030 -SHRA
ZGKL,2025-05-04 00:00,ZGKL 040000Z 23002MPS 6000 -SHRA FEW006 SCT016 FEW033CB BKN033 21/21 Q1008 RETS BECMG TL0100 BKN030
ZGKL,2025-05-04 01:00,ZGKL 040100Z 22002MPS 8000 -TSRA FEW005 SCT011 FEW030CB BKN030 21/21 Q1008 BECMG TL0200 -SHRA
ZGKL,2025-05-04 02:00,ZGKL 040200Z VRB01MPS 9999 -SHRA FEW006 SCT013 BKN030 22/22 Q1009 RETS NOSIG
ZGKL,2025-05-04 03:00,ZGKL 040300Z 19002MPS 140V220 9999 FEW010 SCT023 BKN070 24/24 Q1009 NOSIG
ZGKL,2025-05-04 04:00,ZGKL 040400Z 17002MPS 120V190 9999 SCT026 26/21 Q1007 NOSIG
ZGKL,2025-05-04 05:00,ZGKL 040500Z 11002MPS 060V130 9999 SCT026 SCT033 OVC066 26/21 Q1006 NOSIG
ZGKL,2025-05-04 06:00,ZGKL 040600Z 11002MPS 040V160 9999 FEW026 SCT033 OVC053 25/21 Q1006 NOSIG
ZGKL,2025-05-04 07:00,ZGKL 040700Z 02002MPS 340V060 9999 SCT026 OVC040 26/21 Q1005 NOSIG
ZGKL,2025-05-04 08:00,ZGKL 040800Z 34003MPS 9999 SCT026 OVC040 25/22 Q1004 NOSIG
ZGKL,2025-05-04 09:00,ZGKL 040900Z VRB01MPS 9999 SCT033 BKN053 26/22 Q1004 NOSIG
ZGKL,2025-05-04 10:00,ZGKL 041000Z 35002MPS 9999 FEW033 26/22 Q1003 NOSIG
ZGKL,2025-05-04 11:00,ZGKL 041100Z 35002MPS 9999 FEW056 24/22 Q1004 NOSIG
ZGKL,2025-05-04 12:00,ZGKL 041200Z 35003MPS 9999 SCT033 SCT066 24/22 Q1005 NOSIG
ZGKL,2025-05-04 13:00,ZGKL 041300Z VRB01MPS 9999 -SHRA FEW066 23/22 Q1005 BECMG FM1340 -TSRA FEW030CB SCT050
ZGKL,2025-05-04 14:00,ZGKL 041400Z 28002MPS 170V340 9999 SCT036 BKN066 23/22 Q1006 NOSIG
ZGKL,2025-05-04 15:00,ZGKL 041500Z VRB01MPS 9999 SCT033 BKN060 24/22 Q1006 NOSIG
ZGKL,2025-05-04 16:00,ZGKL 041600Z 00000MPS 9999 SCT033 BKN060 23/22 Q1006 NOSIG
ZGKL,2025-05-04 17:00,ZGKL 041700Z VRB01MPS 8000 SCT040 BKN066 23/22 Q1006 NOSIG
ZGKL,2025-05-04 18:00,ZGKL 041800Z VRB01MPS 7000 SCT033 BKN060 23/22 Q1006 NOSIG
ZGKL,2025-05-04 19:00,ZGKL 041900Z 13002MPS 7000 SCT040 BKN060 23/22 Q1005 NOSIG
ZGKL,2025-05-04 20:00,ZGKL 042000Z VRB01MPS 6000 -DZ SCT033 BKN053 23/22 Q1005 NOSIG
ZGKL,2025-05-04 21:00,ZGKL 042100Z 36002MPS 330V030 7000 SCT033 BKN053 23/22 Q1005 NOSIG
ZGKL,2025-05-04 22:00,ZGKL 042200Z VRB01MPS 6000 SCT030 BKN060 23/22 Q1006 NOSIG
ZGKL,2025-05-04 23:00,ZGKL 042300Z 19002MPS 8000 -SHRA SCT026 BKN053 23/23 Q1006 NOSIG
ZGKL,2025-05-05 00:00,ZGKL 050000Z VRB01MPS 8000 FEW030CB SCT030 BKN050 24/23 Q1007 BECMG TL0100 SCT030 BKN050
ZGKL,2025-05-05 01:00,ZGKL 050100Z VRB01MPS 8000 -SHRA FEW011 FEW030CB SCT030 BKN043 26/23 Q1007 BECMG FM0250 -TSRA
ZGKL,2025-05-05 02:00,ZGKL 050200Z 18003MPS 8000 -SHRA FEW016 FEW030CB SCT030 BKN053 27/24 Q1007 NOSIG
ZGKL,2025-05-05 03:00,ZGKL 050300Z 36004MPS 7000 FEW011 FEW030CB SCT030 BKN046 26/24 Q1007 NOSIG
ZGKL,2025-05-05 04:00,ZGKL 050400Z 02007MPS 9999 FEW008 FEW026CB SCT026 BKN046 24/22 Q1007 BECMG FM0410 2800 TSRA
ZGKL,2025-05-05 05:00,ZGKL 050500Z 03003MPS 360V060 6000 -TSRA SCT005 FEW026CB SCT026 BKN046 23/22 Q1007 RESHRA BECMG FM0515 -SHRA
ZGKL,2025-05-05 06:00,ZGKL 050600Z 02002MPS 350V070 9999 FEW011 SCT046 26/24 Q1006 RETS NOSIG
ZGKL,2025-05-05 07:00,ZGKL 050700Z 06004MPS 9999 FEW015 SCT026 BKN056 28/23 Q1006 NOSIG
ZGKL,2025-05-05 08:00,ZGKL 050800Z 06005MPS 9999 FEW016 SCT026 28/22 Q1005 NOSIG
ZGKL,2025-05-05 09:00,ZGKL 050900Z 07007MPS 9999 FEW020 SCT030 BKN050 26/21 Q1005 NOSIG
ZGKL,2025-05-05 10:00,ZGKL 051000Z 03003MPS 350V070 9999 SCT040 BKN053 25/21 Q1006 NOSIG
ZGKL,2025-05-05 11:00,ZGKL 051100Z 01003MPS 9999 FEW016 SCT030 OVC053 24/20 Q1007 NOSIG
ZGKL,2025-05-05 12:00,ZGKL 051200Z VRB01MPS 9999 SCT036 BKN060 24/20 Q1008 NOSIG
ZGKL,2025-05-05 13:00,ZGKL 051300Z 32001MPS 9999 SCT040 BKN066 23/20 Q1009 NOSIG
ZGKL,2025-05-05 14:00,ZGKL 051400Z 05002MPS 010V100 9999 FEW073 23/20 Q1009 NOSIG
ZGKL,2025-05-05 15:00,ZGKL 051500Z 04003MPS 9999 FEW066 22/19 Q1010 NOSIG
ZGKL,2025-05-05 16:00,ZGKL 051600Z 06002MPS 030V090 9999 FEW066 22/19 Q1010 NOSIG
ZGKL,2025-05-05 17:00,ZGKL 051700Z VRB01MPS 9999 SCT066 22/20 Q1010 NOSIG
ZGKL,2025-05-05 18:00,ZGKL 051800Z VRB01MPS 9999 SCT060 22/19 Q1009 NOSIG
ZGKL,2025-05-05 19:00,ZGKL 051900Z 00000MPS 9999 SCT033 BKN060 22/20 Q1009 NOSIG
ZGKL,2025-05-05 20:00,ZGKL 052000Z VRB01MPS 9999 SCT033 BKN060 22/19 Q1009 NOSIG
ZGKL,2025-05-05 21:00,ZGKL 052100Z VRB01MPS 9999 SCT033 BKN060 21/20 Q1009 NOSIG
ZGKL,2025-05-05 22:00,ZGKL 052200Z VRB01MPS 9999 BKN033 BKN066 21/20 Q1009 NOSIG
ZGKL,2025-05-05 23:00,ZGKL 052300Z VRB01MPS 9999 BKN040 BKN073 22/20 Q1010 NOSIG
ZGKL,2025-05-06 00:00,ZGKL 060000Z VRB01MPS 9999 BKN043 BKN066 22/20 Q1011 NOSIG
ZGKL,2025-05-06 01:00,ZGKL 060100Z VRB01MPS 9999 SCT040 BKN066 23/19 Q1011 NOSIG
ZGKL,2025-05-06 02:00,ZGKL 060200Z VRB01MPS 9999 SCT040 BKN060 24/19 Q1011 NOSIG
ZGKL,2025-05-06 03:00,ZGKL 060300Z VRB01MPS 9999 SCT040 BKN060 25/20 Q1011 NOSIG
ZGKL,2025-05-06 04:00,ZGKL 060400Z VRB01MPS 9999 SCT040 BKN066 25/20 Q1010 NOSIG
ZGKL,2025-05-06 05:00,ZGKL 060500Z 34002MPS 280V040 9999 SCT040 OVC066 27/20 Q1009 NOSIG
ZGKL,2025-05-06 06:00,ZGKL 060600Z VRB01MPS 9999 SCT040 OVC066 27/20 Q1008 NOSIG
ZGKL,2025-05-06 07:00,ZGKL 060700Z VRB01MPS 9999 FEW046 SCT066 28/20 Q1007 NOSIG
ZGKL,2025-05-06 08:00,ZGKL 060800Z VRB01MPS 9999 SCT046 BKN066 28/21 Q1007 NOSIG
ZGKL,2025-05-06 09:00,ZGKL 060900Z 33002MPS 290V360 9999 SCT050 BKN066 27/20 Q1007 NOSIG
ZGKL,2025-05-06 10:00,ZGKL 061000Z 35002MPS 320V020 9999 SCT043 OVC060 26/21 Q1007 NOSIG
ZGKL,2025-05-06 11:00,ZGKL 061100Z 06004MPS 9999 SCT043 OVC060 26/20 Q1007 NOSIG
ZGKL,2025-05-06 12:00,ZGKL 061200Z 04006MPS 9999 SCT043 OVC060 26/19 Q1008 NOSIG
ZGKL,2025-05-06 13:00,ZGKL 061300Z 02004MPS 9999 SCT046 OVC060 25/20 Q1009 NOSIG
ZGKL,2025-05-06 14:00,ZGKL 061400Z 31001MPS 9999 SCT046 BKN066 24/21 Q1010 NOSIG
ZGKL,2025-05-06 15:00,ZGKL 061500Z 34002MPS 310V020 9999 SCT046 BKN066 24/19 Q1010 NOSIG
ZGKL,2025-05-06 16:00,ZGKL 061600Z 34002MPS 9999 SCT046 BKN066 24/19 Q1010 NOSIG
ZGKL,2025-05-06 17:00,ZGKL 061700Z 36002MPS 9999 SCT043 BKN066 24/20 Q1009 NOSIG
ZGKL,2025-05-06 18:00,ZGKL 061800Z VRB01MPS 9999 SCT043 BKN066 23/21 Q1008 NOSIG
ZGKL,2025-05-06 19:00,ZGKL 061900Z 29001MPS 9999 SCT040 OVC060 23/21 Q1007 NOSIG
ZGKL,2025-05-06 20:00,ZGKL 062000Z 36001MPS 9999 SCT040 OVC060 22/21 Q1007 NOSIG
ZGKL,2025-05-06 21:00,ZGKL 062100Z 32002MPS 280V340 9999 SCT040 OVC060 22/20 Q1007 NOSIG
ZGKL,2025-05-06 22:00,ZGKL 062200Z 35001MPS 9999 SCT040 OVC060 22/20 Q1007 BECMG FM2350 SHRA FEW020 FEW033CB BKN040
ZGKL,2025-05-06 23:00,ZGKL 062300Z 33002MPS 9999 SCT040 OVC060 22/19 Q1008 BECMG FM0050 2500 TSRA FEW008 SCT020 FEW033CB BKN040
ZGKL,2025-05-07 00:00,ZGKL 070000Z 36002MPS 9999 TS FEW040CB SCT040 BKN060 22/20 Q1009 BECMG FM0100 2500 TSRA
ZGKL,2025-05-07 01:00,ZGKL 070100Z 36003MPS 5000 -TSRA BR FEW036CB SCT036 BKN053 21/20 Q1009 BECMG FM0200 -SHRA
ZGKL,2025-05-07 02:00,ZGKL 070200Z VRB01MPS 3500 SHRA BR FEW033CB SCT033 BKN053 20/19 Q1010 RETS BECMG TL0230 -RA SCT033 BKN060
ZGKL,2025-05-07 03:00,ZGKL 070300Z VRB01MPS 3500 -SHRA BR FEW004 SCT026 FEW036CB BKN036 20/20 Q1009 RESHRA BECMG TL0320 2800 TSRA
ZGKL,2025-05-07 04:00,ZGKL 070400Z 00000MPS 2000 SHRA BR FEW004 SCT010 BKN023 FEW040CB 20/20 Q1009 BECMG TL0440 3500 -RA SCT033 BKN060
ZGKL,2025-05-07 05:00,ZGKL 070500Z VRB01MPS 2400 -SHRA BR FEW004 BKN023 FEW040CB BKN040 20/20 Q1008 RESHRA BECMG TL0600 3200 FEW004 BKN014 BKN050
ZGKL,2025-05-07 06:00,ZGKL 070600Z 00000MPS 3500 -SHRA BR FEW003 SCT026 OVC043 21/20 Q1007 NOSIG
ZGKL,2025-05-07 07:00,ZGKL 070700Z VRB01MPS 2100 -SHRA BR FEW004 SCT010 BKN026 21/20 Q1006 BECMG FM0800 3500
ZGKL,2025-05-07 08:00,ZGKL 070800Z VRB01MPS 3600 -RA BR FEW004 SCT010 BKN023 21/20 Q1005 BECMG FM0900 2800
ZGKL,2025-05-07 09:00,ZGKL 070900Z VRB01MPS 2800 -RA BR FEW004 SCT010 BKN023 21/20 Q1005 BECMG FM1000 3500
ZGKL,2025-05-07 10:00,ZGKL 071000Z VRB01MPS 4500 -RA BR FEW005 SCT013 BKN026 21/20 Q1005 NOSIG
ZGKL,2025-05-07 11:00,ZGKL 071100Z 00000MPS 4000 BR FEW005 BKN026 OVC040 21/20 Q1005 NOSIG
ZGKL,2025-05-07 12:00,ZGKL 071200Z 00000MPS 4000 -RA BR FEW006 BKN026 OVC036 21/21 Q1005 NOSIG
ZGKL,2025-05-07 13:00,ZGKL 071300Z VRB01MPS 5000 -RA BR FEW006 SCT016 BKN030 21/21 Q1006 NOSIG
ZGKL,2025-05-07 14:00,ZGKL 071400Z 00000MPS 4000 BR SCT016 BKN030 OVC040 21/21 Q1006 NOSIG
ZGKL,2025-05-07 15:00,ZGKL 071500Z VRB01MPS 4000 BR SCT010 BKN026 OVC040 21/21 Q1006 NOSIG
ZGKL,2025-05-07 16:00,ZGKL 071600Z VRB01MPS 4000 BR BKN026 OVC040 21/21 Q1006 NOSIG
ZGKL,2025-05-07 17:00,ZGKL 071700Z VRB01MPS 4000 BR FEW010 BKN023 OVC040 21/21 Q1005 NOSIG
ZGKL,2025-05-07 18:00,ZGKL 071800Z VRB01MPS 3600 -RA BR FEW010 BKN023 OVC040 21/21 Q1005 NOSIG
ZGKL,2025-05-07 19:00,ZGKL 071900Z VRB01MPS 3600 -SHRA BR FEW004 SCT010 BKN023 FEW040CB 21/21 Q1004 NOSIG
ZGKL,2025-05-07 20:00,ZGKL 072000Z 18002MPS 3000 BR FEW003 SCT010 BKN023 21/21 Q1003 NOSIG
ZGKL,2025-05-07 21:00,ZGKL 072100Z VRB01MPS 2000 -DZ BR FEW003 SCT010 BKN020 21/21 Q1003 NOSIG
ZGKL,2025-05-07 22:00,ZGKL 072200Z VRB01MPS 1600 BR FEW002 SCT004 BKN020 21/21 Q1003 BECMG TL2240 1400
ZGKL,2025-05-07 23:00,ZGKL 072300Z VRB02MPS 1300 R01/1800U -SHRA BR SCT013 BKN023 FEW033CB BKN033 21/21 Q1003 RESHRA BECMG TL0030 2000 FEW005 SCT030 BKN060
ZGKL,2025-05-08 00:00,ZGKL 080000Z 34002MPS 1400 R01/1900N -SHRA BR FEW003 BKN023 FEW033CB BKN033 21/21 Q1004 RESHRA BECMG TL0030 2000 -RA SCT030 BKN060
ZGKL,2025-05-08 01:00,ZGKL 080100Z 18002MPS 2500 BR FEW010 SCT023 FEW033CB BKN033 23/23 Q1004 BECMG FM0130 3000
ZGKL,2025-05-08 02:00,ZGKL 080200Z VRB01MPS 2800 SHRA BR FEW006 SCT023 FEW036CB BKN036 23/23 Q1004 BECMG TL0230 3000 -SHRA
ZGKL,2025-05-08 03:00,ZGKL 080300Z 20004MPS 150V240 7000 FEW008 SCT026 FEW040CB BKN040 27/25 Q1004 RESHRA NOSIG
ZGKL,2025-05-08 04:00,ZGKL 080400Z 17007MPS 8000 FEW009 SCT030 FEW040CB BKN040 28/25 Q1003 BECMG TL0500 SCT030 BKN060
ZGKL,2025-05-08 05:00,ZGKL 080500Z 17006MPS 9000 FEW013 FEW040CB BKN043 30/25 Q1002 BECMG FM0600 SCT030 BKN050
ZGKL,2025-05-08 06:00,ZGKL 080600Z 19006MPS 170V230 9999 FEW016 FEW030TCU SCT043 30/25 Q1001 NOSIG
ZGKL,2025-05-08 07:00,ZGKL 080700Z 20006MPS 9999 FEW016 FEW030TCU SCT050 31/25 Q1000 BECMG FM0800 FEW030CB BKN040
ZGKL,2025-05-08 08:00,ZGKL 080800Z 17006MPS 9999 FEW015 FEW030TCU SCT046 32/26 Q0999 BECMG FM0900 FEW030CB BKN040
ZGKL,2025-05-08 09:00,ZGKL 080900Z 17004MPS 9999 FEW013 FEW030CB SCT030 31/25 Q1000 BECMG FM1050 -TSRA
ZGKL,2025-05-08 10:00,ZGKL 081000Z 16003MPS 130V200 9999 FEW013 FEW030CB SCT030 30/25 Q1000 BECMG FM1100 33009G17MPS 1200 +TSRA BR
ZGKL,2025-05-08 11:00,ZGKL 081100Z 03005MPS 9999 TS SQ FEW013 FEW026CB SCT026 BKN053 29/25 Q1001 BECMG TL1110 36010G17MPS 2000 +TSRA
ZGKL,2025-05-08 12:00,ZGKL 081200Z 12003MPS 080V170 8000 -TSRA FEW009 FEW026CB SCT026 BKN046 21/21 Q1002 RESHRA BECMG TL1240 -SHRA
ZGKL,2025-05-08 13:00,ZGKL 081300Z 06002MPS 030V120 9999 -TSRA FEW008 FEW026CB SCT026 BKN046 22/21 Q1004 BECMG TL1320 -SHRA
ZGKL,2025-05-08 14:00,ZGKL 081400Z 33001MPS 9999 -SHRA FEW006 FEW026CB SCT026 BKN046 21/21 Q1006 RETS NOSIG
ZGKL,2025-05-08 15:00,ZGKL 081500Z 34002MPS 8000 FEW005 FEW030CB SCT030 BKN050 22/21 Q1006 BECMG FM1620 -TSRA
ZGKL,2025-05-08 16:00,ZGKL 081600Z 01002MPS 340V060 6000 -TSRA FEW006 FEW030CB SCT030 BKN050 22/21 Q1006 BECMG FM1625 TSRA
ZGKL,2025-05-08 17:00,ZGKL 081700Z 07003MPS 040V100 5000 -TSRA BR FEW007 FEW030CB SCT030 BKN050 22/22 Q1007 BECMG FM1830 -SHRA
ZGKL,2025-05-08 18:00,ZGKL 081800Z VRB01MPS 5000 -TSRA BR FEW008 FEW030CB SCT030 BKN050 22/21 Q1006 BECMG FM1840 -SHRA
ZGKL,2025-05-08 19:00,ZGKL 081900Z 34002MPS 300V030 5000 -SHRA BR FEW008 FEW030CB SCT030 BKN050 22/21 Q1005 RETS NOSIG
ZGKL,2025-05-08 20:00,ZGKL 082000Z VRB01MPS 6000 FEW010 SCT033 OVC053 22/21 Q1006 RETS NOSIG
ZGKL,2025-05-08 21:00,ZGKL 082100Z VRB01MPS 6000 SCT033 OVC060 21/21 Q1007 NOSIG
ZGKL,2025-05-08 22:00,ZGKL 082200Z VRB01MPS 6000 SCT033 OVC060 21/21 Q1007 NOSIG
ZGKL,2025-05-08 23:00,ZGKL 082300Z VRB01MPS 6000 SCT040 BKN066 21/21 Q1008 NOSIG
ZGKL,2025-05-09 00:00,ZGKL 090000Z VRB01MPS 7000 FEW010 SCT040 BKN066 22/22 Q1009 NOSIG
ZGKL,2025-05-09 01:00,ZGKL 090100Z VRB01MPS CAVOK 23/22 Q1009 NOSIG
ZGKL,2025-05-09 02:00,ZGKL 090200Z VRB01MPS 9999 FEW023 24/22 Q1010 NOSIG
ZGKL,2025-05-09 03:00,ZGKL 090300Z VRB01MPS 9999 FEW010 SCT020 28/22 Q1011 NOSIG
ZGKL,2025-05-09 04:00,ZGKL 090400Z 07004MPS 030V100 9999 SCT023 29/19 Q1010 NOSIG
ZGKL,2025-05-09 05:00,ZGKL 090500Z 07004MPS 020V110 9999 FEW026 29/20 Q1010 NOSIG
ZGKL,2025-05-09 06:00,ZGKL 090600Z VRB01MPS 9999 FEW026 SCT053 30/19 Q1009 BECMG FM0730 05005MPS
ZGKL,2025-05-09 07:00,ZGKL 090700Z VRB02MPS 9999 FEW030 SCT053 31/20 Q1008 NOSIG
ZGKL,2025-05-09 08:00,ZGKL 090800Z VRB01MPS 9999 FEW030 31/19 Q1008 NOSIG
ZGKL,2025-05-09 09:00,ZGKL 090900Z 34002MPS 300V040 CAVOK 31/19 Q1007 NOSIG
ZGKL,2025-05-09 10:00,ZGKL 091000Z 03004MPS CAVOK 31/18 Q1008 NOSIG
ZGKL,2025-05-09 11:00,ZGKL 091100Z 05003MPS CAVOK 29/19 Q1008 NOSIG
ZGKL,2025-05-09 12:00,ZGKL 091200Z 34001MPS 9999 FEW073 25/21 Q1009 NOSIG
ZGKL,2025-05-09 13:00,ZGKL 091300Z 34002MPS 9999 FEW053 24/21 Q1009 NOSIG
ZGKL,2025-05-09 14:00,ZGKL 091400Z 35002MPS 9999 SCT046 24/21 Q1010 NOSIG
ZGKL,2025-05-09 15:00,ZGKL 091500Z 30001MPS 9999 SCT053 24/21 Q1011 NOSIG
ZGKL,2025-05-09 16:00,ZGKL 091600Z 34003MPS 310V010 9999 SCT060 24/21 Q1011 NOSIG
ZGKL,2025-05-09 17:00,ZGKL 091700Z 33002MPS 280V360 9999 FEW066 23/20 Q1011 NOSIG
ZGKL,2025-05-09 18:00,ZGKL 091800Z 23001MPS 9999 FEW066 22/20 Q1011 NOSIG
ZGKL,2025-05-09 19:00,ZGKL 091900Z VRB01MPS 9999 FEW066 22/20 Q1011 NOSIG
ZGKL,2025-05-09 20:00,ZGKL 092000Z 35002MPS CAVOK 21/20 Q1011 NOSIG
ZGKL,2025-05-09 21:00,ZGKL 092100Z VRB01MPS CAVOK 20/19 Q1011 NOSIG
ZGKL,2025-05-09 22:00,ZGKL 092200Z 35001MPS 9999 FEW053 20/19 Q1011 NOSIG
ZGKL,2025-05-09 23:00,ZGKL 092300Z VRB01MPS CAVOK 21/19 Q1012 NOSIG
ZGKL,2025-05-10 00:00,ZGKL 100000Z VRB01MPS CAVOK 23/20 Q1012 BECMG FM0130 04005MPS
ZGKL,2025-05-10 01:00,ZGKL 100100Z VRB01MPS CAVOK 25/20 Q1013 NOSIG
ZGKL,2025-05-10 02:00,ZGKL 100200Z 02005MPS 9999 FEW066 28/18 Q1014 NOSIG
ZGKL,2025-05-10 03:00,ZGKL 100300Z 07004MPS 030V100 9999 SCT053 28/18 Q1014 NOSIG
ZGKL,2025-05-10 04:00,ZGKL 100400Z 05008MPS 9999 SCT053 28/16 Q1013 BECMG FM0530 05003MPS
ZGKL,2025-05-10 05:00,ZGKL 100500Z 05008MPS 9999 SCT053 27/16 Q1012 BECMG FM0630 05003MPS
ZGKL,2025-05-10 06:00,ZGKL 100600Z 02005MPS 9999 -RA FEW023 SCT050 26/17 Q1012 NOSIG
ZGKL,2025-05-10 07:00,ZGKL 100700Z 02003MPS 320V030 9999 -RA SCT046 OVC073 25/19 Q1012 NOSIG
ZGKL,2025-05-10 08:00,ZGKL 100800Z 35004MPS 9999 -RA SCT053 23/18 Q1013 NOSIG
ZGKL,2025-05-10 09:00,ZGKL 100900Z 03005MPS 8000 -RA SCT050 21/17 Q1014 NOSIG
ZGKL,2025-05-10 10:00,ZGKL 101000Z 05002MPS 020V080 8000 -RA SCT050 20/17 Q1015 NOSIG
ZGKL,2025-05-10 11:00,ZGKL 101100Z 01002MPS 340V040 9000 -RA SCT050 20/17 Q1016 NOSIG
ZGKL,2025-05-10 12:00,ZGKL 101200Z 02003MPS 350V050 9000 -RA SCT050 OVC073 19/16 Q1017 NOSIG
ZGKL,2025-05-10 13:00,ZGKL 101300Z 05002MPS 010V090 9999 SCT053 19/14 Q1017 NOSIG
ZGKL,2025-05-10 14:00,ZGKL 101400Z VRB01MPS 9999 SCT060 19/16 Q1017 NOSIG
ZGKL,2025-05-10 15:00,ZGKL 101500Z 36002MPS 9999 SCT060 18/17 Q1018 NOSIG
ZGKL,2025-05-10 16:00,ZGKL 101600Z 36002MPS 320V040 9999 FEW073 18/16 Q1017 NOSIG
ZGKL,2025-05-10 17:00,ZGKL 101700Z VRB01MPS 9999 FEW073 17/15 Q1017 NOSIG
ZGKL,2025-05-10 18:00,ZGKL 101800Z 00000MPS 9999 FEW073 16/15 Q1016 NOSIG
ZGKL,2025-05-10 19:00,ZGKL 101900Z 34002MPS CAVOK 16/14 Q1015 NOSIG
ZGKL,2025-05-10 20:00,ZGKL 102000Z VRB01MPS CAVOK 15/14 Q1015 NOSIG
ZGKL,2025-05-10 21:00,ZGKL 102100Z VRB01MPS CAVOK 15/14 Q1015 NOSIG
ZGKL,2025-05-10 22:00,ZGKL 102200Z 00000MPS CAVOK 14/13 Q1015 NOSIG
ZGKL,2025-05-10 23:00,ZGKL 102300Z VRB01MPS CAVOK 15/14 Q1016 NOSIG
ZGKL,2025-05-11 00:00,ZGKL 110000Z 02002MPS 350V050 CAVOK 18/12 Q1016 NOSIG
ZGKL,2025-05-11 01:00,ZGKL 110100Z VRB01MPS CAVOK 20/13 Q1017 BECMG FM0250 05005MPS
ZGKL,2025-05-11 02:00,ZGKL 110200Z 04002MPS 330V110 CAVOK 23/12 Q1017 BECMG FM0350 05007MPS
ZGKL,2025-05-11 03:00,ZGKL 110300Z VRB01MPS CAVOK 24/11 Q1016 BECMG FM0440 05005MPS
ZGKL,2025-05-11 04:00,ZGKL 110400Z 02004MPS 330V070 CAVOK 26/08 Q1015 NOSIG
ZGKL,2025-05-11 05:00,ZGKL 110500Z 03005MPS 360V060 CAVOK 28/07 Q1014 NOSIG
ZGKL,2025-05-11 06:00,ZGKL 110600Z 03005G10MPS 360V070 CAVOK 29/05 Q1013 NOSIG
ZGKL,2025-05-11 07:00,ZGKL 110700Z 06004MPS 010V100 CAVOK 29/03 Q1012 NOSIG
ZGKL,2025-05-11 08:00,ZGKL 110800Z 06004MPS 340V110 CAVOK 30/05 Q1011 NOSIG
ZGKL,2025-05-11 09:00,ZGKL 110900Z 01003MPS 320V050 CAVOK 29/06 Q1010 NOSIG
ZGKL,2025-05-11 10:00,ZGKL 111000Z VRB01MPS CAVOK 29/07 Q1010 NOSIG
ZGKL,2025-05-11 11:00,ZGKL 111100Z 32002MPS 270V360 9999 FEW073 25/10 Q1011 NOSIG
ZGKL,2025-05-11 12:00,ZGKL 111200Z 29002MPS 270V330 CAVOK 22/13 Q1011 NOSIG
ZGKL,2025-05-11 13:00,ZGKL 111300Z 30001MPS CAVOK 19/15 Q1012 NOSIG
ZGKL,2025-05-11 14:00,ZGKL 111400Z 14002MPS 020V180 CAVOK 18/14 Q1012 NOSIG
ZGKL,2025-05-11 15:00,ZGKL 111500Z 27002MPS 210V300 CAVOK 17/14 Q1013 NOSIG
ZGKL,2025-05-11 16:00,ZGKL 111600Z 36001MPS CAVOK 16/14 Q1013 NOSIG
ZGKL,2025-05-11 17:00,ZGKL 111700Z VRB01MPS CAVOK 15/14 Q1012 NOSIG
ZGKL,2025-05-11 18:00,ZGKL 111800Z 31002MPS CAVOK 15/14 Q1012 NOSIG
ZGKL,2025-05-11 19:00,ZGKL 111900Z 01001MPS CAVOK 14/13 Q1012 NOSIG
ZGKL,2025-05-11 20:00,ZGKL 112000Z 22001MPS CAVOK 14/13 Q1012 NOSIG
ZGKL,2025-05-11 21:00,ZGKL 112100Z 00000MPS CAVOK 13/12 Q1012 NOSIG
ZGKL,2025-05-11 22:00,ZGKL 112200Z VRB01MPS CAVOK 13/12 Q1012 NOSIG
ZGKL,2025-05-11 23:00,ZGKL 112300Z VRB01MPS CAVOK 14/13 Q1013 NOSIG
ZGKL,2025-05-12 00:00,ZGKL 120000Z VRB01MPS CAVOK 16/14 Q1014 NOSIG
ZGKL,2025-05-12 01:00,ZGKL 120100Z VRB01MPS CAVOK 20/13 Q1014 NOSIG
ZGKL,2025-05-12 02:00,ZGKL 120200Z VRB01MPS CAVOK 23/13 Q1014 NOSIG
ZGKL,2025-05-12 03:00,ZGKL 120300Z 09002MPS 030V180 CAVOK 24/13 Q1013 NOSIG
ZGKL,2025-05-12 04:00,ZGKL 120400Z 15002MPS 070V220 CAVOK 27/13 Q1012 NOSIG
ZGKL,2025-05-12 05:00,ZGKL 120500Z 14003MPS 080V220 CAVOK 27/14 Q1011 NOSIG
ZGKL,2025-05-12 06:00,ZGKL 120600Z VRB02MPS CAVOK 29/12 Q1010 NOSIG
ZGKL,2025-05-12 07:00,ZGKL 120700Z 22002MPS 170V340 CAVOK 30/14 Q1009 NOSIG
ZGKL,2025-05-12 08:00,ZGKL 120800Z 16002MPS 090V250 CAVOK 30/14 Q1008 NOSIG
ZGKL,2025-05-12 09:00,ZGKL 120900Z 13003MPS 080V160 CAVOK 30/14 Q1007 NOSIG
ZGKL,2025-05-12 10:00,ZGKL 121000Z 12002MPS CAVOK 29/14 Q1007 NOSIG
ZGKL,2025-05-12 11:00,ZGKL 121100Z 13002MPS CAVOK 27/14 Q1007 NOSIG
ZGKL,2025-05-12 12:00,ZGKL 121200Z 26002MPS CAVOK 23/16 Q1008 NOSIG
ZGKL,2025-05-12 13:00,ZGKL 121300Z 27001MPS CAVOK 21/16 Q1009 NOSIG
ZGKL,2025-05-12 14:00,ZGKL 121400Z VRB01MPS CAVOK 19/17 Q1009 NOSIG
ZGKL,2025-05-12 15:00,ZGKL 121500Z 00000MPS CAVOK 19/17 Q1010 NOSIG
ZGKL,2025-05-12 16:00,ZGKL 121600Z VRB01MPS CAVOK 18/16 Q1010 NOSIG
ZGKL,2025-05-12 17:00,ZGKL 121700Z VRB01MPS CAVOK 16/16 Q1011 NOSIG
ZGKL,2025-05-12 18:00,ZGKL 121800Z 31001MPS CAVOK 17/16 Q1011 NOSIG
ZGKL,2025-05-12 19:00,ZGKL 121900Z 32001MPS CAVOK 16/15 Q1011 NOSIG
ZGKL,2025-05-12 20:00,ZGKL 122000Z VRB01MPS CAVOK 16/15 Q1011 NOSIG
ZGKL,2025-05-12 21:00,ZGKL 122100Z 30001MPS CAVOK 16/15 Q1011 NOSIG
ZGKL,2025-05-12 22:00,ZGKL 122200Z 00000MPS CAVOK 15/14 Q1012 NOSIG
ZGKL,2025-05-12 23:00,ZGKL 122300Z VRB01MPS CAVOK 16/16 Q1013 NOSIG
ZGKL,2025-05-13 00:00,ZGKL 130000Z 00000MPS CAVOK 19/17 Q1013 NOSIG
ZGKL,2025-05-13 01:00,ZGKL 130100Z VRB01MPS CAVOK 22/17 Q1013 BECMG FM0230 18005MPS
ZGKL,2025-05-13 02:00,ZGKL 130200Z 21002MPS 160V280 CAVOK 25/16 Q1013 NOSIG
ZGKL,2025-05-13 03:00,ZGKL 130300Z 17004MPS 140V210 CAVOK 27/16 Q1013 NOSIG
ZGKL,2025-05-13 04:00,ZGKL 130400Z 18006MPS CAVOK 29/15 Q1012 NOSIG
ZGKL,2025-05-13 05:00,ZGKL 130500Z 18007MPS CAVOK 30/15 Q1011 NOSIG
ZGKL,2025-05-13 06:00,ZGKL 130600Z 17006MPS CAVOK 31/15 Q1010 NOSIG
ZGKL,2025-05-13 07:00,ZGKL 130700Z 18006MPS CAVOK 31/15 Q1009 NOSIG
ZGKL,2025-05-13 08:00,ZGKL 130800Z 18005MPS CAVOK 31/15 Q1008 NOSIG
ZGKL,2025-05-13 09:00,ZGKL 130900Z 20004MPS 170V230 CAVOK 31/14 Q1008 NOSIG
ZGKL,2025-05-13 10:00,ZGKL 131000Z 18004MPS CAVOK 30/15 Q1008 NOSIG
ZGKL,2025-05-13 11:00,ZGKL 131100Z 15003MPS CAVOK 28/16 Q1008 NOSIG
ZGKL,2025-05-13 12:00,ZGKL 131200Z 19002MPS 170V240 CAVOK 24/18 Q1008 NOSIG
ZGKL,2025-05-13 13:00,ZGKL 131300Z VRB01MPS CAVOK 23/18 Q1009 NOSIG
ZGKL,2025-05-13 14:00,ZGKL 131400Z 29002MPS 260V320 CAVOK 22/18 Q1010 NOSIG
ZGKL,2025-05-13 15:00,ZGKL 131500Z VRB01MPS CAVOK 22/18 Q1010 NOSIG
ZGKL,2025-05-13 16:00,ZGKL 131600Z VRB01MPS CAVOK 21/18 Q1011 NOSIG
ZGKL,2025-05-13 17:00,ZGKL 131700Z 00000MPS CAVOK 20/18 Q1011 NOSIG
ZGKL,2025-05-13 18:00,ZGKL 131800Z 27002MPS CAVOK 20/18 Q1010 NOSIG
ZGKL,2025-05-13 19:00,ZGKL 131900Z 00000MPS CAVOK 19/18 Q1010 NOSIG
ZGKL,2025-05-13 20:00,ZGKL 132000Z VRB01MPS CAVOK 19/18 Q1011 NOSIG
ZGKL,2025-05-13 21:00,ZGKL 132100Z VRB01MPS 9999 FEW060 19/18 Q1011 NOSIG
ZGKL,2025-05-13 22:00,ZGKL 132200Z 00000MPS 9999 SCT040 OVC060 20/19 Q1012 NOSIG
ZGKL,2025-05-13 23:00,ZGKL 132300Z VRB01MPS 9999 SCT040 BKN060 21/18 Q1012 NOSIG
ZGKL,2025-05-14 00:00,ZGKL 140000Z VRB01MPS 9999 SCT036 OVC060 21/18 Q1013 NOSIG
ZGKL,2025-05-14 01:00,ZGKL 140100Z VRB01MPS 9999 SCT036 BKN060 23/18 Q1013 NOSIG
ZGKL,2025-05-14 02:00,ZGKL 140200Z VRB01MPS 9999 SCT036 BKN056 24/19 Q1014 NOSIG
ZGKL,2025-05-14 03:00,ZGKL 140300Z VRB01MPS 9999 SCT036 OVC056 25/19 Q1014 NOSIG
ZGKL,2025-05-14 04:00,ZGKL 140400Z 33002MPS 270V040 9999 -RA SCT033 OVC053 24/19 Q1013 NOSIG
ZGKL,2025-05-14 05:00,ZGKL 140500Z 35003MPS 310V010 8000 SCT036 OVC060 24/20 Q1013 NOSIG
ZGKL,2025-05-14 06:00,ZGKL 140600Z 36002MPS 310V050 9000 FEW023 SCT043 BKN073 27/21 Q1012 NOSIG
ZGKL,2025-05-14 07:00,ZGKL 140700Z 35002MPS 260V040 9000 FEW043 SCT073 29/21 Q1011 BECMG FM0830 FEW030CB BKN040
ZGKL,2025-05-14 08:00,ZGKL 140800Z VRB01MPS 9999 FEW036CB SCT036 BKN060 27/21 Q1010 BECMG FM0910 -TSRA
ZGKL,2025-05-14 09:00,ZGKL 140900Z 33001MPS 9999 FEW033CB SCT033 BKN056 26/21 Q1010 BECMG FM1000 FEW033 BKN050
ZGKL,2025-05-14 10:00,ZGKL 141000Z VRB01MPS 6000 FEW036CB SCT036 BKN060 24/23 Q1010 BECMG FM1100 FEW033 BKN050
ZGKL,2025-05-14 11:00,ZGKL 141100Z VRB01MPS 7000 FEW036 SCT060 24/22 Q1010 NOSIG
ZGKL,2025-05-14 12:00,ZGKL 141200Z 33001MPS 7000 FEW036 SCT060 23/23 Q1011 NOSIG
ZGKL,2025-05-14 13:00,ZGKL 141300Z VRB01MPS 7000 FEW036 BKN066 23/23 Q1011 NOSIG
ZGKL,2025-05-14 14:00,ZGKL 141400Z VRB01MPS 5000 BR SCT060 23/23 Q1012 NOSIG
ZGKL,2025-05-14 15:00,ZGKL 141500Z VRB01MPS 4000 BR SCT060 23/22 Q1012 NOSIG
ZGKL,2025-05-14 16:00,ZGKL 141600Z VRB01MPS 4000 BR SCT046 BKN070 23/22 Q1012 NOSIG
ZGKL,2025-05-14 17:00,ZGKL 141700Z 28001MPS 4000 BR SCT043 BKN063 23/22 Q1012 NOSIG
ZGKL,2025-05-14 18:00,ZGKL 141800Z VRB01MPS 4000 BR SCT043 OVC063 23/22 Q1011 NOSIG
ZGKL,2025-05-14 19:00,ZGKL 141900Z VRB01MPS 4000 BR SCT046 OVC066 23/22 Q1011 NOSIG
ZGKL,2025-05-14 20:00,ZGKL 142000Z 27001MPS 4000 BR FEW033CB SCT040 BKN060 23/22 Q1011 NOSIG
ZGKL,2025-05-14 21:00,ZGKL 142100Z VRB01MPS 4000 -SHRA BR FEW010 FEW033CB SCT033 BKN053 23/22 Q1011 BECMG FM2130 -TSRA
ZGKL,2025-05-14 22:00,ZGKL 142200Z VRB01MPS 3300 -SHRA BR FEW010 FEW030CB SCT030 BKN046 22/22 Q1012 BECMG FM2235 2200 -TSRA
ZGKL,2025-05-14 23:00,ZGKL 142300Z VRB01MPS 2100 -SHRA BR FEW010 FEW030CB SCT030 BKN050 23/22 Q1012 BECMG FM2340 SHRA
ZGKL,2025-05-15 00:00,ZGKL 150000Z VRB01MPS 1900 -SHRA BR FEW005 FEW030CB SCT030 BKN046 23/22 Q1013 RESHRA BECMG FM0100 3000 SHRA
ZGKL,2025-05-15 01:00,ZGKL 150100Z 00000MPS 2500 -SHRA BR FEW005 SCT010 FEW030CB BKN030 23/23 Q1013 BECMG FM0230 SHRA
ZGKL,2025-05-15 02:00,ZGKL 150200Z VRB01MPS 3000 -SHRA BR FEW005 SCT010 FEW030CB BKN030 24/23 Q1013 BECMG FM0300 2500 SHRA
ZGKL,2025-05-15 03:00,ZGKL 150300Z VRB01MPS 3000 -SHRA BR FEW005 SCT010 FEW030CB BKN030 24/23 Q1013 BECMG FM0400 2500 SHRA
ZGKL,2025-05-15 04:00,ZGKL 150400Z VRB01MPS 2500 -SHRA BR FEW005 FEW033CB BKN033 BKN046 24/23 Q1013 BECMG TL0530 3000
ZGKL,2025-05-15 05:00,ZGKL 150500Z VRB01MPS 2900 -RA BR FEW005 BKN033 OVC046 25/24 Q1012 BECMG TL0530 3500
ZGKL,2025-05-15 06:00,ZGKL 150600Z VRB01MPS 3500 -RA BR FEW005 BKN033 OVC046 25/24 Q1012 NOSIG
ZGKL,2025-05-15 07:00,ZGKL 150700Z VRB01MPS 4000 -RA BR FEW005 BKN033 OVC046 27/24 Q1011 NOSIG
ZGKL,2025-05-15 08:00,ZGKL 150800Z VRB01MPS 5000 -RA BR FEW005 BKN033 OVC046 26/24 Q1010 NOSIG
ZGKL,2025-05-15 09:00,ZGKL 150900Z VRB01MPS 7000 -RA FEW005 BKN033 OVC046 26/24 Q1010 BECMG FM1000 FEW008 FEW033CB BKN040
ZGKL,2025-05-15 10:00,ZGKL 151000Z VRB01MPS 7000 FEW009 BKN033 OVC046 27/25 Q1010 NOSIG
ZGKL,2025-05-15 11:00,ZGKL 151100Z 35001MPS 7000 FEW009 BKN043 BKN066 26/24 Q1010 NOSIG
ZGKL,2025-05-15 12:00,ZGKL 151200Z VRB01MPS 6000 FEW013 SCT046 BKN060 25/24 Q1011 NOSIG
ZGKL,2025-05-15 13:00,ZGKL 151300Z 35002MPS 5000 BR SCT043 OVC060 25/24 Q1011 NOSIG
ZGKL,2025-05-15 14:00,ZGKL 151400Z 36001MPS 5000 BR SCT050 OVC066 24/24 Q1012 NOSIG
ZGKL,2025-05-15 15:00,ZGKL 151500Z 00000MPS 5000 BR FEW020 SCT050 BKN066 24/24 Q1012 NOSIG
ZGKL,2025-05-15 16:00,ZGKL 151600Z VRB01MPS 5000 BR FEW020 SCT050 BKN066 24/24 Q1011 NOSIG
ZGKL,2025-05-15 17:00,ZGKL 151700Z VRB01MPS 5000 -RA BR FEW006 SCT040 OVC053 24/24 Q1011 NOSIG
ZGKL,2025-05-15 18:00,ZGKL 151800Z VRB01MPS 5000 -TSRA BR FEW006 FEW033CB SCT040 BKN053 24/23 Q1010 BECMG TL1820 TSRA
ZGKL,2025-05-15 19:00,ZGKL 151900Z VRB01MPS 4000 -TSRA BR FEW006 FEW033CB SCT040 BKN053 24/23 Q1010 RESHRA BECMG TL2000 -SHRA
ZGKL,2025-05-15 20:00,ZGKL 152000Z VRB01MPS 6000 -SHRA FEW006 FEW033CB SCT040 BKN053 23/23 Q1010 RETS NOSIG
ZGKL,2025-05-15 21:00,ZGKL 152100Z 00000MPS 5000 -SHRA BR FEW006 FEW033CB SCT040 BKN053 23/23 Q1010 BECMG TL2200 -TSRA
ZGKL,2025-05-15 22:00,ZGKL 152200Z VRB01MPS 3000 -TSRA BR FEW006 FEW030CB SCT030 BKN046 23/23 Q1010 BECMG FM2330 2000 TSRA
ZGKL,2025-05-15 23:00,ZGKL 152300Z 17001MPS 3000 -SHRA BR FEW005 FEW030CB BKN030 BKN046 23/23 Q1010 RETS BECMG FM0030 2800 -TSRA
ZGKL,2025-05-16 00:00,ZGKL 160000Z 00000MPS 4000 -SHRA BR FEW005 FEW030CB BKN030 BKN046 24/24 Q1011 BECMG TL0130 SCT013 BKN030
ZGKL,2025-05-16 01:00,ZGKL 160100Z 19002MPS 4000 BR FEW005 SCT015 OVC053 25/24 Q1011 NOSIG
ZGKL,2025-05-16 02:00,ZGKL 160200Z 19003MPS 5000 -RA BR FEW005 SCT030 OVC050 25/24 Q1011 NOSIG
ZGKL,2025-05-16 03:00,ZGKL 160300Z 18003MPS 150V210 6000 FEW006 SCT015 BKN030 26/24 Q1011 NOSIG
ZGKL,2025-05-16 04:00,ZGKL 160400Z 17003MPS 140V200 7000 FEW010 SCT026 BKN060 27/25 Q1011 NOSIG
ZGKL,2025-05-16 05:00,ZGKL 160500Z 18005MPS 8000 -SHRA FEW010 FEW026CB SCT026 27/25 Q1010 NOSIG
ZGKL,2025-05-16 06:00,ZGKL 160600Z 36002MPS 320V030 9999 -SHRA FEW010 FEW026CB SCT026 BKN066 27/25 Q1009 NOSIG
ZGKL,2025-05-16 07:00,ZGKL 160700Z VRB01MPS 9999 FEW020 FEW026CB SCT026 29/25 Q1008 BECMG FM0830 FEW010 SCT033 BKN060
ZGKL,2025-05-16 08:00,ZGKL 160800Z 16004MPS 140V200 9999 SCT026 28/25 Q1008 RETS NOSIG
ZGKL,2025-05-16 09:00,ZGKL 160900Z 17002MPS 120V200 9999 SCT026 29/25 Q1007 NOSIG
ZGKL,2025-05-16 10:00,ZGKL 161000Z 17004MPS 9999 FEW026TCU FEW026 SCT036 28/24 Q1008 BECMG TL1040 2800 TSRA BR FEW033CB SCT033 BKN060
ZGKL,2025-05-16 11:00,ZGKL 161100Z 18004MPS 9999 -SHRA FEW020 FEW026CB BKN043 26/24 Q1008 NOSIG
ZGKL,2025-05-16 12:00,ZGKL 161200Z 23002MPS 180V270 3800 TSRA BR FEW010 SCT020 FEW026CB BKN043 24/24 Q1009 BECMG FM1230 -SHRA
ZGKL,2025-05-16 13:00,ZGKL 161300Z VRB01MPS 9999 -RA SCT046 OVC066 24/24 Q1009 RETSRA NOSIG
ZGKL,2025-05-16 14:00,ZGKL 161400Z VRB01MPS 9999 FEW030 OVC066 24/24 Q1010 NOSIG
ZGKL,2025-05-16 15:00,ZGKL 161500Z VRB01MPS 9999 SCT036 BKN070 24/24 Q1011 NOSIG
ZGKL,2025-05-16 16:00,ZGKL 161600Z VRB01MPS 9999 BKN030 OVC066 24/24 Q1010 NOSIG
ZGKL,2025-05-16 17:00,ZGKL 161700Z VRB01MPS 9999 SCT033 OVC060 24/24 Q1010 BECMG TL1810 2500 TSRA BR FEW033CB SCT033 BKN060
ZGKL,2025-05-16 18:00,ZGKL 161800Z 00000MPS 9999 SCT030 OVC053 24/24 Q1010 BECMG TL1830 -TSRA FEW033CB SCT033 BKN060
ZGKL,2025-05-16 19:00,ZGKL 161900Z VRB01MPS 5000 -SHRA BR FEW030CB SCT030 BKN053 24/24 Q1010 BECMG TL1930 -TSRA
ZGKL,2025-05-16 20:00,ZGKL 162000Z 10001MPS 4000 -RA BR FEW004 BKN030 OVC043 24/24 Q1009 NOSIG
ZGKL,2025-05-16 21:00,ZGKL 162100Z 15002MPS 7000 FEW010 SCT033 OVC050 24/24 Q1009 NOSIG
ZGKL,2025-05-16 22:00,ZGKL 162200Z 18001MPS 4000 -RA BR FEW010 SCT033 OVC056 24/23 Q1009 NOSIG
ZGKL,2025-05-16 23:00,ZGKL 162300Z 25001MPS 3600 -SHRA BR FEW006 SCT030 OVC053 24/24 Q1010 NOSIG
ZGKL,2025-05-17 00:00,ZGKL 170000Z VRB01MPS 3000 -SHRA BR FEW005 SCT030 OVC050 24/24 Q1011 NOSIG
ZGKL,2025-05-17 01:00,ZGKL 170100Z VRB01MPS 8000 FEW010 FEW026CB SCT026 BKN043 24/24 Q1011 NOSIG
ZGKL,2025-05-17 02:00,ZGKL 170200Z 10002MPS 060V140 8000 FEW004 FEW026CB SCT026 BKN043 25/24 Q1011 BECMG FM0230 2500 TSRA
ZGKL,2025-05-17 03:00,ZGKL 170300Z 14002MPS 100V210 8000 FEW005 SCT013 FEW026CB BKN026 25/24 Q1011 NOSIG
ZGKL,2025-05-17 04:00,ZGKL 170400Z 17002MPS 120V200 9999 FEW006 FEW026CB BKN026 BKN043 25/24 Q1011 BECMG FM0430 FEW010 SCT026 OVC040
ZGKL,2025-05-17 05:00,ZGKL 170500Z 18003MPS 150V220 9999 -SHRA FEW006 SCT016 FEW033CB BKN046 26/25 Q1010 BECMG FM0600 SCT030 BKN050
ZGKL,2025-05-17 06:00,ZGKL 170600Z VRB01MPS 8000 -SHRA FEW009 FEW030CB SCT030 BKN053 26/25 Q1010 RETS BECMG TL0700 -TSRA
ZGKL,2025-05-17 07:00,ZGKL 170700Z 06002MPS 350V110 9999 FEW008 SCT018 FEW030CB BKN053 27/25 Q1009 BECMG TL0800 -TSRA
ZGKL,2025-05-17 08:00,ZGKL 170800Z VRB01MPS 9999 FEW018 FEW033CB SCT043 28/25 Q1008 BECMG TL0820 -TSRA
ZGKL,2025-05-17 09:00,ZGKL 170900Z 17003MPS 140V200 9999 -SHRA FEW010 FEW030CB SCT030 BKN046 26/25 Q1008 NOSIG
ZGKL,2025-05-17 10:00,ZGKL 171000Z VRB01MPS 9999 -SHRA FEW005 FEW030CB SCT030 BKN050 26/24 Q1008 BECMG FM1100 -TSRA
ZGKL,2025-05-17 11:00,ZGKL 171100Z 36001MPS 9999 VCSH FEW006 FEW030CB SCT030 BKN050 25/25 Q1008 BECMG FM1200 -TSRA
ZGKL,2025-05-17 12:00,ZGKL 171200Z VRB01MPS 8000 -SHRA FEW006 FEW030CB SCT030 BKN043 24/24 Q1009 NOSIG
ZGKL,2025-05-17 13:00,ZGKL 171300Z VRB01MPS 3800 TSRA FEW003 FEW026CB SCT026 BKN040 24/24 Q1010 BECMG FM1320 +TSRA
ZGKL,2025-05-17 14:00,ZGKL 171400Z 36003MPS 320V020 3800 TSRA FEW003 FEW026CB SCT026 BKN040 24/24 Q1010 BECMG FM1420 -TSRA
ZGKL,2025-05-17 15:00,ZGKL 171500Z VRB01MPS 6000 -SHRA FEW007 FEW026CB SCT026 BKN046 24/23 Q1011 RETSRA BECMG FM1600 -TSRA
ZGKL,2025-05-17 16:00,ZGKL 171600Z VRB01MPS 7000 -SHRA FEW004 FEW026CB SCT026 BKN046 24/24 Q1011 BECMG FM1720 SHRA
ZGKL,2025-05-17 17:00,ZGKL 171700Z 00000MPS 6000 -SHRA FEW007 FEW026CB SCT026 BKN046 24/24 Q1010 RESHRA BECMG FM1720 SHRA
ZGKL,2025-05-17 18:00,ZGKL 171800Z VRB01MPS 9999 -SHRA FEW005 FEW026CB SCT026 BKN046 24/24 Q1010 NOSIG
ZGKL,2025-05-17 19:00,ZGKL 171900Z VRB01MPS 9999 -SHRA FEW008 FEW026CB SCT026 BKN050 24/24 Q1010 NOSIG
ZGKL,2025-05-17 20:00,ZGKL 172000Z VRB01MPS 9999 -SHRA FEW001 FEW026CB SCT026 BKN050 24/24 Q1009 BECMG FM2030 SHRA
ZGKL,2025-05-17 21:00,ZGKL 172100Z VRB01MPS 8000 -SHRA FEW009 FEW026CB SCT026 BKN053 24/23 Q1009 RESHRA BECMG FM2140 SHRA
ZGKL,2025-05-17 22:00,ZGKL 172200Z 18001MPS 9999 -SHRA FEW007 SCT023 FEW026CB BKN053 24/23 Q1010 BECMG FM2250 -TSRA
ZGKL,2025-05-17 23:00,ZGKL 172300Z 21001MPS 7000 -SHRA FEW003 FEW026CB SCT026 BKN050 24/23 Q1010 BECMG FM2330 -TSRA
ZGKL,2025-05-18 00:00,ZGKL 180000Z 00000MPS 7000 -SHRA FEW001 SCT009 FEW026CB BKN046 24/24 Q1011 BECMG FM0130 FEW005 SCT026 OVC040
ZGKL,2025-05-18 01:00,ZGKL 180100Z VRB01MPS 7000 -SHRA FEW006 FEW026CB SCT026 BKN046 24/24 Q1011 BECMG FM0200 FEW005 SCT026 OVC040
ZGKL,2025-05-18 02:00,ZGKL 180200Z VRB01MPS 7000 -RA FEW006 SCT026 OVC046 25/24 Q1011 NOSIG
ZGKL,2025-05-18 03:00,ZGKL 180300Z 16002MPS 110V200 9999 FEW005 SCT026 OVC046 26/24 Q1011 NOSIG
ZGKL,2025-05-18 04:00,ZGKL 180400Z VRB01MPS 9999 FEW005 SCT026 OVC046 27/24 Q1010 NOSIG
ZGKL,2025-05-18 05:00,ZGKL 180500Z VRB01MPS 9999 -RA FEW006 BKN023 OVC046 27/24 Q1010 NOSIG
ZGKL,2025-05-18 06:00,ZGKL 180600Z 17003MPS 8000 -SHRA FEW006 FEW026CB SCT026 BKN050 27/25 Q1009 BECMG FM0700 SHRA
ZGKL,2025-05-18 07:00,ZGKL 180700Z 21003MPS 4000 R19/1300D +SHRA BR FEW006 SCT013 FEW026CB BKN050 26/25 Q1008 BECMG TL0830 -RA SCT023 BKN040
ZGKL,2025-05-18 08:00,ZGKL 180800Z 13002MPS 090V170 7000 -SHRA SCT006 FEW026CB SCT026 BKN050 26/25 Q1008 RESHRA BECMG TL0930 SCT023 BKN040
ZGKL,2025-05-18 09:00,ZGKL 180900Z VRB01MPS 3000 SHRA BR FEW006 FEW023CB SCT023 BKN050 25/24 Q1008 BECMG FM1030 -SHRA
ZGKL,2025-05-18 10:00,ZGKL 181000Z VRB01MPS 4000 -SHRA BR FEW006 FEW030CB SCT030 BKN050 25/24 Q1008 RESHRA BECMG TL1130 SCT023 BKN040
ZGKL,2025-05-18 11:00,ZGKL 181100Z 19002MPS 140V230 7000 -RA FEW006 SCT030 OVC050 25/24 Q1009 NOSIG
ZGKL,2025-05-18 12:00,ZGKL 181200Z VRB01MPS 8000 FEW006 SCT030 OVC050 24/24 Q1009 NOSIG
ZGKL,2025-05-18 13:00,ZGKL 181300Z 12002MPS 8000 FEW006 SCT030 OVC050 24/24 Q1009 NOSIG
ZGKL,2025-05-18 14:00,ZGKL 181400Z VRB01MPS 8000 FEW006 SCT030 OVC050 24/24 Q1010 NOSIG
ZGKL,2025-05-18 15:00,ZGKL 181500Z 00000MPS 8000 FEW006 SCT030 OVC050 24/24 Q1010 NOSIG
ZGKL,2025-05-18 16:00,ZGKL 181600Z 01001MPS 6000 -RA FEW004 BKN020 OVC043 24/24 Q1010 NOSIG
ZGKL,2025-05-18 17:00,ZGKL 181700Z VRB01MPS 8000 FEW004 BKN020 OVC043 24/23 Q1009 NOSIG
ZGKL,2025-05-18 18:00,ZGKL 181800Z VRB01MPS 8000 FEW006 SCT026 OVC050 24/23 Q1009 NOSIG
ZGKL,2025-05-18 19:00,ZGKL 181900Z VRB01MPS 9999 FEW004 SCT026 OVC046 24/23 Q1008 NOSIG
ZGKL,2025-05-18 20:00,ZGKL 182000Z 00000MPS 9999 FEW004 BKN023 OVC046 24/23 Q1008 NOSIG
ZGKL,2025-05-18 21:00,ZGKL 182100Z VRB01MPS 7000 FEW004 SCT010 BKN023 24/23 Q1008 NOSIG
ZGKL,2025-05-18 22:00,ZGKL 182200Z 34001MPS 3000 BR FEW004 SCT010 BKN023 24/23 Q1008 NOSIG
ZGKL,2025-05-18 23:00,ZGKL 182300Z 34001MPS 3000 -RA BR FEW005 SCT010 BKN023 24/23 Q1009 NOSIG
ZGKL,2025-05-19 00:00,ZGKL 190000Z VRB01MPS 4000 BR FEW005 SCT010 BKN023 24/24 Q1009 NOSIG
ZGKL,2025-05-19 01:00,ZGKL 190100Z 34001MPS 3500 -RA BR FEW005 SCT010 BKN023 24/24 Q1009 BECMG TL0200 2800
ZGKL,2025-05-19 02:00,ZGKL 190200Z VRB01MPS 5000 BR FEW005 SCT010 BKN026 25/24 Q1009 NOSIG
ZGKL,2025-05-19 03:00,ZGKL 190300Z 16003MPS 120V180 5000 -RA BR FEW005 SCT010 BKN023 25/24 Q1009 NOSIG
ZGKL,2025-05-19 04:00,ZGKL 190400Z 17003MPS 7000 FEW005 SCT026 OVC053 27/24 Q1009 NOSIG
ZGKL,2025-05-19 05:00,ZGKL 190500Z 17002MPS 120V210 8000 FEW005 SCT033 OVC053 28/25 Q1008 NOSIG
ZGKL,2025-05-19 06:00,ZGKL 190600Z VRB02MPS 7000 -SHRA FEW006 SCT020 BKN053 27/25 Q1007 NOSIG
ZGKL,2025-05-19 07:00,ZGKL 190700Z VRB01MPS 6000 -SHRA FEW006 SCT013 FEW030CB BKN053 28/25 Q1006 NOSIG
ZGKL,2025-05-19 08:00,ZGKL 190800Z VRB01MPS 3000 -TSRA BR FEW005 FEW033CB SCT033 BKN053 25/25 Q1006 RESHRA BECMG FM0830 -SHRA
ZGKL,2025-05-19 09:00,ZGKL 190900Z VRB01MPS 7000 FEW006 FEW030TCU SCT030 BKN056 26/25 Q1005 RETS NOSIG
ZGKL,2025-05-19 10:00,ZGKL 191000Z 16003MPS 130V190 8000 FEW020 SCT040 27/25 Q1005 NOSIG
ZGKL,2025-05-19 11:00,ZGKL 191100Z 15002MPS 8000 FEW010 SCT040 26/25 Q1005 NOSIG
ZGKL,2025-05-19 12:00,ZGKL 191200Z 15003MPS 120V190 8000 FEW010 SCT050 25/24 Q1006 NOSIG
ZGKL,2025-05-19 13:00,ZGKL 191300Z VRB01MPS 8000 FEW033 25/24 Q1006 NOSIG
ZGKL,2025-05-19 14:00,ZGKL 191400Z VRB01MPS 9999 SCT026 BKN050 25/24 Q1007 NOSIG
ZGKL,2025-05-19 15:00,ZGKL 191500Z 00000MPS 9999 SCT033 BKN066 25/24 Q1008 NOSIG
ZGKL,2025-05-19 16:00,ZGKL 191600Z VRB01MPS 9999 SCT033 BKN066 24/24 Q1007 NOSIG
ZGKL,2025-05-19 17:00,ZGKL 191700Z VRB01MPS 9999 SCT033 BKN066 24/24 Q1007 NOSIG
ZGKL,2025-05-19 18:00,ZGKL 191800Z VRB01MPS 9999 -RA SCT033 BKN066 24/24 Q1007 NOSIG
ZGKL,2025-05-19 19:00,ZGKL 191900Z VRB01MPS 8000 SCT036 BKN060 24/24 Q1006 NOSIG
ZGKL,2025-05-19 20:00,ZGKL 192000Z 18002MPS 150V220 8000 -SHRA SCT030 BKN056 24/24 Q1006 NOSIG
ZGKL,2025-05-19 21:00,ZGKL 192100Z VRB01MPS 8000 SCT030 OVC053 24/24 Q1006 NOSIG
ZGKL,2025-05-19 22:00,ZGKL 192200Z 14002MPS 8000 -RA FEW008 SCT030 OVC046 24/24 Q1006 NOSIG
ZGKL,2025-05-19 23:00,ZGKL 192300Z 13002MPS 8000 SCT023 OVC046 24/24 Q1007 NOSIG
ZGKL,2025-05-20 00:00,ZGKL 200000Z 15002MPS 6000 -SHRA SCT023 OVC046 25/24 Q1007 NOSIG
ZGKL,2025-05-20 01:00,ZGKL 200100Z 18002MPS 7000 -SHRA SCT023 OVC046 25/24 Q1008 NOSIG
ZGKL,2025-05-20 02:00,ZGKL 200200Z 16002MPS 9999 -RA SCT033 BKN053 26/25 Q1008 NOSIG
ZGKL,2025-05-20 03:00,ZGKL 200300Z 18005MPS 9999 SCT033 BKN050 28/25 Q1008 NOSIG
ZGKL,2025-05-20 04:00,ZGKL 200400Z 17005MPS 9999 SCT030 OVC050 28/25 Q1007 NOSIG
ZGKL,2025-05-20 05:00,ZGKL 200500Z 17004MPS 9999 SCT026 BKN043 29/25 Q1006 NOSIG
ZGKL,2025-05-20 06:00,ZGKL 200600Z 18005MPS 9999 FEW023 SCT043 BKN060 29/25 Q1005 NOSIG
ZGKL,2025-05-20 07:00,ZGKL 200700Z 18005MPS 130V200 8000 -SHRA FEW016 FEW026CB SCT026 BKN040 27/25 Q1005 BECMG FM0720 TSRA
ZGKL,2025-05-20 08:00,ZGKL 200800Z 14003MPS 110V190 9999 FEW016 FEW026CB SCT026 BKN040 29/25 Q1004 BECMG TL0830 SHRA
ZGKL,2025-05-20 09:00,ZGKL 200900Z VRB01MPS 8000 FEW016 SCT026 BKN043 27/26 Q1004 RESHRA BECMG FM1000 -TSRA FEW015 SCT026CB BKN040
ZGKL,2025-05-20 10:00,ZGKL 201000Z 13002MPS 8000 -TSRA FEW016 FEW030CB SCT030 BKN046 27/26 Q1004 BECMG FM1030 -RA FEW015 SCT026 BKN040
ZGKL,2025-05-20 11:00,ZGKL 201100Z 00000MPS 9000 TS FEW020 FEW030CB SCT030 BKN050 27/26 Q1005 BECMG FM1240 NSW SCT030 BKN050
ZGKL,2025-05-20 12:00,ZGKL 201200Z VRB01MPS 9000 SCT030 BKN046 26/26 Q1005 RETS NOSIG
ZGKL,2025-05-20 13:00,ZGKL 201300Z VRB01MPS 8000 SCT026 BKN046 26/26 Q1006 BECMG FM1400 FEW030CB BKN050
ZGKL,2025-05-20 14:00,ZGKL 201400Z VRB01MPS 8000 FEW030CB SCT030 BKN050 26/26 Q1007 BECMG FM1530 SCT030 BKN050
ZGKL,2025-05-20 15:00,ZGKL 201500Z 17002MPS 130V200 9999 SCT040 BKN066 26/24 Q1007 NOSIG
ZGKL,2025-05-20 16:00,ZGKL 201600Z 15002MPS 110V190 9999 SCT043 BKN066 25/24 Q1007 NOSIG
ZGKL,2025-05-20 17:00,ZGKL 201700Z VRB01MPS 9999 SCT040 BKN060 25/24 Q1007 NOSIG
ZGKL,2025-05-20 18:00,ZGKL 201800Z 00000MPS 8000 -RA FEW016 SCT036 OVC050 25/24 Q1007 NOSIG
ZGKL,2025-05-20 19:00,ZGKL 201900Z VRB01MPS 8000 FEW023 SCT040 BKN053 25/24 Q1006 NOSIG
ZGKL,2025-05-20 20:00,ZGKL 202000Z 00000MPS 8000 FEW026 SCT043 BKN060 25/24 Q1006 NOSIG
ZGKL,2025-05-20 21:00,ZGKL 202100Z VRB01MPS 8000 BKN053 25/24 Q1006 NOSIG
ZGKL,2025-05-20 22:00,ZGKL 202200Z 12001MPS 9999 BKN043 25/24 Q1007 NOSIG
ZGKL,2025-05-20 23:00,ZGKL 202300Z 00000MPS 9999 SCT036 BKN070 25/24 Q1007 NOSIG
ZGKL,2025-05-21 00:00,ZGKL 210000Z VRB01MPS 9999 SCT036 OVC060 26/25 Q1008 NOSIG
ZGKL,2025-05-21 01:00,ZGKL 210100Z VRB01MPS 9999 SCT033 OVC053 26/25 Q1008 NOSIG
ZGKL,2025-05-21 02:00,ZGKL 210200Z VRB01MPS 9999 -RA FEW020 SCT033 BKN053 28/26 Q1009 NOSIG
ZGKL,2025-05-21 03:00,ZGKL 210300Z 21002MPS 9999 FEW023 SCT040 BKN060 29/25 Q1009 NOSIG
ZGKL,2025-05-21 04:00,ZGKL 210400Z 18004MPS 130V210 9999 FEW026 SCT066 31/25 Q1008 NOSIG
ZGKL,2025-05-21 05:00,ZGKL 210500Z 18003MPS 150V210 9999 SCT026 BKN060 31/25 Q1007 BECMG FM0620 FEW026 FEW033CB BKN050
ZGKL,2025-05-21 06:00,ZGKL 210600Z VRB01MPS 9999 SCT026 BKN060 31/25 Q1006 BECMG TL0700 FEW026 FEW033CB BKN050
ZGKL,2025-05-21 07:00,ZGKL 210700Z 19003MPS 9999 -SHRA SCT026 FEW033CB BKN060 29/25 Q1006 BECMG FM0850 FEW020 SCT030 BKN050
ZGKL,2025-05-21 08:00,ZGKL 210800Z VRB02MPS 9999 SCT040 BKN060 31/27 Q1005 NOSIG
ZGKL,2025-05-21 09:00,ZGKL 210900Z 17002MPS 130V200 9999 SCT040 BKN060 31/25 Q1004 NOSIG
ZGKL,2025-05-21 10:00,ZGKL 211000Z VRB01MPS 9999 SCT040 BKN060 29/26 Q1005 BECMG TL1120 -TSRA FEW030 FEW033CB BKN050
ZGKL,2025-05-21 11:00,ZGKL 211100Z 02002MPS 350V080 9999 -SHRA FEW010 SCT020 FEW033CB 28/26 Q1005 BECMG TL1230 SCT023 BKN040
ZGKL,2025-05-21 12:00,ZGKL 211200Z 14004MPS 9999 FEW023 FEW033CB SCT033 BKN060 26/24 Q1006 BECMG TL1330 SCT033
ZGKL,2025-05-21 13:00,ZGKL 211300Z 16002MPS 9999 SCT040 BKN053 27/24 Q1006 NOSIG
ZGKL,2025-05-21 14:00,ZGKL 211400Z VRB01MPS 9999 SCT033 BKN060 26/25 Q1007 NOSIG
ZGKL,2025-05-21 15:00,ZGKL 211500Z 00000MPS 9999 SCT040 BKN066 26/25 Q1008 NOSIG
ZGKL,2025-05-21 16:00,ZGKL 211600Z 00000MPS 9999 -RA SCT040 BKN066 26/25 Q1007 NOSIG
ZGKL,2025-05-21 17:00,ZGKL 211700Z VRB01MPS 9999 SCT040 BKN066 25/25 Q1007 NOSIG
ZGKL,2025-05-21 18:00,ZGKL 211800Z VRB01MPS 9999 SCT040 BKN060 25/25 Q1006 NOSIG
ZGKL,2025-05-21 19:00,ZGKL 211900Z VRB01MPS 9999 SCT040 BKN060 25/25 Q1006 NOSIG
ZGKL,2025-05-21 20:00,ZGKL 212000Z VRB01MPS 9999 SCT040 OVC060 25/25 Q1006 NOSIG
ZGKL,2025-05-21 21:00,ZGKL 212100Z 31001MPS 9999 SCT040 OVC060 25/25 Q1006 NOSIG
ZGKL,2025-05-21 22:00,ZGKL 212200Z VRB01MPS 6000 FEW026 SCT040 BKN066 25/25 Q1006 NOSIG
ZGKL,2025-05-21 23:00,ZGKL 212300Z 00000MPS 7000 SCT040 BKN066 25/25 Q1006 NOSIG
ZGKL,2025-05-22 00:00,ZGKL 220000Z VRB01MPS 9000 SCT040 SCT066 26/25 Q1007 NOSIG
ZGKL,2025-05-22 01:00,ZGKL 220100Z 20002MPS 140V240 8000 SCT036 29/25 Q1007 NOSIG
ZGKL,2025-05-22 02:00,ZGKL 220200Z 19004MPS 9000 BKN033 29/25 Q1007 NOSIG
ZGKL,2025-05-22 03:00,ZGKL 220300Z 21004MPS 9999 -RA SCT033 SCT060 28/25 Q1007 NOSIG
ZGKL,2025-05-22 04:00,ZGKL 220400Z 18004MPS 9999 FEW036 SCT060 30/25 Q1006 NOSIG
ZGKL,2025-05-22 05:00,ZGKL 220500Z 17004MPS 9999 SCT030 BKN050 OVC073 30/26 Q1005 NOSIG
ZGKL,2025-05-22 06:00,ZGKL 220600Z 18004MPS 9999 FEW016 SCT030 OVC066 31/25 Q1005 BECMG FM0730 -TSRA FEW020 FEW033CB BKN040
ZGKL,2025-05-22 07:00,ZGKL 220700Z 22005MPS 180V280 2000 +SHRA BR FEW016 FEW030CB SCT030 BKN066 27/25 Q1004 BECMG TL0730 4000 -SHRA
ZGKL,2025-05-22 08:00,ZGKL 220800Z 21002MPS 170V280 4000 SHRA BR FEW030CB FEW030 SCT046 BKN066 27/26 Q1003 BECMG TL0820 -SHRA
ZGKL,2025-05-22 09:00,ZGKL 220900Z VRB01MPS 9999 FEW033 SCT053 BKN073 28/26 Q1003 RESHRA NOSIG
ZGKL,2025-05-22 10:00,ZGKL 221000Z 12002MPS 9999 FEW050 SCT073 29/27 Q1003 NOSIG
ZGKL,2025-05-22 11:00,ZGKL 221100Z 00000MPS 9999 FEW040 SCT073 28/27 Q1003 NOSIG
ZGKL,2025-05-22 12:00,ZGKL 221200Z VRB01MPS 9999 FEW040 27/27 Q1003 NOSIG
ZGKL,2025-05-22 13:00,ZGKL 221300Z VRB01MPS 9999 SCT043 BKN070 27/27 Q1005 NOSIG
ZGKL,2025-05-22 14:00,ZGKL 221400Z VRB01MPS 8000 SCT046 BKN073 27/26 Q1005 NOSIG
ZGKL,2025-05-22 15:00,ZGKL 221500Z VRB01MPS 7000 SCT040 OVC066 27/26 Q1005 NOSIG
ZGKL,2025-05-22 16:00,ZGKL 221600Z 12002MPS 080V170 8000 SCT040 OVC066 27/25 Q1005 NOSIG
ZGKL,2025-05-22 17:00,ZGKL 221700Z 18002MPS 8000 SCT040 OVC060 26/25 Q1004 NOSIG
ZGKL,2025-05-22 18:00,ZGKL 221800Z 12001MPS 8000 SCT050 OVC073 26/25 Q1004 NOSIG
ZGKL,2025-05-22 19:00,ZGKL 221900Z 35002MPS 8000 SCT050 OVC073 26/25 Q1004 NOSIG
ZGKL,2025-05-22 20:00,ZGKL 222000Z VRB01MPS 6000 SCT050 OVC066 25/25 Q1004 NOSIG
ZGKL,2025-05-22 21:00,ZGKL 222100Z VRB01MPS 6000 -SHRA FEW040CB SCT040 BKN053 26/25 Q1004 NOSIG
ZGKL,2025-05-22 22:00,ZGKL 222200Z VRB01MPS 8000 -SHRA FEW040CB BKN040 BKN053 26/25 Q1004 BECMG FM2300 2500 +TSRA
ZGKL,2025-05-22 23:00,ZGKL 222300Z VRB01MPS 4000 -TSRA BR FEW033CB SCT033 BKN056 25/25 Q1006 RESHRA BECMG FM2330 2000 +TSRA
ZGKL,2025-05-23 00:00,ZGKL 230000Z VRB01MPS 5000 -TSRA BR FEW010 FEW030CB SCT030 BKN050 24/24 Q1007 RESHRA BECMG FM0140 -SHRA
ZGKL,2025-05-23 01:00,ZGKL 230100Z VRB01MPS 4500 -TSRA BR FEW016 FEW026CB SCT026 BKN043 24/24 Q1008 BECMG FM0230 -SHRA
ZGKL,2025-05-23 02:00,ZGKL 230200Z 02005MPS 4200 -TSRA BR FEW016 FEW026CB SCT026 BKN040 23/23 Q1009 BECMG FM0300 -SHRA
ZGKL,2025-05-23 03:00,ZGKL 230300Z 03004MPS 6000 -SHRA FEW010 FEW033CB SCT033 BKN046 23/22 Q1010 RETS BECMG FM0430 SCT030 BKN050
ZGKL,2025-05-23 04:00,ZGKL 230400Z 04004MPS 010V070 9999 -DZ FEW016 SCT033 OVC053 24/22 Q1010 NOSIG
ZGKL,2025-05-23 05:00,ZGKL 230500Z 03004MPS 9999 -RA FEW020 SCT066 25/22 Q1009 NOSIG
ZGKL,2025-05-23 06:00,ZGKL 230600Z 03007MPS 9999 FEW020 27/22 Q1008 NOSIG
ZGKL,2025-05-23 07:00,ZGKL 230700Z 02007MPS 9999 FEW020 SCT026 27/21 Q1008 NOSIG
ZGKL,2025-05-23 08:00,ZGKL 230800Z 03007MPS 9999 FEW033 SCT073 27/20 Q1008 NOSIG
ZGKL,2025-05-23 09:00,ZGKL 230900Z 04006MPS 9999 FEW040 BKN066 26/20 Q1008 NOSIG
ZGKL,2025-05-23 10:00,ZGKL 231000Z 03005MPS 9999 FEW043 BKN066 25/20 Q1009 NOSIG
ZGKL,2025-05-23 11:00,ZGKL 231100Z 03004MPS 9999 SCT040 OVC060 24/20 Q1010 NOSIG
ZGKL,2025-05-23 12:00,ZGKL 231200Z 02004MPS 9999 -DZ SCT040 OVC060 24/20 Q1011 NOSIG
ZGKL,2025-05-23 13:00,ZGKL 231300Z 36003MPS 9999 SCT043 OVC066 24/20 Q1012 NOSIG
ZGKL,2025-05-23 14:00,ZGKL 231400Z 35002MPS 320V020 9999 SCT043 OVC066 23/19 Q1013 NOSIG
ZGKL,2025-05-23 15:00,ZGKL 231500Z VRB01MPS 9999 -RA SCT043 OVC060 23/20 Q1013 NOSIG
ZGKL,2025-05-23 16:00,ZGKL 231600Z VRB01MPS 9999 SCT043 OVC060 22/20 Q1013 NOSIG
ZGKL,2025-05-23 17:00,ZGKL 231700Z VRB01MPS 9999 SCT043 OVC060 23/21 Q1013 NOSIG
ZGKL,2025-05-23 18:00,ZGKL 231800Z VRB01MPS 9999 -RA SCT046 OVC073 22/21 Q1012 NOSIG
ZGKL,2025-05-23 19:00,ZGKL 231900Z VRB01MPS 9999 SCT050 22/21 Q1012 NOSIG
ZGKL,2025-05-23 20:00,ZGKL 232000Z 00000MPS 9999 SCT043 21/20 Q1012 NOSIG
ZGKL,2025-05-23 21:00,ZGKL 232100Z VRB01MPS 9999 SCT053 21/20 Q1012 NOSIG
ZGKL,2025-05-23 22:00,ZGKL 232200Z VRB01MPS 9999 SCT053 21/20 Q1013 NOSIG
ZGKL,2025-05-23 23:00,ZGKL 232300Z 06004MPS 9999 SCT053 23/17 Q1014 NOSIG
ZGKL,2025-05-24 00:00,ZGKL 240000Z 05003MPS 9999 SCT060 23/16 Q1014 NOSIG
ZGKL,2025-05-24 01:00,ZGKL 240100Z 04005MPS 9999 SCT060 24/16 Q1015 NOSIG
ZGKL,2025-05-24 02:00,ZGKL 240200Z 04004MPS 010V070 9999 SCT060 24/16 Q1016 NOSIG
ZGKL,2025-05-24 03:00,ZGKL 240300Z 04004MPS 9999 SCT060 25/16 Q1016 NOSIG
ZGKL,2025-05-24 04:00,ZGKL 240400Z 04005G10MPS 360V070 9999 SCT060 27/16 Q1015 NOSIG
ZGKL,2025-05-24 05:00,ZGKL 240500Z 04006MPS 010V080 CAVOK 27/14 Q1015 NOSIG
ZGKL,2025-05-24 06:00,ZGKL 240600Z 05007MPS CAVOK 27/13 Q1015 NOSIG
ZGKL,2025-05-24 07:00,ZGKL 240700Z 06004MPS CAVOK 26/13 Q1014 NOSIG
ZGKL,2025-05-24 08:00,ZGKL 240800Z 05005MPS CAVOK 26/12 Q1014 NOSIG
ZGKL,2025-05-24 09:00,ZGKL 240900Z 03004MPS 360V060 9999 FEW060 26/12 Q1014 NOSIG
ZGKL,2025-05-24 10:00,ZGKL 241000Z 36003MPS 330V030 9999 SCT046 25/13 Q1014 NOSIG
ZGKL,2025-05-24 11:00,ZGKL 241100Z 36002MPS CAVOK 23/14 Q1015 NOSIG
ZGKL,2025-05-24 12:00,ZGKL 241200Z VRB01MPS CAVOK 23/14 Q1015 NOSIG
ZGKL,2025-05-24 13:00,ZGKL 241300Z VRB01MPS CAVOK 22/17 Q1016 NOSIG
ZGKL,2025-05-24 14:00,ZGKL 241400Z 34002MPS 310V010 CAVOK 22/16 Q1017 NOSIG
ZGKL,2025-05-24 15:00,ZGKL 241500Z 33002MPS CAVOK 21/18 Q1017 NOSIG
ZGKL,2025-05-24 16:00,ZGKL 241600Z VRB01MPS CAVOK 21/17 Q1016 NOSIG
ZGKL,2025-05-24 17:00,ZGKL 241700Z 34001MPS CAVOK 20/17 Q1016 NOSIG
ZGKL,2025-05-24 18:00,ZGKL 241800Z VRB01MPS CAVOK 20/17 Q1015 NOSIG
ZGKL,2025-05-24 19:00,ZGKL 241900Z VRB01MPS CAVOK 20/17 Q1015 NOSIG
ZGKL,2025-05-24 20:00,ZGKL 242000Z VRB01MPS CAVOK 20/18 Q1015 NOSIG
ZGKL,2025-05-24 21:00,ZGKL 242100Z 35001MPS CAVOK 20/17 Q1015 NOSIG
ZGKL,2025-05-24 22:00,ZGKL 242200Z VRB01MPS CAVOK 20/17 Q1016 NOSIG
ZGKL,2025-05-24 23:00,ZGKL 242300Z VRB01MPS CAVOK 20/17 Q1016 NOSIG
ZGKL,2025-05-25 00:00,ZGKL 250000Z 34002MPS 300V010 CAVOK 20/17 Q1017 NOSIG
ZGKL,2025-05-25 01:00,ZGKL 250100Z 32002MPS 280V350 9999 FEW066 21/17 Q1018 NOSIG
ZGKL,2025-05-25 02:00,ZGKL 250200Z 33002MPS 300V010 9999 -RA OVC073 20/17 Q1018 NOSIG
ZGKL,2025-05-25 03:00,ZGKL 250300Z 26002MPS 220V280 9999 -RA FEW050 OVC073 21/17 Q1019 NOSIG
ZGKL,2025-05-25 04:00,ZGKL 250400Z VRB01MPS 9999 FEW066 24/16 Q1018 NOSIG
ZGKL,2025-05-25 05:00,ZGKL 250500Z 34002MPS 280V020 9999 -RA FEW073 23/17 Q1018 NOSIG
ZGKL,2025-05-25 06:00,ZGKL 250600Z VRB01MPS 9999 -RA SCT066 23/17 Q1017 NOSIG
ZGKL,2025-05-25 07:00,ZGKL 250700Z 10002MPS 040V130 9999 -RA FEW073 24/15 Q1017 NOSIG
ZGKL,2025-05-25 08:00,ZGKL 250800Z 07002MPS 9999 -RA FEW073 23/16 Q1017 NOSIG
ZGKL,2025-05-25 09:00,ZGKL 250900Z 12002MPS 090V150 9999 -RA FEW073 22/17 Q1016 NOSIG
ZGKL,2025-05-25 10:00,ZGKL 251000Z 16002MPS 110V210 9999 -RA FEW060 21/18 Q1017 NOSIG
ZGKL,2025-05-25 11:00,ZGKL 251100Z 12002MPS 9999 -RA BKN060 20/18 Q1018 NOSIG
ZGKL,2025-05-25 12:00,ZGKL 251200Z 10001MPS 9999 -RA SCT060 19/17 Q1018 NOSIG
ZGKL,2025-05-25 13:00,ZGKL 251300Z VRB01MPS 9999 -RA FEW073 19/17 Q1018 NOSIG
ZGKL,2025-05-25 14:00,ZGKL 251400Z VRB01MPS 8000 -RA NSC 19/18 Q1018 NOSIG
ZGKL,2025-05-25 15:00,ZGKL 251500Z VRB01MPS 8000 -RA FEW020 18/18 Q1019 NOSIG
ZGKL,2025-05-25 16:00,ZGKL 251600Z VRB01MPS 7000 -RA FEW060 18/18 Q1018 NOSIG
ZGKL,2025-05-25 17:00,ZGKL 251700Z 35001MPS 6000 -RA FEW060 18/18 Q1018 NOSIG
ZGKL,2025-05-25 18:00,ZGKL 251800Z VRB01MPS 6000 -RA FEW060 18/17 Q1018 NOSIG
ZGKL,2025-05-25 19:00,ZGKL 251900Z 03002MPS 5000 -RA BR FEW060 18/17 Q1017 NOSIG
ZGKL,2025-05-25 20:00,ZGKL 252000Z VRB01MPS 5000 -RA BR SCT066 18/17 Q1017 NOSIG
ZGKL,2025-05-25 21:00,ZGKL 252100Z VRB01MPS 7000 -RA SCT066 17/17 Q1017 NOSIG
ZGKL,2025-05-25 22:00,ZGKL 252200Z 00000MPS 2800 -RA BR SCT066 18/17 Q1017 BECMG FM2300 5000
ZGKL,2025-05-25 23:00,ZGKL 252300Z VRB01MPS 5000 BR FEW010 SCT066 18/17 Q1017 NOSIG
ZGKL,2025-05-26 00:00,ZGKL 260000Z 00000MPS 5000 BR FEW010 SCT060 18/17 Q1018 NOSIG
ZGKL,2025-05-26 01:00,ZGKL 260100Z VRB01MPS 9999 FEW010 SCT026 21/18 Q1018 NOSIG
ZGKL,2025-05-26 02:00,ZGKL 260200Z VRB01MPS 9999 FEW013 SCT026 23/18 Q1018 NOSIG
ZGKL,2025-05-26 03:00,ZGKL 260300Z VRB01MPS 9999 FEW023 SCT030 24/18 Q1017 NOSIG
ZGKL,2025-05-26 04:00,ZGKL 260400Z VRB01MPS 9999 FEW040 25/18 Q1017 NOSIG
ZGKL,2025-05-26 05:00,ZGKL 260500Z 20002MPS 140V310 9999 FEW040 26/19 Q1016 NOSIG
ZGKL,2025-05-26 06:00,ZGKL 260600Z 20002MPS 160V300 9999 FEW040 BKN073 27/18 Q1016 NOSIG
ZGKL,2025-05-26 07:00,ZGKL 260700Z 13004MPS 090V170 9999 FEW040 SCT073 27/18 Q1014 NOSIG
ZGKL,2025-05-26 08:00,ZGKL 260800Z 14003MPS 100V190 9999 SCT066 28/18 Q1014 NOSIG
ZGKL,2025-05-26 09:00,ZGKL 260900Z 18004MPS 150V220 9999 FEW060 27/19 Q1013 NOSIG
ZGKL,2025-05-26 10:00,ZGKL 261000Z 19003MPS 160V220 9999 FEW060 27/19 Q1013 NOSIG
ZGKL,2025-05-26 11:00,ZGKL 261100Z 15002MPS 090V180 9999 FEW053 25/20 Q1013 NOSIG
ZGKL,2025-05-26 12:00,ZGKL 261200Z 11002MPS 9999 FEW043 24/20 Q1014 NOSIG
ZGKL,2025-05-26 13:00,ZGKL 261300Z 18002MPS 9999 FEW050 23/20 Q1014 NOSIG
ZGKL,2025-05-26 14:00,ZGKL 261400Z VRB01MPS 9999 FEW050 22/20 Q1015 NOSIG
ZGKL,2025-05-26 15:00,ZGKL 261500Z VRB01MPS CAVOK 22/20 Q1015 NOSIG
ZGKL,2025-05-26 16:00,ZGKL 261600Z VRB01MPS 9999 FEW060 22/20 Q1015 NOSIG
ZGKL,2025-05-26 17:00,ZGKL 261700Z VRB01MPS 9999 FEW060 21/20 Q1015 NOSIG
ZGKL,2025-05-26 18:00,ZGKL 261800Z 18001MPS 9999 FEW060 21/20 Q1014 NOSIG
ZGKL,2025-05-26 19:00,ZGKL 261900Z VRB01MPS 7000 -RA FEW050 OVC066 21/20 Q1014 NOSIG
ZGKL,2025-05-26 20:00,ZGKL 262000Z 00000MPS 6000 -RA SCT033 OVC060 21/21 Q1014 NOSIG
ZGKL,2025-05-26 21:00,ZGKL 262100Z 12001MPS 5000 -RA BR FEW010 SCT030 OVC053 21/20 Q1014 NOSIG
ZGKL,2025-05-26 22:00,ZGKL 262200Z 34002MPS 2600 -RA BR SCT033 OVC053 21/20 Q1014 NOSIG
ZGKL,2025-05-26 23:00,ZGKL 262300Z 34002MPS 2400 -RA BR FEW013 SCT030 OVC046 20/20 Q1015 NOSIG
ZGKL,2025-05-27 00:00,ZGKL 270000Z 35003MPS 4000 -RA BR FEW013 SCT033 OVC053 20/20 Q1015 NOSIG
ZGKL,2025-05-27 01:00,ZGKL 270100Z 36004MPS 7000 -RA FEW023 SCT040 OVC070 19/17 Q1016 NOSIG
ZGKL,2025-05-27 02:00,ZGKL 270200Z 35004MPS 7000 -RA SCT033 OVC070 19/18 Q1016 NOSIG
ZGKL,2025-05-27 03:00,ZGKL 270300Z 35002MPS 320V020 7000 -RA FEW023 SCT043 OVC070 20/19 Q1016 NOSIG
ZGKL,2025-05-27 04:00,ZGKL 270400Z 01004MPS 340V040 7000 -RA FEW010 BKN033 OVC053 21/18 Q1016 NOSIG
ZGKL,2025-05-27 05:00,ZGKL 270500Z 36004MPS 320V020 7000 -RA FEW010 BKN033 OVC053 21/18 Q1015 NOSIG
ZGKL,2025-05-27 06:00,ZGKL 270600Z 36003MPS 8000 -RA FEW010 BKN033 OVC053 21/18 Q1014 NOSIG
ZGKL,2025-05-27 07:00,ZGKL 270700Z 01003MPS 8000 -RA FEW010 BKN033 OVC053 21/19 Q1014 NOSIG
ZGKL,2025-05-27 08:00,ZGKL 270800Z 03003MPS 8000 -RA FEW010 BKN033 OVC053 20/18 Q1013 NOSIG
ZGKL,2025-05-27 09:00,ZGKL 270900Z VRB01MPS 8000 -RA FEW010 BKN033 OVC053 20/19 Q1013 NOSIG
ZGKL,2025-05-27 10:00,ZGKL 271000Z VRB01MPS 5000 -RA BR FEW010 BKN033 OVC053 19/19 Q1013 NOSIG
ZGKL,2025-05-27 11:00,ZGKL 271100Z VRB01MPS 7000 -RA FEW023 BKN040 OVC053 19/19 Q1013 NOSIG
ZGKL,2025-05-27 12:00,ZGKL 271200Z VRB01MPS 6000 -RA FEW020 BKN040 OVC066 19/19 Q1013 NOSIG
ZGKL,2025-05-27 13:00,ZGKL 271300Z VRB01MPS 6000 -RA FEW005 SCT016 BKN040 19/18 Q1013 NOSIG
ZGKL,2025-05-27 14:00,ZGKL 271400Z VRB01MPS 7000 -RA FEW016 BKN033 OVC060 19/18 Q1013 NOSIG
ZGKL,2025-05-27 15:00,ZGKL 271500Z VRB01MPS 8000 FEW016 SCT043 OVC066 19/18 Q1013 NOSIG
ZGKL,2025-05-27 16:00,ZGKL 271600Z 00000MPS 8000 FEW015 SCT043 OVC066 19/19 Q1013 NOSIG
ZGKL,2025-05-27 17:00,ZGKL 271700Z 32001MPS 8000 FEW013 SCT043 OVC060 19/19 Q1012 NOSIG
ZGKL,2025-05-27 18:00,ZGKL 271800Z VRB01MPS 6000 -RA FEW010 SCT040 OVC060 19/19 Q1011 NOSIG
ZGKL,2025-05-27 19:00,ZGKL 271900Z VRB01MPS 6000 -RA FEW010 SCT040 OVC060 19/19 Q1010 NOSIG
ZGKL,2025-05-27 20:00,ZGKL 272000Z VRB01MPS 6000 -RA FEW010 SCT040 OVC060 19/19 Q1010 NOSIG
ZGKL,2025-05-27 21:00,ZGKL 272100Z VRB01MPS 6000 -RA FEW010 SCT040 OVC060 19/19 Q1009 NOSIG
ZGKL,2025-05-27 22:00,ZGKL 272200Z VRB01MPS 3000 -RA BR FEW010 SCT033 OVC053 19/19 Q1009 NOSIG
ZGKL,2025-05-27 23:00,ZGKL 272300Z 20001MPS 3500 -RA BR FEW010 BKN026 OVC043 19/19 Q1009 NOSIG
ZGKL,2025-05-28 00:00,ZGKL 280000Z VRB01MPS 3500 -RA BR FEW004 SCT010 BKN030 20/19 Q1010 NOSIG
ZGKL,2025-05-28 01:00,ZGKL 280100Z VRB01MPS 3000 -RA BR FEW004 SCT010 BKN026 20/19 Q1010 BECMG TL0140 2800
ZGKL,2025-05-28 02:00,ZGKL 280200Z VRB01MPS 2800 -RA BR FEW004 BKN030 OVC043 20/20 Q1011 BECMG TL0240 3500
ZGKL,2025-05-28 03:00,ZGKL 280300Z 36003MPS 4000 -RA BR FEW004 BKN030 OVC043 21/20 Q1011 BECMG FM0400 2500
ZGKL,2025-05-28 04:00,ZGKL 280400Z 01003MPS 2000 -SHRA BR FEW003 SCT010 BKN026 21/21 Q1011 BECMG FM0500 SHRA FEW004 SCT020 FEW033CB BKN040
ZGKL,2025-05-28 05:00,ZGKL 280500Z VRB01MPS 2800 -SHRA BR FEW006 SCT010 BKN026 21/21 Q1011 BECMG TL0620 3000 FEW003 FEW033CB SCT033 BKN040
ZGKL,2025-05-28 06:00,ZGKL 280600Z 05002MPS 010V090 2800 -SHRA BR FEW008 BKN026 FEW043CB BKN043 21/21 Q1010 BECMG TL0700 3500 FEW008 SCT026 BKN040
ZGKL,2025-05-28 07:00,ZGKL 280700Z 04003MPS 5000 -SHRA BR FEW006 BKN026 OVC043 21/21 Q1010 NOSIG
ZGKL,2025-05-28 08:00,ZGKL 280800Z 04004MPS 6000 -RA FEW006 SCT010 BKN026 21/20 Q1010 NOSIG
ZGKL,2025-05-28 09:00,ZGKL 280900Z 05003MPS 020V080 5000 -RA BR FEW006 SCT010 BKN026 21/20 Q1010 NOSIG
ZGKL,2025-05-28 10:00,ZGKL 281000Z 05003MPS 010V070 3000 -RA BR FEW006 SCT010 BKN026 20/20 Q1010 BECMG TL1100 2700
ZGKL,2025-05-28 11:00,ZGKL 281100Z 06002MPS 030V090 3000 -RA BR FEW005 SCT010 BKN026 20/20 Q1010 BECMG TL1140 2600
ZGKL,2025-05-28 12:00,ZGKL 281200Z VRB01MPS 2600 -RA BR FEW005 SCT010 BKN030 20/20 Q1011 BECMG FM1340 3500
ZGKL,2025-05-28 13:00,ZGKL 281300Z VRB01MPS 2800 -RA BR FEW006 BKN030 OVC043 20/20 Q1011 BECMG FM1440 4000
ZGKL,2025-05-28 14:00,ZGKL 281400Z 27001MPS 3500 -RA BR FEW006 BKN030 OVC043 20/20 Q1012 BECMG TL1540 2800
ZGKL,2025-05-28 15:00,ZGKL 281500Z 00000MPS 3800 BR FEW006 BKN030 OVC043 20/20 Q1013 BECMG TL1540 2800
ZGKL,2025-05-28 16:00,ZGKL 281600Z VRB01MPS 2900 BR FEW009 SCT030 OVC043 20/19 Q1012 NOSIG
ZGKL,2025-05-28 17:00,ZGKL 281700Z 22001MPS 5000 -RA BR FEW008 SCT030 OVC043 20/20 Q1012 NOSIG
ZGKL,2025-05-28 18:00,ZGKL 281800Z 23001MPS 6000 -RA FEW008 SCT040 OVC066 20/19 Q1011 NOSIG
ZGKL,2025-05-28 19:00,ZGKL 281900Z 20001MPS 6000 -RA FEW008 SCT040 OVC066 20/19 Q1011 NOSIG
ZGKL,2025-05-28 20:00,ZGKL 282000Z VRB01MPS 7000 -RA FEW008 SCT040 OVC066 19/19 Q1010 NOSIG
ZGKL,2025-05-28 21:00,ZGKL 282100Z 19001MPS 8000 -RA FEW008 SCT040 OVC066 20/19 Q1010 NOSIG
ZGKL,2025-05-28 22:00,ZGKL 282200Z VRB01MPS 8000 -RA FEW006 SCT033 OVC056 20/19 Q1011 NOSIG
ZGKL,2025-05-28 23:00,ZGKL 282300Z VRB01MPS 6000 -RA FEW006 SCT033 OVC056 20/20 Q1011 NOSIG
ZGKL,2025-05-29 00:00,ZGKL 290000Z VRB01MPS 5000 -RA BR FEW008 SCT040 OVC060 20/20 Q1012 NOSIG
ZGKL,2025-05-29 01:00,ZGKL 290100Z VRB01MPS 5000 -RA BR FEW003 SCT036 OVC060 20/20 Q1012 NOSIG
ZGKL,2025-05-29 02:00,ZGKL 290200Z 34002MPS 300V030 9999 -RA FEW010 SCT040 OVC060 21/20 Q1013 NOSIG
ZGKL,2025-05-29 03:00,ZGKL 290300Z VRB01MPS 9999 -RA FEW011 SCT046 OVC066 22/20 Q1013 NOSIG
ZGKL,2025-05-29 04:00,ZGKL 290400Z 35002MPS 320V030 9999 FEW013 SCT036 OVC056 23/20 Q1012 NOSIG
ZGKL,2025-05-29 05:00,ZGKL 290500Z VRB01MPS 9999 FEW016 SCT040 OVC056 24/21 Q1012 NOSIG
ZGKL,2025-05-29 06:00,ZGKL 290600Z 03002MPS 330V070 9999 FEW016 SCT040 OVC056 25/20 Q1011 NOSIG
ZGKL,2025-05-29 07:00,ZGKL 290700Z 06004MPS 020V090 9999 FEW016 SCT040 OVC056 25/20 Q1011 NOSIG
ZGKL,2025-05-29 08:00,ZGKL 290800Z 06003MPS 020V090 9999 SCT040 OVC056 25/20 Q1011 NOSIG
ZGKL,2025-05-29 09:00,ZGKL 290900Z 06004MPS 9999 SCT040 OVC060 25/19 Q1010 NOSIG
ZGKL,2025-05-29 10:00,ZGKL 291000Z 04004MPS 9999 SCT040 OVC060 24/20 Q1010 NOSIG
ZGKL,2025-05-29 11:00,ZGKL 291100Z 04003MPS 9999 SCT060 24/19 Q1010 NOSIG
ZGKL,2025-05-29 12:00,ZGKL 291200Z 09002MPS 340V110 9999 BKN063 23/19 Q1010 NOSIG
ZGKL,2025-05-29 13:00,ZGKL 291300Z VRB01MPS 9999 FEW050 SCT066 22/20 Q1010 NOSIG
ZGKL,2025-05-29 14:00,ZGKL 291400Z VRB01MPS 9999 FEW040 BKN066 21/20 Q1011 NOSIG
ZGKL,2025-05-29 15:00,ZGKL 291500Z VRB01MPS 9999 FEW040 BKN060 21/21 Q1011 NOSIG
ZGKL,2025-05-29 16:00,ZGKL 291600Z VRB01MPS 9999 FEW036 BKN060 21/20 Q1011 NOSIG
ZGKL,2025-05-29 17:00,ZGKL 291700Z 29001MPS 9999 FEW036 BKN060 21/20 Q1011 NOSIG
ZGKL,2025-05-29 18:00,ZGKL 291800Z VRB01MPS 9999 SCT033 BKN060 21/20 Q1011 NOSIG
ZGKL,2025-05-29 19:00,ZGKL 291900Z 26001MPS 9999 SCT033 BKN060 21/20 Q1010 NOSIG
ZGKL,2025-05-29 20:00,ZGKL 292000Z 29001MPS 9999 SCT033 BKN060 21/20 Q1010 NOSIG
ZGKL,2025-05-29 21:00,ZGKL 292100Z VRB01MPS 9999 SCT033 BKN060 21/20 Q1010 NOSIG
ZGKL,2025-05-29 22:00,ZGKL 292200Z 00000MPS 9999 SCT036 OVC053 21/20 Q1010 NOSIG
ZGKL,2025-05-29 23:00,ZGKL 292300Z 00000MPS 9999 SCT036 OVC060 21/20 Q1010 NOSIG
ZGKL,2025-05-30 00:00,ZGKL 300000Z VRB01MPS 9999 SCT036 BKN066 23/20 Q1011 NOSIG
ZGKL,2025-05-30 01:00,ZGKL 300100Z 36002MPS 320V040 9999 SCT033 BKN060 24/19 Q1011 NOSIG
ZGKL,2025-05-30 02:00,ZGKL 300200Z 04002MPS 350V110 9999 SCT033 OVC060 25/19 Q1010 NOSIG
ZGKL,2025-05-30 03:00,ZGKL 300300Z VRB01MPS 9999 SCT040 OVC066 26/20 Q1010 NOSIG
ZGKL,2025-05-30 04:00,ZGKL 300400Z VRB01MPS 9999 SCT033 OVC060 26/20 Q1010 NOSIG
ZGKL,2025-05-30 05:00,ZGKL 300500Z VRB01MPS 9999 SCT040 OVC060 26/20 Q1010 NOSIG
ZGKL,2025-05-30 06:00,ZGKL 300600Z VRB01MPS 9999 SCT043 OVC060 25/20 Q1009 NOSIG
ZGKL,2025-05-30 07:00,ZGKL 300700Z VRB01MPS 9999 SCT043 OVC060 25/20 Q1008 NOSIG
ZGKL,2025-05-30 08:00,ZGKL 300800Z VRB01MPS 9999 SCT043 OVC060 26/21 Q1008 NOSIG
ZGKL,2025-05-30 09:00,ZGKL 300900Z 35002MPS 310V020 8000 -RA SCT033 OVC053 24/21 Q1007 NOSIG
ZGKL,2025-05-30 10:00,ZGKL 301000Z 02002MPS 350V050 7000 SCT033 OVC053 24/21 Q1007 NOSIG
ZGKL,2025-05-30 11:00,ZGKL 301100Z 34001MPS 3000 -RA BR SCT033 OVC043 23/22 Q1008 BECMG TL1200 2700
ZGKL,2025-05-30 12:00,ZGKL 301200Z VRB01MPS 2800 -RA BR FEW010 SCT033 OVC046 22/22 Q1008 BECMG TL1310 3500
ZGKL,2025-05-30 13:00,ZGKL 301300Z VRB01MPS 3500 -RA BR FEW010 SCT030 OVC043 22/22 Q1008 NOSIG
ZGKL,2025-05-30 14:00,ZGKL 301400Z 00000MPS 3500 -RA BR FEW006 BKN026 OVC040 22/22 Q1009 NOSIG
ZGKL,2025-05-30 15:00,ZGKL 301500Z VRB01MPS 3500 -RA BR FEW008 BKN026 OVC040 22/22 Q1009 NOSIG
ZGKL,2025-05-30 16:00,ZGKL 301600Z VRB01MPS 3500 -RA BR FEW008 BKN026 OVC040 22/22 Q1009 NOSIG
ZGKL,2025-05-30 17:00,ZGKL 301700Z VRB01MPS 3500 -RA BR FEW008 BKN026 OVC040 22/22 Q1008 NOSIG
ZGKL,2025-05-30 18:00,ZGKL 301800Z VRB01MPS 3500 -RA BR FEW006 BKN026 OVC040 22/22 Q1008 NOSIG
ZGKL,2025-05-30 19:00,ZGKL 301900Z VRB01MPS 4000 BR FEW006 BKN033 OVC050 22/22 Q1007 NOSIG
ZGKL,2025-05-30 20:00,ZGKL 302000Z VRB01MPS 5000 BR FEW006 BKN033 OVC050 22/22 Q1007 NOSIG
ZGKL,2025-05-30 21:00,ZGKL 302100Z VRB01MPS 5000 BR FEW006 BKN026 OVC043 22/22 Q1007 NOSIG
ZGKL,2025-05-30 22:00,ZGKL 302200Z VRB01MPS 3000 -RA BR FEW006 BKN026 OVC040 22/22 Q1007 NOSIG
ZGKL,2025-05-30 23:00,ZGKL 302300Z 00000MPS 3000 -RA BR FEW004 BKN030 OVC040 22/22 Q1007 NOSIG
ZGKL,2025-05-31 00:00,ZGKL 310000Z 19001MPS 3000 -RA BR FEW004 BKN026 OVC040 22/22 Q1007 BECMG TL0100 2800
ZGKL,2025-05-31 01:00,ZGKL 310100Z VRB01MPS 2800 -RA BR FEW010 BKN026 OVC040 23/22 Q1007 BECMG TL0200 3500
ZGKL,2025-05-31 02:00,ZGKL 310200Z VRB01MPS 3200 BR FEW010 BKN026 OVC040 23/23 Q1007 BECMG FM0300 2800
ZGKL,2025-05-31 03:00,ZGKL 310300Z VRB01MPS 2800 BR FEW010 SCT026 BKN040 25/24 Q1006 BECMG TL0400 4000
ZGKL,2025-05-31 04:00,ZGKL 310400Z 17004MPS 130V210 8000 SCT013 SCT026 BKN046 27/24 Q1005 NOSIG
ZGKL,2025-05-31 05:00,ZGKL 310500Z 17003MPS 7000 FEW015 SCT033 BKN050 28/25 Q1004 NOSIG
ZGKL,2025-05-31 06:00,ZGKL 310600Z 27002MPS 240V340 9000 FEW015 SCT033 BKN050 28/25 Q1004 BECMG FM0700 18005MPS
ZGKL,2025-05-31 07:00,ZGKL 310700Z 22002MPS 180V270 9000 FEW016 SCT033 OVC053 29/25 Q1003 NOSIG
ZGKL,2025-05-31 08:00,ZGKL 310800Z 12003MPS 9999 FEW020 SCT040 29/26 Q1002 BECMG FM0900 18005MPS
ZGKL,2025-05-31 09:00,ZGKL 310900Z 12003MPS 9999 FEW020 SCT036 OVC053 28/25 Q1002 NOSIG
ZGKL,2025-05-31 10:00,ZGKL 311000Z 13002MPS 090V170 9999 FEW020 SCT033 OVC053 27/25 Q1002 NOSIG
ZGKL,2025-05-31 11:00,ZGKL 311100Z VRB01MPS 9999 FEW016 SCT030 OVC053 27/25 Q1001 NOSIG
ZGKL,2025-05-31 12:00,ZGKL 311200Z 00000MPS 9999 FEW016 SCT030 OVC053 27/25 Q1002 NOSIG
ZGKL,2025-05-31 13:00,ZGKL 311300Z VRB01MPS 9999 SCT030 OVC053 26/25 Q1003 NOSIG
ZGKL,2025-05-31 14:00,ZGKL 311400Z VRB01MPS 8000 SCT030 OVC053 26/25 Q1003 NOSIG
ZGKL,2025-05-31 15:00,ZGKL 311500Z 08001MPS 6000 -SHRA SCT030 OVC043 26/25 Q1003 NOSIG
ZGKL,2025-05-31 16:00,ZGKL 311600Z 28001MPS 5000 -SHRA PRFG BR FEW010 SCT030 OVC043 25/25 Q1003 NOSIG
ZGKL,2025-05-31 17:00,ZGKL 311700Z 00000MPS 4500 -SHRA BCFG BR FEW010 SCT030 OVC040 25/25 Q1002 NOSIG
ZGKL,2025-05-31 18:00,ZGKL 311800Z 00000MPS 6000 -SHRA FEW010 SCT036 OVC050 25/25 Q1002 NOSIG
ZGKL,2025-05-31 19:00,ZGKL 311900Z VRB01MPS 6000 FEW010 SCT040 OVC053 25/25 Q1001 NOSIG
ZGKL,2025-05-31 20:00,ZGKL 312000Z 18005MPS 6000 SCT033 OVC050 26/24 Q1001 NOSIG
ZGKL,2025-05-31 21:00,ZGKL 312100Z 17003MPS 9999 -SHRA SCT030 OVC043 25/24 Q1001 NOSIG
ZGKL,2025-05-31 22:00,ZGKL 312200Z 18003MPS 9999 SCT026 OVC050 26/24 Q1001 NOSIG
ZGKL,2025-05-31 23:00,ZGKL 312300Z 19003MPS 9999 SCT026 OVC050 26/24 Q1001 NOSIG
ZGKL,2025-06-01 00:00,ZGKL 010000Z VRB01MPS 9999 SCT030 OVC053 26/24 Q1001 NOSIG
ZGKL,2025-06-01 01:00,ZGKL 010100Z 13002MPS 8000 -RA SCT026 OVC043 26/25 Q1001 NOSIG
ZGKL,2025-06-01 02:00,ZGKL 010200Z 18002MPS 8000 SCT026 OVC043 26/25 Q1001 NOSIG
ZGKL,2025-06-01 03:00,ZGKL 010300Z 19003MPS 8000 SCT026 OVC043 27/25 Q1001 NOSIG
ZGKL,2025-06-01 04:00,ZGKL 010400Z 19003MPS 8000 SCT030 OVC046 28/25 Q1000 NOSIG
ZGKL,2025-06-01 05:00,ZGKL 010500Z 16003MPS 9999 FEW015 SCT026 OVC053 28/25 Q1000 NOSIG
ZGKL,2025-06-01 06:00,ZGKL 010600Z 12002MPS 090V220 9000 -RA FEW015 SCT030 BKN046 28/26 Q0999 NOSIG
ZGKL,2025-06-01 07:00,ZGKL 010700Z VRB01MPS 9000 FEW015 SCT026 OVC050 29/26 Q0999 NOSIG
ZGKL,2025-06-01 08:00,ZGKL 010800Z VRB01MPS 8000 -RA FEW011 SCT023 OVC040 28/26 Q0999 NOSIG
ZGKL,2025-06-01 09:00,ZGKL 010900Z VRB01MPS 7000 FEW016 SCT030 OVC053 28/26 Q0999 NOSIG
ZGKL,2025-06-01 10:00,ZGKL 011000Z 35002MPS 310V010 6000 SCT036 BKN060 27/26 Q0999 NOSIG
ZGKL,2025-06-01 11:00,ZGKL 011100Z VRB01MPS 5000 BR SCT036 OVC053 27/26 Q0999 NOSIG
ZGKL,2025-06-01 12:00,ZGKL 011200Z 36001MPS 6000 SCT026 BKN053 27/26 Q0999 NOSIG
ZGKL,2025-06-01 13:00,ZGKL 011300Z VRB01MPS 6000 SCT026 BKN053 27/26 Q1000 NOSIG
ZGKL,2025-06-01 14:00,ZGKL 011400Z VRB01MPS 5000 BR SCT033 OVC056 26/26 Q1001 BECMG FM1500 FEW023 FEW036CB BKN040
ZGKL,2025-06-01 15:00,ZGKL 011500Z VRB01MPS 4000 BR FEW016 SCT053 26/26 Q1001 BECMG TL1600 FEW023 FEW036CB BKN040
ZGKL,2025-06-01 16:00,ZGKL 011600Z VRB01MPS 3600 TS BR FEW013 FEW026CB SCT026 BKN050 26/26 Q1000 BECMG TL1700 TSRA
ZGKL,2025-06-01 17:00,ZGKL 011700Z VRB01MPS 3200 TS BR FEW013 FEW026CB SCT026 BKN043 26/25 Q1000 BECMG TL1830 TSRA
ZGKL,2025-06-01 18:00,ZGKL 011800Z VRB01MPS 3000 TS BR FEW007 FEW026CB SCT026 BKN040 26/25 Q0999 BECMG TL1900 2500 TSRA
ZGKL,2025-06-01 19:00,ZGKL 011900Z 02003MPS 2800 -TSRA BR FEW006 FEW026CB SCT026 BKN040 26/25 Q0999 RESHRA BECMG TL2030 3000
ZGKL,2025-06-01 20:00,ZGKL 012000Z 03003MPS 260V060 3500 TSRA BR FEW005 FEW026CB SCT026 BKN040 26/25 Q1000 BECMG TL2100 2000 +TSRA
ZGKL,2025-06-01 21:00,ZGKL 012100Z 02003MPS 6000 -TSRA FEW006 FEW026CB SCT026 BKN040 25/24 Q1001 RESHRA BECMG FM2240 -SHRA
ZGKL,2025-06-01 22:00,ZGKL 012200Z 05006MPS 6000 -TSRA FEW006 FEW026CB SCT026 BKN040 23/22 Q1002 BECMG TL2240 -SHRA
ZGKL,2025-06-01 23:00,ZGKL 012300Z VRB01MPS 5000 -SHRA BR FEW010 SCT026 FEW033CB BKN040 22/22 Q1003 RETS BECMG TL0010 FEW010 SCT030 OVC040
ZGKL,2025-06-02 00:00,ZGKL 020000Z 01003MPS 5000 -RA BR FEW006 SCT030 OVC043 22/21 Q1004 BECMG TL0140 SCT026 FEW036CB BKN040
ZGKL,2025-06-02 01:00,ZGKL 020100Z VRB01MPS 5000 -RA BR BKN033 OVC053 22/21 Q1005 BECMG FM0230 05006MPS SHRA FEW030CB BKN040
ZGKL,2025-06-02 02:00,ZGKL 020200Z 07001MPS 6000 -SHRA FEW033CB BKN033 BKN053 22/21 Q1005 BECMG TL0330 SCT023 BKN050
ZGKL,2025-06-02 03:00,ZGKL 020300Z VRB01MPS 9999 -RA BKN033 OVC053 22/21 Q1005 NOSIG
ZGKL,2025-06-02 04:00,ZGKL 020400Z 06002MPS 9999 -RA BKN036 OVC053 22/21 Q1005 NOSIG
ZGKL,2025-06-02 05:00,ZGKL 020500Z 02002MPS 330V090 9999 BKN036 OVC053 23/21 Q1005 NOSIG
ZGKL,2025-06-02 06:00,ZGKL 020600Z 06002MPS 360V090 6000 -RA FEW010 SCT036 OVC053 22/21 Q1005 NOSIG
ZGKL,2025-06-02 07:00,ZGKL 020700Z 06004MPS 8000 -RA FEW010 SCT036 OVC053 23/21 Q1004 NOSIG
ZGKL,2025-06-02 08:00,ZGKL 020800Z 05003MPS 020V080 8000 FEW010 SCT036 OVC053 23/20 Q1004 NOSIG
ZGKL,2025-06-02 09:00,ZGKL 020900Z 06002MPS 8000 FEW010 SCT036 OVC053 23/20 Q1005 NOSIG
ZGKL,2025-06-02 10:00,ZGKL 021000Z 05004MPS 020V080 8000 SCT036 OVC053 23/19 Q1005 NOSIG
ZGKL,2025-06-02 11:00,ZGKL 021100Z VRB01MPS 9999 SCT033 OVC056 22/19 Q1006 NOSIG
ZGKL,2025-06-02 12:00,ZGKL 021200Z 02002MPS 330V060 9999 BKN030 OVC053 22/19 Q1006 NOSIG
ZGKL,2025-06-02 13:00,ZGKL 021300Z 04003MPS 9999 SCT033 BKN066 22/19 Q1007 NOSIG
ZGKL,2025-06-02 14:00,ZGKL 021400Z VRB01MPS CAVOK 21/19 Q1007 NOSIG
ZGKL,2025-06-02 15:00,ZGKL 021500Z VRB01MPS CAVOK 20/19 Q1008 NOSIG
ZGKL,2025-06-02 16:00,ZGKL 021600Z VRB01MPS CAVOK 20/19 Q1008 NOSIG
ZGKL,2025-06-02 17:00,ZGKL 021700Z VRB01MPS CAVOK 20/19 Q1007 NOSIG
ZGKL,2025-06-02 18:00,ZGKL 021800Z VRB01MPS CAVOK 20/19 Q1006 NOSIG
ZGKL,2025-06-02 19:00,ZGKL 021900Z 35001MPS CAVOK 20/19 Q1006 NOSIG
ZGKL,2025-06-02 20:00,ZGKL 022000Z 00000MPS CAVOK 20/19 Q1006 NOSIG
ZGKL,2025-06-02 21:00,ZGKL 022100Z 00000MPS CAVOK 20/19 Q1006 NOSIG
ZGKL,2025-06-02 22:00,ZGKL 022200Z VRB01MPS CAVOK 20/20 Q1007 NOSIG
ZGKL,2025-06-02 23:00,ZGKL 022300Z 00000MPS CAVOK 20/20 Q1007 NOSIG
ZGKL,2025-06-03 00:00,ZGKL 030000Z VRB01MPS CAVOK 22/20 Q1008 NOSIG
ZGKL,2025-06-03 01:00,ZGKL 030100Z 01003MPS CAVOK 24/19 Q1008 NOSIG
ZGKL,2025-06-03 02:00,ZGKL 030200Z 04003MPS 340V090 CAVOK 26/17 Q1008 NOSIG
ZGKL,2025-06-03 03:00,ZGKL 030300Z 01004MPS CAVOK 27/18 Q1008 NOSIG
ZGKL,2025-06-03 04:00,ZGKL 030400Z 06006MPS 020V090 CAVOK 28/17 Q1007 NOSIG
ZGKL,2025-06-03 05:00,ZGKL 030500Z 06005MPS 360V090 CAVOK 29/17 Q1006 NOSIG
ZGKL,2025-06-03 06:00,ZGKL 030600Z 07003MPS 030V110 CAVOK 29/18 Q1005 NOSIG
ZGKL,2025-06-03 07:00,ZGKL 030700Z 11002MPS 050V220 CAVOK 30/19 Q1005 NOSIG
ZGKL,2025-06-03 08:00,ZGKL 030800Z 10002MPS 040V140 CAVOK 30/19 Q1005 NOSIG
ZGKL,2025-06-03 09:00,ZGKL 030900Z 13002MPS 060V180 CAVOK 30/19 Q1005 NOSIG
ZGKL,2025-06-03 10:00,ZGKL 031000Z 12002MPS 100V170 CAVOK 29/19 Q1005 NOSIG
ZGKL,2025-06-03 11:00,ZGKL 031100Z VRB01MPS CAVOK 28/18 Q1005 NOSIG
ZGKL,2025-06-03 12:00,ZGKL 031200Z 30001MPS 9999 BKN046 BKN070 26/21 Q1006 NOSIG
ZGKL,2025-06-03 13:00,ZGKL 031300Z 34002MPS 9999 SCT056 26/21 Q1006 NOSIG
ZGKL,2025-06-03 14:00,ZGKL 031400Z 04004MPS 9999 SCT050 26/18 Q1008 NOSIG
ZGKL,2025-06-03 15:00,ZGKL 031500Z 34002MPS 290V030 9999 SCT050 25/18 Q1008 NOSIG
ZGKL,2025-06-03 16:00,ZGKL 031600Z 30001MPS 9999 SCT050 24/19 Q1009 NOSIG
ZGKL,2025-06-03 17:00,ZGKL 031700Z 26002MPS 9999 SCT050 23/20 Q1008 NOSIG
ZGKL,2025-06-03 18:00,ZGKL 031800Z 34001MPS CAVOK 22/20 Q1008 NOSIG
ZGKL,2025-06-03 19:00,ZGKL 031900Z VRB01MPS CAVOK 21/20 Q1008 NOSIG
ZGKL,2025-06-03 20:00,ZGKL 032000Z VRB01MPS 9999 FEW066 21/20 Q1007 NOSIG
ZGKL,2025-06-03 21:00,ZGKL 032100Z 36001MPS CAVOK 21/20 Q1008 NOSIG
ZGKL,2025-06-03 22:00,ZGKL 032200Z VRB01MPS CAVOK 21/20 Q1009 NOSIG
ZGKL,2025-06-03 23:00,ZGKL 032300Z VRB01MPS CAVOK 23/20 Q1009 NOSIG
ZGKL,2025-06-04 00:00,ZGKL 040000Z VRB01MPS CAVOK 23/20 Q1010 NOSIG
ZGKL,2025-06-04 01:00,ZGKL 040100Z 01002MPS CAVOK 25/20 Q1010 NOSIG
ZGKL,2025-06-04 02:00,ZGKL 040200Z 36002MPS 260V060 CAVOK 27/20 Q1010 NOSIG
ZGKL,2025-06-04 03:00,ZGKL 040300Z 07003MPS 030V130 CAVOK 29/20 Q1010 NOSIG
ZGKL,2025-06-04 04:00,ZGKL 040400Z 07002MPS 350V150 CAVOK 30/20 Q1009 NOSIG
ZGKL,2025-06-04 05:00,ZGKL 040500Z VRB02MPS CAVOK 31/19 Q1009 NOSIG
ZGKL,2025-06-04 06:00,ZGKL 040600Z VRB01MPS CAVOK 32/20 Q1008 NOSIG
ZGKL,2025-06-04 07:00,ZGKL 040700Z 13002MPS 080V250 CAVOK 32/19 Q1007 NOSIG
ZGKL,2025-06-04 08:00,ZGKL 040800Z VRB02MPS CAVOK 33/19 Q1007 NOSIG
ZGKL,2025-06-04 09:00,ZGKL 040900Z 07002MPS 030V110 CAVOK 33/19 Q1006 NOSIG
ZGKL,2025-06-04 10:00,ZGKL 041000Z 03002MPS 350V080 CAVOK 33/19 Q1007 NOSIG
ZGKL,2025-06-04 11:00,ZGKL 041100Z VRB01MPS CAVOK 30/19 Q1007 NOSIG
ZGKL,2025-06-04 12:00,ZGKL 041200Z 30001MPS CAVOK 28/21 Q1008 NOSIG
ZGKL,2025-06-04 13:00,ZGKL 041300Z 04003MPS CAVOK 29/20 Q1009 NOSIG
ZGKL,2025-06-04 14:00,ZGKL 041400Z 33002MPS 290V350 CAVOK 27/22 Q1009 NOSIG
ZGKL,2025-06-04 15:00,ZGKL 041500Z 33002MPS CAVOK 26/21 Q1009 NOSIG
ZGKL,2025-06-04 16:00,ZGKL 041600Z VRB01MPS CAVOK 24/22 Q1009 NOSIG
ZGKL,2025-06-04 17:00,ZGKL 041700Z 34001MPS CAVOK 24/21 Q1009 NOSIG
ZGKL,2025-06-04 18:00,ZGKL 041800Z VRB01MPS CAVOK 23/21 Q1008 NOSIG
ZGKL,2025-06-04 19:00,ZGKL 041900Z 29001MPS CAVOK 23/21 Q1008 NOSIG
ZGKL,2025-06-04 20:00,ZGKL 042000Z 27001MPS CAVOK 22/21 Q1009 NOSIG
ZGKL,2025-06-04 21:00,ZGKL 042100Z 18001MPS CAVOK 21/21 Q1009 NOSIG
ZGKL,2025-06-04 22:00,ZGKL 042200Z 31001MPS CAVOK 22/21 Q1009 NOSIG
ZGKL,2025-06-04 23:00,ZGKL 042300Z VRB01MPS CAVOK 23/21 Q1009 NOSIG
ZGKL,2025-06-05 00:00,ZGKL 050000Z VRB01MPS CAVOK 25/22 Q1010 NOSIG
ZGKL,2025-06-05 01:00,ZGKL 050100Z VRB01MPS 9000 SCT050 28/22 Q1010 NOSIG
ZGKL,2025-06-05 02:00,ZGKL 050200Z VRB01MPS 9999 SCT050 29/22 Q1011 NOSIG
ZGKL,2025-06-05 03:00,ZGKL 050300Z VRB02MPS 9999 FEW050 31/23 Q1010 NOSIG
ZGKL,2025-06-05 04:00,ZGKL 050400Z VRB02MPS CAVOK 31/23 Q1010 NOSIG
ZGKL,2025-06-05 05:00,ZGKL 050500Z 17002MPS 070V230 9999 FEW026 32/23 Q1009 NOSIG
ZGKL,2025-06-05 06:00,ZGKL 050600Z VRB02MPS 9999 FEW026 32/24 Q1008 NOSIG
ZGKL,2025-06-05 07:00,ZGKL 050700Z 21002MPS 160V270 9999 FEW030 SCT066 33/23 Q1007 NOSIG
ZGKL,2025-06-05 08:00,ZGKL 050800Z 13002MPS 070V170 9999 FEW030 SCT066 33/24 Q1006 NOSIG
ZGKL,2025-06-05 09:00,ZGKL 050900Z 17002MPS 100V210 9999 BKN066 33/24 Q1005 NOSIG
ZGKL,2025-06-05 10:00,ZGKL 051000Z VRB01MPS CAVOK 32/24 Q1005 NOSIG
ZGKL,2025-06-05 11:00,ZGKL 051100Z 13002MPS 110V250 CAVOK 31/25 Q1005 NOSIG
ZGKL,2025-06-05 12:00,ZGKL 051200Z 15002MPS CAVOK 30/25 Q1006 NOSIG
ZGKL,2025-06-05 13:00,ZGKL 051300Z 27001MPS CAVOK 28/25 Q1006 NOSIG
ZGKL,2025-06-05 14:00,ZGKL 051400Z VRB01MPS CAVOK 27/25 Q1006 NOSIG
ZGKL,2025-06-05 15:00,ZGKL 051500Z VRB01MPS 9999 FEW026 BKN043 26/25 Q1007 NOSIG
ZGKL,2025-06-05 16:00,ZGKL 051600Z VRB01MPS 9999 FEW060 26/24 Q1007 NOSIG
ZGKL,2025-06-05 17:00,ZGKL 051700Z 21001MPS 6000 FEW060 25/25 Q1007 NOSIG
ZGKL,2025-06-05 18:00,ZGKL 051800Z 20001MPS 6000 FEW060 25/25 Q1007 NOSIG
ZGKL,2025-06-05 19:00,ZGKL 051900Z VRB01MPS 7000 SCT043 BKN060 25/24 Q1007 NOSIG
ZGKL,2025-06-05 20:00,ZGKL 052000Z VRB01MPS 6000 SCT036 BKN053 25/24 Q1006 BECMG FM2040 SHRA FEW030CB BKN040
ZGKL,2025-06-05 21:00,ZGKL 052100Z 17003MPS 3000 SHRA BR FEW016 FEW026CB SCT026 BKN053 25/25 Q1007 BECMG TL2230 -RA BKN040
ZGKL,2025-06-05 22:00,COR ZGKL 052200Z VRB01MPS 3000 BR SCT033 BKN053 25/24 Q1007 RESHRA BECMG TL2250 2500 SHRA FEW010 SCT030 FEW030CB BKN050
ZGKL,2025-06-05 23:00,ZGKL 052300Z 17002MPS 2500 SHRA BR FEW015 FEW033CB SCT033 BKN053 25/25 Q1008 BECMG TL2330 3000 -SHRA
ZGKL,2025-06-06 00:00,ZGKL 060000Z 17002MPS 130V190 2800 -SHRA BR FEW016 FEW033CB SCT033 BKN056 25/25 Q1008 RESHRA BECMG TL0030 3000 SHRA
ZGKL,2025-06-06 01:00,ZGKL 060100Z 21002MPS 4000 BR FEW040 SCT066 27/26 Q1009 RESHRA NOSIG
ZGKL,2025-06-06 02:00,ZGKL 060200Z 18004MPS 9999 FEW026 29/25 Q1008 NOSIG
ZGKL,2025-06-06 03:00,ZGKL 060300Z 17005MPS 9999 FEW026 30/26 Q1008 NOSIG
ZGKL,2025-06-06 04:00,ZGKL 060400Z 18004MPS 9999 FEW026 30/26 Q1008 NOSIG
ZGKL,2025-06-06 05:00,ZGKL 060500Z 17004MPS 9999 FEW026 32/26 Q1007 NOSIG
ZGKL,2025-06-06 06:00,ZGKL 060600Z 17004MPS 140V210 9999 FEW026 33/25 Q1006 BECMG FM0730 FEW030CB SCT050
ZGKL,2025-06-06 07:00,ZGKL 060700Z 18005MPS 130V200 9999 SCT026 33/25 Q1005 BECMG TL0800 FEW030CB SCT050
ZGKL,2025-06-06 08:00,ZGKL 060800Z 17005MPS 9999 SCT026 FEW040CB 34/25 Q1004 BECMG TL0900 SCT050
ZGKL,2025-06-06 09:00,ZGKL 060900Z 18005MPS 9999 FEW026 FEW040CB 33/25 Q1003 BECMG TL1000 SCT050
ZGKL,2025-06-06 10:00,ZGKL 061000Z 18004MPS 9999 FEW026 32/25 Q1003 NOSIG
ZGKL,2025-06-06 11:00,ZGKL 061100Z 18003MPS 9999 FEW053 31/25 Q1004 NOSIG
ZGKL,2025-06-06 12:00,ZGKL 061200Z 18003MPS CAVOK 29/25 Q1004 NOSIG
ZGKL,2025-06-06 13:00,ZGKL 061300Z 18002MPS 9999 FEW066 28/25 Q1005 NOSIG
ZGKL,2025-06-06 14:00,ZGKL 061400Z VRB01MPS CAVOK 28/25 Q1005 NOSIG
ZGKL,2025-06-06 15:00,ZGKL 061500Z 20001MPS CAVOK 27/25 Q1006 NOSIG
ZGKL,2025-06-06 16:00,ZGKL 061600Z VRB01MPS CAVOK 27/25 Q1006 NOSIG
ZGKL,2025-06-06 17:00,ZGKL 061700Z VRB01MPS 9999 FEW050 26/25 Q1006 NOSIG
ZGKL,2025-06-06 18:00,ZGKL 061800Z 00000MPS 9999 FEW050 25/24 Q1005 NOSIG
ZGKL,2025-06-06 19:00,ZGKL 061900Z VRB01MPS 9999 -RA SCT040 26/25 Q1006 NOSIG
ZGKL,2025-06-06 20:00,ZGKL 062000Z 21001MPS 8000 SCT040 25/25 Q1006 NOSIG
ZGKL,2025-06-06 21:00,ZGKL 062100Z 19002MPS 8000 NSC 26/25 Q1006 NOSIG
ZGKL,2025-06-06 22:00,ZGKL 062200Z 18005MPS 9999 FEW033 SCT053 27/24 Q1006 NOSIG
ZGKL,2025-06-06 23:00,ZGKL 062300Z 19004MPS 9999 SCT036 BKN056 27/24 Q1007 NOSIG
ZGKL,2025-06-07 00:00,ZGKL 070000Z 20004MPS 9999 SCT040 BKN056 28/24 Q1007 NOSIG
ZGKL,2025-06-07 01:00,ZGKL 070100Z 19004MPS 9999 SCT033 BKN056 28/24 Q1008 NOSIG
ZGKL,2025-06-07 02:00,ZGKL 070200Z 18004MPS 9999 FEW033 31/26 Q1008 NOSIG
ZGKL,2025-06-07 03:00,ZGKL 070300Z 17005MPS 9999 FEW026 SCT050 31/25 Q1007 NOSIG
ZGKL,2025-06-07 04:00,ZGKL 070400Z 18006MPS 150V210 9999 SCT030 BKN060 31/25 Q1007 NOSIG
ZGKL,2025-06-07 05:00,ZGKL 070500Z 18006MPS 9999 FEW016 SCT030 BKN053 31/25 Q1006 NOSIG
ZGKL,2025-06-07 06:00,ZGKL 070600Z 20003MPS 160V230 9999 -SHRA FEW016 FEW023TCU SCT033 BKN060 30/26 Q1005 BECMG FM0700 FEW030CB BKN050
ZGKL,2025-06-07 07:00,ZGKL 070700Z VRB01MPS 9999 FEW015 FEW023TCU SCT030 BKN050 32/25 Q1005 BECMG FM0800 FEW030CB BKN050
ZGKL,2025-06-07 08:00,ZGKL 070800Z VRB01MPS 9999 FEW030CB FEW030 33/26 Q1004 BECMG FM0930 SCT030 BKN050
ZGKL,2025-06-07 09:00,ZGKL 070900Z 16003MPS 140V210 9999 FEW030CB FEW030 33/25 Q1003 BECMG FM1000 SCT030 BKN050
ZGKL,2025-06-07 10:00,ZGKL 071000Z 17003MPS CAVOK 33/25 Q1003 NOSIG
ZGKL,2025-06-07 11:00,ZGKL 071100Z 17003MPS CAVOK 31/26 Q1003 NOSIG
ZGKL,2025-06-07 12:00,ZGKL 071200Z 19001MPS 9999 SCT050 29/26 Q1003 NOSIG
ZGKL,2025-06-07 13:00,ZGKL 071300Z 20001MPS 9999 SCT053 29/26 Q1004 NOSIG
ZGKL,2025-06-07 14:00,ZGKL 071400Z VRB01MPS 9999 FEW060 29/25 Q1005 NOSIG
ZGKL,2025-06-07 15:00,ZGKL 071500Z VRB01MPS 9999 FEW060 27/26 Q1006 NOSIG
ZGKL,2025-06-07 16:00,ZGKL 071600Z 00000MPS 9999 FEW060 28/26 Q1006 NOSIG
ZGKL,2025-06-07 17:00,ZGKL 071700Z VRB01MPS 9999 FEW053 27/26 Q1005 NOSIG
ZGKL,2025-06-07 18:00,ZGKL 071800Z VRB01MPS 9999 SCT066 27/26 Q1005 NOSIG
ZGKL,2025-06-07 19:00,ZGKL 071900Z VRB01MPS 9999 SCT043 SCT073 26/26 Q1004 NOSIG
ZGKL,2025-06-07 20:00,ZGKL 072000Z 00000MPS 9000 SCT036 OVC066 26/25 Q1004 NOSIG
ZGKL,2025-06-07 21:00,ZGKL 072100Z 20001MPS 9000 FEW026CB SCT040 BKN066 26/25 Q1004 NOSIG
ZGKL,2025-06-07 22:00,ZGKL 072200Z 19002MPS 9999 FEW026 SCT036 OVC066 26/25 Q1005 NOSIG
ZGKL,2025-06-07 23:00,ZGKL 072300Z 17003MPS 9999 FEW026 SCT050 27/25 Q1006 NOSIG
ZGKL,2025-06-08 00:00,ZGKL 080000Z 18003MPS 150V210 9999 FEW040 29/26 Q1006 NOSIG
ZGKL,2025-06-08 01:00,ZGKL 080100Z 16005MPS 9999 FEW026 SCT066 30/25 Q1007 NOSIG
ZGKL,2025-06-08 02:00,ZGKL 080200Z 17004MPS 9999 SCT030 SCT066 30/25 Q1007 BECMG FM0330 FEW030CB
ZGKL,2025-06-08 03:00,ZGKL 080300Z 17005MPS 9999 FEW026 SCT046 32/25 Q1006 BECMG FM0400 FEW030CB
ZGKL,2025-06-08 04:00,ZGKL 080400Z 19004MPS 9999 FEW033CB SCT033 SCT053 31/26 Q1006 NOSIG
ZGKL,2025-06-08 05:00,ZGKL 080500Z 24002MPS 200V270 9999 FEW023 SCT040 31/25 Q1005 BECMG FM0600 SCT020 FEW033CB BKN033
ZGKL,2025-06-08 06:00,ZGKL 080600Z VRB02MPS 9999 FEW023 SCT040 33/25 Q1004 BECMG FM0700 SCT020 FEW033CB BKN033
ZGKL,2025-06-08 07:00,ZGKL 080700Z 30002MPS 240V020 9999 FEW023 FEW033CB SCT040 33/25 Q1004 NOSIG
ZGKL,2025-06-08 08:00,ZGKL 080800Z VRB01MPS 9999 FEW023 FEW033CB SCT040 32/25 Q1003 BECMG FM0920 TSRA
ZGKL,2025-06-08 09:00,ZGKL 080900Z VRB01MPS 9999 FEW016 FEW033CB SCT040 31/25 Q1003 BECMG FM0940 TSRA
ZGKL,2025-06-08 10:00,ZGKL 081000Z 16005MPS 9999 -TSRA FEW013 FEW033CB SCT040 BKN066 27/25 Q1004 BECMG TL1030 NSW
ZGKL,2025-06-08 11:00,ZGKL 081100Z 17003MPS 9999 -RA SCT033 SCT070 25/24 Q1004 RETS NOSIG
ZGKL,2025-06-08 12:00,ZGKL 081200Z 34002MPS 220V360 9999 SCT033 25/24 Q1004 NOSIG
ZGKL,2025-06-08 13:00,ZGKL 081300Z VRB01MPS 9999 SCT036 BKN066 26/25 Q1005 NOSIG
ZGKL,2025-06-08 14:00,ZGKL 081400Z 20001MPS 9999 SCT040 SCT066 25/24 Q1006 NOSIG
ZGKL,2025-06-08 15:00,ZGKL 081500Z VRB01MPS 9999 FEW040CB SCT040 BKN066 25/25 Q1007 NOSIG
ZGKL,2025-06-08 16:00,ZGKL 081600Z 18002MPS 9999 FEW033CB SCT040 BKN066 25/24 Q1006 NOSIG
ZGKL,2025-06-08 17:00,ZGKL 081700Z VRB01MPS 9999 FEW033CB SCT040 BKN066 25/25 Q1006 NOSIG
ZGKL,2025-06-08 18:00,ZGKL 081800Z 01001MPS 9999 SCT040 OVC066 25/25 Q1005 NOSIG
ZGKL,2025-06-08 19:00,ZGKL 081900Z VRB01MPS 9999 SCT040 OVC066 25/25 Q1005 NOSIG
ZGKL,2025-06-08 20:00,ZGKL 082000Z VRB01MPS 9999 SCT040 OVC066 25/25 Q1005 NOSIG
ZGKL,2025-06-08 21:00,ZGKL 082100Z 01002MPS 9999 SCT040 OVC066 25/25 Q1005 NOSIG
ZGKL,2025-06-08 22:00,ZGKL 082200Z VRB01MPS 9000 FEW023 SCT040 OVC053 25/24 Q1005 BECMG FM2300 TSRA FEW030CB
ZGKL,2025-06-08 23:00,ZGKL 082300Z 18001MPS 4000 -SHRA BR FEW006 FEW033CB SCT033 BKN053 25/24 Q1006 BECMG FM2330 SHRA
ZGKL,2025-06-09 00:00,ZGKL 090000Z VRB01MPS 4500 BR FEW005 FEW033CB BKN033 BKN060 24/24 Q1007 RETSRA BECMG TL0100 BKN040
ZGKL,2025-06-09 01:00,ZGKL 090100Z VRB01MPS 5000 BR FEW033CB SCT033 BKN060 25/24 Q1007 BECMG TL0200 BKN040
ZGKL,2025-06-09 02:00,ZGKL 090200Z VRB01MPS 7000 FEW010 SCT033 OVC060 26/25 Q1007 NOSIG
ZGKL,2025-06-09 03:00,ZGKL 090300Z 00000MPS 7000 -RA FEW010 SCT026 OVC053 27/24 Q1007 BECMG FM0400 FEW030CB BKN050
ZGKL,2025-06-09 04:00,ZGKL 090400Z 00000MPS 7000 -SHRA FEW010 SCT026 FEW033CB BKN053 27/25 Q1006 BECMG TL0430 BKN050
ZGKL,2025-06-09 05:00,ZGKL 090500Z VRB01MPS 8000 FEW016 FEW033CB SCT053 30/25 Q1006 BECMG TL0600 BKN050
ZGKL,2025-06-09 06:00,ZGKL 090600Z VRB01MPS 9999 FEW020 SCT030 30/25 Q1005 BECMG TL0750 FEW030CB BKN050
ZGKL,2025-06-09 07:00,ZGKL 090700Z 20002MPS 170V260 9999 FEW020 SCT030 31/26 Q1003 BECMG TL0850 FEW030CB BKN050
ZGKL,2025-06-09 08:00,ZGKL 090800Z VRB01MPS 9999 SCT030 33/25 Q1003 BECMG FM0930 FEW030CB BKN040
ZGKL,2025-06-09 09:00,ZGKL 090900Z 09002MPS 040V140 9999 FEW030 32/25 Q1002 BECMG FM1030 FEW030CB BKN040
ZGKL,2025-06-09 10:00,ZGKL 091000Z VRB01MPS 9999 FEW033CB FEW033 30/26 Q1002 BECMG FM1130 BKN040
ZGKL,2025-06-09 11:00,ZGKL 091100Z VRB01MPS 9999 -SHRA FEW026 29/26 Q1003 BECMG TL1130 FEW030CB BKN050
ZGKL,2025-06-09 12:00,ZGKL 091200Z 32002MPS 280V350 9999 SCT046 28/26 Q1004 BECMG TL1300 TSRA FEW030CB BKN050
ZGKL,2025-06-09 13:00,ZGKL 091300Z VRB01MPS 9999 FEW033CB SCT046 28/26 Q1005 NOSIG
ZGKL,2025-06-09 14:00,ZGKL 091400Z VRB01MPS 9999 FEW033CB 27/25 Q1006 BECMG TL1500 TSRA
ZGKL,2025-06-09 15:00,ZGKL 091500Z 10005MPS 7000 TSRA FEW020 FEW033CB SCT040 BKN073 27/25 Q1006 BECMG TL1600 -TSRA
ZGKL,2025-06-09 16:00,ZGKL 091600Z VRB01MPS 8000 -TSRA FEW010 SCT020 FEW033CB BKN053 25/24 Q1006 RESHRA BECMG FM1750 NSW
ZGKL,2025-06-09 17:00,ZGKL 091700Z 34002MPS 7000 -SHRA FEW010 SCT020 FEW033CB BKN050 25/24 Q1007 RETSRA NOSIG
ZGKL,2025-06-09 18:00,ZGKL 091800Z 34002MPS 9999 -RA FEW010 SCT033 BKN056 25/24 Q1006 NOSIG
ZGKL,2025-06-09 19:00,ZGKL 091900Z VRB01MPS 9999 -RA FEW013 SCT040 BKN066 24/24 Q1006 NOSIG
ZGKL,2025-06-09 20:00,ZGKL 092000Z VRB01MPS 9999 -RA FEW013 SCT040 BKN066 24/24 Q1005 NOSIG
ZGKL,2025-06-09 21:00,ZGKL 092100Z VRB01MPS 9999 FEW013 SCT040 BKN066 24/24 Q1005 BECMG FM2230 SHRA
ZGKL,2025-06-09 22:00,ZGKL 092200Z 34001MPS 9999 FEW016 SCT040 OVC073 24/24 Q1005 BECMG FM2230 SHRA
ZGKL,2025-06-09 23:00,ZGKL 092300Z VRB01MPS 9999 -RA FEW016 SCT033 OVC050 25/24 Q1006 NOSIG
ZGKL,2025-06-10 00:00,ZGKL 100000Z VRB01MPS 9999 -RA FEW010 BKN030 OVC050 25/24 Q1007 NOSIG
ZGKL,2025-06-10 01:00,ZGKL 100100Z VRB01MPS 9999 FEW005 SCT026 OVC043 25/24 Q1007 NOSIG
ZGKL,2025-06-10 02:00,ZGKL 100200Z VRB01MPS 9999 FEW016 SCT030 OVC053 26/25 Q1008 NOSIG
ZGKL,2025-06-10 03:00,ZGKL 100300Z VRB01MPS 9999 FEW006 SCT033 OVC050 27/25 Q1008 NOSIG
ZGKL,2025-06-10 04:00,ZGKL 100400Z 34002MPS 310V010 9999 FEW016 BKN033 OVC053 27/24 Q1007 NOSIG
ZGKL,2025-06-10 05:00,ZGKL 100500Z VRB01MPS 7000 -SHRA SCT016 FEW033CB SCT033 BKN050 25/25 Q1007 RESHRA BECMG FM0600 FEW015 SCT033 OVC050
ZGKL,2025-06-10 06:00,ZGKL 100600Z 36002MPS 9999 -SHRA FEW010 FEW030CB SCT030 BKN050 25/25 Q1007 NOSIG
ZGKL,2025-06-10 07:00,ZGKL 100700Z 34002MPS 9999 -SHRA FEW011 FEW033CB SCT033 BKN060 25/25 Q1007 BECMG FM0800 SCT033 OVC050
ZGKL,2025-06-10 08:00,ZGKL 100800Z 34002MPS 300V010 9999 -SHRA FEW020 FEW033CB SCT033 BKN060 25/24 Q1006 BECMG TL0900 SCT033 OVC050
ZGKL,2025-06-10 09:00,ZGKL 100900Z 36002MPS 9999 -RA SCT040 BKN066 25/24 Q1006 NOSIG
ZGKL,2025-06-10 10:00,ZGKL 101000Z VRB01MPS 9999 -RA BKN043 OVC066 25/25 Q1005 NOSIG
ZGKL,2025-06-10 11:00,ZGKL 101100Z VRB01MPS 9999 -RA FEW015 SCT033 OVC060 26/25 Q1006 NOSIG
ZGKL,2025-06-10 12:00,ZGKL 101200Z 00000MPS 9999 FEW023 SCT036 BKN073 25/25 Q1006 NOSIG
ZGKL,2025-06-10 13:00,ZGKL 101300Z VRB01MPS 9999 FEW010 SCT033 BKN060 25/24 Q1007 NOSIG
ZGKL,2025-06-10 14:00,ZGKL 101400Z VRB01MPS 9999 SCT036 BKN073 25/24 Q1008 NOSIG
ZGKL,2025-06-10 15:00,ZGKL 101500Z VRB01MPS 9999 SCT030 BKN060 25/24 Q1008 NOSIG
ZGKL,2025-06-10 16:00,ZGKL 101600Z 34001MPS 9999 SCT030 BKN060 25/24 Q1008 NOSIG
ZGKL,2025-06-10 17:00,ZGKL 101700Z VRB01MPS 9999 SCT033 OVC060 25/24 Q1008 NOSIG
ZGKL,2025-06-10 18:00,ZGKL 101800Z VRB01MPS 9999 SCT033 OVC060 25/24 Q1007 NOSIG
ZGKL,2025-06-10 19:00,ZGKL 101900Z VRB01MPS 9999 SCT040 OVC066 24/24 Q1007 NOSIG
ZGKL,2025-06-10 20:00,ZGKL 102000Z 33001MPS 9999 SCT046 BKN073 24/24 Q1007 NOSIG
ZGKL,2025-06-10 21:00,ZGKL 102100Z 34001MPS 9999 SCT050 24/24 Q1006 NOSIG
ZGKL,2025-06-10 22:00,ZGKL 102200Z VRB01MPS 9999 BKN040 BKN073 24/24 Q1007 NOSIG
ZGKL,2025-06-10 23:00,ZGKL 102300Z VRB01MPS 9999 BKN046 24/24 Q1007 NOSIG
ZGKL,2025-06-11 00:00,ZGKL 110000Z 36002MPS 9999 SCT050 25/23 Q1008 NOSIG
ZGKL,2025-06-11 01:00,ZGKL 110100Z 36003MPS 9999 FEW020 SCT050 26/23 Q1008 NOSIG
ZGKL,2025-06-11 02:00,ZGKL 110200Z VRB01MPS 9999 SCT050 27/23 Q1008 BECMG FM0300 -TSRA SCT020 FEW033CB BKN033
ZGKL,2025-06-11 03:00,ZGKL 110300Z VRB01MPS 9999 FEW033CB SCT050 27/23 Q1009 BECMG TL0310 SHRA
ZGKL,2025-06-11 04:00,ZGKL 110400Z 07002MPS 020V110 4000 -SHRA BR FEW033CB SCT040 BKN060 24/24 Q1009 NOSIG
ZGKL,2025-06-11 05:00,ZGKL 110500Z 04003MPS 4000 -SHRA BR FEW033CB BKN033 BKN060 25/24 Q1009 NOSIG
ZGKL,2025-06-11 06:00,ZGKL 110600Z VRB01MPS 4500 -SHRA BR FEW010 FEW033CB SCT033 BKN066 25/24 Q1008 BECMG TL0700 BKN040
ZGKL,2025-06-11 07:00,ZGKL 110700Z VRB01MPS 9000 -RA FEW010 SCT036 BKN070 26/24 Q1007 NOSIG
ZGKL,2025-06-11 08:00,ZGKL 110800Z VRB01MPS 9999 -RA FEW013 SCT036 OVC066 27/25 Q1007 NOSIG
ZGKL,2025-06-11 09:00,ZGKL 110900Z 34002MPS 9999 FEW023 SCT050 BKN066 27/25 Q1006 NOSIG
ZGKL,2025-06-11 10:00,ZGKL 111000Z VRB01MPS 9999 FEW013 SCT050 OVC066 26/24 Q1007 NOSIG
ZGKL,2025-06-11 11:00,ZGKL 111100Z VRB01MPS 9999 FEW013 SCT050 OVC066 26/24 Q1007 NOSIG
ZGKL,2025-06-11 12:00,ZGKL 111200Z 33001MPS 9999 FEW013 SCT050 OVC066 26/25 Q1007 NOSIG
ZGKL,2025-06-11 13:00,ZGKL 111300Z VRB01MPS 9999 FEW013 SCT050 OVC066 25/25 Q1008 NOSIG
ZGKL,2025-06-11 14:00,ZGKL 111400Z 35002MPS 9999 SCT050 OVC066 25/24 Q1008 NOSIG
ZGKL,2025-06-11 15:00,ZGKL 111500Z VRB01MPS 9999 SCT050 OVC066 25/24 Q1009 NOSIG
ZGKL,2025-06-11 16:00,ZGKL 111600Z VRB01MPS 9999 SCT050 OVC066 25/24 Q1009 NOSIG
ZGKL,2025-06-11 17:00,ZGKL 111700Z VRB01MPS 9999 SCT050 OVC066 25/24 Q1009 NOSIG
ZGKL,2025-06-11 18:00,ZGKL 111800Z VRB01MPS 9999 SCT050 OVC066 24/24 Q1008 NOSIG
ZGKL,2025-06-11 19:00,ZGKL 111900Z VRB01MPS 9999 SCT040 BKN066 24/23 Q1007 NOSIG
ZGKL,2025-06-11 20:00,ZGKL 112000Z 04001MPS 9999 FEW043 BKN066 24/23 Q1007 NOSIG
ZGKL,2025-06-11 21:00,ZGKL 112100Z 00000MPS 9999 BKN043 OVC066 24/23 Q1007 NOSIG
ZGKL,2025-06-11 22:00,ZGKL 112200Z VRB01MPS 9999 BKN043 OVC066 24/23 Q1007 NOSIG
ZGKL,2025-06-11 23:00,ZGKL 112300Z VRB01MPS 9999 BKN043 OVC066 24/23 Q1008 NOSIG
ZGKL,2025-06-12 00:00,ZGKL 120000Z 36002MPS 9999 SCT043 25/23 Q1008 NOSIG
ZGKL,2025-06-12 01:00,ZGKL 120100Z VRB01MPS 9999 SCT043 27/24 Q1008 NOSIG
ZGKL,2025-06-12 02:00,ZGKL 120200Z 09002MPS 350V110 9999 FEW043 SCT060 28/23 Q1008 NOSIG
ZGKL,2025-06-12 03:00,ZGKL 120300Z 36002MPS 330V040 9999 SCT040 BKN060 29/23 Q1008 NOSIG
ZGKL,2025-06-12 04:00,ZGKL 120400Z 04004MPS 9999 FEW040 SCT066 30/24 Q1008 NOSIG
ZGKL,2025-06-12 05:00,ZGKL 120500Z 04005MPS 9999 FEW026 SCT043 BKN073 31/24 Q1007 NOSIG
ZGKL,2025-06-12 06:00,ZGKL 120600Z 04004MPS 340V070 9999 FEW030 32/24 Q1007 NOSIG
ZGKL,2025-06-12 07:00,ZGKL 120700Z 01003MPS 320V060 9999 FEW030 32/24 Q1006 NOSIG
ZGKL,2025-06-12 08:00,ZGKL 120800Z 04003MPS 350V100 9999 FEW030 34/25 Q1005 NOSIG
ZGKL,2025-06-12 09:00,ZGKL 120900Z 02003MPS 340V060 9999 FEW030 33/24 Q1005 NOSIG
ZGKL,2025-06-12 10:00,ZGKL 121000Z 08004MPS 340V140 9999 -SHRA FEW033CB SCT033 SCT053 30/24 Q1005 BECMG TL1130 FEW030 BKN050
ZGKL,2025-06-12 11:00,ZGKL 121100Z VRB01MPS 9999 FEW033 SCT066 28/26 Q1005 NOSIG
ZGKL,2025-06-12 12:00,ZGKL 121200Z 31001MPS 9999 FEW040 SCT066 28/24 Q1006 NOSIG
ZGKL,2025-06-12 13:00,ZGKL 121300Z VRB01MPS 9999 SCT066 27/24 Q1007 NOSIG
ZGKL,2025-06-12 14:00,ZGKL 121400Z 31002MPS 290V350 9999 SCT066 27/25 Q1007 NOSIG
ZGKL,2025-06-12 15:00,ZGKL 121500Z 31002MPS 280V340 CAVOK 26/25 Q1008 NOSIG
ZGKL,2025-06-12 16:00,ZGKL 121600Z VRB01MPS CAVOK 26/25 Q1008 NOSIG
ZGKL,2025-06-12 17:00,ZGKL 121700Z 31002MPS 290V350 CAVOK 26/24 Q1007 NOSIG
ZGKL,2025-06-12 18:00,ZGKL 121800Z VRB01MPS 9999 FEW066 25/24 Q1007 NOSIG
ZGKL,2025-06-12 19:00,ZGKL 121900Z VRB01MPS CAVOK 25/24 Q1006 NOSIG
ZGKL,2025-06-12 20:00,ZGKL 122000Z 00000MPS 9999 SCT050 25/24 Q1006 NOSIG
ZGKL,2025-06-12 21:00,ZGKL 122100Z VRB01MPS 9999 SCT046 25/24 Q1006 NOSIG
ZGKL,2025-06-12 22:00,ZGKL 122200Z VRB01MPS 9999 SCT040 25/24 Q1006 NOSIG
ZGKL,2025-06-12 23:00,ZGKL 122300Z 00000MPS 9999 SCT073 25/24 Q1007 NOSIG
ZGKL,2025-06-13 00:00,ZGKL 130000Z VRB01MPS 9999 SCT050 OVC073 26/25 Q1007 NOSIG
ZGKL,2025-06-13 01:00,ZGKL 130100Z VRB01MPS 9999 SCT050 BKN073 27/25 Q1008 NOSIG
ZGKL,2025-06-13 02:00,ZGKL 130200Z VRB01MPS 9999 FEW050 BKN073 29/24 Q1008 NOSIG
ZGKL,2025-06-13 03:00,ZGKL 130300Z VRB01MPS 9999 FEW060 30/24 Q1007 NOSIG
ZGKL,2025-06-13 04:00,ZGKL 130400Z VRB01MPS 9999 FEW026 SCT060 31/25 Q1007 NOSIG
ZGKL,2025-06-13 05:00,ZGKL 130500Z VRB01MPS 9999 FEW026 SCT066 33/26 Q1006 BECMG FM0600 FEW030CB BKN050
ZGKL,2025-06-13 06:00,ZGKL 130600Z 19002MPS 110V240 9999 FEW026 33/26 Q1004 BECMG TL0700 FEW030CB BKN050
ZGKL,2025-06-13 07:00,ZGKL 130700Z VRB02MPS 9999 SCT026 FEW033CB 33/26 Q1004 BECMG FM0830 SCT030 BKN050
ZGKL,2025-06-13 08:00,COR ZGKL 130800Z 06005MPS 9999 SCT026 FEW033CB 32/24 Q1003 BECMG TL0900 36001MPS SCT030 BKN050
ZGKL,2025-06-13 09:00,ZGKL 130900Z 03006MPS 9999 SCT026 30/26 Q1003 BECMG TL1030 09001MPS
ZGKL,2025-06-13 10:00,ZGKL 131000Z 36003MPS 330V040 9999 FEW026 30/25 Q1003 NOSIG
ZGKL,2025-06-13 11:00,ZGKL 131100Z 34001MPS 9999 FEW030 SCT066 29/25 Q1004 BECMG TL1240 FEW033CB BKN050
ZGKL,2025-06-13 12:00,ZGKL 131200Z 35001MPS 9999 FEW060 28/24 Q1004 BECMG TL1240 FEW033CB BKN050
ZGKL,2025-06-13 13:00,ZGKL 131300Z VRB01MPS 9999 FEW030 SCT056 28/25 Q1005 NOSIG
ZGKL,2025-06-13 14:00,ZGKL 131400Z 13002MPS 110V170 9999 FEW030 SCT053 27/24 Q1005 NOSIG
ZGKL,2025-06-13 15:00,ZGKL 131500Z 07002MPS 040V110 9999 FEW040 SCT056 27/23 Q1005 NOSIG
ZGKL,2025-06-13 16:00,ZGKL 131600Z VRB01MPS 9999 FEW040 SCT056 26/24 Q1005 NOSIG
ZGKL,2025-06-13 17:00,ZGKL 131700Z VRB01MPS 9999 SCT050 26/24 Q1005 NOSIG
ZGKL,2025-06-13 18:00,ZGKL 131800Z 00000MPS 9999 SCT050 26/24 Q1005 NOSIG
ZGKL,2025-06-13 19:00,ZGKL 131900Z VRB01MPS 9999 FEW050 26/24 Q1004 NOSIG
ZGKL,2025-06-13 20:00,ZGKL 132000Z VRB01MPS 9999 FEW050 25/24 Q1004 NOSIG
ZGKL,2025-06-13 21:00,ZGKL 132100Z 01001MPS 9999 FEW050 25/24 Q1004 NOSIG
ZGKL,2025-06-13 22:00,ZGKL 132200Z VRB01MPS 9999 BKN050 25/24 Q1004 NOSIG
ZGKL,2025-06-13 23:00,ZGKL 132300Z VRB01MPS 9999 FEW023 BKN056 25/24 Q1005 NOSIG
ZGKL,2025-06-14 00:00,ZGKL 140000Z 36002MPS 310V020 9999 FEW020 SCT066 27/25 Q1004 NOSIG
ZGKL,2025-06-14 01:00,ZGKL 140100Z 01002MPS 340V060 9999 FEW016 SCT026 29/24 Q1005 NOSIG
ZGKL,2025-06-14 02:00,ZGKL 140200Z VRB01MPS 9999 FEW020 SCT026 31/25 Q1005 NOSIG
ZGKL,2025-06-14 03:00,ZGKL 140300Z 09002MPS 020V140 9999 FEW023 SCT066 31/25 Q1005 BECMG FM0430 FEW030CB
ZGKL,2025-06-14 04:00,ZGKL 140400Z 14003MPS 080V230 9999 FEW026TCU FEW026 32/25 Q1004 BECMG FM0500 FEW030CB
ZGKL,2025-06-14 05:00,ZGKL 140500Z VRB01MPS 9999 FEW026CB SCT026 32/25 Q1004 BECMG FM0600 FEW026
ZGKL,2025-06-14 06:00,ZGKL 140600Z 27002MPS 230V310 9999 FEW026CB FEW026 SCT053 31/24 Q1003 BECMG FM0700 SCT026
ZGKL,2025-06-14 07:00,ZGKL 140700Z 26002MPS 220V330 9999 FEW026 SCT053 33/25 Q1002 BECMG FM0800 FEW026CB SCT026
ZGKL,2025-06-14 08:00,ZGKL 140800Z VRB01MPS 9999 FEW026TCU FEW026 SCT060 33/24 Q1001 NOSIG
ZGKL,2025-06-14 09:00,ZGKL 140900Z 19002MPS 160V230 9999 FEW026 32/25 Q1000 NOSIG
ZGKL,2025-06-14 10:00,ZGKL 141000Z VRB01MPS 9999 FEW026 33/25 Q1000 NOSIG
ZGKL,2025-06-14 11:00,ZGKL 141100Z 15003MPS 110V170 9999 SCT033 SCT066 30/25 Q1000 NOSIG
ZGKL,2025-06-14 12:00,ZGKL 141200Z 15002MPS 090V200 9999 SCT033 SCT060 29/25 Q1001 NOSIG
ZGKL,2025-06-14 13:00,ZGKL 141300Z 19002MPS 150V220 9999 FEW040 28/25 Q1002 NOSIG
ZGKL,2025-06-14 14:00,ZGKL 141400Z VRB01MPS 9999 FEW040 28/25 Q1002 NOSIG
ZGKL,2025-06-14 15:00,ZGKL 141500Z VRB01MPS 9999 FEW046 27/25 Q1002 NOSIG
ZGKL,2025-06-14 16:00,ZGKL 141600Z VRB01MPS 9999 -SHRA SCT040 27/26 Q1002 NOSIG
ZGKL,2025-06-14 17:00,ZGKL 141700Z 29001MPS 9999 SCT046 27/25 Q1002 NOSIG
ZGKL,2025-06-14 18:00,ZGKL 141800Z VRB01MPS 9999 SCT046 26/25 Q1001 NOSIG
ZGKL,2025-06-14 19:00,ZGKL 141900Z VRB01MPS 9999 SCT050 26/25 Q1001 NOSIG
ZGKL,2025-06-14 20:00,ZGKL 142000Z 27002MPS 9999 -DZ SCT043 26/25 Q1000 NOSIG
ZGKL,2025-06-14 21:00,ZGKL 142100Z VRB01MPS 9999 SCT053 26/25 Q1000 NOSIG
ZGKL,2025-06-14 22:00,ZGKL 142200Z VRB01MPS 9999 FEW043 SCT060 26/25 Q1001 NOSIG
ZGKL,2025-06-14 23:00,ZGKL 142300Z VRB01MPS 9999 -SHRA FEW033CB SCT033 BKN056 26/25 Q1001 BECMG TL0030 BKN030
ZGKL,2025-06-15 00:00,ZGKL 150000Z 20002MPS 9999 FEW040 SCT060 26/25 Q1002 BECMG FM0100 FEW030CB
ZGKL,2025-06-15 01:00,ZGKL 150100Z 14002MPS 110V190 9999 FEW030CB FEW046 28/26 Q1003 BECMG FM0200 FEW030
ZGKL,2025-06-15 02:00,ZGKL 150200Z 15002MPS 080V200 9999 FEW023 30/26 Q1003 NOSIG
ZGKL,2025-06-15 03:00,ZGKL 150300Z 19003MPS 160V230 9999 FEW026 31/26 Q1003 NOSIG
ZGKL,2025-06-15 04:00,ZGKL 150400Z 13002MPS 080V180 9999 FEW026TCU FEW026 32/26 Q1003 BECMG FM0530 FEW030CB BKN040
ZGKL,2025-06-15 05:00,ZGKL 150500Z 34002MPS 290V030 9999 -SHRA FEW020 FEW026CB SCT026 32/26 Q1002 TEMPO FM0630 TSRA
ZGKL,2025-06-15 06:00,ZGKL 150600Z VRB02MPS 9999 FEW026CB FEW026 34/26 Q1002 TEMPO FM0730 TSRA
ZGKL,2025-06-15 07:00,ZGKL 150700Z 16005MPS 9999 -SHRA FEW026 FEW033CB SCT033 30/25 Q1002 TEMPO FM0830 TSRA
ZGKL,2025-06-15 08:00,ZGKL 150800Z 14004MPS 100V170 9999 -SHRA FEW030CB SCT030 BKN060 25/24 Q1003 RETSRA BECMG FM0830 TSRA
ZGKL,2025-06-15 09:00,ZGKL 150900Z 19002MPS 150V220 9999 FEW033 27/24 Q1003 NOSIG
ZGKL,2025-06-15 10:00,ZGKL 151000Z 00000MPS 9999 SCT056 28/24 Q1003 NOSIG
ZGKL,2025-06-15 11:00,ZGKL 151100Z VRB02G07MPS 9999 SCT066 27/25 Q1003 NOSIG
ZGKL,2025-06-15 12:00,ZGKL 151200Z 15002MPS 9999 FEW043 BKN066 26/25 Q1004 NOSIG
ZGKL,2025-06-15 13:00,ZGKL 151300Z 00000MPS 9999 FEW043 SCT066 26/25 Q1005 NOSIG
ZGKL,2025-06-15 14:00,ZGKL 151400Z VRB01MPS 9999 FEW033 SCT066 26/25 Q1006 NOSIG
ZGKL,2025-06-15 15:00,ZGKL 151500Z 33001MPS 9999 FEW033 SCT060 26/25 Q1006 NOSIG
ZGKL,2025-06-15 16:00,ZGKL 151600Z 17003MPS 9999 FEW033 SCT060 25/25 Q1006 NOSIG
ZGKL,2025-06-15 17:00,ZGKL 151700Z VRB01MPS 9999 SCT040 BKN066 25/25 Q1006 NOSIG
ZGKL,2025-06-15 18:00,ZGKL 151800Z 00000MPS 9999 FEW066 25/25 Q1006 NOSIG
ZGKL,2025-06-15 19:00,ZGKL 151900Z 18001MPS 7000 -RA FEW015 BKN060 25/25 Q1006 NOSIG
ZGKL,2025-06-15 20:00,ZGKL 152000Z 00000MPS 8000 FEW013 BKN066 25/25 Q1006 NOSIG
ZGKL,2025-06-15 21:00,ZGKL 152100Z VRB01MPS 8000 FEW013 SCT040 BKN066 25/25 Q1006 NOSIG
ZGKL,2025-06-15 22:00,ZGKL 152200Z 00000MPS 4000 BR FEW043 SCT066 25/25 Q1007 BECMG FM2320 2000 +TSRA FEW030CB SCT033 BKN050
ZGKL,2025-06-15 23:00,ZGKL 152300Z 18002MPS 4500 BR FEW023 SCT043 OVC060 25/24 Q1007 BECMG FM2340 2000 +TSRA FEW030CB SCT033 BKN050
ZGKL,2025-06-16 00:00,ZGKL 160000Z VRB01MPS 5000 BR FEW033CB SCT043 BKN060 26/25 Q1008 NOSIG
ZGKL,2025-06-16 01:00,ZGKL 160100Z 18002MPS 130V220 9999 FEW010 SCT043 BKN060 27/24 Q1008 NOSIG
ZGKL,2025-06-16 02:00,ZGKL 160200Z 19002MPS 170V230 9999 FEW010 SCT043 BKN060 27/24 Q1008 NOSIG
ZGKL,2025-06-16 03:00,ZGKL 160300Z 18003MPS 140V230 9999 FEW020 SCT040 29/24 Q1007 NOSIG
ZGKL,2025-06-16 04:00,ZGKL 160400Z 14003MPS 090V180 9999 FEW020 SCT040 BKN060 29/25 Q1006 BECMG FM0420 SHRA FEW030CB BKN050
ZGKL,2025-06-16 05:00,ZGKL 160500Z VRB01MPS 9999 -SHRA FEW016 FEW036CB SCT036 BKN060 27/26 Q1006 RESHRA BECMG TL0600 SCT033
ZGKL,2025-06-16 06:00,ZGKL 160600Z 11002MPS 060V170 9999 FEW030 SCT043 BKN066 30/26 Q1005 BECMG FM0700 FEW033 FEW033CB BKN050
ZGKL,2025-06-16 07:00,ZGKL 160700Z 35002MPS 300V030 9999 FEW026TCU FEW026 SCT043 BKN066 30/26 Q1004 BECMG TL0800 FEW033CB BKN050
ZGKL,2025-06-16 08:00,ZGKL 160800Z 04002MPS 350V100 9999 FEW026CB FEW026 BKN060 32/26 Q1004 BECMG TL0900 FEW033 BKN050
ZGKL,2025-06-16 09:00,ZGKL 160900Z VRB01MPS 9999 FEW020 FEW030CB SCT060 30/26 Q1004 BECMG TL1000 FEW033 BKN050
ZGKL,2025-06-16 10:00,ZGKL 161000Z 07002MPS 030V110 9999 FEW030TCU FEW030 SCT056 29/27 Q1004 NOSIG
ZGKL,2025-06-16 11:00,ZGKL 161100Z 13005MPS 9999 SCT030 FEW040CB BKN056 28/25 Q1004 BECMG FM1230 02001MPS SCT030 BKN050
ZGKL,2025-06-16 12:00,ZGKL 161200Z 13003MPS 100V160 8000 -SHRA FEW020 SCT030 FEW040CB BKN056 25/24 Q1005 RESHRA BECMG TL1300 SCT030 BKN050
ZGKL,2025-06-16 13:00,ZGKL 161300Z 12004MPS 080V150 8000 SCT033 OVC073 25/24 Q1007 NOSIG
ZGKL,2025-06-16 14:00,ZGKL 161400Z 14003MPS 100V180 8000 -SHRA SCT033 OVC073 25/24 Q1007 NOSIG
ZGKL,2025-06-16 15:00,ZGKL 161500Z VRB01MPS 8000 -SHRA BKN050 OVC073 25/24 Q1007 NOSIG
ZGKL,2025-06-16 16:00,ZGKL 161600Z 36002MPS 9999 BKN050 OVC073 25/24 Q1007 NOSIG
ZGKL,2025-06-16 17:00,ZGKL 161700Z 12002MPS 9999 SCT033 OVC053 25/24 Q1007 NOSIG
ZGKL,2025-06-16 18:00,ZGKL 161800Z VRB01MPS 9999 SCT033 OVC053 25/24 Q1007 NOSIG
ZGKL,2025-06-16 19:00,ZGKL 161900Z 21001MPS 8000 -RA SCT033 OVC053 25/24 Q1007 NOSIG
ZGKL,2025-06-16 20:00,ZGKL 162000Z 14002MPS 9999 -RA FEW016 SCT033 OVC056 24/24 Q1007 NOSIG
ZGKL,2025-06-16 21:00,ZGKL 162100Z VRB01MPS 9999 SCT030 OVC056 24/24 Q1006 NOSIG
ZGKL,2025-06-16 22:00,ZGKL 162200Z 00000MPS 9999 -RA FEW010 SCT030 OVC056 24/24 Q1007 NOSIG
ZGKL,2025-06-16 23:00,ZGKL 162300Z VRB01MPS 6000 -RA FEW010 SCT030 OVC056 25/24 Q1007 NOSIG
ZGKL,2025-06-17 00:00,ZGKL 170000Z VRB01MPS 8000 FEW010 SCT030 OVC056 25/24 Q1007 NOSIG
ZGKL,2025-06-17 01:00,ZGKL 170100Z 11002MPS 8000 FEW006 SCT030 OVC053 25/24 Q1008 NOSIG
ZGKL,2025-06-17 02:00,ZGKL 170200Z VRB01MPS 6000 -RA FEW006 SCT010 BKN026 26/25 Q1008 BECMG FM0240 2000 -TSRA FEW030CB SCT033 BKN050
ZGKL,2025-06-17 03:00,ZGKL 170300Z VRB01MPS 8000 SCT010 FEW026CB SCT026 BKN043 26/25 Q1007 BECMG FM0340 2500 TSRA
ZGKL,2025-06-17 04:00,ZGKL 170400Z 11002MPS 2500 -SHRA BR FEW010 FEW026CB SCT026 BKN040 26/25 Q1007 RESHRA BECMG FM0500 3000 -RA FEW010 SCT030 BKN050
ZGKL,2025-06-17 05:00,ZGKL 170500Z VRB01MPS 8000 -SHRA FEW010 FEW026CB SCT026 BKN040 26/25 Q1007 BECMG FM0600 SCT020 OVC040
ZGKL,2025-06-17 06:00,ZGKL 170600Z 00000MPS 9999 FEW013 SCT033 27/25 Q1006 NOSIG
ZGKL,2025-06-17 07:00,ZGKL 170700Z VRB01MPS 9999 FEW013 FEW026CB SCT026 28/25 Q1005 NOSIG
ZGKL,2025-06-17 08:00,ZGKL 170800Z VRB01MPS 9999 FEW023CB FEW023 SCT030 30/26 Q1004 NOSIG
ZGKL,2025-06-17 09:00,ZGKL 170900Z 13002MPS 040V190 9999 FEW023CB FEW023 SCT060 30/26 Q1004 BECMG FM1030 SHRA
ZGKL,2025-06-17 10:00,ZGKL 171000Z VRB01MPS 9999 FEW015 FEW026CB SCT026 31/26 Q1004 BECMG FM1100 -TSRA
ZGKL,2025-06-17 11:00,ZGKL 171100Z 16008MPS 130V190 3000 +SHRA FEW006 FEW026CB SCT026 BKN040 26/25 Q1005 BECMG FM1230 VRB01MPS -SHRA
ZGKL,2025-06-17 12:00,ZGKL 171200Z VRB01MPS 8000 -SHRA FEW010 FEW033CB SCT033 BKN050 25/25 Q1005 RESHRA BECMG TL1250 FEW010 SCT033 BKN050
ZGKL,2025-06-17 13:00,ZGKL 171300Z VRB01MPS 8000 -RA FEW010 SCT026 OVC046 25/25 Q1006 NOSIG
ZGKL,2025-06-17 14:00,ZGKL 171400Z VRB01MPS 6000 -RA FEW006 SCT026 OVC040 25/25 Q1007 NOSIG
ZGKL,2025-06-17 15:00,ZGKL 171500Z VRB01MPS 8000 -DZ FEW010 SCT026 OVC046 25/25 Q1007 NOSIG
ZGKL,2025-06-17 16:00,ZGKL 171600Z 16002MPS 8000 FEW013 SCT030 OVC053 25/25 Q1007 NOSIG
ZGKL,2025-06-17 17:00,ZGKL 171700Z 14003MPS 8000 FEW013 SCT026 OVC046 25/24 Q1006 NOSIG
ZGKL,2025-06-17 18:00,ZGKL 171800Z 13002MPS 8000 FEW013 SCT030 OVC053 25/24 Q1006 NOSIG
ZGKL,2025-06-17 19:00,ZGKL 171900Z 15002MPS 9999 -RA SCT030 OVC056 25/24 Q1005 NOSIG
ZGKL,2025-06-17 20:00,ZGKL 172000Z 13003MPS 9999 -SHRA FEW015 SCT030 OVC050 25/24 Q1005 NOSIG
ZGKL,2025-06-17 21:00,ZGKL 172100Z 13003MPS 9999 -SHRA FEW016 FEW033TCU SCT033 BKN053 25/24 Q1005 NOSIG
ZGKL,2025-06-17 22:00,ZGKL 172200Z 12002MPS 9999 -DZ FEW016 SCT026 OVC043 25/24 Q1005 NOSIG
ZGKL,2025-06-17 23:00,ZGKL 172300Z VRB01MPS 9999 FEW016 SCT033 OVC050 25/24 Q1005 NOSIG
ZGKL,2025-06-18 00:00,ZGKL 180000Z 00000MPS 9999 FEW011 SCT033 OVC053 25/25 Q1006 NOSIG
ZGKL,2025-06-18 01:00,ZGKL 180100Z VRB01MPS 8000 -SHRA FEW010 SCT026 OVC053 26/25 Q1006 BECMG FM0200 FEW030CB
ZGKL,2025-06-18 02:00,ZGKL 180200Z VRB01MPS 9000 -SHRA FEW020 FEW033CB SCT033 BKN053 26/25 Q1006 BECMG TL0330 BKN030
ZGKL,2025-06-18 03:00,ZGKL 180300Z 16003MPS 130V190 9000 -SHRA FEW020 FEW030CB SCT030 BKN050 27/25 Q1006 NOSIG
ZGKL,2025-06-18 04:00,ZGKL 180400Z 15004MPS 110V170 9000 -SHRA FEW016 FEW033CB SCT033 BKN050 26/25 Q1006 NOSIG
ZGKL,2025-06-18 05:00,ZGKL 180500Z 16005MPS 9000 -SHRA FEW010 FEW033CB SCT033 BKN050 26/25 Q1005 BECMG FM0540 TSRA
ZGKL,2025-06-18 06:00,ZGKL 180600Z 16005MPS 120V190 6000 -SHRA FEW004 FEW033CB SCT033 BKN050 25/24 Q1005 RESHRA NOSIG
ZGKL,2025-06-18 07:00,ZGKL 180700Z 14004MPS 7000 -SHRA FEW010 FEW030CB SCT030 BKN050 25/25 Q1004 BECMG FM0730 SHRA
ZGKL,2025-06-18 08:00,ZGKL 180800Z 15004MPS 5000 -SHRA BR FEW011 FEW030CB BKN030 BKN050 25/25 Q1004 BECMG FM0820 2000 SHRA
ZGKL,2025-06-18 09:00,ZGKL 180900Z 13002MPS 090V170 4000 -SHRA BR FEW011 FEW030CB BKN030 BKN050 24/24 Q1003 RESHRA NOSIG
ZGKL,2025-06-18 10:00,ZGKL 181000Z 13004MPS 9999 -RA FEW013 BKN026 OVC053 25/24 Q1004 RESHRA NOSIG
ZGKL,2025-06-18 11:00,ZGKL 181100Z 13003MPS 070V160 9999 -RA FEW010 SCT033 OVC050 25/24 Q1004 NOSIG
ZGKL,2025-06-18 12:00,ZGKL 181200Z 14002MPS 9999 FEW013 SCT033 OVC050 25/24 Q1004 NOSIG
ZGKL,2025-06-18 13:00,ZGKL 181300Z 14002MPS 100V170 9999 SCT036 OVC053 25/24 Q1004 NOSIG
ZGKL,2025-06-18 14:00,ZGKL 181400Z VRB01MPS 9999 -RA SCT030 OVC050 25/24 Q1005 NOSIG
ZGKL,2025-06-18 15:00,ZGKL 181500Z 20001MPS 9999 -RA SCT033 OVC053 25/24 Q1006 NOSIG
ZGKL,2025-06-18 16:00,ZGKL 181600Z VRB01MPS 9999 SCT043 OVC066 25/24 Q1005 NOSIG
ZGKL,2025-06-18 17:00,ZGKL 181700Z 17003MPS 9999 SCT043 OVC066 25/24 Q1004 NOSIG
ZGKL,2025-06-18 18:00,ZGKL 181800Z 18002MPS 9999 SCT043 OVC066 25/24 Q1004 NOSIG
ZGKL,2025-06-18 19:00,ZGKL 181900Z VRB01MPS 9999 -RA SCT033 OVC060 25/24 Q1003 NOSIG
ZGKL,2025-06-18 20:00,ZGKL 182000Z 17002MPS 9999 -RA SCT040 OVC066 25/24 Q1004 NOSIG
ZGKL,2025-06-18 21:00,ZGKL 182100Z 13002MPS 9999 -RA SCT040 OVC066 25/24 Q1004 NOSIG
ZGKL,2025-06-18 22:00,ZGKL 182200Z 13002MPS 9999 -SHRA FEW013 SCT030 OVC053 25/24 Q1004 BECMG FM2230 SHRA FEW030CB
ZGKL,2025-06-18 23:00,ZGKL 182300Z 14003MPS 9000 -SHRA FEW033CB SCT033 BKN050 25/24 Q1005 BECMG TL0030 BKN040
ZGKL,2025-06-19 00:00,ZGKL 190000Z 15002MPS 9999 SCT040 OVC056 25/24 Q1005 NOSIG
ZGKL,2025-06-19 01:00,ZGKL 190100Z 13002MPS 9999 FEW016 SCT040 OVC056 25/24 Q1005 NOSIG
ZGKL,2025-06-19 02:00,ZGKL 190200Z 17003MPS 9999 -RA FEW020 SCT036 OVC056 26/24 Q1006 NOSIG
ZGKL,2025-06-19 03:00,ZGKL 190300Z 14002MPS 9999 FEW020 SCT036 BKN056 26/25 Q1006 NOSIG
ZGKL,2025-06-19 04:00,ZGKL 190400Z 15002MPS 100V180 9999 -RA FEW016 SCT033 OVC056 27/25 Q1006 BECMG FM0500 FEW033CB BKN050
ZGKL,2025-06-19 05:00,ZGKL 190500Z VRB01MPS 9999 FEW010 SCT033 OVC056 27/25 Q1006 BECMG FM0630 FEW030CB BKN050
ZGKL,2025-06-19 06:00,ZGKL 190600Z VRB01MPS 9999 -SHRA FEW010 FEW033CB SCT040 BKN060 27/26 Q1005 BECMG FM0730 SCT030 BKN050
ZGKL,2025-06-19 07:00,ZGKL 190700Z VRB01MPS 9999 FEW010 SCT040 OVC060 26/26 Q1004 NOSIG
ZGKL,2025-06-19 08:00,ZGKL 190800Z VRB01MPS 9999 FEW010 SCT033 OVC060 26/26 Q1004 NOSIG
ZGKL,2025-06-19 09:00,ZGKL 190900Z 00000MPS 9999 FEW010 SCT033 BKN060 27/25 Q1003 NOSIG
ZGKL,2025-06-19 10:00,ZGKL 191000Z VRB01MPS 9999 FEW010 SCT043 OVC066 27/25 Q1003 NOSIG
ZGKL,2025-06-19 11:00,ZGKL 191100Z VRB01MPS 9999 FEW016 SCT036 OVC056 26/26 Q1004 NOSIG
ZGKL,2025-06-19 12:00,ZGKL 191200Z VRB01MPS 5000 -SHRA BR FEW010 FEW036CB SCT036 BKN056 26/25 Q1004 BECMG TL1220 SHRA
ZGKL,2025-06-19 13:00,ZGKL 191300Z VRB01MPS 8000 FEW036CB SCT036 BKN056 25/25 Q1005 RESHRA BECMG FM1400 SCT033 OVC050
ZGKL,2025-06-19 14:00,ZGKL 191400Z VRB01MPS 6000 -SHRA FEW040CB SCT040 BKN060 25/25 Q1005 BECMG TL1500 SCT033 OVC050
ZGKL,2025-06-19 15:00,ZGKL 191500Z VRB01MPS 5000 BR FEW004 SCT043 BKN066 25/25 Q1005 NOSIG
ZGKL,2025-06-19 16:00,ZGKL 191600Z VRB01MPS 5000 BR FEW004 SCT043 OVC066 25/25 Q1005 NOSIG
ZGKL,2025-06-19 17:00,ZGKL 191700Z VRB01MPS 6000 FEW003 SCT033 OVC066 25/25 Q1005 NOSIG
ZGKL,2025-06-19 18:00,ZGKL 191800Z 15002MPS 120V180 6000 -RA FEW005 BKN030 OVC060 26/25 Q1004 NOSIG
ZGKL,2025-06-19 19:00,ZGKL 191900Z 15002MPS 110V180 6000 -RA BKN040 OVC066 26/25 Q1005 NOSIG
ZGKL,2025-06-19 20:00,ZGKL 192000Z 16002MPS 8000 BKN040 OVC066 26/24 Q1004 NOSIG
ZGKL,2025-06-19 21:00,ZGKL 192100Z 16003MPS 8000 -RA BKN040 OVC066 26/24 Q1005 NOSIG
ZGKL,2025-06-19 22:00,ZGKL 192200Z 17004MPS 9999 -RA SCT040 OVC066 25/24 Q1005 NOSIG
ZGKL,2025-06-19 23:00,ZGKL 192300Z VRB01MPS 9999 -RA SCT040 OVC066 25/24 Q1005 NOSIG
ZGKL,2025-06-20 00:00,ZGKL 200000Z VRB01MPS 9999 FEW023 SCT040 OVC066 25/24 Q1006 NOSIG
ZGKL,2025-06-20 01:00,ZGKL 200100Z VRB01MPS 9999 FEW023 SCT036 OVC066 26/25 Q1006 NOSIG
ZGKL,2025-06-20 02:00,ZGKL 200200Z VRB01MPS 9999 -RA BKN036 OVC060 26/25 Q1006 NOSIG
ZGKL,2025-06-20 03:00,ZGKL 200300Z VRB01MPS 9999 BKN036 OVC060 26/25 Q1006 NOSIG
ZGKL,2025-06-20 04:00,ZGKL 200400Z VRB01MPS 9999 FEW023 BKN036 OVC060 28/25 Q1006 NOSIG
ZGKL,2025-06-20 05:00,ZGKL 200500Z 18004MPS 9999 -RA FEW023 SCT036 OVC050 30/25 Q1005 NOSIG
ZGKL,2025-06-20 06:00,ZGKL 200600Z 19005MPS 9999 FEW016 SCT033 OVC053 29/25 Q1005 NOSIG
ZGKL,2025-06-20 07:00,ZGKL 200700Z 18003MPS 9999 SCT033 OVC053 29/25 Q1004 NOSIG
ZGKL,2025-06-20 08:00,ZGKL 200800Z 18003MPS 9999 SCT036 OVC056 29/25 Q1004 NOSIG
ZGKL,2025-06-20 09:00,ZGKL 200900Z 17003MPS 9999 SCT033 OVC046 28/25 Q1004 BECMG FM1000 SHRA FEW030CB
ZGKL,2025-06-20 10:00,ZGKL 201000Z 21002MPS 190V250 9999 FEW030CB SCT030 BKN043 28/25 Q1004 BECMG TL1130 BKN030
ZGKL,2025-06-20 11:00,ZGKL 201100Z VRB01MPS 9999 FEW023 SCT036 OVC060 27/25 Q1004 NOSIG
ZGKL,2025-06-20 12:00,ZGKL 201200Z VRB01MPS 9999 FEW020 SCT033 OVC053 26/25 Q1005 NOSIG
ZGKL,2025-06-20 13:00,ZGKL 201300Z 27001MPS 9999 SCT040 OVC066 26/25 Q1006 NOSIG
ZGKL,2025-06-20 14:00,ZGKL 201400Z VRB01MPS 9999 SCT043 OVC073 26/25 Q1006 NOSIG
ZGKL,2025-06-20 15:00,ZGKL 201500Z VRB01MPS 8000 SCT040 OVC066 25/25 Q1006 NOSIG
ZGKL,2025-06-20 16:00,ZGKL 201600Z 00000MPS 8000 SCT040 OVC066 25/25 Q1006 NOSIG
ZGKL,2025-06-20 17:00,ZGKL 201700Z VRB01MPS 8000 SCT040 OVC066 25/25 Q1006 NOSIG
ZGKL,2025-06-20 18:00,ZGKL 201800Z VRB01MPS 8000 FEW040 OVC066 25/25 Q1005 NOSIG
ZGKL,2025-06-20 19:00,ZGKL 201900Z VRB01MPS 8000 SCT046 OVC066 25/25 Q1005 NOSIG
ZGKL,2025-06-20 20:00,ZGKL 202000Z VRB01MPS 8000 SCT050 OVC066 25/25 Q1005 NOSIG
ZGKL,2025-06-20 21:00,ZGKL 202100Z VRB01MPS 8000 SCT040 OVC053 25/25 Q1005 NOSIG
ZGKL,2025-06-20 22:00,ZGKL 202200Z 00000MPS 9000 FEW020 SCT033 OVC056 25/25 Q1005 NOSIG
ZGKL,2025-06-20 23:00,ZGKL 202300Z VRB01MPS 9999 FEW020 FEW033CB SCT040 BKN060 26/25 Q1006 BECMG FM0020 SCT040 BKN060
ZGKL,2025-06-21 00:00,ZGKL 210000Z VRB01MPS 9999 FEW018 FEW033CB SCT036 BKN056 26/24 Q1006 BECMG TL0100 SCT020 OVC050
ZGKL,2025-06-21 01:00,ZGKL 210100Z 17002MPS 110V210 9999 -RA FEW020 SCT036 OVC060 27/27 Q1007 NOSIG
ZGKL,2025-06-21 02:00,ZGKL 210200Z 17003MPS 130V200 9999 FEW013 SCT043 OVC060 28/27 Q1007 NOSIG
ZGKL,2025-06-21 03:00,ZGKL 210300Z 16004MPS 140V200 9999 FEW023 SCT033 OVC060 29/26 Q1007 BECMG FM0400 SHRA FEW013 FEW030CB BKN040
ZGKL,2025-06-21 04:00,ZGKL 210400Z 18005MPS 9999 -SHRA FEW023 FEW040CB SCT040 BKN066 28/27 Q1007 BECMG FM0540 SHRA
ZGKL,2025-06-21 05:00,ZGKL 210500Z 18004MPS 150V210 9999 FEW023 SCT040 BKN070 30/26 Q1006 BECMG FM0550 SHRA FEW030CB SCT033 BKN060
ZGKL,2025-06-21 06:00,ZGKL 210600Z 18003MPS 9999 -SHRA FEW023 FEW036CB SCT036 BKN066 29/26 Q1006 BECMG FM0700 FEW020 SCT033 BKN060
ZGKL,2025-06-21 07:00,ZGKL 210700Z 23002MPS 190V270 9999 FEW043 SCT066 32/26 Q1005 BECMG FM0800 FEW030CB SCT033 BKN060
ZGKL,2025-06-21 08:00,ZGKL 210800Z 17004MPS 9999 FEW020 FEW040CB SCT040 BKN060 29/26 Q1005 BECMG FM0840 2500 TSRA
ZGKL,2025-06-21 09:00,ZGKL 210900Z VRB01MPS 9999 -SHRA FEW016 SCT040 BKN070 27/27 Q1005 NOSIG
ZGKL,2025-06-21 10:00,ZGKL 211000Z VRB01MPS 6000 -SHRA FEW016 SCT033 OVC056 26/26 Q1006 NOSIG
ZGKL,2025-06-21 11:00,ZGKL 211100Z 16003MPS 130V200 9999 FEW011 SCT043 OVC060 26/25 Q1006 NOSIG
ZGKL,2025-06-21 12:00,ZGKL 211200Z VRB01MPS 9999 FEW023 SCT046 OVC066 25/24 Q1007 NOSIG
ZGKL,2025-06-21 13:00,ZGKL 211300Z 19001MPS 9999 SCT050 OVC066 25/24 Q1008 NOSIG
ZGKL,2025-06-21 14:00,ZGKL 211400Z VRB01MPS 9999 SCT046 OVC066 25/24 Q1008 NOSIG
ZGKL,2025-06-21 15:00,ZGKL 211500Z 00000MPS 9999 SCT040 OVC066 25/24 Q1008 NOSIG
ZGKL,2025-06-21 16:00,ZGKL 211600Z VRB01MPS 9999 SCT040 OVC066 25/24 Q1008 NOSIG
ZGKL,2025-06-21 17:00,ZGKL 211700Z VRB01MPS 9999 SCT040 OVC066 25/24 Q1008 NOSIG
ZGKL,2025-06-21 18:00,ZGKL 211800Z VRB01MPS 9999 SCT040 OVC066 24/24 Q1007 NOSIG
ZGKL,2025-06-21 19:00,ZGKL 211900Z 00000MPS 9999 SCT040 OVC066 24/24 Q1007 NOSIG
ZGKL,2025-06-21 20:00,ZGKL 212000Z VRB01MPS 9999 SCT033 OVC060 24/24 Q1007 NOSIG
ZGKL,2025-06-21 21:00,ZGKL 212100Z VRB01MPS 9999 SCT033 OVC060 24/24 Q1007 NOSIG
ZGKL,2025-06-21 22:00,ZGKL 212200Z 00000MPS 3000 BR FEW011 SCT033 OVC056 24/24 Q1007 NOSIG
ZGKL,2025-06-21 23:00,ZGKL 212300Z VRB01MPS 3000 -RA BR FEW011 BKN033 OVC053 25/24 Q1008 NOSIG
ZGKL,2025-06-22 00:00,ZGKL 220000Z 00000MPS 4000 BR FEW004 SCT060 25/25 Q1008 NOSIG
ZGKL,2025-06-22 01:00,ZGKL 220100Z 00000MPS 8000 FEW033 BKN060 26/24 Q1008 BECMG TL0200 FEW030CB BKN050
ZGKL,2025-06-22 02:00,ZGKL 220200Z VRB01MPS 8000 FEW033 OVC060 26/25 Q1009 BECMG TL0330 FEW030CB BKN050
ZGKL,2025-06-22 03:00,ZGKL 220300Z 18003MPS 160V220 8000 FEW033 FEW040CB BKN060 28/25 Q1008 BECMG TL0400 SCT030 BKN050
ZGKL,2025-06-22 04:00,ZGKL 220400Z 17004MPS 140V200 9999 FEW016 OVC060 29/25 Q1008 BECMG TL0500 FEW030CB BKN050
ZGKL,2025-06-22 05:00,ZGKL 220500Z 18004MPS 9999 FEW016 SCT043 OVC060 29/25 Q1007 BECMG TL0530 FEW030CB BKN050
ZGKL,2025-06-22 06:00,ZGKL 220600Z 18004MPS 9999 FEW020 FEW043CB SCT043 BKN066 28/25 Q1006 BECMG FM0700 BKN050
ZGKL,2025-06-22 07:00,ZGKL 220700Z 17005MPS 120V200 9999 FEW026 SCT053 31/25 Q1006 BECMG FM0830 FEW030CB BKN050
ZGKL,2025-06-22 08:00,ZGKL 220800Z 15004MPS 110V190 9999 FEW026 31/26 Q1005 BECMG FM0900 FEW030CB BKN050
ZGKL,2025-06-22 09:00,ZGKL 220900Z 11003MPS 090V150 9999 FEW026 FEW040CB SCT040 BKN066 30/26 Q1005 BECMG FM1030 BKN050
ZGKL,2025-06-22 10:00,ZGKL 221000Z 12002MPS 080V170 9999 FEW030TCU FEW030 SCT046 BKN066 29/26 Q1005 BECMG FM1130 TSRA FEW030CB BKN050
ZGKL,2025-06-22 11:00,ZGKL 221100Z 35002MPS 9999 FEW020 FEW030CB SCT040 BKN066 28/26 Q1006 BECMG FM1120 TSRA
ZGKL,2025-06-22 12:00,ZGKL 221200Z VRB02MPS 6000 -TSRA FEW020 FEW030CB SCT040 BKN066 25/25 Q1006 RESHRA BECMG TL1300 -SHRA
ZGKL,2025-06-22 13:00,ZGKL 221300Z VRB01MPS 6000 -SHRA FEW020 FEW033CB SCT040 BKN060 25/25 Q1007 RETS BECMG TL1400 SCT030 BKN050
ZGKL,2025-06-22 14:00,ZGKL 221400Z 28001MPS 8000 -RA FEW020 SCT040 OVC060 25/25 Q1008 NOSIG
ZGKL,2025-06-22 15:00,ZGKL 221500Z VRB01MPS 8000 FEW020 SCT040 OVC060 25/25 Q1008 NOSIG
ZGKL,2025-06-22 16:00,ZGKL 221600Z VRB01MPS 9999 SCT040 BKN060 25/25 Q1007 NOSIG
ZGKL,2025-06-22 17:00,ZGKL 221700Z VRB01MPS 9999 FEW010 SCT026 BKN066 25/25 Q1007 NOSIG
ZGKL,2025-06-22 18:00,ZGKL 221800Z VRB01MPS 9999 SCT033 BKN066 25/25 Q1006 NOSIG
ZGKL,2025-06-22 19:00,ZGKL 221900Z VRB01MPS 5000 BR FEW005 SCT033 BKN066 25/25 Q1006 NOSIG
ZGKL,2025-06-22 20:00,ZGKL 222000Z 18001MPS 2500 BR PRFG FEW001 SCT006 BKN066 25/25 Q1006 NOSIG
ZGKL,2025-06-22 21:00,ZGKL 222100Z VRB01MPS 5000 BR BCFG FEW005 SCT043 BKN066 25/25 Q1006 NOSIG
ZGKL,2025-06-22 22:00,ZGKL 222200Z 00000MPS 5000 BR BCFG FEW005 SCT043 BKN073 25/25 Q1006 NOSIG
ZGKL,2025-06-22 23:00,ZGKL 222300Z 15002MPS 100V170 8000 FEW005 SCT046 25/24 Q1006 NOSIG
ZGKL,2025-06-23 00:00,ZGKL 230000Z VRB01MPS 9999 FEW005 SCT046 26/25 Q1006 NOSIG
ZGKL,2025-06-23 01:00,ZGKL 230100Z VRB01MPS 9999 FEW011 SCT040 28/25 Q1006 NOSIG
ZGKL,2025-06-23 02:00,ZGKL 230200Z 20003MPS 170V230 9999 FEW020 SCT026 BKN040 29/25 Q1006 BECMG FM0330 FEW030CB
ZGKL,2025-06-23 03:00,ZGKL 230300Z 19004MPS 9999 -RA FEW020 SCT030 BKN053 29/25 Q1006 BECMG FM0400 FEW030CB
ZGKL,2025-06-23 04:00,ZGKL 230400Z 17005MPS 9999 FEW023 FEW030CB SCT030 BKN046 30/25 Q1006 BECMG TL0530 BKN040
ZGKL,2025-06-23 05:00,ZGKL 230500Z 22002MPS 190V280 9999 FEW020 FEW030CB SCT030 BKN053 29/26 Q1006 NOSIG
ZGKL,2025-06-23 06:00,ZGKL 230600Z 34002MPS 270V040 9999 FEW020 FEW030CB SCT030 BKN053 28/25 Q1005 NOSIG
ZGKL,2025-06-23 07:00,ZGKL 230700Z 36002MPS 320V030 9999 FEW020 FEW026CB SCT036 BKN060 29/25 Q1004 NOSIG
ZGKL,2025-06-23 08:00,ZGKL 230800Z VRB01MPS 9999 FEW026CB SCT043 BKN073 31/25 Q1003 BECMG FM0900 SCT033
ZGKL,2025-06-23 09:00,ZGKL 230900Z VRB01MPS 9999 FEW026CB SCT043 30/25 Q1003 BECMG TL1000 SCT033
ZGKL,2025-06-23 10:00,ZGKL 231000Z 34002MPS 9999 FEW026CB SCT050 29/26 Q1003 BECMG TL1025 TSRA
ZGKL,2025-06-23 11:00,ZGKL 231100Z VRB01MPS 9999 -SHRA FEW026CB FEW026 SCT050 28/26 Q1004 BECMG FM1200 SHRA
ZGKL,2025-06-23 12:00,ZGKL 231200Z 00000MPS 9999 -SHRA FEW026CB FEW026 BKN053 27/26 Q1004 BECMG TL1330 BKN040
ZGKL,2025-06-23 13:00,ZGKL 231300Z 34002MPS 9999 -SHRA FEW030 BKN053 26/26 Q1005 NOSIG
ZGKL,2025-06-23 14:00,ZGKL 231400Z 00000MPS 9999 SCT053 26/26 Q1005 NOSIG
ZGKL,2025-06-23 15:00,ZGKL 231500Z 28001MPS 9999 SCT053 26/26 Q1006 NOSIG
ZGKL,2025-06-23 16:00,ZGKL 231600Z 00000MPS 8000 BKN043 26/25 Q1006 NOSIG
ZGKL,2025-06-23 17:00,ZGKL 231700Z VRB01MPS 8000 FEW010 BKN040 BKN073 25/25 Q1005 NOSIG
ZGKL,2025-06-23 18:00,ZGKL 231800Z VRB01MPS 8000 FEW010 FEW033CB SCT033 BKN066 25/25 Q1005 NOSIG
ZGKL,2025-06-23 19:00,ZGKL 231900Z VRB01MPS 8000 -SHRA FEW010 FEW023CB SCT023 BKN050 25/25 Q1004 NOSIG
ZGKL,2025-06-23 20:00,ZGKL 232000Z 18001MPS 7000 -SHRA FEW010 FEW026CB SCT036 BKN053 25/25 Q1005 NOSIG
ZGKL,2025-06-23 21:00,ZGKL 232100Z 27001MPS 6000 -SHRA FEW010 FEW026CB SCT033 BKN050 25/25 Q1005 NOSIG
ZGKL,2025-06-23 22:00,ZGKL 232200Z 13001MPS 8000 -SHRA FEW026CB SCT040 BKN060 25/25 Q1005 BECMG TL2330 BKN040
ZGKL,2025-06-23 23:00,ZGKL 232300Z VRB01MPS 5000 -RA BR SCT040 OVC060 26/25 Q1006 NOSIG
ZGKL,2025-06-24 00:00,ZGKL 240000Z 00000MPS 6000 -RA SCT040 OVC056 26/26 Q1007 NOSIG
ZGKL,2025-06-24 01:00,ZGKL 240100Z VRB01MPS 6000 -RA SCT040 OVC060 26/26 Q1007 NOSIG
ZGKL,2025-06-24 02:00,ZGKL 240200Z VRB01MPS 7000 -RA FEW033 27/26 Q1008 NOSIG
ZGKL,2025-06-24 03:00,ZGKL 240300Z 16003MPS 110V240 8000 FEW020 29/26 Q1008 NOSIG
ZGKL,2025-06-24 04:00,ZGKL 240400Z 20002MPS 160V250 9999 FEW020 30/26 Q1008 NOSIG
ZGKL,2025-06-24 05:00,ZGKL 240500Z VRB02MPS 9999 FEW016 FEW026TCU 31/26 Q1007 NOSIG
ZGKL,2025-06-24 06:00,ZGKL 240600Z VRB03MPS 9999 FEW026TCU SCT026 33/25 Q1006 NOSIG
ZGKL,2025-06-24 07:00,ZGKL 240700Z VRB02MPS 9999 FEW030TCU FEW030 33/25 Q1006 NOSIG
ZGKL,2025-06-24 08:00,ZGKL 240800Z 16003MPS 120V220 9999 FEW030 SCT060 32/26 Q1005 NOSIG
ZGKL,2025-06-24 09:00,ZGKL 240900Z 18003MPS 9999 FEW033 31/25 Q1005 NOSIG
ZGKL,2025-06-24 10:00,ZGKL 241000Z 15003MPS 120V190 9999 FEW043 30/26 Q1005 NOSIG
ZGKL,2025-06-24 11:00,ZGKL 241100Z 12002MPS 100V250 9999 FEW043 29/26 Q1005 NOSIG
ZGKL,2025-06-24 12:00,ZGKL 241200Z 27001MPS 9999 FEW046 28/26 Q1006 NOSIG
ZGKL,2025-06-24 13:00,ZGKL 241300Z VRB01MPS 9999 FEW046 27/26 Q1007 NOSIG
ZGKL,2025-06-24 14:00,ZGKL 241400Z 35001MPS 9999 FEW043 27/26 Q1008 NOSIG
ZGKL,2025-06-24 15:00,ZGKL 241500Z 34001MPS 9999 FEW053 27/26 Q1008 NOSIG
ZGKL,2025-06-24 16:00,ZGKL 241600Z VRB01MPS 9999 FEW053 26/26 Q1008 NOSIG
ZGKL,2025-06-24 17:00,ZGKL 241700Z VRB01MPS 9999 FEW040 26/25 Q1008 NOSIG
ZGKL,2025-06-24 18:00,ZGKL 241800Z VRB01MPS 9999 FEW040 26/26 Q1008 NOSIG
ZGKL,2025-06-24 19:00,ZGKL 241900Z VRB01MPS 9999 FEW040 26/25 Q1008 NOSIG
ZGKL,2025-06-24 20:00,ZGKL 242000Z VRB01MPS 9999 FEW033 26/25 Q1008 NOSIG
ZGKL,2025-06-24 21:00,ZGKL 242100Z 20001MPS 5000 BR SCT033 OVC066 26/25 Q1008 NOSIG
ZGKL,2025-06-24 22:00,ZGKL 242200Z 18001MPS 3000 BR FEW040 25/25 Q1008 NOSIG
ZGKL,2025-06-24 23:00,ZGKL 242300Z VRB01MPS 3200 BR SCT040 BKN066 26/25 Q1009 NOSIG
ZGKL,2025-06-25 00:00,ZGKL 250000Z VRB01MPS 4500 BR FEW013 28/26 Q1009 NOSIG
ZGKL,2025-06-25 01:00,ZGKL 250100Z 18004MPS 150V210 9999 FEW023 30/25 Q1009 NOSIG
ZGKL,2025-06-25 02:00,ZGKL 250200Z 18006MPS 9999 FEW026 31/24 Q1009 NOSIG
ZGKL,2025-06-25 03:00,ZGKL 250300Z 18007MPS 9999 FEW026 32/24 Q1009 NOSIG
ZGKL,2025-06-25 04:00,ZGKL 250400Z 18006MPS 9999 FEW026 32/24 Q1008 BECMG FM0530 FEW030CB SCT050
ZGKL,2025-06-25 05:00,ZGKL 250500Z 22004MPS 150V270 9999 FEW026 33/25 Q1008 BECMG TL0600 FEW030CB SCT050
ZGKL,2025-06-25 06:00,ZGKL 250600Z 22003MPS 180V280 9999 FEW026 FEW040CB 34/24 Q1007 BECMG TL0730 SCT030 BKN050
ZGKL,2025-06-25 07:00,ZGKL 250700Z 18004MPS 140V220 9999 SCT026 34/24 Q1007 NOSIG
ZGKL,2025-06-25 08:00,ZGKL 250800Z 18005MPS 9999 FEW026 34/22 Q1006 NOSIG
ZGKL,2025-06-25 09:00,ZGKL 250900Z 19003MPS 9999 FEW026 34/23 Q1005 NOSIG
ZGKL,2025-06-25 10:00,ZGKL 251000Z 19002MPS 160V220 9999 FEW026 34/23 Q1005 NOSIG
ZGKL,2025-06-25 11:00,ZGKL 251100Z VRB01MPS 9999 FEW026 32/22 Q1005 NOSIG
ZGKL,2025-06-25 12:00,ZGKL 251200Z VRB01MPS 9999 FEW026 29/26 Q1006 NOSIG
ZGKL,2025-06-25 13:00,ZGKL 251300Z VRB01MPS 9999 FEW053 28/25 Q1007 NOSIG
ZGKL,2025-06-25 14:00,ZGKL 251400Z 25002MPS 9999 FEW050 28/24 Q1008 NOSIG
ZGKL,2025-06-25 15:00,ZGKL 251500Z 33002MPS 9999 FEW066 27/24 Q1008 NOSIG
ZGKL,2025-06-25 16:00,ZGKL 251600Z 34002MPS 290V360 9999 FEW066 26/24 Q1009 NOSIG
ZGKL,2025-06-25 17:00,ZGKL 251700Z VRB01MPS 9999 FEW066 25/24 Q1008 NOSIG
ZGKL,2025-06-25 18:00,ZGKL 251800Z 29001MPS 9999 FEW060 25/24 Q1008 NOSIG
ZGKL,2025-06-25 19:00,ZGKL 251900Z VRB01MPS CAVOK 24/24 Q1007 NOSIG
ZGKL,2025-06-25 20:00,ZGKL 252000Z 00000MPS 9999 BKN066 24/24 Q1007 NOSIG
ZGKL,2025-06-25 21:00,ZGKL 252100Z VRB01MPS 9999 SCT066 24/23 Q1007 NOSIG
ZGKL,2025-06-25 22:00,ZGKL 252200Z VRB01MPS 9999 FEW060 24/23 Q1008 NOSIG
ZGKL,2025-06-25 23:00,ZGKL 252300Z VRB01MPS 9999 BKN050 25/23 Q1008 NOSIG
ZGKL,2025-06-26 00:00,ZGKL 260000Z VRB01MPS 9999 FEW026 BKN050 26/24 Q1009 BECMG FM0150 18005MPS
ZGKL,2025-06-26 01:00,ZGKL 260100Z VRB01MPS 9999 FEW026 29/25 Q1009 BECMG FM0250 18005MPS
ZGKL,2025-06-26 02:00,ZGKL 260200Z VRB01MPS 9999 FEW026 31/24 Q1009 BECMG FM0350 18005MPS
ZGKL,2025-06-26 03:00,ZGKL 260300Z 17003MPS 130V200 9999 FEW026TCU FEW026 31/24 Q1009 BECMG FM0450 FEW030CB SCT050
ZGKL,2025-06-26 04:00,ZGKL 260400Z VRB01MPS 9999 FEW026TCU FEW026 32/24 Q1008 NOSIG
ZGKL,2025-06-26 05:00,ZGKL 260500Z 12002MPS 080V190 9999 FEW026CB FEW026 33/24 Q1008 NOSIG
ZGKL,2025-06-26 06:00,ZGKL 260600Z 12003MPS 050V170 9999 FEW026CB FEW026 34/24 Q1006 BECMG TL0700 BKN040
ZGKL,2025-06-26 07:00,ZGKL 260700Z 13002MPS 070V240 9999 FEW026CB FEW026 SCT046 35/25 Q1006 BECMG TL0830 BKN040
ZGKL,2025-06-26 08:00,ZGKL 260800Z 13003MPS 110V200 9999 FEW026TCU FEW026 SCT050 33/24 Q1005 NOSIG
ZGKL,2025-06-26 09:00,ZGKL 260900Z 13003MPS 9999 FEW026TCU FEW026 33/23 Q1004 NOSIG
ZGKL,2025-06-26 10:00,ZGKL 261000Z 14002MPS 100V180 9999 FEW026TCU 33/24 Q1004 NOSIG
ZGKL,2025-06-26 11:00,ZGKL 261100Z 14002MPS 110V170 9999 FEW026TCU SCT050 32/24 Q1005 NOSIG
ZGKL,2025-06-26 12:00,ZGKL 261200Z 06003MPS 9999 SCT050 31/24 Q1006 NOSIG
ZGKL,2025-06-26 13:00,ZGKL 261300Z 06002MPS 9999 BKN046 30/24 Q1007 NOSIG
ZGKL,2025-06-26 14:00,ZGKL 261400Z VRB02MPS 9999 FEW066 28/24 Q1007 NOSIG
ZGKL,2025-06-26 15:00,ZGKL 261500Z 01002MPS CAVOK 27/25 Q1007 NOSIG
ZGKL,2025-06-26 16:00,ZGKL 261600Z VRB01MPS CAVOK 27/24 Q1007 NOSIG
ZGKL,2025-06-26 17:00,ZGKL 261700Z 01003MPS CAVOK 26/25 Q1007 NOSIG
ZGKL,2025-06-26 18:00,ZGKL 261800Z 00000MPS 9999 SCT043 BKN066 26/25 Q1007 NOSIG
ZGKL,2025-06-26 19:00,ZGKL 261900Z 34001MPS 9999 SCT050 26/25 Q1006 NOSIG
ZGKL,2025-06-26 20:00,ZGKL 262000Z 04002MPS 9999 SCT050 26/24 Q1006 NOSIG
ZGKL,2025-06-26 21:00,ZGKL 262100Z VRB01MPS 9999 -RA SCT040 BKN060 26/25 Q1006 NOSIG
ZGKL,2025-06-26 22:00,ZGKL 262200Z 35002MPS 9999 SCT040 SCT060 26/25 Q1006 NOSIG
ZGKL,2025-06-26 23:00,ZGKL 262300Z VRB01MPS 9999 SCT040 SCT060 26/25 Q1007 NOSIG
ZGKL,2025-06-27 00:00,ZGKL 270000Z 01002MPS 340V040 9999 SCT036 SCT060 28/25 Q1008 NOSIG
ZGKL,2025-06-27 01:00,ZGKL 270100Z 00000MPS 9999 FEW016 SCT026 BKN053 28/25 Q1008 NOSIG
ZGKL,2025-06-27 02:00,ZGKL 270200Z 12003MPS 030V180 9999 FEW016 SCT026 BKN060 29/24 Q1008 BECMG FM0300 FEW030CB BKN033
ZGKL,2025-06-27 03:00,ZGKL 270300Z 10002MPS 030V150 9999 FEW023 FEW040CB SCT040 BKN060 30/24 Q1007 BECMG FM0320 SHRA
ZGKL,2025-06-27 04:00,ZGKL 270400Z 26002MPS 230V300 9999 -RA SCT040 SCT060 27/26 Q1007 RESHRA NOSIG
ZGKL,2025-06-27 05:00,ZGKL 270500Z 20005G13MPS 160V230 9999 FEW030CB FEW030 SCT066 29/24 Q1007 BECMG FM0510 2500 +SHRA
ZGKL,2025-06-27 06:00,ZGKL 270600Z 11002MPS 070V160 9999 FEW033 SCT066 28/25 Q1006 RESHRA NOSIG
ZGKL,2025-06-27 07:00,ZGKL 270700Z 08003MPS 9999 FEW026 SCT036 BKN066 30/26 Q1006 NOSIG
ZGKL,2025-06-27 08:00,ZGKL 270800Z 16002MPS 130V200 9999 -SHRA FEW030CB SCT030 BKN066 28/26 Q1005 RESHRA BECMG TL0850 SCT030 BKN050
ZGKL,2025-06-27 09:00,ZGKL 270900Z VRB01MPS 9999 FEW026 29/26 Q1005 NOSIG
ZGKL,2025-06-27 10:00,ZGKL 271000Z VRB01MPS 9999 FEW026 SCT036 29/26 Q1005 NOSIG
ZGKL,2025-06-27 11:00,ZGKL 271100Z VRB01MPS 9999 FEW033 SCT066 28/25 Q1005 NOSIG
ZGKL,2025-06-27 12:00,ZGKL 271200Z VRB01MPS 9999 FEW066 27/25 Q1006 NOSIG
ZGKL,2025-06-27 13:00,ZGKL 271300Z 34001MPS CAVOK 26/25 Q1006 NOSIG
ZGKL,2025-06-27 14:00,ZGKL 271400Z VRB01MPS CAVOK 26/25 Q1007 NOSIG
ZGKL,2025-06-27 15:00,ZGKL 271500Z 29001MPS CAVOK 25/25 Q1008 NOSIG
ZGKL,2025-06-27 16:00,ZGKL 271600Z 00000MPS CAVOK 25/25 Q1008 NOSIG
ZGKL,2025-06-27 17:00,ZGKL 271700Z 29001MPS 9999 FEW053 25/24 Q1007 NOSIG
ZGKL,2025-06-27 18:00,ZGKL 271800Z 27001MPS 9999 FEW053 25/24 Q1007 NOSIG
ZGKL,2025-06-27 19:00,ZGKL 271900Z 31001MPS 9999 SCT040 25/24 Q1006 NOSIG
ZGKL,2025-06-27 20:00,ZGKL 272000Z VRB01MPS 9999 SCT036 25/24 Q1006 NOSIG
ZGKL,2025-06-27 21:00,ZGKL 272100Z VRB01MPS 9999 SCT040 24/24 Q1006 NOSIG
ZGKL,2025-06-27 22:00,ZGKL 272200Z VRB01MPS 9999 FEW016 SCT073 24/24 Q1006 NOSIG
ZGKL,2025-06-27 23:00,ZGKL 272300Z VRB01MPS 9999 FEW026 SCT043 25/24 Q1007 NOSIG
ZGKL,2025-06-28 00:00,ZGKL 280000Z VRB01MPS 9999 FEW043 SCT073 26/25 Q1007 NOSIG
ZGKL,2025-06-28 01:00,ZGKL 280100Z VRB01MPS 9999 FEW043 SCT073 28/24 Q1007 NOSIG
ZGKL,2025-06-28 02:00,ZGKL 280200Z VRB01MPS 9999 FEW030 SCT066 30/26 Q1007 NOSIG
ZGKL,2025-06-28 03:00,ZGKL 280300Z 10002MPS 050V160 9999 FEW030 SCT066 30/25 Q1006 BECMG FM0430 FEW030CB
ZGKL,2025-06-28 04:00,ZGKL 280400Z VRB03MPS 9999 FEW030TCU SCT030 31/24 Q1005 BECMG FM0500 FEW030CB
ZGKL,2025-06-28 05:00,ZGKL 280500Z 17006MPS 9999 FEW030CB FEW030 SCT066 32/23 Q1005 BECMG FM0630 SCT060
ZGKL,2025-06-28 06:00,ZGKL 280600Z 19005MPS 9999 FEW030CB FEW030 SCT066 31/23 Q1004 BECMG FM0700 SCT060
ZGKL,2025-06-28 07:00,ZGKL 280700Z 28002MPS 220V340 9999 -SHRA FEW030TCU FEW030 BKN056 31/25 Q1004 BECMG FM0800 -TSRA FEW030CB SCT050
ZGKL,2025-06-28 08:00,ZGKL 280800Z VRB01MPS 9999 FEW040 BKN060 31/25 Q1003 NOSIG
ZGKL,2025-06-28 09:00,ZGKL 280900Z VRB01MPS 9999 -RA FEW043 BKN060 29/25 Q1003 NOSIG
ZGKL,2025-06-28 10:00,ZGKL 281000Z VRB01MPS 9999 FEW043 BKN066 29/24 Q1002 NOSIG
ZGKL,2025-06-28 11:00,ZGKL 281100Z VRB01MPS 9999 FEW043 BKN066 28/25 Q1002 NOSIG
ZGKL,2025-06-28 12:00,ZGKL 281200Z 30001MPS 9999 FEW043 SCT066 28/25 Q1003 NOSIG
ZGKL,2025-06-28 13:00,ZGKL 281300Z 01002MPS 9999 -RA SCT043 BKN066 26/25 Q1003 NOSIG
ZGKL,2025-06-28 14:00,ZGKL 281400Z VRB01MPS 9999 FEW043 BKN073 26/24 Q1004 NOSIG
ZGKL,2025-06-28 15:00,ZGKL 281500Z VRB01MPS 9999 SCT033 BKN073 25/24 Q1004 NOSIG
ZGKL,2025-06-28 16:00,ZGKL 281600Z VRB01MPS 9999 FEW033CB FEW033 BKN066 25/24 Q1004 BECMG FM1630 TSRA
ZGKL,2025-06-28 17:00,ZGKL 281700Z 11002MPS 8000 -TSRA FEW033CB SCT033 BKN060 23/22 Q1004 RESHRA BECMG FM1800 NSW
ZGKL,2025-06-28 18:00,ZGKL 281800Z VRB01MPS 9999 FEW033CB SCT033 BKN066 23/23 Q1004 RETS BECMG FM1830 2000 TSRA BR
ZGKL,2025-06-28 19:00,ZGKL 281900Z VRB01MPS 6000 -TSRA FEW036CB SCT036 BKN066 23/23 Q1004 BECMG FM1940 NSW
ZGKL,2025-06-28 20:00,ZGKL 282000Z VRB01MPS 7000 -SHRA FEW010 FEW036CB SCT036 BKN066 23/23 Q1004 RETS TEMPO SHRA
ZGKL,2025-06-28 21:00,ZGKL 282100Z VRB01MPS 8000 -SHRA FEW010 SCT033 OVC066 23/23 Q1004 NOSIG
ZGKL,2025-06-28 22:00,ZGKL 282200Z 00000MPS 6000 FEW010 FEW033CB SCT040 BKN066 23/23 Q1004 BECMG TL2330 BKN040
ZGKL,2025-06-28 23:00,ZGKL 282300Z VRB01MPS 5000 -SHRA BR FEW010 FEW033CB SCT040 BKN066 24/23 Q1005 BECMG TL0030 BKN040
ZGKL,2025-06-29 00:00,ZGKL 290000Z VRB01MPS 8000 FEW010 BKN046 OVC066 24/24 Q1005 NOSIG
ZGKL,2025-06-29 01:00,ZGKL 290100Z VRB01MPS 9999 FEW010 SCT023 OVC046 25/24 Q1005 NOSIG
ZGKL,2025-06-29 02:00,ZGKL 290200Z 00000MPS 9999 FEW011 SCT026 BKN050 26/24 Q1005 NOSIG
ZGKL,2025-06-29 03:00,ZGKL 290300Z VRB01MPS 9999 FEW013 SCT040 29/26 Q1005 NOSIG
ZGKL,2025-06-29 04:00,ZGKL 290400Z VRB01MPS 9999 FEW016 SCT036 31/26 Q1004 NOSIG
ZGKL,2025-06-29 05:00,ZGKL 290500Z VRB01MPS 9999 FEW023CB FEW023 32/26 Q1003 BECMG TL0525 SHRA
ZGKL,2025-06-29 06:00,ZGKL 290600Z 11004MPS 070V140 9999 -SHRA FEW020 FEW026CB SCT066 28/25 Q1003 BECMG FM0700 SCT033
ZGKL,2025-06-29 07:00,ZGKL 290700Z VRB01MPS 9999 FEW026 32/26 Q1002 BECMG TL0800 FEW033CB SCT033
ZGKL,2025-06-29 08:00,ZGKL 290800Z 10003MPS 050V130 9999 FEW026CB FEW026 32/25 Q1002 BECMG TL0900 TSRA
ZGKL,2025-06-29 09:00,ZGKL 290900Z 19006MPS 8000 -SHRA FEW013 FEW026CB SCT040 27/25 Q1001 BECMG TL0920 12003MPS SCT030
ZGKL,2025-06-29 10:00,ZGKL 291000Z VRB01MPS 9999 FEW023 FEW026CB SCT046 27/25 Q1001 NOSIG
ZGKL,2025-06-29 11:00,ZGKL 291100Z 00000MPS 9999 FEW026CB 27/25 Q1002 BECMG TL1200 SHRA
ZGKL,2025-06-29 12:00,ZGKL 291200Z 17005MPS 9999 -SHRA FEW033CB FEW033 SCT053 26/24 Q1003 BECMG AT1220 25001MPS SHRA
ZGKL,2025-06-29 13:00,ZGKL 291300Z 12003MPS 9999 -SHRA FEW033CB FEW033 SCT060 25/24 Q1003 BECMG AT1400 FEW016 SCT040
ZGKL,2025-06-29 14:00,ZGKL 291400Z VRB01MPS 9999 FEW033CB FEW033 SCT060 25/24 Q1004 BECMG AT1500 FEW030 BKN040
ZGKL,2025-06-29 15:00,ZGKL 291500Z VRB01MPS 9999 SCT060 25/24 Q1005 NOSIG
ZGKL,2025-06-29 16:00,ZGKL 291600Z 31001MPS 9999 SCT060 25/24 Q1005 NOSIG
ZGKL,2025-06-29 17:00,ZGKL 291700Z VRB01MPS 9999 SCT060 25/24 Q1005 NOSIG
ZGKL,2025-06-29 18:00,ZGKL 291800Z VRB01MPS 9999 SCT060 25/24 Q1004 NOSIG
ZGKL,2025-06-29 19:00,ZGKL 291900Z 00000MPS 9999 FEW060 25/24 Q1005 NOSIG
ZGKL,2025-06-29 20:00,ZGKL 292000Z 36001MPS 9999 FEW050 25/24 Q1004 NOSIG
ZGKL,2025-06-29 21:00,ZGKL 292100Z VRB01MPS 9999 FEW060 25/24 Q1004 NOSIG
ZGKL,2025-06-29 22:00,ZGKL 292200Z VRB01MPS 9999 FEW020 SCT060 25/24 Q1004 NOSIG
ZGKL,2025-06-29 23:00,ZGKL 292300Z 25001MPS 9999 FEW016 SCT023 25/24 Q1005 NOSIG
ZGKL,2025-06-30 00:00,ZGKL 300000Z VRB01MPS 9999 FEW023 SCT073 26/25 Q1005 NOSIG
ZGKL,2025-06-30 01:00,ZGKL 300100Z VRB01MPS 8000 -RA SCT033 BKN066 26/24 Q1006 NOSIG
ZGKL,2025-06-30 02:00,ZGKL 300200Z 13004MPS 090V160 9999 FEW013 SCT033 BKN066 27/24 Q1006 NOSIG
ZGKL,2025-06-30 03:00,ZGKL 300300Z 13002MPS 100V170 9999 FEW013 SCT030 OVC066 27/27 Q1006 NOSIG
ZGKL,2025-06-30 04:00,ZGKL 300400Z 10002MPS 050V190 9999 FEW013 SCT033 29/26 Q1006 NOSIG
ZGKL,2025-06-30 05:00,ZGKL 300500Z VRB01MPS 9999 FEW023TCU SCT023 31/26 Q1005 NOSIG
ZGKL,2025-06-30 06:00,ZGKL 300600Z 13003MPS 100V160 9999 -RA SCT023 SCT060 29/26 Q1005 NOSIG
ZGKL,2025-06-30 07:00,ZGKL 300700Z 12003MPS 060V170 9999 FEW023 SCT066 31/25 Q1004 BECMG FM0830 SHRA SCT020 FEW033CB BKN036
ZGKL,2025-06-30 08:00,ZGKL 300800Z 13006MPS 100V160 9999 FEW033CB SCT033 BKN066 29/25 Q1004 BECMG FM0900 FEW020 BKN040
ZGKL,2025-06-30 09:00,ZGKL 300900Z 17002MPS 9999 FEW033 BKN066 28/25 Q1004 NOSIG
ZGKL,2025-06-30 10:00,ZGKL 301000Z VRB01MPS 9999 FEW046 SCT066 29/25 Q1003 NOSIG
ZGKL,2025-06-30 11:00,ZGKL 301100Z VRB01MPS 9999 FEW046 SCT073 28/27 Q1004 NOSIG
ZGKL,2025-06-30 12:00,ZGKL 301200Z 36002MPS 9999 FEW046 27/27 Q1005 NOSIG
ZGKL,2025-06-30 13:00,ZGKL 301300Z VRB01MPS 9999 FEW040 SCT060 26/26 Q1005 NOSIG
ZGKL,2025-06-30 14:00,ZGKL 301400Z 36001MPS 9999 FEW023 SCT033 26/26 Q1006 NOSIG
ZGKL,2025-06-30 15:00,ZGKL 301500Z VRB01MPS 9999 -RA SCT040 BKN070 26/26 Q1007 NOSIG
ZGKL,2025-06-30 16:00,ZGKL 301600Z VRB01MPS 9999 -RA SCT040 BKN070 25/25 Q1006 NOSIG
ZGKL,2025-06-30 17:00,ZGKL 301700Z VRB01MPS 9999 SCT043 25/25 Q1006 NOSIG
ZGKL,2025-06-30 18:00,ZGKL 301800Z 30001MPS 9999 SCT043 25/25 Q1006 NOSIG
ZGKL,2025-06-30 19:00,ZGKL 301900Z VRB01MPS 9999 SCT036 BKN066 25/25 Q1006 NOSIG
ZGKL,2025-06-30 20:00,ZGKL 302000Z VRB01MPS 9999 SCT036 BKN066 25/25 Q1006 NOSIG
ZGKL,2025-06-30 21:00,ZGKL 302100Z 35002MPS 310V010 9999 SCT043 BKN066 25/25 Q1006 NOSIG
ZGKL,2025-06-30 22:00,ZGKL 302200Z 34001MPS 9999 SCT043 BKN066 25/25 Q1006 NOSIG
ZGKL,2025-06-30 23:00,ZGKL 302300Z VRB01MPS 9999 -RA SCT040 BKN060 25/25 Q1007 NOSIG
ZGKL,2025-07-01 00:00,ZGKL 010000Z VRB01MPS 8000 SCT040 BKN056 27/27 Q1008 NOSIG
ZGKL,2025-07-01 01:00,ZGKL 010100Z VRB01MPS 9999 SCT033 BKN056 28/26 Q1008 NOSIG
ZGKL,2025-07-01 02:00,ZGKL 010200Z VRB03MPS 9999 FEW040 BKN066 28/26 Q1009 BECMG FM0350 18005MPS
ZGKL,2025-07-01 03:00,ZGKL 010300Z 12003MPS 090V170 9999 FEW023 SCT043 BKN066 30/27 Q1009 NOSIG
ZGKL,2025-07-01 04:00,ZGKL 010400Z 14003MPS 070V180 9999 FEW026 BKN066 31/25 Q1008 NOSIG
ZGKL,2025-07-01 05:00,ZGKL 010500Z 13004MPS 100V160 9999 FEW026 FEW033CB BKN066 31/25 Q1008 NOSIG
ZGKL,2025-07-01 06:00,ZGKL 010600Z 22003MPS 190V270 9999 FEW026 FEW033CB SCT043 30/27 Q1007 BECMG AT0700 FEW026 BKN040
ZGKL,2025-07-01 07:00,ZGKL 010700Z VRB02MPS 9999 FEW026 FEW033CB SCT043 31/26 Q1007 BECMG AT0800 FEW026 BKN040
ZGKL,2025-07-01 08:00,ZGKL 010800Z 16004MPS 120V210 9999 FEW026 FEW033CB SCT043 31/25 Q1006 TEMPO FM0810 SHRA
ZGKL,2025-07-01 09:00,ZGKL 010900Z 13003MPS 090V170 9999 -SHRA FEW026 FEW033TCU SCT043 29/26 Q1006 RETS NOSIG
ZGKL,2025-07-01 10:00,ZGKL 011000Z 03002MPS 350V070 9999 FEW030TCU FEW033 29/26 Q1006 NOSIG
ZGKL,2025-07-01 11:00,ZGKL 011100Z VRB02MPS 9999 FEW033 BKN060 28/27 Q1007 BECMG FM1200 16008MPS TSRA FEW030CB SCT050
ZGKL,2025-07-01 12:00,ZGKL 011200Z 05002MPS 360V100 9999 FEW033CB FEW033 SCT066 28/26 Q1008 BECMG FM1350 FEW030 SCT050
ZGKL,2025-07-01 13:00,ZGKL 011300Z 04002MPS 9999 FEW043 SCT066 27/23 Q1008 NOSIG
ZGKL,2025-07-01 14:00,ZGKL 011400Z VRB01MPS 9999 FEW043 BKN066 26/25 Q1009 NOSIG
ZGKL,2025-07-01 15:00,ZGKL 011500Z VRB01MPS 9999 FEW043 BKN066 26/26 Q1009 NOSIG
ZGKL,2025-07-01 16:00,ZGKL 011600Z 00000MPS 9999 FEW043 BKN066 26/26 Q1009 NOSIG
ZGKL,2025-07-01 17:00,ZGKL 011700Z 00000MPS 9999 FEW043 SCT066 26/26 Q1009 NOSIG
ZGKL,2025-07-01 18:00,ZGKL 011800Z VRB01MPS 9999 FEW043 BKN066 25/25 Q1009 NOSIG
ZGKL,2025-07-01 19:00,ZGKL 011900Z VRB01MPS 7000 FEW043 BKN066 25/25 Q1009 NOSIG
ZGKL,2025-07-01 20:00,ZGKL 012000Z VRB01MPS 7000 -SHRA FEW033CB SCT033 BKN060 25/25 Q1009 NOSIG
ZGKL,2025-07-01 21:00,ZGKL 012100Z 01002MPS 9999 FEW033 SCT060 25/25 Q1009 NOSIG
ZGKL,2025-07-01 22:00,ZGKL 012200Z VRB01MPS 7000 FEW023 SCT046 BKN066 25/25 Q1009 NOSIG
ZGKL,2025-07-01 23:00,ZGKL 012300Z VRB01MPS 7000 SCT043 BKN066 25/25 Q1009 NOSIG
ZGKL,2025-07-02 00:00,ZGKL 020000Z VRB01MPS 9999 FEW020 SCT053 27/27 Q1010 NOSIG
ZGKL,2025-07-02 01:00,ZGKL 020100Z 05002MPS 010V090 9999 FEW023 28/26 Q1010 NOSIG
ZGKL,2025-07-02 02:00,ZGKL 020200Z 08002MPS 9999 FEW023 SCT056 30/27 Q1011 NOSIG
ZGKL,2025-07-02 03:00,ZGKL 020300Z 10002MPS 040V170 9999 FEW026 30/26 Q1010 NOSIG
ZGKL,2025-07-02 04:00,ZGKL 020400Z 12003MPS 080V160 9999 FEW026 SCT050 31/26 Q1010 NOSIG
ZGKL,2025-07-02 05:00,ZGKL 020500Z 09002MPS 060V130 9999 FEW026 BKN066 32/25 Q1010 NOSIG
ZGKL,2025-07-02 06:00,ZGKL 020600Z VRB01MPS 9999 FEW026TCU FEW026 34/25 Q1009 BECMG FM0730 FEW030CB
ZGKL,2025-07-02 07:00,ZGKL 020700Z VRB01MPS 9999 FEW026TCU FEW026 33/24 Q1008 BECMG FM0800 FEW030CB
ZGKL,2025-07-02 08:00,ZGKL 020800Z VRB01MPS 9999 FEW026CB FEW026 34/23 Q1007 BECMG TL0900 BKN040
ZGKL,2025-07-02 09:00,ZGKL 020900Z 13002MPS 070V200 9999 FEW026CB FEW026 34/23 Q1007 BECMG FM1000 -TSRA
ZGKL,2025-07-02 10:00,ZGKL 021000Z 13003MPS 100V260 9999 FEW026CB FEW026 SCT066 33/23 Q1007 BECMG TL1130 BKN030
ZGKL,2025-07-02 11:00,ZGKL 021100Z 12003MPS 080V150 9999 FEW026CB FEW026 SCT043 30/23 Q1009 BECMG TL1200 SCT033
ZGKL,2025-07-02 12:00,ZGKL 021200Z 07003MPS 040V120 9999 FEW023 FEW026CB SCT043 29/23 Q1010 RETS BECMG TL1300 SCT030
ZGKL,2025-07-02 13:00,ZGKL 021300Z 05003MPS 020V140 9999 -SHRA FEW023 FEW026CB SCT050 27/23 Q1010 BECMG TL1400 SCT030
ZGKL,2025-07-02 14:00,ZGKL 021400Z 14002MPS 9999 FEW053 26/23 Q1010 NOSIG
ZGKL,2025-07-02 15:00,ZGKL 021500Z VRB01MPS CAVOK 25/23 Q1009 NOSIG
ZGKL,2025-07-02 16:00,ZGKL 021600Z 05002MPS CAVOK 25/23 Q1009 NOSIG
ZGKL,2025-07-02 17:00,ZGKL 021700Z VRB01MPS CAVOK 24/23 Q1010 NOSIG
ZGKL,2025-07-02 18:00,ZGKL 021800Z VRB01MPS CAVOK 24/23 Q1009 NOSIG
ZGKL,2025-07-02 19:00,ZGKL 021900Z 12002MPS CAVOK 24/23 Q1009 NOSIG
ZGKL,2025-07-02 20:00,ZGKL 022000Z 21001MPS 9999 FEW005 24/23 Q1009 NOSIG
ZGKL,2025-07-02 21:00,ZGKL 022100Z VRB01MPS 9999 FEW005 23/23 Q1010 NOSIG
ZGKL,2025-07-02 22:00,ZGKL 022200Z VRB01MPS 5000 BR FEW010 OVC043 24/23 Q1010 NOSIG
ZGKL,2025-07-02 23:00,ZGKL 022300Z VRB01MPS 4000 BR FEW003 SCT010 OVC040 24/24 Q1010 NOSIG
ZGKL,2025-07-03 00:00,ZGKL 030000Z 00000MPS 4000 BR FEW010 SCT033 BKN060 26/24 Q1011 NOSIG
ZGKL,2025-07-03 01:00,ZGKL 030100Z 33002MPS 250V010 5000 BR FEW013 26/24 Q1011 NOSIG
ZGKL,2025-07-03 02:00,ZGKL 030200Z VRB01MPS 7000 FEW016 29/24 Q1011 NOSIG
ZGKL,2025-07-03 03:00,ZGKL 030300Z VRB01MPS 9999 FEW026 31/24 Q1010 NOSIG
ZGKL,2025-07-03 04:00,ZGKL 030400Z VRB01MPS 9999 SCT026 31/24 Q1010 NOSIG
ZGKL,2025-07-03 05:00,ZGKL 030500Z VRB01MPS 9999 SCT026 32/23 Q1009 NOSIG
ZGKL,2025-07-03 06:00,ZGKL 030600Z 33002MPS 250V020 9999 FEW026 33/22 Q1008 NOSIG
ZGKL,2025-07-03 07:00,ZGKL 030700Z VRB02MPS 9999 FEW030 34/24 Q1008 BECMG FM0830 FEW030CB SCT050
ZGKL,2025-07-03 08:00,ZGKL 030800Z 15002MPS 9999 FEW030 33/23 Q1007 BECMG FM0900 FEW030CB SCT040
ZGKL,2025-07-03 09:00,ZGKL 030900Z 16003MPS 130V200 9999 FEW033CB FEW033 33/23 Q1006 BECMG FM1000 FEW030
ZGKL,2025-07-03 10:00,ZGKL 031000Z 16002MPS 100V200 9999 FEW030 33/23 Q1006 NOSIG
ZGKL,2025-07-03 11:00,ZGKL 031100Z 20001MPS CAVOK 32/24 Q1006 NOSIG
ZGKL,2025-07-03 12:00,ZGKL 031200Z 27002MPS CAVOK 30/25 Q1007 NOSIG
ZGKL,2025-07-03 13:00,ZGKL 031300Z 29002MPS CAVOK 28/25 Q1007 NOSIG
ZGKL,2025-07-03 14:00,ZGKL 031400Z VRB01MPS CAVOK 27/25 Q1007 NOSIG
ZGKL,2025-07-03 15:00,ZGKL 031500Z VRB01MPS CAVOK 26/25 Q1008 NOSIG
ZGKL,2025-07-03 16:00,ZGKL 031600Z VRB01MPS CAVOK 26/25 Q1008 NOSIG
ZGKL,2025-07-03 17:00,ZGKL 031700Z VRB01MPS CAVOK 25/24 Q1007 NOSIG
ZGKL,2025-07-03 18:00,ZGKL 031800Z 00000MPS CAVOK 25/24 Q1007 NOSIG
ZGKL,2025-07-03 19:00,ZGKL 031900Z VRB01MPS CAVOK 25/24 Q1007 NOSIG
ZGKL,2025-07-03 20:00,ZGKL 032000Z VRB01MPS CAVOK 25/23 Q1007 NOSIG
ZGKL,2025-07-03 21:00,ZGKL 032100Z 30001MPS CAVOK 24/23 Q1007 NOSIG
ZGKL,2025-07-03 22:00,ZGKL 032200Z VRB01MPS CAVOK 24/23 Q1007 NOSIG
ZGKL,2025-07-03 23:00,ZGKL 032300Z VRB01MPS CAVOK 25/24 Q1008 NOSIG
ZGKL,2025-07-04 00:00,ZGKL 040000Z VRB01MPS CAVOK 27/24 Q1008 NOSIG
ZGKL,2025-07-04 01:00,ZGKL 040100Z VRB01MPS CAVOK 30/24 Q1008 NOSIG
ZGKL,2025-07-04 02:00,ZGKL 040200Z VRB01MPS CAVOK 31/25 Q1007 NOSIG
ZGKL,2025-07-04 03:00,ZGKL 040300Z VRB02MPS 9999 FEW030 33/25 Q1007 NOSIG
ZGKL,2025-07-04 04:00,ZGKL 040400Z VRB02MPS 9999 FEW030 33/24 Q1007 NOSIG
ZGKL,2025-07-04 05:00,ZGKL 040500Z 14003MPS 060V210 9999 FEW030 34/25 Q1006 NOSIG
ZGKL,2025-07-04 06:00,ZGKL 040600Z 20002MPS 120V250 9999 FEW030 35/23 Q1005 NOSIG
ZGKL,2025-07-04 07:00,ZGKL 040700Z VRB02MPS 9999 FEW030 36/23 Q1004 NOSIG
ZGKL,2025-07-04 08:00,ZGKL 040800Z 24002MPS 150V300 9999 FEW030 37/23 Q1004 NOSIG
ZGKL,2025-07-04 09:00,ZGKL 040900Z 20002MPS 160V240 CAVOK 36/24 Q1003 NOSIG
ZGKL,2025-07-04 10:00,ZGKL 041000Z 20002MPS 170V240 CAVOK 35/23 Q1003 NOSIG
ZGKL,2025-07-04 11:00,ZGKL 041100Z 18002MPS CAVOK 33/25 Q1003 NOSIG
ZGKL,2025-07-04 12:00,ZGKL 041200Z 23001MPS CAVOK 32/25 Q1003 NOSIG
ZGKL,2025-07-04 13:00,ZGKL 041300Z 20002MPS CAVOK 29/26 Q1004 NOSIG
ZGKL,2025-07-04 14:00,ZGKL 041400Z 27002MPS CAVOK 29/25 Q1005 NOSIG
ZGKL,2025-07-04 15:00,ZGKL 041500Z VRB01MPS CAVOK 28/25 Q1005 NOSIG
ZGKL,2025-07-04 16:00,ZGKL 041600Z 27001MPS CAVOK 28/25 Q1005 NOSIG
ZGKL,2025-07-04 17:00,ZGKL 041700Z 33002MPS CAVOK 27/25 Q1004 NOSIG
ZGKL,2025-07-04 18:00,ZGKL 041800Z 00000MPS CAVOK 26/25 Q1004 NOSIG
ZGKL,2025-07-04 19:00,ZGKL 041900Z 28001MPS 9999 SCT066 26/25 Q1004 NOSIG
ZGKL,2025-07-04 20:00,ZGKL 042000Z 36001MPS 9999 FEW066 26/24 Q1004 NOSIG
ZGKL,2025-07-04 21:00,ZGKL 042100Z 27001MPS CAVOK 26/24 Q1004 NOSIG
ZGKL,2025-07-04 22:00,ZGKL 042200Z VRB01MPS CAVOK 25/24 Q1005 NOSIG
ZGKL,2025-07-04 23:00,ZGKL 042300Z VRB01MPS CAVOK 26/25 Q1005 NOSIG
ZGKL,2025-07-05 00:00,ZGKL 050000Z 35002MPS 310V020 CAVOK 27/25 Q1006 NOSIG
ZGKL,2025-07-05 01:00,ZGKL 050100Z VRB01MPS CAVOK 30/25 Q1006 NOSIG
ZGKL,2025-07-05 02:00,ZGKL 050200Z VRB01MPS CAVOK 32/26 Q1005 NOSIG
ZGKL,2025-07-05 03:00,ZGKL 050300Z 15002MPS 080V200 CAVOK 33/25 Q1005 NOSIG
ZGKL,2025-07-05 04:00,ZGKL 050400Z 17002MPS 100V230 9999 FEW026 35/25 Q1005 NOSIG
ZGKL,2025-07-05 05:00,ZGKL 050500Z 15002MPS 110V190 9999 FEW026 35/24 Q1004 NOSIG
ZGKL,2025-07-05 06:00,ZGKL 050600Z 19003MPS 120V270 9999 FEW026TCU FEW026 36/25 Q1003 BECMG FM0700 FEW033CB SCT036
ZGKL,2025-07-05 07:00,ZGKL 050700Z 14002MPS 050V220 9999 FEW026CB FEW026 37/25 Q1002 BECMG FM0800 FEW033 SCT050
ZGKL,2025-07-05 08:00,ZGKL 050800Z 16003MPS 090V210 9999 FEW026CB FEW026 37/25 Q1002 BECMG TL0900 FEW033 SCT050
ZGKL,2025-07-05 09:00,ZGKL 050900Z 17003MPS 130V200 9999 FEW026 36/25 Q1001 BECMG TL1000 FEW030CB FEW030
ZGKL,2025-07-05 10:00,ZGKL 051000Z 13002MPS 100V170 9999 FEW026CB FEW026 36/25 Q1001 BECMG FM1100 FEW033 SCT050
ZGKL,2025-07-05 11:00,ZGKL 051100Z 15002MPS 100V190 9999 FEW026CB FEW026 35/25 Q1001 BECMG TL1230 FEW033 SCT050
ZGKL,2025-07-05 12:00,ZGKL 051200Z 03004MPS 9999 FEW030 31/23 Q1002 NOSIG
ZGKL,2025-07-05 13:00,ZGKL 051300Z 30001MPS 9999 FEW030CB FEW030 30/24 Q1003 BECMG TL1400 FEW030
ZGKL,2025-07-05 14:00,ZGKL 051400Z VRB01MPS 9999 FEW043 29/25 Q1004 NOSIG
ZGKL,2025-07-05 15:00,ZGKL 051500Z 35002MPS CAVOK 28/24 Q1004 NOSIG
ZGKL,2025-07-05 16:00,ZGKL 051600Z VRB01MPS 9999 FEW066 27/24 Q1005 NOSIG
ZGKL,2025-07-05 17:00,ZGKL 051700Z VRB01MPS CAVOK 27/24 Q1004 NOSIG
ZGKL,2025-07-05 18:00,ZGKL 051800Z VRB01MPS CAVOK 27/23 Q1004 NOSIG
ZGKL,2025-07-05 19:00,ZGKL 051900Z 36002MPS 9999 FEW026CB 26/24 Q1004 NOSIG
ZGKL,2025-07-05 20:00,ZGKL 052000Z 00000MPS 9999 FEW026CB 26/24 Q1004 NOSIG
ZGKL,2025-07-05 21:00,ZGKL 052100Z 32001MPS 9999 FEW026CB 26/24 Q1004 NOSIG
ZGKL,2025-07-05 22:00,ZGKL 052200Z VRB01MPS 9999 FEW033 25/24 Q1005 BECMG FM2330 FEW030CB
ZGKL,2025-07-05 23:00,ZGKL 052300Z 02003MPS 9999 FEW030CB 26/24 Q1005 BECMG TL0030 FEW030
ZGKL,2025-07-06 00:00,ZGKL 060000Z VRB01MPS 9999 FEW046 27/24 Q1006 NOSIG
ZGKL,2025-07-06 01:00,ZGKL 060100Z VRB01MPS 9000 NSC 29/24 Q1006 NOSIG
ZGKL,2025-07-06 02:00,ZGKL 060200Z 19002MPS 120V240 9000 SCT046 BKN066 30/25 Q1006 NOSIG
ZGKL,2025-07-06 03:00,ZGKL 060300Z VRB01MPS 9000 FEW023 32/25 Q1005 NOSIG
ZGKL,2025-07-06 04:00,ZGKL 060400Z VRB01MPS 9999 FEW026 33/25 Q1005 NOSIG
ZGKL,2025-07-06 05:00,ZGKL 060500Z VRB02MPS 9999 FEW026 34/26 Q1004 NOSIG
ZGKL,2025-07-06 06:00,ZGKL 060600Z 19002MPS 140V240 9999 FEW030 35/27 Q1003 NOSIG
ZGKL,2025-07-06 07:00,ZGKL 060700Z 21003MPS 150V250 9999 FEW033 36/26 Q1002 NOSIG
ZGKL,2025-07-06 08:00,ZGKL 060800Z 19003MPS 140V220 9999 FEW033TCU FEW033 35/26 Q1001 BECMG FM0900 FEW033CB SCT036
ZGKL,2025-07-06 09:00,ZGKL 060900Z 18003MPS 150V210 9999 FEW033CB FEW033 35/26 Q1001 BECMG FM1000 FEW033
ZGKL,2025-07-06 10:00,ZGKL 061000Z 01007G12MPS 350V060 9999 FEW033CB FEW033 32/22 Q1002 BECMG TL1015 18003MPS FEW033
ZGKL,2025-07-06 11:00,ZGKL 061100Z 01005MPS 9999 TS FEW033CB FEW033 SCT046 28/22 Q1002 BECMG TL1130 NSW SCT040
ZGKL,2025-07-06 12:00,ZGKL 061200Z 35002MPS 270V020 9999 FEW036 SCT053 27/22 Q1003 RETS NOSIG
ZGKL,2025-07-06 13:00,ZGKL 061300Z 34002MPS 290V010 9999 FEW040 26/22 Q1004 NOSIG
ZGKL,2025-07-06 14:00,ZGKL 061400Z VRB01MPS 9999 FEW046 SCT066 26/23 Q1004 NOSIG
ZGKL,2025-07-06 15:00,ZGKL 061500Z VRB01MPS 9999 FEW050 26/23 Q1005 NOSIG
ZGKL,2025-07-06 16:00,ZGKL 061600Z 35002MPS 320V020 9999 FEW050 26/23 Q1005 NOSIG
ZGKL,2025-07-06 17:00,ZGKL 061700Z VRB01MPS 9999 FEW050 25/23 Q1005 NOSIG
ZGKL,2025-07-06 18:00,ZGKL 061800Z VRB01MPS 9999 FEW040 25/23 Q1004 NOSIG
ZGKL,2025-07-06 19:00,ZGKL 061900Z VRB01MPS 9999 FEW033 25/23 Q1004 NOSIG
ZGKL,2025-07-06 20:00,ZGKL 062000Z 35001MPS CAVOK 24/23 Q1004 NOSIG
ZGKL,2025-07-06 21:00,ZGKL 062100Z VRB01MPS CAVOK 24/23 Q1004 NOSIG
ZGKL,2025-07-06 22:00,ZGKL 062200Z VRB01MPS CAVOK 24/23 Q1004 NOSIG
ZGKL,2025-07-06 23:00,ZGKL 062300Z VRB01MPS 9999 FEW043 SCT066 25/23 Q1004 NOSIG
ZGKL,2025-07-07 00:00,ZGKL 070000Z VRB01MPS 9999 FEW046 26/24 Q1005 NOSIG
ZGKL,2025-07-07 01:00,ZGKL 070100Z VRB01MPS 9999 FEW033 29/24 Q1005 NOSIG
ZGKL,2025-07-07 02:00,ZGKL 070200Z VRB02MPS CAVOK 30/25 Q1005 NOSIG
ZGKL,2025-07-07 03:00,ZGKL 070300Z 16002MPS 100V220 9999 FEW026 32/26 Q1004 NOSIG
ZGKL,2025-07-07 04:00,ZGKL 070400Z 15003MPS 080V210 9999 SCT026 34/26 Q1004 BECMG FM0450 FEW030CB SCT050
ZGKL,2025-07-07 05:00,ZGKL 070500Z 15004MPS 120V190 9999 FEW026TCU SCT026 35/26 Q1003 BECMG FM0550 FEW030CB SCT050
ZGKL,2025-07-07 06:00,ZGKL 070600Z 15003MPS 100V200 9999 FEW030CB SCT030 35/25 Q1002 NOSIG
ZGKL,2025-07-07 07:00,ZGKL 070700Z 17003MPS 140V220 9999 FEW030CB SCT030 36/25 Q1001 NOSIG
ZGKL,2025-07-07 08:00,ZGKL 070800Z 21003MPS 180V250 9999 FEW030CB SCT030 35/25 Q1001 BECMG AT0900 FEW030 SCT050
ZGKL,2025-07-07 09:00,ZGKL 070900Z 20003MPS 160V220 9999 FEW030CB FEW030 35/25 Q1000 BECMG AT1000 FEW030 SCT050
ZGKL,2025-07-07 10:00,ZGKL 071000Z 19003MPS 9999 FEW030 35/25 Q1000 NOSIG
ZGKL,2025-07-07 11:00,ZGKL 071100Z 18003MPS CAVOK 33/26 Q1000 NOSIG
ZGKL,2025-07-07 12:00,ZGKL 071200Z 18002MPS CAVOK 30/25 Q1001 NOSIG
ZGKL,2025-07-07 13:00,ZGKL 071300Z 19001MPS 9999 FEW066 30/26 Q1002 NOSIG
ZGKL,2025-07-07 14:00,ZGKL 071400Z VRB01MPS 9999 FEW066 29/25 Q1003 NOSIG
ZGKL,2025-07-07 15:00,ZGKL 071500Z 34001MPS 9999 FEW066 28/26 Q1004 NOSIG
ZGKL,2025-07-07 16:00,ZGKL 071600Z VRB01MPS 9999 FEW066 27/26 Q1003 NOSIG
ZGKL,2025-07-07 17:00,ZGKL 071700Z VRB01MPS 9999 FEW066 27/26 Q1003 NOSIG
ZGKL,2025-07-07 18:00,ZGKL 071800Z 26001MPS 9999 FEW066 26/25 Q1003 NOSIG
ZGKL,2025-07-07 19:00,ZGKL 071900Z VRB01MPS 9999 FEW066 26/25 Q1002 NOSIG
ZGKL,2025-07-07 20:00,ZGKL 072000Z VRB01MPS CAVOK 26/25 Q1002 NOSIG
ZGKL,2025-07-07 21:00,ZGKL 072100Z 30001MPS 9999 FEW066 26/25 Q1002 NOSIG
ZGKL,2025-07-07 22:00,ZGKL 072200Z VRB01MPS 8000 FEW066 25/25 Q1003 NOSIG
ZGKL,2025-07-07 23:00,ZGKL 072300Z VRB01MPS 9999 FEW066 26/25 Q1003 NOSIG
ZGKL,2025-07-08 00:00,ZGKL 080000Z 18002MPS 160V220 9999 BKN053 27/26 Q1003 NOSIG
ZGKL,2025-07-08 01:00,ZGKL 080100Z 17004MPS 9999 FEW023 SCT073 30/25 Q1004 NOSIG
ZGKL,2025-07-08 02:00,ZGKL 080200Z 18003MPS 140V220 9999 FEW023 SCT036 31/25 Q1004 NOSIG
ZGKL,2025-07-08 03:00,ZGKL 080300Z 22003MPS 190V260 9999 FEW023 SCT033 31/25 Q1004 NOSIG
ZGKL,2025-07-08 04:00,ZGKL 080400Z 19003MPS 140V250 9999 FEW026 SCT053 32/25 Q1004 NOSIG
ZGKL,2025-07-08 05:00,ZGKL 080500Z 15003MPS 070V190 9999 FEW026 34/25 Q1003 BECMG FM0630 FEW030CB
ZGKL,2025-07-08 06:00,ZGKL 080600Z VRB02MPS 9999 FEW026TCU FEW026 34/24 Q1002 BECMG FM0700 FEW030CB
ZGKL,2025-07-08 07:00,ZGKL 080700Z VRB02MPS 9999 FEW026CB FEW026 35/24 Q1001 BECMG TL0800 FEW030
ZGKL,2025-07-08 08:00,ZGKL 080800Z VRB02MPS 9999 FEW026 36/24 Q1000 NOSIG
ZGKL,2025-07-08 09:00,ZGKL 080900Z 18003MPS 9999 FEW026 35/24 Q0999 NOSIG
ZGKL,2025-07-08 10:00,ZGKL 081000Z 15003MPS CAVOK 34/24 Q0998 NOSIG
ZGKL,2025-07-08 11:00,ZGKL 081100Z 13002MPS 100V180 9999 FEW053 34/24 Q0999 NOSIG
ZGKL,2025-07-08 12:00,ZGKL 081200Z VRB01MPS 9999 FEW026 32/25 Q1000 NOSIG
ZGKL,2025-07-08 13:00,ZGKL 081300Z 28001MPS 9999 FEW053 30/25 Q1001 NOSIG
ZGKL,2025-07-08 14:00,ZGKL 081400Z VRB01MPS 9999 FEW053 29/26 Q1002 NOSIG
ZGKL,2025-07-08 15:00,ZGKL 081500Z VRB01MPS 9999 FEW066 29/26 Q1002 NOSIG
ZGKL,2025-07-08 16:00,ZGKL 081600Z 25001MPS 9999 FEW066 28/26 Q1002 NOSIG
ZGKL,2025-07-08 17:00,ZGKL 081700Z VRB01MPS 9999 FEW066 28/25 Q1001 NOSIG
ZGKL,2025-07-08 18:00,ZGKL 081800Z VRB01MPS 9999 FEW046 28/25 Q1001 NOSIG
ZGKL,2025-07-08 19:00,ZGKL 081900Z 18001MPS 9999 FEW046 27/25 Q1001 NOSIG
ZGKL,2025-07-08 20:00,ZGKL 082000Z VRB01MPS 9999 FEW043 27/25 Q1001 NOSIG
ZGKL,2025-07-08 21:00,ZGKL 082100Z VRB01MPS 9999 FEW046 26/25 Q1001 NOSIG
ZGKL,2025-07-08 22:00,ZGKL 082200Z VRB01MPS 9999 FEW023 SCT053 26/25 Q1001 NOSIG
ZGKL,2025-07-08 23:00,ZGKL 082300Z 35002MPS 320V040 9999 SCT053 SCT073 27/25 Q1002 NOSIG
ZGKL,2025-07-09 00:00,ZGKL 090000Z VRB01MPS 9999 FEW026 SCT060 28/25 Q1003 NOSIG
ZGKL,2025-07-09 01:00,ZGKL 090100Z 27002MPS 220V350 CAVOK 30/25 Q1003 NOSIG
ZGKL,2025-07-09 02:00,ZGKL 090200Z VRB01MPS 9999 FEW026TCU FEW026 32/26 Q1002 NOSIG
ZGKL,2025-07-09 03:00,ZGKL 090300Z 03002MPS 350V100 9999 FEW026TCU FEW026 33/26 Q1002 NOSIG
ZGKL,2025-07-09 04:00,ZGKL 090400Z VRB01MPS 9999 FEW030TCU FEW030 33/25 Q1001 NOSIG
ZGKL,2025-07-09 05:00,ZGKL 090500Z VRB01MPS 9999 SCT030 36/25 Q1001 NOSIG
ZGKL,2025-07-09 06:00,ZGKL 090600Z VRB02MPS 9999 FEW030TCU FEW030 36/25 Q0999 BECMG FM0730 FEW030CB SCT050
ZGKL,2025-07-09 07:00,ZGKL 090700Z VRB01MPS 9999 FEW030TCU FEW030 37/24 Q0999 BECMG FM0800 FEW030CB SCT050
ZGKL,2025-07-09 08:00,ZGKL 090800Z VRB01MPS 9999 FEW033CB FEW033 38/24 Q0998 BECMG FM0900 FEW030
ZGKL,2025-07-09 09:00,ZGKL 090900Z 15002MPS 090V250 9999 FEW033 36/24 Q0997 NOSIG
ZGKL,2025-07-09 10:00,ZGKL 091000Z 15002MPS 120V180 9999 FEW030 35/23 Q0997 NOSIG
ZGKL,2025-07-09 11:00,ZGKL 091100Z 02005MPS 9999 FEW033CB FEW046 SCT066 34/25 Q0998 BECMG TL1115 32001MPS SCT033 OVC050
ZGKL,2025-07-09 12:00,ZGKL 091200Z 03005MPS 010V070 9999 SCT066 31/24 Q0999 BECMG TL1300 32001MPS
ZGKL,2025-07-09 13:00,ZGKL 091300Z 34002MPS 9999 SCT060 29/24 Q0999 NOSIG
ZGKL,2025-07-09 14:00,ZGKL 091400Z VRB01MPS 9999 FEW026 SCT050 28/24 Q1000 NOSIG
ZGKL,2025-07-09 15:00,ZGKL 091500Z 02004MPS CAVOK 28/25 Q1000 NOSIG
ZGKL,2025-07-09 16:00,ZGKL 091600Z 36002MPS CAVOK 27/25 Q1001 NOSIG
ZGKL,2025-07-09 17:00,ZGKL 091700Z VRB01MPS CAVOK 27/25 Q1000 NOSIG
ZGKL,2025-07-09 18:00,ZGKL 091800Z VRB01MPS CAVOK 26/25 Q0999 NOSIG
ZGKL,2025-07-09 19:00,ZGKL 091900Z VRB01MPS CAVOK 26/25 Q0999 NOSIG
ZGKL,2025-07-09 20:00,ZGKL 092000Z VRB01MPS CAVOK 26/25 Q0999 NOSIG
ZGKL,2025-07-09 21:00,ZGKL 092100Z VRB01MPS 9999 FEW046 26/25 Q0999 NOSIG
ZGKL,2025-07-09 22:00,ZGKL 092200Z VRB01MPS 9999 SCT066 26/24 Q0999 NOSIG
ZGKL,2025-07-09 23:00,ZGKL 092300Z VRB01MPS 9999 SCT066 27/24 Q0999 NOSIG
ZGKL,2025-07-10 00:00,ZGKL 100000Z VRB01MPS 9999 FEW066 29/24 Q0999 NOSIG
ZGKL,2025-07-10 01:00,ZGKL 100100Z 34002MPS 300V010 9999 FEW030 SCT053 30/24 Q1000 NOSIG
ZGKL,2025-07-10 02:00,ZGKL 100200Z 33002MPS 280V010 9999 BKN066 31/25 Q1000 BECMG FM0350 FEW030 FEW033CB BKN040
ZGKL,2025-07-10 03:00,ZGKL 100300Z 35003MPS 300V020 9999 FEW043 SCT066 32/25 Q1000 BECMG FM0450 FEW030 FEW033CB BKN040
ZGKL,2025-07-10 04:00,ZGKL 100400Z 04005MPS 9999 FEW033CB FEW033 SCT060 31/24 Q1000 NOSIG
ZGKL,2025-07-10 05:00,ZGKL 100500Z 01004MPS 330V040 9999 FEW033CB FEW033 SCT056 32/25 Q0999 BECMG TL0600 FEW030 SCT050
ZGKL,2025-07-10 06:00,ZGKL 100600Z 04003MPS 330V080 9999 FEW030 34/25 Q0999 NOSIG
ZGKL,2025-07-10 07:00,ZGKL 100700Z 06005MPS 030V090 9999 FEW030 SCT073 34/24 Q0998 NOSIG
ZGKL,2025-07-10 08:00,ZGKL 100800Z 06004MPS 9999 FEW030 SCT053 33/24 Q0997 NOSIG
ZGKL,2025-07-10 09:00,ZGKL 100900Z 04003MPS 020V080 9999 FEW030TCU SCT053 33/24 Q0997 NOSIG
ZGKL,2025-07-10 10:00,ZGKL 101000Z 02004MPS 9999 FEW053 32/24 Q0997 NOSIG
ZGKL,2025-07-10 11:00,ZGKL 101100Z 33002MPS 260V030 9999 FEW053 30/26 Q0997 NOSIG
ZGKL,2025-07-10 12:00,ZGKL 101200Z 02002MPS 350V070 9999 FEW053 29/25 Q0998 NOSIG
ZGKL,2025-07-10 13:00,ZGKL 101300Z 35001MPS 9999 FEW066 28/25 Q0999 NOSIG
ZGKL,2025-07-10 14:00,ZGKL 101400Z 33002MPS 290V360 9999 FEW066 28/25 Q0999 NOSIG
ZGKL,2025-07-10 15:00,ZGKL 101500Z 35003MPS 9999 FEW053 27/25 Q1000 NOSIG
ZGKL,2025-07-10 16:00,ZGKL 101600Z 35003MPS 9999 FEW053 28/25 Q1000 NOSIG
ZGKL,2025-07-10 17:00,ZGKL 101700Z 36003MPS 9999 SCT053 28/24 Q1000 NOSIG
ZGKL,2025-07-10 18:00,ZGKL 101800Z 34001MPS 9999 BKN053 27/24 Q0999 NOSIG
ZGKL,2025-07-10 19:00,ZGKL 101900Z 00000MPS 9999 SCT053 27/24 Q0999 NOSIG
ZGKL,2025-07-10 20:00,ZGKL 102000Z VRB01MPS 9999 SCT053 27/24 Q0999 NOSIG
ZGKL,2025-07-10 21:00,ZGKL 102100Z 32002MPS 290V350 9999 FEW053 27/24 Q0999 NOSIG
ZGKL,2025-07-10 22:00,ZGKL 102200Z VRB01MPS 9999 FEW053 26/24 Q0999 NOSIG
ZGKL,2025-07-10 23:00,ZGKL 102300Z VRB01MPS 9999 SCT050 27/24 Q1000 NOSIG
ZGKL,2025-07-11 00:00,ZGKL 110000Z 32002MPS 280V350 9999 SCT050 28/24 Q1000 NOSIG
ZGKL,2025-07-11 01:00,ZGKL 110100Z 01003MPS 310V050 9999 SCT036 31/24 Q1001 NOSIG
ZGKL,2025-07-11 02:00,ZGKL 110200Z 03005MPS 9999 FEW030 SCT040 32/23 Q1002 NOSIG
ZGKL,2025-07-11 03:00,ZGKL 110300Z 03005MPS 9999 FEW026 SCT043 32/23 Q1002 NOSIG
ZGKL,2025-07-11 04:00,ZGKL 110400Z 03007MPS 360V060 9999 FEW026 SCT043 33/22 Q1002 NOSIG
ZGKL,2025-07-11 05:00,ZGKL 110500Z 03005MPS 350V050 9999 FEW026 SCT046 34/22 Q1001 BECMG TL0600 FEW033CB
ZGKL,2025-07-11 06:00,ZGKL 110600Z 03007MPS 9999 FEW026 FEW033CB 34/23 Q1001 BECMG FM0700 FEW030
ZGKL,2025-07-11 07:00,ZGKL 110700Z 04006MPS 010V080 9999 FEW026 FEW033CB 36/23 Q1000 BECMG FM0800 FEW030
ZGKL,2025-07-11 08:00,ZGKL 110800Z 04007MPS 010V070 9999 FEW026 36/23 Q0999 NOSIG
ZGKL,2025-07-11 09:00,ZGKL 110900Z 06005MPS 9999 FEW026 FEW033CB 35/23 Q0999 BECMG TL1000 FEW030
ZGKL,2025-07-11 10:00,ZGKL 111000Z 06006MPS 9999 FEW026 FEW033CB 35/23 Q0999 BECMG TL1100 FEW033
ZGKL,2025-07-11 11:00,ZGKL 111100Z 35002MPS 9999 FEW033TCU FEW033 SCT066 32/24 Q1000 BECMG FM1200 SHRA FEW030CB
ZGKL,2025-07-11 12:00,ZGKL 111200Z 36003MPS 320V030 9999 FEW036CB FEW036 SCT060 30/25 Q1002 BECMG TL1330 FEW030
ZGKL,2025-07-11 13:00,ZGKL 111300Z 01003MPS 9999 FEW033CB SCT053 29/23 Q1003 BECMG TL1400 FEW030
ZGKL,2025-07-11 14:00,ZGKL 111400Z 36003MPS 9999 FEW043 27/23 Q1004 BECMG FM1510 FEW030CB
ZGKL,2025-07-11 15:00,ZGKL 111500Z 33002MPS 290V360 9999 FEW043 SCT060 27/23 Q1004 NOSIG
ZGKL,2025-07-11 16:00,ZGKL 111600Z VRB01MPS 9999 FEW043 SCT060 26/23 Q1004 NOSIG
ZGKL,2025-07-11 17:00,ZGKL 111700Z VRB01MPS 9999 SCT043 BKN066 26/24 Q1004 NOSIG
ZGKL,2025-07-11 18:00,ZGKL 111800Z 32002MPS 270V340 9999 -RA SCT050 BKN073 25/24 Q1003 NOSIG
ZGKL,2025-07-11 19:00,ZGKL 111900Z VRB01MPS 9999 SCT050 OVC073 25/24 Q1004 NOSIG
ZGKL,2025-07-11 20:00,ZGKL 112000Z 11001MPS 9999 SCT050 OVC073 26/24 Q1004 NOSIG
ZGKL,2025-07-11 21:00,ZGKL 112100Z VRB01MPS 9999 SCT050 25/24 Q1004 NOSIG
ZGKL,2025-07-11 22:00,ZGKL 112200Z VRB01MPS 9999 SCT043 25/24 Q1004 NOSIG
ZGKL,2025-07-11 23:00,ZGKL 112300Z VRB01MPS 9999 FEW036 SCT046 25/24 Q1005 NOSIG
ZGKL,2025-07-12 00:00,ZGKL 120000Z VRB01MPS 9999 FEW043 BKN060 26/24 Q1005 NOSIG
ZGKL,2025-07-12 01:00,ZGKL 120100Z VRB01MPS 9999 BKN066 28/24 Q1006 NOSIG
ZGKL,2025-07-12 02:00,ZGKL 120200Z VRB01MPS 9999 SCT073 28/25 Q1006 NOSIG
ZGKL,2025-07-12 03:00,ZGKL 120300Z VRB01MPS 6000 -RA SCT070 28/25 Q1007 NOSIG
ZGKL,2025-07-12 04:00,ZGKL 120400Z 18002MPS 130V230 3400 -RA BR FEW010 SCT060 27/26 Q1007 BECMG TL0500 2500
ZGKL,2025-07-12 05:00,ZGKL 120500Z VRB01MPS 2900 -RA BR FEW010 SCT040 OVC066 27/26 Q1006 BECMG TL0530 4000
ZGKL,2025-07-12 06:00,ZGKL 120600Z VRB01MPS 4500 -RA BR FEW013 SCT040 OVC060 28/26 Q1006 NOSIG
ZGKL,2025-07-12 07:00,ZGKL 120700Z 26002MPS 220V340 8000 FEW040 SCT066 30/26 Q1005 NOSIG
ZGKL,2025-07-12 08:00,ZGKL 120800Z VRB01MPS 9999 FEW056 30/25 Q1005 NOSIG
ZGKL,2025-07-12 09:00,ZGKL 120900Z 20002MPS 160V230 9999 SCT060 29/25 Q1004 NOSIG
ZGKL,2025-07-12 10:00,ZGKL 121000Z VRB01MPS 9999 BKN060 29/25 Q1004 NOSIG
ZGKL,2025-07-12 11:00,ZGKL 121100Z VRB01MPS 9999 SCT070 28/26 Q1004 NOSIG
ZGKL,2025-07-12 12:00,ZGKL 121200Z VRB01MPS 9999 SCT070 28/26 Q1005 BECMG TL1300 FEW030CB SCT040
ZGKL,2025-07-12 13:00,ZGKL 121300Z 12005MPS 080V150 9999 -TSRA FEW016 FEW033CB SCT033 BKN066 26/23 Q1006 BECMG TL1330 20002MPS NSW FEW030
ZGKL,2025-07-12 14:00,ZGKL 121400Z 00000MPS 9999 FEW040 SCT073 25/23 Q1007 RETS NOSIG
ZGKL,2025-07-12 15:00,ZGKL 121500Z VRB01MPS CAVOK 25/24 Q1007 NOSIG
ZGKL,2025-07-12 16:00,ZGKL 121600Z 00000MPS CAVOK 24/24 Q1007 NOSIG
ZGKL,2025-07-12 17:00,ZGKL 121700Z 00000MPS CAVOK 24/24 Q1006 NOSIG
ZGKL,2025-07-12 18:00,ZGKL 121800Z VRB01MPS CAVOK 24/24 Q1006 NOSIG
ZGKL,2025-07-12 19:00,ZGKL 121900Z VRB01MPS CAVOK 24/24 Q1006 NOSIG
ZGKL,2025-07-12 20:00,ZGKL 122000Z VRB01MPS 9999 SCT070 24/23 Q1006 NOSIG
ZGKL,2025-07-12 21:00,ZGKL 122100Z 26001MPS 9999 BKN066 24/24 Q1006 NOSIG
ZGKL,2025-07-12 22:00,ZGKL 122200Z VRB01MPS 9999 SCT046 OVC070 25/24 Q1007 NOSIG
ZGKL,2025-07-12 23:00,ZGKL 122300Z 00000MPS 9999 SCT050 25/24 Q1007 NOSIG
ZGKL,2025-07-13 00:00,ZGKL 130000Z VRB01MPS 9999 SCT066 26/25 Q1007 NOSIG
ZGKL,2025-07-13 01:00,ZGKL 130100Z VRB01MPS CAVOK 29/25 Q1007 NOSIG
ZGKL,2025-07-13 02:00,ZGKL 130200Z VRB01MPS CAVOK 31/24 Q1007 NOSIG
ZGKL,2025-07-13 03:00,ZGKL 130300Z VRB01MPS 9999 FEW026TCU 32/25 Q1007 BECMG FM0450 FEW030CB
ZGKL,2025-07-13 04:00,ZGKL 130400Z VRB01MPS 9999 FEW026TCU FEW026 33/24 Q1006 BECMG FM0450 FEW030CB
ZGKL,2025-07-13 05:00,ZGKL 130500Z VRB01MPS 9999 FEW030CB SCT030 BKN066 34/26 Q1006 BECMG FM0530 33005MPS SHRA
ZGKL,2025-07-13 06:00,ZGKL 130600Z 33002MPS 250V020 9999 FEW030CB FEW030 SCT066 32/26 Q1005 NOSIG
ZGKL,2025-07-13 07:00,ZGKL 130700Z 35003MPS 9999 FEW030CB SCT040 BKN066 32/25 Q1005 BECMG FM0800 TSRA
ZGKL,2025-07-13 08:00,ZGKL 130800Z 15006MPS 9999 -TSRA FEW030CB SCT036 BKN060 28/24 Q1005 BECMG FM0840 33002MPS TSRA
ZGKL,2025-07-13 09:00,ZGKL 130900Z 18004MPS 9999 -TSRA FEW033CB SCT033 BKN053 25/25 Q1006 BECMG FM0930 NSW
ZGKL,2025-07-13 10:00,ZGKL 131000Z 23002MPS 200V270 9999 -SHRA FEW033CB SCT033 BKN053 25/24 Q1006 RETS BECMG FM1150 FEW030 SCT050
ZGKL,2025-07-13 11:00,ZGKL 131100Z VRB01MPS 9999 -SHRA FEW033CB SCT033 BKN053 25/25 Q1005 BECMG FM1200 FEW030 SCT050
ZGKL,2025-07-13 12:00,ZGKL 131200Z 07002MPS 330V110 6000 -RA SCT030 OVC053 25/25 Q1006 NOSIG
ZGKL,2025-07-13 13:00,ZGKL 131300Z 20001MPS 7000 -RA BKN030 OVC053 25/25 Q1006 NOSIG
ZGKL,2025-07-13 14:00,ZGKL 131400Z 18002MPS 6000 -RA BKN030 OVC053 25/25 Q1006 NOSIG
ZGKL,2025-07-13 15:00,ZGKL 131500Z 19001MPS 6000 SCT030 BKN053 25/25 Q1007 NOSIG
ZGKL,2025-07-13 16:00,ZGKL 131600Z VRB01MPS 6000 FEW010 25/25 Q1007 NOSIG
ZGKL,2025-07-13 17:00,ZGKL 131700Z VRB01MPS 6000 SCT050 25/25 Q1006 NOSIG
ZGKL,2025-07-13 18:00,ZGKL 131800Z 13001MPS 3000 BR SCT030 OVC050 25/24 Q1006 NOSIG
ZGKL,2025-07-13 19:00,ZGKL 131900Z 00000MPS 3500 R19/0500D BCFG BR FEW010 SCT026 OVC050 25/25 Q1006 NOSIG
ZGKL,2025-07-13 20:00,ZGKL 132000Z VRB01MPS 3800 BCFG BR FEW010 SCT026 OVC050 25/25 Q1006 NOSIG
ZGKL,2025-07-13 21:00,ZGKL 132100Z 18002MPS 4000 BCFG BR FEW010 SCT026 OVC053 25/25 Q1006 NOSIG
ZGKL,2025-07-13 22:00,ZGKL 132200Z VRB01MPS 3000 BCFG BR FEW010 SCT026 OVC046 25/25 Q1006 NOSIG
ZGKL,2025-07-13 23:00,ZGKL 132300Z 21001MPS 3000 BR FEW005 SCT026 OVC046 25/25 Q1006 NOSIG
ZGKL,2025-07-14 00:00,ZGKL 140000Z VRB01MPS 4000 BR FEW005 BKN026 OVC043 25/25 Q1006 NOSIG
ZGKL,2025-07-14 01:00,ZGKL 140100Z 00000MPS 4500 BR FEW006 SCT030 BKN046 26/25 Q1006 NOSIG
ZGKL,2025-07-14 02:00,ZGKL 140200Z VRB01MPS 6000 FEW011 SCT026 BKN050 28/25 Q1007 NOSIG
ZGKL,2025-07-14 03:00,ZGKL 140300Z VRB01MPS 7000 FEW013 SCT033 30/25 Q1006 NOSIG
ZGKL,2025-07-14 04:00,ZGKL 140400Z VRB01MPS 9999 FEW020 31/26 Q1006 NOSIG
ZGKL,2025-07-14 05:00,ZGKL 140500Z VRB01MPS 9999 FEW026TCU FEW026 33/26 Q1005 BECMG FM0630 FEW030CB
ZGKL,2025-07-14 06:00,ZGKL 140600Z 19002MPS 140V230 9999 FEW030TCU FEW030 33/26 Q1004 BECMG FM0700 FEW030CB
ZGKL,2025-07-14 07:00,ZGKL 140700Z VRB01MPS 9999 FEW030CB SCT030 34/25 Q1003 NOSIG
ZGKL,2025-07-14 08:00,ZGKL 140800Z 23001MPS 9999 FEW030CB FEW030 32/26 Q1002 NOSIG
ZGKL,2025-07-14 09:00,ZGKL 140900Z VRB01MPS 9999 FEW033CB FEW033 SCT060 33/26 Q1002 NOSIG
ZGKL,2025-07-14 10:00,ZGKL 141000Z VRB01MPS 9999 FEW033CB FEW033 31/26 Q1002 BECMG TL1130 FEW030
ZGKL,2025-07-14 11:00,ZGKL 141100Z 16002MPS 9999 FEW040TCU FEW040 31/26 Q1003 BECMG FM1130 FEW030CB BKN050
ZGKL,2025-07-14 12:00,ZGKL 141200Z 18003MPS 9999 FEW033CB 29/26 Q1003 RETS BECMG FM1300 SCT033
ZGKL,2025-07-14 13:00,ZGKL 141300Z VRB01MPS 9999 FEW043 29/25 Q1003 NOSIG
ZGKL,2025-07-14 14:00,ZGKL 141400Z 29001MPS 9999 FEW040 28/25 Q1003 NOSIG
ZGKL,2025-07-14 15:00,ZGKL 141500Z 18003MPS CAVOK 27/25 Q1003 NOSIG
ZGKL,2025-07-14 16:00,ZGKL 141600Z 18004MPS CAVOK 27/26 Q1004 NOSIG
ZGKL,2025-07-14 17:00,ZGKL 141700Z 18003MPS CAVOK 27/24 Q1003 NOSIG
ZGKL,2025-07-14 18:00,ZGKL 141800Z 17005MPS CAVOK 26/23 Q1003 NOSIG
ZGKL,2025-07-14 19:00,ZGKL 141900Z 17004MPS CAVOK 25/23 Q1003 NOSIG
ZGKL,2025-07-14 20:00,ZGKL 142000Z 17004MPS CAVOK 25/23 Q1003 NOSIG
ZGKL,2025-07-14 21:00,ZGKL 142100Z 18003MPS 9999 FEW040 25/23 Q1003 NOSIG
ZGKL,2025-07-14 22:00,ZGKL 142200Z 20002MPS 9999 FEW026 SCT040 25/23 Q1004 NOSIG
ZGKL,2025-07-14 23:00,ZGKL 142300Z 18002MPS 9999 FEW026 SCT036 OVC066 26/23 Q1004 NOSIG
ZGKL,2025-07-15 00:00,ZGKL 150000Z 17003MPS 9999 FEW040 SCT053 27/24 Q1004 NOSIG
ZGKL,2025-07-15 01:00,ZGKL 150100Z 18003MPS 150V210 9999 FEW026 SCT033 BKN053 28/24 Q1004 NOSIG
ZGKL,2025-07-15 02:00,ZGKL 150200Z 17004MPS 9999 SCT033 BKN053 29/24 Q1004 NOSIG
ZGKL,2025-07-15 03:00,ZGKL 150300Z 15002MPS 110V190 9999 SCT033 BKN053 30/25 Q1004 NOSIG
ZGKL,2025-07-15 04:00,ZGKL 150400Z 16003MPS 120V210 9999 SCT033 31/25 Q1004 NOSIG
ZGKL,2025-07-15 05:00,ZGKL 150500Z 18004MPS 140V230 9999 FEW026 SCT036 33/25 Q1003 NOSIG
ZGKL,2025-07-15 06:00,ZGKL 150600Z 16004MPS 130V200 9999 FEW026TCU FEW026 34/25 Q1003 BECMG FM0700 FEW033CB FEW033
ZGKL,2025-07-15 07:00,ZGKL 150700Z 17004MPS 130V200 9999 FEW026CB FEW026 34/25 Q1002 BECMG FM0800 FEW033
ZGKL,2025-07-15 08:00,ZGKL 150800Z VRB02MPS CAVOK 35/24 Q1001 NOSIG
ZGKL,2025-07-15 09:00,ZGKL 150900Z VRB01MPS 9999 FEW073 34/23 Q1000 NOSIG
ZGKL,2025-07-15 10:00,ZGKL 151000Z 18004MPS 9999 FEW073 33/24 Q1000 NOSIG
ZGKL,2025-07-15 11:00,ZGKL 151100Z 21002MPS CAVOK 32/25 Q1000 NOSIG
ZGKL,2025-07-15 12:00,ZGKL 151200Z 20001MPS CAVOK 30/25 Q1001 NOSIG
ZGKL,2025-07-15 13:00,ZGKL 151300Z 25001MPS CAVOK 29/26 Q1001 NOSIG
ZGKL,2025-07-15 14:00,ZGKL 151400Z 20002MPS CAVOK 27/26 Q1002 NOSIG
ZGKL,2025-07-15 15:00,ZGKL 151500Z 35001MPS CAVOK 27/25 Q1003 NOSIG
ZGKL,2025-07-15 16:00,ZGKL 151600Z VRB01MPS CAVOK 27/25 Q1003 NOSIG
ZGKL,2025-07-15 17:00,ZGKL 151700Z 19002MPS CAVOK 26/25 Q1002 NOSIG
ZGKL,2025-07-15 18:00,ZGKL 151800Z 20002MPS CAVOK 26/25 Q1002 NOSIG
ZGKL,2025-07-15 19:00,ZGKL 151900Z 17003MPS 9999 FEW043 27/25 Q1002 NOSIG
ZGKL,2025-07-15 20:00,ZGKL 152000Z 18002MPS CAVOK 27/25 Q1003 NOSIG
ZGKL,2025-07-15 21:00,ZGKL 152100Z 19002MPS CAVOK 27/25 Q1003 NOSIG
ZGKL,2025-07-15 22:00,ZGKL 152200Z 18002MPS 9999 FEW043 27/25 Q1004 NOSIG
ZGKL,2025-07-15 23:00,ZGKL 152300Z 17002MPS 140V220 9999 FEW043 28/25 Q1004 NOSIG
ZGKL,2025-07-16 00:00,ZGKL 160000Z 17002MPS 100V200 9999 FEW043 29/26 Q1004 NOSIG
ZGKL,2025-07-16 01:00,ZGKL 160100Z 16004MPS 140V200 9999 FEW030 31/26 Q1005 NOSIG
ZGKL,2025-07-16 02:00,ZGKL 160200Z 16005MPS 9999 FEW030 SCT050 32/25 Q1005 NOSIG
ZGKL,2025-07-16 03:00,ZGKL 160300Z 16005MPS 9999 SCT030 33/25 Q1005 NOSIG
ZGKL,2025-07-16 04:00,ZGKL 160400Z 19005MPS 9999 FEW030TCU SCT030 34/26 Q1005 NOSIG
ZGKL,2025-07-16 05:00,ZGKL 160500Z 18006MPS 150V210 9999 FEW030TCU SCT030 BKN060 34/26 Q1004 BECMG FM0630 FEW030CB SCT030
ZGKL,2025-07-16 06:00,ZGKL 160600Z 19004MPS 140V230 9999 FEW030 34/25 Q1003 BECMG TL0700 FEW030CB SCT030
ZGKL,2025-07-16 07:00,ZGKL 160700Z 17006MPS 9999 FEW030 35/25 Q1003 NOSIG
ZGKL,2025-07-16 08:00,ZGKL 160800Z 17004MPS 130V200 9999 FEW030 35/25 Q1002 NOSIG
ZGKL,2025-07-16 09:00,ZGKL 160900Z 17004MPS 130V200 9999 FEW030 35/25 Q1002 NOSIG
ZGKL,2025-07-16 10:00,ZGKL 161000Z 17005MPS 9999 FEW030 34/25 Q1002 NOSIG
ZGKL,2025-07-16 11:00,ZGKL 161100Z 19003MPS CAVOK 33/25 Q1001 NOSIG
ZGKL,2025-07-16 12:00,ZGKL 161200Z 20002MPS CAVOK 30/25 Q1002 NOSIG
ZGKL,2025-07-16 13:00,ZGKL 161300Z VRB01MPS CAVOK 29/25 Q1003 NOSIG
ZGKL,2025-07-16 14:00,ZGKL 161400Z VRB01MPS CAVOK 29/25 Q1003 NOSIG
ZGKL,2025-07-16 15:00,ZGKL 161500Z VRB01MPS CAVOK 28/26 Q1004 NOSIG
ZGKL,2025-07-16 16:00,ZGKL 161600Z VRB01MPS CAVOK 28/26 Q1004 NOSIG
ZGKL,2025-07-16 17:00,ZGKL 161700Z VRB01MPS CAVOK 27/25 Q1004 NOSIG
ZGKL,2025-07-16 18:00,ZGKL 161800Z 18002MPS CAVOK 26/25 Q1003 NOSIG
ZGKL,2025-07-16 19:00,ZGKL 161900Z 18003MPS CAVOK 27/25 Q1003 NOSIG
ZGKL,2025-07-16 20:00,ZGKL 162000Z 19002MPS CAVOK 26/25 Q1003 NOSIG
ZGKL,2025-07-16 21:00,ZGKL 162100Z 18003MPS CAVOK 27/25 Q1003 NOSIG
ZGKL,2025-07-16 22:00,ZGKL 162200Z 17003MPS CAVOK 27/25 Q1004 NOSIG
ZGKL,2025-07-16 23:00,ZGKL 162300Z VRB01MPS 9999 FEW030 27/25 Q1005 NOSIG
ZGKL,2025-07-17 00:00,ZGKL 170000Z 18003MPS CAVOK 29/26 Q1005 NOSIG
ZGKL,2025-07-17 01:00,ZGKL 170100Z 16003MPS 130V200 9999 FEW040 30/25 Q1005 NOSIG
ZGKL,2025-07-17 02:00,ZGKL 170200Z VRB02MPS 9999 FEW020 SCT046 32/25 Q1006 NOSIG
ZGKL,2025-07-17 03:00,ZGKL 170300Z 16003MPS 110V220 9999 FEW030 SCT046 32/25 Q1006 NOSIG
ZGKL,2025-07-17 04:00,ZGKL 170400Z 18003MPS 080V230 9999 FEW030 34/26 Q1005 NOSIG
ZGKL,2025-07-17 05:00,ZGKL 170500Z 18003MPS 130V230 9999 FEW030 34/25 Q1005 NOSIG
ZGKL,2025-07-17 06:00,ZGKL 170600Z 19002MPS 100V260 9999 FEW030 35/25 Q1004 NOSIG
ZGKL,2025-07-17 07:00,ZGKL 170700Z 16004MPS 130V200 9999 FEW033 35/25 Q1003 NOSIG
ZGKL,2025-07-17 08:00,ZGKL 170800Z 19004MPS 9999 FEW033 36/25 Q1002 NOSIG
ZGKL,2025-07-17 09:00,ZGKL 170900Z 17004MPS 140V200 CAVOK 36/25 Q1002 NOSIG
ZGKL,2025-07-17 10:00,ZGKL 171000Z 18003MPS CAVOK 34/25 Q1001 NOSIG
ZGKL,2025-07-17 11:00,ZGKL 171100Z 19002MPS CAVOK 33/26 Q1001 NOSIG
ZGKL,2025-07-17 12:00,ZGKL 171200Z 17002MPS CAVOK 31/26 Q1002 NOSIG
ZGKL,2025-07-17 13:00,ZGKL 171300Z 20002MPS CAVOK 29/26 Q1002 NOSIG
ZGKL,2025-07-17 14:00,ZGKL 171400Z VRB01MPS CAVOK 29/26 Q1003 NOSIG
ZGKL,2025-07-17 15:00,ZGKL 171500Z 27001MPS CAVOK 29/26 Q1003 NOSIG
ZGKL,2025-07-17 16:00,ZGKL 171600Z VRB01MPS CAVOK 27/26 Q1003 NOSIG
ZGKL,2025-07-17 17:00,ZGKL 171700Z VRB01MPS CAVOK 27/26 Q1002 NOSIG
ZGKL,2025-07-17 18:00,ZGKL 171800Z 20001MPS CAVOK 26/25 Q1002 NOSIG
ZGKL,2025-07-17 19:00,ZGKL 171900Z 00000MPS CAVOK 26/25 Q1002 NOSIG
ZGKL,2025-07-17 20:00,ZGKL 172000Z 30001MPS CAVOK 26/25 Q1002 NOSIG
ZGKL,2025-07-17 21:00,ZGKL 172100Z 00000MPS CAVOK 26/25 Q1002 NOSIG
ZGKL,2025-07-17 22:00,ZGKL 172200Z VRB01MPS CAVOK 26/25 Q1002 NOSIG
ZGKL,2025-07-17 23:00,ZGKL 172300Z 00000MPS CAVOK 27/25 Q1003 NOSIG
ZGKL,2025-07-18 00:00,ZGKL 180000Z VRB01MPS CAVOK 28/26 Q1003 NOSIG
ZGKL,2025-07-18 01:00,ZGKL 180100Z VRB01MPS CAVOK 29/26 Q1003 NOSIG
ZGKL,2025-07-18 02:00,ZGKL 180200Z VRB01MPS CAVOK 31/26 Q1003 NOSIG
ZGKL,2025-07-18 03:00,ZGKL 180300Z 17002MPS 080V220 CAVOK 33/27 Q1003 NOSIG
ZGKL,2025-07-18 04:00,ZGKL 180400Z 17002MPS 120V220 9999 FEW030 34/26 Q1002 NOSIG
ZGKL,2025-07-18 05:00,ZGKL 180500Z VRB02MPS 9999 FEW030 35/27 Q1000 NOSIG
ZGKL,2025-07-18 06:00,ZGKL 180600Z 17002MPS 090V240 9999 FEW030 36/26 Q1000 NOSIG
ZGKL,2025-07-18 07:00,ZGKL 180700Z 10003MPS 050V130 9999 FEW030TCU SCT033 35/25 Q0999 BECMG FM0850 TSRA FEW030CB BKN033
ZGKL,2025-07-18 08:00,ZGKL 180800Z 35003MPS 320V030 9999 FEW030TCU SCT033 35/26 Q0998 BECMG TL0900 FEW030CB BKN033
ZGKL,2025-07-18 09:00,ZGKL 180900Z 02004MPS 9999 FEW030CB SCT040 35/26 Q0998 BECMG TL1000 FEW030 BKN040
ZGKL,2025-07-18 10:00,ZGKL 181000Z 35002MPS 320V020 9999 FEW033 32/26 Q0998 BECMG AT1020 FEW030CB BKN040
ZGKL,2025-07-18 11:00,ZGKL 181100Z 36002MPS 320V030 9999 FEW026CB FEW060 32/26 Q0999 BECMG TL1200 FEW030
ZGKL,2025-07-18 12:00,ZGKL 181200Z VRB01MPS CAVOK 30/27 Q0999 NOSIG
ZGKL,2025-07-18 13:00,ZGKL 181300Z VRB01MPS CAVOK 29/26 Q0999 NOSIG
ZGKL,2025-07-18 14:00,ZGKL 181400Z 36003MPS CAVOK 29/27 Q1000 NOSIG
ZGKL,2025-07-18 15:00,ZGKL 181500Z VRB01MPS CAVOK 29/27 Q1001 NOSIG
ZGKL,2025-07-18 16:00,ZGKL 181600Z VRB01MPS CAVOK 28/26 Q1001 NOSIG
ZGKL,2025-07-18 17:00,ZGKL 181700Z VRB01MPS CAVOK 28/26 Q1000 NOSIG
ZGKL,2025-07-18 18:00,ZGKL 181800Z VRB01MPS CAVOK 28/26 Q0999 NOSIG
ZGKL,2025-07-18 19:00,ZGKL 181900Z VRB01MPS CAVOK 28/26 Q0999 NOSIG
ZGKL,2025-07-18 20:00,ZGKL 182000Z 05002MPS 020V090 9999 FEW033 28/25 Q0999 NOSIG
ZGKL,2025-07-18 21:00,ZGKL 182100Z VRB01MPS CAVOK 27/25 Q0999 NOSIG
ZGKL,2025-07-18 22:00,ZGKL 182200Z 34002MPS 300V020 CAVOK 27/25 Q0999 NOSIG
ZGKL,2025-07-18 23:00,ZGKL 182300Z 34002MPS 310V010 CAVOK 27/25 Q0999 NOSIG
ZGKL,2025-07-19 00:00,ZGKL 190000Z 34002MPS 300V030 CAVOK 29/26 Q0999 BECMG TL0140 05005MPS
ZGKL,2025-07-19 01:00,ZGKL 190100Z 05004MPS 020V090 CAVOK 32/24 Q0999 NOSIG
ZGKL,2025-07-19 02:00,ZGKL 190200Z 04005MPS 010V070 9999 FEW030 34/25 Q1000 NOSIG
ZGKL,2025-07-19 03:00,ZGKL 190300Z 06005MPS 020V100 9999 FEW030 36/25 Q0999 NOSIG
ZGKL,2025-07-19 04:00,ZGKL 190400Z 04005MPS 9999 FEW030 36/25 Q0999 NOSIG
ZGKL,2025-07-19 05:00,ZGKL 190500Z 06005MPS 020V090 9999 FEW033TCU FEW033 37/25 Q0998 BECMG TL0630 FEW030CB SCT050
ZGKL,2025-07-19 06:00,ZGKL 190600Z 06006MPS 020V090 9999 FEW033CB FEW033 38/24 Q0997 NOSIG
ZGKL,2025-07-19 07:00,ZGKL 190700Z 05009MPS 9999 FEW033CB FEW033 39/23 Q0996 BECMG FM0800 01004MPS
ZGKL,2025-07-19 08:00,ZGKL 190800Z 06006MPS 9999 FEW033CB FEW033 38/24 Q0996 BECMG TL0930 FEW030 SCT050
ZGKL,2025-07-19 09:00,ZGKL 190900Z 05006MPS 020V080 CAVOK 38/24 Q0995 NOSIG
ZGKL,2025-07-19 10:00,ZGKL 191000Z 05005MPS 020V080 9999 FEW060 36/23 Q0995 NOSIG
ZGKL,2025-07-19 11:00,ZGKL 191100Z 05004MPS 020V080 9999 FEW066 35/23 Q0996 NOSIG
ZGKL,2025-07-19 12:00,ZGKL 191200Z 34002MPS 310V030 9999 FEW066 32/24 Q0996 NOSIG
ZGKL,2025-07-19 13:00,ZGKL 191300Z 34002MPS 300V010 9999 FEW066 31/24 Q0997 NOSIG
ZGKL,2025-07-19 14:00,ZGKL 191400Z VRB01MPS 9999 FEW066 30/25 Q0998 NOSIG
ZGKL,2025-07-19 15:00,ZGKL 191500Z VRB01MPS 9999 FEW060 28/25 Q0998 NOSIG
ZGKL,2025-07-19 16:00,ZGKL 191600Z 01002MPS 9999 SCT066 29/25 Q0998 NOSIG
ZGKL,2025-07-19 17:00,ZGKL 191700Z 02002MPS 350V070 9999 SCT066 29/24 Q0998 NOSIG
ZGKL,2025-07-19 18:00,ZGKL 191800Z 03004MPS 9999 FEW033 SCT066 30/23 Q0998 NOSIG
ZGKL,2025-07-19 19:00,ZGKL 191900Z 32003MPS 9999 FEW060 28/24 Q0998 NOSIG
ZGKL,2025-07-19 20:00,ZGKL 192000Z 33002MPS 280V010 CAVOK 27/24 Q0997 NOSIG
ZGKL,2025-07-19 21:00,ZGKL 192100Z 06002MPS 020V080 9999 FEW050 28/24 Q0997 NOSIG
ZGKL,2025-07-19 22:00,ZGKL 192200Z VRB01MPS 9999 FEW043 26/24 Q0997 NOSIG
ZGKL,2025-07-19 23:00,ZGKL 192300Z 34002MPS 310V010 9999 SCT046 27/24 Q0997 NOSIG
ZGKL,2025-07-20 00:00,ZGKL 200000Z VRB01MPS 9999 FEW046 28/24 Q0997 NOSIG
ZGKL,2025-07-20 01:00,ZGKL 200100Z 35002MPS 9999 FEW050 SCT073 30/25 Q0998 NOSIG
ZGKL,2025-07-20 02:00,ZGKL 200200Z 36005MPS 320V050 9999 FEW043 32/24 Q0998 BECMG FM0300 07005MPS
ZGKL,2025-07-20 03:00,ZGKL 200300Z 01008MPS 9999 FEW043 SCT066 33/24 Q0998 NOSIG
ZGKL,2025-07-20 04:00,ZGKL 200400Z 01008MPS 9999 FEW046 SCT070 33/24 Q0997 NOSIG
ZGKL,2025-07-20 05:00,ZGKL 200500Z 02009MPS 350V050 9999 FEW040 SCT060 35/24 Q0997 NOSIG
ZGKL,2025-07-20 06:00,ZGKL 200600Z 03008MPS 9999 FEW040 SCT060 35/24 Q0996 NOSIG
ZGKL,2025-07-20 07:00,ZGKL 200700Z 04006MPS 9999 FEW026 SCT060 35/24 Q0995 NOSIG
ZGKL,2025-07-20 08:00,ZGKL 200800Z 03006MPS 360V060 9999 FEW026 34/24 Q0995 NOSIG
ZGKL,2025-07-20 09:00,ZGKL 200900Z 04007MPS 9999 FEW046 35/24 Q0994 NOSIG
ZGKL,2025-07-20 10:00,ZGKL 201000Z 06005MPS 9999 FEW046 34/24 Q0994 BECMG TL1130 33002MPS
ZGKL,2025-07-20 11:00,ZGKL 201100Z 02005MPS 9999 FEW033CB FEW033 33/24 Q0995 BECMG FM1200 32002MPS SCT040
ZGKL,2025-07-20 12:00,ZGKL 201200Z 34002MPS 310V020 9999 FEW033 30/24 Q0995 NOSIG
ZGKL,2025-07-20 13:00,ZGKL 201300Z VRB01MPS 9999 FEW036 28/25 Q0996 NOSIG
ZGKL,2025-07-20 14:00,ZGKL 201400Z 06003MPS 9999 -RA FEW033 SCT066 28/25 Q0997 BECMG FM1430 SHRA FEW033CB BKN045
ZGKL,2025-07-20 15:00,ZGKL 201500Z 03004MPS 8000 -RA SCT040 OVC060 27/25 Q0998 NOSIG
ZGKL,2025-07-20 16:00,ZGKL 201600Z VRB01MPS 8000 -RA FEW016 SCT040 BKN060 26/25 Q0997 NOSIG
ZGKL,2025-07-20 17:00,ZGKL 201700Z VRB01MPS 9999 -RA FEW016 SCT040 BKN060 26/25 Q0997 NOSIG
ZGKL,2025-07-20 18:00,ZGKL 201800Z VRB01MPS 9999 -RA SCT040 BKN060 26/25 Q0996 NOSIG
ZGKL,2025-07-20 19:00,ZGKL 201900Z VRB01MPS 9999 FEW033 SCT060 26/26 Q0996 NOSIG
ZGKL,2025-07-20 20:00,ZGKL 202000Z 03002MPS 9999 FEW033 SCT060 27/25 Q0996 NOSIG
ZGKL,2025-07-20 21:00,ZGKL 202100Z VRB01MPS 9999 FEW033 SCT060 27/25 Q0996 NOSIG
ZGKL,2025-07-20 22:00,ZGKL 202200Z 32002MPS 270V010 9999 FEW036 SCT060 27/25 Q0996 NOSIG
ZGKL,2025-07-20 23:00,ZGKL 202300Z VRB01MPS 9999 -RA FEW033 SCT066 27/26 Q0997 NOSIG
ZGKL,2025-07-21 00:00,ZGKL 210000Z 35002MPS 320V020 9999 FEW036 SCT066 28/25 Q0998 NOSIG
ZGKL,2025-07-21 01:00,ZGKL 210100Z 03003MPS 9999 FEW036 SCT066 30/25 Q0997 NOSIG
ZGKL,2025-07-21 02:00,ZGKL 210200Z 04005MPS 9999 SCT043 31/25 Q0998 NOSIG
ZGKL,2025-07-21 03:00,ZGKL 210300Z 04007MPS 9999 SCT043 BKN066 32/24 Q0998 NOSIG
ZGKL,2025-07-21 04:00,ZGKL 210400Z 03008MPS 9999 SCT043 BKN066 33/24 Q0997 NOSIG
ZGKL,2025-07-21 05:00,ZGKL 210500Z 04009MPS 9999 FEW026 BKN043 34/25 Q0997 NOSIG
ZGKL,2025-07-21 06:00,ZGKL 210600Z 05006MPS 020V080 9999 FEW026 BKN073 32/25 Q0997 NOSIG
ZGKL,2025-07-21 07:00,ZGKL 210700Z 03007MPS 9999 FEW043 BKN073 33/24 Q0996 NOSIG
ZGKL,2025-07-21 08:00,ZGKL 210800Z 04006MPS 9999 FEW026 SCT046 33/24 Q0996 NOSIG
ZGKL,2025-07-21 09:00,ZGKL 210900Z 04007MPS 9999 FEW026 BKN070 32/24 Q0996 NOSIG
ZGKL,2025-07-21 10:00,ZGKL 211000Z 03006MPS 9999 FEW053 SCT073 31/24 Q0996 BECMG FM1130 32002MPS
ZGKL,2025-07-21 11:00,ZGKL 211100Z 03005MPS 9999 SCT046 BKN073 31/24 Q0996 BECMG FM1200 32002MPS
ZGKL,2025-07-21 12:00,ZGKL 211200Z 05005MPS 9999 -RA SCT046 BKN073 30/24 Q0998 BECMG FM1300 33002MPS FEW033CB BKN033
ZGKL,2025-07-21 13:00,ZGKL 211300Z 35002MPS 9999 -SHRA FEW033CB SCT046 BKN073 28/25 Q0998 BECMG FM1400 SCT033 BKN050
ZGKL,2025-07-21 14:00,ZGKL 211400Z 35002MPS 9999 SCT046 BKN073 27/25 Q0999 NOSIG
ZGKL,2025-07-21 15:00,ZGKL 211500Z 02002MPS 320V050 9999 FEW046 27/25 Q0999 NOSIG
ZGKL,2025-07-21 16:00,ZGKL 211600Z 01002MPS 9999 FEW046 27/25 Q0999 NOSIG
ZGKL,2025-07-21 17:00,ZGKL 211700Z 03004MPS 9999 -RA FEW046 27/25 Q0999 NOSIG
ZGKL,2025-07-21 18:00,ZGKL 211800Z VRB01MPS 7000 -DZ FEW023 BKN040 OVC053 26/25 Q0998 NOSIG
ZGKL,2025-07-21 19:00,ZGKL 211900Z 29001MPS 8000 FEW026 SCT040 OVC053 26/25 Q0998 NOSIG
ZGKL,2025-07-21 20:00,COR ZGKL 212000Z VRB01MPS 4000 SHRA BR FEW016 FEW026CB SCT040 BKN053 26/26 Q0998 NOSIG
ZGKL,2025-07-21 21:00,ZGKL 212100Z VRB01MPS 6000 SCT036 OVC050 26/25 Q0998 RESHRA NOSIG
ZGKL,2025-07-21 22:00,ZGKL 212200Z VRB01MPS 6000 SCT036 OVC050 26/25 Q0998 NOSIG
ZGKL,2025-07-21 23:00,ZGKL 212300Z 34002MPS 310V010 8000 SCT036 OVC050 26/25 Q0999 NOSIG
ZGKL,2025-07-22 00:00,ZGKL 220000Z 35002MPS 320V030 8000 SCT036 OVC050 26/26 Q0999 BECMG FM0100 05005MPS
ZGKL,2025-07-22 01:00,ZGKL 220100Z 01002MPS 320V040 9999 -RA SCT036 OVC053 27/26 Q1000 NOSIG
ZGKL,2025-07-22 02:00,ZGKL 220200Z 04003MPS 010V080 9999 -RA FEW010 SCT043 BKN060 29/27 Q1000 NOSIG
ZGKL,2025-07-22 03:00,ZGKL 220300Z 04004MPS 9999 FEW015 SCT040 BKN066 30/26 Q1000 BECMG TL0400 FEW030CB BKN050
ZGKL,2025-07-22 04:00,ZGKL 220400Z 04005MPS 9999 FEW033CB SCT033 BKN053 30/26 Q1000 BECMG TL0440 SHRA
ZGKL,2025-07-22 05:00,ZGKL 220500Z 12004MPS 090V150 4000 SHRA FEW010 FEW030CB SCT030 BKN053 25/24 Q1000 BECMG TL0530 05006MPS -SHRA
ZGKL,2025-07-22 06:00,ZGKL 220600Z VRB01MPS 7000 -SHRA FEW013 FEW030CB SCT030 BKN056 26/25 Q1000 RETSRA BECMG FM0700 FEW033 BKN050
ZGKL,2025-07-22 07:00,ZGKL 220700Z VRB01MPS 9999 FEW030CB SCT030 BKN056 26/25 Q0999 RETS NOSIG
ZGKL,2025-07-22 08:00,ZGKL 220800Z VRB01MPS 9999 FEW016 FEW033CB SCT033 BKN066 27/26 Q0999 BECMG TL0930 FEW033 BKN060
ZGKL,2025-07-22 09:00,ZGKL 220900Z 35002MPS 310V020 9999 FEW020 SCT036 BKN073 27/25 Q0999 BECMG TL1000 FEW033CB FEW033 BKN060
ZGKL,2025-07-22 10:00,ZGKL 221000Z VRB01MPS 9999 FEW020 FEW036CB SCT036 BKN066 27/25 Q0999 BECMG AT1030 14006MPS 2000 TSRA
ZGKL,2025-07-22 11:00,ZGKL 221100Z 06004MPS 030V090 5000 -TSRA BR FEW010 FEW033CB SCT033 BKN066 25/25 Q1000 RESHRA BECMG FM1135 -SHRA
ZGKL,2025-07-22 12:00,ZGKL 221200Z VRB01MPS 8000 -SHRA FEW010 FEW033CB SCT050 BKN066 25/25 Q1001 RETS BECMG FM1300 SCT030 BKN050
ZGKL,2025-07-22 13:00,ZGKL 221300Z 33001MPS 9999 -RA SCT046 BKN066 25/25 Q1002 NOSIG
ZGKL,2025-07-22 14:00,ZGKL 221400Z 35001MPS 9999 -RA SCT036 BKN066 25/25 Q1003 NOSIG
ZGKL,2025-07-22 15:00,ZGKL 221500Z 35001MPS 9999 -RA FEW033 BKN073 25/25 Q1004 NOSIG
ZGKL,2025-07-22 16:00,ZGKL 221600Z 36002MPS 9999 -RA FEW033 OVC073 25/25 Q1004 NOSIG
ZGKL,2025-07-22 17:00,ZGKL 221700Z 04002MPS 9999 -RA FEW033 OVC066 25/25 Q1003 NOSIG
ZGKL,2025-07-22 18:00,ZGKL 221800Z 03003MPS 6000 -RA FEW015 OVC053 25/25 Q1003 NOSIG
ZGKL,2025-07-22 19:00,ZGKL 221900Z 02002MPS 5000 -RA FEW013 SCT026 OVC053 25/25 Q1003 NOSIG
ZGKL,2025-07-22 20:00,ZGKL 222000Z 01002MPS 7000 -RA FEW010 SCT026 OVC053 25/25 Q1003 NOSIG
ZGKL,2025-07-22 21:00,ZGKL 222100Z 36002MPS 8000 -RA FEW010 SCT030 OVC053 25/25 Q1003 NOSIG
ZGKL,2025-07-22 22:00,ZGKL 222200Z VRB01MPS 9999 SCT033 BKN056 25/25 Q1003 NOSIG
ZGKL,2025-07-22 23:00,ZGKL 222300Z VRB01MPS 9999 FEW023 BKN040 OVC056 25/25 Q1004 NOSIG
ZGKL,2025-07-23 00:00,ZGKL 230000Z 04001MPS 9999 FEW023 BKN040 OVC056 25/25 Q1004 NOSIG
ZGKL,2025-07-23 01:00,ZGKL 230100Z VRB01MPS 9999 -RA FEW020 BKN040 OVC056 26/25 Q1005 NOSIG
ZGKL,2025-07-23 02:00,ZGKL 230200Z VRB01MPS 8000 -RA FEW005 SCT040 OVC060 26/25 Q1005 NOSIG
ZGKL,2025-07-23 03:00,ZGKL 230300Z VRB02MPS 8000 -SHRA FEW010 FEW040CB SCT040 BKN053 27/25 Q1005 NOSIG
ZGKL,2025-07-23 04:00,ZGKL 230400Z 07002MPS 010V110 9999 -RA FEW020 SCT043 BKN066 28/25 Q1005 BECMG FM0530 TSRA FEW030CB BKN040
ZGKL,2025-07-23 05:00,ZGKL 230500Z 35002MPS 280V030 9999 FEW023 SCT040 OVC066 28/25 Q1004 BECMG FM0540 TSRA FEW030CB BKN040
ZGKL,2025-07-23 06:00,ZGKL 230600Z 03004MPS 6000 -TSRA FEW010 FEW033CB SCT033 BKN060 28/26 Q1003 BECMG TL0640 NSW
ZGKL,2025-07-23 07:00,ZGKL 230700Z 05004MPS 9999 -RA FEW023 SCT036 BKN073 26/25 Q1003 RETS NOSIG
ZGKL,2025-07-23 08:00,ZGKL 230800Z 34002MPS 310V010 9999 -RA FEW023 SCT040 26/25 Q1003 NOSIG
ZGKL,2025-07-23 09:00,ZGKL 230900Z 03003MPS 350V050 9999 FEW026 26/25 Q1003 NOSIG
ZGKL,2025-07-23 10:00,ZGKL 231000Z 03002MPS 350V050 9999 FEW011 27/25 Q1003 NOSIG
ZGKL,2025-07-23 11:00,ZGKL 231100Z 03002MPS 020V080 9999 FEW046 SCT060 27/25 Q1004 NOSIG
ZGKL,2025-07-23 12:00,ZGKL 231200Z VRB01MPS 9999 FEW036 SCT060 26/25 Q1004 NOSIG
ZGKL,2025-07-23 13:00,ZGKL 231300Z VRB01MPS 9999 FEW036 SCT060 26/25 Q1005 NOSIG
ZGKL,2025-07-23 14:00,ZGKL 231400Z VRB01MPS 9999 SCT033 SCT060 26/25 Q1006 NOSIG
ZGKL,2025-07-23 15:00,ZGKL 231500Z VRB01MPS 9999 FEW043 SCT066 25/25 Q1006 NOSIG
ZGKL,2025-07-23 16:00,ZGKL 231600Z VRB01MPS 9999 FEW036 SCT066 25/24 Q1006 NOSIG
ZGKL,2025-07-23 17:00,ZGKL 231700Z VRB01MPS 9999 FEW046 SCT073 25/25 Q1006 NOSIG
ZGKL,2025-07-23 18:00,ZGKL 231800Z 34001MPS 9999 FEW073 25/24 Q1005 NOSIG
ZGKL,2025-07-23 19:00,ZGKL 231900Z VRB01MPS 9999 FEW040 25/24 Q1005 NOSIG
ZGKL,2025-07-23 20:00,ZGKL 232000Z VRB01MPS 9999 -RA FEW033 25/24 Q1004 NOSIG
ZGKL,2025-07-23 21:00,ZGKL 232100Z VRB01MPS 9999 FEW033 SCT050 25/24 Q1005 NOSIG
ZGKL,2025-07-23 22:00,ZGKL 232200Z VRB01MPS 8000 -RA SCT030 OVC046 25/24 Q1005 NOSIG
ZGKL,2025-07-23 23:00,ZGKL 232300Z VRB01MPS 8000 SCT030 OVC053 25/24 Q1005 NOSIG
ZGKL,2025-07-24 00:00,ZGKL 240000Z VRB01MPS 9999 FEW033 BKN060 26/25 Q1006 NOSIG
ZGKL,2025-07-24 01:00,ZGKL 240100Z 02002MPS 320V050 7000 FEW026 BKN043 28/26 Q1006 NOSIG
ZGKL,2025-07-24 02:00,ZGKL 240200Z VRB01MPS 9999 FEW026 BKN043 BKN060 30/25 Q1006 NOSIG
ZGKL,2025-07-24 03:00,ZGKL 240300Z VRB01MPS 9999 FEW026 SCT043 31/25 Q1006 NOSIG
ZGKL,2025-07-24 04:00,ZGKL 240400Z VRB01MPS 9999 FEW026 SCT043 BKN073 31/25 Q1005 BECMG FM0500 FEW030CB
ZGKL,2025-07-24 05:00,ZGKL 240500Z VRB01MPS 9999 FEW026 SCT043 BKN073 33/24 Q1004 BECMG FM0600 FEW030CB BKN040
ZGKL,2025-07-24 06:00,ZGKL 240600Z 07002MPS 020V140 9999 FEW030CB SCT033 34/25 Q1003 NOSIG
ZGKL,2025-07-24 07:00,ZGKL 240700Z 08004MPS 040V110 9999 FEW030CB SCT033 34/25 Q1002 NOSIG
ZGKL,2025-07-24 08:00,ZGKL 240800Z 03002MPS 300V080 9999 FEW030CB SCT033 33/25 Q1002 BECMG FM0900 SCT033 BKN050
ZGKL,2025-07-24 09:00,ZGKL 240900Z 06002MPS 360V100 9999 FEW030CB SCT033 34/23 Q1001 BECMG FM1000 SCT033 BKN050
ZGKL,2025-07-24 10:00,ZGKL 241000Z 06004MPS 020V090 CAVOK 30/24 Q1001 NOSIG
ZGKL,2025-07-24 11:00,ZGKL 241100Z 02002MPS 350V070 9999 FEW043 BKN060 29/25 Q1002 NOSIG
ZGKL,2025-07-24 12:00,ZGKL 241200Z VRB01MPS 9999 FEW050 SCT073 28/25 Q1003 NOSIG
ZGKL,2025-07-24 13:00,ZGKL 241300Z 34002MPS 290V360 9999 FEW060 27/24 Q1004 NOSIG
ZGKL,2025-07-24 14:00,ZGKL 241400Z 36002MPS CAVOK 27/24 Q1004 NOSIG
ZGKL,2025-07-24 15:00,ZGKL 241500Z 34002MPS 310V010 CAVOK 26/24 Q1005 NOSIG
ZGKL,2025-07-24 16:00,ZGKL 241600Z VRB01MPS CAVOK 26/24 Q1004 NOSIG
ZGKL,2025-07-24 17:00,ZGKL 241700Z 33002MPS 300V360 CAVOK 26/24 Q1004 NOSIG
ZGKL,2025-07-24 18:00,ZGKL 241800Z 34001MPS CAVOK 25/24 Q1003 NOSIG
ZGKL,2025-07-24 19:00,ZGKL 241900Z VRB01MPS CAVOK 25/24 Q1003 NOSIG
ZGKL,2025-07-24 20:00,ZGKL 242000Z VRB01MPS CAVOK 24/23 Q1002 NOSIG
ZGKL,2025-07-24 21:00,ZGKL 242100Z VRB01MPS CAVOK 24/23 Q1003 NOSIG
ZGKL,2025-07-24 22:00,ZGKL 242200Z VRB01MPS CAVOK 24/23 Q1003 NOSIG
ZGKL,2025-07-24 23:00,ZGKL 242300Z 36001MPS CAVOK 25/23 Q1003 NOSIG
ZGKL,2025-07-25 00:00,ZGKL 250000Z VRB01MPS CAVOK 27/24 Q1003 NOSIG
ZGKL,2025-07-25 01:00,ZGKL 250100Z VRB01MPS CAVOK 29/24 Q1004 NOSIG
ZGKL,2025-07-25 02:00,ZGKL 250200Z VRB01MPS CAVOK 31/24 Q1003 NOSIG
ZGKL,2025-07-25 03:00,ZGKL 250300Z VRB02MPS CAVOK 33/25 Q1003 NOSIG
ZGKL,2025-07-25 04:00,ZGKL 250400Z VRB02MPS 9999 FEW030 34/25 Q1003 BECMG FM0530 FEW030CB FEW030
ZGKL,2025-07-25 05:00,ZGKL 250500Z VRB01MPS 9999 FEW033 35/25 Q1002 BECMG TL0600 FEW030CB SCT050
ZGKL,2025-07-25 06:00,ZGKL 250600Z VRB02MPS 9999 FEW033CB FEW033 36/24 Q1001 NOSIG
ZGKL,2025-07-25 07:00,ZGKL 250700Z VRB01MPS 9999 FEW033CB FEW033 37/24 Q1000 BECMG TL0830 FEW030 SCT050
ZGKL,2025-07-25 08:00,ZGKL 250800Z 19002MPS 140V230 9999 FEW033CB FEW033 35/24 Q1000 BECMG TL0900 FEW030 SCT050
ZGKL,2025-07-25 09:00,ZGKL 250900Z 17002MPS 130V200 9999 FEW033TCU FEW033 35/24 Q0999 BECMG TL0950 -TSRA FEW030CB SCT050
ZGKL,2025-07-25 10:00,ZGKL 251000Z 31001MPS 9999 FEW033CB 33/26 Q0999 BECMG TL1130 FEW030 SCT050
ZGKL,2025-07-25 11:00,ZGKL 251100Z 04004MPS 010V070 9999 FEW033CB FEW033 SCT073 30/24 Q1000 BECMG TL1200 FEW030
ZGKL,2025-07-25 12:00,ZGKL 251200Z 35002MPS 310V010 9999 SCT066 28/24 Q1001 NOSIG
ZGKL,2025-07-25 13:00,ZGKL 251300Z VRB01MPS 9999 SCT066 27/24 Q1002 NOSIG
ZGKL,2025-07-25 14:00,ZGKL 251400Z 35002MPS 320V030 9999 FEW066 27/24 Q1003 NOSIG
ZGKL,2025-07-25 15:00,ZGKL 251500Z VRB01MPS 9999 FEW056 26/23 Q1003 NOSIG
ZGKL,2025-07-25 16:00,ZGKL 251600Z VRB01MPS 9999 FEW056 26/23 Q1003 NOSIG
ZGKL,2025-07-25 17:00,ZGKL 251700Z VRB01MPS 9999 SCT066 26/24 Q1003 NOSIG
ZGKL,2025-07-25 18:00,ZGKL 251800Z VRB01MPS 9999 SCT066 25/24 Q1002 NOSIG
ZGKL,2025-07-25 19:00,ZGKL 251900Z 35001MPS 9999 FEW066 25/23 Q1002 NOSIG
ZGKL,2025-07-25 20:00,ZGKL 252000Z VRB01MPS CAVOK 25/23 Q1002 NOSIG
ZGKL,2025-07-25 21:00,ZGKL 252100Z VRB01MPS CAVOK 24/23 Q1002 NOSIG
ZGKL,2025-07-25 22:00,ZGKL 252200Z VRB01MPS 9999 FEW066 24/23 Q1002 NOSIG
ZGKL,2025-07-25 23:00,ZGKL 252300Z 00000MPS CAVOK 25/24 Q1002 NOSIG
ZGKL,2025-07-26 00:00,ZGKL 260000Z 01002MPS 330V040 CAVOK 27/24 Q1002 NOSIG
ZGKL,2025-07-26 01:00,ZGKL 260100Z VRB01MPS CAVOK 29/24 Q1002 NOSIG
ZGKL,2025-07-26 02:00,ZGKL 260200Z VRB01MPS CAVOK 31/25 Q1002 NOSIG
ZGKL,2025-07-26 03:00,ZGKL 260300Z 17002MPS 090V230 9999 FEW026TCU 33/25 Q1002 NOSIG
ZGKL,2025-07-26 04:00,ZGKL 260400Z VRB02MPS 9999 FEW030TCU 34/25 Q1002 NOSIG
ZGKL,2025-07-26 05:00,ZGKL 260500Z VRB01MPS 9999 FEW030TCU FEW030 36/25 Q1001 BECMG FM0530 FEW033CB SCT040
ZGKL,2025-07-26 06:00,ZGKL 260600Z 09002MPS 340V130 9999 FEW030CB FEW030 36/24 Q1001 BECMG TL0750 FEW030 SCT060
ZGKL,2025-07-26 07:00,ZGKL 260700Z 27002MPS 230V300 9999 FEW030CB FEW030 34/26 Q1000 BECMG FM0800 FEW030 SCT060
ZGKL,2025-07-26 08:00,ZGKL 260800Z 22002MPS 9999 FEW030TCU FEW030 35/25 Q0999 BECMG FM0900 FEW030CB SCT060
ZGKL,2025-07-26 09:00,ZGKL 260900Z 23002MPS 9999 FEW030CB FEW030 35/25 Q0999 BECMG FM0950 05008MPS TSRA
ZGKL,2025-07-26 10:00,ZGKL 261000Z 35004MPS 310V020 9999 FEW030CB FEW030 31/21 Q0999 BECMG TL1100 FEW030
ZGKL,2025-07-26 11:00,ZGKL 261100Z 04004MPS 010V070 9999 FEW026TCU FEW026 30/21 Q1000 NOSIG
ZGKL,2025-07-26 12:00,ZGKL 261200Z 02002MPS 350V050 CAVOK 28/22 Q1001 NOSIG
ZGKL,2025-07-26 13:00,ZGKL 261300Z VRB01MPS CAVOK 27/23 Q1001 NOSIG
ZGKL,2025-07-26 14:00,ZGKL 261400Z 35002MPS CAVOK 26/23 Q1002 NOSIG
ZGKL,2025-07-26 15:00,ZGKL 261500Z 32002MPS 250V010 CAVOK 26/23 Q1003 NOSIG
ZGKL,2025-07-26 16:00,ZGKL 261600Z 00000MPS CAVOK 26/24 Q1003 NOSIG
ZGKL,2025-07-26 17:00,ZGKL 261700Z VRB01MPS 9999 FEW053 25/24 Q1003 NOSIG
ZGKL,2025-07-26 18:00,ZGKL 261800Z VRB01MPS CAVOK 25/24 Q1002 NOSIG
ZGKL,2025-07-26 19:00,ZGKL 261900Z 18001MPS 9999 FEW050 SCT066 25/24 Q1002 NOSIG
ZGKL,2025-07-26 20:00,ZGKL 262000Z 00000MPS 9999 FEW066 25/24 Q1002 NOSIG
ZGKL,2025-07-26 21:00,ZGKL 262100Z 35001MPS CAVOK 24/24 Q1001 NOSIG
ZGKL,2025-07-26 22:00,ZGKL 262200Z 00000MPS CAVOK 24/24 Q1002 NOSIG
ZGKL,2025-07-26 23:00,ZGKL 262300Z VRB01MPS CAVOK 25/24 Q1002 NOSIG
ZGKL,2025-07-27 00:00,ZGKL 270000Z VRB01MPS CAVOK 27/25 Q1002 NOSIG
ZGKL,2025-07-27 01:00,ZGKL 270100Z VRB01MPS CAVOK 29/24 Q1003 NOSIG
ZGKL,2025-07-27 02:00,ZGKL 270200Z VRB01MPS CAVOK 33/24 Q1003 NOSIG
ZGKL,2025-07-27 03:00,ZGKL 270300Z VRB01MPS CAVOK 33/24 Q1002 NOSIG
ZGKL,2025-07-27 04:00,ZGKL 270400Z 10002MPS 040V150 CAVOK 34/24 Q1002 NOSIG
ZGKL,2025-07-27 05:00,ZGKL 270500Z 11002MPS 020V160 9999 FEW026 35/25 Q1001 NOSIG
ZGKL,2025-07-27 06:00,ZGKL 270600Z VRB02MPS 9999 FEW023 36/24 Q1000 BECMG FM0700 FEW030CB SCT050
ZGKL,2025-07-27 07:00,ZGKL 270700Z VRB02MPS 9999 FEW023 36/25 Q0999 BECMG TL0800 FEW030CB SCT050
ZGKL,2025-07-27 08:00,ZGKL 270800Z 20002MPS 9999 FEW026CB FEW026 36/25 Q0998 NOSIG
ZGKL,2025-07-27 09:00,ZGKL 270900Z 10002MPS 070V190 9999 FEW026CB FEW050 36/24 Q0998 BECMG AT0910 35005MPS TS
ZGKL,2025-07-27 10:00,ZGKL 271000Z 01005MPS 9999 TS FEW026CB FEW026 30/24 Q0999 BECMG TL1100 15002MPS NSW FEW030 SCT050
ZGKL,2025-07-27 11:00,ZGKL 271100Z VRB01MPS 9999 -RA FEW030 SCT046 28/24 Q0999 RETS NOSIG
ZGKL,2025-07-27 12:00,ZGKL 271200Z VRB01MPS 9999 FEW030 SCT060 28/25 Q1000 NOSIG
ZGKL,2025-07-27 13:00,ZGKL 271300Z VRB01MPS 9999 FEW060 28/25 Q1001 NOSIG
ZGKL,2025-07-27 14:00,ZGKL 271400Z VRB01MPS 9999 FEW060 27/25 Q1001 NOSIG
ZGKL,2025-07-27 15:00,ZGKL 271500Z VRB01MPS 9999 FEW060 27/25 Q1002 NOSIG
ZGKL,2025-07-27 16:00,ZGKL 271600Z VRB01MPS 9999 FEW060 27/25 Q1001 NOSIG
ZGKL,2025-07-27 17:00,ZGKL 271700Z 35001MPS 9999 FEW060 26/25 Q1001 NOSIG
ZGKL,2025-07-27 18:00,ZGKL 271800Z VRB01MPS 9999 FEW060 26/25 Q1000 NOSIG
ZGKL,2025-07-27 19:00,ZGKL 271900Z VRB01MPS 9999 FEW060 26/25 Q1000 NOSIG
ZGKL,2025-07-27 20:00,ZGKL 272000Z VRB01MPS 9999 FEW060 26/25 Q1000 NOSIG
ZGKL,2025-07-27 21:00,ZGKL 272100Z VRB01MPS 9999 FEW060 26/25 Q1000 NOSIG
ZGKL,2025-07-27 22:00,ZGKL 272200Z 00000MPS CAVOK 26/24 Q1000 NOSIG
ZGKL,2025-07-27 23:00,ZGKL 272300Z VRB01MPS CAVOK 27/25 Q1000 NOSIG
ZGKL,2025-07-28 00:00,ZGKL 280000Z 36002MPS 310V030 CAVOK 28/25 Q1001 NOSIG
ZGKL,2025-07-28 01:00,ZGKL 280100Z VRB01MPS CAVOK 30/26 Q1001 NOSIG
ZGKL,2025-07-28 02:00,ZGKL 280200Z VRB01MPS CAVOK 32/26 Q1001 NOSIG
ZGKL,2025-07-28 03:00,ZGKL 280300Z VRB01MPS 9999 FEW030TCU FEW030 34/26 Q1000 BECMG FM0400 FEW030CB SCT040
ZGKL,2025-07-28 04:00,ZGKL 280400Z VRB01MPS 9999 FEW033TCU SCT033 34/26 Q1000 BECMG FM0500 FEW030CB SCT040
ZGKL,2025-07-28 05:00,ZGKL 280500Z 27003MPS 220V320 9999 FEW033CB FEW033 33/25 Q0999 BECMG FM0630 FEW030
ZGKL,2025-07-28 06:00,ZGKL 280600Z 29002MPS 200V010 9999 FEW033CB FEW033 SCT060 35/25 Q0998 NOSIG
ZGKL,2025-07-28 07:00,ZGKL 280700Z 07006MPS 9999 FEW033CB SCT033 SCT056 34/25 Q0998 BECMG TL0730 TSRA
ZGKL,2025-07-28 08:00,ZGKL 280800Z 36004MPS 310V020 8000 -TSRA FEW023 FEW036CB SCT036 BKN066 28/25 Q0999 BECMG TL0900 NSW FEW030 BKN060
ZGKL,2025-07-28 09:00,ZGKL 280900Z VRB01MPS 9999 -TSRA FEW023 FEW040CB SCT040 BKN073 28/25 Q0998 BECMG TL0930 NSW FEW030 BKN060
ZGKL,2025-07-28 10:00,ZGKL 281000Z VRB01MPS 9999 FEW026 SCT046 BKN073 28/24 Q0998 RETS NOSIG
ZGKL,2025-07-28 11:00,ZGKL 281100Z VRB01MPS 9999 FEW073 28/26 Q0998 NOSIG
ZGKL,2025-07-28 12:00,ZGKL 281200Z VRB01MPS 9999 FEW073 27/26 Q0998 NOSIG
ZGKL,2025-07-28 13:00,ZGKL 281300Z 00000MPS CAVOK 27/25 Q0999 NOSIG
ZGKL,2025-07-28 14:00,ZGKL 281400Z 20001MPS CAVOK 26/26 Q1000 NOSIG
ZGKL,2025-07-28 15:00,ZGKL 281500Z VRB01MPS CAVOK 26/25 Q0999 NOSIG
ZGKL,2025-07-28 16:00,ZGKL 281600Z 21001MPS CAVOK 26/25 Q0999 NOSIG
ZGKL,2025-07-28 17:00,ZGKL 281700Z VRB01MPS CAVOK 26/25 Q0999 NOSIG
ZGKL,2025-07-28 18:00,ZGKL 281800Z 34001MPS CAVOK 25/25 Q0998 NOSIG
ZGKL,2025-07-28 19:00,ZGKL 281900Z 20001MPS 9999 SCT040 25/24 Q0998 NOSIG
ZGKL,2025-07-28 20:00,ZGKL 282000Z 31001MPS 9999 FEW053 25/24 Q0998 NOSIG
ZGKL,2025-07-28 21:00,ZGKL 282100Z VRB01MPS 9999 SCT056 24/24 Q0998 NOSIG
ZGKL,2025-07-28 22:00,ZGKL 282200Z VRB01MPS 9999 FEW006 SCT030 24/24 Q0998 NOSIG
ZGKL,2025-07-28 23:00,ZGKL 282300Z 00000MPS 9999 FEW006 25/24 Q0999 NOSIG
ZGKL,2025-07-29 00:00,ZGKL 290000Z VRB01MPS CAVOK 27/25 Q0999 NOSIG
ZGKL,2025-07-29 01:00,ZGKL 290100Z VRB01MPS 9999 FEW013 30/25 Q0999 NOSIG
ZGKL,2025-07-29 02:00,ZGKL 290200Z VRB01MPS 9999 FEW023 31/25 Q0999 NOSIG
ZGKL,2025-07-29 03:00,ZGKL 290300Z VRB01MPS 9999 FEW023 33/25 Q0999 NOSIG
ZGKL,2025-07-29 04:00,ZGKL 290400Z VRB02MPS 9999 FEW023 33/25 Q0998 BECMG TL0550 FEW030CB SCT050
ZGKL,2025-07-29 05:00,ZGKL 290500Z VRB01MPS 9999 FEW026 35/25 Q0998 BECMG FM0600 FEW030CB SCT040
ZGKL,2025-07-29 06:00,ZGKL 290600Z 24002MPS 150V310 9999 FEW030CB FEW030 36/26 Q0997 NOSIG
ZGKL,2025-07-29 07:00,ZGKL 290700Z VRB01MPS 9999 FEW030CB FEW030 35/24 Q0996 NOSIG
ZGKL,2025-07-29 08:00,ZGKL 290800Z VRB02MPS 9999 FEW030CB FEW030 36/26 Q0995 BECMG TL0930 SCT030
ZGKL,2025-07-29 09:00,ZGKL 290900Z VRB01MPS 9999 FEW033CB FEW033 36/25 Q0995 BECMG TL1000 SCT030
ZGKL,2025-07-29 10:00,ZGKL 291000Z 34002MPS 310V010 9999 FEW026 34/26 Q0994 NOSIG
ZGKL,2025-07-29 11:00,ZGKL 291100Z 35002MPS 9999 FEW026 SCT043 33/25 Q0995 NOSIG
ZGKL,2025-07-29 12:00,ZGKL 291200Z VRB01MPS 9999 FEW026TCU FEW026 SCT050 31/26 Q0996 NOSIG
ZGKL,2025-07-29 13:00,ZGKL 291300Z 03002MPS 300V070 9999 -RA FEW026 SCT046 31/26 Q0997 NOSIG
ZGKL,2025-07-29 14:00,ZGKL 291400Z 01003MPS 350V060 9999 SCT040 30/25 Q0998 NOSIG
ZGKL,2025-07-29 15:00,ZGKL 291500Z VRB01MPS 9999 SCT050 29/25 Q0999 NOSIG
ZGKL,2025-07-29 16:00,ZGKL 291600Z VRB01MPS CAVOK 28/25 Q0999 NOSIG
ZGKL,2025-07-29 17:00,ZGKL 291700Z VRB01MPS 9999 FEW033CB 27/25 Q0998 NOSIG
ZGKL,2025-07-29 18:00,ZGKL 291800Z VRB01MPS 9999 FEW033CB 27/25 Q0998 NOSIG
ZGKL,2025-07-29 19:00,ZGKL 291900Z 35001MPS 9999 FEW033CB FEW033 27/25 Q0998 NOSIG
ZGKL,2025-07-29 20:00,ZGKL 292000Z 24001MPS 9999 FEW040 26/25 Q0998 NOSIG
ZGKL,2025-07-29 21:00,ZGKL 292100Z 33001MPS CAVOK 26/25 Q0998 NOSIG
ZGKL,2025-07-29 22:00,ZGKL 292200Z 00000MPS 9999 FEW053 26/25 Q0998 NOSIG
ZGKL,2025-07-29 23:00,ZGKL 292300Z VRB01MPS 9999 FEW040 26/25 Q0999 NOSIG
ZGKL,2025-07-30 00:00,ZGKL 300000Z VRB01MPS CAVOK 28/25 Q0999 NOSIG
ZGKL,2025-07-30 01:00,ZGKL 300100Z VRB01MPS 7000 NSC 30/26 Q0999 NOSIG
ZGKL,2025-07-30 02:00,ZGKL 300200Z VRB01MPS CAVOK 32/26 Q0999 NOSIG
ZGKL,2025-07-30 03:00,ZGKL 300300Z VRB01MPS 9999 FEW026 35/26 Q0999 NOSIG
ZGKL,2025-07-30 04:00,ZGKL 300400Z VRB02MPS 9999 FEW026 34/27 Q0999 NOSIG
ZGKL,2025-07-30 05:00,ZGKL 300500Z VRB01MPS 9999 FEW026 36/25 Q0997 NOSIG
ZGKL,2025-07-30 06:00,ZGKL 300600Z 32002MPS 230V020 9999 FEW026 37/26 Q0996 NOSIG
ZGKL,2025-07-30 07:00,ZGKL 300700Z VRB02MPS 9999 FEW026 38/26 Q0995 NOSIG
ZGKL,2025-07-30 08:00,ZGKL 300800Z VRB02MPS 9999 FEW026 37/24 Q0994 NOSIG
ZGKL,2025-07-30 09:00,ZGKL 300900Z 26002MPS 200V320 9999 SCT026 38/24 Q0994 NOSIG
ZGKL,2025-07-30 10:00,ZGKL 301000Z 26003MPS 220V290 9999 SCT026 37/23 Q0995 NOSIG
ZGKL,2025-07-30 11:00,ZGKL 301100Z VRB02MPS 8000 -SHRA SCT020 FEW026CB 28/26 Q0995 RESHRA BECMG TL1200 SCT040
ZGKL,2025-07-30 12:00,ZGKL 301200Z VRB01MPS 9999 FEW026 SCT053 30/27 Q0997 BECMG TL1215 SHRA FEW030CB SCT040
ZGKL,2025-07-30 13:00,ZGKL 301300Z 08006MPS 8000 -TSRA FEW020 FEW026CB SCT033 BKN046 27/25 Q0999 RESHRA BECMG AT1320 TSRA
ZGKL,2025-07-30 14:00,ZGKL 301400Z 15003MPS 9999 TS FEW026CB FEW026 SCT046 27/24 Q0999 BECMG TL1420 NSW SCT040
ZGKL,2025-07-30 15:00,ZGKL 301500Z 34001MPS 9999 FEW026 SCT046 26/25 Q1000 RETS NOSIG
ZGKL,2025-07-30 16:00,ZGKL 301600Z VRB01MPS 9999 FEW046 SCT066 26/24 Q1001 NOSIG
ZGKL,2025-07-30 17:00,ZGKL 301700Z VRB01MPS 9999 FEW026 SCT066 26/25 Q1000 NOSIG
ZGKL,2025-07-30 18:00,ZGKL 301800Z 18001MPS 9999 FEW026 25/25 Q0999 NOSIG
ZGKL,2025-07-30 19:00,ZGKL 301900Z VRB01MPS CAVOK 26/25 Q0999 NOSIG
ZGKL,2025-07-30 20:00,ZGKL 302000Z VRB01MPS CAVOK 25/25 Q0999 NOSIG
ZGKL,2025-07-30 21:00,ZGKL 302100Z VRB01MPS CAVOK 25/24 Q0999 NOSIG
ZGKL,2025-07-30 22:00,ZGKL 302200Z VRB01MPS CAVOK 25/24 Q0999 NOSIG
ZGKL,2025-07-30 23:00,ZGKL 302300Z 19002MPS 9999 FEW073 25/25 Q1000 NOSIG
ZGKL,2025-07-31 00:00,ZGKL 310000Z 00000MPS 9999 FEW070 28/25 Q1000 NOSIG
ZGKL,2025-07-31 01:00,ZGKL 310100Z VRB01MPS CAVOK 29/25 Q1001 NOSIG
ZGKL,2025-07-31 02:00,ZGKL 310200Z VRB01MPS 9999 FEW026 30/25 Q1001 NOSIG
ZGKL,2025-07-31 03:00,ZGKL 310300Z VRB01MPS 9999 FEW026 32/25 Q1000 NOSIG
ZGKL,2025-07-31 04:00,ZGKL 310400Z 05002MPS 340V120 9999 FEW026 33/25 Q1000 NOSIG
ZGKL,2025-07-31 05:00,ZGKL 310500Z 06002MPS 010V130 9999 FEW026TCU FEW026 34/24 Q0999 BECMG FM0600 FEW030CB SCT040
ZGKL,2025-07-31 06:00,ZGKL 310600Z VRB02MPS 9999 FEW030CB FEW030 34/24 Q0998 BECMG FM0730 SCT040
ZGKL,2025-07-31 07:00,ZGKL 310700Z VRB01MPS 9999 FEW030TCU FEW030 36/25 Q0997 NOSIG
ZGKL,2025-07-31 08:00,ZGKL 310800Z VRB02MPS 9999 FEW030TCU FEW030 36/26 Q0996 NOSIG
ZGKL,2025-07-31 09:00,ZGKL 310900Z 35002MPS 300V050 9999 FEW030TCU FEW030 36/24 Q0996 BECMG FM1000 FEW030CB SCT040 BECMG FM1050 02008G14MPS TS
ZGKL,2025-07-31 10:00,ZGKL 311000Z 34002MPS 300V030 9999 FEW033CB FEW033 34/25 Q0996 BECMG FM1030 02007G12MPS TSRA
ZGKL,2025-07-31 11:00,ZGKL 311100Z 36003MPS 320V020 9999 TS VCSH FEW016 FEW030CB 27/22 Q0998 BECMG TL1140 NSW FEW033
ZGKL,2025-07-31 12:00,ZGKL 311200Z VRB02MPS 9999 -SHRA FEW016 FEW030CB SCT050 27/23 Q0999 RETS BECMG TL1240 SCT040
ZGKL,2025-07-31 13:00,ZGKL 311300Z 18003MPS 150V210 9999 -SHRA FEW016 FEW030CB SCT053 25/24 Q1000 BECMG TL1350 SCT050
ZGKL,2025-07-31 14:00,ZGKL 311400Z VRB01MPS 9999 FEW016 SCT060 25/25 Q1001 NOSIG
ZGKL,2025-07-31 15:00,ZGKL 311500Z 18002MPS 9999 FEW010 SCT050 25/24 Q1001 NOSIG
ZGKL,2025-07-31 16:00,ZGKL 311600Z 12002MPS 060V210 9999 FEW010 SCT033 BKN050 25/24 Q1001 NOSIG
ZGKL,2025-07-31 17:00,ZGKL 311700Z VRB01MPS 9999 FEW010 SCT033 BKN050 25/24 Q1000 NOSIG
ZGKL,2025-07-31 18:00,ZGKL 311800Z VRB01MPS 9999 FEW033 OVC050 25/24 Q1000 NOSIG
ZGKL,2025-07-31 19:00,ZGKL 311900Z VRB01MPS 9999 SCT033 BKN060 25/24 Q1000 NOSIG
ZGKL,2025-07-31 20:00,ZGKL 312000Z VRB01MPS 9999 FEW033 BKN060 24/24 Q1000 NOSIG
ZGKL,2025-07-31 21:00,ZGKL 312100Z VRB01MPS 9999 SCT033 BKN060 25/24 Q1000 NOSIG
ZGKL,2025-07-31 22:00,ZGKL 312200Z VRB01MPS 9999 SCT010 SCT033 BKN060 25/24 Q1000 NOSIG
ZGKL,2025-07-31 23:00,ZGKL 312300Z 31001MPS 8000 SCT010 SCT030 BKN060 25/24 Q1001 NOSIG
ZGKL,2025-08-01 00:00,ZGKL 010000Z VRB01MPS 8000 SCT010 SCT030 26/24 Q1001 NOSIG
ZGKL,2025-08-01 01:00,ZGKL 010100Z VRB01MPS 8000 SCT011 SCT033 27/25 Q1001 NOSIG
ZGKL,2025-08-01 02:00,ZGKL 010200Z VRB01MPS 8000 FEW015 SCT033 28/25 Q1002 NOSIG
ZGKL,2025-08-01 03:00,ZGKL 010300Z VRB01MPS 9000 FEW016 SCT053 29/25 Q1001 NOSIG
ZGKL,2025-08-01 04:00,ZGKL 010400Z VRB01MPS 9999 FEW023TCU FEW023 32/26 Q1000 BECMG TL0550 FEW030CB
ZGKL,2025-08-01 05:00,ZGKL 010500Z VRB02MPS 9999 FEW026 33/25 Q1000 BECMG TL0600 FEW030CB
ZGKL,2025-08-01 06:00,ZGKL 010600Z 14002MPS 070V210 9999 FEW026CB FEW026 34/25 Q0999 NOSIG
ZGKL,2025-08-01 07:00,ZGKL 010700Z VRB02MPS 9999 FEW030CB FEW030 34/24 Q0998 BECMG FM0715 09007MPS
ZGKL,2025-08-01 08:00,ZGKL 010800Z 11004MPS 080V140 9999 FEW030CB FEW030 SCT046 32/23 Q0999 BECMG TL0900 SCT033
ZGKL,2025-08-01 09:00,ZGKL 010900Z 18003MPS 130V220 9999 SCT050 30/23 Q0999 BECMG FM1030 FEW030CB
ZGKL,2025-08-01 10:00,ZGKL 011000Z 11002G07MPS 050V160 9999 FEW030CB SCT066 31/24 Q0999 BECMG TL1100 SCT033
ZGKL,2025-08-01 11:00,ZGKL 011100Z 07002G07MPS 350V090 9999 FEW026TCU SCT073 30/23 Q0999 NOSIG
ZGKL,2025-08-01 12:00,ZGKL 011200Z 06003MPS 9999 FEW066 30/23 Q1000 NOSIG
ZGKL,2025-08-01 13:00,ZGKL 011300Z VRB01MPS CAVOK 28/24 Q1001 NOSIG
ZGKL,2025-08-01 14:00,ZGKL 011400Z VRB01MPS 9999 FEW066 28/24 Q1002 NOSIG
ZGKL,2025-08-01 15:00,ZGKL 011500Z VRB01MPS CAVOK 27/25 Q1002 NOSIG
ZGKL,2025-08-01 16:00,ZGKL 011600Z VRB01MPS CAVOK 27/25 Q1002 NOSIG
ZGKL,2025-08-01 17:00,ZGKL 011700Z VRB01MPS 9999 -RA SCT053 27/25 Q1002 NOSIG
ZGKL,2025-08-01 18:00,ZGKL 011800Z 34002MPS 9999 -RA BKN066 26/25 Q1001 NOSIG
ZGKL,2025-08-01 19:00,ZGKL 011900Z 03002MPS 9999 SCT043 BKN066 26/25 Q1001 NOSIG
ZGKL,2025-08-01 20:00,ZGKL 012000Z VRB01MPS 9999 FEW020 SCT030 BKN066 26/25 Q1001 NOSIG
ZGKL,2025-08-01 21:00,ZGKL 012100Z VRB01MPS 9999 FEW016 SCT030 BKN066 26/25 Q1001 NOSIG
ZGKL,2025-08-01 22:00,ZGKL 012200Z VRB01MPS 8000 FEW013 BKN030 OVC053 26/25 Q1002 NOSIG
ZGKL,2025-08-01 23:00,ZGKL 012300Z VRB01MPS 5000 -RA BR FEW015 SCT030 OVC060 26/25 Q1002 NOSIG
ZGKL,2025-08-02 00:00,ZGKL 020000Z VRB01MPS 4000 BR FEW015 SCT030 OVC056 26/25 Q1003 NOSIG
ZGKL,2025-08-02 01:00,ZGKL 020100Z 28002MPS 240V310 4500 BR FEW015 SCT030 OVC056 26/25 Q1003 NOSIG
ZGKL,2025-08-02 02:00,ZGKL 020200Z VRB01MPS 5000 -SHRA BR FEW010 SCT030 FEW033CB BKN056 26/25 Q1003 NOSIG
ZGKL,2025-08-02 03:00,ZGKL 020300Z VRB01MPS 8000 FEW010 SCT030 27/26 Q1003 NOSIG
ZGKL,2025-08-02 04:00,ZGKL 020400Z VRB01MPS 9999 SCT026 31/25 Q1002 NOSIG
ZGKL,2025-08-02 05:00,ZGKL 020500Z 33002MPS 230V040 9999 SCT026 33/24 Q1001 NOSIG
ZGKL,2025-08-02 06:00,ZGKL 020600Z 22002MPS 180V290 9999 SCT026 34/25 Q1000 NOSIG
ZGKL,2025-08-02 07:00,ZGKL 020700Z VRB01MPS 9999 FEW026 35/23 Q0999 BECMG FM0800 FEW030CB FEW033
ZGKL,2025-08-02 08:00,ZGKL 020800Z VRB01MPS 9999 FEW026TCU FEW026 36/24 Q0999 BECMG TL0900 FEW030CB FEW033
ZGKL,2025-08-02 09:00,ZGKL 020900Z 19002MPS 140V250 9999 FEW026CB FEW026 34/25 Q0999 BECMG FM1000 FEW030
ZGKL,2025-08-02 10:00,ZGKL 021000Z 12004MPS 9999 FEW026CB SCT026 32/25 Q0999 BECMG TL1100 SCT030
ZGKL,2025-08-02 11:00,ZGKL 021100Z 15004MPS 9999 SCT026 31/23 Q1000 NOSIG
ZGKL,2025-08-02 12:00,ZGKL 021200Z VRB01MPS 9999 SCT033 OVC066 29/25 Q1000 NOSIG
ZGKL,2025-08-02 13:00,ZGKL 021300Z VRB01MPS 9999 SCT033 29/25 Q1001 NOSIG
ZGKL,2025-08-02 14:00,ZGKL 021400Z 11001MPS 9999 FEW033 29/25 Q1002 NOSIG
ZGKL,2025-08-02 15:00,ZGKL 021500Z 00000MPS 9999 FEW033 28/26 Q1002 NOSIG
ZGKL,2025-08-02 16:00,ZGKL 021600Z 00000MPS 9999 FEW033 27/25 Q1003 NOSIG
ZGKL,2025-08-02 17:00,ZGKL 021700Z 21001MPS 9999 FEW060 27/26 Q1002 NOSIG
ZGKL,2025-08-02 18:00,ZGKL 021800Z 00000MPS 9999 FEW060 27/26 Q1002 NOSIG
ZGKL,2025-08-02 19:00,ZGKL 021900Z 19001MPS 9999 SCT056 27/26 Q1001 NOSIG
ZGKL,2025-08-02 20:00,ZGKL 022000Z VRB01MPS 9999 SCT056 26/26 Q1001 NOSIG
ZGKL,2025-08-02 21:00,ZGKL 022100Z 14001MPS 9999 SCT056 26/25 Q1001 NOSIG
ZGKL,2025-08-02 22:00,ZGKL 022200Z VRB01MPS 9999 SCT033 BKN066 26/25 Q1002 NOSIG
ZGKL,2025-08-02 23:00,ZGKL 022300Z VRB01MPS 9999 SCT033 BKN066 26/26 Q1002 NOSIG
ZGKL,2025-08-03 00:00,ZGKL 030000Z VRB01MPS 9999 SCT033 BKN066 27/25 Q1002 NOSIG
ZGKL,2025-08-03 01:00,ZGKL 030100Z 21002MPS 170V290 9999 SCT020 29/25 Q1002 NOSIG
ZGKL,2025-08-03 02:00,ZGKL 030200Z 16003MPS 130V210 9999 FEW023 31/26 Q1002 NOSIG
ZGKL,2025-08-03 03:00,ZGKL 030300Z 18003MPS 140V220 9999 FEW026 31/25 Q1002 BECMG FM0430 FEW030CB SCT030
ZGKL,2025-08-03 04:00,ZGKL 030400Z 17003MPS 120V190 9999 SCT026 33/26 Q1001 BECMG TL0500 FEW030CB SCT030
ZGKL,2025-08-03 05:00,ZGKL 030500Z 19004MPS 140V220 9999 FEW026CB SCT026 33/26 Q1001 BECMG TL0520 SHRA
ZGKL,2025-08-03 06:00,ZGKL 030600Z 05005MPS 8000 -SHRA FEW030CB SCT030 BKN056 30/26 Q1000 RESHRA NOSIG
ZGKL,2025-08-03 07:00,ZGKL 030700Z VRB01MPS 9999 FEW030CB FEW030 SCT066 30/27 Q1000 BECMG TL0740 SHRA
ZGKL,2025-08-03 08:00,ZGKL 030800Z 24004MPS 200V270 9999 TS FEW030CB FEW030 SCT056 30/26 Q1000 BECMG TL0920 NSW
ZGKL,2025-08-03 09:00,ZGKL 030900Z 21003MPS 180V240 9999 FEW030CB FEW030 SCT056 29/25 Q1000 RETS BECMG TL1000 FEW030 SCT050
ZGKL,2025-08-03 10:00,ZGKL 031000Z VRB01MPS 9999 FEW030 SCT056 30/26 Q1000 NOSIG
ZGKL,2025-08-03 11:00,ZGKL 031100Z VRB01MPS 9999 FEW030CB FEW030 29/26 Q1000 BECMG FM1200 FEW030
ZGKL,2025-08-03 12:00,ZGKL 031200Z VRB01MPS CAVOK 29/26 Q1001 NOSIG
ZGKL,2025-08-03 13:00,ZGKL 031300Z VRB01MPS CAVOK 28/26 Q1002 NOSIG
ZGKL,2025-08-03 14:00,ZGKL 031400Z 12002MPS CAVOK 28/26 Q1002 NOSIG
ZGKL,2025-08-03 15:00,ZGKL 031500Z VRB01MPS 9999 FEW050 28/26 Q1002 NOSIG
ZGKL,2025-08-03 16:00,ZGKL 031600Z VRB01MPS 9999 FEW050 28/26 Q1002 NOSIG
ZGKL,2025-08-03 17:00,ZGKL 031700Z 00000MPS 9999 SCT050 27/26 Q1002 NOSIG
ZGKL,2025-08-03 18:00,ZGKL 031800Z VRB01MPS 9999 FEW033 SCT053 27/26 Q1002 NOSIG
ZGKL,2025-08-03 19:00,ZGKL 031900Z 28001MPS 9999 FEW030CB SCT030 BKN056 27/26 Q1002 BECMG FM1940 SHRA
ZGKL,2025-08-03 20:00,ZGKL 032000Z 18004MPS 9999 -SHRA FEW010 FEW030CB SCT030 BKN056 27/25 Q1002 BECMG FM2015 SHRA
ZGKL,2025-08-03 21:00,ZGKL 032100Z VRB01MPS 9999 FEW036CB SCT036 BKN066 25/24 Q1001 NOSIG
ZGKL,2025-08-03 22:00,ZGKL 032200Z VRB01MPS 9999 -RA SCT036 BKN066 25/25 Q1002 NOSIG
ZGKL,2025-08-03 23:00,ZGKL 032300Z VRB01MPS 9999 SCT026 26/25 Q1002 NOSIG
ZGKL,2025-08-04 00:00,ZGKL 040000Z VRB01MPS 9999 SCT023 27/26 Q1002 BECMG FM0130 FEW030CB SCT030
ZGKL,2025-08-04 01:00,ZGKL 040100Z VRB01MPS 9999 FEW010 SCT026 29/26 Q1003 NOSIG
ZGKL,2025-08-04 02:00,ZGKL 040200Z VRB01MPS 9999 FEW020 BKN043 29/26 Q1003 NOSIG
ZGKL,2025-08-04 03:00,ZGKL 040300Z VRB01MPS 9999 FEW023 BKN050 31/26 Q1003 BECMG FM0430 FEW030CB SCT040
ZGKL,2025-08-04 04:00,ZGKL 040400Z 12002MPS 070V160 9999 FEW020 FEW026CB BKN046 31/26 Q1003 BECMG FM0530 -TSRA
ZGKL,2025-08-04 05:00,ZGKL 040500Z 22002MPS 160V270 9999 FEW026CB FEW026 BKN040 32/27 Q1002 BECMG FM0600 -TSRA
ZGKL,2025-08-04 06:00,ZGKL 040600Z 19003MPS 140V260 9999 SCT026 SCT036 33/27 Q1001 BECMG FM0700 FEW030CB BKN040
ZGKL,2025-08-04 07:00,ZGKL 040700Z 20004MPS 170V240 9999 FEW026CB FEW026 33/27 Q1001 NOSIG
ZGKL,2025-08-04 08:00,ZGKL 040800Z 17003MPS 140V210 9999 FEW026 34/26 Q1000 BECMG FM0900 FEW030CB SCT040
ZGKL,2025-08-04 09:00,ZGKL 040900Z 16003MPS 120V210 9999 FEW026CB FEW026 33/27 Q0999 BECMG TL1000 SCT040
ZGKL,2025-08-04 10:00,ZGKL 041000Z 18004MPS 140V200 9999 FEW026 33/27 Q1000 NOSIG
ZGKL,2025-08-04 11:00,ZGKL 041100Z 18003MPS 9999 FEW026TCU FEW026 31/26 Q1000 NOSIG
ZGKL,2025-08-04 12:00,ZGKL 041200Z 18003MPS 9999 FEW026 30/26 Q1001 NOSIG
ZGKL,2025-08-04 13:00,ZGKL 041300Z 18002MPS 9999 FEW050 29/26 Q1002 NOSIG
ZGKL,2025-08-04 14:00,ZGKL 041400Z 18004MPS CAVOK 29/26 Q1003 NOSIG
ZGKL,2025-08-04 15:00,ZGKL 041500Z 18004MPS 9999 FEW026TCU 29/26 Q1004 BECMG FM1600 FEW030CB
ZGKL,2025-08-04 16:00,ZGKL 041600Z 18004MPS 9999 FEW026CB FEW026 28/25 Q1004 NOSIG
ZGKL,2025-08-04 17:00,ZGKL 041700Z 18003MPS 9999 FEW026CB FEW026 28/25 Q1004 NOSIG
ZGKL,2025-08-04 18:00,ZGKL 041800Z 18003MPS 9999 FEW026 SCT060 27/25 Q1003 NOSIG
ZGKL,2025-08-04 19:00,ZGKL 041900Z 18004MPS 9999 FEW050 27/25 Q1002 NOSIG
ZGKL,2025-08-04 20:00,ZGKL 042000Z 17004MPS 9999 SCT050 27/25 Q1002 NOSIG
ZGKL,2025-08-04 21:00,ZGKL 042100Z 17003MPS 9999 SCT050 27/25 Q1002 NOSIG
ZGKL,2025-08-04 22:00,ZGKL 042200Z 19002MPS 9999 FEW026 26/25 Q1003 NOSIG
ZGKL,2025-08-04 23:00,ZGKL 042300Z VRB01MPS 9999 FEW026 SCT060 27/25 Q1004 NOSIG
ZGKL,2025-08-05 00:00,ZGKL 050000Z VRB01MPS 9999 FEW043 28/26 Q1004 NOSIG
ZGKL,2025-08-05 01:00,ZGKL 050100Z VRB01MPS 9999 FEW016 30/26 Q1004 NOSIG
ZGKL,2025-08-05 02:00,ZGKL 050200Z 20002MPS 110V270 9999 FEW020 31/26 Q1003 NOSIG
ZGKL,2025-08-05 03:00,ZGKL 050300Z 16003MPS 110V200 9999 SCT023 33/26 Q1003 NOSIG
ZGKL,2025-08-05 04:00,ZGKL 050400Z VRB02MPS 9999 FEW030 34/26 Q1003 NOSIG
ZGKL,2025-08-05 05:00,ZGKL 050500Z 18003MPS 130V220 9999 SCT030 34/25 Q1002 NOSIG
ZGKL,2025-08-05 06:00,ZGKL 050600Z VRB02MPS 9999 BKN033 36/25 Q1001 BECMG FM0700 FEW033CB SCT040
ZGKL,2025-08-05 07:00,ZGKL 050700Z 17003MPS 120V210 9999 BKN033 35/26 Q1000 BECMG FM0800 FEW033CB SCT040
ZGKL,2025-08-05 08:00,ZGKL 050800Z 15003MPS 120V190 9999 FEW030CB SCT033 35/26 Q1000 NOSIG
ZGKL,2025-08-05 09:00,ZGKL 050900Z 17008G14MPS 9999 FEW030CB SCT033 BKN060 30/25 Q1000 BECMG TL0930 18003MPS -TSRA
ZGKL,2025-08-05 10:00,ZGKL 051000Z 18005MPS 9999 -TSRA FEW030CB SCT033 BKN060 26/25 Q1002 BECMG TL1100 NSW
ZGKL,2025-08-05 11:00,ZGKL 051100Z 11002MPS 070V140 9999 -TSRA FEW006 FEW030CB SCT033 BKN066 26/25 Q1003 BECMG TL1130 NSW
ZGKL,2025-08-05 12:00,ZGKL 051200Z VRB01MPS 9999 SCT030 OVC060 26/25 Q1003 RETS NOSIG
ZGKL,2025-08-05 13:00,ZGKL 051300Z VRB01MPS 9999 FEW066 26/25 Q1003 NOSIG
ZGKL,2025-08-05 14:00,ZGKL 051400Z 24002MPS 9999 FEW050 26/26 Q1004 NOSIG
ZGKL,2025-08-05 15:00,ZGKL 051500Z 14003MPS 9999 FEW023 SCT050 27/25 Q1005 NOSIG
ZGKL,2025-08-05 16:00,ZGKL 051600Z 14003MPS 9999 -RA FEW010 SCT026 BKN060 26/25 Q1005 NOSIG
ZGKL,2025-08-05 17:00,ZGKL 051700Z 14003MPS 9999 FEW010 SCT026 BKN060 25/25 Q1005 NOSIG
ZGKL,2025-08-05 18:00,ZGKL 051800Z 12002MPS 9999 FEW010 SCT023 BKN050 25/25 Q1004 NOSIG
ZGKL,2025-08-05 19:00,ZGKL 051900Z 13002MPS 110V170 9999 FEW010 SCT023 BKN050 26/25 Q1004 NOSIG
ZGKL,2025-08-05 20:00,ZGKL 052000Z VRB01MPS 9999 FEW010 SCT023 BKN050 26/25 Q1004 NOSIG
ZGKL,2025-08-05 21:00,ZGKL 052100Z 12002MPS 9999 -RA FEW010 SCT023 BKN050 25/24 Q1003 NOSIG
ZGKL,2025-08-05 22:00,ZGKL 052200Z 13002MPS 090V190 9999 FEW013 FEW030CB SCT030 BKN053 25/24 Q1003 BECMG TL2300 FEW026 BKN050
ZGKL,2025-08-05 23:00,ZGKL 052300Z VRB01MPS 9999 FEW013 FEW030CB SCT030 BKN053 25/24 Q1004 BECMG AT2345 SHRA
ZGKL,2025-08-06 00:00,ZGKL 060000Z VRB01MPS 9999 -SHRA FEW013 FEW030CB SCT030 BKN053 25/24 Q1005 BECMG TL0030 SHRA
ZGKL,2025-08-06 01:00,ZGKL 060100Z VRB01MPS 1200 R19/P2000 +SHRA BR FEW003 FEW026CB SCT026 BKN046 25/24 Q1005 BECMG FM0125 2000 -SHRA
ZGKL,2025-08-06 02:00,ZGKL 060200Z 03002MPS 1600 SHRA BR FEW005 FEW026CB SCT026 BKN046 25/25 Q1006 BECMG FM0225 -SHRA
ZGKL,2025-08-06 03:00,ZGKL 060300Z 07002MPS 340V140 6000 -SHRA FEW011 FEW026CB SCT026 BKN050 25/25 Q1006 RESHRA NOSIG
ZGKL,2025-08-06 04:00,ZGKL 060400Z 23001MPS 6000 -SHRA FEW006 FEW026CB SCT026 BKN053 26/25 Q1005 BECMG FM0425 SHRA
ZGKL,2025-08-06 05:00,ZGKL 060500Z 19003MPS 8000 FEW006 FEW026CB SCT026 BKN060 27/26 Q1005 TEMPO FM0530 SHRA
ZGKL,2025-08-06 06:00,ZGKL 060600Z 18006MPS 9999 FEW006 FEW040CB SCT040 BKN066 27/25 Q1004 BECMG TL0700 FEW030
ZGKL,2025-08-06 07:00,ZGKL 060700Z 17006MPS 9999 -SHRA FEW013 FEW036CB SCT036 BKN066 26/24 Q1004 TEMPO TL0800 FEW030
ZGKL,2025-08-06 08:00,ZGKL 060800Z 17005MPS 9999 -RA SCT036 OVC066 26/25 Q1004 BECMG FM0930 FEW030CB FEW030
ZGKL,2025-08-06 09:00,ZGKL 060900Z 16004MPS 9999 -SHRA FEW033CB SCT033 BKN066 26/24 Q1004 BECMG TL1000 FEW030 SCT050 BKN060
ZGKL,2025-08-06 10:00,ZGKL 061000Z 16003MPS 9999 -RA SCT033 OVC066 26/25 Q1004 NOSIG
ZGKL,2025-08-06 11:00,ZGKL 061100Z VRB01MPS 9999 -RA FEW013 SCT033 OVC060 26/25 Q1005 NOSIG
ZGKL,2025-08-06 12:00,ZGKL 061200Z VRB01MPS 9999 FEW016 SCT033 BKN060 26/25 Q1006 NOSIG
ZGKL,2025-08-06 13:00,ZGKL 061300Z VRB01MPS 8000 -RA FEW013 SCT036 BKN060 26/25 Q1006 NOSIG
ZGKL,2025-08-06 14:00,ZGKL 061400Z VRB01MPS 8000 -RA FEW015 SCT036 BKN060 25/25 Q1007 NOSIG
ZGKL,2025-08-06 15:00,ZGKL 061500Z 15002MPS 8000 -RA FEW015 SCT033 BKN060 25/25 Q1007 NOSIG
ZGKL,2025-08-06 16:00,ZGKL 061600Z 20001MPS 9999 -RA FEW013 SCT030 OVC060 25/24 Q1007 NOSIG
ZGKL,2025-08-06 17:00,ZGKL 061700Z VRB01MPS 9999 -RA SCT030 OVC060 25/24 Q1007 NOSIG
ZGKL,2025-08-06 18:00,ZGKL 061800Z 13001MPS 9999 SCT030 OVC060 25/24 Q1006 NOSIG
ZGKL,2025-08-06 19:00,ZGKL 061900Z 10002MPS 9999 -RA FEW013 SCT030 OVC060 25/24 Q1006 NOSIG
ZGKL,2025-08-06 20:00,ZGKL 062000Z 13002MPS 9999 -SHRA FEW013 FEW030CB SCT030 BKN060 25/24 Q1006 NOSIG
ZGKL,2025-08-06 21:00,ZGKL 062100Z VRB01MPS 8000 -SHRA FEW010 FEW030CB SCT030 BKN060 25/25 Q1006 TEMPO TL2130 SHRA
ZGKL,2025-08-06 22:00,ZGKL 062200Z VRB01MPS 5000 SHRA BR FEW010 FEW030CB SCT030 BKN060 25/24 Q1006 BECMG FM2220 -SHRA
ZGKL,2025-08-06 23:00,ZGKL 062300Z VRB01MPS 8000 -SHRA FEW013 FEW030CB SCT030 BKN056 25/25 Q1007 RESHRA BECMG FM0030 SHRA
ZGKL,2025-08-07 00:00,ZGKL 070000Z VRB01MPS 9999 FEW013 FEW030CB SCT030 BKN056 25/25 Q1007 RESHRA BECMG FM0045 SHRA
ZGKL,2025-08-07 01:00,ZGKL 070100Z VRB01MPS 5000 -SHRA BR FEW020 FEW030CB SCT030 BKN053 26/25 Q1008 BECMG FM0120 SHRA
ZGKL,2025-08-07 02:00,ZGKL 070200Z VRB01MPS 4000 -SHRA BR FEW016 FEW033CB SCT033 BKN053 26/25 Q1008 NOSIG
ZGKL,2025-08-07 03:00,ZGKL 070300Z VRB01MPS 8000 -SHRA FEW013 FEW033CB SCT033 BKN053 27/25 Q1008 BECMG FM0400 SCT026 OVC040
ZGKL,2025-08-07 04:00,ZGKL 070400Z 10003MPS 050V130 9999 -RA FEW020 SCT033 OVC053 27/25 Q1008 NOSIG
ZGKL,2025-08-07 05:00,ZGKL 070500Z 10002MPS 070V130 9999 FEW020 SCT033 OVC066 28/26 Q1007 NOSIG
ZGKL,2025-08-07 06:00,ZGKL 070600Z 09002MPS 040V130 9999 FEW010 SCT036 29/26 Q1007 NOSIG
ZGKL,2025-08-07 07:00,ZGKL 070700Z 10003MPS 9999 FEW010 SCT053 29/26 Q1006 NOSIG
ZGKL,2025-08-07 08:00,ZGKL 070800Z 18005MPS 9999 FEW023 SCT053 30/23 Q1006 NOSIG
ZGKL,2025-08-07 09:00,ZGKL 070900Z 18003MPS 160V220 9999 FEW023 29/24 Q1006 NOSIG
ZGKL,2025-08-07 10:00,ZGKL 071000Z 18002MPS 9999 FEW023 SCT066 28/24 Q1006 NOSIG
ZGKL,2025-08-07 11:00,ZGKL 071100Z 17003MPS 9999 FEW016 SCT073 28/24 Q1006 NOSIG
ZGKL,2025-08-07 12:00,ZGKL 071200Z 17003MPS 9999 FEW053 27/23 Q1007 NOSIG
ZGKL,2025-08-07 13:00,ZGKL 071300Z 16004MPS 9999 FEW066 27/23 Q1007 NOSIG
ZGKL,2025-08-07 14:00,ZGKL 071400Z 16002MPS 9999 FEW033 26/23 Q1008 NOSIG
ZGKL,2025-08-07 15:00,ZGKL 071500Z VRB01MPS 9999 FEW033 SCT060 25/24 Q1008 NOSIG
ZGKL,2025-08-07 16:00,ZGKL 071600Z 16002MPS 9999 FEW033 SCT060 25/23 Q1008 NOSIG
ZGKL,2025-08-07 17:00,ZGKL 071700Z VRB01MPS 9999 FEW033 SCT060 25/23 Q1008 NOSIG
ZGKL,2025-08-07 18:00,ZGKL 071800Z VRB01MPS 9999 FEW033 SCT060 25/23 Q1007 NOSIG
ZGKL,2025-08-07 19:00,ZGKL 071900Z 29001MPS 9999 FEW033 BKN060 25/24 Q1007 NOSIG
ZGKL,2025-08-07 20:00,ZGKL 072000Z 34001MPS 9999 SCT033 OVC060 25/24 Q1007 NOSIG
ZGKL,2025-08-07 21:00,ZGKL 072100Z 00000MPS 9999 -RA SCT030 OVC053 25/24 Q1007 NOSIG
ZGKL,2025-08-07 22:00,ZGKL 072200Z 16002MPS 9999 -RA FEW016 SCT030 OVC053 24/23 Q1008 NOSIG
ZGKL,2025-08-07 23:00,ZGKL 072300Z VRB01MPS 9999 FEW006 SCT033 BKN060 25/24 Q1008 NOSIG
ZGKL,2025-08-08 00:00,ZGKL 080000Z VRB01MPS 9999 -RA FEW013 SCT033 OVC060 25/23 Q1009 NOSIG
ZGKL,2025-08-08 01:00,ZGKL 080100Z VRB01MPS 9999 -RA FEW010 SCT026 OVC046 26/24 Q1009 NOSIG
ZGKL,2025-08-08 02:00,ZGKL 080200Z VRB01MPS 9999 FEW010 SCT026 OVC046 27/24 Q1009 NOSIG
ZGKL,2025-08-08 03:00,ZGKL 080300Z VRB02MPS 9999 FEW010 SCT026 OVC046 27/24 Q1009 NOSIG
ZGKL,2025-08-08 04:00,ZGKL 080400Z 11002MPS 050V170 9999 FEW010 SCT033 OVC050 29/25 Q1009 NOSIG
ZGKL,2025-08-08 05:00,ZGKL 080500Z 14003MPS 100V190 9999 FEW020 BKN046 30/26 Q1008 NOSIG
ZGKL,2025-08-08 06:00,ZGKL 080600Z 16004MPS 080V180 9999 FEW020 BKN053 31/26 Q1007 NOSIG
ZGKL,2025-08-08 07:00,ZGKL 080700Z 17005MPS 9999 FEW023 SCT053 32/25 Q1007 BECMG FM0800 32002MPS FEW033CB BKN050
ZGKL,2025-08-08 08:00,ZGKL 080800Z 17005MPS 9999 FEW030TCU SCT030 32/25 Q1006 BECMG TL0900 FEW033CB BKN050
ZGKL,2025-08-08 09:00,ZGKL 080900Z 17004MPS 9999 FEW033CB SCT033 30/25 Q1005 BECMG FM1000 FEW030 SCT050
ZGKL,2025-08-08 10:00,ZGKL 081000Z 20003MPS 9999 FEW030CB FEW053 31/26 Q1005 BECMG TL1100 SCT030 SCT050
ZGKL,2025-08-08 11:00,ZGKL 081100Z VRB01MPS 9999 SCT040 30/26 Q1006 NOSIG
ZGKL,2025-08-08 12:00,ZGKL 081200Z 33002MPS 280V360 9999 FEW040 27/26 Q1006 NOSIG
ZGKL,2025-08-08 13:00,ZGKL 081300Z VRB01MPS CAVOK 27/26 Q1007 NOSIG
ZGKL,2025-08-08 14:00,ZGKL 081400Z VRB01MPS CAVOK 27/26 Q1008 NOSIG
ZGKL,2025-08-08 15:00,ZGKL 081500Z VRB01MPS 9999 FEW050 26/26 Q1008 NOSIG
ZGKL,2025-08-08 16:00,ZGKL 081600Z VRB01MPS 9999 BKN050 27/26 Q1008 NOSIG
ZGKL,2025-08-08 17:00,ZGKL 081700Z VRB01MPS 8000 FEW060 26/25 Q1008 NOSIG
ZGKL,2025-08-08 18:00,ZGKL 081800Z VRB01MPS 8000 FEW060 26/25 Q1007 NOSIG
ZGKL,2025-08-08 19:00,ZGKL 081900Z 00000MPS 8000 FEW033 26/25 Q1007 NOSIG
ZGKL,2025-08-08 20:00,ZGKL 082000Z VRB01MPS 7000 FEW033 SCT060 26/25 Q1007 NOSIG
ZGKL,2025-08-08 21:00,ZGKL 082100Z VRB01MPS 8000 NSC 25/25 Q1007 NOSIG
ZGKL,2025-08-08 22:00,ZGKL 082200Z 36001MPS 8000 FEW033 25/25 Q1007 NOSIG
ZGKL,2025-08-08 23:00,ZGKL 082300Z 00000MPS 8000 FEW033 26/25 Q1008 NOSIG
ZGKL,2025-08-09 00:00,ZGKL 090000Z VRB01MPS 9999 FEW033 28/26 Q1008 NOSIG
ZGKL,2025-08-09 01:00,ZGKL 090100Z 17004MPS 9999 FEW026 29/25 Q1008 NOSIG
ZGKL,2025-08-09 02:00,ZGKL 090200Z 18005MPS 160V220 9999 FEW020 SCT030 BKN043 30/25 Q1008 NOSIG
ZGKL,2025-08-09 03:00,ZGKL 090300Z 17006MPS 9999 FEW026 SCT046 31/25 Q1008 NOSIG
ZGKL,2025-08-09 04:00,ZGKL 090400Z 17006MPS 9999 FEW026 SCT046 32/25 Q1007 NOSIG
ZGKL,2025-08-09 05:00,ZGKL 090500Z 16006MPS 9999 FEW026 SCT050 33/25 Q1006 NOSIG
ZGKL,2025-08-09 06:00,ZGKL 090600Z 18005MPS 9999 FEW030 SCT056 33/26 Q1006 NOSIG
ZGKL,2025-08-09 07:00,ZGKL 090700Z 18004MPS 140V210 9999 FEW030 SCT056 34/26 Q1005 NOSIG
ZGKL,2025-08-09 08:00,ZGKL 090800Z 20005MPS 9999 FEW030 SCT060 34/25 Q1005 NOSIG
ZGKL,2025-08-09 09:00,ZGKL 090900Z 19004MPS 9999 SCT073 33/26 Q1004 NOSIG
ZGKL,2025-08-09 10:00,ZGKL 091000Z 20003MPS 9999 FEW073 33/25 Q1004 NOSIG
ZGKL,2025-08-09 11:00,ZGKL 091100Z 19003MPS 9999 FEW073 30/25 Q1004 NOSIG
ZGKL,2025-08-09 12:00,ZGKL 091200Z 25002MPS 9999 FEW073 29/26 Q1004 NOSIG
ZGKL,2025-08-09 13:00,ZGKL 091300Z VRB01MPS 9999 FEW073 29/26 Q1005 NOSIG
ZGKL,2025-08-09 14:00,ZGKL 091400Z 28001MPS 9999 FEW073 28/26 Q1006 NOSIG
ZGKL,2025-08-09 15:00,ZGKL 091500Z VRB01MPS 9999 SCT066 27/26 Q1006 NOSIG
ZGKL,2025-08-09 16:00,ZGKL 091600Z VRB01MPS 9999 SCT066 27/26 Q1006 NOSIG
ZGKL,2025-08-09 17:00,ZGKL 091700Z VRB01MPS 9999 FEW066 26/26 Q1006 NOSIG
ZGKL,2025-08-09 18:00,ZGKL 091800Z 28001MPS 9999 FEW053 26/25 Q1006 NOSIG
ZGKL,2025-08-09 19:00,ZGKL 091900Z 19001MPS 8000 FEW036 SCT056 26/25 Q1006 NOSIG
ZGKL,2025-08-09 20:00,ZGKL 092000Z VRB01MPS 8000 FEW043 BKN066 26/25 Q1006 NOSIG
ZGKL,2025-08-09 21:00,ZGKL 092100Z VRB01MPS 8000 FEW040 BKN066 26/25 Q1006 NOSIG
ZGKL,2025-08-09 22:00,ZGKL 092200Z 00000MPS 8000 FEW050 26/25 Q1006 NOSIG
ZGKL,2025-08-09 23:00,ZGKL 092300Z 17001MPS 8000 FEW050 26/25 Q1007 NOSIG
ZGKL,2025-08-10 00:00,ZGKL 100000Z VRB01MPS 9999 SCT073 28/26 Q1007 BECMG FM0150 18005MPS
ZGKL,2025-08-10 01:00,ZGKL 100100Z 17003MPS 9999 FEW073 30/26 Q1008 NOSIG
ZGKL,2025-08-10 02:00,ZGKL 100200Z 18005MPS 9999 FEW023 SCT043 31/26 Q1008 NOSIG
ZGKL,2025-08-10 03:00,ZGKL 100300Z 18006MPS 9999 FEW023 32/25 Q1008 NOSIG
ZGKL,2025-08-10 04:00,ZGKL 100400Z 17005MPS 9999 FEW023 33/25 Q1008 NOSIG
ZGKL,2025-08-10 05:00,ZGKL 100500Z 17006MPS 9999 FEW026 34/25 Q1007 NOSIG
ZGKL,2025-08-10 06:00,ZGKL 100600Z 17005MPS 9999 FEW026TCU FEW026 34/25 Q1006 NOSIG
ZGKL,2025-08-10 07:00,ZGKL 100700Z 17006MPS 9999 FEW026 34/25 Q1005 NOSIG
ZGKL,2025-08-10 08:00,ZGKL 100800Z 17005MPS 9999 FEW026 34/25 Q1004 NOSIG
ZGKL,2025-08-10 09:00,ZGKL 100900Z 18005MPS 9999 FEW023 34/24 Q1004 NOSIG
ZGKL,2025-08-10 10:00,ZGKL 101000Z 19004MPS CAVOK 33/24 Q1004 NOSIG
ZGKL,2025-08-10 11:00,ZGKL 101100Z 16002MPS CAVOK 32/24 Q1004 NOSIG
ZGKL,2025-08-10 12:00,ZGKL 101200Z VRB01MPS CAVOK 30/25 Q1005 NOSIG
ZGKL,2025-08-10 13:00,ZGKL 101300Z 27001MPS CAVOK 28/26 Q1005 NOSIG
ZGKL,2025-08-10 14:00,ZGKL 101400Z VRB01MPS CAVOK 28/26 Q1006 NOSIG
ZGKL,2025-08-10 15:00,ZGKL 101500Z VRB01MPS CAVOK 27/26 Q1006 NOSIG
ZGKL,2025-08-10 16:00,ZGKL 101600Z VRB01MPS CAVOK 27/25 Q1006 NOSIG
ZGKL,2025-08-10 17:00,ZGKL 101700Z VRB01MPS CAVOK 27/25 Q1006 NOSIG
ZGKL,2025-08-10 18:00,ZGKL 101800Z 21001MPS CAVOK 26/25 Q1006 NOSIG
ZGKL,2025-08-10 19:00,ZGKL 101900Z 00000MPS 8000 FEW053 26/25 Q1006 NOSIG
ZGKL,2025-08-10 20:00,ZGKL 102000Z VRB01MPS 8000 FEW073 25/25 Q1006 NOSIG
ZGKL,2025-08-10 21:00,ZGKL 102100Z VRB01MPS 7000 NSC 25/25 Q1006 NOSIG
ZGKL,2025-08-10 22:00,ZGKL 102200Z VRB01MPS 9999 FEW023 25/24 Q1006 NOSIG
ZGKL,2025-08-10 23:00,ZGKL 102300Z VRB01MPS 8000 FEW023 25/24 Q1006 NOSIG
ZGKL,2025-08-11 00:00,ZGKL 110000Z 00000MPS 9000 FEW040 27/25 Q1007 NOSIG
ZGKL,2025-08-11 01:00,ZGKL 110100Z 17003MPS 9999 FEW040 29/25 Q1007 NOSIG
ZGKL,2025-08-11 02:00,ZGKL 110200Z 17004MPS 9999 FEW050 30/26 Q1007 NOSIG
ZGKL,2025-08-11 03:00,ZGKL 110300Z 17003MPS 120V200 9999 FEW026 32/26 Q1007 NOSIG
ZGKL,2025-08-11 04:00,ZGKL 110400Z 16005MPS 9999 FEW026 33/25 Q1006 NOSIG
ZGKL,2025-08-11 05:00,ZGKL 110500Z 17005MPS 140V200 9999 FEW026 34/25 Q1006 NOSIG
ZGKL,2025-08-11 06:00,ZGKL 110600Z 18005MPS 9999 FEW026 34/25 Q1005 NOSIG
ZGKL,2025-08-11 07:00,ZGKL 110700Z 17005MPS 9999 FEW026 34/24 Q1005 NOSIG
ZGKL,2025-08-11 08:00,ZGKL 110800Z 18004MPS CAVOK 34/25 Q1004 NOSIG
ZGKL,2025-08-11 09:00,ZGKL 110900Z 18004MPS CAVOK 34/25 Q1004 NOSIG
ZGKL,2025-08-11 10:00,ZGKL 111000Z 18004MPS CAVOK 33/24 Q1003 NOSIG
ZGKL,2025-08-11 11:00,ZGKL 111100Z 18004MPS CAVOK 30/24 Q1004 NOSIG
ZGKL,2025-08-11 12:00,ZGKL 111200Z 18003MPS 9999 FEW043 29/24 Q1004 NOSIG
ZGKL,2025-08-11 13:00,ZGKL 111300Z 24001MPS 9999 FEW043 28/25 Q1005 NOSIG
ZGKL,2025-08-11 14:00,ZGKL 111400Z VRB01MPS 9999 FEW043 28/25 Q1005 NOSIG
ZGKL,2025-08-11 15:00,ZGKL 111500Z VRB01MPS CAVOK 27/25 Q1006 NOSIG
ZGKL,2025-08-11 16:00,ZGKL 111600Z 00000MPS CAVOK 26/25 Q1006 NOSIG
ZGKL,2025-08-11 17:00,ZGKL 111700Z 21001MPS CAVOK 26/25 Q1006 NOSIG
ZGKL,2025-08-11 18:00,ZGKL 111800Z VRB01MPS CAVOK 26/25 Q1006 NOSIG
ZGKL,2025-08-11 19:00,ZGKL 111900Z 19001MPS CAVOK 25/25 Q1005 NOSIG
ZGKL,2025-08-11 20:00,ZGKL 112000Z 00000MPS CAVOK 25/24 Q1005 NOSIG
ZGKL,2025-08-11 21:00,ZGKL 112100Z 19001MPS CAVOK 24/24 Q1006 NOSIG
ZGKL,2025-08-11 22:00,ZGKL 112200Z VRB01MPS 7000 FEW050 25/24 Q1006 NOSIG
ZGKL,2025-08-11 23:00,ZGKL 112300Z VRB01MPS 6000 NSC 25/25 Q1006 NOSIG
ZGKL,2025-08-12 00:00,ZGKL 120000Z VRB01MPS 8000 FEW050 26/25 Q1007 NOSIG
ZGKL,2025-08-12 01:00,ZGKL 120100Z 17003MPS 090V200 9999 FEW050 29/25 Q1007 NOSIG
ZGKL,2025-08-12 02:00,ZGKL 120200Z 17003MPS 140V260 9999 FEW033 31/25 Q1007 NOSIG
ZGKL,2025-08-12 03:00,ZGKL 120300Z 15003MPS 090V190 9999 FEW030 32/25 Q1007 NOSIG
ZGKL,2025-08-12 04:00,ZGKL 120400Z 18004MPS 140V210 9999 FEW030 SCT050 33/26 Q1007 NOSIG
ZGKL,2025-08-12 05:00,ZGKL 120500Z 17005MPS 140V200 9999 FEW033TCU SCT033 34/25 Q1006 NOSIG
ZGKL,2025-08-12 06:00,ZGKL 120600Z 17005MPS 9999 FEW033TCU FEW033 34/24 Q1006 NOSIG
ZGKL,2025-08-12 07:00,ZGKL 120700Z 17004MPS 130V210 9999 FEW033TCU FEW033 35/25 Q1005 NOSIG
ZGKL,2025-08-12 08:00,ZGKL 120800Z 22002MPS 140V310 CAVOK 35/24 Q1004 NOSIG
ZGKL,2025-08-12 09:00,ZGKL 120900Z 21002MPS 120V260 CAVOK 35/24 Q1004 NOSIG
ZGKL,2025-08-12 10:00,ZGKL 121000Z 18002MPS CAVOK 33/25 Q1004 NOSIG
ZGKL,2025-08-12 11:00,ZGKL 121100Z 18002MPS CAVOK 31/26 Q1004 NOSIG
ZGKL,2025-08-12 12:00,ZGKL 121200Z VRB01MPS CAVOK 30/25 Q1005 NOSIG
ZGKL,2025-08-12 13:00,ZGKL 121300Z 26001MPS CAVOK 29/25 Q1006 NOSIG
ZGKL,2025-08-12 14:00,ZGKL 121400Z VRB01MPS CAVOK 27/26 Q1007 NOSIG
ZGKL,2025-08-12 15:00,ZGKL 121500Z VRB01MPS CAVOK 28/25 Q1007 NOSIG
ZGKL,2025-08-12 16:00,ZGKL 121600Z VRB01MPS CAVOK 27/25 Q1007 NOSIG
ZGKL,2025-08-12 17:00,ZGKL 121700Z VRB01MPS CAVOK 27/25 Q1007 NOSIG
ZGKL,2025-08-12 18:00,ZGKL 121800Z 25001MPS CAVOK 26/25 Q1007 NOSIG
ZGKL,2025-08-12 19:00,ZGKL 121900Z VRB01MPS CAVOK 26/25 Q1007 NOSIG
ZGKL,2025-08-12 20:00,ZGKL 122000Z VRB01MPS CAVOK 26/25 Q1007 NOSIG
ZGKL,2025-08-12 21:00,ZGKL 122100Z 00000MPS CAVOK 25/24 Q1007 NOSIG
ZGKL,2025-08-12 22:00,ZGKL 122200Z 19001MPS 9999 FEW046 25/24 Q1008 NOSIG
ZGKL,2025-08-12 23:00,ZGKL 122300Z VRB01MPS 9999 FEW033 25/25 Q1008 NOSIG
ZGKL,2025-08-13 00:00,ZGKL 130000Z VRB01MPS 9999 FEW060 28/25 Q1008 NOSIG
ZGKL,2025-08-13 01:00,ZGKL 130100Z VRB01MPS CAVOK 29/25 Q1009 NOSIG
ZGKL,2025-08-13 02:00,ZGKL 130200Z 17003MPS 130V210 CAVOK 31/26 Q1008 NOSIG
ZGKL,2025-08-13 03:00,ZGKL 130300Z 15003MPS 110V180 9999 FEW026 33/26 Q1008 NOSIG
ZGKL,2025-08-13 04:00,ZGKL 130400Z 15004MPS 110V180 9999 FEW030TCU SCT030 33/26 Q1007 BECMG FM0500 FEW030CB SCT030
ZGKL,2025-08-13 05:00,ZGKL 130500Z 21003MPS 120V260 9999 FEW026CB SCT026 35/26 Q1007 NOSIG
ZGKL,2025-08-13 06:00,ZGKL 130600Z VRB01MPS 9999 FEW026CB SCT026 36/25 Q1006 BECMG TL0700 SCT040
ZGKL,2025-08-13 07:00,ZGKL 130700Z 28004MPS 240V310 9999 FEW026CB SCT026 33/25 Q1005 BECMG FM0800 FEW033 SCT040
ZGKL,2025-08-13 08:00,ZGKL 130800Z 26002MPS 200V290 9999 FEW040 36/24 Q1004 NOSIG
ZGKL,2025-08-13 09:00,ZGKL 130900Z VRB01MPS CAVOK 36/24 Q1004 NOSIG
ZGKL,2025-08-13 10:00,ZGKL 131000Z VRB01MPS CAVOK 34/25 Q1004 NOSIG
ZGKL,2025-08-13 11:00,ZGKL 131100Z VRB01MPS 9999 FEW026CB FEW026 31/25 Q1004 BECMG TL1200 SCT030
ZGKL,2025-08-13 12:00,ZGKL 131200Z VRB01MPS 9999 FEW030CB FEW030 30/26 Q1005 BECMG TL1300 SCT030
ZGKL,2025-08-13 13:00,ZGKL 131300Z VRB01MPS CAVOK 29/24 Q1006 NOSIG
ZGKL,2025-08-13 14:00,ZGKL 131400Z VRB01MPS CAVOK 28/24 Q1006 NOSIG
ZGKL,2025-08-13 15:00,ZGKL 131500Z VRB01MPS CAVOK 28/24 Q1006 NOSIG
ZGKL,2025-08-13 16:00,ZGKL 131600Z VRB01MPS CAVOK 27/24 Q1006 NOSIG
ZGKL,2025-08-13 17:00,ZGKL 131700Z 31001MPS CAVOK 27/25 Q1006 NOSIG
ZGKL,2025-08-13 18:00,ZGKL 131800Z 31002MPS 280V340 CAVOK 27/25 Q1006 NOSIG
ZGKL,2025-08-13 19:00,ZGKL 131900Z 30002MPS CAVOK 27/24 Q1006 NOSIG
ZGKL,2025-08-13 20:00,ZGKL 132000Z VRB01MPS CAVOK 26/25 Q1006 NOSIG
ZGKL,2025-08-13 21:00,ZGKL 132100Z 00000MPS CAVOK 26/25 Q1006 NOSIG
ZGKL,2025-08-13 22:00,ZGKL 132200Z VRB01MPS CAVOK 26/24 Q1006 NOSIG
ZGKL,2025-08-13 23:00,ZGKL 132300Z 32002MPS 280V010 CAVOK 26/25 Q1006 NOSIG
ZGKL,2025-08-14 00:00,ZGKL 140000Z 01002MPS 320V030 CAVOK 27/25 Q1006 NOSIG
ZGKL,2025-08-14 01:00,ZGKL 140100Z VRB01MPS CAVOK 31/25 Q1006 NOSIG
ZGKL,2025-08-14 02:00,ZGKL 140200Z VRB01MPS CAVOK 32/25 Q1006 BECMG FM0300 04005MPS
ZGKL,2025-08-14 03:00,ZGKL 140300Z 06003MPS 020V110 9999 FEW026 34/25 Q1006 NOSIG
ZGKL,2025-08-14 04:00,ZGKL 140400Z 34002MPS 230V040 9999 FEW026 34/24 Q1005 BECMG FM0530 04005MPS FEW030CB
ZGKL,2025-08-14 05:00,ZGKL 140500Z 09002MPS 030V170 9999 FEW026CB FEW026 35/24 Q1004 BECMG FM0630 -TSRA
ZGKL,2025-08-14 06:00,ZGKL 140600Z VRB03MPS 9999 TS FEW026CB FEW026 BKN046 32/24 Q1004 BECMG TL0700 NSW
ZGKL,2025-08-14 07:00,ZGKL 140700Z 24003MPS 200V270 9999 FEW030CB FEW030 SCT043 31/24 Q1003 RETS BECMG FM0830 TSRA
ZGKL,2025-08-14 08:00,ZGKL 140800Z VRB01MPS 9999 FEW036CB FEW036 BKN066 33/25 Q1002 BECMG FM0930 35006G12MPS TSRA
ZGKL,2025-08-14 09:00,ZGKL 140900Z 02005MPS 7000 -SHRA FEW033CB SCT033 BKN053 29/26 Q1003 BECMG FM1030 SHRA
ZGKL,2025-08-14 10:00,ZGKL 141000Z 35002MPS 320V030 9999 FEW040CB FEW040 BKN060 28/26 Q1003 BECMG TL1100 BKN030
ZGKL,2025-08-14 11:00,ZGKL 141100Z 36002MPS 9999 FEW020 FEW033CB BKN066 27/26 Q1003 NOSIG
ZGKL,2025-08-14 12:00,ZGKL 141200Z VRB04MPS 6000 -SHRA FEW020 FEW033CB SCT040 BKN066 25/24 Q1004 RESHRA NOSIG
ZGKL,2025-08-14 13:00,ZGKL 141300Z 12003MPS 8000 -SHRA FEW020 FEW033CB SCT040 BKN066 25/25 Q1004 BECMG TL1330 SHRA
ZGKL,2025-08-14 14:00,ZGKL 141400Z VRB01MPS 6000 -SHRA FEW020 FEW033CB SCT040 BKN066 25/25 Q1004 BECMG FM1430 SHRA
ZGKL,2025-08-14 15:00,ZGKL 141500Z 19003MPS 6000 -SHRA FEW020 FEW033CB SCT040 BKN066 25/25 Q1004 NOSIG
ZGKL,2025-08-14 16:00,ZGKL 141600Z 13002MPS 090V160 8000 -SHRA FEW010 FEW030CB SCT040 BKN053 25/24 Q1004 BECMG FM1730 SHRA
ZGKL,2025-08-14 17:00,ZGKL 141700Z 17003MPS 140V200 8000 SHRA FEW010 FEW030CB SCT040 BKN053 24/24 Q1004 NOSIG
ZGKL,2025-08-14 18:00,ZGKL 141800Z 20003MPS 8000 -SHRA FEW008 FEW030CB SCT030 BKN046 24/24 Q1004 RESHRA BECMG FM1930 SHRA
ZGKL,2025-08-14 19:00,ZGKL 141900Z 18005MPS 8000 -SHRA FEW008 FEW033CB SCT033 BKN050 24/24 Q1004 BECMG FM2000 SHRA
ZGKL,2025-08-14 20:00,ZGKL 142000Z 17006MPS 7000 -SHRA FEW030CB SCT030 BKN046 24/23 Q1004 NOSIG
ZGKL,2025-08-14 21:00,ZGKL 142100Z 16003MPS 7000 -SHRA FEW020 FEW030CB SCT030 BKN046 23/23 Q1005 RESHRA NOSIG
ZGKL,2025-08-14 22:00,ZGKL 142200Z 14003MPS 7000 -SHRA FEW016 FEW030CB SCT030 BKN046 23/23 Q1006 NOSIG
ZGKL,2025-08-14 23:00,ZGKL 142300Z 13002MPS 100V160 7000 -SHRA FEW016 FEW030CB SCT030 BKN046 23/23 Q1007 NOSIG
ZGKL,2025-08-15 00:00,ZGKL 150000Z 11002MPS 7000 -SHRA FEW016 FEW030CB SCT030 BKN046 24/23 Q1008 BECMG TL0100 SCT033 BKN043
ZGKL,2025-08-15 01:00,ZGKL 150100Z VRB01MPS 8000 -SHRA FEW030CB SCT030 BKN050 24/24 Q1008 BECMG TL0200 SCT033 BKN050
ZGKL,2025-08-15 02:00,ZGKL 150200Z VRB01MPS 8000 -RA FEW013 SCT030 OVC050 24/24 Q1009 NOSIG
ZGKL,2025-08-15 03:00,ZGKL 150300Z VRB02MPS 8000 -RA FEW013 SCT030 OVC050 25/24 Q1009 NOSIG
ZGKL,2025-08-15 04:00,ZGKL 150400Z 07002MPS 030V110 9999 -RA FEW013 SCT030 OVC050 25/24 Q1009 NOSIG
ZGKL,2025-08-15 05:00,ZGKL 150500Z VRB01MPS 9999 -RA FEW010 SCT033 OVC053 26/24 Q1009 NOSIG
ZGKL,2025-08-15 06:00,ZGKL 150600Z VRB01MPS 9999 FEW013 FEW033TCU SCT033 BKN060 27/24 Q1009 BECMG TL0700 FEW030CB BKN050
ZGKL,2025-08-15 07:00,ZGKL 150700Z VRB01MPS 9999 FEW016 FEW033TCU SCT033 BKN060 28/24 Q1008 BECMG TL0800 FEW030CB BKN050
ZGKL,2025-08-15 08:00,ZGKL 150800Z 35003MPS 310V010 9999 FEW020 FEW033CB SCT033 27/25 Q1008 BECMG TL0900 SCT030 BKN050
ZGKL,2025-08-15 09:00,ZGKL 150900Z 33002MPS 280V360 9999 FEW023 27/24 Q1008 NOSIG
ZGKL,2025-08-15 10:00,ZGKL 151000Z 34002MPS 300V020 9999 FEW053 27/24 Q1008 NOSIG
ZGKL,2025-08-15 11:00,ZGKL 151100Z 01003MPS 9999 SCT053 27/24 Q1009 NOSIG
ZGKL,2025-08-15 12:00,ZGKL 151200Z 33002MPS 300V010 9999 FEW033CB SCT043 SCT060 26/24 Q1009 BECMG FM1330 SCT030 BKN060
ZGKL,2025-08-15 13:00,ZGKL 151300Z VRB01MPS 9999 FEW033CB SCT050 25/24 Q1010 BECMG TL1400 SCT030 BKN060
ZGKL,2025-08-15 14:00,ZGKL 151400Z VRB01MPS 9999 SCT050 25/24 Q1010 NOSIG
ZGKL,2025-08-15 15:00,ZGKL 151500Z VRB01MPS CAVOK 25/24 Q1011 NOSIG
ZGKL,2025-08-15 16:00,ZGKL 151600Z VRB01MPS 9999 BKN073 25/24 Q1011 NOSIG
ZGKL,2025-08-15 17:00,ZGKL 151700Z VRB01MPS 9999 FEW053 SCT073 25/24 Q1010 NOSIG
ZGKL,2025-08-15 18:00,ZGKL 151800Z VRB01MPS 9999 FEW040 SCT060 24/24 Q1010 NOSIG
ZGKL,2025-08-15 19:00,ZGKL 151900Z VRB01MPS 9999 SCT033 SCT066 24/24 Q1010 NOSIG
ZGKL,2025-08-15 20:00,ZGKL 152000Z 33001MPS 9999 SCT040 BKN060 24/24 Q1010 NOSIG
ZGKL,2025-08-15 21:00,ZGKL 152100Z VRB01MPS 9999 SCT040 SCT066 24/24 Q1010 NOSIG
ZGKL,2025-08-15 22:00,ZGKL 152200Z 36002MPS 310V050 9999 FEW040 SCT066 24/23 Q1010 NOSIG
ZGKL,2025-08-15 23:00,ZGKL 152300Z VRB01MPS 9999 FEW030 SCT046 BKN066 24/23 Q1011 NOSIG
ZGKL,2025-08-16 00:00,ZGKL 160000Z VRB01MPS 9999 SCT056 BKN066 25/24 Q1011 NOSIG
ZGKL,2025-08-16 01:00,ZGKL 160100Z VRB01MPS 9999 SCT060 27/24 Q1011 NOSIG
ZGKL,2025-08-16 02:00,ZGKL 160200Z VRB01MPS 9999 SCT056 29/25 Q1011 NOSIG
ZGKL,2025-08-16 03:00,ZGKL 160300Z VRB01MPS 9999 SCT023 30/24 Q1011 NOSIG
ZGKL,2025-08-16 04:00,ZGKL 160400Z VRB02MPS 9999 SCT026 31/23 Q1011 NOSIG
ZGKL,2025-08-16 05:00,ZGKL 160500Z 35002MPS 270V040 9999 FEW030 SCT056 32/23 Q1010 NOSIG
ZGKL,2025-08-16 06:00,ZGKL 160600Z VRB01MPS 9999 FEW030 SCT056 33/23 Q1009 NOSIG
ZGKL,2025-08-16 07:00,ZGKL 160700Z VRB01MPS 9999 SCT030 34/23 Q1008 NOSIG
ZGKL,2025-08-16 08:00,ZGKL 160800Z VRB01MPS 9999 FEW030 35/23 Q1008 NOSIG
ZGKL,2025-08-16 09:00,ZGKL 160900Z VRB01MPS CAVOK 34/22 Q1007 NOSIG
ZGKL,2025-08-16 10:00,ZGKL 161000Z 25002MPS 210V270 CAVOK 34/23 Q1007 NOSIG
ZGKL,2025-08-16 11:00,ZGKL 161100Z VRB01MPS CAVOK 31/24 Q1007 NOSIG
ZGKL,2025-08-16 12:00,ZGKL 161200Z 28002MPS 240V310 CAVOK 28/24 Q1008 NOSIG
ZGKL,2025-08-16 13:00,ZGKL 161300Z 27001MPS CAVOK 27/24 Q1009 BECMG FM1430 FEW030CB
ZGKL,2025-08-16 14:00,ZGKL 161400Z VRB01MPS 9999 SCT066 26/24 Q1009 BECMG FM1530 2500 TSRA FEW030CB
ZGKL,2025-08-16 15:00,ZGKL 161500Z VRB01MPS 9999 FEW040CB SCT040 SCT073 27/24 Q1010 BECMG FM1600 TSRA
ZGKL,2025-08-16 16:00,ZGKL 161600Z 01002MPS 290V040 9999 -TSRA FEW040CB SCT040 BKN066 26/24 Q1011 BECMG FM1620 07005MPS TSRA
ZGKL,2025-08-16 17:00,ZGKL 161700Z 34003MPS 310V010 9999 -SHRA FEW040 BKN066 24/22 Q1011 RETS NOSIG
ZGKL,2025-08-16 18:00,ZGKL 161800Z VRB01MPS 9999 FEW050 BKN066 24/23 Q1010 NOSIG
ZGKL,2025-08-16 19:00,ZGKL 161900Z VRB01MPS 9999 SCT046 BKN066 24/23 Q1010 NOSIG
ZGKL,2025-08-16 20:00,ZGKL 162000Z VRB01MPS 9999 SCT060 24/23 Q1010 NOSIG
ZGKL,2025-08-16 21:00,ZGKL 162100Z 34002MPS 310V010 9999 FEW033 SCT053 24/23 Q1010 NOSIG
ZGKL,2025-08-16 22:00,ZGKL 162200Z VRB01MPS 9999 FEW060 24/23 Q1010 NOSIG
ZGKL,2025-08-16 23:00,ZGKL 162300Z VRB01MPS CAVOK 24/23 Q1011 NOSIG
ZGKL,2025-08-17 00:00,ZGKL 170000Z VRB01MPS CAVOK 26/24 Q1011 NOSIG
ZGKL,2025-08-17 01:00,ZGKL 170100Z VRB01MPS CAVOK 29/24 Q1012 NOSIG
ZGKL,2025-08-17 02:00,ZGKL 170200Z VRB01MPS CAVOK 30/23 Q1012 NOSIG
ZGKL,2025-08-17 03:00,ZGKL 170300Z VRB01MPS 9999 FEW026 31/24 Q1012 NOSIG
ZGKL,2025-08-17 04:00,ZGKL 170400Z 02002MPS 290V070 9999 FEW026 33/24 Q1011 NOSIG
ZGKL,2025-08-17 05:00,ZGKL 170500Z 09002MPS 360V130 9999 FEW026 34/24 Q1010 NOSIG
ZGKL,2025-08-17 06:00,ZGKL 170600Z VRB02MPS 9999 FEW030TCU FEW030 35/24 Q1009 BECMG FM0730 FEW030CB
ZGKL,2025-08-17 07:00,ZGKL 170700Z 19002MPS 130V240 9999 FEW030TCU FEW030 35/24 Q1008 BECMG FM0800 FEW030CB
ZGKL,2025-08-17 08:00,ZGKL 170800Z VRB02MPS 9999 FEW030CB FEW030 36/23 Q1008 BECMG FM0900 FEW030
ZGKL,2025-08-17 09:00,ZGKL 170900Z VRB02MPS 9999 FEW030TCU 36/22 Q1007 BECMG FM1000 FEW030CB
ZGKL,2025-08-17 10:00,ZGKL 171000Z 05003MPS 9999 FEW030CB FEW030 35/22 Q1007 BECMG FM1140 SHRA
ZGKL,2025-08-17 11:00,ZGKL 171100Z VRB01MPS 9999 FEW030CB FEW030 33/25 Q1008 NOSIG
ZGKL,2025-08-17 12:00,ZGKL 171200Z 26002MPS 200V330 8000 -TSRA FEW030CB SCT030 BKN050 27/22 Q1008 RESHRA BECMG TL1215 NSW FEW033 BKN040
ZGKL,2025-08-17 13:00,ZGKL 171300Z 24002MPS 210V280 9999 -SHRA FEW030 SCT050 27/24 Q1009 RETS NOSIG
ZGKL,2025-08-17 14:00,ZGKL 171400Z VRB01MPS 9999 FEW030 SCT050 26/25 Q1010 NOSIG
ZGKL,2025-08-17 15:00,ZGKL 171500Z 35001MPS 9999 FEW050 26/25 Q1010 NOSIG
ZGKL,2025-08-17 16:00,ZGKL 171600Z VRB01MPS 9999 FEW050 26/25 Q1010 NOSIG
ZGKL,2025-08-17 17:00,ZGKL 171700Z VRB01MPS 9999 FEW050 26/25 Q1010 NOSIG
ZGKL,2025-08-17 18:00,ZGKL 171800Z 32001MPS 9999 FEW050 26/25 Q1009 NOSIG
ZGKL,2025-08-17 19:00,ZGKL 171900Z 18002MPS 9000 -RA SCT050 26/25 Q1009 NOSIG
ZGKL,2025-08-17 20:00,ZGKL 172000Z VRB01MPS 7000 -RA FEW033 SCT060 26/25 Q1009 NOSIG
ZGKL,2025-08-17 21:00,ZGKL 172100Z 00000MPS 9000 FEW060 25/24 Q1009 NOSIG
ZGKL,2025-08-17 22:00,ZGKL 172200Z VRB01MPS 9000 FEW026 SCT046 25/25 Q1010 NOSIG
ZGKL,2025-08-17 23:00,ZGKL 172300Z VRB01MPS 8000 FEW026 SCT043 25/25 Q1010 NOSIG
ZGKL,2025-08-18 00:00,ZGKL 180000Z VRB01MPS 9000 -RA FEW026 BKN043 26/25 Q1011 NOSIG
ZGKL,2025-08-18 01:00,ZGKL 180100Z VRB01MPS 9000 FEW010 SCT026 BKN060 27/25 Q1011 NOSIG
ZGKL,2025-08-18 02:00,ZGKL 180200Z VRB01MPS 7000 FEW011 SCT030 BKN060 28/24 Q1011 NOSIG
ZGKL,2025-08-18 03:00,ZGKL 180300Z VRB01MPS 7000 FEW020 SCT030 BKN066 29/25 Q1011 NOSIG
ZGKL,2025-08-18 04:00,ZGKL 180400Z 02002MPS 350V070 8000 -RA FEW013 SCT033 BKN073 30/25 Q1011 BECMG FM0520 FEW030CB FEW030 SCT050
ZGKL,2025-08-18 05:00,ZGKL 180500Z 05002MPS 010V120 8000 FEW020 SCT033 OVC053 31/25 Q1010 BECMG FM0600 FEW030CB SCT030 BKN050
ZGKL,2025-08-18 06:00,ZGKL 180600Z 18003MPS 150V220 6000 -SHRA FEW020 FEW030CB SCT033 BKN060 27/25 Q1009 BECMG FM0750 SCT030 BKN060
ZGKL,2025-08-18 07:00,ZGKL 180700Z VRB01MPS 8000 -SHRA FEW020 FEW030CB SCT030 BKN060 28/25 Q1008 BECMG FM0750 SCT030 BKN060
ZGKL,2025-08-18 08:00,ZGKL 180800Z VRB01MPS 8000 FEW020 FEW026TCU SCT033 BKN060 27/25 Q1008 RESHRA BECMG FM0840 SHRA FEW030CB BKN050
ZGKL,2025-08-18 09:00,ZGKL 180900Z 21002MPS 180V280 8000 FEW030CB SCT040 BKN060 27/25 Q1008 BECMG FM0910 SHRA
ZGKL,2025-08-18 10:00,ZGKL 181000Z 03007MPS 1000 R01/P2000 +TSRA BR FEW006 FEW023CB SCT023 BKN036 25/24 Q1009 BECMG TL1050 3000 -SHRA
ZGKL,2025-08-18 11:00,ZGKL 181100Z VRB01MPS 9999 FEW010 SCT026 OVC053 24/24 Q1009 RETSRA NOSIG
ZGKL,2025-08-18 12:00,ZGKL 181200Z 01002MPS 9999 SCT030 OVC053 25/24 Q1009 BECMG TL1310 SHRA FEW010 FEW030CB SCT030 BKN050
ZGKL,2025-08-18 13:00,ZGKL 181300Z VRB01MPS 6000 -SHRA FEW011 FEW026CB SCT026 BKN043 25/24 Q1010 BECMG TL1400 SHRA
ZGKL,2025-08-18 14:00,ZGKL 181400Z VRB01MPS 9999 -SHRA FEW013 FEW030CB SCT030 BKN050 25/24 Q1011 BECMG TL1440 FEW030 BKN050
ZGKL,2025-08-18 15:00,ZGKL 181500Z 36002MPS 9999 FEW013 SCT033 OVC060 25/24 Q1011 NOSIG
ZGKL,2025-08-18 16:00,ZGKL 181600Z 34001MPS 9999 FEW040 SCT066 24/24 Q1010 NOSIG
ZGKL,2025-08-18 17:00,ZGKL 181700Z 01002MPS 9999 FEW026 SCT053 24/24 Q1010 NOSIG
ZGKL,2025-08-18 18:00,ZGKL 181800Z VRB01MPS 9999 -RA FEW010 SCT033 BKN053 25/24 Q1010 NOSIG
ZGKL,2025-08-18 19:00,ZGKL 181900Z VRB01MPS 9999 -RA FEW010 SCT033 OVC053 25/24 Q1009 NOSIG
ZGKL,2025-08-18 20:00,ZGKL 182000Z 01001MPS 9999 SCT033 OVC053 25/24 Q1009 NOSIG
ZGKL,2025-08-18 21:00,ZGKL 182100Z VRB01MPS 9999 SCT033 BKN053 25/24 Q1009 NOSIG
ZGKL,2025-08-18 22:00,ZGKL 182200Z VRB01MPS 9999 FEW011 SCT030 BKN053 25/24 Q1010 NOSIG
ZGKL,2025-08-18 23:00,ZGKL 182300Z VRB01MPS 6000 SCT043 25/24 Q1010 NOSIG
ZGKL,2025-08-19 00:00,ZGKL 190000Z 02003MPS 7000 FEW010 26/25 Q1010 NOSIG
ZGKL,2025-08-19 01:00,ZGKL 190100Z 04003MPS 010V070 9999 SCT023 27/25 Q1010 NOSIG
ZGKL,2025-08-19 02:00,ZGKL 190200Z VRB01MPS 9999 FEW023 SCT040 28/24 Q1011 NOSIG
ZGKL,2025-08-19 03:00,ZGKL 190300Z 12003MPS 050V170 9999 FEW023 BKN043 28/24 Q1011 NOSIG
ZGKL,2025-08-19 04:00,ZGKL 190400Z 11002MPS 050V220 9999 FEW026 SCT046 29/25 Q1010 NOSIG
ZGKL,2025-08-19 05:00,ZGKL 190500Z VRB03MPS 9999 SCT026 SCT040 30/25 Q1009 BECMG FM0630 FEW030CB
ZGKL,2025-08-19 06:00,ZGKL 190600Z VRB02MPS 9999 FEW026 SCT043 31/24 Q1008 BECMG FM0730 FEW030CB
ZGKL,2025-08-19 07:00,ZGKL 190700Z 13003MPS 100V170 9999 FEW026 SCT073 32/24 Q1007 NOSIG
ZGKL,2025-08-19 08:00,ZGKL 190800Z 10003MPS 080V150 9999 FEW026 32/25 Q1007 BECMG FM0930 FEW030CB
ZGKL,2025-08-19 09:00,ZGKL 190900Z 12003MPS 090V170 9999 FEW026 FEW033CB SCT033 BKN073 30/25 Q1007 BECMG TL1030 BKN030
ZGKL,2025-08-19 10:00,ZGKL 191000Z 14004MPS 110V170 9999 FEW043 27/23 Q1007 NOSIG
ZGKL,2025-08-19 11:00,ZGKL 191100Z VRB01MPS 9999 SCT046 27/24 Q1008 NOSIG
ZGKL,2025-08-19 12:00,ZGKL 191200Z 08002MPS 040V110 9999 FEW053 27/24 Q1009 NOSIG
ZGKL,2025-08-19 13:00,ZGKL 191300Z VRB01MPS 9999 SCT053 27/24 Q1010 NOSIG
ZGKL,2025-08-19 14:00,ZGKL 191400Z VRB01MPS 9999 SCT060 26/24 Q1010 NOSIG
ZGKL,2025-08-19 15:00,ZGKL 191500Z 29001MPS 9999 SCT070 26/24 Q1010 NOSIG
ZGKL,2025-08-19 16:00,ZGKL 191600Z VRB01MPS 9999 SCT070 26/24 Q1009 NOSIG
ZGKL,2025-08-19 17:00,ZGKL 191700Z VRB01MPS 9999 SCT070 26/25 Q1009 NOSIG
ZGKL,2025-08-19 18:00,ZGKL 191800Z 00000MPS 9999 SCT053 26/24 Q1008 NOSIG
ZGKL,2025-08-19 19:00,ZGKL 191900Z 12002MPS 090V150 9999 -SHRA SCT036 OVC060 25/24 Q1008 NOSIG
ZGKL,2025-08-19 20:00,ZGKL 192000Z VRB01MPS 9999 -SHRA FEW011 SCT033 OVC053 25/24 Q1008 NOSIG
ZGKL,2025-08-19 21:00,ZGKL 192100Z VRB01MPS 9999 SCT043 BKN066 25/24 Q1007 NOSIG
ZGKL,2025-08-19 22:00,ZGKL 192200Z VRB01MPS 9999 FEW010 SCT036 BKN066 25/24 Q1008 NOSIG
ZGKL,2025-08-19 23:00,ZGKL 192300Z VRB01MPS 9999 FEW013 SCT040 BKN060 25/24 Q1008 NOSIG
ZGKL,2025-08-20 00:00,ZGKL 200000Z VRB01MPS 9999 FEW013 SCT033 BKN060 26/24 Q1008 NOSIG
ZGKL,2025-08-20 01:00,ZGKL 200100Z VRB01MPS 7000 -SHRA FEW010 FEW030CB SCT030 BKN043 26/25 Q1009 BECMG FM0140 SHRA
ZGKL,2025-08-20 02:00,ZGKL 200200Z 16003MPS 140V200 7000 -SHRA FEW010 FEW026CB SCT026 BKN043 26/25 Q1009 BECMG FM0300 SCT030 BKN053
ZGKL,2025-08-20 03:00,ZGKL 200300Z 17004MPS 7000 -SHRA FEW010 SCT033 OVC050 26/25 Q1009 BECMG FM0400 FEW030CB SCT033 BKN053
ZGKL,2025-08-20 04:00,ZGKL 200400Z 18004MPS 6000 -SHRA FEW010 FEW033CB SCT033 BKN056 27/25 Q1009 NOSIG
ZGKL,2025-08-20 05:00,ZGKL 200500Z 18003MPS 150V210 8000 -SHRA FEW026CB SCT040 BKN056 28/25 Q1008 BECMG TL0530 SHRA
ZGKL,2025-08-20 06:00,ZGKL 200600Z 21002MPS 180V250 3500 -SHRA BR FEW013 FEW026CB SCT040 BKN056 26/25 Q1008 BECMG TL0610 SHRA
ZGKL,2025-08-20 07:00,ZGKL 200700Z VRB01MPS 4500 -TSRA BR FEW026CB FEW026 BKN056 25/25 Q1007 RESHRA BECMG FM0730 -SHRA
ZGKL,2025-08-20 08:00,ZGKL 200800Z VRB01MPS 9000 -SHRA FEW026CB FEW026 BKN056 25/25 Q1007 RETS NOSIG
ZGKL,2025-08-20 09:00,ZGKL 200900Z VRB01MPS 9000 -SHRA FEW026CB FEW026 BKN056 26/25 Q1007 BECMG TL1000 SHRA
ZGKL,2025-08-20 10:00,ZGKL 201000Z 21002MPS 180V250 9000 -SHRA FEW026CB FEW026 SCT050 26/26 Q1007 BECMG FM1100 SCT030 BKN050
ZGKL,2025-08-20 11:00,ZGKL 201100Z VRB01MPS 9999 -SHRA FEW026CB FEW026 SCT060 26/25 Q1008 BECMG FM1200 SCT033 BKN050
ZGKL,2025-08-20 12:00,ZGKL 201200Z VRB01MPS 9999 -RA FEW026 SCT060 25/25 Q1008 NOSIG
ZGKL,2025-08-20 13:00,ZGKL 201300Z VRB01MPS 9999 -RA FEW026 SCT060 26/25 Q1009 NOSIG
ZGKL,2025-08-20 14:00,ZGKL 201400Z VRB01MPS 9999 FEW010 SCT046 BKN066 25/25 Q1010 NOSIG
ZGKL,2025-08-20 15:00,ZGKL 201500Z VRB01MPS 9999 SCT046 BKN066 25/25 Q1010 NOSIG
ZGKL,2025-08-20 16:00,ZGKL 201600Z 35001MPS 9999 SCT046 BKN066 25/25 Q1010 NOSIG
ZGKL,2025-08-20 17:00,ZGKL 201700Z VRB01MPS 9999 SCT050 BKN073 25/25 Q1010 NOSIG
ZGKL,2025-08-20 18:00,ZGKL 201800Z VRB01MPS 8000 FEW026 SCT043 25/24 Q1010 NOSIG
ZGKL,2025-08-20 19:00,ZGKL 201900Z VRB01MPS 9000 FEW026 SCT043 25/25 Q1010 NOSIG
ZGKL,2025-08-20 20:00,ZGKL 202000Z 24001MPS 8000 FEW026 SCT043 25/24 Q1010 NOSIG
ZGKL,2025-08-20 21:00,ZGKL 202100Z VRB01MPS 8000 -DZ FEW026 SCT043 25/24 Q1010 NOSIG
ZGKL,2025-08-20 22:00,ZGKL 202200Z 17001MPS 8000 -DZ FEW023 SCT036 OVC053 25/25 Q1010 NOSIG
ZGKL,2025-08-20 23:00,ZGKL 202300Z VRB01MPS 8000 FEW023 SCT040 BKN053 25/25 Q1010 NOSIG
ZGKL,2025-08-21 00:00,ZGKL 210000Z VRB01MPS 9999 FEW043 SCT066 25/25 Q1010 NOSIG
ZGKL,2025-08-21 01:00,ZGKL 210100Z VRB01MPS 8000 FEW010 SCT030 BKN056 27/26 Q1010 NOSIG
ZGKL,2025-08-21 02:00,ZGKL 210200Z 14003MPS 100V180 8000 FEW016 FEW026TCU SCT026 BKN053 29/26 Q1010 NOSIG
ZGKL,2025-08-21 03:00,ZGKL 210300Z 17003MPS 140V210 9000 -SHRA FEW013 FEW026TCU SCT026 BKN056 29/26 Q1010 BECMG FM0330 SHRA FEW030CB
ZGKL,2025-08-21 04:00,ZGKL 210400Z 25002MPS 200V290 9999 -SHRA FEW010 FEW030CB SCT030 BKN056 28/26 Q1010 RETS NOSIG
ZGKL,2025-08-21 05:00,ZGKL 210500Z 00000MPS 9999 FEW013 FEW030CB SCT030 BKN056 28/25 Q1009 BECMG TL0540 -TSRA
ZGKL,2025-08-21 06:00,ZGKL 210600Z VRB01MPS 9999 FEW010 FEW026CB SCT026 BKN056 27/25 Q1009 BECMG TL0700 TS
ZGKL,2025-08-21 07:00,ZGKL 210700Z 13003MPS 8000 -TSRA FEW011 FEW026CB SCT026 BKN046 27/25 Q1009 BECMG TL0730 TSRA
ZGKL,2025-08-21 08:00,ZGKL 210800Z 09002MPS 040V120 8000 -SHRA FEW011 FEW026CB SCT026 BKN046 25/24 Q1009 RETS BECMG TL0840 FEW033 SCT050
ZGKL,2025-08-21 09:00,ZGKL 210900Z VRB01MPS 9999 -SHRA FEW011 SCT033 OVC066 25/24 Q1009 NOSIG
ZGKL,2025-08-21 10:00,ZGKL 211000Z 00000MPS 9999 FEW026 SCT043 26/25 Q1008 NOSIG
ZGKL,2025-08-21 11:00,ZGKL 211100Z 05002MPS 8000 SCT033 OVC066 25/24 Q1008 NOSIG
ZGKL,2025-08-21 12:00,ZGKL 211200Z 00000MPS 9000 SCT036 OVC066 25/24 Q1009 NOSIG
ZGKL,2025-08-21 13:00,ZGKL 211300Z VRB01MPS 8000 FEW010 SCT040 OVC060 25/24 Q1009 NOSIG
ZGKL,2025-08-21 14:00,ZGKL 211400Z 03002MPS 340V050 9000 FEW010 SCT040 OVC060 25/24 Q1010 NOSIG
ZGKL,2025-08-21 15:00,ZGKL 211500Z VRB01MPS 8000 FEW010 SCT036 OVC060 25/24 Q1011 NOSIG
ZGKL,2025-08-21 16:00,ZGKL 211600Z 22001MPS 7000 FEW010 SCT040 OVC060 24/24 Q1011 NOSIG
ZGKL,2025-08-21 17:00,ZGKL 211700Z VRB01MPS 5000 BR FEW004 SCT040 OVC060 25/24 Q1011 NOSIG
ZGKL,2025-08-21 18:00,ZGKL 211800Z VRB01MPS 4000 BR FEW004 SCT040 OVC060 24/24 Q1010 NOSIG
ZGKL,2025-08-21 19:00,ZGKL 211900Z VRB01MPS 3500 BR FEW003 SCT011 OVC026 24/24 Q1010 NOSIG
ZGKL,2025-08-21 20:00,ZGKL 212000Z 27001MPS 3500 BR FEW011 SCT026 BKN050 24/24 Q1009 NOSIG
ZGKL,2025-08-21 21:00,ZGKL 212100Z VRB01MPS 0700 R01/0750D FG FEW003 SCT011 BKN026 24/24 Q1009 BECMG TL2230 0800
ZGKL,2025-08-21 22:00,ZGKL 212200Z 01001MPS 0600 R01/1000D FG VV004 24/24 Q1009 BECMG TL2330 1500 BR
ZGKL,2025-08-21 23:00,ZGKL 212300Z VRB01MPS 1200 R01/P2000 BR FEW004 SCT011 24/24 Q1010 BECMG TL0030 3000
ZGKL,2025-08-22 00:00,ZGKL 220000Z 00000MPS 2800 BR FEW010 SCT040 BKN066 25/24 Q1011 BECMG TL0130 5000
ZGKL,2025-08-22 01:00,ZGKL 220100Z VRB01MPS 6000 FEW010 SCT040 BKN070 26/23 Q1011 NOSIG
ZGKL,2025-08-22 02:00,ZGKL 220200Z VRB01MPS 6000 FEW010 SCT040 BKN070 27/24 Q1011 NOSIG
ZGKL,2025-08-22 03:00,ZGKL 220300Z VRB01MPS 8000 FEW023 SCT040 BKN070 27/24 Q1012 NOSIG
ZGKL,2025-08-22 04:00,ZGKL 220400Z VRB02MPS 9000 FEW013 SCT040 BKN070 29/24 Q1011 NOSIG
ZGKL,2025-08-22 05:00,ZGKL 220500Z 18005MPS 9999 FEW026 SCT040 BKN066 29/24 Q1011 NOSIG
ZGKL,2025-08-22 06:00,ZGKL 220600Z 18005MPS 9999 FEW026 SCT040 BKN066 30/24 Q1010 NOSIG
ZGKL,2025-08-22 07:00,ZGKL 220700Z 21003MPS 170V250 9999 FEW026 SCT040 31/25 Q1009 NOSIG
ZGKL,2025-08-22 08:00,ZGKL 220800Z 19003MPS 9999 FEW026 SCT040 31/24 Q1009 NOSIG
ZGKL,2025-08-22 09:00,ZGKL 220900Z 18003MPS 9999 FEW040 31/25 Q1008 NOSIG
ZGKL,2025-08-22 10:00,ZGKL 221000Z 11003MPS 9999 FEW033 30/25 Q1008 NOSIG
ZGKL,2025-08-22 11:00,ZGKL 221100Z 13002MPS 100V160 9999 FEW033 28/25 Q1008 NOSIG
ZGKL,2025-08-22 12:00,ZGKL 221200Z VRB01MPS 9999 FEW033 27/25 Q1009 NOSIG
ZGKL,2025-08-22 13:00,ZGKL 221300Z 20001MPS 9999 FEW043 26/25 Q1009 NOSIG
ZGKL,2025-08-22 14:00,ZGKL 221400Z 34001MPS 9999 FEW046 26/25 Q1010 NOSIG
ZGKL,2025-08-22 15:00,ZGKL 221500Z VRB01MPS 8000 FEW046 25/24 Q1010 NOSIG
ZGKL,2025-08-22 16:00,ZGKL 221600Z 30001MPS CAVOK 25/25 Q1010 NOSIG
ZGKL,2025-08-22 17:00,ZGKL 221700Z 00000MPS 9999 BKN046 25/24 Q1010 NOSIG
ZGKL,2025-08-22 18:00,ZGKL 221800Z 30001MPS 8000 BKN046 25/24 Q1009 NOSIG
ZGKL,2025-08-22 19:00,ZGKL 221900Z VRB01MPS 8000 BKN046 25/24 Q1009 NOSIG
ZGKL,2025-08-22 20:00,ZGKL 222000Z 30001MPS 8000 BKN046 25/24 Q1009 NOSIG
ZGKL,2025-08-22 21:00,ZGKL 222100Z 00000MPS 8000 FEW046 24/24 Q1009 NOSIG
ZGKL,2025-08-22 22:00,ZGKL 222200Z 21001MPS 8000 FEW036 SCT046 24/24 Q1010 NOSIG
ZGKL,2025-08-22 23:00,ZGKL 222300Z 00000MPS 8000 FEW036 25/24 Q1010 NOSIG
ZGKL,2025-08-23 00:00,ZGKL 230000Z VRB01MPS 5000 BR FEW030 26/25 Q1011 NOSIG
ZGKL,2025-08-23 01:00,ZGKL 230100Z VRB01MPS 5000 BR FEW033 28/25 Q1011 NOSIG
ZGKL,2025-08-23 02:00,ZGKL 230200Z VRB01MPS 6000 FEW020 30/25 Q1011 NOSIG
ZGKL,2025-08-23 03:00,ZGKL 230300Z 16002MPS 100V230 9999 FEW026 31/25 Q1011 NOSIG
ZGKL,2025-08-23 04:00,ZGKL 230400Z 17004MPS 120V220 9999 FEW030TCU FEW030 33/25 Q1011 BECMG FM0500 FEW030CB SCT040
ZGKL,2025-08-23 05:00,ZGKL 230500Z VRB01MPS 9999 FEW033TCU SCT033 34/25 Q1010 BECMG TL0620 FEW030CB SCT050
ZGKL,2025-08-23 06:00,ZGKL 230600Z 18003MPS 140V220 9999 FEW033CB FEW033 34/25 Q1009 BECMG FM0700 FEW030 SCT050
ZGKL,2025-08-23 07:00,ZGKL 230700Z 21003MPS 170V270 9999 FEW033 35/24 Q1008 NOSIG
ZGKL,2025-08-23 08:00,ZGKL 230800Z VRB02MPS 9999 FEW033 35/25 Q1007 NOSIG
ZGKL,2025-08-23 09:00,ZGKL 230900Z 16002MPS 100V220 9999 FEW033TCU FEW033 34/23 Q1007 NOSIG
ZGKL,2025-08-23 10:00,ZGKL 231000Z 16002MPS 110V190 9999 FEW033 34/24 Q1006 NOSIG
ZGKL,2025-08-23 11:00,ZGKL 231100Z 17002MPS 120V190 9999 FEW033 32/25 Q1007 NOSIG
ZGKL,2025-08-23 12:00,ZGKL 231200Z 27002MPS CAVOK 29/25 Q1008 NOSIG
ZGKL,2025-08-23 13:00,ZGKL 231300Z VRB01MPS 9999 FEW066 28/25 Q1009 NOSIG
ZGKL,2025-08-23 14:00,ZGKL 231400Z 32002MPS 9999 FEW066 28/25 Q1010 NOSIG
ZGKL,2025-08-23 15:00,ZGKL 231500Z VRB01MPS 9999 FEW060 27/25 Q1010 NOSIG
ZGKL,2025-08-23 16:00,ZGKL 231600Z VRB01MPS 9999 FEW060 27/25 Q1010 NOSIG
ZGKL,2025-08-23 17:00,ZGKL 231700Z 27002MPS 250V310 9999 FEW060 26/25 Q1010 NOSIG
ZGKL,2025-08-23 18:00,ZGKL 231800Z VRB01MPS CAVOK 26/24 Q1010 NOSIG
ZGKL,2025-08-23 19:00,ZGKL 231900Z VRB01MPS CAVOK 25/24 Q1010 NOSIG
ZGKL,2025-08-23 20:00,ZGKL 232000Z VRB01MPS 9999 FEW033CB FEW066 25/24 Q1010 NOSIG
ZGKL,2025-08-23 21:00,ZGKL 232100Z VRB01MPS CAVOK 25/24 Q1010 NOSIG
ZGKL,2025-08-23 22:00,ZGKL 232200Z VRB01MPS CAVOK 25/24 Q1010 NOSIG
ZGKL,2025-08-23 23:00,ZGKL 232300Z 36002MPS CAVOK 26/25 Q1010 NOSIG
ZGKL,2025-08-24 00:00,ZGKL 240000Z VRB01MPS CAVOK 27/25 Q1011 NOSIG
ZGKL,2025-08-24 01:00,ZGKL 240100Z VRB01MPS 6000 NSC 30/25 Q1011 NOSIG
ZGKL,2025-08-24 02:00,ZGKL 240200Z 03002MPS 340V070 8000 NSC 32/25 Q1011 NOSIG
ZGKL,2025-08-24 03:00,ZGKL 240300Z 15002MPS 100V230 9999 FEW026 32/25 Q1011 NOSIG
ZGKL,2025-08-24 04:00,ZGKL 240400Z VRB02MPS 9999 SCT026 33/24 Q1011 NOSIG
ZGKL,2025-08-24 05:00,ZGKL 240500Z 15003MPS 090V190 9999 SCT026 34/24 Q1010 BECMG FM0630 FEW030CB SCT050
ZGKL,2025-08-24 06:00,ZGKL 240600Z 14004MPS 100V190 9999 SCT030 35/22 Q1010 BECMG FM0700 FEW030CB SCT050
ZGKL,2025-08-24 07:00,ZGKL 240700Z 13004MPS 090V180 9999 FEW030CB SCT030 35/23 Q1009 NOSIG
ZGKL,2025-08-24 08:00,ZGKL 240800Z 14002MPS 9999 FEW030CB FEW030 33/23 Q1008 NOSIG
ZGKL,2025-08-24 09:00,ZGKL 240900Z VRB01MPS 9999 FEW030CB FEW030 32/25 Q1008 BECMG FM1050 SCT030
ZGKL,2025-08-24 10:00,ZGKL 241000Z 01003MPS 9999 FEW030CB FEW030 32/25 Q1007 BECMG FM1100 SCT030
ZGKL,2025-08-24 11:00,ZGKL 241100Z 03004MPS 9999 FEW030TCU 29/25 Q1008 NOSIG
ZGKL,2025-08-24 12:00,ZGKL 241200Z VRB01MPS 9999 FEW030TCU FEW050 27/24 Q1009 NOSIG
ZGKL,2025-08-24 13:00,ZGKL 241300Z 31002MPS 9999 FEW030CB SCT066 27/24 Q1010 BECMG TL1430 BKN030
ZGKL,2025-08-24 14:00,ZGKL 241400Z VRB01MPS 9999 FEW030CB 26/24 Q1011 BECMG TL1500 SCT033
ZGKL,2025-08-24 15:00,ZGKL 241500Z 33002MPS 290V360 CAVOK 26/23 Q1012 NOSIG
ZGKL,2025-08-24 16:00,ZGKL 241600Z VRB01MPS CAVOK 26/23 Q1012 NOSIG
ZGKL,2025-08-24 17:00,ZGKL 241700Z 36002MPS CAVOK 25/23 Q1011 NOSIG
ZGKL,2025-08-24 18:00,ZGKL 241800Z 34002MPS 280V360 CAVOK 24/23 Q1011 NOSIG
ZGKL,2025-08-24 19:00,ZGKL 241900Z VRB01MPS CAVOK 24/23 Q1010 NOSIG
ZGKL,2025-08-24 20:00,ZGKL 242000Z VRB01MPS CAVOK 24/23 Q1010 NOSIG
ZGKL,2025-08-24 21:00,ZGKL 242100Z 34002MPS 280V010 CAVOK 23/22 Q1010 NOSIG
ZGKL,2025-08-24 22:00,ZGKL 242200Z VRB01MPS CAVOK 23/22 Q1010 NOSIG
ZGKL,2025-08-24 23:00,ZGKL 242300Z VRB01MPS CAVOK 23/22 Q1011 NOSIG
ZGKL,2025-08-25 00:00,ZGKL 250000Z VRB01MPS CAVOK 25/23 Q1012 NOSIG
ZGKL,2025-08-25 01:00,ZGKL 250100Z 02002MPS 330V060 CAVOK 28/23 Q1012 NOSIG
ZGKL,2025-08-25 02:00,ZGKL 250200Z VRB01MPS CAVOK 31/22 Q1012 NOSIG
ZGKL,2025-08-25 03:00,ZGKL 250300Z VRB01MPS CAVOK 32/22 Q1012 NOSIG
ZGKL,2025-08-25 04:00,ZGKL 250400Z 11003MPS 060V160 9999 FEW026 33/23 Q1012 BECMG FM0500 18005MPS
ZGKL,2025-08-25 05:00,ZGKL 250500Z 12004MPS 050V160 9999 SCT026 33/22 Q1011 NOSIG
ZGKL,2025-08-25 06:00,ZGKL 250600Z 07003MPS 360V130 9999 SCT030 35/22 Q1011 NOSIG
ZGKL,2025-08-25 07:00,ZGKL 250700Z 13003MPS 350V160 9999 FEW033 34/22 Q1010 NOSIG
ZGKL,2025-08-25 08:00,ZGKL 250800Z VRB02MPS 9999 FEW026 35/21 Q1009 NOSIG
ZGKL,2025-08-25 09:00,ZGKL 250900Z 12002MPS 060V170 9999 FEW030 34/21 Q1008 NOSIG
ZGKL,2025-08-25 10:00,ZGKL 251000Z VRB01MPS CAVOK 34/21 Q1008 NOSIG
ZGKL,2025-08-25 11:00,ZGKL 251100Z VRB01MPS CAVOK 31/23 Q1008 NOSIG
ZGKL,2025-08-25 12:00,ZGKL 251200Z 26002MPS 230V290 CAVOK 28/24 Q1009 NOSIG
ZGKL,2025-08-25 13:00,ZGKL 251300Z VRB01MPS CAVOK 27/23 Q1010 NOSIG
ZGKL,2025-08-25 14:00,ZGKL 251400Z 34002MPS 310V010 CAVOK 27/23 Q1011 NOSIG
ZGKL,2025-08-25 15:00,ZGKL 251500Z VRB01MPS CAVOK 26/23 Q1011 NOSIG
ZGKL,2025-08-25 16:00,ZGKL 251600Z VRB01MPS CAVOK 26/23 Q1011 NOSIG
ZGKL,2025-08-25 17:00,ZGKL 251700Z 29001MPS CAVOK 25/23 Q1011 NOSIG
ZGKL,2025-08-25 18:00,ZGKL 251800Z VRB01MPS CAVOK 25/23 Q1011 NOSIG
ZGKL,2025-08-25 19:00,ZGKL 251900Z VRB01MPS CAVOK 24/23 Q1011 NOSIG
ZGKL,2025-08-25 20:00,ZGKL 252000Z VRB01MPS CAVOK 24/23 Q1011 NOSIG
ZGKL,2025-08-25 21:00,ZGKL 252100Z VRB01MPS CAVOK 24/22 Q1011 NOSIG
ZGKL,2025-08-25 22:00,ZGKL 252200Z VRB01MPS CAVOK 23/22 Q1011 NOSIG
ZGKL,2025-08-25 23:00,ZGKL 252300Z VRB01MPS CAVOK 24/23 Q1011 NOSIG
ZGKL,2025-08-26 00:00,ZGKL 260000Z VRB01MPS CAVOK 26/23 Q1012 NOSIG
ZGKL,2025-08-26 01:00,ZGKL 260100Z VRB01MPS CAVOK 30/24 Q1012 NOSIG
ZGKL,2025-08-26 02:00,ZGKL 260200Z VRB02MPS CAVOK 30/22 Q1012 NOSIG
ZGKL,2025-08-26 03:00,ZGKL 260300Z VRB02MPS 9999 FEW033 33/22 Q1012 NOSIG
ZGKL,2025-08-26 04:00,ZGKL 260400Z 13002MPS 100V190 9999 FEW033 32/23 Q1012 NOSIG
ZGKL,2025-08-26 05:00,ZGKL 260500Z 11002MPS 040V150 9999 FEW040 32/23 Q1012 NOSIG
ZGKL,2025-08-26 06:00,ZGKL 260600Z VRB02MPS 9999 FEW040 34/24 Q1011 NOSIG
ZGKL,2025-08-26 07:00,ZGKL 260700Z 19002MPS 110V280 9999 FEW040 SCT050 34/23 Q1010 NOSIG
ZGKL,2025-08-26 08:00,ZGKL 260800Z 18002MPS 140V220 9999 FEW040 34/23 Q1009 NOSIG
ZGKL,2025-08-26 09:00,ZGKL 260900Z 19002MPS 090V240 9999 FEW043 34/23 Q1008 NOSIG
ZGKL,2025-08-26 10:00,ZGKL 261000Z 18004MPS 9999 FEW043 32/24 Q1008 NOSIG
ZGKL,2025-08-26 11:00,ZGKL 261100Z 19002MPS CAVOK 29/25 Q1009 NOSIG
ZGKL,2025-08-26 12:00,ZGKL 261200Z 23002MPS CAVOK 29/24 Q1009 NOSIG
ZGKL,2025-08-26 13:00,ZGKL 261300Z 19001MPS CAVOK 27/24 Q1010 NOSIG
ZGKL,2025-08-26 14:00,ZGKL 261400Z VRB01MPS CAVOK 27/24 Q1010 NOSIG
ZGKL,2025-08-26 15:00,ZGKL 261500Z 33002MPS CAVOK 26/24 Q1010 NOSIG
ZGKL,2025-08-26 16:00,ZGKL 261600Z 00000MPS CAVOK 26/24 Q1009 NOSIG
ZGKL,2025-08-26 17:00,ZGKL 261700Z VRB01MPS CAVOK 25/24 Q1009 NOSIG
ZGKL,2025-08-26 18:00,ZGKL 261800Z VRB01MPS CAVOK 25/23 Q1009 NOSIG
ZGKL,2025-08-26 19:00,ZGKL 261900Z VRB01MPS CAVOK 24/23 Q1009 NOSIG
ZGKL,2025-08-26 20:00,ZGKL 262000Z 29001MPS CAVOK 24/23 Q1009 NOSIG
ZGKL,2025-08-26 21:00,ZGKL 262100Z 00000MPS CAVOK 24/23 Q1009 NOSIG
ZGKL,2025-08-26 22:00,ZGKL 262200Z VRB01MPS CAVOK 24/23 Q1009 NOSIG
ZGKL,2025-08-26 23:00,ZGKL 262300Z VRB01MPS CAVOK 24/23 Q1010 NOSIG
ZGKL,2025-08-27 00:00,ZGKL 270000Z VRB01MPS CAVOK 26/23 Q1010 NOSIG
ZGKL,2025-08-27 01:00,ZGKL 270100Z VRB01MPS CAVOK 28/24 Q1010 NOSIG
ZGKL,2025-08-27 02:00,ZGKL 270200Z VRB01MPS CAVOK 30/24 Q1010 NOSIG
ZGKL,2025-08-27 03:00,ZGKL 270300Z VRB01MPS CAVOK 32/24 Q1010 NOSIG
ZGKL,2025-08-27 04:00,ZGKL 270400Z VRB02MPS 9999 FEW030 33/24 Q1010 NOSIG
ZGKL,2025-08-27 05:00,ZGKL 270500Z 16003MPS 110V200 9999 FEW030 34/22 Q1009 NOSIG
ZGKL,2025-08-27 06:00,ZGKL 270600Z VRB02MPS 9999 FEW030TCU FEW030 35/22 Q1008 BECMG FM0700 FEW030CB
ZGKL,2025-08-27 07:00,ZGKL 270700Z 19003MPS 150V240 9999 FEW033CB FEW033 35/22 Q1007 NOSIG
ZGKL,2025-08-27 08:00,ZGKL 270800Z 17003MPS 120V210 9999 FEW033CB FEW033 35/21 Q1006 BECMG TL0900 SCT033
ZGKL,2025-08-27 09:00,ZGKL 270900Z 16003MPS 110V260 9999 FEW033 35/22 Q1006 NOSIG
ZGKL,2025-08-27 10:00,ZGKL 271000Z 16003MPS 9999 FEW026 34/22 Q1006 NOSIG
ZGKL,2025-08-27 11:00,ZGKL 271100Z 15002MPS CAVOK 32/23 Q1007 NOSIG
ZGKL,2025-08-27 12:00,ZGKL 271200Z 23001MPS CAVOK 30/23 Q1007 NOSIG
ZGKL,2025-08-27 13:00,ZGKL 271300Z VRB01MPS CAVOK 28/24 Q1008 NOSIG
ZGKL,2025-08-27 14:00,ZGKL 271400Z VRB01MPS 9999 FEW066 27/24 Q1009 NOSIG
ZGKL,2025-08-27 15:00,ZGKL 271500Z VRB01MPS 9999 FEW066 27/24 Q1009 NOSIG
ZGKL,2025-08-27 16:00,ZGKL 271600Z 17003MPS 120V210 9999 FEW030CB FEW050 26/24 Q1009 NOSIG
ZGKL,2025-08-27 17:00,ZGKL 271700Z VRB01MPS 9999 FEW053 26/24 Q1009 NOSIG
ZGKL,2025-08-27 18:00,ZGKL 271800Z VRB01MPS CAVOK 26/24 Q1008 NOSIG
ZGKL,2025-08-27 19:00,ZGKL 271900Z VRB01MPS CAVOK 25/24 Q1008 NOSIG
ZGKL,2025-08-27 20:00,ZGKL 272000Z VRB01MPS CAVOK 24/23 Q1008 NOSIG
ZGKL,2025-08-27 21:00,ZGKL 272100Z VRB01MPS CAVOK 24/23 Q1009 NOSIG
ZGKL,2025-08-27 22:00,ZGKL 272200Z 35001MPS CAVOK 24/23 Q1009 NOSIG
ZGKL,2025-08-27 23:00,ZGKL 272300Z VRB01MPS 9999 FEW043 SCT060 25/24 Q1010 NOSIG
ZGKL,2025-08-28 00:00,ZGKL 280000Z VRB01MPS 9999 FEW046 SCT066 25/23 Q1010 NOSIG
ZGKL,2025-08-28 01:00,ZGKL 280100Z VRB01MPS 9999 FEW050 28/23 Q1010 NOSIG
ZGKL,2025-08-28 02:00,ZGKL 280200Z VRB01MPS 9999 FEW043 30/23 Q1011 NOSIG
ZGKL,2025-08-28 03:00,ZGKL 280300Z VRB01MPS 9999 FEW043 31/23 Q1010 NOSIG
ZGKL,2025-08-28 04:00,ZGKL 280400Z VRB02MPS 9999 FEW026 32/23 Q1010 NOSIG
ZGKL,2025-08-28 05:00,ZGKL 280500Z VRB02MPS 9999 FEW026 34/23 Q1009 NOSIG
ZGKL,2025-08-28 06:00,ZGKL 280600Z VRB02MPS 9999 FEW026 34/22 Q1008 NOSIG
ZGKL,2025-08-28 07:00,ZGKL 280700Z VRB02MPS 9999 FEW026 34/21 Q1007 NOSIG
ZGKL,2025-08-28 08:00,ZGKL 280800Z 12002MPS 070V170 9999 FEW026 34/22 Q1007 NOSIG
ZGKL,2025-08-28 09:00,ZGKL 280900Z 13002MPS 090V170 9999 FEW026 34/22 Q1007 NOSIG
ZGKL,2025-08-28 10:00,ZGKL 281000Z VRB01MPS CAVOK 33/22 Q1006 NOSIG
ZGKL,2025-08-28 11:00,ZGKL 281100Z 26002MPS 9999 FEW050 30/24 Q1007 NOSIG
ZGKL,2025-08-28 12:00,ZGKL 281200Z VRB01MPS CAVOK 29/23 Q1008 NOSIG
ZGKL,2025-08-28 13:00,ZGKL 281300Z 34001MPS CAVOK 28/24 Q1009 NOSIG
ZGKL,2025-08-28 14:00,ZGKL 281400Z VRB01MPS CAVOK 27/24 Q1010 NOSIG
ZGKL,2025-08-28 15:00,ZGKL 281500Z VRB01MPS CAVOK 26/23 Q1010 NOSIG
ZGKL,2025-08-28 16:00,ZGKL 281600Z VRB01MPS 9999 FEW060 26/23 Q1010 NOSIG
ZGKL,2025-08-28 17:00,ZGKL 281700Z VRB01MPS 9999 FEW066 26/23 Q1010 NOSIG
ZGKL,2025-08-28 18:00,ZGKL 281800Z 36002MPS 9999 FEW066 26/23 Q1010 NOSIG
ZGKL,2025-08-28 19:00,ZGKL 281900Z VRB01MPS 9999 FEW066 26/23 Q1010 NOSIG
ZGKL,2025-08-28 20:00,ZGKL 282000Z VRB01MPS 9999 FEW066 25/23 Q1010 NOSIG
ZGKL,2025-08-28 21:00,ZGKL 282100Z 00000MPS 9999 FEW066 25/23 Q1010 NOSIG
ZGKL,2025-08-28 22:00,ZGKL 282200Z VRB01MPS 9999 FEW066 25/23 Q1011 NOSIG
ZGKL,2025-08-28 23:00,ZGKL 282300Z VRB01MPS 9999 SCT043 26/24 Q1011 NOSIG
ZGKL,2025-08-29 00:00,ZGKL 290000Z VRB01MPS 9999 FEW046 29/24 Q1012 NOSIG
ZGKL,2025-08-29 01:00,ZGKL 290100Z VRB01MPS CAVOK 30/24 Q1012 NOSIG
ZGKL,2025-08-29 02:00,ZGKL 290200Z 04002MPS 340V100 CAVOK 31/24 Q1012 NOSIG
ZGKL,2025-08-29 03:00,ZGKL 290300Z VRB01MPS CAVOK 33/24 Q1012 NOSIG
ZGKL,2025-08-29 04:00,ZGKL 290400Z VRB02MPS 9999 FEW033 SCT043 35/23 Q1011 NOSIG
ZGKL,2025-08-29 05:00,ZGKL 290500Z VRB01MPS 9999 FEW033 34/22 Q1011 NOSIG
ZGKL,2025-08-29 06:00,ZGKL 290600Z VRB01MPS 9999 FEW033 36/22 Q1010 NOSIG
ZGKL,2025-08-29 07:00,ZGKL 290700Z 36003MPS 320V030 9999 FEW033 36/22 Q1009 NOSIG
ZGKL,2025-08-29 08:00,ZGKL 290800Z VRB01MPS 9999 FEW033 36/22 Q1008 NOSIG
ZGKL,2025-08-29 09:00,ZGKL 290900Z VRB01MPS 9999 FEW060 35/23 Q1008 NOSIG
ZGKL,2025-08-29 10:00,ZGKL 291000Z 19002MPS CAVOK 34/24 Q1008 NOSIG
ZGKL,2025-08-29 11:00,ZGKL 291100Z 25002MPS 9999 FEW033TCU 31/25 Q1009 BECMG FM1230 FEW030CB
ZGKL,2025-08-29 12:00,ZGKL 291200Z VRB01MPS 9999 FEW033TCU 30/25 Q1010 BECMG FM1330 SHRA FEW030CB
ZGKL,2025-08-29 13:00,ZGKL 291300Z VRB01MPS 9999 -TSRA FEW033CB FEW033 BKN060 29/26 Q1010 RESHRA BECMG FM1420 TSRA
ZGKL,2025-08-29 14:00,ZGKL 291400Z 10008MPS 080V140 3000 +TSRA FEW033CB SCT033 BKN060 25/22 Q1012 BECMG TL1530 -TSRA
ZGKL,2025-08-29 15:00,ZGKL 291500Z VRB01MPS 9999 -SHRA FEW033CB SCT043 BKN060 24/23 Q1013 RETSRA BECMG FM1530 09008G14MPS 2500 +TSRA
ZGKL,2025-08-29 16:00,ZGKL 291600Z 06006MPS 020V120 8000 -TSRA FEW010 FEW033CB SCT043 BKN060 24/23 Q1013 RESHRA BECMG TL1640 NSW
ZGKL,2025-08-29 17:00,ZGKL 291700Z 35002MPS 270V050 9999 TS FEW033CB SCT046 BKN066 24/23 Q1013 BECMG FM1800 SHRA
ZGKL,2025-08-29 18:00,ZGKL 291800Z 07002MPS 010V130 9999 -SHRA FEW033CB SCT040 BKN056 24/23 Q1014 RETS BECMG FM1900 FEW030 BKN050
ZGKL,2025-08-29 19:00,ZGKL 291900Z 34002MPS 310V010 9999 -RA SCT046 BKN066 24/23 Q1012 NOSIG
ZGKL,2025-08-29 20:00,ZGKL 292000Z 26002MPS 200V310 9999 -RA FEW010 SCT046 BKN066 24/23 Q1012 NOSIG
ZGKL,2025-08-29 21:00,ZGKL 292100Z 36002MPS 9999 SCT046 BKN066 24/23 Q1012 NOSIG
ZGKL,2025-08-29 22:00,ZGKL 292200Z VRB01MPS CAVOK 24/23 Q1012 NOSIG
ZGKL,2025-08-29 23:00,ZGKL 292300Z 19001MPS CAVOK 24/23 Q1013 NOSIG
ZGKL,2025-08-30 00:00,ZGKL 300000Z VRB01MPS CAVOK 25/23 Q1013 NOSIG
ZGKL,2025-08-30 01:00,ZGKL 300100Z VRB01MPS 9999 SCT033 BKN066 26/24 Q1013 NOSIG
ZGKL,2025-08-30 02:00,ZGKL 300200Z VRB01MPS 9999 FEW066 29/23 Q1013 NOSIG
ZGKL,2025-08-30 03:00,ZGKL 300300Z VRB01MPS 9999 FEW053 30/23 Q1013 NOSIG
ZGKL,2025-08-30 04:00,ZGKL 300400Z VRB01MPS 9999 FEW023 31/23 Q1012 NOSIG
ZGKL,2025-08-30 05:00,ZGKL 300500Z VRB03MPS 9999 FEW026 32/23 Q1012 NOSIG
ZGKL,2025-08-30 06:00,ZGKL 300600Z VRB02MPS 9999 FEW026 33/23 Q1011 NOSIG
ZGKL,2025-08-30 07:00,ZGKL 300700Z 24002MPS 190V320 9999 FEW030 34/23 Q1010 BECMG FM0830 FEW030CB FEW030
ZGKL,2025-08-30 08:00,ZGKL 300800Z 12002MPS 050V200 9999 FEW030 34/23 Q1009 BECMG TL0900 FEW030CB FEW030
ZGKL,2025-08-30 09:00,ZGKL 300900Z VRB01MPS 9999 FEW033CB FEW033 34/23 Q1009 BECMG FM1030 FEW030
ZGKL,2025-08-30 10:00,ZGKL 301000Z 12002MPS 9999 FEW033CB FEW033 33/23 Q1009 BECMG TL1100 FEW030
ZGKL,2025-08-30 11:00,ZGKL 301100Z VRB01MPS CAVOK 32/23 Q1009 NOSIG
ZGKL,2025-08-30 12:00,ZGKL 301200Z 30002MPS 270V330 CAVOK 29/24 Q1010 NOSIG
ZGKL,2025-08-30 13:00,ZGKL 301300Z 35002MPS 320V020 CAVOK 28/24 Q1010 NOSIG
ZGKL,2025-08-30 14:00,ZGKL 301400Z VRB01MPS CAVOK 27/24 Q1011 NOSIG
ZGKL,2025-08-30 15:00,ZGKL 301500Z VRB01MPS 9999 FEW066 27/23 Q1011 NOSIG
ZGKL,2025-08-30 16:00,ZGKL 301600Z VRB01MPS CAVOK 26/24 Q1011 NOSIG
ZGKL,2025-08-30 17:00,ZGKL 301700Z VRB01MPS CAVOK 25/24 Q1010 NOSIG
ZGKL,2025-08-30 18:00,ZGKL 301800Z 17001MPS CAVOK 25/24 Q1010 NOSIG
ZGKL,2025-08-30 19:00,ZGKL 301900Z 26001MPS 9999 FEW066 25/24 Q1010 NOSIG
ZGKL,2025-08-30 20:00,ZGKL 302000Z VRB01MPS 9999 FEW070 25/24 Q1010 NOSIG
ZGKL,2025-08-30 21:00,ZGKL 302100Z 35001MPS CAVOK 24/24 Q1011 NOSIG
ZGKL,2025-08-30 22:00,ZGKL 302200Z 29001MPS 9999 FEW060 24/24 Q1011 NOSIG
ZGKL,2025-08-30 23:00,ZGKL 302300Z VRB01MPS CAVOK 24/23 Q1011 NOSIG
ZGKL,2025-08-31 00:00,ZGKL 310000Z VRB01MPS 9999 FEW046 25/24 Q1011 NOSIG
ZGKL,2025-08-31 01:00,ZGKL 310100Z VRB01MPS 9999 FEW046 29/24 Q1012 NOSIG
ZGKL,2025-08-31 02:00,ZGKL 310200Z VRB01MPS 9999 FEW030 30/24 Q1012 NOSIG
ZGKL,2025-08-31 03:00,ZGKL 310300Z VRB01MPS 9999 FEW030 31/24 Q1012 NOSIG
ZGKL,2025-08-31 04:00,ZGKL 310400Z VRB02MPS 9999 SCT030 33/23 Q1011 NOSIG
ZGKL,2025-08-31 05:00,ZGKL 310500Z 19002MPS 080V250 9999 FEW030 33/24 Q1010 NOSIG
ZGKL,2025-08-31 06:00,ZGKL 310600Z 16003MPS 110V230 9999 FEW030 34/24 Q1009 BECMG FM0700 FEW033CB
ZGKL,2025-08-31 07:00,ZGKL 310700Z 19003MPS 090V220 9999 FEW030 34/24 Q1007 BECMG FM0800 FEW033CB
ZGKL,2025-08-31 08:00,ZGKL 310800Z VRB01MPS 9999 FEW026CB FEW026 35/23 Q1007 NOSIG
ZGKL,2025-08-31 09:00,ZGKL 310900Z 16002MPS 120V240 9999 FEW026 34/23 Q1006 NOSIG
ZGKL,2025-08-31 10:00,ZGKL 311000Z 15002MPS 9999 FEW026 34/23 Q1006 NOSIG
ZGKL,2025-08-31 11:00,ZGKL 311100Z 12001MPS 9999 FEW026TCU FEW026 32/24 Q1007 NOSIG
ZGKL,2025-08-31 12:00,ZGKL 311200Z 28002MPS 9999 FEW030 30/25 Q1008 NOSIG
ZGKL,2025-08-31 13:00,ZGKL 311300Z VRB01MPS 9999 FEW030 28/25 Q1008 NOSIG
ZGKL,2025-08-31 14:00,ZGKL 311400Z VRB01MPS 9999 FEW030 28/25 Q1009 NOSIG
ZGKL,2025-08-31 15:00,ZGKL 311500Z VRB01MPS 9999 SCT043 28/25 Q1009 NOSIG
ZGKL,2025-08-31 16:00,ZGKL 311600Z VRB01MPS 9999 SCT043 27/25 Q1009 NOSIG
ZGKL,2025-08-31 17:00,ZGKL 311700Z VRB01MPS CAVOK 27/24 Q1008 NOSIG
ZGKL,2025-08-31 18:00,ZGKL 311800Z VRB01MPS CAVOK 26/24 Q1008 NOSIG
ZGKL,2025-08-31 19:00,ZGKL 311900Z 26001MPS CAVOK 26/24 Q1008 NOSIG
ZGKL,2025-08-31 20:00,ZGKL 312000Z 02001MPS CAVOK 25/24 Q1008 NOSIG
ZGKL,2025-08-31 21:00,ZGKL 312100Z VRB01MPS CAVOK 25/24 Q1008 NOSIG
ZGKL,2025-08-31 22:00,ZGKL 312200Z 36002MPS 9999 FEW053 25/24 Q1008 NOSIG
ZGKL,2025-08-31 23:00,ZGKL 312300Z VRB01MPS 9999 SCT040 25/24 Q1009 NOSIG
ZGKL,2025-09-01 00:00,ZGKL 010000Z VRB01MPS 9999 FEW030 SCT050 26/24 Q1010 NOSIG
ZGKL,2025-09-01 01:00,ZGKL 010100Z VRB01MPS 9999 FEW040 29/24 Q1010 NOSIG
ZGKL,2025-09-01 02:00,ZGKL 010200Z VRB02MPS 9999 FEW040 30/24 Q1010 NOSIG
ZGKL,2025-09-01 03:00,ZGKL 010300Z 16002MPS 100V210 9999 FEW033 32/24 Q1010 NOSIG
ZGKL,2025-09-01 04:00,ZGKL 010400Z 17003MPS 100V220 9999 FEW033 33/24 Q1009 NOSIG
ZGKL,2025-09-01 05:00,ZGKL 010500Z VRB02MPS 9999 FEW033TCU FEW033 34/24 Q1008 BECMG FM0630 FEW030CB
ZGKL,2025-09-01 06:00,ZGKL 010600Z 17004MPS 130V200 9999 FEW033TCU FEW033 34/24 Q1007 BECMG FM0700 FEW030CB
ZGKL,2025-09-01 07:00,ZGKL 010700Z VRB02MPS 9999 FEW033CB FEW033 35/25 Q1006 BECMG TL0830 SCT033
ZGKL,2025-09-01 08:00,ZGKL 010800Z 19003MPS 150V220 CAVOK 35/23 Q1005 NOSIG
ZGKL,2025-09-01 09:00,ZGKL 010900Z VRB01MPS CAVOK 35/23 Q1005 NOSIG
ZGKL,2025-09-01 10:00,ZGKL 011000Z 16003MPS CAVOK 34/23 Q1004 NOSIG
ZGKL,2025-09-01 11:00,ZGKL 011100Z 14002MPS CAVOK 32/23 Q1005 NOSIG
ZGKL,2025-09-01 12:00,ZGKL 011200Z VRB01MPS CAVOK 30/25 Q1006 NOSIG
ZGKL,2025-09-01 13:00,ZGKL 011300Z VRB01MPS CAVOK 28/25 Q1006 NOSIG
ZGKL,2025-09-01 14:00,ZGKL 011400Z 33002MPS 280V350 CAVOK 28/25 Q1007 NOSIG
ZGKL,2025-09-01 15:00,ZGKL 011500Z VRB01MPS CAVOK 27/25 Q1007 NOSIG
ZGKL,2025-09-01 16:00,ZGKL 011600Z VRB01MPS CAVOK 26/25 Q1007 NOSIG
ZGKL,2025-09-01 17:00,ZGKL 011700Z VRB01MPS CAVOK 26/24 Q1007 NOSIG
ZGKL,2025-09-01 18:00,ZGKL 011800Z 22001MPS CAVOK 26/25 Q1007 NOSIG
ZGKL,2025-09-01 19:00,ZGKL 011900Z VRB01MPS 9999 FEW053 26/24 Q1008 NOSIG
ZGKL,2025-09-01 20:00,ZGKL 012000Z VRB01MPS 9999 FEW060 25/24 Q1007 NOSIG
ZGKL,2025-09-01 21:00,ZGKL 012100Z VRB01MPS 9999 BKN060 25/24 Q1008 NOSIG
ZGKL,2025-09-01 22:00,ZGKL 012200Z 19001MPS 9999 SCT060 25/24 Q1008 NOSIG
ZGKL,2025-09-01 23:00,ZGKL 012300Z 19001MPS 9999 SCT060 25/24 Q1009 NOSIG
ZGKL,2025-09-02 00:00,ZGKL 020000Z 00000MPS 9999 SCT060 27/25 Q1009 NOSIG
ZGKL,2025-09-02 01:00,ZGKL 020100Z 18002MPS 130V220 CAVOK 29/24 Q1009 NOSIG
ZGKL,2025-09-02 02:00,ZGKL 020200Z 17004MPS 140V200 9999 FEW030 31/25 Q1010 NOSIG
ZGKL,2025-09-02 03:00,ZGKL 020300Z 18004MPS 9999 FEW026 SCT066 32/25 Q1009 NOSIG
ZGKL,2025-09-02 04:00,ZGKL 020400Z 19003MPS 130V220 9999 FEW030 33/26 Q1009 NOSIG
ZGKL,2025-09-02 05:00,ZGKL 020500Z 16005MPS 130V200 9999 FEW030 34/25 Q1008 NOSIG
ZGKL,2025-09-02 06:00,ZGKL 020600Z 17004MPS 130V210 9999 FEW030 34/25 Q1007 NOSIG
ZGKL,2025-09-02 07:00,ZGKL 020700Z 19004MPS 170V230 9999 FEW033 34/24 Q1006 NOSIG
ZGKL,2025-09-02 08:00,ZGKL 020800Z 20003MPS 170V240 9999 FEW030 33/24 Q1006 NOSIG
ZGKL,2025-09-02 09:00,ZGKL 020900Z 18003MPS 9999 FEW026 34/24 Q1005 NOSIG
ZGKL,2025-09-02 10:00,ZGKL 021000Z 17003MPS 140V200 9999 SCT060 33/24 Q1006 NOSIG
ZGKL,2025-09-02 11:00,ZGKL 021100Z 18002MPS 140V200 9999 FEW026TCU FEW060 31/25 Q1006 NOSIG
ZGKL,2025-09-02 12:00,ZGKL 021200Z VRB01MPS 9999 FEW060 30/25 Q1007 NOSIG
ZGKL,2025-09-02 13:00,ZGKL 021300Z 18003MPS 9999 FEW060 29/25 Q1008 NOSIG
ZGKL,2025-09-02 14:00,ZGKL 021400Z VRB01MPS CAVOK 28/25 Q1008 NOSIG
ZGKL,2025-09-02 15:00,ZGKL 021500Z VRB01MPS CAVOK 27/25 Q1008 NOSIG
ZGKL,2025-09-02 16:00,ZGKL 021600Z 30002MPS CAVOK 27/25 Q1008 NOSIG
ZGKL,2025-09-02 17:00,ZGKL 021700Z VRB01MPS CAVOK 27/25 Q1008 NOSIG
ZGKL,2025-09-02 18:00,ZGKL 021800Z 29001MPS CAVOK 26/24 Q1008 NOSIG
ZGKL,2025-09-02 19:00,ZGKL 021900Z VRB01MPS 9999 FEW043 26/25 Q1008 NOSIG
ZGKL,2025-09-02 20:00,ZGKL 022000Z VRB01MPS 9999 FEW040 26/25 Q1008 NOSIG
ZGKL,2025-09-02 21:00,ZGKL 022100Z 20001MPS 9999 FEW043 25/25 Q1008 NOSIG
ZGKL,2025-09-02 22:00,ZGKL 022200Z VRB01MPS 9999 FEW040 SCT060 26/25 Q1008 NOSIG
ZGKL,2025-09-02 23:00,ZGKL 022300Z 20001MPS 9999 FEW056 25/25 Q1009 NOSIG
ZGKL,2025-09-03 00:00,ZGKL 030000Z 19001MPS 9999 FEW043 SCT056 26/25 Q1009 NOSIG
ZGKL,2025-09-03 01:00,ZGKL 030100Z 18003MPS 160V220 9999 FEW040 30/26 Q1010 NOSIG
ZGKL,2025-09-03 02:00,ZGKL 030200Z 17003MPS 130V220 9999 FEW030 31/25 Q1010 NOSIG
ZGKL,2025-09-03 03:00,ZGKL 030300Z 19003MPS 130V250 9999 FEW030 32/25 Q1010 BECMG FM0430 FEW030CB FEW030
ZGKL,2025-09-03 04:00,ZGKL 030400Z 20004MPS 170V230 9999 FEW030CB SCT030 33/25 Q1009 BECMG TL0500 FEW030
ZGKL,2025-09-03 05:00,ZGKL 030500Z 19005MPS 150V220 9999 SCT030 34/25 Q1008 NOSIG
ZGKL,2025-09-03 06:00,ZGKL 030600Z 17006MPS 140V200 9999 SCT030 34/24 Q1007 NOSIG
ZGKL,2025-09-03 07:00,ZGKL 030700Z 17005MPS 9999 BKN030 35/24 Q1006 NOSIG
ZGKL,2025-09-03 08:00,ZGKL 030800Z 17005MPS 9999 SCT030 35/24 Q1006 NOSIG
ZGKL,2025-09-03 09:00,ZGKL 030900Z 17005MPS 9999 SCT030 34/23 Q1005 NOSIG
ZGKL,2025-09-03 10:00,ZGKL 031000Z 18003MPS 9999 FEW030 33/24 Q1005 NOSIG
ZGKL,2025-09-03 11:00,ZGKL 031100Z 17002MPS CAVOK 30/24 Q1006 NOSIG
ZGKL,2025-09-03 12:00,ZGKL 031200Z 18002MPS CAVOK 29/24 Q1006 NOSIG
ZGKL,2025-09-03 13:00,ZGKL 031300Z 27001MPS CAVOK 29/25 Q1007 NOSIG
ZGKL,2025-09-03 14:00,ZGKL 031400Z VRB01MPS CAVOK 27/25 Q1008 NOSIG
ZGKL,2025-09-03 15:00,ZGKL 031500Z 33002MPS 300V360 CAVOK 27/25 Q1008 NOSIG
ZGKL,2025-09-03 16:00,ZGKL 031600Z VRB01MPS CAVOK 26/25 Q1008 NOSIG
ZGKL,2025-09-03 17:00,ZGKL 031700Z 30001MPS CAVOK 26/25 Q1008 NOSIG
ZGKL,2025-09-03 18:00,ZGKL 031800Z VRB01MPS CAVOK 26/24 Q1008 NOSIG
ZGKL,2025-09-03 19:00,ZGKL 031900Z VRB01MPS CAVOK 25/24 Q1007 NOSIG
ZGKL,2025-09-03 20:00,ZGKL 032000Z 00000MPS 9999 FEW033 25/24 Q1008 NOSIG
ZGKL,2025-09-03 21:00,ZGKL 032100Z VRB01MPS CAVOK 25/24 Q1008 NOSIG
ZGKL,2025-09-03 22:00,ZGKL 032200Z 29001MPS CAVOK 25/24 Q1008 NOSIG
ZGKL,2025-09-03 23:00,ZGKL 032300Z 00000MPS 9999 SCT036 25/23 Q1009 NOSIG
ZGKL,2025-09-04 00:00,ZGKL 040000Z VRB01MPS 9999 FEW033 27/25 Q1009 NOSIG
ZGKL,2025-09-04 01:00,ZGKL 040100Z VRB01MPS 9999 FEW030 28/24 Q1010 NOSIG
ZGKL,2025-09-04 02:00,ZGKL 040200Z 17002MPS 120V230 9999 FEW040 30/24 Q1010 NOSIG
ZGKL,2025-09-04 03:00,ZGKL 040300Z 17003MPS 120V200 9999 FEW020 32/25 Q1009 NOSIG
ZGKL,2025-09-04 04:00,ZGKL 040400Z 18005MPS 9999 FEW023TCU FEW023 32/25 Q1009 BECMG FM0530 FEW030CB
ZGKL,2025-09-04 05:00,ZGKL 040500Z VRB02MPS 9999 SCT026 32/25 Q1008 BECMG FM0600 18005MPS FEW033CB
ZGKL,2025-09-04 06:00,ZGKL 040600Z VRB02MPS 9999 SCT026 FEW033CB 33/26 Q1007 BECMG FM0700 FEW033
ZGKL,2025-09-04 07:00,ZGKL 040700Z VRB02MPS 9999 SCT026 33/25 Q1006 NOSIG
ZGKL,2025-09-04 08:00,ZGKL 040800Z 19002MPS 140V260 9999 SCT026 34/25 Q1005 NOSIG
ZGKL,2025-09-04 09:00,ZGKL 040900Z 20002MPS 9999 FEW026 33/25 Q1005 NOSIG
ZGKL,2025-09-04 10:00,ZGKL 041000Z 19002MPS CAVOK 32/26 Q1005 NOSIG
ZGKL,2025-09-04 11:00,ZGKL 041100Z 17002MPS 9999 FEW030 30/25 Q1005 NOSIG
ZGKL,2025-09-04 12:00,ZGKL 041200Z VRB01MPS 9999 FEW030 30/26 Q1006 NOSIG
ZGKL,2025-09-04 13:00,ZGKL 041300Z 31002MPS 9999 FEW030 29/26 Q1006 NOSIG
ZGKL,2025-09-04 14:00,ZGKL 041400Z VRB01MPS 9999 FEW050 28/26 Q1007 NOSIG
ZGKL,2025-09-04 15:00,ZGKL 041500Z 27001MPS 9999 FEW050 27/26 Q1007 NOSIG
ZGKL,2025-09-04 16:00,ZGKL 041600Z VRB01MPS CAVOK 27/25 Q1007 NOSIG
ZGKL,2025-09-04 17:00,ZGKL 041700Z VRB01MPS CAVOK 26/25 Q1008 NOSIG
ZGKL,2025-09-04 18:00,ZGKL 041800Z VRB01MPS CAVOK 26/25 Q1008 NOSIG
ZGKL,2025-09-04 19:00,ZGKL 041900Z 30001MPS CAVOK 26/25 Q1007 NOSIG
ZGKL,2025-09-04 20:00,ZGKL 042000Z 29001MPS CAVOK 26/24 Q1007 NOSIG
ZGKL,2025-09-04 21:00,ZGKL 042100Z 30001MPS CAVOK 25/24 Q1008 NOSIG
ZGKL,2025-09-04 22:00,ZGKL 042200Z 27001MPS 9999 SCT046 26/25 Q1008 NOSIG
ZGKL,2025-09-04 23:00,ZGKL 042300Z 19001MPS 7000 FEW030 25/25 Q1009 NOSIG
ZGKL,2025-09-05 00:00,ZGKL 050000Z 00000MPS 9999 FEW050 28/25 Q1009 NOSIG
ZGKL,2025-09-05 01:00,ZGKL 050100Z VRB01MPS CAVOK 29/25 Q1010 NOSIG
ZGKL,2025-09-05 02:00,ZGKL 050200Z VRB03MPS 9999 FEW030TCU FEW030 31/26 Q1010 NOSIG
ZGKL,2025-09-05 03:00,ZGKL 050300Z 19004MPS 150V210 9999 FEW030TCU FEW030 33/26 Q1010 NOSIG
ZGKL,2025-09-05 04:00,ZGKL 050400Z 17006MPS 9999 FEW033TCU FEW033 32/25 Q1009 NOSIG
ZGKL,2025-09-05 05:00,ZGKL 050500Z 18005MPS 9999 FEW033CB FEW033 33/26 Q1008 BECMG TL0600 FEW030
ZGKL,2025-09-05 06:00,ZGKL 050600Z 18005MPS 140V210 9999 FEW033 34/26 Q1008 NOSIG
ZGKL,2025-09-05 07:00,ZGKL 050700Z 16003MPS 120V190 9999 FEW033 34/25 Q1006 NOSIG
ZGKL,2025-09-05 08:00,ZGKL 050800Z 17004MPS 140V200 9999 FEW033 34/26 Q1006 NOSIG
ZGKL,2025-09-05 09:00,ZGKL 050900Z 17003MPS 130V200 9999 FEW033 34/25 Q1005 NOSIG
ZGKL,2025-09-05 10:00,ZGKL 051000Z 17003MPS 9999 FEW033 33/26 Q1005 NOSIG
ZGKL,2025-09-05 11:00,ZGKL 051100Z 15003MPS CAVOK 32/26 Q1006 NOSIG
ZGKL,2025-09-05 12:00,ZGKL 051200Z 16002MPS 130V190 CAVOK 30/25 Q1007 NOSIG
ZGKL,2025-09-05 13:00,ZGKL 051300Z 00000MPS CAVOK 29/25 Q1008 NOSIG
ZGKL,2025-09-05 14:00,ZGKL 051400Z VRB01MPS CAVOK 28/26 Q1008 NOSIG
ZGKL,2025-09-05 15:00,ZGKL 051500Z VRB01MPS CAVOK 28/26 Q1009 NOSIG
ZGKL,2025-09-05 16:00,ZGKL 051600Z 00000MPS CAVOK 27/26 Q1009 NOSIG
ZGKL,2025-09-05 17:00,ZGKL 051700Z VRB01MPS CAVOK 27/26 Q1009 NOSIG
ZGKL,2025-09-05 18:00,ZGKL 051800Z VRB01MPS 8000 NSC 27/25 Q1008 NOSIG
ZGKL,2025-09-05 19:00,ZGKL 051900Z 31001MPS 7000 FEW040 26/25 Q1008 NOSIG
ZGKL,2025-09-05 20:00,ZGKL 052000Z VRB01MPS 7000 FEW036 26/25 Q1008 NOSIG
ZGKL,2025-09-05 21:00,ZGKL 052100Z VRB01MPS 7000 FEW036 SCT066 26/25 Q1009 NOSIG
ZGKL,2025-09-05 22:00,ZGKL 052200Z 29001MPS 7000 NSC 26/25 Q1009 NOSIG
ZGKL,2025-09-05 23:00,ZGKL 052300Z 00000MPS 9999 FEW050 26/25 Q1010 NOSIG
ZGKL,2025-09-06 00:00,ZGKL 060000Z VRB01MPS 9999 FEW060 27/25 Q1010 NOSIG
ZGKL,2025-09-06 01:00,ZGKL 060100Z 00000MPS CAVOK 29/26 Q1010 NOSIG
ZGKL,2025-09-06 02:00,ZGKL 060200Z 13002MPS 090V160 CAVOK 31/26 Q1011 NOSIG
ZGKL,2025-09-06 03:00,ZGKL 060300Z VRB02MPS 9999 FEW023 33/26 Q1010 NOSIG
ZGKL,2025-09-06 04:00,ZGKL 060400Z 18003MPS 130V230 9999 FEW030TCU FEW030 34/26 Q1010 BECMG FM0500 FEW030CB SCT040
ZGKL,2025-09-06 05:00,ZGKL 060500Z VRB02MPS 9999 FEW030CB FEW030 35/25 Q1009 NOSIG
ZGKL,2025-09-06 06:00,ZGKL 060600Z 16003MPS 100V210 9999 FEW030CB FEW030 35/25 Q1008 NOSIG
ZGKL,2025-09-06 07:00,ZGKL 060700Z 35003MPS 310V020 9999 FEW030CB FEW030 34/25 Q1007 NOSIG
ZGKL,2025-09-06 08:00,ZGKL 060800Z VRB01MPS 9999 TS FEW030CB FEW030 SCT040 34/25 Q1007 BECMG TL0830 NSW
ZGKL,2025-09-06 09:00,ZGKL 060900Z 26002MPS 230V340 9999 FEW030CB FEW043 30/24 Q1007 RETS BECMG TL1030 FEW030 SCT050
ZGKL,2025-09-06 10:00,ZGKL 061000Z VRB01MPS 9999 FEW033CB SCT043 29/24 Q1007 BECMG TL1100 FEW030 SCT050
ZGKL,2025-09-06 11:00,ZGKL 061100Z 14002MPS 9999 FEW060 28/24 Q1008 NOSIG
ZGKL,2025-09-06 12:00,ZGKL 061200Z VRB01MPS 9999 FEW046 28/25 Q1009 NOSIG
ZGKL,2025-09-06 13:00,ZGKL 061300Z 30001MPS CAVOK 28/25 Q1009 NOSIG
ZGKL,2025-09-06 14:00,ZGKL 061400Z 03003MPS 360V060 CAVOK 28/25 Q1010 NOSIG
ZGKL,2025-09-06 15:00,ZGKL 061500Z VRB01MPS CAVOK 27/25 Q1010 NOSIG
ZGKL,2025-09-06 16:00,ZGKL 061600Z VRB01MPS 9999 FEW046 27/25 Q1009 NOSIG
ZGKL,2025-09-06 17:00,ZGKL 061700Z 33001MPS 9999 FEW046 27/25 Q1009 NOSIG
ZGKL,2025-09-06 18:00,ZGKL 061800Z VRB01MPS 8000 FEW046 26/25 Q1009 NOSIG
ZGKL,2025-09-06 19:00,ZGKL 061900Z VRB01MPS 8000 NSC 26/25 Q1008 NOSIG
ZGKL,2025-09-06 20:00,ZGKL 062000Z 17001MPS 8000 NSC 25/24 Q1008 NOSIG
ZGKL,2025-09-06 21:00,ZGKL 062100Z VRB01MPS 8000 NSC 25/24 Q1008 NOSIG
ZGKL,2025-09-06 22:00,ZGKL 062200Z 31002MPS 270V350 7000 NSC 25/24 Q1009 NOSIG
ZGKL,2025-09-06 23:00,ZGKL 062300Z VRB01MPS 8000 NSC 25/24 Q1009 NOSIG
ZGKL,2025-09-07 00:00,ZGKL 070000Z VRB01MPS CAVOK 26/25 Q1009 NOSIG
ZGKL,2025-09-07 01:00,ZGKL 070100Z VRB01MPS CAVOK 30/25 Q1010 NOSIG
ZGKL,2025-09-07 02:00,ZGKL 070200Z VRB02MPS 9999 FEW026 30/25 Q1009 NOSIG
ZGKL,2025-09-07 03:00,ZGKL 070300Z VRB02MPS 9999 FEW026 32/25 Q1009 NOSIG
ZGKL,2025-09-07 04:00,ZGKL 070400Z VRB01MPS 9999 FEW026 33/25 Q1009 NOSIG
ZGKL,2025-09-07 05:00,ZGKL 070500Z VRB01MPS 9999 FEW026TCU FEW026 35/26 Q1008 BECMG FM0630 FEW030CB
ZGKL,2025-09-07 06:00,ZGKL 070600Z 35002MPS 280V050 9999 FEW026TCU FEW026 35/24 Q1006 BECMG FM0700 FEW030CB
ZGKL,2025-09-07 07:00,ZGKL 070700Z VRB02MPS 9999 FEW026CB FEW026 37/24 Q1005 BECMG TL0830 FEW030
ZGKL,2025-09-07 08:00,ZGKL 070800Z 04003MPS 360V090 9999 FEW030TCU FEW030 SCT036 37/23 Q1004 BECMG FM0930 FEW030CB
ZGKL,2025-09-07 09:00,ZGKL 070900Z 13003MPS 9999 FEW030 SCT046 33/25 Q1004 NOSIG
ZGKL,2025-09-07 10:00,ZGKL 071000Z 13003MPS 9999 BKN040 33/25 Q1004 NOSIG
ZGKL,2025-09-07 11:00,ZGKL 071100Z 19002MPS 9999 FEW033 30/25 Q1005 NOSIG
ZGKL,2025-09-07 12:00,ZGKL 071200Z 17002MPS 120V250 CAVOK 29/25 Q1006 NOSIG
ZGKL,2025-09-07 13:00,ZGKL 071300Z VRB01MPS CAVOK 29/25 Q1007 NOSIG
ZGKL,2025-09-07 14:00,ZGKL 071400Z VRB01MPS CAVOK 28/25 Q1008 NOSIG
ZGKL,2025-09-07 15:00,ZGKL 071500Z VRB01MPS CAVOK 27/26 Q1008 NOSIG
ZGKL,2025-09-07 16:00,ZGKL 071600Z VRB01MPS CAVOK 26/25 Q1008 NOSIG
ZGKL,2025-09-07 17:00,ZGKL 071700Z VRB01MPS CAVOK 27/25 Q1007 NOSIG
ZGKL,2025-09-07 18:00,ZGKL 071800Z 29002MPS 9000 NSC 26/25 Q1007 NOSIG
ZGKL,2025-09-07 19:00,ZGKL 071900Z VRB01MPS 8000 NSC 26/25 Q1007 NOSIG
ZGKL,2025-09-07 20:00,ZGKL 072000Z VRB01MPS 8000 FEW056 26/25 Q1006 NOSIG
ZGKL,2025-09-07 21:00,ZGKL 072100Z 31001MPS 8000 NSC 26/24 Q1006 NOSIG
ZGKL,2025-09-07 22:00,ZGKL 072200Z VRB01MPS 8000 NSC 25/24 Q1006 NOSIG
ZGKL,2025-09-07 23:00,ZGKL 072300Z 35001MPS 8000 NSC 25/24 Q1006 NOSIG
ZGKL,2025-09-08 00:00,ZGKL 080000Z 35002MPS 320V020 CAVOK 26/24 Q1007 NOSIG
ZGKL,2025-09-08 01:00,ZGKL 080100Z 36002MPS 310V030 9999 FEW066 29/25 Q1007 NOSIG
ZGKL,2025-09-08 02:00,ZGKL 080200Z 04004MPS 9999 FEW066 32/24 Q1007 NOSIG
ZGKL,2025-09-08 03:00,ZGKL 080300Z 05004MPS 360V080 9999 FEW066 33/24 Q1007 NOSIG
ZGKL,2025-09-08 04:00,ZGKL 080400Z 06004MPS 020V080 9999 FEW030 SCT066 33/24 Q1006 BECMG FM0500 FEW033CB SCT050
ZGKL,2025-09-08 05:00,ZGKL 080500Z 06004MPS 9999 FEW030CB FEW066 34/24 Q1005 BECMG TL0630 SHRA
ZGKL,2025-09-08 06:00,ZGKL 080600Z 10005MPS 060V130 7000 -SHRA FEW033CB SCT033 BKN066 28/25 Q1005 NOSIG
ZGKL,2025-09-08 07:00,ZGKL 080700Z 35002MPS 310V030 9999 -SHRA SCT043 SCT066 27/25 Q1004 NOSIG
ZGKL,2025-09-08 08:00,ZGKL 080800Z 35002MPS 9999 FEW066 28/25 Q1003 NOSIG
ZGKL,2025-09-08 09:00,ZGKL 080900Z 34002MPS 300V360 9999 -RA FEW066 28/25 Q1003 NOSIG
ZGKL,2025-09-08 10:00,ZGKL 081000Z VRB01MPS 9999 FEW050 BKN066 28/26 Q1003 NOSIG
ZGKL,2025-09-08 11:00,ZGKL 081100Z 33002MPS 300V360 9999 FEW050 BKN066 27/26 Q1003 NOSIG
ZGKL,2025-09-08 12:00,ZGKL 081200Z 35004MPS 9999 -RA FEW043 BKN066 27/24 Q1004 NOSIG
ZGKL,2025-09-08 13:00,ZGKL 081300Z 34002MPS 310V010 9999 FEW043 BKN066 27/25 Q1004 NOSIG
ZGKL,2025-09-08 14:00,ZGKL 081400Z 36004MPS 9999 FEW043 BKN066 26/24 Q1005 NOSIG
ZGKL,2025-09-08 15:00,ZGKL 081500Z 36002MPS 9999 FEW043 BKN070 26/24 Q1005 NOSIG
ZGKL,2025-09-08 16:00,ZGKL 081600Z VRB01MPS 9999 FEW043 BKN070 26/24 Q1005 NOSIG
ZGKL,2025-09-08 17:00,ZGKL 081700Z 35002MPS 9999 FEW043 BKN070 26/24 Q1005 NOSIG
ZGKL,2025-09-08 18:00,ZGKL 081800Z VRB01MPS 9999 -RA FEW043 BKN053 26/24 Q1004 NOSIG
ZGKL,2025-09-08 19:00,ZGKL 081900Z VRB01MPS 9999 -RA SCT040 OVC050 25/25 Q1004 NOSIG
ZGKL,2025-09-08 20:00,ZGKL 082000Z 36003MPS 6000 -RA SCT046 OVC060 25/24 Q1004 NOSIG
ZGKL,2025-09-08 21:00,ZGKL 082100Z 34002MPS 290V360 7000 -RA SCT046 OVC060 24/24 Q1004 NOSIG
ZGKL,2025-09-08 22:00,ZGKL 082200Z 36002MPS 9999 SCT036 OVC060 24/24 Q1005 NOSIG
ZGKL,2025-09-08 23:00,ZGKL 082300Z VRB01MPS 9999 -RA SCT036 OVC056 25/24 Q1005 NOSIG
ZGKL,2025-09-09 00:00,ZGKL 090000Z VRB01MPS 9000 -RA SCT036 OVC056 25/24 Q1006 NOSIG
ZGKL,2025-09-09 01:00,ZGKL 090100Z 19002MPS 8000 -RA FEW013 BKN026 OVC056 25/24 Q1006 NOSIG
ZGKL,2025-09-09 02:00,ZGKL 090200Z VRB01MPS 3100 -RA BR FEW010 BKN023 OVC050 25/24 Q1007 BECMG TL0300 2800
ZGKL,2025-09-09 03:00,ZGKL 090300Z 03003MPS 3000 -RA BR FEW010 BKN023 OVC050 25/25 Q1007 BECMG TL0400 2800
ZGKL,2025-09-09 04:00,ZGKL 090400Z 07004MPS 2800 -RA BR FEW013 BKN026 OVC056 25/24 Q1007 BECMG TL0500 3200
ZGKL,2025-09-09 05:00,ZGKL 090500Z 11002MPS 080V140 3500 -RA BR FEW013 BKN026 OVC053 25/24 Q1006 NOSIG
ZGKL,2025-09-09 06:00,ZGKL 090600Z 13003MPS 090V160 6000 -RA FEW015 SCT030 OVC053 25/25 Q1006 NOSIG
ZGKL,2025-09-09 07:00,ZGKL 090700Z 16004MPS 6000 -RA FEW015 BKN026 OVC053 25/25 Q1006 NOSIG
ZGKL,2025-09-09 08:00,ZGKL 090800Z 14004MPS 7000 -RA FEW016 SCT030 OVC053 25/24 Q1006 NOSIG
ZGKL,2025-09-09 09:00,ZGKL 090900Z 15002MPS 110V170 9999 FEW023 SCT030 OVC060 25/24 Q1006 NOSIG
ZGKL,2025-09-09 10:00,ZGKL 091000Z 17003MPS 9999 FEW020 SCT030 OVC066 25/23 Q1007 NOSIG
ZGKL,2025-09-09 11:00,ZGKL 091100Z 17001MPS 9999 SCT030 OVC060 25/23 Q1007 NOSIG
ZGKL,2025-09-09 12:00,ZGKL 091200Z 17001MPS 9999 SCT033 OVC060 25/23 Q1008 NOSIG
ZGKL,2025-09-09 13:00,ZGKL 091300Z VRB01MPS 9999 SCT043 BKN073 25/24 Q1009 NOSIG
ZGKL,2025-09-09 14:00,ZGKL 091400Z VRB01MPS 9999 FEW011 SCT040 BKN070 24/24 Q1010 NOSIG
ZGKL,2025-09-09 15:00,ZGKL 091500Z VRB01MPS 9999 FEW015 SCT036 BKN066 24/24 Q1010 NOSIG
ZGKL,2025-09-09 16:00,ZGKL 091600Z VRB01MPS 8000 -RA FEW015 SCT036 BKN053 24/24 Q1010 NOSIG
ZGKL,2025-09-09 17:00,ZGKL 091700Z VRB01MPS 8000 -RA FEW015 SCT033 OVC053 24/24 Q1010 NOSIG
ZGKL,2025-09-09 18:00,ZGKL 091800Z VRB01MPS 8000 -RA FEW013 SCT033 OVC053 24/24 Q1010 NOSIG
ZGKL,2025-09-09 19:00,ZGKL 091900Z VRB01MPS 7000 -RA FEW010 SCT036 BKN060 24/24 Q1009 NOSIG
ZGKL,2025-09-09 20:00,ZGKL 092000Z 32001MPS 7000 -RA FEW011 SCT040 OVC056 24/24 Q1009 NOSIG
ZGKL,2025-09-09 21:00,ZGKL 092100Z VRB01MPS 7000 FEW020 SCT033 BKN060 24/24 Q1009 NOSIG
ZGKL,2025-09-09 22:00,ZGKL 092200Z VRB01MPS 7000 FEW010 SCT030 BKN060 24/24 Q1010 NOSIG
ZGKL,2025-09-09 23:00,ZGKL 092300Z 04002MPS 5000 BR BKN033 SCT066 25/24 Q1010 NOSIG
ZGKL,2025-09-10 00:00,ZGKL 100000Z VRB01MPS 7000 FEW010 SCT033 25/24 Q1011 NOSIG
ZGKL,2025-09-10 01:00,ZGKL 100100Z VRB01MPS 8000 FEW013 SCT033 27/24 Q1011 NOSIG
ZGKL,2025-09-10 02:00,ZGKL 100200Z VRB01MPS 9999 FEW016 SCT033 28/24 Q1011 NOSIG
ZGKL,2025-09-10 03:00,ZGKL 100300Z VRB02MPS 9999 FEW020 SCT040 30/24 Q1011 NOSIG
ZGKL,2025-09-10 04:00,ZGKL 100400Z 13003MPS 090V190 9999 FEW023 SCT040 31/25 Q1010 NOSIG
ZGKL,2025-09-10 05:00,ZGKL 100500Z 15004MPS 120V180 9999 BKN026 32/25 Q1009 BECMG FM0530 FEW030CB
ZGKL,2025-09-10 06:00,ZGKL 100600Z 17003MPS 100V200 9999 -SHRA FEW030CB BKN033 30/25 Q1009 BECMG FM0700 SHRA
ZGKL,2025-09-10 07:00,ZGKL 100700Z 14002MPS 100V200 9999 -SHRA FEW010 FEW030CB BKN033 26/25 Q1009 RESHRA BECMG TL0830 SCT033 BKN060
ZGKL,2025-09-10 08:00,ZGKL 100800Z 08002MPS 050V110 9999 SCT033 BKN060 27/25 Q1008 NOSIG
ZGKL,2025-09-10 09:00,ZGKL 100900Z VRB01MPS 9999 FEW033 SCT066 27/25 Q1008 NOSIG
ZGKL,2025-09-10 10:00,ZGKL 101000Z 35002MPS 9999 FEW033 SCT066 27/26 Q1008 NOSIG
ZGKL,2025-09-10 11:00,ZGKL 101100Z 02003MPS 9999 FEW033 SCT056 26/25 Q1008 NOSIG
ZGKL,2025-09-10 12:00,ZGKL 101200Z VRB01MPS 9999 FEW036 SCT060 26/25 Q1009 NOSIG
ZGKL,2025-09-10 13:00,ZGKL 101300Z 36002MPS 9999 FEW036 SCT053 26/25 Q1010 NOSIG
ZGKL,2025-09-10 14:00,ZGKL 101400Z 00000MPS 9999 FEW026 SCT033 25/25 Q1010 NOSIG
ZGKL,2025-09-10 15:00,ZGKL 101500Z VRB01MPS 9999 FEW026 SCT040 25/25 Q1011 NOSIG
ZGKL,2025-09-10 16:00,ZGKL 101600Z VRB01MPS 9999 FEW026 BKN056 25/24 Q1011 NOSIG
ZGKL,2025-09-10 17:00,ZGKL 101700Z 00000MPS 9999 FEW028 BKN066 25/24 Q1010 NOSIG
ZGKL,2025-09-10 18:00,ZGKL 101800Z VRB01MPS 9999 FEW010 SCT023 OVC043 25/25 Q1010 NOSIG
ZGKL,2025-09-10 19:00,ZGKL 101900Z VRB01MPS 9999 FEW010 SCT023 OVC043 25/25 Q1010 NOSIG
ZGKL,2025-09-10 20:00,ZGKL 102000Z 00000MPS 9999 FEW010 SCT023 OVC043 25/25 Q1010 NOSIG
ZGKL,2025-09-10 21:00,ZGKL 102100Z 06002MPS 8000 -SHRA FEW010 FEW026CB SCT026 BKN043 25/24 Q1010 NOSIG
ZGKL,2025-09-10 22:00,ZGKL 102200Z 11002MPS 9000 -SHRA FEW013 FEW026CB SCT026 BKN040 25/24 Q1011 BECMG FM2300 SCT030 BKN050
ZGKL,2025-09-10 23:00,ZGKL 102300Z 12002MPS 350V140 9999 FEW013 SCT043 25/24 Q1011 NOSIG
ZGKL,2025-09-11 00:00,ZGKL 110000Z VRB01MPS 9000 FEW026 SCT040 25/25 Q1012 NOSIG
ZGKL,2025-09-11 01:00,ZGKL 110100Z VRB01MPS 9999 SCT036 SCT060 27/25 Q1012 NOSIG
ZGKL,2025-09-11 02:00,ZGKL 110200Z VRB01MPS 9999 FEW013 SCT036 28/25 Q1012 NOSIG
ZGKL,2025-09-11 03:00,ZGKL 110300Z 20002MPS 130V260 9999 FEW016 SCT030 29/25 Q1012 NOSIG
ZGKL,2025-09-11 04:00,ZGKL 110400Z 18003MPS 150V220 9999 SCT030 BKN066 30/25 Q1011 NOSIG
ZGKL,2025-09-11 05:00,ZGKL 110500Z 19004MPS 9999 SCT026 BKN066 30/24 Q1010 NOSIG
ZGKL,2025-09-11 06:00,ZGKL 110600Z 18003MPS 150V220 9999 FEW030 SCT066 31/24 Q1009 NOSIG
ZGKL,2025-09-11 07:00,ZGKL 110700Z 21002MPS 150V280 9999 FEW030 32/25 Q1008 NOSIG
ZGKL,2025-09-11 08:00,ZGKL 110800Z 18004MPS 9999 FEW030 31/25 Q1008 NOSIG
ZGKL,2025-09-11 09:00,ZGKL 110900Z 18004MPS 150V210 9999 FEW030 32/25 Q1007 NOSIG
ZGKL,2025-09-11 10:00,ZGKL 111000Z 15003MPS CAVOK 30/25 Q1007 NOSIG
ZGKL,2025-09-11 11:00,ZGKL 111100Z 13002MPS CAVOK 29/25 Q1008 NOSIG
ZGKL,2025-09-11 12:00,ZGKL 111200Z 27001MPS 9999 SCT066 28/25 Q1009 NOSIG
ZGKL,2025-09-11 13:00,ZGKL 111300Z 28001MPS 9999 SCT066 27/25 Q1010 NOSIG
ZGKL,2025-09-11 14:00,ZGKL 111400Z 00000MPS CAVOK 26/25 Q1010 NOSIG
ZGKL,2025-09-11 15:00,ZGKL 111500Z 29001MPS CAVOK 26/25 Q1010 NOSIG
ZGKL,2025-09-11 16:00,ZGKL 111600Z 25001MPS 9999 SCT040 26/25 Q1011 NOSIG
ZGKL,2025-09-11 17:00,ZGKL 111700Z VRB01MPS 9999 SCT066 25/25 Q1010 NOSIG
ZGKL,2025-09-11 18:00,ZGKL 111800Z 16002MPS 9999 SCT070 26/25 Q1010 NOSIG
ZGKL,2025-09-11 19:00,ZGKL 111900Z 14002MPS 110V170 9999 FEW033 BKN066 26/24 Q1010 NOSIG
ZGKL,2025-09-11 20:00,ZGKL 112000Z 00000MPS 9999 FEW033 26/24 Q1010 NOSIG
ZGKL,2025-09-11 21:00,ZGKL 112100Z VRB01MPS 9999 SCT040 BKN073 26/24 Q1011 NOSIG
ZGKL,2025-09-11 22:00,ZGKL 112200Z 18002MPS 9999 SCT036 BKN073 25/24 Q1011 NOSIG
ZGKL,2025-09-11 23:00,ZGKL 112300Z 17001MPS 9999 SCT030 SCT073 25/24 Q1011 NOSIG
ZGKL,2025-09-12 00:00,ZGKL 120000Z 16003MPS 9999 SCT030 26/25 Q1011 NOSIG
ZGKL,2025-09-12 01:00,ZGKL 120100Z 18004MPS 140V200 9999 FEW023 28/25 Q1012 NOSIG
ZGKL,2025-09-12 02:00,ZGKL 120200Z 18004MPS 9999 FEW023 SCT046 BKN073 29/25 Q1012 NOSIG
ZGKL,2025-09-12 03:00,ZGKL 120300Z 19004MPS 9999 FEW023 30/25 Q1012 BECMG FM0430 FEW030CB BKN040
ZGKL,2025-09-12 04:00,ZGKL 120400Z 20005MPS 170V250 9999 FEW023 SCT053 31/25 Q1011 BECMG TL0500 FEW030CB BKN040
ZGKL,2025-09-12 05:00,ZGKL 120500Z 18005MPS 140V210 9999 FEW026CB SCT026 32/25 Q1011 NOSIG
ZGKL,2025-09-12 06:00,ZGKL 120600Z 17005MPS 140V230 9999 FEW030CB FEW030 31/25 Q1010 NOSIG
ZGKL,2025-09-12 07:00,ZGKL 120700Z 19004MPS 150V240 9999 FEW030CB FEW030 33/26 Q1009 NOSIG
ZGKL,2025-09-12 08:00,ZGKL 120800Z 18004MPS 160V220 9999 FEW033CB FEW033 SCT046 31/25 Q1009 BECMG TL0930 SCT030 BKN050
ZGKL,2025-09-12 09:00,ZGKL 120900Z VRB01MPS 9999 FEW030CB FEW030 SCT043 32/25 Q1009 BECMG TL1000 SCT030 BKN050
ZGKL,2025-09-12 10:00,ZGKL 121000Z VRB01MPS 9999 FEW026 30/25 Q1009 NOSIG
ZGKL,2025-09-12 11:00,ZGKL 121100Z 33002MPS 300V360 9999 FEW026 SCT046 28/25 Q1010 NOSIG
ZGKL,2025-09-12 12:00,ZGKL 121200Z 30001MPS 9999 FEW060 27/25 Q1010 NOSIG
ZGKL,2025-09-12 13:00,ZGKL 121300Z VRB01MPS CAVOK 27/25 Q1011 NOSIG
ZGKL,2025-09-12 14:00,ZGKL 121400Z VRB01MPS 9999 FEW050 27/25 Q1011 NOSIG
ZGKL,2025-09-12 15:00,ZGKL 121500Z VRB01MPS 9999 FEW050 26/25 Q1011 NOSIG
ZGKL,2025-09-12 16:00,ZGKL 121600Z VRB01MPS 9999 FEW050 26/25 Q1011 NOSIG
ZGKL,2025-09-12 17:00,ZGKL 121700Z VRB01MPS 9999 FEW066 25/25 Q1011 NOSIG
ZGKL,2025-09-12 18:00,ZGKL 121800Z VRB01MPS 9999 FEW066 25/24 Q1011 NOSIG
ZGKL,2025-09-12 19:00,ZGKL 121900Z VRB01MPS 8000 FEW043 25/24 Q1011 NOSIG
ZGKL,2025-09-12 20:00,ZGKL 122000Z 00000MPS 8000 SCT040 25/24 Q1011 NOSIG
ZGKL,2025-09-12 21:00,ZGKL 122100Z 00000MPS 9000 FEW046 24/24 Q1011 NOSIG
ZGKL,2025-09-12 22:00,ZGKL 122200Z 00000MPS 9000 FEW023 24/24 Q1012 NOSIG
ZGKL,2025-09-12 23:00,ZGKL 122300Z 00000MPS 7000 FEW023 SCT060 24/24 Q1012 NOSIG
ZGKL,2025-09-13 00:00,ZGKL 130000Z VRB01MPS 7000 FEW023 26/25 Q1013 NOSIG
ZGKL,2025-09-13 01:00,ZGKL 130100Z 18002MPS 9999 FEW040 27/25 Q1013 NOSIG
ZGKL,2025-09-13 02:00,ZGKL 130200Z 18003MPS 140V210 9999 FEW040 29/25 Q1013 NOSIG
ZGKL,2025-09-13 03:00,ZGKL 130300Z 17002MPS 130V220 9999 FEW033 32/25 Q1013 NOSIG
ZGKL,2025-09-13 04:00,ZGKL 130400Z 18003MPS 140V210 9999 FEW033 32/25 Q1012 NOSIG
ZGKL,2025-09-13 05:00,ZGKL 130500Z 16004MPS 9999 FEW033 33/25 Q1012 NOSIG
ZGKL,2025-09-13 06:00,ZGKL 130600Z 18005MPS 130V220 9999 FEW033 33/24 Q1011 NOSIG
ZGKL,2025-09-13 07:00,ZGKL 130700Z 17004MPS 9999 FEW033 33/24 Q1010 NOSIG
ZGKL,2025-09-13 08:00,ZGKL 130800Z 18004MPS 9999 FEW033 33/24 Q1010 NOSIG
ZGKL,2025-09-13 09:00,ZGKL 130900Z 19003MPS 9999 FEW033TCU FEW033 33/24 Q1009 NOSIG
ZGKL,2025-09-13 10:00,ZGKL 131000Z 18003MPS 9999 FEW033TCU FEW033 32/24 Q1009 NOSIG
ZGKL,2025-09-13 11:00,ZGKL 131100Z 18002MPS CAVOK 29/25 Q1010 NOSIG
ZGKL,2025-09-13 12:00,ZGKL 131200Z 22001MPS CAVOK 28/24 Q1010 NOSIG
ZGKL,2025-09-13 13:00,ZGKL 131300Z 19002MPS CAVOK 27/24 Q1011 NOSIG
ZGKL,2025-09-13 14:00,ZGKL 131400Z 23001MPS CAVOK 27/24 Q1012 NOSIG
ZGKL,2025-09-13 15:00,ZGKL 131500Z VRB01MPS CAVOK 26/23 Q1012 NOSIG
ZGKL,2025-09-13 16:00,ZGKL 131600Z VRB01MPS 9999 FEW066 25/24 Q1012 NOSIG
ZGKL,2025-09-13 17:00,ZGKL 131700Z VRB01MPS CAVOK 25/23 Q1011 NOSIG
ZGKL,2025-09-13 18:00,ZGKL 131800Z 03002MPS 290V080 CAVOK 25/23 Q1011 NOSIG
ZGKL,2025-09-13 19:00,ZGKL 131900Z 27001MPS CAVOK 24/23 Q1011 NOSIG
ZGKL,2025-09-13 20:00,ZGKL 132000Z VRB01MPS CAVOK 23/22 Q1011 NOSIG
ZGKL,2025-09-13 21:00,ZGKL 132100Z VRB01MPS 9999 FEW043 23/22 Q1011 NOSIG
ZGKL,2025-09-13 22:00,ZGKL 132200Z 31001MPS 9999 FEW043 23/22 Q1012 NOSIG
ZGKL,2025-09-13 23:00,ZGKL 132300Z VRB01MPS CAVOK 23/22 Q1012 NOSIG
ZGKL,2025-09-14 00:00,ZGKL 140000Z VRB01MPS CAVOK 25/23 Q1013 NOSIG
ZGKL,2025-09-14 01:00,ZGKL 140100Z VRB01MPS CAVOK 28/24 Q1013 NOSIG
ZGKL,2025-09-14 02:00,ZGKL 140200Z 18002MPS 130V240 9999 FEW040 29/24 Q1013 NOSIG
ZGKL,2025-09-14 03:00,ZGKL 140300Z VRB02MPS 9999 FEW040 31/25 Q1013 NOSIG
ZGKL,2025-09-14 04:00,ZGKL 140400Z 14003MPS 100V210 9999 FEW030TCU FEW030 32/25 Q1012 BECMG FM0530 FEW030CB
ZGKL,2025-09-14 05:00,ZGKL 140500Z 15003MPS 110V200 9999 FEW030 32/24 Q1011 BECMG TL0600 FEW030CB
ZGKL,2025-09-14 06:00,ZGKL 140600Z 18004MPS 150V210 9999 SCT026 FEW033CB 33/24 Q1010 BECMG FM0730 FEW030
ZGKL,2025-09-14 07:00,ZGKL 140700Z 18004MPS 140V210 9999 FEW026 FEW033CB 34/24 Q1009 BECMG TL0800 FEW030
ZGKL,2025-09-14 08:00,ZGKL 140800Z 16004MPS 120V200 9999 FEW026 34/24 Q1009 NOSIG
ZGKL,2025-09-14 09:00,ZGKL 140900Z 16004MPS 140V200 9999 FEW026 33/23 Q1009 NOSIG
ZGKL,2025-09-14 10:00,ZGKL 141000Z 16004MPS 9999 FEW026 32/23 Q1009 NOSIG
ZGKL,2025-09-14 11:00,ZGKL 141100Z 17002MPS 9999 FEW050 29/24 Q1009 NOSIG
ZGKL,2025-09-14 12:00,ZGKL 141200Z 24001MPS 9999 FEW050 29/24 Q1010 NOSIG
ZGKL,2025-09-14 13:00,ZGKL 141300Z 26001MPS 9999 FEW050 28/25 Q1011 NOSIG
ZGKL,2025-09-14 14:00,ZGKL 141400Z VRB01MPS 9999 FEW053 27/25 Q1012 NOSIG
ZGKL,2025-09-14 15:00,ZGKL 141500Z VRB01MPS CAVOK 26/24 Q1012 NOSIG
ZGKL,2025-09-14 16:00,ZGKL 141600Z VRB01MPS CAVOK 26/24 Q1011 NOSIG
ZGKL,2025-09-14 17:00,ZGKL 141700Z VRB01MPS CAVOK 25/24 Q1011 NOSIG
ZGKL,2025-09-14 18:00,ZGKL 141800Z 31001MPS CAVOK 25/24 Q1011 NOSIG
ZGKL,2025-09-14 19:00,ZGKL 141900Z VRB01MPS 9999 SCT050 25/24 Q1011 NOSIG
ZGKL,2025-09-14 20:00,ZGKL 142000Z VRB01MPS 9999 SCT050 25/24 Q1011 NOSIG
ZGKL,2025-09-14 21:00,ZGKL 142100Z VRB01MPS 9999 SCT050 24/24 Q1012 NOSIG
ZGKL,2025-09-14 22:00,ZGKL 142200Z VRB01MPS 9999 FEW033 SCT043 24/24 Q1012 NOSIG
ZGKL,2025-09-14 23:00,ZGKL 142300Z VRB01MPS 9999 FEW036 SCT046 25/24 Q1013 NOSIG
ZGKL,2025-09-15 00:00,ZGKL 150000Z VRB01MPS 9999 FEW030 SCT043 26/24 Q1013 NOSIG
ZGKL,2025-09-15 01:00,ZGKL 150100Z VRB01MPS 9999 FEW030 SCT053 27/25 Q1014 NOSIG
ZGKL,2025-09-15 02:00,ZGKL 150200Z 15002MPS 100V260 9999 FEW026 29/26 Q1014 NOSIG
ZGKL,2025-09-15 03:00,ZGKL 150300Z 17004MPS 140V200 9999 FEW026TCU FEW026 31/25 Q1014 BECMG TL0400 FEW030CB SCT050
ZGKL,2025-09-15 04:00,ZGKL 150400Z 11004MPS 9999 FEW030CB FEW030 30/25 Q1013 NOSIG
ZGKL,2025-09-15 05:00,ZGKL 150500Z VRB02MPS 9999 FEW033CB FEW033 32/24 Q1012 NOSIG
ZGKL,2025-09-15 06:00,ZGKL 150600Z VRB02MPS 9999 FEW033CB SCT033 34/25 Q1011 BECMG AT0610 -TSRA
ZGKL,2025-09-15 07:00,ZGKL 150700Z 13003MPS 9999 FEW033TCU SCT033 30/23 Q1011 RETS NOSIG
ZGKL,2025-09-15 08:00,ZGKL 150800Z 18003MPS 150V230 9999 FEW033TCU FEW033 32/24 Q1010 NOSIG
ZGKL,2025-09-15 09:00,ZGKL 150900Z VRB01MPS CAVOK 33/24 Q1009 NOSIG
ZGKL,2025-09-15 10:00,ZGKL 151000Z 16002MPS 130V200 CAVOK 32/23 Q1009 NOSIG
ZGKL,2025-09-15 11:00,ZGKL 151100Z VRB01MPS CAVOK 30/24 Q1010 NOSIG
ZGKL,2025-09-15 12:00,ZGKL 151200Z VRB01MPS CAVOK 27/25 Q1011 NOSIG
ZGKL,2025-09-15 13:00,ZGKL 151300Z VRB01MPS CAVOK 27/25 Q1012 NOSIG
ZGKL,2025-09-15 14:00,ZGKL 151400Z 31002MPS CAVOK 27/24 Q1013 NOSIG
ZGKL,2025-09-15 15:00,ZGKL 151500Z VRB01MPS CAVOK 26/24 Q1013 NOSIG
ZGKL,2025-09-15 16:00,ZGKL 151600Z VRB01MPS CAVOK 26/24 Q1013 NOSIG
ZGKL,2025-09-15 17:00,ZGKL 151700Z VRB01MPS CAVOK 25/24 Q1013 NOSIG
ZGKL,2025-09-15 18:00,ZGKL 151800Z VRB01MPS CAVOK 25/24 Q1012 NOSIG
ZGKL,2025-09-15 19:00,ZGKL 151900Z VRB01MPS CAVOK 24/24 Q1012 NOSIG
ZGKL,2025-09-15 20:00,ZGKL 152000Z VRB01MPS CAVOK 24/23 Q1012 NOSIG
ZGKL,2025-09-15 21:00,ZGKL 152100Z VRB01MPS CAVOK 24/23 Q1013 NOSIG
ZGKL,2025-09-15 22:00,ZGKL 152200Z VRB01MPS 9999 FEW043 24/23 Q1013 NOSIG
ZGKL,2025-09-15 23:00,ZGKL 152300Z VRB01MPS 9999 SCT053 24/23 Q1013 NOSIG
ZGKL,2025-09-16 00:00,ZGKL 160000Z VRB01MPS 9999 FEW066 25/24 Q1014 NOSIG
ZGKL,2025-09-16 01:00,ZGKL 160100Z 01002MPS 340V040 CAVOK 26/24 Q1014 NOSIG
ZGKL,2025-09-16 02:00,ZGKL 160200Z VRB01MPS CAVOK 30/25 Q1014 NOSIG
ZGKL,2025-09-16 03:00,ZGKL 160300Z VRB01MPS 9999 FEW026 32/24 Q1014 NOSIG
ZGKL,2025-09-16 04:00,ZGKL 160400Z 15002MPS 090V210 9999 FEW030 32/24 Q1013 NOSIG
ZGKL,2025-09-16 05:00,ZGKL 160500Z 18002MPS 090V260 9999 FEW030 34/24 Q1012 BECMG FM0630 FEW030CB FEW030
ZGKL,2025-09-16 06:00,ZGKL 160600Z VRB01MPS 9999 FEW030 33/23 Q1010 BECMG TL0700 FEW030CB FEW030
ZGKL,2025-09-16 07:00,ZGKL 160700Z 14003MPS 100V170 9999 FEW030 FEW033CB 33/24 Q1010 BECMG FM0830 FEW030
ZGKL,2025-09-16 08:00,ZGKL 160800Z 20002MPS 110V230 CAVOK 33/23 Q1009 NOSIG
ZGKL,2025-09-16 09:00,ZGKL 160900Z VRB01MPS CAVOK 34/23 Q1009 NOSIG
ZGKL,2025-09-16 10:00,ZGKL 161000Z 20002MPS 170V250 CAVOK 31/24 Q1009 NOSIG
ZGKL,2025-09-16 11:00,ZGKL 161100Z VRB01MPS 9999 FEW066 30/25 Q1009 NOSIG
ZGKL,2025-09-16 12:00,ZGKL 161200Z 25002MPS CAVOK 28/25 Q1010 NOSIG
ZGKL,2025-09-16 13:00,ZGKL 161300Z VRB01MPS CAVOK 28/24 Q1011 NOSIG
ZGKL,2025-09-16 14:00,ZGKL 161400Z 27001MPS CAVOK 26/25 Q1012 NOSIG
ZGKL,2025-09-16 15:00,ZGKL 161500Z 19001MPS 9999 FEW053 26/25 Q1012 NOSIG
ZGKL,2025-09-16 16:00,ZGKL 161600Z VRB01MPS CAVOK 26/25 Q1012 NOSIG
ZGKL,2025-09-16 17:00,ZGKL 161700Z VRB01MPS CAVOK 25/24 Q1012 NOSIG
ZGKL,2025-09-16 18:00,ZGKL 161800Z VRB01MPS CAVOK 25/24 Q1011 NOSIG
ZGKL,2025-09-16 19:00,ZGKL 161900Z VRB01MPS CAVOK 25/23 Q1011 NOSIG
ZGKL,2025-09-16 20:00,ZGKL 162000Z 34002MPS 290V360 CAVOK 24/24 Q1011 NOSIG
ZGKL,2025-09-16 21:00,ZGKL 162100Z VRB01MPS CAVOK 24/23 Q1011 NOSIG
ZGKL,2025-09-16 22:00,ZGKL 162200Z VRB01MPS 8000 NSC 24/23 Q1011 NOSIG
ZGKL,2025-09-16 23:00,ZGKL 162300Z VRB01MPS 8000 NSC 24/23 Q1012 NOSIG
ZGKL,2025-09-17 00:00,ZGKL 170000Z 36002MPS CAVOK 26/24 Q1012 NOSIG
ZGKL,2025-09-17 01:00,ZGKL 170100Z VRB01MPS CAVOK 29/24 Q1013 NOSIG
ZGKL,2025-09-17 02:00,ZGKL 170200Z VRB01MPS 9999 FEW026 30/24 Q1014 NOSIG
ZGKL,2025-09-17 03:00,ZGKL 170300Z 10003MPS 060V130 9999 FEW030 31/23 Q1013 NOSIG
ZGKL,2025-09-17 04:00,ZGKL 170400Z 31002MPS 230V010 9999 FEW030 32/23 Q1013 NOSIG
ZGKL,2025-09-17 05:00,ZGKL 170500Z VRB01MPS 9999 FEW030 34/23 Q1012 NOSIG
ZGKL,2025-09-17 06:00,ZGKL 170600Z 17003MPS 110V210 9999 FEW030 34/22 Q1010 NOSIG
ZGKL,2025-09-17 07:00,ZGKL 170700Z 05002MPS 340V100 9999 FEW030 35/22 Q1009 NOSIG
ZGKL,2025-09-17 08:00,ZGKL 170800Z VRB02MPS 9999 FEW030 34/22 Q1008 NOSIG
ZGKL,2025-09-17 09:00,ZGKL 170900Z 17003MPS 140V200 9999 FEW036 34/22 Q1008 NOSIG
ZGKL,2025-09-17 10:00,ZGKL 171000Z 19003MPS 9999 FEW036 30/24 Q1008 NOSIG
ZGKL,2025-09-17 11:00,ZGKL 171100Z 19002MPS 9999 FEW066 27/24 Q1009 NOSIG
ZGKL,2025-09-17 12:00,ZGKL 171200Z 20002MPS 170V230 CAVOK 27/24 Q1010 NOSIG
ZGKL,2025-09-17 13:00,ZGKL 171300Z VRB01MPS CAVOK 27/24 Q1011 NOSIG
ZGKL,2025-09-17 14:00,ZGKL 171400Z 00000MPS CAVOK 26/25 Q1012 NOSIG
ZGKL,2025-09-17 15:00,ZGKL 171500Z VRB01MPS CAVOK 26/24 Q1012 NOSIG
ZGKL,2025-09-17 16:00,ZGKL 171600Z VRB01MPS CAVOK 25/23 Q1011 NOSIG
ZGKL,2025-09-17 17:00,ZGKL 171700Z VRB01MPS CAVOK 25/23 Q1011 NOSIG
ZGKL,2025-09-17 18:00,ZGKL 171800Z VRB01MPS CAVOK 24/23 Q1011 NOSIG
ZGKL,2025-09-17 19:00,ZGKL 171900Z VRB01MPS CAVOK 24/23 Q1010 NOSIG
ZGKL,2025-09-17 20:00,ZGKL 172000Z VRB01MPS CAVOK 23/23 Q1010 NOSIG
ZGKL,2025-09-17 21:00,ZGKL 172100Z VRB01MPS CAVOK 23/23 Q1010 NOSIG
ZGKL,2025-09-17 22:00,ZGKL 172200Z 26001MPS CAVOK 23/23 Q1010 NOSIG
ZGKL,2025-09-17 23:00,ZGKL 172300Z VRB01MPS 9999 FEW066 23/23 Q1011 NOSIG
ZGKL,2025-09-18 00:00,ZGKL 180000Z VRB01MPS 9999 FEW066 25/24 Q1012 NOSIG
ZGKL,2025-09-18 01:00,ZGKL 180100Z VRB01MPS 9999 SCT066 28/23 Q1012 NOSIG
ZGKL,2025-09-18 02:00,ZGKL 180200Z VRB01MPS 9999 SCT046 29/24 Q1013 NOSIG
ZGKL,2025-09-18 03:00,ZGKL 180300Z VRB01MPS 9999 FEW030 32/23 Q1012 NOSIG
ZGKL,2025-09-18 04:00,ZGKL 180400Z VRB01MPS 9999 FEW030 33/24 Q1012 NOSIG
ZGKL,2025-09-18 05:00,COR ZGKL 180500Z VRB02MPS 9999 FEW030 33/24 Q1010 BECMG FM0600 FEW030CB
ZGKL,2025-09-18 06:00,ZGKL 180600Z VRB01MPS 9999 FEW030CB FEW030 34/23 Q1009 NOSIG
ZGKL,2025-09-18 07:00,ZGKL 180700Z 21002MPS 150V280 9999 FEW033CB FEW033 35/24 Q1008 BECMG TL0830 FEW030 SCT050
ZGKL,2025-09-18 08:00,ZGKL 180800Z 20003MPS 180V250 9999 FEW033CB FEW033 34/24 Q1008 BECMG TL0900 FEW030 SCT050
ZGKL,2025-09-18 09:00,ZGKL 180900Z VRB01MPS 9999 FEW033TCU FEW033 34/23 Q1007 NOSIG
ZGKL,2025-09-18 10:00,ZGKL 181000Z 19002MPS 9999 FEW033CB FEW033 33/23 Q1007 BECMG TL1100 FEW030 SCT050
ZGKL,2025-09-18 11:00,ZGKL 181100Z VRB02G07MPS 9999 FEW033CB FEW046 31/23 Q1008 BECMG FM1200 FEW030 SCT050
ZGKL,2025-09-18 12:00,ZGKL 181200Z 04004MPS 9999 FEW033CB SCT046 30/23 Q1010 BECMG FM1300 FEW033 SCT050
ZGKL,2025-09-18 13:00,ZGKL 181300Z 35003MPS 330V030 9999 SCT046 27/23 Q1011 BECMG FM1400 FEW033CB SCT040
ZGKL,2025-09-18 14:00,ZGKL 181400Z VRB01MPS 9999 FEW033CB SCT046 26/23 Q1011 BECMG FM1500 FEW033
ZGKL,2025-09-18 15:00,ZGKL 181500Z VRB01MPS 9999 FEW053 26/23 Q1011 NOSIG
ZGKL,2025-09-18 16:00,ZGKL 181600Z VRB01MPS 9999 FEW053 26/23 Q1011 NOSIG
ZGKL,2025-09-18 17:00,ZGKL 181700Z VRB01MPS 9999 FEW053 25/23 Q1011 NOSIG
ZGKL,2025-09-18 18:00,ZGKL 181800Z VRB01MPS CAVOK 25/23 Q1011 NOSIG
ZGKL,2025-09-18 19:00,ZGKL 181900Z 34001MPS CAVOK 25/23 Q1011 NOSIG
ZGKL,2025-09-18 20:00,ZGKL 182000Z VRB01MPS 9999 FEW046 24/23 Q1010 NOSIG
ZGKL,2025-09-18 21:00,ZGKL 182100Z VRB01MPS 9999 SCT066 24/24 Q1010 NOSIG
ZGKL,2025-09-18 22:00,ZGKL 182200Z 34001MPS 9999 FEW043 SCT073 24/23 Q1011 NOSIG
ZGKL,2025-09-18 23:00,ZGKL 182300Z VRB01MPS 9999 FEW043 24/23 Q1011 NOSIG
ZGKL,2025-09-19 00:00,ZGKL 190000Z VRB01MPS CAVOK 25/24 Q1011 NOSIG
ZGKL,2025-09-19 01:00,ZGKL 190100Z VRB01MPS CAVOK 28/24 Q1012 NOSIG
ZGKL,2025-09-19 02:00,ZGKL 190200Z VRB01MPS CAVOK 31/24 Q1012 NOSIG
ZGKL,2025-09-19 03:00,ZGKL 190300Z VRB01MPS 9999 FEW026 30/24 Q1012 NOSIG
ZGKL,2025-09-19 04:00,ZGKL 190400Z 10002MPS 030V180 9999 SCT026 32/24 Q1011 NOSIG
ZGKL,2025-09-19 05:00,ZGKL 190500Z VRB01MPS 9999 FEW030TCU SCT030 33/23 Q1010 BECMG FM0630 FEW030CB
ZGKL,2025-09-19 06:00,ZGKL 190600Z 07003MPS 020V110 9999 FEW030TCU FEW030 33/24 Q1009 BECMG FM0700 FEW030CB
ZGKL,2025-09-19 07:00,ZGKL 190700Z 35002MPS 300V060 9999 FEW030CB FEW030 33/23 Q1008 BECMG TL0830 FEW030
ZGKL,2025-09-19 08:00,ZGKL 190800Z 02004MPS 350V050 9999 FEW033CB FEW033 34/24 Q1007 BECMG TL0900 FEW030
ZGKL,2025-09-19 09:00,ZGKL 190900Z 34002MPS 9999 FEW030 32/24 Q1007 NOSIG
ZGKL,2025-09-19 10:00,ZGKL 191000Z 35003MPS CAVOK 31/24 Q1007 NOSIG
ZGKL,2025-09-19 11:00,ZGKL 191100Z 35003MPS CAVOK 29/25 Q1008 NOSIG
ZGKL,2025-09-19 12:00,ZGKL 191200Z 33002MPS 300V010 CAVOK 28/24 Q1009 NOSIG
ZGKL,2025-09-19 13:00,ZGKL 191300Z 03004MPS CAVOK 28/23 Q1010 NOSIG
ZGKL,2025-09-19 14:00,ZGKL 191400Z 01003MPS CAVOK 28/23 Q1010 NOSIG
ZGKL,2025-09-19 15:00,ZGKL 191500Z 35002MPS 310V040 CAVOK 27/23 Q1010 NOSIG
ZGKL,2025-09-19 16:00,ZGKL 191600Z 02003MPS CAVOK 27/23 Q1010 NOSIG
ZGKL,2025-09-19 17:00,ZGKL 191700Z 35002MPS CAVOK 26/23 Q1010 NOSIG
ZGKL,2025-09-19 18:00,ZGKL 191800Z 01002MPS CAVOK 25/23 Q1009 NOSIG
ZGKL,2025-09-19 19:00,ZGKL 191900Z 36003MPS 330V040 CAVOK 25/22 Q1009 NOSIG
ZGKL,2025-09-19 20:00,ZGKL 192000Z 02003MPS CAVOK 25/22 Q1010 NOSIG
ZGKL,2025-09-19 21:00,ZGKL 192100Z 32002MPS 9999 FEW043 24/22 Q1010 NOSIG
ZGKL,2025-09-19 22:00,ZGKL 192200Z 01002MPS 330V070 9999 FEW043 24/22 Q1010 NOSIG
ZGKL,2025-09-19 23:00,ZGKL 192300Z 35002MPS CAVOK 24/21 Q1010 NOSIG
ZGKL,2025-09-20 00:00,ZGKL 200000Z 03004MPS CAVOK 25/21 Q1011 NOSIG
ZGKL,2025-09-20 01:00,ZGKL 200100Z 04004MPS 9999 FEW056 26/21 Q1011 NOSIG
ZGKL,2025-09-20 02:00,ZGKL 200200Z 06006MPS 9999 FEW050 28/21 Q1012 NOSIG
ZGKL,2025-09-20 03:00,ZGKL 200300Z 04006MPS 360V070 9999 FEW040 29/21 Q1012 NOSIG
ZGKL,2025-09-20 04:00,ZGKL 200400Z 01003MPS 320V060 9999 FEW030 30/22 Q1011 NOSIG
ZGKL,2025-09-20 05:00,ZGKL 200500Z 07005MPS 030V130 9999 FEW030 31/21 Q1010 NOSIG
ZGKL,2025-09-20 06:00,ZGKL 200600Z 06005MPS 020V090 9999 FEW030 SCT066 31/21 Q1009 NOSIG
ZGKL,2025-09-20 07:00,ZGKL 200700Z 06006MPS 030V100 9999 BKN066 30/20 Q1008 NOSIG
ZGKL,2025-09-20 08:00,ZGKL 200800Z 06007MPS 9999 FEW073 30/20 Q1008 NOSIG
ZGKL,2025-09-20 09:00,ZGKL 200900Z 07007MPS 9999 FEW073 29/20 Q1008 NOSIG
ZGKL,2025-09-20 10:00,ZGKL 201000Z 06006MPS 9999 FEW073 27/20 Q1008 BECMG FM1130 33001MPS
ZGKL,2025-09-20 11:00,ZGKL 201100Z 06007MPS 9999 FEW053 25/19 Q1009 BECMG FM1200 33001MPS
ZGKL,2025-09-20 12:00,ZGKL 201200Z 03004MPS 360V060 9999 FEW056 24/19 Q1010 NOSIG
ZGKL,2025-09-20 13:00,ZGKL 201300Z 05005MPS 9999 FEW040 23/19 Q1010 NOSIG
ZGKL,2025-09-20 14:00,ZGKL 201400Z 03005MPS 9999 FEW040 23/19 Q1011 NOSIG
ZGKL,2025-09-20 15:00,ZGKL 201500Z 03003MPS 350V070 9999 FEW040 22/18 Q1011 NOSIG
ZGKL,2025-09-20 16:00,ZGKL 201600Z 03003MPS 360V070 9999 FEW040 22/18 Q1011 NOSIG
ZGKL,2025-09-20 17:00,ZGKL 201700Z 04003MPS 010V080 9999 SCT040 22/18 Q1011 NOSIG
ZGKL,2025-09-20 18:00,ZGKL 201800Z VRB01MPS 9999 FEW040 BKN066 22/18 Q1011 NOSIG
ZGKL,2025-09-20 19:00,ZGKL 201900Z 05003MPS 020V080 9999 SCT036 BKN066 22/18 Q1010 NOSIG
ZGKL,2025-09-20 20:00,ZGKL 202000Z VRB01MPS 9999 SCT036 BKN066 21/18 Q1010 NOSIG
ZGKL,2025-09-20 21:00,ZGKL 202100Z VRB01MPS 9999 SCT036 BKN066 21/18 Q1010 NOSIG
ZGKL,2025-09-20 22:00,ZGKL 202200Z 02002MPS 330V070 9999 SCT036 BKN066 21/18 Q1010 NOSIG
ZGKL,2025-09-20 23:00,ZGKL 202300Z VRB01MPS 8000 FEW026 SCT040 BKN066 22/19 Q1011 NOSIG
ZGKL,2025-09-21 00:00,ZGKL 210000Z VRB01MPS 8000 -DZ FEW026 SCT036 BKN060 22/19 Q1011 NOSIG
ZGKL,2025-09-21 01:00,ZGKL 210100Z 02002MPS 320V080 9999 SCT066 23/19 Q1011 NOSIG
ZGKL,2025-09-21 02:00,ZGKL 210200Z 04003MPS 010V090 9000 -RA FEW046 SCT066 23/19 Q1012 NOSIG
ZGKL,2025-09-21 03:00,ZGKL 210300Z 05003MPS 9999 FEW046 SCT073 23/19 Q1012 NOSIG
ZGKL,2025-09-21 04:00,ZGKL 210400Z 04003MPS 9999 FEW043 23/19 Q1011 NOSIG
ZGKL,2025-09-21 05:00,ZGKL 210500Z 04005MPS 9999 FEW030 25/19 Q1010 NOSIG
ZGKL,2025-09-21 06:00,ZGKL 210600Z 03006MPS 9999 FEW036 SCT073 27/20 Q1009 NOSIG
ZGKL,2025-09-21 07:00,ZGKL 210700Z 04005MPS 350V070 9999 FEW036 SCT073 27/20 Q1009 NOSIG
ZGKL,2025-09-21 08:00,ZGKL 210800Z 04004MPS 360V070 9999 FEW033 SCT066 27/20 Q1008 NOSIG
ZGKL,2025-09-21 09:00,ZGKL 210900Z 03004MPS 9999 FEW033 SCT066 26/20 Q1008 NOSIG
ZGKL,2025-09-21 10:00,ZGKL 211000Z 06005MPS 9999 SCT050 BKN073 25/19 Q1009 NOSIG
ZGKL,2025-09-21 11:00,ZGKL 211100Z 05005MPS 9999 SCT043 OVC073 24/19 Q1010 NOSIG
ZGKL,2025-09-21 12:00,ZGKL 211200Z 05003MPS 020V080 9999 SCT040 OVC066 24/19 Q1010 NOSIG
ZGKL,2025-09-21 13:00,ZGKL 211300Z 06002MPS 010V110 9999 SCT046 OVC073 23/19 Q1011 NOSIG
ZGKL,2025-09-21 14:00,ZGKL 211400Z VRB01MPS 9999 -RA SCT043 OVC073 23/20 Q1012 NOSIG
ZGKL,2025-09-21 15:00,ZGKL 211500Z 02002MPS 350V070 9999 -RA SCT046 23/19 Q1012 NOSIG
ZGKL,2025-09-21 16:00,ZGKL 211600Z 36002MPS 280V040 9999 SCT046 23/19 Q1012 NOSIG
ZGKL,2025-09-21 17:00,ZGKL 211700Z VRB01MPS 9999 SCT046 23/20 Q1012 NOSIG
ZGKL,2025-09-21 18:00,ZGKL 211800Z VRB01MPS 9999 SCT046 23/19 Q1012 NOSIG
ZGKL,2025-09-21 19:00,ZGKL 211900Z 06002MPS 9999 SCT046 23/19 Q1011 NOSIG
ZGKL,2025-09-21 20:00,ZGKL 212000Z 06002MPS 9999 SCT046 OVC073 23/19 Q1011 NOSIG
ZGKL,2025-09-21 21:00,ZGKL 212100Z 01002MPS 300V070 9999 SCT036 OVC066 23/19 Q1011 NOSIG
ZGKL,2025-09-21 22:00,ZGKL 212200Z VRB01MPS 9000 -RA SCT036 OVC066 21/20 Q1012 NOSIG
ZGKL,2025-09-21 23:00,ZGKL 212300Z VRB01MPS 6000 -RA FEW023 SCT040 OVC066 21/20 Q1012 NOSIG
ZGKL,2025-09-22 00:00,ZGKL 220000Z VRB01MPS 8000 FEW010 SCT033 OVC066 22/21 Q1012 NOSIG
ZGKL,2025-09-22 01:00,ZGKL 220100Z VRB01MPS 8000 -RA FEW010 SCT033 BKN070 22/21 Q1013 NOSIG
ZGKL,2025-09-22 02:00,ZGKL 220200Z VRB01MPS 9000 -RA FEW011 SCT033 OVC066 23/21 Q1014 NOSIG
ZGKL,2025-09-22 03:00,ZGKL 220300Z VRB01MPS 9999 FEW013 SCT036 OVC073 23/21 Q1013 NOSIG
ZGKL,2025-09-22 04:00,ZGKL 220400Z 35002MPS 290V040 9999 FEW015 SCT036 26/22 Q1013 NOSIG
ZGKL,2025-09-22 05:00,ZGKL 220500Z VRB02MPS 9999 BKN030 27/21 Q1011 NOSIG
ZGKL,2025-09-22 06:00,ZGKL 220600Z 01002MPS 330V050 9999 BKN030 28/22 Q1010 NOSIG
ZGKL,2025-09-22 07:00,ZGKL 220700Z 02004MPS 330V060 9999 BKN030 30/21 Q1009 NOSIG
ZGKL,2025-09-22 08:00,ZGKL 220800Z 04003MPS 360V100 9999 SCT030 31/22 Q1009 NOSIG
ZGKL,2025-09-22 09:00,ZGKL 220900Z 05004MPS 020V080 9999 FEW033 29/21 Q1009 NOSIG
ZGKL,2025-09-22 10:00,ZGKL 221000Z 06006MPS 9999 FEW033 28/21 Q1009 NOSIG
ZGKL,2025-09-22 11:00,ZGKL 221100Z 06006MPS 9999 FEW066 26/21 Q1009 NOSIG
ZGKL,2025-09-22 12:00,ZGKL 221200Z 05006MPS 9999 FEW066 26/21 Q1010 NOSIG
ZGKL,2025-09-22 13:00,ZGKL 221300Z 36002MPS 330V040 9999 FEW070 24/21 Q1011 NOSIG
ZGKL,2025-09-22 14:00,ZGKL 221400Z 03004MPS 9999 FEW063 25/21 Q1011 NOSIG
ZGKL,2025-09-22 15:00,ZGKL 221500Z 34002MPS 260V030 CAVOK 24/21 Q1011 NOSIG
ZGKL,2025-09-22 16:00,ZGKL 221600Z 00000MPS CAVOK 23/21 Q1011 NOSIG
ZGKL,2025-09-22 17:00,ZGKL 221700Z VRB01MPS CAVOK 22/21 Q1011 NOSIG
ZGKL,2025-09-22 18:00,ZGKL 221800Z 04002MPS 9999 FEW043 23/21 Q1011 NOSIG
ZGKL,2025-09-22 19:00,ZGKL 221900Z 34002MPS 310V010 9999 FEW043 23/21 Q1010 NOSIG
ZGKL,2025-09-22 20:00,ZGKL 222000Z VRB01MPS CAVOK 22/21 Q1010 NOSIG
ZGKL,2025-09-22 21:00,ZGKL 222100Z 05002MPS 360V090 CAVOK 22/20 Q1010 NOSIG
ZGKL,2025-09-22 22:00,ZGKL 222200Z VRB01MPS CAVOK 22/20 Q1010 NOSIG
ZGKL,2025-09-22 23:00,ZGKL 222300Z VRB01MPS 9999 FEW036 22/21 Q1010 NOSIG
ZGKL,2025-09-23 00:00,ZGKL 230000Z VRB01MPS 9999 SCT036 24/21 Q1010 NOSIG
ZGKL,2025-09-23 01:00,ZGKL 230100Z 36003MPS 310V020 CAVOK 26/21 Q1010 BECMG FM0230 06006MPS
ZGKL,2025-09-23 02:00,ZGKL 230200Z 03004MPS 350V080 9999 FEW026 29/21 Q1010 NOSIG
ZGKL,2025-09-23 03:00,ZGKL 230300Z 03006MPS 9999 FEW030 30/21 Q1009 NOSIG
ZGKL,2025-09-23 04:00,ZGKL 230400Z 05004MPS 010V100 9999 FEW033 31/22 Q1009 NOSIG
ZGKL,2025-09-23 05:00,ZGKL 230500Z 07007MPS 9999 FEW040 31/21 Q1008 NOSIG
ZGKL,2025-09-23 06:00,ZGKL 230600Z 06007MPS 9999 FEW043 SCT056 30/22 Q1007 NOSIG
ZGKL,2025-09-23 07:00,ZGKL 230700Z 05007MPS 030V090 9999 FEW046 SCT060 30/22 Q1007 NOSIG
ZGKL,2025-09-23 08:00,ZGKL 230800Z 05007G12MPS 020V080 9999 FEW046 31/21 Q1006 NOSIG
ZGKL,2025-09-23 09:00,ZGKL 230900Z 05007MPS 9999 FEW050 29/21 Q1006 NOSIG
ZGKL,2025-09-23 10:00,ZGKL 231000Z 06007MPS 9999 FEW026 SCT043 27/21 Q1007 NOSIG
ZGKL,2025-09-23 11:00,ZGKL 231100Z 36003MPS 310V030 9999 SCT036 BKN066 26/21 Q1007 NOSIG
ZGKL,2025-09-23 12:00,ZGKL 231200Z 04003MPS 9999 SCT046 BKN066 26/21 Q1007 NOSIG
ZGKL,2025-09-23 13:00,ZGKL 231300Z 03003MPS 9999 SCT046 BKN066 26/21 Q1008 NOSIG
ZGKL,2025-09-23 14:00,ZGKL 231400Z 04002MPS 010V080 9999 SCT043 BKN066 26/21 Q1008 NOSIG
ZGKL,2025-09-23 15:00,ZGKL 231500Z 05003MPS 010V070 9999 SCT043 OVC060 26/21 Q1008 NOSIG
ZGKL,2025-09-23 16:00,ZGKL 231600Z 03003MPS 010V070 9999 SCT043 OVC060 25/21 Q1008 NOSIG
ZGKL,2025-09-23 17:00,ZGKL 231700Z 01002MPS 340V040 9999 FEW043 BKN056 25/21 Q1008 NOSIG
ZGKL,2025-09-23 18:00,ZGKL 231800Z 06005MPS 9999 FEW043 BKN056 25/20 Q1007 NOSIG
ZGKL,2025-09-23 19:00,ZGKL 231900Z 03003MPS 9999 FEW050 BKN060 25/20 Q1007 NOSIG
ZGKL,2025-09-23 20:00,ZGKL 232000Z 07003MPS 040V110 9999 FEW050 BKN060 25/20 Q1006 NOSIG
ZGKL,2025-09-23 21:00,ZGKL 232100Z 05002MPS 350V070 9999 FEW050 BKN060 24/19 Q1006 NOSIG
ZGKL,2025-09-23 22:00,ZGKL 232200Z 02002MPS 340V070 9999 FEW050 OVC060 24/19 Q1007 NOSIG
ZGKL,2025-09-23 23:00,ZGKL 232300Z 07004MPS 9999 SCT050 BKN073 23/19 Q1007 NOSIG
ZGKL,2025-09-24 00:00,ZGKL 240000Z 01002MPS 300V050 9999 FEW046 SCT073 24/18 Q1007 BECMG FM0130 06007MPS
ZGKL,2025-09-24 01:00,ZGKL 240100Z 04004MPS 360V060 9999 FEW046 SCT073 26/19 Q1007 NOSIG
ZGKL,2025-09-24 02:00,ZGKL 240200Z 06006MPS 9999 SCT036 BKN073 25/18 Q1008 NOSIG
ZGKL,2025-09-24 05:00,ZGKL 240500Z 07005MPS 040V100 9999 SCT043 OVC060 25/18 Q1007 NOSIG
ZGKL,2025-09-24 06:00,ZGKL 240600Z 06004MPS 030V090 9999 SCT040 OVC066 25/18 Q1006 NOSIG
ZGKL,2025-09-24 07:00,ZGKL 240700Z 04004MPS 010V070 9999 -RA SCT043 OVC060 25/18 Q1006 NOSIG
ZGKL,2025-09-24 08:00,ZGKL 240800Z 04005MPS 010V070 9999 SCT043 OVC060 24/18 Q1005 NOSIG
ZGKL,2025-09-24 09:00,ZGKL 240900Z 05005MPS 9999 SCT040 OVC060 24/18 Q1005 NOSIG
ZGKL,2025-09-24 10:00,ZGKL 241000Z 04005MPS 9999 -RA SCT036 OVC060 23/19 Q1005 NOSIG
ZGKL,2025-09-24 11:00,ZGKL 241100Z 04005MPS 9999 -RA SCT036 OVC060 21/19 Q1005 NOSIG
ZGKL,2025-09-24 12:00,ZGKL 241200Z 06005MPS 8000 -RA SCT033 OVC053 21/19 Q1006 NOSIG
ZGKL,2025-09-24 13:00,ZGKL 241300Z 34003MPS 310V030 8000 -RA SCT033 OVC053 20/19 Q1006 NOSIG
ZGKL,2025-09-24 14:00,ZGKL 241400Z 35002MPS 290V050 9999 -RA SCT033 OVC060 21/20 Q1007 NOSIG
ZGKL,2025-09-24 15:00,ZGKL 241500Z 02003MPS 9999 -RA SCT033 OVC060 21/20 Q1007 NOSIG
ZGKL,2025-09-24 16:00,ZGKL 241600Z VRB01MPS 9999 -RA SCT033 OVC060 21/20 Q1007 NOSIG
ZGKL,2025-09-24 17:00,ZGKL 241700Z 07002MPS 9999 -RA SCT033 OVC060 21/20 Q1007 NOSIG
ZGKL,2025-09-24 18:00,ZGKL 241800Z VRB01MPS 9999 -RA SCT033 OVC060 20/20 Q1006 NOSIG
ZGKL,2025-09-24 19:00,ZGKL 241900Z VRB01MPS 9999 -DZ SCT030 OVC056 21/20 Q1006 NOSIG
ZGKL,2025-09-24 20:00,ZGKL 242000Z 35002MPS 9999 SCT030 OVC060 21/20 Q1006 NOSIG
ZGKL,2025-09-24 21:00,ZGKL 242100Z 35001MPS 9999 SCT030 BKN066 21/20 Q1006 NOSIG
ZGKL,2025-09-24 22:00,ZGKL 242200Z 02004MPS 9999 -RA SCT030 BKN066 22/20 Q1006 NOSIG
ZGKL,2025-09-24 23:00,ZGKL 242300Z 03005MPS 9999 -RA SCT030 OVC060 22/20 Q1007 NOSIG
ZGKL,2025-09-25 00:00,ZGKL 250000Z 02004MPS 9999 -RA SCT036 OVC060 22/21 Q1008 NOSIG
ZGKL,2025-09-25 01:00,ZGKL 250100Z 36003MPS 310V030 9999 SCT040 OVC066 22/21 Q1009 NOSIG
ZGKL,2025-09-25 02:00,ZGKL 250200Z 35002MPS 300V030 9999 SCT040 OVC066 23/21 Q1010 NOSIG
ZGKL,2025-09-25 03:00,ZGKL 250300Z 01004MPS 9999 SCT040 OVC066 25/22 Q1010 NOSIG
ZGKL,2025-09-25 04:00,ZGKL 250400Z 02006MPS 9999 SCT040 OVC066 26/21 Q1009 NOSIG
ZGKL,2025-09-25 05:00,ZGKL 250500Z 02005MPS 9999 SCT040 BKN060 26/21 Q1009 NOSIG
ZGKL,2025-09-25 06:00,ZGKL 250600Z 03007MPS 360V060 9999 FEW040 SCT060 29/22 Q1009 NOSIG
ZGKL,2025-09-25 07:00,ZGKL 250700Z 04008MPS 9999 SCT040 OVC060 27/21 Q1009 NOSIG
ZGKL,2025-09-25 08:00,ZGKL 250800Z 04005MPS 9999 SCT036 OVC053 27/21 Q1009 NOSIG
ZGKL,2025-09-25 09:00,ZGKL 250900Z 04005MPS 9999 -RA SCT033 OVC050 24/22 Q1010 NOSIG
ZGKL,2025-09-25 10:00,ZGKL 251000Z VRB01MPS 9999 SCT033 OVC050 24/22 Q1010 NOSIG
ZGKL,2025-09-25 11:00,ZGKL 251100Z 02004MPS 9999 -RA SCT033 OVC050 24/22 Q1011 NOSIG
ZGKL,2025-09-25 12:00,ZGKL 251200Z 03002MPS 310V070 9999 SCT043 23/21 Q1012 NOSIG
ZGKL,2025-09-25 13:00,ZGKL 251300Z 02002MPS 360V060 9999 SCT043 24/21 Q1013 NOSIG
ZGKL,2025-09-25 14:00,ZGKL 251400Z VRB01MPS 9999 SCT043 24/21 Q1014 NOSIG
ZGKL,2025-09-25 15:00,ZGKL 251500Z VRB01MPS 9999 SCT043 23/22 Q1014 NOSIG
ZGKL,2025-09-25 16:00,ZGKL 251600Z VRB01MPS 9999 SCT043 23/21 Q1014 NOSIG
ZGKL,2025-09-25 17:00,ZGKL 251700Z VRB01MPS 9999 SCT043 23/21 Q1014 NOSIG
ZGKL,2025-09-25 18:00,ZGKL 251800Z 21001MPS 9999 SCT043 23/22 Q1014 NOSIG
ZGKL,2025-09-25 19:00,ZGKL 251900Z VRB01MPS 9999 SCT056 23/21 Q1014 NOSIG
ZGKL,2025-09-25 20:00,ZGKL 252000Z VRB01MPS 9999 FEW043 SCT053 23/22 Q1014 NOSIG
ZGKL,2025-09-25 21:00,ZGKL 252100Z VRB01MPS 9999 FEW040 SCT056 23/21 Q1014 NOSIG
ZGKL,2025-09-25 22:00,ZGKL 252200Z 01002MPS 340V050 9999 SCT040 23/21 Q1015 NOSIG
ZGKL,2025-09-25 23:00,ZGKL 252300Z 33003MPS 280V030 6000 -RA FEW013 SCT040 OVC060 22/21 Q1015 NOSIG
ZGKL,2025-09-26 00:00,ZGKL 260000Z VRB01MPS 8000 SCT040 BKN060 23/22 Q1016 NOSIG
ZGKL,2025-09-26 01:00,ZGKL 260100Z VRB01MPS 9999 FEW011 SCT030 25/22 Q1017 NOSIG
ZGKL,2025-09-26 02:00,ZGKL 260200Z 01004MPS 9999 SCT026 27/22 Q1017 NOSIG
ZGKL,2025-09-26 03:00,ZGKL 260300Z 01003MPS 330V030 9999 SCT033 SCT066 28/22 Q1017 NOSIG
ZGKL,2025-09-26 04:00,ZGKL 260400Z 07003MPS 020V110 9999 FEW033 SCT066 29/23 Q1017 NOSIG
ZGKL,2025-09-26 05:00,ZGKL 260500Z 03004MPS 360V080 9999 FEW023 31/22 Q1016 NOSIG
ZGKL,2025-09-26 06:00,ZGKL 260600Z 05003MPS 020V080 9999 FEW030 SCT060 32/22 Q1015 NOSIG
ZGKL,2025-09-26 07:00,ZGKL 260700Z 04002MPS 310V120 9999 FEW033 33/22 Q1014 NOSIG
ZGKL,2025-09-26 08:00,ZGKL 260800Z 10002MPS 340V150 9999 FEW033 SCT066 31/21 Q1014 NOSIG
ZGKL,2025-09-26 09:00,ZGKL 260900Z 04003MPS 010V070 9999 FEW066 33/22 Q1014 NOSIG
ZGKL,2025-09-26 10:00,ZGKL 261000Z 02003MPS CAVOK 31/22 Q1014 NOSIG
ZGKL,2025-09-26 11:00,ZGKL 261100Z VRB01MPS CAVOK 28/23 Q1014 NOSIG
ZGKL,2025-09-26 12:00,ZGKL 261200Z 02003MPS CAVOK 27/23 Q1015 NOSIG
ZGKL,2025-09-26 13:00,ZGKL 261300Z 33002MPS 300V360 CAVOK 26/23 Q1016 NOSIG
ZGKL,2025-09-26 14:00,ZGKL 261400Z VRB01MPS CAVOK 25/23 Q1017 NOSIG
ZGKL,2025-09-26 15:00,ZGKL 261500Z 35002MPS 320V020 CAVOK 25/22 Q1017 NOSIG
ZGKL,2025-09-26 16:00,ZGKL 261600Z VRB01MPS CAVOK 24/22 Q1017 NOSIG
ZGKL,2025-09-26 17:00,ZGKL 261700Z VRB01MPS CAVOK 24/22 Q1017 NOSIG
ZGKL,2025-09-26 18:00,ZGKL 261800Z 33002MPS 290V360 CAVOK 24/22 Q1017 NOSIG
ZGKL,2025-09-26 19:00,ZGKL 261900Z VRB01MPS CAVOK 23/22 Q1017 NOSIG
ZGKL,2025-09-26 20:00,ZGKL 262000Z 32001MPS CAVOK 23/22 Q1016 NOSIG
ZGKL,2025-09-26 21:00,ZGKL 262100Z VRB01MPS CAVOK 22/22 Q1016 NOSIG
ZGKL,2025-09-26 22:00,ZGKL 262200Z 31001MPS CAVOK 22/21 Q1017 NOSIG
ZGKL,2025-09-26 23:00,ZGKL 262300Z 00000MPS CAVOK 22/21 Q1017 NOSIG
ZGKL,2025-09-27 00:00,ZGKL 270000Z VRB01MPS CAVOK 24/22 Q1017 NOSIG
ZGKL,2025-09-27 01:00,ZGKL 270100Z 32002MPS 240V010 CAVOK 26/22 Q1017 NOSIG
ZGKL,2025-09-27 02:00,ZGKL 270200Z VRB02MPS CAVOK 29/21 Q1018 NOSIG
ZGKL,2025-09-27 03:00,ZGKL 270300Z 04004MPS 350V080 CAVOK 30/22 Q1017 NOSIG
ZGKL,2025-09-27 04:00,ZGKL 270400Z 07003MPS 320V110 CAVOK 32/22 Q1016 NOSIG
ZGKL,2025-09-27 05:00,ZGKL 270500Z 04003MPS 350V110 9999 FEW030 33/23 Q1015 NOSIG
ZGKL,2025-09-27 06:00,ZGKL 270600Z 06004MPS 010V100 9999 FEW030 34/23 Q1014 NOSIG
ZGKL,2025-09-27 07:00,ZGKL 270700Z VRB02MPS 9999 FEW030 34/22 Q1013 NOSIG
ZGKL,2025-09-27 08:00,ZGKL 270800Z 09002MPS 040V140 9999 FEW030CB FEW030 34/22 Q1012 BECMG FM0930 FEW030
ZGKL,2025-09-27 09:00,ZGKL 270900Z VRB01MPS 9999 FEW030CB FEW030 34/22 Q1012 BECMG TL1000 FEW030
ZGKL,2025-09-27 10:00,ZGKL 271000Z VRB01MPS 9999 FEW030 33/22 Q1012 NOSIG
ZGKL,2025-09-27 11:00,ZGKL 271100Z VRB01MPS 9999 FEW033 29/23 Q1012 NOSIG
ZGKL,2025-09-27 12:00,ZGKL 271200Z 36002MPS CAVOK 28/23 Q1013 NOSIG
ZGKL,2025-09-27 13:00,ZGKL 271300Z 33002MPS 300V360 CAVOK 27/23 Q1014 NOSIG
ZGKL,2025-09-27 14:00,ZGKL 271400Z 31002MPS CAVOK 26/23 Q1014 NOSIG
ZGKL,2025-09-27 15:00,ZGKL 271500Z VRB01MPS CAVOK 25/23 Q1014 NOSIG
ZGKL,2025-09-27 16:00,ZGKL 271600Z 34002MPS 300V010 9999 FEW050 26/23 Q1015 NOSIG
ZGKL,2025-09-27 17:00,ZGKL 271700Z 33002MPS 300V360 9999 FEW050 25/23 Q1014 NOSIG
ZGKL,2025-09-27 18:00,ZGKL 271800Z VRB01MPS 9999 FEW050 24/23 Q1014 NOSIG
ZGKL,2025-09-27 19:00,ZGKL 271900Z 30001MPS 9999 FEW050 23/22 Q1014 NOSIG
ZGKL,2025-09-27 20:00,ZGKL 272000Z VRB01MPS 9999 FEW050 23/22 Q1013 NOSIG
ZGKL,2025-09-27 21:00,ZGKL 272100Z 31001MPS 9999 FEW060 23/22 Q1013 NOSIG
ZGKL,2025-09-27 22:00,ZGKL 272200Z 29001MPS 9999 FEW056 23/22 Q1014 NOSIG
ZGKL,2025-09-27 23:00,ZGKL 272300Z 29001MPS 8000 FEW056 23/22 Q1014 NOSIG
ZGKL,2025-09-28 00:00,ZGKL 280000Z VRB01MPS 9999 FEW046 26/23 Q1015 NOSIG
ZGKL,2025-09-28 01:00,ZGKL 280100Z 05002MPS 340V090 CAVOK 28/23 Q1015 NOSIG
ZGKL,2025-09-28 02:00,ZGKL 280200Z VRB02MPS CAVOK 30/23 Q1015 NOSIG
ZGKL,2025-09-28 03:00,ZGKL 280300Z 10002MPS 040V140 CAVOK 30/23 Q1014 NOSIG
ZGKL,2025-09-28 04:00,ZGKL 280400Z VRB02MPS 9999 FEW026 32/23 Q1014 NOSIG
ZGKL,2025-09-28 05:00,ZGKL 280500Z VRB01MPS 9999 FEW026 31/23 Q1014 NOSIG
ZGKL,2025-09-28 06:00,ZGKL 280600Z 14002MPS 090V190 9999 FEW033 31/23 Q1013 BECMG TL0730 FEW030CB SCT050
ZGKL,2025-09-28 07:00,ZGKL 280700Z 11002MPS 9999 FEW033 30/23 Q1013 BECMG TL0800 FEW030CB SCT050
ZGKL,2025-09-28 08:00,ZGKL 280800Z 11003MPS 9999 FEW030CB FEW033 31/24 Q1012 BECMG TL0920 SCT040
ZGKL,2025-09-28 09:00,ZGKL 280900Z 11003MPS 090V150 9999 FEW033 30/23 Q1013 NOSIG
ZGKL,2025-09-28 10:00,ZGKL 281000Z VRB01MPS 9999 -RA SCT033 28/24 Q1013 NOSIG
ZGKL,2025-09-28 11:00,ZGKL 281100Z VRB01MPS 9999 FEW066 27/24 Q1014 NOSIG
ZGKL,2025-09-28 12:00,ZGKL 281200Z 24001MPS CAVOK 27/24 Q1014 NOSIG
ZGKL,2025-09-28 13:00,ZGKL 281300Z VRB01MPS 9999 FEW066 26/25 Q1014 NOSIG
ZGKL,2025-09-28 14:00,ZGKL 281400Z VRB01MPS CAVOK 26/24 Q1014 NOSIG
ZGKL,2025-09-28 15:00,ZGKL 281500Z 28001MPS CAVOK 25/24 Q1014 NOSIG
ZGKL,2025-09-28 16:00,ZGKL 281600Z 34002MPS 290V010 9999 FEW043 25/24 Q1013 NOSIG
ZGKL,2025-09-28 17:00,ZGKL 281700Z VRB01MPS 9999 FEW050 25/23 Q1012 NOSIG
ZGKL,2025-09-28 18:00,ZGKL 281800Z 28001MPS CAVOK 24/23 Q1012 NOSIG
ZGKL,2025-09-28 19:00,ZGKL 281900Z VRB01MPS CAVOK 24/23 Q1012 NOSIG
ZGKL,2025-09-28 20:00,ZGKL 282000Z 19001MPS CAVOK 23/23 Q1012 NOSIG
ZGKL,2025-09-28 21:00,ZGKL 282100Z 00000MPS CAVOK 24/23 Q1013 NOSIG
ZGKL,2025-09-28 22:00,ZGKL 282200Z 23001MPS 9999 SCT060 24/23 Q1014 NOSIG
ZGKL,2025-09-28 23:00,ZGKL 282300Z VRB01MPS CAVOK 24/23 Q1015 NOSIG
ZGKL,2025-09-29 00:00,ZGKL 290000Z 36001MPS CAVOK 25/23 Q1015 NOSIG
ZGKL,2025-09-29 01:00,ZGKL 290100Z VRB01MPS 9999 FEW040 SCT073 25/23 Q1016 NOSIG
ZGKL,2025-09-29 02:00,ZGKL 290200Z VRB01MPS 9999 SCT050 28/24 Q1017 NOSIG
ZGKL,2025-09-29 03:00,ZGKL 290300Z VRB02MPS 9999 FEW050 31/24 Q1016 NOSIG
ZGKL,2025-09-29 04:00,ZGKL 290400Z VRB02MPS 9999 FEW030 SCT043 30/23 Q1015 NOSIG
ZGKL,2025-09-29 05:00,ZGKL 290500Z VRB01MPS 9999 FEW033 SCT050 32/24 Q1014 NOSIG
ZGKL,2025-09-29 06:00,ZGKL 290600Z 13002MPS 090V200 9999 FEW036 SCT046 31/23 Q1013 NOSIG
ZGKL,2025-09-29 07:00,ZGKL 290700Z 11002MPS 060V150 9999 FEW036 SCT050 31/24 Q1013 NOSIG
ZGKL,2025-09-29 08:00,ZGKL 290800Z 15002MPS 110V180 9999 FEW036 SCT053 30/24 Q1012 NOSIG
ZGKL,2025-09-29 09:00,ZGKL 290900Z 16002MPS 120V190 9999 FEW040 SCT053 30/23 Q1012 NOSIG
ZGKL,2025-09-29 10:00,ZGKL 291000Z VRB01MPS 9999 FEW043 SCT060 29/24 Q1012 NOSIG
ZGKL,2025-09-29 11:00,ZGKL 291100Z 27001MPS 9999 SCT043 BKN073 28/24 Q1012 NOSIG
ZGKL,2025-09-29 12:00,ZGKL 291200Z 26001MPS 9999 SCT043 BKN073 27/24 Q1013 NOSIG
ZGKL,2025-09-29 13:00,ZGKL 291300Z VRB01MPS 9999 FEW050 BKN073 26/24 Q1014 NOSIG
ZGKL,2025-09-29 14:00,ZGKL 291400Z VRB01MPS 9999 FEW050 BKN073 26/24 Q1014 NOSIG
ZGKL,2025-09-29 15:00,ZGKL 291500Z VRB01MPS 9999 FEW050 SCT073 26/24 Q1014 NOSIG
ZGKL,2025-09-29 16:00,ZGKL 291600Z VRB01MPS 8000 FEW050 BKN073 25/24 Q1014 NOSIG
ZGKL,2025-09-29 17:00,ZGKL 291700Z 27001MPS 9000 FEW050 BKN073 25/23 Q1014 NOSIG
ZGKL,2025-09-29 18:00,ZGKL 291800Z VRB01MPS 9000 FEW053 BKN073 25/23 Q1014 NOSIG
ZGKL,2025-09-29 19:00,ZGKL 291900Z VRB01MPS 9000 FEW053 BKN073 24/23 Q1014 NOSIG
ZGKL,2025-09-29 20:00,ZGKL 292000Z 30001MPS 9999 FEW053 24/23 Q1013 NOSIG
ZGKL,2025-09-29 21:00,ZGKL 292100Z 34001MPS 9999 FEW043 BKN060 24/23 Q1013 NOSIG
ZGKL,2025-09-29 22:00,ZGKL 292200Z VRB01MPS 9999 FEW043 BKN060 24/23 Q1014 NOSIG
ZGKL,2025-09-29 23:00,ZGKL 292300Z VRB01MPS 8000 SCT036 OVC060 25/24 Q1014 NOSIG
ZGKL,2025-09-30 00:00,ZGKL 300000Z VRB01MPS 8000 SCT036 BKN060 25/24 Q1015 NOSIG
ZGKL,2025-09-30 01:00,ZGKL 300100Z VRB01MPS 6000 NSC 27/24 Q1015 NOSIG
ZGKL,2025-09-30 02:00,ZGKL 300200Z 05002MPS 010V110 7000 NSC 29/25 Q1015 NOSIG
ZGKL,2025-09-30 03:00,ZGKL 300300Z VRB02MPS 7000 FEW020 SCT040 30/25 Q1015 NOSIG
ZGKL,2025-09-30 04:00,ZGKL 300400Z VRB01MPS 7000 FEW013 SCT033 30/24 Q1014 NOSIG
ZGKL,2025-09-30 05:00,ZGKL 300500Z VRB01MPS 8000 SCT030 30/24 Q1014 NOSIG
ZGKL,2025-09-30 06:00,ZGKL 300600Z VRB01MPS 9000 FEW016 32/24 Q1013 NOSIG
ZGKL,2025-09-30 07:00,ZGKL 300700Z VRB02MPS 9999 FEW020 32/24 Q1012 NOSIG
ZGKL,2025-09-30 08:00,ZGKL 300800Z 07002MPS 010V120 9999 FEW026 32/23 Q1011 NOSIG
ZGKL,2025-09-30 09:00,ZGKL 300900Z VRB01MPS 9999 FEW053 31/23 Q1011 NOSIG
ZGKL,2025-09-30 10:00,ZGKL 301000Z 32001MPS 9999 FEW066 30/24 Q1011 NOSIG
ZGKL,2025-09-30 11:00,ZGKL 301100Z 28001MPS 9999 SCT040 28/24 Q1012 NOSIG
ZGKL,2025-09-30 12:00,ZGKL 301200Z 28001MPS 9999 FEW050 BKN073 27/24 Q1013 NOSIG
ZGKL,2025-09-30 13:00,ZGKL 301300Z 33001MPS CAVOK 27/24 Q1013 NOSIG
ZGKL,2025-09-30 14:00,ZGKL 301400Z VRB01MPS CAVOK 26/24 Q1014 NOSIG
ZGKL,2025-09-30 15:00,ZGKL 301500Z VRB01MPS CAVOK 26/24 Q1014 NOSIG
ZGKL,2025-09-30 16:00,ZGKL 301600Z 00000MPS CAVOK 25/23 Q1014 NOSIG
ZGKL,2025-09-30 17:00,ZGKL 301700Z 00000MPS CAVOK 25/23 Q1013 NOSIG
ZGKL,2025-09-30 18:00,ZGKL 301800Z 28001MPS 8000 NSC 24/23 Q1013 NOSIG
ZGKL,2025-09-30 19:00,ZGKL 301900Z 31001MPS 8000 NSC 24/23 Q1013 NOSIG
ZGKL,2025-09-30 20:00,ZGKL 302000Z 32001MPS 8000 NSC 24/23 Q1012 NOSIG
ZGKL,2025-09-30 21:00,ZGKL 302100Z VRB01MPS 9000 NSC 24/23 Q1012 NOSIG
ZGKL,2025-09-30 22:00,ZGKL 302200Z 00000MPS 7000 NSC 23/23 Q1013 NOSIG
ZGKL,2025-09-30 23:00,ZGKL 302300Z VRB01MPS 7000 NSC 23/23 Q1013 NOSIG
ZGKL,2025-10-01 00:00,ZGKL 010000Z VRB01MPS 7000 FEW030 BKN046 25/24 Q1014 NOSIG
ZGKL,2025-10-01 01:00,ZGKL 010100Z VRB01MPS 7000 NSC 27/24 Q1014 NOSIG
ZGKL,2025-10-01 02:00,ZGKL 010200Z VRB01MPS 7000 NSC 29/24 Q1014 NOSIG
ZGKL,2025-10-01 03:00,ZGKL 010300Z VRB01MPS 9999 FEW026 31/24 Q1014 NOSIG
ZGKL,2025-10-01 04:00,ZGKL 010400Z 15003MPS 110V200 9999 FEW026 32/24 Q1013 NOSIG
ZGKL,2025-10-01 05:00,ZGKL 010500Z VRB03MPS 9999 FEW026 33/24 Q1012 NOSIG
ZGKL,2025-10-01 06:00,ZGKL 010600Z 20003MPS 160V250 9999 FEW030 33/23 Q1011 NOSIG
ZGKL,2025-10-01 07:00,ZGKL 010700Z 16005MPS 9999 FEW030 34/22 Q1010 NOSIG
ZGKL,2025-10-01 08:00,ZGKL 010800Z 20004MPS 170V230 9999 FEW030 34/22 Q1010 NOSIG
ZGKL,2025-10-01 09:00,ZGKL 010900Z 20003MPS CAVOK 32/22 Q1010 NOSIG
ZGKL,2025-10-01 10:00,ZGKL 011000Z 20003MPS CAVOK 31/21 Q1010 NOSIG
ZGKL,2025-10-01 11:00,ZGKL 011100Z 17002MPS CAVOK 28/22 Q1010 NOSIG
ZGKL,2025-10-01 12:00,ZGKL 011200Z 24002MPS CAVOK 28/23 Q1011 NOSIG
ZGKL,2025-10-01 13:00,ZGKL 011300Z VRB01MPS CAVOK 26/22 Q1012 NOSIG
ZGKL,2025-10-01 14:00,ZGKL 011400Z VRB01MPS CAVOK 25/22 Q1013 NOSIG
ZGKL,2025-10-01 15:00,ZGKL 011500Z VRB01MPS CAVOK 25/22 Q1013 NOSIG
ZGKL,2025-10-01 16:00,ZGKL 011600Z 00000MPS CAVOK 24/23 Q1012 NOSIG
ZGKL,2025-10-01 17:00,ZGKL 011700Z 00000MPS CAVOK 24/23 Q1012 NOSIG
ZGKL,2025-10-01 18:00,ZGKL 011800Z 00000MPS CAVOK 24/22 Q1012 NOSIG
ZGKL,2025-10-01 19:00,ZGKL 011900Z VRB01MPS CAVOK 23/22 Q1012 NOSIG
ZGKL,2025-10-01 20:00,ZGKL 012000Z VRB01MPS CAVOK 23/22 Q1012 NOSIG
ZGKL,2025-10-01 21:00,ZGKL 012100Z VRB01MPS CAVOK 23/22 Q1012 NOSIG
ZGKL,2025-10-01 22:00,ZGKL 012200Z VRB01MPS CAVOK 22/21 Q1012 NOSIG
ZGKL,2025-10-01 23:00,ZGKL 012300Z VRB01MPS CAVOK 22/22 Q1013 NOSIG
ZGKL,2025-10-02 00:00,ZGKL 020000Z 00000MPS CAVOK 25/22 Q1013 NOSIG
ZGKL,2025-10-02 01:00,ZGKL 020100Z VRB01MPS 9999 FEW040 27/23 Q1014 NOSIG
ZGKL,2025-10-02 02:00,ZGKL 020200Z 18003MPS 9999 FEW040 29/24 Q1014 NOSIG
ZGKL,2025-10-02 03:00,ZGKL 020300Z 18003MPS 140V220 9999 FEW040 32/24 Q1014 NOSIG
ZGKL,2025-10-02 04:00,ZGKL 020400Z 18004MPS 140V210 9999 FEW036 SCT050 32/23 Q1013 NOSIG
ZGKL,2025-10-02 05:00,ZGKL 020500Z 19005MPS 160V240 9999 SCT033 33/23 Q1012 NOSIG
ZGKL,2025-10-02 06:00,ZGKL 020600Z 19005MPS 160V220 9999 FEW033 34/22 Q1011 NOSIG
ZGKL,2025-10-02 07:00,ZGKL 020700Z 17006MPS 9999 FEW036 34/22 Q1010 NOSIG
ZGKL,2025-10-02 08:00,ZGKL 020800Z 18006MPS 9999 FEW036 34/22 Q1010 NOSIG
ZGKL,2025-10-02 09:00,ZGKL 020900Z 19005MPS CAVOK 33/22 Q1010 NOSIG
ZGKL,2025-10-02 10:00,ZGKL 021000Z 19004MPS CAVOK 30/21 Q1010 NOSIG
ZGKL,2025-10-02 11:00,ZGKL 021100Z 22002MPS CAVOK 28/22 Q1010 NOSIG
ZGKL,2025-10-02 12:00,ZGKL 021200Z 24002MPS CAVOK 27/22 Q1011 NOSIG
ZGKL,2025-10-02 13:00,ZGKL 021300Z 21002MPS CAVOK 27/22 Q1011 NOSIG
ZGKL,2025-10-02 14:00,ZGKL 021400Z VRB01MPS CAVOK 26/22 Q1012 NOSIG
ZGKL,2025-10-02 15:00,ZGKL 021500Z VRB01MPS CAVOK 25/22 Q1012 NOSIG
ZGKL,2025-10-02 16:00,ZGKL 021600Z 29002MPS CAVOK 24/22 Q1012 NOSIG
ZGKL,2025-10-02 17:00,ZGKL 021700Z 36001MPS CAVOK 23/22 Q1012 NOSIG
ZGKL,2025-10-02 18:00,ZGKL 021800Z 31001MPS CAVOK 23/21 Q1012 NOSIG
ZGKL,2025-10-02 19:00,ZGKL 021900Z VRB01MPS CAVOK 23/21 Q1012 NOSIG
ZGKL,2025-10-02 20:00,ZGKL 022000Z VRB01MPS CAVOK 23/21 Q1012 NOSIG
ZGKL,2025-10-02 21:00,ZGKL 022100Z VRB01MPS 9999 FEW036 SCT060 22/21 Q1012 NOSIG
ZGKL,2025-10-02 22:00,ZGKL 022200Z VRB01MPS 9999 FEW036 SCT060 22/21 Q1013 NOSIG
ZGKL,2025-10-02 23:00,ZGKL 022300Z 26001MPS 8000 SCT050 22/21 Q1013 NOSIG
ZGKL,2025-10-03 00:00,ZGKL 030000Z 00000MPS 9999 FEW060 24/22 Q1014 NOSIG
ZGKL,2025-10-03 01:00,ZGKL 030100Z VRB01MPS CAVOK 27/23 Q1014 NOSIG
ZGKL,2025-10-03 02:00,ZGKL 030200Z 17003MPS 130V210 CAVOK 30/24 Q1014 NOSIG
ZGKL,2025-10-03 03:00,ZGKL 030300Z 18005MPS 9999 FEW026 31/23 Q1014 NOSIG
ZGKL,2025-10-03 04:00,ZGKL 030400Z 17005MPS 130V210 9999 SCT030 32/24 Q1013 NOSIG
ZGKL,2025-10-03 05:00,ZGKL 030500Z 18005MPS 150V210 9999 SCT033 33/23 Q1012 NOSIG
ZGKL,2025-10-03 06:00,ZGKL 030600Z 17005MPS 9999 SCT033 34/23 Q1011 NOSIG
ZGKL,2025-10-03 07:00,ZGKL 030700Z 19005MPS 140V220 9999 FEW033 34/22 Q1010 NOSIG
ZGKL,2025-10-03 08:00,ZGKL 030800Z 20004MPS 160V250 9999 FEW033 34/21 Q1010 NOSIG
ZGKL,2025-10-03 09:00,ZGKL 030900Z 20003MPS 170V250 9999 FEW033 33/21 Q1010 NOSIG
ZGKL,2025-10-03 10:00,ZGKL 031000Z 18002MPS 9999 FEW060 31/22 Q1010 NOSIG
ZGKL,2025-10-03 11:00,ZGKL 031100Z 26002MPS CAVOK 29/22 Q1011 NOSIG
ZGKL,2025-10-03 12:00,ZGKL 031200Z 28001MPS 9999 FEW053 SCT066 27/23 Q1012 NOSIG
ZGKL,2025-10-03 13:00,ZGKL 031300Z 29001MPS 9999 FEW066 27/22 Q1013 NOSIG
ZGKL,2025-10-03 14:00,ZGKL 031400Z 34001MPS 9999 SCT070 26/23 Q1013 NOSIG
ZGKL,2025-10-03 15:00,ZGKL 031500Z VRB01MPS 9999 SCT066 26/23 Q1014 NOSIG
ZGKL,2025-10-03 16:00,ZGKL 031600Z VRB01MPS 9999 SCT066 25/23 Q1014 NOSIG
ZGKL,2025-10-03 17:00,ZGKL 031700Z VRB01MPS 9999 FEW050 25/22 Q1014 NOSIG
ZGKL,2025-10-03 18:00,ZGKL 031800Z VRB01MPS 9999 SCT050 SCT066 25/22 Q1013 NOSIG
ZGKL,2025-10-03 19:00,ZGKL 031900Z VRB01MPS 9999 SCT050 SCT073 25/22 Q1013 NOSIG
ZGKL,2025-10-03 20:00,ZGKL 032000Z 00000MPS 9999 FEW066 24/22 Q1013 NOSIG
ZGKL,2025-10-03 21:00,ZGKL 032100Z VRB01MPS CAVOK 24/22 Q1013 NOSIG
ZGKL,2025-10-03 22:00,ZGKL 032200Z VRB01MPS CAVOK 23/22 Q1013 NOSIG
ZGKL,2025-10-03 23:00,ZGKL 032300Z VRB01MPS CAVOK 23/22 Q1013 NOSIG
ZGKL,2025-10-04 00:00,ZGKL 040000Z VRB01MPS CAVOK 25/23 Q1014 NOSIG
ZGKL,2025-10-04 01:00,ZGKL 040100Z VRB01MPS CAVOK 27/23 Q1015 NOSIG
ZGKL,2025-10-04 02:00,ZGKL 040200Z VRB01MPS CAVOK 31/23 Q1015 NOSIG
ZGKL,2025-10-04 03:00,ZGKL 040300Z VRB01MPS 9999 FEW026 31/23 Q1014 NOSIG
ZGKL,2025-10-04 04:00,ZGKL 040400Z 14002MPS 040V200 9999 FEW026 33/23 Q1013 NOSIG
ZGKL,2025-10-04 05:00,ZGKL 040500Z VRB01MPS 9999 FEW026 34/23 Q1012 NOSIG
ZGKL,2025-10-04 06:00,ZGKL 040600Z VRB02MPS 9999 FEW026 35/22 Q1011 NOSIG
ZGKL,2025-10-04 07:00,ZGKL 040700Z 19003MPS 150V240 9999 FEW026 35/22 Q1010 NOSIG
ZGKL,2025-10-04 08:00,ZGKL 040800Z VRB01MPS CAVOK 35/21 Q1009 NOSIG
ZGKL,2025-10-04 09:00,ZGKL 040900Z VRB01MPS CAVOK 35/22 Q1009 NOSIG
ZGKL,2025-10-04 10:00,ZGKL 041000Z VRB01MPS CAVOK 33/22 Q1009 NOSIG
ZGKL,2025-10-04 11:00,ZGKL 041100Z 28002MPS CAVOK 30/23 Q1009 NOSIG
ZGKL,2025-10-04 12:00,ZGKL 041200Z VRB01MPS CAVOK 27/23 Q1010 NOSIG
ZGKL,2025-10-04 13:00,ZGKL 041300Z 29001MPS CAVOK 27/23 Q1011 NOSIG
ZGKL,2025-10-04 14:00,ZGKL 041400Z 29002MPS CAVOK 26/23 Q1011 NOSIG
ZGKL,2025-10-04 15:00,ZGKL 041500Z 31001MPS CAVOK 26/22 Q1011 NOSIG
ZGKL,2025-10-04 16:00,ZGKL 041600Z VRB01MPS CAVOK 25/23 Q1011 NOSIG
ZGKL,2025-10-04 17:00,ZGKL 041700Z 34001MPS CAVOK 25/22 Q1011 NOSIG
ZGKL,2025-10-04 18:00,ZGKL 041800Z VRB01MPS CAVOK 24/22 Q1011 NOSIG
ZGKL,2025-10-04 19:00,ZGKL 041900Z 00000MPS CAVOK 24/22 Q1011 NOSIG
ZGKL,2025-10-04 20:00,ZGKL 042000Z 00000MPS CAVOK 23/22 Q1011 NOSIG
ZGKL,2025-10-04 21:00,ZGKL 042100Z 35001MPS CAVOK 23/22 Q1011 NOSIG
ZGKL,2025-10-04 22:00,ZGKL 042200Z 36001MPS CAVOK 23/22 Q1011 NOSIG
ZGKL,2025-10-04 23:00,ZGKL 042300Z VRB01MPS CAVOK 23/22 Q1012 NOSIG
ZGKL,2025-10-05 00:00,ZGKL 050000Z VRB01MPS CAVOK 25/23 Q1012 NOSIG
ZGKL,2025-10-05 01:00,ZGKL 050100Z VRB01MPS CAVOK 29/23 Q1012 NOSIG
ZGKL,2025-10-05 02:00,ZGKL 050200Z 04003MPS 350V080 CAVOK 31/23 Q1013 NOSIG
ZGKL,2025-10-05 03:00,ZGKL 050300Z 05003MPS 360V080 CAVOK 33/23 Q1012 NOSIG
ZGKL,2025-10-05 04:00,ZGKL 050400Z 06004MPS 010V100 9999 FEW026 SCT046 34/21 Q1011 NOSIG
ZGKL,2025-10-05 05:00,ZGKL 050500Z VRB03MPS 9999 FEW026 SCT050 34/21 Q1010 NOSIG
ZGKL,2025-10-05 06:00,ZGKL 050600Z VRB01MPS 9999 FEW030 SCT053 34/21 Q1009 NOSIG
ZGKL,2025-10-05 07:00,ZGKL 050700Z VRB01MPS 9999 FEW033 SCT050 35/21 Q1008 NOSIG
ZGKL,2025-10-05 08:00,ZGKL 050800Z 10005MPS 9999 FEW026 SCT040 32/22 Q1009 BECMG TL0900 18002MPS
ZGKL,2025-10-05 09:00,ZGKL 050900Z 15004MPS 9999 FEW026 SCT060 31/21 Q1009 NOSIG
ZGKL,2025-10-05 10:00,ZGKL 051000Z 14003MPS 100V170 9999 FEW043 30/21 Q1009 NOSIG
ZGKL,2025-10-05 11:00,ZGKL 051100Z 17002MPS 120V190 9999 FEW043 29/21 Q1009 NOSIG
ZGKL,2025-10-05 12:00,ZGKL 051200Z VRB01MPS CAVOK 27/22 Q1010 NOSIG
ZGKL,2025-10-05 13:00,ZGKL 051300Z VRB01MPS 9999 FEW043 27/22 Q1011 NOSIG
ZGKL,2025-10-05 14:00,ZGKL 051400Z VRB01MPS CAVOK 26/23 Q1011 NOSIG
ZGKL,2025-10-05 15:00,ZGKL 051500Z VRB01MPS 9999 SCT060 26/23 Q1011 NOSIG
ZGKL,2025-10-05 16:00,ZGKL 051600Z VRB01MPS 9999 SCT056 26/21 Q1011 NOSIG
ZGKL,2025-10-05 17:00,ZGKL 051700Z 20001MPS 9999 SCT060 26/21 Q1011 NOSIG
ZGKL,2025-10-05 18:00,ZGKL 051800Z 36001MPS 9999 SCT060 25/22 Q1010 NOSIG
ZGKL,2025-10-05 19:00,ZGKL 051900Z VRB01MPS 9999 FEW036 SCT050 24/22 Q1010 NOSIG
ZGKL,2025-10-05 20:00,ZGKL 052000Z 06002MPS 030V090 9999 FEW040 25/22 Q1010 NOSIG
ZGKL,2025-10-05 21:00,ZGKL 052100Z VRB01MPS 9999 FEW050 SCT060 24/22 Q1010 NOSIG
ZGKL,2025-10-05 22:00,ZGKL 052200Z 01002MPS 9999 SCT050 24/22 Q1011 NOSIG
ZGKL,2025-10-05 23:00,ZGKL 052300Z 04003MPS 9999 SCT043 SCT066 25/22 Q1011 NOSIG
ZGKL,2025-10-06 00:00,ZGKL 060000Z VRB01MPS 9999 FEW020 SCT046 24/22 Q1012 NOSIG
ZGKL,2025-10-06 01:00,ZGKL 060100Z VRB01MPS 9999 FEW020 SCT040 BKN060 25/22 Q1013 NOSIG
ZGKL,2025-10-06 02:00,ZGKL 060200Z 02002MPS 320V070 9999 FEW020 SCT040 27/22 Q1013 NOSIG
ZGKL,2025-10-06 03:00,ZGKL 060300Z 03002MPS 010V070 9999 FEW020 SCT053 28/22 Q1014 NOSIG
ZGKL,2025-10-06 04:00,ZGKL 060400Z VRB01MPS 9999 FEW020 SCT046 29/21 Q1013 NOSIG
ZGKL,2025-10-06 05:00,ZGKL 060500Z VRB01MPS 9999 SCT033 BKN066 29/22 Q1012 NOSIG
ZGKL,2025-10-06 06:00,ZGKL 060600Z VRB02MPS 9999 FEW020 SCT036 31/21 Q1012 NOSIG
ZGKL,2025-10-06 07:00,ZGKL 060700Z 10003MPS 040V130 9999 FEW023 SCT040 32/21 Q1011 NOSIG
ZGKL,2025-10-06 08:00,ZGKL 060800Z 12004MPS 090V150 9999 SCT040 32/21 Q1011 NOSIG
ZGKL,2025-10-06 09:00,ZGKL 060900Z 12003MPS 9999 FEW043 31/21 Q1011 NOSIG
ZGKL,2025-10-06 10:00,ZGKL 061000Z 12001MPS 9999 FEW046 30/21 Q1011 NOSIG
ZGKL,2025-10-06 11:00,ZGKL 061100Z 10002MPS 060V130 9999 FEW046 29/21 Q1012 NOSIG
ZGKL,2025-10-06 12:00,ZGKL 061200Z 32002MPS 9999 FEW066 27/23 Q1013 NOSIG
ZGKL,2025-10-06 13:00,ZGKL 061300Z VRB01MPS 9999 FEW066 26/23 Q1014 NOSIG
ZGKL,2025-10-06 14:00,ZGKL 061400Z VRB01MPS 9999 FEW066 25/22 Q1014 NOSIG
ZGKL,2025-10-06 15:00,ZGKL 061500Z 35001MPS 9999 FEW060 24/23 Q1014 NOSIG
ZGKL,2025-10-06 16:00,ZGKL 061600Z 29001MPS 9999 FEW060 24/23 Q1014 NOSIG
ZGKL,2025-10-06 17:00,ZGKL 061700Z VRB01MPS 9999 FEW060 23/22 Q1014 NOSIG
ZGKL,2025-10-06 18:00,ZGKL 061800Z 01001MPS 9999 FEW060 24/22 Q1014 NOSIG
ZGKL,2025-10-06 19:00,ZGKL 061900Z VRB01MPS 9999 FEW040 23/22 Q1014 NOSIG
ZGKL,2025-10-06 20:00,ZGKL 062000Z 03001MPS 9999 SCT040 BKN066 23/22 Q1014 NOSIG
ZGKL,2025-10-06 21:00,ZGKL 062100Z 35001MPS 9999 FEW046 BKN066 23/22 Q1014 NOSIG
ZGKL,2025-10-06 22:00,ZGKL 062200Z VRB01MPS 9999 FEW046 23/22 Q1015 NOSIG
ZGKL,2025-10-06 23:00,ZGKL 062300Z 36002MPS 9999 FEW040 23/22 Q1015 NOSIG
ZGKL,2025-10-07 00:00,ZGKL 070000Z VRB01MPS 9999 FEW033 25/22 Q1016 NOSIG
ZGKL,2025-10-07 01:00,ZGKL 070100Z VRB01MPS CAVOK 29/22 Q1017 NOSIG
ZGKL,2025-10-07 02:00,ZGKL 070200Z VRB01MPS CAVOK 31/22 Q1017 NOSIG
ZGKL,2025-10-07 03:00,ZGKL 070300Z VRB02MPS CAVOK 32/23 Q1017 NOSIG
ZGKL,2025-10-07 04:00,ZGKL 070400Z VRB02MPS 9999 FEW026 32/22 Q1016 NOSIG
ZGKL,2025-10-07 05:00,ZGKL 070500Z VRB01MPS 9999 FEW030 32/22 Q1015 NOSIG
ZGKL,2025-10-07 06:00,ZGKL 070600Z VRB02MPS 9999 FEW030 34/21 Q1014 NOSIG
ZGKL,2025-10-07 07:00,ZGKL 070700Z VRB01MPS 9999 FEW030 35/21 Q1013 NOSIG
ZGKL,2025-10-07 08:00,ZGKL 070800Z VRB02MPS 9999 FEW026 34/21 Q1013 NOSIG
ZGKL,2025-10-07 09:00,ZGKL 070900Z 24002MPS CAVOK 33/21 Q1013 NOSIG
ZGKL,2025-10-07 10:00,ZGKL 071000Z VRB01MPS CAVOK 31/23 Q1013 NOSIG
ZGKL,2025-10-07 11:00,ZGKL 071100Z 27002MPS CAVOK 28/22 Q1013 NOSIG
ZGKL,2025-10-07 12:00,ZGKL 071200Z VRB01MPS CAVOK 27/22 Q1014 NOSIG
ZGKL,2025-10-07 13:00,ZGKL 071300Z 30001MPS CAVOK 26/22 Q1015 NOSIG
ZGKL,2025-10-07 14:00,ZGKL 071400Z 27001MPS CAVOK 26/22 Q1015 NOSIG
ZGKL,2025-10-07 15:00,ZGKL 071500Z 27001MPS CAVOK 24/22 Q1015 NOSIG
ZGKL,2025-10-07 16:00,ZGKL 071600Z VRB01MPS CAVOK 24/22 Q1015 NOSIG
ZGKL,2025-10-07 17:00,ZGKL 071700Z VRB01MPS CAVOK 24/22 Q1015 NOSIG
ZGKL,2025-10-07 18:00,ZGKL 071800Z 28001MPS CAVOK 23/22 Q1015 NOSIG
ZGKL,2025-10-07 19:00,ZGKL 071900Z 23001MPS CAVOK 23/21 Q1014 NOSIG
ZGKL,2025-10-07 20:00,ZGKL 072000Z 00000MPS CAVOK 22/21 Q1014 NOSIG
ZGKL,2025-10-07 21:00,ZGKL 072100Z 16001MPS CAVOK 22/21 Q1014 NOSIG
ZGKL,2025-10-07 22:00,ZGKL 072200Z 00000MPS CAVOK 23/21 Q1014 NOSIG
ZGKL,2025-10-07 23:00,ZGKL 072300Z VRB01MPS CAVOK 22/22 Q1015 NOSIG
ZGKL,2025-10-08 00:00,ZGKL 080000Z VRB01MPS CAVOK 25/23 Q1016 NOSIG
ZGKL,2025-10-08 01:00,ZGKL 080100Z 36001MPS 9999 FEW070 26/22 Q1016 NOSIG
ZGKL,2025-10-08 02:00,ZGKL 080200Z VRB01MPS CAVOK 30/22 Q1016 NOSIG
ZGKL,2025-10-08 03:00,ZGKL 080300Z VRB01MPS CAVOK 32/22 Q1015 NOSIG
ZGKL,2025-10-08 04:00,ZGKL 080400Z 12002MPS 080V210 9999 FEW026 34/23 Q1014 NOSIG
ZGKL,2025-10-08 05:00,ZGKL 080500Z VRB01MPS 9999 FEW026TCU FEW026 36/23 Q1013 BECMG TL0600 FEW030CB
ZGKL,2025-10-08 06:00,ZGKL 080600Z 20003MPS 120V260 9999 FEW026CB FEW026 34/23 Q1012 BECMG TL0700 FEW040
ZGKL,2025-10-08 07:00,ZGKL 080700Z 20003MPS 140V250 9999 FEW026CB FEW026 36/23 Q1011 BECMG TL0800 FEW040
ZGKL,2025-10-08 08:00,ZGKL 080800Z 16003MPS 120V210 9999 FEW026TCU FEW026 35/22 Q1011 NOSIG
ZGKL,2025-10-08 09:00,ZGKL 080900Z 21002MPS 9999 FEW026TCU 33/23 Q1010 NOSIG
ZGKL,2025-10-08 10:00,ZGKL 081000Z 25002MPS 210V280 CAVOK 32/24 Q1010 NOSIG
ZGKL,2025-10-08 11:00,ZGKL 081100Z 20002MPS CAVOK 28/24 Q1011 NOSIG
ZGKL,2025-10-08 12:00,ZGKL 081200Z 19002MPS CAVOK 27/24 Q1011 NOSIG
ZGKL,2025-10-08 13:00,ZGKL 081300Z 20002MPS CAVOK 27/24 Q1012 NOSIG
ZGKL,2025-10-08 14:00,ZGKL 081400Z 23001MPS CAVOK 26/23 Q1012 NOSIG
ZGKL,2025-10-08 15:00,ZGKL 081500Z VRB01MPS CAVOK 26/23 Q1013 NOSIG
ZGKL,2025-10-08 16:00,ZGKL 081600Z 31001MPS 9999 SCT060 25/23 Q1013 NOSIG
ZGKL,2025-10-08 17:00,ZGKL 081700Z 00000MPS 9999 SCT046 25/23 Q1013 NOSIG
ZGKL,2025-10-08 18:00,ZGKL 081800Z VRB01MPS 9999 FEW046 25/23 Q1013 NOSIG
ZGKL,2025-10-08 19:00,ZGKL 081900Z 00000MPS 9999 FEW046 24/23 Q1013 NOSIG
ZGKL,2025-10-08 20:00,ZGKL 082000Z VRB01MPS 9999 FEW030TCU SCT043 24/23 Q1013 NOSIG
ZGKL,2025-10-08 21:00,ZGKL 082100Z 01001MPS 9999 FEW026CB FEW043 24/23 Q1013 NOSIG
ZGKL,2025-10-08 22:00,ZGKL 082200Z 26001MPS 9999 FEW026CB FEW043 23/22 Q1013 BECMG TL2330 SCT033
ZGKL,2025-10-08 23:00,ZGKL 082300Z 00000MPS 9999 FEW030CB FEW030 23/23 Q1014 BECMG AT0010 FEW030
ZGKL,2025-10-09 00:00,ZGKL 090000Z VRB01MPS 9999 FEW046 25/23 Q1014 NOSIG
ZGKL,2025-10-09 01:00,ZGKL 090100Z VRB01MPS 9999 FEW033CB FEW033 SCT050 26/23 Q1015 BECMG TL0200 FEW040 SCT060
ZGKL,2025-10-09 02:00,ZGKL 090200Z VRB01MPS 8000 FEW040CB FEW040 SCT066 28/24 Q1015 BECMG TL0300 FEW040 SCT060
ZGKL,2025-10-09 03:00,ZGKL 090300Z 15002MPS 070V190 8000 FEW016 29/24 Q1015 NOSIG
ZGKL,2025-10-09 04:00,ZGKL 090400Z 14003MPS 100V160 9999 FEW020 SCT050 29/24 Q1014 NOSIG
ZGKL,2025-10-09 05:00,ZGKL 090500Z VRB01MPS 9999 FEW030 SCT050 30/24 Q1013 NOSIG
ZGKL,2025-10-09 06:00,ZGKL 090600Z VRB01MPS 9999 FEW026 32/24 Q1012 NOSIG
ZGKL,2025-10-09 07:00,ZGKL 090700Z VRB02MPS 9999 FEW030 33/23 Q1011 NOSIG
ZGKL,2025-10-09 08:00,ZGKL 090800Z 17002MPS 100V250 9999 FEW030 33/24 Q1011 NOSIG
ZGKL,2025-10-09 09:00,ZGKL 090900Z VRB01MPS 9999 FEW030 33/23 Q1011 NOSIG
ZGKL,2025-10-09 10:00,ZGKL 091000Z 20001MPS 9999 FEW030 31/24 Q1011 NOSIG
ZGKL,2025-10-09 11:00,ZGKL 091100Z 27002MPS 9999 FEW043 29/24 Q1011 NOSIG
ZGKL,2025-10-09 12:00,ZGKL 091200Z 28002MPS CAVOK 27/24 Q1012 NOSIG
ZGKL,2025-10-09 13:00,ZGKL 091300Z VRB01MPS CAVOK 25/24 Q1013 NOSIG
ZGKL,2025-10-09 14:00,ZGKL 091400Z VRB01MPS CAVOK 26/24 Q1013 NOSIG
ZGKL,2025-10-09 15:00,ZGKL 091500Z VRB01MPS CAVOK 25/24 Q1013 NOSIG
ZGKL,2025-10-09 16:00,ZGKL 091600Z 30001MPS CAVOK 25/24 Q1013 NOSIG
ZGKL,2025-10-09 17:00,ZGKL 091700Z VRB01MPS 8000 PRFG NSC 24/23 Q1013 NOSIG
ZGKL,2025-10-09 18:00,ZGKL 091800Z 00000MPS 8000 NSC 23/23 Q1013 NOSIG
ZGKL,2025-10-09 19:00,ZGKL 091900Z 28001MPS 8000 PRFG NSC 23/23 Q1013 NOSIG
ZGKL,2025-10-09 20:00,ZGKL 092000Z 30001MPS 7000 PRFG NSC 23/22 Q1012 NOSIG
ZGKL,2025-10-09 21:00,ZGKL 092100Z 26001MPS 7000 PRFG NSC 23/22 Q1013 NOSIG
ZGKL,2025-10-09 22:00,ZGKL 092200Z 19001MPS 6000 PRFG NSC 22/22 Q1013 NOSIG
ZGKL,2025-10-09 23:00,ZGKL 092300Z 00000MPS 5000 BCFG BR NSC 22/22 Q1014 NOSIG
ZGKL,2025-10-10 00:00,ZGKL 100000Z VRB01MPS 7000 NSC 24/23 Q1014 NOSIG
ZGKL,2025-10-10 01:00,ZGKL 100100Z VRB01MPS 7000 NSC 27/23 Q1015 NOSIG
ZGKL,2025-10-10 02:00,ZGKL 100200Z VRB01MPS 8000 NSC 29/24 Q1014 NOSIG
ZGKL,2025-10-10 03:00,ZGKL 100300Z 16002MPS 100V240 CAVOK 31/23 Q1014 NOSIG
ZGKL,2025-10-10 04:00,ZGKL 100400Z 18003MPS 140V260 9999 FEW026 33/23 Q1013 NOSIG
ZGKL,2025-10-10 05:00,ZGKL 100500Z 17003MPS 130V220 9999 FEW026 33/23 Q1012 NOSIG
ZGKL,2025-10-10 06:00,ZGKL 100600Z 17004MPS 130V210 9999 FEW026 34/22 Q1011 NOSIG
ZGKL,2025-10-10 07:00,ZGKL 100700Z 20004MPS 150V290 9999 FEW026 35/20 Q1010 NOSIG
ZGKL,2025-10-10 08:00,ZGKL 100800Z 16004MPS 120V210 9999 FEW026 35/20 Q1010 NOSIG
ZGKL,2025-10-10 09:00,ZGKL 100900Z 17004MPS CAVOK 34/20 Q1010 NOSIG
ZGKL,2025-10-10 10:00,ZGKL 101000Z 16003MPS CAVOK 32/21 Q1010 NOSIG
ZGKL,2025-10-10 11:00,ZGKL 101100Z 21002MPS CAVOK 28/22 Q1010 NOSIG
ZGKL,2025-10-10 12:00,ZGKL 101200Z 21002MPS CAVOK 27/22 Q1011 NOSIG
ZGKL,2025-10-10 13:00,ZGKL 101300Z VRB01MPS CAVOK 26/22 Q1011 NOSIG
ZGKL,2025-10-10 14:00,ZGKL 101400Z VRB01MPS CAVOK 25/22 Q1012 NOSIG
ZGKL,2025-10-10 15:00,ZGKL 101500Z VRB01MPS CAVOK 24/22 Q1012 NOSIG
ZGKL,2025-10-10 16:00,ZGKL 101600Z 31001MPS 8000 NSC 25/22 Q1012 NOSIG
ZGKL,2025-10-10 17:00,ZGKL 101700Z 34001MPS 8000 NSC 24/22 Q1012 NOSIG
ZGKL,2025-10-10 18:00,ZGKL 101800Z 00000MPS 8000 NSC 23/22 Q1011 NOSIG
ZGKL,2025-10-10 19:00,ZGKL 101900Z 00000MPS 8000 NSC 23/22 Q1011 NOSIG
ZGKL,2025-10-10 20:00,ZGKL 102000Z 30001MPS 8000 NSC 22/21 Q1011 NOSIG
ZGKL,2025-10-10 21:00,ZGKL 102100Z VRB01MPS 8000 NSC 22/21 Q1011 NOSIG
ZGKL,2025-10-10 22:00,ZGKL 102200Z VRB01MPS 6000 NSC 22/21 Q1012 NOSIG
ZGKL,2025-10-10 23:00,ZGKL 102300Z 00000MPS 8000 NSC 22/21 Q1013 NOSIG
ZGKL,2025-10-11 00:00,ZGKL 110000Z 00000MPS CAVOK 24/22 Q1014 NOSIG
ZGKL,2025-10-11 01:00,ZGKL 110100Z VRB01MPS 9999 FEW050 27/22 Q1014 NOSIG
ZGKL,2025-10-11 02:00,ZGKL 110200Z VRB01MPS CAVOK 29/23 Q1014 NOSIG
ZGKL,2025-10-11 03:00,ZGKL 110300Z VRB02MPS 9999 FEW030 31/23 Q1014 NOSIG
ZGKL,2025-10-11 04:00,ZGKL 110400Z VRB02MPS 9999 FEW030 SCT043 32/23 Q1013 NOSIG
ZGKL,2025-10-11 05:00,ZGKL 110500Z 19002MPS 150V310 9999 FEW030 SCT043 33/23 Q1012 NOSIG
ZGKL,2025-10-11 06:00,ZGKL 110600Z 15003MPS 100V240 9999 FEW033 34/22 Q1011 NOSIG
ZGKL,2025-10-11 07:00,ZGKL 110700Z 13004MPS 100V160 9999 FEW026 33/22 Q1010 NOSIG
ZGKL,2025-10-11 08:00,ZGKL 110800Z 15003MPS 100V190 CAVOK 34/22 Q1009 NOSIG
ZGKL,2025-10-11 09:00,ZGKL 110900Z 15002MPS 100V180 CAVOK 33/22 Q1009 NOSIG
ZGKL,2025-10-11 10:00,ZGKL 111000Z 13002MPS 050V180 CAVOK 31/23 Q1009 NOSIG
ZGKL,2025-10-11 11:00,ZGKL 111100Z 27002MPS CAVOK 29/23 Q1009 NOSIG
ZGKL,2025-10-11 12:00,ZGKL 111200Z 27001MPS CAVOK 27/23 Q1010 NOSIG
ZGKL,2025-10-11 13:00,ZGKL 111300Z VRB01MPS 9999 FEW060 25/23 Q1010 NOSIG
ZGKL,2025-10-11 14:00,ZGKL 111400Z 35001MPS 9999 FEW060 26/23 Q1011 NOSIG
ZGKL,2025-10-11 15:00,ZGKL 111500Z 27001MPS 9999 FEW066 25/23 Q1011 NOSIG
ZGKL,2025-10-11 16:00,ZGKL 111600Z VRB01MPS 9999 FEW066 25/23 Q1011 NOSIG
ZGKL,2025-10-11 17:00,ZGKL 111700Z 30001MPS 9999 FEW066 24/22 Q1011 NOSIG
ZGKL,2025-10-11 18:00,ZGKL 111800Z VRB01MPS 8000 FEW066 23/22 Q1011 NOSIG
ZGKL,2025-10-11 19:00,ZGKL 111900Z VRB01MPS 8000 FEW060 23/23 Q1011 NOSIG
ZGKL,2025-10-11 20:00,ZGKL 112000Z 00000MPS 8000 FEW060 23/22 Q1011 NOSIG
ZGKL,2025-10-11 21:00,ZGKL 112100Z 00000MPS 6000 FEW060 23/22 Q1011 NOSIG
ZGKL,2025-10-11 22:00,ZGKL 112200Z 00000MPS 5000 BR FEW060 22/22 Q1012 NOSIG
ZGKL,2025-10-11 23:00,ZGKL 112300Z VRB01MPS 7000 FEW053 22/22 Q1012 NOSIG
ZGKL,2025-10-12 00:00,ZGKL 120000Z 00000MPS 7000 SCT040 BKN066 25/23 Q1012 NOSIG
ZGKL,2025-10-12 01:00,ZGKL 120100Z VRB01MPS 6000 FEW040 SCT066 27/23 Q1013 NOSIG
ZGKL,2025-10-12 02:00,ZGKL 120200Z VRB01MPS 7000 SCT046 BKN066 29/23 Q1013 NOSIG
ZGKL,2025-10-12 03:00,ZGKL 120300Z 15002MPS 110V190 7000 FEW030 30/23 Q1013 NOSIG
ZGKL,2025-10-12 04:00,ZGKL 120400Z 16004MPS 110V230 9999 SCT030 33/23 Q1012 BECMG TL0530 FEW030CB SCT040
ZGKL,2025-10-12 05:00,ZGKL 120500Z 16004MPS 120V220 9999 FEW030CB SCT030 32/22 Q1011 BECMG TL0600 FEW030
ZGKL,2025-10-12 06:00,ZGKL 120600Z 19005MPS 140V220 9999 FEW033CB SCT033 33/23 Q1010 BECMG TL0700 FEW030
ZGKL,2025-10-12 07:00,ZGKL 120700Z 18004MPS 150V230 9999 SCT033 35/23 Q1009 NOSIG
ZGKL,2025-10-12 08:00,ZGKL 120800Z 19004MPS 160V220 9999 FEW033 33/22 Q1009 NOSIG
ZGKL,2025-10-12 09:00,ZGKL 120900Z 18004MPS 9999 FEW033 33/22 Q1009 NOSIG
ZGKL,2025-10-12 10:00,ZGKL 121000Z 18003MPS CAVOK 30/22 Q1009 NOSIG
ZGKL,2025-10-12 11:00,ZGKL 121100Z VRB01MPS CAVOK 29/22 Q1010 NOSIG
ZGKL,2025-10-12 12:00,ZGKL 121200Z VRB01MPS CAVOK 27/23 Q1011 NOSIG
ZGKL,2025-10-12 13:00,ZGKL 121300Z 34001MPS CAVOK 26/23 Q1011 NOSIG
ZGKL,2025-10-12 14:00,ZGKL 121400Z 31001MPS CAVOK 25/23 Q1012 NOSIG
ZGKL,2025-10-12 15:00,ZGKL 121500Z 31001MPS CAVOK 25/23 Q1012 NOSIG
ZGKL,2025-10-12 16:00,ZGKL 121600Z VRB01MPS CAVOK 25/23 Q1012 NOSIG
ZGKL,2025-10-12 17:00,ZGKL 121700Z VRB01MPS 9999 FEW060 25/23 Q1012 NOSIG
ZGKL,2025-10-12 18:00,ZGKL 121800Z VRB01MPS CAVOK 24/23 Q1012 NOSIG
ZGKL,2025-10-12 19:00,ZGKL 121900Z 29001MPS 9999 SCT033 24/23 Q1012 NOSIG
ZGKL,2025-10-12 20:00,ZGKL 122000Z 00000MPS 9999 FEW033 BKN066 24/23 Q1012 NOSIG
ZGKL,2025-10-12 21:00,ZGKL 122100Z 29001MPS 9999 FEW033 BKN066 24/23 Q1012 NOSIG
ZGKL,2025-10-12 22:00,ZGKL 122200Z VRB01MPS 9999 SCT050 BKN066 24/23 Q1013 NOSIG
ZGKL,2025-10-12 23:00,ZGKL 122300Z VRB01MPS 8000 FEW040 BKN066 24/23 Q1014 NOSIG
ZGKL,2025-10-13 00:00,ZGKL 130000Z VRB01MPS 8000 FEW030TCU FEW040 BKN060 25/23 Q1014 BECMG TL0100 FEW030CB BKN045
ZGKL,2025-10-13 01:00,ZGKL 130100Z 35002MPS 310V040 9000 FEW040CB FEW040 26/23 Q1015 NOSIG
ZGKL,2025-10-13 02:00,ZGKL 130200Z VRB01MPS 9000 FEW040CB SCT050 30/24 Q1015 BECMG TL0300 SCT040 BKN060
ZGKL,2025-10-13 03:00,ZGKL 130300Z VRB01MPS 9999 FEW023TCU FEW023 SCT046 30/23 Q1015 BECMG TL0430 FEW030CB SCT030 BKN056
ZGKL,2025-10-13 04:00,ZGKL 130400Z VRB01MPS 9999 FEW026CB FEW026 SCT066 31/23 Q1014 NOSIG
ZGKL,2025-10-13 05:00,ZGKL 130500Z VRB01MPS 9999 FEW026CB FEW026 SCT066 33/23 Q1013 NOSIG
ZGKL,2025-10-13 06:00,ZGKL 130600Z 33003MPS 260V020 9999 FEW030CB SCT030 SCT066 30/24 Q1012 NOSIG
ZGKL,2025-10-13 07:00,ZGKL 130700Z 01004MPS 9999 -SHRA FEW030CB SCT030 BKN053 30/23 Q1011 NOSIG
ZGKL,2025-10-13 08:00,ZGKL 130800Z 36004MPS 340V040 1200 R01/1300D +TSRA BR FEW026CB SCT026 BKN046 23/23 Q1012 BECMG FM0820 1800 -TSRA
ZGKL,2025-10-13 09:00,ZGKL 130900Z 06003MPS 020V090 9999 -SHRA FEW026CB FEW026 SCT053 25/24 Q1012 RETSRA BECMG TL1000 FEW026 BKN050
ZGKL,2025-10-13 10:00,ZGKL 131000Z 02003MPS 9999 FEW030 SCT073 25/24 Q1012 NOSIG
ZGKL,2025-10-13 11:00,ZGKL 131100Z 35002MPS 9999 FEW073 25/23 Q1013 NOSIG
ZGKL,2025-10-13 12:00,ZGKL 131200Z 05002MPS 010V070 9999 FEW013 FEW033CB SCT033 25/23 Q1014 NOSIG
ZGKL,2025-10-13 13:00,ZGKL 131300Z 03004MPS 9999 FEW020 SCT033 25/23 Q1015 NOSIG
ZGKL,2025-10-13 14:00,ZGKL 131400Z 02002MPS 7000 -RA FEW016 SCT036 24/23 Q1015 NOSIG
ZGKL,2025-10-13 15:00,ZGKL 131500Z 06002MPS 6000 FEW030 SCT060 24/23 Q1015 NOSIG
ZGKL,2025-10-13 16:00,ZGKL 131600Z 08002MPS 010V180 5000 BR FEW030 SCT060 24/22 Q1015 NOSIG
ZGKL,2025-10-13 17:00,ZGKL 131700Z 07004MPS 6000 -SHRA FEW026CB FEW026 BKN046 23/22 Q1015 NOSIG
ZGKL,2025-10-13 18:00,ZGKL 131800Z 05003MPS 6000 -RA SCT026 OVC046 22/22 Q1015 NOSIG
ZGKL,2025-10-13 19:00,ZGKL 131900Z 34002MPS 300V360 3500 BR SCT023 OVC043 22/22 Q1014 NOSIG
ZGKL,2025-10-13 20:00,ZGKL 132000Z 04002MPS 360V090 4000 BR SCT023 OVC043 22/22 Q1014 NOSIG
ZGKL,2025-10-13 21:00,ZGKL 132100Z VRB01MPS 4500 BR SCT023 OVC053 22/22 Q1014 NOSIG
ZGKL,2025-10-13 22:00,ZGKL 132200Z 04003MPS 9999 SCT023 OVC053 22/21 Q1014 NOSIG
ZGKL,2025-10-13 23:00,ZGKL 132300Z 05003MPS 8000 SCT030 OVC053 22/20 Q1015 NOSIG
ZGKL,2025-10-14 00:00,ZGKL 140000Z 04002MPS 7000 -DZ SCT030 OVC053 22/20 Q1015 NOSIG
ZGKL,2025-10-14 01:00,ZGKL 140100Z 05003MPS 020V080 8000 SCT033 OVC053 22/20 Q1016 NOSIG
ZGKL,2025-10-14 02:00,ZGKL 140200Z 06002MPS 020V080 8000 -RA FEW023 SCT030 OVC050 22/21 Q1017 NOSIG
ZGKL,2025-10-14 03:00,ZGKL 140300Z VRB01MPS 7000 -DZ FEW020 SCT026 OVC046 22/21 Q1017 NOSIG
