station,valid,metar
ZGKL,2008-01-01 00:00,ZGKL 010000Z AUTO 02004KT 9SM 05/M08 A3045 RMK SLP328 T00521080 52017 IEM_DS3505
ZGKL,2008-01-01 01:00,ZGKL 010100Z AUTO 05006KT 6SM 07/M08 A3045 RMK T00701080 IEM_DS3505
ZGKL,2008-01-01 02:00,ZGKL 010200Z AUTO 05010KT 6SM 09/M09 A3047 RMK T00901090 IEM_DS3505
ZGKL,2008-01-01 03:00,ZGKL 010300Z AUTO 02012KT 10SM 10/M12 A3047 RMK SLP333 T00961123 52007 IEM_DS3505
ZGKL,2008-01-01 04:00,ZGKL 010400Z AUTO 06006KT 6SM 11/M09 A3045 RMK T01101090 IEM_DS3505
ZGKL,2008-01-01 05:00,ZGKL 010500Z AUTO 06008KT 6SM 12/M10 A3039 RMK T01201100 IEM_DS3505
ZGKL,2008-01-01 06:00,ZGKL 010600Z AUTO 02008KT 14SM 13/M14 A3036 RMK SLP293 T01301139 57039 IEM_DS3505
ZGKL,2008-01-01 07:00,ZGKL 010700Z AUTO 06016G27KT 6SM 14/M15 A3033 RMK T01401150 IEM_DS3505
ZGKL,2008-01-01 08:00,ZGKL 010800Z AUTO 06016KT 6SM 13/M14 A3033 RMK T01301140 IEM_DS3505
ZGKL,2008-01-01 09:00,ZGKL 010900Z AUTO 04008KT 16SM 12/M15 A3033 RMK SLP287 T01241153 57006 IEM_DS3505
ZGKL,2008-01-01 10:00,ZGKL 011000Z AUTO 05014KT 6SM 10/M14 A3033 RMK T01001140 IEM_DS3505
ZGKL,2008-01-01 11:00,ZGKL 011100Z AUTO 05014KT 6SM 09/M12 A3036 RMK T00901120 IEM_DS3505
ZGKL,2008-01-01 12:00,ZGKL 011200Z AUTO 02006KT 15SM 08/M11 A3039 RMK SLP306 T00831106 52017 IEM_DS3505
ZGKL,2008-01-01 13:00,ZGKL 011300Z AUTO 6SM 06/M08 A3042 RMK T00601080 IEM_DS3505
ZGKL,2008-01-01 14:00,ZGKL 011400Z AUTO 6SM 05/M06 A3042 RMK T00501060 IEM_DS3505
ZGKL,2008-01-01 15:00,ZGKL 011500Z AUTO 02008KT 12SM 07/M09 A3042 RMK SLP317 T00731091 52012 IEM_DS3505
ZGKL,2008-01-01 16:00,ZGKL 011600Z AUTO 6SM 02/M02 A3042 RMK T00201020 IEM_DS3505
ZGKL,2008-01-01 17:00,ZGKL 011700Z AUTO 00000KT 02/M01 A3042 RMK T00201010 IEM_DS3505
ZGKL,2008-01-01 18:00,ZGKL 011800Z AUTO 02006KT 11SM 06/ A3042 RMK SLP311 57005 IEM_DS3505
ZGKL,2008-01-01 19:00,ZGKL 011900Z AUTO 00000KT 00/M01 A3039 RMK T00001010 IEM_DS3505
ZGKL,2008-01-01 20:00,ZGKL 012000Z AUTO 00000KT 00/M01 A3039 RMK T00001010 IEM_DS3505
ZGKL,2008-01-01 21:00,ZGKL 012100Z AUTO 02006KT 10SM 05/ A3039 RMK SLP305 57007 IEM_DS3505
ZGKL,2008-01-01 22:00,ZGKL 012200Z AUTO 6SM 00/M01 A3039 RMK T00001010 IEM_DS3505
ZGKL,2008-01-01 23:00,ZGKL 012300Z AUTO 6SM 00/M01 A3042 RMK T00001010 IEM_DS3505
ZGKL,2008-01-02 00:00,ZGKL 020000Z AUTO 02006KT 10SM 04/M08 A3042 RMK SLP320 T00421076 52013 IEM_DS3505
ZGKL,2008-01-02 01:00,ZGKL 020100Z AUTO 6SM 03/00 A3045 RMK T00300000 IEM_DS3505
ZGKL,2008-01-02 02:00,ZGKL 020200Z AUTO 00000KT 6SM 06/00 A3045 RMK T00600000 IEM_DS3505
ZGKL,2008-01-02 03:00,ZGKL 020300Z AUTO 02008KT 10SM 10/M09 A3042 RMK SLP318 T00961090 54000 IEM_DS3505
ZGKL,2008-01-02 04:00,ZGKL 020400Z AUTO 06008KT 6SM 11/M08 A3039 RMK T01101080 IEM_DS3505
ZGKL,2008-01-02 05:00,ZGKL 020500Z AUTO 6SM 12/M10 A3033 RMK T01201100 IEM_DS3505
ZGKL,2008-01-02 06:00,ZGKL 020600Z AUTO 04006KT 10SM 13/M11 A3030 RMK SLP272 T01341112 57044 IEM_DS3505
ZGKL,2008-01-02 07:00,ZGKL 020700Z AUTO 6SM 13/M10 A3027 RMK T01301100 IEM_DS3505
ZGKL,2008-01-02 08:00,ZGKL 020800Z AUTO 10004KT 6SM 14/M10 A3024 RMK T01401100 IEM_DS3505
ZGKL,2008-01-02 09:00,ZGKL 020900Z AUTO 02004KT 10SM 14/M10 A3024 RMK SLP252 T01351104 57020 IEM_DS3505
ZGKL,2008-01-02 10:00,ZGKL 021000Z AUTO 21002KT 6SM 11/M04 A3024 RMK T01101040 IEM_DS3505
ZGKL,2008-01-02 11:00,ZGKL 021100Z AUTO 00000KT 6SM 08/M02 A3024 RMK T00801020 IEM_DS3505
ZGKL,2008-01-02 12:00,ZGKL 021200Z AUTO 02004KT 10SM 09/M07 A3027 RMK SLP270 T00901072 52016 IEM_DS3505
ZGKL,2008-01-02 13:00,ZGKL 021300Z AUTO 31004KT 4SM 05/00 A3030 RMK T00500000 IEM_DS3505
ZGKL,2008-01-02 14:00,ZGKL 021400Z AUTO 4SM 04/00 A3030 RMK T00400000 IEM_DS3505
ZGKL,2008-01-02 15:00,ZGKL 021500Z AUTO 02004KT 10SM 07/M07 A3033 RMK SLP279 T00731068 52010 IEM_DS3505
ZGKL,2008-01-02 16:00,ZGKL 021600Z AUTO 00000KT 4SM 02/00 A3033 RMK T00200000 IEM_DS3505
ZGKL,2008-01-02 17:00,ZGKL 021700Z AUTO 00000KT 3SM 02/00 A3033 RMK T00200000 IEM_DS3505
ZGKL,2008-01-02 18:00,ZGKL 021800Z AUTO 36004KT 9SM 06/M06 A3033 RMK SLP278 T00641062 54000 IEM_DS3505
ZGKL,2008-01-02 19:00,ZGKL 021900Z AUTO 00000KT 03/01 A3030 RMK T00300010 IEM_DS3505
ZGKL,2008-01-02 20:00,ZGKL 022000Z AUTO 00000KT 03/02 A3030 RMK T00300020 IEM_DS3505
ZGKL,2008-01-02 21:00,ZGKL 022100Z AUTO 34004KT 9SM 07/M06 A3030 RMK SLP269 T00701057 57009 IEM_DS3505
ZGKL,2008-01-02 22:00,ZGKL 022200Z AUTO 00000KT 4SM 04/02 A3030 RMK T00400020 IEM_DS3505
ZGKL,2008-01-02 23:00,ZGKL 022300Z AUTO 00000KT 4SM 04/02 A3030 RMK T00400020 IEM_DS3505
ZGKL,2008-01-03 00:00,ZGKL 030000Z AUTO 04004KT 9SM 07/M06 A3033 RMK SLP283 T00721055 52012 IEM_DS3505
ZGKL,2008-01-03 01:00,ZGKL 030100Z AUTO 00000KT 5SM 06/01 A3033 RMK T00600010 IEM_DS3505
ZGKL,2008-01-03 02:00,ZGKL 030200Z AUTO 00000KT 4SM 07/01 A3036 RMK T00700010 IEM_DS3505
ZGKL,2008-01-03 03:00,ZGKL 030300Z AUTO 04002KT 7SM 09/M05 A3036 RMK SLP294 T00901049 52011 IEM_DS3505
ZGKL,2008-01-03 04:00,ZGKL 030400Z AUTO 4SM 10/M04 A3033 RMK T01001040 IEM_DS3505
ZGKL,2008-01-03 05:00,ZGKL 030500Z AUTO 5SM 12/M04 A3027 RMK T01201040 IEM_DS3505
ZGKL,2008-01-03 06:00,ZGKL 030600Z AUTO 00000KT 7SM 12/M06 A3024 RMK SLP256 T01221058 57036 IEM_DS3505
ZGKL,2008-01-03 07:00,ZGKL 030700Z AUTO 4SM 14/M05 A3021 RMK T01401050 IEM_DS3505
ZGKL,2008-01-03 08:00,ZGKL 030800Z AUTO 3SM 14/M05 A3018 RMK T01401050 IEM_DS3505
ZGKL,2008-01-03 09:00,ZGKL 030900Z AUTO 02006KT 9SM 13/M06 A3018 RMK SLP233 T01331063 57022 IEM_DS3505
ZGKL,2008-01-03 10:00,ZGKL 031000Z AUTO 06004KT 4SM 12/M04 A3018 RMK T01201040 IEM_DS3505
ZGKL,2008-01-03 11:00,ZGKL 031100Z AUTO 29004KT 3SM 09/M01 A3021 RMK T00901010 IEM_DS3505
ZGKL,2008-01-03 12:00,ZGKL 031200Z AUTO 02006KT 9SM 09/M06 A3021 RMK SLP245 T00931058 52010 IEM_DS3505
ZGKL,2008-01-03 13:00,ZGKL 031300Z AUTO 33004KT 2 1/2SM 06/02 A3021 RMK T00600020 IEM_DS3505
ZGKL,2008-01-03 14:00,ZGKL 031400Z AUTO 32002KT 2 1/2SM 05/02 A3024 RMK T00500020 IEM_DS3505
ZGKL,2008-01-03 15:00,ZGKL 031500Z AUTO 02006KT 8SM 08/M05 A3024 RMK SLP253 T00781050 52008 IEM_DS3505
ZGKL,2008-01-03 16:00,ZGKL 031600Z AUTO 00000KT 03/01 A3024 RMK T00300010 IEM_DS3505
ZGKL,2008-01-03 17:00,ZGKL 031700Z AUTO 33002KT 02/01 A3024 RMK T00200010 IEM_DS3505
ZGKL,2008-01-03 18:00,ZGKL 031800Z AUTO 29002KT 8SM 06/M03 A3024 RMK SLP250 T00551033 57002 IEM_DS3505
ZGKL,2008-01-03 19:00,ZGKL 031900Z AUTO 00000KT 02/00 A3024 RMK T00200000 IEM_DS3505
ZGKL,2008-01-03 20:00,ZGKL 032000Z AUTO 00000KT 01/00 A3021 RMK T00100000 IEM_DS3505
ZGKL,2008-01-03 21:00,ZGKL 032100Z AUTO 34002KT 8SM 04/M02 A3021 RMK SLP242 T00411023 57008 IEM_DS3505
ZGKL,2008-01-03 22:00,ZGKL 032200Z AUTO 00000KT 2SM 01/00 A3021 RMK T00100000 IEM_DS3505
ZGKL,2008-01-03 23:00,ZGKL 032300Z AUTO 00000KT 2 1/2SM 01/00 A3024 RMK T00100000 IEM_DS3505
ZGKL,2008-01-04 00:00,ZGKL 040000Z AUTO 02002KT 8SM 03/M02 A3024 RMK SLP257 T00321017 52013 IEM_DS3505
ZGKL,2008-01-04 01:00,ZGKL 040100Z AUTO 00000KT 2SM 03/02 A3027 RMK T00300020 IEM_DS3505
ZGKL,2008-01-04 02:00,ZGKL 040200Z AUTO 00000KT 2 1/2SM 07/03 A3027 RMK T00700030 IEM_DS3505
ZGKL,2008-01-04 03:00,ZGKL 040300Z AUTO 11002KT 6SM 11/M02 A3027 RMK SLP263 T01111016 52008 IEM_DS3505
ZGKL,2008-01-04 04:00,ZGKL 040400Z AUTO 4SM 13/M01 A3024 RMK T01301010 IEM_DS3505
ZGKL,2008-01-04 05:00,ZGKL 040500Z AUTO 4SM 15/M02 A3021 RMK T01501020 IEM_DS3505
ZGKL,2008-01-04 06:00,ZGKL 040600Z AUTO 16002KT 4SM 15/M02 A3015 RMK SLP227 T01501024 57035 IEM_DS3505
ZGKL,2008-01-04 07:00,ZGKL 040700Z AUTO 4SM 16/M02 A3015 RMK T01601020 IEM_DS3505
ZGKL,2008-01-04 08:00,ZGKL 040800Z AUTO 4SM 17/M02 A3012 RMK T01701020 IEM_DS3505
ZGKL,2008-01-04 09:00,ZGKL 040900Z AUTO 16002KT 5SM 16/M02 A3012 RMK SLP214 T01601025 57013 IEM_DS3505
ZGKL,2008-01-04 10:00,ZGKL 041000Z AUTO 00000KT 3SM 13/01 A3012 RMK T01300010 IEM_DS3505
ZGKL,2008-01-04 11:00,ZGKL 041100Z AUTO 3SM 10/02 A3015 RMK T01000020 IEM_DS3505
ZGKL,2008-01-04 12:00,ZGKL 041200Z AUTO 34002KT 5SM 10/01 A3015 RMK SLP231 T01050013 52015 IEM_DS3505
ZGKL,2008-01-04 13:00,ZGKL 041300Z AUTO 00000KT 2SM 07/03 A3018 RMK T00700030 IEM_DS3505
ZGKL,2008-01-04 14:00,ZGKL 041400Z AUTO 00000KT 2SM 06/03 A3021 RMK T00600030 IEM_DS3505
ZGKL,2008-01-04 15:00,ZGKL 041500Z AUTO 36004KT 4SM 10/M01 A3024 RMK SLP250 T01041010 52021 IEM_DS3505
ZGKL,2008-01-04 16:00,ZGKL 041600Z AUTO 00000KT 1 1/2SM 05/03 A3024 RMK T00500030 IEM_DS3505
ZGKL,2008-01-04 17:00,ZGKL 041700Z AUTO 00000KT 04/02 A3024 RMK T00400020 IEM_DS3505
ZGKL,2008-01-04 18:00,ZGKL 041800Z AUTO 34004KT 4SM 09/M01 A3021 RMK SLP244 T00891012 57005 IEM_DS3505
ZGKL,2008-01-04 19:00,ZGKL 041900Z AUTO 00000KT 03/02 A3021 RMK T00300020 IEM_DS3505
ZGKL,2008-01-04 20:00,ZGKL 042000Z AUTO 00000KT 02/01 A3021 RMK T00200010 IEM_DS3505
ZGKL,2008-01-04 21:00,ZGKL 042100Z AUTO 04004KT 4SM 08/M01 A3021 RMK SLP243 T00801010 57001 IEM_DS3505
ZGKL,2008-01-04 22:00,ZGKL 042200Z AUTO 00000KT 1 1/4SM 02/01 A3021 RMK T00200010 IEM_DS3505
ZGKL,2008-01-04 23:00,ZGKL 042300Z AUTO 00000KT 1 1/4SM 02/01 A3024 RMK T00200010 IEM_DS3505
ZGKL,2008-01-05 00:00,ZGKL 050000Z AUTO 36004KT 4SM 08/M02 A3024 RMK SLP256 T00751015 52011 IEM_DS3505
ZGKL,2008-01-05 01:00,ZGKL 050100Z AUTO 00000KT 1 1/4SM 04/03 A3027 RMK T00400030 IEM_DS3505
ZGKL,2008-01-05 02:00,ZGKL 050200Z AUTO 00000KT 1 1/2SM 07/05 A3027 RMK T00700050 IEM_DS3505
ZGKL,2008-01-05 03:00,ZGKL 050300Z AUTO 34004KT 4SM 13/M03 A3027 RMK SLP258 T01271031 52003 IEM_DS3505
ZGKL,2008-01-05 04:00,ZGKL 050400Z AUTO 00000KT 3SM 13/01 A3024 RMK T01300010 IEM_DS3505
ZGKL,2008-01-05 05:00,ZGKL 050500Z AUTO 3SM 16/00 A3018 RMK T01600000 IEM_DS3505
ZGKL,2008-01-05 06:00,ZGKL 050600Z AUTO 27002KT 4SM 17/M02 A3012 RMK SLP212 T01681023 57044 IEM_DS3505
ZGKL,2008-01-05 07:00,ZGKL 050700Z AUTO 3SM 18/00 A3009 RMK T01800000 IEM_DS3505
ZGKL,2008-01-05 08:00,ZGKL 050800Z AUTO 00000KT 3SM 18/00 A3009 RMK T01800000 IEM_DS3505
ZGKL,2008-01-05 09:00,ZGKL 050900Z AUTO 16002KT 4SM 17/M00 A3006 RMK SLP193 T01671005 57019 IEM_DS3505
ZGKL,2008-01-05 10:00,ZGKL 051000Z AUTO 00000KT 2 1/2SM 14/01 A3006 RMK T01400010 IEM_DS3505
ZGKL,2008-01-05 11:00,ZGKL 051100Z AUTO 27004KT 2 1/2SM 12/03 A3006 RMK T01200030 IEM_DS3505
ZGKL,2008-01-05 12:00,ZGKL 051200Z AUTO 36002KT 4SM 11/03 A3009 RMK SLP201 T01110029 52006 IEM_DS3505
ZGKL,2008-01-05 13:00,ZGKL 051300Z AUTO 00000KT 1 1/2SM 08/05 A3009 RMK T00800050 IEM_DS3505
ZGKL,2008-01-05 14:00,ZGKL 051400Z AUTO 00000KT 1 1/2SM 07/04 A3009 RMK T00700040 IEM_DS3505
ZGKL,2008-01-05 15:00,ZGKL 051500Z AUTO 36002KT 3SM 09/03 A3009 RMK SLP202 T00880028 52002 IEM_DS3505
ZGKL,2008-01-05 16:00,ZGKL 051600Z AUTO 00000KT 1 1/4SM 06/04 A3009 RMK T00600040 IEM_DS3505
ZGKL,2008-01-05 17:00,ZGKL 051700Z AUTO 00000KT 1 1/4SM 05/04 A3009 RMK T00500040 IEM_DS3505
ZGKL,2008-01-05 18:00,ZGKL 051800Z AUTO 09002KT 3SM 08/02 A3009 RMK SLP202 T00760025 52001 IEM_DS3505
ZGKL,2008-01-05 19:00,ZGKL 051900Z AUTO 00000KT 1 1/4SM 06/05 A3006 RMK T00600050 IEM_DS3505
ZGKL,2008-01-05 20:00,ZGKL 052000Z AUTO 00000KT 1 1/4SM 05/04 A3006 RMK T00500040 IEM_DS3505
ZGKL,2008-01-05 21:00,ZGKL 052100Z AUTO 07002KT 3SM 07/03 A3006 RMK SLP196 T00730030 57006 IEM_DS3505
ZGKL,2008-01-05 22:00,ZGKL 052200Z AUTO 00000KT 1 1/4SM 05/04 A3009 RMK T00500040 IEM_DS3505
ZGKL,2008-01-05 23:00,ZGKL 052300Z AUTO 00000KT 1 1/4SM 04/03 A3009 RMK T00400030 IEM_DS3505
ZGKL,2008-01-06 00:00,ZGKL 060000Z AUTO 36002KT 3SM 06/03 A3012 RMK SLP216 T00610026 52017 IEM_DS3505
ZGKL,2008-01-06 01:00,ZGKL 060100Z AUTO 00000KT 1 1/4SM 06/05 A3015 RMK T00600050 IEM_DS3505
ZGKL,2008-01-06 02:00,ZGKL 060200Z AUTO 00000KT 1 1/2SM 09/06 A3018 RMK T00900060 IEM_DS3505
ZGKL,2008-01-06 03:00,ZGKL 060300Z AUTO 02002KT 4SM 11/04 A3018 RMK SLP233 T01130038 52018 IEM_DS3505
ZGKL,2008-01-06 04:00,ZGKL 060400Z AUTO 00000KT 2SM 15/05 A3015 RMK T01500050 IEM_DS3505
ZGKL,2008-01-06 05:00,ZGKL 060500Z AUTO 2 1/2SM 15/05 A3012 RMK T01500050 IEM_DS3505
ZGKL,2008-01-06 06:00,ZGKL 060600Z AUTO 18004KT 4SM 16/03 A3009 RMK SLP199 T01650032 57032 IEM_DS3505
ZGKL,2008-01-06 07:00,ZGKL 060700Z AUTO 2 1/2SM 18/06 A3006 RMK T01800060 IEM_DS3505
ZGKL,2008-01-06 08:00,ZGKL 060800Z AUTO 19004KT 2SM 19/05 A3003 RMK T01900050 IEM_DS3505
ZGKL,2008-01-06 09:00,ZGKL 060900Z AUTO 16002KT 4SM 18/06 A3006 RMK SLP185 T01800056 57013 IEM_DS3505
ZGKL,2008-01-06 10:00,ZGKL 061000Z AUTO 33004KT 2SM 15/07 A3006 RMK T01500070 IEM_DS3505
ZGKL,2008-01-06 11:00,ZGKL 061100Z AUTO 00000KT 1 1/2SM 12/08 A3006 RMK T01200080 IEM_DS3505
ZGKL,2008-01-06 12:00,ZGKL 061200Z AUTO 34002KT 4SM 12/06 A3009 RMK SLP202 T01210064 52014 IEM_DS3505
ZGKL,2008-01-06 13:00,ZGKL 061300Z AUTO 00000KT 1SM 10/07 A3012 RMK T01000070 IEM_DS3505
ZGKL,2008-01-06 14:00,ZGKL 061400Z AUTO 00000KT 1SM 09/07 A3012 RMK T00900070 IEM_DS3505
ZGKL,2008-01-06 15:00,ZGKL 061500Z AUTO 36002KT 4SM 10/06 A3012 RMK SLP216 T01000065 52015 IEM_DS3505
ZGKL,2008-01-06 16:00,ZGKL 061600Z AUTO 00000KT 1SM 07/06 A3015 RMK T00700060 IEM_DS3505
ZGKL,2008-01-06 17:00,ZGKL 061700Z AUTO 00000KT 06/05 RMK T00600050 IEM_DS3505
ZGKL,2008-01-06 18:00,ZGKL 061800Z AUTO 36002KT 4SM 09/06 A3012 RMK SLP216 T00860061 52001 IEM_DS3505
ZGKL,2008-01-06 19:00,ZGKL 061900Z AUTO 00000KT 05/04 RMK T00500040 IEM_DS3505
ZGKL,2008-01-06 20:00,ZGKL 062000Z AUTO 00000KT 05/04 RMK T00500040 IEM_DS3505
ZGKL,2008-01-06 21:00,ZGKL 062100Z AUTO 09002KT 4SM 07/05 A3012 RMK SLP210 T00720053 57006 IEM_DS3505
ZGKL,2008-01-06 22:00,ZGKL 062200Z AUTO 00000KT 1SM 04/03 A3012 RMK T00400030 IEM_DS3505
ZGKL,2008-01-06 23:00,ZGKL 062300Z AUTO 00000KT 3/8SM 04/04 A3015 RMK T00400040 IEM_DS3505
ZGKL,2008-01-07 00:00,ZGKL 070000Z AUTO 07002KT 2 1/2SM 07/06 A3015 RMK SLP226 T00690057 52014 IEM_DS3505
ZGKL,2008-01-07 01:00,ZGKL 070100Z AUTO 00000KT 1/8SM 05/05 A3018 RMK T00500050 IEM_DS3505
ZGKL,2008-01-07 02:00,ZGKL 070200Z AUTO 00000KT 1/8SM 08/07 A3018 RMK T00800070 IEM_DS3505
ZGKL,2008-01-07 03:00,ZGKL 070300Z AUTO 11002KT 4SM 13/07 A3018 RMK SLP233 T01320074 52008 IEM_DS3505
ZGKL,2008-01-07 04:00,ZGKL 070400Z AUTO 1SM 16/10 A3015 RMK T01600100 IEM_DS3505
ZGKL,2008-01-07 05:00,ZGKL 070500Z AUTO 1 1/2SM 18/09 A3012 RMK T01800090 IEM_DS3505
ZGKL,2008-01-07 06:00,ZGKL 070600Z AUTO 16002KT 4SM 20/07 A3006 RMK SLP189 T02000074 57041 IEM_DS3505
ZGKL,2008-01-07 07:00,ZGKL 070700Z AUTO 00000KT 2 1/2SM 21/08 A3003 RMK T02100080 IEM_DS3505
ZGKL,2008-01-07 08:00,ZGKL 070800Z AUTO 2SM 21/08 A3000 RMK T02100080 IEM_DS3505
ZGKL,2008-01-07 09:00,ZGKL 070900Z AUTO 16002KT 4SM 20/08 A3000 RMK SLP167 T02000084 57022 IEM_DS3505
ZGKL,2008-01-07 10:00,ZGKL 071000Z AUTO 00000KT 1 1/2SM 18/09 A3000 RMK T01800090 IEM_DS3505
ZGKL,2008-01-07 11:00,ZGKL 071100Z AUTO 00000KT 2SM 14/10 A3000 RMK T01400100 IEM_DS3505
ZGKL,2008-01-07 12:00,ZGKL 071200Z AUTO 36002KT 4SM 14/09 A3003 RMK SLP179 T01440090 52009 IEM_DS3505
ZGKL,2008-01-07 13:00,ZGKL 071300Z AUTO 00000KT 1 1/4SM 11/10 A3003 RMK T01100100 IEM_DS3505
ZGKL,2008-01-07 14:00,ZGKL 071400Z AUTO 00000KT 1SM 10/09 A3003 RMK T01000090 IEM_DS3505
ZGKL,2008-01-07 15:00,ZGKL 071500Z AUTO 04002KT 4SM 12/08 A3003 RMK SLP184 T01180085 52006 IEM_DS3505
ZGKL,2008-01-07 16:00,ZGKL 071600Z AUTO 00000KT 08/08 RMK T00800080 IEM_DS3505
ZGKL,2008-01-07 17:00,ZGKL 071700Z AUTO 00000KT 09/08 A3003 RMK T00900080 IEM_DS3505
ZGKL,2008-01-07 18:00,ZGKL 071800Z AUTO 04002KT 4SM 11/08 A3003 RMK SLP178 T01130083 57003 IEM_DS3505
ZGKL,2008-01-07 19:00,ZGKL 071900Z AUTO 00000KT 10/09 RMK T01000090 IEM_DS3505
ZGKL,2008-01-07 20:00,ZGKL 072000Z AUTO 00000KT 10/09 RMK T01000090 IEM_DS3505
ZGKL,2008-01-07 21:00,ZGKL 072100Z AUTO 00000KT 4SM 12/08 A3000 RMK SLP169 T01150085 57009 IEM_DS3505
ZGKL,2008-01-07 22:00,ZGKL 072200Z AUTO 00000KT 1SM 11/10 A3000 RMK T01100100 IEM_DS3505
ZGKL,2008-01-07 23:00,ZGKL 072300Z AUTO 00000KT 1SM 11/10 A3003 RMK T01100100 IEM_DS3505
ZGKL,2008-01-08 00:00,ZGKL 080000Z AUTO 36004KT 3SM 12/09 A3006 RMK SLP194 T01210086 52023 IEM_DS3505
ZGKL,2008-01-08 01:00,ZGKL 080100Z AUTO 00000KT 1SM 12/10 A3009 RMK T01200100 IEM_DS3505
ZGKL,2008-01-08 02:00,ZGKL 080200Z AUTO 00000KT 1SM 12/11 A3012 RMK T01200110 IEM_DS3505
ZGKL,2008-01-08 03:00,ZGKL 080300Z AUTO 22002KT 2 1/2SM 14/09 A3012 RMK SLP213 T01420086 52018 IEM_DS3505
ZGKL,2008-01-08 04:00,ZGKL 080400Z AUTO 00000KT 1SM 16/10 A3009 RMK T01600100 IEM_DS3505
ZGKL,2008-01-08 05:00,ZGKL 080500Z AUTO 00000KT 1 1/4SM 18/11 A3006 RMK T01800110 IEM_DS3505
ZGKL,2008-01-08 06:00,ZGKL 080600Z AUTO 34002KT 3SM 20/09 A3000 RMK SLP169 T01970093 57041 IEM_DS3505
ZGKL,2008-01-08 07:00,ZGKL 080700Z AUTO 33004KT 1 1/4SM 20/10 A2997 RMK T02000100 IEM_DS3505
ZGKL,2008-01-08 08:00,ZGKL 080800Z AUTO 33006KT 1 1/2SM 19/11 A2997 RMK T01900110 IEM_DS3505
ZGKL,2008-01-08 09:00,ZGKL 080900Z AUTO 32002KT 3SM 20/10 A2997 RMK SLP158 T01950105 57011 IEM_DS3505
ZGKL,2008-01-08 10:00,ZGKL 081000Z AUTO 00000KT 1 1/4SM 17/11 A2997 RMK T01700110 IEM_DS3505
ZGKL,2008-01-08 11:00,ZGKL 081100Z AUTO 00000KT 1SM 15/12 A3000 RMK T01500120 IEM_DS3505
ZGKL,2008-01-08 12:00,ZGKL 081200Z AUTO 00000KT 3SM 14/10 A3000 RMK SLP173 T01440104 52013 IEM_DS3505
ZGKL,2008-01-08 13:00,ZGKL 081300Z AUTO 00000KT 1SM 12/11 A3003 RMK T01200110 IEM_DS3505
ZGKL,2008-01-08 14:00,ZGKL 081400Z AUTO 00000KT 1SM 11/10 A3003 RMK T01100100 IEM_DS3505
ZGKL,2008-01-08 15:00,ZGKL 081500Z AUTO 29002KT 3SM 13/09 A3003 RMK SLP183 T01280093 52010 IEM_DS3505
ZGKL,2008-01-08 16:00,ZGKL 081600Z AUTO 00000KT 10/09 RMK T01000090 IEM_DS3505
ZGKL,2008-01-08 17:00,ZGKL 081700Z AUTO 00000KT 10/09 RMK T01000090 IEM_DS3505
ZGKL,2008-01-08 18:00,ZGKL 081800Z AUTO 04002KT 2 1/2SM 11/09 A3003 RMK SLP179 T01120088 57002 IEM_DS3505
ZGKL,2008-01-08 19:00,ZGKL 081900Z AUTO 00000KT 08/08 A3003 RMK T00800080 IEM_DS3505
ZGKL,2008-01-08 20:00,ZGKL 082000Z AUTO 00000KT 08/07 RMK T00800070 IEM_DS3505
ZGKL,2008-01-08 21:00,ZGKL 082100Z AUTO 32002KT 2 1/2SM 11/09 A3000 RMK SLP167 T01110087 57012 IEM_DS3505
ZGKL,2008-01-08 22:00,ZGKL 082200Z AUTO 00000KT 1SM 09/09 A3000 RMK T00900090 IEM_DS3505
ZGKL,2008-01-08 23:00,ZGKL 082300Z AUTO 00000KT 1/2SM 10/09 A3000 RMK T01000090 IEM_DS3505
ZGKL,2008-01-09 00:00,ZGKL 090000Z AUTO 02002KT 2 1/2SM 12/09 A3003 RMK SLP177 T01150091 52008 IEM_DS3505
ZGKL,2008-01-09 01:00,ZGKL 090100Z AUTO 00000KT 1SM 11/11 A3003 RMK T01100110 IEM_DS3505
ZGKL,2008-01-09 02:00,ZGKL 090200Z AUTO 00000KT 1SM 13/11 A3006 RMK T01300110 IEM_DS3505
ZGKL,2008-01-09 03:00,ZGKL 090300Z AUTO 29002KT 3SM 15/10 A3003 RMK SLP183 T01540097 52007 IEM_DS3505
ZGKL,2008-01-09 04:00,ZGKL 090400Z AUTO 00000KT 1SM 17/11 A3000 RMK T01700110 IEM_DS3505
ZGKL,2008-01-09 05:00,ZGKL 090500Z AUTO 00000KT 1SM 18/12 A2997 RMK T01800120 IEM_DS3505
ZGKL,2008-01-09 06:00,ZGKL 090600Z AUTO 11002KT 3SM 18/10 A2991 RMK SLP142 T01840105 57040 IEM_DS3505
ZGKL,2008-01-09 07:00,ZGKL 090700Z AUTO 1 1/2SM 20/12 A2991 RMK T02000120 IEM_DS3505
ZGKL,2008-01-09 08:00,ZGKL 090800Z AUTO 14004KT 1 1/2SM 20/12 A2988 RMK T02000120 IEM_DS3505
ZGKL,2008-01-09 09:00,ZGKL 090900Z AUTO 16002KT 3SM 20/12 A2988 RMK SLP126 T01960124 57015 IEM_DS3505
ZGKL,2008-01-09 10:00,ZGKL 091000Z AUTO 00000KT 1SM 18/13 A2988 RMK T01800130 IEM_DS3505
ZGKL,2008-01-09 11:00,ZGKL 091100Z AUTO 00000KT 1SM 17/13 A2988 RMK T01700130 IEM_DS3505
ZGKL,2008-01-09 12:00,ZGKL 091200Z AUTO 32002KT 3SM 17/12 A2988 RMK SLP132 T01690124 52005 IEM_DS3505
ZGKL,2008-01-09 13:00,ZGKL 091300Z AUTO 00000KT 1SM 16/13 A2991 RMK T01600130 IEM_DS3505
ZGKL,2008-01-09 14:00,ZGKL 091400Z AUTO 00000KT 1SM 16/13 A2991 RMK T01600130 IEM_DS3505
ZGKL,2008-01-09 15:00,ZGKL 091500Z AUTO 00000KT 3SM 16/13 A2991 RMK SLP141 T01620126 52010 IEM_DS3505
ZGKL,2008-01-09 16:00,ZGKL 091600Z AUTO 00000KT 1SM 15/13 A2994 RMK T01500130 IEM_DS3505
ZGKL,2008-01-09 17:00,ZGKL 091700Z AUTO 00000KT 1SM 15/13 A2991 RMK T01500130 IEM_DS3505
ZGKL,2008-01-09 18:00,ZGKL 091800Z AUTO 29002KT 3SM 15/12 A2991 RMK SLP136 T01480125 57005 IEM_DS3505
ZGKL,2008-01-09 19:00,ZGKL 091900Z AUTO 00000KT 1SM 14/13 A2988 RMK T01400130 IEM_DS3505
ZGKL,2008-01-09 20:00,ZGKL 092000Z AUTO 00000KT 14/13 A2988 RMK T01400130 IEM_DS3505
ZGKL,2008-01-09 21:00,ZGKL 092100Z AUTO 36002KT 3SM 15/12 A2988 RMK SLP128 T01480125 57007 IEM_DS3505
ZGKL,2008-01-09 22:00,ZGKL 092200Z AUTO 00000KT 1SM 14/13 A2988 RMK T01400130 IEM_DS3505
ZGKL,2008-01-09 23:00,ZGKL 092300Z AUTO 00000KT 1SM 14/13 A2991 RMK T01400130 IEM_DS3505
ZGKL,2008-01-10 00:00,ZGKL 100000Z AUTO 32002KT 2SM 15/13 A2991 RMK SLP137 T01490126 52008 IEM_DS3505
ZGKL,2008-01-10 01:00,ZGKL 100100Z AUTO 00000KT 1SM 15/14 A2991 RMK T01500140 IEM_DS3505
ZGKL,2008-01-10 02:00,ZGKL 100200Z AUTO 00000KT 1SM 16/14 A2994 RMK T01600140 IEM_DS3505
ZGKL,2008-01-10 03:00,ZGKL 100300Z AUTO 02002KT 2 1/2SM 18/14 A2994 RMK SLP143 T01830138 52006 IEM_DS3505
ZGKL,2008-01-10 04:00,ZGKL 100400Z AUTO 00000KT 1 1/4SM 18/14 A2991 RMK T01800140 IEM_DS3505
ZGKL,2008-01-10 05:00,ZGKL 100500Z AUTO 00000KT 1SM 19/14 A2985 RMK T01900140 IEM_DS3505
ZGKL,2008-01-10 06:00,ZGKL 100600Z AUTO 22004KT 6SM 22/15 A2983 RMK SLP103 T02200146 57038 IEM_DS3505
ZGKL,2008-01-10 07:00,ZGKL 100700Z AUTO 00000KT 1 1/2SM 20/15 A2980 RMK T02000150 IEM_DS3505
ZGKL,2008-01-10 08:00,ZGKL 100800Z AUTO 00000KT 1 1/2SM 20/15 A2977 RMK T02000150 IEM_DS3505
ZGKL,2008-01-10 09:00,ZGKL 100900Z AUTO 20004KT 8SM 22/14 A2977 RMK SLP078 T02180140 57025 IEM_DS3505
ZGKL,2008-01-10 10:00,ZGKL 101000Z AUTO 00000KT 1 1/4SM 19/15 A2977 RMK T01900150 IEM_DS3505
ZGKL,2008-01-10 11:00,ZGKL 101100Z AUTO 00000KT 1 1/4SM 18/15 A2977 RMK T01800150 IEM_DS3505
ZGKL,2008-01-10 12:00,ZGKL 101200Z AUTO 20002KT 7SM 21/14 A2980 RMK SLP090 T02080137 52012 IEM_DS3505
ZGKL,2008-01-10 13:00,ZGKL 101300Z AUTO 00000KT 1SM 17/15 A2980 RMK T01700150 IEM_DS3505
ZGKL,2008-01-10 14:00,ZGKL 101400Z AUTO 00000KT 1SM 17/15 A2980 RMK T01700150 IEM_DS3505
ZGKL,2008-01-10 15:00,ZGKL 101500Z AUTO 04002KT 7SM 18/14 A2980 RMK SLP097 T01820141 52007 IEM_DS3505
ZGKL,2008-01-10 16:00,ZGKL 101600Z AUTO 00000KT 1SM 17/15 A2980 RMK T01700150 IEM_DS3505
ZGKL,2008-01-10 17:00,ZGKL 101700Z AUTO 00000KT 1SM 16/15 A2980 RMK T01600150 IEM_DS3505
ZGKL,2008-01-10 18:00,ZGKL 101800Z AUTO 20004KT 7SM 20/15 A2980 RMK SLP092 T02020146 57003 IEM_DS3505
ZGKL,2008-01-10 19:00,ZGKL 101900Z AUTO 00000KT RMK IEM_DS3505
ZGKL,2008-01-10 20:00,ZGKL 102000Z AUTO 00000KT 16/15 RMK T01600150 IEM_DS3505
ZGKL,2008-01-10 21:00,ZGKL 102100Z AUTO 20004KT 6SM A2980 RMK SLP088 57004 IEM_DS3505
ZGKL,2008-01-10 22:00,ZGKL 102200Z AUTO 00000KT 1SM 16/15 A2980 RMK T01600150 IEM_DS3505
ZGKL,2008-01-10 23:00,ZGKL 102300Z AUTO 00000KT 1 1/4SM 16/15 A2980 RMK T01600150 IEM_DS3505
ZGKL,2008-01-11 00:00,ZGKL 110000Z AUTO 18004KT 7SM 20/15 A2983 RMK SLP103 T02020146 52014 IEM_DS3505
ZGKL,2008-01-11 01:00,ZGKL 110100Z AUTO 13008KT 5SM 21/16 A2983 RMK T02100160 IEM_DS3505
ZGKL,2008-01-11 02:00,ZGKL 110200Z AUTO 12006KT 4SM 21/16 A2985 RMK T02100160 IEM_DS3505
ZGKL,2008-01-11 03:00,ZGKL 110300Z AUTO 20006KT 7SM 22/15 A2985 RMK SLP117 T02220148 52014 IEM_DS3505
ZGKL,2008-01-11 04:00,ZGKL 110400Z AUTO 15006KT 7SM 24/16 A2985 RMK T02400160 IEM_DS3505
ZGKL,2008-01-11 05:00,ZGKL 110500Z AUTO 18014KT 7SM 24/15 A2980 RMK T02400150 IEM_DS3505
ZGKL,2008-01-11 06:00,ZGKL 110600Z AUTO 18004KT 9SM 24/14 A2977 RMK SLP084 T02350145 57031 IEM_DS3505
ZGKL,2008-01-11 07:00,ZGKL 110700Z AUTO 18012KT 7SM 26/15 A2974 RMK T02600150 IEM_DS3505
ZGKL,2008-01-11 08:00,ZGKL 110800Z AUTO 19014KT 7SM 25/14 A2974 RMK T02500140 IEM_DS3505
ZGKL,2008-01-11 09:00,ZGKL 110900Z AUTO 16004KT 9SM 24/14 A2974 RMK SLP072 T02420143 57012 IEM_DS3505
ZGKL,2008-01-11 10:00,ZGKL 111000Z AUTO 14008KT 7SM 23/15 A2974 RMK T02300150 IEM_DS3505
ZGKL,2008-01-11 11:00,ZGKL 111100Z AUTO 13006KT 7SM 21/15 A2977 RMK T02100150 IEM_DS3505
ZGKL,2008-01-11 12:00,ZGKL 111200Z AUTO 02006KT 9SM 18/10 A2980 RMK SLP097 T01780104 52023 IEM_DS3505
ZGKL,2008-01-11 13:00,ZGKL 111300Z AUTO 00000KT 4SM 19/15 A2980 RMK T01900150 IEM_DS3505
ZGKL,2008-01-11 14:00,ZGKL 111400Z AUTO 06010KT 1 1/4SM 18/12 A2983 RMK T01800120 IEM_DS3505
ZGKL,2008-01-11 15:00,ZGKL 111500Z AUTO 02008KT 9SM 14/07 A2985 RMK SLP122 T01390074 52023 IEM_DS3505
ZGKL,2008-01-11 16:00,ZGKL 111600Z AUTO 05006KT 1 1/4SM 15/09 A2988 RMK T01500090 IEM_DS3505
ZGKL,2008-01-11 17:00,ZGKL 111700Z AUTO 08008KT 1 1/4SM 14/08 A2991 RMK T01400080 IEM_DS3505
ZGKL,2008-01-11 18:00,ZGKL 111800Z AUTO 36012KT 7SM 11/05 A2994 RMK SLP146 T01090052 52023 IEM_DS3505
ZGKL,2008-01-11 19:00,ZGKL 111900Z AUTO 05008KT 1 1/4SM 11/06 A2994 RMK T01100060 IEM_DS3505
ZGKL,2008-01-11 20:00,ZGKL 112000Z AUTO 06008KT 1 1/2SM 10/06 A2997 RMK T01000060 IEM_DS3505
ZGKL,2008-01-11 21:00,ZGKL 112100Z AUTO 04008KT 7SM 09/04 A3000 RMK SLP165 T00870039 52019 IEM_DS3505
ZGKL,2008-01-11 22:00,ZGKL 112200Z AUTO 06006KT 2SM 09/05 A3000 RMK T00900050 IEM_DS3505
ZGKL,2008-01-11 23:00,ZGKL 112300Z AUTO 05008KT 2 1/2SM 08/05 A3003 RMK T00800050 IEM_DS3505
ZGKL,2008-01-12 00:00,ZGKL 120000Z AUTO 02010KT 7SM 08/03 A3006 RMK SLP196 T00770028 52027 IEM_DS3505
ZGKL,2008-01-12 01:00,ZGKL 120100Z AUTO 06008KT 3SM 08/04 A3009 RMK T00800040 IEM_DS3505
ZGKL,2008-01-12 02:00,ZGKL 120200Z AUTO 07006KT 4SM 08/04 A3012 RMK T00800040 IEM_DS3505
ZGKL,2008-01-12 03:00,ZGKL 120300Z AUTO 02012KT 7SM 07/02 A3012 RMK SLP218 T00740023 52021 IEM_DS3505
ZGKL,2008-01-12 04:00,ZGKL 120400Z AUTO 07008KT 4SM 08/04 A3012 RMK T00800040 IEM_DS3505
ZGKL,2008-01-12 05:00,ZGKL 120500Z AUTO 05012KT 4SM 08/03 A3009 RMK T00800030 IEM_DS3505
ZGKL,2008-01-12 06:00,ZGKL 120600Z AUTO 02010KT 8SM 07/02 A3006 RMK SLP198 T00680021 57021 IEM_DS3505
ZGKL,2008-01-12 07:00,ZGKL 120700Z AUTO 06010KT 3SM 07/03 A3006 RMK T00700030 IEM_DS3505
ZGKL,2008-01-12 08:00,ZGKL 120800Z AUTO 07010KT 3SM 07/03 A3006 RMK T00700030 IEM_DS3505
ZGKL,2008-01-12 09:00,ZGKL 120900Z AUTO 02010KT 8SM 06/01 A3009 RMK SLP207 T00620013 52007 IEM_DS3505
ZGKL,2008-01-12 10:00,ZGKL 121000Z AUTO 06010KT 4SM 06/02 A3009 RMK T00600020 IEM_DS3505
ZGKL,2008-01-12 11:00,ZGKL 121100Z AUTO 06014KT 4SM 06/02 A3012 RMK T00600020 IEM_DS3505
ZGKL,2008-01-12 12:00,ZGKL 121200Z AUTO 02012KT 7SM 05/01 A3015 RMK SLP232 T00520006 52024 IEM_DS3505
ZGKL,2008-01-12 13:00,ZGKL 121300Z AUTO 06010KT 4SM 05/02 A3018 RMK T00500020 IEM_DS3505
ZGKL,2008-01-12 14:00,ZGKL 121400Z AUTO 06008KT 5SM 05/02 A3021 RMK T00500020 IEM_DS3505
ZGKL,2008-01-12 15:00,ZGKL 121500Z AUTO 02014KT 7SM 05/00 A3021 RMK SLP254 T00460000 52021 IEM_DS3505
ZGKL,2008-01-12 16:00,ZGKL 121600Z AUTO 06012KT 7SM 05/01 A3024 RMK T00500010 IEM_DS3505
ZGKL,2008-01-12 17:00,ZGKL 121700Z AUTO 05010KT 7SM 05/01 A3024 RMK T00500010 IEM_DS3505
ZGKL,2008-01-12 18:00,ZGKL 121800Z AUTO 02010KT 7SM 04/M01 A3024 RMK SLP265 T00411007 52011 IEM_DS3505
ZGKL,2008-01-12 19:00,ZGKL 121900Z AUTO 06010KT 04/01 A3024 RMK T00400010 IEM_DS3505
ZGKL,2008-01-12 20:00,ZGKL 122000Z AUTO 07010KT 04/01 A3024 RMK T00400010 IEM_DS3505
ZGKL,2008-01-12 21:00,ZGKL 122100Z AUTO 02014KT 7SM 04/M01 A3024 RMK 70000 SLP262 T00381012 57003 IEM_DS3505
ZGKL,2008-01-12 22:00,ZGKL 122200Z AUTO 06008KT 6SM 04/01 A3027 RMK T00400010 IEM_DS3505
ZGKL,2008-01-12 23:00,ZGKL 122300Z AUTO 05008KT 5SM 04/01 A3030 RMK T00400010 IEM_DS3505
ZGKL,2008-01-13 00:00,ZGKL 130000Z AUTO 02010KT 11SM 04/M01 A3033 RMK 60000 70000 SLP287 T00361008 52024 IEM_DS3505
ZGKL,2008-01-13 01:00,ZGKL 130100Z AUTO 05008KT 7SM 04/00 A3036 RMK T00400000 IEM_DS3505
ZGKL,2008-01-13 02:00,ZGKL 130200Z AUTO 07010KT 7SM 04/01 A3036 RMK T00400010 IEM_DS3505
ZGKL,2008-01-13 03:00,ZGKL 130300Z AUTO 36010KT 12SM 04/M01 A3036 RMK SLP307 T00361010 52019 IEM_DS3505
ZGKL,2008-01-13 04:00,ZGKL 130400Z AUTO 07010KT 7SM 04/00 A3033 RMK T00400000 IEM_DS3505
ZGKL,2008-01-13 05:00,ZGKL 130500Z AUTO 07010KT 7SM 04/00 A3030 RMK T00400000 IEM_DS3505
ZGKL,2008-01-13 06:00,ZGKL 130600Z AUTO 02014KT 11SM 04/M01 A3030 RMK SLP282 T00351013 57025 IEM_DS3505
ZGKL,2008-01-13 07:00,ZGKL 130700Z AUTO 06012KT 7SM 04/00 A3027 RMK T00400000 IEM_DS3505
ZGKL,2008-01-13 08:00,ZGKL 130800Z AUTO 06012KT 7SM 04/00 A3027 RMK T00400000 IEM_DS3505
ZGKL,2008-01-13 09:00,ZGKL 130900Z AUTO 02012KT 11SM 03/M02 A3030 RMK SLP281 T00311016 57001 IEM_DS3505
ZGKL,2008-01-13 10:00,ZGKL 131000Z AUTO 06012KT 7SM 03/00 A3030 RMK T00300000 IEM_DS3505
ZGKL,2008-01-13 11:00,ZGKL 131100Z AUTO 06008KT 7SM 03/00 A3033 RMK T00300000 IEM_DS3505
ZGKL,2008-01-13 12:00,ZGKL 131200Z AUTO 02012KT 9SM 03/M02 A3036 RMK SLP298 T00281021 52017 IEM_DS3505
ZGKL,2008-01-13 13:00,ZGKL 131300Z AUTO 07012KT 7SM 03/00 A3036 RMK T00300000 IEM_DS3505
ZGKL,2008-01-13 14:00,ZGKL 131400Z AUTO 06010KT 7SM 03/M01 A3036 RMK T00301010 IEM_DS3505
ZGKL,2008-01-13 15:00,ZGKL 131500Z AUTO 02016KT 9SM 02/M03 A3036 RMK SLP304 T00221031 52005 IEM_DS3505
ZGKL,2008-01-13 16:00,ZGKL 131600Z AUTO 06010KT 7SM 02/M02 A3036 RMK T00201020 IEM_DS3505
ZGKL,2008-01-13 17:00,ZGKL 131700Z AUTO 07010KT 7SM 02/M02 A3036 RMK T00201020 IEM_DS3505
ZGKL,2008-01-13 18:00,ZGKL 131800Z AUTO 02012KT 9SM 02/M03 A3036 RMK SLP303 T00191032 57001 IEM_DS3505
ZGKL,2008-01-13 19:00,ZGKL 131900Z AUTO 06010KT 7SM 02/M02 A3033 RMK T00201020 IEM_DS3505
ZGKL,2008-01-13 20:00,ZGKL 132000Z AUTO 05008KT 7SM 02/M02 A3033 RMK T00201020 IEM_DS3505
ZGKL,2008-01-13 21:00,ZGKL 132100Z AUTO 02010KT 8SM 02/M04 A3033 RMK 70000 SLP291 T00161035 57012 IEM_DS3505
ZGKL,2008-01-13 22:00,ZGKL 132200Z AUTO 05004KT 7SM 02/M02 A3036 RMK T00201020 IEM_DS3505
ZGKL,2008-01-13 23:00,ZGKL 132300Z AUTO 05006KT 5SM 02/M02 A3036 RMK T00201020 IEM_DS3505
ZGKL,2008-01-14 00:00,ZGKL 140000Z AUTO 02008KT 7SM 02/M03 A3036 RMK SLP303 T00171032 52012 IEM_DS3505
ZGKL,2008-01-14 01:00,ZGKL 140100Z AUTO 07006KT 4SM 02/M02 A3036 RMK T00201020 IEM_DS3505
ZGKL,2008-01-14 02:00,ZGKL 140200Z AUTO 06008KT 4SM 02/M02 A3039 RMK T00201020 IEM_DS3505
ZGKL,2008-01-14 03:00,ZGKL 140300Z AUTO 02010KT 9SM 02/M03 A3039 RMK SLP313 T00211028 52009 IEM_DS3505
ZGKL,2008-01-14 04:00,ZGKL 140400Z AUTO 05008KT 4SM 03/M01 A3036 RMK T00301010 IEM_DS3505
ZGKL,2008-01-14 05:00,ZGKL 140500Z AUTO 06008KT 4SM 03/M01 A3030 RMK T00301010 IEM_DS3505
ZGKL,2008-01-14 06:00,ZGKL 140600Z AUTO 02008KT 9SM 02/M02 A3027 RMK SLP273 T00241025 57039 IEM_DS3505
ZGKL,2008-01-14 07:00,ZGKL 140700Z AUTO 07006KT 4SM 03/M01 A3027 RMK T00301010 IEM_DS3505
ZGKL,2008-01-14 08:00,ZGKL 140800Z AUTO 07010KT 4SM 03/M02 A3024 RMK T00301020 IEM_DS3505
ZGKL,2008-01-14 09:00,ZGKL 140900Z AUTO 02010KT 9SM 02/M03 A3027 RMK SLP270 T00201031 57003 IEM_DS3505
ZGKL,2008-01-14 10:00,ZGKL 141000Z AUTO 06010KT 4SM 02/M02 A3027 RMK T00201020 IEM_DS3505
ZGKL,2008-01-14 11:00,ZGKL 141100Z AUTO 06010KT 5SM 02/M02 A3030 RMK T00201020 IEM_DS3505
ZGKL,2008-01-14 12:00,ZGKL 141200Z AUTO 04004KT 9SM 02/M03 A3030 RMK SLP286 T00171032 52016 IEM_DS3505
ZGKL,2008-01-14 13:00,ZGKL 141300Z AUTO 06010KT 6SM 02/M02 A3033 RMK T00201020 IEM_DS3505
ZGKL,2008-01-14 14:00,ZGKL 141400Z AUTO 06008KT 6SM 01/M02 A3036 RMK T00101020 IEM_DS3505
ZGKL,2008-01-14 15:00,ZGKL 141500Z AUTO 02008KT 9SM 01/M04 A3036 RMK SLP301 T00131036 52014 IEM_DS3505
ZGKL,2008-01-14 16:00,ZGKL 141600Z AUTO 06006KT 6SM 01/M02 A3036 RMK T00101020 IEM_DS3505
ZGKL,2008-01-14 17:00,ZGKL 141700Z AUTO 02/M02 A3033 RMK T00201020 IEM_DS3505
ZGKL,2008-01-14 18:00,ZGKL 141800Z AUTO 02008KT 8SM 01/M04 A3036 RMK SLP296 T00121035 57004 IEM_DS3505
ZGKL,2008-01-14 19:00,ZGKL 141900Z AUTO 02/M02 A3036 RMK T00201020 IEM_DS3505
ZGKL,2008-01-14 20:00,ZGKL 142000Z AUTO 04004KT 01/M02 A3036 RMK T00101020 IEM_DS3505
ZGKL,2008-01-14 21:00,ZGKL 142100Z AUTO 36010KT 8SM 01/M03 A3036 RMK SLP303 T00091027 52006 IEM_DS3505
ZGKL,2008-01-14 22:00,ZGKL 142200Z AUTO 05006KT 4SM 01/M01 A3039 RMK T00101010 IEM_DS3505
ZGKL,2008-01-14 23:00,ZGKL 142300Z AUTO 06004KT 7SM 01/M02 A3042 RMK T00101020 IEM_DS3505
ZGKL,2008-01-15 00:00,ZGKL 150000Z AUTO 36010KT 9SM 01/M03 A3045 RMK SLP330 T00101026 52026 IEM_DS3505
ZGKL,2008-01-15 01:00,ZGKL 150100Z AUTO 04006KT 7SM 01/M02 A3045 RMK T00101020 IEM_DS3505
ZGKL,2008-01-15 02:00,ZGKL 150200Z AUTO 04008KT 7SM 02/M02 A3047 RMK T00201020 IEM_DS3505
ZGKL,2008-01-15 03:00,ZGKL 150300Z AUTO 02008KT 9SM 02/M03 A3047 RMK SLP346 T00171028 52016 IEM_DS3505
ZGKL,2008-01-15 04:00,ZGKL 150400Z AUTO 05006KT 7SM 03/M02 A3047 RMK T00301020 IEM_DS3505
ZGKL,2008-01-15 05:00,ZGKL 150500Z AUTO 04010KT 7SM 04/M02 A3042 RMK T00401020 IEM_DS3505
ZGKL,2008-01-15 06:00,ZGKL 150600Z AUTO 02010KT 11SM 02/M03 A3039 RMK SLP321 T00211028 57024 IEM_DS3505
ZGKL,2008-01-15 07:00,ZGKL 150700Z AUTO 05010KT 7SM 04/M02 A3039 RMK T00401020 IEM_DS3505
ZGKL,2008-01-15 08:00,ZGKL 150800Z AUTO 06010KT 7SM 03/M02 A3039 RMK T00301020 IEM_DS3505
ZGKL,2008-01-15 09:00,ZGKL 150900Z AUTO 02014KT 11SM 02/M03 A3039 RMK SLP319 T00191030 57002 IEM_DS3505
ZGKL,2008-01-15 10:00,ZGKL 151000Z AUTO 06012KT 7SM 02/M02 A3042 RMK T00201020 IEM_DS3505
ZGKL,2008-01-15 11:00,ZGKL 151100Z AUTO 06012KT 7SM 02/M02 A3045 RMK T00201020 IEM_DS3505
ZGKL,2008-01-15 12:00,ZGKL 151200Z AUTO 36010KT 9SM 02/M04 A3047 RMK SLP343 T00161035 52023 IEM_DS3505
ZGKL,2008-01-15 13:00,ZGKL 151300Z AUTO 05010KT 7SM 02/M02 A3050 RMK T00201020 IEM_DS3505
ZGKL,2008-01-15 14:00,ZGKL 151400Z AUTO 06010KT 4SM 02/M02 A3050 RMK T00201020 IEM_DS3505
ZGKL,2008-01-15 15:00,ZGKL 151500Z AUTO 02010KT 9SM 02/M04 A3050 RMK SLP357 T00151038 52014 IEM_DS3505
ZGKL,2008-01-15 16:00,ZGKL 151600Z AUTO 05006KT 4SM 02/M02 A3053 RMK T00201020 IEM_DS3505
ZGKL,2008-01-15 17:00,ZGKL 151700Z AUTO 04006KT 4SM 02/M02 A3053 RMK T00201020 IEM_DS3505
ZGKL,2008-01-15 18:00,ZGKL 151800Z AUTO 36012KT 9SM 01/M04 A3053 RMK SLP360 T00141041 52003 IEM_DS3505
ZGKL,2008-01-15 19:00,ZGKL 151900Z AUTO 05008KT 02/M03 A3050 RMK T00201030 IEM_DS3505
ZGKL,2008-01-15 20:00,ZGKL 152000Z AUTO 04006KT 02/M03 A3050 RMK T00201030 IEM_DS3505
ZGKL,2008-01-15 21:00,ZGKL 152100Z AUTO 02008KT 9SM 01/M04 A3050 RMK SLP351 T00111039 57009 IEM_DS3505
ZGKL,2008-01-15 22:00,ZGKL 152200Z AUTO 05006KT 4SM 02/M03 A3050 RMK T00201030 IEM_DS3505
ZGKL,2008-01-15 23:00,ZGKL 152300Z AUTO 06004KT 3SM 02/M03 A3053 RMK T00201030 IEM_DS3505
ZGKL,2008-01-16 00:00,ZGKL 160000Z AUTO 02010KT 6SM 01/M04 A3053 RMK SLP366 T00121040 52015 IEM_DS3505
ZGKL,2008-01-16 02:00,ZGKL 160200Z AUTO 05010KT 4SM 03/M03 A3056 RMK T00301030 IEM_DS3505
ZGKL,2008-01-16 03:00,ZGKL 160300Z AUTO 02010KT 6SM 02/M04 A3053 RMK SLP369 T00211042 52003 IEM_DS3505
ZGKL,2008-01-16 04:00,ZGKL 160400Z AUTO 06008KT 3SM 04/M03 A3050 RMK T00401030 IEM_DS3505
ZGKL,2008-01-16 05:00,ZGKL 160500Z AUTO 08010KT 4SM 05/M03 A3047 RMK T00501030 IEM_DS3505
ZGKL,2008-01-16 06:00,ZGKL 160600Z AUTO 02008KT 7SM 04/M04 A3045 RMK SLP334 T00351044 57034 IEM_DS3505
ZGKL,2008-01-16 07:00,ZGKL 160700Z AUTO 07010KT 4SM 04/M03 A3042 RMK T00401030 IEM_DS3505
ZGKL,2008-01-16 08:00,ZGKL 160800Z AUTO 06012KT 4SM 04/M03 A3042 RMK T00401030 IEM_DS3505
ZGKL,2008-01-16 09:00,ZGKL 160900Z AUTO 02010KT 6SM 03/M04 A3042 RMK SLP326 T00301045 57008 IEM_DS3505
ZGKL,2008-01-16 10:00,ZGKL 161000Z AUTO 06012KT 3SM 03/M04 A3045 RMK T00301040 IEM_DS3505
ZGKL,2008-01-16 11:00,ZGKL 161100Z AUTO 06010KT 3SM 03/M03 A3045 RMK T00301030 IEM_DS3505
ZGKL,2008-01-16 12:00,ZGKL 161200Z AUTO 02012KT 6SM 02/M04 A3047 RMK SLP342 T00191042 52015 IEM_DS3505
ZGKL,2008-01-16 13:00,ZGKL 161300Z AUTO 07008KT 2 1/2SM 02/M03 A3047 RMK T00201030 IEM_DS3505
ZGKL,2008-01-16 14:00,ZGKL 161400Z AUTO 07012KT 2 1/2SM 02/M03 A3047 RMK T00201030 IEM_DS3505
ZGKL,2008-01-16 15:00,ZGKL 161500Z AUTO 02008KT 6SM 02/M04 A3050 RMK SLP352 T00171040 52010 IEM_DS3505
ZGKL,2008-01-16 16:00,ZGKL 161600Z AUTO 05008KT 3SM 02/M03 A3050 RMK T00201030 IEM_DS3505
ZGKL,2008-01-16 17:00,ZGKL 161700Z AUTO 03004KT 3SM 02/M03 A3050 RMK T00201030 IEM_DS3505
ZGKL,2008-01-16 18:00,ZGKL 161800Z AUTO 02010KT 6SM 02/M04 A3050 RMK SLP355 T00151038 52004 IEM_DS3505
ZGKL,2008-01-16 19:00,ZGKL 161900Z AUTO 00000KT 02/M02 A3050 RMK T00201020 IEM_DS3505
ZGKL,2008-01-16 20:00,ZGKL 162000Z AUTO 08004KT 02/M02 RMK T00201020 IEM_DS3505
ZGKL,2008-01-16 21:00,ZGKL 162100Z AUTO 02008KT 6SM 01/M03 A3047 RMK SLP344 T00101027 57011 IEM_DS3505
ZGKL,2008-01-16 22:00,ZGKL 162200Z AUTO 04004KT 2 1/2SM 01/M02 A3047 RMK T00101020 IEM_DS3505
ZGKL,2008-01-16 23:00,ZGKL 162300Z AUTO 06004KT 2SM 01/M02 A3047 RMK T00101020 IEM_DS3505
ZGKL,2008-01-17 00:00,ZGKL 170000Z AUTO 02006KT 5SM 01/M03 A3050 RMK 60000 70000 SLP348 T00081028 52003 IEM_DS3505
ZGKL,2008-01-17 01:00,ZGKL 170100Z AUTO 2 1/2SM 02/M02 A3050 RMK T00201020 IEM_DS3505
ZGKL,2008-01-17 02:00,ZGKL 170200Z AUTO 09004KT 3SM 02/M02 A3050 RMK T00201020 IEM_DS3505
ZGKL,2008-01-17 03:00,ZGKL 170300Z AUTO 04006KT 6SM 04/M03 A3047 RMK SLP342 T00351031 57005 IEM_DS3505
ZGKL,2008-01-17 04:00,ZGKL 170400Z AUTO 3SM 04/M02 A3045 RMK T00401020 IEM_DS3505
ZGKL,2008-01-17 05:00,ZGKL 170500Z AUTO 4SM 05/M02 A3039 RMK T00501020 IEM_DS3505
ZGKL,2008-01-17 06:00,ZGKL 170600Z AUTO 07006KT 7SM 05/M03 A3036 RMK SLP301 T00521031 57039 IEM_DS3505
ZGKL,2008-01-17 07:00,ZGKL 170700Z AUTO 06010KT 4SM 06/M03 A3033 RMK T00601030 IEM_DS3505
ZGKL,2008-01-17 08:00,ZGKL 170800Z AUTO 06012KT 4SM 06/M03 A3030 RMK T00601030 IEM_DS3505
ZGKL,2008-01-17 09:00,ZGKL 170900Z AUTO 02006KT 8SM 05/M03 A3030 RMK SLP287 T00461032 57015 IEM_DS3505
ZGKL,2008-01-17 10:00,ZGKL 171000Z AUTO 06010KT 4SM 05/M02 A3033 RMK T00501020 IEM_DS3505
ZGKL,2008-01-17 11:00,ZGKL 171100Z AUTO 07010KT 3SM 04/M02 A3033 RMK T00401020 IEM_DS3505
ZGKL,2008-01-17 12:00,ZGKL 171200Z AUTO 06008KT 3SM 03/M02 A3033 RMK T00301020 IEM_DS3505
ZGKL,2008-01-17 13:00,ZGKL 171300Z AUTO 06010KT 3SM 03/M02 A3036 RMK T00301020 IEM_DS3505
ZGKL,2008-01-17 14:00,ZGKL 171400Z AUTO 06012KT 3SM 03/M02 A3036 RMK T00301020 IEM_DS3505
ZGKL,2008-01-17 15:00,ZGKL 171500Z AUTO 02004KT 7SM 02/M03 A3036 RMK SLP300 T00251028 52003 IEM_DS3505
ZGKL,2008-01-17 16:00,ZGKL 171600Z AUTO 02008KT 4SM 03/M02 A3036 RMK T00301020 IEM_DS3505
ZGKL,2008-01-17 17:00,ZGKL 171700Z AUTO 03/M02 A3036 RMK T00301020 IEM_DS3505
ZGKL,2008-01-17 18:00,ZGKL 171800Z AUTO 02004KT 7SM 03/M03 A3033 RMK SLP291 T00321029 57008 IEM_DS3505
ZGKL,2008-01-17 19:00,ZGKL 171900Z AUTO 06006KT 03/M02 A3033 RMK T00301020 IEM_DS3505
ZGKL,2008-01-17 20:00,ZGKL 172000Z AUTO 07006KT 03/M02 A3030 RMK T00301020 IEM_DS3505
ZGKL,2008-01-17 21:00,ZGKL 172100Z AUTO 02004KT 7SM 03/M02 A3030 RMK 70000 SLP280 T00311024 57011 IEM_DS3505
ZGKL,2008-01-17 22:00,ZGKL 172200Z AUTO 06008KT 3SM 03/M02 A3030 RMK T00301020 IEM_DS3505
ZGKL,2008-01-17 23:00,ZGKL 172300Z AUTO 05006KT 3SM 03/M02 A3030 RMK T00301020 IEM_DS3505
ZGKL,2008-01-18 00:00,ZGKL 180000Z AUTO 04006KT 6SM 02/M02 A3033 RMK SLP287 T00251020 52006 IEM_DS3505
ZGKL,2008-01-18 01:00,ZGKL 180100Z AUTO 05006KT 2 1/2SM 03/M01 A3033 RMK T00301010 IEM_DS3505
ZGKL,2008-01-18 02:00,ZGKL 180200Z AUTO 06006KT 2SM 03/M01 A3033 RMK T00301010 IEM_DS3505
ZGKL,2008-01-18 03:00,ZGKL 180300Z AUTO 02006KT 6SM 02/M01 A3033 RMK SLP291 T00201007 52004 IEM_DS3505
ZGKL,2008-01-18 04:00,ZGKL 180400Z AUTO 08004KT 1SM 02/01 A3030 RMK T00200010 IEM_DS3505
ZGKL,2008-01-18 05:00,ZGKL 180500Z AUTO 07004KT 1SM 02/01 A3027 RMK T00200010 IEM_DS3505
ZGKL,2008-01-18 06:00,ZGKL 180600Z AUTO 02006KT 5SM 02/00 A3024 RMK 60000 SLP255 T00210003 57035 IEM_DS3505
ZGKL,2008-01-18 07:00,ZGKL 180700Z AUTO 06006KT 1SM 02/01 A3021 RMK T00200010 IEM_DS3505
ZGKL,2008-01-18 08:00,ZGKL 180800Z AUTO 06006KT 1SM 02/01 A3021 RMK T00200010 IEM_DS3505
ZGKL,2008-01-18 09:00,ZGKL 180900Z AUTO 02004KT 4SM 02/M00 A3018 RMK SLP244 T00221002 57011 IEM_DS3505
ZGKL,2008-01-18 10:00,ZGKL 181000Z AUTO 07006KT 1 1/4SM 02/01 A3018 RMK T00200010 IEM_DS3505
ZGKL,2008-01-18 11:00,ZGKL 181100Z AUTO 07006KT 1SM 02/01 A3021 RMK T00200010 IEM_DS3505
ZGKL,2008-01-18 12:00,ZGKL 181200Z AUTO 02006KT 4SM 02/M00 A3021 RMK 60004 SLP250 T00171001 52006 IEM_DS3505
ZGKL,2008-01-18 13:00,ZGKL 181300Z AUTO 07004KT 1 1/2SM 02/01 A3021 RMK T00200010 IEM_DS3505
ZGKL,2008-01-18 14:00,ZGKL 181400Z AUTO 06006KT 2 1/2SM 02/01 A3024 RMK T00200010 IEM_DS3505
ZGKL,2008-01-18 15:00,ZGKL 181500Z AUTO 02008KT 4SM 02/00 A3024 RMK SLP258 T00190000 52007 IEM_DS3505
ZGKL,2008-01-18 16:00,ZGKL 181600Z AUTO 00000KT 2SM 02/01 A3024 RMK T00200010 IEM_DS3505
ZGKL,2008-01-18 17:00,ZGKL 181700Z AUTO 00000KT 1 1/2SM 02/01 A3021 RMK T00200010 IEM_DS3505
ZGKL,2008-01-18 18:00,ZGKL 181800Z AUTO 02006KT 3SM 02/00 A3021 RMK 60016 SLP251 T00160004 57007 IEM_DS3505
ZGKL,2008-01-18 19:00,ZGKL 181900Z AUTO 02/01 A3021 RMK T00200010 IEM_DS3505
ZGKL,2008-01-18 20:00,ZGKL 182000Z AUTO 05004KT 02/01 A3018 RMK T00200010 IEM_DS3505
ZGKL,2008-01-18 21:00,ZGKL 182100Z AUTO 02004KT 3SM 02/01 A3015 RMK 70025 SLP237 T00180006 57013 IEM_DS3505
ZGKL,2008-01-18 22:00,ZGKL 182200Z AUTO 05004KT 3SM 02/01 A3015 RMK T00200010 IEM_DS3505
ZGKL,2008-01-18 23:00,ZGKL 182300Z AUTO 05004KT 3SM 02/01 A3018 RMK T00200010 IEM_DS3505
ZGKL,2008-01-19 00:00,ZGKL 190000Z AUTO 02006KT 6SM 02/M00 A3018 RMK 60008 70027 SLP243 T00221001 52006 IEM_DS3505
ZGKL,2008-01-19 01:00,ZGKL 190100Z AUTO 00000KT 2 1/2SM 02/01 A3021 RMK T00200010 IEM_DS3505
ZGKL,2008-01-19 02:00,ZGKL 190200Z AUTO 06004KT 2SM 02/02 A3021 RMK T00200020 IEM_DS3505
ZGKL,2008-01-19 03:00,ZGKL 190300Z AUTO 02006KT 6SM 02/00 A3021 RMK SLP251 T00250002 52008 IEM_DS3505
ZGKL,2008-01-19 04:00,ZGKL 190400Z AUTO 07004KT 1 1/2SM 03/02 A3018 RMK T00300020 IEM_DS3505
ZGKL,2008-01-19 05:00,ZGKL 190500Z AUTO 07004KT 1 1/2SM 03/02 A3015 RMK T00300020 IEM_DS3505
ZGKL,2008-01-19 06:00,ZGKL 190600Z AUTO 02006KT 7SM 03/00 A3012 RMK 60000 SLP221 T00280002 57030 IEM_DS3505
ZGKL,2008-01-19 07:00,ZGKL 190700Z AUTO 07004KT 1 1/2SM 03/02 A3009 RMK T00300020 IEM_DS3505
ZGKL,2008-01-19 08:00,ZGKL 190800Z AUTO 05006KT 1 1/2SM 03/02 A3009 RMK T00300020 IEM_DS3505
ZGKL,2008-01-19 09:00,ZGKL 190900Z AUTO 02004KT 6SM 02/00 A3009 RMK SLP212 T00250004 57009 IEM_DS3505
ZGKL,2008-01-19 10:00,ZGKL 191000Z AUTO 06006KT 2SM 02/02 A3009 RMK T00200020 IEM_DS3505
ZGKL,2008-01-19 11:00,ZGKL 191100Z AUTO 05006KT 2SM 02/02 A3012 RMK T00200020 IEM_DS3505
ZGKL,2008-01-19 12:00,ZGKL 191200Z AUTO 02004KT 7SM 03/00 A3012 RMK 60000 SLP223 T00260000 52011 IEM_DS3505
ZGKL,2008-01-19 13:00,ZGKL 191300Z AUTO 05004KT 2 1/2SM 02/02 A3015 RMK T00200020 IEM_DS3505
ZGKL,2008-01-19 14:00,ZGKL 191400Z AUTO 04004KT 3SM 03/01 A3015 RMK T00300010 IEM_DS3505
ZGKL,2008-01-19 15:00,ZGKL 191500Z AUTO 04010KT 6SM 02/M00 A3015 RMK SLP235 T00221001 52012 IEM_DS3505
ZGKL,2008-01-19 16:00,ZGKL 191600Z AUTO 06004KT 2 1/2SM 02/01 A3018 RMK T00200010 IEM_DS3505
ZGKL,2008-01-19 17:00,ZGKL 191700Z AUTO 04006KT 2 1/2SM 02/01 A3018 RMK T00200010 IEM_DS3505
ZGKL,2008-01-19 18:00,ZGKL 191800Z AUTO 02008KT 6SM 02/00 A3015 RMK 60008 SLP236 T00190000 52001 IEM_DS3505
ZGKL,2008-01-19 19:00,ZGKL 191900Z AUTO 06006KT 3SM 02/01 A3015 RMK T00200010 IEM_DS3505
ZGKL,2008-01-19 20:00,ZGKL 192000Z AUTO 05006KT 3SM 02/01 A3015 RMK T00200010 IEM_DS3505
ZGKL,2008-01-19 21:00,ZGKL 192100Z AUTO 02008KT 6SM 02/M01 A3015 RMK 70012 SLP229 T00181006 57007 IEM_DS3505
ZGKL,2008-01-19 22:00,ZGKL 192200Z AUTO 3SM 02/01 A3015 RMK T00200010 IEM_DS3505
ZGKL,2008-01-19 23:00,ZGKL 192300Z AUTO 00000KT 4SM 02/01 A3018 RMK T00200010 IEM_DS3505
ZGKL,2008-01-20 00:00,ZGKL 200000Z AUTO 02010KT 7SM 02/M01 A3021 RMK 60004 70011 SLP247 T00171009 52018 IEM_DS3505
ZGKL,2008-01-20 01:00,ZGKL 200100Z AUTO 05004KT 2 1/2SM 02/01 A3021 RMK T00200010 IEM_DS3505
ZGKL,2008-01-20 02:00,ZGKL 200200Z AUTO 05006KT 3SM 02/01 A3024 RMK T00200010 IEM_DS3505
ZGKL,2008-01-20 03:00,ZGKL 200300Z AUTO 36010KT 8SM 02/M01 A3024 RMK SLP257 T00241007 52010 IEM_DS3505
ZGKL,2008-01-20 04:00,ZGKL 200400Z AUTO 06006KT 4SM 03/01 A3021 RMK T00300010 IEM_DS3505
ZGKL,2008-01-20 05:00,ZGKL 200500Z AUTO 06006KT 3SM 03/01 A3018 RMK T00300010 IEM_DS3505
ZGKL,2008-01-20 06:00,ZGKL 200600Z AUTO 02006KT 7SM 03/M01 A3015 RMK 60000 SLP231 T00261007 57026 IEM_DS3505
ZGKL,2008-01-20 07:00,ZGKL 200700Z AUTO 05006KT 3SM 03/01 A3012 RMK T00300010 IEM_DS3505
ZGKL,2008-01-20 08:00,ZGKL 200800Z AUTO 06006KT 2 1/2SM 02/01 A3012 RMK T00200010 IEM_DS3505
ZGKL,2008-01-20 09:00,ZGKL 200900Z AUTO 02008KT 6SM 02/M01 A3012 RMK SLP225 T00251009 57006 IEM_DS3505
ZGKL,2008-01-20 10:00,ZGKL 201000Z AUTO 06006KT 2 1/2SM 02/01 A3015 RMK T00200010 IEM_DS3505
ZGKL,2008-01-20 11:00,ZGKL 201100Z AUTO 05008KT 3SM 02/00 A3018 RMK T00200000 IEM_DS3505
ZGKL,2008-01-20 12:00,ZGKL 201200Z AUTO 02008KT 7SM 02/M02 A3018 RMK 60000 SLP244 T00191017 52019 IEM_DS3505
ZGKL,2008-01-20 13:00,ZGKL 201300Z AUTO 05006KT 4SM 02/00 A3021 RMK T00200000 IEM_DS3505
ZGKL,2008-01-20 14:00,ZGKL 201400Z AUTO 05006KT 4SM 02/00 A3021 RMK T00200000 IEM_DS3505
ZGKL,2008-01-20 15:00,ZGKL 201500Z AUTO 02010KT 7SM 02/M02 A3024 RMK SLP258 T00161022 52013 IEM_DS3505
ZGKL,2008-01-20 16:00,ZGKL 201600Z AUTO 06006KT 4SM 02/00 A3024 RMK T00200000 IEM_DS3505
ZGKL,2008-01-20 17:00,ZGKL 201700Z AUTO 05004KT 4SM 02/00 A3024 RMK T00200000 IEM_DS3505
ZGKL,2008-01-20 18:00,ZGKL 201800Z AUTO 02010KT 7SM 01/M02 A3024 RMK 60000 SLP256 T00131021 57002 IEM_DS3505
ZGKL,2008-01-20 19:00,ZGKL 201900Z AUTO 05004KT 2 1/2SM 01/00 A3021 RMK T00100000 IEM_DS3505
ZGKL,2008-01-20 20:00,ZGKL 202000Z AUTO 3SM 01/00 A3021 RMK T00100000 IEM_DS3505
ZGKL,2008-01-20 21:00,ZGKL 202100Z AUTO 02008KT 6SM 01/M02 A3021 RMK 70001 SLP246 T00111021 57009 IEM_DS3505
ZGKL,2008-01-20 22:00,ZGKL 202200Z AUTO 3SM 01/M01 A3021 RMK T00101010 IEM_DS3505
ZGKL,2008-01-20 23:00,ZGKL 202300Z AUTO 4SM 01/M01 A3021 RMK T00101010 IEM_DS3505
ZGKL,2008-01-21 00:00,ZGKL 210000Z AUTO 02008KT 7SM 01/M03 A3024 RMK 60000 70000 SLP256 T00121026 52009 IEM_DS3505
ZGKL,2008-01-21 01:00,ZGKL 210100Z AUTO 05008KT 4SM 01/M01 A3024 RMK T00101010 IEM_DS3505
ZGKL,2008-01-21 02:00,ZGKL 210200Z AUTO 4SM 02/M01 A3027 RMK T00201010 IEM_DS3505
ZGKL,2008-01-21 03:00,ZGKL 210300Z AUTO 02006KT 7SM 02/M02 A3027 RMK SLP269 T00181022 52013 IEM_DS3505
ZGKL,2008-01-21 04:00,ZGKL 210400Z AUTO 05004KT 4SM 02/00 A3024 RMK T00200000 IEM_DS3505
ZGKL,2008-01-21 05:00,ZGKL 210500Z AUTO 04006KT 4SM 02/00 A3021 RMK T00200000 IEM_DS3505
ZGKL,2008-01-21 06:00,ZGKL 210600Z AUTO 02006KT 7SM 02/M02 A3018 RMK 60000 SLP238 T00171015 57031 IEM_DS3505
ZGKL,2008-01-21 07:00,ZGKL 210700Z AUTO 05006KT 4SM 02/00 A3015 RMK T00200000 IEM_DS3505
ZGKL,2008-01-21 08:00,ZGKL 210800Z AUTO 07008KT 4SM 02/M01 A3012 RMK T00201010 IEM_DS3505
ZGKL,2008-01-21 09:00,ZGKL 210900Z AUTO 02004KT 6SM 02/M02 A3012 RMK SLP225 T00181020 57012 IEM_DS3505
ZGKL,2008-01-21 10:00,ZGKL 211000Z AUTO 05008KT 3SM 02/00 A3015 RMK T00200000 IEM_DS3505
ZGKL,2008-01-21 11:00,ZGKL 211100Z AUTO 06006KT 3SM 02/00 A3015 RMK T00200000 IEM_DS3505
ZGKL,2008-01-21 12:00,ZGKL 211200Z AUTO 02006KT 5SM 01/M02 A3018 RMK 60000 SLP240 T00141020 52014 IEM_DS3505
ZGKL,2008-01-21 13:00,ZGKL 211300Z AUTO 06006KT 3SM 01/M01 A3018 RMK T00101010 IEM_DS3505
ZGKL,2008-01-21 14:00,ZGKL 211400Z AUTO 05004KT 2 1/2SM 01/00 A3021 RMK T00100000 IEM_DS3505
ZGKL,2008-01-21 15:00,ZGKL 211500Z AUTO 02010KT 4SM 01/M02 A3021 RMK SLP254 T00081018 52014 IEM_DS3505
ZGKL,2008-01-21 16:00,ZGKL 211600Z AUTO 05004KT 2SM 01/00 A3024 RMK T00100000 IEM_DS3505
ZGKL,2008-01-21 17:00,ZGKL 211700Z AUTO 06004KT 2SM 01/00 A3024 RMK T00100000 IEM_DS3505
ZGKL,2008-01-21 18:00,ZGKL 211800Z AUTO 36008KT 4SM 01/M02 A3024 RMK 60002 SLP258 T00061018 52004 IEM_DS3505
ZGKL,2008-01-21 19:00,ZGKL 211900Z AUTO 04004KT 2 1/2SM 01/M01 A3024 RMK T00101010 IEM_DS3505
ZGKL,2008-01-21 20:00,ZGKL 212000Z AUTO 2SM 01/00 A3024 RMK T00100000 IEM_DS3505
ZGKL,2008-01-21 21:00,ZGKL 212100Z AUTO 36008KT 3SM 00/M02 A3024 RMK 70002 SLP260 T00051016 52002 IEM_DS3505
ZGKL,2008-01-21 22:00,ZGKL 212200Z AUTO 00000KT 2 1/2SM 01/00 A3024 RMK T00100000 IEM_DS3505
ZGKL,2008-01-21 23:00,ZGKL 212300Z AUTO 00000KT 2 1/2SM 01/00 A3027 RMK T00100000 IEM_DS3505
ZGKL,2008-01-22 00:00,ZGKL 220000Z AUTO 36008KT 3SM 01/M02 A3030 RMK 60001 70003 SLP280 T00071017 52019 IEM_DS3505
ZGKL,2008-01-22 01:00,ZGKL 220100Z AUTO 05004KT 4SM 01/M01 A3033 RMK T00101010 IEM_DS3505
ZGKL,2008-01-22 02:00,ZGKL 220200Z AUTO 3SM 01/00 A3033 RMK T00100000 IEM_DS3505
ZGKL,2008-01-22 03:00,ZGKL 220300Z AUTO 02008KT 7SM 02/M02 A3033 RMK SLP294 T00151016 52014 IEM_DS3505
ZGKL,2008-01-22 04:00,ZGKL 220400Z AUTO 4SM 02/00 A3033 RMK T00200000 IEM_DS3505
ZGKL,2008-01-22 05:00,ZGKL 220500Z AUTO 07006KT 4SM 02/00 A3027 RMK T00200000 IEM_DS3505
ZGKL,2008-01-22 06:00,ZGKL 220600Z AUTO 02008KT 8SM 02/M02 A3027 RMK 60000 SLP268 T00211017 57025 IEM_DS3505
ZGKL,2008-01-22 07:00,ZGKL 220700Z AUTO 04004KT 4SM 03/00 A3024 RMK T00300000 IEM_DS3505
ZGKL,2008-01-22 08:00,ZGKL 220800Z AUTO 06006KT 5SM 03/00 A3024 RMK T00300000 IEM_DS3505
ZGKL,2008-01-22 09:00,ZGKL 220900Z AUTO 02008KT 8SM 02/M02 A3024 RMK SLP260 T00211017 57008 IEM_DS3505
ZGKL,2008-01-22 10:00,ZGKL 221000Z AUTO 06008KT 4SM 02/00 A3024 RMK T00200000 IEM_DS3505
ZGKL,2008-01-22 11:00,ZGKL 221100Z AUTO 06008KT 4SM 02/00 A3024 RMK T00200000 IEM_DS3505
ZGKL,2008-01-22 12:00,ZGKL 221200Z AUTO 02006KT 7SM 02/M02 A3027 RMK SLP275 T00161020 52014 IEM_DS3505
ZGKL,2008-01-22 13:00,ZGKL 221300Z AUTO 05006KT 4SM 01/00 A3030 RMK T00100000 IEM_DS3505
ZGKL,2008-01-22 14:00,ZGKL 221400Z AUTO 05006KT 5SM 02/M01 A3033 RMK T00201010 IEM_DS3505
ZGKL,2008-01-22 15:00,ZGKL 221500Z AUTO 02008KT 7SM 01/M02 A3033 RMK SLP294 T00141024 52019 IEM_DS3505
ZGKL,2008-01-22 16:00,ZGKL 221600Z AUTO 00000KT 5SM 02/M01 A3036 RMK T00201010 IEM_DS3505
ZGKL,2008-01-22 17:00,ZGKL 221700Z AUTO 00000KT 4SM 01/M01 A3033 RMK T00101010 IEM_DS3505
ZGKL,2008-01-22 18:00,ZGKL 221800Z AUTO 02008KT 7SM 01/M02 A3036 RMK SLP297 T00101021 52003 IEM_DS3505
ZGKL,2008-01-22 19:00,ZGKL 221900Z AUTO 00000KT 4SM 01/M01 A3036 RMK T00101010 IEM_DS3505
ZGKL,2008-01-22 20:00,ZGKL 222000Z AUTO 05004KT 01/M01 A3033 RMK T00101010 IEM_DS3505
ZGKL,2008-01-22 21:00,ZGKL 222100Z AUTO 02008KT 7SM 01/M02 A3030 RMK 70001 SLP286 T00101024 57010 IEM_DS3505
ZGKL,2008-01-22 22:00,ZGKL 222200Z AUTO 04004KT 4SM 01/M01 A3033 RMK T00101010 IEM_DS3505
ZGKL,2008-01-22 23:00,ZGKL 222300Z AUTO 04006KT 4SM 01/M01 A3033 RMK T00101010 IEM_DS3505
ZGKL,2008-01-23 00:00,ZGKL 230000Z AUTO 36008KT 8SM 01/M02 A3036 RMK 70000 SLP301 T00091025 52014 IEM_DS3505
ZGKL,2008-01-23 01:00,ZGKL 230100Z AUTO 04004KT 4SM 01/M01 A3036 RMK T00101010 IEM_DS3505
ZGKL,2008-01-23 02:00,ZGKL 230200Z AUTO 04004KT 4SM 02/M01 A3036 RMK T00201010 IEM_DS3505
ZGKL,2008-01-23 03:00,ZGKL 230300Z AUTO 02006KT 8SM 02/M02 A3039 RMK SLP309 T00191019 52008 IEM_DS3505
ZGKL,2008-01-23 04:00,ZGKL 230400Z AUTO 6SM 03/M01 A3036 RMK T00301010 IEM_DS3505
ZGKL,2008-01-23 05:00,ZGKL 230500Z AUTO 6SM 03/M01 A3033 RMK T00301010 IEM_DS3505
ZGKL,2008-01-23 06:00,ZGKL 230600Z AUTO 36006KT 8SM 02/M02 A3030 RMK SLP285 T00241019 57023 IEM_DS3505
ZGKL,2008-01-23 07:00,ZGKL 230700Z AUTO 09008KT 4SM 03/M01 A3030 RMK T00301010 IEM_DS3505
ZGKL,2008-01-23 08:00,ZGKL 230800Z AUTO 06010KT 4SM 03/M01 A3030 RMK T00301010 IEM_DS3505
ZGKL,2008-01-23 09:00,ZGKL 230900Z AUTO 02008KT 8SM 02/M02 A3033 RMK SLP292 T00161022 52006 IEM_DS3505
ZGKL,2008-01-23 10:00,ZGKL 231000Z AUTO 05010KT 4SM 02/M01 A3033 RMK T00201010 IEM_DS3505
ZGKL,2008-01-23 11:00,ZGKL 231100Z AUTO 04006KT 4SM 02/M01 A3036 RMK T00201010 IEM_DS3505
ZGKL,2008-01-23 12:00,ZGKL 231200Z AUTO 02010KT 8SM 02/M02 A3039 RMK SLP308 T00171024 52016 IEM_DS3505
ZGKL,2008-01-23 13:00,ZGKL 231300Z AUTO 04004KT 5SM 02/M01 A3039 RMK T00201010 IEM_DS3505
ZGKL,2008-01-23 14:00,ZGKL 231400Z AUTO 05004KT 4SM 02/M01 A3042 RMK T00201010 IEM_DS3505
ZGKL,2008-01-23 15:00,ZGKL 231500Z AUTO 36012KT 7SM 02/M03 A3042 RMK SLP325 T00161027 52017 IEM_DS3505
ZGKL,2008-01-23 16:00,ZGKL 231600Z AUTO 06008KT 5SM 02/M01 A3042 RMK T00201010 IEM_DS3505
ZGKL,2008-01-23 17:00,ZGKL 231700Z AUTO 05008KT 5SM 01/M02 A3042 RMK T00101020 IEM_DS3505
ZGKL,2008-01-23 18:00,ZGKL 231800Z AUTO 02010KT 7SM 01/M03 A3042 RMK SLP325 T00131030 54000 IEM_DS3505
ZGKL,2008-01-23 19:00,ZGKL 231900Z AUTO 01/M02 A3042 RMK T00101020 IEM_DS3505
ZGKL,2008-01-23 20:00,ZGKL 232000Z AUTO 02/M02 A3042 RMK T00201020 IEM_DS3505
ZGKL,2008-01-23 21:00,ZGKL 232100Z AUTO 02012KT 7SM 01/M03 A3042 RMK SLP321 T00111028 57004 IEM_DS3505
ZGKL,2008-01-23 22:00,ZGKL 232200Z AUTO 06004KT 4SM 02/M02 A3042 RMK T00201020 IEM_DS3505
ZGKL,2008-01-23 23:00,ZGKL 232300Z AUTO 05008KT 4SM 02/M02 A3042 RMK T00201020 IEM_DS3505
ZGKL,2008-01-24 00:00,ZGKL 240000Z AUTO 02014KT 6SM 01/M03 A3042 RMK SLP327 T00101029 52006 IEM_DS3505
ZGKL,2008-01-24 01:00,ZGKL 240100Z AUTO 05010KT 2 1/2SM 02/M02 A3045 RMK T00201020 IEM_DS3505
ZGKL,2008-01-24 02:00,ZGKL 240200Z AUTO 06010KT 2 1/2SM 03/M01 A3047 RMK T00301010 IEM_DS3505
ZGKL,2008-01-24 03:00,ZGKL 240300Z AUTO 04012KT 5SM 02/M03 A3047 RMK SLP342 T00231030 52015 IEM_DS3505
ZGKL,2008-01-24 04:00,ZGKL 240400Z AUTO 07010KT 2 1/2SM 05/M01 A3045 RMK T00501010 IEM_DS3505
ZGKL,2008-01-24 05:00,ZGKL 240500Z AUTO 06010KT 2 1/2SM 05/M01 A3042 RMK T00501010 IEM_DS3505
ZGKL,2008-01-24 06:00,ZGKL 240600Z AUTO 02010KT 5SM 04/M03 A3039 RMK SLP313 T00361026 57028 IEM_DS3505
ZGKL,2008-01-24 07:00,ZGKL 240700Z AUTO 07012KT 2 1/2SM 06/M01 A3036 RMK T00601010 IEM_DS3505
ZGKL,2008-01-24 08:00,ZGKL 240800Z AUTO 06014KT 2 1/2SM 05/M02 A3033 RMK T00501020 IEM_DS3505
ZGKL,2008-01-24 09:00,ZGKL 240900Z AUTO 02010KT 4SM 03/M02 A3033 RMK SLP301 T00301025 57012 IEM_DS3505
ZGKL,2008-01-24 10:00,ZGKL 241000Z AUTO 07012KT 2SM 03/M02 A3036 RMK T00301020 IEM_DS3505
ZGKL,2008-01-24 11:00,ZGKL 241100Z AUTO 06012KT 2SM 02/M01 A3036 RMK T00201010 IEM_DS3505
ZGKL,2008-01-24 12:00,ZGKL 241200Z AUTO 02010KT 4SM 02/M03 A3036 RMK SLP310 T00181031 52008 IEM_DS3505
ZGKL,2008-01-24 13:00,ZGKL 241300Z AUTO 07010KT 2SM 02/M02 A3039 RMK T00201020 IEM_DS3505
ZGKL,2008-01-24 14:00,ZGKL 241400Z AUTO 07010KT 1 1/2SM 02/M01 A3039 RMK T00201010 IEM_DS3505
ZGKL,2008-01-24 15:00,ZGKL 241500Z AUTO 02006KT 4SM 01/M02 A3039 RMK SLP314 T00061018 52004 IEM_DS3505
ZGKL,2008-01-24 16:00,ZGKL 241600Z AUTO 04004KT 1 1/4SM 01/M01 A3039 RMK T00101010 IEM_DS3505
ZGKL,2008-01-24 17:00,ZGKL 241700Z AUTO 07004KT 1 1/4SM 01/M01 A3036 RMK T00101010 IEM_DS3505
ZGKL,2008-01-24 18:00,ZGKL 241800Z AUTO 02006KT 4SM 00/M02 A3036 RMK 60000 SLP305 T00031019 57009 IEM_DS3505
ZGKL,2008-01-24 19:00,ZGKL 241900Z AUTO 01/M01 A3036 RMK T00101010 IEM_DS3505
ZGKL,2008-01-24 20:00,ZGKL 242000Z AUTO 01/M01 A3033 RMK T00101010 IEM_DS3505
ZGKL,2008-01-24 21:00,ZGKL 242100Z AUTO 02006KT 3SM 00/M02 A3030 RMK 70000 SLP285 T00021022 57019 IEM_DS3505
ZGKL,2008-01-24 22:00,ZGKL 242200Z AUTO 06004KT 1SM 00/M01 A3033 RMK T00001010 IEM_DS3505
ZGKL,2008-01-24 23:00,ZGKL 242300Z AUTO 00000KT 1SM 00/M01 A3033 RMK T00001010 IEM_DS3505
ZGKL,2008-01-25 00:00,ZGKL 250000Z AUTO 02006KT 3SM 00/M02 A3033 RMK 60000 70001 SLP294 T00011020 52008 IEM_DS3505
ZGKL,2008-01-25 01:00,ZGKL 250100Z AUTO 06004KT 1SM 00/00 A3036 RMK T00000000 IEM_DS3505
ZGKL,2008-01-25 02:00,ZGKL 250200Z AUTO 06008KT 1 1/2SM 01/00 A3039 RMK T00100000 IEM_DS3505
ZGKL,2008-01-25 03:00,ZGKL 250300Z AUTO 02008KT 3SM 01/M01 A3036 RMK SLP306 T00111008 52012 IEM_DS3505
ZGKL,2008-01-25 04:00,ZGKL 250400Z AUTO 05004KT 2SM 02/01 A3033 RMK T00200010 IEM_DS3505
ZGKL,2008-01-25 05:00,ZGKL 250500Z AUTO 06006KT 2SM 02/01 A3030 RMK T00200010 IEM_DS3505
ZGKL,2008-01-25 06:00,ZGKL 250600Z AUTO 02008KT 3SM 02/00 A3027 RMK 60008 SLP278 T00160000 4////1001 57028 IEM_DS3505
ZGKL,2008-01-25 07:00,ZGKL 250700Z AUTO 06006KT 2SM 02/01 A3027 RMK T00200010 IEM_DS3505
ZGKL,2008-01-25 08:00,ZGKL 250800Z AUTO 07006KT 1 1/2SM 02/01 A3027 RMK T00200010 IEM_DS3505
ZGKL,2008-01-25 09:00,ZGKL 250900Z AUTO 02008KT 2 1/2SM 01/M00 A3027 RMK SLP271 T00101003 57007 IEM_DS3505
ZGKL,2008-01-25 10:00,ZGKL 251000Z AUTO 06008KT 1 1/4SM 01/00 A3027 RMK T00100000 IEM_DS3505
ZGKL,2008-01-25 11:00,ZGKL 251100Z AUTO 06006KT 1 1/2SM 01/00 A3027 RMK T00100000 IEM_DS3505
ZGKL,2008-01-25 12:00,ZGKL 251200Z AUTO 02010KT 2 1/2SM 01/M01 A3027 RMK 60012 SLP275 T00061012 52004 IEM_DS3505
ZGKL,2008-01-25 13:00,ZGKL 251300Z AUTO 05006KT 1 1/4SM 01/00 A3030 RMK T00100000 IEM_DS3505
ZGKL,2008-01-25 14:00,ZGKL 251400Z AUTO 06006KT 1 1/2SM 00/00 A3030 RMK T00000000 IEM_DS3505
ZGKL,2008-01-25 15:00,ZGKL 251500Z AUTO 02006KT 2 1/2SM 00/M02 A3033 RMK SLP290 T00021015 52015 IEM_DS3505
ZGKL,2008-01-25 16:00,ZGKL 251600Z AUTO 07004KT 1 1/2SM 00/M01 A3033 RMK T00001010 IEM_DS3505
ZGKL,2008-01-25 17:00,ZGKL 251700Z AUTO 06004KT 2 1/2SM 00/M01 A3033 RMK T00001010 IEM_DS3505
ZGKL,2008-01-25 18:00,ZGKL 251800Z AUTO 02006KT 2 1/2SM 00/M02 A3033 RMK 60003 SLP289 T00011023 40021//// 57001 IEM_DS3505
ZGKL,2008-01-25 19:00,ZGKL 251900Z AUTO 03006KT 00/M01 A3033 RMK T00001010 IEM_DS3505
ZGKL,2008-01-25 20:00,ZGKL 252000Z AUTO 05004KT 00/M01 A3033 RMK T00001010 IEM_DS3505
ZGKL,2008-01-25 21:00,ZGKL 252100Z AUTO 02010KT 3SM 00/M02 A3030 RMK 70024 SLP283 T00011024 57006 IEM_DS3505
ZGKL,2008-01-25 22:00,ZGKL 252200Z AUTO 00000KT 2SM 00/M01 A3033 RMK T00001010 IEM_DS3505
ZGKL,2008-01-25 23:00,ZGKL 252300Z AUTO 04006KT 2 1/2SM 00/M01 A3033 RMK T00001010 IEM_DS3505
ZGKL,2008-01-26 00:00,ZGKL 260000Z AUTO 02010KT 4SM M00/M02 A3036 RMK 60000 70024 SLP309 T10031025 52025 IEM_DS3505
ZGKL,2008-01-26 01:00,ZGKL 260100Z AUTO 06006KT 2 1/2SM 00/M01 A3039 RMK T00001010 IEM_DS3505
ZGKL,2008-01-26 02:00,ZGKL 260200Z AUTO 06008KT 3SM 00/M01 A3042 RMK T00001010 IEM_DS3505
ZGKL,2008-01-26 03:00,ZGKL 260300Z AUTO 36012KT 5SM 00/M03 A3042 RMK SLP324 T00021028 52015 IEM_DS3505
ZGKL,2008-01-26 04:00,ZGKL 260400Z AUTO 05010KT 4SM 01/00 A3039 RMK T00100000 IEM_DS3505
ZGKL,2008-01-26 05:00,ZGKL 260500Z AUTO 07008KT 4SM 01/00 A3036 RMK T00100000 IEM_DS3505
ZGKL,2008-01-26 06:00,ZGKL 260600Z AUTO 02010KT 5SM 01/M02 A3033 RMK 60002 SLP298 T00071025 4////1004 57026 IEM_DS3505
ZGKL,2008-01-26 07:00,ZGKL 260700Z AUTO 06010KT 6SM 01/M01 A3033 RMK T00101010 IEM_DS3505
ZGKL,2008-01-26 08:00,ZGKL 260800Z AUTO 06010KT 6SM 01/M01 A3033 RMK T00101010 IEM_DS3505
ZGKL,2008-01-26 09:00,ZGKL 260900Z AUTO 02010KT 4SM 00/M03 A3030 RMK SLP289 T00051034 57008 IEM_DS3505
ZGKL,2008-01-26 10:00,ZGKL 261000Z AUTO 06008KT 5SM 00/M02 A3030 RMK T00001020 IEM_DS3505
ZGKL,2008-01-26 11:00,ZGKL 261100Z AUTO 05008KT 4SM 00/M02 A3030 RMK T00001020 IEM_DS3505
ZGKL,2008-01-26 12:00,ZGKL 261200Z AUTO 02008KT 5SM M01/M04 A3036 RMK SLP303 T10061038 52013 IEM_DS3505
ZGKL,2008-01-26 13:00,ZGKL 261300Z AUTO 06006KT 2 1/2SM 00/M02 A3036 RMK T00001020 IEM_DS3505
ZGKL,2008-01-26 14:00,ZGKL 261400Z AUTO 05008KT 3SM M01/M02 A3036 RMK T10101020 IEM_DS3505
ZGKL,2008-01-26 15:00,ZGKL 261500Z AUTO 02010KT 5SM M01/M04 A3036 RMK SLP302 T10101043 57001 IEM_DS3505
ZGKL,2008-01-26 16:00,ZGKL 261600Z AUTO 05004KT 2SM M01/M02 A3039 RMK T10101020 IEM_DS3505
ZGKL,2008-01-26 17:00,ZGKL 261700Z AUTO 05006KT 1 1/4SM M01/M02 A3039 RMK T10101020 IEM_DS3505
ZGKL,2008-01-26 18:00,ZGKL 261800Z AUTO 02010KT 6SM M01/M04 A3039 RMK 60000 SLP310 T10131041 40008//// 52008 IEM_DS3505
ZGKL,2008-01-26 19:00,ZGKL 261900Z AUTO 06006KT 2 1/2SM M01/M02 A3036 RMK T10101020 IEM_DS3505
ZGKL,2008-01-26 20:00,ZGKL 262000Z AUTO 05008KT 2 1/2SM M01/M02 A3036 RMK T10101020 IEM_DS3505
ZGKL,2008-01-26 21:00,ZGKL 262100Z AUTO 36008KT 6SM M01/M04 A3036 RMK 70003 SLP305 T10141042 57005 IEM_DS3505
ZGKL,2008-01-26 22:00,ZGKL 262200Z AUTO 05006KT 3SM M01/M02 A3036 RMK T10101020 IEM_DS3505
ZGKL,2008-01-26 23:00,ZGKL 262300Z AUTO 04008KT 4SM M01/M02 A3036 RMK T10101020 IEM_DS3505
ZGKL,2008-01-27 00:00,ZGKL 270000Z AUTO 36010KT 5SM M01/M04 A3039 RMK 60000 70002 SLP313 T10131045 52007 IEM_DS3505
ZGKL,2008-01-27 01:00,ZGKL 270100Z AUTO 5SM M01/M03 A3039 RMK T10101030 IEM_DS3505
ZGKL,2008-01-27 02:00,ZGKL 270200Z AUTO 06004KT 4SM M01/M02 A3039 RMK T10101020 IEM_DS3505
ZGKL,2008-01-27 03:00,ZGKL 270300Z AUTO 02008KT 6SM M01/M04 A3039 RMK SLP317 T10081040 52004 IEM_DS3505
ZGKL,2008-01-27 04:00,ZGKL 270400Z AUTO 7SM 00/M02 A3036 RMK T00001020 IEM_DS3505
ZGKL,2008-01-27 05:00,ZGKL 270500Z AUTO 07004KT 7SM 00/M02 A3030 RMK T00001020 IEM_DS3505
ZGKL,2008-01-27 06:00,ZGKL 270600Z AUTO 02006KT 8SM M00/M04 A3027 RMK 60000 SLP275 T10011035 4////1015 57041 IEM_DS3505
ZGKL,2008-01-27 07:00,ZGKL 270700Z AUTO 06006KT 7SM 01/M02 A3024 RMK T00101020 IEM_DS3505
ZGKL,2008-01-27 08:00,ZGKL 270800Z AUTO 06006KT 7SM 00/M02 A3021 RMK T00001020 IEM_DS3505
ZGKL,2008-01-27 09:00,ZGKL 270900Z AUTO 02004KT 6SM 00/M03 A3024 RMK SLP261 T00011026 57014 IEM_DS3505
ZGKL,2008-01-27 10:00,ZGKL 271000Z AUTO 06004KT 3SM 00/M01 A3024 RMK T00001010 IEM_DS3505
ZGKL,2008-01-27 11:00,ZGKL 271100Z AUTO 06004KT 3SM 00/M01 A3024 RMK T00001010 IEM_DS3505
ZGKL,2008-01-27 12:00,ZGKL 271200Z AUTO 02004KT 6SM M00/M03 A3024 RMK 60000 SLP259 T10021026 57002 IEM_DS3505
ZGKL,2008-01-27 13:00,ZGKL 271300Z AUTO 06004KT 3SM 00/M02 A3021 RMK T00001020 IEM_DS3505
ZGKL,2008-01-27 14:00,ZGKL 271400Z AUTO 2 1/2SM 00/M01 A3021 RMK T00001010 IEM_DS3505
ZGKL,2008-01-27 15:00,ZGKL 271500Z AUTO 36004KT 6SM M00/M03 A3021 RMK SLP257 T10051029 57002 IEM_DS3505
ZGKL,2008-01-27 16:00,ZGKL 271600Z AUTO 05004KT 1 1/4SM M01/M01 A3021 RMK T10101010 IEM_DS3505
ZGKL,2008-01-27 17:00,ZGKL 271700Z AUTO 00000KT 1SM M01/M01 A3021 RMK T10101010 IEM_DS3505
ZGKL,2008-01-27 18:00,ZGKL 271800Z AUTO 02004KT 5SM M01/M02 A3021 RMK 60000 SLP249 T10081019 40003//// 57007 IEM_DS3505
ZGKL,2008-01-27 19:00,ZGKL 271900Z AUTO 06002KT 1SM 00/M01 A3018 RMK T00001010 IEM_DS3505
ZGKL,2008-01-27 20:00,ZGKL 272000Z AUTO 08004KT 1SM 00/M01 A3015 RMK T00001010 IEM_DS3505
ZGKL,2008-01-27 21:00,ZGKL 272100Z AUTO 02006KT 4SM M01/M02 A3015 RMK 70002 SLP241 T10081022 57008 IEM_DS3505
ZGKL,2008-01-27 22:00,ZGKL 272200Z AUTO 06006KT 1 1/2SM 00/M01 A3015 RMK T00001010 IEM_DS3505
ZGKL,2008-01-27 23:00,ZGKL 272300Z AUTO 07004KT 1 1/4SM 00/M01 A3018 RMK T00001010 IEM_DS3505
ZGKL,2008-01-28 00:00,ZGKL 280000Z AUTO 36006KT 3SM M01/M02 A3018 RMK 60002 70002 SLP244 T10081021 52003 IEM_DS3505
ZGKL,2008-01-28 01:00,ZGKL 280100Z AUTO 06004KT 1 1/4SM 00/M01 A3021 RMK T00001010 IEM_DS3505
ZGKL,2008-01-28 02:00,ZGKL 280200Z AUTO 06004KT 1 1/4SM 00/M01 A3021 RMK T00001010 IEM_DS3505
ZGKL,2008-01-28 03:00,ZGKL 280300Z AUTO 02006KT 3SM M00/M02 A3021 RMK SLP255 T10041018 52011 IEM_DS3505
ZGKL,2008-01-28 04:00,ZGKL 280400Z AUTO 06004KT 1 1/4SM 00/M01 A3018 RMK T00001010 IEM_DS3505
ZGKL,2008-01-28 05:00,ZGKL 280500Z AUTO 1 1/4SM 00/M01 A3015 RMK T00001010 IEM_DS3505
ZGKL,2008-01-28 06:00,ZGKL 280600Z AUTO 00000KT 3SM M00/M02 A3012 RMK 60008 SLP223 T10021015 4////1009 57032 IEM_DS3505
ZGKL,2008-01-28 07:00,ZGKL 280700Z AUTO 06004KT 2SM 00/M01 A3012 RMK T00001010 IEM_DS3505
ZGKL,2008-01-28 08:00,ZGKL 280800Z AUTO 1 1/2SM 00/M01 A3012 RMK T00001010 IEM_DS3505
ZGKL,2008-01-28 09:00,ZGKL 280900Z AUTO 36004KT 3SM 00/M01 A3009 RMK SLP217 T00021008 57005 IEM_DS3505
ZGKL,2008-01-28 10:00,ZGKL 281000Z AUTO 00000KT 2SM 00/00 A3012 RMK T00000000 IEM_DS3505
ZGKL,2008-01-28 11:00,ZGKL 281100Z AUTO 00000KT 1 1/4SM 00/00 A3009 RMK T00000000 IEM_DS3505
ZGKL,2008-01-28 12:00,ZGKL 281200Z AUTO 29004KT 3SM 01/00 A3012 RMK 60067 SLP224 T00090000 52007 IEM_DS3505
ZGKL,2008-01-28 13:00,ZGKL 281300Z AUTO 2 1/2SM 01/00 A3012 RMK T00100000 IEM_DS3505
ZGKL,2008-01-28 14:00,ZGKL 281400Z AUTO 2SM 01/00 A3009 RMK T00100000 IEM_DS3505
ZGKL,2008-01-28 15:00,ZGKL 281500Z AUTO 04008KT 3SM 01/M01 A3015 RMK SLP229 T00141007 52005 IEM_DS3505
ZGKL,2008-01-28 16:00,ZGKL 281600Z AUTO 1 1/4SM 01/00 A3018 RMK T00100000 IEM_DS3505
ZGKL,2008-01-28 17:00,ZGKL 281700Z AUTO 00000KT 1 1/4SM 01/00 A3021 RMK T00100000 IEM_DS3505
ZGKL,2008-01-28 18:00,ZGKL 281800Z AUTO 02006KT 3SM 01/M01 A3015 RMK 60002 SLP244 T00071012 40014//// 52014 IEM_DS3505
ZGKL,2008-01-28 19:00,ZGKL 281900Z AUTO 06004KT 1 1/4SM 01/00 A3018 RMK T00100000 IEM_DS3505
ZGKL,2008-01-28 20:00,ZGKL 282000Z AUTO 05004KT 1 1/4SM 01/00 A3018 RMK T00100000 IEM_DS3505
ZGKL,2008-01-28 21:00,ZGKL 282100Z AUTO 36010KT 4SM 00/M02 A3018 RMK 70076 SLP238 T00041020 57005 IEM_DS3505
ZGKL,2008-01-28 22:00,ZGKL 282200Z AUTO 00000KT 2SM 00/00 A3018 RMK T00000000 IEM_DS3505
ZGKL,2008-01-28 23:00,ZGKL 282300Z AUTO 05004KT 2 1/2SM 00/00 A3021 RMK T00000000 IEM_DS3505
ZGKL,2008-01-29 00:00,ZGKL 290000Z AUTO 02008KT 5SM 00/M02 A3024 RMK 60000 70075 SLP259 T00021025 52020 IEM_DS3505
ZGKL,2008-01-29 01:00,ZGKL 290100Z AUTO 05006KT 3SM 01/00 A3024 RMK T00100000 IEM_DS3505
ZGKL,2008-01-29 02:00,ZGKL 290200Z AUTO 04006KT 3SM 02/00 A3024 RMK T00200000 IEM_DS3505
ZGKL,2008-01-29 03:00,ZGKL 290300Z AUTO 02010KT 5SM 01/M02 A3024 RMK SLP261 T00141022 52003 IEM_DS3505
ZGKL,2008-01-29 04:00,ZGKL 290400Z AUTO 06008KT 4SM 03/00 A3021 RMK T00300000 IEM_DS3505
ZGKL,2008-01-29 05:00,ZGKL 290500Z AUTO 04008KT 4SM 04/00 A3018 RMK T00400000 IEM_DS3505
ZGKL,2008-01-29 06:00,ZGKL 290600Z AUTO 02008KT 7SM 04/M02 A3012 RMK SLP222 T00391023 57038 IEM_DS3505
ZGKL,2008-01-29 07:00,ZGKL 290700Z AUTO 07008KT 4SM 04/M01 A3012 RMK T00401010 IEM_DS3505
ZGKL,2008-01-29 08:00,ZGKL 290800Z AUTO 05010KT 4SM 04/00 A3012 RMK T00400000 IEM_DS3505
ZGKL,2008-01-29 09:00,ZGKL 290900Z AUTO 04006KT 7SM 03/M03 A3012 RMK SLP220 T00331029 57002 IEM_DS3505
ZGKL,2008-01-29 10:00,ZGKL 291000Z AUTO 06010KT 4SM 03/M01 A3012 RMK T00301010 IEM_DS3505
ZGKL,2008-01-29 11:00,ZGKL 291100Z AUTO 05008KT 4SM 03/M02 A3012 RMK T00301020 IEM_DS3505
ZGKL,2008-01-29 12:00,ZGKL 291200Z AUTO 04008KT 6SM 02/M02 A3015 RMK SLP226 T00231024 52006 IEM_DS3505
ZGKL,2008-01-29 13:00,ZGKL 291300Z AUTO 08006KT 2 1/2SM 02/M01 A3015 RMK T00201010 IEM_DS3505
ZGKL,2008-01-29 14:00,ZGKL 291400Z AUTO 06006KT 2 1/2SM 02/M01 A3018 RMK T00201010 IEM_DS3505
ZGKL,2008-01-29 15:00,ZGKL 291500Z AUTO 02004KT 6SM 02/M02 A3018 RMK SLP243 T00161023 52016 IEM_DS3505
ZGKL,2008-01-29 16:00,ZGKL 291600Z AUTO 2 1/2SM 02/M01 A3018 RMK T00201010 IEM_DS3505
ZGKL,2008-01-29 17:00,ZGKL 291700Z AUTO 2 1/2SM 02/M01 A3018 RMK T00201010 IEM_DS3505
ZGKL,2008-01-29 18:00,ZGKL 291800Z AUTO 02006KT 6SM 01/M02 A3021 RMK SLP247 T00101021 52005 IEM_DS3505
ZGKL,2008-01-29 19:00,ZGKL 291900Z AUTO 05004KT 2SM 01/M01 A3021 RMK T00101010 IEM_DS3505
ZGKL,2008-01-29 20:00,ZGKL 292000Z AUTO 03004KT 1 1/4SM 01/00 A3021 RMK T00100000 IEM_DS3505
ZGKL,2008-01-29 21:00,ZGKL 292100Z AUTO 36008KT 6SM 01/M02 A3021 RMK SLP250 T00081023 52003 IEM_DS3505
ZGKL,2008-01-29 22:00,ZGKL 292200Z AUTO 2 1/2SM 01/M01 A3021 RMK T00101010 IEM_DS3505
ZGKL,2008-01-29 23:00,ZGKL 292300Z AUTO 05006KT 2 1/2SM 01/M01 A3027 RMK T00101010 IEM_DS3505
ZGKL,2008-01-30 00:00,ZGKL 300000Z AUTO 02010KT 5SM 01/M02 A3030 RMK SLP278 T00101022 52027 IEM_DS3505
ZGKL,2008-01-30 01:00,ZGKL 300100Z AUTO 3SM 01/M01 A3030 RMK T00101010 IEM_DS3505
ZGKL,2008-01-30 02:00,ZGKL 300200Z AUTO 04006KT 3SM 02/00 A3033 RMK T00200000 IEM_DS3505
ZGKL,2008-01-30 03:00,ZGKL 300300Z AUTO 02012KT 5SM 02/M02 A3036 RMK SLP299 T00181022 52020 IEM_DS3505
ZGKL,2008-01-30 04:00,ZGKL 300400Z AUTO 3SM 03/00 A3033 RMK T00300000 IEM_DS3505
ZGKL,2008-01-30 05:00,ZGKL 300500Z AUTO 05010KT 4SM 03/M01 A3030 RMK T00301010 IEM_DS3505
ZGKL,2008-01-30 06:00,ZGKL 300600Z AUTO 02014KT 6SM 03/M02 A3027 RMK SLP276 T00261021 57022 IEM_DS3505
ZGKL,2008-01-30 07:00,ZGKL 300700Z AUTO 06010KT 7SM 04/M01 A3024 RMK T00401010 IEM_DS3505
ZGKL,2008-01-30 08:00,ZGKL 300800Z AUTO 06012KT 4SM 03/M01 A3024 RMK T00301010 IEM_DS3505
ZGKL,2008-01-30 09:00,ZGKL 300900Z AUTO 02012KT 6SM 02/M02 A3024 RMK SLP264 T00201025 57012 IEM_DS3505
ZGKL,2008-01-30 10:00,ZGKL 301000Z AUTO 06012KT 2 1/2SM 02/M01 A3027 RMK T00201010 IEM_DS3505
ZGKL,2008-01-30 11:00,ZGKL 301100Z AUTO 05008KT 2SM 02/M01 A3030 RMK T00201010 IEM_DS3505
ZGKL,2008-01-30 12:00,ZGKL 301200Z AUTO 02010KT 5SM 01/M03 A3030 RMK 60000 SLP282 T00121026 52017 IEM_DS3505
ZGKL,2008-01-30 13:00,ZGKL 301300Z AUTO 2SM 02/M01 A3030 RMK T00201010 IEM_DS3505
ZGKL,2008-01-30 14:00,ZGKL 301400Z AUTO 04004KT 2 1/2SM 02/M02 A3033 RMK T00201020 IEM_DS3505
ZGKL,2008-01-30 15:00,ZGKL 301500Z AUTO 02008KT 5SM 01/M03 A3033 RMK SLP289 T00121029 52007 IEM_DS3505
ZGKL,2008-01-30 16:00,ZGKL 301600Z AUTO 1 1/2SM 02/M01 A3033 RMK T00201010 IEM_DS3505
ZGKL,2008-01-30 17:00,ZGKL 301700Z AUTO 04004KT 1 1/2SM 02/M01 A3033 RMK T00201010 IEM_DS3505
ZGKL,2008-01-30 18:00,ZGKL 301800Z AUTO 02010KT 5SM 01/M02 A3033 RMK 60000 SLP293 T00111025 52005 IEM_DS3505
ZGKL,2008-01-30 19:00,ZGKL 301900Z AUTO 1 1/4SM 01/M01 A3033 RMK T00101010 IEM_DS3505
ZGKL,2008-01-30 20:00,ZGKL 302000Z AUTO 1 1/4SM 01/M01 A3033 RMK T00101010 IEM_DS3505
ZGKL,2008-01-30 21:00,ZGKL 302100Z AUTO 36010KT 5SM 01/M02 A3033 RMK 70000 SLP295 T00061023 52001 IEM_DS3505
ZGKL,2008-01-30 22:00,ZGKL 302200Z AUTO 05004KT 1 1/2SM 01/M01 A3036 RMK T00101010 IEM_DS3505
ZGKL,2008-01-30 23:00,ZGKL 302300Z AUTO 05008KT 2 1/2SM 01/M01 A3036 RMK T00101010 IEM_DS3505
ZGKL,2008-01-31 00:00,ZGKL 310000Z AUTO 36010KT 6SM 01/M03 A3036 RMK 60000 70000 SLP308 T00091027 52013 IEM_DS3505
ZGKL,2008-01-31 01:00,ZGKL 310100Z AUTO 04008KT 2 1/2SM 01/M01 A3039 RMK T00101010 IEM_DS3505
ZGKL,2008-01-31 02:00,ZGKL 310200Z AUTO 05008KT 2 1/2SM 02/M01 A3039 RMK T00201010 IEM_DS3505
ZGKL,2008-01-31 03:00,ZGKL 310300Z AUTO 36014KT 5SM 02/M03 A3039 RMK SLP313 T00201031 52005 IEM_DS3505
ZGKL,2008-01-31 04:00,ZGKL 310400Z AUTO 04012KT 3SM 04/M02 A3036 RMK T00401020 IEM_DS3505
ZGKL,2008-01-31 05:00,ZGKL 310500Z AUTO 05010KT 3SM 04/M02 A3033 RMK T00401020 IEM_DS3505
ZGKL,2008-01-31 06:00,ZGKL 310600Z AUTO 02010KT 5SM 02/M03 A3027 RMK 60000 SLP276 T00241029 57036 IEM_DS3505
ZGKL,2008-01-31 07:00,ZGKL 310700Z AUTO 07008KT 3SM 03/M02 A3027 RMK T00301020 IEM_DS3505
ZGKL,2008-01-31 08:00,ZGKL 310800Z AUTO 07008KT 3SM 03/M02 A3027 RMK T00301020 IEM_DS3505
ZGKL,2008-01-31 09:00,ZGKL 310900Z AUTO 36008KT 5SM 02/M02 A3027 RMK SLP271 T00221025 57005 IEM_DS3505
ZGKL,2008-01-31 10:00,ZGKL 311000Z AUTO 06012KT 2 1/2SM 02/M01 A3024 RMK T00201010 IEM_DS3505
ZGKL,2008-01-31 11:00,ZGKL 311100Z AUTO 07010KT 2 1/2SM 02/M01 A3027 RMK T00201010 IEM_DS3505
ZGKL,2008-01-31 12:00,ZGKL 311200Z AUTO 02010KT 5SM 02/M03 A3027 RMK SLP273 T00171030 52002 IEM_DS3505
ZGKL,2008-01-31 13:00,ZGKL 311300Z AUTO 06008KT 2 1/2SM 02/M01 A3030 RMK T00201010 IEM_DS3505
ZGKL,2008-01-31 14:00,ZGKL 311400Z AUTO 06006KT 2 1/2SM 02/M01 A3030 RMK T00201010 IEM_DS3505
ZGKL,2008-01-31 15:00,ZGKL 311500Z AUTO 02006KT 4SM 01/M02 A3030 RMK SLP285 T00111018 52012 IEM_DS3505
ZGKL,2008-01-31 16:00,ZGKL 311600Z AUTO 05006KT 1 1/2SM 01/00 A3030 RMK T00100000 IEM_DS3505
ZGKL,2008-01-31 17:00,ZGKL 311700Z AUTO 04004KT 1 1/4SM 01/00 A3027 RMK T00100000 IEM_DS3505
ZGKL,2008-01-31 18:00,ZGKL 311800Z AUTO 02008KT 4SM 01/M01 A3027 RMK 60016 SLP267 T00091013 57018 IEM_DS3505
ZGKL,2008-01-31 19:00,ZGKL 311900Z AUTO 00000KT 1SM 01/00 A3024 RMK T00100000 IEM_DS3505
ZGKL,2008-01-31 20:00,ZGKL 312000Z AUTO 00000KT 01/00 A3024 RMK T00100000 IEM_DS3505
ZGKL,2008-01-31 21:00,ZGKL 312100Z AUTO 34004KT 4SM 01/M01 A3027 RMK 70042 SLP265 T00091006 57002 IEM_DS3505
ZGKL,2008-01-31 22:00,ZGKL 312200Z AUTO 1 1/4SM 01/00 A3024 RMK T00100000 IEM_DS3505
ZGKL,2008-01-31 23:00,ZGKL 312300Z AUTO 00000KT 1SM 01/01 A3027 RMK T00100010 IEM_DS3505
ZGKL,2008-02-01 00:00,ZGKL 010000Z AUTO 02008KT 3SM 01/M00 A3027 RMK 60055 70069 SLP270 T00131003 52005 IEM_DS3505
ZGKL,2008-02-01 01:00,ZGKL 010100Z AUTO 1SM 02/01 A3030 RMK T00200010 IEM_DS3505
ZGKL,2008-02-01 02:00,ZGKL 010200Z AUTO 1 1/4SM 02/01 A3030 RMK T00200010 IEM_DS3505
ZGKL,2008-02-01 03:00,ZGKL 010300Z AUTO 02008KT 3SM 01/M00 A3030 RMK SLP283 T00131002 52012 IEM_DS3505
ZGKL,2008-02-01 04:00,ZGKL 010400Z AUTO 1 1/4SM 02/02 A3027 RMK T00200020 IEM_DS3505
ZGKL,2008-02-01 05:00,ZGKL 010500Z AUTO 04006KT 1 1/4SM 03/02 A3024 RMK T00300020 IEM_DS3505
ZGKL,2008-02-01 06:00,ZGKL 010600Z AUTO 02010KT 3SM 02/00 A3021 RMK 60063 SLP249 T00160000 57033 IEM_DS3505
ZGKL,2008-02-01 07:00,ZGKL 010700Z AUTO 05006KT 2SM 03/02 A3018 RMK T00300020 IEM_DS3505
ZGKL,2008-02-01 08:00,ZGKL 010800Z AUTO 05004KT 1 1/4SM 03/02 A3021 RMK T00300020 IEM_DS3505
ZGKL,2008-02-01 09:00,ZGKL 010900Z AUTO 02006KT 3SM 01/M00 A3018 RMK SLP245 T00141002 57004 IEM_DS3505
ZGKL,2008-02-01 10:00,ZGKL 011000Z AUTO 06004KT 1 1/2SM 02/01 A3018 RMK T00200010 IEM_DS3505
ZGKL,2008-02-01 11:00,ZGKL 011100Z AUTO 08004KT 1 1/4SM 02/01 A3018 RMK T00200010 IEM_DS3505
ZGKL,2008-02-01 12:00,ZGKL 011200Z AUTO 02006KT 3SM 01/M01 A3021 RMK 60051 SLP250 T00111007 52005 IEM_DS3505
ZGKL,2008-02-01 13:00,ZGKL 011300Z AUTO 08004KT 1 1/4SM 01/01 A3021 RMK T00100010 IEM_DS3505
ZGKL,2008-02-01 14:00,ZGKL 011400Z AUTO 07004KT 1SM 01/00 A3021 RMK T00100000 IEM_DS3505
ZGKL,2008-02-01 15:00,ZGKL 011500Z AUTO 02006KT 3SM 01/M01 A3021 RMK SLP254 T00101006 52004 IEM_DS3505
ZGKL,2008-02-01 16:00,ZGKL 011600Z AUTO 00000KT 1SM 01/01 A3024 RMK T00100010 IEM_DS3505
ZGKL,2008-02-01 17:00,ZGKL 011700Z AUTO 00000KT 1SM 01/01 A3021 RMK T00100010 IEM_DS3505
ZGKL,2008-02-01 18:00,ZGKL 011800Z AUTO 02010KT 3SM 01/M01 A3018 RMK 60059 SLP251 T00111008 57003 IEM_DS3505
ZGKL,2008-02-01 19:00,ZGKL 011900Z AUTO 1SM 02/01 A3021 RMK T00200010 IEM_DS3505
ZGKL,2008-02-01 20:00,ZGKL 012000Z AUTO 1 1/4SM 01/01 A3018 RMK T00100010 IEM_DS3505
ZGKL,2008-02-01 21:00,ZGKL 012100Z AUTO 02012KT 3SM 01/M02 A3021 RMK 70213 SLP248 T00071015 57003 IEM_DS3505
ZGKL,2008-02-01 22:00,ZGKL 012200Z AUTO 2SM 01/00 A3024 RMK T00100000 IEM_DS3505
ZGKL,2008-02-01 23:00,ZGKL 012300Z AUTO 05006KT 2SM 01/M01 A3024 RMK T00101010 IEM_DS3505
ZGKL,2008-02-02 00:00,ZGKL 020000Z AUTO 02010KT 3SM 01/M02 A3027 RMK 60012 70185 SLP275 T00061021 52026 IEM_DS3505
ZGKL,2008-02-02 01:00,ZGKL 020100Z AUTO 2 1/2SM 01/M01 A3030 RMK T00101010 IEM_DS3505
ZGKL,2008-02-02 02:00,ZGKL 020200Z AUTO 05008KT 3SM 02/M01 A3030 RMK T00201010 IEM_DS3505
ZGKL,2008-02-02 03:00,ZGKL 020300Z AUTO 02010KT 3SM 02/M02 A3030 RMK SLP284 T00201020 52010 IEM_DS3505
ZGKL,2008-02-02 04:00,ZGKL 020400Z AUTO 08008KT 3SM 04/00 A3027 RMK T00400000 IEM_DS3505
ZGKL,2008-02-02 05:00,ZGKL 020500Z AUTO 4SM 05/01 A3024 RMK T00500010 IEM_DS3505
ZGKL,2008-02-02 06:00,ZGKL 020600Z AUTO 02010KT 6SM 05/M02 A3021 RMK SLP251 T00501021 57032 IEM_DS3505
ZGKL,2008-02-02 07:00,ZGKL 020700Z AUTO 29004KT 4SM 05/00 A3018 RMK T00500000 IEM_DS3505
ZGKL,2008-02-02 08:00,ZGKL 020800Z AUTO 07008KT 4SM 05/M01 A3018 RMK T00501010 IEM_DS3505
ZGKL,2008-02-02 09:00,ZGKL 020900Z AUTO 36008KT 9SM 05/M03 A3018 RMK SLP239 T00471026 57012 IEM_DS3505
ZGKL,2008-02-02 10:00,ZGKL 021000Z AUTO 06010KT 4SM 04/M01 A3018 RMK T00401010 IEM_DS3505
ZGKL,2008-02-02 11:00,ZGKL 021100Z AUTO 06010KT 4SM 03/M02 A3018 RMK T00301020 IEM_DS3505
ZGKL,2008-02-02 12:00,ZGKL 021200Z AUTO 04008KT 7SM 02/M02 A3021 RMK SLP257 T00201023 52017 IEM_DS3505
ZGKL,2008-02-02 13:00,ZGKL 021300Z AUTO 4SM 01/M02 A3024 RMK T00101020 IEM_DS3505
ZGKL,2008-02-02 14:00,ZGKL 021400Z AUTO 3SM 01/M02 A3027 RMK T00101020 IEM_DS3505
ZGKL,2008-02-02 15:00,ZGKL 021500Z AUTO 02010KT 7SM 02/M03 A3027 RMK SLP273 T00171028 52016 IEM_DS3505
ZGKL,2008-02-02 16:00,ZGKL 021600Z AUTO 00000KT 2 1/2SM 00/M02 A3027 RMK T00001020 IEM_DS3505
ZGKL,2008-02-02 17:00,ZGKL 021700Z AUTO 2 1/2SM M01/M02 A3027 RMK T10101020 IEM_DS3505
ZGKL,2008-02-02 18:00,ZGKL 021800Z AUTO 04006KT 7SM 01/M04 A3027 RMK SLP269 T00081035 57003 IEM_DS3505
ZGKL,2008-02-02 19:00,ZGKL 021900Z AUTO 2 1/2SM M01/M02 A3027 RMK T10101020 IEM_DS3505
ZGKL,2008-02-02 20:00,ZGKL 022000Z AUTO 1SM M01/M02 A3024 RMK T10101020 IEM_DS3505
ZGKL,2008-02-02 21:00,ZGKL 022100Z AUTO 04004KT 7SM M00/M04 A3024 RMK 70000 SLP259 T10011036 57010 IEM_DS3505
ZGKL,2008-02-02 22:00,ZGKL 022200Z AUTO 00000KT 1 1/4SM M02/M03 A3024 RMK T10201030 IEM_DS3505
ZGKL,2008-02-02 23:00,ZGKL 022300Z AUTO 00000KT 1 1/4SM M02/M03 A3027 RMK T10201030 IEM_DS3505
ZGKL,2008-02-03 00:00,ZGKL 030000Z AUTO 02002KT 9SM 00/M04 A3030 RMK SLP278 T00041037 52017 IEM_DS3505
ZGKL,2008-02-03 01:00,ZGKL 030100Z AUTO 00000KT 2SM 01/00 A3030 RMK T00100000 IEM_DS3505
ZGKL,2008-02-03 02:00,ZGKL 030200Z AUTO 00000KT 2 1/2SM 02/M01 A3030 RMK T00201010 IEM_DS3505
ZGKL,2008-02-03 03:00,ZGKL 030300Z AUTO 07002KT 9SM 04/M04 A3030 RMK SLP280 T00401042 52004 IEM_DS3505
ZGKL,2008-02-03 04:00,ZGKL 030400Z AUTO 4SM 04/M02 A3030 RMK T00401020 IEM_DS3505
ZGKL,2008-02-03 05:00,ZGKL 030500Z AUTO 4SM 05/M02 A3027 RMK T00501020 IEM_DS3505
ZGKL,2008-02-03 06:00,ZGKL 030600Z AUTO 04006KT 9SM 05/M05 A3024 RMK SLP256 T00531048 57024 IEM_DS3505
ZGKL,2008-02-03 07:00,ZGKL 030700Z AUTO 6SM 06/M03 A3018 RMK T00601030 IEM_DS3505
ZGKL,2008-02-03 08:00,ZGKL 030800Z AUTO 7SM 06/M04 A3018 RMK T00601040 IEM_DS3505
ZGKL,2008-02-03 09:00,ZGKL 030900Z AUTO 07002KT 7SM 04/M03 A3018 RMK SLP243 T00441034 57013 IEM_DS3505
ZGKL,2008-02-03 10:00,ZGKL 031000Z AUTO 05006KT 7SM 05/M02 A3018 RMK T00501020 IEM_DS3505
ZGKL,2008-02-03 11:00,ZGKL 031100Z AUTO 06008KT 4SM 04/M02 A3018 RMK T00401020 IEM_DS3505
ZGKL,2008-02-03 12:00,ZGKL 031200Z AUTO 36004KT 7SM 03/M02 A3021 RMK 60000 SLP256 T00321021 52012 IEM_DS3505
ZGKL,2008-02-03 13:00,ZGKL 031300Z AUTO 05004KT 4SM 04/M01 A3024 RMK T00401010 IEM_DS3505
ZGKL,2008-02-03 14:00,ZGKL 031400Z AUTO 05004KT 3SM 04/M01 A3024 RMK T00401010 IEM_DS3505
ZGKL,2008-02-03 15:00,ZGKL 031500Z AUTO 02004KT 7SM 03/M02 A3024 RMK SLP259 T00301019 52005 IEM_DS3505
ZGKL,2008-02-03 16:00,ZGKL 031600Z AUTO 08004KT 3SM 03/M01 A3024 RMK T00301010 IEM_DS3505
ZGKL,2008-02-03 17:00,ZGKL 031700Z AUTO 04004KT 2 1/2SM 03/M01 A3021 RMK T00301010 IEM_DS3505
ZGKL,2008-02-03 18:00,ZGKL 031800Z AUTO 02004KT 6SM 02/M02 A3021 RMK SLP250 T00221025 57009 IEM_DS3505
ZGKL,2008-02-03 19:00,ZGKL 031900Z AUTO 3SM 03/M02 A3021 RMK T00301020 IEM_DS3505
ZGKL,2008-02-03 20:00,ZGKL 032000Z AUTO 05004KT 3SM 03/M02 A3018 RMK T00301020 IEM_DS3505
ZGKL,2008-02-03 21:00,ZGKL 032100Z AUTO 02002KT 6SM 02/M02 A3018 RMK 70000 SLP242 T00201021 57008 IEM_DS3505
ZGKL,2008-02-03 22:00,ZGKL 032200Z AUTO 05004KT 4SM 03/M02 A3018 RMK T00301020 IEM_DS3505
ZGKL,2008-02-03 23:00,ZGKL 032300Z AUTO 4SM 02/M01 A3021 RMK T00201010 IEM_DS3505
ZGKL,2008-02-04 00:00,ZGKL 040000Z AUTO 02004KT 6SM 02/M03 A3021 RMK 70000 SLP254 T00231028 52011 IEM_DS3505
ZGKL,2008-02-04 01:00,ZGKL 040100Z AUTO 3SM 03/M02 A3024 RMK T00301020 IEM_DS3505
ZGKL,2008-02-04 02:00,ZGKL 040200Z AUTO 00000KT 3SM 04/M02 A3024 RMK T00401020 IEM_DS3505
ZGKL,2008-02-04 03:00,ZGKL 040300Z AUTO 02002KT 5SM 04/M03 A3024 RMK SLP256 T00411030 52003 IEM_DS3505
ZGKL,2008-02-04 04:00,ZGKL 040400Z AUTO 4SM 05/M02 A3021 RMK T00501020 IEM_DS3505
ZGKL,2008-02-04 05:00,ZGKL 040500Z AUTO 00000KT 4SM 06/M03 A3018 RMK T00601030 IEM_DS3505
ZGKL,2008-02-04 06:00,ZGKL 040600Z AUTO 29002KT 6SM 06/M03 A3012 RMK SLP223 T00621027 57032 IEM_DS3505
ZGKL,2008-02-04 07:00,ZGKL 040700Z AUTO 04004KT 4SM 07/M02 A3009 RMK T00701020 IEM_DS3505
ZGKL,2008-02-04 08:00,ZGKL 040800Z AUTO 08004KT 4SM 06/M02 A3009 RMK T00601020 IEM_DS3505
ZGKL,2008-02-04 09:00,ZGKL 040900Z AUTO 04004KT 6SM 06/M01 A3009 RMK SLP204 T00611011 57019 IEM_DS3505
ZGKL,2008-02-04 10:00,ZGKL 041000Z AUTO 3SM 06/M02 A3009 RMK T00601020 IEM_DS3505
ZGKL,2008-02-04 11:00,ZGKL 041100Z AUTO 3SM 06/M01 A3009 RMK T00601010 IEM_DS3505
ZGKL,2008-02-04 12:00,ZGKL 041200Z AUTO 02002KT 6SM 05/M01 A3012 RMK SLP222 T00461010 52017 IEM_DS3505
ZGKL,2008-02-04 13:00,ZGKL 041300Z AUTO 06004KT 2SM 04/02 A3015 RMK T00400020 IEM_DS3505
ZGKL,2008-02-04 14:00,ZGKL 041400Z AUTO 1SM 03/02 A3018 RMK T00300020 IEM_DS3505
ZGKL,2008-02-04 15:00,ZGKL 041500Z AUTO 04004KT 5SM 03/01 A3018 RMK SLP243 T00300009 52021 IEM_DS3505
ZGKL,2008-02-04 16:00,ZGKL 041600Z AUTO 06004KT 1SM 03/02 A3018 RMK T00300020 IEM_DS3505
ZGKL,2008-02-04 17:00,ZGKL 041700Z AUTO 07004KT 1SM 03/02 A3021 RMK T00300020 IEM_DS3505
ZGKL,2008-02-04 18:00,ZGKL 041800Z AUTO 02006KT 5SM 02/01 A3018 RMK 60000 SLP244 T00250009 52001 IEM_DS3505
ZGKL,2008-02-04 19:00,ZGKL 041900Z AUTO 00000KT 03/02 A3018 RMK T00300020 IEM_DS3505
ZGKL,2008-02-04 20:00,ZGKL 042000Z AUTO 00000KT 03/02 A3021 RMK T00300020 IEM_DS3505
ZGKL,2008-02-04 21:00,ZGKL 042100Z AUTO 02004KT 5SM 03/00 A3021 RMK 70000 SLP248 T00270003 52004 IEM_DS3505
ZGKL,2008-02-04 22:00,ZGKL 042200Z AUTO 06006KT 1SM 02/02 A3024 RMK T00200020 IEM_DS3505
ZGKL,2008-02-04 23:00,ZGKL 042300Z AUTO 06006KT 2SM 02/02 A3024 RMK T00200020 IEM_DS3505
ZGKL,2008-02-05 00:00,ZGKL 050000Z AUTO 02006KT 6SM 03/M01 A3027 RMK 60000 70000 SLP268 T00271006 52019 IEM_DS3505
ZGKL,2008-02-05 01:00,ZGKL 050100Z AUTO 36006KT 2 1/2SM 03/01 A3027 RMK T00300010 IEM_DS3505
ZGKL,2008-02-05 02:00,ZGKL 050200Z AUTO 2 1/2SM 03/02 A3030 RMK T00300020 IEM_DS3505
ZGKL,2008-02-05 03:00,ZGKL 050300Z AUTO 02010KT 6SM 04/M00 A3030 RMK SLP278 T00401004 52010 IEM_DS3505
ZGKL,2008-02-05 04:00,ZGKL 050400Z AUTO 31004KT 3SM 05/02 A3027 RMK T00500020 IEM_DS3505
ZGKL,2008-02-05 05:00,ZGKL 050500Z AUTO 29004KT 4SM 06/02 A3024 RMK T00600020 IEM_DS3505
ZGKL,2008-02-05 06:00,ZGKL 050600Z AUTO 04008KT 7SM 08/M01 A3021 RMK SLP250 T00751009 57026 IEM_DS3505
ZGKL,2008-02-05 07:00,ZGKL 050700Z AUTO 28004KT 4SM 07/03 A3018 RMK T00700030 IEM_DS3505
ZGKL,2008-02-05 08:00,ZGKL 050800Z AUTO 02006KT 4SM 07/03 A3018 RMK T00700030 IEM_DS3505
ZGKL,2008-02-05 09:00,ZGKL 050900Z AUTO 02012KT 7SM 06/M00 A3018 RMK SLP242 T00591004 57009 IEM_DS3505
ZGKL,2008-02-05 10:00,ZGKL 051000Z AUTO 05010KT 3SM 06/01 A3018 RMK T00600010 IEM_DS3505
ZGKL,2008-02-05 11:00,ZGKL 051100Z AUTO 06014KT 2 1/2SM 05/01 A3021 RMK T00500010 IEM_DS3505
ZGKL,2008-02-05 12:00,ZGKL 051200Z AUTO 02008KT 6SM 05/M01 A3024 RMK SLP258 T00471007 52016 IEM_DS3505
ZGKL,2008-02-05 13:00,ZGKL 051300Z AUTO 05010KT 2 1/2SM 05/01 A3027 RMK T00500010 IEM_DS3505
ZGKL,2008-02-05 14:00,ZGKL 051400Z AUTO 05008KT 2 1/2SM 05/01 A3030 RMK T00500010 IEM_DS3505
ZGKL,2008-02-05 15:00,ZGKL 051500Z AUTO 02008KT 6SM 04/M02 A3030 RMK SLP277 T00431015 52019 IEM_DS3505
ZGKL,2008-02-05 16:00,ZGKL 051600Z AUTO 08008KT 2SM 04/00 A3030 RMK T00400000 IEM_DS3505
ZGKL,2008-02-05 17:00,ZGKL 051700Z AUTO 00000KT 2 1/2SM 04/00 A3030 RMK T00400000 IEM_DS3505
ZGKL,2008-02-05 18:00,ZGKL 051800Z AUTO 02008KT 6SM 03/M04 A3030 RMK SLP277 T00341036 52001 IEM_DS3505
ZGKL,2008-02-05 19:00,ZGKL 051900Z AUTO 06008KT 2 1/2SM 03/M02 A3027 RMK T00301020 IEM_DS3505
ZGKL,2008-02-05 20:00,ZGKL 052000Z AUTO 02/M02 A3027 RMK T00201020 IEM_DS3505
ZGKL,2008-02-05 21:00,ZGKL 052100Z AUTO 02006KT 6SM 03/M04 A3027 RMK 70000 SLP271 T00271038 57007 IEM_DS3505
ZGKL,2008-02-05 22:00,ZGKL 052200Z AUTO 00000KT 2SM 00/M02 A3027 RMK T00001020 IEM_DS3505
ZGKL,2008-02-05 23:00,ZGKL 052300Z AUTO 1 1/4SM 00/M02 A3030 RMK T00001020 IEM_DS3505
ZGKL,2008-02-06 00:00,ZGKL 060000Z AUTO 02008KT 5SM 02/M04 A3030 RMK SLP284 T00251038 52012 IEM_DS3505
ZGKL,2008-02-06 01:00,ZGKL 060100Z AUTO 00000KT 2SM 02/00 A3033 RMK T00200000 IEM_DS3505
ZGKL,2008-02-06 02:00,ZGKL 060200Z AUTO 2SM 04/M01 A3033 RMK T00401010 IEM_DS3505
ZGKL,2008-02-06 03:00,ZGKL 060300Z AUTO 02008KT 4SM 06/M04 A3033 RMK SLP288 T00601042 52005 IEM_DS3505
ZGKL,2008-02-06 04:00,ZGKL 060400Z AUTO 05014KT 2SM 08/M04 A3030 RMK T00801040 IEM_DS3505
ZGKL,2008-02-06 05:00,ZGKL 060500Z AUTO 08012KT 2SM 08/M04 A3024 RMK T00801040 IEM_DS3505
ZGKL,2008-02-06 06:00,ZGKL 060600Z AUTO 02008KT 3SM 09/M05 A3018 RMK SLP244 T00881047 57042 IEM_DS3505
ZGKL,2008-02-06 07:00,ZGKL 060700Z AUTO 08012KT 2SM 10/M05 A3015 RMK T01001050 IEM_DS3505
ZGKL,2008-02-06 08:00,ZGKL 060800Z AUTO 08014KT 2SM 09/M06 A3015 RMK T00901060 IEM_DS3505
ZGKL,2008-02-06 09:00,ZGKL 060900Z AUTO 02010KT 2 1/2SM 08/M05 A3015 RMK SLP233 T00781053 57012 IEM_DS3505
ZGKL,2008-02-06 10:00,ZGKL 061000Z AUTO 06014KT 2SM 07/M05 A3018 RMK T00701050 IEM_DS3505
ZGKL,2008-02-06 11:00,ZGKL 061100Z AUTO 06014KT 2SM 06/M05 A3018 RMK T00601050 IEM_DS3505
ZGKL,2008-02-06 12:00,ZGKL 061200Z AUTO 02004KT 4SM 05/M04 A3021 RMK SLP252 T00501040 52018 IEM_DS3505
ZGKL,2008-02-06 13:00,ZGKL 061300Z AUTO 04006KT 2SM 05/M04 A3024 RMK T00501040 IEM_DS3505
ZGKL,2008-02-06 14:00,ZGKL 061400Z AUTO 1 1/2SM 03/M03 A3024 RMK T00301030 IEM_DS3505
ZGKL,2008-02-06 15:00,ZGKL 061500Z AUTO 02006KT 4SM 04/M03 A3024 RMK SLP261 T00361028 52009 IEM_DS3505
ZGKL,2008-02-06 16:00,ZGKL 061600Z AUTO 1 1/4SM 02/M03 A3024 RMK T00201030 IEM_DS3505
ZGKL,2008-02-06 17:00,ZGKL 061700Z AUTO 1 1/4SM 02/M02 A3024 RMK T00201020 IEM_DS3505
ZGKL,2008-02-06 18:00,ZGKL 061800Z AUTO 02006KT 4SM 03/M03 A3024 RMK SLP257 T00271026 57003 IEM_DS3505
ZGKL,2008-02-06 19:00,ZGKL 061900Z AUTO 00/M02 A3024 RMK T00001020 IEM_DS3505
ZGKL,2008-02-06 20:00,ZGKL 062000Z AUTO 00000KT 00/M02 A3024 RMK T00001020 IEM_DS3505
ZGKL,2008-02-06 21:00,ZGKL 062100Z AUTO 02008KT 3SM 02/M03 A3021 RMK SLP253 T00251028 57004 IEM_DS3505
ZGKL,2008-02-06 22:00,ZGKL 062200Z AUTO 26004KT 1SM 00/M01 A3024 RMK T00001010 IEM_DS3505
ZGKL,2008-02-06 23:00,ZGKL 062300Z AUTO 1SM 01/00 A3024 RMK T00100000 IEM_DS3505
ZGKL,2008-02-07 00:00,ZGKL 070000Z AUTO 02008KT 3SM 02/M04 A3024 RMK SLP261 T00251036 52007 IEM_DS3505
ZGKL,2008-02-07 01:00,ZGKL 070100Z AUTO 00000KT 1 1/4SM 03/M01 A3027 RMK T00301010 IEM_DS3505
ZGKL,2008-02-07 02:00,ZGKL 070200Z AUTO 1 1/2SM 04/M01 A3027 RMK T00401010 IEM_DS3505
ZGKL,2008-02-07 03:00,ZGKL 070300Z AUTO 02008KT 2 1/2SM 05/M04 A3027 RMK SLP273 T00481045 52012 IEM_DS3505
ZGKL,2008-02-07 04:00,ZGKL 070400Z AUTO 2SM 06/M04 A3024 RMK T00601040 IEM_DS3505
ZGKL,2008-02-07 05:00,ZGKL 070500Z AUTO 31006KT 2SM 06/M03 A3024 RMK T00601030 IEM_DS3505
ZGKL,2008-02-07 06:00,ZGKL 070600Z AUTO 02006KT 3SM 05/M05 A3021 RMK SLP248 T00521046 57025 IEM_DS3505
ZGKL,2008-02-07 07:00,ZGKL 070700Z AUTO 07006KT 1 1/2SM 06/M04 A3018 RMK T00601040 IEM_DS3505
ZGKL,2008-02-07 08:00,ZGKL 070800Z AUTO 07006KT 2SM 06/M04 A3018 RMK T00601040 IEM_DS3505
ZGKL,2008-02-07 09:00,ZGKL 070900Z AUTO 02006KT 3SM 05/M04 A3018 RMK SLP240 T00511037 57008 IEM_DS3505
ZGKL,2008-02-07 10:00,ZGKL 071000Z AUTO 05006KT 2SM 06/M03 A3018 RMK T00601030 IEM_DS3505
ZGKL,2008-02-07 11:00,ZGKL 071100Z AUTO 04006KT 1 1/2SM 05/M03 A3018 RMK T00501030 IEM_DS3505
ZGKL,2008-02-07 12:00,ZGKL 071200Z AUTO 02008KT 3SM 05/M03 A3021 RMK SLP249 T00461027 52009 IEM_DS3505
ZGKL,2008-02-07 13:00,ZGKL 071300Z AUTO 1 1/2SM 04/M02 A3024 RMK T00401020 IEM_DS3505
ZGKL,2008-02-07 14:00,ZGKL 071400Z AUTO 1 1/2SM 04/M02 A3024 RMK T00401020 IEM_DS3505
ZGKL,2008-02-07 15:00,ZGKL 071500Z AUTO 02008KT 3SM 05/M03 A3024 RMK SLP259 T00471026 52010 IEM_DS3505
ZGKL,2008-02-07 16:00,ZGKL 071600Z AUTO 00000KT 1 1/4SM 04/00 A3024 RMK T00400000 IEM_DS3505
ZGKL,2008-02-07 17:00,ZGKL 071700Z AUTO 00000KT 1 1/4SM 04/00 A3024 RMK T00400000 IEM_DS3505
ZGKL,2008-02-07 18:00,ZGKL 071800Z AUTO 02008KT 3SM 04/M03 A3024 RMK SLP255 T00411030 57004 IEM_DS3505
ZGKL,2008-02-07 19:00,ZGKL 071900Z AUTO 00000KT 01/M01 A3024 RMK T00101010 IEM_DS3505
ZGKL,2008-02-07 20:00,ZGKL 072000Z AUTO 02/00 A3021 RMK T00200000 IEM_DS3505
ZGKL,2008-02-07 21:00,ZGKL 072100Z AUTO 02010KT 3SM 04/M03 A3024 RMK SLP255 T00391029 54000 IEM_DS3505
ZGKL,2008-02-07 22:00,ZGKL 072200Z AUTO 1 1/4SM 02/00 A3024 RMK T00200000 IEM_DS3505
ZGKL,2008-02-07 23:00,ZGKL 072300Z AUTO 00000KT 1 1/4SM 01/00 A3027 RMK T00100000 IEM_DS3505
ZGKL,2008-02-08 00:00,ZGKL 080000Z AUTO 02008KT 2 1/2SM 04/M03 A3030 RMK SLP279 T00381030 52024 IEM_DS3505
ZGKL,2008-02-08 01:00,ZGKL 080100Z AUTO 1 1/4SM 04/M01 A3033 RMK T00401010 IEM_DS3505
ZGKL,2008-02-08 02:00,ZGKL 080200Z AUTO 04012KT 1 1/4SM 05/M02 A3036 RMK T00501020 IEM_DS3505
ZGKL,2008-02-08 03:00,ZGKL 080300Z AUTO 02008KT 2 1/2SM 06/M04 A3036 RMK SLP300 T00551036 52021 IEM_DS3505
ZGKL,2008-02-08 04:00,ZGKL 080400Z AUTO 05012KT 1 1/2SM 07/M03 A3036 RMK T00701030 IEM_DS3505
ZGKL,2008-02-08 05:00,ZGKL 080500Z AUTO 05010KT 2SM 07/M03 A3033 RMK T00701030 IEM_DS3505
ZGKL,2008-02-08 06:00,ZGKL 080600Z AUTO 02006KT 2 1/2SM 07/M05 A3030 RMK SLP279 T00691051 57020 IEM_DS3505
ZGKL,2008-02-08 07:00,ZGKL 080700Z AUTO 06010KT 2SM 08/M04 A3030 RMK T00801040 IEM_DS3505
ZGKL,2008-02-08 08:00,ZGKL 080800Z AUTO 05008KT 2SM 07/M04 A3030 RMK T00701040 IEM_DS3505
ZGKL,2008-02-08 09:00,ZGKL 080900Z AUTO 02008KT 2 1/2SM 07/M06 A3030 RMK SLP280 T00681062 54000 IEM_DS3505
ZGKL,2008-02-08 10:00,ZGKL 081000Z AUTO 04008KT 3SM 07/M06 A3030 RMK T00701060 IEM_DS3505
ZGKL,2008-02-08 11:00,ZGKL 081100Z AUTO 04012KT 3SM 07/M06 A3030 RMK T00701060 IEM_DS3505
ZGKL,2008-02-08 12:00,ZGKL 081200Z AUTO 02006KT 2 1/2SM 06/M04 A3033 RMK SLP289 T00591045 52009 IEM_DS3505
ZGKL,2008-02-08 13:00,ZGKL 081300Z AUTO 02010KT 3SM 06/M06 A3036 RMK T00601060 IEM_DS3505
ZGKL,2008-02-08 14:00,ZGKL 081400Z AUTO 3SM 06/M05 A3036 RMK T00601050 IEM_DS3505
ZGKL,2008-02-08 15:00,ZGKL 081500Z AUTO 02006KT 2 1/2SM 06/M05 A3036 RMK SLP298 T00551052 52009 IEM_DS3505
ZGKL,2008-02-08 16:00,ZGKL 081600Z AUTO 3SM 03/M04 A3033 RMK T00301040 IEM_DS3505
ZGKL,2008-02-08 17:00,ZGKL 081700Z AUTO 3SM 04/M04 A3033 RMK T00401040 IEM_DS3505
ZGKL,2008-02-08 18:00,ZGKL 081800Z AUTO 02010KT 2 1/2SM 05/M07 A3033 RMK SLP293 T00501068 57004 IEM_DS3505
ZGKL,2008-02-08 19:00,ZGKL 081900Z AUTO 06010KT 05/M05 A3033 RMK T00501050 IEM_DS3505
ZGKL,2008-02-08 20:00,ZGKL 082000Z AUTO 05012KT 05/M06 A3033 RMK T00501060 IEM_DS3505
ZGKL,2008-02-08 21:00,ZGKL 082100Z AUTO 02006KT 2 1/2SM 04/M07 A3030 RMK SLP282 T00441071 57011 IEM_DS3505
ZGKL,2008-02-08 22:00,ZGKL 082200Z AUTO 05008KT 4SM 04/M06 A3030 RMK T00401060 IEM_DS3505
ZGKL,2008-02-08 23:00,ZGKL 082300Z AUTO 04008KT 4SM 04/M06 A3033 RMK T00401060 IEM_DS3505
ZGKL,2008-02-09 00:00,ZGKL 090000Z AUTO 02010KT 6SM 04/M08 A3036 RMK SLP296 T00411083 52013 IEM_DS3505
ZGKL,2008-02-09 01:00,ZGKL 090100Z AUTO 05006KT 4SM 04/M06 A3036 RMK T00401060 IEM_DS3505
ZGKL,2008-02-09 02:00,ZGKL 090200Z AUTO 05008KT 4SM 05/M06 A3036 RMK T00501060 IEM_DS3505
ZGKL,2008-02-09 03:00,ZGKL 090300Z AUTO 02008KT 9SM 05/M09 A3036 RMK SLP301 T00491093 52005 IEM_DS3505
ZGKL,2008-02-09 04:00,ZGKL 090400Z AUTO 05008KT 4SM 05/M08 A3033 RMK T00501080 IEM_DS3505
ZGKL,2008-02-09 05:00,ZGKL 090500Z AUTO 04008KT 5SM 06/M08 A3033 RMK T00601080 IEM_DS3505
ZGKL,2008-02-09 06:00,ZGKL 090600Z AUTO 02010KT 9SM 06/M11 A3027 RMK SLP271 T00571114 57029 IEM_DS3505
ZGKL,2008-02-09 07:00,ZGKL 090700Z AUTO 07008KT 7SM 06/M09 A3024 RMK T00601090 IEM_DS3505
ZGKL,2008-02-09 08:00,ZGKL 090800Z AUTO 06010KT 7SM 06/M10 A3024 RMK T00601100 IEM_DS3505
ZGKL,2008-02-09 09:00,ZGKL 090900Z AUTO 02006KT 9SM 05/M13 A3024 RMK SLP253 T00541131 57018 IEM_DS3505
ZGKL,2008-02-09 10:00,ZGKL 091000Z AUTO 06010KT 7SM 05/M11 A3024 RMK T00501110 IEM_DS3505
ZGKL,2008-02-09 11:00,ZGKL 091100Z AUTO 06008KT 7SM 05/M11 A3024 RMK T00501110 IEM_DS3505
ZGKL,2008-02-09 12:00,ZGKL 091200Z AUTO 06010KT 7SM 05/M11 A3024 RMK T00501110 IEM_DS3505
ZGKL,2008-02-09 13:00,ZGKL 091300Z AUTO 06010KT 7SM 04/M10 A3027 RMK T00401100 IEM_DS3505
ZGKL,2008-02-09 14:00,ZGKL 091400Z AUTO 05008KT 7SM 04/M10 A3027 RMK T00401100 IEM_DS3505
ZGKL,2008-02-09 15:00,ZGKL 091500Z AUTO 02008KT 9SM 04/M12 A3027 RMK SLP270 T00391117 52007 IEM_DS3505
ZGKL,2008-02-09 16:00,ZGKL 091600Z AUTO 04004KT 7SM 04/M09 A3027 RMK T00401090 IEM_DS3505
ZGKL,2008-02-09 17:00,ZGKL 091700Z AUTO 06006KT 7SM 04/M10 A3030 RMK T00401100 IEM_DS3505
ZGKL,2008-02-09 18:00,ZGKL 091800Z AUTO 02006KT 7SM 03/M11 A3027 RMK SLP274 T00341106 52004 IEM_DS3505
ZGKL,2008-02-09 19:00,ZGKL 091900Z AUTO 03/M08 A3027 RMK T00301080 IEM_DS3505
ZGKL,2008-02-09 20:00,ZGKL 092000Z AUTO 03004KT 03/M08 A3027 RMK T00301080 IEM_DS3505
ZGKL,2008-02-09 21:00,ZGKL 092100Z AUTO 02004KT 7SM 03/M10 A3027 RMK SLP265 T00301096 57009 IEM_DS3505
ZGKL,2008-02-09 22:00,ZGKL 092200Z AUTO 06004KT 7SM 03/M07 A3027 RMK T00301070 IEM_DS3505
ZGKL,2008-02-09 23:00,ZGKL 092300Z AUTO 00000KT 7SM 03/M06 A3027 RMK T00301060 IEM_DS3505
ZGKL,2008-02-10 00:00,ZGKL 100000Z AUTO 00000KT 7SM 03/M05 A3033 RMK T00301050 IEM_DS3505
ZGKL,2008-02-10 04:00,ZGKL 100400Z AUTO 05008KT 7SM 05/M07 A3033 RMK T00501070 IEM_DS3505
ZGKL,2008-02-10 05:00,ZGKL 100500Z AUTO 7SM 06/M08 A3030 RMK T00601080 IEM_DS3505
ZGKL,2008-02-10 06:00,ZGKL 100600Z AUTO 36006KT 9SM 05/M09 A3027 RMK SLP269 T00491089 57027 IEM_DS3505
ZGKL,2008-02-10 07:00,ZGKL 100700Z AUTO 07008KT 7SM 06/M07 A3024 RMK T00601070 IEM_DS3505
ZGKL,2008-02-10 08:00,ZGKL 100800Z AUTO 07008KT 7SM 05/M07 A3021 RMK T00501070 IEM_DS3505
ZGKL,2008-02-10 09:00,ZGKL 100900Z AUTO 02006KT 7SM 05/M08 A3021 RMK SLP247 T00461078 57022 IEM_DS3505
ZGKL,2008-02-10 10:00,ZGKL 101000Z AUTO 06006KT 7SM 05/M07 A3021 RMK T00501070 IEM_DS3505
ZGKL,2008-02-10 11:00,ZGKL 101100Z AUTO 06008KT 7SM 04/M06 A3018 RMK T00401060 IEM_DS3505
ZGKL,2008-02-10 12:00,ZGKL 101200Z AUTO 04008KT 7SM 04/M07 A3021 RMK SLP254 T00381068 52006 IEM_DS3505
ZGKL,2008-02-10 13:00,ZGKL 101300Z AUTO 06008KT 7SM 04/M05 A3024 RMK T00401050 IEM_DS3505
ZGKL,2008-02-10 15:00,ZGKL 101500Z AUTO 02008KT 7SM 03/M06 A3024 RMK SLP267 T00331059 52013 IEM_DS3505
ZGKL,2008-02-10 16:00,ZGKL 101600Z AUTO 05006KT 4SM 03/M05 A3024 RMK T00301050 IEM_DS3505
ZGKL,2008-02-10 17:00,ZGKL 101700Z AUTO 05008KT 03/M04 A3024 RMK T00301040 IEM_DS3505
ZGKL,2008-02-10 18:00,ZGKL 101800Z AUTO 02006KT 7SM 02/M04 A3024 RMK SLP257 T00221037 57009 IEM_DS3505
ZGKL,2008-02-10 19:00,ZGKL 101900Z AUTO 06006KT 02/M03 A3024 RMK T00201030 IEM_DS3505
ZGKL,2008-02-10 21:00,ZGKL 102100Z AUTO 02006KT 6SM 02/M02 RMK SLP258 T00211024 54000 IEM_DS3505
ZGKL,2008-02-11 00:00,ZGKL 110000Z AUTO 02006KT 5SM 02/M02 A3030 RMK 60000 70000 SLP280 T00221023 52022 IEM_DS3505
ZGKL,2008-02-11 01:00,ZGKL 110100Z AUTO 00000KT 3SM 03/00 A3033 RMK T00300000 IEM_DS3505
ZGKL,2008-02-11 02:00,ZGKL 110200Z AUTO 00000KT 4SM 04/M01 A3033 RMK T00401010 IEM_DS3505
ZGKL,2008-02-11 03:00,ZGKL 110300Z AUTO 02010KT 6SM 04/M03 A3036 RMK SLP298 T00411032 52018 IEM_DS3505
ZGKL,2008-02-11 04:00,ZGKL 110400Z AUTO 05008KT 6SM 06/M03 A3033 RMK T00601030 IEM_DS3505
ZGKL,2008-02-11 05:00,ZGKL 110500Z AUTO 06012KT 7SM 07/M04 A3030 RMK T00701040 IEM_DS3505
ZGKL,2008-02-11 06:00,ZGKL 110600Z AUTO 02010KT 8SM 07/M04 A3027 RMK SLP277 T00691039 57020 IEM_DS3505
ZGKL,2008-02-11 07:00,ZGKL 110700Z AUTO 04010KT 7SM 08/M03 A3027 RMK T00801030 IEM_DS3505
ZGKL,2008-02-11 08:00,ZGKL 110800Z AUTO 06012KT 7SM 07/M03 A3027 RMK T00701030 IEM_DS3505
ZGKL,2008-02-11 09:00,ZGKL 110900Z AUTO 02006KT 9SM 06/M04 A3027 RMK SLP274 T00601045 57003 IEM_DS3505
ZGKL,2008-02-11 10:00,ZGKL 111000Z AUTO 06010KT 7SM 06/M04 A3030 RMK T00601040 IEM_DS3505
ZGKL,2008-02-11 11:00,ZGKL 111100Z AUTO 05008KT 7SM 05/M04 A3030 RMK T00501040 IEM_DS3505
ZGKL,2008-02-11 12:00,ZGKL 111200Z AUTO 02006KT 8SM 05/M05 A3033 RMK SLP290 T00461052 52015 IEM_DS3505
ZGKL,2008-02-11 13:00,ZGKL 111300Z AUTO 04004KT 6SM 03/M05 A3036 RMK T00301050 IEM_DS3505
ZGKL,2008-02-11 14:00,ZGKL 111400Z AUTO 06004KT 4SM 02/M05 A3036 RMK T00201050 IEM_DS3505
ZGKL,2008-02-11 15:00,ZGKL 111500Z AUTO 36008KT 8SM 04/M07 A3039 RMK SLP311 T00351070 52021 IEM_DS3505
ZGKL,2008-02-11 16:00,ZGKL 111600Z AUTO 00000KT 4SM 00/M03 A3039 RMK T00001030 IEM_DS3505
ZGKL,2008-02-11 17:00,ZGKL 111700Z AUTO 00000KT 4SM M01/M03 A3039 RMK T10101030 IEM_DS3505
ZGKL,2008-02-11 18:00,ZGKL 111800Z AUTO 02006KT 7SM 03/M07 A3039 RMK SLP311 T00271072 54000 IEM_DS3505
ZGKL,2008-02-11 19:00,ZGKL 111900Z AUTO 00000KT M01/M03 A3039 RMK T10101030 IEM_DS3505
ZGKL,2008-02-11 20:00,ZGKL 112000Z AUTO 00000KT 00/M02 A3036 RMK T00001020 IEM_DS3505
ZGKL,2008-02-11 21:00,ZGKL 112100Z AUTO 02010KT 7SM 04/M08 A3036 RMK 70000 SLP297 T00351085 57013 IEM_DS3505
ZGKL,2008-02-11 22:00,ZGKL 112200Z AUTO 00000KT 5SM 01/M02 A3036 RMK T00101020 IEM_DS3505
ZGKL,2008-02-11 23:00,ZGKL 112300Z AUTO 00000KT 6SM 01/M02 A3039 RMK T00101020 IEM_DS3505
ZGKL,2008-02-12 00:00,ZGKL 120000Z AUTO 02008KT 7SM 04/M09 A3039 RMK SLP308 T00391088 52010 IEM_DS3505
ZGKL,2008-02-12 01:00,ZGKL 120100Z AUTO 00000KT 6SM 03/M03 A3042 RMK T00301030 IEM_DS3505
ZGKL,2008-02-12 02:00,ZGKL 120200Z AUTO 6SM 06/M05 A3042 RMK T00601050 IEM_DS3505
ZGKL,2008-02-12 03:00,ZGKL 120300Z AUTO 02012KT 9SM 07/M12 A3042 RMK SLP316 T00661115 52009 IEM_DS3505
ZGKL,2008-02-12 04:00,ZGKL 120400Z AUTO 05008KT 6SM 09/M09 A3039 RMK T00901090 IEM_DS3505
ZGKL,2008-02-12 05:00,ZGKL 120500Z AUTO 07010KT 6SM 10/M09 A3033 RMK T01001090 IEM_DS3505
ZGKL,2008-02-12 06:00,ZGKL 120600Z AUTO 04010KT 10SM 10/M10 A3030 RMK SLP279 T01031099 57036 IEM_DS3505
ZGKL,2008-02-12 07:00,ZGKL 120700Z AUTO 08012KT 6SM 12/M09 A3027 RMK T01201090 IEM_DS3505
ZGKL,2008-02-12 08:00,ZGKL 120800Z AUTO 07014KT 6SM 11/M10 A3024 RMK T01101100 IEM_DS3505
ZGKL,2008-02-12 09:00,ZGKL 120900Z AUTO 04012KT 10SM 10/M10 A3024 RMK SLP259 T00971099 57019 IEM_DS3505
ZGKL,2008-02-12 10:00,ZGKL 121000Z AUTO 06010KT 6SM 09/M09 A3027 RMK T00901090 IEM_DS3505
ZGKL,2008-02-12 11:00,ZGKL 121100Z AUTO 06010KT 6SM 08/M08 A3027 RMK T00801080 IEM_DS3505
ZGKL,2008-02-12 12:00,ZGKL 121200Z AUTO 04006KT 9SM 07/M08 A3030 RMK SLP280 T00731083 52020 IEM_DS3505
ZGKL,2008-02-12 13:00,ZGKL 121300Z AUTO 04014KT 6SM 07/M07 A3033 RMK T00701070 IEM_DS3505
ZGKL,2008-02-12 14:00,ZGKL 121400Z AUTO 04010KT 6SM 07/M07 A3033 RMK T00701070 IEM_DS3505
ZGKL,2008-02-12 15:00,ZGKL 121500Z AUTO 02006KT 9SM 06/M06 A3036 RMK SLP296 T00631063 52016 IEM_DS3505
ZGKL,2008-02-12 16:00,ZGKL 121600Z AUTO 03010KT 5SM 07/M06 A3036 RMK T00701060 IEM_DS3505
ZGKL,2008-02-12 17:00,ZGKL 121700Z AUTO 05010KT 06/M06 A3036 RMK T00601060 IEM_DS3505
ZGKL,2008-02-12 18:00,ZGKL 121800Z AUTO 02010KT 9SM 05/M06 A3036 RMK SLP299 T00531063 52004 IEM_DS3505
ZGKL,2008-02-12 19:00,ZGKL 121900Z AUTO 04006KT 05/M05 A3036 RMK T00501050 IEM_DS3505
ZGKL,2008-02-12 20:00,ZGKL 122000Z AUTO 04008KT 05/M05 A3033 RMK T00501050 IEM_DS3505
ZGKL,2008-02-12 21:00,ZGKL 122100Z AUTO 02010KT 9SM 05/M07 A3033 RMK SLP289 T00491066 57010 IEM_DS3505
ZGKL,2008-02-12 22:00,ZGKL 122200Z AUTO 04006KT 4SM 05/M05 A3033 RMK T00501050 IEM_DS3505
ZGKL,2008-02-12 23:00,ZGKL 122300Z AUTO 05004KT 4SM 05/M05 A3036 RMK T00501050 IEM_DS3505
ZGKL,2008-02-13 00:00,ZGKL 130000Z AUTO 02006KT 6SM 05/M06 A3036 RMK SLP301 T00481061 52011 IEM_DS3505
ZGKL,2008-02-13 01:00,ZGKL 130100Z AUTO 04004KT 4SM 06/M05 A3039 RMK T00601050 IEM_DS3505
ZGKL,2008-02-13 02:00,ZGKL 130200Z AUTO 05008KT 4SM 07/M06 A3042 RMK T00701060 IEM_DS3505
ZGKL,2008-02-13 03:00,ZGKL 130300Z AUTO 02010KT 6SM 07/M07 RMK SLP311 T00661070 52010 IEM_DS3505
ZGKL,2008-02-13 04:00,ZGKL 130400Z AUTO 04014KT 4SM 09/M07 A3039 RMK T00901070 IEM_DS3505
ZGKL,2008-02-13 05:00,ZGKL 130500Z AUTO 06012KT 4SM 09/M07 A3036 RMK T00901070 IEM_DS3505
ZGKL,2008-02-13 06:00,ZGKL 130600Z AUTO 02010KT 7SM 09/M08 A3030 RMK SLP281 T00881078 57029 IEM_DS3505
ZGKL,2008-02-13 07:00,ZGKL 130700Z AUTO 06010KT 4SM 09/M07 A3027 RMK T00901070 IEM_DS3505
ZGKL,2008-02-13 08:00,ZGKL 130800Z AUTO 07010KT 4SM 09/M07 A3027 RMK T00901070 IEM_DS3505
ZGKL,2008-02-13 09:00,ZGKL 130900Z AUTO 04006KT 7SM 08/M07 A3027 RMK SLP266 T00821067 57015 IEM_DS3505
ZGKL,2008-02-13 10:00,ZGKL 131000Z AUTO 06012KT 3SM 08/M06 A3027 RMK T00801060 IEM_DS3505
ZGKL,2008-02-13 11:00,ZGKL 131100Z AUTO 06014KT 3SM 08/M05 A3027 RMK T00801050 IEM_DS3505
ZGKL,2008-02-13 12:00,ZGKL 131200Z AUTO 04006KT 6SM 07/M06 A3030 RMK SLP283 T00731061 52016 IEM_DS3505
ZGKL,2008-02-13 13:00,ZGKL 131300Z AUTO 05014KT 2 1/2SM 07/M05 A3033 RMK T00701050 IEM_DS3505
ZGKL,2008-02-13 14:00,ZGKL 131400Z AUTO 05014KT 3SM 07/M05 A3036 RMK T00701050 IEM_DS3505
ZGKL,2008-02-13 15:00,ZGKL 131500Z AUTO 02010KT 6SM 06/M06 A3039 RMK SLP306 T00651058 52023 IEM_DS3505
ZGKL,2008-02-13 16:00,ZGKL 131600Z AUTO 05006KT 2 1/2SM 06/M04 A3039 RMK T00601040 IEM_DS3505
ZGKL,2008-02-13 17:00,ZGKL 131700Z AUTO 05004KT 2 1/2SM 06/M04 A3039 RMK T00601040 IEM_DS3505
ZGKL,2008-02-13 18:00,ZGKL 131800Z AUTO 02008KT 6SM 06/M06 A3039 RMK SLP314 T00571062 52008 IEM_DS3505
ZGKL,2008-02-13 19:00,ZGKL 131900Z AUTO 04006KT 06/M04 A3039 RMK T00601040 IEM_DS3505
ZGKL,2008-02-13 20:00,ZGKL 132000Z AUTO 05/M03 A3039 RMK T00501030 IEM_DS3505
ZGKL,2008-02-13 21:00,ZGKL 132100Z AUTO 02006KT 6SM 05/M07 A3039 RMK SLP304 T00531066 57010 IEM_DS3505
ZGKL,2008-02-13 22:00,ZGKL 132200Z AUTO 2SM 05/M03 A3039 RMK T00501030 IEM_DS3505
ZGKL,2008-02-13 23:00,ZGKL 132300Z AUTO 00000KT 2 1/2SM 05/M04 A3039 RMK T00501040 IEM_DS3505
ZGKL,2008-02-14 00:00,ZGKL 140000Z AUTO 02008KT 6SM 05/M06 A3042 RMK SLP315 T00521058 52010 IEM_DS3505
ZGKL,2008-02-14 01:00,ZGKL 140100Z AUTO 05006KT 2 1/2SM 06/M05 A3042 RMK T00601050 IEM_DS3505
ZGKL,2008-02-14 02:00,ZGKL 140200Z AUTO 2 1/2SM 07/M05 A3042 RMK T00701050 IEM_DS3505
ZGKL,2008-02-14 03:00,ZGKL 140300Z AUTO 36010KT 5SM 08/M06 A3042 RMK SLP319 T00771061 52005 IEM_DS3505
ZGKL,2008-02-14 04:00,ZGKL 140400Z AUTO 3SM 10/M06 A3039 RMK T01001060 IEM_DS3505
ZGKL,2008-02-14 05:00,ZGKL 140500Z AUTO 3SM 11/M06 A3036 RMK T01101060 IEM_DS3505
ZGKL,2008-02-14 06:00,ZGKL 140600Z AUTO 02006KT 6SM 12/M08 A3033 RMK SLP279 T01191075 57038 IEM_DS3505
ZGKL,2008-02-14 07:00,ZGKL 140700Z AUTO 11008KT 4SM 12/M07 A3027 RMK T01201070 IEM_DS3505
ZGKL,2008-02-14 08:00,ZGKL 140800Z AUTO 07006KT 4SM 12/M07 A3027 RMK T01201070 IEM_DS3505
ZGKL,2008-02-14 09:00,ZGKL 140900Z AUTO 04006KT 7SM 12/M09 A3027 RMK SLP262 T01191091 57017 IEM_DS3505
ZGKL,2008-02-14 10:00,ZGKL 141000Z AUTO 06006KT 4SM 11/M07 A3027 RMK T01101070 IEM_DS3505
ZGKL,2008-02-14 11:00,ZGKL 141100Z AUTO 04008KT 4SM 09/M07 A3030 RMK T00901070 IEM_DS3505
ZGKL,2008-02-14 12:00,ZGKL 141200Z AUTO 02004KT 7SM 08/M06 A3030 RMK SLP282 T00801062 52018 IEM_DS3505
ZGKL,2008-02-14 13:00,ZGKL 141300Z AUTO 03006KT 4SM 07/M05 A3033 RMK T00701050 IEM_DS3505
ZGKL,2008-02-14 14:00,ZGKL 141400Z AUTO 31004KT 2 1/2SM 04/M03 A3036 RMK T00401030 IEM_DS3505
ZGKL,2008-02-14 15:00,ZGKL 141500Z AUTO 04006KT 7SM 07/M06 A3036 RMK SLP298 T00661064 52016 IEM_DS3505
ZGKL,2008-02-14 16:00,ZGKL 141600Z AUTO 00000KT 2 1/2SM 02/M02 A3036 RMK T00201020 IEM_DS3505
ZGKL,2008-02-14 17:00,ZGKL 141700Z AUTO 00000KT 01/M02 A3036 RMK T00101020 IEM_DS3505
ZGKL,2008-02-14 18:00,ZGKL 141800Z AUTO 32002KT 7SM 05/M06 A3036 RMK SLP297 T00461057 54000 IEM_DS3505
ZGKL,2008-02-14 19:00,ZGKL 141900Z AUTO 34004KT 00/M01 A3036 RMK T00001010 IEM_DS3505
ZGKL,2008-02-14 20:00,ZGKL 142000Z AUTO 00000KT M01/M02 A3033 RMK T10101020 IEM_DS3505
ZGKL,2008-02-14 21:00,ZGKL 142100Z AUTO 02006KT 7SM 03/M05 A3033 RMK SLP288 T00261046 57009 IEM_DS3505
ZGKL,2008-02-14 22:00,ZGKL 142200Z AUTO 00000KT 2SM M01/M02 A3033 RMK T10101020 IEM_DS3505
ZGKL,2008-02-14 23:00,ZGKL 142300Z AUTO 00000KT 2SM M02/M03 A3036 RMK T10201030 IEM_DS3505
ZGKL,2008-02-15 00:00,ZGKL 150000Z AUTO 29002KT 9SM 02/M04 A3036 RMK SLP300 T00241043 52010 IEM_DS3505
ZGKL,2008-02-15 01:00,ZGKL 150100Z AUTO 00000KT 3SM 03/00 A3036 RMK T00300000 IEM_DS3505
ZGKL,2008-02-15 02:00,ZGKL 150200Z AUTO 4SM 07/M02 A3039 RMK T00701020 IEM_DS3505
ZGKL,2008-02-15 03:00,ZGKL 150300Z AUTO 29004KT 9SM 10/M07 A3036 RMK SLP294 T01051072 57003 IEM_DS3505
ZGKL,2008-02-15 04:00,ZGKL 150400Z AUTO 07010KT 6SM 12/M09 A3033 RMK T01201090 IEM_DS3505
ZGKL,2008-02-15 05:00,ZGKL 150500Z AUTO 08008KT 7SM 14/M08 A3027 RMK T01401080 IEM_DS3505
ZGKL,2008-02-15 06:00,ZGKL 150600Z AUTO 02006KT 10SM 15/M10 A3021 RMK SLP245 T01511105 57048 IEM_DS3505
ZGKL,2008-02-15 07:00,ZGKL 150700Z AUTO 6SM 16/M08 A3018 RMK T01601080 IEM_DS3505
ZGKL,2008-02-15 08:00,ZGKL 150800Z AUTO 19006KT 6SM 15/M08 A3018 RMK T01501080 IEM_DS3505
ZGKL,2008-02-15 09:00,ZGKL 150900Z AUTO 32002KT 10SM 16/M10 A3015 RMK SLP226 T01561101 57019 IEM_DS3505
ZGKL,2008-02-15 11:00,ZGKL 151100Z AUTO 00000KT 6SM 11/M02 A3015 RMK T01101020 IEM_DS3505
ZGKL,2008-02-15 12:00,ZGKL 151200Z AUTO 36004KT 10SM 11/M05 A3018 RMK SLP236 T01071049 52008 IEM_DS3505
ZGKL,2008-02-15 13:00,ZGKL 151300Z AUTO 04006KT 4SM 08/M02 A3018 RMK T00801020 IEM_DS3505
ZGKL,2008-02-15 14:00,ZGKL 151400Z AUTO 32004KT 4SM 05/00 A3021 RMK T00500000 IEM_DS3505
ZGKL,2008-02-15 15:00,ZGKL 151500Z AUTO 36004KT 9SM 09/M05 A3021 RMK SLP248 T00891054 52014 IEM_DS3505
ZGKL,2008-02-15 16:00,ZGKL 151600Z AUTO 3SM 03/01 A3024 RMK T00300010 IEM_DS3505
ZGKL,2008-02-15 17:00,ZGKL 151700Z AUTO 05002KT 03/00 A3024 RMK T00300000 IEM_DS3505
ZGKL,2008-02-15 18:00,ZGKL 151800Z AUTO 36002KT 9SM 07/M04 A3024 RMK SLP252 T00731038 52005 IEM_DS3505
ZGKL,2008-02-15 19:00,ZGKL 151900Z AUTO 03/01 A3021 RMK T00300010 IEM_DS3505
ZGKL,2008-02-15 20:00,ZGKL 152000Z AUTO 00000KT 04/02 A3021 RMK T00400020 IEM_DS3505
ZGKL,2008-02-15 21:00,ZGKL 152100Z AUTO 09002KT 9SM 07/M02 A3021 RMK SLP249 T00681024 57003 IEM_DS3505
ZGKL,2008-02-15 22:00,ZGKL 152200Z AUTO 00000KT 3SM 05/02 A3024 RMK T00500020 IEM_DS3505
ZGKL,2008-02-15 23:00,ZGKL 152300Z AUTO 00000KT 3SM 05/03 A3024 RMK T00500030 IEM_DS3505
ZGKL,2008-02-16 00:00,ZGKL 160000Z AUTO 22002KT 7SM 07/M02 A3027 RMK SLP270 T00701019 52019 IEM_DS3505
ZGKL,2008-02-16 01:00,ZGKL 160100Z AUTO 06004KT 4SM 07/01 A3030 RMK T00700010 IEM_DS3505
ZGKL,2008-02-16 02:00,ZGKL 160200Z AUTO 00000KT 3SM 09/00 A3030 RMK T00900000 IEM_DS3505
ZGKL,2008-02-16 03:00,ZGKL 160300Z AUTO 36004KT 7SM 09/M02 A3030 RMK SLP278 T00931023 52008 IEM_DS3505
ZGKL,2008-02-16 04:00,ZGKL 160400Z AUTO 29004KT 4SM 11/M01 A3030 RMK T01101010 IEM_DS3505
ZGKL,2008-02-16 05:00,ZGKL 160500Z AUTO 00000KT 3SM 11/M02 A3027 RMK T01101020 IEM_DS3505
ZGKL,2008-02-16 06:00,ZGKL 160600Z AUTO 02004KT 6SM 11/M02 A3027 RMK SLP259 T01101021 57018 IEM_DS3505
ZGKL,2008-02-16 07:00,ZGKL 160700Z AUTO 00000KT 4SM 12/M01 A3024 RMK T01201010 IEM_DS3505
ZGKL,2008-02-16 08:00,ZGKL 160800Z AUTO 00000KT 4SM 12/M01 A3021 RMK T01201010 IEM_DS3505
ZGKL,2008-02-16 09:00,ZGKL 160900Z AUTO 36006KT 6SM 11/M01 A3021 RMK SLP246 T01071010 57013 IEM_DS3505
ZGKL,2008-02-16 10:00,ZGKL 161000Z AUTO 00000KT 3SM 11/00 A3021 RMK T01100000 IEM_DS3505
ZGKL,2008-02-16 11:00,ZGKL 161100Z AUTO 3SM 10/00 A3024 RMK T01000000 IEM_DS3505
ZGKL,2008-02-16 12:00,ZGKL 161200Z AUTO 02006KT 5SM 10/M00 A3024 RMK SLP258 T00971005 52011 IEM_DS3505
ZGKL,2008-02-16 13:00,ZGKL 161300Z AUTO 05006KT 2 1/2SM 10/01 A3027 RMK T01000010 IEM_DS3505
ZGKL,2008-02-16 14:00,ZGKL 161400Z AUTO 33004KT 2SM 09/02 A3030 RMK T00900020 IEM_DS3505
ZGKL,2008-02-16 15:00,ZGKL 161500Z AUTO 02002KT 5SM 10/M00 A3033 RMK SLP281 T00951001 52023 IEM_DS3505
ZGKL,2008-02-16 16:00,ZGKL 161600Z AUTO 07004KT 2SM 09/02 A3033 RMK T00900020 IEM_DS3505
ZGKL,2008-02-16 17:00,ZGKL 161700Z AUTO 2 1/2SM 09/03 A3033 RMK T00900030 IEM_DS3505
ZGKL,2008-02-16 18:00,ZGKL 161800Z AUTO 04002KT 5SM 09/00 A3030 RMK SLP275 T00930005 57005 IEM_DS3505
ZGKL,2008-02-16 19:00,ZGKL 161900Z AUTO 00000KT 08/03 A3030 RMK T00800030 IEM_DS3505
ZGKL,2008-02-16 20:00,ZGKL 162000Z AUTO 00000KT 08/03 A3030 RMK T00800030 IEM_DS3505
ZGKL,2008-02-16 21:00,ZGKL 162100Z AUTO 02004KT 4SM 09/02 A3030 RMK 70000 SLP271 T00870018 57004 IEM_DS3505
ZGKL,2008-02-16 22:00,ZGKL 162200Z AUTO 00000KT 1 1/2SM 07/06 A3030 RMK T00700060 IEM_DS3505
ZGKL,2008-02-16 23:00,ZGKL 162300Z AUTO 00000KT 1 1/2SM 07/06 A3033 RMK T00700060 IEM_DS3505
ZGKL,2008-02-17 00:00,ZGKL 170000Z AUTO 36004KT 4SM 08/03 A3033 RMK 60000 70000 SLP287 T00780029 52015 IEM_DS3505
ZGKL,2008-02-17 01:00,ZGKL 170100Z AUTO 00000KT 2SM 08/06 A3036 RMK T00800060 IEM_DS3505
ZGKL,2008-02-17 02:00,ZGKL 170200Z AUTO 00000KT 2SM 08/06 A3036 RMK T00800060 IEM_DS3505
ZGKL,2008-02-17 03:00,ZGKL 170300Z AUTO 02004KT 3SM 09/03 A3036 RMK SLP292 T00910033 52005 IEM_DS3505
ZGKL,2008-02-17 04:00,ZGKL 170400Z AUTO 00000KT 2 1/2SM 10/05 A3036 RMK T01000050 IEM_DS3505
ZGKL,2008-02-17 05:00,ZGKL 170500Z AUTO 00000KT 2 1/2SM 10/05 A3030 RMK T01000050 IEM_DS3505
ZGKL,2008-02-17 06:00,ZGKL 170600Z AUTO 02004KT 3SM 11/01 A3027 RMK 60000 SLP265 T01120009 57026 IEM_DS3505
ZGKL,2008-02-17 07:00,ZGKL 170700Z AUTO 2 1/2SM 11/05 A3024 RMK T01100050 IEM_DS3505
ZGKL,2008-02-17 08:00,ZGKL 170800Z AUTO 07008KT 3SM 11/01 A3024 RMK T01100010 IEM_DS3505
ZGKL,2008-02-17 09:00,ZGKL 170900Z AUTO 36006KT 4SM 11/01 A3024 RMK SLP257 T01070007 57008 IEM_DS3505
ZGKL,2008-02-17 10:00,ZGKL 171000Z AUTO 00000KT 1 1/2SM 09/06 A3027 RMK T00900060 IEM_DS3505
ZGKL,2008-02-17 11:00,ZGKL 171100Z AUTO 00000KT 1 1/4SM 08/06 A3030 RMK T00800060 IEM_DS3505
ZGKL,2008-02-17 12:00,ZGKL 171200Z AUTO 36006KT 3SM 08/05 A3033 RMK 60012 SLP279 T00750048 52020 IEM_DS3505
ZGKL,2008-02-17 13:00,ZGKL 171300Z AUTO 00000KT 1SM 07/07 A3033 RMK T00700070 IEM_DS3505
ZGKL,2008-02-17 14:00,ZGKL 171400Z AUTO 00000KT 1SM 07/07 A3036 RMK T00700070 IEM_DS3505
ZGKL,2008-02-17 15:00,ZGKL 171500Z AUTO 36008KT 3SM 07/05 A3039 RMK SLP304 T00690052 52025 IEM_DS3505
ZGKL,2008-02-17 16:00,ZGKL 171600Z AUTO 07004KT 1SM 07/07 A3039 RMK T00700070 IEM_DS3505
ZGKL,2008-02-17 17:00,ZGKL 171700Z AUTO 00000KT 07/06 A3039 RMK T00700060 IEM_DS3505
ZGKL,2008-02-17 18:00,ZGKL 171800Z AUTO 02004KT 3SM 07/05 A3039 RMK 60031 SLP303 T00680046 54000 IEM_DS3505
ZGKL,2008-02-17 19:00,ZGKL 171900Z AUTO 00000KT 07/06 A3039 RMK T00700060 IEM_DS3505
ZGKL,2008-02-17 20:00,ZGKL 172000Z AUTO 00000KT 07/06 A3036 RMK T00700060 IEM_DS3505
ZGKL,2008-02-17 21:00,ZGKL 172100Z AUTO 36010KT 3SM 07/04 A3036 RMK 70041 SLP298 T00680041 57005 IEM_DS3505
ZGKL,2008-02-17 22:00,ZGKL 172200Z AUTO 00000KT 1SM 07/06 A3039 RMK T00700060 IEM_DS3505
ZGKL,2008-02-17 23:00,ZGKL 172300Z AUTO 04004KT 1 1/4SM 07/06 A3039 RMK T00700060 IEM_DS3505
ZGKL,2008-02-18 00:00,ZGKL 180000Z AUTO 02006KT 3SM 07/04 A3042 RMK 60000 70041 SLP310 T00700038 52010 IEM_DS3505
ZGKL,2008-02-18 01:00,ZGKL 180100Z AUTO 2SM 07/05 A3045 RMK T00700050 IEM_DS3505
ZGKL,2008-02-18 02:00,ZGKL 180200Z AUTO 00000KT 1 1/2SM 07/06 A3045 RMK T00700060 IEM_DS3505
ZGKL,2008-02-18 03:00,ZGKL 180300Z AUTO 02008KT 3SM 08/04 A3045 RMK SLP328 T00760038 52018 IEM_DS3505
ZGKL,2008-02-18 04:00,ZGKL 180400Z AUTO 05006KT 3SM 09/06 A3045 RMK T00900060 IEM_DS3505
ZGKL,2008-02-18 05:00,ZGKL 180500Z AUTO 06004KT 2 1/2SM 09/05 A3042 RMK T00900050 IEM_DS3505
ZGKL,2008-02-18 06:00,ZGKL 180600Z AUTO 02008KT 4SM 09/04 A3039 RMK SLP305 T00870039 57022 IEM_DS3505
ZGKL,2008-02-18 07:00,ZGKL 180700Z AUTO 06008KT 3SM 10/05 A3036 RMK T01000050 IEM_DS3505
ZGKL,2008-02-18 08:00,ZGKL 180800Z AUTO 06010KT 3SM 09/05 A3036 RMK T00900050 IEM_DS3505
ZGKL,2008-02-18 09:00,ZGKL 180900Z AUTO 02008KT 4SM 08/04 A3036 RMK SLP293 T00850037 57012 IEM_DS3505
ZGKL,2008-02-18 10:00,ZGKL 181000Z AUTO 08006KT 2 1/2SM 09/05 A3036 RMK T00900050 IEM_DS3505
ZGKL,2008-02-18 11:00,ZGKL 181100Z AUTO 05004KT 2 1/2SM 08/05 A3036 RMK T00800050 IEM_DS3505
ZGKL,2008-02-18 12:00,ZGKL 181200Z AUTO 02006KT 4SM 08/04 A3039 RMK SLP303 T00810038 52010 IEM_DS3505
ZGKL,2008-02-18 13:00,ZGKL 181300Z AUTO 06006KT 2 1/2SM 08/05 A3039 RMK T00800050 IEM_DS3505
ZGKL,2008-02-18 14:00,ZGKL 181400Z AUTO 03006KT 2 1/2SM 08/05 A3039 RMK T00800050 IEM_DS3505
ZGKL,2008-02-18 15:00,ZGKL 181500Z AUTO 02010KT 4SM 08/04 A3039 RMK SLP310 T00790036 52007 IEM_DS3505
ZGKL,2008-02-18 16:00,ZGKL 181600Z AUTO 00000KT 2 1/2SM 08/05 A3042 RMK T00800050 IEM_DS3505
ZGKL,2008-02-18 17:00,ZGKL 181700Z AUTO 00000KT 07/06 A3042 RMK T00700060 IEM_DS3505
ZGKL,2008-02-18 18:00,ZGKL 181800Z AUTO 02008KT 4SM 07/04 A3039 RMK 60000 SLP306 T00710042 57004 IEM_DS3505
ZGKL,2008-02-18 19:00,ZGKL 181900Z AUTO 00000KT 07/06 A3039 RMK T00700060 IEM_DS3505
ZGKL,2008-02-18 20:00,ZGKL 182000Z AUTO 00000KT 07/06 A3039 RMK T00700060 IEM_DS3505
ZGKL,2008-02-18 21:00,ZGKL 182100Z AUTO 04006KT 3SM 07/05 A3039 RMK 70007 SLP302 T00660046 57004 IEM_DS3505
ZGKL,2008-02-18 22:00,ZGKL 182200Z AUTO 00000KT 1SM 07/06 A3042 RMK T00700060 IEM_DS3505
ZGKL,2008-02-18 23:00,ZGKL 182300Z AUTO 00000KT 1SM 07/06 A3042 RMK T00700060 IEM_DS3505
ZGKL,2008-02-19 00:00,ZGKL 190000Z AUTO 02006KT 3SM 07/05 A3045 RMK 60016 70017 SLP323 T00660051 52020 IEM_DS3505
ZGKL,2008-02-19 01:00,ZGKL 190100Z AUTO 00000KT 1 1/2SM 07/06 A3045 RMK T00700060 IEM_DS3505
ZGKL,2008-02-19 02:00,ZGKL 190200Z AUTO 00000KT 2 1/2SM 07/07 A3047 RMK T00700070 IEM_DS3505
ZGKL,2008-02-19 03:00,ZGKL 190300Z AUTO 02008KT 3SM 08/05 A3047 RMK SLP331 T00770053 52008 IEM_DS3505
ZGKL,2008-02-19 04:00,ZGKL 190400Z AUTO 5SM 09/07 A3045 RMK T00900070 IEM_DS3505
ZGKL,2008-02-19 05:00,ZGKL 190500Z AUTO 07004KT 7SM 09/07 A3045 RMK T00900070 IEM_DS3505
ZGKL,2008-02-19 06:00,ZGKL 190600Z AUTO 02008KT 4SM 09/05 A3042 RMK 60004 SLP311 T00920050 57019 IEM_DS3505
ZGKL,2008-02-19 07:00,ZGKL 190700Z AUTO 06006KT 7SM 10/07 A3036 RMK T01000070 IEM_DS3505
ZGKL,2008-02-19 08:00,ZGKL 190800Z AUTO 07006KT 7SM 10/06 A3036 RMK T01000060 IEM_DS3505
ZGKL,2008-02-19 09:00,ZGKL 190900Z AUTO 02006KT 5SM 10/05 A3033 RMK SLP291 T00980046 57020 IEM_DS3505
ZGKL,2008-02-19 10:00,ZGKL 191000Z AUTO 06006KT 7SM 10/06 A3033 RMK T01000060 IEM_DS3505
ZGKL,2008-02-19 11:00,ZGKL 191100Z AUTO 06006KT 4SM 09/06 A3036 RMK T00900060 IEM_DS3505
ZGKL,2008-02-19 12:00,ZGKL 191200Z AUTO 02006KT 4SM 08/04 A3036 RMK SLP302 T00830045 52011 IEM_DS3505
ZGKL,2008-02-19 13:00,ZGKL 191300Z AUTO 06008KT 3SM 09/05 A3039 RMK T00900050 IEM_DS3505
ZGKL,2008-02-19 14:00,ZGKL 191400Z AUTO 04006KT 3SM 08/05 A3039 RMK T00800050 IEM_DS3505
ZGKL,2008-02-19 15:00,ZGKL 191500Z AUTO 36008KT 4SM 08/05 A3042 RMK SLP317 T00800046 52015 IEM_DS3505
ZGKL,2008-02-19 16:00,ZGKL 191600Z AUTO 00000KT 2 1/2SM 08/06 A3042 RMK T00800060 IEM_DS3505
ZGKL,2008-02-19 17:00,ZGKL 191700Z AUTO 00000KT 08/06 A3042 RMK T00800060 IEM_DS3505
ZGKL,2008-02-19 18:00,ZGKL 191800Z AUTO 02008KT 4SM 08/04 A3039 RMK SLP307 T00770043 57010 IEM_DS3505
ZGKL,2008-02-19 19:00,ZGKL 191900Z AUTO 00000KT 08/06 A3036 RMK T00800060 IEM_DS3505
ZGKL,2008-02-19 20:00,ZGKL 192000Z AUTO 00000KT 08/06 A3036 RMK T00800060 IEM_DS3505
ZGKL,2008-02-19 21:00,ZGKL 192100Z AUTO 02006KT 4SM 08/04 A3036 RMK 70015 SLP289 T00750039 57017 IEM_DS3505
ZGKL,2008-02-19 22:00,ZGKL 192200Z AUTO 00000KT 2 1/2SM 08/06 A3036 RMK T00800060 IEM_DS3505
ZGKL,2008-02-19 23:00,ZGKL 192300Z AUTO 00000KT 2SM 07/06 A3036 RMK T00700060 IEM_DS3505
ZGKL,2008-02-20 00:00,ZGKL 200000Z AUTO 02002KT 4SM 08/04 A3036 RMK 70005 SLP297 T00770039 52007 IEM_DS3505
ZGKL,2008-02-20 01:00,ZGKL 200100Z AUTO 00000KT 2SM 08/06 A3036 RMK T00800060 IEM_DS3505
ZGKL,2008-02-20 02:00,ZGKL 200200Z AUTO 2 1/2SM 09/06 A3036 RMK T00900060 IEM_DS3505
ZGKL,2008-02-20 03:00,ZGKL 200300Z AUTO 04004KT 5SM 10/04 A3036 RMK SLP296 T01030040 54000 IEM_DS3505
ZGKL,2008-02-20 04:00,ZGKL 200400Z AUTO 4SM 11/06 A3036 RMK T01100060 IEM_DS3505
ZGKL,2008-02-20 05:00,ZGKL 200500Z AUTO 25004KT 4SM 12/06 A3033 RMK T01200060 IEM_DS3505
ZGKL,2008-02-20 06:00,ZGKL 200600Z AUTO 32002KT 5SM 13/04 A3027 RMK SLP266 T01300044 57029 IEM_DS3505
ZGKL,2008-02-20 07:00,ZGKL 200700Z AUTO 4SM 14/05 A3024 RMK T01400050 IEM_DS3505
ZGKL,2008-02-20 08:00,ZGKL 200800Z AUTO 4SM 14/05 A3024 RMK T01400050 IEM_DS3505
ZGKL,2008-02-20 09:00,ZGKL 200900Z AUTO 36002KT 6SM 14/05 A3021 RMK SLP246 T01410049 57019 IEM_DS3505
ZGKL,2008-02-20 10:00,ZGKL 201000Z AUTO 00000KT 4SM 13/06 A3021 RMK T01300060 IEM_DS3505
ZGKL,2008-02-20 11:00,ZGKL 201100Z AUTO 00000KT 4SM 13/07 A3021 RMK T01300070 IEM_DS3505
ZGKL,2008-02-20 12:00,ZGKL 201200Z AUTO 04002KT 4SM 12/06 A3024 RMK SLP252 T01210059 52005 IEM_DS3505
ZGKL,2008-02-20 13:00,ZGKL 201300Z AUTO 03004KT 2 1/2SM 12/07 A3024 RMK T01200070 IEM_DS3505
ZGKL,2008-02-20 14:00,ZGKL 201400Z AUTO 06006KT 2 1/2SM 12/07 A3027 RMK T01200070 IEM_DS3505
ZGKL,2008-02-20 15:00,ZGKL 201500Z AUTO 02004KT 4SM 11/06 A3027 RMK SLP262 T01130056 52011 IEM_DS3505
ZGKL,2008-02-20 16:00,ZGKL 201600Z AUTO 07002KT 2SM 11/07 A3027 RMK T01100070 IEM_DS3505
ZGKL,2008-02-20 17:00,ZGKL 201700Z AUTO 1 1/2SM 11/07 A3027 RMK T01100070 IEM_DS3505
ZGKL,2008-02-20 18:00,ZGKL 201800Z AUTO 02008KT 4SM 11/05 A3024 RMK SLP254 T01070048 57007 IEM_DS3505
ZGKL,2008-02-20 19:00,ZGKL 201900Z AUTO 00000KT 10/07 A3021 RMK T01000070 IEM_DS3505
ZGKL,2008-02-20 20:00,ZGKL 202000Z AUTO 00000KT 09/06 A3021 RMK T00900060 IEM_DS3505
ZGKL,2008-02-20 21:00,ZGKL 202100Z AUTO 34002KT 5SM 09/05 A3021 RMK SLP239 T00910047 57015 IEM_DS3505
ZGKL,2008-02-20 22:00,ZGKL 202200Z AUTO 00000KT 1SM 08/06 A3021 RMK T00800060 IEM_DS3505
ZGKL,2008-02-20 23:00,ZGKL 202300Z AUTO 1SM 07/06 A3021 RMK T00700060 IEM_DS3505
ZGKL,2008-02-21 00:00,ZGKL 210000Z AUTO 32002KT 4SM 09/06 A3024 RMK SLP254 T00860057 52014 IEM_DS3505
ZGKL,2008-02-21 01:00,ZGKL 210100Z AUTO 00000KT 1 1/4SM 10/08 A3027 RMK T01000080 IEM_DS3505
ZGKL,2008-02-21 02:00,ZGKL 210200Z AUTO 00000KT 1 1/2SM 11/07 A3027 RMK T01100070 IEM_DS3505
ZGKL,2008-02-21 03:00,ZGKL 210300Z AUTO 32004KT 4SM 14/05 A3027 RMK SLP258 T01440052 52005 IEM_DS3505
ZGKL,2008-02-21 04:00,ZGKL 210400Z AUTO 00000KT 2SM 15/07 A3024 RMK T01500070 IEM_DS3505
ZGKL,2008-02-21 05:00,ZGKL 210500Z AUTO 00000KT 2SM 15/07 A3021 RMK T01500070 IEM_DS3505
ZGKL,2008-02-21 06:00,ZGKL 210600Z AUTO 07002KT 4SM 18/06 A3015 RMK SLP225 T01760055 57031 IEM_DS3505
ZGKL,2008-02-21 07:00,ZGKL 210700Z AUTO 00000KT 3SM 18/08 A3012 RMK T01800080 IEM_DS3505
ZGKL,2008-02-21 08:00,ZGKL 210800Z AUTO 00000KT 3SM 19/08 A3009 RMK T01900080 IEM_DS3505
ZGKL,2008-02-21 09:00,ZGKL 210900Z AUTO 22002KT 6SM 20/07 A3009 RMK SLP198 T01950069 57027 IEM_DS3505
ZGKL,2008-02-21 10:00,ZGKL 211000Z AUTO 00000KT 3SM 18/09 A3009 RMK T01800090 IEM_DS3505
ZGKL,2008-02-21 11:00,ZGKL 211100Z AUTO 00000KT 2 1/2SM 16/10 A3009 RMK T01600100 IEM_DS3505
ZGKL,2008-02-21 12:00,ZGKL 211200Z AUTO 00000KT 6SM 14/09 A3009 RMK SLP204 T01440088 52004 IEM_DS3505
ZGKL,2008-02-21 13:00,ZGKL 211300Z AUTO 00000KT 1 1/2SM 12/10 A3012 RMK T01200100 IEM_DS3505
ZGKL,2008-02-21 14:00,ZGKL 211400Z AUTO 00000KT 1 1/4SM 11/10 A3012 RMK T01100100 IEM_DS3505
ZGKL,2008-02-21 15:00,ZGKL 211500Z AUTO 11002KT 6SM 12/09 A3012 RMK SLP209 T01250090 52007 IEM_DS3505
ZGKL,2008-02-21 16:00,ZGKL 211600Z AUTO 00000KT 1SM 09/09 A3012 RMK T00900090 IEM_DS3505
ZGKL,2008-02-21 17:00,ZGKL 211700Z AUTO 00000KT 1 1/4SM 09/08 A3012 RMK T00900080 IEM_DS3505
ZGKL,2008-02-21 18:00,ZGKL 211800Z AUTO 00000KT 6SM 10/08 A3012 RMK SLP206 T01020081 57003 IEM_DS3505
ZGKL,2008-02-21 19:00,ZGKL 211900Z AUTO 00000KT 08/07 A3009 RMK T00800070 IEM_DS3505
ZGKL,2008-02-21 20:00,ZGKL 212000Z AUTO 00000KT 08/07 A3009 RMK T00800070 IEM_DS3505
ZGKL,2008-02-21 21:00,ZGKL 212100Z AUTO 36002KT 6SM 09/08 A3009 RMK SLP199 T00920080 57007 IEM_DS3505
ZGKL,2008-02-21 22:00,ZGKL 212200Z AUTO 00000KT 3/8SM 06/05 A3009 RMK T00600050 IEM_DS3505
ZGKL,2008-02-21 23:00,ZGKL 212300Z AUTO 00000KT 1/8SM 06/05 A3012 RMK T00600050 IEM_DS3505
ZGKL,2008-02-22 00:00,ZGKL 220000Z AUTO 07002KT 5SM 09/08 A3015 RMK SLP219 T00900081 52018 IEM_DS3505
ZGKL,2008-02-22 01:00,ZGKL 220100Z AUTO 00000KT 1/8SM 08/08 A3018 RMK T00800080 IEM_DS3505
ZGKL,2008-02-22 02:00,ZGKL 220200Z AUTO 00000KT 1 1/4SM 11/10 A3018 RMK T01100100 IEM_DS3505
ZGKL,2008-02-22 03:00,ZGKL 220300Z AUTO 14002KT 5SM 14/09 A3018 RMK SLP234 T01380093 52016 IEM_DS3505
ZGKL,2008-02-22 04:00,ZGKL 220400Z AUTO 1 1/2SM 16/11 A3018 RMK T01600110 IEM_DS3505
ZGKL,2008-02-22 05:00,ZGKL 220500Z AUTO 00000KT 1 1/2SM 19/12 A3012 RMK T01900120 IEM_DS3505
ZGKL,2008-02-22 06:00,ZGKL 220600Z AUTO 09002KT 5SM 22/09 A3009 RMK SLP198 T02160092 57033 IEM_DS3505
ZGKL,2008-02-22 07:00,ZGKL 220700Z AUTO 2SM 23/10 A3006 RMK T02300100 IEM_DS3505
ZGKL,2008-02-22 08:00,ZGKL 220800Z AUTO 3SM 23/10 A3003 RMK T02300100 IEM_DS3505
ZGKL,2008-02-22 09:00,ZGKL 220900Z AUTO 14004KT 9SM 23/09 A3003 RMK SLP175 T02330086 57023 IEM_DS3505
ZGKL,2008-02-22 10:00,ZGKL 221000Z AUTO 00000KT 2 1/2SM 22/11 A3003 RMK T02200110 IEM_DS3505
ZGKL,2008-02-22 11:00,ZGKL 221100Z AUTO 00000KT 2SM 19/12 A3006 RMK T01900120 IEM_DS3505
ZGKL,2008-02-22 12:00,ZGKL 221200Z AUTO 02002KT 7SM 17/11 A3006 RMK SLP187 T01730111 52010 IEM_DS3505
ZGKL,2008-02-22 13:00,ZGKL 221300Z AUTO 00000KT 2 1/2SM 15/12 A3006 RMK T01500120 IEM_DS3505
ZGKL,2008-02-22 14:00,ZGKL 221400Z AUTO 00000KT 1 1/2SM 14/12 A3009 RMK T01400120 IEM_DS3505
ZGKL,2008-02-22 15:00,ZGKL 221500Z AUTO 34002KT 7SM 15/10 A3009 RMK SLP198 T01490103 52011 IEM_DS3505
ZGKL,2008-02-22 16:00,ZGKL 221600Z AUTO 00000KT 1 1/2SM 12/11 A3009 RMK T01200110 IEM_DS3505
ZGKL,2008-02-22 17:00,ZGKL 221700Z AUTO 00000KT 11/10 A3009 RMK T01100100 IEM_DS3505
ZGKL,2008-02-22 18:00,ZGKL 221800Z AUTO 02002KT 7SM 13/10 A3006 RMK SLP189 T01280096 57006 IEM_DS3505
ZGKL,2008-02-22 20:00,ZGKL 222000Z AUTO 00000KT 11/10 A3003 RMK T01100100 IEM_DS3505
ZGKL,2008-02-22 21:00,ZGKL 222100Z AUTO 00000KT 6SM 12/10 A3006 RMK SLP184 T01220099 57005 IEM_DS3505
ZGKL,2008-02-22 22:00,ZGKL 222200Z AUTO 00000KT 2SM 11/10 A3006 RMK T01100100 IEM_DS3505
ZGKL,2008-02-22 23:00,ZGKL 222300Z AUTO 00000KT 1 1/2SM 11/11 A3009 RMK T01100110 IEM_DS3505
ZGKL,2008-02-23 00:00,ZGKL 230000Z AUTO 09002KT 4SM 13/10 A3009 RMK SLP203 T01330103 52017 IEM_DS3505
ZGKL,2008-02-23 01:00,ZGKL 230100Z AUTO 00000KT 2SM 13/12 A3012 RMK T01300120 IEM_DS3505
ZGKL,2008-02-23 02:00,ZGKL 230200Z AUTO 00000KT 2 1/2SM 14/13 A3012 RMK T01400130 IEM_DS3505
ZGKL,2008-02-23 03:00,ZGKL 230300Z AUTO 36002KT 4SM 17/11 A3012 RMK SLP207 T01680106 52004 IEM_DS3505
ZGKL,2008-02-23 04:00,ZGKL 230400Z AUTO 00000KT 4SM 21/13 A3009 RMK T02100130 IEM_DS3505
ZGKL,2008-02-23 05:00,ZGKL 230500Z AUTO 3SM 22/12 A3003 RMK T02200120 IEM_DS3505
ZGKL,2008-02-23 06:00,ZGKL 230600Z AUTO 18002KT 4SM 24/11 A3000 RMK SLP163 T02410111 57041 IEM_DS3505
ZGKL,2008-02-23 07:00,ZGKL 230700Z AUTO 4SM 24/11 A2997 RMK T02400110 IEM_DS3505
ZGKL,2008-02-23 08:00,ZGKL 230800Z AUTO 00000KT 4SM 25/11 A2994 RMK T02500110 IEM_DS3505
ZGKL,2008-02-23 09:00,ZGKL 230900Z AUTO 18002KT 7SM 25/10 A2994 RMK SLP144 T02470102 57019 IEM_DS3505
ZGKL,2008-02-23 10:00,ZGKL 231000Z AUTO 00000KT 3SM 22/12 A2994 RMK T02200120 IEM_DS3505
ZGKL,2008-02-23 11:00,ZGKL 231100Z AUTO 00000KT 3SM 20/13 A2997 RMK T02000130 IEM_DS3505
ZGKL,2008-02-23 12:00,ZGKL 231200Z AUTO 34002KT 6SM 19/13 A2997 RMK SLP157 T01890126 52011 IEM_DS3505
ZGKL,2008-02-23 13:00,ZGKL 231300Z AUTO 00000KT 2 1/2SM 17/14 A2997 RMK T01700140 IEM_DS3505
ZGKL,2008-02-23 14:00,ZGKL 231400Z AUTO 00000KT 2SM 16/14 A3000 RMK T01600140 IEM_DS3505
ZGKL,2008-02-23 15:00,ZGKL 231500Z AUTO 02004KT 6SM 19/12 A3000 RMK SLP171 T01930118 52015 IEM_DS3505
ZGKL,2008-02-23 16:00,ZGKL 231600Z AUTO 00000KT 3SM 17/14 A3003 RMK T01700140 IEM_DS3505
ZGKL,2008-02-23 17:00,ZGKL 231700Z AUTO 00000KT 3SM 16/13 A3003 RMK T01600130 IEM_DS3505
ZGKL,2008-02-23 18:00,ZGKL 231800Z AUTO 02004KT 6SM 17/12 A3003 RMK SLP171 T01730124 52002 IEM_DS3505
ZGKL,2008-02-23 19:00,ZGKL 231900Z AUTO 00000KT 16/13 A3000 RMK T01600130 IEM_DS3505
ZGKL,2008-02-23 20:00,ZGKL 232000Z AUTO 15/14 A3000 RMK T01500140 IEM_DS3505
ZGKL,2008-02-23 21:00,ZGKL 232100Z AUTO 02004KT 6SM 16/12 A3000 RMK 70003 SLP170 T01580124 57001 IEM_DS3505
ZGKL,2008-02-23 22:00,ZGKL 232200Z AUTO 1 1/2SM 15/13 A3003 RMK T01500130 IEM_DS3505
ZGKL,2008-02-23 23:00,ZGKL 232300Z AUTO 04004KT 1 1/2SM 15/14 A3003 RMK T01500140 IEM_DS3505
ZGKL,2008-02-24 00:00,ZGKL 240000Z AUTO 36004KT 4SM 15/13 A3006 RMK 60008 70009 SLP181 T01510126 52009 IEM_DS3505
ZGKL,2008-02-24 01:00,ZGKL 240100Z AUTO 1SM 15/14 A3006 RMK T01500140 IEM_DS3505
ZGKL,2008-02-24 02:00,ZGKL 240200Z AUTO 05004KT 1SM 15/14 A3006 RMK T01500140 IEM_DS3505
ZGKL,2008-02-24 03:00,ZGKL 240300Z AUTO 36008KT 4SM 15/12 A3006 RMK SLP188 T01510119 52007 IEM_DS3505
ZGKL,2008-02-24 04:00,ZGKL 240400Z AUTO 00000KT 1SM 15/14 A3003 RMK T01500140 IEM_DS3505
ZGKL,2008-02-24 05:00,ZGKL 240500Z AUTO 1SM 15/14 A3003 RMK T01500140 IEM_DS3505
ZGKL,2008-02-24 06:00,ZGKL 240600Z AUTO 02008KT 3SM 14/12 A3000 RMK 60002 SLP167 T01400117 57022 IEM_DS3505
ZGKL,2008-02-24 07:00,ZGKL 240700Z AUTO 05004KT 1 1/4SM 16/15 A2997 RMK T01600150 IEM_DS3505
ZGKL,2008-02-24 08:00,ZGKL 240800Z AUTO 04008KT 1 1/2SM 15/14 A2997 RMK T01500140 IEM_DS3505
ZGKL,2008-02-24 09:00,ZGKL 240900Z AUTO 36006KT 2SM 14/12 A2994 RMK SLP154 T01430118 57013 IEM_DS3505
ZGKL,2008-02-24 10:00,ZGKL 241000Z AUTO 05004KT 1 1/2SM 15/13 A2997 RMK T01500130 IEM_DS3505
ZGKL,2008-02-24 11:00,ZGKL 241100Z AUTO 03006KT 2SM 15/13 A2997 RMK T01500130 IEM_DS3505
ZGKL,2008-02-24 12:00,ZGKL 241200Z AUTO 36004KT 2SM 14/11 A2997 RMK 60003 SLP165 T01360108 52010 IEM_DS3505
ZGKL,2008-02-24 13:00,ZGKL 241300Z AUTO 06004KT 1 1/4SM 14/13 A3000 RMK T01400130 IEM_DS3505
ZGKL,2008-02-24 14:00,ZGKL 241400Z AUTO 05004KT 1 1/4SM 13/12 A3000 RMK T01300120 IEM_DS3505
ZGKL,2008-02-24 15:00,ZGKL 241500Z AUTO 02008KT 2SM 12/11 A3000 RMK SLP171 T01250112 52006 IEM_DS3505
ZGKL,2008-02-24 16:00,ZGKL 241600Z AUTO 06008KT 1SM 13/12 A3000 RMK T01300120 IEM_DS3505
ZGKL,2008-02-24 17:00,ZGKL 241700Z AUTO 07006KT 13/12 A3000 RMK T01300120 IEM_DS3505
ZGKL,2008-02-24 18:00,ZGKL 241800Z AUTO 02006KT 2SM 11/10 A3000 RMK 60035 SLP172 T01140100 54000 IEM_DS3505
ZGKL,2008-02-24 19:00,ZGKL 241900Z AUTO 05006KT 12/11 A3000 RMK T01200110 IEM_DS3505
ZGKL,2008-02-24 20:00,ZGKL 242000Z AUTO 06010KT 11/10 A3000 RMK T01100100 IEM_DS3505
ZGKL,2008-02-24 21:00,ZGKL 242100Z AUTO 02008KT 2SM 09/08 A3000 RMK 70084 SLP174 T00940078 52001 IEM_DS3505
ZGKL,2008-02-24 22:00,ZGKL 242200Z AUTO 06006KT 4SM 10/09 A3003 RMK T01000090 IEM_DS3505
ZGKL,2008-02-24 23:00,ZGKL 242300Z AUTO 4SM 09/08 A3006 RMK T00900080 IEM_DS3505
ZGKL,2008-02-25 00:00,ZGKL 250000Z AUTO 02008KT 4SM 08/06 A3006 RMK 60075 70115 SLP199 T00760061 52024 IEM_DS3505
ZGKL,2008-02-25 01:00,ZGKL 250100Z AUTO 07006KT 3SM 08/07 A3009 RMK T00800070 IEM_DS3505
ZGKL,2008-02-25 02:00,ZGKL 250200Z AUTO 06006KT 2 1/2SM 08/07 A3009 RMK T00800070 IEM_DS3505
ZGKL,2008-02-25 03:00,ZGKL 250300Z AUTO 36008KT 5SM 07/05 A3012 RMK SLP212 T00690051 52012 IEM_DS3505
ZGKL,2008-02-25 04:00,ZGKL 250400Z AUTO 07006KT 2 1/2SM 07/07 A3009 RMK T00700070 IEM_DS3505
ZGKL,2008-02-25 05:00,ZGKL 250500Z AUTO 08006KT 3SM 07/07 A3009 RMK T00700070 IEM_DS3505
ZGKL,2008-02-25 06:00,ZGKL 250600Z AUTO 02010KT 7SM 06/04 A3006 RMK 60024 SLP199 T00650045 57013 IEM_DS3505
ZGKL,2008-02-25 07:00,ZGKL 250700Z AUTO 07006KT 4SM 07/06 A3006 RMK T00700060 IEM_DS3505
ZGKL,2008-02-25 08:00,ZGKL 250800Z AUTO 07006KT 3SM 07/06 A3006 RMK T00700060 IEM_DS3505
ZGKL,2008-02-25 09:00,ZGKL 250900Z AUTO 02008KT 9SM 06/04 A3006 RMK SLP198 T00650037 57002 IEM_DS3505
ZGKL,2008-02-25 10:00,ZGKL 251000Z AUTO 05006KT 2 1/2SM 06/05 A3009 RMK T00600050 IEM_DS3505
ZGKL,2008-02-25 11:00,ZGKL 251100Z AUTO 05008KT 2SM 06/05 A3012 RMK T00600050 IEM_DS3505
ZGKL,2008-02-25 12:00,ZGKL 251200Z AUTO 02010KT 7SM 05/03 A3015 RMK 60003 SLP235 T00520027 52035 IEM_DS3505
ZGKL,2008-02-25 13:00,ZGKL 251300Z AUTO 05010KT 7SM 05/04 A3018 RMK T00500040 IEM_DS3505
ZGKL,2008-02-25 14:00,ZGKL 251400Z AUTO 06010KT 7SM 05/04 A3021 RMK T00500040 IEM_DS3505
ZGKL,2008-02-25 15:00,ZGKL 251500Z AUTO 02012KT 9SM 05/02 A3024 RMK SLP258 T00530016 52022 IEM_DS3505
ZGKL,2008-02-25 16:00,ZGKL 251600Z AUTO 05010KT 7SM 05/03 A3024 RMK T00500030 IEM_DS3505
ZGKL,2008-02-25 17:00,ZGKL 251700Z AUTO 05/03 A3024 RMK T00500030 IEM_DS3505
ZGKL,2008-02-25 18:00,ZGKL 251800Z AUTO 36008KT 9SM 05/01 A3024 RMK 60004 SLP261 T00470014 52003 IEM_DS3505
ZGKL,2008-02-25 19:00,ZGKL 251900Z AUTO 05/03 A3024 RMK T00500030 IEM_DS3505
ZGKL,2008-02-25 20:00,ZGKL 252000Z AUTO 05/03 A3027 RMK T00500030 IEM_DS3505
ZGKL,2008-02-25 21:00,ZGKL 252100Z AUTO 36012KT 7SM 04/01 A3030 RMK 70072 SLP276 T00450014 52015 IEM_DS3505
ZGKL,2008-02-25 22:00,ZGKL 252200Z AUTO 05004KT 4SM 05/04 A3033 RMK T00500040 IEM_DS3505
ZGKL,2008-02-25 23:00,ZGKL 252300Z AUTO 07008KT 4SM 05/04 A3036 RMK T00500040 IEM_DS3505
ZGKL,2008-02-26 00:00,ZGKL 260000Z AUTO 02012KT 8SM 05/01 A3039 RMK 60003 70036 SLP306 T00480013 52029 IEM_DS3505
ZGKL,2008-02-26 01:00,ZGKL 260100Z AUTO 4SM 05/03 A3042 RMK T00500030 IEM_DS3505
ZGKL,2008-02-26 02:00,ZGKL 260200Z AUTO 04006KT 7SM 06/04 A3045 RMK T00600040 IEM_DS3505
ZGKL,2008-02-26 03:00,ZGKL 260300Z AUTO 02014KT 9SM 06/01 A3045 RMK SLP325 T00590012 52019 IEM_DS3505
ZGKL,2008-02-26 04:00,ZGKL 260400Z AUTO 7SM 08/04 A3042 RMK T00800040 IEM_DS3505
ZGKL,2008-02-26 05:00,ZGKL 260500Z AUTO 03014KT 7SM 08/01 A3042 RMK T00800010 IEM_DS3505
ZGKL,2008-02-26 06:00,ZGKL 260600Z AUTO 36010KT 9SM 08/00 A3039 RMK 60000 SLP307 T00770002 57017 IEM_DS3505
ZGKL,2008-02-26 07:00,ZGKL 260700Z AUTO 04014KT 7SM 09/00 A3036 RMK T00900000 IEM_DS3505
ZGKL,2008-02-26 08:00,ZGKL 260800Z AUTO 05010KT 7SM 09/01 A3036 RMK T00900010 IEM_DS3505
ZGKL,2008-02-26 09:00,ZGKL 260900Z AUTO 36012KT 9SM 08/M01 A3036 RMK SLP301 T00811009 57006 IEM_DS3505
ZGKL,2008-02-26 10:00,ZGKL 261000Z AUTO 05012KT 7SM 09/00 A3039 RMK T00900000 IEM_DS3505
ZGKL,2008-02-26 11:00,ZGKL 261100Z AUTO 05006KT 6SM 08/00 A3039 RMK T00800000 IEM_DS3505
ZGKL,2008-02-26 12:00,ZGKL 261200Z AUTO 02008KT 8SM 07/M01 A3039 RMK SLP312 T00731006 52010 IEM_DS3505
ZGKL,2008-02-26 13:00,ZGKL 261300Z AUTO 03006KT 4SM 07/01 A3042 RMK T00700010 IEM_DS3505
ZGKL,2008-02-26 14:00,ZGKL 261400Z AUTO 04004KT 4SM 07/01 A3042 RMK T00700010 IEM_DS3505
ZGKL,2008-02-26 15:00,ZGKL 261500Z AUTO 02012KT 8SM 07/M01 A3045 RMK SLP322 T00671007 52010 IEM_DS3505
ZGKL,2008-02-26 16:00,ZGKL 261600Z AUTO 04006KT 07/01 A3045 RMK T00700010 IEM_DS3505
ZGKL,2008-02-26 17:00,ZGKL 261700Z AUTO 05006KT 07/00 A3045 RMK T00700000 IEM_DS3505
ZGKL,2008-02-26 18:00,ZGKL 261800Z AUTO 02008KT 8SM 07/M02 A3042 RMK SLP319 T00661015 57002 IEM_DS3505
ZGKL,2008-02-26 19:00,ZGKL 261900Z AUTO 31004KT 06/01 A3045 RMK T00600010 IEM_DS3505
ZGKL,2008-02-26 20:00,ZGKL 262000Z AUTO 07/01 A3045 RMK T00700010 IEM_DS3505
ZGKL,2008-02-26 21:00,ZGKL 262100Z AUTO 02010KT 8SM 07/M02 A3042 RMK 70000 SLP319 T00681024 54000 IEM_DS3505
ZGKL,2008-02-26 22:00,ZGKL 262200Z AUTO 7SM 07/M01 A3045 RMK T00701010 IEM_DS3505
ZGKL,2008-02-26 23:00,ZGKL 262300Z AUTO 7SM 07/M01 A3045 RMK T00701010 IEM_DS3505
ZGKL,2008-02-27 00:00,ZGKL 270000Z AUTO 36008KT 6SM 07/M02 A3047 RMK 70000 SLP340 T00711021 52021 IEM_DS3505
ZGKL,2008-02-27 01:00,ZGKL 270100Z AUTO 06006KT 7SM 08/M01 A3047 RMK T00801010 IEM_DS3505
ZGKL,2008-02-27 02:00,ZGKL 270200Z AUTO 04008KT 6SM 09/00 A3047 RMK T00900000 IEM_DS3505
ZGKL,2008-02-27 03:00,ZGKL 270300Z AUTO 02008KT 6SM 09/M02 A3047 RMK SLP342 T00911016 52002 IEM_DS3505
ZGKL,2008-02-27 04:00,ZGKL 270400Z AUTO 06010KT 7SM 11/M01 A3045 RMK T01101010 IEM_DS3505
ZGKL,2008-02-27 05:00,ZGKL 270500Z AUTO 05012KT 7SM 12/M04 A3042 RMK T01201040 IEM_DS3505
ZGKL,2008-02-27 06:00,ZGKL 270600Z AUTO 02010KT 9SM 12/M04 A3036 RMK SLP297 T01211041 57043 IEM_DS3505
ZGKL,2008-02-27 07:00,ZGKL 270700Z AUTO 6SM 13/M04 A3033 RMK T01301040 IEM_DS3505
ZGKL,2008-02-27 08:00,ZGKL 270800Z AUTO 07004KT 6SM 13/M03 A3030 RMK T01301030 IEM_DS3505
ZGKL,2008-02-27 09:00,ZGKL 270900Z AUTO 02006KT 10SM 14/M02 A3027 RMK SLP264 T01371015 57032 IEM_DS3505
ZGKL,2008-02-27 10:00,ZGKL 271000Z AUTO 7SM 13/00 A3027 RMK T01300000 IEM_DS3505
ZGKL,2008-02-27 11:00,ZGKL 271100Z AUTO 7SM 12/01 A3030 RMK T01200010 IEM_DS3505
ZGKL,2008-02-27 12:00,ZGKL 271200Z AUTO 00000KT 8SM 11/M02 A3033 RMK SLP280 T01131018 52015 IEM_DS3505
ZGKL,2008-02-27 13:00,ZGKL 271300Z AUTO 05012KT 7SM 11/M02 A3033 RMK T01101020 IEM_DS3505
ZGKL,2008-02-27 14:00,ZGKL 271400Z AUTO 04008KT 7SM 11/M02 A3036 RMK T01101020 IEM_DS3505
ZGKL,2008-02-27 15:00,ZGKL 271500Z AUTO 36006KT 7SM 10/M01 A3036 RMK SLP293 T01031011 52013 IEM_DS3505
ZGKL,2008-02-27 16:00,ZGKL 271600Z AUTO 7SM 10/02 A3036 RMK T01000020 IEM_DS3505
ZGKL,2008-02-27 17:00,ZGKL 271700Z AUTO 30004KT 7SM 10/03 A3036 RMK T01000030 IEM_DS3505
ZGKL,2008-02-27 18:00,ZGKL 271800Z AUTO 02004KT 7SM 10/M02 A3033 RMK SLP284 T01021018 57007 IEM_DS3505
ZGKL,2008-02-27 19:00,ZGKL 271900Z AUTO 09/04 A3030 RMK T00900040 IEM_DS3505
ZGKL,2008-02-27 20:00,ZGKL 272000Z AUTO 00000KT 09/05 A3030 RMK T00900050 IEM_DS3505
ZGKL,2008-02-27 21:00,ZGKL 272100Z AUTO 34004KT 7SM 10/M01 RMK SLP269 T00961012 57015 IEM_DS3505
ZGKL,2008-02-27 22:00,ZGKL 272200Z AUTO 00000KT 4SM 09/05 A3030 RMK T00900050 IEM_DS3505
ZGKL,2008-02-27 23:00,ZGKL 272300Z AUTO 4SM 08/06 A3030 RMK T00800060 IEM_DS3505
ZGKL,2008-02-28 00:00,ZGKL 280000Z AUTO 36004KT 6SM 09/02 A3033 RMK 60000 70000 SLP281 T00890020 52011 IEM_DS3505
ZGKL,2008-02-28 01:00,ZGKL 280100Z AUTO 3SM 09/06 A3033 RMK T00900060 IEM_DS3505
ZGKL,2008-02-28 02:00,ZGKL 280200Z AUTO 4SM 10/06 A3033 RMK T01000060 IEM_DS3505
ZGKL,2008-02-28 03:00,ZGKL 280300Z AUTO 36008KT 7SM 12/01 A3033 RMK SLP277 T01160013 57003 IEM_DS3505
ZGKL,2008-02-28 04:00,ZGKL 280400Z AUTO 6SM 12/04 A3030 RMK T01200040 IEM_DS3505
ZGKL,2008-02-28 05:00,ZGKL 280500Z AUTO 00000KT 6SM 12/03 A3027 RMK T01200030 IEM_DS3505
ZGKL,2008-02-28 06:00,ZGKL 280600Z AUTO 02004KT 7SM 14/M00 A3021 RMK SLP242 T01351002 57034 IEM_DS3505
ZGKL,2008-02-28 07:00,ZGKL 280700Z AUTO 00000KT 6SM 13/03 A3021 RMK T01300030 IEM_DS3505
ZGKL,2008-02-28 08:00,ZGKL 280800Z AUTO 00000KT 6SM 13/02 A3018 RMK T01300020 IEM_DS3505
ZGKL,2008-02-28 09:00,ZGKL 280900Z AUTO 29002KT 7SM 13/M00 A3015 RMK SLP231 T01271002 57011 IEM_DS3505
ZGKL,2008-02-28 10:00,ZGKL 281000Z AUTO 00000KT 5SM 12/06 A3018 RMK T01200060 IEM_DS3505
ZGKL,2008-02-28 11:00,ZGKL 281100Z AUTO 00000KT 4SM 11/06 A3015 RMK T01100060 IEM_DS3505
ZGKL,2008-02-28 12:00,ZGKL 281200Z AUTO 27002KT 7SM 11/03 A3018 RMK SLP233 T01140034 52001 IEM_DS3505
ZGKL,2008-02-28 13:00,ZGKL 281300Z AUTO 00000KT 4SM 11/06 A3021 RMK T01100060 IEM_DS3505
ZGKL,2008-02-28 14:00,ZGKL 281400Z AUTO 34006KT 2 1/2SM 10/08 A3021 RMK T01000080 IEM_DS3505
ZGKL,2008-02-28 15:00,ZGKL 281500Z AUTO 00000KT 6SM 09/06 A3021 RMK SLP247 T00930060 52014 IEM_DS3505
ZGKL,2008-02-28 16:00,ZGKL 281600Z AUTO 00000KT 1 1/2SM 09/08 A3021 RMK T00900080 IEM_DS3505
ZGKL,2008-02-28 17:00,ZGKL 281700Z AUTO 00000KT 09/08 A3018 RMK T00900080 IEM_DS3505
ZGKL,2008-02-28 18:00,ZGKL 281800Z AUTO 07002KT 6SM 09/06 A3018 RMK 60000 SLP229 T00880059 57017 IEM_DS3505
ZGKL,2008-02-28 19:00,ZGKL 281900Z AUTO 00000KT 09/08 A3015 RMK T00900080 IEM_DS3505
ZGKL,2008-02-28 20:00,ZGKL 282000Z AUTO 00000KT 08/08 A3015 RMK T00800080 IEM_DS3505
ZGKL,2008-02-28 21:00,ZGKL 282100Z AUTO 00000KT 6SM 08/05 A3012 RMK 70001 SLP217 T00830054 57013 IEM_DS3505
ZGKL,2008-02-28 22:00,ZGKL 282200Z AUTO 00000KT 1SM 08/08 A3015 RMK T00800080 IEM_DS3505
ZGKL,2008-02-28 23:00,ZGKL 282300Z AUTO 00000KT 1SM 08/08 A3015 RMK T00800080 IEM_DS3505
ZGKL,2008-02-29 00:00,ZGKL 290000Z AUTO 07002KT 3SM 08/06 A3015 RMK 70001 SLP226 T00820063 52009 IEM_DS3505
ZGKL,2008-02-29 01:00,ZGKL 290100Z AUTO 00000KT 1 1/4SM 09/08 A3018 RMK T00900080 IEM_DS3505
ZGKL,2008-02-29 02:00,ZGKL 290200Z AUTO 00000KT 2SM 10/09 A3018 RMK T01000090 IEM_DS3505
ZGKL,2008-02-29 03:00,ZGKL 290300Z AUTO 07002KT 3SM 12/06 A3018 RMK SLP233 T01250057 52007 IEM_DS3505
ZGKL,2008-02-29 04:00,ZGKL 290400Z AUTO 20004KT 4SM 16/07 A3015 RMK T01600070 IEM_DS3505
ZGKL,2008-02-29 05:00,ZGKL 290500Z AUTO 21004KT 5SM 17/05 A3012 RMK T01700050 IEM_DS3505
ZGKL,2008-02-29 06:00,ZGKL 290600Z AUTO 36004KT 6SM 18/02 A3009 RMK SLP193 T01850015 57037 IEM_DS3505
ZGKL,2008-02-29 07:00,ZGKL 290700Z AUTO 06006KT 6SM 19/M01 A3003 RMK T01901010 IEM_DS3505
ZGKL,2008-02-29 08:00,ZGKL 290800Z AUTO 13006KT 6SM 20/M02 A3003 RMK T02001020 IEM_DS3505
ZGKL,2008-02-29 09:00,ZGKL 290900Z AUTO 14002KT 9SM 20/M03 A3003 RMK SLP170 T02031034 57022 IEM_DS3505
ZGKL,2008-02-29 10:00,ZGKL 291000Z AUTO 23004KT 5SM 18/01 A3003 RMK T01800010 IEM_DS3505
ZGKL,2008-02-29 11:00,ZGKL 291100Z AUTO 21002KT 4SM 14/06 A3003 RMK T01400060 IEM_DS3505
ZGKL,2008-02-29 12:00,ZGKL 291200Z AUTO 16002KT 8SM 14/04 A3006 RMK SLP189 T01440038 52017 IEM_DS3505
ZGKL,2008-02-29 13:00,ZGKL 291300Z AUTO 4SM 10/07 A3009 RMK T01000070 IEM_DS3505
ZGKL,2008-02-29 14:00,ZGKL 291400Z AUTO 00000KT 2 1/2SM 09/07 A3009 RMK T00900070 IEM_DS3505
ZGKL,2008-02-29 15:00,ZGKL 291500Z AUTO 36002KT 8SM 10/02 A3009 RMK SLP207 T01040025 52017 IEM_DS3505
ZGKL,2008-02-29 16:00,ZGKL 291600Z AUTO 00000KT 2 1/2SM 08/06 A3012 RMK T00800060 IEM_DS3505
ZGKL,2008-02-29 17:00,ZGKL 291700Z AUTO 00000KT 2 1/2SM 07/05 A3012 RMK T00700050 IEM_DS3505
ZGKL,2008-02-29 18:00,ZGKL 291800Z AUTO 36002KT 8SM 08/02 A3012 RMK SLP212 T00780016 52006 IEM_DS3505
ZGKL,2008-02-29 19:00,ZGKL 291900Z AUTO 00000KT 05/04 A3012 RMK T00500040 IEM_DS3505
ZGKL,2008-02-29 20:00,ZGKL 292000Z AUTO 00000KT 04/04 A3012 RMK T00400040 IEM_DS3505
ZGKL,2008-02-29 21:00,ZGKL 292100Z AUTO 02002KT 8SM 06/01 A3012 RMK SLP213 T00600011 52001 IEM_DS3505
ZGKL,2008-02-29 22:00,ZGKL 292200Z AUTO 00000KT 2 1/2SM 04/03 A3012 RMK T00400030 IEM_DS3505
ZGKL,2008-02-29 23:00,ZGKL 292300Z AUTO 00000KT 2SM 03/02 A3015 RMK T00300020 IEM_DS3505
ZGKL,2008-03-01 00:00,ZGKL 010000Z AUTO 00000KT 7SM 06/02 A3018 RMK SLP232 T00560017 52017 IEM_DS3505
ZGKL,2008-03-01 01:00,ZGKL 010100Z AUTO 00000KT 3SM 06/05 A3018 RMK T00600050 IEM_DS3505
ZGKL,2008-03-01 02:00,ZGKL 010200Z AUTO 00000KT 2 1/2SM 11/06 A3018 RMK T01100060 IEM_DS3505
ZGKL,2008-03-01 03:00,ZGKL 010300Z AUTO 22002KT 6SM 15/02 A3018 RMK SLP226 T01460018 57004 IEM_DS3505
ZGKL,2008-03-01 04:00,ZGKL 010400Z AUTO 00000KT 4SM 17/05 A3012 RMK T01700050 IEM_DS3505
ZGKL,2008-03-01 05:00,ZGKL 010500Z AUTO 4SM 19/00 A3009 RMK T01900000 IEM_DS3505
ZGKL,2008-03-01 06:00,ZGKL 010600Z AUTO 22004KT 8SM 21/M03 A3006 RMK SLP184 T02121026 57040 IEM_DS3505
ZGKL,2008-03-01 07:00,ZGKL 010700Z AUTO 6SM 21/M04 A3000 RMK T02101040 IEM_DS3505
ZGKL,2008-03-01 08:00,ZGKL 010800Z AUTO 6SM 22/M06 A2997 RMK T02201060 IEM_DS3505
ZGKL,2008-03-01 09:00,ZGKL 010900Z AUTO 16004KT 9SM 22/M04 A2997 RMK SLP159 T02201042 57025 IEM_DS3505
ZGKL,2008-03-01 10:00,ZGKL 011000Z AUTO 18004KT 6SM 20/M01 A2997 RMK T02001010 IEM_DS3505
ZGKL,2008-03-01 11:00,ZGKL 011100Z AUTO 25004KT 5SM 17/01 A3000 RMK T01700010 IEM_DS3505
ZGKL,2008-03-01 12:00,ZGKL 011200Z AUTO 32002KT 9SM 15/01 A3003 RMK SLP186 T01490014 52024 IEM_DS3505
ZGKL,2008-03-01 13:00,ZGKL 011300Z AUTO 00000KT 4SM 11/06 A3009 RMK T01100060 IEM_DS3505
ZGKL,2008-03-01 14:00,ZGKL 011400Z AUTO 00000KT 3SM 10/06 A3012 RMK T01000060 IEM_DS3505
ZGKL,2008-03-01 15:00,ZGKL 011500Z AUTO 32002KT 8SM 12/02 A3012 RMK SLP215 T01220024 52030 IEM_DS3505
ZGKL,2008-03-01 16:00,ZGKL 011600Z AUTO 00000KT 4SM 08/05 A3012 RMK T00800050 IEM_DS3505
ZGKL,2008-03-01 17:00,ZGKL 011700Z AUTO 00000KT 3SM 07/06 A3015 RMK T00700060 IEM_DS3505
ZGKL,2008-03-01 18:00,ZGKL 011800Z AUTO 36002KT 8SM 10/01 A3015 RMK SLP218 T00970014 52005 IEM_DS3505
ZGKL,2008-03-01 19:00,ZGKL 011900Z AUTO 00000KT 05/04 A3015 RMK T00500040 IEM_DS3505
ZGKL,2008-03-01 20:00,ZGKL 012000Z AUTO 00000KT 05/04 A3012 RMK T00500040 IEM_DS3505
ZGKL,2008-03-01 21:00,ZGKL 012100Z AUTO 07002KT 8SM 08/01 A3015 RMK SLP221 T00780012 52002 IEM_DS3505
ZGKL,2008-03-01 22:00,ZGKL 012200Z AUTO 00000KT 3SM 04/03 A3018 RMK T00400030 IEM_DS3505
ZGKL,2008-03-01 23:00,ZGKL 012300Z AUTO 00000KT 3SM 04/03 A3018 RMK T00400030 IEM_DS3505
ZGKL,2008-03-02 00:00,ZGKL 020000Z AUTO 02002KT 6SM 07/02 A3021 RMK SLP241 T00740021 52017 IEM_DS3505
ZGKL,2008-03-02 01:00,ZGKL 020100Z AUTO 00000KT 3SM 08/06 A3021 RMK T00800060 IEM_DS3505
ZGKL,2008-03-02 02:00,ZGKL 020200Z AUTO 00000KT 4SM 12/05 A3024 RMK T01200050 IEM_DS3505
ZGKL,2008-03-02 03:00,ZGKL 020300Z AUTO 00000KT 4SM 16/02 A3021 RMK SLP242 T01550020 52003 IEM_DS3505
ZGKL,2008-03-02 04:00,ZGKL 020400Z AUTO 5SM 19/03 A3018 RMK T01900030 IEM_DS3505
ZGKL,2008-03-02 05:00,ZGKL 020500Z AUTO 19004KT 5SM 22/02 A3015 RMK T02200020 IEM_DS3505
ZGKL,2008-03-02 06:00,ZGKL 020600Z AUTO 04002KT 4SM 24/M03 A3009 RMK SLP199 T02361029 57040 IEM_DS3505
ZGKL,2008-03-02 07:00,ZGKL 020700Z AUTO 6SM 24/M01 A3006 RMK T02401010 IEM_DS3505
ZGKL,2008-03-02 08:00,ZGKL 020800Z AUTO 19004KT 6SM 25/M05 A3006 RMK T02501050 IEM_DS3505
ZGKL,2008-03-02 09:00,ZGKL 020900Z AUTO 20002KT 5SM 25/M03 A3003 RMK SLP176 T02471028 57023 IEM_DS3505
ZGKL,2008-03-02 10:00,ZGKL 021000Z AUTO 21004KT 6SM 22/04 A3003 RMK T02200040 IEM_DS3505
ZGKL,2008-03-02 11:00,ZGKL 021100Z AUTO 00000KT 4SM 19/04 A3006 RMK T01900040 IEM_DS3505
ZGKL,2008-03-02 12:00,ZGKL 021200Z AUTO 36002KT 5SM 17/05 A3009 RMK SLP204 T01670047 52025 IEM_DS3505
ZGKL,2008-03-02 13:00,ZGKL 021300Z AUTO 35004KT 4SM 13/07 A3012 RMK T01300070 IEM_DS3505
ZGKL,2008-03-02 14:00,ZGKL 021400Z AUTO 32004KT 4SM 12/06 A3015 RMK T01200060 IEM_DS3505
ZGKL,2008-03-02 15:00,ZGKL 021500Z AUTO 36004KT 5SM 16/01 A3015 RMK SLP220 T01600013 52018 IEM_DS3505
ZGKL,2008-03-02 16:00,ZGKL 021600Z AUTO 00000KT 3SM 10/06 A3015 RMK T01000060 IEM_DS3505
ZGKL,2008-03-02 17:00,ZGKL 021700Z AUTO 00000KT 08/06 A3015 RMK T00800060 IEM_DS3505
ZGKL,2008-03-02 18:00,ZGKL 021800Z AUTO 11002KT 5SM 12/04 A3015 RMK SLP221 T01160043 52002 IEM_DS3505
ZGKL,2008-03-02 19:00,ZGKL 021900Z AUTO 00000KT 07/06 A3015 RMK T00700060 IEM_DS3505
ZGKL,2008-03-02 20:00,ZGKL 022000Z AUTO 00000KT 07/05 A3015 RMK T00700050 IEM_DS3505
ZGKL,2008-03-02 21:00,ZGKL 022100Z AUTO 34002KT 4SM 10/04 A3015 RMK SLP222 T01020041 52001 IEM_DS3505
ZGKL,2008-03-02 22:00,ZGKL 022200Z AUTO 00000KT 3SM 06/05 A3018 RMK T00600050 IEM_DS3505
ZGKL,2008-03-02 23:00,ZGKL 022300Z AUTO 35004KT 4SM 06/05 A3021 RMK T00600050 IEM_DS3505
ZGKL,2008-03-03 00:00,ZGKL 030000Z AUTO 09002KT 4SM 10/04 A3024 RMK SLP245 T01000044 52020 IEM_DS3505
ZGKL,2008-03-03 01:00,ZGKL 030100Z AUTO 00000KT 3SM 09/07 A3024 RMK T00900070 IEM_DS3505
ZGKL,2008-03-03 02:00,ZGKL 030200Z AUTO 00000KT 3SM 13/07 A3024 RMK T01300070 IEM_DS3505
ZGKL,2008-03-03 03:00,ZGKL 030300Z AUTO 02008KT 4SM 19/01 A3024 RMK SLP240 T01860012 57002 IEM_DS3505
ZGKL,2008-03-03 04:00,ZGKL 030400Z AUTO 06010KT 3SM 22/01 A3021 RMK T02200010 IEM_DS3505
ZGKL,2008-03-03 05:00,ZGKL 030500Z AUTO 04010KT 3SM 23/00 A3015 RMK T02300000 IEM_DS3505
ZGKL,2008-03-03 06:00,ZGKL 030600Z AUTO 02012KT 4SM 23/M01 A3012 RMK SLP207 T02291012 57033 IEM_DS3505
ZGKL,2008-03-03 07:00,ZGKL 030700Z AUTO 08006KT 3SM 24/M01 A3009 RMK T02401010 IEM_DS3505
ZGKL,2008-03-03 08:00,ZGKL 030800Z AUTO 08008KT 3SM 24/00 A3006 RMK T02400000 IEM_DS3505
ZGKL,2008-03-03 09:00,ZGKL 030900Z AUTO 02006KT 4SM 23/M01 A3006 RMK SLP186 T02271007 57021 IEM_DS3505
ZGKL,2008-03-03 10:00,ZGKL 031000Z AUTO 06010KT 4SM 22/M01 A3006 RMK T02201010 IEM_DS3505
ZGKL,2008-03-03 11:00,ZGKL 031100Z AUTO 04006KT 3SM 19/00 A3009 RMK T01900000 IEM_DS3505
ZGKL,2008-03-03 12:00,ZGKL 031200Z AUTO 02006KT 4SM 18/00 A3012 RMK SLP208 T01820004 52020 IEM_DS3505
ZGKL,2008-03-03 13:00,ZGKL 031300Z AUTO 33004KT 2 1/2SM 15/04 A3012 RMK T01500040 IEM_DS3505
ZGKL,2008-03-03 14:00,ZGKL 031400Z AUTO 00000KT 2 1/2SM 12/06 A3015 RMK T01200060 IEM_DS3505
ZGKL,2008-03-03 15:00,ZGKL 031500Z AUTO 02006KT 4SM 16/01 A3015 RMK SLP221 T01650006 52015 IEM_DS3505
ZGKL,2008-03-03 16:00,ZGKL 031600Z AUTO 00000KT 10/07 A3015 RMK T01000070 IEM_DS3505
ZGKL,2008-03-03 17:00,ZGKL 031700Z AUTO 00000KT 10/07 A3015 RMK T01000070 IEM_DS3505
ZGKL,2008-03-03 18:00,ZGKL 031800Z AUTO 04004KT 4SM 15/02 A3015 RMK SLP216 T01460015 57004 IEM_DS3505
ZGKL,2008-03-03 19:00,ZGKL 031900Z AUTO 00000KT 08/06 A3015 RMK T00800060 IEM_DS3505
ZGKL,2008-03-03 20:00,ZGKL 032000Z AUTO 00000KT 08/07 A3015 RMK T00800070 IEM_DS3505
ZGKL,2008-03-03 21:00,ZGKL 032100Z AUTO 36006KT 4SM 14/01 A3015 RMK SLP212 T01350012 57004 IEM_DS3505
ZGKL,2008-03-03 22:00,ZGKL 032200Z AUTO 00000KT 2 1/2SM 09/07 A3015 RMK T00900070 IEM_DS3505
ZGKL,2008-03-03 23:00,ZGKL 032300Z AUTO 00000KT 2 1/2SM 09/07 A3018 RMK T00900070 IEM_DS3505
ZGKL,2008-03-04 00:00,ZGKL 040000Z AUTO 18002KT 3SM 13/01 A3021 RMK SLP235 T01340011 52021 IEM_DS3505
ZGKL,2008-03-04 01:00,ZGKL 040100Z AUTO 00000KT 1 1/2SM 11/08 A3021 RMK T01100080 IEM_DS3505
ZGKL,2008-03-04 02:00,ZGKL 040200Z AUTO 00000KT 2 1/2SM 12/08 A3021 RMK T01200080 IEM_DS3505
ZGKL,2008-03-04 03:00,ZGKL 040300Z AUTO 02004KT 3SM 16/01 A3021 RMK SLP236 T01630008 52001 IEM_DS3505
ZGKL,2008-03-04 04:00,ZGKL 040400Z AUTO 2 1/2SM 18/01 A3018 RMK T01800010 IEM_DS3505
ZGKL,2008-03-04 05:00,ZGKL 040500Z AUTO 05006KT 2 1/2SM 20/01 A3015 RMK T02000010 IEM_DS3505
ZGKL,2008-03-04 06:00,ZGKL 040600Z AUTO 02002KT 2 1/2SM 21/M00 A3009 RMK SLP197 T02111002 57037 IEM_DS3505
ZGKL,2008-03-04 07:00,ZGKL 040700Z AUTO 2SM 22/01 A3006 RMK T02200010 IEM_DS3505
ZGKL,2008-03-04 08:00,ZGKL 040800Z AUTO 06006KT 2SM 22/00 A3003 RMK T02200000 IEM_DS3505
ZGKL,2008-03-04 09:00,ZGKL 040900Z AUTO 02004KT 2SM 22/02 A3003 RMK SLP177 T02180015 57020 IEM_DS3505
ZGKL,2008-03-04 10:00,ZGKL 041000Z AUTO 00000KT 2 1/2SM 20/02 A3003 RMK T02000020 IEM_DS3505
ZGKL,2008-03-04 11:00,ZGKL 041100Z AUTO 00000KT 2SM 17/06 A3006 RMK T01700060 IEM_DS3505
ZGKL,2008-03-04 12:00,ZGKL 041200Z AUTO 02006KT 3SM 17/01 A3006 RMK SLP194 T01730009 52015 IEM_DS3505
ZGKL,2008-03-04 13:00,ZGKL 041300Z AUTO 31002KT 1 1/4SM 14/08 A3009 RMK T01400080 IEM_DS3505
ZGKL,2008-03-04 14:00,ZGKL 041400Z AUTO 00000KT 1 1/2SM 13/08 A3012 RMK T01300080 IEM_DS3505
ZGKL,2008-03-04 15:00,ZGKL 041500Z AUTO 02004KT 3SM 17/02 A3012 RMK SLP211 T01660015 52018 IEM_DS3505
ZGKL,2008-03-04 16:00,ZGKL 041600Z AUTO 00000KT 13/08 A3012 RMK T01300080 IEM_DS3505
ZGKL,2008-03-04 17:00,ZGKL 041700Z AUTO 00000KT 13/08 A3015 RMK T01300080 IEM_DS3505
ZGKL,2008-03-04 18:00,ZGKL 041800Z AUTO 02002KT 3SM 16/01 A3015 RMK SLP211 T01570011 52001 IEM_DS3505
ZGKL,2008-03-04 19:00,ZGKL 041900Z AUTO 00000KT 12/10 A3012 RMK T01200100 IEM_DS3505
ZGKL,2008-03-04 20:00,ZGKL 042000Z AUTO 00000KT 12/10 A3012 RMK T01200100 IEM_DS3505
ZGKL,2008-03-04 21:00,ZGKL 042100Z AUTO 07002KT 3SM 14/03 A3012 RMK SLP208 T01370026 57003 IEM_DS3505
ZGKL,2008-03-04 22:00,ZGKL 042200Z AUTO 1 1/4SM 12/10 A3015 RMK T01200100 IEM_DS3505
ZGKL,2008-03-04 23:00,ZGKL 042300Z AUTO 00000KT 1 1/2SM 11/10 A3015 RMK T01100100 IEM_DS3505
ZGKL,2008-03-05 00:00,ZGKL 050000Z AUTO 00000KT 2SM 14/04 A3018 RMK SLP230 T01370038 52020 IEM_DS3505
ZGKL,2008-03-05 01:00,ZGKL 050100Z AUTO 00000KT 1 1/4SM 13/10 A3021 RMK T01300100 IEM_DS3505
ZGKL,2008-03-05 02:00,ZGKL 050200Z AUTO 00000KT 2SM 15/09 A3021 RMK T01500090 IEM_DS3505
ZGKL,2008-03-05 03:00,ZGKL 050300Z AUTO 04002KT 2SM 17/03 A3018 RMK SLP230 T01740030 52001 IEM_DS3505
ZGKL,2008-03-05 04:00,ZGKL 050400Z AUTO 2SM 20/04 A3015 RMK T02000040 IEM_DS3505
ZGKL,2008-03-05 05:00,ZGKL 050500Z AUTO 30004KT 2SM 21/04 A3012 RMK T02100040 IEM_DS3505
ZGKL,2008-03-05 06:00,ZGKL 050600Z AUTO 16004KT 3SM 22/02 A3009 RMK SLP190 T02230024 57038 IEM_DS3505
ZGKL,2008-03-05 07:00,ZGKL 050700Z AUTO 13006KT 2 1/2SM 23/05 A3003 RMK T02300050 IEM_DS3505
ZGKL,2008-03-05 08:00,ZGKL 050800Z AUTO 13004KT 2 1/2SM 23/06 A3003 RMK T02300060 IEM_DS3505
ZGKL,2008-03-05 09:00,ZGKL 050900Z AUTO 20004KT 3SM 23/04 A3003 RMK SLP174 T02330038 57016 IEM_DS3505
ZGKL,2008-03-05 10:00,ZGKL 051000Z AUTO 00000KT 2SM 21/08 A3003 RMK T02100080 IEM_DS3505
ZGKL,2008-03-05 11:00,ZGKL 051100Z AUTO 00000KT 1 1/2SM 18/10 A3003 RMK T01800100 IEM_DS3505
ZGKL,2008-03-05 12:00,ZGKL 051200Z AUTO 22002KT 3SM 19/05 A3006 RMK SLP183 T01880053 52007 IEM_DS3505
ZGKL,2008-03-05 13:00,ZGKL 051300Z AUTO 16006KT 2 1/2SM 19/07 A3006 RMK T01900070 IEM_DS3505
ZGKL,2008-03-05 14:00,ZGKL 051400Z AUTO 00000KT 2SM 16/09 A3006 RMK T01600090 IEM_DS3505
ZGKL,2008-03-05 15:00,ZGKL 051500Z AUTO 00000KT 3SM 17/08 A3006 RMK SLP185 T01670076 52003 IEM_DS3505
ZGKL,2008-03-05 16:00,ZGKL 051600Z AUTO 05004KT 1 1/2SM 14/10 A3006 RMK T01400100 IEM_DS3505
ZGKL,2008-03-05 17:00,ZGKL 051700Z AUTO 28004KT 1 1/2SM 13/10 A3009 RMK T01300100 IEM_DS3505
ZGKL,2008-03-05 18:00,ZGKL 051800Z AUTO 34002KT 3SM 14/08 A3009 RMK SLP195 T01430085 52010 IEM_DS3505
ZGKL,2008-03-05 19:00,ZGKL 051900Z AUTO 00000KT 11/10 A3006 RMK T01100100 IEM_DS3505
ZGKL,2008-03-05 20:00,ZGKL 052000Z AUTO 00000KT 10/09 A3006 RMK T01000090 IEM_DS3505
ZGKL,2008-03-05 21:00,ZGKL 052100Z AUTO 32002KT 3SM 12/08 A3009 RMK SLP193 T01250084 57002 IEM_DS3505
ZGKL,2008-03-05 22:00,ZGKL 052200Z AUTO 00000KT 1 1/4SM 10/09 A3009 RMK T01000090 IEM_DS3505
ZGKL,2008-03-05 23:00,ZGKL 052300Z AUTO 00000KT 1SM 10/09 A3012 RMK T01000090 IEM_DS3505
ZGKL,2008-03-06 00:00,ZGKL 060000Z AUTO 36002KT 3SM 13/09 A3015 RMK SLP217 T01280091 52022 IEM_DS3505
ZGKL,2008-03-06 01:00,ZGKL 060100Z AUTO 1SM 13/11 A3015 RMK T01300110 IEM_DS3505
ZGKL,2008-03-06 02:00,ZGKL 060200Z AUTO 00000KT 2 1/2SM 17/09 A3018 RMK T01700090 IEM_DS3505
ZGKL,2008-03-06 03:00,ZGKL 060300Z AUTO 16004KT 4SM 21/08 A3015 RMK SLP217 T02070084 52002 IEM_DS3505
ZGKL,2008-03-06 04:00,ZGKL 060400Z AUTO 20006KT 4SM 22/08 A3012 RMK T02200080 IEM_DS3505
ZGKL,2008-03-06 05:00,ZGKL 060500Z AUTO 21006KT 5SM 23/09 A3009 RMK T02300090 IEM_DS3505
ZGKL,2008-03-06 06:00,ZGKL 060600Z AUTO 20006KT 6SM 23/09 A3006 RMK SLP187 T02260091 57030 IEM_DS3505
ZGKL,2008-03-06 07:00,ZGKL 060700Z AUTO 18012KT 7SM 22/11 A3003 RMK T02200110 IEM_DS3505
ZGKL,2008-03-06 08:00,ZGKL 060800Z AUTO 17010KT 7SM 22/12 A3003 RMK T02200120 IEM_DS3505
ZGKL,2008-03-06 09:00,ZGKL 060900Z AUTO 20004KT 6SM 22/10 A3006 RMK SLP180 T02230098 57007 IEM_DS3505
ZGKL,2008-03-06 10:00,ZGKL 061000Z AUTO 20006KT 2 1/2SM 20/12 A3006 RMK T02000120 IEM_DS3505
ZGKL,2008-03-06 11:00,ZGKL 061100Z AUTO 18006KT 2 1/2SM 19/14 A3006 RMK T01900140 IEM_DS3505
ZGKL,2008-03-06 12:00,ZGKL 061200Z AUTO 18004KT 6SM 20/13 A3009 RMK 60000 SLP198 T01960126 52017 IEM_DS3505
ZGKL,2008-03-06 13:00,ZGKL 061300Z AUTO 16006KT 2 1/2SM 18/14 A3012 RMK T01800140 IEM_DS3505
ZGKL,2008-03-06 14:00,ZGKL 061400Z AUTO 15004KT 2 1/2SM 17/14 A3012 RMK T01700140 IEM_DS3505
ZGKL,2008-03-06 15:00,ZGKL 061500Z AUTO 27002KT 6SM 18/14 A3015 RMK SLP214 T01760141 52017 IEM_DS3505
ZGKL,2008-03-06 16:00,ZGKL 061600Z AUTO 00000KT 1SM 15/14 A3015 RMK T01500140 IEM_DS3505
ZGKL,2008-03-06 17:00,ZGKL 061700Z AUTO 31004KT 15/14 A3015 RMK T01500140 IEM_DS3505
ZGKL,2008-03-06 18:00,ZGKL 061800Z AUTO 04002KT 5SM 16/14 A3012 RMK 60004 SLP210 T01600145 57003 IEM_DS3505
ZGKL,2008-03-06 19:00,ZGKL 061900Z AUTO 00000KT 15/14 A3012 RMK T01500140 IEM_DS3505
ZGKL,2008-03-06 20:00,ZGKL 062000Z AUTO 00000KT 15/14 A3012 RMK T01500140 IEM_DS3505
ZGKL,2008-03-06 21:00,ZGKL 062100Z AUTO 36004KT 4SM 16/14 A3012 RMK 70004 SLP202 T01580138 57008 IEM_DS3505
ZGKL,2008-03-06 22:00,ZGKL 062200Z AUTO 04002KT 1 1/4SM 15/14 A3012 RMK T01500140 IEM_DS3505
ZGKL,2008-03-06 23:00,ZGKL 062300Z AUTO 06010KT 1SM 15/13 A3015 RMK T01500130 IEM_DS3505
ZGKL,2008-03-07 00:00,ZGKL 070000Z AUTO 02010KT 3SM 13/10 A3015 RMK 60000 70004 SLP226 T01290097 52021 IEM_DS3505
ZGKL,2008-03-07 01:00,ZGKL 070100Z AUTO 1 1/4SM 13/11 A3021 RMK T01300110 IEM_DS3505
ZGKL,2008-03-07 02:00,ZGKL 070200Z AUTO 04008KT 2SM 12/11 A3024 RMK T01200110 IEM_DS3505
ZGKL,2008-03-07 03:00,ZGKL 070300Z AUTO 36010KT 2 1/2SM 12/09 A3024 RMK SLP255 T01180092 52028 IEM_DS3505
ZGKL,2008-03-07 04:00,ZGKL 070400Z AUTO 04006KT 2SM 12/11 A3024 RMK T01200110 IEM_DS3505
ZGKL,2008-03-07 05:00,ZGKL 070500Z AUTO 07006KT 2SM 12/11 A3024 RMK T01200110 IEM_DS3505
ZGKL,2008-03-07 06:00,ZGKL 070600Z AUTO 36004KT 4SM 12/10 A3021 RMK 60024 SLP241 T01180097 57015 IEM_DS3505
ZGKL,2008-03-07 07:00,ZGKL 070700Z AUTO 05006KT 3SM 12/10 A3018 RMK T01200100 IEM_DS3505
ZGKL,2008-03-07 08:00,ZGKL 070800Z AUTO 3SM 12/11 A3018 RMK T01200110 IEM_DS3505
ZGKL,2008-03-07 09:00,ZGKL 070900Z AUTO 02006KT 6SM 12/09 A3018 RMK SLP233 T01240089 57007 IEM_DS3505
ZGKL,2008-03-07 10:00,ZGKL 071000Z AUTO 30002KT 1 1/2SM 12/11 A3021 RMK T01200110 IEM_DS3505
ZGKL,2008-03-07 11:00,ZGKL 071100Z AUTO 1 1/2SM 12/11 A3021 RMK T01200110 IEM_DS3505
ZGKL,2008-03-07 12:00,ZGKL 071200Z AUTO 36008KT 6SM 11/08 A3024 RMK 60012 SLP250 T01120082 52015 IEM_DS3505
ZGKL,2008-03-07 13:00,ZGKL 071300Z AUTO 4SM 11/09 A3027 RMK T01100090 IEM_DS3505
ZGKL,2008-03-07 14:00,ZGKL 071400Z AUTO 06008KT 4SM 11/09 A3027 RMK T01100090 IEM_DS3505
ZGKL,2008-03-07 15:00,ZGKL 071500Z AUTO 02008KT 6SM 10/08 A3027 RMK SLP265 T01030079 52014 IEM_DS3505
ZGKL,2008-03-07 16:00,ZGKL 071600Z AUTO 00000KT 4SM 11/09 A3030 RMK T01100090 IEM_DS3505
ZGKL,2008-03-07 17:00,ZGKL 071700Z AUTO 00000KT 10/09 A3030 RMK T01000090 IEM_DS3505
ZGKL,2008-03-07 18:00,ZGKL 071800Z AUTO 04006KT 6SM 10/07 A3027 RMK 60003 SLP266 T01040073 52001 IEM_DS3505
ZGKL,2008-03-07 19:00,ZGKL 071900Z AUTO 10/08 A3027 RMK T01000080 IEM_DS3505
ZGKL,2008-03-07 20:00,ZGKL 072000Z AUTO 03004KT 10/08 A3024 RMK T01000080 IEM_DS3505
ZGKL,2008-03-07 21:00,ZGKL 072100Z AUTO 02004KT 6SM 10/07 A3024 RMK 70038 SLP253 T01000067 57013 IEM_DS3505
ZGKL,2008-03-07 22:00,ZGKL 072200Z AUTO 32002KT 3SM 10/08 A3024 RMK T01000080 IEM_DS3505
ZGKL,2008-03-07 23:00,ZGKL 072300Z AUTO 4SM 10/09 A3027 RMK T01000090 IEM_DS3505
ZGKL,2008-03-08 00:00,ZGKL 080000Z AUTO 02004KT 8SM 10/07 A3027 RMK 70038 SLP269 T01020067 52016 IEM_DS3505
ZGKL,2008-03-08 01:00,ZGKL 080100Z AUTO 04004KT 4SM 11/09 A3030 RMK T01100090 IEM_DS3505
ZGKL,2008-03-08 02:00,ZGKL 080200Z AUTO 06006KT 5SM 12/08 A3030 RMK T01200080 IEM_DS3505
ZGKL,2008-03-08 03:00,ZGKL 080300Z AUTO 36006KT 9SM 14/07 A3027 RMK SLP262 T01450073 57006 IEM_DS3505
ZGKL,2008-03-08 04:00,ZGKL 080400Z AUTO 30004KT 5SM 14/09 A3027 RMK T01400090 IEM_DS3505
ZGKL,2008-03-08 05:00,ZGKL 080500Z AUTO 28004KT 5SM 15/09 A3024 RMK T01500090 IEM_DS3505
ZGKL,2008-03-08 06:00,ZGKL 080600Z AUTO 09002KT 10SM 17/07 A3021 RMK SLP232 T01700071 57029 IEM_DS3505
ZGKL,2008-03-08 07:00,ZGKL 080700Z AUTO 7SM 17/09 A3015 RMK T01700090 IEM_DS3505
ZGKL,2008-03-08 08:00,ZGKL 080800Z AUTO 7SM 18/08 A3015 RMK T01800080 IEM_DS3505
ZGKL,2008-03-08 09:00,ZGKL 080900Z AUTO 16002KT 11SM 18/08 A3012 RMK SLP210 T01810081 57021 IEM_DS3505
ZGKL,2008-03-08 10:00,ZGKL 081000Z AUTO 16004KT 7SM 17/09 A3012 RMK T01700090 IEM_DS3505
ZGKL,2008-03-08 11:00,ZGKL 081100Z AUTO 15004KT 7SM 16/10 A3012 RMK T01600100 IEM_DS3505
ZGKL,2008-03-08 12:00,ZGKL 081200Z AUTO 18004KT 8SM 15/09 A3015 RMK SLP219 T01490091 52008 IEM_DS3505
ZGKL,2008-03-08 13:00,ZGKL 081300Z AUTO 00000KT 7SM 14/10 A3015 RMK T01400100 IEM_DS3505
ZGKL,2008-03-08 14:00,ZGKL 081400Z AUTO 00000KT 4SM 14/11 A3018 RMK T01400110 IEM_DS3505
ZGKL,2008-03-08 15:00,ZGKL 081500Z AUTO 11002KT 7SM 14/10 A3021 RMK SLP233 T01360096 52015 IEM_DS3505
ZGKL,2008-03-08 16:00,ZGKL 081600Z AUTO 3SM 13/11 A3021 RMK T01300110 IEM_DS3505
ZGKL,2008-03-08 17:00,ZGKL 081700Z AUTO 00000KT 2 1/2SM 13/11 A3018 RMK T01300110 IEM_DS3505
ZGKL,2008-03-08 18:00,ZGKL 081800Z AUTO 36002KT 7SM 13/09 A3018 RMK SLP232 T01320089 57001 IEM_DS3505
ZGKL,2008-03-08 19:00,ZGKL 081900Z AUTO 00000KT 13/11 A3015 RMK T01300110 IEM_DS3505
ZGKL,2008-03-08 20:00,ZGKL 082000Z AUTO 00000KT 12/11 A3015 RMK T01200110 IEM_DS3505
ZGKL,2008-03-08 21:00,ZGKL 082100Z AUTO 02004KT 7SM 13/08 A3015 RMK SLP218 T01300081 57013 IEM_DS3505
ZGKL,2008-03-08 22:00,ZGKL 082200Z AUTO 00000KT 2 1/2SM 12/11 A3015 RMK T01200110 IEM_DS3505
ZGKL,2008-03-08 23:00,ZGKL 082300Z AUTO 00000KT 2SM 12/11 A3015 RMK T01200110 IEM_DS3505
ZGKL,2008-03-09 00:00,ZGKL 090000Z AUTO 02004KT 6SM 13/08 A3018 RMK SLP225 T01260079 52006 IEM_DS3505
ZGKL,2008-03-09 01:00,ZGKL 090100Z AUTO 00000KT 2SM 13/10 A3018 RMK T01300100 IEM_DS3505
ZGKL,2008-03-09 02:00,ZGKL 090200Z AUTO 06004KT 3SM 14/09 A3018 RMK T01400090 IEM_DS3505
ZGKL,2008-03-09 03:00,ZGKL 090300Z AUTO 07002KT 5SM 15/08 A3018 RMK SLP233 T01530083 52008 IEM_DS3505
ZGKL,2008-03-09 04:00,ZGKL 090400Z AUTO 3SM 16/09 A3018 RMK T01600090 IEM_DS3505
ZGKL,2008-03-09 05:00,ZGKL 090500Z AUTO 00000KT 4SM 18/10 A3015 RMK T01800100 IEM_DS3505
ZGKL,2008-03-09 06:00,ZGKL 090600Z AUTO 36002KT 6SM 17/08 A3012 RMK SLP206 T01720084 57026 IEM_DS3505
ZGKL,2008-03-09 07:00,ZGKL 090700Z AUTO 00000KT 2 1/2SM 15/12 A3009 RMK T01500120 IEM_DS3505
ZGKL,2008-03-09 08:00,ZGKL 090800Z AUTO 00000KT 2SM 14/12 A3009 RMK T01400120 IEM_DS3505
ZGKL,2008-03-09 09:00,ZGKL 090900Z AUTO 02004KT 4SM 14/12 A3006 RMK SLP193 T01430118 57014 IEM_DS3505
ZGKL,2008-03-09 10:00,ZGKL 091000Z AUTO 32004KT 2SM 14/12 A3009 RMK T01400120 IEM_DS3505
ZGKL,2008-03-09 11:00,ZGKL 091100Z AUTO 00000KT 1 1/2SM 14/13 A3009 RMK T01400130 IEM_DS3505
ZGKL,2008-03-09 12:00,ZGKL 091200Z AUTO 36002KT 3SM 14/12 A3012 RMK 60008 SLP208 T01380117 52014 IEM_DS3505
ZGKL,2008-03-09 13:00,ZGKL 091300Z AUTO 00000KT 1SM 13/13 A3012 RMK T01300130 IEM_DS3505
ZGKL,2008-03-09 14:00,ZGKL 091400Z AUTO 00000KT 1SM 13/13 A3015 RMK T01300130 IEM_DS3505
ZGKL,2008-03-09 15:00,ZGKL 091500Z AUTO 02006KT 3SM 13/12 A3015 RMK SLP218 T01280119 52011 IEM_DS3505
ZGKL,2008-03-09 16:00,ZGKL 091600Z AUTO 00000KT 1SM 13/12 A3015 RMK T01300120 IEM_DS3505
ZGKL,2008-03-09 17:00,ZGKL 091700Z AUTO 00000KT 1SM 13/12 A3012 RMK T01300120 IEM_DS3505
ZGKL,2008-03-09 18:00,ZGKL 091800Z AUTO 36004KT 3SM 13/12 A3012 RMK 60012 SLP209 T01290115 57008 IEM_DS3505
ZGKL,2008-03-09 19:00,ZGKL 091900Z AUTO 00000KT 13/12 A3009 RMK T01300120 IEM_DS3505
ZGKL,2008-03-09 20:00,ZGKL 092000Z AUTO 09002KT 13/12 A3009 RMK T01300120 IEM_DS3505
ZGKL,2008-03-09 21:00,ZGKL 092100Z AUTO 04002KT 3SM 13/11 A3009 RMK 70022 SLP198 T01300112 57012 IEM_DS3505
ZGKL,2008-03-09 22:00,ZGKL 092200Z AUTO 00000KT 1/2SM 13/12 A3009 RMK T01300120 IEM_DS3505
ZGKL,2008-03-09 23:00,ZGKL 092300Z AUTO 00000KT 1SM 13/12 A3009 RMK T01300120 IEM_DS3505
ZGKL,2008-03-10 00:00,ZGKL 100000Z AUTO 02002KT 1 1/4SM 13/12 A3009 RMK 60000 70023 SLP206 T01300121 52008 IEM_DS3505
ZGKL,2008-03-10 01:00,ZGKL 100100Z AUTO 1SM 13/12 A3012 RMK T01300120 IEM_DS3505
ZGKL,2008-03-10 02:00,ZGKL 100200Z AUTO 34004KT 1SM 13/13 A3012 RMK T01300130 IEM_DS3505
ZGKL,2008-03-10 03:00,ZGKL 100300Z AUTO 02004KT 3SM 14/12 A3012 RMK SLP210 T01380120 52004 IEM_DS3505
ZGKL,2008-03-10 04:00,ZGKL 100400Z AUTO 06002KT 1SM 14/13 A3012 RMK T01400130 IEM_DS3505
ZGKL,2008-03-10 05:00,ZGKL 100500Z AUTO 00000KT 1SM 14/13 A3009 RMK T01400130 IEM_DS3505
ZGKL,2008-03-10 06:00,ZGKL 100600Z AUTO 36004KT 3SM 14/12 A3006 RMK 60001 SLP190 T01360118 57020 IEM_DS3505
ZGKL,2008-03-10 07:00,ZGKL 100700Z AUTO 00000KT 1SM 14/13 A3003 RMK T01400130 IEM_DS3505
ZGKL,2008-03-10 08:00,ZGKL 100800Z AUTO 00000KT 1SM 14/13 A3003 RMK T01400130 IEM_DS3505
ZGKL,2008-03-10 09:00,ZGKL 100900Z AUTO 36002KT 2 1/2SM 13/12 A3003 RMK SLP183 T01340123 57007 IEM_DS3505
ZGKL,2008-03-10 10:00,ZGKL 101000Z AUTO 06002KT 1SM 14/13 A3003 RMK T01400130 IEM_DS3505
ZGKL,2008-03-10 11:00,ZGKL 101100Z AUTO 00000KT 1SM 14/13 A3003 RMK T01400130 IEM_DS3505
ZGKL,2008-03-10 12:00,ZGKL 101200Z AUTO 32002KT 2 1/2SM 13/12 A3006 RMK 60003 SLP186 T01330124 52003 IEM_DS3505
ZGKL,2008-03-10 13:00,ZGKL 101300Z AUTO 00000KT 1SM 14/13 A3006 RMK T01400130 IEM_DS3505
ZGKL,2008-03-10 14:00,ZGKL 101400Z AUTO 00000KT 1SM 14/13 A3009 RMK T01400130 IEM_DS3505
ZGKL,2008-03-10 15:00,ZGKL 101500Z AUTO 02002KT 2 1/2SM 13/12 A3009 RMK SLP199 T01340121 52013 IEM_DS3505
ZGKL,2008-03-10 16:00,ZGKL 101600Z AUTO 00000KT 1SM 13/13 A3009 RMK T01300130 IEM_DS3505
ZGKL,2008-03-10 17:00,ZGKL 101700Z AUTO 00000KT 1SM 13/13 A3009 RMK T01300130 IEM_DS3505
ZGKL,2008-03-10 18:00,ZGKL 101800Z AUTO 25002KT 2 1/2SM 13/12 A3009 RMK 60000 SLP196 T01310123 57003 IEM_DS3505
ZGKL,2008-03-10 19:00,ZGKL 101900Z AUTO 00000KT 13/13 A3006 RMK T01300130 IEM_DS3505
ZGKL,2008-03-10 20:00,ZGKL 102000Z AUTO 00000KT 13/12 A3006 RMK T01300120 IEM_DS3505
ZGKL,2008-03-10 21:00,ZGKL 102100Z AUTO 32002KT 2SM 13/12 A3006 RMK 70005 SLP189 T01310125 57007 IEM_DS3505
ZGKL,2008-03-10 22:00,ZGKL 102200Z AUTO 00000KT 1SM 13/13 A3006 RMK T01300130 IEM_DS3505
ZGKL,2008-03-10 23:00,ZGKL 102300Z AUTO 00000KT 1/2SM 13/13 A3009 RMK T01300130 IEM_DS3505
ZGKL,2008-03-11 00:00,ZGKL 110000Z AUTO 34002KT 1 1/4SM 13/13 A3009 RMK 60000 70005 SLP204 T01330127 52015 IEM_DS3505
ZGKL,2008-03-11 01:00,ZGKL 110100Z AUTO 00000KT 1SM 14/13 A3012 RMK T01400130 IEM_DS3505
ZGKL,2008-03-11 02:00,ZGKL 110200Z AUTO 00000KT 1SM 15/14 A3012 RMK T01500140 IEM_DS3505
ZGKL,2008-03-11 03:00,ZGKL 110300Z AUTO 02002KT 2 1/2SM 18/12 A3012 RMK SLP207 T01750124 52004 IEM_DS3505
ZGKL,2008-03-11 04:00,ZGKL 110400Z AUTO 00000KT 2 1/2SM 19/14 A3009 RMK T01900140 IEM_DS3505
ZGKL,2008-03-11 05:00,ZGKL 110500Z AUTO 2SM 21/15 A3006 RMK T02100150 IEM_DS3505
ZGKL,2008-03-11 06:00,ZGKL 110600Z AUTO 22002KT 4SM 21/14 A3000 RMK 60000 SLP167 T02110135 57038 IEM_DS3505
ZGKL,2008-03-11 07:00,ZGKL 110700Z AUTO 21004KT 2 1/2SM 22/15 A2997 RMK T02200150 IEM_DS3505
ZGKL,2008-03-11 08:00,ZGKL 110800Z AUTO 19004KT 2 1/2SM 22/16 A2994 RMK T02200160 IEM_DS3505
ZGKL,2008-03-11 09:00,ZGKL 110900Z AUTO 20002KT 4SM 22/14 A2994 RMK SLP143 T02200144 57023 IEM_DS3505
ZGKL,2008-03-11 10:00,ZGKL 111000Z AUTO 00000KT 2 1/2SM 21/16 A2994 RMK T02100160 IEM_DS3505
ZGKL,2008-03-11 11:00,ZGKL 111100Z AUTO 00000KT 2SM 20/16 A2994 RMK T02000160 IEM_DS3505
ZGKL,2008-03-11 12:00,ZGKL 111200Z AUTO 04002KT 4SM 20/15 A2994 RMK SLP148 T01950154 52004 IEM_DS3505
ZGKL,2008-03-11 13:00,ZGKL 111300Z AUTO 00000KT 1 1/4SM 19/17 A2997 RMK T01900170 IEM_DS3505
ZGKL,2008-03-11 14:00,ZGKL 111400Z AUTO 00000KT 1 1/4SM 18/17 A3000 RMK T01800170 IEM_DS3505
ZGKL,2008-03-11 15:00,ZGKL 111500Z AUTO 00000KT 4SM 18/15 A3000 RMK SLP165 T01840153 52018 IEM_DS3505
ZGKL,2008-03-11 16:00,ZGKL 111600Z AUTO 00000KT 1SM 17/16 A3000 RMK T01700160 IEM_DS3505
ZGKL,2008-03-11 17:00,ZGKL 111700Z AUTO 00000KT 17/16 A3000 RMK T01700160 IEM_DS3505
ZGKL,2008-03-11 18:00,ZGKL 111800Z AUTO 02002KT 4SM 17/15 A2997 RMK SLP159 T01730149 57006 IEM_DS3505
ZGKL,2008-03-11 19:00,ZGKL 111900Z AUTO 00000KT 16/16 A2997 RMK T01600160 IEM_DS3505
ZGKL,2008-03-11 20:00,ZGKL 112000Z AUTO 00000KT 16/16 A2994 RMK T01600160 IEM_DS3505
ZGKL,2008-03-11 21:00,ZGKL 112100Z AUTO 00000KT 4SM 16/15 A2994 RMK 70000 SLP149 T01620147 57009 IEM_DS3505
ZGKL,2008-03-11 22:00,ZGKL 112200Z AUTO 00000KT 1SM 16/15 A2997 RMK T01600150 IEM_DS3505
ZGKL,2008-03-11 23:00,ZGKL 112300Z AUTO 00000KT 1SM 16/15 A2997 RMK T01600150 IEM_DS3505
ZGKL,2008-03-12 00:00,ZGKL 120000Z AUTO 00000KT 4SM 16/15 A3000 RMK 70000 SLP168 T01620147 52017 IEM_DS3505
ZGKL,2008-03-12 01:00,ZGKL 120100Z AUTO 00000KT 1SM 16/16 A3003 RMK T01600160 IEM_DS3505
ZGKL,2008-03-12 02:00,ZGKL 120200Z AUTO 00000KT 1SM 17/16 A3003 RMK T01700160 IEM_DS3505
ZGKL,2008-03-12 03:00,ZGKL 120300Z AUTO 02002KT 4SM 19/15 A3000 RMK SLP168 T01930152 52001 IEM_DS3505
ZGKL,2008-03-12 04:00,ZGKL 120400Z AUTO 00000KT 1 1/4SM 20/16 A3000 RMK T02000160 IEM_DS3505
ZGKL,2008-03-12 05:00,ZGKL 120500Z AUTO 31002KT 1 1/2SM 20/17 A2997 RMK T02000170 IEM_DS3505
ZGKL,2008-03-12 06:00,ZGKL 120600Z AUTO 09002KT 4SM 21/16 A2994 RMK SLP139 T02140155 57028 IEM_DS3505
ZGKL,2008-03-12 07:00,ZGKL 120700Z AUTO 00000KT 1 1/2SM 21/16 A2991 RMK T02100160 IEM_DS3505
ZGKL,2008-03-12 08:00,ZGKL 120800Z AUTO 00000KT 1 1/2SM 21/17 A2988 RMK T02100170 IEM_DS3505
ZGKL,2008-03-12 09:00,ZGKL 120900Z AUTO 29002KT 4SM 21/16 A2988 RMK SLP126 T02070157 57013 IEM_DS3505
ZGKL,2008-03-12 10:00,ZGKL 121000Z AUTO 00000KT 1 1/4SM 19/17 A2988 RMK T01900170 IEM_DS3505
ZGKL,2008-03-12 11:00,ZGKL 121100Z AUTO 00000KT 1SM 19/17 A2991 RMK T01900170 IEM_DS3505
ZGKL,2008-03-12 12:00,ZGKL 121200Z AUTO 32002KT 2 1/2SM 19/16 A2991 RMK 60000 SLP136 T01890160 52009 IEM_DS3505
ZGKL,2008-03-12 13:00,ZGKL 121300Z AUTO 00000KT 1SM 18/17 A2994 RMK T01800170 IEM_DS3505
ZGKL,2008-03-12 14:00,ZGKL 121400Z AUTO 00000KT 1SM 18/17 A2994 RMK T01800170 IEM_DS3505
ZGKL,2008-03-12 15:00,ZGKL 121500Z AUTO 00000KT 2 1/2SM 18/16 A2997 RMK SLP151 T01810163 52015 IEM_DS3505
ZGKL,2008-03-12 16:00,ZGKL 121600Z AUTO 00000KT 1/2SM 17/16 A2994 RMK T01700160 IEM_DS3505
ZGKL,2008-03-12 17:00,ZGKL 121700Z AUTO 00000KT 1/2SM 17/17 A2994 RMK T01700170 IEM_DS3505
ZGKL,2008-03-12 18:00,ZGKL 121800Z AUTO 07002KT 1 1/4SM 17/17 A2994 RMK 60002 SLP147 T01740166 57003 IEM_DS3505
ZGKL,2008-03-12 19:00,ZGKL 121900Z AUTO 00000KT 17/16 A2994 RMK T01700160 IEM_DS3505
ZGKL,2008-03-12 20:00,ZGKL 122000Z AUTO 00000KT 17/16 A2994 RMK T01700160 IEM_DS3505
ZGKL,2008-03-12 21:00,ZGKL 122100Z AUTO 00000KT 1 1/4SM 17/17 A2994 RMK 70015 SLP142 T01710171 57005 IEM_DS3505
ZGKL,2008-03-12 22:00,ZGKL 122200Z AUTO 28004KT 3/8SM 17/16 A2994 RMK T01700160 IEM_DS3505
ZGKL,2008-03-12 23:00,ZGKL 122300Z AUTO 00000KT 1/4SM 17/16 A2997 RMK T01700160 IEM_DS3505
ZGKL,2008-03-13 00:00,ZGKL 130000Z AUTO 00000KT 1SM 17/17 A3000 RMK 60020 70021 SLP163 T01730173 52020 IEM_DS3505
ZGKL,2008-03-13 01:00,ZGKL 130100Z AUTO 00000KT 1/4SM 17/17 A3003 RMK T01700170 IEM_DS3505
ZGKL,2008-03-13 02:00,ZGKL 130200Z AUTO 00000KT 1/4SM 17/17 A3003 RMK T01700170 IEM_DS3505
ZGKL,2008-03-13 03:00,ZGKL 130300Z AUTO 00000KT 1SM 18/18 A3003 RMK SLP176 T01750175 52012 IEM_DS3505
ZGKL,2008-03-13 04:00,ZGKL 130400Z AUTO 00000KT 3/8SM 17/17 A3003 RMK T01700170 IEM_DS3505
ZGKL,2008-03-13 05:00,ZGKL 130500Z AUTO 00000KT 3/8SM 18/17 A3000 RMK T01800170 IEM_DS3505
ZGKL,2008-03-13 06:00,ZGKL 130600Z AUTO 36006KT 4SM 16/15 A2997 RMK 60024 SLP162 T01630150 57014 IEM_DS3505
ZGKL,2008-03-13 07:00,ZGKL 130700Z AUTO 02008KT 3SM 16/15 A2997 RMK T01600150 IEM_DS3505
ZGKL,2008-03-13 08:00,ZGKL 130800Z AUTO 1 1/2SM 16/15 A2997 RMK T01600150 IEM_DS3505
ZGKL,2008-03-13 09:00,ZGKL 130900Z AUTO 02008KT 7SM 16/14 A2997 RMK SLP160 T01590141 57002 IEM_DS3505
ZGKL,2008-03-13 10:00,ZGKL 131000Z AUTO 29004KT 2SM 16/15 A3000 RMK T01600150 IEM_DS3505
ZGKL,2008-03-13 11:00,ZGKL 131100Z AUTO 2 1/2SM 15/15 A3003 RMK T01500150 IEM_DS3505
ZGKL,2008-03-13 12:00,ZGKL 131200Z AUTO 02008KT 7SM 14/13 A3006 RMK 60016 SLP183 T01430127 52022 IEM_DS3505
ZGKL,2008-03-13 13:00,ZGKL 131300Z AUTO 2 1/2SM 15/14 A3006 RMK T01500140 IEM_DS3505
ZGKL,2008-03-13 14:00,ZGKL 131400Z AUTO 31004KT 2 1/2SM 15/14 A3009 RMK T01500140 IEM_DS3505
ZGKL,2008-03-13 15:00,ZGKL 131500Z AUTO 02004KT 7SM 15/12 A3009 RMK SLP201 T01490119 52018 IEM_DS3505
ZGKL,2008-03-13 16:00,ZGKL 131600Z AUTO 00000KT 6SM 15/14 A3009 RMK T01500140 IEM_DS3505
ZGKL,2008-03-13 17:00,ZGKL 131700Z AUTO 00000KT 4SM 15/14 A3009 RMK T01500140 IEM_DS3505
ZGKL,2008-03-13 18:00,ZGKL 131800Z AUTO 02006KT 7SM 15/11 A3006 RMK 60000 SLP193 T01490113 57009 IEM_DS3505
ZGKL,2008-03-13 19:00,ZGKL 131900Z AUTO 00000KT 14/13 A3006 RMK T01400130 IEM_DS3505
ZGKL,2008-03-13 20:00,ZGKL 132000Z AUTO 00000KT 14/13 A3003 RMK T01400130 IEM_DS3505
ZGKL,2008-03-13 21:00,ZGKL 132100Z AUTO 02008KT 7SM 15/11 A3003 RMK 70043 SLP176 T01470109 57016 IEM_DS3505
ZGKL,2008-03-13 22:00,ZGKL 132200Z AUTO 00000KT 1 1/4SM 14/13 A3003 RMK T01400130 IEM_DS3505
ZGKL,2008-03-13 23:00,ZGKL 132300Z AUTO 00000KT 1 1/4SM 14/13 A3006 RMK T01400130 IEM_DS3505
ZGKL,2008-03-14 00:00,ZGKL 140000Z AUTO 02004KT 5SM 15/11 A3009 RMK 70036 SLP196 T01480112 52019 IEM_DS3505
ZGKL,2008-03-14 01:00,ZGKL 140100Z AUTO 00000KT 2SM 15/13 A3009 RMK T01500130 IEM_DS3505
ZGKL,2008-03-14 02:00,ZGKL 140200Z AUTO 00000KT 2 1/2SM 16/13 A3009 RMK T01600130 IEM_DS3505
ZGKL,2008-03-14 03:00,ZGKL 140300Z AUTO 04006KT 5SM 17/12 A3009 RMK SLP198 T01670116 52002 IEM_DS3505
ZGKL,2008-03-14 04:00,ZGKL 140400Z AUTO 3SM 17/13 A3009 RMK T01700130 IEM_DS3505
ZGKL,2008-03-14 05:00,ZGKL 140500Z AUTO 3SM 18/12 A3006 RMK T01800120 IEM_DS3505
ZGKL,2008-03-14 06:00,ZGKL 140600Z AUTO 36006KT 3SM 18/12 A3003 RMK SLP172 T01760119 57025 IEM_DS3505
ZGKL,2008-03-14 07:00,ZGKL 140700Z AUTO 07004KT 2 1/2SM 18/13 A3000 RMK T01800130 IEM_DS3505
ZGKL,2008-03-14 08:00,ZGKL 140800Z AUTO 06004KT 3SM 18/13 A2997 RMK T01800130 IEM_DS3505
ZGKL,2008-03-14 09:00,ZGKL 140900Z AUTO 36004KT 3SM 17/12 A2997 RMK SLP159 T01710122 57013 IEM_DS3505
ZGKL,2008-03-14 10:00,ZGKL 141000Z AUTO 07004KT 2 1/2SM 17/13 A2997 RMK T01700130 IEM_DS3505
ZGKL,2008-03-14 11:00,ZGKL 141100Z AUTO 04006KT 2 1/2SM 17/13 A2997 RMK T01700130 IEM_DS3505
ZGKL,2008-03-14 12:00,ZGKL 141200Z AUTO 02002KT 3SM 16/12 A3000 RMK SLP168 T01640122 52009 IEM_DS3505
ZGKL,2008-03-14 13:00,ZGKL 141300Z AUTO 07004KT 2SM 16/13 A3003 RMK T01600130 IEM_DS3505
ZGKL,2008-03-14 14:00,ZGKL 141400Z AUTO 00000KT 1 1/2SM 16/13 A3003 RMK T01600130 IEM_DS3505
ZGKL,2008-03-14 15:00,ZGKL 141500Z AUTO 07002KT 3SM 16/13 A3003 RMK SLP175 T01590128 52007 IEM_DS3505
ZGKL,2008-03-14 16:00,ZGKL 141600Z AUTO 00000KT 1SM 16/14 A3000 RMK T01600140 IEM_DS3505
ZGKL,2008-03-14 17:00,ZGKL 141700Z AUTO 00000KT 15/14 A3000 RMK T01500140 IEM_DS3505
ZGKL,2008-03-14 18:00,ZGKL 141800Z AUTO 00000KT 3SM 16/13 A3000 RMK 60000 SLP163 T01550133 57011 IEM_DS3505
ZGKL,2008-03-14 19:00,ZGKL 141900Z AUTO 00000KT 15/14 A2997 RMK T01500140 IEM_DS3505
ZGKL,2008-03-14 20:00,ZGKL 142000Z AUTO 00000KT 15/14 A2997 RMK T01500140 IEM_DS3505
ZGKL,2008-03-14 21:00,ZGKL 142100Z AUTO 02002KT 3SM 15/13 A2997 RMK 70002 SLP155 T01470131 57009 IEM_DS3505
ZGKL,2008-03-14 22:00,ZGKL 142200Z AUTO 00000KT 1/2SM 14/14 A2997 RMK T01400140 IEM_DS3505
ZGKL,2008-03-14 23:00,ZGKL 142300Z AUTO 00000KT 3/8SM 14/14 A2997 RMK T01400140 IEM_DS3505
ZGKL,2008-03-15 00:00,ZGKL 150000Z AUTO 00000KT 1SM 14/14 A3000 RMK 60004 70004 SLP171 T01450140 52016 IEM_DS3505
ZGKL,2008-03-15 01:00,ZGKL 150100Z AUTO 00000KT 1/4SM 14/14 A3003 RMK T01400140 IEM_DS3505
ZGKL,2008-03-15 02:00,ZGKL 150200Z AUTO 00000KT 3/8SM 15/14 A3003 RMK T01500140 IEM_DS3505
ZGKL,2008-03-15 03:00,ZGKL 150300Z AUTO 36002KT 1SM 15/15 A3003 RMK SLP179 T01470147 52007 IEM_DS3505
ZGKL,2008-03-15 04:00,ZGKL 150400Z AUTO 00000KT 3/8SM 15/14 A3000 RMK T01500140 IEM_DS3505
ZGKL,2008-03-15 05:00,ZGKL 150500Z AUTO 00000KT 3/8SM 15/14 A2997 RMK T01500140 IEM_DS3505
ZGKL,2008-03-15 06:00,ZGKL 150600Z AUTO 36002KT 1SM 15/15 A2997 RMK 60012 SLP156 T01490146 57022 IEM_DS3505
ZGKL,2008-03-15 07:00,ZGKL 150700Z AUTO 00000KT 1/2SM 15/15 A2994 RMK T01500150 IEM_DS3505
ZGKL,2008-03-15 08:00,ZGKL 150800Z AUTO 00000KT 3/8SM 15/15 A2991 RMK T01500150 IEM_DS3505
ZGKL,2008-03-15 09:00,ZGKL 150900Z AUTO 34002KT 1SM 15/15 A2991 RMK SLP142 T01520150 57014 IEM_DS3505
ZGKL,2008-03-15 10:00,ZGKL 151000Z AUTO 00000KT 1/4SM 15/15 A2991 RMK T01500150 IEM_DS3505
ZGKL,2008-03-15 11:00,ZGKL 151100Z AUTO 00000KT 1/4SM 15/15 A2994 RMK T01500150 IEM_DS3505
ZGKL,2008-03-15 12:00,ZGKL 151200Z AUTO 04002KT 1SM 15/15 A2994 RMK 60004 SLP148 T01520152 52006 IEM_DS3505
ZGKL,2008-03-15 13:00,ZGKL 151300Z AUTO 00000KT 1/8SM 15/15 A2994 RMK T01500150 IEM_DS3505
ZGKL,2008-03-15 14:00,ZGKL 151400Z AUTO 00000KT 3/8SM 15/15 A2997 RMK T01500150 IEM_DS3505
ZGKL,2008-03-15 15:00,ZGKL 151500Z AUTO 36002KT 1SM 15/15 A2994 RMK SLP154 T01520152 52006 IEM_DS3505
ZGKL,2008-03-15 16:00,ZGKL 151600Z AUTO 00000KT 1/4SM 15/15 A2994 RMK T01500150 IEM_DS3505
ZGKL,2008-03-15 17:00,ZGKL 151700Z AUTO 00000KT 1/4SM 15/15 A2994 RMK T01500150 IEM_DS3505
ZGKL,2008-03-15 18:00,ZGKL 151800Z AUTO 07002KT 2SM 15/15 A2991 RMK 60001 SLP139 T01530147 57015 IEM_DS3505
ZGKL,2008-03-15 19:00,ZGKL 151900Z AUTO 00000KT 15/15 A2991 RMK T01500150 IEM_DS3505
ZGKL,2008-03-15 20:00,ZGKL 152000Z AUTO 00000KT 15/15 A2988 RMK T01500150 IEM_DS3505
ZGKL,2008-03-15 21:00,ZGKL 152100Z AUTO 34002KT 2SM 15/15 A2988 RMK 70020 SLP127 T01520146 57012 IEM_DS3505
ZGKL,2008-03-15 22:00,ZGKL 152200Z AUTO 00000KT 1/4SM 15/15 A2988 RMK T01500150 IEM_DS3505
ZGKL,2008-03-15 23:00,ZGKL 152300Z AUTO 00000KT 3/8SM 15/15 A2991 RMK T01500150 IEM_DS3505
ZGKL,2008-03-16 00:00,ZGKL 160000Z AUTO 02002KT 2SM 15/15 A2991 RMK 60003 70020 SLP140 T01520150 52013 IEM_DS3505
ZGKL,2008-03-16 01:00,ZGKL 160100Z AUTO 00000KT 1/2SM 15/15 A2994 RMK T01500150 IEM_DS3505
ZGKL,2008-03-16 02:00,ZGKL 160200Z AUTO 00000KT 1SM 15/15 A2994 RMK T01500150 IEM_DS3505
ZGKL,2008-03-16 03:00,ZGKL 160300Z AUTO 36002KT 1SM 16/16 A2994 RMK SLP146 T01550155 52006 IEM_DS3505
ZGKL,2008-03-16 04:00,ZGKL 160400Z AUTO 00000KT 1SM 16/15 A2991 RMK T01600150 IEM_DS3505
ZGKL,2008-03-16 05:00,ZGKL 160500Z AUTO 00000KT 1SM 16/15 A2988 RMK T01600150 IEM_DS3505
ZGKL,2008-03-16 06:00,ZGKL 160600Z AUTO 34002KT 1SM 16/16 A2988 RMK 60003 SLP125 T01590159 57020 IEM_DS3505
ZGKL,2008-03-16 07:00,ZGKL 160700Z AUTO 00000KT 1SM 16/16 A2985 RMK T01600160 IEM_DS3505
ZGKL,2008-03-16 08:00,ZGKL 160800Z AUTO 00000KT 1SM 17/16 A2983 RMK T01700160 IEM_DS3505
ZGKL,2008-03-16 09:00,ZGKL 160900Z AUTO 36002KT 1/2SM 16/16 A2983 RMK SLP108 T01650165 57017 IEM_DS3505
ZGKL,2008-03-16 10:00,ZGKL 161000Z AUTO 00000KT 1/2SM 17/16 A2983 RMK T01700160 IEM_DS3505
ZGKL,2008-03-16 11:00,ZGKL 161100Z AUTO 00000KT 1/2SM 17/16 A2985 RMK T01700160 IEM_DS3505
ZGKL,2008-03-16 12:00,ZGKL 161200Z AUTO 36002KT 3/8SM 16/16 A2985 RMK 60008 SLP122 T01640164 52014 IEM_DS3505
ZGKL,2008-03-16 13:00,ZGKL 161300Z AUTO 1SM 17/16 A2988 RMK T01700160 IEM_DS3505
ZGKL,2008-03-16 14:00,ZGKL 161400Z AUTO 00000KT 1/2SM 17/16 A2991 RMK T01700160 IEM_DS3505
ZGKL,2008-03-16 15:00,ZGKL 161500Z AUTO 36004KT 1/2SM 16/16 A2991 RMK SLP135 T01640164 52013 IEM_DS3505
ZGKL,2008-03-16 16:00,ZGKL 161600Z AUTO 00000KT 3/8SM 17/16 A2988 RMK T01700160 IEM_DS3505
ZGKL,2008-03-16 17:00,ZGKL 161700Z AUTO 00000KT 1SM 17/16 A2988 RMK T01700160 IEM_DS3505
ZGKL,2008-03-16 18:00,ZGKL 161800Z AUTO 36004KT 2SM 16/16 A2988 RMK 60020 SLP124 T01580158 57011 IEM_DS3505
ZGKL,2008-03-16 19:00,ZGKL 161900Z AUTO 16/16 A2985 RMK T01600160 IEM_DS3505
ZGKL,2008-03-16 20:00,ZGKL 162000Z AUTO 16/15 A2985 RMK T01600150 IEM_DS3505
ZGKL,2008-03-16 21:00,ZGKL 162100Z AUTO 36002KT 4SM 16/15 A2985 RMK 70037 SLP114 T01570147 57010 IEM_DS3505
ZGKL,2008-03-16 22:00,ZGKL 162200Z AUTO 1 1/4SM 16/15 A2985 RMK T01600150 IEM_DS3505
ZGKL,2008-03-16 23:00,ZGKL 162300Z AUTO 00000KT 1 1/4SM 16/15 A2985 RMK T01600150 IEM_DS3505
ZGKL,2008-03-17 00:00,ZGKL 170000Z AUTO 36002KT 6SM 16/14 A2988 RMK 60012 70041 SLP128 T01550144 52014 IEM_DS3505
ZGKL,2008-03-17 01:00,ZGKL 170100Z AUTO 00000KT 1 1/4SM 16/16 A2988 RMK T01600160 IEM_DS3505
ZGKL,2008-03-17 02:00,ZGKL 170200Z AUTO 12004KT 1SM 16/16 A2988 RMK T01600160 IEM_DS3505
ZGKL,2008-03-17 03:00,ZGKL 170300Z AUTO 29002KT 4SM 16/15 A2988 RMK SLP129 T01590151 52001 IEM_DS3505
ZGKL,2008-03-17 04:00,ZGKL 170400Z AUTO 1SM 16/16 A2988 RMK T01600160 IEM_DS3505
ZGKL,2008-03-17 05:00,ZGKL 170500Z AUTO 04004KT 1 1/4SM 16/16 A2985 RMK T01600160 IEM_DS3505
ZGKL,2008-03-17 06:00,ZGKL 170600Z AUTO 02004KT 4SM 16/16 A2980 RMK 60020 SLP103 T01580155 57026 IEM_DS3505
ZGKL,2008-03-17 07:00,ZGKL 170700Z AUTO 00000KT 1 1/4SM 16/16 A2977 RMK T01600160 IEM_DS3505
ZGKL,2008-03-17 08:00,ZGKL 170800Z AUTO 07004KT 7SM 16/16 A2977 RMK T01600160 IEM_DS3505
ZGKL,2008-03-17 09:00,ZGKL 170900Z AUTO 02004KT 4SM 16/14 A2977 RMK SLP089 T01580145 57013 IEM_DS3505
ZGKL,2008-03-17 10:00,ZGKL 171000Z AUTO 2SM 16/15 A2980 RMK T01600150 IEM_DS3505
ZGKL,2008-03-17 11:00,ZGKL 171100Z AUTO 04004KT 1SM 16/15 A2980 RMK T01600150 IEM_DS3505
ZGKL,2008-03-17 12:00,ZGKL 171200Z AUTO 02004KT 6SM 16/14 A2983 RMK 60002 SLP103 T01550142 52013 IEM_DS3505
ZGKL,2008-03-17 13:00,ZGKL 171300Z AUTO 00000KT 1 1/4SM 16/15 A2985 RMK T01600150 IEM_DS3505
ZGKL,2008-03-17 14:00,ZGKL 171400Z AUTO 1 1/2SM 16/15 A2985 RMK T01600150 IEM_DS3505
ZGKL,2008-03-17 15:00,ZGKL 171500Z AUTO 02004KT 6SM 16/13 A2988 RMK SLP124 T01560134 52021 IEM_DS3505
ZGKL,2008-03-17 16:00,ZGKL 171600Z AUTO 00000KT 1SM 16/15 A2988 RMK T01600150 IEM_DS3505
ZGKL,2008-03-17 17:00,ZGKL 171700Z AUTO 00000KT 15/15 A2985 RMK T01500150 IEM_DS3505
ZGKL,2008-03-17 18:00,ZGKL 171800Z AUTO 32002KT 6SM 15/14 A2985 RMK 60000 SLP114 T01520137 57010 IEM_DS3505
ZGKL,2008-03-17 19:00,ZGKL 171900Z AUTO 00000KT 15/15 A2983 RMK T01500150 IEM_DS3505
ZGKL,2008-03-17 20:00,ZGKL 172000Z AUTO 00000KT 15/15 A2983 RMK T01500150 IEM_DS3505
ZGKL,2008-03-17 21:00,ZGKL 172100Z AUTO 18002KT 6SM 15/14 A2983 RMK 70028 SLP105 T01510140 57009 IEM_DS3505
ZGKL,2008-03-17 22:00,ZGKL 172200Z AUTO 00000KT 1SM 15/15 A2983 RMK T01500150 IEM_DS3505
ZGKL,2008-03-17 23:00,ZGKL 172300Z AUTO 05002KT 1SM 15/15 A2985 RMK T01500150 IEM_DS3505
ZGKL,2008-03-18 00:00,ZGKL 180000Z AUTO 09002KT 7SM 15/15 A2988 RMK 60047 70070 SLP124 T01500147 52019 IEM_DS3505
ZGKL,2008-03-18 01:00,ZGKL 180100Z AUTO 1 1/2SM 16/16 A2991 RMK T01600160 IEM_DS3505
ZGKL,2008-03-18 02:00,ZGKL 180200Z AUTO 17002KT 2SM 17/16 A2991 RMK T01700160 IEM_DS3505
ZGKL,2008-03-18 03:00,ZGKL 180300Z AUTO 32004KT 4SM 17/16 A2991 RMK SLP140 T01730155 52016 IEM_DS3505
ZGKL,2008-03-18 04:00,ZGKL 180400Z AUTO 3SM 18/17 A2991 RMK T01800170 IEM_DS3505
ZGKL,2008-03-18 05:00,ZGKL 180500Z AUTO 00000KT 4SM 18/17 A2988 RMK T01800170 IEM_DS3505
ZGKL,2008-03-18 06:00,ZGKL 180600Z AUTO 16004KT 7SM 20/16 A2985 RMK 60002 SLP120 T01970156 57019 IEM_DS3505
ZGKL,2008-03-18 07:00,ZGKL 180700Z AUTO 17004KT 4SM 18/17 A2985 RMK T01800170 IEM_DS3505
ZGKL,2008-03-18 08:00,ZGKL 180800Z AUTO 6SM 18/17 A2983 RMK T01800170 IEM_DS3505
ZGKL,2008-03-18 09:00,ZGKL 180900Z AUTO 18004KT 7SM 19/16 A2983 RMK SLP109 T01890158 57011 IEM_DS3505
ZGKL,2008-03-18 10:00,ZGKL 181000Z AUTO 17004KT 4SM 18/17 A2985 RMK T01800170 IEM_DS3505
ZGKL,2008-03-18 11:00,ZGKL 181100Z AUTO 00000KT 2 1/2SM 18/17 A2985 RMK T01800170 IEM_DS3505
ZGKL,2008-03-18 12:00,ZGKL 181200Z AUTO 00000KT 6SM 18/16 A2985 RMK SLP125 T01780156 52015 IEM_DS3505
ZGKL,2008-03-18 13:00,ZGKL 181300Z AUTO 00000KT 2SM 17/16 A2988 RMK T01700160 IEM_DS3505
ZGKL,2008-03-18 14:00,ZGKL 181400Z AUTO 00000KT 1SM 17/16 A2991 RMK T01700160 IEM_DS3505
ZGKL,2008-03-18 15:00,ZGKL 181500Z AUTO 00000KT 4SM 17/16 A2991 RMK SLP140 T01710161 52016 IEM_DS3505
ZGKL,2008-03-18 16:00,ZGKL 181600Z AUTO 00000KT 1SM 17/16 A2994 RMK T01700160 IEM_DS3505
ZGKL,2008-03-18 17:00,ZGKL 181700Z AUTO 00000KT 1SM 16/16 A2994 RMK T01600160 IEM_DS3505
ZGKL,2008-03-18 18:00,ZGKL 181800Z AUTO 14002KT 2SM 17/17 A2991 RMK SLP137 T01680166 57003 IEM_DS3505
ZGKL,2008-03-18 19:00,ZGKL 181900Z AUTO 00000KT 16/16 A2991 RMK T01600160 IEM_DS3505
ZGKL,2008-03-18 20:00,ZGKL 182000Z AUTO 00000KT 16/16 A2991 RMK T01600160 IEM_DS3505
ZGKL,2008-03-18 21:00,ZGKL 182100Z AUTO 00000KT 1 1/4SM 16/16 A2991 RMK 70051 SLP136 T01630163 57001 IEM_DS3505
ZGKL,2008-03-18 22:00,ZGKL 182200Z AUTO 00000KT 1/8SM 16/16 A2994 RMK T01600160 IEM_DS3505
ZGKL,2008-03-18 23:00,ZGKL 182300Z AUTO 00000KT 1/8SM 16/16 A2994 RMK T01600160 IEM_DS3505
ZGKL,2008-03-19 00:00,ZGKL 190000Z AUTO 32004KT 1SM 16/16 A2997 RMK 70002 SLP164 T01640164 52027 IEM_DS3505
ZGKL,2008-03-19 01:00,ZGKL 190100Z AUTO 1SM 18/17 A3000 RMK T01800170 IEM_DS3505
ZGKL,2008-03-19 02:00,ZGKL 190200Z AUTO 4SM 21/17 A3003 RMK T02100170 IEM_DS3505
ZGKL,2008-03-19 03:00,ZGKL 190300Z AUTO 36010KT 9SM 23/14 A3003 RMK SLP170 T02260137 52008 IEM_DS3505
ZGKL,2008-03-19 04:00,ZGKL 190400Z AUTO 05014KT 7SM 24/14 A3000 RMK T02400140 IEM_DS3505
ZGKL,2008-03-19 05:00,ZGKL 190500Z AUTO 07008KT 7SM 24/14 A2997 RMK T02400140 IEM_DS3505
ZGKL,2008-03-19 06:00,ZGKL 190600Z AUTO 02006KT 10SM 26/12 A2994 RMK SLP144 T02570125 57025 IEM_DS3505
ZGKL,2008-03-19 07:00,ZGKL 190700Z AUTO 10006KT 7SM 25/14 A2991 RMK T02500140 IEM_DS3505
ZGKL,2008-03-19 08:00,ZGKL 190800Z AUTO 11004KT 7SM 25/14 A2988 RMK T02500140 IEM_DS3505
ZGKL,2008-03-19 09:00,ZGKL 190900Z AUTO 09004KT 10SM 25/13 A2988 RMK SLP126 T02460132 57018 IEM_DS3505
ZGKL,2008-03-19 10:00,ZGKL 191000Z AUTO 00000KT 7SM 24/15 A2988 RMK T02400150 IEM_DS3505
ZGKL,2008-03-19 11:00,ZGKL 191100Z AUTO 05004KT 7SM 23/16 A2988 RMK T02300160 IEM_DS3505
ZGKL,2008-03-19 12:00,ZGKL 191200Z AUTO 02004KT 9SM 22/14 A2988 RMK SLP131 T02190138 52004 IEM_DS3505
ZGKL,2008-03-19 13:00,ZGKL 191300Z AUTO 3SM 21/16 A2991 RMK T02100160 IEM_DS3505
ZGKL,2008-03-19 14:00,ZGKL 191400Z AUTO 00000KT 3SM 21/15 A2994 RMK T02100150 IEM_DS3505
ZGKL,2008-03-19 15:00,ZGKL 191500Z AUTO 02004KT 9SM 21/13 A2994 RMK SLP142 T02090129 52012 IEM_DS3505
ZGKL,2008-03-19 16:00,ZGKL 191600Z AUTO 33004KT 3SM 20/15 A2994 RMK T02000150 IEM_DS3505
ZGKL,2008-03-19 17:00,ZGKL 191700Z AUTO 00000KT 2 1/2SM 19/17 A2991 RMK T01900170 IEM_DS3505
ZGKL,2008-03-19 18:00,ZGKL 191800Z AUTO 04002KT 7SM 20/13 RMK SLP127 T01990134 57014 IEM_DS3505
ZGKL,2008-03-19 19:00,ZGKL 191900Z AUTO 00000KT 18/16 A2988 RMK T01800160 IEM_DS3505
ZGKL,2008-03-19 20:00,ZGKL 192000Z AUTO 00000KT A2985 RMK IEM_DS3505
ZGKL,2008-03-19 21:00,ZGKL 192100Z AUTO 36004KT 6SM 17/15 A2985 RMK 70017 SLP115 T01710149 57013 IEM_DS3505
ZGKL,2008-03-19 22:00,ZGKL 192200Z AUTO 00000KT 1SM 16/16 A2988 RMK T01600160 IEM_DS3505
ZGKL,2008-03-19 23:00,ZGKL 192300Z AUTO 1SM 16/16 A2988 RMK T01600160 IEM_DS3505
ZGKL,2008-03-20 00:00,ZGKL 200000Z AUTO 04002KT 4SM 16/15 A2991 RMK 60138 70139 SLP135 T01610153 52019 IEM_DS3505
ZGKL,2008-03-20 01:00,ZGKL 200100Z AUTO 00000KT 1SM 17/16 A2991 RMK T01700160 IEM_DS3505
ZGKL,2008-03-20 02:00,ZGKL 200200Z AUTO 00000KT 1SM 17/16 A2994 RMK T01700160 IEM_DS3505
ZGKL,2008-03-20 03:00,ZGKL 200300Z AUTO 27004KT 4SM 17/15 A2991 RMK SLP140 T01670154 52005 IEM_DS3505
ZGKL,2008-03-20 04:00,ZGKL 200400Z AUTO 1 1/2SM 17/16 A2991 RMK T01700160 IEM_DS3505
ZGKL,2008-03-20 05:00,ZGKL 200500Z AUTO 1 1/4SM 17/16 A2988 RMK T01700160 IEM_DS3505
ZGKL,2008-03-20 06:00,ZGKL 200600Z AUTO 02004KT 4SM 17/15 A2985 RMK 60020 SLP117 T01670152 57023 IEM_DS3505
ZGKL,2008-03-20 07:00,ZGKL 200700Z AUTO 1SM 17/16 A2983 RMK T01700160 IEM_DS3505
ZGKL,2008-03-20 08:00,ZGKL 200800Z AUTO 1SM 17/16 A2980 RMK T01700160 IEM_DS3505
ZGKL,2008-03-20 09:00,ZGKL 200900Z AUTO 02006KT 4SM 16/15 A2980 RMK SLP096 T01640149 57022 IEM_DS3505
ZGKL,2008-03-20 10:00,ZGKL 201000Z AUTO 1SM 17/16 A2980 RMK T01700160 IEM_DS3505
ZGKL,2008-03-20 11:00,ZGKL 201100Z AUTO 00000KT 1SM 17/16 A2980 RMK T01700160 IEM_DS3505
ZGKL,2008-03-20 12:00,ZGKL 201200Z AUTO 34004KT 2 1/2SM 16/15 A2983 RMK 60008 SLP112 T01630152 52015 IEM_DS3505
ZGKL,2008-03-20 13:00,ZGKL 201300Z AUTO 00000KT 1SM 17/16 A2985 RMK T01700160 IEM_DS3505
ZGKL,2008-03-20 14:00,ZGKL 201400Z AUTO 00000KT 1SM 17/16 A2988 RMK T01700160 IEM_DS3505
ZGKL,2008-03-20 15:00,ZGKL 201500Z AUTO 32002KT 4SM 16/15 A2988 RMK SLP128 T01650150 52016 IEM_DS3505
ZGKL,2008-03-20 16:00,ZGKL 201600Z AUTO 00000KT 1SM 17/16 A2988 RMK T01700160 IEM_DS3505
ZGKL,2008-03-20 17:00,ZGKL 201700Z AUTO 00000KT 1/2SM 17/16 A2988 RMK T01700160 IEM_DS3505
ZGKL,2008-03-20 18:00,ZGKL 201800Z AUTO 36002KT 5SM 16/15 A2985 RMK 60000 SLP112 T01640151 57015 IEM_DS3505
ZGKL,2008-03-20 19:00,ZGKL 201900Z AUTO 00000KT 17/16 A2983 RMK T01700160 IEM_DS3505
ZGKL,2008-03-20 20:00,ZGKL 202000Z AUTO 00000KT 17/16 A2980 RMK T01700160 IEM_DS3505
ZGKL,2008-03-20 21:00,ZGKL 202100Z AUTO 34002KT 4SM 16/15 A2980 RMK 70152 SLP100 T01640154 57012 IEM_DS3505
ZGKL,2008-03-20 22:00,ZGKL 202200Z AUTO 00000KT 1/2SM 17/16 A2980 RMK T01700160 IEM_DS3505
ZGKL,2008-03-20 23:00,ZGKL 202300Z AUTO 00000KT 1SM 17/16 A2983 RMK T01700160 IEM_DS3505
ZGKL,2008-03-21 00:00,ZGKL 210000Z AUTO 07004KT 3SM 17/16 A2985 RMK 70029 SLP116 T01680158 52016 IEM_DS3505
ZGKL,2008-03-21 01:00,ZGKL 210100Z AUTO 1SM 17/17 A2985 RMK T01700170 IEM_DS3505
ZGKL,2008-03-21 02:00,ZGKL 210200Z AUTO 00000KT 1SM 18/17 A2985 RMK T01800170 IEM_DS3505
ZGKL,2008-03-21 03:00,ZGKL 210300Z AUTO 04002KT 4SM 20/18 A2985 RMK SLP119 T02000178 52004 IEM_DS3505
ZGKL,2008-03-21 04:00,ZGKL 210400Z AUTO 00000KT 1 1/4SM 20/19 A2985 RMK T02000190 IEM_DS3505
ZGKL,2008-03-21 05:00,ZGKL 210500Z AUTO 2SM 21/20 A2983 RMK T02100200 IEM_DS3505
ZGKL,2008-03-21 06:00,ZGKL 210600Z AUTO 29004KT 5SM 21/19 A2980 RMK SLP097 T02120186 57022 IEM_DS3505
ZGKL,2008-03-21 07:00,ZGKL 210700Z AUTO 20010KT 3SM 24/21 A2974 RMK T02400210 IEM_DS3505
ZGKL,2008-03-21 08:00,ZGKL 210800Z AUTO 17010KT 4SM 25/21 A2974 RMK T02500210 IEM_DS3505
ZGKL,2008-03-21 09:00,ZGKL 210900Z AUTO 20004KT 5SM 24/19 A2974 RMK SLP072 T02420193 57023 IEM_DS3505
ZGKL,2008-03-21 10:00,ZGKL 211000Z AUTO 4SM 24/21 A2974 RMK T02400210 IEM_DS3505
ZGKL,2008-03-21 11:00,ZGKL 211100Z AUTO 4SM 22/20 A2977 RMK T02200200 IEM_DS3505
ZGKL,2008-03-21 12:00,ZGKL 211200Z AUTO 02010KT 6SM 19/15 A2977 RMK 60002 SLP096 T01860153 52022 IEM_DS3505
ZGKL,2008-03-21 13:00,ZGKL 211300Z AUTO 05019KT 1SM 17/17 A2980 RMK T01700170 IEM_DS3505
ZGKL,2008-03-21 14:00,ZGKL 211400Z AUTO 05010KT 1SM 16/16 A2988 RMK T01600160 IEM_DS3505
ZGKL,2008-03-21 15:00,ZGKL 211500Z AUTO 36010KT 5SM 16/14 A2994 RMK SLP136 T01560140 52039 IEM_DS3505
ZGKL,2008-03-21 16:00,ZGKL 211600Z AUTO 3SM 16/15 A2991 RMK T01600150 IEM_DS3505
ZGKL,2008-03-21 17:00,ZGKL 211700Z AUTO 7SM 15/15 A2991 RMK T01500150 IEM_DS3505
ZGKL,2008-03-21 18:00,ZGKL 211800Z AUTO 02006KT 9SM 15/13 A2988 RMK 60134 SLP134 T01480127 57002 IEM_DS3505
ZGKL,2008-03-21 19:00,ZGKL 211900Z AUTO 00000KT 7SM 15/14 A2988 RMK T01500140 IEM_DS3505
ZGKL,2008-03-21 20:00,ZGKL 212000Z AUTO 4SM 15/14 A2988 RMK T01500140 IEM_DS3505
ZGKL,2008-03-21 21:00,ZGKL 212100Z AUTO 36010KT 9SM 15/12 A2988 RMK 70137 SLP133 T01460116 54000 IEM_DS3505
ZGKL,2008-03-21 22:00,ZGKL 212200Z AUTO 4SM 14/13 A2991 RMK T01400130 IEM_DS3505
ZGKL,2008-03-21 23:00,ZGKL 212300Z AUTO 07006KT 3SM 14/13 A2994 RMK T01400130 IEM_DS3505
ZGKL,2008-03-22 00:00,ZGKL 220000Z AUTO 02008KT 9SM 14/10 A2997 RMK 60000 70137 SLP164 T01380102 52028 IEM_DS3505
ZGKL,2008-03-22 01:00,ZGKL 220100Z AUTO 7SM 15/12 A3003 RMK T01500120 IEM_DS3505
ZGKL,2008-03-22 02:00,ZGKL 220200Z AUTO 7SM 15/12 A3006 RMK T01500120 IEM_DS3505
ZGKL,2008-03-22 03:00,ZGKL 220300Z AUTO 02014KT 9SM 14/10 A3006 RMK SLP192 T01430097 52027 IEM_DS3505
ZGKL,2008-03-22 04:00,ZGKL 220400Z AUTO 06012KT 7SM 17/12 A3006 RMK T01700120 IEM_DS3505
ZGKL,2008-03-22 05:00,ZGKL 220500Z AUTO 04012KT 7SM 19/11 A3000 RMK T01900110 IEM_DS3505
ZGKL,2008-03-22 06:00,ZGKL 220600Z AUTO 02010KT 11SM 19/09 A2997 RMK 60000 SLP157 T01900089 57033 IEM_DS3505
ZGKL,2008-03-22 07:00,ZGKL 220700Z AUTO 07008KT 7SM 20/10 A2994 RMK T02000100 IEM_DS3505
ZGKL,2008-03-22 08:00,ZGKL 220800Z AUTO 06006KT 7SM 20/10 A2994 RMK T02000100 IEM_DS3505
ZGKL,2008-03-22 09:00,ZGKL 220900Z AUTO 02008KT 11SM 20/09 A2994 RMK SLP150 T01960086 57007 IEM_DS3505
ZGKL,2008-03-22 10:00,ZGKL 221000Z AUTO 06008KT 7SM 19/10 A2994 RMK T01900100 IEM_DS3505
ZGKL,2008-03-22 11:00,ZGKL 221100Z AUTO 05008KT 7SM 18/09 A2997 RMK T01800090 IEM_DS3505
ZGKL,2008-03-22 12:00,ZGKL 221200Z AUTO 34002KT 9SM 17/08 A3000 RMK SLP170 T01670084 52019 IEM_DS3505
ZGKL,2008-03-22 13:00,ZGKL 221300Z AUTO 7SM 16/10 A3003 RMK T01600100 IEM_DS3505
ZGKL,2008-03-22 14:00,ZGKL 221400Z AUTO 07004KT 6SM 16/11 A3003 RMK T01600110 IEM_DS3505
ZGKL,2008-03-22 15:00,ZGKL 221500Z AUTO 04004KT 9SM 16/09 A3006 RMK SLP189 T01580092 52018 IEM_DS3505
ZGKL,2008-03-22 16:00,ZGKL 221600Z AUTO 33004KT 4SM 15/12 A3006 RMK T01500120 IEM_DS3505
ZGKL,2008-03-22 17:00,ZGKL 221700Z AUTO 00000KT 4SM 15/12 A3003 RMK T01500120 IEM_DS3505
ZGKL,2008-03-22 18:00,ZGKL 221800Z AUTO 02004KT 9SM 15/08 A3003 RMK SLP182 T01510083 57005 IEM_DS3505
ZGKL,2008-03-22 19:00,ZGKL 221900Z AUTO 00000KT 13/12 A3003 RMK T01300120 IEM_DS3505
ZGKL,2008-03-22 20:00,ZGKL 222000Z AUTO 00000KT 13/12 A3000 RMK T01300120 IEM_DS3505
ZGKL,2008-03-22 21:00,ZGKL 222100Z AUTO 02008KT 9SM 15/08 A3000 RMK 70000 SLP173 T01480078 57009 IEM_DS3505
ZGKL,2008-03-22 22:00,ZGKL 222200Z AUTO 00000KT 4SM 13/12 A3003 RMK T01300120 IEM_DS3505
ZGKL,2008-03-22 23:00,ZGKL 222300Z AUTO 25004KT 4SM 12/11 A3006 RMK T01200110 IEM_DS3505
ZGKL,2008-03-23 00:00,ZGKL 230000Z AUTO 02004KT 7SM 15/08 A3009 RMK 70000 SLP197 T01510079 52023 IEM_DS3505
ZGKL,2008-03-23 01:00,ZGKL 230100Z AUTO 6SM 16/12 A3009 RMK T01600120 IEM_DS3505
ZGKL,2008-03-23 02:00,ZGKL 230200Z AUTO 00000KT 6SM 19/09 A3009 RMK T01900090 IEM_DS3505
ZGKL,2008-03-23 03:00,ZGKL 230300Z AUTO 36008KT 7SM 21/03 A3009 RMK SLP195 T02060033 57001 IEM_DS3505
ZGKL,2008-03-23 04:00,ZGKL 230400Z AUTO 06010KT 6SM 23/03 A3006 RMK T02300030 IEM_DS3505
ZGKL,2008-03-23 05:00,ZGKL 230500Z AUTO 05008KT 6SM 24/03 A3003 RMK T02400030 IEM_DS3505
ZGKL,2008-03-23 06:00,ZGKL 230600Z AUTO 02010KT 10SM 25/02 A3000 RMK SLP163 T02460021 57030 IEM_DS3505
ZGKL,2008-03-23 07:00,ZGKL 230700Z AUTO 04014KT 6SM 26/M02 A2997 RMK T02601020 IEM_DS3505
ZGKL,2008-03-23 08:00,ZGKL 230800Z AUTO 03012KT 6SM 26/M01 A2994 RMK T02601010 IEM_DS3505
ZGKL,2008-03-23 09:00,ZGKL 230900Z AUTO 02010KT 14SM 24/M00 A2994 RMK SLP145 T02411002 57018 IEM_DS3505
ZGKL,2008-03-23 10:00,ZGKL 231000Z AUTO 05008KT 6SM 24/01 A2994 RMK T02400010 IEM_DS3505
ZGKL,2008-03-23 11:00,ZGKL 231100Z AUTO 06008KT 6SM 21/03 A2997 RMK T02100030 IEM_DS3505
ZGKL,2008-03-23 12:00,ZGKL 231200Z AUTO 02004KT 11SM 20/03 A2997 RMK SLP161 T01970026 52014 IEM_DS3505
ZGKL,2008-03-23 13:00,ZGKL 231300Z AUTO 33006KT 6SM 17/06 A3003 RMK T01700060 IEM_DS3505
ZGKL,2008-03-23 14:00,ZGKL 231400Z AUTO 30004KT 6SM 15/08 A3006 RMK T01500080 IEM_DS3505
ZGKL,2008-03-23 15:00,ZGKL 231500Z AUTO 02006KT 11SM 18/04 A3006 RMK SLP189 T01780044 52029 IEM_DS3505
ZGKL,2008-03-23 16:00,ZGKL 231600Z AUTO 6SM 13/09 A3006 RMK T01300090 IEM_DS3505
ZGKL,2008-03-23 17:00,ZGKL 231700Z AUTO 35004KT 12/09 A3006 RMK T01200090 IEM_DS3505
ZGKL,2008-03-23 18:00,ZGKL 231800Z AUTO 02004KT 10SM 16/05 A3006 RMK SLP183 T01590046 57005 IEM_DS3505
ZGKL,2008-03-23 19:00,ZGKL 231900Z AUTO 30004KT 13/10 A3006 RMK T01300100 IEM_DS3505
ZGKL,2008-03-23 20:00,ZGKL 232000Z AUTO 00000KT 13/10 A3003 RMK T01300100 IEM_DS3505
ZGKL,2008-03-23 21:00,ZGKL 232100Z AUTO 25002KT 10SM 15/05 A3003 RMK SLP181 T01460051 57003 IEM_DS3505
ZGKL,2008-03-23 22:00,ZGKL 232200Z AUTO 00000KT 6SM 11/09 A3006 RMK T01100090 IEM_DS3505
ZGKL,2008-03-23 23:00,ZGKL 232300Z AUTO 00000KT 6SM 11/10 A3009 RMK T01100100 IEM_DS3505
ZGKL,2008-03-24 00:00,ZGKL 240000Z AUTO 00000KT 9SM 14/06 A3009 RMK SLP201 T01440065 52018 IEM_DS3505
ZGKL,2008-03-24 01:00,ZGKL 240100Z AUTO 00000KT 6SM 15/09 A3012 RMK T01500090 IEM_DS3505
ZGKL,2008-03-24 02:00,ZGKL 240200Z AUTO 27004KT 6SM 19/08 A3009 RMK T01900080 IEM_DS3505
ZGKL,2008-03-24 03:00,ZGKL 240300Z AUTO 02004KT 7SM 22/05 A3009 RMK SLP193 T02180053 57006 IEM_DS3505
ZGKL,2008-03-24 04:00,ZGKL 240400Z AUTO 6SM 23/05 A3006 RMK T02300050 IEM_DS3505
ZGKL,2008-03-24 05:00,ZGKL 240500Z AUTO 6SM 25/06 A3003 RMK T02500060 IEM_DS3505
ZGKL,2008-03-24 06:00,ZGKL 240600Z AUTO 14004KT 9SM 24/05 A2997 RMK SLP157 T02420046 57035 IEM_DS3505
ZGKL,2008-03-24 07:00,ZGKL 240700Z AUTO 15006KT 6SM 26/04 A2994 RMK T02600040 IEM_DS3505
ZGKL,2008-03-24 08:00,ZGKL 240800Z AUTO 09004KT 6SM 25/04 A2991 RMK T02500040 IEM_DS3505
ZGKL,2008-03-24 09:00,ZGKL 240900Z AUTO 18002KT 9SM 25/03 A2991 RMK SLP128 T02480029 57029 IEM_DS3505
ZGKL,2008-03-24 10:00,ZGKL 241000Z AUTO 00000KT 6SM 24/10 A2991 RMK T02400100 IEM_DS3505
ZGKL,2008-03-24 11:00,ZGKL 241100Z AUTO 00000KT 4SM 22/11 A2988 RMK T02200110 IEM_DS3505
ZGKL,2008-03-24 12:00,ZGKL 241200Z AUTO 02002KT 9SM 21/10 A2991 RMK SLP137 T02110097 52008 IEM_DS3505
ZGKL,2008-03-24 13:00,ZGKL 241300Z AUTO 00000KT 3SM 19/14 A2994 RMK T01900140 IEM_DS3505
ZGKL,2008-03-24 14:00,ZGKL 241400Z AUTO 00000KT 3SM 19/14 A2997 RMK T01900140 IEM_DS3505
ZGKL,2008-03-24 15:00,ZGKL 241500Z AUTO 09002KT 9SM 19/10 A2997 RMK SLP156 T01860099 52020 IEM_DS3505
ZGKL,2008-03-24 16:00,ZGKL 241600Z AUTO 00000KT 3SM 18/13 A2997 RMK T01800130 IEM_DS3505
ZGKL,2008-03-24 17:00,ZGKL 241700Z AUTO 00000KT 3SM 17/14 A2997 RMK T01700140 IEM_DS3505
ZGKL,2008-03-24 18:00,ZGKL 241800Z AUTO 02002KT 9SM 18/10 A2994 RMK SLP147 T01810095 57008 IEM_DS3505
ZGKL,2008-03-24 19:00,ZGKL 241900Z AUTO 00000KT 17/14 A2994 RMK T01700140 IEM_DS3505
ZGKL,2008-03-24 20:00,ZGKL 242000Z AUTO 00000KT 16/14 A2994 RMK T01600140 IEM_DS3505
ZGKL,2008-03-24 21:00,ZGKL 242100Z AUTO 36002KT 6SM 16/11 A2994 RMK 70002 SLP140 T01650108 57007 IEM_DS3505
ZGKL,2008-03-24 22:00,ZGKL 242200Z AUTO 3SM 16/14 A2994 RMK T01600140 IEM_DS3505
ZGKL,2008-03-24 23:00,ZGKL 242300Z AUTO 00000KT 3SM 16/14 A2997 RMK T01600140 IEM_DS3505
ZGKL,2008-03-25 00:00,ZGKL 250000Z AUTO 29004KT 6SM 16/11 A3000 RMK 60003 70003 SLP166 T01620114 52024 IEM_DS3505
ZGKL,2008-03-25 01:00,ZGKL 250100Z AUTO 00000KT 3SM 16/14 A3003 RMK T01600140 IEM_DS3505
ZGKL,2008-03-25 02:00,ZGKL 250200Z AUTO 00000KT 2 1/2SM 16/14 A3006 RMK T01600140 IEM_DS3505
ZGKL,2008-03-25 03:00,ZGKL 250300Z AUTO 02006KT 6SM 17/11 A3006 RMK SLP189 T01720108 52022 IEM_DS3505
ZGKL,2008-03-25 04:00,ZGKL 250400Z AUTO 00000KT 4SM 17/12 A3006 RMK T01700120 IEM_DS3505
ZGKL,2008-03-25 05:00,ZGKL 250500Z AUTO 03006KT 2 1/2SM 17/14 A3003 RMK T01700140 IEM_DS3505
ZGKL,2008-03-25 06:00,ZGKL 250600Z AUTO 02006KT 6SM 16/12 A3003 RMK 60000 SLP177 T01550121 57012 IEM_DS3505
ZGKL,2008-03-25 07:00,ZGKL 250700Z AUTO 1 1/4SM 15/14 A3003 RMK T01500140 IEM_DS3505
ZGKL,2008-03-25 08:00,ZGKL 250800Z AUTO 34004KT 1 1/2SM 15/14 A3000 RMK T01500140 IEM_DS3505
ZGKL,2008-03-25 09:00,ZGKL 250900Z AUTO 36006KT 6SM 15/12 A3000 RMK SLP173 T01490122 57005 IEM_DS3505
ZGKL,2008-03-25 10:00,ZGKL 251000Z AUTO 34004KT 2SM 15/14 A3000 RMK T01500140 IEM_DS3505
ZGKL,2008-03-25 11:00,ZGKL 251100Z AUTO 1 1/4SM 15/14 A3000 RMK T01500140 IEM_DS3505
ZGKL,2008-03-25 12:00,ZGKL 251200Z AUTO 02002KT 6SM 15/12 A3003 RMK 60000 SLP179 T01470118 52006 IEM_DS3505
ZGKL,2008-03-25 13:00,ZGKL 251300Z AUTO 00000KT 3SM 15/13 A3003 RMK T01500130 IEM_DS3505
ZGKL,2008-03-25 14:00,ZGKL 251400Z AUTO 31002KT 2 1/2SM 14/14 A3003 RMK T01400140 IEM_DS3505
ZGKL,2008-03-25 15:00,ZGKL 251500Z AUTO 34002KT 5SM 14/12 A3003 RMK SLP181 T01440117 52002 IEM_DS3505
ZGKL,2008-03-25 16:00,ZGKL 251600Z AUTO 1 1/4SM 14/13 A3003 RMK T01400130 IEM_DS3505
ZGKL,2008-03-25 17:00,ZGKL 251700Z AUTO 14/14 A3003 RMK T01400140 IEM_DS3505
ZGKL,2008-03-25 18:00,ZGKL 251800Z AUTO 18002KT 5SM 14/12 A3000 RMK 60000 SLP173 T01410116 57009 IEM_DS3505
ZGKL,2008-03-25 19:00,ZGKL 251900Z AUTO 00000KT 14/13 A3000 RMK T01400130 IEM_DS3505
ZGKL,2008-03-25 20:00,ZGKL 252000Z AUTO 00000KT 14/13 A2997 RMK T01400130 IEM_DS3505
ZGKL,2008-03-25 21:00,ZGKL 252100Z AUTO 02002KT 4SM 14/12 A2997 RMK 70002 SLP160 T01370119 57013 IEM_DS3505
ZGKL,2008-03-25 22:00,ZGKL 252200Z AUTO 00000KT 1/2SM 13/13 A2997 RMK T01300130 IEM_DS3505
ZGKL,2008-03-25 23:00,ZGKL 252300Z AUTO 00000KT 1/8SM 13/12 A3000 RMK T01300120 IEM_DS3505
ZGKL,2008-03-26 00:00,ZGKL 260000Z AUTO 09002KT 2 1/2SM 14/12 A3000 RMK 70001 SLP174 T01400122 52014 IEM_DS3505
ZGKL,2008-03-26 01:00,ZGKL 260100Z AUTO 1 1/2SM 16/14 A3003 RMK T01600140 IEM_DS3505
ZGKL,2008-03-26 02:00,ZGKL 260200Z AUTO 4SM 17/13 A3003 RMK T01700130 IEM_DS3505
ZGKL,2008-03-26 03:00,ZGKL 260300Z AUTO 18002KT 5SM 19/13 A3000 RMK SLP163 T01940127 57009 IEM_DS3505
ZGKL,2008-03-26 04:00,ZGKL 260400Z AUTO 6SM 21/13 A2997 RMK T02100130 IEM_DS3505
ZGKL,2008-03-26 05:00,ZGKL 260500Z AUTO 21004KT 6SM 22/13 A2994 RMK T02200130 IEM_DS3505
ZGKL,2008-03-26 06:00,ZGKL 260600Z AUTO 16006KT 6SM 24/11 A2991 RMK SLP128 T02350106 57033 IEM_DS3505
ZGKL,2008-03-26 07:00,ZGKL 260700Z AUTO 19004KT 6SM 24/10 A2985 RMK T02400100 IEM_DS3505
ZGKL,2008-03-26 08:00,ZGKL 260800Z AUTO 6SM 25/09 A2983 RMK T02500090 IEM_DS3505
ZGKL,2008-03-26 09:00,ZGKL 260900Z AUTO 18004KT 11SM 24/10 A2983 RMK SLP102 T02440103 57026 IEM_DS3505
ZGKL,2008-03-26 10:00,ZGKL 261000Z AUTO 20004KT 6SM 24/11 A2983 RMK T02400110 IEM_DS3505
ZGKL,2008-03-26 11:00,ZGKL 261100Z AUTO 00000KT 6SM 22/12 A2983 RMK T02200120 IEM_DS3505
ZGKL,2008-03-26 12:00,ZGKL 261200Z AUTO 11002KT 10SM 20/13 A2983 RMK SLP111 T02030128 52008 IEM_DS3505
ZGKL,2008-03-26 13:00,ZGKL 261300Z AUTO 00000KT 6SM 18/14 A2985 RMK T01800140 IEM_DS3505
ZGKL,2008-03-26 14:00,ZGKL 261400Z AUTO 00000KT 4SM 17/15 A2988 RMK T01700150 IEM_DS3505
ZGKL,2008-03-26 15:00,ZGKL 261500Z AUTO 00000KT 10SM 17/13 A2988 RMK SLP131 T01740133 52020 IEM_DS3505
ZGKL,2008-03-26 16:00,ZGKL 261600Z AUTO 00000KT 3SM 15/14 A2988 RMK T01500140 IEM_DS3505
ZGKL,2008-03-26 17:00,ZGKL 261700Z AUTO 00000KT 3SM 15/14 A2988 RMK T01500140 IEM_DS3505
ZGKL,2008-03-26 18:00,ZGKL 261800Z AUTO 36002KT 7SM 16/12 A2988 RMK SLP125 T01550121 57005 IEM_DS3505
ZGKL,2008-03-26 20:00,ZGKL 262000Z AUTO 00000KT 13/12 A2985 RMK T01300120 IEM_DS3505
ZGKL,2008-03-26 21:00,ZGKL 262100Z AUTO 07002KT 7SM 14/12 A2985 RMK SLP120 T01390118 57005 IEM_DS3505
ZGKL,2008-03-26 22:00,ZGKL 262200Z AUTO 00000KT 2SM 12/12 A2988 RMK T01200120 IEM_DS3505
ZGKL,2008-03-26 23:00,ZGKL 262300Z AUTO 00000KT 3SM 12/12 A2988 RMK T01200120 IEM_DS3505
ZGKL,2008-03-27 00:00,ZGKL 270000Z AUTO 36002KT 5SM 15/12 A2991 RMK SLP137 T01470120 52016 IEM_DS3505
ZGKL,2008-03-27 01:00,ZGKL 270100Z AUTO 00000KT 2SM 15/14 A2994 RMK T01500140 IEM_DS3505
ZGKL,2008-03-27 02:00,ZGKL 270200Z AUTO 00000KT 1 1/2SM 15/14 A2994 RMK T01500140 IEM_DS3505
ZGKL,2008-03-27 03:00,ZGKL 270300Z AUTO 34002KT 4SM 17/14 A2994 RMK SLP144 T01680143 52006 IEM_DS3505
ZGKL,2008-03-27 04:00,ZGKL 270400Z AUTO 2 1/2SM 18/15 A2991 RMK T01800150 IEM_DS3505
ZGKL,2008-03-27 05:00,ZGKL 270500Z AUTO 00000KT 3SM 19/15 A2988 RMK T01900150 IEM_DS3505
ZGKL,2008-03-27 06:00,ZGKL 270600Z AUTO 34002KT 4SM 19/14 A2985 RMK 60002 SLP115 T01920138 57028 IEM_DS3505
ZGKL,2008-03-27 07:00,ZGKL 270700Z AUTO 4SM 20/15 A2983 RMK T02000150 IEM_DS3505
ZGKL,2008-03-27 08:00,ZGKL 270800Z AUTO 4SM 20/14 A2980 RMK T02000140 IEM_DS3505
ZGKL,2008-03-27 09:00,ZGKL 270900Z AUTO 04002KT 4SM 19/14 A2980 RMK SLP096 T01910142 57019 IEM_DS3505
ZGKL,2008-03-27 10:00,ZGKL 271000Z AUTO 2 1/2SM 19/16 A2980 RMK T01900160 IEM_DS3505
ZGKL,2008-03-27 11:00,ZGKL 271100Z AUTO 00000KT 1 1/2SM 18/16 A2980 RMK T01800160 IEM_DS3505
ZGKL,2008-03-27 12:00,ZGKL 271200Z AUTO 27002KT 4SM 18/15 A2983 RMK 60000 SLP105 T01800154 52009 IEM_DS3505
ZGKL,2008-03-27 13:00,ZGKL 271300Z AUTO 00000KT 1 1/4SM 18/16 A2985 RMK T01800160 IEM_DS3505
ZGKL,2008-03-27 14:00,ZGKL 271400Z AUTO 00000KT 1 1/2SM 18/16 A2985 RMK T01800160 IEM_DS3505
ZGKL,2008-03-27 15:00,ZGKL 271500Z AUTO 00000KT 4SM 18/15 A2985 RMK SLP113 T01750151 52008 IEM_DS3505
ZGKL,2008-03-27 16:00,ZGKL 271600Z AUTO 00000KT 1SM 17/16 A2983 RMK T01700160 IEM_DS3505
ZGKL,2008-03-27 17:00,ZGKL 271700Z AUTO 17/16 A2983 RMK T01700160 IEM_DS3505
ZGKL,2008-03-27 18:00,ZGKL 271800Z AUTO 34002KT 2 1/2SM 17/16 A2980 RMK 60000 SLP097 T01690159 57015 IEM_DS3505
ZGKL,2008-03-27 19:00,ZGKL 271900Z AUTO 17/16 A2977 RMK T01700160 IEM_DS3505
ZGKL,2008-03-27 20:00,ZGKL 272000Z AUTO 17/16 A2977 RMK T01700160 IEM_DS3505
ZGKL,2008-03-27 21:00,ZGKL 272100Z AUTO 04002KT 2 1/2SM 17/17 A2977 RMK 70012 SLP088 T01660166 57009 IEM_DS3505
ZGKL,2008-03-27 22:00,ZGKL 272200Z AUTO 00000KT 3/8SM 17/16 A2977 RMK T01700160 IEM_DS3505
ZGKL,2008-03-27 23:00,ZGKL 272300Z AUTO 3/8SM 17/16 A2980 RMK T01700160 IEM_DS3505
ZGKL,2008-03-28 00:00,ZGKL 280000Z AUTO 04002KT 2 1/2SM 17/17 A2980 RMK 60020 70025 SLP099 T01670167 52010 IEM_DS3505
ZGKL,2008-03-28 01:00,ZGKL 280100Z AUTO 00000KT 1SM 17/17 A2980 RMK T01700170 IEM_DS3505
ZGKL,2008-03-28 02:00,ZGKL 280200Z AUTO 34004KT 1SM 17/17 A2980 RMK T01700170 IEM_DS3505
ZGKL,2008-03-28 03:00,ZGKL 280300Z AUTO 36002KT 1 1/4SM 18/17 A2980 RMK SLP095 T01780172 57003 IEM_DS3505
ZGKL,2008-03-28 04:00,ZGKL 280400Z AUTO 1SM 18/18 A2977 RMK T01800180 IEM_DS3505
ZGKL,2008-03-28 05:00,ZGKL 280500Z AUTO 33004KT 1SM 18/18 A2974 RMK T01800180 IEM_DS3505
ZGKL,2008-03-28 06:00,ZGKL 280600Z AUTO 32002KT 1SM 19/18 A2971 RMK 60012 SLP065 T01860181 57030 IEM_DS3505
ZGKL,2008-03-28 07:00,ZGKL 280700Z AUTO 1SM 18/18 A2971 RMK T01800180 IEM_DS3505
ZGKL,2008-03-28 08:00,ZGKL 280800Z AUTO 1SM 18/18 A2968 RMK T01800180 IEM_DS3505
ZGKL,2008-03-28 09:00,ZGKL 280900Z AUTO 04002KT 1SM 19/19 A2968 RMK SLP053 T01880188 57011 IEM_DS3505
ZGKL,2008-03-28 10:00,ZGKL 281000Z AUTO 1 1/4SM 19/18 A2968 RMK T01900180 IEM_DS3505
ZGKL,2008-03-28 11:00,ZGKL 281100Z AUTO 1 1/4SM 19/18 A2971 RMK T01900180 IEM_DS3505
ZGKL,2008-03-28 12:00,ZGKL 281200Z AUTO 34002KT 1SM 19/19 A2971 RMK 60004 SLP069 T01880188 52015 IEM_DS3505
ZGKL,2008-03-28 13:00,ZGKL 281300Z AUTO 00000KT 1 1/4SM 19/18 A2974 RMK T01900180 IEM_DS3505
ZGKL,2008-03-28 14:00,ZGKL 281400Z AUTO 1 1/4SM 19/18 A2977 RMK T01900180 IEM_DS3505
ZGKL,2008-03-28 15:00,ZGKL 281500Z AUTO 32002KT 1SM 19/19 A2977 RMK SLP084 T01880188 52015 IEM_DS3505
ZGKL,2008-03-28 16:00,ZGKL 281600Z AUTO 00000KT 1SM 19/18 A2977 RMK T01900180 IEM_DS3505
ZGKL,2008-03-28 17:00,ZGKL 281700Z AUTO 00000KT 1SM 19/18 A2977 RMK T01900180 IEM_DS3505
ZGKL,2008-03-28 18:00,ZGKL 281800Z AUTO 00000KT 1SM 19/19 A2974 RMK 60000 SLP078 T01860186 57005 IEM_DS3505
ZGKL,2008-03-28 19:00,ZGKL 281900Z AUTO 00000KT 19/18 A2974 RMK T01900180 IEM_DS3505
ZGKL,2008-03-28 20:00,ZGKL 282000Z AUTO 00000KT 19/18 A2974 RMK T01900180 IEM_DS3505
ZGKL,2008-03-28 21:00,ZGKL 282100Z AUTO 00000KT 1/2SM 19/19 A2974 RMK 70030 SLP076 T01860186 57002 IEM_DS3505
ZGKL,2008-03-28 22:00,ZGKL 282200Z AUTO 00000KT 1/2SM 19/18 A2974 RMK T01900180 IEM_DS3505
ZGKL,2008-03-28 23:00,ZGKL 282300Z AUTO 00000KT 3/8SM 19/18 A2977 RMK T01900180 IEM_DS3505
ZGKL,2008-03-29 00:00,ZGKL 290000Z AUTO 00000KT 1SM 19/19 A2980 RMK 60003 70018 SLP096 T01880188 52019 IEM_DS3505
ZGKL,2008-03-29 01:00,ZGKL 290100Z AUTO 00000KT 1SM 19/19 A2980 RMK T01900190 IEM_DS3505
ZGKL,2008-03-29 02:00,ZGKL 290200Z AUTO 00000KT 1SM 20/19 A2983 RMK T02000190 IEM_DS3505
ZGKL,2008-03-29 03:00,ZGKL 290300Z AUTO 07002KT 1 1/4SM 20/19 A2983 RMK SLP104 T02030193 52009 IEM_DS3505
ZGKL,2008-03-29 04:00,ZGKL 290400Z AUTO 1 1/4SM 23/21 A2980 RMK T02300210 IEM_DS3505
ZGKL,2008-03-29 05:00,ZGKL 290500Z AUTO 19006KT 1 1/2SM 23/21 A2977 RMK T02300210 IEM_DS3505
ZGKL,2008-03-29 06:00,ZGKL 290600Z AUTO 02006KT 2 1/2SM 22/19 A2977 RMK 60000 SLP086 T02150192 57018 IEM_DS3505
ZGKL,2008-03-29 07:00,ZGKL 290700Z AUTO 18006KT 2 1/2SM 25/22 A2974 RMK T02500220 IEM_DS3505
ZGKL,2008-03-29 08:00,ZGKL 290800Z AUTO 11006KT 3SM 25/22 A2974 RMK T02500220 IEM_DS3505
ZGKL,2008-03-29 09:00,ZGKL 290900Z AUTO 02008KT 6SM 20/17 A2974 RMK SLP083 T02020172 57003 IEM_DS3505
ZGKL,2008-03-29 10:00,ZGKL 291000Z AUTO 05012KT 7SM 20/17 A2977 RMK T02000170 IEM_DS3505
ZGKL,2008-03-29 11:00,ZGKL 291100Z AUTO 7SM 20/17 A2980 RMK T02000170 IEM_DS3505
ZGKL,2008-03-29 12:00,ZGKL 291200Z AUTO 02010KT 8SM 17/13 A2983 RMK SLP114 T01690128 52029 IEM_DS3505
ZGKL,2008-03-29 13:00,ZGKL 291300Z AUTO 05010KT 7SM 17/14 A2988 RMK T01700140 IEM_DS3505
ZGKL,2008-03-29 14:00,ZGKL 291400Z AUTO 07008KT 7SM 16/13 A2991 RMK T01600130 IEM_DS3505
ZGKL,2008-03-29 15:00,ZGKL 291500Z AUTO 02010KT 8SM 15/10 A2994 RMK SLP149 T01480102 52035 IEM_DS3505
ZGKL,2008-03-29 16:00,ZGKL 291600Z AUTO 05006KT 7SM 15/12 A2994 RMK T01500120 IEM_DS3505
ZGKL,2008-03-29 17:00,ZGKL 291700Z AUTO 07006KT 7SM 14/11 A2994 RMK T01400110 IEM_DS3505
ZGKL,2008-03-29 18:00,ZGKL 291800Z AUTO 02014KT 8SM 13/09 A2994 RMK SLP153 T01320087 52003 IEM_DS3505
ZGKL,2008-03-29 19:00,ZGKL 291900Z AUTO 13/11 A2994 RMK T01300110 IEM_DS3505
ZGKL,2008-03-29 20:00,ZGKL 292000Z AUTO 13/10 A2994 RMK T01300100 IEM_DS3505
ZGKL,2008-03-29 21:00,ZGKL 292100Z AUTO 02008KT 8SM 12/08 A2994 RMK 70002 SLP148 T01220081 57005 IEM_DS3505
ZGKL,2008-03-29 22:00,ZGKL 292200Z AUTO 06010KT 7SM 12/10 A2994 RMK T01200100 IEM_DS3505
ZGKL,2008-03-29 23:00,ZGKL 292300Z AUTO 08008KT 7SM 12/10 A2997 RMK T01200100 IEM_DS3505
ZGKL,2008-03-30 00:00,ZGKL 300000Z AUTO 02008KT 9SM 12/08 A3000 RMK 70001 SLP171 T01180077 52021 IEM_DS3505
ZGKL,2008-03-30 01:00,ZGKL 300100Z AUTO 00000KT 7SM 12/10 A3003 RMK T01200100 IEM_DS3505
ZGKL,2008-03-30 02:00,ZGKL 300200Z AUTO 05004KT 7SM 13/10 A3003 RMK T01300100 IEM_DS3505
ZGKL,2008-03-30 03:00,ZGKL 300300Z AUTO 36008KT 9SM 13/08 A3003 RMK SLP186 T01260079 52014 IEM_DS3505
ZGKL,2008-03-30 04:00,ZGKL 300400Z AUTO 06008KT 7SM 13/10 A3003 RMK T01300100 IEM_DS3505
ZGKL,2008-03-30 05:00,ZGKL 300500Z AUTO 07010KT 7SM 14/10 A3000 RMK T01400100 IEM_DS3505
ZGKL,2008-03-30 06:00,ZGKL 300600Z AUTO 02012KT 11SM 12/08 A3000 RMK SLP171 T01250076 57015 IEM_DS3505
ZGKL,2008-03-30 07:00,ZGKL 300700Z AUTO 06010KT 7SM 13/09 A2997 RMK T01300090 IEM_DS3505
ZGKL,2008-03-30 08:00,ZGKL 300800Z AUTO 07010KT 7SM 13/09 A2997 RMK T01300090 IEM_DS3505
ZGKL,2008-03-30 09:00,ZGKL 300900Z AUTO 02008KT 9SM 12/08 A2994 RMK SLP159 T01220077 57012 IEM_DS3505
ZGKL,2008-03-30 10:00,ZGKL 301000Z AUTO 07008KT 7SM 12/09 A2994 RMK T01200090 IEM_DS3505
ZGKL,2008-03-30 11:00,ZGKL 301100Z AUTO 05008KT 7SM 12/09 A2994 RMK T01200090 IEM_DS3505
ZGKL,2008-03-30 12:00,ZGKL 301200Z AUTO 02010KT 9SM 12/07 A2997 RMK SLP163 T01190070 52003 IEM_DS3505
ZGKL,2008-03-30 13:00,ZGKL 301300Z AUTO 7SM 12/09 A3000 RMK T01200090 IEM_DS3505
ZGKL,2008-03-30 14:00,ZGKL 301400Z AUTO 07006KT 4SM 12/09 A3003 RMK T01200090 IEM_DS3505
ZGKL,2008-03-30 15:00,ZGKL 301500Z AUTO 02008KT 9SM 11/07 A3003 RMK SLP178 T01120073 52015 IEM_DS3505
ZGKL,2008-03-30 16:00,ZGKL 301600Z AUTO 07006KT 4SM 11/09 A3000 RMK T01100090 IEM_DS3505
ZGKL,2008-03-30 17:00,ZGKL 301700Z AUTO 08004KT 11/09 A3000 RMK T01100090 IEM_DS3505
ZGKL,2008-03-30 18:00,ZGKL 301800Z AUTO 02010KT 8SM 11/07 A2997 RMK SLP166 T01100071 57012 IEM_DS3505
ZGKL,2008-03-30 19:00,ZGKL 301900Z AUTO 00000KT 11/09 A2997 RMK T01100090 IEM_DS3505
ZGKL,2008-03-30 20:00,ZGKL 302000Z AUTO 00000KT 11/09 A2997 RMK T01100090 IEM_DS3505
ZGKL,2008-03-30 21:00,ZGKL 302100Z AUTO 02006KT 7SM 11/08 A2997 RMK 70000 SLP162 T01060075 57004 IEM_DS3505
ZGKL,2008-03-30 22:00,ZGKL 302200Z AUTO 00000KT 4SM 11/09 A2997 RMK T01100090 IEM_DS3505
ZGKL,2008-03-30 23:00,ZGKL 302300Z AUTO 00000KT 2 1/2SM 11/09 A3000 RMK T01100090 IEM_DS3505
ZGKL,2008-03-31 00:00,ZGKL 310000Z AUTO 02004KT 6SM 10/08 A3003 RMK 60002 70002 SLP180 T01030081 52018 IEM_DS3505
ZGKL,2008-03-31 01:00,ZGKL 310100Z AUTO 00000KT 2 1/2SM 11/09 A3003 RMK T01100090 IEM_DS3505
ZGKL,2008-03-31 02:00,ZGKL 310200Z AUTO 00000KT 2 1/2SM 11/09 A3006 RMK T01100090 IEM_DS3505
ZGKL,2008-03-31 03:00,ZGKL 310300Z AUTO 02006KT 7SM 12/08 A3006 RMK SLP182 T01210082 52002 IEM_DS3505
ZGKL,2008-03-31 04:00,ZGKL 310400Z AUTO 00000KT 3SM 12/10 A3006 RMK T01200100 IEM_DS3505
ZGKL,2008-03-31 05:00,ZGKL 310500Z AUTO 00000KT 3SM 13/10 A3003 RMK T01300100 IEM_DS3505
ZGKL,2008-03-31 06:00,ZGKL 310600Z AUTO 07004KT 7SM 13/09 A3000 RMK 60000 SLP170 T01290086 57012 IEM_DS3505
ZGKL,2008-03-31 07:00,ZGKL 310700Z AUTO 08004KT 4SM 13/10 A2997 RMK T01300100 IEM_DS3505
ZGKL,2008-03-31 08:00,ZGKL 310800Z AUTO 07006KT 6SM 13/10 A2997 RMK T01300100 IEM_DS3505
ZGKL,2008-03-31 09:00,ZGKL 310900Z AUTO 02002KT 9SM 13/08 A2997 RMK SLP159 T01340085 57010 IEM_DS3505
ZGKL,2008-03-31 10:00,ZGKL 311000Z AUTO 34004KT 5SM 13/10 A2997 RMK T01300100 IEM_DS3505
ZGKL,2008-03-31 11:00,ZGKL 311100Z AUTO 00000KT 3SM 13/11 A3000 RMK T01300110 IEM_DS3505
ZGKL,2008-03-31 12:00,ZGKL 311200Z AUTO 04006KT 7SM 12/08 A3000 RMK SLP177 T01250084 52017 IEM_DS3505
ZGKL,2008-03-31 13:00,ZGKL 311300Z AUTO 06006KT 4SM 13/10 A3003 RMK T01300100 IEM_DS3505
ZGKL,2008-03-31 14:00,ZGKL 311400Z AUTO 04004KT 4SM 12/10 A3003 RMK T01200100 IEM_DS3505
ZGKL,2008-03-31 15:00,ZGKL 311500Z AUTO 02006KT 6SM 13/08 A3006 RMK SLP188 T01260083 52011 IEM_DS3505
ZGKL,2008-03-31 16:00,ZGKL 311600Z AUTO 00000KT 4SM 12/10 A3006 RMK T01200100 IEM_DS3505
ZGKL,2008-03-31 17:00,ZGKL 311700Z AUTO 00000KT 3SM 12/11 A3003 RMK T01200110 IEM_DS3505
ZGKL,2008-03-31 18:00,ZGKL 311800Z AUTO 02004KT 6SM 12/08 A3003 RMK SLP182 T01240081 57005 IEM_DS3505
ZGKL,2008-03-31 19:00,ZGKL 311900Z AUTO 00000KT 12/10 A3003 RMK T01200100 IEM_DS3505
ZGKL,2008-03-31 20:00,ZGKL 312000Z AUTO 00000KT 12/10 A3000 RMK T01200100 IEM_DS3505
ZGKL,2008-03-31 21:00,ZGKL 312100Z AUTO 02006KT 6SM 12/08 A3003 RMK 70003 SLP182 T01220083 54000 IEM_DS3505
ZGKL,2008-03-31 22:00,ZGKL 312200Z AUTO 00000KT 3SM 12/10 A3006 RMK T01200100 IEM_DS3505
ZGKL,2008-03-31 23:00,ZGKL 312300Z AUTO 00000KT 3SM 12/10 A3006 RMK T01200100 IEM_DS3505
ZGKL,2008-04-01 00:00,ZGKL 010000Z AUTO 02006KT 9SM 12/08 A3009 RMK 60000 70000 SLP202 T01220085 52019 IEM_DS3505
ZGKL,2008-04-01 01:00,ZGKL 010100Z AUTO 00000KT 2 1/2SM 13/10 A3012 RMK T01300100 IEM_DS3505
ZGKL,2008-04-01 02:00,ZGKL 010200Z AUTO 00000KT 2 1/2SM 13/10 A3012 RMK T01300100 IEM_DS3505
ZGKL,2008-04-01 03:00,ZGKL 010300Z AUTO 02008KT 7SM 13/09 A3012 RMK SLP216 T01260089 52014 IEM_DS3505
ZGKL,2008-04-01 04:00,ZGKL 010400Z AUTO 00000KT 5SM 14/11 A3012 RMK T01400110 IEM_DS3505
ZGKL,2008-04-01 05:00,ZGKL 010500Z AUTO 00000KT 5SM 14/11 A3009 RMK T01400110 IEM_DS3505
ZGKL,2008-04-01 06:00,ZGKL 010600Z AUTO 04006KT 9SM 14/09 A3006 RMK SLP189 T01420088 57026 IEM_DS3505
ZGKL,2008-04-01 07:00,ZGKL 010700Z AUTO 00000KT 4SM 14/11 A3003 RMK T01400110 IEM_DS3505
ZGKL,2008-04-01 08:00,ZGKL 010800Z AUTO 4SM 14/10 A3003 RMK T01400100 IEM_DS3505
ZGKL,2008-04-01 09:00,ZGKL 010900Z AUTO 04002KT 9SM 14/09 A3003 RMK SLP176 T01420094 57013 IEM_DS3505
ZGKL,2008-04-01 10:00,ZGKL 011000Z AUTO 4SM 14/10 A3003 RMK T01400100 IEM_DS3505
ZGKL,2008-04-01 11:00,ZGKL 011100Z AUTO 00000KT 4SM 14/11 A3003 RMK T01400110 IEM_DS3505
ZGKL,2008-04-01 12:00,ZGKL 011200Z AUTO 02006KT 9SM 14/09 A3006 RMK SLP189 T01350094 52013 IEM_DS3505
ZGKL,2008-04-01 13:00,ZGKL 011300Z AUTO 00000KT 4SM 14/11 A3009 RMK T01400110 IEM_DS3505
ZGKL,2008-04-01 14:00,ZGKL 011400Z AUTO 07004KT 3SM 14/11 A3012 RMK T01400110 IEM_DS3505
ZGKL,2008-04-01 15:00,ZGKL 011500Z AUTO 36006KT 9SM 13/09 A3012 RMK SLP211 T01310094 52021 IEM_DS3505
ZGKL,2008-04-01 16:00,ZGKL 011600Z AUTO 00000KT 4SM 13/11 A3012 RMK T01300110 IEM_DS3505
ZGKL,2008-04-01 18:00,ZGKL 011800Z AUTO 02004KT 8SM 13/09 A3009 RMK SLP202 T01300091 57008 IEM_DS3505
ZGKL,2008-04-01 19:00,ZGKL 011900Z AUTO 00000KT 13/11 A3006 RMK T01300110 IEM_DS3505
ZGKL,2008-04-01 20:00,ZGKL 012000Z AUTO 00000KT 13/12 A3006 RMK T01300120 IEM_DS3505
ZGKL,2008-04-01 21:00,ZGKL 012100Z AUTO 02008KT 8SM 13/09 A3006 RMK 70000 SLP192 T01310086 57010 IEM_DS3505
ZGKL,2008-04-01 22:00,ZGKL 012200Z AUTO 00000KT 1 1/4SM 12/12 A3009 RMK T01200120 IEM_DS3505
ZGKL,2008-04-01 23:00,ZGKL 012300Z AUTO 00000KT 1SM 12/12 A3012 RMK T01200120 IEM_DS3505
ZGKL,2008-04-02 00:00,ZGKL 020000Z AUTO 02004KT 6SM 12/10 A3015 RMK 60016 70016 SLP219 T01200096 52026 IEM_DS3505
ZGKL,2008-04-02 01:00,ZGKL 020100Z AUTO 00000KT 1 1/2SM 12/11 A3015 RMK T01200110 IEM_DS3505
ZGKL,2008-04-02 02:00,ZGKL 020200Z AUTO 00000KT 2SM 13/12 A3015 RMK T01300120 IEM_DS3505
ZGKL,2008-04-02 03:00,ZGKL 020300Z AUTO 02008KT 6SM 13/09 A3015 RMK SLP223 T01340093 52004 IEM_DS3505
ZGKL,2008-04-02 04:00,ZGKL 020400Z AUTO 5SM 14/11 A3015 RMK T01400110 IEM_DS3505
ZGKL,2008-04-02 05:00,ZGKL 020500Z AUTO 09004KT 4SM 13/11 A3015 RMK T01300110 IEM_DS3505
ZGKL,2008-04-02 06:00,ZGKL 020600Z AUTO 07004KT 5SM 12/09 A3012 RMK 60008 SLP212 T01190086 57011 IEM_DS3505
ZGKL,2008-04-02 07:00,ZGKL 020700Z AUTO 06008KT 3SM 13/10 A3009 RMK T01300100 IEM_DS3505
ZGKL,2008-04-02 08:00,ZGKL 020800Z AUTO 4SM 13/10 A3009 RMK T01300100 IEM_DS3505
ZGKL,2008-04-02 09:00,ZGKL 020900Z AUTO 04004KT 6SM 13/08 A3009 RMK SLP198 T01270078 57014 IEM_DS3505
ZGKL,2008-04-02 10:00,ZGKL 021000Z AUTO 5SM 13/09 A3006 RMK T01300090 IEM_DS3505
ZGKL,2008-04-02 11:00,ZGKL 021100Z AUTO 05004KT 4SM 13/09 A3006 RMK T01300090 IEM_DS3505
ZGKL,2008-04-02 12:00,ZGKL 021200Z AUTO 02004KT 7SM 12/07 A3009 RMK 60004 SLP195 T01230070 57003 IEM_DS3505
ZGKL,2008-04-02 13:00,ZGKL 021300Z AUTO 00000KT 3SM 13/09 A3009 RMK T01300090 IEM_DS3505
ZGKL,2008-04-02 14:00,ZGKL 021400Z AUTO 00000KT 3SM 13/09 A3012 RMK T01300090 IEM_DS3505
ZGKL,2008-04-02 15:00,ZGKL 021500Z AUTO 02004KT 7SM 12/06 A3012 RMK SLP210 T01250065 52015 IEM_DS3505
ZGKL,2008-04-02 16:00,ZGKL 021600Z AUTO 00000KT 3SM 12/10 A3009 RMK T01200100 IEM_DS3505
ZGKL,2008-04-02 17:00,ZGKL 021700Z AUTO 00000KT 2 1/2SM 12/11 A3009 RMK T01200110 IEM_DS3505
ZGKL,2008-04-02 18:00,ZGKL 021800Z AUTO 29002KT 7SM 12/07 A3006 RMK SLP194 T01230072 57016 IEM_DS3505
ZGKL,2008-04-02 19:00,ZGKL 021900Z AUTO 00000KT 2 1/2SM 12/11 A3006 RMK T01200110 IEM_DS3505
ZGKL,2008-04-02 20:00,ZGKL 022000Z AUTO 00000KT 2SM 12/11 A3003 RMK T01200110 IEM_DS3505
ZGKL,2008-04-02 21:00,ZGKL 022100Z AUTO 36002KT 6SM 12/08 A3003 RMK 70028 SLP183 T01210082 57011 IEM_DS3505
ZGKL,2008-04-02 22:00,ZGKL 022200Z AUTO 00000KT 2SM 12/11 A3003 RMK T01200110 IEM_DS3505
ZGKL,2008-04-02 23:00,ZGKL 022300Z AUTO 00000KT 2 1/2SM 12/11 A3003 RMK T01200110 IEM_DS3505
ZGKL,2008-04-03 00:00,ZGKL 030000Z AUTO 14002KT 5SM 13/08 A3006 RMK 70013 SLP187 T01290080 52004 IEM_DS3505
ZGKL,2008-04-03 01:00,ZGKL 030100Z AUTO 00000KT 3SM 13/10 A3006 RMK T01300100 IEM_DS3505
ZGKL,2008-04-03 02:00,ZGKL 030200Z AUTO 00000KT 3SM 14/10 A3006 RMK T01400100 IEM_DS3505
ZGKL,2008-04-03 03:00,ZGKL 030300Z AUTO 07002KT 5SM 15/08 A3003 RMK SLP183 T01460081 57003 IEM_DS3505
ZGKL,2008-04-03 04:00,ZGKL 030400Z AUTO 4SM 15/09 A3003 RMK T01500090 IEM_DS3505
ZGKL,2008-04-03 05:00,ZGKL 030500Z AUTO 00000KT 4SM 15/10 A2997 RMK T01500100 IEM_DS3505
ZGKL,2008-04-03 06:00,ZGKL 030600Z AUTO 00000KT 4SM 15/10 A2994 RMK SLP150 T01460096 57032 IEM_DS3505
ZGKL,2008-04-03 07:00,ZGKL 030700Z AUTO 00000KT 3SM 14/11 A2991 RMK T01400110 IEM_DS3505
ZGKL,2008-04-03 08:00,ZGKL 030800Z AUTO 00000KT 1 1/4SM 13/12 A2988 RMK T01300120 IEM_DS3505
ZGKL,2008-04-03 09:00,ZGKL 030900Z AUTO 29002KT 2 1/2SM 13/11 A2988 RMK SLP127 T01300114 57023 IEM_DS3505
ZGKL,2008-04-03 10:00,ZGKL 031000Z AUTO 00000KT 1 1/4SM 13/12 A2985 RMK T01300120 IEM_DS3505
ZGKL,2008-04-03 11:00,ZGKL 031100Z AUTO 00000KT 1SM 13/12 A2985 RMK T01300120 IEM_DS3505
ZGKL,2008-04-03 12:00,ZGKL 031200Z AUTO 36002KT 2SM 13/12 A2988 RMK 60002 SLP127 T01270125 54000 IEM_DS3505
ZGKL,2008-04-03 13:00,ZGKL 031300Z AUTO 03004KT 1SM 13/12 A2988 RMK T01300120 IEM_DS3505
ZGKL,2008-04-03 14:00,ZGKL 031400Z AUTO 1SM 13/13 A2991 RMK T01300130 IEM_DS3505
ZGKL,2008-04-03 15:00,ZGKL 031500Z AUTO 02002KT 1 1/4SM 13/13 A2994 RMK SLP145 T01320132 52018 IEM_DS3505
ZGKL,2008-04-03 16:00,ZGKL 031600Z AUTO 00000KT 1SM 13/13 A2994 RMK T01300130 IEM_DS3505
ZGKL,2008-04-03 17:00,ZGKL 031700Z AUTO 1SM 13/13 A2991 RMK T01300130 IEM_DS3505
ZGKL,2008-04-03 18:00,ZGKL 031800Z AUTO 36002KT 1 1/4SM 13/13 A2991 RMK 60008 SLP139 T01340134 57006 IEM_DS3505
ZGKL,2008-04-03 19:00,ZGKL 031900Z AUTO 00000KT 3/8SM 13/13 A2991 RMK T01300130 IEM_DS3505
ZGKL,2008-04-03 20:00,ZGKL 032000Z AUTO 00000KT 3/8SM 13/13 A2988 RMK T01300130 IEM_DS3505
ZGKL,2008-04-03 21:00,ZGKL 032100Z AUTO 32002KT 2SM 14/14 A2988 RMK 70014 SLP135 T01360136 57004 IEM_DS3505
ZGKL,2008-04-03 22:00,ZGKL 032200Z AUTO 00000KT 1SM 14/13 A2991 RMK T01400130 IEM_DS3505
ZGKL,2008-04-03 23:00,ZGKL 032300Z AUTO 00000KT 1/2SM 14/13 A2994 RMK T01400130 IEM_DS3505
ZGKL,2008-04-04 00:00,ZGKL 040000Z AUTO 36002KT 2SM 14/14 A2994 RMK 60008 70018 SLP155 T01390137 52020 IEM_DS3505
ZGKL,2008-04-04 01:00,ZGKL 040100Z AUTO 1/2SM 14/14 A2997 RMK T01400140 IEM_DS3505
ZGKL,2008-04-04 02:00,ZGKL 040200Z AUTO 00000KT 1SM 15/14 A2997 RMK T01500140 IEM_DS3505
ZGKL,2008-04-04 03:00,ZGKL 040300Z AUTO 02004KT 2SM 15/14 A2997 RMK SLP163 T01490141 52008 IEM_DS3505
ZGKL,2008-04-04 04:00,ZGKL 040400Z AUTO 00000KT 1SM 15/15 A2997 RMK T01500150 IEM_DS3505
ZGKL,2008-04-04 05:00,ZGKL 040500Z AUTO 00000KT 1 1/2SM 16/15 A2994 RMK T01600150 IEM_DS3505
ZGKL,2008-04-04 06:00,ZGKL 040600Z AUTO 02002KT 2SM 16/15 A2994 RMK 60008 SLP143 T01600149 57019 IEM_DS3505
ZGKL,2008-04-04 07:00,ZGKL 040700Z AUTO 00000KT 1SM 16/15 A2991 RMK T01600150 IEM_DS3505
ZGKL,2008-04-04 08:00,ZGKL 040800Z AUTO 06004KT 1SM 16/15 A2988 RMK T01600150 IEM_DS3505
ZGKL,2008-04-04 09:00,ZGKL 040900Z AUTO 02004KT 2SM 16/15 A2988 RMK SLP128 T01590149 57015 IEM_DS3505
ZGKL,2008-04-04 10:00,ZGKL 041000Z AUTO 00000KT 1SM 16/15 A2988 RMK T01600150 IEM_DS3505
ZGKL,2008-04-04 11:00,ZGKL 041100Z AUTO 06004KT 1SM 16/15 A2991 RMK T01600150 IEM_DS3505
ZGKL,2008-04-04 12:00,ZGKL 041200Z AUTO 02004KT 4SM 16/14 A2991 RMK 60004 SLP139 T01550144 52011 IEM_DS3505
ZGKL,2008-04-04 13:00,ZGKL 041300Z AUTO 06004KT 1SM 16/15 A2991 RMK T01600150 IEM_DS3505
ZGKL,2008-04-04 14:00,ZGKL 041400Z AUTO 07004KT 1SM 16/15 A2994 RMK T01600150 IEM_DS3505
ZGKL,2008-04-04 15:00,ZGKL 041500Z AUTO 02002KT 4SM 16/14 A2997 RMK SLP159 T01570137 52020 IEM_DS3505
ZGKL,2008-04-04 16:00,ZGKL 041600Z AUTO 04004KT 1SM 16/15 A2997 RMK T01600150 IEM_DS3505
ZGKL,2008-04-04 17:00,ZGKL 041700Z AUTO 1SM 16/15 A2997 RMK T01600150 IEM_DS3505
ZGKL,2008-04-04 18:00,ZGKL 041800Z AUTO 36004KT 4SM 15/13 A2994 RMK 60000 SLP152 T01520132 57007 IEM_DS3505
ZGKL,2008-04-04 19:00,ZGKL 041900Z AUTO 1SM 15/14 A2994 RMK T01500140 IEM_DS3505
ZGKL,2008-04-04 20:00,ZGKL 042000Z AUTO 00000KT 1SM 15/15 A2991 RMK T01500150 IEM_DS3505
ZGKL,2008-04-04 21:00,ZGKL 042100Z AUTO 27002KT 3SM 15/14 A2994 RMK 70017 SLP145 T01490138 57007 IEM_DS3505
ZGKL,2008-04-04 22:00,ZGKL 042200Z AUTO 00000KT 1SM 15/14 A2994 RMK T01500140 IEM_DS3505
ZGKL,2008-04-04 23:00,ZGKL 042300Z AUTO 1SM 15/15 A2997 RMK T01500150 IEM_DS3505
ZGKL,2008-04-05 00:00,ZGKL 050000Z AUTO 36002KT 2 1/2SM 15/14 A2997 RMK 60016 70025 SLP160 T01470141 52015 IEM_DS3505
ZGKL,2008-04-05 01:00,ZGKL 050100Z AUTO 1SM 15/15 A3000 RMK T01500150 IEM_DS3505
ZGKL,2008-04-05 02:00,ZGKL 050200Z AUTO 00000KT 1SM 16/15 A3000 RMK T01600150 IEM_DS3505
ZGKL,2008-04-05 03:00,ZGKL 050300Z AUTO 00000KT 2 1/2SM 16/14 A3000 RMK SLP167 T01570144 52007 IEM_DS3505
ZGKL,2008-04-05 04:00,ZGKL 050400Z AUTO 15004KT 1 1/2SM 18/17 A2997 RMK T01800170 IEM_DS3505
ZGKL,2008-04-05 05:00,ZGKL 050500Z AUTO 2 1/2SM 19/17 A2994 RMK T01900170 IEM_DS3505
ZGKL,2008-04-05 06:00,ZGKL 050600Z AUTO 36004KT 4SM 18/15 A2991 RMK 60004 SLP144 T01770150 57022 IEM_DS3505
ZGKL,2008-04-05 07:00,ZGKL 050700Z AUTO 2 1/2SM 20/18 A2991 RMK T02000180 IEM_DS3505
ZGKL,2008-04-05 08:00,ZGKL 050800Z AUTO 34006KT 2 1/2SM 19/18 A2988 RMK T01900180 IEM_DS3505
ZGKL,2008-04-05 09:00,ZGKL 050900Z AUTO 29002KT 2 1/2SM 19/17 A2988 RMK SLP127 T01860168 57017 IEM_DS3505
ZGKL,2008-04-05 10:00,ZGKL 051000Z AUTO 00000KT 2SM 20/18 A2988 RMK T02000180 IEM_DS3505
ZGKL,2008-04-05 11:00,ZGKL 051100Z AUTO 1 1/2SM 19/18 A2988 RMK T01900180 IEM_DS3505
ZGKL,2008-04-05 12:00,ZGKL 051200Z AUTO 32002KT 2SM 18/17 A2988 RMK SLP134 T01810171 52007 IEM_DS3505
ZGKL,2008-04-05 13:00,ZGKL 051300Z AUTO 00000KT 1 1/4SM 19/18 A2991 RMK T01900180 IEM_DS3505
ZGKL,2008-04-05 14:00,ZGKL 051400Z AUTO 00000KT 1 1/4SM 19/18 A2994 RMK T01900180 IEM_DS3505
ZGKL,2008-04-05 15:00,ZGKL 051500Z AUTO 16002KT 2SM 18/17 A2997 RMK SLP150 T01790169 52016 IEM_DS3505
ZGKL,2008-04-05 16:00,ZGKL 051600Z AUTO 00000KT 1 1/4SM 19/18 A2994 RMK T01900180 IEM_DS3505
ZGKL,2008-04-05 17:00,ZGKL 051700Z AUTO 00000KT 1SM 19/18 A2994 RMK T01900180 IEM_DS3505
ZGKL,2008-04-05 18:00,ZGKL 051800Z AUTO 16002KT 2SM 18/17 A2994 RMK SLP141 T01780172 57008 IEM_DS3505
ZGKL,2008-04-05 19:00,ZGKL 051900Z AUTO 00000KT 1SM 19/18 A2991 RMK T01900180 IEM_DS3505
ZGKL,2008-04-05 20:00,ZGKL 052000Z AUTO 00000KT 1SM 19/18 A2988 RMK T01900180 IEM_DS3505
ZGKL,2008-04-05 21:00,ZGKL 052100Z AUTO 16002KT 1 1/4SM 18/17 A2988 RMK 70017 SLP131 T01780172 57010 IEM_DS3505
ZGKL,2008-04-05 22:00,ZGKL 052200Z AUTO 00000KT 1SM 18/18 A2991 RMK T01800180 IEM_DS3505
ZGKL,2008-04-05 23:00,ZGKL 052300Z AUTO 00000KT 1SM 18/18 A2991 RMK T01800180 IEM_DS3505
ZGKL,2008-04-06 00:00,ZGKL 060000Z AUTO 00000KT 1 1/4SM 18/18 A2994 RMK 70004 SLP147 T01830178 52016 IEM_DS3505
ZGKL,2008-04-06 01:00,ZGKL 060100Z AUTO 00000KT 1 1/4SM 20/19 A2994 RMK T02000190 IEM_DS3505
ZGKL,2008-04-06 02:00,ZGKL 060200Z AUTO 00000KT 1 1/2SM 22/20 A2994 RMK T02200200 IEM_DS3505
ZGKL,2008-04-06 03:00,ZGKL 060300Z AUTO 16002KT 4SM 23/20 A2994 RMK SLP144 T02300196 57001 IEM_DS3505
ZGKL,2008-04-06 04:00,ZGKL 060400Z AUTO 14006KT 3SM 24/21 A2991 RMK T02400210 IEM_DS3505
ZGKL,2008-04-06 05:00,ZGKL 060500Z AUTO 4SM 24/21 A2991 RMK T02400210 IEM_DS3505
ZGKL,2008-04-06 06:00,ZGKL 060600Z AUTO 00000KT 6SM 23/20 A2988 RMK SLP124 T02320203 57020 IEM_DS3505
ZGKL,2008-04-06 07:00,ZGKL 060700Z AUTO 00000KT 4SM 25/21 A2985 RMK T02500210 IEM_DS3505
ZGKL,2008-04-06 08:00,ZGKL 060800Z AUTO 4SM 26/21 A2983 RMK T02600210 IEM_DS3505
ZGKL,2008-04-06 09:00,ZGKL 060900Z AUTO 32002KT 7SM 25/21 A2980 RMK SLP099 T02520207 57024 IEM_DS3505
ZGKL,2008-04-06 10:00,ZGKL 061000Z AUTO 00000KT 4SM 25/22 A2980 RMK T02500220 IEM_DS3505
ZGKL,2008-04-06 11:00,ZGKL 061100Z AUTO 3SM 24/22 A2980 RMK T02400220 IEM_DS3505
ZGKL,2008-04-06 12:00,ZGKL 061200Z AUTO 36002KT 5SM 22/20 A2983 RMK SLP102 T02190204 52002 IEM_DS3505
ZGKL,2008-04-06 13:00,ZGKL 061300Z AUTO 00000KT 2SM 22/21 A2983 RMK T02200210 IEM_DS3505
ZGKL,2008-04-06 14:00,ZGKL 061400Z AUTO 00000KT 1 1/2SM 22/21 A2985 RMK T02200210 IEM_DS3505
ZGKL,2008-04-06 15:00,ZGKL 061500Z AUTO 00000KT 4SM 21/20 A2985 RMK SLP109 T02110201 52008 IEM_DS3505
ZGKL,2008-04-06 16:00,ZGKL 061600Z AUTO 00000KT 1 1/4SM 21/21 A2985 RMK T02100210 IEM_DS3505
ZGKL,2008-04-06 17:00,ZGKL 061700Z AUTO 00000KT 1 1/4SM 21/20 A2983 RMK T02100200 IEM_DS3505
ZGKL,2008-04-06 18:00,ZGKL 061800Z AUTO 27002KT 4SM 20/20 A2980 RMK SLP100 T02040197 57009 IEM_DS3505
ZGKL,2008-04-06 19:00,ZGKL 061900Z AUTO 00000KT 1SM 21/20 A2980 RMK T02100200 IEM_DS3505
ZGKL,2008-04-06 20:00,ZGKL 062000Z AUTO 00000KT 1SM 21/20 A2977 RMK T02100200 IEM_DS3505
ZGKL,2008-04-06 21:00,ZGKL 062100Z AUTO 14002KT 3SM 20/20 A2977 RMK SLP084 T02050202 57015 IEM_DS3505
ZGKL,2008-04-06 22:00,ZGKL 062200Z AUTO 18008KT 4SM 23/21 A2977 RMK T02300210 IEM_DS3505
ZGKL,2008-04-06 23:00,ZGKL 062300Z AUTO 18010KT 5SM 23/21 A2980 RMK T02300210 IEM_DS3505
ZGKL,2008-04-07 00:00,ZGKL 070000Z AUTO 14002KT 5SM 22/20 A2980 RMK SLP097 T02150200 52012 IEM_DS3505
ZGKL,2008-04-07 01:00,ZGKL 070100Z AUTO 18012KT 4SM 24/21 A2983 RMK T02400210 IEM_DS3505
ZGKL,2008-04-07 02:00,ZGKL 070200Z AUTO 18014KT 5SM 24/21 A2980 RMK T02400210 IEM_DS3505
ZGKL,2008-04-07 03:00,ZGKL 070300Z AUTO 18004KT 5SM 24/20 A2980 RMK SLP097 T02360201 52001 IEM_DS3505
ZGKL,2008-04-07 04:00,ZGKL 070400Z AUTO 18012KT 7SM 26/21 A2977 RMK T02600210 IEM_DS3505
ZGKL,2008-04-07 05:00,ZGKL 070500Z AUTO 19010KT 7SM 26/22 A2977 RMK T02600220 IEM_DS3505
ZGKL,2008-04-07 06:00,ZGKL 070600Z AUTO 16002KT 7SM 24/21 A2974 RMK SLP066 T02420207 57031 IEM_DS3505
ZGKL,2008-04-07 07:00,ZGKL 070700Z AUTO 19008KT 7SM 27/22 A2968 RMK T02700220 IEM_DS3505
ZGKL,2008-04-07 08:00,ZGKL 070800Z AUTO 20010KT 7SM 28/21 A2965 RMK T02800210 IEM_DS3505
ZGKL,2008-04-07 09:00,ZGKL 070900Z AUTO 25002KT 7SM 28/20 A2962 RMK SLP032 T02810201 57032 IEM_DS3505
ZGKL,2008-04-07 10:00,ZGKL 071000Z AUTO 18004KT 7SM 28/22 A2962 RMK T02800220 IEM_DS3505
ZGKL,2008-04-07 11:00,ZGKL 071100Z AUTO 5SM 26/22 A2962 RMK T02600220 IEM_DS3505
ZGKL,2008-04-07 12:00,ZGKL 071200Z AUTO 00000KT 7SM 24/21 A2962 RMK SLP029 T02360211 57004 IEM_DS3505
ZGKL,2008-04-07 13:00,ZGKL 071300Z AUTO 20004KT 4SM 26/22 A2962 RMK T02600220 IEM_DS3505
ZGKL,2008-04-07 14:00,ZGKL 071400Z AUTO 17010KT 5SM 26/22 A2965 RMK T02600220 IEM_DS3505
ZGKL,2008-04-07 15:00,ZGKL 071500Z AUTO 18004KT 6SM 25/20 A2965 RMK SLP043 T02530201 52015 IEM_DS3505
ZGKL,2008-04-07 16:00,ZGKL 071600Z AUTO 17012KT 7SM 26/22 A2965 RMK T02600220 IEM_DS3505
ZGKL,2008-04-07 17:00,ZGKL 071700Z AUTO 18014KT 7SM 26/21 A2965 RMK T02600210 IEM_DS3505
ZGKL,2008-04-07 18:00,ZGKL 071800Z AUTO 18002KT 7SM 25/20 A2962 RMK SLP031 T02460205 57012 IEM_DS3505
ZGKL,2008-04-07 19:00,ZGKL 071900Z AUTO 17014KT 7SM 26/21 A2959 RMK T02600210 IEM_DS3505
ZGKL,2008-04-07 20:00,ZGKL 072000Z AUTO 17016KT 7SM 25/21 A2959 RMK T02500210 IEM_DS3505
ZGKL,2008-04-07 21:00,ZGKL 072100Z AUTO 18004KT 7SM 25/20 A2959 RMK SLP014 T02480196 57015 IEM_DS3505
ZGKL,2008-04-07 22:00,ZGKL 072200Z AUTO 16012KT 7SM 25/21 A2959 RMK T02500210 IEM_DS3505
ZGKL,2008-04-07 23:00,ZGKL 072300Z AUTO 17012KT 7SM 25/21 A2959 RMK T02500210 IEM_DS3505
ZGKL,2008-04-08 00:00,ZGKL 080000Z AUTO 18004KT 8SM 24/20 A2962 RMK SLP028 T02420199 52012 IEM_DS3505
ZGKL,2008-04-08 01:00,ZGKL 080100Z AUTO 17010KT 7SM 25/21 A2962 RMK T02500210 IEM_DS3505
ZGKL,2008-04-08 02:00,ZGKL 080200Z AUTO 19010KT 7SM 26/22 A2962 RMK T02600220 IEM_DS3505
ZGKL,2008-04-08 03:00,ZGKL 080300Z AUTO 18006KT 9SM 27/20 A2962 RMK SLP025 T02670205 57002 IEM_DS3505
ZGKL,2008-04-08 04:00,ZGKL 080400Z AUTO 18012KT 7SM 27/22 A2959 RMK T02700220 IEM_DS3505
ZGKL,2008-04-08 05:00,ZGKL 080500Z AUTO 18014KT 7SM 28/22 A2956 RMK T02800220 IEM_DS3505
ZGKL,2008-04-08 06:00,ZGKL 080600Z AUTO 18006KT 10SM 30/21 A2953 RMK SLP004 T02980206 57020 IEM_DS3505
ZGKL,2008-04-08 07:00,ZGKL 080700Z AUTO 20012KT 7SM 31/22 A2953 RMK T03100220 IEM_DS3505
ZGKL,2008-04-08 08:00,ZGKL 080800Z AUTO 19010KT 7SM 31/22 A2950 RMK T03100220 IEM_DS3505
ZGKL,2008-04-08 09:00,ZGKL 080900Z AUTO 22006KT 11SM 31/20 A2950 RMK SLP989 T03080204 57014 IEM_DS3505
ZGKL,2008-04-08 10:00,ZGKL 081000Z AUTO 19010KT 7SM 29/23 A2950 RMK T02900230 IEM_DS3505
ZGKL,2008-04-08 11:00,ZGKL 081100Z AUTO 17010KT 7SM 28/23 A2953 RMK T02800230 IEM_DS3505
ZGKL,2008-04-08 12:00,ZGKL 081200Z AUTO 18002KT 9SM 28/21 A2956 RMK SLP005 T02810214 52015 IEM_DS3505
ZGKL,2008-04-08 13:00,ZGKL 081300Z AUTO 22002KT 7SM 26/22 A2959 RMK T02600220 IEM_DS3505
ZGKL,2008-04-08 14:00,ZGKL 081400Z AUTO 00000KT 4SM 25/22 A2962 RMK T02500220 IEM_DS3505
ZGKL,2008-04-08 15:00,ZGKL 081500Z AUTO 22002KT 9SM 27/21 A2962 RMK SLP029 T02680213 52024 IEM_DS3505
ZGKL,2008-04-08 16:00,ZGKL 081600Z AUTO 00000KT 3SM 24/23 A2962 RMK T02400230 IEM_DS3505
ZGKL,2008-04-08 17:00,ZGKL 081700Z AUTO 00000KT 3SM 24/22 A2962 RMK T02400220 IEM_DS3505
ZGKL,2008-04-08 18:00,ZGKL 081800Z AUTO 09002KT 7SM 24/21 A2962 RMK SLP032 T02420213 52003 IEM_DS3505
ZGKL,2008-04-08 19:00,ZGKL 081900Z AUTO 2SM 22/21 A2962 RMK T02200210 IEM_DS3505
ZGKL,2008-04-08 20:00,ZGKL 082000Z AUTO 1 1/4SM 21/21 A2962 RMK T02100210 IEM_DS3505
ZGKL,2008-04-08 21:00,ZGKL 082100Z AUTO 09002KT 7SM 23/21 A2962 RMK SLP035 T02280213 52003 IEM_DS3505
ZGKL,2008-04-08 22:00,ZGKL 082200Z AUTO 00000KT 1 1/4SM 21/20 A2965 RMK T02100200 IEM_DS3505
ZGKL,2008-04-08 23:00,ZGKL 082300Z AUTO 00000KT 1 1/4SM 21/20 A2968 RMK T02100200 IEM_DS3505
ZGKL,2008-04-09 00:00,ZGKL 090000Z AUTO 11002KT 6SM 23/21 A2971 RMK SLP061 T02340211 52025 IEM_DS3505
ZGKL,2008-04-09 01:00,ZGKL 090100Z AUTO 00000KT 2SM 24/23 A2974 RMK T02400230 IEM_DS3505
ZGKL,2008-04-09 02:00,ZGKL 090200Z AUTO 00000KT 2SM 24/23 A2974 RMK T02400230 IEM_DS3505
ZGKL,2008-04-09 03:00,ZGKL 090300Z AUTO 07002KT 6SM 26/20 A2974 RMK SLP075 T02600196 52014 IEM_DS3505
ZGKL,2008-04-09 04:00,ZGKL 090400Z AUTO 05010KT 4SM 26/20 A2974 RMK T02600200 IEM_DS3505
ZGKL,2008-04-09 05:00,ZGKL 090500Z AUTO 05004KT 4SM 26/19 A2974 RMK T02600190 IEM_DS3505
ZGKL,2008-04-09 06:00,ZGKL 090600Z AUTO 02008KT 7SM 28/17 A2971 RMK SLP058 T02800172 57017 IEM_DS3505
ZGKL,2008-04-09 07:00,ZGKL 090700Z AUTO 7SM 27/20 A2971 RMK T02700200 IEM_DS3505
ZGKL,2008-04-09 08:00,ZGKL 090800Z AUTO 00000KT 5SM 27/20 A2968 RMK T02700200 IEM_DS3505
ZGKL,2008-04-09 09:00,ZGKL 090900Z AUTO 02006KT 8SM 26/14 A2968 RMK SLP054 T02650143 57005 IEM_DS3505
ZGKL,2008-04-09 10:00,ZGKL 091000Z AUTO 03006KT 7SM 26/16 A2971 RMK T02600160 IEM_DS3505
ZGKL,2008-04-09 11:00,ZGKL 091100Z AUTO 04006KT 7SM 26/15 A2971 RMK T02600150 IEM_DS3505
ZGKL,2008-04-09 12:00,ZGKL 091200Z AUTO 02004KT 8SM 25/13 A2974 RMK 60000 SLP071 T02520131 52016 IEM_DS3505
ZGKL,2008-04-09 13:00,ZGKL 091300Z AUTO 03006KT 7SM 25/13 A2977 RMK T02500130 IEM_DS3505
ZGKL,2008-04-09 14:00,ZGKL 091400Z AUTO 5SM 23/17 A2980 RMK T02300170 IEM_DS3505
ZGKL,2008-04-09 15:00,ZGKL 091500Z AUTO 36006KT 8SM 25/13 A2980 RMK SLP096 T02480127 52026 IEM_DS3505
ZGKL,2008-04-09 16:00,ZGKL 091600Z AUTO 00000KT 5SM 23/18 A2983 RMK T02300180 IEM_DS3505
ZGKL,2008-04-09 17:00,ZGKL 091700Z AUTO 00000KT 4SM 22/19 A2983 RMK T02200190 IEM_DS3505
ZGKL,2008-04-09 18:00,ZGKL 091800Z AUTO 02006KT 8SM 24/13 A2980 RMK SLP092 T02410130 57004 IEM_DS3505
ZGKL,2008-04-09 19:00,ZGKL 091900Z AUTO 00000KT 4SM 22/19 A2980 RMK T02200190 IEM_DS3505
ZGKL,2008-04-09 20:00,ZGKL 092000Z AUTO 00000KT 5SM 22/17 A2980 RMK T02200170 IEM_DS3505
ZGKL,2008-04-09 21:00,ZGKL 092100Z AUTO 02006KT 7SM 23/11 A2980 RMK 70000 SLP087 T02320106 57006 IEM_DS3505
ZGKL,2008-04-09 22:00,ZGKL 092200Z AUTO 00000KT 5SM 22/15 A2980 RMK T02200150 IEM_DS3505
ZGKL,2008-04-09 23:00,ZGKL 092300Z AUTO 04004KT 7SM 22/14 A2980 RMK T02200140 IEM_DS3505
ZGKL,2008-04-10 00:00,ZGKL 100000Z AUTO 02008KT 8SM 22/12 A2983 RMK 70000 SLP099 T02250119 52012 IEM_DS3505
ZGKL,2008-04-10 01:00,ZGKL 100100Z AUTO 07004KT 7SM 23/13 A2983 RMK T02300130 IEM_DS3505
ZGKL,2008-04-10 02:00,ZGKL 100200Z AUTO 07004KT 7SM 23/13 A2983 RMK T02300130 IEM_DS3505
ZGKL,2008-04-10 03:00,ZGKL 100300Z AUTO 02006KT 8SM 24/12 A2983 RMK SLP096 T02350122 57003 IEM_DS3505
ZGKL,2008-04-10 04:00,ZGKL 100400Z AUTO 04008KT 7SM 25/13 A2980 RMK T02500130 IEM_DS3505
ZGKL,2008-04-10 05:00,ZGKL 100500Z AUTO 05006KT 7SM 24/13 A2977 RMK T02400130 IEM_DS3505
ZGKL,2008-04-10 06:00,ZGKL 100600Z AUTO 02006KT 8SM 23/13 A2974 RMK SLP070 T02330126 57026 IEM_DS3505
ZGKL,2008-04-10 07:00,ZGKL 100700Z AUTO 03008KT 7SM 25/13 A2971 RMK T02500130 IEM_DS3505
ZGKL,2008-04-10 08:00,ZGKL 100800Z AUTO 7SM 24/14 A2968 RMK T02400140 IEM_DS3505
ZGKL,2008-04-10 09:00,ZGKL 100900Z AUTO 36004KT 6SM 24/14 A2968 RMK SLP050 T02370141 57020 IEM_DS3505
ZGKL,2008-04-10 10:00,ZGKL 101000Z AUTO 00000KT 4SM 23/15 A2968 RMK T02300150 IEM_DS3505
ZGKL,2008-04-10 11:00,ZGKL 101100Z AUTO 00000KT 3SM 22/17 A2968 RMK T02200170 IEM_DS3505
ZGKL,2008-04-10 12:00,ZGKL 101200Z AUTO 02004KT 6SM 23/15 A2968 RMK SLP055 T02300146 52005 IEM_DS3505
ZGKL,2008-04-10 13:00,ZGKL 101300Z AUTO 00000KT 2 1/2SM 22/19 A2971 RMK T02200190 IEM_DS3505
ZGKL,2008-04-10 14:00,ZGKL 101400Z AUTO 00000KT 2 1/2SM 21/19 A2974 RMK T02100190 IEM_DS3505
ZGKL,2008-04-10 15:00,ZGKL 101500Z AUTO 02004KT 6SM 23/14 A2977 RMK SLP074 T02270145 52019 IEM_DS3505
ZGKL,2008-04-10 16:00,ZGKL 101600Z AUTO 00000KT 3SM 21/18 A2974 RMK T02100180 IEM_DS3505
ZGKL,2008-04-10 17:00,ZGKL 101700Z AUTO 00000KT 2 1/2SM 21/18 A2974 RMK T02100180 IEM_DS3505
ZGKL,2008-04-10 18:00,ZGKL 101800Z AUTO 36004KT 6SM 21/16 A2974 RMK 60000 SLP073 T02140157 57002 IEM_DS3505
ZGKL,2008-04-10 19:00,ZGKL 101900Z AUTO 00000KT 2 1/2SM 21/18 A2974 RMK T02100180 IEM_DS3505
ZGKL,2008-04-10 20:00,ZGKL 102000Z AUTO 00000KT 2SM 21/17 A2971 RMK T02100170 IEM_DS3505
ZGKL,2008-04-10 21:00,ZGKL 102100Z AUTO 02004KT 6SM 21/16 A2974 RMK 70001 SLP064 T02110161 57009 IEM_DS3505
ZGKL,2008-04-10 22:00,ZGKL 102200Z AUTO 00000KT 2SM 21/18 A2974 RMK T02100180 IEM_DS3505
ZGKL,2008-04-10 23:00,ZGKL 102300Z AUTO 00000KT 1 1/2SM 21/18 A2974 RMK T02100180 IEM_DS3505
ZGKL,2008-04-11 00:00,ZGKL 110000Z AUTO 02008KT 5SM 18/16 A2977 RMK 60020 70022 SLP080 T01850157 52015 IEM_DS3505
ZGKL,2008-04-11 01:00,ZGKL 110100Z AUTO 05004KT 1 1/2SM 19/17 A2980 RMK T01900170 IEM_DS3505
ZGKL,2008-04-11 02:00,ZGKL 110200Z AUTO 1 1/2SM 19/17 A2980 RMK T01900170 IEM_DS3505
ZGKL,2008-04-11 03:00,ZGKL 110300Z AUTO 02006KT 4SM 18/15 A2980 RMK SLP090 T01820151 52010 IEM_DS3505
ZGKL,2008-04-11 04:00,ZGKL 110400Z AUTO 06006KT 1 1/2SM 19/17 A2977 RMK T01900170 IEM_DS3505
ZGKL,2008-04-11 05:00,ZGKL 110500Z AUTO 1 1/2SM 19/17 A2977 RMK T01900170 IEM_DS3505
ZGKL,2008-04-11 06:00,ZGKL 110600Z AUTO 02006KT 3SM 17/15 A2974 RMK 60004 SLP074 T01740147 57017 IEM_DS3505
ZGKL,2008-04-11 07:00,ZGKL 110700Z AUTO 00000KT 1 1/4SM 18/17 A2974 RMK T01800170 IEM_DS3505
ZGKL,2008-04-11 08:00,ZGKL 110800Z AUTO 05004KT 1SM 17/17 A2971 RMK T01700170 IEM_DS3505
ZGKL,2008-04-11 09:00,ZGKL 110900Z AUTO 02004KT 2 1/2SM 17/16 A2971 RMK SLP070 T01680157 57004 IEM_DS3505
ZGKL,2008-04-11 10:00,ZGKL 111000Z AUTO 05004KT 1/2SM 17/16 A2974 RMK T01700160 IEM_DS3505
ZGKL,2008-04-11 11:00,ZGKL 111100Z AUTO 1/2SM 17/16 A2977 RMK T01700160 IEM_DS3505
ZGKL,2008-04-11 12:00,ZGKL 111200Z AUTO 02006KT 2SM 17/15 A2977 RMK 60012 SLP089 T01660150 52018 IEM_DS3505
ZGKL,2008-04-11 13:00,ZGKL 111300Z AUTO 1SM 17/16 A2980 RMK T01700160 IEM_DS3505
ZGKL,2008-04-11 14:00,ZGKL 111400Z AUTO 05004KT 1 1/4SM 17/16 A2983 RMK T01700160 IEM_DS3505
ZGKL,2008-04-11 15:00,ZGKL 111500Z AUTO 02008KT 2SM 16/14 A2988 RMK SLP121 T01650140 52031 IEM_DS3505
ZGKL,2008-04-11 16:00,ZGKL 111600Z AUTO 04004KT 3SM 17/16 A2988 RMK T01700160 IEM_DS3505
ZGKL,2008-04-11 17:00,ZGKL 111700Z AUTO 3SM 17/15 A2988 RMK T01700150 IEM_DS3505
ZGKL,2008-04-11 18:00,ZGKL 111800Z AUTO 02008KT 3SM 17/13 A2988 RMK 60001 SLP126 T01660133 52005 IEM_DS3505
ZGKL,2008-04-11 19:00,ZGKL 111900Z AUTO 06004KT 4SM 17/15 A2985 RMK T01700150 IEM_DS3505
ZGKL,2008-04-11 20:00,ZGKL 112000Z AUTO 7SM 16/15 A2985 RMK T01600150 IEM_DS3505
ZGKL,2008-04-11 21:00,ZGKL 112100Z AUTO 02008KT 4SM 16/13 A2985 RMK 70038 SLP114 T01620127 57012 IEM_DS3505
ZGKL,2008-04-11 22:00,ZGKL 112200Z AUTO 7SM 16/15 A2988 RMK T01600150 IEM_DS3505
ZGKL,2008-04-11 23:00,ZGKL 112300Z AUTO 10004KT 4SM 16/15 A2988 RMK T01600150 IEM_DS3505
ZGKL,2008-04-12 00:00,ZGKL 120000Z AUTO 36008KT 9SM 16/13 A2991 RMK 60000 70018 SLP136 T01610130 52021 IEM_DS3505
ZGKL,2008-04-12 01:00,ZGKL 120100Z AUTO 3SM 16/15 A2994 RMK T01600150 IEM_DS3505
ZGKL,2008-04-12 02:00,ZGKL 120200Z AUTO 2 1/2SM 16/15 A2994 RMK T01600150 IEM_DS3505
ZGKL,2008-04-12 03:00,ZGKL 120300Z AUTO 02008KT 9SM 15/13 A2994 RMK SLP153 T01540132 52016 IEM_DS3505
ZGKL,2008-04-12 04:00,ZGKL 120400Z AUTO 06004KT 2SM 16/15 A2994 RMK T01600150 IEM_DS3505
ZGKL,2008-04-12 05:00,ZGKL 120500Z AUTO 07006KT 4SM 16/15 A2991 RMK T01600150 IEM_DS3505
ZGKL,2008-04-12 06:00,ZGKL 120600Z AUTO 02010KT 9SM 16/13 A2991 RMK 60012 SLP138 T01620131 57014 IEM_DS3505
ZGKL,2008-04-12 07:00,ZGKL 120700Z AUTO 07004KT 3SM 17/15 A2988 RMK T01700150 IEM_DS3505
ZGKL,2008-04-12 08:00,ZGKL 120800Z AUTO 06004KT 6SM 17/15 A2988 RMK T01700150 IEM_DS3505
ZGKL,2008-04-12 09:00,ZGKL 120900Z AUTO 02006KT 11SM 16/13 A2988 RMK SLP123 T01610128 57015 IEM_DS3505
ZGKL,2008-04-12 10:00,ZGKL 121000Z AUTO 08004KT 3SM 16/15 A2988 RMK T01600150 IEM_DS3505
ZGKL,2008-04-12 11:00,ZGKL 121100Z AUTO 00000KT 3SM 16/15 A2991 RMK T01600150 IEM_DS3505
ZGKL,2008-04-12 12:00,ZGKL 121200Z AUTO 02008KT 9SM 16/12 A2991 RMK 60002 SLP140 T01600124 52017 IEM_DS3505
ZGKL,2008-04-12 13:00,ZGKL 121300Z AUTO 3SM 16/15 A2994 RMK T01600150 IEM_DS3505
ZGKL,2008-04-12 14:00,ZGKL 121400Z AUTO 09004KT 3SM 16/14 A2997 RMK T01600140 IEM_DS3505
ZGKL,2008-04-12 15:00,ZGKL 121500Z AUTO 02010KT 9SM 16/12 A2997 RMK SLP159 T01610123 52018 IEM_DS3505
ZGKL,2008-04-12 16:00,ZGKL 121600Z AUTO 22002KT 3SM 16/14 A2997 RMK T01600140 IEM_DS3505
ZGKL,2008-04-12 17:00,ZGKL 121700Z AUTO 06004KT 3SM 15/14 A2994 RMK T01500140 IEM_DS3505
ZGKL,2008-04-12 18:00,ZGKL 121800Z AUTO 02008KT 9SM 16/12 A2994 RMK 60000 SLP144 T01560125 57014 IEM_DS3505
ZGKL,2008-04-12 19:00,ZGKL 121900Z AUTO 00000KT 2 1/2SM 15/14 A2991 RMK T01500140 IEM_DS3505
ZGKL,2008-04-12 20:00,ZGKL 122000Z AUTO 2SM 15/15 A2991 RMK T01500150 IEM_DS3505
ZGKL,2008-04-12 21:00,ZGKL 122100Z AUTO 02004KT 8SM 15/13 A2991 RMK 70015 SLP137 T01480127 57008 IEM_DS3505
ZGKL,2008-04-12 22:00,ZGKL 122200Z AUTO 00000KT 2SM 15/15 A2994 RMK T01500150 IEM_DS3505
ZGKL,2008-04-12 23:00,ZGKL 122300Z AUTO 12002KT 1 1/2SM 15/14 A2997 RMK T01500140 IEM_DS3505
ZGKL,2008-04-13 00:00,ZGKL 130000Z AUTO 04006KT 8SM 15/13 A3000 RMK 60004 70017 SLP165 T01530128 52028 IEM_DS3505
ZGKL,2008-04-13 01:00,ZGKL 130100Z AUTO 2SM 16/15 A3000 RMK T01600150 IEM_DS3505
ZGKL,2008-04-13 02:00,ZGKL 130200Z AUTO 00000KT 2 1/2SM 16/14 A3003 RMK T01600140 IEM_DS3505
ZGKL,2008-04-13 03:00,ZGKL 130300Z AUTO 36006KT 9SM 16/12 A3003 RMK SLP174 T01620124 52009 IEM_DS3505
ZGKL,2008-04-13 04:00,ZGKL 130400Z AUTO 4SM 17/15 A3000 RMK T01700150 IEM_DS3505
ZGKL,2008-04-13 05:00,ZGKL 130500Z AUTO 00000KT 4SM 17/15 A3000 RMK T01700150 IEM_DS3505
ZGKL,2008-04-13 06:00,ZGKL 130600Z AUTO 02006KT 9SM 16/12 A2997 RMK 60000 SLP158 T01620124 57016 IEM_DS3505
ZGKL,2008-04-13 07:00,ZGKL 130700Z AUTO 06006KT 7SM 16/14 A2994 RMK T01600140 IEM_DS3505
ZGKL,2008-04-13 08:00,ZGKL 130800Z AUTO 7SM 16/14 A2991 RMK T01600140 IEM_DS3505
ZGKL,2008-04-13 09:00,ZGKL 130900Z AUTO 02006KT 9SM 16/12 A2991 RMK SLP139 T01590125 57019 IEM_DS3505
ZGKL,2008-04-13 10:00,ZGKL 131000Z AUTO 00000KT 2 1/2SM 15/15 A2991 RMK T01500150 IEM_DS3505
ZGKL,2008-04-13 11:00,ZGKL 131100Z AUTO 00000KT 2 1/2SM 15/14 A2991 RMK T01500140 IEM_DS3505
ZGKL,2008-04-13 12:00,ZGKL 131200Z AUTO 02006KT 7SM 15/12 A2994 RMK 60000 SLP145 T01530122 52006 IEM_DS3505
ZGKL,2008-04-13 13:00,ZGKL 131300Z AUTO 3SM 15/14 A2994 RMK T01500140 IEM_DS3505
ZGKL,2008-04-13 14:00,ZGKL 131400Z AUTO 00000KT 3SM 15/14 A2997 RMK T01500140 IEM_DS3505
ZGKL,2008-04-13 15:00,ZGKL 131500Z AUTO 02006KT 7SM 15/12 A2997 RMK SLP160 T01460125 52015 IEM_DS3505
ZGKL,2008-04-13 16:00,ZGKL 131600Z AUTO 00000KT 3SM 15/14 A2997 RMK T01500140 IEM_DS3505
ZGKL,2008-04-13 17:00,ZGKL 131700Z AUTO 00000KT 2 1/2SM 15/14 A2997 RMK T01500140 IEM_DS3505
ZGKL,2008-04-13 18:00,ZGKL 131800Z AUTO 36006KT 7SM 15/12 A2994 RMK 60000 SLP152 T01470118 57008 IEM_DS3505
ZGKL,2008-04-13 19:00,ZGKL 131900Z AUTO 00000KT 2SM 15/14 A2994 RMK T01500140 IEM_DS3505
ZGKL,2008-04-13 20:00,ZGKL 132000Z AUTO 00000KT 2SM 15/13 A2991 RMK T01500130 IEM_DS3505
ZGKL,2008-04-13 21:00,ZGKL 132100Z AUTO 34002KT 7SM 14/12 A2991 RMK 70002 SLP140 T01450122 57012 IEM_DS3505
ZGKL,2008-04-13 22:00,ZGKL 132200Z AUTO 00000KT 2 1/2SM 15/13 A2994 RMK T01500130 IEM_DS3505
ZGKL,2008-04-13 23:00,ZGKL 132300Z AUTO 34006KT 2 1/2SM 15/13 A2994 RMK T01500130 IEM_DS3505
ZGKL,2008-04-14 00:00,ZGKL 140000Z AUTO 36004KT 9SM 15/12 A2997 RMK 60000 70000 SLP159 T01520120 52019 IEM_DS3505
ZGKL,2008-04-14 01:00,ZGKL 140100Z AUTO 00000KT 2 1/2SM 15/14 A3000 RMK T01500140 IEM_DS3505
ZGKL,2008-04-14 02:00,ZGKL 140200Z AUTO 00000KT 2 1/2SM 16/14 A3000 RMK T01600140 IEM_DS3505
ZGKL,2008-04-14 03:00,ZGKL 140300Z AUTO 04002KT 9SM 17/12 A2997 RMK SLP162 T01740125 52003 IEM_DS3505
ZGKL,2008-04-14 04:00,ZGKL 140400Z AUTO 5SM 18/14 A2997 RMK T01800140 IEM_DS3505
ZGKL,2008-04-14 05:00,ZGKL 140500Z AUTO 6SM 20/14 A2991 RMK T02000140 IEM_DS3505
ZGKL,2008-04-14 06:00,ZGKL 140600Z AUTO 36002KT 9SM 21/14 A2988 RMK SLP127 T02070139 57033 IEM_DS3505
ZGKL,2008-04-14 07:00,ZGKL 140700Z AUTO 7SM 21/15 A2985 RMK T02100150 IEM_DS3505
ZGKL,2008-04-14 08:00,ZGKL 140800Z AUTO 7SM 22/16 A2983 RMK T02200160 IEM_DS3505
ZGKL,2008-04-14 09:00,ZGKL 140900Z AUTO 32004KT 9SM 22/15 A2983 RMK SLP103 T02170151 57023 IEM_DS3505
ZGKL,2008-04-14 10:00,ZGKL 141000Z AUTO 7SM 21/16 A2983 RMK T02100160 IEM_DS3505
ZGKL,2008-04-14 11:00,ZGKL 141100Z AUTO 00000KT 7SM 20/17 A2983 RMK T02000170 IEM_DS3505
ZGKL,2008-04-14 12:00,ZGKL 141200Z AUTO 00000KT 8SM 20/16 A2985 RMK SLP114 T02040162 52010 IEM_DS3505
ZGKL,2008-04-14 13:00,ZGKL 141300Z AUTO 00000KT 5SM 20/17 A2988 RMK T02000170 IEM_DS3505
ZGKL,2008-04-14 14:00,ZGKL 141400Z AUTO 00000KT 5SM 20/18 A2988 RMK T02000180 IEM_DS3505
ZGKL,2008-04-14 15:00,ZGKL 141500Z AUTO 00000KT 8SM 20/17 A2988 RMK SLP127 T02000170 52014 IEM_DS3505
ZGKL,2008-04-14 16:00,ZGKL 141600Z AUTO 00000KT 4SM 20/18 A2988 RMK T02000180 IEM_DS3505
ZGKL,2008-04-14 17:00,ZGKL 141700Z AUTO 00000KT 4SM 19/18 A2988 RMK T01900180 IEM_DS3505
ZGKL,2008-04-14 18:00,ZGKL 141800Z AUTO 04004KT 6SM 18/16 A2985 RMK 60002 SLP117 T01760156 57010 IEM_DS3505
ZGKL,2008-04-14 19:00,ZGKL 141900Z AUTO 00000KT 2 1/2SM 18/17 A2985 RMK T01800170 IEM_DS3505
ZGKL,2008-04-14 20:00,ZGKL 142000Z AUTO 00000KT 2 1/2SM 18/17 A2983 RMK T01800170 IEM_DS3505
ZGKL,2008-04-14 21:00,ZGKL 142100Z AUTO 36004KT 5SM 17/15 A2985 RMK 70003 SLP114 T01700148 57003 IEM_DS3505
ZGKL,2008-04-14 22:00,ZGKL 142200Z AUTO 00000KT 2 1/2SM 17/16 A2985 RMK T01700160 IEM_DS3505
ZGKL,2008-04-14 23:00,ZGKL 142300Z AUTO 00000KT 2SM 17/16 A2985 RMK T01700160 IEM_DS3505
ZGKL,2008-04-15 00:00,ZGKL 150000Z AUTO 36004KT 4SM 17/14 A2988 RMK 60003 70005 SLP127 T01670143 52013 IEM_DS3505
ZGKL,2008-04-15 01:00,ZGKL 150100Z AUTO 00000KT 1 1/2SM 17/16 A2988 RMK T01700160 IEM_DS3505
ZGKL,2008-04-15 02:00,ZGKL 150200Z AUTO 00000KT 2SM 18/17 A2991 RMK T01800170 IEM_DS3505
ZGKL,2008-04-15 03:00,ZGKL 150300Z AUTO 04002KT 2 1/2SM 17/15 A2991 RMK SLP133 T01680152 52005 IEM_DS3505
ZGKL,2008-04-15 04:00,ZGKL 150400Z AUTO 00000KT 1 1/2SM 18/17 A2988 RMK T01800170 IEM_DS3505
ZGKL,2008-04-15 05:00,ZGKL 150500Z AUTO 00000KT 1 1/2SM 18/17 A2985 RMK T01800170 IEM_DS3505
ZGKL,2008-04-15 06:00,ZGKL 150600Z AUTO 02002KT 3SM 18/16 A2985 RMK 60012 SLP113 T01790164 57020 IEM_DS3505
ZGKL,2008-04-15 07:00,ZGKL 150700Z AUTO 00000KT 2SM 20/18 A2983 RMK T02000180 IEM_DS3505
ZGKL,2008-04-15 08:00,ZGKL 150800Z AUTO 00000KT 2SM 20/19 A2980 RMK T02000190 IEM_DS3505
ZGKL,2008-04-15 09:00,ZGKL 150900Z AUTO 36004KT 3SM 19/17 A2980 RMK SLP098 T01860171 57014 IEM_DS3505
ZGKL,2008-04-15 10:00,ZGKL 151000Z AUTO 00000KT 2SM 21/19 A2980 RMK T02100190 IEM_DS3505
ZGKL,2008-04-15 11:00,ZGKL 151100Z AUTO 00000KT 1 1/2SM 20/19 A2983 RMK T02000190 IEM_DS3505
ZGKL,2008-04-15 12:00,ZGKL 151200Z AUTO 02006KT 2 1/2SM 18/17 A2983 RMK 60004 SLP111 T01820167 52012 IEM_DS3505
ZGKL,2008-04-15 13:00,ZGKL 151300Z AUTO 00000KT 1 1/2SM 20/19 A2985 RMK T02000190 IEM_DS3505
ZGKL,2008-04-15 14:00,ZGKL 151400Z AUTO 03010KT 4SM 19/18 A2988 RMK T01900180 IEM_DS3505
ZGKL,2008-04-15 15:00,ZGKL 151500Z AUTO 02008KT 4SM 18/15 A2988 RMK SLP132 T01790152 52021 IEM_DS3505
ZGKL,2008-04-15 16:00,ZGKL 151600Z AUTO 4SM 18/17 A2991 RMK T01800170 IEM_DS3505
ZGKL,2008-04-15 17:00,ZGKL 151700Z AUTO 00000KT 4SM 18/17 A2991 RMK T01800170 IEM_DS3505
ZGKL,2008-04-15 18:00,ZGKL 151800Z AUTO 02008KT 6SM 17/15 A2991 RMK 60004 SLP132 T01740147 54000 IEM_DS3505
ZGKL,2008-04-15 19:00,ZGKL 151900Z AUTO 03004KT 4SM 17/16 A2988 RMK T01700160 IEM_DS3505
ZGKL,2008-04-15 20:00,ZGKL 152000Z AUTO 03004KT 4SM 17/16 A2988 RMK T01700160 IEM_DS3505
ZGKL,2008-04-15 21:00,ZGKL 152100Z AUTO 02006KT 6SM 17/14 A2988 RMK 70022 SLP125 T01680141 57007 IEM_DS3505
ZGKL,2008-04-15 22:00,ZGKL 152200Z AUTO 06004KT 2 1/2SM 17/16 A2988 RMK T01700160 IEM_DS3505
ZGKL,2008-04-15 23:00,ZGKL 152300Z AUTO 1 1/2SM 16/15 A2991 RMK T01600150 IEM_DS3505
ZGKL,2008-04-16 00:00,ZGKL 160000Z AUTO 36006KT 5SM 16/14 A2994 RMK 60043 70061 SLP143 T01570144 52017 IEM_DS3505
ZGKL,2008-04-16 01:00,ZGKL 160100Z AUTO 08004KT 1SM 16/16 A2997 RMK T01600160 IEM_DS3505
ZGKL,2008-04-16 02:00,ZGKL 160200Z AUTO 15006KT 1SM 16/16 A3000 RMK T01600160 IEM_DS3505
ZGKL,2008-04-16 03:00,ZGKL 160300Z AUTO 09002KT 4SM 16/15 A3000 RMK SLP166 T01590151 52023 IEM_DS3505
ZGKL,2008-04-16 04:00,ZGKL 160400Z AUTO 00000KT 2 1/2SM 17/16 A2997 RMK T01700160 IEM_DS3505
ZGKL,2008-04-16 05:00,ZGKL 160500Z AUTO 4SM 17/16 A2997 RMK T01700160 IEM_DS3505
ZGKL,2008-04-16 06:00,ZGKL 160600Z AUTO 02006KT 7SM 17/15 A2994 RMK 60083 SLP147 T01680148 57019 IEM_DS3505
ZGKL,2008-04-16 07:00,ZGKL 160700Z AUTO 4SM 18/17 A2991 RMK T01800170 IEM_DS3505
ZGKL,2008-04-16 08:00,ZGKL 160800Z AUTO 4SM 19/17 A2991 RMK T01900170 IEM_DS3505
ZGKL,2008-04-16 09:00,ZGKL 160900Z AUTO 02004KT 10SM 19/15 A2988 RMK SLP131 T01900151 57015 IEM_DS3505
ZGKL,2008-04-16 10:00,ZGKL 161000Z AUTO 7SM 19/16 A2991 RMK T01900160 IEM_DS3505
ZGKL,2008-04-16 11:00,ZGKL 161100Z AUTO 7SM 19/16 A2991 RMK T01900160 IEM_DS3505
ZGKL,2008-04-16 12:00,ZGKL 161200Z AUTO 02006KT 9SM 18/14 A2994 RMK SLP145 T01790142 52013 IEM_DS3505
ZGKL,2008-04-16 13:00,ZGKL 161300Z AUTO 00000KT 4SM 18/16 A2997 RMK T01800160 IEM_DS3505
ZGKL,2008-04-16 14:00,ZGKL 161400Z AUTO 06004KT 4SM 18/16 A2997 RMK T01800160 IEM_DS3505
ZGKL,2008-04-16 15:00,ZGKL 161500Z AUTO 02004KT 8SM 18/14 A2997 RMK SLP160 T01760141 52015 IEM_DS3505
ZGKL,2008-04-16 16:00,ZGKL 161600Z AUTO 06006KT 3SM 18/15 A2997 RMK T01800150 IEM_DS3505
ZGKL,2008-04-16 17:00,ZGKL 161700Z AUTO 00000KT 2 1/2SM 17/16 A2997 RMK T01700160 IEM_DS3505
ZGKL,2008-04-16 18:00,ZGKL 161800Z AUTO 02004KT 9SM 17/14 A2997 RMK SLP153 T01730136 57007 IEM_DS3505
ZGKL,2008-04-16 19:00,ZGKL 161900Z AUTO 00000KT 2 1/2SM 17/15 A2994 RMK T01700150 IEM_DS3505
ZGKL,2008-04-16 20:00,ZGKL 162000Z AUTO 00000KT 2SM 16/15 A2994 RMK T01600150 IEM_DS3505
ZGKL,2008-04-16 21:00,ZGKL 162100Z AUTO 36002KT 9SM 16/13 A2991 RMK 70124 SLP142 T01600131 57010 IEM_DS3505
ZGKL,2008-04-16 22:00,ZGKL 162200Z AUTO 00000KT 1 1/4SM 16/15 A2994 RMK T01600150 IEM_DS3505
ZGKL,2008-04-16 23:00,ZGKL 162300Z AUTO 00000KT 1 1/2SM 16/15 A2994 RMK T01600150 IEM_DS3505
ZGKL,2008-04-17 00:00,ZGKL 170000Z AUTO 07002KT 7SM 18/13 A2997 RMK 70083 SLP154 T01800129 52012 IEM_DS3505
ZGKL,2008-04-17 01:00,ZGKL 170100Z AUTO 00000KT 2 1/2SM 19/17 A2997 RMK T01900170 IEM_DS3505
ZGKL,2008-04-17 02:00,ZGKL 170200Z AUTO 00000KT 4SM 20/16 A2997 RMK T02000160 IEM_DS3505
ZGKL,2008-04-17 03:00,ZGKL 170300Z AUTO 36004KT 7SM 23/14 A2997 RMK SLP154 T02310141 52001 IEM_DS3505
ZGKL,2008-04-17 04:00,ZGKL 170400Z AUTO 6SM 24/15 A2994 RMK T02400150 IEM_DS3505
ZGKL,2008-04-17 05:00,ZGKL 170500Z AUTO 6SM 26/14 A2991 RMK T02600140 IEM_DS3505
ZGKL,2008-04-17 06:00,ZGKL 170600Z AUTO 34004KT 9SM 27/13 A2988 RMK SLP116 T02730133 57036 IEM_DS3505
ZGKL,2008-04-17 07:00,ZGKL 170700Z AUTO 6SM 27/14 A2985 RMK T02700140 IEM_DS3505
ZGKL,2008-04-17 08:00,ZGKL 170800Z AUTO 7SM 28/14 A2980 RMK T02800140 IEM_DS3505
ZGKL,2008-04-17 09:00,ZGKL 170900Z AUTO 36002KT 11SM 29/14 A2980 RMK SLP089 T02920142 57026 IEM_DS3505
ZGKL,2008-04-17 10:00,ZGKL 171000Z AUTO 11004KT 7SM 27/15 A2980 RMK T02700150 IEM_DS3505
ZGKL,2008-04-17 11:00,ZGKL 171100Z AUTO 14004KT 7SM 26/16 A2980 RMK T02600160 IEM_DS3505
ZGKL,2008-04-17 12:00,ZGKL 171200Z AUTO 02004KT 11SM 25/15 A2983 RMK SLP102 T02470148 52012 IEM_DS3505
ZGKL,2008-04-17 13:00,ZGKL 171300Z AUTO 06006KT 7SM 24/15 A2985 RMK T02400150 IEM_DS3505
ZGKL,2008-04-17 14:00,ZGKL 171400Z AUTO 7SM 23/15 A2985 RMK T02300150 IEM_DS3505
ZGKL,2008-04-17 15:00,ZGKL 171500Z AUTO 02006KT 10SM 23/15 A2988 RMK SLP121 T02280146 52020 IEM_DS3505
ZGKL,2008-04-17 16:00,ZGKL 171600Z AUTO 4SM 21/17 A2988 RMK T02100170 IEM_DS3505
ZGKL,2008-04-17 17:00,ZGKL 171700Z AUTO 00000KT 4SM 20/18 A2988 RMK T02000180 IEM_DS3505
ZGKL,2008-04-17 18:00,ZGKL 171800Z AUTO 02004KT 9SM 21/14 A2985 RMK SLP109 T02080145 57011 IEM_DS3505
ZGKL,2008-04-17 19:00,ZGKL 171900Z AUTO 00000KT 4SM 18/18 A2985 RMK T01800180 IEM_DS3505
ZGKL,2008-04-17 20:00,ZGKL 172000Z AUTO 00000KT 4SM 19/18 A2983 RMK T01900180 IEM_DS3505
ZGKL,2008-04-17 21:00,ZGKL 172100Z AUTO 34002KT 9SM 20/14 A2985 RMK SLP107 T02000144 57002 IEM_DS3505
ZGKL,2008-04-17 22:00,ZGKL 172200Z AUTO 00000KT 4SM 19/18 A2985 RMK T01900180 IEM_DS3505
ZGKL,2008-04-17 23:00,ZGKL 172300Z AUTO 00000KT 4SM 19/18 A2988 RMK T01900180 IEM_DS3505
ZGKL,2008-04-18 00:00,ZGKL 180000Z AUTO 20004KT 7SM 20/16 A2988 RMK 60002 70002 SLP123 T01970163 52014 IEM_DS3505
ZGKL,2008-04-18 01:00,ZGKL 180100Z AUTO 00000KT 3SM 22/16 A2988 RMK T02200160 IEM_DS3505
ZGKL,2008-04-18 02:00,ZGKL 180200Z AUTO 00000KT 3SM 24/17 A2988 RMK T02400170 IEM_DS3505
ZGKL,2008-04-18 03:00,ZGKL 180300Z AUTO 16002KT 6SM 25/17 A2985 RMK SLP116 T02540171 57006 IEM_DS3505
ZGKL,2008-04-18 04:00,ZGKL 180400Z AUTO 4SM 26/18 A2985 RMK T02600180 IEM_DS3505
ZGKL,2008-04-18 05:00,ZGKL 180500Z AUTO 00000KT 4SM 28/19 A2980 RMK T02800190 IEM_DS3505
ZGKL,2008-04-18 06:00,ZGKL 180600Z AUTO 04004KT 5SM 30/19 A2977 RMK SLP082 T02950192 57032 IEM_DS3505
ZGKL,2008-04-18 07:00,ZGKL 180700Z AUTO 13004KT 4SM 30/19 A2974 RMK T03000190 IEM_DS3505
ZGKL,2008-04-18 08:00,ZGKL 180800Z AUTO 4SM 29/19 A2971 RMK T02900190 IEM_DS3505
ZGKL,2008-04-18 09:00,ZGKL 180900Z AUTO 34002KT 7SM 29/20 A2968 RMK SLP052 T02940197 57030 IEM_DS3505
ZGKL,2008-04-18 10:00,ZGKL 181000Z AUTO 4SM 27/21 A2968 RMK T02700210 IEM_DS3505
ZGKL,2008-04-18 11:00,ZGKL 181100Z AUTO 3SM 26/21 A2971 RMK T02600210 IEM_DS3505
ZGKL,2008-04-18 12:00,ZGKL 181200Z AUTO 16006KT 9SM 28/18 A2974 RMK SLP065 T02790183 52012 IEM_DS3505
ZGKL,2008-04-18 13:00,ZGKL 181300Z AUTO 00000KT 2SM 24/22 A2974 RMK T02400220 IEM_DS3505
ZGKL,2008-04-18 14:00,ZGKL 181400Z AUTO 00000KT 2SM 24/22 A2977 RMK T02400220 IEM_DS3505
ZGKL,2008-04-18 15:00,ZGKL 181500Z AUTO 20004KT 9SM 26/19 A2980 RMK SLP085 T02610188 52021 IEM_DS3505
ZGKL,2008-04-18 16:00,ZGKL 181600Z AUTO 00000KT 4SM 25/20 A2980 RMK T02500200 IEM_DS3505
ZGKL,2008-04-18 17:00,ZGKL 181700Z AUTO 00000KT 6SM 24/20 A2977 RMK T02400200 IEM_DS3505
ZGKL,2008-04-18 18:00,ZGKL 181800Z AUTO 22002KT 9SM 24/19 A2977 RMK SLP077 T02450187 57007 IEM_DS3505
ZGKL,2008-04-18 19:00,ZGKL 181900Z AUTO 00000KT 5SM 22/20 A2974 RMK T02200200 IEM_DS3505
ZGKL,2008-04-18 20:00,ZGKL 182000Z AUTO 00000KT 2 1/2SM 22/20 A2974 RMK T02200200 IEM_DS3505
ZGKL,2008-04-18 21:00,ZGKL 182100Z AUTO 25002KT 9SM 24/19 A2977 RMK 70002 SLP074 T02450189 57003 IEM_DS3505
ZGKL,2008-04-18 22:00,ZGKL 182200Z AUTO 00000KT 4SM 22/21 A2977 RMK T02200210 IEM_DS3505
ZGKL,2008-04-18 23:00,ZGKL 182300Z AUTO 00000KT 5SM 22/21 A2977 RMK T02200210 IEM_DS3505
ZGKL,2008-04-19 00:00,ZGKL 190000Z AUTO 11002KT 7SM 25/19 A2980 RMK 60000 70000 SLP085 T02480194 52010 IEM_DS3505
ZGKL,2008-04-19 01:00,ZGKL 190100Z AUTO 00000KT 5SM 25/21 A2980 RMK T02500210 IEM_DS3505
ZGKL,2008-04-19 02:00,ZGKL 190200Z AUTO 6SM 27/21 A2977 RMK T02700210 IEM_DS3505
ZGKL,2008-04-19 03:00,ZGKL 190300Z AUTO 18010KT 7SM 29/19 A2977 RMK SLP075 T02900190 57009 IEM_DS3505
ZGKL,2008-04-19 04:00,ZGKL 190400Z AUTO 6SM 29/20 A2974 RMK T02900200 IEM_DS3505
ZGKL,2008-04-19 05:00,ZGKL 190500Z AUTO 11010KT 6SM 29/20 A2971 RMK T02900200 IEM_DS3505
ZGKL,2008-04-19 06:00,ZGKL 190600Z AUTO 14008KT 9SM 30/19 A2968 RMK SLP043 T03030193 57031 IEM_DS3505
ZGKL,2008-04-19 07:00,ZGKL 190700Z AUTO 13012KT 7SM 29/20 A2965 RMK T02900200 IEM_DS3505
ZGKL,2008-04-19 08:00,ZGKL 190800Z AUTO 14014KT 7SM 29/20 A2962 RMK T02900200 IEM_DS3505
ZGKL,2008-04-19 09:00,ZGKL 190900Z AUTO 16004KT 10SM 28/19 A2962 RMK SLP031 T02850189 57012 IEM_DS3505
ZGKL,2008-04-19 10:00,ZGKL 191000Z AUTO 15010KT 7SM 27/20 A2962 RMK T02700200 IEM_DS3505
ZGKL,2008-04-19 11:00,ZGKL 191100Z AUTO 14006KT 5SM 26/20 A2965 RMK T02600200 IEM_DS3505
ZGKL,2008-04-19 12:00,ZGKL 191200Z AUTO 18006KT 10SM 26/18 A2968 RMK SLP042 T02650184 52010 IEM_DS3505
ZGKL,2008-04-19 13:00,ZGKL 191300Z AUTO 00000KT 4SM 25/20 A2968 RMK T02500200 IEM_DS3505
ZGKL,2008-04-19 14:00,ZGKL 191400Z AUTO 00000KT 5SM 24/20 A2971 RMK T02400200 IEM_DS3505
ZGKL,2008-04-19 15:00,ZGKL 191500Z AUTO 20002KT 10SM 25/19 A2971 RMK SLP058 T02540186 52016 IEM_DS3505
ZGKL,2008-04-19 16:00,ZGKL 191600Z AUTO 4SM 22/21 A2971 RMK T02200210 IEM_DS3505
ZGKL,2008-04-19 17:00,ZGKL 191700Z AUTO 4SM 22/20 A2971 RMK T02200200 IEM_DS3505
ZGKL,2008-04-19 18:00,ZGKL 191800Z AUTO 16002KT 10SM 24/19 A2968 RMK SLP051 T02360191 57007 IEM_DS3505
ZGKL,2008-04-19 19:00,ZGKL 191900Z AUTO 00000KT 2 1/2SM 22/21 A2968 RMK T02200210 IEM_DS3505
ZGKL,2008-04-19 20:00,ZGKL 192000Z AUTO 00000KT 2 1/2SM 22/21 A2968 RMK T02200210 IEM_DS3505
ZGKL,2008-04-19 21:00,ZGKL 192100Z AUTO 18002KT 9SM 23/20 A2968 RMK 70000 SLP053 T02290195 52002 IEM_DS3505
ZGKL,2008-04-19 22:00,ZGKL 192200Z AUTO 00000KT 3SM 22/21 A2971 RMK T02200210 IEM_DS3505
ZGKL,2008-04-19 23:00,ZGKL 192300Z AUTO 3SM 22/21 A2971 RMK T02200210 IEM_DS3505
ZGKL,2008-04-20 00:00,ZGKL 200000Z AUTO 07002KT 8SM 23/20 A2974 RMK SLP068 T02300198 52014 IEM_DS3505
ZGKL,2008-04-20 01:00,ZGKL 200100Z AUTO 3SM 24/21 A2974 RMK T02400210 IEM_DS3505
ZGKL,2008-04-20 02:00,ZGKL 200200Z AUTO 4SM 24/21 A2977 RMK T02400210 IEM_DS3505
ZGKL,2008-04-20 03:00,ZGKL 200300Z AUTO 18004KT 7SM 26/20 A2977 RMK SLP073 T02590195 52005 IEM_DS3505
ZGKL,2008-04-20 04:00,ZGKL 200400Z AUTO 4SM 26/21 A2974 RMK T02600210 IEM_DS3505
ZGKL,2008-04-20 05:00,ZGKL 200500Z AUTO 31004KT 4SM 26/21 A2971 RMK T02600210 IEM_DS3505
ZGKL,2008-04-20 06:00,ZGKL 200600Z AUTO 29002KT 8SM 26/20 A2971 RMK SLP056 T02640203 57017 IEM_DS3505
ZGKL,2008-04-20 07:00,ZGKL 200700Z AUTO 4SM 26/21 A2968 RMK T02600210 IEM_DS3505
ZGKL,2008-04-20 08:00,ZGKL 200800Z AUTO 7SM 25/21 A2965 RMK T02500210 IEM_DS3505
ZGKL,2008-04-20 09:00,ZGKL 200900Z AUTO 02004KT 7SM 27/20 A2965 RMK SLP039 T02670203 57017 IEM_DS3505
ZGKL,2008-04-20 10:00,ZGKL 201000Z AUTO 7SM 25/22 A2965 RMK T02500220 IEM_DS3505
ZGKL,2008-04-20 11:00,ZGKL 201100Z AUTO 5SM 24/22 A2965 RMK T02400220 IEM_DS3505
ZGKL,2008-04-20 12:00,ZGKL 201200Z AUTO 02002KT 7SM 25/20 A2968 RMK SLP051 T02520205 52012 IEM_DS3505
ZGKL,2008-04-20 13:00,ZGKL 201300Z AUTO 3SM 24/22 A2971 RMK T02400220 IEM_DS3505
ZGKL,2008-04-20 14:00,ZGKL 201400Z AUTO 2 1/2SM 23/22 A2974 RMK T02300220 IEM_DS3505
ZGKL,2008-04-20 15:00,ZGKL 201500Z AUTO 02006KT 7SM 24/20 A2974 RMK SLP074 T02370202 52023 IEM_DS3505
ZGKL,2008-04-20 16:00,ZGKL 201600Z AUTO 2 1/2SM 23/22 A2977 RMK T02300220 IEM_DS3505
ZGKL,2008-04-20 16:07,ZGKL 201607Z AUTO 1 1/2SM 23/22 A2977 RMK T02300220 IEM_DS3505
ZGKL,2008-04-20 18:00,ZGKL 201800Z AUTO 02006KT 9SM 22/18 A2977 RMK 60000 SLP080 T02190177 52005 IEM_DS3505
ZGKL,2008-04-20 19:00,ZGKL 201900Z AUTO 06006KT 4SM 22/19 A2974 RMK T02200190 IEM_DS3505
ZGKL,2008-04-20 20:00,ZGKL 202000Z AUTO 10006KT 4SM 21/19 A2977 RMK T02100190 IEM_DS3505
ZGKL,2008-04-20 21:00,ZGKL 202100Z AUTO 02008KT 9SM 20/16 A2977 RMK 70000 SLP085 T01950162 52004 IEM_DS3505
ZGKL,2008-04-20 22:00,ZGKL 202200Z AUTO 07004KT 7SM 19/17 A2980 RMK T01900170 IEM_DS3505
ZGKL,2008-04-20 23:00,ZGKL 202300Z AUTO 7SM 19/17 A2983 RMK T01900170 IEM_DS3505
ZGKL,2008-04-21 00:00,ZGKL 210000Z AUTO 02012KT 9SM 19/15 A2985 RMK 60000 70000 SLP114 T01930150 52028 IEM_DS3505
ZGKL,2008-04-21 01:00,ZGKL 210100Z AUTO 7SM 20/17 A2988 RMK T02000170 IEM_DS3505
ZGKL,2008-04-21 02:00,ZGKL 210200Z AUTO 7SM 21/17 A2988 RMK T02100170 IEM_DS3505
ZGKL,2008-04-21 03:00,ZGKL 210300Z AUTO 02010KT 12SM 22/15 A2988 RMK SLP117 T02220148 52004 IEM_DS3505
ZGKL,2008-04-21 04:00,ZGKL 210400Z AUTO 07006KT 7SM 23/17 A2985 RMK T02300170 IEM_DS3505
ZGKL,2008-04-21 05:00,ZGKL 210500Z AUTO 08012KT 7SM 23/15 A2985 RMK T02300150 IEM_DS3505
ZGKL,2008-04-21 06:00,ZGKL 210600Z AUTO 02012KT 12SM 24/15 A2983 RMK SLP100 T02390146 57017 IEM_DS3505
ZGKL,2008-04-21 07:00,ZGKL 210700Z AUTO 08010KT 7SM 24/15 A2980 RMK T02400150 IEM_DS3505
ZGKL,2008-04-21 08:00,ZGKL 210800Z AUTO 08010KT 7SM 23/15 A2980 RMK T02300150 IEM_DS3505
ZGKL,2008-04-21 09:00,ZGKL 210900Z AUTO 04008KT 10SM 22/14 A2980 RMK SLP093 T02230139 57008 IEM_DS3505
ZGKL,2008-04-21 10:00,ZGKL 211000Z AUTO 08008KT 7SM 21/15 A2980 RMK T02100150 IEM_DS3505
ZGKL,2008-04-21 11:00,ZGKL 211100Z AUTO 05006KT 5SM 21/15 A2983 RMK T02100150 IEM_DS3505
ZGKL,2008-04-21 12:00,ZGKL 211200Z AUTO 02010KT 9SM 21/13 A2985 RMK SLP110 T02100134 52016 IEM_DS3505
ZGKL,2008-04-21 13:00,ZGKL 211300Z AUTO 08004KT 4SM 20/15 A2988 RMK T02000150 IEM_DS3505
ZGKL,2008-04-21 14:00,ZGKL 211400Z AUTO 07004KT 4SM 20/15 A2991 RMK T02000150 IEM_DS3505
ZGKL,2008-04-21 15:00,ZGKL 211500Z AUTO 02014KT 9SM 21/13 A2991 RMK SLP137 T02070132 52027 IEM_DS3505
ZGKL,2008-04-21 16:00,ZGKL 211600Z AUTO 00000KT 4SM 20/14 A2991 RMK T02000140 IEM_DS3505
ZGKL,2008-04-21 17:00,ZGKL 211700Z AUTO 07004KT 3SM 20/14 A2994 RMK T02000140 IEM_DS3505
ZGKL,2008-04-21 18:00,ZGKL 211800Z AUTO 02012KT 9SM 19/13 A2994 RMK SLP143 T01900132 52006 IEM_DS3505
ZGKL,2008-04-21 19:00,ZGKL 211900Z AUTO 08008KT 3SM 19/14 A2994 RMK T01900140 IEM_DS3505
ZGKL,2008-04-21 20:00,ZGKL 212000Z AUTO 06008KT 3SM 18/14 A2994 RMK T01800140 IEM_DS3505
ZGKL,2008-04-21 21:00,ZGKL 212100Z AUTO 02010KT 9SM 18/12 A2997 RMK SLP148 T01800120 52004 IEM_DS3505
ZGKL,2008-04-21 22:00,ZGKL 212200Z AUTO 07004KT 2 1/2SM 16/15 A2997 RMK T01600150 IEM_DS3505
ZGKL,2008-04-21 23:00,ZGKL 212300Z AUTO 03008KT 2SM 16/15 A3003 RMK T01600150 IEM_DS3505
ZGKL,2008-04-22 00:00,ZGKL 220000Z AUTO 02010KT 4SM 16/13 A3006 RMK 60008 70009 SLP182 T01570132 52032 IEM_DS3505
ZGKL,2008-04-22 01:00,ZGKL 220100Z AUTO 07006KT 2 1/2SM 16/15 A3006 RMK T01600150 IEM_DS3505
ZGKL,2008-04-22 02:00,ZGKL 220200Z AUTO 06006KT 2 1/2SM 16/15 A3009 RMK T01600150 IEM_DS3505
ZGKL,2008-04-22 03:00,ZGKL 220300Z AUTO 04008KT 9SM 16/12 A3009 RMK SLP202 T01570121 52020 IEM_DS3505
ZGKL,2008-04-22 04:00,ZGKL 220400Z AUTO 07012KT 7SM 17/14 A3009 RMK T01700140 IEM_DS3505
ZGKL,2008-04-22 05:00,ZGKL 220500Z AUTO 06012KT 7SM 17/13 A3006 RMK T01700130 IEM_DS3505
ZGKL,2008-04-22 06:00,ZGKL 220600Z AUTO 02010KT 9SM 18/12 A3003 RMK 60008 SLP181 T01760116 57021 IEM_DS3505
ZGKL,2008-04-22 07:00,ZGKL 220700Z AUTO 7SM 20/14 A3003 RMK T02000140 IEM_DS3505
ZGKL,2008-04-22 08:00,ZGKL 220800Z AUTO 05008KT 7SM 20/13 A3000 RMK T02000130 IEM_DS3505
ZGKL,2008-04-22 09:00,ZGKL 220900Z AUTO 02010KT 9SM 18/12 A3000 RMK SLP165 T01820118 57015 IEM_DS3505
ZGKL,2008-04-22 10:00,ZGKL 221000Z AUTO 07010KT 5SM 18/13 A3000 RMK T01800130 IEM_DS3505
ZGKL,2008-04-22 11:00,ZGKL 221100Z AUTO 07012KT 5SM 17/13 A3000 RMK T01700130 IEM_DS3505
ZGKL,2008-04-22 12:00,ZGKL 221200Z AUTO 36004KT 9SM 17/12 A3003 RMK SLP186 T01730120 52019 IEM_DS3505
ZGKL,2008-04-22 13:00,ZGKL 221300Z AUTO 04004KT 4SM 17/13 A3006 RMK T01700130 IEM_DS3505
ZGKL,2008-04-22 14:00,ZGKL 221400Z AUTO 04004KT 4SM 17/13 A3009 RMK T01700130 IEM_DS3505
ZGKL,2008-04-22 15:00,ZGKL 221500Z AUTO 36008KT 7SM 17/12 A3012 RMK SLP209 T01730118 52023 IEM_DS3505
ZGKL,2008-04-22 16:00,ZGKL 221600Z AUTO 33004KT 4SM 17/14 A3012 RMK T01700140 IEM_DS3505
ZGKL,2008-04-22 17:00,ZGKL 221700Z AUTO 06004KT 4SM 17/14 A3012 RMK T01700140 IEM_DS3505
ZGKL,2008-04-22 18:00,ZGKL 221800Z AUTO 36008KT 7SM 18/12 A3012 RMK SLP205 T01760116 57003 IEM_DS3505
ZGKL,2008-04-22 19:00,ZGKL 221900Z AUTO 00000KT 4SM 16/14 A3009 RMK T01600140 IEM_DS3505
ZGKL,2008-04-22 20:00,ZGKL 222000Z AUTO 00000KT 3SM 17/14 A3009 RMK T01700140 IEM_DS3505
ZGKL,2008-04-22 21:00,ZGKL 222100Z AUTO 02008KT 7SM 18/11 A3009 RMK 70015 SLP200 T01750113 57005 IEM_DS3505
ZGKL,2008-04-22 22:00,ZGKL 222200Z AUTO 3SM 17/13 A3012 RMK T01700130 IEM_DS3505
ZGKL,2008-04-22 23:00,ZGKL 222300Z AUTO 05006KT 3SM 17/13 A3012 RMK T01700130 IEM_DS3505
ZGKL,2008-04-23 00:00,ZGKL 230000Z AUTO 36010KT 7SM 18/11 A3018 RMK 70006 SLP227 T01750106 52026 IEM_DS3505
ZGKL,2008-04-23 01:00,ZGKL 230100Z AUTO 3SM 16/14 A3021 RMK T01600140 IEM_DS3505
ZGKL,2008-04-23 02:00,ZGKL 230200Z AUTO 4SM 16/13 A3024 RMK T01600130 IEM_DS3505
ZGKL,2008-04-23 03:00,ZGKL 230300Z AUTO 02008KT 6SM 16/11 A3024 RMK SLP247 T01600110 52019 IEM_DS3505
ZGKL,2008-04-23 04:00,ZGKL 230400Z AUTO 05008KT 5SM 17/13 A3024 RMK T01700130 IEM_DS3505
ZGKL,2008-04-23 05:00,ZGKL 230500Z AUTO 04008KT 6SM 17/12 A3021 RMK T01700120 IEM_DS3505
ZGKL,2008-04-23 06:00,ZGKL 230600Z AUTO 36010KT 9SM 18/08 A3018 RMK 60008 SLP230 T01750084 57016 IEM_DS3505
ZGKL,2008-04-23 07:00,ZGKL 230700Z AUTO 6SM 17/12 A3015 RMK T01700120 IEM_DS3505
ZGKL,2008-04-23 08:00,ZGKL 230800Z AUTO 03004KT 6SM 17/12 A3012 RMK T01700120 IEM_DS3505
ZGKL,2008-04-23 09:00,ZGKL 230900Z AUTO 36006KT 9SM 18/08 A3012 RMK SLP208 T01840084 57021 IEM_DS3505
ZGKL,2008-04-23 10:00,ZGKL 231000Z AUTO 08006KT 6SM 18/11 A3012 RMK T01800110 IEM_DS3505
ZGKL,2008-04-23 11:00,ZGKL 231100Z AUTO 00000KT 6SM 17/11 A3012 RMK T01700110 IEM_DS3505
ZGKL,2008-04-23 12:00,ZGKL 231200Z AUTO 02004KT 9SM 16/09 A3012 RMK SLP211 T01650092 52002 IEM_DS3505
ZGKL,2008-04-23 14:00,ZGKL 231400Z AUTO 4SM 14/13 A3018 RMK T01400130 IEM_DS3505
ZGKL,2008-04-23 15:00,ZGKL 231500Z AUTO 36004KT 9SM 15/09 A3018 RMK SLP227 T01510092 52015 IEM_DS3505
ZGKL,2008-04-23 16:00,ZGKL 231600Z AUTO 02004KT 4SM 13/13 A3018 RMK T01300130 IEM_DS3505
ZGKL,2008-04-23 17:00,ZGKL 231700Z AUTO 3SM 13/12 A3018 RMK T01300120 IEM_DS3505
ZGKL,2008-04-23 18:00,ZGKL 231800Z AUTO 02004KT 8SM 14/10 A3015 RMK SLP223 T01370097 57004 IEM_DS3505
ZGKL,2008-04-23 19:00,ZGKL 231900Z AUTO 32004KT 2SM 12/12 A3015 RMK T01200120 IEM_DS3505
ZGKL,2008-04-23 20:00,ZGKL 232000Z AUTO 1 1/2SM 12/11 A3015 RMK T01200110 IEM_DS3505
ZGKL,2008-04-23 21:00,ZGKL 232100Z AUTO 02004KT 9SM 12/09 A3015 RMK 70008 SLP214 T01230090 57009 IEM_DS3505
ZGKL,2008-04-23 22:00,ZGKL 232200Z AUTO 00000KT 3SM 11/11 A3015 RMK T01100110 IEM_DS3505
ZGKL,2008-04-23 23:00,ZGKL 232300Z AUTO 00000KT 4SM 12/11 A3015 RMK T01200110 IEM_DS3505
ZGKL,2008-04-24 00:00,ZGKL 240000Z AUTO 36004KT 9SM 15/08 A3018 RMK 70008 SLP224 T01470082 52010 IEM_DS3505
ZGKL,2008-04-24 01:00,ZGKL 240100Z AUTO 6SM 16/12 A3018 RMK T01600120 IEM_DS3505
ZGKL,2008-04-24 02:00,ZGKL 240200Z AUTO 6SM 19/11 A3018 RMK T01900110 IEM_DS3505
ZGKL,2008-04-24 03:00,ZGKL 240300Z AUTO 02004KT 9SM 21/07 A3015 RMK SLP217 T02090072 57005 IEM_DS3505
ZGKL,2008-04-24 04:00,ZGKL 240400Z AUTO 6SM 22/07 A3012 RMK T02200070 IEM_DS3505
ZGKL,2008-04-24 05:00,ZGKL 240500Z AUTO 6SM 23/06 A3009 RMK T02300060 IEM_DS3505
ZGKL,2008-04-24 06:00,ZGKL 240600Z AUTO 32006KT 10SM 24/06 A3006 RMK SLP179 T02420060 57037 IEM_DS3505
ZGKL,2008-04-24 07:00,ZGKL 240700Z AUTO 6SM 24/05 A3003 RMK T02400050 IEM_DS3505
ZGKL,2008-04-24 08:00,ZGKL 240800Z AUTO 6SM 24/06 A3000 RMK T02400060 IEM_DS3505
ZGKL,2008-04-24 09:00,ZGKL 240900Z AUTO 02006KT 10SM 24/06 A2997 RMK SLP158 T02410055 57021 IEM_DS3505
ZGKL,2008-04-24 10:00,ZGKL 241000Z AUTO 20002KT 6SM 23/09 A3000 RMK T02300090 IEM_DS3505
ZGKL,2008-04-24 11:00,ZGKL 241100Z AUTO 00000KT 7SM 21/15 A3000 RMK T02100150 IEM_DS3505
ZGKL,2008-04-24 12:00,ZGKL 241200Z AUTO 02004KT 9SM 21/09 A3003 RMK SLP178 T02140090 52019 IEM_DS3505
ZGKL,2008-04-24 13:00,ZGKL 241300Z AUTO 7SM 20/10 A3006 RMK T02000100 IEM_DS3505
ZGKL,2008-04-24 14:00,ZGKL 241400Z AUTO 05008KT 7SM 20/08 A3009 RMK T02000080 IEM_DS3505
ZGKL,2008-04-24 15:00,ZGKL 241500Z AUTO 02006KT 9SM 20/09 A3012 RMK SLP200 T01990086 52023 IEM_DS3505
ZGKL,2008-04-24 16:00,ZGKL 241600Z AUTO 00000KT 6SM 19/15 A3012 RMK T01900150 IEM_DS3505
ZGKL,2008-04-24 17:00,ZGKL 241700Z AUTO 34006KT 3SM 17/14 A3012 RMK T01700140 IEM_DS3505
ZGKL,2008-04-24 18:00,ZGKL 241800Z AUTO 02002KT 6SM 16/12 A3009 RMK 60004 SLP199 T01650123 57001 IEM_DS3505
ZGKL,2008-04-24 19:00,ZGKL 241900Z AUTO 00000KT 3SM 16/14 A3009 RMK T01600140 IEM_DS3505
ZGKL,2008-04-24 20:00,ZGKL 242000Z AUTO 00000KT 3SM 16/15 A3006 RMK T01600150 IEM_DS3505
ZGKL,2008-04-24 21:00,ZGKL 242100Z AUTO 00000KT 6SM 16/14 A3006 RMK 70005 SLP189 T01580138 57010 IEM_DS3505
ZGKL,2008-04-24 22:00,ZGKL 242200Z AUTO 00000KT 1 1/2SM 16/15 A3006 RMK T01600150 IEM_DS3505
ZGKL,2008-04-24 23:00,ZGKL 242300Z AUTO 00000KT 2 1/2SM 16/15 A3009 RMK T01600150 IEM_DS3505
ZGKL,2008-04-25 00:00,ZGKL 250000Z AUTO 09002KT 6SM 16/14 A3012 RMK 60000 70005 SLP205 T01650142 52015 IEM_DS3505
ZGKL,2008-04-25 01:00,ZGKL 250100Z AUTO 00000KT 2 1/2SM 17/15 A3012 RMK T01700150 IEM_DS3505
ZGKL,2008-04-25 02:00,ZGKL 250200Z AUTO 00000KT 3SM 17/15 A3015 RMK T01700150 IEM_DS3505
ZGKL,2008-04-25 03:00,ZGKL 250300Z AUTO 14002KT 5SM 18/13 A3015 RMK SLP213 T01810134 52008 IEM_DS3505
ZGKL,2008-04-25 04:00,ZGKL 250400Z AUTO 18008KT 2 1/2SM 17/15 A3012 RMK T01700150 IEM_DS3505
ZGKL,2008-04-25 05:00,ZGKL 250500Z AUTO 17010KT 4SM 17/15 A3009 RMK T01700150 IEM_DS3505
ZGKL,2008-04-25 06:00,ZGKL 250600Z AUTO 16004KT 4SM 18/14 A3006 RMK 60000 SLP185 T01790142 57028 IEM_DS3505
ZGKL,2008-04-25 07:00,ZGKL 250700Z AUTO 18008KT 5SM 20/14 A3003 RMK T02000140 IEM_DS3505
ZGKL,2008-04-25 08:00,ZGKL 250800Z AUTO 17006KT 6SM 21/14 A3000 RMK T02100140 IEM_DS3505
ZGKL,2008-04-25 09:00,ZGKL 250900Z AUTO 18004KT 6SM 21/13 A2997 RMK SLP161 T02090129 57023 IEM_DS3505
ZGKL,2008-04-25 10:00,ZGKL 251000Z AUTO 17006KT 6SM 21/14 A2997 RMK T02100140 IEM_DS3505
ZGKL,2008-04-25 11:00,ZGKL 251100Z AUTO 20004KT 6SM 19/14 A3000 RMK T01900140 IEM_DS3505
ZGKL,2008-04-25 12:00,ZGKL 251200Z AUTO 14002KT 9SM 18/13 A3000 RMK SLP168 T01830132 52006 IEM_DS3505
ZGKL,2008-04-25 13:00,ZGKL 251300Z AUTO 12002KT 5SM 17/14 A3003 RMK T01700140 IEM_DS3505
ZGKL,2008-04-25 14:00,ZGKL 251400Z AUTO 00000KT 3SM 16/14 A3003 RMK T01600140 IEM_DS3505
ZGKL,2008-04-25 15:00,ZGKL 251500Z AUTO 00000KT 8SM 15/13 A3003 RMK SLP183 T01530128 52014 IEM_DS3505
ZGKL,2008-04-25 16:00,ZGKL 251600Z AUTO 00000KT 2 1/2SM 14/13 A3003 RMK T01400130 IEM_DS3505
ZGKL,2008-04-25 17:00,ZGKL 251700Z AUTO 00000KT 2SM 13/13 A3003 RMK T01300130 IEM_DS3505
ZGKL,2008-04-25 18:00,ZGKL 251800Z AUTO 32002KT 7SM 14/13 A3003 RMK SLP176 T01400126 57007 IEM_DS3505
ZGKL,2008-04-25 19:00,ZGKL 251900Z AUTO 00000KT 1/8SM 13/12 A3000 RMK T01300120 IEM_DS3505
ZGKL,2008-04-25 20:00,ZGKL 252000Z AUTO 00000KT 1/8SM 12/11 A3000 RMK T01200110 IEM_DS3505
ZGKL,2008-04-25 21:00,ZGKL 252100Z AUTO 34002KT 7SM 13/12 A3000 RMK 70000 SLP172 T01290120 57003 IEM_DS3505
ZGKL,2008-04-25 22:00,ZGKL 252200Z AUTO 00000KT 1/2SM 12/12 A3000 RMK T01200120 IEM_DS3505
ZGKL,2008-04-25 23:00,ZGKL 252300Z AUTO 00000KT 1SM 13/13 A3003 RMK T01300130 IEM_DS3505
ZGKL,2008-04-26 00:00,ZGKL 260000Z AUTO 07002KT 3SM 15/13 A3003 RMK 70000 SLP184 T01460126 52011 IEM_DS3505
ZGKL,2008-04-26 01:00,ZGKL 260100Z AUTO 00000KT 1SM 15/15 A3006 RMK T01500150 IEM_DS3505
ZGKL,2008-04-26 02:00,ZGKL 260200Z AUTO 00000KT 1SM 17/15 A3006 RMK T01700150 IEM_DS3505
ZGKL,2008-04-26 03:00,ZGKL 260300Z AUTO 18004KT 4SM 21/14 A3003 RMK SLP176 T02110143 57007 IEM_DS3505
ZGKL,2008-04-26 04:00,ZGKL 260400Z AUTO 15004KT 4SM 23/16 A3000 RMK T02300160 IEM_DS3505
ZGKL,2008-04-26 05:00,ZGKL 260500Z AUTO 12004KT 6SM 24/12 A2994 RMK T02400120 IEM_DS3505
ZGKL,2008-04-26 06:00,ZGKL 260600Z AUTO 20004KT 9SM 26/12 A2991 RMK SLP135 T02570122 57039 IEM_DS3505
ZGKL,2008-04-26 07:00,ZGKL 260700Z AUTO 6SM 27/11 A2988 RMK T02700110 IEM_DS3505
ZGKL,2008-04-26 08:00,ZGKL 260800Z AUTO 19006KT 6SM 27/13 A2985 RMK T02700130 IEM_DS3505
ZGKL,2008-04-26 09:00,ZGKL 260900Z AUTO 14004KT 10SM 26/13 A2983 RMK SLP103 T02630131 57031 IEM_DS3505
ZGKL,2008-04-26 10:00,ZGKL 261000Z AUTO 00000KT 6SM 26/14 A2983 RMK T02600140 IEM_DS3505
ZGKL,2008-04-26 11:00,ZGKL 261100Z AUTO 08004KT 6SM 25/15 A2983 RMK T02500150 IEM_DS3505
ZGKL,2008-04-26 12:00,ZGKL 261200Z AUTO 09002KT 10SM 24/15 A2985 RMK SLP114 T02390146 52010 IEM_DS3505
ZGKL,2008-04-26 13:00,ZGKL 261300Z AUTO 20004KT 6SM 22/15 A2988 RMK T02200150 IEM_DS3505
ZGKL,2008-04-26 14:00,ZGKL 261400Z AUTO 20004KT 5SM 21/17 A2988 RMK T02100170 IEM_DS3505
ZGKL,2008-04-26 15:00,ZGKL 261500Z AUTO 07002KT 9SM 22/16 A2991 RMK SLP132 T02150160 52019 IEM_DS3505
ZGKL,2008-04-26 16:00,ZGKL 261600Z AUTO 00000KT 5SM 20/17 A2988 RMK T02000170 IEM_DS3505
ZGKL,2008-04-26 17:00,ZGKL 261700Z AUTO 00000KT 4SM 20/18 A2988 RMK T02000180 IEM_DS3505
ZGKL,2008-04-26 18:00,ZGKL 261800Z AUTO 00000KT 9SM 21/16 A2985 RMK SLP114 T02120162 57016 IEM_DS3505
ZGKL,2008-04-26 19:00,ZGKL 261900Z AUTO 00000KT 2SM 20/18 A2985 RMK T02000180 IEM_DS3505
ZGKL,2008-04-26 20:00,ZGKL 262000Z AUTO 00000KT 3SM 19/18 A2985 RMK T01900180 IEM_DS3505
ZGKL,2008-04-26 21:00,ZGKL 262100Z AUTO 00000KT 7SM 20/16 A2985 RMK 70000 SLP118 T02030165 52004 IEM_DS3505
ZGKL,2008-04-26 22:00,ZGKL 262200Z AUTO 2 1/2SM 19/18 A2985 RMK T01900180 IEM_DS3505
ZGKL,2008-04-26 23:00,ZGKL 262300Z AUTO 2SM 19/18 A2988 RMK T01900180 IEM_DS3505
ZGKL,2008-04-27 00:00,ZGKL 270000Z AUTO 04006KT 4SM 19/17 A2991 RMK 60008 70009 SLP135 T01860168 52015 IEM_DS3505
ZGKL,2008-04-27 01:00,ZGKL 270100Z AUTO 1SM 18/17 A2991 RMK T01800170 IEM_DS3505
ZGKL,2008-04-27 02:00,ZGKL 270200Z AUTO 1SM 18/17 A2994 RMK T01800170 IEM_DS3505
ZGKL,2008-04-27 03:00,ZGKL 270300Z AUTO 07002KT 2 1/2SM 18/18 A2991 RMK SLP138 T01850180 52002 IEM_DS3505
ZGKL,2008-04-27 04:00,ZGKL 270400Z AUTO 1SM 18/18 A2991 RMK T01800180 IEM_DS3505
ZGKL,2008-04-27 05:00,ZGKL 270500Z AUTO 1 1/4SM 19/18 A2991 RMK T01900180 IEM_DS3505
ZGKL,2008-04-27 06:00,ZGKL 270600Z AUTO 32002KT 2 1/2SM 19/18 A2988 RMK 60079 SLP124 T01900177 57013 IEM_DS3505
ZGKL,2008-04-27 07:00,ZGKL 270700Z AUTO 00000KT 1 1/2SM 19/18 A2988 RMK T01900180 IEM_DS3505
ZGKL,2008-04-27 08:00,ZGKL 270800Z AUTO 2SM 19/18 A2988 RMK T01900180 IEM_DS3505
ZGKL,2008-04-27 09:00,ZGKL 270900Z AUTO 00000KT 2 1/2SM 20/18 A2985 RMK SLP117 T01950176 57007 IEM_DS3505
ZGKL,2008-04-27 10:00,ZGKL 271000Z AUTO 00000KT 2 1/2SM 19/18 A2988 RMK T01900180 IEM_DS3505
ZGKL,2008-04-27 11:00,ZGKL 271100Z AUTO 00000KT 2 1/2SM 19/18 A2988 RMK T01900180 IEM_DS3505
ZGKL,2008-04-27 12:00,ZGKL 271200Z AUTO 29002KT 2 1/2SM 19/18 A2991 RMK 60008 SLP134 T01920177 52016 IEM_DS3505
ZGKL,2008-04-27 13:00,ZGKL 271300Z AUTO 35004KT 1SM 19/18 A2991 RMK T01900180 IEM_DS3505
ZGKL,2008-04-27 14:00,ZGKL 271400Z AUTO 31002KT 1SM 18/18 A2994 RMK T01800180 IEM_DS3505
ZGKL,2008-04-27 15:00,ZGKL 271500Z AUTO 02002KT 2SM 19/17 A2994 RMK SLP144 T01880169 52009 IEM_DS3505
ZGKL,2008-04-27 16:00,ZGKL 271600Z AUTO 00000KT 3/8SM 18/17 A2994 RMK T01800170 IEM_DS3505
ZGKL,2008-04-27 17:00,ZGKL 271700Z AUTO 00000KT 1/4SM 18/17 A2991 RMK T01800170 IEM_DS3505
ZGKL,2008-04-27 18:00,ZGKL 271800Z AUTO 34004KT 3SM 18/17 A2991 RMK SLP138 T01790171 57006 IEM_DS3505
ZGKL,2008-04-27 19:00,ZGKL 271900Z AUTO 1/8SM 17/17 A2991 RMK T01700170 IEM_DS3505
ZGKL,2008-04-27 20:00,ZGKL 272000Z AUTO 00000KT 1SM 17/17 A2991 RMK T01700170 IEM_DS3505
ZGKL,2008-04-27 21:00,ZGKL 272100Z AUTO 02004KT 3SM 17/16 A2991 RMK 70096 SLP136 T01720159 57002 IEM_DS3505
ZGKL,2008-04-27 22:00,ZGKL 272200Z AUTO 00000KT 3/8SM 16/16 A2991 RMK T01600160 IEM_DS3505
ZGKL,2008-04-27 23:00,ZGKL 272300Z AUTO 00000KT 1SM 16/16 A2994 RMK T01600160 IEM_DS3505
ZGKL,2008-04-28 00:00,ZGKL 280000Z AUTO 02002KT 4SM 18/16 A2997 RMK 70087 SLP152 T01850159 52016 IEM_DS3505
ZGKL,2008-04-28 01:00,ZGKL 280100Z AUTO 00000KT 1 1/2SM 19/19 A2997 RMK T01900190 IEM_DS3505
ZGKL,2008-04-28 02:00,ZGKL 280200Z AUTO 30004KT 5SM 22/18 A2997 RMK T02200180 IEM_DS3505
ZGKL,2008-04-28 03:00,ZGKL 280300Z AUTO 02006KT 7SM 24/17 A2994 RMK SLP146 T02430166 57004 IEM_DS3505
ZGKL,2008-04-28 04:00,ZGKL 280400Z AUTO 05012KT 7SM 26/15 A2994 RMK T02600150 IEM_DS3505
ZGKL,2008-04-28 05:00,ZGKL 280500Z AUTO 05010KT 7SM 27/14 A2991 RMK T02700140 IEM_DS3505
ZGKL,2008-04-28 06:00,ZGKL 280600Z AUTO 02006KT 11SM 28/14 A2988 RMK SLP114 T02770143 57030 IEM_DS3505
ZGKL,2008-04-28 07:00,ZGKL 280700Z AUTO 06010KT 7SM 28/12 A2985 RMK T02800120 IEM_DS3505
ZGKL,2008-04-28 08:00,ZGKL 280800Z AUTO 07010KT 7SM 28/12 A2983 RMK T02800120 IEM_DS3505
ZGKL,2008-04-28 09:00,ZGKL 280900Z AUTO 02006KT 12SM 28/12 A2983 RMK SLP099 T02810121 57015 IEM_DS3505
ZGKL,2008-04-28 10:00,ZGKL 281000Z AUTO 06008KT 6SM 27/12 A2983 RMK T02700120 IEM_DS3505
ZGKL,2008-04-28 11:00,ZGKL 281100Z AUTO 06006KT 7SM 25/13 A2983 RMK T02500130 IEM_DS3505
ZGKL,2008-04-28 12:00,ZGKL 281200Z AUTO 07002KT 9SM 26/13 A2985 RMK SLP108 T02550127 52008 IEM_DS3505
ZGKL,2008-04-28 13:00,ZGKL 281300Z AUTO 00000KT 5SM 22/15 A2988 RMK T02200150 IEM_DS3505
ZGKL,2008-04-28 14:00,ZGKL 281400Z AUTO 00000KT 3SM 21/18 A2988 RMK T02100180 IEM_DS3505
ZGKL,2008-04-28 15:00,ZGKL 281500Z AUTO 14002KT 9SM 22/16 A2988 RMK SLP121 T02230156 52014 IEM_DS3505
ZGKL,2008-04-28 16:00,ZGKL 281600Z AUTO 00000KT 3SM 20/18 A2988 RMK T02000180 IEM_DS3505
ZGKL,2008-04-28 17:00,ZGKL 281700Z AUTO 00000KT 3SM 20/18 A2988 RMK T02000180 IEM_DS3505
ZGKL,2008-04-28 18:00,ZGKL 281800Z AUTO 36002KT 9SM 20/16 A2985 RMK SLP113 T02040156 57008 IEM_DS3505
ZGKL,2008-04-28 19:00,ZGKL 281900Z AUTO 00000KT 2 1/2SM 19/18 A2985 RMK T01900180 IEM_DS3505
ZGKL,2008-04-28 20:00,ZGKL 282000Z AUTO 00000KT 2SM 18/18 A2985 RMK T01800180 IEM_DS3505
ZGKL,2008-04-28 21:00,ZGKL 282100Z AUTO 32002KT 9SM 19/16 A2985 RMK SLP115 T01870158 52002 IEM_DS3505
ZGKL,2008-04-28 22:00,ZGKL 282200Z AUTO 00000KT 2SM 18/17 A2988 RMK T01800170 IEM_DS3505
ZGKL,2008-04-28 23:00,ZGKL 282300Z AUTO 00000KT 2 1/2SM 18/17 A2988 RMK T01800170 IEM_DS3505
ZGKL,2008-04-29 00:00,ZGKL 290000Z AUTO 07002KT 5SM 19/16 A2991 RMK SLP135 T01910161 52019 IEM_DS3505
ZGKL,2008-04-29 01:00,ZGKL 290100Z AUTO 00000KT 2 1/2SM 19/17 A2994 RMK T01900170 IEM_DS3505
ZGKL,2008-04-29 02:00,ZGKL 290200Z AUTO 00000KT 2 1/2SM 21/18 A2994 RMK T02100180 IEM_DS3505
ZGKL,2008-04-29 03:00,ZGKL 290300Z AUTO 25002KT 5SM 25/18 A2991 RMK SLP133 T02480178 57001 IEM_DS3505
ZGKL,2008-04-29 04:00,ZGKL 290400Z AUTO 2 1/2SM 25/18 A2988 RMK T02500180 IEM_DS3505
ZGKL,2008-04-29 05:00,ZGKL 290500Z AUTO 4SM 28/16 A2985 RMK T02800160 IEM_DS3505
ZGKL,2008-04-29 06:00,ZGKL 290600Z AUTO 14004KT 9SM 28/15 A2983 RMK SLP100 T02820151 57032 IEM_DS3505
ZGKL,2008-04-29 07:00,ZGKL 290700Z AUTO 09004KT 4SM 28/17 A2980 RMK T02800170 IEM_DS3505
ZGKL,2008-04-29 08:00,ZGKL 290800Z AUTO 14006KT 4SM 28/17 A2977 RMK T02800170 IEM_DS3505
ZGKL,2008-04-29 09:00,ZGKL 290900Z AUTO 22004KT 11SM 29/15 A2977 RMK SLP075 T02860152 57025 IEM_DS3505
ZGKL,2008-04-29 10:00,ZGKL 291000Z AUTO 4SM 27/17 A2977 RMK T02700170 IEM_DS3505
ZGKL,2008-04-29 11:00,ZGKL 291100Z AUTO 00000KT 4SM 26/18 A2980 RMK T02600180 IEM_DS3505
ZGKL,2008-04-29 12:00,ZGKL 291200Z AUTO 14002KT 9SM 26/17 A2980 RMK SLP092 T02570171 52016 IEM_DS3505
ZGKL,2008-04-29 13:00,ZGKL 291300Z AUTO 00000KT 2 1/2SM 23/21 A2983 RMK T02300210 IEM_DS3505
ZGKL,2008-04-29 14:00,ZGKL 291400Z AUTO 00000KT 2 1/2SM 23/21 A2985 RMK T02300210 IEM_DS3505
ZGKL,2008-04-29 15:00,ZGKL 291500Z AUTO 18004KT 9SM 25/17 A2983 RMK SLP105 T02480168 52014 IEM_DS3505
ZGKL,2008-04-29 16:00,ZGKL 291600Z AUTO 00000KT 2SM 21/20 A2983 RMK T02100200 IEM_DS3505
ZGKL,2008-04-29 17:00,ZGKL 291700Z AUTO 00000KT 2SM 21/20 A2983 RMK T02100200 IEM_DS3505
ZGKL,2008-04-29 18:00,ZGKL 291800Z AUTO 14002KT 7SM 23/18 A2983 RMK 60000 SLP093 T02280179 57011 IEM_DS3505
ZGKL,2008-04-29 19:00,ZGKL 291900Z AUTO 00000KT 2SM 21/20 A2983 RMK T02100200 IEM_DS3505
ZGKL,2008-04-29 20:00,ZGKL 292000Z AUTO 00000KT 1SM 21/20 A2980 RMK T02100200 IEM_DS3505
ZGKL,2008-04-29 21:00,ZGKL 292100Z AUTO 02002KT 7SM 21/19 A2983 RMK 70015 SLP098 T02090194 52004 IEM_DS3505
ZGKL,2008-04-29 22:00,ZGKL 292200Z AUTO 00000KT 1SM 20/19 A2983 RMK T02000190 IEM_DS3505
ZGKL,2008-04-29 23:00,ZGKL 292300Z AUTO 00000KT 1SM 20/20 A2983 RMK T02000200 IEM_DS3505
ZGKL,2008-04-30 00:00,ZGKL 300000Z AUTO 07004KT 2 1/2SM 20/20 A2985 RMK 60035 70036 SLP110 T02040196 52011 IEM_DS3505
ZGKL,2008-04-30 01:00,ZGKL 300100Z AUTO 00000KT 1SM 20/20 A2985 RMK T02000200 IEM_DS3505
ZGKL,2008-04-30 02:00,ZGKL 300200Z AUTO 00000KT 1SM 21/20 A2985 RMK T02100200 IEM_DS3505
ZGKL,2008-04-30 03:00,ZGKL 300300Z AUTO 04004KT 2 1/2SM 20/20 A2985 RMK SLP114 T02040199 52004 IEM_DS3505
ZGKL,2008-04-30 04:00,ZGKL 300400Z AUTO 00000KT 1SM 20/20 A2985 RMK T02000200 IEM_DS3505
ZGKL,2008-04-30 05:00,ZGKL 300500Z AUTO 00000KT 1SM 21/20 A2983 RMK T02100200 IEM_DS3505
ZGKL,2008-04-30 06:00,ZGKL 300600Z AUTO 07002KT 2SM 20/20 A2980 RMK 60043 SLP096 T02040201 57019 IEM_DS3505
ZGKL,2008-04-30 07:00,ZGKL 300700Z AUTO 00000KT 1SM 21/20 A2977 RMK T02100200 IEM_DS3505
ZGKL,2008-04-30 08:00,ZGKL 300800Z AUTO 00000KT 1SM 21/20 A2977 RMK T02100200 IEM_DS3505
ZGKL,2008-04-30 09:00,ZGKL 300900Z AUTO 04002KT 2SM 21/20 A2974 RMK SLP078 T02070202 57018 IEM_DS3505
ZGKL,2008-04-30 10:00,ZGKL 301000Z AUTO 00000KT 1SM 21/20 A2977 RMK T02100200 IEM_DS3505
ZGKL,2008-04-30 11:00,ZGKL 301100Z AUTO 00000KT 1SM 21/20 A2977 RMK T02100200 IEM_DS3505
ZGKL,2008-04-30 12:00,ZGKL 301200Z AUTO 02002KT 2SM 21/20 A2977 RMK 60008 SLP087 T02080205 52009 IEM_DS3505
ZGKL,2008-04-30 13:00,ZGKL 301300Z AUTO 00000KT 1SM 21/20 A2980 RMK T02100200 IEM_DS3505
ZGKL,2008-04-30 14:00,ZGKL 301400Z AUTO 00000KT 1SM 21/20 A2980 RMK T02100200 IEM_DS3505
ZGKL,2008-04-30 15:00,ZGKL 301500Z AUTO 34002KT 2SM 21/20 A2983 RMK SLP100 T02080203 52013 IEM_DS3505
ZGKL,2008-04-30 16:00,ZGKL 301600Z AUTO 00000KT 1SM 21/20 A2980 RMK T02100200 IEM_DS3505
ZGKL,2008-04-30 17:00,ZGKL 301700Z AUTO 00000KT 1SM 21/20 A2980 RMK T02100200 IEM_DS3505
ZGKL,2008-04-30 18:00,ZGKL 301800Z AUTO 11002KT 2SM 21/20 A2980 RMK 60000 SLP091 T02080201 57009 IEM_DS3505
ZGKL,2008-04-30 19:00,ZGKL 301900Z AUTO 00000KT 1SM 21/20 A2977 RMK T02100200 IEM_DS3505
ZGKL,2008-04-30 20:00,ZGKL 302000Z AUTO 00000KT 1SM 21/20 A2977 RMK T02100200 IEM_DS3505
ZGKL,2008-04-30 21:00,ZGKL 302100Z AUTO 07002KT 2SM 21/20 A2977 RMK 70072 SLP084 T02070202 57007 IEM_DS3505
ZGKL,2008-04-30 22:00,ZGKL 302200Z AUTO 00000KT 1SM 21/20 A2977 RMK T02100200 IEM_DS3505
ZGKL,2008-04-30 23:00,ZGKL 302300Z AUTO 00000KT 1SM 21/20 A2980 RMK T02100200 IEM_DS3505
ZGKL,2008-05-01 00:00,ZGKL 010000Z AUTO 07004KT 1 1/4SM 21/21 A2980 RMK 70052 SLP093 T02140206 52009 IEM_DS3505
ZGKL,2008-05-01 01:00,ZGKL 010100Z AUTO 00000KT 2SM 23/21 A2980 RMK T02300210 IEM_DS3505
ZGKL,2008-05-01 02:00,ZGKL 010200Z AUTO 00000KT 2SM 23/21 A2983 RMK T02300210 IEM_DS3505
ZGKL,2008-05-01 03:00,ZGKL 010300Z AUTO 07002KT 2SM 23/21 A2980 RMK SLP094 T02330206 52002 IEM_DS3505
ZGKL,2008-05-01 04:00,ZGKL 010400Z AUTO 00000KT 2 1/2SM 25/21 A2977 RMK T02500210 IEM_DS3505
ZGKL,2008-05-01 05:00,ZGKL 010500Z AUTO 00000KT 2 1/2SM 26/22 A2974 RMK T02600220 IEM_DS3505
ZGKL,2008-05-01 06:00,ZGKL 010600Z AUTO 25004KT 2 1/2SM 28/21 A2971 RMK SLP063 T02750211 57030 IEM_DS3505
ZGKL,2008-05-01 07:00,ZGKL 010700Z AUTO 20006KT 3SM 28/22 A2971 RMK T02800220 IEM_DS3505
ZGKL,2008-05-01 08:00,ZGKL 010800Z AUTO 20006KT 4SM 28/22 A2965 RMK T02800220 IEM_DS3505
ZGKL,2008-05-01 09:00,ZGKL 010900Z AUTO 25002KT 4SM 28/20 A2965 RMK SLP039 T02850205 57023 IEM_DS3505
ZGKL,2008-05-01 10:00,ZGKL 011000Z AUTO 08004KT 3SM 27/23 A2965 RMK T02700230 IEM_DS3505
ZGKL,2008-05-01 11:00,ZGKL 011100Z AUTO 00000KT 3SM 27/23 A2965 RMK T02700230 IEM_DS3505
ZGKL,2008-05-01 12:00,ZGKL 011200Z AUTO 04002KT 5SM 26/22 A2965 RMK SLP043 T02550216 52003 IEM_DS3505
ZGKL,2008-05-01 13:00,ZGKL 011300Z AUTO 00000KT 1 1/2SM 24/23 A2968 RMK T02400230 IEM_DS3505
ZGKL,2008-05-01 14:00,ZGKL 011400Z AUTO 00000KT 1 1/2SM 24/23 A2971 RMK T02400230 IEM_DS3505
ZGKL,2008-05-01 15:00,ZGKL 011500Z AUTO 00000KT 4SM 24/22 A2971 RMK SLP062 T02400217 52019 IEM_DS3505
ZGKL,2008-05-01 16:00,ZGKL 011600Z AUTO 00000KT 1SM 23/23 A2971 RMK T02300230 IEM_DS3505
ZGKL,2008-05-01 17:00,ZGKL 011700Z AUTO 00000KT 1 1/2SM 23/23 A2971 RMK T02300230 IEM_DS3505
ZGKL,2008-05-01 18:00,ZGKL 011800Z AUTO 14004KT 3SM 23/22 A2968 RMK 60035 SLP054 T02320216 57007 IEM_DS3505
ZGKL,2008-05-01 19:00,ZGKL 011900Z AUTO 00000KT 1SM 23/22 A2968 RMK T02300220 IEM_DS3505
ZGKL,2008-05-01 20:00,ZGKL 012000Z AUTO 11002KT 1SM 23/22 A2968 RMK T02300220 IEM_DS3505
ZGKL,2008-05-01 21:00,ZGKL 012100Z AUTO 04002KT 3SM 22/22 A2968 RMK 70040 SLP048 T02240216 57005 IEM_DS3505
ZGKL,2008-05-01 22:00,ZGKL 012200Z AUTO 00000KT 3/8SM 23/22 A2968 RMK T02300220 IEM_DS3505
ZGKL,2008-05-01 23:00,ZGKL 012300Z AUTO 00000KT 1SM 23/22 A2968 RMK T02300220 IEM_DS3505
ZGKL,2008-05-02 00:00,ZGKL 020000Z AUTO 00000KT 2 1/2SM 23/22 A2971 RMK 60004 70040 SLP062 T02300218 52013 IEM_DS3505
ZGKL,2008-05-02 01:00,ZGKL 020100Z AUTO 00000KT 1 1/4SM 23/23 A2974 RMK T02300230 IEM_DS3505
ZGKL,2008-05-02 02:00,ZGKL 020200Z AUTO 2SM 23/23 A2974 RMK T02300230 IEM_DS3505
ZGKL,2008-05-02 03:00,ZGKL 020300Z AUTO 02002KT 2SM 25/23 A2974 RMK SLP069 T02480229 52007 IEM_DS3505
ZGKL,2008-05-02 04:00,ZGKL 020400Z AUTO 15004KT 1SM 23/22 A2974 RMK T02300220 IEM_DS3505
ZGKL,2008-05-02 05:00,ZGKL 020500Z AUTO 7SM 24/23 A2971 RMK T02400230 IEM_DS3505
ZGKL,2008-05-02 06:00,ZGKL 020600Z AUTO 34004KT 6SM 26/24 A2968 RMK 60024 SLP050 T02640235 57019 IEM_DS3505
ZGKL,2008-05-02 07:00,ZGKL 020700Z AUTO 7SM 27/24 A2965 RMK T02700240 IEM_DS3505
ZGKL,2008-05-02 08:00,ZGKL 020800Z AUTO 12004KT 4SM 26/25 A2962 RMK T02600250 IEM_DS3505
ZGKL,2008-05-02 09:00,ZGKL 020900Z AUTO 18004KT 9SM 26/23 A2962 RMK SLP029 T02640233 57021 IEM_DS3505
ZGKL,2008-05-02 10:00,ZGKL 021000Z AUTO 14008KT 7SM 25/23 A2962 RMK T02500230 IEM_DS3505
ZGKL,2008-05-02 11:00,ZGKL 021100Z AUTO 14010KT 7SM 25/23 A2962 RMK T02500230 IEM_DS3505
ZGKL,2008-05-02 12:00,ZGKL 021200Z AUTO 16006KT 9SM 26/21 A2965 RMK 60020 SLP036 T02550210 52007 IEM_DS3505
ZGKL,2008-05-02 13:00,ZGKL 021300Z AUTO 14006KT 5SM 25/23 A2965 RMK T02500230 IEM_DS3505
ZGKL,2008-05-02 14:00,ZGKL 021400Z AUTO 14004KT 5SM 24/22 A2968 RMK T02400220 IEM_DS3505
ZGKL,2008-05-02 15:00,ZGKL 021500Z AUTO 16002KT 8SM 25/21 A2971 RMK SLP054 T02480211 52018 IEM_DS3505
ZGKL,2008-05-02 16:00,ZGKL 021600Z AUTO 7SM 24/22 A2968 RMK T02400220 IEM_DS3505
ZGKL,2008-05-02 17:00,ZGKL 021700Z AUTO 00000KT 5SM 23/23 A2968 RMK T02300230 IEM_DS3505
ZGKL,2008-05-02 18:00,ZGKL 021800Z AUTO 22002KT 8SM 24/21 A2968 RMK 60000 SLP051 T02420213 57003 IEM_DS3505
ZGKL,2008-05-02 19:00,ZGKL 021900Z AUTO 00000KT 3SM 23/22 A2968 RMK T02300220 IEM_DS3505
ZGKL,2008-05-02 20:00,ZGKL 022000Z AUTO 00000KT 3SM 23/22 A2968 RMK T02300220 IEM_DS3505
ZGKL,2008-05-02 21:00,ZGKL 022100Z AUTO 18002KT 7SM 24/22 A2968 RMK 70045 SLP050 T02370216 57001 IEM_DS3505
ZGKL,2008-05-02 22:00,ZGKL 022200Z AUTO 00000KT 3SM 23/23 A2968 RMK T02300230 IEM_DS3505
ZGKL,2008-05-02 23:00,ZGKL 022300Z AUTO 21004KT 2 1/2SM 23/23 A2971 RMK T02300230 IEM_DS3505
ZGKL,2008-05-03 00:00,ZGKL 030000Z AUTO 18006KT 9SM 25/22 A2971 RMK 70045 SLP060 T02490216 52010 IEM_DS3505
ZGKL,2008-05-03 01:00,ZGKL 030100Z AUTO 15006KT 5SM 25/23 A2971 RMK T02500230 IEM_DS3505
ZGKL,2008-05-03 02:00,ZGKL 030200Z AUTO 16008KT 5SM 26/23 A2974 RMK T02600230 IEM_DS3505
ZGKL,2008-05-03 03:00,ZGKL 030300Z AUTO 20004KT 9SM 27/22 A2971 RMK SLP062 T02700220 52003 IEM_DS3505
ZGKL,2008-05-03 04:00,ZGKL 030400Z AUTO 18006KT 7SM 27/23 A2971 RMK T02700230 IEM_DS3505
ZGKL,2008-05-03 05:00,ZGKL 030500Z AUTO 18010KT 7SM 28/23 A2968 RMK T02800230 IEM_DS3505
ZGKL,2008-05-03 06:00,ZGKL 030600Z AUTO 22004KT 11SM 28/22 A2968 RMK SLP048 T02800218 57014 IEM_DS3505
ZGKL,2008-05-03 07:00,ZGKL 030700Z AUTO 17006KT 7SM 29/24 A2965 RMK T02900240 IEM_DS3505
ZGKL,2008-05-03 08:00,ZGKL 030800Z AUTO 16008KT 7SM 29/23 A2965 RMK T02900230 IEM_DS3505
ZGKL,2008-05-03 09:00,ZGKL 030900Z AUTO 11004KT 11SM 28/23 A2965 RMK SLP035 T02830232 57013 IEM_DS3505
ZGKL,2008-05-03 10:00,ZGKL 031000Z AUTO 19010KT 7SM 28/23 A2965 RMK T02800230 IEM_DS3505
ZGKL,2008-05-03 11:00,ZGKL 031100Z AUTO 15002KT 7SM 27/24 A2965 RMK T02700240 IEM_DS3505
ZGKL,2008-05-03 12:00,ZGKL 031200Z AUTO 18004KT 10SM 27/22 A2968 RMK 60008 SLP049 T02720222 52014 IEM_DS3505
ZGKL,2008-05-03 13:00,ZGKL 031300Z AUTO 13006KT 7SM 26/24 A2971 RMK T02600240 IEM_DS3505
ZGKL,2008-05-03 14:00,ZGKL 031400Z AUTO 00000KT 4SM 26/24 A2974 RMK T02600240 IEM_DS3505
ZGKL,2008-05-03 15:00,ZGKL 031500Z AUTO 18004KT 9SM 26/22 A2974 RMK SLP073 T02650215 52024 IEM_DS3505
ZGKL,2008-05-03 16:00,ZGKL 031600Z AUTO 00000KT 4SM 25/23 A2974 RMK T02500230 IEM_DS3505
ZGKL,2008-05-03 17:00,ZGKL 031700Z AUTO 00000KT 4SM 25/23 A2974 RMK T02500230 IEM_DS3505
ZGKL,2008-05-03 18:00,ZGKL 031800Z AUTO 18002KT 9SM 26/22 A2974 RMK 60000 SLP068 T02610218 57005 IEM_DS3505
ZGKL,2008-05-03 19:00,ZGKL 031900Z AUTO 00000KT 3SM 24/23 A2971 RMK T02400230 IEM_DS3505
ZGKL,2008-05-03 20:00,ZGKL 032000Z AUTO 00000KT 3SM 24/23 A2971 RMK T02400230 IEM_DS3505
ZGKL,2008-05-03 21:00,ZGKL 032100Z AUTO 20004KT 9SM 25/22 A2974 RMK 70006 SLP061 T02540217 57007 IEM_DS3505
ZGKL,2008-05-03 22:00,ZGKL 032200Z AUTO 00000KT 3SM 24/23 A2974 RMK T02400230 IEM_DS3505
ZGKL,2008-05-03 23:00,ZGKL 032300Z AUTO 00000KT 3SM 25/23 A2977 RMK T02500230 IEM_DS3505
ZGKL,2008-05-04 00:00,ZGKL 040000Z AUTO 32008KT 6SM 23/21 A2980 RMK 60004 70011 SLP085 T02300207 52023 IEM_DS3505
ZGKL,2008-05-04 01:00,ZGKL 040100Z AUTO 00000KT 2SM 21/21 A2980 RMK T02100210 IEM_DS3505
ZGKL,2008-05-04 02:00,ZGKL 040200Z AUTO 2SM 21/20 A2983 RMK T02100200 IEM_DS3505
ZGKL,2008-05-04 03:00,ZGKL 040300Z AUTO 09002KT 4SM 22/21 A2985 RMK SLP106 T02150212 52020 IEM_DS3505
ZGKL,2008-05-04 04:00,ZGKL 040400Z AUTO 3SM 21/21 A2983 RMK T02100210 IEM_DS3505
ZGKL,2008-05-04 05:00,ZGKL 040500Z AUTO 04008KT 7SM 22/21 A2983 RMK T02200210 IEM_DS3505
ZGKL,2008-05-04 06:00,ZGKL 040600Z AUTO 02006KT 8SM 21/19 A2983 RMK 60209 SLP102 T02130187 57005 IEM_DS3505
ZGKL,2008-05-04 07:00,ZGKL 040700Z AUTO 05008KT 7SM 22/20 A2980 RMK T02200200 IEM_DS3505
ZGKL,2008-05-04 08:00,ZGKL 040800Z AUTO 05008KT 7SM 21/19 A2980 RMK T02100190 IEM_DS3505
ZGKL,2008-05-04 09:00,ZGKL 040900Z AUTO 02012KT 8SM 21/17 A2980 RMK SLP093 T02090171 57009 IEM_DS3505
ZGKL,2008-05-04 10:00,ZGKL 041000Z AUTO 03006KT 7SM 21/18 A2980 RMK T02100180 IEM_DS3505
ZGKL,2008-05-04 11:00,ZGKL 041100Z AUTO 04006KT 7SM 20/18 A2983 RMK T02000180 IEM_DS3505
ZGKL,2008-05-04 12:00,ZGKL 041200Z AUTO 02010KT 8SM 20/16 A2985 RMK 60000 SLP112 T01970158 52018 IEM_DS3505
ZGKL,2008-05-04 13:00,ZGKL 041300Z AUTO 6SM 20/18 A2985 RMK T02000180 IEM_DS3505
ZGKL,2008-05-04 14:00,ZGKL 041400Z AUTO 6SM 19/17 A2988 RMK T01900170 IEM_DS3505
ZGKL,2008-05-04 15:00,ZGKL 041500Z AUTO 02006KT 8SM 19/15 A2988 RMK SLP128 T01940153 52015 IEM_DS3505
ZGKL,2008-05-04 16:00,ZGKL 041600Z AUTO 00000KT 4SM 19/17 A2988 RMK T01900170 IEM_DS3505
ZGKL,2008-05-04 17:00,ZGKL 041700Z AUTO 4SM 19/17 A2988 RMK T01900170 IEM_DS3505
ZGKL,2008-05-04 18:00,ZGKL 041800Z AUTO 02006KT 7SM 19/16 A2985 RMK 60000 SLP113 T01870158 57015 IEM_DS3505
ZGKL,2008-05-04 19:00,ZGKL 041900Z AUTO 00000KT 2 1/2SM 19/17 A2985 RMK T01900170 IEM_DS3505
ZGKL,2008-05-04 20:00,ZGKL 042000Z AUTO 2 1/2SM 18/17 A2983 RMK T01800170 IEM_DS3505
ZGKL,2008-05-04 21:00,ZGKL 042100Z AUTO 02006KT 7SM 18/15 A2983 RMK 70216 SLP104 T01820149 57009 IEM_DS3505
ZGKL,2008-05-04 22:00,ZGKL 042200Z AUTO 00000KT 2SM 18/17 A2983 RMK T01800170 IEM_DS3505
ZGKL,2008-05-04 23:00,ZGKL 042300Z AUTO 2SM 18/17 A2985 RMK T01800170 IEM_DS3505
ZGKL,2008-05-05 00:00,ZGKL 050000Z AUTO 2 1/2SM 19/17 A2988 RMK T01900170 IEM_DS3505
ZGKL,2008-05-05 01:00,ZGKL 050100Z AUTO 09004KT 2 1/2SM 18/17 A2988 RMK T01800170 IEM_DS3505
ZGKL,2008-05-05 02:00,ZGKL 050200Z AUTO 09002KT 1 1/4SM 18/16 A2991 RMK T01800160 IEM_DS3505
ZGKL,2008-05-05 03:00,ZGKL 050300Z AUTO 02006KT 5SM 17/15 A2991 RMK SLP133 T01720152 52008 IEM_DS3505
ZGKL,2008-05-05 04:00,ZGKL 050400Z AUTO 3SM 18/17 A2988 RMK T01800170 IEM_DS3505
ZGKL,2008-05-05 05:00,ZGKL 050500Z AUTO 04004KT 3SM 18/17 A2988 RMK T01800170 IEM_DS3505
ZGKL,2008-05-05 06:00,ZGKL 050600Z AUTO 02006KT 7SM 18/16 A2985 RMK 60003 SLP117 T01840155 57015 IEM_DS3505
ZGKL,2008-05-05 07:00,ZGKL 050700Z AUTO 05004KT 4SM 19/17 A2983 RMK T01900170 IEM_DS3505
ZGKL,2008-05-05 08:00,ZGKL 050800Z AUTO 4SM 19/17 A2983 RMK T01900170 IEM_DS3505
ZGKL,2008-05-05 09:00,ZGKL 050900Z AUTO 02006KT 9SM 19/16 A2980 RMK SLP100 T01890158 57017 IEM_DS3505
ZGKL,2008-05-05 10:00,ZGKL 051000Z AUTO 2 1/2SM 19/17 A2980 RMK T01900170 IEM_DS3505
ZGKL,2008-05-05 11:00,ZGKL 051100Z AUTO 00000KT 3SM 18/17 A2983 RMK T01800170 IEM_DS3505
ZGKL,2008-05-05 12:00,ZGKL 051200Z AUTO 02006KT 9SM 18/15 A2983 RMK 60000 SLP110 T01810154 52010 IEM_DS3505
ZGKL,2008-05-05 13:00,ZGKL 051300Z AUTO 00000KT 2SM 18/17 A2985 RMK T01800170 IEM_DS3505
ZGKL,2008-05-05 14:00,ZGKL 051400Z AUTO 00000KT 1 1/2SM 18/17 A2985 RMK T01800170 IEM_DS3505
ZGKL,2008-05-05 15:00,ZGKL 051500Z AUTO 36002KT 9SM 17/16 A2988 RMK SLP119 T01710163 52008 IEM_DS3505
ZGKL,2008-05-05 16:00,ZGKL 051600Z AUTO 05004KT 2SM 17/17 A2985 RMK T01700170 IEM_DS3505
ZGKL,2008-05-05 17:00,ZGKL 051700Z AUTO 00000KT 4SM 17/17 A2985 RMK T01700170 IEM_DS3505
ZGKL,2008-05-05 18:00,ZGKL 051800Z AUTO 34002KT 7SM 17/17 A2983 RMK 60020 SLP103 T01720167 57015 IEM_DS3505
ZGKL,2008-05-05 19:00,ZGKL 051900Z AUTO 09004KT 1 1/4SM 17/16 A2980 RMK T01700160 IEM_DS3505
ZGKL,2008-05-05 20:00,ZGKL 052000Z AUTO 00000KT 1 1/4SM 17/16 A2980 RMK T01700160 IEM_DS3505
ZGKL,2008-05-05 21:00,ZGKL 052100Z AUTO 02002KT 5SM 17/17 A2980 RMK 70038 SLP098 T01700168 57005 IEM_DS3505
ZGKL,2008-05-05 22:00,ZGKL 052200Z AUTO 00000KT 2SM 17/17 A2980 RMK T01700170 IEM_DS3505
ZGKL,2008-05-05 23:00,ZGKL 052300Z AUTO 00000KT 2 1/2SM 17/17 A2983 RMK T01700170 IEM_DS3505
ZGKL,2008-05-06 00:00,ZGKL 060000Z AUTO 02002KT 3SM 17/17 A2983 RMK 60016 70039 SLP110 T01740169 52011 IEM_DS3505
ZGKL,2008-05-06 01:00,ZGKL 060100Z AUTO 00000KT 2SM 18/17 A2985 RMK T01800170 IEM_DS3505
ZGKL,2008-05-06 02:00,ZGKL 060200Z AUTO 3SM 19/17 A2985 RMK T01900170 IEM_DS3505
ZGKL,2008-05-06 03:00,ZGKL 060300Z AUTO 02002KT 4SM 19/17 A2985 RMK SLP117 T01860168 52007 IEM_DS3505
ZGKL,2008-05-06 04:00,ZGKL 060400Z AUTO 08004KT 2SM 19/18 A2985 RMK T01900180 IEM_DS3505
ZGKL,2008-05-06 05:00,ZGKL 060500Z AUTO 2SM 20/18 A2983 RMK T02000180 IEM_DS3505
ZGKL,2008-05-06 06:00,ZGKL 060600Z AUTO 11002KT 6SM 20/17 A2980 RMK 60000 SLP096 T01980170 57020 IEM_DS3505
ZGKL,2008-05-06 07:00,ZGKL 060700Z AUTO 00000KT 2SM 19/18 A2977 RMK T01900180 IEM_DS3505
ZGKL,2008-05-06 08:00,ZGKL 060800Z AUTO 00000KT 4SM 20/19 A2977 RMK T02000190 IEM_DS3505
ZGKL,2008-05-06 09:00,ZGKL 060900Z AUTO 36002KT 8SM 20/18 A2974 RMK SLP075 T01960177 57021 IEM_DS3505
ZGKL,2008-05-06 10:00,ZGKL 061000Z AUTO 4SM 20/18 A2974 RMK T02000180 IEM_DS3505
ZGKL,2008-05-06 11:00,ZGKL 061100Z AUTO 00000KT 2 1/2SM 20/19 A2974 RMK T02000190 IEM_DS3505
ZGKL,2008-05-06 12:00,ZGKL 061200Z AUTO 14002KT 3SM 20/18 A2977 RMK 60003 SLP079 T01960183 52005 IEM_DS3505
ZGKL,2008-05-06 13:00,ZGKL 061300Z AUTO 00000KT 2 1/2SM 20/19 A2977 RMK T02000190 IEM_DS3505
ZGKL,2008-05-06 14:00,ZGKL 061400Z AUTO 00000KT 2 1/2SM 20/19 A2980 RMK T02000190 IEM_DS3505
ZGKL,2008-05-06 15:00,ZGKL 061500Z AUTO 00000KT 3SM 20/19 A2980 RMK SLP091 T01950187 52012 IEM_DS3505
ZGKL,2008-05-06 16:00,ZGKL 061600Z AUTO 00000KT 2SM 20/19 A2977 RMK T02000190 IEM_DS3505
ZGKL,2008-05-06 17:00,ZGKL 061700Z AUTO 00000KT 2SM 20/19 A2977 RMK T02000190 IEM_DS3505
ZGKL,2008-05-06 18:00,ZGKL 061800Z AUTO 27002KT 2SM 19/19 A2974 RMK 60000 SLP079 T01940189 57012 IEM_DS3505
ZGKL,2008-05-06 19:00,ZGKL 061900Z AUTO 00000KT 1 1/2SM 20/19 A2974 RMK T02000190 IEM_DS3505
ZGKL,2008-05-06 20:00,ZGKL 062000Z AUTO 00000KT 1SM 19/19 A2974 RMK T01900190 IEM_DS3505
ZGKL,2008-05-06 21:00,ZGKL 062100Z AUTO 00000KT 1 1/4SM 19/19 A2974 RMK 70005 SLP072 T01940192 57007 IEM_DS3505
ZGKL,2008-05-06 22:00,ZGKL 062200Z AUTO 00000KT 1SM 20/19 A2974 RMK T02000190 IEM_DS3505
ZGKL,2008-05-06 23:00,ZGKL 062300Z AUTO 00000KT 1SM 20/19 A2977 RMK T02000190 IEM_DS3505
ZGKL,2008-05-07 00:00,ZGKL 070000Z AUTO 00000KT 1 1/4SM 20/20 A2977 RMK 60004 70008 SLP088 T01950195 52016 IEM_DS3505
ZGKL,2008-05-07 01:00,ZGKL 070100Z AUTO 00000KT 1 1/4SM 20/20 A2980 RMK T02000200 IEM_DS3505
ZGKL,2008-05-07 02:00,ZGKL 070200Z AUTO 00000KT 1 1/2SM 22/20 A2980 RMK T02200200 IEM_DS3505
ZGKL,2008-05-07 03:00,ZGKL 070300Z AUTO 02002KT 2 1/2SM 22/21 A2980 RMK SLP089 T02200208 52002 IEM_DS3505
ZGKL,2008-05-07 04:00,ZGKL 070400Z AUTO 00000KT 2SM 23/21 A2977 RMK T02300210 IEM_DS3505
ZGKL,2008-05-07 05:00,ZGKL 070500Z AUTO 00000KT 2SM 26/23 A2974 RMK T02600230 IEM_DS3505
ZGKL,2008-05-07 06:00,ZGKL 070600Z AUTO 02004KT 4SM 26/22 A2971 RMK 60031 SLP063 T02570218 57025 IEM_DS3505
ZGKL,2008-05-07 07:00,ZGKL 070700Z AUTO 00000KT 2 1/2SM 28/24 A2968 RMK T02800240 IEM_DS3505
ZGKL,2008-05-07 08:00,ZGKL 070800Z AUTO 00000KT 2 1/2SM 28/24 A2965 RMK T02800240 IEM_DS3505
ZGKL,2008-05-07 09:00,ZGKL 070900Z AUTO 02002KT 4SM 27/23 A2965 RMK SLP041 T02720228 57021 IEM_DS3505
ZGKL,2008-05-07 10:00,ZGKL 071000Z AUTO 34006KT 2 1/2SM 26/24 A2965 RMK T02600240 IEM_DS3505
ZGKL,2008-05-07 11:00,ZGKL 071100Z AUTO 2 1/2SM 26/24 A2965 RMK T02600240 IEM_DS3505
ZGKL,2008-05-07 12:00,ZGKL 071200Z AUTO 07002KT 5SM 25/23 A2968 RMK 60000 SLP044 T02490233 52003 IEM_DS3505
ZGKL,2008-05-07 13:00,ZGKL 071300Z AUTO 00000KT 2SM 25/24 A2968 RMK T02500240 IEM_DS3505
ZGKL,2008-05-07 14:00,ZGKL 071400Z AUTO 00000KT 2SM 25/24 A2971 RMK T02500240 IEM_DS3505
ZGKL,2008-05-07 15:00,ZGKL 071500Z AUTO 11002KT 5SM 24/24 A2974 RMK SLP064 T02420239 52020 IEM_DS3505
ZGKL,2008-05-07 16:00,ZGKL 071600Z AUTO 00000KT 2SM 24/24 A2971 RMK T02400240 IEM_DS3505
ZGKL,2008-05-07 17:00,ZGKL 071700Z AUTO 00000KT 2SM 24/24 A2971 RMK T02400240 IEM_DS3505
ZGKL,2008-05-07 18:00,ZGKL 071800Z AUTO 00000KT 4SM 24/24 A2971 RMK 60000 SLP057 T02370235 57006 IEM_DS3505
ZGKL,2008-05-07 19:00,ZGKL 071900Z AUTO 00000KT 1SM 24/23 A2971 RMK T02400230 IEM_DS3505
ZGKL,2008-05-07 20:00,ZGKL 072000Z AUTO 00000KT 1SM 24/23 A2968 RMK T02400230 IEM_DS3505
ZGKL,2008-05-07 21:00,ZGKL 072100Z AUTO 00000KT 1 1/4SM 24/24 A2971 RMK 70036 SLP056 T02350235 57001 IEM_DS3505
ZGKL,2008-05-07 22:00,ZGKL 072200Z AUTO 00000KT 2SM 24/23 A2971 RMK T02400230 IEM_DS3505
ZGKL,2008-05-07 23:00,ZGKL 072300Z AUTO 18006KT 4SM 24/23 A2971 RMK T02400230 IEM_DS3505
ZGKL,2008-05-08 00:00,ZGKL 080000Z AUTO 18002KT 4SM 24/24 A2974 RMK 60020 70052 SLP067 T02380238 52011 IEM_DS3505
ZGKL,2008-05-08 01:00,ZGKL 080100Z AUTO 18008KT 7SM 25/23 A2974 RMK T02500230 IEM_DS3505
ZGKL,2008-05-08 02:00,ZGKL 080200Z AUTO 19006KT 7SM 27/24 A2974 RMK T02700240 IEM_DS3505
ZGKL,2008-05-08 03:00,ZGKL 080300Z AUTO 27002KT 9SM 28/23 A2971 RMK SLP064 T02820229 57002 IEM_DS3505
ZGKL,2008-05-08 04:00,ZGKL 080400Z AUTO 18008KT 7SM 30/24 A2971 RMK T03000240 IEM_DS3505
ZGKL,2008-05-08 05:00,ZGKL 080500Z AUTO 19004KT 7SM 31/25 A2968 RMK T03100250 IEM_DS3505
ZGKL,2008-05-08 06:00,ZGKL 080600Z AUTO 22006KT 14SM 31/22 A2965 RMK SLP037 T03140224 57026 IEM_DS3505
ZGKL,2008-05-08 07:00,ZGKL 080700Z AUTO 17008KT 7SM 31/22 A2962 RMK T03100220 IEM_DS3505
ZGKL,2008-05-08 08:00,ZGKL 080800Z AUTO 18010KT 7SM 32/24 A2959 RMK T03200240 IEM_DS3505
ZGKL,2008-05-08 09:00,ZGKL 080900Z AUTO 18010KT 7SM 31/23 A2956 RMK T03100230 IEM_DS3505
ZGKL,2008-05-08 10:00,ZGKL 081000Z AUTO 18010KT 7SM 30/23 A2956 RMK T03000230 IEM_DS3505
ZGKL,2008-05-08 11:00,ZGKL 081100Z AUTO 19008KT 7SM 29/23 A2959 RMK T02900230 IEM_DS3505
ZGKL,2008-05-08 12:00,ZGKL 081200Z AUTO 18002KT 12SM 28/23 A2959 RMK SLP023 T02840229 52010 IEM_DS3505
ZGKL,2008-05-08 13:00,ZGKL 081300Z AUTO 14004KT 7SM 27/24 A2962 RMK T02700240 IEM_DS3505
ZGKL,2008-05-08 14:00,ZGKL 081400Z AUTO 00000KT 3SM 26/24 A2965 RMK T02600240 IEM_DS3505
ZGKL,2008-05-08 15:00,ZGKL 081500Z AUTO 04002KT 9SM 26/23 A2965 RMK SLP044 T02630234 52022 IEM_DS3505
ZGKL,2008-05-08 16:00,ZGKL 081600Z AUTO 00000KT 1 1/2SM 25/24 A2965 RMK T02500240 IEM_DS3505
ZGKL,2008-05-08 17:00,ZGKL 081700Z AUTO 00000KT 2 1/2SM 25/24 A2965 RMK T02500240 IEM_DS3505
ZGKL,2008-05-08 18:00,ZGKL 081800Z AUTO 16002KT 9SM 26/24 A2965 RMK SLP032 T02580238 57011 IEM_DS3505
ZGKL,2008-05-08 19:00,ZGKL 081900Z AUTO 00000KT 2SM 25/24 A2962 RMK T02500240 IEM_DS3505
ZGKL,2008-05-08 20:00,ZGKL 082000Z AUTO 00000KT 2SM 25/24 A2962 RMK T02500240 IEM_DS3505
ZGKL,2008-05-08 21:00,ZGKL 082100Z AUTO 04008KT 5SM 22/22 A2965 RMK 70059 SLP043 T02240219 52010 IEM_DS3505
ZGKL,2008-05-08 22:00,ZGKL 082200Z AUTO 1SM 22/22 A2971 RMK T02200220 IEM_DS3505
ZGKL,2008-05-08 23:00,ZGKL 082300Z AUTO 08008KT 2SM 22/21 A2971 RMK T02200210 IEM_DS3505
ZGKL,2008-05-09 00:00,ZGKL 090000Z AUTO 02006KT 4SM 20/20 A2974 RMK 60429 70430 SLP078 T02000197 52032 IEM_DS3505
ZGKL,2008-05-09 01:00,ZGKL 090100Z AUTO 04010KT 7SM 21/19 A2980 RMK T02100190 IEM_DS3505
ZGKL,2008-05-09 02:00,ZGKL 090200Z AUTO 08004KT 3SM 20/19 A2980 RMK T02000190 IEM_DS3505
ZGKL,2008-05-09 03:00,ZGKL 090300Z AUTO 02008KT 6SM 19/18 A2980 RMK SLP094 T01910181 52015 IEM_DS3505
ZGKL,2008-05-09 04:00,ZGKL 090400Z AUTO 06004KT 2 1/2SM 19/18 A2983 RMK T01900180 IEM_DS3505
ZGKL,2008-05-09 05:00,ZGKL 090500Z AUTO 05008KT 2SM 19/18 A2983 RMK T01900180 IEM_DS3505
ZGKL,2008-05-09 06:00,ZGKL 090600Z AUTO 36008KT 7SM 19/17 A2983 RMK 60047 SLP104 T01880173 52010 IEM_DS3505
ZGKL,2008-05-09 07:00,ZGKL 090700Z AUTO 5SM 20/18 A2983 RMK T02000180 IEM_DS3505
ZGKL,2008-05-09 08:00,ZGKL 090800Z AUTO 7SM 20/18 A2983 RMK T02000180 IEM_DS3505
ZGKL,2008-05-09 09:00,ZGKL 090900Z AUTO 02012KT 10SM 20/15 A2983 RMK SLP101 T01950154 57004 IEM_DS3505
ZGKL,2008-05-09 10:00,ZGKL 091000Z AUTO 06008KT 7SM 20/17 A2983 RMK T02000170 IEM_DS3505
ZGKL,2008-05-09 11:00,ZGKL 091100Z AUTO 06010KT 7SM 19/16 A2985 RMK T01900160 IEM_DS3505
ZGKL,2008-05-09 12:00,ZGKL 091200Z AUTO 02010KT 10SM 18/14 A2988 RMK 60000 SLP130 T01800141 52027 IEM_DS3505
ZGKL,2008-05-09 13:00,ZGKL 091300Z AUTO 7SM 18/15 A2991 RMK T01800150 IEM_DS3505
ZGKL,2008-05-09 14:00,ZGKL 091400Z AUTO 7SM 18/15 A2991 RMK T01800150 IEM_DS3505
ZGKL,2008-05-09 15:00,ZGKL 091500Z AUTO 36008KT 9SM 18/13 A2994 RMK SLP145 T01780131 52014 IEM_DS3505
ZGKL,2008-05-09 16:00,ZGKL 091600Z AUTO 7SM 17/14 A2994 RMK T01700140 IEM_DS3505
ZGKL,2008-05-09 17:00,ZGKL 091700Z AUTO 34004KT 7SM 17/14 A2994 RMK T01700140 IEM_DS3505
ZGKL,2008-05-09 18:00,ZGKL 091800Z AUTO 02006KT 9SM 18/13 A2991 RMK SLP140 T01750130 57005 IEM_DS3505
ZGKL,2008-05-09 19:00,ZGKL 091900Z AUTO 00000KT 6SM 16/14 A2991 RMK T01600140 IEM_DS3505
ZGKL,2008-05-09 20:00,ZGKL 092000Z AUTO 34004KT 6SM 16/14 A2991 RMK T01600140 IEM_DS3505
ZGKL,2008-05-09 21:00,ZGKL 092100Z AUTO 02012KT 9SM 18/12 A2991 RMK 70436 SLP138 T01780125 57001 IEM_DS3505
ZGKL,2008-05-09 22:00,ZGKL 092200Z AUTO 32004KT 6SM 16/14 A2991 RMK T01600140 IEM_DS3505
ZGKL,2008-05-09 23:00,ZGKL 092300Z AUTO 00000KT 6SM 16/15 A2994 RMK T01600150 IEM_DS3505
ZGKL,2008-05-10 00:00,ZGKL 100000Z AUTO 02008KT 9SM 19/13 A2994 RMK 70047 SLP145 T01910128 52006 IEM_DS3505
ZGKL,2008-05-10 01:00,ZGKL 100100Z AUTO 04008KT 6SM 21/13 A2994 RMK T02100130 IEM_DS3505
ZGKL,2008-05-10 02:00,ZGKL 100200Z AUTO 6SM 22/13 A2994 RMK T02200130 IEM_DS3505
ZGKL,2008-05-10 03:00,ZGKL 100300Z AUTO 02014KT 9SM 23/12 A2994 RMK SLP147 T02280121 52003 IEM_DS3505
ZGKL,2008-05-10 04:00,ZGKL 100400Z AUTO 05010KT 6SM 25/13 A2994 RMK T02500130 IEM_DS3505
ZGKL,2008-05-10 05:00,ZGKL 100500Z AUTO 06012KT 6SM 25/13 A2991 RMK T02500130 IEM_DS3505
ZGKL,2008-05-10 06:00,ZGKL 100600Z AUTO 07010KT 9SM 25/13 A2991 RMK SLP135 T02540126 57011 IEM_DS3505
ZGKL,2008-05-10 07:00,ZGKL 100700Z AUTO 07016KT 6SM 26/13 A2988 RMK T02600130 IEM_DS3505
ZGKL,2008-05-10 08:00,ZGKL 100800Z AUTO 06016KT 6SM 26/13 A2988 RMK T02600130 IEM_DS3505
ZGKL,2008-05-10 09:00,ZGKL 100900Z AUTO 07012KT 9SM 25/12 A2985 RMK SLP117 T02540119 57017 IEM_DS3505
ZGKL,2008-05-10 10:00,ZGKL 101000Z AUTO 06008KT 6SM 25/13 A2988 RMK T02500130 IEM_DS3505
ZGKL,2008-05-10 11:00,ZGKL 101100Z AUTO 04008KT 6SM 23/12 A2988 RMK T02300120 IEM_DS3505
ZGKL,2008-05-10 12:00,ZGKL 101200Z AUTO 02004KT 9SM 22/13 A2988 RMK SLP131 T02240132 52013 IEM_DS3505
ZGKL,2008-05-10 13:00,ZGKL 101300Z AUTO 6SM 21/13 A2991 RMK T02100130 IEM_DS3505
ZGKL,2008-05-10 14:00,ZGKL 101400Z AUTO 32004KT 6SM 19/15 A2994 RMK T01900150 IEM_DS3505
ZGKL,2008-05-10 15:00,ZGKL 101500Z AUTO 36006KT 9SM 22/12 A2994 RMK SLP142 T02160125 52012 IEM_DS3505
ZGKL,2008-05-10 16:00,ZGKL 101600Z AUTO 30004KT 6SM 18/16 A2994 RMK T01800160 IEM_DS3505
ZGKL,2008-05-10 17:00,ZGKL 101700Z AUTO 00000KT 4SM 17/16 A2991 RMK T01700160 IEM_DS3505
ZGKL,2008-05-10 18:00,ZGKL 101800Z AUTO 02006KT 9SM 20/13 A2991 RMK SLP131 T02030128 57011 IEM_DS3505
ZGKL,2008-05-10 19:00,ZGKL 101900Z AUTO 00000KT 1 1/4SM 17/16 A2991 RMK T01700160 IEM_DS3505
ZGKL,2008-05-10 20:00,ZGKL 102000Z AUTO 00000KT 1 1/2SM 17/16 A2991 RMK T01700160 IEM_DS3505
ZGKL,2008-05-10 21:00,ZGKL 102100Z AUTO 02006KT 9SM 19/12 A2991 RMK SLP130 T01940122 57001 IEM_DS3505
ZGKL,2008-05-10 22:00,ZGKL 102200Z AUTO 00000KT 3SM 17/16 A2991 RMK T01700160 IEM_DS3505
ZGKL,2008-05-10 23:00,ZGKL 102300Z AUTO 00000KT 4SM 17/16 A2991 RMK T01700160 IEM_DS3505
ZGKL,2008-05-11 00:00,ZGKL 110000Z AUTO 02006KT 9SM 21/12 A2994 RMK SLP137 T02120115 52007 IEM_DS3505
ZGKL,2008-05-11 01:00,ZGKL 110100Z AUTO 00000KT 4SM 22/16 A2991 RMK T02200160 IEM_DS3505
ZGKL,2008-05-11 02:00,ZGKL 110200Z AUTO 04008KT 4SM 24/12 A2991 RMK T02400120 IEM_DS3505
ZGKL,2008-05-11 03:00,ZGKL 110300Z AUTO 36008KT 9SM 25/12 A2988 RMK SLP124 T02530125 57012 IEM_DS3505
ZGKL,2008-05-11 04:00,ZGKL 110400Z AUTO 03006KT 6SM 26/12 A2988 RMK T02600120 IEM_DS3505
ZGKL,2008-05-11 05:00,ZGKL 110500Z AUTO 09006KT 6SM 27/12 A2985 RMK T02700120 IEM_DS3505
ZGKL,2008-05-11 06:00,ZGKL 110600Z AUTO 07004KT 11SM 28/11 A2983 RMK SLP101 T02840106 57022 IEM_DS3505
ZGKL,2008-05-11 07:00,ZGKL 110700Z AUTO 11006KT 6SM 28/12 A2980 RMK T02800120 IEM_DS3505
ZGKL,2008-05-11 08:00,ZGKL 110800Z AUTO 6SM 29/11 A2980 RMK T02900110 IEM_DS3505
ZGKL,2008-05-11 09:00,ZGKL 110900Z AUTO 02006KT 14SM 30/03 A2977 RMK SLP078 T03020033 57022 IEM_DS3505
ZGKL,2008-05-11 10:00,ZGKL 111000Z AUTO 24004KT 6SM 28/13 A2977 RMK T02800130 IEM_DS3505
ZGKL,2008-05-11 11:00,ZGKL 111100Z AUTO 26002KT 6SM 25/15 A2980 RMK T02500150 IEM_DS3505
ZGKL,2008-05-11 12:00,ZGKL 111200Z AUTO 36002KT 12SM 25/12 A2983 RMK SLP098 T02500116 52018 IEM_DS3505
ZGKL,2008-05-11 13:00,ZGKL 111300Z AUTO 33006KT 6SM 22/14 A2983 RMK T02200140 IEM_DS3505
ZGKL,2008-05-11 14:00,ZGKL 111400Z AUTO 34006KT 6SM 21/13 A2985 RMK T02100130 IEM_DS3505
ZGKL,2008-05-11 15:00,ZGKL 111500Z AUTO 02004KT 11SM 23/12 A2988 RMK SLP115 T02290122 52017 IEM_DS3505
ZGKL,2008-05-11 16:00,ZGKL 111600Z AUTO 00000KT 6SM 19/17 A2985 RMK T01900170 IEM_DS3505
ZGKL,2008-05-11 17:00,ZGKL 111700Z AUTO 00000KT 4SM 18/17 A2985 RMK T01800170 IEM_DS3505
ZGKL,2008-05-11 18:00,ZGKL 111800Z AUTO 02004KT 10SM 21/13 A2985 RMK SLP109 T02090134 57005 IEM_DS3505
ZGKL,2008-05-11 19:00,ZGKL 111900Z AUTO 00000KT 3SM 17/16 A2985 RMK T01700160 IEM_DS3505
ZGKL,2008-05-11 20:00,ZGKL 112000Z AUTO 00000KT 3SM 17/16 A2985 RMK T01700160 IEM_DS3505
ZGKL,2008-05-11 21:00,ZGKL 112100Z AUTO 36004KT 9SM 18/14 A2985 RMK SLP115 T01840139 52006 IEM_DS3505
ZGKL,2008-05-11 22:00,ZGKL 112200Z AUTO 00000KT 6SM 16/16 A2988 RMK T01600160 IEM_DS3505
ZGKL,2008-05-11 23:00,ZGKL 112300Z AUTO 00000KT 6SM 17/16 A2991 RMK T01700160 IEM_DS3505
ZGKL,2008-05-12 00:00,ZGKL 120000Z AUTO 36004KT 6SM 20/14 A2991 RMK SLP136 T02030144 52019 IEM_DS3505
ZGKL,2008-05-12 01:00,ZGKL 120100Z AUTO 6SM 23/15 A2994 RMK T02300150 IEM_DS3505
ZGKL,2008-05-12 02:00,ZGKL 120200Z AUTO 6SM 25/16 A2994 RMK T02500160 IEM_DS3505
ZGKL,2008-05-12 03:00,ZGKL 120300Z AUTO 36004KT 6SM 27/14 A2991 RMK SLP133 T02730136 57001 IEM_DS3505
ZGKL,2008-05-12 04:00,ZGKL 120400Z AUTO 6SM 28/10 A2991 RMK T02800100 IEM_DS3505
ZGKL,2008-05-12 05:00,ZGKL 120500Z AUTO 6SM 29/12 A2988 RMK T02900120 IEM_DS3505
ZGKL,2008-05-12 06:00,ZGKL 120600Z AUTO 02010KT 11SM 31/11 A2985 RMK SLP105 T03090108 57027 IEM_DS3505
ZGKL,2008-05-12 07:00,ZGKL 120700Z AUTO 6SM 31/11 A2983 RMK T03100110 IEM_DS3505
ZGKL,2008-05-12 08:00,ZGKL 120800Z AUTO 6SM 31/11 A2983 RMK T03100110 IEM_DS3505
ZGKL,2008-05-12 09:00,ZGKL 120900Z AUTO 04008KT 14SM 31/10 A2980 RMK SLP093 T03090097 57013 IEM_DS3505
ZGKL,2008-05-12 10:00,ZGKL 121000Z AUTO 06008KT 6SM 30/11 A2983 RMK T03000110 IEM_DS3505
ZGKL,2008-05-12 11:00,ZGKL 121100Z AUTO 04008KT 6SM 28/10 A2983 RMK T02800100 IEM_DS3505
ZGKL,2008-05-12 12:00,ZGKL 121200Z AUTO 36004KT 11SM 26/12 A2985 RMK SLP110 T02640117 52016 IEM_DS3505
ZGKL,2008-05-12 13:00,ZGKL 121300Z AUTO 6SM 23/13 A2988 RMK T02300130 IEM_DS3505
ZGKL,2008-05-12 14:00,ZGKL 121400Z AUTO 25004KT 6SM 22/15 A2991 RMK T02200150 IEM_DS3505
ZGKL,2008-05-12 15:00,ZGKL 121500Z AUTO 36006KT 11SM 24/14 A2994 RMK SLP135 T02450137 52026 IEM_DS3505
ZGKL,2008-05-12 16:00,ZGKL 121600Z AUTO 6SM 20/17 A2994 RMK T02000170 IEM_DS3505
ZGKL,2008-05-12 17:00,ZGKL 121700Z AUTO 00000KT 6SM 20/16 A2994 RMK T02000160 IEM_DS3505
ZGKL,2008-05-12 18:00,ZGKL 121800Z AUTO 02008KT 10SM 23/15 A2994 RMK SLP137 T02260147 52003 IEM_DS3505
ZGKL,2008-05-12 19:00,ZGKL 121900Z AUTO 00000KT 5SM 18/16 A2994 RMK T01800160 IEM_DS3505
ZGKL,2008-05-12 20:00,ZGKL 122000Z AUTO 00000KT 6SM 18/16 A2994 RMK T01800160 IEM_DS3505
ZGKL,2008-05-12 21:00,ZGKL 122100Z AUTO 36008KT 8SM 21/12 A2997 RMK SLP145 T02120118 52007 IEM_DS3505
ZGKL,2008-05-12 22:00,ZGKL 122200Z AUTO 00000KT 5SM 17/16 A2997 RMK T01700160 IEM_DS3505
ZGKL,2008-05-12 23:00,ZGKL 122300Z AUTO 00000KT 5SM 18/17 A3000 RMK T01800170 IEM_DS3505
ZGKL,2008-05-13 00:00,ZGKL 130000Z AUTO 02006KT 9SM 22/10 A3000 RMK SLP165 T02230101 52019 IEM_DS3505
ZGKL,2008-05-13 01:00,ZGKL 130100Z AUTO 6SM 23/16 A3003 RMK T02300160 IEM_DS3505
ZGKL,2008-05-13 02:00,ZGKL 130200Z AUTO 05010KT 6SM 26/11 A3003 RMK T02600110 IEM_DS3505
ZGKL,2008-05-13 03:00,ZGKL 130300Z AUTO 36008KT 10SM 26/11 A3000 RMK SLP158 T02620112 57007 IEM_DS3505
ZGKL,2008-05-13 04:00,ZGKL 130400Z AUTO 05010KT 6SM 28/13 A2997 RMK T02800130 IEM_DS3505
ZGKL,2008-05-13 05:00,ZGKL 130500Z AUTO 08008KT 6SM 29/12 A2997 RMK T02900120 IEM_DS3505
ZGKL,2008-05-13 06:00,ZGKL 130600Z AUTO 02006KT 10SM 29/13 A2994 RMK SLP136 T02930131 57021 IEM_DS3505
ZGKL,2008-05-13 07:00,ZGKL 130700Z AUTO 06010KT 6SM 30/12 A2991 RMK T03000120 IEM_DS3505
ZGKL,2008-05-13 08:00,ZGKL 130800Z AUTO 05010KT 6SM 30/13 A2988 RMK T03000130 IEM_DS3505
ZGKL,2008-05-13 09:00,ZGKL 130900Z AUTO 02008KT 9SM 29/13 A2988 RMK SLP115 T02890132 57021 IEM_DS3505
ZGKL,2008-05-13 10:00,ZGKL 131000Z AUTO 06008KT 6SM 28/14 A2988 RMK T02800140 IEM_DS3505
ZGKL,2008-05-13 11:00,ZGKL 131100Z AUTO 06008KT 6SM 26/14 A2988 RMK T02600140 IEM_DS3505
ZGKL,2008-05-13 12:00,ZGKL 131200Z AUTO 02008KT 9SM 25/13 A2991 RMK SLP133 T02500126 52017 IEM_DS3505
ZGKL,2008-05-13 13:00,ZGKL 131300Z AUTO 03004KT 6SM 23/14 A2994 RMK T02300140 IEM_DS3505
ZGKL,2008-05-13 14:00,ZGKL 131400Z AUTO 34006KT 6SM 22/15 A2994 RMK T02200150 IEM_DS3505
ZGKL,2008-05-13 15:00,ZGKL 131500Z AUTO 02004KT 8SM 23/10 A2997 RMK SLP147 T02300101 52014 IEM_DS3505
ZGKL,2008-05-13 16:00,ZGKL 131600Z AUTO 4SM 20/17 A2997 RMK T02000170 IEM_DS3505
ZGKL,2008-05-13 17:00,ZGKL 131700Z AUTO 00000KT 3SM 19/17 A2994 RMK T01900170 IEM_DS3505
ZGKL,2008-05-13 18:00,ZGKL 131800Z AUTO 36004KT 8SM 21/10 A2994 RMK SLP140 T02120098 57006 IEM_DS3505
ZGKL,2008-05-13 19:00,ZGKL 131900Z AUTO 00000KT 1 1/2SM 18/17 A2994 RMK T01800170 IEM_DS3505
ZGKL,2008-05-13 20:00,ZGKL 132000Z AUTO 00000KT 1 1/4SM 18/18 A2994 RMK T01800180 IEM_DS3505
ZGKL,2008-05-13 21:00,ZGKL 132100Z AUTO 36004KT 8SM 21/10 A2994 RMK SLP142 T02090098 52001 IEM_DS3505
ZGKL,2008-05-13 22:00,ZGKL 132200Z AUTO 00000KT 3SM 18/17 A2994 RMK T01800170 IEM_DS3505
ZGKL,2008-05-13 23:00,ZGKL 132300Z AUTO 00000KT 4SM 19/17 A2997 RMK T01900170 IEM_DS3505
ZGKL,2008-05-14 00:00,ZGKL 140000Z AUTO 36004KT 9SM 22/10 A2997 RMK SLP157 T02230098 52014 IEM_DS3505
ZGKL,2008-05-14 01:00,ZGKL 140100Z AUTO 5SM 23/16 A2997 RMK T02300160 IEM_DS3505
ZGKL,2008-05-14 02:00,ZGKL 140200Z AUTO 07002KT 6SM 25/10 A2997 RMK T02500100 IEM_DS3505
ZGKL,2008-05-14 03:00,ZGKL 140300Z AUTO 02004KT 9SM 26/09 A2997 RMK SLP149 T02620091 57007 IEM_DS3505
ZGKL,2008-05-14 04:00,ZGKL 140400Z AUTO 05002KT 6SM 28/10 A2994 RMK T02800100 IEM_DS3505
ZGKL,2008-05-14 05:00,ZGKL 140500Z AUTO 11002KT 6SM 29/11 A2991 RMK T02900110 IEM_DS3505
ZGKL,2008-05-14 06:00,ZGKL 140600Z AUTO 36004KT 9SM 29/11 A2991 RMK SLP123 T02930114 57025 IEM_DS3505
ZGKL,2008-05-14 07:00,ZGKL 140700Z AUTO 08004KT 6SM 29/11 A2985 RMK T02900110 IEM_DS3505
ZGKL,2008-05-14 08:00,ZGKL 140800Z AUTO 06002KT 6SM 30/11 A2985 RMK T03000110 IEM_DS3505
ZGKL,2008-05-14 09:00,ZGKL 140900Z AUTO 02004KT 9SM 29/13 A2985 RMK SLP103 T02920126 57020 IEM_DS3505
ZGKL,2008-05-14 10:00,ZGKL 141000Z AUTO 06002KT 6SM 28/16 A2985 RMK T02800160 IEM_DS3505
ZGKL,2008-05-14 11:00,ZGKL 141100Z AUTO 08002KT 6SM 26/16 A2985 RMK T02600160 IEM_DS3505
ZGKL,2008-05-14 12:00,ZGKL 141200Z AUTO 02006KT 9SM 26/13 A2988 RMK SLP118 T02550127 52014 IEM_DS3505
ZGKL,2008-05-14 13:00,ZGKL 141300Z AUTO 06004KT 6SM 24/13 A2988 RMK T02400130 IEM_DS3505
ZGKL,2008-05-14 14:00,ZGKL 141400Z AUTO 04002KT 6SM 24/12 A2991 RMK T02400120 IEM_DS3505
ZGKL,2008-05-14 15:00,ZGKL 141500Z AUTO 02006KT 9SM 23/12 A2991 RMK SLP134 T02290125 52016 IEM_DS3505
ZGKL,2008-05-14 16:00,ZGKL 141600Z AUTO 00000KT 6SM 22/13 A2991 RMK T02200130 IEM_DS3505
ZGKL,2008-05-14 17:00,ZGKL 141700Z AUTO 00000KT 6SM 21/15 A2991 RMK T02100150 IEM_DS3505
ZGKL,2008-05-14 18:00,ZGKL 141800Z AUTO 02004KT 9SM 22/13 A2988 RMK SLP120 T02190127 57013 IEM_DS3505
ZGKL,2008-05-14 19:00,ZGKL 141900Z AUTO 00000KT 6SM 20/16 A2988 RMK T02000160 IEM_DS3505
ZGKL,2008-05-14 20:00,ZGKL 142000Z AUTO 07002KT 6SM 20/17 A2988 RMK T02000170 IEM_DS3505
ZGKL,2008-05-14 21:00,ZGKL 142100Z AUTO 04002KT 9SM 21/13 A2988 RMK SLP120 T02110130 54000 IEM_DS3505
ZGKL,2008-05-14 22:00,ZGKL 142200Z AUTO 07002KT 4SM 20/16 A2988 RMK T02000160 IEM_DS3505
ZGKL,2008-05-14 23:00,ZGKL 142300Z AUTO 09002KT 3SM 20/17 A2991 RMK T02000170 IEM_DS3505
ZGKL,2008-05-15 00:00,ZGKL 150000Z AUTO 09002KT 9SM 22/14 A2994 RMK SLP135 T02160145 52014 IEM_DS3505
ZGKL,2008-05-15 01:00,ZGKL 150100Z AUTO 4SM 23/15 A2994 RMK T02300150 IEM_DS3505
ZGKL,2008-05-15 02:00,ZGKL 150200Z AUTO 07004KT 3SM 23/15 A2994 RMK T02300150 IEM_DS3505
ZGKL,2008-05-15 03:00,ZGKL 150300Z AUTO 36006KT 8SM 25/12 A2994 RMK SLP136 T02470123 52001 IEM_DS3505
ZGKL,2008-05-15 04:00,ZGKL 150400Z AUTO 07004KT 3SM 27/15 A2991 RMK T02700150 IEM_DS3505
ZGKL,2008-05-15 05:00,ZGKL 150500Z AUTO 3SM 28/15 A2988 RMK T02800150 IEM_DS3505
ZGKL,2008-05-15 06:00,ZGKL 150600Z AUTO 02004KT 9SM 28/13 A2985 RMK SLP111 T02790134 57024 IEM_DS3505
ZGKL,2008-05-15 07:00,ZGKL 150700Z AUTO 07004KT 4SM 28/15 A2983 RMK T02800150 IEM_DS3505
ZGKL,2008-05-15 08:00,ZGKL 150800Z AUTO 06006KT 4SM 27/15 A2980 RMK T02700150 IEM_DS3505
ZGKL,2008-05-15 09:00,ZGKL 150900Z AUTO 02006KT 8SM 26/14 A2980 RMK SLP096 T02580140 57016 IEM_DS3505
ZGKL,2008-05-15 10:00,ZGKL 151000Z AUTO 05004KT 4SM 26/16 A2980 RMK T02600160 IEM_DS3505
ZGKL,2008-05-15 11:00,ZGKL 151100Z AUTO 05004KT 4SM 24/16 A2983 RMK T02400160 IEM_DS3505
ZGKL,2008-05-15 12:00,ZGKL 151200Z AUTO 02004KT 7SM 24/14 A2983 RMK SLP103 T02370138 52007 IEM_DS3505
ZGKL,2008-05-15 13:00,ZGKL 151300Z AUTO 04004KT 3SM 23/16 A2985 RMK T02300160 IEM_DS3505
ZGKL,2008-05-15 14:00,ZGKL 151400Z AUTO 05006KT 3SM 23/15 A2985 RMK T02300150 IEM_DS3505
ZGKL,2008-05-15 15:00,ZGKL 151500Z AUTO 36004KT 7SM 23/14 A2988 RMK SLP118 T02260142 52015 IEM_DS3505
ZGKL,2008-05-15 16:00,ZGKL 151600Z AUTO 2 1/2SM 22/17 A2988 RMK T02200170 IEM_DS3505
ZGKL,2008-05-15 17:00,ZGKL 151700Z AUTO 00000KT 2 1/2SM 21/18 A2985 RMK T02100180 IEM_DS3505
ZGKL,2008-05-15 18:00,ZGKL 151800Z AUTO 34002KT 6SM 22/15 A2985 RMK SLP111 T02180149 57006 IEM_DS3505
ZGKL,2008-05-15 19:00,ZGKL 151900Z AUTO 00000KT 2SM 21/17 A2985 RMK T02100170 IEM_DS3505
ZGKL,2008-05-15 20:00,ZGKL 152000Z AUTO 07002KT 2SM 21/17 A2985 RMK T02100170 IEM_DS3505
ZGKL,2008-05-15 21:00,ZGKL 152100Z AUTO 36002KT 6SM 21/15 A2985 RMK 70000 SLP108 T02090154 57004 IEM_DS3505
ZGKL,2008-05-15 22:00,ZGKL 152200Z AUTO 00000KT 1 1/4SM 21/19 A2985 RMK T02100190 IEM_DS3505
ZGKL,2008-05-15 23:00,ZGKL 152300Z AUTO 00000KT 1SM 20/19 A2988 RMK T02000190 IEM_DS3505
ZGKL,2008-05-16 00:00,ZGKL 160000Z AUTO 02002KT 4SM 21/16 A2988 RMK 60000 70000 SLP123 T02080164 52014 IEM_DS3505
ZGKL,2008-05-16 01:00,ZGKL 160100Z AUTO 00000KT 1SM 21/19 A2991 RMK T02100190 IEM_DS3505
ZGKL,2008-05-16 02:00,ZGKL 160200Z AUTO 1SM 21/20 A2991 RMK T02100200 IEM_DS3505
ZGKL,2008-05-16 03:00,ZGKL 160300Z AUTO 16002KT 2 1/2SM 21/18 A2991 RMK SLP130 T02130179 52007 IEM_DS3505
ZGKL,2008-05-16 04:00,ZGKL 160400Z AUTO 1 1/4SM 22/20 A2988 RMK T02200200 IEM_DS3505
ZGKL,2008-05-16 05:00,ZGKL 160500Z AUTO 19004KT 1 1/4SM 23/20 A2985 RMK T02300200 IEM_DS3505
ZGKL,2008-05-16 06:00,ZGKL 160600Z AUTO 18004KT 2 1/2SM 24/19 A2983 RMK 60003 SLP105 T02430187 57024 IEM_DS3505
ZGKL,2008-05-16 07:00,ZGKL 160700Z AUTO 00000KT 1 1/4SM 23/20 A2980 RMK T02300200 IEM_DS3505
ZGKL,2008-05-16 08:00,ZGKL 160800Z AUTO 1 1/2SM 23/20 A2980 RMK T02300200 IEM_DS3505
ZGKL,2008-05-16 09:00,ZGKL 160900Z AUTO 27002KT 3SM 25/18 A2977 RMK SLP083 T02460185 57022 IEM_DS3505
ZGKL,2008-05-16 10:00,ZGKL 161000Z AUTO 00000KT 1 1/2SM 23/21 A2977 RMK T02300210 IEM_DS3505
ZGKL,2008-05-16 11:00,ZGKL 161100Z AUTO 00000KT 1 1/4SM 22/21 A2977 RMK T02200210 IEM_DS3505
ZGKL,2008-05-16 12:00,ZGKL 161200Z AUTO 29002KT 3SM 23/20 A2980 RMK 60000 SLP088 T02290199 52005 IEM_DS3505
ZGKL,2008-05-16 13:00,ZGKL 161300Z AUTO 00000KT 1SM 22/21 A2980 RMK T02200210 IEM_DS3505
ZGKL,2008-05-16 14:00,ZGKL 161400Z AUTO 00000KT 1SM 21/21 A2980 RMK T02100210 IEM_DS3505
ZGKL,2008-05-16 15:00,ZGKL 161500Z AUTO 07002KT 2 1/2SM 22/20 A2980 RMK SLP095 T02200205 52006 IEM_DS3505
ZGKL,2008-05-16 16:00,ZGKL 161600Z AUTO 00000KT 1SM 21/21 A2980 RMK T02100210 IEM_DS3505
ZGKL,2008-05-16 17:00,ZGKL 161700Z AUTO 00000KT 1/2SM 21/21 A2980 RMK T02100210 IEM_DS3505
ZGKL,2008-05-16 18:00,ZGKL 161800Z AUTO 04002KT 3SM 22/20 A2977 RMK SLP084 T02150203 57010 IEM_DS3505
ZGKL,2008-05-16 19:00,ZGKL 161900Z AUTO 00000KT 1SM 21/20 A2977 RMK T02100200 IEM_DS3505
ZGKL,2008-05-16 20:00,ZGKL 162000Z AUTO 00000KT 1SM 21/20 A2974 RMK T02100200 IEM_DS3505
ZGKL,2008-05-16 21:00,ZGKL 162100Z AUTO 11002KT 2SM 21/20 A2974 RMK 70003 SLP075 T02140204 57008 IEM_DS3505
ZGKL,2008-05-16 22:00,ZGKL 162200Z AUTO 00000KT 1SM 21/20 A2977 RMK T02100200 IEM_DS3505
ZGKL,2008-05-16 23:00,ZGKL 162300Z AUTO 00000KT 1SM 21/20 A2977 RMK T02100200 IEM_DS3505
ZGKL,2008-05-17 00:00,ZGKL 170000Z AUTO 07002KT 1 1/4SM 21/21 A2980 RMK 60000 70003 SLP087 T02140209 52011 IEM_DS3505
ZGKL,2008-05-17 01:00,ZGKL 170100Z AUTO 34004KT 1SM 21/21 A2980 RMK T02100210 IEM_DS3505
ZGKL,2008-05-17 02:00,ZGKL 170200Z AUTO 1SM 22/21 A2980 RMK T02200210 IEM_DS3505
ZGKL,2008-05-17 03:00,ZGKL 170300Z AUTO 34002KT 1 1/4SM 23/21 A2980 RMK SLP092 T02270212 52005 IEM_DS3505
ZGKL,2008-05-17 04:00,ZGKL 170400Z AUTO 1SM 22/21 A2980 RMK T02200210 IEM_DS3505
ZGKL,2008-05-17 05:00,ZGKL 170500Z AUTO 34006KT 2SM 22/20 A2977 RMK T02200200 IEM_DS3505
ZGKL,2008-05-17 06:00,ZGKL 170600Z AUTO 29002KT 1 1/4SM 23/20 A2974 RMK 60012 SLP075 T02280205 57017 IEM_DS3505
ZGKL,2008-05-17 07:00,ZGKL 170700Z AUTO 2 1/2SM 23/20 A2974 RMK T02300200 IEM_DS3505
ZGKL,2008-05-17 08:00,ZGKL 170800Z AUTO 2 1/2SM 23/20 A2971 RMK T02300200 IEM_DS3505
ZGKL,2008-05-17 09:00,ZGKL 170900Z AUTO 00000KT 3SM 25/20 A2968 RMK SLP055 T02510199 57019 IEM_DS3505
ZGKL,2008-05-17 10:00,ZGKL 171000Z AUTO 1 1/4SM 24/20 A2968 RMK T02400200 IEM_DS3505
ZGKL,2008-05-17 11:00,ZGKL 171100Z AUTO 1 1/4SM 23/21 A2968 RMK T02300210 IEM_DS3505
ZGKL,2008-05-17 12:00,ZGKL 171200Z AUTO 29002KT 3SM 23/20 A2971 RMK 60000 SLP059 T02320202 52003 IEM_DS3505
ZGKL,2008-05-17 13:00,ZGKL 171300Z AUTO 18002KT 1SM 22/21 A2971 RMK T02200210 IEM_DS3505
ZGKL,2008-05-17 14:00,ZGKL 171400Z AUTO 20002KT 1SM 22/21 A2971 RMK T02200210 IEM_DS3505
ZGKL,2008-05-17 15:00,ZGKL 171500Z AUTO 36002KT 3SM 22/21 A2974 RMK SLP070 T02210209 52011 IEM_DS3505
ZGKL,2008-05-17 16:00,ZGKL 171600Z AUTO 1SM 22/21 A2974 RMK T02200210 IEM_DS3505
ZGKL,2008-05-17 17:00,ZGKL 171700Z AUTO 00000KT 1SM 21/21 A2971 RMK T02100210 IEM_DS3505
ZGKL,2008-05-17 18:00,ZGKL 171800Z AUTO 00000KT 2 1/2SM 22/20 A2971 RMK SLP056 T02170198 57014 IEM_DS3505
ZGKL,2008-05-17 19:00,ZGKL 171900Z AUTO 17002KT 3/8SM 21/21 A2968 RMK T02100210 IEM_DS3505
ZGKL,2008-05-17 20:00,ZGKL 172000Z AUTO 00000KT 3/8SM 21/21 A2968 RMK T02100210 IEM_DS3505
ZGKL,2008-05-17 21:00,ZGKL 172100Z AUTO 07002KT 2SM 21/21 A2968 RMK 70015 SLP050 T02120207 57005 IEM_DS3505
ZGKL,2008-05-17 22:00,ZGKL 172200Z AUTO 00000KT 1/2SM 21/20 A2968 RMK T02100200 IEM_DS3505
ZGKL,2008-05-17 23:00,ZGKL 172300Z AUTO 00000KT 1/2SM 21/20 A2971 RMK T02100200 IEM_DS3505
ZGKL,2008-05-18 00:00,ZGKL 180000Z AUTO 00000KT 1SM 22/22 A2971 RMK 60004 70017 SLP066 T02180216 52015 IEM_DS3505
ZGKL,2008-05-18 01:00,ZGKL 180100Z AUTO 16004KT 1SM 21/21 A2974 RMK T02100210 IEM_DS3505
ZGKL,2008-05-18 02:00,ZGKL 180200Z AUTO 00000KT 1SM 21/20 A2974 RMK T02100200 IEM_DS3505
ZGKL,2008-05-18 03:00,ZGKL 180300Z AUTO 32004KT 1 1/4SM 21/20 A2974 RMK SLP072 T02080201 52006 IEM_DS3505
ZGKL,2008-05-18 04:00,ZGKL 180400Z AUTO 1 1/4SM 21/20 A2974 RMK T02100200 IEM_DS3505
ZGKL,2008-05-18 05:00,ZGKL 180500Z AUTO 33004KT 1 1/4SM 21/20 A2971 RMK T02100200 IEM_DS3505
ZGKL,2008-05-18 06:00,ZGKL 180600Z AUTO 04002KT 1 1/4SM 21/21 A2971 RMK 60031 SLP059 T02090209 57013 IEM_DS3505
ZGKL,2008-05-18 07:00,ZGKL 180700Z AUTO 35006KT 1SM 20/20 A2971 RMK T02000200 IEM_DS3505
ZGKL,2008-05-18 08:00,ZGKL 180800Z AUTO 35006KT 1SM 20/20 A2971 RMK T02000200 IEM_DS3505
ZGKL,2008-05-18 09:00,ZGKL 180900Z AUTO 02002KT 1 1/4SM 21/21 A2971 RMK SLP064 T02070207 52004 IEM_DS3505
ZGKL,2008-05-18 10:00,ZGKL 181000Z AUTO 36006KT 1SM 21/20 A2971 RMK T02100200 IEM_DS3505
ZGKL,2008-05-18 11:00,ZGKL 181100Z AUTO 32004KT 1SM 21/20 A2974 RMK T02100200 IEM_DS3505
ZGKL,2008-05-18 12:00,ZGKL 181200Z AUTO 02004KT 4SM 21/21 A2977 RMK 60075 SLP082 T02090207 52018 IEM_DS3505
ZGKL,2008-05-18 13:00,ZGKL 181300Z AUTO 31004KT 1 1/2SM 20/20 A2980 RMK T02000200 IEM_DS3505
ZGKL,2008-05-18 14:00,ZGKL 181400Z AUTO 30002KT 2SM 20/20 A2983 RMK T02000200 IEM_DS3505
ZGKL,2008-05-18 15:00,ZGKL 181500Z AUTO 36006KT 5SM 22/20 A2983 RMK SLP107 T02160199 52025 IEM_DS3505
ZGKL,2008-05-18 16:00,ZGKL 181600Z AUTO 1 1/4SM 20/20 A2985 RMK T02000200 IEM_DS3505
ZGKL,2008-05-18 17:00,ZGKL 181700Z AUTO 00000KT 1 1/4SM 20/20 A2985 RMK T02000200 IEM_DS3505
ZGKL,2008-05-18 18:00,ZGKL 181800Z AUTO 36008KT 6SM 22/19 A2983 RMK 60001 SLP104 T02200190 57003 IEM_DS3505
ZGKL,2008-05-18 19:00,ZGKL 181900Z AUTO 00000KT 2SM 20/20 A2983 RMK T02000200 IEM_DS3505
ZGKL,2008-05-18 20:00,ZGKL 182000Z AUTO 34004KT 2 1/2SM 20/20 A2983 RMK T02000200 IEM_DS3505
ZGKL,2008-05-18 21:00,ZGKL 182100Z AUTO 36006KT 6SM 22/18 A2983 RMK 70108 SLP107 T02160184 52003 IEM_DS3505
ZGKL,2008-05-18 22:00,ZGKL 182200Z AUTO 00000KT 2SM 20/19 A2985 RMK T02000190 IEM_DS3505
ZGKL,2008-05-18 23:00,ZGKL 182300Z AUTO 30004KT 1 1/4SM 20/19 A2988 RMK T02000190 IEM_DS3505
ZGKL,2008-05-19 00:00,ZGKL 190000Z AUTO 02008KT 4SM 22/17 A2988 RMK 60000 70107 SLP125 T02180174 52018 IEM_DS3505
ZGKL,2008-05-19 01:00,ZGKL 190100Z AUTO 2 1/2SM 23/19 A2991 RMK T02300190 IEM_DS3505
ZGKL,2008-05-19 02:00,ZGKL 190200Z AUTO 3SM 24/19 A2991 RMK T02400190 IEM_DS3505
ZGKL,2008-05-19 03:00,ZGKL 190300Z AUTO 04010KT 6SM 25/16 A2988 RMK SLP126 T02500162 52002 IEM_DS3505
ZGKL,2008-05-19 04:00,ZGKL 190400Z AUTO 08008KT 3SM 26/18 A2988 RMK T02600180 IEM_DS3505
ZGKL,2008-05-19 05:00,ZGKL 190500Z AUTO 06008KT 3SM 27/19 A2988 RMK T02700190 IEM_DS3505
ZGKL,2008-05-19 06:00,ZGKL 190600Z AUTO 07010KT 5SM 27/16 A2983 RMK SLP107 T02690159 57018 IEM_DS3505
ZGKL,2008-05-19 07:00,ZGKL 190700Z AUTO 05012KT 4SM 28/15 A2983 RMK T02800150 IEM_DS3505
ZGKL,2008-05-19 08:00,ZGKL 190800Z AUTO 06012KT 5SM 28/15 A2980 RMK T02800150 IEM_DS3505
ZGKL,2008-05-19 09:00,ZGKL 190900Z AUTO 04008KT 7SM 27/11 A2980 RMK SLP095 T02720113 57012 IEM_DS3505
ZGKL,2008-05-19 10:00,ZGKL 191000Z AUTO 05010KT 6SM 26/13 A2983 RMK T02600130 IEM_DS3505
ZGKL,2008-05-19 11:00,ZGKL 191100Z AUTO 05008KT 6SM 25/13 A2983 RMK T02500130 IEM_DS3505
ZGKL,2008-05-19 12:00,ZGKL 191200Z AUTO 02004KT 7SM 23/14 A2985 RMK SLP109 T02320139 52013 IEM_DS3505
ZGKL,2008-05-19 13:00,ZGKL 191300Z AUTO 6SM 21/15 A2985 RMK T02100150 IEM_DS3505
ZGKL,2008-05-19 14:00,ZGKL 191400Z AUTO 00000KT 5SM 19/17 A2988 RMK T01900170 IEM_DS3505
ZGKL,2008-05-19 15:00,ZGKL 191500Z AUTO 36004KT 7SM 21/15 A2988 RMK SLP121 T02120146 52012 IEM_DS3505
ZGKL,2008-05-19 16:00,ZGKL 191600Z AUTO 00000KT 4SM 18/17 A2988 RMK T01800170 IEM_DS3505
ZGKL,2008-05-19 17:00,ZGKL 191700Z AUTO 00000KT 4SM 17/16 A2988 RMK T01700160 IEM_DS3505
ZGKL,2008-05-19 18:00,ZGKL 191800Z AUTO 02002KT 7SM 18/15 A2985 RMK SLP116 T01810146 57006 IEM_DS3505
ZGKL,2008-05-19 19:00,ZGKL 191900Z AUTO 00000KT 1 1/4SM 16/15 A2985 RMK T01600150 IEM_DS3505
ZGKL,2008-05-19 20:00,ZGKL 192000Z AUTO 32002KT 4SM 15/15 A2985 RMK T01500150 IEM_DS3505
ZGKL,2008-05-19 21:00,ZGKL 192100Z AUTO 36004KT 7SM 18/14 A2985 RMK 70000 SLP113 T01750138 57003 IEM_DS3505
ZGKL,2008-05-19 22:00,ZGKL 192200Z AUTO 14004KT 5SM 14/14 A2988 RMK T01400140 IEM_DS3505
ZGKL,2008-05-19 23:00,ZGKL 192300Z AUTO 5SM 16/15 A2988 RMK T01600150 IEM_DS3505
ZGKL,2008-05-20 00:00,ZGKL 200000Z AUTO 07002KT 5SM 19/14 A2988 RMK SLP128 T01890140 52014 IEM_DS3505
ZGKL,2008-05-20 01:00,ZGKL 200100Z AUTO 00000KT 6SM 21/16 A2988 RMK T02100160 IEM_DS3505
ZGKL,2008-05-20 02:00,ZGKL 200200Z AUTO 6SM 23/15 A2988 RMK T02300150 IEM_DS3505
ZGKL,2008-05-20 03:00,ZGKL 200300Z AUTO 36004KT 5SM 26/14 A2988 RMK SLP113 T02600138 57013 IEM_DS3505
ZGKL,2008-05-20 04:00,ZGKL 200400Z AUTO 6SM 27/14 A2985 RMK T02700140 IEM_DS3505
ZGKL,2008-05-20 05:00,ZGKL 200500Z AUTO 26004KT 6SM 28/14 A2980 RMK T02800140 IEM_DS3505
ZGKL,2008-05-20 06:00,ZGKL 200600Z AUTO 25002KT 7SM 30/15 A2977 RMK SLP079 T02960146 57033 IEM_DS3505
ZGKL,2008-05-20 07:00,ZGKL 200700Z AUTO 6SM 29/14 A2977 RMK T02900140 IEM_DS3505
ZGKL,2008-05-20 08:00,ZGKL 200800Z AUTO 16004KT 6SM 30/13 A2971 RMK T03000130 IEM_DS3505
ZGKL,2008-05-20 09:00,ZGKL 200900Z AUTO 20006KT 9SM 30/13 A2968 RMK SLP055 T02970130 57024 IEM_DS3505
ZGKL,2008-05-20 10:00,ZGKL 201000Z AUTO 12004KT 6SM 29/14 A2968 RMK T02900140 IEM_DS3505
ZGKL,2008-05-20 11:00,ZGKL 201100Z AUTO 13004KT 6SM 27/15 A2971 RMK T02700150 IEM_DS3505
ZGKL,2008-05-20 12:00,ZGKL 201200Z AUTO 20002KT 9SM 26/17 A2971 RMK SLP060 T02580166 52004 IEM_DS3505
ZGKL,2008-05-20 13:00,ZGKL 201300Z AUTO 00000KT 4SM 22/20 A2974 RMK T02200200 IEM_DS3505
ZGKL,2008-05-20 14:00,ZGKL 201400Z AUTO 00000KT 4SM 22/19 A2977 RMK T02200190 IEM_DS3505
ZGKL,2008-05-20 15:00,ZGKL 201500Z AUTO 07002KT 8SM 23/18 A2980 RMK SLP084 T02290180 52025 IEM_DS3505
ZGKL,2008-05-20 16:00,ZGKL 201600Z AUTO 00000KT 3SM 21/19 A2980 RMK T02100190 IEM_DS3505
ZGKL,2008-05-20 17:00,ZGKL 201700Z AUTO 00000KT 3SM 20/19 A2977 RMK T02000190 IEM_DS3505
ZGKL,2008-05-20 18:00,ZGKL 201800Z AUTO 14002KT 8SM 23/18 A2977 RMK SLP084 T02270180 52001 IEM_DS3505
ZGKL,2008-05-20 19:00,ZGKL 201900Z AUTO 00000KT 2SM 19/19 A2977 RMK T01900190 IEM_DS3505
ZGKL,2008-05-20 20:00,ZGKL 202000Z AUTO 00000KT 2 1/2SM 19/18 A2977 RMK T01900180 IEM_DS3505
ZGKL,2008-05-20 21:00,ZGKL 202100Z AUTO 04002KT 7SM 22/18 A2977 RMK SLP084 T02150183 54000 IEM_DS3505
ZGKL,2008-05-20 22:00,ZGKL 202200Z AUTO 00000KT 3SM 19/18 A2980 RMK T01900180 IEM_DS3505
ZGKL,2008-05-20 23:00,ZGKL 202300Z AUTO 00000KT 3SM 19/19 A2980 RMK T01900190 IEM_DS3505
ZGKL,2008-05-21 00:00,ZGKL 210000Z AUTO 07002KT 7SM 22/19 A2980 RMK SLP093 T02210187 52008 IEM_DS3505
ZGKL,2008-05-21 01:00,ZGKL 210100Z AUTO 00000KT 3SM 23/20 A2980 RMK T02300200 IEM_DS3505
ZGKL,2008-05-21 02:00,ZGKL 210200Z AUTO 3SM 24/20 A2980 RMK T02400200 IEM_DS3505
ZGKL,2008-05-21 03:00,ZGKL 210300Z AUTO 09002KT 5SM 25/20 A2980 RMK SLP091 T02470195 57002 IEM_DS3505
ZGKL,2008-05-21 04:00,ZGKL 210400Z AUTO 3SM 27/21 A2980 RMK T02700210 IEM_DS3505
ZGKL,2008-05-21 05:00,ZGKL 210500Z AUTO 3SM 27/20 A2977 RMK T02700200 IEM_DS3505
ZGKL,2008-05-21 06:00,ZGKL 210600Z AUTO 18006KT 7SM 27/19 A2974 RMK SLP072 T02740192 57018 IEM_DS3505
ZGKL,2008-05-21 07:00,ZGKL 210700Z AUTO 20006KT 3SM 27/20 A2974 RMK T02700200 IEM_DS3505
ZGKL,2008-05-21 08:00,ZGKL 210800Z AUTO 17004KT 3SM 27/21 A2971 RMK T02700210 IEM_DS3505
ZGKL,2008-05-21 09:00,ZGKL 210900Z AUTO 16004KT 9SM 27/20 A2971 RMK SLP058 T02690195 57014 IEM_DS3505
ZGKL,2008-05-21 10:00,ZGKL 211000Z AUTO 14004KT 3SM 26/21 A2971 RMK T02600210 IEM_DS3505
ZGKL,2008-05-21 11:00,ZGKL 211100Z AUTO 00000KT 3SM 25/21 A2971 RMK T02500210 IEM_DS3505
ZGKL,2008-05-21 12:00,ZGKL 211200Z AUTO 18002KT 9SM 26/19 A2971 RMK SLP063 T02570194 52004 IEM_DS3505
ZGKL,2008-05-21 13:00,ZGKL 211300Z AUTO 00000KT 3SM 24/22 A2974 RMK T02400220 IEM_DS3505
ZGKL,2008-05-21 14:00,ZGKL 211400Z AUTO 00000KT 3SM 24/22 A2977 RMK T02400220 IEM_DS3505
ZGKL,2008-05-21 15:00,ZGKL 211500Z AUTO 14002KT 8SM 25/20 A2977 RMK SLP080 T02480201 52018 IEM_DS3505
ZGKL,2008-05-21 16:00,ZGKL 211600Z AUTO 00000KT 2 1/2SM 23/22 A2977 RMK T02300220 IEM_DS3505
ZGKL,2008-05-21 17:00,ZGKL 211700Z AUTO 00000KT 2SM 22/21 A2974 RMK T02200210 IEM_DS3505
ZGKL,2008-05-21 18:00,ZGKL 211800Z AUTO 07002KT 8SM 23/21 A2974 RMK SLP071 T02260207 57009 IEM_DS3505
ZGKL,2008-05-21 19:00,ZGKL 211900Z AUTO 00000KT 1SM 22/21 A2974 RMK T02200210 IEM_DS3505
ZGKL,2008-05-21 20:00,ZGKL 212000Z AUTO 00000KT 1 1/2SM 22/21 A2974 RMK T02200210 IEM_DS3505
ZGKL,2008-05-21 21:00,ZGKL 212100Z AUTO 00000KT 8SM 22/21 A2974 RMK SLP071 T02230208 54000 IEM_DS3505
ZGKL,2008-05-21 22:00,ZGKL 212200Z AUTO 00000KT 1 1/4SM 22/21 A2974 RMK T02200210 IEM_DS3505
ZGKL,2008-05-21 23:00,ZGKL 212300Z AUTO 00000KT 1 1/4SM 22/21 A2977 RMK T02200210 IEM_DS3505
ZGKL,2008-05-22 00:00,ZGKL 220000Z AUTO 02002KT 6SM 25/21 A2980 RMK SLP084 T02480213 52013 IEM_DS3505
ZGKL,2008-05-22 01:00,ZGKL 220100Z AUTO 00000KT 1 1/4SM 23/22 A2980 RMK T02300220 IEM_DS3505
ZGKL,2008-05-22 02:00,ZGKL 220200Z AUTO 00000KT 2 1/2SM 25/23 A2980 RMK T02500230 IEM_DS3505
ZGKL,2008-05-22 03:00,ZGKL 220300Z AUTO 16004KT 6SM 26/21 A2980 RMK SLP090 T02650206 52006 IEM_DS3505
ZGKL,2008-05-22 04:00,ZGKL 220400Z AUTO 00000KT 4SM 27/22 A2980 RMK T02700220 IEM_DS3505
ZGKL,2008-05-22 05:00,ZGKL 220500Z AUTO 4SM 28/22 A2977 RMK T02800220 IEM_DS3505
ZGKL,2008-05-22 06:00,ZGKL 220600Z AUTO 18004KT 7SM 28/20 A2974 RMK SLP071 T02770205 57019 IEM_DS3505
ZGKL,2008-05-22 07:00,ZGKL 220700Z AUTO 16006KT 4SM 29/23 A2974 RMK T02900230 IEM_DS3505
ZGKL,2008-05-22 08:00,ZGKL 220800Z AUTO 14008KT 4SM 29/22 A2971 RMK T02900220 IEM_DS3505
ZGKL,2008-05-22 09:00,ZGKL 220900Z AUTO 18006KT 9SM 29/21 A2968 RMK SLP052 T02880211 57018 IEM_DS3505
ZGKL,2008-05-22 10:00,ZGKL 221000Z AUTO 12008KT 6SM 28/22 A2971 RMK T02800220 IEM_DS3505
ZGKL,2008-05-22 11:00,ZGKL 221100Z AUTO 11006KT 6SM 27/22 A2971 RMK T02700220 IEM_DS3505
ZGKL,2008-05-22 12:00,ZGKL 221200Z AUTO 18004KT 9SM 27/21 A2974 RMK SLP065 T02660214 52012 IEM_DS3505
ZGKL,2008-05-22 13:00,ZGKL 221300Z AUTO 00000KT 6SM 26/21 A2974 RMK T02600210 IEM_DS3505
ZGKL,2008-05-22 14:00,ZGKL 221400Z AUTO 00000KT 5SM 24/22 A2977 RMK T02400220 IEM_DS3505
ZGKL,2008-05-22 15:00,ZGKL 221500Z AUTO 00000KT 9SM 25/21 A2977 RMK SLP083 T02470208 52018 IEM_DS3505
ZGKL,2008-05-22 16:00,ZGKL 221600Z AUTO 00000KT 5SM 23/22 A2977 RMK T02300220 IEM_DS3505
ZGKL,2008-05-22 17:00,ZGKL 221700Z AUTO 00000KT 4SM 22/22 A2977 RMK T02200220 IEM_DS3505
ZGKL,2008-05-22 18:00,ZGKL 221800Z AUTO 00000KT 9SM 23/21 RMK SLP080 T02290212 57003 IEM_DS3505
ZGKL,2008-05-22 21:00,ZGKL 222100Z AUTO 09002KT 7SM 22/21 A2977 RMK SLP076 T02230211 57004 IEM_DS3505
ZGKL,2008-05-22 22:00,ZGKL 222200Z AUTO 00000KT 2SM 21/21 A2977 RMK T02100210 IEM_DS3505
ZGKL,2008-05-22 23:00,ZGKL 222300Z AUTO 00000KT 2SM 22/21 A2977 RMK T02200210 IEM_DS3505
ZGKL,2008-05-23 00:00,ZGKL 230000Z AUTO 09002KT 5SM 24/22 A2980 RMK SLP086 T02410216 52010 IEM_DS3505
ZGKL,2008-05-23 01:00,ZGKL 230100Z AUTO 00000KT 3SM 25/23 A2980 RMK T02500230 IEM_DS3505
ZGKL,2008-05-23 02:00,ZGKL 230200Z AUTO 00000KT 3SM 24/23 A2980 RMK T02400230 IEM_DS3505
ZGKL,2008-05-23 03:00,ZGKL 230300Z AUTO 14002KT 5SM 28/21 A2980 RMK SLP084 T02750213 57002 IEM_DS3505
ZGKL,2008-05-23 04:00,ZGKL 230400Z AUTO 5SM 29/23 A2977 RMK T02900230 IEM_DS3505
ZGKL,2008-05-23 05:00,ZGKL 230500Z AUTO 5SM 29/24 A2974 RMK T02900240 IEM_DS3505
ZGKL,2008-05-23 06:00,ZGKL 230600Z AUTO 22004KT 6SM 30/21 A2971 RMK SLP060 T03000206 57023 IEM_DS3505
ZGKL,2008-05-23 07:00,ZGKL 230700Z AUTO 5SM 30/22 A2968 RMK T03000220 IEM_DS3505
ZGKL,2008-05-23 08:00,ZGKL 230800Z AUTO 22004KT 7SM 31/23 A2965 RMK T03100230 IEM_DS3505
ZGKL,2008-05-23 09:00,ZGKL 230900Z AUTO 20006KT 9SM 31/20 A2965 RMK SLP036 T03060202 57024 IEM_DS3505
ZGKL,2008-05-23 10:00,ZGKL 231000Z AUTO 17006KT 7SM 30/22 A2965 RMK T03000220 IEM_DS3505
ZGKL,2008-05-23 11:00,ZGKL 231100Z AUTO 17004KT 7SM 29/23 A2965 RMK T02900230 IEM_DS3505
ZGKL,2008-05-23 12:00,ZGKL 231200Z AUTO 07002KT 9SM 28/22 A2965 RMK SLP039 T02850220 52003 IEM_DS3505
ZGKL,2008-05-23 13:00,ZGKL 231300Z AUTO 00000KT 4SM 27/23 A2968 RMK T02700230 IEM_DS3505
ZGKL,2008-05-23 14:00,ZGKL 231400Z AUTO 00000KT 3SM 26/24 A2968 RMK T02600240 IEM_DS3505
ZGKL,2008-05-23 15:00,ZGKL 231500Z AUTO 04002KT 9SM 27/22 A2971 RMK SLP052 T02680224 52014 IEM_DS3505
ZGKL,2008-05-23 16:00,ZGKL 231600Z AUTO 00000KT 3SM 25/23 A2968 RMK T02500230 IEM_DS3505
ZGKL,2008-05-23 17:00,ZGKL 231700Z AUTO 00000KT 3SM 24/23 A2968 RMK T02400230 IEM_DS3505
ZGKL,2008-05-23 18:00,ZGKL 231800Z AUTO 36002KT 9SM 25/22 A2968 RMK SLP042 T02530220 57010 IEM_DS3505
ZGKL,2008-05-23 19:00,ZGKL 231900Z AUTO 00000KT 2SM 24/23 A2965 RMK T02400230 IEM_DS3505
ZGKL,2008-05-23 20:00,ZGKL 232000Z AUTO 00000KT 2 1/2SM 24/23 A2965 RMK T02400230 IEM_DS3505
ZGKL,2008-05-23 21:00,ZGKL 232100Z AUTO 09002KT 8SM 25/23 A2965 RMK 70000 SLP037 T02470226 57005 IEM_DS3505
ZGKL,2008-05-23 22:00,ZGKL 232200Z AUTO 00000KT 2 1/2SM 24/23 A2968 RMK T02400230 IEM_DS3505
ZGKL,2008-05-23 23:00,ZGKL 232300Z AUTO 00000KT 2 1/2SM 24/23 A2968 RMK T02400230 IEM_DS3505
ZGKL,2008-05-24 00:00,ZGKL 240000Z AUTO 02002KT 5SM 25/24 A2968 RMK 60016 70016 SLP055 T02470237 52017 IEM_DS3505
ZGKL,2008-05-24 01:00,ZGKL 240100Z AUTO 3SM 25/24 A2971 RMK T02500240 IEM_DS3505
ZGKL,2008-05-24 02:00,ZGKL 240200Z AUTO 30004KT 2 1/2SM 25/23 A2971 RMK T02500230 IEM_DS3505
ZGKL,2008-05-24 03:00,ZGKL 240300Z AUTO 34002KT 5SM 26/24 A2971 RMK SLP060 T02580237 52005 IEM_DS3505
ZGKL,2008-05-24 04:00,ZGKL 240400Z AUTO 2 1/2SM 24/23 A2971 RMK T02400230 IEM_DS3505
ZGKL,2008-05-24 05:00,ZGKL 240500Z AUTO 2SM 22/22 A2971 RMK T02200220 IEM_DS3505
ZGKL,2008-05-24 06:00,ZGKL 240600Z AUTO 07004KT 4SM 22/22 A2971 RMK 60063 SLP059 T02220215 57003 IEM_DS3505
ZGKL,2008-05-24 07:00,ZGKL 240700Z AUTO 14004KT 5SM 22/22 A2968 RMK T02200220 IEM_DS3505
ZGKL,2008-05-24 08:00,ZGKL 240800Z AUTO 00000KT 7SM 23/22 A2968 RMK T02300220 IEM_DS3505
ZGKL,2008-05-24 09:00,ZGKL 240900Z AUTO 29004KT 5SM 23/22 A2965 RMK SLP042 T02330223 57016 IEM_DS3505
ZGKL,2008-05-24 10:00,ZGKL 241000Z AUTO 08004KT 7SM 23/22 A2965 RMK T02300220 IEM_DS3505
ZGKL,2008-05-24 11:00,ZGKL 241100Z AUTO 00000KT 7SM 23/22 A2965 RMK T02300220 IEM_DS3505
ZGKL,2008-05-24 12:00,ZGKL 241200Z AUTO 09002KT 4SM 23/22 A2968 RMK 60012 SLP050 T02310221 52008 IEM_DS3505
ZGKL,2008-05-24 13:00,ZGKL 241300Z AUTO 04004KT 4SM 23/22 A2971 RMK T02300220 IEM_DS3505
ZGKL,2008-05-24 14:00,ZGKL 241400Z AUTO 34002KT 2 1/2SM 23/22 A2971 RMK T02300220 IEM_DS3505
ZGKL,2008-05-24 15:00,ZGKL 241500Z AUTO 07002KT 4SM 22/22 A2971 RMK SLP058 T02250223 52008 IEM_DS3505
ZGKL,2008-05-24 16:00,ZGKL 241600Z AUTO 00000KT 1 1/2SM 22/21 A2971 RMK T02200210 IEM_DS3505
ZGKL,2008-05-24 17:00,ZGKL 241700Z AUTO 00000KT 1SM 22/21 A2968 RMK T02200210 IEM_DS3505
ZGKL,2008-05-24 18:00,ZGKL 241800Z AUTO 09002KT 4SM 22/22 A2968 RMK SLP055 T02180218 57005 IEM_DS3505
ZGKL,2008-05-24 19:00,ZGKL 241900Z AUTO 1/4SM 22/21 A2968 RMK T02200210 IEM_DS3505
ZGKL,2008-05-24 20:00,ZGKL 242000Z AUTO 3/8SM 22/21 A2968 RMK T02200210 IEM_DS3505
ZGKL,2008-05-24 21:00,ZGKL 242100Z AUTO 07002KT 4SM 22/22 A2968 RMK 70092 SLP052 T02190219 57002 IEM_DS3505
ZGKL,2008-05-24 22:00,ZGKL 242200Z AUTO 1SM 22/22 A2968 RMK T02200220 IEM_DS3505
ZGKL,2008-05-24 23:00,ZGKL 242300Z AUTO 00000KT 1SM 22/22 A2971 RMK T02200220 IEM_DS3505
ZGKL,2008-05-25 00:00,ZGKL 250000Z AUTO 36002KT 1 1/4SM 22/22 A2974 RMK 60004 70080 SLP070 T02200220 52017 IEM_DS3505
ZGKL,2008-05-25 01:00,ZGKL 250100Z AUTO 16004KT 1SM 22/22 A2974 RMK T02200220 IEM_DS3505
ZGKL,2008-05-25 02:00,ZGKL 250200Z AUTO 32004KT 1SM 22/22 A2977 RMK T02200220 IEM_DS3505
ZGKL,2008-05-25 03:00,ZGKL 250300Z AUTO 36002KT 1 1/4SM 22/22 A2977 RMK SLP083 T02220222 52013 IEM_DS3505
ZGKL,2008-05-25 04:00,ZGKL 250400Z AUTO 04006KT 1 1/2SM 23/22 A2977 RMK T02300220 IEM_DS3505
ZGKL,2008-05-25 05:00,ZGKL 250500Z AUTO 3SM 24/23 A2974 RMK T02400230 IEM_DS3505
ZGKL,2008-05-25 06:00,ZGKL 250600Z AUTO 32004KT 5SM 26/22 A2971 RMK 60004 SLP059 T02640223 57022 IEM_DS3505
ZGKL,2008-05-25 07:00,ZGKL 250700Z AUTO 29004KT 5SM 28/24 A2968 RMK T02800240 IEM_DS3505
ZGKL,2008-05-25 08:00,ZGKL 250800Z AUTO 00000KT 5SM 28/23 A2965 RMK T02800230 IEM_DS3505
ZGKL,2008-05-25 09:00,ZGKL 250900Z AUTO 07002KT 5SM 29/22 A2965 RMK SLP038 T02870224 57020 IEM_DS3505
ZGKL,2008-05-25 10:00,ZGKL 251000Z AUTO 00000KT 5SM 29/24 A2965 RMK T02900240 IEM_DS3505
ZGKL,2008-05-25 11:00,ZGKL 251100Z AUTO 00000KT 4SM 28/24 A2965 RMK T02800240 IEM_DS3505
ZGKL,2008-05-25 12:00,ZGKL 251200Z AUTO 02002KT 6SM 27/23 A2968 RMK SLP052 T02710229 52013 IEM_DS3505
ZGKL,2008-05-25 13:00,ZGKL 251300Z AUTO 33002KT 2 1/2SM 25/24 A2971 RMK T02500240 IEM_DS3505
ZGKL,2008-05-25 14:00,ZGKL 251400Z AUTO 00000KT 2 1/2SM 25/24 A2971 RMK T02500240 IEM_DS3505
ZGKL,2008-05-25 15:00,ZGKL 251500Z AUTO 04002KT 6SM 25/24 A2971 RMK SLP064 T02520236 52011 IEM_DS3505
ZGKL,2008-05-25 16:00,ZGKL 251600Z AUTO 00000KT 2 1/2SM 24/24 A2971 RMK T02400240 IEM_DS3505
ZGKL,2008-05-25 17:00,ZGKL 251700Z AUTO 00000KT 2 1/2SM 24/23 A2971 RMK T02400230 IEM_DS3505
ZGKL,2008-05-25 18:00,ZGKL 251800Z AUTO 09002KT 6SM 24/24 A2971 RMK SLP057 T02430240 57006 IEM_DS3505
ZGKL,2008-05-25 19:00,ZGKL 251900Z AUTO 00000KT 1SM 24/23 A2971 RMK T02400230 IEM_DS3505
ZGKL,2008-05-25 20:00,ZGKL 252000Z AUTO 00000KT 1SM 24/23 A2971 RMK T02400230 IEM_DS3505
ZGKL,2008-05-25 21:00,ZGKL 252100Z AUTO 04002KT 6SM 24/24 A2971 RMK 70008 SLP059 T02390239 52003 IEM_DS3505
ZGKL,2008-05-25 22:00,ZGKL 252200Z AUTO 00000KT 1SM 24/23 A2971 RMK T02400230 IEM_DS3505
ZGKL,2008-05-25 23:00,ZGKL 252300Z AUTO 00000KT 1SM 24/23 A2974 RMK T02400230 IEM_DS3505
ZGKL,2008-05-26 00:00,ZGKL 260000Z AUTO 00000KT 6SM 25/24 A2974 RMK 70004 SLP075 T02480243 52015 IEM_DS3505
ZGKL,2008-05-26 01:00,ZGKL 260100Z AUTO 00000KT 3SM 25/24 A2977 RMK T02500240 IEM_DS3505
ZGKL,2008-05-26 02:00,ZGKL 260200Z AUTO 00000KT 3SM 26/25 A2977 RMK T02600250 IEM_DS3505
ZGKL,2008-05-26 03:00,ZGKL 260300Z AUTO 18002KT 6SM 28/23 A2974 RMK SLP071 T02780232 57003 IEM_DS3505
ZGKL,2008-05-26 04:00,ZGKL 260400Z AUTO 20006KT 7SM 28/25 A2974 RMK T02800250 IEM_DS3505
ZGKL,2008-05-26 05:00,ZGKL 260500Z AUTO 7SM 30/25 A2971 RMK T03000250 IEM_DS3505
ZGKL,2008-05-26 06:00,ZGKL 260600Z AUTO 36004KT 9SM 31/23 A2968 RMK 60000 SLP047 T03090233 57023 IEM_DS3505
ZGKL,2008-05-26 07:00,ZGKL 260700Z AUTO 16008KT 7SM 31/26 A2965 RMK T03100260 IEM_DS3505
ZGKL,2008-05-26 08:00,ZGKL 260800Z AUTO 19012KT 7SM 31/25 A2962 RMK T03100250 IEM_DS3505
ZGKL,2008-05-26 09:00,ZGKL 260900Z AUTO 14004KT 7SM 27/23 A2962 RMK SLP031 T02700230 57017 IEM_DS3505
ZGKL,2008-05-26 10:00,ZGKL 261000Z AUTO 17008KT 7SM 28/25 A2962 RMK T02800250 IEM_DS3505
ZGKL,2008-05-26 11:00,ZGKL 261100Z AUTO 20008KT 7SM 25/24 A2962 RMK T02500240 IEM_DS3505
ZGKL,2008-05-26 12:00,ZGKL 261200Z AUTO 32002KT 6SM 26/25 A2968 RMK 60035 SLP048 T02580246 52016 IEM_DS3505
ZGKL,2008-05-26 13:00,ZGKL 261300Z AUTO 7SM 25/24 A2968 RMK T02500240 IEM_DS3505
ZGKL,2008-05-26 14:00,ZGKL 261400Z AUTO 7SM 25/24 A2968 RMK T02500240 IEM_DS3505
ZGKL,2008-05-26 15:00,ZGKL 261500Z AUTO 22002KT 6SM 25/23 A2971 RMK SLP055 T02540233 52008 IEM_DS3505
ZGKL,2008-05-26 16:00,ZGKL 261600Z AUTO 00000KT 7SM 25/24 A2968 RMK T02500240 IEM_DS3505
ZGKL,2008-05-26 17:00,ZGKL 261700Z AUTO 7SM 25/23 A2968 RMK T02500230 IEM_DS3505
ZGKL,2008-05-26 18:00,ZGKL 261800Z AUTO 14002KT 9SM 25/22 A2965 RMK 60000 SLP038 T02500221 57016 IEM_DS3505
ZGKL,2008-05-26 19:00,ZGKL 261900Z AUTO 7SM 24/23 A2965 RMK T02400230 IEM_DS3505
ZGKL,2008-05-26 20:00,ZGKL 262000Z AUTO 11004KT 5SM 24/23 A2965 RMK T02400230 IEM_DS3505
ZGKL,2008-05-26 21:00,ZGKL 262100Z AUTO 09002KT 9SM 24/23 A2962 RMK 70037 SLP033 T02430234 57006 IEM_DS3505
ZGKL,2008-05-26 22:00,ZGKL 262200Z AUTO 32002KT 3SM 24/23 A2965 RMK T02400230 IEM_DS3505
ZGKL,2008-05-26 23:00,ZGKL 262300Z AUTO 4SM 25/24 A2965 RMK T02500240 IEM_DS3505
ZGKL,2008-05-27 00:00,ZGKL 270000Z AUTO 18004KT 7SM 26/24 A2965 RMK 70037 SLP039 T02610238 52006 IEM_DS3505
ZGKL,2008-05-27 01:00,ZGKL 270100Z AUTO 17008KT 5SM 25/24 A2965 RMK T02500240 IEM_DS3505
ZGKL,2008-05-27 02:00,ZGKL 270200Z AUTO 18014KT 7SM 27/24 A2965 RMK T02700240 IEM_DS3505
ZGKL,2008-05-27 03:00,ZGKL 270300Z AUTO 20004KT 8SM 27/23 A2965 RMK SLP038 T02690232 57001 IEM_DS3505
ZGKL,2008-05-27 04:00,ZGKL 270400Z AUTO 18014KT 7SM 28/24 A2962 RMK T02800240 IEM_DS3505
ZGKL,2008-05-27 05:00,ZGKL 270500Z AUTO 18014KT 7SM 28/24 A2959 RMK T02800240 IEM_DS3505
ZGKL,2008-05-27 06:00,ZGKL 270600Z AUTO 04002KT 7SM 29/25 A2956 RMK 60008 SLP014 T02860248 57023 IEM_DS3505
ZGKL,2008-05-27 07:00,ZGKL 270700Z AUTO 19010KT 7SM 29/25 A2953 RMK T02900250 IEM_DS3505
ZGKL,2008-05-27 08:00,ZGKL 270800Z AUTO 19006KT 7SM 29/25 A2953 RMK T02900250 IEM_DS3505
ZGKL,2008-05-27 09:00,ZGKL 270900Z AUTO 25002KT 6SM 30/23 A2950 RMK SLP990 T02990234 57023 IEM_DS3505
ZGKL,2008-05-27 10:00,ZGKL 271000Z AUTO 7SM 28/26 A2950 RMK T02800260 IEM_DS3505
ZGKL,2008-05-27 11:00,ZGKL 271100Z AUTO 7SM 28/25 A2950 RMK T02800250 IEM_DS3505
ZGKL,2008-05-27 12:00,ZGKL 271200Z AUTO 34002KT 6SM 25/24 A2953 RMK 60043 SLP001 T02500241 52010 IEM_DS3505
ZGKL,2008-05-27 13:00,ZGKL 271300Z AUTO 00000KT 3SM 26/25 A2953 RMK T02600250 IEM_DS3505
ZGKL,2008-05-27 14:00,ZGKL 271400Z AUTO 16004KT 3SM 25/25 A2956 RMK T02500250 IEM_DS3505
ZGKL,2008-05-27 15:00,ZGKL 271500Z AUTO 32002KT 6SM 24/24 A2956 RMK SLP003 T02450240 52002 IEM_DS3505
ZGKL,2008-05-27 16:00,ZGKL 271600Z AUTO 4SM 25/24 A2953 RMK T02500240 IEM_DS3505
ZGKL,2008-05-27 17:00,ZGKL 271700Z AUTO 14004KT 4SM 25/24 A2950 RMK T02500240 IEM_DS3505
ZGKL,2008-05-27 18:00,ZGKL 271800Z AUTO 07002KT 6SM 25/25 A2950 RMK 60001 SLP994 T02460246 57009 IEM_DS3505
ZGKL,2008-05-27 19:00,ZGKL 271900Z AUTO 1 1/2SM 25/24 A2950 RMK T02500240 IEM_DS3505
ZGKL,2008-05-27 20:00,ZGKL 272000Z AUTO 17010KT 5SM 26/24 A2950 RMK T02600240 IEM_DS3505
ZGKL,2008-05-27 21:00,ZGKL 272100Z AUTO 07002KT 6SM 25/25 A2950 RMK 70057 SLP989 T02500250 57004 IEM_DS3505
ZGKL,2008-05-27 22:00,ZGKL 272200Z AUTO 06004KT 4SM 24/24 A2950 RMK T02400240 IEM_DS3505
ZGKL,2008-05-27 23:00,ZGKL 272300Z AUTO 05004KT 7SM 24/24 A2953 RMK T02400240 IEM_DS3505
ZGKL,2008-05-28 00:00,ZGKL 280000Z AUTO 11004KT 4SM 24/24 A2956 RMK 60142 70193 SLP007 T02420242 52016 IEM_DS3505
ZGKL,2008-05-28 01:00,ZGKL 280100Z AUTO 3SM 24/24 A2956 RMK T02400240 IEM_DS3505
ZGKL,2008-05-28 02:00,ZGKL 280200Z AUTO 3SM 25/24 A2959 RMK T02500240 IEM_DS3505
ZGKL,2008-05-28 03:00,ZGKL 280300Z AUTO 16004KT 7SM 24/24 A2959 RMK SLP014 T02400240 52006 IEM_DS3505
ZGKL,2008-05-28 04:00,ZGKL 280400Z AUTO 19010KT 7SM 26/24 A2959 RMK T02600240 IEM_DS3505
ZGKL,2008-05-28 05:00,ZGKL 280500Z AUTO 19006KT 7SM 26/24 A2959 RMK T02600240 IEM_DS3505
ZGKL,2008-05-28 06:00,ZGKL 280600Z AUTO 16004KT 7SM 26/26 A2956 RMK 60134 SLP014 T02630256 52001 IEM_DS3505
ZGKL,2008-05-28 07:00,ZGKL 280700Z AUTO 17012KT 7SM 26/24 A2956 RMK T02600240 IEM_DS3505
ZGKL,2008-05-28 08:00,ZGKL 280800Z AUTO 18010KT 7SM 27/24 A2956 RMK T02700240 IEM_DS3505
ZGKL,2008-05-28 09:00,ZGKL 280900Z AUTO 16004KT 9SM 28/23 A2953 RMK SLP003 T02820229 57010 IEM_DS3505
ZGKL,2008-05-28 10:00,ZGKL 281000Z AUTO 15004KT 7SM 28/24 A2956 RMK T02800240 IEM_DS3505
ZGKL,2008-05-28 11:00,ZGKL 281100Z AUTO 00000KT 7SM 26/24 A2959 RMK T02600240 IEM_DS3505
ZGKL,2008-05-28 12:00,ZGKL 281200Z AUTO 02002KT 9SM 26/23 A2959 RMK SLP024 T02630234 52020 IEM_DS3505
ZGKL,2008-05-28 13:00,ZGKL 281300Z AUTO 00000KT 3SM 25/24 A2962 RMK T02500240 IEM_DS3505
ZGKL,2008-05-28 14:00,ZGKL 281400Z AUTO 34004KT 2 1/2SM 25/24 A2962 RMK T02500240 IEM_DS3505
ZGKL,2008-05-28 15:00,ZGKL 281500Z AUTO 02006KT 8SM 25/24 A2965 RMK SLP039 T02510237 52014 IEM_DS3505
ZGKL,2008-05-28 16:00,ZGKL 281600Z AUTO 34004KT 2 1/2SM 25/24 A2962 RMK T02500240 IEM_DS3505
ZGKL,2008-05-28 17:00,ZGKL 281700Z AUTO 04006KT 2 1/2SM 25/24 A2962 RMK T02500240 IEM_DS3505
ZGKL,2008-05-28 18:00,ZGKL 281800Z AUTO 02004KT 8SM 24/21 A2959 RMK SLP023 T02410208 57015 IEM_DS3505
ZGKL,2008-05-28 19:00,ZGKL 281900Z AUTO 2 1/2SM 24/22 A2959 RMK T02400220 IEM_DS3505
ZGKL,2008-05-28 20:00,ZGKL 282000Z AUTO 06004KT 3SM 24/22 A2959 RMK T02400220 IEM_DS3505
ZGKL,2008-05-28 21:00,ZGKL 282100Z AUTO 34002KT 8SM 24/21 A2959 RMK 70267 SLP023 T02380209 54000 IEM_DS3505
ZGKL,2008-05-28 22:00,ZGKL 282200Z AUTO 00000KT 2 1/2SM 24/22 A2962 RMK T02400220 IEM_DS3505
ZGKL,2008-05-28 23:00,ZGKL 282300Z AUTO 00000KT 2 1/2SM 24/22 A2962 RMK T02400220 IEM_DS3505
ZGKL,2008-05-29 00:00,ZGKL 290000Z AUTO 00000KT 7SM 24/21 A2965 RMK 70132 SLP039 T02450210 52016 IEM_DS3505
ZGKL,2008-05-29 01:00,ZGKL 290100Z AUTO 00000KT 2 1/2SM 25/22 A2965 RMK T02500220 IEM_DS3505
ZGKL,2008-05-29 02:00,ZGKL 290200Z AUTO 2 1/2SM 25/23 A2968 RMK T02500230 IEM_DS3505
ZGKL,2008-05-29 03:00,ZGKL 290300Z AUTO 22002KT 6SM 28/21 A2968 RMK SLP042 T02760207 52003 IEM_DS3505
ZGKL,2008-05-29 04:00,ZGKL 290400Z AUTO 3SM 28/23 A2965 RMK T02800230 IEM_DS3505
ZGKL,2008-05-29 05:00,ZGKL 290500Z AUTO 30004KT 3SM 28/23 A2962 RMK T02800230 IEM_DS3505
ZGKL,2008-05-29 06:00,ZGKL 290600Z AUTO 18004KT 6SM 29/21 A2959 RMK SLP021 T02910208 57020 IEM_DS3505
ZGKL,2008-05-29 07:00,ZGKL 290700Z AUTO 4SM 29/23 A2959 RMK T02900230 IEM_DS3505
ZGKL,2008-05-29 08:00,ZGKL 290800Z AUTO 17004KT 4SM 29/23 A2959 RMK T02900230 IEM_DS3505
ZGKL,2008-05-29 09:00,ZGKL 290900Z AUTO 18004KT 7SM 29/22 A2956 RMK SLP012 T02910216 57009 IEM_DS3505
ZGKL,2008-05-29 10:00,ZGKL 291000Z AUTO 17004KT 5SM 28/24 A2959 RMK T02800240 IEM_DS3505
ZGKL,2008-05-29 11:00,ZGKL 291100Z AUTO 11004KT 5SM 27/24 A2962 RMK T02700240 IEM_DS3505
ZGKL,2008-05-29 12:00,ZGKL 291200Z AUTO 18002KT 8SM 27/22 A2962 RMK SLP034 T02720224 52021 IEM_DS3505
ZGKL,2008-05-29 13:00,ZGKL 291300Z AUTO 16004KT 4SM 26/24 A2968 RMK T02600240 IEM_DS3505
ZGKL,2008-05-29 14:00,ZGKL 291400Z AUTO 00000KT 4SM 25/24 A2971 RMK T02500240 IEM_DS3505
ZGKL,2008-05-29 15:00,ZGKL 291500Z AUTO 02006KT 8SM 25/23 A2971 RMK SLP057 T02510233 52023 IEM_DS3505
ZGKL,2008-05-29 16:00,ZGKL 291600Z AUTO 00000KT 4SM 25/24 A2971 RMK T02500240 IEM_DS3505
ZGKL,2008-05-29 17:00,ZGKL 291700Z AUTO 00000KT 2 1/2SM 25/24 A2968 RMK T02500240 IEM_DS3505
ZGKL,2008-05-29 18:00,ZGKL 291800Z AUTO 36004KT 6SM 24/24 A2968 RMK 60001 SLP050 T02420239 57007 IEM_DS3505
ZGKL,2008-05-29 19:00,ZGKL 291900Z AUTO 2 1/2SM 25/24 A2968 RMK T02500240 IEM_DS3505
ZGKL,2008-05-29 20:00,ZGKL 292000Z AUTO 34006KT 2 1/2SM 24/24 A2968 RMK T02400240 IEM_DS3505
ZGKL,2008-05-29 21:00,ZGKL 292100Z AUTO 02006KT 5SM 24/24 A2968 RMK 70092 SLP048 T02360236 57002 IEM_DS3505
ZGKL,2008-05-29 22:00,ZGKL 292200Z AUTO 34008KT 2 1/2SM 24/23 A2968 RMK T02400230 IEM_DS3505
ZGKL,2008-05-29 23:00,ZGKL 292300Z AUTO 2 1/2SM 24/23 A2971 RMK T02400230 IEM_DS3505
ZGKL,2008-05-30 00:00,ZGKL 300000Z AUTO 36004KT 3SM 24/23 A2974 RMK 60102 70102 SLP066 T02440234 52017 IEM_DS3505
ZGKL,2008-05-30 01:00,ZGKL 300100Z AUTO 4SM 24/23 A2977 RMK T02400230 IEM_DS3505
ZGKL,2008-05-30 02:00,ZGKL 300200Z AUTO 02010KT 4SM 24/23 A2977 RMK T02400230 IEM_DS3505
ZGKL,2008-05-30 03:00,ZGKL 300300Z AUTO 02004KT 4SM 25/19 A2977 RMK SLP082 T02520189 52016 IEM_DS3505
ZGKL,2008-05-30 04:00,ZGKL 300400Z AUTO 01008KT 4SM 25/21 A2977 RMK T02500210 IEM_DS3505
ZGKL,2008-05-30 05:00,ZGKL 300500Z AUTO 4SM 24/22 A2977 RMK T02400220 IEM_DS3505
ZGKL,2008-05-30 06:00,ZGKL 300600Z AUTO 02006KT 4SM 25/18 A2977 RMK 60000 SLP076 T02460178 57007 IEM_DS3505
ZGKL,2008-05-30 07:00,ZGKL 300700Z AUTO 32006KT 3SM 24/22 A2977 RMK T02400220 IEM_DS3505
ZGKL,2008-05-30 08:00,ZGKL 300800Z AUTO 4SM 24/20 A2974 RMK T02400200 IEM_DS3505
ZGKL,2008-05-30 09:00,ZGKL 300900Z AUTO 02010KT 4SM 24/16 A2971 RMK SLP070 T02350158 57006 IEM_DS3505
ZGKL,2008-05-30 10:00,ZGKL 301000Z AUTO 5SM 24/18 A2977 RMK T02400180 IEM_DS3505
ZGKL,2008-05-30 11:00,ZGKL 301100Z AUTO 5SM 23/19 A2977 RMK T02300190 IEM_DS3505
ZGKL,2008-05-30 12:00,ZGKL 301200Z AUTO 02008KT 6SM 23/16 A2983 RMK SLP096 T02260155 52025 IEM_DS3505
ZGKL,2008-05-30 13:00,ZGKL 301300Z AUTO 34006KT 5SM 22/19 A2983 RMK T02200190 IEM_DS3505
ZGKL,2008-05-30 14:00,ZGKL 301400Z AUTO 5SM 22/19 A2983 RMK T02200190 IEM_DS3505
ZGKL,2008-05-30 15:00,ZGKL 301500Z AUTO 02006KT 6SM 22/15 A2983 RMK SLP107 T02250146 52011 IEM_DS3505
ZGKL,2008-05-30 16:00,ZGKL 301600Z AUTO 34004KT 5SM 21/19 A2983 RMK T02100190 IEM_DS3505
ZGKL,2008-05-30 17:00,ZGKL 301700Z AUTO 33004KT 5SM 21/19 A2983 RMK T02100190 IEM_DS3505
ZGKL,2008-05-30 18:00,ZGKL 301800Z AUTO 02006KT 6SM 22/14 A2980 RMK SLP097 T02200139 57010 IEM_DS3505
ZGKL,2008-05-30 19:00,ZGKL 301900Z AUTO 00000KT 3SM 21/19 A2980 RMK T02100190 IEM_DS3505
ZGKL,2008-05-30 20:00,ZGKL 302000Z AUTO 05004KT 3SM 21/18 A2980 RMK T02100180 IEM_DS3505
ZGKL,2008-05-30 21:00,ZGKL 302100Z AUTO 04004KT 6SM 22/12 A2980 RMK 70010 SLP088 T02180118 57009 IEM_DS3505
ZGKL,2008-05-30 22:00,ZGKL 302200Z AUTO 00000KT 4SM 21/19 A2980 RMK T02100190 IEM_DS3505
ZGKL,2008-05-30 23:00,ZGKL 302300Z AUTO 00000KT 4SM 21/19 A2983 RMK T02100190 IEM_DS3505
ZGKL,2008-05-31 00:00,ZGKL 310000Z AUTO 07004KT 4SM 18/14 A2985 RMK 60008 70008 SLP113 T01800145 52023 IEM_DS3505
ZGKL,2008-05-31 01:00,ZGKL 310100Z AUTO 4SM 21/15 A2985 RMK T02100150 IEM_DS3505
ZGKL,2008-05-31 02:00,ZGKL 310200Z AUTO 4SM 21/16 A2985 RMK T02100160 IEM_DS3505
ZGKL,2008-05-31 03:00,ZGKL 310300Z AUTO 36002KT 6SM 19/15 A2985 RMK SLP112 T01940151 54000 IEM_DS3505
ZGKL,2008-05-31 04:00,ZGKL 310400Z AUTO 00000KT 4SM 21/16 A2985 RMK T02100160 IEM_DS3505
ZGKL,2008-05-31 05:00,ZGKL 310500Z AUTO 00000KT 4SM 21/16 A2983 RMK T02100160 IEM_DS3505
ZGKL,2008-05-31 06:00,ZGKL 310600Z AUTO 04002KT 6SM 22/16 A2980 RMK 60001 SLP098 T02200161 57014 IEM_DS3505
ZGKL,2008-05-31 07:00,ZGKL 310700Z AUTO 00000KT 4SM 22/16 A2980 RMK T02200160 IEM_DS3505
ZGKL,2008-05-31 08:00,ZGKL 310800Z AUTO 00000KT 4SM 21/17 A2977 RMK T02100170 IEM_DS3505
ZGKL,2008-05-31 09:00,ZGKL 310900Z AUTO 02002KT 6SM 23/15 A2974 RMK SLP074 T02260147 57023 IEM_DS3505
ZGKL,2008-05-31 10:00,ZGKL 311000Z AUTO 00000KT 4SM 21/18 A2974 RMK T02100180 IEM_DS3505
ZGKL,2008-05-31 11:00,ZGKL 311100Z AUTO 31004KT 4SM 21/17 A2974 RMK T02100170 IEM_DS3505
ZGKL,2008-05-31 12:00,ZGKL 311200Z AUTO 27002KT 6SM 21/16 A2977 RMK SLP083 T02130161 52007 IEM_DS3505
ZGKL,2008-05-31 13:00,ZGKL 311300Z AUTO 00000KT 4SM 20/18 A2977 RMK T02000180 IEM_DS3505
ZGKL,2008-05-31 14:00,ZGKL 311400Z AUTO 00000KT 3SM 20/18 A2977 RMK T02000180 IEM_DS3505
ZGKL,2008-05-31 15:00,ZGKL 311500Z AUTO 34002KT 6SM 21/18 A2980 RMK SLP089 T02090179 52006 IEM_DS3505
ZGKL,2008-05-31 16:00,ZGKL 311600Z AUTO 00000KT 3SM 20/18 A2977 RMK T02000180 IEM_DS3505
ZGKL,2008-05-31 17:00,ZGKL 311700Z AUTO 00000KT 2 1/2SM 20/19 A2977 RMK T02000190 IEM_DS3505
ZGKL,2008-05-31 18:00,ZGKL 311800Z AUTO 00000KT 6SM 20/18 A2974 RMK SLP076 T02050177 57012 IEM_DS3505
ZGKL,2008-05-31 19:00,ZGKL 311900Z AUTO 00000KT 2 1/2SM 20/19 A2974 RMK T02000190 IEM_DS3505
ZGKL,2008-05-31 20:00,ZGKL 312000Z AUTO 00000KT 2SM 20/19 A2974 RMK T02000190 IEM_DS3505
ZGKL,2008-05-31 21:00,ZGKL 312100Z AUTO 00000KT 6SM 20/18 A2974 RMK 70009 SLP066 T02020183 57009 IEM_DS3505
ZGKL,2008-05-31 22:00,ZGKL 312200Z AUTO 00000KT 3SM 20/19 A2974 RMK T02000190 IEM_DS3505
ZGKL,2008-05-31 23:00,ZGKL 312300Z AUTO 00000KT 3SM 20/19 A2974 RMK T02000190 IEM_DS3505
ZGKL,2008-06-01 00:00,ZGKL 010000Z AUTO 02002KT 4SM 21/18 A2974 RMK 70001 SLP076 T02130177 52009 IEM_DS3505
ZGKL,2008-06-01 01:00,ZGKL 010100Z AUTO 00000KT 2 1/2SM 22/19 A2977 RMK T02200190 IEM_DS3505
ZGKL,2008-06-01 02:00,ZGKL 010200Z AUTO 3SM 23/19 A2974 RMK T02300190 IEM_DS3505
ZGKL,2008-06-01 03:00,ZGKL 010300Z AUTO 16004KT 5SM 26/18 A2974 RMK SLP072 T02550184 57002 IEM_DS3505
ZGKL,2008-06-01 04:00,ZGKL 010400Z AUTO 19004KT 4SM 26/20 A2974 RMK T02600200 IEM_DS3505
ZGKL,2008-06-01 05:00,ZGKL 010500Z AUTO 4SM 28/20 A2971 RMK T02800200 IEM_DS3505
ZGKL,2008-06-01 06:00,ZGKL 010600Z AUTO 18004KT 5SM 28/18 A2968 RMK SLP047 T02820180 57024 IEM_DS3505
ZGKL,2008-06-01 07:00,ZGKL 010700Z AUTO 17004KT 6SM 30/21 A2965 RMK T03000210 IEM_DS3505
ZGKL,2008-06-01 08:00,ZGKL 010800Z AUTO 17004KT 6SM 30/21 A2962 RMK T03000210 IEM_DS3505
ZGKL,2008-06-01 09:00,ZGKL 010900Z AUTO 25002KT 6SM 30/19 A2962 RMK SLP026 T03030193 57020 IEM_DS3505
ZGKL,2008-06-01 10:00,ZGKL 011000Z AUTO 18006KT 6SM 29/22 A2962 RMK T02900220 IEM_DS3505
ZGKL,2008-06-01 11:00,ZGKL 011100Z AUTO 17004KT 4SM 27/22 A2965 RMK T02700220 IEM_DS3505
ZGKL,2008-06-01 12:00,ZGKL 011200Z AUTO 22002KT 7SM 28/20 A2965 RMK SLP041 T02760202 52014 IEM_DS3505
ZGKL,2008-06-01 13:00,ZGKL 011300Z AUTO 20004KT 3SM 25/22 A2968 RMK T02500220 IEM_DS3505
ZGKL,2008-06-01 14:00,ZGKL 011400Z AUTO 18008KT 3SM 24/22 A2971 RMK T02400220 IEM_DS3505
ZGKL,2008-06-01 15:00,ZGKL 011500Z AUTO 22004KT 7SM 27/19 A2974 RMK SLP060 T02670193 52020 IEM_DS3505
ZGKL,2008-06-01 16:00,ZGKL 011600Z AUTO 00000KT 3SM 24/22 A2974 RMK T02400220 IEM_DS3505
ZGKL,2008-06-01 17:00,ZGKL 011700Z AUTO 00000KT 3SM 24/22 A2971 RMK T02400220 IEM_DS3505
ZGKL,2008-06-01 18:00,ZGKL 011800Z AUTO 04002KT 6SM 24/22 A2971 RMK 60000 SLP062 T02400221 52002 IEM_DS3505
ZGKL,2008-06-01 19:00,ZGKL 011900Z AUTO 00000KT 3SM 24/22 A2971 RMK T02400220 IEM_DS3505
ZGKL,2008-06-01 20:00,ZGKL 012000Z AUTO 00000KT 2SM 24/22 A2971 RMK T02400220 IEM_DS3505
ZGKL,2008-06-01 21:00,ZGKL 012100Z AUTO 36002KT 6SM 23/22 A2971 RMK 70001 SLP061 T02330219 57001 IEM_DS3505
ZGKL,2008-06-01 22:00,ZGKL 012200Z AUTO 00000KT 1 1/2SM 23/22 A2974 RMK T02300220 IEM_DS3505
ZGKL,2008-06-01 23:00,ZGKL 012300Z AUTO 00000KT 1 1/2SM 23/22 A2974 RMK T02300220 IEM_DS3505
ZGKL,2008-06-02 00:00,ZGKL 020000Z AUTO 36002KT 6SM 23/22 A2977 RMK 60001 70001 SLP079 T02340220 52017 IEM_DS3505
ZGKL,2008-06-02 01:00,ZGKL 020100Z AUTO 00000KT 2 1/2SM 25/22 A2977 RMK T02500220 IEM_DS3505
ZGKL,2008-06-02 02:00,ZGKL 020200Z AUTO 00000KT 2 1/2SM 26/22 A2980 RMK T02600220 IEM_DS3505
ZGKL,2008-06-02 03:00,ZGKL 020300Z AUTO 02006KT 6SM 27/20 A2980 RMK SLP084 T02680204 52006 IEM_DS3505
ZGKL,2008-06-02 04:00,ZGKL 020400Z AUTO 31006KT 3SM 28/23 A2977 RMK T02800230 IEM_DS3505
ZGKL,2008-06-02 05:00,ZGKL 020500Z AUTO 3SM 30/22 A2977 RMK T03000220 IEM_DS3505
ZGKL,2008-06-02 06:00,ZGKL 020600Z AUTO 07008KT 5SM 31/18 A2974 RMK SLP066 T03110181 57017 IEM_DS3505
ZGKL,2008-06-02 07:00,ZGKL 020700Z AUTO 07008KT 4SM 31/19 A2971 RMK T03100190 IEM_DS3505
ZGKL,2008-06-02 08:00,ZGKL 020800Z AUTO 07006KT 5SM 31/19 A2971 RMK T03100190 IEM_DS3505
ZGKL,2008-06-02 09:00,ZGKL 020900Z AUTO 02004KT 7SM 30/16 A2971 RMK SLP057 T03010165 57010 IEM_DS3505
ZGKL,2008-06-02 10:00,ZGKL 021000Z AUTO 35006KT 4SM 27/22 A2971 RMK T02700220 IEM_DS3505
ZGKL,2008-06-02 11:00,ZGKL 021100Z AUTO 33006KT 4SM 26/22 A2974 RMK T02600220 IEM_DS3505
ZGKL,2008-06-02 12:00,ZGKL 021200Z AUTO 07002KT 7SM 28/17 A2974 RMK SLP070 T02770170 52012 IEM_DS3505
ZGKL,2008-06-02 13:00,ZGKL 021300Z AUTO 00000KT 2 1/2SM 24/23 A2977 RMK T02400230 IEM_DS3505
ZGKL,2008-06-02 14:00,ZGKL 021400Z AUTO 00000KT 2 1/2SM 24/22 A2977 RMK T02400220 IEM_DS3505
ZGKL,2008-06-02 15:00,ZGKL 021500Z AUTO 02004KT 6SM 26/17 A2980 RMK SLP089 T02550174 52019 IEM_DS3505
ZGKL,2008-06-02 16:00,ZGKL 021600Z AUTO 00000KT 2 1/2SM 23/22 A2980 RMK T02300220 IEM_DS3505
ZGKL,2008-06-02 17:00,ZGKL 021700Z AUTO 00000KT 2 1/2SM 22/21 A2980 RMK T02200210 IEM_DS3505
ZGKL,2008-06-02 18:00,ZGKL 021800Z AUTO 36002KT 6SM 25/17 A2977 RMK SLP081 T02470169 57007 IEM_DS3505
ZGKL,2008-06-02 19:00,ZGKL 021900Z AUTO 00000KT 2SM 22/21 A2977 RMK T02200210 IEM_DS3505
ZGKL,2008-06-02 20:00,ZGKL 022000Z AUTO 00000KT 2 1/2SM 22/21 A2977 RMK T02200210 IEM_DS3505
ZGKL,2008-06-02 21:00,ZGKL 022100Z AUTO 04002KT 6SM 23/17 A2977 RMK SLP080 T02270174 57001 IEM_DS3505
ZGKL,2008-06-02 22:00,ZGKL 022200Z AUTO 00000KT 3SM 21/20 A2977 RMK T02100200 IEM_DS3505
ZGKL,2008-06-02 23:00,ZGKL 022300Z AUTO 00000KT 3SM 22/20 A2980 RMK T02200200 IEM_DS3505
ZGKL,2008-06-03 00:00,ZGKL 030000Z AUTO 36002KT 5SM 24/18 A2983 RMK SLP097 T02430175 52016 IEM_DS3505
ZGKL,2008-06-03 01:00,ZGKL 030100Z AUTO 00000KT 4SM 27/20 A2983 RMK T02700200 IEM_DS3505
ZGKL,2008-06-03 02:00,ZGKL 030200Z AUTO 00000KT 4SM 28/20 A2983 RMK T02800200 IEM_DS3505
ZGKL,2008-06-03 03:00,ZGKL 030300Z AUTO 34002KT 5SM 29/17 A2983 RMK SLP093 T02930168 57003 IEM_DS3505
ZGKL,2008-06-03 04:00,ZGKL 030400Z AUTO 22004KT 5SM 30/19 A2980 RMK T03000190 IEM_DS3505
ZGKL,2008-06-03 05:00,ZGKL 030500Z AUTO 5SM 31/20 A2977 RMK T03100200 IEM_DS3505
ZGKL,2008-06-03 06:00,ZGKL 030600Z AUTO 32002KT 6SM 32/18 A2974 RMK SLP067 T03160182 57025 IEM_DS3505
ZGKL,2008-06-03 07:00,ZGKL 030700Z AUTO 18006KT 6SM 32/19 A2971 RMK T03200190 IEM_DS3505
ZGKL,2008-06-03 08:00,ZGKL 030800Z AUTO 6SM 32/20 A2971 RMK T03200200 IEM_DS3505
ZGKL,2008-06-03 09:00,ZGKL 030900Z AUTO 18002KT 6SM 33/17 A2968 RMK SLP048 T03330171 57019 IEM_DS3505
ZGKL,2008-06-03 10:00,ZGKL 031000Z AUTO 18004KT 6SM 31/19 A2968 RMK T03100190 IEM_DS3505
ZGKL,2008-06-03 11:00,ZGKL 031100Z AUTO 16004KT 6SM 29/22 A2971 RMK T02900220 IEM_DS3505
ZGKL,2008-06-03 12:00,ZGKL 031200Z AUTO 22002KT 6SM 29/20 A2974 RMK SLP062 T02920195 52013 IEM_DS3505
ZGKL,2008-06-03 13:00,ZGKL 031300Z AUTO 00000KT 4SM 26/23 A2974 RMK T02600230 IEM_DS3505
ZGKL,2008-06-03 14:00,ZGKL 031400Z AUTO 00000KT 3SM 24/23 A2977 RMK T02400230 IEM_DS3505
ZGKL,2008-06-03 15:00,ZGKL 031500Z AUTO 00000KT 6SM 26/21 A2977 RMK SLP081 T02580212 52019 IEM_DS3505
ZGKL,2008-06-03 16:00,ZGKL 031600Z AUTO 00000KT 2 1/2SM 23/22 A2977 RMK T02300220 IEM_DS3505
ZGKL,2008-06-03 17:00,ZGKL 031700Z AUTO 00000KT 1SM 23/22 A2977 RMK T02300220 IEM_DS3505
ZGKL,2008-06-03 18:00,ZGKL 031800Z AUTO 02002KT 6SM 24/20 A2980 RMK SLP083 T02390204 52002 IEM_DS3505
ZGKL,2008-06-03 19:00,ZGKL 031900Z AUTO 00000KT 2SM 22/21 A2977 RMK T02200210 IEM_DS3505
ZGKL,2008-06-03 20:00,ZGKL 032000Z AUTO 20002KT 1SM 21/21 A2977 RMK T02100210 IEM_DS3505
ZGKL,2008-06-03 21:00,ZGKL 032100Z AUTO 02002KT 6SM 23/20 A2977 RMK SLP079 T02280205 57003 IEM_DS3505
ZGKL,2008-06-03 22:00,ZGKL 032200Z AUTO 00000KT 1 1/4SM 21/21 A2980 RMK T02100210 IEM_DS3505
ZGKL,2008-06-03 23:00,ZGKL 032300Z AUTO 2SM 22/21 A2980 RMK T02200210 IEM_DS3505
ZGKL,2008-06-04 00:00,ZGKL 040000Z AUTO 04002KT 4SM 24/21 A2983 RMK SLP099 T02440207 52018 IEM_DS3505
ZGKL,2008-06-04 01:00,ZGKL 040100Z AUTO 00000KT 1 1/2SM 26/22 A2983 RMK T02600220 IEM_DS3505
ZGKL,2008-06-04 02:00,ZGKL 040200Z AUTO 29004KT 1 1/2SM 27/23 A2983 RMK T02700230 IEM_DS3505
ZGKL,2008-06-04 03:00,ZGKL 040300Z AUTO 14004KT 4SM 29/21 A2983 RMK SLP095 T02900210 57003 IEM_DS3505
ZGKL,2008-06-04 04:00,ZGKL 040400Z AUTO 17004KT 3SM 31/23 A2980 RMK T03100230 IEM_DS3505
ZGKL,2008-06-04 05:00,ZGKL 040500Z AUTO 17004KT 4SM 32/23 A2977 RMK T03200230 IEM_DS3505
ZGKL,2008-06-04 06:00,ZGKL 040600Z AUTO 27002KT 4SM 33/21 A2974 RMK SLP070 T03270209 57024 IEM_DS3505
ZGKL,2008-06-04 07:00,ZGKL 040700Z AUTO 20004KT 4SM 33/22 A2971 RMK T03300220 IEM_DS3505
ZGKL,2008-06-04 08:00,ZGKL 040800Z AUTO 11004KT 5SM 34/20 A2971 RMK T03400200 IEM_DS3505
ZGKL,2008-06-04 09:00,ZGKL 040900Z AUTO 14004KT 4SM 33/21 A2968 RMK SLP048 T03290211 57022 IEM_DS3505
ZGKL,2008-06-04 10:00,ZGKL 041000Z AUTO 10004KT 5SM 32/20 A2968 RMK T03200200 IEM_DS3505
ZGKL,2008-06-04 11:00,ZGKL 041100Z AUTO 5SM 31/20 A2968 RMK T03100200 IEM_DS3505
ZGKL,2008-06-04 12:00,ZGKL 041200Z AUTO 14002KT 4SM 30/21 A2971 RMK SLP061 T03020207 52012 IEM_DS3505
ZGKL,2008-06-04 13:00,ZGKL 041300Z AUTO 00000KT 3SM 26/24 A2974 RMK T02600240 IEM_DS3505
ZGKL,2008-06-04 14:00,ZGKL 041400Z AUTO 00000KT 3SM 26/23 A2974 RMK T02600230 IEM_DS3505
ZGKL,2008-06-04 15:00,ZGKL 041500Z AUTO 36002KT 4SM 27/21 A2977 RMK SLP075 T02730213 52015 IEM_DS3505
ZGKL,2008-06-04 16:00,ZGKL 041600Z AUTO 00000KT 2 1/2SM 24/23 A2977 RMK T02400230 IEM_DS3505
ZGKL,2008-06-04 17:00,ZGKL 041700Z AUTO 00000KT 1 1/2SM 24/23 A2977 RMK T02400230 IEM_DS3505
ZGKL,2008-06-04 18:00,ZGKL 041800Z AUTO 02002KT 4SM 25/21 A2974 RMK SLP069 T02530212 57006 IEM_DS3505
ZGKL,2008-06-04 19:00,ZGKL 041900Z AUTO 00000KT 2SM 23/22 A2974 RMK T02300220 IEM_DS3505
ZGKL,2008-06-04 20:00,ZGKL 042000Z AUTO 00000KT 1 1/4SM 23/22 A2974 RMK T02300220 IEM_DS3505
ZGKL,2008-06-04 21:00,ZGKL 042100Z AUTO 04002KT 5SM 24/20 A2974 RMK SLP070 T02400203 52001 IEM_DS3505
ZGKL,2008-06-04 22:00,ZGKL 042200Z AUTO 00000KT 2 1/2SM 22/22 A2974 RMK T02200220 IEM_DS3505
ZGKL,2008-06-04 23:00,ZGKL 042300Z AUTO 00000KT 2 1/2SM 23/22 A2977 RMK T02300220 IEM_DS3505
ZGKL,2008-06-05 00:00,ZGKL 050000Z AUTO 02002KT 5SM 26/20 A2977 RMK SLP080 T02570200 52010 IEM_DS3505
ZGKL,2008-06-05 01:00,ZGKL 050100Z AUTO 00000KT 1 1/2SM 27/23 A2980 RMK T02700230 IEM_DS3505
ZGKL,2008-06-05 02:00,ZGKL 050200Z AUTO 00000KT 2SM 29/24 A2980 RMK T02900240 IEM_DS3505
ZGKL,2008-06-05 03:00,ZGKL 050300Z AUTO 11002KT 4SM 31/22 A2977 RMK SLP074 T03070215 57006 IEM_DS3505
ZGKL,2008-06-05 04:00,ZGKL 050400Z AUTO 2 1/2SM 31/23 A2974 RMK T03100230 IEM_DS3505
ZGKL,2008-06-05 05:00,ZGKL 050500Z AUTO 3SM 31/24 A2971 RMK T03100240 IEM_DS3505
ZGKL,2008-06-05 06:00,ZGKL 050600Z AUTO 02002KT 4SM 32/20 A2968 RMK SLP047 T03230196 57026 IEM_DS3505
ZGKL,2008-06-05 07:00,ZGKL 050700Z AUTO 28004KT 4SM 32/22 A2968 RMK T03200220 IEM_DS3505
ZGKL,2008-06-05 08:00,ZGKL 050800Z AUTO 5SM 32/21 A2965 RMK T03200210 IEM_DS3505
ZGKL,2008-06-05 09:00,ZGKL 050900Z AUTO 14002KT 4SM 32/19 A2962 RMK SLP027 T03230192 57020 IEM_DS3505
ZGKL,2008-06-05 10:00,ZGKL 051000Z AUTO 22002KT 4SM 31/22 A2962 RMK T03100220 IEM_DS3505
ZGKL,2008-06-05 11:00,ZGKL 051100Z AUTO 4SM 30/25 A2965 RMK T03000250 IEM_DS3505
ZGKL,2008-06-05 12:00,ZGKL 051200Z AUTO 14002KT 5SM 30/21 A2965 RMK SLP035 T03020210 52007 IEM_DS3505
ZGKL,2008-06-05 13:00,ZGKL 051300Z AUTO 14019G35KT 3SM 26/20 A2968 RMK T02600200 IEM_DS3505
ZGKL,2008-06-05 14:00,ZGKL 051400Z AUTO 33012KT 3SM 22/21 A2974 RMK T02200210 IEM_DS3505
ZGKL,2008-06-05 15:00,ZGKL 051500Z AUTO 04008KT 5SM 22/20 A2974 RMK SLP079 T02230195 52043 IEM_DS3505
ZGKL,2008-06-05 16:00,ZGKL 051600Z AUTO 4SM 22/20 A2977 RMK T02200200 IEM_DS3505
ZGKL,2008-06-05 17:00,ZGKL 051700Z AUTO 19004KT 4SM 21/20 A2974 RMK T02100200 IEM_DS3505
ZGKL,2008-06-05 18:00,ZGKL 051800Z AUTO 00000KT 5SM 22/19 A2971 RMK 60004 SLP060 T02200186 57019 IEM_DS3505
ZGKL,2008-06-05 19:00,ZGKL 051900Z AUTO 00000KT 3SM 21/21 A2971 RMK T02100210 IEM_DS3505
ZGKL,2008-06-05 20:00,ZGKL 052000Z AUTO 3SM 22/21 A2971 RMK T02200210 IEM_DS3505
ZGKL,2008-06-05 21:00,ZGKL 052100Z AUTO 07002KT 5SM 22/20 A2971 RMK 70006 SLP056 T02210200 57003 IEM_DS3505
ZGKL,2008-06-05 22:00,ZGKL 052200Z AUTO 00000KT 3SM 21/21 A2971 RMK T02100210 IEM_DS3505
ZGKL,2008-06-05 23:00,ZGKL 052300Z AUTO 33002KT 3SM 22/21 A2971 RMK T02200210 IEM_DS3505
ZGKL,2008-06-06 00:00,ZGKL 060000Z AUTO 04002KT 4SM 22/20 A2974 RMK 60000 70006 SLP064 T02230198 52007 IEM_DS3505
ZGKL,2008-06-06 01:00,ZGKL 060100Z AUTO 4SM 24/21 A2974 RMK T02400210 IEM_DS3505
ZGKL,2008-06-06 02:00,ZGKL 060200Z AUTO 5SM 25/22 A2974 RMK T02500220 IEM_DS3505
ZGKL,2008-06-06 03:00,ZGKL 060300Z AUTO 34004KT 6SM 29/19 A2974 RMK SLP062 T02860190 57003 IEM_DS3505
ZGKL,2008-06-06 04:00,ZGKL 060400Z AUTO 18006KT 5SM 29/22 A2971 RMK T02900220 IEM_DS3505
ZGKL,2008-06-06 05:00,ZGKL 060500Z AUTO 5SM 30/23 A2971 RMK T03000230 IEM_DS3505
ZGKL,2008-06-06 06:00,ZGKL 060600Z AUTO 32002KT 6SM 31/19 A2968 RMK SLP043 T03100190 57018 IEM_DS3505
ZGKL,2008-06-06 07:00,ZGKL 060700Z AUTO 22006KT 7SM 31/22 A2965 RMK T03100220 IEM_DS3505
ZGKL,2008-06-06 08:00,ZGKL 060800Z AUTO 17004KT 7SM 32/21 A2965 RMK T03200210 IEM_DS3505
ZGKL,2008-06-06 09:00,ZGKL 060900Z AUTO 18006KT 6SM 30/20 A2965 RMK SLP035 T02950195 57008 IEM_DS3505
ZGKL,2008-06-06 10:00,ZGKL 061000Z AUTO 14012KT 7SM 28/22 A2965 RMK T02800220 IEM_DS3505
ZGKL,2008-06-06 11:00,ZGKL 061100Z AUTO 13010KT 7SM 26/21 A2968 RMK T02600210 IEM_DS3505
ZGKL,2008-06-06 12:00,ZGKL 061200Z AUTO 18006KT 7SM 26/20 A2971 RMK 60020 SLP056 T02560195 52019 IEM_DS3505
ZGKL,2008-06-06 13:00,ZGKL 061300Z AUTO 7SM 25/21 A2971 RMK T02500210 IEM_DS3505
ZGKL,2008-06-06 14:00,ZGKL 061400Z AUTO 00000KT 7SM 25/21 A2974 RMK T02500210 IEM_DS3505
ZGKL,2008-06-06 15:00,ZGKL 061500Z AUTO 18002KT 7SM 25/19 A2977 RMK SLP076 T02510192 52022 IEM_DS3505
ZGKL,2008-06-06 16:00,ZGKL 061600Z AUTO 00000KT 7SM 24/22 A2977 RMK T02400220 IEM_DS3505
ZGKL,2008-06-06 17:00,ZGKL 061700Z AUTO 00000KT 7SM 23/22 A2974 RMK T02300220 IEM_DS3505
ZGKL,2008-06-06 18:00,ZGKL 061800Z AUTO 04002KT 7SM 23/21 A2974 RMK SLP066 T02320209 57010 IEM_DS3505
ZGKL,2008-06-06 19:00,ZGKL 061900Z AUTO 00000KT 7SM 23/22 A2974 RMK T02300220 IEM_DS3505
ZGKL,2008-06-06 20:00,ZGKL 062000Z AUTO 00000KT 5SM 23/22 A2974 RMK T02300220 IEM_DS3505
ZGKL,2008-06-06 21:00,ZGKL 062100Z AUTO 00000KT 7SM 23/21 A2974 RMK 70022 SLP063 T02310210 57003 IEM_DS3505
ZGKL,2008-06-06 22:00,ZGKL 062200Z AUTO 00000KT 4SM 23/22 A2974 RMK T02300220 IEM_DS3505
ZGKL,2008-06-06 23:00,ZGKL 062300Z AUTO 00000KT 3SM 23/22 A2977 RMK T02300220 IEM_DS3505
ZGKL,2008-06-07 00:00,ZGKL 070000Z AUTO 14002KT 6SM 24/22 A2977 RMK 70021 SLP083 T02410216 52019 IEM_DS3505
ZGKL,2008-06-07 01:00,ZGKL 070100Z AUTO 00000KT 4SM 24/23 A2980 RMK T02400230 IEM_DS3505
ZGKL,2008-06-07 02:00,ZGKL 070200Z AUTO 00000KT 5SM 26/23 A2980 RMK T02600230 IEM_DS3505
ZGKL,2008-06-07 03:00,ZGKL 070300Z AUTO 16002KT 6SM 28/20 A2980 RMK SLP085 T02780201 52003 IEM_DS3505
ZGKL,2008-06-07 04:00,ZGKL 070400Z AUTO 00000KT 7SM 28/23 A2977 RMK T02800230 IEM_DS3505
ZGKL,2008-06-07 05:00,ZGKL 070500Z AUTO 7SM 29/23 A2974 RMK T02900230 IEM_DS3505
ZGKL,2008-06-07 06:00,ZGKL 070600Z AUTO 14002KT 9SM 30/20 A2971 RMK SLP060 T03010195 57025 IEM_DS3505
ZGKL,2008-06-07 07:00,ZGKL 070700Z AUTO 7SM 31/23 A2968 RMK T03100230 IEM_DS3505
ZGKL,2008-06-07 08:00,ZGKL 070800Z AUTO 11004KT 7SM 31/22 A2968 RMK T03100220 IEM_DS3505
ZGKL,2008-06-07 09:00,ZGKL 070900Z AUTO 18004KT 11SM 31/19 A2965 RMK SLP036 T03120186 57023 IEM_DS3505
ZGKL,2008-06-07 10:00,ZGKL 071000Z AUTO 14006KT 7SM 29/23 A2965 RMK T02900230 IEM_DS3505
ZGKL,2008-06-07 11:00,ZGKL 071100Z AUTO 14004KT 6SM 29/23 A2968 RMK T02900230 IEM_DS3505
ZGKL,2008-06-07 12:00,ZGKL 071200Z AUTO 18004KT 11SM 29/22 A2971 RMK SLP056 T02880221 52019 IEM_DS3505
ZGKL,2008-06-07 13:00,ZGKL 071300Z AUTO 00000KT 7SM 28/24 A2974 RMK T02800240 IEM_DS3505
ZGKL,2008-06-07 14:00,ZGKL 071400Z AUTO 00000KT 7SM 26/24 A2974 RMK T02600240 IEM_DS3505
ZGKL,2008-06-07 15:00,ZGKL 071500Z AUTO 18006KT 11SM 28/22 A2974 RMK SLP068 T02770220 52013 IEM_DS3505
ZGKL,2008-06-07 16:00,ZGKL 071600Z AUTO 7SM 26/24 A2974 RMK T02600240 IEM_DS3505
ZGKL,2008-06-07 17:00,ZGKL 071700Z AUTO 16004KT 7SM 26/23 A2974 RMK T02600230 IEM_DS3505
ZGKL,2008-06-07 18:00,ZGKL 071800Z AUTO 15006KT 7SM 26/24 A2971 RMK T02600240 IEM_DS3505
ZGKL,2008-06-07 19:00,ZGKL 071900Z AUTO 16008KT 7SM 26/23 A2971 RMK T02600230 IEM_DS3505
ZGKL,2008-06-07 20:00,ZGKL 072000Z AUTO 16006KT 7SM 26/23 A2971 RMK T02600230 IEM_DS3505
ZGKL,2008-06-07 21:00,ZGKL 072100Z AUTO 18004KT 8SM 26/22 A2971 RMK SLP061 T02590224 57002 IEM_DS3505
ZGKL,2008-06-07 22:00,ZGKL 072200Z AUTO 00000KT 7SM 25/23 A2971 RMK T02500230 IEM_DS3505
ZGKL,2008-06-07 23:00,ZGKL 072300Z AUTO 14004KT 7SM 25/23 A2974 RMK T02500230 IEM_DS3505
ZGKL,2008-06-08 00:00,ZGKL 080000Z AUTO 18004KT 7SM 25/24 A2974 RMK 60008 70009 SLP072 T02540242 52010 IEM_DS3505
ZGKL,2008-06-08 01:00,ZGKL 080100Z AUTO 7SM 27/24 A2974 RMK T02700240 IEM_DS3505
ZGKL,2008-06-08 02:00,ZGKL 080200Z AUTO 13006KT 7SM 27/24 A2974 RMK T02700240 IEM_DS3505
ZGKL,2008-06-08 03:00,ZGKL 080300Z AUTO 16004KT 10SM 28/23 A2974 RMK SLP067 T02800232 57004 IEM_DS3505
ZGKL,2008-06-08 04:00,ZGKL 080400Z AUTO 19006KT 6SM 25/24 A2974 RMK T02500240 IEM_DS3505
ZGKL,2008-06-08 05:00,ZGKL 080500Z AUTO 00000KT 4SM 25/24 A2974 RMK T02500240 IEM_DS3505
ZGKL,2008-06-08 06:00,ZGKL 080600Z AUTO 14002KT 5SM 25/25 A2971 RMK 60039 SLP062 T02490249 57006 IEM_DS3505
ZGKL,2008-06-08 07:00,ZGKL 080700Z AUTO 16012KT 7SM 25/24 A2971 RMK T02500240 IEM_DS3505
ZGKL,2008-06-08 08:00,ZGKL 080800Z AUTO 17008KT 7SM 24/23 A2971 RMK T02400230 IEM_DS3505
ZGKL,2008-06-08 09:00,ZGKL 080900Z AUTO 18002KT 5SM 24/24 A2968 RMK SLP055 T02430243 57008 IEM_DS3505
ZGKL,2008-06-08 10:00,ZGKL 081000Z AUTO 19006KT 7SM 24/24 A2971 RMK T02400240 IEM_DS3505
ZGKL,2008-06-08 11:00,ZGKL 081100Z AUTO 15006KT 5SM 24/23 A2971 RMK T02400230 IEM_DS3505
ZGKL,2008-06-08 12:00,ZGKL 081200Z AUTO 20002KT 8SM 24/24 A2974 RMK 60094 SLP065 T02450245 52010 IEM_DS3505
ZGKL,2008-06-08 13:00,ZGKL 081300Z AUTO 15002KT 5SM 24/23 A2974 RMK T02400230 IEM_DS3505
ZGKL,2008-06-08 14:00,ZGKL 081400Z AUTO 32002KT 4SM 24/23 A2974 RMK T02400230 IEM_DS3505
ZGKL,2008-06-08 15:00,ZGKL 081500Z AUTO 16002KT 4SM 24/24 A2974 RMK SLP073 T02440244 52009 IEM_DS3505
ZGKL,2008-06-08 16:00,ZGKL 081600Z AUTO 15006KT 3SM 24/23 A2974 RMK T02400230 IEM_DS3505
ZGKL,2008-06-08 17:00,ZGKL 081700Z AUTO 12006KT 4SM 24/23 A2974 RMK T02400230 IEM_DS3505
ZGKL,2008-06-08 18:00,ZGKL 081800Z AUTO 16002KT 6SM 24/24 A2971 RMK 60150 SLP060 T02400240 57014 IEM_DS3505
ZGKL,2008-06-08 19:00,ZGKL 081900Z AUTO 00000KT 6SM 24/23 A2971 RMK T02400230 IEM_DS3505
ZGKL,2008-06-08 20:00,ZGKL 082000Z AUTO 6SM 24/23 A2968 RMK T02400230 IEM_DS3505
ZGKL,2008-06-08 21:00,ZGKL 082100Z AUTO 25002KT 6SM 24/24 A2971 RMK 70309 SLP058 T02420242 57002 IEM_DS3505
ZGKL,2008-06-08 22:00,ZGKL 082200Z AUTO 10004KT 4SM 24/23 A2971 RMK T02400230 IEM_DS3505
ZGKL,2008-06-08 23:00,ZGKL 082300Z AUTO 14006KT 4SM 24/23 A2974 RMK T02400230 IEM_DS3505
ZGKL,2008-06-09 00:00,ZGKL 090000Z AUTO 20004KT 5SM 24/24 A2974 RMK 60035 70317 SLP073 T02390239 52014 IEM_DS3505
ZGKL,2008-06-09 01:00,ZGKL 090100Z AUTO 14006KT 4SM 24/23 A2974 RMK T02400230 IEM_DS3505
ZGKL,2008-06-09 02:00,ZGKL 090200Z AUTO 16008KT 7SM 24/24 A2974 RMK T02400240 IEM_DS3505
ZGKL,2008-06-09 03:00,ZGKL 090300Z AUTO 20004KT 6SM 25/24 A2974 RMK SLP075 T02470242 52003 IEM_DS3505
ZGKL,2008-06-09 04:00,ZGKL 090400Z AUTO 16010KT 7SM 24/23 A2974 RMK T02400230 IEM_DS3505
ZGKL,2008-06-09 05:00,ZGKL 090500Z AUTO 18010KT 7SM 24/23 A2974 RMK T02400230 IEM_DS3505
ZGKL,2008-06-09 06:00,ZGKL 090600Z AUTO 18004KT 7SM 25/25 A2971 RMK 60035 SLP063 T02490247 57012 IEM_DS3505
ZGKL,2008-06-09 07:00,ZGKL 090700Z AUTO 18008KT 7SM 24/23 A2971 RMK T02400230 IEM_DS3505
ZGKL,2008-06-09 08:00,ZGKL 090800Z AUTO 13004KT 7SM 24/23 A2968 RMK T02400230 IEM_DS3505
ZGKL,2008-06-09 09:00,ZGKL 090900Z AUTO 18002KT 5SM 24/24 A2968 RMK SLP051 T02410241 57012 IEM_DS3505
ZGKL,2008-06-09 10:00,ZGKL 091000Z AUTO 7SM 24/23 A2968 RMK T02400230 IEM_DS3505
ZGKL,2008-06-09 11:00,ZGKL 091100Z AUTO 16004KT 7SM 24/23 A2968 RMK T02400230 IEM_DS3505
ZGKL,2008-06-09 12:00,ZGKL 091200Z AUTO 18002KT 5SM 24/24 A2971 RMK 60067 SLP057 T02360236 52005 IEM_DS3505
ZGKL,2008-06-09 13:00,ZGKL 091300Z AUTO 14004KT 7SM 24/23 A2971 RMK T02400230 IEM_DS3505
ZGKL,2008-06-09 14:00,ZGKL 091400Z AUTO 15004KT 7SM 23/23 A2971 RMK T02300230 IEM_DS3505
ZGKL,2008-06-09 15:00,ZGKL 091500Z AUTO 18002KT 5SM 24/24 A2974 RMK SLP068 T02360236 52011 IEM_DS3505
ZGKL,2008-06-09 16:00,ZGKL 091600Z AUTO 17006KT 4SM 23/23 A2971 RMK T02300230 IEM_DS3505
ZGKL,2008-06-09 17:00,ZGKL 091700Z AUTO 4SM 23/23 A2971 RMK T02300230 IEM_DS3505
ZGKL,2008-06-09 18:00,ZGKL 091800Z AUTO 14002KT 4SM 23/23 A2968 RMK 60091 SLP054 T02330233 57013 IEM_DS3505
ZGKL,2008-06-09 19:00,ZGKL 091900Z AUTO 16004KT 6SM 23/22 A2968 RMK T02300220 IEM_DS3505
ZGKL,2008-06-09 20:00,ZGKL 092000Z AUTO 14006KT 7SM 23/22 A2968 RMK T02300220 IEM_DS3505
ZGKL,2008-06-09 21:00,ZGKL 092100Z AUTO 14002KT 4SM 23/23 A2968 RMK 70352 SLP046 T02310231 57009 IEM_DS3505
ZGKL,2008-06-09 22:00,ZGKL 092200Z AUTO 00000KT 3SM 23/23 A2968 RMK T02300230 IEM_DS3505
ZGKL,2008-06-09 23:00,ZGKL 092300Z AUTO 00000KT 2 1/2SM 23/23 A2968 RMK T02300230 IEM_DS3505
ZGKL,2008-06-10 00:00,ZGKL 100000Z AUTO 18004KT 6SM 23/23 A2971 RMK 60161 70350 SLP057 T02330233 52011 IEM_DS3505
ZGKL,2008-06-10 01:00,ZGKL 100100Z AUTO 5SM 24/23 A2971 RMK T02400230 IEM_DS3505
ZGKL,2008-06-10 02:00,ZGKL 100200Z AUTO 00000KT 7SM 27/23 A2971 RMK T02700230 IEM_DS3505
ZGKL,2008-06-10 03:00,ZGKL 100300Z AUTO 18004KT 7SM 26/24 A2971 RMK SLP058 T02590236 52002 IEM_DS3505
ZGKL,2008-06-10 04:00,ZGKL 100400Z AUTO 16004KT 7SM 29/23 A2968 RMK T02900230 IEM_DS3505
ZGKL,2008-06-10 05:00,ZGKL 100500Z AUTO 08004KT 7SM 30/24 A2968 RMK T03000240 IEM_DS3505
ZGKL,2008-06-10 06:00,ZGKL 100600Z AUTO 18002KT 11SM 30/23 A2968 RMK 60004 SLP046 T02990226 57011 IEM_DS3505
ZGKL,2008-06-10 07:00,ZGKL 100700Z AUTO 13008KT 7SM 28/24 A2968 RMK T02800240 IEM_DS3505
ZGKL,2008-06-10 08:00,ZGKL 100800Z AUTO 15006KT 7SM 28/24 A2965 RMK T02800240 IEM_DS3505
ZGKL,2008-06-10 09:00,ZGKL 100900Z AUTO 18006KT 14SM 29/22 A2965 RMK SLP037 T02930225 57009 IEM_DS3505
ZGKL,2008-06-10 10:00,ZGKL 101000Z AUTO 12004KT 7SM 28/25 A2965 RMK T02800250 IEM_DS3505
ZGKL,2008-06-10 11:00,ZGKL 101100Z AUTO 10004KT 7SM 28/25 A2965 RMK T02800250 IEM_DS3505
ZGKL,2008-06-10 12:00,ZGKL 101200Z AUTO 00000KT 11SM 27/22 A2968 RMK SLP046 T02730225 52009 IEM_DS3505
ZGKL,2008-06-10 13:00,ZGKL 101300Z AUTO 11004KT 4SM 26/25 A2971 RMK T02600250 IEM_DS3505
ZGKL,2008-06-10 14:00,ZGKL 101400Z AUTO 00000KT 3SM 26/24 A2974 RMK T02600240 IEM_DS3505
ZGKL,2008-06-10 15:00,ZGKL 101500Z AUTO 11002KT 11SM 26/24 A2974 RMK SLP070 T02620239 52024 IEM_DS3505
ZGKL,2008-06-10 16:00,ZGKL 101600Z AUTO 00000KT 3SM 25/23 A2974 RMK T02500230 IEM_DS3505
ZGKL,2008-06-10 17:00,ZGKL 101700Z AUTO 00000KT 2 1/2SM 24/23 A2974 RMK T02400230 IEM_DS3505
ZGKL,2008-06-10 18:00,ZGKL 101800Z AUTO 18002KT 8SM 25/24 A2974 RMK 60000 SLP067 T02530241 57002 IEM_DS3505
ZGKL,2008-06-10 19:00,ZGKL 101900Z AUTO 00000KT 3SM 24/23 A2974 RMK T02400230 IEM_DS3505
ZGKL,2008-06-10 20:00,ZGKL 102000Z AUTO 00000KT 3SM 23/23 A2974 RMK T02300230 IEM_DS3505
ZGKL,2008-06-10 21:00,ZGKL 102100Z AUTO 20002KT 7SM 24/24 A2974 RMK 70018 SLP069 T02450236 52001 IEM_DS3505
ZGKL,2008-06-10 22:00,ZGKL 102200Z AUTO 00000KT 3SM 23/23 A2977 RMK T02300230 IEM_DS3505
ZGKL,2008-06-10 23:00,ZGKL 102300Z AUTO 00000KT 2SM 24/23 A2977 RMK T02400230 IEM_DS3505
ZGKL,2008-06-11 00:00,ZGKL 110000Z AUTO 18002KT 7SM 25/24 A2980 RMK 70004 SLP086 T02500236 52016 IEM_DS3505
ZGKL,2008-06-11 01:00,ZGKL 110100Z AUTO 00000KT 4SM 27/24 A2980 RMK T02700240 IEM_DS3505
ZGKL,2008-06-11 02:00,ZGKL 110200Z AUTO 19006KT 7SM 28/24 A2980 RMK T02800240 IEM_DS3505
ZGKL,2008-06-11 03:00,ZGKL 110300Z AUTO 25002KT 7SM 28/22 A2980 RMK SLP088 T02840224 52003 IEM_DS3505
ZGKL,2008-06-11 04:00,ZGKL 110400Z AUTO 19006KT 7SM 30/23 A2977 RMK T03000230 IEM_DS3505
ZGKL,2008-06-11 05:00,ZGKL 110500Z AUTO 19004KT 7SM 30/23 A2977 RMK T03000230 IEM_DS3505
ZGKL,2008-06-11 06:00,ZGKL 110600Z AUTO 20004KT 7SM 30/22 A2974 RMK SLP066 T02990216 57021 IEM_DS3505
ZGKL,2008-06-11 07:00,ZGKL 110700Z AUTO 6SM 30/24 A2971 RMK T03000240 IEM_DS3505
ZGKL,2008-06-11 08:00,ZGKL 110800Z AUTO 6SM 30/24 A2968 RMK T03000240 IEM_DS3505
ZGKL,2008-06-11 09:00,ZGKL 110900Z AUTO 07004KT 6SM 30/22 A2968 RMK SLP047 T03000224 57019 IEM_DS3505
ZGKL,2008-06-11 10:00,ZGKL 111000Z AUTO 04004KT 6SM 29/24 A2968 RMK T02900240 IEM_DS3505
ZGKL,2008-06-11 11:00,ZGKL 111100Z AUTO 5SM 29/24 A2971 RMK T02900240 IEM_DS3505
ZGKL,2008-06-11 12:00,ZGKL 111200Z AUTO 36006KT 7SM 26/20 A2971 RMK SLP063 T02620205 52014 IEM_DS3505
ZGKL,2008-06-11 13:00,ZGKL 111300Z AUTO 06006KT 4SM 27/22 A2974 RMK T02700220 IEM_DS3505
ZGKL,2008-06-11 14:00,ZGKL 111400Z AUTO 07008KT 4SM 26/21 A2974 RMK T02600210 IEM_DS3505
ZGKL,2008-06-11 15:00,ZGKL 111500Z AUTO 02004KT 7SM 25/21 A2974 RMK SLP073 T02530214 52011 IEM_DS3505
ZGKL,2008-06-11 16:00,ZGKL 111600Z AUTO 19006KT 3SM 25/23 A2977 RMK T02500230 IEM_DS3505
ZGKL,2008-06-11 17:00,ZGKL 111700Z AUTO 3SM 23/23 A2977 RMK T02300230 IEM_DS3505
ZGKL,2008-06-11 18:00,ZGKL 111800Z AUTO 00000KT 6SM 24/24 A2974 RMK 60016 SLP068 T02380235 57005 IEM_DS3505
ZGKL,2008-06-11 19:00,ZGKL 111900Z AUTO 2 1/2SM 23/23 A2974 RMK T02300230 IEM_DS3505
ZGKL,2008-06-11 20:00,ZGKL 112000Z AUTO 2 1/2SM 23/22 A2974 RMK T02300220 IEM_DS3505
ZGKL,2008-06-11 21:00,ZGKL 112100Z AUTO 02004KT 4SM 23/23 A2971 RMK 70117 SLP058 T02320232 57010 IEM_DS3505
ZGKL,2008-06-11 22:00,ZGKL 112200Z AUTO 34004KT 1 1/2SM 22/22 A2971 RMK T02200220 IEM_DS3505
ZGKL,2008-06-12 00:00,ZGKL 120000Z AUTO 36006KT 4SM 23/23 A2974 RMK 60287 70301 SLP066 T02260226 52007 IEM_DS3505
ZGKL,2008-06-12 01:00,ZGKL 120100Z AUTO 34006KT 1 1/4SM 22/22 A2971 RMK T02200220 IEM_DS3505
ZGKL,2008-06-12 02:00,ZGKL 120200Z AUTO 36006KT 1 1/4SM 22/22 A2971 RMK T02200220 IEM_DS3505
ZGKL,2008-06-12 03:00,ZGKL 120300Z AUTO 02006KT 2 1/2SM 22/22 A2971 RMK SLP064 T02210221 57003 IEM_DS3505
ZGKL,2008-06-12 04:00,ZGKL 120400Z AUTO 34006KT 2SM 22/22 A2971 RMK T02200220 IEM_DS3505
ZGKL,2008-06-12 05:00,ZGKL 120500Z AUTO 33008KT 2SM 22/22 A2968 RMK T02200220 IEM_DS3505
ZGKL,2008-06-12 06:00,ZGKL 120600Z AUTO 04006KT 5SM 23/23 A2965 RMK 60386 SLP040 T02260226 57024 IEM_DS3505
ZGKL,2008-06-12 07:00,ZGKL 120700Z AUTO 35006KT 3SM 22/22 A2962 RMK T02200220 IEM_DS3505
ZGKL,2008-06-12 08:00,ZGKL 120800Z AUTO 2 1/2SM 22/22 A2962 RMK T02200220 IEM_DS3505
ZGKL,2008-06-12 09:00,ZGKL 120900Z AUTO 36006KT 6SM 22/22 A2962 RMK SLP031 T02230223 57009 IEM_DS3505
ZGKL,2008-06-12 10:00,ZGKL 121000Z AUTO 02006KT 4SM 22/22 A2959 RMK T02200220 IEM_DS3505
ZGKL,2008-06-12 11:00,ZGKL 121100Z AUTO 35006KT 2SM 22/22 A2962 RMK T02200220 IEM_DS3505
ZGKL,2008-06-12 12:00,ZGKL 121200Z AUTO 04004KT 6SM 22/22 A2962 RMK 60303 SLP033 T02220222 52002 IEM_DS3505
ZGKL,2008-06-12 13:00,ZGKL 121300Z AUTO 34006KT 3SM 22/22 A2962 RMK T02200220 IEM_DS3505
ZGKL,2008-06-12 14:00,ZGKL 121400Z AUTO 06004KT 2 1/2SM 22/22 A2965 RMK T02200220 IEM_DS3505
ZGKL,2008-06-12 15:00,ZGKL 121500Z AUTO 02006KT 5SM 22/22 A2962 RMK T02190219 52004 IEM_DS3505
ZGKL,2008-06-12 16:00,ZGKL 121600Z AUTO 4SM 22/22 A2962 RMK T02200220 IEM_DS3505
ZGKL,2008-06-12 17:00,ZGKL 121700Z AUTO 36008KT 4SM 22/22 A2959 RMK T02200220 IEM_DS3505
ZGKL,2008-06-12 18:00,ZGKL 121800Z AUTO 02006KT 5SM 22/22 A2956 RMK 60110 SLP016 T02170217 57021 IEM_DS3505
ZGKL,2008-06-12 19:00,ZGKL 121900Z AUTO 3SM 22/22 A2956 RMK T02200220 IEM_DS3505
ZGKL,2008-06-12 20:00,ZGKL 122000Z AUTO 2SM 22/22 A2956 RMK T02200220 IEM_DS3505
ZGKL,2008-06-12 21:00,ZGKL 122100Z AUTO 04004KT 4SM 21/21 A2956 RMK 71073 SLP013 T02140214 57003 IEM_DS3505
ZGKL,2008-06-12 22:00,ZGKL 122200Z AUTO 2SM 22/22 A2956 RMK T02200220 IEM_DS3505
ZGKL,2008-06-12 23:00,ZGKL 122300Z AUTO 02004KT 2 1/2SM 22/22 A2959 RMK T02200220 IEM_DS3505
ZGKL,2008-06-13 00:00,ZGKL 130000Z AUTO 02004KT 4SM 22/22 A2959 RMK 60114 70911 SLP027 T02180218 52014 IEM_DS3505
ZGKL,2008-06-13 01:00,ZGKL 130100Z AUTO 34006KT 7SM 23/23 A2962 RMK T02300230 IEM_DS3505
ZGKL,2008-06-13 02:00,ZGKL 130200Z AUTO 7SM 25/23 A2962 RMK T02500230 IEM_DS3505
ZGKL,2008-06-13 03:00,ZGKL 130300Z AUTO 11002KT 5SM 24/23 A2962 RMK SLP036 T02440227 52009 IEM_DS3505
ZGKL,2008-06-13 04:00,ZGKL 130400Z AUTO 08006KT 7SM 26/22 A2962 RMK T02600220 IEM_DS3505
ZGKL,2008-06-13 05:00,ZGKL 130500Z AUTO 00000KT 7SM 26/24 A2959 RMK T02600240 IEM_DS3505
ZGKL,2008-06-13 06:00,ZGKL 130600Z AUTO 07004KT 11SM 28/21 A2959 RMK 60000 SLP016 T02840214 57018 IEM_DS3505
ZGKL,2008-06-13 07:00,ZGKL 130700Z AUTO 00000KT 7SM 27/23 A2956 RMK T02700230 IEM_DS3505
ZGKL,2008-06-13 08:00,ZGKL 130800Z AUTO 30006KT 2 1/2SM 24/24 A2956 RMK T02400240 IEM_DS3505
ZGKL,2008-06-13 09:00,ZGKL 130900Z AUTO 36002KT 11SM 28/22 A2956 RMK SLP003 T02810219 57013 IEM_DS3505
ZGKL,2008-06-13 10:00,ZGKL 131000Z AUTO 7SM 26/24 A2956 RMK T02600240 IEM_DS3505
ZGKL,2008-06-13 11:00,ZGKL 131100Z AUTO 00000KT 7SM 26/24 A2956 RMK T02600240 IEM_DS3505
ZGKL,2008-06-13 12:00,ZGKL 131200Z AUTO 02004KT 15SM 26/21 A2956 RMK SLP014 T02570214 52010 IEM_DS3505
ZGKL,2008-06-13 13:00,ZGKL 131300Z AUTO 31002KT 2 1/2SM 24/23 A2959 RMK T02400230 IEM_DS3505
ZGKL,2008-06-13 14:00,ZGKL 131400Z AUTO 30002KT 3SM 23/23 A2962 RMK T02300230 IEM_DS3505
ZGKL,2008-06-13 15:00,ZGKL 131500Z AUTO 36002KT 12SM 24/21 A2965 RMK SLP037 T02400209 52023 IEM_DS3505
ZGKL,2008-06-13 16:00,ZGKL 131600Z AUTO 24002KT 2 1/2SM 22/22 A2965 RMK T02200220 IEM_DS3505
ZGKL,2008-06-13 17:00,ZGKL 131700Z AUTO 29004KT 2 1/2SM 22/22 A2965 RMK T02200220 IEM_DS3505
ZGKL,2008-06-13 18:00,ZGKL 131800Z AUTO 34002KT 11SM 23/22 A2962 RMK SLP034 T02270224 57002 IEM_DS3505
ZGKL,2008-06-13 19:00,ZGKL 131900Z AUTO 00000KT 3SM 21/21 A2962 RMK T02100210 IEM_DS3505
ZGKL,2008-06-13 20:00,ZGKL 132000Z AUTO 00000KT 3/8SM 21/21 A2962 RMK T02100210 IEM_DS3505
ZGKL,2008-06-13 21:00,ZGKL 132100Z AUTO 36004KT 22/22 A2962 RMK 70024 SLP030 T02180218 57004 IEM_DS3505
ZGKL,2008-06-13 22:00,ZGKL 132200Z AUTO 1/4SM 21/21 A2962 RMK T02100210 IEM_DS3505
ZGKL,2008-06-13 23:00,ZGKL 132300Z AUTO 00000KT 1/4SM 22/22 A2965 RMK T02200220 IEM_DS3505
ZGKL,2008-06-14 00:00,ZGKL 140000Z AUTO 02002KT 7SM 24/22 A2968 RMK 70001 SLP051 T02400223 52020 IEM_DS3505
ZGKL,2008-06-14 01:00,ZGKL 140100Z AUTO 2SM 25/23 A2971 RMK T02500230 IEM_DS3505
ZGKL,2008-06-14 02:00,ZGKL 140200Z AUTO 4SM 26/23 A2971 RMK T02600230 IEM_DS3505
ZGKL,2008-06-14 03:00,ZGKL 140300Z AUTO 36002KT 9SM 29/21 A2968 RMK SLP048 T02860206 57002 IEM_DS3505
ZGKL,2008-06-14 04:00,ZGKL 140400Z AUTO 7SM 29/24 A2968 RMK T02900240 IEM_DS3505
ZGKL,2008-06-14 05:00,ZGKL 140500Z AUTO 7SM 31/22 A2965 RMK T03100220 IEM_DS3505
ZGKL,2008-06-14 06:00,ZGKL 140600Z AUTO 09002KT 10SM 32/20 A2962 RMK SLP030 T03170197 57017 IEM_DS3505
ZGKL,2008-06-14 07:00,ZGKL 140700Z AUTO 7SM 32/20 A2962 RMK T03200200 IEM_DS3505
ZGKL,2008-06-14 08:00,ZGKL 140800Z AUTO 6SM 32/21 A2959 RMK T03200210 IEM_DS3505
ZGKL,2008-06-14 09:00,ZGKL 140900Z AUTO 02004KT 10SM 33/20 A2956 RMK SLP013 T03270199 57017 IEM_DS3505
ZGKL,2008-06-14 10:00,ZGKL 141000Z AUTO 13004KT 6SM 31/22 A2959 RMK T03100220 IEM_DS3505
ZGKL,2008-06-14 11:00,ZGKL 141100Z AUTO 12004KT 6SM 30/23 A2959 RMK T03000230 IEM_DS3505
ZGKL,2008-06-14 12:00,ZGKL 141200Z AUTO 02004KT 9SM 29/21 A2962 RMK SLP032 T02870207 52018 IEM_DS3505
ZGKL,2008-06-14 13:00,ZGKL 141300Z AUTO 06008KT 6SM 28/21 A2965 RMK T02800210 IEM_DS3505
ZGKL,2008-06-14 14:00,ZGKL 141400Z AUTO 34008KT 6SM 27/23 A2968 RMK T02700230 IEM_DS3505
ZGKL,2008-06-14 15:00,ZGKL 141500Z AUTO 02004KT 9SM 27/20 A2968 RMK SLP050 T02680202 52019 IEM_DS3505
ZGKL,2008-06-14 16:00,ZGKL 141600Z AUTO 00000KT 3SM 25/23 A2968 RMK T02500230 IEM_DS3505
ZGKL,2008-06-14 17:00,ZGKL 141700Z AUTO 00000KT 3SM 25/23 A2968 RMK T02500230 IEM_DS3505
ZGKL,2008-06-14 18:00,ZGKL 141800Z AUTO 36002KT 9SM 26/20 A2968 RMK SLP045 T02610202 57004 IEM_DS3505
ZGKL,2008-06-14 19:00,ZGKL 141900Z AUTO 00000KT 2SM 24/23 A2965 RMK T02400230 IEM_DS3505
ZGKL,2008-06-14 20:00,ZGKL 142000Z AUTO 00000KT 2 1/2SM 24/23 A2965 RMK T02400230 IEM_DS3505
ZGKL,2008-06-14 21:00,ZGKL 142100Z AUTO 02004KT 7SM 25/21 A2965 RMK SLP036 T02530208 57009 IEM_DS3505
ZGKL,2008-06-14 22:00,ZGKL 142200Z AUTO 00000KT 3SM 24/23 A2965 RMK T02400230 IEM_DS3505
ZGKL,2008-06-14 23:00,ZGKL 142300Z AUTO 00000KT 2 1/2SM 24/23 A2968 RMK T02400230 IEM_DS3505
ZGKL,2008-06-15 00:00,ZGKL 150000Z AUTO 04002KT 7SM 25/21 A2968 RMK SLP048 T02540206 52011 IEM_DS3505
ZGKL,2008-06-15 01:00,ZGKL 150100Z AUTO 00000KT 2 1/2SM 25/23 A2968 RMK T02500230 IEM_DS3505
ZGKL,2008-06-15 02:00,ZGKL 150200Z AUTO 00000KT 2 1/2SM 27/23 A2971 RMK T02700230 IEM_DS3505
ZGKL,2008-06-15 03:00,ZGKL 150300Z AUTO 02008KT 5SM 28/21 A2971 RMK SLP051 T02780206 52003 IEM_DS3505
ZGKL,2008-06-15 04:00,ZGKL 150400Z AUTO 33006KT 4SM 28/23 A2968 RMK T02800230 IEM_DS3505
ZGKL,2008-06-15 05:00,ZGKL 150500Z AUTO 4SM 28/23 A2965 RMK T02800230 IEM_DS3505
ZGKL,2008-06-15 06:00,ZGKL 150600Z AUTO 02004KT 5SM 28/21 A2965 RMK 60000 SLP035 T02810212 57016 IEM_DS3505
ZGKL,2008-06-15 07:00,ZGKL 150700Z AUTO 00000KT 3SM 27/24 A2962 RMK T02700240 IEM_DS3505
ZGKL,2008-06-15 08:00,ZGKL 150800Z AUTO 00000KT 2SM 26/24 A2962 RMK T02600240 IEM_DS3505
ZGKL,2008-06-15 09:00,ZGKL 150900Z AUTO 18004KT 4SM 27/21 A2962 RMK SLP025 T02720210 57010 IEM_DS3505
ZGKL,2008-06-15 10:00,ZGKL 151000Z AUTO 00000KT 2 1/2SM 26/24 A2962 RMK T02600240 IEM_DS3505
ZGKL,2008-06-15 11:00,ZGKL 151100Z AUTO 00000KT 2SM 25/23 A2962 RMK T02500230 IEM_DS3505
ZGKL,2008-06-15 12:00,ZGKL 151200Z AUTO 18004KT 4SM 26/23 A2965 RMK 60000 SLP040 T02600233 52014 IEM_DS3505
ZGKL,2008-06-15 13:00,ZGKL 151300Z AUTO 00000KT 2SM 25/24 A2965 RMK T02500240 IEM_DS3505
ZGKL,2008-06-15 14:00,ZGKL 151400Z AUTO 00000KT 1 1/2SM 25/24 A2968 RMK T02500240 IEM_DS3505
ZGKL,2008-06-15 15:00,ZGKL 151500Z AUTO 18002KT 4SM 25/24 A2968 RMK SLP051 T02530237 52011 IEM_DS3505
ZGKL,2008-06-15 16:00,ZGKL 151600Z AUTO 00000KT 1 1/4SM 24/24 A2968 RMK T02400240 IEM_DS3505
ZGKL,2008-06-15 17:00,ZGKL 151700Z AUTO 00000KT 1SM 24/24 A2965 RMK T02400240 IEM_DS3505
ZGKL,2008-06-15 18:00,ZGKL 151800Z AUTO 32002KT 4SM 25/24 A2965 RMK 60000 SLP036 T02520236 57014 IEM_DS3505
ZGKL,2008-06-15 19:00,ZGKL 151900Z AUTO 00000KT 1SM 24/24 A2962 RMK T02400240 IEM_DS3505
ZGKL,2008-06-15 20:00,ZGKL 152000Z AUTO 00000KT 3/8SM 24/24 A2962 RMK T02400240 IEM_DS3505
ZGKL,2008-06-15 21:00,ZGKL 152100Z AUTO 36002KT 4SM 24/24 A2962 RMK 70002 SLP029 T02450243 57008 IEM_DS3505
ZGKL,2008-06-15 22:00,ZGKL 152200Z AUTO 33004KT 1SM 23/23 A2962 RMK T02300230 IEM_DS3505
ZGKL,2008-06-15 23:00,ZGKL 152300Z AUTO 1SM 23/23 A2965 RMK T02300230 IEM_DS3505
ZGKL,2008-06-16 00:00,ZGKL 160000Z AUTO 02006KT 3SM 23/23 A2965 RMK 60087 70087 SLP043 T02270227 52013 IEM_DS3505
ZGKL,2008-06-16 01:00,ZGKL 160100Z AUTO 1SM 23/23 A2965 RMK T02300230 IEM_DS3505
ZGKL,2008-06-16 02:00,ZGKL 160200Z AUTO 03006KT 1SM 23/23 A2968 RMK T02300230 IEM_DS3505
ZGKL,2008-06-16 03:00,ZGKL 160300Z AUTO 02006KT 6SM 24/23 A2968 RMK SLP048 T02350230 52005 IEM_DS3505
ZGKL,2008-06-16 04:00,ZGKL 160400Z AUTO 1 1/4SM 24/23 A2968 RMK T02400230 IEM_DS3505
ZGKL,2008-06-16 05:00,ZGKL 160500Z AUTO 04004KT 1 1/4SM 24/23 A2965 RMK T02400230 IEM_DS3505
ZGKL,2008-06-16 06:00,ZGKL 160600Z AUTO 02006KT 5SM 24/23 A2962 RMK 60028 SLP035 T02380233 57013 IEM_DS3505
ZGKL,2008-06-16 07:00,ZGKL 160700Z AUTO 4SM 24/23 A2962 RMK T02400230 IEM_DS3505
ZGKL,2008-06-16 08:00,ZGKL 160800Z AUTO 4SM 24/23 A2959 RMK T02400230 IEM_DS3505
ZGKL,2008-06-16 09:00,ZGKL 160900Z AUTO 02006KT 6SM 25/22 A2959 RMK SLP019 T02500223 57015 IEM_DS3505
ZGKL,2008-06-16 10:00,ZGKL 161000Z AUTO 32004KT 2 1/2SM 24/24 A2959 RMK T02400240 IEM_DS3505
ZGKL,2008-06-16 11:00,ZGKL 161100Z AUTO 2 1/2SM 24/23 A2959 RMK T02400230 IEM_DS3505
ZGKL,2008-06-16 12:00,ZGKL 161200Z AUTO 02006KT 6SM 23/21 A2962 RMK 60004 SLP034 T02310214 52013 IEM_DS3505
ZGKL,2008-06-16 13:00,ZGKL 161300Z AUTO 06004KT 1SM 22/22 A2965 RMK T02200220 IEM_DS3505
ZGKL,2008-06-16 14:00,ZGKL 161400Z AUTO 04004KT 1 1/2SM 22/22 A2968 RMK T02200220 IEM_DS3505
ZGKL,2008-06-16 15:00,ZGKL 161500Z AUTO 02004KT 5SM 22/22 A2968 RMK SLP048 T02250218 52014 IEM_DS3505
ZGKL,2008-06-16 16:00,ZGKL 161600Z AUTO 2 1/2SM 22/22 A2968 RMK T02200220 IEM_DS3505
ZGKL,2008-06-16 17:00,ZGKL 161700Z AUTO 00000KT 1 1/4SM 22/22 A2965 RMK T02200220 IEM_DS3505
ZGKL,2008-06-16 18:00,ZGKL 161800Z AUTO 02004KT 5SM 22/22 A2965 RMK 60016 SLP039 T02220215 57009 IEM_DS3505
ZGKL,2008-06-16 19:00,ZGKL 161900Z AUTO 00000KT 3SM 22/22 A2962 RMK T02200220 IEM_DS3505
ZGKL,2008-06-16 20:00,ZGKL 162000Z AUTO 07004KT 3SM 22/22 A2962 RMK T02200220 IEM_DS3505
ZGKL,2008-06-16 21:00,ZGKL 162100Z AUTO 36004KT 4SM 21/21 A2962 RMK 70148 SLP031 T02140214 57008 IEM_DS3505
ZGKL,2008-06-16 22:00,ZGKL 162200Z AUTO 13002KT 1 1/4SM 22/22 A2962 RMK T02200220 IEM_DS3505
ZGKL,2008-06-16 23:00,ZGKL 162300Z AUTO 00000KT 1 1/4SM 22/22 A2965 RMK T02200220 IEM_DS3505
ZGKL,2008-06-17 00:00,ZGKL 170000Z AUTO 02006KT 5SM 22/22 A2965 RMK 60016 70065 SLP042 T02160216 52011 IEM_DS3505
ZGKL,2008-06-17 01:00,ZGKL 170100Z AUTO 00000KT 3SM 23/22 A2965 RMK T02300220 IEM_DS3505
ZGKL,2008-06-17 02:00,ZGKL 170200Z AUTO 00000KT 4SM 23/22 A2968 RMK T02300220 IEM_DS3505
ZGKL,2008-06-17 03:00,ZGKL 170300Z AUTO 36004KT 6SM 23/22 A2968 RMK SLP048 T02330219 52006 IEM_DS3505
ZGKL,2008-06-17 04:00,ZGKL 170400Z AUTO 27004KT 7SM 24/23 A2968 RMK T02400230 IEM_DS3505
ZGKL,2008-06-17 05:00,ZGKL 170500Z AUTO 31004KT 7SM 25/23 A2968 RMK T02500230 IEM_DS3505
ZGKL,2008-06-17 06:00,ZGKL 170600Z AUTO 36008KT 10SM 24/20 A2965 RMK 60000 SLP046 T02390196 57002 IEM_DS3505
ZGKL,2008-06-17 07:00,ZGKL 170700Z AUTO 7SM 24/22 A2965 RMK T02400220 IEM_DS3505
ZGKL,2008-06-17 08:00,ZGKL 170800Z AUTO 00000KT 7SM 24/22 A2965 RMK T02400220 IEM_DS3505
ZGKL,2008-06-17 09:00,ZGKL 170900Z AUTO 02008KT 11SM 23/19 A2965 RMK SLP043 T02280188 57003 IEM_DS3505
ZGKL,2008-06-17 10:00,ZGKL 171000Z AUTO 06012KT 7SM 23/20 A2965 RMK T02300200 IEM_DS3505
ZGKL,2008-06-17 11:00,ZGKL 171100Z AUTO 00000KT 7SM 23/20 A2968 RMK T02300200 IEM_DS3505
ZGKL,2008-06-17 12:00,ZGKL 171200Z AUTO 02006KT 12SM 22/17 A2968 RMK SLP053 T02220173 52009 IEM_DS3505
ZGKL,2008-06-17 13:00,ZGKL 171300Z AUTO 00000KT 7SM 21/20 A2971 RMK T02100200 IEM_DS3505
ZGKL,2008-06-17 14:00,ZGKL 171400Z AUTO 00000KT 7SM 21/20 A2971 RMK T02100200 IEM_DS3505
ZGKL,2008-06-17 15:00,ZGKL 171500Z AUTO 02008KT 11SM 22/17 A2974 RMK SLP069 T02220171 52016 IEM_DS3505
ZGKL,2008-06-17 16:00,ZGKL 171600Z AUTO 00000KT 7SM 21/20 A2974 RMK T02100200 IEM_DS3505
ZGKL,2008-06-17 17:00,ZGKL 171700Z AUTO 00000KT 7SM 21/21 A2971 RMK T02100210 IEM_DS3505
ZGKL,2008-06-17 18:00,ZGKL 171800Z AUTO 02002KT 9SM 22/18 A2971 RMK SLP057 T02150175 57011 IEM_DS3505
ZGKL,2008-06-17 19:00,ZGKL 171900Z AUTO 00000KT 6SM 21/21 A2968 RMK T02100210 IEM_DS3505
ZGKL,2008-06-17 20:00,ZGKL 172000Z AUTO 00000KT 6SM 21/21 A2968 RMK T02100210 IEM_DS3505
ZGKL,2008-06-17 21:00,ZGKL 172100Z AUTO 36004KT 9SM 21/18 A2968 RMK 70003 SLP056 T02140176 57002 IEM_DS3505
ZGKL,2008-06-17 22:00,ZGKL 172200Z AUTO 00000KT 7SM 21/21 A2971 RMK T02100210 IEM_DS3505
ZGKL,2008-06-17 23:00,ZGKL 172300Z AUTO 00000KT 7SM 21/21 A2971 RMK T02100210 IEM_DS3505
ZGKL,2008-06-18 00:00,ZGKL 180000Z AUTO 36004KT 9SM 22/18 A2974 RMK 60000 70000 SLP071 T02220182 52015 IEM_DS3505
ZGKL,2008-06-18 01:00,ZGKL 180100Z AUTO 00000KT 7SM 23/20 A2974 RMK T02300200 IEM_DS3505
ZGKL,2008-06-18 02:00,ZGKL 180200Z AUTO 00000KT 7SM 23/20 A2974 RMK T02300200 IEM_DS3505
ZGKL,2008-06-18 03:00,ZGKL 180300Z AUTO 02004KT 9SM 24/19 A2974 RMK SLP071 T02370188 52001 IEM_DS3505
ZGKL,2008-06-18 04:00,ZGKL 180400Z AUTO 7SM 24/20 A2974 RMK T02400200 IEM_DS3505
ZGKL,2008-06-18 05:00,ZGKL 180500Z AUTO 7SM 24/20 A2974 RMK T02400200 IEM_DS3505
ZGKL,2008-06-18 06:00,ZGKL 180600Z AUTO 36004KT 9SM 24/19 A2971 RMK SLP064 T02440190 57007 IEM_DS3505
ZGKL,2008-06-18 07:00,ZGKL 180700Z AUTO 7SM 25/20 A2971 RMK T02500200 IEM_DS3505
ZGKL,2008-06-18 08:00,ZGKL 180800Z AUTO 7SM 25/20 A2968 RMK T02500200 IEM_DS3505
ZGKL,2008-06-18 09:00,ZGKL 180900Z AUTO 04004KT 9SM 25/19 A2968 RMK SLP051 T02480187 57013 IEM_DS3505
ZGKL,2008-06-18 10:00,ZGKL 181000Z AUTO 00000KT 7SM 25/20 A2968 RMK T02500200 IEM_DS3505
ZGKL,2008-06-18 11:00,ZGKL 181100Z AUTO 00000KT 7SM 24/21 A2968 RMK T02400210 IEM_DS3505
ZGKL,2008-06-18 12:00,ZGKL 181200Z AUTO 04002KT 9SM 24/19 A2971 RMK SLP061 T02380193 52010 IEM_DS3505
ZGKL,2008-06-18 13:00,ZGKL 181300Z AUTO 00000KT 7SM 23/22 A2974 RMK T02300220 IEM_DS3505
ZGKL,2008-06-18 14:00,ZGKL 181400Z AUTO 00000KT 3SM 22/22 A2974 RMK T02200220 IEM_DS3505
ZGKL,2008-06-18 15:00,ZGKL 181500Z AUTO 00000KT 5SM 22/22 A2974 RMK SLP077 T02160216 52015 IEM_DS3505
ZGKL,2008-06-18 16:00,ZGKL 181600Z AUTO 00000KT 1 1/2SM 21/21 A2974 RMK T02100210 IEM_DS3505
ZGKL,2008-06-18 17:00,ZGKL 181700Z AUTO 00000KT 1SM 21/21 A2974 RMK T02100210 IEM_DS3505
ZGKL,2008-06-18 18:00,ZGKL 181800Z AUTO 00000KT 4SM 21/21 A2974 RMK 60008 SLP067 T02140214 57009 IEM_DS3505
ZGKL,2008-06-18 19:00,ZGKL 181900Z AUTO 00000KT 1SM 21/21 A2971 RMK T02100210 IEM_DS3505
ZGKL,2008-06-18 20:00,ZGKL 182000Z AUTO 00000KT 1SM 21/21 A2971 RMK T02100210 IEM_DS3505
ZGKL,2008-06-18 21:00,ZGKL 182100Z AUTO 04002KT 4SM 21/21 A2971 RMK 70013 SLP059 T02130213 57008 IEM_DS3505
ZGKL,2008-06-18 22:00,ZGKL 182200Z AUTO 00000KT 1 1/2SM 21/21 A2971 RMK T02100210 IEM_DS3505
ZGKL,2008-06-18 23:00,ZGKL 182300Z AUTO 00000KT 1 1/2SM 21/21 A2971 RMK T02100210 IEM_DS3505
ZGKL,2008-06-19 00:00,ZGKL 190000Z AUTO 34004KT 4SM 22/22 A2974 RMK 60004 70013 SLP068 T02190219 52009 IEM_DS3505
ZGKL,2008-06-19 01:00,ZGKL 190100Z AUTO 00000KT 1 1/2SM 22/22 A2974 RMK T02200220 IEM_DS3505
ZGKL,2008-06-19 02:00,ZGKL 190200Z AUTO 00000KT 1 1/4SM 22/22 A2974 RMK T02200220 IEM_DS3505
ZGKL,2008-06-19 03:00,ZGKL 190300Z AUTO 32004KT 4SM 22/22 A2974 RMK SLP072 T02240224 52003 IEM_DS3505
ZGKL,2008-06-19 04:00,ZGKL 190400Z AUTO 00000KT 2 1/2SM 22/22 A2974 RMK T02200220 IEM_DS3505
ZGKL,2008-06-19 05:00,ZGKL 190500Z AUTO 00000KT 7SM 24/23 A2974 RMK T02400230 IEM_DS3505
ZGKL,2008-06-19 06:00,ZGKL 190600Z AUTO 04002KT 4SM 26/24 A2971 RMK 60024 SLP062 T02560237 57009 IEM_DS3505
ZGKL,2008-06-19 07:00,ZGKL 190700Z AUTO 00000KT 7SM 26/24 A2971 RMK T02600240 IEM_DS3505
ZGKL,2008-06-19 08:00,ZGKL 190800Z AUTO 7SM 26/24 A2968 RMK T02600240 IEM_DS3505
ZGKL,2008-06-19 09:00,ZGKL 190900Z AUTO 34002KT 5SM 26/24 A2968 RMK SLP046 T02630238 57015 IEM_DS3505
ZGKL,2008-06-19 10:00,ZGKL 191000Z AUTO 00000KT 2 1/2SM 25/24 A2968 RMK T02500240 IEM_DS3505
ZGKL,2008-06-19 11:00,ZGKL 191100Z AUTO 2 1/2SM 25/24 A2968 RMK T02500240 IEM_DS3505
ZGKL,2008-06-19 12:00,ZGKL 191200Z AUTO 09002KT 6SM 25/25 A2971 RMK 60002 SLP058 T02510251 52011 IEM_DS3505
ZGKL,2008-06-19 13:00,ZGKL 191300Z AUTO 00000KT 1 1/4SM 24/24 A2971 RMK T02400240 IEM_DS3505
ZGKL,2008-06-19 14:00,ZGKL 191400Z AUTO 00000KT 1 1/4SM 24/24 A2971 RMK T02400240 IEM_DS3505
ZGKL,2008-06-19 15:00,ZGKL 191500Z AUTO 32002KT 4SM 24/24 A2974 RMK SLP069 T02450245 52011 IEM_DS3505
ZGKL,2008-06-19 16:00,ZGKL 191600Z AUTO 00000KT 1SM 24/24 A2974 RMK T02400240 IEM_DS3505
ZGKL,2008-06-19 17:00,ZGKL 191700Z AUTO 00000KT 1SM 24/24 A2974 RMK T02400240 IEM_DS3505
ZGKL,2008-06-19 18:00,ZGKL 191800Z AUTO 04002KT 4SM 24/24 A2971 RMK 60000 SLP062 T02420242 57006 IEM_DS3505
ZGKL,2008-06-19 19:00,ZGKL 191900Z AUTO 00000KT 1/4SM 23/23 A2971 RMK T02300230 IEM_DS3505
ZGKL,2008-06-19 20:00,ZGKL 192000Z AUTO 00000KT 1/4SM 23/23 A2971 RMK T02300230 IEM_DS3505
ZGKL,2008-06-19 21:00,ZGKL 192100Z AUTO 14002KT 3SM 24/24 A2971 RMK 70026 SLP060 T02400240 57002 IEM_DS3505
ZGKL,2008-06-19 22:00,ZGKL 192200Z AUTO 00000KT 1SM 23/23 A2974 RMK T02300230 IEM_DS3505
ZGKL,2008-06-19 23:00,ZGKL 192300Z AUTO 00000KT 3SM 24/24 A2974 RMK T02400240 IEM_DS3505
ZGKL,2008-06-20 00:00,ZGKL 200000Z AUTO 20002KT 9SM 25/24 A2974 RMK 70026 SLP071 T02510242 52011 IEM_DS3505
ZGKL,2008-06-20 01:00,ZGKL 200100Z AUTO 00000KT 7SM 26/25 A2974 RMK T02600250 IEM_DS3505
ZGKL,2008-06-20 02:00,ZGKL 200200Z AUTO 16006KT 7SM 26/25 A2974 RMK T02600250 IEM_DS3505
ZGKL,2008-06-20 03:00,ZGKL 200300Z AUTO 18006KT 9SM 27/23 A2974 RMK SLP074 T02720234 52003 IEM_DS3505
ZGKL,2008-06-20 04:00,ZGKL 200400Z AUTO 17014KT 7SM 29/24 A2974 RMK T02900240 IEM_DS3505
ZGKL,2008-06-20 05:00,ZGKL 200500Z AUTO 16012KT 7SM 29/25 A2971 RMK T02900250 IEM_DS3505
ZGKL,2008-06-20 06:00,ZGKL 200600Z AUTO 20002KT 10SM 29/24 A2971 RMK SLP051 T02940238 57022 IEM_DS3505
ZGKL,2008-06-20 07:00,ZGKL 200700Z AUTO 20004KT 7SM 29/25 A2968 RMK T02900250 IEM_DS3505
ZGKL,2008-06-20 08:00,ZGKL 200800Z AUTO 23006KT 7SM 30/26 A2965 RMK T03000260 IEM_DS3505
ZGKL,2008-06-20 09:00,ZGKL 200900Z AUTO 18004KT 12SM 30/23 A2965 RMK SLP035 T02960231 57015 IEM_DS3505
ZGKL,2008-06-20 10:00,ZGKL 201000Z AUTO 12006KT 7SM 28/26 A2965 RMK T02800260 IEM_DS3505
ZGKL,2008-06-20 11:00,ZGKL 201100Z AUTO 14006KT 7SM 27/26 A2965 RMK T02700260 IEM_DS3505
ZGKL,2008-06-20 12:00,ZGKL 201200Z AUTO 18002KT 11SM 28/24 A2965 RMK 60000 SLP039 T02850236 52004 IEM_DS3505
ZGKL,2008-06-20 13:00,ZGKL 201300Z AUTO 00000KT 5SM 26/26 A2968 RMK T02600260 IEM_DS3505
ZGKL,2008-06-20 14:00,ZGKL 201400Z AUTO 00000KT 4SM 26/25 A2968 RMK T02600250 IEM_DS3505
ZGKL,2008-06-20 15:00,ZGKL 201500Z AUTO 20002KT 11SM 27/24 A2971 RMK SLP052 T02720237 52013 IEM_DS3505
ZGKL,2008-06-20 16:00,ZGKL 201600Z AUTO 00000KT 3SM 25/25 A2971 RMK T02500250 IEM_DS3505
ZGKL,2008-06-20 17:00,ZGKL 201700Z AUTO 00000KT 1SM 25/24 A2968 RMK T02500240 IEM_DS3505
ZGKL,2008-06-20 18:00,ZGKL 201800Z AUTO 18002KT 11SM 26/23 A2968 RMK SLP047 T02650232 57005 IEM_DS3505
ZGKL,2008-06-20 19:00,ZGKL 201900Z AUTO 00000KT 7SM 24/24 A2968 RMK T02400240 IEM_DS3505
ZGKL,2008-06-20 20:00,ZGKL 202000Z AUTO 00000KT 7SM 24/24 A2968 RMK T02400240 IEM_DS3505
ZGKL,2008-06-20 21:00,ZGKL 202100Z AUTO 18002KT 10SM 25/25 A2968 RMK 70000 SLP044 T02540247 57003 IEM_DS3505
ZGKL,2008-06-20 22:00,ZGKL 202200Z AUTO 00000KT 7SM 24/24 A2968 RMK T02400240 IEM_DS3505
ZGKL,2008-06-20 23:00,ZGKL 202300Z AUTO 17006KT 7SM 25/24 A2968 RMK T02500240 IEM_DS3505
ZGKL,2008-06-21 00:00,ZGKL 210000Z AUTO 20004KT 9SM 26/24 A2971 RMK 70000 SLP055 T02640239 52011 IEM_DS3505
ZGKL,2008-06-21 01:00,ZGKL 210100Z AUTO 16006KT 7SM 27/24 A2971 RMK T02700240 IEM_DS3505
ZGKL,2008-06-21 02:00,ZGKL 210200Z AUTO 19008KT 7SM 28/24 A2971 RMK T02800240 IEM_DS3505
ZGKL,2008-06-21 03:00,ZGKL 210300Z AUTO 18006KT 11SM 30/23 A2971 RMK SLP053 T02960226 57002 IEM_DS3505
ZGKL,2008-06-21 04:00,ZGKL 210400Z AUTO 17012KT 7SM 30/25 A2968 RMK T03000250 IEM_DS3505
ZGKL,2008-06-21 05:00,ZGKL 210500Z AUTO 18014KT 7SM 31/24 A2965 RMK T03100240 IEM_DS3505
ZGKL,2008-06-21 06:00,ZGKL 210600Z AUTO 18004KT 12SM 31/23 A2965 RMK SLP032 T03110227 57020 IEM_DS3505
ZGKL,2008-06-21 07:00,ZGKL 210700Z AUTO 18008KT 6SM 31/25 A2962 RMK T03100250 IEM_DS3505
ZGKL,2008-06-21 08:00,ZGKL 210800Z AUTO 19006KT 7SM 31/25 A2959 RMK T03100250 IEM_DS3505
ZGKL,2008-06-21 09:00,ZGKL 210900Z AUTO 18004KT 12SM 31/23 A2959 RMK SLP016 T03110227 57016 IEM_DS3505
ZGKL,2008-06-21 10:00,ZGKL 211000Z AUTO 18006KT 7SM 30/25 A2959 RMK T03000250 IEM_DS3505
ZGKL,2008-06-21 11:00,ZGKL 211100Z AUTO 13004KT 7SM 29/25 A2959 RMK T02900250 IEM_DS3505
ZGKL,2008-06-21 12:00,ZGKL 211200Z AUTO 20002KT 11SM 29/23 A2959 RMK SLP018 T02940234 52002 IEM_DS3505
ZGKL,2008-06-21 13:00,ZGKL 211300Z AUTO 00000KT 5SM 27/26 A2962 RMK T02700260 IEM_DS3505
ZGKL,2008-06-21 14:00,ZGKL 211400Z AUTO 00000KT 5SM 27/26 A2962 RMK T02700260 IEM_DS3505
ZGKL,2008-06-21 15:00,ZGKL 211500Z AUTO 16002KT 10SM 28/24 A2962 RMK SLP028 T02810235 52010 IEM_DS3505
ZGKL,2008-06-21 16:00,ZGKL 211600Z AUTO 00000KT 6SM 26/25 A2962 RMK T02600250 IEM_DS3505
ZGKL,2008-06-21 17:00,ZGKL 211700Z AUTO 00000KT 4SM 26/25 A2962 RMK T02600250 IEM_DS3505
ZGKL,2008-06-21 18:00,ZGKL 211800Z AUTO 29002KT 9SM 27/25 A2962 RMK SLP022 T02720248 57006 IEM_DS3505
ZGKL,2008-06-21 19:00,ZGKL 211900Z AUTO 00000KT 3SM 26/25 A2959 RMK T02600250 IEM_DS3505
ZGKL,2008-06-21 20:00,ZGKL 212000Z AUTO 00000KT 4SM 25/25 A2959 RMK T02500250 IEM_DS3505
ZGKL,2008-06-21 21:00,ZGKL 212100Z AUTO 16002KT 9SM 26/24 A2962 RMK 70000 SLP025 T02620239 52003 IEM_DS3505
ZGKL,2008-06-21 22:00,ZGKL 212200Z AUTO 00000KT 6SM 26/25 A2962 RMK T02600250 IEM_DS3505
ZGKL,2008-06-21 23:00,ZGKL 212300Z AUTO 18010KT 6SM 27/25 A2962 RMK T02700250 IEM_DS3505
ZGKL,2008-06-22 00:00,ZGKL 220000Z AUTO 16004KT 7SM 28/24 A2965 RMK 70000 SLP037 T02770237 52012 IEM_DS3505
ZGKL,2008-06-22 01:00,ZGKL 220100Z AUTO 19010KT 7SM 27/24 A2965 RMK T02700240 IEM_DS3505
ZGKL,2008-06-22 02:00,ZGKL 220200Z AUTO 19012KT 7SM 28/24 A2965 RMK T02800240 IEM_DS3505
ZGKL,2008-06-22 03:00,ZGKL 220300Z AUTO 20004KT 9SM 29/23 A2965 RMK SLP037 T02900227 54000 IEM_DS3505
ZGKL,2008-06-22 04:00,ZGKL 220400Z AUTO 20008KT 7SM 29/25 A2965 RMK T02900250 IEM_DS3505
ZGKL,2008-06-22 05:00,ZGKL 220500Z AUTO 21006KT 7SM 31/25 A2962 RMK T03100250 IEM_DS3505
ZGKL,2008-06-22 06:00,ZGKL 220600Z AUTO 20006KT 11SM 32/22 A2959 RMK SLP020 T03170221 57016 IEM_DS3505
ZGKL,2008-06-22 07:00,ZGKL 220700Z AUTO 19008KT 7SM 29/26 A2959 RMK T02900260 IEM_DS3505
ZGKL,2008-06-22 08:00,ZGKL 220800Z AUTO 22004KT 7SM 31/26 A2956 RMK T03100260 IEM_DS3505
ZGKL,2008-06-22 09:00,ZGKL 220900Z AUTO 20006KT 15SM 32/23 A2953 RMK SLP003 T03210228 57017 IEM_DS3505
ZGKL,2008-06-22 10:00,ZGKL 221000Z AUTO 18006KT 7SM 31/26 A2953 RMK T03100260 IEM_DS3505
ZGKL,2008-06-22 11:00,ZGKL 221100Z AUTO 32004KT 7SM 30/27 A2953 RMK T03000270 IEM_DS3505
ZGKL,2008-06-22 12:00,ZGKL 221200Z AUTO 32002KT 14SM 30/24 A2956 RMK SLP002 T03010238 57001 IEM_DS3505
ZGKL,2008-06-22 13:00,ZGKL 221300Z AUTO 7SM 28/26 A2956 RMK T02800260 IEM_DS3505
ZGKL,2008-06-22 14:00,ZGKL 221400Z AUTO 00000KT 5SM 27/26 A2959 RMK T02700260 IEM_DS3505
ZGKL,2008-06-22 15:00,ZGKL 221500Z AUTO 04002KT 12SM 28/24 A2959 RMK SLP019 T02780240 52016 IEM_DS3505
ZGKL,2008-06-22 16:00,ZGKL 221600Z AUTO 00000KT 4SM 26/25 A2959 RMK T02600250 IEM_DS3505
ZGKL,2008-06-22 17:00,ZGKL 221700Z AUTO 00000KT 3SM 25/25 A2956 RMK T02500250 IEM_DS3505
ZGKL,2008-06-22 18:00,ZGKL 221800Z AUTO 36002KT 12SM 26/24 A2956 RMK SLP010 T02630245 57009 IEM_DS3505
ZGKL,2008-06-22 19:00,ZGKL 221900Z AUTO 00000KT 2SM 25/24 A2956 RMK T02500240 IEM_DS3505
ZGKL,2008-06-22 20:00,ZGKL 222000Z AUTO 00000KT 2SM 25/25 A2956 RMK T02500250 IEM_DS3505
ZGKL,2008-06-22 21:00,ZGKL 222100Z AUTO 32002KT 9SM 26/25 A2956 RMK SLP007 T02640250 57002 IEM_DS3505
ZGKL,2008-06-22 22:00,ZGKL 222200Z AUTO 00000KT 2SM 25/25 A2956 RMK T02500250 IEM_DS3505
ZGKL,2008-06-22 23:00,ZGKL 222300Z AUTO 00000KT 2SM 25/25 A2956 RMK T02500250 IEM_DS3505
ZGKL,2008-06-23 00:00,ZGKL 230000Z AUTO 09002KT 6SM 27/25 A2959 RMK SLP014 T02720252 52006 IEM_DS3505
ZGKL,2008-06-23 01:00,ZGKL 230100Z AUTO 00000KT 3SM 28/26 A2959 RMK T02800260 IEM_DS3505
ZGKL,2008-06-23 02:00,ZGKL 230200Z AUTO 17006KT 5SM 30/26 A2959 RMK T03000260 IEM_DS3505
ZGKL,2008-06-23 03:00,ZGKL 230300Z AUTO 22004KT 7SM 31/23 A2956 RMK SLP011 T03110232 57002 IEM_DS3505
ZGKL,2008-06-23 04:00,ZGKL 230400Z AUTO 18010KT 7SM 32/26 A2956 RMK T03200260 IEM_DS3505
ZGKL,2008-06-23 05:00,ZGKL 230500Z AUTO 19008KT 7SM 33/26 A2956 RMK T03300260 IEM_DS3505
ZGKL,2008-06-23 06:00,ZGKL 230600Z AUTO 20004KT 12SM 33/24 A2953 RMK SLP996 T03300236 57015 IEM_DS3505
ZGKL,2008-06-23 07:00,ZGKL 230700Z AUTO 18010KT 7SM 33/26 A2950 RMK T03300260 IEM_DS3505
ZGKL,2008-06-23 08:00,ZGKL 230800Z AUTO 19006KT 7SM 32/26 A2950 RMK T03200260 IEM_DS3505
ZGKL,2008-06-23 09:00,ZGKL 230900Z AUTO 29004KT 12SM 33/24 A2950 RMK SLP984 T03290238 57012 IEM_DS3505
ZGKL,2008-06-23 10:00,ZGKL 231000Z AUTO 19004KT 7SM 32/26 A2947 RMK T03200260 IEM_DS3505
ZGKL,2008-06-23 11:00,ZGKL 231100Z AUTO 00000KT 7SM 31/28 A2950 RMK T03100280 IEM_DS3505
ZGKL,2008-06-23 12:00,ZGKL 231200Z AUTO 32002KT 9SM 31/25 A2953 RMK SLP993 T03120251 52009 IEM_DS3505
ZGKL,2008-06-23 13:00,ZGKL 231300Z AUTO 00000KT 4SM 28/25 A2953 RMK T02800250 IEM_DS3505
ZGKL,2008-06-23 14:00,ZGKL 231400Z AUTO 00000KT 4SM 27/25 A2956 RMK T02700250 IEM_DS3505
ZGKL,2008-06-23 15:00,ZGKL 231500Z AUTO 00000KT 4SM 26/25 A2956 RMK T02600250 IEM_DS3505
ZGKL,2008-06-23 16:00,ZGKL 231600Z AUTO 00000KT 4SM 26/25 A2956 RMK T02600250 IEM_DS3505
ZGKL,2008-06-23 17:00,ZGKL 231700Z AUTO 00000KT 4SM 26/25 A2953 RMK T02600250 IEM_DS3505
ZGKL,2008-06-23 18:00,ZGKL 231800Z AUTO 02002KT 9SM 28/24 A2953 RMK SLP995 T02780244 57007 IEM_DS3505
ZGKL,2008-06-23 19:00,ZGKL 231900Z AUTO 00000KT 4SM 25/25 A2953 RMK T02500250 IEM_DS3505
ZGKL,2008-06-23 20:00,ZGKL 232000Z AUTO 00000KT 4SM 25/25 A2956 RMK T02500250 IEM_DS3505
ZGKL,2008-06-23 21:00,ZGKL 232100Z AUTO 02004KT 9SM 27/24 A2956 RMK SLP002 T02700237 52006 IEM_DS3505
ZGKL,2008-06-23 22:00,ZGKL 232200Z AUTO 00000KT 4SM 25/24 A2956 RMK T02500240 IEM_DS3505
ZGKL,2008-06-23 23:00,ZGKL 232300Z AUTO 00000KT 4SM 26/25 A2959 RMK T02600250 IEM_DS3505
ZGKL,2008-06-24 00:00,ZGKL 240000Z AUTO 32002KT 9SM 24/24 A2959 RMK 60063 70062 SLP025 T02430240 52021 IEM_DS3505
ZGKL,2008-06-24 01:00,ZGKL 240100Z AUTO 06002KT 7SM 26/23 A2962 RMK T02600230 IEM_DS3505
ZGKL,2008-06-24 02:00,ZGKL 240200Z AUTO 00000KT 7SM 27/24 A2962 RMK T02700240 IEM_DS3505
ZGKL,2008-06-24 03:00,ZGKL 240300Z AUTO 04004KT 10SM 29/23 A2962 RMK SLP024 T02900230 54000 IEM_DS3505
ZGKL,2008-06-24 04:00,ZGKL 240400Z AUTO 6SM 31/25 A2959 RMK T03100250 IEM_DS3505
ZGKL,2008-06-24 05:00,ZGKL 240500Z AUTO 7SM 33/26 A2959 RMK T03300260 IEM_DS3505
ZGKL,2008-06-24 06:00,ZGKL 240600Z AUTO 07004KT 11SM 33/24 A2956 RMK 60002 SLP006 T03270242 57017 IEM_DS3505
ZGKL,2008-06-24 07:00,ZGKL 240700Z AUTO 11004KT 7SM 34/25 A2953 RMK T03400250 IEM_DS3505
ZGKL,2008-06-24 08:00,ZGKL 240800Z AUTO 7SM 35/25 A2950 RMK T03500250 IEM_DS3505
ZGKL,2008-06-24 09:00,ZGKL 240900Z AUTO 07004KT 15SM 34/24 A2950 RMK SLP984 T03420236 57021 IEM_DS3505
ZGKL,2008-06-24 10:00,ZGKL 241000Z AUTO 7SM 34/25 A2950 RMK T03400250 IEM_DS3505
ZGKL,2008-06-24 11:00,ZGKL 241100Z AUTO 11002KT 7SM 32/27 A2953 RMK T03200270 IEM_DS3505
ZGKL,2008-06-24 12:00,ZGKL 241200Z AUTO 02008KT 15SM 31/24 A2953 RMK SLP006 T03070236 52020 IEM_DS3505
ZGKL,2008-06-24 13:00,ZGKL 241300Z AUTO 32012KT 2SM 25/25 A2959 RMK T02500250 IEM_DS3505
ZGKL,2008-06-24 14:00,ZGKL 241400Z AUTO 7SM 25/25 A2959 RMK T02500250 IEM_DS3505
ZGKL,2008-06-24 15:00,ZGKL 241500Z AUTO 36008KT 14SM 29/24 A2962 RMK SLP024 T02890238 52018 IEM_DS3505
ZGKL,2008-06-24 16:00,ZGKL 241600Z AUTO 7SM 26/25 A2962 RMK T02600250 IEM_DS3505
ZGKL,2008-06-24 17:00,ZGKL 241700Z AUTO 31004KT 4SM 26/25 A2959 RMK T02600250 IEM_DS3505
ZGKL,2008-06-24 18:00,ZGKL 241800Z AUTO 02004KT 11SM 28/23 A2959 RMK SLP017 T02820233 57006 IEM_DS3505
ZGKL,2008-06-24 19:00,ZGKL 241900Z AUTO 00000KT 3SM 26/25 A2959 RMK T02600250 IEM_DS3505
ZGKL,2008-06-24 20:00,ZGKL 242000Z AUTO 5SM 26/25 A2959 RMK T02600250 IEM_DS3505
ZGKL,2008-06-24 21:00,ZGKL 242100Z AUTO 02004KT 9SM 27/23 A2959 RMK 70063 SLP017 T02720234 54000 IEM_DS3505
ZGKL,2008-06-24 22:00,ZGKL 242200Z AUTO 4SM 25/25 A2959 RMK T02500250 IEM_DS3505
ZGKL,2008-06-24 23:00,ZGKL 242300Z AUTO 6SM 26/25 A2962 RMK T02600250 IEM_DS3505
ZGKL,2008-06-25 00:00,ZGKL 250000Z AUTO 02004KT 5SM 28/24 A2965 RMK 70002 SLP031 T02840238 52013 IEM_DS3505
ZGKL,2008-06-25 01:00,ZGKL 250100Z AUTO 6SM 29/26 A2962 RMK T02900260 IEM_DS3505
ZGKL,2008-06-25 02:00,ZGKL 250200Z AUTO 6SM 31/26 A2962 RMK T03100260 IEM_DS3505
ZGKL,2008-06-25 03:00,ZGKL 250300Z AUTO 02006KT 6SM 32/23 A2959 RMK SLP021 T03170233 57009 IEM_DS3505
ZGKL,2008-06-25 04:00,ZGKL 250400Z AUTO 09006KT 7SM 33/25 A2959 RMK T03300250 IEM_DS3505
ZGKL,2008-06-25 05:00,ZGKL 250500Z AUTO 30016KT 7SM 29/25 A2959 RMK T02900250 IEM_DS3505
ZGKL,2008-06-25 06:00,ZGKL 250600Z AUTO 36008KT 7SM 34/22 A2959 RMK SLP008 T03350223 57012 IEM_DS3505
ZGKL,2008-06-25 07:00,ZGKL 250700Z AUTO 34010KT 7SM 27/26 A2956 RMK T02700260 IEM_DS3505
ZGKL,2008-06-25 08:00,ZGKL 250800Z AUTO 34010KT 7SM 28/26 A2956 RMK T02800260 IEM_DS3505
ZGKL,2008-06-25 09:00,ZGKL 250900Z AUTO 36002KT 7SM 29/23 A2956 RMK SLP005 T02890231 57005 IEM_DS3505
ZGKL,2008-06-25 10:00,ZGKL 251000Z AUTO 6SM 28/25 A2956 RMK T02800250 IEM_DS3505
ZGKL,2008-06-25 11:00,ZGKL 251100Z AUTO 4SM 27/25 A2956 RMK T02700250 IEM_DS3505
ZGKL,2008-06-25 12:00,ZGKL 251200Z AUTO 02002KT 9SM 28/23 A2959 RMK SLP014 T02760230 52009 IEM_DS3505
ZGKL,2008-06-25 13:00,ZGKL 251300Z AUTO 00000KT 4SM 27/25 A2959 RMK T02700250 IEM_DS3505
ZGKL,2008-06-25 14:00,ZGKL 251400Z AUTO 00000KT 4SM 26/25 A2962 RMK T02600250 IEM_DS3505
ZGKL,2008-06-25 15:00,ZGKL 251500Z AUTO 02006KT 7SM 26/24 A2962 RMK SLP028 T02570239 52014 IEM_DS3505
ZGKL,2008-06-25 16:00,ZGKL 251600Z AUTO 00000KT 4SM 26/25 A2962 RMK T02600250 IEM_DS3505
ZGKL,2008-06-25 17:00,ZGKL 251700Z AUTO 4SM 26/25 A2959 RMK T02600250 IEM_DS3505
ZGKL,2008-06-25 18:00,ZGKL 251800Z AUTO 02002KT 5SM 25/23 A2959 RMK 60008 SLP018 T02530234 57009 IEM_DS3505
ZGKL,2008-06-25 19:00,ZGKL 251900Z AUTO 00000KT 3SM 25/25 A2959 RMK T02500250 IEM_DS3505
ZGKL,2008-06-25 20:00,ZGKL 252000Z AUTO 2SM 25/25 A2959 RMK T02500250 IEM_DS3505
ZGKL,2008-06-25 21:00,ZGKL 252100Z AUTO 34002KT 5SM 26/23 A2962 RMK 70008 SLP027 T02550232 52007 IEM_DS3505
ZGKL,2008-06-25 22:00,ZGKL 252200Z AUTO 00000KT 2SM 25/25 A2962 RMK T02500250 IEM_DS3505
ZGKL,2008-06-25 23:00,ZGKL 252300Z AUTO 00000KT 1 1/2SM 25/25 A2962 RMK T02500250 IEM_DS3505
ZGKL,2008-06-26 00:00,ZGKL 260000Z AUTO 36004KT 4SM 26/22 A2962 RMK 60000 70008 SLP026 T02650221 57001 IEM_DS3505
ZGKL,2008-06-26 01:00,ZGKL 260100Z AUTO 00000KT 3SM 28/25 A2962 RMK T02800250 IEM_DS3505
ZGKL,2008-06-26 02:00,ZGKL 260200Z AUTO 00000KT 3SM 29/25 A2962 RMK T02900250 IEM_DS3505
ZGKL,2008-06-26 03:00,ZGKL 260300Z AUTO 07002KT 4SM 30/20 A2962 RMK SLP028 T03040203 52003 IEM_DS3505
ZGKL,2008-06-26 04:00,ZGKL 260400Z AUTO 21004KT 4SM 31/25 A2962 RMK T03100250 IEM_DS3505
ZGKL,2008-06-26 05:00,ZGKL 260500Z AUTO 00000KT 4SM 31/25 A2959 RMK T03100250 IEM_DS3505
ZGKL,2008-06-26 06:00,ZGKL 260600Z AUTO 29004KT 7SM 31/21 A2959 RMK SLP017 T03090208 57011 IEM_DS3505
ZGKL,2008-06-26 07:00,ZGKL 260700Z AUTO 4SM 29/25 A2959 RMK T02900250 IEM_DS3505
ZGKL,2008-06-26 08:00,ZGKL 260800Z AUTO 5SM 29/25 A2956 RMK T02900250 IEM_DS3505
ZGKL,2008-06-26 09:00,ZGKL 260900Z AUTO 34004KT 7SM 31/22 A2956 RMK SLP004 T03070218 57013 IEM_DS3505
ZGKL,2008-06-26 10:00,ZGKL 261000Z AUTO 00000KT 5SM 28/25 A2956 RMK T02800250 IEM_DS3505
ZGKL,2008-06-26 11:00,ZGKL 261100Z AUTO 00000KT 5SM 28/25 A2959 RMK T02800250 IEM_DS3505
ZGKL,2008-06-26 12:00,ZGKL 261200Z AUTO 02002KT 8SM 27/22 A2962 RMK SLP024 T02710216 52019 IEM_DS3505
ZGKL,2008-06-26 13:00,ZGKL 261300Z AUTO 21004KT 3SM 26/25 A2962 RMK T02600250 IEM_DS3505
ZGKL,2008-06-26 14:00,ZGKL 261400Z AUTO 00000KT 3SM 26/25 A2965 RMK T02600250 IEM_DS3505
ZGKL,2008-06-26 15:00,ZGKL 261500Z AUTO 32002KT 7SM 27/22 A2965 RMK SLP037 T02660222 52014 IEM_DS3505
ZGKL,2008-06-26 16:00,ZGKL 261600Z AUTO 3SM 25/25 A2965 RMK T02500250 IEM_DS3505
ZGKL,2008-06-26 17:00,ZGKL 261700Z AUTO 32002KT 2SM 25/25 A2962 RMK T02500250 IEM_DS3505
ZGKL,2008-06-26 18:00,ZGKL 261800Z AUTO 07002KT 7SM 25/23 A2962 RMK SLP029 T02530226 57008 IEM_DS3505
ZGKL,2008-06-26 19:00,ZGKL 261900Z AUTO 00000KT 1 1/2SM 25/25 A2962 RMK T02500250 IEM_DS3505
ZGKL,2008-06-26 20:00,ZGKL 262000Z AUTO 00000KT 1SM 25/25 A2962 RMK T02500250 IEM_DS3505
ZGKL,2008-06-26 21:00,ZGKL 262100Z AUTO 07002KT 6SM 25/22 A2962 RMK SLP033 T02520225 52003 IEM_DS3505
ZGKL,2008-06-26 22:00,ZGKL 262200Z AUTO 00000KT 1SM 24/24 A2962 RMK T02400240 IEM_DS3505
ZGKL,2008-06-26 23:00,ZGKL 262300Z AUTO 1SM 24/24 A2962 RMK T02400240 IEM_DS3505
ZGKL,2008-06-27 00:00,ZGKL 270000Z AUTO 04002KT 5SM 26/23 A2965 RMK SLP038 T02590228 52004 IEM_DS3505
ZGKL,2008-06-27 01:00,ZGKL 270100Z AUTO 2SM 27/25 A2965 RMK T02700250 IEM_DS3505
ZGKL,2008-06-27 02:00,ZGKL 270200Z AUTO 2 1/2SM 28/26 A2968 RMK T02800260 IEM_DS3505
ZGKL,2008-06-27 03:00,ZGKL 270300Z AUTO 00000KT 5SM 28/23 A2965 RMK SLP042 T02830230 52005 IEM_DS3505
ZGKL,2008-06-27 04:00,ZGKL 270400Z AUTO 4SM 31/25 A2965 RMK T03100250 IEM_DS3505
ZGKL,2008-06-27 05:00,ZGKL 270500Z AUTO 6SM 32/24 A2962 RMK T03200240 IEM_DS3505
ZGKL,2008-06-27 06:00,ZGKL 270600Z AUTO 07002KT 4SM 32/19 A2962 RMK SLP022 T03210194 57019 IEM_DS3505
ZGKL,2008-06-27 07:00,ZGKL 270700Z AUTO 31004KT 6SM 31/24 A2959 RMK T03100240 IEM_DS3505
ZGKL,2008-06-27 08:00,ZGKL 270800Z AUTO 7SM 32/19 A2959 RMK T03200190 IEM_DS3505
ZGKL,2008-06-27 09:00,ZGKL 270900Z AUTO 02004KT 9SM 31/18 A2959 RMK SLP013 T03140177 57009 IEM_DS3505
ZGKL,2008-06-27 10:00,ZGKL 271000Z AUTO 02010KT 6SM 30/20 A2959 RMK T03000200 IEM_DS3505
ZGKL,2008-06-27 11:00,ZGKL 271100Z AUTO 6SM 28/23 A2959 RMK T02800230 IEM_DS3505
ZGKL,2008-06-27 12:00,ZGKL 271200Z AUTO 02004KT 8SM 29/20 A2962 RMK SLP027 T02870196 52013 IEM_DS3505
ZGKL,2008-06-27 13:00,ZGKL 271300Z AUTO 28002KT 6SM 27/23 A2965 RMK T02700230 IEM_DS3505
ZGKL,2008-06-27 14:00,ZGKL 271400Z AUTO 00000KT 6SM 26/24 A2965 RMK T02600240 IEM_DS3505
ZGKL,2008-06-27 15:00,ZGKL 271500Z AUTO 14002KT 8SM 27/21 A2965 RMK SLP039 T02740207 52012 IEM_DS3505
ZGKL,2008-06-27 16:00,ZGKL 271600Z AUTO 00000KT 6SM 25/24 A2965 RMK T02500240 IEM_DS3505
ZGKL,2008-06-27 17:00,ZGKL 271700Z AUTO 00000KT 6SM 24/23 A2962 RMK T02400230 IEM_DS3505
ZGKL,2008-06-27 18:00,ZGKL 271800Z AUTO 04002KT 7SM 25/20 A2962 RMK SLP029 T02540202 57009 IEM_DS3505
ZGKL,2008-06-27 19:00,ZGKL 271900Z AUTO 00000KT 5SM 24/23 A2962 RMK T02400230 IEM_DS3505
ZGKL,2008-06-27 20:00,ZGKL 272000Z AUTO 00000KT 5SM 24/23 A2962 RMK T02400230 IEM_DS3505
ZGKL,2008-06-27 21:00,ZGKL 272100Z AUTO 04002KT 6SM 24/20 A2962 RMK 70000 SLP030 T02440203 54000 IEM_DS3505
ZGKL,2008-06-27 22:00,ZGKL 272200Z AUTO 00000KT 5SM 23/23 A2962 RMK T02300230 IEM_DS3505
ZGKL,2008-06-27 23:00,ZGKL 272300Z AUTO 00000KT 5SM 24/23 A2965 RMK T02400230 IEM_DS3505
ZGKL,2008-06-28 00:00,ZGKL 280000Z AUTO 36002KT 4SM 25/21 A2965 RMK 60000 70000 SLP041 T02490210 52011 IEM_DS3505
ZGKL,2008-06-28 01:00,ZGKL 280100Z AUTO 00000KT 3SM 26/24 A2965 RMK T02600240 IEM_DS3505
ZGKL,2008-06-28 02:00,ZGKL 280200Z AUTO 00000KT 3SM 27/23 A2965 RMK T02700230 IEM_DS3505
ZGKL,2008-06-28 03:00,ZGKL 280300Z AUTO 02004KT 4SM 28/20 A2965 RMK SLP040 T02830198 57001 IEM_DS3505
ZGKL,2008-06-28 04:00,ZGKL 280400Z AUTO 00000KT 4SM 29/24 A2965 RMK T02900240 IEM_DS3505
ZGKL,2008-06-28 05:00,ZGKL 280500Z AUTO 00000KT 4SM 29/24 A2965 RMK T02900240 IEM_DS3505
ZGKL,2008-06-28 06:00,ZGKL 280600Z AUTO 18006KT 6SM 29/21 A2962 RMK SLP030 T02920209 57010 IEM_DS3505
ZGKL,2008-06-28 07:00,ZGKL 280700Z AUTO 14006KT 4SM 29/23 A2962 RMK T02900230 IEM_DS3505
ZGKL,2008-06-28 08:00,ZGKL 280800Z AUTO 16008KT 6SM 28/23 A2962 RMK T02800230 IEM_DS3505
ZGKL,2008-06-28 09:00,ZGKL 280900Z AUTO 18006KT 7SM 29/22 A2959 RMK SLP020 T02900215 57010 IEM_DS3505
ZGKL,2008-06-28 10:00,ZGKL 281000Z AUTO 18008KT 5SM 28/23 A2959 RMK T02800230 IEM_DS3505
ZGKL,2008-06-28 11:00,ZGKL 281100Z AUTO 13006KT 5SM 27/23 A2962 RMK T02700230 IEM_DS3505
ZGKL,2008-06-28 12:00,ZGKL 281200Z AUTO 18006KT 7SM 26/21 A2962 RMK SLP032 T02640209 52011 IEM_DS3505
ZGKL,2008-06-28 13:00,ZGKL 281300Z AUTO 00000KT 4SM 25/24 A2965 RMK T02500240 IEM_DS3505
ZGKL,2008-06-28 14:00,ZGKL 281400Z AUTO 3SM 25/23 A2968 RMK T02500230 IEM_DS3505
ZGKL,2008-06-28 15:00,ZGKL 281500Z AUTO 18004KT 6SM 25/20 A2968 RMK SLP046 T02480201 52014 IEM_DS3505
ZGKL,2008-06-28 16:00,ZGKL 281600Z AUTO 00000KT 2 1/2SM 24/23 A2965 RMK T02400230 IEM_DS3505
ZGKL,2008-06-28 17:00,ZGKL 281700Z AUTO 00000KT 4SM 23/23 A2965 RMK T02300230 IEM_DS3505
ZGKL,2008-06-28 18:00,ZGKL 281800Z AUTO 16002KT 6SM 24/20 A2965 RMK SLP041 T02400197 57005 IEM_DS3505
ZGKL,2008-06-28 19:00,ZGKL 281900Z AUTO 00000KT 1 1/2SM 22/22 A2965 RMK T02200220 IEM_DS3505
ZGKL,2008-06-28 20:00,ZGKL 282000Z AUTO 00000KT 1SM 22/22 A2965 RMK T02200220 IEM_DS3505
ZGKL,2008-06-28 21:00,ZGKL 282100Z AUTO 07002KT 6SM 24/20 A2965 RMK SLP039 T02350202 57002 IEM_DS3505
ZGKL,2008-06-28 22:00,ZGKL 282200Z AUTO 00000KT 1 1/4SM 22/22 A2965 RMK T02200220 IEM_DS3505
ZGKL,2008-06-28 23:00,ZGKL 282300Z AUTO 00000KT 1 1/4SM 22/22 A2968 RMK T02200220 IEM_DS3505
ZGKL,2008-06-29 00:00,ZGKL 290000Z AUTO 07002KT 4SM 24/21 A2968 RMK SLP050 T02430210 52010 IEM_DS3505
ZGKL,2008-06-29 01:00,ZGKL 290100Z AUTO 00000KT 4SM 26/23 A2968 RMK T02600230 IEM_DS3505
ZGKL,2008-06-29 02:00,ZGKL 290200Z AUTO 6SM 27/23 A2968 RMK T02700230 IEM_DS3505
ZGKL,2008-06-29 03:00,ZGKL 290300Z AUTO 16004KT 5SM 28/20 A2968 RMK SLP045 T02840199 57004 IEM_DS3505
ZGKL,2008-06-29 04:00,ZGKL 290400Z AUTO 5SM 30/24 A2965 RMK T03000240 IEM_DS3505
ZGKL,2008-06-29 05:00,ZGKL 290500Z AUTO 5SM 31/24 A2965 RMK T03100240 IEM_DS3505
ZGKL,2008-06-29 06:00,ZGKL 290600Z AUTO 14004KT 5SM 32/18 A2962 RMK SLP027 T03200179 57016 IEM_DS3505
ZGKL,2008-06-29 07:00,ZGKL 290700Z AUTO 18004KT 7SM 32/21 A2962 RMK T03200210 IEM_DS3505
ZGKL,2008-06-29 08:00,ZGKL 290800Z AUTO 6SM 32/20 A2959 RMK T03200200 IEM_DS3505
ZGKL,2008-06-29 09:00,ZGKL 290900Z AUTO 14006KT 9SM 32/17 A2959 RMK SLP015 T03220173 57012 IEM_DS3505
ZGKL,2008-06-29 10:00,ZGKL 291000Z AUTO 6SM 31/19 A2959 RMK T03100190 IEM_DS3505
ZGKL,2008-06-29 11:00,ZGKL 291100Z AUTO 13004KT 6SM 29/22 A2959 RMK T02900220 IEM_DS3505
ZGKL,2008-06-29 12:00,ZGKL 291200Z AUTO 18006KT 9SM 29/21 A2962 RMK SLP028 T02900207 52012 IEM_DS3505
ZGKL,2008-06-29 13:00,ZGKL 291300Z AUTO 00000KT 6SM 26/23 A2965 RMK T02600230 IEM_DS3505
ZGKL,2008-06-29 14:00,ZGKL 291400Z AUTO 00000KT 6SM 26/24 A2968 RMK T02600240 IEM_DS3505
ZGKL,2008-06-29 15:00,ZGKL 291500Z AUTO 18004KT 8SM 27/22 A2968 RMK SLP050 T02700215 52022 IEM_DS3505
ZGKL,2008-06-29 16:00,ZGKL 291600Z AUTO 00000KT 5SM 24/23 A2968 RMK T02400230 IEM_DS3505
ZGKL,2008-06-29 17:00,ZGKL 291700Z AUTO 00000KT 5SM 24/23 A2968 RMK T02400230 IEM_DS3505
ZGKL,2008-06-29 18:00,ZGKL 291800Z AUTO 18002KT 8SM 26/22 A2968 RMK SLP043 T02650215 57006 IEM_DS3505
ZGKL,2008-06-29 19:00,ZGKL 291900Z AUTO 00000KT 4SM 23/23 A2968 RMK T02300230 IEM_DS3505
ZGKL,2008-06-29 20:00,ZGKL 292000Z AUTO 00000KT 3SM 23/23 A2968 RMK T02300230 IEM_DS3505
ZGKL,2008-06-29 21:00,ZGKL 292100Z AUTO 18002KT 7SM 25/22 A2968 RMK 70008 SLP048 T02540221 52005 IEM_DS3505
ZGKL,2008-06-29 22:00,ZGKL 292200Z AUTO 00000KT 4SM 23/23 A2968 RMK T02300230 IEM_DS3505
ZGKL,2008-06-29 23:00,ZGKL 292300Z AUTO 00000KT 4SM 24/23 A2971 RMK T02400230 IEM_DS3505
ZGKL,2008-06-30 00:00,ZGKL 300000Z AUTO 18004KT 7SM 26/22 A2974 RMK 60008 70008 SLP060 T02610224 52011 IEM_DS3505
ZGKL,2008-06-30 01:00,ZGKL 300100Z AUTO 17010KT 4SM 28/24 A2974 RMK T02800240 IEM_DS3505
ZGKL,2008-06-30 02:00,ZGKL 300200Z AUTO 17008KT 4SM 29/24 A2974 RMK T02900240 IEM_DS3505
ZGKL,2008-06-30 03:00,ZGKL 300300Z AUTO 14004KT 7SM 29/21 A2971 RMK SLP059 T02940211 57001 IEM_DS3505
ZGKL,2008-06-30 04:00,ZGKL 300400Z AUTO 18014KT 7SM 31/23 A2971 RMK T03100230 IEM_DS3505
ZGKL,2008-06-30 05:00,ZGKL 300500Z AUTO 17010KT 7SM 31/23 A2968 RMK T03100230 IEM_DS3505
ZGKL,2008-06-30 06:00,ZGKL 300600Z AUTO 16008KT 8SM 31/20 A2968 RMK 60000 SLP047 T03120199 57011 IEM_DS3505
ZGKL,2008-06-30 07:00,ZGKL 300700Z AUTO 17010KT 7SM 32/23 A2965 RMK T03200230 IEM_DS3505
ZGKL,2008-06-30 08:00,ZGKL 300800Z AUTO 18010KT 7SM 33/24 A2965 RMK T03300240 IEM_DS3505
ZGKL,2008-06-30 09:00,ZGKL 300900Z AUTO 18004KT 9SM 32/20 A2962 RMK SLP032 T03210204 57015 IEM_DS3505
ZGKL,2008-06-30 10:00,ZGKL 301000Z AUTO 13008KT 6SM 31/24 A2965 RMK T03100240 IEM_DS3505
ZGKL,2008-06-30 11:00,ZGKL 301100Z AUTO 13006KT 7SM 30/25 A2968 RMK T03000250 IEM_DS3505
ZGKL,2008-06-30 12:00,ZGKL 301200Z AUTO 18004KT 9SM 30/20 A2968 RMK SLP050 T03050204 52017 IEM_DS3505
ZGKL,2008-06-30 13:00,ZGKL 301300Z AUTO 16016KT 7SM 24/24 A2974 RMK T02400240 IEM_DS3505
ZGKL,2008-06-30 14:00,ZGKL 301400Z AUTO 14010KT 7SM 24/24 A2974 RMK T02400240 IEM_DS3505
ZGKL,2008-06-30 15:00,ZGKL 301500Z AUTO 20004KT 9SM 26/23 A2974 RMK SLP072 T02630226 52022 IEM_DS3505
ZGKL,2008-06-30 16:00,ZGKL 301600Z AUTO 00000KT 7SM 24/24 A2977 RMK T02400240 IEM_DS3505
ZGKL,2008-06-30 18:00,ZGKL 301800Z AUTO 16004KT 9SM 26/22 A2974 RMK 60002 SLP067 T02610220 57005 IEM_DS3505
ZGKL,2008-06-30 19:00,ZGKL 301900Z AUTO 08004KT 6SM 25/24 A2974 RMK T02500240 IEM_DS3505
ZGKL,2008-06-30 20:00,ZGKL 302000Z AUTO 15004KT 5SM 24/24 A2974 RMK T02400240 IEM_DS3505
ZGKL,2008-06-30 21:00,ZGKL 302100Z AUTO 18002KT 9SM 26/22 A2974 RMK 70002 SLP066 T02590222 57001 IEM_DS3505
ZGKL,2008-06-30 22:00,ZGKL 302200Z AUTO 12004KT 7SM 24/24 A2974 RMK T02400240 IEM_DS3505
ZGKL,2008-06-30 23:00,ZGKL 302300Z AUTO 7SM 24/24 A2977 RMK T02400240 IEM_DS3505
ZGKL,2008-07-01 00:00,ZGKL 010000Z AUTO 18004KT 7SM 25/23 A2980 RMK 60002 70003 SLP088 T02530230 52021 IEM_DS3505
ZGKL,2008-07-01 01:00,ZGKL 010100Z AUTO 11004KT 7SM 26/24 A2980 RMK T02600240 IEM_DS3505
ZGKL,2008-07-01 02:00,ZGKL 010200Z AUTO 15008KT 7SM 28/25 A2983 RMK T02800250 IEM_DS3505
ZGKL,2008-07-01 03:00,ZGKL 010300Z AUTO 16008KT 9SM 28/24 A2980 RMK SLP093 T02800240 52005 IEM_DS3505
ZGKL,2008-07-01 04:00,ZGKL 010400Z AUTO 17012KT 7SM 31/25 A2977 RMK T03100250 IEM_DS3505
ZGKL,2008-07-01 05:00,ZGKL 010500Z AUTO 18014KT 7SM 32/26 A2977 RMK T03200260 IEM_DS3505
ZGKL,2008-07-01 06:00,ZGKL 010600Z AUTO 18006KT 14SM 29/25 A2974 RMK 60016 SLP071 T02920250 57021 IEM_DS3505
ZGKL,2008-07-01 07:00,ZGKL 010700Z AUTO 20014KT 7SM 32/25 A2971 RMK T03200250 IEM_DS3505
ZGKL,2008-07-01 08:00,ZGKL 010800Z AUTO 23010KT 7SM 28/24 A2971 RMK T02800240 IEM_DS3505
ZGKL,2008-07-01 09:00,ZGKL 010900Z AUTO 34002KT 5SM 26/24 A2971 RMK SLP055 T02600240 57017 IEM_DS3505
ZGKL,2008-07-01 10:00,ZGKL 011000Z AUTO 18004KT 7SM 30/25 A2968 RMK T03000250 IEM_DS3505
ZGKL,2008-07-01 11:00,ZGKL 011100Z AUTO 24006KT 7SM 27/25 A2974 RMK T02700250 IEM_DS3505
ZGKL,2008-07-01 12:00,ZGKL 011200Z AUTO 09002KT 8SM 26/25 A2974 RMK 60071 SLP066 T02630249 52010 IEM_DS3505
ZGKL,2008-07-01 13:00,ZGKL 011300Z AUTO 17006KT 7SM 27/24 A2974 RMK T02700240 IEM_DS3505
ZGKL,2008-07-01 14:00,ZGKL 011400Z AUTO 10004KT 7SM 26/24 A2977 RMK T02600240 IEM_DS3505
ZGKL,2008-07-01 15:00,ZGKL 011500Z AUTO 14004KT 7SM 25/24 A2977 RMK SLP083 T02540238 52018 IEM_DS3505
ZGKL,2008-07-01 16:00,ZGKL 011600Z AUTO 00000KT 7SM 26/25 A2977 RMK T02600250 IEM_DS3505
ZGKL,2008-07-01 17:00,ZGKL 011700Z AUTO 00000KT 3SM 25/25 A2977 RMK T02500250 IEM_DS3505
ZGKL,2008-07-01 18:00,ZGKL 011800Z AUTO 20004KT 7SM 26/24 A2977 RMK 60020 SLP074 T02610240 57009 IEM_DS3505
ZGKL,2008-07-01 19:00,ZGKL 011900Z AUTO 00000KT 3SM 24/24 A2974 RMK T02400240 IEM_DS3505
ZGKL,2008-07-01 20:00,ZGKL 012000Z AUTO 00000KT 6SM 25/25 A2974 RMK T02500250 IEM_DS3505
ZGKL,2008-07-01 21:00,ZGKL 012100Z AUTO 18004KT 7SM 26/23 A2974 RMK 70105 SLP069 T02620233 57005 IEM_DS3505
ZGKL,2008-07-01 22:00,ZGKL 012200Z AUTO 16004KT 7SM 25/24 A2974 RMK T02500240 IEM_DS3505
ZGKL,2008-07-01 23:00,ZGKL 012300Z AUTO 15004KT 7SM 25/24 A2977 RMK T02500240 IEM_DS3505
ZGKL,2008-07-02 00:00,ZGKL 020000Z AUTO 20004KT 9SM 27/22 A2977 RMK 70104 SLP083 T02660224 52014 IEM_DS3505
ZGKL,2008-07-02 01:00,ZGKL 020100Z AUTO 15004KT 7SM 26/25 A2980 RMK T02600250 IEM_DS3505
ZGKL,2008-07-02 02:00,ZGKL 020200Z AUTO 7SM 26/25 A2980 RMK T02600250 IEM_DS3505
ZGKL,2008-07-02 03:00,ZGKL 020300Z AUTO 20006KT 9SM 28/23 A2980 RMK SLP089 T02840233 52006 IEM_DS3505
ZGKL,2008-07-02 04:00,ZGKL 020400Z AUTO 7SM 29/25 A2980 RMK T02900250 IEM_DS3505
ZGKL,2008-07-02 05:00,ZGKL 020500Z AUTO 7SM 31/25 A2977 RMK T03100250 IEM_DS3505
ZGKL,2008-07-02 06:00,ZGKL 020600Z AUTO 18008KT 8SM 29/23 A2974 RMK 60000 SLP071 T02940231 57017 IEM_DS3505
ZGKL,2008-07-02 07:00,ZGKL 020700Z AUTO 20012KT 7SM 33/23 A2971 RMK T03300230 IEM_DS3505
ZGKL,2008-07-02 08:00,ZGKL 020800Z AUTO 19010KT 7SM 32/24 A2971 RMK T03200240 IEM_DS3505
ZGKL,2008-07-02 09:00,ZGKL 020900Z AUTO 18006KT 16SM 32/22 A2968 RMK SLP050 T03220220 57020 IEM_DS3505
ZGKL,2008-07-02 10:00,ZGKL 021000Z AUTO 20008KT 6SM 31/24 A2968 RMK T03100240 IEM_DS3505
ZGKL,2008-07-02 11:00,ZGKL 021100Z AUTO 19004KT 6SM 30/25 A2971 RMK T03000250 IEM_DS3505
ZGKL,2008-07-02 12:00,ZGKL 021200Z AUTO 18002KT 14SM 30/22 A2971 RMK 60000 SLP060 T03020224 52009 IEM_DS3505
ZGKL,2008-07-02 13:00,ZGKL 021300Z AUTO 00000KT 7SM 27/25 A2974 RMK T02700250 IEM_DS3505
ZGKL,2008-07-02 14:00,ZGKL 021400Z AUTO 15006KT 7SM 27/24 A2977 RMK T02700240 IEM_DS3505
ZGKL,2008-07-02 15:00,ZGKL 021500Z AUTO 18002KT 12SM 28/23 A2977 RMK SLP080 T02770231 52020 IEM_DS3505
ZGKL,2008-07-02 16:00,ZGKL 021600Z AUTO 20004KT 6SM 26/24 A2977 RMK T02600240 IEM_DS3505
ZGKL,2008-07-02 17:00,ZGKL 021700Z AUTO 17006KT 7SM 25/24 A2977 RMK T02500240 IEM_DS3505
ZGKL,2008-07-02 18:00,ZGKL 021800Z AUTO 09002KT 11SM 27/24 A2977 RMK SLP075 T02720245 57005 IEM_DS3505
ZGKL,2008-07-02 19:00,ZGKL 021900Z AUTO 19004KT 7SM 25/24 A2977 RMK T02500240 IEM_DS3505
ZGKL,2008-07-02 20:00,ZGKL 022000Z AUTO 19006KT 7SM 25/24 A2977 RMK T02500240 IEM_DS3505
ZGKL,2008-07-02 21:00,ZGKL 022100Z AUTO 20006KT 9SM 28/22 A2977 RMK 70000 SLP076 T02760225 52002 IEM_DS3505
ZGKL,2008-07-02 22:00,ZGKL 022200Z AUTO 18008KT 7SM 26/24 A2977 RMK T02600240 IEM_DS3505
ZGKL,2008-07-02 23:00,ZGKL 022300Z AUTO 17010KT 7SM 26/24 A2980 RMK T02600240 IEM_DS3505
ZGKL,2008-07-03 00:00,ZGKL 030000Z AUTO 18006KT 11SM 28/22 A2983 RMK 70000 SLP093 T02820220 52016 IEM_DS3505
ZGKL,2008-07-03 01:00,ZGKL 030100Z AUTO 17010KT 7SM 28/24 A2983 RMK T02800240 IEM_DS3505
ZGKL,2008-07-03 02:00,ZGKL 030200Z AUTO 17008KT 7SM 28/23 A2983 RMK T02800230 IEM_DS3505
ZGKL,2008-07-03 03:00,ZGKL 030300Z AUTO 18006KT 12SM 30/22 A2983 RMK SLP099 T02980220 52006 IEM_DS3505
ZGKL,2008-07-03 04:00,ZGKL 030400Z AUTO 19012KT 7SM 31/24 A2983 RMK T03100240 IEM_DS3505
ZGKL,2008-07-03 05:00,ZGKL 030500Z AUTO 19012KT 7SM 32/23 A2980 RMK T03200230 IEM_DS3505
ZGKL,2008-07-03 06:00,ZGKL 030600Z AUTO 18008KT 12SM 31/22 A2977 RMK SLP078 T03100223 57021 IEM_DS3505
ZGKL,2008-07-03 07:00,ZGKL 030700Z AUTO 15010KT 7SM 30/24 A2977 RMK T03000240 IEM_DS3505
ZGKL,2008-07-03 08:00,ZGKL 030800Z AUTO 18012KT 7SM 29/25 A2974 RMK T02900250 IEM_DS3505
ZGKL,2008-07-03 09:00,ZGKL 030900Z AUTO 16002KT 11SM 28/24 A2971 RMK SLP061 T02840244 57017 IEM_DS3505
ZGKL,2008-07-03 10:00,ZGKL 031000Z AUTO 16010KT 6SM 30/24 A2971 RMK T03000240 IEM_DS3505
ZGKL,2008-07-03 11:00,ZGKL 031100Z AUTO 12004KT 6SM 29/25 A2971 RMK T02900250 IEM_DS3505
ZGKL,2008-07-03 12:00,ZGKL 031200Z AUTO 00000KT 11SM 29/24 A2974 RMK 60003 SLP065 T02870243 52004 IEM_DS3505
ZGKL,2008-07-03 13:00,ZGKL 031300Z AUTO 00000KT 7SM 27/26 A2974 RMK T02700260 IEM_DS3505
ZGKL,2008-07-03 14:00,ZGKL 031400Z AUTO 6SM 26/25 A2977 RMK T02600250 IEM_DS3505
ZGKL,2008-07-03 15:00,ZGKL 031500Z AUTO 00000KT 10SM 27/26 A2977 RMK SLP079 T02730255 52014 IEM_DS3505
ZGKL,2008-07-03 16:00,ZGKL 031600Z AUTO 28004KT 6SM 26/25 A2977 RMK T02600250 IEM_DS3505
ZGKL,2008-07-03 17:00,ZGKL 031700Z AUTO 22004KT 4SM 26/24 A2977 RMK T02600240 IEM_DS3505
ZGKL,2008-07-03 18:00,ZGKL 031800Z AUTO 18004KT 9SM 28/23 A2977 RMK 60012 SLP072 T02750231 57007 IEM_DS3505
ZGKL,2008-07-03 19:00,ZGKL 031900Z AUTO 19008KT 7SM 25/24 A2977 RMK T02500240 IEM_DS3505
ZGKL,2008-07-03 20:00,ZGKL 032000Z AUTO 20008KT 7SM 26/24 A2977 RMK T02600240 IEM_DS3505
ZGKL,2008-07-03 21:00,ZGKL 032100Z AUTO 22004KT 9SM 27/23 A2977 RMK 70013 SLP075 T02700230 52002 IEM_DS3505
ZGKL,2008-07-03 22:00,ZGKL 032200Z AUTO 19008KT 7SM 25/24 A2977 RMK T02500240 IEM_DS3505
ZGKL,2008-07-03 23:00,ZGKL 032300Z AUTO 18008KT 7SM 26/24 A2977 RMK T02600240 IEM_DS3505
ZGKL,2008-07-04 00:00,ZGKL 040000Z AUTO 18004KT 8SM 28/23 A2977 RMK 70013 SLP083 T02760228 52009 IEM_DS3505
ZGKL,2008-07-04 01:00,ZGKL 040100Z AUTO 17012KT 7SM 28/24 A2980 RMK T02800240 IEM_DS3505
ZGKL,2008-07-04 02:00,ZGKL 040200Z AUTO 15012KT 7SM 28/24 A2980 RMK T02800240 IEM_DS3505
ZGKL,2008-07-04 03:00,ZGKL 040300Z AUTO 20008KT 9SM 28/22 A2980 RMK SLP085 T02840224 52001 IEM_DS3505
ZGKL,2008-07-04 04:00,ZGKL 040400Z AUTO 17012KT 7SM 29/24 A2977 RMK T02900240 IEM_DS3505
ZGKL,2008-07-04 05:00,ZGKL 040500Z AUTO 20012KT 7SM 30/24 A2974 RMK T03000240 IEM_DS3505
ZGKL,2008-07-04 06:00,ZGKL 040600Z AUTO 18004KT 9SM 30/23 A2974 RMK SLP064 T03030232 57020 IEM_DS3505
ZGKL,2008-07-04 07:00,ZGKL 040700Z AUTO 18010KT 7SM 31/24 A2971 RMK T03100240 IEM_DS3505
ZGKL,2008-07-04 08:00,ZGKL 040800Z AUTO 18014KT 7SM 32/24 A2968 RMK T03200240 IEM_DS3505
ZGKL,2008-07-04 09:00,ZGKL 040900Z AUTO 14006KT 12SM 31/23 A2968 RMK SLP044 T03130231 57019 IEM_DS3505
ZGKL,2008-07-04 10:00,ZGKL 041000Z AUTO 20006KT 7SM 32/24 A2965 RMK T03200240 IEM_DS3505
ZGKL,2008-07-04 11:00,ZGKL 041100Z AUTO 17004KT 7SM 30/25 A2968 RMK T03000250 IEM_DS3505
ZGKL,2008-07-04 12:00,ZGKL 041200Z AUTO 18002KT 16SM 30/23 A2968 RMK SLP041 T03040231 57003 IEM_DS3505
ZGKL,2008-07-04 13:00,ZGKL 041300Z AUTO 00000KT 7SM 28/25 A2968 RMK T02800250 IEM_DS3505
ZGKL,2008-07-04 14:00,ZGKL 041400Z AUTO 18008KT 7SM 28/24 A2971 RMK T02800240 IEM_DS3505
ZGKL,2008-07-04 15:00,ZGKL 041500Z AUTO 22004KT 14SM 30/22 A2971 RMK SLP056 T02960223 52015 IEM_DS3505
ZGKL,2008-07-04 16:00,ZGKL 041600Z AUTO 18008KT 6SM 27/24 A2971 RMK T02700240 IEM_DS3505
ZGKL,2008-07-04 17:00,ZGKL 041700Z AUTO 17012KT 7SM 27/24 A2971 RMK T02700240 IEM_DS3505
ZGKL,2008-07-04 18:00,ZGKL 041800Z AUTO 18004KT 12SM 29/23 A2971 RMK SLP052 T02870227 57004 IEM_DS3505
ZGKL,2008-07-04 19:00,ZGKL 041900Z AUTO 16012KT 7SM 27/24 A2968 RMK T02700240 IEM_DS3505
ZGKL,2008-07-04 20:00,ZGKL 042000Z AUTO 16012KT 7SM 26/24 A2968 RMK T02600240 IEM_DS3505
ZGKL,2008-07-04 21:00,ZGKL 042100Z AUTO 20006KT 9SM 28/22 A2968 RMK SLP049 T02810221 57003 IEM_DS3505
ZGKL,2008-07-04 22:00,ZGKL 042200Z AUTO 17014KT 7SM 26/24 A2968 RMK T02600240 IEM_DS3505
ZGKL,2008-07-04 23:00,ZGKL 042300Z AUTO 17012KT 7SM 27/24 A2971 RMK T02700240 IEM_DS3505
ZGKL,2008-07-05 00:00,ZGKL 050000Z AUTO 18008KT 9SM 28/22 A2971 RMK SLP057 T02800222 52008 IEM_DS3505
ZGKL,2008-07-05 01:00,ZGKL 050100Z AUTO 18014KT 7SM 28/24 A2971 RMK T02800240 IEM_DS3505
ZGKL,2008-07-05 02:00,ZGKL 050200Z AUTO 18014KT 7SM 28/24 A2971 RMK T02800240 IEM_DS3505
ZGKL,2008-07-05 03:00,ZGKL 050300Z AUTO 20006KT 10SM 30/22 A2971 RMK SLP057 T02950225 54000 IEM_DS3505
ZGKL,2008-07-05 04:00,ZGKL 050400Z AUTO 18014KT 7SM 30/24 A2971 RMK T03000240 IEM_DS3505
ZGKL,2008-07-05 05:00,ZGKL 050500Z AUTO 18012KT 7SM 30/24 A2968 RMK T03000240 IEM_DS3505
ZGKL,2008-07-05 06:00,ZGKL 050600Z AUTO 22004KT 9SM 31/22 A2968 RMK SLP044 T03070223 57013 IEM_DS3505
ZGKL,2008-07-05 07:00,ZGKL 050700Z AUTO 20008KT 7SM 30/24 A2965 RMK T03000240 IEM_DS3505
ZGKL,2008-07-05 08:00,ZGKL 050800Z AUTO 19006KT 7SM 30/24 A2965 RMK T03000240 IEM_DS3505
ZGKL,2008-07-05 09:00,ZGKL 050900Z AUTO 25004KT 11SM 30/22 A2965 RMK SLP031 T03010225 57013 IEM_DS3505
ZGKL,2008-07-05 10:00,ZGKL 051000Z AUTO 20006KT 7SM 29/24 A2965 RMK T02900240 IEM_DS3505
ZGKL,2008-07-05 11:00,ZGKL 051100Z AUTO 19006KT 7SM 28/25 A2965 RMK T02800250 IEM_DS3505
ZGKL,2008-07-05 12:00,ZGKL 051200Z AUTO 09002KT 9SM 28/24 A2965 RMK SLP039 T02840238 52007 IEM_DS3505
ZGKL,2008-07-05 13:00,ZGKL 051300Z AUTO 00000KT 7SM 27/25 A2968 RMK T02700250 IEM_DS3505
ZGKL,2008-07-05 14:00,ZGKL 051400Z AUTO 00000KT 4SM 26/25 A2968 RMK T02600250 IEM_DS3505
ZGKL,2008-07-05 15:00,ZGKL 051500Z AUTO 00000KT 9SM 28/24 A2971 RMK SLP054 T02760238 52015 IEM_DS3505
ZGKL,2008-07-05 16:00,ZGKL 051600Z AUTO 00000KT 4SM 26/25 A2968 RMK T02600250 IEM_DS3505
ZGKL,2008-07-05 17:00,ZGKL 051700Z AUTO 00000KT 2 1/2SM 26/25 A2968 RMK T02600250 IEM_DS3505
ZGKL,2008-07-05 18:00,ZGKL 051800Z AUTO 09002KT 9SM 26/24 A2965 RMK SLP036 T02650243 57017 IEM_DS3505
ZGKL,2008-07-05 19:00,ZGKL 051900Z AUTO 3SM 25/25 A2965 RMK T02500250 IEM_DS3505
ZGKL,2008-07-05 20:00,ZGKL 052000Z AUTO 00000KT 3SM 25/25 A2962 RMK T02500250 IEM_DS3505
ZGKL,2008-07-05 21:00,ZGKL 052100Z AUTO 14002KT 7SM 26/24 A2965 RMK SLP033 T02620242 57003 IEM_DS3505
ZGKL,2008-07-05 22:00,ZGKL 052200Z AUTO 5SM 25/25 A2965 RMK T02500250 IEM_DS3505
ZGKL,2008-07-05 23:00,ZGKL 052300Z AUTO 5SM 26/24 A2968 RMK T02600240 IEM_DS3505
ZGKL,2008-07-06 00:00,ZGKL 060000Z AUTO 32002KT 10SM 27/24 A2968 RMK SLP048 T02710240 52014 IEM_DS3505
ZGKL,2008-07-06 01:00,ZGKL 060100Z AUTO 00000KT 7SM 27/24 A2968 RMK T02700240 IEM_DS3505
ZGKL,2008-07-06 02:00,ZGKL 060200Z AUTO 18006KT 7SM 28/24 A2971 RMK T02800240 IEM_DS3505
ZGKL,2008-07-06 03:00,ZGKL 060300Z AUTO 16004KT 10SM 29/23 A2971 RMK SLP052 T02920227 52004 IEM_DS3505
ZGKL,2008-07-06 04:00,ZGKL 060400Z AUTO 7SM 30/24 A2968 RMK T03000240 IEM_DS3505
ZGKL,2008-07-06 05:00,ZGKL 060500Z AUTO 7SM 30/24 A2968 RMK T03000240 IEM_DS3505
ZGKL,2008-07-06 06:00,ZGKL 060600Z AUTO 29004KT 11SM 30/23 A2965 RMK SLP038 T03020226 57013 IEM_DS3505
ZGKL,2008-07-06 07:00,ZGKL 060700Z AUTO 20006KT 7SM 31/22 A2965 RMK T03100220 IEM_DS3505
ZGKL,2008-07-06 08:00,ZGKL 060800Z AUTO 20004KT 7SM 30/21 A2962 RMK T03000210 IEM_DS3505
ZGKL,2008-07-06 09:00,ZGKL 060900Z AUTO 27004KT 11SM 30/23 A2959 RMK SLP020 T03020226 57018 IEM_DS3505
ZGKL,2008-07-06 10:00,ZGKL 061000Z AUTO 00000KT 6SM 29/23 A2959 RMK T02900230 IEM_DS3505
ZGKL,2008-07-06 11:00,ZGKL 061100Z AUTO 00000KT 6SM 28/24 A2962 RMK T02800240 IEM_DS3505
ZGKL,2008-07-06 12:00,ZGKL 061200Z AUTO 00000KT 9SM 28/22 A2962 RMK SLP031 T02850225 52010 IEM_DS3505
ZGKL,2008-07-06 13:00,ZGKL 061300Z AUTO 00000KT 6SM 26/25 A2965 RMK T02600250 IEM_DS3505
ZGKL,2008-07-06 14:00,ZGKL 061400Z AUTO 00000KT 6SM 26/24 A2965 RMK T02600240 IEM_DS3505
ZGKL,2008-07-06 15:00,ZGKL 061500Z AUTO 07002KT 9SM 28/23 A2968 RMK SLP040 T02780234 52010 IEM_DS3505
ZGKL,2008-07-06 16:00,ZGKL 061600Z AUTO 00000KT 5SM 25/24 A2965 RMK T02500240 IEM_DS3505
ZGKL,2008-07-06 17:00,ZGKL 061700Z AUTO 00000KT 4SM 25/24 A2965 RMK T02500240 IEM_DS3505
ZGKL,2008-07-06 18:00,ZGKL 061800Z AUTO 00000KT 8SM 25/24 A2962 RMK 60004 SLP034 T02510239 57007 IEM_DS3505
ZGKL,2008-07-06 19:00,ZGKL 061900Z AUTO 4SM 25/24 A2962 RMK T02500240 IEM_DS3505
ZGKL,2008-07-06 20:00,ZGKL 062000Z AUTO 05006KT 4SM 24/23 A2962 RMK T02400230 IEM_DS3505
ZGKL,2008-07-06 21:00,ZGKL 062100Z AUTO 02004KT 8SM 25/24 A2962 RMK 70006 SLP026 T02480239 57008 IEM_DS3505
ZGKL,2008-07-06 22:00,ZGKL 062200Z AUTO 00000KT 3SM 24/23 A2962 RMK T02400230 IEM_DS3505
ZGKL,2008-07-06 23:00,ZGKL 062300Z AUTO 00000KT 2SM 24/24 A2962 RMK T02400240 IEM_DS3505
ZGKL,2008-07-07 00:00,ZGKL 070000Z AUTO 36002KT 9SM 26/23 A2965 RMK 70006 SLP036 T02550234 52010 IEM_DS3505
ZGKL,2008-07-07 01:00,ZGKL 070100Z AUTO 30004KT 2 1/2SM 26/24 A2965 RMK T02600240 IEM_DS3505
ZGKL,2008-07-07 02:00,ZGKL 070200Z AUTO 31004KT 2 1/2SM 27/25 A2965 RMK T02700250 IEM_DS3505
ZGKL,2008-07-07 03:00,ZGKL 070300Z AUTO 07002KT 7SM 29/22 A2965 RMK SLP035 T02930225 54000 IEM_DS3505
ZGKL,2008-07-07 04:00,ZGKL 070400Z AUTO 31004KT 4SM 28/24 A2965 RMK T02800240 IEM_DS3505
ZGKL,2008-07-07 05:00,ZGKL 070500Z AUTO 33006KT 7SM 29/24 A2962 RMK T02900240 IEM_DS3505
ZGKL,2008-07-07 06:00,ZGKL 070600Z AUTO 07004KT 10SM 31/23 A2959 RMK SLP016 T03100231 57019 IEM_DS3505
ZGKL,2008-07-07 07:00,ZGKL 070700Z AUTO 7SM 31/24 A2959 RMK T03100240 IEM_DS3505
ZGKL,2008-07-07 08:00,ZGKL 070800Z AUTO 7SM 31/23 A2956 RMK T03100230 IEM_DS3505
ZGKL,2008-07-07 09:00,ZGKL 070900Z AUTO 07004KT 9SM 30/24 A2956 RMK SLP004 T02980235 57012 IEM_DS3505
ZGKL,2008-07-07 10:00,ZGKL 071000Z AUTO 00000KT 7SM 30/23 A2956 RMK T03000230 IEM_DS3505
ZGKL,2008-07-07 11:00,ZGKL 071100Z AUTO 09006KT 7SM 28/24 A2956 RMK T02800240 IEM_DS3505
ZGKL,2008-07-07 12:00,ZGKL 071200Z AUTO 34002KT 10SM 26/24 A2959 RMK 60012 SLP026 T02610245 52020 IEM_DS3505
ZGKL,2008-07-07 13:00,ZGKL 071300Z AUTO 00000KT 7SM 26/24 A2962 RMK T02600240 IEM_DS3505
ZGKL,2008-07-07 14:00,ZGKL 071400Z AUTO 00000KT 6SM 26/24 A2965 RMK T02600240 IEM_DS3505
ZGKL,2008-07-07 15:00,ZGKL 071500Z AUTO 02004KT 7SM 25/24 A2965 RMK SLP038 T02480238 52013 IEM_DS3505
ZGKL,2008-07-07 16:00,ZGKL 071600Z AUTO 00000KT 6SM 26/24 A2965 RMK T02600240 IEM_DS3505
ZGKL,2008-07-07 17:00,ZGKL 071700Z AUTO 00000KT 6SM 25/24 A2965 RMK T02500240 IEM_DS3505
ZGKL,2008-07-07 18:00,ZGKL 071800Z AUTO 36004KT 9SM 25/23 A2962 RMK 60012 SLP034 T02490231 57004 IEM_DS3505
ZGKL,2008-07-07 19:00,ZGKL 071900Z AUTO 00000KT 4SM 25/24 A2962 RMK T02500240 IEM_DS3505
ZGKL,2008-07-07 20:00,ZGKL 072000Z AUTO 00000KT 4SM 25/24 A2962 RMK T02500240 IEM_DS3505
ZGKL,2008-07-07 21:00,ZGKL 072100Z AUTO 07002KT 8SM 25/23 A2962 RMK 70026 SLP032 T02480234 57002 IEM_DS3505
ZGKL,2008-07-07 22:00,ZGKL 072200Z AUTO 00000KT 6SM 24/24 A2962 RMK T02400240 IEM_DS3505
ZGKL,2008-07-07 23:00,ZGKL 072300Z AUTO 00000KT 7SM 24/24 A2965 RMK T02400240 IEM_DS3505
ZGKL,2008-07-08 00:00,ZGKL 080000Z AUTO 29002KT 8SM 26/23 A2965 RMK 70026 SLP043 T02590234 52010 IEM_DS3505
ZGKL,2008-07-08 01:00,ZGKL 080100Z AUTO 00000KT 7SM 26/24 A2968 RMK T02600240 IEM_DS3505
ZGKL,2008-07-08 02:00,ZGKL 080200Z AUTO 00000KT 7SM 27/24 A2968 RMK T02700240 IEM_DS3505
ZGKL,2008-07-08 03:00,ZGKL 080300Z AUTO 36002KT 8SM 29/23 A2968 RMK SLP048 T02860233 52005 IEM_DS3505
ZGKL,2008-07-08 04:00,ZGKL 080400Z AUTO 7SM 30/23 A2968 RMK T03000230 IEM_DS3505
ZGKL,2008-07-08 05:00,ZGKL 080500Z AUTO 15006KT 7SM 30/24 A2965 RMK T03000240 IEM_DS3505
ZGKL,2008-07-08 06:00,ZGKL 080600Z AUTO 14006KT 10SM 31/23 A2962 RMK SLP030 T03060233 57017 IEM_DS3505
ZGKL,2008-07-08 07:00,ZGKL 080700Z AUTO 28006KT 7SM 32/25 A2962 RMK T03200250 IEM_DS3505
ZGKL,2008-07-08 08:00,ZGKL 080800Z AUTO 34010KT 7SM 30/24 A2962 RMK T03000240 IEM_DS3505
ZGKL,2008-07-08 09:00,ZGKL 080900Z AUTO 27008KT 9SM 28/23 A2962 RMK SLP028 T02750231 57003 IEM_DS3505
ZGKL,2008-07-08 10:00,ZGKL 081000Z AUTO 6SM 26/25 A2965 RMK T02600250 IEM_DS3505
ZGKL,2008-07-08 11:00,ZGKL 081100Z AUTO 00000KT 7SM 26/25 A2965 RMK T02600250 IEM_DS3505
ZGKL,2008-07-08 12:00,ZGKL 081200Z AUTO 09002KT 6SM 25/24 A2968 RMK 60059 SLP050 T02500236 52022 IEM_DS3505
ZGKL,2008-07-08 13:00,ZGKL 081300Z AUTO 33004KT 4SM 25/24 A2971 RMK T02500240 IEM_DS3505
ZGKL,2008-07-08 14:00,ZGKL 081400Z AUTO 7SM 25/24 A2971 RMK T02500240 IEM_DS3505
ZGKL,2008-07-08 15:00,ZGKL 081500Z AUTO 02002KT 6SM 25/24 A2974 RMK SLP065 T02500243 52015 IEM_DS3505
ZGKL,2008-07-08 16:00,ZGKL 081600Z AUTO 7SM 25/24 A2974 RMK T02500240 IEM_DS3505
ZGKL,2008-07-08 17:00,ZGKL 081700Z AUTO 7SM 25/24 A2974 RMK T02500240 IEM_DS3505
ZGKL,2008-07-08 18:00,ZGKL 081800Z AUTO 18002KT 6SM 25/24 A2971 RMK 60004 SLP060 T02480236 57004 IEM_DS3505
ZGKL,2008-07-08 19:00,ZGKL 081900Z AUTO 4SM 24/24 A2971 RMK T02400240 IEM_DS3505
ZGKL,2008-07-08 20:00,ZGKL 082000Z AUTO 03004KT 4SM 24/24 A2971 RMK T02400240 IEM_DS3505
ZGKL,2008-07-08 21:00,ZGKL 082100Z AUTO 04004KT 6SM 24/24 A2974 RMK 70063 SLP063 T02450240 52002 IEM_DS3505
ZGKL,2008-07-08 22:00,ZGKL 082200Z AUTO 00000KT 3SM 24/24 A2974 RMK T02400240 IEM_DS3505
ZGKL,2008-07-08 23:00,ZGKL 082300Z AUTO 00000KT 3SM 24/24 A2974 RMK T02400240 IEM_DS3505
ZGKL,2008-07-09 00:00,ZGKL 090000Z AUTO 07002KT 6SM 25/24 A2977 RMK 70063 SLP077 T02510241 52013 IEM_DS3505
ZGKL,2008-07-09 01:00,ZGKL 090100Z AUTO 3SM 25/24 A2977 RMK T02500240 IEM_DS3505
ZGKL,2008-07-09 02:00,ZGKL 090200Z AUTO 2 1/2SM 25/24 A2977 RMK T02500240 IEM_DS3505
ZGKL,2008-07-09 03:00,ZGKL 090300Z AUTO 22002KT 5SM 24/24 A2977 RMK SLP086 T02420237 52008 IEM_DS3505
ZGKL,2008-07-09 04:00,ZGKL 090400Z AUTO 7SM 27/24 A2977 RMK T02700240 IEM_DS3505
ZGKL,2008-07-09 05:00,ZGKL 090500Z AUTO 31004KT 7SM 29/24 A2974 RMK T02900240 IEM_DS3505
ZGKL,2008-07-09 06:00,ZGKL 090600Z AUTO 34006KT 5SM 28/24 A2971 RMK 60067 SLP064 T02820240 57020 IEM_DS3505
ZGKL,2008-07-09 07:00,ZGKL 090700Z AUTO 3SM 26/25 A2971 RMK T02600250 IEM_DS3505
ZGKL,2008-07-09 08:00,ZGKL 090800Z AUTO 29004KT 7SM 24/24 A2971 RMK T02400240 IEM_DS3505
ZGKL,2008-07-09 09:00,ZGKL 090900Z AUTO 20002KT 11SM 27/24 A2971 RMK SLP055 T02720237 57009 IEM_DS3505
ZGKL,2008-07-09 10:00,ZGKL 091000Z AUTO 00000KT 7SM 27/24 A2968 RMK T02700240 IEM_DS3505
ZGKL,2008-07-09 11:00,ZGKL 091100Z AUTO 33004KT 7SM 25/24 A2971 RMK T02500240 IEM_DS3505
ZGKL,2008-07-09 12:00,ZGKL 091200Z AUTO 09002KT 10SM 25/24 A2971 RMK 60016 SLP062 T02520240 52006 IEM_DS3505
ZGKL,2008-07-09 13:00,ZGKL 091300Z AUTO 33002KT 7SM 25/24 A2974 RMK T02500240 IEM_DS3505
ZGKL,2008-07-09 14:00,ZGKL 091400Z AUTO 00000KT 7SM 24/24 A2974 RMK T02400240 IEM_DS3505
ZGKL,2008-07-09 15:00,ZGKL 091500Z AUTO 16002KT 10SM 25/24 A2974 RMK SLP075 T02470242 52012 IEM_DS3505
ZGKL,2008-07-09 16:00,ZGKL 091600Z AUTO 00000KT 7SM 25/24 A2974 RMK T02500240 IEM_DS3505
ZGKL,2008-07-09 17:00,ZGKL 091700Z AUTO 31002KT 4SM 24/24 A2974 RMK T02400240 IEM_DS3505
ZGKL,2008-07-09 18:00,ZGKL 091800Z AUTO 09002KT 9SM 25/24 A2971 RMK 60002 SLP061 T02460244 57012 IEM_DS3505
ZGKL,2008-07-09 19:00,ZGKL 091900Z AUTO 4SM 24/24 A2971 RMK T02400240 IEM_DS3505
ZGKL,2008-07-09 20:00,ZGKL 092000Z AUTO 2 1/2SM 24/24 A2971 RMK T02400240 IEM_DS3505
ZGKL,2008-07-09 21:00,ZGKL 092100Z AUTO 00000KT 7SM 24/24 A2971 RMK 70085 SLP060 T02450243 57001 IEM_DS3505
ZGKL,2008-07-09 22:00,ZGKL 092200Z AUTO 29002KT 3SM 24/24 A2971 RMK T02400240 IEM_DS3505
ZGKL,2008-07-09 23:00,ZGKL 092300Z AUTO 00000KT 3SM 24/24 A2971 RMK T02400240 IEM_DS3505
ZGKL,2008-07-10 00:00,ZGKL 100000Z AUTO 16004KT 6SM 25/24 A2974 RMK 60004 70085 SLP064 T02490237 52003 IEM_DS3505
ZGKL,2008-07-10 01:00,ZGKL 100100Z AUTO 15004KT 2 1/2SM 25/24 A2974 RMK T02500240 IEM_DS3505
ZGKL,2008-07-10 02:00,ZGKL 100200Z AUTO 12004KT 2 1/2SM 25/25 A2974 RMK T02500250 IEM_DS3505
ZGKL,2008-07-10 03:00,ZGKL 100300Z AUTO 18004KT 7SM 26/24 A2974 RMK SLP068 T02650238 52004 IEM_DS3505
ZGKL,2008-07-10 04:00,ZGKL 100400Z AUTO 16004KT 4SM 27/25 A2971 RMK T02700250 IEM_DS3505
ZGKL,2008-07-10 05:00,ZGKL 100500Z AUTO 7SM 29/25 A2971 RMK T02900250 IEM_DS3505
ZGKL,2008-07-10 06:00,ZGKL 100600Z AUTO 14004KT 7SM 29/24 A2968 RMK SLP048 T02870238 57019 IEM_DS3505
ZGKL,2008-07-10 07:00,ZGKL 100700Z AUTO 7SM 31/25 A2965 RMK T03100250 IEM_DS3505
ZGKL,2008-07-10 08:00,ZGKL 100800Z AUTO 7SM 31/26 A2962 RMK T03100260 IEM_DS3505
ZGKL,2008-07-10 09:00,ZGKL 100900Z AUTO 14004KT 11SM 31/24 A2959 RMK SLP019 T03100236 57027 IEM_DS3505
ZGKL,2008-07-10 10:00,ZGKL 101000Z AUTO 15004KT 7SM 31/26 A2959 RMK T03100260 IEM_DS3505
ZGKL,2008-07-10 11:00,ZGKL 101100Z AUTO 00000KT 7SM 29/26 A2959 RMK T02900260 IEM_DS3505
ZGKL,2008-07-10 12:00,ZGKL 101200Z AUTO 20002KT 11SM 30/24 A2962 RMK SLP023 T02950239 52003 IEM_DS3505
ZGKL,2008-07-10 13:00,ZGKL 101300Z AUTO 00000KT 4SM 27/26 A2962 RMK T02700260 IEM_DS3505
ZGKL,2008-07-10 14:00,ZGKL 101400Z AUTO 00000KT 4SM 27/26 A2965 RMK T02700260 IEM_DS3505
ZGKL,2008-07-10 15:00,ZGKL 101500Z AUTO 11002KT 10SM 27/26 A2968 RMK SLP045 T02740258 52022 IEM_DS3505
ZGKL,2008-07-10 16:00,ZGKL 101600Z AUTO 00000KT 2 1/2SM 26/25 A2965 RMK T02600250 IEM_DS3505
ZGKL,2008-07-10 17:00,ZGKL 101700Z AUTO 00000KT 2SM 25/25 A2965 RMK T02500250 IEM_DS3505
ZGKL,2008-07-10 18:00,ZGKL 101800Z AUTO 00000KT 9SM 27/25 A2962 RMK SLP029 T02690253 57016 IEM_DS3505
ZGKL,2008-07-10 19:00,ZGKL 101900Z AUTO 00000KT 2 1/2SM 25/25 A2962 RMK T02500250 IEM_DS3505
ZGKL,2008-07-10 20:00,ZGKL 102000Z AUTO 00000KT 2 1/2SM 25/25 A2962 RMK T02500250 IEM_DS3505
ZGKL,2008-07-10 21:00,ZGKL 102100Z AUTO 11002KT 9SM 26/25 A2962 RMK 70000 SLP026 T02620250 57002 IEM_DS3505
ZGKL,2008-07-10 22:00,ZGKL 102200Z AUTO 00000KT 4SM 25/25 A2962 RMK T02500250 IEM_DS3505
ZGKL,2008-07-10 23:00,ZGKL 102300Z AUTO 00000KT 4SM 26/25 A2962 RMK T02600250 IEM_DS3505
ZGKL,2008-07-11 00:00,ZGKL 110000Z AUTO 18004KT 7SM 27/25 A2965 RMK SLP036 T02700246 52010 IEM_DS3505
ZGKL,2008-07-11 01:00,ZGKL 110100Z AUTO 00000KT 5SM 27/25 A2965 RMK T02700250 IEM_DS3505
ZGKL,2008-07-11 02:00,ZGKL 110200Z AUTO 00000KT 4SM 27/25 A2965 RMK T02700250 IEM_DS3505
ZGKL,2008-07-11 03:00,ZGKL 110300Z AUTO 32004KT 7SM 27/25 A2965 RMK SLP038 T02720248 52001 IEM_DS3505
ZGKL,2008-07-11 04:00,ZGKL 110400Z AUTO 02010KT 6SM 25/23 A2965 RMK T02500230 IEM_DS3505
ZGKL,2008-07-11 05:00,ZGKL 110500Z AUTO 34010KT 7SM 26/24 A2962 RMK T02600240 IEM_DS3505
ZGKL,2008-07-11 06:00,ZGKL 110600Z AUTO 04004KT 7SM 26/24 A2962 RMK 60035 SLP024 T02650240 57014 IEM_DS3505
ZGKL,2008-07-11 07:00,ZGKL 110700Z AUTO 7SM 26/24 A2959 RMK T02600240 IEM_DS3505
ZGKL,2008-07-11 08:00,ZGKL 110800Z AUTO 00000KT 7SM 26/24 A2956 RMK T02600240 IEM_DS3505
ZGKL,2008-07-11 09:00,ZGKL 110900Z AUTO 20004KT 6SM 28/24 A2956 RMK SLP010 T02750241 57014 IEM_DS3505
ZGKL,2008-07-11 10:00,ZGKL 111000Z AUTO 00000KT 6SM 27/24 A2959 RMK T02700240 IEM_DS3505
ZGKL,2008-07-11 11:00,ZGKL 111100Z AUTO 00000KT 6SM 26/24 A2959 RMK T02600240 IEM_DS3505
ZGKL,2008-07-11 12:00,ZGKL 111200Z AUTO 29002KT 7SM 26/24 A2959 RMK SLP021 T02620239 52011 IEM_DS3505
ZGKL,2008-07-11 13:00,ZGKL 111300Z AUTO 00000KT 6SM 25/24 A2962 RMK T02500240 IEM_DS3505
ZGKL,2008-07-11 14:00,ZGKL 111400Z AUTO 00000KT 4SM 24/24 A2962 RMK T02400240 IEM_DS3505
ZGKL,2008-07-11 15:00,ZGKL 111500Z AUTO 00000KT 7SM 26/25 A2965 RMK SLP035 T02560247 52013 IEM_DS3505
ZGKL,2008-07-11 16:00,ZGKL 111600Z AUTO 00000KT 4SM 24/23 A2965 RMK T02400230 IEM_DS3505
ZGKL,2008-07-11 17:00,ZGKL 111700Z AUTO 00000KT 4SM 23/23 A2962 RMK T02300230 IEM_DS3505
ZGKL,2008-07-11 18:00,ZGKL 111800Z AUTO 02002KT 7SM 25/24 A2962 RMK SLP026 T02490240 57009 IEM_DS3505
ZGKL,2008-07-11 19:00,ZGKL 111900Z AUTO 00000KT 2 1/2SM 23/23 A2959 RMK T02300230 IEM_DS3505
ZGKL,2008-07-11 20:00,ZGKL 112000Z AUTO 00000KT 4SM 23/23 A2959 RMK T02300230 IEM_DS3505
ZGKL,2008-07-11 21:00,ZGKL 112100Z AUTO 22002KT 7SM 24/24 A2959 RMK 70034 SLP022 T02450240 57004 IEM_DS3505
ZGKL,2008-07-11 22:00,ZGKL 112200Z AUTO 00000KT 4SM 23/23 A2959 RMK T02300230 IEM_DS3505
ZGKL,2008-07-11 23:00,ZGKL 112300Z AUTO 00000KT 4SM 23/23 A2962 RMK T02300230 IEM_DS3505
ZGKL,2008-07-12 00:00,ZGKL 120000Z AUTO 02002KT 4SM 25/24 A2962 RMK 70034 SLP028 T02520240 52006 IEM_DS3505
ZGKL,2008-07-12 01:00,ZGKL 120100Z AUTO 00000KT 7SM 24/24 A2965 RMK T02400240 IEM_DS3505
ZGKL,2008-07-12 02:00,ZGKL 120200Z AUTO 00000KT 7SM 25/24 A2965 RMK T02500240 IEM_DS3505
ZGKL,2008-07-12 03:00,ZGKL 120300Z AUTO 32002KT 4SM 28/24 A2965 RMK SLP031 T02840240 52004 IEM_DS3505
ZGKL,2008-07-12 04:00,ZGKL 120400Z AUTO 7SM 29/25 A2962 RMK T02900250 IEM_DS3505
ZGKL,2008-07-12 05:00,ZGKL 120500Z AUTO 7SM 29/25 A2962 RMK T02900250 IEM_DS3505
ZGKL,2008-07-12 06:00,ZGKL 120600Z AUTO 18004KT 3SM 27/25 A2959 RMK 60008 SLP018 T02710249 57014 IEM_DS3505
ZGKL,2008-07-12 07:00,ZGKL 120700Z AUTO 10004KT 7SM 29/26 A2956 RMK T02900260 IEM_DS3505
ZGKL,2008-07-12 08:00,ZGKL 120800Z AUTO 05004KT 7SM 30/25 A2956 RMK T03000250 IEM_DS3505
ZGKL,2008-07-12 09:00,ZGKL 120900Z AUTO 09002KT 10SM 31/23 A2953 RMK SLP997 T03060228 57019 IEM_DS3505
ZGKL,2008-07-12 10:00,ZGKL 121000Z AUTO 00000KT 7SM 30/25 A2953 RMK T03000250 IEM_DS3505
ZGKL,2008-07-12 11:00,ZGKL 121100Z AUTO 7SM 30/25 A2953 RMK T03000250 IEM_DS3505
ZGKL,2008-07-12 12:00,ZGKL 121200Z AUTO 29002KT 8SM 24/24 A2959 RMK 60075 SLP014 T02420237 52015 IEM_DS3505
ZGKL,2008-07-12 13:00,ZGKL 121300Z AUTO 7SM 24/24 A2962 RMK T02400240 IEM_DS3505
ZGKL,2008-07-12 14:00,ZGKL 121400Z AUTO 04004KT 7SM 24/24 A2965 RMK T02400240 IEM_DS3505
ZGKL,2008-07-12 15:00,ZGKL 121500Z AUTO 36002KT 9SM 25/24 A2965 RMK SLP042 T02470240 52028 IEM_DS3505
ZGKL,2008-07-12 16:00,ZGKL 121600Z AUTO 7SM 24/24 A2965 RMK T02400240 IEM_DS3505
ZGKL,2008-07-12 17:00,ZGKL 121700Z AUTO 7SM 24/24 A2962 RMK T02400240 IEM_DS3505
ZGKL,2008-07-12 18:00,ZGKL 121800Z AUTO 09002KT 7SM 24/24 A2962 RMK 60008 SLP028 T02430238 57014 IEM_DS3505
ZGKL,2008-07-12 19:00,ZGKL 121900Z AUTO 00000KT 4SM 24/24 A2962 RMK T02400240 IEM_DS3505
ZGKL,2008-07-12 20:00,ZGKL 122000Z AUTO 4SM 24/24 A2962 RMK T02400240 IEM_DS3505
ZGKL,2008-07-12 21:00,ZGKL 122100Z AUTO 07002KT 7SM 24/24 A2962 RMK 70092 SLP029 T02440241 52002 IEM_DS3505
ZGKL,2008-07-12 22:00,ZGKL 122200Z AUTO 34004KT 7SM 24/24 A2962 RMK T02400240 IEM_DS3505
ZGKL,2008-07-12 23:00,ZGKL 122300Z AUTO 33002KT 7SM 24/24 A2965 RMK T02400240 IEM_DS3505
ZGKL,2008-07-13 00:00,ZGKL 130000Z AUTO 00000KT 7SM 26/24 A2965 RMK 60002 70092 SLP038 T02550241 52007 IEM_DS3505
ZGKL,2008-07-13 01:00,ZGKL 130100Z AUTO 7SM 27/25 A2968 RMK T02700250 IEM_DS3505
ZGKL,2008-07-13 02:00,ZGKL 130200Z AUTO 27004KT 7SM 27/25 A2968 RMK T02700250 IEM_DS3505
ZGKL,2008-07-13 03:00,ZGKL 130300Z AUTO 22004KT 6SM 27/24 A2968 RMK SLP042 T02710242 52005 IEM_DS3505
ZGKL,2008-07-13 04:00,ZGKL 130400Z AUTO 06006KT 7SM 28/25 A2965 RMK T02800250 IEM_DS3505
ZGKL,2008-07-13 05:00,ZGKL 130500Z AUTO 7SM 28/24 A2965 RMK T02800240 IEM_DS3505
ZGKL,2008-07-13 06:00,ZGKL 130600Z AUTO 25004KT 7SM 29/25 A2962 RMK SLP028 T02930246 57013 IEM_DS3505
ZGKL,2008-07-13 07:00,ZGKL 130700Z AUTO 7SM 26/25 A2962 RMK T02600250 IEM_DS3505
ZGKL,2008-07-13 08:00,ZGKL 130800Z AUTO 00000KT 7SM 29/25 A2959 RMK T02900250 IEM_DS3505
ZGKL,2008-07-13 09:00,ZGKL 130900Z AUTO 02002KT 8SM 26/24 A2959 RMK SLP015 T02650245 57014 IEM_DS3505
ZGKL,2008-07-13 10:00,ZGKL 131000Z AUTO 00000KT 7SM 27/25 A2959 RMK T02700250 IEM_DS3505
ZGKL,2008-07-13 11:00,ZGKL 131100Z AUTO 00000KT 7SM 27/25 A2962 RMK T02700250 IEM_DS3505
ZGKL,2008-07-13 12:00,ZGKL 131200Z AUTO 02002KT 7SM 26/25 A2962 RMK 60003 SLP034 T02650251 52019 IEM_DS3505
ZGKL,2008-07-13 13:00,ZGKL 131300Z AUTO 00000KT 7SM 26/25 A2965 RMK T02600250 IEM_DS3505
ZGKL,2008-07-13 14:00,ZGKL 131400Z AUTO 00000KT 7SM 26/25 A2968 RMK T02600250 IEM_DS3505
ZGKL,2008-07-13 15:00,ZGKL 131500Z AUTO 09002KT 7SM 26/24 A2968 RMK SLP051 T02570245 52017 IEM_DS3505
ZGKL,2008-07-13 16:00,ZGKL 131600Z AUTO 00000KT 7SM 25/25 A2971 RMK T02500250 IEM_DS3505
ZGKL,2008-07-13 17:00,ZGKL 131700Z AUTO 00000KT 7SM 25/25 A2968 RMK T02500250 IEM_DS3505
ZGKL,2008-07-13 18:00,ZGKL 131800Z AUTO 14002KT 7SM 26/25 A2968 RMK SLP047 T02550250 57003 IEM_DS3505
ZGKL,2008-07-13 19:00,ZGKL 131900Z AUTO 00000KT 1SM 24/24 A2968 RMK T02400240 IEM_DS3505
ZGKL,2008-07-13 20:00,ZGKL 132000Z AUTO 00000KT 4SM 24/24 A2968 RMK T02400240 IEM_DS3505
ZGKL,2008-07-13 21:00,ZGKL 132100Z AUTO 00000KT 7SM 25/24 A2968 RMK 70003 SLP044 T02480243 57004 IEM_DS3505
ZGKL,2008-07-13 22:00,ZGKL 132200Z AUTO 00000KT 3SM 24/24 A2968 RMK T02400240 IEM_DS3505
ZGKL,2008-07-13 23:00,ZGKL 132300Z AUTO 00000KT 2 1/2SM 25/24 A2968 RMK T02500240 IEM_DS3505
ZGKL,2008-07-14 00:00,ZGKL 140000Z AUTO 18002KT 6SM 26/25 A2971 RMK 60002 70005 SLP056 T02590254 52012 IEM_DS3505
ZGKL,2008-07-14 01:00,ZGKL 140100Z AUTO 00000KT 5SM 27/25 A2971 RMK T02700250 IEM_DS3505
ZGKL,2008-07-14 02:00,ZGKL 140200Z AUTO 10004KT 7SM 28/25 A2971 RMK T02800250 IEM_DS3505
ZGKL,2008-07-14 03:00,ZGKL 140300Z AUTO 16002KT 9SM 29/24 A2971 RMK SLP056 T02920239 52001 IEM_DS3505
ZGKL,2008-07-14 04:00,ZGKL 140400Z AUTO 03008KT 7SM 27/25 A2971 RMK T02700250 IEM_DS3505
ZGKL,2008-07-14 05:00,ZGKL 140500Z AUTO 03006KT 7SM 29/26 A2968 RMK T02900260 IEM_DS3505
ZGKL,2008-07-14 06:00,ZGKL 140600Z AUTO 29004KT 11SM 30/24 A2968 RMK 60004 SLP039 T03010235 57017 IEM_DS3505
ZGKL,2008-07-14 07:00,ZGKL 140700Z AUTO 00000KT 7SM 27/25 A2965 RMK T02700250 IEM_DS3505
ZGKL,2008-07-14 08:00,ZGKL 140800Z AUTO 00000KT 7SM 28/26 A2962 RMK T02800260 IEM_DS3505
ZGKL,2008-07-14 09:00,ZGKL 140900Z AUTO 36004KT 12SM 30/24 A2962 RMK SLP023 T03000244 57016 IEM_DS3505
ZGKL,2008-07-14 10:00,ZGKL 141000Z AUTO 00000KT 7SM 29/25 A2959 RMK T02900250 IEM_DS3505
ZGKL,2008-07-14 11:00,ZGKL 141100Z AUTO 00000KT 6SM 29/26 A2962 RMK T02900260 IEM_DS3505
ZGKL,2008-07-14 12:00,ZGKL 141200Z AUTO 07002KT 9SM 28/25 A2965 RMK 60004 SLP032 T02850249 52009 IEM_DS3505
ZGKL,2008-07-14 13:00,ZGKL 141300Z AUTO 00000KT 6SM 27/26 A2965 RMK T02700260 IEM_DS3505
ZGKL,2008-07-14 14:00,ZGKL 141400Z AUTO 00000KT 4SM 26/25 A2968 RMK T02600250 IEM_DS3505
ZGKL,2008-07-14 15:00,ZGKL 141500Z AUTO 29002KT 8SM 27/26 A2968 RMK SLP046 T02700258 52014 IEM_DS3505
ZGKL,2008-07-14 16:00,ZGKL 141600Z AUTO 00000KT 4SM 25/25 A2968 RMK T02500250 IEM_DS3505
ZGKL,2008-07-14 17:00,ZGKL 141700Z AUTO 00000KT 2 1/2SM 25/25 A2968 RMK T02500250 IEM_DS3505
ZGKL,2008-07-14 18:00,ZGKL 141800Z AUTO 20004KT 7SM 27/24 A2965 RMK SLP037 T02680239 57008 IEM_DS3505
ZGKL,2008-07-14 19:00,ZGKL 141900Z AUTO 00000KT 2 1/2SM 25/25 A2965 RMK T02500250 IEM_DS3505
ZGKL,2008-07-14 20:00,ZGKL 142000Z AUTO 00000KT 2 1/2SM 25/25 A2965 RMK T02500250 IEM_DS3505
ZGKL,2008-07-14 21:00,ZGKL 142100Z AUTO 20002KT 7SM 26/24 A2965 RMK 70010 SLP037 T02620239 57001 IEM_DS3505
ZGKL,2008-07-14 22:00,ZGKL 142200Z AUTO 00000KT 2SM 25/24 A2965 RMK T02500240 IEM_DS3505
ZGKL,2008-07-14 23:00,ZGKL 142300Z AUTO 00000KT 2SM 25/25 A2968 RMK T02500250 IEM_DS3505
ZGKL,2008-07-15 00:00,ZGKL 150000Z AUTO 02002KT 8SM 26/24 A2968 RMK 60000 70008 SLP043 T02630245 52006 IEM_DS3505
ZGKL,2008-07-15 01:00,ZGKL 150100Z AUTO 00000KT 4SM 26/25 A2968 RMK T02600250 IEM_DS3505
ZGKL,2008-07-15 02:00,ZGKL 150200Z AUTO 00000KT 7SM 29/25 A2968 RMK T02900250 IEM_DS3505
ZGKL,2008-07-15 03:00,ZGKL 150300Z AUTO 14004KT 9SM 30/23 A2965 RMK SLP039 T03050229 57003 IEM_DS3505
ZGKL,2008-07-15 04:00,ZGKL 150400Z AUTO 7SM 31/25 A2965 RMK T03100250 IEM_DS3505
ZGKL,2008-07-15 05:00,ZGKL 150500Z AUTO 7SM 31/25 A2962 RMK T03100250 IEM_DS3505
ZGKL,2008-07-15 06:00,ZGKL 150600Z AUTO 34002KT 10SM 32/22 A2959 RMK 60000 SLP014 T03230221 57024 IEM_DS3505
ZGKL,2008-07-15 07:00,ZGKL 150700Z AUTO 15004KT 7SM 33/24 A2956 RMK T03300240 IEM_DS3505
ZGKL,2008-07-15 08:00,ZGKL 150800Z AUTO 7SM 33/25 A2953 RMK T03300250 IEM_DS3505
ZGKL,2008-07-15 09:00,ZGKL 150900Z AUTO 09002KT 10SM 33/23 A2953 RMK SLP991 T03320229 57023 IEM_DS3505
ZGKL,2008-07-15 10:00,ZGKL 151000Z AUTO 7SM 32/24 A2953 RMK T03200240 IEM_DS3505
ZGKL,2008-07-15 11:00,ZGKL 151100Z AUTO 19002KT 7SM 31/26 A2953 RMK T03100260 IEM_DS3505
ZGKL,2008-07-15 12:00,ZGKL 151200Z AUTO 29002KT 11SM 31/24 A2956 RMK SLP007 T03120243 52015 IEM_DS3505
ZGKL,2008-07-15 13:00,ZGKL 151300Z AUTO 00000KT 5SM 28/27 A2959 RMK T02800270 IEM_DS3505
ZGKL,2008-07-15 14:00,ZGKL 151400Z AUTO 00000KT 5SM 28/26 A2959 RMK T02800260 IEM_DS3505
ZGKL,2008-07-15 15:00,ZGKL 151500Z AUTO 16004KT 11SM 29/24 A2962 RMK SLP021 T02880241 52015 IEM_DS3505
ZGKL,2008-07-15 16:00,ZGKL 151600Z AUTO 00000KT 5SM 27/25 A2962 RMK T02700250 IEM_DS3505
ZGKL,2008-07-15 17:00,ZGKL 151700Z AUTO 14006KT 5SM 27/25 A2962 RMK T02700250 IEM_DS3505
ZGKL,2008-07-15 18:00,ZGKL 151800Z AUTO 04002KT 8SM 27/24 A2959 RMK 60012 SLP018 T02720243 57003 IEM_DS3505
ZGKL,2008-07-15 19:00,ZGKL 151900Z AUTO 00000KT 5SM 26/25 A2959 RMK T02600250 IEM_DS3505
ZGKL,2008-07-15 20:00,ZGKL 152000Z AUTO 00000KT 5SM 26/25 A2959 RMK T02600250 IEM_DS3505
ZGKL,2008-07-15 21:00,ZGKL 152100Z AUTO 18004KT 8SM 27/23 A2959 RMK 70012 SLP018 T02670230 54000 IEM_DS3505
ZGKL,2008-07-15 22:00,ZGKL 152200Z AUTO 00000KT 5SM 26/25 A2959 RMK T02600250 IEM_DS3505
ZGKL,2008-07-15 23:00,ZGKL 152300Z AUTO 00000KT 5SM 26/25 A2962 RMK T02600250 IEM_DS3505
ZGKL,2008-07-16 00:00,ZGKL 160000Z AUTO 00000KT 9SM 26/24 A2962 RMK 70012 SLP028 T02650240 52009 IEM_DS3505
ZGKL,2008-07-16 01:00,ZGKL 160100Z AUTO 00000KT 7SM 27/25 A2962 RMK T02700250 IEM_DS3505
ZGKL,2008-07-16 02:00,ZGKL 160200Z AUTO 7SM 30/25 A2962 RMK T03000250 IEM_DS3505
ZGKL,2008-07-16 03:00,ZGKL 160300Z AUTO 18004KT 11SM 31/22 A2962 RMK SLP028 T03080224 52001 IEM_DS3505
ZGKL,2008-07-16 04:00,ZGKL 160400Z AUTO 7SM 31/26 A2962 RMK T03100260 IEM_DS3505
ZGKL,2008-07-16 05:00,ZGKL 160500Z AUTO 7SM 32/24 A2959 RMK T03200240 IEM_DS3505
ZGKL,2008-07-16 06:00,ZGKL 160600Z AUTO 36002KT 14SM 33/22 A2956 RMK SLP005 T03320223 57023 IEM_DS3505
ZGKL,2008-07-16 07:00,ZGKL 160700Z AUTO 00000KT 7SM 33/24 A2956 RMK T03300240 IEM_DS3505
ZGKL,2008-07-16 08:00,ZGKL 160800Z AUTO 7SM 33/23 A2953 RMK T03300230 IEM_DS3505
ZGKL,2008-07-16 09:00,ZGKL 160900Z AUTO 09002KT 16SM 34/21 A2950 RMK SLP983 T03400214 57021 IEM_DS3505
ZGKL,2008-07-16 10:00,ZGKL 161000Z AUTO 15006KT 7SM 33/22 A2950 RMK T03300220 IEM_DS3505
ZGKL,2008-07-16 11:00,ZGKL 161100Z AUTO 21004KT 6SM 31/26 A2953 RMK T03100260 IEM_DS3505
ZGKL,2008-07-16 12:00,ZGKL 161200Z AUTO 14004KT 14SM 30/23 A2953 RMK SLP001 T03000234 52016 IEM_DS3505
ZGKL,2008-07-16 13:00,ZGKL 161300Z AUTO 00000KT 6SM 28/26 A2956 RMK T02800260 IEM_DS3505
ZGKL,2008-07-16 14:00,ZGKL 161400Z AUTO 00000KT 4SM 27/26 A2956 RMK T02700260 IEM_DS3505
ZGKL,2008-07-16 15:00,ZGKL 161500Z AUTO 11002KT 14SM 29/24 A2959 RMK SLP012 T02870240 52012 IEM_DS3505
ZGKL,2008-07-16 16:00,ZGKL 161600Z AUTO 00000KT 4SM 26/26 A2959 RMK T02600260 IEM_DS3505
ZGKL,2008-07-16 17:00,ZGKL 161700Z AUTO 00000KT 4SM 26/25 A2959 RMK T02600250 IEM_DS3505
ZGKL,2008-07-16 18:00,ZGKL 161800Z AUTO 18006KT 12SM 28/23 A2959 RMK SLP016 T02840231 52004 IEM_DS3505
ZGKL,2008-07-16 19:00,ZGKL 161900Z AUTO 00000KT 6SM 26/25 A2959 RMK T02600250 IEM_DS3505
ZGKL,2008-07-16 20:00,ZGKL 162000Z AUTO 00000KT 4SM 26/25 A2959 RMK T02600250 IEM_DS3505
ZGKL,2008-07-16 21:00,ZGKL 162100Z AUTO 29002KT 11SM 27/24 A2959 RMK SLP019 T02710238 52003 IEM_DS3505
ZGKL,2008-07-16 22:00,ZGKL 162200Z AUTO 00000KT 7SM 25/25 A2959 RMK T02500250 IEM_DS3505
ZGKL,2008-07-16 23:00,ZGKL 162300Z AUTO 00000KT 7SM 26/25 A2962 RMK T02600250 IEM_DS3505
ZGKL,2008-07-17 00:00,ZGKL 170000Z AUTO 07002KT 9SM 29/23 A2962 RMK SLP025 T02910233 52006 IEM_DS3505
ZGKL,2008-07-17 01:00,ZGKL 170100Z AUTO 00000KT 7SM 29/24 A2965 RMK T02900240 IEM_DS3505
ZGKL,2008-07-17 02:00,ZGKL 170200Z AUTO 7SM 30/23 A2965 RMK T03000230 IEM_DS3505
ZGKL,2008-07-17 03:00,ZGKL 170300Z AUTO 16004KT 11SM 32/23 A2965 RMK SLP035 T03160226 52010 IEM_DS3505
ZGKL,2008-07-17 04:00,ZGKL 170400Z AUTO 23004KT 7SM 31/24 A2965 RMK T03100240 IEM_DS3505
ZGKL,2008-07-17 05:00,ZGKL 170500Z AUTO 7SM 32/24 A2962 RMK T03200240 IEM_DS3505
ZGKL,2008-07-17 06:00,ZGKL 170600Z AUTO 22004KT 14SM 33/22 A2959 RMK SLP016 T03330224 57019 IEM_DS3505
ZGKL,2008-07-17 07:00,ZGKL 170700Z AUTO 7SM 33/24 A2959 RMK T03300240 IEM_DS3505
ZGKL,2008-07-17 08:00,ZGKL 170800Z AUTO 7SM 34/23 A2956 RMK T03400230 IEM_DS3505
ZGKL,2008-07-17 09:00,ZGKL 170900Z AUTO 27004KT 17SM 34/22 A2956 RMK SLP997 T03430220 57018 IEM_DS3505
ZGKL,2008-07-17 10:00,ZGKL 171000Z AUTO 23004KT 7SM 32/24 A2953 RMK T03200240 IEM_DS3505
ZGKL,2008-07-17 11:00,ZGKL 171100Z AUTO 17004KT 7SM 32/24 A2956 RMK T03200240 IEM_DS3505
ZGKL,2008-07-17 12:00,ZGKL 171200Z AUTO 22002KT 12SM 32/22 A2959 RMK SLP013 T03210225 52015 IEM_DS3505
ZGKL,2008-07-17 13:00,ZGKL 171300Z AUTO 00000KT 6SM 28/26 A2962 RMK T02800260 IEM_DS3505
ZGKL,2008-07-17 14:00,ZGKL 171400Z AUTO 00000KT 6SM 27/26 A2962 RMK T02700260 IEM_DS3505
ZGKL,2008-07-17 15:00,ZGKL 171500Z AUTO 00000KT 10SM 29/24 A2965 RMK SLP031 T02880239 52018 IEM_DS3505
ZGKL,2008-07-17 16:00,ZGKL 171600Z AUTO 00000KT 6SM 27/26 A2962 RMK T02700260 IEM_DS3505
ZGKL,2008-07-17 17:00,ZGKL 171700Z AUTO 00000KT 6SM 26/26 A2965 RMK T02600260 IEM_DS3505
ZGKL,2008-07-17 18:00,ZGKL 171800Z AUTO 07002KT 9SM 28/24 A2965 RMK SLP031 T02750244 54000 IEM_DS3505
ZGKL,2008-07-17 19:00,ZGKL 171900Z AUTO 17006KT 7SM 26/25 A2965 RMK T02600250 IEM_DS3505
ZGKL,2008-07-17 20:00,ZGKL 172000Z AUTO 17006KT 7SM 26/25 A2965 RMK T02600250 IEM_DS3505
ZGKL,2008-07-17 21:00,ZGKL 172100Z AUTO 18006KT 10SM 28/22 A2962 RMK SLP030 T02790224 57001 IEM_DS3505
ZGKL,2008-07-17 22:00,ZGKL 172200Z AUTO 17006KT 7SM 26/24 A2965 RMK T02600240 IEM_DS3505
ZGKL,2008-07-17 23:00,ZGKL 172300Z AUTO 18004KT 7SM 26/25 A2965 RMK T02600250 IEM_DS3505
ZGKL,2008-07-18 00:00,ZGKL 180000Z AUTO 18004KT 10SM 28/23 A2968 RMK SLP043 T02840231 52013 IEM_DS3505
ZGKL,2008-07-18 01:00,ZGKL 180100Z AUTO 17004KT 7SM 29/25 A2968 RMK T02900250 IEM_DS3505
ZGKL,2008-07-18 02:00,ZGKL 180200Z AUTO 16004KT 7SM 30/25 A2968 RMK T03000250 IEM_DS3505
ZGKL,2008-07-18 03:00,ZGKL 180300Z AUTO 22006KT 10SM 32/22 A2968 RMK SLP047 T03160223 52004 IEM_DS3505
ZGKL,2008-07-18 04:00,ZGKL 180400Z AUTO 17008KT 7SM 31/24 A2968 RMK T03100240 IEM_DS3505
ZGKL,2008-07-18 05:00,ZGKL 180500Z AUTO 18004KT 7SM 33/24 A2965 RMK T03300240 IEM_DS3505
ZGKL,2008-07-18 06:00,ZGKL 180600Z AUTO 22006KT 11SM 34/22 A2962 RMK SLP027 T03410219 57020 IEM_DS3505
ZGKL,2008-07-18 07:00,ZGKL 180700Z AUTO 17010KT 7SM 34/25 A2959 RMK T03400250 IEM_DS3505
ZGKL,2008-07-18 08:00,ZGKL 180800Z AUTO 18010KT 7SM 34/25 A2956 RMK T03400250 IEM_DS3505
ZGKL,2008-07-18 09:00,ZGKL 180900Z AUTO 20004KT 14SM 35/21 A2956 RMK SLP003 T03460209 57023 IEM_DS3505
ZGKL,2008-07-18 10:00,ZGKL 181000Z AUTO 18010KT 6SM 33/25 A2956 RMK T03300250 IEM_DS3505
ZGKL,2008-07-18 11:00,ZGKL 181100Z AUTO 17008KT 6SM 31/26 A2959 RMK T03100260 IEM_DS3505
ZGKL,2008-07-18 12:00,ZGKL 181200Z AUTO 22004KT 14SM 32/22 A2962 RMK SLP019 T03230224 52015 IEM_DS3505
ZGKL,2008-07-18 13:00,ZGKL 181300Z AUTO 18008KT 6SM 29/26 A2962 RMK T02900260 IEM_DS3505
ZGKL,2008-07-18 14:00,ZGKL 181400Z AUTO 00000KT 6SM 28/26 A2965 RMK T02800260 IEM_DS3505
ZGKL,2008-07-18 15:00,ZGKL 181500Z AUTO 14002KT 14SM 30/24 A2965 RMK SLP039 T02990236 52020 IEM_DS3505
ZGKL,2008-07-18 16:00,ZGKL 181600Z AUTO 00000KT 4SM 27/25 A2968 RMK T02700250 IEM_DS3505
ZGKL,2008-07-18 17:00,ZGKL 181700Z AUTO 00000KT 5SM 27/25 A2968 RMK T02700250 IEM_DS3505
ZGKL,2008-07-18 18:00,ZGKL 181800Z AUTO 20004KT 12SM 30/23 A2968 RMK SLP037 T02960231 57001 IEM_DS3505
ZGKL,2008-07-18 19:00,ZGKL 181900Z AUTO 18008KT 5SM 27/25 A2965 RMK T02700250 IEM_DS3505
ZGKL,2008-07-18 20:00,ZGKL 182000Z AUTO 18008KT 5SM 26/25 A2965 RMK T02600250 IEM_DS3505
ZGKL,2008-07-18 21:00,ZGKL 182100Z AUTO 22008KT 10SM 28/23 A2968 RMK SLP039 T02850230 52001 IEM_DS3505
ZGKL,2008-07-18 22:00,ZGKL 182200Z AUTO 17008KT 7SM 26/25 A2968 RMK T02600250 IEM_DS3505
ZGKL,2008-07-18 23:00,ZGKL 182300Z AUTO 18006KT 7SM 26/25 A2968 RMK T02600250 IEM_DS3505
ZGKL,2008-07-19 00:00,ZGKL 190000Z AUTO 22006KT 10SM 29/23 A2971 RMK SLP052 T02890229 52013 IEM_DS3505
ZGKL,2008-07-19 01:00,ZGKL 190100Z AUTO 17008KT 7SM 29/25 A2971 RMK T02900250 IEM_DS3505
ZGKL,2008-07-19 02:00,ZGKL 190200Z AUTO 17008KT 7SM 30/25 A2971 RMK T03000250 IEM_DS3505
ZGKL,2008-07-19 03:00,ZGKL 190300Z AUTO 16006KT 10SM 31/23 A2971 RMK SLP054 T03130226 52002 IEM_DS3505
ZGKL,2008-07-19 04:00,ZGKL 190400Z AUTO 19008KT 7SM 31/25 A2971 RMK T03100250 IEM_DS3505
ZGKL,2008-07-19 05:00,ZGKL 190500Z AUTO 16008KT 7SM 33/24 A2968 RMK T03300240 IEM_DS3505
ZGKL,2008-07-19 06:00,ZGKL 190600Z AUTO 22006KT 11SM 34/22 A2965 RMK SLP036 T03390220 57017 IEM_DS3505
ZGKL,2008-07-19 07:00,ZGKL 190700Z AUTO 18010KT 7SM 33/24 A2965 RMK T03300240 IEM_DS3505
ZGKL,2008-07-19 08:00,ZGKL 190800Z AUTO 18008KT 7SM 34/24 A2962 RMK T03400240 IEM_DS3505
ZGKL,2008-07-19 09:00,ZGKL 190900Z AUTO 18004KT 16SM 34/22 A2962 RMK SLP021 T03350216 57016 IEM_DS3505
ZGKL,2008-07-19 10:00,ZGKL 191000Z AUTO 20008KT 6SM 33/24 A2962 RMK T03300240 IEM_DS3505
ZGKL,2008-07-19 11:00,ZGKL 191100Z AUTO 20006KT 7SM 31/24 A2962 RMK T03100240 IEM_DS3505
ZGKL,2008-07-19 12:00,ZGKL 191200Z AUTO 20010KT 8SM 27/24 A2965 RMK 60001 SLP041 T02700239 52018 IEM_DS3505
ZGKL,2008-07-19 13:00,ZGKL 191300Z AUTO 06008KT 7SM 28/25 A2968 RMK T02800250 IEM_DS3505
ZGKL,2008-07-19 14:00,ZGKL 191400Z AUTO 01008KT 7SM 27/24 A2971 RMK T02700240 IEM_DS3505
ZGKL,2008-07-19 15:00,ZGKL 191500Z AUTO 32002KT 11SM 25/24 A2971 RMK SLP061 T02530241 52020 IEM_DS3505
ZGKL,2008-07-19 16:00,ZGKL 191600Z AUTO 7SM 26/24 A2974 RMK T02600240 IEM_DS3505
ZGKL,2008-07-19 17:00,ZGKL 191700Z AUTO 00000KT 7SM 25/24 A2974 RMK T02500240 IEM_DS3505
ZGKL,2008-07-19 18:00,ZGKL 191800Z AUTO 18002KT 10SM 26/25 A2971 RMK 60039 SLP058 T02600248 57002 IEM_DS3505
ZGKL,2008-07-19 19:00,ZGKL 191900Z AUTO 00000KT 4SM 25/24 A2971 RMK T02500240 IEM_DS3505
ZGKL,2008-07-19 20:00,ZGKL 192000Z AUTO 6SM 25/24 A2971 RMK T02500240 IEM_DS3505
ZGKL,2008-07-19 21:00,ZGKL 192100Z AUTO 20004KT 10SM 27/22 A2971 RMK 70042 SLP056 T02670219 57002 IEM_DS3505
ZGKL,2008-07-19 22:00,ZGKL 192200Z AUTO 00000KT 7SM 25/23 A2974 RMK T02500230 IEM_DS3505
ZGKL,2008-07-19 23:00,ZGKL 192300Z AUTO 17008KT 7SM 26/24 A2974 RMK T02600240 IEM_DS3505
ZGKL,2008-07-20 00:00,ZGKL 200000Z AUTO 09002KT 5SM 27/23 A2977 RMK 70042 SLP073 T02700230 52015 IEM_DS3505
ZGKL,2008-07-20 01:00,ZGKL 200100Z AUTO 19004KT 7SM 28/24 A2977 RMK T02800240 IEM_DS3505
ZGKL,2008-07-20 02:00,ZGKL 200200Z AUTO 18010KT 7SM 29/24 A2977 RMK T02900240 IEM_DS3505
ZGKL,2008-07-20 03:00,ZGKL 200300Z AUTO 18006KT 9SM 30/22 A2974 RMK SLP071 T02990224 57002 IEM_DS3505
ZGKL,2008-07-20 04:00,ZGKL 200400Z AUTO 20010KT 7SM 30/24 A2974 RMK T03000240 IEM_DS3505
ZGKL,2008-07-20 05:00,ZGKL 200500Z AUTO 20006KT 7SM 31/24 A2974 RMK T03100240 IEM_DS3505
ZGKL,2008-07-20 06:00,ZGKL 200600Z AUTO 32006KT 11SM 31/22 A2971 RMK SLP052 T03140224 57017 IEM_DS3505
ZGKL,2008-07-20 07:00,ZGKL 200700Z AUTO 19008KT 7SM 30/25 A2968 RMK T03000250 IEM_DS3505
ZGKL,2008-07-20 08:00,ZGKL 200800Z AUTO 18017KT 7SM 28/25 A2971 RMK T02800250 IEM_DS3505
ZGKL,2008-07-20 09:00,ZGKL 200900Z AUTO 18006KT 11SM 27/24 A2968 RMK SLP047 T02740236 57006 IEM_DS3505
ZGKL,2008-07-20 10:00,ZGKL 201000Z AUTO 16008KT 7SM 28/25 A2968 RMK T02800250 IEM_DS3505
ZGKL,2008-07-20 11:00,ZGKL 201100Z AUTO 12008KT 7SM 27/25 A2968 RMK T02700250 IEM_DS3505
ZGKL,2008-07-20 12:00,ZGKL 201200Z AUTO 14004KT 11SM 27/23 A2968 RMK 60004 SLP052 T02690234 52004 IEM_DS3505
ZGKL,2008-07-20 13:00,ZGKL 201300Z AUTO 7SM 26/24 A2971 RMK T02600240 IEM_DS3505
ZGKL,2008-07-20 14:00,ZGKL 201400Z AUTO 16004KT 7SM 25/24 A2971 RMK T02500240 IEM_DS3505
ZGKL,2008-07-20 15:00,ZGKL 201500Z AUTO 16004KT 11SM 27/23 A2971 RMK SLP060 T02670234 52009 IEM_DS3505
ZGKL,2008-07-20 16:00,ZGKL 201600Z AUTO 00000KT 7SM 26/24 A2971 RMK T02600240 IEM_DS3505
ZGKL,2008-07-20 17:00,ZGKL 201700Z AUTO 00000KT 7SM 25/24 A2971 RMK T02500240 IEM_DS3505
ZGKL,2008-07-20 18:00,ZGKL 201800Z AUTO 18006KT 10SM 26/23 A2971 RMK SLP055 T02650230 57004 IEM_DS3505
ZGKL,2008-07-20 19:00,ZGKL 201900Z AUTO 13004KT 7SM 26/24 A2971 RMK T02600240 IEM_DS3505
ZGKL,2008-07-20 20:00,ZGKL 202000Z AUTO 18004KT 7SM 25/24 A2971 RMK T02500240 IEM_DS3505
ZGKL,2008-07-20 21:00,ZGKL 202100Z AUTO 18006KT 10SM 26/22 A2968 RMK 70005 SLP049 T02590224 57008 IEM_DS3505
ZGKL,2008-07-20 22:00,ZGKL 202200Z AUTO 00000KT 7SM 25/24 A2968 RMK T02500240 IEM_DS3505
ZGKL,2008-07-20 23:00,ZGKL 202300Z AUTO 14006KT 7SM 25/24 A2968 RMK T02500240 IEM_DS3505
ZGKL,2008-07-21 00:00,ZGKL 210000Z AUTO 20004KT 10SM 26/22 A2971 RMK 70005 SLP056 T02650224 52007 IEM_DS3505
ZGKL,2008-07-21 01:00,ZGKL 210100Z AUTO 10004KT 7SM 26/24 A2971 RMK T02600240 IEM_DS3505
ZGKL,2008-07-21 02:00,ZGKL 210200Z AUTO 00000KT 7SM 26/24 A2971 RMK T02600240 IEM_DS3505
ZGKL,2008-07-21 03:00,ZGKL 210300Z AUTO 16006KT 11SM 29/23 A2968 RMK SLP051 T02910226 57004 IEM_DS3505
ZGKL,2008-07-21 04:00,ZGKL 210400Z AUTO 15008KT 7SM 28/24 A2968 RMK T02800240 IEM_DS3505
ZGKL,2008-07-21 05:00,ZGKL 210500Z AUTO 13006KT 7SM 28/25 A2968 RMK T02800250 IEM_DS3505
ZGKL,2008-07-21 06:00,ZGKL 210600Z AUTO 16004KT 8SM 29/24 A2965 RMK 60003 SLP035 T02870240 57016 IEM_DS3505
ZGKL,2008-07-21 07:00,ZGKL 210700Z AUTO 17008KT 7SM 30/25 A2959 RMK T03000250 IEM_DS3505
ZGKL,2008-07-21 08:00,ZGKL 210800Z AUTO 18006KT 7SM 30/25 A2959 RMK T03000250 IEM_DS3505
ZGKL,2008-07-21 09:00,ZGKL 210900Z AUTO 16004KT 17SM 32/24 A2956 RMK SLP007 T03170235 57027 IEM_DS3505
ZGKL,2008-07-21 10:00,ZGKL 211000Z AUTO 17008KT 7SM 29/26 A2956 RMK T02900260 IEM_DS3505
ZGKL,2008-07-21 11:00,ZGKL 211100Z AUTO 10006KT 7SM 28/26 A2956 RMK T02800260 IEM_DS3505
ZGKL,2008-07-21 12:00,ZGKL 211200Z AUTO 04002KT 14SM 28/25 A2959 RMK 60002 SLP014 T02810249 52006 IEM_DS3505
ZGKL,2008-07-21 13:00,ZGKL 211300Z AUTO 00000KT 7SM 27/26 A2959 RMK T02700260 IEM_DS3505
ZGKL,2008-07-21 14:00,ZGKL 211400Z AUTO 00000KT 7SM 27/26 A2959 RMK T02700260 IEM_DS3505
ZGKL,2008-07-21 15:00,ZGKL 211500Z AUTO 07002KT 10SM 27/26 A2962 RMK SLP025 T02700261 52012 IEM_DS3505
ZGKL,2008-07-21 16:00,ZGKL 211600Z AUTO 00000KT 2 1/2SM 26/26 A2962 RMK T02600260 IEM_DS3505
ZGKL,2008-07-21 17:00,ZGKL 211700Z AUTO 00000KT 2 1/2SM 26/26 A2959 RMK T02600260 IEM_DS3505
ZGKL,2008-07-21 18:00,ZGKL 211800Z AUTO 18006KT 9SM 28/24 A2959 RMK 60004 SLP013 T02750244 57012 IEM_DS3505
ZGKL,2008-07-21 19:00,ZGKL 211900Z AUTO 17008KT 7SM 27/25 A2959 RMK T02700250 IEM_DS3505
ZGKL,2008-07-21 20:00,ZGKL 212000Z AUTO 17008KT 7SM 28/23 A2956 RMK T02800230 IEM_DS3505
ZGKL,2008-07-21 21:00,ZGKL 212100Z AUTO 18004KT 9SM 28/21 A2956 RMK 70010 SLP010 T02810214 57002 IEM_DS3505
ZGKL,2008-07-21 22:00,ZGKL 212200Z AUTO 16010KT 7SM 27/23 A2959 RMK T02700230 IEM_DS3505
ZGKL,2008-07-21 23:00,ZGKL 212300Z AUTO 17012KT 7SM 26/23 A2959 RMK T02600230 IEM_DS3505
ZGKL,2008-07-22 00:00,ZGKL 220000Z AUTO 20004KT 9SM 27/23 A2959 RMK 60008 70016 SLP020 T02680226 52008 IEM_DS3505
ZGKL,2008-07-22 01:00,ZGKL 220100Z AUTO 14010KT 7SM 26/23 A2962 RMK T02600230 IEM_DS3505
ZGKL,2008-07-22 02:00,ZGKL 220200Z AUTO 16008KT 7SM 25/24 A2959 RMK T02500240 IEM_DS3505
ZGKL,2008-07-22 03:00,ZGKL 220300Z AUTO 22004KT 9SM 28/23 A2959 RMK SLP021 T02780230 52001 IEM_DS3505
ZGKL,2008-07-22 04:00,ZGKL 220400Z AUTO 17014KT 7SM 28/25 A2959 RMK T02800250 IEM_DS3505
ZGKL,2008-07-22 05:00,ZGKL 220500Z AUTO 19014KT 7SM 30/25 A2956 RMK T03000250 IEM_DS3505
ZGKL,2008-07-22 06:00,ZGKL 220600Z AUTO 18006KT 9SM 31/23 A2953 RMK 60000 SLP000 T03130229 57019 IEM_DS3505
ZGKL,2008-07-22 07:00,ZGKL 220700Z AUTO 18012KT 7SM 31/26 A2953 RMK T03100260 IEM_DS3505
ZGKL,2008-07-22 08:00,ZGKL 220800Z AUTO 19012KT 7SM 31/26 A2950 RMK T03100260 IEM_DS3505
ZGKL,2008-07-22 09:00,ZGKL 220900Z AUTO 20004KT 11SM 30/24 A2953 RMK SLP990 T03040241 57010 IEM_DS3505
ZGKL,2008-07-22 10:00,ZGKL 221000Z AUTO 22008KT 7SM 26/25 A2953 RMK T02600250 IEM_DS3505
ZGKL,2008-07-22 11:00,ZGKL 221100Z AUTO 29002KT 7SM 26/25 A2953 RMK T02600250 IEM_DS3505
ZGKL,2008-07-22 12:00,ZGKL 221200Z AUTO 34004KT 9SM 27/26 A2956 RMK 60008 SLP007 T02690255 52015 IEM_DS3505
ZGKL,2008-07-22 13:00,ZGKL 221300Z AUTO 24004KT 7SM 27/25 A2956 RMK T02700250 IEM_DS3505
ZGKL,2008-07-22 14:00,ZGKL 221400Z AUTO 16008KT 7SM 27/25 A2956 RMK T02700250 IEM_DS3505
ZGKL,2008-07-22 15:00,ZGKL 221500Z AUTO 00000KT 8SM 27/26 A2959 RMK SLP016 T02670258 52009 IEM_DS3505
ZGKL,2008-07-22 16:00,ZGKL 221600Z AUTO 17004KT 7SM 27/25 A2959 RMK T02700250 IEM_DS3505
ZGKL,2008-07-22 17:00,ZGKL 221700Z AUTO 14008KT 6SM 27/24 A2959 RMK T02700240 IEM_DS3505
ZGKL,2008-07-22 18:00,ZGKL 221800Z AUTO 29002KT 7SM 26/26 A2959 RMK SLP018 T02640261 52003 IEM_DS3505
ZGKL,2008-07-22 19:00,ZGKL 221900Z AUTO 17010KT 6SM 27/24 A2959 RMK T02700240 IEM_DS3505
ZGKL,2008-07-22 20:00,ZGKL 222000Z AUTO 17006KT 6SM 27/24 A2959 RMK T02700240 IEM_DS3505
ZGKL,2008-07-22 21:00,ZGKL 222100Z AUTO 14002KT 7SM 27/23 A2959 RMK 70012 SLP012 T02690234 57006 IEM_DS3505
ZGKL,2008-07-22 22:00,ZGKL 222200Z AUTO 00000KT 7SM 25/24 A2959 RMK T02500240 IEM_DS3505
ZGKL,2008-07-22 23:00,ZGKL 222300Z AUTO 21008KT 2SM 23/23 A2965 RMK T02300230 IEM_DS3505
ZGKL,2008-07-23 00:00,ZGKL 230000Z AUTO 29004KT 10SM 24/22 A2962 RMK 60031 70037 SLP037 T02400224 52023 IEM_DS3505
ZGKL,2008-07-23 01:00,ZGKL 230100Z AUTO 00000KT 4SM 24/23 A2962 RMK T02400230 IEM_DS3505
ZGKL,2008-07-23 02:00,ZGKL 230200Z AUTO 4SM 23/23 A2965 RMK T02300230 IEM_DS3505
ZGKL,2008-07-23 03:00,ZGKL 230300Z AUTO 25002KT 10SM 25/23 A2965 RMK SLP035 T02510230 57002 IEM_DS3505
ZGKL,2008-07-23 04:00,ZGKL 230400Z AUTO 4SM 24/24 A2962 RMK T02400240 IEM_DS3505
ZGKL,2008-07-23 05:00,ZGKL 230500Z AUTO 4SM 24/24 A2962 RMK T02400240 IEM_DS3505
ZGKL,2008-07-23 06:00,ZGKL 230600Z AUTO 34004KT 7SM 26/24 A2959 RMK 60000 SLP023 T02590239 57012 IEM_DS3505
ZGKL,2008-07-23 07:00,ZGKL 230700Z AUTO 5SM 26/25 A2959 RMK T02600250 IEM_DS3505
ZGKL,2008-07-23 08:00,ZGKL 230800Z AUTO 7SM 27/25 A2959 RMK T02700250 IEM_DS3505
ZGKL,2008-07-23 09:00,ZGKL 230900Z AUTO 32004KT 7SM 29/24 A2959 RMK SLP009 T02920243 57012 IEM_DS3505
ZGKL,2008-07-23 10:00,ZGKL 231000Z AUTO 15008KT 5SM 24/23 A2959 RMK T02400230 IEM_DS3505
ZGKL,2008-07-23 11:00,ZGKL 231100Z AUTO 6SM 24/24 A2962 RMK T02400240 IEM_DS3505
ZGKL,2008-07-23 12:00,ZGKL 231200Z AUTO 07002KT 7SM 25/24 A2962 RMK 60035 SLP035 T02460237 52023 IEM_DS3505
ZGKL,2008-07-23 13:00,ZGKL 231300Z AUTO 00000KT 4SM 24/24 A2965 RMK T02400240 IEM_DS3505
ZGKL,2008-07-23 14:00,ZGKL 231400Z AUTO 29002KT 4SM 24/24 A2968 RMK T02400240 IEM_DS3505
ZGKL,2008-07-23 15:00,ZGKL 231500Z AUTO 25002KT 7SM 25/24 A2968 RMK SLP050 T02470238 52015 IEM_DS3505
ZGKL,2008-07-23 16:00,ZGKL 231600Z AUTO 4SM 24/24 A2968 RMK T02400240 IEM_DS3505
ZGKL,2008-07-23 17:00,ZGKL 231700Z AUTO 00000KT 4SM 23/23 A2968 RMK T02300230 IEM_DS3505
ZGKL,2008-07-23 18:00,ZGKL 231800Z AUTO 29002KT 7SM 24/24 A2968 RMK SLP049 T02420239 57001 IEM_DS3505
ZGKL,2008-07-23 19:00,ZGKL 231900Z AUTO 00000KT 4SM 23/23 A2968 RMK T02300230 IEM_DS3505
ZGKL,2008-07-23 20:00,ZGKL 232000Z AUTO 31002KT 4SM 23/23 A2968 RMK T02300230 IEM_DS3505
ZGKL,2008-07-23 21:00,ZGKL 232100Z AUTO 09002KT 6SM 24/24 A2968 RMK 70067 SLP052 T02420240 52004 IEM_DS3505
ZGKL,2008-07-23 22:00,ZGKL 232200Z AUTO 05002KT 2 1/2SM 23/23 A2971 RMK T02300230 IEM_DS3505
ZGKL,2008-07-23 23:00,ZGKL 232300Z AUTO 00000KT 4SM 23/23 A2971 RMK T02300230 IEM_DS3505
ZGKL,2008-07-24 00:00,ZGKL 240000Z AUTO 07002KT 6SM 26/25 A2974 RMK 70035 SLP063 T02580246 52010 IEM_DS3505
ZGKL,2008-07-24 01:00,ZGKL 240100Z AUTO 00000KT 3SM 26/25 A2974 RMK T02600250 IEM_DS3505
ZGKL,2008-07-24 02:00,ZGKL 240200Z AUTO 00000KT 5SM 27/25 A2974 RMK T02700250 IEM_DS3505
ZGKL,2008-07-24 03:00,ZGKL 240300Z AUTO 18006KT 9SM 31/23 A2974 RMK SLP069 T03060233 52008 IEM_DS3505
ZGKL,2008-07-24 04:00,ZGKL 240400Z AUTO 18010KT 7SM 30/25 A2974 RMK T03000250 IEM_DS3505
ZGKL,2008-07-24 05:00,ZGKL 240500Z AUTO 18008KT 7SM 31/25 A2971 RMK T03100250 IEM_DS3505
ZGKL,2008-07-24 06:00,ZGKL 240600Z AUTO 16004KT 12SM 32/22 A2971 RMK SLP052 T03230224 57017 IEM_DS3505
ZGKL,2008-07-24 07:00,ZGKL 240700Z AUTO 18012KT 7SM 33/24 A2968 RMK T03300240 IEM_DS3505
ZGKL,2008-07-24 08:00,ZGKL 240800Z AUTO 20008KT 7SM 32/23 A2965 RMK T03200230 IEM_DS3505
ZGKL,2008-07-24 09:00,ZGKL 240900Z AUTO 25006KT 17SM 34/22 A2965 RMK SLP035 T03390217 57016 IEM_DS3505
ZGKL,2008-07-24 10:00,ZGKL 241000Z AUTO 19010KT 7SM 32/23 A2965 RMK T03200230 IEM_DS3505
ZGKL,2008-07-24 11:00,ZGKL 241100Z AUTO 20006KT 7SM 30/25 A2968 RMK T03000250 IEM_DS3505
ZGKL,2008-07-24 12:00,ZGKL 241200Z AUTO 07002KT 16SM 31/24 A2968 RMK SLP045 T03080235 52009 IEM_DS3505
ZGKL,2008-07-24 13:00,ZGKL 241300Z AUTO 00000KT 6SM 27/25 A2971 RMK T02700250 IEM_DS3505
ZGKL,2008-07-24 14:00,ZGKL 241400Z AUTO 00000KT 6SM 26/25 A2971 RMK T02600250 IEM_DS3505
ZGKL,2008-07-24 15:00,ZGKL 241500Z AUTO 04002KT 16SM 28/25 A2971 RMK SLP057 T02790247 52013 IEM_DS3505
ZGKL,2008-07-24 16:00,ZGKL 241600Z AUTO 00000KT 7SM 26/25 A2971 RMK T02600250 IEM_DS3505
ZGKL,2008-07-24 17:00,ZGKL 241700Z AUTO 00000KT 7SM 25/24 A2971 RMK T02500240 IEM_DS3505
ZGKL,2008-07-24 18:00,ZGKL 241800Z AUTO 36002KT 14SM 27/24 A2974 RMK SLP059 T02660241 52002 IEM_DS3505
ZGKL,2008-07-24 19:00,ZGKL 241900Z AUTO 00000KT 5SM 24/24 A2974 RMK T02400240 IEM_DS3505
ZGKL,2008-07-24 20:00,ZGKL 242000Z AUTO 00000KT 4SM 24/24 A2974 RMK T02400240 IEM_DS3505
ZGKL,2008-07-24 21:00,ZGKL 242100Z AUTO 04002KT 12SM 26/24 A2974 RMK SLP063 T02590245 52004 IEM_DS3505
ZGKL,2008-07-24 22:00,ZGKL 242200Z AUTO 00000KT 4SM 23/23 A2974 RMK T02300230 IEM_DS3505
ZGKL,2008-07-24 23:00,ZGKL 242300Z AUTO 00000KT 4SM 24/24 A2977 RMK T02400240 IEM_DS3505
ZGKL,2008-07-25 00:00,ZGKL 250000Z AUTO 07002KT 6SM 27/24 A2977 RMK SLP074 T02680245 52010 IEM_DS3505
ZGKL,2008-07-25 01:00,ZGKL 250100Z AUTO 00000KT 6SM 29/25 A2977 RMK T02900250 IEM_DS3505
ZGKL,2008-07-25 02:00,ZGKL 250200Z AUTO 16006KT 7SM 31/25 A2977 RMK T03100250 IEM_DS3505
ZGKL,2008-07-25 03:00,ZGKL 250300Z AUTO 20004KT 8SM 32/23 A2977 RMK SLP077 T03160229 52004 IEM_DS3505
ZGKL,2008-07-25 04:00,ZGKL 250400Z AUTO 17008KT 7SM 32/23 A2977 RMK T03200230 IEM_DS3505
ZGKL,2008-07-25 05:00,ZGKL 250500Z AUTO 18006KT 7SM 33/23 A2974 RMK T03300230 IEM_DS3505
ZGKL,2008-07-25 06:00,ZGKL 250600Z AUTO 27006KT 11SM 34/22 A2971 RMK SLP059 T03370218 57018 IEM_DS3505
ZGKL,2008-07-25 07:00,ZGKL 250700Z AUTO 19004KT 7SM 35/22 A2971 RMK T03500220 IEM_DS3505
ZGKL,2008-07-25 08:00,ZGKL 250800Z AUTO 14008KT 7SM 34/22 A2968 RMK T03400220 IEM_DS3505
ZGKL,2008-07-25 09:00,ZGKL 250900Z AUTO 25006KT 12SM 35/19 A2965 RMK SLP041 T03500194 57022 IEM_DS3505
ZGKL,2008-07-25 10:00,ZGKL 251000Z AUTO 17006KT 7SM 33/21 A2965 RMK T03300210 IEM_DS3505
ZGKL,2008-07-25 11:00,ZGKL 251100Z AUTO 17002KT 6SM 32/24 A2968 RMK T03200240 IEM_DS3505
ZGKL,2008-07-25 12:00,ZGKL 251200Z AUTO 07002KT 16SM 32/22 A2968 RMK SLP045 T03160215 52007 IEM_DS3505
ZGKL,2008-07-25 13:00,ZGKL 251300Z AUTO 00000KT 6SM 27/23 A2968 RMK T02700230 IEM_DS3505
ZGKL,2008-07-25 14:00,ZGKL 251400Z AUTO 00000KT 6SM 26/24 A2971 RMK T02600240 IEM_DS3505
ZGKL,2008-07-25 15:00,ZGKL 251500Z AUTO 02002KT 16SM 28/22 A2971 RMK SLP058 T02820224 52013 IEM_DS3505
ZGKL,2008-07-25 16:00,ZGKL 251600Z AUTO 00000KT 6SM 25/24 A2974 RMK T02500240 IEM_DS3505
ZGKL,2008-07-25 17:00,ZGKL 251700Z AUTO 00000KT 6SM 24/23 A2971 RMK T02400230 IEM_DS3505
ZGKL,2008-07-25 18:00,ZGKL 251800Z AUTO 09002KT 12SM 26/22 A2971 RMK SLP058 T02580223 54000 IEM_DS3505
ZGKL,2008-07-25 19:00,ZGKL 251900Z AUTO 00000KT 4SM 23/23 A2971 RMK T02300230 IEM_DS3505
ZGKL,2008-07-25 20:00,ZGKL 252000Z AUTO 00000KT 4SM 23/23 A2971 RMK T02300230 IEM_DS3505
ZGKL,2008-07-25 21:00,ZGKL 252100Z AUTO 04002KT 9SM 25/22 A2974 RMK SLP059 T02470224 52001 IEM_DS3505
ZGKL,2008-07-25 22:00,ZGKL 252200Z AUTO 00000KT 6SM 23/22 A2974 RMK T02300220 IEM_DS3505
ZGKL,2008-07-25 23:00,ZGKL 252300Z AUTO 00000KT 6SM 23/23 A2974 RMK T02300230 IEM_DS3505
ZGKL,2008-07-26 00:00,ZGKL 260000Z AUTO 09002KT 9SM 27/23 A2977 RMK SLP071 T02700228 52012 IEM_DS3505
ZGKL,2008-07-26 01:00,ZGKL 260100Z AUTO 00000KT 6SM 28/23 A2977 RMK T02800230 IEM_DS3505
ZGKL,2008-07-26 02:00,ZGKL 260200Z AUTO 6SM 30/23 A2977 RMK T03000230 IEM_DS3505
ZGKL,2008-07-26 03:00,ZGKL 260300Z AUTO 11002KT 7SM 32/24 A2977 RMK SLP069 T03210236 57002 IEM_DS3505
ZGKL,2008-07-26 04:00,ZGKL 260400Z AUTO 6SM 33/24 A2974 RMK T03300240 IEM_DS3505
ZGKL,2008-07-26 05:00,ZGKL 260500Z AUTO 19004KT 6SM 34/23 A2971 RMK T03400230 IEM_DS3505
ZGKL,2008-07-26 06:00,ZGKL 260600Z AUTO 20002KT 6SM 35/20 A2968 RMK SLP048 T03470203 57020 IEM_DS3505
ZGKL,2008-07-26 07:00,ZGKL 260700Z AUTO 7SM 35/22 A2968 RMK T03500220 IEM_DS3505
ZGKL,2008-07-26 08:00,ZGKL 260800Z AUTO 7SM 35/21 A2965 RMK T03500210 IEM_DS3505
ZGKL,2008-07-26 09:00,ZGKL 260900Z AUTO 29004KT 12SM 36/18 A2962 RMK SLP030 T03590185 57018 IEM_DS3505
ZGKL,2008-07-26 10:00,ZGKL 261000Z AUTO 14006KT 6SM 34/22 A2962 RMK T03400220 IEM_DS3505
ZGKL,2008-07-26 11:00,ZGKL 261100Z AUTO 14006KT 6SM 33/23 A2965 RMK T03300230 IEM_DS3505
ZGKL,2008-07-26 12:00,ZGKL 261200Z AUTO 34002KT 12SM 33/21 A2965 RMK SLP036 T03280210 52006 IEM_DS3505
ZGKL,2008-07-26 13:00,ZGKL 261300Z AUTO 00000KT 4SM 28/27 A2968 RMK T02800270 IEM_DS3505
ZGKL,2008-07-26 14:00,ZGKL 261400Z AUTO 00000KT 3SM 28/26 A2971 RMK T02800260 IEM_DS3505
ZGKL,2008-07-26 15:00,ZGKL 261500Z AUTO 07002KT 11SM 29/22 A2971 RMK SLP058 T02870217 52021 IEM_DS3505
ZGKL,2008-07-26 16:00,ZGKL 261600Z AUTO 2 1/2SM 27/26 A2971 RMK T02700260 IEM_DS3505
ZGKL,2008-07-26 17:00,ZGKL 261700Z AUTO 00000KT 2 1/2SM 26/25 A2971 RMK T02600250 IEM_DS3505
ZGKL,2008-07-26 18:00,ZGKL 261800Z AUTO 34002KT 11SM 26/22 A2971 RMK SLP054 T02640225 57003 IEM_DS3505
ZGKL,2008-07-26 19:00,ZGKL 261900Z AUTO 00000KT 2 1/2SM 25/24 A2968 RMK T02500240 IEM_DS3505
ZGKL,2008-07-26 20:00,ZGKL 262000Z AUTO 00000KT 2 1/2SM 25/24 A2968 RMK T02500240 IEM_DS3505
ZGKL,2008-07-26 21:00,ZGKL 262100Z AUTO 07002KT 9SM 26/22 A2971 RMK SLP047 T02570224 57007 IEM_DS3505
ZGKL,2008-07-26 22:00,ZGKL 262200Z AUTO 00000KT 1 1/4SM 24/24 A2971 RMK T02400240 IEM_DS3505
ZGKL,2008-07-26 23:00,ZGKL 262300Z AUTO 00000KT 1 1/4SM 25/24 A2971 RMK T02500240 IEM_DS3505
ZGKL,2008-07-27 00:00,ZGKL 270000Z AUTO 02002KT 6SM 27/22 A2974 RMK SLP063 T02720224 52015 IEM_DS3505
ZGKL,2008-07-27 01:00,ZGKL 270100Z AUTO 00000KT 2 1/2SM 29/25 A2974 RMK T02900250 IEM_DS3505
ZGKL,2008-07-27 02:00,ZGKL 270200Z AUTO 00000KT 3SM 31/25 A2974 RMK T03100250 IEM_DS3505
ZGKL,2008-07-27 03:00,ZGKL 270300Z AUTO 11004KT 6SM 32/24 A2974 RMK SLP061 T03240236 57002 IEM_DS3505
ZGKL,2008-07-27 04:00,ZGKL 270400Z AUTO 00000KT 5SM 34/23 A2971 RMK T03400230 IEM_DS3505
ZGKL,2008-07-27 05:00,ZGKL 270500Z AUTO 00000KT 5SM 35/21 A2968 RMK T03500210 IEM_DS3505
ZGKL,2008-07-27 06:00,ZGKL 270600Z AUTO 27006KT 7SM 35/22 A2968 RMK SLP040 T03500220 57020 IEM_DS3505
ZGKL,2008-07-27 07:00,ZGKL 270700Z AUTO 18006KT 7SM 36/19 A2965 RMK T03600190 IEM_DS3505
ZGKL,2008-07-27 08:00,ZGKL 270800Z AUTO 21004KT 7SM 36/21 A2962 RMK T03600210 IEM_DS3505
ZGKL,2008-07-27 09:00,ZGKL 270900Z AUTO 27004KT 7SM 36/20 A2959 RMK SLP013 T03650199 57026 IEM_DS3505
ZGKL,2008-07-27 10:00,ZGKL 271000Z AUTO 20004KT 6SM 35/21 A2956 RMK T03500210 IEM_DS3505
ZGKL,2008-07-27 11:00,ZGKL 271100Z AUTO 20004KT 4SM 32/25 A2959 RMK T03200250 IEM_DS3505
ZGKL,2008-07-27 12:00,ZGKL 271200Z AUTO 07002KT 7SM 33/23 A2959 RMK SLP020 T03300231 52006 IEM_DS3505
ZGKL,2008-07-27 13:00,ZGKL 271300Z AUTO 00000KT 2 1/2SM 28/26 A2965 RMK T02800260 IEM_DS3505
ZGKL,2008-07-27 14:00,ZGKL 271400Z AUTO 00000KT 2SM 27/26 A2965 RMK T02700260 IEM_DS3505
ZGKL,2008-07-27 15:00,ZGKL 271500Z AUTO 02002KT 7SM 29/23 A2968 RMK SLP039 T02890226 52019 IEM_DS3505
ZGKL,2008-07-27 16:00,ZGKL 271600Z AUTO 00000KT 1 1/2SM 26/25 A2965 RMK T02600250 IEM_DS3505
ZGKL,2008-07-27 17:00,ZGKL 271700Z AUTO 00000KT 2SM 26/24 A2965 RMK T02600240 IEM_DS3505
ZGKL,2008-07-27 18:00,ZGKL 271800Z AUTO 36002KT 7SM 27/22 A2962 RMK SLP025 T02670215 57014 IEM_DS3505
ZGKL,2008-07-27 19:00,ZGKL 271900Z AUTO 00000KT 2SM 25/24 A2962 RMK T02500240 IEM_DS3505
ZGKL,2008-07-27 20:00,ZGKL 272000Z AUTO 00000KT 3SM 24/23 A2959 RMK T02400230 IEM_DS3505
ZGKL,2008-07-27 21:00,ZGKL 272100Z AUTO 02002KT 7SM 26/21 A2959 RMK SLP018 T02560213 57006 IEM_DS3505
ZGKL,2008-07-27 22:00,ZGKL 272200Z AUTO 00000KT 4SM 24/23 A2962 RMK T02400230 IEM_DS3505
ZGKL,2008-07-27 23:00,ZGKL 272300Z AUTO 00000KT 4SM 25/23 A2962 RMK T02500230 IEM_DS3505
ZGKL,2008-07-28 00:00,ZGKL 280000Z AUTO 02002KT 6SM 27/22 A2965 RMK SLP032 T02710218 52013 IEM_DS3505
ZGKL,2008-07-28 01:00,ZGKL 280100Z AUTO 6SM 28/23 A2965 RMK T02800230 IEM_DS3505
ZGKL,2008-07-28 02:00,ZGKL 280200Z AUTO 00000KT 6SM 31/24 A2965 RMK T03100240 IEM_DS3505
ZGKL,2008-07-28 03:00,ZGKL 280300Z AUTO 02004KT 7SM 33/22 A2965 RMK SLP033 T03300215 52001 IEM_DS3505
ZGKL,2008-07-28 04:00,ZGKL 280400Z AUTO 7SM 35/24 A2962 RMK T03500240 IEM_DS3505
ZGKL,2008-07-28 05:00,ZGKL 280500Z AUTO 7SM 36/23 A2962 RMK T03600230 IEM_DS3505
ZGKL,2008-07-28 06:00,ZGKL 280600Z AUTO 04004KT 7SM 37/22 A2959 RMK SLP008 T03710217 57024 IEM_DS3505
ZGKL,2008-07-28 07:00,ZGKL 280700Z AUTO 06006KT 7SM 37/19 A2953 RMK T03700190 IEM_DS3505
ZGKL,2008-07-28 08:00,ZGKL 280800Z AUTO 7SM 38/19 A2950 RMK T03800190 IEM_DS3505
ZGKL,2008-07-28 09:00,ZGKL 280900Z AUTO 36006KT 9SM 38/20 A2950 RMK SLP982 T03760200 57025 IEM_DS3505
ZGKL,2008-07-28 10:00,ZGKL 281000Z AUTO 32002KT 7SM 36/22 A2950 RMK T03600220 IEM_DS3505
ZGKL,2008-07-28 11:00,ZGKL 281100Z AUTO 32010KT 7SM 31/21 A2950 RMK T03100210 IEM_DS3505
ZGKL,2008-07-28 12:00,ZGKL 281200Z AUTO 25004KT 9SM 32/21 A2953 RMK SLP002 T03150214 52018 IEM_DS3505
ZGKL,2008-07-28 13:00,ZGKL 281300Z AUTO 7SM 29/22 A2956 RMK T02900220 IEM_DS3505
ZGKL,2008-07-28 14:00,ZGKL 281400Z AUTO 00000KT 7SM 27/24 A2956 RMK T02700240 IEM_DS3505
ZGKL,2008-07-28 15:00,ZGKL 281500Z AUTO 36004KT 9SM 30/22 A2959 RMK SLP007 T02960218 52006 IEM_DS3505
ZGKL,2008-07-28 16:00,ZGKL 281600Z AUTO 00000KT 4SM 26/24 A2959 RMK T02600240 IEM_DS3505
ZGKL,2008-07-28 17:00,ZGKL 281700Z AUTO 00000KT 3SM 25/24 A2956 RMK T02500240 IEM_DS3505
ZGKL,2008-07-28 18:00,ZGKL 281800Z AUTO 36002KT 9SM 27/23 A2956 RMK SLP001 T02720228 57005 IEM_DS3505
ZGKL,2008-07-28 19:00,ZGKL 281900Z AUTO 00000KT 3SM 25/24 A2953 RMK T02500240 IEM_DS3505
ZGKL,2008-07-28 20:00,ZGKL 282000Z AUTO 00000KT 3SM 25/24 A2953 RMK T02500240 IEM_DS3505
ZGKL,2008-07-28 21:00,ZGKL 282100Z AUTO 04002KT 7SM 26/23 A2953 RMK SLP994 T02590234 57008 IEM_DS3505
ZGKL,2008-07-28 22:00,ZGKL 282200Z AUTO 00000KT 3SM 24/24 A2953 RMK T02400240 IEM_DS3505
ZGKL,2008-07-28 23:00,ZGKL 282300Z AUTO 00000KT 3SM 25/24 A2956 RMK T02500240 IEM_DS3505
ZGKL,2008-07-29 00:00,ZGKL 290000Z AUTO 00000KT 6SM 28/24 A2956 RMK SLP007 T02840235 52012 IEM_DS3505
ZGKL,2008-07-29 01:00,ZGKL 290100Z AUTO 00000KT 3SM 30/24 A2956 RMK T03000240 IEM_DS3505
ZGKL,2008-07-29 02:00,ZGKL 290200Z AUTO 00000KT 4SM 32/24 A2956 RMK T03200240 IEM_DS3505
ZGKL,2008-07-29 03:00,ZGKL 290300Z AUTO 34004KT 6SM 34/21 A2956 RMK SLP001 T03360211 57005 IEM_DS3505
ZGKL,2008-07-29 04:00,ZGKL 290400Z AUTO 5SM 35/21 A2953 RMK T03500210 IEM_DS3505
ZGKL,2008-07-29 05:00,ZGKL 290500Z AUTO 17004KT 7SM 35/22 A2953 RMK T03500220 IEM_DS3505
ZGKL,2008-07-29 06:00,ZGKL 290600Z AUTO 27004KT 7SM 36/21 A2950 RMK SLP980 T03620209 57020 IEM_DS3505
ZGKL,2008-07-29 07:00,ZGKL 290700Z AUTO 27008KT 7SM 37/21 A2947 RMK T03700210 IEM_DS3505
ZGKL,2008-07-29 08:00,ZGKL 290800Z AUTO 27006KT 7SM 37/21 A2944 RMK T03700210 IEM_DS3505
ZGKL,2008-07-29 09:00,ZGKL 290900Z AUTO 18002KT 9SM 37/21 A2944 RMK SLP961 T03670213 57019 IEM_DS3505
ZGKL,2008-07-29 10:00,ZGKL 291000Z AUTO 27008KT 7SM 35/22 A2944 RMK T03500220 IEM_DS3505
ZGKL,2008-07-29 11:00,ZGKL 291100Z AUTO 27006KT 6SM 33/23 A2944 RMK T03300230 IEM_DS3505
ZGKL,2008-07-29 12:00,ZGKL 291200Z AUTO 18004KT 7SM 30/24 A2947 RMK 60000 SLP979 T02980235 52016 IEM_DS3505
ZGKL,2008-07-29 13:00,ZGKL 291300Z AUTO 00000KT 3SM 31/24 A2950 RMK T03100240 IEM_DS3505
ZGKL,2008-07-29 14:00,ZGKL 291400Z AUTO 00000KT 2 1/2SM 30/24 A2953 RMK T03000240 IEM_DS3505
ZGKL,2008-07-29 15:00,ZGKL 291500Z AUTO 07002KT 7SM 29/24 A2953 RMK SLP996 T02930244 52018 IEM_DS3505
ZGKL,2008-07-29 16:00,ZGKL 291600Z AUTO 00000KT 2SM 27/25 A2953 RMK T02700250 IEM_DS3505
ZGKL,2008-07-29 17:00,ZGKL 291700Z AUTO 00000KT 2 1/2SM 27/25 A2953 RMK T02700250 IEM_DS3505
ZGKL,2008-07-29 18:00,ZGKL 291800Z AUTO 04002KT 7SM 28/25 A2953 RMK SLP990 T02820246 57005 IEM_DS3505
ZGKL,2008-07-29 19:00,ZGKL 291900Z AUTO 00000KT 2 1/2SM 26/24 A2950 RMK T02600240 IEM_DS3505
ZGKL,2008-07-29 20:00,ZGKL 292000Z AUTO 00000KT 2 1/2SM 25/24 A2950 RMK T02500240 IEM_DS3505
ZGKL,2008-07-29 21:00,ZGKL 292100Z AUTO 07002KT 7SM 27/24 A2953 RMK 70000 SLP992 T02670242 52001 IEM_DS3505
ZGKL,2008-07-29 22:00,ZGKL 292200Z AUTO 00000KT 2SM 24/24 A2953 RMK T02400240 IEM_DS3505
ZGKL,2008-07-29 23:00,ZGKL 292300Z AUTO 00000KT 1 1/4SM 25/24 A2953 RMK T02500240 IEM_DS3505
ZGKL,2008-07-30 00:00,ZGKL 300000Z AUTO 02002KT 4SM 28/23 A2956 RMK 70000 SLP003 T02820233 52010 IEM_DS3505
ZGKL,2008-07-30 01:00,ZGKL 300100Z AUTO 00000KT 3SM 30/25 A2956 RMK T03000250 IEM_DS3505
ZGKL,2008-07-30 02:00,ZGKL 300200Z AUTO 4SM 32/23 A2956 RMK T03200230 IEM_DS3505
ZGKL,2008-07-30 03:00,ZGKL 300300Z AUTO 09004KT 4SM 34/24 A2956 RMK SLP003 T03350244 52001 IEM_DS3505
ZGKL,2008-07-30 04:00,ZGKL 300400Z AUTO 5SM 36/24 A2953 RMK T03600240 IEM_DS3505
ZGKL,2008-07-30 05:00,ZGKL 300500Z AUTO 20004KT 7SM 37/22 A2953 RMK T03700220 IEM_DS3505
ZGKL,2008-07-30 06:00,ZGKL 300600Z AUTO 14004KT 8SM 37/20 A2950 RMK SLP983 T03660200 57019 IEM_DS3505
ZGKL,2008-07-30 07:00,ZGKL 300700Z AUTO 7SM 37/21 A2947 RMK T03700210 IEM_DS3505
ZGKL,2008-07-30 08:00,ZGKL 300800Z AUTO 24006KT 7SM 35/21 A2947 RMK T03500210 IEM_DS3505
ZGKL,2008-07-30 09:00,ZGKL 300900Z AUTO 04008KT 9SM 33/23 A2947 RMK SLP976 T03340228 57008 IEM_DS3505
ZGKL,2008-07-30 10:00,ZGKL 301000Z AUTO 05016KT 7SM 32/23 A2947 RMK T03200230 IEM_DS3505
ZGKL,2008-07-30 11:00,ZGKL 301100Z AUTO 30006KT 7SM 28/26 A2950 RMK T02800260 IEM_DS3505
ZGKL,2008-07-30 12:00,ZGKL 301200Z AUTO 07002KT 9SM 30/23 A2953 RMK SLP997 T03000230 52020 IEM_DS3505
ZGKL,2008-07-30 13:00,ZGKL 301300Z AUTO 31004KT 2 1/2SM 27/26 A2956 RMK T02700260 IEM_DS3505
ZGKL,2008-07-30 14:00,ZGKL 301400Z AUTO 3SM 28/26 A2959 RMK T02800260 IEM_DS3505
ZGKL,2008-07-30 15:00,ZGKL 301500Z AUTO 09002KT 8SM 28/24 A2962 RMK SLP024 T02840235 52027 IEM_DS3505
ZGKL,2008-07-30 16:00,ZGKL 301600Z AUTO 00000KT 2SM 27/26 A2962 RMK T02700260 IEM_DS3505
ZGKL,2008-07-30 17:00,ZGKL 301700Z AUTO 00000KT 2SM 27/26 A2962 RMK T02700260 IEM_DS3505
ZGKL,2008-07-30 18:00,ZGKL 301800Z AUTO 14002KT 8SM 28/24 A2962 RMK SLP027 T02760238 52004 IEM_DS3505
ZGKL,2008-07-30 19:00,ZGKL 301900Z AUTO 00000KT 1SM 26/25 A2962 RMK T02600250 IEM_DS3505
ZGKL,2008-07-30 20:00,ZGKL 302000Z AUTO 00000KT 1SM 26/26 A2962 RMK T02600260 IEM_DS3505
ZGKL,2008-07-30 21:00,ZGKL 302100Z AUTO 07004KT 8SM 27/24 A2962 RMK SLP030 T02720241 52002 IEM_DS3505
ZGKL,2008-07-30 22:00,ZGKL 302200Z AUTO 00000KT 2SM 26/26 A2965 RMK T02600260 IEM_DS3505
ZGKL,2008-07-30 23:00,ZGKL 302300Z AUTO 00000KT 1 1/4SM 26/26 A2968 RMK T02600260 IEM_DS3505
ZGKL,2008-07-31 00:00,ZGKL 310000Z AUTO 36002KT 4SM 25/25 A2971 RMK 60028 70027 SLP058 T02530248 52026 IEM_DS3505
ZGKL,2008-07-31 01:00,ZGKL 310100Z AUTO 00000KT 1 1/4SM 27/26 A2974 RMK T02700260 IEM_DS3505
ZGKL,2008-07-31 02:00,ZGKL 310200Z AUTO 00000KT 2 1/2SM 26/25 A2977 RMK T02600250 IEM_DS3505
ZGKL,2008-07-31 03:00,ZGKL 310300Z AUTO 18002KT 5SM 25/24 A2980 RMK SLP085 T02460243 52026 IEM_DS3505
ZGKL,2008-07-31 04:00,ZGKL 310400Z AUTO 32006KT 3SM 24/24 A2980 RMK T02400240 IEM_DS3505
ZGKL,2008-07-31 05:00,ZGKL 310500Z AUTO 26004KT 5SM 25/25 A2974 RMK T02500250 IEM_DS3505
ZGKL,2008-07-31 06:00,ZGKL 310600Z AUTO 04004KT 6SM 27/25 A2971 RMK 60087 SLP058 T02710246 57026 IEM_DS3505
ZGKL,2008-07-31 07:00,ZGKL 310700Z AUTO 7SM 27/25 A2971 RMK T02700250 IEM_DS3505
ZGKL,2008-07-31 08:00,ZGKL 310800Z AUTO 33008KT 7SM 28/25 A2971 RMK T02800250 IEM_DS3505
ZGKL,2008-07-31 09:00,ZGKL 310900Z AUTO 02002KT 8SM 29/24 A2968 RMK SLP048 T02940238 57010 IEM_DS3505
ZGKL,2008-07-31 10:00,ZGKL 311000Z AUTO 00000KT 7SM 27/25 A2968 RMK T02700250 IEM_DS3505
ZGKL,2008-07-31 11:00,ZGKL 311100Z AUTO 00000KT 6SM 27/25 A2968 RMK T02700250 IEM_DS3505
ZGKL,2008-07-31 12:00,ZGKL 311200Z AUTO 29002KT 7SM 28/24 A2971 RMK SLP056 T02750237 52007 IEM_DS3505
ZGKL,2008-07-31 13:00,ZGKL 311300Z AUTO 00000KT 6SM 26/25 A2974 RMK T02600250 IEM_DS3505
ZGKL,2008-07-31 14:00,ZGKL 311400Z AUTO 00000KT 6SM 26/25 A2977 RMK T02600250 IEM_DS3505
ZGKL,2008-07-31 15:00,ZGKL 311500Z AUTO 07002KT 7SM 26/25 A2980 RMK SLP085 T02630251 52028 IEM_DS3505
ZGKL,2008-07-31 16:00,ZGKL 311600Z AUTO 00000KT 2 1/2SM 25/25 A2980 RMK T02500250 IEM_DS3505
ZGKL,2008-07-31 17:00,ZGKL 311700Z AUTO 00000KT 3SM 25/25 A2977 RMK T02500250 IEM_DS3505
ZGKL,2008-07-31 18:00,ZGKL 311800Z AUTO 00000KT 7SM 26/25 A2977 RMK SLP080 T02550248 57004 IEM_DS3505
ZGKL,2008-07-31 19:00,ZGKL 311900Z AUTO 00000KT 3SM 25/25 A2977 RMK T02500250 IEM_DS3505
ZGKL,2008-07-31 20:00,ZGKL 312000Z AUTO 00000KT 2SM 25/24 A2977 RMK T02500240 IEM_DS3505
ZGKL,2008-07-31 21:00,ZGKL 312100Z AUTO 00000KT 7SM 25/24 A2977 RMK 70115 SLP077 T02480245 57003 IEM_DS3505
ZGKL,2008-07-31 22:00,ZGKL 312200Z AUTO 00000KT 2 1/2SM 24/24 A2977 RMK T02400240 IEM_DS3505
ZGKL,2008-07-31 23:00,ZGKL 312300Z AUTO 00000KT 3SM 25/25 A2980 RMK T02500250 IEM_DS3505
ZGKL,2008-08-01 00:00,ZGKL 010000Z AUTO 07002KT 8SM 26/24 A2980 RMK 70088 SLP093 T02630245 52016 IEM_DS3505
ZGKL,2008-08-01 01:00,ZGKL 010100Z AUTO 00000KT 4SM 28/24 A2983 RMK T02800240 IEM_DS3505
ZGKL,2008-08-01 02:00,ZGKL 010200Z AUTO 00000KT 5SM 28/25 A2983 RMK T02800250 IEM_DS3505
ZGKL,2008-08-01 03:00,ZGKL 010300Z AUTO 20004KT 9SM 30/23 A2983 RMK SLP100 T02960231 52007 IEM_DS3505
ZGKL,2008-08-01 04:00,ZGKL 010400Z AUTO 17004KT 7SM 31/25 A2983 RMK T03100250 IEM_DS3505
ZGKL,2008-08-01 05:00,ZGKL 010500Z AUTO 24006KT 7SM 33/25 A2980 RMK T03300250 IEM_DS3505
ZGKL,2008-08-01 06:00,ZGKL 010600Z AUTO 29002KT 10SM 33/23 A2977 RMK SLP075 T03260230 57024 IEM_DS3505
ZGKL,2008-08-01 07:00,ZGKL 010700Z AUTO 19006KT 7SM 34/24 A2974 RMK T03400240 IEM_DS3505
ZGKL,2008-08-01 08:00,ZGKL 010800Z AUTO 16006KT 7SM 33/24 A2971 RMK T03300240 IEM_DS3505
ZGKL,2008-08-01 09:00,ZGKL 010900Z AUTO 34002KT 11SM 34/23 A2971 RMK SLP055 T03420229 57019 IEM_DS3505
ZGKL,2008-08-01 10:00,ZGKL 011000Z AUTO 17004KT 7SM 33/24 A2971 RMK T03300240 IEM_DS3505
ZGKL,2008-08-01 11:00,ZGKL 011100Z AUTO 14012KT 7SM 29/22 A2974 RMK T02900220 IEM_DS3505
ZGKL,2008-08-01 12:00,ZGKL 011200Z AUTO 18006KT 9SM 29/22 A2977 RMK SLP078 T02870217 52021 IEM_DS3505
ZGKL,2008-08-01 13:00,ZGKL 011300Z AUTO 00000KT 7SM 26/24 A2980 RMK T02600240 IEM_DS3505
ZGKL,2008-08-01 14:00,ZGKL 011400Z AUTO 00000KT 6SM 26/25 A2980 RMK T02600250 IEM_DS3505
ZGKL,2008-08-01 15:00,ZGKL 011500Z AUTO 11002KT 9SM 27/23 A2980 RMK SLP089 T02690232 52012 IEM_DS3505
ZGKL,2008-08-01 16:00,ZGKL 011600Z AUTO 00000KT 6SM 25/24 A2980 RMK T02500240 IEM_DS3505
ZGKL,2008-08-01 17:00,ZGKL 011700Z AUTO 00000KT 4SM 25/24 A2980 RMK T02500240 IEM_DS3505
ZGKL,2008-08-01 18:00,ZGKL 011800Z AUTO 04002KT 9SM 26/24 A2977 RMK SLP076 T02640241 57012 IEM_DS3505
ZGKL,2008-08-01 19:00,ZGKL 011900Z AUTO 00000KT 6SM 25/24 A2977 RMK T02500240 IEM_DS3505
ZGKL,2008-08-01 20:00,ZGKL 012000Z AUTO 00000KT 5SM 25/25 A2977 RMK T02500250 IEM_DS3505
ZGKL,2008-08-01 21:00,ZGKL 012100Z AUTO 11002KT 9SM 26/25 A2977 RMK SLP080 T02600246 52004 IEM_DS3505
ZGKL,2008-08-01 22:00,ZGKL 012200Z AUTO 00000KT 3SM 25/25 A2977 RMK T02500250 IEM_DS3505
ZGKL,2008-08-01 23:00,ZGKL 012300Z AUTO 00000KT 2 1/2SM 25/25 A2980 RMK T02500250 IEM_DS3505
ZGKL,2008-08-02 00:00,ZGKL 020000Z AUTO 18002KT 9SM 27/24 A2980 RMK SLP090 T02670236 52008 IEM_DS3505
ZGKL,2008-08-02 01:00,ZGKL 020100Z AUTO 2SM 25/25 A2983 RMK T02500250 IEM_DS3505
ZGKL,2008-08-02 02:00,ZGKL 020200Z AUTO 00000KT 2 1/2SM 26/26 A2983 RMK T02600260 IEM_DS3505
ZGKL,2008-08-02 03:00,ZGKL 020300Z AUTO 16004KT 8SM 28/24 A2980 RMK SLP092 T02820238 52002 IEM_DS3505
ZGKL,2008-08-02 04:00,ZGKL 020400Z AUTO 15006KT 5SM 29/25 A2980 RMK T02900250 IEM_DS3505
ZGKL,2008-08-02 05:00,ZGKL 020500Z AUTO 15006KT 5SM 30/25 A2977 RMK T03000250 IEM_DS3505
ZGKL,2008-08-02 06:00,ZGKL 020600Z AUTO 16006KT 10SM 31/23 A2974 RMK 60000 SLP064 T03090230 57027 IEM_DS3505
ZGKL,2008-08-02 07:00,ZGKL 020700Z AUTO 25004KT 5SM 31/26 A2971 RMK T03100260 IEM_DS3505
ZGKL,2008-08-02 08:00,ZGKL 020800Z AUTO 32004KT 4SM 30/26 A2968 RMK T03000260 IEM_DS3505
ZGKL,2008-08-02 09:00,ZGKL 020900Z AUTO 14002KT 16SM 32/22 A2968 RMK SLP040 T03200224 57023 IEM_DS3505
ZGKL,2008-08-02 10:00,ZGKL 021000Z AUTO 5SM 27/25 A2968 RMK T02700250 IEM_DS3505
ZGKL,2008-08-02 11:00,ZGKL 021100Z AUTO 6SM 27/25 A2968 RMK T02700250 IEM_DS3505
ZGKL,2008-08-02 12:00,ZGKL 021200Z AUTO 18006KT 11SM 29/23 A2971 RMK SLP054 T02860228 52013 IEM_DS3505
ZGKL,2008-08-02 13:00,ZGKL 021300Z AUTO 00000KT 2 1/2SM 26/25 A2971 RMK T02600250 IEM_DS3505
ZGKL,2008-08-02 14:00,ZGKL 021400Z AUTO 00000KT 2 1/2SM 26/25 A2974 RMK T02600250 IEM_DS3505
ZGKL,2008-08-02 15:00,ZGKL 021500Z AUTO 09002KT 10SM 28/24 A2977 RMK SLP072 T02760242 52018 IEM_DS3505
ZGKL,2008-08-02 16:00,ZGKL 021600Z AUTO 00000KT 2 1/2SM 26/26 A2974 RMK T02600260 IEM_DS3505
ZGKL,2008-08-02 17:00,ZGKL 021700Z AUTO 00000KT 2 1/2SM 26/25 A2974 RMK T02600250 IEM_DS3505
ZGKL,2008-08-02 18:00,ZGKL 021800Z AUTO 09002KT 10SM 27/25 A2971 RMK SLP061 T02680248 57011 IEM_DS3505
ZGKL,2008-08-02 19:00,ZGKL 021900Z AUTO 00000KT 2 1/2SM 25/25 A2971 RMK T02500250 IEM_DS3505
ZGKL,2008-08-02 20:00,ZGKL 022000Z AUTO 00000KT 2 1/2SM 25/25 A2971 RMK T02500250 IEM_DS3505
ZGKL,2008-08-02 21:00,ZGKL 022100Z AUTO 34002KT 9SM 26/25 A2971 RMK 70000 SLP056 T02610247 57004 IEM_DS3505
ZGKL,2008-08-02 22:00,ZGKL 022200Z AUTO 00000KT 2SM 25/25 A2971 RMK T02500250 IEM_DS3505
ZGKL,2008-08-02 23:00,ZGKL 022300Z AUTO 1 1/2SM 25/25 A2971 RMK T02500250 IEM_DS3505
ZGKL,2008-08-03 00:00,ZGKL 030000Z AUTO 14002KT 5SM 24/24 A2974 RMK 60323 70322 SLP068 T02450242 52010 IEM_DS3505
ZGKL,2008-08-03 01:00,ZGKL 030100Z AUTO 03012KT 1SM 24/24 A2974 RMK T02400240 IEM_DS3505
ZGKL,2008-08-03 02:00,ZGKL 030200Z AUTO 33006KT 1SM 24/24 A2977 RMK T02400240 IEM_DS3505
ZGKL,2008-08-03 03:00,ZGKL 030300Z AUTO 11002KT 4SM 25/24 A2977 RMK SLP082 T02470245 52013 IEM_DS3505
ZGKL,2008-08-03 04:00,ZGKL 030400Z AUTO 00000KT 4SM 24/24 A2977 RMK T02400240 IEM_DS3505
ZGKL,2008-08-03 05:00,ZGKL 030500Z AUTO 16004KT 4SM 24/24 A2977 RMK T02400240 IEM_DS3505
ZGKL,2008-08-03 06:00,ZGKL 030600Z AUTO 25002KT 8SM 26/24 A2974 RMK 60075 SLP072 T02640237 57009 IEM_DS3505
ZGKL,2008-08-03 07:00,ZGKL 030700Z AUTO 18004KT 5SM 27/24 A2971 RMK T02700240 IEM_DS3505
ZGKL,2008-08-03 08:00,ZGKL 030800Z AUTO 18004KT 7SM 27/24 A2971 RMK T02700240 IEM_DS3505
ZGKL,2008-08-03 09:00,ZGKL 030900Z AUTO 07002KT 8SM 27/24 A2968 RMK SLP054 T02670244 57018 IEM_DS3505
ZGKL,2008-08-03 10:00,ZGKL 031000Z AUTO 16004KT 7SM 27/25 A2968 RMK T02700250 IEM_DS3505
ZGKL,2008-08-03 11:00,ZGKL 031100Z AUTO 00000KT 7SM 26/25 A2968 RMK T02600250 IEM_DS3505
ZGKL,2008-08-03 12:00,ZGKL 031200Z AUTO 02002KT 9SM 26/24 A2971 RMK SLP058 T02610245 52003 IEM_DS3505
ZGKL,2008-08-03 13:00,ZGKL 031300Z AUTO 31002KT 4SM 25/25 A2971 RMK T02500250 IEM_DS3505
ZGKL,2008-08-03 14:00,ZGKL 031400Z AUTO 33002KT 4SM 25/25 A2974 RMK T02500250 IEM_DS3505
ZGKL,2008-08-03 15:00,ZGKL 031500Z AUTO 07002KT 9SM 25/24 A2974 RMK SLP072 T02540244 52014 IEM_DS3505
ZGKL,2008-08-03 16:00,ZGKL 031600Z AUTO 30002KT 4SM 25/24 A2974 RMK T02500240 IEM_DS3505
ZGKL,2008-08-03 17:00,ZGKL 031700Z AUTO 00000KT 4SM 25/24 A2974 RMK T02500240 IEM_DS3505
ZGKL,2008-08-03 18:00,ZGKL 031800Z AUTO 04002KT 9SM 25/24 A2974 RMK SLP065 T02480241 57007 IEM_DS3505
ZGKL,2008-08-03 19:00,ZGKL 031900Z AUTO 32002KT 3SM 24/24 A2971 RMK T02400240 IEM_DS3505
ZGKL,2008-08-03 20:00,ZGKL 032000Z AUTO 3SM 24/24 A2971 RMK T02400240 IEM_DS3505
ZGKL,2008-08-03 21:00,ZGKL 032100Z AUTO 09002KT 7SM 24/24 A2971 RMK 70396 SLP058 T02450242 57007 IEM_DS3505
ZGKL,2008-08-03 22:00,ZGKL 032200Z AUTO 2SM 24/24 A2971 RMK T02400240 IEM_DS3505
ZGKL,2008-08-03 23:00,ZGKL 032300Z AUTO 00000KT 3SM 24/24 A2971 RMK T02400240 IEM_DS3505
ZGKL,2008-08-04 00:00,ZGKL 040000Z AUTO 04002KT 4SM 25/24 A2974 RMK 70074 SLP065 T02460241 52007 IEM_DS3505
ZGKL,2008-08-04 01:00,ZGKL 040100Z AUTO 3SM 25/24 A2974 RMK T02500240 IEM_DS3505
ZGKL,2008-08-04 02:00,ZGKL 040200Z AUTO 2 1/2SM 26/25 A2974 RMK T02600250 IEM_DS3505
ZGKL,2008-08-04 03:00,ZGKL 040300Z AUTO 04002KT 4SM 27/24 A2974 RMK SLP073 T02690244 52009 IEM_DS3505
ZGKL,2008-08-04 05:00,ZGKL 040500Z AUTO 00000KT 5SM 29/25 A2971 RMK T02900250 IEM_DS3505
ZGKL,2008-08-04 06:00,ZGKL 040600Z AUTO 29004KT 5SM 30/24 A2971 RMK SLP053 T02980235 57019 IEM_DS3505
ZGKL,2008-08-04 07:00,ZGKL 040700Z AUTO 00000KT 5SM 30/25 A2968 RMK T03000250 IEM_DS3505
ZGKL,2008-08-04 08:00,ZGKL 040800Z AUTO 00000KT 5SM 32/25 A2965 RMK T03200250 IEM_DS3505
ZGKL,2008-08-04 09:00,ZGKL 040900Z AUTO 27002KT 5SM 30/24 A2965 RMK SLP035 T03010238 57018 IEM_DS3505
ZGKL,2008-08-04 10:00,ZGKL 041000Z AUTO 00000KT 5SM 30/25 A2965 RMK T03000250 IEM_DS3505
ZGKL,2008-08-04 11:00,ZGKL 041100Z AUTO 00000KT 5SM 29/26 A2965 RMK T02900260 IEM_DS3505
ZGKL,2008-08-04 12:00,ZGKL 041200Z AUTO 00000KT 5SM 29/25 A2968 RMK SLP051 T02880248 52015 IEM_DS3505
ZGKL,2008-08-04 13:00,ZGKL 041300Z AUTO 00000KT 3SM 27/26 A2971 RMK T02700260 IEM_DS3505
ZGKL,2008-08-04 14:00,ZGKL 041400Z AUTO 00000KT 4SM 26/25 A2971 RMK T02600250 IEM_DS3505
ZGKL,2008-08-04 15:00,ZGKL 041500Z AUTO 07002KT 5SM 27/25 A2971 RMK SLP057 T02720254 52006 IEM_DS3505
ZGKL,2008-08-04 16:00,ZGKL 041600Z AUTO 00000KT 3SM 26/25 A2971 RMK T02600250 IEM_DS3505
ZGKL,2008-08-04 17:00,ZGKL 041700Z AUTO 00000KT 2 1/2SM 26/25 A2971 RMK T02600250 IEM_DS3505
ZGKL,2008-08-04 18:00,ZGKL 041800Z AUTO 29002KT 5SM 26/25 A2968 RMK SLP048 T02620246 57008 IEM_DS3505
ZGKL,2008-08-04 19:00,ZGKL 041900Z AUTO 00000KT 1 1/2SM 25/25 A2968 RMK T02500250 IEM_DS3505
ZGKL,2008-08-04 20:00,ZGKL 042000Z AUTO 00000KT 1 1/2SM 25/25 A2968 RMK T02500250 IEM_DS3505
ZGKL,2008-08-04 21:00,ZGKL 042100Z AUTO 32004KT 5SM 26/25 A2968 RMK SLP042 T02550248 57006 IEM_DS3505
ZGKL,2008-08-04 22:00,ZGKL 042200Z AUTO 00000KT 2 1/2SM 24/24 A2965 RMK T02400240 IEM_DS3505
ZGKL,2008-08-04 23:00,ZGKL 042300Z AUTO 00000KT 2 1/2SM 25/25 A2968 RMK T02500250 IEM_DS3505
ZGKL,2008-08-05 00:00,ZGKL 050000Z AUTO 02004KT 5SM 27/24 A2968 RMK SLP049 T02720243 52007 IEM_DS3505
ZGKL,2008-08-05 01:00,ZGKL 050100Z AUTO 00000KT 3SM 28/25 A2968 RMK T02800250 IEM_DS3505
ZGKL,2008-08-05 02:00,ZGKL 050200Z AUTO 4SM 30/25 A2968 RMK T03000250 IEM_DS3505
ZGKL,2008-08-05 03:00,ZGKL 050300Z AUTO 02010KT 5SM 32/24 A2968 RMK SLP041 T03150236 57007 IEM_DS3505
ZGKL,2008-08-05 04:00,ZGKL 050400Z AUTO 5SM 33/25 A2965 RMK T03300250 IEM_DS3505
ZGKL,2008-08-05 05:00,ZGKL 050500Z AUTO 08008KT 7SM 34/25 A2962 RMK T03400250 IEM_DS3505
ZGKL,2008-08-05 06:00,ZGKL 050600Z AUTO 36008KT 7SM 35/23 A2959 RMK SLP016 T03480232 57024 IEM_DS3505
ZGKL,2008-08-05 07:00,ZGKL 050700Z AUTO 04008KT 7SM 35/22 A2956 RMK T03500220 IEM_DS3505
ZGKL,2008-08-05 08:00,ZGKL 050800Z AUTO 03008KT 7SM 35/21 A2953 RMK T03500210 IEM_DS3505
ZGKL,2008-08-05 09:00,ZGKL 050900Z AUTO 02006KT 9SM 34/23 A2953 RMK SLP993 T03380229 57023 IEM_DS3505
ZGKL,2008-08-05 10:00,ZGKL 051000Z AUTO 04010KT 6SM 29/22 A2953 RMK T02900220 IEM_DS3505
ZGKL,2008-08-05 11:00,ZGKL 051100Z AUTO 33008KT 6SM 28/23 A2953 RMK T02800230 IEM_DS3505
ZGKL,2008-08-05 12:00,ZGKL 051200Z AUTO 04002KT 7SM 30/24 A2956 RMK SLP004 T03020236 52010 IEM_DS3505
ZGKL,2008-08-05 13:00,ZGKL 051300Z AUTO 00000KT 6SM 26/24 A2959 RMK T02600240 IEM_DS3505
ZGKL,2008-08-05 14:00,ZGKL 051400Z AUTO 00000KT 6SM 26/24 A2959 RMK T02600240 IEM_DS3505
ZGKL,2008-08-05 15:00,ZGKL 051500Z AUTO 02006KT 7SM 30/23 A2959 RMK SLP016 T03020231 52013 IEM_DS3505
ZGKL,2008-08-05 16:00,ZGKL 051600Z AUTO 00000KT 6SM 25/24 A2959 RMK T02500240 IEM_DS3505
ZGKL,2008-08-05 17:00,ZGKL 051700Z AUTO 00000KT 6SM 25/24 A2956 RMK T02500240 IEM_DS3505
ZGKL,2008-08-05 18:00,ZGKL 051800Z AUTO 02008KT 7SM 29/22 A2956 RMK SLP002 T02870222 57013 IEM_DS3505
ZGKL,2008-08-05 19:00,ZGKL 051900Z AUTO 00000KT 5SM 25/24 A2956 RMK T02500240 IEM_DS3505
ZGKL,2008-08-05 20:00,ZGKL 052000Z AUTO 00000KT 4SM 25/24 A2953 RMK T02500240 IEM_DS3505
ZGKL,2008-08-05 21:00,ZGKL 052100Z AUTO 36004KT 7SM 28/22 A2956 RMK SLP000 T02800225 57002 IEM_DS3505
ZGKL,2008-08-05 22:00,ZGKL 052200Z AUTO 00000KT 4SM 24/24 A2956 RMK T02400240 IEM_DS3505
ZGKL,2008-08-05 23:00,ZGKL 052300Z AUTO 00000KT 4SM 25/24 A2956 RMK T02500240 IEM_DS3505
ZGKL,2008-08-06 00:00,ZGKL 060000Z AUTO 36008KT 8SM 28/23 A2956 RMK SLP003 T02800227 52002 IEM_DS3505
ZGKL,2008-08-06 01:00,ZGKL 060100Z AUTO 6SM 28/25 A2956 RMK T02800250 IEM_DS3505
ZGKL,2008-08-06 02:00,ZGKL 060200Z AUTO 03016KT 6SM 32/24 A2956 RMK T03200240 IEM_DS3505
ZGKL,2008-08-06 03:00,ZGKL 060300Z AUTO 02006KT 8SM 31/23 A2956 RMK SLP005 T03060233 52002 IEM_DS3505
ZGKL,2008-08-06 04:00,ZGKL 060400Z AUTO 04010KT 6SM 32/24 A2953 RMK T03200240 IEM_DS3505
ZGKL,2008-08-06 05:00,ZGKL 060500Z AUTO 05006KT 7SM 32/24 A2953 RMK T03200240 IEM_DS3505
ZGKL,2008-08-06 06:00,ZGKL 060600Z AUTO 04010KT 9SM 31/23 A2950 RMK SLP988 T03140230 57016 IEM_DS3505
ZGKL,2008-08-06 07:00,ZGKL 060700Z AUTO 06016KT 6SM 31/24 A2950 RMK T03100240 IEM_DS3505
ZGKL,2008-08-06 08:00,ZGKL 060800Z AUTO 04012KT 6SM 29/26 A2947 RMK T02900260 IEM_DS3505
ZGKL,2008-08-06 09:00,ZGKL 060900Z AUTO 02010KT 7SM 27/25 A2947 RMK SLP981 T02720247 57009 IEM_DS3505
ZGKL,2008-08-06 10:00,ZGKL 061000Z AUTO 03008KT 4SM 27/26 A2947 RMK T02700260 IEM_DS3505
ZGKL,2008-08-06 11:00,ZGKL 061100Z AUTO 36006KT 6SM 27/25 A2947 RMK T02700250 IEM_DS3505
ZGKL,2008-08-06 12:00,ZGKL 061200Z AUTO 36010KT 9SM 27/23 A2947 RMK 60008 SLP981 T02740232 54000 IEM_DS3505
ZGKL,2008-08-06 13:00,ZGKL 061300Z AUTO 7SM 27/25 A2950 RMK T02700250 IEM_DS3505
ZGKL,2008-08-06 14:00,ZGKL 061400Z AUTO 36006KT 7SM 26/25 A2953 RMK T02600250 IEM_DS3505
ZGKL,2008-08-06 15:00,ZGKL 061500Z AUTO 02014KT 9SM 28/23 A2950 RMK SLP990 T02770231 52010 IEM_DS3505
ZGKL,2008-08-06 16:00,ZGKL 061600Z AUTO 03008KT 7SM 27/24 A2950 RMK T02700240 IEM_DS3505
ZGKL,2008-08-06 17:00,ZGKL 061700Z AUTO 06004KT 7SM 27/24 A2950 RMK T02700240 IEM_DS3505
ZGKL,2008-08-06 18:00,ZGKL 061800Z AUTO 02008KT 9SM 27/23 A2947 RMK 60000 SLP982 T02720228 57008 IEM_DS3505
ZGKL,2008-08-06 19:00,ZGKL 061900Z AUTO 00000KT 7SM 27/24 A2947 RMK T02700240 IEM_DS3505
ZGKL,2008-08-06 20:00,ZGKL 062000Z AUTO 00000KT 7SM 27/24 A2947 RMK T02700240 IEM_DS3505
ZGKL,2008-08-06 21:00,ZGKL 062100Z AUTO 04004KT 7SM 27/22 A2950 RMK 70007 SLP988 T02730225 52005 IEM_DS3505
ZGKL,2008-08-06 22:00,ZGKL 062200Z AUTO 03017KT 7SM 27/24 A2950 RMK T02700240 IEM_DS3505
ZGKL,2008-08-06 23:00,ZGKL 062300Z AUTO 03014KT 7SM 27/23 A2950 RMK T02700230 IEM_DS3505
ZGKL,2008-08-07 00:00,ZGKL 070000Z AUTO 04004KT 9SM 27/23 A2953 RMK 70007 SLP999 T02680226 52011 IEM_DS3505
ZGKL,2008-08-07 01:00,ZGKL 070100Z AUTO 03012KT 7SM 28/23 A2953 RMK T02800230 IEM_DS3505
ZGKL,2008-08-07 02:00,ZGKL 070200Z AUTO 03012KT 7SM 28/23 A2956 RMK T02800230 IEM_DS3505
ZGKL,2008-08-07 03:00,ZGKL 070300Z AUTO 02010KT 9SM 28/22 A2956 RMK SLP012 T02760225 52013 IEM_DS3505
ZGKL,2008-08-07 04:00,ZGKL 070400Z AUTO 02010KT 7SM 27/23 A2956 RMK T02700230 IEM_DS3505
ZGKL,2008-08-07 05:00,ZGKL 070500Z AUTO 00000KT 7SM 27/23 A2956 RMK T02700230 IEM_DS3505
ZGKL,2008-08-07 06:00,ZGKL 070600Z AUTO 04004KT 8SM 27/23 A2956 RMK 60002 SLP013 T02710231 54000 IEM_DS3505
ZGKL,2008-08-07 07:00,ZGKL 070700Z AUTO 04006KT 7SM 27/24 A2956 RMK T02700240 IEM_DS3505
ZGKL,2008-08-07 08:00,ZGKL 070800Z AUTO 00000KT 7SM 27/24 A2956 RMK T02700240 IEM_DS3505
ZGKL,2008-08-07 09:00,ZGKL 070900Z AUTO 02004KT 10SM 28/23 A2956 RMK SLP008 T02760228 57004 IEM_DS3505
ZGKL,2008-08-07 10:00,ZGKL 071000Z AUTO 00000KT 7SM 27/24 A2956 RMK T02700240 IEM_DS3505
ZGKL,2008-08-07 11:00,ZGKL 071100Z AUTO 00000KT 7SM 27/23 A2959 RMK T02700230 IEM_DS3505
ZGKL,2008-08-07 12:00,ZGKL 071200Z AUTO 04002KT 11SM 26/23 A2959 RMK 60000 SLP024 T02620233 52015 IEM_DS3505
ZGKL,2008-08-07 13:00,ZGKL 071300Z AUTO 05008KT 7SM 26/24 A2962 RMK T02600240 IEM_DS3505
ZGKL,2008-08-07 14:00,ZGKL 071400Z AUTO 33004KT 7SM 25/24 A2962 RMK T02500240 IEM_DS3505
ZGKL,2008-08-07 15:00,ZGKL 071500Z AUTO 02004KT 10SM 26/23 A2962 RMK SLP035 T02590230 52011 IEM_DS3505
ZGKL,2008-08-07 16:00,ZGKL 071600Z AUTO 00000KT 7SM 25/24 A2962 RMK T02500240 IEM_DS3505
ZGKL,2008-08-07 17:00,ZGKL 071700Z AUTO 00000KT 6SM 25/24 A2962 RMK T02500240 IEM_DS3505
ZGKL,2008-08-07 18:00,ZGKL 071800Z AUTO 34002KT 8SM 26/23 A2962 RMK 60000 SLP030 T02620229 57005 IEM_DS3505
ZGKL,2008-08-07 19:00,ZGKL 071900Z AUTO 00000KT 4SM 25/24 A2962 RMK T02500240 IEM_DS3505
ZGKL,2008-08-07 20:00,ZGKL 072000Z AUTO 19002KT 3SM 25/24 A2962 RMK T02500240 IEM_DS3505
ZGKL,2008-08-07 21:00,ZGKL 072100Z AUTO 36002KT 8SM 26/23 A2965 RMK 70002 SLP033 T02580231 52003 IEM_DS3505
ZGKL,2008-08-07 22:00,ZGKL 072200Z AUTO 00000KT 3SM 25/24 A2965 RMK T02500240 IEM_DS3505
ZGKL,2008-08-07 23:00,ZGKL 072300Z AUTO 00000KT 3SM 25/24 A2965 RMK T02500240 IEM_DS3505
ZGKL,2008-08-08 00:00,ZGKL 080000Z AUTO 16002KT 9SM 27/24 A2965 RMK 70002 SLP040 T02680245 52006 IEM_DS3505
ZGKL,2008-08-08 01:00,ZGKL 080100Z AUTO 00000KT 7SM 29/24 A2968 RMK T02900240 IEM_DS3505
ZGKL,2008-08-08 02:00,ZGKL 080200Z AUTO 00000KT 7SM 30/25 A2968 RMK T03000250 IEM_DS3505
ZGKL,2008-08-08 03:00,ZGKL 080300Z AUTO 36004KT 11SM 31/23 A2968 RMK SLP046 T03100229 52007 IEM_DS3505
ZGKL,2008-08-08 04:00,ZGKL 080400Z AUTO 00000KT 7SM 31/25 A2968 RMK T03100250 IEM_DS3505
ZGKL,2008-08-08 05:00,ZGKL 080500Z AUTO 00000KT 7SM 31/24 A2965 RMK T03100240 IEM_DS3505
ZGKL,2008-08-08 06:00,ZGKL 080600Z AUTO 04004KT 12SM 33/22 A2965 RMK SLP027 T03310219 57017 IEM_DS3505
ZGKL,2008-08-08 07:00,ZGKL 080700Z AUTO 7SM 26/25 A2962 RMK T02600250 IEM_DS3505
ZGKL,2008-08-08 08:00,ZGKL 080800Z AUTO 24004KT 7SM 27/25 A2959 RMK T02700250 IEM_DS3505
ZGKL,2008-08-08 09:00,ZGKL 080900Z AUTO 16004KT 12SM 30/23 A2959 RMK SLP018 T02980233 57010 IEM_DS3505
ZGKL,2008-08-08 10:00,ZGKL 081000Z AUTO 00000KT 7SM 28/24 A2959 RMK T02800240 IEM_DS3505
ZGKL,2008-08-08 11:00,ZGKL 081100Z AUTO 00000KT 7SM 27/25 A2962 RMK T02700250 IEM_DS3505
ZGKL,2008-08-08 12:00,ZGKL 081200Z AUTO 29002KT 9SM 28/24 A2965 RMK 60000 SLP035 T02820240 52016 IEM_DS3505
ZGKL,2008-08-08 13:00,ZGKL 081300Z AUTO 00000KT 4SM 26/26 A2965 RMK T02600260 IEM_DS3505
ZGKL,2008-08-08 14:00,ZGKL 081400Z AUTO 00000KT 2 1/2SM 26/25 A2968 RMK T02600250 IEM_DS3505
ZGKL,2008-08-08 15:00,ZGKL 081500Z AUTO 16002KT 9SM 27/25 A2968 RMK SLP047 T02720248 52013 IEM_DS3505
ZGKL,2008-08-08 16:00,ZGKL 081600Z AUTO 00000KT 3SM 25/25 A2968 RMK T02500250 IEM_DS3505
ZGKL,2008-08-08 17:00,ZGKL 081700Z AUTO 00000KT 4SM 25/25 A2968 RMK T02500250 IEM_DS3505
ZGKL,2008-08-08 18:00,ZGKL 081800Z AUTO 14002KT 9SM 26/23 A2965 RMK SLP040 T02590228 57007 IEM_DS3505
ZGKL,2008-08-08 19:00,ZGKL 081900Z AUTO 00000KT 2SM 25/25 A2965 RMK T02500250 IEM_DS3505
ZGKL,2008-08-08 20:00,ZGKL 082000Z AUTO 00000KT 4SM 25/25 A2965 RMK T02500250 IEM_DS3505
ZGKL,2008-08-08 21:00,ZGKL 082100Z AUTO 09002KT 7SM 26/24 A2965 RMK 70000 SLP035 T02560237 57006 IEM_DS3505
ZGKL,2008-08-08 22:00,ZGKL 082200Z AUTO 00000KT 3SM 25/25 A2965 RMK T02500250 IEM_DS3505
ZGKL,2008-08-08 23:00,ZGKL 082300Z AUTO 00000KT 3SM 25/25 A2968 RMK T02500250 IEM_DS3505
ZGKL,2008-08-09 00:00,ZGKL 090000Z AUTO 00000KT 7SM 28/24 A2968 RMK 70000 SLP044 T02790235 52009 IEM_DS3505
ZGKL,2008-08-09 01:00,ZGKL 090100Z AUTO 00000KT 3SM 27/25 A2968 RMK T02700250 IEM_DS3505
ZGKL,2008-08-09 02:00,ZGKL 090200Z AUTO 00000KT 7SM 29/25 A2968 RMK T02900250 IEM_DS3505
ZGKL,2008-08-09 03:00,ZGKL 090300Z AUTO 18002KT 9SM 30/23 A2968 RMK SLP044 T03040231 52001 IEM_DS3505
ZGKL,2008-08-09 04:00,ZGKL 090400Z AUTO 00000KT 7SM 32/26 A2965 RMK T03200260 IEM_DS3505
ZGKL,2008-08-09 05:00,ZGKL 090500Z AUTO 00000KT 7SM 33/24 A2965 RMK T03300240 IEM_DS3505
ZGKL,2008-08-09 06:00,ZGKL 090600Z AUTO 04004KT 9SM 33/23 A2962 RMK SLP023 T03280234 57021 IEM_DS3505
ZGKL,2008-08-09 07:00,ZGKL 090700Z AUTO 00000KT 7SM 33/22 A2959 RMK T03300220 IEM_DS3505
ZGKL,2008-08-09 08:00,ZGKL 090800Z AUTO 00000KT 7SM 33/22 A2956 RMK T03300220 IEM_DS3505
ZGKL,2008-08-09 09:00,ZGKL 090900Z AUTO 07002KT 11SM 33/23 A2956 RMK SLP000 T03330233 57022 IEM_DS3505
ZGKL,2008-08-09 10:00,ZGKL 091000Z AUTO 00000KT 7SM 33/21 A2956 RMK T03300210 IEM_DS3505
ZGKL,2008-08-09 11:00,ZGKL 091100Z AUTO 00000KT 7SM 32/23 A2959 RMK T03200230 IEM_DS3505
ZGKL,2008-08-09 12:00,ZGKL 091200Z AUTO 36002KT 9SM 30/23 A2959 RMK 60008 SLP021 T03050232 52020 IEM_DS3505
ZGKL,2008-08-09 13:00,ZGKL 091300Z AUTO 00000KT 7SM 29/26 A2962 RMK T02900260 IEM_DS3505
ZGKL,2008-08-09 14:00,ZGKL 091400Z AUTO 00000KT 7SM 27/24 A2965 RMK T02700240 IEM_DS3505
ZGKL,2008-08-09 15:00,ZGKL 091500Z AUTO 04002KT 6SM 27/24 A2965 RMK SLP037 T02680239 52016 IEM_DS3505
ZGKL,2008-08-09 16:00,ZGKL 091600Z AUTO 00000KT 7SM 25/24 A2965 RMK T02500240 IEM_DS3505
ZGKL,2008-08-09 17:00,ZGKL 091700Z AUTO 00000KT 6SM 25/24 A2965 RMK T02500240 IEM_DS3505
ZGKL,2008-08-09 18:00,ZGKL 091800Z AUTO 04002KT 7SM 26/25 A2962 RMK 60008 SLP035 T02630247 57002 IEM_DS3505
ZGKL,2008-08-09 19:00,ZGKL 091900Z AUTO 00000KT 6SM 25/25 A2965 RMK T02500250 IEM_DS3505
ZGKL,2008-08-09 20:00,ZGKL 092000Z AUTO 00000KT 4SM 25/25 A2962 RMK T02500250 IEM_DS3505
ZGKL,2008-08-09 21:00,ZGKL 092100Z AUTO 22002KT 9SM 26/24 A2962 RMK 70013 SLP031 T02550243 57004 IEM_DS3505
ZGKL,2008-08-09 22:00,ZGKL 092200Z AUTO 00000KT 4SM 25/25 A2965 RMK T02500250 IEM_DS3505
ZGKL,2008-08-09 23:00,ZGKL 092300Z AUTO 00000KT 4SM 25/25 A2965 RMK T02500250 IEM_DS3505
ZGKL,2008-08-10 00:00,ZGKL 100000Z AUTO 04002KT 6SM 27/25 A2965 RMK 60000 70013 SLP037 T02690247 52006 IEM_DS3505
ZGKL,2008-08-10 01:00,ZGKL 100100Z AUTO 00000KT 3SM 29/25 A2965 RMK T02900250 IEM_DS3505
ZGKL,2008-08-10 02:00,ZGKL 100200Z AUTO 00000KT 3SM 30/25 A2968 RMK T03000250 IEM_DS3505
ZGKL,2008-08-10 03:00,ZGKL 100300Z AUTO 34004KT 6SM 32/24 A2965 RMK SLP039 T03150241 52002 IEM_DS3505
ZGKL,2008-08-10 04:00,ZGKL 100400Z AUTO 00000KT 4SM 32/26 A2965 RMK T03200260 IEM_DS3505
ZGKL,2008-08-10 05:00,ZGKL 100500Z AUTO 00000KT 4SM 34/25 A2962 RMK T03400250 IEM_DS3505
ZGKL,2008-08-10 06:00,ZGKL 100600Z AUTO 09006KT 7SM 35/23 A2959 RMK SLP013 T03490226 57025 IEM_DS3505
ZGKL,2008-08-10 07:00,ZGKL 100700Z AUTO 08006KT 5SM 35/23 A2956 RMK T03500230 IEM_DS3505
ZGKL,2008-08-10 08:00,ZGKL 100800Z AUTO 13006KT 5SM 31/23 A2956 RMK T03100230 IEM_DS3505
ZGKL,2008-08-10 09:00,ZGKL 100900Z AUTO 20004KT 9SM 32/23 A2956 RMK SLP000 T03170233 57014 IEM_DS3505
ZGKL,2008-08-10 10:00,ZGKL 101000Z AUTO 00000KT 4SM 29/25 A2956 RMK T02900250 IEM_DS3505
ZGKL,2008-08-10 11:00,ZGKL 101100Z AUTO 00000KT 5SM 29/25 A2959 RMK T02900250 IEM_DS3505
ZGKL,2008-08-10 12:00,ZGKL 101200Z AUTO 11004KT 9SM 29/23 A2962 RMK SLP027 T02890233 52026 IEM_DS3505
ZGKL,2008-08-10 13:00,ZGKL 101300Z AUTO 00000KT 3SM 27/25 A2965 RMK T02700250 IEM_DS3505
ZGKL,2008-08-10 14:00,ZGKL 101400Z AUTO 3SM 26/25 A2965 RMK T02600250 IEM_DS3505
ZGKL,2008-08-10 15:00,ZGKL 101500Z AUTO 36002KT 8SM 27/23 A2968 RMK SLP041 T02740228 52015 IEM_DS3505
ZGKL,2008-08-10 16:00,ZGKL 101600Z AUTO 00000KT 2 1/2SM 25/24 A2968 RMK T02500240 IEM_DS3505
ZGKL,2008-08-10 17:00,ZGKL 101700Z AUTO 00000KT 3SM 25/24 A2965 RMK T02500240 IEM_DS3505
ZGKL,2008-08-10 18:00,ZGKL 101800Z AUTO 14002KT 8SM 26/24 A2965 RMK SLP036 T02630245 57004 IEM_DS3505
ZGKL,2008-08-10 19:00,ZGKL 101900Z AUTO 00000KT 2 1/2SM 25/24 A2965 RMK T02500240 IEM_DS3505
ZGKL,2008-08-10 20:00,ZGKL 102000Z AUTO 00000KT 1 1/2SM 25/25 A2965 RMK T02500250 IEM_DS3505
ZGKL,2008-08-10 21:00,ZGKL 102100Z AUTO 07002KT 8SM 25/24 A2965 RMK SLP036 T02540244 57001 IEM_DS3505
ZGKL,2008-08-10 22:00,ZGKL 102200Z AUTO 00000KT 2SM 24/24 A2965 RMK T02400240 IEM_DS3505
ZGKL,2008-08-10 23:00,ZGKL 102300Z AUTO 26008KT 2SM 22/22 A2968 RMK T02200220 IEM_DS3505
ZGKL,2008-08-11 00:00,ZGKL 110000Z AUTO 29004KT 5SM 26/24 A2971 RMK SLP056 T02640244 52019 IEM_DS3505
ZGKL,2008-08-11 01:00,ZGKL 110100Z AUTO 12006KT 7SM 26/24 A2971 RMK T02600240 IEM_DS3505
ZGKL,2008-08-11 02:00,ZGKL 110200Z AUTO 00000KT 4SM 29/24 A2974 RMK T02900240 IEM_DS3505
ZGKL,2008-08-11 03:00,ZGKL 110300Z AUTO 36002KT 5SM 30/23 A2971 RMK SLP060 T03030232 52004 IEM_DS3505
ZGKL,2008-08-11 04:00,ZGKL 110400Z AUTO 00000KT 3SM 31/26 A2971 RMK T03100260 IEM_DS3505
ZGKL,2008-08-11 05:00,ZGKL 110500Z AUTO 00000KT 3SM 32/25 A2968 RMK T03200250 IEM_DS3505
ZGKL,2008-08-11 06:00,ZGKL 110600Z AUTO 16004KT 5SM 32/24 A2968 RMK SLP040 T03210236 57019 IEM_DS3505
ZGKL,2008-08-11 07:00,ZGKL 110700Z AUTO 00000KT 4SM 33/26 A2965 RMK T03300260 IEM_DS3505
ZGKL,2008-08-11 08:00,ZGKL 110800Z AUTO 00000KT 5SM 33/26 A2962 RMK T03300260 IEM_DS3505
ZGKL,2008-08-11 09:00,ZGKL 110900Z AUTO 14004KT 6SM 31/23 A2962 RMK SLP034 T03080227 57007 IEM_DS3505
ZGKL,2008-08-11 10:00,ZGKL 111000Z AUTO 06002KT 4SM 30/25 A2965 RMK T03000250 IEM_DS3505
ZGKL,2008-08-11 11:00,ZGKL 111100Z AUTO 00000KT 6SM 28/22 A2968 RMK T02800220 IEM_DS3505
ZGKL,2008-08-11 12:00,ZGKL 111200Z AUTO 14002KT 7SM 29/21 A2971 RMK 60004 SLP059 T02900210 52025 IEM_DS3505
ZGKL,2008-08-11 13:00,ZGKL 111300Z AUTO 15008KT 5SM 27/23 A2974 RMK T02700230 IEM_DS3505
ZGKL,2008-08-11 14:00,ZGKL 111400Z AUTO 00000KT 4SM 27/23 A2977 RMK T02700230 IEM_DS3505
ZGKL,2008-08-11 15:00,ZGKL 111500Z AUTO 18002KT 7SM 27/22 A2977 RMK SLP077 T02730218 52018 IEM_DS3505
ZGKL,2008-08-11 16:00,ZGKL 111600Z AUTO 00000KT 2 1/2SM 26/23 A2977 RMK T02600230 IEM_DS3505
ZGKL,2008-08-11 17:00,ZGKL 111700Z AUTO 00000KT 2 1/2SM 25/23 A2977 RMK T02500230 IEM_DS3505
ZGKL,2008-08-11 18:00,ZGKL 111800Z AUTO 14002KT 7SM 26/22 A2974 RMK SLP071 T02600223 57006 IEM_DS3505
ZGKL,2008-08-11 19:00,ZGKL 111900Z AUTO 00000KT 3SM 24/24 A2974 RMK T02400240 IEM_DS3505
ZGKL,2008-08-11 20:00,ZGKL 112000Z AUTO 00000KT 3SM 24/24 A2974 RMK T02400240 IEM_DS3505
ZGKL,2008-08-11 21:00,ZGKL 112100Z AUTO 27002KT 7SM 25/23 A2977 RMK 70004 SLP076 T02490231 52005 IEM_DS3505
ZGKL,2008-08-11 22:00,ZGKL 112200Z AUTO 00000KT 2 1/2SM 24/24 A2977 RMK T02400240 IEM_DS3505
ZGKL,2008-08-11 23:00,ZGKL 112300Z AUTO 00000KT 2 1/2SM 24/23 A2977 RMK T02400230 IEM_DS3505
ZGKL,2008-08-12 00:00,ZGKL 120000Z AUTO 07002KT 4SM 25/23 A2980 RMK 70004 SLP087 T02500231 52010 IEM_DS3505
ZGKL,2008-08-12 01:00,ZGKL 120100Z AUTO 00000KT 2 1/2SM 26/24 A2980 RMK T02600240 IEM_DS3505
ZGKL,2008-08-12 02:00,ZGKL 120200Z AUTO 00000KT 4SM 27/24 A2983 RMK T02700240 IEM_DS3505
ZGKL,2008-08-12 03:00,ZGKL 120300Z AUTO 34004KT 4SM 29/23 A2983 RMK SLP095 T02870227 52008 IEM_DS3505
ZGKL,2008-08-12 04:00,ZGKL 120400Z AUTO 00000KT 5SM 28/23 A2980 RMK T02800230 IEM_DS3505
ZGKL,2008-08-12 05:00,ZGKL 120500Z AUTO 00000KT 5SM 28/24 A2980 RMK T02800240 IEM_DS3505
ZGKL,2008-08-12 06:00,ZGKL 120600Z AUTO 32002KT 6SM 26/24 A2980 RMK 60051 SLP089 T02560242 57007 IEM_DS3505
ZGKL,2008-08-12 07:00,ZGKL 120700Z AUTO 06004KT 5SM 26/25 A2977 RMK T02600250 IEM_DS3505
ZGKL,2008-08-12 08:00,ZGKL 120800Z AUTO 00000KT 7SM 27/24 A2977 RMK T02700240 IEM_DS3505
ZGKL,2008-08-12 09:00,ZGKL 120900Z AUTO 36004KT 6SM 27/23 A2974 RMK SLP073 T02670234 57016 IEM_DS3505
ZGKL,2008-08-12 10:00,ZGKL 121000Z AUTO 00000KT 7SM 27/24 A2977 RMK T02700240 IEM_DS3505
ZGKL,2008-08-12 11:00,ZGKL 121100Z AUTO 00000KT 6SM 27/24 A2977 RMK T02700240 IEM_DS3505
ZGKL,2008-08-12 12:00,ZGKL 121200Z AUTO 04004KT 7SM 26/24 A2980 RMK 60008 SLP087 T02620237 52014 IEM_DS3505
ZGKL,2008-08-12 13:00,ZGKL 121300Z AUTO 00000KT 5SM 26/24 A2980 RMK T02600240 IEM_DS3505
ZGKL,2008-08-12 14:00,ZGKL 121400Z AUTO 00000KT 4SM 26/25 A2980 RMK T02600250 IEM_DS3505
ZGKL,2008-08-12 15:00,ZGKL 121500Z AUTO 07002KT 7SM 25/24 A2983 RMK SLP098 T02540245 52012 IEM_DS3505
ZGKL,2008-08-12 16:00,ZGKL 121600Z AUTO 00000KT 4SM 25/25 A2983 RMK T02500250 IEM_DS3505
ZGKL,2008-08-12 17:00,ZGKL 121700Z AUTO 00000KT 3SM 25/25 A2983 RMK T02500250 IEM_DS3505
ZGKL,2008-08-12 18:00,ZGKL 121800Z AUTO 04004KT 7SM 25/24 A2980 RMK 60001 SLP091 T02480243 57008 IEM_DS3505
ZGKL,2008-08-12 19:00,ZGKL 121900Z AUTO 00000KT 3SM 25/25 A2980 RMK T02500250 IEM_DS3505
ZGKL,2008-08-12 20:00,ZGKL 122000Z AUTO 00000KT 2SM 25/25 A2980 RMK T02500250 IEM_DS3505
ZGKL,2008-08-12 21:00,ZGKL 122100Z AUTO 00000KT 6SM 25/24 A2980 RMK 70060 SLP088 T02490242 57003 IEM_DS3505
ZGKL,2008-08-12 22:00,ZGKL 122200Z AUTO 00000KT 3SM 25/24 A2980 RMK T02500240 IEM_DS3505
ZGKL,2008-08-12 23:00,ZGKL 122300Z AUTO 00000KT 2 1/2SM 25/25 A2983 RMK T02500250 IEM_DS3505
ZGKL,2008-08-13 00:00,ZGKL 130000Z AUTO 02002KT 5SM 26/25 A2983 RMK 60003 70062 SLP099 T02610249 52011 IEM_DS3505
ZGKL,2008-08-13 01:00,ZGKL 130100Z AUTO 00000KT 2 1/2SM 27/25 A2983 RMK T02700250 IEM_DS3505
ZGKL,2008-08-13 02:00,ZGKL 130200Z AUTO 00000KT 3SM 28/25 A2985 RMK T02800250 IEM_DS3505
ZGKL,2008-08-13 03:00,ZGKL 130300Z AUTO 18004KT 7SM 29/24 A2983 RMK SLP101 T02910238 52003 IEM_DS3505
ZGKL,2008-08-13 04:00,ZGKL 130400Z AUTO 00000KT 4SM 30/25 A2983 RMK T03000250 IEM_DS3505
ZGKL,2008-08-13 05:00,ZGKL 130500Z AUTO 00000KT 4SM 30/25 A2980 RMK T03000250 IEM_DS3505
ZGKL,2008-08-13 06:00,ZGKL 130600Z AUTO 20006KT 14SM 32/22 A2977 RMK SLP082 T03200224 57018 IEM_DS3505
ZGKL,2008-08-13 07:00,ZGKL 130700Z AUTO 00000KT 7SM 33/23 A2977 RMK T03300230 IEM_DS3505
ZGKL,2008-08-13 08:00,ZGKL 130800Z AUTO 18010KT 7SM 32/24 A2974 RMK T03200240 IEM_DS3505
ZGKL,2008-08-13 09:00,ZGKL 130900Z AUTO 16006KT 15SM 32/23 A2974 RMK SLP063 T03180231 57019 IEM_DS3505
ZGKL,2008-08-13 10:00,ZGKL 131000Z AUTO 19012KT 7SM 32/24 A2971 RMK T03200240 IEM_DS3505
ZGKL,2008-08-13 11:00,ZGKL 131100Z AUTO 19008KT 7SM 29/24 A2971 RMK T02900240 IEM_DS3505
ZGKL,2008-08-13 12:00,ZGKL 131200Z AUTO 18002KT 12SM 30/24 A2974 RMK SLP062 T02960235 57001 IEM_DS3505
ZGKL,2008-08-13 13:00,ZGKL 131300Z AUTO 00000KT 6SM 27/25 A2974 RMK T02700250 IEM_DS3505
ZGKL,2008-08-13 14:00,ZGKL 131400Z AUTO 00000KT 6SM 27/25 A2974 RMK T02700250 IEM_DS3505
ZGKL,2008-08-13 15:00,ZGKL 131500Z AUTO 04002KT 12SM 28/24 A2977 RMK SLP073 T02770243 52011 IEM_DS3505
ZGKL,2008-08-13 16:00,ZGKL 131600Z AUTO 00000KT 7SM 26/25 A2974 RMK T02600250 IEM_DS3505
ZGKL,2008-08-13 17:00,ZGKL 131700Z AUTO 00000KT 7SM 26/25 A2974 RMK T02600250 IEM_DS3505
ZGKL,2008-08-13 18:00,ZGKL 131800Z AUTO 16002KT 11SM 27/25 A2974 RMK SLP061 T02720248 57011 IEM_DS3505
ZGKL,2008-08-13 19:00,ZGKL 131900Z AUTO 00000KT 5SM 26/24 A2974 RMK T02600240 IEM_DS3505
ZGKL,2008-08-13 20:00,ZGKL 132000Z AUTO 00000KT 6SM 26/24 A2971 RMK T02600240 IEM_DS3505
ZGKL,2008-08-13 21:00,ZGKL 132100Z AUTO 18004KT 9SM 27/24 A2971 RMK 70002 SLP059 T02730235 57002 IEM_DS3505
ZGKL,2008-08-13 22:00,ZGKL 132200Z AUTO 00000KT 7SM 26/24 A2974 RMK T02600240 IEM_DS3505
ZGKL,2008-08-13 23:00,ZGKL 132300Z AUTO 19008KT 7SM 26/24 A2974 RMK T02600240 IEM_DS3505
ZGKL,2008-08-14 00:00,ZGKL 140000Z AUTO 18006KT 11SM 28/22 A2974 RMK SLP070 T02840222 52010 IEM_DS3505
ZGKL,2008-08-14 01:00,ZGKL 140100Z AUTO 17010KT 7SM 29/25 A2977 RMK T02900250 IEM_DS3505
ZGKL,2008-08-14 02:00,ZGKL 140200Z AUTO 18012KT 7SM 29/24 A2974 RMK T02900240 IEM_DS3505
ZGKL,2008-08-14 03:00,ZGKL 140300Z AUTO 20010KT 14SM 30/21 A2974 RMK SLP067 T03050213 57003 IEM_DS3505
ZGKL,2008-08-14 04:00,ZGKL 140400Z AUTO 18012KT 7SM 30/24 A2974 RMK T03000240 IEM_DS3505
ZGKL,2008-08-14 05:00,ZGKL 140500Z AUTO 18008KT 7SM 31/24 A2971 RMK T03100240 IEM_DS3505
ZGKL,2008-08-14 06:00,ZGKL 140600Z AUTO 22004KT 14SM 32/22 A2968 RMK SLP050 T03180219 57016 IEM_DS3505
ZGKL,2008-08-14 07:00,ZGKL 140700Z AUTO 19010KT 7SM 32/24 A2968 RMK T03200240 IEM_DS3505
ZGKL,2008-08-14 08:00,ZGKL 140800Z AUTO 19010KT 7SM 32/24 A2965 RMK T03200240 IEM_DS3505
ZGKL,2008-08-14 09:00,ZGKL 140900Z AUTO 22006KT 12SM 33/22 A2962 RMK SLP027 T03270216 57022 IEM_DS3505
ZGKL,2008-08-14 10:00,ZGKL 141000Z AUTO 19008KT 7SM 30/24 A2962 RMK T03000240 IEM_DS3505
ZGKL,2008-08-14 11:00,ZGKL 141100Z AUTO 17004KT 7SM 29/25 A2962 RMK T02900250 IEM_DS3505
ZGKL,2008-08-14 12:00,ZGKL 141200Z AUTO 20004KT 10SM 30/22 A2962 RMK SLP028 T03040218 54000 IEM_DS3505
ZGKL,2008-08-14 13:00,ZGKL 141300Z AUTO 19002KT 7SM 27/24 A2965 RMK T02700240 IEM_DS3505
ZGKL,2008-08-14 14:00,ZGKL 141400Z AUTO 00000KT 4SM 26/25 A2965 RMK T02600250 IEM_DS3505
ZGKL,2008-08-14 15:00,ZGKL 141500Z AUTO 09002KT 10SM 28/22 A2968 RMK SLP041 T02790224 52013 IEM_DS3505
ZGKL,2008-08-14 16:00,ZGKL 141600Z AUTO 2 1/2SM 25/25 A2968 RMK T02500250 IEM_DS3505
ZGKL,2008-08-14 17:00,ZGKL 141700Z AUTO 00000KT 2 1/2SM 25/25 A2965 RMK T02500250 IEM_DS3505
ZGKL,2008-08-14 18:00,ZGKL 141800Z AUTO 18002KT 10SM 27/23 A2965 RMK SLP034 T02700230 57007 IEM_DS3505
ZGKL,2008-08-14 19:00,ZGKL 141900Z AUTO 29002KT 2SM 24/24 A2962 RMK T02400240 IEM_DS3505
ZGKL,2008-08-14 20:00,ZGKL 142000Z AUTO 3SM 25/24 A2962 RMK T02500240 IEM_DS3505
ZGKL,2008-08-14 21:00,ZGKL 142100Z AUTO 14002KT 10SM 26/23 A2962 RMK SLP027 T02630232 57007 IEM_DS3505
ZGKL,2008-08-14 22:00,ZGKL 142200Z AUTO 19006KT 4SM 26/25 A2962 RMK T02600250 IEM_DS3505
ZGKL,2008-08-14 23:00,ZGKL 142300Z AUTO 18008KT 7SM 26/25 A2965 RMK T02600250 IEM_DS3505
ZGKL,2008-08-15 00:00,ZGKL 150000Z AUTO 18004KT 9SM 28/23 A2965 RMK SLP033 T02760230 52006 IEM_DS3505
ZGKL,2008-08-15 01:00,ZGKL 150100Z AUTO 18014KT 7SM 29/24 A2965 RMK T02900240 IEM_DS3505
ZGKL,2008-08-15 02:00,ZGKL 150200Z AUTO 18014KT 7SM 30/24 A2965 RMK T03000240 IEM_DS3505
ZGKL,2008-08-15 03:00,ZGKL 150300Z AUTO 18004KT 11SM 30/22 A2965 RMK SLP030 T02990218 57003 IEM_DS3505
ZGKL,2008-08-15 04:00,ZGKL 150400Z AUTO 19014KT 7SM 29/24 A2962 RMK T02900240 IEM_DS3505
ZGKL,2008-08-15 05:00,ZGKL 150500Z AUTO 18012KT 7SM 29/24 A2962 RMK T02900240 IEM_DS3505
ZGKL,2008-08-15 06:00,ZGKL 150600Z AUTO 22006KT 12SM 31/22 A2959 RMK SLP011 T03140221 57018 IEM_DS3505
ZGKL,2008-08-15 07:00,ZGKL 150700Z AUTO 19012KT 7SM 31/25 A2956 RMK T03100250 IEM_DS3505
ZGKL,2008-08-15 08:00,ZGKL 150800Z AUTO 19010KT 7SM 30/25 A2953 RMK T03000250 IEM_DS3505
ZGKL,2008-08-15 09:00,ZGKL 150900Z AUTO 25006KT 12SM 31/22 A2953 RMK SLP998 T03080224 57014 IEM_DS3505
ZGKL,2008-08-15 10:00,ZGKL 151000Z AUTO 19006KT 7SM 30/25 A2953 RMK T03000250 IEM_DS3505
ZGKL,2008-08-15 11:00,ZGKL 151100Z AUTO 18006KT 7SM 29/25 A2953 RMK T02900250 IEM_DS3505
ZGKL,2008-08-15 12:00,ZGKL 151200Z AUTO 04002KT 10SM 29/24 A2956 RMK SLP005 T02920239 52007 IEM_DS3505
ZGKL,2008-08-15 13:00,ZGKL 151300Z AUTO 33002KT 5SM 28/26 A2956 RMK T02800260 IEM_DS3505
ZGKL,2008-08-15 14:00,ZGKL 151400Z AUTO 5SM 27/25 A2959 RMK T02700250 IEM_DS3505
ZGKL,2008-08-15 15:00,ZGKL 151500Z AUTO 00000KT 9SM 28/24 A2959 RMK SLP016 T02810237 52011 IEM_DS3505
ZGKL,2008-08-15 16:00,ZGKL 151600Z AUTO 4SM 27/26 A2959 RMK T02700260 IEM_DS3505
ZGKL,2008-08-15 17:00,ZGKL 151700Z AUTO 2 1/2SM 27/26 A2956 RMK T02700260 IEM_DS3505
ZGKL,2008-08-15 18:00,ZGKL 151800Z AUTO 18006KT 7SM 28/24 A2956 RMK SLP005 T02820236 57010 IEM_DS3505
ZGKL,2008-08-15 19:00,ZGKL 151900Z AUTO 18008KT 5SM 27/25 A2956 RMK T02700250 IEM_DS3505
ZGKL,2008-08-15 20:00,ZGKL 152000Z AUTO 17008KT 5SM 28/25 A2956 RMK T02800250 IEM_DS3505
ZGKL,2008-08-15 21:00,ZGKL 152100Z AUTO 18004KT 7SM 28/23 A2956 RMK SLP005 T02840233 54000 IEM_DS3505
ZGKL,2008-08-15 22:00,ZGKL 152200Z AUTO 16008KT 7SM 28/24 A2956 RMK T02800240 IEM_DS3505
ZGKL,2008-08-15 23:00,ZGKL 152300Z AUTO 16012KT 7SM 28/24 A2956 RMK T02800240 IEM_DS3505
ZGKL,2008-08-16 00:00,ZGKL 160000Z AUTO 18006KT 8SM 29/22 A2956 RMK SLP012 T02890224 52006 IEM_DS3505
ZGKL,2008-08-16 01:00,ZGKL 160100Z AUTO 18016KT 7SM 28/24 A2959 RMK T02800240 IEM_DS3505
ZGKL,2008-08-16 02:00,ZGKL 160200Z AUTO 19016KT 7SM 28/23 A2962 RMK T02800230 IEM_DS3505
ZGKL,2008-08-16 03:00,ZGKL 160300Z AUTO 25006KT 9SM 29/22 A2962 RMK SLP024 T02910223 52012 IEM_DS3505
ZGKL,2008-08-16 04:00,ZGKL 160400Z AUTO 19012KT 7SM 29/24 A2962 RMK T02900240 IEM_DS3505
ZGKL,2008-08-16 05:00,ZGKL 160500Z AUTO 19014KT 7SM 28/24 A2959 RMK T02800240 IEM_DS3505
ZGKL,2008-08-16 06:00,ZGKL 160600Z AUTO 25004KT 10SM 30/23 A2956 RMK SLP010 T03000227 57013 IEM_DS3505
ZGKL,2008-08-16 07:00,ZGKL 160700Z AUTO 18010KT 7SM 29/25 A2956 RMK T02900250 IEM_DS3505
ZGKL,2008-08-16 08:00,ZGKL 160800Z AUTO 21004KT 4SM 28/26 A2956 RMK T02800260 IEM_DS3505
ZGKL,2008-08-16 09:00,ZGKL 160900Z AUTO 34002KT 9SM 29/24 A2953 RMK SLP003 T02880241 57008 IEM_DS3505
ZGKL,2008-08-16 10:00,ZGKL 161000Z AUTO 15002KT 7SM 28/27 A2956 RMK T02800270 IEM_DS3505
ZGKL,2008-08-16 11:00,ZGKL 161100Z AUTO 3SM 27/26 A2956 RMK T02700260 IEM_DS3505
ZGKL,2008-08-16 12:00,ZGKL 161200Z AUTO 07002KT 6SM 27/26 A2956 RMK 60012 SLP010 T02700258 52007 IEM_DS3505
ZGKL,2008-08-16 13:00,ZGKL 161300Z AUTO 30004KT 2 1/2SM 26/26 A2959 RMK T02600260 IEM_DS3505
ZGKL,2008-08-16 14:00,ZGKL 161400Z AUTO 2SM 26/26 A2959 RMK T02600260 IEM_DS3505
ZGKL,2008-08-16 15:00,ZGKL 161500Z AUTO 04002KT 7SM 26/26 A2962 RMK SLP026 T02640259 52015 IEM_DS3505
ZGKL,2008-08-16 16:00,ZGKL 161600Z AUTO 3SM 26/26 A2962 RMK T02600260 IEM_DS3505
ZGKL,2008-08-16 17:00,ZGKL 161700Z AUTO 00000KT 3SM 26/26 A2962 RMK T02600260 IEM_DS3505
ZGKL,2008-08-16 18:00,ZGKL 161800Z AUTO 07002KT 6SM 26/26 A2959 RMK 60004 SLP022 T02580256 57003 IEM_DS3505
ZGKL,2008-08-16 19:00,ZGKL 161900Z AUTO 00000KT 2 1/2SM 26/25 A2959 RMK T02600250 IEM_DS3505
ZGKL,2008-08-16 20:00,ZGKL 162000Z AUTO 00000KT 1SM 26/25 A2959 RMK T02600250 IEM_DS3505
ZGKL,2008-08-16 21:00,ZGKL 162100Z AUTO 00000KT 5SM 26/26 A2962 RMK 70017 SLP024 T02590256 52001 IEM_DS3505
ZGKL,2008-08-16 22:00,ZGKL 162200Z AUTO 16004KT 1 1/2SM 26/26 A2962 RMK T02600260 IEM_DS3505
ZGKL,2008-08-16 23:00,ZGKL 162300Z AUTO 17006KT 5SM 26/25 A2965 RMK T02600250 IEM_DS3505
ZGKL,2008-08-17 00:00,ZGKL 170000Z AUTO 18004KT 7SM 27/25 A2965 RMK 60000 70017 SLP041 T02730248 52017 IEM_DS3505
ZGKL,2008-08-17 01:00,ZGKL 170100Z AUTO 20006KT 7SM 27/25 A2968 RMK T02700250 IEM_DS3505
ZGKL,2008-08-17 02:00,ZGKL 170200Z AUTO 7SM 27/25 A2968 RMK T02700250 IEM_DS3505
ZGKL,2008-08-17 03:00,ZGKL 170300Z AUTO 25006KT 8SM 28/24 A2971 RMK SLP054 T02790245 52013 IEM_DS3505
ZGKL,2008-08-17 04:00,ZGKL 170400Z AUTO 18010KT 7SM 27/25 A2971 RMK T02700250 IEM_DS3505
ZGKL,2008-08-17 05:00,ZGKL 170500Z AUTO 18010KT 7SM 28/24 A2971 RMK T02800240 IEM_DS3505
ZGKL,2008-08-17 06:00,ZGKL 170600Z AUTO 25006KT 11SM 28/21 A2971 RMK 60000 SLP058 T02830211 52003 IEM_DS3505
ZGKL,2008-08-17 07:00,ZGKL 170700Z AUTO 17010KT 7SM 28/24 A2971 RMK T02800240 IEM_DS3505
ZGKL,2008-08-17 08:00,ZGKL 170800Z AUTO 18008KT 7SM 26/25 A2971 RMK T02600250 IEM_DS3505
ZGKL,2008-08-17 09:00,ZGKL 170900Z AUTO 27002KT 11SM 28/22 A2968 RMK SLP045 T02760225 57013 IEM_DS3505
ZGKL,2008-08-17 10:00,ZGKL 171000Z AUTO 15006KT 7SM 26/25 A2968 RMK T02600250 IEM_DS3505
ZGKL,2008-08-17 11:00,ZGKL 171100Z AUTO 7SM 26/25 A2971 RMK T02600250 IEM_DS3505
ZGKL,2008-08-17 12:00,ZGKL 171200Z AUTO 32002KT 11SM 26/23 A2971 RMK SLP060 T02630230 52015 IEM_DS3505
ZGKL,2008-08-17 13:00,ZGKL 171300Z AUTO 03006KT 7SM 25/25 A2974 RMK T02500250 IEM_DS3505
ZGKL,2008-08-17 14:00,ZGKL 171400Z AUTO 32004KT 5SM 25/25 A2974 RMK T02500250 IEM_DS3505
ZGKL,2008-08-17 15:00,ZGKL 171500Z AUTO 36002KT 11SM 26/24 A2977 RMK SLP071 T02550237 52011 IEM_DS3505
ZGKL,2008-08-17 16:00,ZGKL 171600Z AUTO 22002KT 5SM 25/25 A2977 RMK T02500250 IEM_DS3505
ZGKL,2008-08-17 17:00,ZGKL 171700Z AUTO 5SM 25/25 A2977 RMK T02500250 IEM_DS3505
ZGKL,2008-08-17 18:00,ZGKL 171800Z AUTO 02002KT 8SM 25/24 A2974 RMK 60000 SLP071 T02530241 54000 IEM_DS3505
ZGKL,2008-08-17 19:00,ZGKL 171900Z AUTO 00000KT 4SM 24/24 A2974 RMK T02400240 IEM_DS3505
ZGKL,2008-08-17 20:00,ZGKL 172000Z AUTO 00000KT 2 1/2SM 24/24 A2974 RMK T02400240 IEM_DS3505
ZGKL,2008-08-17 21:00,ZGKL 172100Z AUTO 00000KT 9SM 24/24 A2974 RMK 70000 SLP073 T02450238 52001 IEM_DS3505
ZGKL,2008-08-17 22:00,ZGKL 172200Z AUTO 00000KT 4SM 24/24 A2977 RMK T02400240 IEM_DS3505
ZGKL,2008-08-17 23:00,ZGKL 172300Z AUTO 00000KT 4SM 24/24 A2977 RMK T02400240 IEM_DS3505
ZGKL,2008-08-18 00:00,ZGKL 180000Z AUTO 09002KT 7SM 26/24 A2980 RMK 60000 70000 SLP092 T02550241 52019 IEM_DS3505
ZGKL,2008-08-18 01:00,ZGKL 180100Z AUTO 4SM 26/25 A2980 RMK T02600250 IEM_DS3505
ZGKL,2008-08-18 02:00,ZGKL 180200Z AUTO 4SM 29/26 A2983 RMK T02900260 IEM_DS3505
ZGKL,2008-08-18 03:00,ZGKL 180300Z AUTO 16004KT 6SM 30/24 A2983 RMK SLP094 T03010243 52003 IEM_DS3505
ZGKL,2008-08-18 04:00,ZGKL 180400Z AUTO 20004KT 3SM 31/26 A2980 RMK T03100260 IEM_DS3505
ZGKL,2008-08-18 05:00,ZGKL 180500Z AUTO 10006KT 4SM 32/27 A2980 RMK T03200270 IEM_DS3505
ZGKL,2008-08-18 06:00,ZGKL 180600Z AUTO 25002KT 9SM 32/24 A2977 RMK SLP076 T03190237 57017 IEM_DS3505
ZGKL,2008-08-18 07:00,ZGKL 180700Z AUTO 4SM 34/25 A2974 RMK T03400250 IEM_DS3505
ZGKL,2008-08-18 08:00,ZGKL 180800Z AUTO 11004KT 7SM 33/25 A2974 RMK T03300250 IEM_DS3505
ZGKL,2008-08-18 09:00,ZGKL 180900Z AUTO 18004KT 14SM 34/22 A2971 RMK SLP058 T03370225 57017 IEM_DS3505
ZGKL,2008-08-18 10:00,ZGKL 181000Z AUTO 22004KT 7SM 29/25 A2974 RMK T02900250 IEM_DS3505
ZGKL,2008-08-18 11:00,ZGKL 181100Z AUTO 19004KT 7SM 28/26 A2974 RMK T02800260 IEM_DS3505
ZGKL,2008-08-18 12:00,ZGKL 181200Z AUTO 29002KT 11SM 30/23 A2977 RMK SLP074 T02950234 52014 IEM_DS3505
ZGKL,2008-08-18 13:00,ZGKL 181300Z AUTO 6SM 27/25 A2977 RMK T02700250 IEM_DS3505
ZGKL,2008-08-18 14:00,ZGKL 181400Z AUTO 00000KT 3SM 26/26 A2980 RMK T02600260 IEM_DS3505
ZGKL,2008-08-18 15:00,ZGKL 181500Z AUTO 29002KT 10SM 28/24 A2980 RMK SLP092 T02790241 52019 IEM_DS3505
ZGKL,2008-08-18 16:00,ZGKL 181600Z AUTO 27002KT 3SM 25/25 A2983 RMK T02500250 IEM_DS3505
ZGKL,2008-08-18 17:00,ZGKL 181700Z AUTO 2 1/2SM 25/25 A2983 RMK T02500250 IEM_DS3505
ZGKL,2008-08-18 18:00,ZGKL 181800Z AUTO 07002KT 9SM 26/24 A2980 RMK SLP092 T02650245 54000 IEM_DS3505
ZGKL,2008-08-18 19:00,ZGKL 181900Z AUTO 00000KT 2SM 24/24 A2980 RMK T02400240 IEM_DS3505
ZGKL,2008-08-18 20:00,ZGKL 182000Z AUTO 00000KT 2SM 24/24 A2980 RMK T02400240 IEM_DS3505
ZGKL,2008-08-18 21:00,ZGKL 182100Z AUTO 04002KT 9SM 25/24 A2980 RMK SLP090 T02520243 57002 IEM_DS3505
ZGKL,2008-08-18 22:00,ZGKL 182200Z AUTO 00000KT 2 1/2SM 24/24 A2980 RMK T02400240 IEM_DS3505
ZGKL,2008-08-18 23:00,ZGKL 182300Z AUTO 2SM 24/24 A2983 RMK T02400240 IEM_DS3505
ZGKL,2008-08-19 00:00,ZGKL 190000Z AUTO 36002KT 6SM 27/25 A2983 RMK SLP101 T02710246 52010 IEM_DS3505
ZGKL,2008-08-19 01:00,ZGKL 190100Z AUTO 2 1/2SM 28/26 A2985 RMK T02800260 IEM_DS3505
ZGKL,2008-08-19 02:00,ZGKL 190200Z AUTO 3SM 30/26 A2985 RMK T03000260 IEM_DS3505
ZGKL,2008-08-19 03:00,ZGKL 190300Z AUTO 20006KT 8SM 32/23 A2985 RMK SLP105 T03150231 52005 IEM_DS3505
ZGKL,2008-08-19 04:00,ZGKL 190400Z AUTO 4SM 32/26 A2985 RMK T03200260 IEM_DS3505
ZGKL,2008-08-19 05:00,ZGKL 190500Z AUTO 5SM 33/25 A2983 RMK T03300250 IEM_DS3505
ZGKL,2008-08-19 06:00,ZGKL 190600Z AUTO 20006KT 11SM 34/22 A2980 RMK SLP088 T03440221 57016 IEM_DS3505
ZGKL,2008-08-19 07:00,ZGKL 190700Z AUTO 15006KT 5SM 34/24 A2977 RMK T03400240 IEM_DS3505
ZGKL,2008-08-19 08:00,ZGKL 190800Z AUTO 12004KT 7SM 33/22 A2977 RMK T03300220 IEM_DS3505
ZGKL,2008-08-19 09:00,ZGKL 190900Z AUTO 18006KT 16SM 34/21 A2974 RMK SLP068 T03430214 57020 IEM_DS3505
ZGKL,2008-08-19 10:00,ZGKL 191000Z AUTO 16008KT 7SM 29/25 A2974 RMK T02900250 IEM_DS3505
ZGKL,2008-08-19 11:00,ZGKL 191100Z AUTO 19002KT 6SM 29/28 A2974 RMK T02900280 IEM_DS3505
ZGKL,2008-08-19 12:00,ZGKL 191200Z AUTO 20004KT 16SM 32/23 A2977 RMK SLP073 T03160229 52005 IEM_DS3505
ZGKL,2008-08-19 13:00,ZGKL 191300Z AUTO 30004KT 4SM 28/27 A2977 RMK T02800270 IEM_DS3505
ZGKL,2008-08-19 14:00,ZGKL 191400Z AUTO 3SM 27/26 A2980 RMK T02700260 IEM_DS3505
ZGKL,2008-08-19 15:00,ZGKL 191500Z AUTO 00000KT 14SM 29/24 A2980 RMK SLP085 T02870236 52012 IEM_DS3505
ZGKL,2008-08-19 16:00,ZGKL 191600Z AUTO 29002KT 3SM 26/26 A2980 RMK T02600260 IEM_DS3505
ZGKL,2008-08-19 17:00,ZGKL 191700Z AUTO 22002KT 1SM 26/25 A2980 RMK T02600250 IEM_DS3505
ZGKL,2008-08-19 18:00,ZGKL 191800Z AUTO 07002KT 14SM 27/24 A2980 RMK SLP082 T02680239 57003 IEM_DS3505
ZGKL,2008-08-19 19:00,ZGKL 191900Z AUTO 29002KT 1 1/2SM 25/25 A2977 RMK T02500250 IEM_DS3505
ZGKL,2008-08-19 20:00,ZGKL 192000Z AUTO 00000KT 1 1/2SM 25/25 A2977 RMK T02500250 IEM_DS3505
ZGKL,2008-08-19 21:00,ZGKL 192100Z AUTO 04002KT 11SM 26/24 A2977 RMK SLP078 T02550237 57004 IEM_DS3505
ZGKL,2008-08-19 22:00,ZGKL 192200Z AUTO 00000KT 2SM 24/24 A2977 RMK T02400240 IEM_DS3505
ZGKL,2008-08-19 23:00,ZGKL 192300Z AUTO 1 1/4SM 24/24 A2980 RMK T02400240 IEM_DS3505
ZGKL,2008-08-20 00:00,ZGKL 200000Z AUTO 04002KT 7SM 27/24 A2980 RMK SLP086 T02660243 52007 IEM_DS3505
ZGKL,2008-08-20 01:00,ZGKL 200100Z AUTO 17004KT 3SM 28/25 A2980 RMK T02800250 IEM_DS3505
ZGKL,2008-08-20 02:00,ZGKL 200200Z AUTO 17006KT 4SM 30/26 A2980 RMK T03000260 IEM_DS3505
ZGKL,2008-08-20 03:00,ZGKL 200300Z AUTO 25004KT 7SM 31/24 A2980 RMK SLP086 T03110237 52001 IEM_DS3505
ZGKL,2008-08-20 04:00,ZGKL 200400Z AUTO 17006KT 5SM 32/25 A2977 RMK T03200250 IEM_DS3505
ZGKL,2008-08-20 05:00,ZGKL 200500Z AUTO 14006KT 6SM 33/25 A2977 RMK T03300250 IEM_DS3505
ZGKL,2008-08-20 06:00,ZGKL 200600Z AUTO 27002KT 7SM 34/22 A2974 RMK SLP062 T03410222 57024 IEM_DS3505
ZGKL,2008-08-20 07:00,ZGKL 200700Z AUTO 20008KT 7SM 35/23 A2971 RMK T03500230 IEM_DS3505
ZGKL,2008-08-20 08:00,ZGKL 200800Z AUTO 18006KT 7SM 35/22 A2968 RMK T03500220 IEM_DS3505
ZGKL,2008-08-20 09:00,ZGKL 200900Z AUTO 25002KT 12SM 35/21 A2968 RMK SLP040 T03520211 57021 IEM_DS3505
ZGKL,2008-08-20 10:00,ZGKL 201000Z AUTO 20004KT 6SM 34/23 A2965 RMK T03400230 IEM_DS3505
ZGKL,2008-08-20 11:00,ZGKL 201100Z AUTO 20006KT 6SM 31/24 A2965 RMK T03100240 IEM_DS3505
ZGKL,2008-08-20 12:00,ZGKL 201200Z AUTO 25002KT 11SM 32/21 A2965 RMK SLP039 T03230212 57002 IEM_DS3505
ZGKL,2008-08-20 13:00,ZGKL 201300Z AUTO 00000KT 5SM 28/25 A2968 RMK T02800250 IEM_DS3505
ZGKL,2008-08-20 14:00,ZGKL 201400Z AUTO 28002KT 4SM 27/25 A2971 RMK T02700250 IEM_DS3505
ZGKL,2008-08-20 15:00,ZGKL 201500Z AUTO 04002KT 10SM 29/24 A2971 RMK SLP055 T02870238 52016 IEM_DS3505
ZGKL,2008-08-20 16:00,ZGKL 201600Z AUTO 00000KT 3SM 26/25 A2971 RMK T02600250 IEM_DS3505
ZGKL,2008-08-20 17:00,ZGKL 201700Z AUTO 30002KT 3SM 25/25 A2971 RMK T02500250 IEM_DS3505
ZGKL,2008-08-20 18:00,ZGKL 201800Z AUTO 04002KT 10SM 26/23 A2968 RMK SLP048 T02640231 57006 IEM_DS3505
ZGKL,2008-08-20 19:00,ZGKL 201900Z AUTO 00000KT 2SM 25/24 A2968 RMK T02500240 IEM_DS3505
ZGKL,2008-08-20 20:00,ZGKL 202000Z AUTO 00000KT 2 1/2SM 24/24 A2968 RMK T02400240 IEM_DS3505
ZGKL,2008-08-20 21:00,ZGKL 202100Z AUTO 07002KT 9SM 26/24 A2968 RMK SLP049 T02560237 52001 IEM_DS3505
ZGKL,2008-08-20 22:00,ZGKL 202200Z AUTO 31002KT 3SM 24/23 A2968 RMK T02400230 IEM_DS3505
ZGKL,2008-08-20 23:00,ZGKL 202300Z AUTO 00000KT 4SM 24/24 A2971 RMK T02400240 IEM_DS3505
ZGKL,2008-08-21 00:00,ZGKL 210000Z AUTO 07002KT 5SM 27/23 A2971 RMK SLP058 T02740234 52008 IEM_DS3505
ZGKL,2008-08-21 01:00,ZGKL 210100Z AUTO 00000KT 4SM 29/24 A2974 RMK T02900240 IEM_DS3505
ZGKL,2008-08-21 02:00,ZGKL 210200Z AUTO 21004KT 4SM 30/25 A2974 RMK T03000250 IEM_DS3505
ZGKL,2008-08-21 03:00,ZGKL 210300Z AUTO 25004KT 6SM 32/22 A2971 RMK SLP056 T03230224 57001 IEM_DS3505
ZGKL,2008-08-21 04:00,ZGKL 210400Z AUTO 16006KT 7SM 33/24 A2968 RMK T03300240 IEM_DS3505
ZGKL,2008-08-21 05:00,ZGKL 210500Z AUTO 17006KT 7SM 34/25 A2965 RMK T03400250 IEM_DS3505
ZGKL,2008-08-21 06:00,ZGKL 210600Z AUTO 25004KT 10SM 35/22 A2962 RMK SLP029 T03520222 57027 IEM_DS3505
ZGKL,2008-08-21 07:00,ZGKL 210700Z AUTO 17008KT 7SM 35/25 A2959 RMK T03500250 IEM_DS3505
ZGKL,2008-08-21 08:00,ZGKL 210800Z AUTO 18010KT 7SM 35/24 A2959 RMK T03500240 IEM_DS3505
ZGKL,2008-08-21 09:00,ZGKL 210900Z AUTO 25002KT 12SM 36/22 A2956 RMK SLP006 T03590217 57022 IEM_DS3505
ZGKL,2008-08-21 10:00,ZGKL 211000Z AUTO 19010KT 6SM 34/24 A2956 RMK T03400240 IEM_DS3505
ZGKL,2008-08-21 11:00,ZGKL 211100Z AUTO 18010KT 6SM 32/25 A2959 RMK T03200250 IEM_DS3505
ZGKL,2008-08-21 12:00,ZGKL 211200Z AUTO 22002KT 12SM 33/23 A2959 RMK SLP019 T03280226 52012 IEM_DS3505
ZGKL,2008-08-21 13:00,ZGKL 211300Z AUTO 19004KT 6SM 29/26 A2962 RMK T02900260 IEM_DS3505
ZGKL,2008-08-21 14:00,ZGKL 211400Z AUTO 30002KT 6SM 28/26 A2965 RMK T02800260 IEM_DS3505
ZGKL,2008-08-21 15:00,ZGKL 211500Z AUTO 07002KT 12SM 29/24 A2965 RMK SLP033 T02920241 52014 IEM_DS3505
ZGKL,2008-08-21 16:00,ZGKL 211600Z AUTO 6SM 27/26 A2962 RMK T02700260 IEM_DS3505
ZGKL,2008-08-21 17:00,ZGKL 211700Z AUTO 6SM 26/26 A2962 RMK T02600260 IEM_DS3505
ZGKL,2008-08-21 18:00,ZGKL 211800Z AUTO 07002KT 10SM 27/24 A2962 RMK SLP024 T02710242 57008 IEM_DS3505
ZGKL,2008-08-21 19:00,ZGKL 211900Z AUTO 32002KT 2 1/2SM 25/25 A2959 RMK T02500250 IEM_DS3505
ZGKL,2008-08-21 20:00,ZGKL 212000Z AUTO 3SM 25/25 A2959 RMK T02500250 IEM_DS3505
ZGKL,2008-08-21 21:00,ZGKL 212100Z AUTO 07002KT 9SM 26/24 A2962 RMK SLP023 T02610241 57002 IEM_DS3505
ZGKL,2008-08-21 22:00,ZGKL 212200Z AUTO 17004KT 7SM 24/24 A2962 RMK T02400240 IEM_DS3505
ZGKL,2008-08-21 23:00,ZGKL 212300Z AUTO 16002KT 4SM 25/25 A2962 RMK T02500250 IEM_DS3505
ZGKL,2008-08-22 00:00,ZGKL 220000Z AUTO 36002KT 5SM 28/25 A2965 RMK SLP032 T02750249 52009 IEM_DS3505
ZGKL,2008-08-22 01:00,ZGKL 220100Z AUTO 4SM 29/26 A2965 RMK T02900260 IEM_DS3505
ZGKL,2008-08-22 02:00,ZGKL 220200Z AUTO 4SM 31/26 A2965 RMK T03100260 IEM_DS3505
ZGKL,2008-08-22 03:00,ZGKL 220300Z AUTO 18002KT 5SM 32/24 A2962 RMK SLP024 T03210242 57008 IEM_DS3505
ZGKL,2008-08-22 04:00,ZGKL 220400Z AUTO 6SM 34/26 A2959 RMK T03400260 IEM_DS3505
ZGKL,2008-08-22 05:00,ZGKL 220500Z AUTO 7SM 35/24 A2959 RMK T03500240 IEM_DS3505
ZGKL,2008-08-22 06:00,ZGKL 220600Z AUTO 27002KT 8SM 36/23 A2956 RMK SLP004 T03640229 57019 IEM_DS3505
ZGKL,2008-08-22 07:00,ZGKL 220700Z AUTO 7SM 37/21 A2953 RMK T03700210 IEM_DS3505
ZGKL,2008-08-22 08:00,ZGKL 220800Z AUTO 20006KT 7SM 37/21 A2950 RMK T03700210 IEM_DS3505
ZGKL,2008-08-22 09:00,ZGKL 220900Z AUTO 34004KT 13SM 37/21 A2947 RMK SLP975 T03730214 57028 IEM_DS3505
ZGKL,2008-08-22 10:00,ZGKL 221000Z AUTO 32004KT 7SM 35/25 A2947 RMK T03500250 IEM_DS3505
ZGKL,2008-08-22 11:00,ZGKL 221100Z AUTO 7SM 31/24 A2950 RMK T03100240 IEM_DS3505
ZGKL,2008-08-22 12:00,ZGKL 221200Z AUTO 09002KT 12SM 32/23 A2950 RMK SLP989 T03220232 52012 IEM_DS3505
ZGKL,2008-08-22 13:00,ZGKL 221300Z AUTO 00000KT 5SM 30/26 A2953 RMK T03000260 IEM_DS3505
ZGKL,2008-08-22 14:00,ZGKL 221400Z AUTO 31004KT 3SM 29/27 A2956 RMK T02900270 IEM_DS3505
ZGKL,2008-08-22 15:00,ZGKL 221500Z AUTO 04008KT 12SM 32/23 A2956 RMK SLP009 T03170227 52021 IEM_DS3505
ZGKL,2008-08-22 16:00,ZGKL 221600Z AUTO 09004KT 3SM 29/26 A2956 RMK T02900260 IEM_DS3505
ZGKL,2008-08-22 17:00,ZGKL 221700Z AUTO 33004KT 3SM 28/26 A2959 RMK T02800260 IEM_DS3505
ZGKL,2008-08-22 18:00,ZGKL 221800Z AUTO 02010KT 11SM 30/24 A2956 RMK SLP006 T03010240 57002 IEM_DS3505
ZGKL,2008-08-22 19:00,ZGKL 221900Z AUTO 4SM 27/26 A2956 RMK T02700260 IEM_DS3505
ZGKL,2008-08-22 20:00,ZGKL 222000Z AUTO 00000KT 4SM 27/26 A2956 RMK T02700260 IEM_DS3505
ZGKL,2008-08-22 21:00,ZGKL 222100Z AUTO 02006KT 9SM 29/23 A2956 RMK SLP006 T02890229 54000 IEM_DS3505
ZGKL,2008-08-22 22:00,ZGKL 222200Z AUTO 2 1/2SM 28/25 A2956 RMK T02800250 IEM_DS3505
ZGKL,2008-08-22 23:00,ZGKL 222300Z AUTO 2 1/2SM 28/25 A2959 RMK T02800250 IEM_DS3505
ZGKL,2008-08-23 00:00,ZGKL 230000Z AUTO 02006KT 7SM 29/22 A2962 RMK SLP024 T02880221 52016 IEM_DS3505
ZGKL,2008-08-23 01:00,ZGKL 230100Z AUTO 04010KT 4SM 30/24 A2962 RMK T03000240 IEM_DS3505
ZGKL,2008-08-23 02:00,ZGKL 230200Z AUTO 06008KT 4SM 31/24 A2965 RMK T03100240 IEM_DS3505
ZGKL,2008-08-23 03:00,ZGKL 230300Z AUTO 02012KT 7SM 31/21 A2965 RMK SLP034 T03090214 52010 IEM_DS3505
ZGKL,2008-08-23 04:00,ZGKL 230400Z AUTO 06012KT 4SM 32/23 A2962 RMK T03200230 IEM_DS3505
ZGKL,2008-08-23 05:00,ZGKL 230500Z AUTO 06014KT 5SM 33/23 A2962 RMK T03300230 IEM_DS3505
ZGKL,2008-08-23 06:00,ZGKL 230600Z AUTO 02008KT 7SM 33/22 A2959 RMK SLP017 T03290224 57016 IEM_DS3505
ZGKL,2008-08-23 07:00,ZGKL 230700Z AUTO 07008KT 5SM 33/24 A2959 RMK T03300240 IEM_DS3505
ZGKL,2008-08-23 08:00,ZGKL 230800Z AUTO 06010KT 5SM 33/24 A2956 RMK T03300240 IEM_DS3505
ZGKL,2008-08-23 09:00,ZGKL 230900Z AUTO 02010KT 7SM 33/22 A2956 RMK SLP008 T03330215 57009 IEM_DS3505
ZGKL,2008-08-23 10:00,ZGKL 231000Z AUTO 04008KT 4SM 32/23 A2959 RMK T03200230 IEM_DS3505
ZGKL,2008-08-23 11:00,ZGKL 231100Z AUTO 05006KT 3SM 30/24 A2959 RMK T03000240 IEM_DS3505
ZGKL,2008-08-23 12:00,ZGKL 231200Z AUTO 36002KT 7SM 30/22 A2962 RMK SLP027 T02960221 52017 IEM_DS3505
ZGKL,2008-08-23 13:00,ZGKL 231300Z AUTO 3SM 28/24 A2965 RMK T02800240 IEM_DS3505
ZGKL,2008-08-23 14:00,ZGKL 231400Z AUTO 34006KT 3SM 29/24 A2965 RMK T02900240 IEM_DS3505
ZGKL,2008-08-23 15:00,ZGKL 231500Z AUTO 02004KT 7SM 29/22 A2968 RMK SLP044 T02870224 52017 IEM_DS3505
ZGKL,2008-08-23 16:00,ZGKL 231600Z AUTO 32002KT 2 1/2SM 28/25 A2968 RMK T02800250 IEM_DS3505
ZGKL,2008-08-23 17:00,ZGKL 231700Z AUTO 2 1/2SM 27/25 A2968 RMK T02700250 IEM_DS3505
ZGKL,2008-08-23 18:00,ZGKL 231800Z AUTO 14004KT 7SM 28/23 A2968 RMK SLP044 T02800227 52001 IEM_DS3505
ZGKL,2008-08-23 19:00,ZGKL 231900Z AUTO 13002KT 3SM 27/25 A2968 RMK T02700250 IEM_DS3505
ZGKL,2008-08-23 20:00,ZGKL 232000Z AUTO 12004KT 4SM 27/24 A2968 RMK T02700240 IEM_DS3505
ZGKL,2008-08-23 21:00,ZGKL 232100Z AUTO 18004KT 7SM 27/23 A2968 RMK SLP049 T02670232 52004 IEM_DS3505
ZGKL,2008-08-23 22:00,ZGKL 232200Z AUTO 11004KT 7SM 26/24 A2971 RMK T02600240 IEM_DS3505
ZGKL,2008-08-23 23:00,ZGKL 232300Z AUTO 11002KT 7SM 26/24 A2971 RMK T02600240 IEM_DS3505
ZGKL,2008-08-24 00:00,ZGKL 240000Z AUTO 02002KT 5SM 24/23 A2974 RMK 60031 70031 SLP073 T02410232 52022 IEM_DS3505
ZGKL,2008-08-24 01:00,ZGKL 240100Z AUTO 11004KT 2SM 24/24 A2977 RMK T02400240 IEM_DS3505
ZGKL,2008-08-24 02:00,ZGKL 240200Z AUTO 1 1/2SM 24/24 A2977 RMK T02400240 IEM_DS3505
ZGKL,2008-08-24 03:00,ZGKL 240300Z AUTO 09002KT 4SM 25/24 A2977 RMK SLP079 T02480238 52006 IEM_DS3505
ZGKL,2008-08-24 04:00,ZGKL 240400Z AUTO 21004KT 1 1/4SM 24/24 A2977 RMK T02400240 IEM_DS3505
ZGKL,2008-08-24 05:00,ZGKL 240500Z AUTO 22004KT 1 1/2SM 25/24 A2974 RMK T02500240 IEM_DS3505
ZGKL,2008-08-24 06:00,ZGKL 240600Z AUTO 18004KT 4SM 28/23 A2974 RMK 60008 SLP066 T02820231 57012 IEM_DS3505
ZGKL,2008-08-24 07:00,ZGKL 240700Z AUTO 2SM 26/24 A2974 RMK T02600240 IEM_DS3505
ZGKL,2008-08-24 08:00,ZGKL 240800Z AUTO 3SM 27/24 A2974 RMK T02700240 IEM_DS3505
ZGKL,2008-08-24 09:00,ZGKL 240900Z AUTO 20004KT 8SM 28/23 A2971 RMK SLP058 T02840231 57008 IEM_DS3505
ZGKL,2008-08-24 10:00,ZGKL 241000Z AUTO 19004KT 3SM 26/24 A2974 RMK T02600240 IEM_DS3505
ZGKL,2008-08-24 11:00,ZGKL 241100Z AUTO 19002KT 2 1/2SM 26/24 A2974 RMK T02600240 IEM_DS3505
ZGKL,2008-08-24 12:00,ZGKL 241200Z AUTO 20004KT 7SM 27/23 A2977 RMK SLP074 T02690227 52014 IEM_DS3505
ZGKL,2008-08-24 13:00,ZGKL 241300Z AUTO 00000KT 1 1/2SM 25/25 A2977 RMK T02500250 IEM_DS3505
ZGKL,2008-08-24 14:00,ZGKL 241400Z AUTO 1 1/2SM 25/25 A2980 RMK T02500250 IEM_DS3505
ZGKL,2008-08-24 15:00,ZGKL 241500Z AUTO 18006KT 7SM 26/23 A2980 RMK SLP091 T02610232 52017 IEM_DS3505
ZGKL,2008-08-24 16:00,ZGKL 241600Z AUTO 1SM 25/25 A2980 RMK T02500250 IEM_DS3505
ZGKL,2008-08-24 17:00,ZGKL 241700Z AUTO 10002KT 1 1/4SM 25/24 A2980 RMK T02500240 IEM_DS3505
ZGKL,2008-08-24 18:00,ZGKL 241800Z AUTO 16002KT 5SM 24/24 A2980 RMK 60008 SLP089 T02420240 57002 IEM_DS3505
ZGKL,2008-08-24 19:00,ZGKL 241900Z AUTO 1SM 24/24 A2977 RMK T02400240 IEM_DS3505
ZGKL,2008-08-24 20:00,ZGKL 242000Z AUTO 09002KT 7SM 24/24 A2977 RMK T02400240 IEM_DS3505
ZGKL,2008-08-24 21:00,ZGKL 242100Z AUTO 02004KT 7SM 24/24 A2977 RMK 70050 SLP080 T02440239 57008 IEM_DS3505
ZGKL,2008-08-24 22:00,ZGKL 242200Z AUTO 5SM 24/24 A2980 RMK T02400240 IEM_DS3505
ZGKL,2008-08-24 23:00,ZGKL 242300Z AUTO 33002KT 4SM 24/24 A2980 RMK T02400240 IEM_DS3505
ZGKL,2008-08-25 00:00,ZGKL 250000Z AUTO 07002KT 9SM 25/24 A2980 RMK 60004 70019 SLP095 T02470242 52014 IEM_DS3505
ZGKL,2008-08-25 01:00,ZGKL 250100Z AUTO 2 1/2SM 26/25 A2983 RMK T02600250 IEM_DS3505
ZGKL,2008-08-25 02:00,ZGKL 250200Z AUTO 4SM 26/25 A2983 RMK T02600250 IEM_DS3505
ZGKL,2008-08-25 03:00,ZGKL 250300Z AUTO 29004KT 7SM 28/25 A2985 RMK SLP103 T02810247 52009 IEM_DS3505
ZGKL,2008-08-25 04:00,ZGKL 250400Z AUTO 7SM 29/25 A2983 RMK T02900250 IEM_DS3505
ZGKL,2008-08-25 05:00,ZGKL 250500Z AUTO 14004KT 7SM 28/24 A2983 RMK T02800240 IEM_DS3505
ZGKL,2008-08-25 06:00,ZGKL 250600Z AUTO 18004KT 6SM 27/25 A2980 RMK 60008 SLP090 T02730248 57014 IEM_DS3505
ZGKL,2008-08-25 07:00,ZGKL 250700Z AUTO 12004KT 5SM 28/24 A2977 RMK T02800240 IEM_DS3505
ZGKL,2008-08-25 08:00,ZGKL 250800Z AUTO 15004KT 7SM 29/25 A2977 RMK T02900250 IEM_DS3505
ZGKL,2008-08-25 09:00,ZGKL 250900Z AUTO 04002KT 9SM 28/23 A2977 RMK SLP076 T02770229 57014 IEM_DS3505
ZGKL,2008-08-25 10:00,ZGKL 251000Z AUTO 7SM 28/25 A2977 RMK T02800250 IEM_DS3505
ZGKL,2008-08-25 11:00,ZGKL 251100Z AUTO 13006KT 7SM 27/25 A2977 RMK T02700250 IEM_DS3505
ZGKL,2008-08-25 12:00,ZGKL 251200Z AUTO 14002KT 9SM 27/24 A2980 RMK SLP089 T02710240 52013 IEM_DS3505
ZGKL,2008-08-25 13:00,ZGKL 251300Z AUTO 7SM 25/25 A2983 RMK T02500250 IEM_DS3505
ZGKL,2008-08-25 14:00,ZGKL 251400Z AUTO 34004KT 7SM 25/25 A2983 RMK T02500250 IEM_DS3505
ZGKL,2008-08-25 15:00,ZGKL 251500Z AUTO 04002KT 8SM 26/25 A2983 RMK SLP097 T02570248 52009 IEM_DS3505
ZGKL,2008-08-25 16:00,ZGKL 251600Z AUTO 00000KT 7SM 25/24 A2983 RMK T02500240 IEM_DS3505
ZGKL,2008-08-25 17:00,ZGKL 251700Z AUTO 17002KT 7SM 25/25 A2980 RMK T02500250 IEM_DS3505
ZGKL,2008-08-25 18:00,ZGKL 251800Z AUTO 11002KT 6SM 25/25 A2980 RMK 60012 SLP092 T02520250 57006 IEM_DS3505
ZGKL,2008-08-25 19:00,ZGKL 251900Z AUTO 00000KT 2 1/2SM 25/25 A2980 RMK T02500250 IEM_DS3505
ZGKL,2008-08-25 20:00,ZGKL 252000Z AUTO 00000KT 3SM 25/25 A2980 RMK T02500250 IEM_DS3505
ZGKL,2008-08-25 21:00,ZGKL 252100Z AUTO 04002KT 5SM 25/24 A2980 RMK 70030 SLP088 T02470244 57004 IEM_DS3505
ZGKL,2008-08-25 22:00,ZGKL 252200Z AUTO 27002KT 5SM 25/25 A2980 RMK T02500250 IEM_DS3505
ZGKL,2008-08-25 23:00,ZGKL 252300Z AUTO 17004KT 4SM 25/25 A2980 RMK T02500250 IEM_DS3505
ZGKL,2008-08-26 00:00,ZGKL 260000Z AUTO 20002KT 4SM 24/24 A2983 RMK 60102 70119 SLP098 T02390237 52010 IEM_DS3505
ZGKL,2008-08-26 01:00,ZGKL 260100Z AUTO 2 1/2SM 24/23 A2983 RMK T02400230 IEM_DS3505
ZGKL,2008-08-26 02:00,ZGKL 260200Z AUTO 10004KT 4SM 24/24 A2985 RMK T02400240 IEM_DS3505
ZGKL,2008-08-26 03:00,ZGKL 260300Z AUTO 14002KT 4SM 24/24 A2985 RMK SLP111 T02400237 52012 IEM_DS3505
ZGKL,2008-08-26 04:00,ZGKL 260400Z AUTO 5SM 25/25 A2983 RMK T02500250 IEM_DS3505
ZGKL,2008-08-26 05:00,ZGKL 260500Z AUTO 5SM 27/25 A2980 RMK T02700250 IEM_DS3505
ZGKL,2008-08-26 06:00,ZGKL 260600Z AUTO 02002KT 6SM 26/24 A2977 RMK 60067 SLP088 T02640241 57022 IEM_DS3505
ZGKL,2008-08-26 07:00,ZGKL 260700Z AUTO 6SM 28/25 A2977 RMK T02800250 IEM_DS3505
ZGKL,2008-08-26 08:00,ZGKL 260800Z AUTO 04006KT 6SM 28/25 A2977 RMK T02800250 IEM_DS3505
ZGKL,2008-08-26 09:00,ZGKL 260900Z AUTO 02004KT 7SM 27/24 A2977 RMK SLP076 T02660244 57012 IEM_DS3505
ZGKL,2008-08-26 10:00,ZGKL 261000Z AUTO 04006KT 2 1/2SM 27/25 A2977 RMK T02700250 IEM_DS3505
ZGKL,2008-08-26 11:00,ZGKL 261100Z AUTO 3SM 26/25 A2977 RMK T02600250 IEM_DS3505
ZGKL,2008-08-26 12:00,ZGKL 261200Z AUTO 02004KT 7SM 26/24 A2980 RMK SLP088 T02580242 52011 IEM_DS3505
ZGKL,2008-08-26 13:00,ZGKL 261300Z AUTO 29002KT 3SM 26/25 A2983 RMK T02600250 IEM_DS3505
ZGKL,2008-08-26 14:00,ZGKL 261400Z AUTO 32002KT 3SM 25/25 A2983 RMK T02500250 IEM_DS3505
ZGKL,2008-08-26 15:00,ZGKL 261500Z AUTO 02004KT 6SM 25/24 A2983 RMK SLP098 T02530239 52010 IEM_DS3505
ZGKL,2008-08-26 16:00,ZGKL 261600Z AUTO 3SM 25/25 A2983 RMK T02500250 IEM_DS3505
ZGKL,2008-08-26 17:00,ZGKL 261700Z AUTO 27002KT 2SM 25/25 A2983 RMK T02500250 IEM_DS3505
ZGKL,2008-08-26 18:00,ZGKL 261800Z AUTO 32002KT 7SM 25/23 A2980 RMK SLP094 T02480234 57003 IEM_DS3505
ZGKL,2008-08-26 19:00,ZGKL 261900Z AUTO 27002KT 1 1/2SM 25/25 A2980 RMK T02500250 IEM_DS3505
ZGKL,2008-08-26 20:00,ZGKL 262000Z AUTO 2SM 25/24 A2977 RMK T02500240 IEM_DS3505
ZGKL,2008-08-26 21:00,ZGKL 262100Z AUTO 36002KT 7SM 24/23 A2980 RMK 70155 SLP085 T02410229 57009 IEM_DS3505
ZGKL,2008-08-26 22:00,ZGKL 262200Z AUTO 2SM 24/24 A2980 RMK T02400240 IEM_DS3505
ZGKL,2008-08-26 23:00,ZGKL 262300Z AUTO 2 1/2SM 24/24 A2983 RMK T02400240 IEM_DS3505
ZGKL,2008-08-27 00:00,ZGKL 270000Z AUTO 27004KT 4SM 24/23 A2983 RMK 60016 70080 SLP105 T02420233 52019 IEM_DS3505
ZGKL,2008-08-27 01:00,ZGKL 270100Z AUTO 1 1/4SM 24/24 A2985 RMK T02400240 IEM_DS3505
ZGKL,2008-08-27 02:00,ZGKL 270200Z AUTO 10004KT 1 1/2SM 25/24 A2985 RMK T02500240 IEM_DS3505
ZGKL,2008-08-27 03:00,ZGKL 270300Z AUTO 36002KT 6SM 26/24 A2985 RMK SLP111 T02570243 52006 IEM_DS3505
ZGKL,2008-08-27 04:00,ZGKL 270400Z AUTO 3SM 29/26 A2983 RMK T02900260 IEM_DS3505
ZGKL,2008-08-27 05:00,ZGKL 270500Z AUTO 25004KT 4SM 30/25 A2980 RMK T03000250 IEM_DS3505
ZGKL,2008-08-27 06:00,ZGKL 270600Z AUTO 29004KT 6SM 31/24 A2977 RMK 60020 SLP082 T03070241 57027 IEM_DS3505
ZGKL,2008-08-27 07:00,ZGKL 270700Z AUTO 4SM 32/25 A2974 RMK T03200250 IEM_DS3505
ZGKL,2008-08-27 08:00,ZGKL 270800Z AUTO 26004KT 6SM 32/24 A2971 RMK T03200240 IEM_DS3505
ZGKL,2008-08-27 09:00,ZGKL 270900Z AUTO 02004KT 9SM 31/24 A2971 RMK SLP059 T03080240 57022 IEM_DS3505
ZGKL,2008-08-27 10:00,ZGKL 271000Z AUTO 7SM 29/27 A2974 RMK T02900270 IEM_DS3505
ZGKL,2008-08-27 11:00,ZGKL 271100Z AUTO 6SM 29/26 A2977 RMK T02900260 IEM_DS3505
ZGKL,2008-08-27 12:00,ZGKL 271200Z AUTO 04004KT 5SM 26/23 A2977 RMK SLP085 T02630232 52024 IEM_DS3505
ZGKL,2008-08-27 13:00,ZGKL 271300Z AUTO 31004KT 6SM 25/24 A2980 RMK T02500240 IEM_DS3505
ZGKL,2008-08-27 14:00,ZGKL 271400Z AUTO 33004KT 4SM 25/24 A2983 RMK T02500240 IEM_DS3505
ZGKL,2008-08-27 15:00,ZGKL 271500Z AUTO 04002KT 5SM 26/24 A2983 RMK SLP101 T02550237 52016 IEM_DS3505
ZGKL,2008-08-27 16:00,ZGKL 271600Z AUTO 07004KT 3SM 25/24 A2983 RMK T02500240 IEM_DS3505
ZGKL,2008-08-27 17:00,ZGKL 271700Z AUTO 30004KT 2 1/2SM 25/25 A2983 RMK T02500250 IEM_DS3505
ZGKL,2008-08-27 18:00,ZGKL 271800Z AUTO 04002KT 5SM 25/24 A2980 RMK 60000 SLP091 T02470238 57009 IEM_DS3505
ZGKL,2008-08-27 19:00,ZGKL 271900Z AUTO 00000KT 4SM 24/24 A2980 RMK T02400240 IEM_DS3505
ZGKL,2008-08-27 20:00,ZGKL 272000Z AUTO 00000KT 2 1/2SM 24/24 A2980 RMK T02400240 IEM_DS3505
ZGKL,2008-08-27 21:00,ZGKL 272100Z AUTO 07002KT 6SM 24/24 A2980 RMK 70032 SLP084 T02450240 57007 IEM_DS3505
ZGKL,2008-08-27 22:00,ZGKL 272200Z AUTO 00000KT 3SM 24/24 A2980 RMK T02400240 IEM_DS3505
ZGKL,2008-08-27 23:00,ZGKL 272300Z AUTO 1SM 24/24 A2980 RMK T02400240 IEM_DS3505
ZGKL,2008-08-28 00:00,ZGKL 280000Z AUTO 14002KT 5SM 26/25 A2983 RMK 70018 SLP094 T02600246 52009 IEM_DS3505
ZGKL,2008-08-28 01:00,ZGKL 280100Z AUTO 2SM 26/25 A2983 RMK T02600250 IEM_DS3505
ZGKL,2008-08-28 02:00,ZGKL 280200Z AUTO 19008KT 4SM 29/25 A2983 RMK T02900250 IEM_DS3505
ZGKL,2008-08-28 03:00,ZGKL 280300Z AUTO 20006KT 7SM 30/22 A2983 RMK SLP095 T03020221 52002 IEM_DS3505
ZGKL,2008-08-28 04:00,ZGKL 280400Z AUTO 18014KT 7SM 31/23 A2980 RMK T03100230 IEM_DS3505
ZGKL,2008-08-28 05:00,ZGKL 280500Z AUTO 17016KT 7SM 32/24 A2977 RMK T03200240 IEM_DS3505
ZGKL,2008-08-28 06:00,ZGKL 280600Z AUTO 20006KT 16SM 32/20 A2974 RMK SLP070 T03220205 57024 IEM_DS3505
ZGKL,2008-08-28 07:00,ZGKL 280700Z AUTO 18014KT 7SM 33/23 A2974 RMK T03300230 IEM_DS3505
ZGKL,2008-08-28 08:00,ZGKL 280800Z AUTO 18014KT 7SM 32/22 A2971 RMK T03200220 IEM_DS3505
ZGKL,2008-08-28 09:00,ZGKL 280900Z AUTO 25006KT 19SM 33/20 A2968 RMK SLP047 T03310199 57022 IEM_DS3505
ZGKL,2008-08-28 10:00,ZGKL 281000Z AUTO 19010KT 6SM 31/22 A2968 RMK T03100220 IEM_DS3505
ZGKL,2008-08-28 11:00,ZGKL 281100Z AUTO 19006KT 6SM 28/24 A2968 RMK T02800240 IEM_DS3505
ZGKL,2008-08-28 12:00,ZGKL 281200Z AUTO 14004KT 19SM 30/21 A2971 RMK SLP053 T02950212 52005 IEM_DS3505
ZGKL,2008-08-28 13:00,ZGKL 281300Z AUTO 25004KT 6SM 26/24 A2974 RMK T02600240 IEM_DS3505
ZGKL,2008-08-28 14:00,ZGKL 281400Z AUTO 6SM 26/24 A2974 RMK T02600240 IEM_DS3505
ZGKL,2008-08-28 15:00,ZGKL 281500Z AUTO 36002KT 16SM 27/22 A2977 RMK SLP073 T02710221 52020 IEM_DS3505
ZGKL,2008-08-28 16:00,ZGKL 281600Z AUTO 31002KT 4SM 25/25 A2977 RMK T02500250 IEM_DS3505
ZGKL,2008-08-28 17:00,ZGKL 281700Z AUTO 00000KT 4SM 25/25 A2974 RMK T02500250 IEM_DS3505
ZGKL,2008-08-28 18:00,ZGKL 281800Z AUTO 00000KT 12SM 26/22 A2974 RMK SLP064 T02580217 57009 IEM_DS3505
ZGKL,2008-08-28 19:00,ZGKL 281900Z AUTO 3SM 24/24 A2971 RMK T02400240 IEM_DS3505
ZGKL,2008-08-28 20:00,ZGKL 282000Z AUTO 17004KT 3SM 24/24 A2971 RMK T02400240 IEM_DS3505
ZGKL,2008-08-28 21:00,ZGKL 282100Z AUTO 34002KT 10SM 26/23 A2971 RMK SLP059 T02560229 57004 IEM_DS3505
ZGKL,2008-08-28 22:00,ZGKL 282200Z AUTO 16004KT 3SM 25/24 A2974 RMK T02500240 IEM_DS3505
ZGKL,2008-08-28 23:00,ZGKL 282300Z AUTO 16010KT 4SM 26/24 A2974 RMK T02600240 IEM_DS3505
ZGKL,2008-08-29 00:00,ZGKL 290000Z AUTO 11002KT 10SM 26/24 A2977 RMK SLP074 T02650240 52014 IEM_DS3505
ZGKL,2008-08-29 01:00,ZGKL 290100Z AUTO 18014KT 7SM 28/24 A2977 RMK T02800240 IEM_DS3505
ZGKL,2008-08-29 02:00,ZGKL 290200Z AUTO 18016KT 7SM 30/24 A2977 RMK T03000240 IEM_DS3505
ZGKL,2008-08-29 03:00,ZGKL 290300Z AUTO 18004KT 11SM 30/22 A2977 RMK SLP078 T03030222 52004 IEM_DS3505
ZGKL,2008-08-29 04:00,ZGKL 290400Z AUTO 18016KT 7SM 32/23 A2974 RMK T03200230 IEM_DS3505
ZGKL,2008-08-29 05:00,ZGKL 290500Z AUTO 19014KT 7SM 32/23 A2974 RMK T03200230 IEM_DS3505
ZGKL,2008-08-29 06:00,ZGKL 290600Z AUTO 20006KT 16SM 33/21 A2971 RMK SLP052 T03280213 57025 IEM_DS3505
ZGKL,2008-08-29 07:00,ZGKL 290700Z AUTO 20010KT 7SM 33/22 A2968 RMK T03300220 IEM_DS3505
ZGKL,2008-08-29 08:00,ZGKL 290800Z AUTO 19012KT 7SM 33/22 A2968 RMK T03300220 IEM_DS3505
ZGKL,2008-08-29 09:00,ZGKL 290900Z AUTO 25008KT 16SM 33/20 A2968 RMK SLP040 T03260205 57012 IEM_DS3505
ZGKL,2008-08-29 10:00,ZGKL 291000Z AUTO 19008KT 7SM 31/23 A2965 RMK T03100230 IEM_DS3505
ZGKL,2008-08-29 11:00,ZGKL 291100Z AUTO 17008KT 7SM 30/24 A2965 RMK T03000240 IEM_DS3505
ZGKL,2008-08-29 12:00,ZGKL 291200Z AUTO 14002KT 15SM 30/22 A2968 RMK SLP048 T03040220 52007 IEM_DS3505
ZGKL,2008-08-29 13:00,ZGKL 291300Z AUTO 00000KT 6SM 27/25 A2971 RMK T02700250 IEM_DS3505
ZGKL,2008-08-29 14:00,ZGKL 291400Z AUTO 30002KT 6SM 26/25 A2974 RMK T02600250 IEM_DS3505
ZGKL,2008-08-29 15:00,ZGKL 291500Z AUTO 11002KT 15SM 27/23 A2974 RMK SLP063 T02740232 52015 IEM_DS3505
ZGKL,2008-08-29 16:00,ZGKL 291600Z AUTO 34002KT 6SM 25/24 A2974 RMK T02500240 IEM_DS3505
ZGKL,2008-08-29 17:00,ZGKL 291700Z AUTO 00000KT 6SM 25/24 A2974 RMK T02500240 IEM_DS3505
ZGKL,2008-08-29 18:00,ZGKL 291800Z AUTO 00000KT 12SM 26/23 A2974 RMK SLP063 T02600233 52001 IEM_DS3505
ZGKL,2008-08-29 19:00,ZGKL 291900Z AUTO 00000KT 3SM 24/24 A2971 RMK T02400240 IEM_DS3505
ZGKL,2008-08-29 20:00,ZGKL 292000Z AUTO 3SM 24/24 A2974 RMK T02400240 IEM_DS3505
ZGKL,2008-08-29 21:00,ZGKL 292100Z AUTO 00000KT 11SM 26/24 A2974 RMK SLP065 T02630240 52002 IEM_DS3505
ZGKL,2008-08-29 22:00,ZGKL 292200Z AUTO 33006KT 5SM 24/23 A2974 RMK T02400230 IEM_DS3505
ZGKL,2008-08-29 23:00,ZGKL 292300Z AUTO 13004KT 7SM 26/24 A2977 RMK T02600240 IEM_DS3505
ZGKL,2008-08-30 00:00,ZGKL 300000Z AUTO 18004KT 10SM 28/23 A2977 RMK SLP074 T02850227 52009 IEM_DS3505
ZGKL,2008-08-30 01:00,ZGKL 300100Z AUTO 18012KT 7SM 28/24 A2977 RMK T02800240 IEM_DS3505
ZGKL,2008-08-30 02:00,ZGKL 300200Z AUTO 18010KT 7SM 29/24 A2980 RMK T02900240 IEM_DS3505
ZGKL,2008-08-30 03:00,ZGKL 300300Z AUTO 18002KT 10SM 30/22 A2980 RMK SLP086 T02960223 52011 IEM_DS3505
ZGKL,2008-08-30 04:00,ZGKL 300400Z AUTO 19010KT 7SM 30/25 A2980 RMK T03000250 IEM_DS3505
ZGKL,2008-08-30 05:00,ZGKL 300500Z AUTO 18008KT 7SM 30/25 A2977 RMK T03000250 IEM_DS3505
ZGKL,2008-08-30 06:00,ZGKL 300600Z AUTO 11002KT 11SM 32/23 A2974 RMK SLP067 T03160232 57019 IEM_DS3505
ZGKL,2008-08-30 07:00,ZGKL 300700Z AUTO 18008KT 7SM 31/24 A2971 RMK T03100240 IEM_DS3505
ZGKL,2008-08-30 08:00,ZGKL 300800Z AUTO 19006KT 7SM 32/25 A2971 RMK T03200250 IEM_DS3505
ZGKL,2008-08-30 09:00,ZGKL 300900Z AUTO 22006KT 12SM 32/23 A2971 RMK SLP052 T03190226 57014 IEM_DS3505
ZGKL,2008-08-30 10:00,ZGKL 301000Z AUTO 18004KT 7SM 30/26 A2971 RMK T03000260 IEM_DS3505
ZGKL,2008-08-30 11:00,ZGKL 301100Z AUTO 7SM 28/26 A2971 RMK T02800260 IEM_DS3505
ZGKL,2008-08-30 12:00,ZGKL 301200Z AUTO 04004KT 9SM 30/25 A2974 RMK SLP060 T02950246 52008 IEM_DS3505
ZGKL,2008-08-30 13:00,ZGKL 301300Z AUTO 4SM 28/26 A2977 RMK T02800260 IEM_DS3505
ZGKL,2008-08-30 14:00,ZGKL 301400Z AUTO 5SM 26/25 A2980 RMK T02600250 IEM_DS3505
ZGKL,2008-08-30 15:00,ZGKL 301500Z AUTO 04004KT 8SM 27/24 A2980 RMK SLP086 T02660239 52025 IEM_DS3505
ZGKL,2008-08-30 16:00,ZGKL 301600Z AUTO 32004KT 7SM 26/25 A2980 RMK T02600250 IEM_DS3505
ZGKL,2008-08-30 17:00,ZGKL 301700Z AUTO 34004KT 1 1/2SM 25/25 A2980 RMK T02500250 IEM_DS3505
ZGKL,2008-08-30 18:00,ZGKL 301800Z AUTO 34006KT 6SM 25/24 A2980 RMK 60020 SLP091 T02500243 52005 IEM_DS3505
ZGKL,2008-08-30 19:00,ZGKL 301900Z AUTO 1 1/2SM 24/24 A2980 RMK T02400240 IEM_DS3505
ZGKL,2008-08-30 20:00,ZGKL 302000Z AUTO 1 1/2SM 24/24 A2980 RMK T02400240 IEM_DS3505
ZGKL,2008-08-30 21:00,ZGKL 302100Z AUTO 02006KT 6SM 23/22 A2983 RMK 70078 SLP098 T02280223 52006 IEM_DS3505
ZGKL,2008-08-30 22:00,ZGKL 302200Z AUTO 06010KT 4SM 23/22 A2983 RMK T02300220 IEM_DS3505
ZGKL,2008-08-30 23:00,ZGKL 302300Z AUTO 04014KT 5SM 22/22 A2985 RMK T02200220 IEM_DS3505
ZGKL,2008-08-31 00:00,ZGKL 310000Z AUTO 02008KT 7SM 21/20 A2988 RMK 60079 70098 SLP120 T02140202 52020 IEM_DS3505
ZGKL,2008-08-31 01:00,ZGKL 310100Z AUTO 12004KT 5SM 22/21 A2991 RMK T02200210 IEM_DS3505
ZGKL,2008-08-31 02:00,ZGKL 310200Z AUTO 10004KT 6SM 22/21 A2991 RMK T02200210 IEM_DS3505
ZGKL,2008-08-31 03:00,ZGKL 310300Z AUTO 04002KT 8SM 23/20 A2994 RMK SLP135 T02310199 52015 IEM_DS3505
ZGKL,2008-08-31 04:00,ZGKL 310400Z AUTO 04006KT 7SM 24/20 A2991 RMK T02400200 IEM_DS3505
ZGKL,2008-08-31 05:00,ZGKL 310500Z AUTO 07004KT 7SM 24/21 A2991 RMK T02400210 IEM_DS3505
ZGKL,2008-08-31 06:00,ZGKL 310600Z AUTO 02004KT 9SM 24/18 A2988 RMK 60001 SLP123 T02430185 57012 IEM_DS3505
ZGKL,2008-08-31 07:00,ZGKL 310700Z AUTO 29004KT 7SM 23/22 A2988 RMK T02300220 IEM_DS3505
ZGKL,2008-08-31 08:00,ZGKL 310800Z AUTO 7SM 23/21 A2985 RMK T02300210 IEM_DS3505
ZGKL,2008-08-31 09:00,ZGKL 310900Z AUTO 02008KT 9SM 24/18 A2985 RMK SLP111 T02370181 57013 IEM_DS3505
ZGKL,2008-08-31 10:00,ZGKL 311000Z AUTO 09004KT 7SM 24/21 A2985 RMK T02400210 IEM_DS3505
ZGKL,2008-08-31 11:00,ZGKL 311100Z AUTO 7SM 23/21 A2985 RMK T02300210 IEM_DS3505
ZGKL,2008-08-31 12:00,ZGKL 311200Z AUTO 02002KT 9SM 23/18 A2985 RMK 60000 SLP116 T02290182 52004 IEM_DS3505
ZGKL,2008-08-31 13:00,ZGKL 311300Z AUTO 31002KT 4SM 22/22 A2988 RMK T02200220 IEM_DS3505
ZGKL,2008-08-31 14:00,ZGKL 311400Z AUTO 00000KT 4SM 22/22 A2991 RMK T02200220 IEM_DS3505
ZGKL,2008-08-31 15:00,ZGKL 311500Z AUTO 02002KT 9SM 23/19 A2991 RMK SLP128 T02260188 52012 IEM_DS3505
ZGKL,2008-08-31 16:00,ZGKL 311600Z AUTO 00000KT 2 1/2SM 22/22 A2988 RMK T02200220 IEM_DS3505
ZGKL,2008-08-31 17:00,ZGKL 311700Z AUTO 3SM 22/22 A2988 RMK T02200220 IEM_DS3505
ZGKL,2008-08-31 18:00,ZGKL 311800Z AUTO 00000KT 9SM 22/19 A2988 RMK SLP117 T02200192 57010 IEM_DS3505
ZGKL,2008-08-31 19:00,ZGKL 311900Z AUTO 18002KT 2 1/2SM 22/22 A2985 RMK T02200220 IEM_DS3505
ZGKL,2008-08-31 20:00,ZGKL 312000Z AUTO 05002KT 2SM 22/22 A2985 RMK T02200220 IEM_DS3505
ZGKL,2008-08-31 21:00,ZGKL 312100Z AUTO 04002KT 8SM 22/20 A2985 RMK 70022 SLP112 T02170200 57005 IEM_DS3505
ZGKL,2008-08-31 22:00,ZGKL 312200Z AUTO 00000KT 2 1/2SM 22/22 A2985 RMK T02200220 IEM_DS3505
ZGKL,2008-08-31 23:00,ZGKL 312300Z AUTO 00000KT 2SM 22/22 A2988 RMK T02200220 IEM_DS3505
ZGKL,2008-09-01 00:00,ZGKL 010000Z AUTO 36002KT 8SM 23/18 A2988 RMK 70001 SLP124 T02290180 52012 IEM_DS3505
ZGKL,2008-09-01 01:00,ZGKL 010100Z AUTO 00000KT 4SM 24/22 A2991 RMK T02400220 IEM_DS3505
ZGKL,2008-09-01 02:00,ZGKL 010200Z AUTO 6SM 25/21 A2991 RMK T02500210 IEM_DS3505
ZGKL,2008-09-01 03:00,ZGKL 010300Z AUTO 36002KT 9SM 26/18 A2991 RMK SLP131 T02560185 52007 IEM_DS3505
ZGKL,2008-09-01 04:00,ZGKL 010400Z AUTO 10004KT 7SM 27/18 A2988 RMK T02700180 IEM_DS3505
ZGKL,2008-09-01 05:00,ZGKL 010500Z AUTO 7SM 27/17 A2988 RMK T02700170 IEM_DS3505
ZGKL,2008-09-01 06:00,ZGKL 010600Z AUTO 02002KT 10SM 28/19 A2985 RMK SLP109 T02800190 57021 IEM_DS3505
ZGKL,2008-09-01 07:00,ZGKL 010700Z AUTO 7SM 29/19 A2983 RMK T02900190 IEM_DS3505
ZGKL,2008-09-01 08:00,ZGKL 010800Z AUTO 09006KT 7SM 29/18 A2983 RMK T02900180 IEM_DS3505
ZGKL,2008-09-01 09:00,ZGKL 010900Z AUTO 02004KT 11SM 28/18 A2980 RMK SLP092 T02850183 57016 IEM_DS3505
ZGKL,2008-09-01 10:00,ZGKL 011000Z AUTO 05006KT 7SM 28/19 A2980 RMK T02800190 IEM_DS3505
ZGKL,2008-09-01 11:00,ZGKL 011100Z AUTO 05004KT 7SM 27/19 A2983 RMK T02700190 IEM_DS3505
ZGKL,2008-09-01 12:00,ZGKL 011200Z AUTO 02002KT 9SM 26/19 A2983 RMK SLP102 T02620193 52009 IEM_DS3505
ZGKL,2008-09-01 13:00,ZGKL 011300Z AUTO 32004KT 6SM 25/23 A2985 RMK T02500230 IEM_DS3505
ZGKL,2008-09-01 14:00,ZGKL 011400Z AUTO 33002KT 6SM 24/22 A2985 RMK T02400220 IEM_DS3505
ZGKL,2008-09-01 15:00,ZGKL 011500Z AUTO 02002KT 9SM 25/20 A2985 RMK SLP113 T02480196 52011 IEM_DS3505
ZGKL,2008-09-01 16:00,ZGKL 011600Z AUTO 31002KT 4SM 23/22 A2985 RMK T02300220 IEM_DS3505
ZGKL,2008-09-01 17:00,ZGKL 011700Z AUTO 4SM 23/22 A2985 RMK T02300220 IEM_DS3505
ZGKL,2008-09-01 18:00,ZGKL 011800Z AUTO 02002KT 7SM 24/20 A2985 RMK SLP104 T02380201 57008 IEM_DS3505
ZGKL,2008-09-01 19:00,ZGKL 011900Z AUTO 29004KT 4SM 22/22 A2983 RMK T02200220 IEM_DS3505
ZGKL,2008-09-01 20:00,ZGKL 012000Z AUTO 32002KT 5SM 22/21 A2983 RMK T02200210 IEM_DS3505
ZGKL,2008-09-01 21:00,ZGKL 012100Z AUTO 09002KT 7SM 23/20 A2983 RMK SLP104 T02270200 54000 IEM_DS3505
ZGKL,2008-09-01 22:00,ZGKL 012200Z AUTO 4SM 22/21 A2985 RMK T02200210 IEM_DS3505
ZGKL,2008-09-01 23:00,ZGKL 012300Z AUTO 33002KT 6SM 22/22 A2985 RMK T02200220 IEM_DS3505
ZGKL,2008-09-02 00:00,ZGKL 020000Z AUTO 02002KT 8SM 24/20 A2985 RMK SLP111 T02430198 52006 IEM_DS3505
ZGKL,2008-09-02 01:00,ZGKL 020100Z AUTO 5SM 26/21 A2985 RMK T02600210 IEM_DS3505
ZGKL,2008-09-02 02:00,ZGKL 020200Z AUTO 5SM 28/22 A2988 RMK T02800220 IEM_DS3505
ZGKL,2008-09-02 03:00,ZGKL 020300Z AUTO 36002KT 8SM 28/20 A2988 RMK SLP113 T02850202 52003 IEM_DS3505
ZGKL,2008-09-02 04:00,ZGKL 020400Z AUTO 5SM 29/22 A2985 RMK T02900220 IEM_DS3505
ZGKL,2008-09-02 05:00,ZGKL 020500Z AUTO 30004KT 5SM 30/22 A2983 RMK T03000220 IEM_DS3505
ZGKL,2008-09-02 06:00,ZGKL 020600Z AUTO 29004KT 10SM 31/20 A2980 RMK SLP089 T03110201 57023 IEM_DS3505
ZGKL,2008-09-02 07:00,ZGKL 020700Z AUTO 28004KT 7SM 31/21 A2977 RMK T03100210 IEM_DS3505
ZGKL,2008-09-02 08:00,ZGKL 020800Z AUTO 33004KT 6SM 30/23 A2977 RMK T03000230 IEM_DS3505
ZGKL,2008-09-02 09:00,ZGKL 020900Z AUTO 04002KT 12SM 31/21 A2977 RMK SLP075 T03110210 57014 IEM_DS3505
ZGKL,2008-09-02 10:00,ZGKL 021000Z AUTO 34006KT 7SM 29/23 A2977 RMK T02900230 IEM_DS3505
ZGKL,2008-09-02 11:00,ZGKL 021100Z AUTO 7SM 28/24 A2977 RMK T02800240 IEM_DS3505
ZGKL,2008-09-02 12:00,ZGKL 021200Z AUTO 02004KT 12SM 28/22 A2980 RMK SLP085 T02790217 52009 IEM_DS3505
ZGKL,2008-09-02 13:00,ZGKL 021300Z AUTO 31004KT 7SM 26/25 A2980 RMK T02600250 IEM_DS3505
ZGKL,2008-09-02 14:00,ZGKL 021400Z AUTO 7SM 26/24 A2983 RMK T02600240 IEM_DS3505
ZGKL,2008-09-02 15:00,ZGKL 021500Z AUTO 02004KT 12SM 26/20 A2983 RMK SLP093 T02650201 52009 IEM_DS3505
ZGKL,2008-09-02 16:00,ZGKL 021600Z AUTO 32002KT 4SM 24/24 A2983 RMK T02400240 IEM_DS3505
ZGKL,2008-09-02 17:00,ZGKL 021700Z AUTO 00000KT 4SM 24/23 A2983 RMK T02400230 IEM_DS3505
ZGKL,2008-09-02 18:00,ZGKL 021800Z AUTO 29002KT 11SM 25/21 A2980 RMK SLP091 T02480209 57002 IEM_DS3505
ZGKL,2008-09-02 19:00,ZGKL 021900Z AUTO 4SM 24/24 A2980 RMK T02400240 IEM_DS3505
ZGKL,2008-09-02 20:00,ZGKL 022000Z AUTO 00000KT 4SM 24/24 A2980 RMK T02400240 IEM_DS3505
ZGKL,2008-09-02 21:00,ZGKL 022100Z AUTO 07002KT 9SM 24/21 A2980 RMK SLP086 T02410214 57005 IEM_DS3505
ZGKL,2008-09-02 22:00,ZGKL 022200Z AUTO 3SM 24/23 A2980 RMK T02400230 IEM_DS3505
ZGKL,2008-09-02 23:00,ZGKL 022300Z AUTO 2 1/2SM 24/24 A2980 RMK T02400240 IEM_DS3505
ZGKL,2008-09-03 00:00,ZGKL 030000Z AUTO 09002KT 8SM 25/22 A2983 RMK SLP097 T02490216 52010 IEM_DS3505
ZGKL,2008-09-03 01:00,ZGKL 030100Z AUTO 2 1/2SM 26/24 A2983 RMK T02600240 IEM_DS3505
ZGKL,2008-09-03 02:00,ZGKL 030200Z AUTO 4SM 26/24 A2983 RMK T02600240 IEM_DS3505
ZGKL,2008-09-03 03:00,ZGKL 030300Z AUTO 18004KT 8SM 29/23 A2983 RMK SLP094 T02890226 57002 IEM_DS3505
ZGKL,2008-09-03 04:00,ZGKL 030400Z AUTO 17004KT 6SM 28/24 A2980 RMK T02800240 IEM_DS3505
ZGKL,2008-09-03 05:00,ZGKL 030500Z AUTO 6SM 29/25 A2977 RMK T02900250 IEM_DS3505
ZGKL,2008-09-03 06:00,ZGKL 030600Z AUTO 34002KT 8SM 29/23 A2977 RMK SLP071 T02920229 57023 IEM_DS3505
ZGKL,2008-09-03 07:00,ZGKL 030700Z AUTO 34006KT 4SM 28/25 A2974 RMK T02800250 IEM_DS3505
ZGKL,2008-09-03 08:00,ZGKL 030800Z AUTO 31006G19KT 2SM 27/26 A2974 RMK T02700260 IEM_DS3505
ZGKL,2008-09-03 09:00,ZGKL 030900Z AUTO 22002KT 6SM 26/25 A2974 RMK SLP066 T02590249 57006 IEM_DS3505
ZGKL,2008-09-03 10:00,ZGKL 031000Z AUTO 21006KT 5SM 23/23 A2977 RMK T02300230 IEM_DS3505
ZGKL,2008-09-03 11:00,ZGKL 031100Z AUTO 7SM 23/23 A2974 RMK T02300230 IEM_DS3505
ZGKL,2008-09-03 12:00,ZGKL 031200Z AUTO 20002KT 5SM 24/23 A2977 RMK 60051 SLP083 T02410234 52016 IEM_DS3505
ZGKL,2008-09-03 13:00,ZGKL 031300Z AUTO 18004KT 7SM 23/23 A2980 RMK T02300230 IEM_DS3505
ZGKL,2008-09-03 14:00,ZGKL 031400Z AUTO 7SM 23/23 A2983 RMK T02300230 IEM_DS3505
ZGKL,2008-09-03 15:00,ZGKL 031500Z AUTO 02002KT 5SM 24/23 A2983 RMK SLP104 T02400231 52022 IEM_DS3505
ZGKL,2008-09-03 16:00,ZGKL 031600Z AUTO 00000KT 5SM 23/23 A2983 RMK T02300230 IEM_DS3505
ZGKL,2008-09-03 17:00,ZGKL 031700Z AUTO 25002KT 5SM 23/23 A2983 RMK T02300230 IEM_DS3505
ZGKL,2008-09-03 18:00,ZGKL 031800Z AUTO 25002KT 4SM 24/23 A2980 RMK 60008 SLP092 T02380233 57012 IEM_DS3505
ZGKL,2008-09-03 19:00,ZGKL 031900Z AUTO 17002KT 3SM 23/23 A2980 RMK T02300230 IEM_DS3505
ZGKL,2008-09-03 20:00,ZGKL 032000Z AUTO 23002KT 2 1/2SM 23/23 A2980 RMK T02300230 IEM_DS3505
ZGKL,2008-09-03 21:00,ZGKL 032100Z AUTO 00000KT 5SM 23/23 A2980 RMK 70084 SLP088 T02330230 57005 IEM_DS3505
ZGKL,2008-09-03 22:00,ZGKL 032200Z AUTO 00000KT 3SM 23/23 A2980 RMK T02300230 IEM_DS3505
ZGKL,2008-09-03 23:00,ZGKL 032300Z AUTO 00000KT 2SM 23/23 A2980 RMK T02300230 IEM_DS3505
ZGKL,2008-09-04 00:00,ZGKL 040000Z AUTO 32002KT 5SM 24/24 A2983 RMK 60028 70085 SLP097 T02380235 52009 IEM_DS3505
ZGKL,2008-09-04 01:00,ZGKL 040100Z AUTO 16004KT 1 1/2SM 23/23 A2983 RMK T02300230 IEM_DS3505
ZGKL,2008-09-04 02:00,ZGKL 040200Z AUTO 15006KT 3SM 24/24 A2983 RMK T02400240 IEM_DS3505
ZGKL,2008-09-04 03:00,ZGKL 040300Z AUTO 14002KT 7SM 24/24 A2983 RMK SLP103 T02440239 52006 IEM_DS3505
ZGKL,2008-09-04 04:00,ZGKL 040400Z AUTO 7SM 25/24 A2983 RMK T02500240 IEM_DS3505
ZGKL,2008-09-04 05:00,ZGKL 040500Z AUTO 15004KT 7SM 24/24 A2980 RMK T02400240 IEM_DS3505
ZGKL,2008-09-04 06:00,ZGKL 040600Z AUTO 14002KT 7SM 24/24 A2977 RMK 60142 SLP086 T02450240 57017 IEM_DS3505
ZGKL,2008-09-04 07:00,ZGKL 040700Z AUTO 7SM 27/25 A2974 RMK T02700250 IEM_DS3505
ZGKL,2008-09-04 08:00,ZGKL 040800Z AUTO 08004KT 7SM 27/24 A2974 RMK T02700240 IEM_DS3505
ZGKL,2008-09-04 09:00,ZGKL 040900Z AUTO 16004KT 8SM 26/24 A2974 RMK SLP070 T02570236 57015 IEM_DS3505
ZGKL,2008-09-04 10:00,ZGKL 041000Z AUTO 17004KT 7SM 25/24 A2974 RMK T02500240 IEM_DS3505
ZGKL,2008-09-04 11:00,ZGKL 041100Z AUTO 7SM 24/24 A2977 RMK T02400240 IEM_DS3505
ZGKL,2008-09-04 12:00,ZGKL 041200Z AUTO 22002KT 7SM 25/24 A2977 RMK 60002 SLP080 T02500240 52009 IEM_DS3505
ZGKL,2008-09-04 13:00,ZGKL 041300Z AUTO 7SM 24/24 A2980 RMK T02400240 IEM_DS3505
ZGKL,2008-09-04 14:00,ZGKL 041400Z AUTO 00000KT 7SM 24/24 A2980 RMK T02400240 IEM_DS3505
ZGKL,2008-09-04 15:00,ZGKL 041500Z AUTO 02004KT 5SM 22/22 A2980 RMK SLP099 T02240224 52018 IEM_DS3505
ZGKL,2008-09-04 16:00,ZGKL 041600Z AUTO 33006KT 3SM 23/23 A2983 RMK T02300230 IEM_DS3505
ZGKL,2008-09-04 17:00,ZGKL 041700Z AUTO 34006KT 4SM 22/22 A2983 RMK T02200220 IEM_DS3505
ZGKL,2008-09-04 18:00,ZGKL 041800Z AUTO 02004KT 5SM 22/22 A2980 RMK 60110 SLP096 T02180216 57003 IEM_DS3505
ZGKL,2008-09-04 19:00,ZGKL 041900Z AUTO 02008KT 3SM 22/22 A2980 RMK T02200220 IEM_DS3505
ZGKL,2008-09-04 20:00,ZGKL 042000Z AUTO 03006KT 3SM 22/22 A2980 RMK T02200220 IEM_DS3505
ZGKL,2008-09-04 21:00,ZGKL 042100Z AUTO 02004KT 4SM 22/21 A2980 RMK 70294 SLP092 T02160214 57003 IEM_DS3505
ZGKL,2008-09-04 22:00,ZGKL 042200Z AUTO 5SM 22/22 A2980 RMK T02200220 IEM_DS3505
ZGKL,2008-09-04 23:00,ZGKL 042300Z AUTO 2SM 22/22 A2983 RMK T02200220 IEM_DS3505
ZGKL,2008-09-05 00:00,ZGKL 050000Z AUTO 02004KT 7SM 22/21 A2983 RMK 60004 70283 SLP106 T02200213 52013 IEM_DS3505
ZGKL,2008-09-05 01:00,ZGKL 050100Z AUTO 05004KT 2 1/2SM 22/22 A2985 RMK T02200220 IEM_DS3505
ZGKL,2008-09-05 02:00,ZGKL 050200Z AUTO 04006KT 2 1/2SM 22/22 A2988 RMK T02200220 IEM_DS3505
ZGKL,2008-09-05 03:00,ZGKL 050300Z AUTO 36004KT 6SM 23/22 A2988 RMK SLP122 T02270220 52015 IEM_DS3505
ZGKL,2008-09-05 04:00,ZGKL 050400Z AUTO 6SM 23/22 A2988 RMK T02300220 IEM_DS3505
ZGKL,2008-09-05 05:00,ZGKL 050500Z AUTO 04006KT 6SM 23/22 A2985 RMK T02300220 IEM_DS3505
ZGKL,2008-09-05 06:00,ZGKL 050600Z AUTO 36006KT 5SM 23/22 A2985 RMK 60004 SLP107 T02310219 57014 IEM_DS3505
ZGKL,2008-09-05 07:00,ZGKL 050700Z AUTO 7SM 25/23 A2983 RMK T02500230 IEM_DS3505
ZGKL,2008-09-05 08:00,ZGKL 050800Z AUTO 06006KT 7SM 25/23 A2980 RMK T02500230 IEM_DS3505
ZGKL,2008-09-05 09:00,ZGKL 050900Z AUTO 02006KT 7SM 25/22 A2980 RMK SLP096 T02500217 57011 IEM_DS3505
ZGKL,2008-09-05 10:00,ZGKL 051000Z AUTO 20004KT 5SM 24/23 A2983 RMK T02400230 IEM_DS3505
ZGKL,2008-09-05 11:00,ZGKL 051100Z AUTO 23004KT 2SM 23/23 A2983 RMK T02300230 IEM_DS3505
ZGKL,2008-09-05 12:00,ZGKL 051200Z AUTO 02004KT 9SM 24/22 A2983 RMK 60000 SLP104 T02410220 52008 IEM_DS3505
ZGKL,2008-09-05 13:00,ZGKL 051300Z AUTO 00000KT 4SM 23/23 A2985 RMK T02300230 IEM_DS3505
ZGKL,2008-09-05 14:00,ZGKL 051400Z AUTO 3SM 23/23 A2985 RMK T02300230 IEM_DS3505
ZGKL,2008-09-05 15:00,ZGKL 051500Z AUTO 02006KT 9SM 24/21 A2985 RMK SLP112 T02380211 52008 IEM_DS3505
ZGKL,2008-09-05 16:00,ZGKL 051600Z AUTO 3SM 24/22 A2985 RMK T02400220 IEM_DS3505
ZGKL,2008-09-05 17:00,ZGKL 051700Z AUTO 23002KT 3SM 23/23 A2985 RMK T02300230 IEM_DS3505
ZGKL,2008-09-05 18:00,ZGKL 051800Z AUTO 34002KT 7SM 23/21 A2985 RMK 60000 SLP111 T02300209 57001 IEM_DS3505
ZGKL,2008-09-05 19:00,ZGKL 051900Z AUTO 2SM 23/22 A2985 RMK T02300220 IEM_DS3505
ZGKL,2008-09-05 20:00,ZGKL 052000Z AUTO 2 1/2SM 23/22 A2985 RMK T02300220 IEM_DS3505
ZGKL,2008-09-05 21:00,ZGKL 052100Z AUTO 04002KT 6SM 23/21 A2985 RMK 70005 SLP108 T02300209 57002 IEM_DS3505
ZGKL,2008-09-05 22:00,ZGKL 052200Z AUTO 27004KT 3SM 22/22 A2985 RMK T02200220 IEM_DS3505
ZGKL,2008-09-05 23:00,ZGKL 052300Z AUTO 29002KT 3SM 22/22 A2988 RMK T02200220 IEM_DS3505
ZGKL,2008-09-06 00:00,ZGKL 060000Z AUTO 36004KT 5SM 22/21 A2988 RMK 60000 70005 SLP122 T02230213 52013 IEM_DS3505
ZGKL,2008-09-06 01:00,ZGKL 060100Z AUTO 32004KT 1 1/4SM 22/22 A2991 RMK T02200220 IEM_DS3505
ZGKL,2008-09-06 02:00,ZGKL 060200Z AUTO 1 1/4SM 22/22 A2991 RMK T02200220 IEM_DS3505
ZGKL,2008-09-06 03:00,ZGKL 060300Z AUTO 32002KT 5SM 24/22 A2991 RMK SLP134 T02400219 52012 IEM_DS3505
ZGKL,2008-09-06 04:00,ZGKL 060400Z AUTO 1 1/2SM 22/22 A2991 RMK T02200220 IEM_DS3505
ZGKL,2008-09-06 05:00,ZGKL 060500Z AUTO 32004KT 1 1/2SM 22/22 A2991 RMK T02200220 IEM_DS3505
ZGKL,2008-09-06 06:00,ZGKL 060600Z AUTO 02002KT 5SM 24/23 A2988 RMK 60008 SLP122 T02380228 57012 IEM_DS3505
ZGKL,2008-09-06 07:00,ZGKL 060700Z AUTO 3SM 23/23 A2988 RMK T02300230 IEM_DS3505
ZGKL,2008-09-06 08:00,ZGKL 060800Z AUTO 33004KT 4SM 23/23 A2985 RMK T02300230 IEM_DS3505
ZGKL,2008-09-06 09:00,ZGKL 060900Z AUTO 29004KT 5SM 24/23 A2985 RMK SLP111 T02410231 57011 IEM_DS3505
ZGKL,2008-09-06 10:00,ZGKL 061000Z AUTO 7SM 24/23 A2985 RMK T02400230 IEM_DS3505
ZGKL,2008-09-06 11:00,ZGKL 061100Z AUTO 00000KT 7SM 24/23 A2988 RMK T02400230 IEM_DS3505
ZGKL,2008-09-06 12:00,ZGKL 061200Z AUTO 32002KT 4SM 24/23 A2988 RMK 60001 SLP124 T02370230 52013 IEM_DS3505
ZGKL,2008-09-06 13:00,ZGKL 061300Z AUTO 00000KT 5SM 23/23 A2991 RMK T02300230 IEM_DS3505
ZGKL,2008-09-06 14:00,ZGKL 061400Z AUTO 00000KT 5SM 23/23 A2991 RMK T02300230 IEM_DS3505
ZGKL,2008-09-06 15:00,ZGKL 061500Z AUTO 11002KT 3SM 23/23 A2994 RMK SLP135 T02340234 52011 IEM_DS3505
ZGKL,2008-09-06 16:00,ZGKL 061600Z AUTO 3SM 23/23 A2991 RMK T02300230 IEM_DS3505
ZGKL,2008-09-06 17:00,ZGKL 061700Z AUTO 31002KT 2 1/2SM 23/23 A2991 RMK T02300230 IEM_DS3505
ZGKL,2008-09-06 18:00,ZGKL 061800Z AUTO 00000KT 4SM 23/23 A2991 RMK 60008 SLP134 T02320232 57001 IEM_DS3505
ZGKL,2008-09-06 19:00,ZGKL 061900Z AUTO 00000KT 1 1/2SM 23/23 A2991 RMK T02300230 IEM_DS3505
ZGKL,2008-09-06 20:00,ZGKL 062000Z AUTO 00000KT 2SM 23/23 A2991 RMK T02300230 IEM_DS3505
ZGKL,2008-09-06 21:00,ZGKL 062100Z AUTO 07002KT 4SM 23/23 A2991 RMK 70017 SLP133 T02300228 57001 IEM_DS3505
ZGKL,2008-09-06 22:00,ZGKL 062200Z AUTO 31002KT 2SM 23/23 A2991 RMK T02300230 IEM_DS3505
ZGKL,2008-09-06 23:00,ZGKL 062300Z AUTO 00000KT 2SM 23/23 A2994 RMK T02300230 IEM_DS3505
ZGKL,2008-09-07 00:00,ZGKL 070000Z AUTO 09002KT 4SM 23/23 A2994 RMK 70017 SLP143 T02340234 52010 IEM_DS3505
ZGKL,2008-09-07 01:00,ZGKL 070100Z AUTO 00000KT 1 1/4SM 24/23 A2994 RMK T02400230 IEM_DS3505
ZGKL,2008-09-07 02:00,ZGKL 070200Z AUTO 00000KT 2SM 26/24 A2997 RMK T02600240 IEM_DS3505
ZGKL,2008-09-07 03:00,ZGKL 070300Z AUTO 14002KT 6SM 27/23 A2997 RMK SLP147 T02720232 52005 IEM_DS3505
ZGKL,2008-09-07 04:00,ZGKL 070400Z AUTO 08004KT 3SM 27/23 A2994 RMK T02700230 IEM_DS3505
ZGKL,2008-09-07 05:00,ZGKL 070500Z AUTO 4SM 28/23 A2994 RMK T02800230 IEM_DS3505
ZGKL,2008-09-07 06:00,ZGKL 070600Z AUTO 27002KT 11SM 31/21 A2988 RMK SLP119 T03060211 57027 IEM_DS3505
ZGKL,2008-09-07 07:00,ZGKL 070700Z AUTO 5SM 30/23 A2985 RMK T03000230 IEM_DS3505
ZGKL,2008-09-07 08:00,ZGKL 070800Z AUTO 15004KT 6SM 31/23 A2983 RMK T03100230 IEM_DS3505
ZGKL,2008-09-07 09:00,ZGKL 070900Z AUTO 02002KT 12SM 32/22 A2983 RMK SLP097 T03160215 57021 IEM_DS3505
ZGKL,2008-09-07 10:00,ZGKL 071000Z AUTO 6SM 29/24 A2983 RMK T02900240 IEM_DS3505
ZGKL,2008-09-07 11:00,ZGKL 071100Z AUTO 20002KT 6SM 27/25 A2985 RMK T02700250 IEM_DS3505
ZGKL,2008-09-07 12:00,ZGKL 071200Z AUTO 09002KT 14SM 28/23 A2988 RMK SLP114 T02750233 52015 IEM_DS3505
ZGKL,2008-09-07 13:00,ZGKL 071300Z AUTO 2 1/2SM 25/25 A2991 RMK T02500250 IEM_DS3505
ZGKL,2008-09-07 14:00,ZGKL 071400Z AUTO 2 1/2SM 26/25 A2991 RMK T02600250 IEM_DS3505
ZGKL,2008-09-07 15:00,ZGKL 071500Z AUTO 04002KT 11SM 26/23 A2991 RMK SLP129 T02600233 52016 IEM_DS3505
ZGKL,2008-09-07 16:00,ZGKL 071600Z AUTO 30002KT 2 1/2SM 24/24 A2991 RMK T02400240 IEM_DS3505
ZGKL,2008-09-07 17:00,ZGKL 071700Z AUTO 31004KT 2SM 24/24 A2991 RMK T02400240 IEM_DS3505
ZGKL,2008-09-07 18:00,ZGKL 071800Z AUTO 36002KT 11SM 24/23 A2988 RMK SLP121 T02430229 57008 IEM_DS3505
ZGKL,2008-09-07 19:00,ZGKL 071900Z AUTO 2 1/2SM 24/24 A2988 RMK T02400240 IEM_DS3505
ZGKL,2008-09-07 20:00,ZGKL 072000Z AUTO 33002KT 2 1/2SM 23/23 A2988 RMK T02300230 IEM_DS3505
ZGKL,2008-09-07 21:00,ZGKL 072100Z AUTO 36002KT 10SM 24/23 A2988 RMK SLP114 T02350228 57006 IEM_DS3505
ZGKL,2008-09-07 22:00,ZGKL 072200Z AUTO 1 1/2SM 23/23 A2988 RMK T02300230 IEM_DS3505
ZGKL,2008-09-07 23:00,ZGKL 072300Z AUTO 1 1/2SM 23/23 A2991 RMK T02300230 IEM_DS3505
ZGKL,2008-09-08 00:00,ZGKL 080000Z AUTO 00000KT 7SM 24/23 A2994 RMK SLP134 T02450229 52018 IEM_DS3505
ZGKL,2008-09-08 01:00,ZGKL 080100Z AUTO 32004KT 2SM 24/24 A2994 RMK T02400240 IEM_DS3505
ZGKL,2008-09-08 02:00,ZGKL 080200Z AUTO 2 1/2SM 25/24 A2994 RMK T02500240 IEM_DS3505
ZGKL,2008-09-08 03:00,ZGKL 080300Z AUTO 11004KT 6SM 29/24 A2994 RMK SLP133 T02910235 54000 IEM_DS3505
ZGKL,2008-09-08 04:00,ZGKL 080400Z AUTO 7SM 30/24 A2991 RMK T03000240 IEM_DS3505
ZGKL,2008-09-08 05:00,ZGKL 080500Z AUTO 7SM 32/24 A2988 RMK T03200240 IEM_DS3505
ZGKL,2008-09-08 06:00,ZGKL 080600Z AUTO 27004KT 7SM 32/23 A2985 RMK SLP102 T03230227 57030 IEM_DS3505
ZGKL,2008-09-08 07:00,ZGKL 080700Z AUTO 18006KT 7SM 32/23 A2983 RMK T03200230 IEM_DS3505
ZGKL,2008-09-08 08:00,ZGKL 080800Z AUTO 10004KT 7SM 32/22 A2980 RMK T03200220 IEM_DS3505
ZGKL,2008-09-08 09:00,ZGKL 080900Z AUTO 02002KT 9SM 29/22 A2977 RMK SLP087 T02900215 57016 IEM_DS3505
ZGKL,2008-09-08 10:00,ZGKL 081000Z AUTO 08006KT 7SM 30/25 A2980 RMK T03000250 IEM_DS3505
ZGKL,2008-09-08 11:00,ZGKL 081100Z AUTO 07006KT 5SM 28/25 A2983 RMK T02800250 IEM_DS3505
ZGKL,2008-09-08 12:00,ZGKL 081200Z AUTO 36002KT 9SM 27/22 A2985 RMK SLP105 T02720224 52018 IEM_DS3505
ZGKL,2008-09-08 13:00,ZGKL 081300Z AUTO 3SM 26/25 A2988 RMK T02600250 IEM_DS3505
ZGKL,2008-09-08 14:00,ZGKL 081400Z AUTO 3SM 26/24 A2988 RMK T02600240 IEM_DS3505
ZGKL,2008-09-08 15:00,ZGKL 081500Z AUTO 02002KT 9SM 25/23 A2988 RMK SLP118 T02540231 52013 IEM_DS3505
ZGKL,2008-09-08 16:00,ZGKL 081600Z AUTO 00000KT 2SM 25/24 A2988 RMK T02500240 IEM_DS3505
ZGKL,2008-09-08 17:00,ZGKL 081700Z AUTO 2 1/2SM 24/24 A2988 RMK T02400240 IEM_DS3505
ZGKL,2008-09-08 18:00,ZGKL 081800Z AUTO 07002KT 9SM 24/23 A2985 RMK SLP108 T02440234 57009 IEM_DS3505
ZGKL,2008-09-08 19:00,ZGKL 081900Z AUTO 2 1/2SM 24/23 A2985 RMK T02400230 IEM_DS3505
ZGKL,2008-09-08 20:00,ZGKL 082000Z AUTO 00000KT 2SM 23/23 A2985 RMK T02300230 IEM_DS3505
ZGKL,2008-09-08 21:00,ZGKL 082100Z AUTO 36002KT 7SM 24/23 A2985 RMK SLP110 T02370230 52001 IEM_DS3505
ZGKL,2008-09-08 22:00,ZGKL 082200Z AUTO 33002KT 2SM 23/23 A2985 RMK T02300230 IEM_DS3505
ZGKL,2008-09-08 23:00,ZGKL 082300Z AUTO 00000KT 2SM 23/23 A2988 RMK T02300230 IEM_DS3505
ZGKL,2008-09-09 00:00,ZGKL 090000Z AUTO 36002KT 7SM 25/23 A2988 RMK SLP121 T02520234 52011 IEM_DS3505
ZGKL,2008-09-09 01:00,ZGKL 090100Z AUTO 3SM 27/24 A2991 RMK T02700240 IEM_DS3505
ZGKL,2008-09-09 02:00,ZGKL 090200Z AUTO 4SM 28/25 A2988 RMK T02800250 IEM_DS3505
ZGKL,2008-09-09 03:00,ZGKL 090300Z AUTO 18002KT 6SM 30/23 A2988 RMK SLP116 T03020229 57004 IEM_DS3505
ZGKL,2008-09-09 04:00,ZGKL 090400Z AUTO 5SM 30/25 A2985 RMK T03000250 IEM_DS3505
ZGKL,2008-09-09 05:00,ZGKL 090500Z AUTO 7SM 32/24 A2983 RMK T03200240 IEM_DS3505
ZGKL,2008-09-09 06:00,ZGKL 090600Z AUTO 07004KT 8SM 31/23 A2980 RMK SLP092 T03090228 57024 IEM_DS3505
ZGKL,2008-09-09 07:00,ZGKL 090700Z AUTO 19004KT 7SM 33/24 A2977 RMK T03300240 IEM_DS3505
ZGKL,2008-09-09 08:00,ZGKL 090800Z AUTO 7SM 33/23 A2974 RMK T03300230 IEM_DS3505
ZGKL,2008-09-09 09:00,ZGKL 090900Z AUTO 02004KT 12SM 31/22 A2974 RMK SLP074 T03110219 57018 IEM_DS3505
ZGKL,2008-09-09 10:00,ZGKL 091000Z AUTO 06006KT 7SM 31/25 A2977 RMK T03100250 IEM_DS3505
ZGKL,2008-09-09 11:00,ZGKL 091100Z AUTO 07004KT 6SM 29/25 A2977 RMK T02900250 IEM_DS3505
ZGKL,2008-09-09 12:00,ZGKL 091200Z AUTO 07002KT 12SM 28/23 A2977 RMK SLP080 T02770233 52006 IEM_DS3505
ZGKL,2008-09-09 13:00,ZGKL 091300Z AUTO 31004KT 3SM 26/25 A2980 RMK T02600250 IEM_DS3505
ZGKL,2008-09-09 14:00,ZGKL 091400Z AUTO 3SM 26/25 A2980 RMK T02600250 IEM_DS3505
ZGKL,2008-09-09 15:00,ZGKL 091500Z AUTO 04002KT 12SM 26/23 A2983 RMK SLP099 T02590234 52019 IEM_DS3505
ZGKL,2008-09-09 16:00,ZGKL 091600Z AUTO 3SM 26/24 A2983 RMK T02600240 IEM_DS3505
ZGKL,2008-09-09 17:00,ZGKL 091700Z AUTO 11004KT 3SM 25/25 A2983 RMK T02500250 IEM_DS3505
ZGKL,2008-09-09 18:00,ZGKL 091800Z AUTO 07002KT 8SM 25/24 A2983 RMK 60000 SLP097 T02500240 57002 IEM_DS3505
ZGKL,2008-09-09 19:00,ZGKL 091900Z AUTO 31004KT 2 1/2SM 25/24 A2983 RMK T02500240 IEM_DS3505
ZGKL,2008-09-09 20:00,ZGKL 092000Z AUTO 00000KT 3SM 24/24 A2983 RMK T02400240 IEM_DS3505
ZGKL,2008-09-09 21:00,ZGKL 092100Z AUTO 22004KT 7SM 25/24 A2985 RMK 70000 SLP098 T02500236 52001 IEM_DS3505
ZGKL,2008-09-09 22:00,ZGKL 092200Z AUTO 32008KT 3SM 23/22 A2985 RMK T02300220 IEM_DS3505
ZGKL,2008-09-09 23:00,ZGKL 092300Z AUTO 07004KT 6SM 23/23 A2985 RMK T02300230 IEM_DS3505
ZGKL,2008-09-10 00:00,ZGKL 100000Z AUTO 25002KT 4SM 25/24 A2988 RMK 60000 70000 SLP115 T02480241 52016 IEM_DS3505
ZGKL,2008-09-10 01:00,ZGKL 100100Z AUTO 6SM 24/23 A2988 RMK T02400230 IEM_DS3505
ZGKL,2008-09-10 02:00,ZGKL 100200Z AUTO 6SM 26/24 A2991 RMK T02600240 IEM_DS3505
ZGKL,2008-09-10 03:00,ZGKL 100300Z AUTO 11002KT 4SM 28/25 A2988 RMK SLP121 T02830247 52006 IEM_DS3505
ZGKL,2008-09-10 04:00,ZGKL 100400Z AUTO 6SM 30/24 A2985 RMK T03000240 IEM_DS3505
ZGKL,2008-09-10 05:00,ZGKL 100500Z AUTO 7SM 31/23 A2985 RMK T03100230 IEM_DS3505
ZGKL,2008-09-10 06:00,ZGKL 100600Z AUTO 32002KT 6SM 33/22 A2983 RMK SLP092 T03260221 57027 IEM_DS3505
ZGKL,2008-09-10 07:00,ZGKL 100700Z AUTO 19004KT 7SM 33/21 A2977 RMK T03300210 IEM_DS3505
ZGKL,2008-09-10 08:00,ZGKL 100800Z AUTO 18004KT 7SM 33/22 A2977 RMK T03300220 IEM_DS3505
ZGKL,2008-09-10 09:00,ZGKL 100900Z AUTO 27002KT 7SM 33/22 A2974 RMK SLP066 T03340216 57025 IEM_DS3505
ZGKL,2008-09-10 10:00,ZGKL 101000Z AUTO 20008KT 6SM 30/25 A2974 RMK T03000250 IEM_DS3505
ZGKL,2008-09-10 11:00,ZGKL 101100Z AUTO 18006KT 6SM 28/25 A2977 RMK T02800250 IEM_DS3505
ZGKL,2008-09-10 12:00,ZGKL 101200Z AUTO 27002KT 7SM 30/23 A2977 RMK SLP082 T02950227 52014 IEM_DS3505
ZGKL,2008-09-10 13:00,ZGKL 101300Z AUTO 00000KT 4SM 26/25 A2980 RMK T02600250 IEM_DS3505
ZGKL,2008-09-10 14:00,ZGKL 101400Z AUTO 4SM 26/25 A2983 RMK T02600250 IEM_DS3505
ZGKL,2008-09-10 15:00,ZGKL 101500Z AUTO 36002KT 7SM 27/23 A2985 RMK SLP102 T02710234 52020 IEM_DS3505
ZGKL,2008-09-10 16:00,ZGKL 101600Z AUTO 31004KT 3SM 25/24 A2985 RMK T02500240 IEM_DS3505
ZGKL,2008-09-10 17:00,ZGKL 101700Z AUTO 31002KT 3SM 25/24 A2985 RMK T02500240 IEM_DS3505
ZGKL,2008-09-10 18:00,ZGKL 101800Z AUTO 02002KT 7SM 27/22 A2983 RMK SLP100 T02720222 57001 IEM_DS3505
ZGKL,2008-09-10 19:00,ZGKL 101900Z AUTO 34004KT 2 1/2SM 24/24 A2983 RMK T02400240 IEM_DS3505
ZGKL,2008-09-10 20:00,ZGKL 102000Z AUTO 3SM 24/24 A2983 RMK T02400240 IEM_DS3505
ZGKL,2008-09-10 21:00,ZGKL 102100Z AUTO 02002KT 7SM 26/22 A2983 RMK 70000 SLP099 T02630222 57001 IEM_DS3505
ZGKL,2008-09-10 22:00,ZGKL 102200Z AUTO 32002KT 2 1/2SM 24/24 A2985 RMK T02400240 IEM_DS3505
ZGKL,2008-09-10 23:00,ZGKL 102300Z AUTO 4SM 24/24 A2985 RMK T02400240 IEM_DS3505
ZGKL,2008-09-11 00:00,ZGKL 110000Z AUTO 02002KT 5SM 27/22 A2985 RMK SLP111 T02690221 52011 IEM_DS3505
ZGKL,2008-09-11 01:00,ZGKL 110100Z AUTO 4SM 27/24 A2988 RMK T02700240 IEM_DS3505
ZGKL,2008-09-11 02:00,ZGKL 110200Z AUTO 06006KT 4SM 30/25 A2988 RMK T03000250 IEM_DS3505
ZGKL,2008-09-11 03:00,ZGKL 110300Z AUTO 02004KT 5SM 30/23 A2988 RMK SLP114 T03020226 52003 IEM_DS3505
ZGKL,2008-09-11 04:00,ZGKL 110400Z AUTO 08004KT 3SM 32/25 A2985 RMK T03200250 IEM_DS3505
ZGKL,2008-09-11 05:00,ZGKL 110500Z AUTO 07008KT 3SM 32/24 A2983 RMK T03200240 IEM_DS3505
ZGKL,2008-09-11 06:00,ZGKL 110600Z AUTO 36004KT 5SM 33/22 A2980 RMK SLP082 T03260221 57030 IEM_DS3505
ZGKL,2008-09-11 07:00,ZGKL 110700Z AUTO 05006KT 4SM 33/24 A2977 RMK T03300240 IEM_DS3505
ZGKL,2008-09-11 08:00,ZGKL 110800Z AUTO 4SM 33/22 A2974 RMK T03300220 IEM_DS3505
ZGKL,2008-09-11 09:00,ZGKL 110900Z AUTO 02004KT 6SM 32/22 A2974 RMK SLP063 T03240225 57019 IEM_DS3505
ZGKL,2008-09-11 10:00,ZGKL 111000Z AUTO 35008KT 5SM 30/24 A2974 RMK T03000240 IEM_DS3505
ZGKL,2008-09-11 11:00,ZGKL 111100Z AUTO 03008KT 5SM 28/23 A2974 RMK T02800230 IEM_DS3505
ZGKL,2008-09-11 12:00,ZGKL 111200Z AUTO 02004KT 6SM 27/22 A2977 RMK SLP082 T02740217 52017 IEM_DS3505
ZGKL,2008-09-11 13:00,ZGKL 111300Z AUTO 4SM 26/24 A2980 RMK T02600240 IEM_DS3505
ZGKL,2008-09-11 14:00,ZGKL 111400Z AUTO 03006KT 3SM 26/23 A2983 RMK T02600230 IEM_DS3505
ZGKL,2008-09-11 15:00,ZGKL 111500Z AUTO 02004KT 5SM 26/22 A2983 RMK SLP101 T02590216 52019 IEM_DS3505
ZGKL,2008-09-11 16:00,ZGKL 111600Z AUTO 2 1/2SM 25/23 A2985 RMK T02500230 IEM_DS3505
ZGKL,2008-09-11 17:00,ZGKL 111700Z AUTO 31004KT 2 1/2SM 24/23 A2985 RMK T02400230 IEM_DS3505
ZGKL,2008-09-11 18:00,ZGKL 111800Z AUTO 02006KT 5SM 25/21 A2983 RMK SLP103 T02510208 52003 IEM_DS3505
ZGKL,2008-09-11 19:00,ZGKL 111900Z AUTO 35004KT 2 1/2SM 24/23 A2983 RMK T02400230 IEM_DS3505
ZGKL,2008-09-11 20:00,ZGKL 112000Z AUTO 32004KT 2SM 23/23 A2983 RMK T02300230 IEM_DS3505
ZGKL,2008-09-11 21:00,ZGKL 112100Z AUTO 04002KT 5SM 24/21 A2983 RMK SLP096 T02380209 57008 IEM_DS3505
ZGKL,2008-09-11 22:00,ZGKL 112200Z AUTO 03004KT 2SM 23/22 A2983 RMK T02300220 IEM_DS3505
ZGKL,2008-09-11 23:00,ZGKL 112300Z AUTO 31004KT 1SM 23/23 A2983 RMK T02300230 IEM_DS3505
ZGKL,2008-09-12 00:00,ZGKL 120000Z AUTO 02004KT 5SM 25/21 A2985 RMK SLP105 T02490208 52008 IEM_DS3505
ZGKL,2008-09-12 01:00,ZGKL 120100Z AUTO 2 1/2SM 26/23 A2985 RMK T02600230 IEM_DS3505
ZGKL,2008-09-12 02:00,ZGKL 120200Z AUTO 3SM 28/23 A2985 RMK T02800230 IEM_DS3505
ZGKL,2008-09-12 03:00,ZGKL 120300Z AUTO 36004KT 5SM 29/21 A2985 RMK SLP107 T02940211 52003 IEM_DS3505
ZGKL,2008-09-12 04:00,ZGKL 120400Z AUTO 4SM 31/22 A2983 RMK T03100220 IEM_DS3505
ZGKL,2008-09-12 05:00,ZGKL 120500Z AUTO 4SM 31/22 A2983 RMK T03100220 IEM_DS3505
ZGKL,2008-09-12 06:00,ZGKL 120600Z AUTO 07004KT 6SM 32/21 A2980 RMK SLP081 T03170213 57025 IEM_DS3505
ZGKL,2008-09-12 07:00,ZGKL 120700Z AUTO 4SM 32/22 A2977 RMK T03200220 IEM_DS3505
ZGKL,2008-09-12 08:00,ZGKL 120800Z AUTO 30006KT 4SM 32/22 A2974 RMK T03200220 IEM_DS3505
ZGKL,2008-09-12 09:00,ZGKL 120900Z AUTO 02006KT 7SM 32/20 A2971 RMK SLP061 T03160202 57020 IEM_DS3505
ZGKL,2008-09-12 10:00,ZGKL 121000Z AUTO 32006KT 4SM 31/23 A2974 RMK T03100230 IEM_DS3505
ZGKL,2008-09-12 11:00,ZGKL 121100Z AUTO 05006KT 3SM 29/23 A2974 RMK T02900230 IEM_DS3505
ZGKL,2008-09-12 12:00,ZGKL 121200Z AUTO 04004KT 7SM 28/21 A2977 RMK SLP076 T02770213 52014 IEM_DS3505
ZGKL,2008-09-12 13:00,ZGKL 121300Z AUTO 05012KT 3SM 28/22 A2977 RMK T02800220 IEM_DS3505
ZGKL,2008-09-12 14:00,ZGKL 121400Z AUTO 04012KT 3SM 28/21 A2980 RMK T02800210 IEM_DS3505
ZGKL,2008-09-12 15:00,ZGKL 121500Z AUTO 02006KT 7SM 26/20 A2980 RMK SLP089 T02650201 52013 IEM_DS3505
ZGKL,2008-09-12 16:00,ZGKL 121600Z AUTO 01008KT 4SM 27/21 A2980 RMK T02700210 IEM_DS3505
ZGKL,2008-09-12 17:00,ZGKL 121700Z AUTO 33004KT 4SM 26/22 A2980 RMK T02600220 IEM_DS3505
ZGKL,2008-09-12 18:00,ZGKL 121800Z AUTO 02004KT 7SM 26/20 A2980 RMK SLP085 T02560202 57003 IEM_DS3505
ZGKL,2008-09-12 19:00,ZGKL 121900Z AUTO 32004KT 3SM 24/22 A2980 RMK T02400220 IEM_DS3505
ZGKL,2008-09-12 20:00,ZGKL 122000Z AUTO 3SM 24/22 A2977 RMK T02400220 IEM_DS3505
ZGKL,2008-09-12 21:00,ZGKL 122100Z AUTO 02002KT 6SM 24/20 A2980 RMK SLP083 T02440201 57002 IEM_DS3505
ZGKL,2008-09-12 22:00,ZGKL 122200Z AUTO 33004KT 3SM 23/22 A2980 RMK T02300220 IEM_DS3505
ZGKL,2008-09-12 23:00,ZGKL 122300Z AUTO 33006KT 2SM 22/22 A2983 RMK T02200220 IEM_DS3505
ZGKL,2008-09-13 00:00,ZGKL 130000Z AUTO 02006KT 7SM 25/20 A2985 RMK SLP108 T02530199 52023 IEM_DS3505
ZGKL,2008-09-13 01:00,ZGKL 130100Z AUTO 4SM 27/23 A2988 RMK T02700230 IEM_DS3505
ZGKL,2008-09-13 02:00,ZGKL 130200Z AUTO 05010KT 6SM 28/20 A2988 RMK T02800200 IEM_DS3505
ZGKL,2008-09-13 03:00,ZGKL 130300Z AUTO 36010KT 7SM 29/18 A2988 RMK SLP115 T02900178 52008 IEM_DS3505
ZGKL,2008-09-13 04:00,ZGKL 130400Z AUTO 7SM 30/21 A2985 RMK T03000210 IEM_DS3505
ZGKL,2008-09-13 05:00,ZGKL 130500Z AUTO 6SM 31/21 A2983 RMK T03100210 IEM_DS3505
ZGKL,2008-09-13 06:00,ZGKL 130600Z AUTO 36006KT 8SM 31/20 A2980 RMK SLP089 T03130196 57025 IEM_DS3505
ZGKL,2008-09-13 07:00,ZGKL 130700Z AUTO 06006KT 7SM 32/21 A2977 RMK T03200210 IEM_DS3505
ZGKL,2008-09-13 08:00,ZGKL 130800Z AUTO 6SM 32/21 A2977 RMK T03200210 IEM_DS3505
ZGKL,2008-09-13 09:00,ZGKL 130900Z AUTO 04004KT 11SM 32/19 A2977 RMK SLP069 T03180191 57020 IEM_DS3505
ZGKL,2008-09-13 10:00,ZGKL 131000Z AUTO 06004KT 6SM 30/21 A2977 RMK T03000210 IEM_DS3505
ZGKL,2008-09-13 11:00,ZGKL 131100Z AUTO 04004KT 7SM 29/22 A2977 RMK T02900220 IEM_DS3505
ZGKL,2008-09-13 12:00,ZGKL 131200Z AUTO 04004KT 9SM 28/20 A2980 RMK SLP087 T02760204 52016 IEM_DS3505
ZGKL,2008-09-13 13:00,ZGKL 131300Z AUTO 32006KT 4SM 26/23 A2983 RMK T02600230 IEM_DS3505
ZGKL,2008-09-13 14:00,ZGKL 131400Z AUTO 4SM 26/22 A2985 RMK T02600220 IEM_DS3505
ZGKL,2008-09-13 15:00,ZGKL 131500Z AUTO 02004KT 9SM 26/17 A2985 RMK SLP108 T02620170 52022 IEM_DS3505
ZGKL,2008-09-13 16:00,ZGKL 131600Z AUTO 35006KT 4SM 24/21 A2985 RMK T02400210 IEM_DS3505
ZGKL,2008-09-13 17:00,ZGKL 131700Z AUTO 00000KT 5SM 23/21 A2985 RMK T02300210 IEM_DS3505
ZGKL,2008-09-13 18:00,ZGKL 131800Z AUTO 04004KT 9SM 26/16 A2985 RMK SLP105 T02550158 57003 IEM_DS3505
ZGKL,2008-09-13 19:00,ZGKL 131900Z AUTO 3SM 22/21 A2983 RMK T02200210 IEM_DS3505
ZGKL,2008-09-13 20:00,ZGKL 132000Z AUTO 31004KT 2 1/2SM 22/21 A2985 RMK T02200210 IEM_DS3505
ZGKL,2008-09-13 21:00,ZGKL 132100Z AUTO 02006KT 7SM 24/17 A2985 RMK SLP105 T02410169 54000 IEM_DS3505
ZGKL,2008-09-13 22:00,ZGKL 132200Z AUTO 3SM 21/21 A2985 RMK T02100210 IEM_DS3505
ZGKL,2008-09-13 23:00,ZGKL 132300Z AUTO 31004KT 4SM 21/21 A2985 RMK T02100210 IEM_DS3505
ZGKL,2008-09-14 00:00,ZGKL 140000Z AUTO 02002KT 6SM 25/18 A2988 RMK SLP117 T02490176 52011 IEM_DS3505
ZGKL,2008-09-14 01:00,ZGKL 140100Z AUTO 6SM 26/21 A2988 RMK T02600210 IEM_DS3505
ZGKL,2008-09-14 02:00,ZGKL 140200Z AUTO 6SM 28/19 A2988 RMK T02800190 IEM_DS3505
ZGKL,2008-09-14 03:00,ZGKL 140300Z AUTO 02008KT 6SM 29/18 A2988 RMK SLP116 T02870185 54000 IEM_DS3505
ZGKL,2008-09-14 04:00,ZGKL 140400Z AUTO 6SM 30/19 A2985 RMK T03000190 IEM_DS3505
ZGKL,2008-09-14 05:00,ZGKL 140500Z AUTO 6SM 31/18 A2985 RMK T03100180 IEM_DS3505
ZGKL,2008-09-14 06:00,ZGKL 140600Z AUTO 02008KT 6SM 32/18 A2980 RMK SLP086 T03180180 57029 IEM_DS3505
ZGKL,2008-09-14 07:00,ZGKL 140700Z AUTO 6SM 32/19 A2977 RMK T03200190 IEM_DS3505
ZGKL,2008-09-14 08:00,ZGKL 140800Z AUTO 6SM 32/20 A2977 RMK T03200200 IEM_DS3505
ZGKL,2008-09-14 09:00,ZGKL 140900Z AUTO 02006KT 8SM 32/19 A2977 RMK SLP072 T03180191 57014 IEM_DS3505
ZGKL,2008-09-14 10:00,ZGKL 141000Z AUTO 05004KT 7SM 30/20 A2977 RMK T03000200 IEM_DS3505
ZGKL,2008-09-14 11:00,ZGKL 141100Z AUTO 7SM 29/22 A2977 RMK T02900220 IEM_DS3505
ZGKL,2008-09-14 12:00,ZGKL 141200Z AUTO 36004KT 7SM 28/20 A2980 RMK SLP085 T02790202 52011 IEM_DS3505
ZGKL,2008-09-14 13:00,ZGKL 141300Z AUTO 5SM 27/23 A2980 RMK T02700230 IEM_DS3505
ZGKL,2008-09-14 14:00,ZGKL 141400Z AUTO 5SM 25/23 A2983 RMK T02500230 IEM_DS3505
ZGKL,2008-09-14 15:00,ZGKL 141500Z AUTO 02004KT 7SM 26/20 A2983 RMK SLP098 T02630204 52014 IEM_DS3505
ZGKL,2008-09-14 16:00,ZGKL 141600Z AUTO 4SM 24/23 A2983 RMK T02400230 IEM_DS3505
ZGKL,2008-09-14 17:00,ZGKL 141700Z AUTO 33004KT 1 1/2SM 23/23 A2983 RMK T02300230 IEM_DS3505
ZGKL,2008-09-14 18:00,ZGKL 141800Z AUTO 02004KT 7SM 26/19 A2983 RMK SLP094 T02590193 57003 IEM_DS3505
ZGKL,2008-09-14 19:00,ZGKL 141900Z AUTO 2 1/2SM 22/22 A2980 RMK T02200220 IEM_DS3505
ZGKL,2008-09-14 20:00,ZGKL 142000Z AUTO 33004KT 4SM 22/21 A2980 RMK T02200210 IEM_DS3505
ZGKL,2008-09-14 21:00,ZGKL 142100Z AUTO 02004KT 7SM 25/19 A2980 RMK SLP087 T02460194 57007 IEM_DS3505
ZGKL,2008-09-14 22:00,ZGKL 142200Z AUTO 31004KT 4SM 21/21 A2983 RMK T02100210 IEM_DS3505
ZGKL,2008-09-14 23:00,ZGKL 142300Z AUTO 33002KT 4SM 22/21 A2983 RMK T02200210 IEM_DS3505
ZGKL,2008-09-15 00:00,ZGKL 150000Z AUTO 02006KT 6SM 26/20 A2985 RMK SLP102 T02550196 52013 IEM_DS3505
ZGKL,2008-09-15 01:00,ZGKL 150100Z AUTO 33004KT 3SM 26/22 A2985 RMK T02600220 IEM_DS3505
ZGKL,2008-09-15 02:00,ZGKL 150200Z AUTO 4SM 29/21 A2985 RMK T02900210 IEM_DS3505
ZGKL,2008-09-15 03:00,ZGKL 150300Z AUTO 02006KT 5SM 30/20 A2985 RMK SLP101 T02970203 54000 IEM_DS3505
ZGKL,2008-09-15 04:00,ZGKL 150400Z AUTO 06008KT 4SM 31/21 A2983 RMK T03100210 IEM_DS3505
ZGKL,2008-09-15 05:00,ZGKL 150500Z AUTO 03010KT 4SM 32/21 A2980 RMK T03200210 IEM_DS3505
ZGKL,2008-09-15 06:00,ZGKL 150600Z AUTO 36008KT 7SM 32/19 A2977 RMK SLP075 T03150192 57025 IEM_DS3505
ZGKL,2008-09-15 07:00,ZGKL 150700Z AUTO 05008KT 4SM 32/20 A2974 RMK T03200200 IEM_DS3505
ZGKL,2008-09-15 08:00,ZGKL 150800Z AUTO 5SM 32/20 A2974 RMK T03200200 IEM_DS3505
ZGKL,2008-09-15 09:00,ZGKL 150900Z AUTO 02004KT 8SM 32/20 A2971 RMK SLP059 T03170203 57016 IEM_DS3505
ZGKL,2008-09-15 10:00,ZGKL 151000Z AUTO 03006KT 4SM 30/21 A2971 RMK T03000210 IEM_DS3505
ZGKL,2008-09-15 11:00,ZGKL 151100Z AUTO 03006KT 3SM 29/22 A2971 RMK T02900220 IEM_DS3505
ZGKL,2008-09-15 12:00,ZGKL 151200Z AUTO 02002KT 7SM 28/21 A2974 RMK SLP067 T02810207 52007 IEM_DS3505
ZGKL,2008-09-15 13:00,ZGKL 151300Z AUTO 31004KT 2 1/2SM 25/24 A2977 RMK T02500240 IEM_DS3505
ZGKL,2008-09-15 14:00,ZGKL 151400Z AUTO 29002KT 2 1/2SM 25/24 A2980 RMK T02500240 IEM_DS3505
ZGKL,2008-09-15 15:00,ZGKL 151500Z AUTO 36002KT 7SM 27/20 A2980 RMK SLP084 T02670205 52018 IEM_DS3505
ZGKL,2008-09-15 16:00,ZGKL 151600Z AUTO 35004KT 2 1/2SM 24/23 A2980 RMK T02400230 IEM_DS3505
ZGKL,2008-09-15 17:00,ZGKL 151700Z AUTO 2 1/2SM 23/23 A2977 RMK T02300230 IEM_DS3505
ZGKL,2008-09-15 18:00,ZGKL 151800Z AUTO 34004KT 7SM 26/21 A2977 RMK SLP077 T02580212 57007 IEM_DS3505
ZGKL,2008-09-15 19:00,ZGKL 151900Z AUTO 33004KT 2SM 22/22 A2977 RMK T02200220 IEM_DS3505
ZGKL,2008-09-15 20:00,ZGKL 152000Z AUTO 2SM 22/22 A2977 RMK T02200220 IEM_DS3505
ZGKL,2008-09-15 21:00,ZGKL 152100Z AUTO 02002KT 7SM 25/21 A2977 RMK SLP078 T02460211 52001 IEM_DS3505
ZGKL,2008-09-15 22:00,ZGKL 152200Z AUTO 2SM 22/21 A2980 RMK T02200210 IEM_DS3505
ZGKL,2008-09-15 23:00,ZGKL 152300Z AUTO 31004KT 2SM 22/22 A2980 RMK T02200220 IEM_DS3505
ZGKL,2008-09-16 00:00,ZGKL 160000Z AUTO 02002KT 6SM 25/22 A2983 RMK SLP093 T02530218 52014 IEM_DS3505
ZGKL,2008-09-16 01:00,ZGKL 160100Z AUTO 2 1/2SM 26/22 A2983 RMK T02600220 IEM_DS3505
ZGKL,2008-09-16 02:00,ZGKL 160200Z AUTO 3SM 28/23 A2983 RMK T02800230 IEM_DS3505
ZGKL,2008-09-16 03:00,ZGKL 160300Z AUTO 36002KT 6SM 30/22 A2983 RMK SLP091 T02980217 57001 IEM_DS3505
ZGKL,2008-09-16 04:00,ZGKL 160400Z AUTO 4SM 31/21 A2980 RMK T03100210 IEM_DS3505
ZGKL,2008-09-16 05:00,ZGKL 160500Z AUTO 4SM 31/22 A2977 RMK T03100220 IEM_DS3505
ZGKL,2008-09-16 06:00,ZGKL 160600Z AUTO 14002KT 6SM 32/21 A2974 RMK SLP065 T03230209 57026 IEM_DS3505
ZGKL,2008-09-16 07:00,ZGKL 160700Z AUTO 4SM 32/21 A2971 RMK T03200210 IEM_DS3505
ZGKL,2008-09-16 08:00,ZGKL 160800Z AUTO 4SM 33/21 A2971 RMK T03300210 IEM_DS3505
ZGKL,2008-09-16 09:00,ZGKL 160900Z AUTO 07002KT 7SM 33/21 A2968 RMK SLP048 T03270206 57016 IEM_DS3505
ZGKL,2008-09-16 10:00,ZGKL 161000Z AUTO 4SM 31/21 A2971 RMK T03100210 IEM_DS3505
ZGKL,2008-09-16 11:00,ZGKL 161100Z AUTO 4SM 29/24 A2971 RMK T02900240 IEM_DS3505
ZGKL,2008-09-16 12:00,ZGKL 161200Z AUTO 02004KT 7SM 29/22 A2974 RMK SLP062 T02930223 52012 IEM_DS3505
ZGKL,2008-09-16 13:00,ZGKL 161300Z AUTO 2SM 26/25 A2974 RMK T02600250 IEM_DS3505
ZGKL,2008-09-16 14:00,ZGKL 161400Z AUTO 31004KT 2SM 25/24 A2977 RMK T02500240 IEM_DS3505
ZGKL,2008-09-16 15:00,ZGKL 161500Z AUTO 02004KT 7SM 27/21 A2977 RMK SLP075 T02740212 52014 IEM_DS3505
ZGKL,2008-09-16 16:00,ZGKL 161600Z AUTO 35004KT 2 1/2SM 24/23 A2977 RMK T02400230 IEM_DS3505
ZGKL,2008-09-16 17:00,ZGKL 161700Z AUTO 32002KT 2 1/2SM 24/23 A2977 RMK T02400230 IEM_DS3505
ZGKL,2008-09-16 18:00,ZGKL 161800Z AUTO 02004KT 7SM 26/21 A2977 RMK SLP073 T02620212 57002 IEM_DS3505
ZGKL,2008-09-16 19:00,ZGKL 161900Z AUTO 00000KT 2SM 23/23 A2977 RMK T02300230 IEM_DS3505
ZGKL,2008-09-16 20:00,ZGKL 162000Z AUTO 28002KT 1 1/2SM 23/23 A2977 RMK T02300230 IEM_DS3505
ZGKL,2008-09-16 21:00,ZGKL 162100Z AUTO 36004KT 6SM 25/21 A2977 RMK SLP078 T02520211 52005 IEM_DS3505
ZGKL,2008-09-16 22:00,ZGKL 162200Z AUTO 31002KT 2SM 22/22 A2980 RMK T02200220 IEM_DS3505
ZGKL,2008-09-16 23:00,ZGKL 162300Z AUTO 31002KT 1 1/2SM 23/22 A2980 RMK T02300220 IEM_DS3505
ZGKL,2008-09-17 00:00,ZGKL 170000Z AUTO 04004KT 6SM 26/22 A2983 RMK SLP096 T02560217 52017 IEM_DS3505
ZGKL,2008-09-17 01:00,ZGKL 170100Z AUTO 3SM 27/23 A2983 RMK T02700230 IEM_DS3505
ZGKL,2008-09-17 02:00,ZGKL 170200Z AUTO 3SM 29/24 A2983 RMK T02900240 IEM_DS3505
ZGKL,2008-09-17 03:00,ZGKL 170300Z AUTO 34002KT 4SM 31/22 A2983 RMK SLP096 T03080221 52001 IEM_DS3505
ZGKL,2008-09-17 04:00,ZGKL 170400Z AUTO 4SM 32/22 A2983 RMK T03200220 IEM_DS3505
ZGKL,2008-09-17 05:00,ZGKL 170500Z AUTO 17006KT 4SM 33/22 A2977 RMK T03300220 IEM_DS3505
ZGKL,2008-09-17 06:00,ZGKL 170600Z AUTO 11002KT 6SM 34/21 A2974 RMK SLP066 T03390213 57029 IEM_DS3505
ZGKL,2008-09-17 07:00,ZGKL 170700Z AUTO 18004KT 5SM 34/21 A2974 RMK T03400210 IEM_DS3505
ZGKL,2008-09-17 08:00,ZGKL 170800Z AUTO 5SM 34/21 A2971 RMK T03400210 IEM_DS3505
ZGKL,2008-09-17 09:00,ZGKL 170900Z AUTO 32002KT 6SM 34/21 A2971 RMK SLP050 T03430210 57016 IEM_DS3505
ZGKL,2008-09-17 10:00,ZGKL 171000Z AUTO 09004KT 4SM 32/23 A2971 RMK T03200230 IEM_DS3505
ZGKL,2008-09-17 11:00,ZGKL 171100Z AUTO 10004KT 4SM 31/22 A2971 RMK T03100220 IEM_DS3505
ZGKL,2008-09-17 12:00,ZGKL 171200Z AUTO 00000KT 7SM 30/23 A2974 RMK SLP062 T03030230 52011 IEM_DS3505
ZGKL,2008-09-17 13:00,ZGKL 171300Z AUTO 3SM 27/26 A2977 RMK T02700260 IEM_DS3505
ZGKL,2008-09-17 14:00,ZGKL 171400Z AUTO 33006KT 3SM 27/25 A2977 RMK T02700250 IEM_DS3505
ZGKL,2008-09-17 15:00,ZGKL 171500Z AUTO 36004KT 6SM 28/23 A2980 RMK SLP082 T02840226 52021 IEM_DS3505
ZGKL,2008-09-17 16:00,ZGKL 171600Z AUTO 32002KT 2 1/2SM 25/25 A2980 RMK T02500250 IEM_DS3505
ZGKL,2008-09-17 17:00,ZGKL 171700Z AUTO 30004KT 2 1/2SM 25/25 A2980 RMK T02500250 IEM_DS3505
ZGKL,2008-09-17 18:00,ZGKL 171800Z AUTO 02002KT 6SM 28/22 A2980 RMK SLP081 T02800222 57001 IEM_DS3505
ZGKL,2008-09-17 19:00,ZGKL 171900Z AUTO 31004KT 2SM 24/24 A2977 RMK T02400240 IEM_DS3505
ZGKL,2008-09-17 20:00,ZGKL 172000Z AUTO 32002KT 1 1/2SM 24/24 A2977 RMK T02400240 IEM_DS3505
ZGKL,2008-09-17 21:00,ZGKL 172100Z AUTO 00000KT 6SM 26/22 A2977 RMK SLP077 T02630224 57004 IEM_DS3505
ZGKL,2008-09-17 22:00,ZGKL 172200Z AUTO 27002KT 3SM 23/23 A2980 RMK T02300230 IEM_DS3505
ZGKL,2008-09-17 23:00,ZGKL 172300Z AUTO 29004KT 3SM 23/23 A2980 RMK T02300230 IEM_DS3505
ZGKL,2008-09-18 00:00,ZGKL 180000Z AUTO 07004KT 4SM 26/23 A2980 RMK SLP091 T02630226 52013 IEM_DS3505
ZGKL,2008-09-18 01:00,ZGKL 180100Z AUTO 2 1/2SM 27/24 A2983 RMK T02700240 IEM_DS3505
ZGKL,2008-09-18 02:00,ZGKL 180200Z AUTO 2 1/2SM 30/24 A2983 RMK T03000240 IEM_DS3505
ZGKL,2008-09-18 03:00,ZGKL 180300Z AUTO 02004KT 4SM 32/22 A2983 RMK SLP097 T03160223 52006 IEM_DS3505
ZGKL,2008-09-18 04:00,ZGKL 180400Z AUTO 3SM 33/24 A2983 RMK T03300240 IEM_DS3505
ZGKL,2008-09-18 05:00,ZGKL 180500Z AUTO 4SM 34/24 A2977 RMK T03400240 IEM_DS3505
ZGKL,2008-09-18 06:00,ZGKL 180600Z AUTO 14004KT 6SM 34/22 A2974 RMK SLP062 T03430217 57033 IEM_DS3505
ZGKL,2008-09-18 07:00,ZGKL 180700Z AUTO 4SM 35/23 A2971 RMK T03500230 IEM_DS3505
ZGKL,2008-09-18 08:00,ZGKL 180800Z AUTO 20004KT 5SM 35/21 A2971 RMK T03500210 IEM_DS3505
ZGKL,2008-09-18 09:00,ZGKL 180900Z AUTO 25004KT 7SM 35/23 A2971 RMK SLP051 T03460230 57011 IEM_DS3505
ZGKL,2008-09-18 10:00,ZGKL 181000Z AUTO 17008KT 5SM 29/23 A2974 RMK T02900230 IEM_DS3505
ZGKL,2008-09-18 11:00,ZGKL 181100Z AUTO 19004KT 5SM 28/24 A2974 RMK T02800240 IEM_DS3505
ZGKL,2008-09-18 12:00,ZGKL 181200Z AUTO 32004KT 7SM 30/23 A2977 RMK SLP073 T02970232 52020 IEM_DS3505
ZGKL,2008-09-18 13:00,ZGKL 181300Z AUTO 11004KT 4SM 27/23 A2980 RMK T02700230 IEM_DS3505
ZGKL,2008-09-18 14:00,ZGKL 181400Z AUTO 4SM 26/24 A2983 RMK T02600240 IEM_DS3505
ZGKL,2008-09-18 15:00,ZGKL 181500Z AUTO 36002KT 6SM 28/23 A2983 RMK SLP095 T02790226 52022 IEM_DS3505
ZGKL,2008-09-18 16:00,ZGKL 181600Z AUTO 4SM 25/24 A2983 RMK T02500240 IEM_DS3505
ZGKL,2008-09-18 17:00,ZGKL 181700Z AUTO 2SM 25/24 A2983 RMK T02500240 IEM_DS3505
ZGKL,2008-09-18 18:00,ZGKL 181800Z AUTO 29002KT 6SM 27/24 A2983 RMK SLP094 T02670240 54000 IEM_DS3505
ZGKL,2008-09-18 19:00,ZGKL 181900Z AUTO 00000KT 1 1/2SM 24/24 A2983 RMK T02400240 IEM_DS3505
ZGKL,2008-09-18 20:00,ZGKL 182000Z AUTO 00000KT 1 1/2SM 24/24 A2983 RMK T02400240 IEM_DS3505
ZGKL,2008-09-18 21:00,ZGKL 182100Z AUTO 04002KT 6SM 26/24 A2983 RMK SLP094 T02590239 54000 IEM_DS3505
ZGKL,2008-09-18 22:00,ZGKL 182200Z AUTO 00000KT 2 1/2SM 24/24 A2983 RMK T02400240 IEM_DS3505
ZGKL,2008-09-18 23:00,ZGKL 182300Z AUTO 2SM 24/23 A2983 RMK T02400230 IEM_DS3505
ZGKL,2008-09-19 00:00,ZGKL 190000Z AUTO 07002KT 4SM 26/24 A2985 RMK SLP106 T02590243 52010 IEM_DS3505
ZGKL,2008-09-19 01:00,ZGKL 190100Z AUTO 2SM 27/24 A2988 RMK T02700240 IEM_DS3505
ZGKL,2008-09-19 02:00,ZGKL 190200Z AUTO 2SM 29/25 A2985 RMK T02900250 IEM_DS3505
ZGKL,2008-09-19 03:00,ZGKL 190300Z AUTO 18004KT 4SM 30/24 A2985 RMK SLP107 T03050239 52002 IEM_DS3505
ZGKL,2008-09-19 04:00,ZGKL 190400Z AUTO 20004KT 2 1/2SM 32/25 A2985 RMK T03200250 IEM_DS3505
ZGKL,2008-09-19 05:00,ZGKL 190500Z AUTO 17004KT 3SM 33/25 A2983 RMK T03300250 IEM_DS3505
ZGKL,2008-09-19 06:00,ZGKL 190600Z AUTO 25004KT 4SM 33/23 A2980 RMK SLP083 T03330233 57023 IEM_DS3505
ZGKL,2008-09-19 07:00,ZGKL 190700Z AUTO 3SM 34/25 A2977 RMK T03400250 IEM_DS3505
ZGKL,2008-09-19 08:00,ZGKL 190800Z AUTO 17006KT 3SM 34/24 A2974 RMK T03400240 IEM_DS3505
ZGKL,2008-09-19 09:00,ZGKL 190900Z AUTO 25002KT 5SM 34/23 A2974 RMK SLP065 T03380229 57018 IEM_DS3505
ZGKL,2008-09-19 10:00,ZGKL 191000Z AUTO 19004KT 3SM 31/26 A2977 RMK T03100260 IEM_DS3505
ZGKL,2008-09-19 11:00,ZGKL 191100Z AUTO 20002KT 2 1/2SM 29/25 A2977 RMK T02900250 IEM_DS3505
ZGKL,2008-09-19 12:00,ZGKL 191200Z AUTO 09002KT 5SM 31/24 A2980 RMK SLP085 T03070244 52019 IEM_DS3505
ZGKL,2008-09-19 13:00,ZGKL 191300Z AUTO 2SM 27/26 A2983 RMK T02700260 IEM_DS3505
ZGKL,2008-09-19 14:00,ZGKL 191400Z AUTO 1 1/2SM 27/26 A2983 RMK T02700260 IEM_DS3505
ZGKL,2008-09-19 15:00,ZGKL 191500Z AUTO 36002KT 5SM 29/24 A2983 RMK SLP099 T02870245 52014 IEM_DS3505
ZGKL,2008-09-19 16:00,ZGKL 191600Z AUTO 1 1/4SM 26/25 A2983 RMK T02600250 IEM_DS3505
ZGKL,2008-09-19 17:00,ZGKL 191700Z AUTO 30002KT 1SM 25/25 A2983 RMK T02500250 IEM_DS3505
ZGKL,2008-09-19 18:00,ZGKL 191800Z AUTO 04002KT 5SM 27/24 A2983 RMK SLP092 T02700245 57006 IEM_DS3505
ZGKL,2008-09-19 19:00,ZGKL 191900Z AUTO 30002KT 1SM 25/25 A2983 RMK T02500250 IEM_DS3505
ZGKL,2008-09-19 20:00,ZGKL 192000Z AUTO 32002KT 1SM 25/25 A2983 RMK T02500250 IEM_DS3505
ZGKL,2008-09-19 21:00,ZGKL 192100Z AUTO 04002KT 5SM 26/24 A2983 RMK SLP097 T02570243 52004 IEM_DS3505
ZGKL,2008-09-19 22:00,ZGKL 192200Z AUTO 00000KT 1SM 25/25 A2983 RMK T02500250 IEM_DS3505
ZGKL,2008-09-19 23:00,ZGKL 192300Z AUTO 00000KT 1SM 25/25 A2985 RMK T02500250 IEM_DS3505
ZGKL,2008-09-20 00:00,ZGKL 200000Z AUTO 04002KT 5SM 27/24 A2988 RMK SLP111 T02700243 52014 IEM_DS3505
ZGKL,2008-09-20 01:00,ZGKL 200100Z AUTO 1SM 27/25 A2988 RMK T02700250 IEM_DS3505
ZGKL,2008-09-20 02:00,ZGKL 200200Z AUTO 1 1/2SM 29/26 A2988 RMK T02900260 IEM_DS3505
ZGKL,2008-09-20 03:00,ZGKL 200300Z AUTO 18004KT 4SM 31/23 A2988 RMK SLP111 T03140232 54000 IEM_DS3505
ZGKL,2008-09-20 04:00,ZGKL 200400Z AUTO 3SM 32/25 A2985 RMK T03200250 IEM_DS3505
ZGKL,2008-09-20 05:00,ZGKL 200500Z AUTO 25004KT 3SM 33/25 A2983 RMK T03300250 IEM_DS3505
ZGKL,2008-09-20 06:00,ZGKL 200600Z AUTO 09002KT 6SM 34/22 A2980 RMK SLP079 T03360224 57031 IEM_DS3505
ZGKL,2008-09-20 07:00,ZGKL 200700Z AUTO 11004KT 4SM 33/24 A2977 RMK T03300240 IEM_DS3505
ZGKL,2008-09-20 08:00,ZGKL 200800Z AUTO 5SM 34/23 A2974 RMK T03400230 IEM_DS3505
ZGKL,2008-09-20 09:00,ZGKL 200900Z AUTO 22004KT 7SM 34/22 A2971 RMK SLP059 T03400218 57020 IEM_DS3505
ZGKL,2008-09-20 10:00,ZGKL 201000Z AUTO 5SM 32/24 A2971 RMK T03200240 IEM_DS3505
ZGKL,2008-09-20 11:00,ZGKL 201100Z AUTO 3SM 30/26 A2974 RMK T03000260 IEM_DS3505
ZGKL,2008-09-20 12:00,ZGKL 201200Z AUTO 09002KT 7SM 31/22 A2977 RMK SLP074 T03060225 52014 IEM_DS3505
ZGKL,2008-09-20 13:00,ZGKL 201300Z AUTO 00000KT 2 1/2SM 28/26 A2980 RMK T02800260 IEM_DS3505
ZGKL,2008-09-20 14:00,ZGKL 201400Z AUTO 2 1/2SM 27/26 A2980 RMK T02700260 IEM_DS3505
ZGKL,2008-09-20 15:00,ZGKL 201500Z AUTO 07002KT 7SM 28/24 A2980 RMK SLP082 T02830241 52009 IEM_DS3505
ZGKL,2008-09-20 16:00,ZGKL 201600Z AUTO 00000KT 2SM 26/25 A2977 RMK T02600250 IEM_DS3505
ZGKL,2008-09-20 17:00,ZGKL 201700Z AUTO 00000KT 2SM 26/25 A2977 RMK T02600250 IEM_DS3505
ZGKL,2008-09-20 18:00,ZGKL 201800Z AUTO 04002KT 7SM 27/24 A2974 RMK SLP071 T02660237 57011 IEM_DS3505
ZGKL,2008-09-20 19:00,ZGKL 201900Z AUTO 1 1/4SM 25/25 A2974 RMK T02500250 IEM_DS3505
ZGKL,2008-09-20 20:00,ZGKL 202000Z AUTO 00000KT 1SM 24/24 A2977 RMK T02400240 IEM_DS3505
ZGKL,2008-09-20 21:00,ZGKL 202100Z AUTO 07002KT 6SM 26/24 A2977 RMK SLP072 T02550237 52001 IEM_DS3505
ZGKL,2008-09-20 22:00,ZGKL 202200Z AUTO 32002KT 1 1/4SM 24/24 A2977 RMK T02400240 IEM_DS3505
ZGKL,2008-09-20 23:00,ZGKL 202300Z AUTO 1SM 24/24 A2980 RMK T02400240 IEM_DS3505
ZGKL,2008-09-21 00:00,ZGKL 210000Z AUTO 02002KT 5SM 27/24 A2980 RMK SLP088 T02670240 52015 IEM_DS3505
ZGKL,2008-09-21 01:00,ZGKL 210100Z AUTO 2 1/2SM 28/25 A2980 RMK T02800250 IEM_DS3505
ZGKL,2008-09-21 02:00,ZGKL 210200Z AUTO 20006KT 5SM 31/25 A2983 RMK T03100250 IEM_DS3505
ZGKL,2008-09-21 03:00,ZGKL 210300Z AUTO 25002KT 6SM 31/22 A2980 RMK SLP086 T03140224 57001 IEM_DS3505
ZGKL,2008-09-21 04:00,ZGKL 210400Z AUTO 19008KT 7SM 33/24 A2977 RMK T03300240 IEM_DS3505
ZGKL,2008-09-21 05:00,ZGKL 210500Z AUTO 19008KT 7SM 34/24 A2974 RMK T03400240 IEM_DS3505
ZGKL,2008-09-21 06:00,ZGKL 210600Z AUTO 20006KT 9SM 34/21 A2971 RMK SLP060 T03410212 57026 IEM_DS3505
ZGKL,2008-09-21 07:00,ZGKL 210700Z AUTO 19006KT 7SM 34/23 A2971 RMK T03400230 IEM_DS3505
ZGKL,2008-09-21 08:00,ZGKL 210800Z AUTO 22006KT 7SM 34/23 A2968 RMK T03400230 IEM_DS3505
ZGKL,2008-09-21 09:00,ZGKL 210900Z AUTO 22004KT 11SM 34/20 A2968 RMK SLP042 T03430199 57018 IEM_DS3505
ZGKL,2008-09-21 10:00,ZGKL 211000Z AUTO 17008KT 6SM 32/24 A2968 RMK T03200240 IEM_DS3505
ZGKL,2008-09-21 11:00,ZGKL 211100Z AUTO 17008KT 6SM 29/24 A2968 RMK T02900240 IEM_DS3505
ZGKL,2008-09-21 12:00,ZGKL 211200Z AUTO 00000KT 10SM 31/22 A2971 RMK SLP054 T03060222 52011 IEM_DS3505
ZGKL,2008-09-21 13:00,ZGKL 211300Z AUTO 27004KT 5SM 27/25 A2971 RMK T02700250 IEM_DS3505
ZGKL,2008-09-21 14:00,ZGKL 211400Z AUTO 28002KT 4SM 26/25 A2974 RMK T02600250 IEM_DS3505
ZGKL,2008-09-21 15:00,ZGKL 211500Z AUTO 29002KT 9SM 28/23 A2974 RMK SLP060 T02810232 52007 IEM_DS3505
ZGKL,2008-09-21 16:00,ZGKL 211600Z AUTO 29002KT 3SM 25/25 A2974 RMK T02500250 IEM_DS3505
ZGKL,2008-09-21 17:00,ZGKL 211700Z AUTO 30002KT 3SM 25/24 A2974 RMK T02500240 IEM_DS3505
ZGKL,2008-09-21 18:00,ZGKL 211800Z AUTO 04002KT 7SM 26/23 A2974 RMK SLP059 T02640229 57001 IEM_DS3505
ZGKL,2008-09-21 19:00,ZGKL 211900Z AUTO 28002KT 3SM 24/24 A2971 RMK T02400240 IEM_DS3505
ZGKL,2008-09-21 20:00,ZGKL 212000Z AUTO 3SM 24/23 A2971 RMK T02400230 IEM_DS3505
ZGKL,2008-09-21 21:00,ZGKL 212100Z AUTO 00000KT 7SM 25/23 A2971 RMK SLP058 T02510232 57001 IEM_DS3505
ZGKL,2008-09-21 22:00,ZGKL 212200Z AUTO 00000KT 3SM 23/23 A2974 RMK T02300230 IEM_DS3505
ZGKL,2008-09-21 23:00,ZGKL 212300Z AUTO 00000KT 5SM 24/24 A2974 RMK T02400240 IEM_DS3505
ZGKL,2008-09-22 00:00,ZGKL 220000Z AUTO 02002KT 5SM 26/24 A2974 RMK SLP071 T02630236 52012 IEM_DS3505
ZGKL,2008-09-22 01:00,ZGKL 220100Z AUTO 6SM 28/24 A2977 RMK T02800240 IEM_DS3505
ZGKL,2008-09-22 02:00,ZGKL 220200Z AUTO 6SM 30/25 A2977 RMK T03000250 IEM_DS3505
ZGKL,2008-09-22 03:00,ZGKL 220300Z AUTO 16004KT 5SM 32/24 A2977 RMK SLP070 T03170235 54000 IEM_DS3505
ZGKL,2008-09-22 04:00,ZGKL 220400Z AUTO 6SM 34/24 A2971 RMK T03400240 IEM_DS3505
ZGKL,2008-09-22 05:00,ZGKL 220500Z AUTO 6SM 34/24 A2968 RMK T03400240 IEM_DS3505
ZGKL,2008-09-22 06:00,ZGKL 220600Z AUTO 16002KT 8SM 35/21 A2965 RMK SLP039 T03480207 57030 IEM_DS3505
ZGKL,2008-09-22 07:00,ZGKL 220700Z AUTO 6SM 35/22 A2962 RMK T03500220 IEM_DS3505
ZGKL,2008-09-22 08:00,ZGKL 220800Z AUTO 6SM 35/22 A2962 RMK T03500220 IEM_DS3505
ZGKL,2008-09-22 09:00,ZGKL 220900Z AUTO 00000KT 9SM 36/20 A2959 RMK SLP018 T03560203 57021 IEM_DS3505
ZGKL,2008-09-22 10:00,ZGKL 221000Z AUTO 6SM 34/24 A2959 RMK T03400240 IEM_DS3505
ZGKL,2008-09-22 11:00,ZGKL 221100Z AUTO 11004KT 6SM 32/24 A2962 RMK T03200240 IEM_DS3505
ZGKL,2008-09-22 12:00,ZGKL 221200Z AUTO 36002KT 9SM 31/23 A2962 RMK SLP030 T03130231 52011 IEM_DS3505
ZGKL,2008-09-22 13:00,ZGKL 221300Z AUTO 34004KT 5SM 28/26 A2965 RMK T02800260 IEM_DS3505
ZGKL,2008-09-22 14:00,ZGKL 221400Z AUTO 34004KT 5SM 27/25 A2968 RMK T02700250 IEM_DS3505
ZGKL,2008-09-22 15:00,ZGKL 221500Z AUTO 02002KT 9SM 29/24 A2968 RMK SLP044 T02890236 52015 IEM_DS3505
ZGKL,2008-09-22 16:00,ZGKL 221600Z AUTO 29004KT 5SM 26/25 A2968 RMK T02600250 IEM_DS3505
ZGKL,2008-09-22 17:00,ZGKL 221700Z AUTO 30004KT 5SM 26/25 A2968 RMK T02600250 IEM_DS3505
ZGKL,2008-09-22 18:00,ZGKL 221800Z AUTO 34002KT 8SM 28/24 A2968 RMK SLP038 T02760240 57006 IEM_DS3505
ZGKL,2008-09-22 19:00,ZGKL 221900Z AUTO 33004KT 4SM 25/24 A2965 RMK T02500240 IEM_DS3505
ZGKL,2008-09-22 20:00,ZGKL 222000Z AUTO 31004KT 4SM 25/24 A2965 RMK T02500240 IEM_DS3505
ZGKL,2008-09-22 21:00,ZGKL 222100Z AUTO 36006KT 8SM 27/23 A2965 RMK SLP035 T02690229 57003 IEM_DS3505
ZGKL,2008-09-22 22:00,ZGKL 222200Z AUTO 27004KT 4SM 24/24 A2968 RMK T02400240 IEM_DS3505
ZGKL,2008-09-22 23:00,ZGKL 222300Z AUTO 5SM 24/24 A2968 RMK T02400240 IEM_DS3505
ZGKL,2008-09-23 00:00,ZGKL 230000Z AUTO 04002KT 6SM 28/23 A2968 RMK SLP049 T02790233 52013 IEM_DS3505
ZGKL,2008-09-23 01:00,ZGKL 230100Z AUTO 6SM 29/24 A2971 RMK T02900240 IEM_DS3505
ZGKL,2008-09-23 02:00,ZGKL 230200Z AUTO 6SM 31/25 A2968 RMK T03100250 IEM_DS3505
ZGKL,2008-09-23 03:00,ZGKL 230300Z AUTO 02010KT 6SM 34/23 A2968 RMK SLP040 T03400231 57008 IEM_DS3505
ZGKL,2008-09-23 04:00,ZGKL 230400Z AUTO 03019KT 4SM 35/23 A2965 RMK T03500230 IEM_DS3505
ZGKL,2008-09-23 05:00,ZGKL 230500Z AUTO 04014KT 4SM 36/23 A2962 RMK T03600230 IEM_DS3505
ZGKL,2008-09-23 06:00,ZGKL 230600Z AUTO 02008KT 6SM 36/22 A2959 RMK SLP018 T03590217 57021 IEM_DS3505
ZGKL,2008-09-23 07:00,ZGKL 230700Z AUTO 04014KT 4SM 36/22 A2959 RMK T03600220 IEM_DS3505
ZGKL,2008-09-23 08:00,ZGKL 230800Z AUTO 06012KT 4SM 35/22 A2956 RMK T03500220 IEM_DS3505
ZGKL,2008-09-23 09:00,ZGKL 230900Z AUTO 04006KT 7SM 35/20 A2956 RMK SLP006 T03490201 57012 IEM_DS3505
ZGKL,2008-09-23 10:00,ZGKL 231000Z AUTO 05006KT 4SM 33/22 A2956 RMK T03300220 IEM_DS3505
ZGKL,2008-09-23 11:00,ZGKL 231100Z AUTO 06004KT 3SM 31/22 A2956 RMK T03100220 IEM_DS3505
ZGKL,2008-09-23 12:00,ZGKL 231200Z AUTO 02006KT 7SM 32/21 A2956 RMK SLP011 T03220211 52004 IEM_DS3505
ZGKL,2008-09-23 13:00,ZGKL 231300Z AUTO 3SM 31/22 A2959 RMK T03100220 IEM_DS3505
ZGKL,2008-09-23 14:00,ZGKL 231400Z AUTO 03004KT 3SM 31/21 A2962 RMK T03100210 IEM_DS3505
ZGKL,2008-09-23 15:00,ZGKL 231500Z AUTO 02008KT 7SM 32/22 A2962 RMK SLP018 T03180216 52009 IEM_DS3505
ZGKL,2008-09-23 16:00,ZGKL 231600Z AUTO 04010KT 3SM 31/22 A2962 RMK T03100220 IEM_DS3505
ZGKL,2008-09-23 17:00,ZGKL 231700Z AUTO 03014KT 2 1/2SM 30/22 A2959 RMK T03000220 IEM_DS3505
ZGKL,2008-09-23 18:00,ZGKL 231800Z AUTO 2 1/2SM 30/22 A2956 RMK T03000220 IEM_DS3505
ZGKL,2008-09-23 19:00,ZGKL 231900Z AUTO 04008KT 2 1/2SM 29/22 A2956 RMK T02900220 IEM_DS3505
ZGKL,2008-09-23 20:00,ZGKL 232000Z AUTO 2 1/2SM 29/22 A2956 RMK T02900220 IEM_DS3505
ZGKL,2008-09-23 21:00,ZGKL 232100Z AUTO 36016KT 7SM 29/22 A2953 RMK SLP998 T02920224 57010 IEM_DS3505
ZGKL,2008-09-23 22:00,ZGKL 232200Z AUTO 3SM 30/22 A2956 RMK T03000220 IEM_DS3505
ZGKL,2008-09-23 23:00,ZGKL 232300Z AUTO 04010KT 3SM 30/22 A2956 RMK T03000220 IEM_DS3505
ZGKL,2008-09-24 00:00,ZGKL 240000Z AUTO 02014KT 5SM 29/22 A2959 RMK SLP016 T02900223 52016 IEM_DS3505
ZGKL,2008-09-24 01:00,ZGKL 240100Z AUTO 03017KT 3SM 30/22 A2959 RMK T03000220 IEM_DS3505
ZGKL,2008-09-24 02:00,ZGKL 240200Z AUTO 03016KT 3SM 30/22 A2959 RMK T03000220 IEM_DS3505
ZGKL,2008-09-24 03:00,ZGKL 240300Z AUTO 02014KT 6SM 29/22 A2962 RMK SLP029 T02920219 52013 IEM_DS3505
ZGKL,2008-09-24 04:00,ZGKL 240400Z AUTO 03017KT 4SM 30/22 A2959 RMK T03000220 IEM_DS3505
ZGKL,2008-09-24 05:00,ZGKL 240500Z AUTO 04019KT 4SM 30/21 A2956 RMK T03000210 IEM_DS3505
ZGKL,2008-09-24 06:00,ZGKL 240600Z AUTO 02008KT 5SM 28/22 A2956 RMK 60000 SLP017 T02790224 57013 IEM_DS3505
ZGKL,2008-09-24 07:00,ZGKL 240700Z AUTO 04014KT 3SM 27/24 A2959 RMK T02700240 IEM_DS3505
ZGKL,2008-09-24 08:00,ZGKL 240800Z AUTO 03014KT 3SM 26/24 A2959 RMK T02600240 IEM_DS3505
ZGKL,2008-09-24 09:00,ZGKL 240900Z AUTO 02006KT 7SM 27/22 A2959 RMK SLP023 T02700220 52006 IEM_DS3505
ZGKL,2008-09-24 10:00,ZGKL 241000Z AUTO 03012KT 4SM 26/23 A2962 RMK T02600230 IEM_DS3505
ZGKL,2008-09-24 11:00,ZGKL 241100Z AUTO 04012KT 4SM 26/23 A2965 RMK T02600230 IEM_DS3505
ZGKL,2008-09-24 12:00,ZGKL 241200Z AUTO 02006KT 6SM 27/22 A2965 RMK 60000 SLP044 T02680216 52020 IEM_DS3505
ZGKL,2008-09-24 13:00,ZGKL 241300Z AUTO 04012KT 4SM 27/23 A2968 RMK T02700230 IEM_DS3505
ZGKL,2008-09-24 14:00,ZGKL 241400Z AUTO 04010KT 4SM 26/23 A2971 RMK T02600230 IEM_DS3505
ZGKL,2008-09-24 15:00,ZGKL 241500Z AUTO 02004KT 6SM 26/22 A2971 RMK SLP062 T02610220 52018 IEM_DS3505
ZGKL,2008-09-24 16:00,ZGKL 241600Z AUTO 05012KT 3SM 25/23 A2971 RMK T02500230 IEM_DS3505
ZGKL,2008-09-24 17:00,ZGKL 241700Z AUTO 05012KT 3SM 25/23 A2971 RMK T02500230 IEM_DS3505
ZGKL,2008-09-24 18:00,ZGKL 241800Z AUTO 02006KT 6SM 25/22 A2971 RMK 60000 SLP055 T02520219 57008 IEM_DS3505
ZGKL,2008-09-24 19:00,ZGKL 241900Z AUTO 04012KT 3SM 24/23 A2971 RMK T02400230 IEM_DS3505
ZGKL,2008-09-24 20:00,ZGKL 242000Z AUTO 05010KT 3SM 25/23 A2968 RMK T02500230 IEM_DS3505
ZGKL,2008-09-24 21:00,ZGKL 242100Z AUTO 02008KT 6SM 25/21 A2971 RMK 70000 SLP057 T02510214 52002 IEM_DS3505
ZGKL,2008-09-24 22:00,ZGKL 242200Z AUTO 05010KT 3SM 25/22 A2971 RMK T02500220 IEM_DS3505
ZGKL,2008-09-24 23:00,ZGKL 242300Z AUTO 04010KT 2 1/2SM 25/22 A2974 RMK T02500220 IEM_DS3505
ZGKL,2008-09-25 00:00,ZGKL 250000Z AUTO 02006KT 6SM 25/21 A2977 RMK 70000 SLP083 T02470210 52025 IEM_DS3505
ZGKL,2008-09-25 01:00,ZGKL 250100Z AUTO 04008KT 4SM 25/23 A2980 RMK T02500230 IEM_DS3505
ZGKL,2008-09-25 02:00,ZGKL 250200Z AUTO 04010KT 4SM 26/22 A2980 RMK T02600220 IEM_DS3505
ZGKL,2008-09-25 03:00,ZGKL 250300Z AUTO 02006KT 7SM 26/21 A2980 RMK SLP090 T02630213 52007 IEM_DS3505
ZGKL,2008-09-25 04:00,ZGKL 250400Z AUTO 05008KT 5SM 27/23 A2980 RMK T02700230 IEM_DS3505
ZGKL,2008-09-25 05:00,ZGKL 250500Z AUTO 04010KT 7SM 30/23 A2977 RMK T03000230 IEM_DS3505
ZGKL,2008-09-25 06:00,ZGKL 250600Z AUTO 02008KT 8SM 29/21 A2974 RMK 60000 SLP069 T02930213 57020 IEM_DS3505
ZGKL,2008-09-25 07:00,ZGKL 250700Z AUTO 7SM 28/24 A2971 RMK T02800240 IEM_DS3505
ZGKL,2008-09-25 08:00,ZGKL 250800Z AUTO 04012KT 7SM 30/23 A2971 RMK T03000230 IEM_DS3505
ZGKL,2008-09-25 09:00,ZGKL 250900Z AUTO 04004KT 9SM 29/22 A2971 RMK SLP056 T02930218 57012 IEM_DS3505
ZGKL,2008-09-25 10:00,ZGKL 251000Z AUTO 03008KT 7SM 28/23 A2971 RMK T02800230 IEM_DS3505
ZGKL,2008-09-25 11:00,ZGKL 251100Z AUTO 04006KT 7SM 28/23 A2974 RMK T02800230 IEM_DS3505
ZGKL,2008-09-25 12:00,ZGKL 251200Z AUTO 07004KT 9SM 28/22 A2977 RMK SLP081 T02780218 52023 IEM_DS3505
ZGKL,2008-09-25 13:00,ZGKL 251300Z AUTO 31004KT 4SM 25/24 A2980 RMK T02500240 IEM_DS3505
ZGKL,2008-09-25 14:00,ZGKL 251400Z AUTO 32004KT 4SM 24/24 A2983 RMK T02400240 IEM_DS3505
ZGKL,2008-09-25 15:00,ZGKL 251500Z AUTO 36002KT 9SM 26/21 A2983 RMK SLP099 T02650210 52018 IEM_DS3505
ZGKL,2008-09-25 16:00,ZGKL 251600Z AUTO 3SM 24/24 A2983 RMK T02400240 IEM_DS3505
ZGKL,2008-09-25 17:00,ZGKL 251700Z AUTO 3SM 25/24 A2983 RMK T02500240 IEM_DS3505
ZGKL,2008-09-25 18:00,ZGKL 251800Z AUTO 36004KT 9SM 26/22 A2980 RMK SLP092 T02560219 57006 IEM_DS3505
ZGKL,2008-09-25 19:00,ZGKL 251900Z AUTO 23002KT 3SM 24/23 A2983 RMK T02400230 IEM_DS3505
ZGKL,2008-09-25 20:00,ZGKL 252000Z AUTO 2 1/2SM 24/23 A2980 RMK T02400230 IEM_DS3505
ZGKL,2008-09-25 21:00,ZGKL 252100Z AUTO 02004KT 8SM 25/22 A2980 RMK 70000 SLP094 T02480217 52002 IEM_DS3505
ZGKL,2008-09-25 22:00,ZGKL 252200Z AUTO 2 1/2SM 24/23 A2980 RMK T02400230 IEM_DS3505
ZGKL,2008-09-25 23:00,ZGKL 252300Z AUTO 2 1/2SM 24/23 A2983 RMK T02400230 IEM_DS3505
ZGKL,2008-09-26 00:00,ZGKL 260000Z AUTO 04002KT 7SM 26/21 A2985 RMK 70000 SLP113 T02560213 52018 IEM_DS3505
ZGKL,2008-09-26 01:00,ZGKL 260100Z AUTO 04006KT 2 1/2SM 26/23 A2988 RMK T02600230 IEM_DS3505
ZGKL,2008-09-26 02:00,ZGKL 260200Z AUTO 03012KT 4SM 27/23 A2988 RMK T02700230 IEM_DS3505
ZGKL,2008-09-26 03:00,ZGKL 260300Z AUTO 02012KT 8SM 28/21 A2991 RMK SLP124 T02830206 52011 IEM_DS3505
ZGKL,2008-09-26 04:00,ZGKL 260400Z AUTO 04012KT 4SM 28/23 A2988 RMK T02800230 IEM_DS3505
ZGKL,2008-09-26 05:00,ZGKL 260500Z AUTO 07008KT 4SM 29/23 A2985 RMK T02900230 IEM_DS3505
ZGKL,2008-09-26 06:00,ZGKL 260600Z AUTO 02012KT 9SM 28/21 A2983 RMK SLP103 T02830208 57021 IEM_DS3505
ZGKL,2008-09-26 07:00,ZGKL 260700Z AUTO 06010KT 7SM 30/23 A2983 RMK T03000230 IEM_DS3505
ZGKL,2008-09-26 08:00,ZGKL 260800Z AUTO 06014KT 7SM 29/22 A2980 RMK T02900220 IEM_DS3505
ZGKL,2008-09-26 09:00,ZGKL 260900Z AUTO 02014KT 9SM 27/20 A2980 RMK SLP093 T02670203 57010 IEM_DS3505
ZGKL,2008-09-26 10:00,ZGKL 261000Z AUTO 05012KT 7SM 26/22 A2983 RMK T02600220 IEM_DS3505
ZGKL,2008-09-26 11:00,ZGKL 261100Z AUTO 05014KT 7SM 25/21 A2985 RMK T02500210 IEM_DS3505
ZGKL,2008-09-26 12:00,ZGKL 261200Z AUTO 02012KT 9SM 23/18 A2988 RMK SLP128 T02330182 52033 IEM_DS3505
ZGKL,2008-09-26 13:00,ZGKL 261300Z AUTO 05008KT 7SM 23/20 A2991 RMK T02300200 IEM_DS3505
ZGKL,2008-09-26 14:00,ZGKL 261400Z AUTO 05008KT 7SM 23/19 A2994 RMK T02300190 IEM_DS3505
ZGKL,2008-09-26 15:00,ZGKL 261500Z AUTO 02010KT 8SM 22/17 A2994 RMK SLP142 T02220171 52015 IEM_DS3505
ZGKL,2008-09-26 16:00,ZGKL 261600Z AUTO 05010KT 7SM 22/19 A2994 RMK T02200190 IEM_DS3505
ZGKL,2008-09-26 17:00,ZGKL 261700Z AUTO 04012KT 7SM 21/19 A2994 RMK T02100190 IEM_DS3505
ZGKL,2008-09-26 18:00,ZGKL 261800Z AUTO 02008KT 8SM 21/17 A2994 RMK SLP147 T02080166 52004 IEM_DS3505
ZGKL,2008-09-26 19:00,ZGKL 261900Z AUTO 04008KT 7SM 20/19 A2994 RMK T02000190 IEM_DS3505
ZGKL,2008-09-26 20:00,ZGKL 262000Z AUTO 05008KT 7SM 20/18 A2994 RMK T02000180 IEM_DS3505
ZGKL,2008-09-26 21:00,ZGKL 262100Z AUTO 02006KT 8SM 20/16 A2994 RMK SLP145 T02030161 57002 IEM_DS3505
ZGKL,2008-09-26 22:00,ZGKL 262200Z AUTO 06006KT 7SM 20/18 A2994 RMK T02000180 IEM_DS3505
ZGKL,2008-09-26 23:00,ZGKL 262300Z AUTO 7SM 20/18 A2997 RMK T02000180 IEM_DS3505
ZGKL,2008-09-27 00:00,ZGKL 270000Z AUTO 02008KT 11SM 20/16 A2997 RMK SLP157 T02050159 52010 IEM_DS3505
ZGKL,2008-09-27 01:00,ZGKL 270100Z AUTO 06006KT 7SM 21/18 A3000 RMK T02100180 IEM_DS3505
ZGKL,2008-09-27 02:00,ZGKL 270200Z AUTO 05006KT 7SM 23/18 A3000 RMK T02300180 IEM_DS3505
ZGKL,2008-09-27 03:00,ZGKL 270300Z AUTO 36008KT 12SM 22/16 A3000 RMK SLP159 T02210162 52002 IEM_DS3505
ZGKL,2008-09-27 04:00,ZGKL 270400Z AUTO 06008KT 7SM 23/18 A2997 RMK T02300180 IEM_DS3505
ZGKL,2008-09-27 05:00,ZGKL 270500Z AUTO 03008KT 7SM 23/18 A2994 RMK T02300180 IEM_DS3505
ZGKL,2008-09-27 06:00,ZGKL 270600Z AUTO 02010KT 12SM 24/16 A2994 RMK SLP137 T02390164 57021 IEM_DS3505
ZGKL,2008-09-27 07:00,ZGKL 270700Z AUTO 30004KT 7SM 24/19 A2991 RMK T02400190 IEM_DS3505
ZGKL,2008-09-27 08:00,ZGKL 270800Z AUTO 05004KT 7SM 24/19 A2991 RMK T02400190 IEM_DS3505
ZGKL,2008-09-27 09:00,ZGKL 270900Z AUTO 04006KT 12SM 24/17 A2991 RMK SLP133 T02390167 57004 IEM_DS3505
ZGKL,2008-09-27 10:00,ZGKL 271000Z AUTO 06008KT 7SM 23/18 A2991 RMK T02300180 IEM_DS3505
ZGKL,2008-09-27 11:00,ZGKL 271100Z AUTO 06010KT 7SM 22/18 A2994 RMK T02200180 IEM_DS3505
ZGKL,2008-09-27 12:00,ZGKL 271200Z AUTO 02006KT 10SM 21/16 A2994 RMK SLP149 T02100164 52015 IEM_DS3505
ZGKL,2008-09-27 13:00,ZGKL 271300Z AUTO 5SM 20/18 A2997 RMK T02000180 IEM_DS3505
ZGKL,2008-09-27 14:00,ZGKL 271400Z AUTO 5SM 20/17 A3000 RMK T02000170 IEM_DS3505
ZGKL,2008-09-27 15:00,ZGKL 271500Z AUTO 02008KT 10SM 21/16 A3000 RMK SLP159 T02060162 52010 IEM_DS3505
ZGKL,2008-09-27 16:00,ZGKL 271600Z AUTO 4SM 19/18 A2997 RMK T01900180 IEM_DS3505
ZGKL,2008-09-27 17:00,ZGKL 271700Z AUTO 4SM 20/18 A2997 RMK T02000180 IEM_DS3505
ZGKL,2008-09-27 18:00,ZGKL 271800Z AUTO 02008KT 9SM 20/16 A2994 RMK SLP148 T01990162 57011 IEM_DS3505
ZGKL,2008-09-27 19:00,ZGKL 271900Z AUTO 05004KT 4SM 19/18 A2994 RMK T01900180 IEM_DS3505
ZGKL,2008-09-27 20:00,ZGKL 272000Z AUTO 06004KT 3SM 19/18 A2994 RMK T01900180 IEM_DS3505
ZGKL,2008-09-27 21:00,ZGKL 272100Z AUTO 02008KT 9SM 20/16 A2994 RMK SLP141 T01960161 57007 IEM_DS3505
ZGKL,2008-09-27 22:00,ZGKL 272200Z AUTO 2 1/2SM 19/18 A2994 RMK T01900180 IEM_DS3505
ZGKL,2008-09-27 23:00,ZGKL 272300Z AUTO 05004KT 4SM 19/18 A2994 RMK T01900180 IEM_DS3505
ZGKL,2008-09-28 00:00,ZGKL 280000Z AUTO 36010KT 9SM 20/16 RMK SLP149 T01990162 52007 IEM_DS3505
ZGKL,2008-09-28 03:00,ZGKL 280300Z AUTO 02010KT 10SM 23/16 RMK SLP152 T02290162 52004 IEM_DS3505
ZGKL,2008-09-28 05:00,ZGKL 280500Z AUTO 06010KT 7SM 27/18 A2991 RMK T02700180 IEM_DS3505
ZGKL,2008-09-28 06:00,ZGKL 280600Z AUTO 04010KT 11SM 26/16 A2988 RMK SLP126 T02620165 57024 IEM_DS3505
ZGKL,2008-09-28 07:00,ZGKL 280700Z AUTO 06012KT 7SM 28/18 A2988 RMK T02800180 IEM_DS3505
ZGKL,2008-09-28 08:00,ZGKL 280800Z AUTO 06012KT 7SM 27/18 A2985 RMK T02700180 IEM_DS3505
ZGKL,2008-09-28 09:00,ZGKL 280900Z AUTO 02010KT 15SM 24/17 A2985 RMK SLP118 T02440169 57009 IEM_DS3505
ZGKL,2008-09-28 10:00,ZGKL 281000Z AUTO 05012KT 7SM 24/18 A2985 RMK T02400180 IEM_DS3505
ZGKL,2008-09-28 11:00,ZGKL 281100Z AUTO 05014KT 7SM 22/18 A2988 RMK T02200180 IEM_DS3505
ZGKL,2008-09-28 12:00,ZGKL 281200Z AUTO 02008KT 11SM 21/17 A2991 RMK SLP137 T02140166 52018 IEM_DS3505
ZGKL,2008-09-28 13:00,ZGKL 281300Z AUTO 05012KT 5SM 21/18 A2994 RMK T02100180 IEM_DS3505
ZGKL,2008-09-28 14:00,ZGKL 281400Z AUTO 04010KT 5SM 21/18 A2997 RMK T02100180 IEM_DS3505
ZGKL,2008-09-28 15:00,ZGKL 281500Z AUTO 02010KT 11SM 20/16 A2997 RMK SLP154 T02030161 52017 IEM_DS3505
ZGKL,2008-09-28 16:00,ZGKL 281600Z AUTO 05008KT 4SM 20/18 A2997 RMK T02000180 IEM_DS3505
ZGKL,2008-09-28 17:00,ZGKL 281700Z AUTO 05006KT 4SM 20/17 A2997 RMK T02000170 IEM_DS3505
ZGKL,2008-09-28 18:00,ZGKL 281800Z AUTO 36010KT 10SM 20/16 A2994 RMK SLP146 T01990160 57007 IEM_DS3505
ZGKL,2008-09-28 19:00,ZGKL 281900Z AUTO 6SM 20/17 A2994 RMK T02000170 IEM_DS3505
ZGKL,2008-09-28 20:00,ZGKL 282000Z AUTO 05006KT 4SM 20/17 A2991 RMK T02000170 IEM_DS3505
ZGKL,2008-09-28 21:00,ZGKL 282100Z AUTO 02010KT 10SM 19/16 A2991 RMK SLP139 T01930156 57007 IEM_DS3505
ZGKL,2008-09-28 22:00,ZGKL 282200Z AUTO 04008KT 5SM 19/17 A2994 RMK T01900170 IEM_DS3505
ZGKL,2008-09-28 23:00,ZGKL 282300Z AUTO 03006KT 4SM 19/17 A2994 RMK T01900170 IEM_DS3505
ZGKL,2008-09-29 00:00,ZGKL 290000Z AUTO 02008KT 9SM 20/15 A2997 RMK SLP151 T01990153 52011 IEM_DS3505
ZGKL,2008-09-29 01:00,ZGKL 290100Z AUTO 06010KT 7SM 22/17 A2997 RMK T02200170 IEM_DS3505
ZGKL,2008-09-29 02:00,ZGKL 290200Z AUTO 06010KT 7SM 23/18 A2997 RMK T02300180 IEM_DS3505
ZGKL,2008-09-29 03:00,ZGKL 290300Z AUTO 02012KT 8SM 22/15 A2997 RMK SLP159 T02230154 52008 IEM_DS3505
ZGKL,2008-09-29 04:00,ZGKL 290400Z AUTO 06014KT 6SM 25/17 A2994 RMK T02500170 IEM_DS3505
ZGKL,2008-09-29 05:00,ZGKL 290500Z AUTO 06016KT 7SM 25/17 A2994 RMK T02500170 IEM_DS3505
ZGKL,2008-09-29 06:00,ZGKL 290600Z AUTO 02010KT 8SM 24/16 A2991 RMK SLP136 T02400155 57022 IEM_DS3505
ZGKL,2008-09-29 07:00,ZGKL 290700Z AUTO 05019KT 6SM 25/16 A2988 RMK T02500160 IEM_DS3505
ZGKL,2008-09-29 08:00,ZGKL 290800Z AUTO 05017KT 6SM 25/16 A2988 RMK T02500160 IEM_DS3505
ZGKL,2008-09-29 09:00,ZGKL 290900Z AUTO 02012KT 10SM 22/15 A2988 RMK SLP129 T02220153 57008 IEM_DS3505
ZGKL,2008-09-29 10:00,ZGKL 291000Z AUTO 05016KT 7SM 22/16 A2991 RMK T02200160 IEM_DS3505
ZGKL,2008-09-29 11:00,ZGKL 291100Z AUTO 05012KT 5SM 21/17 A2991 RMK T02100170 IEM_DS3505
ZGKL,2008-09-29 12:00,ZGKL 291200Z AUTO 02010KT 10SM 20/15 A2994 RMK SLP152 T02020154 52022 IEM_DS3505
ZGKL,2008-09-29 13:00,ZGKL 291300Z AUTO 4SM 20/17 A2997 RMK T02000170 IEM_DS3505
ZGKL,2008-09-29 14:00,ZGKL 291400Z AUTO 04006KT 5SM 20/16 A3000 RMK T02000160 IEM_DS3505
ZGKL,2008-09-29 15:00,ZGKL 291500Z AUTO 02008KT 9SM 20/15 A3000 RMK SLP164 T01990153 52013 IEM_DS3505
ZGKL,2008-09-29 16:00,ZGKL 291600Z AUTO 07004KT 4SM 19/16 A3000 RMK T01900160 IEM_DS3505
ZGKL,2008-09-29 17:00,ZGKL 291700Z AUTO 3SM 19/17 A2997 RMK T01900170 IEM_DS3505
ZGKL,2008-09-29 18:00,ZGKL 291800Z AUTO 02008KT 9SM 20/15 A2997 RMK SLP156 T01990149 57008 IEM_DS3505
ZGKL,2008-09-29 19:00,ZGKL 291900Z AUTO 05006KT 4SM 20/16 A2997 RMK T02000160 IEM_DS3505
ZGKL,2008-09-29 20:00,ZGKL 292000Z AUTO 04008KT 4SM 20/16 A2997 RMK T02000160 IEM_DS3505
ZGKL,2008-09-29 21:00,ZGKL 292100Z AUTO 36006KT 9SM 20/15 A2997 RMK SLP156 T01970149 54000 IEM_DS3505
ZGKL,2008-09-29 22:00,ZGKL 292200Z AUTO 34006KT 4SM 19/17 A3000 RMK T01900170 IEM_DS3505
ZGKL,2008-09-29 23:00,ZGKL 292300Z AUTO 5SM 19/17 A3003 RMK T01900170 IEM_DS3505
ZGKL,2008-09-30 00:00,ZGKL 300000Z AUTO 02010KT 7SM 20/15 A3003 RMK SLP173 T02030153 52016 IEM_DS3505
ZGKL,2008-09-30 01:00,ZGKL 300100Z AUTO 7SM 23/17 A3003 RMK T02300170 IEM_DS3505
ZGKL,2008-09-30 02:00,ZGKL 300200Z AUTO 03012KT 7SM 24/16 A3003 RMK T02400160 IEM_DS3505
ZGKL,2008-09-30 03:00,ZGKL 300300Z AUTO 02010KT 9SM 22/15 A3003 RMK SLP177 T02240153 52004 IEM_DS3505
ZGKL,2008-09-30 04:00,ZGKL 300400Z AUTO 04008KT 7SM 25/17 A3003 RMK T02500170 IEM_DS3505
ZGKL,2008-09-30 05:00,ZGKL 300500Z AUTO 06012KT 7SM 27/16 A3000 RMK T02700160 IEM_DS3505
ZGKL,2008-09-30 06:00,ZGKL 300600Z AUTO 02006KT 9SM 26/15 A2997 RMK SLP152 T02570154 57023 IEM_DS3505
ZGKL,2008-09-30 07:00,ZGKL 300700Z AUTO 07012KT 7SM 27/17 A2994 RMK T02700170 IEM_DS3505
ZGKL,2008-09-30 08:00,ZGKL 300800Z AUTO 06012KT 6SM 27/17 A2994 RMK T02700170 IEM_DS3505
ZGKL,2008-09-30 09:00,ZGKL 300900Z AUTO 04006KT 12SM 26/16 A2994 RMK SLP144 T02620156 57008 IEM_DS3505
ZGKL,2008-09-30 10:00,ZGKL 301000Z AUTO 05012KT 6SM 24/16 A2994 RMK T02400160 IEM_DS3505
ZGKL,2008-09-30 11:00,ZGKL 301100Z AUTO 05010KT 7SM 23/16 A2997 RMK T02300160 IEM_DS3505
ZGKL,2008-09-30 12:00,ZGKL 301200Z AUTO 04006KT 11SM 22/16 A3000 RMK SLP166 T02170160 52021 IEM_DS3505
ZGKL,2008-09-30 13:00,ZGKL 301300Z AUTO 03006KT 7SM 21/17 A3003 RMK T02100170 IEM_DS3505
ZGKL,2008-09-30 14:00,ZGKL 301400Z AUTO 33004KT 7SM 21/18 A3003 RMK T02100180 IEM_DS3505
ZGKL,2008-09-30 15:00,ZGKL 301500Z AUTO 02004KT 11SM 21/16 A3006 RMK SLP182 T02110163 52016 IEM_DS3505
ZGKL,2008-09-30 16:00,ZGKL 301600Z AUTO 4SM 20/17 A3006 RMK T02000170 IEM_DS3505
ZGKL,2008-09-30 17:00,ZGKL 301700Z AUTO 00000KT 4SM 20/18 A3006 RMK T02000180 IEM_DS3505
ZGKL,2008-09-30 18:00,ZGKL 301800Z AUTO 02002KT 10SM 21/16 A3003 RMK SLP174 T02110161 57007 IEM_DS3505
ZGKL,2008-09-30 19:00,ZGKL 301900Z AUTO 28002KT 3SM 19/18 A3003 RMK T01900180 IEM_DS3505
ZGKL,2008-09-30 20:00,ZGKL 302000Z AUTO 29002KT 3SM 18/17 A3003 RMK T01800170 IEM_DS3505
ZGKL,2008-09-30 21:00,ZGKL 302100Z AUTO 02004KT 10SM 20/16 A3003 RMK SLP168 T01990162 57006 IEM_DS3505
ZGKL,2008-09-30 22:00,ZGKL 302200Z AUTO 4SM 18/17 A3003 RMK T01800170 IEM_DS3505
ZGKL,2008-09-30 23:00,ZGKL 302300Z AUTO 31002KT 4SM 18/17 A3003 RMK T01800170 IEM_DS3505
ZGKL,2008-10-01 00:00,ZGKL 010000Z AUTO 02004KT 7SM 21/16 A3003 RMK SLP175 T02140159 52006 IEM_DS3505
ZGKL,2008-10-01 01:00,ZGKL 010100Z AUTO 6SM 23/19 A3006 RMK T02300190 IEM_DS3505
ZGKL,2008-10-01 02:00,ZGKL 010200Z AUTO 4SM 25/17 A3006 RMK T02500170 IEM_DS3505
ZGKL,2008-10-01 03:00,ZGKL 010300Z AUTO 02010KT 7SM 25/15 A3006 RMK SLP180 T02530150 52006 IEM_DS3505
ZGKL,2008-10-01 04:00,ZGKL 010400Z AUTO 06008KT 5SM 27/17 A3003 RMK T02700170 IEM_DS3505
ZGKL,2008-10-01 05:00,ZGKL 010500Z AUTO 5SM 27/17 A3000 RMK T02700170 IEM_DS3505
ZGKL,2008-10-01 06:00,ZGKL 010600Z AUTO 02008KT 9SM 27/15 A2997 RMK SLP154 T02700151 57025 IEM_DS3505
ZGKL,2008-10-01 07:00,ZGKL 010700Z AUTO 5SM 28/18 A2994 RMK T02800180 IEM_DS3505
ZGKL,2008-10-01 08:00,ZGKL 010800Z AUTO 07004KT 4SM 27/18 A2994 RMK T02700180 IEM_DS3505
ZGKL,2008-10-01 09:00,ZGKL 010900Z AUTO 02004KT 9SM 26/16 A2994 RMK SLP141 T02640163 57014 IEM_DS3505
ZGKL,2008-10-01 10:00,ZGKL 011000Z AUTO 05006KT 4SM 25/18 A2994 RMK T02500180 IEM_DS3505
ZGKL,2008-10-01 11:00,ZGKL 011100Z AUTO 05008KT 3SM 24/17 A2994 RMK T02400170 IEM_DS3505
ZGKL,2008-10-01 12:00,ZGKL 011200Z AUTO 02006KT 8SM 23/16 A2997 RMK SLP151 T02260162 52009 IEM_DS3505
ZGKL,2008-10-01 13:00,ZGKL 011300Z AUTO 3SM 22/17 A2997 RMK T02200170 IEM_DS3505
ZGKL,2008-10-01 14:00,ZGKL 011400Z AUTO 32004KT 3SM 20/18 A3000 RMK T02000180 IEM_DS3505
ZGKL,2008-10-01 15:00,ZGKL 011500Z AUTO 02004KT 7SM 21/16 A3000 RMK SLP157 T02130161 52007 IEM_DS3505
ZGKL,2008-10-01 16:00,ZGKL 011600Z AUTO 3SM 20/18 A3000 RMK T02000180 IEM_DS3505
ZGKL,2008-10-01 17:00,ZGKL 011700Z AUTO 00000KT 2 1/2SM 20/18 A3000 RMK T02000180 IEM_DS3505
ZGKL,2008-10-01 18:00,ZGKL 011800Z AUTO 02002KT 7SM 21/16 A2997 RMK SLP154 T02090159 57002 IEM_DS3505
ZGKL,2008-10-01 19:00,ZGKL 011900Z AUTO 27002KT 2 1/2SM 19/18 A2997 RMK T01900180 IEM_DS3505
ZGKL,2008-10-01 20:00,ZGKL 012000Z AUTO 1 1/2SM 18/18 A2997 RMK T01800180 IEM_DS3505
ZGKL,2008-10-01 21:00,ZGKL 012100Z AUTO 36002KT 7SM 20/16 A2997 RMK SLP150 T01990158 57005 IEM_DS3505
ZGKL,2008-10-01 22:00,ZGKL 012200Z AUTO 00000KT 1 1/2SM 18/18 A2997 RMK T01800180 IEM_DS3505
ZGKL,2008-10-01 23:00,ZGKL 012300Z AUTO 1 1/2SM 18/18 A2997 RMK T01800180 IEM_DS3505
ZGKL,2008-10-02 00:00,ZGKL 020000Z AUTO 04002KT 6SM 22/17 A3000 RMK SLP159 T02170167 52008 IEM_DS3505
ZGKL,2008-10-02 01:00,ZGKL 020100Z AUTO 3SM 24/14 A3000 RMK T02400140 IEM_DS3505
ZGKL,2008-10-02 02:00,ZGKL 020200Z AUTO 4SM 25/17 A3000 RMK T02500170 IEM_DS3505
ZGKL,2008-10-02 03:00,ZGKL 020300Z AUTO 18004KT 6SM 26/16 A3000 RMK SLP156 T02640161 57001 IEM_DS3505
ZGKL,2008-10-02 04:00,ZGKL 020400Z AUTO 10004KT 4SM 28/17 A2997 RMK T02800170 IEM_DS3505
ZGKL,2008-10-02 05:00,ZGKL 020500Z AUTO 4SM 28/17 A2994 RMK T02800170 IEM_DS3505
ZGKL,2008-10-02 06:00,ZGKL 020600Z AUTO 14006KT 7SM 29/16 A2991 RMK SLP126 T02890165 57029 IEM_DS3505
ZGKL,2008-10-02 07:00,ZGKL 020700Z AUTO 27004KT 4SM 29/18 A2988 RMK T02900180 IEM_DS3505
ZGKL,2008-10-02 08:00,ZGKL 020800Z AUTO 4SM 29/18 A2988 RMK T02900180 IEM_DS3505
ZGKL,2008-10-02 09:00,ZGKL 020900Z AUTO 11002KT 7SM 29/17 A2985 RMK SLP111 T02930172 57015 IEM_DS3505
ZGKL,2008-10-02 10:00,ZGKL 021000Z AUTO 16004KT 4SM 27/19 A2985 RMK T02700190 IEM_DS3505
ZGKL,2008-10-02 11:00,ZGKL 021100Z AUTO 27004KT 4SM 25/20 A2988 RMK T02500200 IEM_DS3505
ZGKL,2008-10-02 12:00,ZGKL 021200Z AUTO 02002KT 8SM 26/17 A2991 RMK SLP128 T02550172 52016 IEM_DS3505
ZGKL,2008-10-02 13:00,ZGKL 021300Z AUTO 05006KT 4SM 25/19 A2991 RMK T02500190 IEM_DS3505
ZGKL,2008-10-02 14:00,ZGKL 021400Z AUTO 32004KT 4SM 23/20 A2991 RMK T02300200 IEM_DS3505
ZGKL,2008-10-02 15:00,ZGKL 021500Z AUTO 02004KT 8SM 24/17 A2994 RMK SLP135 T02380168 52008 IEM_DS3505
ZGKL,2008-10-02 16:00,ZGKL 021600Z AUTO 31004KT 3SM 21/20 A2991 RMK T02100200 IEM_DS3505
ZGKL,2008-10-02 17:00,ZGKL 021700Z AUTO 00000KT 2 1/2SM 21/20 A2994 RMK T02100200 IEM_DS3505
ZGKL,2008-10-02 18:00,ZGKL 021800Z AUTO 28002KT 2SM 20/20 A2994 RMK T02000200 IEM_DS3505
ZGKL,2008-10-02 19:00,ZGKL 021900Z AUTO 2 1/2SM 20/19 A2994 RMK T02000190 IEM_DS3505
ZGKL,2008-10-02 20:00,ZGKL 022000Z AUTO 2SM 19/19 A2991 RMK T01900190 IEM_DS3505
ZGKL,2008-10-02 21:00,ZGKL 022100Z AUTO 36002KT 7SM 22/17 A2991 RMK SLP131 T02190173 57006 IEM_DS3505
ZGKL,2008-10-02 22:00,ZGKL 022200Z AUTO 34002KT 2 1/2SM 19/19 A2991 RMK T01900190 IEM_DS3505
ZGKL,2008-10-02 23:00,ZGKL 022300Z AUTO 34004KT 2 1/2SM 19/19 A2991 RMK T01900190 IEM_DS3505
ZGKL,2008-10-03 00:00,ZGKL 030000Z AUTO 02004KT 6SM 22/18 A2994 RMK SLP140 T02200178 52008 IEM_DS3505
ZGKL,2008-10-03 01:00,ZGKL 030100Z AUTO 3SM 24/20 A2994 RMK T02400200 IEM_DS3505
ZGKL,2008-10-03 02:00,ZGKL 030200Z AUTO 3SM 26/20 A2994 RMK T02600200 IEM_DS3505
ZGKL,2008-10-03 03:00,ZGKL 030300Z AUTO 18004KT 5SM 28/17 A2994 RMK SLP133 T02780173 57006 IEM_DS3505
ZGKL,2008-10-03 04:00,ZGKL 030400Z AUTO 3SM 29/19 A2991 RMK T02900190 IEM_DS3505
ZGKL,2008-10-03 05:00,ZGKL 030500Z AUTO 13004KT 4SM 30/20 A2988 RMK T03000200 IEM_DS3505
ZGKL,2008-10-03 06:00,ZGKL 030600Z AUTO 14004KT 7SM 31/17 A2983 RMK SLP102 T03070174 57030 IEM_DS3505
ZGKL,2008-10-03 07:00,ZGKL 030700Z AUTO 13006KT 5SM 31/18 A2983 RMK T03100180 IEM_DS3505
ZGKL,2008-10-03 08:00,ZGKL 030800Z AUTO 13004KT 5SM 31/18 A2980 RMK T03100180 IEM_DS3505
ZGKL,2008-10-03 09:00,ZGKL 030900Z AUTO 18002KT 8SM 32/18 A2983 RMK SLP090 T03150178 57011 IEM_DS3505
ZGKL,2008-10-03 10:00,ZGKL 031000Z AUTO 6SM 29/20 A2983 RMK T02900200 IEM_DS3505
ZGKL,2008-10-03 11:00,ZGKL 031100Z AUTO 6SM 26/21 A2980 RMK T02600210 IEM_DS3505
ZGKL,2008-10-03 12:00,ZGKL 031200Z AUTO 14002KT 8SM 27/20 A2983 RMK SLP105 T02740200 52013 IEM_DS3505
ZGKL,2008-10-03 13:00,ZGKL 031300Z AUTO 29004KT 4SM 24/22 A2985 RMK T02400220 IEM_DS3505
ZGKL,2008-10-03 14:00,ZGKL 031400Z AUTO 33004KT 3SM 23/21 A2985 RMK T02300210 IEM_DS3505
ZGKL,2008-10-03 15:00,ZGKL 031500Z AUTO 36006KT 8SM 26/20 A2985 RMK SLP105 T02590198 52001 IEM_DS3505
ZGKL,2008-10-03 16:00,ZGKL 031600Z AUTO 29002KT 2 1/2SM 22/21 A2983 RMK T02200210 IEM_DS3505
ZGKL,2008-10-03 17:00,ZGKL 031700Z AUTO 00000KT 2 1/2SM 21/21 A2983 RMK T02100210 IEM_DS3505
ZGKL,2008-10-03 18:00,ZGKL 031800Z AUTO 36002KT 8SM 24/19 A2983 RMK SLP098 T02440192 57006 IEM_DS3505
ZGKL,2008-10-03 19:00,ZGKL 031900Z AUTO 00000KT 2 1/2SM 21/20 A2983 RMK T02100200 IEM_DS3505
ZGKL,2008-10-03 20:00,ZGKL 032000Z AUTO 00000KT 2 1/2SM 21/20 A2983 RMK T02100200 IEM_DS3505
ZGKL,2008-10-03 21:00,ZGKL 032100Z AUTO 07002KT 8SM 23/19 A2983 RMK SLP096 T02330192 57002 IEM_DS3505
ZGKL,2008-10-03 22:00,ZGKL 032200Z AUTO 34004KT 2SM 20/20 A2983 RMK T02000200 IEM_DS3505
ZGKL,2008-10-03 23:00,ZGKL 032300Z AUTO 33004KT 1 1/2SM 21/21 A2983 RMK T02100210 IEM_DS3505
ZGKL,2008-10-04 00:00,ZGKL 040000Z AUTO 02004KT 7SM 24/19 A2983 RMK SLP104 T02440192 52007 IEM_DS3505
ZGKL,2008-10-04 01:00,ZGKL 040100Z AUTO 3SM 25/22 A2985 RMK T02500220 IEM_DS3505
ZGKL,2008-10-04 02:00,ZGKL 040200Z AUTO 3SM 26/22 A2985 RMK T02600220 IEM_DS3505
ZGKL,2008-10-04 03:00,ZGKL 040300Z AUTO 04008KT 7SM 29/19 A2985 RMK SLP105 T02860190 52002 IEM_DS3505
ZGKL,2008-10-04 04:00,ZGKL 040400Z AUTO 3SM 30/21 A2983 RMK T03000210 IEM_DS3505
ZGKL,2008-10-04 05:00,ZGKL 040500Z AUTO 4SM 31/22 A2980 RMK T03100220 IEM_DS3505
ZGKL,2008-10-04 06:00,ZGKL 040600Z AUTO 04004KT 7SM 31/19 A2977 RMK SLP074 T03130193 57030 IEM_DS3505
ZGKL,2008-10-04 07:00,ZGKL 040700Z AUTO 4SM 32/19 A2974 RMK T03200190 IEM_DS3505
ZGKL,2008-10-04 08:00,ZGKL 040800Z AUTO 10004KT 4SM 31/20 A2974 RMK T03100200 IEM_DS3505
ZGKL,2008-10-04 09:00,ZGKL 040900Z AUTO 04008KT 6SM 29/20 A2974 RMK SLP067 T02940200 57008 IEM_DS3505
ZGKL,2008-10-04 10:00,ZGKL 041000Z AUTO 3SM 28/22 A2974 RMK T02800220 IEM_DS3505
ZGKL,2008-10-04 11:00,ZGKL 041100Z AUTO 2 1/2SM 27/22 A2977 RMK T02700220 IEM_DS3505
ZGKL,2008-10-04 12:00,ZGKL 041200Z AUTO 36008KT 6SM 27/20 RMK SLP087 T02660200 52019 IEM_DS3505
ZGKL,2008-10-04 13:00,ZGKL 041300Z AUTO 2 1/2SM 26/22 A2983 RMK T02600220 IEM_DS3505
ZGKL,2008-10-04 14:00,ZGKL 041400Z AUTO 04008KT 2 1/2SM 26/21 A2985 RMK T02600210 IEM_DS3505
ZGKL,2008-10-04 15:00,ZGKL 041500Z AUTO 02010KT 6SM 24/20 A2985 RMK SLP109 T02450196 52022 IEM_DS3505
ZGKL,2008-10-04 16:00,ZGKL 041600Z AUTO 05010KT 2SM 24/21 A2985 RMK T02400210 IEM_DS3505
ZGKL,2008-10-04 17:00,ZGKL 041700Z AUTO 04012KT 2 1/2SM 24/20 A2985 RMK T02400200 IEM_DS3505
ZGKL,2008-10-04 18:00,ZGKL 041800Z AUTO 02006KT 6SM 22/18 A2985 RMK 60000 SLP115 T02230181 52006 IEM_DS3505
ZGKL,2008-10-04 19:00,ZGKL 041900Z AUTO 05010KT 3SM 22/19 A2985 RMK T02200190 IEM_DS3505
ZGKL,2008-10-04 20:00,ZGKL 042000Z AUTO 05012KT 3SM 22/18 A2985 RMK T02200180 IEM_DS3505
ZGKL,2008-10-04 21:00,ZGKL 042100Z AUTO 02008KT 6SM 21/17 A2985 RMK 70000 SLP117 T02130167 52001 IEM_DS3505
ZGKL,2008-10-04 22:00,ZGKL 042200Z AUTO 7SM 21/18 A2988 RMK T02100180 IEM_DS3505
ZGKL,2008-10-04 23:00,ZGKL 042300Z AUTO 06004KT 7SM 21/18 A2988 RMK T02100180 IEM_DS3505
ZGKL,2008-10-05 00:00,ZGKL 050000Z AUTO 02008KT 8SM 21/16 A2991 RMK 60000 70000 SLP134 T02110163 52016 IEM_DS3505
ZGKL,2008-10-05 01:00,ZGKL 050100Z AUTO 05012KT 6SM 23/17 A2991 RMK T02300170 IEM_DS3505
ZGKL,2008-10-05 02:00,ZGKL 050200Z AUTO 07010KT 7SM 25/17 A2994 RMK T02500170 IEM_DS3505
ZGKL,2008-10-05 03:00,ZGKL 050300Z AUTO 02014KT 9SM 24/15 A2994 RMK SLP137 T02440151 52003 IEM_DS3505
ZGKL,2008-10-05 04:00,ZGKL 050400Z AUTO 06012KT 7SM 26/16 A2991 RMK T02600160 IEM_DS3505
ZGKL,2008-10-05 05:00,ZGKL 050500Z AUTO 06010KT 6SM 27/16 A2988 RMK T02700160 IEM_DS3505
ZGKL,2008-10-05 06:00,ZGKL 050600Z AUTO 02012KT 9SM 29/13 A2985 RMK SLP107 T02860133 57029 IEM_DS3505
ZGKL,2008-10-05 07:00,ZGKL 050700Z AUTO 07008KT 6SM 29/15 A2983 RMK T02900150 IEM_DS3505
ZGKL,2008-10-05 08:00,ZGKL 050800Z AUTO 07008KT 6SM 29/15 A2983 RMK T02900150 IEM_DS3505
ZGKL,2008-10-05 09:00,ZGKL 050900Z AUTO 04008KT 9SM 27/14 A2983 RMK SLP105 T02740141 57002 IEM_DS3505
ZGKL,2008-10-05 10:00,ZGKL 051000Z AUTO 05010KT 6SM 26/15 A2985 RMK T02600150 IEM_DS3505
ZGKL,2008-10-05 11:00,ZGKL 051100Z AUTO 05012KT 5SM 25/14 A2985 RMK T02500140 IEM_DS3505
ZGKL,2008-10-05 12:00,ZGKL 051200Z AUTO 04006KT 9SM 24/13 A2988 RMK SLP122 T02420128 52015 IEM_DS3505
ZGKL,2008-10-05 13:00,ZGKL 051300Z AUTO 4SM 21/17 A2991 RMK T02100170 IEM_DS3505
ZGKL,2008-10-05 14:00,ZGKL 051400Z AUTO 4SM 21/16 A2994 RMK T02100160 IEM_DS3505
ZGKL,2008-10-05 15:00,ZGKL 051500Z AUTO 02006KT 9SM 22/12 A2994 RMK SLP140 T02250119 52019 IEM_DS3505
ZGKL,2008-10-05 16:00,ZGKL 051600Z AUTO 00000KT 2 1/2SM 18/17 A2994 RMK T01800170 IEM_DS3505
ZGKL,2008-10-05 17:00,ZGKL 051700Z AUTO 2 1/2SM 18/18 A2991 RMK T01800180 IEM_DS3505
ZGKL,2008-10-05 18:00,ZGKL 051800Z AUTO 04004KT 9SM 21/13 A2994 RMK SLP136 T02120129 57003 IEM_DS3505
ZGKL,2008-10-05 19:00,ZGKL 051900Z AUTO 00000KT 3SM 18/17 A2994 RMK T01800170 IEM_DS3505
ZGKL,2008-10-05 20:00,ZGKL 052000Z AUTO 31004KT 2 1/2SM 18/17 A2991 RMK T01800170 IEM_DS3505
ZGKL,2008-10-05 21:00,ZGKL 052100Z AUTO 02006KT 9SM 20/13 A2994 RMK SLP136 T02040129 57001 IEM_DS3505
ZGKL,2008-10-05 22:00,ZGKL 052200Z AUTO 32002KT 2SM 16/16 A2994 RMK T01600160 IEM_DS3505
ZGKL,2008-10-05 23:00,ZGKL 052300Z AUTO 3SM 16/16 A2997 RMK T01600160 IEM_DS3505
ZGKL,2008-10-06 00:00,ZGKL 060000Z AUTO 36008KT 9SM 21/13 A2997 RMK SLP154 T02140131 52017 IEM_DS3505
ZGKL,2008-10-06 01:00,ZGKL 060100Z AUTO 6SM 21/17 A3000 RMK T02100170 IEM_DS3505
ZGKL,2008-10-06 02:00,ZGKL 060200Z AUTO 6SM 25/14 A3000 RMK T02500140 IEM_DS3505
ZGKL,2008-10-06 03:00,ZGKL 060300Z AUTO 02010KT 8SM 26/13 A2997 RMK SLP154 T02610126 52001 IEM_DS3505
ZGKL,2008-10-06 04:00,ZGKL 060400Z AUTO 05010KT 6SM 28/11 A2997 RMK T02800110 IEM_DS3505
ZGKL,2008-10-06 05:00,ZGKL 060500Z AUTO 07012KT 6SM 29/12 A2991 RMK T02900120 IEM_DS3505
ZGKL,2008-10-06 06:00,ZGKL 060600Z AUTO 04010KT 10SM 29/10 A2991 RMK SLP126 T02930099 57027 IEM_DS3505
ZGKL,2008-10-06 07:00,ZGKL 060700Z AUTO 05012KT 6SM 30/12 A2988 RMK T03000120 IEM_DS3505
ZGKL,2008-10-06 08:00,ZGKL 060800Z AUTO 06012KT 6SM 29/12 A2988 RMK T02900120 IEM_DS3505
ZGKL,2008-10-06 09:00,ZGKL 060900Z AUTO 07010KT 9SM 28/11 A2988 RMK SLP122 T02790110 57005 IEM_DS3505
ZGKL,2008-10-06 10:00,ZGKL 061000Z AUTO 05008KT 6SM 26/13 A2988 RMK T02600130 IEM_DS3505
ZGKL,2008-10-06 11:00,ZGKL 061100Z AUTO 6SM 24/14 A2991 RMK T02400140 IEM_DS3505
ZGKL,2008-10-06 12:00,ZGKL 061200Z AUTO 02006KT 9SM 24/12 A2994 RMK SLP141 T02430116 52018 IEM_DS3505
ZGKL,2008-10-06 13:00,ZGKL 061300Z AUTO 34004KT 4SM 20/15 A2997 RMK T02000150 IEM_DS3505
ZGKL,2008-10-06 14:00,ZGKL 061400Z AUTO 35004KT 4SM 20/15 A2997 RMK T02000150 IEM_DS3505
ZGKL,2008-10-06 15:00,ZGKL 061500Z AUTO 02004KT 9SM 22/12 A2997 RMK SLP156 T02240124 52016 IEM_DS3505
ZGKL,2008-10-06 16:00,ZGKL 061600Z AUTO 03006KT 3SM 20/14 A2997 RMK T02000140 IEM_DS3505
ZGKL,2008-10-06 17:00,ZGKL 061700Z AUTO 05006KT 4SM 21/11 A2997 RMK T02100110 IEM_DS3505
ZGKL,2008-10-06 18:00,ZGKL 061800Z AUTO 02006KT 8SM 20/12 A2997 RMK SLP156 T02020117 54000 IEM_DS3505
ZGKL,2008-10-06 19:00,ZGKL 061900Z AUTO 33006KT 3SM 17/14 A3000 RMK T01700140 IEM_DS3505
ZGKL,2008-10-06 20:00,ZGKL 062000Z AUTO 3SM 16/14 A3000 RMK T01600140 IEM_DS3505
ZGKL,2008-10-06 21:00,ZGKL 062100Z AUTO 02006KT 8SM 19/12 A3000 RMK SLP160 T01880116 52003 IEM_DS3505
ZGKL,2008-10-06 22:00,ZGKL 062200Z AUTO 29004KT 4SM 15/14 A3003 RMK T01500140 IEM_DS3505
ZGKL,2008-10-06 23:00,ZGKL 062300Z AUTO 00000KT 4SM 15/14 A3003 RMK T01500140 IEM_DS3505
ZGKL,2008-10-07 00:00,ZGKL 070000Z AUTO 02004KT 7SM 19/12 A3006 RMK SLP182 T01910117 52021 IEM_DS3505
ZGKL,2008-10-07 01:00,ZGKL 070100Z AUTO 32004KT 4SM 20/15 A3006 RMK T02000150 IEM_DS3505
ZGKL,2008-10-07 02:00,ZGKL 070200Z AUTO 4SM 24/12 A3006 RMK T02400120 IEM_DS3505
ZGKL,2008-10-07 03:00,ZGKL 070300Z AUTO 02006KT 7SM 25/12 A3006 RMK SLP176 T02460119 57005 IEM_DS3505
ZGKL,2008-10-07 04:00,ZGKL 070400Z AUTO 5SM 26/11 A3000 RMK T02600110 IEM_DS3505
ZGKL,2008-10-07 05:00,ZGKL 070500Z AUTO 08006KT 6SM 27/11 A2997 RMK T02700110 IEM_DS3505
ZGKL,2008-10-07 06:00,ZGKL 070600Z AUTO 02006KT 7SM 28/11 A2994 RMK SLP136 T02800111 57039 IEM_DS3505
ZGKL,2008-10-07 07:00,ZGKL 070700Z AUTO 09006KT 6SM 28/10 A2991 RMK T02800100 IEM_DS3505
ZGKL,2008-10-07 08:00,ZGKL 070800Z AUTO 09004KT 6SM 28/09 A2988 RMK T02800090 IEM_DS3505
ZGKL,2008-10-07 09:00,ZGKL 070900Z AUTO 04004KT 8SM 28/11 A2988 RMK SLP123 T02790106 57013 IEM_DS3505
ZGKL,2008-10-07 10:00,ZGKL 071000Z AUTO 19004KT 6SM 25/13 A2988 RMK T02500130 IEM_DS3505
ZGKL,2008-10-07 11:00,ZGKL 071100Z AUTO 27004KT 6SM 22/14 A2988 RMK T02200140 IEM_DS3505
ZGKL,2008-10-07 12:00,ZGKL 071200Z AUTO 36004KT 8SM 24/13 A2991 RMK SLP134 T02350131 52009 IEM_DS3505
ZGKL,2008-10-07 13:00,ZGKL 071300Z AUTO 31006KT 4SM 18/16 A2994 RMK T01800160 IEM_DS3505
ZGKL,2008-10-07 14:00,ZGKL 071400Z AUTO 33004KT 4SM 18/16 A2994 RMK T01800160 IEM_DS3505
ZGKL,2008-10-07 15:00,ZGKL 071500Z AUTO 02004KT 7SM 21/13 A2994 RMK SLP146 T02140131 52013 IEM_DS3505
ZGKL,2008-10-07 16:00,ZGKL 071600Z AUTO 30004KT 4SM 16/15 A2997 RMK T01600150 IEM_DS3505
ZGKL,2008-10-07 17:00,ZGKL 071700Z AUTO 35004KT 3SM 17/15 A2997 RMK T01700150 IEM_DS3505
ZGKL,2008-10-07 18:00,ZGKL 071800Z AUTO 02002KT 7SM 20/13 A2997 RMK SLP152 T02030130 52007 IEM_DS3505
ZGKL,2008-10-07 19:00,ZGKL 071900Z AUTO 34004KT 2 1/2SM 16/15 A2997 RMK T01600150 IEM_DS3505
ZGKL,2008-10-07 20:00,ZGKL 072000Z AUTO 2 1/2SM 15/15 A2997 RMK T01500150 IEM_DS3505
ZGKL,2008-10-07 21:00,ZGKL 072100Z AUTO 36002KT 7SM 19/13 A2997 RMK SLP151 T01910133 57002 IEM_DS3505
ZGKL,2008-10-07 22:00,ZGKL 072200Z AUTO 00000KT 3SM 16/16 A2997 RMK T01600160 IEM_DS3505
ZGKL,2008-10-07 23:00,ZGKL 072300Z AUTO 30002KT 3SM 16/15 A3000 RMK T01600150 IEM_DS3505
ZGKL,2008-10-08 00:00,ZGKL 080000Z AUTO 02002KT 7SM 20/14 A3000 RMK SLP164 T02010138 52012 IEM_DS3505
ZGKL,2008-10-08 01:00,ZGKL 080100Z AUTO 2 1/2SM 20/17 A3003 RMK T02000170 IEM_DS3505
ZGKL,2008-10-08 02:00,ZGKL 080200Z AUTO 2 1/2SM 24/16 A3003 RMK T02400160 IEM_DS3505
ZGKL,2008-10-08 03:00,ZGKL 080300Z AUTO 00000KT 6SM 25/14 A3003 RMK SLP167 T02480143 52004 IEM_DS3505
ZGKL,2008-10-08 04:00,ZGKL 080400Z AUTO 4SM 27/15 A3000 RMK T02700150 IEM_DS3505
ZGKL,2008-10-08 05:00,ZGKL 080500Z AUTO 04006KT 4SM 27/15 A2997 RMK T02700150 IEM_DS3505
ZGKL,2008-10-08 06:00,ZGKL 080600Z AUTO 11002KT 6SM 28/14 A2991 RMK SLP136 T02810140 57030 IEM_DS3505
ZGKL,2008-10-08 07:00,ZGKL 080700Z AUTO 6SM 29/15 A2991 RMK T02900150 IEM_DS3505
ZGKL,2008-10-08 08:00,ZGKL 080800Z AUTO 6SM 29/15 A2988 RMK T02900150 IEM_DS3505
ZGKL,2008-10-08 09:00,ZGKL 080900Z AUTO 27004KT 11SM 29/14 A2991 RMK SLP125 T02900144 57011 IEM_DS3505
ZGKL,2008-10-08 10:00,ZGKL 081000Z AUTO 6SM 26/16 A2991 RMK T02600160 IEM_DS3505
ZGKL,2008-10-08 11:00,ZGKL 081100Z AUTO 6SM 22/19 A2991 RMK T02200190 IEM_DS3505
ZGKL,2008-10-08 12:00,ZGKL 081200Z AUTO 00000KT 9SM 25/16 A2994 RMK SLP142 T02470162 52016 IEM_DS3505
ZGKL,2008-10-08 13:00,ZGKL 081300Z AUTO 32004KT 4SM 20/18 A2997 RMK T02000180 IEM_DS3505
ZGKL,2008-10-08 14:00,ZGKL 081400Z AUTO 32004KT 4SM 20/18 A2997 RMK T02000180 IEM_DS3505
ZGKL,2008-10-08 15:00,ZGKL 081500Z AUTO 36004KT 8SM 23/16 A2997 RMK SLP154 T02290162 52013 IEM_DS3505
ZGKL,2008-10-08 16:00,ZGKL 081600Z AUTO 32002KT 3SM 19/17 A3000 RMK T01900170 IEM_DS3505
ZGKL,2008-10-08 17:00,ZGKL 081700Z AUTO 2 1/2SM 19/17 A3000 RMK T01900170 IEM_DS3505
ZGKL,2008-10-08 18:00,ZGKL 081800Z AUTO 00000KT 8SM 22/16 A2997 RMK SLP154 T02230161 54000 IEM_DS3505
ZGKL,2008-10-08 19:00,ZGKL 081900Z AUTO 32002KT 3SM 18/17 A2997 RMK T01800170 IEM_DS3505
ZGKL,2008-10-08 20:00,ZGKL 082000Z AUTO 00000KT 2 1/2SM 17/17 A2997 RMK T01700170 IEM_DS3505
ZGKL,2008-10-08 21:00,ZGKL 082100Z AUTO 29002KT 7SM 20/16 A3000 RMK SLP156 T02040160 52002 IEM_DS3505
ZGKL,2008-10-08 22:00,ZGKL 082200Z AUTO 2 1/2SM 17/17 A3000 RMK T01700170 IEM_DS3505
ZGKL,2008-10-08 23:00,ZGKL 082300Z AUTO 2 1/2SM 17/17 A3003 RMK T01700170 IEM_DS3505
ZGKL,2008-10-09 00:00,ZGKL 090000Z AUTO 02004KT 7SM 22/16 A3006 RMK SLP180 T02150160 52023 IEM_DS3505
ZGKL,2008-10-09 01:00,ZGKL 090100Z AUTO 3SM 21/19 A3009 RMK T02100190 IEM_DS3505
ZGKL,2008-10-09 02:00,ZGKL 090200Z AUTO 3SM 25/18 A3009 RMK T02500180 IEM_DS3505
ZGKL,2008-10-09 03:00,ZGKL 090300Z AUTO 04002KT 5SM 27/16 A3009 RMK SLP185 T02720162 52006 IEM_DS3505
ZGKL,2008-10-09 04:00,ZGKL 090400Z AUTO 4SM 28/17 A3006 RMK T02800170 IEM_DS3505
ZGKL,2008-10-09 05:00,ZGKL 090500Z AUTO 4SM 29/17 A3003 RMK T02900170 IEM_DS3505
ZGKL,2008-10-09 06:00,ZGKL 090600Z AUTO 27002KT 7SM 30/15 A3000 RMK SLP154 T03040153 57030 IEM_DS3505
ZGKL,2008-10-09 07:00,ZGKL 090700Z AUTO 7SM 31/15 A2997 RMK T03100150 IEM_DS3505
ZGKL,2008-10-09 08:00,ZGKL 090800Z AUTO 6SM 31/14 A2997 RMK T03100140 IEM_DS3505
ZGKL,2008-10-09 09:00,ZGKL 090900Z AUTO 27004KT 8SM 30/16 A2997 RMK SLP146 T03020155 57008 IEM_DS3505
ZGKL,2008-10-09 10:00,ZGKL 091000Z AUTO 00000KT 6SM 28/15 A2997 RMK T02800150 IEM_DS3505
ZGKL,2008-10-09 11:00,ZGKL 091100Z AUTO 28004KT 6SM 24/20 A2997 RMK T02400200 IEM_DS3505
ZGKL,2008-10-09 12:00,ZGKL 091200Z AUTO 34002KT 8SM 26/17 A3000 RMK SLP159 T02630174 52012 IEM_DS3505
ZGKL,2008-10-09 13:00,ZGKL 091300Z AUTO 32002KT 4SM 22/19 A3003 RMK T02200190 IEM_DS3505
ZGKL,2008-10-09 14:00,ZGKL 091400Z AUTO 31004KT 4SM 21/20 A3003 RMK T02100200 IEM_DS3505
ZGKL,2008-10-09 15:00,ZGKL 091500Z AUTO 36004KT 8SM 25/18 A3003 RMK SLP171 T02460176 52013 IEM_DS3505
ZGKL,2008-10-09 16:00,ZGKL 091600Z AUTO 31002KT 3SM 20/19 A3003 RMK T02000190 IEM_DS3505
ZGKL,2008-10-09 17:00,ZGKL 091700Z AUTO 30002KT 2 1/2SM 20/19 A3003 RMK T02000190 IEM_DS3505
ZGKL,2008-10-09 18:00,ZGKL 091800Z AUTO 36004KT 8SM 23/17 A3003 RMK SLP171 T02320174 54000 IEM_DS3505
ZGKL,2008-10-09 19:00,ZGKL 091900Z AUTO 2 1/2SM 19/19 A3006 RMK T01900190 IEM_DS3505
ZGKL,2008-10-09 20:00,ZGKL 092000Z AUTO 31004KT 2SM 19/18 A3006 RMK T01900180 IEM_DS3505
ZGKL,2008-10-09 21:00,ZGKL 092100Z AUTO 36002KT 8SM 22/18 A3006 RMK SLP175 T02220178 52004 IEM_DS3505
ZGKL,2008-10-09 22:00,ZGKL 092200Z AUTO 4SM 19/18 A3006 RMK T01900180 IEM_DS3505
ZGKL,2008-10-09 23:00,ZGKL 092300Z AUTO 00000KT 3SM 18/18 A3009 RMK T01800180 IEM_DS3505
ZGKL,2008-10-10 00:00,ZGKL 100000Z AUTO 02004KT 6SM 23/18 A3012 RMK SLP197 T02270180 52020 IEM_DS3505
ZGKL,2008-10-10 01:00,ZGKL 100100Z AUTO 3SM 23/20 A3012 RMK T02300200 IEM_DS3505
ZGKL,2008-10-10 02:00,ZGKL 100200Z AUTO 3SM 26/20 A3012 RMK T02600200 IEM_DS3505
ZGKL,2008-10-10 03:00,ZGKL 100300Z AUTO 04004KT 4SM 28/19 A3012 RMK SLP196 T02770187 54000 IEM_DS3505
ZGKL,2008-10-10 04:00,ZGKL 100400Z AUTO 2SM 29/20 A3009 RMK T02900200 IEM_DS3505
ZGKL,2008-10-10 05:00,ZGKL 100500Z AUTO 2SM 30/19 A3003 RMK T03000190 IEM_DS3505
ZGKL,2008-10-10 06:00,ZGKL 100600Z AUTO 04004KT 4SM 31/18 A3000 RMK SLP158 T03140177 57036 IEM_DS3505
ZGKL,2008-10-10 07:00,ZGKL 100700Z AUTO 3SM 31/17 A3000 RMK T03100170 IEM_DS3505
ZGKL,2008-10-10 08:00,ZGKL 100800Z AUTO 5SM 31/16 A2997 RMK T03100160 IEM_DS3505
ZGKL,2008-10-10 09:00,ZGKL 100900Z AUTO 02006KT 4SM 30/18 A2997 RMK SLP155 T03020176 57004 IEM_DS3505
ZGKL,2008-10-10 10:00,ZGKL 101000Z AUTO 06008KT 4SM 30/18 A3000 RMK T03000180 IEM_DS3505
ZGKL,2008-10-10 12:00,ZGKL 101200Z AUTO 04008KT 4SM 26/18 A3006 RMK SLP187 T02560175 52030 IEM_DS3505
ZGKL,2008-10-10 13:00,ZGKL 101300Z AUTO 05008KT 2SM 24/19 A3009 RMK T02400190 IEM_DS3505
ZGKL,2008-10-10 14:00,ZGKL 101400Z AUTO 04008KT 2SM 24/19 A3012 RMK T02400190 IEM_DS3505
ZGKL,2008-10-10 15:00,ZGKL 101500Z AUTO 36008KT 4SM 23/17 RMK SLP202 T02270172 52016 IEM_DS3505
ZGKL,2008-10-10 16:00,ZGKL 101600Z AUTO 06006KT 1 1/2SM 22/19 A3012 RMK T02200190 IEM_DS3505
ZGKL,2008-10-10 17:00,ZGKL 101700Z AUTO 05006KT 1 1/2SM 21/18 A3012 RMK T02100180 IEM_DS3505
ZGKL,2008-10-10 18:00,ZGKL 101800Z AUTO 02008KT 4SM 22/16 A3012 RMK SLP203 T02150158 52001 IEM_DS3505
ZGKL,2008-10-10 19:00,ZGKL 101900Z AUTO 1 1/4SM 20/18 A3012 RMK T02000180 IEM_DS3505
ZGKL,2008-10-10 20:00,ZGKL 102000Z AUTO 1 1/2SM 20/18 A3012 RMK T02000180 IEM_DS3505
ZGKL,2008-10-10 21:00,ZGKL 102100Z AUTO 02006KT 4SM 21/16 A3012 RMK SLP199 T02060158 57004 IEM_DS3505
ZGKL,2008-10-10 22:00,ZGKL 102200Z AUTO 00000KT 1 1/4SM 19/18 A3012 RMK T01900180 IEM_DS3505
ZGKL,2008-10-10 23:00,ZGKL 102300Z AUTO 1 1/4SM 20/17 A3015 RMK T02000170 IEM_DS3505
ZGKL,2008-10-11 00:00,ZGKL 110000Z AUTO 02006KT 4SM 21/16 A3015 RMK SLP213 T02090159 52012 IEM_DS3505
ZGKL,2008-10-11 01:00,ZGKL 110100Z AUTO 04004KT 2SM 22/18 A3018 RMK T02200180 IEM_DS3505
ZGKL,2008-10-11 02:00,ZGKL 110200Z AUTO 05008KT 2SM 24/18 A3018 RMK T02400180 IEM_DS3505
ZGKL,2008-10-11 03:00,ZGKL 110300Z AUTO 02010KT 4SM 24/16 A3015 RMK SLP215 T02370160 52002 IEM_DS3505
ZGKL,2008-10-11 04:00,ZGKL 110400Z AUTO 06012KT 2 1/2SM 26/17 A3012 RMK T02600170 IEM_DS3505
ZGKL,2008-10-11 05:00,ZGKL 110500Z AUTO 04008KT 3SM 27/17 A3009 RMK T02700170 IEM_DS3505
ZGKL,2008-10-11 06:00,ZGKL 110600Z AUTO 02010KT 5SM 26/16 A3009 RMK SLP188 T02570160 57026 IEM_DS3505
ZGKL,2008-10-11 07:00,ZGKL 110700Z AUTO 05012KT 4SM 27/17 A3006 RMK T02700170 IEM_DS3505
ZGKL,2008-10-11 08:00,ZGKL 110800Z AUTO 07012KT 3SM 26/17 A3006 RMK T02600170 IEM_DS3505
ZGKL,2008-10-11 09:00,ZGKL 110900Z AUTO 02008KT 5SM 24/16 A3006 RMK SLP186 T02380158 57003 IEM_DS3505
ZGKL,2008-10-11 10:00,ZGKL 111000Z AUTO 06010KT 4SM 23/17 A3006 RMK T02300170 IEM_DS3505
ZGKL,2008-10-11 11:00,ZGKL 111100Z AUTO 05010KT 4SM 21/17 A3009 RMK T02100170 IEM_DS3505
ZGKL,2008-10-11 12:00,ZGKL 111200Z AUTO 02006KT 5SM 21/16 A3012 RMK SLP205 T02100155 52018 IEM_DS3505
ZGKL,2008-10-11 13:00,ZGKL 111300Z AUTO 2 1/2SM 20/17 A3015 RMK T02000170 IEM_DS3505
ZGKL,2008-10-11 14:00,ZGKL 111400Z AUTO 2SM 20/17 A3015 RMK T02000170 IEM_DS3505
ZGKL,2008-10-11 15:00,ZGKL 111500Z AUTO 02008KT 4SM 20/16 A3015 RMK SLP210 T02030157 52005 IEM_DS3505
ZGKL,2008-10-11 16:00,ZGKL 111600Z AUTO 2SM 20/17 A3012 RMK T02000170 IEM_DS3505
ZGKL,2008-10-11 17:00,ZGKL 111700Z AUTO 2SM 19/17 A3012 RMK T01900170 IEM_DS3505
ZGKL,2008-10-11 18:00,ZGKL 111800Z AUTO 36004KT 5SM 20/16 A3009 RMK SLP198 T01970158 57011 IEM_DS3505
ZGKL,2008-10-11 19:00,ZGKL 111900Z AUTO 2SM 18/17 A3009 RMK T01800170 IEM_DS3505
ZGKL,2008-10-11 20:00,ZGKL 112000Z AUTO 2SM 17/17 A3009 RMK T01700170 IEM_DS3505
ZGKL,2008-10-11 21:00,ZGKL 112100Z AUTO 02006KT 5SM 20/16 A3009 RMK SLP189 T01960159 57009 IEM_DS3505
ZGKL,2008-10-11 22:00,ZGKL 112200Z AUTO 2SM 18/18 A3009 RMK T01800180 IEM_DS3505
ZGKL,2008-10-11 23:00,ZGKL 112300Z AUTO 1 1/2SM 18/18 A3009 RMK T01800180 IEM_DS3505
ZGKL,2008-10-12 00:00,ZGKL 120000Z AUTO 02008KT 5SM 20/15 A3012 RMK SLP204 T01990153 52013 IEM_DS3505
ZGKL,2008-10-12 01:00,ZGKL 120100Z AUTO 04010KT 4SM 22/17 A3015 RMK T02200170 IEM_DS3505
ZGKL,2008-10-12 03:00,ZGKL 120300Z AUTO 36010KT 7SM 23/15 A3012 RMK SLP204 T02340149 52001 IEM_DS3505
ZGKL,2008-10-12 04:00,ZGKL 120400Z AUTO 05014G25KT 7SM 26/15 A3009 RMK T02600150 IEM_DS3505
ZGKL,2008-10-12 05:00,ZGKL 120500Z AUTO 04012KT 7SM 26/15 A3006 RMK T02600150 IEM_DS3505
ZGKL,2008-10-12 06:00,ZGKL 120600Z AUTO 02008KT 9SM 25/15 A3003 RMK SLP174 T02510151 57029 IEM_DS3505
ZGKL,2008-10-12 07:00,ZGKL 120700Z AUTO 06012KT 7SM 25/15 A3000 RMK T02500150 IEM_DS3505
ZGKL,2008-10-12 08:00,ZGKL 120800Z AUTO 05010KT 7SM 25/15 A3000 RMK T02500150 IEM_DS3505
ZGKL,2008-10-12 09:00,ZGKL 120900Z AUTO 02008KT 9SM 24/15 A3000 RMK SLP160 T02410148 57014 IEM_DS3505
ZGKL,2008-10-12 10:00,ZGKL 121000Z AUTO 03010KT 7SM 23/16 A3000 RMK T02300160 IEM_DS3505
ZGKL,2008-10-12 11:00,ZGKL 121100Z AUTO 06010KT 5SM 22/16 A3003 RMK T02200160 IEM_DS3505
ZGKL,2008-10-12 12:00,ZGKL 121200Z AUTO 02008KT 9SM 21/15 A3003 RMK SLP179 T02080151 52018 IEM_DS3505
ZGKL,2008-10-12 13:00,ZGKL 121300Z AUTO 04004KT 4SM 20/16 A3006 RMK T02000160 IEM_DS3505
ZGKL,2008-10-12 14:00,ZGKL 121400Z AUTO 04006KT 4SM 20/16 A3006 RMK T02000160 IEM_DS3505
ZGKL,2008-10-12 15:00,ZGKL 121500Z AUTO 02006KT 9SM 20/15 A3006 RMK SLP185 T01970147 52007 IEM_DS3505
ZGKL,2008-10-12 16:00,ZGKL 121600Z AUTO 31004KT 3SM 18/16 A3006 RMK T01800160 IEM_DS3505
ZGKL,2008-10-12 17:00,ZGKL 121700Z AUTO 3SM 17/16 A3006 RMK T01700160 IEM_DS3505
ZGKL,2008-10-12 18:00,ZGKL 121800Z AUTO 02006KT 7SM 19/15 A3006 RMK SLP184 T01930148 57001 IEM_DS3505
ZGKL,2008-10-12 19:00,ZGKL 121900Z AUTO 32004KT 3SM 18/17 A3006 RMK T01800170 IEM_DS3505
ZGKL,2008-10-12 20:00,ZGKL 122000Z AUTO 34004KT 3SM 18/16 A3003 RMK T01800160 IEM_DS3505
ZGKL,2008-10-12 21:00,ZGKL 122100Z AUTO 02006KT 7SM 19/14 A3003 RMK SLP177 T01880145 57007 IEM_DS3505
ZGKL,2008-10-12 22:00,ZGKL 122200Z AUTO 28002KT 4SM 18/17 A3006 RMK T01800170 IEM_DS3505
ZGKL,2008-10-12 23:00,ZGKL 122300Z AUTO 32002KT 4SM 18/17 A3006 RMK T01800170 IEM_DS3505
ZGKL,2008-10-13 00:00,ZGKL 130000Z AUTO 36008KT 5SM 19/14 A3009 RMK SLP193 T01910144 52014 IEM_DS3505
ZGKL,2008-10-13 01:00,ZGKL 130100Z AUTO 2 1/2SM 21/16 A3012 RMK T02100160 IEM_DS3505
ZGKL,2008-10-13 02:00,ZGKL 130200Z AUTO 03010KT 3SM 22/16 A3012 RMK T02200160 IEM_DS3505
ZGKL,2008-10-13 03:00,ZGKL 130300Z AUTO 02010KT 6SM 22/14 A3009 RMK SLP197 T02190143 52005 IEM_DS3505
ZGKL,2008-10-13 04:00,ZGKL 130400Z AUTO 34008KT 4SM 24/16 A3006 RMK T02400160 IEM_DS3505
ZGKL,2008-10-13 05:00,ZGKL 130500Z AUTO 34006KT 4SM 23/16 A3006 RMK T02300160 IEM_DS3505
ZGKL,2008-10-13 06:00,ZGKL 130600Z AUTO 07008KT 7SM 25/14 A3003 RMK SLP168 T02530141 57028 IEM_DS3505
ZGKL,2008-10-13 07:00,ZGKL 130700Z AUTO 5SM 24/15 A3000 RMK T02400150 IEM_DS3505
ZGKL,2008-10-13 08:00,ZGKL 130800Z AUTO 5SM 25/15 A3000 RMK T02500150 IEM_DS3505
ZGKL,2008-10-13 09:00,ZGKL 130900Z AUTO 07004KT 8SM 24/15 A3000 RMK SLP164 T02440148 57004 IEM_DS3505
ZGKL,2008-10-13 10:00,ZGKL 131000Z AUTO 04004KT 6SM 24/15 A3003 RMK T02400150 IEM_DS3505
ZGKL,2008-10-13 11:00,ZGKL 131100Z AUTO 6SM 23/16 A3003 RMK T02300160 IEM_DS3505
ZGKL,2008-10-13 12:00,ZGKL 131200Z AUTO 02002KT 8SM 22/16 A3006 RMK SLP183 T02220156 52018 IEM_DS3505
ZGKL,2008-10-13 13:00,ZGKL 131300Z AUTO 4SM 22/15 A3006 RMK T02200150 IEM_DS3505
ZGKL,2008-10-13 14:00,ZGKL 131400Z AUTO 4SM 20/16 A3009 RMK T02000160 IEM_DS3505
ZGKL,2008-10-13 15:00,ZGKL 131500Z AUTO 02004KT 8SM 21/15 A3009 RMK SLP193 T02080149 52010 IEM_DS3505
ZGKL,2008-10-13 16:00,ZGKL 131600Z AUTO 4SM 19/16 A3009 RMK T01900160 IEM_DS3505
ZGKL,2008-10-13 17:00,ZGKL 131700Z AUTO 34004KT 4SM 18/16 A3006 RMK T01800160 IEM_DS3505
ZGKL,2008-10-13 18:00,ZGKL 131800Z AUTO 02002KT 8SM 20/15 A3006 RMK SLP184 T01950152 57008 IEM_DS3505
ZGKL,2008-10-13 19:00,ZGKL 131900Z AUTO 27002KT 2SM 17/16 A3006 RMK T01700160 IEM_DS3505
ZGKL,2008-10-13 20:00,ZGKL 132000Z AUTO 27002KT 2 1/2SM 16/16 A3006 RMK T01600160 IEM_DS3505
ZGKL,2008-10-13 21:00,ZGKL 132100Z AUTO 04004KT 8SM 19/15 A3003 RMK SLP177 T01920147 57007 IEM_DS3505
ZGKL,2008-10-13 22:00,ZGKL 132200Z AUTO 1 1/4SM 16/16 A3006 RMK T01600160 IEM_DS3505
ZGKL,2008-10-13 23:00,ZGKL 132300Z AUTO 1 1/4SM 16/16 A3009 RMK T01600160 IEM_DS3505
ZGKL,2008-10-14 00:00,ZGKL 140000Z AUTO 04004KT 6SM 20/15 A3012 RMK SLP201 T02010149 52023 IEM_DS3505
ZGKL,2008-10-14 01:00,ZGKL 140100Z AUTO 34006KT 3SM 21/18 A3012 RMK T02100180 IEM_DS3505
ZGKL,2008-10-14 02:00,ZGKL 140200Z AUTO 3SM 24/16 A3015 RMK T02400160 IEM_DS3505
ZGKL,2008-10-14 03:00,ZGKL 140300Z AUTO 02006KT 6SM 26/14 A3012 RMK SLP202 T02630138 52002 IEM_DS3505
ZGKL,2008-10-14 04:00,ZGKL 140400Z AUTO 05008KT 5SM 27/13 A3009 RMK T02700130 IEM_DS3505
ZGKL,2008-10-14 05:00,ZGKL 140500Z AUTO 06010KT 6SM 29/11 A3006 RMK T02900110 IEM_DS3505
ZGKL,2008-10-14 06:00,ZGKL 140600Z AUTO 36004KT 9SM 28/12 A3003 RMK SLP171 T02850116 57030 IEM_DS3505
ZGKL,2008-10-14 07:00,ZGKL 140700Z AUTO 06008KT 6SM 30/11 A3003 RMK T03000110 IEM_DS3505
ZGKL,2008-10-14 08:00,ZGKL 140800Z AUTO 6SM 29/11 A3000 RMK T02900110 IEM_DS3505
ZGKL,2008-10-14 09:00,ZGKL 140900Z AUTO 02006KT 10SM 28/12 A3000 RMK SLP160 T02850124 57011 IEM_DS3505
ZGKL,2008-10-14 10:00,ZGKL 141000Z AUTO 6SM 27/13 A3000 RMK T02700130 IEM_DS3505
ZGKL,2008-10-14 11:00,ZGKL 141100Z AUTO 29004KT 6SM 24/16 A3000 RMK T02400160 IEM_DS3505
ZGKL,2008-10-14 12:00,ZGKL 141200Z AUTO 02002KT 10SM 25/14 A3003 RMK SLP175 T02500139 52014 IEM_DS3505
ZGKL,2008-10-14 13:00,ZGKL 141300Z AUTO 4SM 21/18 A3006 RMK T02100180 IEM_DS3505
ZGKL,2008-10-14 14:00,ZGKL 141400Z AUTO 33006KT 4SM 21/18 A3006 RMK T02100180 IEM_DS3505
ZGKL,2008-10-14 15:00,ZGKL 141500Z AUTO 02004KT 9SM 23/14 A3009 RMK SLP189 T02280144 52015 IEM_DS3505
ZGKL,2008-10-14 16:00,ZGKL 141600Z AUTO 3SM 19/17 A3009 RMK T01900170 IEM_DS3505
ZGKL,2008-10-14 17:00,ZGKL 141700Z AUTO 3SM 19/18 A3006 RMK T01900180 IEM_DS3505
ZGKL,2008-10-14 18:00,ZGKL 141800Z AUTO 02004KT 8SM 22/14 A3006 RMK SLP180 T02190140 57008 IEM_DS3505
ZGKL,2008-10-14 19:00,ZGKL 141900Z AUTO 32004KT 3SM 19/18 A3006 RMK T01900180 IEM_DS3505
ZGKL,2008-10-14 20:00,ZGKL 142000Z AUTO 32004KT 2 1/2SM 19/18 A3003 RMK T01900180 IEM_DS3505
ZGKL,2008-10-14 21:00,ZGKL 142100Z AUTO 02004KT 7SM 21/14 A3006 RMK SLP175 T02110143 57005 IEM_DS3505
ZGKL,2008-10-14 22:00,ZGKL 142200Z AUTO 3SM 18/17 A3006 RMK T01800170 IEM_DS3505
ZGKL,2008-10-14 23:00,ZGKL 142300Z AUTO 33002KT 2 1/2SM 18/17 A3006 RMK T01800170 IEM_DS3505
ZGKL,2008-10-15 00:00,ZGKL 150000Z AUTO 02004KT 7SM 22/15 A3009 RMK SLP189 T02170146 52013 IEM_DS3505
ZGKL,2008-10-15 01:00,ZGKL 150100Z AUTO 4SM 22/18 A3009 RMK T02200180 IEM_DS3505
ZGKL,2008-10-15 02:00,ZGKL 150200Z AUTO 29002KT 4SM 24/17 A3012 RMK T02400170 IEM_DS3505
ZGKL,2008-10-15 03:00,ZGKL 150300Z AUTO 02006KT 5SM 27/15 A3009 RMK SLP190 T02730147 52002 IEM_DS3505
ZGKL,2008-10-15 04:00,ZGKL 150400Z AUTO 6SM 28/15 A3006 RMK T02800150 IEM_DS3505
ZGKL,2008-10-15 05:00,ZGKL 150500Z AUTO 6SM 29/15 A3003 RMK T02900150 IEM_DS3505
ZGKL,2008-10-15 06:00,ZGKL 150600Z AUTO 02004KT 7SM 30/14 A3000 RMK SLP158 T03030140 57031 IEM_DS3505
ZGKL,2008-10-15 07:00,ZGKL 150700Z AUTO 6SM 31/14 A2997 RMK T03100140 IEM_DS3505
ZGKL,2008-10-15 08:00,ZGKL 150800Z AUTO 12004KT 6SM 30/14 A2997 RMK T03000140 IEM_DS3505
ZGKL,2008-10-15 09:00,ZGKL 150900Z AUTO 36004KT 9SM 30/14 A2997 RMK SLP148 T03010142 57010 IEM_DS3505
ZGKL,2008-10-15 10:00,ZGKL 151000Z AUTO 6SM 28/17 A2997 RMK T02800170 IEM_DS3505
ZGKL,2008-10-15 11:00,ZGKL 151100Z AUTO 4SM 26/19 A2997 RMK T02600190 IEM_DS3505
ZGKL,2008-10-15 12:00,ZGKL 151200Z AUTO 02004KT 9SM 26/15 A3000 RMK SLP164 T02640151 52015 IEM_DS3505
ZGKL,2008-10-15 13:00,ZGKL 151300Z AUTO 33006KT 4SM 25/18 A3003 RMK T02500180 IEM_DS3505
ZGKL,2008-10-15 14:00,ZGKL 151400Z AUTO 00000KT 4SM 24/19 A3006 RMK T02400190 IEM_DS3505
ZGKL,2008-10-15 15:00,ZGKL 151500Z AUTO 02004KT 9SM 25/15 A3006 RMK SLP175 T02510146 52012 IEM_DS3505
ZGKL,2008-10-15 16:00,ZGKL 151600Z AUTO 4SM 23/19 A3003 RMK T02300190 IEM_DS3505
ZGKL,2008-10-15 17:00,ZGKL 151700Z AUTO 3SM 22/20 A3003 RMK T02200200 IEM_DS3505
ZGKL,2008-10-15 18:00,ZGKL 151800Z AUTO 04004KT 8SM 24/15 A3003 RMK SLP166 T02390149 57009 IEM_DS3505
ZGKL,2008-10-15 19:00,ZGKL 151900Z AUTO 34002KT 3SM 21/19 A3000 RMK T02100190 IEM_DS3505
ZGKL,2008-10-15 20:00,ZGKL 152000Z AUTO 31004KT 2 1/2SM 20/19 A3000 RMK T02000190 IEM_DS3505
ZGKL,2008-10-15 21:00,ZGKL 152100Z AUTO 02004KT 8SM 23/15 A3000 RMK SLP158 T02290147 57008 IEM_DS3505
ZGKL,2008-10-15 22:00,ZGKL 152200Z AUTO 3SM 20/19 A3000 RMK T02000190 IEM_DS3505
ZGKL,2008-10-15 23:00,ZGKL 152300Z AUTO 34002KT 4SM 19/19 A3003 RMK T01900190 IEM_DS3505
ZGKL,2008-10-16 00:00,ZGKL 160000Z AUTO 02006KT 8SM 23/14 A3003 RMK SLP174 T02310144 52015 IEM_DS3505
ZGKL,2008-10-16 01:00,ZGKL 160100Z AUTO 3SM 22/19 A3006 RMK T02200190 IEM_DS3505
ZGKL,2008-10-16 02:00,ZGKL 160200Z AUTO 4SM 26/18 A3006 RMK T02600180 IEM_DS3505
ZGKL,2008-10-16 03:00,ZGKL 160300Z AUTO 36006KT 7SM 28/13 A3003 RMK SLP171 T02800132 57002 IEM_DS3505
ZGKL,2008-10-16 04:00,ZGKL 160400Z AUTO 5SM 30/14 A3000 RMK T03000140 IEM_DS3505
ZGKL,2008-10-16 05:00,ZGKL 160500Z AUTO 08006KT 5SM 31/13 A2997 RMK T03100130 IEM_DS3505
ZGKL,2008-10-16 06:00,ZGKL 160600Z AUTO 07004KT 9SM 32/12 A2994 RMK SLP136 T03170125 57034 IEM_DS3505
ZGKL,2008-10-16 07:00,ZGKL 160700Z AUTO 08006KT 6SM 32/13 A2991 RMK T03200130 IEM_DS3505
ZGKL,2008-10-16 08:00,ZGKL 160800Z AUTO 09006KT 6SM 31/13 A2991 RMK T03100130 IEM_DS3505
ZGKL,2008-10-16 09:00,ZGKL 160900Z AUTO 02008KT 11SM 30/14 A2991 RMK SLP128 T03030136 57008 IEM_DS3505
ZGKL,2008-10-16 10:00,ZGKL 161000Z AUTO 06006KT 6SM 28/15 A2991 RMK T02800150 IEM_DS3505
ZGKL,2008-10-16 11:00,ZGKL 161100Z AUTO 04008KT 6SM 27/14 A2994 RMK T02700140 IEM_DS3505
ZGKL,2008-10-16 12:00,ZGKL 161200Z AUTO 04006KT 10SM 26/14 A2997 RMK SLP146 T02630141 52016 IEM_DS3505
ZGKL,2008-10-16 13:00,ZGKL 161300Z AUTO 6SM 24/16 A2997 RMK T02400160 IEM_DS3505
ZGKL,2008-10-16 14:00,ZGKL 161400Z AUTO 5SM 23/18 A3000 RMK T02300180 IEM_DS3505
ZGKL,2008-10-16 15:00,ZGKL 161500Z AUTO 02006KT 9SM 26/14 A3000 RMK SLP155 T02570142 52010 IEM_DS3505
ZGKL,2008-10-16 16:00,ZGKL 161600Z AUTO 4SM 21/19 A3000 RMK T02100190 IEM_DS3505
ZGKL,2008-10-16 17:00,ZGKL 161700Z AUTO 3SM 21/19 A3000 RMK T02100190 IEM_DS3505
ZGKL,2008-10-16 18:00,ZGKL 161800Z AUTO 02006KT 8SM 24/14 A2997 RMK SLP152 T02390137 57002 IEM_DS3505
ZGKL,2008-10-16 19:00,ZGKL 161900Z AUTO 3SM 19/18 A2997 RMK T01900180 IEM_DS3505
ZGKL,2008-10-16 20:00,ZGKL 162000Z AUTO 2 1/2SM 19/18 A2997 RMK T01900180 IEM_DS3505
ZGKL,2008-10-16 21:00,ZGKL 162100Z AUTO 02006KT 8SM 22/13 A2997 RMK SLP151 T02230131 57002 IEM_DS3505
ZGKL,2008-10-16 22:00,ZGKL 162200Z AUTO 31002KT 3SM 18/17 A3000 RMK T01800170 IEM_DS3505
ZGKL,2008-10-16 23:00,ZGKL 162300Z AUTO 3SM 18/17 A3000 RMK T01800170 IEM_DS3505
ZGKL,2008-10-17 00:00,ZGKL 170000Z AUTO 02004KT 7SM 22/13 A3003 RMK SLP169 T02250130 52017 IEM_DS3505
ZGKL,2008-10-17 01:00,ZGKL 170100Z AUTO 3SM 22/18 A3006 RMK T02200180 IEM_DS3505
ZGKL,2008-10-17 02:00,ZGKL 170200Z AUTO 03008KT 4SM 26/12 A3006 RMK T02600120 IEM_DS3505
ZGKL,2008-10-17 03:00,ZGKL 170300Z AUTO 02008KT 8SM 27/13 A3003 RMK SLP167 T02700130 57001 IEM_DS3505
ZGKL,2008-10-17 04:00,ZGKL 170400Z AUTO 04012KT 4SM 29/13 A3000 RMK T02900130 IEM_DS3505
ZGKL,2008-10-17 05:00,ZGKL 170500Z AUTO 05012KT 5SM 30/12 A2997 RMK T03000120 IEM_DS3505
ZGKL,2008-10-17 06:00,ZGKL 170600Z AUTO 36010KT 8SM 30/12 A2994 RMK SLP136 T03010125 57030 IEM_DS3505
ZGKL,2008-10-17 07:00,ZGKL 170700Z AUTO 05010KT 6SM 31/12 A2991 RMK T03100120 IEM_DS3505
ZGKL,2008-10-17 08:00,ZGKL 170800Z AUTO 07010KT 6SM 30/11 A2991 RMK T03000110 IEM_DS3505
ZGKL,2008-10-17 09:00,ZGKL 170900Z AUTO 04004KT 10SM 30/13 A2991 RMK SLP133 T03020126 57004 IEM_DS3505
ZGKL,2008-10-17 10:00,ZGKL 171000Z AUTO 06006KT 6SM 27/14 A2994 RMK T02700140 IEM_DS3505
ZGKL,2008-10-17 11:00,ZGKL 171100Z AUTO 04006KT 6SM 26/13 A2994 RMK T02600130 IEM_DS3505
ZGKL,2008-10-17 12:00,ZGKL 171200Z AUTO 02006KT 9SM 26/12 A2997 RMK SLP151 T02600125 52017 IEM_DS3505
ZGKL,2008-10-17 13:00,ZGKL 171300Z AUTO 4SM 22/16 A3000 RMK T02200160 IEM_DS3505
ZGKL,2008-10-17 14:00,ZGKL 171400Z AUTO 31004KT 3SM 21/17 A3000 RMK T02100170 IEM_DS3505
ZGKL,2008-10-17 15:00,ZGKL 171500Z AUTO 02006KT 9SM 24/14 A3000 RMK SLP161 T02440145 52011 IEM_DS3505
ZGKL,2008-10-17 16:00,ZGKL 171600Z AUTO 3SM 20/17 A3000 RMK T02000170 IEM_DS3505
ZGKL,2008-10-17 17:00,ZGKL 171700Z AUTO 34002KT 3SM 19/17 A3000 RMK T01900170 IEM_DS3505
ZGKL,2008-10-17 18:00,ZGKL 171800Z AUTO 02006KT 9SM 23/14 A3000 RMK SLP158 T02320145 57003 IEM_DS3505
ZGKL,2008-10-17 19:00,ZGKL 171900Z AUTO 28002KT 2 1/2SM 18/17 A3000 RMK T01800170 IEM_DS3505
ZGKL,2008-10-17 20:00,ZGKL 172000Z AUTO 31002KT 2SM 17/17 A3000 RMK T01700170 IEM_DS3505
ZGKL,2008-10-17 21:00,ZGKL 172100Z AUTO 36006KT 9SM 22/14 A3000 RMK SLP161 T02220143 52003 IEM_DS3505
ZGKL,2008-10-17 22:00,ZGKL 172200Z AUTO 34002KT 2 1/2SM 17/16 A3003 RMK T01700160 IEM_DS3505
ZGKL,2008-10-17 23:00,ZGKL 172300Z AUTO 2SM 17/16 A3006 RMK T01700160 IEM_DS3505
ZGKL,2008-10-18 00:00,ZGKL 180000Z AUTO 02006KT 6SM 22/14 A3006 RMK SLP182 T02240143 52019 IEM_DS3505
ZGKL,2008-10-18 01:00,ZGKL 180100Z AUTO 4SM 22/18 A3009 RMK T02200180 IEM_DS3505
ZGKL,2008-10-18 02:00,ZGKL 180200Z AUTO 4SM 25/17 A3009 RMK T02500170 IEM_DS3505
ZGKL,2008-10-18 03:00,ZGKL 180300Z AUTO 02006KT 6SM 28/14 A3006 RMK SLP183 T02750145 52002 IEM_DS3505
ZGKL,2008-10-18 04:00,ZGKL 180400Z AUTO 4SM 30/15 A3006 RMK T03000150 IEM_DS3505
ZGKL,2008-10-18 05:00,ZGKL 180500Z AUTO 5SM 31/15 A3000 RMK T03100150 IEM_DS3505
ZGKL,2008-10-18 06:00,ZGKL 180600Z AUTO 02008KT 7SM 31/15 A3000 RMK SLP152 T03070148 57029 IEM_DS3505
ZGKL,2008-10-18 07:00,ZGKL 180700Z AUTO 09006KT 6SM 31/15 A2997 RMK T03100150 IEM_DS3505
ZGKL,2008-10-18 08:00,ZGKL 180800Z AUTO 06008KT 6SM 31/15 A2997 RMK T03100150 IEM_DS3505
ZGKL,2008-10-18 09:00,ZGKL 180900Z AUTO 02006KT 8SM 30/14 A2997 RMK SLP146 T02980144 57007 IEM_DS3505
ZGKL,2008-10-18 10:00,ZGKL 181000Z AUTO 06006KT 5SM 28/15 A2997 RMK T02800150 IEM_DS3505
ZGKL,2008-10-18 11:00,ZGKL 181100Z AUTO 05008KT 5SM 27/15 A3000 RMK T02700150 IEM_DS3505
ZGKL,2008-10-18 12:00,ZGKL 181200Z AUTO 02006KT 7SM 26/16 A3000 RMK SLP164 T02560159 52016 IEM_DS3505
ZGKL,2008-10-18 13:00,ZGKL 181300Z AUTO 00000KT 4SM 22/18 A3003 RMK T02200180 IEM_DS3505
ZGKL,2008-10-18 14:00,ZGKL 181400Z AUTO 29004KT 4SM 21/19 A3006 RMK T02100190 IEM_DS3505
ZGKL,2008-10-18 15:00,ZGKL 181500Z AUTO 02004KT 7SM 24/16 A3006 RMK SLP175 T02440159 52013 IEM_DS3505
ZGKL,2008-10-18 16:00,ZGKL 181600Z AUTO 34004KT 3SM 20/18 A3006 RMK T02000180 IEM_DS3505
ZGKL,2008-10-18 17:00,ZGKL 181700Z AUTO 34004KT 2SM 19/18 A3003 RMK T01900180 IEM_DS3505
ZGKL,2008-10-18 18:00,ZGKL 181800Z AUTO 02004KT 7SM 23/16 A3003 RMK SLP169 T02300161 57006 IEM_DS3505
ZGKL,2008-10-18 19:00,ZGKL 181900Z AUTO 2SM 18/18 A3003 RMK T01800180 IEM_DS3505
ZGKL,2008-10-18 20:00,ZGKL 182000Z AUTO 32004KT 2SM 18/18 A3003 RMK T01800180 IEM_DS3505
ZGKL,2008-10-18 21:00,ZGKL 182100Z AUTO 02006KT 7SM 22/16 A3003 RMK SLP165 T02190160 57004 IEM_DS3505
ZGKL,2008-10-18 22:00,ZGKL 182200Z AUTO 33004KT 3SM 17/17 A3003 RMK T01700170 IEM_DS3505
ZGKL,2008-10-18 23:00,ZGKL 182300Z AUTO 31002KT 3SM 17/17 A3006 RMK T01700170 IEM_DS3505
ZGKL,2008-10-19 00:00,ZGKL 190000Z AUTO 02006KT 5SM 22/16 A3006 RMK SLP180 T02210159 52013 IEM_DS3505
ZGKL,2008-10-19 01:00,ZGKL 190100Z AUTO 2 1/2SM 22/19 A3006 RMK T02200190 IEM_DS3505
ZGKL,2008-10-19 02:00,ZGKL 190200Z AUTO 3SM 25/18 A3006 RMK T02500180 IEM_DS3505
ZGKL,2008-10-19 03:00,ZGKL 190300Z AUTO 36008KT 5SM 27/16 A3006 RMK SLP175 T02710155 57004 IEM_DS3505
ZGKL,2008-10-19 04:00,ZGKL 190400Z AUTO 3SM 29/15 A3003 RMK T02900150 IEM_DS3505
ZGKL,2008-10-19 05:00,ZGKL 190500Z AUTO 06006KT 3SM 30/15 A2997 RMK T03000150 IEM_DS3505
ZGKL,2008-10-19 06:00,ZGKL 190600Z AUTO 36006KT 5SM 30/15 A2994 RMK SLP141 T03050146 57032 IEM_DS3505
ZGKL,2008-10-19 07:00,ZGKL 190700Z AUTO 4SM 31/15 A2994 RMK T03100150 IEM_DS3505
ZGKL,2008-10-19 08:00,ZGKL 190800Z AUTO 11004KT 4SM 31/14 A2991 RMK T03100140 IEM_DS3505
ZGKL,2008-10-19 09:00,ZGKL 190900Z AUTO 04004KT 7SM 30/15 A2991 RMK SLP130 T03000149 57012 IEM_DS3505
ZGKL,2008-10-19 10:00,ZGKL 191000Z AUTO 06004KT 4SM 28/17 A2991 RMK T02800170 IEM_DS3505
ZGKL,2008-10-19 11:00,ZGKL 191100Z AUTO 3SM 25/19 A2991 RMK T02500190 IEM_DS3505
ZGKL,2008-10-19 12:00,ZGKL 191200Z AUTO 02002KT 6SM 26/16 A2994 RMK SLP144 T02600163 52013 IEM_DS3505
ZGKL,2008-10-19 13:00,ZGKL 191300Z AUTO 2 1/2SM 22/19 A2997 RMK T02200190 IEM_DS3505
ZGKL,2008-10-19 14:00,ZGKL 191400Z AUTO 31002KT 2 1/2SM 21/19 A3000 RMK T02100190 IEM_DS3505
ZGKL,2008-10-19 15:00,ZGKL 191500Z AUTO 36004KT 6SM 24/17 A3000 RMK SLP154 T02410166 52011 IEM_DS3505
ZGKL,2008-10-19 16:00,ZGKL 191600Z AUTO 33002KT 2 1/2SM 20/19 A2997 RMK T02000190 IEM_DS3505
ZGKL,2008-10-19 17:00,ZGKL 191700Z AUTO 34002KT 2SM 19/18 A2997 RMK T01900180 IEM_DS3505
ZGKL,2008-10-19 18:00,ZGKL 191800Z AUTO 36002KT 6SM 23/16 A2997 RMK SLP147 T02310164 57006 IEM_DS3505
ZGKL,2008-10-19 19:00,ZGKL 191900Z AUTO 26002KT 1 1/4SM 18/18 A2997 RMK T01800180 IEM_DS3505
ZGKL,2008-10-19 20:00,ZGKL 192000Z AUTO 1 1/2SM 18/18 A2997 RMK T01800180 IEM_DS3505
ZGKL,2008-10-19 21:00,ZGKL 192100Z AUTO 36002KT 6SM 22/17 A2997 RMK SLP144 T02210166 57004 IEM_DS3505
ZGKL,2008-10-19 22:00,ZGKL 192200Z AUTO 32002KT 1 1/2SM 18/17 A2997 RMK T01800170 IEM_DS3505
ZGKL,2008-10-19 23:00,ZGKL 192300Z AUTO 30002KT 1 1/2SM 18/17 A3000 RMK T01800170 IEM_DS3505
ZGKL,2008-10-20 00:00,ZGKL 200000Z AUTO 09002KT 5SM 22/17 A3000 RMK SLP163 T02230170 52018 IEM_DS3505
ZGKL,2008-10-20 01:00,ZGKL 200100Z AUTO 2 1/2SM 22/19 A3003 RMK T02200190 IEM_DS3505
ZGKL,2008-10-20 02:00,ZGKL 200200Z AUTO 2 1/2SM 25/19 A3003 RMK T02500190 IEM_DS3505
ZGKL,2008-10-20 03:00,ZGKL 200300Z AUTO 04002KT 4SM 27/18 A3000 RMK SLP161 T02660177 57002 IEM_DS3505
ZGKL,2008-10-20 04:00,ZGKL 200400Z AUTO 2 1/2SM 28/19 A2997 RMK T02800190 IEM_DS3505
ZGKL,2008-10-20 05:00,ZGKL 200500Z AUTO 2 1/2SM 29/19 A2994 RMK T02900190 IEM_DS3505
ZGKL,2008-10-20 06:00,ZGKL 200600Z AUTO 27004KT 4SM 31/17 A2991 RMK SLP125 T03060173 57034 IEM_DS3505
ZGKL,2008-10-20 07:00,ZGKL 200700Z AUTO 3SM 30/18 A2988 RMK T03000180 IEM_DS3505
ZGKL,2008-10-20 08:00,ZGKL 200800Z AUTO 3SM 30/18 A2985 RMK T03000180 IEM_DS3505
ZGKL,2008-10-20 09:00,ZGKL 200900Z AUTO 32002KT 4SM 30/18 A2985 RMK SLP109 T03010176 57016 IEM_DS3505
ZGKL,2008-10-20 10:00,ZGKL 201000Z AUTO 32004KT 3SM 27/19 A2985 RMK T02700190 IEM_DS3505
ZGKL,2008-10-20 11:00,ZGKL 201100Z AUTO 2 1/2SM 26/21 A2988 RMK T02600210 IEM_DS3505
ZGKL,2008-10-20 12:00,ZGKL 201200Z AUTO 04002KT 4SM 27/19 A2988 RMK SLP120 T02660187 52010 IEM_DS3505
ZGKL,2008-10-20 13:00,ZGKL 201300Z AUTO 2SM 24/21 A2988 RMK T02400210 IEM_DS3505
ZGKL,2008-10-20 14:00,ZGKL 201400Z AUTO 30004KT 1 1/2SM 24/21 A2991 RMK T02400210 IEM_DS3505
ZGKL,2008-10-20 15:00,ZGKL 201500Z AUTO 36002KT 4SM 24/19 A2991 RMK SLP128 T02400189 52008 IEM_DS3505
ZGKL,2008-10-20 16:00,ZGKL 201600Z AUTO 34002KT 1 1/2SM 22/21 A2991 RMK T02200210 IEM_DS3505
ZGKL,2008-10-20 17:00,ZGKL 201700Z AUTO 00000KT 1 1/2SM 22/21 A2991 RMK T02200210 IEM_DS3505
ZGKL,2008-10-20 18:00,ZGKL 201800Z AUTO 00000KT 4SM 24/19 A2991 RMK SLP127 T02380193 54000 IEM_DS3505
ZGKL,2008-10-20 19:00,ZGKL 201900Z AUTO 1 1/2SM 22/21 A2991 RMK T02200210 IEM_DS3505
ZGKL,2008-10-20 20:00,ZGKL 202000Z AUTO 00000KT 1 1/4SM 22/21 A2991 RMK T02200210 IEM_DS3505
ZGKL,2008-10-20 21:00,ZGKL 202100Z AUTO 04002KT 4SM 23/20 A2991 RMK SLP128 T02330195 52001 IEM_DS3505
ZGKL,2008-10-20 22:00,ZGKL 202200Z AUTO 1 1/2SM 23/21 A2991 RMK T02300210 IEM_DS3505
ZGKL,2008-10-20 23:00,ZGKL 202300Z AUTO 1 1/4SM 22/22 A2994 RMK T02200220 IEM_DS3505
ZGKL,2008-10-21 00:00,ZGKL 210000Z AUTO 18002KT 4SM 23/21 A2997 RMK SLP147 T02330208 52017 IEM_DS3505
ZGKL,2008-10-21 01:00,ZGKL 210100Z AUTO 31002KT 1 1/4SM 23/22 A2997 RMK T02300220 IEM_DS3505
ZGKL,2008-10-21 02:00,ZGKL 210200Z AUTO 1 1/2SM 25/22 A2997 RMK T02500220 IEM_DS3505
ZGKL,2008-10-21 03:00,ZGKL 210300Z AUTO 16004KT 6SM 26/21 A2997 RMK SLP149 T02580212 52002 IEM_DS3505
ZGKL,2008-10-21 04:00,ZGKL 210400Z AUTO 2 1/2SM 28/23 A2994 RMK T02800230 IEM_DS3505
ZGKL,2008-10-21 05:00,ZGKL 210500Z AUTO 2 1/2SM 28/23 A2991 RMK T02800230 IEM_DS3505
ZGKL,2008-10-21 06:00,ZGKL 210600Z AUTO 00000KT 7SM 28/20 A2988 RMK SLP117 T02820205 57030 IEM_DS3505
ZGKL,2008-10-21 07:00,ZGKL 210700Z AUTO 3SM 29/23 A2985 RMK T02900230 IEM_DS3505
ZGKL,2008-10-21 08:00,ZGKL 210800Z AUTO 4SM 30/22 A2985 RMK T03000220 IEM_DS3505
ZGKL,2008-10-21 09:00,ZGKL 210900Z AUTO 09002KT 6SM 29/21 A2985 RMK SLP108 T02920206 57009 IEM_DS3505
ZGKL,2008-10-21 10:00,ZGKL 211000Z AUTO 31002KT 2 1/2SM 27/23 A2985 RMK T02700230 IEM_DS3505
ZGKL,2008-10-21 11:00,ZGKL 211100Z AUTO 29002KT 2SM 26/23 A2985 RMK T02600230 IEM_DS3505
ZGKL,2008-10-21 12:00,ZGKL 211200Z AUTO 00000KT 6SM 27/22 A2988 RMK SLP114 T02670217 52005 IEM_DS3505
ZGKL,2008-10-21 13:00,ZGKL 211300Z AUTO 1 1/4SM 23/23 A2988 RMK T02300230 IEM_DS3505
ZGKL,2008-10-21 14:00,ZGKL 211400Z AUTO 1 1/4SM 23/23 A2988 RMK T02300230 IEM_DS3505
ZGKL,2008-10-21 15:00,ZGKL 211500Z AUTO 09002KT 6SM 25/22 A2988 RMK SLP120 T02510218 52006 IEM_DS3505
ZGKL,2008-10-21 16:00,ZGKL 211600Z AUTO 00000KT 1SM 22/22 A2988 RMK T02200220 IEM_DS3505
ZGKL,2008-10-21 17:00,ZGKL 211700Z AUTO 1SM 22/22 A2988 RMK T02200220 IEM_DS3505
ZGKL,2008-10-21 18:00,ZGKL 211800Z AUTO 32002KT 6SM 24/22 A2988 RMK SLP114 T02350219 57005 IEM_DS3505
ZGKL,2008-10-21 19:00,ZGKL 211900Z AUTO 29002KT 3/8SM 21/21 A2985 RMK T02100210 IEM_DS3505
ZGKL,2008-10-21 20:00,ZGKL 212000Z AUTO 32002KT 1/2SM 21/21 A2988 RMK T02100210 IEM_DS3505
ZGKL,2008-10-21 21:00,ZGKL 212100Z AUTO 09002KT 6SM 24/22 A2988 RMK SLP115 T02360220 52001 IEM_DS3505
ZGKL,2008-10-21 22:00,ZGKL 212200Z AUTO 17002KT 1SM 22/22 A2988 RMK T02200220 IEM_DS3505
ZGKL,2008-10-21 23:00,ZGKL 212300Z AUTO 20004KT 1SM 22/22 A2991 RMK T02200220 IEM_DS3505
ZGKL,2008-10-22 00:00,ZGKL 220000Z AUTO 00000KT 5SM 24/22 A2991 RMK 60004 70005 SLP132 T02390220 52016 IEM_DS3505
ZGKL,2008-10-22 01:00,ZGKL 220100Z AUTO 1 1/4SM 23/22 A2994 RMK T02300220 IEM_DS3505
ZGKL,2008-10-22 02:00,ZGKL 220200Z AUTO 2 1/2SM 25/22 A2994 RMK T02500220 IEM_DS3505
ZGKL,2008-10-22 03:00,ZGKL 220300Z AUTO 20004KT 5SM 27/22 A2994 RMK SLP135 T02670215 52003 IEM_DS3505
ZGKL,2008-10-22 04:00,ZGKL 220400Z AUTO 20008KT 7SM 27/22 A2991 RMK T02700220 IEM_DS3505
ZGKL,2008-10-22 05:00,ZGKL 220500Z AUTO 23008KT 7SM 28/21 A2988 RMK T02800210 IEM_DS3505
ZGKL,2008-10-22 06:00,ZGKL 220600Z AUTO 22004KT 7SM 29/20 A2985 RMK 60000 SLP108 T02920204 57026 IEM_DS3505
ZGKL,2008-10-22 07:00,ZGKL 220700Z AUTO 19006KT 7SM 29/21 A2985 RMK T02900210 IEM_DS3505
ZGKL,2008-10-22 08:00,ZGKL 220800Z AUTO 21004KT 7SM 28/22 A2985 RMK T02800220 IEM_DS3505
ZGKL,2008-10-22 09:00,ZGKL 220900Z AUTO 22004KT 7SM 28/20 A2985 RMK SLP106 T02830201 57002 IEM_DS3505
ZGKL,2008-10-22 10:00,ZGKL 221000Z AUTO 4SM 25/23 A2985 RMK T02500230 IEM_DS3505
ZGKL,2008-10-22 11:00,ZGKL 221100Z 33003MPS 2500 -RA BR OVC040 24/23 Q1012 NOSIG
ZGKL,2008-10-22 12:00,ZGKL 221200Z AUTO 07002KT 7SM 25/22 A2988 RMK SLP123 T02540221 52016 IEM_DS3505
ZGKL,2008-10-22 13:00,ZGKL 221300Z AUTO 28002KT 1 1/2SM 24/23 A2991 RMK T02400230 IEM_DS3505
ZGKL,2008-10-22 14:00,ZGKL 221400Z AUTO 2SM 24/23 A2991 RMK T02400230 IEM_DS3505
ZGKL,2008-10-22 15:00,ZGKL 221500Z AUTO 29002KT 7SM 25/23 A2994 RMK SLP136 T02510228 52013 IEM_DS3505
ZGKL,2008-10-22 16:00,ZGKL 221600Z AUTO 35002KT 1 1/2SM 23/23 A2994 RMK T02300230 IEM_DS3505
ZGKL,2008-10-22 17:00,ZGKL 221700Z AUTO 1 1/4SM 23/23 A2994 RMK T02300230 IEM_DS3505
ZGKL,2008-10-22 18:00,ZGKL 221800Z AUTO 36002KT 7SM 24/23 A2991 RMK 60000 SLP130 T02420228 57005 IEM_DS3505
ZGKL,2008-10-22 19:00,ZGKL 221900Z AUTO 30002KT 1SM 23/23 A2991 RMK T02300230 IEM_DS3505
ZGKL,2008-10-22 20:00,ZGKL 222000Z AUTO 1SM 23/23 A2991 RMK T02300230 IEM_DS3505
ZGKL,2008-10-22 21:00,ZGKL 222100Z AUTO 02004KT 6SM 23/23 RMK 70027 SLP129 T02320230 57002 IEM_DS3505
ZGKL,2008-10-22 22:00,ZGKL 222200Z AUTO 07004KT 2 1/2SM 23/23 A2994 RMK T02300230 IEM_DS3505
ZGKL,2008-10-22 23:00,ZGKL 222300Z AUTO 06012KT 5SM 21/21 A2997 RMK T02100210 IEM_DS3505
ZGKL,2008-10-23 00:00,ZGKL 230000Z AUTO 02010KT 8SM 20/19 A3003 RMK 60087 70087 SLP174 T01990189 52042 IEM_DS3505
ZGKL,2008-10-23 01:00,ZGKL 230100Z AUTO 5SM 20/20 A3006 RMK T02000200 IEM_DS3505
ZGKL,2008-10-23 02:00,ZGKL 230200Z AUTO 5SM 20/19 A3009 RMK T02000190 IEM_DS3505
ZGKL,2008-10-23 03:00,ZGKL 230300Z AUTO 02008KT 9SM 19/18 A3012 RMK SLP204 T01890176 52029 IEM_DS3505
ZGKL,2008-10-23 04:00,ZGKL 230400Z AUTO 06008KT 5SM 19/18 A3012 RMK T01900180 IEM_DS3505
ZGKL,2008-10-23 05:00,ZGKL 230500Z AUTO 05008KT 5SM 18/17 A3012 RMK T01800170 IEM_DS3505
ZGKL,2008-10-23 06:00,ZGKL 230600Z AUTO 02008KT 8SM 17/16 A3009 RMK 60028 SLP194 T01710158 57010 IEM_DS3505
ZGKL,2008-10-23 07:00,ZGKL 230700Z AUTO 3SM 18/17 A3009 RMK T01800170 IEM_DS3505
ZGKL,2008-10-23 08:00,ZGKL 230800Z AUTO 07004KT 3SM 17/17 A3006 RMK T01700170 IEM_DS3505
ZGKL,2008-10-23 09:00,ZGKL 230900Z AUTO 04004KT 9SM 17/16 A3006 RMK SLP188 T01710156 57006 IEM_DS3505
ZGKL,2008-10-23 10:00,ZGKL 231000Z AUTO 3SM 17/16 A3009 RMK T01700160 IEM_DS3505
ZGKL,2008-10-23 11:00,ZGKL 231100Z AUTO 3SM 17/16 A3009 RMK T01700160 IEM_DS3505
ZGKL,2008-10-23 12:00,ZGKL 231200Z AUTO 02002KT 8SM 17/15 A3009 RMK 60008 SLP202 T01730146 52012 IEM_DS3505
ZGKL,2008-10-23 13:00,ZGKL 231300Z AUTO 00000KT 3SM 17/17 A3012 RMK T01700170 IEM_DS3505
ZGKL,2008-10-23 14:00,ZGKL 231400Z AUTO 3SM 17/17 A3015 RMK T01700170 IEM_DS3505
ZGKL,2008-10-23 15:00,ZGKL 231500Z AUTO 36004KT 8SM 18/12 A3015 RMK SLP212 T01770124 52010 IEM_DS3505
ZGKL,2008-10-23 16:00,ZGKL 231600Z AUTO 3SM 17/17 A3015 RMK T01700170 IEM_DS3505
ZGKL,2008-10-23 17:00,ZGKL 231700Z AUTO 3SM 17/17 A3015 RMK T01700170 IEM_DS3505
ZGKL,2008-10-23 18:00,ZGKL 231800Z AUTO 34002KT 8SM 18/12 A3012 RMK SLP209 T01800120 57004 IEM_DS3505
ZGKL,2008-10-23 19:00,ZGKL 231900Z AUTO 00000KT 2 1/2SM 17/17 A3012 RMK T01700170 IEM_DS3505
ZGKL,2008-10-23 20:00,ZGKL 232000Z AUTO 2 1/2SM 17/17 A3012 RMK T01700170 IEM_DS3505
ZGKL,2008-10-23 21:00,ZGKL 232100Z AUTO 36006KT 7SM 18/11 A3012 RMK 70100 SLP210 T01810110 52001 IEM_DS3505
ZGKL,2008-10-23 22:00,ZGKL 232200Z AUTO 15004KT 3SM 17/17 A3015 RMK T01700170 IEM_DS3505
ZGKL,2008-10-23 23:00,ZGKL 232300Z AUTO 08004KT 4SM 16/14 A3018 RMK T01600140 IEM_DS3505
ZGKL,2008-10-24 00:00,ZGKL 240000Z AUTO 36002KT 9SM 16/13 A3021 RMK 60004 70039 SLP239 T01570126 52028 IEM_DS3505
ZGKL,2008-10-24 01:00,ZGKL 240100Z AUTO 06006KT 5SM 15/13 A3024 RMK T01500130 IEM_DS3505
ZGKL,2008-10-24 02:00,ZGKL 240200Z AUTO 05006KT 4SM 14/13 A3027 RMK T01400130 IEM_DS3505
ZGKL,2008-10-24 03:00,ZGKL 240300Z AUTO 02006KT 6SM 13/13 A3027 RMK SLP260 T01340129 52020 IEM_DS3505
ZGKL,2008-10-24 04:00,ZGKL 240400Z AUTO 4SM 13/13 A3027 RMK T01300130 IEM_DS3505
ZGKL,2008-10-24 05:00,ZGKL 240500Z AUTO 2 1/2SM 13/13 A3024 RMK T01300130 IEM_DS3505
ZGKL,2008-10-24 06:00,ZGKL 240600Z AUTO 02008KT 4SM 14/13 A3021 RMK 60118 SLP238 T01350133 57021 IEM_DS3505
ZGKL,2008-10-24 07:00,ZGKL 240700Z AUTO 04004KT 2 1/2SM 14/14 A3018 RMK T01400140 IEM_DS3505
ZGKL,2008-10-24 08:00,ZGKL 240800Z AUTO 03004KT 7SM 14/14 A3018 RMK T01400140 IEM_DS3505
ZGKL,2008-10-24 09:00,ZGKL 240900Z AUTO 02010KT 7SM 14/13 A3018 RMK SLP225 T01410131 57013 IEM_DS3505
ZGKL,2008-10-24 10:00,ZGKL 241000Z AUTO 00000KT 7SM 14/14 A3018 RMK T01400140 IEM_DS3505
ZGKL,2008-10-24 11:00,ZGKL 241100Z AUTO 7SM 15/15 A3021 RMK T01500150 IEM_DS3505
ZGKL,2008-10-24 12:00,ZGKL 241200Z AUTO 02006KT 7SM 14/13 A3021 RMK 60028 SLP244 T01430129 52018 IEM_DS3505
ZGKL,2008-10-24 13:00,ZGKL 241300Z AUTO 05004KT 6SM 14/14 A3024 RMK T01400140 IEM_DS3505
ZGKL,2008-10-24 14:00,ZGKL 241400Z AUTO 06004KT 4SM 14/14 A3024 RMK T01400140 IEM_DS3505
ZGKL,2008-10-24 15:00,ZGKL 241500Z AUTO 04006KT 7SM 14/12 A3024 RMK SLP246 T01440124 52001 IEM_DS3505
ZGKL,2008-10-24 16:00,ZGKL 241600Z AUTO 4SM 14/14 A3021 RMK T01400140 IEM_DS3505
ZGKL,2008-10-24 17:00,ZGKL 241700Z AUTO 05004KT 7SM 14/13 A3021 RMK T01400130 IEM_DS3505
ZGKL,2008-10-24 18:00,ZGKL 241800Z AUTO 6SM 14/13 A3018 RMK T01400130 IEM_DS3505
ZGKL,2008-10-24 19:00,ZGKL 241900Z AUTO 7SM 14/13 A3018 RMK T01400130 IEM_DS3505
ZGKL,2008-10-24 20:00,ZGKL 242000Z AUTO 7SM 14/13 A3015 RMK T01400130 IEM_DS3505
ZGKL,2008-10-24 21:00,ZGKL 242100Z AUTO 02004KT 7SM 14/12 A3015 RMK 70149 SLP220 T01430116 57012 IEM_DS3505
ZGKL,2008-10-24 22:00,ZGKL 242200Z AUTO 7SM 14/13 A3015 RMK T01400130 IEM_DS3505
ZGKL,2008-10-24 23:00,ZGKL 242300Z AUTO 7SM 15/13 A3018 RMK T01500130 IEM_DS3505
ZGKL,2008-10-25 00:00,ZGKL 250000Z AUTO 02004KT 9SM 15/12 A3018 RMK 70145 SLP230 T01480121 52010 IEM_DS3505
ZGKL,2008-10-25 01:00,ZGKL 250100Z AUTO 4SM 15/13 A3021 RMK T01500130 IEM_DS3505
ZGKL,2008-10-25 02:00,ZGKL 250200Z AUTO 05004KT 5SM 16/13 A3021 RMK T01600130 IEM_DS3505
ZGKL,2008-10-25 03:00,ZGKL 250300Z AUTO 02002KT 9SM 16/12 A3021 RMK SLP236 T01640124 52006 IEM_DS3505
ZGKL,2008-10-25 04:00,ZGKL 250400Z AUTO 5SM 18/15 A3018 RMK T01800150 IEM_DS3505
ZGKL,2008-10-25 05:00,ZGKL 250500Z AUTO 5SM 20/15 A3012 RMK T02000150 IEM_DS3505
ZGKL,2008-10-25 06:00,ZGKL 250600Z AUTO 36006KT 10SM 20/13 A3009 RMK SLP199 T01950130 57035 IEM_DS3505
ZGKL,2008-10-25 07:00,ZGKL 250700Z AUTO 7SM 22/16 A3006 RMK T02200160 IEM_DS3505
ZGKL,2008-10-25 08:00,ZGKL 250800Z AUTO 7SM 22/16 A3006 RMK T02200160 IEM_DS3505
ZGKL,2008-10-25 09:00,ZGKL 250900Z AUTO 02002KT 9SM 20/14 A3006 RMK SLP190 T01970143 57009 IEM_DS3505
ZGKL,2008-10-25 10:00,ZGKL 251000Z AUTO 34004KT 5SM 19/17 A3006 RMK T01900170 IEM_DS3505
ZGKL,2008-10-25 11:00,ZGKL 251100Z AUTO 4SM 18/17 A3009 RMK T01800170 IEM_DS3505
ZGKL,2008-10-25 12:00,ZGKL 251200Z AUTO 02006KT 9SM 18/14 A3012 RMK SLP205 T01750138 52015 IEM_DS3505
ZGKL,2008-10-25 13:00,ZGKL 251300Z AUTO 06004KT 3SM 17/15 A3012 RMK T01700150 IEM_DS3505
ZGKL,2008-10-25 14:00,ZGKL 251400Z AUTO 2 1/2SM 17/15 A3015 RMK T01700150 IEM_DS3505
ZGKL,2008-10-25 15:00,ZGKL 251500Z AUTO 02004KT 9SM 17/14 A3015 RMK SLP217 T01740137 52012 IEM_DS3505
ZGKL,2008-10-25 16:00,ZGKL 251600Z AUTO 2 1/2SM 17/15 A3015 RMK T01700150 IEM_DS3505
ZGKL,2008-10-25 17:00,ZGKL 251700Z AUTO 4SM 17/15 A3015 RMK T01700150 IEM_DS3505
ZGKL,2008-10-25 18:00,ZGKL 251800Z AUTO 02002KT 9SM 17/13 A3015 RMK SLP214 T01690132 57002 IEM_DS3505
ZGKL,2008-10-25 19:00,ZGKL 251900Z AUTO 04006KT 3SM 17/14 A3012 RMK T01700140 IEM_DS3505
ZGKL,2008-10-25 20:00,ZGKL 252000Z AUTO 06004KT 3SM 17/15 A3012 RMK T01700150 IEM_DS3505
ZGKL,2008-10-25 21:00,ZGKL 252100Z AUTO 02006KT 9SM 17/13 A3012 RMK SLP206 T01680131 57008 IEM_DS3505
ZGKL,2008-10-25 22:00,ZGKL 252200Z AUTO 06002KT 3SM 17/15 A3012 RMK T01700150 IEM_DS3505
ZGKL,2008-10-25 23:00,ZGKL 252300Z AUTO 05004KT 2 1/2SM 17/15 A3015 RMK T01700150 IEM_DS3505
ZGKL,2008-10-26 00:00,ZGKL 260000Z AUTO 04004KT 7SM 17/14 A3018 RMK SLP224 T01700135 52017 IEM_DS3505
ZGKL,2008-10-26 01:00,ZGKL 260100Z AUTO 06004KT 3SM 18/15 A3018 RMK T01800150 IEM_DS3505
ZGKL,2008-10-26 02:00,ZGKL 260200Z AUTO 07004KT 3SM 18/15 A3021 RMK T01800150 IEM_DS3505
ZGKL,2008-10-26 03:00,ZGKL 260300Z AUTO 02004KT 6SM 18/14 A3018 RMK SLP229 T01830140 52005 IEM_DS3505
ZGKL,2008-10-26 04:00,ZGKL 260400Z AUTO 4SM 19/15 A3015 RMK T01900150 IEM_DS3505
ZGKL,2008-10-26 05:00,ZGKL 260500Z AUTO 09004KT 4SM 19/16 A3015 RMK T01900160 IEM_DS3505
ZGKL,2008-10-26 06:00,ZGKL 260600Z AUTO 04002KT 4SM 18/15 A3012 RMK 60000 SLP209 T01810146 57020 IEM_DS3505
ZGKL,2008-10-26 07:00,ZGKL 260700Z AUTO 3SM 18/16 A3012 RMK T01800160 IEM_DS3505
ZGKL,2008-10-26 08:00,ZGKL 260800Z AUTO 07006KT 4SM 18/15 A3012 RMK T01800150 IEM_DS3505
ZGKL,2008-10-26 09:00,ZGKL 260900Z AUTO 02004KT 5SM 18/14 A3012 RMK SLP206 T01810144 57003 IEM_DS3505
ZGKL,2008-10-26 10:00,ZGKL 261000Z AUTO 08004KT 4SM 18/16 A3012 RMK T01800160 IEM_DS3505
ZGKL,2008-10-26 11:00,ZGKL 261100Z AUTO 07004KT 4SM 18/16 A3015 RMK T01800160 IEM_DS3505
ZGKL,2008-10-26 12:00,ZGKL 261200Z AUTO 02006KT 6SM 17/14 A3018 RMK 60001 SLP226 T01730142 52020 IEM_DS3505
ZGKL,2008-10-26 13:00,ZGKL 261300Z AUTO 4SM 18/15 A3018 RMK T01800150 IEM_DS3505
ZGKL,2008-10-26 14:00,ZGKL 261400Z AUTO 07004KT 3SM 17/15 A3021 RMK T01700150 IEM_DS3505
ZGKL,2008-10-26 15:00,ZGKL 261500Z AUTO 02006KT 6SM 17/13 A3021 RMK SLP236 T01710134 52010 IEM_DS3505
ZGKL,2008-10-26 16:00,ZGKL 261600Z AUTO 06004KT 4SM 17/15 A3021 RMK T01700150 IEM_DS3505
ZGKL,2008-10-26 17:00,ZGKL 261700Z AUTO 05004KT 3SM 17/15 A3021 RMK T01700150 IEM_DS3505
ZGKL,2008-10-26 18:00,ZGKL 261800Z AUTO 3SM 17/15 A3018 RMK T01700150 IEM_DS3505
ZGKL,2008-10-26 19:00,ZGKL 261900Z AUTO 00000KT 2 1/2SM 16/15 A3018 RMK T01600150 IEM_DS3505
ZGKL,2008-10-26 20:00,ZGKL 262000Z AUTO 03002KT 2 1/2SM 17/15 A3018 RMK T01700150 IEM_DS3505
ZGKL,2008-10-26 21:00,ZGKL 262100Z AUTO 04004KT 6SM 16/13 A3018 RMK 70001 SLP227 T01650134 57002 IEM_DS3505
ZGKL,2008-10-26 22:00,ZGKL 262200Z AUTO 06004KT 3SM 17/15 A3018 RMK T01700150 IEM_DS3505
ZGKL,2008-10-26 23:00,ZGKL 262300Z AUTO 05004KT 4SM 16/15 A3021 RMK T01600150 IEM_DS3505
ZGKL,2008-10-27 00:00,ZGKL 270000Z AUTO 02004KT 9SM 17/14 A3024 RMK 70001 SLP242 T01730136 52015 IEM_DS3505
ZGKL,2008-10-27 01:00,ZGKL 270100Z AUTO 05004KT 4SM 19/15 A3024 RMK T01900150 IEM_DS3505
ZGKL,2008-10-27 02:00,ZGKL 270200Z AUTO 6SM 20/16 A3024 RMK T02000160 IEM_DS3505
ZGKL,2008-10-27 03:00,ZGKL 270300Z AUTO 02010KT 9SM 21/14 A3021 RMK SLP234 T02100139 57007 IEM_DS3505
ZGKL,2008-10-27 04:00,ZGKL 270400Z AUTO 7SM 23/16 A3018 RMK T02300160 IEM_DS3505
ZGKL,2008-10-27 05:00,ZGKL 270500Z AUTO 7SM 24/15 A3015 RMK T02400150 IEM_DS3505
ZGKL,2008-10-27 06:00,ZGKL 270600Z AUTO 36006KT 9SM 23/14 A3012 RMK SLP204 T02280144 57029 IEM_DS3505
ZGKL,2008-10-27 07:00,ZGKL 270700Z AUTO 08008KT 7SM 24/15 A3009 RMK T02400150 IEM_DS3505
ZGKL,2008-10-27 08:00,ZGKL 270800Z AUTO 05008KT 7SM 23/15 A3009 RMK T02300150 IEM_DS3505
ZGKL,2008-10-27 09:00,ZGKL 270900Z AUTO 04004KT 10SM 22/15 A3009 RMK SLP198 T02170153 57006 IEM_DS3505
ZGKL,2008-10-27 10:00,ZGKL 271000Z AUTO 7SM 21/15 A3009 RMK T02100150 IEM_DS3505
ZGKL,2008-10-27 11:00,ZGKL 271100Z AUTO 03004KT 7SM 21/16 A3012 RMK T02100160 IEM_DS3505
ZGKL,2008-10-27 12:00,ZGKL 271200Z AUTO 36002KT 9SM 20/15 A3012 RMK SLP206 T02000150 52007 IEM_DS3505
ZGKL,2008-10-27 13:00,ZGKL 271300Z AUTO 06006KT 5SM 20/16 A3015 RMK T02000160 IEM_DS3505
ZGKL,2008-10-27 14:00,ZGKL 271400Z AUTO 04006KT 5SM 20/16 A3015 RMK T02000160 IEM_DS3505
ZGKL,2008-10-27 15:00,ZGKL 271500Z AUTO 04004KT 9SM 19/15 A3015 RMK SLP213 T01930148 52008 IEM_DS3505
ZGKL,2008-10-27 16:00,ZGKL 271600Z AUTO 00000KT 3SM 19/16 A3015 RMK T01900160 IEM_DS3505
ZGKL,2008-10-27 17:00,ZGKL 271700Z AUTO 05004KT 3SM 19/16 A3012 RMK T01900160 IEM_DS3505
ZGKL,2008-10-27 18:00,ZGKL 271800Z AUTO 02002KT 9SM 19/15 A3012 RMK SLP203 T01860147 57009 IEM_DS3505
ZGKL,2008-10-27 19:00,ZGKL 271900Z AUTO 3SM 18/16 A3009 RMK T01800160 IEM_DS3505
ZGKL,2008-10-27 20:00,ZGKL 272000Z AUTO 00000KT 2 1/2SM 18/16 A3009 RMK T01800160 IEM_DS3505
ZGKL,2008-10-27 21:00,ZGKL 272100Z AUTO 00000KT 9SM 18/16 A3009 RMK SLP191 T01760156 57013 IEM_DS3505
ZGKL,2008-10-27 22:00,ZGKL 272200Z AUTO 31002KT 2SM 17/16 A3006 RMK T01700160 IEM_DS3505
ZGKL,2008-10-27 23:00,ZGKL 272300Z AUTO 00000KT 3SM 16/16 A3009 RMK T01600160 IEM_DS3505
ZGKL,2008-10-28 00:00,ZGKL 280000Z AUTO 04002KT 8SM 18/16 A3009 RMK SLP200 T01830156 52009 IEM_DS3505
ZGKL,2008-10-28 01:00,ZGKL 280100Z AUTO 04004KT 2 1/2SM 20/16 A3012 RMK T02000160 IEM_DS3505
ZGKL,2008-10-28 02:00,ZGKL 280200Z AUTO 4SM 26/17 A3012 RMK T02600170 IEM_DS3505
ZGKL,2008-10-28 03:00,ZGKL 280300Z AUTO 32002KT 8SM 23/16 A3009 RMK SLP190 T02300158 57009 IEM_DS3505
ZGKL,2008-10-28 04:00,ZGKL 280400Z AUTO 6SM 25/17 A3003 RMK T02500170 IEM_DS3505
ZGKL,2008-10-28 05:00,ZGKL 280500Z AUTO 6SM 26/17 A3000 RMK T02600170 IEM_DS3505
ZGKL,2008-10-28 06:00,ZGKL 280600Z AUTO 09002KT 7SM 26/17 A2997 RMK SLP149 T02640169 57039 IEM_DS3505
ZGKL,2008-10-28 07:00,ZGKL 280700Z AUTO 15004KT 6SM 28/19 A2994 RMK T02800190 IEM_DS3505
ZGKL,2008-10-28 08:00,ZGKL 280800Z AUTO 21004KT 6SM 28/19 A2991 RMK T02800190 IEM_DS3505
ZGKL,2008-10-28 09:00,ZGKL 280900Z AUTO 14002KT 8SM 27/18 A2991 RMK SLP130 T02740179 57019 IEM_DS3505
ZGKL,2008-10-28 10:00,ZGKL 281000Z AUTO 24002KT 6SM 25/21 A2991 RMK T02500210 IEM_DS3505
ZGKL,2008-10-28 11:00,ZGKL 281100Z AUTO 5SM 23/21 A2994 RMK T02300210 IEM_DS3505
ZGKL,2008-10-28 12:00,ZGKL 281200Z AUTO 29002KT 8SM 24/20 A2994 RMK SLP147 T02410196 52016 IEM_DS3505
ZGKL,2008-10-28 13:00,ZGKL 281300Z AUTO 2 1/2SM 21/20 A2997 RMK T02100200 IEM_DS3505
ZGKL,2008-10-28 14:00,ZGKL 281400Z AUTO 29002KT 2SM 20/20 A2997 RMK T02000200 IEM_DS3505
ZGKL,2008-10-28 15:00,ZGKL 281500Z AUTO 04002KT 7SM 22/19 A2997 RMK SLP154 T02170194 52008 IEM_DS3505
ZGKL,2008-10-28 16:00,ZGKL 281600Z AUTO 32004KT 2SM 19/19 A2997 RMK T01900190 IEM_DS3505
ZGKL,2008-10-28 17:00,ZGKL 281700Z AUTO 33002KT 2SM 19/19 A2997 RMK T01900190 IEM_DS3505
ZGKL,2008-10-28 18:00,ZGKL 281800Z AUTO 09002KT 7SM 20/19 A2994 RMK SLP145 T02010191 57009 IEM_DS3505
ZGKL,2008-10-28 19:00,ZGKL 281900Z AUTO 00000KT 1SM 19/19 A2994 RMK T01900190 IEM_DS3505
ZGKL,2008-10-28 20:00,ZGKL 282000Z AUTO 20002KT 1SM 18/18 A2994 RMK T01800180 IEM_DS3505
ZGKL,2008-10-28 21:00,ZGKL 282100Z AUTO 34002KT 7SM 20/19 A2994 RMK SLP140 T01950190 57004 IEM_DS3505
ZGKL,2008-10-28 22:00,ZGKL 282200Z AUTO 1SM 18/18 A2994 RMK T01800180 IEM_DS3505
ZGKL,2008-10-28 23:00,ZGKL 282300Z AUTO 35002KT 1SM 17/17 A2994 RMK T01700170 IEM_DS3505
ZGKL,2008-10-29 00:00,ZGKL 290000Z AUTO 11002KT 4SM 20/19 A2997 RMK SLP157 T02010193 52015 IEM_DS3505
ZGKL,2008-10-29 01:00,ZGKL 290100Z AUTO 2SM 21/21 A3000 RMK T02100210 IEM_DS3505
ZGKL,2008-10-29 02:00,ZGKL 290200Z AUTO 2 1/2SM 23/21 A3000 RMK T02300210 IEM_DS3505
ZGKL,2008-10-29 03:00,ZGKL 290300Z AUTO 20002KT 4SM 25/19 A3000 RMK SLP161 T02460194 52005 IEM_DS3505
ZGKL,2008-10-29 04:00,ZGKL 290400Z AUTO 2 1/2SM 26/21 A2997 RMK T02600210 IEM_DS3505
ZGKL,2008-10-29 05:00,ZGKL 290500Z AUTO 19004KT 2 1/2SM 27/21 A2994 RMK T02700210 IEM_DS3505
ZGKL,2008-10-29 06:00,ZGKL 290600Z AUTO 22002KT 4SM 28/20 A2991 RMK SLP134 T02750198 57026 IEM_DS3505
ZGKL,2008-10-29 07:00,ZGKL 290700Z AUTO 20004KT 4SM 28/22 A2991 RMK T02800220 IEM_DS3505
ZGKL,2008-10-29 08:00,ZGKL 290800Z AUTO 3SM 28/21 A2991 RMK T02800210 IEM_DS3505
ZGKL,2008-10-29 09:00,ZGKL 290900Z AUTO 16002KT 5SM 28/20 A2991 RMK SLP129 T02790205 57005 IEM_DS3505
ZGKL,2008-10-29 11:00,ZGKL 291100Z AUTO 31004KT 3SM 24/23 A2991 RMK T02400230 IEM_DS3505
ZGKL,2008-10-29 12:00,ZGKL 291200Z AUTO 00000KT 4SM 25/21 A2994 RMK SLP145 T02480211 52015 IEM_DS3505
ZGKL,2008-10-29 13:00,ZGKL 291300Z AUTO 31002KT 1 1/2SM 23/23 A2997 RMK T02300230 IEM_DS3505
ZGKL,2008-10-29 14:00,ZGKL 291400Z AUTO 1 1/2SM 23/22 A2997 RMK T02300220 IEM_DS3505
ZGKL,2008-10-29 15:00,ZGKL 291500Z AUTO 02002KT 4SM 24/21 A2997 RMK SLP153 T02360209 52009 IEM_DS3505
ZGKL,2008-10-29 16:00,ZGKL 291600Z AUTO 30002KT 1 1/2SM 22/22 A2997 RMK T02200220 IEM_DS3505
ZGKL,2008-10-29 17:00,ZGKL 291700Z AUTO 1 1/2SM 22/22 A2997 RMK T02200220 IEM_DS3505
ZGKL,2008-10-29 18:00,ZGKL 291800Z AUTO 1 1/4SM 22/22 A2994 RMK T02200220 IEM_DS3505
ZGKL,2008-10-29 19:00,ZGKL 291900Z AUTO 1 1/4SM 22/21 A2994 RMK T02200210 IEM_DS3505
ZGKL,2008-10-29 20:00,ZGKL 292000Z AUTO 07004KT 1 1/2SM 22/20 A2997 RMK T02200200 IEM_DS3505
ZGKL,2008-10-29 21:00,ZGKL 292100Z AUTO 02006KT 4SM 22/17 A2997 RMK SLP154 T02150169 52007 IEM_DS3505
ZGKL,2008-10-29 22:00,ZGKL 292200Z AUTO 05008KT 2 1/2SM 21/18 A3000 RMK T02100180 IEM_DS3505
ZGKL,2008-10-29 23:00,ZGKL 292300Z AUTO 04006KT 3SM 21/18 A3003 RMK T02100180 IEM_DS3505
ZGKL,2008-10-30 00:00,ZGKL 300000Z AUTO 02008KT 4SM 21/16 A3006 RMK SLP182 T02070159 52026 IEM_DS3505
ZGKL,2008-10-30 01:00,ZGKL 300100Z AUTO 2 1/2SM 21/18 A3006 RMK T02100180 IEM_DS3505
ZGKL,2008-10-30 02:00,ZGKL 300200Z AUTO 2 1/2SM 22/18 A3009 RMK T02200180 IEM_DS3505
ZGKL,2008-10-30 03:00,ZGKL 300300Z AUTO 02006KT 4SM 23/16 A3006 RMK SLP183 T02260164 52002 IEM_DS3505
ZGKL,2008-10-30 04:00,ZGKL 300400Z AUTO 2 1/2SM 25/19 A3003 RMK T02500190 IEM_DS3505
ZGKL,2008-10-30 05:00,ZGKL 300500Z AUTO 2 1/2SM 26/18 A3000 RMK T02600180 IEM_DS3505
ZGKL,2008-10-30 06:00,ZGKL 300600Z AUTO 04004KT 5SM 26/18 A2997 RMK SLP152 T02600176 57030 IEM_DS3505
ZGKL,2008-10-30 07:00,ZGKL 300700Z AUTO 06006KT 3SM 27/19 A2994 RMK T02700190 IEM_DS3505
ZGKL,2008-10-30 08:00,ZGKL 300800Z AUTO 07006KT 3SM 27/19 A2994 RMK T02700190 IEM_DS3505
ZGKL,2008-10-30 09:00,ZGKL 300900Z AUTO 02006KT 4SM 25/18 A2994 RMK SLP144 T02480175 57009 IEM_DS3505
ZGKL,2008-10-30 10:00,ZGKL 301000Z AUTO 05008KT 2 1/2SM 25/19 A2994 RMK T02500190 IEM_DS3505
ZGKL,2008-10-30 11:00,ZGKL 301100Z AUTO 05008KT 3SM 24/19 A2997 RMK T02400190 IEM_DS3505
ZGKL,2008-10-30 12:00,ZGKL 301200Z AUTO 02006KT 4SM 22/17 A3000 RMK SLP165 T02190166 52020 IEM_DS3505
ZGKL,2008-10-30 14:00,ZGKL 301400Z AUTO 3SM 21/18 A3003 RMK T02100180 IEM_DS3505
ZGKL,2008-10-30 15:00,ZGKL 301500Z AUTO 02008KT 4SM 20/16 A3006 RMK SLP181 T02050159 52016 IEM_DS3505
ZGKL,2008-10-30 16:00,ZGKL 301600Z AUTO 3SM 20/17 A3006 RMK T02000170 IEM_DS3505
ZGKL,2008-10-30 17:00,ZGKL 301700Z AUTO 05006KT 3SM 20/17 A3003 RMK T02000170 IEM_DS3505
ZGKL,2008-10-30 18:00,ZGKL 301800Z AUTO 36004KT 4SM 20/16 A3003 RMK SLP173 T01980159 57007 IEM_DS3505
ZGKL,2008-10-30 19:00,ZGKL 301900Z AUTO 04004KT 3SM 20/17 A3003 RMK T02000170 IEM_DS3505
ZGKL,2008-10-30 20:00,ZGKL 302000Z AUTO 3SM 20/17 A3003 RMK T02000170 IEM_DS3505
ZGKL,2008-10-30 21:00,ZGKL 302100Z AUTO 36004KT 4SM 20/16 A3003 RMK SLP170 T01970158 57004 IEM_DS3505
ZGKL,2008-10-30 22:00,ZGKL 302200Z AUTO 06004KT 3SM 19/17 A3003 RMK T01900170 IEM_DS3505
ZGKL,2008-10-30 23:00,ZGKL 302300Z AUTO 3SM 19/17 A3006 RMK T01900170 IEM_DS3505
ZGKL,2008-10-31 00:00,ZGKL 310000Z AUTO 02008KT 4SM 19/16 A3006 RMK SLP186 T01940157 52015 IEM_DS3505
ZGKL,2008-10-31 01:00,ZGKL 310100Z AUTO 2 1/2SM 20/18 A3009 RMK T02000180 IEM_DS3505
ZGKL,2008-10-31 02:00,ZGKL 310200Z AUTO 07004KT 2 1/2SM 20/18 A3012 RMK T02000180 IEM_DS3505
ZGKL,2008-10-31 03:00,ZGKL 310300Z AUTO 02006KT 5SM 20/16 A3012 RMK SLP203 T01960155 52016 IEM_DS3505
ZGKL,2008-10-31 04:00,ZGKL 310400Z AUTO 06008KT 3SM 20/17 A3009 RMK T02000170 IEM_DS3505
ZGKL,2008-10-31 05:00,ZGKL 310500Z AUTO 05004KT 4SM 20/17 A3009 RMK T02000170 IEM_DS3505
ZGKL,2008-10-31 06:00,ZGKL 310600Z AUTO 36006KT 9SM 19/15 A3006 RMK SLP184 T01930150 57019 IEM_DS3505
ZGKL,2008-10-31 07:00,ZGKL 310700Z AUTO 5SM 20/16 A3006 RMK T02000160 IEM_DS3505
ZGKL,2008-10-31 08:00,ZGKL 310800Z AUTO 7SM 20/17 A3003 RMK T02000170 IEM_DS3505
ZGKL,2008-10-31 09:00,ZGKL 310900Z AUTO 02008KT 10SM 20/15 A3003 RMK SLP176 T01960153 57008 IEM_DS3505
ZGKL,2008-10-31 10:00,ZGKL 311000Z AUTO 7SM 20/17 A3003 RMK T02000170 IEM_DS3505
ZGKL,2008-10-31 11:00,ZGKL 311100Z AUTO 7SM 20/17 A3003 RMK T02000170 IEM_DS3505
ZGKL,2008-10-31 12:00,ZGKL 311200Z AUTO 02006KT 9SM 19/15 A3006 RMK SLP185 T01940151 52009 IEM_DS3505
ZGKL,2008-10-31 13:00,ZGKL 311300Z AUTO 06006KT 7SM 19/17 A3006 RMK T01900170 IEM_DS3505
ZGKL,2008-10-31 14:00,ZGKL 311400Z AUTO 06004KT 7SM 19/17 A3006 RMK T01900170 IEM_DS3505
ZGKL,2008-10-31 15:00,ZGKL 311500Z AUTO 02006KT 9SM 19/15 A3006 RMK SLP188 T01930150 52003 IEM_DS3505
ZGKL,2008-10-31 16:00,ZGKL 311600Z AUTO 04004KT 7SM 19/16 A3006 RMK T01900160 IEM_DS3505
ZGKL,2008-10-31 17:00,ZGKL 311700Z AUTO 06004KT 7SM 19/16 A3006 RMK T01900160 IEM_DS3505
ZGKL,2008-10-31 18:00,ZGKL 311800Z AUTO 02004KT 9SM 19/15 A3003 RMK SLP179 T01900147 57009 IEM_DS3505
ZGKL,2008-10-31 19:00,ZGKL 311900Z AUTO 4SM 18/17 A3003 RMK T01800170 IEM_DS3505
ZGKL,2008-10-31 20:00,ZGKL 312000Z AUTO 29002KT 4SM 18/17 A3003 RMK T01800170 IEM_DS3505
ZGKL,2008-10-31 21:00,ZGKL 312100Z AUTO 36004KT 9SM 19/15 A3003 RMK 70000 SLP170 T01870148 57009 IEM_DS3505
ZGKL,2008-10-31 22:00,ZGKL 312200Z AUTO 23002KT 7SM 18/17 A3003 RMK T01800170 IEM_DS3505
ZGKL,2008-10-31 23:00,ZGKL 312300Z AUTO 6SM 18/17 A3006 RMK T01800170 IEM_DS3505
ZGKL,2008-11-01 00:00,ZGKL 010000Z AUTO 02002KT 9SM 19/15 A3006 RMK 60000 70000 SLP186 T01880153 52016 IEM_DS3505
ZGKL,2008-11-01 01:00,ZGKL 010100Z AUTO 34004KT 2SM 18/17 A3009 RMK T01800170 IEM_DS3505
ZGKL,2008-11-01 02:00,ZGKL 010200Z AUTO 4SM 19/18 A3009 RMK T01900180 IEM_DS3505
ZGKL,2008-11-01 03:00,ZGKL 010300Z AUTO 02006KT 9SM 19/16 A3009 RMK SLP195 T01910156 52009 IEM_DS3505
ZGKL,2008-11-01 04:00,ZGKL 010400Z AUTO 6SM 20/18 A3006 RMK T02000180 IEM_DS3505
ZGKL,2008-11-01 05:00,ZGKL 010500Z AUTO 7SM 20/18 A3003 RMK T02000180 IEM_DS3505
ZGKL,2008-11-01 06:00,ZGKL 010600Z AUTO 02004KT 9SM 20/16 A3000 RMK 60000 SLP163 T01950162 57032 IEM_DS3505
ZGKL,2008-11-01 07:00,ZGKL 010700Z AUTO 7SM 20/18 A2997 RMK T02000180 IEM_DS3505
ZGKL,2008-11-01 08:00,ZGKL 010800Z AUTO 4SM 19/18 A2997 RMK T01900180 IEM_DS3505
ZGKL,2008-11-01 09:00,ZGKL 010900Z AUTO 02006KT 6SM 18/17 A2997 RMK SLP159 T01840171 57004 IEM_DS3505
ZGKL,2008-11-01 10:00,ZGKL 011000Z AUTO 09004KT 4SM 19/18 A3000 RMK T01900180 IEM_DS3505
ZGKL,2008-11-01 11:00,ZGKL 011100Z AUTO 05006KT 4SM 18/18 A3000 RMK T01800180 IEM_DS3505
ZGKL,2008-11-01 12:00,ZGKL 011200Z AUTO 02008KT 6SM 18/17 A3003 RMK 60012 SLP174 T01770171 52015 IEM_DS3505
ZGKL,2008-11-01 13:00,ZGKL 011300Z AUTO 1SM 18/18 A3003 RMK T01800180 IEM_DS3505
ZGKL,2008-11-01 14:00,ZGKL 011400Z AUTO 05006KT 4SM 18/18 A3003 RMK T01800180 IEM_DS3505
ZGKL,2008-11-01 15:00,ZGKL 011500Z AUTO 02006KT 6SM 17/17 A3006 RMK SLP182 T01720170 52007 IEM_DS3505
ZGKL,2008-11-01 16:00,ZGKL 011600Z AUTO 4SM 17/17 A3003 RMK T01700170 IEM_DS3505
ZGKL,2008-11-01 17:00,ZGKL 011700Z AUTO 06004KT 6SM 17/17 A3003 RMK T01700170 IEM_DS3505
ZGKL,2008-11-01 18:00,ZGKL 011800Z AUTO 36006KT 5SM 17/17 A3000 RMK 60051 SLP169 T01690166 57012 IEM_DS3505
ZGKL,2008-11-01 19:00,ZGKL 011900Z AUTO 5SM 17/17 A3000 RMK T01700170 IEM_DS3505
ZGKL,2008-11-01 20:00,ZGKL 012000Z AUTO 00000KT 1 1/2SM 17/17 A3000 RMK T01700170 IEM_DS3505
ZGKL,2008-11-01 21:00,ZGKL 012100Z AUTO 02008KT 5SM 16/16 A3000 RMK 70113 SLP161 T01640164 57009 IEM_DS3505
ZGKL,2008-11-01 22:00,ZGKL 012200Z AUTO 4SM 17/17 A3000 RMK T01700170 IEM_DS3505
ZGKL,2008-11-01 23:00,ZGKL 012300Z AUTO 4SM 16/16 A3003 RMK T01600160 IEM_DS3505
ZGKL,2008-11-02 00:00,ZGKL 020000Z AUTO 34004KT 4SM 16/16 A3006 RMK 60102 70164 SLP182 T01640164 52021 IEM_DS3505
ZGKL,2008-11-02 01:00,ZGKL 020100Z AUTO 3SM 16/16 A3009 RMK T01600160 IEM_DS3505
ZGKL,2008-11-02 02:00,ZGKL 020200Z AUTO 4SM 17/17 A3009 RMK T01700170 IEM_DS3505
ZGKL,2008-11-02 03:00,ZGKL 020300Z AUTO 36004KT 5SM 17/17 A3009 RMK SLP193 T01720169 52010 IEM_DS3505
ZGKL,2008-11-02 04:00,ZGKL 020400Z AUTO 32004KT 4SM 18/17 A3006 RMK T01800170 IEM_DS3505
ZGKL,2008-11-02 05:00,ZGKL 020500Z AUTO 27004KT 4SM 17/17 A3006 RMK T01700170 IEM_DS3505
ZGKL,2008-11-02 06:00,ZGKL 020600Z AUTO 02004KT 4SM 18/18 A3000 RMK 60079 SLP173 T01780176 57019 IEM_DS3505
ZGKL,2008-11-02 07:00,ZGKL 020700Z AUTO 05006KT 4SM 18/17 A3000 RMK T01800170 IEM_DS3505
ZGKL,2008-11-02 08:00,ZGKL 020800Z AUTO 05006KT 4SM 18/18 A3000 RMK T01800180 IEM_DS3505
ZGKL,2008-11-02 09:00,ZGKL 020900Z AUTO 02004KT 5SM 18/17 A3000 RMK SLP166 T01770172 57007 IEM_DS3505
ZGKL,2008-11-02 10:00,ZGKL 021000Z AUTO 3SM 18/18 A3003 RMK T01800180 IEM_DS3505
ZGKL,2008-11-02 11:00,ZGKL 021100Z AUTO 2 1/2SM 18/18 A3006 RMK T01800180 IEM_DS3505
ZGKL,2008-11-02 12:00,ZGKL 021200Z AUTO 02002KT 5SM 18/17 A3006 RMK 60028 SLP188 T01750173 52021 IEM_DS3505
ZGKL,2008-11-02 13:00,ZGKL 021300Z AUTO 20002KT 2 1/2SM 18/18 A3009 RMK T01800180 IEM_DS3505
ZGKL,2008-11-02 14:00,ZGKL 021400Z AUTO 32002KT 2 1/2SM 18/18 A3009 RMK T01800180 IEM_DS3505
ZGKL,2008-11-02 15:00,ZGKL 021500Z AUTO 02004KT 5SM 18/17 A3012 RMK SLP204 T01750170 52016 IEM_DS3505
ZGKL,2008-11-02 16:00,ZGKL 021600Z AUTO 19002KT 2SM 18/18 A3012 RMK T01800180 IEM_DS3505
ZGKL,2008-11-02 17:00,ZGKL 021700Z AUTO 2SM 17/17 A3009 RMK T01700170 IEM_DS3505
ZGKL,2008-11-02 18:00,ZGKL 021800Z AUTO 27004KT 5SM 17/17 A3009 RMK 60008 SLP195 T01710171 57008 IEM_DS3505
ZGKL,2008-11-02 19:00,ZGKL 021900Z AUTO 2SM 17/17 A3009 RMK T01700170 IEM_DS3505
ZGKL,2008-11-02 20:00,ZGKL 022000Z AUTO 1 1/4SM 17/17 A3009 RMK T01700170 IEM_DS3505
ZGKL,2008-11-02 21:00,ZGKL 022100Z AUTO 02002KT 5SM 17/17 A3009 RMK 70168 SLP199 T01700170 52003 IEM_DS3505
ZGKL,2008-11-02 22:00,ZGKL 022200Z AUTO 00000KT 1 1/4SM 17/17 A3009 RMK T01700170 IEM_DS3505
ZGKL,2008-11-02 23:00,ZGKL 022300Z AUTO 1SM 17/17 A3012 RMK T01700170 IEM_DS3505
ZGKL,2008-11-03 00:00,ZGKL 030000Z AUTO 02002KT 5SM 17/17 A3012 RMK 60024 70135 SLP209 T01710171 52010 IEM_DS3505
ZGKL,2008-11-03 01:00,ZGKL 030100Z AUTO 00000KT 1 1/4SM 18/18 A3015 RMK T01800180 IEM_DS3505
ZGKL,2008-11-03 02:00,ZGKL 030200Z AUTO 2 1/2SM 18/18 A3015 RMK T01800180 IEM_DS3505
ZGKL,2008-11-03 03:00,ZGKL 030300Z AUTO 02004KT 7SM 20/18 A3015 RMK SLP213 T02030182 52005 IEM_DS3505
ZGKL,2008-11-03 04:00,ZGKL 030400Z AUTO 7SM 21/19 A3012 RMK T02100190 IEM_DS3505
ZGKL,2008-11-03 05:00,ZGKL 030500Z AUTO 19004KT 7SM 22/19 A3009 RMK T02200190 IEM_DS3505
ZGKL,2008-11-03 06:00,ZGKL 030600Z AUTO 36004KT 12SM 22/18 A3006 RMK 60008 SLP181 T02200178 57031 IEM_DS3505
ZGKL,2008-11-03 07:00,ZGKL 030700Z AUTO 7SM 22/18 A3003 RMK T02200180 IEM_DS3505
ZGKL,2008-11-03 08:00,ZGKL 030800Z AUTO 7SM 23/18 A3003 RMK T02300180 IEM_DS3505
ZGKL,2008-11-03 09:00,ZGKL 030900Z AUTO 16002KT 11SM 22/17 A3003 RMK SLP176 T02230172 57005 IEM_DS3505
ZGKL,2008-11-03 10:00,ZGKL 031000Z AUTO 13004KT 7SM 21/19 A3006 RMK T02100190 IEM_DS3505
ZGKL,2008-11-03 11:00,ZGKL 031100Z AUTO 14004KT 7SM 21/19 A3006 RMK T02100190 IEM_DS3505
ZGKL,2008-11-03 12:00,ZGKL 031200Z AUTO 16002KT 9SM 20/18 A3009 RMK SLP191 T02040182 52015 IEM_DS3505
ZGKL,2008-11-03 13:00,ZGKL 031300Z AUTO 7SM 19/19 A3009 RMK T01900190 IEM_DS3505
ZGKL,2008-11-03 14:00,ZGKL 031400Z AUTO 35002KT 7SM 19/19 A3009 RMK T01900190 IEM_DS3505
ZGKL,2008-11-03 15:00,ZGKL 031500Z AUTO 00000KT 9SM 19/19 A3006 RMK SLP190 T01920187 57001 IEM_DS3505
ZGKL,2008-11-03 16:00,ZGKL 031600Z AUTO 00000KT 6SM 18/18 A3006 RMK T01800180 IEM_DS3505
ZGKL,2008-11-03 17:00,ZGKL 031700Z AUTO 34002KT 2 1/2SM 18/18 A3006 RMK T01800180 IEM_DS3505
ZGKL,2008-11-03 18:00,ZGKL 031800Z AUTO 02004KT 7SM 18/18 A3006 RMK SLP182 T01850177 57007 IEM_DS3505
ZGKL,2008-11-03 19:00,ZGKL 031900Z AUTO 34004KT 1/4SM 18/18 A3006 RMK T01800180 IEM_DS3505
ZGKL,2008-11-03 20:00,ZGKL 032000Z AUTO 2 1/2SM 18/18 A3006 RMK T01800180 IEM_DS3505
ZGKL,2008-11-03 21:00,ZGKL 032100Z AUTO 36004KT 7SM 18/17 A3006 RMK 70027 SLP180 T01840174 57002 IEM_DS3505
ZGKL,2008-11-03 22:00,ZGKL 032200Z AUTO 29004KT 4SM 18/18 A3006 RMK T01800180 IEM_DS3505
ZGKL,2008-11-03 23:00,ZGKL 032300Z AUTO 00000KT 6SM 18/18 A3006 RMK T01800180 IEM_DS3505
ZGKL,2008-11-04 00:00,ZGKL 040000Z AUTO 36004KT 9SM 19/17 A3009 RMK 70008 SLP191 T01920172 52010 IEM_DS3505
ZGKL,2008-11-04 01:00,ZGKL 040100Z AUTO 4SM 19/19 A3009 RMK T01900190 IEM_DS3505
ZGKL,2008-11-04 02:00,ZGKL 040200Z AUTO 4SM 20/18 A3009 RMK T02000180 IEM_DS3505
ZGKL,2008-11-04 03:00,ZGKL 040300Z AUTO 02002KT 9SM 22/17 A3009 RMK SLP192 T02210168 52002 IEM_DS3505
ZGKL,2008-11-04 04:00,ZGKL 040400Z AUTO 7SM 22/18 A3006 RMK T02200180 IEM_DS3505
ZGKL,2008-11-04 05:00,ZGKL 040500Z AUTO 13004KT 7SM 23/18 A3003 RMK T02300180 IEM_DS3505
ZGKL,2008-11-04 06:00,ZGKL 040600Z AUTO 18004KT 8SM 22/18 A3000 RMK SLP167 T02230177 57025 IEM_DS3505
ZGKL,2008-11-04 07:00,ZGKL 040700Z AUTO 10004KT 7SM 22/18 A3000 RMK T02200180 IEM_DS3505
ZGKL,2008-11-04 08:00,ZGKL 040800Z AUTO 12006KT 7SM 22/19 A3000 RMK T02200190 IEM_DS3505
ZGKL,2008-11-04 09:00,ZGKL 040900Z AUTO 18002KT 6SM 20/20 A3000 RMK SLP165 T02050197 57002 IEM_DS3505
ZGKL,2008-11-04 10:00,ZGKL 041000Z AUTO 08004KT 7SM 21/19 A3003 RMK T02100190 IEM_DS3505
ZGKL,2008-11-04 11:00,ZGKL 041100Z AUTO 7SM 20/19 A3003 RMK T02000190 IEM_DS3505
ZGKL,2008-11-04 12:00,ZGKL 041200Z AUTO 07002KT 5SM 20/20 A3003 RMK 60001 SLP179 T02000197 52013 IEM_DS3505
ZGKL,2008-11-04 13:00,ZGKL 041300Z AUTO 4SM 20/19 A3003 RMK T02000190 IEM_DS3505
ZGKL,2008-11-04 14:00,ZGKL 041400Z AUTO 3SM 20/20 A3006 RMK T02000200 IEM_DS3505
ZGKL,2008-11-04 15:00,ZGKL 041500Z AUTO 00000KT 5SM 20/20 A3006 RMK SLP180 T01950195 52002 IEM_DS3505
ZGKL,2008-11-04 16:00,ZGKL 041600Z AUTO 4SM 19/19 A3003 RMK T01900190 IEM_DS3505
ZGKL,2008-11-04 17:00,ZGKL 041700Z AUTO 2SM 19/19 A3003 RMK T01900190 IEM_DS3505
ZGKL,2008-11-04 18:00,ZGKL 041800Z AUTO 2 1/2SM 19/19 A3000 RMK T01900190 IEM_DS3505
ZGKL,2008-11-04 19:00,ZGKL 041900Z AUTO 08002KT 4SM 19/19 A3000 RMK T01900190 IEM_DS3505
ZGKL,2008-11-04 20:00,ZGKL 042000Z AUTO 2SM 19/19 A2997 RMK T01900190 IEM_DS3505
ZGKL,2008-11-04 21:00,ZGKL 042100Z AUTO 11004KT 4SM 19/19 A2997 RMK 70113 SLP156 T01930193 57009 IEM_DS3505
ZGKL,2008-11-04 22:00,ZGKL 042200Z AUTO 4SM 19/19 A3000 RMK T01900190 IEM_DS3505
ZGKL,2008-11-04 23:00,ZGKL 042300Z AUTO 04002KT 2 1/2SM 19/19 A3000 RMK T01900190 IEM_DS3505
ZGKL,2008-11-05 00:00,ZGKL 050000Z AUTO 07002KT 4SM 20/20 A3003 RMK 60071 70115 SLP170 T01960196 52014 IEM_DS3505
ZGKL,2008-11-05 01:00,ZGKL 050100Z AUTO 2 1/2SM 20/20 A3003 RMK T02000200 IEM_DS3505
ZGKL,2008-11-05 02:00,ZGKL 050200Z AUTO 2 1/2SM 20/20 A3003 RMK T02000200 IEM_DS3505
ZGKL,2008-11-05 03:00,ZGKL 050300Z AUTO 02002KT 2 1/2SM 20/20 A3003 RMK SLP174 T02040204 52004 IEM_DS3505
ZGKL,2008-11-05 04:00,ZGKL 050400Z AUTO 2 1/2SM 21/20 A3000 RMK T02100200 IEM_DS3505
ZGKL,2008-11-05 05:00,ZGKL 050500Z AUTO 3SM 21/20 A2997 RMK T02100200 IEM_DS3505
ZGKL,2008-11-05 06:00,ZGKL 050600Z AUTO 02002KT 2 1/2SM 21/21 A2994 RMK 60016 SLP146 T02090207 57028 IEM_DS3505
ZGKL,2008-11-05 07:00,ZGKL 050700Z AUTO 32004KT 3SM 21/20 A2991 RMK T02100200 IEM_DS3505
ZGKL,2008-11-05 08:00,ZGKL 050800Z AUTO 2SM 20/20 A2991 RMK T02000200 IEM_DS3505
ZGKL,2008-11-05 09:00,ZGKL 050900Z AUTO 02002KT 2SM 21/21 A2991 RMK SLP136 T02100210 57009 IEM_DS3505
ZGKL,2008-11-05 10:00,ZGKL 051000Z AUTO 2 1/2SM 20/20 A2994 RMK T02000200 IEM_DS3505
ZGKL,2008-11-05 11:00,ZGKL 051100Z AUTO 32002KT 2 1/2SM 20/20 A2994 RMK T02000200 IEM_DS3505
ZGKL,2008-11-05 12:00,ZGKL 051200Z AUTO 02002KT 3SM 21/21 A2994 RMK 60020 SLP148 T02080208 52011 IEM_DS3505
ZGKL,2008-11-05 13:00,ZGKL 051300Z AUTO 2 1/2SM 20/20 A2997 RMK T02000200 IEM_DS3505
ZGKL,2008-11-05 14:00,ZGKL 051400Z AUTO 2SM 20/20 A2997 RMK T02000200 IEM_DS3505
ZGKL,2008-11-05 15:00,ZGKL 051500Z AUTO 07002KT 3SM 21/21 A2997 RMK SLP154 T02070207 52006 IEM_DS3505
ZGKL,2008-11-05 16:00,ZGKL 051600Z AUTO 2 1/2SM 20/20 A2997 RMK T02000200 IEM_DS3505
ZGKL,2008-11-05 17:00,ZGKL 051700Z AUTO 00000KT 2 1/2SM 20/20 A2994 RMK T02000200 IEM_DS3505
ZGKL,2008-11-05 18:00,ZGKL 051800Z AUTO 00000KT 2 1/2SM 20/20 A2994 RMK T02000200 IEM_DS3505
ZGKL,2008-11-05 19:00,ZGKL 051900Z AUTO 1SM 20/20 A2991 RMK T02000200 IEM_DS3505
ZGKL,2008-11-05 20:00,ZGKL 052000Z AUTO 29002KT 2SM 20/20 A2991 RMK T02000200 IEM_DS3505
ZGKL,2008-11-05 21:00,ZGKL 052100Z AUTO 29002KT 4SM 20/20 A2988 RMK 70037 SLP129 T02050205 57014 IEM_DS3505
ZGKL,2008-11-05 22:00,ZGKL 052200Z AUTO 2SM 20/20 A2991 RMK T02000200 IEM_DS3505
ZGKL,2008-11-05 23:00,ZGKL 052300Z AUTO 2SM 20/20 A2991 RMK T02000200 IEM_DS3505
ZGKL,2008-11-06 00:00,ZGKL 060000Z AUTO 00000KT 3SM 21/21 A2994 RMK 60000 70036 SLP144 T02090209 52015 IEM_DS3505
ZGKL,2008-11-06 01:00,ZGKL 060100Z AUTO 2SM 21/21 A2997 RMK T02100210 IEM_DS3505
ZGKL,2008-11-06 02:00,ZGKL 060200Z AUTO 2SM 23/23 A2997 RMK T02300230 IEM_DS3505
ZGKL,2008-11-06 03:00,ZGKL 060300Z AUTO 09002KT 3SM 24/22 A2997 RMK SLP147 T02430224 52004 IEM_DS3505
ZGKL,2008-11-06 04:00,ZGKL 060400Z AUTO 3SM 26/23 A2991 RMK T02600230 IEM_DS3505
ZGKL,2008-11-06 05:00,ZGKL 060500Z AUTO 4SM 27/23 A2988 RMK T02700230 IEM_DS3505
ZGKL,2008-11-06 06:00,ZGKL 060600Z AUTO 36002KT 6SM 28/22 A2985 RMK SLP111 T02780225 57034 IEM_DS3505
ZGKL,2008-11-06 07:00,ZGKL 060700Z AUTO 21004KT 7SM 28/23 A2983 RMK T02800230 IEM_DS3505
ZGKL,2008-11-06 08:00,ZGKL 060800Z AUTO 7SM 28/22 A2983 RMK T02800220 IEM_DS3505
ZGKL,2008-11-06 09:00,ZGKL 060900Z AUTO 07002KT 7SM 26/23 A2983 RMK SLP102 T02620227 57010 IEM_DS3505
ZGKL,2008-11-06 10:00,ZGKL 061000Z AUTO 15004KT 7SM 26/23 A2985 RMK T02600230 IEM_DS3505
ZGKL,2008-11-06 11:00,ZGKL 061100Z AUTO 7SM 25/23 A2988 RMK T02500230 IEM_DS3505
ZGKL,2008-11-06 12:00,ZGKL 061200Z AUTO 00000KT 9SM 24/23 A2988 RMK SLP124 T02410229 52021 IEM_DS3505
ZGKL,2008-11-06 13:00,ZGKL 061300Z AUTO 4SM 24/23 A2991 RMK T02400230 IEM_DS3505
ZGKL,2008-11-06 14:00,ZGKL 061400Z AUTO 00000KT 3SM 23/23 A2991 RMK T02300230 IEM_DS3505
ZGKL,2008-11-06 15:00,ZGKL 061500Z AUTO 02002KT 7SM 23/22 A2991 RMK SLP129 T02320224 52006 IEM_DS3505
ZGKL,2008-11-06 16:00,ZGKL 061600Z AUTO 1 1/4SM 22/22 A2988 RMK T02200220 IEM_DS3505
ZGKL,2008-11-06 17:00,ZGKL 061700Z AUTO 2SM 21/20 A2988 RMK T02100200 IEM_DS3505
ZGKL,2008-11-06 18:00,ZGKL 061800Z AUTO 02004KT 6SM 20/20 A2991 RMK 60067 SLP139 T02040204 52010 IEM_DS3505
ZGKL,2008-11-06 19:00,ZGKL 061900Z AUTO 2 1/2SM 20/20 A2991 RMK T02000200 IEM_DS3505
ZGKL,2008-11-06 20:00,ZGKL 062000Z AUTO 34006KT 6SM 20/20 A2994 RMK T02000200 IEM_DS3505
ZGKL,2008-11-06 21:00,ZGKL 062100Z AUTO 25002KT 6SM 19/19 A2994 RMK 70270 SLP146 T01920192 52006 IEM_DS3505
ZGKL,2008-11-06 22:00,ZGKL 062200Z AUTO 28004KT 2SM 20/20 A2997 RMK T02000200 IEM_DS3505
ZGKL,2008-11-06 23:00,ZGKL 062300Z AUTO 5SM 20/20 A2997 RMK T02000200 IEM_DS3505
ZGKL,2008-11-07 00:00,ZGKL 070000Z AUTO 02006KT 6SM 19/19 A3000 RMK 60244 70310 SLP166 T01910188 52019 IEM_DS3505
ZGKL,2008-11-07 01:00,ZGKL 070100Z AUTO 34006KT 7SM 19/19 A3003 RMK T01900190 IEM_DS3505
ZGKL,2008-11-07 02:00,ZGKL 070200Z AUTO 7SM 19/19 A3006 RMK T01900190 IEM_DS3505
ZGKL,2008-11-07 03:00,ZGKL 070300Z AUTO 02010KT 7SM 17/16 A3006 RMK SLP188 T01730160 52021 IEM_DS3505
ZGKL,2008-11-07 04:00,ZGKL 070400Z AUTO 04006KT 7SM 18/18 A3006 RMK T01800180 IEM_DS3505
ZGKL,2008-11-07 05:00,ZGKL 070500Z AUTO 06008KT 7SM 18/17 A3003 RMK T01800170 IEM_DS3505
ZGKL,2008-11-07 06:00,ZGKL 070600Z AUTO 02010KT 10SM 17/14 A3003 RMK 60020 SLP179 T01690145 57010 IEM_DS3505
ZGKL,2008-11-07 07:00,ZGKL 070700Z AUTO 05008KT 7SM 18/16 A3003 RMK T01800160 IEM_DS3505
ZGKL,2008-11-07 08:00,ZGKL 070800Z AUTO 05008KT 7SM 18/15 A3003 RMK T01800150 IEM_DS3505
ZGKL,2008-11-07 09:00,ZGKL 070900Z AUTO 04008KT 10SM 16/14 A3006 RMK SLP191 T01630138 52011 IEM_DS3505
ZGKL,2008-11-07 10:00,ZGKL 071000Z AUTO 04010KT 7SM 16/14 A3009 RMK T01600140 IEM_DS3505
ZGKL,2008-11-07 11:00,ZGKL 071100Z AUTO 04008KT 7SM 16/15 A3009 RMK T01600150 IEM_DS3505
ZGKL,2008-11-07 12:00,ZGKL 071200Z AUTO 36010KT 8SM 16/13 A3012 RMK 60001 SLP210 T01590126 52018 IEM_DS3505
ZGKL,2008-11-07 13:00,ZGKL 071300Z AUTO 7SM 16/14 A3015 RMK T01600140 IEM_DS3505
ZGKL,2008-11-07 14:00,ZGKL 071400Z AUTO 6SM 15/14 A3015 RMK T01500140 IEM_DS3505
ZGKL,2008-11-07 15:00,ZGKL 071500Z AUTO 02008KT 9SM 16/12 A3015 RMK SLP224 T01560116 52013 IEM_DS3505
ZGKL,2008-11-07 16:00,ZGKL 071600Z AUTO 6SM 14/13 A3015 RMK T01400130 IEM_DS3505
ZGKL,2008-11-07 17:00,ZGKL 071700Z AUTO 5SM 14/13 A3015 RMK T01400130 IEM_DS3505
ZGKL,2008-11-07 18:00,ZGKL 071800Z AUTO 02008KT 9SM 15/11 A3015 RMK SLP222 T01460112 57002 IEM_DS3505
ZGKL,2008-11-07 19:00,ZGKL 071900Z AUTO 34004KT 13/12 A3015 RMK T01300120 IEM_DS3505
ZGKL,2008-11-07 21:00,ZGKL 072100Z AUTO 02010KT 9SM 14/10 A3015 RMK 70061 SLP218 T01450105 57004 IEM_DS3505
ZGKL,2008-11-07 22:00,ZGKL 072200Z AUTO 34006KT 6SM 12/11 A3015 RMK T01200110 IEM_DS3505
ZGKL,2008-11-07 23:00,ZGKL 072300Z AUTO 6SM 13/11 A3018 RMK T01300110 IEM_DS3505
ZGKL,2008-11-08 00:00,ZGKL 080000Z AUTO 02010KT 9SM 14/10 A3018 RMK 70020 SLP234 T01450099 52015 IEM_DS3505
ZGKL,2008-11-08 01:00,ZGKL 080100Z AUTO 6SM 15/12 A3021 RMK T01500120 IEM_DS3505
ZGKL,2008-11-08 02:00,ZGKL 080200Z AUTO 6SM 16/12 A3021 RMK T01600120 IEM_DS3505
ZGKL,2008-11-08 03:00,ZGKL 080300Z AUTO 02012KT 10SM 16/10 A3021 RMK SLP238 T01610095 52005 IEM_DS3505
ZGKL,2008-11-08 04:00,ZGKL 080400Z AUTO 07010KT 6SM 18/11 A3018 RMK T01800110 IEM_DS3505
ZGKL,2008-11-08 05:00,ZGKL 080500Z AUTO 04010KT 7SM 18/11 A3015 RMK T01800110 IEM_DS3505
ZGKL,2008-11-08 06:00,ZGKL 080600Z AUTO 02006KT 11SM 17/10 A3012 RMK SLP215 T01740101 57023 IEM_DS3505
ZGKL,2008-11-08 07:00,ZGKL 080700Z AUTO 05012KT 6SM 19/11 A3012 RMK T01900110 IEM_DS3505
ZGKL,2008-11-08 08:00,ZGKL 080800Z AUTO 06014KT 6SM 18/11 A3012 RMK T01800110 IEM_DS3505
ZGKL,2008-11-08 09:00,ZGKL 080900Z AUTO 04006KT 14SM 18/10 A3009 RMK SLP203 T01780102 57011 IEM_DS3505
ZGKL,2008-11-08 10:00,ZGKL 081000Z AUTO 05010KT 6SM 16/11 A3012 RMK T01600110 IEM_DS3505
ZGKL,2008-11-08 11:00,ZGKL 081100Z AUTO 6SM 15/11 A3015 RMK T01500110 IEM_DS3505
ZGKL,2008-11-08 12:00,ZGKL 081200Z AUTO 02008KT 11SM 15/10 A3015 RMK SLP227 T01520100 52022 IEM_DS3505
ZGKL,2008-11-08 13:00,ZGKL 081300Z AUTO 4SM 14/11 A3018 RMK T01400110 IEM_DS3505
ZGKL,2008-11-08 14:00,ZGKL 081400Z AUTO 03010KT 4SM 14/10 A3018 RMK T01400100 IEM_DS3505
ZGKL,2008-11-08 15:00,ZGKL 081500Z AUTO 36006KT 10SM 14/08 A3021 RMK SLP239 T01410085 52012 IEM_DS3505
ZGKL,2008-11-08 16:00,ZGKL 081600Z AUTO 4SM 13/10 A3021 RMK T01300100 IEM_DS3505
ZGKL,2008-11-08 17:00,ZGKL 081700Z AUTO 5SM 13/09 A3021 RMK T01300090 IEM_DS3505
ZGKL,2008-11-08 18:00,ZGKL 081800Z AUTO 02008KT 10SM 14/08 A3021 RMK SLP237 T01370081 57001 IEM_DS3505
ZGKL,2008-11-08 19:00,ZGKL 081900Z AUTO 3SM 10/09 A3018 RMK T01000090 IEM_DS3505
ZGKL,2008-11-08 20:00,ZGKL 082000Z AUTO 34006KT 3SM 10/09 A3018 RMK T01000090 IEM_DS3505
ZGKL,2008-11-08 21:00,ZGKL 082100Z AUTO 34006KT 10SM 13/08 A3018 RMK SLP232 T01280079 57006 IEM_DS3505
ZGKL,2008-11-08 22:00,ZGKL 082200Z AUTO 34006KT 3SM 09/09 A3021 RMK T00900090 IEM_DS3505
ZGKL,2008-11-08 23:00,ZGKL 082300Z AUTO 33004KT 4SM 09/09 A3024 RMK T00900090 IEM_DS3505
ZGKL,2008-11-09 00:00,ZGKL 090000Z AUTO 02006KT 8SM 14/08 A3024 RMK SLP252 T01390079 52020 IEM_DS3505
ZGKL,2008-11-09 01:00,ZGKL 090100Z AUTO 6SM 14/11 A3027 RMK T01400110 IEM_DS3505
ZGKL,2008-11-09 02:00,ZGKL 090200Z AUTO 04012KT 6SM 17/09 A3027 RMK T01700090 IEM_DS3505
ZGKL,2008-11-09 03:00,ZGKL 090300Z AUTO 04010KT 9SM 18/09 A3024 RMK SLP252 T01770091 54000 IEM_DS3505
ZGKL,2008-11-09 04:00,ZGKL 090400Z AUTO 06016KT 7SM 19/09 A3021 RMK T01900090 IEM_DS3505
ZGKL,2008-11-09 05:00,ZGKL 090500Z AUTO 06012KT 7SM 20/08 A3018 RMK T02000080 IEM_DS3505
ZGKL,2008-11-09 06:00,ZGKL 090600Z AUTO 02014KT 12SM 19/09 A3015 RMK SLP224 T01920094 57027 IEM_DS3505
ZGKL,2008-11-09 07:00,ZGKL 090700Z AUTO 06016KT 6SM 20/08 A3015 RMK T02000080 IEM_DS3505
ZGKL,2008-11-09 08:00,ZGKL 090800Z AUTO 06014KT 6SM 19/09 A3015 RMK T01900090 IEM_DS3505
ZGKL,2008-11-09 09:00,ZGKL 090900Z AUTO 04012KT 12SM 18/09 A3015 RMK SLP221 T01820087 57003 IEM_DS3505
ZGKL,2008-11-09 10:00,ZGKL 091000Z AUTO 05010KT 7SM 17/09 A3018 RMK T01700090 IEM_DS3505
ZGKL,2008-11-09 11:00,ZGKL 091100Z AUTO 34006KT 7SM 15/10 A3021 RMK T01500100 IEM_DS3505
ZGKL,2008-11-09 12:00,ZGKL 091200Z AUTO 02004KT 10SM 15/09 A3024 RMK SLP246 T01520093 52024 IEM_DS3505
ZGKL,2008-11-09 13:00,ZGKL 091300Z AUTO 03008KT 6SM 15/08 A3024 RMK T01500080 IEM_DS3505
ZGKL,2008-11-09 14:00,ZGKL 091400Z AUTO 33006KT 6SM 13/10 A3027 RMK T01300100 IEM_DS3505
ZGKL,2008-11-09 15:00,ZGKL 091500Z AUTO 02008KT 10SM 15/09 A3027 RMK SLP261 T01460090 52015 IEM_DS3505
ZGKL,2008-11-09 16:00,ZGKL 091600Z AUTO 6SM 11/10 A3027 RMK T01100100 IEM_DS3505
ZGKL,2008-11-09 17:00,ZGKL 091700Z AUTO 00000KT 3SM 10/10 A3027 RMK T01000100 IEM_DS3505
ZGKL,2008-11-09 18:00,ZGKL 091800Z AUTO 3SM 10/10 A3024 RMK T01000100 IEM_DS3505
ZGKL,2008-11-09 19:00,ZGKL 091900Z AUTO 3SM 10/09 A3024 RMK T01000090 IEM_DS3505
ZGKL,2008-11-09 20:00,ZGKL 092000Z AUTO 3SM 09/09 A3024 RMK T00900090 IEM_DS3505
ZGKL,2008-11-09 21:00,ZGKL 092100Z AUTO 02010KT 9SM 13/08 A3024 RMK SLP247 T01290078 57005 IEM_DS3505
ZGKL,2008-11-09 22:00,ZGKL 092200Z AUTO 34004KT 6SM 09/08 A3024 RMK T00900080 IEM_DS3505
ZGKL,2008-11-09 23:00,ZGKL 092300Z AUTO 6SM 09/08 A3027 RMK T00900080 IEM_DS3505
ZGKL,2008-11-10 00:00,ZGKL 100000Z AUTO 02012KT 7SM 13/08 A3027 RMK SLP264 T01310078 52016 IEM_DS3505
ZGKL,2008-11-10 01:00,ZGKL 100100Z AUTO 6SM 12/10 A3030 RMK T01200100 IEM_DS3505
ZGKL,2008-11-10 03:00,ZGKL 100300Z AUTO 02012KT 7SM 17/07 A3030 RMK SLP266 T01690070 52003 IEM_DS3505
ZGKL,2008-11-10 05:00,ZGKL 100500Z AUTO 06010KT 6SM 20/06 A3024 RMK T02000060 IEM_DS3505
ZGKL,2008-11-10 06:00,ZGKL 100600Z AUTO 02008KT 9SM 20/06 A3018 RMK SLP229 T02000060 57035 IEM_DS3505
ZGKL,2008-11-10 07:00,ZGKL 100700Z AUTO 04010KT 6SM 20/04 A3015 RMK T02000040 IEM_DS3505
ZGKL,2008-11-10 08:00,ZGKL 100800Z AUTO 05012KT 6SM 20/04 A3015 RMK T02000040 IEM_DS3505
ZGKL,2008-11-10 09:00,ZGKL 100900Z AUTO 04008KT 10SM 19/05 A3015 RMK SLP216 T01900051 57014 IEM_DS3505
ZGKL,2008-11-10 10:00,ZGKL 101000Z AUTO 05006KT 6SM 17/06 A3015 RMK T01700060 IEM_DS3505
ZGKL,2008-11-10 11:00,ZGKL 101100Z AUTO 05012KT 6SM 16/05 A3015 RMK T01600050 IEM_DS3505
ZGKL,2008-11-10 12:00,ZGKL 101200Z AUTO 02004KT 9SM 15/07 A3018 RMK SLP234 T01500071 52017 IEM_DS3505
ZGKL,2008-11-10 13:00,ZGKL 101300Z AUTO 6SM 13/07 A3021 RMK T01300070 IEM_DS3505
ZGKL,2008-11-10 14:00,ZGKL 101400Z AUTO 33006KT 6SM 12/08 A3021 RMK T01200080 IEM_DS3505
ZGKL,2008-11-10 15:00,ZGKL 101500Z AUTO 02008KT 9SM 14/07 A3024 RMK SLP249 T01450073 52015 IEM_DS3505
ZGKL,2008-11-10 16:00,ZGKL 101600Z AUTO 4SM 10/09 A3024 RMK T01000090 IEM_DS3505
ZGKL,2008-11-10 17:00,ZGKL 101700Z AUTO 35004KT 3SM 09/09 A3024 RMK T00900090 IEM_DS3505
ZGKL,2008-11-10 18:00,ZGKL 101800Z AUTO 02004KT 9SM 13/08 A3024 RMK SLP252 T01320076 52004 IEM_DS3505
ZGKL,2008-11-10 19:00,ZGKL 101900Z AUTO 34004KT 3SM 09/09 A3024 RMK T00900090 IEM_DS3505
ZGKL,2008-11-10 20:00,ZGKL 102000Z AUTO 34002KT 2 1/2SM 08/08 A3024 RMK T00800080 IEM_DS3505
ZGKL,2008-11-10 21:00,ZGKL 102100Z AUTO 02006KT 9SM 12/08 A3024 RMK SLP250 T01230078 57003 IEM_DS3505
ZGKL,2008-11-10 22:00,ZGKL 102200Z AUTO 00000KT 4SM 08/08 A3024 RMK T00800080 IEM_DS3505
ZGKL,2008-11-10 23:00,ZGKL 102300Z AUTO 4SM 08/08 A3024 RMK T00800080 IEM_DS3505
ZGKL,2008-11-11 00:00,ZGKL 110000Z AUTO 02006KT 6SM 12/08 A3027 RMK SLP260 T01240079 52009 IEM_DS3505
ZGKL,2008-11-11 01:00,ZGKL 110100Z AUTO 3SM 12/11 A3030 RMK T01200110 IEM_DS3505
ZGKL,2008-11-11 02:00,ZGKL 110200Z AUTO 5SM 15/10 A3030 RMK T01500100 IEM_DS3505
ZGKL,2008-11-11 03:00,ZGKL 110300Z AUTO 36010KT 7SM 17/08 A3027 RMK SLP257 T01690075 57002 IEM_DS3505
ZGKL,2008-11-11 04:00,ZGKL 110400Z AUTO 6SM 18/07 A3024 RMK T01800070 IEM_DS3505
ZGKL,2008-11-11 05:00,ZGKL 110500Z AUTO 6SM 19/07 A3021 RMK T01900070 IEM_DS3505
ZGKL,2008-11-11 06:00,ZGKL 110600Z AUTO 02006KT 9SM 20/08 A3015 RMK SLP219 T02020076 57036 IEM_DS3505
ZGKL,2008-11-11 07:00,ZGKL 110700Z AUTO 07008KT 6SM 20/04 A3012 RMK T02000040 IEM_DS3505
ZGKL,2008-11-11 08:00,ZGKL 110800Z AUTO 6SM 20/06 A3012 RMK T02000060 IEM_DS3505
ZGKL,2008-11-11 09:00,ZGKL 110900Z AUTO 02004KT 9SM 20/06 A3012 RMK SLP204 T01950059 57016 IEM_DS3505
ZGKL,2008-11-11 10:00,ZGKL 111000Z AUTO 05006KT 6SM 17/05 A3012 RMK T01700050 IEM_DS3505
ZGKL,2008-11-11 11:00,ZGKL 111100Z AUTO 05010KT 6SM 16/06 A3012 RMK T01600060 IEM_DS3505
ZGKL,2008-11-11 12:00,ZGKL 111200Z AUTO 02006KT 9SM 16/07 A3015 RMK SLP222 T01570072 52017 IEM_DS3505
ZGKL,2008-11-11 13:00,ZGKL 111300Z AUTO 01004KT 4SM 13/10 A3018 RMK T01300100 IEM_DS3505
ZGKL,2008-11-11 14:00,ZGKL 111400Z AUTO 3SM 11/10 A3018 RMK T01100100 IEM_DS3505
ZGKL,2008-11-11 15:00,ZGKL 111500Z AUTO 02004KT 9SM 14/08 A3018 RMK SLP232 T01430085 52011 IEM_DS3505
ZGKL,2008-11-11 16:00,ZGKL 111600Z AUTO 29002KT 3SM 10/10 A3018 RMK T01000100 IEM_DS3505
ZGKL,2008-11-11 17:00,ZGKL 111700Z AUTO 29004KT 2SM 10/09 A3018 RMK T01000090 IEM_DS3505
ZGKL,2008-11-11 18:00,ZGKL 111800Z AUTO 02006KT 9SM 13/08 A3015 RMK SLP221 T01320083 57010 IEM_DS3505
ZGKL,2008-11-11 19:00,ZGKL 111900Z AUTO 1 1/2SM 09/09 A3015 RMK T00900090 IEM_DS3505
ZGKL,2008-11-11 20:00,ZGKL 112000Z AUTO 1 1/4SM 09/09 A3015 RMK T00900090 IEM_DS3505
ZGKL,2008-11-11 21:00,ZGKL 112100Z AUTO 36004KT 7SM 12/08 A3012 RMK SLP213 T01210082 57009 IEM_DS3505
ZGKL,2008-11-11 22:00,ZGKL 112200Z AUTO 1SM 08/08 A3012 RMK T00800080 IEM_DS3505
ZGKL,2008-11-11 23:00,ZGKL 112300Z AUTO 04002KT 2SM 08/08 A3015 RMK T00800080 IEM_DS3505
ZGKL,2008-11-12 00:00,ZGKL 120000Z AUTO 02004KT 7SM 12/08 A3015 RMK SLP224 T01240085 52010 IEM_DS3505
ZGKL,2008-11-12 01:00,ZGKL 120100Z AUTO 2 1/2SM 12/11 A3018 RMK T01200110 IEM_DS3505
ZGKL,2008-11-12 02:00,ZGKL 120200Z AUTO 4SM 15/11 A3018 RMK T01500110 IEM_DS3505
ZGKL,2008-11-12 03:00,ZGKL 120300Z AUTO 34004KT 7SM 18/09 A3018 RMK SLP222 T01760087 57001 IEM_DS3505
ZGKL,2008-11-12 04:00,ZGKL 120400Z AUTO 5SM 19/08 A3012 RMK T01900080 IEM_DS3505
ZGKL,2008-11-12 05:00,ZGKL 120500Z AUTO 5SM 20/08 A3009 RMK T02000080 IEM_DS3505
ZGKL,2008-11-12 06:00,ZGKL 120600Z AUTO 04004KT 9SM 22/08 A3003 RMK SLP178 T02150077 57042 IEM_DS3505
ZGKL,2008-11-12 07:00,ZGKL 120700Z AUTO 5SM 22/05 A3003 RMK T02200050 IEM_DS3505
ZGKL,2008-11-12 08:00,ZGKL 120800Z AUTO 6SM 21/05 A3000 RMK T02100050 IEM_DS3505
ZGKL,2008-11-12 09:00,ZGKL 120900Z AUTO 36004KT 10SM 21/04 A3000 RMK SLP163 T02120043 57015 IEM_DS3505
ZGKL,2008-11-12 10:00,ZGKL 121000Z AUTO 18002KT 6SM 17/10 A3000 RMK T01700100 IEM_DS3505
ZGKL,2008-11-12 11:00,ZGKL 121100Z AUTO 4SM 15/11 A3000 RMK T01500110 IEM_DS3505
ZGKL,2008-11-12 12:00,ZGKL 121200Z AUTO 36002KT 9SM 17/07 A3003 RMK SLP184 T01680074 52019 IEM_DS3505
ZGKL,2008-11-12 13:00,ZGKL 121300Z AUTO 32004KT 3SM 13/11 A3006 RMK T01300110 IEM_DS3505
ZGKL,2008-11-12 14:00,ZGKL 121400Z AUTO 35004KT 3SM 12/11 A3009 RMK T01200110 IEM_DS3505
ZGKL,2008-11-12 15:00,ZGKL 121500Z AUTO 02004KT 9SM 15/08 A3012 RMK SLP205 T01530078 52022 IEM_DS3505
ZGKL,2008-11-12 16:00,ZGKL 121600Z AUTO 30002KT 2SM 10/10 A3012 RMK T01000100 IEM_DS3505
ZGKL,2008-11-12 17:00,ZGKL 121700Z AUTO 00000KT 2 1/2SM 10/10 A3012 RMK T01000100 IEM_DS3505
ZGKL,2008-11-12 18:00,ZGKL 121800Z AUTO 36002KT 9SM 14/08 A3012 RMK SLP211 T01360080 52006 IEM_DS3505
ZGKL,2008-11-12 19:00,ZGKL 121900Z AUTO 2SM 09/09 A3012 RMK T00900090 IEM_DS3505
ZGKL,2008-11-12 20:00,ZGKL 122000Z AUTO 1SM 09/09 A3012 RMK T00900090 IEM_DS3505
ZGKL,2008-11-12 21:00,ZGKL 122100Z AUTO 32002KT 9SM 12/08 A3012 RMK SLP207 T01170084 57004 IEM_DS3505
ZGKL,2008-11-12 22:00,ZGKL 122200Z AUTO 27002KT 2SM 08/08 A3012 RMK T00800080 IEM_DS3505
ZGKL,2008-11-12 23:00,ZGKL 122300Z AUTO 02002KT 2SM 08/08 A3015 RMK T00800080 IEM_DS3505
ZGKL,2008-11-13 00:00,ZGKL 130000Z AUTO 34004KT 9SM 12/08 A3018 RMK SLP231 T01250084 52022 IEM_DS3505
ZGKL,2008-11-13 01:00,ZGKL 130100Z AUTO 4SM 12/11 A3021 RMK T01200110 IEM_DS3505
ZGKL,2008-11-13 02:00,ZGKL 130200Z AUTO 6SM 16/11 A3021 RMK T01600110 IEM_DS3505
ZGKL,2008-11-13 03:00,ZGKL 130300Z AUTO 20002KT 9SM 19/09 A3021 RMK SLP233 T01930089 52004 IEM_DS3505
ZGKL,2008-11-13 04:00,ZGKL 130400Z AUTO 6SM 20/09 A3018 RMK T02000090 IEM_DS3505
ZGKL,2008-11-13 05:00,ZGKL 130500Z AUTO 6SM 21/08 A3012 RMK T02100080 IEM_DS3505
ZGKL,2008-11-13 06:00,ZGKL 130600Z AUTO 07002KT 7SM 22/10 A3009 RMK SLP194 T02210100 57038 IEM_DS3505
ZGKL,2008-11-13 07:00,ZGKL 130700Z AUTO 6SM 23/08 A3006 RMK T02300080 IEM_DS3505
ZGKL,2008-11-13 08:00,ZGKL 130800Z AUTO 07004KT 6SM 22/07 A3003 RMK T02200070 IEM_DS3505
ZGKL,2008-11-13 09:00,ZGKL 130900Z AUTO 09002KT 8SM 22/09 A3003 RMK SLP176 T02170093 57019 IEM_DS3505
ZGKL,2008-11-13 10:00,ZGKL 131000Z AUTO 05004KT 6SM 19/09 A3003 RMK T01900090 IEM_DS3505
ZGKL,2008-11-13 11:00,ZGKL 131100Z AUTO 4SM 15/12 A3003 RMK T01500120 IEM_DS3505
ZGKL,2008-11-13 12:00,ZGKL 131200Z AUTO 36004KT 8SM 18/10 A3006 RMK SLP192 T01760102 52015 IEM_DS3505
ZGKL,2008-11-13 13:00,ZGKL 131300Z AUTO 32004KT 4SM 13/12 A3009 RMK T01300120 IEM_DS3505
ZGKL,2008-11-13 14:00,ZGKL 131400Z AUTO 32004KT 4SM 12/11 A3009 RMK T01200110 IEM_DS3505
ZGKL,2008-11-13 15:00,ZGKL 131500Z AUTO 02006KT 8SM 16/10 A3012 RMK SLP203 T01590096 52013 IEM_DS3505
ZGKL,2008-11-13 16:00,ZGKL 131600Z AUTO 34002KT 2 1/2SM 11/11 A3012 RMK T01100110 IEM_DS3505
ZGKL,2008-11-13 17:00,ZGKL 131700Z AUTO 34002KT 2SM 11/10 A3012 RMK T01100100 IEM_DS3505
ZGKL,2008-11-13 18:00,ZGKL 131800Z AUTO 36004KT 8SM 15/09 A3012 RMK SLP202 T01470089 57001 IEM_DS3505
ZGKL,2008-11-13 19:00,ZGKL 131900Z AUTO 00000KT 1 1/2SM 10/10 A3012 RMK T01000100 IEM_DS3505
ZGKL,2008-11-13 20:00,ZGKL 132000Z AUTO 33002KT 1 1/2SM 09/09 A3012 RMK T00900090 IEM_DS3505
ZGKL,2008-11-13 21:00,ZGKL 132100Z AUTO 02002KT 8SM 14/08 A3012 RMK SLP201 T01370085 57001 IEM_DS3505
ZGKL,2008-11-13 22:00,ZGKL 132200Z AUTO 00000KT 4SM 09/09 A3012 RMK T00900090 IEM_DS3505
ZGKL,2008-11-13 23:00,ZGKL 132300Z AUTO 00000KT 3SM 08/08 A3015 RMK T00800080 IEM_DS3505
ZGKL,2008-11-14 00:00,ZGKL 140000Z AUTO 00000KT 8SM 13/09 A3015 RMK SLP222 T01330094 52019 IEM_DS3505
ZGKL,2008-11-14 01:00,ZGKL 140100Z AUTO 3SM 14/12 A3018 RMK T01400120 IEM_DS3505
ZGKL,2008-11-14 02:00,ZGKL 140200Z AUTO 3SM 16/11 A3018 RMK T01600110 IEM_DS3505
ZGKL,2008-11-14 03:00,ZGKL 140300Z AUTO 07006KT 8SM 20/09 A3015 RMK SLP215 T01960089 57006 IEM_DS3505
ZGKL,2008-11-14 04:00,ZGKL 140400Z AUTO 4SM 20/10 A3012 RMK T02000100 IEM_DS3505
ZGKL,2008-11-14 05:00,ZGKL 140500Z AUTO 4SM 22/08 A3006 RMK T02200080 IEM_DS3505
ZGKL,2008-11-14 06:00,ZGKL 140600Z AUTO 14002KT 8SM 23/09 A3003 RMK SLP170 T02290093 57043 IEM_DS3505
ZGKL,2008-11-14 07:00,ZGKL 140700Z AUTO 4SM 23/09 A3000 RMK T02300090 IEM_DS3505
ZGKL,2008-11-14 08:00,ZGKL 140800Z AUTO 06004KT 5SM 23/09 A2997 RMK T02300090 IEM_DS3505
ZGKL,2008-11-14 09:00,ZGKL 140900Z AUTO 25002KT 9SM 23/09 A2997 RMK SLP150 T02300091 57020 IEM_DS3505
ZGKL,2008-11-14 10:00,ZGKL 141000Z AUTO 28004KT 6SM 19/14 A2997 RMK T01900140 IEM_DS3505
ZGKL,2008-11-14 11:00,ZGKL 141100Z AUTO 3SM 16/13 A2997 RMK T01600130 IEM_DS3505
ZGKL,2008-11-14 12:00,ZGKL 141200Z AUTO 36002KT 9SM 17/11 A2997 RMK SLP161 T01740114 52009 IEM_DS3505
ZGKL,2008-11-14 13:00,ZGKL 141300Z AUTO 30004KT 2 1/2SM 14/12 A3000 RMK T01400120 IEM_DS3505
ZGKL,2008-11-14 14:00,ZGKL 141400Z AUTO 32004KT 3SM 14/12 A3000 RMK T01400120 IEM_DS3505
ZGKL,2008-11-14 15:00,ZGKL 141500Z AUTO 04002KT 9SM 14/11 A3003 RMK SLP174 T01450107 52014 IEM_DS3505
ZGKL,2008-11-14 16:00,ZGKL 141600Z AUTO 2 1/2SM 12/11 A3003 RMK T01200110 IEM_DS3505
ZGKL,2008-11-14 17:00,ZGKL 141700Z AUTO 33002KT 3SM 12/11 A3003 RMK T01200110 IEM_DS3505
ZGKL,2008-11-14 18:00,ZGKL 141800Z AUTO 3SM 12/12 A3003 RMK T01200120 IEM_DS3505
ZGKL,2008-11-14 19:00,ZGKL 141900Z AUTO 3SM 13/12 A3003 RMK T01300120 IEM_DS3505
ZGKL,2008-11-14 20:00,ZGKL 142000Z AUTO 3SM 13/12 A3003 RMK T01300120 IEM_DS3505
ZGKL,2008-11-14 21:00,ZGKL 142100Z AUTO 00000KT 9SM 15/11 A3003 RMK SLP180 T01490113 52004 IEM_DS3505
ZGKL,2008-11-14 22:00,ZGKL 142200Z AUTO 2 1/2SM 13/13 A3006 RMK T01300130 IEM_DS3505
ZGKL,2008-11-14 23:00,ZGKL 142300Z AUTO 3SM 13/13 A3006 RMK T01300130 IEM_DS3505
ZGKL,2008-11-15 00:00,ZGKL 150000Z AUTO 00000KT 7SM 15/12 A3009 RMK SLP195 T01530117 52013 IEM_DS3505
ZGKL,2008-11-15 01:00,ZGKL 150100Z AUTO 00000KT 4SM 16/14 A3009 RMK T01600140 IEM_DS3505
ZGKL,2008-11-15 02:00,ZGKL 150200Z AUTO 4SM 18/13 A3009 RMK T01800130 IEM_DS3505
ZGKL,2008-11-15 03:00,ZGKL 150300Z AUTO 11002KT 5SM 20/12 A3009 RMK SLP193 T01960119 57002 IEM_DS3505
ZGKL,2008-11-15 04:00,ZGKL 150400Z AUTO 4SM 21/12 A3006 RMK T02100120 IEM_DS3505
ZGKL,2008-11-15 05:00,ZGKL 150500Z AUTO 4SM 22/11 A3000 RMK T02200110 IEM_DS3505
ZGKL,2008-11-15 06:00,ZGKL 150600Z AUTO 22002KT 4SM 24/12 A2994 RMK SLP150 T02350125 57041 IEM_DS3505
ZGKL,2008-11-15 07:00,ZGKL 150700Z AUTO 13004KT 5SM 24/11 A2994 RMK T02400110 IEM_DS3505
ZGKL,2008-11-15 08:00,ZGKL 150800Z AUTO 14004KT 5SM 23/12 A2991 RMK T02300120 IEM_DS3505
ZGKL,2008-11-15 09:00,ZGKL 150900Z AUTO 11002KT 6SM 24/12 A2991 RMK SLP135 T02370124 57014 IEM_DS3505
ZGKL,2008-11-15 10:00,ZGKL 151000Z AUTO 00000KT 4SM 20/15 A2991 RMK T02000150 IEM_DS3505
ZGKL,2008-11-15 11:00,ZGKL 151100Z AUTO 27004KT 2 1/2SM 19/16 A2994 RMK T01900160 IEM_DS3505
ZGKL,2008-11-15 12:00,ZGKL 151200Z AUTO 02004KT 7SM 20/15 A2997 RMK SLP154 T01970149 52017 IEM_DS3505
ZGKL,2008-11-15 13:00,ZGKL 151300Z AUTO 30004KT 2 1/2SM 17/16 A2997 RMK T01700160 IEM_DS3505
ZGKL,2008-11-15 14:00,ZGKL 151400Z AUTO 34004KT 2 1/2SM 17/16 A3000 RMK T01700160 IEM_DS3505
ZGKL,2008-11-15 15:00,ZGKL 151500Z AUTO 02006KT 7SM 19/12 A3000 RMK SLP168 T01920122 52015 IEM_DS3505
ZGKL,2008-11-15 16:00,ZGKL 151600Z AUTO 00000KT 2 1/2SM 15/15 A3003 RMK T01500150 IEM_DS3505
ZGKL,2008-11-15 17:00,ZGKL 151700Z AUTO 3SM 15/14 A3003 RMK T01500140 IEM_DS3505
ZGKL,2008-11-15 18:00,ZGKL 151800Z AUTO 02004KT 7SM 18/12 A3000 RMK SLP169 T01780125 52002 IEM_DS3505
ZGKL,2008-11-15 19:00,ZGKL 151900Z AUTO 00000KT 2SM 15/15 A3000 RMK T01500150 IEM_DS3505
ZGKL,2008-11-15 20:00,ZGKL 152000Z AUTO 00000KT 1 1/2SM 15/15 A3000 RMK T01500150 IEM_DS3505
ZGKL,2008-11-15 21:00,ZGKL 152100Z AUTO 36004KT 7SM 18/12 A3000 RMK SLP161 T01780125 57008 IEM_DS3505
ZGKL,2008-11-15 22:00,ZGKL 152200Z AUTO 2SM 15/15 A3000 RMK T01500150 IEM_DS3505
ZGKL,2008-11-15 23:00,ZGKL 152300Z AUTO 27002KT 2 1/2SM 16/15 A3003 RMK T01600150 IEM_DS3505
ZGKL,2008-11-16 00:00,ZGKL 160000Z AUTO 02004KT 5SM 18/12 A3003 RMK SLP179 T01750122 52017 IEM_DS3505
ZGKL,2008-11-16 01:00,ZGKL 160100Z AUTO 00000KT 2 1/2SM 17/16 A3006 RMK T01700160 IEM_DS3505
ZGKL,2008-11-16 02:00,ZGKL 160200Z AUTO 2 1/2SM 19/15 A3006 RMK T01900150 IEM_DS3505
ZGKL,2008-11-16 03:00,ZGKL 160300Z AUTO 02006KT 4SM 20/12 A3003 RMK SLP180 T02020122 52001 IEM_DS3505
ZGKL,2008-11-16 04:00,ZGKL 160400Z AUTO 2 1/2SM 21/14 A3000 RMK T02100140 IEM_DS3505
ZGKL,2008-11-16 05:00,ZGKL 160500Z AUTO 3SM 22/13 A2997 RMK T02200130 IEM_DS3505
ZGKL,2008-11-16 06:00,ZGKL 160600Z AUTO 36006KT 4SM 23/13 A2991 RMK SLP137 T02280127 57041 IEM_DS3505
ZGKL,2008-11-16 07:00,ZGKL 160700Z AUTO 09004KT 3SM 23/13 A2991 RMK T02300130 IEM_DS3505
ZGKL,2008-11-16 08:00,ZGKL 160800Z AUTO 06006KT 3SM 23/13 A2988 RMK T02300130 IEM_DS3505
ZGKL,2008-11-16 09:00,ZGKL 160900Z AUTO 02008KT 4SM 21/12 A2988 RMK SLP129 T02110125 57009 IEM_DS3505
ZGKL,2008-11-16 10:00,ZGKL 161000Z AUTO 07006KT 3SM 20/13 A2991 RMK T02000130 IEM_DS3505
ZGKL,2008-11-16 11:00,ZGKL 161100Z AUTO 06008KT 3SM 19/13 A2991 RMK T01900130 IEM_DS3505
ZGKL,2008-11-16 12:00,ZGKL 161200Z AUTO 02008KT 4SM 19/12 A2994 RMK SLP149 T01900125 52019 IEM_DS3505
ZGKL,2008-11-16 13:00,ZGKL 161300Z AUTO 2 1/2SM 18/14 A2997 RMK T01800140 IEM_DS3505
ZGKL,2008-11-16 14:00,ZGKL 161400Z AUTO 2SM 17/14 A2997 RMK T01700140 IEM_DS3505
ZGKL,2008-11-16 15:00,ZGKL 161500Z AUTO 02006KT 4SM 18/12 A3000 RMK SLP161 T01800125 52012 IEM_DS3505
ZGKL,2008-11-16 16:00,ZGKL 161600Z AUTO 08004KT 1 1/2SM 17/14 A3000 RMK T01700140 IEM_DS3505
ZGKL,2008-11-16 17:00,ZGKL 161700Z AUTO 1 1/4SM 17/14 A3000 RMK T01700140 IEM_DS3505
ZGKL,2008-11-16 18:00,ZGKL 161800Z AUTO 04002KT 4SM 17/13 A3000 RMK SLP168 T01730126 52008 IEM_DS3505
ZGKL,2008-11-16 19:00,ZGKL 161900Z AUTO 1 1/4SM 16/14 A3000 RMK T01600140 IEM_DS3505
ZGKL,2008-11-16 20:00,ZGKL 162000Z AUTO 1SM 15/14 A3000 RMK T01500140 IEM_DS3505
ZGKL,2008-11-16 21:00,ZGKL 162100Z AUTO 02006KT 4SM 17/12 A3000 RMK SLP164 T01710124 57005 IEM_DS3505
ZGKL,2008-11-16 22:00,ZGKL 162200Z AUTO 1 1/2SM 16/14 A3000 RMK T01600140 IEM_DS3505
ZGKL,2008-11-16 23:00,ZGKL 162300Z AUTO 00000KT 1SM 15/15 A3003 RMK T01500150 IEM_DS3505
ZGKL,2008-11-17 00:00,ZGKL 170000Z AUTO 02008KT 3SM 16/13 A3006 RMK 60004 70004 SLP190 T01550133 52025 IEM_DS3505
ZGKL,2008-11-17 01:00,ZGKL 170100Z AUTO 1/2SM 15/15 A3009 RMK T01500150 IEM_DS3505
ZGKL,2008-11-17 02:00,ZGKL 170200Z AUTO 3/8SM 15/15 A3009 RMK T01500150 IEM_DS3505
ZGKL,2008-11-17 03:00,ZGKL 170300Z AUTO 02008KT 4SM 14/14 A3009 RMK SLP200 T01430137 52009 IEM_DS3505
ZGKL,2008-11-17 04:00,ZGKL 170400Z AUTO 1/2SM 14/14 A3009 RMK T01400140 IEM_DS3505
ZGKL,2008-11-17 05:00,ZGKL 170500Z AUTO 1SM 14/14 A3006 RMK T01400140 IEM_DS3505
ZGKL,2008-11-17 06:00,ZGKL 170600Z AUTO 02006KT 3SM 14/14 A3006 RMK 60035 SLP185 T01400137 57015 IEM_DS3505
ZGKL,2008-11-17 07:00,ZGKL 170700Z AUTO 1SM 14/14 A3006 RMK T01400140 IEM_DS3505
ZGKL,2008-11-17 08:00,ZGKL 170800Z AUTO 09004KT 1SM 14/14 A3006 RMK T01400140 IEM_DS3505
ZGKL,2008-11-17 09:00,ZGKL 170900Z AUTO 02006KT 3SM 13/13 A3006 RMK SLP190 T01340129 52004 IEM_DS3505
ZGKL,2008-11-17 10:00,ZGKL 171000Z AUTO 2 1/2SM 14/14 A3009 RMK T01400140 IEM_DS3505
ZGKL,2008-11-17 11:00,ZGKL 171100Z AUTO 05004KT 2 1/2SM 14/13 A3009 RMK T01400130 IEM_DS3505
ZGKL,2008-11-17 12:00,ZGKL 171200Z AUTO 02010KT 7SM 14/11 A3012 RMK 60008 SLP215 T01350112 52024 IEM_DS3505
ZGKL,2008-11-17 13:00,ZGKL 171300Z AUTO 09004KT 3SM 14/13 A3015 RMK T01400130 IEM_DS3505
ZGKL,2008-11-17 14:00,ZGKL 171400Z AUTO 05004KT 5SM 13/12 A3018 RMK T01300120 IEM_DS3505
ZGKL,2008-11-17 15:00,ZGKL 171500Z AUTO 02008KT 8SM 13/09 A3021 RMK SLP241 T01270092 52025 IEM_DS3505
ZGKL,2008-11-17 16:00,ZGKL 171600Z AUTO 04010KT 5SM 13/11 A3021 RMK T01300110 IEM_DS3505
ZGKL,2008-11-17 17:00,ZGKL 171700Z AUTO 04008KT 7SM 12/10 A3021 RMK T01200100 IEM_DS3505
ZGKL,2008-11-17 18:00,ZGKL 171800Z AUTO 02010KT 8SM 12/08 A3021 RMK SLP243 T01180081 52002 IEM_DS3505
ZGKL,2008-11-17 19:00,ZGKL 171900Z AUTO 07010KT 7SM 11/10 A3021 RMK T01100100 IEM_DS3505
ZGKL,2008-11-17 20:00,ZGKL 172000Z AUTO 06008KT 7SM 11/10 A3021 RMK T01100100 IEM_DS3505
ZGKL,2008-11-17 21:00,ZGKL 172100Z AUTO 02006KT 7SM 11/09 A3021 RMK 70048 SLP245 T01120086 52001 IEM_DS3505
ZGKL,2008-11-17 22:00,ZGKL 172200Z AUTO 4SM 11/10 A3024 RMK T01100100 IEM_DS3505
ZGKL,2008-11-17 23:00,ZGKL 172300Z AUTO 4SM 11/10 A3027 RMK T01100100 IEM_DS3505
ZGKL,2008-11-18 00:00,ZGKL 180000Z AUTO 36010KT 9SM 11/08 A3027 RMK 60001 70046 SLP267 T01130083 52022 IEM_DS3505
ZGKL,2008-11-18 01:00,ZGKL 180100Z AUTO 05006KT 7SM 11/10 A3030 RMK T01100100 IEM_DS3505
ZGKL,2008-11-18 02:00,ZGKL 180200Z AUTO 03008KT 7SM 12/10 A3030 RMK T01200100 IEM_DS3505
ZGKL,2008-11-18 03:00,ZGKL 180300Z AUTO 02012KT 11SM 13/08 A3030 RMK SLP272 T01290084 52005 IEM_DS3505
ZGKL,2008-11-18 04:00,ZGKL 180400Z AUTO 03014KT 7SM 14/09 A3027 RMK T01400090 IEM_DS3505
ZGKL,2008-11-18 05:00,ZGKL 180500Z AUTO 05010KT 7SM 14/09 A3027 RMK T01400090 IEM_DS3505
ZGKL,2008-11-18 06:00,ZGKL 180600Z AUTO 02008KT 11SM 13/08 A3024 RMK SLP253 T01320085 57019 IEM_DS3505
ZGKL,2008-11-18 07:00,ZGKL 180700Z AUTO 05010KT 7SM 14/09 A3024 RMK T01400090 IEM_DS3505
ZGKL,2008-11-18 08:00,ZGKL 180800Z AUTO 05010KT 7SM 14/09 A3024 RMK T01400090 IEM_DS3505
ZGKL,2008-11-18 09:00,ZGKL 180900Z AUTO 36008KT 10SM 13/08 A3024 RMK SLP253 T01270082 54000 IEM_DS3505
ZGKL,2008-11-18 10:00,ZGKL 181000Z AUTO 04008KT 7SM 13/09 A3024 RMK T01300090 IEM_DS3505
ZGKL,2008-11-18 11:00,ZGKL 181100Z AUTO 03006KT 5SM 12/09 A3027 RMK T01200090 IEM_DS3505
ZGKL,2008-11-18 12:00,ZGKL 181200Z AUTO 02008KT 9SM 12/08 A3030 RMK SLP277 T01210082 52023 IEM_DS3505
ZGKL,2008-11-18 13:00,ZGKL 181300Z AUTO 02008KT 4SM 12/09 A3033 RMK T01200090 IEM_DS3505
ZGKL,2008-11-18 14:00,ZGKL 181400Z AUTO 34008KT 4SM 12/09 A3036 RMK T01200090 IEM_DS3505
ZGKL,2008-11-18 15:00,ZGKL 181500Z AUTO 02008KT 9SM 12/07 A3036 RMK SLP295 T01250074 52018 IEM_DS3505
ZGKL,2008-11-18 16:00,ZGKL 181600Z AUTO 03006KT 7SM 12/08 A3036 RMK T01200080 IEM_DS3505
ZGKL,2008-11-18 17:00,ZGKL 181700Z AUTO 03006KT 4SM 12/08 A3036 RMK T01200080 IEM_DS3505
ZGKL,2008-11-18 18:00,ZGKL 181800Z AUTO 02006KT 9SM 13/06 A3036 RMK SLP288 T01270056 57006 IEM_DS3505
ZGKL,2008-11-18 19:00,ZGKL 181900Z AUTO 4SM 12/08 A3036 RMK T01200080 IEM_DS3505
ZGKL,2008-11-18 20:00,ZGKL 182000Z AUTO 04006KT 4SM 12/07 A3036 RMK T01200070 IEM_DS3505
ZGKL,2008-11-18 21:00,ZGKL 182100Z AUTO 02010KT 9SM 13/04 A3036 RMK 70001 SLP292 T01260043 52003 IEM_DS3505
ZGKL,2008-11-18 22:00,ZGKL 182200Z AUTO 06004KT 4SM 12/07 A3039 RMK T01200070 IEM_DS3505
ZGKL,2008-11-18 23:00,ZGKL 182300Z AUTO 06006KT 4SM 12/06 A3039 RMK T01200060 IEM_DS3505
ZGKL,2008-11-19 00:00,ZGKL 190000Z AUTO 02010KT 9SM 12/02 A3042 RMK SLP313 T01250015 52021 IEM_DS3505
ZGKL,2008-11-19 01:00,ZGKL 190100Z AUTO 05008KT 7SM 13/05 A3045 RMK T01300050 IEM_DS3505
ZGKL,2008-11-19 02:00,ZGKL 190200Z AUTO 04006KT 7SM 13/03 A3045 RMK T01300030 IEM_DS3505
ZGKL,2008-11-19 03:00,ZGKL 190300Z AUTO 02010KT 9SM 14/M00 A3045 RMK SLP323 T01391002 52010 IEM_DS3505
ZGKL,2008-11-19 04:00,ZGKL 190400Z AUTO 06006KT 7SM 14/02 A3045 RMK T01400020 IEM_DS3505
ZGKL,2008-11-19 05:00,ZGKL 190500Z AUTO 04008KT 7SM 15/00 A3042 RMK T01500000 IEM_DS3505
ZGKL,2008-11-19 06:00,ZGKL 190600Z AUTO 36008KT 9SM 14/00 A3036 RMK SLP296 T01450000 57026 IEM_DS3505
ZGKL,2008-11-19 07:00,ZGKL 190700Z AUTO 03012KT 7SM 15/M02 A3036 RMK T01501020 IEM_DS3505
ZGKL,2008-11-19 08:00,ZGKL 190800Z AUTO 03012KT 7SM 15/M01 A3036 RMK T01501010 IEM_DS3505
ZGKL,2008-11-19 09:00,ZGKL 190900Z AUTO 02010KT 9SM 14/M01 A3036 RMK SLP292 T01381010 57004 IEM_DS3505
ZGKL,2008-11-19 10:00,ZGKL 191000Z AUTO 02008KT 6SM 13/00 A3036 RMK T01300000 IEM_DS3505
ZGKL,2008-11-19 11:00,ZGKL 191100Z AUTO 03010KT 6SM 13/M01 A3039 RMK T01301010 IEM_DS3505
ZGKL,2008-11-19 12:00,ZGKL 191200Z AUTO 02010KT 9SM 13/00 A3039 RMK SLP304 T01290003 52011 IEM_DS3505
ZGKL,2008-11-19 13:00,ZGKL 191300Z AUTO 01006KT 6SM 12/00 A3042 RMK T01200000 IEM_DS3505
ZGKL,2008-11-19 14:00,ZGKL 191400Z AUTO 02006KT 6SM 12/M01 A3042 RMK T01201010 IEM_DS3505
ZGKL,2008-11-19 15:00,ZGKL 191500Z AUTO 02006KT 9SM 11/00 A3042 RMK SLP308 T01140005 52004 IEM_DS3505
ZGKL,2008-11-19 16:00,ZGKL 191600Z AUTO 35004KT 6SM 10/02 A3042 RMK T01000020 IEM_DS3505
ZGKL,2008-11-19 17:00,ZGKL 191700Z AUTO 6SM 10/03 A3039 RMK T01000030 IEM_DS3505
ZGKL,2008-11-19 18:00,ZGKL 191800Z AUTO 02006KT 9SM 11/00 A3036 RMK SLP299 T01120000 57009 IEM_DS3505
ZGKL,2008-11-19 19:00,ZGKL 191900Z AUTO 04004KT 6SM 09/04 A3036 RMK T00900040 IEM_DS3505
ZGKL,2008-11-19 20:00,ZGKL 192000Z AUTO 6SM 10/04 A3036 RMK T01000040 IEM_DS3505
ZGKL,2008-11-19 21:00,ZGKL 192100Z AUTO 02004KT 9SM 11/01 A3036 RMK SLP292 T01080008 57007 IEM_DS3505
ZGKL,2008-11-19 22:00,ZGKL 192200Z AUTO 03004KT 6SM 09/06 A3036 RMK T00900060 IEM_DS3505
ZGKL,2008-11-19 23:00,ZGKL 192300Z AUTO 6SM 09/07 A3036 RMK T00900070 IEM_DS3505
ZGKL,2008-11-20 00:00,ZGKL 200000Z AUTO 02004KT 10SM 11/01 A3036 RMK SLP297 T01080011 52005 IEM_DS3505
ZGKL,2008-11-20 01:00,ZGKL 200100Z AUTO 6SM 11/07 A3039 RMK T01100070 IEM_DS3505
ZGKL,2008-11-20 02:00,ZGKL 200200Z AUTO 6SM 13/01 A3039 RMK T01300010 IEM_DS3505
ZGKL,2008-11-20 03:00,ZGKL 200300Z AUTO 02004KT 11SM 15/M00 A3036 RMK SLP285 T01481005 57011 IEM_DS3505
ZGKL,2008-11-20 04:00,ZGKL 200400Z AUTO 6SM 16/M02 A3030 RMK T01601020 IEM_DS3505
ZGKL,2008-11-20 05:00,ZGKL 200500Z AUTO 6SM 17/M03 A3024 RMK T01701030 IEM_DS3505
ZGKL,2008-11-20 06:00,ZGKL 200600Z AUTO 04002KT 11SM 18/M02 A3021 RMK SLP235 T01821016 57048 IEM_DS3505
ZGKL,2008-11-20 07:00,ZGKL 200700Z AUTO 6SM 17/M02 A3015 RMK T01701020 IEM_DS3505
ZGKL,2008-11-20 08:00,ZGKL 200800Z AUTO 6SM 18/M03 A3015 RMK T01801030 IEM_DS3505
ZGKL,2008-11-20 09:00,ZGKL 200900Z AUTO 04006KT 11SM 17/M01 A3015 RMK SLP218 T01731009 57017 IEM_DS3505
ZGKL,2008-11-20 10:00,ZGKL 201000Z AUTO 11002KT 6SM 15/02 A3015 RMK T01500020 IEM_DS3505
ZGKL,2008-11-20 11:00,ZGKL 201100Z AUTO 6SM 12/06 A3018 RMK T01200060 IEM_DS3505
ZGKL,2008-11-20 12:00,ZGKL 201200Z AUTO 02006KT 11SM 14/02 A3018 RMK SLP236 T01360016 52016 IEM_DS3505
ZGKL,2008-11-20 13:00,ZGKL 201300Z AUTO 6SM 12/03 A3021 RMK T01200030 IEM_DS3505
ZGKL,2008-11-20 14:00,ZGKL 201400Z AUTO 6SM 13/01 A3024 RMK T01300010 IEM_DS3505
ZGKL,2008-11-20 15:00,ZGKL 201500Z AUTO 02006KT 10SM 13/01 A3024 RMK SLP247 T01290010 52012 IEM_DS3505
ZGKL,2008-11-20 16:00,ZGKL 201600Z AUTO 06004KT 6SM 12/02 A3024 RMK T01200020 IEM_DS3505
ZGKL,2008-11-20 17:00,ZGKL 201700Z AUTO 6SM 12/01 A3024 RMK T01200010 IEM_DS3505
ZGKL,2008-11-20 18:00,ZGKL 201800Z AUTO 02004KT 10SM 12/02 A3024 RMK SLP248 T01240017 52002 IEM_DS3505
ZGKL,2008-11-20 19:00,ZGKL 201900Z AUTO 6SM 12/01 A3024 RMK T01200010 IEM_DS3505
ZGKL,2008-11-20 20:00,ZGKL 202000Z AUTO 06002KT 6SM 12/02 A3024 RMK T01200020 IEM_DS3505
ZGKL,2008-11-20 21:00,ZGKL 202100Z AUTO 02004KT 9SM 12/01 A3024 RMK SLP250 T01180009 52002 IEM_DS3505
ZGKL,2008-11-20 22:00,ZGKL 202200Z AUTO 04004KT 7SM 11/02 A3024 RMK T01100020 IEM_DS3505
ZGKL,2008-11-20 23:00,ZGKL 202300Z AUTO 7SM 11/02 A3027 RMK T01100020 IEM_DS3505
ZGKL,2008-11-21 00:00,ZGKL 210000Z AUTO 36004KT 9SM 12/02 A3030 RMK SLP267 T01160024 52015 IEM_DS3505
ZGKL,2008-11-21 01:00,ZGKL 210100Z AUTO 03006KT 7SM 11/02 A3030 RMK T01100020 IEM_DS3505
ZGKL,2008-11-21 02:00,ZGKL 210200Z AUTO 7SM 12/02 A3030 RMK T01200020 IEM_DS3505
ZGKL,2008-11-21 03:00,ZGKL 210300Z AUTO 02004KT 9SM 13/03 A3027 RMK SLP265 T01300031 57002 IEM_DS3505
ZGKL,2008-11-21 04:00,ZGKL 210400Z AUTO 7SM 14/03 A3024 RMK T01400030 IEM_DS3505
ZGKL,2008-11-21 05:00,ZGKL 210500Z AUTO 7SM 15/03 A3021 RMK T01500030 IEM_DS3505
ZGKL,2008-11-21 06:00,ZGKL 210600Z AUTO 02006KT 9SM 16/03 A3015 RMK SLP225 T01590030 57038 IEM_DS3505
ZGKL,2008-11-21 07:00,ZGKL 210700Z AUTO 06004KT 7SM 16/03 A3012 RMK T01600030 IEM_DS3505
ZGKL,2008-11-21 08:00,ZGKL 210800Z AUTO 06004KT 7SM 16/03 A3012 RMK T01600030 IEM_DS3505
ZGKL,2008-11-21 09:00,ZGKL 210900Z AUTO 02006KT 11SM 15/05 A3012 RMK SLP212 T01500047 57013 IEM_DS3505
ZGKL,2008-11-21 10:00,ZGKL 211000Z AUTO 05006KT 7SM 14/04 A3012 RMK T01400040 IEM_DS3505
ZGKL,2008-11-21 11:00,ZGKL 211100Z AUTO 05006KT 7SM 14/04 A3015 RMK T01400040 IEM_DS3505
ZGKL,2008-11-21 12:00,ZGKL 211200Z AUTO 36004KT 9SM 14/06 A3015 RMK SLP226 T01390058 52013 IEM_DS3505
ZGKL,2008-11-21 13:00,ZGKL 211300Z AUTO 05004KT 4SM 13/05 A3018 RMK T01300050 IEM_DS3505
ZGKL,2008-11-21 14:00,ZGKL 211400Z AUTO 4SM 13/05 A3018 RMK T01300050 IEM_DS3505
ZGKL,2008-11-21 15:00,ZGKL 211500Z AUTO 02004KT 9SM 13/06 A3018 RMK SLP231 T01330064 52005 IEM_DS3505
ZGKL,2008-11-21 16:00,ZGKL 211600Z AUTO 4SM 13/06 A3018 RMK T01300060 IEM_DS3505
ZGKL,2008-11-21 17:00,ZGKL 211700Z AUTO 4SM 13/06 A3018 RMK T01300060 IEM_DS3505
ZGKL,2008-11-21 18:00,ZGKL 211800Z AUTO 02004KT 9SM 13/06 A3015 RMK SLP225 T01280064 57005 IEM_DS3505
ZGKL,2008-11-21 19:00,ZGKL 211900Z AUTO 04004KT 3SM 12/08 A3015 RMK T01200080 IEM_DS3505
ZGKL,2008-11-21 20:00,ZGKL 212000Z AUTO 2 1/2SM 12/08 A3015 RMK T01200080 IEM_DS3505
ZGKL,2008-11-21 21:00,ZGKL 212100Z AUTO 36004KT 9SM 12/06 A3015 RMK SLP225 T01200063 57001 IEM_DS3505
ZGKL,2008-11-21 22:00,ZGKL 212200Z AUTO 3SM 12/09 A3015 RMK T01200090 IEM_DS3505
ZGKL,2008-11-21 23:00,ZGKL 212300Z AUTO 07004KT 3SM 12/08 A3018 RMK T01200080 IEM_DS3505
ZGKL,2008-11-22 00:00,ZGKL 220000Z AUTO 02004KT 9SM 12/07 A3021 RMK SLP239 T01230068 52014 IEM_DS3505
ZGKL,2008-11-22 01:00,ZGKL 220100Z AUTO 4SM 12/08 A3024 RMK T01200080 IEM_DS3505
ZGKL,2008-11-22 02:00,ZGKL 220200Z AUTO 3SM 13/08 A3024 RMK T01300080 IEM_DS3505
ZGKL,2008-11-22 03:00,ZGKL 220300Z AUTO 36004KT 8SM 14/07 A3024 RMK SLP246 T01370070 52007 IEM_DS3505
ZGKL,2008-11-22 04:00,ZGKL 220400Z AUTO 4SM 13/08 A3021 RMK T01300080 IEM_DS3505
ZGKL,2008-11-22 05:00,ZGKL 220500Z AUTO 05004KT 4SM 14/08 A3018 RMK T01400080 IEM_DS3505
ZGKL,2008-11-22 06:00,ZGKL 220600Z AUTO 02004KT 8SM 14/07 A3015 RMK SLP220 T01420070 57026 IEM_DS3505
ZGKL,2008-11-22 07:00,ZGKL 220700Z AUTO 4SM 14/10 A3012 RMK T01400100 IEM_DS3505
ZGKL,2008-11-22 08:00,ZGKL 220800Z AUTO 06004KT 4SM 14/09 A3012 RMK T01400090 IEM_DS3505
ZGKL,2008-11-22 09:00,ZGKL 220900Z AUTO 02004KT 8SM 13/08 A3012 RMK SLP214 T01320079 57006 IEM_DS3505
ZGKL,2008-11-22 10:00,ZGKL 221000Z AUTO 06006KT 3SM 13/09 A3015 RMK T01300090 IEM_DS3505
ZGKL,2008-11-22 11:00,ZGKL 221100Z AUTO 07006KT 3SM 13/09 A3015 RMK T01300090 IEM_DS3505
ZGKL,2008-11-22 12:00,ZGKL 221200Z AUTO 02006KT 7SM 12/07 A3018 RMK SLP233 T01250074 52018 IEM_DS3505
ZGKL,2008-11-22 13:00,ZGKL 221300Z AUTO 06006KT 3SM 12/09 A3018 RMK T01200090 IEM_DS3505
ZGKL,2008-11-22 14:00,ZGKL 221400Z AUTO 3SM 12/08 A3021 RMK T01200080 IEM_DS3505
ZGKL,2008-11-22 15:00,ZGKL 221500Z AUTO 02006KT 7SM 13/07 A3021 RMK SLP244 T01260071 52012 IEM_DS3505
ZGKL,2008-11-22 16:00,ZGKL 221600Z AUTO 2 1/2SM 12/09 A3021 RMK T01200090 IEM_DS3505
ZGKL,2008-11-22 17:00,ZGKL 221700Z AUTO 07002KT 2SM 12/09 A3021 RMK T01200090 IEM_DS3505
ZGKL,2008-11-22 18:00,ZGKL 221800Z AUTO 36002KT 7SM 12/07 A3021 RMK SLP240 T01250074 57004 IEM_DS3505
ZGKL,2008-11-22 19:00,ZGKL 221900Z AUTO 00000KT 2 1/2SM 12/09 A3018 RMK T01200090 IEM_DS3505
ZGKL,2008-11-22 20:00,ZGKL 222000Z AUTO 04004KT 2 1/2SM 12/09 A3018 RMK T01200090 IEM_DS3505
ZGKL,2008-11-22 21:00,ZGKL 222100Z AUTO 02008KT 7SM 12/07 A3018 RMK SLP233 T01200073 57007 IEM_DS3505
ZGKL,2008-11-22 22:00,ZGKL 222200Z AUTO 33002KT 3SM 12/10 A3021 RMK T01200100 IEM_DS3505
ZGKL,2008-11-22 23:00,ZGKL 222300Z AUTO 33004KT 1 1/2SM 11/11 A3024 RMK T01100110 IEM_DS3505
ZGKL,2008-11-23 00:00,ZGKL 230000Z AUTO 02008KT 5SM 11/08 A3024 RMK 60000 70000 SLP255 T01110080 52021 IEM_DS3505
ZGKL,2008-11-23 01:00,ZGKL 230100Z AUTO 06004KT 1SM 11/10 A3027 RMK T01100100 IEM_DS3505
ZGKL,2008-11-23 02:00,ZGKL 230200Z AUTO 05004KT 1 1/4SM 11/10 A3030 RMK T01100100 IEM_DS3505
ZGKL,2008-11-23 03:00,ZGKL 230300Z AUTO 02008KT 4SM 12/09 A3030 RMK SLP270 T01150091 52014 IEM_DS3505
ZGKL,2008-11-23 04:00,ZGKL 230400Z AUTO 2 1/2SM 12/10 A3027 RMK T01200100 IEM_DS3505
ZGKL,2008-11-23 05:00,ZGKL 230500Z AUTO 2 1/2SM 13/10 A3024 RMK T01300100 IEM_DS3505
ZGKL,2008-11-23 06:00,ZGKL 230600Z AUTO 04004KT 7SM 14/09 A3021 RMK 60008 SLP243 T01350092 57025 IEM_DS3505
ZGKL,2008-11-23 07:00,ZGKL 230700Z AUTO 3SM 13/11 A3021 RMK T01300110 IEM_DS3505
ZGKL,2008-11-23 08:00,ZGKL 230800Z AUTO 00000KT 4SM 14/11 A3018 RMK T01400110 IEM_DS3505
ZGKL,2008-11-23 09:00,ZGKL 230900Z AUTO 02004KT 10SM 14/09 A3018 RMK SLP236 T01350088 57007 IEM_DS3505
ZGKL,2008-11-23 10:00,ZGKL 231000Z AUTO 04008KT 4SM 13/10 A3021 RMK T01300100 IEM_DS3505
ZGKL,2008-11-23 11:00,ZGKL 231100Z AUTO 06010KT 4SM 12/09 A3024 RMK T01200090 IEM_DS3505
ZGKL,2008-11-23 12:00,ZGKL 231200Z AUTO 02004KT 7SM 11/08 A3027 RMK SLP263 T01130082 52025 IEM_DS3505
ZGKL,2008-11-23 13:00,ZGKL 231300Z AUTO 04008KT 4SM 12/09 A3027 RMK T01200090 IEM_DS3505
ZGKL,2008-11-23 14:00,ZGKL 231400Z AUTO 03008KT 4SM 12/09 A3030 RMK T01200090 IEM_DS3505
ZGKL,2008-11-23 15:00,ZGKL 231500Z AUTO 36008KT 7SM 11/07 A3030 RMK SLP274 T01120073 52011 IEM_DS3505
ZGKL,2008-11-23 16:00,ZGKL 231600Z AUTO 4SM 10/08 A3030 RMK T01000080 IEM_DS3505
ZGKL,2008-11-23 17:00,ZGKL 231700Z AUTO 33004KT 4SM 09/08 A3030 RMK T00900080 IEM_DS3505
ZGKL,2008-11-23 18:00,ZGKL 231800Z AUTO 02008KT 7SM 10/06 A3030 RMK SLP271 T01040065 57003 IEM_DS3505
ZGKL,2008-11-23 19:00,ZGKL 231900Z AUTO 3SM 08/07 A3030 RMK T00800070 IEM_DS3505
ZGKL,2008-11-23 20:00,ZGKL 232000Z AUTO 00000KT 3SM 07/07 A3027 RMK T00700070 IEM_DS3505
ZGKL,2008-11-23 21:00,ZGKL 232100Z AUTO 02004KT 7SM 10/05 A3027 RMK 70007 SLP263 T00980052 57008 IEM_DS3505
ZGKL,2008-11-23 22:00,ZGKL 232200Z AUTO 05002KT 2 1/2SM 06/06 A3027 RMK T00600060 IEM_DS3505
ZGKL,2008-11-23 23:00,ZGKL 232300Z AUTO 34002KT 2 1/2SM 06/06 A3030 RMK T00600060 IEM_DS3505
ZGKL,2008-11-24 00:00,ZGKL 240000Z AUTO 02004KT 9SM 10/05 A3030 RMK 70007 SLP276 T01010047 52012 IEM_DS3505
ZGKL,2008-11-24 01:00,ZGKL 240100Z AUTO 4SM 10/09 A3033 RMK T01000090 IEM_DS3505
ZGKL,2008-11-24 02:00,ZGKL 240200Z AUTO 6SM 13/07 A3033 RMK T01300070 IEM_DS3505
ZGKL,2008-11-24 03:00,ZGKL 240300Z AUTO 02006KT 11SM 16/03 A3033 RMK SLP274 T01580026 54000 IEM_DS3505
ZGKL,2008-11-24 04:00,ZGKL 240400Z AUTO 06008KT 6SM 18/03 A3027 RMK T01800030 IEM_DS3505
ZGKL,2008-11-24 05:00,ZGKL 240500Z AUTO 07008KT 6SM 18/02 A3021 RMK T01800020 IEM_DS3505
ZGKL,2008-11-24 06:00,ZGKL 240600Z AUTO 02006KT 14SM 19/02 A3018 RMK SLP224 T01900019 57048 IEM_DS3505
ZGKL,2008-11-24 07:00,ZGKL 240700Z AUTO 06006KT 6SM 20/02 A3015 RMK T02000020 IEM_DS3505
ZGKL,2008-11-24 08:00,ZGKL 240800Z AUTO 06006KT 6SM 20/02 A3015 RMK T02000020 IEM_DS3505
ZGKL,2008-11-24 09:00,ZGKL 240900Z AUTO 02004KT 14SM 19/03 A3015 RMK SLP221 T01890031 57003 IEM_DS3505
ZGKL,2008-11-24 10:00,ZGKL 241000Z AUTO 05006KT 6SM 16/04 A3018 RMK T01600040 IEM_DS3505
ZGKL,2008-11-24 11:00,ZGKL 241100Z AUTO 05006KT 6SM 15/04 A3021 RMK T01500040 IEM_DS3505
ZGKL,2008-11-24 12:00,ZGKL 241200Z AUTO 36006KT 12SM 14/04 A3024 RMK SLP250 T01440035 52027 IEM_DS3505
ZGKL,2008-11-24 13:00,ZGKL 241300Z AUTO 6SM 12/05 A3027 RMK T01200050 IEM_DS3505
ZGKL,2008-11-24 14:00,ZGKL 241400Z AUTO 6SM 12/04 A3027 RMK T01200040 IEM_DS3505
ZGKL,2008-11-24 15:00,ZGKL 241500Z AUTO 02006KT 11SM 13/04 A3027 RMK SLP265 T01320041 52016 IEM_DS3505
ZGKL,2008-11-24 16:00,ZGKL 241600Z AUTO 4SM 09/08 A3030 RMK T00900080 IEM_DS3505
ZGKL,2008-11-24 17:00,ZGKL 241700Z AUTO 3SM 08/07 A3030 RMK T00800070 IEM_DS3505
ZGKL,2008-11-24 18:00,ZGKL 241800Z AUTO 00000KT 4SM 08/07 A3030 RMK T00800070 IEM_DS3505
ZGKL,2008-11-24 19:00,ZGKL 241900Z AUTO 32004KT 3SM 08/07 A3030 RMK T00800070 IEM_DS3505
ZGKL,2008-11-24 20:00,ZGKL 242000Z AUTO 33002KT 3SM 09/08 A3030 RMK T00900080 IEM_DS3505
ZGKL,2008-11-24 21:00,ZGKL 242100Z AUTO 36006KT 9SM 12/05 A3030 RMK SLP267 T01200047 57005 IEM_DS3505
ZGKL,2008-11-24 22:00,ZGKL 242200Z AUTO 30004KT 5SM 09/08 A3030 RMK T00900080 IEM_DS3505
ZGKL,2008-11-24 23:00,ZGKL 242300Z AUTO 00000KT 4SM 08/08 A3033 RMK T00800080 IEM_DS3505
ZGKL,2008-11-25 00:00,ZGKL 250000Z AUTO 36008KT 9SM 12/04 A3036 RMK SLP287 T01220042 52018 IEM_DS3505
ZGKL,2008-11-25 01:00,ZGKL 250100Z AUTO 6SM 11/09 A3039 RMK T01100090 IEM_DS3505
ZGKL,2008-11-25 02:00,ZGKL 250200Z AUTO 02008KT 6SM 15/08 A3039 RMK T01500080 IEM_DS3505
ZGKL,2008-11-25 03:00,ZGKL 250300Z AUTO 02008KT 9SM 16/04 RMK SLP287 T01640041 52001 IEM_DS3505
ZGKL,2008-11-25 04:00,ZGKL 250400Z AUTO 06008KT 6SM 18/03 A3030 RMK T01800030 IEM_DS3505
ZGKL,2008-11-25 05:00,ZGKL 250500Z AUTO 05010KT 6SM 19/03 A3027 RMK T01900030 IEM_DS3505
ZGKL,2008-11-25 06:00,ZGKL 250600Z AUTO 02008KT 11SM 19/04 A3021 RMK SLP241 T01930039 57044 IEM_DS3505
ZGKL,2008-11-25 07:00,ZGKL 250700Z AUTO 07006KT 6SM 20/03 A3021 RMK T02000030 IEM_DS3505
ZGKL,2008-11-25 08:00,ZGKL 250800Z AUTO 07006KT 6SM 20/04 A3018 RMK T02000040 IEM_DS3505
ZGKL,2008-11-25 09:00,ZGKL 250900Z AUTO 02006KT 12SM 19/05 A3018 RMK SLP232 T01870052 57010 IEM_DS3505
ZGKL,2008-11-25 10:00,ZGKL 251000Z AUTO 06008KT 6SM 17/05 A3021 RMK T01700050 IEM_DS3505
ZGKL,2008-11-25 11:00,ZGKL 251100Z AUTO 6SM 15/05 A3021 RMK T01500050 IEM_DS3505
ZGKL,2008-11-25 12:00,ZGKL 251200Z AUTO 02008KT 11SM 15/04 A3024 RMK SLP252 T01510045 52019 IEM_DS3505
ZGKL,2008-11-25 13:00,ZGKL 251300Z AUTO 32002KT 6SM 12/07 A3027 RMK T01200070 IEM_DS3505
ZGKL,2008-11-25 14:00,ZGKL 251400Z AUTO 27002KT 4SM 11/08 A3027 RMK T01100080 IEM_DS3505
ZGKL,2008-11-25 15:00,ZGKL 251500Z AUTO 02004KT 10SM 14/05 A3027 RMK SLP261 T01350049 52010 IEM_DS3505
ZGKL,2008-11-25 16:00,ZGKL 251600Z AUTO 33002KT 3SM 09/08 A3027 RMK T00900080 IEM_DS3505
ZGKL,2008-11-25 17:00,ZGKL 251700Z AUTO 3SM 09/08 A3027 RMK T00900080 IEM_DS3505
ZGKL,2008-11-25 18:00,ZGKL 251800Z AUTO 00000KT 2 1/2SM 08/08 A3027 RMK T00800080 IEM_DS3505
ZGKL,2008-11-25 19:00,ZGKL 251900Z AUTO 32004KT 1 1/2SM 08/08 A3027 RMK T00800080 IEM_DS3505
ZGKL,2008-11-25 20:00,ZGKL 252000Z AUTO 2 1/2SM 07/07 A3027 RMK T00700070 IEM_DS3505
ZGKL,2008-11-25 21:00,ZGKL 252100Z AUTO 36004KT 9SM 11/05 A3027 RMK SLP253 T01130054 57008 IEM_DS3505
ZGKL,2008-11-25 22:00,ZGKL 252200Z AUTO 3SM 07/07 A3027 RMK T00700070 IEM_DS3505
ZGKL,2008-11-25 23:00,ZGKL 252300Z AUTO 4SM 07/07 A3027 RMK T00700070 IEM_DS3505
ZGKL,2008-11-26 00:00,ZGKL 260000Z AUTO 36004KT 8SM 11/05 A3030 RMK SLP269 T01130054 52014 IEM_DS3505
ZGKL,2008-11-26 01:00,ZGKL 260100Z AUTO 00000KT 4SM 11/09 A3030 RMK T01100090 IEM_DS3505
ZGKL,2008-11-26 02:00,ZGKL 260200Z AUTO 4SM 13/09 A3030 RMK T01300090 IEM_DS3505
ZGKL,2008-11-26 03:00,ZGKL 260300Z AUTO 36004KT 7SM 16/06 A3027 RMK SLP260 T01640057 57007 IEM_DS3505
ZGKL,2008-11-26 04:00,ZGKL 260400Z AUTO 13004KT 5SM 18/05 A3024 RMK T01800050 IEM_DS3505
ZGKL,2008-11-26 05:00,ZGKL 260500Z AUTO 5SM 19/05 A3021 RMK T01900050 IEM_DS3505
ZGKL,2008-11-26 06:00,ZGKL 260600Z AUTO 02004KT 7SM 20/04 A3018 RMK SLP223 T02050045 57035 IEM_DS3505
ZGKL,2008-11-26 07:00,ZGKL 260700Z AUTO 5SM 21/06 A3015 RMK T02100060 IEM_DS3505
ZGKL,2008-11-26 08:00,ZGKL 260800Z AUTO 07004KT 5SM 20/06 A3015 RMK T02000060 IEM_DS3505
ZGKL,2008-11-26 09:00,ZGKL 260900Z AUTO 02006KT 8SM 20/05 A3018 RMK SLP224 T01970050 54000 IEM_DS3505
ZGKL,2008-11-26 10:00,ZGKL 261000Z AUTO 31002KT 4SM 17/08 A3021 RMK T01700080 IEM_DS3505
ZGKL,2008-11-26 11:00,ZGKL 261100Z AUTO 33002KT 3SM 14/11 A3024 RMK T01400110 IEM_DS3505
ZGKL,2008-11-26 12:00,ZGKL 261200Z AUTO 02008KT 8SM 16/06 A3027 RMK SLP258 T01620058 52032 IEM_DS3505
ZGKL,2008-11-26 13:00,ZGKL 261300Z AUTO 30004KT 2 1/2SM 12/11 A3030 RMK T01200110 IEM_DS3505
ZGKL,2008-11-26 14:00,ZGKL 261400Z AUTO 2 1/2SM 12/09 A3033 RMK T01200090 IEM_DS3505
ZGKL,2008-11-26 15:00,ZGKL 261500Z AUTO 02006KT 8SM 15/06 A3036 RMK SLP290 T01510061 52033 IEM_DS3505
ZGKL,2008-11-26 16:00,ZGKL 261600Z AUTO 3SM 11/08 A3036 RMK T01100080 IEM_DS3505
ZGKL,2008-11-26 17:00,ZGKL 261700Z AUTO 3SM 10/08 A3036 RMK T01000080 IEM_DS3505
ZGKL,2008-11-26 18:00,ZGKL 261800Z AUTO 36008KT 8SM 14/05 A3039 RMK SLP297 T01380054 52007 IEM_DS3505
ZGKL,2008-11-26 19:00,ZGKL 261900Z AUTO 05002KT 3SM 08/08 A3039 RMK T00800080 IEM_DS3505
ZGKL,2008-11-26 20:00,ZGKL 262000Z AUTO 2 1/2SM 08/07 A3042 RMK T00800070 IEM_DS3505
ZGKL,2008-11-26 21:00,ZGKL 262100Z AUTO 02006KT 8SM 12/05 A3042 RMK SLP315 T01230048 52017 IEM_DS3505
ZGKL,2008-11-26 22:00,ZGKL 262200Z AUTO 33006KT 3SM 09/07 A3042 RMK T00900070 IEM_DS3505
ZGKL,2008-11-26 23:00,ZGKL 262300Z AUTO 33006KT 2 1/2SM 08/06 A3045 RMK T00800060 IEM_DS3505
ZGKL,2008-11-27 00:00,ZGKL 270000Z AUTO 02002KT 8SM 11/04 A3045 RMK SLP326 T01120044 52010 IEM_DS3505
ZGKL,2008-11-27 01:00,ZGKL 270100Z AUTO 3SM 11/07 A3047 RMK T01100070 IEM_DS3505
ZGKL,2008-11-27 02:00,ZGKL 270200Z AUTO 05008KT 4SM 14/05 A3047 RMK T01400050 IEM_DS3505
ZGKL,2008-11-27 03:00,ZGKL 270300Z AUTO 04010KT 10SM 14/02 A3045 RMK SLP322 T01450018 57004 IEM_DS3505
ZGKL,2008-11-27 04:00,ZGKL 270400Z AUTO 07012KT 5SM 15/03 A3042 RMK T01500030 IEM_DS3505
ZGKL,2008-11-27 05:00,ZGKL 270500Z AUTO 03008KT 6SM 16/03 A3036 RMK T01600030 IEM_DS3505
ZGKL,2008-11-27 06:00,ZGKL 270600Z AUTO 36008KT 10SM 17/02 A3033 RMK SLP277 T01710019 57043 IEM_DS3505
ZGKL,2008-11-27 07:00,ZGKL 270700Z AUTO 09008KT 6SM 17/03 A3030 RMK T01700030 IEM_DS3505
ZGKL,2008-11-27 08:00,ZGKL 270800Z AUTO 04008KT 6SM 17/01 A3027 RMK T01700010 IEM_DS3505
ZGKL,2008-11-27 09:00,ZGKL 270900Z AUTO 02004KT 9SM 16/01 A3027 RMK SLP265 T01600013 57013 IEM_DS3505
ZGKL,2008-11-27 10:00,ZGKL 271000Z AUTO 04006KT 6SM 13/02 A3030 RMK T01300020 IEM_DS3505
ZGKL,2008-11-27 11:00,ZGKL 271100Z AUTO 34006KT 6SM 11/03 A3030 RMK T01100030 IEM_DS3505
ZGKL,2008-11-27 12:00,ZGKL 271200Z AUTO 02006KT 9SM 12/M01 A3033 RMK SLP284 T01171008 52017 IEM_DS3505
ZGKL,2008-11-27 13:00,ZGKL 271300Z AUTO 6SM 09/02 A3033 RMK T00900020 IEM_DS3505
ZGKL,2008-11-27 14:00,ZGKL 271400Z AUTO 6SM 09/03 A3036 RMK T00900030 IEM_DS3505
ZGKL,2008-11-27 15:00,ZGKL 271500Z AUTO 04002KT 9SM 10/M02 A3039 RMK SLP299 T00971023 52015 IEM_DS3505
ZGKL,2008-11-27 16:00,ZGKL 271600Z AUTO 6SM 06/04 A3036 RMK T00600040 IEM_DS3505
ZGKL,2008-11-27 17:00,ZGKL 271700Z AUTO 33002KT 4SM 05/04 A3036 RMK T00500040 IEM_DS3505
ZGKL,2008-11-27 18:00,ZGKL 271800Z AUTO 02006KT 9SM 09/M03 A3036 RMK SLP291 T00861027 57007 IEM_DS3505
ZGKL,2008-11-27 19:00,ZGKL 271900Z AUTO 21002KT 3SM 03/03 A3036 RMK T00300030 IEM_DS3505
ZGKL,2008-11-27 20:00,ZGKL 272000Z AUTO 34004KT 3SM 03/03 A3033 RMK T00300030 IEM_DS3505
ZGKL,2008-11-27 21:00,ZGKL 272100Z AUTO 02004KT 9SM 07/M02 A3033 RMK SLP283 T00701022 57009 IEM_DS3505
ZGKL,2008-11-27 22:00,ZGKL 272200Z AUTO 2 1/2SM 03/02 A3033 RMK T00300020 IEM_DS3505
ZGKL,2008-11-27 23:00,ZGKL 272300Z AUTO 15002KT 2 1/2SM 02/02 A3033 RMK T00200020 IEM_DS3505
ZGKL,2008-11-28 00:00,ZGKL 280000Z AUTO 34002KT 9SM 07/M02 A3036 RMK SLP293 T00711021 52008 IEM_DS3505
ZGKL,2008-11-28 01:00,ZGKL 280100Z AUTO 6SM 07/06 A3039 RMK T00700060 IEM_DS3505
ZGKL,2008-11-28 02:00,ZGKL 280200Z AUTO 6SM 10/01 A3039 RMK T01000010 IEM_DS3505
ZGKL,2008-11-28 03:00,ZGKL 280300Z AUTO 36004KT 9SM 14/M04 A3036 RMK SLP292 T01371036 52001 IEM_DS3505
ZGKL,2008-11-28 04:00,ZGKL 280400Z AUTO 6SM 15/M02 A3033 RMK T01501020 IEM_DS3505
ZGKL,2008-11-28 05:00,ZGKL 280500Z AUTO 09006KT 6SM 17/M03 A3027 RMK T01701030 IEM_DS3505
ZGKL,2008-11-28 06:00,ZGKL 280600Z AUTO 36004KT 14SM 18/M02 A3024 RMK SLP249 T01811017 57041 IEM_DS3505
ZGKL,2008-11-28 07:00,ZGKL 280700Z AUTO 11006KT 6SM 18/M03 A3021 RMK T01801030 IEM_DS3505
ZGKL,2008-11-28 08:00,ZGKL 280800Z AUTO 09004KT 6SM 18/M03 A3021 RMK T01801030 IEM_DS3505
ZGKL,2008-11-28 09:00,ZGKL 280900Z AUTO 02004KT 16SM 18/M03 A3021 RMK SLP243 T01841031 57007 IEM_DS3505
ZGKL,2008-11-28 10:00,ZGKL 281000Z AUTO 6SM 14/01 A3024 RMK T01400010 IEM_DS3505
ZGKL,2008-11-28 11:00,ZGKL 281100Z AUTO 28002KT 6SM 10/04 A3024 RMK T01000040 IEM_DS3505
ZGKL,2008-11-28 12:00,ZGKL 281200Z AUTO 02006KT 10SM 14/M02 A3027 RMK SLP267 T01351017 52022 IEM_DS3505
ZGKL,2008-11-28 13:00,ZGKL 281300Z AUTO 31004KT 6SM 08/05 A3030 RMK T00800050 IEM_DS3505
ZGKL,2008-11-28 14:00,ZGKL 281400Z AUTO 32002KT 6SM 07/05 A3033 RMK T00700050 IEM_DS3505
ZGKL,2008-11-28 15:00,ZGKL 281500Z AUTO 02004KT 10SM 11/M01 A3033 RMK SLP285 T01141007 52020 IEM_DS3505
ZGKL,2008-11-28 16:00,ZGKL 281600Z AUTO 4SM 05/04 A3036 RMK T00500040 IEM_DS3505
ZGKL,2008-11-28 17:00,ZGKL 281700Z AUTO 33002KT 2 1/2SM 05/04 A3036 RMK T00500040 IEM_DS3505
ZGKL,2008-11-28 18:00,ZGKL 281800Z AUTO 34004KT 10SM 10/M00 A3036 RMK SLP289 T00971005 52004 IEM_DS3505
ZGKL,2008-11-28 19:00,ZGKL 281900Z AUTO 03002KT 2 1/2SM 04/03 A3036 RMK T00400030 IEM_DS3505
ZGKL,2008-11-28 20:00,ZGKL 282000Z AUTO 3SM 03/03 A3036 RMK T00300030 IEM_DS3505
ZGKL,2008-11-28 21:00,ZGKL 282100Z AUTO 09002KT 10SM 07/01 A3036 RMK SLP288 T00690014 57001 IEM_DS3505
ZGKL,2008-11-28 22:00,ZGKL 282200Z AUTO 17002KT 5SM 02/02 A3036 RMK T00200020 IEM_DS3505
ZGKL,2008-11-28 23:00,ZGKL 282300Z AUTO 03002KT 5SM 02/02 A3036 RMK T00200020 IEM_DS3505
ZGKL,2008-11-29 00:00,ZGKL 290000Z AUTO 36002KT 9SM 07/03 A3039 RMK SLP304 T00660030 52013 IEM_DS3505
ZGKL,2008-11-29 01:00,ZGKL 290100Z AUTO 6SM 07/06 A3039 RMK T00700060 IEM_DS3505
ZGKL,2008-11-29 02:00,ZGKL 290200Z AUTO 6SM 12/06 A3042 RMK T01200060 IEM_DS3505
ZGKL,2008-11-29 03:00,ZGKL 290300Z AUTO 02008KT 9SM 16/00 A3039 RMK SLP298 T01620003 57003 IEM_DS3505
ZGKL,2008-11-29 04:00,ZGKL 290400Z AUTO 6SM 17/02 A3036 RMK T01700020 IEM_DS3505
ZGKL,2008-11-29 05:00,ZGKL 290500Z AUTO 6SM 20/M01 A3030 RMK T02001010 IEM_DS3505
ZGKL,2008-11-29 06:00,ZGKL 290600Z AUTO 02008KT 14SM 20/M03 A3027 RMK SLP256 T02051026 57040 IEM_DS3505
ZGKL,2008-11-29 07:00,ZGKL 290700Z AUTO 6SM 21/M07 A3024 RMK T02101070 IEM_DS3505
ZGKL,2008-11-29 08:00,ZGKL 290800Z AUTO 06010KT 6SM 21/M07 A3024 RMK T02101070 IEM_DS3505
ZGKL,2008-11-29 09:00,ZGKL 290900Z AUTO 02006KT 14SM 19/00 A3024 RMK SLP254 T01910002 57004 IEM_DS3505
ZGKL,2008-11-29 10:00,ZGKL 291000Z AUTO 04006KT 6SM 16/01 A3027 RMK T01600010 IEM_DS3505
ZGKL,2008-11-29 11:00,ZGKL 291100Z AUTO 6SM 13/01 A3030 RMK T01300010 IEM_DS3505
ZGKL,2008-11-29 12:00,ZGKL 291200Z AUTO 02006KT 10SM 15/M00 A3033 RMK SLP282 T01481005 52026 IEM_DS3505
ZGKL,2008-11-29 13:00,ZGKL 291300Z AUTO 32002KT 6SM 11/02 A3036 RMK T01100020 IEM_DS3505
ZGKL,2008-11-29 14:00,ZGKL 291400Z AUTO 6SM 09/05 A3036 RMK T00900050 IEM_DS3505
ZGKL,2008-11-29 15:00,ZGKL 291500Z AUTO 36006KT 9SM 14/01 A3036 RMK SLP291 T01380008 52012 IEM_DS3505
ZGKL,2008-11-29 16:00,ZGKL 291600Z AUTO 34004KT 6SM 07/05 A3036 RMK T00700050 IEM_DS3505
ZGKL,2008-11-29 17:00,ZGKL 291700Z AUTO 6SM 07/05 A3036 RMK T00700050 IEM_DS3505
ZGKL,2008-11-29 18:00,ZGKL 291800Z AUTO 32002KT 9SM 11/02 A3036 RMK SLP284 T01100023 57006 IEM_DS3505
ZGKL,2008-11-29 19:00,ZGKL 291900Z AUTO 32004KT 5SM 06/05 A3033 RMK T00600050 IEM_DS3505
ZGKL,2008-11-29 20:00,ZGKL 292000Z AUTO 33004KT 4SM 05/04 A3033 RMK T00500040 IEM_DS3505
ZGKL,2008-11-29 21:00,ZGKL 292100Z AUTO 02002KT 9SM 09/03 A3033 RMK SLP280 T00870033 57005 IEM_DS3505
ZGKL,2008-11-29 22:00,ZGKL 292200Z AUTO 00000KT 3SM 04/04 A3033 RMK T00400040 IEM_DS3505
ZGKL,2008-11-29 23:00,ZGKL 292300Z AUTO 26004KT 5SM 04/03 A3036 RMK T00400030 IEM_DS3505
ZGKL,2008-11-30 00:00,ZGKL 300000Z AUTO 36002KT 9SM 08/03 A3036 RMK SLP292 T00850029 52010 IEM_DS3505
ZGKL,2008-11-30 01:00,ZGKL 300100Z AUTO 6SM 09/07 A3036 RMK T00900070 IEM_DS3505
ZGKL,2008-11-30 02:00,ZGKL 300200Z AUTO 6SM 12/06 A3039 RMK T01200060 IEM_DS3505
ZGKL,2008-11-30 03:00,ZGKL 300300Z AUTO 36002KT 9SM 16/02 A3036 RMK SLP288 T01640017 57002 IEM_DS3505
ZGKL,2008-11-30 04:00,ZGKL 300400Z AUTO 6SM 18/03 A3033 RMK T01800030 IEM_DS3505
ZGKL,2008-11-30 05:00,ZGKL 300500Z AUTO 6SM 19/M01 A3027 RMK T01901010 IEM_DS3505
ZGKL,2008-11-30 06:00,ZGKL 300600Z AUTO 32002KT 11SM 21/02 A3024 RMK SLP245 T02100018 57041 IEM_DS3505
ZGKL,2008-11-30 07:00,ZGKL 300700Z AUTO 6SM 20/M02 A3021 RMK T02001020 IEM_DS3505
ZGKL,2008-11-30 08:00,ZGKL 300800Z AUTO 6SM 21/M02 A3018 RMK T02101020 IEM_DS3505
ZGKL,2008-11-30 09:00,ZGKL 300900Z AUTO 16002KT 16SM 20/02 A3018 RMK SLP231 T02040018 57015 IEM_DS3505
ZGKL,2008-11-30 10:00,ZGKL 301000Z AUTO 29004KT 6SM 15/04 A3018 RMK T01500040 IEM_DS3505
ZGKL,2008-11-30 11:00,ZGKL 301100Z AUTO 6SM 12/06 A3021 RMK T01200060 IEM_DS3505
ZGKL,2008-11-30 12:00,ZGKL 301200Z AUTO 36004KT 10SM 14/01 A3024 RMK SLP247 T01450011 52014 IEM_DS3505
ZGKL,2008-11-30 13:00,ZGKL 301300Z AUTO 31004KT 3SM 08/07 A3024 RMK T00800070 IEM_DS3505
ZGKL,2008-11-30 14:00,ZGKL 301400Z AUTO 29002KT 3SM 08/06 A3024 RMK T00800060 IEM_DS3505
ZGKL,2008-11-30 15:00,ZGKL 301500Z AUTO 36004KT 10SM 12/02 A3027 RMK SLP255 T01170016 52009 IEM_DS3505
ZGKL,2008-11-30 16:00,ZGKL 301600Z AUTO 2 1/2SM 06/05 A3027 RMK T00600050 IEM_DS3505
ZGKL,2008-11-30 17:00,ZGKL 301700Z AUTO 2 1/2SM 05/05 A3027 RMK T00500050 IEM_DS3505
ZGKL,2008-11-30 18:00,ZGKL 301800Z AUTO 36002KT 10SM 09/04 A3024 RMK SLP253 T00910037 57001 IEM_DS3505
ZGKL,2008-11-30 19:00,ZGKL 301900Z AUTO 00000KT 2 1/2SM 04/04 A3024 RMK T00400040 IEM_DS3505
ZGKL,2008-11-30 20:00,ZGKL 302000Z AUTO 31002KT 3SM 05/05 A3024 RMK T00500050 IEM_DS3505
ZGKL,2008-11-30 21:00,ZGKL 302100Z AUTO 11002KT 9SM 08/03 A3024 RMK SLP251 T00750034 57003 IEM_DS3505
ZGKL,2008-11-30 22:00,ZGKL 302200Z AUTO 00000KT 4SM 04/04 A3027 RMK T00400040 IEM_DS3505
ZGKL,2008-11-30 23:00,ZGKL 302300Z AUTO 00000KT 2 1/2SM 04/03 A3027 RMK T00400030 IEM_DS3505
ZGKL,2008-12-01 00:00,ZGKL 010000Z AUTO 04002KT 9SM 08/04 A3030 RMK SLP269 T00770039 52016 IEM_DS3505
ZGKL,2008-12-01 01:00,ZGKL 010100Z AUTO 7SM 08/06 A3030 RMK T00800060 IEM_DS3505
ZGKL,2008-12-01 02:00,ZGKL 010200Z AUTO 6SM 12/08 A3030 RMK T01200080 IEM_DS3505
ZGKL,2008-12-01 03:00,ZGKL 010300Z AUTO 34002KT 9SM 15/04 A3030 RMK SLP266 T01500044 57002 IEM_DS3505
ZGKL,2008-12-01 04:00,ZGKL 010400Z AUTO 6SM 18/04 A3024 RMK T01800040 IEM_DS3505
ZGKL,2008-12-01 05:00,ZGKL 010500Z AUTO 6SM 19/03 A3021 RMK T01900030 IEM_DS3505
ZGKL,2008-12-01 06:00,ZGKL 010600Z AUTO 34002KT 9SM 21/01 A3015 RMK SLP223 T02060010 57041 IEM_DS3505
ZGKL,2008-12-01 07:00,ZGKL 010700Z AUTO 6SM 22/00 A3012 RMK T02200000 IEM_DS3505
ZGKL,2008-12-01 08:00,ZGKL 010800Z AUTO 08004KT 6SM 21/01 A3012 RMK T02100010 IEM_DS3505
ZGKL,2008-12-01 09:00,ZGKL 010900Z AUTO 11002KT 9SM 20/02 A3012 RMK SLP207 T02050019 57016 IEM_DS3505
ZGKL,2008-12-01 10:00,ZGKL 011000Z AUTO 28004KT 6SM 16/06 A3012 RMK T01600060 IEM_DS3505
ZGKL,2008-12-01 11:00,ZGKL 011100Z AUTO 27002KT 5SM 12/08 A3015 RMK T01200080 IEM_DS3505
ZGKL,2008-12-01 12:00,ZGKL 011200Z AUTO 34002KT 8SM 14/07 A3015 RMK SLP222 T01400066 52013 IEM_DS3505
ZGKL,2008-12-01 13:00,ZGKL 011300Z AUTO 4SM 09/08 A3018 RMK T00900080 IEM_DS3505
ZGKL,2008-12-01 14:00,ZGKL 011400Z AUTO 30002KT 4SM 09/08 A3018 RMK T00900080 IEM_DS3505
ZGKL,2008-12-01 15:00,ZGKL 011500Z AUTO 09002KT 8SM 12/06 A3018 RMK SLP234 T01150064 52013 IEM_DS3505
ZGKL,2008-12-01 16:00,ZGKL 011600Z AUTO 00000KT 3SM 07/07 A3018 RMK T00700070 IEM_DS3505
ZGKL,2008-12-01 17:00,ZGKL 011700Z AUTO 00000KT 3SM 07/06 A3018 RMK T00700060 IEM_DS3505
ZGKL,2008-12-01 18:00,ZGKL 011800Z AUTO 11002KT 8SM 10/06 A3015 RMK SLP225 T00990061 57007 IEM_DS3505
ZGKL,2008-12-01 19:00,ZGKL 011900Z AUTO 2SM 06/06 A3015 RMK T00600060 IEM_DS3505
ZGKL,2008-12-01 20:00,ZGKL 012000Z AUTO 00000KT 1SM 05/05 A3015 RMK T00500050 IEM_DS3505
ZGKL,2008-12-01 21:00,ZGKL 012100Z AUTO 04002KT 8SM 08/05 A3012 RMK SLP216 T00840053 57010 IEM_DS3505
ZGKL,2008-12-01 22:00,ZGKL 012200Z AUTO 3SM 05/05 A3015 RMK T00500050 IEM_DS3505
ZGKL,2008-12-01 23:00,ZGKL 012300Z AUTO 3SM 05/05 A3015 RMK T00500050 IEM_DS3505
ZGKL,2008-12-02 00:00,ZGKL 020000Z AUTO 07002KT 8SM 08/06 A3018 RMK SLP230 T00790055 52011 IEM_DS3505
ZGKL,2008-12-02 01:00,ZGKL 020100Z AUTO 2 1/2SM 08/08 A3018 RMK T00800080 IEM_DS3505
ZGKL,2008-12-02 02:00,ZGKL 020200Z AUTO 00000KT 2 1/2SM 12/09 A3018 RMK T01200090 IEM_DS3505
ZGKL,2008-12-02 03:00,ZGKL 020300Z AUTO 22002KT 7SM 16/07 A3015 RMK SLP223 T01560071 57005 IEM_DS3505
ZGKL,2008-12-02 04:00,ZGKL 020400Z AUTO 4SM 18/04 A3012 RMK T01800040 IEM_DS3505
ZGKL,2008-12-02 05:00,ZGKL 020500Z AUTO 5SM 19/04 A3006 RMK T01900040 IEM_DS3505
ZGKL,2008-12-02 06:00,ZGKL 020600Z AUTO 18004KT 7SM 21/04 A3003 RMK SLP175 T02130044 57045 IEM_DS3505
ZGKL,2008-12-02 07:00,ZGKL 020700Z AUTO 6SM 22/05 A3000 RMK T02200050 IEM_DS3505
ZGKL,2008-12-02 08:00,ZGKL 020800Z AUTO 6SM 22/04 A2997 RMK T02200040 IEM_DS3505
ZGKL,2008-12-02 09:00,ZGKL 020900Z AUTO 11002KT 8SM 21/06 A2994 RMK SLP152 T02110055 57023 IEM_DS3505
ZGKL,2008-12-02 10:00,ZGKL 021000Z AUTO 28004KT 6SM 17/08 A2994 RMK T01700080 IEM_DS3505
ZGKL,2008-12-02 11:00,ZGKL 021100Z AUTO 28004KT 3SM 14/09 A2994 RMK T01400090 IEM_DS3505
ZGKL,2008-12-02 12:00,ZGKL 021200Z AUTO 29002KT 8SM 14/08 A2997 RMK SLP159 T01450078 52004 IEM_DS3505
ZGKL,2008-12-02 13:00,ZGKL 021300Z AUTO 26004KT 2 1/2SM 11/09 A2997 RMK T01100090 IEM_DS3505
ZGKL,2008-12-02 14:00,ZGKL 021400Z AUTO 2 1/2SM 10/09 A3000 RMK T01000090 IEM_DS3505
ZGKL,2008-12-02 15:00,ZGKL 021500Z AUTO 14002KT 8SM 13/07 A2997 RMK SLP164 T01260071 52007 IEM_DS3505
ZGKL,2008-12-02 16:00,ZGKL 021600Z AUTO 00000KT 2SM 10/09 A2997 RMK T01000090 IEM_DS3505
ZGKL,2008-12-02 17:00,ZGKL 021700Z AUTO 1 1/4SM 09/09 A2997 RMK T00900090 IEM_DS3505
ZGKL,2008-12-02 18:00,ZGKL 021800Z AUTO 36002KT 8SM 11/08 A2997 RMK SLP154 T01130080 57008 IEM_DS3505
ZGKL,2008-12-02 19:00,ZGKL 021900Z AUTO 00000KT 2SM 09/09 A2994 RMK T00900090 IEM_DS3505
ZGKL,2008-12-02 20:00,ZGKL 022000Z AUTO 00000KT 1 1/4SM 08/08 A2997 RMK T00800080 IEM_DS3505
ZGKL,2008-12-02 21:00,ZGKL 022100Z AUTO 00000KT 8SM 11/08 A2997 RMK SLP154 T01060078 57001 IEM_DS3505
ZGKL,2008-12-02 22:00,ZGKL 022200Z AUTO 1 1/4SM 07/07 A2997 RMK T00700070 IEM_DS3505
ZGKL,2008-12-02 23:00,ZGKL 022300Z AUTO 1 1/4SM 07/07 A2997 RMK T00700070 IEM_DS3505
ZGKL,2008-12-03 00:00,ZGKL 030000Z AUTO 14002KT 7SM 10/09 A3000 RMK SLP166 T01020086 52010 IEM_DS3505
ZGKL,2008-12-03 01:00,ZGKL 030100Z AUTO 1 1/2SM 09/09 A3000 RMK T00900090 IEM_DS3505
ZGKL,2008-12-03 02:00,ZGKL 030200Z AUTO 2 1/2SM 12/11 A3003 RMK T01200110 IEM_DS3505
ZGKL,2008-12-03 03:00,ZGKL 030300Z AUTO 36002KT 5SM 17/08 A3000 RMK SLP171 T01730084 52006 IEM_DS3505
ZGKL,2008-12-03 04:00,ZGKL 030400Z AUTO 3SM 20/09 A2997 RMK T02000090 IEM_DS3505
ZGKL,2008-12-03 05:00,ZGKL 030500Z AUTO 19004KT 4SM 21/08 A2991 RMK T02100080 IEM_DS3505
ZGKL,2008-12-03 06:00,ZGKL 030600Z AUTO 16004KT 8SM 22/10 A2988 RMK SLP128 T02200099 57041 IEM_DS3505
ZGKL,2008-12-03 07:00,ZGKL 030700Z AUTO 19006KT 7SM 22/10 A2985 RMK T02200100 IEM_DS3505
ZGKL,2008-12-03 08:00,ZGKL 030800Z AUTO 11006KT 7SM 21/10 A2985 RMK T02100100 IEM_DS3505
ZGKL,2008-12-03 09:00,ZGKL 030900Z AUTO 18002KT 9SM 21/10 A2988 RMK SLP126 T02130102 57002 IEM_DS3505
ZGKL,2008-12-03 10:00,ZGKL 031000Z AUTO 31004KT 4SM 19/12 A2991 RMK T01900120 IEM_DS3505
ZGKL,2008-12-03 11:00,ZGKL 031100Z AUTO 33002KT 2 1/2SM 18/14 A2991 RMK T01800140 IEM_DS3505
ZGKL,2008-12-03 12:00,ZGKL 031200Z AUTO 34002KT 8SM 18/12 A2994 RMK SLP148 T01820122 52020 IEM_DS3505
ZGKL,2008-12-03 13:00,ZGKL 031300Z AUTO 2 1/2SM 17/14 A2997 RMK T01700140 IEM_DS3505
ZGKL,2008-12-03 14:00,ZGKL 031400Z AUTO 2 1/2SM 16/14 A2997 RMK T01600140 IEM_DS3505
ZGKL,2008-12-03 15:00,ZGKL 031500Z AUTO 00000KT 8SM 17/13 A3000 RMK SLP167 T01710128 52021 IEM_DS3505
ZGKL,2008-12-03 16:00,ZGKL 031600Z AUTO 33004KT 2 1/2SM 16/14 A3003 RMK T01600140 IEM_DS3505
ZGKL,2008-12-03 17:00,ZGKL 031700Z AUTO 3SM 16/14 A3003 RMK T01600140 IEM_DS3505
ZGKL,2008-12-03 18:00,ZGKL 031800Z AUTO 34002KT 8SM 16/13 A3003 RMK 60000 SLP176 T01650130 52010 IEM_DS3505
ZGKL,2008-12-03 19:00,ZGKL 031900Z AUTO 17004KT 2SM 15/14 A3003 RMK T01500140 IEM_DS3505
ZGKL,2008-12-03 20:00,ZGKL 032000Z AUTO 03004KT 2SM 15/14 A3003 RMK T01500140 IEM_DS3505
ZGKL,2008-12-03 21:00,ZGKL 032100Z AUTO 36002KT 6SM 16/14 A3006 RMK 70000 SLP183 T01590141 52007 IEM_DS3505
ZGKL,2008-12-03 22:00,ZGKL 032200Z AUTO 34004KT 4SM 15/14 A3006 RMK T01500140 IEM_DS3505
ZGKL,2008-12-03 23:00,ZGKL 032300Z AUTO 00000KT 3SM 15/14 A3009 RMK T01500140 IEM_DS3505
ZGKL,2008-12-04 00:00,ZGKL 040000Z AUTO 02010KT 7SM 16/10 A3015 RMK 60000 70000 SLP217 T01650104 52032 IEM_DS3505
ZGKL,2008-12-04 01:00,ZGKL 040100Z AUTO 04012KT 4SM 16/12 A3018 RMK T01600120 IEM_DS3505
ZGKL,2008-12-04 02:00,ZGKL 040200Z AUTO 05010KT 4SM 16/11 A3021 RMK T01600110 IEM_DS3505
ZGKL,2008-12-04 03:00,ZGKL 040300Z AUTO 02014KT 5SM 15/08 A3024 RMK SLP247 T01510081 52029 IEM_DS3505
ZGKL,2008-12-04 04:00,ZGKL 040400Z AUTO 06014KT 3SM 16/10 A3021 RMK T01600100 IEM_DS3505
ZGKL,2008-12-04 05:00,ZGKL 040500Z AUTO 06014KT 3SM 16/09 A3021 RMK T01600090 IEM_DS3505
ZGKL,2008-12-04 06:00,ZGKL 040600Z AUTO 02010KT 5SM 16/05 A3018 RMK SLP231 T01570050 57016 IEM_DS3505
ZGKL,2008-12-04 07:00,ZGKL 040700Z AUTO 06012KT 3SM 16/06 A3018 RMK T01600060 IEM_DS3505
ZGKL,2008-12-04 08:00,ZGKL 040800Z AUTO 06014KT 3SM 16/05 A3021 RMK T01600050 IEM_DS3505
ZGKL,2008-12-04 09:00,ZGKL 040900Z AUTO 02008KT 5SM 14/03 A3024 RMK SLP256 T01420031 52024 IEM_DS3505
ZGKL,2008-12-04 10:00,ZGKL 041000Z AUTO 04017KT 3SM 14/03 A3030 RMK T01400030 IEM_DS3505
ZGKL,2008-12-04 11:00,ZGKL 041100Z AUTO 06012KT 3SM 13/03 A3033 RMK T01300030 IEM_DS3505
ZGKL,2008-12-04 12:00,ZGKL 041200Z AUTO 02014KT 6SM 13/00 A3039 RMK SLP299 T01320002 52042 IEM_DS3505
ZGKL,2008-12-04 13:00,ZGKL 041300Z AUTO 04010KT 4SM 12/02 A3042 RMK T01200020 IEM_DS3505
ZGKL,2008-12-04 14:00,ZGKL 041400Z AUTO 06008KT 4SM 11/01 A3045 RMK T01100010 IEM_DS3505
ZGKL,2008-12-04 15:00,ZGKL 041500Z AUTO 02014KT 6SM 11/01 A3047 RMK SLP337 T01110011 52036 IEM_DS3505
ZGKL,2008-12-04 16:00,ZGKL 041600Z AUTO 05010KT 4SM 10/01 A3050 RMK T01000010 IEM_DS3505
ZGKL,2008-12-04 17:00,ZGKL 041700Z AUTO 06012KT 5SM 10/02 A3050 RMK T01000020 IEM_DS3505
ZGKL,2008-12-04 18:00,ZGKL 041800Z AUTO 02012KT 6SM 10/03 A3050 RMK SLP341 T00970028 52004 IEM_DS3505
ZGKL,2008-12-04 19:00,ZGKL 041900Z AUTO 04008KT 4SM 09/03 A3047 RMK T00900030 IEM_DS3505
ZGKL,2008-12-04 20:00,ZGKL 042000Z AUTO 03010KT 6SM 09/03 A3047 RMK T00900030 IEM_DS3505
ZGKL,2008-12-04 21:00,ZGKL 042100Z AUTO 02010KT 6SM 09/M02 A3047 RMK SLP335 T00901020 57007 IEM_DS3505
ZGKL,2008-12-04 22:00,ZGKL 042200Z AUTO 7SM 08/02 A3047 RMK T00800020 IEM_DS3505
ZGKL,2008-12-04 23:00,ZGKL 042300Z AUTO 02008KT 6SM 08/01 A3050 RMK T00800010 IEM_DS3505
ZGKL,2008-12-05 00:00,ZGKL 050000Z AUTO 02010KT 8SM 08/M02 A3050 RMK SLP346 T00831023 52010 IEM_DS3505
ZGKL,2008-12-05 01:00,ZGKL 050100Z AUTO 02012KT 6SM 09/M03 A3050 RMK T00901030 IEM_DS3505
ZGKL,2008-12-05 02:00,ZGKL 050200Z AUTO 03016KT 6SM 11/M02 A3050 RMK T01101020 IEM_DS3505
ZGKL,2008-12-05 03:00,ZGKL 050300Z AUTO 02012KT 9SM 12/M04 A3047 RMK SLP336 T01191035 57009 IEM_DS3505
ZGKL,2008-12-05 04:00,ZGKL 050400Z AUTO 6SM 14/M04 A3045 RMK T01401040 IEM_DS3505
ZGKL,2008-12-05 05:00,ZGKL 050500Z AUTO 05016KT 6SM 15/M05 A3042 RMK T01501050 IEM_DS3505
ZGKL,2008-12-05 06:00,ZGKL 050600Z AUTO 02010KT 14SM 15/M06 A3036 RMK SLP296 T01491060 57039 IEM_DS3505
ZGKL,2008-12-05 07:00,ZGKL 050700Z AUTO 05012KT 6SM 16/M07 A3033 RMK T01601070 IEM_DS3505
ZGKL,2008-12-05 08:00,ZGKL 050800Z AUTO 07012KT 6SM 15/M06 A3033 RMK T01501060 IEM_DS3505
ZGKL,2008-12-05 09:00,ZGKL 050900Z AUTO 04008KT 14SM 14/M05 A3033 RMK SLP282 T01381054 57014 IEM_DS3505
ZGKL,2008-12-05 10:00,ZGKL 051000Z AUTO 05010KT 6SM 12/M05 A3033 RMK T01201050 IEM_DS3505
ZGKL,2008-12-05 11:00,ZGKL 051100Z AUTO 05016KT 6SM 11/M06 A3036 RMK T01101060 IEM_DS3505
ZGKL,2008-12-05 12:00,ZGKL 051200Z AUTO 02004KT 11SM 10/M04 A3039 RMK SLP306 T01031045 52022 IEM_DS3505
ZGKL,2008-12-05 13:00,ZGKL 051300Z AUTO 03010KT 6SM 10/M05 A3042 RMK T01001050 IEM_DS3505
ZGKL,2008-12-05 14:00,ZGKL 051400Z AUTO 34004KT 6SM 07/M03 A3042 RMK T00701030 IEM_DS3505
ZGKL,2008-12-05 15:00,ZGKL 051500Z AUTO 02008KT 10SM 10/M07 A3045 RMK SLP324 T00951068 52018 IEM_DS3505
ZGKL,2008-12-05 16:00,ZGKL 051600Z AUTO 6SM 06/M01 A3045 RMK T00601010 IEM_DS3505
ZGKL,2008-12-05 17:00,ZGKL 051700Z AUTO 06/01 A3045 RMK T00600010 IEM_DS3505
ZGKL,2008-12-05 18:00,ZGKL 051800Z AUTO 36008KT 9SM 09/ RMK SLP321 57002 IEM_DS3505
ZGKL,2008-12-05 19:00,ZGKL 051900Z AUTO 6SM 07/01 A3042 RMK T00700010 IEM_DS3505
ZGKL,2008-12-05 20:00,ZGKL 052000Z AUTO 6SM 07/M03 A3042 RMK T00701030 IEM_DS3505
ZGKL,2008-12-05 21:00,ZGKL 052100Z AUTO 36006KT 9SM 08/M08 A3042 RMK SLP311 T00841077 57010 IEM_DS3505
ZGKL,2008-12-05 22:00,ZGKL 052200Z AUTO 28004KT 5SM 06/03 A3042 RMK T00600030 IEM_DS3505
ZGKL,2008-12-05 23:00,ZGKL 052300Z AUTO 30004KT 6SM 06/03 A3042 RMK T00600030 IEM_DS3505
ZGKL,2008-12-06 00:00,ZGKL 060000Z AUTO 02006KT 11SM 08/M07 A3045 RMK SLP322 T00841069 52010 IEM_DS3505
ZGKL,2008-12-06 01:00,ZGKL 060100Z AUTO 6SM 08/M01 A3045 RMK T00801010 IEM_DS3505
ZGKL,2008-12-06 02:00,ZGKL 060200Z AUTO 06006KT 6SM 10/M06 A3045 RMK T01001060 IEM_DS3505
ZGKL,2008-12-06 03:00,ZGKL 060300Z AUTO 02006KT 11SM 12/M06 A3045 RMK SLP318 T01211063 57003 IEM_DS3505
ZGKL,2008-12-06 05:00,ZGKL 060500Z AUTO 06010KT 6SM 14/M07 A3033 RMK T01401070 IEM_DS3505
ZGKL,2008-12-06 06:00,ZGKL 060600Z AUTO 02006KT 14SM 15/M07 A3030 RMK SLP270 T01501071 57047 IEM_DS3505
ZGKL,2008-12-06 07:00,ZGKL 060700Z AUTO 6SM 15/M06 A3027 RMK T01501060 IEM_DS3505
ZGKL,2008-12-06 08:00,ZGKL 060800Z AUTO 08004KT 6SM 15/M06 A3024 RMK T01501060 IEM_DS3505
ZGKL,2008-12-06 09:00,ZGKL 060900Z AUTO 04004KT 16SM 15/M06 A3024 RMK SLP255 T01471062 57015 IEM_DS3505
ZGKL,2008-12-06 11:00,ZGKL 061100Z AUTO 06006KT 6SM 11/M05 A3027 RMK T01101050 IEM_DS3505
ZGKL,2008-12-06 12:00,ZGKL 061200Z AUTO 02006KT 11SM 11/M04 A3030 RMK SLP273 T01071038 52017 IEM_DS3505
ZGKL,2008-12-06 13:00,ZGKL 061300Z AUTO 6SM 08/M02 A3030 RMK T00801020 IEM_DS3505
ZGKL,2008-12-06 14:00,ZGKL 061400Z AUTO 30006KT 6SM 06/01 A3030 RMK T00600010 IEM_DS3505
ZGKL,2008-12-06 15:00,ZGKL 061500Z AUTO 02004KT 11SM 09/M04 A3030 RMK SLP274 T00941038 52001 IEM_DS3505
ZGKL,2008-12-06 16:00,ZGKL 061600Z AUTO 6SM 04/02 A3033 RMK T00400020 IEM_DS3505
ZGKL,2008-12-06 17:00,ZGKL 061700Z AUTO 2 1/2SM 04/02 A3033 RMK T00400020 IEM_DS3505
ZGKL,2008-12-06 18:00,ZGKL 061800Z AUTO 36002KT 11SM 08/M04 A3033 RMK SLP279 T00811037 52006 IEM_DS3505
ZGKL,2008-12-06 19:00,ZGKL 061900Z AUTO 33004KT 3SM 03/02 A3030 RMK T00300020 IEM_DS3505
ZGKL,2008-12-06 20:00,ZGKL 062000Z AUTO 30002KT 2 1/2SM 02/02 A3030 RMK T00200020 IEM_DS3505
ZGKL,2008-12-06 21:00,ZGKL 062100Z AUTO 02002KT 11SM 07/M03 A3030 RMK SLP269 T00701027 57010 IEM_DS3505
ZGKL,2008-12-06 22:00,ZGKL 062200Z AUTO 6SM 04/03 A3030 RMK T00400030 IEM_DS3505
ZGKL,2008-12-06 23:00,ZGKL 062300Z AUTO 00000KT 6SM 04/03 A3030 RMK T00400030 IEM_DS3505
ZGKL,2008-12-07 00:00,ZGKL 070000Z AUTO 36002KT 9SM 07/M01 A3030 RMK SLP280 T00731009 52009 IEM_DS3505
ZGKL,2008-12-07 01:00,ZGKL 070100Z AUTO 6SM 06/04 A3033 RMK T00600040 IEM_DS3505
ZGKL,2008-12-07 02:00,ZGKL 070200Z AUTO 6SM 09/02 A3033 RMK T00900020 IEM_DS3505
ZGKL,2008-12-07 03:00,ZGKL 070300Z AUTO 02004KT 9SM 12/M03 A3030 RMK SLP274 T01241034 57004 IEM_DS3505
ZGKL,2008-12-07 04:00,ZGKL 070400Z AUTO 6SM 14/M02 A3027 RMK T01401020 IEM_DS3505
ZGKL,2008-12-07 05:00,ZGKL 070500Z AUTO 6SM 14/M02 A3024 RMK T01401020 IEM_DS3505
ZGKL,2008-12-07 06:00,ZGKL 070600Z AUTO 00000KT 9SM 16/M02 A3018 RMK SLP233 T01581022 57040 IEM_DS3505
ZGKL,2008-12-07 07:00,ZGKL 070700Z AUTO 6SM 16/M03 A3015 RMK T01601030 IEM_DS3505
ZGKL,2008-12-07 08:00,ZGKL 070800Z AUTO 6SM 15/M03 A3015 RMK T01501030 IEM_DS3505
ZGKL,2008-12-07 09:00,ZGKL 070900Z AUTO 02004KT 9SM 16/M01 A3015 RMK SLP226 T01551011 57007 IEM_DS3505
ZGKL,2008-12-07 10:00,ZGKL 071000Z AUTO 6SM 13/03 A3018 RMK T01300030 IEM_DS3505
ZGKL,2008-12-07 11:00,ZGKL 071100Z AUTO 33004KT 5SM 12/05 A3021 RMK T01200050 IEM_DS3505
ZGKL,2008-12-07 12:00,ZGKL 071200Z AUTO 02004KT 8SM 13/M01 A3024 RMK SLP255 T01311009 52027 IEM_DS3505
ZGKL,2008-12-07 13:00,ZGKL 071300Z AUTO 33004KT 4SM 11/04 A3027 RMK T01100040 IEM_DS3505
ZGKL,2008-12-07 14:00,ZGKL 071400Z AUTO 29002KT 4SM 11/05 A3030 RMK T01100050 IEM_DS3505
ZGKL,2008-12-07 15:00,ZGKL 071500Z AUTO 36004KT 8SM 12/M00 A3030 RMK SLP275 T01241005 52022 IEM_DS3505
ZGKL,2008-12-07 16:00,ZGKL 071600Z AUTO 4SM 11/04 A3030 RMK T01100040 IEM_DS3505
ZGKL,2008-12-07 17:00,ZGKL 071700Z AUTO 4SM 10/07 A3030 RMK T01000070 IEM_DS3505
ZGKL,2008-12-07 18:00,ZGKL 071800Z AUTO 36006KT 8SM 12/M01 A3033 RMK SLP275 T01231009 52001 IEM_DS3505
ZGKL,2008-12-07 19:00,ZGKL 071900Z AUTO 33002KT 3SM 10/08 A3030 RMK T01000080 IEM_DS3505
ZGKL,2008-12-07 20:00,ZGKL 072000Z AUTO 3SM 10/08 A3033 RMK T01000080 IEM_DS3505
ZGKL,2008-12-07 21:00,ZGKL 072100Z AUTO 02006KT 7SM 12/ A3033 RMK SLP273 57002 IEM_DS3505
ZGKL,2008-12-07 22:00,ZGKL 072200Z AUTO 18004KT 4SM 09/08 A3030 RMK T00900080 IEM_DS3505
ZGKL,2008-12-07 23:00,ZGKL 072300Z AUTO 4SM 09/09 A3033 RMK T00900090 IEM_DS3505
ZGKL,2008-12-08 00:00,ZGKL 080000Z AUTO 04006KT 7SM 11/ A3033 RMK 60000 70000 SLP282 52007 IEM_DS3505
ZGKL,2008-12-08 01:00,ZGKL 080100Z AUTO 4SM 10/09 A3036 RMK T01000090 IEM_DS3505
ZGKL,2008-12-08 02:00,ZGKL 080200Z AUTO 5SM 12/06 A3036 RMK T01200060 IEM_DS3505
ZGKL,2008-12-08 03:00,ZGKL 080300Z AUTO 36002KT 7SM 14/02 A3036 RMK SLP288 T01420018 52007 IEM_DS3505
ZGKL,2008-12-08 04:00,ZGKL 080400Z AUTO 5SM 15/04 A3030 RMK T01500040 IEM_DS3505
ZGKL,2008-12-08 05:00,ZGKL 080500Z AUTO 5SM 17/03 A3024 RMK T01700030 IEM_DS3505
ZGKL,2008-12-08 06:00,ZGKL 080600Z AUTO 36006KT 8SM 18/02 A3021 RMK SLP234 T01840019 57052 IEM_DS3505
ZGKL,2008-12-08 07:00,ZGKL 080700Z AUTO 5SM 18/03 A3018 RMK T01800030 IEM_DS3505
ZGKL,2008-12-08 08:00,ZGKL 080800Z AUTO 5SM 18/03 A3015 RMK T01800030 IEM_DS3505
ZGKL,2008-12-08 09:00,ZGKL 080900Z AUTO 27002KT 8SM 18/03 A3012 RMK SLP210 T01820033 57023 IEM_DS3505
ZGKL,2008-12-08 10:00,ZGKL 081000Z AUTO 6SM 14/07 A3012 RMK T01400070 IEM_DS3505
ZGKL,2008-12-08 11:00,ZGKL 081100Z AUTO 26004KT 3SM 12/07 A3015 RMK T01200070 IEM_DS3505
ZGKL,2008-12-08 12:00,ZGKL 081200Z AUTO 34002KT 7SM 12/06 A3015 RMK SLP222 T01240062 52009 IEM_DS3505
ZGKL,2008-12-08 13:00,ZGKL 081300Z AUTO 3SM 09/07 A3015 RMK T00900070 IEM_DS3505
ZGKL,2008-12-08 14:00,ZGKL 081400Z AUTO 27002KT 2 1/2SM 08/07 A3015 RMK T00800070 IEM_DS3505
ZGKL,2008-12-08 15:00,ZGKL 081500Z AUTO 11002KT 7SM 10/06 A3015 RMK SLP224 T00980060 52002 IEM_DS3505
ZGKL,2008-12-08 16:00,ZGKL 081600Z AUTO 2 1/2SM 07/07 A3015 RMK T00700070 IEM_DS3505
ZGKL,2008-12-08 17:00,ZGKL 081700Z AUTO 19002KT 1 1/4SM 06/06 A3015 RMK T00600060 IEM_DS3505
ZGKL,2008-12-08 18:00,ZGKL 081800Z AUTO 04002KT 7SM 08/06 A3015 RMK SLP224 T00840057 52001 IEM_DS3505
ZGKL,2008-12-08 19:00,ZGKL 081900Z AUTO 1SM 05/05 A3015 RMK T00500050 IEM_DS3505
ZGKL,2008-12-08 20:00,ZGKL 082000Z AUTO 00000KT 2 1/2SM 04/04 A3015 RMK T00400040 IEM_DS3505
ZGKL,2008-12-08 21:00,ZGKL 082100Z AUTO 04002KT 6SM 07/05 A3012 RMK SLP218 T00680053 57006 IEM_DS3505
ZGKL,2008-12-08 22:00,ZGKL 082200Z AUTO 03002KT 1 1/4SM 04/04 A3015 RMK T00400040 IEM_DS3505
ZGKL,2008-12-08 23:00,ZGKL 082300Z AUTO 00000KT 1 1/4SM 04/04 A3015 RMK T00400040 IEM_DS3505
ZGKL,2008-12-09 00:00,ZGKL 090000Z AUTO 04002KT 6SM 06/05 A3018 RMK SLP231 T00620050 52010 IEM_DS3505
ZGKL,2008-12-09 01:00,ZGKL 090100Z AUTO 00000KT 1 1/4SM 07/07 A3018 RMK T00700070 IEM_DS3505
ZGKL,2008-12-09 02:00,ZGKL 090200Z AUTO 2SM 10/09 A3018 RMK T01000090 IEM_DS3505
ZGKL,2008-12-09 03:00,ZGKL 090300Z AUTO 09002KT 6SM 14/07 A3015 RMK SLP227 T01370068 57002 IEM_DS3505
ZGKL,2008-12-09 04:00,ZGKL 090400Z AUTO 2 1/2SM 15/09 A3015 RMK T01500090 IEM_DS3505
ZGKL,2008-12-09 05:00,ZGKL 090500Z AUTO 13004KT 2 1/2SM 18/07 A3009 RMK T01800070 IEM_DS3505
ZGKL,2008-12-09 06:00,ZGKL 090600Z AUTO 16004KT 6SM 19/06 A3006 RMK SLP187 T01870059 57038 IEM_DS3505
ZGKL,2008-12-09 07:00,ZGKL 090700Z AUTO 18006KT 6SM 20/05 A3003 RMK T02000050 IEM_DS3505
ZGKL,2008-12-09 08:00,ZGKL 090800Z AUTO 17006KT 6SM 20/06 A3000 RMK T02000060 IEM_DS3505
ZGKL,2008-12-09 09:00,ZGKL 090900Z AUTO 09002KT 7SM 19/05 A3000 RMK SLP171 T01940047 57016 IEM_DS3505
ZGKL,2008-12-09 10:00,ZGKL 091000Z AUTO 29004KT 5SM 16/08 A3000 RMK T01600080 IEM_DS3505
ZGKL,2008-12-09 11:00,ZGKL 091100Z AUTO 25002KT 5SM 13/10 A3003 RMK T01300100 IEM_DS3505
ZGKL,2008-12-09 12:00,ZGKL 091200Z AUTO 36002KT 7SM 13/07 A3003 RMK SLP182 T01310073 52009 IEM_DS3505
ZGKL,2008-12-09 13:00,ZGKL 091300Z AUTO 32006KT 4SM 10/09 A3003 RMK T01000090 IEM_DS3505
ZGKL,2008-12-09 14:00,ZGKL 091400Z AUTO 35004KT 4SM 09/08 A3006 RMK T00900080 IEM_DS3505
ZGKL,2008-12-09 15:00,ZGKL 091500Z AUTO 14002KT 7SM 10/07 A3006 RMK SLP193 T01050068 52012 IEM_DS3505
ZGKL,2008-12-09 16:00,ZGKL 091600Z AUTO 2 1/2SM 07/07 A3006 RMK T00700070 IEM_DS3505
ZGKL,2008-12-09 17:00,ZGKL 091700Z AUTO 1 1/2SM 07/07 A3006 RMK T00700070 IEM_DS3505
ZGKL,2008-12-09 18:00,ZGKL 091800Z AUTO 02002KT 7SM 09/06 A3006 RMK SLP195 T00880064 52003 IEM_DS3505
ZGKL,2008-12-09 19:00,ZGKL 091900Z AUTO 02002KT 2SM 05/05 A3006 RMK T00500050 IEM_DS3505
ZGKL,2008-12-09 20:00,ZGKL 092000Z AUTO 00000KT 1SM 05/05 A3006 RMK T00500050 IEM_DS3505
ZGKL,2008-12-09 21:00,ZGKL 092100Z AUTO 07002KT 7SM 07/06 A3006 RMK SLP195 T00720058 54000 IEM_DS3505
ZGKL,2008-12-09 22:00,ZGKL 092200Z AUTO 1SM 03/03 A3009 RMK T00300030 IEM_DS3505
ZGKL,2008-12-09 23:00,ZGKL 092300Z AUTO 00000KT 1SM 04/04 A3009 RMK T00400040 IEM_DS3505
ZGKL,2008-12-10 00:00,ZGKL 100000Z AUTO 04002KT 6SM 07/06 A3012 RMK SLP215 T00690057 52017 IEM_DS3505
ZGKL,2008-12-10 01:00,ZGKL 100100Z AUTO 3/8SM 07/07 A3015 RMK T00700070 IEM_DS3505
ZGKL,2008-12-10 02:00,ZGKL 100200Z AUTO 1 1/4SM 10/09 A3015 RMK T01000090 IEM_DS3505
ZGKL,2008-12-10 03:00,ZGKL 100300Z AUTO 04002KT 5SM 14/07 A3012 RMK SLP214 T01430071 52001 IEM_DS3505
ZGKL,2008-12-10 04:00,ZGKL 100400Z AUTO 3SM 17/08 A3009 RMK T01700080 IEM_DS3505
ZGKL,2008-12-10 05:00,ZGKL 100500Z AUTO 4SM 19/07 A3006 RMK T01900070 IEM_DS3505
ZGKL,2008-12-10 06:00,ZGKL 100600Z AUTO 25004KT 6SM 21/05 A3003 RMK SLP176 T02070051 57036 IEM_DS3505
ZGKL,2008-12-10 07:00,ZGKL 100700Z AUTO 4SM 22/05 A3000 RMK T02200050 IEM_DS3505
ZGKL,2008-12-10 08:00,ZGKL 100800Z AUTO 5SM 22/06 A3000 RMK T02200060 IEM_DS3505
ZGKL,2008-12-10 09:00,ZGKL 100900Z AUTO 09002KT 8SM 21/07 A3000 RMK SLP171 T02100073 57005 IEM_DS3505
ZGKL,2008-12-10 10:00,ZGKL 101000Z AUTO 30002KT 4SM 17/09 A3003 RMK T01700090 IEM_DS3505
ZGKL,2008-12-10 11:00,ZGKL 101100Z AUTO 32004KT 3SM 14/10 A3006 RMK T01400100 IEM_DS3505
ZGKL,2008-12-10 12:00,ZGKL 101200Z AUTO 02002KT 8SM 14/08 A3009 RMK SLP202 T01450085 52028 IEM_DS3505
ZGKL,2008-12-10 13:00,ZGKL 101300Z AUTO 28002KT 2 1/2SM 11/09 A3012 RMK T01100090 IEM_DS3505
ZGKL,2008-12-10 14:00,ZGKL 101400Z AUTO 2SM 10/09 A3015 RMK T01000090 IEM_DS3505
ZGKL,2008-12-10 15:00,ZGKL 101500Z AUTO 09002KT 8SM 12/08 A3018 RMK SLP228 T01240075 52027 IEM_DS3505
ZGKL,2008-12-10 16:00,ZGKL 101600Z AUTO 00000KT 2SM 09/08 A3018 RMK T00900080 IEM_DS3505
ZGKL,2008-12-10 17:00,ZGKL 101700Z AUTO 00000KT 1SM 08/08 A3018 RMK T00800080 IEM_DS3505
ZGKL,2008-12-10 18:00,ZGKL 101800Z AUTO 04002KT 8SM 11/08 A3018 RMK SLP229 T01080079 52003 IEM_DS3505
ZGKL,2008-12-10 19:00,ZGKL 101900Z AUTO 2 1/2SM 10/09 A3018 RMK T01000090 IEM_DS3505
ZGKL,2008-12-10 20:00,ZGKL 102000Z AUTO 2SM 09/09 A3015 RMK T00900090 IEM_DS3505
ZGKL,2008-12-10 21:00,ZGKL 102100Z AUTO 00000KT 8SM 09/08 A3015 RMK SLP226 T00910075 57004 IEM_DS3505
ZGKL,2008-12-10 22:00,ZGKL 102200Z AUTO 2 1/2SM 08/08 A3015 RMK T00800080 IEM_DS3505
ZGKL,2008-12-10 23:00,ZGKL 102300Z AUTO 27002KT 1 1/4SM 07/06 A3018 RMK T00700060 IEM_DS3505
ZGKL,2008-12-11 00:00,ZGKL 110000Z AUTO 00000KT 7SM 09/08 A3018 RMK SLP233 T00920075 52005 IEM_DS3505
ZGKL,2008-12-11 01:00,ZGKL 110100Z AUTO 00000KT 1 1/4SM 10/10 A3018 RMK T01000100 IEM_DS3505
ZGKL,2008-12-11 02:00,ZGKL 110200Z AUTO 2 1/2SM 14/11 A3021 RMK T01400110 IEM_DS3505
ZGKL,2008-12-11 03:00,ZGKL 110300Z AUTO 02004KT 6SM 18/08 A3018 RMK SLP225 T01840075 57005 IEM_DS3505
ZGKL,2008-12-11 04:00,ZGKL 110400Z AUTO 5SM 20/06 A3012 RMK T02000060 IEM_DS3505
ZGKL,2008-12-11 05:00,ZGKL 110500Z AUTO 5SM 22/05 A3006 RMK T02200050 IEM_DS3505
ZGKL,2008-12-11 06:00,ZGKL 110600Z AUTO 02004KT 9SM 23/04 A3003 RMK SLP172 T02300045 57051 IEM_DS3505
ZGKL,2008-12-11 07:00,ZGKL 110700Z AUTO 08004KT 6SM 23/01 A3000 RMK T02300010 IEM_DS3505
ZGKL,2008-12-11 08:00,ZGKL 110800Z AUTO 6SM 23/01 A2997 RMK T02300010 IEM_DS3505
ZGKL,2008-12-11 09:00,ZGKL 110900Z AUTO 22002KT 9SM 22/04 A2997 RMK SLP152 T02200036 57021 IEM_DS3505
ZGKL,2008-12-11 10:00,ZGKL 111000Z AUTO 26004KT 6SM 19/06 A2997 RMK T01900060 IEM_DS3505
ZGKL,2008-12-11 11:00,ZGKL 111100Z AUTO 00000KT 6SM 15/06 A2997 RMK T01500060 IEM_DS3505
ZGKL,2008-12-11 12:00,ZGKL 111200Z AUTO 36002KT 9SM 16/07 A2997 RMK SLP163 T01570067 52009 IEM_DS3505
ZGKL,2008-12-11 13:00,ZGKL 111300Z AUTO 3SM 11/09 A3000 RMK T01100090 IEM_DS3505
ZGKL,2008-12-11 14:00,ZGKL 111400Z AUTO 2 1/2SM 10/09 A3000 RMK T01000090 IEM_DS3505
ZGKL,2008-12-11 15:00,ZGKL 111500Z AUTO 11002KT 9SM 12/07 A3000 RMK SLP171 T01250068 52010 IEM_DS3505
ZGKL,2008-12-11 16:00,ZGKL 111600Z AUTO 2 1/2SM 09/08 A3000 RMK T00900080 IEM_DS3505
ZGKL,2008-12-11 17:00,ZGKL 111700Z AUTO 33002KT 2 1/2SM 09/08 A3000 RMK T00900080 IEM_DS3505
ZGKL,2008-12-11 18:00,ZGKL 111800Z AUTO 09002KT 9SM 13/07 A3000 RMK SLP168 T01280066 57002 IEM_DS3505
ZGKL,2008-12-11 19:00,ZGKL 111900Z AUTO 2 1/2SM 08/08 A3000 RMK T00800080 IEM_DS3505
ZGKL,2008-12-11 20:00,ZGKL 112000Z AUTO 00000KT 3SM 08/07 A2997 RMK T00800070 IEM_DS3505
ZGKL,2008-12-11 21:00,ZGKL 112100Z AUTO 36002KT 7SM 11/06 A2997 RMK SLP158 T01070061 57010 IEM_DS3505
ZGKL,2008-12-11 22:00,ZGKL 112200Z AUTO 00000KT 2SM 06/06 A2997 RMK T00600060 IEM_DS3505
ZGKL,2008-12-11 23:00,ZGKL 112300Z AUTO 00000KT 2SM 06/06 A3000 RMK T00600060 IEM_DS3505
ZGKL,2008-12-12 00:00,ZGKL 120000Z AUTO 02002KT 7SM 10/06 A3000 RMK SLP178 T00980060 52017 IEM_DS3505
ZGKL,2008-12-12 01:00,ZGKL 120100Z AUTO 4SM 09/08 A3003 RMK T00900080 IEM_DS3505
ZGKL,2008-12-12 02:00,ZGKL 120200Z AUTO 4SM 13/10 A3006 RMK T01300100 IEM_DS3505
ZGKL,2008-12-12 03:00,ZGKL 120300Z AUTO 11002KT 7SM 16/07 A3006 RMK SLP184 T01630070 52007 IEM_DS3505
ZGKL,2008-12-12 04:00,ZGKL 120400Z AUTO 4SM 18/07 A3000 RMK T01800070 IEM_DS3505
ZGKL,2008-12-12 05:00,ZGKL 120500Z AUTO 6SM 19/06 A2997 RMK T01900060 IEM_DS3505
ZGKL,2008-12-12 06:00,ZGKL 120600Z AUTO 11002KT 7SM 21/05 A2994 RMK SLP142 T02130052 57040 IEM_DS3505
ZGKL,2008-12-12 07:00,ZGKL 120700Z AUTO 6SM 20/06 A2991 RMK T02000060 IEM_DS3505
ZGKL,2008-12-12 08:00,ZGKL 120800Z AUTO 6SM 21/06 A2988 RMK T02100060 IEM_DS3505
ZGKL,2008-12-12 09:00,ZGKL 120900Z AUTO 32002KT 7SM 21/07 A2991 RMK SLP132 T02080071 57010 IEM_DS3505
ZGKL,2008-12-12 10:00,ZGKL 121000Z AUTO 31002KT 4SM 18/09 A2991 RMK T01800090 IEM_DS3505
ZGKL,2008-12-12 11:00,ZGKL 121100Z AUTO 23002KT 4SM 17/09 A2994 RMK T01700090 IEM_DS3505
ZGKL,2008-12-12 12:00,ZGKL 121200Z AUTO 32002KT 7SM 17/10 A2994 RMK SLP154 T01730095 52020 IEM_DS3505
ZGKL,2008-12-12 13:00,ZGKL 121300Z AUTO 00000KT 2 1/2SM 16/12 A2997 RMK T01600120 IEM_DS3505
ZGKL,2008-12-12 14:00,ZGKL 121400Z AUTO 29004KT 2 1/2SM 15/12 A3000 RMK T01500120 IEM_DS3505
ZGKL,2008-12-12 15:00,ZGKL 121500Z AUTO 00000KT 7SM 16/10 A3003 RMK SLP173 T01630102 52020 IEM_DS3505
ZGKL,2008-12-12 16:00,ZGKL 121600Z AUTO 30002KT 2 1/2SM 14/13 A3003 RMK T01400130 IEM_DS3505
ZGKL,2008-12-12 17:00,ZGKL 121700Z AUTO 1 1/2SM 13/12 A3003 RMK T01300120 IEM_DS3505
ZGKL,2008-12-12 18:00,ZGKL 121800Z AUTO 32002KT 7SM 14/10 A3003 RMK SLP174 T01430097 52002 IEM_DS3505
ZGKL,2008-12-12 19:00,ZGKL 121900Z AUTO 34004KT 2SM 11/11 A3003 RMK T01100110 IEM_DS3505
ZGKL,2008-12-12 20:00,ZGKL 122000Z AUTO 00000KT 1SM 10/10 A3003 RMK T01000100 IEM_DS3505
ZGKL,2008-12-12 21:00,ZGKL 122100Z AUTO 00000KT 7SM 13/10 A3003 RMK SLP182 T01320100 52008 IEM_DS3505
ZGKL,2008-12-12 22:00,ZGKL 122200Z AUTO 00000KT 1 1/2SM 11/11 A3006 RMK T01100110 IEM_DS3505
ZGKL,2008-12-12 23:00,ZGKL 122300Z AUTO 00000KT 1 1/2SM 11/11 A3009 RMK T01100110 IEM_DS3505
ZGKL,2008-12-13 00:00,ZGKL 130000Z AUTO 36004KT 6SM 16/09 A3012 RMK SLP212 T01560086 52029 IEM_DS3505
ZGKL,2008-12-13 01:00,ZGKL 130100Z AUTO 3SM 13/12 A3015 RMK T01300120 IEM_DS3505
ZGKL,2008-12-13 02:00,ZGKL 130200Z AUTO 3SM 16/13 A3018 RMK T01600130 IEM_DS3505
ZGKL,2008-12-13 03:00,ZGKL 130300Z AUTO 36012KT 6SM 18/07 A3021 RMK SLP232 T01790070 52020 IEM_DS3505
ZGKL,2008-12-13 04:00,ZGKL 130400Z AUTO 06008KT 2 1/2SM 20/09 A3018 RMK T02000090 IEM_DS3505
ZGKL,2008-12-13 05:00,ZGKL 130500Z AUTO 06010KT 2 1/2SM 19/08 A3015 RMK T01900080 IEM_DS3505
ZGKL,2008-12-13 06:00,ZGKL 130600Z AUTO 02010KT 4SM 18/08 A3012 RMK SLP213 T01850076 57019 IEM_DS3505
ZGKL,2008-12-13 07:00,ZGKL 130700Z AUTO 07010KT 2 1/2SM 19/08 A3012 RMK T01900080 IEM_DS3505
ZGKL,2008-12-13 08:00,ZGKL 130800Z AUTO 06012KT 2 1/2SM 18/07 A3012 RMK T01800070 IEM_DS3505
ZGKL,2008-12-13 09:00,ZGKL 130900Z AUTO 02010KT 4SM 16/07 A3015 RMK SLP226 T01650069 52011 IEM_DS3505
ZGKL,2008-12-13 10:00,ZGKL 131000Z AUTO 05010KT 2SM 15/07 A3018 RMK T01500070 IEM_DS3505
ZGKL,2008-12-13 11:00,ZGKL 131100Z AUTO 05012KT 2SM 15/07 A3021 RMK T01500070 IEM_DS3505
ZGKL,2008-12-13 12:00,ZGKL 131200Z AUTO 02014KT 4SM 14/07 A3024 RMK SLP249 T01400066 52023 IEM_DS3505
ZGKL,2008-12-13 13:00,ZGKL 131300Z AUTO 05008KT 2 1/2SM 14/07 A3027 RMK T01400070 IEM_DS3505
ZGKL,2008-12-13 14:00,ZGKL 131400Z AUTO 06008KT 2 1/2SM 13/07 A3027 RMK T01300070 IEM_DS3505
ZGKL,2008-12-13 15:00,ZGKL 131500Z AUTO 02008KT 4SM 13/06 A3027 RMK SLP265 T01310058 52016 IEM_DS3505
ZGKL,2008-12-13 16:00,ZGKL 131600Z AUTO 05010KT 2 1/2SM 13/07 A3030 RMK T01300070 IEM_DS3505
ZGKL,2008-12-13 17:00,ZGKL 131700Z AUTO 06008KT 4SM 12/07 A3030 RMK T01200070 IEM_DS3505
ZGKL,2008-12-13 18:00,ZGKL 131800Z AUTO 02008KT 4SM 12/05 A3030 RMK SLP272 T01220047 52007 IEM_DS3505
ZGKL,2008-12-13 19:00,ZGKL 131900Z AUTO 06008KT 4SM 12/06 A3030 RMK T01200060 IEM_DS3505
ZGKL,2008-12-13 20:00,ZGKL 132000Z AUTO 06010KT 4SM 12/05 A3030 RMK T01200050 IEM_DS3505
ZGKL,2008-12-13 21:00,ZGKL 132100Z AUTO 02008KT 4SM 11/03 A3030 RMK SLP271 T01140032 57002 IEM_DS3505
ZGKL,2008-12-13 22:00,ZGKL 132200Z AUTO 06008KT 3SM 10/05 A3030 RMK T01000050 IEM_DS3505
ZGKL,2008-12-13 23:00,ZGKL 132300Z AUTO 3SM 09/05 A3033 RMK T00900050 IEM_DS3505
ZGKL,2008-12-14 00:00,ZGKL 140000Z AUTO 02010KT 4SM 10/02 A3036 RMK SLP291 T01000021 52018 IEM_DS3505
ZGKL,2008-12-14 01:00,ZGKL 140100Z AUTO 1 1/2SM 11/06 A3036 RMK T01100060 IEM_DS3505
ZGKL,2008-12-14 02:00,ZGKL 140200Z AUTO 05008KT 2SM 12/04 A3036 RMK T01200040 IEM_DS3505
ZGKL,2008-12-14 03:00,ZGKL 140300Z AUTO 02008KT 4SM 12/02 A3036 RMK SLP294 T01170022 52003 IEM_DS3505
ZGKL,2008-12-14 04:00,ZGKL 140400Z AUTO 05010KT 2 1/2SM 14/02 A3033 RMK T01400020 IEM_DS3505
ZGKL,2008-12-14 05:00,ZGKL 140500Z AUTO 06006KT 2 1/2SM 15/02 A3027 RMK T01500020 IEM_DS3505
ZGKL,2008-12-14 06:00,ZGKL 140600Z AUTO 36010KT 5SM 16/01 A3024 RMK SLP246 T01550009 57046 IEM_DS3505
ZGKL,2008-12-14 07:00,ZGKL 140700Z AUTO 06008KT 3SM 16/00 A3021 RMK T01600000 IEM_DS3505
ZGKL,2008-12-14 08:00,ZGKL 140800Z AUTO 07008KT 3SM 16/M01 A3021 RMK T01601010 IEM_DS3505
ZGKL,2008-12-14 09:00,ZGKL 140900Z AUTO 02004KT 6SM 15/01 A3021 RMK SLP242 T01510013 57004 IEM_DS3505
ZGKL,2008-12-14 10:00,ZGKL 141000Z AUTO 07008KT 2 1/2SM 14/02 A3021 RMK T01400020 IEM_DS3505
ZGKL,2008-12-14 11:00,ZGKL 141100Z AUTO 06016KT 2 1/2SM 13/M01 A3024 RMK T01301010 IEM_DS3505
ZGKL,2008-12-14 12:00,ZGKL 141200Z AUTO 02006KT 6SM 12/00 A3027 RMK SLP260 T01210005 52016 IEM_DS3505
ZGKL,2008-12-14 13:00,ZGKL 141300Z AUTO 2 1/2SM 11/01 A3027 RMK T01100010 IEM_DS3505
ZGKL,2008-12-14 14:00,ZGKL 141400Z AUTO 2 1/2SM 09/01 A3027 RMK T00900010 IEM_DS3505
ZGKL,2008-12-14 15:00,ZGKL 141500Z AUTO 36006KT 6SM 10/02 A3030 RMK SLP269 T01020021 52009 IEM_DS3505
ZGKL,2008-12-14 16:00,ZGKL 141600Z AUTO 3SM 07/03 A3027 RMK T00700030 IEM_DS3505
ZGKL,2008-12-14 17:00,ZGKL 141700Z AUTO 2SM 07/04 A3027 RMK T00700040 IEM_DS3505
ZGKL,2008-12-14 18:00,ZGKL 141800Z AUTO 02006KT 6SM 09/02 A3027 RMK SLP261 T00910022 57007 IEM_DS3505
ZGKL,2008-12-14 19:00,ZGKL 141900Z AUTO 1 1/2SM 05/05 A3027 RMK T00500050 IEM_DS3505
ZGKL,2008-12-14 20:00,ZGKL 142000Z AUTO 1SM 05/04 A3024 RMK T00500040 IEM_DS3505
ZGKL,2008-12-14 21:00,ZGKL 142100Z AUTO 02006KT 6SM 08/02 A3024 RMK SLP250 T00780025 57012 IEM_DS3505
ZGKL,2008-12-14 22:00,ZGKL 142200Z AUTO 1 1/2SM 06/05 A3024 RMK T00600050 IEM_DS3505
ZGKL,2008-12-14 23:00,ZGKL 142300Z AUTO 1 1/4SM 06/06 A3027 RMK T00600060 IEM_DS3505
ZGKL,2008-12-15 00:00,ZGKL 150000Z AUTO 02004KT 6SM 09/03 A3027 RMK SLP264 T00860028 52013 IEM_DS3505
ZGKL,2008-12-15 01:00,ZGKL 150100Z AUTO 1 1/4SM 08/07 A3027 RMK T00800070 IEM_DS3505
ZGKL,2008-12-15 02:00,ZGKL 150200Z AUTO 1 1/2SM 10/05 A3030 RMK T01000050 IEM_DS3505
ZGKL,2008-12-15 03:00,ZGKL 150300Z AUTO 36004KT 6SM 12/02 A3027 RMK SLP264 T01190024 52001 IEM_DS3505
ZGKL,2008-12-15 04:00,ZGKL 150400Z AUTO 3SM 13/01 A3024 RMK T01300010 IEM_DS3505
ZGKL,2008-12-15 05:00,ZGKL 150500Z AUTO 4SM 15/01 A3018 RMK T01500010 IEM_DS3505
ZGKL,2008-12-15 06:00,ZGKL 150600Z AUTO 02004KT 6SM 17/01 A3015 RMK SLP219 T01660007 57043 IEM_DS3505
ZGKL,2008-12-15 07:00,ZGKL 150700Z AUTO 4SM 17/00 A3012 RMK T01700000 IEM_DS3505
ZGKL,2008-12-15 08:00,ZGKL 150800Z AUTO 6SM 17/00 A3009 RMK T01700000 IEM_DS3505
ZGKL,2008-12-15 09:00,ZGKL 150900Z AUTO 36004KT 8SM 17/M02 A3009 RMK SLP204 T01691022 57015 IEM_DS3505
ZGKL,2008-12-15 10:00,ZGKL 151000Z AUTO 27002KT 4SM 14/01 A3012 RMK T01400010 IEM_DS3505
ZGKL,2008-12-15 11:00,ZGKL 151100Z AUTO 26002KT 3SM 11/04 A3012 RMK T01100040 IEM_DS3505
ZGKL,2008-12-15 12:00,ZGKL 151200Z AUTO 02004KT 8SM 13/M00 A3015 RMK SLP220 T01271002 52014 IEM_DS3505
ZGKL,2008-12-15 13:00,ZGKL 151300Z AUTO 2 1/2SM 08/06 A3015 RMK T00800060 IEM_DS3505
ZGKL,2008-12-15 14:00,ZGKL 151400Z AUTO 33004KT 2SM 08/05 A3018 RMK T00800050 IEM_DS3505
ZGKL,2008-12-15 15:00,ZGKL 151500Z AUTO 02006KT 8SM 11/M00 A3018 RMK SLP234 T01111001 52015 IEM_DS3505
ZGKL,2008-12-15 16:00,ZGKL 151600Z AUTO 1 1/2SM 06/05 A3018 RMK T00600050 IEM_DS3505
ZGKL,2008-12-15 17:00,ZGKL 151700Z AUTO 2 1/2SM 06/05 A3018 RMK T00600050 IEM_DS3505
ZGKL,2008-12-15 18:00,ZGKL 151800Z AUTO 36002KT 8SM 10/01 A3015 RMK SLP227 T01000009 57006 IEM_DS3505
ZGKL,2008-12-15 19:00,ZGKL 151900Z AUTO 2SM 06/06 A3015 RMK T00600060 IEM_DS3505
ZGKL,2008-12-15 20:00,ZGKL 152000Z AUTO 32002KT 2 1/2SM 07/06 A3015 RMK T00700060 IEM_DS3505
ZGKL,2008-12-15 21:00,ZGKL 152100Z AUTO 36002KT 8SM 09/03 A3015 RMK SLP225 T00930031 57002 IEM_DS3505
ZGKL,2008-12-15 22:00,ZGKL 152200Z AUTO 2 1/2SM 07/06 A3018 RMK T00700060 IEM_DS3505
ZGKL,2008-12-15 23:00,ZGKL 152300Z AUTO 00000KT 2 1/2SM 06/06 A3018 RMK T00600060 IEM_DS3505
ZGKL,2008-12-16 00:00,ZGKL 160000Z AUTO 00000KT 5SM 09/04 A3018 RMK SLP237 T00940044 52010 IEM_DS3505
ZGKL,2008-12-16 01:00,ZGKL 160100Z AUTO 00000KT 2 1/2SM 08/07 A3021 RMK T00800070 IEM_DS3505
ZGKL,2008-12-16 02:00,ZGKL 160200Z AUTO 2 1/2SM 12/07 A3021 RMK T01200070 IEM_DS3505
ZGKL,2008-12-16 03:00,ZGKL 160300Z AUTO 02002KT 5SM 14/03 A3021 RMK SLP237 T01430032 52002 IEM_DS3505
ZGKL,2008-12-16 04:00,ZGKL 160400Z AUTO 3SM 16/02 A3015 RMK T01600020 IEM_DS3505
ZGKL,2008-12-16 05:00,ZGKL 160500Z AUTO 18004KT 4SM 18/02 A3012 RMK T01800020 IEM_DS3505
ZGKL,2008-12-16 06:00,ZGKL 160600Z AUTO 14004KT 6SM 18/01 A3009 RMK SLP200 T01820012 57036 IEM_DS3505
ZGKL,2008-12-16 07:00,ZGKL 160700Z AUTO 4SM 19/01 A3006 RMK T01900010 IEM_DS3505
ZGKL,2008-12-16 08:00,ZGKL 160800Z AUTO 4SM 20/01 A3006 RMK T02000010 IEM_DS3505
ZGKL,2008-12-16 09:00,ZGKL 160900Z AUTO 14002KT 8SM 19/01 A3006 RMK SLP188 T01880013 57012 IEM_DS3505
ZGKL,2008-12-16 10:00,ZGKL 161000Z AUTO 03002KT 4SM 15/05 A3006 RMK T01500050 IEM_DS3505
ZGKL,2008-12-16 11:00,ZGKL 161100Z AUTO 32002KT 3SM 12/08 A3009 RMK T01200080 IEM_DS3505
ZGKL,2008-12-16 12:00,ZGKL 161200Z AUTO 36002KT 7SM 14/06 A3012 RMK SLP211 T01360060 52021 IEM_DS3505
ZGKL,2008-12-16 13:00,ZGKL 161300Z AUTO 32002KT 2 1/2SM 09/07 A3015 RMK T00900070 IEM_DS3505
ZGKL,2008-12-16 14:00,ZGKL 161400Z AUTO 32004KT 2SM 09/08 A3015 RMK T00900080 IEM_DS3505
ZGKL,2008-12-16 15:00,ZGKL 161500Z AUTO 02002KT 7SM 11/05 A3015 RMK SLP225 T01080053 52015 IEM_DS3505
ZGKL,2008-12-16 16:00,ZGKL 161600Z AUTO 2SM 08/07 A3018 RMK T00800070 IEM_DS3505
ZGKL,2008-12-16 17:00,ZGKL 161700Z AUTO 04002KT 1 1/2SM 07/06 A3018 RMK T00700060 IEM_DS3505
ZGKL,2008-12-16 18:00,ZGKL 161800Z AUTO 1 1/2SM 06/06 A3018 RMK T00600060 IEM_DS3505
ZGKL,2008-12-16 19:00,ZGKL 161900Z AUTO 1SM 06/05 A3018 RMK T00600050 IEM_DS3505
ZGKL,2008-12-16 20:00,ZGKL 162000Z AUTO 00000KT 2 1/2SM 05/05 A3015 RMK T00500050 IEM_DS3505
ZGKL,2008-12-16 21:00,ZGKL 162100Z AUTO 04002KT 7SM 08/06 A3015 RMK SLP225 T00810056 57005 IEM_DS3505
ZGKL,2008-12-16 22:00,ZGKL 162200Z AUTO 00000KT 2SM 05/05 A3018 RMK T00500050 IEM_DS3505
ZGKL,2008-12-16 23:00,ZGKL 162300Z AUTO 00000KT 2SM 04/04 A3018 RMK T00400040 IEM_DS3505
ZGKL,2008-12-17 00:00,ZGKL 170000Z AUTO 02002KT 6SM 08/06 A3021 RMK SLP247 T00760059 52020 IEM_DS3505
ZGKL,2008-12-17 01:00,ZGKL 170100Z AUTO 1 1/4SM 08/07 A3024 RMK T00800070 IEM_DS3505
ZGKL,2008-12-17 02:00,ZGKL 170200Z AUTO 2SM 11/08 A3027 RMK T01100080 IEM_DS3505
ZGKL,2008-12-17 03:00,ZGKL 170300Z AUTO 09002KT 5SM 15/07 A3024 RMK SLP252 T01460067 52006 IEM_DS3505
ZGKL,2008-12-17 04:00,ZGKL 170400Z AUTO 2 1/2SM 17/07 A3021 RMK T01700070 IEM_DS3505
ZGKL,2008-12-17 05:00,ZGKL 170500Z AUTO 2 1/2SM 19/06 A3015 RMK T01900060 IEM_DS3505
ZGKL,2008-12-17 06:00,ZGKL 170600Z AUTO 02002KT 5SM 21/04 A3012 RMK SLP210 T02070039 57039 IEM_DS3505
ZGKL,2008-12-17 07:00,ZGKL 170700Z AUTO 3SM 22/06 A3009 RMK T02200060 IEM_DS3505
ZGKL,2008-12-17 08:00,ZGKL 170800Z AUTO 3SM 22/05 A3009 RMK T02200050 IEM_DS3505
ZGKL,2008-12-17 09:00,ZGKL 170900Z AUTO 20002KT 5SM 21/06 A3009 RMK SLP201 T02080056 57010 IEM_DS3505
ZGKL,2008-12-17 10:00,ZGKL 171000Z AUTO 2 1/2SM 17/08 A3012 RMK T01700080 IEM_DS3505
ZGKL,2008-12-17 11:00,ZGKL 171100Z AUTO 2 1/2SM 14/10 A3015 RMK T01400100 IEM_DS3505
ZGKL,2008-12-17 12:00,ZGKL 171200Z AUTO 32002KT 6SM 14/08 A3015 RMK SLP221 T01440081 52018 IEM_DS3505
ZGKL,2008-12-17 13:00,ZGKL 171300Z AUTO 28002KT 2 1/2SM 11/10 A3015 RMK T01100100 IEM_DS3505
ZGKL,2008-12-17 14:00,ZGKL 171400Z AUTO 33002KT 2SM 10/09 A3015 RMK T01000090 IEM_DS3505
ZGKL,2008-12-17 15:00,ZGKL 171500Z AUTO 16002KT 6SM 12/09 A3018 RMK SLP229 T01170086 52009 IEM_DS3505
ZGKL,2008-12-17 16:00,ZGKL 171600Z AUTO 2SM 08/07 A3018 RMK T00800070 IEM_DS3505
ZGKL,2008-12-17 17:00,ZGKL 171700Z AUTO 00000KT 2 1/2SM 08/07 A3018 RMK T00800070 IEM_DS3505
ZGKL,2008-12-17 18:00,ZGKL 171800Z AUTO 14002KT 6SM 10/08 A3018 RMK SLP230 T01050077 52003 IEM_DS3505
ZGKL,2008-12-17 19:00,ZGKL 171900Z AUTO 00000KT 1SM 07/06 A3018 RMK T00700060 IEM_DS3505
ZGKL,2008-12-17 20:00,ZGKL 172000Z AUTO 00000KT 1 1/2SM 06/06 A3018 RMK T00600060 IEM_DS3505
ZGKL,2008-12-17 21:00,ZGKL 172100Z AUTO 32002KT 6SM 09/07 A3018 RMK SLP229 T00930069 57002 IEM_DS3505
ZGKL,2008-12-17 22:00,ZGKL 172200Z AUTO 00000KT 2 1/2SM 06/06 A3018 RMK T00600060 IEM_DS3505
ZGKL,2008-12-17 23:00,ZGKL 172300Z AUTO 1 1/4SM 05/05 A3021 RMK T00500050 IEM_DS3505
ZGKL,2008-12-18 00:00,ZGKL 180000Z AUTO 00000KT 5SM 09/08 A3024 RMK SLP250 T00880076 52019 IEM_DS3505
ZGKL,2008-12-18 01:00,ZGKL 180100Z AUTO 2SM 09/09 A3024 RMK T00900090 IEM_DS3505
ZGKL,2008-12-18 02:00,ZGKL 180200Z AUTO 2 1/2SM 12/10 A3027 RMK T01200100 IEM_DS3505
ZGKL,2008-12-18 03:00,ZGKL 180300Z AUTO 16002KT 5SM 16/08 A3024 RMK SLP250 T01620084 52001 IEM_DS3505
ZGKL,2008-12-18 04:00,ZGKL 180400Z AUTO 3SM 19/07 A3021 RMK T01900070 IEM_DS3505
ZGKL,2008-12-18 05:00,ZGKL 180500Z AUTO 3SM 20/07 A3015 RMK T02000070 IEM_DS3505
ZGKL,2008-12-18 06:00,ZGKL 180600Z AUTO 36002KT 5SM 22/06 A3012 RMK SLP201 T02220064 57046 IEM_DS3505
ZGKL,2008-12-18 07:00,ZGKL 180700Z AUTO 23004KT 3SM 22/07 A3009 RMK T02200070 IEM_DS3505
ZGKL,2008-12-18 08:00,ZGKL 180800Z AUTO 3SM 23/07 A3009 RMK T02300070 IEM_DS3505
ZGKL,2008-12-18 09:00,ZGKL 180900Z AUTO 04002KT 6SM 22/08 A3006 RMK SLP193 T02150081 57009 IEM_DS3505
ZGKL,2008-12-18 10:00,ZGKL 181000Z AUTO 27004KT 3SM 18/09 A3009 RMK T01800090 IEM_DS3505
ZGKL,2008-12-18 11:00,ZGKL 181100Z AUTO 29004KT 2SM 14/10 A3009 RMK T01400100 IEM_DS3505
ZGKL,2008-12-18 12:00,ZGKL 181200Z AUTO 36004KT 6SM 17/07 A3012 RMK SLP212 T01660070 52017 IEM_DS3505
ZGKL,2008-12-18 13:00,ZGKL 181300Z AUTO 33004KT 1 1/2SM 11/10 A3015 RMK T01100100 IEM_DS3505
ZGKL,2008-12-18 14:00,ZGKL 181400Z AUTO 00000KT 1 1/2SM 11/09 A3015 RMK T01100090 IEM_DS3505
ZGKL,2008-12-18 15:00,ZGKL 181500Z AUTO 36002KT 6SM 15/06 A3018 RMK SLP224 T01490065 52014 IEM_DS3505
ZGKL,2008-12-18 16:00,ZGKL 181600Z AUTO 1 1/4SM 09/09 A3018 RMK T00900090 IEM_DS3505
ZGKL,2008-12-18 17:00,ZGKL 181700Z AUTO 03002KT 2 1/2SM 08/08 A3015 RMK T00800080 IEM_DS3505
ZGKL,2008-12-18 18:00,ZGKL 181800Z AUTO 2SM 07/07 A3015 RMK T00700070 IEM_DS3505
ZGKL,2008-12-18 19:00,ZGKL 181900Z AUTO 1SM 07/07 A3015 RMK T00700070 IEM_DS3505
ZGKL,2008-12-18 20:00,ZGKL 182000Z AUTO 00000KT 1SM 06/06 A3015 RMK T00600060 IEM_DS3505
ZGKL,2008-12-18 21:00,ZGKL 182100Z AUTO 07002KT 6SM 10/07 A3012 RMK SLP214 T01010073 57005 IEM_DS3505
ZGKL,2008-12-18 22:00,ZGKL 182200Z AUTO 00000KT 2SM 06/06 A3015 RMK T00600060 IEM_DS3505
ZGKL,2008-12-18 23:00,ZGKL 182300Z AUTO 19002KT 1SM 05/05 A3015 RMK T00500050 IEM_DS3505
ZGKL,2008-12-19 00:00,ZGKL 190000Z AUTO 02002KT 6SM 09/07 A3018 RMK SLP227 T00920073 52011 IEM_DS3505
ZGKL,2008-12-19 01:00,ZGKL 190100Z AUTO 1 1/4SM 08/08 A3018 RMK T00800080 IEM_DS3505
ZGKL,2008-12-19 02:00,ZGKL 190200Z AUTO 1 1/2SM 12/10 A3018 RMK T01200100 IEM_DS3505
ZGKL,2008-12-19 03:00,ZGKL 190300Z AUTO 34002KT 6SM 16/08 A3018 RMK SLP230 T01560076 52004 IEM_DS3505
ZGKL,2008-12-19 04:00,ZGKL 190400Z AUTO 1 1/2SM 18/09 A3015 RMK T01800090 IEM_DS3505
ZGKL,2008-12-19 05:00,ZGKL 190500Z AUTO 15004KT 2SM 20/08 A3009 RMK T02000080 IEM_DS3505
ZGKL,2008-12-19 06:00,ZGKL 190600Z AUTO 18004KT 6SM 21/08 A3006 RMK SLP187 T02070080 57041 IEM_DS3505
ZGKL,2008-12-19 07:00,ZGKL 190700Z AUTO 21004KT 2 1/2SM 22/08 A3003 RMK T02200080 IEM_DS3505
ZGKL,2008-12-19 08:00,ZGKL 190800Z AUTO 3SM 22/08 A3003 RMK T02200080 IEM_DS3505
ZGKL,2008-12-19 09:00,ZGKL 190900Z AUTO 18002KT 6SM 22/08 A3003 RMK SLP176 T02180080 57011 IEM_DS3505
ZGKL,2008-12-19 10:00,ZGKL 191000Z AUTO 27004KT 2 1/2SM 18/10 A3003 RMK T01800100 IEM_DS3505
ZGKL,2008-12-19 11:00,ZGKL 191100Z AUTO 2SM 15/11 A3006 RMK T01500110 IEM_DS3505
ZGKL,2008-12-19 12:00,ZGKL 191200Z AUTO 00000KT 6SM 15/10 A3009 RMK SLP198 T01530101 52019 IEM_DS3505
ZGKL,2008-12-19 13:00,ZGKL 191300Z AUTO 33004KT 2SM 13/11 A3009 RMK T01300110 IEM_DS3505
ZGKL,2008-12-19 14:00,ZGKL 191400Z AUTO 26002KT 2SM 11/10 A3012 RMK T01100100 IEM_DS3505
ZGKL,2008-12-19 15:00,ZGKL 191500Z AUTO 02002KT 6SM 13/10 A3012 RMK SLP207 T01330099 52010 IEM_DS3505
ZGKL,2008-12-19 16:00,ZGKL 191600Z AUTO 1 1/2SM 10/09 A3012 RMK T01000090 IEM_DS3505
ZGKL,2008-12-19 17:00,ZGKL 191700Z AUTO 34002KT 1 1/2SM 09/09 A3012 RMK T00900090 IEM_DS3505
ZGKL,2008-12-19 18:00,ZGKL 191800Z AUTO 02002KT 1 1/4SM 09/08 A3009 RMK T00900080 IEM_DS3505
ZGKL,2008-12-19 19:00,ZGKL 191900Z AUTO 00000KT 1SM 08/08 A3009 RMK T00800080 IEM_DS3505
ZGKL,2008-12-19 20:00,ZGKL 192000Z AUTO 00000KT 1 1/2SM 08/08 A3009 RMK T00800080 IEM_DS3505
ZGKL,2008-12-19 21:00,ZGKL 192100Z AUTO 00000KT 6SM 10/09 A3006 RMK SLP192 T01010093 57007 IEM_DS3505
ZGKL,2008-12-19 22:00,ZGKL 192200Z AUTO 00000KT 1 1/4SM 07/07 A3009 RMK T00700070 IEM_DS3505
ZGKL,2008-12-19 23:00,ZGKL 192300Z AUTO 00000KT 1 1/4SM 07/07 A3009 RMK T00700070 IEM_DS3505
ZGKL,2008-12-20 00:00,ZGKL 200000Z AUTO 02002KT 6SM 10/09 A3012 RMK SLP209 T01000091 52014 IEM_DS3505
ZGKL,2008-12-20 01:00,ZGKL 200100Z AUTO 1SM 10/09 A3012 RMK T01000090 IEM_DS3505
ZGKL,2008-12-20 02:00,ZGKL 200200Z AUTO 2SM 12/11 A3012 RMK T01200110 IEM_DS3505
ZGKL,2008-12-20 03:00,ZGKL 200300Z AUTO 07002KT 5SM 16/10 A3012 RMK SLP209 T01590102 52001 IEM_DS3505
ZGKL,2008-12-20 04:00,ZGKL 200400Z AUTO 2 1/2SM 19/10 A3009 RMK T01900100 IEM_DS3505
ZGKL,2008-12-20 05:00,ZGKL 200500Z AUTO 13004KT 2 1/2SM 20/10 A3003 RMK T02000100 IEM_DS3505
ZGKL,2008-12-20 06:00,ZGKL 200600Z AUTO 18004KT 5SM 22/09 A2997 RMK SLP157 T02230091 57049 IEM_DS3505
ZGKL,2008-12-20 07:00,ZGKL 200700Z AUTO 18012KT 4SM 24/08 A2994 RMK T02400080 IEM_DS3505
ZGKL,2008-12-20 08:00,ZGKL 200800Z AUTO 18014KT 6SM 24/08 A2991 RMK T02400080 IEM_DS3505
ZGKL,2008-12-20 09:00,ZGKL 200900Z AUTO 20002KT 6SM 23/10 A2994 RMK SLP141 T02270098 57016 IEM_DS3505
ZGKL,2008-12-20 10:00,ZGKL 201000Z AUTO 20006KT 6SM 20/09 A2994 RMK T02000090 IEM_DS3505
ZGKL,2008-12-20 11:00,ZGKL 201100Z AUTO 25004KT 6SM 18/10 A2997 RMK T01800100 IEM_DS3505
ZGKL,2008-12-20 12:00,ZGKL 201200Z AUTO 00000KT 6SM 18/12 A2997 RMK SLP162 T01790115 52019 IEM_DS3505
ZGKL,2008-12-20 13:00,ZGKL 201300Z AUTO 2 1/2SM 15/12 A2997 RMK T01500120 IEM_DS3505
ZGKL,2008-12-20 14:00,ZGKL 201400Z AUTO 00000KT 2 1/2SM 14/12 A3000 RMK T01400120 IEM_DS3505
ZGKL,2008-12-20 15:00,ZGKL 201500Z AUTO 36002KT 6SM 16/12 A3000 RMK SLP172 T01580116 52011 IEM_DS3505
ZGKL,2008-12-20 16:00,ZGKL 201600Z AUTO 29002KT 2SM 12/11 A3000 RMK T01200110 IEM_DS3505
ZGKL,2008-12-20 17:00,ZGKL 201700Z AUTO 32002KT 1 1/4SM 11/11 A3000 RMK T01100110 IEM_DS3505
ZGKL,2008-12-20 18:00,ZGKL 201800Z AUTO 00000KT 1 1/4SM 11/10 A3000 RMK T01100100 IEM_DS3505
ZGKL,2008-12-20 19:00,ZGKL 201900Z AUTO 2SM 10/10 A3000 RMK T01000100 IEM_DS3505
ZGKL,2008-12-20 20:00,ZGKL 202000Z AUTO 00000KT 1 1/2SM 11/11 A3003 RMK T01100110 IEM_DS3505
ZGKL,2008-12-20 21:00,ZGKL 202100Z AUTO 11002KT 6SM 14/12 A3003 RMK SLP179 T01450122 52010 IEM_DS3505
ZGKL,2008-12-20 22:00,ZGKL 202200Z AUTO 15002KT 2SM 13/12 A3006 RMK T01300120 IEM_DS3505
ZGKL,2008-12-20 23:00,ZGKL 202300Z AUTO 00000KT 2SM 13/12 A3009 RMK T01300120 IEM_DS3505
ZGKL,2008-12-21 00:00,ZGKL 210000Z AUTO 36002KT 6SM 14/12 A3012 RMK SLP208 T01450120 52027 IEM_DS3505
ZGKL,2008-12-21 01:00,ZGKL 210100Z AUTO 2SM 14/13 A3015 RMK T01400130 IEM_DS3505
ZGKL,2008-12-21 02:00,ZGKL 210200Z AUTO 05012KT 2SM 17/11 A3018 RMK T01700110 IEM_DS3505
ZGKL,2008-12-21 03:00,ZGKL 210300Z AUTO 02012KT 5SM 16/08 A3021 RMK SLP236 T01630078 52027 IEM_DS3505
ZGKL,2008-12-21 04:00,ZGKL 210400Z AUTO 06012KT 1 1/2SM 17/09 A3018 RMK T01700090 IEM_DS3505
ZGKL,2008-12-21 05:00,ZGKL 210500Z AUTO 06014KT 1 1/2SM 16/07 A3018 RMK T01600070 IEM_DS3505
ZGKL,2008-12-21 06:00,ZGKL 210600Z AUTO 02014KT 4SM 13/05 A3015 RMK SLP230 T01290046 57008 IEM_DS3505
ZGKL,2008-12-21 07:00,ZGKL 210700Z AUTO 06012KT 1 1/2SM 13/05 A3018 RMK T01300050 IEM_DS3505
ZGKL,2008-12-21 08:00,ZGKL 210800Z AUTO 06008KT 1 1/2SM 13/05 A3021 RMK T01300050 IEM_DS3505
ZGKL,2008-12-21 09:00,ZGKL 210900Z AUTO 02012KT 5SM 11/03 A3024 RMK SLP250 T01140027 52019 IEM_DS3505
ZGKL,2008-12-21 10:00,ZGKL 211000Z AUTO 03014KT 2 1/2SM 11/03 A3027 RMK T01100030 IEM_DS3505
ZGKL,2008-12-21 11:00,ZGKL 211100Z AUTO 03014KT 3SM 11/02 A3030 RMK T01100020 IEM_DS3505
ZGKL,2008-12-21 12:00,ZGKL 211200Z AUTO 02016KT 5SM 10/00 A3033 RMK SLP285 T01030003 52034 IEM_DS3505
ZGKL,2008-12-21 13:00,ZGKL 211300Z AUTO 05010KT 4SM 10/01 A3036 RMK T01000010 IEM_DS3505
ZGKL,2008-12-21 14:00,ZGKL 211400Z AUTO 05014KT 4SM 09/00 A3039 RMK T00900000 IEM_DS3505
ZGKL,2008-12-21 15:00,ZGKL 211500Z AUTO 02016KT 5SM 07/M02 A3042 RMK SLP317 T00741021 52031 IEM_DS3505
ZGKL,2008-12-21 16:00,ZGKL 211600Z AUTO 05014KT 4SM 06/00 A3042 RMK T00600000 IEM_DS3505
ZGKL,2008-12-21 17:00,ZGKL 211700Z AUTO 05012KT 4SM 05/00 A3045 RMK T00500000 IEM_DS3505
ZGKL,2008-12-21 18:00,ZGKL 211800Z AUTO 05014KT 4SM 04/00 A3045 RMK T00400000 IEM_DS3505
ZGKL,2008-12-21 19:00,ZGKL 211900Z AUTO 04010KT 4SM 04/00 A3045 RMK T00400000 IEM_DS3505
ZGKL,2008-12-21 20:00,ZGKL 212000Z AUTO 04016KT 6SM 04/M01 A3045 RMK T00401010 IEM_DS3505
ZGKL,2008-12-21 21:00,ZGKL 212100Z AUTO 02014KT 5SM 03/M03 A3047 RMK 70000 SLP341 T00281031 52009 IEM_DS3505
ZGKL,2008-12-21 22:00,ZGKL 212200Z AUTO 06014KT 7SM 02/M01 A3047 RMK T00201010 IEM_DS3505
ZGKL,2008-12-21 23:00,ZGKL 212300Z AUTO 06012KT 4SM 02/M01 A3050 RMK T00201010 IEM_DS3505
ZGKL,2008-12-22 00:00,ZGKL 220000Z AUTO 02019KT 10SM 02/M04 A3053 RMK 60000 70000 SLP356 T00171040 52013 IEM_DS3505
ZGKL,2008-12-22 01:00,ZGKL 220100Z AUTO 06012KT 5SM 01/M01 A3053 RMK T00101010 IEM_DS3505
ZGKL,2008-12-22 02:00,ZGKL 220200Z AUTO 07012KT 5SM 01/M01 A3056 RMK T00101010 IEM_DS3505
ZGKL,2008-12-22 03:00,ZGKL 220300Z AUTO 02016KT 11SM 01/M05 A3056 RMK SLP370 T00111052 52013 IEM_DS3505
ZGKL,2008-12-22 04:00,ZGKL 220400Z AUTO 06014KT 7SM 01/M02 A3053 RMK T00101020 IEM_DS3505
ZGKL,2008-12-22 05:00,ZGKL 220500Z AUTO 06012KT 7SM 01/M02 A3050 RMK T00101020 IEM_DS3505
ZGKL,2008-12-22 06:00,ZGKL 220600Z AUTO 02012KT 11SM 01/M06 A3047 RMK 60000 SLP343 T00071057 57028 IEM_DS3505
ZGKL,2008-12-22 07:00,ZGKL 220700Z AUTO 06012KT 7SM 01/M04 A3045 RMK T00101040 IEM_DS3505
ZGKL,2008-12-22 08:00,ZGKL 220800Z AUTO 06010KT 7SM 01/M04 A3045 RMK T00101040 IEM_DS3505
ZGKL,2008-12-22 09:00,ZGKL 220900Z AUTO 02010KT 11SM 01/M06 A3045 RMK SLP336 T00061065 57007 IEM_DS3505
ZGKL,2008-12-22 11:00,ZGKL 221100Z AUTO 05008KT 5SM 00/M04 A3047 RMK T00001040 IEM_DS3505
ZGKL,2008-12-22 12:00,ZGKL 221200Z AUTO 02008KT 11SM 00/M07 A3047 RMK 60000 SLP345 T00021071 52008 IEM_DS3505
ZGKL,2008-12-22 13:00,ZGKL 221300Z AUTO 04006KT 5SM 00/M04 A3050 RMK T00001040 IEM_DS3505
ZGKL,2008-12-22 14:00,ZGKL 221400Z AUTO 04004KT 5SM 00/M05 A3047 RMK T00001050 IEM_DS3505
ZGKL,2008-12-22 15:00,ZGKL 221500Z AUTO 02008KT 11SM 00/M08 A3050 RMK SLP349 T00011076 52004 IEM_DS3505
ZGKL,2008-12-22 16:00,ZGKL 221600Z AUTO 05006KT 7SM 00/M06 A3047 RMK T00001060 IEM_DS3505
ZGKL,2008-12-22 17:00,ZGKL 221700Z AUTO 7SM 00/M06 A3047 RMK T00001060 IEM_DS3505
ZGKL,2008-12-22 18:00,ZGKL 221800Z AUTO 02006KT 10SM M00/M06 A3045 RMK 60001 SLP337 T10051055 40047//// 57013 IEM_DS3505
ZGKL,2008-12-22 19:00,ZGKL 221900Z AUTO 06004KT 6SM M01/M04 A3045 RMK T10101040 IEM_DS3505
ZGKL,2008-12-22 20:00,ZGKL 222000Z AUTO 6SM M01/M04 A3045 RMK T10101040 IEM_DS3505
ZGKL,2008-12-22 21:00,ZGKL 222100Z AUTO 02006KT 9SM M01/M04 A3042 RMK 70002 SLP330 T10091037 57007 IEM_DS3505
ZGKL,2008-12-22 22:00,ZGKL 222200Z AUTO 5SM M01/M03 A3042 RMK T10101030 IEM_DS3505
ZGKL,2008-12-22 23:00,ZGKL 222300Z AUTO 4SM M01/M03 A3045 RMK T10101030 IEM_DS3505
ZGKL,2008-12-23 00:00,ZGKL 230000Z AUTO 02004KT 9SM M01/M04 A3045 RMK 60000 70002 SLP335 T10071044 52005 IEM_DS3505
ZGKL,2008-12-23 01:00,ZGKL 230100Z AUTO 05006KT 5SM 00/M04 A3045 RMK T00001040 IEM_DS3505
ZGKL,2008-12-23 02:00,ZGKL 230200Z AUTO 06006KT 5SM 00/M04 A3047 RMK T00001040 IEM_DS3505
ZGKL,2008-12-23 03:00,ZGKL 230300Z AUTO 04006KT 9SM 01/M04 A3045 RMK SLP334 T00101044 54000 IEM_DS3505
ZGKL,2008-12-23 04:00,ZGKL 230400Z AUTO 4SM 02/M03 A3042 RMK T00201030 IEM_DS3505
ZGKL,2008-12-23 05:00,ZGKL 230500Z AUTO 4SM 02/M02 A3036 RMK T00201020 IEM_DS3505
ZGKL,2008-12-23 06:00,ZGKL 230600Z AUTO 02004KT 9SM 02/M04 A3033 RMK SLP289 T00241041 57044 IEM_DS3505
ZGKL,2008-12-23 07:00,ZGKL 230700Z AUTO 4SM 03/M02 A3030 RMK T00301020 IEM_DS3505
ZGKL,2008-12-23 08:00,ZGKL 230800Z AUTO 4SM 03/M01 A3027 RMK T00301010 IEM_DS3505
ZGKL,2008-12-23 09:00,ZGKL 230900Z AUTO 02006KT 8SM 03/M04 A3027 RMK SLP274 T00291037 57015 IEM_DS3505
ZGKL,2008-12-23 10:00,ZGKL 231000Z AUTO 33004KT 4SM 03/00 A3027 RMK T00300000 IEM_DS3505
ZGKL,2008-12-23 11:00,ZGKL 231100Z AUTO 31004KT 3SM 03/00 A3030 RMK T00300000 IEM_DS3505
ZGKL,2008-12-23 12:00,ZGKL 231200Z AUTO 02006KT 8SM 03/M03 A3030 RMK SLP286 T00271034 52012 IEM_DS3505
ZGKL,2008-12-23 14:00,ZGKL 231400Z AUTO 06004KT 3SM 03/M01 A3033 RMK T00301010 IEM_DS3505
ZGKL,2008-12-23 15:00,ZGKL 231500Z AUTO 02006KT 8SM 03/M03 A3033 RMK SLP288 T00291028 52003 IEM_DS3505
ZGKL,2008-12-23 16:00,ZGKL 231600Z AUTO 07002KT 3SM 03/M01 A3033 RMK T00301010 IEM_DS3505
ZGKL,2008-12-23 17:00,ZGKL 231700Z AUTO 08002KT 3SM 03/M01 A3030 RMK T00301010 IEM_DS3505
ZGKL,2008-12-23 18:00,ZGKL 231800Z AUTO 36004KT 8SM 03/M02 A3030 RMK SLP283 T00281017 57005 IEM_DS3505
ZGKL,2008-12-23 19:00,ZGKL 231900Z AUTO 2 1/2SM 03/00 A3030 RMK T00300000 IEM_DS3505
ZGKL,2008-12-23 20:00,ZGKL 232000Z AUTO 31002KT 2SM 03/01 A3030 RMK T00300010 IEM_DS3505
ZGKL,2008-12-23 21:00,ZGKL 232100Z AUTO 36004KT 8SM 02/00 A3030 RMK 70000 SLP278 T00230002 57005 IEM_DS3505
ZGKL,2008-12-23 22:00,ZGKL 232200Z AUTO 1 1/4SM 02/01 A3030 RMK T00200010 IEM_DS3505
ZGKL,2008-12-23 23:00,ZGKL 232300Z AUTO 05002KT 1SM 02/02 A3030 RMK T00200020 IEM_DS3505
ZGKL,2008-12-24 00:00,ZGKL 240000Z AUTO 02004KT 4SM 02/01 A3030 RMK 60000 70000 SLP285 T00180014 52007 IEM_DS3505
ZGKL,2008-12-24 01:00,ZGKL 240100Z AUTO 06004KT 1 1/4SM 02/02 A3033 RMK T00200020 IEM_DS3505
ZGKL,2008-12-24 02:00,ZGKL 240200Z AUTO 11004KT 1 1/2SM 03/02 A3033 RMK T00300020 IEM_DS3505
ZGKL,2008-12-24 03:00,ZGKL 240300Z AUTO 00000KT 4SM 04/01 A3033 RMK SLP285 T00380013 52001 IEM_DS3505
ZGKL,2008-12-24 04:00,ZGKL 240400Z AUTO 3SM 05/03 A3030 RMK T00500030 IEM_DS3505
ZGKL,2008-12-24 05:00,ZGKL 240500Z AUTO 4SM 06/02 A3024 RMK T00600020 IEM_DS3505
ZGKL,2008-12-24 06:00,ZGKL 240600Z AUTO 14002KT 4SM 06/02 A3021 RMK 60000 SLP248 T00580019 57036 IEM_DS3505
ZGKL,2008-12-24 07:00,ZGKL 240700Z AUTO 7SM 07/03 A3018 RMK T00700030 IEM_DS3505
ZGKL,2008-12-24 08:00,ZGKL 240800Z AUTO 7SM 07/04 A3015 RMK T00700040 IEM_DS3505
ZGKL,2008-12-24 09:00,ZGKL 240900Z AUTO 00000KT 4SM 07/02 A3015 RMK SLP232 T00690018 57015 IEM_DS3505
ZGKL,2008-12-24 10:00,ZGKL 241000Z AUTO 30002KT 5SM 06/04 A3018 RMK T00600040 IEM_DS3505
ZGKL,2008-12-24 11:00,ZGKL 241100Z AUTO 4SM 05/04 A3018 RMK T00500040 IEM_DS3505
ZGKL,2008-12-24 12:00,ZGKL 241200Z AUTO 36004KT 4SM 05/02 A3021 RMK SLP248 T00530025 52015 IEM_DS3505
ZGKL,2008-12-24 13:00,ZGKL 241300Z AUTO 2SM 03/03 A3024 RMK T00300030 IEM_DS3505
ZGKL,2008-12-24 14:00,ZGKL 241400Z AUTO 1 1/4SM 03/03 A3024 RMK T00300030 IEM_DS3505
ZGKL,2008-12-24 15:00,ZGKL 241500Z AUTO 36004KT 5SM 06/03 A3027 RMK SLP266 T00550028 52018 IEM_DS3505
ZGKL,2008-12-24 16:00,ZGKL 241600Z AUTO 00000KT 1 1/2SM 04/03 A3027 RMK T00400030 IEM_DS3505
ZGKL,2008-12-24 17:00,ZGKL 241700Z AUTO 29002KT 1SM 04/04 A3027 RMK T00400040 IEM_DS3505
ZGKL,2008-12-24 18:00,ZGKL 241800Z AUTO 32004KT 5SM 06/03 A3027 RMK SLP265 T00600033 54000 IEM_DS3505
ZGKL,2008-12-24 19:00,ZGKL 241900Z AUTO 1SM 04/04 A3027 RMK T00400040 IEM_DS3505
ZGKL,2008-12-24 20:00,ZGKL 242000Z AUTO 33002KT 1 1/4SM 04/04 A3024 RMK T00400040 IEM_DS3505
ZGKL,2008-12-24 21:00,ZGKL 242100Z AUTO 36004KT 4SM 07/03 A3024 RMK 70000 SLP257 T00710032 57007 IEM_DS3505
ZGKL,2008-12-24 22:00,ZGKL 242200Z AUTO 32002KT 1 1/2SM 04/04 A3024 RMK T00400040 IEM_DS3505
ZGKL,2008-12-24 23:00,ZGKL 242300Z AUTO 00000KT 2SM 05/05 A3027 RMK T00500050 IEM_DS3505
ZGKL,2008-12-25 00:00,ZGKL 250000Z AUTO 36004KT 6SM 08/03 A3027 RMK 70000 SLP265 T00770026 52008 IEM_DS3505
ZGKL,2008-12-25 01:00,ZGKL 250100Z AUTO 2 1/2SM 06/05 A3030 RMK T00600050 IEM_DS3505
ZGKL,2008-12-25 02:00,ZGKL 250200Z AUTO 2 1/2SM 08/06 A3030 RMK T00800060 IEM_DS3505
ZGKL,2008-12-25 03:00,ZGKL 250300Z AUTO 02008KT 6SM 12/01 A3030 RMK SLP272 T01200013 52008 IEM_DS3505
ZGKL,2008-12-25 04:00,ZGKL 250400Z AUTO 03006KT 4SM 14/04 A3027 RMK T01400040 IEM_DS3505
ZGKL,2008-12-25 05:00,ZGKL 250500Z AUTO 06008KT 5SM 15/03 A3021 RMK T01500030 IEM_DS3505
ZGKL,2008-12-25 06:00,ZGKL 250600Z AUTO 36010KT 9SM 15/02 A3018 RMK SLP233 T01500022 57037 IEM_DS3505
ZGKL,2008-12-25 07:00,ZGKL 250700Z AUTO 05008KT 6SM 16/02 A3015 RMK T01600020 IEM_DS3505
ZGKL,2008-12-25 08:00,ZGKL 250800Z AUTO 07006KT 6SM 16/02 A3015 RMK T01600020 IEM_DS3505
ZGKL,2008-12-25 09:00,ZGKL 250900Z AUTO 02006KT 9SM 15/02 A3015 RMK SLP221 T01500025 57011 IEM_DS3505
ZGKL,2008-12-25 10:00,ZGKL 251000Z AUTO 07006KT 6SM 14/03 A3015 RMK T01400030 IEM_DS3505
ZGKL,2008-12-25 11:00,ZGKL 251100Z AUTO 05010KT 6SM 13/02 A3018 RMK T01300020 IEM_DS3505
ZGKL,2008-12-25 12:00,ZGKL 251200Z AUTO 36004KT 9SM 12/02 A3018 RMK SLP240 T01170019 52017 IEM_DS3505
ZGKL,2008-12-25 13:00,ZGKL 251300Z AUTO 05006KT 5SM 11/02 A3021 RMK T01100020 IEM_DS3505
ZGKL,2008-12-25 14:00,ZGKL 251400Z AUTO 05006KT 4SM 10/02 A3024 RMK T01000020 IEM_DS3505
ZGKL,2008-12-25 15:00,ZGKL 251500Z AUTO 02006KT 9SM 10/03 A3024 RMK SLP251 T01040027 52012 IEM_DS3505
ZGKL,2008-12-25 16:00,ZGKL 251600Z AUTO 27002KT 4SM 09/05 A3024 RMK T00900050 IEM_DS3505
ZGKL,2008-12-25 17:00,ZGKL 251700Z AUTO 4SM 09/06 A3024 RMK T00900060 IEM_DS3505
ZGKL,2008-12-25 18:00,ZGKL 251800Z AUTO 00000KT 4SM 09/06 A3021 RMK T00900060 IEM_DS3505
ZGKL,2008-12-25 19:00,ZGKL 251900Z AUTO 4SM 09/07 A3021 RMK T00900070 IEM_DS3505
ZGKL,2008-12-25 20:00,ZGKL 252000Z AUTO 24002KT 4SM 09/07 A3021 RMK T00900070 IEM_DS3505
ZGKL,2008-12-25 21:00,ZGKL 252100Z AUTO 02004KT 8SM 10/03 A3018 RMK SLP233 T01040027 57011 IEM_DS3505
ZGKL,2008-12-25 22:00,ZGKL 252200Z AUTO 00000KT 4SM 10/04 A3018 RMK T01000040 IEM_DS3505
ZGKL,2008-12-25 23:00,ZGKL 252300Z AUTO 04004KT 4SM 10/04 A3021 RMK T01000040 IEM_DS3505
ZGKL,2008-12-26 00:00,ZGKL 260000Z AUTO 02008KT 7SM 10/03 A3024 RMK SLP250 T01000026 52015 IEM_DS3505
ZGKL,2008-12-26 01:00,ZGKL 260100Z AUTO 06004KT 3SM 10/04 A3027 RMK T01000040 IEM_DS3505
ZGKL,2008-12-26 02:00,ZGKL 260200Z AUTO 06006KT 3SM 10/04 A3027 RMK T01000040 IEM_DS3505
ZGKL,2008-12-26 03:00,ZGKL 260300Z AUTO 36008KT 7SM 09/04 A3027 RMK SLP271 T00930037 52020 IEM_DS3505
ZGKL,2008-12-26 04:00,ZGKL 260400Z AUTO 09004KT 2SM 09/07 A3027 RMK T00900070 IEM_DS3505
ZGKL,2008-12-26 05:00,ZGKL 260500Z AUTO 06006KT 1 1/2SM 08/07 A3024 RMK T00800070 IEM_DS3505
ZGKL,2008-12-26 06:00,ZGKL 260600Z AUTO 02008KT 5SM 09/05 A3021 RMK 60000 SLP243 T00880054 57028 IEM_DS3505
ZGKL,2008-12-26 07:00,ZGKL 260700Z AUTO 06004KT 1 1/2SM 08/07 A3021 RMK T00800070 IEM_DS3505
ZGKL,2008-12-26 08:00,ZGKL 260800Z AUTO 06004KT 1SM 08/07 A3021 RMK T00800070 IEM_DS3505
ZGKL,2008-12-26 09:00,ZGKL 260900Z AUTO 04006KT 5SM 08/05 A3021 RMK SLP244 T00830052 52001 IEM_DS3505
ZGKL,2008-12-26 10:00,ZGKL 261000Z AUTO 1SM 07/07 A3021 RMK T00700070 IEM_DS3505
ZGKL,2008-12-26 11:00,ZGKL 261100Z AUTO 32002KT 1SM 08/07 A3021 RMK T00800070 IEM_DS3505
ZGKL,2008-12-26 12:00,ZGKL 261200Z AUTO 36004KT 4SM 08/06 A3021 RMK 60000 SLP246 T00810062 52002 IEM_DS3505
ZGKL,2008-12-26 13:00,ZGKL 261300Z AUTO 1SM 08/08 A3021 RMK T00800080 IEM_DS3505
ZGKL,2008-12-26 14:00,ZGKL 261400Z AUTO 1SM 08/07 A3021 RMK T00800070 IEM_DS3505
ZGKL,2008-12-26 15:00,ZGKL 261500Z AUTO 00000KT 4SM 08/07 A3021 RMK SLP251 T00770071 52004 IEM_DS3505
ZGKL,2008-12-26 16:00,ZGKL 261600Z AUTO 1SM 08/07 A3018 RMK T00800070 IEM_DS3505
ZGKL,2008-12-26 17:00,ZGKL 261700Z AUTO 1SM 07/07 A3015 RMK T00700070 IEM_DS3505
ZGKL,2008-12-26 18:00,ZGKL 261800Z AUTO 02004KT 4SM 08/06 A3015 RMK 60008 SLP223 T00750064 57027 IEM_DS3505
ZGKL,2008-12-26 19:00,ZGKL 261900Z AUTO 1SM 08/08 A3012 RMK T00800080 IEM_DS3505
ZGKL,2008-12-26 20:00,ZGKL 262000Z AUTO 1SM 08/08 A3009 RMK T00800080 IEM_DS3505
ZGKL,2008-12-26 21:00,ZGKL 262100Z AUTO 02006KT 4SM 08/06 A3012 RMK 70009 SLP212 T00790064 57011 IEM_DS3505
ZGKL,2008-12-26 22:00,ZGKL 262200Z AUTO 05004KT 1 1/4SM 08/07 A3012 RMK T00800070 IEM_DS3505
ZGKL,2008-12-26 23:00,ZGKL 262300Z AUTO 05004KT 1SM 07/07 A3015 RMK T00700070 IEM_DS3505
ZGKL,2008-12-27 00:00,ZGKL 270000Z AUTO 02004KT 4SM 07/06 A3015 RMK 60000 70009 SLP222 T00740060 52009 IEM_DS3505
ZGKL,2008-12-27 01:00,ZGKL 270100Z AUTO 1SM 07/07 A3015 RMK T00700070 IEM_DS3505
ZGKL,2008-12-27 02:00,ZGKL 270200Z AUTO 1 1/4SM 08/07 A3018 RMK T00800070 IEM_DS3505
ZGKL,2008-12-27 03:00,ZGKL 270300Z AUTO 04004KT 4SM 08/06 A3015 RMK SLP229 T00820065 52007 IEM_DS3505
ZGKL,2008-12-27 04:00,ZGKL 270400Z AUTO 05004KT 1 1/4SM 08/07 A3015 RMK T00800070 IEM_DS3505
ZGKL,2008-12-27 05:00,ZGKL 270500Z AUTO 1 1/4SM 08/07 A3009 RMK T00800070 IEM_DS3505
ZGKL,2008-12-27 06:00,ZGKL 270600Z AUTO 36002KT 4SM 09/07 A3006 RMK 60000 SLP192 T00910069 57036 IEM_DS3505
ZGKL,2008-12-27 07:00,ZGKL 270700Z AUTO 1 1/4SM 09/08 A3003 RMK T00900080 IEM_DS3505
ZGKL,2008-12-27 08:00,ZGKL 270800Z AUTO 1 1/4SM 09/08 A3000 RMK T00900080 IEM_DS3505
ZGKL,2008-12-27 09:00,ZGKL 270900Z AUTO 11002KT 4SM 09/07 A3003 RMK SLP181 T00910071 57010 IEM_DS3505
ZGKL,2008-12-27 10:00,ZGKL 271000Z AUTO 31002KT 1SM 09/08 A3003 RMK T00900080 IEM_DS3505
ZGKL,2008-12-27 11:00,ZGKL 271100Z AUTO 1SM 08/08 A3003 RMK T00800080 IEM_DS3505
ZGKL,2008-12-27 12:00,ZGKL 271200Z AUTO 32002KT 4SM 09/07 A3003 RMK 60000 SLP192 T00880074 52010 IEM_DS3505
ZGKL,2008-12-27 13:00,ZGKL 271300Z AUTO 1SM 09/09 A3003 RMK T00900090 IEM_DS3505
ZGKL,2008-12-27 14:00,ZGKL 271400Z AUTO 1SM 09/09 A3006 RMK T00900090 IEM_DS3505
ZGKL,2008-12-27 15:00,ZGKL 271500Z AUTO 36002KT 4SM 09/08 A3006 RMK SLP195 T00890077 52003 IEM_DS3505
ZGKL,2008-12-27 16:00,ZGKL 271600Z AUTO 1SM 09/09 A3006 RMK T00900090 IEM_DS3505
ZGKL,2008-12-27 17:00,ZGKL 271700Z AUTO 1/2SM 09/09 A3006 RMK T00900090 IEM_DS3505
ZGKL,2008-12-27 18:00,ZGKL 271800Z AUTO 04002KT 4SM 09/08 A3003 RMK 60002 SLP188 T00860082 57006 IEM_DS3505
ZGKL,2008-12-27 19:00,ZGKL 271900Z AUTO 00000KT 3/8SM 09/09 A3003 RMK T00900090 IEM_DS3505
ZGKL,2008-12-27 20:00,ZGKL 272000Z AUTO 00000KT 3/8SM 09/09 A3003 RMK T00900090 IEM_DS3505
ZGKL,2008-12-27 21:00,ZGKL 272100Z AUTO 36002KT 2 1/2SM 09/09 A3003 RMK 70008 SLP184 T00860086 57004 IEM_DS3505
ZGKL,2008-12-27 22:00,ZGKL 272200Z AUTO 1/2SM 09/09 A3003 RMK T00900090 IEM_DS3505
ZGKL,2008-12-27 23:00,ZGKL 272300Z AUTO 00000KT 3/8SM 09/09 A3006 RMK T00900090 IEM_DS3505
ZGKL,2008-12-28 00:00,ZGKL 280000Z AUTO 34002KT 1 1/4SM 09/09 A3009 RMK 60016 70018 SLP202 T00870087 52017 IEM_DS3505
ZGKL,2008-12-28 01:00,ZGKL 280100Z AUTO 00000KT 3/8SM 09/09 A3009 RMK T00900090 IEM_DS3505
ZGKL,2008-12-28 02:00,ZGKL 280200Z AUTO 3/8SM 10/10 A3012 RMK T01000100 IEM_DS3505
ZGKL,2008-12-28 03:00,ZGKL 280300Z AUTO 34004KT 2SM 10/10 A3012 RMK SLP219 T00950095 52017 IEM_DS3505
ZGKL,2008-12-28 04:00,ZGKL 280400Z AUTO 05006KT 1SM 10/10 A3012 RMK T01000100 IEM_DS3505
ZGKL,2008-12-28 05:00,ZGKL 280500Z AUTO 06008KT 1SM 10/10 A3009 RMK T01000100 IEM_DS3505
ZGKL,2008-12-28 06:00,ZGKL 280600Z AUTO 36006KT 2SM 09/09 A3006 RMK 60016 SLP196 T00940091 57022 IEM_DS3505
ZGKL,2008-12-28 07:00,ZGKL 280700Z AUTO 05006KT 1SM 10/09 A3006 RMK T01000090 IEM_DS3505
ZGKL,2008-12-28 08:00,ZGKL 280800Z AUTO 05004KT 1SM 10/09 A3006 RMK T01000090 IEM_DS3505
ZGKL,2008-12-28 09:00,ZGKL 280900Z AUTO 02006KT 3SM 09/08 A3009 RMK SLP201 T00930085 52005 IEM_DS3505
ZGKL,2008-12-28 10:00,ZGKL 281000Z AUTO 06006KT 1 1/4SM 09/09 A3009 RMK T00900090 IEM_DS3505
ZGKL,2008-12-28 11:00,ZGKL 281100Z AUTO 06008KT 1 1/2SM 09/08 A3012 RMK T00900080 IEM_DS3505
ZGKL,2008-12-28 12:00,ZGKL 281200Z AUTO 02006KT 3SM 08/07 A3018 RMK 60004 SLP234 T00820073 52032 IEM_DS3505
ZGKL,2008-12-28 13:00,ZGKL 281300Z AUTO 05004KT 5SM 08/08 A3018 RMK T00800080 IEM_DS3505
ZGKL,2008-12-28 14:00,ZGKL 281400Z AUTO 6SM 08/07 A3021 RMK T00800070 IEM_DS3505
ZGKL,2008-12-28 15:00,ZGKL 281500Z AUTO 02008KT 4SM 08/06 A3024 RMK SLP251 T00800056 52017 IEM_DS3505
ZGKL,2008-12-28 16:00,ZGKL 281600Z AUTO 4SM 08/07 A3024 RMK T00800070 IEM_DS3505
ZGKL,2008-12-28 17:00,ZGKL 281700Z AUTO 05006KT 5SM 08/06 A3024 RMK T00800060 IEM_DS3505
ZGKL,2008-12-28 18:00,ZGKL 281800Z AUTO 02014KT 4SM 08/05 A3024 RMK 60000 SLP253 T00760047 52001 IEM_DS3505
ZGKL,2008-12-28 19:00,ZGKL 281900Z AUTO 05004KT 4SM 08/06 A3024 RMK T00800060 IEM_DS3505
ZGKL,2008-12-28 20:00,ZGKL 282000Z AUTO 4SM 07/06 A3021 RMK T00700060 IEM_DS3505
ZGKL,2008-12-28 21:00,ZGKL 282100Z AUTO 02006KT 4SM 07/05 A3021 RMK 70031 SLP249 T00730046 57004 IEM_DS3505
ZGKL,2008-12-28 22:00,ZGKL 282200Z AUTO 5SM 07/06 A3024 RMK T00700060 IEM_DS3505
ZGKL,2008-12-28 23:00,ZGKL 282300Z AUTO 03004KT 5SM 07/06 A3024 RMK T00700060 IEM_DS3505
ZGKL,2008-12-29 00:00,ZGKL 290000Z AUTO 02010KT 7SM 07/04 A3024 RMK 70020 SLP256 T00740042 52007 IEM_DS3505
ZGKL,2008-12-29 01:00,ZGKL 290100Z AUTO 3SM 08/06 A3027 RMK T00800060 IEM_DS3505
ZGKL,2008-12-29 02:00,ZGKL 290200Z AUTO 5SM 09/06 A3027 RMK T00900060 IEM_DS3505
ZGKL,2008-12-29 03:00,ZGKL 290300Z AUTO 36010KT 8SM 10/04 A3027 RMK SLP269 T00950045 52013 IEM_DS3505
ZGKL,2008-12-29 04:00,ZGKL 290400Z AUTO 07008KT 5SM 11/06 A3024 RMK T01100060 IEM_DS3505
ZGKL,2008-12-29 05:00,ZGKL 290500Z AUTO 07008KT 5SM 12/06 A3021 RMK T01200060 IEM_DS3505
ZGKL,2008-12-29 06:00,ZGKL 290600Z AUTO 36008KT 8SM 11/05 A3015 RMK SLP230 T01130047 57038 IEM_DS3505
ZGKL,2008-12-29 07:00,ZGKL 290700Z AUTO 08010KT 5SM 11/05 A3015 RMK T01100050 IEM_DS3505
ZGKL,2008-12-29 08:00,ZGKL 290800Z AUTO 07010KT 5SM 11/05 A3015 RMK T01100050 IEM_DS3505
ZGKL,2008-12-29 09:00,ZGKL 290900Z AUTO 36008KT 7SM 10/05 A3015 RMK SLP230 T00990047 54000 IEM_DS3505
ZGKL,2008-12-29 10:00,ZGKL 291000Z AUTO 05008KT 3SM 09/05 A3018 RMK T00900050 IEM_DS3505
ZGKL,2008-12-29 12:00,ZGKL 291200Z AUTO 02006KT 5SM 08/06 A3024 RMK 60000 SLP256 T00800060 52025 IEM_DS3505
ZGKL,2008-12-29 13:00,ZGKL 291300Z AUTO 05006KT 2SM 08/06 A3027 RMK T00800060 IEM_DS3505
ZGKL,2008-12-29 14:00,ZGKL 291400Z AUTO 06004KT 1 1/2SM 07/06 A3027 RMK T00700060 IEM_DS3505
ZGKL,2008-12-29 15:00,ZGKL 291500Z AUTO 36006KT 6SM 07/06 A3027 RMK SLP269 T00710056 52013 IEM_DS3505
ZGKL,2008-12-29 16:00,ZGKL 291600Z AUTO 05006KT 1SM 07/06 A3027 RMK T00700060 IEM_DS3505
ZGKL,2008-12-29 17:00,ZGKL 291700Z AUTO 05006KT 1SM 06/06 A3027 RMK T00600060 IEM_DS3505
ZGKL,2008-12-29 18:00,ZGKL 291800Z AUTO 02008KT 6SM 06/05 A3027 RMK 60004 SLP269 T00640047 54000 IEM_DS3505
ZGKL,2008-12-29 19:00,ZGKL 291900Z AUTO 1 1/4SM 06/05 A3027 RMK T00600050 IEM_DS3505
ZGKL,2008-12-29 20:00,ZGKL 292000Z AUTO 1 1/4SM 06/05 A3027 RMK T00600050 IEM_DS3505
ZGKL,2008-12-29 21:00,ZGKL 292100Z AUTO 02010KT 7SM 06/04 A3027 RMK 70006 SLP270 T00620037 52001 IEM_DS3505
ZGKL,2008-12-29 22:00,ZGKL 292200Z AUTO 06006KT 1 1/4SM 06/05 A3030 RMK T00600050 IEM_DS3505
ZGKL,2008-12-29 23:00,ZGKL 292300Z AUTO 04006KT 2SM 06/04 A3030 RMK T00600040 IEM_DS3505
ZGKL,2008-12-30 00:00,ZGKL 300000Z AUTO 02010KT 4SM 06/03 A3033 RMK 60000 70006 SLP285 T00620028 52014 IEM_DS3505
ZGKL,2008-12-30 01:00,ZGKL 300100Z AUTO 2SM 07/05 A3033 RMK T00700050 IEM_DS3505
ZGKL,2008-12-30 02:00,ZGKL 300200Z AUTO 07004KT 2 1/2SM 07/05 A3036 RMK T00700050 IEM_DS3505
ZGKL,2008-12-30 03:00,ZGKL 300300Z AUTO 02012KT 4SM 07/03 A3036 RMK SLP299 T00740027 52013 IEM_DS3505
ZGKL,2008-12-30 04:00,ZGKL 300400Z AUTO 06006KT 2 1/2SM 09/05 A3033 RMK T00900050 IEM_DS3505
ZGKL,2008-12-30 05:00,ZGKL 300500Z AUTO 05008KT 3SM 09/05 A3030 RMK T00900050 IEM_DS3505
ZGKL,2008-12-30 06:00,ZGKL 300600Z AUTO 02010KT 4SM 08/03 A3030 RMK SLP276 T00760027 57022 IEM_DS3505
ZGKL,2008-12-30 07:00,ZGKL 300700Z AUTO 05008KT 2 1/2SM 08/04 A3027 RMK T00800040 IEM_DS3505
ZGKL,2008-12-30 08:00,ZGKL 300800Z AUTO 05008KT 2 1/2SM 08/04 A3027 RMK T00800040 IEM_DS3505
ZGKL,2008-12-30 09:00,ZGKL 300900Z AUTO 36010KT 4SM 07/02 A3027 RMK SLP272 T00730024 57004 IEM_DS3505
ZGKL,2008-12-30 10:00,ZGKL 301000Z AUTO 07008KT 2 1/2SM 07/04 A3030 RMK T00700040 IEM_DS3505
ZGKL,2008-12-30 11:00,ZGKL 301100Z AUTO 06010KT 2 1/2SM 07/03 A3033 RMK T00700030 IEM_DS3505
ZGKL,2008-12-30 12:00,ZGKL 301200Z AUTO 02012KT 4SM 06/02 A3036 RMK SLP295 T00650022 52022 IEM_DS3505
ZGKL,2008-12-30 13:00,ZGKL 301300Z AUTO 06008KT 2SM 07/03 A3036 RMK T00700030 IEM_DS3505
ZGKL,2008-12-30 14:00,ZGKL 301400Z AUTO 06006KT 2SM 06/03 A3036 RMK T00600030 IEM_DS3505
ZGKL,2008-12-30 15:00,ZGKL 301500Z AUTO 02010KT 4SM 06/02 A3039 RMK SLP307 T00600025 52012 IEM_DS3505
ZGKL,2008-12-30 17:00,ZGKL 301700Z AUTO 04008KT 3SM 06/03 A3039 RMK T00600030 IEM_DS3505
ZGKL,2008-12-30 18:00,ZGKL 301800Z AUTO 05010KT 3SM 05/03 A3039 RMK T00500030 IEM_DS3505
ZGKL,2008-12-30 19:00,ZGKL 301900Z AUTO 06008KT 3SM 05/03 A3039 RMK T00500030 IEM_DS3505
ZGKL,2008-12-30 20:00,ZGKL 302000Z AUTO 04006KT 3SM 05/02 A3039 RMK T00500020 IEM_DS3505
ZGKL,2008-12-30 21:00,ZGKL 302100Z AUTO 36012KT 4SM 05/01 A3039 RMK SLP308 T00490012 57004 IEM_DS3505
ZGKL,2008-12-30 22:00,ZGKL 302200Z AUTO 03004KT 3SM 05/02 A3039 RMK T00500020 IEM_DS3505
ZGKL,2008-12-30 23:00,ZGKL 302300Z AUTO 4SM 05/02 A3039 RMK T00500020 IEM_DS3505
