station,valid,metar
ZGKL,2006-01-01 00:00,ZGKL 010000Z AUTO 02004KT 5SM 10/07 A3024 RMK SLP251 T01040071 52010 IEM_DS3505
ZGKL,2006-01-01 01:00,ZGKL 010100Z AUTO 05006KT 3SM 11/08 A3024 RMK T01100080 IEM_DS3505
ZGKL,2006-01-01 02:00,ZGKL 010200Z AUTO 06006KT 4SM 12/08 A3027 RMK T01200080 IEM_DS3505
ZGKL,2006-01-01 03:00,ZGKL 010300Z AUTO 02004KT 6SM 13/08 A3027 RMK SLP258 T01270078 52008 IEM_DS3505
ZGKL,2006-01-01 04:00,ZGKL 010400Z AUTO 03004KT 14/08 A3024 RMK T01400080 IEM_DS3505
ZGKL,2006-01-01 05:00,ZGKL 010500Z AUTO 00000KT 14/08 A3021 RMK T01400080 IEM_DS3505
ZGKL,2006-01-01 06:00,ZGKL 010600Z AUTO 36004KT 7SM 15/08 A3015 RMK SLP215 T01540082 57042 IEM_DS3505
ZGKL,2006-01-01 07:00,ZGKL 010700Z AUTO 26002KT 16/09 A3012 RMK T01600090 IEM_DS3505
ZGKL,2006-01-01 08:00,ZGKL 010800Z AUTO 05004KT 16/09 A3012 RMK T01600090 IEM_DS3505
ZGKL,2006-01-01 09:00,ZGKL 010900Z AUTO 02008KT 7SM 14/08 A3012 RMK SLP211 T01400080 57004 IEM_DS3505
ZGKL,2006-01-01 10:00,ZGKL 011000Z AUTO 05012KT 3SM 14/08 A3012 RMK T01400080 IEM_DS3505
ZGKL,2006-01-01 11:00,ZGKL 011100Z AUTO 07014KT 2 1/2SM 13/08 A3015 RMK T01300080 IEM_DS3505
ZGKL,2006-01-01 12:00,ZGKL 011200Z AUTO 02008KT 7SM 11/07 A3018 RMK SLP232 T01120071 52019 IEM_DS3505
ZGKL,2006-01-01 13:00,ZGKL 011300Z AUTO 05008KT 2 1/2SM 12/07 A3021 RMK T01200070 IEM_DS3505
ZGKL,2006-01-01 14:00,ZGKL 011400Z AUTO 06004KT 2SM 12/07 A3021 RMK T01200070 IEM_DS3505
ZGKL,2006-01-01 15:00,ZGKL 011500Z AUTO 02008KT 7SM 11/07 A3024 RMK SLP245 T01060066 52014 IEM_DS3505
ZGKL,2006-01-01 16:00,ZGKL 011600Z AUTO 06004KT 2SM 10/08 A3024 RMK T01000080 IEM_DS3505
ZGKL,2006-01-01 17:00,ZGKL 011700Z AUTO 05004KT 2SM 10/08 A3024 RMK T01000080 IEM_DS3505
ZGKL,2006-01-01 19:00,ZGKL 011900Z AUTO 07002KT 10/08 A3024 RMK T01000080 IEM_DS3505
ZGKL,2006-01-01 20:00,ZGKL 012000Z AUTO 05002KT 10/08 A3021 RMK T01000080 IEM_DS3505
ZGKL,2006-01-01 21:00,ZGKL 012100Z AUTO 02006KT 5SM 09/07 A3021 RMK 70000 SLP239 T00940068 57008 IEM_DS3505
ZGKL,2006-01-01 22:00,ZGKL 012200Z AUTO 03004KT 2SM 10/08 A3021 RMK T01000080 IEM_DS3505
ZGKL,2006-01-01 23:00,ZGKL 012300Z AUTO 04002KT 2 1/2SM 10/07 A3021 RMK T01000070 IEM_DS3505
ZGKL,2006-01-02 00:00,ZGKL 020000Z AUTO 02004KT 6SM 09/06 A3024 RMK 70000 SLP247 T00940065 52007 IEM_DS3505
ZGKL,2006-01-02 01:00,ZGKL 020100Z AUTO 03004KT 2 1/2SM 10/07 A3024 RMK T01000070 IEM_DS3505
ZGKL,2006-01-02 02:00,ZGKL 020200Z AUTO 04004KT 2 1/2SM 10/07 A3024 RMK T01000070 IEM_DS3505
ZGKL,2006-01-02 03:00,ZGKL 020300Z AUTO 02004KT 7SM 10/07 A3024 RMK SLP247 T01000067 54000 IEM_DS3505
ZGKL,2006-01-02 04:00,ZGKL 020400Z AUTO 06004KT 3SM 11/07 A3021 RMK T01100070 IEM_DS3505
ZGKL,2006-01-02 05:00,ZGKL 020500Z AUTO 06006KT 3SM 11/07 A3015 RMK T01100070 IEM_DS3505
ZGKL,2006-01-02 06:00,ZGKL 020600Z AUTO 02002KT 5SM 11/07 A3012 RMK SLP209 T01080066 57038 IEM_DS3505
ZGKL,2006-01-02 07:00,ZGKL 020700Z AUTO 02004KT 3SM 11/07 A3009 RMK T01100070 IEM_DS3505
ZGKL,2006-01-02 08:00,ZGKL 020800Z AUTO 02004KT 3SM 11/07 A3006 RMK T01100070 IEM_DS3505
ZGKL,2006-01-02 09:00,ZGKL 020900Z AUTO 36004KT 5SM 11/06 A3006 RMK SLP192 T01070065 57016 IEM_DS3505
ZGKL,2006-01-02 10:00,ZGKL 021000Z AUTO 03004KT 3SM 11/07 A3006 RMK T01100070 IEM_DS3505
ZGKL,2006-01-02 11:00,ZGKL 021100Z AUTO 07004KT 3SM 11/08 A3006 RMK T01100080 IEM_DS3505
ZGKL,2006-01-02 12:00,ZGKL 021200Z AUTO 36004KT 5SM 10/07 A3006 RMK SLP193 T01020067 54000 IEM_DS3505
ZGKL,2006-01-02 13:00,ZGKL 021300Z AUTO 06004KT 3SM 11/07 A3006 RMK T01100070 IEM_DS3505
ZGKL,2006-01-02 14:00,ZGKL 021400Z AUTO 04004KT 3SM 11/07 A3006 RMK T01100070 IEM_DS3505
ZGKL,2006-01-02 16:00,ZGKL 021600Z AUTO 03004KT 11/07 A3006 RMK T01100070 IEM_DS3505
ZGKL,2006-01-02 17:00,ZGKL 021700Z AUTO 35002KT 11/08 A3006 RMK T01100080 IEM_DS3505
ZGKL,2006-01-02 18:00,ZGKL 021800Z AUTO 04002KT 5SM 10/07 A3006 RMK SLP184 T01000071 57009 IEM_DS3505
ZGKL,2006-01-02 19:00,ZGKL 021900Z AUTO 03004KT 11/07 A3003 RMK T01100070 IEM_DS3505
ZGKL,2006-01-02 20:00,ZGKL 022000Z AUTO 03004KT 10/07 A3003 RMK T01000070 IEM_DS3505
ZGKL,2006-01-02 21:00,ZGKL 022100Z AUTO 36002KT 5SM 10/07 A3003 RMK 70001 SLP175 T00990066 57009 IEM_DS3505
ZGKL,2006-01-02 22:00,ZGKL 022200Z AUTO 03002KT 3SM 10/07 A3003 RMK T01000070 IEM_DS3505
ZGKL,2006-01-02 23:00,ZGKL 022300Z AUTO 06002KT 3SM 10/07 A3003 RMK T01000070 IEM_DS3505
ZGKL,2006-01-03 00:00,ZGKL 030000Z AUTO 36002KT 4SM 10/08 A3003 RMK 60000 70002 SLP182 T00950076 52007 IEM_DS3505
ZGKL,2006-01-03 01:00,ZGKL 030100Z AUTO 03006KT 2SM 10/08 A3006 RMK T01000080 IEM_DS3505
ZGKL,2006-01-03 02:00,ZGKL 030200Z AUTO 02004KT 2SM 11/08 A3006 RMK T01100080 IEM_DS3505
ZGKL,2006-01-03 03:00,ZGKL 030300Z AUTO 34002KT 3SM 10/08 A3006 RMK SLP185 T01030077 52003 IEM_DS3505
ZGKL,2006-01-03 04:00,ZGKL 030400Z AUTO 33002KT 2SM 11/09 A3000 RMK T01100090 IEM_DS3505
ZGKL,2006-01-03 05:00,ZGKL 030500Z AUTO 06002KT 2SM 12/09 A2997 RMK T01200090 IEM_DS3505
ZGKL,2006-01-03 06:00,ZGKL 030600Z AUTO 36002KT 2 1/2SM 10/08 A2994 RMK 60001 SLP145 T01020083 57039 IEM_DS3505
ZGKL,2006-01-03 07:00,ZGKL 030700Z AUTO 36002KT 2SM 12/09 A2991 RMK T01200090 IEM_DS3505
ZGKL,2006-01-03 08:00,ZGKL 030800Z AUTO 00000KT 2SM 12/09 A2988 RMK T01200090 IEM_DS3505
ZGKL,2006-01-03 09:00,ZGKL 030900Z AUTO 02004KT 2SM 11/08 A2988 RMK SLP126 T01070083 57019 IEM_DS3505
ZGKL,2006-01-03 10:00,ZGKL 031000Z AUTO 36002KT 1 1/2SM 12/09 A2988 RMK T01200090 IEM_DS3505
ZGKL,2006-01-03 11:00,ZGKL 031100Z AUTO 05002KT 1 1/4SM 12/10 A2988 RMK T01200100 IEM_DS3505
ZGKL,2006-01-03 12:00,ZGKL 031200Z AUTO 36004KT 2SM 11/08 A2988 RMK 60000 SLP127 T01070085 52001 IEM_DS3505
ZGKL,2006-01-03 13:00,ZGKL 031300Z AUTO 00000KT 1SM 12/10 A2988 RMK T01200100 IEM_DS3505
ZGKL,2006-01-03 14:00,ZGKL 031400Z AUTO 00000KT 1SM 12/10 A2988 RMK T01200100 IEM_DS3505
ZGKL,2006-01-03 15:00,ZGKL 031500Z AUTO 02002KT 2SM 11/09 A2988 RMK SLP121 T01080087 57006 IEM_DS3505
ZGKL,2006-01-03 16:00,ZGKL 031600Z AUTO 00000KT 1SM 12/10 A2985 RMK T01200100 IEM_DS3505
ZGKL,2006-01-03 18:00,ZGKL 031800Z AUTO 36004KT 2SM 11/09 RMK 60000 SLP123 T01110088 52002 IEM_DS3505
ZGKL,2006-01-03 21:00,ZGKL 032100Z AUTO 36004KT 2SM 11/10 A2988 RMK 70002 SLP124 T01110097 52002 IEM_DS3505
ZGKL,2006-01-03 22:00,ZGKL 032200Z AUTO 00000KT 1SM 12/11 A2988 RMK T01200110 IEM_DS3505
ZGKL,2006-01-03 23:00,ZGKL 032300Z AUTO 02002KT 1 1/4SM 12/10 A2988 RMK T01200100 IEM_DS3505
ZGKL,2006-01-04 00:00,ZGKL 040000Z AUTO 02006KT 2SM 12/09 A2991 RMK 60000 70002 SLP140 T01150092 52015 IEM_DS3505
ZGKL,2006-01-04 01:00,ZGKL 040100Z AUTO 05004KT 1 1/4SM 12/11 A2994 RMK T01200110 IEM_DS3505
ZGKL,2006-01-04 02:00,ZGKL 040200Z AUTO 05004KT 1 1/4SM 12/10 A2997 RMK T01200100 IEM_DS3505
ZGKL,2006-01-04 03:00,ZGKL 040300Z AUTO 02008KT 2 1/2SM 11/09 A3000 RMK SLP164 T01110087 52024 IEM_DS3505
ZGKL,2006-01-04 04:00,ZGKL 040400Z AUTO 05004KT 2SM 13/10 A2997 RMK T01300100 IEM_DS3505
ZGKL,2006-01-04 05:00,ZGKL 040500Z AUTO 09004KT 2SM 12/09 A2994 RMK T01200090 IEM_DS3505
ZGKL,2006-01-04 06:00,ZGKL 040600Z AUTO 02008KT 5SM 10/07 A2994 RMK 60003 SLP153 T00950074 57011 IEM_DS3505
ZGKL,2006-01-04 07:00,ZGKL 040700Z AUTO 06002KT 3SM 10/09 A2997 RMK T01000090 IEM_DS3505
ZGKL,2006-01-04 08:00,ZGKL 040800Z AUTO 08004KT 2 1/2SM 09/08 A2997 RMK T00900080 IEM_DS3505
ZGKL,2006-01-04 09:00,ZGKL 040900Z AUTO 02008KT 7SM 08/06 A3000 RMK SLP178 T00810061 52024 IEM_DS3505
ZGKL,2006-01-04 10:00,ZGKL 041000Z AUTO 05006KT 4SM 08/07 A3006 RMK T00800070 IEM_DS3505
ZGKL,2006-01-04 11:00,ZGKL 041100Z AUTO 04008KT 5SM 08/06 A3009 RMK T00800060 IEM_DS3505
ZGKL,2006-01-04 12:00,ZGKL 041200Z AUTO 02012KT 7SM 07/04 A3015 RMK 60004 SLP227 T00720038 52047 IEM_DS3505
ZGKL,2006-01-04 13:00,ZGKL 041300Z AUTO 04010KT 4SM 07/05 A3018 RMK T00700050 IEM_DS3505
ZGKL,2006-01-04 14:00,ZGKL 041400Z AUTO 04010KT 4SM 07/04 A3021 RMK T00700040 IEM_DS3505
ZGKL,2006-01-04 15:00,ZGKL 041500Z AUTO 02016KT 7SM 06/02 A3024 RMK SLP255 T00590022 52027 IEM_DS3505
ZGKL,2006-01-04 16:00,ZGKL 041600Z AUTO 07014KT 06/03 A3024 RMK T00600030 IEM_DS3505
ZGKL,2006-01-04 17:00,ZGKL 041700Z AUTO 07012KT 06/03 A3027 RMK T00600030 IEM_DS3505
ZGKL,2006-01-04 18:00,ZGKL 041800Z AUTO 04012KT 7SM 05/02 A3027 RMK 60000 SLP267 T00510016 52011 IEM_DS3505
ZGKL,2006-01-04 19:00,ZGKL 041900Z AUTO 07012KT 05/02 A3027 RMK T00500020 IEM_DS3505
ZGKL,2006-01-04 20:00,ZGKL 042000Z AUTO 07010KT 05/02 A3027 RMK T00500020 IEM_DS3505
ZGKL,2006-01-04 21:00,ZGKL 042100Z AUTO 02016KT 7SM 04/00 A3027 RMK 70007 SLP273 T00440005 52005 IEM_DS3505
ZGKL,2006-01-04 22:00,ZGKL 042200Z AUTO 06012KT 7SM 05/02 A3030 RMK T00500020 IEM_DS3505
ZGKL,2006-01-04 23:00,ZGKL 042300Z AUTO 06012KT 5SM 04/01 A3033 RMK T00400010 IEM_DS3505
ZGKL,2006-01-05 00:00,ZGKL 050000Z AUTO 02012KT 9SM 04/01 A3033 RMK 60000 70007 SLP294 T00370007 52020 IEM_DS3505
ZGKL,2006-01-05 01:00,ZGKL 050100Z AUTO 06012KT 4SM 04/02 A3036 RMK T00400020 IEM_DS3505
ZGKL,2006-01-05 02:00,ZGKL 050200Z AUTO 06012KT 5SM 04/01 A3039 RMK T00400010 IEM_DS3505
ZGKL,2006-01-05 03:00,ZGKL 050300Z AUTO 02010KT 9SM 04/M00 A3039 RMK SLP308 T00411001 52014 IEM_DS3505
ZGKL,2006-01-05 04:00,ZGKL 050400Z AUTO 04010KT 5SM 05/01 A3036 RMK T00500010 IEM_DS3505
ZGKL,2006-01-05 05:00,ZGKL 050500Z AUTO 07010KT 5SM 05/01 A3033 RMK T00500010 IEM_DS3505
ZGKL,2006-01-05 06:00,ZGKL 050600Z AUTO 02014KT 9SM 04/M00 A3030 RMK 60000 SLP278 T00421004 57030 IEM_DS3505
ZGKL,2006-01-05 07:00,ZGKL 050700Z AUTO 06010KT 5SM 04/01 A3030 RMK T00400010 IEM_DS3505
ZGKL,2006-01-05 08:00,ZGKL 050800Z AUTO 06012KT 5SM 05/01 A3027 RMK T00500010 IEM_DS3505
ZGKL,2006-01-05 09:00,ZGKL 050900Z AUTO 02014KT 9SM 04/M01 A3030 RMK SLP275 T00391007 57003 IEM_DS3505
ZGKL,2006-01-05 10:00,ZGKL 051000Z AUTO 06008KT 5SM 04/00 A3030 RMK T00400000 IEM_DS3505
ZGKL,2006-01-05 11:00,ZGKL 051100Z AUTO 06006KT 5SM 04/00 A3036 RMK T00400000 IEM_DS3505
ZGKL,2006-01-05 12:00,ZGKL 051200Z AUTO 02014KT 9SM 04/M01 A3036 RMK SLP301 T00381010 52025 IEM_DS3505
ZGKL,2006-01-05 13:00,ZGKL 051300Z AUTO 06008KT 5SM 04/00 A3039 RMK T00400000 IEM_DS3505
ZGKL,2006-01-05 14:00,ZGKL 051400Z AUTO 05008KT 5SM 04/00 A3039 RMK T00400000 IEM_DS3505
ZGKL,2006-01-05 15:00,ZGKL 051500Z AUTO 02014KT 9SM 04/M01 A3042 RMK SLP316 T00351014 52015 IEM_DS3505
ZGKL,2006-01-05 16:00,ZGKL 051600Z AUTO 07008KT 5SM 04/00 A3042 RMK T00400000 IEM_DS3505
ZGKL,2006-01-05 17:00,ZGKL 051700Z AUTO 06006KT 04/00 A3042 RMK T00400000 IEM_DS3505
ZGKL,2006-01-05 18:00,ZGKL 051800Z AUTO 02012KT 9SM 03/M01 A3045 RMK SLP326 T00311013 52009 IEM_DS3505
ZGKL,2006-01-05 19:00,ZGKL 051900Z AUTO 06008KT 03/00 A3045 RMK T00300000 IEM_DS3505
ZGKL,2006-01-05 20:00,ZGKL 052000Z AUTO 07008KT 03/00 A3045 RMK T00300000 IEM_DS3505
ZGKL,2006-01-05 21:00,ZGKL 052100Z AUTO 36010KT 9SM 02/M01 A3047 RMK 70000 SLP334 T00251008 52008 IEM_DS3505
ZGKL,2006-01-05 22:00,ZGKL 052200Z AUTO 06008KT 5SM 03/00 A3047 RMK T00300000 IEM_DS3505
ZGKL,2006-01-05 23:00,ZGKL 052300Z AUTO 05006KT 5SM 03/00 A3050 RMK T00300000 IEM_DS3505
ZGKL,2006-01-06 00:00,ZGKL 060000Z AUTO 02012KT 9SM 02/M01 A3050 RMK 60000 70000 SLP354 T00251009 52019 IEM_DS3505
ZGKL,2006-01-06 01:00,ZGKL 060100Z AUTO 06008KT 7SM 03/00 A3053 RMK T00300000 IEM_DS3505
ZGKL,2006-01-06 02:00,ZGKL 060200Z AUTO 07012KT 7SM 03/M01 A3056 RMK T00301010 IEM_DS3505
ZGKL,2006-01-06 03:00,ZGKL 060300Z AUTO 02014KT 7SM 03/M04 A3056 RMK SLP366 T00331035 52012 IEM_DS3505
ZGKL,2006-01-06 04:00,ZGKL 060400Z AUTO 05012KT 5SM 04/M01 A3053 RMK T00401010 IEM_DS3505
ZGKL,2006-01-06 05:00,ZGKL 060500Z AUTO 05012KT 5SM 05/M02 A3050 RMK T00501020 IEM_DS3505
ZGKL,2006-01-06 06:00,ZGKL 060600Z AUTO 04010KT 9SM 04/M05 A3045 RMK SLP332 T00451053 57033 IEM_DS3505
ZGKL,2006-01-06 07:00,ZGKL 060700Z AUTO 04014KT 05/M03 A3042 RMK T00501030 IEM_DS3505
ZGKL,2006-01-06 08:00,ZGKL 060800Z AUTO 06010KT 05/M04 A3042 RMK T00501040 IEM_DS3505
ZGKL,2006-01-06 09:00,ZGKL 060900Z AUTO 02008KT 9SM 04/M06 A3042 RMK SLP320 T00451056 57012 IEM_DS3505
ZGKL,2006-01-06 10:00,ZGKL 061000Z AUTO 06014KT 5SM 04/M05 A3042 RMK T00401050 IEM_DS3505
ZGKL,2006-01-06 11:00,ZGKL 061100Z AUTO 06014KT 5SM 04/M05 A3045 RMK T00401050 IEM_DS3505
ZGKL,2006-01-06 12:00,ZGKL 061200Z AUTO 02006KT 9SM 02/M06 A3045 RMK SLP338 T00241060 52017 IEM_DS3505
ZGKL,2006-01-06 13:00,ZGKL 061300Z AUTO 06012KT 5SM 03/M06 A3047 RMK T00301060 IEM_DS3505
ZGKL,2006-01-06 14:00,ZGKL 061400Z AUTO 06010KT 5SM 02/M06 A3050 RMK T00201060 IEM_DS3505
ZGKL,2006-01-06 15:00,ZGKL 061500Z AUTO 02010KT 9SM 01/M07 A3050 RMK SLP345 T00141066 52007 IEM_DS3505
ZGKL,2006-01-06 16:00,ZGKL 061600Z AUTO 03008KT 02/M05 A3050 RMK T00201050 IEM_DS3505
ZGKL,2006-01-06 17:00,ZGKL 061700Z AUTO 05006KT 02/M05 A3047 RMK T00201050 IEM_DS3505
ZGKL,2006-01-06 18:00,ZGKL 061800Z AUTO 02010KT 9SM 02/M08 A3047 RMK SLP332 T00151078 57012 IEM_DS3505
ZGKL,2006-01-06 19:00,ZGKL 061900Z AUTO 06004KT 02/M05 A3045 RMK T00201050 IEM_DS3505
ZGKL,2006-01-06 20:00,ZGKL 062000Z AUTO 00000KT 02/M06 A3045 RMK T00201060 IEM_DS3505
ZGKL,2006-01-06 21:00,ZGKL 062100Z AUTO 02008KT 9SM 02/M08 A3045 RMK 70000 SLP326 T00171076 57006 IEM_DS3505
ZGKL,2006-01-06 22:00,ZGKL 062200Z AUTO 14002KT 5SM 02/M06 A3045 RMK T00201060 IEM_DS3505
ZGKL,2006-01-06 23:00,ZGKL 062300Z AUTO 03002KT 02/M07 A3045 RMK T00201070 IEM_DS3505
ZGKL,2006-01-07 00:00,ZGKL 070000Z AUTO 02004KT 9SM 02/M07 A3045 RMK SLP334 T00171073 52007 IEM_DS3505
ZGKL,2006-01-07 01:00,ZGKL 070100Z AUTO 06006KT 6SM 03/M06 A3047 RMK T00301060 IEM_DS3505
ZGKL,2006-01-07 02:00,ZGKL 070200Z AUTO 05006KT 6SM 03/M06 A3047 RMK T00301060 IEM_DS3505
ZGKL,2006-01-07 03:00,ZGKL 070300Z AUTO 02008KT 9SM 04/M08 A3047 RMK SLP335 T00391085 52001 IEM_DS3505
ZGKL,2006-01-07 04:00,ZGKL 070400Z AUTO 05008KT 6SM 05/M07 A3045 RMK T00501070 IEM_DS3505
ZGKL,2006-01-07 05:00,ZGKL 070500Z AUTO 06006KT 6SM 06/M07 A3039 RMK T00601070 IEM_DS3505
ZGKL,2006-01-07 06:00,ZGKL 070600Z AUTO 02006KT 11SM 07/M08 A3033 RMK SLP282 T00731075 57050 IEM_DS3505
ZGKL,2006-01-07 07:00,ZGKL 070700Z AUTO 03008KT 6SM 08/M08 A3030 RMK T00801080 IEM_DS3505
ZGKL,2006-01-07 08:00,ZGKL 070800Z AUTO 05010KT 6SM 08/M09 A3027 RMK T00801090 IEM_DS3505
ZGKL,2006-01-07 09:00,ZGKL 070900Z AUTO 02006KT 12SM 08/M10 A3027 RMK SLP263 T00771097 57019 IEM_DS3505
ZGKL,2006-01-07 10:00,ZGKL 071000Z AUTO 05006KT 6SM 08/M06 A3027 RMK T00801060 IEM_DS3505
ZGKL,2006-01-07 11:00,ZGKL 071100Z AUTO 05008KT 6SM 07/M06 A3030 RMK T00701060 IEM_DS3505
ZGKL,2006-01-07 12:00,ZGKL 071200Z AUTO 04006KT 10SM 06/M09 A3033 RMK SLP285 T00591088 52021 IEM_DS3505
ZGKL,2006-01-07 13:00,ZGKL 071300Z AUTO 04008KT 6SM 06/M08 A3033 RMK T00601080 IEM_DS3505
ZGKL,2006-01-07 14:00,ZGKL 071400Z AUTO 04008KT 6SM 06/M07 A3033 RMK T00601070 IEM_DS3505
ZGKL,2006-01-07 15:00,ZGKL 071500Z AUTO 04008KT 9SM 05/M08 A3033 RMK SLP287 T00521076 52003 IEM_DS3505
ZGKL,2006-01-07 16:00,ZGKL 071600Z AUTO 05004KT 05/M06 A3033 RMK T00501060 IEM_DS3505
ZGKL,2006-01-07 17:00,ZGKL 071700Z AUTO 06002KT 05/M06 A3033 RMK T00501060 IEM_DS3505
ZGKL,2006-01-07 18:00,ZGKL 071800Z AUTO 02006KT 9SM 05/M08 A3033 RMK SLP281 T00501075 57005 IEM_DS3505
ZGKL,2006-01-07 19:00,ZGKL 071900Z AUTO 06004KT 05/M06 A3033 RMK T00501060 IEM_DS3505
ZGKL,2006-01-07 20:00,ZGKL 072000Z AUTO 07002KT 05/M06 A3033 RMK T00501060 IEM_DS3505
ZGKL,2006-01-07 21:00,ZGKL 072100Z AUTO 36006KT 9SM 05/M07 A3033 RMK SLP282 T00471074 52001 IEM_DS3505
ZGKL,2006-01-07 22:00,ZGKL 072200Z AUTO 00000KT 4SM 05/M06 A3033 RMK T00501060 IEM_DS3505
ZGKL,2006-01-07 23:00,ZGKL 072300Z AUTO 00000KT 05/M04 A3033 RMK T00501040 IEM_DS3505
ZGKL,2006-01-08 00:00,ZGKL 080000Z AUTO 02004KT 9SM 04/M06 A3036 RMK SLP296 T00451064 52013 IEM_DS3505
ZGKL,2006-01-08 01:00,ZGKL 080100Z AUTO 00000KT 6SM 05/M05 A3039 RMK T00501050 IEM_DS3505
ZGKL,2006-01-08 02:00,ZGKL 080200Z AUTO 00000KT 6SM 05/M06 A3039 RMK T00501060 IEM_DS3505
ZGKL,2006-01-08 03:00,ZGKL 080300Z AUTO 02006KT 9SM 06/M06 A3039 RMK SLP306 T00591063 52010 IEM_DS3505
ZGKL,2006-01-08 04:00,ZGKL 080400Z AUTO 34002KT 6SM 07/M04 A3036 RMK T00701040 IEM_DS3505
ZGKL,2006-01-08 05:00,ZGKL 080500Z AUTO 02004KT 6SM 08/M05 A3033 RMK T00801050 IEM_DS3505
ZGKL,2006-01-08 06:00,ZGKL 080600Z AUTO 04004KT 11SM 07/M06 A3030 RMK SLP276 T00711056 57029 IEM_DS3505
ZGKL,2006-01-08 07:00,ZGKL 080700Z AUTO 06006KT 6SM 08/M04 A3027 RMK T00801040 IEM_DS3505
ZGKL,2006-01-08 08:00,ZGKL 080800Z AUTO 07006KT 6SM 08/M05 A3027 RMK T00801050 IEM_DS3505
ZGKL,2006-01-08 09:00,ZGKL 080900Z AUTO 09004KT 11SM 07/M06 A3027 RMK SLP263 T00741060 57013 IEM_DS3505
ZGKL,2006-01-08 10:00,ZGKL 081000Z AUTO 07002KT 6SM 08/M05 A3027 RMK T00801050 IEM_DS3505
ZGKL,2006-01-08 11:00,ZGKL 081100Z AUTO 00000KT 6SM 07/M04 A3030 RMK T00701040 IEM_DS3505
ZGKL,2006-01-08 12:00,ZGKL 081200Z AUTO 02004KT 10SM 05/M04 A3033 RMK SLP285 T00491039 52021 IEM_DS3505
ZGKL,2006-01-08 13:00,ZGKL 081300Z AUTO 34004KT 6SM 04/M03 A3033 RMK T00401030 IEM_DS3505
ZGKL,2006-01-08 14:00,ZGKL 081400Z AUTO 29002KT 6SM 03/M01 A3036 RMK T00301010 IEM_DS3505
ZGKL,2006-01-08 15:00,ZGKL 081500Z AUTO 04004KT 9SM 03/M04 A3036 RMK SLP294 T00321040 52009 IEM_DS3505
ZGKL,2006-01-08 16:00,ZGKL 081600Z AUTO 00000KT 6SM 01/M01 A3036 RMK T00101010 IEM_DS3505
ZGKL,2006-01-08 17:00,ZGKL 081700Z AUTO 00000KT 00/M01 A3036 RMK T00001010 IEM_DS3505
ZGKL,2006-01-08 18:00,ZGKL 081800Z AUTO 04004KT 9SM 02/M04 A3036 RMK SLP290 T00181039 57004 IEM_DS3505
ZGKL,2006-01-08 19:00,ZGKL 081900Z AUTO 00000KT 00/M01 A3033 RMK T00001010 IEM_DS3505
ZGKL,2006-01-08 21:00,ZGKL 082100Z AUTO 36004KT 9SM 01/M04 A3030 RMK SLP277 T00131036 57013 IEM_DS3505
ZGKL,2006-01-08 22:00,ZGKL 082200Z AUTO 00000KT 4SM M01/M02 A3030 RMK T10101020 IEM_DS3505
ZGKL,2006-01-08 23:00,ZGKL 082300Z AUTO 00000KT 4SM M01/M02 A3030 RMK T10101020 IEM_DS3505
ZGKL,2006-01-09 00:00,ZGKL 090000Z AUTO 32002KT 9SM M00/M03 A3033 RMK SLP284 T10011033 52005 IEM_DS3505
ZGKL,2006-01-09 01:00,ZGKL 090100Z AUTO 00000KT 6SM 01/M01 A3033 RMK T00101010 IEM_DS3505
ZGKL,2006-01-09 02:00,ZGKL 090200Z AUTO 00000KT 4SM 03/00 A3036 RMK T00300000 IEM_DS3505
ZGKL,2006-01-09 03:00,ZGKL 090300Z AUTO 02004KT 6SM 08/M04 A3033 RMK SLP281 T00841038 54000 IEM_DS3505
ZGKL,2006-01-09 04:00,ZGKL 090400Z AUTO 17002KT 6SM 08/M01 A3030 RMK T00801010 IEM_DS3505
ZGKL,2006-01-09 05:00,ZGKL 090500Z AUTO 23004KT 6SM 11/M02 A3024 RMK T01101020 IEM_DS3505
ZGKL,2006-01-09 06:00,ZGKL 090600Z AUTO 04004KT 7SM 13/M06 A3018 RMK SLP226 T01301056 57053 IEM_DS3505
ZGKL,2006-01-09 07:00,ZGKL 090700Z AUTO 26002KT 6SM 13/M03 A3015 RMK T01301030 IEM_DS3505
ZGKL,2006-01-09 08:00,ZGKL 090800Z AUTO 10004KT 6SM 14/M04 A3012 RMK T01401040 IEM_DS3505
ZGKL,2006-01-09 09:00,ZGKL 090900Z AUTO 16002KT 10SM 14/M05 A3012 RMK SLP208 T01351051 57018 IEM_DS3505
ZGKL,2006-01-09 10:00,ZGKL 091000Z AUTO 15004KT 6SM 11/M02 A3012 RMK T01101020 IEM_DS3505
ZGKL,2006-01-09 11:00,ZGKL 091100Z AUTO 19002KT 6SM 09/01 A3015 RMK T00900010 IEM_DS3505
ZGKL,2006-01-09 12:00,ZGKL 091200Z AUTO 36002KT 9SM 08/M05 A3015 RMK SLP229 T00841054 52019 IEM_DS3505
ZGKL,2006-01-09 13:00,ZGKL 091300Z AUTO 01002KT 4SM 06/01 A3018 RMK T00600010 IEM_DS3505
ZGKL,2006-01-09 14:00,ZGKL 091400Z AUTO 36002KT 4SM 04/02 A3021 RMK T00400020 IEM_DS3505
ZGKL,2006-01-09 15:00,ZGKL 091500Z AUTO 36004KT 9SM 07/M04 A3021 RMK SLP244 T00691036 52017 IEM_DS3505
ZGKL,2006-01-09 16:00,ZGKL 091600Z AUTO 36002KT 03/01 A3024 RMK T00300010 IEM_DS3505
ZGKL,2006-01-09 17:00,ZGKL 091700Z AUTO 35002KT 02/01 A3024 RMK T00200010 IEM_DS3505
ZGKL,2006-01-09 18:00,ZGKL 091800Z AUTO 02004KT 9SM 05/M03 A3024 RMK SLP249 T00541032 52006 IEM_DS3505
ZGKL,2006-01-09 19:00,ZGKL 091900Z AUTO 00000KT 01/00 A3021 RMK T00100000 IEM_DS3505
ZGKL,2006-01-09 20:00,ZGKL 092000Z AUTO 03002KT 01/M01 A3021 RMK T00101010 IEM_DS3505
ZGKL,2006-01-09 21:00,ZGKL 092100Z AUTO 32002KT 9SM 04/M02 A3021 RMK SLP237 T00381022 57012 IEM_DS3505
ZGKL,2006-01-09 22:00,ZGKL 092200Z AUTO 35002KT 2SM 00/M01 A3021 RMK T00001010 IEM_DS3505
ZGKL,2006-01-09 23:00,ZGKL 092300Z AUTO 00000KT 2SM 00/M01 A3021 RMK T00001010 IEM_DS3505
ZGKL,2006-01-10 00:00,ZGKL 100000Z AUTO 02002KT 7SM 02/M01 A3024 RMK SLP253 T00201014 52013 IEM_DS3505
ZGKL,2006-01-10 01:00,ZGKL 100100Z AUTO 00000KT 2 1/2SM 02/00 A3024 RMK T00200000 IEM_DS3505
ZGKL,2006-01-10 02:00,ZGKL 100200Z AUTO 00000KT 2 1/2SM 05/02 A3027 RMK T00500020 IEM_DS3505
ZGKL,2006-01-10 03:00,ZGKL 100300Z AUTO 32002KT 7SM 09/M03 A3024 RMK SLP252 T00891027 52001 IEM_DS3505
ZGKL,2006-01-10 04:00,ZGKL 100400Z AUTO 19002KT 11/M01 A3021 RMK T01101010 IEM_DS3505
ZGKL,2006-01-10 05:00,ZGKL 100500Z AUTO 03002KT 13/M01 A3015 RMK T01301010 IEM_DS3505
ZGKL,2006-01-10 06:00,ZGKL 100600Z AUTO 18004KT 6SM 14/M07 A3009 RMK SLP202 T01421066 57048 IEM_DS3505
ZGKL,2006-01-10 07:00,ZGKL 100700Z AUTO 12004KT 5SM 15/M02 A3006 RMK T01501020 IEM_DS3505
ZGKL,2006-01-10 08:00,ZGKL 100800Z AUTO 23002KT 16/M01 A3003 RMK T01601010 IEM_DS3505
ZGKL,2006-01-10 09:00,ZGKL 100900Z AUTO 16002KT 10SM 15/M04 A3003 RMK SLP178 T01501038 57024 IEM_DS3505
ZGKL,2006-01-10 10:00,ZGKL 101000Z AUTO 28002KT 13/03 A3003 RMK T01300030 IEM_DS3505
ZGKL,2006-01-10 11:00,ZGKL 101100Z AUTO 27004KT 3SM 10/06 A3003 RMK T01000060 IEM_DS3505
ZGKL,2006-01-10 12:00,ZGKL 101200Z AUTO 29002KT 9SM 09/01 A3006 RMK SLP191 T00900007 52010 IEM_DS3505
ZGKL,2006-01-10 13:00,ZGKL 101300Z AUTO 33004KT 2 1/2SM 06/04 A3006 RMK T00600040 IEM_DS3505
ZGKL,2006-01-10 14:00,ZGKL 101400Z AUTO 32004KT 2 1/2SM 06/04 A3006 RMK T00600040 IEM_DS3505
ZGKL,2006-01-10 15:00,ZGKL 101500Z AUTO 36002KT 9SM 07/00 A3009 RMK SLP199 T00670004 52010 IEM_DS3505
ZGKL,2006-01-10 16:00,ZGKL 101600Z AUTO 00000KT 03/02 A3009 RMK T00300020 IEM_DS3505
ZGKL,2006-01-10 22:00,ZGKL 102200Z AUTO 00000KT 2 1/2SM 01/00 A3006 RMK T00100000 IEM_DS3505
ZGKL,2006-01-10 23:00,ZGKL 102300Z AUTO 00000KT 2 1/2SM 01/00 A3009 RMK T00100000 IEM_DS3505
ZGKL,2006-01-11 00:00,ZGKL 110000Z AUTO 02002KT 7SM 03/01 A3012 RMK SLP212 T00280007 52016 IEM_DS3505
ZGKL,2006-01-11 01:00,ZGKL 110100Z AUTO 00000KT 2SM 03/01 A3012 RMK T00300010 IEM_DS3505
ZGKL,2006-01-11 02:00,ZGKL 110200Z AUTO 00000KT 2 1/2SM 07/03 A3015 RMK T00700030 IEM_DS3505
ZGKL,2006-01-11 03:00,ZGKL 110300Z AUTO 04002KT 7SM 10/02 A3015 RMK SLP214 T01030022 52004 IEM_DS3505
ZGKL,2006-01-11 04:00,ZGKL 110400Z AUTO 28002KT 3SM 11/04 A3012 RMK T01100040 IEM_DS3505
ZGKL,2006-01-11 05:00,ZGKL 110500Z AUTO 31002KT 13/03 A3006 RMK T01300030 IEM_DS3505
ZGKL,2006-01-11 06:00,ZGKL 110600Z AUTO 34002KT 6SM 14/01 A3003 RMK SLP176 T01440010 57036 IEM_DS3505
ZGKL,2006-01-11 07:00,ZGKL 110700Z AUTO 25002KT 14/02 A3000 RMK T01400020 IEM_DS3505
ZGKL,2006-01-11 08:00,ZGKL 110800Z AUTO 35002KT 13/02 A2997 RMK T01300020 IEM_DS3505
ZGKL,2006-01-11 09:00,ZGKL 110900Z AUTO 36002KT 5SM 13/05 A2997 RMK SLP162 T01270051 57015 IEM_DS3505
ZGKL,2006-01-11 10:00,ZGKL 111000Z AUTO 00000KT 3SM 12/05 A2997 RMK T01200050 IEM_DS3505
ZGKL,2006-01-11 11:00,ZGKL 111100Z AUTO 00000KT 2 1/2SM 12/05 A3000 RMK T01200050 IEM_DS3505
ZGKL,2006-01-11 12:00,ZGKL 111200Z AUTO 32002KT 5SM 12/04 A3000 RMK SLP171 T01170044 52008 IEM_DS3505
ZGKL,2006-01-11 13:00,ZGKL 111300Z AUTO 00000KT 2SM 11/06 A3003 RMK T01100060 IEM_DS3505
ZGKL,2006-01-11 14:00,ZGKL 111400Z AUTO 20002KT 2SM 10/06 A3003 RMK T01000060 IEM_DS3505
ZGKL,2006-01-11 15:00,ZGKL 111500Z AUTO 04002KT 5SM 11/06 A3003 RMK SLP180 T01080058 52011 IEM_DS3505
ZGKL,2006-01-11 18:00,ZGKL 111800Z AUTO 00000KT 5SM 10/06 RMK SLP178 T01030061 57001 IEM_DS3505
ZGKL,2006-01-11 21:00,ZGKL 112100Z AUTO 00000KT 5SM 10/06 A3000 RMK SLP161 T01020060 57017 IEM_DS3505
ZGKL,2006-01-11 22:00,ZGKL 112200Z AUTO 00000KT 2SM 10/07 A3000 RMK T01000070 IEM_DS3505
ZGKL,2006-01-11 23:00,ZGKL 112300Z AUTO 00000KT 2SM 10/07 A3000 RMK T01000070 IEM_DS3505
ZGKL,2006-01-12 00:00,ZGKL 120000Z AUTO 29002KT 4SM 10/06 A3003 RMK SLP184 T01040065 52022 IEM_DS3505
ZGKL,2006-01-12 01:00,ZGKL 120100Z AUTO 00000KT 1SM 10/08 A3006 RMK T01000080 IEM_DS3505
ZGKL,2006-01-12 02:00,ZGKL 120200Z AUTO 00000KT 1SM 11/08 A3009 RMK T01100080 IEM_DS3505
ZGKL,2006-01-12 03:00,ZGKL 120300Z AUTO 27002KT 2SM 12/08 A3009 RMK SLP198 T01150078 52014 IEM_DS3505
ZGKL,2006-01-12 04:00,ZGKL 120400Z AUTO 00000KT 1SM 12/08 A3009 RMK T01200080 IEM_DS3505
ZGKL,2006-01-12 05:00,ZGKL 120500Z AUTO 00000KT 1SM 12/08 A3006 RMK T01200080 IEM_DS3505
ZGKL,2006-01-12 06:00,ZGKL 120600Z AUTO 36004KT 2SM 11/09 A3003 RMK 60000 SLP172 T01080089 57026 IEM_DS3505
ZGKL,2006-01-12 07:00,ZGKL 120700Z AUTO 17002KT 1SM 11/09 A3000 RMK T01100090 IEM_DS3505
ZGKL,2006-01-12 08:00,ZGKL 120800Z AUTO 00000KT 1SM 11/09 A2997 RMK T01100090 IEM_DS3505
ZGKL,2006-01-12 09:00,ZGKL 120900Z AUTO 36002KT 2SM 11/09 A3000 RMK SLP163 T01100094 57008 IEM_DS3505
ZGKL,2006-01-12 10:00,ZGKL 121000Z AUTO 00000KT 3/8SM 11/10 A3000 RMK T01100100 IEM_DS3505
ZGKL,2006-01-12 11:00,ZGKL 121100Z AUTO 00000KT 1/4SM 11/10 A3000 RMK T01100100 IEM_DS3505
ZGKL,2006-01-12 12:00,ZGKL 121200Z AUTO 29002KT 1 1/4SM 11/10 A3000 RMK 60000 SLP171 T01060098 52007 IEM_DS3505
ZGKL,2006-01-12 13:00,ZGKL 121300Z AUTO 00000KT 1/4SM 10/10 A3000 RMK T01000100 IEM_DS3505
ZGKL,2006-01-12 14:00,ZGKL 121400Z AUTO 00000KT 1/4SM 11/10 A3003 RMK T01100100 IEM_DS3505
ZGKL,2006-01-12 15:00,ZGKL 121500Z AUTO 02004KT 2SM 11/10 A3003 RMK SLP182 T01080096 52012 IEM_DS3505
ZGKL,2006-01-12 16:00,ZGKL 121600Z AUTO 00000KT 1/4SM 11/10 A3006 RMK T01100100 IEM_DS3505
ZGKL,2006-01-12 17:00,ZGKL 121700Z AUTO 00000KT 1/4SM 10/10 A3006 RMK T01000100 IEM_DS3505
ZGKL,2006-01-12 18:00,ZGKL 121800Z AUTO 36002KT 3SM 11/09 RMK 60000 SLP182 T01120089 57001 IEM_DS3505
ZGKL,2006-01-12 21:00,ZGKL 122100Z AUTO 02004KT 3SM 12/08 RMK 70001 SLP173 T01150084 57008 IEM_DS3505
ZGKL,2006-01-12 22:00,ZGKL 122200Z AUTO 00000KT 3/8SM 11/10 A3003 RMK T01100100 IEM_DS3505
ZGKL,2006-01-12 23:00,ZGKL 122300Z AUTO 16002KT 1/2SM 11/10 A3003 RMK T01100100 IEM_DS3505
ZGKL,2006-01-13 00:00,ZGKL 130000Z AUTO 32002KT 2 1/2SM 11/09 A3006 RMK 60000 70001 SLP192 T01110087 52018 IEM_DS3505
ZGKL,2006-01-13 01:00,ZGKL 130100Z AUTO 01002KT 1/2SM 11/10 A3009 RMK T01100100 IEM_DS3505
ZGKL,2006-01-13 02:00,ZGKL 130200Z AUTO 02002KT 1/2SM 11/11 A3009 RMK T01100110 IEM_DS3505
ZGKL,2006-01-13 03:00,ZGKL 130300Z AUTO 02004KT 2 1/2SM 12/08 A3009 RMK SLP197 T01250078 52006 IEM_DS3505
ZGKL,2006-01-13 04:00,ZGKL 130400Z AUTO 00000KT 1 1/4SM 12/10 A3006 RMK T01200100 IEM_DS3505
ZGKL,2006-01-13 05:00,ZGKL 130500Z AUTO 35002KT 1 1/4SM 13/10 A3003 RMK T01300100 IEM_DS3505
ZGKL,2006-01-13 06:00,ZGKL 130600Z AUTO 36004KT 2 1/2SM 14/07 A3000 RMK SLP166 T01410072 57030 IEM_DS3505
ZGKL,2006-01-13 07:00,ZGKL 130700Z AUTO 34004KT 1 1/2SM 14/10 A3000 RMK T01400100 IEM_DS3505
ZGKL,2006-01-13 08:00,ZGKL 130800Z AUTO 35002KT 2SM 14/10 A2997 RMK T01400100 IEM_DS3505
ZGKL,2006-01-13 09:00,ZGKL 130900Z AUTO 02006KT 2 1/2SM 14/07 A2997 RMK SLP157 T01360072 57009 IEM_DS3505
ZGKL,2006-01-13 10:00,ZGKL 131000Z AUTO 31002KT 2SM 14/11 A2997 RMK T01400110 IEM_DS3505
ZGKL,2006-01-13 11:00,ZGKL 131100Z AUTO 07002KT 1 1/2SM 13/11 A3000 RMK T01300110 IEM_DS3505
ZGKL,2006-01-13 12:00,ZGKL 131200Z AUTO 02006KT 2 1/2SM 12/07 A3000 RMK SLP172 T01240067 52014 IEM_DS3505
ZGKL,2006-01-13 13:00,ZGKL 131300Z AUTO 06006KT 1 1/2SM 12/08 A3000 RMK T01200080 IEM_DS3505
ZGKL,2006-01-13 14:00,ZGKL 131400Z AUTO 05004KT 1 1/2SM 12/07 A3003 RMK T01200070 IEM_DS3505
ZGKL,2006-01-13 15:00,ZGKL 131500Z AUTO 04004KT 2 1/2SM 12/06 A3003 RMK SLP174 T01170058 52002 IEM_DS3505
ZGKL,2006-01-13 16:00,ZGKL 131600Z AUTO 05006KT 1 1/2SM 12/07 A3003 RMK T01200070 IEM_DS3505
ZGKL,2006-01-13 17:00,ZGKL 131700Z AUTO 03004KT 1 1/2SM 12/07 A3006 RMK T01200070 IEM_DS3505
ZGKL,2006-01-13 18:00,ZGKL 131800Z AUTO 02006KT 2 1/2SM 11/05 RMK SLP184 T01080051 52010 IEM_DS3505
ZGKL,2006-01-13 21:00,ZGKL 132100Z AUTO 02004KT 2 1/2SM 10/05 A3003 RMK 70000 SLP179 T01000052 57005 IEM_DS3505
ZGKL,2006-01-13 22:00,ZGKL 132200Z AUTO 05004KT 1SM 10/06 A3003 RMK T01000060 IEM_DS3505
ZGKL,2006-01-13 23:00,ZGKL 132300Z AUTO 05006KT 1SM 10/06 A3006 RMK T01000060 IEM_DS3505
ZGKL,2006-01-14 00:00,ZGKL 140000Z AUTO 02006KT 2 1/2SM 10/05 A3006 RMK SLP191 T00970051 52011 IEM_DS3505
ZGKL,2006-01-14 01:00,ZGKL 140100Z AUTO 04004KT 1SM 10/06 A3009 RMK T01000060 IEM_DS3505
ZGKL,2006-01-14 02:00,ZGKL 140200Z AUTO 06004KT 1SM 10/06 A3009 RMK T01000060 IEM_DS3505
ZGKL,2006-01-14 03:00,ZGKL 140300Z AUTO 04008KT 2 1/2SM 10/05 A3009 RMK SLP202 T01000050 52011 IEM_DS3505
ZGKL,2006-01-14 04:00,ZGKL 140400Z AUTO 05004KT 1SM 11/06 A3009 RMK T01100060 IEM_DS3505
ZGKL,2006-01-14 05:00,ZGKL 140500Z AUTO 04002KT 1SM 11/06 A3006 RMK T01100060 IEM_DS3505
ZGKL,2006-01-14 06:00,ZGKL 140600Z AUTO 02006KT 2 1/2SM 10/05 A3000 RMK SLP175 T01020052 57027 IEM_DS3505
ZGKL,2006-01-14 07:00,ZGKL 140700Z AUTO 03004KT 1 1/4SM 11/06 A3000 RMK T01100060 IEM_DS3505
ZGKL,2006-01-14 08:00,ZGKL 140800Z AUTO 04004KT 1 1/4SM 11/06 A3000 RMK T01100060 IEM_DS3505
ZGKL,2006-01-14 09:00,ZGKL 140900Z AUTO 02008KT 2 1/2SM 10/05 A3000 RMK SLP173 T00990051 57002 IEM_DS3505
ZGKL,2006-01-14 10:00,ZGKL 141000Z AUTO 05006KT 1SM 11/06 A3003 RMK T01100060 IEM_DS3505
ZGKL,2006-01-14 11:00,ZGKL 141100Z AUTO 07004KT 1SM 10/06 A3003 RMK T01000060 IEM_DS3505
ZGKL,2006-01-14 12:00,ZGKL 141200Z AUTO 02006KT 2 1/2SM 09/04 A3006 RMK SLP187 T00900044 52013 IEM_DS3505
ZGKL,2006-01-14 13:00,ZGKL 141300Z AUTO 05004KT 1SM 09/06 A3006 RMK T00900060 IEM_DS3505
ZGKL,2006-01-14 14:00,ZGKL 141400Z AUTO 06004KT 1SM 09/05 A3006 RMK T00900050 IEM_DS3505
ZGKL,2006-01-14 15:00,ZGKL 141500Z AUTO 02008KT 2 1/2SM 09/04 A3009 RMK SLP198 T00890041 52011 IEM_DS3505
ZGKL,2006-01-14 16:00,ZGKL 141600Z AUTO 04004KT 1 1/4SM 09/05 A3009 RMK T00900050 IEM_DS3505
ZGKL,2006-01-14 17:00,ZGKL 141700Z AUTO 06006KT 1 1/4SM 09/05 A3009 RMK T00900050 IEM_DS3505
ZGKL,2006-01-14 18:00,ZGKL 141800Z AUTO 02008KT 4SM 08/04 A3009 RMK SLP207 T00830036 52009 IEM_DS3505
ZGKL,2006-01-14 19:00,ZGKL 141900Z AUTO 06006KT 1 1/4SM 09/04 A3012 RMK T00900040 IEM_DS3505
ZGKL,2006-01-14 21:00,ZGKL 142100Z AUTO 02004KT 4SM 08/04 A3009 RMK SLP198 T00800038 57009 IEM_DS3505
ZGKL,2006-01-14 22:00,ZGKL 142200Z AUTO 05006KT 1 1/4SM 08/05 A3009 RMK T00800050 IEM_DS3505
ZGKL,2006-01-14 23:00,ZGKL 142300Z AUTO 02004KT 1 1/4SM 08/05 A3009 RMK T00800050 IEM_DS3505
ZGKL,2006-01-15 00:00,ZGKL 150000Z AUTO 02006KT 2 1/2SM 08/04 A3012 RMK 60000 70000 SLP210 T00770041 52011 IEM_DS3505
ZGKL,2006-01-15 01:00,ZGKL 150100Z AUTO 03004KT 1SM 08/05 A3015 RMK T00800050 IEM_DS3505
ZGKL,2006-01-15 02:00,ZGKL 150200Z AUTO 05004KT 1SM 08/06 A3015 RMK T00800060 IEM_DS3505
ZGKL,2006-01-15 04:00,ZGKL 150400Z AUTO 04004KT 1SM 08/06 A3015 RMK T00800060 IEM_DS3505
ZGKL,2006-01-15 05:00,ZGKL 150500Z AUTO 06006KT 1SM 07/06 A3009 RMK T00700060 IEM_DS3505
ZGKL,2006-01-15 06:00,ZGKL 150600Z AUTO 02006KT 2SM 07/04 A3006 RMK 60002 SLP195 T00710042 57030 IEM_DS3505
ZGKL,2006-01-15 07:00,ZGKL 150700Z AUTO 05004KT 1 1/4SM 08/05 A3006 RMK T00800050 IEM_DS3505
ZGKL,2006-01-15 08:00,ZGKL 150800Z AUTO 03004KT 1 1/4SM 08/05 A3003 RMK T00800050 IEM_DS3505
ZGKL,2006-01-15 09:00,ZGKL 150900Z AUTO 02008KT 2 1/2SM 07/04 A3006 RMK SLP187 T00720038 57008 IEM_DS3505
ZGKL,2006-01-15 10:00,ZGKL 151000Z AUTO 36002KT 1 1/2SM 08/05 A3006 RMK T00800050 IEM_DS3505
ZGKL,2006-01-15 11:00,ZGKL 151100Z AUTO 07002KT 1 1/2SM 08/06 A3009 RMK T00800060 IEM_DS3505
ZGKL,2006-01-15 12:00,ZGKL 151200Z AUTO 02004KT 2 1/2SM 07/04 A3009 RMK 60000 SLP204 T00710035 52016 IEM_DS3505
ZGKL,2006-01-15 13:00,ZGKL 151300Z AUTO 04004KT 1 1/2SM 07/05 A3009 RMK T00700050 IEM_DS3505
ZGKL,2006-01-15 14:00,ZGKL 151400Z AUTO 07002KT 2SM 07/04 A3006 RMK T00700040 IEM_DS3505
ZGKL,2006-01-15 15:00,ZGKL 151500Z AUTO 04004KT 2 1/2SM 07/03 A3006 RMK SLP193 T00710033 57010 IEM_DS3505
ZGKL,2006-01-15 16:00,ZGKL 151600Z AUTO 08002KT 1 1/2SM 07/05 A3006 RMK T00700050 IEM_DS3505
ZGKL,2006-01-15 17:00,ZGKL 151700Z AUTO 01002KT 1 1/2SM 07/05 A3009 RMK T00700050 IEM_DS3505
ZGKL,2006-01-15 18:00,ZGKL 151800Z AUTO 36002KT 2 1/2SM 07/04 A3009 RMK SLP203 T00720036 52009 IEM_DS3505
ZGKL,2006-01-15 21:00,ZGKL 152100Z AUTO 02002KT 2 1/2SM 07/04 A3006 RMK 70002 SLP193 T00720038 57009 IEM_DS3505
ZGKL,2006-01-15 22:00,ZGKL 152200Z AUTO 33002KT 1 1/2SM 08/05 A3006 RMK T00800050 IEM_DS3505
ZGKL,2006-01-15 23:00,ZGKL 152300Z AUTO 05002KT 1 1/2SM 07/04 A3006 RMK T00700040 IEM_DS3505
ZGKL,2006-01-16 00:00,ZGKL 160000Z AUTO 36002KT 2 1/2SM 07/04 A3006 RMK 70002 SLP193 T00730041 54000 IEM_DS3505
ZGKL,2006-01-16 01:00,ZGKL 160100Z AUTO 06004KT 1SM 08/04 A3006 RMK T00800040 IEM_DS3505
ZGKL,2006-01-16 02:00,ZGKL 160200Z AUTO 05006KT 1SM 08/05 A3009 RMK T00800050 IEM_DS3505
ZGKL,2006-01-16 03:00,ZGKL 160300Z AUTO 34004KT 2 1/2SM 09/04 A3006 RMK SLP192 T00880042 57001 IEM_DS3505
ZGKL,2006-01-16 04:00,ZGKL 160400Z AUTO 36002KT 1 1/4SM 09/06 A3003 RMK T00900060 IEM_DS3505
ZGKL,2006-01-16 05:00,ZGKL 160500Z AUTO 29002KT 1 1/2SM 10/07 A3000 RMK T01000070 IEM_DS3505
ZGKL,2006-01-16 06:00,ZGKL 160600Z AUTO 02004KT 2 1/2SM 13/06 A2997 RMK SLP154 T01260062 57036 IEM_DS3505
ZGKL,2006-01-16 07:00,ZGKL 160700Z AUTO 35002KT 1 1/2SM 12/07 A2994 RMK T01200070 IEM_DS3505
ZGKL,2006-01-16 08:00,ZGKL 160800Z AUTO 32002KT 1 1/2SM 13/07 A2991 RMK T01300070 IEM_DS3505
ZGKL,2006-01-16 09:00,ZGKL 160900Z AUTO 02004KT 2 1/2SM 12/07 A2991 RMK SLP140 T01190070 57014 IEM_DS3505
ZGKL,2006-01-16 10:00,ZGKL 161000Z AUTO 35004KT 2SM 12/08 A2991 RMK T01200080 IEM_DS3505
ZGKL,2006-01-16 11:00,ZGKL 161100Z AUTO 35002KT 2SM 12/09 A2991 RMK T01200090 IEM_DS3505
ZGKL,2006-01-16 12:00,ZGKL 161200Z AUTO 02004KT 2 1/2SM 11/07 A2991 RMK SLP144 T01130068 52004 IEM_DS3505
ZGKL,2006-01-16 13:00,ZGKL 161300Z AUTO 32002KT 1 1/2SM 11/09 A2994 RMK T01100090 IEM_DS3505
ZGKL,2006-01-16 14:00,ZGKL 161400Z AUTO 00000KT 1 1/2SM 11/09 A2994 RMK T01100090 IEM_DS3505
ZGKL,2006-01-16 15:00,ZGKL 161500Z AUTO 02004KT 2 1/2SM 11/07 A2994 RMK SLP151 T01100071 52007 IEM_DS3505
ZGKL,2006-01-16 16:00,ZGKL 161600Z AUTO 31002KT 11/09 A2997 RMK T01100090 IEM_DS3505
ZGKL,2006-01-16 21:00,ZGKL 162100Z AUTO 02004KT 2 1/2SM 10/06 A2994 RMK SLP151 T01020065 57008 IEM_DS3505
ZGKL,2006-01-16 22:00,ZGKL 162200Z AUTO 08002KT 1 1/2SM 11/08 A2997 RMK T01100080 IEM_DS3505
ZGKL,2006-01-16 23:00,ZGKL 162300Z AUTO 01004KT 1SM 11/08 A2997 RMK T01100080 IEM_DS3505
ZGKL,2006-01-17 00:00,ZGKL 170000Z AUTO 34006KT 2SM 10/07 A3000 RMK 60002 70002 SLP165 T00950074 52013 IEM_DS3505
ZGKL,2006-01-17 01:00,ZGKL 170100Z AUTO 06004KT 1/2SM 10/09 A3000 RMK T01000090 IEM_DS3505
ZGKL,2006-01-17 02:00,ZGKL 170200Z AUTO 05004KT 1/2SM 10/09 A3000 RMK T01000090 IEM_DS3505
ZGKL,2006-01-17 03:00,ZGKL 170300Z AUTO 02004KT 1 1/4SM 09/08 A3000 RMK SLP170 T00930084 52005 IEM_DS3505
ZGKL,2006-01-17 04:00,ZGKL 170400Z AUTO 06002KT 1/2SM 10/09 A2997 RMK T01000090 IEM_DS3505
ZGKL,2006-01-17 05:00,ZGKL 170500Z AUTO 04004KT 1/2SM 10/09 A2997 RMK T01000090 IEM_DS3505
ZGKL,2006-01-17 06:00,ZGKL 170600Z AUTO 02004KT 1 1/2SM 10/09 A2994 RMK 60031 SLP143 T00970086 57026 IEM_DS3505
ZGKL,2006-01-17 07:00,ZGKL 170700Z AUTO 05004KT 1/2SM 10/09 A2991 RMK T01000090 IEM_DS3505
ZGKL,2006-01-17 08:00,ZGKL 170800Z AUTO 06004KT 1/2SM 10/09 A2991 RMK T01000090 IEM_DS3505
ZGKL,2006-01-17 09:00,ZGKL 170900Z AUTO 36006KT 2SM 10/09 A2991 RMK SLP137 T01030087 57006 IEM_DS3505
ZGKL,2006-01-17 10:00,ZGKL 171000Z AUTO 06002KT 1/2SM 10/10 A2991 RMK T01000100 IEM_DS3505
ZGKL,2006-01-17 11:00,ZGKL 171100Z AUTO 05002KT 1SM 10/09 A2994 RMK T01000090 IEM_DS3505
ZGKL,2006-01-17 12:00,ZGKL 171200Z AUTO 04008KT 2SM 10/08 A2994 RMK 60016 SLP151 T00980084 52013 IEM_DS3505
ZGKL,2006-01-17 13:00,ZGKL 171300Z AUTO 05004KT 1SM 10/09 A2994 RMK T01000090 IEM_DS3505
ZGKL,2006-01-17 14:00,ZGKL 171400Z AUTO 06006KT 1SM 10/09 A2997 RMK T01000090 IEM_DS3505
ZGKL,2006-01-17 15:00,ZGKL 171500Z AUTO 36004KT 2SM 10/08 A2997 RMK SLP157 T00960082 52006 IEM_DS3505
ZGKL,2006-01-17 16:00,ZGKL 171600Z AUTO 07002KT 10/09 A2997 RMK T01000090 IEM_DS3505
ZGKL,2006-01-17 17:00,ZGKL 171700Z AUTO 08004KT 10/09 A2997 RMK T01000090 IEM_DS3505
ZGKL,2006-01-17 18:00,ZGKL 171800Z AUTO 02010KT 2SM 09/08 RMK 60028 SLP154 T00890075 57003 IEM_DS3505
ZGKL,2006-01-17 20:00,ZGKL 172000Z AUTO 05004KT 09/08 A2994 RMK T00900080 IEM_DS3505
ZGKL,2006-01-17 21:00,ZGKL 172100Z AUTO 36004KT 2SM 08/08 RMK 70153 SLP145 T00850077 57009 IEM_DS3505
ZGKL,2006-01-17 22:00,ZGKL 172200Z AUTO 00000KT 3SM 09/08 A2994 RMK T00900080 IEM_DS3505
ZGKL,2006-01-17 23:00,ZGKL 172300Z AUTO 06002KT 3SM 08/08 A2991 RMK T00800080 IEM_DS3505
ZGKL,2006-01-18 00:00,ZGKL 180000Z AUTO 36008KT 2 1/2SM 08/06 A2994 RMK 60130 70202 SLP160 T00760064 52014 IEM_DS3505
ZGKL,2006-01-18 01:00,ZGKL 180100Z AUTO 08006KT 2SM 08/07 A2997 RMK T00800070 IEM_DS3505
ZGKL,2006-01-18 02:00,ZGKL 180200Z AUTO 00000KT 2SM 08/07 A3000 RMK T00800070 IEM_DS3505
ZGKL,2006-01-18 03:00,ZGKL 180300Z AUTO 02008KT 2 1/2SM 07/06 A3000 RMK SLP172 T00740062 52012 IEM_DS3505
ZGKL,2006-01-18 04:00,ZGKL 180400Z AUTO 04004KT 2SM 08/07 A2997 RMK T00800070 IEM_DS3505
ZGKL,2006-01-18 05:00,ZGKL 180500Z AUTO 11002KT 2 1/2SM 08/07 A2994 RMK T00800070 IEM_DS3505
ZGKL,2006-01-18 06:00,ZGKL 180600Z AUTO 04006KT 4SM 08/06 A2991 RMK 60122 SLP138 T00750063 57034 IEM_DS3505
ZGKL,2006-01-18 07:00,ZGKL 180700Z AUTO 06006KT 3SM 08/07 A2988 RMK T00800070 IEM_DS3505
ZGKL,2006-01-18 08:00,ZGKL 180800Z AUTO 07006KT 3SM 08/07 A2988 RMK T00800070 IEM_DS3505
ZGKL,2006-01-18 09:00,ZGKL 180900Z AUTO 02008KT 5SM 07/05 A2991 RMK SLP139 T00700053 52001 IEM_DS3505
ZGKL,2006-01-18 10:00,ZGKL 181000Z AUTO 05006KT 7SM 07/06 A2991 RMK T00700060 IEM_DS3505
ZGKL,2006-01-18 11:00,ZGKL 181100Z AUTO 05006KT 7SM 07/06 A2994 RMK T00700060 IEM_DS3505
ZGKL,2006-01-18 12:00,ZGKL 181200Z AUTO 36010KT 5SM 06/04 A2994 RMK 60028 SLP158 T00630045 52018 IEM_DS3505
ZGKL,2006-01-18 13:00,ZGKL 181300Z AUTO 04006KT 7SM 07/05 A2997 RMK T00700050 IEM_DS3505
ZGKL,2006-01-18 14:00,ZGKL 181400Z AUTO 07002KT 7SM 06/05 A2997 RMK T00600050 IEM_DS3505
ZGKL,2006-01-18 15:00,ZGKL 181500Z AUTO 02006KT 5SM 06/04 A2997 RMK SLP164 T00640041 52006 IEM_DS3505
ZGKL,2006-01-18 16:00,ZGKL 181600Z AUTO 05004KT 7SM 07/05 A3000 RMK T00700050 IEM_DS3505
ZGKL,2006-01-18 17:00,ZGKL 181700Z AUTO 04002KT 07/05 A3000 RMK T00700050 IEM_DS3505
ZGKL,2006-01-18 19:00,ZGKL 181900Z AUTO 07002KT 06/04 A3000 RMK T00600040 IEM_DS3505
ZGKL,2006-01-18 20:00,ZGKL 182000Z AUTO 02002KT 06/04 A3000 RMK T00600040 IEM_DS3505
ZGKL,2006-01-18 21:00,ZGKL 182100Z AUTO 36008KT 5SM 06/03 A3000 RMK 70202 SLP170 T00570032 57003 IEM_DS3505
ZGKL,2006-01-18 22:00,ZGKL 182200Z AUTO 06002KT 7SM 06/04 A3000 RMK T00600040 IEM_DS3505
ZGKL,2006-01-18 23:00,ZGKL 182300Z AUTO 05004KT 7SM 06/04 A3000 RMK T00600040 IEM_DS3505
ZGKL,2006-01-19 00:00,ZGKL 190000Z AUTO 36006KT 8SM 06/03 A3003 RMK 60000 70151 SLP182 T00550030 52012 IEM_DS3505
ZGKL,2006-01-19 01:00,ZGKL 190100Z AUTO 04004KT 7SM 06/04 A3003 RMK T00600040 IEM_DS3505
ZGKL,2006-01-19 02:00,ZGKL 190200Z AUTO 04004KT 7SM 06/04 A3006 RMK T00600040 IEM_DS3505
ZGKL,2006-01-19 03:00,ZGKL 190300Z AUTO 02008KT 12SM 06/03 A3006 RMK SLP187 T00620030 52005 IEM_DS3505
ZGKL,2006-01-19 04:00,ZGKL 190400Z AUTO 03006KT 7SM 07/04 A3000 RMK T00700040 IEM_DS3505
ZGKL,2006-01-19 05:00,ZGKL 190500Z AUTO 05004KT 7SM 07/04 A3000 RMK T00700040 IEM_DS3505
ZGKL,2006-01-19 06:00,ZGKL 190600Z AUTO 02012KT 12SM 06/03 A2997 RMK SLP165 T00610026 57022 IEM_DS3505
ZGKL,2006-01-19 07:00,ZGKL 190700Z AUTO 05008KT 7SM 06/04 A2997 RMK T00600040 IEM_DS3505
ZGKL,2006-01-19 08:00,ZGKL 190800Z AUTO 05010KT 5SM 05/04 A2997 RMK T00500040 IEM_DS3505
ZGKL,2006-01-19 09:00,ZGKL 190900Z AUTO 02010KT 11SM 05/02 A2997 RMK SLP170 T00520024 52005 IEM_DS3505
ZGKL,2006-01-19 10:00,ZGKL 191000Z AUTO 05004KT 3SM 05/04 A3000 RMK T00500040 IEM_DS3505
ZGKL,2006-01-19 11:00,ZGKL 191100Z AUTO 02004KT 3SM 05/04 A3003 RMK T00500040 IEM_DS3505
ZGKL,2006-01-19 12:00,ZGKL 191200Z AUTO 02010KT 10SM 05/02 A3006 RMK 60000 SLP193 T00490021 52022 IEM_DS3505
ZGKL,2006-01-19 14:00,ZGKL 191400Z AUTO 06004KT 4SM 05/04 A3009 RMK T00500040 IEM_DS3505
ZGKL,2006-01-19 15:00,ZGKL 191500Z AUTO 02012KT 10SM 05/01 A3012 RMK SLP211 T00490014 52018 IEM_DS3505
ZGKL,2006-01-19 16:00,ZGKL 191600Z AUTO 05004KT 3SM 05/03 A3012 RMK T00500030 IEM_DS3505
ZGKL,2006-01-19 17:00,ZGKL 191700Z AUTO 06008KT 04/03 A3012 RMK T00400030 IEM_DS3505
ZGKL,2006-01-19 18:00,ZGKL 191800Z AUTO 02008KT 8SM 04/01 A3012 RMK 60000 SLP216 T00420014 52005 IEM_DS3505
ZGKL,2006-01-19 19:00,ZGKL 191900Z AUTO 03004KT 04/02 A3012 RMK T00400020 IEM_DS3505
ZGKL,2006-01-19 20:00,ZGKL 192000Z AUTO 05006KT 04/02 A3012 RMK T00400020 IEM_DS3505
ZGKL,2006-01-19 21:00,ZGKL 192100Z AUTO 36012KT 9SM 04/01 A3012 RMK 70000 SLP212 T00390006 57005 IEM_DS3505
ZGKL,2006-01-19 22:00,ZGKL 192200Z AUTO 05002KT 5SM 04/02 A3012 RMK T00400020 IEM_DS3505
ZGKL,2006-01-19 23:00,ZGKL 192300Z AUTO 05002KT 5SM 04/02 A3015 RMK T00400020 IEM_DS3505
ZGKL,2006-01-20 00:00,ZGKL 200000Z AUTO 02010KT 11SM 04/00 A3018 RMK 70000 SLP233 T00370002 52021 IEM_DS3505
ZGKL,2006-01-20 01:00,ZGKL 200100Z AUTO 05004KT 7SM 04/01 A3018 RMK T00400010 IEM_DS3505
ZGKL,2006-01-20 02:00,ZGKL 200200Z AUTO 02004KT 5SM 04/02 A3021 RMK T00400020 IEM_DS3505
ZGKL,2006-01-20 03:00,ZGKL 200300Z AUTO 02008KT 11SM 04/00 A3021 RMK SLP248 T00360003 52014 IEM_DS3505
ZGKL,2006-01-20 04:00,ZGKL 200400Z AUTO 06004KT 4SM 04/02 A3021 RMK T00400020 IEM_DS3505
ZGKL,2006-01-20 05:00,ZGKL 200500Z AUTO 05006KT 4SM 04/02 A3015 RMK T00400020 IEM_DS3505
ZGKL,2006-01-20 07:00,ZGKL 200700Z AUTO 04006KT 4SM 04/01 A3012 RMK T00400010 IEM_DS3505
ZGKL,2006-01-20 08:00,ZGKL 200800Z AUTO 06006KT 4SM 04/01 A3012 RMK T00400010 IEM_DS3505
ZGKL,2006-01-20 09:00,ZGKL 200900Z AUTO 36012KT 10SM 04/M00 A3012 RMK SLP216 T00351001 57005 IEM_DS3505
ZGKL,2006-01-20 10:00,ZGKL 201000Z AUTO 05006KT 4SM 04/01 A3015 RMK T00400010 IEM_DS3505
ZGKL,2006-01-20 11:00,ZGKL 201100Z AUTO 03008KT 4SM 04/01 A3018 RMK SLP230 T00400010 IEM_DS3505
ZGKL,2006-01-20 12:00,ZGKL 201200Z AUTO 04010KT 9SM 03/M00 A3018 RMK SLP244 T00331005 52027 IEM_DS3505
ZGKL,2006-01-20 13:00,ZGKL 201300Z AUTO 04008KT 4SM 04/01 A3024 RMK SLP250 T00400010 IEM_DS3505
ZGKL,2006-01-20 14:00,ZGKL 201400Z AUTO 03008KT 4SM 03/01 A3024 RMK SLP251 T00300010 IEM_DS3505
ZGKL,2006-01-20 15:00,ZGKL 201500Z AUTO 02008KT 9SM 03/M01 A3024 RMK SLP260 T00291006 52015 IEM_DS3505
ZGKL,2006-01-20 16:00,ZGKL 201600Z AUTO 03004KT 4SM 03/00 A3024 RMK T00300000 IEM_DS3505
ZGKL,2006-01-20 17:00,ZGKL 201700Z AUTO 05006KT 03/00 A3024 RMK T00300000 IEM_DS3505
ZGKL,2006-01-20 18:00,ZGKL 201800Z AUTO 36010KT 9SM 03/M01 A3024 RMK SLP259 T00271007 57001 IEM_DS3505
ZGKL,2006-01-20 19:00,ZGKL 201900Z AUTO 02006KT 03/00 A3024 RMK T00300000 IEM_DS3505
ZGKL,2006-01-20 20:00,ZGKL 202000Z AUTO 04004KT 03/00 A3024 RMK T00300000 IEM_DS3505
ZGKL,2006-01-20 21:00,ZGKL 202100Z AUTO 36008KT 9SM 03/M01 A3024 RMK SLP254 T00271007 57005 IEM_DS3505
ZGKL,2006-01-20 22:00,ZGKL 202200Z AUTO 04002KT 4SM 03/00 A3024 RMK SLP251 T00300000 IEM_DS3505
ZGKL,2006-01-20 23:00,ZGKL 202300Z AUTO 08002KT 4SM 03/00 A3027 RMK SLP262 T00300000 IEM_DS3505
ZGKL,2006-01-21 00:00,ZGKL 210000Z AUTO 36008KT 9SM 03/M01 A3027 RMK SLP270 T00261007 52016 IEM_DS3505
ZGKL,2006-01-21 01:00,ZGKL 210100Z AUTO 04004KT 5SM 03/00 A3030 RMK T00300000 IEM_DS3505
ZGKL,2006-01-21 02:00,ZGKL 210200Z AUTO 02004KT 5SM 04/00 A3030 RMK T00400000 IEM_DS3505
ZGKL,2006-01-21 03:00,ZGKL 210300Z AUTO 36010KT 9SM 04/M00 A3033 RMK SLP283 T00381004 52013 IEM_DS3505
ZGKL,2006-01-21 04:00,ZGKL 210400Z AUTO 03010KT 5SM 06/01 A3030 RMK T00600010 IEM_DS3505
ZGKL,2006-01-21 05:00,ZGKL 210500Z AUTO 04006KT 5SM 06/01 A3027 RMK T00600010 IEM_DS3505
ZGKL,2006-01-21 06:00,ZGKL 210600Z AUTO 02008KT 9SM 05/M00 A3021 RMK SLP245 T00541002 57037 IEM_DS3505
ZGKL,2006-01-21 07:00,ZGKL 210700Z AUTO 02008KT 5SM 07/01 A3018 RMK T00700010 IEM_DS3505
ZGKL,2006-01-21 08:00,ZGKL 210800Z AUTO 02008KT 7SM 06/01 A3018 RMK T00600010 IEM_DS3505
ZGKL,2006-01-21 09:00,ZGKL 210900Z AUTO 02010KT 9SM 05/00 A3018 RMK SLP236 T00520000 57009 IEM_DS3505
ZGKL,2006-01-21 10:00,ZGKL 211000Z AUTO 04006KT 7SM 06/01 A3018 RMK T00600010 IEM_DS3505
ZGKL,2006-01-21 11:00,ZGKL 211100Z AUTO 03004KT 4SM 06/01 A3018 RMK T00600010 IEM_DS3505
ZGKL,2006-01-21 12:00,ZGKL 211200Z AUTO 36008KT 8SM 05/00 A3018 RMK SLP240 T00490005 52004 IEM_DS3505
ZGKL,2006-01-21 13:00,ZGKL 211300Z AUTO 07004KT 4SM 05/01 A3021 RMK T00500010 IEM_DS3505
ZGKL,2006-01-21 14:00,ZGKL 211400Z AUTO 07004KT 3SM 05/01 A3021 RMK T00500010 IEM_DS3505
ZGKL,2006-01-21 15:00,ZGKL 211500Z AUTO 02010KT 8SM 05/M00 A3018 RMK SLP236 T00481002 57003 IEM_DS3505
ZGKL,2006-01-21 16:00,ZGKL 211600Z AUTO 06006KT 05/01 A3018 RMK T00500010 IEM_DS3505
ZGKL,2006-01-21 17:00,ZGKL 211700Z AUTO 02002KT 05/01 A3018 RMK T00500010 IEM_DS3505
ZGKL,2006-01-21 18:00,ZGKL 211800Z AUTO 04006KT 8SM 05/M00 A3018 RMK SLP235 T00481004 57001 IEM_DS3505
ZGKL,2006-01-21 19:00,ZGKL 211900Z AUTO 03004KT 05/01 A3018 RMK T00500010 IEM_DS3505
ZGKL,2006-01-21 20:00,ZGKL 212000Z AUTO 00000KT 05/01 A3015 RMK T00500010 IEM_DS3505
ZGKL,2006-01-21 21:00,ZGKL 212100Z AUTO 02006KT 7SM 05/00 A3015 RMK SLP226 T00460000 57009 IEM_DS3505
ZGKL,2006-01-21 22:00,ZGKL 212200Z AUTO 05002KT 4SM 05/01 A3015 RMK T00500010 IEM_DS3505
ZGKL,2006-01-21 23:00,ZGKL 212300Z AUTO 03004KT 3SM 05/01 A3018 RMK T00500010 IEM_DS3505
ZGKL,2006-01-22 00:00,ZGKL 220000Z AUTO 02006KT 8SM 04/M00 A3021 RMK SLP242 T00441002 52016 IEM_DS3505
ZGKL,2006-01-22 01:00,ZGKL 220100Z AUTO 04004KT 4SM 05/01 A3024 RMK T00500010 IEM_DS3505
ZGKL,2006-01-22 02:00,ZGKL 220200Z AUTO 04004KT 4SM 06/01 A3027 RMK T00600010 IEM_DS3505
ZGKL,2006-01-22 03:00,ZGKL 220300Z AUTO 02010KT 6SM 06/M00 A3027 RMK SLP260 T00561002 52018 IEM_DS3505
ZGKL,2006-01-22 04:00,ZGKL 220400Z AUTO 07008KT 07/01 A3024 RMK T00700010 IEM_DS3505
ZGKL,2006-01-22 05:00,ZGKL 220500Z AUTO 06006KT 07/01 A3021 RMK T00700010 IEM_DS3505
ZGKL,2006-01-22 06:00,ZGKL 220600Z AUTO 02008KT 6SM 06/00 A3021 RMK SLP244 T00570003 57016 IEM_DS3505
ZGKL,2006-01-22 07:00,ZGKL 220700Z AUTO 06008KT 07/01 A3018 RMK SLP228 T00700010 IEM_DS3505
ZGKL,2006-01-22 08:00,ZGKL 220800Z AUTO 05010KT 07/01 A3018 RMK SLP228 T00700010 IEM_DS3505
ZGKL,2006-01-22 09:00,ZGKL 220900Z AUTO 02008KT 6SM 06/01 A3021 RMK SLP248 T00560006 52004 IEM_DS3505
ZGKL,2006-01-22 10:00,ZGKL 221000Z AUTO 05006KT 4SM 06/01 A3024 RMK SLP249 T00600010 IEM_DS3505
ZGKL,2006-01-22 11:00,ZGKL 221100Z AUTO 06012KT 3SM 05/01 A3027 RMK T00500010 IEM_DS3505
ZGKL,2006-01-22 12:00,ZGKL 221200Z AUTO 02008KT 6SM 05/M00 A3027 RMK SLP271 T00471001 52022 IEM_DS3505
ZGKL,2006-01-22 13:00,ZGKL 221300Z AUTO 06010KT 3SM 05/01 A3030 RMK SLP271 T00500010 IEM_DS3505
ZGKL,2006-01-22 14:00,ZGKL 221400Z AUTO 04010KT 3SM 05/01 A3033 RMK SLP281 T00500010 IEM_DS3505
ZGKL,2006-01-22 15:00,ZGKL 221500Z AUTO 02008KT 6SM 05/M00 A3033 RMK SLP288 T00481004 52017 IEM_DS3505
ZGKL,2006-01-22 16:00,ZGKL 221600Z AUTO 05006KT 3SM 05/00 A3033 RMK SLP281 T00500000 IEM_DS3505
ZGKL,2006-01-22 17:00,ZGKL 221700Z AUTO 02006KT 05/01 A3036 RMK T00500010 IEM_DS3505
ZGKL,2006-01-22 18:00,ZGKL 221800Z AUTO 02006KT 6SM 05/M01 A3036 RMK SLP293 T00461008 52005 IEM_DS3505
ZGKL,2006-01-22 19:00,ZGKL 221900Z AUTO 36006KT 05/00 A3036 RMK T00500000 IEM_DS3505
ZGKL,2006-01-22 20:00,ZGKL 222000Z AUTO 05008KT 04/00 A3033 RMK T00400000 IEM_DS3505
ZGKL,2006-01-22 21:00,ZGKL 222100Z AUTO 02006KT 6SM 03/M02 A3033 RMK SLP287 T00331016 57006 IEM_DS3505
ZGKL,2006-01-22 22:00,ZGKL 222200Z AUTO 05004KT 4SM 03/00 A3033 RMK SLP283 T00300000 IEM_DS3505
ZGKL,2006-01-22 23:00,ZGKL 222300Z AUTO 04004KT 4SM 03/M01 A3033 RMK SLP283 T00301010 IEM_DS3505
ZGKL,2006-01-23 00:00,ZGKL 230000Z AUTO 36006KT 6SM 03/M02 A3036 RMK SLP294 T00301019 52006 IEM_DS3505
ZGKL,2006-01-23 01:00,ZGKL 230100Z AUTO 00000KT 3SM 03/00 A3036 RMK SLP292 T00300000 IEM_DS3505
ZGKL,2006-01-23 02:00,ZGKL 230200Z AUTO 01006KT 06/M01 A3039 RMK SLP300 T00601010 IEM_DS3505
ZGKL,2006-01-23 03:00,ZGKL 230300Z AUTO 02010KT 6SM 05/M02 A3039 RMK SLP311 T00531023 52018 IEM_DS3505
ZGKL,2006-01-23 04:00,ZGKL 230400Z AUTO 05010KT 07/M02 A3039 RMK SLP299 T00701020 IEM_DS3505
ZGKL,2006-01-23 05:00,ZGKL 230500Z AUTO 07010KT 08/M02 A3036 RMK SLP288 T00801020 IEM_DS3505
ZGKL,2006-01-23 06:00,ZGKL 230600Z AUTO 02010KT 7SM 08/M03 A3030 RMK SLP278 T00821027 57032 IEM_DS3505
ZGKL,2006-01-23 07:00,ZGKL 230700Z AUTO 07010KT 5SM 09/M01 A3027 RMK SLP258 T00901010 IEM_DS3505
ZGKL,2006-01-23 08:00,ZGKL 230800Z AUTO 05012KT 5SM 09/M01 A3027 RMK SLP258 T00901010 IEM_DS3505
ZGKL,2006-01-23 09:00,ZGKL 230900Z AUTO 07008KT 7SM 08/M02 A3027 RMK SLP267 T00751020 57011 IEM_DS3505
ZGKL,2006-01-23 10:00,ZGKL 231000Z AUTO 06010KT 07/M01 A3027 RMK SLP259 T00701010 IEM_DS3505
ZGKL,2006-01-23 11:00,ZGKL 231100Z AUTO 06012KT 06/M01 A3030 RMK SLP270 T00601010 IEM_DS3505
ZGKL,2006-01-23 12:00,ZGKL 231200Z AUTO 02006KT 6SM 05/M02 A3033 RMK SLP287 T00501017 52018 IEM_DS3505
ZGKL,2006-01-23 13:00,ZGKL 231300Z AUTO 05014KT 3SM 06/M02 A3033 RMK SLP281 T00601020 IEM_DS3505
ZGKL,2006-01-23 14:00,ZGKL 231400Z AUTO 04012KT 3SM 05/M02 A3036 RMK SLP290 T00501020 IEM_DS3505
ZGKL,2006-01-23 15:00,ZGKL 231500Z AUTO 02004KT 6SM 04/M02 A3036 RMK SLP300 T00431015 52014 IEM_DS3505
ZGKL,2006-01-23 16:00,ZGKL 231600Z AUTO 05004KT 3SM 05/M01 A3039 RMK SLP301 T00501010 IEM_DS3505
ZGKL,2006-01-23 17:00,ZGKL 231700Z AUTO 05002KT 05/M01 A3039 RMK SLP301 T00501010 IEM_DS3505
ZGKL,2006-01-23 18:00,ZGKL 231800Z AUTO 02004KT 6SM 05/M01 A3036 RMK SLP299 T00481014 54000 IEM_DS3505
ZGKL,2006-01-23 19:00,ZGKL 231900Z AUTO 04006KT 05/M01 A3036 RMK SLP290 T00501010 IEM_DS3505
ZGKL,2006-01-23 20:00,ZGKL 232000Z AUTO 02002KT 05/M01 A3033 RMK SLP281 T00501010 IEM_DS3505
ZGKL,2006-01-23 21:00,ZGKL 232100Z AUTO 36004KT 6SM 05/M01 A3033 RMK SLP283 T00461012 57016 IEM_DS3505
ZGKL,2006-01-23 22:00,ZGKL 232200Z AUTO 01004KT 3SM 05/00 A3033 RMK SLP281 T00500000 IEM_DS3505
ZGKL,2006-01-23 23:00,ZGKL 232300Z AUTO 02002KT 3SM 05/00 A3036 RMK SLP290 T00500000 IEM_DS3505
ZGKL,2006-01-24 00:00,ZGKL 240000Z AUTO 02004KT 6SM 05/M01 A3036 RMK SLP297 T00461010 52013 IEM_DS3505
ZGKL,2006-01-24 01:00,ZGKL 240100Z AUTO 00000KT 4SM 05/00 A3039 RMK SLP301 T00500000 IEM_DS3505
ZGKL,2006-01-24 02:00,ZGKL 240200Z AUTO 03002KT 07/M01 A3042 RMK SLP309 T00701010 IEM_DS3505
ZGKL,2006-01-24 03:00,ZGKL 240300Z AUTO 02010KT 6SM 08/M01 A3039 RMK SLP306 T00771013 52009 IEM_DS3505
ZGKL,2006-01-24 04:00,ZGKL 240400Z AUTO 07006KT 5SM 09/M01 A3036 RMK SLP288 T00901010 IEM_DS3505
ZGKL,2006-01-24 05:00,ZGKL 240500Z AUTO 05008KT 10/00 A3033 RMK SLP278 T01000000 IEM_DS3505
ZGKL,2006-01-24 06:00,ZGKL 240600Z AUTO 02008KT 6SM 11/M00 A3030 RMK SLP271 T01091003 57033 IEM_DS3505
ZGKL,2006-01-24 07:00,ZGKL 240700Z AUTO 06006KT 5SM 11/00 A3027 RMK SLP257 T01100000 IEM_DS3505
ZGKL,2006-01-24 08:00,ZGKL 240800Z AUTO 05008KT 5SM 11/00 A3024 RMK SLP245 T01100000 IEM_DS3505
ZGKL,2006-01-24 09:00,ZGKL 240900Z AUTO 04010KT 7SM 10/00 A3024 RMK SLP259 T01020000 57012 IEM_DS3505
ZGKL,2006-01-24 10:00,ZGKL 241000Z AUTO 05010KT 5SM 10/00 A3027 RMK SLP257 T01000000 IEM_DS3505
ZGKL,2006-01-24 11:00,ZGKL 241100Z AUTO 05010KT 08/00 A3027 RMK SLP259 T00800000 IEM_DS3505
ZGKL,2006-01-24 12:00,ZGKL 241200Z AUTO 02004KT 7SM 06/00 A3030 RMK SLP273 T00610004 52013 IEM_DS3505
ZGKL,2006-01-24 13:00,ZGKL 241300Z AUTO 02008KT 2 1/2SM 06/01 A3030 RMK SLP270 T00600010 IEM_DS3505
ZGKL,2006-01-24 14:00,ZGKL 241400Z AUTO 35004KT 2 1/2SM 05/01 A3033 RMK SLP281 T00500010 IEM_DS3505
ZGKL,2006-01-24 15:00,ZGKL 241500Z AUTO 04004KT 7SM 05/00 A3033 RMK SLP288 T00510003 52015 IEM_DS3505
ZGKL,2006-01-24 16:00,ZGKL 241600Z AUTO 32002KT 2SM 03/01 A3036 RMK SLP292 T00300010 IEM_DS3505
ZGKL,2006-01-24 17:00,ZGKL 241700Z AUTO 27002KT 03/02 A3036 RMK T00300020 IEM_DS3505
ZGKL,2006-01-24 18:00,ZGKL 241800Z AUTO 36004KT 7SM 04/00 A3036 RMK SLP289 T00410001 52002 IEM_DS3505
ZGKL,2006-01-24 21:00,ZGKL 242100Z AUTO 04004KT 7SM 05/00 A3033 RMK SLP285 T00520004 57004 IEM_DS3505
ZGKL,2006-01-24 22:00,ZGKL 242200Z AUTO 00000KT 1 1/4SM 04/02 A3036 RMK SLP291 T00400020 IEM_DS3505
ZGKL,2006-01-24 23:00,ZGKL 242300Z AUTO 00000KT 1 1/4SM 04/02 A3036 RMK SLP291 T00400020 IEM_DS3505
ZGKL,2006-01-25 00:00,ZGKL 250000Z AUTO 02004KT 3SM 06/01 A3039 RMK SLP301 T00600008 52015 IEM_DS3505
ZGKL,2006-01-25 01:00,ZGKL 250100Z AUTO 00000KT 2SM 05/03 A3039 RMK SLP301 T00500030 IEM_DS3505
ZGKL,2006-01-25 02:00,ZGKL 250200Z AUTO 34002KT 3SM 07/03 A3042 RMK SLP309 T00700030 IEM_DS3505
ZGKL,2006-01-25 03:00,ZGKL 250300Z AUTO 36010KT 3SM 08/01 A3045 RMK SLP317 T00810006 52016 IEM_DS3505
ZGKL,2006-01-25 04:00,ZGKL 250400Z AUTO 33002KT 3SM 09/03 A3042 RMK SLP308 T00900030 IEM_DS3505
ZGKL,2006-01-25 05:00,ZGKL 250500Z AUTO 30004KT 3SM 11/02 A3036 RMK SLP286 T01100020 IEM_DS3505
ZGKL,2006-01-25 06:00,ZGKL 250600Z AUTO 04004KT 4SM 11/01 A3033 RMK SLP280 T01090009 57036 IEM_DS3505
ZGKL,2006-01-25 07:00,ZGKL 250700Z AUTO 08006KT 11/01 A3030 RMK SLP267 T01100010 IEM_DS3505
ZGKL,2006-01-25 08:00,ZGKL 250800Z AUTO 08004KT 12/02 A3027 RMK SLP256 T01200020 IEM_DS3505
ZGKL,2006-01-25 09:00,ZGKL 250900Z AUTO 02006KT 5SM 12/02 A3030 RMK SLP267 T01160018 57012 IEM_DS3505
ZGKL,2006-01-25 10:00,ZGKL 251000Z AUTO 06008KT 11/03 A3030 RMK SLP267 T01100030 IEM_DS3505
ZGKL,2006-01-25 11:00,ZGKL 251100Z AUTO 06012KT 10/02 A3033 RMK SLP278 T01000020 IEM_DS3505
ZGKL,2006-01-25 12:00,ZGKL 251200Z AUTO 04006KT 5SM 08/01 A3036 RMK SLP299 T00790013 52030 IEM_DS3505
ZGKL,2006-01-25 13:00,ZGKL 251300Z AUTO 04014KT 3SM 08/01 A3039 RMK SLP298 T00800010 IEM_DS3505
ZGKL,2006-01-25 14:00,ZGKL 251400Z AUTO 34006KT 3SM 06/02 A3042 RMK SLP310 T00600020 IEM_DS3505
ZGKL,2006-01-25 15:00,ZGKL 251500Z AUTO 02006KT 4SM 07/01 A3045 RMK SLP320 T00710012 52021 IEM_DS3505
ZGKL,2006-01-25 16:00,ZGKL 251600Z AUTO 33004KT 3SM 07/02 A3042 RMK SLP309 T00700020 IEM_DS3505
ZGKL,2006-01-25 17:00,ZGKL 251700Z AUTO 35002KT 06/04 A3042 RMK SLP310 T00600040 IEM_DS3505
ZGKL,2006-01-25 18:00,ZGKL 251800Z AUTO 02004KT 4SM 06/01 A3042 RMK SLP317 T00650006 57002 IEM_DS3505
ZGKL,2006-01-25 19:00,ZGKL 251900Z AUTO 34002KT 07/03 A3045 RMK SLP321 T00700030 IEM_DS3505
ZGKL,2006-01-25 20:00,ZGKL 252000Z AUTO 01002KT 07/02 A3042 RMK SLP309 T00700020 IEM_DS3505
ZGKL,2006-01-25 21:00,ZGKL 252100Z AUTO 34002KT 4SM 05/00 A3042 RMK SLP310 T00520004 57007 IEM_DS3505
ZGKL,2006-01-25 22:00,ZGKL 252200Z AUTO 35002KT 2 1/2SM 04/02 A3042 RMK SLP312 T00400020 IEM_DS3505
ZGKL,2006-01-25 23:00,ZGKL 252300Z AUTO 36002KT 2SM 04/02 A3042 RMK SLP312 T00400020 IEM_DS3505
ZGKL,2006-01-26 00:00,ZGKL 260000Z AUTO 04004KT 4SM 05/00 A3042 RMK SLP318 T00510005 52007 IEM_DS3505
ZGKL,2006-01-26 01:00,ZGKL 260100Z AUTO 35002KT 2 1/2SM 06/03 A3045 RMK SLP321 T00600030 IEM_DS3505
ZGKL,2006-01-26 02:00,ZGKL 260200Z AUTO 32004KT 2 1/2SM 07/03 A3045 RMK SLP321 T00700030 IEM_DS3505
ZGKL,2006-01-26 03:00,ZGKL 260300Z AUTO 02010KT 4SM 10/00 A3045 RMK SLP321 T01010002 52004 IEM_DS3505
ZGKL,2006-01-26 04:00,ZGKL 260400Z AUTO 07002KT 3SM 11/01 A3042 RMK SLP306 T01100010 IEM_DS3505
ZGKL,2006-01-26 05:00,ZGKL 260500Z AUTO 06004KT 3SM 13/01 A3036 RMK SLP285 T01300010 IEM_DS3505
ZGKL,2006-01-26 06:00,ZGKL 260600Z AUTO 04008KT 6SM 14/M00 A3033 RMK SLP273 T01391002 57046 IEM_DS3505
ZGKL,2006-01-26 07:00,ZGKL 260700Z AUTO 03002KT 3SM 14/02 A3027 RMK SLP254 T01400020 IEM_DS3505
ZGKL,2006-01-26 08:00,ZGKL 260800Z AUTO 34002KT 15/02 A3027 RMK SLP254 T01500020 IEM_DS3505
ZGKL,2006-01-26 09:00,ZGKL 260900Z AUTO 02006KT 7SM 14/02 A3024 RMK SLP251 T01420015 57022 IEM_DS3505
ZGKL,2006-01-26 10:00,ZGKL 261000Z AUTO 05002KT 14/02 A3024 RMK SLP243 T01400020 IEM_DS3505
ZGKL,2006-01-26 11:00,ZGKL 261100Z AUTO 35002KT 11/05 A3024 RMK SLP245 T01100050 IEM_DS3505
ZGKL,2006-01-26 12:00,ZGKL 261200Z AUTO 02004KT 7SM 10/02 A3027 RMK SLP261 T00980017 52008 IEM_DS3505
ZGKL,2006-01-26 13:00,ZGKL 261300Z AUTO 28002KT 2 1/2SM 08/05 A3027 RMK SLP259 T00800050 IEM_DS3505
ZGKL,2006-01-26 14:00,ZGKL 261400Z AUTO 29002KT 2 1/2SM 07/05 A3030 RMK SLP270 T00700050 IEM_DS3505
ZGKL,2006-01-26 15:00,ZGKL 261500Z AUTO 02006KT 7SM 08/02 A3030 RMK SLP270 T00830015 52010 IEM_DS3505
ZGKL,2006-01-26 16:00,ZGKL 261600Z AUTO 35002KT 2SM 05/04 A3030 RMK SLP271 T00500040 IEM_DS3505
ZGKL,2006-01-26 18:00,ZGKL 261800Z AUTO 02004KT 7SM 07/01 A3027 RMK SLP262 T00680011 57007 IEM_DS3505
ZGKL,2006-01-26 21:00,ZGKL 262100Z AUTO 29002KT 6SM 05/01 A3022 RMK SLP244 T00480011 57018 IEM_DS3505
ZGKL,2006-01-26 22:00,ZGKL 262200Z AUTO 02002KT 1 1/2SM 01/00 A3021 RMK SLP242 T00100000 IEM_DS3505
ZGKL,2006-01-26 23:00,ZGKL 262300Z AUTO 00000KT 1 1/4SM 02/01 A3021 RMK SLP242 T00200010 IEM_DS3505
ZGKL,2006-01-27 00:00,ZGKL 270000Z AUTO 34002KT 5SM 03/01 A3024 RMK SLP250 T00320011 52004 IEM_DS3505
ZGKL,2006-01-27 01:00,ZGKL 270100Z AUTO 35002KT 1 1/2SM 03/02 A3024 RMK SLP251 T00300020 IEM_DS3505
ZGKL,2006-01-27 02:00,ZGKL 270200Z AUTO 03002KT 1 1/2SM 07/05 A3024 RMK SLP248 T00700050 IEM_DS3505
ZGKL,2006-01-27 03:00,ZGKL 270300Z AUTO 07004KT 4SM 10/02 A3024 RMK SLP247 T01030017 57001 IEM_DS3505
ZGKL,2006-01-27 04:00,ZGKL 270400Z AUTO 24002KT 3SM 12/02 A3021 RMK SLP234 T01200020 IEM_DS3505
ZGKL,2006-01-27 05:00,ZGKL 270500Z AUTO 27004KT 3SM 14/03 A3015 RMK SLP214 T01400030 IEM_DS3505
ZGKL,2006-01-27 06:00,ZGKL 270600Z AUTO 16004KT 4SM 15/01 A3009 RMK SLP197 T01520006 57048 IEM_DS3505
ZGKL,2006-01-27 07:00,ZGKL 270700Z AUTO 03002KT 17/00 A3006 RMK SLP181 T01700000 IEM_DS3505
ZGKL,2006-01-27 08:00,ZGKL 270800Z AUTO 18002KT 17/00 A3003 RMK SLP170 T01700000 IEM_DS3505
ZGKL,2006-01-27 09:00,ZGKL 270900Z AUTO 16004KT 7SM 17/M01 A3000 RMK SLP164 T01661010 57032 IEM_DS3505
ZGKL,2006-01-27 10:00,ZGKL 271000Z AUTO 00000KT 16/01 A3000 RMK SLP160 T01600010 IEM_DS3505
ZGKL,2006-01-27 11:00,ZGKL 271100Z AUTO 28002KT 3SM 13/07 A3000 RMK SLP162 T01300070 IEM_DS3505
ZGKL,2006-01-27 12:00,ZGKL 271200Z AUTO 36002KT 7SM 11/03 A3003 RMK SLP178 T01130026 52011 IEM_DS3505
ZGKL,2006-01-27 13:00,ZGKL 271300Z AUTO 34004KT 3SM 09/06 A3003 RMK SLP175 T00900060 IEM_DS3505
ZGKL,2006-01-27 14:00,ZGKL 271400Z AUTO 32002KT 2 1/2SM 08/06 A3006 RMK SLP187 T00800060 IEM_DS3505
ZGKL,2006-01-27 15:00,ZGKL 271500Z AUTO 04002KT 7SM 09/03 A3006 RMK SLP195 T00910031 52018 IEM_DS3505
ZGKL,2006-01-27 16:00,ZGKL 271600Z AUTO 30002KT 2SM 07/04 A3009 RMK SLP198 T00700040 IEM_DS3505
ZGKL,2006-01-27 17:00,ZGKL 271700Z AUTO 00000KT 06/04 A3009 RMK T00600040 IEM_DS3505
ZGKL,2006-01-27 18:00,ZGKL 271800Z AUTO 00000KT 7SM 07/03 A3010 RMK SLP199 T00700031 52005 IEM_DS3505
ZGKL,2006-01-27 21:00,ZGKL 272100Z AUTO 02002KT 7SM 06/02 A3006 RMK SLP192 T00600023 57007 IEM_DS3505
ZGKL,2006-01-27 22:00,ZGKL 272200Z AUTO 00000KT 1 1/4SM 04/02 A3009 RMK SLP200 T00400020 IEM_DS3505
ZGKL,2006-01-27 23:00,ZGKL 272300Z AUTO 00000KT 1 1/4SM 03/02 A3009 RMK SLP201 T00300020 IEM_DS3505
ZGKL,2006-01-28 00:00,ZGKL 280000Z AUTO 00000KT 5SM 06/03 A3012 RMK SLP207 T00610026 52013 IEM_DS3505
ZGKL,2006-01-28 01:00,ZGKL 280100Z AUTO 17002KT 2SM 06/05 A3012 RMK SLP209 T00600050 IEM_DS3505
ZGKL,2006-01-28 02:00,ZGKL 280200Z AUTO 00000KT 2 1/2SM 09/05 A3009 RMK SLP197 T00900050 IEM_DS3505
ZGKL,2006-01-28 03:00,ZGKL 280300Z AUTO 16002KT 6SM 13/03 A3009 RMK SLP200 T01280032 57005 IEM_DS3505
ZGKL,2006-01-28 04:00,ZGKL 280400Z AUTO 27002KT 3SM 16/03 A3006 RMK SLP182 T01600030 IEM_DS3505
ZGKL,2006-01-28 05:00,ZGKL 280500Z AUTO 19002KT 17/03 A3003 RMK SLP170 T01700030 IEM_DS3505
ZGKL,2006-01-28 06:00,ZGKL 280600Z AUTO 18004KT 6SM 18/03 A2997 RMK SLP154 T01830030 57044 IEM_DS3505
ZGKL,2006-01-28 07:00,ZGKL 280700Z AUTO 18004KT 20/04 A2994 RMK SLP138 T02000040 IEM_DS3505
ZGKL,2006-01-28 08:00,ZGKL 280800Z AUTO 16004KT 21/05 A2991 RMK SLP127 T02100050 IEM_DS3505
ZGKL,2006-01-28 09:00,ZGKL 280900Z AUTO 10002KT 6SM 21/06 A2991 RMK SLP136 T02100062 57017 IEM_DS3505
ZGKL,2006-01-28 10:00,ZGKL 281000Z AUTO 34002KT 19/09 A2991 RMK SLP129 T01900090 IEM_DS3505
ZGKL,2006-01-28 11:00,ZGKL 281100Z AUTO 31004KT 4SM 16/11 A2994 RMK SLP141 T01600110 IEM_DS3505
ZGKL,2006-01-28 12:00,ZGKL 281200Z AUTO 04002KT 6SM 14/07 A2994 RMK SLP152 T01380071 52013 IEM_DS3505
ZGKL,2006-01-28 13:00,ZGKL 281300Z AUTO 31002KT 2 1/2SM 11/09 A2997 RMK SLP153 T01100090 IEM_DS3505
ZGKL,2006-01-28 14:00,ZGKL 281400Z AUTO 33002KT 2SM 10/09 A2997 RMK SLP154 T01000090 IEM_DS3505
ZGKL,2006-01-28 15:00,ZGKL 281500Z AUTO 36002KT 6SM 12/07 A2997 RMK SLP160 T01150068 52010 IEM_DS3505
ZGKL,2006-01-28 16:00,ZGKL 281600Z AUTO 00000KT 09/07 A3000 RMK T00900070 IEM_DS3505
ZGKL,2006-01-28 17:00,ZGKL 281700Z AUTO 00000KT 08/06 A3000 RMK T00800060 IEM_DS3505
ZGKL,2006-01-28 18:00,ZGKL 281800Z AUTO 00000KT 6SM 10/07 A3001 RMK SLP166 T00960067 52007 IEM_DS3505
ZGKL,2006-01-28 20:00,ZGKL 282000Z AUTO 00000KT 1SM 06/05 A3000 RMK SLP167 T00600050 IEM_DS3505
ZGKL,2006-01-28 21:00,ZGKL 282100Z AUTO 36002KT 5SM 08/06 A3000 RMK SLP169 T00810062 52003 IEM_DS3505
ZGKL,2006-01-28 22:00,ZGKL 282200Z AUTO 00000KT 1SM 06/04 A3003 RMK SLP178 T00600040 IEM_DS3505
ZGKL,2006-01-28 23:00,ZGKL 282300Z AUTO 17002KT 1SM 05/04 A3003 RMK SLP178 T00500040 IEM_DS3505
ZGKL,2006-01-29 00:00,ZGKL 290000Z AUTO 04002KT 4SM 07/06 A3006 RMK SLP190 T00740060 52018 IEM_DS3505
ZGKL,2006-01-29 01:00,ZGKL 290100Z AUTO 00000KT 1SM 07/06 A3006 RMK SLP188 T00700060 IEM_DS3505
ZGKL,2006-01-29 02:00,ZGKL 290200Z AUTO 18002KT 1SM 10/08 A3009 RMK SLP196 T01000080 IEM_DS3505
ZGKL,2006-01-29 04:00,ZGKL 290400Z AUTO 29002KT 2SM 15/09 A3006 RMK SLP182 T01500090 IEM_DS3505
ZGKL,2006-01-29 05:00,ZGKL 290500Z AUTO 26002KT 2SM 18/09 A3003 RMK SLP169 T01800090 IEM_DS3505
ZGKL,2006-01-29 06:00,ZGKL 290600Z AUTO 25004KT 4SM 21/11 A2997 RMK SLP155 T02100113 57038 IEM_DS3505
ZGKL,2006-01-29 07:00,ZGKL 290700Z AUTO 28002KT 5SM 22/12 A2994 RMK SLP137 T02200120 IEM_DS3505
ZGKL,2006-01-29 08:00,ZGKL 290800Z AUTO 29004KT 5SM 22/13 A2991 RMK SLP127 T02200130 IEM_DS3505
ZGKL,2006-01-29 09:00,ZGKL 290900Z AUTO 11002KT 4SM 22/12 A2991 RMK SLP137 T02210118 57018 IEM_DS3505
ZGKL,2006-01-29 10:00,ZGKL 291000Z AUTO 07004KT 6SM 21/12 A2994 RMK SLP137 T02100120 IEM_DS3505
ZGKL,2006-01-29 11:00,ZGKL 291100Z AUTO 00000KT 6SM 18/13 A2994 RMK SLP139 T01800130 IEM_DS3505
ZGKL,2006-01-29 12:00,ZGKL 291200Z AUTO 34002KT 6SM 15/12 A2994 RMK SLP149 T01540118 52009 IEM_DS3505
ZGKL,2006-01-29 13:00,ZGKL 291300Z AUTO 00000KT 2 1/2SM 14/12 A2997 RMK SLP151 T01400120 IEM_DS3505
ZGKL,2006-01-29 14:00,ZGKL 291400Z AUTO 00000KT 2SM 13/11 A2997 RMK SLP152 T01300110 IEM_DS3505
ZGKL,2006-01-29 15:00,ZGKL 291500Z AUTO 00000KT 6SM 13/11 A2997 RMK SLP160 T01290113 52013 IEM_DS3505
ZGKL,2006-01-29 16:00,ZGKL 291600Z AUTO 00000KT 1 1/4SM 11/10 A3000 RMK SLP164 T01100100 IEM_DS3505
ZGKL,2006-01-29 17:00,ZGKL 291700Z AUTO 00000KT 1 1/4SM 10/09 A3000 RMK SLP164 T01000090 IEM_DS3505
ZGKL,2006-01-29 18:00,ZGKL 291800Z AUTO 11002KT 4SM 12/11 A3003 RMK SLP170 T01240111 52012 IEM_DS3505
ZGKL,2006-01-29 21:00,ZGKL 292100Z AUTO 34002KT 4SM 12/11 A3003 RMK SLP171 T01240110 52001 IEM_DS3505
ZGKL,2006-01-29 22:00,ZGKL 292200Z AUTO 01002KT 2 1/2SM 12/11 A3003 RMK SLP173 T01200110 IEM_DS3505
ZGKL,2006-01-29 23:00,ZGKL 292300Z AUTO 35002KT 2 1/2SM 12/11 A3006 RMK SLP184 T01200110 IEM_DS3505
ZGKL,2006-01-30 00:00,ZGKL 300000Z AUTO 09004KT 4SM 13/11 A3009 RMK SLP195 T01320114 52021 IEM_DS3505
ZGKL,2006-01-30 01:00,ZGKL 300100Z AUTO 00000KT 2 1/2SM 13/12 A3009 RMK SLP194 T01300120 IEM_DS3505
ZGKL,2006-01-30 02:00,ZGKL 300200Z AUTO 00000KT 2 1/2SM 16/13 A3012 RMK SLP202 T01600130 IEM_DS3505
ZGKL,2006-01-30 03:00,ZGKL 300300Z AUTO 02002KT 6SM 17/13 A3015 RMK SLP210 T01700127 52016 IEM_DS3505
ZGKL,2006-01-30 04:00,ZGKL 300400Z AUTO 35002KT 3SM 18/14 A3012 RMK SLP201 T01800140 IEM_DS3505
ZGKL,2006-01-30 05:00,ZGKL 300500Z AUTO 36002KT 3SM 20/14 A3009 RMK SLP189 T02000140 IEM_DS3505
ZGKL,2006-01-30 06:00,ZGKL 300600Z AUTO 16002KT 6SM 21/14 A3006 RMK SLP186 T02120136 57023 IEM_DS3505
ZGKL,2006-01-30 07:00,ZGKL 300700Z AUTO 33004KT 21/15 A3006 RMK SLP178 T02100150 IEM_DS3505
ZGKL,2006-01-30 08:00,ZGKL 300800Z AUTO 33004KT 4SM 20/15 A3006 RMK T02000150 IEM_DS3505
ZGKL,2006-01-30 09:00,ZGKL 300900Z AUTO 02002KT 7SM 21/14 A3006 RMK SLP184 T02090143 57002 IEM_DS3505
ZGKL,2006-01-30 10:00,ZGKL 301000Z AUTO 35006KT 4SM 19/15 A3009 RMK SLP190 T01900150 IEM_DS3505
ZGKL,2006-01-30 11:00,ZGKL 301100Z AUTO 33002KT 4SM 18/15 A3009 RMK SLP190 T01800150 IEM_DS3505
ZGKL,2006-01-30 12:00,ZGKL 301200Z AUTO 02008KT 7SM 16/11 A3012 RMK SLP208 T01610113 52022 IEM_DS3505
ZGKL,2006-01-30 13:00,ZGKL 301300Z AUTO 06010KT 2SM 17/12 A3015 RMK SLP212 T01700120 IEM_DS3505
ZGKL,2006-01-30 14:00,ZGKL 301400Z AUTO 06004KT 2SM 16/11 A3015 RMK SLP212 T01600110 IEM_DS3505
ZGKL,2006-01-30 15:00,ZGKL 301500Z AUTO 02010KT 7SM 14/09 A3015 RMK SLP221 T01390093 52014 IEM_DS3505
ZGKL,2006-01-30 16:00,ZGKL 301600Z AUTO 04008KT 2SM 14/10 A3018 RMK SLP223 T01400100 IEM_DS3505
ZGKL,2006-01-30 17:00,ZGKL 301700Z AUTO 05006KT 2SM 13/09 A3021 RMK SLP234 T01300090 IEM_DS3505
ZGKL,2006-01-30 18:00,ZGKL 301800Z AUTO 02006KT 6SM 12/08 A3021 RMK 60001 SLP237 T01180085 52016 IEM_DS3505
ZGKL,2006-01-30 19:00,ZGKL 301900Z AUTO 06006KT 2SM 12/09 A3021 RMK SLP234 T01200090 IEM_DS3505
ZGKL,2006-01-30 20:00,ZGKL 302000Z AUTO 06006KT 2SM 12/09 A3021 RMK SLP234 T01200090 IEM_DS3505
ZGKL,2006-01-30 21:00,ZGKL 302100Z AUTO 02008KT 7SM 10/07 A3021 RMK 70001 SLP238 T01030068 52001 IEM_DS3505
ZGKL,2006-01-30 22:00,ZGKL 302200Z AUTO 05006KT 2 1/2SM 11/08 A3024 RMK SLP245 T01100080 IEM_DS3505
ZGKL,2006-01-30 23:00,ZGKL 302300Z AUTO 05004KT 2SM 11/07 A3024 RMK SLP245 T01100070 IEM_DS3505
ZGKL,2006-01-31 00:00,ZGKL 310000Z AUTO 02008KT 4SM 10/06 A3027 RMK 70001 SLP260 T00980062 52019 IEM_DS3505
ZGKL,2006-01-31 01:00,ZGKL 310100Z AUTO 05006KT 2 1/2SM 10/07 A3030 RMK SLP267 T01000070 IEM_DS3505
ZGKL,2006-01-31 02:00,ZGKL 310200Z AUTO 04006KT 2 1/2SM 11/07 A3030 RMK SLP267 T01100070 IEM_DS3505
ZGKL,2006-01-31 03:00,ZGKL 310300Z AUTO 07006KT 4SM 11/06 A3030 RMK SLP269 T01090065 52009 IEM_DS3505
ZGKL,2006-01-31 04:00,ZGKL 310400Z AUTO 07004KT 3SM 12/07 A3027 RMK SLP256 T01200070 IEM_DS3505
ZGKL,2006-01-31 05:00,ZGKL 310500Z AUTO 05006KT 3SM 13/07 A3024 RMK SLP244 T01300070 IEM_DS3505
ZGKL,2006-01-31 06:00,ZGKL 310600Z AUTO 02006KT 4SM 13/07 A3021 RMK 60002 SLP236 T01310067 57033 IEM_DS3505
ZGKL,2006-01-31 07:00,ZGKL 310700Z AUTO 07004KT 3SM 15/08 A3018 RMK SLP222 T01500080 IEM_DS3505
ZGKL,2006-01-31 08:00,ZGKL 310800Z AUTO 36002KT 3SM 16/08 A3018 RMK SLP221 T01600080 IEM_DS3505
ZGKL,2006-01-31 09:00,ZGKL 310900Z AUTO 02008KT 4SM 15/08 A3021 RMK SLP239 T01510076 52004 IEM_DS3505
ZGKL,2006-01-31 10:00,ZGKL 311000Z AUTO 02008KT 3SM 15/08 A3021 RMK SLP232 T01500080 IEM_DS3505
ZGKL,2006-01-31 11:00,ZGKL 311100Z AUTO 06012KT 3SM 14/08 A3024 RMK SLP243 T01400080 IEM_DS3505
ZGKL,2006-01-31 12:00,ZGKL 311200Z AUTO 36004KT 4SM 12/07 A3024 RMK SLP252 T01210072 52011 IEM_DS3505
ZGKL,2006-01-31 13:00,ZGKL 311300Z AUTO 04006KT 3SM 12/07 A3027 RMK SLP256 T01200070 IEM_DS3505
ZGKL,2006-01-31 14:00,ZGKL 311400Z AUTO 06002KT 3SM 12/08 A3024 RMK SLP245 T01200080 IEM_DS3505
ZGKL,2006-01-31 15:00,ZGKL 311500Z AUTO 02006KT 4SM 11/06 A3027 RMK SLP260 T01070065 52008 IEM_DS3505
ZGKL,2006-01-31 16:00,ZGKL 311600Z AUTO 03006KT 2 1/2SM 11/07 A3027 RMK SLP257 T01100070 IEM_DS3505
ZGKL,2006-01-31 18:00,ZGKL 311800Z AUTO 02006KT 4SM 09/06 A3027 RMK SLP256 T00930062 57004 IEM_DS3505
ZGKL,2006-01-31 21:00,ZGKL 312100Z AUTO 02006KT 4SM 10/07 A3027 RMK 70002 SLP258 T00970066 52003 IEM_DS3505
ZGKL,2006-01-31 22:00,ZGKL 312200Z AUTO 36004KT 2 1/2SM 10/07 A3027 RMK SLP257 T01000070 IEM_DS3505
ZGKL,2006-01-31 23:00,ZGKL 312300Z AUTO 36002KT 2 1/2SM 10/07 A3030 RMK SLP267 T01000070 IEM_DS3505
ZGKL,2006-02-01 00:00,ZGKL 010000Z AUTO 36006KT 4SM 09/06 A3030 RMK 70002 SLP273 T00930060 52013 IEM_DS3505
ZGKL,2006-02-01 01:00,ZGKL 010100Z AUTO 04004KT 2SM 10/07 A3033 RMK T01000070 IEM_DS3505
ZGKL,2006-02-01 02:00,ZGKL 010200Z AUTO 05006KT 2SM 11/07 A3033 RMK T01100070 IEM_DS3505
ZGKL,2006-02-01 03:00,ZGKL 010300Z AUTO 09008KT 4SM 12/06 A3033 RMK SLP277 T01190062 52005 IEM_DS3505
ZGKL,2006-02-01 04:00,ZGKL 010400Z AUTO 07006KT 3SM 13/07 A3030 RMK T01300070 IEM_DS3505
ZGKL,2006-02-01 05:00,ZGKL 010500Z AUTO 04006KT 2 1/2SM 14/07 A3024 RMK T01400070 IEM_DS3505
ZGKL,2006-02-01 06:00,ZGKL 010600Z AUTO 36004KT 4SM 16/07 A3018 RMK SLP232 T01580068 57043 IEM_DS3505
ZGKL,2006-02-01 07:00,ZGKL 010700Z AUTO 10006KT 16/08 A3015 RMK T01600080 IEM_DS3505
ZGKL,2006-02-01 08:00,ZGKL 010800Z AUTO 06006KT 16/08 A3012 RMK T01600080 IEM_DS3505
ZGKL,2006-02-01 09:00,ZGKL 010900Z AUTO 02004KT 5SM 16/07 A3012 RMK SLP202 T01580073 57030 IEM_DS3505
ZGKL,2006-02-01 10:00,ZGKL 011000Z AUTO 16002KT 4SM 15/09 A3012 RMK T01500090 IEM_DS3505
ZGKL,2006-02-01 11:00,ZGKL 011100Z AUTO 00000KT 3SM 15/10 A3012 RMK T01500100 IEM_DS3505
ZGKL,2006-02-01 12:00,ZGKL 011200Z AUTO 02004KT 5SM 14/08 A3012 RMK SLP208 T01400078 52005 IEM_DS3505
ZGKL,2006-02-01 13:00,ZGKL 011300Z AUTO 03004KT 3SM 15/09 A3012 RMK T01500090 IEM_DS3505
ZGKL,2006-02-01 14:00,ZGKL 011400Z AUTO 01004KT 3SM 14/09 A3012 RMK T01400090 IEM_DS3505
ZGKL,2006-02-01 15:00,ZGKL 011500Z AUTO 36002KT 5SM 13/08 A3012 RMK SLP207 T01330080 54000 IEM_DS3505
ZGKL,2006-02-01 16:00,ZGKL 011600Z AUTO 02004KT 2 1/2SM 14/09 A3012 RMK T01400090 IEM_DS3505
ZGKL,2006-02-01 17:00,ZGKL 011700Z AUTO 03004KT 13/09 A3012 RMK T01300090 IEM_DS3505
ZGKL,2006-02-01 18:00,ZGKL 011800Z AUTO 34004KT 5SM 13/08 A3012 RMK SLP204 T01290078 57002 IEM_DS3505
ZGKL,2006-02-01 19:00,ZGKL 011900Z AUTO 36004KT 13/08 A3012 RMK T01300080 IEM_DS3505
ZGKL,2006-02-01 20:00,ZGKL 012000Z AUTO 34004KT 13/09 A3012 RMK T01300090 IEM_DS3505
ZGKL,2006-02-01 21:00,ZGKL 012100Z AUTO 02004KT 5SM 12/08 RMK SLP201 T01220075 57003 IEM_DS3505
ZGKL,2006-02-01 23:00,ZGKL 012300Z AUTO 03004KT 3SM 13/08 A3012 RMK T01300080 IEM_DS3505
ZGKL,2006-02-02 00:00,ZGKL 020000Z AUTO 36004KT 3SM 12/08 A3015 RMK 60000 70000 SLP218 T01160079 52016 IEM_DS3505
ZGKL,2006-02-02 01:00,ZGKL 020100Z AUTO 05004KT 2SM 12/09 A3015 RMK T01200090 IEM_DS3505
ZGKL,2006-02-02 02:00,ZGKL 020200Z AUTO 06004KT 2SM 12/09 A3018 RMK T01200090 IEM_DS3505
ZGKL,2006-02-02 03:00,ZGKL 020300Z AUTO 36004KT 3SM 12/08 A3018 RMK SLP231 T01180083 52013 IEM_DS3505
ZGKL,2006-02-02 04:00,ZGKL 020400Z AUTO 03002KT 2SM 13/09 A3018 RMK T01300090 IEM_DS3505
ZGKL,2006-02-02 05:00,ZGKL 020500Z AUTO 35002KT 2SM 13/09 A3015 RMK T01300090 IEM_DS3505
ZGKL,2006-02-02 06:00,ZGKL 020600Z AUTO 02006KT 2SM 11/09 A3012 RMK 60000 SLP212 T01100091 57019 IEM_DS3505
ZGKL,2006-02-02 07:00,ZGKL 020700Z AUTO 34002KT 2SM 13/10 A3012 RMK T01300100 IEM_DS3505
ZGKL,2006-02-02 08:00,ZGKL 020800Z AUTO 32002KT 2SM 13/10 A3012 RMK T01300100 IEM_DS3505
ZGKL,2006-02-02 09:00,ZGKL 020900Z AUTO 02004KT 2SM 11/10 A3012 RMK SLP210 T01140095 57003 IEM_DS3505
ZGKL,2006-02-02 10:00,ZGKL 021000Z AUTO 06002KT 2SM 12/10 A3015 RMK T01200100 IEM_DS3505
ZGKL,2006-02-02 11:00,ZGKL 021100Z AUTO 06002KT 1 1/4SM 12/10 A3015 RMK T01200100 IEM_DS3505
ZGKL,2006-02-02 12:00,ZGKL 021200Z AUTO 02004KT 2SM 11/10 A3018 RMK 60004 SLP230 T01100099 52020 IEM_DS3505
ZGKL,2006-02-02 13:00,ZGKL 021300Z AUTO 05006KT 1SM 11/11 A3021 RMK T01100110 IEM_DS3505
ZGKL,2006-02-02 14:00,ZGKL 021400Z AUTO 03008KT 1 1/4SM 11/10 A3021 RMK T01100100 IEM_DS3505
ZGKL,2006-02-02 15:00,ZGKL 021500Z AUTO 36006KT 2SM 11/10 A3024 RMK SLP245 T01140095 52015 IEM_DS3505
ZGKL,2006-02-02 16:00,ZGKL 021600Z AUTO 04004KT 2 1/2SM 11/10 A3024 RMK T01100100 IEM_DS3505
ZGKL,2006-02-02 17:00,ZGKL 021700Z AUTO 03004KT 2 1/2SM 11/10 A3024 RMK T01100100 IEM_DS3505
ZGKL,2006-02-02 18:00,ZGKL 021800Z AUTO 02008KT 2SM 10/08 A3027 RMK 60008 SLP261 T01020080 52015 IEM_DS3505
ZGKL,2006-02-02 19:00,ZGKL 021900Z AUTO 03004KT 10/09 A3030 RMK T01000090 IEM_DS3505
ZGKL,2006-02-02 20:00,ZGKL 022000Z AUTO 07004KT 10/09 A3030 RMK T01000090 IEM_DS3505
ZGKL,2006-02-02 21:00,ZGKL 022100Z AUTO 02010KT 2SM 08/06 A3030 RMK 70013 SLP272 T00810062 52010 IEM_DS3505
ZGKL,2006-02-02 22:00,ZGKL 022200Z AUTO 06004KT 7SM 08/07 A3033 RMK T00800070 IEM_DS3505
ZGKL,2006-02-02 23:00,ZGKL 022300Z AUTO 05006KT 7SM 08/07 A3036 RMK T00800070 IEM_DS3505
ZGKL,2006-02-03 00:00,ZGKL 030000Z AUTO 02010KT 9SM 08/05 A3039 RMK 60002 70013 SLP299 T00810050 52026 IEM_DS3505
ZGKL,2006-02-03 01:00,ZGKL 030100Z AUTO 05004KT 7SM 08/06 A3042 RMK T00800060 IEM_DS3505
ZGKL,2006-02-03 02:00,ZGKL 030200Z AUTO 05004KT 5SM 08/06 A3045 RMK T00800060 IEM_DS3505
ZGKL,2006-02-03 03:00,ZGKL 030300Z AUTO 02008KT 12SM 08/04 A3045 RMK SLP324 T00800044 52025 IEM_DS3505
ZGKL,2006-02-03 04:00,ZGKL 030400Z AUTO 03004KT 5SM 08/06 A3045 RMK T00800060 IEM_DS3505
ZGKL,2006-02-03 05:00,ZGKL 030500Z AUTO 05006KT 5SM 08/05 A3045 RMK T00800050 IEM_DS3505
ZGKL,2006-02-03 06:00,ZGKL 030600Z AUTO 36010KT 11SM 07/04 A3042 RMK 60000 SLP310 T00730039 57015 IEM_DS3505
ZGKL,2006-02-03 07:00,ZGKL 030700Z AUTO 06008KT 4SM 07/05 A3039 RMK T00700050 IEM_DS3505
ZGKL,2006-02-03 08:00,ZGKL 030800Z AUTO 05008KT 4SM 07/05 A3042 RMK T00700050 IEM_DS3505
ZGKL,2006-02-03 09:00,ZGKL 030900Z AUTO 02010KT 10SM 06/03 A3042 RMK SLP318 T00640032 52007 IEM_DS3505
ZGKL,2006-02-03 10:00,ZGKL 031000Z AUTO 05008KT 3SM 06/05 A3045 RMK T00600050 IEM_DS3505
ZGKL,2006-02-03 11:00,ZGKL 031100Z AUTO 04008KT 3SM 06/04 A3045 RMK T00600040 IEM_DS3505
ZGKL,2006-02-03 12:00,ZGKL 031200Z AUTO 02010KT 9SM 06/03 A3047 RMK 60000 SLP337 T00600026 52019 IEM_DS3505
ZGKL,2006-02-03 13:00,ZGKL 031300Z AUTO 04006KT 3SM 06/04 A3050 RMK T00600040 IEM_DS3505
ZGKL,2006-02-03 14:00,ZGKL 031400Z AUTO 04004KT 3SM 06/04 A3050 RMK T00600040 IEM_DS3505
ZGKL,2006-02-03 15:00,ZGKL 031500Z AUTO 02012KT 9SM 06/02 A3050 RMK SLP350 T00590022 52012 IEM_DS3505
ZGKL,2006-02-03 16:00,ZGKL 031600Z AUTO 06004KT 2 1/2SM 06/03 A3050 RMK T00600030 IEM_DS3505
ZGKL,2006-02-03 17:00,ZGKL 031700Z AUTO 05006KT 2 1/2SM 06/03 A3050 RMK T00600030 IEM_DS3505
ZGKL,2006-02-03 18:00,ZGKL 031800Z AUTO 02010KT 9SM 06/02 A3050 RMK SLP344 T00570016 57006 IEM_DS3505
ZGKL,2006-02-03 19:00,ZGKL 031900Z AUTO 06006KT 3SM 06/03 A3050 RMK T00600030 IEM_DS3505
ZGKL,2006-02-03 20:00,ZGKL 032000Z AUTO 05006KT 3SM 06/03 A3047 RMK T00600030 IEM_DS3505
ZGKL,2006-02-03 21:00,ZGKL 032100Z AUTO 02008KT 8SM 05/02 A3047 RMK 70001 SLP337 T00490021 57007 IEM_DS3505
ZGKL,2006-02-03 22:00,ZGKL 032200Z AUTO 06006KT 2 1/2SM 05/03 A3047 RMK T00500030 IEM_DS3505
ZGKL,2006-02-03 23:00,ZGKL 032300Z AUTO 06006KT 4SM 05/03 A3047 RMK T00500030 IEM_DS3505
ZGKL,2006-02-04 00:00,ZGKL 040000Z AUTO 02010KT 9SM 05/02 A3050 RMK 60000 70000 SLP342 T00510016 52004 IEM_DS3505
ZGKL,2006-02-04 01:00,ZGKL 040100Z AUTO 05006KT 7SM 05/02 A3050 RMK T00500020 IEM_DS3505
ZGKL,2006-02-04 02:00,ZGKL 040200Z AUTO 06004KT 7SM 06/03 A3053 RMK T00600030 IEM_DS3505
ZGKL,2006-02-04 03:00,ZGKL 040300Z AUTO 02006KT 11SM 06/02 A3053 RMK SLP352 T00600015 52010 IEM_DS3505
ZGKL,2006-02-04 04:00,ZGKL 040400Z AUTO 04004KT 7SM 06/03 A3047 RMK T00600030 IEM_DS3505
ZGKL,2006-02-04 05:00,ZGKL 040500Z AUTO 04006KT 7SM 07/03 A3045 RMK T00700030 IEM_DS3505
ZGKL,2006-02-04 06:00,ZGKL 040600Z AUTO 02006KT 11SM 06/01 A3042 RMK SLP314 T00630014 57037 IEM_DS3505
ZGKL,2006-02-04 07:00,ZGKL 040700Z AUTO 08006KT 5SM 06/03 A3039 RMK T00600030 IEM_DS3505
ZGKL,2006-02-04 08:00,ZGKL 040800Z AUTO 06006KT 5SM 06/03 A3036 RMK T00600030 IEM_DS3505
ZGKL,2006-02-04 09:00,ZGKL 040900Z AUTO 04004KT 10SM 06/02 A3036 RMK SLP293 T00620021 57021 IEM_DS3505
ZGKL,2006-02-04 10:00,ZGKL 041000Z AUTO 06006KT 4SM 06/03 A3036 RMK T00600030 IEM_DS3505
ZGKL,2006-02-04 11:00,ZGKL 041100Z AUTO 07006KT 4SM 06/02 A3036 RMK T00600020 IEM_DS3505
ZGKL,2006-02-04 13:00,ZGKL 041300Z AUTO 05010KT 4SM 06/02 A3039 RMK T00600020 IEM_DS3505
ZGKL,2006-02-04 14:00,ZGKL 041400Z AUTO 06006KT 4SM 06/03 A3039 RMK T00600030 IEM_DS3505
ZGKL,2006-02-04 15:00,ZGKL 041500Z AUTO 02004KT 9SM 05/02 A3039 RMK SLP303 T00520020 52001 IEM_DS3505
ZGKL,2006-02-04 16:00,ZGKL 041600Z AUTO 04008KT 4SM 06/02 A3039 RMK T00600020 IEM_DS3505
ZGKL,2006-02-04 17:00,ZGKL 041700Z AUTO 07006KT 4SM 05/03 A3036 RMK T00500030 IEM_DS3505
ZGKL,2006-02-04 18:00,ZGKL 041800Z AUTO 04004KT 6SM 04/03 A3036 RMK 60000 SLP295 T00410032 57008 IEM_DS3505
ZGKL,2006-02-04 21:00,ZGKL 042100Z AUTO 36004KT 5SM 04/03 A3033 RMK 70002 SLP279 T00390030 57016 IEM_DS3505
ZGKL,2006-02-04 23:00,ZGKL 042300Z AUTO 03004KT 2 1/2SM 04/03 A3033 RMK T00400030 IEM_DS3505
ZGKL,2006-02-05 00:00,ZGKL 050000Z AUTO 02004KT 6SM 04/03 A3033 RMK 60002 70002 SLP289 T00420027 52010 IEM_DS3505
ZGKL,2006-02-05 01:00,ZGKL 050100Z AUTO 05002KT 2SM 04/04 A3036 RMK T00400040 IEM_DS3505
ZGKL,2006-02-05 02:00,ZGKL 050200Z AUTO 05004KT 1 1/2SM 05/04 A3036 RMK T00500040 IEM_DS3505
ZGKL,2006-02-05 03:00,ZGKL 050300Z AUTO 36004KT 4SM 05/04 A3036 RMK SLP295 T00480035 52006 IEM_DS3505
ZGKL,2006-02-05 04:00,ZGKL 050400Z AUTO 00000KT 1 1/2SM 05/04 A3033 RMK T00500040 IEM_DS3505
ZGKL,2006-02-05 05:00,ZGKL 050500Z AUTO 10002KT 2 1/2SM 05/04 A3030 RMK T00500040 IEM_DS3505
ZGKL,2006-02-05 06:00,ZGKL 050600Z AUTO 34002KT 3SM 06/04 A3027 RMK 60003 SLP264 T00550045 57031 IEM_DS3505
ZGKL,2006-02-05 07:00,ZGKL 050700Z AUTO 00000KT 3SM 06/05 A3024 RMK T00600050 IEM_DS3505
ZGKL,2006-02-05 08:00,ZGKL 050800Z AUTO 14002KT 4SM 06/05 A3024 RMK T00600050 IEM_DS3505
ZGKL,2006-02-05 09:00,ZGKL 050900Z AUTO 36004KT 3SM 06/04 A3021 RMK SLP247 T00550045 57016 IEM_DS3505
ZGKL,2006-02-05 10:00,ZGKL 051000Z AUTO 36002KT 2 1/2SM 06/05 A3024 RMK T00600050 IEM_DS3505
ZGKL,2006-02-05 11:00,ZGKL 051100Z AUTO 36002KT 2SM 06/05 A3024 RMK T00600050 IEM_DS3505
ZGKL,2006-02-05 12:00,ZGKL 051200Z AUTO 02004KT 3SM 05/05 A3027 RMK 60004 SLP261 T00520046 52013 IEM_DS3505
ZGKL,2006-02-05 13:00,ZGKL 051300Z AUTO 06006KT 2SM 06/05 A3027 RMK T00600050 IEM_DS3505
ZGKL,2006-02-05 14:00,ZGKL 051400Z AUTO 05006KT 2 1/2SM 06/05 A3027 RMK T00600050 IEM_DS3505
ZGKL,2006-02-05 15:00,ZGKL 051500Z AUTO 02008KT 5SM 05/03 A3027 RMK SLP259 T00530033 57001 IEM_DS3505
ZGKL,2006-02-05 16:00,ZGKL 051600Z AUTO 34002KT 2SM 06/05 A3024 RMK T00600050 IEM_DS3505
ZGKL,2006-02-05 17:00,ZGKL 051700Z AUTO 16002KT 2SM 06/05 A3024 RMK T00600050 IEM_DS3505
ZGKL,2006-02-05 18:00,ZGKL 051800Z AUTO 04002KT 5SM 06/04 A3021 RMK 60008 SLP248 T00560041 57011 IEM_DS3505
ZGKL,2006-02-05 19:00,ZGKL 051900Z AUTO 06008KT 06/04 A3021 RMK T00600040 IEM_DS3505
ZGKL,2006-02-05 20:00,ZGKL 052000Z AUTO 01002KT 05/04 A3021 RMK T00500040 IEM_DS3505
ZGKL,2006-02-05 21:00,ZGKL 052100Z AUTO 36004KT 4SM 05/04 A3018 RMK 70016 SLP235 T00510041 57013 IEM_DS3505
ZGKL,2006-02-05 22:00,ZGKL 052200Z AUTO 05006KT 3SM 06/04 A3018 RMK T00600040 IEM_DS3505
ZGKL,2006-02-05 23:00,ZGKL 052300Z AUTO 06002KT 2SM 05/04 A3018 RMK T00500040 IEM_DS3505
ZGKL,2006-02-06 00:00,ZGKL 060000Z AUTO 02002KT 4SM 05/04 A3021 RMK 60004 70017 SLP245 T00510044 52010 IEM_DS3505
ZGKL,2006-02-06 01:00,ZGKL 060100Z AUTO 33002KT 1 1/4SM 06/05 A3024 RMK T00600050 IEM_DS3505
ZGKL,2006-02-06 02:00,ZGKL 060200Z AUTO 05002KT 1 1/4SM 06/05 A3024 RMK T00600050 IEM_DS3505
ZGKL,2006-02-06 03:00,ZGKL 060300Z AUTO 36004KT 4SM 06/05 A3024 RMK SLP254 T00610051 52009 IEM_DS3505
ZGKL,2006-02-06 04:00,ZGKL 060400Z AUTO 04004KT 1 1/2SM 06/05 A3024 RMK T00600050 IEM_DS3505
ZGKL,2006-02-06 05:00,ZGKL 060500Z AUTO 05004KT 1 1/4SM 07/06 A3024 RMK T00700060 IEM_DS3505
ZGKL,2006-02-06 06:00,ZGKL 060600Z AUTO 34004KT 4SM 07/06 A3018 RMK 60003 SLP236 T00720061 57017 IEM_DS3505
ZGKL,2006-02-06 07:00,ZGKL 060700Z AUTO 10002KT 1SM 07/06 A3018 RMK T00700060 IEM_DS3505
ZGKL,2006-02-06 08:00,ZGKL 060800Z AUTO 07002KT 1SM 07/06 A3018 RMK T00700060 IEM_DS3505
ZGKL,2006-02-06 09:00,ZGKL 060900Z AUTO 02004KT 4SM 07/06 A3018 RMK SLP238 T00690058 52002 IEM_DS3505
ZGKL,2006-02-06 10:00,ZGKL 061000Z AUTO 06004KT 1 1/4SM 07/06 A3021 RMK T00700060 IEM_DS3505
ZGKL,2006-02-06 11:00,ZGKL 061100Z AUTO 06004KT 1SM 07/06 A3021 RMK T00700060 IEM_DS3505
ZGKL,2006-02-06 12:00,ZGKL 061200Z AUTO 04006KT 5SM 07/05 A3024 RMK 60002 SLP256 T00680048 52017 IEM_DS3505
ZGKL,2006-02-06 13:00,ZGKL 061300Z AUTO 08004KT 1SM 07/06 A3027 RMK T00700060 IEM_DS3505
ZGKL,2006-02-06 14:00,ZGKL 061400Z AUTO 06004KT 1 1/2SM 07/06 A3030 RMK T00700060 IEM_DS3505
ZGKL,2006-02-06 15:00,ZGKL 061500Z AUTO 02006KT 6SM 07/04 A3030 RMK SLP273 T00670045 52017 IEM_DS3505
ZGKL,2006-02-06 16:00,ZGKL 061600Z AUTO 06002KT 1 1/2SM 07/05 A3030 RMK T00700050 IEM_DS3505
ZGKL,2006-02-06 17:00,ZGKL 061700Z AUTO 05004KT 07/05 A3030 RMK T00700050 IEM_DS3505
ZGKL,2006-02-06 18:00,ZGKL 061800Z AUTO 02004KT 6SM 07/04 A3030 RMK 60000 SLP269 T00670042 57003 IEM_DS3505
ZGKL,2006-02-06 19:00,ZGKL 061900Z AUTO 04002KT 07/05 A3027 RMK T00700050 IEM_DS3505
ZGKL,2006-02-06 20:00,ZGKL 062000Z AUTO 03004KT 07/05 A3027 RMK T00700050 IEM_DS3505
ZGKL,2006-02-06 21:00,ZGKL 062100Z AUTO 02004KT 6SM 07/04 A3027 RMK 70006 SLP257 T00700043 57012 IEM_DS3505
ZGKL,2006-02-06 22:00,ZGKL 062200Z AUTO 06002KT 2 1/2SM 07/05 A3027 RMK T00700050 IEM_DS3505
ZGKL,2006-02-06 23:00,ZGKL 062300Z AUTO 00000KT 3SM 07/05 A3027 RMK T00700050 IEM_DS3505
ZGKL,2006-02-07 00:00,ZGKL 070000Z AUTO 34002KT 9SM 07/04 A3030 RMK 70004 SLP271 T00720043 52014 IEM_DS3505
ZGKL,2006-02-07 01:00,ZGKL 070100Z AUTO 00000KT 5SM 08/06 A3030 RMK T00800060 IEM_DS3505
ZGKL,2006-02-07 02:00,ZGKL 070200Z AUTO 32002KT 5SM 08/05 A3033 RMK T00800050 IEM_DS3505
ZGKL,2006-02-07 03:00,ZGKL 070300Z AUTO 34004KT 10SM 09/05 A3033 RMK SLP284 T00890051 52013 IEM_DS3505
ZGKL,2006-02-07 04:00,ZGKL 070400Z AUTO 03002KT 7SM 09/05 A3033 RMK T00900050 IEM_DS3505
ZGKL,2006-02-07 05:00,ZGKL 070500Z AUTO 07002KT 7SM 10/06 A3030 RMK T01000060 IEM_DS3505
ZGKL,2006-02-07 06:00,ZGKL 070600Z AUTO 02004KT 9SM 10/06 A3027 RMK SLP259 T00980060 57024 IEM_DS3505
ZGKL,2006-02-07 07:00,ZGKL 070700Z AUTO 04002KT 7SM 10/06 A3024 RMK T01000060 IEM_DS3505
ZGKL,2006-02-07 08:00,ZGKL 070800Z AUTO 06004KT 7SM 10/06 A3024 RMK T01000060 IEM_DS3505
ZGKL,2006-02-07 09:00,ZGKL 070900Z AUTO 02006KT 9SM 09/05 A3024 RMK SLP253 T00930053 57006 IEM_DS3505
ZGKL,2006-02-07 10:00,ZGKL 071000Z AUTO 00000KT 7SM 10/07 A3027 RMK T01000070 IEM_DS3505
ZGKL,2006-02-07 11:00,ZGKL 071100Z AUTO 07004KT 7SM 10/06 A3027 RMK T01000060 IEM_DS3505
ZGKL,2006-02-07 12:00,ZGKL 071200Z AUTO 02006KT 7SM 09/05 A3030 RMK SLP269 T00870054 52016 IEM_DS3505
ZGKL,2006-02-07 13:00,ZGKL 071300Z AUTO 07006KT 7SM 09/06 A3033 RMK T00900060 IEM_DS3505
ZGKL,2006-02-07 14:00,ZGKL 071400Z AUTO 07006KT 7SM 09/06 A3033 RMK T00900060 IEM_DS3505
ZGKL,2006-02-07 15:00,ZGKL 071500Z AUTO 02006KT 7SM 09/05 A3036 RMK SLP288 T00860050 52019 IEM_DS3505
ZGKL,2006-02-07 16:00,ZGKL 071600Z AUTO 04002KT 6SM 09/06 A3036 RMK T00900060 IEM_DS3505
ZGKL,2006-02-07 17:00,ZGKL 071700Z AUTO 04002KT 4SM 08/06 A3033 RMK T00800060 IEM_DS3505
ZGKL,2006-02-07 18:00,ZGKL 071800Z AUTO 04006KT 6SM 08/06 A3033 RMK 60000 SLP282 T00820057 57006 IEM_DS3505
ZGKL,2006-02-07 19:00,ZGKL 071900Z AUTO 00000KT 08/06 A3033 RMK T00800060 IEM_DS3505
ZGKL,2006-02-07 20:00,ZGKL 072000Z AUTO 01002KT 08/06 A3033 RMK T00800060 IEM_DS3505
ZGKL,2006-02-07 21:00,ZGKL 072100Z AUTO 04004KT 6SM 08/06 A3033 RMK 70001 SLP278 T00830059 57004 IEM_DS3505
ZGKL,2006-02-07 22:00,ZGKL 072200Z AUTO 02004KT 4SM 08/07 A3033 RMK T00800070 IEM_DS3505
ZGKL,2006-02-07 23:00,ZGKL 072300Z AUTO 05002KT 4SM 08/07 A3036 RMK T00800070 IEM_DS3505
ZGKL,2006-02-08 00:00,ZGKL 080000Z AUTO 02008KT 4SM 08/06 A3036 RMK 60000 70001 SLP297 T00820058 52018 IEM_DS3505
ZGKL,2006-02-08 01:00,ZGKL 080100Z AUTO 02002KT 2 1/2SM 09/07 A3039 RMK T00900070 IEM_DS3505
ZGKL,2006-02-08 02:00,ZGKL 080200Z AUTO 08004KT 2 1/2SM 09/07 A3042 RMK T00900070 IEM_DS3505
ZGKL,2006-02-08 03:00,ZGKL 080300Z AUTO 36004KT 5SM 09/06 A3042 RMK SLP313 T00900061 52016 IEM_DS3505
ZGKL,2006-02-08 04:00,ZGKL 080400Z AUTO 05002KT 3SM 09/07 A3042 RMK T00900070 IEM_DS3505
ZGKL,2006-02-08 05:00,ZGKL 080500Z AUTO 07002KT 2SM 09/07 A3039 RMK T00900070 IEM_DS3505
ZGKL,2006-02-08 06:00,ZGKL 080600Z AUTO 02008KT 5SM 09/06 A3036 RMK 60000 SLP293 T00860055 57020 IEM_DS3505
ZGKL,2006-02-08 07:00,ZGKL 080700Z AUTO 06004KT 2SM 09/07 A3036 RMK T00900070 IEM_DS3505
ZGKL,2006-02-08 08:00,ZGKL 080800Z AUTO 06004KT 1 1/2SM 09/07 A3036 RMK T00900070 IEM_DS3505
ZGKL,2006-02-08 09:00,ZGKL 080900Z AUTO 02006KT 6SM 08/05 A3036 RMK SLP295 T00810054 52002 IEM_DS3505
ZGKL,2006-02-08 10:00,ZGKL 081000Z AUTO 06004KT 1 1/4SM 08/07 A3039 RMK T00800070 IEM_DS3505
ZGKL,2006-02-08 11:00,ZGKL 081100Z AUTO 06004KT 1 1/4SM 08/06 A3039 RMK T00800060 IEM_DS3505
ZGKL,2006-02-08 12:00,ZGKL 081200Z AUTO 02012KT 4SM 07/04 A3042 RMK 60000 SLP315 T00740044 52020 IEM_DS3505
ZGKL,2006-02-08 13:00,ZGKL 081300Z AUTO 05006KT 2 1/2SM 08/05 A3045 RMK T00800050 IEM_DS3505
ZGKL,2006-02-08 14:00,ZGKL 081400Z AUTO 04006KT 3SM 07/05 A3050 RMK T00700050 IEM_DS3505
ZGKL,2006-02-08 15:00,ZGKL 081500Z AUTO 02010KT 5SM 07/03 A3050 RMK SLP344 T00730032 52028 IEM_DS3505
ZGKL,2006-02-08 16:00,ZGKL 081600Z AUTO 05004KT 07/04 A3050 RMK T00700040 IEM_DS3505
ZGKL,2006-02-08 17:00,ZGKL 081700Z AUTO 05006KT 07/04 A3050 RMK T00700040 IEM_DS3505
ZGKL,2006-02-08 18:00,ZGKL 081800Z AUTO 02010KT 4SM 06/03 A3050 RMK 60000 SLP342 T00650028 57002 IEM_DS3505
ZGKL,2006-02-08 19:00,ZGKL 081900Z AUTO 04008KT 07/04 A3050 RMK T00700040 IEM_DS3505
ZGKL,2006-02-08 20:00,ZGKL 082000Z AUTO 03004KT 07/04 A3047 RMK T00700040 IEM_DS3505
ZGKL,2006-02-08 21:00,ZGKL 082100Z AUTO 02012KT 6SM 06/02 A3047 RMK 70002 SLP334 T00590018 57008 IEM_DS3505
ZGKL,2006-02-08 22:00,ZGKL 082200Z AUTO 06006KT 3SM 06/03 A3047 RMK T00600030 IEM_DS3505
ZGKL,2006-02-08 23:00,ZGKL 082300Z AUTO 04006KT 1 1/2SM 06/03 A3050 RMK T00600030 IEM_DS3505
ZGKL,2006-02-09 00:00,ZGKL 090000Z AUTO 36008KT 8SM 05/02 A3050 RMK 60000 70001 SLP349 T00500017 52014 IEM_DS3505
ZGKL,2006-02-09 01:00,ZGKL 090100Z AUTO 04006KT 4SM 05/03 A3053 RMK T00500030 IEM_DS3505
ZGKL,2006-02-09 02:00,ZGKL 090200Z AUTO 06006KT 5SM 05/03 A3053 RMK T00500030 IEM_DS3505
ZGKL,2006-02-09 03:00,ZGKL 090300Z AUTO 02012KT 9SM 05/01 A3053 RMK SLP358 T00520011 52009 IEM_DS3505
ZGKL,2006-02-09 04:00,ZGKL 090400Z AUTO 05006KT 5SM 06/02 A3053 RMK T00600020 IEM_DS3505
ZGKL,2006-02-09 05:00,ZGKL 090500Z AUTO 06004KT 4SM 05/03 A3047 RMK T00500030 IEM_DS3505
ZGKL,2006-02-09 06:00,ZGKL 090600Z AUTO 02008KT 1SM 05/02 A3045 RMK 60000 SLP327 T00500018 57031 IEM_DS3505
ZGKL,2006-02-09 07:00,ZGKL 090700Z AUTO 04006KT 4SM 05/03 A3042 RMK T00500030 IEM_DS3505
ZGKL,2006-02-09 08:00,ZGKL 090800Z AUTO 06004KT 4SM 05/03 A3042 RMK T00500030 IEM_DS3505
ZGKL,2006-02-09 10:00,ZGKL 091000Z AUTO 06006KT 4SM 05/02 A3042 RMK T00500020 IEM_DS3505
ZGKL,2006-02-09 11:00,ZGKL 091100Z AUTO 05006KT 4SM 05/02 A3042 RMK T00500020 IEM_DS3505
ZGKL,2006-02-09 12:00,ZGKL 091200Z AUTO 02008KT 9SM 04/01 A3045 RMK 60000 SLP324 T00440014 52011 IEM_DS3505
ZGKL,2006-02-09 13:00,ZGKL 091300Z AUTO 04004KT 4SM 04/02 A3045 RMK T00400020 IEM_DS3505
ZGKL,2006-02-09 14:00,ZGKL 091400Z AUTO 05004KT 4SM 04/03 A3047 RMK T00400030 IEM_DS3505
ZGKL,2006-02-09 15:00,ZGKL 091500Z AUTO 04006KT 7SM 04/01 A3045 RMK SLP329 T00420012 52005 IEM_DS3505
ZGKL,2006-02-09 16:00,ZGKL 091600Z AUTO 01002KT 04/02 A3045 RMK T00400020 IEM_DS3505
ZGKL,2006-02-09 18:00,ZGKL 091800Z AUTO 02004KT 9SM 04/02 A3042 RMK 60000 SLP318 T00410016 57011 IEM_DS3505
ZGKL,2006-02-09 19:00,ZGKL 091900Z AUTO 03002KT 04/02 A3042 RMK T00400020 IEM_DS3505
ZGKL,2006-02-09 20:00,ZGKL 092000Z AUTO 00000KT 04/02 A3039 RMK T00400020 IEM_DS3505
ZGKL,2006-02-09 21:00,ZGKL 092100Z AUTO 36004KT 7SM 04/02 A3039 RMK 70000 SLP301 T00360016 57017 IEM_DS3505
ZGKL,2006-02-09 22:00,ZGKL 092200Z AUTO 00000KT 2 1/2SM 04/02 A3039 RMK T00400020 IEM_DS3505
ZGKL,2006-02-09 23:00,ZGKL 092300Z AUTO 00000KT 2 1/2SM 04/02 A3039 RMK T00400020 IEM_DS3505
ZGKL,2006-02-10 00:00,ZGKL 100000Z AUTO 36002KT 6SM 04/02 A3039 RMK 60000 70000 SLP307 T00400024 52006 IEM_DS3505
ZGKL,2006-02-10 01:00,ZGKL 100100Z AUTO 00000KT 2 1/2SM 04/03 A3039 RMK T00400030 IEM_DS3505
ZGKL,2006-02-10 02:00,ZGKL 100200Z AUTO 13002KT 3SM 05/03 A3039 RMK T00500030 IEM_DS3505
ZGKL,2006-02-10 03:00,ZGKL 100300Z AUTO 07002KT 10SM 06/02 A3039 RMK SLP305 T00570022 57001 IEM_DS3505
ZGKL,2006-02-10 04:00,ZGKL 100400Z AUTO 20002KT 3SM 06/04 A3036 RMK T00600040 IEM_DS3505
ZGKL,2006-02-10 05:00,ZGKL 100500Z AUTO 00000KT 4SM 07/04 A3033 RMK T00700040 IEM_DS3505
ZGKL,2006-02-10 06:00,ZGKL 100600Z AUTO 36002KT 10SM 08/03 A3027 RMK SLP262 T00760029 57042 IEM_DS3505
ZGKL,2006-02-10 07:00,ZGKL 100700Z AUTO 27002KT 5SM 08/04 A3024 RMK T00800040 IEM_DS3505
ZGKL,2006-02-10 08:00,ZGKL 100800Z AUTO 32002KT 6SM 08/04 A3021 RMK T00800040 IEM_DS3505
ZGKL,2006-02-10 09:00,ZGKL 100900Z AUTO 00000KT 9SM 08/03 A3018 RMK SLP234 T00850029 57027 IEM_DS3505
ZGKL,2006-02-10 10:00,ZGKL 101000Z AUTO 00000KT 5SM 08/04 A3018 RMK T00800040 IEM_DS3505
ZGKL,2006-02-10 11:00,ZGKL 101100Z AUTO 08002KT 4SM 08/04 A3021 RMK T00800040 IEM_DS3505
ZGKL,2006-02-10 12:00,ZGKL 101200Z AUTO 35002KT 7SM 08/04 A3021 RMK SLP242 T00800042 52008 IEM_DS3505
ZGKL,2006-02-10 13:00,ZGKL 101300Z AUTO 01002KT 4SM 08/05 A3021 RMK T00800050 IEM_DS3505
ZGKL,2006-02-10 14:00,ZGKL 101400Z AUTO 33002KT 4SM 08/05 A3021 RMK T00800050 IEM_DS3505
ZGKL,2006-02-10 15:00,ZGKL 101500Z AUTO 18002KT 7SM 08/05 A3024 RMK SLP251 T00770052 52009 IEM_DS3505
ZGKL,2006-02-10 16:00,ZGKL 101600Z AUTO 00000KT 3SM 08/05 A3024 RMK T00800050 IEM_DS3505
ZGKL,2006-02-10 17:00,ZGKL 101700Z AUTO 00000KT 08/05 A3021 RMK T00800050 IEM_DS3505
ZGKL,2006-02-10 18:00,ZGKL 101800Z AUTO 04002KT 6SM 08/05 A3021 RMK SLP241 T00770052 57009 IEM_DS3505
ZGKL,2006-02-10 19:00,ZGKL 101900Z AUTO 00000KT 08/05 A3018 RMK T00800050 IEM_DS3505
ZGKL,2006-02-10 20:00,ZGKL 102000Z AUTO 34002KT 08/06 A3018 RMK T00800060 IEM_DS3505
ZGKL,2006-02-10 21:00,ZGKL 102100Z AUTO 36002KT 6SM 08/05 A3018 RMK 70000 SLP228 T00750050 57013 IEM_DS3505
ZGKL,2006-02-10 22:00,ZGKL 102200Z AUTO 23002KT 2 1/2SM 08/06 A3018 RMK T00800060 IEM_DS3505
ZGKL,2006-02-10 23:00,ZGKL 102300Z AUTO 20002KT 2 1/2SM 07/06 A3018 RMK T00700060 IEM_DS3505
ZGKL,2006-02-11 00:00,ZGKL 110000Z AUTO 09002KT 2SM 07/06 A3021 RMK 60000 70000 SLP241 T00700061 52013 IEM_DS3505
ZGKL,2006-02-11 01:00,ZGKL 110100Z AUTO 08002KT 1SM 07/06 A3021 RMK T00700060 IEM_DS3505
ZGKL,2006-02-11 02:00,ZGKL 110200Z AUTO 02002KT 1/2SM 07/07 A3024 RMK T00700070 IEM_DS3505
ZGKL,2006-02-11 03:00,ZGKL 110300Z AUTO 00000KT 2SM 08/07 A3021 RMK SLP246 T00780069 52005 IEM_DS3505
ZGKL,2006-02-11 04:00,ZGKL 110400Z AUTO 00000KT 1 1/2SM 08/07 A3021 RMK T00800070 IEM_DS3505
ZGKL,2006-02-11 05:00,ZGKL 110500Z AUTO 00000KT 2 1/2SM 08/07 A3018 RMK T00800070 IEM_DS3505
ZGKL,2006-02-11 06:00,ZGKL 110600Z AUTO 00000KT 2SM 09/07 A3015 RMK 60004 SLP222 T00860074 57023 IEM_DS3505
ZGKL,2006-02-11 07:00,ZGKL 110700Z AUTO 00000KT 2 1/2SM 09/08 A3012 RMK T00900080 IEM_DS3505
ZGKL,2006-02-11 08:00,ZGKL 110800Z AUTO 00000KT 1SM 09/08 A3012 RMK T00900080 IEM_DS3505
ZGKL,2006-02-11 09:00,ZGKL 110900Z AUTO 14002KT 2SM 09/08 A3012 RMK SLP211 T00860078 57011 IEM_DS3505
ZGKL,2006-02-11 10:00,ZGKL 111000Z AUTO 00000KT 1/2SM 09/08 A3012 RMK T00900080 IEM_DS3505
ZGKL,2006-02-11 11:00,ZGKL 111100Z AUTO 07002KT 1/2SM 09/08 A3015 RMK T00900080 IEM_DS3505
ZGKL,2006-02-11 12:00,ZGKL 111200Z AUTO 08002KT 2SM 09/08 A3015 RMK 60002 SLP224 T00860082 52012 IEM_DS3505
ZGKL,2006-02-11 13:00,ZGKL 111300Z AUTO 00000KT 1SM 09/08 A3018 RMK T00900080 IEM_DS3505
ZGKL,2006-02-11 14:00,ZGKL 111400Z AUTO 00000KT 1/2SM 09/08 A3018 RMK T00900080 IEM_DS3505
ZGKL,2006-02-11 15:00,ZGKL 111500Z AUTO 00000KT 2SM 09/08 A3018 RMK SLP232 T00880084 52009 IEM_DS3505
ZGKL,2006-02-11 16:00,ZGKL 111600Z AUTO 00000KT 3/8SM 09/08 A3018 RMK T00900080 IEM_DS3505
ZGKL,2006-02-11 18:00,ZGKL 111800Z AUTO 16002KT 2SM 09/08 RMK 60003 SLP231 T00870083 57001 IEM_DS3505
ZGKL,2006-02-11 21:00,ZGKL 112100Z AUTO 07002KT 1 1/4SM 09/08 A3015 RMK 70012 SLP225 T00890085 57006 IEM_DS3505
ZGKL,2006-02-11 22:00,ZGKL 112200Z AUTO 00000KT 1SM 09/09 A3015 RMK T00900090 IEM_DS3505
ZGKL,2006-02-11 23:00,ZGKL 112300Z AUTO 00000KT 1SM 09/09 A3018 RMK T00900090 IEM_DS3505
ZGKL,2006-02-12 00:00,ZGKL 120000Z AUTO 00000KT 1 1/4SM 09/09 A3018 RMK 60004 70013 SLP235 T00910086 52010 IEM_DS3505
ZGKL,2006-02-12 01:00,ZGKL 120100Z AUTO 00000KT 1 1/4SM 09/09 A3021 RMK T00900090 IEM_DS3505
ZGKL,2006-02-12 02:00,ZGKL 120200Z AUTO 32002KT 1 1/4SM 10/09 A3021 RMK T01000090 IEM_DS3505
ZGKL,2006-02-12 03:00,ZGKL 120300Z AUTO 34002KT 1 1/4SM 10/10 A3024 RMK SLP245 T01010095 52010 IEM_DS3505
ZGKL,2006-02-12 04:00,ZGKL 120400Z AUTO 05002KT 1 1/4SM 10/10 A3024 RMK T01000100 IEM_DS3505
ZGKL,2006-02-12 05:00,ZGKL 120500Z AUTO 07002KT 1 1/4SM 10/10 A3021 RMK T01000100 IEM_DS3505
ZGKL,2006-02-12 06:00,ZGKL 120600Z AUTO 29002KT 1 1/4SM 11/10 A3015 RMK 60003 SLP222 T01080100 57022 IEM_DS3505
ZGKL,2006-02-12 07:00,ZGKL 120700Z AUTO 27002KT 1SM 11/10 A3015 RMK T01100100 IEM_DS3505
ZGKL,2006-02-12 08:00,ZGKL 120800Z AUTO 32002KT 1 1/4SM 11/10 A3012 RMK T01100100 IEM_DS3505
ZGKL,2006-02-12 09:00,ZGKL 120900Z AUTO 36004KT 1 1/4SM 11/10 A3012 RMK SLP210 T01090098 57012 IEM_DS3505
ZGKL,2006-02-12 10:00,ZGKL 121000Z AUTO 04002KT 1 1/4SM 11/10 A3012 RMK T01100100 IEM_DS3505
ZGKL,2006-02-12 11:00,ZGKL 121100Z AUTO 30002KT 1SM 11/10 A3012 RMK T01100100 IEM_DS3505
ZGKL,2006-02-12 12:00,ZGKL 121200Z AUTO 09004KT 3SM 10/09 A3015 RMK 60008 SLP219 T01040093 52009 IEM_DS3505
ZGKL,2006-02-12 13:00,ZGKL 121300Z AUTO 00000KT 1SM 11/10 A3015 RMK T01100100 IEM_DS3505
ZGKL,2006-02-12 14:00,ZGKL 121400Z AUTO 00000KT 1SM 11/10 A3015 RMK T01100100 IEM_DS3505
ZGKL,2006-02-12 15:00,ZGKL 121500Z AUTO 29002KT 2 1/2SM 10/10 A3015 RMK SLP221 T01030097 52002 IEM_DS3505
ZGKL,2006-02-12 18:00,ZGKL 121800Z AUTO 27002KT 2 1/2SM 10/10 A3012 RMK 60002 SLP209 T01020096 57011 IEM_DS3505
ZGKL,2006-02-12 21:00,ZGKL 122100Z AUTO 29002KT 1 1/4SM 10/09 A3006 RMK 70012 SLP195 T00990094 57014 IEM_DS3505
ZGKL,2006-02-12 22:00,ZGKL 122200Z AUTO 04002KT 1/8SM 10/09 A3006 RMK T01000090 IEM_DS3505
ZGKL,2006-02-12 23:00,ZGKL 122300Z AUTO 00000KT 1/8SM 10/10 A3009 RMK T01000100 IEM_DS3505
ZGKL,2006-02-13 00:00,ZGKL 130000Z AUTO 00000KT 1SM 10/10 A3009 RMK 60000 70011 SLP203 T01000097 52007 IEM_DS3505
ZGKL,2006-02-13 01:00,ZGKL 130100Z AUTO 00000KT 1/2SM 10/10 A3012 RMK T01000100 IEM_DS3505
ZGKL,2006-02-13 02:00,ZGKL 130200Z AUTO 00000KT 1SM 11/10 A3012 RMK T01100100 IEM_DS3505
ZGKL,2006-02-13 03:00,ZGKL 130300Z AUTO 00000KT 1SM 12/11 A3012 RMK SLP206 T01220109 52004 IEM_DS3505
ZGKL,2006-02-13 04:00,ZGKL 130400Z AUTO 00000KT 1 1/2SM 12/11 A3009 RMK T01200110 IEM_DS3505
ZGKL,2006-02-13 05:00,ZGKL 130500Z AUTO 03002KT 2 1/2SM 13/12 A3006 RMK T01300120 IEM_DS3505
ZGKL,2006-02-13 06:00,ZGKL 130600Z AUTO 34004KT 2SM 16/12 A3000 RMK SLP162 T01590123 57042 IEM_DS3505
ZGKL,2006-02-13 07:00,ZGKL 130700Z AUTO 30004KT 4SM 16/13 A2994 RMK T01600130 IEM_DS3505
ZGKL,2006-02-13 08:00,ZGKL 130800Z AUTO 33002KT 4SM 17/13 A2994 RMK T01700130 IEM_DS3505
ZGKL,2006-02-13 10:00,ZGKL 131000Z AUTO 34004KT 3SM 17/14 A2991 RMK T01700140 IEM_DS3505
ZGKL,2006-02-13 11:00,ZGKL 131100Z AUTO 33002KT 2 1/2SM 16/14 A2991 RMK T01600140 IEM_DS3505
ZGKL,2006-02-13 12:00,ZGKL 131200Z AUTO 25002KT 4SM 15/13 A2994 RMK SLP141 T01460131 52006 IEM_DS3505
ZGKL,2006-02-13 13:00,ZGKL 131300Z AUTO 25002KT 1 1/4SM 15/14 A2994 RMK T01500140 IEM_DS3505
ZGKL,2006-02-13 14:00,ZGKL 131400Z AUTO 30002KT 1 1/4SM 15/14 A2994 RMK T01500140 IEM_DS3505
ZGKL,2006-02-13 15:00,ZGKL 131500Z AUTO 14002KT 4SM 14/13 A2997 RMK SLP152 T01410131 52012 IEM_DS3505
ZGKL,2006-02-13 16:00,ZGKL 131600Z AUTO 00000KT 1 1/4SM 14/13 A2997 RMK T01400130 IEM_DS3505
ZGKL,2006-02-13 17:00,ZGKL 131700Z AUTO 00000KT 14/13 A2997 RMK T01400130 IEM_DS3505
ZGKL,2006-02-13 18:00,ZGKL 131800Z AUTO 07002KT 4SM 14/13 A2997 RMK SLP152 T01350129 52001 IEM_DS3505
ZGKL,2006-02-13 20:00,ZGKL 132000Z AUTO 18002KT 12/12 A2994 RMK T01200120 IEM_DS3505
ZGKL,2006-02-13 21:00,ZGKL 132100Z AUTO 29002KT 2 1/2SM 13/13 A2994 RMK SLP146 T01320127 57006 IEM_DS3505
ZGKL,2006-02-13 22:00,ZGKL 132200Z AUTO 00000KT 1SM 13/12 A2994 RMK T01300120 IEM_DS3505
ZGKL,2006-02-13 23:00,ZGKL 132300Z AUTO 00000KT 1 1/4SM 13/12 A2997 RMK T01300120 IEM_DS3505
ZGKL,2006-02-14 00:00,ZGKL 140000Z AUTO 32002KT 1 1/4SM 13/13 A2997 RMK SLP158 T01330128 52011 IEM_DS3505
ZGKL,2006-02-14 01:00,ZGKL 140100Z AUTO 00000KT 1SM 13/13 A3000 RMK T01300130 IEM_DS3505
ZGKL,2006-02-14 02:00,ZGKL 140200Z AUTO 03002KT 1 1/4SM 15/14 A2997 RMK T01500140 IEM_DS3505
ZGKL,2006-02-14 03:00,ZGKL 140300Z AUTO 07002KT 1 1/4SM 16/14 A2997 RMK SLP158 T01650145 52001 IEM_DS3505
ZGKL,2006-02-14 04:00,ZGKL 140400Z AUTO 00000KT 4SM 19/15 A2997 RMK T01900150 IEM_DS3505
ZGKL,2006-02-14 05:00,ZGKL 140500Z AUTO 16004KT 4SM 20/15 A2991 RMK T02000150 IEM_DS3505
ZGKL,2006-02-14 06:00,ZGKL 140600Z AUTO 18010KT 6SM 21/15 A2988 RMK SLP115 T02100149 57041 IEM_DS3505
ZGKL,2006-02-14 07:00,ZGKL 140700Z AUTO 12004KT 4SM 20/15 A2985 RMK T02000150 IEM_DS3505
ZGKL,2006-02-14 08:00,ZGKL 140800Z AUTO 12004KT 4SM 22/16 A2983 RMK T02200160 IEM_DS3505
ZGKL,2006-02-14 09:00,ZGKL 140900Z AUTO 22002KT 7SM 21/16 A2980 RMK SLP094 T02120157 57021 IEM_DS3505
ZGKL,2006-02-14 10:00,ZGKL 141000Z AUTO 33002KT 4SM 20/17 A2983 RMK T02000170 IEM_DS3505
ZGKL,2006-02-14 11:00,ZGKL 141100Z AUTO 00000KT 4SM 19/16 A2980 RMK T01900160 IEM_DS3505
ZGKL,2006-02-14 12:00,ZGKL 141200Z AUTO 27004KT 6SM 18/15 A2983 RMK SLP101 T01780154 52006 IEM_DS3505
ZGKL,2006-02-14 13:00,ZGKL 141300Z AUTO 25004KT 2 1/2SM 17/16 A2985 RMK T01700160 IEM_DS3505
ZGKL,2006-02-14 14:00,ZGKL 141400Z AUTO 22002KT 2 1/2SM 17/15 A2985 RMK T01700150 IEM_DS3505
ZGKL,2006-02-14 15:00,ZGKL 141500Z AUTO 00000KT 6SM 17/15 A2985 RMK SLP114 T01660153 52014 IEM_DS3505
ZGKL,2006-02-14 16:00,ZGKL 141600Z AUTO 29002KT 2 1/2SM 17/15 A2988 RMK T01700150 IEM_DS3505
ZGKL,2006-02-14 17:00,ZGKL 141700Z AUTO 17004KT 2 1/2SM 16/15 A2985 RMK T01600150 IEM_DS3505
ZGKL,2006-02-14 18:00,ZGKL 141800Z AUTO 18004KT 4SM 17/15 A2985 RMK SLP109 T01680153 57004 IEM_DS3505
ZGKL,2006-02-14 19:00,ZGKL 141900Z AUTO 00000KT 17/16 A2985 RMK T01700160 IEM_DS3505
ZGKL,2006-02-14 20:00,ZGKL 142000Z AUTO 25002KT 17/15 A2983 RMK T01700150 IEM_DS3505
ZGKL,2006-02-14 21:00,ZGKL 142100Z AUTO 20002KT 4SM 17/16 A2983 RMK SLP105 T01700155 57004 IEM_DS3505
ZGKL,2006-02-14 22:00,ZGKL 142200Z AUTO 26002KT 3SM 17/15 A2983 RMK T01700150 IEM_DS3505
ZGKL,2006-02-14 23:00,ZGKL 142300Z AUTO 18010KT 3SM 19/16 A2985 RMK T01900160 IEM_DS3505
ZGKL,2006-02-15 00:00,ZGKL 150000Z AUTO 32002KT 6SM 16/15 A2988 RMK 60000 70000 SLP119 T01640154 52013 IEM_DS3505
ZGKL,2006-02-15 01:00,ZGKL 150100Z AUTO 19010KT 4SM 19/16 A2988 RMK T01900160 IEM_DS3505
ZGKL,2006-02-15 02:00,ZGKL 150200Z AUTO 17008KT 4SM 21/17 A2988 RMK T02100170 IEM_DS3505
ZGKL,2006-02-15 03:00,ZGKL 150300Z AUTO 18008KT 9SM 21/16 A2988 RMK SLP123 T02090165 52005 IEM_DS3505
ZGKL,2006-02-15 04:00,ZGKL 150400Z AUTO 18017KT 4SM 22/17 A2988 RMK T02200170 IEM_DS3505
ZGKL,2006-02-15 05:00,ZGKL 150500Z AUTO 18017KT 4SM 22/17 A2985 RMK T02200170 IEM_DS3505
ZGKL,2006-02-15 06:00,ZGKL 150600Z AUTO 18004KT 9SM 22/16 A2983 RMK SLP098 T02180163 57024 IEM_DS3505
ZGKL,2006-02-15 07:00,ZGKL 150700Z AUTO 17010KT 5SM 22/17 A2980 RMK T02200170 IEM_DS3505
ZGKL,2006-02-15 08:00,ZGKL 150800Z AUTO 18006KT 4SM 22/17 A2980 RMK T02200170 IEM_DS3505
ZGKL,2006-02-15 09:00,ZGKL 150900Z AUTO 36002KT 9SM 22/17 A2977 RMK SLP082 T02230168 57016 IEM_DS3505
ZGKL,2006-02-15 10:00,ZGKL 151000Z AUTO 35004KT 5SM 21/18 A2980 RMK T02100180 IEM_DS3505
ZGKL,2006-02-15 11:00,ZGKL 151100Z AUTO 35004KT 4SM 20/17 A2980 RMK T02000170 IEM_DS3505
ZGKL,2006-02-15 12:00,ZGKL 151200Z AUTO 02008KT 6SM 16/12 A2983 RMK SLP109 T01590125 52024 IEM_DS3505
ZGKL,2006-02-15 13:00,ZGKL 151300Z AUTO 06012KT 3SM 18/13 A2985 RMK T01800130 IEM_DS3505
ZGKL,2006-02-15 14:00,ZGKL 151400Z AUTO 04012KT 3SM 16/12 A2988 RMK T01600120 IEM_DS3505
ZGKL,2006-02-15 15:00,ZGKL 151500Z AUTO 04008KT 6SM 14/10 A2991 RMK SLP143 T01360104 52034 IEM_DS3505
ZGKL,2006-02-15 16:00,ZGKL 151600Z AUTO 06006KT 14/11 A2994 RMK T01400110 IEM_DS3505
ZGKL,2006-02-15 17:00,ZGKL 151700Z AUTO 06004KT 13/10 A2997 RMK T01300100 IEM_DS3505
ZGKL,2006-02-15 18:00,ZGKL 151800Z AUTO 02008KT 6SM 13/09 A2997 RMK SLP155 T01270086 52012 IEM_DS3505
ZGKL,2006-02-15 19:00,ZGKL 151900Z AUTO 07006KT 13/09 A2997 RMK T01300090 IEM_DS3505
ZGKL,2006-02-15 20:00,ZGKL 152000Z AUTO 07008KT 12/10 A2997 RMK T01200100 IEM_DS3505
ZGKL,2006-02-15 21:00,ZGKL 152100Z AUTO 02010KT 6SM 11/07 A3000 RMK 70000 SLP164 T01100069 52009 IEM_DS3505
ZGKL,2006-02-15 22:00,ZGKL 152200Z AUTO 05006KT 3SM 11/08 A3003 RMK T01100080 IEM_DS3505
ZGKL,2006-02-15 23:00,ZGKL 152300Z AUTO 04006KT 2SM 10/08 A3009 RMK T01000080 IEM_DS3505
ZGKL,2006-02-16 00:00,ZGKL 160000Z AUTO 02008KT 7SM 09/07 A3012 RMK 60012 70010 SLP213 T00910071 52045 IEM_DS3505
ZGKL,2006-02-16 01:00,ZGKL 160100Z AUTO 06006KT 2 1/2SM 10/08 A3015 RMK T01000080 IEM_DS3505
ZGKL,2006-02-16 02:00,ZGKL 160200Z AUTO 05004KT 5SM 10/08 A3021 RMK T01000080 IEM_DS3505
ZGKL,2006-02-16 03:00,ZGKL 160300Z AUTO 36010KT 14SM 10/06 A3024 RMK SLP247 T01010063 52033 IEM_DS3505
ZGKL,2006-02-16 04:00,ZGKL 160400Z AUTO 06010KT 7SM 11/08 A3024 RMK T01100080 IEM_DS3505
ZGKL,2006-02-16 05:00,ZGKL 160500Z AUTO 06012KT 7SM 11/07 A3021 RMK T01100070 IEM_DS3505
ZGKL,2006-02-16 06:00,ZGKL 160600Z AUTO 02012KT 12SM 11/06 A3018 RMK 60001 SLP233 T01060056 57014 IEM_DS3505
ZGKL,2006-02-16 07:00,ZGKL 160700Z AUTO 06016KT 7SM 10/06 A3015 RMK T01000060 IEM_DS3505
ZGKL,2006-02-16 08:00,ZGKL 160800Z AUTO 06017KT 7SM 10/06 A3015 RMK T01000060 IEM_DS3505
ZGKL,2006-02-16 09:00,ZGKL 160900Z AUTO 02014KT 11SM 09/04 A3015 RMK SLP229 T00910041 57005 IEM_DS3505
ZGKL,2006-02-16 10:00,ZGKL 161000Z AUTO 06012KT 7SM 09/05 A3018 RMK T00900050 IEM_DS3505
ZGKL,2006-02-16 11:00,ZGKL 161100Z AUTO 05012KT 7SM 09/05 A3021 RMK T00900050 IEM_DS3505
ZGKL,2006-02-16 12:00,ZGKL 161200Z AUTO 02012KT 11SM 08/04 A3024 RMK 60000 SLP250 T00790037 52019 IEM_DS3505
ZGKL,2006-02-16 13:00,ZGKL 161300Z AUTO 04012KT 7SM 08/05 A3027 RMK T00800050 IEM_DS3505
ZGKL,2006-02-16 14:00,ZGKL 161400Z AUTO 05006KT 7SM 08/04 A3027 RMK T00800040 IEM_DS3505
ZGKL,2006-02-16 15:00,ZGKL 161500Z AUTO 02008KT 11SM 08/04 A3027 RMK SLP265 T00810036 52015 IEM_DS3505
ZGKL,2006-02-16 16:00,ZGKL 161600Z AUTO 04006KT 7SM 08/04 A3027 RMK T00800040 IEM_DS3505
ZGKL,2006-02-16 17:00,ZGKL 161700Z AUTO 05004KT 08/04 A3030 RMK T00800040 IEM_DS3505
ZGKL,2006-02-16 18:00,ZGKL 161800Z AUTO 02012KT 10SM 08/03 A3030 RMK 60000 SLP271 T00790030 52006 IEM_DS3505
ZGKL,2006-02-16 19:00,ZGKL 161900Z AUTO 07004KT 08/04 A3030 RMK SLP269 T00800040 IEM_DS3505
ZGKL,2006-02-16 20:00,ZGKL 162000Z AUTO 02004KT 08/04 A3030 RMK SLP269 T00800040 IEM_DS3505
ZGKL,2006-02-16 21:00,ZGKL 162100Z AUTO 36008KT 10SM 08/03 A3030 RMK 70011 SLP276 T00750034 52005 IEM_DS3505
ZGKL,2006-02-16 22:00,ZGKL 162200Z AUTO 05010KT 7SM 09/03 A3030 RMK SLP268 T00900030 IEM_DS3505
ZGKL,2006-02-16 23:00,ZGKL 162300Z AUTO 05010KT 7SM 09/03 A3033 RMK SLP278 T00900030 IEM_DS3505
ZGKL,2006-02-17 00:00,ZGKL 170000Z AUTO 02012KT 11SM 08/03 A3036 RMK 70001 SLP293 T00770034 52016 IEM_DS3505
ZGKL,2006-02-17 01:00,ZGKL 170100Z AUTO 03010KT 7SM 08/04 A3039 RMK SLP298 T00800040 IEM_DS3505
ZGKL,2006-02-17 02:00,ZGKL 170200Z AUTO 02010KT 7SM 09/03 A3039 RMK SLP298 T00900030 IEM_DS3505
ZGKL,2006-02-17 03:00,ZGKL 170300Z AUTO 02010KT 11SM 08/03 A3039 RMK SLP302 T00790032 52009 IEM_DS3505
ZGKL,2006-02-17 04:00,ZGKL 170400Z AUTO 04008KT 7SM 09/03 A3036 RMK SLP288 T00900030 IEM_DS3505
ZGKL,2006-02-17 05:00,ZGKL 170500Z AUTO 04008KT 7SM 09/04 A3036 RMK SLP288 T00900040 IEM_DS3505
ZGKL,2006-02-17 06:00,ZGKL 170600Z AUTO 04012KT 11SM 07/02 A3030 RMK 60000 SLP275 T00740025 57027 IEM_DS3505
ZGKL,2006-02-17 07:00,ZGKL 170700Z AUTO 04010KT 7SM 08/03 A3030 RMK SLP269 T00800030 IEM_DS3505
ZGKL,2006-02-17 08:00,ZGKL 170800Z AUTO 04010KT 7SM 08/03 A3027 RMK SLP259 T00800030 IEM_DS3505
ZGKL,2006-02-17 09:00,ZGKL 170900Z AUTO 02012KT 11SM 07/02 A3027 RMK SLP262 T00660023 57013 IEM_DS3505
ZGKL,2006-02-17 10:00,ZGKL 171000Z AUTO 05010KT 7SM 07/03 A3027 RMK SLP259 T00700030 IEM_DS3505
ZGKL,2006-02-17 11:00,ZGKL 171100Z AUTO 05008KT 7SM 07/03 A3030 RMK SLP270 T00700030 IEM_DS3505
ZGKL,2006-02-17 12:00,ZGKL 171200Z AUTO 02008KT 10SM 06/02 A3030 RMK SLP275 T00590020 52013 IEM_DS3505
ZGKL,2006-02-17 13:00,ZGKL 171300Z AUTO 06008KT 7SM 06/04 A3033 RMK SLP281 T00600040 IEM_DS3505
ZGKL,2006-02-17 14:00,ZGKL 171400Z AUTO 05006KT 7SM 06/03 A3033 RMK SLP281 T00600030 IEM_DS3505
ZGKL,2006-02-17 15:00,ZGKL 171500Z AUTO 02008KT 8SM 05/02 A3036 RMK SLP294 T00510025 52018 IEM_DS3505
ZGKL,2006-02-17 16:00,ZGKL 171600Z AUTO 03004KT 7SM 06/03 A3036 RMK SLP290 T00600030 IEM_DS3505
ZGKL,2006-02-17 17:00,ZGKL 171700Z AUTO 06002KT 06/03 A3036 RMK SLP290 T00600030 IEM_DS3505
ZGKL,2006-02-17 18:00,ZGKL 171800Z AUTO 36010KT 8SM 05/02 A3036 RMK 60001 SLP289 T00500022 57005 IEM_DS3505
ZGKL,2006-02-17 19:00,ZGKL 171900Z AUTO 05004KT 06/03 A3036 RMK SLP290 T00600030 IEM_DS3505
ZGKL,2006-02-17 20:00,ZGKL 172000Z AUTO 03006KT 05/03 A3033 RMK SLP281 T00500030 IEM_DS3505
ZGKL,2006-02-17 21:00,ZGKL 172100Z AUTO 36008KT 5SM 04/02 A3036 RMK 70024 SLP290 T00430025 54000 IEM_DS3505
ZGKL,2006-02-17 22:00,ZGKL 172200Z AUTO 35004KT 7SM 05/03 A3033 RMK SLP281 T00500030 IEM_DS3505
ZGKL,2006-02-17 23:00,ZGKL 172300Z AUTO 36002KT 7SM 05/03 A3036 RMK SLP290 T00500030 IEM_DS3505
ZGKL,2006-02-18 00:00,ZGKL 180000Z AUTO 36004KT 7SM 04/03 A3036 RMK 60031 70033 SLP289 T00430026 57001 IEM_DS3505
ZGKL,2006-02-18 01:00,ZGKL 180100Z AUTO 00000KT 5SM 05/03 A3036 RMK SLP290 T00500030 IEM_DS3505
ZGKL,2006-02-18 02:00,ZGKL 180200Z AUTO 05002KT 7SM 05/03 A3036 RMK SLP290 T00500030 IEM_DS3505
ZGKL,2006-02-18 03:00,ZGKL 180300Z AUTO 02008KT 9SM 05/02 A3036 RMK SLP293 T00540022 52004 IEM_DS3505
ZGKL,2006-02-18 04:00,ZGKL 180400Z AUTO 06006KT 7SM 06/03 A3033 RMK SLP281 T00600030 IEM_DS3505
ZGKL,2006-02-18 05:00,ZGKL 180500Z AUTO 09002KT 7SM 06/03 A3030 RMK SLP270 T00600030 IEM_DS3505
ZGKL,2006-02-18 06:00,ZGKL 180600Z AUTO 02006KT 12SM 06/03 A3027 RMK 60004 SLP260 T00610026 57032 IEM_DS3505
ZGKL,2006-02-18 07:00,ZGKL 180700Z AUTO 05002KT 7SM 07/03 A3024 RMK SLP248 T00700030 IEM_DS3505
ZGKL,2006-02-18 08:00,ZGKL 180800Z AUTO 06002KT 7SM 07/03 A3021 RMK SLP238 T00700030 IEM_DS3505
ZGKL,2006-02-18 09:00,ZGKL 180900Z AUTO 02006KT 12SM 07/02 A3021 RMK SLP245 T00660025 57015 IEM_DS3505
ZGKL,2006-02-18 10:00,ZGKL 181000Z AUTO 05004KT 7SM 07/03 A3021 RMK SLP238 T00700030 IEM_DS3505
ZGKL,2006-02-18 11:00,ZGKL 181100Z AUTO 06006KT 5SM 06/04 A3021 RMK SLP239 T00600040 IEM_DS3505
ZGKL,2006-02-18 12:00,ZGKL 181200Z AUTO 02008KT 11SM 06/02 A3024 RMK 60000 SLP251 T00570022 52006 IEM_DS3505
ZGKL,2006-02-18 13:00,ZGKL 181300Z AUTO 06004KT 4SM 06/04 A3024 RMK SLP249 T00600040 IEM_DS3505
ZGKL,2006-02-18 14:00,ZGKL 181400Z AUTO 05006KT 4SM 06/03 A3024 RMK SLP249 T00600030 IEM_DS3505
ZGKL,2006-02-18 15:00,ZGKL 181500Z AUTO 02006KT 11SM 05/03 A3027 RMK SLP260 T00540026 52009 IEM_DS3505
ZGKL,2006-02-18 16:00,ZGKL 181600Z AUTO 00000KT 4SM 05/04 A3027 RMK SLP261 T00500040 IEM_DS3505
ZGKL,2006-02-18 17:00,ZGKL 181700Z AUTO 00000KT 05/04 A3027 RMK SLP261 T00500040 IEM_DS3505
ZGKL,2006-02-18 18:00,ZGKL 181800Z AUTO 02006KT 7SM 05/03 A3024 RMK 60003 SLP255 T00520027 57005 IEM_DS3505
ZGKL,2006-02-18 19:00,ZGKL 181900Z AUTO 25002KT 05/04 A3024 RMK SLP250 T00500040 IEM_DS3505
ZGKL,2006-02-18 20:00,ZGKL 182000Z AUTO 00000KT 06/04 A3021 RMK SLP239 T00600040 IEM_DS3505
ZGKL,2006-02-18 21:00,ZGKL 182100Z AUTO 02004KT 7SM 05/03 A3021 RMK 70017 SLP246 T00530028 57008 IEM_DS3505
ZGKL,2006-02-18 22:00,ZGKL 182200Z AUTO 07002KT 3SM 06/04 A3021 RMK SLP239 T00600040 IEM_DS3505
ZGKL,2006-02-18 23:00,ZGKL 182300Z AUTO 00000KT 3SM 06/03 A3024 RMK SLP249 T00600030 IEM_DS3505
ZGKL,2006-02-19 00:00,ZGKL 190000Z AUTO 07006KT 6SM 06/03 A3027 RMK 70007 SLP261 T00550027 52014 IEM_DS3505
ZGKL,2006-02-19 01:00,ZGKL 190100Z AUTO 09002KT 3SM 06/03 A3027 RMK SLP260 T00600030 IEM_DS3505
ZGKL,2006-02-19 02:00,ZGKL 190200Z AUTO 33002KT 3SM 06/04 A3030 RMK SLP270 T00600040 IEM_DS3505
ZGKL,2006-02-19 03:00,ZGKL 190300Z AUTO 02008KT 6SM 07/03 A3030 RMK SLP276 T00660027 52015 IEM_DS3505
ZGKL,2006-02-19 04:00,ZGKL 190400Z AUTO 32002KT 4SM 07/05 A3027 RMK SLP259 T00700050 IEM_DS3505
ZGKL,2006-02-19 05:00,ZGKL 190500Z AUTO 33002KT 4SM 07/05 A3027 RMK SLP259 T00700050 IEM_DS3505
ZGKL,2006-02-19 06:00,ZGKL 190600Z AUTO 04006KT 6SM 08/04 A3027 RMK SLP259 T00800035 57016 IEM_DS3505
ZGKL,2006-02-19 07:00,ZGKL 190700Z AUTO 36002KT 7SM 09/05 A3021 RMK SLP237 T00900050 IEM_DS3505
ZGKL,2006-02-19 08:00,ZGKL 190800Z AUTO 01002KT 7SM 09/05 A3021 RMK SLP237 T00900050 IEM_DS3505
ZGKL,2006-02-19 09:00,ZGKL 190900Z AUTO 02008KT 8SM 09/04 A3021 RMK SLP241 T00900038 57017 IEM_DS3505
ZGKL,2006-02-19 10:00,ZGKL 191000Z AUTO 06006KT 4SM 09/04 A3018 RMK SLP226 T00900040 IEM_DS3505
ZGKL,2006-02-19 11:00,ZGKL 191100Z AUTO 05006KT 4SM 09/04 A3021 RMK SLP237 T00900040 IEM_DS3505
ZGKL,2006-02-19 12:00,ZGKL 191200Z AUTO 04004KT 8SM 08/03 A3021 RMK SLP239 T00750032 57003 IEM_DS3505
ZGKL,2006-02-19 13:00,ZGKL 191300Z AUTO 05004KT 4SM 08/04 A3021 RMK SLP237 T00800040 IEM_DS3505
ZGKL,2006-02-19 14:00,ZGKL 191400Z AUTO 09004KT 4SM 08/04 A3024 RMK SLP247 T00800040 IEM_DS3505
ZGKL,2006-02-19 15:00,ZGKL 191500Z AUTO 04004KT 8SM 08/03 A3024 RMK SLP254 T00750034 52015 IEM_DS3505
ZGKL,2006-02-19 16:00,ZGKL 191600Z AUTO 05004KT 08/04 A3024 RMK SLP247 T00800040 IEM_DS3505
ZGKL,2006-02-19 17:00,ZGKL 191700Z AUTO 00000KT 08/05 A3027 RMK SLP259 T00800050 IEM_DS3505
ZGKL,2006-02-19 18:00,ZGKL 191800Z AUTO 04004KT 8SM 08/03 A3024 RMK SLP253 T00760031 54000 IEM_DS3505
ZGKL,2006-02-19 19:00,ZGKL 191900Z AUTO 00000KT 08/05 A3021 RMK SLP237 T00800050 IEM_DS3505
ZGKL,2006-02-19 20:00,ZGKL 192000Z AUTO 30002KT 08/04 A3021 RMK SLP237 T00800040 IEM_DS3505
ZGKL,2006-02-19 21:00,ZGKL 192100Z AUTO 02002KT 7SM 07/03 A3021 RMK SLP244 T00730034 57009 IEM_DS3505
ZGKL,2006-02-19 22:00,ZGKL 192200Z AUTO 12002KT 3SM 07/04 A3021 RMK SLP238 T00700040 IEM_DS3505
ZGKL,2006-02-19 23:00,ZGKL 192300Z AUTO 22002KT 3SM 07/05 A3024 RMK SLP248 T00700050 IEM_DS3505
ZGKL,2006-02-20 00:00,ZGKL 200000Z AUTO 07004KT 6SM 07/03 A3024 RMK SLP250 T00720034 52006 IEM_DS3505
ZGKL,2006-02-20 01:00,ZGKL 200100Z AUTO 00000KT 2 1/2SM 07/06 A3024 RMK SLP248 T00700060 IEM_DS3505
ZGKL,2006-02-20 02:00,ZGKL 200200Z AUTO 29002KT 3SM 08/05 A3027 RMK SLP259 T00800050 IEM_DS3505
ZGKL,2006-02-20 03:00,ZGKL 200300Z AUTO 04004KT 6SM 09/04 A3027 RMK SLP259 T00900038 52009 IEM_DS3505
ZGKL,2006-02-20 04:00,ZGKL 200400Z AUTO 00000KT 3SM 09/05 A3024 RMK SLP247 T00900050 IEM_DS3505
ZGKL,2006-02-20 05:00,ZGKL 200500Z AUTO 21002KT 4SM 10/05 A3018 RMK SLP226 T01000050 IEM_DS3505
ZGKL,2006-02-20 06:00,ZGKL 200600Z AUTO 16002KT 7SM 12/04 A3015 RMK SLP213 T01160043 57044 IEM_DS3505
ZGKL,2006-02-20 07:00,ZGKL 200700Z AUTO 34002KT 4SM 12/06 A3009 RMK SLP195 T01200060 IEM_DS3505
ZGKL,2006-02-20 08:00,ZGKL 200800Z AUTO 33002KT 4SM 12/06 A3009 RMK SLP195 T01200060 IEM_DS3505
ZGKL,2006-02-20 09:00,ZGKL 200900Z AUTO 34002KT 7SM 12/05 A3009 RMK SLP195 T01200052 57018 IEM_DS3505
ZGKL,2006-02-20 10:00,ZGKL 201000Z AUTO 01002KT 4SM 12/07 A3006 RMK SLP184 T01200070 IEM_DS3505
ZGKL,2006-02-20 11:00,ZGKL 201100Z AUTO 33002KT 4SM 12/07 A3006 RMK SLP184 T01200070 IEM_DS3505
ZGKL,2006-02-20 12:00,ZGKL 201200Z AUTO 04002KT 7SM 11/06 A3009 RMK SLP198 T01120061 52003 IEM_DS3505
ZGKL,2006-02-20 13:00,ZGKL 201300Z AUTO 34002KT 3SM 11/08 A3009 RMK SLP195 T01100080 IEM_DS3505
ZGKL,2006-02-20 14:00,ZGKL 201400Z AUTO 07002KT 3SM 11/08 A3009 RMK SLP195 T01100080 IEM_DS3505
ZGKL,2006-02-20 15:00,ZGKL 201500Z AUTO 02002KT 7SM 10/06 A3009 RMK SLP204 T01030059 52006 IEM_DS3505
ZGKL,2006-02-20 16:00,ZGKL 201600Z AUTO 01004KT 11/08 A3009 RMK SLP195 T01100080 IEM_DS3505
ZGKL,2006-02-20 17:00,ZGKL 201700Z AUTO 05004KT 11/08 A3009 RMK SLP195 T01100080 IEM_DS3505
ZGKL,2006-02-20 18:00,ZGKL 201800Z AUTO 02002KT 6SM 09/07 A3008 RMK 60000 SLP192 T00880069 57011 IEM_DS3505
ZGKL,2006-02-20 21:00,ZGKL 202100Z AUTO 36002KT 4SM 08/08 A3003 RMK 70007 SLP183 T00850079 57009 IEM_DS3505
ZGKL,2006-02-20 22:00,ZGKL 202200Z AUTO 00000KT 1SM 09/08 A3003 RMK SLP175 T00900080 IEM_DS3505
ZGKL,2006-02-20 23:00,ZGKL 202300Z AUTO 02002KT 1SM 09/09 A3006 RMK SLP187 T00900090 IEM_DS3505
ZGKL,2006-02-21 00:00,ZGKL 210000Z AUTO 14002KT 4SM 09/08 A3006 RMK 60012 70013 SLP186 T00880084 52003 IEM_DS3505
ZGKL,2006-02-21 01:00,ZGKL 210100Z AUTO 00000KT 1SM 10/09 A3006 RMK SLP186 T01000090 IEM_DS3505
ZGKL,2006-02-21 02:00,ZGKL 210200Z AUTO 00000KT 1/2SM 10/09 A3006 RMK SLP186 T01000090 IEM_DS3505
ZGKL,2006-02-21 03:00,ZGKL 210300Z AUTO 02002KT 2SM 10/09 A3006 RMK SLP193 T00970094 52007 IEM_DS3505
ZGKL,2006-02-21 04:00,ZGKL 210400Z AUTO 33002KT 1SM 11/10 A3006 RMK SLP185 T01100100 IEM_DS3505
ZGKL,2006-02-21 05:00,ZGKL 210500Z AUTO 00000KT 1SM 11/10 A3003 RMK SLP174 T01100100 IEM_DS3505
ZGKL,2006-02-21 06:00,ZGKL 210600Z AUTO 28002KT 2SM 11/10 A3000 RMK 60012 SLP167 T01100105 57026 IEM_DS3505
ZGKL,2006-02-21 07:00,ZGKL 210700Z AUTO 00000KT 1SM 11/11 A2997 RMK SLP153 T01100110 IEM_DS3505
ZGKL,2006-02-21 08:00,ZGKL 210800Z AUTO 30002KT 1SM 12/11 A2997 RMK SLP153 T01200110 IEM_DS3505
ZGKL,2006-02-21 09:00,ZGKL 210900Z AUTO 00000KT 2SM 11/11 A2997 RMK SLP161 T01140109 57006 IEM_DS3505
ZGKL,2006-02-21 10:00,ZGKL 211000Z AUTO 00000KT 1SM 12/11 A3000 RMK SLP163 T01200110 IEM_DS3505
ZGKL,2006-02-21 11:00,ZGKL 211100Z AUTO 00000KT 1SM 12/11 A3003 RMK SLP173 T01200110 IEM_DS3505
ZGKL,2006-02-21 12:00,ZGKL 211200Z AUTO 00000KT 1SM 11/11 A3006 RMK 60008 SLP187 T01130110 52026 IEM_DS3505
ZGKL,2006-02-21 13:00,ZGKL 211300Z AUTO 13002KT 1/2SM 12/11 A3009 RMK SLP195 T01200110 IEM_DS3505
ZGKL,2006-02-21 14:00,ZGKL 211400Z AUTO 21002KT 1/2SM 12/11 A3009 RMK SLP195 T01200110 IEM_DS3505
ZGKL,2006-02-21 15:00,ZGKL 211500Z AUTO 02004KT 1SM 12/12 A3012 RMK SLP208 T01180115 52021 IEM_DS3505
ZGKL,2006-02-21 16:00,ZGKL 211600Z AUTO 15002KT 3/8SM 12/11 A3015 RMK SLP215 T01200110 IEM_DS3505
ZGKL,2006-02-21 18:00,ZGKL 211800Z AUTO 02004KT 2 1/2SM 13/12 A3014 RMK 60012 SLP214 T01260117 52006 IEM_DS3505
ZGKL,2006-02-21 21:00,ZGKL 212100Z AUTO 02012KT 5SM 11/09 A3017 RMK 70042 SLP222 T01100088 52008 IEM_DS3505
ZGKL,2006-02-21 22:00,ZGKL 212200Z AUTO 06008KT 4SM 11/10 A3018 RMK SLP225 T01100100 IEM_DS3505
ZGKL,2006-02-21 23:00,ZGKL 212300Z AUTO 03004KT 4SM 11/10 A3021 RMK SLP235 T01100100 IEM_DS3505
ZGKL,2006-02-22 00:00,ZGKL 220000Z AUTO 02010KT 4SM 10/07 A3024 RMK 60012 70037 SLP254 T01040069 52031 IEM_DS3505
ZGKL,2006-02-22 01:00,ZGKL 220100Z AUTO 04006KT 5SM 11/08 A3027 RMK SLP257 T01100080 IEM_DS3505
ZGKL,2006-02-22 02:00,ZGKL 220200Z AUTO 01006KT 5SM 11/09 A3030 RMK SLP267 T01100090 IEM_DS3505
ZGKL,2006-02-22 03:00,ZGKL 220300Z AUTO 36012KT 5SM 11/07 A3033 RMK SLP275 T01060066 52021 IEM_DS3505
ZGKL,2006-02-22 04:00,ZGKL 220400Z AUTO 02006KT 5SM 12/08 A3030 RMK SLP266 T01200080 IEM_DS3505
ZGKL,2006-02-22 05:00,ZGKL 220500Z AUTO 02016KT 5SM 12/06 A3027 RMK SLP256 T01200060 IEM_DS3505
ZGKL,2006-02-22 06:00,ZGKL 220600Z AUTO 02012KT 6SM 11/06 A3024 RMK 60000 SLP252 T01090059 57022 IEM_DS3505
ZGKL,2006-02-22 07:00,ZGKL 220700Z AUTO 04012KT 5SM 12/06 A3024 RMK SLP245 T01200060 IEM_DS3505
ZGKL,2006-02-22 08:00,ZGKL 220800Z AUTO 04010KT 5SM 12/06 A3021 RMK SLP234 T01200060 IEM_DS3505
ZGKL,2006-02-22 09:00,ZGKL 220900Z AUTO 36010KT 6SM 10/05 A3021 RMK SLP246 T01020054 57007 IEM_DS3505
ZGKL,2006-02-22 10:00,ZGKL 221000Z AUTO 05010KT 5SM 11/06 A3024 RMK SLP245 T01100060 IEM_DS3505
ZGKL,2006-02-22 11:00,ZGKL 221100Z AUTO 04006KT 5SM 11/06 A3024 RMK SLP245 T01100060 IEM_DS3505
ZGKL,2006-02-22 12:00,ZGKL 221200Z AUTO 02010KT 7SM 10/06 A3024 RMK SLP254 T00970057 52007 IEM_DS3505
ZGKL,2006-02-22 13:00,ZGKL 221300Z AUTO 06004KT 5SM 10/06 A3027 RMK SLP257 T01000060 IEM_DS3505
ZGKL,2006-02-22 14:00,ZGKL 221400Z AUTO 06004KT 5SM 10/06 A3027 RMK SLP257 T01000060 IEM_DS3505
ZGKL,2006-02-22 15:00,ZGKL 221500Z AUTO 36010KT 7SM 09/06 A3030 RMK SLP267 T00930057 52013 IEM_DS3505
ZGKL,2006-02-22 16:00,ZGKL 221600Z AUTO 06002KT 10/06 A3030 RMK SLP267 T01000060 IEM_DS3505
ZGKL,2006-02-22 17:00,ZGKL 221700Z AUTO 06004KT 09/06 A3027 RMK SLP258 T00900060 IEM_DS3505
ZGKL,2006-02-22 18:00,ZGKL 221800Z AUTO 02008KT 7SM 09/06 A3027 RMK SLP256 T00860062 57011 IEM_DS3505
ZGKL,2006-02-22 19:00,ZGKL 221900Z AUTO 05004KT 09/06 A3024 RMK SLP247 T00900060 IEM_DS3505
ZGKL,2006-02-22 20:00,ZGKL 222000Z AUTO 36002KT 09/06 A3021 RMK SLP237 T00900060 IEM_DS3505
ZGKL,2006-02-22 21:00,ZGKL 222100Z AUTO 02006KT 6SM 08/06 A3021 RMK 70004 SLP241 T00850060 57015 IEM_DS3505
ZGKL,2006-02-22 22:00,ZGKL 222200Z AUTO 05002KT 5SM 09/07 A3021 RMK SLP237 T00900070 IEM_DS3505
ZGKL,2006-02-22 23:00,ZGKL 222300Z AUTO 05002KT 7SM 09/07 A3021 RMK SLP237 T00900070 IEM_DS3505
ZGKL,2006-02-23 00:00,ZGKL 230000Z AUTO 02004KT 6SM 09/06 A3021 RMK 60002 70003 SLP242 T00890062 52001 IEM_DS3505
ZGKL,2006-02-23 01:00,ZGKL 230100Z AUTO 00000KT 7SM 09/07 A3021 RMK SLP237 T00900070 IEM_DS3505
ZGKL,2006-02-23 02:00,ZGKL 230200Z AUTO 31002KT 7SM 10/07 A3024 RMK SLP246 T01000070 IEM_DS3505
ZGKL,2006-02-23 03:00,ZGKL 230300Z AUTO 04004KT 6SM 10/06 A3024 RMK SLP253 T00980063 52011 IEM_DS3505
ZGKL,2006-02-23 04:00,ZGKL 230400Z AUTO 07002KT 7SM 11/07 A3024 RMK SLP245 T01100070 IEM_DS3505
ZGKL,2006-02-23 05:00,ZGKL 230500Z AUTO 02004KT 7SM 11/07 A3021 RMK SLP235 T01100070 IEM_DS3505
ZGKL,2006-02-23 06:00,ZGKL 230600Z AUTO 02006KT 4SM 09/07 A3021 RMK 60000 SLP240 T00930067 57013 IEM_DS3505
ZGKL,2006-02-23 07:00,ZGKL 230700Z AUTO 07006KT 4SM 10/07 A3018 RMK SLP226 T01000070 IEM_DS3505
ZGKL,2006-02-23 08:00,ZGKL 230800Z AUTO 06004KT 2 1/2SM 10/08 A3018 RMK SLP226 T01000080 IEM_DS3505
ZGKL,2006-02-23 09:00,ZGKL 230900Z AUTO 02006KT 5SM 09/07 A3015 RMK SLP226 T00910069 57014 IEM_DS3505
ZGKL,2006-02-23 10:00,ZGKL 231000Z AUTO 07004KT 2SM 10/08 A3018 RMK SLP226 T01000080 IEM_DS3505
ZGKL,2006-02-23 11:00,ZGKL 231100Z AUTO 03002KT 2SM 09/08 A3018 RMK SLP226 T00900080 IEM_DS3505
ZGKL,2006-02-23 12:00,ZGKL 231200Z AUTO 36008KT 7SM 09/06 A3018 RMK 60000 SLP233 T00890065 52007 IEM_DS3505
ZGKL,2006-02-23 13:00,ZGKL 231300Z AUTO 05004KT 2SM 09/08 A3021 RMK SLP237 T00900080 IEM_DS3505
ZGKL,2006-02-23 14:00,ZGKL 231400Z AUTO 05004KT 3SM 09/07 A3021 RMK SLP237 T00900070 IEM_DS3505
ZGKL,2006-02-23 15:00,ZGKL 231500Z AUTO 36006KT 7SM 09/06 A3021 RMK SLP244 T00880062 52011 IEM_DS3505
ZGKL,2006-02-23 16:00,ZGKL 231600Z AUTO 08004KT 4SM 09/07 A3021 RMK SLP237 T00900070 IEM_DS3505
ZGKL,2006-02-23 17:00,ZGKL 231700Z AUTO 32002KT 09/07 A3021 RMK SLP237 T00900070 IEM_DS3505
ZGKL,2006-02-23 18:00,ZGKL 231800Z AUTO 02008KT 7SM 09/06 A3021 RMK 60000 SLP244 T00880061 54000 IEM_DS3505
ZGKL,2006-02-23 19:00,ZGKL 231900Z AUTO 11002KT 09/07 A3021 RMK SLP237 T00900070 IEM_DS3505
ZGKL,2006-02-23 20:00,ZGKL 232000Z AUTO 00000KT 09/07 A3018 RMK SLP226 T00900070 IEM_DS3505
ZGKL,2006-02-23 21:00,ZGKL 232100Z AUTO 02006KT 7SM 09/06 A3018 RMK 70000 SLP231 T00870058 57013 IEM_DS3505
ZGKL,2006-02-23 22:00,ZGKL 232200Z AUTO 00000KT 4SM 09/07 A3018 RMK SLP226 T00900070 IEM_DS3505
ZGKL,2006-02-23 23:00,ZGKL 232300Z AUTO 06002KT 4SM 08/07 A3018 RMK SLP227 T00800070 IEM_DS3505
ZGKL,2006-02-24 00:00,ZGKL 240000Z AUTO 02004KT 9SM 08/06 A3021 RMK 60000 70000 SLP237 T00830061 52006 IEM_DS3505
ZGKL,2006-02-24 01:00,ZGKL 240100Z AUTO 36002KT 7SM 09/07 A3021 RMK SLP237 T00900070 IEM_DS3505
ZGKL,2006-02-24 02:00,ZGKL 240200Z AUTO 11002KT 4SM 09/07 A3024 RMK SLP247 T00900070 IEM_DS3505
ZGKL,2006-02-24 03:00,ZGKL 240300Z AUTO 36004KT 6SM 08/06 A3024 RMK SLP248 T00840065 52010 IEM_DS3505
ZGKL,2006-02-24 04:00,ZGKL 240400Z AUTO 15002KT 3SM 09/08 A3021 RMK SLP237 T00900080 IEM_DS3505
ZGKL,2006-02-24 05:00,ZGKL 240500Z AUTO 20002KT 3SM 09/08 A3018 RMK SLP226 T00900080 IEM_DS3505
ZGKL,2006-02-24 06:00,ZGKL 240600Z AUTO 02004KT 4SM 08/07 A3015 RMK 60012 SLP222 T00820073 57025 IEM_DS3505
ZGKL,2006-02-24 07:00,ZGKL 240700Z AUTO 11002KT 4SM 09/08 A3012 RMK SLP207 T00900080 IEM_DS3505
ZGKL,2006-02-24 08:00,ZGKL 240800Z AUTO 08004KT 3SM 09/07 A3009 RMK SLP197 T00900070 IEM_DS3505
ZGKL,2006-02-24 09:00,ZGKL 240900Z AUTO 04004KT 4SM 08/07 A3012 RMK SLP206 T00800069 57016 IEM_DS3505
ZGKL,2006-02-24 10:00,ZGKL 241000Z AUTO 07002KT 2 1/2SM 08/08 A3012 RMK SLP208 T00800080 IEM_DS3505
ZGKL,2006-02-24 11:00,ZGKL 241100Z AUTO 05004KT 2 1/2SM 08/08 A3009 RMK SLP197 T00800080 IEM_DS3505
ZGKL,2006-02-24 12:00,ZGKL 241200Z AUTO 02004KT 6SM 08/06 A3012 RMK 60028 SLP217 T00790064 52011 IEM_DS3505
ZGKL,2006-02-24 13:00,ZGKL 241300Z AUTO 00000KT 1 1/4SM 08/07 A3015 RMK SLP218 T00800070 IEM_DS3505
ZGKL,2006-02-24 14:00,ZGKL 241400Z AUTO 06006KT 3SM 08/07 A3015 RMK SLP218 T00800070 IEM_DS3505
ZGKL,2006-02-24 15:00,ZGKL 241500Z AUTO 04004KT 4SM 07/06 A3015 RMK SLP223 T00740062 52005 IEM_DS3505
ZGKL,2006-02-24 16:00,ZGKL 241600Z AUTO 05004KT 4SM 08/07 A3015 RMK SLP218 T00800070 IEM_DS3505
ZGKL,2006-02-24 18:00,ZGKL 241800Z AUTO 02004KT 4SM 07/06 A3013 RMK 60028 SLP210 T00730059 57012 IEM_DS3505
ZGKL,2006-02-24 21:00,ZGKL 242100Z AUTO 32004KT 4SM 07/06 A3006 RMK 70110 SLP198 T00700064 57012 IEM_DS3505
ZGKL,2006-02-24 22:00,ZGKL 242200Z AUTO 15002KT 2 1/2SM 07/07 A3009 RMK SLP198 T00700070 IEM_DS3505
ZGKL,2006-02-24 23:00,ZGKL 242300Z AUTO 23002KT 3SM 07/07 A3009 RMK SLP198 T00700070 IEM_DS3505
ZGKL,2006-02-25 00:00,ZGKL 250000Z AUTO 04002KT 5SM 07/06 A3009 RMK 60087 70152 SLP205 T00710065 52007 IEM_DS3505
ZGKL,2006-02-25 01:00,ZGKL 250100Z AUTO 06002KT 2 1/2SM 08/07 A3012 RMK SLP208 T00800070 IEM_DS3505
ZGKL,2006-02-25 02:00,ZGKL 250200Z AUTO 07002KT 3SM 08/07 A3015 RMK SLP218 T00800070 IEM_DS3505
ZGKL,2006-02-25 03:00,ZGKL 250300Z AUTO 36002KT 7SM 08/07 A3015 RMK SLP216 T00830071 52011 IEM_DS3505
ZGKL,2006-02-25 04:00,ZGKL 250400Z AUTO 10002KT 4SM 09/08 A3012 RMK SLP207 T00900080 IEM_DS3505
ZGKL,2006-02-25 05:00,ZGKL 250500Z AUTO 27002KT 6SM 10/07 A3006 RMK SLP186 T01000070 IEM_DS3505
ZGKL,2006-02-25 06:00,ZGKL 250600Z AUTO 07004KT 11SM 12/07 A3003 RMK 60004 SLP180 T01200073 57034 IEM_DS3505
ZGKL,2006-02-25 07:00,ZGKL 250700Z AUTO 00000KT 7SM 11/08 A3000 RMK SLP164 T01100080 IEM_DS3505
ZGKL,2006-02-25 08:00,ZGKL 250800Z AUTO 14002KT 7SM 12/07 A3000 RMK SLP163 T01200070 IEM_DS3505
ZGKL,2006-02-25 09:00,ZGKL 250900Z AUTO 16002KT 11SM 13/08 A3000 RMK SLP163 T01290084 57017 IEM_DS3505
ZGKL,2006-02-25 10:00,ZGKL 251000Z AUTO 00000KT 7SM 12/09 A3000 RMK SLP163 T01200090 IEM_DS3505
ZGKL,2006-02-25 11:00,ZGKL 251100Z AUTO 29004KT 7SM 12/09 A3000 RMK SLP163 T01200090 IEM_DS3505
ZGKL,2006-02-25 12:00,ZGKL 251200Z AUTO 04004KT 11SM 11/07 A3003 RMK SLP178 T01120073 52014 IEM_DS3505
ZGKL,2006-02-25 13:00,ZGKL 251300Z AUTO 03002KT 4SM 11/09 A3006 RMK SLP185 T01100090 IEM_DS3505
ZGKL,2006-02-25 14:00,ZGKL 251400Z AUTO 04002KT 4SM 10/08 A3006 RMK SLP186 T01000080 IEM_DS3505
ZGKL,2006-02-25 15:00,ZGKL 251500Z AUTO 02004KT 10SM 10/07 A3009 RMK SLP196 T00950068 52018 IEM_DS3505
ZGKL,2006-02-25 16:00,ZGKL 251600Z AUTO 02002KT 4SM 09/07 A3009 RMK SLP197 T00900070 IEM_DS3505
ZGKL,2006-02-25 17:00,ZGKL 251700Z AUTO 33002KT 10/07 A3009 RMK SLP196 T01000070 IEM_DS3505
ZGKL,2006-02-25 18:00,ZGKL 251800Z AUTO 02004KT 10SM 10/07 A3006 RMK SLP192 T00960067 57003 IEM_DS3505
ZGKL,2006-02-25 19:00,ZGKL 251900Z AUTO 33002KT 10/08 A3006 RMK SLP186 T01000080 IEM_DS3505
ZGKL,2006-02-25 20:00,ZGKL 252000Z AUTO 01002KT 10/08 A3006 RMK SLP186 T01000080 IEM_DS3505
ZGKL,2006-02-25 21:00,ZGKL 252100Z AUTO 02006KT 10SM 10/06 A3003 RMK 70046 SLP183 T00980065 57008 IEM_DS3505
ZGKL,2006-02-25 22:00,ZGKL 252200Z AUTO 36002KT 3SM 10/08 A3006 RMK SLP186 T01000080 IEM_DS3505
ZGKL,2006-02-25 23:00,ZGKL 252300Z AUTO 30002KT 3SM 10/08 A3006 RMK SLP186 T01000080 IEM_DS3505
ZGKL,2006-02-26 00:00,ZGKL 260000Z AUTO 02006KT 9SM 10/06 A3009 RMK 70004 SLP204 T01000063 52020 IEM_DS3505
ZGKL,2006-02-26 01:00,ZGKL 260100Z AUTO 02004KT 5SM 11/07 A3012 RMK SLP206 T01100070 IEM_DS3505
ZGKL,2006-02-26 02:00,ZGKL 260200Z AUTO 06008KT 5SM 12/07 A3012 RMK SLP205 T01200070 IEM_DS3505
ZGKL,2006-02-26 03:00,ZGKL 260300Z AUTO 02012KT 9SM 13/07 A3012 RMK SLP211 T01310067 52007 IEM_DS3505
ZGKL,2006-02-26 04:00,ZGKL 260400Z AUTO 05008KT 5SM 13/08 A3012 RMK SLP204 T01300080 IEM_DS3505
ZGKL,2006-02-26 05:00,ZGKL 260500Z AUTO 05010KT 5SM 14/07 A3009 RMK SLP193 T01400070 IEM_DS3505
ZGKL,2006-02-26 06:00,ZGKL 260600Z AUTO 02008KT 9SM 13/07 A3006 RMK SLP185 T01280068 57025 IEM_DS3505
ZGKL,2006-02-26 07:00,ZGKL 260700Z AUTO 06006KT 5SM 13/07 A3003 RMK SLP172 T01300070 IEM_DS3505
ZGKL,2006-02-26 08:00,ZGKL 260800Z AUTO 06004KT 3SM 12/09 A3000 RMK SLP163 T01200090 IEM_DS3505
ZGKL,2006-02-26 09:00,ZGKL 260900Z AUTO 02008KT 6SM 10/08 A3000 RMK SLP173 T01050079 57013 IEM_DS3505
ZGKL,2006-02-26 10:00,ZGKL 261000Z AUTO 06006KT 2 1/2SM 10/09 A3003 RMK SLP175 T01000090 IEM_DS3505
ZGKL,2006-02-26 11:00,ZGKL 261100Z AUTO 05004KT 2 1/2SM 10/08 A3003 RMK SLP175 T01000080 IEM_DS3505
ZGKL,2006-02-26 12:00,ZGKL 261200Z AUTO 02002KT 5SM 10/08 A3006 RMK 60008 SLP193 T00980081 52019 IEM_DS3505
ZGKL,2006-02-26 13:00,ZGKL 261300Z AUTO 07002KT 2 1/2SM 10/09 A3009 RMK SLP196 T01000090 IEM_DS3505
ZGKL,2006-02-26 14:00,ZGKL 261400Z AUTO 34004KT 2 1/2SM 10/09 A3012 RMK SLP206 T01000090 IEM_DS3505
ZGKL,2006-02-26 15:00,ZGKL 261500Z AUTO 36004KT 5SM 10/08 A3012 RMK SLP205 T00970080 52013 IEM_DS3505
ZGKL,2006-02-26 16:00,ZGKL 261600Z AUTO 23002KT 10/09 A3012 RMK T01000090 IEM_DS3505
ZGKL,2006-02-26 17:00,ZGKL 261700Z AUTO 00000KT 10/09 A3009 RMK SLP196 T01000090 IEM_DS3505
ZGKL,2006-02-26 18:00,ZGKL 261800Z AUTO 36004KT 5SM 10/08 A3009 RMK 60012 SLP197 T00950083 57008 IEM_DS3505
ZGKL,2006-02-26 19:00,ZGKL 261900Z AUTO 00000KT 09/09 A3006 RMK SLP187 T00900090 IEM_DS3505
ZGKL,2006-02-26 20:00,ZGKL 262000Z AUTO 00000KT 09/08 A3003 RMK SLP175 T00900080 IEM_DS3505
ZGKL,2006-02-26 21:00,ZGKL 262100Z AUTO 02004KT 5SM 10/08 A3003 RMK 70020 SLP177 T00990080 57020 IEM_DS3505
ZGKL,2006-02-26 22:00,ZGKL 262200Z AUTO 00000KT 2 1/2SM 09/09 A3003 RMK SLP175 T00900090 IEM_DS3505
ZGKL,2006-02-26 23:00,ZGKL 262300Z AUTO 02002KT 1 1/4SM 09/09 A3003 RMK SLP175 T00900090 IEM_DS3505
ZGKL,2006-02-27 00:00,ZGKL 270000Z AUTO 36006KT 4SM 09/08 A3006 RMK 60028 70044 SLP193 T00920078 52015 IEM_DS3505
ZGKL,2006-02-27 01:00,ZGKL 270100Z AUTO 36002KT 2SM 09/09 A3009 RMK SLP197 T00900090 IEM_DS3505
ZGKL,2006-02-27 02:00,ZGKL 270200Z AUTO 36004KT 2SM 09/09 A3012 RMK SLP207 T00900090 IEM_DS3505
ZGKL,2006-02-27 03:00,ZGKL 270300Z AUTO 02006KT 4SM 09/07 A3012 RMK SLP213 T00870073 52020 IEM_DS3505
ZGKL,2006-02-27 04:00,ZGKL 270400Z AUTO 06004KT 2 1/2SM 09/08 A3012 RMK SLP207 T00900080 IEM_DS3505
ZGKL,2006-02-27 05:00,ZGKL 270500Z AUTO 07006KT 2 1/2SM 09/08 A3009 RMK SLP197 T00900080 IEM_DS3505
ZGKL,2006-02-27 06:00,ZGKL 270600Z AUTO 02010KT 9SM 08/07 A3009 RMK 60087 SLP196 T00840069 57017 IEM_DS3505
ZGKL,2006-02-27 07:00,ZGKL 270700Z AUTO 06008KT 4SM 09/08 A3006 RMK SLP187 T00900080 IEM_DS3505
ZGKL,2006-02-27 08:00,ZGKL 270800Z AUTO 07008KT 7SM 08/07 A3003 RMK SLP176 T00800070 IEM_DS3505
ZGKL,2006-02-27 09:00,ZGKL 270900Z AUTO 36010KT 9SM 08/05 A3006 RMK SLP192 T00750053 57004 IEM_DS3505
ZGKL,2006-02-27 10:00,ZGKL 271000Z AUTO 04008KT 7SM 08/06 A3006 RMK SLP187 T00800060 IEM_DS3505
ZGKL,2006-02-27 11:00,ZGKL 271100Z AUTO 05006KT 3SM 07/06 A3009 RMK SLP198 T00700060 IEM_DS3505
ZGKL,2006-02-27 12:00,ZGKL 271200Z AUTO 02010KT 6SM 06/04 A3012 RMK 60028 SLP219 T00600043 52025 IEM_DS3505
ZGKL,2006-02-27 13:00,ZGKL 271300Z AUTO 04004KT 7SM 06/05 A3018 RMK SLP229 T00600050 IEM_DS3505
ZGKL,2006-02-27 14:00,ZGKL 271400Z AUTO 05006KT 7SM 07/05 A3018 RMK SLP228 T00700050 IEM_DS3505
ZGKL,2006-02-27 15:00,ZGKL 271500Z AUTO 04014KT 6SM 06/02 A3021 RMK SLP243 T00580023 52024 IEM_DS3505
ZGKL,2006-02-27 16:00,ZGKL 271600Z AUTO 06008KT 7SM 06/04 A3021 RMK SLP239 T00600040 IEM_DS3505
ZGKL,2006-02-27 17:00,ZGKL 271700Z AUTO 06008KT 7SM 06/04 A3024 RMK SLP249 T00600040 IEM_DS3505
ZGKL,2006-02-27 18:00,ZGKL 271800Z AUTO 36012KT 7SM 04/02 A3024 RMK 60002 SLP254 T00380015 52010 IEM_DS3505
ZGKL,2006-02-27 19:00,ZGKL 271900Z AUTO 03006KT 04/03 A3024 RMK SLP250 T00400030 IEM_DS3505
ZGKL,2006-02-27 20:00,ZGKL 272000Z AUTO 05006KT 04/03 A3024 RMK SLP250 T00400030 IEM_DS3505
ZGKL,2006-02-27 21:00,ZGKL 272100Z AUTO 02010KT 5SM 03/01 A3024 RMK 70159 SLP259 T00300011 52004 IEM_DS3505
ZGKL,2006-02-27 22:00,ZGKL 272200Z AUTO 04006KT 4SM 04/02 A3027 RMK SLP262 T00400020 IEM_DS3505
ZGKL,2006-02-27 23:00,ZGKL 272300Z AUTO 06010KT 7SM 03/02 A3030 RMK SLP273 T00300020 IEM_DS3505
ZGKL,2006-02-28 00:00,ZGKL 280000Z AUTO 02008KT 11SM 03/01 A3030 RMK 60031 70152 SLP279 T00330007 52019 IEM_DS3505
ZGKL,2006-02-28 01:00,ZGKL 280100Z AUTO 01004KT 7SM 04/02 A3033 RMK SLP282 T00400020 IEM_DS3505
ZGKL,2006-02-28 02:00,ZGKL 280200Z AUTO 03004KT 7SM 04/02 A3036 RMK SLP291 T00400020 IEM_DS3505
ZGKL,2006-02-28 03:00,ZGKL 280300Z AUTO 02010KT 10SM 03/01 A3033 RMK SLP291 T00340008 52012 IEM_DS3505
ZGKL,2006-02-28 04:00,ZGKL 280400Z AUTO 04008KT 7SM 07/02 A3033 RMK SLP280 T00700020 IEM_DS3505
ZGKL,2006-02-28 05:00,ZGKL 280500Z AUTO 06012KT 7SM 06/01 A3030 RMK SLP270 T00600010 IEM_DS3505
ZGKL,2006-02-28 06:00,ZGKL 280600Z AUTO 02012KT 12SM 05/01 A3030 RMK 60002 SLP276 T00480007 57015 IEM_DS3505
ZGKL,2006-02-28 07:00,ZGKL 280700Z AUTO 06012KT 7SM 06/01 A3027 RMK SLP260 T00600010 IEM_DS3505
ZGKL,2006-02-28 08:00,ZGKL 280800Z AUTO 05012KT 7SM 05/01 A3027 RMK SLP261 T00500010 IEM_DS3505
ZGKL,2006-02-28 09:00,ZGKL 280900Z AUTO 02010KT 11SM 04/M00 A3027 RMK SLP277 T00401002 54000 IEM_DS3505
ZGKL,2006-02-28 10:00,ZGKL 281000Z AUTO 06014KT 7SM 04/00 A3030 RMK SLP272 T00400000 IEM_DS3505
ZGKL,2006-02-28 11:00,ZGKL 281100Z AUTO 04008KT 5SM 04/00 A3033 RMK SLP282 T00400000 IEM_DS3505
ZGKL,2006-02-28 12:00,ZGKL 281200Z AUTO 02008KT 9SM 04/M01 A3036 RMK SLP299 T00361006 52022 IEM_DS3505
ZGKL,2006-02-28 13:00,ZGKL 281300Z AUTO 02006KT 5SM 04/00 A3039 RMK SLP301 T00400000 IEM_DS3505
ZGKL,2006-02-28 14:00,ZGKL 281400Z AUTO 36004KT 5SM 04/00 A3042 RMK SLP312 T00400000 IEM_DS3505
ZGKL,2006-02-28 15:00,ZGKL 281500Z AUTO 02008KT 9SM 04/M01 A3042 RMK SLP316 T00361012 52016 IEM_DS3505
ZGKL,2006-02-28 16:00,ZGKL 281600Z AUTO 05004KT 5SM 04/00 A3042 RMK SLP312 T00400000 IEM_DS3505
ZGKL,2006-02-28 17:00,ZGKL 281700Z AUTO 05006KT 4SM 04/00 A3039 RMK SLP301 T00400000 IEM_DS3505
ZGKL,2006-02-28 18:00,ZGKL 281800Z AUTO 02010KT 9SM 03/M01 A3039 RMK SLP306 T00331011 57009 IEM_DS3505
ZGKL,2006-02-28 19:00,ZGKL 281900Z AUTO 02002KT 04/00 A3039 RMK SLP301 T00400000 IEM_DS3505
ZGKL,2006-02-28 20:00,ZGKL 282000Z AUTO 01002KT 04/M01 A3036 RMK SLP291 T00401010 IEM_DS3505
ZGKL,2006-02-28 21:00,ZGKL 282100Z AUTO 02008KT 7SM 03/M02 A3036 RMK 70018 SLP293 T00321015 57013 IEM_DS3505
ZGKL,2006-02-28 22:00,ZGKL 282200Z AUTO 34004KT 6SM 04/M01 A3036 RMK SLP291 T00401010 IEM_DS3505
ZGKL,2006-02-28 23:00,ZGKL 282300Z AUTO 36004KT 6SM 04/00 A3039 RMK SLP301 T00400000 IEM_DS3505
ZGKL,2006-03-01 00:00,ZGKL 010000Z AUTO 02012KT 9SM 03/M02 A3039 RMK 70002 SLP307 T00341021 52014 IEM_DS3505
ZGKL,2006-03-01 01:00,ZGKL 010100Z AUTO 03004KT 6SM 05/M02 A3042 RMK SLP311 T00501020 IEM_DS3505
ZGKL,2006-03-01 02:00,ZGKL 010200Z AUTO 02010KT 6SM 07/M02 A3042 RMK SLP309 T00701020 IEM_DS3505
ZGKL,2006-03-01 03:00,ZGKL 010300Z AUTO 02014KT 11SM 07/M03 A3042 RMK SLP310 T00691033 52004 IEM_DS3505
ZGKL,2006-03-01 04:00,ZGKL 010400Z AUTO 08010KT 6SM 09/M03 A3036 RMK SLP288 T00901030 IEM_DS3505
ZGKL,2006-03-01 05:00,ZGKL 010500Z AUTO 07010KT 6SM 10/M02 A3033 RMK SLP278 T01001020 IEM_DS3505
ZGKL,2006-03-01 06:00,ZGKL 010600Z AUTO 07012KT 11SM 11/M03 A3030 RMK SLP274 T01091032 57034 IEM_DS3505
ZGKL,2006-03-01 07:00,ZGKL 010700Z AUTO 07010KT 6SM 12/M01 A3027 RMK SLP256 T01201010 IEM_DS3505
ZGKL,2006-03-01 08:00,ZGKL 010800Z AUTO 07008KT 6SM 12/M01 A3024 RMK SLP245 T01201010 IEM_DS3505
ZGKL,2006-03-01 09:00,ZGKL 010900Z AUTO 04008KT 11SM 12/M03 A3024 RMK SLP248 T01201030 57025 IEM_DS3505
ZGKL,2006-03-01 10:00,ZGKL 011000Z AUTO 06008KT 6SM 11/M01 A3024 RMK SLP245 T01101010 IEM_DS3505
ZGKL,2006-03-01 11:00,ZGKL 011100Z AUTO 04006KT 6SM 10/M01 A3024 RMK SLP246 T01001010 IEM_DS3505
ZGKL,2006-03-01 12:00,ZGKL 011200Z AUTO 02004KT 10SM 09/00 A3027 RMK SLP262 T00880000 52012 IEM_DS3505
ZGKL,2006-03-01 13:00,ZGKL 011300Z AUTO 01004KT 6SM 09/M01 A3030 RMK SLP268 T00901010 IEM_DS3505
ZGKL,2006-03-01 14:00,ZGKL 011400Z AUTO 02008KT 6SM 09/M01 A3030 RMK SLP268 T00901010 IEM_DS3505
ZGKL,2006-03-01 15:00,ZGKL 011500Z AUTO 04004KT 9SM 08/M01 A3030 RMK SLP276 T00811009 52015 IEM_DS3505
ZGKL,2006-03-01 16:00,ZGKL 011600Z AUTO 01006KT 08/00 A3033 RMK SLP279 T00800000 IEM_DS3505
ZGKL,2006-03-01 17:00,ZGKL 011700Z AUTO 04002KT 08/00 A3030 RMK SLP269 T00800000 IEM_DS3505
ZGKL,2006-03-01 18:00,ZGKL 011800Z AUTO 36004KT 9SM 08/M01 A3030 RMK SLP275 T00771013 54000 IEM_DS3505
ZGKL,2006-03-01 19:00,ZGKL 011900Z AUTO 36004KT 08/00 A3030 RMK SLP269 T00800000 IEM_DS3505
ZGKL,2006-03-01 20:00,ZGKL 012000Z AUTO 35002KT 08/02 A3027 RMK SLP259 T00800020 IEM_DS3505
ZGKL,2006-03-01 21:00,ZGKL 012100Z AUTO 04002KT 9SM 07/M00 A3027 RMK SLP256 T00721003 57018 IEM_DS3505
ZGKL,2006-03-01 22:00,ZGKL 012200Z AUTO 26002KT 6SM 07/03 A3027 RMK SLP259 T00700030 IEM_DS3505
ZGKL,2006-03-01 23:00,ZGKL 012300Z AUTO 28002KT 6SM 07/03 A3027 RMK SLP259 T00700030 IEM_DS3505
ZGKL,2006-03-02 00:00,ZGKL 020000Z AUTO 36002KT 9SM 07/00 A3027 RMK SLP268 T00660003 52010 IEM_DS3505
ZGKL,2006-03-02 01:00,ZGKL 020100Z AUTO 36002KT 6SM 09/02 A3030 RMK SLP268 T00900020 IEM_DS3505
ZGKL,2006-03-02 02:00,ZGKL 020200Z AUTO 02004KT 6SM 10/01 A3030 RMK SLP267 T01000010 IEM_DS3505
ZGKL,2006-03-02 03:00,ZGKL 020300Z AUTO 34004KT 9SM 12/M02 A3030 RMK SLP262 T01241022 57004 IEM_DS3505
ZGKL,2006-03-02 04:00,ZGKL 020400Z AUTO 31004KT 6SM 13/00 A3027 RMK SLP255 T01300000 IEM_DS3505
ZGKL,2006-03-02 05:00,ZGKL 020500Z AUTO 03002KT 6SM 15/M02 A3021 RMK SLP232 T01501020 IEM_DS3505
ZGKL,2006-03-02 06:00,ZGKL 020600Z AUTO 14002KT 10SM 16/M03 A3018 RMK SLP223 T01591031 57037 IEM_DS3505
ZGKL,2006-03-02 07:00,ZGKL 020700Z AUTO 15004KT 6SM 16/M04 A3012 RMK SLP202 T01601040 IEM_DS3505
ZGKL,2006-03-02 08:00,ZGKL 020800Z AUTO 13002KT 6SM 17/M03 A3012 RMK SLP201 T01701030 IEM_DS3505
ZGKL,2006-03-02 09:00,ZGKL 020900Z AUTO 14002KT 12SM 17/M04 A3009 RMK SLP193 T01741045 57029 IEM_DS3505
ZGKL,2006-03-02 10:00,ZGKL 021000Z AUTO 14002KT 6SM 16/M03 A3009 RMK SLP192 T01601030 IEM_DS3505
ZGKL,2006-03-02 11:00,ZGKL 021100Z AUTO 21002KT 6SM 15/02 A3009 RMK SLP193 T01500020 IEM_DS3505
ZGKL,2006-03-02 12:00,ZGKL 021200Z AUTO 32002KT 10SM 12/02 A3009 RMK SLP203 T01190015 52008 IEM_DS3505
ZGKL,2006-03-02 13:00,ZGKL 021300Z AUTO 34002KT 4SM 10/05 A3012 RMK SLP206 T01000050 IEM_DS3505
ZGKL,2006-03-02 14:00,ZGKL 021400Z AUTO 32004KT 4SM 09/04 A3015 RMK SLP217 T00900040 IEM_DS3505
ZGKL,2006-03-02 15:00,ZGKL 021500Z AUTO 04002KT 9SM 10/00 A3015 RMK SLP219 T00960005 52017 IEM_DS3505
ZGKL,2006-03-02 16:00,ZGKL 021600Z AUTO 35002KT 07/04 A3015 RMK SLP219 T00700040 IEM_DS3505
ZGKL,2006-03-02 17:00,ZGKL 021700Z AUTO 32002KT 06/04 A3015 RMK SLP219 T00600040 IEM_DS3505
ZGKL,2006-03-02 18:00,ZGKL 021800Z AUTO 36002KT 8SM 06/01 A3015 RMK SLP217 T00640011 57002 IEM_DS3505
ZGKL,2006-03-02 20:00,ZGKL 022000Z AUTO 00000KT 04/02 A3012 RMK SLP211 T00400020 IEM_DS3505
ZGKL,2006-03-02 21:00,ZGKL 022100Z AUTO 02002KT 8SM 05/01 A3012 RMK SLP212 T00470012 57005 IEM_DS3505
ZGKL,2006-03-02 22:00,ZGKL 022200Z AUTO 04002KT 2SM 03/01 A3015 RMK SLP222 T00300010 IEM_DS3505
ZGKL,2006-03-02 23:00,ZGKL 022300Z AUTO 00000KT 2SM 02/01 A3015 RMK SLP222 T00200010 IEM_DS3505
ZGKL,2006-03-03 00:00,ZGKL 030000Z AUTO 04002KT 7SM 05/02 A3018 RMK SLP236 T00510023 52022 IEM_DS3505
ZGKL,2006-03-03 01:00,ZGKL 030100Z AUTO 03002KT 3SM 06/03 A3021 RMK SLP239 T00600030 IEM_DS3505
ZGKL,2006-03-03 02:00,ZGKL 030200Z AUTO 06002KT 6SM 10/04 A3021 RMK SLP236 T01000040 IEM_DS3505
ZGKL,2006-03-03 03:00,ZGKL 030300Z AUTO 02002KT 6SM 14/00 A3021 RMK SLP237 T01390002 52003 IEM_DS3505
ZGKL,2006-03-03 04:00,ZGKL 030400Z AUTO 02002KT 6SM 16/02 A3018 RMK SLP221 T01600020 IEM_DS3505
ZGKL,2006-03-03 05:00,ZGKL 030500Z AUTO 31004KT 6SM 18/02 A3012 RMK SLP201 T01800020 IEM_DS3505
ZGKL,2006-03-03 06:00,ZGKL 030600Z AUTO 16004KT 11SM 19/M01 A3009 RMK SLP194 T01901009 57042 IEM_DS3505
ZGKL,2006-03-03 07:00,ZGKL 030700Z AUTO 17004KT 6SM 20/00 A3006 RMK SLP179 T02000000 IEM_DS3505
ZGKL,2006-03-03 08:00,ZGKL 030800Z AUTO 08006KT 6SM 20/00 A3000 RMK SLP158 T02000000 IEM_DS3505
ZGKL,2006-03-03 09:00,ZGKL 030900Z AUTO 16004KT 14SM 21/M04 A2997 RMK SLP159 T02071037 57034 IEM_DS3505
ZGKL,2006-03-03 10:00,ZGKL 031000Z AUTO 00000KT 6SM 20/00 A2997 RMK SLP147 T02000000 IEM_DS3505
ZGKL,2006-03-03 11:00,ZGKL 031100Z AUTO 31002KT 6SM 17/07 A2997 RMK SLP149 T01700070 IEM_DS3505
ZGKL,2006-03-03 12:00,ZGKL 031200Z AUTO 29002KT 10SM 14/04 A3000 RMK SLP169 T01410041 52008 IEM_DS3505
ZGKL,2006-03-03 13:00,ZGKL 031300Z AUTO 00000KT 5SM 13/09 A3003 RMK SLP172 T01300090 IEM_DS3505
ZGKL,2006-03-03 14:00,ZGKL 031400Z AUTO 01002KT 4SM 12/08 A3006 RMK SLP184 T01200080 IEM_DS3505
ZGKL,2006-03-03 15:00,ZGKL 031500Z AUTO 29002KT 9SM 12/04 A3006 RMK SLP187 T01230040 52020 IEM_DS3505
ZGKL,2006-03-03 16:00,ZGKL 031600Z AUTO 00000KT 11/09 A3006 RMK SLP185 T01100090 IEM_DS3505
ZGKL,2006-03-03 17:00,ZGKL 031700Z AUTO 10002KT 11/08 A3006 RMK SLP185 T01100080 IEM_DS3505
ZGKL,2006-03-03 18:00,ZGKL 031800Z AUTO 02002KT 8SM 12/06 A3006 RMK 60000 SLP185 T01160057 57001 IEM_DS3505
ZGKL,2006-03-03 19:00,ZGKL 031900Z AUTO 31004KT 11/09 A3006 RMK SLP185 T01100090 IEM_DS3505
ZGKL,2006-03-03 20:00,ZGKL 032000Z AUTO 01004KT 11/09 A3003 RMK SLP174 T01100090 IEM_DS3505
ZGKL,2006-03-03 21:00,ZGKL 032100Z AUTO 04002KT 7SM 12/06 A3004 RMK 70001 SLP179 T01160063 57005 IEM_DS3505
ZGKL,2006-03-03 22:00,ZGKL 032200Z AUTO 31002KT 4SM 11/09 A3006 RMK SLP185 T01100090 IEM_DS3505
ZGKL,2006-03-03 23:00,ZGKL 032300Z AUTO 02004KT 4SM 11/10 A3009 RMK SLP195 T01100100 IEM_DS3505
ZGKL,2006-03-04 00:00,ZGKL 040000Z AUTO 20002KT 8SM 11/07 A3009 RMK 60000 70001 SLP202 T01100071 52020 IEM_DS3505
ZGKL,2006-03-04 01:00,ZGKL 040100Z AUTO 03004KT 4SM 11/10 A3012 RMK SLP206 T01100100 IEM_DS3505
ZGKL,2006-03-04 02:00,ZGKL 040200Z AUTO 00000KT 4SM 12/09 A3015 RMK SLP215 T01200090 IEM_DS3505
ZGKL,2006-03-04 03:00,ZGKL 040300Z AUTO 34002KT 6SM 12/08 A3015 RMK SLP222 T01220085 52020 IEM_DS3505
ZGKL,2006-03-04 04:00,ZGKL 040400Z AUTO 36002KT 4SM 13/09 A3015 RMK SLP214 T01300090 IEM_DS3505
ZGKL,2006-03-04 05:00,ZGKL 040500Z AUTO 00000KT 4SM 14/08 A3009 RMK SLP193 T01400080 IEM_DS3505
ZGKL,2006-03-04 06:00,ZGKL 040600Z AUTO 14002KT 5SM 15/07 A3006 RMK SLP188 T01540072 57033 IEM_DS3505
ZGKL,2006-03-04 07:00,ZGKL 040700Z AUTO 21002KT 4SM 15/09 A3006 RMK SLP182 T01500090 IEM_DS3505
ZGKL,2006-03-04 08:00,ZGKL 040800Z AUTO 00000KT 4SM 15/08 A3003 RMK SLP171 T01500080 IEM_DS3505
ZGKL,2006-03-04 09:00,ZGKL 040900Z AUTO 07002KT 4SM 14/08 A3003 RMK SLP177 T01450078 57011 IEM_DS3505
ZGKL,2006-03-04 10:00,ZGKL 041000Z AUTO 03002KT 4SM 15/08 A3003 RMK SLP171 T01500080 IEM_DS3505
ZGKL,2006-03-04 11:00,ZGKL 041100Z AUTO 32002KT 3SM 14/10 A3003 RMK SLP172 T01400100 IEM_DS3505
ZGKL,2006-03-04 12:00,ZGKL 041200Z AUTO 25002KT 3SM 13/09 A3006 RMK SLP184 T01340087 52006 IEM_DS3505
ZGKL,2006-03-04 13:00,ZGKL 041300Z AUTO 11002KT 2 1/2SM 14/09 A3006 RMK SLP183 T01400090 IEM_DS3505
ZGKL,2006-03-04 14:00,ZGKL 041400Z AUTO 10002KT 2 1/2SM 13/10 A3009 RMK SLP194 T01300100 IEM_DS3505
ZGKL,2006-03-04 15:00,ZGKL 041500Z AUTO 36002KT 3SM 13/09 A3009 RMK SLP201 T01320091 52017 IEM_DS3505
ZGKL,2006-03-04 16:00,ZGKL 041600Z AUTO 36004KT 1SM 12/11 A3012 RMK SLP205 T01200110 IEM_DS3505
ZGKL,2006-03-04 18:00,ZGKL 041800Z AUTO 32002KT 3SM 12/10 A3010 RMK 60000 SLP198 T01190101 57002 IEM_DS3505
ZGKL,2006-03-04 20:00,ZGKL 042000Z AUTO 35004KT 11/11 A3006 RMK T01100110 IEM_DS3505
ZGKL,2006-03-04 21:00,ZGKL 042100Z AUTO 34002KT 1 1/4SM 11/10 A3006 RMK 70001 SLP187 T01130105 57011 IEM_DS3505
ZGKL,2006-03-04 22:00,ZGKL 042200Z AUTO 03002KT 1SM 11/11 A3006 RMK SLP185 T01100110 IEM_DS3505
ZGKL,2006-03-04 23:00,ZGKL 042300Z AUTO 00000KT 3/8SM 11/11 A3009 RMK SLP195 T01100110 IEM_DS3505
ZGKL,2006-03-05 00:00,ZGKL 050000Z AUTO 18002KT 1 1/4SM 11/11 A3009 RMK 60004 70005 SLP200 T01120107 52012 IEM_DS3505
ZGKL,2006-03-05 01:00,ZGKL 050100Z AUTO 34002KT 1/2SM 11/11 A3012 RMK SLP206 T01100110 IEM_DS3505
ZGKL,2006-03-05 02:00,ZGKL 050200Z AUTO 36002KT 1SM 12/11 A3012 RMK SLP205 T01200110 IEM_DS3505
ZGKL,2006-03-05 03:00,ZGKL 050300Z AUTO 04002KT 2SM 12/11 A3012 RMK SLP205 T01190111 52005 IEM_DS3505
ZGKL,2006-03-05 04:00,ZGKL 050400Z AUTO 03002KT 1SM 12/12 A3009 RMK SLP195 T01200120 IEM_DS3505
ZGKL,2006-03-05 05:00,ZGKL 050500Z AUTO 00000KT 1SM 13/12 A3006 RMK SLP184 T01300120 IEM_DS3505
ZGKL,2006-03-05 06:00,ZGKL 050600Z AUTO 04002KT 1SM 12/12 A3003 RMK 60002 SLP181 T01240116 57024 IEM_DS3505
ZGKL,2006-03-05 07:00,ZGKL 050700Z AUTO 34004KT 1/2SM 13/12 A3003 RMK SLP172 T01300120 IEM_DS3505
ZGKL,2006-03-05 08:00,ZGKL 050800Z AUTO 34002KT 1/2SM 13/12 A3000 RMK SLP162 T01300120 IEM_DS3505
ZGKL,2006-03-05 09:00,ZGKL 050900Z AUTO 09002KT 1SM 13/12 A3000 RMK SLP171 T01280122 57010 IEM_DS3505
ZGKL,2006-03-05 10:00,ZGKL 051000Z AUTO 00000KT 1/2SM 13/12 A3003 RMK SLP172 T01300120 IEM_DS3505
ZGKL,2006-03-05 11:00,ZGKL 051100Z AUTO 00000KT 3/8SM 13/12 A3003 RMK SLP172 T01300120 IEM_DS3505
ZGKL,2006-03-05 12:00,ZGKL 051200Z AUTO 34002KT 1SM 13/12 A3003 RMK 60008 SLP178 T01260121 52007 IEM_DS3505
ZGKL,2006-03-05 13:00,ZGKL 051300Z AUTO 00000KT 1/2SM 13/12 A3006 RMK SLP184 T01300120 IEM_DS3505
ZGKL,2006-03-05 14:00,ZGKL 051400Z AUTO 34002KT 3/8SM 13/12 A3006 RMK SLP184 T01300120 IEM_DS3505
ZGKL,2006-03-05 15:00,ZGKL 051500Z AUTO 25002KT 1SM 13/12 A3006 RMK SLP190 T01270124 52012 IEM_DS3505
ZGKL,2006-03-05 16:00,ZGKL 051600Z AUTO 00000KT 13/12 A3006 RMK T01300120 IEM_DS3505
ZGKL,2006-03-05 17:00,ZGKL 051700Z AUTO 00000KT 13/12 A3006 RMK T01300120 IEM_DS3505
ZGKL,2006-03-05 18:00,ZGKL 051800Z AUTO 22002KT 1/2SM 13/12 A3005 RMK 60016 SLP180 T01270124 57009 IEM_DS3505
ZGKL,2006-03-05 21:00,ZGKL 052100Z AUTO 18002KT 1/2SM 13/12 A3000 RMK 70033 SLP172 T01260123 57008 IEM_DS3505
ZGKL,2006-03-05 22:00,ZGKL 052200Z AUTO 00000KT 1/2SM 13/12 A3003 RMK SLP172 T01300120 IEM_DS3505
ZGKL,2006-03-05 23:00,ZGKL 052300Z AUTO 00000KT 3/8SM 13/12 A3003 RMK SLP172 T01300120 IEM_DS3505
ZGKL,2006-03-06 00:00,ZGKL 060000Z AUTO 00000KT 1/4SM 13/12 A3006 RMK 60004 70030 SLP187 T01280125 52015 IEM_DS3505
ZGKL,2006-03-06 01:00,ZGKL 060100Z AUTO 00000KT 1SM 13/13 A3009 RMK SLP194 T01300130 IEM_DS3505
ZGKL,2006-03-06 02:00,ZGKL 060200Z AUTO 00000KT 1SM 13/13 A3009 RMK SLP194 T01300130 IEM_DS3505
ZGKL,2006-03-06 03:00,ZGKL 060300Z AUTO 00000KT 1/2SM 14/13 A3009 RMK SLP196 T01390131 52009 IEM_DS3505
ZGKL,2006-03-06 04:00,ZGKL 060400Z AUTO 00000KT 1SM 14/13 A3006 RMK SLP183 T01400130 IEM_DS3505
ZGKL,2006-03-06 05:00,ZGKL 060500Z AUTO 00000KT 1SM 14/14 A3006 RMK SLP183 T01400140 IEM_DS3505
ZGKL,2006-03-06 06:00,ZGKL 060600Z AUTO 18002KT 1SM 15/14 A3003 RMK 60001 SLP171 T01460136 57024 IEM_DS3505
ZGKL,2006-03-06 07:00,ZGKL 060700Z AUTO 00000KT 1SM 14/14 A3000 RMK SLP162 T01400140 IEM_DS3505
ZGKL,2006-03-06 08:00,ZGKL 060800Z AUTO 00000KT 1SM 15/14 A2997 RMK SLP151 T01500140 IEM_DS3505
ZGKL,2006-03-06 09:00,ZGKL 060900Z AUTO 16002KT 1SM 15/14 A2997 RMK SLP158 T01470139 57013 IEM_DS3505
ZGKL,2006-03-06 10:00,ZGKL 061000Z AUTO 00000KT 1 1/4SM 15/14 A2997 RMK SLP151 T01500140 IEM_DS3505
ZGKL,2006-03-06 11:00,ZGKL 061100Z AUTO 09002KT 1/2SM 15/14 A2997 RMK SLP151 T01500140 IEM_DS3505
ZGKL,2006-03-06 12:00,ZGKL 061200Z AUTO 18002KT 1SM 14/14 A3000 RMK 60000 SLP162 T01420137 52004 IEM_DS3505
ZGKL,2006-03-06 13:00,ZGKL 061300Z AUTO 00000KT 3/8SM 15/14 A3003 RMK SLP171 T01500140 IEM_DS3505
ZGKL,2006-03-06 14:00,ZGKL 061400Z AUTO 00000KT 1/2SM 15/14 A3003 RMK SLP171 T01500140 IEM_DS3505
ZGKL,2006-03-06 15:00,ZGKL 061500Z AUTO 29002KT 1SM 14/14 A3003 RMK SLP177 T01430140 52015 IEM_DS3505
ZGKL,2006-03-06 16:00,ZGKL 061600Z AUTO 23002KT 3/8SM 14/14 A3003 RMK SLP172 T01400140 IEM_DS3505
ZGKL,2006-03-06 18:00,ZGKL 061800Z AUTO 18002KT 3/8SM 14/14 A3002 RMK 60000 SLP168 T01410138 57009 IEM_DS3505
ZGKL,2006-03-06 21:00,ZGKL 062100Z AUTO 32002KT 1/4SM 14/14 A2997 RMK 70003 SLP155 T01390136 57013 IEM_DS3505
ZGKL,2006-03-06 22:00,ZGKL 062200Z AUTO 00000KT 1/4SM 14/14 A2997 RMK SLP151 T01400140 IEM_DS3505
ZGKL,2006-03-06 23:00,ZGKL 062300Z AUTO 00000KT 1/4SM 14/14 A3000 RMK SLP162 T01400140 IEM_DS3505
ZGKL,2006-03-07 00:00,ZGKL 070000Z AUTO 25002KT 1/2SM 14/14 A3000 RMK 70002 SLP164 T01410139 52009 IEM_DS3505
ZGKL,2006-03-07 01:00,ZGKL 070100Z AUTO 35002KT 1/2SM 15/14 A3000 RMK SLP161 T01500140 IEM_DS3505
ZGKL,2006-03-07 02:00,ZGKL 070200Z AUTO 35002KT 1SM 15/15 A3003 RMK SLP171 T01500150 IEM_DS3505
ZGKL,2006-03-07 03:00,ZGKL 070300Z AUTO 16002KT 1SM 16/15 A3003 RMK SLP168 T01580150 52005 IEM_DS3505
ZGKL,2006-03-07 04:00,ZGKL 070400Z AUTO 33002KT 1SM 16/15 A3000 RMK SLP160 T01600150 IEM_DS3505
ZGKL,2006-03-07 05:00,ZGKL 070500Z AUTO 06002KT 1SM 17/15 A2997 RMK SLP149 T01700150 IEM_DS3505
ZGKL,2006-03-07 06:00,ZGKL 070600Z AUTO 34002KT 1 1/4SM 16/15 A2994 RMK SLP144 T01650154 57024 IEM_DS3505
ZGKL,2006-03-07 07:00,ZGKL 070700Z AUTO 32002KT 1SM 17/15 A2991 RMK SLP130 T01700150 IEM_DS3505
ZGKL,2006-03-07 08:00,ZGKL 070800Z AUTO 32002KT 1SM 17/15 A2991 RMK SLP130 T01700150 IEM_DS3505
ZGKL,2006-03-07 09:00,ZGKL 070900Z AUTO 32002KT 1 1/4SM 16/15 A2991 RMK SLP131 T01620154 57013 IEM_DS3505
ZGKL,2006-03-07 10:00,ZGKL 071000Z AUTO 29002KT 1SM 16/15 A2991 RMK SLP131 T01600150 IEM_DS3505
ZGKL,2006-03-07 11:00,ZGKL 071100Z AUTO 00000KT 1SM 16/15 A2994 RMK SLP141 T01600150 IEM_DS3505
ZGKL,2006-03-07 12:00,ZGKL 071200Z AUTO 34004KT 1 1/4SM 16/15 A2994 RMK 60000 SLP150 T01600152 52019 IEM_DS3505
ZGKL,2006-03-07 13:00,ZGKL 071300Z AUTO 00000KT 1/2SM 16/15 A2997 RMK SLP150 T01600150 IEM_DS3505
ZGKL,2006-03-07 14:00,ZGKL 071400Z AUTO 30002KT 1/2SM 16/15 A3000 RMK SLP160 T01600150 IEM_DS3505
ZGKL,2006-03-07 15:00,ZGKL 071500Z AUTO 36002KT 2SM 16/15 A3000 RMK SLP165 T01600150 52015 IEM_DS3505
ZGKL,2006-03-07 16:00,ZGKL 071600Z AUTO 00000KT 16/15 A3000 RMK T01600150 IEM_DS3505
ZGKL,2006-03-07 18:00,ZGKL 071800Z AUTO 20002KT 2SM 16/15 A3001 RMK 60004 SLP164 T01560148 57001 IEM_DS3505
ZGKL,2006-03-07 21:00,ZGKL 072100Z AUTO 04002KT 2SM 15/15 A2997 RMK 70005 SLP151 T01530148 57013 IEM_DS3505
ZGKL,2006-03-07 22:00,ZGKL 072200Z AUTO 00000KT 1/4SM 15/15 A2997 RMK SLP151 T01500150 IEM_DS3505
ZGKL,2006-03-07 23:00,ZGKL 072300Z AUTO 00000KT 1/2SM 15/15 A3000 RMK SLP161 T01500150 IEM_DS3505
ZGKL,2006-03-08 00:00,ZGKL 080000Z AUTO 34002KT 1 1/4SM 16/15 A3003 RMK 60002 70006 SLP173 T01560150 52022 IEM_DS3505
ZGKL,2006-03-08 01:00,ZGKL 080100Z AUTO 00000KT 1/2SM 16/15 A3006 RMK SLP182 T01600150 IEM_DS3505
ZGKL,2006-03-08 02:00,ZGKL 080200Z AUTO 00000KT 1/2SM 16/15 A3006 RMK SLP182 T01600150 IEM_DS3505
ZGKL,2006-03-08 03:00,ZGKL 080300Z AUTO 34002KT 1SM 16/16 A3006 RMK SLP185 T01640156 52012 IEM_DS3505
ZGKL,2006-03-08 04:00,ZGKL 080400Z AUTO 00000KT 1SM 17/16 A3006 RMK SLP181 T01700160 IEM_DS3505
ZGKL,2006-03-08 05:00,ZGKL 080500Z AUTO 23002KT 1SM 17/16 A3003 RMK SLP170 T01700160 IEM_DS3505
ZGKL,2006-03-08 06:00,ZGKL 080600Z AUTO 18002KT 2SM 18/16 A3000 RMK 60008 SLP163 T01820164 57021 IEM_DS3505
ZGKL,2006-03-08 07:00,ZGKL 080700Z AUTO 21002KT 1 1/2SM 18/16 A3000 RMK SLP159 T01800160 IEM_DS3505
ZGKL,2006-03-08 08:00,ZGKL 080800Z AUTO 15002KT 2 1/2SM 19/16 A3000 RMK SLP158 T01900160 IEM_DS3505
ZGKL,2006-03-08 09:00,ZGKL 080900Z AUTO 11002KT 3SM 19/16 A3000 RMK SLP161 T01930162 57002 IEM_DS3505
ZGKL,2006-03-08 10:00,ZGKL 081000Z AUTO 20004KT 3SM 19/17 A3000 RMK SLP158 T01900170 IEM_DS3505
ZGKL,2006-03-08 11:00,ZGKL 081100Z AUTO 12002KT 2 1/2SM 18/16 A3003 RMK SLP169 T01800160 IEM_DS3505
ZGKL,2006-03-08 12:00,ZGKL 081200Z AUTO 22002KT 4SM 17/16 A3006 RMK SLP181 T01670161 52019 IEM_DS3505
ZGKL,2006-03-08 13:00,ZGKL 081300Z AUTO 29002KT 1 1/4SM 17/16 A3006 RMK SLP181 T01700160 IEM_DS3505
ZGKL,2006-03-08 14:00,ZGKL 081400Z AUTO 00000KT 1SM 16/15 A3009 RMK SLP192 T01600150 IEM_DS3505
ZGKL,2006-03-08 15:00,ZGKL 081500Z AUTO 34004KT 4SM 16/15 A3009 RMK SLP197 T01550149 52016 IEM_DS3505
ZGKL,2006-03-08 16:00,ZGKL 081600Z AUTO 00000KT 1/4SM 15/14 A3009 RMK SLP193 T01500140 IEM_DS3505
ZGKL,2006-03-08 18:00,ZGKL 081800Z AUTO 34002KT 4SM 16/15 A3009 RMK SLP196 T01560146 57001 IEM_DS3505
ZGKL,2006-03-08 21:00,ZGKL 082100Z AUTO 36002KT 7SM 15/14 A3009 RMK 70008 SLP194 T01480138 57002 IEM_DS3505
ZGKL,2006-03-08 22:00,ZGKL 082200Z AUTO 02004KT 3/8SM 13/12 A3009 RMK SLP194 T01300120 IEM_DS3505
ZGKL,2006-03-08 23:00,ZGKL 082300Z AUTO 00000KT 1/4SM 12/12 A3012 RMK SLP205 T01200120 IEM_DS3505
ZGKL,2006-03-09 00:00,ZGKL 090000Z AUTO 16002KT 2 1/2SM 15/14 A3015 RMK 70007 SLP212 T01470137 52017 IEM_DS3505
ZGKL,2006-03-09 01:00,ZGKL 090100Z AUTO 00000KT 1/4SM 13/13 A3015 RMK SLP214 T01300130 IEM_DS3505
ZGKL,2006-03-09 02:00,ZGKL 090200Z AUTO 31002KT 5SM 16/15 A3018 RMK SLP221 T01600150 IEM_DS3505
ZGKL,2006-03-09 03:00,ZGKL 090300Z AUTO 02006KT 6SM 20/15 A3015 RMK SLP215 T02030147 52005 IEM_DS3505
ZGKL,2006-03-09 04:00,ZGKL 090400Z AUTO 04006KT 5SM 21/14 A3015 RMK SLP209 T02100140 IEM_DS3505
ZGKL,2006-03-09 05:00,ZGKL 090500Z AUTO 07008KT 4SM 22/14 A3009 RMK SLP188 T02200140 IEM_DS3505
ZGKL,2006-03-09 06:00,ZGKL 090600Z AUTO 11004KT 4SM 24/14 A3006 RMK SLP178 T02370136 57036 IEM_DS3505
ZGKL,2006-03-09 07:00,ZGKL 090700Z AUTO 07004KT 4SM 23/13 A3003 RMK SLP166 T02300130 IEM_DS3505
ZGKL,2006-03-09 08:00,ZGKL 090800Z AUTO 15002KT 4SM 24/13 A3000 RMK SLP155 T02400130 IEM_DS3505
ZGKL,2006-03-09 09:00,ZGKL 090900Z AUTO 18004KT 4SM 24/14 A2997 RMK SLP151 T02390137 57026 IEM_DS3505
ZGKL,2006-03-09 10:00,ZGKL 091000Z AUTO 11004KT 4SM 23/14 A2997 RMK SLP145 T02300140 IEM_DS3505
ZGKL,2006-03-09 11:00,ZGKL 091100Z AUTO 00000KT 4SM 22/15 A2997 RMK SLP146 T02200150 IEM_DS3505
ZGKL,2006-03-09 12:00,ZGKL 091200Z AUTO 02002KT 6SM 20/16 A2997 RMK SLP156 T01950158 52003 IEM_DS3505
ZGKL,2006-03-09 13:00,ZGKL 091300Z AUTO 32004KT 2 1/2SM 17/16 A3000 RMK SLP160 T01700160 IEM_DS3505
ZGKL,2006-03-09 14:00,ZGKL 091400Z AUTO 36004KT 2SM 17/15 A3003 RMK SLP170 T01700150 IEM_DS3505
ZGKL,2006-03-09 15:00,ZGKL 091500Z AUTO 02004KT 6SM 18/14 A3003 RMK SLP171 T01800135 52016 IEM_DS3505
ZGKL,2006-03-09 16:00,ZGKL 091600Z AUTO 33002KT 2SM 17/15 A3003 RMK SLP170 T01700150 IEM_DS3505
ZGKL,2006-03-09 18:00,ZGKL 091800Z AUTO 36004KT 6SM 17/14 A3001 RMK SLP163 T01730136 57007 IEM_DS3505
ZGKL,2006-03-09 21:00,ZGKL 092100Z AUTO 04002KT 6SM 16/14 A2997 RMK SLP151 T01630136 57012 IEM_DS3505
ZGKL,2006-03-09 22:00,ZGKL 092200Z AUTO 34002KT 2SM 16/15 A2997 RMK SLP150 T01600150 IEM_DS3505
ZGKL,2006-03-09 23:00,ZGKL 092300Z AUTO 33002KT 2SM 16/15 A2997 RMK SLP150 T01600150 IEM_DS3505
ZGKL,2006-03-10 00:00,ZGKL 100000Z AUTO 32002KT 5SM 16/14 A3000 RMK SLP168 T01580135 52015 IEM_DS3505
ZGKL,2006-03-10 01:00,ZGKL 100100Z AUTO 01002KT 2SM 18/15 A3003 RMK SLP169 T01800150 IEM_DS3505
ZGKL,2006-03-10 02:00,ZGKL 100200Z AUTO 00000KT 2 1/2SM 19/15 A3003 RMK SLP168 T01900150 IEM_DS3505
ZGKL,2006-03-10 03:00,ZGKL 100300Z AUTO 01002KT 5SM 20/14 A3003 RMK SLP165 T02030140 57002 IEM_DS3505
ZGKL,2006-03-10 04:00,ZGKL 100400Z AUTO 29002KT 3SM 21/15 A3000 RMK SLP157 T02100150 IEM_DS3505
ZGKL,2006-03-10 05:00,ZGKL 100500Z AUTO 31002KT 4SM 22/15 A2997 RMK SLP146 T02200150 IEM_DS3505
ZGKL,2006-03-10 06:00,ZGKL 100600Z AUTO 14002KT 4SM 23/15 A2991 RMK SLP131 T02320148 57032 IEM_DS3505
ZGKL,2006-03-10 07:00,ZGKL 100700Z AUTO 31004KT 4SM 21/16 A2991 RMK SLP127 T02100160 IEM_DS3505
ZGKL,2006-03-10 08:00,ZGKL 100800Z AUTO 35002KT 3SM 21/16 A2988 RMK SLP117 T02100160 IEM_DS3505
ZGKL,2006-03-10 09:00,ZGKL 100900Z AUTO 29002KT 4SM 21/16 A2988 RMK SLP117 T02110159 57015 IEM_DS3505
ZGKL,2006-03-10 10:00,ZGKL 101000Z AUTO 33002KT 2 1/2SM 20/17 A2988 RMK SLP118 T02000170 IEM_DS3505
ZGKL,2006-03-10 11:00,ZGKL 101100Z AUTO 33002KT 2SM 20/17 A2988 RMK SLP118 T02000170 IEM_DS3505
ZGKL,2006-03-10 12:00,ZGKL 101200Z AUTO 02002KT 4SM 20/16 A2988 RMK 60000 SLP123 T02000162 52005 IEM_DS3505
ZGKL,2006-03-10 13:00,ZGKL 101300Z AUTO 35004KT 2SM 19/17 A2991 RMK SLP129 T01900170 IEM_DS3505
ZGKL,2006-03-10 14:00,ZGKL 101400Z AUTO 32002KT 1 1/2SM 19/17 A2991 RMK SLP129 T01900170 IEM_DS3505
ZGKL,2006-03-10 15:00,ZGKL 101500Z AUTO 34002KT 4SM 19/17 A2994 RMK SLP138 T01940170 52016 IEM_DS3505
ZGKL,2006-03-10 16:00,ZGKL 101600Z AUTO 32002KT 1 1/4SM 18/17 A2994 RMK SLP139 T01800170 IEM_DS3505
ZGKL,2006-03-10 18:00,ZGKL 101800Z AUTO 36002KT 4SM 18/17 A2990 RMK 60000 SLP123 T01850170 57014 IEM_DS3505
ZGKL,2006-03-10 21:00,ZGKL 102100Z AUTO 36002KT 3SM 18/17 A2985 RMK 70000 SLP109 T01810171 57014 IEM_DS3505
ZGKL,2006-03-10 22:00,ZGKL 102200Z AUTO 14002KT 1SM 18/17 A2985 RMK SLP108 T01800170 IEM_DS3505
ZGKL,2006-03-10 23:00,ZGKL 102300Z AUTO 00000KT 1/2SM 18/17 A2985 RMK SLP108 T01800170 IEM_DS3505
ZGKL,2006-03-11 00:00,ZGKL 110000Z AUTO 00000KT 1 1/4SM 18/17 A2988 RMK 60004 70004 SLP116 T01800174 52006 IEM_DS3505
ZGKL,2006-03-11 01:00,ZGKL 110100Z AUTO 00000KT 1SM 18/17 A2988 RMK SLP119 T01800170 IEM_DS3505
ZGKL,2006-03-11 02:00,ZGKL 110200Z AUTO 00000KT 1SM 18/18 A2988 RMK SLP119 T01800180 IEM_DS3505
ZGKL,2006-03-11 03:00,ZGKL 110300Z AUTO 02002KT 2SM 19/18 A2988 RMK SLP118 T01900178 52002 IEM_DS3505
ZGKL,2006-03-11 04:00,ZGKL 110400Z AUTO 32002KT 1SM 19/18 A2985 RMK SLP107 T01900180 IEM_DS3505
ZGKL,2006-03-11 05:00,ZGKL 110500Z AUTO 32002KT 1SM 19/18 A2983 RMK SLP101 T01900180 IEM_DS3505
ZGKL,2006-03-11 06:00,ZGKL 110600Z AUTO 02002KT 2SM 21/18 A2977 RMK 60002 SLP080 T02060185 57037 IEM_DS3505
ZGKL,2006-03-11 07:00,ZGKL 110700Z AUTO 35002KT 1 1/4SM 20/18 A2974 RMK SLP070 T02000180 IEM_DS3505
ZGKL,2006-03-11 08:00,ZGKL 110800Z AUTO 31004KT 1 1/4SM 20/18 A2971 RMK SLP060 T02000180 IEM_DS3505
ZGKL,2006-03-11 09:00,ZGKL 110900Z AUTO 04002KT 2SM 20/19 A2974 RMK SLP064 T02010186 57016 IEM_DS3505
ZGKL,2006-03-11 10:00,ZGKL 111000Z AUTO 05002KT 1SM 20/18 A2974 RMK SLP070 T02000180 IEM_DS3505
ZGKL,2006-03-11 11:00,ZGKL 111100Z AUTO 34004KT 1SM 19/18 A2977 RMK SLP081 T01900180 IEM_DS3505
ZGKL,2006-03-11 12:00,ZGKL 111200Z AUTO 09002KT 1 1/4SM 19/18 A2980 RMK 60004 SLP091 T01920185 52026 IEM_DS3505
ZGKL,2006-03-11 13:00,ZGKL 111300Z AUTO 32002KT 3/8SM 19/18 A2983 RMK SLP101 T01900180 IEM_DS3505
ZGKL,2006-03-11 14:00,ZGKL 111400Z AUTO 00000KT 3/8SM 19/18 A2983 RMK SLP101 T01900180 IEM_DS3505
ZGKL,2006-03-11 15:00,ZGKL 111500Z AUTO 04002KT 1 1/4SM 19/18 A2985 RMK SLP108 T01910184 52017 IEM_DS3505
ZGKL,2006-03-11 16:00,ZGKL 111600Z AUTO 34002KT 19/18 A2985 RMK T01900180 IEM_DS3505
ZGKL,2006-03-11 17:00,ZGKL 111700Z AUTO 06002KT 19/18 A2985 RMK T01900180 IEM_DS3505
ZGKL,2006-03-11 18:00,ZGKL 111800Z AUTO 02008KT 3SM 16/13 A2988 RMK 60003 SLP123 T01550132 52014 IEM_DS3505
ZGKL,2006-03-11 19:00,ZGKL 111900Z AUTO 03008KT 15/13 A2988 RMK SLP121 T01500130 IEM_DS3505
ZGKL,2006-03-11 20:00,ZGKL 112000Z AUTO 04002KT 15/13 A2988 RMK SLP121 T01500130 IEM_DS3505
ZGKL,2006-03-11 21:00,ZGKL 112100Z AUTO 02012KT 3SM 14/10 A2988 RMK 70013 SLP127 T01430105 52004 IEM_DS3505
ZGKL,2006-03-11 22:00,ZGKL 112200Z AUTO 09006KT 4SM 13/12 A2991 RMK SLP133 T01300120 IEM_DS3505
ZGKL,2006-03-11 23:00,ZGKL 112300Z AUTO 36004KT 7SM 13/12 A2994 RMK SLP143 T01300120 IEM_DS3505
ZGKL,2006-03-12 00:00,ZGKL 120000Z AUTO 02012KT 6SM 12/10 A3000 RMK 60003 70013 SLP161 T01190096 52032 IEM_DS3505
ZGKL,2006-03-12 01:00,ZGKL 120100Z AUTO 06006KT 7SM 13/11 A3003 RMK SLP172 T01300110 IEM_DS3505
ZGKL,2006-03-12 02:00,ZGKL 120200Z AUTO 04012KT 7SM 12/10 A3009 RMK SLP195 T01200100 IEM_DS3505
ZGKL,2006-03-12 03:00,ZGKL 120300Z AUTO 02016KT 10SM 11/07 A3012 RMK SLP206 T01120067 52044 IEM_DS3505
ZGKL,2006-03-12 04:00,ZGKL 120400Z AUTO 03014KT 7SM 12/08 A3012 RMK SLP205 T01200080 IEM_DS3505
ZGKL,2006-03-12 05:00,ZGKL 120500Z AUTO 03016KT 7SM 12/07 A3012 RMK SLP205 T01200070 IEM_DS3505
ZGKL,2006-03-12 06:00,ZGKL 120600Z AUTO 04012KT 12SM 10/05 A3009 RMK 60002 SLP207 T01040050 57001 IEM_DS3505
ZGKL,2006-03-12 07:00,ZGKL 120700Z AUTO 04016KT 7SM 11/05 A3009 RMK SLP195 T01100050 IEM_DS3505
ZGKL,2006-03-12 08:00,ZGKL 120800Z AUTO 04012KT 7SM 10/05 A3012 RMK SLP206 T01000050 IEM_DS3505
ZGKL,2006-03-12 09:00,ZGKL 120900Z AUTO 04010KT 12SM 09/03 A3012 RMK SLP215 T00900034 52007 IEM_DS3505
ZGKL,2006-03-12 10:00,ZGKL 121000Z AUTO 04012KT 7SM 09/05 A3015 RMK SLP217 T00900050 IEM_DS3505
ZGKL,2006-03-12 11:00,ZGKL 121100Z AUTO 05012KT 7SM 09/04 A3018 RMK SLP226 T00900040 IEM_DS3505
ZGKL,2006-03-12 12:00,ZGKL 121200Z AUTO 02010KT 14SM 08/03 A3021 RMK SLP244 T00750026 52027 IEM_DS3505
ZGKL,2006-03-12 13:00,ZGKL 121300Z AUTO 03012KT 7SM 08/04 A3021 RMK SLP237 T00800040 IEM_DS3505
ZGKL,2006-03-12 14:00,ZGKL 121400Z AUTO 04014KT 7SM 08/03 A3024 RMK SLP247 T00800030 IEM_DS3505
ZGKL,2006-03-12 15:00,ZGKL 121500Z AUTO 04010KT 14SM 07/02 A3027 RMK SLP263 T00690020 52018 IEM_DS3505
ZGKL,2006-03-12 16:00,ZGKL 121600Z AUTO 04014KT 07/02 A3027 RMK SLP259 T00700020 IEM_DS3505
ZGKL,2006-03-12 17:00,ZGKL 121700Z AUTO 03010KT 07/02 A3033 RMK SLP280 T00700020 IEM_DS3505
ZGKL,2006-03-12 18:00,ZGKL 121800Z AUTO 02012KT 11SM 06/02 A3030 RMK 60000 SLP277 T00560017 52013 IEM_DS3505
ZGKL,2006-03-12 19:00,ZGKL 121900Z AUTO 06010KT 06/03 A3030 RMK SLP270 T00600030 IEM_DS3505
ZGKL,2006-03-12 20:00,ZGKL 122000Z AUTO 05010KT 06/03 A3030 RMK SLP270 T00600030 IEM_DS3505
ZGKL,2006-03-12 21:00,ZGKL 122100Z AUTO 02012KT 11SM 05/01 A3030 RMK 70004 SLP281 T00460013 52004 IEM_DS3505
ZGKL,2006-03-12 22:00,ZGKL 122200Z AUTO 06010KT 4SM 05/03 A3033 RMK SLP281 T00500030 IEM_DS3505
ZGKL,2006-03-12 23:00,ZGKL 122300Z AUTO 03008KT 3SM 04/03 A3036 RMK SLP291 T00400030 IEM_DS3505
ZGKL,2006-03-13 00:00,ZGKL 130000Z AUTO 02010KT 9SM 04/02 A3039 RMK 60024 70025 SLP305 T00360018 52022 IEM_DS3505
ZGKL,2006-03-13 01:00,ZGKL 130100Z AUTO 03008KT 7SM 04/03 A3042 RMK SLP312 T00400030 IEM_DS3505
ZGKL,2006-03-13 02:00,ZGKL 130200Z AUTO 02008KT 7SM 05/02 A3042 RMK SLP311 T00500020 IEM_DS3505
ZGKL,2006-03-13 03:00,ZGKL 130300Z AUTO 02012KT 9SM 05/00 A3042 RMK SLP319 T00470003 52014 IEM_DS3505
ZGKL,2006-03-13 04:00,ZGKL 130400Z AUTO 06012KT 7SM 06/02 A3042 RMK SLP310 T00600020 IEM_DS3505
ZGKL,2006-03-13 05:00,ZGKL 130500Z AUTO 06010KT 7SM 05/02 A3039 RMK SLP301 T00500020 IEM_DS3505
ZGKL,2006-03-13 06:00,ZGKL 130600Z AUTO 07012KT 7SM 03/01 A3039 RMK 60004 SLP297 T00330007 57023 IEM_DS3505
ZGKL,2006-03-13 07:00,ZGKL 130700Z AUTO 03006KT 4SM 04/02 A3036 RMK SLP291 T00400020 IEM_DS3505
ZGKL,2006-03-13 08:00,ZGKL 130800Z AUTO 06006KT 4SM 04/02 A3036 RMK SLP291 T00400020 IEM_DS3505
ZGKL,2006-03-13 09:00,ZGKL 130900Z AUTO 04008KT 9SM 04/00 A3036 RMK SLP294 T00390001 57003 IEM_DS3505
ZGKL,2006-03-13 10:00,ZGKL 131000Z AUTO 06010KT 4SM 04/01 A3033 RMK SLP282 T00400010 IEM_DS3505
ZGKL,2006-03-13 11:00,ZGKL 131100Z AUTO 05008KT 4SM 04/01 A3033 RMK SLP282 T00400010 IEM_DS3505
ZGKL,2006-03-13 12:00,ZGKL 131200Z AUTO 04008KT 9SM 04/M00 A3036 RMK 60001 SLP295 T00351001 52001 IEM_DS3505
ZGKL,2006-03-13 13:00,ZGKL 131300Z AUTO 01004KT 3SM 04/00 A3039 RMK SLP301 T00400000 IEM_DS3505
ZGKL,2006-03-13 14:00,ZGKL 131400Z AUTO 04002KT 3SM 04/00 A3042 RMK SLP312 T00400000 IEM_DS3505
ZGKL,2006-03-13 15:00,ZGKL 131500Z AUTO 02006KT 9SM 04/00 A3042 RMK SLP317 T00380000 52022 IEM_DS3505
ZGKL,2006-03-13 16:00,ZGKL 131600Z AUTO 02006KT 3SM 04/01 A3042 RMK SLP312 T00400010 IEM_DS3505
ZGKL,2006-03-13 17:00,ZGKL 131700Z AUTO 03004KT 04/01 A3039 RMK SLP301 T00400010 IEM_DS3505
ZGKL,2006-03-13 18:00,ZGKL 131800Z AUTO 36008KT 9SM 04/M00 A3039 RMK SLP302 T00421002 57015 IEM_DS3505
ZGKL,2006-03-13 19:00,ZGKL 131900Z AUTO 16002KT 04/01 A3036 RMK SLP291 T00400010 IEM_DS3505
ZGKL,2006-03-13 20:00,ZGKL 132000Z AUTO 33002KT 04/01 A3036 RMK SLP291 T00400010 IEM_DS3505
ZGKL,2006-03-13 21:00,ZGKL 132100Z AUTO 04004KT 9SM 04/M00 A3033 RMK 70029 SLP288 T00441002 57014 IEM_DS3505
ZGKL,2006-03-13 22:00,ZGKL 132200Z AUTO 00000KT 5SM 05/01 A3033 RMK SLP281 T00500010 IEM_DS3505
ZGKL,2006-03-13 23:00,ZGKL 132300Z AUTO 05002KT 5SM 05/01 A3036 RMK SLP290 T00500010 IEM_DS3505
ZGKL,2006-03-14 00:00,ZGKL 140000Z AUTO 02006KT 9SM 05/M00 A3036 RMK 70006 SLP294 T00481004 52006 IEM_DS3505
ZGKL,2006-03-14 01:00,ZGKL 140100Z AUTO 32002KT 5SM 05/01 A3036 RMK SLP290 T00500010 IEM_DS3505
ZGKL,2006-03-14 02:00,ZGKL 140200Z AUTO 30002KT 6SM 06/02 A3036 RMK SLP290 T00600020 IEM_DS3505
ZGKL,2006-03-14 03:00,ZGKL 140300Z AUTO 02008KT 9SM 06/00 A3036 RMK SLP297 T00640003 52004 IEM_DS3505
ZGKL,2006-03-14 04:00,ZGKL 140400Z AUTO 36002KT 7SM 08/02 A3033 RMK SLP279 T00800020 IEM_DS3505
ZGKL,2006-03-14 05:00,ZGKL 140500Z AUTO 09004KT 7SM 08/01 A3030 RMK SLP269 T00800010 IEM_DS3505
ZGKL,2006-03-14 06:00,ZGKL 140600Z AUTO 02004KT 11SM 09/01 A3024 RMK SLP255 T00920006 57040 IEM_DS3505
ZGKL,2006-03-14 07:00,ZGKL 140700Z AUTO 11002KT 7SM 10/02 A3021 RMK SLP236 T01000020 IEM_DS3505
ZGKL,2006-03-14 08:00,ZGKL 140800Z AUTO 16002KT 6SM 10/02 A3018 RMK SLP226 T01000020 IEM_DS3505
ZGKL,2006-03-14 09:00,ZGKL 140900Z AUTO 36004KT 11SM 09/02 A3018 RMK SLP227 T00940016 57027 IEM_DS3505
ZGKL,2006-03-14 10:00,ZGKL 141000Z AUTO 08004KT 6SM 09/02 A3018 RMK SLP226 T00900020 IEM_DS3505
ZGKL,2006-03-14 12:00,ZGKL 141200Z AUTO 02004KT 10SM 08/03 A3018 RMK SLP236 T00820029 52008 IEM_DS3505
ZGKL,2006-03-14 13:00,ZGKL 141300Z AUTO 12002KT 5SM 09/02 A3021 RMK SLP237 T00900020 IEM_DS3505
ZGKL,2006-03-14 14:00,ZGKL 141400Z AUTO 05002KT 5SM 09/04 A3021 RMK SLP237 T00900040 IEM_DS3505
ZGKL,2006-03-14 15:00,ZGKL 141500Z AUTO 36004KT 10SM 08/03 A3021 RMK SLP248 T00750032 52012 IEM_DS3505
ZGKL,2006-03-14 16:00,ZGKL 141600Z AUTO 07004KT 08/04 A3021 RMK SLP237 T00800040 IEM_DS3505
ZGKL,2006-03-14 17:00,ZGKL 141700Z AUTO 01004KT 07/05 A3021 RMK T00700050 IEM_DS3505
ZGKL,2006-03-14 18:00,ZGKL 141800Z AUTO 04002KT 5SM 06/05 A3018 RMK 60000 SLP232 T00570050 57015 IEM_DS3505
ZGKL,2006-03-14 21:00,ZGKL 142100Z AUTO 07002KT 5SM 06/05 A3012 RMK 70003 SLP215 T00590053 57017 IEM_DS3505
ZGKL,2006-03-14 22:00,ZGKL 142200Z AUTO 00000KT 1 1/2SM 06/05 A3012 RMK SLP209 T00600050 IEM_DS3505
ZGKL,2006-03-14 23:00,ZGKL 142300Z AUTO 00000KT 1 1/4SM 06/06 A3015 RMK SLP219 T00600060 IEM_DS3505
ZGKL,2006-03-15 00:00,ZGKL 150000Z AUTO 02002KT 3SM 06/06 A3015 RMK 60004 70005 SLP227 T00620056 52012 IEM_DS3505
ZGKL,2006-03-15 01:00,ZGKL 150100Z AUTO 36002KT 1SM 07/06 A3018 RMK SLP228 T00700060 IEM_DS3505
ZGKL,2006-03-15 02:00,ZGKL 150200Z AUTO 36002KT 1 1/4SM 07/06 A3018 RMK SLP228 T00700060 IEM_DS3505
ZGKL,2006-03-15 03:00,ZGKL 150300Z AUTO 07002KT 2 1/2SM 07/06 A3015 RMK SLP225 T00730064 57002 IEM_DS3505
ZGKL,2006-03-15 04:00,ZGKL 150400Z AUTO 00000KT 2 1/2SM 08/07 A3015 RMK SLP218 T00800070 IEM_DS3505
ZGKL,2006-03-15 05:00,ZGKL 150500Z AUTO 00000KT 2 1/2SM 08/07 A3012 RMK SLP208 T00800070 IEM_DS3505
ZGKL,2006-03-15 06:00,ZGKL 150600Z AUTO 00000KT 3SM 08/07 A3006 RMK 60008 SLP195 T00800069 57030 IEM_DS3505
ZGKL,2006-03-15 07:00,ZGKL 150700Z AUTO 00000KT 2 1/2SM 08/07 A3003 RMK SLP176 T00800070 IEM_DS3505
ZGKL,2006-03-15 08:00,ZGKL 150800Z AUTO 00000KT 2 1/2SM 08/07 A3003 RMK SLP176 T00800070 IEM_DS3505
ZGKL,2006-03-15 09:00,ZGKL 150900Z AUTO 34004KT 3SM 08/08 A3003 RMK SLP179 T00810075 57015 IEM_DS3505
ZGKL,2006-03-15 10:00,ZGKL 151000Z AUTO 00000KT 3SM 08/07 A3003 RMK SLP176 T00800070 IEM_DS3505
ZGKL,2006-03-15 11:00,ZGKL 151100Z AUTO 00000KT 3SM 08/07 A3003 RMK SLP176 T00800070 IEM_DS3505
ZGKL,2006-03-15 12:00,ZGKL 151200Z AUTO 02002KT 3SM 08/08 A3006 RMK 60008 SLP190 T00840078 52011 IEM_DS3505
ZGKL,2006-03-15 13:00,ZGKL 151300Z AUTO 05002KT 3SM 09/08 A3009 RMK SLP197 T00900080 IEM_DS3505
ZGKL,2006-03-15 14:00,ZGKL 151400Z AUTO 00000KT 3SM 09/08 A3009 RMK SLP197 T00900080 IEM_DS3505
ZGKL,2006-03-15 15:00,ZGKL 151500Z AUTO 18002KT 2SM 09/08 A3009 RMK SLP206 T00870083 52016 IEM_DS3505
ZGKL,2006-03-15 16:00,ZGKL 151600Z AUTO 00000KT 3SM 09/08 A3009 RMK SLP197 T00900080 IEM_DS3505
ZGKL,2006-03-15 17:00,ZGKL 151700Z AUTO 18002KT 09/08 A3006 RMK T00900080 IEM_DS3505
ZGKL,2006-03-15 18:00,ZGKL 151800Z AUTO 29002KT 2 1/2SM 09/08 A3007 RMK 60000 SLP189 T00890083 57016 IEM_DS3505
ZGKL,2006-03-15 20:00,ZGKL 152000Z AUTO 25002KT 09/08 A3003 RMK SLP175 T00900080 IEM_DS3505
ZGKL,2006-03-15 21:00,ZGKL 152100Z AUTO 27002KT 4SM 09/08 A3000 RMK 70018 SLP176 T00900084 57013 IEM_DS3505
ZGKL,2006-03-15 22:00,ZGKL 152200Z AUTO 00000KT 2SM 09/08 A3000 RMK SLP165 T00900080 IEM_DS3505
ZGKL,2006-03-15 23:00,ZGKL 152300Z AUTO 00000KT 2SM 09/08 A3000 RMK SLP165 T00900080 IEM_DS3505
ZGKL,2006-03-16 00:00,ZGKL 160000Z AUTO 02002KT 2 1/2SM 10/09 A3003 RMK 70016 SLP181 T00950087 52005 IEM_DS3505
ZGKL,2006-03-16 01:00,ZGKL 160100Z AUTO 00000KT 2SM 10/09 A3003 RMK SLP175 T01000090 IEM_DS3505
ZGKL,2006-03-16 02:00,ZGKL 160200Z AUTO 00000KT 2 1/2SM 11/09 A3003 RMK SLP174 T01100090 IEM_DS3505
ZGKL,2006-03-16 03:00,ZGKL 160300Z AUTO 34002KT 4SM 12/09 A3003 RMK SLP176 T01250093 57004 IEM_DS3505
ZGKL,2006-03-16 04:00,ZGKL 160400Z AUTO 21002KT 4SM 14/10 A3000 RMK SLP162 T01400100 IEM_DS3505
ZGKL,2006-03-16 05:00,ZGKL 160500Z AUTO 14002KT 5SM 15/09 A2994 RMK SLP142 T01500090 IEM_DS3505
ZGKL,2006-03-16 06:00,ZGKL 160600Z AUTO 18002KT 5SM 16/10 A2991 RMK SLP135 T01560095 57039 IEM_DS3505
ZGKL,2006-03-16 07:00,ZGKL 160700Z AUTO 36002KT 6SM 16/09 A2988 RMK SLP120 T01600090 IEM_DS3505
ZGKL,2006-03-16 08:00,ZGKL 160800Z AUTO 07004KT 6SM 17/09 A2985 RMK SLP109 T01700090 IEM_DS3505
ZGKL,2006-03-16 09:00,ZGKL 160900Z AUTO 16002KT 6SM 17/10 A2983 RMK SLP101 T01660105 57033 IEM_DS3505
ZGKL,2006-03-16 10:00,ZGKL 161000Z AUTO 12002KT 7SM 16/10 A2983 RMK SLP103 T01600100 IEM_DS3505
ZGKL,2006-03-16 11:00,ZGKL 161100Z AUTO 14002KT 5SM 16/11 A2980 RMK SLP092 T01600110 IEM_DS3505
ZGKL,2006-03-16 12:00,ZGKL 161200Z AUTO 13002KT 7SM 15/12 A2980 RMK SLP102 T01470118 52001 IEM_DS3505
ZGKL,2006-03-16 13:00,ZGKL 161300Z AUTO 08002KT 4SM 15/11 A2983 RMK SLP104 T01500110 IEM_DS3505
ZGKL,2006-03-16 14:00,ZGKL 161400Z AUTO 00000KT 4SM 15/12 A2985 RMK SLP110 T01500120 IEM_DS3505
ZGKL,2006-03-16 15:00,ZGKL 161500Z AUTO 36002KT 6SM 14/13 A2985 RMK SLP112 T01350126 52010 IEM_DS3505
ZGKL,2006-03-16 16:00,ZGKL 161600Z AUTO 35002KT 1 1/4SM 13/12 A2985 RMK SLP111 T01300120 IEM_DS3505
ZGKL,2006-03-16 18:00,ZGKL 161800Z AUTO 09002KT 3SM 13/13 A2983 RMK 60004 SLP104 T01310126 57007 IEM_DS3505
ZGKL,2006-03-16 21:00,ZGKL 162100Z AUTO 00000KT 1SM 13/13 A2980 RMK 70009 SLP093 T01300127 57010 IEM_DS3505
ZGKL,2006-03-16 22:00,ZGKL 162200Z AUTO 19002KT 1SM 13/13 A2980 RMK SLP094 T01300130 IEM_DS3505
ZGKL,2006-03-16 23:00,ZGKL 162300Z AUTO 00000KT 1/2SM 13/13 A2980 RMK SLP094 T01300130 IEM_DS3505
ZGKL,2006-03-17 00:00,ZGKL 170000Z AUTO 04002KT 1SM 13/13 A2983 RMK 60012 70016 SLP103 T01310128 52009 IEM_DS3505
ZGKL,2006-03-17 01:00,ZGKL 170100Z AUTO 04002KT 1SM 13/13 A2983 RMK SLP105 T01300130 IEM_DS3505
ZGKL,2006-03-17 02:00,ZGKL 170200Z AUTO 32002KT 1SM 14/13 A2983 RMK SLP104 T01400130 IEM_DS3505
ZGKL,2006-03-17 03:00,ZGKL 170300Z AUTO 22002KT 1SM 14/14 A2983 RMK SLP108 T01410138 52005 IEM_DS3505
ZGKL,2006-03-17 04:00,ZGKL 170400Z AUTO 32002KT 1SM 15/14 A2983 RMK SLP104 T01500140 IEM_DS3505
ZGKL,2006-03-17 05:00,ZGKL 170500Z AUTO 33002KT 1SM 16/15 A2980 RMK SLP092 T01600150 IEM_DS3505
ZGKL,2006-03-17 06:00,ZGKL 170600Z AUTO 36002KT 1SM 16/16 A2977 RMK 60012 SLP082 T01610158 57025 IEM_DS3505
ZGKL,2006-03-17 07:00,ZGKL 170700Z AUTO 31002KT 2SM 17/16 A2974 RMK SLP072 T01700160 IEM_DS3505
ZGKL,2006-03-17 08:00,ZGKL 170800Z AUTO 29002KT 2SM 18/17 A2971 RMK SLP061 T01800170 IEM_DS3505
ZGKL,2006-03-17 09:00,ZGKL 170900Z AUTO 04002KT 1/2SM 17/17 A2971 RMK SLP066 T01700167 57016 IEM_DS3505
ZGKL,2006-03-17 10:00,ZGKL 171000Z AUTO 29002KT 2 1/2SM 18/17 A2971 RMK SLP061 T01800170 IEM_DS3505
ZGKL,2006-03-17 11:00,ZGKL 171100Z AUTO 32002KT 2SM 18/17 A2974 RMK SLP071 T01800170 IEM_DS3505
ZGKL,2006-03-17 12:00,ZGKL 171200Z AUTO 25002KT 9SM 16/16 A2974 RMK 60003 SLP077 T01590156 52011 IEM_DS3505
ZGKL,2006-03-17 13:00,ZGKL 171300Z AUTO 18002KT 1SM 17/16 A2977 RMK SLP082 T01700160 IEM_DS3505
ZGKL,2006-03-17 14:00,ZGKL 171400Z AUTO 18002KT 1SM 17/16 A2980 RMK SLP091 T01700160 IEM_DS3505
ZGKL,2006-03-17 15:00,ZGKL 171500Z AUTO 02002KT 2SM 16/16 A2983 RMK SLP099 T01600157 52022 IEM_DS3505
ZGKL,2006-03-17 16:00,ZGKL 171600Z AUTO 00000KT 1SM 17/16 A2983 RMK SLP102 T01700160 IEM_DS3505
ZGKL,2006-03-17 18:00,ZGKL 171800Z AUTO 00000KT 1SM 16/16 A2983 RMK 60000 SLP105 T01600157 52006 IEM_DS3505
ZGKL,2006-03-17 21:00,ZGKL 172100Z AUTO 32002KT 3/8SM 16/16 A2985 RMK 70024 SLP109 T01590156 52005 IEM_DS3505
ZGKL,2006-03-17 22:00,ZGKL 172200Z AUTO 28002KT 1SM 17/16 A2985 RMK SLP109 T01700160 IEM_DS3505
ZGKL,2006-03-17 23:00,ZGKL 172300Z AUTO 33002KT 1SM 17/16 A2988 RMK SLP120 T01700160 IEM_DS3505
ZGKL,2006-03-18 00:00,ZGKL 180000Z AUTO 36004KT 5SM 17/16 A2991 RMK 60002 70017 SLP138 T01740159 52028 IEM_DS3505
ZGKL,2006-03-18 01:00,ZGKL 180100Z AUTO 05008KT 3SM 18/15 A2994 RMK SLP139 T01800150 IEM_DS3505
ZGKL,2006-03-18 02:00,ZGKL 180200Z AUTO 05006KT 3SM 18/15 A2997 RMK SLP149 T01800150 IEM_DS3505
ZGKL,2006-03-18 03:00,ZGKL 180300Z AUTO 02006KT 7SM 18/13 A3000 RMK SLP161 T01790128 52023 IEM_DS3505
ZGKL,2006-03-18 04:00,ZGKL 180400Z AUTO 31002KT 3SM 19/16 A3000 RMK SLP158 T01900160 IEM_DS3505
ZGKL,2006-03-18 05:00,ZGKL 180500Z AUTO 01006KT 4SM 19/14 A3000 RMK SLP158 T01900140 IEM_DS3505
ZGKL,2006-03-18 06:00,ZGKL 180600Z AUTO 02006KT 8SM 19/11 A2997 RMK SLP151 T01910109 57009 IEM_DS3505
ZGKL,2006-03-18 07:00,ZGKL 180700Z AUTO 03010KT 4SM 21/11 A2994 RMK SLP137 T02100110 IEM_DS3505
ZGKL,2006-03-18 08:00,ZGKL 180800Z AUTO 36010KT 4SM 20/15 A2994 RMK SLP138 T02000150 IEM_DS3505
ZGKL,2006-03-18 09:00,ZGKL 180900Z AUTO 02006KT 8SM 20/08 A2994 RMK SLP144 T01970084 57007 IEM_DS3505
ZGKL,2006-03-18 10:00,ZGKL 181000Z AUTO 35004KT 5SM 19/14 A2997 RMK SLP148 T01900140 IEM_DS3505
ZGKL,2006-03-18 11:00,ZGKL 181100Z AUTO 02002KT 4SM 19/14 A2997 RMK SLP148 T01900140 IEM_DS3505
ZGKL,2006-03-18 12:00,ZGKL 181200Z AUTO 02004KT 8SM 18/08 A3000 RMK SLP160 T01820085 52016 IEM_DS3505
ZGKL,2006-03-18 13:00,ZGKL 181300Z AUTO 01004KT 4SM 18/13 A3003 RMK SLP169 T01800130 IEM_DS3505
ZGKL,2006-03-18 14:00,ZGKL 181400Z AUTO 33002KT 4SM 17/13 A3003 RMK SLP170 T01700130 IEM_DS3505
ZGKL,2006-03-18 15:00,ZGKL 181500Z AUTO 02008KT 8SM 18/05 A3006 RMK SLP180 T01750051 52019 IEM_DS3505
ZGKL,2006-03-18 16:00,ZGKL 181600Z AUTO 32002KT 16/14 A3006 RMK SLP182 T01600140 IEM_DS3505
ZGKL,2006-03-18 17:00,ZGKL 181700Z AUTO 00000KT 16/13 A3006 RMK SLP182 T01600130 IEM_DS3505
ZGKL,2006-03-18 18:00,ZGKL 181800Z AUTO 02004KT 8SM 17/ A3003 RMK SLP174 57006 IEM_DS3505
ZGKL,2006-03-18 19:00,ZGKL 181900Z AUTO 00000KT 16/14 A3003 RMK SLP170 T01600140 IEM_DS3505
ZGKL,2006-03-18 21:00,ZGKL 182100Z AUTO 02004KT 8SM 16/ A3003 RMK 70000 SLP164 57009 IEM_DS3505
ZGKL,2006-03-18 22:00,ZGKL 182200Z AUTO 00000KT 2 1/2SM 15/14 A3003 RMK SLP171 T01500140 IEM_DS3505
ZGKL,2006-03-18 23:00,ZGKL 182300Z AUTO 00000KT 3SM 15/14 A3003 RMK SLP171 T01500140 IEM_DS3505
ZGKL,2006-03-19 00:00,ZGKL 190000Z AUTO 02004KT 7SM 16/03 A3006 RMK SLP183 T01620029 52018 IEM_DS3505
ZGKL,2006-03-19 01:00,ZGKL 190100Z AUTO 08002KT 4SM 16/08 A3009 RMK SLP192 T01600080 IEM_DS3505
ZGKL,2006-03-19 02:00,ZGKL 190200Z AUTO 04004KT 4SM 17/07 A3009 RMK SLP191 T01700070 IEM_DS3505
ZGKL,2006-03-19 03:00,ZGKL 190300Z AUTO 02006KT 7SM 18/04 A3009 RMK SLP186 T01770043 52003 IEM_DS3505
ZGKL,2006-03-19 04:00,ZGKL 190400Z AUTO 00000KT 4SM 18/06 A3006 RMK SLP180 T01800060 IEM_DS3505
ZGKL,2006-03-19 05:00,ZGKL 190500Z AUTO 23002KT 4SM 18/07 A3003 RMK SLP169 T01800070 IEM_DS3505
ZGKL,2006-03-19 06:00,ZGKL 190600Z AUTO 02006KT 7SM 18/06 A3000 RMK SLP159 T01810057 57027 IEM_DS3505
ZGKL,2006-03-19 07:00,ZGKL 190700Z AUTO 25002KT 4SM 18/09 A2997 RMK SLP149 T01800090 IEM_DS3505
ZGKL,2006-03-19 08:00,ZGKL 190800Z AUTO 23002KT 4SM 18/08 A2994 RMK SLP139 T01800080 IEM_DS3505
ZGKL,2006-03-19 09:00,ZGKL 190900Z AUTO 02004KT 7SM 18/07 A2994 RMK SLP145 T01780072 57014 IEM_DS3505
ZGKL,2006-03-19 10:00,ZGKL 191000Z AUTO 00000KT 4SM 18/10 A2994 RMK SLP139 T01800100 IEM_DS3505
ZGKL,2006-03-19 11:00,ZGKL 191100Z AUTO 25002KT 2 1/2SM 17/12 A2997 RMK SLP149 T01700120 IEM_DS3505
ZGKL,2006-03-19 12:00,ZGKL 191200Z AUTO 36002KT 7SM 16/09 A2997 RMK 60000 SLP158 T01600092 52012 IEM_DS3505
ZGKL,2006-03-19 13:00,ZGKL 191300Z AUTO 35002KT 2 1/2SM 14/12 A3000 RMK SLP162 T01400120 IEM_DS3505
ZGKL,2006-03-19 14:00,ZGKL 191400Z AUTO 01004KT 2 1/2SM 14/13 A3003 RMK SLP172 T01400130 IEM_DS3505
ZGKL,2006-03-19 15:00,ZGKL 191500Z AUTO 02004KT 6SM 14/10 A3003 RMK SLP170 T01400098 52012 IEM_DS3505
ZGKL,2006-03-19 16:00,ZGKL 191600Z AUTO 31002KT 14/12 A3003 RMK T01400120 IEM_DS3505
ZGKL,2006-03-19 17:00,ZGKL 191700Z AUTO 00000KT 14/13 A3000 RMK T01400130 IEM_DS3505
ZGKL,2006-03-19 18:00,ZGKL 191800Z AUTO 02002KT 7SM 14/11 A3000 RMK 60008 SLP156 T01370107 57014 IEM_DS3505
ZGKL,2006-03-19 19:00,ZGKL 191900Z AUTO 00000KT 14/13 A2997 RMK T01400130 IEM_DS3505
ZGKL,2006-03-19 21:00,ZGKL 192100Z AUTO 36004KT 7SM 13/11 A2994 RMK 70008 SLP148 T01340113 57008 IEM_DS3505
ZGKL,2006-03-19 22:00,ZGKL 192200Z AUTO 20002KT 1SM 13/12 A2997 RMK SLP152 T01300120 IEM_DS3505
ZGKL,2006-03-19 23:00,ZGKL 192300Z AUTO 00000KT 1SM 13/12 A2997 RMK SLP152 T01300120 IEM_DS3505
ZGKL,2006-03-20 00:00,ZGKL 200000Z AUTO 04002KT 2SM 12/12 A2997 RMK 60002 70010 SLP160 T01240116 52011 IEM_DS3505
ZGKL,2006-03-20 01:00,ZGKL 200100Z AUTO 06002KT 1 1/4SM 13/12 A3000 RMK SLP162 T01300120 IEM_DS3505
ZGKL,2006-03-20 02:00,ZGKL 200200Z AUTO 00000KT 1SM 13/12 A3000 RMK SLP162 T01300120 IEM_DS3505
ZGKL,2006-03-20 03:00,ZGKL 200300Z AUTO 04002KT 2SM 14/12 A2997 RMK SLP158 T01350121 57002 IEM_DS3505
ZGKL,2006-03-20 04:00,ZGKL 200400Z AUTO 00000KT 1SM 13/13 A2994 RMK SLP143 T01300130 IEM_DS3505
ZGKL,2006-03-20 05:00,ZGKL 200500Z AUTO 06002KT 1SM 14/13 A2991 RMK SLP132 T01400130 IEM_DS3505
ZGKL,2006-03-20 06:00,ZGKL 200600Z AUTO 34002KT 2SM 14/13 A2988 RMK 60008 SLP126 T01350126 57032 IEM_DS3505
ZGKL,2006-03-20 07:00,ZGKL 200700Z AUTO 34002KT 1SM 14/13 A2985 RMK SLP111 T01400130 IEM_DS3505
ZGKL,2006-03-20 08:00,ZGKL 200800Z AUTO 00000KT 1SM 14/13 A2985 RMK SLP111 T01400130 IEM_DS3505
ZGKL,2006-03-20 09:00,ZGKL 200900Z AUTO 29002KT 2SM 14/13 A2983 RMK SLP107 T01390133 57018 IEM_DS3505
ZGKL,2006-03-20 10:00,ZGKL 201000Z AUTO 00000KT 1SM 14/13 A2983 RMK SLP104 T01400130 IEM_DS3505
ZGKL,2006-03-20 11:00,ZGKL 201100Z AUTO 00000KT 1SM 14/13 A2983 RMK SLP104 T01400130 IEM_DS3505
ZGKL,2006-03-20 12:00,ZGKL 201200Z AUTO 27002KT 1 1/4SM 14/13 A2983 RMK 60016 SLP113 T01380133 52005 IEM_DS3505
ZGKL,2006-03-20 13:00,ZGKL 201300Z AUTO 00000KT 1SM 14/14 A2985 RMK SLP111 T01400140 IEM_DS3505
ZGKL,2006-03-20 14:00,ZGKL 201400Z AUTO 00000KT 1SM 14/14 A2985 RMK SLP111 T01400140 IEM_DS3505
ZGKL,2006-03-20 15:00,ZGKL 201500Z AUTO 10002KT 2SM 14/14 A2985 RMK SLP116 T01410136 52004 IEM_DS3505
ZGKL,2006-03-20 16:00,ZGKL 201600Z AUTO 00000KT 1SM 14/14 A2985 RMK SLP111 T01400140 IEM_DS3505
ZGKL,2006-03-20 17:00,ZGKL 201700Z AUTO 20002KT 14/14 A2985 RMK T01400140 IEM_DS3505
ZGKL,2006-03-20 18:00,ZGKL 201800Z AUTO 02002KT 1 1/4SM 14/14 A2983 RMK 60002 SLP104 T01430138 57012 IEM_DS3505
ZGKL,2006-03-20 21:00,ZGKL 202100Z AUTO 18002KT 2SM 14/14 A2977 RMK 70030 SLP089 T01430138 57015 IEM_DS3505
ZGKL,2006-03-20 22:00,ZGKL 202200Z AUTO 34004KT 1SM 15/14 A2980 RMK SLP093 T01500140 IEM_DS3505
ZGKL,2006-03-20 23:00,ZGKL 202300Z AUTO 18002KT 1/2SM 15/14 A2980 RMK SLP093 T01500140 IEM_DS3505
ZGKL,2006-03-21 00:00,ZGKL 210000Z AUTO 34004KT 1 1/2SM 15/14 A2983 RMK 60012 70038 SLP106 T01500145 52017 IEM_DS3505
ZGKL,2006-03-21 01:00,ZGKL 210100Z AUTO 00000KT 1SM 15/15 A2985 RMK SLP110 T01500150 IEM_DS3505
ZGKL,2006-03-21 02:00,ZGKL 210200Z AUTO 00000KT 1SM 15/15 A2985 RMK SLP110 T01500150 IEM_DS3505
ZGKL,2006-03-21 03:00,ZGKL 210300Z AUTO 02004KT 4SM 16/15 A2985 RMK SLP110 T01570149 52005 IEM_DS3505
ZGKL,2006-03-21 04:00,ZGKL 210400Z AUTO 00000KT 1SM 17/16 A2983 RMK SLP102 T01700160 IEM_DS3505
ZGKL,2006-03-21 05:00,ZGKL 210500Z AUTO 00000KT 1SM 17/16 A2980 RMK SLP091 T01700160 IEM_DS3505
ZGKL,2006-03-21 06:00,ZGKL 210600Z AUTO 36004KT 3SM 17/16 A2977 RMK 60028 SLP083 T01670156 57027 IEM_DS3505
ZGKL,2006-03-21 07:00,ZGKL 210700Z AUTO 33002KT 1 1/4SM 18/17 A2974 RMK SLP071 T01800170 IEM_DS3505
ZGKL,2006-03-21 08:00,ZGKL 210800Z AUTO 32002KT 1 1/2SM 18/17 A2971 RMK SLP061 T01800170 IEM_DS3505
ZGKL,2006-03-21 09:00,ZGKL 210900Z AUTO 02008KT 6SM 18/15 A2971 RMK SLP064 T01760154 57018 IEM_DS3505
ZGKL,2006-03-21 10:00,ZGKL 211000Z AUTO 08002KT 2 1/2SM 19/17 A2971 RMK SLP060 T01900170 IEM_DS3505
ZGKL,2006-03-21 11:00,ZGKL 211100Z AUTO 02002KT 2 1/2SM 19/17 A2974 RMK SLP071 T01900170 IEM_DS3505
ZGKL,2006-03-21 12:00,ZGKL 211200Z AUTO 34006KT 7SM 17/15 A2974 RMK 60002 SLP076 T01680152 52012 IEM_DS3505
ZGKL,2006-03-21 13:00,ZGKL 211300Z AUTO 07002KT 3SM 18/16 A2977 RMK SLP081 T01800160 IEM_DS3505
ZGKL,2006-03-21 14:00,ZGKL 211400Z AUTO 05004KT 3SM 18/16 A2980 RMK SLP091 T01800160 IEM_DS3505
ZGKL,2006-03-21 15:00,ZGKL 211500Z AUTO 02002KT 6SM 17/15 A2980 RMK SLP090 T01660150 52014 IEM_DS3505
ZGKL,2006-03-21 16:00,ZGKL 211600Z AUTO 02004KT 17/15 A2980 RMK SLP091 T01700150 IEM_DS3505
ZGKL,2006-03-21 17:00,ZGKL 211700Z AUTO 04006KT 17/15 A2980 RMK SLP091 T01700150 IEM_DS3505
ZGKL,2006-03-21 18:00,ZGKL 211800Z AUTO 04004KT 6SM 16/14 A2980 RMK 60000 SLP092 T01630145 52002 IEM_DS3505
ZGKL,2006-03-21 19:00,ZGKL 211900Z AUTO 02002KT 17/15 A2980 RMK SLP091 T01700150 IEM_DS3505
ZGKL,2006-03-21 20:00,ZGKL 212000Z AUTO 07006KT 17/15 A2977 RMK SLP082 T01700150 IEM_DS3505
ZGKL,2006-03-21 21:00,ZGKL 212100Z AUTO 02004KT 5SM 16/14 A2977 RMK 70041 SLP088 T01610141 57004 IEM_DS3505
ZGKL,2006-03-21 22:00,ZGKL 212200Z AUTO 03002KT 2 1/2SM 16/15 A2980 RMK SLP092 T01600150 IEM_DS3505
ZGKL,2006-03-21 23:00,ZGKL 212300Z AUTO 04004KT 3SM 16/14 A2980 RMK SLP092 T01600140 IEM_DS3505
ZGKL,2006-03-22 00:00,ZGKL 220000Z AUTO 04004KT 8SM 16/14 A2983 RMK 60002 70032 SLP100 T01590139 52012 IEM_DS3505
ZGKL,2006-03-22 01:00,ZGKL 220100Z AUTO 36002KT 3SM 16/15 A2985 RMK SLP109 T01600150 IEM_DS3505
ZGKL,2006-03-22 02:00,ZGKL 220200Z AUTO 29002KT 3SM 17/14 A2985 RMK SLP109 T01700140 IEM_DS3505
ZGKL,2006-03-22 03:00,ZGKL 220300Z AUTO 34004KT 9SM 17/14 A2983 RMK SLP107 T01680139 52007 IEM_DS3505
ZGKL,2006-03-22 04:00,ZGKL 220400Z AUTO 00000KT 3SM 18/15 A2983 RMK SLP102 T01800150 IEM_DS3505
ZGKL,2006-03-22 05:00,ZGKL 220500Z AUTO 08006KT 4SM 18/15 A2980 RMK SLP091 T01800150 IEM_DS3505
ZGKL,2006-03-22 06:00,ZGKL 220600Z AUTO 04004KT 8SM 17/14 A2980 RMK SLP090 T01710142 57017 IEM_DS3505
ZGKL,2006-03-22 07:00,ZGKL 220700Z AUTO 05006KT 4SM 18/14 A2977 RMK SLP081 T01800140 IEM_DS3505
ZGKL,2006-03-22 08:00,ZGKL 220800Z AUTO 05006KT 3SM 16/14 A2977 RMK SLP083 T01600140 IEM_DS3505
ZGKL,2006-03-22 09:00,ZGKL 220900Z AUTO 02004KT 9SM 16/13 A2977 RMK SLP083 T01570132 57007 IEM_DS3505
ZGKL,2006-03-22 10:00,ZGKL 221000Z AUTO 03008KT 2 1/2SM 16/14 A2977 RMK SLP083 T01600140 IEM_DS3505
ZGKL,2006-03-22 11:00,ZGKL 221100Z AUTO 07004KT 3SM 16/14 A2980 RMK SLP092 T01600140 IEM_DS3505
ZGKL,2006-03-22 12:00,ZGKL 221200Z AUTO 36008KT 10SM 16/12 A2985 RMK 60000 SLP113 T01560122 52029 IEM_DS3505
ZGKL,2006-03-22 13:00,ZGKL 221300Z AUTO 03004KT 4SM 16/13 A2988 RMK SLP120 T01600130 IEM_DS3505
ZGKL,2006-03-22 14:00,ZGKL 221400Z AUTO 06004KT 4SM 16/13 A2988 RMK SLP120 T01600130 IEM_DS3505
ZGKL,2006-03-22 15:00,ZGKL 221500Z AUTO 02008KT 10SM 15/11 A2991 RMK SLP128 T01540112 52015 IEM_DS3505
ZGKL,2006-03-22 16:00,ZGKL 221600Z AUTO 05008KT 4SM 15/12 A2988 RMK SLP121 T01500120 IEM_DS3505
ZGKL,2006-03-22 17:00,ZGKL 221700Z AUTO 05006KT 15/12 A2988 RMK SLP121 T01500120 IEM_DS3505
ZGKL,2006-03-22 18:00,ZGKL 221800Z AUTO 02010KT 7SM 14/11 A2988 RMK 60002 SLP123 T01380108 57005 IEM_DS3505
ZGKL,2006-03-22 19:00,ZGKL 221900Z AUTO 03002KT 14/12 A2985 RMK SLP111 T01400120 IEM_DS3505
ZGKL,2006-03-22 20:00,ZGKL 222000Z AUTO 04002KT 13/12 A2985 RMK SLP111 T01300120 IEM_DS3505
ZGKL,2006-03-22 21:00,ZGKL 222100Z AUTO 02012KT 7SM 13/11 A2985 RMK 70010 SLP113 T01310106 57011 IEM_DS3505
ZGKL,2006-03-22 22:00,ZGKL 222200Z AUTO 34002KT 2 1/2SM 14/12 A2988 RMK SLP122 T01400120 IEM_DS3505
ZGKL,2006-03-22 23:00,ZGKL 222300Z AUTO 05002KT 4SM 14/12 A2988 RMK SLP122 T01400120 IEM_DS3505
ZGKL,2006-03-23 00:00,ZGKL 230000Z AUTO 36006KT 7SM 13/10 A2991 RMK 60008 70008 SLP135 T01330105 52022 IEM_DS3505
ZGKL,2006-03-23 01:00,ZGKL 230100Z AUTO 04004KT 4SM 14/11 A2994 RMK SLP142 T01400110 IEM_DS3505
ZGKL,2006-03-23 02:00,ZGKL 230200Z AUTO 07004KT 4SM 14/11 A2994 RMK SLP142 T01400110 IEM_DS3505
ZGKL,2006-03-23 03:00,ZGKL 230300Z AUTO 02008KT 10SM 14/10 A2994 RMK SLP149 T01410103 52014 IEM_DS3505
ZGKL,2006-03-23 04:00,ZGKL 230400Z AUTO 05006KT 5SM 15/11 A2994 RMK SLP142 T01500110 IEM_DS3505
ZGKL,2006-03-23 05:00,ZGKL 230500Z AUTO 08008KT 5SM 16/11 A2988 RMK SLP120 T01600110 IEM_DS3505
ZGKL,2006-03-23 06:00,ZGKL 230600Z AUTO 02010KT 9SM 15/10 A2988 RMK SLP127 T01540102 57022 IEM_DS3505
ZGKL,2006-03-23 07:00,ZGKL 230700Z AUTO 05008KT 7SM 16/11 A2988 RMK SLP120 T01600110 IEM_DS3505
ZGKL,2006-03-23 08:00,ZGKL 230800Z AUTO 08008KT 5SM 16/11 A2988 RMK SLP120 T01600110 IEM_DS3505
ZGKL,2006-03-23 09:00,ZGKL 230900Z AUTO 04012KT 9SM 14/10 A2988 RMK SLP127 T01440098 57001 IEM_DS3505
ZGKL,2006-03-23 10:00,ZGKL 231000Z AUTO 06008KT 4SM 15/11 A2988 RMK SLP121 T01500110 IEM_DS3505
ZGKL,2006-03-23 11:00,ZGKL 231100Z AUTO 06010KT 3SM 14/10 A2991 RMK SLP132 T01400100 IEM_DS3505
ZGKL,2006-03-23 12:00,ZGKL 231200Z AUTO 36010KT 7SM 13/10 A2994 RMK SLP147 T01300098 52020 IEM_DS3505
ZGKL,2006-03-23 13:00,ZGKL 231300Z AUTO 07008KT 3SM 14/10 A2997 RMK SLP151 T01400100 IEM_DS3505
ZGKL,2006-03-23 14:00,ZGKL 231400Z AUTO 07006KT 3SM 13/10 A2997 RMK SLP152 T01300100 IEM_DS3505
ZGKL,2006-03-23 15:00,ZGKL 231500Z AUTO 36008KT 7SM 13/09 A2997 RMK SLP160 T01270092 52013 IEM_DS3505
ZGKL,2006-03-23 16:00,ZGKL 231600Z AUTO 06004KT 3SM 13/10 A3000 RMK SLP162 T01300100 IEM_DS3505
ZGKL,2006-03-23 17:00,ZGKL 231700Z AUTO 03004KT 3SM 13/10 A3000 RMK SLP162 T01300100 IEM_DS3505
ZGKL,2006-03-23 18:00,ZGKL 231800Z AUTO 02006KT 7SM 12/08 A2997 RMK SLP154 T01190082 57006 IEM_DS3505
ZGKL,2006-03-23 19:00,ZGKL 231900Z AUTO 03004KT 13/10 A2997 RMK SLP152 T01300100 IEM_DS3505
ZGKL,2006-03-23 20:00,ZGKL 232000Z AUTO 15002KT 11/10 A2997 RMK T01100100 IEM_DS3505
ZGKL,2006-03-23 21:00,ZGKL 232100Z AUTO 36004KT 6SM 10/09 A2997 RMK 70022 SLP159 T01020090 52004 IEM_DS3505
ZGKL,2006-03-23 22:00,ZGKL 232200Z AUTO 03004KT 4SM 11/10 A2997 RMK SLP153 T01100100 IEM_DS3505
ZGKL,2006-03-23 23:00,ZGKL 232300Z AUTO 11004KT 2SM 11/10 A2997 RMK SLP153 T01100100 IEM_DS3505
ZGKL,2006-03-24 00:00,ZGKL 240000Z AUTO 04004KT 4SM 10/09 A2997 RMK 60028 70029 SLP167 T01050086 52007 IEM_DS3505
ZGKL,2006-03-24 01:00,ZGKL 240100Z AUTO 30002KT 4SM 12/10 A3000 RMK SLP163 T01200100 IEM_DS3505
ZGKL,2006-03-24 02:00,ZGKL 240200Z AUTO 34002KT 4SM 13/10 A3003 RMK SLP172 T01300100 IEM_DS3505
ZGKL,2006-03-24 03:00,ZGKL 240300Z AUTO 04004KT 5SM 14/09 A3003 RMK SLP178 T01410093 52012 IEM_DS3505
ZGKL,2006-03-24 04:00,ZGKL 240400Z AUTO 07008KT 4SM 14/11 A3000 RMK SLP162 T01400110 IEM_DS3505
ZGKL,2006-03-24 05:00,ZGKL 240500Z AUTO 29004KT 5SM 15/11 A2997 RMK SLP151 T01500110 IEM_DS3505
ZGKL,2006-03-24 06:00,ZGKL 240600Z AUTO 02010KT 6SM 17/10 A2994 RMK 60000 SLP148 T01660102 57029 IEM_DS3505
ZGKL,2006-03-24 07:00,ZGKL 240700Z AUTO 01006KT 7SM 17/11 A2994 RMK SLP140 T01700110 IEM_DS3505
ZGKL,2006-03-24 08:00,ZGKL 240800Z AUTO 36006KT 7SM 17/12 A2991 RMK SLP130 T01700120 IEM_DS3505
ZGKL,2006-03-24 09:00,ZGKL 240900Z AUTO 02004KT 7SM 16/10 A2991 RMK SLP139 T01570096 57009 IEM_DS3505
ZGKL,2006-03-24 10:00,ZGKL 241000Z AUTO 06012KT 6SM 16/10 A2991 RMK SLP131 T01600100 IEM_DS3505
ZGKL,2006-03-24 11:00,ZGKL 241100Z AUTO 06008KT 5SM 15/10 A2994 RMK SLP142 T01500100 IEM_DS3505
ZGKL,2006-03-24 12:00,ZGKL 241200Z AUTO 02004KT 7SM 14/09 A2994 RMK SLP152 T01380090 52012 IEM_DS3505
ZGKL,2006-03-24 13:00,ZGKL 241300Z AUTO 05004KT 3SM 14/10 A2997 RMK SLP151 T01400100 IEM_DS3505
ZGKL,2006-03-24 14:00,ZGKL 241400Z AUTO 00000KT 3SM 14/10 A3000 RMK SLP162 T01400100 IEM_DS3505
ZGKL,2006-03-24 15:00,ZGKL 241500Z AUTO 36002KT 7SM 13/09 A3000 RMK SLP168 T01280091 52016 IEM_DS3505
ZGKL,2006-03-24 16:00,ZGKL 241600Z AUTO 06002KT 3SM 14/11 A3000 RMK SLP162 T01400110 IEM_DS3505
ZGKL,2006-03-24 17:00,ZGKL 241700Z AUTO 35002KT 13/11 A2997 RMK SLP152 T01300110 IEM_DS3505
ZGKL,2006-03-24 18:00,ZGKL 241800Z AUTO 02004KT 7SM 13/09 A2997 RMK SLP149 T01280089 57017 IEM_DS3505
ZGKL,2006-03-24 19:00,ZGKL 241900Z AUTO 00000KT 13/10 A2994 RMK SLP143 T01300100 IEM_DS3505
ZGKL,2006-03-24 21:00,ZGKL 242100Z AUTO 04004KT 7SM 11/10 A2994 RMK 70043 SLP141 T01120103 57009 IEM_DS3505
ZGKL,2006-03-24 22:00,ZGKL 242200Z AUTO 13002KT 2SM 12/11 A2997 RMK SLP153 T01200110 IEM_DS3505
ZGKL,2006-03-24 23:00,ZGKL 242300Z AUTO 20002KT 2SM 12/11 A3000 RMK SLP163 T01200110 IEM_DS3505
ZGKL,2006-03-25 00:00,ZGKL 250000Z AUTO 29004KT 3SM 11/10 A3000 RMK 60075 70074 SLP167 T01140105 52025 IEM_DS3505
ZGKL,2006-03-25 01:00,ZGKL 250100Z AUTO 14002KT 2SM 12/11 A3000 RMK SLP163 T01200110 IEM_DS3505
ZGKL,2006-03-25 02:00,ZGKL 250200Z AUTO 00000KT 2SM 12/11 A3003 RMK SLP173 T01200110 IEM_DS3505
ZGKL,2006-03-25 03:00,ZGKL 250300Z AUTO 32002KT 4SM 12/11 A3003 RMK SLP181 T01190113 52013 IEM_DS3505
ZGKL,2006-03-25 04:00,ZGKL 250400Z AUTO 08002KT 2 1/2SM 13/12 A3000 RMK SLP162 T01300120 IEM_DS3505
ZGKL,2006-03-25 05:00,ZGKL 250500Z AUTO 05002KT 2 1/2SM 13/12 A3000 RMK SLP162 T01300120 IEM_DS3505
ZGKL,2006-03-25 06:00,ZGKL 250600Z AUTO 04004KT 4SM 13/11 A2997 RMK 60035 SLP156 T01320114 57024 IEM_DS3505
ZGKL,2006-03-25 07:00,ZGKL 250700Z AUTO 06002KT 2SM 13/12 A2994 RMK SLP143 T01300120 IEM_DS3505
ZGKL,2006-03-25 08:00,ZGKL 250800Z AUTO 00000KT 2SM 13/12 A2994 RMK SLP143 T01300120 IEM_DS3505
ZGKL,2006-03-25 09:00,ZGKL 250900Z AUTO 36004KT 4SM 13/12 A2994 RMK SLP143 T01340116 57013 IEM_DS3505
ZGKL,2006-03-25 10:00,ZGKL 251000Z AUTO 02002KT 2SM 13/12 A2994 RMK SLP143 T01300120 IEM_DS3505
ZGKL,2006-03-25 11:00,ZGKL 251100Z AUTO 31002KT 1 1/2SM 13/12 A2994 RMK SLP143 T01300120 IEM_DS3505
ZGKL,2006-03-25 12:00,ZGKL 251200Z AUTO 04004KT 3SM 13/11 A2997 RMK 60000 SLP157 T01340113 52014 IEM_DS3505
ZGKL,2006-03-25 13:00,ZGKL 251300Z AUTO 06004KT 1 1/4SM 13/12 A2997 RMK SLP152 T01300120 IEM_DS3505
ZGKL,2006-03-25 14:00,ZGKL 251400Z AUTO 22002KT 1 1/4SM 14/12 A3000 RMK SLP162 T01400120 IEM_DS3505
ZGKL,2006-03-25 15:00,ZGKL 251500Z AUTO 02006KT 3SM 13/11 A3000 RMK SLP172 T01340109 52015 IEM_DS3505
ZGKL,2006-03-25 16:00,ZGKL 251600Z AUTO 30002KT 1 1/4SM 14/13 A3000 RMK SLP162 T01400130 IEM_DS3505
ZGKL,2006-03-25 18:00,ZGKL 251800Z AUTO 02006KT 3SM 13/11 A2999 RMK SLP159 T01330112 57013 IEM_DS3505
ZGKL,2006-03-25 21:00,ZGKL 252100Z AUTO 36002KT 5SM 13/11 A2994 RMK 70075 SLP149 T01310110 57009 IEM_DS3505
ZGKL,2006-03-25 22:00,ZGKL 252200Z AUTO 00000KT 1 1/4SM 13/12 A2997 RMK SLP152 T01300120 IEM_DS3505
ZGKL,2006-03-25 23:00,ZGKL 252300Z AUTO 00000KT 1SM 13/12 A2997 RMK SLP152 T01300120 IEM_DS3505
ZGKL,2006-03-26 00:00,ZGKL 260000Z AUTO 07004KT 5SM 13/11 A2997 RMK 70036 SLP155 T01330108 52006 IEM_DS3505
ZGKL,2006-03-26 01:00,ZGKL 260100Z AUTO 18002KT 1SM 13/12 A3000 RMK SLP162 T01300120 IEM_DS3505
ZGKL,2006-03-26 02:00,ZGKL 260200Z AUTO 00000KT 1 1/4SM 13/12 A3000 RMK SLP162 T01300120 IEM_DS3505
ZGKL,2006-03-26 03:00,ZGKL 260300Z AUTO 07004KT 4SM 13/12 A3000 RMK SLP167 T01270116 52011 IEM_DS3505
ZGKL,2006-03-26 04:00,ZGKL 260400Z AUTO 06002KT 2SM 14/12 A2997 RMK SLP151 T01400120 IEM_DS3505
ZGKL,2006-03-26 05:00,ZGKL 260500Z AUTO 00000KT 2 1/2SM 14/12 A2997 RMK SLP151 T01400120 IEM_DS3505
ZGKL,2006-03-26 06:00,ZGKL 260600Z AUTO 04004KT 4SM 15/11 A2994 RMK 60031 SLP141 T01480114 57025 IEM_DS3505
ZGKL,2006-03-26 07:00,ZGKL 260700Z AUTO 27002KT 3SM 15/12 A2991 RMK SLP131 T01500120 IEM_DS3505
ZGKL,2006-03-26 08:00,ZGKL 260800Z AUTO 00000KT 3SM 15/13 A2988 RMK SLP121 T01500130 IEM_DS3505
ZGKL,2006-03-26 09:00,ZGKL 260900Z AUTO 02004KT 5SM 15/11 A2985 RMK SLP118 T01520112 57022 IEM_DS3505
ZGKL,2006-03-26 10:00,ZGKL 261000Z AUTO 06006KT 3SM 16/12 A2988 RMK SLP120 T01600120 IEM_DS3505
ZGKL,2006-03-26 11:00,ZGKL 261100Z AUTO 06002KT 3SM 15/12 A2988 RMK SLP121 T01500120 IEM_DS3505
ZGKL,2006-03-26 12:00,ZGKL 261200Z AUTO 02004KT 5SM 14/11 A2991 RMK SLP136 T01410109 52017 IEM_DS3505
ZGKL,2006-03-26 13:00,ZGKL 261300Z AUTO 04004KT 2 1/2SM 15/11 A2991 RMK SLP131 T01500110 IEM_DS3505
ZGKL,2006-03-26 14:00,ZGKL 261400Z AUTO 03004KT 2 1/2SM 14/11 A2994 RMK SLP142 T01400110 IEM_DS3505
ZGKL,2006-03-26 15:00,ZGKL 261500Z AUTO 02004KT 5SM 14/11 A2994 RMK SLP147 T01390109 52011 IEM_DS3505
ZGKL,2006-03-26 16:00,ZGKL 261600Z AUTO 10002KT 2 1/2SM 14/12 A2994 RMK SLP142 T01400120 IEM_DS3505
ZGKL,2006-03-26 17:00,ZGKL 261700Z AUTO 03002KT 14/11 A2994 RMK T01400110 IEM_DS3505
ZGKL,2006-03-26 18:00,ZGKL 261800Z AUTO 04004KT 5SM 14/11 A2992 RMK SLP135 T01370109 57011 IEM_DS3505
ZGKL,2006-03-26 21:00,ZGKL 262100Z AUTO 02002KT 5SM 14/11 A2988 RMK 70030 SLP125 T01350109 57010 IEM_DS3505
ZGKL,2006-03-26 22:00,ZGKL 262200Z AUTO 00000KT 1 1/4SM 14/11 A2991 RMK SLP132 T01400110 IEM_DS3505
ZGKL,2006-03-26 23:00,ZGKL 262300Z AUTO 00000KT 1 1/4SM 14/12 A2994 RMK SLP142 T01400120 IEM_DS3505
ZGKL,2006-03-27 00:00,ZGKL 270000Z AUTO 02002KT 5SM 14/11 A2997 RMK 70030 SLP153 T01370109 52027 IEM_DS3505
ZGKL,2006-03-27 01:00,ZGKL 270100Z AUTO 00000KT 2SM 14/12 A2997 RMK SLP151 T01400120 IEM_DS3505
ZGKL,2006-03-27 02:00,ZGKL 270200Z AUTO 08002KT 2SM 15/12 A3000 RMK SLP161 T01500120 IEM_DS3505
ZGKL,2006-03-27 03:00,ZGKL 270300Z AUTO 04006KT 5SM 17/11 A3000 RMK SLP159 T01740112 52007 IEM_DS3505
ZGKL,2006-03-27 04:00,ZGKL 270400Z AUTO 28002KT 3SM 18/12 A2997 RMK SLP149 T01800120 IEM_DS3505
ZGKL,2006-03-27 05:00,ZGKL 270500Z AUTO 36004KT 4SM 20/13 A2994 RMK SLP138 T02000130 IEM_DS3505
ZGKL,2006-03-27 06:00,ZGKL 270600Z AUTO 02006KT 7SM 22/11 A2991 RMK SLP125 T02190110 57032 IEM_DS3505
ZGKL,2006-03-27 07:00,ZGKL 270700Z AUTO 05004KT 4SM 21/12 A2988 RMK SLP117 T02100120 IEM_DS3505
ZGKL,2006-03-27 08:00,ZGKL 270800Z AUTO 05004KT 4SM 21/12 A2985 RMK SLP106 T02100120 IEM_DS3505
ZGKL,2006-03-27 09:00,ZGKL 270900Z AUTO 36004KT 10SM 22/11 A2985 RMK SLP109 T02230108 57015 IEM_DS3505
ZGKL,2006-03-27 10:00,ZGKL 271000Z AUTO 32002KT 4SM 21/12 A2985 RMK SLP106 T02100120 IEM_DS3505
ZGKL,2006-03-27 11:00,ZGKL 271100Z AUTO 30002KT 4SM 20/15 A2988 RMK SLP118 T02000150 IEM_DS3505
ZGKL,2006-03-27 12:00,ZGKL 271200Z AUTO 02004KT 9SM 18/12 A2991 RMK SLP141 T01790115 52030 IEM_DS3505
ZGKL,2006-03-27 13:00,ZGKL 271300Z AUTO 04008KT 4SM 18/11 A2994 RMK SLP139 T01800110 IEM_DS3505
ZGKL,2006-03-27 14:00,ZGKL 271400Z AUTO 32004KT 4SM 16/13 A2997 RMK SLP150 T01600130 IEM_DS3505
ZGKL,2006-03-27 15:00,ZGKL 271500Z AUTO 02006KT 9SM 16/12 A2997 RMK SLP157 T01610115 52016 IEM_DS3505
ZGKL,2006-03-27 16:00,ZGKL 271600Z AUTO 26002KT 4SM 15/13 A2997 RMK SLP151 T01500130 IEM_DS3505
ZGKL,2006-03-27 17:00,ZGKL 271700Z AUTO 14004KT 4SM 15/13 A2997 RMK SLP151 T01500130 IEM_DS3505
ZGKL,2006-03-27 18:00,ZGKL 271800Z AUTO 04004KT 9SM 15/11 A2997 RMK SLP150 T01480110 57006 IEM_DS3505
ZGKL,2006-03-27 19:00,ZGKL 271900Z AUTO 35002KT 15/13 A3000 RMK SLP161 T01500130 IEM_DS3505
ZGKL,2006-03-27 20:00,ZGKL 272000Z AUTO 32004KT 14/13 A2997 RMK SLP151 T01400130 IEM_DS3505
ZGKL,2006-03-27 21:00,ZGKL 272100Z AUTO 34004KT 9SM 14/11 A3000 RMK SLP157 T01420110 52007 IEM_DS3505
ZGKL,2006-03-27 22:00,ZGKL 272200Z AUTO 04004KT 2 1/2SM 13/12 A3000 RMK SLP162 T01300120 IEM_DS3505
ZGKL,2006-03-27 23:00,ZGKL 272300Z AUTO 00000KT 2SM 13/12 A3003 RMK SLP172 T01300120 IEM_DS3505
ZGKL,2006-03-28 00:00,ZGKL 280000Z AUTO 36002KT 7SM 14/11 A3006 RMK SLP186 T01380111 52027 IEM_DS3505
ZGKL,2006-03-28 01:00,ZGKL 280100Z AUTO 03002KT 3SM 16/13 A3009 RMK SLP192 T01600130 IEM_DS3505
ZGKL,2006-03-28 02:00,ZGKL 280200Z AUTO 32002KT 3SM 18/13 A3009 RMK SLP190 T01800130 IEM_DS3505
ZGKL,2006-03-28 03:00,ZGKL 280300Z AUTO 36002KT 8SM 21/11 A3009 RMK SLP188 T02090107 52003 IEM_DS3505
ZGKL,2006-03-28 04:00,ZGKL 280400Z AUTO 30004KT 6SM 23/11 A3006 RMK SLP177 T02300110 IEM_DS3505
ZGKL,2006-03-28 05:00,ZGKL 280500Z AUTO 29004KT 6SM 25/10 A3003 RMK SLP164 T02500100 IEM_DS3505
ZGKL,2006-03-28 06:00,ZGKL 280600Z AUTO 34004KT 12SM 26/06 A3000 RMK SLP152 T02630058 57034 IEM_DS3505
ZGKL,2006-03-28 07:00,ZGKL 280700Z AUTO 04008KT 6SM 27/02 A2997 RMK SLP143 T02700020 IEM_DS3505
ZGKL,2006-03-28 08:00,ZGKL 280800Z AUTO 04004KT 6SM 27/03 A2991 RMK SLP123 T02700030 IEM_DS3505
ZGKL,2006-03-28 09:00,ZGKL 280900Z AUTO 02010KT 16SM 26/06 A2991 RMK SLP128 T02590055 57023 IEM_DS3505
ZGKL,2006-03-28 10:00,ZGKL 281000Z AUTO 07010KT 6SM 26/05 A2991 RMK SLP124 T02600050 IEM_DS3505
ZGKL,2006-03-28 11:00,ZGKL 281100Z AUTO 06012KT 6SM 23/06 A2991 RMK SLP126 T02300060 IEM_DS3505
ZGKL,2006-03-28 12:00,ZGKL 281200Z AUTO 02004KT 11SM 20/08 A2994 RMK SLP150 T02020085 52019 IEM_DS3505
ZGKL,2006-03-28 13:00,ZGKL 281300Z AUTO 34006KT 5SM 20/09 A3000 RMK SLP158 T02000090 IEM_DS3505
ZGKL,2006-03-28 14:00,ZGKL 281400Z AUTO 30004KT 4SM 17/13 A3003 RMK SLP170 T01700130 IEM_DS3505
ZGKL,2006-03-28 15:00,ZGKL 281500Z AUTO 34002KT 10SM 18/08 A3003 RMK SLP171 T01810084 52022 IEM_DS3505
ZGKL,2006-03-28 16:00,ZGKL 281600Z AUTO 29002KT 4SM 15/13 A3003 RMK SLP171 T01500130 IEM_DS3505
ZGKL,2006-03-28 17:00,ZGKL 281700Z AUTO 35002KT 4SM 14/12 A3003 RMK SLP172 T01400120 IEM_DS3505
ZGKL,2006-03-28 18:00,ZGKL 281800Z AUTO 02004KT 9SM 17/11 A3003 RMK SLP167 T01690112 57002 IEM_DS3505
ZGKL,2006-03-28 19:00,ZGKL 281900Z AUTO 30002KT 4SM 14/13 A3003 RMK SLP172 T01400130 IEM_DS3505
ZGKL,2006-03-28 21:00,ZGKL 282100Z AUTO 36004KT 9SM 16/11 A3001 RMK SLP162 T01570111 57006 IEM_DS3505
ZGKL,2006-03-28 22:00,ZGKL 282200Z AUTO 33002KT 4SM 13/12 A3000 RMK SLP162 T01300120 IEM_DS3505
ZGKL,2006-03-28 23:00,ZGKL 282300Z AUTO 26002KT 4SM 13/12 A3003 RMK SLP172 T01300120 IEM_DS3505
ZGKL,2006-03-29 00:00,ZGKL 290000Z AUTO 07002KT 6SM 16/12 A3006 RMK SLP183 T01590117 52019 IEM_DS3505
ZGKL,2006-03-29 01:00,ZGKL 290100Z AUTO 00000KT 3SM 15/12 A3009 RMK SLP193 T01500120 IEM_DS3505
ZGKL,2006-03-29 02:00,ZGKL 290200Z AUTO 32002KT 4SM 15/13 A3009 RMK SLP193 T01500130 IEM_DS3505
ZGKL,2006-03-29 03:00,ZGKL 290300Z AUTO 07004KT 4SM 19/12 A3009 RMK SLP188 T01940117 52006 IEM_DS3505
ZGKL,2006-03-29 04:00,ZGKL 290400Z AUTO 30002KT 2 1/2SM 21/12 A3006 RMK SLP178 T02100120 IEM_DS3505
ZGKL,2006-03-29 05:00,ZGKL 290500Z AUTO 02004KT 4SM 23/10 A3000 RMK SLP156 T02300100 IEM_DS3505
ZGKL,2006-03-29 06:00,ZGKL 290600Z AUTO 34002KT 7SM 23/08 A2997 RMK SLP151 T02310084 57036 IEM_DS3505
ZGKL,2006-03-29 07:00,ZGKL 290700Z AUTO 07006KT 4SM 24/10 A2994 RMK SLP136 T02400100 IEM_DS3505
ZGKL,2006-03-29 08:00,ZGKL 290800Z AUTO 08004KT 4SM 24/11 A2991 RMK SLP125 T02400110 IEM_DS3505
ZGKL,2006-03-29 09:00,ZGKL 290900Z AUTO 36004KT 7SM 24/10 A2988 RMK SLP121 T02420101 57029 IEM_DS3505
ZGKL,2006-03-29 10:00,ZGKL 291000Z AUTO 00000KT 5SM 24/09 A2988 RMK SLP115 T02400090 IEM_DS3505
ZGKL,2006-03-29 11:00,ZGKL 291100Z AUTO 30002KT 5SM 22/15 A2991 RMK SLP127 T02200150 IEM_DS3505
ZGKL,2006-03-29 12:00,ZGKL 291200Z AUTO 02006KT 6SM 20/12 A2991 RMK SLP138 T02010118 52015 IEM_DS3505
ZGKL,2006-03-29 13:00,ZGKL 291300Z AUTO 02006KT 4SM 20/14 A2994 RMK SLP138 T02000140 IEM_DS3505
ZGKL,2006-03-29 14:00,ZGKL 291400Z AUTO 36004KT 4SM 20/13 A2997 RMK SLP147 T02000130 IEM_DS3505
ZGKL,2006-03-29 15:00,ZGKL 291500Z AUTO 02006KT 6SM 19/12 A3000 RMK SLP160 T01870115 52022 IEM_DS3505
ZGKL,2006-03-29 16:00,ZGKL 291600Z AUTO 00000KT 3SM 17/13 A3000 RMK SLP160 T01700130 IEM_DS3505
ZGKL,2006-03-29 17:00,ZGKL 291700Z AUTO 00000KT 17/15 A3000 RMK SLP160 T01700150 IEM_DS3505
ZGKL,2006-03-29 18:00,ZGKL 291800Z AUTO 02004KT 6SM 18/12 A3000 RMK SLP154 T01750115 57005 IEM_DS3505
ZGKL,2006-03-29 19:00,ZGKL 291900Z AUTO 36002KT 16/15 A2997 RMK T01600150 IEM_DS3505
ZGKL,2006-03-29 20:00,ZGKL 292000Z AUTO 36002KT 16/14 A2997 RMK SLP150 T01600140 IEM_DS3505
ZGKL,2006-03-29 21:00,ZGKL 292100Z AUTO 36002KT 6SM 16/12 A2997 RMK SLP152 T01650119 57002 IEM_DS3505
ZGKL,2006-03-29 22:00,ZGKL 292200Z AUTO 00000KT 2SM 16/15 A2997 RMK SLP150 T01600150 IEM_DS3505
ZGKL,2006-03-29 23:00,ZGKL 292300Z AUTO 04002KT 2 1/2SM 16/14 A3000 RMK SLP160 T01600140 IEM_DS3505
ZGKL,2006-03-30 00:00,ZGKL 300000Z AUTO 02002KT 6SM 17/13 A3003 RMK SLP171 T01660126 52018 IEM_DS3505
ZGKL,2006-03-30 01:00,ZGKL 300100Z AUTO 00000KT 3SM 17/14 A3006 RMK SLP181 T01700140 IEM_DS3505
ZGKL,2006-03-30 02:00,ZGKL 300200Z AUTO 32002KT 2 1/2SM 18/13 A3006 RMK SLP180 T01800130 IEM_DS3505
ZGKL,2006-03-30 03:00,ZGKL 300300Z AUTO 09002KT 5SM 19/13 A3003 RMK SLP174 T01880130 52003 IEM_DS3505
ZGKL,2006-03-30 04:00,ZGKL 300400Z AUTO 35002KT 2SM 19/14 A3003 RMK SLP168 T01900140 IEM_DS3505
ZGKL,2006-03-30 05:00,ZGKL 300500Z AUTO 00000KT 2SM 19/13 A3000 RMK SLP158 T01900130 IEM_DS3505
ZGKL,2006-03-30 06:00,ZGKL 300600Z AUTO 27002KT 4SM 19/13 A3000 RMK SLP154 T01940129 57020 IEM_DS3505
ZGKL,2006-03-30 07:00,ZGKL 300700Z AUTO 32002KT 3SM 19/14 A2997 RMK SLP148 T01900140 IEM_DS3505
ZGKL,2006-03-30 08:00,ZGKL 300800Z AUTO 07002KT 3SM 18/13 A2994 RMK SLP139 T01800130 IEM_DS3505
ZGKL,2006-03-30 09:00,ZGKL 300900Z AUTO 34002KT 2 1/2SM 17/15 A2994 RMK SLP143 T01680148 57012 IEM_DS3505
ZGKL,2006-03-30 10:00,ZGKL 301000Z AUTO 13002KT 1SM 16/15 A2994 RMK SLP141 T01600150 IEM_DS3505
ZGKL,2006-03-30 11:00,ZGKL 301100Z AUTO 00000KT 1/2SM 16/15 A2994 RMK SLP141 T01600150 IEM_DS3505
ZGKL,2006-03-30 12:00,ZGKL 301200Z AUTO 09002KT 2SM 16/15 A2997 RMK 60002 SLP153 T01610153 52010 IEM_DS3505
ZGKL,2006-03-30 13:00,ZGKL 301300Z AUTO 00000KT 1/2SM 16/15 A3000 RMK SLP160 T01600150 IEM_DS3505
ZGKL,2006-03-30 14:00,ZGKL 301400Z AUTO 00000KT 1/2SM 16/15 A3000 RMK SLP160 T01600150 IEM_DS3505
ZGKL,2006-03-30 15:00,ZGKL 301500Z AUTO 27002KT 2SM 16/16 A3000 RMK SLP160 T01600155 52007 IEM_DS3505
ZGKL,2006-03-30 16:00,ZGKL 301600Z AUTO 03002KT 1/2SM 16/15 A2997 RMK SLP150 T01600150 IEM_DS3505
ZGKL,2006-03-30 17:00,ZGKL 301700Z AUTO 35004KT 1/2SM 16/15 A2997 RMK SLP150 T01600150 IEM_DS3505
ZGKL,2006-03-30 18:00,ZGKL 301800Z AUTO 36002KT 1 1/4SM 16/16 A2994 RMK 60004 SLP145 T01600155 57014 IEM_DS3505
ZGKL,2006-03-30 19:00,ZGKL 301900Z AUTO 04002KT 16/15 A2994 RMK T01600150 IEM_DS3505
ZGKL,2006-03-30 20:00,ZGKL 302000Z AUTO 00000KT 16/15 A2991 RMK T01600150 IEM_DS3505
ZGKL,2006-03-30 21:00,ZGKL 302100Z AUTO 02002KT 1SM 16/16 A2991 RMK 70009 SLP130 T01610156 57016 IEM_DS3505
ZGKL,2006-03-30 22:00,ZGKL 302200Z AUTO 00000KT 1SM 16/15 A2991 RMK SLP131 T01600150 IEM_DS3505
ZGKL,2006-03-30 23:00,ZGKL 302300Z AUTO 14002KT 1/2SM 16/16 A2991 RMK SLP131 T01600160 IEM_DS3505
ZGKL,2006-03-31 00:00,ZGKL 310000Z AUTO 14002KT 1/2SM 16/16 A2994 RMK 60003 70010 SLP137 T01620157 52007 IEM_DS3505
ZGKL,2006-03-31 01:00,ZGKL 310100Z AUTO 00000KT 1SM 16/16 A2994 RMK SLP141 T01600160 IEM_DS3505
ZGKL,2006-03-31 02:00,ZGKL 310200Z AUTO 00000KT 1SM 17/16 A2994 RMK SLP140 T01700160 IEM_DS3505
ZGKL,2006-03-31 03:00,ZGKL 310300Z AUTO 14002KT 1/2SM 17/16 A2994 RMK SLP137 T01700164 54000 IEM_DS3505
ZGKL,2006-03-31 05:00,ZGKL 310500Z AUTO 33002KT 1SM 17/16 A2988 RMK SLP120 T01700160 IEM_DS3505
ZGKL,2006-03-31 06:00,ZGKL 310600Z AUTO 34002KT 1 1/4SM 18/17 A2985 RMK 60003 SLP108 T01780167 57028 IEM_DS3505
ZGKL,2006-03-31 07:00,ZGKL 310700Z AUTO 34002KT 1SM 18/17 A2983 RMK SLP102 T01800170 IEM_DS3505
ZGKL,2006-03-31 08:00,ZGKL 310800Z AUTO 00000KT 1SM 18/17 A2980 RMK SLP091 T01800170 IEM_DS3505
ZGKL,2006-03-31 09:00,ZGKL 310900Z AUTO 07002KT 1 1/4SM 18/17 A2980 RMK SLP090 T01790171 57018 IEM_DS3505
ZGKL,2006-03-31 10:00,ZGKL 311000Z AUTO 33002KT 1SM 18/17 A2980 RMK SLP091 T01800170 IEM_DS3505
ZGKL,2006-03-31 11:00,ZGKL 311100Z AUTO 31002KT 1SM 18/17 A2980 RMK SLP091 T01800170 IEM_DS3505
ZGKL,2006-03-31 12:00,ZGKL 311200Z AUTO 34002KT 1 1/4SM 18/17 A2980 RMK 60002 SLP091 T01780173 52001 IEM_DS3505
ZGKL,2006-03-31 13:00,ZGKL 311300Z AUTO 05004KT 1SM 18/17 A2983 RMK SLP102 T01800170 IEM_DS3505
ZGKL,2006-03-31 14:00,ZGKL 311400Z AUTO 32002KT 1SM 18/17 A2983 RMK SLP102 T01800170 IEM_DS3505
ZGKL,2006-03-31 15:00,ZGKL 311500Z AUTO 00000KT 1SM 18/17 A2985 RMK SLP108 T01790174 52017 IEM_DS3505
ZGKL,2006-03-31 16:00,ZGKL 311600Z AUTO 16002KT 1SM 18/18 A2985 RMK SLP108 T01800180 IEM_DS3505
ZGKL,2006-03-31 17:00,ZGKL 311700Z AUTO 00000KT 1SM 18/17 A2983 RMK SLP102 T01800170 IEM_DS3505
ZGKL,2006-03-31 18:00,ZGKL 311800Z AUTO 36002KT 1SM 18/18 A2983 RMK 60008 SLP100 T01780175 57007 IEM_DS3505
ZGKL,2006-03-31 19:00,ZGKL 311900Z AUTO 00000KT 18/17 A2980 RMK T01800170 IEM_DS3505
ZGKL,2006-03-31 20:00,ZGKL 312000Z AUTO 00000KT 18/17 A2980 RMK T01800170 IEM_DS3505
ZGKL,2006-03-31 21:00,ZGKL 312100Z AUTO 34002KT 1SM 18/18 A2980 RMK 70026 SLP091 T01800177 57009 IEM_DS3505
ZGKL,2006-03-31 22:00,ZGKL 312200Z AUTO 00000KT 1/2SM 18/17 A2980 RMK SLP091 T01800170 IEM_DS3505
ZGKL,2006-03-31 23:00,ZGKL 312300Z AUTO 00000KT 1/2SM 18/17 A2983 RMK SLP102 T01800170 IEM_DS3505
ZGKL,2006-04-01 00:00,ZGKL 010000Z AUTO 22002KT 1SM 19/19 A2983 RMK 60024 70034 SLP104 T01900187 52013 IEM_DS3505
ZGKL,2006-04-01 01:00,ZGKL 010100Z AUTO 34004KT 2SM 20/19 A2985 RMK T02000190 IEM_DS3505
ZGKL,2006-04-01 02:00,ZGKL 010200Z AUTO 33004KT 3SM 21/19 A2985 RMK T02100190 IEM_DS3505
ZGKL,2006-04-01 03:00,ZGKL 010300Z AUTO 29004KT 6SM 23/20 A2985 RMK SLP111 T02290199 52008 IEM_DS3505
ZGKL,2006-04-01 04:00,ZGKL 010400Z AUTO 30004KT 4SM 23/20 A2985 RMK T02300200 IEM_DS3505
ZGKL,2006-04-01 05:00,ZGKL 010500Z AUTO 33004KT 4SM 24/21 A2983 RMK T02400210 IEM_DS3505
ZGKL,2006-04-01 06:00,ZGKL 010600Z AUTO 18004KT 7SM 24/20 A2980 RMK SLP089 T02410198 57021 IEM_DS3505
ZGKL,2006-04-01 07:00,ZGKL 010700Z AUTO 34004KT 4SM 24/21 A2980 RMK T02400210 IEM_DS3505
ZGKL,2006-04-01 08:00,ZGKL 010800Z AUTO 33002KT 4SM 24/21 A2977 RMK T02400210 IEM_DS3505
ZGKL,2006-04-01 09:00,ZGKL 010900Z AUTO 20002KT 7SM 24/20 A2977 RMK SLP077 T02430200 57012 IEM_DS3505
ZGKL,2006-04-01 10:00,ZGKL 011000Z AUTO 30004KT 4SM 23/21 A2977 RMK T02300210 IEM_DS3505
ZGKL,2006-04-01 11:00,ZGKL 011100Z AUTO 35004KT 3SM 22/21 A2980 RMK T02200210 IEM_DS3505
ZGKL,2006-04-01 12:00,ZGKL 011200Z AUTO 25002KT 5SM 22/20 A2980 RMK SLP090 T02180203 52013 IEM_DS3505
ZGKL,2006-04-01 13:00,ZGKL 011300Z AUTO 29002KT 1 1/4SM 21/20 A2983 RMK T02100200 IEM_DS3505
ZGKL,2006-04-01 14:00,ZGKL 011400Z AUTO 34002KT 1/2SM 21/20 A2985 RMK T02100200 IEM_DS3505
ZGKL,2006-04-01 15:00,ZGKL 011500Z AUTO 32002KT 5SM 21/20 A2988 RMK SLP111 T02080200 52021 IEM_DS3505
ZGKL,2006-04-01 16:00,ZGKL 011600Z AUTO 31002KT 1SM 20/19 A2985 RMK T02000190 IEM_DS3505
ZGKL,2006-04-01 17:00,ZGKL 011700Z AUTO 31004KT 1SM 20/19 A2985 RMK T02000190 IEM_DS3505
ZGKL,2006-04-01 18:00,ZGKL 011800Z AUTO 04002KT 5SM 20/20 A2985 RMK SLP112 T02050197 52001 IEM_DS3505
ZGKL,2006-04-01 19:00,ZGKL 011900Z AUTO 00000KT 1SM 19/19 A2988 RMK T01900190 IEM_DS3505
ZGKL,2006-04-01 20:00,ZGKL 012000Z AUTO 00000KT 19/19 A2985 RMK T01900190 IEM_DS3505
ZGKL,2006-04-01 21:00,ZGKL 012100Z AUTO 34002KT 5SM 20/19 A2985 RMK 70009 SLP111 T01990192 57001 IEM_DS3505
ZGKL,2006-04-01 22:00,ZGKL 012200Z AUTO 00000KT 1SM 19/18 A2988 RMK T01900180 IEM_DS3505
ZGKL,2006-04-01 23:00,ZGKL 012300Z AUTO 00000KT 1SM 19/18 A2988 RMK T01900180 IEM_DS3505
ZGKL,2006-04-02 00:00,ZGKL 020000Z AUTO 02002KT 2SM 20/19 A2991 RMK SLP133 T01990194 52021 IEM_DS3505
ZGKL,2006-04-02 01:00,ZGKL 020100Z AUTO 00000KT 1 1/4SM 21/20 A2994 RMK T02100200 IEM_DS3505
ZGKL,2006-04-02 02:00,ZGKL 020200Z AUTO 36002KT 3SM 22/20 A2994 RMK T02200200 IEM_DS3505
ZGKL,2006-04-02 03:00,ZGKL 020300Z AUTO 27002KT 4SM 24/20 A2994 RMK SLP135 T02420201 52003 IEM_DS3505
ZGKL,2006-04-02 04:00,ZGKL 020400Z AUTO 29002KT 3SM 25/20 A2991 RMK T02500200 IEM_DS3505
ZGKL,2006-04-02 05:00,ZGKL 020500Z AUTO 02002KT 3SM 27/20 A2988 RMK T02700200 IEM_DS3505
ZGKL,2006-04-02 06:00,ZGKL 020600Z AUTO 20002KT 7SM 29/21 A2985 RMK SLP099 T02920209 57034 IEM_DS3505
ZGKL,2006-04-02 07:00,ZGKL 020700Z AUTO 15004KT 4SM 29/20 A2980 RMK T02900200 IEM_DS3505
ZGKL,2006-04-02 08:00,ZGKL 020800Z AUTO 10004KT 5SM 29/20 A2977 RMK T02900200 IEM_DS3505
ZGKL,2006-04-02 09:00,ZGKL 020900Z AUTO 18004KT 9SM 29/20 A2977 RMK SLP071 T02920195 57027 IEM_DS3505
ZGKL,2006-04-02 10:00,ZGKL 021000Z AUTO 19010KT 5SM 29/19 A2977 RMK T02900190 IEM_DS3505
ZGKL,2006-04-02 11:00,ZGKL 021100Z AUTO 17006KT 5SM 27/20 A2977 RMK T02700200 IEM_DS3505
ZGKL,2006-04-02 12:00,ZGKL 021200Z AUTO 18004KT 7SM 26/20 A2980 RMK SLP083 T02640203 52010 IEM_DS3505
ZGKL,2006-04-02 13:00,ZGKL 021300Z AUTO 24002KT 5SM 24/21 A2980 RMK T02400210 IEM_DS3505
ZGKL,2006-04-02 14:00,ZGKL 021400Z AUTO 20002KT 4SM 23/20 A2983 RMK T02300200 IEM_DS3505
ZGKL,2006-04-02 15:00,ZGKL 021500Z AUTO 18004KT 7SM 25/20 A2983 RMK SLP099 T02500198 52017 IEM_DS3505
ZGKL,2006-04-02 16:00,ZGKL 021600Z AUTO 00000KT 3SM 22/20 A2983 RMK T02200200 IEM_DS3505
ZGKL,2006-04-02 17:00,ZGKL 021700Z AUTO 00000KT 3SM 22/20 A2983 RMK T02200200 IEM_DS3505
ZGKL,2006-04-02 18:00,ZGKL 021800Z AUTO 20004KT 7SM 24/20 A2980 RMK SLP087 T02360199 57011 IEM_DS3505
ZGKL,2006-04-02 19:00,ZGKL 021900Z AUTO 19002KT 22/20 A2980 RMK T02200200 IEM_DS3505
ZGKL,2006-04-02 20:00,ZGKL 022000Z AUTO 18002KT 22/20 A2980 RMK T02200200 IEM_DS3505
ZGKL,2006-04-02 21:00,ZGKL 022100Z AUTO 18006KT 7SM 23/20 A2977 RMK SLP077 T02310199 57010 IEM_DS3505
ZGKL,2006-04-02 22:00,ZGKL 022200Z AUTO 13006KT 4SM 22/20 A2980 RMK T02200200 IEM_DS3505
ZGKL,2006-04-02 23:00,ZGKL 022300Z AUTO 13004KT 4SM 23/20 A2980 RMK T02300200 IEM_DS3505
ZGKL,2006-04-03 00:00,ZGKL 030000Z AUTO 18004KT 9SM 24/20 A2980 RMK SLP093 T02360201 52015 IEM_DS3505
ZGKL,2006-04-03 01:00,ZGKL 030100Z AUTO 18014KT 4SM 25/20 A2983 RMK T02500200 IEM_DS3505
ZGKL,2006-04-03 02:00,ZGKL 030200Z AUTO 18016KT 6SM 26/21 A2983 RMK T02600210 IEM_DS3505
ZGKL,2006-04-03 03:00,ZGKL 030300Z AUTO 18008KT 9SM 26/20 A2983 RMK SLP095 T02650201 52003 IEM_DS3505
ZGKL,2006-04-03 04:00,ZGKL 030400Z AUTO 17014KT 7SM 27/20 A2980 RMK T02700200 IEM_DS3505
ZGKL,2006-04-03 05:00,ZGKL 030500Z AUTO 18016KT 7SM 28/21 A2977 RMK T02800210 IEM_DS3505
ZGKL,2006-04-03 06:00,ZGKL 030600Z AUTO 22004KT 9SM 28/20 A2974 RMK SLP064 T02780196 57031 IEM_DS3505
ZGKL,2006-04-03 07:00,ZGKL 030700Z AUTO 20016KT 6SM 29/19 A2971 RMK T02900190 IEM_DS3505
ZGKL,2006-04-03 08:00,ZGKL 030800Z AUTO 20017KT 7SM 29/20 A2968 RMK T02900200 IEM_DS3505
ZGKL,2006-04-03 09:00,ZGKL 030900Z AUTO 20008KT 9SM 30/18 A2968 RMK SLP042 T03020183 57021 IEM_DS3505
ZGKL,2006-04-03 10:00,ZGKL 031000Z AUTO 20012KT 7SM 28/20 A2968 RMK T02800200 IEM_DS3505
ZGKL,2006-04-03 11:00,ZGKL 031100Z AUTO 18008KT 7SM 27/21 A2968 RMK T02700210 IEM_DS3505
ZGKL,2006-04-03 12:00,ZGKL 031200Z AUTO 18004KT 9SM 27/19 A2968 RMK SLP048 T02740192 52006 IEM_DS3505
ZGKL,2006-04-03 13:00,ZGKL 031300Z AUTO 16004KT 6SM 26/20 A2971 RMK T02600200 IEM_DS3505
ZGKL,2006-04-03 14:00,ZGKL 031400Z AUTO 19008KT 6SM 27/20 A2974 RMK T02700200 IEM_DS3505
ZGKL,2006-04-03 15:00,ZGKL 031500Z AUTO 20006KT 9SM 27/20 A2974 RMK SLP064 T02710197 52016 IEM_DS3505
ZGKL,2006-04-03 16:00,ZGKL 031600Z AUTO 18016KT 6SM 27/20 A2974 RMK T02700200 IEM_DS3505
ZGKL,2006-04-03 18:00,ZGKL 031800Z AUTO 18006KT 9SM 26/20 RMK SLP061 T02620196 57003 IEM_DS3505
ZGKL,2006-04-03 19:00,ZGKL 031900Z AUTO 17014KT 26/19 A2974 RMK T02600190 IEM_DS3505
ZGKL,2006-04-03 20:00,ZGKL 032000Z AUTO 17016KT 25/20 A2971 RMK T02500200 IEM_DS3505
ZGKL,2006-04-03 21:00,ZGKL 032100Z AUTO 18004KT 9SM 25/19 A2971 RMK SLP056 T02520193 57004 IEM_DS3505
ZGKL,2006-04-03 22:00,ZGKL 032200Z AUTO 17014KT 7SM 25/20 A2974 RMK T02500200 IEM_DS3505
ZGKL,2006-04-03 23:00,ZGKL 032300Z AUTO 17014KT 7SM 25/20 A2974 RMK T02500200 IEM_DS3505
ZGKL,2006-04-04 00:00,ZGKL 040000Z AUTO 18006KT 9SM 25/19 A2977 RMK SLP072 T02510192 52015 IEM_DS3505
ZGKL,2006-04-04 01:00,ZGKL 040100Z AUTO 17016KT 7SM 25/20 A2977 RMK T02500200 IEM_DS3505
ZGKL,2006-04-04 02:00,ZGKL 040200Z AUTO 17016KT 7SM 26/21 A2977 RMK T02600210 IEM_DS3505
ZGKL,2006-04-04 03:00,ZGKL 040300Z AUTO 18008KT 9SM 27/20 A2977 RMK SLP073 T02690198 52001 IEM_DS3505
ZGKL,2006-04-04 04:00,ZGKL 040400Z AUTO 18012KT 7SM 27/20 A2977 RMK T02700200 IEM_DS3505
ZGKL,2006-04-04 05:00,ZGKL 040500Z AUTO 19008KT 7SM 28/20 A2974 RMK T02800200 IEM_DS3505
ZGKL,2006-04-04 06:00,ZGKL 040600Z AUTO 18010KT 11SM 29/20 A2968 RMK SLP045 T02920201 57027 IEM_DS3505
ZGKL,2006-04-04 07:00,ZGKL 040700Z AUTO 00000KT 7SM 29/21 A2968 RMK T02900210 IEM_DS3505
ZGKL,2006-04-04 08:00,ZGKL 040800Z AUTO 19008KT 7SM 30/20 A2962 RMK T03000200 IEM_DS3505
ZGKL,2006-04-04 09:00,ZGKL 040900Z AUTO 18008KT 12SM 31/20 A2962 RMK SLP024 T03060199 57020 IEM_DS3505
ZGKL,2006-04-04 10:00,ZGKL 041000Z AUTO 19014KT 7SM 29/21 A2965 RMK T02900210 IEM_DS3505
ZGKL,2006-04-04 11:00,ZGKL 041100Z AUTO 18012KT 7SM 28/21 A2965 RMK T02800210 IEM_DS3505
ZGKL,2006-04-04 12:00,ZGKL 041200Z AUTO 25006KT 10SM 29/20 A2968 RMK SLP044 T02860198 52019 IEM_DS3505
ZGKL,2006-04-04 13:00,ZGKL 041300Z AUTO 16008KT 6SM 27/21 A2971 RMK T02700210 IEM_DS3505
ZGKL,2006-04-04 14:00,ZGKL 041400Z AUTO 17008KT 7SM 27/21 A2971 RMK T02700210 IEM_DS3505
ZGKL,2006-04-04 15:00,ZGKL 041500Z AUTO 14002KT 9SM 27/20 A2971 RMK SLP058 T02700204 52013 IEM_DS3505
ZGKL,2006-04-04 16:00,ZGKL 041600Z AUTO 19002KT 7SM 26/20 A2974 RMK T02600200 IEM_DS3505
ZGKL,2006-04-04 17:00,ZGKL 041700Z AUTO 19002KT 6SM 25/21 A2974 RMK T02500210 IEM_DS3505
ZGKL,2006-04-04 18:00,ZGKL 041800Z AUTO 09002KT 9SM 26/21 A2974 RMK SLP060 T02570209 52003 IEM_DS3505
ZGKL,2006-04-04 19:00,ZGKL 041900Z AUTO 00000KT 23/21 A2971 RMK T02300210 IEM_DS3505
ZGKL,2006-04-04 20:00,ZGKL 042000Z AUTO 09004KT 24/21 A2971 RMK T02400210 IEM_DS3505
ZGKL,2006-04-04 21:00,ZGKL 042100Z AUTO 02012KT 5SM 19/18 A2977 RMK 70099 SLP090 T01880180 52027 IEM_DS3505
ZGKL,2006-04-04 22:00,ZGKL 042200Z AUTO 06010KT 7SM 19/18 A2980 RMK T01900180 IEM_DS3505
ZGKL,2006-04-04 23:00,ZGKL 042300Z AUTO 06008KT 7SM 19/16 A2985 RMK T01900160 IEM_DS3505
ZGKL,2006-04-05 00:00,ZGKL 050000Z AUTO 02008KT 9SM 18/15 A2988 RMK 60138 70138 SLP121 T01840151 52030 IEM_DS3505
ZGKL,2006-04-05 01:00,ZGKL 050100Z AUTO 03006KT 7SM 20/16 A2991 RMK T02000160 IEM_DS3505
ZGKL,2006-04-05 02:00,ZGKL 050200Z AUTO 04010KT 7SM 20/16 A2991 RMK T02000160 IEM_DS3505
ZGKL,2006-04-05 03:00,ZGKL 050300Z AUTO 02010KT 10SM 19/14 A2991 RMK SLP125 T01910139 52004 IEM_DS3505
ZGKL,2006-04-05 04:00,ZGKL 050400Z AUTO 02006KT 7SM 20/16 A2988 RMK T02000160 IEM_DS3505
ZGKL,2006-04-05 05:00,ZGKL 050500Z AUTO 05006KT 7SM 21/15 A2988 RMK T02100150 IEM_DS3505
ZGKL,2006-04-05 06:00,ZGKL 050600Z AUTO 04006KT 9SM 20/14 A2985 RMK SLP106 T02030142 57019 IEM_DS3505
ZGKL,2006-04-05 07:00,ZGKL 050700Z AUTO 06008KT 7SM 20/15 A2983 RMK T02000150 IEM_DS3505
ZGKL,2006-04-05 08:00,ZGKL 050800Z AUTO 06010KT 7SM 20/14 A2983 RMK T02000140 IEM_DS3505
ZGKL,2006-04-05 09:00,ZGKL 050900Z AUTO 02004KT 9SM 19/14 A2983 RMK SLP097 T01880143 57012 IEM_DS3505
ZGKL,2006-04-05 10:00,ZGKL 051000Z AUTO 03006KT 5SM 19/15 A2983 RMK T01900150 IEM_DS3505
ZGKL,2006-04-05 11:00,ZGKL 051100Z AUTO 02004KT 5SM 19/14 A2985 RMK T01900140 IEM_DS3505
ZGKL,2006-04-05 12:00,ZGKL 051200Z AUTO 02006KT 7SM 18/14 A2988 RMK SLP117 T01770138 52020 IEM_DS3505
ZGKL,2006-04-05 13:00,ZGKL 051300Z AUTO 06008KT 4SM 18/14 A2988 RMK T01800140 IEM_DS3505
ZGKL,2006-04-05 14:00,ZGKL 051400Z AUTO 08008KT 4SM 18/14 A2988 RMK T01800140 IEM_DS3505
ZGKL,2006-04-05 15:00,ZGKL 051500Z AUTO 02008KT 6SM 17/13 A2988 RMK SLP122 T01700131 52004 IEM_DS3505
ZGKL,2006-04-05 16:00,ZGKL 051600Z AUTO 06004KT 4SM 17/14 A2988 RMK T01700140 IEM_DS3505
ZGKL,2006-04-05 17:00,ZGKL 051700Z AUTO 00000KT 17/14 A2988 RMK T01700140 IEM_DS3505
ZGKL,2006-04-05 18:00,ZGKL 051800Z AUTO 09008KT 4SM 15/14 A2991 RMK 60071 SLP129 T01530145 52007 IEM_DS3505
ZGKL,2006-04-05 19:00,ZGKL 051900Z AUTO 03006KT 16/15 A2991 RMK T01600150 IEM_DS3505
ZGKL,2006-04-05 20:00,ZGKL 052000Z AUTO 04004KT 16/14 A2991 RMK T01600140 IEM_DS3505
ZGKL,2006-04-05 21:00,ZGKL 052100Z AUTO 02006KT 5SM 15/13 A2994 RMK 70141 SLP143 T01480133 52013 IEM_DS3505
ZGKL,2006-04-05 22:00,ZGKL 052200Z AUTO 10004KT 3SM 15/14 A2994 RMK T01500140 IEM_DS3505
ZGKL,2006-04-05 23:00,ZGKL 052300Z AUTO 28002KT 4SM 15/14 A2997 RMK T01500140 IEM_DS3505
ZGKL,2006-04-06 00:00,ZGKL 060000Z AUTO 02006KT 9SM 16/13 A3000 RMK 60031 70104 SLP165 T01550132 52022 IEM_DS3505
ZGKL,2006-04-06 01:00,ZGKL 060100Z AUTO 00000KT 4SM 17/15 A3003 RMK T01700150 IEM_DS3505
ZGKL,2006-04-06 02:00,ZGKL 060200Z AUTO 08004KT 7SM 18/15 A3006 RMK T01800150 IEM_DS3505
ZGKL,2006-04-06 03:00,ZGKL 060300Z AUTO 07006KT 10SM 20/14 A3006 RMK SLP181 T01950137 52016 IEM_DS3505
ZGKL,2006-04-06 04:00,ZGKL 060400Z AUTO 02006KT 7SM 20/14 A3003 RMK T02000140 IEM_DS3505
ZGKL,2006-04-06 05:00,ZGKL 060500Z AUTO 28004KT 7SM 21/14 A3003 RMK T02100140 IEM_DS3505
ZGKL,2006-04-06 06:00,ZGKL 060600Z AUTO 02006KT 16SM 23/14 A2997 RMK SLP151 T02300138 57028 IEM_DS3505
ZGKL,2006-04-06 07:00,ZGKL 060700Z AUTO 30004KT 7SM 23/15 A2994 RMK T02300150 IEM_DS3505
ZGKL,2006-04-06 08:00,ZGKL 060800Z AUTO 36002KT 7SM 24/14 A2991 RMK T02400140 IEM_DS3505
ZGKL,2006-04-06 09:00,ZGKL 060900Z AUTO 02008KT 16SM 23/14 A2991 RMK SLP131 T02270143 57020 IEM_DS3505
ZGKL,2006-04-06 10:00,ZGKL 061000Z AUTO 06010KT 6SM 22/14 A2991 RMK T02200140 IEM_DS3505
ZGKL,2006-04-06 11:00,ZGKL 061100Z AUTO 06010KT 7SM 21/14 A2994 RMK T02100140 IEM_DS3505
ZGKL,2006-04-06 12:00,ZGKL 061200Z AUTO 02004KT 11SM 19/14 A2997 RMK SLP153 T01860137 52020 IEM_DS3505
ZGKL,2006-04-06 13:00,ZGKL 061300Z AUTO 03006KT 7SM 20/13 A3000 RMK T02000130 IEM_DS3505
ZGKL,2006-04-06 14:00,ZGKL 061400Z AUTO 03010KT 7SM 19/13 A3003 RMK T01900130 IEM_DS3505
ZGKL,2006-04-06 15:00,ZGKL 061500Z AUTO 02004KT 10SM 17/13 A3003 RMK SLP173 T01730130 52021 IEM_DS3505
ZGKL,2006-04-06 16:00,ZGKL 061600Z AUTO 01006KT 7SM 18/12 A3003 RMK T01800120 IEM_DS3505
ZGKL,2006-04-06 17:00,ZGKL 061700Z AUTO 34004KT 6SM 18/13 A3003 RMK T01800130 IEM_DS3505
ZGKL,2006-04-06 18:00,ZGKL 061800Z AUTO 02004KT 10SM 17/12 A3003 RMK SLP167 T01710122 57005 IEM_DS3505
ZGKL,2006-04-06 19:00,ZGKL 061900Z AUTO 23002KT 6SM 17/14 A3000 RMK T01700140 IEM_DS3505
ZGKL,2006-04-06 20:00,ZGKL 062000Z AUTO 14004KT 17/15 A2997 RMK T01700150 IEM_DS3505
ZGKL,2006-04-06 21:00,ZGKL 062100Z AUTO 27004KT 7SM 16/14 A2997 RMK 70007 SLP156 T01620135 57011 IEM_DS3505
ZGKL,2006-04-06 22:00,ZGKL 062200Z AUTO 20006KT 1 1/2SM 16/15 A3000 RMK T01600150 IEM_DS3505
ZGKL,2006-04-06 23:00,ZGKL 062300Z AUTO 00000KT 3SM 16/14 A3000 RMK T01600140 IEM_DS3505
ZGKL,2006-04-07 00:00,ZGKL 070000Z AUTO 02002KT 7SM 16/14 A3000 RMK 60012 70011 SLP166 T01610143 52008 IEM_DS3505
ZGKL,2006-04-07 03:00,ZGKL 070300Z AUTO 20004KT 7SM 20/15 A3000 RMK SLP163 T02020150 57002 IEM_DS3505
ZGKL,2006-04-07 04:00,ZGKL 070400Z AUTO 10002KT 5SM 20/13 A3000 RMK T02000130 IEM_DS3505
ZGKL,2006-04-07 05:00,ZGKL 070500Z AUTO 21004KT 5SM 21/15 A2997 RMK T02100150 IEM_DS3505
ZGKL,2006-04-07 06:00,ZGKL 070600Z AUTO 18006KT 9SM 21/15 A2994 RMK SLP140 T02100153 57022 IEM_DS3505
ZGKL,2006-04-07 07:00,ZGKL 070700Z AUTO 14006KT 5SM 20/15 A2991 RMK T02000150 IEM_DS3505
ZGKL,2006-04-07 08:00,ZGKL 070800Z AUTO 11004KT 5SM 20/16 A2991 RMK T02000160 IEM_DS3505
ZGKL,2006-04-07 09:00,ZGKL 070900Z AUTO 20006KT 9SM 21/16 A2991 RMK SLP126 T02100160 57014 IEM_DS3505
ZGKL,2006-04-07 10:00,ZGKL 071000Z AUTO 00000KT 5SM 20/16 A2991 RMK T02000160 IEM_DS3505
ZGKL,2006-04-07 11:00,ZGKL 071100Z AUTO 14002KT 5SM 20/16 A2991 RMK T02000160 IEM_DS3505
ZGKL,2006-04-07 12:00,ZGKL 071200Z AUTO 20002KT 9SM 20/16 A2991 RMK SLP136 T02010163 52009 IEM_DS3505
ZGKL,2006-04-07 13:00,ZGKL 071300Z AUTO 00000KT 4SM 20/17 A2994 RMK T02000170 IEM_DS3505
ZGKL,2006-04-07 14:00,ZGKL 071400Z AUTO 00000KT 3SM 20/17 A2994 RMK T02000170 IEM_DS3505
ZGKL,2006-04-07 15:00,ZGKL 071500Z AUTO 32002KT 9SM 20/17 A2994 RMK SLP143 T01960172 52008 IEM_DS3505
ZGKL,2006-04-07 16:00,ZGKL 071600Z AUTO 35004KT 4SM 19/18 A2994 RMK T01900180 IEM_DS3505
ZGKL,2006-04-07 17:00,ZGKL 071700Z AUTO 35004KT 3SM 19/17 A2991 RMK T01900170 IEM_DS3505
ZGKL,2006-04-07 18:00,ZGKL 071800Z AUTO 16002KT 9SM 19/17 A2991 RMK 60000 SLP122 T01920172 57020 IEM_DS3505
ZGKL,2006-04-07 19:00,ZGKL 071900Z AUTO 01004KT 19/18 A2988 RMK T01900180 IEM_DS3505
ZGKL,2006-04-07 20:00,ZGKL 072000Z AUTO 34004KT 19/18 A2985 RMK T01900180 IEM_DS3505
ZGKL,2006-04-07 21:00,ZGKL 072100Z AUTO 33002KT 6SM 18/18 A2985 RMK 70017 SLP109 T01840176 57013 IEM_DS3505
ZGKL,2006-04-07 22:00,ZGKL 072200Z AUTO 33002KT 2SM 19/18 A2985 RMK T01900180 IEM_DS3505
ZGKL,2006-04-07 23:00,ZGKL 072300Z AUTO 01002KT 1 1/2SM 19/18 A2985 RMK T01900180 IEM_DS3505
ZGKL,2006-04-08 00:00,ZGKL 080000Z AUTO 11002KT 2 1/2SM 19/18 A2988 RMK 60016 70015 SLP120 T01890181 52010 IEM_DS3505
ZGKL,2006-04-08 01:00,ZGKL 080100Z AUTO 31002KT 2SM 19/18 A2988 RMK T01900180 IEM_DS3505
ZGKL,2006-04-08 02:00,ZGKL 080200Z AUTO 33002KT 2SM 19/18 A2988 RMK T01900180 IEM_DS3505
ZGKL,2006-04-08 03:00,ZGKL 080300Z AUTO 29002KT 4SM 20/19 A2988 RMK SLP121 T02010188 52002 IEM_DS3505
ZGKL,2006-04-08 04:00,ZGKL 080400Z AUTO 14002KT 2SM 20/18 A2988 RMK T02000180 IEM_DS3505
ZGKL,2006-04-08 05:00,ZGKL 080500Z AUTO 00000KT 2SM 20/18 A2985 RMK T02000180 IEM_DS3505
ZGKL,2006-04-08 06:00,ZGKL 080600Z AUTO 02002KT 5SM 21/20 A2980 RMK 60008 SLP091 T02090196 57030 IEM_DS3505
ZGKL,2006-04-08 07:00,ZGKL 080700Z AUTO 33002KT 1 1/4SM 20/19 A2977 RMK T02000190 IEM_DS3505
ZGKL,2006-04-08 08:00,ZGKL 080800Z AUTO 00000KT 1SM 20/19 A2977 RMK T02000190 IEM_DS3505
ZGKL,2006-04-08 09:00,ZGKL 080900Z AUTO 04002KT 3SM 20/20 A2974 RMK SLP073 T02020195 57018 IEM_DS3505
ZGKL,2006-04-08 10:00,ZGKL 081000Z AUTO 00000KT 1SM 20/19 A2974 RMK T02000190 IEM_DS3505
ZGKL,2006-04-08 11:00,ZGKL 081100Z AUTO 31002KT 1SM 20/19 A2974 RMK T02000190 IEM_DS3505
ZGKL,2006-04-08 12:00,ZGKL 081200Z AUTO 32002KT 2 1/2SM 20/20 A2977 RMK 60004 SLP078 T02030198 52005 IEM_DS3505
ZGKL,2006-04-08 13:00,ZGKL 081300Z AUTO 34002KT 1SM 20/20 A2980 RMK T02000200 IEM_DS3505
ZGKL,2006-04-08 14:00,ZGKL 081400Z AUTO 00000KT 1SM 20/20 A2980 RMK T02000200 IEM_DS3505
ZGKL,2006-04-08 15:00,ZGKL 081500Z AUTO 18004KT 2 1/2SM 21/20 A2983 RMK SLP092 T02130198 52015 IEM_DS3505
ZGKL,2006-04-08 16:00,ZGKL 081600Z AUTO 23002KT 1SM 20/20 A2983 RMK T02000200 IEM_DS3505
ZGKL,2006-04-08 17:00,ZGKL 081700Z AUTO 35002KT 1 1/4SM 20/20 A2980 RMK T02000200 IEM_DS3505
ZGKL,2006-04-08 18:00,ZGKL 081800Z AUTO 20002KT 2 1/2SM 22/20 A2980 RMK 60003 SLP086 T02160199 57006 IEM_DS3505
ZGKL,2006-04-08 19:00,ZGKL 081900Z AUTO 19002KT 2SM 20/20 A2977 RMK T02000200 IEM_DS3505
ZGKL,2006-04-08 20:00,ZGKL 082000Z AUTO 20004KT 2 1/2SM 22/21 A2974 RMK T02200210 IEM_DS3505
ZGKL,2006-04-08 21:00,ZGKL 082100Z AUTO 20002KT 5SM 21/20 A2974 RMK 70022 SLP065 T02140200 57021 IEM_DS3505
ZGKL,2006-04-08 22:00,ZGKL 082200Z AUTO 18010KT 7SM 23/21 A2974 RMK T02300210 IEM_DS3505
ZGKL,2006-04-08 23:00,ZGKL 082300Z AUTO 17010KT 5SM 23/21 A2974 RMK T02300210 IEM_DS3505
ZGKL,2006-04-09 00:00,ZGKL 090000Z AUTO 18004KT 7SM 22/20 A2977 RMK 60004 70019 SLP083 T02230200 52018 IEM_DS3505
ZGKL,2006-04-09 01:00,ZGKL 090100Z AUTO 18012KT 5SM 24/21 A2980 RMK T02400210 IEM_DS3505
ZGKL,2006-04-09 02:00,ZGKL 090200Z AUTO 18012KT 5SM 25/22 A2980 RMK T02500220 IEM_DS3505
ZGKL,2006-04-09 03:00,ZGKL 090300Z AUTO 18006KT 7SM 26/21 A2980 RMK SLP083 T02580208 52002 IEM_DS3505
ZGKL,2006-04-09 04:00,ZGKL 090400Z AUTO 17014KT 5SM 26/21 A2977 RMK T02600210 IEM_DS3505
ZGKL,2006-04-09 05:00,ZGKL 090500Z AUTO 17012KT 5SM 26/22 A2974 RMK T02600220 IEM_DS3505
ZGKL,2006-04-09 06:00,ZGKL 090600Z AUTO 18008KT 8SM 27/21 RMK SLP055 T02740210 57027 IEM_DS3505
ZGKL,2006-04-09 07:00,ZGKL 090700Z AUTO 17014KT 5SM 27/22 A2968 RMK T02700220 IEM_DS3505
ZGKL,2006-04-09 08:00,ZGKL 090800Z AUTO 18014KT 5SM 27/22 A2965 RMK T02700220 IEM_DS3505
ZGKL,2006-04-09 09:00,ZGKL 090900Z AUTO 20006KT 10SM 28/21 A2965 RMK SLP030 T02760209 57025 IEM_DS3505
ZGKL,2006-04-09 10:00,ZGKL 091000Z AUTO 17012KT 5SM 27/21 A2962 RMK T02700210 IEM_DS3505
ZGKL,2006-04-09 11:00,ZGKL 091100Z AUTO 18012KT 5SM 26/21 A2965 RMK T02600210 IEM_DS3505
ZGKL,2006-04-09 12:00,ZGKL 091200Z AUTO 20004KT 9SM 25/21 A2962 RMK SLP027 T02520209 57003 IEM_DS3505
ZGKL,2006-04-09 13:00,ZGKL 091300Z AUTO 13006KT 4SM 25/21 A2965 RMK T02500210 IEM_DS3505
ZGKL,2006-04-09 14:00,ZGKL 091400Z AUTO 19002KT 4SM 24/22 A2965 RMK T02400220 IEM_DS3505
ZGKL,2006-04-09 15:00,ZGKL 091500Z AUTO 20006KT 8SM 25/21 A2968 RMK SLP041 T02530206 52015 IEM_DS3505
ZGKL,2006-04-09 16:00,ZGKL 091600Z AUTO 20012KT 4SM 26/20 A2968 RMK T02600200 IEM_DS3505
ZGKL,2006-04-09 17:00,ZGKL 091700Z AUTO 20014KT 4SM 25/20 A2971 RMK T02500200 IEM_DS3505
ZGKL,2006-04-09 18:00,ZGKL 091800Z AUTO 14004KT 6SM 19/18 A2974 RMK 60122 SLP067 T01870180 52024 IEM_DS3505
ZGKL,2006-04-09 19:00,ZGKL 091900Z AUTO 16002KT 19/18 A2974 RMK T01900180 IEM_DS3505
ZGKL,2006-04-09 20:00,ZGKL 092000Z AUTO 09002KT 19/18 A2974 RMK T01900180 IEM_DS3505
ZGKL,2006-04-09 21:00,ZGKL 092100Z AUTO 14004KT 6SM 19/18 A2971 RMK 70162 SLP048 T01870179 57019 IEM_DS3505
ZGKL,2006-04-09 22:00,ZGKL 092200Z AUTO 00000KT 4SM 19/18 A2971 RMK T01900180 IEM_DS3505
ZGKL,2006-04-09 23:00,ZGKL 092300Z AUTO 00000KT 4SM 19/18 A2977 RMK T01900180 IEM_DS3505
ZGKL,2006-04-10 00:00,ZGKL 100000Z AUTO 04002KT 7SM 19/18 A2977 RMK 60043 70165 SLP080 T01940182 52031 IEM_DS3505
ZGKL,2006-04-10 01:00,ZGKL 100100Z AUTO 00000KT 4SM 20/18 A2977 RMK T02000180 IEM_DS3505
ZGKL,2006-04-10 02:00,ZGKL 100200Z AUTO 00000KT 4SM 20/19 A2977 RMK T02000190 IEM_DS3505
ZGKL,2006-04-10 03:00,ZGKL 100300Z AUTO 09002KT 8SM 21/18 A2977 RMK SLP082 T02110183 52003 IEM_DS3505
ZGKL,2006-04-10 04:00,ZGKL 100400Z AUTO 30002KT 7SM 22/18 A2977 RMK T02200180 IEM_DS3505
ZGKL,2006-04-10 05:00,ZGKL 100500Z AUTO 32004KT 7SM 23/19 A2974 RMK T02300190 IEM_DS3505
ZGKL,2006-04-10 06:00,ZGKL 100600Z AUTO 34002KT 6SM 23/19 A2968 RMK SLP052 T02340187 57031 IEM_DS3505
ZGKL,2006-04-10 07:00,ZGKL 100700Z AUTO 28002KT 7SM 24/20 A2965 RMK T02400200 IEM_DS3505
ZGKL,2006-04-10 08:00,ZGKL 100800Z AUTO 31004KT 6SM 26/20 A2965 RMK T02600200 IEM_DS3505
ZGKL,2006-04-10 09:00,ZGKL 100900Z AUTO 02004KT 9SM 26/20 A2962 RMK SLP025 T02630204 57026 IEM_DS3505
ZGKL,2006-04-10 10:00,ZGKL 101000Z AUTO 31006KT 6SM 26/20 A2962 RMK T02600200 IEM_DS3505
ZGKL,2006-04-10 11:00,ZGKL 101100Z AUTO 32002KT 6SM 25/21 A2962 RMK T02500210 IEM_DS3505
ZGKL,2006-04-10 12:00,ZGKL 101200Z AUTO 14002KT 9SM 24/21 A2962 RMK SLP030 T02360207 52004 IEM_DS3505
ZGKL,2006-04-10 13:00,ZGKL 101300Z AUTO 00000KT 7SM 24/21 A2965 RMK T02400210 IEM_DS3505
ZGKL,2006-04-10 14:00,ZGKL 101400Z AUTO 00000KT 5SM 23/21 A2968 RMK T02300210 IEM_DS3505
ZGKL,2006-04-10 15:00,ZGKL 101500Z AUTO 14002KT 7SM 22/21 A2968 RMK SLP052 T02200208 52022 IEM_DS3505
ZGKL,2006-04-10 17:00,ZGKL 101700Z AUTO 00000KT 22/20 A2968 RMK T02200200 IEM_DS3505
ZGKL,2006-04-10 18:00,ZGKL 101800Z AUTO 18002KT 7SM 22/21 A2965 RMK SLP039 T02150207 57012 IEM_DS3505
ZGKL,2006-04-10 19:00,ZGKL 101900Z AUTO 00000KT 22/21 A2965 RMK T02200210 IEM_DS3505
ZGKL,2006-04-10 20:00,ZGKL 102000Z AUTO 06002KT 21/21 A2962 RMK T02100210 IEM_DS3505
ZGKL,2006-04-10 21:00,ZGKL 102100Z AUTO 11002KT 7SM A2962 RMK 70003 SLP031 57007 IEM_DS3505
ZGKL,2006-04-10 22:00,ZGKL 102200Z AUTO 11002KT 2 1/2SM 22/21 A2965 RMK T02200210 IEM_DS3505
ZGKL,2006-04-10 23:00,ZGKL 102300Z AUTO 00000KT 2 1/2SM 22/21 A2965 RMK T02200210 IEM_DS3505
ZGKL,2006-04-11 00:00,ZGKL 110000Z AUTO 34002KT 5SM 22/21 A2968 RMK SLP044 T02200206 52012 IEM_DS3505
ZGKL,2006-04-11 01:00,ZGKL 110100Z AUTO 10002KT 2 1/2SM 23/21 A2968 RMK T02300210 IEM_DS3505
ZGKL,2006-04-11 02:00,ZGKL 110200Z AUTO 35002KT 2 1/2SM 24/22 A2968 RMK T02400220 IEM_DS3505
ZGKL,2006-04-11 03:00,ZGKL 110300Z AUTO 20004KT 5SM 28/22 A2965 RMK SLP034 T02790217 57008 IEM_DS3505
ZGKL,2006-04-11 04:00,ZGKL 110400Z AUTO 30002KT 3SM 26/23 A2962 RMK T02600230 IEM_DS3505
ZGKL,2006-04-11 05:00,ZGKL 110500Z AUTO 31004KT 5SM 29/22 A2959 RMK T02900220 IEM_DS3505
ZGKL,2006-04-11 06:00,ZGKL 110600Z AUTO 32002KT 5SM 30/23 A2956 RMK SLP000 T03030232 57033 IEM_DS3505
ZGKL,2006-04-11 07:00,ZGKL 110700Z AUTO 19006KT 7SM 32/23 A2950 RMK T03200230 IEM_DS3505
ZGKL,2006-04-11 08:00,ZGKL 110800Z AUTO 18004KT 6SM 31/24 A2950 RMK T03100240 IEM_DS3505
ZGKL,2006-04-11 09:00,ZGKL 110900Z AUTO 09004KT 8SM 30/24 A2947 RMK SLP977 T03000239 57023 IEM_DS3505
ZGKL,2006-04-11 10:00,ZGKL 111000Z AUTO 14006KT 7SM 31/23 A2947 RMK T03100230 IEM_DS3505
ZGKL,2006-04-11 11:00,ZGKL 111100Z AUTO 13002KT 7SM 30/23 A2950 RMK T03000230 IEM_DS3505
ZGKL,2006-04-11 12:00,ZGKL 111200Z AUTO 20004KT 8SM 29/22 A2953 RMK SLP990 T02920219 52013 IEM_DS3505
ZGKL,2006-04-11 13:00,ZGKL 111300Z AUTO 11006KT 4SM 28/22 A2953 RMK T02800220 IEM_DS3505
ZGKL,2006-04-11 14:00,ZGKL 111400Z AUTO 21002KT 4SM 27/24 A2956 RMK T02700240 IEM_DS3505
ZGKL,2006-04-11 15:00,ZGKL 111500Z AUTO 20004KT 8SM 28/22 A2959 RMK SLP004 T02770222 52015 IEM_DS3505
ZGKL,2006-04-11 16:00,ZGKL 111600Z AUTO 12002KT 4SM 26/23 A2956 RMK T02600230 IEM_DS3505
ZGKL,2006-04-11 17:00,ZGKL 111700Z AUTO 17008KT 5SM 26/22 A2956 RMK T02600220 IEM_DS3505
ZGKL,2006-04-11 18:00,ZGKL 111800Z AUTO 20006KT 7SM 28/21 A2956 RMK SLP999 T02800213 57004 IEM_DS3505
ZGKL,2006-04-11 19:00,ZGKL 111900Z AUTO 17012KT 5SM 28/22 A2953 RMK T02800220 IEM_DS3505
ZGKL,2006-04-11 20:00,ZGKL 112000Z AUTO 17010KT 7SM 27/22 A2953 RMK T02700220 IEM_DS3505
ZGKL,2006-04-11 21:00,ZGKL 112100Z AUTO 20004KT 7SM 28/21 A2953 RMK SLP994 T02750208 57005 IEM_DS3505
ZGKL,2006-04-11 22:00,ZGKL 112200Z AUTO 18014KT 7SM 27/21 A2956 RMK T02700210 IEM_DS3505
ZGKL,2006-04-11 23:00,ZGKL 112300Z AUTO 17012KT 7SM 27/21 A2956 RMK T02700210 IEM_DS3505
ZGKL,2006-04-12 00:00,ZGKL 120000Z AUTO 27002KT 8SM 26/22 A2959 RMK SLP016 T02640216 52021 IEM_DS3505
ZGKL,2006-04-12 01:00,ZGKL 120100Z AUTO 18010KT 7SM 28/22 A2962 RMK T02800220 IEM_DS3505
ZGKL,2006-04-12 02:00,ZGKL 120200Z AUTO 19012KT 7SM 28/22 A2965 RMK T02800220 IEM_DS3505
ZGKL,2006-04-12 03:00,ZGKL 120300Z AUTO 18004KT 8SM 30/22 A2965 RMK SLP032 T02970222 52016 IEM_DS3505
ZGKL,2006-04-12 04:00,ZGKL 120400Z AUTO 20008KT 6SM 30/23 A2962 RMK T03000230 IEM_DS3505
ZGKL,2006-04-12 05:00,ZGKL 120500Z AUTO 16008KT 6SM 30/22 A2962 RMK T03000220 IEM_DS3505
ZGKL,2006-04-12 06:00,ZGKL 120600Z AUTO 04012KT 16SM 20/14 A2965 RMK SLP047 T01950137 52012 IEM_DS3505
ZGKL,2006-04-12 07:00,ZGKL 120700Z AUTO 04014KT 5SM 19/15 A2971 RMK T01900150 IEM_DS3505
ZGKL,2006-04-12 08:00,ZGKL 120800Z AUTO 06012KT 5SM 16/13 A2971 RMK T01600130 IEM_DS3505
ZGKL,2006-04-12 09:00,ZGKL 120900Z AUTO 02012KT 17SM 15/11 A2977 RMK SLP083 T01540106 52033 IEM_DS3505
ZGKL,2006-04-12 10:00,ZGKL 121000Z AUTO 03010KT 5SM 15/11 A2980 RMK T01500110 IEM_DS3505
ZGKL,2006-04-12 11:00,ZGKL 121100Z AUTO 06010KT 5SM 15/11 A2985 RMK T01500110 IEM_DS3505
ZGKL,2006-04-12 12:00,ZGKL 121200Z AUTO 02012KT 17SM 14/09 A2988 RMK 60001 SLP127 T01350088 52043 IEM_DS3505
ZGKL,2006-04-12 13:00,ZGKL 121300Z AUTO 06017KT 5SM 13/09 A2991 RMK T01300090 IEM_DS3505
ZGKL,2006-04-12 14:00,ZGKL 121400Z AUTO 07016KT 5SM 13/09 A2997 RMK T01300090 IEM_DS3505
ZGKL,2006-04-12 15:00,ZGKL 121500Z AUTO 02014KT 19SM 12/07 A3000 RMK SLP172 T01160069 52044 IEM_DS3505
ZGKL,2006-04-12 16:00,ZGKL 121600Z AUTO 06017KT 5SM 11/07 A3003 RMK T01100070 IEM_DS3505
ZGKL,2006-04-12 17:00,ZGKL 121700Z AUTO 06017KT 5SM 11/07 A3006 RMK T01100070 IEM_DS3505
ZGKL,2006-04-12 18:00,ZGKL 121800Z AUTO 02012KT 16SM 11/06 A3003 RMK SLP185 T01070057 52009 IEM_DS3505
ZGKL,2006-04-12 19:00,ZGKL 121900Z AUTO 06017KT 5SM 10/07 A3003 RMK T01000070 IEM_DS3505
ZGKL,2006-04-12 20:00,ZGKL 122000Z AUTO 04014KT 5SM 10/07 A3006 RMK T01000070 IEM_DS3505
ZGKL,2006-04-12 21:00,ZGKL 122100Z AUTO 02010KT 11SM 09/06 A3009 RMK 70006 SLP200 T00890055 52013 IEM_DS3505
ZGKL,2006-04-12 22:00,ZGKL 122200Z AUTO 06016KT 5SM 09/05 A3009 RMK T00900050 IEM_DS3505
ZGKL,2006-04-12 23:00,ZGKL 122300Z AUTO 06014KT 5SM 09/05 A3012 RMK T00900050 IEM_DS3505
ZGKL,2006-04-13 00:00,ZGKL 130000Z AUTO 02008KT 16SM 09/05 A3015 RMK 60004 70006 SLP223 T00860048 52022 IEM_DS3505
ZGKL,2006-04-13 01:00,ZGKL 130100Z AUTO 05012KT 7SM 09/05 A3015 RMK T00900050 IEM_DS3505
ZGKL,2006-04-13 02:00,ZGKL 130200Z AUTO 05012KT 7SM 09/05 A3018 RMK T00900050 IEM_DS3505
ZGKL,2006-04-13 03:00,ZGKL 130300Z AUTO 02010KT 12SM 09/05 A3018 RMK SLP234 T00920046 52010 IEM_DS3505
ZGKL,2006-04-13 04:00,ZGKL 130400Z AUTO 06010KT 7SM 10/05 A3018 RMK T01000050 IEM_DS3505
ZGKL,2006-04-13 05:00,ZGKL 130500Z AUTO 05012KT 7SM 11/05 A3015 RMK T01100050 IEM_DS3505
ZGKL,2006-04-13 06:00,ZGKL 130600Z AUTO 02012KT 10SM 09/04 A3012 RMK SLP215 T00930045 57019 IEM_DS3505
ZGKL,2006-04-13 07:00,ZGKL 130700Z AUTO 06010KT 7SM 10/05 A3009 RMK T01000050 IEM_DS3505
ZGKL,2006-04-13 08:00,ZGKL 130800Z AUTO 05010KT 7SM 10/05 A3009 RMK T01000050 IEM_DS3505
ZGKL,2006-04-13 09:00,ZGKL 130900Z AUTO 04008KT 9SM 09/05 A3009 RMK SLP202 T00890047 57013 IEM_DS3505
ZGKL,2006-04-13 10:00,ZGKL 131000Z AUTO 06010KT 7SM 09/05 A3009 RMK T00900050 IEM_DS3505
ZGKL,2006-04-13 11:00,ZGKL 131100Z AUTO 06014KT 7SM 09/05 A3009 RMK T00900050 IEM_DS3505
ZGKL,2006-04-13 12:00,ZGKL 131200Z AUTO 02012KT 9SM 08/04 A3012 RMK SLP212 T00850041 52009 IEM_DS3505
ZGKL,2006-04-13 13:00,ZGKL 131300Z AUTO 06012KT 7SM 09/05 A3015 RMK T00900050 IEM_DS3505
ZGKL,2006-04-13 14:00,ZGKL 131400Z AUTO 05010KT 7SM 09/05 A3018 RMK T00900050 IEM_DS3505
ZGKL,2006-04-13 15:00,ZGKL 131500Z AUTO 02008KT 7SM 08/04 A3018 RMK SLP231 T00830045 52019 IEM_DS3505
ZGKL,2006-04-13 16:00,ZGKL 131600Z AUTO 03004KT 7SM 09/05 A3018 RMK T00900050 IEM_DS3505
ZGKL,2006-04-13 17:00,ZGKL 131700Z AUTO 03004KT 7SM 08/05 A3015 RMK T00800050 IEM_DS3505
ZGKL,2006-04-13 18:00,ZGKL 131800Z AUTO 36008KT 7SM 08/04 A3015 RMK SLP222 T00810043 57009 IEM_DS3505
ZGKL,2006-04-13 19:00,ZGKL 131900Z AUTO 05002KT 09/05 A3015 RMK T00900050 IEM_DS3505
ZGKL,2006-04-13 20:00,ZGKL 132000Z AUTO 05004KT 08/05 A3012 RMK T00800050 IEM_DS3505
ZGKL,2006-04-13 21:00,ZGKL 132100Z AUTO 36008KT 7SM 08/05 A3015 RMK 70000 SLP218 T00770047 57004 IEM_DS3505
ZGKL,2006-04-13 22:00,ZGKL 132200Z AUTO 06004KT 6SM 08/05 A3015 RMK T00800050 IEM_DS3505
ZGKL,2006-04-13 23:00,ZGKL 132300Z AUTO 02004KT 6SM 08/05 A3018 RMK T00800050 IEM_DS3505
ZGKL,2006-04-14 00:00,ZGKL 140000Z AUTO 02006KT 8SM 08/05 A3021 RMK 60000 70000 SLP239 T00810047 52020 IEM_DS3505
ZGKL,2006-04-14 01:00,ZGKL 140100Z AUTO 04004KT 4SM 09/05 A3021 RMK T00900050 IEM_DS3505
ZGKL,2006-04-14 02:00,ZGKL 140200Z AUTO 05002KT 5SM 09/05 A3024 RMK T00900050 IEM_DS3505
ZGKL,2006-04-14 03:00,ZGKL 140300Z AUTO 02008KT 9SM 10/05 A3021 RMK SLP242 T00970049 52004 IEM_DS3505
ZGKL,2006-04-14 04:00,ZGKL 140400Z AUTO 03002KT 5SM 10/06 A3018 RMK T01000060 IEM_DS3505
ZGKL,2006-04-14 05:00,ZGKL 140500Z AUTO 00000KT 5SM 10/06 A3018 RMK T01000060 IEM_DS3505
ZGKL,2006-04-14 06:00,ZGKL 140600Z AUTO 04004KT 7SM 10/06 A3015 RMK 60000 SLP221 T01040056 57021 IEM_DS3505
ZGKL,2006-04-14 07:00,ZGKL 140700Z AUTO 07004KT 4SM 10/06 A3015 RMK T01000060 IEM_DS3505
ZGKL,2006-04-14 08:00,ZGKL 140800Z AUTO 09004KT 4SM 10/06 A3012 RMK T01000060 IEM_DS3505
ZGKL,2006-04-14 09:00,ZGKL 140900Z AUTO 07006KT 7SM 10/06 A3012 RMK SLP209 T00990059 57012 IEM_DS3505
ZGKL,2006-04-14 10:00,ZGKL 141000Z AUTO 05006KT 3SM 10/07 A3012 RMK T01000070 IEM_DS3505
ZGKL,2006-04-14 11:00,ZGKL 141100Z AUTO 06006KT 2 1/2SM 09/08 A3015 RMK T00900080 IEM_DS3505
ZGKL,2006-04-14 12:00,ZGKL 141200Z AUTO 02006KT 6SM 09/06 A3015 RMK 60000 SLP228 T00910062 52019 IEM_DS3505
ZGKL,2006-04-14 13:00,ZGKL 141300Z AUTO 04004KT 2 1/2SM 09/07 A3018 RMK T00900070 IEM_DS3505
ZGKL,2006-04-14 14:00,ZGKL 141400Z AUTO 32002KT 4SM 09/07 A3021 RMK T00900070 IEM_DS3505
ZGKL,2006-04-14 15:00,ZGKL 141500Z AUTO 36008KT 6SM 10/06 A3024 RMK SLP246 T00960061 52018 IEM_DS3505
ZGKL,2006-04-14 16:00,ZGKL 141600Z AUTO 33004KT 3SM 10/08 A3021 RMK T01000080 IEM_DS3505
ZGKL,2006-04-14 17:00,ZGKL 141700Z AUTO 33002KT 4SM 10/08 A3021 RMK T01000080 IEM_DS3505
ZGKL,2006-04-14 18:00,ZGKL 141800Z AUTO 02006KT 6SM 10/06 A3018 RMK 60000 SLP235 T01010059 57010 IEM_DS3505
ZGKL,2006-04-14 19:00,ZGKL 141900Z AUTO 00000KT 10/08 A3018 RMK T01000080 IEM_DS3505
ZGKL,2006-04-14 20:00,ZGKL 142000Z AUTO 00000KT 10/08 A3018 RMK T01000080 IEM_DS3505
ZGKL,2006-04-14 21:00,ZGKL 142100Z AUTO 02006KT 6SM 10/06 A3018 RMK 70000 SLP226 T01030057 57009 IEM_DS3505
ZGKL,2006-04-14 22:00,ZGKL 142200Z AUTO 11002KT 4SM 10/09 A3018 RMK T01000090 IEM_DS3505
ZGKL,2006-04-14 23:00,ZGKL 142300Z AUTO 01002KT 6SM 11/08 A3021 RMK T01100080 IEM_DS3505
ZGKL,2006-04-15 00:00,ZGKL 150000Z AUTO 02006KT 7SM 11/05 A3021 RMK 70000 SLP244 T01110054 52018 IEM_DS3505
ZGKL,2006-04-15 01:00,ZGKL 150100Z AUTO 04004KT 6SM 12/07 A3024 RMK T01200070 IEM_DS3505
ZGKL,2006-04-15 02:00,ZGKL 150200Z AUTO 02004KT 6SM 14/05 A3024 RMK T01400050 IEM_DS3505
ZGKL,2006-04-15 03:00,ZGKL 150300Z AUTO 02008KT 11SM 16/02 A3021 RMK SLP236 T01650021 57006 IEM_DS3505
ZGKL,2006-04-15 04:00,ZGKL 150400Z AUTO 25004KT 6SM 17/05 A3018 RMK T01700050 IEM_DS3505
ZGKL,2006-04-15 05:00,ZGKL 150500Z AUTO 27004KT 6SM 18/05 A3015 RMK T01800050 IEM_DS3505
ZGKL,2006-04-15 06:00,ZGKL 150600Z AUTO 36006KT 15SM 20/03 A3009 RMK SLP195 T02020034 57039 IEM_DS3505
ZGKL,2006-04-15 07:00,ZGKL 150700Z AUTO 04002KT 6SM 20/06 A3006 RMK T02000060 IEM_DS3505
ZGKL,2006-04-15 08:00,ZGKL 150800Z AUTO 14004KT 6SM 20/05 A3003 RMK T02000050 IEM_DS3505
ZGKL,2006-04-15 09:00,ZGKL 150900Z AUTO 36004KT 16SM 22/05 A3003 RMK SLP166 T02150046 57028 IEM_DS3505
ZGKL,2006-04-15 10:00,ZGKL 151000Z AUTO 06002KT 6SM 21/06 A3003 RMK T02100060 IEM_DS3505
ZGKL,2006-04-15 11:00,ZGKL 151100Z AUTO 01004KT 6SM 20/06 A3003 RMK T02000060 IEM_DS3505
ZGKL,2006-04-15 12:00,ZGKL 151200Z AUTO 02004KT 14SM 17/07 A3006 RMK SLP187 T01660073 52019 IEM_DS3505
ZGKL,2006-04-15 13:00,ZGKL 151300Z AUTO 04006KT 6SM 17/07 A3009 RMK T01700070 IEM_DS3505
ZGKL,2006-04-15 14:00,ZGKL 151400Z AUTO 35004KT 6SM 16/07 A3012 RMK T01600070 IEM_DS3505
ZGKL,2006-04-15 15:00,ZGKL 151500Z AUTO 04004KT 14SM 15/06 A3012 RMK SLP207 T01490059 52021 IEM_DS3505
ZGKL,2006-04-15 16:00,ZGKL 151600Z AUTO 00000KT 6SM 13/10 A3015 RMK T01300100 IEM_DS3505
ZGKL,2006-04-15 17:00,ZGKL 151700Z AUTO 36002KT 6SM 13/10 A3012 RMK T01300100 IEM_DS3505
ZGKL,2006-04-15 18:00,ZGKL 151800Z AUTO 34004KT 12SM 13/06 A3012 RMK SLP198 T01290060 57008 IEM_DS3505
ZGKL,2006-04-15 19:00,ZGKL 151900Z AUTO 36002KT 12/10 A3009 RMK T01200100 IEM_DS3505
ZGKL,2006-04-15 20:00,ZGKL 152000Z AUTO 32002KT 11/10 A3009 RMK T01100100 IEM_DS3505
ZGKL,2006-04-15 21:00,ZGKL 152100Z AUTO 02002KT 10SM 12/06 A3006 RMK SLP184 T01190060 57014 IEM_DS3505
ZGKL,2006-04-15 22:00,ZGKL 152200Z AUTO 00000KT 6SM 12/10 A3009 RMK T01200100 IEM_DS3505
ZGKL,2006-04-15 23:00,ZGKL 152300Z AUTO 00000KT 6SM 12/10 A3009 RMK T01200100 IEM_DS3505
ZGKL,2006-04-16 00:00,ZGKL 160000Z AUTO 36004KT 10SM 14/06 A3012 RMK SLP203 T01420063 52018 IEM_DS3505
ZGKL,2006-04-16 01:00,ZGKL 160100Z AUTO 00000KT 6SM 16/10 A3012 RMK T01600100 IEM_DS3505
ZGKL,2006-04-16 02:00,ZGKL 160200Z AUTO 04004KT 6SM 18/07 A3012 RMK T01800070 IEM_DS3505
ZGKL,2006-04-16 03:00,ZGKL 160300Z AUTO 02004KT 10SM 19/06 A3012 RMK SLP200 T01860064 57002 IEM_DS3505
ZGKL,2006-04-16 04:00,ZGKL 160400Z AUTO 03004KT 6SM 20/07 A3009 RMK T02000070 IEM_DS3505
ZGKL,2006-04-16 05:00,ZGKL 160500Z AUTO 23004KT 6SM 22/06 A3006 RMK T02200060 IEM_DS3505
ZGKL,2006-04-16 06:00,ZGKL 160600Z AUTO 02002KT 11SM 23/03 A3003 RMK SLP164 T02330033 57034 IEM_DS3505
ZGKL,2006-04-16 07:00,ZGKL 160700Z AUTO 35002KT 6SM 23/02 A3000 RMK T02300020 IEM_DS3505
ZGKL,2006-04-16 08:00,ZGKL 160800Z AUTO 08002KT 6SM 24/04 A2997 RMK T02400040 IEM_DS3505
ZGKL,2006-04-16 09:00,ZGKL 160900Z AUTO 07002KT 12SM 24/05 A2997 RMK SLP144 T02400049 57020 IEM_DS3505
ZGKL,2006-04-16 10:00,ZGKL 161000Z AUTO 00000KT 6SM 22/05 A2994 RMK T02200050 IEM_DS3505
ZGKL,2006-04-16 11:00,ZGKL 161100Z AUTO 17002KT 6SM 21/07 A2994 RMK T02100070 IEM_DS3505
ZGKL,2006-04-16 12:00,ZGKL 161200Z AUTO 02004KT 10SM 20/08 A2997 RMK SLP150 T01950079 52005 IEM_DS3505
ZGKL,2006-04-16 13:00,ZGKL 161300Z AUTO 36002KT 6SM 17/12 A2997 RMK T01700120 IEM_DS3505
ZGKL,2006-04-16 14:00,ZGKL 161400Z AUTO 34002KT 6SM 16/12 A3000 RMK T01600120 IEM_DS3505
ZGKL,2006-04-16 15:00,ZGKL 161500Z AUTO 02004KT 10SM 17/08 A3000 RMK SLP165 T01700079 52015 IEM_DS3505
ZGKL,2006-04-16 16:00,ZGKL 161600Z AUTO 26002KT 6SM 14/11 A3003 RMK T01400110 IEM_DS3505
ZGKL,2006-04-16 17:00,ZGKL 161700Z AUTO 31004KT 6SM 14/12 A3000 RMK T01400120 IEM_DS3505
ZGKL,2006-04-16 18:00,ZGKL 161800Z AUTO 04002KT 9SM 14/10 A3000 RMK SLP161 T01430095 57003 IEM_DS3505
ZGKL,2006-04-16 19:00,ZGKL 161900Z AUTO 00000KT 6SM 13/11 A3000 RMK T01300110 IEM_DS3505
ZGKL,2006-04-16 20:00,ZGKL 162000Z AUTO 20002KT 6SM 13/11 A2997 RMK T01300110 IEM_DS3505
ZGKL,2006-04-16 21:00,ZGKL 162100Z AUTO 02002KT 9SM 13/10 A2997 RMK SLP156 T01290095 57005 IEM_DS3505
ZGKL,2006-04-16 22:00,ZGKL 162200Z AUTO 00000KT 4SM 12/11 A3000 RMK T01200110 IEM_DS3505
ZGKL,2006-04-16 23:00,ZGKL 162300Z AUTO 00000KT 4SM 12/11 A3000 RMK T01200110 IEM_DS3505
ZGKL,2006-04-17 00:00,ZGKL 170000Z AUTO 07002KT 7SM 14/10 A3003 RMK SLP170 T01380100 52013 IEM_DS3505
ZGKL,2006-04-17 01:00,ZGKL 170100Z AUTO 32002KT 4SM 15/14 A3003 RMK T01500140 IEM_DS3505
ZGKL,2006-04-17 02:00,ZGKL 170200Z AUTO 31002KT 5SM 17/11 A3003 RMK T01700110 IEM_DS3505
ZGKL,2006-04-17 03:00,ZGKL 170300Z AUTO 22002KT 8SM 20/11 A3000 RMK SLP162 T02050106 57007 IEM_DS3505
ZGKL,2006-04-17 04:00,ZGKL 170400Z AUTO 12006KT 5SM 21/10 A2997 RMK T02100100 IEM_DS3505
ZGKL,2006-04-17 05:00,ZGKL 170500Z AUTO 19006KT 5SM 23/11 A2994 RMK T02300110 IEM_DS3505
ZGKL,2006-04-17 06:00,ZGKL 170600Z AUTO 32004KT 9SM 24/09 A2991 RMK SLP130 T02350088 57031 IEM_DS3505
ZGKL,2006-04-17 07:00,ZGKL 170700Z AUTO 18004KT 5SM 25/17 A2985 RMK T02500170 IEM_DS3505
ZGKL,2006-04-17 08:00,ZGKL 170800Z AUTO 08004KT 5SM 25/11 A2983 RMK T02500110 IEM_DS3505
ZGKL,2006-04-17 09:00,ZGKL 170900Z AUTO 27004KT 9SM 25/09 A2983 RMK SLP100 T02500093 57030 IEM_DS3505
ZGKL,2006-04-17 10:00,ZGKL 171000Z AUTO 09006KT 6SM 24/11 A2983 RMK T02400110 IEM_DS3505
ZGKL,2006-04-17 11:00,ZGKL 171100Z AUTO 00000KT 6SM 23/16 A2985 RMK T02300160 IEM_DS3505
ZGKL,2006-04-17 12:00,ZGKL 171200Z AUTO 02002KT 9SM 21/13 RMK SLP109 T02120131 52008 IEM_DS3505
ZGKL,2006-04-17 14:00,ZGKL 171400Z AUTO 02006KT 4SM 20/14 A2988 RMK T02000140 IEM_DS3505
ZGKL,2006-04-17 15:00,ZGKL 171500Z AUTO 02002KT 8SM 20/14 A2991 RMK SLP126 T01980135 52019 IEM_DS3505
ZGKL,2006-04-17 16:00,ZGKL 171600Z AUTO 33002KT 4SM 19/15 A2991 RMK T01900150 IEM_DS3505
ZGKL,2006-04-17 18:00,ZGKL 171800Z AUTO 36002KT 8SM 19/13 A2991 RMK SLP130 T01900134 52004 IEM_DS3505
ZGKL,2006-04-17 19:00,ZGKL 171900Z AUTO 24002KT 4SM 19/16 A2991 RMK T01900160 IEM_DS3505
ZGKL,2006-04-17 20:00,ZGKL 172000Z AUTO 01002KT 4SM 19/15 A2991 RMK T01900150 IEM_DS3505
ZGKL,2006-04-17 21:00,ZGKL 172100Z AUTO 02002KT 7SM 19/14 A2991 RMK SLP131 T01860139 52002 IEM_DS3505
ZGKL,2006-04-17 22:00,ZGKL 172200Z AUTO 21002KT 4SM 18/16 A2994 RMK T01800160 IEM_DS3505
ZGKL,2006-04-17 23:00,ZGKL 172300Z AUTO 00000KT 4SM 19/16 A2997 RMK T01900160 IEM_DS3505
ZGKL,2006-04-18 00:00,ZGKL 180000Z AUTO 27002KT 5SM 18/15 A3000 RMK 60000 70000 SLP155 T01840149 52022 IEM_DS3505
ZGKL,2006-04-18 01:00,ZGKL 180100Z AUTO 11002KT 1SM 17/16 A3000 RMK T01700160 IEM_DS3505
ZGKL,2006-04-18 02:00,ZGKL 180200Z AUTO 00000KT 1SM 17/16 A3003 RMK T01700160 IEM_DS3505
ZGKL,2006-04-18 03:00,ZGKL 180300Z AUTO 07002KT 2 1/2SM 18/17 A3003 RMK SLP170 T01770167 52014 IEM_DS3505
ZGKL,2006-04-18 04:00,ZGKL 180400Z AUTO 36004KT 1SM 18/17 A3003 RMK T01800170 IEM_DS3505
ZGKL,2006-04-18 05:00,ZGKL 180500Z AUTO 00000KT 1SM 18/17 A3000 RMK T01800170 IEM_DS3505
ZGKL,2006-04-18 06:00,ZGKL 180600Z AUTO 25002KT 2 1/2SM 19/17 A3000 RMK 60001 SLP159 T01890169 57011 IEM_DS3505
ZGKL,2006-04-18 07:00,ZGKL 180700Z AUTO 23002KT 1 1/4SM 19/17 A2997 RMK T01900170 IEM_DS3505
ZGKL,2006-04-18 08:00,ZGKL 180800Z AUTO 00000KT 1 1/4SM 19/18 A2997 RMK T01900180 IEM_DS3505
ZGKL,2006-04-18 09:00,ZGKL 180900Z AUTO 20002KT 2 1/2SM 19/17 A2997 RMK SLP150 T01930171 57009 IEM_DS3505
ZGKL,2006-04-18 10:00,ZGKL 181000Z AUTO 00000KT 1 1/4SM 19/17 A2997 RMK T01900170 IEM_DS3505
ZGKL,2006-04-18 11:00,ZGKL 181100Z AUTO 00000KT 1 1/4SM 19/17 A3000 RMK T01900170 IEM_DS3505
ZGKL,2006-04-18 12:00,ZGKL 181200Z AUTO 14002KT 2SM 19/17 A3000 RMK SLP158 T01880173 52008 IEM_DS3505
ZGKL,2006-04-18 13:00,ZGKL 181300Z AUTO 00000KT 1SM 19/17 A3000 RMK T01900170 IEM_DS3505
ZGKL,2006-04-18 14:00,ZGKL 181400Z AUTO 33002KT 1SM 19/18 A3003 RMK T01900180 IEM_DS3505
ZGKL,2006-04-18 15:00,ZGKL 181500Z AUTO 14002KT 1 1/4SM 19/18 A3003 RMK SLP171 T01860176 52013 IEM_DS3505
ZGKL,2006-04-18 16:00,ZGKL 181600Z AUTO 00000KT 1/2SM 18/18 A3003 RMK T01800180 IEM_DS3505
ZGKL,2006-04-18 17:00,ZGKL 181700Z AUTO 34002KT 3/8SM 18/17 A3003 RMK T01800170 IEM_DS3505
ZGKL,2006-04-18 18:00,ZGKL 181800Z AUTO 14002KT 1 1/4SM 18/18 A3003 RMK 60000 SLP165 T01830175 57006 IEM_DS3505
ZGKL,2006-04-18 19:00,ZGKL 181900Z AUTO 00000KT 18/17 A3000 RMK T01800170 IEM_DS3505
ZGKL,2006-04-18 20:00,ZGKL 182000Z AUTO 31002KT 18/17 A3000 RMK T01800170 IEM_DS3505
ZGKL,2006-04-18 21:00,ZGKL 182100Z AUTO 29002KT 1 1/4SM 18/18 A3000 RMK 70001 SLP156 T01810175 57009 IEM_DS3505
ZGKL,2006-04-18 22:00,ZGKL 182200Z AUTO 01002KT 3/8SM 18/17 A3000 RMK T01800170 IEM_DS3505
ZGKL,2006-04-18 23:00,ZGKL 182300Z AUTO 00000KT 1SM 18/17 A3003 RMK T01800170 IEM_DS3505
ZGKL,2006-04-19 00:00,ZGKL 190000Z AUTO 11002KT 2SM 19/18 A3006 RMK 70001 SLP176 T01890177 52020 IEM_DS3505
ZGKL,2006-04-19 01:00,ZGKL 190100Z AUTO 27002KT 1 1/4SM 19/18 A3006 RMK T01900180 IEM_DS3505
ZGKL,2006-04-19 02:00,ZGKL 190200Z AUTO 05002KT 2SM 21/18 A3006 RMK T02100180 IEM_DS3505
ZGKL,2006-04-19 03:00,ZGKL 190300Z AUTO 07002KT 2 1/2SM 22/18 A3006 RMK SLP173 T02230179 57002 IEM_DS3505
ZGKL,2006-04-19 04:00,ZGKL 190400Z AUTO 12002KT 4SM 23/18 A3003 RMK T02300180 IEM_DS3505
ZGKL,2006-04-19 05:00,ZGKL 190500Z AUTO 17004KT 4SM 24/19 A3000 RMK T02400190 IEM_DS3505
ZGKL,2006-04-19 06:00,ZGKL 190600Z AUTO 16004KT 2 1/2SM 24/19 A2997 RMK SLP148 T02440186 57024 IEM_DS3505
ZGKL,2006-04-19 07:00,ZGKL 190700Z AUTO 16002KT 5SM 26/19 A2994 RMK T02600190 IEM_DS3505
ZGKL,2006-04-19 08:00,ZGKL 190800Z AUTO 22002KT 4SM 26/19 A2994 RMK T02600190 IEM_DS3505
ZGKL,2006-04-19 09:00,ZGKL 190900Z AUTO 18002KT 3SM 26/19 A2994 RMK SLP133 T02560188 57014 IEM_DS3505
ZGKL,2006-04-19 10:00,ZGKL 191000Z AUTO 11002KT 2 1/2SM 26/19 A2994 RMK T02600190 IEM_DS3505
ZGKL,2006-04-19 11:00,ZGKL 191100Z AUTO 12002KT 2 1/2SM 25/20 A2994 RMK T02500200 IEM_DS3505
ZGKL,2006-04-19 12:00,ZGKL 191200Z AUTO 04002KT 3SM 23/20 A2997 RMK SLP143 T02340196 52009 IEM_DS3505
ZGKL,2006-04-19 13:00,ZGKL 191300Z AUTO 32002KT 2SM 23/21 A2997 RMK T02300210 IEM_DS3505
ZGKL,2006-04-19 14:00,ZGKL 191400Z AUTO 35002KT 1 1/4SM 23/20 A2997 RMK T02300200 IEM_DS3505
ZGKL,2006-04-19 15:00,ZGKL 191500Z AUTO 36002KT 3SM 22/19 A3000 RMK SLP154 T02200190 52011 IEM_DS3505
ZGKL,2006-04-19 16:00,ZGKL 191600Z AUTO 33002KT 1 1/2SM 22/20 A2997 RMK T02200200 IEM_DS3505
ZGKL,2006-04-19 17:00,ZGKL 191700Z AUTO 00000KT 22/20 A2997 RMK T02200200 IEM_DS3505
ZGKL,2006-04-19 18:00,ZGKL 191800Z AUTO 25002KT 3SM 21/19 A2997 RMK SLP145 T02120188 57008 IEM_DS3505
ZGKL,2006-04-19 19:00,ZGKL 191900Z AUTO 36002KT 21/20 A2994 RMK T02100200 IEM_DS3505
ZGKL,2006-04-19 20:00,ZGKL 192000Z AUTO 29002KT 2SM 21/20 A2994 RMK T02100200 IEM_DS3505
ZGKL,2006-04-19 21:00,ZGKL 192100Z AUTO 32002KT 3SM 20/19 A2994 RMK 70001 SLP140 T02050190 57005 IEM_DS3505
ZGKL,2006-04-19 22:05,ZGKL 192205Z AUTO 00000KT 1SM 21/20 A2997 RMK T02100200 IEM_DS3505
ZGKL,2006-04-19 23:00,ZGKL 192300Z AUTO 01002KT 1SM 21/20 A2997 RMK T02100200 IEM_DS3505
ZGKL,2006-04-20 00:00,ZGKL 200000Z AUTO 09002KT 2 1/2SM 20/19 A3000 RMK 60020 70020 SLP155 T02000193 52014 IEM_DS3505
ZGKL,2006-04-20 01:00,ZGKL 200100Z AUTO 35004KT 1/2SM 20/20 A3000 RMK T02000200 IEM_DS3505
ZGKL,2006-04-20 02:00,ZGKL 200200Z AUTO 36004KT 1SM 20/20 A3000 RMK T02000200 IEM_DS3505
ZGKL,2006-04-20 03:00,ZGKL 200300Z AUTO 36002KT 2SM 20/20 A3000 RMK SLP155 T02050200 54000 IEM_DS3505
ZGKL,2006-04-20 04:00,ZGKL 200400Z AUTO 34004KT 1SM 21/20 A2997 RMK T02100200 IEM_DS3505
ZGKL,2006-04-20 05:00,ZGKL 200500Z AUTO 33002KT 1SM 21/20 A2994 RMK T02100200 IEM_DS3505
ZGKL,2006-04-20 06:00,ZGKL 200600Z AUTO 34002KT 1 1/4SM 21/20 A2994 RMK 60083 SLP134 T02090202 57021 IEM_DS3505
ZGKL,2006-04-20 07:00,ZGKL 200700Z AUTO 36002KT 2 1/2SM 21/20 A2988 RMK T02100200 IEM_DS3505
ZGKL,2006-04-20 08:00,ZGKL 200800Z AUTO 33002KT 3SM 21/20 A2988 RMK T02100200 IEM_DS3505
ZGKL,2006-04-20 09:00,ZGKL 200900Z AUTO 36002KT 1 1/4SM 21/20 A2985 RMK SLP112 T02120204 57022 IEM_DS3505
ZGKL,2006-04-20 10:00,ZGKL 201000Z AUTO 36004KT 3SM 21/20 A2985 RMK T02100200 IEM_DS3505
ZGKL,2006-04-20 11:00,ZGKL 201100Z AUTO 01002KT 3SM 21/20 A2985 RMK T02100200 IEM_DS3505
ZGKL,2006-04-20 12:00,ZGKL 201200Z AUTO 36002KT 2SM 21/20 A2985 RMK 60003 SLP107 T02100202 57005 IEM_DS3505
ZGKL,2006-04-20 13:00,ZGKL 201300Z AUTO 01002KT 2 1/2SM 21/20 A2985 RMK T02100200 IEM_DS3505
ZGKL,2006-04-20 14:00,ZGKL 201400Z AUTO 00000KT 2 1/2SM 21/20 A2985 RMK T02100200 IEM_DS3505
ZGKL,2006-04-20 15:00,ZGKL 201500Z AUTO 27002KT 2 1/2SM 21/20 A2985 RMK SLP107 T02080201 54000 IEM_DS3505
ZGKL,2006-04-20 16:00,ZGKL 201600Z AUTO 00000KT 1 1/4SM 21/20 A2985 RMK T02100200 IEM_DS3505
ZGKL,2006-04-20 17:00,ZGKL 201700Z AUTO 00000KT 1SM 21/20 A2983 RMK T02100200 IEM_DS3505
ZGKL,2006-04-20 18:00,ZGKL 201800Z AUTO 00000KT 2SM 20/20 A2983 RMK SLP090 T02050198 57016 IEM_DS3505
ZGKL,2006-04-20 19:00,ZGKL 201900Z AUTO 17002KT 21/20 A2980 RMK T02100200 IEM_DS3505
ZGKL,2006-04-20 20:00,ZGKL 202000Z AUTO 00000KT 21/20 A2980 RMK T02100200 IEM_DS3505
ZGKL,2006-04-20 21:00,ZGKL 202100Z AUTO 09002KT 2 1/2SM 20/20 A2977 RMK 70106 SLP082 T02030198 57008 IEM_DS3505
ZGKL,2006-04-20 22:00,ZGKL 202200Z AUTO 00000KT 1SM 21/20 A2977 RMK T02100200 IEM_DS3505
ZGKL,2006-04-20 23:00,ZGKL 202300Z AUTO 15002KT 3SM 21/20 A2980 RMK T02100200 IEM_DS3505
ZGKL,2006-04-21 00:00,ZGKL 210000Z AUTO 20004KT 3SM 23/20 A2983 RMK 70087 SLP098 T02270200 52016 IEM_DS3505
ZGKL,2006-04-21 01:00,ZGKL 210100Z AUTO 18014KT 4SM 24/20 A2983 RMK T02400200 IEM_DS3505
ZGKL,2006-04-21 02:00,ZGKL 210200Z AUTO 17014KT 5SM 24/20 A2983 RMK T02400200 IEM_DS3505
ZGKL,2006-04-21 03:00,ZGKL 210300Z AUTO 20004KT 6SM 23/20 A2983 RMK SLP099 T02320196 52001 IEM_DS3505
ZGKL,2006-04-21 04:00,ZGKL 210400Z AUTO 19012KT 4SM 25/21 A2980 RMK T02500210 IEM_DS3505
ZGKL,2006-04-21 05:00,ZGKL 210500Z AUTO 17012KT 6SM 25/21 A2977 RMK T02500210 IEM_DS3505
ZGKL,2006-04-21 06:00,ZGKL 210600Z AUTO 14002KT 6SM 24/20 A2974 RMK 60000 SLP070 T02350201 57028 IEM_DS3505
ZGKL,2006-04-21 07:00,ZGKL 210700Z AUTO 11006KT 5SM 24/20 A2971 RMK T02400200 IEM_DS3505
ZGKL,2006-04-21 08:00,ZGKL 210800Z AUTO 09002KT 5SM 24/20 A2968 RMK T02400200 IEM_DS3505
ZGKL,2006-04-21 09:00,ZGKL 210900Z AUTO 20002KT 8SM 25/20 A2968 RMK SLP045 T02490204 57024 IEM_DS3505
ZGKL,2006-04-21 10:00,ZGKL 211000Z AUTO 32004KT 5SM 24/21 A2968 RMK T02400210 IEM_DS3505
ZGKL,2006-04-21 11:00,ZGKL 211100Z AUTO 32002KT 3SM 23/21 A2968 RMK T02300210 IEM_DS3505
ZGKL,2006-04-21 12:00,ZGKL 211200Z AUTO 07002KT 7SM 23/21 A2971 RMK 60000 SLP052 T02280211 52007 IEM_DS3505
ZGKL,2006-04-21 13:00,ZGKL 211300Z AUTO 00000KT 2SM 23/21 A2971 RMK T02300210 IEM_DS3505
ZGKL,2006-04-21 14:00,ZGKL 211400Z AUTO 19002KT 2SM 23/21 A2971 RMK T02300210 IEM_DS3505
ZGKL,2006-04-21 15:00,ZGKL 211500Z AUTO 02002KT 7SM 22/21 A2974 RMK SLP063 T02170207 52010 IEM_DS3505
ZGKL,2006-04-21 16:00,ZGKL 211600Z AUTO 32002KT 1 1/2SM 22/21 A2974 RMK T02200210 IEM_DS3505
ZGKL,2006-04-21 17:00,ZGKL 211700Z AUTO 01002KT 1 1/2SM 22/21 A2974 RMK T02200210 IEM_DS3505
ZGKL,2006-04-21 18:00,ZGKL 211800Z AUTO 00000KT 7SM 22/21 A2971 RMK SLP056 T02150207 57006 IEM_DS3505
ZGKL,2006-04-21 19:00,ZGKL 211900Z AUTO 18004KT 22/21 A2971 RMK T02200210 IEM_DS3505
ZGKL,2006-04-21 20:00,ZGKL 212000Z AUTO 23004KT 24/20 A2971 RMK T02400200 IEM_DS3505
ZGKL,2006-04-21 21:00,ZGKL 212100Z AUTO 27002KT 7SM 22/21 A2968 RMK 70000 SLP052 T02160208 57004 IEM_DS3505
ZGKL,2006-04-21 22:00,ZGKL 212200Z AUTO 17008KT 7SM 24/20 A2971 RMK T02400200 IEM_DS3505
ZGKL,2006-04-21 23:00,ZGKL 212300Z AUTO 18008KT 7SM 24/21 A2974 RMK T02400210 IEM_DS3505
ZGKL,2006-04-22 00:00,ZGKL 220000Z AUTO 32002KT 6SM 22/21 A2974 RMK 60000 70000 SLP073 T02240209 52020 IEM_DS3505
ZGKL,2006-04-22 01:00,ZGKL 220100Z AUTO 18006KT 7SM 26/21 A2977 RMK T02600210 IEM_DS3505
ZGKL,2006-04-22 02:00,ZGKL 220200Z AUTO 30002KT 7SM 26/21 A2977 RMK T02600210 IEM_DS3505
ZGKL,2006-04-22 03:00,ZGKL 220300Z AUTO 02002KT 6SM 25/21 A2977 RMK SLP077 T02520211 52005 IEM_DS3505
ZGKL,2006-04-22 04:00,ZGKL 220400Z AUTO 34006KT 7SM 26/21 A2974 RMK T02600210 IEM_DS3505
ZGKL,2006-04-22 05:00,ZGKL 220500Z AUTO 35004KT 7SM 27/21 A2971 RMK T02700210 IEM_DS3505
ZGKL,2006-04-22 06:00,ZGKL 220600Z AUTO 36002KT 7SM 27/21 A2971 RMK SLP052 T02700211 57024 IEM_DS3505
ZGKL,2006-04-22 07:00,ZGKL 220700Z AUTO 29002KT 7SM 28/21 A2968 RMK T02800210 IEM_DS3505
ZGKL,2006-04-22 08:00,ZGKL 220800Z AUTO 23002KT 7SM 28/21 A2965 RMK T02800210 IEM_DS3505
ZGKL,2006-04-22 09:00,ZGKL 220900Z AUTO 36004KT 7SM 28/21 A2965 RMK SLP038 T02820212 57014 IEM_DS3505
ZGKL,2006-04-22 10:00,ZGKL 221000Z AUTO 35002KT 7SM 29/21 A2965 RMK T02900210 IEM_DS3505
ZGKL,2006-04-22 11:00,ZGKL 221100Z AUTO 35002KT 7SM 29/21 A2965 RMK T02900210 IEM_DS3505
ZGKL,2006-04-22 12:00,ZGKL 221200Z AUTO 34002KT 6SM 25/21 A2968 RMK SLP046 T02490212 52007 IEM_DS3505
ZGKL,2006-04-22 13:00,ZGKL 221300Z AUTO 35004KT 7SM 24/22 A2974 RMK T02400220 IEM_DS3505
ZGKL,2006-04-22 14:00,ZGKL 221400Z AUTO 31004KT 7SM 24/22 A2974 RMK T02400220 IEM_DS3505
ZGKL,2006-04-22 15:00,ZGKL 221500Z AUTO 02006KT 6SM 24/21 A2977 RMK SLP076 T02440207 52031 IEM_DS3505
ZGKL,2006-04-22 16:00,ZGKL 221600Z AUTO 03010KT 5SM 23/20 A2980 RMK T02300200 IEM_DS3505
ZGKL,2006-04-22 17:00,ZGKL 221700Z AUTO 02002KT 23/20 A2980 RMK T02300200 IEM_DS3505
ZGKL,2006-04-22 18:00,ZGKL 221800Z AUTO 04004KT 4SM 21/19 A2980 RMK 60043 SLP081 T02120191 52004 IEM_DS3505
ZGKL,2006-04-22 19:00,ZGKL 221900Z AUTO 05002KT 22/20 A2977 RMK T02200200 IEM_DS3505
ZGKL,2006-04-22 20:00,ZGKL 222000Z AUTO 12002KT 22/20 A2977 RMK T02200200 IEM_DS3505
ZGKL,2006-04-22 21:00,ZGKL 222100Z AUTO 04004KT 4SM A2977 RMK 70043 SLP071 57009 IEM_DS3505
ZGKL,2006-04-22 22:00,ZGKL 222200Z AUTO 01006KT 2SM 21/19 A2977 RMK T02100190 IEM_DS3505
ZGKL,2006-04-22 23:00,ZGKL 222300Z AUTO 00000KT 1SM 21/19 A2980 RMK T02100190 IEM_DS3505
ZGKL,2006-04-23 00:00,ZGKL 230000Z AUTO 04004KT 5SM 20/19 A2983 RMK 60008 70052 SLP096 T02020187 52023 IEM_DS3505
ZGKL,2006-04-23 01:00,ZGKL 230100Z AUTO 06004KT 1SM 20/20 A2983 RMK T02000200 IEM_DS3505
ZGKL,2006-04-23 02:00,ZGKL 230200Z AUTO 04008KT 2SM 21/19 A2985 RMK T02100190 IEM_DS3505
ZGKL,2006-04-23 03:00,ZGKL 230300Z AUTO 36006KT 5SM 22/18 A2985 RMK SLP102 T02150185 52006 IEM_DS3505
ZGKL,2006-04-23 04:00,ZGKL 230400Z AUTO 14002KT 2 1/2SM 23/20 A2985 RMK T02300200 IEM_DS3505
ZGKL,2006-04-23 05:00,ZGKL 230500Z AUTO 07002KT 5SM 25/20 A2983 RMK T02500200 IEM_DS3505
ZGKL,2006-04-23 06:00,ZGKL 230600Z AUTO 16004KT 6SM 26/21 A2980 RMK 60012 SLP087 T02560206 57014 IEM_DS3505
ZGKL,2006-04-23 07:00,ZGKL 230700Z AUTO 09004KT 7SM 26/20 A2980 RMK T02600200 IEM_DS3505
ZGKL,2006-04-23 08:00,ZGKL 230800Z AUTO 13002KT 7SM 27/20 A2977 RMK T02700200 IEM_DS3505
ZGKL,2006-04-23 09:00,ZGKL 230900Z AUTO 16004KT 9SM 27/20 A2977 RMK SLP071 T02690203 57016 IEM_DS3505
ZGKL,2006-04-23 10:00,ZGKL 231000Z AUTO 13004KT 6SM 26/21 A2977 RMK T02600210 IEM_DS3505
ZGKL,2006-04-23 11:00,ZGKL 231100Z AUTO 14004KT 5SM 25/21 A2980 RMK T02500210 IEM_DS3505
ZGKL,2006-04-23 12:00,ZGKL 231200Z AUTO 02004KT 9SM 24/19 A2983 RMK SLP093 T02400191 52021 IEM_DS3505
ZGKL,2006-04-23 13:00,ZGKL 231300Z AUTO 06012KT 4SM 24/19 A2985 RMK T02400190 IEM_DS3505
ZGKL,2006-04-23 14:00,ZGKL 231400Z AUTO 06010KT 3SM 23/18 A2985 RMK T02300180 IEM_DS3505
ZGKL,2006-04-23 15:00,ZGKL 231500Z AUTO 02008KT 9SM 22/18 A2988 RMK SLP115 T02200176 52021 IEM_DS3505
ZGKL,2006-04-23 16:00,ZGKL 231600Z AUTO 01004KT 3SM 22/18 A2988 RMK T02200180 IEM_DS3505
ZGKL,2006-04-23 17:00,ZGKL 231700Z AUTO 00000KT 22/18 A2988 RMK T02200180 IEM_DS3505
ZGKL,2006-04-23 18:00,ZGKL 231800Z AUTO 02006KT 9SM 21/17 A2988 RMK SLP112 T02120174 57002 IEM_DS3505
ZGKL,2006-04-23 19:00,ZGKL 231900Z AUTO 01002KT 21/18 A2985 RMK T02100180 IEM_DS3505
ZGKL,2006-04-23 20:00,ZGKL 232000Z AUTO 00000KT 21/18 A2985 RMK T02100180 IEM_DS3505
ZGKL,2006-04-23 21:00,ZGKL 232100Z AUTO 02008KT 9SM 21/17 A2985 RMK 70022 SLP108 T02090171 57004 IEM_DS3505
ZGKL,2006-04-23 22:00,ZGKL 232200Z AUTO 08002KT 3SM 21/18 A2988 RMK T02100180 IEM_DS3505
ZGKL,2006-04-23 23:00,ZGKL 232300Z AUTO 19006KT 2 1/2SM 21/19 A2991 RMK T02100190 IEM_DS3505
ZGKL,2006-04-24 00:00,ZGKL 240000Z AUTO 34002KT 5SM 19/18 A2991 RMK 60035 70047 SLP125 T01930176 52016 IEM_DS3505
ZGKL,2006-04-24 01:00,ZGKL 240100Z AUTO 33002KT 2 1/2SM 21/18 A2994 RMK T02100180 IEM_DS3505
ZGKL,2006-04-24 02:00,ZGKL 240200Z AUTO 10002KT 2 1/2SM 21/18 A2991 RMK T02100180 IEM_DS3505
ZGKL,2006-04-24 03:00,ZGKL 240300Z AUTO 04002KT 7SM 22/18 A2994 RMK SLP132 T02170183 52007 IEM_DS3505
ZGKL,2006-04-24 04:00,ZGKL 240400Z AUTO 01004KT 1SM 20/19 A2991 RMK T02000190 IEM_DS3505
ZGKL,2006-04-24 05:00,ZGKL 240500Z AUTO 33006KT 1 1/2SM 19/18 A2991 RMK T01900180 IEM_DS3505
ZGKL,2006-04-24 06:00,ZGKL 240600Z AUTO 07006KT 3SM 19/18 A2988 RMK 60110 SLP116 T01930183 57017 IEM_DS3505
ZGKL,2006-04-24 07:00,ZGKL 240700Z AUTO 08002KT 2 1/2SM 20/19 A2985 RMK T02000190 IEM_DS3505
ZGKL,2006-04-24 08:00,ZGKL 240800Z AUTO 00000KT 3SM 21/19 A2983 RMK T02100190 IEM_DS3505
ZGKL,2006-04-24 09:00,ZGKL 240900Z AUTO 02002KT 6SM 22/19 A2980 RMK SLP086 T02210193 57029 IEM_DS3505
ZGKL,2006-04-24 10:00,ZGKL 241000Z AUTO 26002KT 3SM 22/19 A2980 RMK T02200190 IEM_DS3505
ZGKL,2006-04-24 11:00,ZGKL 241100Z AUTO 21002KT 2 1/2SM 22/19 A2980 RMK T02200190 IEM_DS3505
ZGKL,2006-04-24 12:00,ZGKL 241200Z AUTO 02004KT 5SM 21/18 A2980 RMK 60004 SLP094 T02070183 52007 IEM_DS3505
ZGKL,2006-04-24 13:00,ZGKL 241300Z AUTO 06004KT 2SM 21/19 A2983 RMK T02100190 IEM_DS3505
ZGKL,2006-04-24 14:00,ZGKL 241400Z AUTO 35002KT 2SM 21/19 A2985 RMK T02100190 IEM_DS3505
ZGKL,2006-04-24 15:00,ZGKL 241500Z AUTO 02002KT 5SM 21/18 A2983 RMK SLP102 T02060182 52009 IEM_DS3505
ZGKL,2006-04-24 16:00,ZGKL 241600Z AUTO 00000KT 1 1/2SM 21/18 A2983 RMK T02100180 IEM_DS3505
ZGKL,2006-04-24 17:00,ZGKL 241700Z AUTO 27002KT 1 1/4SM 21/19 A2983 RMK T02100190 IEM_DS3505
ZGKL,2006-04-24 18:00,ZGKL 241800Z AUTO 04002KT 5SM 20/18 A2983 RMK 60001 SLP091 T02020183 57012 IEM_DS3505
ZGKL,2006-04-24 19:00,ZGKL 241900Z AUTO 08002KT 1 1/4SM 21/19 A2977 RMK T02100190 IEM_DS3505
ZGKL,2006-04-24 20:00,ZGKL 242000Z AUTO 00000KT 1SM 20/19 A2977 RMK T02000190 IEM_DS3505
ZGKL,2006-04-24 21:00,ZGKL 242100Z AUTO 00000KT 5SM 20/18 A2977 RMK 70149 SLP072 T02000185 57018 IEM_DS3505
ZGKL,2006-04-24 22:00,ZGKL 242200Z AUTO 00000KT 1SM 20/19 A2977 RMK T02000190 IEM_DS3505
ZGKL,2006-04-24 23:00,ZGKL 242300Z AUTO 00000KT 1SM 20/19 A2977 RMK T02000190 IEM_DS3505
ZGKL,2006-04-25 00:00,ZGKL 250000Z AUTO 32002KT 3SM 21/19 A2980 RMK 60000 70115 SLP086 T02070188 52014 IEM_DS3505
ZGKL,2006-04-25 01:00,ZGKL 250100Z AUTO 00000KT 3SM 22/19 A2980 RMK T02200190 IEM_DS3505
ZGKL,2006-04-25 02:00,ZGKL 250200Z AUTO 35002KT 3SM 24/20 A2980 RMK T02400200 IEM_DS3505
ZGKL,2006-04-25 03:00,ZGKL 250300Z AUTO 18002KT 3SM 27/21 A2980 RMK SLP080 T02670212 57004 IEM_DS3505
ZGKL,2006-04-25 04:00,ZGKL 250400Z AUTO 31004KT 3SM 26/22 A2977 RMK T02600220 IEM_DS3505
ZGKL,2006-04-25 05:00,ZGKL 250500Z AUTO 34006KT 3SM 25/22 A2974 RMK T02500220 IEM_DS3505
ZGKL,2006-04-25 06:00,ZGKL 250600Z AUTO 34002KT 5SM 27/22 A2974 RMK 60001 SLP055 T02700224 57025 IEM_DS3505
ZGKL,2006-04-25 07:00,ZGKL 250700Z AUTO 35004KT 3SM 26/23 A2971 RMK T02600230 IEM_DS3505
ZGKL,2006-04-25 08:00,ZGKL 250800Z AUTO 17004KT 4SM 28/22 A2968 RMK T02800220 IEM_DS3505
ZGKL,2006-04-25 09:00,ZGKL 250900Z AUTO 14002KT 7SM 28/23 A2965 RMK SLP036 T02820227 57018 IEM_DS3505
ZGKL,2006-04-25 10:00,ZGKL 251000Z AUTO 18010KT 4SM 28/22 A2965 RMK T02800220 IEM_DS3505
ZGKL,2006-04-25 11:00,ZGKL 251100Z AUTO 00000KT 4SM 27/22 A2968 RMK T02700220 IEM_DS3505
ZGKL,2006-04-25 12:00,ZGKL 251200Z AUTO 09002KT 7SM 26/24 A2968 RMK 60000 SLP049 T02580237 52012 IEM_DS3505
ZGKL,2006-04-25 13:00,ZGKL 251300Z AUTO 30004KT 4SM 25/23 A2971 RMK T02500230 IEM_DS3505
ZGKL,2006-04-25 14:00,ZGKL 251400Z AUTO 10002KT 4SM 26/23 A2974 RMK T02600230 IEM_DS3505
ZGKL,2006-04-25 15:00,ZGKL 251500Z AUTO 36004KT 7SM 24/22 A2974 RMK SLP065 T02440223 52017 IEM_DS3505
ZGKL,2006-04-25 17:00,ZGKL 251700Z AUTO 22006KT 20/19 A2983 RMK T02000190 IEM_DS3505
ZGKL,2006-04-25 18:00,ZGKL 251800Z AUTO 14006KT 19SM 20/19 A2980 RMK 60138 SLP080 T01980191 52014 IEM_DS3505
ZGKL,2006-04-25 19:00,ZGKL 251900Z AUTO 07002KT 20/19 A2980 RMK T02000190 IEM_DS3505
ZGKL,2006-04-25 20:00,ZGKL 252000Z AUTO 15004KT 20/19 A2980 RMK T02000190 IEM_DS3505
ZGKL,2006-04-25 21:00,ZGKL 252100Z AUTO 16004KT 4SM 20/19 A2980 RMK 70167 SLP084 T01970190 52004 IEM_DS3505
ZGKL,2006-04-25 22:00,ZGKL 252200Z AUTO 17002KT 3SM 19/19 A2980 RMK T01900190 IEM_DS3505
ZGKL,2006-04-25 23:00,ZGKL 252300Z AUTO 06002KT 3SM 20/19 A2983 RMK T02000190 IEM_DS3505
ZGKL,2006-04-26 00:00,ZGKL 260000Z AUTO 04002KT 5SM 20/19 A2983 RMK 60047 70183 SLP100 T02010193 52015 IEM_DS3505
ZGKL,2006-04-26 01:00,ZGKL 260100Z AUTO 35002KT 3SM 21/19 A2985 RMK T02100190 IEM_DS3505
ZGKL,2006-04-26 02:00,ZGKL 260200Z AUTO 00000KT 5SM 21/19 A2988 RMK T02100190 IEM_DS3505
ZGKL,2006-04-26 03:00,ZGKL 260300Z AUTO 09004KT 7SM 23/20 A2985 RMK SLP109 T02340196 52009 IEM_DS3505
ZGKL,2006-04-26 04:00,ZGKL 260400Z AUTO 33002KT 7SM 23/19 A2985 RMK T02300190 IEM_DS3505
ZGKL,2006-04-26 05:00,ZGKL 260500Z AUTO 34002KT 7SM 23/19 A2985 RMK T02300190 IEM_DS3505
ZGKL,2006-04-26 06:00,ZGKL 260600Z AUTO 02004KT 8SM 24/17 A2983 RMK SLP092 T02380168 57018 IEM_DS3505
ZGKL,2006-04-26 07:00,ZGKL 260700Z AUTO 02006KT 7SM 24/17 A2980 RMK T02400170 IEM_DS3505
ZGKL,2006-04-26 08:00,ZGKL 260800Z AUTO 04004KT 7SM 24/16 A2977 RMK T02400160 IEM_DS3505
ZGKL,2006-04-26 09:00,ZGKL 260900Z AUTO 02004KT 10SM 24/17 A2974 RMK SLP066 T02430166 57025 IEM_DS3505
ZGKL,2006-04-26 10:00,ZGKL 261000Z AUTO 26002KT 7SM 23/18 A2977 RMK T02300180 IEM_DS3505
ZGKL,2006-04-26 11:00,ZGKL 261100Z AUTO 32002KT 7SM 23/19 A2977 RMK T02300190 IEM_DS3505
ZGKL,2006-04-26 12:00,ZGKL 261200Z AUTO 36004KT 9SM 22/17 A2980 RMK SLP083 T02250170 52016 IEM_DS3505
ZGKL,2006-04-26 13:00,ZGKL 261300Z AUTO 34004KT 4SM 22/20 A2983 RMK T02200200 IEM_DS3505
ZGKL,2006-04-26 14:00,ZGKL 261400Z AUTO 21002KT 3SM 22/20 A2985 RMK T02200200 IEM_DS3505
ZGKL,2006-04-26 15:00,ZGKL 261500Z AUTO 02004KT 8SM 22/17 A2985 RMK SLP109 T02220167 52027 IEM_DS3505
ZGKL,2006-04-26 16:00,ZGKL 261600Z AUTO 00000KT 3SM 22/20 A2985 RMK T02200200 IEM_DS3505
ZGKL,2006-04-26 17:00,ZGKL 261700Z AUTO 00000KT 22/20 A2985 RMK T02200200 IEM_DS3505
ZGKL,2006-04-26 18:00,ZGKL 261800Z AUTO 36002KT 8SM 22/17 A2983 RMK SLP094 T02180170 57015 IEM_DS3505
ZGKL,2006-04-26 19:00,ZGKL 261900Z AUTO 00000KT 21/20 A2980 RMK T02100200 IEM_DS3505
ZGKL,2006-04-26 20:00,ZGKL 262000Z AUTO 00000KT 21/20 A2980 RMK T02100200 IEM_DS3505
ZGKL,2006-04-26 21:00,ZGKL 262100Z AUTO 02002KT 7SM 21/17 A2977 RMK 70017 SLP079 T02110173 57015 IEM_DS3505
ZGKL,2006-04-26 22:00,ZGKL 262200Z AUTO 00000KT 3SM 21/19 A2980 RMK T02100190 IEM_DS3505
ZGKL,2006-04-26 23:00,ZGKL 262300Z AUTO 30002KT 2 1/2SM 21/19 A2980 RMK T02100190 IEM_DS3505
ZGKL,2006-04-27 00:00,ZGKL 270000Z AUTO 34004KT 5SM 21/18 A2983 RMK 70000 SLP097 T02120184 52017 IEM_DS3505
ZGKL,2006-04-27 01:00,ZGKL 270100Z AUTO 36006KT 2 1/2SM 21/19 A2985 RMK T02100190 IEM_DS3505
ZGKL,2006-04-27 02:00,ZGKL 270200Z AUTO 34004KT 2 1/2SM 21/19 A2985 RMK T02100190 IEM_DS3505
ZGKL,2006-04-27 03:00,ZGKL 270300Z AUTO 02006KT 5SM 20/18 A2985 RMK SLP106 T02040183 52009 IEM_DS3505
ZGKL,2006-04-27 04:00,ZGKL 270400Z AUTO 03004KT 2 1/2SM 21/19 A2985 RMK T02100190 IEM_DS3505
ZGKL,2006-04-27 05:00,ZGKL 270500Z AUTO 01004KT 2 1/2SM 21/19 A2985 RMK T02100190 IEM_DS3505
ZGKL,2006-04-27 06:00,ZGKL 270600Z AUTO 02006KT 6SM 21/18 A2983 RMK 60002 SLP097 T02120182 57009 IEM_DS3505
ZGKL,2006-04-27 07:00,ZGKL 270700Z AUTO 36002KT 2 1/2SM 21/19 A2983 RMK T02100190 IEM_DS3505
ZGKL,2006-04-27 08:00,ZGKL 270800Z AUTO 35002KT 2 1/2SM 21/19 A2983 RMK T02100190 IEM_DS3505
ZGKL,2006-04-27 09:00,ZGKL 270900Z AUTO 02004KT 7SM 20/19 A2983 RMK SLP096 T02010186 57001 IEM_DS3505
ZGKL,2006-04-27 10:00,ZGKL 271000Z AUTO 05004KT 2 1/2SM 21/19 A2983 RMK T02100190 IEM_DS3505
ZGKL,2006-04-27 11:00,ZGKL 271100Z AUTO 35002KT 2 1/2SM 20/19 A2985 RMK T02000190 IEM_DS3505
ZGKL,2006-04-27 12:00,ZGKL 271200Z AUTO 02012KT 7SM 19/16 A2985 RMK 60016 SLP115 T01940159 52018 IEM_DS3505
ZGKL,2006-04-27 13:00,ZGKL 271300Z AUTO 05010KT 4SM 20/17 A2988 RMK T02000170 IEM_DS3505
ZGKL,2006-04-27 14:00,ZGKL 271400Z AUTO 06012KT 5SM 19/15 A2991 RMK T01900150 IEM_DS3505
ZGKL,2006-04-27 15:00,ZGKL 271500Z AUTO 02006KT 7SM 19/12 A2994 RMK SLP138 T01860121 52022 IEM_DS3505
ZGKL,2006-04-27 16:00,ZGKL 271600Z AUTO 02002KT 5SM 18/14 A2994 RMK T01800140 IEM_DS3505
ZGKL,2006-04-27 17:00,ZGKL 271700Z AUTO 33002KT 5SM 18/14 A2994 RMK T01800140 IEM_DS3505
ZGKL,2006-04-27 18:00,ZGKL 271800Z AUTO 02006KT 7SM 18/13 A2994 RMK SLP139 T01800127 52001 IEM_DS3505
ZGKL,2006-04-27 19:00,ZGKL 271900Z AUTO 33004KT 17/15 A2994 RMK T01700150 IEM_DS3505
ZGKL,2006-04-27 20:00,ZGKL 272000Z AUTO 33004KT 17/15 A2991 RMK T01700150 IEM_DS3505
ZGKL,2006-04-27 21:00,ZGKL 272100Z AUTO 36004KT 7SM 18/13 A2991 RMK 70017 SLP131 T01770132 57008 IEM_DS3505
ZGKL,2006-04-27 22:00,ZGKL 272200Z AUTO 32006KT 6SM 18/15 A2991 RMK T01800150 IEM_DS3505
ZGKL,2006-04-27 23:00,ZGKL 272300Z AUTO 01006KT 4SM 17/15 A2994 RMK T01700150 IEM_DS3505
ZGKL,2006-04-28 00:00,ZGKL 280000Z AUTO 02006KT 6SM 17/14 A2997 RMK 60008 70024 SLP142 T01700143 52010 IEM_DS3505
ZGKL,2006-04-28 01:00,ZGKL 280100Z AUTO 29006KT 7SM 17/15 A3000 RMK T01700150 IEM_DS3505
ZGKL,2006-04-28 02:00,ZGKL 280200Z AUTO 30004KT 4SM 17/16 A3003 RMK T01700160 IEM_DS3505
ZGKL,2006-04-28 03:00,ZGKL 280300Z AUTO 36004KT 5SM 18/16 A3003 RMK SLP169 T01800158 52027 IEM_DS3505
ZGKL,2006-04-28 04:00,ZGKL 280400Z AUTO 33004KT 7SM 18/16 A3003 RMK T01800160 IEM_DS3505
ZGKL,2006-04-28 05:00,ZGKL 280500Z AUTO 33004KT 7SM 18/16 A3000 RMK T01800160 IEM_DS3505
ZGKL,2006-04-28 06:00,ZGKL 280600Z AUTO 02004KT 6SM 18/14 A3000 RMK 60016 SLP156 T01810138 57013 IEM_DS3505
ZGKL,2006-04-28 07:00,ZGKL 280700Z AUTO 02006KT 6SM 20/13 A2997 RMK T02000130 IEM_DS3505
ZGKL,2006-04-28 08:00,ZGKL 280800Z AUTO 01002KT 6SM 20/13 A2994 RMK T02000130 IEM_DS3505
ZGKL,2006-04-28 09:00,ZGKL 280900Z AUTO 36002KT 9SM 20/13 A2994 RMK SLP141 T01970134 57015 IEM_DS3505
ZGKL,2006-04-28 10:00,ZGKL 281000Z AUTO 21002KT 6SM 20/14 A2994 RMK T02000140 IEM_DS3505
ZGKL,2006-04-28 11:00,ZGKL 281100Z AUTO 24002KT 6SM 19/15 A2994 RMK T01900150 IEM_DS3505
ZGKL,2006-04-28 12:00,ZGKL 281200Z AUTO 07002KT 9SM 18/15 A2994 RMK 60000 SLP136 T01810148 57005 IEM_DS3505
ZGKL,2006-04-28 13:00,ZGKL 281300Z AUTO 00000KT 4SM 18/16 A2994 RMK T01800160 IEM_DS3505
ZGKL,2006-04-28 14:00,ZGKL 281400Z AUTO 00000KT 4SM 18/16 A2994 RMK T01800160 IEM_DS3505
ZGKL,2006-04-28 15:00,ZGKL 281500Z AUTO 02002KT 8SM 17/15 A2994 RMK SLP148 T01710146 52012 IEM_DS3505
ZGKL,2006-04-28 16:00,ZGKL 281600Z AUTO 20002KT 3SM 17/16 A2997 RMK T01700160 IEM_DS3505
ZGKL,2006-04-28 17:00,ZGKL 281700Z AUTO 00000KT 17/16 A2997 RMK T01700160 IEM_DS3505
ZGKL,2006-04-28 18:00,ZGKL 281800Z AUTO 07002KT 8SM 16/15 A2994 RMK SLP140 T01620146 57009 IEM_DS3505
ZGKL,2006-04-28 19:00,ZGKL 281900Z AUTO 00000KT 16/16 A2991 RMK T01600160 IEM_DS3505
ZGKL,2006-04-28 21:00,ZGKL 282100Z AUTO 09002KT 8SM 15/14 A2991 RMK 70021 SLP132 T01530140 57007 IEM_DS3505
ZGKL,2006-04-28 22:00,ZGKL 282200Z AUTO 34002KT 3/8SM 16/15 A2991 RMK T01600150 IEM_DS3505
ZGKL,2006-04-28 23:00,ZGKL 282300Z AUTO 01002KT 3/8SM 16/15 A2994 RMK T01600150 IEM_DS3505
ZGKL,2006-04-29 00:00,ZGKL 290000Z AUTO 32004KT 3SM 16/15 A2994 RMK 70014 SLP144 T01620146 52011 IEM_DS3505
ZGKL,2006-04-29 01:00,ZGKL 290100Z AUTO 00000KT 1SM 17/16 A2994 RMK T01700160 IEM_DS3505
ZGKL,2006-04-29 02:00,ZGKL 290200Z AUTO 06002KT 1 1/2SM 18/16 A2994 RMK T01800160 IEM_DS3505
ZGKL,2006-04-29 03:00,ZGKL 290300Z AUTO 02002KT 4SM 20/15 A2994 RMK SLP144 T01950147 52001 IEM_DS3505
ZGKL,2006-04-29 04:00,ZGKL 290400Z AUTO 00000KT 3SM 21/16 A2994 RMK T02100160 IEM_DS3505
ZGKL,2006-04-29 05:00,ZGKL 290500Z AUTO 20002KT 4SM 23/16 A2991 RMK T02300160 IEM_DS3505
ZGKL,2006-04-29 06:00,ZGKL 290600Z AUTO 16006KT 4SM 24/15 A2988 RMK SLP114 T02360151 57028 IEM_DS3505
ZGKL,2006-04-29 07:00,ZGKL 290700Z AUTO 16006KT 5SM 23/17 A2985 RMK T02300170 IEM_DS3505
ZGKL,2006-04-29 08:00,ZGKL 290800Z AUTO 17004KT 5SM 23/16 A2983 RMK T02300160 IEM_DS3505
ZGKL,2006-04-29 09:00,ZGKL 290900Z AUTO 18002KT 7SM 23/14 A2983 RMK SLP097 T02340141 57017 IEM_DS3505
ZGKL,2006-04-29 10:00,ZGKL 291000Z AUTO 09002KT 4SM 23/16 A2983 RMK T02300160 IEM_DS3505
ZGKL,2006-04-29 11:00,ZGKL 291100Z AUTO 13002KT 4SM 22/16 A2983 RMK T02200160 IEM_DS3505
ZGKL,2006-04-29 12:00,ZGKL 291200Z AUTO 18002KT 9SM 21/16 A2985 RMK SLP106 T02120157 52008 IEM_DS3505
ZGKL,2006-04-29 13:00,ZGKL 291300Z AUTO 00000KT 2SM 20/18 A2985 RMK T02000180 IEM_DS3505
ZGKL,2006-04-29 14:00,ZGKL 291400Z AUTO 00000KT 1 1/4SM 19/18 A2988 RMK T01900180 IEM_DS3505
ZGKL,2006-04-29 15:00,ZGKL 291500Z AUTO 00000KT 8SM 18/16 A2988 RMK SLP118 T01790159 52012 IEM_DS3505
ZGKL,2006-04-29 16:00,ZGKL 291600Z AUTO 00000KT 2SM 18/17 A2988 RMK T01800170 IEM_DS3505
ZGKL,2006-04-29 17:00,ZGKL 291700Z AUTO 22002KT 18/17 A2988 RMK T01800170 IEM_DS3505
ZGKL,2006-04-29 18:00,ZGKL 291800Z AUTO 00000KT 8SM 18/16 A2985 RMK SLP108 T01750164 57009 IEM_DS3505
ZGKL,2006-04-29 19:00,ZGKL 291900Z AUTO 00000KT 17/16 A2983 RMK T01700160 IEM_DS3505
ZGKL,2006-04-29 20:00,ZGKL 292000Z AUTO 01002KT 17/16 A2983 RMK T01700160 IEM_DS3505
ZGKL,2006-04-29 21:00,ZGKL 292100Z AUTO 09002KT 6SM 17/16 A2983 RMK SLP099 T01700159 57009 IEM_DS3505
ZGKL,2006-04-29 22:00,ZGKL 292200Z AUTO 00000KT 1/4SM 17/16 A2983 RMK T01700160 IEM_DS3505
ZGKL,2006-04-29 23:00,ZGKL 292300Z AUTO 00000KT 1/4SM 17/16 A2985 RMK T01700160 IEM_DS3505
ZGKL,2006-04-30 00:00,ZGKL 300000Z AUTO 00000KT 5SM 18/17 A2988 RMK SLP113 T01770167 52014 IEM_DS3505
ZGKL,2006-04-30 01:00,ZGKL 300100Z AUTO 00000KT 1 1/4SM 18/17 A2988 RMK T01800170 IEM_DS3505
ZGKL,2006-04-30 02:00,ZGKL 300200Z AUTO 31002KT 2 1/2SM 20/18 A2988 RMK T02000180 IEM_DS3505
ZGKL,2006-04-30 03:00,ZGKL 300300Z AUTO 34002KT 5SM 23/17 A2988 RMK SLP114 T02320167 52001 IEM_DS3505
ZGKL,2006-04-30 04:00,ZGKL 300400Z AUTO 26002KT 4SM 24/18 A2985 RMK T02400180 IEM_DS3505
ZGKL,2006-04-30 05:00,ZGKL 300500Z AUTO 31002KT 4SM 25/18 A2983 RMK T02500180 IEM_DS3505
ZGKL,2006-04-30 06:00,ZGKL 300600Z AUTO 20004KT 6SM 27/16 A2980 RMK SLP091 T02680164 57021 IEM_DS3505
ZGKL,2006-04-30 07:00,ZGKL 300700Z AUTO 17002KT 5SM 28/18 A2980 RMK T02800180 IEM_DS3505
ZGKL,2006-04-30 08:00,ZGKL 300800Z AUTO 00000KT 5SM 28/18 A2977 RMK T02800180 IEM_DS3505
ZGKL,2006-04-30 09:00,ZGKL 300900Z AUTO 27002KT 7SM 27/16 A2977 RMK SLP072 T02740164 57019 IEM_DS3505
ZGKL,2006-04-30 10:00,ZGKL 301000Z AUTO 02002KT 6SM 26/19 A2977 RMK T02600190 IEM_DS3505
ZGKL,2006-04-30 11:00,ZGKL 301100Z AUTO 00000KT 4SM 25/21 A2977 RMK T02500210 IEM_DS3505
ZGKL,2006-04-30 12:00,ZGKL 301200Z AUTO 32002KT 6SM 24/20 A2980 RMK 60000 SLP083 T02410202 52010 IEM_DS3505
ZGKL,2006-04-30 13:00,ZGKL 301300Z AUTO 00000KT 4SM 23/20 A2980 RMK T02300200 IEM_DS3505
ZGKL,2006-04-30 14:00,ZGKL 301400Z AUTO 33002KT 4SM 23/20 A2980 RMK T02300200 IEM_DS3505
ZGKL,2006-04-30 15:00,ZGKL 301500Z AUTO 36002KT 6SM 22/20 A2983 RMK SLP088 T02240198 52006 IEM_DS3505
ZGKL,2006-04-30 16:00,ZGKL 301600Z AUTO 11002KT 2 1/2SM 22/20 A2980 RMK T02200200 IEM_DS3505
ZGKL,2006-04-30 17:00,ZGKL 301700Z AUTO 01002KT 21/20 A2977 RMK T02100200 IEM_DS3505
ZGKL,2006-04-30 18:00,ZGKL 301800Z AUTO 02002KT 5SM 21/20 A2977 RMK 60008 SLP070 T02120200 57017 IEM_DS3505
ZGKL,2006-04-30 19:00,ZGKL 301900Z AUTO 00000KT 21/20 A2974 RMK T02100200 IEM_DS3505
ZGKL,2006-04-30 20:00,ZGKL 302000Z AUTO 32002KT 3SM 21/20 A2974 RMK T02100200 IEM_DS3505
ZGKL,2006-04-30 21:00,ZGKL 302100Z AUTO 09002KT 4SM 21/20 A2974 RMK 70006 SLP061 T02100195 57008 IEM_DS3505
ZGKL,2006-04-30 22:00,ZGKL 302200Z AUTO 32002KT 2 1/2SM 21/20 A2974 RMK T02100200 IEM_DS3505
ZGKL,2006-04-30 23:00,ZGKL 302300Z AUTO 06002KT 2 1/2SM 21/20 A2974 RMK T02100200 IEM_DS3505
ZGKL,2006-05-01 00:00,ZGKL 010000Z AUTO 14002KT 2SM 21/20 A2977 RMK 60000 70007 SLP076 T02140202 52013 IEM_DS3505
ZGKL,2006-05-01 01:00,ZGKL 010100Z AUTO 20006KT 3SM 23/21 A2980 RMK T02300210 IEM_DS3505
ZGKL,2006-05-01 02:00,ZGKL 010200Z AUTO 19006KT 3SM 23/21 A2980 RMK T02300210 IEM_DS3505
ZGKL,2006-05-01 03:00,ZGKL 010300Z AUTO 22006KT 4SM 25/21 A2980 RMK SLP083 T02510212 52008 IEM_DS3505
ZGKL,2006-05-01 04:00,ZGKL 010400Z AUTO 16008KT 4SM 25/22 A2980 RMK T02500220 IEM_DS3505
ZGKL,2006-05-01 05:00,ZGKL 010500Z AUTO 18010KT 4SM 25/22 A2977 RMK T02500220 IEM_DS3505
ZGKL,2006-05-01 06:00,ZGKL 010600Z AUTO 20004KT 7SM 26/21 A2977 RMK 60001 SLP071 T02580210 57012 IEM_DS3505
ZGKL,2006-05-01 07:00,ZGKL 010700Z AUTO 19010KT 4SM 26/22 A2974 RMK T02600220 IEM_DS3505
ZGKL,2006-05-01 08:00,ZGKL 010800Z AUTO 19008KT 4SM 27/22 A2974 RMK T02700220 IEM_DS3505
ZGKL,2006-05-01 09:00,ZGKL 010900Z AUTO 18006KT 7SM 27/22 A2974 RMK SLP061 T02690217 57010 IEM_DS3505
ZGKL,2006-05-01 10:00,ZGKL 011000Z AUTO 18010KT 3SM 26/22 A2974 RMK T02600220 IEM_DS3505
ZGKL,2006-05-01 11:00,ZGKL 011100Z AUTO 17008KT 3SM 26/22 A2977 RMK T02600220 IEM_DS3505
ZGKL,2006-05-01 12:00,ZGKL 011200Z AUTO 18002KT 7SM 25/21 A2977 RMK SLP073 T02500213 52012 IEM_DS3505
ZGKL,2006-05-01 13:00,ZGKL 011300Z AUTO 20004KT 2 1/2SM 24/22 A2977 RMK T02400220 IEM_DS3505
ZGKL,2006-05-01 14:00,ZGKL 011400Z AUTO 00000KT 2 1/2SM 24/22 A2980 RMK T02400220 IEM_DS3505
ZGKL,2006-05-01 15:00,ZGKL 011500Z AUTO 36002KT 7SM 23/22 A2983 RMK SLP090 T02340215 52017 IEM_DS3505
ZGKL,2006-05-01 16:00,ZGKL 011600Z AUTO 01002KT 2SM 23/22 A2983 RMK T02300220 IEM_DS3505
ZGKL,2006-05-01 17:00,ZGKL 011700Z AUTO 00000KT 2SM 23/22 A2980 RMK T02300220 IEM_DS3505
ZGKL,2006-05-01 18:00,ZGKL 011800Z AUTO 09002KT 7SM 23/22 A2980 RMK SLP080 T02320215 57010 IEM_DS3505
ZGKL,2006-05-01 19:00,ZGKL 011900Z AUTO 00000KT 1 1/2SM 22/21 A2977 RMK T02200210 IEM_DS3505
ZGKL,2006-05-01 20:00,ZGKL 012000Z AUTO 00000KT 1 1/2SM 22/21 A2977 RMK T02200210 IEM_DS3505
ZGKL,2006-05-01 21:00,ZGKL 012100Z AUTO 07002KT 7SM 22/21 A2977 RMK 70002 SLP076 T02250213 57003 IEM_DS3505
ZGKL,2006-05-01 22:00,ZGKL 012200Z AUTO 32004KT 1SM 21/21 A2980 RMK T02100210 IEM_DS3505
ZGKL,2006-05-01 23:00,ZGKL 012300Z AUTO 00000KT 1SM 22/21 A2983 RMK T02200210 IEM_DS3505
ZGKL,2006-05-02 00:00,ZGKL 020000Z AUTO 00000KT 2 1/2SM 23/22 A2983 RMK 70001 SLP098 T02310215 52021 IEM_DS3505
ZGKL,2006-05-02 01:00,ZGKL 020100Z AUTO 00000KT 2SM 24/21 A2985 RMK T02400210 IEM_DS3505
ZGKL,2006-05-02 02:00,ZGKL 020200Z AUTO 00000KT 2 1/2SM 27/22 A2985 RMK T02700220 IEM_DS3505
ZGKL,2006-05-02 03:00,ZGKL 020300Z AUTO 16004KT 4SM 28/23 A2985 RMK SLP103 T02790228 52006 IEM_DS3505
ZGKL,2006-05-02 04:00,ZGKL 020400Z AUTO 15002KT 2 1/2SM 28/23 A2983 RMK T02800230 IEM_DS3505
ZGKL,2006-05-02 05:00,ZGKL 020500Z AUTO 17002KT 2 1/2SM 29/24 A2983 RMK T02900240 IEM_DS3505
ZGKL,2006-05-02 06:00,ZGKL 020600Z AUTO 09004KT 5SM 30/21 A2980 RMK SLP076 T03050207 57026 IEM_DS3505
ZGKL,2006-05-02 07:00,ZGKL 020700Z AUTO 13002KT 4SM 31/23 A2977 RMK T03100230 IEM_DS3505
ZGKL,2006-05-02 08:00,ZGKL 020800Z AUTO 17006KT 4SM 30/22 A2974 RMK T03000220 IEM_DS3505
ZGKL,2006-05-02 09:00,ZGKL 020900Z AUTO 18004KT 9SM 30/21 A2974 RMK SLP058 T03000211 57018 IEM_DS3505
ZGKL,2006-05-02 10:00,ZGKL 021000Z AUTO 16006KT 4SM 30/22 A2974 RMK T03000220 IEM_DS3505
ZGKL,2006-05-02 11:00,ZGKL 021100Z AUTO 13006KT 4SM 28/22 A2977 RMK T02800220 IEM_DS3505
ZGKL,2006-05-02 12:00,ZGKL 021200Z AUTO 14004KT 10SM 27/22 A2977 RMK SLP076 T02740224 52017 IEM_DS3505
ZGKL,2006-05-02 13:00,ZGKL 021300Z AUTO 05002KT 4SM 27/23 A2980 RMK T02700230 IEM_DS3505
ZGKL,2006-05-02 14:00,ZGKL 021400Z AUTO 06017KT 1SM 22/20 A2983 RMK T02200200 IEM_DS3505
ZGKL,2006-05-02 15:00,ZGKL 021500Z AUTO 27008KT 6SM 23/21 A2985 RMK SLP107 T02330206 52031 IEM_DS3505
ZGKL,2006-05-02 16:00,ZGKL 021600Z AUTO 28008KT 2 1/2SM 22/20 A2988 RMK T02200200 IEM_DS3505
ZGKL,2006-05-02 17:00,ZGKL 021700Z AUTO 26006KT 2 1/2SM 21/20 A2985 RMK T02100200 IEM_DS3505
ZGKL,2006-05-02 18:00,ZGKL 021800Z AUTO 32004KT 6SM 23/21 A2985 RMK 60008 SLP107 T02260207 54000 IEM_DS3505
ZGKL,2006-05-02 19:00,ZGKL 021900Z AUTO 00000KT 3SM 21/20 A2985 RMK T02100200 IEM_DS3505
ZGKL,2006-05-02 20:00,ZGKL 022000Z AUTO 17002KT 4SM 20/19 A2985 RMK T02000190 IEM_DS3505
ZGKL,2006-05-02 21:00,ZGKL 022100Z AUTO 32002KT 6SM 21/20 A2985 RMK 70008 SLP101 T02140197 57006 IEM_DS3505
ZGKL,2006-05-02 22:00,ZGKL 022200Z AUTO 00000KT 3SM 20/19 A2988 RMK T02000190 IEM_DS3505
ZGKL,2006-05-02 23:00,ZGKL 022300Z AUTO 00000KT 1SM 20/20 A2988 RMK T02000200 IEM_DS3505
ZGKL,2006-05-03 00:00,ZGKL 030000Z AUTO 36002KT 3SM 23/21 A2991 RMK 70008 SLP122 T02270210 52020 IEM_DS3505
ZGKL,2006-05-03 01:00,ZGKL 030100Z AUTO 11002KT 7SM 22/20 A2991 RMK T02200200 IEM_DS3505
ZGKL,2006-05-03 02:00,ZGKL 030200Z AUTO 00000KT 7SM 23/20 A2991 RMK T02300200 IEM_DS3505
ZGKL,2006-05-03 03:00,ZGKL 030300Z AUTO 18004KT 4SM 26/22 A2991 RMK SLP122 T02650217 54000 IEM_DS3505
ZGKL,2006-05-03 04:00,ZGKL 030400Z AUTO 11004KT 7SM 27/21 A2988 RMK T02700210 IEM_DS3505
ZGKL,2006-05-03 05:00,ZGKL 030500Z AUTO 14006KT 7SM 28/21 A2985 RMK T02800210 IEM_DS3505
ZGKL,2006-05-03 06:00,ZGKL 030600Z AUTO 18006KT 9SM 28/21 A2983 RMK SLP097 T02830208 57024 IEM_DS3505
ZGKL,2006-05-03 07:00,ZGKL 030700Z AUTO 17004KT 7SM 30/21 A2980 RMK T03000210 IEM_DS3505
ZGKL,2006-05-03 08:00,ZGKL 030800Z AUTO 11006KT 7SM 30/22 A2977 RMK T03000220 IEM_DS3505
ZGKL,2006-05-03 09:00,ZGKL 030900Z AUTO 11004KT 11SM 30/21 A2977 RMK SLP070 T03040209 57027 IEM_DS3505
ZGKL,2006-05-03 10:00,ZGKL 031000Z AUTO 14006KT 7SM 30/21 A2977 RMK T03000210 IEM_DS3505
ZGKL,2006-05-03 11:00,ZGKL 031100Z AUTO 13008KT 7SM 28/21 A2977 RMK T02800210 IEM_DS3505
ZGKL,2006-05-03 12:00,ZGKL 031200Z AUTO 16006KT 10SM 28/20 A2980 RMK SLP082 T02790199 52012 IEM_DS3505
ZGKL,2006-05-03 13:00,ZGKL 031300Z AUTO 13008KT 7SM 27/20 A2983 RMK T02700200 IEM_DS3505
ZGKL,2006-05-03 14:00,ZGKL 031400Z AUTO 14008KT 6SM 26/20 A2985 RMK T02600200 IEM_DS3505
ZGKL,2006-05-03 15:00,ZGKL 031500Z AUTO 20004KT 10SM 26/20 A2985 RMK SLP105 T02570203 52023 IEM_DS3505
ZGKL,2006-05-03 16:00,ZGKL 031600Z AUTO 11004KT 6SM 25/20 A2985 RMK T02500200 IEM_DS3505
ZGKL,2006-05-03 17:00,ZGKL 031700Z AUTO 11004KT 6SM 25/20 A2985 RMK T02500200 IEM_DS3505
ZGKL,2006-05-03 18:00,ZGKL 031800Z AUTO 18002KT 9SM 25/20 A2985 RMK SLP102 T02490202 57003 IEM_DS3505
ZGKL,2006-05-03 19:00,ZGKL 031900Z AUTO 00000KT 7SM 24/21 A2985 RMK T02400210 IEM_DS3505
ZGKL,2006-05-03 20:00,ZGKL 032000Z AUTO 00000KT 7SM 24/21 A2985 RMK T02400210 IEM_DS3505
ZGKL,2006-05-03 21:00,ZGKL 032100Z AUTO 20002KT 8SM 24/20 A2985 RMK SLP098 T02440201 57003 IEM_DS3505
ZGKL,2006-05-03 22:00,ZGKL 032200Z AUTO 35002KT 7SM 23/22 A2985 RMK T02300220 IEM_DS3505
ZGKL,2006-05-03 23:00,ZGKL 032300Z AUTO 00000KT 7SM 23/22 A2988 RMK T02300220 IEM_DS3505
ZGKL,2006-05-04 00:00,ZGKL 040000Z AUTO 20004KT 9SM 25/20 A2988 RMK SLP116 T02480205 52017 IEM_DS3505
ZGKL,2006-05-04 01:00,ZGKL 040100Z AUTO 15004KT 7SM 26/21 A2988 RMK T02600210 IEM_DS3505
ZGKL,2006-05-04 02:00,ZGKL 040200Z AUTO 19008KT 7SM 26/21 A2988 RMK T02600210 IEM_DS3505
ZGKL,2006-05-04 03:00,ZGKL 040300Z AUTO 18008KT 9SM 28/21 A2988 RMK SLP111 T02780211 57005 IEM_DS3505
ZGKL,2006-05-04 04:00,ZGKL 040400Z AUTO 19008KT 7SM 29/22 A2985 RMK T02900220 IEM_DS3505
ZGKL,2006-05-04 05:00,ZGKL 040500Z AUTO 18010KT 6SM 29/22 A2983 RMK T02900220 IEM_DS3505
ZGKL,2006-05-04 06:00,ZGKL 040600Z AUTO 18008KT 12SM 30/22 A2980 RMK SLP085 T03010215 57025 IEM_DS3505
ZGKL,2006-05-04 07:00,ZGKL 040700Z AUTO 14010KT 7SM 30/23 A2977 RMK T03000230 IEM_DS3505
ZGKL,2006-05-04 08:00,ZGKL 040800Z AUTO 13014KT 7SM 28/22 A2974 RMK T02800220 IEM_DS3505
ZGKL,2006-05-04 09:00,ZGKL 040900Z AUTO 20006KT 6SM 26/23 A2974 RMK SLP063 T02640229 57023 IEM_DS3505
ZGKL,2006-05-04 10:00,ZGKL 041000Z AUTO 14012KT 5SM 26/23 A2974 RMK T02600230 IEM_DS3505
ZGKL,2006-05-04 11:00,ZGKL 041100Z AUTO 15008KT 5SM 25/23 A2974 RMK T02500230 IEM_DS3505
ZGKL,2006-05-04 12:00,ZGKL 041200Z AUTO 18004KT 9SM 26/22 A2974 RMK 60012 SLP069 T02560221 52006 IEM_DS3505
ZGKL,2006-05-04 13:00,ZGKL 041300Z AUTO 13010KT 6SM 25/22 A2980 RMK T02500220 IEM_DS3505
ZGKL,2006-05-04 14:00,ZGKL 041400Z AUTO 15004KT 4SM 25/22 A2980 RMK T02500220 IEM_DS3505
ZGKL,2006-05-04 15:00,ZGKL 041500Z AUTO 20006KT 7SM 25/22 A2980 RMK SLP083 T02510218 52015 IEM_DS3505
ZGKL,2006-05-04 16:00,ZGKL 041600Z AUTO 20002KT 4SM 24/22 A2980 RMK T02400220 IEM_DS3505
ZGKL,2006-05-04 17:00,ZGKL 041700Z AUTO 18002KT 4SM 24/22 A2980 RMK T02400220 IEM_DS3505
ZGKL,2006-05-04 18:00,ZGKL 041800Z AUTO 18008KT 7SM 25/22 A2977 RMK 60002 SLP076 T02460219 57007 IEM_DS3505
ZGKL,2006-05-04 19:00,ZGKL 041900Z AUTO 16004KT 23/22 A2977 RMK T02300220 IEM_DS3505
ZGKL,2006-05-04 20:00,ZGKL 042000Z AUTO 00000KT 4SM 24/22 A2977 RMK T02400220 IEM_DS3505
ZGKL,2006-05-04 21:00,ZGKL 042100Z AUTO 14002KT 7SM 24/23 A2977 RMK 70032 SLP072 T02360226 57005 IEM_DS3505
ZGKL,2006-05-04 22:00,ZGKL 042200Z AUTO 19002KT 4SM 24/23 A2977 RMK T02400230 IEM_DS3505
ZGKL,2006-05-04 23:00,ZGKL 042300Z AUTO 17010KT 4SM 24/23 A2977 RMK T02400230 IEM_DS3505
ZGKL,2006-05-05 00:00,ZGKL 050000Z AUTO 16002KT 7SM 25/23 A2980 RMK 60020 70032 SLP086 T02470226 52014 IEM_DS3505
ZGKL,2006-05-05 01:00,ZGKL 050100Z AUTO 28002KT 7SM 26/24 A2980 RMK T02600240 IEM_DS3505
ZGKL,2006-05-05 02:00,ZGKL 050200Z AUTO 19006KT 7SM 28/22 A2980 RMK T02800220 IEM_DS3505
ZGKL,2006-05-05 03:00,ZGKL 050300Z AUTO 14002KT 7SM 26/23 A2980 RMK SLP080 T02640231 57006 IEM_DS3505
ZGKL,2006-05-05 04:00,ZGKL 050400Z AUTO 18014KT 7SM 28/23 A2977 RMK T02800230 IEM_DS3505
ZGKL,2006-05-05 05:00,ZGKL 050500Z AUTO 18012KT 7SM 28/23 A2977 RMK T02800230 IEM_DS3505
ZGKL,2006-05-05 06:00,ZGKL 050600Z AUTO 20004KT 7SM 29/23 A2974 RMK SLP063 T02870227 57016 IEM_DS3505
ZGKL,2006-05-05 07:00,ZGKL 050700Z AUTO 19008KT 7SM 28/23 A2974 RMK T02800230 IEM_DS3505
ZGKL,2006-05-05 08:00,ZGKL 050800Z AUTO 17006KT 6SM 28/23 A2971 RMK T02800230 IEM_DS3505
ZGKL,2006-05-05 09:00,ZGKL 050900Z AUTO 20004KT 9SM 29/23 A2971 RMK SLP052 T02860226 57011 IEM_DS3505
ZGKL,2006-05-05 10:00,ZGKL 051000Z AUTO 19006KT 7SM 28/24 A2971 RMK T02800240 IEM_DS3505
ZGKL,2006-05-05 11:00,ZGKL 051100Z AUTO 00000KT 6SM 27/24 A2974 RMK T02700240 IEM_DS3505
ZGKL,2006-05-05 12:00,ZGKL 051200Z AUTO 16002KT 8SM 26/24 A2974 RMK SLP065 T02650238 52012 IEM_DS3505
ZGKL,2006-05-05 13:00,ZGKL 051300Z AUTO 23002KT 5SM 26/24 A2977 RMK T02600240 IEM_DS3505
ZGKL,2006-05-05 14:00,ZGKL 051400Z AUTO 30002KT 4SM 25/24 A2980 RMK T02500240 IEM_DS3505
ZGKL,2006-05-05 15:00,ZGKL 051500Z AUTO 07002KT 8SM 26/24 A2980 RMK SLP080 T02600239 52015 IEM_DS3505
ZGKL,2006-05-05 16:00,ZGKL 051600Z AUTO 17002KT 4SM 25/24 A2980 RMK T02500240 IEM_DS3505
ZGKL,2006-05-05 17:00,ZGKL 051700Z AUTO 04002KT 25/24 A2977 RMK T02500240 IEM_DS3505
ZGKL,2006-05-05 18:00,ZGKL 051800Z AUTO 27002KT 7SM 25/24 A2977 RMK SLP067 T02530237 57012 IEM_DS3505
ZGKL,2006-05-05 19:00,ZGKL 051900Z AUTO 00000KT 25/24 A2974 RMK T02500240 IEM_DS3505
ZGKL,2006-05-05 20:00,ZGKL 052000Z AUTO 00000KT 25/24 A2974 RMK T02500240 IEM_DS3505
ZGKL,2006-05-05 21:00,ZGKL 052100Z AUTO 14002KT 7SM 25/24 A2974 RMK SLP059 T02480239 57008 IEM_DS3505
ZGKL,2006-05-05 22:00,ZGKL 052200Z AUTO 19002KT 4SM 25/22 A2974 RMK T02500220 IEM_DS3505
ZGKL,2006-05-05 23:00,ZGKL 052300Z AUTO 19004KT 7SM 25/23 A2977 RMK T02500230 IEM_DS3505
ZGKL,2006-05-06 00:00,ZGKL 060000Z AUTO 16002KT 6SM 25/24 A2977 RMK 60000 70000 SLP074 T02510239 52014 IEM_DS3505
ZGKL,2006-05-06 01:00,ZGKL 060100Z AUTO 00000KT 5SM 25/23 A2980 RMK T02500230 IEM_DS3505
ZGKL,2006-05-06 02:00,ZGKL 060200Z AUTO 00000KT 1 1/4SM 25/23 A2983 RMK T02500230 IEM_DS3505
ZGKL,2006-05-06 03:00,ZGKL 060300Z AUTO 04004KT 3SM 24/23 A2983 RMK SLP098 T02410232 52023 IEM_DS3505
ZGKL,2006-05-06 04:00,ZGKL 060400Z AUTO 02006KT 5SM 24/22 A2983 RMK T02400220 IEM_DS3505
ZGKL,2006-05-06 05:00,ZGKL 060500Z AUTO 04010KT 5SM 23/21 A2983 RMK T02300210 IEM_DS3505
ZGKL,2006-05-06 06:00,ZGKL 060600Z AUTO 02006KT 12SM 23/21 A2983 RMK 60087 SLP093 T02330210 57005 IEM_DS3505
ZGKL,2006-05-06 07:00,ZGKL 060700Z AUTO 02006KT 7SM 24/21 A2980 RMK T02400210 IEM_DS3505
ZGKL,2006-05-06 08:00,ZGKL 060800Z AUTO 36002KT 7SM 25/22 A2977 RMK T02500220 IEM_DS3505
ZGKL,2006-05-06 09:00,ZGKL 060900Z AUTO 07006KT 12SM 25/21 A2977 RMK SLP072 T02510206 57020 IEM_DS3505
ZGKL,2006-05-06 10:00,ZGKL 061000Z AUTO 00000KT 7SM 25/22 A2977 RMK T02500220 IEM_DS3505
ZGKL,2006-05-06 11:00,ZGKL 061100Z AUTO 00000KT 7SM 25/21 A2980 RMK T02500210 IEM_DS3505
ZGKL,2006-05-06 12:00,ZGKL 061200Z AUTO 02004KT 9SM 24/20 A2983 RMK SLP092 T02400205 52019 IEM_DS3505
ZGKL,2006-05-06 13:00,ZGKL 061300Z AUTO 06006KT 4SM 24/21 A2983 RMK T02400210 IEM_DS3505
ZGKL,2006-05-06 14:00,ZGKL 061400Z AUTO 32002KT 4SM 24/22 A2985 RMK T02400220 IEM_DS3505
ZGKL,2006-05-06 15:00,ZGKL 061500Z AUTO 36002KT 8SM 23/20 A2985 RMK SLP107 T02340200 52014 IEM_DS3505
ZGKL,2006-05-06 16:00,ZGKL 061600Z AUTO 04002KT 3SM 24/20 A2985 RMK T02400200 IEM_DS3505
ZGKL,2006-05-06 17:00,ZGKL 061700Z AUTO 02004KT 3SM 23/21 A2985 RMK T02300210 IEM_DS3505
ZGKL,2006-05-06 18:00,ZGKL 061800Z AUTO 02004KT 8SM 23/20 A2983 RMK SLP095 T02300196 57012 IEM_DS3505
ZGKL,2006-05-06 19:00,ZGKL 061900Z AUTO 00000KT 23/22 A2983 RMK T02300220 IEM_DS3505
ZGKL,2006-05-06 20:00,ZGKL 062000Z AUTO 35002KT 23/22 A2980 RMK T02300220 IEM_DS3505
ZGKL,2006-05-06 21:00,ZGKL 062100Z AUTO 32002KT 8SM 23/20 A2983 RMK 70088 SLP090 T02270199 57004 IEM_DS3505
ZGKL,2006-05-06 22:00,ZGKL 062200Z AUTO 00000KT 1 1/2SM 23/22 A2983 RMK T02300220 IEM_DS3505
ZGKL,2006-05-06 23:00,ZGKL 062300Z AUTO 13002KT 1 1/2SM 22/21 A2985 RMK T02200210 IEM_DS3505
ZGKL,2006-05-07 00:00,ZGKL 070000Z AUTO 09002KT 5SM 22/20 A2985 RMK 60004 70090 SLP105 T02220203 52014 IEM_DS3505
ZGKL,2006-05-07 01:00,ZGKL 070100Z AUTO 31002KT 1SM 22/21 A2985 RMK T02200210 IEM_DS3505
ZGKL,2006-05-07 02:00,ZGKL 070200Z AUTO 00000KT 1SM 23/21 A2985 RMK T02300210 IEM_DS3505
ZGKL,2006-05-07 03:00,ZGKL 070300Z AUTO 16002KT 4SM 24/21 A2985 RMK SLP104 T02350210 57001 IEM_DS3505
ZGKL,2006-05-07 04:00,ZGKL 070400Z AUTO 01004KT 1SM 23/21 A2985 RMK T02300210 IEM_DS3505
ZGKL,2006-05-07 05:00,ZGKL 070500Z AUTO 36004KT 1SM 24/21 A2983 RMK T02400210 IEM_DS3505
ZGKL,2006-05-07 06:00,ZGKL 070600Z AUTO 02004KT 3SM 23/21 A2980 RMK 60000 SLP087 T02330208 57017 IEM_DS3505
ZGKL,2006-05-07 07:00,ZGKL 070700Z AUTO 05004KT 2 1/2SM 25/21 A2977 RMK T02500210 IEM_DS3505
ZGKL,2006-05-07 08:00,ZGKL 070800Z AUTO 00000KT 2 1/2SM 25/22 A2977 RMK T02500220 IEM_DS3505
ZGKL,2006-05-07 09:00,ZGKL 070900Z AUTO 02002KT 3SM 26/22 A2974 RMK SLP064 T02580215 57021 IEM_DS3505
ZGKL,2006-05-07 10:00,ZGKL 071000Z AUTO 00000KT 1 1/2SM 25/22 A2974 RMK T02500220 IEM_DS3505
ZGKL,2006-05-07 11:00,ZGKL 071100Z AUTO 30002KT 1 1/4SM 25/22 A2974 RMK T02500220 IEM_DS3505
ZGKL,2006-05-07 12:00,ZGKL 071200Z AUTO 02002KT 3SM 24/22 A2977 RMK 60000 SLP070 T02380217 52005 IEM_DS3505
ZGKL,2006-05-07 13:00,ZGKL 071300Z AUTO 07002KT 1SM 24/23 A2977 RMK T02400230 IEM_DS3505
ZGKL,2006-05-07 14:00,ZGKL 071400Z AUTO 24002KT 1SM 24/23 A2980 RMK T02400230 IEM_DS3505
ZGKL,2006-05-07 15:00,ZGKL 071500Z AUTO 04002KT 4SM 24/22 A2983 RMK SLP090 T02360217 52020 IEM_DS3505
ZGKL,2006-05-07 16:00,ZGKL 071600Z AUTO 00000KT 1SM 24/22 A2983 RMK T02400220 IEM_DS3505
ZGKL,2006-05-07 17:00,ZGKL 071700Z AUTO 36002KT 23/22 A2980 RMK T02300220 IEM_DS3505
ZGKL,2006-05-07 18:00,ZGKL 071800Z AUTO 32002KT 4SM 23/22 A2977 RMK SLP077 T02290217 57013 IEM_DS3505
ZGKL,2006-05-07 19:00,ZGKL 071900Z AUTO 00000KT 23/22 A2977 RMK T02300220 IEM_DS3505
ZGKL,2006-05-07 20:00,ZGKL 072000Z AUTO 15002KT 23/22 A2977 RMK T02300220 IEM_DS3505
ZGKL,2006-05-07 21:00,ZGKL 072100Z AUTO 27002KT 4SM A2980 RMK 70002 SLP082 52005 IEM_DS3505
ZGKL,2006-05-07 22:00,ZGKL 072200Z AUTO 13004KT 1SM 23/22 A2980 RMK T02300220 IEM_DS3505
ZGKL,2006-05-07 23:00,ZGKL 072300Z AUTO 00000KT 1SM 23/22 A2980 RMK T02300220 IEM_DS3505
ZGKL,2006-05-08 00:00,ZGKL 080000Z AUTO 20002KT 1 1/4SM 24/22 A2983 RMK 60001 70002 SLP093 T02370225 52011 IEM_DS3505
ZGKL,2006-05-08 01:00,ZGKL 080100Z AUTO 00000KT 1 1/4SM 25/23 A2983 RMK T02500230 IEM_DS3505
ZGKL,2006-05-08 03:00,ZGKL 080300Z AUTO 11004KT 4SM 28/24 A2983 RMK SLP096 T02790241 52004 IEM_DS3505
ZGKL,2006-05-08 04:00,ZGKL 080400Z AUTO 17014KT 7SM 31/24 A2980 RMK T03100240 IEM_DS3505
ZGKL,2006-05-08 05:00,ZGKL 080500Z AUTO 17012KT 7SM 30/24 A2980 RMK T03000240 IEM_DS3505
ZGKL,2006-05-08 06:00,ZGKL 080600Z AUTO 22006KT 9SM 30/24 A2977 RMK 60002 SLP068 T03050239 57027 IEM_DS3505
ZGKL,2006-05-08 07:00,ZGKL 080700Z AUTO 20008KT 7SM 31/23 A2974 RMK T03100230 IEM_DS3505
ZGKL,2006-05-08 08:00,ZGKL 080800Z AUTO 19010KT 7SM 31/23 A2971 RMK T03100230 IEM_DS3505
ZGKL,2006-05-08 09:00,ZGKL 080900Z AUTO 25004KT 11SM 32/23 A2968 RMK SLP045 T03190234 57022 IEM_DS3505
ZGKL,2006-05-08 10:00,ZGKL 081000Z AUTO 17004KT 7SM 30/24 A2971 RMK T03000240 IEM_DS3505
ZGKL,2006-05-08 11:00,ZGKL 081100Z AUTO 00000KT 7SM 30/23 A2971 RMK T03000230 IEM_DS3505
ZGKL,2006-05-08 12:00,ZGKL 081200Z AUTO 14002KT 10SM 28/25 A2971 RMK SLP053 T02810247 52007 IEM_DS3505
ZGKL,2006-05-08 13:00,ZGKL 081300Z AUTO 25002KT 5SM 27/25 A2974 RMK T02700250 IEM_DS3505
ZGKL,2006-05-08 14:00,ZGKL 081400Z AUTO 26004KT 3SM 26/24 A2977 RMK T02600240 IEM_DS3505
ZGKL,2006-05-08 15:00,ZGKL 081500Z AUTO 20002KT 8SM 28/23 A2977 RMK SLP072 T02800234 52020 IEM_DS3505
ZGKL,2006-05-08 16:00,ZGKL 081600Z AUTO 00000KT 26/24 A2977 RMK T02600240 IEM_DS3505
ZGKL,2006-05-08 17:00,ZGKL 081700Z AUTO 16010KT 28/24 A2977 RMK T02800240 IEM_DS3505
ZGKL,2006-05-08 18:00,ZGKL 081800Z AUTO 20004KT 8SM 28/23 A2974 RMK SLP054 T02810230 57017 IEM_DS3505
ZGKL,2006-05-08 19:00,ZGKL 081900Z AUTO 17012KT 28/23 A2971 RMK T02800230 IEM_DS3505
ZGKL,2006-05-08 20:00,ZGKL 082000Z AUTO 17014KT 28/23 A2971 RMK T02800230 IEM_DS3505
ZGKL,2006-05-08 21:00,ZGKL 082100Z AUTO 20006KT 8SM 28/23 A2971 RMK 70004 SLP054 T02760228 54000 IEM_DS3505
ZGKL,2006-05-08 22:00,ZGKL 082200Z AUTO 17012KT 6SM 27/22 A2974 RMK T02700220 IEM_DS3505
ZGKL,2006-05-09 00:00,ZGKL 090000Z AUTO 20004KT 8SM 28/22 A2980 RMK 70002 SLP078 T02770222 52023 IEM_DS3505
ZGKL,2006-05-09 01:00,ZGKL 090100Z AUTO 19010KT 7SM 28/23 A2980 RMK T02800230 IEM_DS3505
ZGKL,2006-05-09 02:00,ZGKL 090200Z AUTO 18012KT 7SM 28/23 A2980 RMK T02800230 IEM_DS3505
ZGKL,2006-05-09 03:00,ZGKL 090300Z AUTO 18004KT 9SM 28/23 A2980 RMK SLP076 T02830230 57002 IEM_DS3505
ZGKL,2006-05-09 04:00,ZGKL 090400Z AUTO 18014KT 7SM 29/23 A2977 RMK T02900230 IEM_DS3505
ZGKL,2006-05-09 05:00,ZGKL 090500Z AUTO 18012KT 7SM 30/24 A2974 RMK T03000240 IEM_DS3505
ZGKL,2006-05-09 06:00,ZGKL 090600Z AUTO 22006KT 9SM 30/23 A2971 RMK 60008 SLP057 T03040231 57018 IEM_DS3505
ZGKL,2006-05-09 07:00,ZGKL 090700Z AUTO 18014KT 7SM 32/24 A2968 RMK T03200240 IEM_DS3505
ZGKL,2006-05-09 08:00,ZGKL 090800Z AUTO 18010KT 7SM 30/23 A2968 RMK T03000230 IEM_DS3505
ZGKL,2006-05-09 09:00,ZGKL 090900Z AUTO 20006KT 10SM 32/23 A2968 RMK SLP035 T03160226 57022 IEM_DS3505
ZGKL,2006-05-09 10:00,ZGKL 091000Z AUTO 17006KT 6SM 30/23 A2968 RMK T03000230 IEM_DS3505
ZGKL,2006-05-09 11:00,ZGKL 091100Z AUTO 18004KT 6SM 30/23 A2968 RMK T03000230 IEM_DS3505
ZGKL,2006-05-09 12:00,ZGKL 091200Z AUTO 36002KT 10SM 28/23 A2971 RMK SLP049 T02850234 52013 IEM_DS3505
ZGKL,2006-05-09 13:00,ZGKL 091300Z AUTO 02004KT 6SM 27/24 A2974 RMK T02700240 IEM_DS3505
ZGKL,2006-05-09 14:00,ZGKL 091400Z AUTO 01002KT 6SM 26/24 A2974 RMK T02600240 IEM_DS3505
ZGKL,2006-05-09 15:00,ZGKL 091500Z AUTO 36008KT 10SM 27/24 A2977 RMK SLP077 T02690236 52027 IEM_DS3505
ZGKL,2006-05-09 16:00,ZGKL 091600Z AUTO 36008KT 7SM 25/20 A2977 RMK T02500200 IEM_DS3505
ZGKL,2006-05-09 17:00,ZGKL 091700Z AUTO 03008KT 22/21 A2980 RMK T02200210 IEM_DS3505
ZGKL,2006-05-09 18:00,ZGKL 091800Z AUTO 02006KT 5SM 22/21 A2980 RMK 60051 SLP083 T02220212 52005 IEM_DS3505
ZGKL,2006-05-09 19:00,ZGKL 091900Z AUTO 33008KT 22/21 A2980 RMK T02200210 IEM_DS3505
ZGKL,2006-05-09 20:00,ZGKL 092000Z AUTO 21002KT 22/21 A2983 RMK T02200210 IEM_DS3505
ZGKL,2006-05-09 21:00,ZGKL 092100Z AUTO 04004KT 4SM 22/21 A2983 RMK 70094 SLP101 T02190207 52018 IEM_DS3505
ZGKL,2006-05-09 22:00,ZGKL 092200Z AUTO 31004KT 4SM 22/21 A2985 RMK T02200210 IEM_DS3505
ZGKL,2006-05-09 23:00,ZGKL 092300Z AUTO 25002KT 7SM 22/21 A2988 RMK T02200210 IEM_DS3505
ZGKL,2006-05-10 00:00,ZGKL 100000Z AUTO 02002KT 8SM 22/20 A2991 RMK 60063 70122 SLP124 T02210204 52022 IEM_DS3505
ZGKL,2006-05-10 01:00,ZGKL 100100Z AUTO 01002KT 4SM 22/21 A2991 RMK T02200210 IEM_DS3505
ZGKL,2006-05-10 02:00,ZGKL 100200Z AUTO 33002KT 7SM 22/21 A2991 RMK T02200210 IEM_DS3505
ZGKL,2006-05-10 03:00,ZGKL 100300Z AUTO 02006KT 6SM 23/21 A2991 RMK SLP126 T02330210 52002 IEM_DS3505
ZGKL,2006-05-10 04:00,ZGKL 100400Z AUTO 03006KT 7SM 26/21 A2988 RMK T02600210 IEM_DS3505
ZGKL,2006-05-10 05:00,ZGKL 100500Z AUTO 05008KT 7SM 26/21 A2988 RMK T02600210 IEM_DS3505
ZGKL,2006-05-10 06:00,ZGKL 100600Z AUTO 02006KT 9SM 28/21 A2985 RMK 60020 SLP101 T02770208 57025 IEM_DS3505
ZGKL,2006-05-10 07:00,ZGKL 100700Z AUTO 06008KT 7SM 28/20 A2983 RMK T02800200 IEM_DS3505
ZGKL,2006-05-10 08:00,ZGKL 100800Z AUTO 07008KT 7SM 28/20 A2983 RMK T02800200 IEM_DS3505
ZGKL,2006-05-10 09:00,ZGKL 100900Z AUTO 02002KT 9SM 26/21 A2983 RMK SLP097 T02640207 57004 IEM_DS3505
ZGKL,2006-05-10 10:00,ZGKL 101000Z AUTO 04014KT 7SM 26/20 A2983 RMK T02600200 IEM_DS3505
ZGKL,2006-05-10 11:00,ZGKL 101100Z AUTO 05010KT 7SM 24/20 A2985 RMK T02400200 IEM_DS3505
ZGKL,2006-05-10 12:00,ZGKL 101200Z AUTO 04008KT 9SM 23/18 A2988 RMK SLP117 T02310182 52018 IEM_DS3505
ZGKL,2006-05-10 13:00,ZGKL 101300Z AUTO 02008KT 7SM 23/19 A2991 RMK T02300190 IEM_DS3505
ZGKL,2006-05-10 14:00,ZGKL 101400Z AUTO 06002KT 7SM 23/19 A2994 RMK T02300190 IEM_DS3505
ZGKL,2006-05-10 15:00,ZGKL 101500Z AUTO 02008KT 9SM 22/18 A2994 RMK SLP140 T02230177 52023 IEM_DS3505
ZGKL,2006-05-10 16:00,ZGKL 101600Z AUTO 05006KT 7SM 22/18 A2994 RMK T02200180 IEM_DS3505
ZGKL,2006-05-10 17:00,ZGKL 101700Z AUTO 03002KT 22/18 A2997 RMK T02200180 IEM_DS3505
ZGKL,2006-05-10 18:00,ZGKL 101800Z AUTO 02006KT 9SM 22/17 A2994 RMK SLP138 T02200174 54000 IEM_DS3505
ZGKL,2006-05-10 19:00,ZGKL 101900Z AUTO 07002KT 22/19 A2994 RMK T02200190 IEM_DS3505
ZGKL,2006-05-10 20:00,ZGKL 102000Z AUTO 05004KT 22/18 A2994 RMK T02200180 IEM_DS3505
ZGKL,2006-05-10 21:00,ZGKL 102100Z AUTO 02004KT 6SM 21/18 A2994 RMK 70050 SLP133 T02060178 57006 IEM_DS3505
ZGKL,2006-05-10 22:00,ZGKL 102200Z AUTO 03004KT 3SM 21/19 A2994 RMK T02100190 IEM_DS3505
ZGKL,2006-05-10 23:00,ZGKL 102300Z AUTO 26002KT 2SM 20/19 A2997 RMK T02000190 IEM_DS3505
ZGKL,2006-05-11 00:00,ZGKL 110000Z AUTO 36004KT 2 1/2SM 19/18 A3000 RMK 60024 70043 SLP156 T01940181 52021 IEM_DS3505
ZGKL,2006-05-11 01:00,ZGKL 110100Z AUTO 01002KT 1SM 20/19 A3000 RMK T02000190 IEM_DS3505
ZGKL,2006-05-11 02:00,ZGKL 110200Z AUTO 32002KT 1SM 20/19 A3003 RMK T02000190 IEM_DS3505
ZGKL,2006-05-11 03:00,ZGKL 110300Z AUTO 02006KT 3SM 21/18 A3000 RMK SLP162 T02100182 52006 IEM_DS3505
ZGKL,2006-05-11 04:00,ZGKL 110400Z AUTO 04004KT 2SM 22/19 A3000 RMK T02200190 IEM_DS3505
ZGKL,2006-05-11 05:00,ZGKL 110500Z AUTO 01006KT 4SM 23/19 A2994 RMK T02300190 IEM_DS3505
ZGKL,2006-05-11 06:00,ZGKL 110600Z AUTO 02004KT 4SM 24/18 A2991 RMK 60000 SLP128 T02410185 57032 IEM_DS3505
ZGKL,2006-05-11 07:00,ZGKL 110700Z AUTO 35006KT 5SM 25/20 A2988 RMK T02500200 IEM_DS3505
ZGKL,2006-05-11 08:00,ZGKL 110800Z AUTO 34004KT 5SM 24/20 A2988 RMK T02400200 IEM_DS3505
ZGKL,2006-05-11 09:00,ZGKL 110900Z AUTO 02004KT 5SM 25/19 A2985 RMK SLP105 T02530194 57023 IEM_DS3505
ZGKL,2006-05-11 10:00,ZGKL 111000Z AUTO 35004KT 6SM 25/20 A2985 RMK T02500200 IEM_DS3505
ZGKL,2006-05-11 11:00,ZGKL 111100Z AUTO 33002KT 6SM 24/21 A2985 RMK T02400210 IEM_DS3505
ZGKL,2006-05-11 12:00,ZGKL 111200Z AUTO 02004KT 5SM 23/20 A2988 RMK SLP112 T02340198 52006 IEM_DS3505
ZGKL,2006-05-11 13:00,ZGKL 111300Z AUTO 26002KT 3SM 23/21 A2991 RMK T02300210 IEM_DS3505
ZGKL,2006-05-11 14:00,ZGKL 111400Z AUTO 29002KT 3SM 23/21 A2991 RMK T02300210 IEM_DS3505
ZGKL,2006-05-11 15:00,ZGKL 111500Z AUTO 02002KT 5SM 22/20 A2994 RMK SLP130 T02240198 52018 IEM_DS3505
ZGKL,2006-05-11 16:00,ZGKL 111600Z AUTO 17002KT 2SM 23/22 A2994 RMK T02300220 IEM_DS3505
ZGKL,2006-05-11 17:00,ZGKL 111700Z AUTO 00000KT 22/21 A2991 RMK T02200210 IEM_DS3505
ZGKL,2006-05-11 18:00,ZGKL 111800Z AUTO 27002KT 4SM 22/20 RMK 60002 SLP130 T02170203 54000 IEM_DS3505
ZGKL,2006-05-11 19:00,ZGKL 111900Z AUTO 00000KT 22/21 A2991 RMK T02200210 IEM_DS3505
ZGKL,2006-05-11 20:00,ZGKL 112000Z AUTO 36002KT 21/20 A2991 RMK T02100200 IEM_DS3505
ZGKL,2006-05-11 21:00,ZGKL 112100Z AUTO 36002KT 4SM 22/20 A2991 RMK 70022 SLP128 T02180203 57001 IEM_DS3505
ZGKL,2006-05-11 22:00,ZGKL 112200Z AUTO 32002KT 1SM 22/21 A2994 RMK T02200210 IEM_DS3505
ZGKL,2006-05-11 23:00,ZGKL 112300Z AUTO 00000KT 1SM 22/21 A2994 RMK T02200210 IEM_DS3505
ZGKL,2006-05-12 00:00,ZGKL 120000Z AUTO 32002KT 4SM 22/21 A2997 RMK 60002 70004 SLP150 T02210209 52021 IEM_DS3505
ZGKL,2006-05-12 01:00,ZGKL 120100Z AUTO 00000KT 1SM 23/21 A3000 RMK T02300210 IEM_DS3505
ZGKL,2006-05-12 02:00,ZGKL 120200Z AUTO 00000KT 1SM 23/21 A3000 RMK T02300210 IEM_DS3505
ZGKL,2006-05-12 03:00,ZGKL 120300Z AUTO 09002KT 4SM 24/22 A3000 RMK SLP152 T02350216 52002 IEM_DS3505
ZGKL,2006-05-12 04:00,ZGKL 120400Z AUTO 07002KT 1SM 25/22 A2997 RMK T02500220 IEM_DS3505
ZGKL,2006-05-12 05:00,ZGKL 120500Z AUTO 00000KT 1 1/4SM 25/22 A2997 RMK T02500220 IEM_DS3505
ZGKL,2006-05-12 06:00,ZGKL 120600Z AUTO 02002KT 4SM 25/22 A2994 RMK 60003 SLP135 T02490222 57016 IEM_DS3505
ZGKL,2006-05-12 07:00,ZGKL 120700Z AUTO 31002KT 1 1/2SM 26/23 A2991 RMK T02600230 IEM_DS3505
ZGKL,2006-05-12 08:00,ZGKL 120800Z AUTO 32002KT 1 1/2SM 25/23 A2988 RMK T02500230 IEM_DS3505
ZGKL,2006-05-12 09:00,ZGKL 120900Z AUTO 04004KT 4SM 26/22 A2988 RMK SLP113 T02580225 57022 IEM_DS3505
ZGKL,2006-05-12 10:00,ZGKL 121000Z AUTO 36008KT 2 1/2SM 25/22 A2988 RMK T02500220 IEM_DS3505
ZGKL,2006-05-12 11:00,ZGKL 121100Z AUTO 05012KT 1SM 20/19 A2994 RMK T02000190 IEM_DS3505
ZGKL,2006-05-12 12:00,ZGKL 121200Z AUTO 02012KT 6SM 17/15 A3000 RMK 60004 SLP165 T01660150 52048 IEM_DS3505
ZGKL,2006-05-12 13:00,ZGKL 121300Z AUTO 06010KT 5SM 18/15 A3006 RMK T01800150 IEM_DS3505
ZGKL,2006-05-12 14:00,ZGKL 121400Z AUTO 06006KT 6SM 17/15 A3009 RMK T01700150 IEM_DS3505
ZGKL,2006-05-12 15:00,ZGKL 121500Z AUTO 02014KT 9SM 16/12 A3012 RMK SLP201 T01610125 52036 IEM_DS3505
ZGKL,2006-05-12 16:00,ZGKL 121600Z AUTO 05006KT 5SM 16/13 A3012 RMK T01600130 IEM_DS3505
ZGKL,2006-05-12 17:00,ZGKL 121700Z AUTO 04008KT 4SM 16/13 A3012 RMK T01600130 IEM_DS3505
ZGKL,2006-05-12 18:00,ZGKL 121800Z AUTO 36010KT 11SM 16/12 A3012 RMK 60020 SLP205 T01560120 52004 IEM_DS3505
ZGKL,2006-05-12 19:00,ZGKL 121900Z AUTO 03006KT 4SM 16/13 A3012 RMK T01600130 IEM_DS3505
ZGKL,2006-05-12 20:00,ZGKL 122000Z AUTO 04008KT 4SM 15/12 A3012 RMK T01500120 IEM_DS3505
ZGKL,2006-05-12 21:00,ZGKL 122100Z AUTO 36012KT 10SM 15/12 A3015 RMK 70030 SLP206 T01480116 52001 IEM_DS3505
ZGKL,2006-05-12 22:00,ZGKL 122200Z AUTO 36006KT 4SM 15/13 A3015 RMK T01500130 IEM_DS3505
ZGKL,2006-05-12 23:00,ZGKL 122300Z AUTO 03008KT 4SM 15/13 A3018 RMK T01500130 IEM_DS3505
ZGKL,2006-05-13 00:00,ZGKL 130000Z AUTO 02010KT 10SM 14/11 A3024 RMK 60008 70035 SLP245 T01400112 52035 IEM_DS3505
ZGKL,2006-05-13 01:00,ZGKL 130100Z AUTO 02012KT 7SM 15/12 A3027 RMK T01500120 IEM_DS3505
ZGKL,2006-05-13 02:00,ZGKL 130200Z AUTO 07008KT 7SM 15/13 A3030 RMK T01500130 IEM_DS3505
ZGKL,2006-05-13 03:00,ZGKL 130300Z AUTO 02008KT 10SM 15/11 A3030 RMK SLP260 T01500110 52015 IEM_DS3505
ZGKL,2006-05-13 04:00,ZGKL 130400Z AUTO 06006KT 7SM 17/12 A3027 RMK T01700120 IEM_DS3505
ZGKL,2006-05-13 05:00,ZGKL 130500Z AUTO 03010KT 6SM 19/11 A3024 RMK T01900110 IEM_DS3505
ZGKL,2006-05-13 06:00,ZGKL 130600Z AUTO 02012KT 9SM 18/11 A3021 RMK 60000 SLP240 T01790112 57019 IEM_DS3505
ZGKL,2006-05-13 07:00,ZGKL 130700Z AUTO 05016KT 7SM 19/11 A3021 RMK T01900110 IEM_DS3505
ZGKL,2006-05-13 08:00,ZGKL 130800Z AUTO 03014KT 6SM 19/10 A3021 RMK T01900100 IEM_DS3505
ZGKL,2006-05-13 09:00,ZGKL 130900Z AUTO 36010KT 9SM 19/09 A3018 RMK SLP222 T01870089 57017 IEM_DS3505
ZGKL,2006-05-13 10:00,ZGKL 131000Z AUTO 04012KT 6SM 19/09 A3018 RMK T01900090 IEM_DS3505
ZGKL,2006-05-13 11:00,ZGKL 131100Z AUTO 33004KT 6SM 18/12 A3018 RMK T01800120 IEM_DS3505
ZGKL,2006-05-13 12:00,ZGKL 131200Z AUTO 02008KT 10SM 18/10 A3021 RMK SLP231 T01760098 52008 IEM_DS3505
ZGKL,2006-05-13 13:00,ZGKL 131300Z AUTO 04006KT 6SM 18/11 A3021 RMK T01800110 IEM_DS3505
ZGKL,2006-05-13 14:00,ZGKL 131400Z AUTO 05004KT 6SM 17/10 A3021 RMK T01700100 IEM_DS3505
ZGKL,2006-05-13 15:00,ZGKL 131500Z AUTO 36008KT 9SM 17/10 A3024 RMK SLP236 T01720103 52005 IEM_DS3505
ZGKL,2006-05-13 16:00,ZGKL 131600Z AUTO 25002KT 6SM 16/13 A3021 RMK T01600130 IEM_DS3505
ZGKL,2006-05-13 17:00,ZGKL 131700Z AUTO 30004KT 16/14 A3021 RMK T01600140 IEM_DS3505
ZGKL,2006-05-13 18:00,ZGKL 131800Z AUTO 36004KT 9SM 17/10 A3021 RMK SLP227 T01690101 57008 IEM_DS3505
ZGKL,2006-05-13 19:00,ZGKL 131900Z AUTO 00000KT 15/14 A3018 RMK T01500140 IEM_DS3505
ZGKL,2006-05-13 20:00,ZGKL 132000Z AUTO 31002KT 15/14 A3018 RMK T01500140 IEM_DS3505
ZGKL,2006-05-13 22:00,ZGKL 132200Z AUTO 34002KT 6SM 15/14 A3018 RMK T01500140 IEM_DS3505
ZGKL,2006-05-13 23:00,ZGKL 132300Z AUTO 00000KT 6SM 16/14 A3018 RMK T01600140 IEM_DS3505
ZGKL,2006-05-14 00:00,ZGKL 140000Z AUTO 36006KT 9SM 18/10 A3018 RMK 70001 SLP223 T01840103 52004 IEM_DS3505
ZGKL,2006-05-14 01:00,ZGKL 140100Z AUTO 34004KT 6SM 20/12 A3018 RMK T02000120 IEM_DS3505
ZGKL,2006-05-14 02:00,ZGKL 140200Z AUTO 31004KT 6SM 21/13 A3018 RMK T02100130 IEM_DS3505
ZGKL,2006-05-14 03:00,ZGKL 140300Z AUTO 02012KT 11SM 22/09 A3018 RMK SLP214 T02230088 57007 IEM_DS3505
ZGKL,2006-05-14 04:00,ZGKL 140400Z AUTO 03016KT 6SM 24/07 A3015 RMK T02400070 IEM_DS3505
ZGKL,2006-05-14 05:00,ZGKL 140500Z AUTO 04012KT 6SM 25/09 A3012 RMK T02500090 IEM_DS3505
ZGKL,2006-05-14 06:00,ZGKL 140600Z AUTO 02010KT 12SM 25/06 A3009 RMK SLP190 T02500057 57023 IEM_DS3505
ZGKL,2006-05-14 07:00,ZGKL 140700Z AUTO 07012KT 6SM 25/08 A3006 RMK T02500080 IEM_DS3505
ZGKL,2006-05-14 08:00,ZGKL 140800Z AUTO 03010KT 6SM 26/08 A3003 RMK T02600080 IEM_DS3505
ZGKL,2006-05-14 09:00,ZGKL 140900Z AUTO 02008KT 15SM 26/07 A3000 RMK SLP160 T02560068 57029 IEM_DS3505
ZGKL,2006-05-14 10:00,ZGKL 141000Z AUTO 06008KT 6SM 25/08 A3000 RMK T02500080 IEM_DS3505
ZGKL,2006-05-14 11:00,ZGKL 141100Z AUTO 04008KT 6SM 24/08 A3003 RMK T02400080 IEM_DS3505
ZGKL,2006-05-14 12:00,ZGKL 141200Z AUTO 02004KT 16SM 22/10 A3003 RMK SLP166 T02170099 52005 IEM_DS3505
ZGKL,2006-05-14 13:00,ZGKL 141300Z AUTO 32004KT 6SM 19/14 A3006 RMK T01900140 IEM_DS3505
ZGKL,2006-05-14 14:00,ZGKL 141400Z AUTO 33002KT 6SM 18/15 A3006 RMK T01800150 IEM_DS3505
ZGKL,2006-05-14 15:00,ZGKL 141500Z AUTO 02004KT 12SM 19/10 A3009 RMK SLP183 T01940104 52017 IEM_DS3505
ZGKL,2006-05-14 16:00,ZGKL 141600Z AUTO 36004KT 6SM 17/14 A3006 RMK T01700140 IEM_DS3505
ZGKL,2006-05-14 17:00,ZGKL 141700Z AUTO 33004KT 16/15 A3006 RMK T01600150 IEM_DS3505
ZGKL,2006-05-14 18:00,ZGKL 141800Z AUTO 02002KT 11SM 18/11 A3003 RMK SLP170 T01810107 57012 IEM_DS3505
ZGKL,2006-05-14 19:00,ZGKL 141900Z AUTO 33004KT 16/14 A3003 RMK T01600140 IEM_DS3505
ZGKL,2006-05-14 20:00,ZGKL 142000Z AUTO 35002KT 16/14 A3000 RMK T01600140 IEM_DS3505
ZGKL,2006-05-14 21:00,ZGKL 142100Z AUTO 36004KT 10SM 17/11 A3000 RMK SLP160 T01720108 57010 IEM_DS3505
ZGKL,2006-05-14 22:00,ZGKL 142200Z AUTO 32002KT 6SM 16/14 A3000 RMK T01600140 IEM_DS3505
ZGKL,2006-05-14 23:00,ZGKL 142300Z AUTO 33004KT 6SM 17/14 A3000 RMK T01700140 IEM_DS3505
ZGKL,2006-05-15 00:00,ZGKL 150000Z AUTO 04002KT 9SM 19/11 A3003 RMK SLP167 T01940114 52006 IEM_DS3505
ZGKL,2006-05-15 02:00,ZGKL 150200Z AUTO 04008KT 6SM 24/09 A3000 RMK T02400090 IEM_DS3505
ZGKL,2006-05-15 03:00,ZGKL 150300Z AUTO 02012KT 10SM 25/06 A3000 RMK SLP156 T02520064 57009 IEM_DS3505
ZGKL,2006-05-15 04:00,ZGKL 150400Z AUTO 07010KT 6SM 27/07 A2997 RMK T02700070 IEM_DS3505
ZGKL,2006-05-15 05:00,ZGKL 150500Z AUTO 06008KT 6SM 27/07 A2994 RMK T02700070 IEM_DS3505
ZGKL,2006-05-15 06:00,ZGKL 150600Z AUTO 07012KT 14SM 28/03 A2991 RMK SLP125 T02850027 57030 IEM_DS3505
ZGKL,2006-05-15 07:00,ZGKL 150700Z AUTO 05006KT 6SM 29/05 A2988 RMK T02900050 IEM_DS3505
ZGKL,2006-05-15 08:00,ZGKL 150800Z AUTO 06008KT 6SM 29/08 A2988 RMK T02900080 IEM_DS3505
ZGKL,2006-05-15 09:00,ZGKL 150900Z AUTO 09008KT 17SM 29/06 A2985 RMK SLP108 T02870062 57017 IEM_DS3505
ZGKL,2006-05-15 10:00,ZGKL 151000Z AUTO 04008KT 6SM 27/09 A2988 RMK T02700090 IEM_DS3505
ZGKL,2006-05-15 11:00,ZGKL 151100Z AUTO 03006KT 6SM 26/08 A2988 RMK T02600080 IEM_DS3505
ZGKL,2006-05-15 12:00,ZGKL 151200Z AUTO 36004KT 12SM 24/10 A2991 RMK SLP124 T02400096 52015 IEM_DS3505
ZGKL,2006-05-15 13:00,ZGKL 151300Z AUTO 31004KT 6SM 22/16 A2994 RMK T02200160 IEM_DS3505
ZGKL,2006-05-15 14:00,ZGKL 151400Z AUTO 35004KT 6SM 21/14 A2994 RMK T02100140 IEM_DS3505
ZGKL,2006-05-15 15:00,ZGKL 151500Z AUTO 36004KT 10SM 22/12 A2994 RMK SLP139 T02210115 52016 IEM_DS3505
ZGKL,2006-05-15 16:00,ZGKL 151600Z AUTO 02004KT 6SM 19/14 A2994 RMK T01900140 IEM_DS3505
ZGKL,2006-05-15 17:00,ZGKL 151700Z AUTO 35006KT 19/14 A2994 RMK T01900140 IEM_DS3505
ZGKL,2006-05-15 18:00,ZGKL 151800Z AUTO 02004KT 9SM 21/12 A2991 RMK SLP124 T02140125 57014 IEM_DS3505
ZGKL,2006-05-15 19:00,ZGKL 151900Z AUTO 35002KT 19/15 A2991 RMK T01900150 IEM_DS3505
ZGKL,2006-05-15 20:00,ZGKL 152000Z AUTO 33002KT 19/16 A2991 RMK T01900160 IEM_DS3505
ZGKL,2006-05-15 21:00,ZGKL 152100Z AUTO 04004KT 9SM 21/12 A2991 RMK SLP122 T02080125 57002 IEM_DS3505
ZGKL,2006-05-15 22:00,ZGKL 152200Z AUTO 34002KT 6SM 18/16 A2991 RMK T01800160 IEM_DS3505
ZGKL,2006-05-15 23:00,ZGKL 152300Z AUTO 09004KT 6SM 19/14 A2991 RMK T01900140 IEM_DS3505
ZGKL,2006-05-16 00:00,ZGKL 160000Z AUTO 02006KT 9SM 21/12 A2994 RMK SLP133 T02100124 52009 IEM_DS3505
ZGKL,2006-05-16 01:00,ZGKL 160100Z AUTO 36002KT 6SM 21/14 A2994 RMK T02100140 IEM_DS3505
ZGKL,2006-05-16 02:00,ZGKL 160200Z AUTO 30004KT 6SM 22/15 A2994 RMK T02200150 IEM_DS3505
ZGKL,2006-05-16 03:00,ZGKL 160300Z AUTO 02008KT 9SM 23/11 A2997 RMK SLP144 T02300108 52011 IEM_DS3505
ZGKL,2006-05-16 04:00,ZGKL 160400Z AUTO 04006KT 6SM 25/15 A2994 RMK T02500150 IEM_DS3505
ZGKL,2006-05-16 05:00,ZGKL 160500Z AUTO 05006KT 6SM 25/12 A2991 RMK T02500120 IEM_DS3505
ZGKL,2006-05-16 06:00,ZGKL 160600Z AUTO 02006KT 9SM 24/11 A2991 RMK SLP127 T02430113 57017 IEM_DS3505
ZGKL,2006-05-16 07:00,ZGKL 160700Z AUTO 06006KT 6SM 26/14 A2988 RMK T02600140 IEM_DS3505
ZGKL,2006-05-16 08:00,ZGKL 160800Z AUTO 05006KT 6SM 26/13 A2988 RMK T02600130 IEM_DS3505
ZGKL,2006-05-16 09:00,ZGKL 160900Z AUTO 02006KT 8SM 24/12 A2988 RMK SLP119 T02390122 57008 IEM_DS3505
ZGKL,2006-05-16 10:00,ZGKL 161000Z AUTO 04010KT 6SM 24/12 A2988 RMK T02400120 IEM_DS3505
ZGKL,2006-05-16 11:00,ZGKL 161100Z AUTO 36006KT 6SM 23/12 A2988 RMK T02300120 IEM_DS3505
ZGKL,2006-05-16 12:00,ZGKL 161200Z AUTO 02006KT 8SM 22/11 A2991 RMK 60000 SLP128 T02230114 52009 IEM_DS3505
ZGKL,2006-05-16 13:00,ZGKL 161300Z AUTO 32002KT 6SM 21/14 A2994 RMK T02100140 IEM_DS3505
ZGKL,2006-05-16 14:00,ZGKL 161400Z AUTO 32004KT 6SM 20/15 A2994 RMK T02000150 IEM_DS3505
ZGKL,2006-05-16 15:00,ZGKL 161500Z AUTO 02006KT 7SM 21/11 A2994 RMK SLP132 T02140109 52004 IEM_DS3505
ZGKL,2006-05-16 16:00,ZGKL 161600Z AUTO 33004KT 18/15 A2991 RMK T01800150 IEM_DS3505
ZGKL,2006-05-16 17:00,ZGKL 161700Z AUTO 36002KT 17/15 A2988 RMK T01700150 IEM_DS3505
ZGKL,2006-05-16 18:00,ZGKL 161800Z AUTO 36004KT 7SM 20/12 A2988 RMK SLP117 T02030118 57015 IEM_DS3505
ZGKL,2006-05-16 19:00,ZGKL 161900Z AUTO 36002KT 16/15 A2985 RMK T01600150 IEM_DS3505
ZGKL,2006-05-16 20:00,ZGKL 162000Z AUTO 31002KT 16/15 A2985 RMK T01600150 IEM_DS3505
ZGKL,2006-05-16 21:00,ZGKL 162100Z AUTO 36006KT 7SM 19/11 A2985 RMK 70000 SLP109 T01940114 57008 IEM_DS3505
ZGKL,2006-05-16 22:00,ZGKL 162200Z AUTO 33002KT 6SM 16/14 A2985 RMK T01600140 IEM_DS3505
ZGKL,2006-05-16 23:00,ZGKL 162300Z AUTO 31004KT 6SM 16/14 A2988 RMK T01600140 IEM_DS3505
ZGKL,2006-05-17 00:00,ZGKL 170000Z AUTO 02004KT 10SM 22/12 A2988 RMK 70000 SLP114 T02240118 52005 IEM_DS3505
ZGKL,2006-05-17 01:00,ZGKL 170100Z AUTO 32002KT 6SM 22/14 A2988 RMK T02200140 IEM_DS3505
ZGKL,2006-05-17 02:00,ZGKL 170200Z AUTO 00000KT 6SM 25/14 A2988 RMK T02500140 IEM_DS3505
ZGKL,2006-05-17 03:00,ZGKL 170300Z AUTO 02012KT 12SM 28/08 A2985 RMK SLP102 T02750079 57010 IEM_DS3505
ZGKL,2006-05-17 04:00,ZGKL 170400Z AUTO 00000KT 6SM 29/10 A2983 RMK T02900100 IEM_DS3505
ZGKL,2006-05-17 05:00,ZGKL 170500Z AUTO 00000KT 6SM 30/10 A2983 RMK T03000100 IEM_DS3505
ZGKL,2006-05-17 06:00,ZGKL 170600Z AUTO 07008KT 16SM 31/10 A2980 RMK SLP079 T03070101 57022 IEM_DS3505
ZGKL,2006-05-17 07:00,ZGKL 170700Z AUTO 06014KT 6SM 31/11 A2977 RMK T03100110 IEM_DS3505
ZGKL,2006-05-17 08:00,ZGKL 170800Z AUTO 06012KT 6SM 31/11 A2974 RMK T03100110 IEM_DS3505
ZGKL,2006-05-17 09:00,ZGKL 170900Z AUTO 07010KT 17SM 31/09 A2974 RMK SLP058 T03080091 57021 IEM_DS3505
ZGKL,2006-05-17 10:00,ZGKL 171000Z AUTO 05010KT 6SM 30/11 A2974 RMK T03000110 IEM_DS3505
ZGKL,2006-05-17 11:00,ZGKL 171100Z AUTO 05008KT 6SM 28/11 A2974 RMK T02800110 IEM_DS3505
ZGKL,2006-05-17 12:00,ZGKL 171200Z AUTO 36004KT 16SM 26/11 A2977 RMK SLP071 T02570111 52012 IEM_DS3505
ZGKL,2006-05-17 13:00,ZGKL 171300Z AUTO 33004KT 6SM 23/15 A2977 RMK T02300150 IEM_DS3505
ZGKL,2006-05-17 14:00,ZGKL 171400Z AUTO 30002KT 6SM 20/17 A2980 RMK T02000170 IEM_DS3505
ZGKL,2006-05-17 15:00,ZGKL 171500Z AUTO 04006KT 16SM 22/14 A2980 RMK SLP086 T02240135 52016 IEM_DS3505
ZGKL,2006-05-17 16:00,ZGKL 171600Z AUTO 31004KT 6SM 17/16 A2980 RMK T01700160 IEM_DS3505
ZGKL,2006-05-17 18:00,ZGKL 171800Z AUTO 04004KT 11SM 21/14 A2980 RMK SLP081 T02080137 57005 IEM_DS3505
ZGKL,2006-05-17 19:00,ZGKL 171900Z AUTO 36002KT 17/15 A2977 RMK T01700150 IEM_DS3505
ZGKL,2006-05-17 20:00,ZGKL 172000Z AUTO 31002KT 16/14 A2977 RMK T01600140 IEM_DS3505
ZGKL,2006-05-17 21:00,ZGKL 172100Z AUTO 04002KT 10SM 18/14 A2980 RMK SLP084 T01770138 52002 IEM_DS3505
ZGKL,2006-05-17 22:00,ZGKL 172200Z AUTO 32002KT 6SM 15/14 A2980 RMK T01500140 IEM_DS3505
ZGKL,2006-05-17 23:00,ZGKL 172300Z AUTO 00000KT 6SM 16/14 A2983 RMK T01600140 IEM_DS3505
ZGKL,2006-05-18 00:00,ZGKL 180000Z AUTO 36006KT 8SM 21/14 A2985 RMK SLP100 T02060138 52015 IEM_DS3505
ZGKL,2006-05-18 01:00,ZGKL 180100Z AUTO 29002KT 6SM 22/15 A2985 RMK T02200150 IEM_DS3505
ZGKL,2006-05-18 02:00,ZGKL 180200Z AUTO 31002KT 6SM 24/15 A2985 RMK T02400150 IEM_DS3505
ZGKL,2006-05-18 03:00,ZGKL 180300Z AUTO 02008KT 9SM 27/12 A2983 RMK SLP094 T02700123 57005 IEM_DS3505
ZGKL,2006-05-18 04:00,ZGKL 180400Z AUTO 08004KT 6SM 28/11 A2983 RMK T02800110 IEM_DS3505
ZGKL,2006-05-18 05:00,ZGKL 180500Z AUTO 08006KT 6SM 29/11 A2980 RMK T02900110 IEM_DS3505
ZGKL,2006-05-18 06:00,ZGKL 180600Z AUTO 09006KT 12SM 30/10 A2977 RMK SLP068 T03040099 57025 IEM_DS3505
ZGKL,2006-05-18 07:00,ZGKL 180700Z AUTO 09004KT 6SM 30/10 A2974 RMK T03000100 IEM_DS3505
ZGKL,2006-05-18 08:00,ZGKL 180800Z AUTO 10004KT 6SM 31/11 A2971 RMK T03100110 IEM_DS3505
ZGKL,2006-05-18 09:00,ZGKL 180900Z AUTO 07004KT 16SM 31/12 A2971 RMK SLP054 T03070116 57014 IEM_DS3505
ZGKL,2006-05-18 10:00,ZGKL 181000Z AUTO 09002KT 6SM 30/12 A2971 RMK T03000120 IEM_DS3505
ZGKL,2006-05-18 11:00,ZGKL 181100Z AUTO 29002KT 6SM 28/16 A2974 RMK T02800160 IEM_DS3505
ZGKL,2006-05-18 12:00,ZGKL 181200Z AUTO 04004KT 11SM 26/16 A2974 RMK SLP068 T02580164 52012 IEM_DS3505
ZGKL,2006-05-18 13:00,ZGKL 181300Z AUTO 30004KT 6SM 22/18 A2977 RMK T02200180 IEM_DS3505
ZGKL,2006-05-18 14:00,ZGKL 181400Z AUTO 29002KT 6SM 21/19 A2980 RMK T02100190 IEM_DS3505
ZGKL,2006-05-18 15:00,ZGKL 181500Z AUTO 04004KT 11SM 23/16 A2983 RMK SLP092 T02320162 52024 IEM_DS3505
ZGKL,2006-05-18 16:00,ZGKL 181600Z AUTO 33004KT 6SM 19/18 A2983 RMK T01900180 IEM_DS3505
ZGKL,2006-05-18 17:00,ZGKL 181700Z AUTO 02002KT 6SM 20/17 A2983 RMK T02000170 IEM_DS3505
ZGKL,2006-05-18 18:00,ZGKL 181800Z AUTO 04004KT 10SM 21/16 A2980 RMK SLP087 T02090157 57003 IEM_DS3505
ZGKL,2006-05-18 19:00,ZGKL 181900Z AUTO 32002KT 18/16 A2980 RMK T01800160 IEM_DS3505
ZGKL,2006-05-18 20:00,ZGKL 182000Z AUTO 27002KT 17/16 A2983 RMK T01700160 IEM_DS3505
ZGKL,2006-05-18 21:00,ZGKL 182100Z AUTO 04002KT 9SM 18/16 A2983 RMK SLP095 T01820155 52007 IEM_DS3505
ZGKL,2006-05-18 22:00,ZGKL 182200Z AUTO 00000KT 3SM 17/16 A2983 RMK T01700160 IEM_DS3505
ZGKL,2006-05-18 23:00,ZGKL 182300Z AUTO 00000KT 3SM 18/16 A2985 RMK T01800160 IEM_DS3505
ZGKL,2006-05-19 00:00,ZGKL 190000Z AUTO 02002KT 9SM 20/16 A2985 RMK SLP110 T01990160 52014 IEM_DS3505
ZGKL,2006-05-19 01:00,ZGKL 190100Z AUTO 00000KT 3SM 23/17 A2988 RMK T02300170 IEM_DS3505
ZGKL,2006-05-19 02:00,ZGKL 190200Z AUTO 13002KT 4SM 25/18 A2988 RMK T02500180 IEM_DS3505
ZGKL,2006-05-19 03:00,ZGKL 190300Z AUTO 09004KT 9SM 27/14 A2985 RMK SLP106 T02730136 57003 IEM_DS3505
ZGKL,2006-05-19 04:00,ZGKL 190400Z AUTO 09004KT 6SM 28/16 A2985 RMK T02800160 IEM_DS3505
ZGKL,2006-05-19 05:00,ZGKL 190500Z AUTO 14004KT 6SM 30/15 A2983 RMK T03000150 IEM_DS3505
ZGKL,2006-05-19 06:00,ZGKL 190600Z AUTO 18006KT 11SM 30/11 A2980 RMK SLP078 T03050110 57027 IEM_DS3505
ZGKL,2006-05-19 07:00,ZGKL 190700Z AUTO 21002KT 6SM 31/15 A2977 RMK T03100150 IEM_DS3505
ZGKL,2006-05-19 08:00,ZGKL 190800Z AUTO 21004KT 6SM 31/16 A2974 RMK T03100160 IEM_DS3505
ZGKL,2006-05-19 09:00,ZGKL 190900Z AUTO 29004KT 10SM 32/13 A2974 RMK SLP061 T03150128 57017 IEM_DS3505
ZGKL,2006-05-19 10:00,ZGKL 191000Z AUTO 11004KT 6SM 31/10 A2974 RMK T03100100 IEM_DS3505
ZGKL,2006-05-19 11:00,ZGKL 191100Z AUTO 13004KT 6SM 28/15 A2974 RMK T02800150 IEM_DS3505
ZGKL,2006-05-19 12:00,ZGKL 191200Z AUTO 16002KT 9SM 28/15 A2977 RMK SLP068 T02800153 52006 IEM_DS3505
ZGKL,2006-05-19 13:00,ZGKL 191300Z AUTO 00000KT 6SM 23/19 A2977 RMK T02300190 IEM_DS3505
ZGKL,2006-05-19 14:00,ZGKL 191400Z AUTO 00000KT 6SM 21/18 A2980 RMK T02100180 IEM_DS3505
ZGKL,2006-05-19 15:00,ZGKL 191500Z AUTO 36002KT 9SM 24/16 A2980 RMK SLP084 T02350163 52017 IEM_DS3505
ZGKL,2006-05-19 16:00,ZGKL 191600Z AUTO 33004KT 20/18 A2980 RMK T02000180 IEM_DS3505
ZGKL,2006-05-19 17:00,ZGKL 191700Z AUTO 00000KT 20/17 A2980 RMK T02000170 IEM_DS3505
ZGKL,2006-05-19 18:00,ZGKL 191800Z AUTO 36002KT 9SM 21/16 A2977 RMK SLP077 T02070165 57007 IEM_DS3505
ZGKL,2006-05-19 19:00,ZGKL 191900Z AUTO 01002KT 18/17 A2977 RMK T01800170 IEM_DS3505
ZGKL,2006-05-19 20:00,ZGKL 192000Z AUTO 00000KT 18/17 A2980 RMK T01800170 IEM_DS3505
ZGKL,2006-05-19 21:00,ZGKL 192100Z AUTO 02002KT 8SM 19/16 A2980 RMK SLP085 T01910165 52008 IEM_DS3505
ZGKL,2006-05-19 22:00,ZGKL 192200Z AUTO 00000KT 6SM 17/17 A2983 RMK T01700170 IEM_DS3505
ZGKL,2006-05-19 23:00,ZGKL 192300Z AUTO 00000KT 6SM 18/17 A2983 RMK T01800170 IEM_DS3505
ZGKL,2006-05-20 00:00,ZGKL 200000Z AUTO 07002KT 5SM 22/17 A2985 RMK SLP106 T02160168 52020 IEM_DS3505
ZGKL,2006-05-20 01:00,ZGKL 200100Z AUTO 05002KT 6SM 23/17 A2988 RMK T02300170 IEM_DS3505
ZGKL,2006-05-20 02:00,ZGKL 200200Z AUTO 17004KT 7SM 25/17 A2988 RMK T02500170 IEM_DS3505
ZGKL,2006-05-20 03:00,ZGKL 200300Z AUTO 16004KT 7SM 28/17 A2985 RMK SLP103 T02810170 57002 IEM_DS3505
ZGKL,2006-05-20 04:00,ZGKL 200400Z AUTO 18006KT 6SM 28/19 A2983 RMK T02800190 IEM_DS3505
ZGKL,2006-05-20 05:00,ZGKL 200500Z AUTO 16008KT 6SM 30/17 A2980 RMK T03000170 IEM_DS3505
ZGKL,2006-05-20 06:00,ZGKL 200600Z AUTO 18006KT 8SM 30/16 A2977 RMK SLP076 T03010158 57027 IEM_DS3505
ZGKL,2006-05-20 07:00,ZGKL 200700Z AUTO 19010KT 6SM 32/17 A2974 RMK T03200170 IEM_DS3505
ZGKL,2006-05-20 08:00,ZGKL 200800Z AUTO 17010KT 6SM 31/17 A2974 RMK T03100170 IEM_DS3505
ZGKL,2006-05-20 09:00,ZGKL 200900Z AUTO 25004KT 8SM 31/15 A2971 RMK SLP057 T03130149 57019 IEM_DS3505
ZGKL,2006-05-20 10:00,ZGKL 201000Z AUTO 14008KT 6SM 30/18 A2974 RMK T03000180 IEM_DS3505
ZGKL,2006-05-20 11:00,ZGKL 201100Z AUTO 13008KT 6SM 28/19 A2974 RMK T02800190 IEM_DS3505
ZGKL,2006-05-20 12:00,ZGKL 201200Z AUTO 18002KT 9SM 28/17 A2977 RMK SLP070 T02800172 52013 IEM_DS3505
ZGKL,2006-05-20 13:00,ZGKL 201300Z AUTO 26002KT 6SM 25/20 A2980 RMK T02500200 IEM_DS3505
ZGKL,2006-05-20 14:00,ZGKL 201400Z AUTO 20002KT 4SM 24/21 A2980 RMK T02400210 IEM_DS3505
ZGKL,2006-05-20 15:00,ZGKL 201500Z AUTO 16004KT 9SM 26/18 A2983 RMK SLP090 T02640177 52021 IEM_DS3505
ZGKL,2006-05-20 16:00,ZGKL 201600Z AUTO 00000KT 3SM 22/21 A2983 RMK T02200210 IEM_DS3505
ZGKL,2006-05-20 17:00,ZGKL 201700Z AUTO 20002KT 23/21 A2983 RMK T02300210 IEM_DS3505
ZGKL,2006-05-20 18:00,ZGKL 201800Z AUTO 14002KT 8SM 24/18 A2980 RMK SLP085 T02420179 57005 IEM_DS3505
ZGKL,2006-05-20 19:00,ZGKL 201900Z AUTO 12002KT 21/20 A2980 RMK T02100200 IEM_DS3505
ZGKL,2006-05-20 20:00,ZGKL 202000Z AUTO 33004KT 21/20 A2983 RMK T02100200 IEM_DS3505
ZGKL,2006-05-20 21:00,ZGKL 202100Z AUTO 18004KT 8SM 24/17 A2983 RMK SLP096 T02380171 52011 IEM_DS3505
ZGKL,2006-05-20 22:00,ZGKL 202200Z AUTO 02002KT 3SM 20/18 A2985 RMK T02000180 IEM_DS3505
ZGKL,2006-05-20 23:00,ZGKL 202300Z AUTO 35002KT 3SM 21/19 A2985 RMK T02100190 IEM_DS3505
ZGKL,2006-05-21 00:00,ZGKL 210000Z AUTO 34002KT 7SM 25/18 A2985 RMK SLP107 T02500180 52010 IEM_DS3505
ZGKL,2006-05-21 01:00,ZGKL 210100Z AUTO 10004KT 5SM 25/18 A2988 RMK T02500180 IEM_DS3505
ZGKL,2006-05-21 02:00,ZGKL 210200Z AUTO 12004KT 6SM 27/18 A2988 RMK T02700180 IEM_DS3505
ZGKL,2006-05-21 03:00,ZGKL 210300Z AUTO 18006KT 7SM 28/17 A2985 RMK SLP102 T02800166 57004 IEM_DS3505
ZGKL,2006-05-21 04:00,ZGKL 210400Z AUTO 19002KT 6SM 29/18 A2983 RMK T02900180 IEM_DS3505
ZGKL,2006-05-21 05:00,ZGKL 210500Z AUTO 21004KT 6SM 30/18 A2980 RMK T03000180 IEM_DS3505
ZGKL,2006-05-21 06:00,ZGKL 210600Z AUTO 14004KT 9SM 30/15 A2980 RMK SLP077 T03030152 57025 IEM_DS3505
ZGKL,2006-05-21 07:00,ZGKL 210700Z AUTO 12008KT 6SM 31/16 A2977 RMK T03100160 IEM_DS3505
ZGKL,2006-05-21 08:00,ZGKL 210800Z AUTO 14010KT 6SM 30/17 A2977 RMK T03000170 IEM_DS3505
ZGKL,2006-05-21 09:00,ZGKL 210900Z AUTO 16008KT 9SM 30/17 A2977 RMK SLP064 T02990174 57013 IEM_DS3505
ZGKL,2006-05-21 10:00,ZGKL 211000Z AUTO 13010KT 6SM 27/17 A2977 RMK T02700170 IEM_DS3505
ZGKL,2006-05-21 11:00,ZGKL 211100Z AUTO 13004KT 6SM 26/18 A2980 RMK T02600180 IEM_DS3505
ZGKL,2006-05-21 12:00,ZGKL 211200Z AUTO 18006KT 10SM 26/18 A2980 RMK SLP083 T02550184 52018 IEM_DS3505
ZGKL,2006-05-21 13:00,ZGKL 211300Z AUTO 07004KT 6SM 24/19 A2983 RMK T02400190 IEM_DS3505
ZGKL,2006-05-21 14:00,ZGKL 211400Z AUTO 34002KT 6SM 22/20 A2985 RMK T02200200 IEM_DS3505
ZGKL,2006-05-21 15:00,ZGKL 211500Z AUTO 18004KT 10SM 24/20 A2985 RMK SLP104 T02380195 52021 IEM_DS3505
ZGKL,2006-05-21 16:00,ZGKL 211600Z AUTO 36004KT 6SM 21/19 A2985 RMK T02100190 IEM_DS3505
ZGKL,2006-05-21 17:00,ZGKL 211700Z AUTO 34002KT 20/19 A2985 RMK T02000190 IEM_DS3505
ZGKL,2006-05-21 18:00,ZGKL 211800Z AUTO 02002KT 9SM 22/20 A2983 RMK SLP095 T02210198 57009 IEM_DS3505
ZGKL,2006-05-21 19:00,ZGKL 211900Z AUTO 33002KT 20/18 A2983 RMK T02000180 IEM_DS3505
ZGKL,2006-05-21 20:00,ZGKL 212000Z AUTO 30002KT 20/19 A2980 RMK T02000190 IEM_DS3505
ZGKL,2006-05-21 21:00,ZGKL 212100Z AUTO 36002KT 7SM 21/19 A2980 RMK SLP085 T02100189 57010 IEM_DS3505
ZGKL,2006-05-21 22:00,ZGKL 212200Z AUTO 32002KT 5SM 19/18 A2983 RMK T01900180 IEM_DS3505
ZGKL,2006-05-21 23:00,ZGKL 212300Z AUTO 00000KT 5SM 20/19 A2983 RMK T02000190 IEM_DS3505
ZGKL,2006-05-22 00:00,ZGKL 220000Z AUTO 36002KT 7SM 23/19 A2985 RMK SLP105 T02280192 52019 IEM_DS3505
ZGKL,2006-05-22 01:00,ZGKL 220100Z AUTO 34002KT 5SM 24/20 A2985 RMK T02400200 IEM_DS3505
ZGKL,2006-05-22 02:00,ZGKL 220200Z AUTO 00000KT 5SM 26/20 A2988 RMK T02600200 IEM_DS3505
ZGKL,2006-05-22 03:00,ZGKL 220300Z AUTO 36006KT 7SM 28/19 A2985 RMK SLP101 T02820194 57003 IEM_DS3505
ZGKL,2006-05-22 04:00,ZGKL 220400Z AUTO 30004KT 5SM 28/21 A2983 RMK T02800210 IEM_DS3505
ZGKL,2006-05-22 05:00,ZGKL 220500Z AUTO 05004KT 4SM 30/19 A2983 RMK T03000190 IEM_DS3505
ZGKL,2006-05-22 06:00,ZGKL 220600Z AUTO 36004KT 9SM 31/19 A2980 RMK SLP080 T03110191 57020 IEM_DS3505
ZGKL,2006-05-22 07:00,ZGKL 220700Z AUTO 06004KT 4SM 31/18 A2977 RMK T03100180 IEM_DS3505
ZGKL,2006-05-22 08:00,ZGKL 220800Z AUTO 05006KT 4SM 31/19 A2977 RMK T03100190 IEM_DS3505
ZGKL,2006-05-22 09:00,ZGKL 220900Z AUTO 02008KT 9SM 31/18 A2974 RMK SLP064 T03080182 57016 IEM_DS3505
ZGKL,2006-05-22 10:00,ZGKL 221000Z AUTO 05008KT 4SM 30/19 A2977 RMK T03000190 IEM_DS3505
ZGKL,2006-05-22 11:00,ZGKL 221100Z AUTO 06006KT 4SM 29/19 A2977 RMK T02900190 IEM_DS3505
ZGKL,2006-05-22 12:00,ZGKL 221200Z AUTO 02004KT 7SM 27/20 A2980 RMK SLP084 T02690198 52019 IEM_DS3505
ZGKL,2006-05-22 13:00,ZGKL 221300Z AUTO 03006KT 4SM 26/20 A2983 RMK T02600200 IEM_DS3505
ZGKL,2006-05-22 14:00,ZGKL 221400Z AUTO 35002KT 4SM 25/20 A2985 RMK T02500200 IEM_DS3505
ZGKL,2006-05-22 15:00,ZGKL 221500Z AUTO 02006KT 7SM 25/19 A2985 RMK SLP104 T02510192 52020 IEM_DS3505
ZGKL,2006-05-22 16:00,ZGKL 221600Z AUTO 34002KT 2 1/2SM 24/21 A2985 RMK T02400210 IEM_DS3505
ZGKL,2006-05-22 17:00,ZGKL 221700Z AUTO 28002KT 23/21 A2985 RMK T02300210 IEM_DS3505
ZGKL,2006-05-22 18:00,ZGKL 221800Z AUTO 02004KT 7SM 24/19 A2985 RMK SLP095 T02390192 57008 IEM_DS3505
ZGKL,2006-05-22 19:00,ZGKL 221900Z AUTO 31002KT 22/21 A2983 RMK T02200210 IEM_DS3505
ZGKL,2006-05-22 20:00,ZGKL 222000Z AUTO 35002KT 22/21 A2985 RMK T02200210 IEM_DS3505
ZGKL,2006-05-22 21:00,ZGKL 222100Z AUTO 36004KT 7SM 23/18 A2985 RMK SLP100 T02310182 52005 IEM_DS3505
ZGKL,2006-05-22 22:00,ZGKL 222200Z AUTO 01002KT 1 1/2SM 21/20 A2985 RMK T02100200 IEM_DS3505
ZGKL,2006-05-22 23:00,ZGKL 222300Z AUTO 34002KT 1 1/2SM 22/21 A2988 RMK T02200210 IEM_DS3505
ZGKL,2006-05-23 00:00,ZGKL 230000Z AUTO 02004KT 7SM 25/18 A2988 RMK SLP113 T02460176 52012 IEM_DS3505
ZGKL,2006-05-23 01:00,ZGKL 230100Z AUTO 00000KT 3SM 24/21 A2988 RMK T02400210 IEM_DS3505
ZGKL,2006-05-23 02:00,ZGKL 230200Z AUTO 24002KT 4SM 26/21 A2991 RMK T02600210 IEM_DS3505
ZGKL,2006-05-23 03:00,ZGKL 230300Z AUTO 09002KT 7SM 29/18 A2988 RMK SLP113 T02860175 54000 IEM_DS3505
ZGKL,2006-05-23 04:00,ZGKL 230400Z AUTO 12004KT 4SM 28/18 A2988 RMK T02800180 IEM_DS3505
ZGKL,2006-05-23 05:00,ZGKL 230500Z AUTO 15004KT 4SM 30/18 A2985 RMK T03000180 IEM_DS3505
ZGKL,2006-05-23 06:00,ZGKL 230600Z AUTO 18004KT 7SM 31/18 A2983 RMK SLP089 T03060183 57023 IEM_DS3505
ZGKL,2006-05-23 07:00,ZGKL 230700Z AUTO 19004KT 5SM 29/21 A2980 RMK T02900210 IEM_DS3505
ZGKL,2006-05-23 08:00,ZGKL 230800Z AUTO 12004KT 5SM 29/20 A2980 RMK T02900200 IEM_DS3505
ZGKL,2006-05-23 09:00,ZGKL 230900Z AUTO 18004KT 7SM 29/19 A2977 RMK SLP073 T02940191 57016 IEM_DS3505
ZGKL,2006-05-23 10:00,ZGKL 231000Z AUTO 17004KT 4SM 28/21 A2980 RMK T02800210 IEM_DS3505
ZGKL,2006-05-23 11:00,ZGKL 231100Z AUTO 17008KT 3SM 26/22 A2980 RMK T02600220 IEM_DS3505
ZGKL,2006-05-23 12:00,ZGKL 231200Z AUTO 18004KT 6SM 27/20 A2980 RMK 60000 SLP083 T02720205 52009 IEM_DS3505
ZGKL,2006-05-23 13:00,ZGKL 231300Z AUTO 16002KT 2SM 24/22 A2983 RMK T02400220 IEM_DS3505
ZGKL,2006-05-23 14:00,ZGKL 231400Z AUTO 18002KT 1 1/4SM 24/22 A2983 RMK T02400220 IEM_DS3505
ZGKL,2006-05-23 15:00,ZGKL 231500Z AUTO 20002KT 6SM 25/22 A2983 RMK SLP095 T02540221 52013 IEM_DS3505
ZGKL,2006-05-23 16:00,ZGKL 231600Z AUTO 35002KT 24/23 A2983 RMK T02400230 IEM_DS3505
ZGKL,2006-05-23 17:00,ZGKL 231700Z AUTO 19002KT 24/23 A2983 RMK T02400230 IEM_DS3505
ZGKL,2006-05-23 18:00,ZGKL 231800Z AUTO 17004KT 5SM 24/22 A2980 RMK 60000 SLP086 T02440223 57009 IEM_DS3505
ZGKL,2006-05-23 19:00,ZGKL 231900Z AUTO 00000KT 23/23 A2980 RMK T02300230 IEM_DS3505
ZGKL,2006-05-23 20:00,ZGKL 232000Z AUTO 00000KT 23/22 A2980 RMK T02300220 IEM_DS3505
ZGKL,2006-05-23 21:00,ZGKL 232100Z AUTO 14002KT 5SM 24/22 A2980 RMK 70001 SLP080 T02410220 57006 IEM_DS3505
ZGKL,2006-05-23 22:00,ZGKL 232200Z AUTO 00000KT 1SM 23/22 A2980 RMK T02300220 IEM_DS3505
ZGKL,2006-05-23 23:00,ZGKL 232300Z AUTO 00000KT 1SM 23/22 A2980 RMK T02300220 IEM_DS3505
ZGKL,2006-05-24 00:00,ZGKL 240000Z AUTO 20004KT 6SM 25/21 A2983 RMK 60002 70002 SLP091 T02470214 52010 IEM_DS3505
ZGKL,2006-05-24 01:00,ZGKL 240100Z AUTO 17002KT 2 1/2SM 24/22 A2983 RMK T02400220 IEM_DS3505
ZGKL,2006-05-24 02:00,ZGKL 240200Z AUTO 22002KT 7SM 25/22 A2983 RMK T02500220 IEM_DS3505
ZGKL,2006-05-24 03:00,ZGKL 240300Z AUTO 18004KT 4SM 24/22 A2983 RMK SLP097 T02420223 52005 IEM_DS3505
ZGKL,2006-05-24 04:00,ZGKL 240400Z AUTO 15006KT 5SM 23/22 A2983 RMK T02300220 IEM_DS3505
ZGKL,2006-05-24 05:00,ZGKL 240500Z AUTO 16006KT 7SM 24/22 A2980 RMK T02400220 IEM_DS3505
ZGKL,2006-05-24 06:00,ZGKL 240600Z AUTO 22002KT 2 1/2SM 24/23 A2980 RMK 60098 SLP082 T02390229 57015 IEM_DS3505
ZGKL,2006-05-24 07:00,ZGKL 240700Z AUTO 17008KT 7SM 25/23 A2977 RMK T02500230 IEM_DS3505
ZGKL,2006-05-24 08:00,ZGKL 240800Z AUTO 16006KT 7SM 24/23 A2977 RMK T02400230 IEM_DS3505
ZGKL,2006-05-24 09:00,ZGKL 240900Z AUTO 14004KT 6SM 24/23 A2974 RMK SLP067 T02400230 57015 IEM_DS3505
ZGKL,2006-05-24 10:00,ZGKL 241000Z AUTO 13004KT 4SM 25/24 A2974 RMK T02500240 IEM_DS3505
ZGKL,2006-05-24 11:00,ZGKL 241100Z AUTO 12004KT 4SM 25/23 A2974 RMK T02500230 IEM_DS3505
ZGKL,2006-05-24 12:00,ZGKL 241200Z AUTO 16002KT 9SM 24/23 A2977 RMK 60039 SLP071 T02440234 52005 IEM_DS3505
ZGKL,2006-05-24 13:00,ZGKL 241300Z AUTO 14002KT 5SM 24/23 A2977 RMK T02400230 IEM_DS3505
ZGKL,2006-05-24 14:00,ZGKL 241400Z AUTO 16004KT 5SM 24/23 A2980 RMK T02400230 IEM_DS3505
ZGKL,2006-05-24 15:00,ZGKL 241500Z AUTO 16002KT 7SM 24/23 A2980 RMK SLP081 T02440232 52009 IEM_DS3505
ZGKL,2006-05-24 15:03,ZGKL 241503Z AUTO 23002KT 5SM 24/23 A2980 RMK T02400230 IEM_DS3505
ZGKL,2006-05-24 16:00,ZGKL 241600Z AUTO 00000KT 4SM 24/23 A2980 RMK T02400230 IEM_DS3505
ZGKL,2006-05-24 18:00,ZGKL 241800Z AUTO 18008KT 7SM 25/23 A2977 RMK 60003 SLP073 T02470229 57008 IEM_DS3505
ZGKL,2006-05-24 19:00,ZGKL 241900Z AUTO 00000KT 24/23 A2977 RMK T02400230 IEM_DS3505
ZGKL,2006-05-24 20:00,ZGKL 242000Z AUTO 14004KT 4SM 24/23 A2974 RMK T02400230 IEM_DS3505
ZGKL,2006-05-24 21:00,ZGKL 242100Z AUTO 18002KT 6SM 24/23 A2974 RMK 70144 SLP067 T02410229 57006 IEM_DS3505
ZGKL,2006-05-24 22:00,ZGKL 242200Z AUTO 11002KT 4SM 24/23 A2974 RMK T02400230 IEM_DS3505
ZGKL,2006-05-24 23:00,ZGKL 242300Z AUTO 16002KT 3SM 24/23 A2977 RMK T02400230 IEM_DS3505
ZGKL,2006-05-25 00:00,ZGKL 250000Z AUTO 18004KT 6SM 24/23 A2977 RMK 60012 70152 SLP077 T02440230 52010 IEM_DS3505
ZGKL,2006-05-25 01:00,ZGKL 250100Z AUTO 17006KT 3SM 25/23 A2980 RMK T02500230 IEM_DS3505
ZGKL,2006-05-25 02:00,ZGKL 250200Z AUTO 17008KT 2 1/2SM 24/23 A2980 RMK T02400230 IEM_DS3505
ZGKL,2006-05-25 03:00,ZGKL 250300Z AUTO 20006KT 5SM 24/23 A2980 RMK SLP081 T02410232 52004 IEM_DS3505
ZGKL,2006-05-25 04:00,ZGKL 250400Z AUTO 17008KT 7SM 26/24 A2977 RMK T02600240 IEM_DS3505
ZGKL,2006-05-25 05:00,ZGKL 250500Z AUTO 17008KT 7SM 26/24 A2977 RMK T02600240 IEM_DS3505
ZGKL,2006-05-25 06:00,ZGKL 250600Z AUTO 16004KT 8SM 26/24 A2974 RMK 60091 SLP069 T02610236 57011 IEM_DS3505
ZGKL,2006-05-25 07:00,ZGKL 250700Z AUTO 18010KT 7SM 27/23 A2971 RMK T02700230 IEM_DS3505
ZGKL,2006-05-25 08:00,ZGKL 250800Z AUTO 18008KT 7SM 27/24 A2971 RMK T02700240 IEM_DS3505
ZGKL,2006-05-25 09:00,ZGKL 250900Z AUTO 18004KT 9SM 27/23 A2971 RMK SLP050 T02700233 57018 IEM_DS3505
ZGKL,2006-05-25 10:00,ZGKL 251000Z AUTO 13004KT 7SM 27/24 A2971 RMK T02700240 IEM_DS3505
ZGKL,2006-05-25 11:00,ZGKL 251100Z AUTO 16008KT 7SM 26/23 A2971 RMK T02600230 IEM_DS3505
ZGKL,2006-05-25 12:00,ZGKL 251200Z AUTO 18006KT 9SM 25/23 A2974 RMK 60002 SLP065 T02470229 52014 IEM_DS3505
ZGKL,2006-05-25 13:00,ZGKL 251300Z AUTO 14008KT 7SM 25/23 A2977 RMK T02500230 IEM_DS3505
ZGKL,2006-05-25 14:00,ZGKL 251400Z AUTO 15004KT 7SM 24/23 A2977 RMK T02400230 IEM_DS3505
ZGKL,2006-05-25 15:00,ZGKL 251500Z AUTO 18006KT 9SM 24/23 A2980 RMK SLP083 T02420230 52017 IEM_DS3505
ZGKL,2006-05-25 16:00,ZGKL 251600Z AUTO 17006KT 7SM 24/23 A2980 RMK T02400230 IEM_DS3505
ZGKL,2006-05-25 17:00,ZGKL 251700Z AUTO 17006KT 6SM 25/23 A2980 RMK T02500230 IEM_DS3505
ZGKL,2006-05-25 18:00,ZGKL 251800Z AUTO 18002KT 7SM 24/23 A2977 RMK 60004 SLP076 T02400230 57006 IEM_DS3505
ZGKL,2006-05-25 19:00,ZGKL 251900Z AUTO 16004KT 24/23 A2977 RMK T02400230 IEM_DS3505
ZGKL,2006-05-25 20:00,ZGKL 252000Z AUTO 15002KT 24/23 A2977 RMK T02400230 IEM_DS3505
ZGKL,2006-05-25 21:00,ZGKL 252100Z AUTO 18004KT 5SM 24/23 A2977 RMK 70109 SLP073 T02390227 57003 IEM_DS3505
ZGKL,2006-05-25 22:00,ZGKL 252200Z AUTO 19008KT 7SM 25/23 A2977 RMK T02500230 IEM_DS3505
ZGKL,2006-05-25 23:00,ZGKL 252300Z AUTO 18012KT 7SM 25/23 A2977 RMK T02500230 IEM_DS3505
ZGKL,2006-05-26 00:00,ZGKL 260000Z AUTO 20006KT 7SM 24/23 A2980 RMK 60008 70101 SLP085 T02410229 52011 IEM_DS3505
ZGKL,2006-05-26 01:00,ZGKL 260100Z AUTO 18010KT 2SM 25/23 A2983 RMK T02500230 IEM_DS3505
ZGKL,2006-05-26 03:00,ZGKL 260300Z AUTO 18004KT 1 1/4SM 24/23 RMK SLP096 T02380231 52011 IEM_DS3505
ZGKL,2006-05-26 04:00,ZGKL 260400Z AUTO 18008KT 2SM 25/24 A2983 RMK T02500240 IEM_DS3505
ZGKL,2006-05-26 05:00,ZGKL 260500Z AUTO 16008KT 2 1/2SM 25/24 A2980 RMK T02500240 IEM_DS3505
ZGKL,2006-05-26 06:00,ZGKL 260600Z AUTO 07002KT 5SM 24/24 A2980 RMK 60209 SLP085 T02420235 57011 IEM_DS3505
ZGKL,2006-05-26 07:00,ZGKL 260700Z AUTO 14002KT 3SM 25/24 A2977 RMK T02500240 IEM_DS3505
ZGKL,2006-05-26 08:00,ZGKL 260800Z AUTO 18004KT 2SM 24/22 A2977 RMK T02400220 IEM_DS3505
ZGKL,2006-05-26 09:00,ZGKL 260900Z AUTO 34004KT 2SM 23/22 A2977 RMK SLP079 T02280221 57006 IEM_DS3505
ZGKL,2006-05-26 10:00,ZGKL 261000Z AUTO 04006KT 1 1/2SM 23/22 A2980 RMK T02300220 IEM_DS3505
ZGKL,2006-05-26 11:00,ZGKL 261100Z AUTO 05006KT 2 1/2SM 22/21 A2980 RMK T02200210 IEM_DS3505
ZGKL,2006-05-26 12:00,ZGKL 261200Z AUTO 36002KT 7SM 22/21 A2983 RMK 60134 SLP097 T02180208 52017 IEM_DS3505
ZGKL,2006-05-26 13:00,ZGKL 261300Z AUTO 35002KT 2SM 22/21 A2985 RMK T02200210 IEM_DS3505
ZGKL,2006-05-26 14:00,ZGKL 261400Z AUTO 01002KT 2SM 22/20 A2988 RMK T02200200 IEM_DS3505
ZGKL,2006-05-26 15:00,ZGKL 261500Z AUTO 29002KT 7SM 22/20 A2988 RMK SLP112 T02170205 52015 IEM_DS3505
ZGKL,2006-05-26 16:00,ZGKL 261600Z AUTO 00000KT 1 1/2SM 22/21 A2988 RMK T02200210 IEM_DS3505
ZGKL,2006-05-26 17:00,ZGKL 261700Z AUTO 00000KT 1 1/4SM 22/21 A2985 RMK T02200210 IEM_DS3505
ZGKL,2006-05-26 18:00,ZGKL 261800Z AUTO 29002KT 7SM 22/20 A2983 RMK 60000 SLP099 T02190202 57013 IEM_DS3505
ZGKL,2006-05-26 19:00,ZGKL 261900Z AUTO 00000KT 22/21 A2983 RMK T02200210 IEM_DS3505
ZGKL,2006-05-26 20:00,ZGKL 262000Z AUTO 02002KT 22/21 A2985 RMK T02200210 IEM_DS3505
ZGKL,2006-05-26 21:00,ZGKL 262100Z AUTO 36004KT 7SM 22/20 A2985 RMK 70346 SLP100 T02200196 52001 IEM_DS3505
ZGKL,2006-05-26 22:00,ZGKL 262200Z AUTO 26002KT 2SM 22/21 A2985 RMK T02200210 IEM_DS3505
ZGKL,2006-05-26 23:00,ZGKL 262300Z AUTO 10002KT 2SM 22/21 A2988 RMK T02200210 IEM_DS3505
ZGKL,2006-05-27 00:00,ZGKL 270000Z AUTO 02008KT 5SM 23/19 A2988 RMK 70343 SLP114 T02280194 52013 IEM_DS3505
ZGKL,2006-05-27 01:00,ZGKL 270100Z AUTO 26002KT 2 1/2SM 23/21 A2988 RMK T02300210 IEM_DS3505
ZGKL,2006-05-27 02:00,ZGKL 270200Z AUTO 22002KT 3SM 23/21 A2988 RMK T02300210 IEM_DS3505
ZGKL,2006-05-27 03:00,ZGKL 270300Z AUTO 02002KT 5SM 25/20 A2991 RMK SLP119 T02470200 52006 IEM_DS3505
ZGKL,2006-05-27 04:00,ZGKL 270400Z AUTO 36006KT 4SM 25/19 A2988 RMK T02500190 IEM_DS3505
ZGKL,2006-05-27 05:00,ZGKL 270500Z AUTO 00000KT 4SM 25/20 A2988 RMK T02500200 IEM_DS3505
ZGKL,2006-05-27 06:00,ZGKL 270600Z AUTO 11004KT 3SM 23/20 A2985 RMK 60000 SLP107 T02330195 57012 IEM_DS3505
ZGKL,2006-05-27 07:00,ZGKL 270700Z AUTO 04002KT 2SM 23/19 A2985 RMK T02300190 IEM_DS3505
ZGKL,2006-05-27 08:00,ZGKL 270800Z AUTO 32002KT 2 1/2SM 23/19 A2985 RMK T02300190 IEM_DS3505
ZGKL,2006-05-27 09:00,ZGKL 270900Z AUTO 07010KT 6SM 24/17 A2983 RMK SLP095 T02360169 57012 IEM_DS3505
ZGKL,2006-05-27 10:00,ZGKL 271000Z AUTO 30002KT 2 1/2SM 23/20 A2985 RMK T02300200 IEM_DS3505
ZGKL,2006-05-27 11:00,ZGKL 271100Z AUTO 11002KT 2 1/2SM 22/20 A2985 RMK T02200200 IEM_DS3505
ZGKL,2006-05-27 12:00,ZGKL 271200Z AUTO 36004KT 6SM 22/17 A2988 RMK 60001 SLP109 T02190166 52013 IEM_DS3505
ZGKL,2006-05-27 13:00,ZGKL 271300Z AUTO 22004KT 1 1/2SM 20/19 A2988 RMK T02000190 IEM_DS3505
ZGKL,2006-05-27 14:00,ZGKL 271400Z AUTO 27006KT 2SM 20/18 A2988 RMK T02000180 IEM_DS3505
ZGKL,2006-05-27 15:00,ZGKL 271500Z AUTO 04002KT 5SM 22/18 A2988 RMK SLP118 T02150177 52010 IEM_DS3505
ZGKL,2006-05-27 16:00,ZGKL 271600Z AUTO 16002KT 1 1/2SM 20/19 A2988 RMK T02000190 IEM_DS3505
ZGKL,2006-05-27 17:00,ZGKL 271700Z AUTO 15004KT 20/19 A2988 RMK T02000190 IEM_DS3505
ZGKL,2006-05-27 18:00,ZGKL 271800Z AUTO 09004KT 5SM 21/18 A2985 RMK SLP104 T02060185 57015 IEM_DS3505
ZGKL,2006-05-27 19:00,ZGKL 271900Z AUTO 14002KT 20/19 A2983 RMK T02000190 IEM_DS3505
ZGKL,2006-05-27 20:00,ZGKL 272000Z AUTO 00000KT 20/19 A2983 RMK T02000190 IEM_DS3505
ZGKL,2006-05-27 21:00,ZGKL 272100Z AUTO 29002KT 4SM A2983 RMK 70001 SLP096 57007 IEM_DS3505
ZGKL,2006-05-27 22:00,ZGKL 272200Z AUTO 00000KT 1SM 20/19 A2983 RMK T02000190 IEM_DS3505
ZGKL,2006-05-27 23:00,ZGKL 272300Z AUTO 06002KT 1SM 20/19 A2985 RMK T02000190 IEM_DS3505
ZGKL,2006-05-28 00:00,ZGKL 280000Z AUTO 29004KT 2 1/2SM 21/19 A2985 RMK 70001 SLP107 T02100188 52010 IEM_DS3505
ZGKL,2006-05-28 01:00,ZGKL 280100Z AUTO 36002KT 2SM 22/20 A2985 RMK T02200200 IEM_DS3505
ZGKL,2006-05-28 02:00,ZGKL 280200Z AUTO 32002KT 4SM 24/20 A2985 RMK T02400200 IEM_DS3505
ZGKL,2006-05-28 03:00,ZGKL 280300Z AUTO 36004KT 10SM 26/16 A2985 RMK SLP102 T02620162 57003 IEM_DS3505
ZGKL,2006-05-28 04:00,ZGKL 280400Z AUTO 03010KT 6SM 27/09 A2985 RMK T02700090 IEM_DS3505
ZGKL,2006-05-28 05:00,ZGKL 280500Z AUTO 05010KT 6SM 28/12 A2983 RMK T02800120 IEM_DS3505
ZGKL,2006-05-28 06:00,ZGKL 280600Z AUTO 02006KT 10SM 28/13 A2980 RMK SLP089 T02790127 57013 IEM_DS3505
ZGKL,2006-05-28 07:00,ZGKL 280700Z AUTO 06008KT 6SM 28/14 A2980 RMK T02800140 IEM_DS3505
ZGKL,2006-05-28 08:00,ZGKL 280800Z AUTO 06008KT 6SM 28/13 A2980 RMK T02800130 IEM_DS3505
ZGKL,2006-05-28 09:00,ZGKL 280900Z AUTO 04004KT 11SM 27/13 A2977 RMK SLP071 T02740134 57018 IEM_DS3505
ZGKL,2006-05-28 10:00,ZGKL 281000Z AUTO 04006KT 6SM 27/14 A2977 RMK T02700140 IEM_DS3505
ZGKL,2006-05-28 11:00,ZGKL 281100Z AUTO 05006KT 6SM 26/16 A2977 RMK T02600160 IEM_DS3505
ZGKL,2006-05-28 12:00,ZGKL 281200Z AUTO 02004KT 10SM 24/14 A2980 RMK SLP087 T02410142 52015 IEM_DS3505
ZGKL,2006-05-28 13:00,ZGKL 281300Z AUTO 34004KT 6SM 24/17 A2983 RMK T02400170 IEM_DS3505
ZGKL,2006-05-28 14:00,ZGKL 281400Z AUTO 02004KT 6SM 23/16 A2985 RMK T02300160 IEM_DS3505
ZGKL,2006-05-28 15:00,ZGKL 281500Z AUTO 36004KT 9SM 23/16 A2983 RMK SLP098 T02270155 52012 IEM_DS3505
ZGKL,2006-05-28 16:00,ZGKL 281600Z AUTO 30002KT 21/19 A2983 RMK T02100190 IEM_DS3505
ZGKL,2006-05-28 17:00,ZGKL 281700Z AUTO 29002KT 21/19 A2983 RMK T02100190 IEM_DS3505
ZGKL,2006-05-28 18:00,ZGKL 281800Z AUTO 04002KT 9SM 22/15 A2980 RMK SLP085 T02160154 57013 IEM_DS3505
ZGKL,2006-05-28 19:00,ZGKL 281900Z AUTO 00000KT 21/20 A2980 RMK T02100200 IEM_DS3505
ZGKL,2006-05-28 20:00,ZGKL 282000Z AUTO 29002KT 20/19 A2980 RMK T02000190 IEM_DS3505
ZGKL,2006-05-28 21:00,ZGKL 282100Z AUTO 36002KT 5SM 20/16 A2980 RMK 70001 SLP086 T01990158 52001 IEM_DS3505
ZGKL,2006-05-28 22:00,ZGKL 282200Z AUTO 30002KT 2 1/2SM 20/19 A2980 RMK T02000190 IEM_DS3505
ZGKL,2006-05-28 23:00,ZGKL 282300Z AUTO 20002KT 1 1/2SM 20/19 A2983 RMK T02000190 IEM_DS3505
ZGKL,2006-05-29 00:00,ZGKL 290000Z AUTO 09002KT 8SM 20/17 A2983 RMK 60002 70002 SLP094 T01960166 52006 IEM_DS3505
ZGKL,2006-05-29 01:00,ZGKL 290100Z AUTO 20002KT 3SM 20/18 A2983 RMK T02000180 IEM_DS3505
ZGKL,2006-05-29 02:00,ZGKL 290200Z AUTO 16004KT 3SM 21/18 A2983 RMK T02100180 IEM_DS3505
ZGKL,2006-05-29 03:00,ZGKL 290300Z AUTO 16002KT 7SM 21/16 A2983 RMK SLP101 T02100164 52007 IEM_DS3505
ZGKL,2006-05-29 04:00,ZGKL 290400Z AUTO 09002KT 4SM 22/16 A2983 RMK T02200160 IEM_DS3505
ZGKL,2006-05-29 05:00,ZGKL 290500Z AUTO 14004KT 4SM 22/18 A2983 RMK T02200180 IEM_DS3505
ZGKL,2006-05-29 06:00,ZGKL 290600Z AUTO 14004KT 6SM 22/17 A2980 RMK 60000 SLP088 T02230166 57012 IEM_DS3505
ZGKL,2006-05-29 07:00,ZGKL 290700Z AUTO 17002KT 4SM 23/16 A2980 RMK T02300160 IEM_DS3505
ZGKL,2006-05-29 08:00,ZGKL 290800Z AUTO 14002KT 4SM 23/17 A2977 RMK T02300170 IEM_DS3505
ZGKL,2006-05-29 09:00,ZGKL 290900Z AUTO 18004KT 5SM 22/17 A2977 RMK SLP078 T02200167 57011 IEM_DS3505
ZGKL,2006-05-29 10:00,ZGKL 291000Z AUTO 16004KT 5SM 22/18 A2977 RMK T02200180 IEM_DS3505
ZGKL,2006-05-29 11:00,ZGKL 291100Z AUTO 16004KT 4SM 21/19 A2980 RMK T02100190 IEM_DS3505
ZGKL,2006-05-29 12:00,ZGKL 291200Z AUTO 16002KT 4SM 20/18 A2980 RMK 60000 SLP090 T02030184 52011 IEM_DS3505
ZGKL,2006-05-29 13:00,ZGKL 291300Z AUTO 25002KT 2 1/2SM 18/17 A2980 RMK T01800170 IEM_DS3505
ZGKL,2006-05-29 14:00,ZGKL 291400Z AUTO 00000KT 3SM 19/17 A2983 RMK T01900170 IEM_DS3505
ZGKL,2006-05-29 15:00,ZGKL 291500Z AUTO 27002KT 4SM 20/18 A2983 RMK SLP095 T01960176 52005 IEM_DS3505
ZGKL,2006-05-29 16:00,ZGKL 291600Z AUTO 00000KT 19/18 A2983 RMK T01900180 IEM_DS3505
ZGKL,2006-05-29 17:00,ZGKL 291700Z AUTO 17002KT 19/18 A2983 RMK T01900180 IEM_DS3505
ZGKL,2006-05-29 18:00,ZGKL 291800Z AUTO 32002KT 3SM 19/18 A2980 RMK 60008 SLP088 T01930178 57006 IEM_DS3505
ZGKL,2006-05-29 19:00,ZGKL 291900Z AUTO 00000KT 18/17 A2980 RMK T01800170 IEM_DS3505
ZGKL,2006-05-29 20:00,ZGKL 292000Z AUTO 19002KT 18/17 A2980 RMK T01800170 IEM_DS3505
ZGKL,2006-05-29 21:00,ZGKL 292100Z AUTO 32002KT 2 1/2SM 19/18 A2980 RMK 70022 SLP085 T01900183 57003 IEM_DS3505
ZGKL,2006-05-29 22:00,ZGKL 292200Z AUTO 00000KT 2SM 18/17 A2980 RMK T01800170 IEM_DS3505
ZGKL,2006-05-29 23:00,ZGKL 292300Z AUTO 00000KT 2SM 19/18 A2980 RMK T01900180 IEM_DS3505
ZGKL,2006-05-30 00:00,ZGKL 300000Z AUTO 36002KT 2SM 20/18 A2983 RMK 60012 70021 SLP100 T01960184 52014 IEM_DS3505
ZGKL,2006-05-30 01:00,ZGKL 300100Z AUTO 32002KT 2 1/2SM 19/18 A2985 RMK T01900180 IEM_DS3505
ZGKL,2006-05-30 02:00,ZGKL 300200Z AUTO 32004KT 3SM 19/18 A2985 RMK T01900180 IEM_DS3505
ZGKL,2006-05-30 03:00,ZGKL 300300Z AUTO 36002KT 2SM 20/18 A2985 RMK SLP102 T02020180 52002 IEM_DS3505
ZGKL,2006-05-30 04:00,ZGKL 300400Z AUTO 31004KT 2SM 20/19 A2983 RMK T02000190 IEM_DS3505
ZGKL,2006-05-30 05:00,ZGKL 300500Z AUTO 33002KT 3SM 20/19 A2980 RMK T02000190 IEM_DS3505
ZGKL,2006-05-30 06:00,ZGKL 300600Z AUTO 27002KT 2SM 21/19 A2980 RMK 60020 SLP083 T02110190 57018 IEM_DS3505
ZGKL,2006-05-30 07:00,ZGKL 300700Z AUTO 28002KT 2SM 20/19 A2977 RMK T02000190 IEM_DS3505
ZGKL,2006-05-30 08:00,ZGKL 300800Z AUTO 33002KT 2SM 20/19 A2977 RMK T02000190 IEM_DS3505
ZGKL,2006-05-30 09:00,ZGKL 300900Z AUTO 32004KT 2SM 20/19 A2977 RMK SLP080 T02020190 57004 IEM_DS3505
ZGKL,2006-05-30 10:00,ZGKL 301000Z AUTO 00000KT 1 1/2SM 20/19 A2977 RMK T02000190 IEM_DS3505
ZGKL,2006-05-30 11:00,ZGKL 301100Z AUTO 33002KT 1SM 20/19 A2980 RMK T02000190 IEM_DS3505
ZGKL,2006-05-30 12:00,ZGKL 301200Z AUTO 02002KT 2SM 20/19 A2980 RMK 60043 SLP090 T01980193 52010 IEM_DS3505
ZGKL,2006-05-30 13:00,ZGKL 301300Z AUTO 33002KT 1 1/4SM 20/19 A2980 RMK T02000190 IEM_DS3505
ZGKL,2006-05-30 14:00,ZGKL 301400Z AUTO 32002KT 1 1/2SM 20/19 A2983 RMK T02000190 IEM_DS3505
ZGKL,2006-05-30 15:00,ZGKL 301500Z AUTO 04002KT 3SM 20/19 A2983 RMK SLP096 T01980188 52006 IEM_DS3505
ZGKL,2006-05-30 16:00,ZGKL 301600Z AUTO 31002KT 1 1/2SM 20/19 A2983 RMK T02000190 IEM_DS3505
ZGKL,2006-05-30 17:00,ZGKL 301700Z AUTO 00000KT 2SM 20/19 A2980 RMK T02000190 IEM_DS3505
ZGKL,2006-05-30 18:00,ZGKL 301800Z AUTO 04002KT 2 1/2SM 20/19 A2980 RMK 60002 SLP085 T01980188 57010 IEM_DS3505
ZGKL,2006-05-30 19:00,ZGKL 301900Z AUTO 00000KT 2SM 20/19 A2977 RMK T02000190 IEM_DS3505
ZGKL,2006-05-30 20:00,ZGKL 302000Z AUTO 00000KT 1 1/2SM 20/19 A2977 RMK T02000190 IEM_DS3505
ZGKL,2006-05-30 21:00,ZGKL 302100Z AUTO 04002KT 2SM 20/19 A2977 RMK 70062 SLP084 T01980190 57002 IEM_DS3505
ZGKL,2006-05-30 22:00,ZGKL 302200Z AUTO 00000KT 1 1/4SM 20/19 A2980 RMK T02000190 IEM_DS3505
ZGKL,2006-05-30 23:00,ZGKL 302300Z AUTO 34002KT 1 1/4SM 20/19 A2980 RMK T02000190 IEM_DS3505
ZGKL,2006-05-31 00:00,ZGKL 310000Z AUTO 02002KT 1 1/4SM 20/19 A2980 RMK 60016 70076 SLP093 T01980191 52009 IEM_DS3505
ZGKL,2006-05-31 01:00,ZGKL 310100Z AUTO 00000KT 3SM 21/19 A2983 RMK T02100190 IEM_DS3505
ZGKL,2006-05-31 02:00,ZGKL 310200Z AUTO 00000KT 1 1/4SM 21/20 A2983 RMK T02100200 IEM_DS3505
ZGKL,2006-05-31 03:00,ZGKL 310300Z AUTO 34002KT 1 1/4SM 21/20 A2983 RMK SLP097 T02060196 52004 IEM_DS3505
ZGKL,2006-05-31 04:00,ZGKL 310400Z AUTO 00000KT 7SM 21/20 A2983 RMK T02100200 IEM_DS3505
ZGKL,2006-05-31 05:00,ZGKL 310500Z AUTO 14002KT 7SM 22/20 A2983 RMK T02200200 IEM_DS3505
ZGKL,2006-05-31 06:00,ZGKL 310600Z AUTO 36002KT 2 1/2SM 22/20 A2980 RMK 60016 SLP087 T02180195 57009 IEM_DS3505
ZGKL,2006-05-31 07:00,ZGKL 310700Z AUTO 19002KT 3SM 22/20 A2980 RMK T02200200 IEM_DS3505
ZGKL,2006-05-31 08:00,ZGKL 310800Z AUTO 18002KT 2SM 21/20 A2977 RMK T02100200 IEM_DS3505
ZGKL,2006-05-31 09:00,ZGKL 310900Z AUTO 11002KT 2 1/2SM 21/20 A2977 RMK SLP077 T02140204 57010 IEM_DS3505
ZGKL,2006-05-31 10:00,ZGKL 311000Z AUTO 00000KT 2SM 21/20 A2977 RMK T02100200 IEM_DS3505
ZGKL,2006-05-31 11:00,ZGKL 311100Z AUTO 20002KT 3SM 22/21 A2977 RMK T02200210 IEM_DS3505
ZGKL,2006-05-31 12:00,ZGKL 311200Z AUTO 17002KT 4SM 21/20 A2980 RMK 60024 SLP088 T02120204 52011 IEM_DS3505
ZGKL,2006-05-31 13:00,ZGKL 311300Z AUTO 00000KT 3SM 21/20 A2980 RMK T02100200 IEM_DS3505
ZGKL,2006-05-31 14:00,ZGKL 311400Z AUTO 00000KT 2 1/2SM 21/20 A2983 RMK T02100200 IEM_DS3505
ZGKL,2006-05-31 15:00,ZGKL 311500Z AUTO 27002KT 2 1/2SM 21/20 A2983 RMK SLP098 T02110204 52010 IEM_DS3505
ZGKL,2006-05-31 16:00,ZGKL 311600Z AUTO 00000KT 1SM 21/20 A2983 RMK T02100200 IEM_DS3505
ZGKL,2006-05-31 17:00,ZGKL 311700Z AUTO 14002KT 21/20 A2980 RMK T02100200 IEM_DS3505
ZGKL,2006-05-31 18:00,ZGKL 311800Z AUTO 02002KT 2 1/2SM 21/20 A2980 RMK 60001 SLP084 T02080201 57014 IEM_DS3505
ZGKL,2006-05-31 19:00,ZGKL 311900Z AUTO 00000KT 21/20 A2977 RMK T02100200 IEM_DS3505
ZGKL,2006-05-31 20:00,ZGKL 312000Z AUTO 00000KT 21/20 A2980 RMK T02100200 IEM_DS3505
ZGKL,2006-05-31 21:00,ZGKL 312100Z AUTO 04002KT 2 1/2SM 21/20 A2980 RMK 70054 SLP084 T02060201 54000 IEM_DS3505
ZGKL,2006-05-31 22:00,ZGKL 312200Z AUTO 00000KT 1SM 21/20 A2980 RMK T02100200 IEM_DS3505
ZGKL,2006-05-31 23:00,ZGKL 312300Z AUTO 00000KT 1SM 21/20 A2980 RMK T02100200 IEM_DS3505
ZGKL,2006-06-01 00:00,ZGKL 010000Z AUTO 02002KT 2 1/2SM 21/20 A2983 RMK 70041 SLP093 T02130201 52009 IEM_DS3505
ZGKL,2006-06-01 01:00,ZGKL 010100Z AUTO 00000KT 1SM 21/21 A2983 RMK T02100210 IEM_DS3505
ZGKL,2006-06-01 02:00,ZGKL 010200Z AUTO 34004KT 3SM 23/21 A2983 RMK T02300210 IEM_DS3505
ZGKL,2006-06-01 03:00,ZGKL 010300Z AUTO 04004KT 5SM 24/21 A2983 RMK SLP093 T02390208 52001 IEM_DS3505
ZGKL,2006-06-01 04:00,ZGKL 010400Z AUTO 35002KT 5SM 25/21 A2980 RMK T02500210 IEM_DS3505
ZGKL,2006-06-01 05:00,ZGKL 010500Z AUTO 04002KT 6SM 25/20 A2980 RMK T02500200 IEM_DS3505
ZGKL,2006-06-01 06:00,ZGKL 010600Z AUTO 16002KT 7SM 26/21 A2977 RMK SLP076 T02650208 57016 IEM_DS3505
ZGKL,2006-06-01 07:00,ZGKL 010700Z AUTO 19002KT 7SM 27/21 A2974 RMK T02700210 IEM_DS3505
ZGKL,2006-06-01 08:00,ZGKL 010800Z AUTO 19004KT 7SM 26/21 A2974 RMK T02600210 IEM_DS3505
ZGKL,2006-06-01 09:00,ZGKL 010900Z AUTO 18004KT 7SM 26/21 A2974 RMK SLP060 T02650213 57016 IEM_DS3505
ZGKL,2006-06-01 10:00,ZGKL 011000Z AUTO 13002KT 5SM 26/21 A2974 RMK T02600210 IEM_DS3505
ZGKL,2006-06-01 11:00,ZGKL 011100Z AUTO 00000KT 2 1/2SM 25/22 A2974 RMK T02500220 IEM_DS3505
ZGKL,2006-06-01 12:00,ZGKL 011200Z AUTO 18004KT 7SM 24/22 A2977 RMK SLP074 T02440215 52013 IEM_DS3505
ZGKL,2006-06-01 13:00,ZGKL 011300Z AUTO 08002KT 1 1/2SM 23/22 A2980 RMK T02300220 IEM_DS3505
ZGKL,2006-06-01 14:00,ZGKL 011400Z AUTO 32002KT 2SM 23/22 A2980 RMK T02300220 IEM_DS3505
ZGKL,2006-06-01 15:00,ZGKL 011500Z AUTO 32002KT 6SM 23/22 A2983 RMK SLP091 T02310223 52018 IEM_DS3505
ZGKL,2006-06-01 16:00,ZGKL 011600Z AUTO 36002KT 23/22 A2983 RMK T02300220 IEM_DS3505
ZGKL,2006-06-01 17:00,ZGKL 011700Z AUTO 36004KT 23/22 A2980 RMK T02300220 IEM_DS3505
ZGKL,2006-06-01 18:00,ZGKL 011800Z AUTO 02002KT 5SM 23/22 A2980 RMK 60004 SLP081 T02260216 57010 IEM_DS3505
ZGKL,2006-06-01 19:00,ZGKL 011900Z AUTO 33002KT 22/21 A2977 RMK T02200210 IEM_DS3505
ZGKL,2006-06-01 20:00,ZGKL 012000Z AUTO 01002KT 22/21 A2977 RMK T02200210 IEM_DS3505
ZGKL,2006-06-01 21:00,ZGKL 012100Z AUTO 36004KT 3SM 22/21 A2977 RMK 70007 SLP074 T02220207 57007 IEM_DS3505
ZGKL,2006-06-01 22:00,ZGKL 012200Z AUTO 00000KT 1 1/2SM 22/21 A2980 RMK T02200210 IEM_DS3505
ZGKL,2006-06-01 23:00,ZGKL 012300Z AUTO 21002KT 1 1/2SM 22/21 A2980 RMK T02200210 IEM_DS3505
ZGKL,2006-06-02 00:00,ZGKL 020000Z AUTO 02002KT 5SM 23/21 A2983 RMK 60008 70012 SLP091 T02260211 52017 IEM_DS3505
ZGKL,2006-06-02 01:00,ZGKL 020100Z AUTO 36004KT 2SM 22/21 A2980 RMK T02200210 IEM_DS3505
ZGKL,2006-06-02 02:00,ZGKL 020200Z AUTO 33004KT 1 1/4SM 23/21 A2983 RMK T02300210 IEM_DS3505
ZGKL,2006-06-02 03:00,ZGKL 020300Z AUTO 34004KT 4SM 24/22 A2980 RMK SLP087 T02400217 57004 IEM_DS3505
ZGKL,2006-06-02 04:00,ZGKL 020400Z AUTO 30004KT 1 1/4SM 23/22 A2983 RMK T02300220 IEM_DS3505
ZGKL,2006-06-02 05:00,ZGKL 020500Z AUTO 32004KT 1SM 22/21 A2980 RMK T02200210 IEM_DS3505
ZGKL,2006-06-02 06:00,ZGKL 020600Z AUTO 36004KT 2SM 23/22 A2980 RMK 60051 SLP079 T02260216 57009 IEM_DS3505
ZGKL,2006-06-02 07:00,ZGKL 020700Z AUTO 35004KT 4SM 23/21 A2977 RMK T02300210 IEM_DS3505
ZGKL,2006-06-02 08:00,ZGKL 020800Z AUTO 32002KT 3SM 23/22 A2974 RMK T02300220 IEM_DS3505
ZGKL,2006-06-02 09:00,ZGKL 020900Z AUTO 02002KT 3SM 24/22 A2974 RMK SLP062 T02400217 57016 IEM_DS3505
ZGKL,2006-06-02 10:00,ZGKL 021000Z AUTO 33002KT 3SM 23/22 A2974 RMK T02300220 IEM_DS3505
ZGKL,2006-06-02 11:00,ZGKL 021100Z AUTO 32002KT 1 1/2SM 23/22 A2977 RMK T02300220 IEM_DS3505
ZGKL,2006-06-02 12:00,ZGKL 021200Z AUTO 36004KT 2SM 23/22 A2977 RMK 60002 SLP074 T02280218 52011 IEM_DS3505
ZGKL,2006-06-02 13:00,ZGKL 021300Z AUTO 00000KT 1 1/4SM 22/22 A2977 RMK T02200220 IEM_DS3505
ZGKL,2006-06-02 14:00,ZGKL 021400Z AUTO 34002KT 1 1/2SM 23/22 A2980 RMK T02300220 IEM_DS3505
ZGKL,2006-06-02 15:00,ZGKL 021500Z AUTO 02004KT 2SM 22/22 A2980 RMK SLP080 T02250218 52007 IEM_DS3505
ZGKL,2006-06-02 16:00,ZGKL 021600Z AUTO 32002KT 1 1/2SM 22/22 A2977 RMK T02200220 IEM_DS3505
ZGKL,2006-06-02 17:00,ZGKL 021700Z AUTO 00000KT 1 1/2SM 22/22 A2977 RMK T02200220 IEM_DS3505
ZGKL,2006-06-02 18:00,ZGKL 021800Z AUTO 04002KT 2SM 22/22 A2974 RMK 60008 SLP069 T02250217 57012 IEM_DS3505
ZGKL,2006-06-02 20:00,ZGKL 022000Z AUTO 00000KT 22/22 A2974 RMK T02200220 IEM_DS3505
ZGKL,2006-06-02 21:00,ZGKL 022100Z AUTO 00000KT 2SM 22/22 A2974 RMK 70066 SLP061 T02240219 57007 IEM_DS3505
ZGKL,2006-06-02 22:00,ZGKL 022200Z AUTO 00000KT 1 1/4SM 22/22 A2974 RMK T02200220 IEM_DS3505
ZGKL,2006-06-02 23:00,ZGKL 022300Z AUTO 32002KT 1 1/4SM 22/22 A2974 RMK T02200220 IEM_DS3505
ZGKL,2006-06-03 00:00,ZGKL 030000Z AUTO 36002KT 1 1/4SM 23/22 A2977 RMK 60000 70061 SLP071 T02300220 52010 IEM_DS3505
ZGKL,2006-06-03 01:00,ZGKL 030100Z AUTO 34002KT 2 1/2SM 23/22 A2977 RMK T02300220 IEM_DS3505
ZGKL,2006-06-03 02:00,ZGKL 030200Z AUTO 00000KT 3SM 23/22 A2977 RMK T02300220 IEM_DS3505
ZGKL,2006-06-03 03:00,ZGKL 030300Z AUTO 07002KT 2SM 25/23 A2974 RMK SLP068 T02540227 57003 IEM_DS3505
ZGKL,2006-06-03 04:00,ZGKL 030400Z AUTO 00000KT 4SM 25/23 A2974 RMK T02500230 IEM_DS3505
ZGKL,2006-06-03 05:00,ZGKL 030500Z AUTO 34002KT 4SM 26/23 A2971 RMK T02600230 IEM_DS3505
ZGKL,2006-06-03 06:00,ZGKL 030600Z AUTO 36004KT 3SM 29/24 A2968 RMK SLP046 T02890242 57020 IEM_DS3505
ZGKL,2006-06-03 07:00,ZGKL 030700Z AUTO 30002KT 5SM 29/25 A2968 RMK T02900250 IEM_DS3505
ZGKL,2006-06-03 08:00,ZGKL 030800Z AUTO 02002KT 5SM 30/24 A2965 RMK T03000240 IEM_DS3505
ZGKL,2006-06-03 09:00,ZGKL 030900Z AUTO 36002KT 7SM 30/24 A2962 RMK SLP024 T03020239 57021 IEM_DS3505
ZGKL,2006-06-03 10:00,ZGKL 031000Z AUTO 27002KT 5SM 29/25 A2962 RMK T02900250 IEM_DS3505
ZGKL,2006-06-03 11:00,ZGKL 031100Z AUTO 35002KT 7SM 28/25 A2965 RMK T02800250 IEM_DS3505
ZGKL,2006-06-03 12:00,ZGKL 031200Z AUTO 04002KT 6SM 28/25 A2965 RMK SLP031 T02800248 52006 IEM_DS3505
ZGKL,2006-06-03 13:00,ZGKL 031300Z AUTO 14004KT 4SM 26/24 A2968 RMK T02600240 IEM_DS3505
ZGKL,2006-06-03 14:00,ZGKL 031400Z AUTO 08002KT 4SM 26/23 A2968 RMK T02600230 IEM_DS3505
ZGKL,2006-06-03 15:00,ZGKL 031500Z AUTO 03004KT 5SM 24/24 A2968 RMK SLP047 T02450235 52015 IEM_DS3505
ZGKL,2006-06-03 16:00,ZGKL 031600Z AUTO 00000KT 25/23 A2968 RMK T02500230 IEM_DS3505
ZGKL,2006-06-03 17:00,ZGKL 031700Z AUTO 00000KT 25/23 A2968 RMK T02500230 IEM_DS3505
ZGKL,2006-06-03 18:00,ZGKL 031800Z AUTO 07002KT 5SM 24/23 A2968 RMK 60075 SLP039 T02400233 57007 IEM_DS3505
ZGKL,2006-06-03 19:00,ZGKL 031900Z AUTO 13002KT 24/23 A2965 RMK T02400230 IEM_DS3505
ZGKL,2006-06-03 20:00,ZGKL 032000Z AUTO 00000KT 24/23 A2965 RMK T02400230 IEM_DS3505
ZGKL,2006-06-03 21:00,ZGKL 032100Z AUTO 32002KT 4SM 24/24 A2965 RMK 70079 SLP032 T02420237 57006 IEM_DS3505
ZGKL,2006-06-03 22:00,ZGKL 032200Z AUTO 00000KT 2SM 24/23 A2968 RMK T02400230 IEM_DS3505
ZGKL,2006-06-03 23:00,ZGKL 032300Z AUTO 00000KT 2 1/2SM 24/23 A2968 RMK T02400230 IEM_DS3505
ZGKL,2006-06-04 00:00,ZGKL 040000Z AUTO 11002KT 6SM 25/24 A2968 RMK 60004 70079 SLP047 T02460239 52014 IEM_DS3505
ZGKL,2006-06-04 01:00,ZGKL 040100Z AUTO 22002KT 4SM 25/24 A2968 RMK T02500240 IEM_DS3505
ZGKL,2006-06-04 02:00,ZGKL 040200Z AUTO 20006KT 5SM 26/24 A2968 RMK T02600240 IEM_DS3505
ZGKL,2006-06-04 03:00,ZGKL 040300Z AUTO 18002KT 7SM 26/25 A2968 RMK SLP043 T02620246 57004 IEM_DS3505
ZGKL,2006-06-04 04:00,ZGKL 040400Z AUTO 21006KT 7SM 26/24 A2968 RMK T02600240 IEM_DS3505
ZGKL,2006-06-04 05:00,ZGKL 040500Z AUTO 16004KT 5SM 27/25 A2965 RMK T02700250 IEM_DS3505
ZGKL,2006-06-04 06:00,ZGKL 040600Z AUTO 18002KT 6SM 26/24 A2962 RMK 60063 SLP026 T02640243 57017 IEM_DS3505
ZGKL,2006-06-04 07:00,ZGKL 040700Z AUTO 17004KT 4SM 27/25 A2962 RMK T02700250 IEM_DS3505
ZGKL,2006-06-04 08:00,ZGKL 040800Z AUTO 16004KT 4SM 27/25 A2962 RMK T02700250 IEM_DS3505
ZGKL,2006-06-04 09:00,ZGKL 040900Z AUTO 14002KT 7SM 27/25 A2959 RMK SLP013 T02710246 57013 IEM_DS3505
ZGKL,2006-06-04 10:00,ZGKL 041000Z AUTO 05002KT 7SM 27/24 A2959 RMK T02700240 IEM_DS3505
ZGKL,2006-06-04 11:00,ZGKL 041100Z AUTO 04002KT 5SM 27/25 A2962 RMK T02700250 IEM_DS3505
ZGKL,2006-06-04 12:00,ZGKL 041200Z AUTO 36002KT 9SM 26/25 A2962 RMK 60000 SLP025 T02590247 52012 IEM_DS3505
ZGKL,2006-06-04 13:00,ZGKL 041300Z AUTO 01002KT 2 1/2SM 26/25 A2965 RMK T02600250 IEM_DS3505
ZGKL,2006-06-04 14:00,ZGKL 041400Z AUTO 07008KT 2 1/2SM 25/24 A2965 RMK T02500240 IEM_DS3505
ZGKL,2006-06-04 15:00,ZGKL 041500Z AUTO 36006KT 6SM 22/20 A2965 RMK SLP038 T02170205 52012 IEM_DS3505
ZGKL,2006-06-04 16:00,ZGKL 041600Z AUTO 02004KT 2 1/2SM 23/21 A2968 RMK T02300210 IEM_DS3505
ZGKL,2006-06-04 17:00,ZGKL 041700Z AUTO 01006KT 22/21 A2965 RMK T02200210 IEM_DS3505
ZGKL,2006-06-04 18:00,ZGKL 041800Z AUTO 02004KT 7SM 21/20 A2965 RMK 60039 SLP032 T02140199 57006 IEM_DS3505
ZGKL,2006-06-04 19:00,ZGKL 041900Z AUTO 06004KT 21/20 A2962 RMK T02100200 IEM_DS3505
ZGKL,2006-06-04 20:00,ZGKL 042000Z AUTO 09002KT 21/21 A2962 RMK T02100210 IEM_DS3505
ZGKL,2006-06-04 21:00,ZGKL 042100Z AUTO 02006KT 5SM A2962 RMK 70191 SLP025 57007 IEM_DS3505
ZGKL,2006-06-04 22:00,ZGKL 042200Z AUTO 11004KT 1SM 21/20 A2965 RMK T02100200 IEM_DS3505
ZGKL,2006-06-04 23:00,ZGKL 042300Z AUTO 08002KT 2 1/2SM 21/20 A2965 RMK T02100200 IEM_DS3505
ZGKL,2006-06-05 00:00,ZGKL 050000Z AUTO 34002KT 2SM 21/21 A2965 RMK 60205 70307 SLP040 T02090206 52014 IEM_DS3505
ZGKL,2006-06-05 01:00,ZGKL 050100Z AUTO 02002KT 7SM 22/21 A2968 RMK T02200210 IEM_DS3505
ZGKL,2006-06-05 02:00,ZGKL 050200Z AUTO 35002KT 7SM 22/21 A2968 RMK T02200210 IEM_DS3505
ZGKL,2006-06-05 03:00,ZGKL 050300Z AUTO 02004KT 5SM 23/21 A2965 RMK SLP039 T02270213 57001 IEM_DS3505
ZGKL,2006-06-05 04:00,ZGKL 050400Z AUTO 34002KT 7SM 24/22 A2962 RMK T02400220 IEM_DS3505
ZGKL,2006-06-05 05:00,ZGKL 050500Z AUTO 34002KT 7SM 26/23 A2959 RMK T02600230 IEM_DS3505
ZGKL,2006-06-05 06:00,ZGKL 050600Z AUTO 36002KT 5SM 26/23 A2959 RMK 60020 SLP011 T02550232 57027 IEM_DS3505
ZGKL,2006-06-05 07:00,ZGKL 050700Z AUTO 34004KT 7SM 26/24 A2956 RMK T02600240 IEM_DS3505
ZGKL,2006-06-05 08:00,ZGKL 050800Z AUTO 34004KT 5SM 26/24 A2953 RMK T02600240 IEM_DS3505
ZGKL,2006-06-05 09:00,ZGKL 050900Z AUTO 02004KT 7SM 26/24 A2953 RMK SLP996 T02640239 57015 IEM_DS3505
ZGKL,2006-06-05 10:00,ZGKL 051000Z AUTO 33004KT 5SM 26/24 A2956 RMK T02600240 IEM_DS3505
ZGKL,2006-06-05 11:00,ZGKL 051100Z AUTO 33004KT 4SM 26/24 A2956 RMK T02600240 IEM_DS3505
ZGKL,2006-06-05 12:00,ZGKL 051200Z AUTO 02004KT 8SM 25/23 A2956 RMK 60000 SLP009 T02480229 52013 IEM_DS3505
ZGKL,2006-06-05 13:00,ZGKL 051300Z AUTO 00000KT 2 1/2SM 25/24 A2959 RMK T02500240 IEM_DS3505
ZGKL,2006-06-05 14:00,ZGKL 051400Z AUTO 00000KT 2SM 25/24 A2959 RMK T02500240 IEM_DS3505
ZGKL,2006-06-05 15:00,ZGKL 051500Z AUTO 36002KT 7SM 24/22 A2959 RMK SLP017 T02390222 52008 IEM_DS3505
ZGKL,2006-06-05 16:00,ZGKL 051600Z AUTO 00000KT 1 1/2SM 25/24 A2959 RMK T02500240 IEM_DS3505
ZGKL,2006-06-05 17:00,ZGKL 051700Z AUTO 26002KT 25/24 A2959 RMK T02500240 IEM_DS3505
ZGKL,2006-06-05 18:00,ZGKL 051800Z AUTO 34002KT 7SM 23/22 A2959 RMK SLP011 T02330216 57005 IEM_DS3505
ZGKL,2006-06-05 19:00,ZGKL 051900Z AUTO 04002KT 24/23 A2956 RMK T02400230 IEM_DS3505
ZGKL,2006-06-05 20:00,ZGKL 052000Z AUTO 00000KT 24/23 A2956 RMK T02400230 IEM_DS3505
ZGKL,2006-06-05 21:00,ZGKL 052100Z AUTO 02004KT 5SM A2956 RMK 70137 SLP008 57003 IEM_DS3505
ZGKL,2006-06-05 22:00,ZGKL 052200Z AUTO 35002KT 1SM 24/23 A2959 RMK T02400230 IEM_DS3505
ZGKL,2006-06-05 23:00,ZGKL 052300Z AUTO 01002KT 1SM 24/23 A2962 RMK T02400230 IEM_DS3505
ZGKL,2006-06-06 00:00,ZGKL 060000Z AUTO 02002KT 4SM 23/22 A2962 RMK 60001 70020 SLP021 T02300216 52012 IEM_DS3505
ZGKL,2006-06-06 01:00,ZGKL 060100Z AUTO 06002KT 1 1/2SM 26/24 A2962 RMK T02600240 IEM_DS3505
ZGKL,2006-06-06 02:00,ZGKL 060200Z AUTO 05002KT 1 1/2SM 27/24 A2962 RMK T02700240 IEM_DS3505
ZGKL,2006-06-06 03:00,ZGKL 060300Z AUTO 02006KT 6SM 25/22 A2962 RMK SLP026 T02470222 52005 IEM_DS3505
ZGKL,2006-06-06 04:00,ZGKL 060400Z AUTO 10002KT 2 1/2SM 28/24 A2962 RMK T02800240 IEM_DS3505
ZGKL,2006-06-06 05:00,ZGKL 060500Z AUTO 12002KT 3SM 28/24 A2959 RMK T02800240 IEM_DS3505
ZGKL,2006-06-06 06:00,ZGKL 060600Z AUTO 02006KT 8SM 24/22 A2959 RMK 60001 SLP015 T02420221 57011 IEM_DS3505
ZGKL,2006-06-06 07:00,ZGKL 060700Z AUTO 06010KT 4SM 27/22 A2956 RMK T02700220 IEM_DS3505
ZGKL,2006-06-06 08:00,ZGKL 060800Z AUTO 05010KT 2 1/2SM 25/22 A2956 RMK T02500220 IEM_DS3505
ZGKL,2006-06-06 09:00,ZGKL 060900Z AUTO 02006KT 9SM 23/21 A2956 RMK SLP005 T02310214 57010 IEM_DS3505
ZGKL,2006-06-06 10:00,ZGKL 061000Z AUTO 02006KT 4SM 24/22 A2956 RMK T02400220 IEM_DS3505
ZGKL,2006-06-06 11:00,ZGKL 061100Z AUTO 06004KT 4SM 24/22 A2956 RMK T02400220 IEM_DS3505
ZGKL,2006-06-06 12:00,ZGKL 061200Z AUTO 02006KT 9SM 22/21 A2959 RMK 60004 SLP021 T02230208 52015 IEM_DS3505
ZGKL,2006-06-06 13:00,ZGKL 061300Z AUTO 08004KT 2 1/2SM 23/22 A2962 RMK T02300220 IEM_DS3505
ZGKL,2006-06-06 14:00,ZGKL 061400Z AUTO 00000KT 3SM 23/21 A2965 RMK T02300210 IEM_DS3505
ZGKL,2006-06-06 15:00,ZGKL 061500Z AUTO 02004KT 7SM 21/20 A2965 RMK SLP041 T02130205 52020 IEM_DS3505
ZGKL,2006-06-06 16:00,ZGKL 061600Z AUTO 10002KT 1 1/2SM 22/21 A2965 RMK T02200210 IEM_DS3505
ZGKL,2006-06-06 17:00,ZGKL 061700Z AUTO 06002KT 22/21 A2965 RMK T02200210 IEM_DS3505
ZGKL,2006-06-06 18:00,ZGKL 061800Z AUTO 34004KT 6SM 21/20 A2962 RMK 60055 SLP029 T02110201 57012 IEM_DS3505
ZGKL,2006-06-06 19:00,ZGKL 061900Z AUTO 00000KT 21/21 A2962 RMK T02100210 IEM_DS3505
ZGKL,2006-06-06 20:00,ZGKL 062000Z AUTO 01002KT 21/21 A2962 RMK T02100210 IEM_DS3505
ZGKL,2006-06-06 21:00,ZGKL 062100Z AUTO 02004KT 7SM A2962 RMK 70098 SLP022 57007 IEM_DS3505
ZGKL,2006-06-06 22:00,ZGKL 062200Z AUTO 15002KT 2SM 21/21 A2962 RMK T02100210 IEM_DS3505
ZGKL,2006-06-06 23:00,ZGKL 062300Z AUTO 19002KT 1 1/2SM 21/21 A2965 RMK T02100210 IEM_DS3505
ZGKL,2006-06-07 00:00,ZGKL 070000Z AUTO 36004KT 5SM 21/20 A2965 RMK 60067 70129 SLP045 T02100203 52022 IEM_DS3505
ZGKL,2006-06-07 01:00,ZGKL 070100Z AUTO 11002KT 3SM 22/21 A2968 RMK T02200210 IEM_DS3505
ZGKL,2006-06-07 02:00,ZGKL 070200Z AUTO 11002KT 4SM 22/21 A2971 RMK T02200210 IEM_DS3505
ZGKL,2006-06-07 03:00,ZGKL 070300Z AUTO 02004KT 6SM 22/21 A2971 RMK SLP052 T02240207 52007 IEM_DS3505
ZGKL,2006-06-07 04:00,ZGKL 070400Z AUTO 33002KT 4SM 22/21 A2968 RMK T02200210 IEM_DS3505
ZGKL,2006-06-07 05:00,ZGKL 070500Z AUTO 07002KT 5SM 23/21 A2965 RMK T02300210 IEM_DS3505
ZGKL,2006-06-07 06:00,ZGKL 070600Z AUTO 36004KT 3SM 22/21 A2968 RMK 60055 SLP038 T02210209 57014 IEM_DS3505
ZGKL,2006-06-07 07:00,ZGKL 070700Z AUTO 13002KT 2 1/2SM 22/21 A2965 RMK T02200210 IEM_DS3505
ZGKL,2006-06-07 08:00,ZGKL 070800Z AUTO 00000KT 4SM 22/21 A2962 RMK T02200210 IEM_DS3505
ZGKL,2006-06-07 09:00,ZGKL 070900Z AUTO 36004KT 5SM 23/22 A2962 RMK SLP028 T02300215 57009 IEM_DS3505
ZGKL,2006-06-07 10:00,ZGKL 071000Z AUTO 13002KT 5SM 22/21 A2965 RMK T02200210 IEM_DS3505
ZGKL,2006-06-07 11:00,ZGKL 071100Z AUTO 10002KT 5SM 23/21 A2965 RMK T02300210 IEM_DS3505
ZGKL,2006-06-07 12:00,ZGKL 071200Z AUTO 00000KT 2 1/2SM 22/22 A2968 RMK 60102 SLP041 T02240216 52012 IEM_DS3505
ZGKL,2006-06-07 13:00,ZGKL 071300Z AUTO 00000KT 3SM 22/21 A2968 RMK T02200210 IEM_DS3505
ZGKL,2006-06-07 14:00,ZGKL 071400Z AUTO 31002KT 2 1/2SM 22/22 A2968 RMK T02200220 IEM_DS3505
ZGKL,2006-06-07 15:00,ZGKL 071500Z AUTO 00000KT 2 1/2SM 22/21 A2971 RMK SLP054 T02220214 52013 IEM_DS3505
ZGKL,2006-06-07 16:00,ZGKL 071600Z AUTO 00000KT 2 1/2SM 22/22 A2971 RMK T02200220 IEM_DS3505
ZGKL,2006-06-07 17:00,ZGKL 071700Z AUTO 00000KT 2SM 22/21 A2968 RMK T02200210 IEM_DS3505
ZGKL,2006-06-07 18:00,ZGKL 071800Z AUTO 16002KT 2 1/2SM 22/21 A2965 RMK 60000 SLP038 T02200213 57015 IEM_DS3505
ZGKL,2006-06-07 19:00,ZGKL 071900Z AUTO 00000KT 22/21 A2965 RMK T02200210 IEM_DS3505
ZGKL,2006-06-07 20:00,ZGKL 072000Z AUTO 00000KT 22/21 A2962 RMK T02200210 IEM_DS3505
ZGKL,2006-06-07 21:00,ZGKL 072100Z AUTO 32002KT 2 1/2SM 22/21 A2962 RMK 70189 SLP028 T02160213 57010 IEM_DS3505
ZGKL,2006-06-07 22:00,ZGKL 072200Z AUTO 14002KT 1/8SM 22/21 A2962 RMK T02200210 IEM_DS3505
ZGKL,2006-06-07 23:00,ZGKL 072300Z AUTO 00000KT 1/8SM 22/21 A2965 RMK T02200210 IEM_DS3505
ZGKL,2006-06-08 00:00,ZGKL 080000Z AUTO 05002KT 2SM 23/21 A2965 RMK 70158 SLP038 T02270212 52010 IEM_DS3505
ZGKL,2006-06-08 01:00,ZGKL 080100Z AUTO 00000KT 2 1/2SM 23/22 A2968 RMK T02300220 IEM_DS3505
ZGKL,2006-06-08 02:00,ZGKL 080200Z AUTO 17002KT 4SM 24/22 A2968 RMK T02400220 IEM_DS3505
ZGKL,2006-06-08 03:00,ZGKL 080300Z AUTO 09004KT 4SM 27/21 A2968 RMK SLP038 T02720213 52001 IEM_DS3505
ZGKL,2006-06-08 04:00,ZGKL 080400Z AUTO 17004KT 7SM 28/20 A2965 RMK T02800200 IEM_DS3505
ZGKL,2006-06-08 05:00,ZGKL 080500Z AUTO 19004KT 7SM 29/21 A2962 RMK T02900210 IEM_DS3505
ZGKL,2006-06-08 06:00,ZGKL 080600Z AUTO 29004KT 9SM 30/20 A2959 RMK SLP013 T03010204 57023 IEM_DS3505
ZGKL,2006-06-08 07:00,ZGKL 080700Z AUTO 22002KT 6SM 28/23 A2959 RMK T02800230 IEM_DS3505
ZGKL,2006-06-08 08:00,ZGKL 080800Z AUTO 17004KT 6SM 29/22 A2956 RMK T02900220 IEM_DS3505
ZGKL,2006-06-08 09:00,ZGKL 080900Z AUTO 27002KT 8SM 29/21 A2956 RMK SLP998 T02920214 57016 IEM_DS3505
ZGKL,2006-06-08 10:00,ZGKL 081000Z AUTO 17006KT 6SM 28/22 A2956 RMK T02800220 IEM_DS3505
ZGKL,2006-06-08 11:00,ZGKL 081100Z AUTO 17006KT 5SM 27/23 A2956 RMK T02700230 IEM_DS3505
ZGKL,2006-06-08 12:00,ZGKL 081200Z AUTO 25002KT 9SM 27/22 A2959 RMK SLP011 T02730218 52013 IEM_DS3505
ZGKL,2006-06-08 13:00,ZGKL 081300Z AUTO 17006KT 4SM 25/22 A2959 RMK T02500220 IEM_DS3505
ZGKL,2006-06-08 14:00,ZGKL 081400Z AUTO 19004KT 3SM 25/23 A2962 RMK T02500230 IEM_DS3505
ZGKL,2006-06-08 15:00,ZGKL 081500Z AUTO 32002KT 7SM 25/23 RMK SLP027 T02500232 52016 IEM_DS3505
ZGKL,2006-06-08 16:00,ZGKL 081600Z AUTO 20004KT 2SM 24/22 A2962 RMK T02400220 IEM_DS3505
ZGKL,2006-06-08 17:00,ZGKL 081700Z AUTO 00000KT 24/23 A2962 RMK T02400230 IEM_DS3505
ZGKL,2006-06-08 18:00,ZGKL 081800Z AUTO 02002KT 7SM 24/23 A2959 RMK SLP015 T02370229 57011 IEM_DS3505
ZGKL,2006-06-08 19:00,ZGKL 081900Z AUTO 00000KT 24/23 A2959 RMK T02400230 IEM_DS3505
ZGKL,2006-06-08 20:00,ZGKL 082000Z AUTO 01002KT 23/22 A2959 RMK T02300220 IEM_DS3505
ZGKL,2006-06-08 21:00,ZGKL 082100Z AUTO 04002KT 6SM A2956 RMK SLP007 57008 IEM_DS3505
ZGKL,2006-06-08 22:00,ZGKL 082200Z AUTO 29002KT 1SM 23/22 A2956 RMK T02300220 IEM_DS3505
ZGKL,2006-06-08 23:00,ZGKL 082300Z AUTO 00000KT 1SM 23/23 A2959 RMK T02300230 IEM_DS3505
ZGKL,2006-06-09 00:00,ZGKL 090000Z AUTO 04002KT 3SM 24/23 A2959 RMK SLP014 T02430229 52006 IEM_DS3505
ZGKL,2006-06-09 01:00,ZGKL 090100Z AUTO 32002KT 1 1/4SM 25/23 A2962 RMK T02500230 IEM_DS3505
ZGKL,2006-06-09 02:00,ZGKL 090200Z AUTO 00000KT 2SM 25/23 A2962 RMK T02500230 IEM_DS3505
ZGKL,2006-06-09 03:00,ZGKL 090300Z AUTO 14002KT 2SM 26/23 A2962 RMK SLP019 T02580227 52005 IEM_DS3505
ZGKL,2006-06-09 04:00,ZGKL 090400Z AUTO 25002KT 3SM 27/23 A2959 RMK T02700230 IEM_DS3505
ZGKL,2006-06-09 05:00,ZGKL 090500Z AUTO 00000KT 3SM 28/23 A2959 RMK T02800230 IEM_DS3505
ZGKL,2006-06-09 06:00,ZGKL 090600Z AUTO 02002KT 2 1/2SM 28/22 A2956 RMK SLP005 T02780225 57013 IEM_DS3505
ZGKL,2006-06-09 07:00,ZGKL 090700Z AUTO 29002KT 4SM 28/23 A2956 RMK T02800230 IEM_DS3505
ZGKL,2006-06-09 08:00,ZGKL 090800Z AUTO 27002KT 4SM 28/23 A2956 RMK T02800230 IEM_DS3505
ZGKL,2006-06-09 09:00,ZGKL 090900Z AUTO 07002KT 2 1/2SM 27/23 A2956 RMK SLP000 T02690234 57006 IEM_DS3505
ZGKL,2006-06-09 10:00,ZGKL 091000Z AUTO 31002KT 4SM 28/24 A2956 RMK T02800240 IEM_DS3505
ZGKL,2006-06-09 11:00,ZGKL 091100Z AUTO 18002KT 4SM 27/24 A2959 RMK T02700240 IEM_DS3505
ZGKL,2006-06-09 12:00,ZGKL 091200Z AUTO 07002KT 2 1/2SM 26/24 A2959 RMK SLP014 T02580237 52014 IEM_DS3505
ZGKL,2006-06-09 13:00,ZGKL 091300Z AUTO 18002KT 1 1/2SM 25/24 A2962 RMK T02500240 IEM_DS3505
ZGKL,2006-06-09 14:00,ZGKL 091400Z AUTO 21002KT 1 1/2SM 25/23 A2962 RMK T02500230 IEM_DS3505
ZGKL,2006-06-09 15:00,ZGKL 091500Z AUTO 34002KT 2 1/2SM 24/22 A2965 RMK SLP030 T02410222 52016 IEM_DS3505
ZGKL,2006-06-09 16:00,ZGKL 091600Z AUTO 20004KT 2SM 24/23 A2962 RMK T02400230 IEM_DS3505
ZGKL,2006-06-09 17:00,ZGKL 091700Z AUTO 20002KT 24/23 A2962 RMK T02400230 IEM_DS3505
ZGKL,2006-06-09 18:00,ZGKL 091800Z AUTO 02004KT 2 1/2SM 23/22 A2962 RMK SLP022 T02330217 57008 IEM_DS3505
ZGKL,2006-06-09 19:00,ZGKL 091900Z AUTO 29002KT 23/22 A2962 RMK T02300220 IEM_DS3505
ZGKL,2006-06-09 20:00,ZGKL 092000Z AUTO 00000KT 23/22 A2962 RMK T02300220 IEM_DS3505
ZGKL,2006-06-09 21:00,ZGKL 092100Z AUTO 36002KT 2 1/2SM A2962 RMK SLP023 52001 IEM_DS3505
ZGKL,2006-06-09 22:00,ZGKL 092200Z AUTO 00000KT 1/2SM 23/22 A2962 RMK T02300220 IEM_DS3505
ZGKL,2006-06-09 23:00,ZGKL 092300Z AUTO 36002KT 1SM 23/22 A2965 RMK T02300220 IEM_DS3505
ZGKL,2006-06-10 00:00,ZGKL 100000Z AUTO 09002KT 2 1/2SM 24/23 A2965 RMK SLP036 T02430226 52013 IEM_DS3505
ZGKL,2006-06-10 01:00,ZGKL 100100Z AUTO 00000KT 1 1/2SM 25/22 A2968 RMK T02500220 IEM_DS3505
ZGKL,2006-06-10 02:00,ZGKL 100200Z AUTO 19002KT 3SM 26/23 A2968 RMK T02600230 IEM_DS3505
ZGKL,2006-06-10 03:00,ZGKL 100300Z AUTO 20002KT 3SM 28/22 A2965 RMK SLP036 T02790224 54000 IEM_DS3505
ZGKL,2006-06-10 04:00,ZGKL 100400Z AUTO 18006KT 4SM 30/23 A2965 RMK T03000230 IEM_DS3505
ZGKL,2006-06-10 05:00,ZGKL 100500Z AUTO 17006KT 5SM 31/23 A2962 RMK T03100230 IEM_DS3505
ZGKL,2006-06-10 06:00,ZGKL 100600Z AUTO 16004KT 4SM 31/23 A2959 RMK SLP015 T03120228 57020 IEM_DS3505
ZGKL,2006-06-10 07:00,ZGKL 100700Z AUTO 17010KT 5SM 32/23 A2959 RMK T03200230 IEM_DS3505
ZGKL,2006-06-10 08:00,ZGKL 100800Z AUTO 17010KT 5SM 32/24 A2956 RMK T03200240 IEM_DS3505
ZGKL,2006-06-10 09:00,ZGKL 100900Z AUTO 18004KT 7SM 33/21 A2956 RMK SLP999 T03310210 57015 IEM_DS3505
ZGKL,2006-06-10 10:00,ZGKL 101000Z AUTO 17012KT 4SM 31/24 A2956 RMK T03100240 IEM_DS3505
ZGKL,2006-06-10 11:00,ZGKL 101100Z AUTO 18012KT 3SM 29/24 A2959 RMK T02900240 IEM_DS3505
ZGKL,2006-06-10 12:00,ZGKL 101200Z AUTO 25002KT 9SM 29/22 A2962 RMK SLP017 T02890224 52017 IEM_DS3505
ZGKL,2006-06-10 13:00,ZGKL 101300Z AUTO 17012KT 2SM 27/23 A2965 RMK T02700230 IEM_DS3505
ZGKL,2006-06-10 14:00,ZGKL 101400Z AUTO 19008KT 1 1/2SM 26/23 A2968 RMK T02600230 IEM_DS3505
ZGKL,2006-06-10 15:00,ZGKL 101500Z AUTO 22006KT 8SM 28/22 A2968 RMK SLP046 T02770222 52029 IEM_DS3505
ZGKL,2006-06-10 16:00,ZGKL 101600Z AUTO 17008KT 1 1/2SM 26/23 A2968 RMK T02600230 IEM_DS3505
ZGKL,2006-06-10 17:00,ZGKL 101700Z AUTO 17006KT 25/23 A2971 RMK T02500230 IEM_DS3505
ZGKL,2006-06-10 18:00,ZGKL 101800Z AUTO 11002KT 7SM 25/23 A2968 RMK SLP044 T02510228 57002 IEM_DS3505
ZGKL,2006-06-10 19:00,ZGKL 101900Z AUTO 32002KT 23/22 A2968 RMK T02300220 IEM_DS3505
ZGKL,2006-06-10 20:00,ZGKL 102000Z AUTO 00000KT 23/22 A2968 RMK T02300220 IEM_DS3505
ZGKL,2006-06-10 21:00,ZGKL 102100Z AUTO 16002KT 7SM A2968 RMK SLP044 52001 IEM_DS3505
ZGKL,2006-06-10 22:00,ZGKL 102200Z AUTO 36002KT 1SM 23/22 A2971 RMK T02300220 IEM_DS3505
ZGKL,2006-06-10 23:00,ZGKL 102300Z AUTO 34002KT 1 1/4SM 23/22 A2971 RMK T02300220 IEM_DS3505
ZGKL,2006-06-11 00:00,ZGKL 110000Z AUTO 16002KT 2 1/2SM 26/23 A2971 RMK SLP052 T02570234 52007 IEM_DS3505
ZGKL,2006-06-11 01:00,ZGKL 110100Z AUTO 00000KT 1 1/4SM 25/24 A2974 RMK T02500240 IEM_DS3505
ZGKL,2006-06-11 02:00,ZGKL 110200Z AUTO 19002KT 1 1/2SM 27/23 A2974 RMK T02700230 IEM_DS3505
ZGKL,2006-06-11 03:00,ZGKL 110300Z AUTO 14004KT 4SM 28/23 A2974 RMK SLP061 T02850230 52009 IEM_DS3505
ZGKL,2006-06-11 04:00,ZGKL 110400Z AUTO 12004KT 2 1/2SM 29/21 A2971 RMK T02900210 IEM_DS3505
ZGKL,2006-06-11 05:00,ZGKL 110500Z AUTO 08002KT 3SM 31/22 A2971 RMK T03100220 IEM_DS3505
ZGKL,2006-06-11 06:00,ZGKL 110600Z AUTO 14004KT 4SM 32/21 A2968 RMK SLP040 T03180213 57020 IEM_DS3505
ZGKL,2006-06-11 07:00,ZGKL 110700Z AUTO 03002KT 3SM 32/21 A2965 RMK T03200210 IEM_DS3505
ZGKL,2006-06-11 08:00,ZGKL 110800Z AUTO 00000KT 4SM 31/21 A2965 RMK T03100210 IEM_DS3505
ZGKL,2006-06-11 09:00,ZGKL 110900Z AUTO 07004KT 4SM 31/22 A2965 RMK SLP024 T03080219 57017 IEM_DS3505
ZGKL,2006-06-11 10:00,ZGKL 111000Z AUTO 06002KT 4SM 31/20 A2965 RMK T03100200 IEM_DS3505
ZGKL,2006-06-11 11:00,ZGKL 111100Z AUTO 30002KT 3SM 29/24 A2965 RMK T02900240 IEM_DS3505
ZGKL,2006-06-11 12:00,ZGKL 111200Z AUTO 07004KT 4SM 29/24 A2965 RMK SLP036 T02860240 52012 IEM_DS3505
ZGKL,2006-06-11 13:00,ZGKL 111300Z AUTO 26002KT 2SM 26/24 A2968 RMK T02600240 IEM_DS3505
ZGKL,2006-06-11 14:00,ZGKL 111400Z AUTO 00000KT 2SM 26/23 A2971 RMK T02600230 IEM_DS3505
ZGKL,2006-06-11 15:00,ZGKL 111500Z AUTO 31002KT 4SM 27/23 A2971 RMK SLP049 T02670232 52013 IEM_DS3505
ZGKL,2006-06-11 16:00,ZGKL 111600Z AUTO 00000KT 25/23 A2971 RMK T02500230 IEM_DS3505
ZGKL,2006-06-11 17:00,ZGKL 111700Z AUTO 29002KT 25/24 A2971 RMK T02500240 IEM_DS3505
ZGKL,2006-06-11 18:00,ZGKL 111800Z AUTO 07002KT 4SM 25/22 A2968 RMK SLP045 T02540225 57003 IEM_DS3505
ZGKL,2006-06-11 19:00,ZGKL 111900Z AUTO 35002KT 24/23 A2968 RMK T02400230 IEM_DS3505
ZGKL,2006-06-11 20:00,ZGKL 112000Z AUTO 29002KT 24/23 A2968 RMK T02400230 IEM_DS3505
ZGKL,2006-06-11 21:00,ZGKL 112100Z AUTO 04002KT 4SM A2968 RMK 70000 SLP043 57003 IEM_DS3505
ZGKL,2006-06-11 22:00,ZGKL 112200Z AUTO 30002KT 1 1/2SM 24/22 A2968 RMK T02400220 IEM_DS3505
ZGKL,2006-06-11 23:00,ZGKL 112300Z AUTO 32002KT 1 1/4SM 24/23 A2971 RMK T02400230 IEM_DS3505
ZGKL,2006-06-12 00:00,ZGKL 120000Z AUTO 36002KT 4SM 25/23 A2971 RMK 60000 70000 SLP052 T02500227 52008 IEM_DS3505
ZGKL,2006-06-12 01:00,ZGKL 120100Z AUTO 35004KT 1 1/2SM 25/23 A2971 RMK T02500230 IEM_DS3505
ZGKL,2006-06-12 02:00,ZGKL 120200Z AUTO 32004KT 1 1/2SM 26/23 A2971 RMK T02600230 IEM_DS3505
ZGKL,2006-06-12 03:00,ZGKL 120300Z AUTO 04004KT 2 1/2SM 26/23 A2971 RMK SLP052 T02650230 54000 IEM_DS3505
ZGKL,2006-06-12 04:00,ZGKL 120400Z AUTO 31002KT 1 1/2SM 26/23 A2971 RMK T02600230 IEM_DS3505
ZGKL,2006-06-12 05:00,ZGKL 120500Z AUTO 34004KT 1 1/2SM 27/23 A2968 RMK T02700230 IEM_DS3505
ZGKL,2006-06-12 06:00,ZGKL 120600Z AUTO 07002KT 6SM 27/21 A2968 RMK 60000 SLP039 T02740214 57013 IEM_DS3505
ZGKL,2006-06-12 07:00,ZGKL 120700Z AUTO 35004KT 1 1/2SM 26/23 A2965 RMK T02600230 IEM_DS3505
ZGKL,2006-06-12 08:00,ZGKL 120800Z AUTO 36006KT 1 1/4SM 26/23 A2965 RMK T02600230 IEM_DS3505
ZGKL,2006-06-12 09:00,ZGKL 120900Z AUTO 36004KT 4SM 25/21 A2965 RMK SLP034 T02500207 57006 IEM_DS3505
ZGKL,2006-06-12 10:00,ZGKL 121000Z AUTO 36006KT 1 1/4SM 23/22 A2965 RMK T02300220 IEM_DS3505
ZGKL,2006-06-12 11:00,ZGKL 121100Z AUTO 01008KT 1 1/4SM 23/21 A2968 RMK T02300210 IEM_DS3505
ZGKL,2006-06-12 12:00,ZGKL 121200Z AUTO 36004KT 4SM 23/21 A2968 RMK 60016 SLP044 T02280213 52010 IEM_DS3505
ZGKL,2006-06-12 13:00,ZGKL 121300Z AUTO 33002KT 1SM 22/21 A2971 RMK T02200210 IEM_DS3505
ZGKL,2006-06-12 14:00,ZGKL 121400Z AUTO 01006KT 1SM 22/21 A2971 RMK T02200210 IEM_DS3505
ZGKL,2006-06-12 15:00,ZGKL 121500Z AUTO 02006KT 3SM 22/20 A2971 RMK SLP056 T02150203 52012 IEM_DS3505
ZGKL,2006-06-12 16:00,ZGKL 121600Z AUTO 00000KT 22/21 A2971 RMK T02200210 IEM_DS3505
ZGKL,2006-06-12 17:00,ZGKL 121700Z AUTO 02004KT 22/21 A2971 RMK T02200210 IEM_DS3505
ZGKL,2006-06-12 18:00,ZGKL 121800Z AUTO 34006KT 3SM 21/20 A2968 RMK 60126 SLP046 T02110204 57010 IEM_DS3505
ZGKL,2006-06-12 19:00,ZGKL 121900Z AUTO 35002KT 22/21 A2968 RMK T02200210 IEM_DS3505
ZGKL,2006-06-12 20:00,ZGKL 122000Z AUTO 00000KT 2SM 22/21 A2968 RMK T02200210 IEM_DS3505
ZGKL,2006-06-12 21:00,ZGKL 122100Z AUTO 04002KT 2 1/2SM 21/20 A2968 RMK 70205 SLP041 T02100205 57006 IEM_DS3505
ZGKL,2006-06-12 22:00,ZGKL 122200Z AUTO 00000KT 2SM 22/21 A2968 RMK T02200210 IEM_DS3505
ZGKL,2006-06-12 23:00,ZGKL 122300Z AUTO 07002KT 1 1/4SM 22/21 A2968 RMK T02200210 IEM_DS3505
ZGKL,2006-06-13 00:00,ZGKL 130000Z AUTO 02002KT 4SM 22/21 A2968 RMK 60071 70211 SLP047 T02150208 52006 IEM_DS3505
ZGKL,2006-06-13 01:00,ZGKL 130100Z AUTO 14002KT 1 1/2SM 22/21 A2968 RMK T02200210 IEM_DS3505
ZGKL,2006-06-13 02:00,ZGKL 130200Z AUTO 00000KT 1 1/2SM 23/21 A2968 RMK T02300210 IEM_DS3505
ZGKL,2006-06-13 03:00,ZGKL 130300Z AUTO 32002KT 4SM 23/22 A2968 RMK SLP049 T02320215 52002 IEM_DS3505
ZGKL,2006-06-13 04:00,ZGKL 130400Z AUTO 01002KT 2SM 23/22 A2968 RMK T02300220 IEM_DS3505
ZGKL,2006-06-13 05:00,ZGKL 130500Z AUTO 34004KT 1 1/2SM 23/22 A2965 RMK T02300220 IEM_DS3505
ZGKL,2006-06-13 06:00,ZGKL 130600Z AUTO 02002KT 2SM 23/23 A2965 RMK 60008 SLP033 T02340226 57016 IEM_DS3505
ZGKL,2006-06-13 07:00,ZGKL 130700Z AUTO 32002KT 2 1/2SM 25/23 A2962 RMK T02500230 IEM_DS3505
ZGKL,2006-06-13 08:00,ZGKL 130800Z AUTO 00000KT 2SM 26/23 A2962 RMK T02600230 IEM_DS3505
ZGKL,2006-06-13 09:00,ZGKL 130900Z AUTO 02002KT 2 1/2SM 26/24 A2959 RMK SLP017 T02590238 57015 IEM_DS3505
ZGKL,2006-06-13 10:00,ZGKL 131000Z AUTO 35004KT 2SM 26/24 A2959 RMK T02600240 IEM_DS3505
ZGKL,2006-06-13 11:00,ZGKL 131100Z AUTO 34002KT 2SM 26/24 A2962 RMK T02600240 IEM_DS3505
ZGKL,2006-06-13 12:00,ZGKL 131200Z AUTO 34002KT 2 1/2SM 25/24 A2965 RMK SLP025 T02540240 52008 IEM_DS3505
ZGKL,2006-06-13 13:00,ZGKL 131300Z AUTO 13004KT 1 1/2SM 24/23 A2965 RMK T02400230 IEM_DS3505
ZGKL,2006-06-13 14:00,ZGKL 131400Z AUTO 00000KT 1 1/2SM 24/23 A2968 RMK T02400230 IEM_DS3505
ZGKL,2006-06-13 15:00,ZGKL 131500Z AUTO 02002KT 2 1/2SM 24/23 A2968 RMK SLP045 T02380233 52019 IEM_DS3505
ZGKL,2006-06-13 16:00,ZGKL 131600Z AUTO 00000KT 1 1/4SM 24/23 A2968 RMK T02400230 IEM_DS3505
ZGKL,2006-06-13 17:00,ZGKL 131700Z AUTO 00000KT 1 1/2SM 24/23 A2968 RMK T02400230 IEM_DS3505
ZGKL,2006-06-13 18:00,ZGKL 131800Z AUTO 18002KT 2 1/2SM 24/23 A2968 RMK 60256 SLP037 T02360233 57007 IEM_DS3505
ZGKL,2006-06-13 19:00,ZGKL 131900Z AUTO 03002KT 1 1/2SM 24/23 A2965 RMK T02400230 IEM_DS3505
ZGKL,2006-06-13 20:00,ZGKL 132000Z AUTO 04002KT 1 1/2SM 23/22 A2968 RMK T02300220 IEM_DS3505
ZGKL,2006-06-13 21:00,ZGKL 132100Z AUTO 14002KT 3SM 23/23 A2968 RMK 70352 SLP041 T02340231 52004 IEM_DS3505
ZGKL,2006-06-13 22:00,ZGKL 132200Z AUTO 36004KT 1 1/4SM 23/22 A2968 RMK T02300220 IEM_DS3505
ZGKL,2006-06-13 23:00,ZGKL 132300Z AUTO 11002KT 1 1/4SM 23/22 A2971 RMK T02300220 IEM_DS3505
ZGKL,2006-06-14 00:00,ZGKL 140000Z AUTO 32002KT 2SM 23/22 A2971 RMK 60157 70421 SLP057 T02280223 52016 IEM_DS3505
ZGKL,2006-06-14 01:00,ZGKL 140100Z AUTO 00000KT 7SM 23/22 A2971 RMK T02300220 IEM_DS3505
ZGKL,2006-06-14 02:00,ZGKL 140200Z AUTO 00000KT 7SM 24/22 A2971 RMK T02400220 IEM_DS3505
ZGKL,2006-06-14 03:00,ZGKL 140300Z AUTO 14002KT 5SM 25/23 A2971 RMK SLP052 T02500227 57005 IEM_DS3505
ZGKL,2006-06-14 04:00,ZGKL 140400Z AUTO 18004KT 7SM 26/23 A2971 RMK T02600230 IEM_DS3505
ZGKL,2006-06-14 05:00,ZGKL 140500Z AUTO 17004KT 7SM 26/23 A2968 RMK T02600230 IEM_DS3505
ZGKL,2006-06-14 06:00,ZGKL 140600Z AUTO 18006KT 5SM 27/23 A2968 RMK 60002 SLP045 T02690234 57006 IEM_DS3505
ZGKL,2006-06-14 07:00,ZGKL 140700Z AUTO 17004KT 7SM 27/23 A2968 RMK T02700230 IEM_DS3505
ZGKL,2006-06-14 08:00,ZGKL 140800Z AUTO 19004KT 7SM 27/23 A2968 RMK T02700230 IEM_DS3505
ZGKL,2006-06-14 09:00,ZGKL 140900Z AUTO 18004KT 7SM 27/23 A2965 RMK SLP033 T02720230 57012 IEM_DS3505
ZGKL,2006-06-14 10:00,ZGKL 141000Z AUTO 21002KT 7SM 27/23 A2968 RMK T02700230 IEM_DS3505
ZGKL,2006-06-14 11:00,ZGKL 141100Z AUTO 15002KT 7SM 26/23 A2968 RMK T02600230 IEM_DS3505
ZGKL,2006-06-14 12:00,ZGKL 141200Z AUTO 04004KT 6SM 25/22 A2968 RMK 60000 SLP046 T02480223 52012 IEM_DS3505
ZGKL,2006-06-14 13:00,ZGKL 141300Z AUTO 06004KT 4SM 26/22 A2971 RMK T02600220 IEM_DS3505
ZGKL,2006-06-14 14:00,ZGKL 141400Z AUTO 06004KT 4SM 25/23 A2971 RMK T02500230 IEM_DS3505
ZGKL,2006-06-14 15:00,ZGKL 141500Z AUTO 02002KT 6SM 24/22 A2974 RMK SLP059 T02450220 52013 IEM_DS3505
ZGKL,2006-06-14 16:00,ZGKL 141600Z AUTO 00000KT 4SM 25/23 A2971 RMK T02500230 IEM_DS3505
ZGKL,2006-06-14 17:00,ZGKL 141700Z AUTO 00000KT 24/23 A2971 RMK T02400230 IEM_DS3505
ZGKL,2006-06-14 18:00,ZGKL 141800Z AUTO 32002KT 6SM 24/22 A2971 RMK 60000 SLP049 T02400223 57009 IEM_DS3505
ZGKL,2006-06-14 19:00,ZGKL 141900Z AUTO 00000KT 24/23 A2971 RMK T02400230 IEM_DS3505
ZGKL,2006-06-14 20:00,ZGKL 142000Z AUTO 14002KT 24/23 A2971 RMK T02400230 IEM_DS3505
ZGKL,2006-06-14 21:00,ZGKL 142100Z AUTO 11002KT 6SM 23/22 A2971 RMK 70078 SLP051 T02340222 52001 IEM_DS3505
ZGKL,2006-06-14 22:00,ZGKL 142200Z AUTO 13002KT 2SM 24/22 A2971 RMK T02400220 IEM_DS3505
ZGKL,2006-06-14 23:00,ZGKL 142300Z AUTO 00000KT 2SM 24/23 A2974 RMK T02400230 IEM_DS3505
ZGKL,2006-06-15 00:00,ZGKL 150000Z AUTO 07002KT 2 1/2SM 25/22 A2974 RMK 70002 SLP062 T02460225 52011 IEM_DS3505
ZGKL,2006-06-15 01:00,ZGKL 150100Z AUTO 33002KT 2 1/2SM 26/23 A2974 RMK T02600230 IEM_DS3505
ZGKL,2006-06-15 02:00,ZGKL 150200Z AUTO 21002KT 4SM 27/23 A2974 RMK T02700230 IEM_DS3505
ZGKL,2006-06-15 03:00,ZGKL 150300Z AUTO 18004KT 4SM 27/22 A2971 RMK SLP053 T02680222 57008 IEM_DS3505
ZGKL,2006-06-15 04:00,ZGKL 150400Z AUTO 18004KT 4SM 28/23 A2971 RMK T02800230 IEM_DS3505
ZGKL,2006-06-15 05:00,ZGKL 150500Z AUTO 16004KT 4SM 29/23 A2968 RMK T02900230 IEM_DS3505
ZGKL,2006-06-15 06:00,ZGKL 150600Z AUTO 18004KT 6SM 30/23 A2965 RMK SLP036 T02960226 57016 IEM_DS3505
ZGKL,2006-06-15 07:00,ZGKL 150700Z AUTO 14004KT 4SM 30/23 A2965 RMK T03000230 IEM_DS3505
ZGKL,2006-06-15 08:00,ZGKL 150800Z AUTO 15002KT 4SM 30/23 A2962 RMK T03000230 IEM_DS3505
ZGKL,2006-06-15 09:00,ZGKL 150900Z AUTO 14004KT 8SM 31/22 A2962 RMK SLP018 T03060219 57018 IEM_DS3505
ZGKL,2006-06-15 10:00,ZGKL 151000Z AUTO 11004KT 4SM 29/24 A2962 RMK T02900240 IEM_DS3505
ZGKL,2006-06-15 11:00,ZGKL 151100Z AUTO 11004KT 4SM 29/24 A2962 RMK T02900240 IEM_DS3505
ZGKL,2006-06-15 12:00,ZGKL 151200Z AUTO 18004KT 7SM 28/23 A2965 RMK SLP027 T02840231 52009 IEM_DS3505
ZGKL,2006-06-15 13:00,ZGKL 151300Z AUTO 00000KT 4SM 27/25 A2965 RMK T02700250 IEM_DS3505
ZGKL,2006-06-15 14:00,ZGKL 151400Z AUTO 00000KT 2 1/2SM 26/25 A2965 RMK T02600250 IEM_DS3505
ZGKL,2006-06-15 15:00,ZGKL 151500Z AUTO 29002KT 7SM 27/24 A2968 RMK SLP039 T02700237 52012 IEM_DS3505
ZGKL,2006-06-15 16:00,ZGKL 151600Z AUTO 19002KT 2 1/2SM 26/24 A2968 RMK T02600240 IEM_DS3505
ZGKL,2006-06-15 17:00,ZGKL 151700Z AUTO 23002KT 25/24 A2968 RMK T02500240 IEM_DS3505
ZGKL,2006-06-15 18:00,ZGKL 151800Z AUTO 27002KT 7SM 25/24 A2968 RMK SLP036 T02520238 57003 IEM_DS3505
ZGKL,2006-06-15 19:00,ZGKL 151900Z AUTO 14002KT 25/24 A2968 RMK T02500240 IEM_DS3505
ZGKL,2006-06-15 20:00,ZGKL 152000Z AUTO 00000KT 25/24 A2965 RMK T02500240 IEM_DS3505
ZGKL,2006-06-15 21:00,ZGKL 152100Z AUTO 14002KT 6SM A2965 RMK SLP035 57001 IEM_DS3505
ZGKL,2006-06-15 22:00,ZGKL 152200Z AUTO 00000KT 1 1/2SM 24/23 A2965 RMK T02400230 IEM_DS3505
ZGKL,2006-06-15 23:00,ZGKL 152300Z AUTO 00000KT 1 1/4SM 25/24 A2968 RMK T02500240 IEM_DS3505
ZGKL,2006-06-16 00:00,ZGKL 160000Z AUTO 07002KT 5SM 26/24 A2968 RMK 60002 70002 SLP043 T02560244 52008 IEM_DS3505
ZGKL,2006-06-16 01:00,ZGKL 160100Z AUTO 02002KT 2SM 27/24 A2968 RMK T02700240 IEM_DS3505
ZGKL,2006-06-16 02:00,ZGKL 160200Z AUTO 12002KT 2SM 27/24 A2971 RMK T02700240 IEM_DS3505
ZGKL,2006-06-16 03:00,ZGKL 160300Z AUTO 07002KT 5SM 28/24 A2968 RMK SLP043 T02770245 54000 IEM_DS3505
ZGKL,2006-06-16 04:00,ZGKL 160400Z AUTO 17004KT 3SM 28/24 A2968 RMK T02800240 IEM_DS3505
ZGKL,2006-06-16 05:00,ZGKL 160500Z AUTO 20002KT 3SM 28/25 A2965 RMK T02800250 IEM_DS3505
ZGKL,2006-06-16 06:00,ZGKL 160600Z AUTO 34002KT 2 1/2SM 30/25 A2965 RMK 60012 SLP030 T02960254 57013 IEM_DS3505
ZGKL,2006-06-16 07:00,ZGKL 160700Z AUTO 24002KT 5SM 30/25 A2962 RMK T03000250 IEM_DS3505
ZGKL,2006-06-16 08:00,ZGKL 160800Z AUTO 19002KT 5SM 30/25 A2962 RMK T03000250 IEM_DS3505
ZGKL,2006-06-16 09:00,ZGKL 160900Z AUTO 11002KT 4SM 30/26 A2959 RMK SLP014 T02980258 57015 IEM_DS3505
ZGKL,2006-06-16 10:00,ZGKL 161000Z AUTO 17006KT 4SM 30/25 A2959 RMK T03000250 IEM_DS3505
ZGKL,2006-06-16 11:00,ZGKL 161100Z AUTO 13002KT 4SM 30/25 A2962 RMK T03000250 IEM_DS3505
ZGKL,2006-06-16 12:00,ZGKL 161200Z AUTO 02002KT 8SM 28/26 A2962 RMK 60004 SLP026 T02840260 52011 IEM_DS3505
ZGKL,2006-06-16 13:00,ZGKL 161300Z AUTO 04002KT 2 1/2SM 28/26 A2965 RMK T02800260 IEM_DS3505
ZGKL,2006-06-16 14:00,ZGKL 161400Z AUTO 00000KT 2 1/2SM 27/26 A2965 RMK T02700260 IEM_DS3505
ZGKL,2006-06-16 15:00,ZGKL 161500Z AUTO 18004KT 7SM 25/24 A2965 RMK SLP038 T02540245 52011 IEM_DS3505
ZGKL,2006-06-16 16:00,ZGKL 161600Z AUTO 00000KT 2 1/2SM 26/25 A2968 RMK T02600250 IEM_DS3505
ZGKL,2006-06-16 17:00,ZGKL 161700Z AUTO 09002KT 26/25 A2965 RMK T02600250 IEM_DS3505
ZGKL,2006-06-16 18:00,ZGKL 161800Z AUTO 18004KT 5SM 26/24 A2965 RMK 60059 SLP032 T02590243 57005 IEM_DS3505
ZGKL,2006-06-16 19:00,ZGKL 161900Z AUTO 14004KT 26/25 A2965 RMK T02600250 IEM_DS3505
ZGKL,2006-06-16 20:00,ZGKL 162000Z AUTO 04002KT 25/24 A2965 RMK T02500240 IEM_DS3505
ZGKL,2006-06-16 21:00,ZGKL 162100Z AUTO 20006KT 4SM 26/24 A2965 RMK 70078 SLP035 T02580238 52003 IEM_DS3505
ZGKL,2006-06-16 22:00,ZGKL 162200Z AUTO 36002KT 4SM 25/24 A2968 RMK T02500240 IEM_DS3505
ZGKL,2006-06-16 23:00,ZGKL 162300Z AUTO 15002KT 2 1/2SM 26/25 A2968 RMK T02600250 IEM_DS3505
ZGKL,2006-06-17 00:00,ZGKL 170000Z AUTO 20002KT 7SM 26/24 A2971 RMK 60012 70085 SLP050 T02580242 52015 IEM_DS3505
ZGKL,2006-06-17 01:00,ZGKL 170100Z AUTO 02008KT 1 1/4SM 24/23 A2971 RMK T02400230 IEM_DS3505
ZGKL,2006-06-17 02:00,ZGKL 170200Z AUTO 05006KT 1 1/4SM 25/24 A2974 RMK T02500240 IEM_DS3505
ZGKL,2006-06-17 03:00,ZGKL 170300Z AUTO 22002KT 4SM 25/24 A2974 RMK SLP061 T02470240 52009 IEM_DS3505
ZGKL,2006-06-17 04:00,ZGKL 170400Z AUTO 15002KT 4SM 24/23 A2974 RMK T02400230 IEM_DS3505
ZGKL,2006-06-17 05:00,ZGKL 170500Z AUTO 12004KT 3SM 24/23 A2974 RMK T02400230 IEM_DS3505
ZGKL,2006-06-17 06:00,ZGKL 170600Z AUTO 20004KT 8SM 25/24 A2974 RMK 60118 SLP067 T02510239 52006 IEM_DS3505
ZGKL,2006-06-17 07:00,ZGKL 170700Z AUTO 23002KT 5SM 25/23 A2974 RMK T02500230 IEM_DS3505
ZGKL,2006-06-17 08:00,ZGKL 170800Z AUTO 34002KT 7SM 26/24 A2971 RMK T02600240 IEM_DS3505
ZGKL,2006-06-17 09:00,ZGKL 170900Z AUTO 36002KT 8SM 26/23 A2971 RMK SLP051 T02590232 57015 IEM_DS3505
ZGKL,2006-06-17 10:00,ZGKL 171000Z AUTO 34002KT 7SM 26/24 A2971 RMK T02600240 IEM_DS3505
ZGKL,2006-06-17 11:00,ZGKL 171100Z AUTO 00000KT 7SM 26/24 A2974 RMK T02600240 IEM_DS3505
ZGKL,2006-06-17 12:00,ZGKL 171200Z AUTO 27002KT 7SM 26/24 A2977 RMK 60000 SLP072 T02550239 52020 IEM_DS3505
ZGKL,2006-06-17 13:00,ZGKL 171300Z AUTO 33002KT 4SM 25/24 A2977 RMK T02500240 IEM_DS3505
ZGKL,2006-06-17 14:00,ZGKL 171400Z AUTO 32002KT 2 1/2SM 25/24 A2977 RMK T02500240 IEM_DS3505
ZGKL,2006-06-17 15:00,ZGKL 171500Z AUTO 36002KT 7SM 25/24 A2977 RMK SLP073 T02470237 52001 IEM_DS3505
ZGKL,2006-06-17 16:00,ZGKL 171600Z AUTO 24002KT 2SM 24/23 A2977 RMK T02400230 IEM_DS3505
ZGKL,2006-06-17 17:00,ZGKL 171700Z AUTO 00000KT 24/23 A2977 RMK T02400230 IEM_DS3505
ZGKL,2006-06-17 18:00,ZGKL 171800Z AUTO 34002KT 7SM 24/24 A2977 RMK 60000 SLP073 T02440237 54000 IEM_DS3505
ZGKL,2006-06-17 19:00,ZGKL 171900Z AUTO 00000KT 24/23 A2977 RMK T02400230 IEM_DS3505
ZGKL,2006-06-17 20:00,ZGKL 172000Z AUTO 00000KT 24/23 A2974 RMK T02400230 IEM_DS3505
ZGKL,2006-06-17 21:00,ZGKL 172100Z AUTO 32002KT 6SM 24/24 A2974 RMK 70126 SLP068 T02440239 57005 IEM_DS3505
ZGKL,2006-06-17 22:00,ZGKL 172200Z AUTO 14002KT 1 1/4SM 24/23 A2980 RMK T02400230 IEM_DS3505
ZGKL,2006-06-17 23:00,ZGKL 172300Z AUTO 18004KT 1SM 24/23 A2980 RMK T02400230 IEM_DS3505
ZGKL,2006-06-18 00:00,ZGKL 180000Z AUTO 27002KT 2SM 25/24 A2980 RMK 60008 70124 SLP089 T02480241 52021 IEM_DS3505
ZGKL,2006-06-18 01:00,ZGKL 180100Z AUTO 07002KT 3SM 25/24 A2983 RMK T02500240 IEM_DS3505
ZGKL,2006-06-18 02:00,ZGKL 180200Z AUTO 19004KT 7SM 26/24 A2983 RMK T02600240 IEM_DS3505
ZGKL,2006-06-18 03:00,ZGKL 180300Z AUTO 14002KT 3SM 26/25 A2983 RMK SLP099 T02630247 52010 IEM_DS3505
ZGKL,2006-06-18 04:00,ZGKL 180400Z AUTO 18008KT 7SM 28/24 A2983 RMK T02800240 IEM_DS3505
ZGKL,2006-06-18 05:00,ZGKL 180500Z AUTO 20006KT 7SM 28/24 A2983 RMK T02800240 IEM_DS3505
ZGKL,2006-06-18 06:00,ZGKL 180600Z AUTO 16004KT 9SM 28/25 A2983 RMK 60047 SLP091 T02820246 57008 IEM_DS3505
ZGKL,2006-06-18 07:00,ZGKL 180700Z AUTO 18008KT 7SM 27/24 A2983 RMK T02700240 IEM_DS3505
ZGKL,2006-06-18 08:00,ZGKL 180800Z AUTO 17004KT 7SM 28/24 A2980 RMK T02800240 IEM_DS3505
ZGKL,2006-06-18 09:00,ZGKL 180900Z AUTO 18004KT 11SM 28/24 A2977 RMK SLP077 T02810239 57013 IEM_DS3505
ZGKL,2006-06-18 10:00,ZGKL 181000Z AUTO 10004KT 6SM 27/24 A2977 RMK T02700240 IEM_DS3505
ZGKL,2006-06-18 11:00,ZGKL 181100Z AUTO 17004KT 7SM 27/24 A2980 RMK T02700240 IEM_DS3505
ZGKL,2006-06-18 12:00,ZGKL 181200Z AUTO 18006KT 6SM 27/24 A2980 RMK 60000 SLP087 T02680239 52009 IEM_DS3505
ZGKL,2006-06-18 13:00,ZGKL 181300Z AUTO 00000KT 6SM 25/24 A2983 RMK T02500240 IEM_DS3505
ZGKL,2006-06-18 14:00,ZGKL 181400Z AUTO 00000KT 6SM 25/24 A2983 RMK T02500240 IEM_DS3505
ZGKL,2006-06-18 15:00,ZGKL 181500Z AUTO 11002KT 6SM 26/24 A2983 RMK SLP096 T02560240 52009 IEM_DS3505
ZGKL,2006-06-18 16:00,ZGKL 181600Z AUTO 21002KT 24/23 A2983 RMK T02400230 IEM_DS3505
ZGKL,2006-06-18 17:00,ZGKL 181700Z AUTO 00000KT 24/23 A2980 RMK T02400230 IEM_DS3505
ZGKL,2006-06-18 18:00,ZGKL 181800Z AUTO 07002KT 5SM 24/24 A2980 RMK SLP079 T02440235 57016 IEM_DS3505
ZGKL,2006-06-18 19:00,ZGKL 181900Z AUTO 35002KT 23/23 A2980 RMK T02300230 IEM_DS3505
ZGKL,2006-06-18 20:00,ZGKL 182000Z AUTO 05002KT 23/23 A2980 RMK T02300230 IEM_DS3505
ZGKL,2006-06-18 21:00,ZGKL 182100Z AUTO 36002KT 5SM A2983 RMK 70055 SLP088 52008 IEM_DS3505
ZGKL,2006-06-18 22:00,ZGKL 182200Z AUTO 00000KT 2 1/2SM 24/23 A2983 RMK T02400230 IEM_DS3505
ZGKL,2006-06-18 23:00,ZGKL 182300Z AUTO 00000KT 3SM 24/23 A2985 RMK T02400230 IEM_DS3505
ZGKL,2006-06-19 00:00,ZGKL 190000Z AUTO 36002KT 6SM 25/24 A2985 RMK 70049 SLP107 T02460237 52019 IEM_DS3505
ZGKL,2006-06-19 01:00,ZGKL 190100Z AUTO 24004KT 1SM 23/22 A2988 RMK T02300220 IEM_DS3505
ZGKL,2006-06-19 02:00,ZGKL 190200Z AUTO 35002KT 2SM 24/23 A2988 RMK T02400230 IEM_DS3505
ZGKL,2006-06-19 03:00,ZGKL 190300Z AUTO 29004KT 4SM 26/23 A2988 RMK SLP113 T02590232 52006 IEM_DS3505
ZGKL,2006-06-19 04:00,ZGKL 190400Z AUTO 00000KT 7SM 27/24 A2988 RMK T02700240 IEM_DS3505
ZGKL,2006-06-19 05:00,ZGKL 190500Z AUTO 34004KT 7SM 28/24 A2985 RMK T02800240 IEM_DS3505
ZGKL,2006-06-19 06:00,ZGKL 190600Z AUTO 09004KT 7SM 30/24 A2983 RMK 60000 SLP093 T02950239 57019 IEM_DS3505
ZGKL,2006-06-19 07:00,ZGKL 190700Z AUTO 18004KT 7SM 31/24 A2980 RMK T03100240 IEM_DS3505
ZGKL,2006-06-19 08:00,ZGKL 190800Z AUTO 21004KT 7SM 32/23 A2977 RMK T03200230 IEM_DS3505
ZGKL,2006-06-19 09:00,ZGKL 190900Z AUTO 04002KT 10SM 32/24 A2977 RMK SLP064 T03180241 57028 IEM_DS3505
ZGKL,2006-06-19 10:00,ZGKL 191000Z AUTO 07002KT 7SM 32/24 A2974 RMK T03200240 IEM_DS3505
ZGKL,2006-06-19 11:00,ZGKL 191100Z AUTO 11004KT 7SM 31/25 A2977 RMK T03100250 IEM_DS3505
ZGKL,2006-06-19 12:00,ZGKL 191200Z AUTO 29002KT 12SM 29/25 A2980 RMK SLP080 T02930251 52015 IEM_DS3505
ZGKL,2006-06-19 13:00,ZGKL 191300Z AUTO 00000KT 7SM 27/25 A2983 RMK T02700250 IEM_DS3505
ZGKL,2006-06-19 14:00,ZGKL 191400Z AUTO 19004KT 7SM 27/25 A2983 RMK T02700250 IEM_DS3505
ZGKL,2006-06-19 15:00,ZGKL 191500Z AUTO 16002KT 9SM 28/23 A2985 RMK SLP102 T02790226 52021 IEM_DS3505
ZGKL,2006-06-19 16:00,ZGKL 191600Z AUTO 00000KT 25/23 A2985 RMK T02500230 IEM_DS3505
ZGKL,2006-06-19 17:00,ZGKL 191700Z AUTO 00000KT 25/23 A2983 RMK T02500230 IEM_DS3505
ZGKL,2006-06-19 18:00,ZGKL 191800Z AUTO 02002KT 9SM 25/23 RMK SLP084 T02500232 57017 IEM_DS3505
ZGKL,2006-06-19 20:00,ZGKL 192000Z AUTO 00000KT 24/23 A2983 RMK T02400230 IEM_DS3505
ZGKL,2006-06-19 21:00,ZGKL 192100Z AUTO 14004KT 9SM 25/23 A2983 RMK 70000 SLP092 T02460230 52008 IEM_DS3505
ZGKL,2006-06-19 22:00,ZGKL 192200Z AUTO 00000KT 4SM 23/22 A2985 RMK T02300220 IEM_DS3505
ZGKL,2006-06-19 23:00,ZGKL 192300Z AUTO 00000KT 5SM 24/23 A2985 RMK T02400230 IEM_DS3505
ZGKL,2006-06-20 00:00,ZGKL 200000Z AUTO 14004KT 11SM 26/23 A2985 RMK 70000 SLP105 T02550228 52013 IEM_DS3505
ZGKL,2006-06-20 01:00,ZGKL 200100Z AUTO 16008KT 7SM 26/23 A2988 RMK T02600230 IEM_DS3505
ZGKL,2006-06-20 02:00,ZGKL 200200Z AUTO 15006KT 7SM 27/23 A2988 RMK T02700230 IEM_DS3505
ZGKL,2006-06-20 03:00,ZGKL 200300Z AUTO 20004KT 11SM 28/23 A2988 RMK SLP114 T02760230 52009 IEM_DS3505
ZGKL,2006-06-20 04:00,ZGKL 200400Z AUTO 17008KT 7SM 29/23 A2988 RMK T02900230 IEM_DS3505
ZGKL,2006-06-20 05:00,ZGKL 200500Z AUTO 17008KT 7SM 30/23 A2985 RMK T03000230 IEM_DS3505
ZGKL,2006-06-20 06:00,ZGKL 200600Z AUTO 29006KT 12SM 32/22 A2983 RMK SLP088 T03190220 57025 IEM_DS3505
ZGKL,2006-06-20 07:00,ZGKL 200700Z AUTO 16004KT 7SM 32/24 A2980 RMK T03200240 IEM_DS3505
ZGKL,2006-06-20 08:00,ZGKL 200800Z AUTO 17004KT 7SM 32/24 A2977 RMK T03200240 IEM_DS3505
ZGKL,2006-06-20 09:00,ZGKL 200900Z AUTO 20004KT 16SM 33/22 A2977 RMK SLP065 T03310219 57023 IEM_DS3505
ZGKL,2006-06-20 10:00,ZGKL 201000Z AUTO 17006KT 7SM 32/22 A2977 RMK T03200220 IEM_DS3505
ZGKL,2006-06-20 11:00,ZGKL 201100Z AUTO 18012KT 7SM 30/23 A2980 RMK T03000230 IEM_DS3505
ZGKL,2006-06-20 12:00,ZGKL 201200Z AUTO 22006KT 12SM 30/23 A2980 RMK SLP083 T02990231 52017 IEM_DS3505
ZGKL,2006-06-20 13:00,ZGKL 201300Z AUTO 17008KT 6SM 27/23 A2983 RMK T02700230 IEM_DS3505
ZGKL,2006-06-20 14:00,ZGKL 201400Z AUTO 17008KT 6SM 27/23 A2983 RMK T02700230 IEM_DS3505
ZGKL,2006-06-20 15:00,ZGKL 201500Z AUTO 25004KT 11SM 28/23 A2985 RMK SLP099 T02750227 52016 IEM_DS3505
ZGKL,2006-06-20 16:00,ZGKL 201600Z AUTO 20002KT 6SM 25/23 A2985 RMK T02500230 IEM_DS3505
ZGKL,2006-06-20 17:00,ZGKL 201700Z AUTO 18006KT 25/23 A2983 RMK T02500230 IEM_DS3505
ZGKL,2006-06-20 18:00,ZGKL 201800Z AUTO 11004KT 10SM 25/23 A2983 RMK SLP095 T02520227 57003 IEM_DS3505
ZGKL,2006-06-20 19:00,ZGKL 201900Z AUTO 17006KT 24/22 A2983 RMK T02400220 IEM_DS3505
ZGKL,2006-06-20 20:00,ZGKL 202000Z AUTO 18004KT 23/22 A2985 RMK T02300220 IEM_DS3505
ZGKL,2006-06-20 21:00,ZGKL 202100Z AUTO 14002KT 9SM 24/23 A2985 RMK SLP097 T02440227 52002 IEM_DS3505
ZGKL,2006-06-20 22:00,ZGKL 202200Z AUTO 24002KT 6SM 23/22 A2983 RMK T02300220 IEM_DS3505
ZGKL,2006-06-20 23:00,ZGKL 202300Z AUTO 36002KT 6SM 24/23 A2985 RMK T02400230 IEM_DS3505
ZGKL,2006-06-21 00:00,ZGKL 210000Z AUTO 14002KT 10SM 27/23 A2985 RMK SLP102 T02730229 52005 IEM_DS3505
ZGKL,2006-06-21 01:00,ZGKL 210100Z AUTO 17004KT 7SM 27/22 A2985 RMK T02700220 IEM_DS3505
ZGKL,2006-06-21 02:00,ZGKL 210200Z AUTO 16006KT 7SM 27/22 A2988 RMK T02700220 IEM_DS3505
ZGKL,2006-06-21 03:00,ZGKL 210300Z AUTO 27004KT 11SM 28/22 A2985 RMK SLP106 T02850225 52003 IEM_DS3505
ZGKL,2006-06-21 04:00,ZGKL 210400Z AUTO 21004KT 7SM 29/22 A2985 RMK T02900220 IEM_DS3505
ZGKL,2006-06-21 05:00,ZGKL 210500Z AUTO 19004KT 7SM 30/22 A2983 RMK T03000220 IEM_DS3505
ZGKL,2006-06-21 06:00,ZGKL 210600Z AUTO 11004KT 14SM 31/23 A2980 RMK SLP078 T03100226 57027 IEM_DS3505
ZGKL,2006-06-21 07:00,ZGKL 210700Z AUTO 22004KT 7SM 32/24 A2977 RMK T03200240 IEM_DS3505
ZGKL,2006-06-21 08:00,ZGKL 210800Z AUTO 11006KT 7SM 32/23 A2974 RMK T03200230 IEM_DS3505
ZGKL,2006-06-21 09:00,ZGKL 210900Z AUTO 14004KT 16SM 33/22 A2971 RMK SLP054 T03290221 57024 IEM_DS3505
ZGKL,2006-06-21 10:00,ZGKL 211000Z AUTO 19006KT 7SM 33/24 A2971 RMK T03300240 IEM_DS3505
ZGKL,2006-06-21 11:00,ZGKL 211100Z AUTO 18004KT 7SM 31/24 A2971 RMK T03100240 IEM_DS3505
ZGKL,2006-06-21 12:00,ZGKL 211200Z AUTO 18004KT 14SM 30/23 A2974 RMK SLP061 T03050227 52007 IEM_DS3505
ZGKL,2006-06-21 13:00,ZGKL 211300Z AUTO 19006KT 6SM 28/24 A2977 RMK T02800240 IEM_DS3505
ZGKL,2006-06-21 14:00,ZGKL 211400Z AUTO 17010KT 6SM 28/23 A2977 RMK T02800230 IEM_DS3505
ZGKL,2006-06-21 15:00,ZGKL 211500Z AUTO 20002KT 14SM 29/23 A2980 RMK SLP076 T02860228 52015 IEM_DS3505
ZGKL,2006-06-21 16:00,ZGKL 211600Z AUTO 18008KT 26/23 A2980 RMK T02600230 IEM_DS3505
ZGKL,2006-06-21 17:00,ZGKL 211700Z AUTO 17004KT 26/23 A2977 RMK T02600230 IEM_DS3505
ZGKL,2006-06-21 18:00,ZGKL 211800Z AUTO 16002KT 11SM 26/23 A2977 RMK SLP070 T02630226 57006 IEM_DS3505
ZGKL,2006-06-21 19:00,ZGKL 211900Z AUTO 18008KT 25/22 A2977 RMK T02500220 IEM_DS3505
ZGKL,2006-06-21 20:00,ZGKL 212000Z AUTO 17006KT 25/22 A2977 RMK T02500220 IEM_DS3505
ZGKL,2006-06-21 21:00,ZGKL 212100Z AUTO 14002KT 10SM 26/22 A2977 RMK SLP070 T02550224 54000 IEM_DS3505
ZGKL,2006-06-21 22:00,ZGKL 212200Z AUTO 00000KT 7SM 24/22 A2980 RMK T02400220 IEM_DS3505
ZGKL,2006-06-21 23:00,ZGKL 212300Z AUTO 00000KT 7SM 24/22 A2980 RMK T02400220 IEM_DS3505
ZGKL,2006-06-22 00:00,ZGKL 220000Z AUTO 11002KT 7SM 27/23 A2983 RMK SLP087 T02690227 52017 IEM_DS3505
ZGKL,2006-06-22 01:00,ZGKL 220100Z AUTO 16006KT 7SM 28/22 A2983 RMK T02800220 IEM_DS3505
ZGKL,2006-06-22 02:00,ZGKL 220200Z AUTO 16006KT 7SM 29/22 A2983 RMK T02900220 IEM_DS3505
ZGKL,2006-06-22 03:00,ZGKL 220300Z AUTO 20006KT 12SM 30/22 A2983 RMK SLP088 T03050216 52001 IEM_DS3505
ZGKL,2006-06-22 04:00,ZGKL 220400Z AUTO 17008KT 7SM 30/22 A2980 RMK T03000220 IEM_DS3505
ZGKL,2006-06-22 05:00,ZGKL 220500Z AUTO 19008KT 7SM 31/22 A2980 RMK T03100220 IEM_DS3505
ZGKL,2006-06-22 06:00,ZGKL 220600Z AUTO 25006KT 16SM 32/21 A2977 RMK SLP064 T03240206 57023 IEM_DS3505
ZGKL,2006-06-22 07:00,ZGKL 220700Z AUTO 17006KT 7SM 33/21 A2974 RMK T03300210 IEM_DS3505
ZGKL,2006-06-22 08:00,ZGKL 220800Z AUTO 20006KT 6SM 32/22 A2971 RMK T03200220 IEM_DS3505
ZGKL,2006-06-22 09:00,ZGKL 220900Z AUTO 25006KT 17SM 34/21 A2968 RMK SLP039 T03350206 57025 IEM_DS3505
ZGKL,2006-06-22 10:00,ZGKL 221000Z AUTO 18006KT 6SM 32/22 A2968 RMK T03200220 IEM_DS3505
ZGKL,2006-06-22 11:00,ZGKL 221100Z AUTO 16006KT 7SM 31/23 A2968 RMK T03100230 IEM_DS3505
ZGKL,2006-06-22 12:00,ZGKL 221200Z AUTO 22002KT 13SM 31/22 A2971 RMK SLP049 T03070218 52010 IEM_DS3505
ZGKL,2006-06-22 13:00,ZGKL 221300Z AUTO 26002KT 6SM 27/24 A2974 RMK T02700240 IEM_DS3505
ZGKL,2006-06-22 14:00,ZGKL 221400Z AUTO 00000KT 6SM 26/24 A2974 RMK T02600240 IEM_DS3505
ZGKL,2006-06-22 15:00,ZGKL 221500Z AUTO 04002KT 11SM 28/24 A2977 RMK SLP070 T02800236 52021 IEM_DS3505
ZGKL,2006-06-22 16:00,ZGKL 221600Z AUTO 00000KT 25/24 A2977 RMK T02500240 IEM_DS3505
ZGKL,2006-06-22 17:00,ZGKL 221700Z AUTO 00000KT 25/23 A2977 RMK T02500230 IEM_DS3505
ZGKL,2006-06-22 18:00,ZGKL 221800Z AUTO 04002KT 10SM 26/23 A2977 RMK SLP068 T02600231 57002 IEM_DS3505
ZGKL,2006-06-22 19:00,ZGKL 221900Z AUTO 00000KT 24/23 A2977 RMK T02400230 IEM_DS3505
ZGKL,2006-06-22 20:00,ZGKL 222000Z AUTO 00000KT 24/23 A2977 RMK T02400230 IEM_DS3505
ZGKL,2006-06-22 21:00,ZGKL 222100Z AUTO 07002KT 9SM 26/23 A2977 RMK SLP067 T02550234 57001 IEM_DS3505
ZGKL,2006-06-22 22:00,ZGKL 222200Z AUTO 00000KT 3SM 24/23 A2980 RMK T02400230 IEM_DS3505
ZGKL,2006-06-22 23:00,ZGKL 222300Z AUTO 29002KT 3SM 24/23 A2980 RMK T02400230 IEM_DS3505
ZGKL,2006-06-23 00:00,ZGKL 230000Z AUTO 09002KT 6SM 28/24 A2980 RMK SLP084 T02800238 52016 IEM_DS3505
ZGKL,2006-06-23 01:00,ZGKL 230100Z AUTO 18008KT 7SM 29/23 A2983 RMK T02900230 IEM_DS3505
ZGKL,2006-06-23 02:00,ZGKL 230200Z AUTO 21004KT 7SM 30/23 A2983 RMK T03000230 IEM_DS3505
ZGKL,2006-06-23 03:00,ZGKL 230300Z AUTO 22008KT 12SM 32/21 A2980 RMK SLP083 T03150214 54000 IEM_DS3505
ZGKL,2006-06-23 04:00,ZGKL 230400Z AUTO 17010KT 7SM 33/22 A2980 RMK T03300220 IEM_DS3505
ZGKL,2006-06-23 05:00,ZGKL 230500Z AUTO 18008KT 7SM 33/22 A2977 RMK T03300220 IEM_DS3505
ZGKL,2006-06-23 06:00,ZGKL 230600Z AUTO 20004KT 15SM 34/22 A2974 RMK SLP060 T03420216 57023 IEM_DS3505
ZGKL,2006-06-23 07:00,ZGKL 230700Z AUTO 19008KT 7SM 34/21 A2971 RMK T03400210 IEM_DS3505
ZGKL,2006-06-23 08:00,ZGKL 230800Z AUTO 18010KT 7SM 34/22 A2968 RMK T03400220 IEM_DS3505
ZGKL,2006-06-23 09:00,ZGKL 230900Z AUTO 25006KT 16SM 35/20 A2968 RMK SLP035 T03480204 57024 IEM_DS3505
ZGKL,2006-06-23 10:00,ZGKL 231000Z AUTO 20008KT 7SM 33/23 A2968 RMK T03300230 IEM_DS3505
ZGKL,2006-06-23 11:00,ZGKL 231100Z AUTO 19008KT 7SM 32/23 A2968 RMK T03200230 IEM_DS3505
ZGKL,2006-06-23 12:00,ZGKL 231200Z AUTO 20004KT 14SM 32/22 A2971 RMK SLP046 T03210222 52010 IEM_DS3505
ZGKL,2006-06-23 13:00,ZGKL 231300Z AUTO 23002KT 7SM 28/25 A2974 RMK T02800250 IEM_DS3505
ZGKL,2006-06-23 14:00,ZGKL 231400Z AUTO 24002KT 4SM 27/24 A2977 RMK T02700240 IEM_DS3505
ZGKL,2006-06-23 15:00,ZGKL 231500Z AUTO 14002KT 12SM 30/25 A2980 RMK SLP073 T02950246 52027 IEM_DS3505
ZGKL,2006-06-23 16:00,ZGKL 231600Z AUTO 00000KT 4SM 26/24 A2977 RMK T02600240 IEM_DS3505
ZGKL,2006-06-23 17:00,ZGKL 231700Z AUTO 00000KT 26/24 A2977 RMK T02600240 IEM_DS3505
ZGKL,2006-06-23 18:00,ZGKL 231800Z AUTO 04002KT 11SM 28/24 A2977 RMK SLP068 T02800244 57004 IEM_DS3505
ZGKL,2006-06-23 19:00,ZGKL 231900Z AUTO 00000KT 25/24 A2977 RMK T02500240 IEM_DS3505
ZGKL,2006-06-23 20:00,ZGKL 232000Z AUTO 00000KT 25/24 A2977 RMK T02500240 IEM_DS3505
ZGKL,2006-06-23 21:00,ZGKL 232100Z AUTO 09002KT 9SM 27/24 A2977 RMK SLP070 T02680241 52001 IEM_DS3505
ZGKL,2006-06-23 22:00,ZGKL 232200Z AUTO 02002KT 4SM 24/23 A2977 RMK T02400230 IEM_DS3505
ZGKL,2006-06-23 23:00,ZGKL 232300Z AUTO 00000KT 4SM 25/24 A2980 RMK T02500240 IEM_DS3505
ZGKL,2006-06-24 00:00,ZGKL 240000Z AUTO 18004KT 9SM 28/24 A2980 RMK SLP082 T02820240 52012 IEM_DS3505
ZGKL,2006-06-24 01:00,ZGKL 240100Z AUTO 18010KT 6SM 30/24 A2980 RMK T03000240 IEM_DS3505
ZGKL,2006-06-24 02:00,ZGKL 240200Z AUTO 18012KT 7SM 31/23 A2983 RMK T03100230 IEM_DS3505
ZGKL,2006-06-24 03:00,ZGKL 240300Z AUTO 20006KT 11SM 32/22 A2980 RMK SLP082 T03230221 54000 IEM_DS3505
ZGKL,2006-06-24 04:00,ZGKL 240400Z AUTO 16008KT 7SM 32/23 A2980 RMK T03200230 IEM_DS3505
ZGKL,2006-06-24 05:00,ZGKL 240500Z AUTO 19008KT 7SM 33/23 A2977 RMK T03300230 IEM_DS3505
ZGKL,2006-06-24 06:00,ZGKL 240600Z AUTO 22008KT 16SM 34/22 A2974 RMK SLP058 T03420220 57023 IEM_DS3505
ZGKL,2006-06-24 07:00,ZGKL 240700Z AUTO 18012KT 7SM 34/23 A2971 RMK T03400230 IEM_DS3505
ZGKL,2006-06-24 08:00,ZGKL 240800Z AUTO 18012KT 7SM 35/23 A2968 RMK T03500230 IEM_DS3505
ZGKL,2006-06-24 09:00,ZGKL 240900Z AUTO 22008KT 19SM 34/21 A2968 RMK SLP041 T03450212 57017 IEM_DS3505
ZGKL,2006-06-24 10:00,ZGKL 241000Z AUTO 19010KT 7SM 34/23 A2968 RMK T03400230 IEM_DS3505
ZGKL,2006-06-24 11:00,ZGKL 241100Z AUTO 19006KT 7SM 31/23 A2971 RMK T03100230 IEM_DS3505
ZGKL,2006-06-24 12:00,ZGKL 241200Z AUTO 22006KT 16SM 32/22 A2974 RMK SLP053 T03240219 52011 IEM_DS3505
ZGKL,2006-06-24 13:00,ZGKL 241300Z AUTO 00000KT 6SM 28/24 A2977 RMK T02800240 IEM_DS3505
ZGKL,2006-06-24 14:00,ZGKL 241400Z AUTO 00000KT 6SM 27/24 A2977 RMK T02700240 IEM_DS3505
ZGKL,2006-06-24 15:00,ZGKL 241500Z AUTO 09002KT 12SM 29/24 A2980 RMK SLP072 T02930240 52019 IEM_DS3505
ZGKL,2006-06-24 16:00,ZGKL 241600Z AUTO 00000KT 26/24 A2977 RMK T02600240 IEM_DS3505
ZGKL,2006-06-24 17:00,ZGKL 241700Z AUTO 00000KT 26/24 A2977 RMK T02600240 IEM_DS3505
ZGKL,2006-06-24 18:00,ZGKL 241800Z AUTO 04002KT 11SM 27/24 A2977 RMK SLP068 T02710236 57004 IEM_DS3505
ZGKL,2006-06-24 19:00,ZGKL 241900Z AUTO 00000KT 25/24 A2977 RMK T02500240 IEM_DS3505
ZGKL,2006-06-24 20:00,ZGKL 242000Z AUTO 00000KT 25/24 A2977 RMK T02500240 IEM_DS3505
ZGKL,2006-06-24 21:00,ZGKL 242100Z AUTO 36002KT 8SM 26/24 A2977 RMK SLP067 T02620241 57001 IEM_DS3505
ZGKL,2006-06-24 22:00,ZGKL 242200Z AUTO 18002KT 7SM 26/23 A2977 RMK T02600230 IEM_DS3505
ZGKL,2006-06-24 23:00,ZGKL 242300Z AUTO 17006KT 7SM 27/24 A2980 RMK T02700240 IEM_DS3505
ZGKL,2006-06-25 00:00,ZGKL 250000Z AUTO 20006KT 8SM 29/23 A2980 RMK SLP082 T02900230 52015 IEM_DS3505
ZGKL,2006-06-25 01:00,ZGKL 250100Z AUTO 18010KT 7SM 29/23 A2980 RMK T02900230 IEM_DS3505
ZGKL,2006-06-25 02:00,ZGKL 250200Z AUTO 18012KT 7SM 31/23 A2980 RMK T03100230 IEM_DS3505
ZGKL,2006-06-25 03:00,ZGKL 250300Z AUTO 20006KT 10SM 32/22 A2980 RMK SLP074 T03240219 57008 IEM_DS3505
ZGKL,2006-06-25 04:00,ZGKL 250400Z AUTO 17010KT 7SM 32/23 A2980 RMK T03200230 IEM_DS3505
ZGKL,2006-06-25 05:00,ZGKL 250500Z AUTO 18008KT 7SM 33/24 A2977 RMK T03300240 IEM_DS3505
ZGKL,2006-06-25 06:00,ZGKL 250600Z AUTO 22006KT 16SM 34/21 A2974 RMK SLP055 T03420213 57018 IEM_DS3505
ZGKL,2006-06-25 07:00,ZGKL 250700Z AUTO 17008KT 7SM 33/23 A2971 RMK T03300230 IEM_DS3505
ZGKL,2006-06-25 08:00,ZGKL 250800Z AUTO 18008KT 7SM 34/21 A2971 RMK T03400210 IEM_DS3505
ZGKL,2006-06-25 09:00,ZGKL 250900Z AUTO 25006KT 17SM 34/22 A2968 RMK SLP040 T03420216 57015 IEM_DS3505
ZGKL,2006-06-25 10:00,ZGKL 251000Z AUTO 35004KT 7SM 31/25 A2968 RMK T03100250 IEM_DS3505
ZGKL,2006-06-25 11:00,ZGKL 251100Z AUTO 01006KT 6SM 31/25 A2971 RMK T03100250 IEM_DS3505
ZGKL,2006-06-25 12:00,ZGKL 251200Z AUTO 04004KT 12SM 30/23 A2974 RMK SLP056 T03030232 52015 IEM_DS3505
ZGKL,2006-06-25 13:00,ZGKL 251300Z AUTO 32002KT 6SM 28/25 A2974 RMK T02800250 IEM_DS3505
ZGKL,2006-06-25 14:00,ZGKL 251400Z AUTO 04002KT 6SM 28/25 A2977 RMK T02800250 IEM_DS3505
ZGKL,2006-06-25 15:00,ZGKL 251500Z AUTO 32006KT 11SM 27/21 A2980 RMK SLP076 T02700213 52020 IEM_DS3505
ZGKL,2006-06-25 16:00,ZGKL 251600Z AUTO 34004KT 6SM 27/24 A2977 RMK T02700240 IEM_DS3505
ZGKL,2006-06-25 17:00,ZGKL 251700Z AUTO 06004KT 27/23 A2977 RMK T02700230 IEM_DS3505
ZGKL,2006-06-25 18:00,ZGKL 251800Z AUTO 04002KT 10SM 26/22 A2977 RMK SLP066 T02620216 57010 IEM_DS3505
ZGKL,2006-06-25 19:00,ZGKL 251900Z AUTO 09002KT 26/23 A2974 RMK T02600230 IEM_DS3505
ZGKL,2006-06-25 20:00,ZGKL 252000Z AUTO 06002KT 5SM 25/24 A2974 RMK T02500240 IEM_DS3505
ZGKL,2006-06-25 21:00,ZGKL 252100Z AUTO 07002KT 9SM 26/23 A2974 RMK 70000 SLP065 T02560227 57001 IEM_DS3505
ZGKL,2006-06-25 22:00,ZGKL 252200Z AUTO 01002KT 3SM 25/24 A2977 RMK T02500240 IEM_DS3505
ZGKL,2006-06-25 23:00,ZGKL 252300Z AUTO 06004KT 2 1/2SM 25/24 A2977 RMK T02500240 IEM_DS3505
ZGKL,2006-06-26 00:00,ZGKL 260000Z AUTO 02002KT 7SM 25/24 A2980 RMK 60002 70002 SLP083 T02540236 52016 IEM_DS3505
ZGKL,2006-06-26 01:00,ZGKL 260100Z AUTO 32002KT 1 1/4SM 25/24 A2980 RMK T02500240 IEM_DS3505
ZGKL,2006-06-26 02:00,ZGKL 260200Z AUTO 34002KT 1 1/2SM 26/24 A2980 RMK T02600240 IEM_DS3505
ZGKL,2006-06-26 03:00,ZGKL 260300Z AUTO 09004KT 5SM 27/25 A2983 RMK SLP088 T02710246 52005 IEM_DS3505
ZGKL,2006-06-26 04:00,ZGKL 260400Z AUTO 04004KT 3SM 27/25 A2980 RMK T02700250 IEM_DS3505
ZGKL,2006-06-26 05:00,ZGKL 260500Z AUTO 30004KT 4SM 27/25 A2980 RMK T02700250 IEM_DS3505
ZGKL,2006-06-26 06:00,ZGKL 260600Z AUTO 34004KT 5SM 30/24 A2977 RMK 60000 SLP069 T02980244 57018 IEM_DS3505
ZGKL,2006-06-26 07:00,ZGKL 260700Z AUTO 33004KT 4SM 29/25 A2974 RMK T02900250 IEM_DS3505
ZGKL,2006-06-26 08:00,ZGKL 260800Z AUTO 33006KT 5SM 29/25 A2971 RMK T02900250 IEM_DS3505
ZGKL,2006-06-26 09:00,ZGKL 260900Z AUTO 07004KT 5SM 29/24 A2968 RMK SLP045 T02930244 57024 IEM_DS3505
ZGKL,2006-06-26 10:00,ZGKL 261000Z AUTO 34004KT 6SM 28/24 A2968 RMK T02800240 IEM_DS3505
ZGKL,2006-06-26 11:00,ZGKL 261100Z AUTO 34004KT 6SM 27/25 A2968 RMK T02700250 IEM_DS3505
ZGKL,2006-06-26 12:00,ZGKL 261200Z AUTO 04002KT 6SM 28/24 A2971 RMK SLP054 T02780242 52008 IEM_DS3505
ZGKL,2006-06-26 13:00,ZGKL 261300Z AUTO 00000KT 7SM 26/24 A2974 RMK T02600240 IEM_DS3505
ZGKL,2006-06-26 14:00,ZGKL 261400Z AUTO 00000KT 7SM 26/24 A2977 RMK T02600240 IEM_DS3505
ZGKL,2006-06-26 15:00,ZGKL 261500Z AUTO 07002KT 7SM 26/24 A2977 RMK SLP071 T02650245 52017 IEM_DS3505
ZGKL,2006-06-26 16:00,ZGKL 261600Z AUTO 29002KT 25/24 A2977 RMK T02500240 IEM_DS3505
ZGKL,2006-06-26 17:00,ZGKL 261700Z AUTO 00000KT 25/24 A2977 RMK T02500240 IEM_DS3505
ZGKL,2006-06-26 18:00,ZGKL 261800Z AUTO 04002KT 6SM 26/24 A2977 RMK 60000 SLP071 T02590243 52001 IEM_DS3505
ZGKL,2006-06-26 19:00,ZGKL 261900Z AUTO 13002KT 25/24 A2977 RMK T02500240 IEM_DS3505
ZGKL,2006-06-26 20:00,ZGKL 262000Z AUTO 00000KT 25/24 A2974 RMK T02500240 IEM_DS3505
ZGKL,2006-06-26 21:00,ZGKL 262100Z AUTO 27002KT 6SM 26/24 A2974 RMK 70001 SLP063 T02560242 57008 IEM_DS3505
ZGKL,2006-06-26 22:00,ZGKL 262200Z AUTO 35002KT 2SM 25/24 A2974 RMK T02500240 IEM_DS3505
ZGKL,2006-06-26 23:00,ZGKL 262300Z AUTO 36002KT 2SM 25/24 A2977 RMK T02500240 IEM_DS3505
ZGKL,2006-06-27 00:00,ZGKL 270000Z AUTO 07002KT 4SM 27/25 A2977 RMK 60000 70000 SLP072 T02700246 52008 IEM_DS3505
ZGKL,2006-06-27 01:00,ZGKL 270100Z AUTO 31002KT 3SM 27/25 A2977 RMK T02700250 IEM_DS3505
ZGKL,2006-06-27 02:00,ZGKL 270200Z AUTO 30002KT 4SM 28/24 A2977 RMK T02800240 IEM_DS3505
ZGKL,2006-06-27 03:00,ZGKL 270300Z AUTO 20004KT 9SM 31/23 A2977 RMK SLP069 T03070226 57002 IEM_DS3505
ZGKL,2006-06-27 04:00,ZGKL 270400Z AUTO 19006KT 7SM 30/24 A2974 RMK T03000240 IEM_DS3505
ZGKL,2006-06-27 05:00,ZGKL 270500Z AUTO 21004KT 7SM 31/23 A2974 RMK T03100230 IEM_DS3505
ZGKL,2006-06-27 06:00,ZGKL 270600Z AUTO 09004KT 14SM 33/23 A2971 RMK SLP050 T03280229 57018 IEM_DS3505
ZGKL,2006-06-27 07:00,ZGKL 270700Z AUTO 21008KT 7SM 32/24 A2968 RMK T03200240 IEM_DS3505
ZGKL,2006-06-27 08:00,ZGKL 270800Z AUTO 24004KT 7SM 33/22 A2965 RMK T03300220 IEM_DS3505
ZGKL,2006-06-27 09:00,ZGKL 270900Z AUTO 14004KT 16SM 33/22 A2962 RMK SLP020 T03330218 57029 IEM_DS3505
ZGKL,2006-06-27 10:00,ZGKL 271000Z AUTO 00000KT 7SM 31/25 A2962 RMK T03100250 IEM_DS3505
ZGKL,2006-06-27 11:00,ZGKL 271100Z AUTO 12004KT 7SM 31/25 A2965 RMK T03100250 IEM_DS3505
ZGKL,2006-06-27 12:00,ZGKL 271200Z AUTO 18002KT 16SM 30/24 A2968 RMK SLP036 T03050237 52015 IEM_DS3505
ZGKL,2006-06-27 13:00,ZGKL 271300Z AUTO 00000KT 6SM 28/25 A2968 RMK T02800250 IEM_DS3505
ZGKL,2006-06-27 14:00,ZGKL 271400Z AUTO 00000KT 7SM 27/25 A2971 RMK T02700250 IEM_DS3505
ZGKL,2006-06-27 15:00,ZGKL 271500Z AUTO 18002KT 11SM 29/24 A2974 RMK SLP055 T02910240 52019 IEM_DS3505
ZGKL,2006-06-27 16:00,ZGKL 271600Z AUTO 00000KT 26/25 A2971 RMK T02600250 IEM_DS3505
ZGKL,2006-06-27 17:00,ZGKL 271700Z AUTO 00000KT 26/24 A2971 RMK T02600240 IEM_DS3505
ZGKL,2006-06-27 18:00,ZGKL 271800Z AUTO 34002KT 11SM 27/24 A2971 RMK SLP051 T02660241 57004 IEM_DS3505
ZGKL,2006-06-27 19:00,ZGKL 271900Z AUTO 00000KT 25/24 A2971 RMK T02500240 IEM_DS3505
ZGKL,2006-06-27 20:00,ZGKL 272000Z AUTO 00000KT 25/24 A2971 RMK T02500240 IEM_DS3505
ZGKL,2006-06-27 21:00,ZGKL 272100Z AUTO 00000KT 10SM 26/24 A2971 RMK SLP048 T02580238 57003 IEM_DS3505
ZGKL,2006-06-27 22:00,ZGKL 272200Z AUTO 00000KT 4SM 25/24 A2971 RMK T02500240 IEM_DS3505
ZGKL,2006-06-27 23:00,ZGKL 272300Z AUTO 00000KT 4SM 25/24 A2971 RMK T02500240 IEM_DS3505
ZGKL,2006-06-28 00:00,ZGKL 280000Z AUTO 14004KT 9SM 28/25 A2974 RMK SLP056 T02840246 52008 IEM_DS3505
ZGKL,2006-06-28 01:00,ZGKL 280100Z AUTO 10002KT 2 1/2SM 26/25 A2974 RMK T02600250 IEM_DS3505
ZGKL,2006-06-28 02:00,ZGKL 280200Z AUTO 11004KT 4SM 27/25 A2974 RMK T02700250 IEM_DS3505
ZGKL,2006-06-28 03:00,ZGKL 280300Z AUTO 27006KT 6SM 30/25 A2974 RMK SLP058 T03010247 52002 IEM_DS3505
ZGKL,2006-06-28 04:00,ZGKL 280400Z AUTO 30006KT 5SM 28/24 A2974 RMK T02800240 IEM_DS3505
ZGKL,2006-06-28 05:00,ZGKL 280500Z AUTO 06004KT 5SM 32/25 A2971 RMK T03200250 IEM_DS3505
ZGKL,2006-06-28 06:00,ZGKL 280600Z AUTO 32006KT 7SM 33/25 A2968 RMK SLP041 T03270247 57017 IEM_DS3505
ZGKL,2006-06-28 07:00,ZGKL 280700Z AUTO 15004KT 6SM 34/23 A2965 RMK T03400230 IEM_DS3505
ZGKL,2006-06-28 08:00,ZGKL 280800Z AUTO 13004KT 6SM 34/24 A2962 RMK T03400240 IEM_DS3505
ZGKL,2006-06-28 09:00,ZGKL 280900Z AUTO 18004KT 11SM 35/22 A2962 RMK SLP013 T03530219 57027 IEM_DS3505
ZGKL,2006-06-28 10:00,ZGKL 281000Z AUTO 13010KT 7SM 33/23 A2959 RMK T03300230 IEM_DS3505
ZGKL,2006-06-28 11:00,ZGKL 281100Z AUTO 18010KT 6SM 29/22 A2962 RMK T02900220 IEM_DS3505
ZGKL,2006-06-28 12:00,ZGKL 281200Z AUTO 18008KT 11SM 31/21 A2965 RMK SLP024 T03120211 52011 IEM_DS3505
ZGKL,2006-06-28 13:00,ZGKL 281300Z AUTO 00000KT 6SM 26/23 A2965 RMK T02600230 IEM_DS3505
ZGKL,2006-06-28 14:00,ZGKL 281400Z AUTO 00000KT 5SM 26/24 A2968 RMK T02600240 IEM_DS3505
ZGKL,2006-06-28 15:00,ZGKL 281500Z AUTO 18004KT 10SM 29/22 A2968 RMK SLP045 T02930215 52020 IEM_DS3505
ZGKL,2006-06-28 16:00,ZGKL 281600Z AUTO 34002KT 4SM 26/24 A2971 RMK T02600240 IEM_DS3505
ZGKL,2006-06-28 17:00,ZGKL 281700Z AUTO 03002KT 26/24 A2971 RMK T02600240 IEM_DS3505
ZGKL,2006-06-28 18:00,ZGKL 281800Z AUTO 04002KT 9SM 27/23 A2968 RMK SLP042 T02740230 57002 IEM_DS3505
ZGKL,2006-06-28 19:00,ZGKL 281900Z AUTO 00000KT 25/24 A2968 RMK T02500240 IEM_DS3505
ZGKL,2006-06-28 20:00,ZGKL 282000Z AUTO 00000KT 25/24 A2968 RMK T02500240 IEM_DS3505
ZGKL,2006-06-28 21:00,ZGKL 282100Z AUTO 07002KT 8SM 26/23 A2965 RMK SLP032 T02620231 57010 IEM_DS3505
ZGKL,2006-06-28 22:00,ZGKL 282200Z AUTO 00000KT 5SM 25/24 A2968 RMK T02500240 IEM_DS3505
ZGKL,2006-06-28 23:00,ZGKL 282300Z AUTO 00000KT 5SM 26/24 A2968 RMK T02600240 IEM_DS3505
ZGKL,2006-06-29 00:00,ZGKL 290000Z AUTO 32002KT 9SM 29/23 A2968 RMK SLP037 T02900230 52005 IEM_DS3505
ZGKL,2006-06-29 01:00,ZGKL 290100Z AUTO 12004KT 7SM 29/22 A2968 RMK T02900220 IEM_DS3505
ZGKL,2006-06-29 02:00,ZGKL 290200Z AUTO 16004KT 7SM 30/22 A2968 RMK T03000220 IEM_DS3505
ZGKL,2006-06-29 03:00,ZGKL 290300Z AUTO 18008KT 11SM 32/21 A2968 RMK SLP040 T03170213 52003 IEM_DS3505
ZGKL,2006-06-29 04:00,ZGKL 290400Z AUTO 02002KT 7SM 31/23 A2968 RMK T03100230 IEM_DS3505
ZGKL,2006-06-29 05:00,ZGKL 290500Z AUTO 13004KT 7SM 33/23 A2965 RMK T03300230 IEM_DS3505
ZGKL,2006-06-29 06:00,ZGKL 290600Z AUTO 18006KT 16SM 33/21 A2965 RMK SLP026 T03310213 57014 IEM_DS3505
ZGKL,2006-06-29 07:00,ZGKL 290700Z AUTO 26008KT 7SM 28/25 A2965 RMK T02800250 IEM_DS3505
ZGKL,2006-06-29 08:00,ZGKL 290800Z AUTO 00000KT 7SM 29/25 A2965 RMK T02900250 IEM_DS3505
ZGKL,2006-06-29 09:00,ZGKL 290900Z AUTO 14004KT 12SM 31/23 A2962 RMK SLP021 T03060233 57006 IEM_DS3505
ZGKL,2006-06-29 10:00,ZGKL 291000Z AUTO 28004KT 6SM 29/25 A2962 RMK T02900250 IEM_DS3505
ZGKL,2006-06-29 11:00,ZGKL 291100Z AUTO 36004KT 6SM 29/25 A2965 RMK T02900250 IEM_DS3505
ZGKL,2006-06-29 12:00,ZGKL 291200Z AUTO 02002KT 11SM 28/24 A2965 RMK SLP035 T02800244 52014 IEM_DS3505
ZGKL,2006-06-29 13:00,ZGKL 291300Z AUTO 15002KT 7SM 28/24 A2968 RMK T02800240 IEM_DS3505
ZGKL,2006-06-29 14:00,ZGKL 291400Z AUTO 32002KT 7SM 26/25 A2971 RMK T02600250 IEM_DS3505
ZGKL,2006-06-29 15:00,ZGKL 291500Z AUTO 04004KT 11SM 27/24 A2971 RMK SLP047 T02690244 52012 IEM_DS3505
ZGKL,2006-06-29 16:00,ZGKL 291600Z AUTO 12008KT 6SM 27/23 A2971 RMK T02700230 IEM_DS3505
ZGKL,2006-06-29 17:00,ZGKL 291700Z AUTO 00000KT 26/24 A2971 RMK T02600240 IEM_DS3505
ZGKL,2006-06-29 18:00,ZGKL 291800Z AUTO 36002KT 10SM 26/25 A2971 RMK SLP049 T02620246 52002 IEM_DS3505
ZGKL,2006-06-29 19:00,ZGKL 291900Z AUTO 01002KT 26/24 A2971 RMK T02600240 IEM_DS3505
ZGKL,2006-06-29 20:00,ZGKL 292000Z AUTO 35002KT 25/24 A2971 RMK T02500240 IEM_DS3505
ZGKL,2006-06-29 21:00,ZGKL 292100Z AUTO 27002KT 9SM 26/24 A2971 RMK SLP056 T02600244 52006 IEM_DS3505
ZGKL,2006-06-29 22:00,ZGKL 292200Z AUTO 34002KT 6SM 25/24 A2974 RMK T02500240 IEM_DS3505
ZGKL,2006-06-29 23:00,ZGKL 292300Z AUTO 00000KT 6SM 27/23 A2974 RMK T02700230 IEM_DS3505
ZGKL,2006-06-30 00:00,ZGKL 300000Z AUTO 27002KT 9SM 28/23 A2977 RMK SLP068 T02780232 52012 IEM_DS3505
ZGKL,2006-06-30 01:00,ZGKL 300100Z AUTO 11004KT 7SM 28/23 A2977 RMK T02800230 IEM_DS3505
ZGKL,2006-06-30 02:00,ZGKL 300200Z AUTO 18006KT 7SM 28/23 A2977 RMK T02800230 IEM_DS3505
ZGKL,2006-06-30 03:00,ZGKL 300300Z AUTO 18006KT 11SM 32/23 A2977 RMK SLP063 T03150228 57004 IEM_DS3505
ZGKL,2006-06-30 04:00,ZGKL 300400Z AUTO 28002KT 7SM 31/24 A2974 RMK T03100240 IEM_DS3505
ZGKL,2006-06-30 05:00,ZGKL 300500Z AUTO 26004KT 7SM 28/25 A2974 RMK T02800250 IEM_DS3505
ZGKL,2006-06-30 06:00,ZGKL 300600Z AUTO 11006KT 16SM 33/22 A2971 RMK SLP051 T03260224 57012 IEM_DS3505
ZGKL,2006-06-30 07:00,ZGKL 300700Z AUTO 34004KT 7SM 29/25 A2971 RMK T02900250 IEM_DS3505
ZGKL,2006-06-30 08:00,ZGKL 300800Z AUTO 13006KT 7SM 32/24 A2968 RMK T03200240 IEM_DS3505
ZGKL,2006-06-30 09:00,ZGKL 300900Z AUTO 27002KT 16SM 32/23 A2968 RMK SLP038 T03190234 57013 IEM_DS3505
ZGKL,2006-06-30 10:00,ZGKL 301000Z AUTO 17004KT 7SM 31/23 A2968 RMK T03100230 IEM_DS3505
ZGKL,2006-06-30 11:00,ZGKL 301100Z AUTO 19002KT 7SM 30/25 A2971 RMK T03000250 IEM_DS3505
ZGKL,2006-06-30 12:00,ZGKL 301200Z AUTO 22004KT 11SM 30/23 A2974 RMK SLP055 T03050229 52017 IEM_DS3505
ZGKL,2006-06-30 13:00,ZGKL 301300Z AUTO 14004KT 4SM 27/25 A2974 RMK T02700250 IEM_DS3505
ZGKL,2006-06-30 14:00,ZGKL 301400Z AUTO 10004KT 4SM 28/25 A2977 RMK T02800250 IEM_DS3505
ZGKL,2006-06-30 15:00,ZGKL 301500Z AUTO 07002KT 9SM 27/25 A2977 RMK SLP070 T02670249 52014 IEM_DS3505
ZGKL,2006-06-30 16:00,ZGKL 301600Z AUTO 22002KT 3SM 26/25 A2977 RMK T02600250 IEM_DS3505
ZGKL,2006-06-30 17:00,ZGKL 301700Z AUTO 08004KT 27/25 A2977 RMK T02700250 IEM_DS3505
ZGKL,2006-06-30 18:00,ZGKL 301800Z AUTO 16002KT 9SM 27/24 A2977 RMK 60020 SLP069 T02730242 54000 IEM_DS3505
ZGKL,2006-06-30 19:00,ZGKL 301900Z AUTO 23002KT 26/25 A2977 RMK T02600250 IEM_DS3505
ZGKL,2006-06-30 20:00,ZGKL 302000Z AUTO 00000KT 26/25 A2977 RMK T02600250 IEM_DS3505
ZGKL,2006-06-30 21:00,ZGKL 302100Z AUTO 20002KT 9SM 27/24 A2977 RMK 70020 SLP068 T02690236 57001 IEM_DS3505
ZGKL,2006-06-30 22:00,ZGKL 302200Z AUTO 00000KT 2 1/2SM 26/25 A2977 RMK T02600250 IEM_DS3505
ZGKL,2006-06-30 23:00,ZGKL 302300Z AUTO 22002KT 3SM 26/25 A2980 RMK T02600250 IEM_DS3505
ZGKL,2006-07-01 00:00,ZGKL 010000Z AUTO 18004KT 11SM 29/23 A2980 RMK 70020 SLP075 T02890233 52007 IEM_DS3505
ZGKL,2006-07-01 01:00,ZGKL 010100Z AUTO 21002KT 7SM 29/24 A2980 RMK T02900240 IEM_DS3505
ZGKL,2006-07-01 02:00,ZGKL 010200Z AUTO 30002KT 7SM 29/24 A2980 RMK T02900240 IEM_DS3505
ZGKL,2006-07-01 03:00,ZGKL 010300Z AUTO 18006KT 12SM 32/23 A2983 RMK SLP083 T03150231 52007 IEM_DS3505
ZGKL,2006-07-01 04:00,ZGKL 010400Z AUTO 14002KT 7SM 32/24 A2980 RMK T03200240 IEM_DS3505
ZGKL,2006-07-01 05:00,ZGKL 010500Z AUTO 16004KT 7SM 32/24 A2980 RMK T03200240 IEM_DS3505
ZGKL,2006-07-01 06:00,ZGKL 010600Z AUTO 22006KT 15SM 32/22 A2977 RMK SLP067 T03220217 57015 IEM_DS3505
ZGKL,2006-07-01 07:00,ZGKL 010700Z AUTO 15010KT 7SM 33/23 A2974 RMK T03300230 IEM_DS3505
ZGKL,2006-07-01 08:00,ZGKL 010800Z AUTO 15006KT 7SM 33/24 A2971 RMK T03300240 IEM_DS3505
ZGKL,2006-07-01 09:00,ZGKL 010900Z AUTO 16004KT 15SM 33/22 A2971 RMK SLP051 T03320223 57016 IEM_DS3505
ZGKL,2006-07-01 10:00,ZGKL 011000Z AUTO 11006KT 7SM 30/23 A2971 RMK T03000230 IEM_DS3505
ZGKL,2006-07-01 11:00,ZGKL 011100Z AUTO 13004KT 7SM 30/24 A2974 RMK T03000240 IEM_DS3505
ZGKL,2006-07-01 12:00,ZGKL 011200Z AUTO 29002KT 11SM 30/23 A2974 RMK 60002 SLP060 T02950230 52009 IEM_DS3505
ZGKL,2006-07-01 13:00,ZGKL 011300Z AUTO 00000KT 6SM 27/25 A2977 RMK T02700250 IEM_DS3505
ZGKL,2006-07-01 14:00,ZGKL 011400Z AUTO 00000KT 6SM 27/25 A2977 RMK T02700250 IEM_DS3505
ZGKL,2006-07-01 15:00,ZGKL 011500Z AUTO 02002KT 10SM 28/24 A2980 RMK SLP079 T02770245 52019 IEM_DS3505
ZGKL,2006-07-01 16:00,ZGKL 011600Z AUTO 33004KT 26/24 A2980 RMK T02600240 IEM_DS3505
ZGKL,2006-07-01 17:00,ZGKL 011700Z AUTO 00000KT 26/24 A2980 RMK T02600240 IEM_DS3505
ZGKL,2006-07-01 18:00,ZGKL 011800Z AUTO 07002KT 9SM 26/24 A2977 RMK SLP070 T02650245 57009 IEM_DS3505
ZGKL,2006-07-01 19:00,ZGKL 011900Z AUTO 00000KT 25/23 A2977 RMK T02500230 IEM_DS3505
ZGKL,2006-07-01 20:00,ZGKL 012000Z AUTO 00000KT 25/23 A2977 RMK T02500230 IEM_DS3505
ZGKL,2006-07-01 21:00,ZGKL 012100Z AUTO 07002KT 9SM 26/24 A2977 RMK 70002 SLP065 T02580244 57005 IEM_DS3505
ZGKL,2006-07-01 22:00,ZGKL 012200Z AUTO 30002KT 4SM 24/23 A2977 RMK T02400230 IEM_DS3505
ZGKL,2006-07-01 23:00,ZGKL 012300Z AUTO 00000KT 5SM 25/24 A2980 RMK T02500240 IEM_DS3505
ZGKL,2006-07-02 00:00,ZGKL 020000Z AUTO 07002KT 9SM 27/25 A2980 RMK 70002 SLP083 T02740247 52017 IEM_DS3505
ZGKL,2006-07-02 01:00,ZGKL 020100Z AUTO 21004KT 7SM 29/25 A2980 RMK T02900250 IEM_DS3505
ZGKL,2006-07-02 02:00,ZGKL 020200Z AUTO 18008KT 7SM 31/23 A2980 RMK T03100230 IEM_DS3505
ZGKL,2006-07-02 03:00,ZGKL 020300Z AUTO 18008KT 9SM 32/22 A2980 RMK SLP079 T03180219 57003 IEM_DS3505
ZGKL,2006-07-02 04:00,ZGKL 020400Z AUTO 17010KT 7SM 33/22 A2980 RMK T03300220 IEM_DS3505
ZGKL,2006-07-02 05:00,ZGKL 020500Z AUTO 19008KT 7SM 34/22 A2977 RMK T03400220 IEM_DS3505
ZGKL,2006-07-02 06:00,ZGKL 020600Z AUTO 22006KT 14SM 33/22 A2974 RMK SLP060 T03320223 57019 IEM_DS3505
ZGKL,2006-07-02 07:00,ZGKL 020700Z AUTO 17010KT 7SM 35/21 A2971 RMK T03500210 IEM_DS3505
ZGKL,2006-07-02 08:00,ZGKL 020800Z AUTO 12008KT 7SM 34/22 A2971 RMK T03400220 IEM_DS3505
ZGKL,2006-07-02 09:00,ZGKL 020900Z AUTO 22006KT 16SM 33/22 A2971 RMK SLP044 T03330218 57016 IEM_DS3505
ZGKL,2006-07-02 10:00,ZGKL 021000Z AUTO 21010KT 7SM 31/24 A2971 RMK T03100240 IEM_DS3505
ZGKL,2006-07-02 11:00,ZGKL 021100Z AUTO 16008KT 7SM 30/24 A2971 RMK T03000240 IEM_DS3505
ZGKL,2006-07-02 12:00,ZGKL 021200Z AUTO 20004KT 14SM 30/23 A2971 RMK SLP048 T03040231 52004 IEM_DS3505
ZGKL,2006-07-02 13:00,ZGKL 021300Z AUTO 17004KT 6SM 28/24 A2971 RMK T02800240 IEM_DS3505
ZGKL,2006-07-02 14:00,ZGKL 021400Z AUTO 17006KT 6SM 27/24 A2974 RMK T02700240 IEM_DS3505
ZGKL,2006-07-02 15:00,ZGKL 021500Z AUTO 34002KT 11SM 28/23 A2974 RMK SLP058 T02800234 52010 IEM_DS3505
ZGKL,2006-07-02 16:00,ZGKL 021600Z AUTO 28002KT 26/24 A2974 RMK T02600240 IEM_DS3505
ZGKL,2006-07-02 17:00,ZGKL 021700Z AUTO 00000KT 26/24 A2974 RMK T02600240 IEM_DS3505
ZGKL,2006-07-02 18:00,ZGKL 021800Z AUTO 07002KT 10SM 27/25 A2974 RMK SLP055 T02710246 57003 IEM_DS3505
ZGKL,2006-07-02 19:00,ZGKL 021900Z AUTO 31002KT 25/24 A2974 RMK T02500240 IEM_DS3505
ZGKL,2006-07-02 20:00,ZGKL 022000Z AUTO 32002KT 25/24 A2974 RMK T02500240 IEM_DS3505
ZGKL,2006-07-02 21:00,ZGKL 022100Z AUTO 18002KT 10SM 27/24 A2974 RMK SLP057 T02720237 52002 IEM_DS3505
ZGKL,2006-07-02 22:00,ZGKL 022200Z AUTO 00000KT 5SM 24/23 A2974 RMK T02400230 IEM_DS3505
ZGKL,2006-07-02 23:00,ZGKL 022300Z AUTO 00000KT 5SM 25/24 A2974 RMK T02500240 IEM_DS3505
ZGKL,2006-07-03 00:00,ZGKL 030000Z AUTO 16004KT 10SM 30/23 A2977 RMK SLP064 T02960228 52007 IEM_DS3505
ZGKL,2006-07-03 01:00,ZGKL 030100Z AUTO 19004KT 7SM 30/24 A2977 RMK T03000240 IEM_DS3505
ZGKL,2006-07-03 02:00,ZGKL 030200Z AUTO 14004KT 7SM 31/24 A2977 RMK T03100240 IEM_DS3505
ZGKL,2006-07-03 03:00,ZGKL 030300Z AUTO 20008KT 14SM 32/22 A2974 RMK SLP062 T03190220 57002 IEM_DS3505
ZGKL,2006-07-03 04:00,ZGKL 030400Z AUTO 14004KT 7SM 33/22 A2974 RMK T03300220 IEM_DS3505
ZGKL,2006-07-03 05:00,ZGKL 030500Z AUTO 13006KT 7SM 32/23 A2971 RMK T03200230 IEM_DS3505
ZGKL,2006-07-03 06:00,ZGKL 030600Z AUTO 18006KT 16SM 34/21 A2971 RMK SLP042 T03400214 57019 IEM_DS3505
ZGKL,2006-07-03 07:00,ZGKL 030700Z AUTO 11008KT 7SM 35/22 A2968 RMK T03500220 IEM_DS3505
ZGKL,2006-07-03 08:00,ZGKL 030800Z AUTO 14010KT 7SM 34/23 A2965 RMK T03400230 IEM_DS3505
ZGKL,2006-07-03 09:00,ZGKL 030900Z AUTO 20006KT 19SM 35/22 A2965 RMK SLP027 T03480225 57015 IEM_DS3505
ZGKL,2006-07-03 10:00,ZGKL 031000Z AUTO 11004KT 7SM 34/23 A2965 RMK T03400230 IEM_DS3505
ZGKL,2006-07-03 11:00,ZGKL 031100Z AUTO 11004KT 7SM 33/23 A2965 RMK T03300230 IEM_DS3505
ZGKL,2006-07-03 12:00,ZGKL 031200Z AUTO 20004KT 19SM 32/22 A2965 RMK SLP029 T03240222 52002 IEM_DS3505
ZGKL,2006-07-03 13:00,ZGKL 031300Z AUTO 18002KT 6SM 29/25 A2968 RMK T02900250 IEM_DS3505
ZGKL,2006-07-03 14:00,ZGKL 031400Z AUTO 18002KT 6SM 28/25 A2968 RMK T02800250 IEM_DS3505
ZGKL,2006-07-03 15:00,ZGKL 031500Z AUTO 18004KT 16SM 30/23 A2968 RMK SLP040 T03050232 52011 IEM_DS3505
ZGKL,2006-07-03 16:00,ZGKL 031600Z AUTO 18002KT 6SM 27/25 A2968 RMK T02700250 IEM_DS3505
ZGKL,2006-07-03 17:00,ZGKL 031700Z AUTO 21002KT 26/25 A2968 RMK T02600250 IEM_DS3505
ZGKL,2006-07-03 18:00,ZGKL 031800Z AUTO 18002KT 14SM 29/22 A2965 RMK SLP034 T02880223 57006 IEM_DS3505
ZGKL,2006-07-03 19:00,ZGKL 031900Z AUTO 02002KT 26/24 A2965 RMK T02600240 IEM_DS3505
ZGKL,2006-07-03 20:00,ZGKL 032000Z AUTO 36002KT 25/24 A2965 RMK T02500240 IEM_DS3505
ZGKL,2006-07-03 21:00,ZGKL 032100Z AUTO 29002KT 11SM 27/23 A2965 RMK SLP029 T02740228 57005 IEM_DS3505
ZGKL,2006-07-03 22:00,ZGKL 032200Z AUTO 32002KT 6SM 25/23 A2965 RMK T02500230 IEM_DS3505
ZGKL,2006-07-03 23:00,ZGKL 032300Z AUTO 35002KT 6SM 26/24 A2968 RMK T02600240 IEM_DS3505
ZGKL,2006-07-04 00:00,ZGKL 040000Z AUTO 02004KT 10SM 28/23 A2968 RMK SLP037 T02770231 52008 IEM_DS3505
ZGKL,2006-07-04 01:00,ZGKL 040100Z AUTO 31002KT 7SM 28/25 A2968 RMK T02800250 IEM_DS3505
ZGKL,2006-07-04 02:00,ZGKL 040200Z AUTO 12008KT 7SM 27/24 A2971 RMK T02700240 IEM_DS3505
ZGKL,2006-07-04 03:00,ZGKL 040300Z AUTO 09004KT 7SM 28/24 A2968 RMK SLP046 T02810245 52008 IEM_DS3505
ZGKL,2006-07-04 04:00,ZGKL 040400Z AUTO 10004KT 7SM 30/24 A2968 RMK T03000240 IEM_DS3505
ZGKL,2006-07-04 05:00,ZGKL 040500Z AUTO 13004KT 7SM 31/24 A2965 RMK T03100240 IEM_DS3505
ZGKL,2006-07-04 06:00,ZGKL 040600Z AUTO 25006KT 9SM 28/24 A2962 RMK 60024 SLP028 T02830245 57018 IEM_DS3505
ZGKL,2006-07-04 07:00,ZGKL 040700Z AUTO 08008KT 7SM 32/24 A2962 RMK T03200240 IEM_DS3505
ZGKL,2006-07-04 08:00,ZGKL 040800Z AUTO 08004KT 7SM 33/24 A2959 RMK T03300240 IEM_DS3505
ZGKL,2006-07-04 09:00,ZGKL 040900Z AUTO 09002KT 17SM 33/24 A2959 RMK SLP007 T03260238 57020 IEM_DS3505
ZGKL,2006-07-04 10:00,ZGKL 041000Z AUTO 10004KT 7SM 32/23 A2959 RMK T03200230 IEM_DS3505
ZGKL,2006-07-04 11:00,ZGKL 041100Z AUTO 10002KT 7SM 31/24 A2959 RMK T03100240 IEM_DS3505
ZGKL,2006-07-04 12:00,ZGKL 041200Z AUTO 18004KT 16SM 30/24 A2962 RMK SLP024 T02950237 52016 IEM_DS3505
ZGKL,2006-07-04 13:00,ZGKL 041300Z AUTO 25002KT 6SM 27/25 A2965 RMK T02700250 IEM_DS3505
ZGKL,2006-07-04 14:00,ZGKL 041400Z AUTO 00000KT 6SM 28/24 A2965 RMK T02800240 IEM_DS3505
ZGKL,2006-07-04 15:00,ZGKL 041500Z AUTO 04002KT 12SM 28/24 A2965 RMK SLP034 T02760244 52009 IEM_DS3505
ZGKL,2006-07-04 16:00,ZGKL 041600Z AUTO 31002KT 27/25 A2965 RMK T02700250 IEM_DS3505
ZGKL,2006-07-04 17:00,ZGKL 041700Z AUTO 32002KT 27/25 A2965 RMK T02700250 IEM_DS3505
ZGKL,2006-07-04 18:00,ZGKL 041800Z AUTO 02002KT 12SM 27/24 A2965 RMK SLP032 T02670242 57002 IEM_DS3505
ZGKL,2006-07-04 19:00,ZGKL 041900Z AUTO 35002KT 26/25 A2965 RMK T02600250 IEM_DS3505
ZGKL,2006-07-04 20:00,ZGKL 042000Z AUTO 32002KT 26/25 A2965 RMK T02600250 IEM_DS3505
ZGKL,2006-07-04 21:00,ZGKL 042100Z AUTO 36002KT 9SM 27/25 A2965 RMK 70022 SLP031 T02670247 54000 IEM_DS3505
ZGKL,2006-07-04 22:00,ZGKL 042200Z AUTO 34002KT 5SM 26/25 A2965 RMK T02600250 IEM_DS3505
ZGKL,2006-07-04 23:00,ZGKL 042300Z AUTO 35004KT 5SM 26/25 A2968 RMK T02600250 IEM_DS3505
ZGKL,2006-07-05 00:00,ZGKL 050000Z AUTO 04002KT 9SM 27/25 A2968 RMK 60000 70022 SLP046 T02700250 52014 IEM_DS3505
ZGKL,2006-07-05 01:00,ZGKL 050100Z AUTO 33004KT 7SM 27/25 A2971 RMK T02700250 IEM_DS3505
ZGKL,2006-07-05 02:00,ZGKL 050200Z AUTO 32006KT 7SM 28/25 A2968 RMK T02800250 IEM_DS3505
ZGKL,2006-07-05 03:00,ZGKL 050300Z AUTO 18008KT 16SM 32/22 A2968 RMK SLP040 T03200218 57005 IEM_DS3505
ZGKL,2006-07-05 04:00,ZGKL 050400Z AUTO 01004KT 7SM 31/24 A2968 RMK T03100240 IEM_DS3505
ZGKL,2006-07-05 05:00,ZGKL 050500Z AUTO 30004KT 7SM 31/25 A2965 RMK T03100250 IEM_DS3505
ZGKL,2006-07-05 06:00,ZGKL 050600Z AUTO 18008KT 16SM 32/23 A2965 RMK SLP024 T03210228 57016 IEM_DS3505
ZGKL,2006-07-05 07:00,ZGKL 050700Z AUTO 28006KT 7SM 26/24 A2965 RMK T02600240 IEM_DS3505
ZGKL,2006-07-05 08:00,ZGKL 050800Z AUTO 28002KT 7SM 28/24 A2962 RMK T02800240 IEM_DS3505
ZGKL,2006-07-05 09:00,ZGKL 050900Z AUTO 29008KT 19SM 31/24 A2959 RMK SLP007 T03060238 57017 IEM_DS3505
ZGKL,2006-07-05 10:00,ZGKL 051000Z AUTO 33004KT 6SM 30/25 A2956 RMK T03000250 IEM_DS3505
ZGKL,2006-07-05 11:00,ZGKL 051100Z AUTO 32004KT 7SM 29/25 A2959 RMK T02900250 IEM_DS3505
ZGKL,2006-07-05 12:00,ZGKL 051200Z AUTO 32002KT 12SM 30/23 A2959 RMK SLP012 T03010233 52005 IEM_DS3505
ZGKL,2006-07-05 13:00,ZGKL 051300Z AUTO 30002KT 6SM 27/25 A2962 RMK T02700250 IEM_DS3505
ZGKL,2006-07-05 14:00,ZGKL 051400Z AUTO 09002KT 7SM 28/24 A2962 RMK T02800240 IEM_DS3505
ZGKL,2006-07-05 15:00,ZGKL 051500Z AUTO 09002KT 6SM 26/25 A2965 RMK SLP030 T02570248 52018 IEM_DS3505
ZGKL,2006-07-05 16:00,ZGKL 051600Z AUTO 04002KT 7SM 27/25 A2965 RMK T02700250 IEM_DS3505
ZGKL,2006-07-05 17:00,ZGKL 051700Z AUTO 31002KT 26/25 A2962 RMK T02600250 IEM_DS3505
ZGKL,2006-07-05 18:00,ZGKL 051800Z AUTO 07002KT 6SM 26/25 A2962 RMK 60075 SLP015 T02560249 57015 IEM_DS3505
ZGKL,2006-07-05 19:00,ZGKL 051900Z AUTO 29004KT 26/25 A2962 RMK T02600250 IEM_DS3505
ZGKL,2006-07-05 20:00,ZGKL 052000Z AUTO 35002KT 26/25 A2959 RMK T02600250 IEM_DS3505
ZGKL,2006-07-05 21:00,ZGKL 052100Z AUTO 14002KT 6SM 26/25 A2959 RMK 70087 SLP013 T02570248 57002 IEM_DS3505
ZGKL,2006-07-05 22:00,ZGKL 052200Z AUTO 02002KT 3SM 26/25 A2962 RMK T02600250 IEM_DS3505
ZGKL,2006-07-05 23:00,ZGKL 052300Z AUTO 32002KT 2 1/2SM 26/25 A2962 RMK T02600250 IEM_DS3505
ZGKL,2006-07-06 00:00,ZGKL 060000Z AUTO 11002KT 3SM 28/26 A2965 RMK 60012 70087 SLP026 T02780260 52013 IEM_DS3505
ZGKL,2006-07-06 01:00,ZGKL 060100Z AUTO 22002KT 4SM 29/23 A2965 RMK T02900230 IEM_DS3505
ZGKL,2006-07-06 02:00,ZGKL 060200Z AUTO 26002KT 5SM 28/26 A2965 RMK T02800260 IEM_DS3505
ZGKL,2006-07-06 03:00,ZGKL 060300Z AUTO 22004KT 9SM 31/24 A2962 RMK SLP022 T03060238 57004 IEM_DS3505
ZGKL,2006-07-06 04:00,ZGKL 060400Z AUTO 18006KT 7SM 31/25 A2962 RMK T03100250 IEM_DS3505
ZGKL,2006-07-06 05:00,ZGKL 060500Z AUTO 17008KT 7SM 31/24 A2959 RMK T03100240 IEM_DS3505
ZGKL,2006-07-06 06:00,ZGKL 060600Z AUTO 11004KT 14SM 31/24 A2959 RMK SLP006 T03130239 57016 IEM_DS3505
ZGKL,2006-07-06 07:00,ZGKL 060700Z AUTO 30004KT 7SM 30/25 A2956 RMK T03000250 IEM_DS3505
ZGKL,2006-07-06 08:00,ZGKL 060800Z AUTO 25002KT 6SM 32/25 A2953 RMK T03200250 IEM_DS3505
ZGKL,2006-07-06 09:00,ZGKL 060900Z AUTO 18004KT 14SM 33/24 A2953 RMK SLP986 T03280240 57019 IEM_DS3505
ZGKL,2006-07-06 10:00,ZGKL 061000Z AUTO 22002KT 6SM 33/25 A2953 RMK T03300250 IEM_DS3505
ZGKL,2006-07-06 11:00,ZGKL 061100Z AUTO 10004KT 6SM 31/25 A2953 RMK T03100250 IEM_DS3505
ZGKL,2006-07-06 12:00,ZGKL 061200Z AUTO 04002KT 14SM 30/26 A2953 RMK SLP990 T02990256 52004 IEM_DS3505
ZGKL,2006-07-06 13:00,ZGKL 061300Z AUTO 31004KT 5SM 28/26 A2956 RMK T02800260 IEM_DS3505
ZGKL,2006-07-06 14:00,ZGKL 061400Z AUTO 17004KT 4SM 28/26 A2959 RMK T02800260 IEM_DS3505
ZGKL,2006-07-06 15:00,ZGKL 061500Z AUTO 25008KT 12SM 28/25 A2959 RMK SLP013 T02760252 52022 IEM_DS3505
ZGKL,2006-07-06 16:00,ZGKL 061600Z AUTO 22002KT 2 1/2SM 27/26 A2959 RMK T02700260 IEM_DS3505
ZGKL,2006-07-06 17:00,ZGKL 061700Z AUTO 01004KT 27/25 A2959 RMK T02700250 IEM_DS3505
ZGKL,2006-07-06 18:00,ZGKL 061800Z AUTO 04002KT 6SM 26/25 A2956 RMK 60020 SLP001 T02630253 57011 IEM_DS3505
ZGKL,2006-07-06 19:00,ZGKL 061900Z AUTO 01002KT 27/25 A2956 RMK T02700250 IEM_DS3505
ZGKL,2006-07-06 20:00,ZGKL 062000Z AUTO 19002KT 5SM 27/25 A2956 RMK T02700250 IEM_DS3505
ZGKL,2006-07-06 21:00,ZGKL 062100Z AUTO 07002KT 7SM 27/26 A2956 RMK 70018 SLP001 T02660256 54000 IEM_DS3505
ZGKL,2006-07-06 22:00,ZGKL 062200Z AUTO 00000KT 4SM 26/24 A2956 RMK T02600240 IEM_DS3505
ZGKL,2006-07-06 23:00,ZGKL 062300Z AUTO 00000KT 5SM 27/25 A2959 RMK T02700250 IEM_DS3505
ZGKL,2006-07-07 00:00,ZGKL 070000Z AUTO 18002KT 8SM 28/24 A2959 RMK 70018 SLP010 T02800244 52008 IEM_DS3505
ZGKL,2006-07-07 01:00,ZGKL 070100Z AUTO 13002KT 5SM 28/25 A2959 RMK T02800250 IEM_DS3505
ZGKL,2006-07-07 02:00,ZGKL 070200Z AUTO 17008KT 7SM 29/25 A2956 RMK T02900250 IEM_DS3505
ZGKL,2006-07-07 03:00,ZGKL 070300Z AUTO 16002KT 9SM 29/25 A2956 RMK SLP003 T02910247 57007 IEM_DS3505
ZGKL,2006-07-07 04:00,ZGKL 070400Z AUTO 18006KT 7SM 30/24 A2956 RMK T03000240 IEM_DS3505
ZGKL,2006-07-07 05:00,ZGKL 070500Z AUTO 19008KT 7SM 32/25 A2953 RMK T03200250 IEM_DS3505
ZGKL,2006-07-07 06:00,ZGKL 070600Z AUTO 20002KT 11SM 32/25 A2950 RMK 60002 SLP980 T03160250 57022 IEM_DS3505
ZGKL,2006-07-07 07:00,ZGKL 070700Z AUTO 18008KT 6SM 32/25 A2950 RMK T03200250 IEM_DS3505
ZGKL,2006-07-07 08:00,ZGKL 070800Z AUTO 31002KT 7SM 30/26 A2947 RMK T03000260 IEM_DS3505
ZGKL,2006-07-07 09:00,ZGKL 070900Z AUTO 14006KT 15SM 31/25 A2947 RMK SLP967 T03140248 57013 IEM_DS3505
ZGKL,2006-07-07 10:00,ZGKL 071000Z AUTO 16004KT 7SM 31/26 A2947 RMK T03100260 IEM_DS3505
ZGKL,2006-07-07 11:00,ZGKL 071100Z AUTO 34002KT 7SM 30/27 A2947 RMK T03000270 IEM_DS3505
ZGKL,2006-07-07 12:00,ZGKL 071200Z AUTO 04004KT 11SM 29/26 A2950 RMK 60004 SLP977 T02910261 52010 IEM_DS3505
ZGKL,2006-07-07 13:00,ZGKL 071300Z AUTO 11008KT 2SM 25/24 A2953 RMK T02500240 IEM_DS3505
ZGKL,2006-07-07 14:00,ZGKL 071400Z AUTO 02006KT 4SM 25/24 A2953 RMK T02500240 IEM_DS3505
ZGKL,2006-07-07 15:00,ZGKL 071500Z AUTO 04006KT 5SM 26/25 A2953 RMK SLP997 T02560251 52019 IEM_DS3505
ZGKL,2006-07-07 16:00,ZGKL 071600Z AUTO 31002KT 5SM 25/24 A2953 RMK T02500240 IEM_DS3505
ZGKL,2006-07-07 17:00,ZGKL 071700Z AUTO 02002KT 5SM 25/24 A2953 RMK T02500240 IEM_DS3505
ZGKL,2006-07-07 18:00,ZGKL 071800Z AUTO 00000KT 6SM 26/25 A2953 RMK 60114 SLP985 T02560249 57011 IEM_DS3505
ZGKL,2006-07-07 19:00,ZGKL 071900Z AUTO 00000KT 25/24 A2950 RMK T02500240 IEM_DS3505
ZGKL,2006-07-07 20:00,ZGKL 072000Z AUTO 00000KT 25/24 A2950 RMK T02500240 IEM_DS3505
ZGKL,2006-07-07 21:00,ZGKL 072100Z AUTO 04002KT 6SM 26/25 A2950 RMK 70125 SLP982 T02560249 57003 IEM_DS3505
ZGKL,2006-07-07 22:00,ZGKL 072200Z AUTO 31002KT 3SM 25/24 A2950 RMK T02500240 IEM_DS3505
ZGKL,2006-07-07 23:00,ZGKL 072300Z AUTO 00000KT 3SM 25/25 A2950 RMK T02500250 IEM_DS3505
ZGKL,2006-07-08 00:00,ZGKL 080000Z AUTO 00000KT 6SM 27/26 A2950 RMK 60004 70125 SLP986 T02670255 52003 IEM_DS3505
ZGKL,2006-07-08 01:00,ZGKL 080100Z AUTO 33002KT 3SM 27/25 A2953 RMK T02700250 IEM_DS3505
ZGKL,2006-07-08 02:00,ZGKL 080200Z AUTO 34002KT 4SM 28/25 A2953 RMK T02800250 IEM_DS3505
ZGKL,2006-07-08 03:00,ZGKL 080300Z AUTO 11002KT 4SM 29/26 A2953 RMK SLP992 T02890263 52006 IEM_DS3505
ZGKL,2006-07-08 04:00,ZGKL 080400Z AUTO 16004KT 7SM 30/25 A2953 RMK T03000250 IEM_DS3505
ZGKL,2006-07-08 05:00,ZGKL 080500Z AUTO 18004KT 7SM 31/25 A2950 RMK T03100250 IEM_DS3505
ZGKL,2006-07-08 06:00,ZGKL 080600Z AUTO 02004KT 9SM 32/25 A2947 RMK 60000 SLP968 T03160250 57023 IEM_DS3505
ZGKL,2006-07-08 07:00,ZGKL 080700Z AUTO 22004KT 1SM 26/25 A2947 RMK T02600250 IEM_DS3505
ZGKL,2006-07-08 08:00,ZGKL 080800Z AUTO 33004KT 7SM 28/26 A2947 RMK T02800260 IEM_DS3505
ZGKL,2006-07-08 09:00,ZGKL 080900Z AUTO 29002KT 9SM 29/26 A2944 RMK SLP961 T02920258 57008 IEM_DS3505
ZGKL,2006-07-08 10:00,ZGKL 081000Z AUTO 14006KT 1SM 26/25 A2947 RMK T02600250 IEM_DS3505
ZGKL,2006-07-08 11:00,ZGKL 081100Z AUTO 32002KT 2 1/2SM 26/25 A2947 RMK T02600250 IEM_DS3505
ZGKL,2006-07-08 12:00,ZGKL 081200Z AUTO 32002KT 5SM 27/24 A2947 RMK 60000 SLP974 T02660244 52013 IEM_DS3505
ZGKL,2006-07-08 13:00,ZGKL 081300Z AUTO 34002KT 3SM 26/25 A2950 RMK T02600250 IEM_DS3505
ZGKL,2006-07-08 14:00,ZGKL 081400Z AUTO 35002KT 2SM 26/25 A2953 RMK T02600250 IEM_DS3505
ZGKL,2006-07-08 15:00,ZGKL 081500Z AUTO 07002KT 5SM 26/25 A2953 RMK SLP987 T02640254 52013 IEM_DS3505
ZGKL,2006-07-08 16:00,ZGKL 081600Z AUTO 18004KT 1SM 25/25 A2953 RMK T02500250 IEM_DS3505
ZGKL,2006-07-08 17:00,ZGKL 081700Z AUTO 30004KT 1 1/4SM 25/24 A2950 RMK T02500240 IEM_DS3505
ZGKL,2006-07-08 18:00,ZGKL 081800Z AUTO 32002KT 5SM 26/25 A2950 RMK 60016 SLP974 T02600253 57012 IEM_DS3505
ZGKL,2006-07-08 19:00,ZGKL 081900Z AUTO 03004KT 25/25 A2947 RMK T02500250 IEM_DS3505
ZGKL,2006-07-08 20:00,ZGKL 082000Z AUTO 00000KT 25/24 A2947 RMK T02500240 IEM_DS3505
ZGKL,2006-07-08 21:00,ZGKL 082100Z AUTO 36002KT 4SM 26/25 A2947 RMK 70143 SLP968 T02550252 57007 IEM_DS3505
ZGKL,2006-07-08 22:00,ZGKL 082200Z AUTO 22002KT 2SM 25/24 A2947 RMK T02500240 IEM_DS3505
ZGKL,2006-07-08 23:00,ZGKL 082300Z AUTO 15002KT 2SM 25/24 A2947 RMK T02500240 IEM_DS3505
ZGKL,2006-07-09 00:00,ZGKL 090000Z AUTO 16002KT 5SM 25/24 A2950 RMK 60193 70211 SLP985 T02480243 52016 IEM_DS3505
ZGKL,2006-07-09 01:00,ZGKL 090100Z AUTO 00000KT 3SM 25/24 A2950 RMK T02500240 IEM_DS3505
ZGKL,2006-07-09 02:00,ZGKL 090200Z AUTO 13002KT 4SM 25/24 A2953 RMK T02500240 IEM_DS3505
ZGKL,2006-07-09 03:00,ZGKL 090300Z AUTO 18002KT 6SM 26/25 A2953 RMK SLP991 T02550246 52006 IEM_DS3505
ZGKL,2006-07-09 04:00,ZGKL 090400Z AUTO 13004KT 7SM 26/24 A2953 RMK T02600240 IEM_DS3505
ZGKL,2006-07-09 05:00,ZGKL 090500Z AUTO 12002KT 7SM 27/24 A2950 RMK T02700240 IEM_DS3505
ZGKL,2006-07-09 06:00,ZGKL 090600Z AUTO 18004KT 9SM 28/24 A2950 RMK 60028 SLP978 T02750239 57012 IEM_DS3505
ZGKL,2006-07-09 07:00,ZGKL 090700Z AUTO 17002KT 7SM 27/24 A2947 RMK T02700240 IEM_DS3505
ZGKL,2006-07-09 08:00,ZGKL 090800Z AUTO 00000KT 7SM 28/24 A2947 RMK T02800240 IEM_DS3505
ZGKL,2006-07-09 09:00,ZGKL 090900Z AUTO 18002KT 9SM 28/24 A2944 RMK SLP963 T02810245 57015 IEM_DS3505
ZGKL,2006-07-09 10:00,ZGKL 091000Z AUTO 33004KT 7SM 27/25 A2944 RMK T02700250 IEM_DS3505
ZGKL,2006-07-09 11:00,ZGKL 091100Z AUTO 31002KT 7SM 27/25 A2947 RMK T02700250 IEM_DS3505
ZGKL,2006-07-09 12:00,ZGKL 091200Z AUTO 27002KT 12SM 27/25 A2947 RMK SLP974 T02720248 52010 IEM_DS3505
ZGKL,2006-07-09 13:00,ZGKL 091300Z AUTO 00000KT 4SM 26/25 A2950 RMK T02600250 IEM_DS3505
ZGKL,2006-07-09 14:00,ZGKL 091400Z AUTO 29002KT 4SM 26/25 A2953 RMK T02600250 IEM_DS3505
ZGKL,2006-07-09 15:00,ZGKL 091500Z AUTO 09002KT 9SM 26/26 A2953 RMK SLP994 T02650255 52020 IEM_DS3505
ZGKL,2006-07-09 16:00,ZGKL 091600Z AUTO 31002KT 25/24 A2953 RMK T02500240 IEM_DS3505
ZGKL,2006-07-09 17:00,ZGKL 091700Z AUTO 00000KT 25/24 A2953 RMK T02500240 IEM_DS3505
ZGKL,2006-07-09 18:00,ZGKL 091800Z AUTO 04002KT 8SM 26/25 A2953 RMK SLP988 T02580249 57006 IEM_DS3505
ZGKL,2006-07-09 19:00,ZGKL 091900Z AUTO 35002KT 25/24 A2950 RMK T02500240 IEM_DS3505
ZGKL,2006-07-09 20:00,ZGKL 092000Z AUTO 00000KT 25/24 A2950 RMK T02500240 IEM_DS3505
ZGKL,2006-07-09 21:00,ZGKL 092100Z AUTO 04002KT 7SM 26/25 A2953 RMK 70095 SLP987 T02570247 54000 IEM_DS3505
ZGKL,2006-07-09 22:00,ZGKL 092200Z AUTO 32002KT 2SM 25/24 A2953 RMK T02500240 IEM_DS3505
ZGKL,2006-07-09 23:00,ZGKL 092300Z AUTO 35002KT 3SM 25/24 A2953 RMK T02500240 IEM_DS3505
ZGKL,2006-07-10 00:00,ZGKL 100000Z AUTO 09002KT 5SM 26/25 A2953 RMK 60000 70027 SLP998 T02620250 52010 IEM_DS3505
ZGKL,2006-07-10 01:00,ZGKL 100100Z AUTO 36002KT 4SM 28/24 A2956 RMK T02800240 IEM_DS3505
ZGKL,2006-07-10 02:00,ZGKL 100200Z AUTO 00000KT 7SM 28/25 A2956 RMK T02800250 IEM_DS3505
ZGKL,2006-07-10 03:00,ZGKL 100300Z AUTO 16004KT 4SM 29/25 RMK SLP000 T02910249 52003 IEM_DS3505
ZGKL,2006-07-10 04:00,ZGKL 100400Z AUTO 21002KT 7SM 29/25 A2956 RMK T02900250 IEM_DS3505
ZGKL,2006-07-10 05:00,ZGKL 100500Z AUTO 35004KT 7SM 31/25 A2953 RMK T03100250 IEM_DS3505
ZGKL,2006-07-10 06:00,ZGKL 100600Z AUTO 16004KT 10SM 32/24 A2950 RMK SLP984 T03160242 57015 IEM_DS3505
ZGKL,2006-07-10 07:00,ZGKL 100700Z AUTO 13004KT 7SM 31/24 A2950 RMK T03100240 IEM_DS3505
ZGKL,2006-07-10 08:00,ZGKL 100800Z AUTO 17002KT 7SM 33/24 A2950 RMK T03300240 IEM_DS3505
ZGKL,2006-07-10 09:00,ZGKL 100900Z AUTO 14004KT 10SM 32/26 A2947 RMK SLP974 T03160255 57010 IEM_DS3505
ZGKL,2006-07-10 10:00,ZGKL 101000Z AUTO 07008KT 7SM 29/25 A2947 RMK T02900250 IEM_DS3505
ZGKL,2006-07-10 11:00,ZGKL 101100Z AUTO 02008KT 7SM 27/25 A2953 RMK T02700250 IEM_DS3505
ZGKL,2006-07-10 12:00,ZGKL 101200Z AUTO 14002KT 9SM 27/26 A2953 RMK 60035 SLP994 T02720256 52018 IEM_DS3505
ZGKL,2006-07-10 13:00,ZGKL 101300Z AUTO 32002KT 3SM 26/25 A2956 RMK T02600250 IEM_DS3505
ZGKL,2006-07-10 14:00,ZGKL 101400Z AUTO 35004KT 3SM 26/25 A2956 RMK T02600250 IEM_DS3505
ZGKL,2006-07-10 15:00,ZGKL 101500Z AUTO 04002KT 7SM 27/26 A2959 RMK SLP008 T02670257 52015 IEM_DS3505
ZGKL,2006-07-10 16:00,ZGKL 101600Z AUTO 32002KT 2SM 25/25 A2959 RMK T02500250 IEM_DS3505
ZGKL,2006-07-10 17:00,ZGKL 101700Z AUTO 00000KT 26/25 A2959 RMK T02600250 IEM_DS3505
ZGKL,2006-07-10 18:00,ZGKL 101800Z AUTO 09002KT 7SM 26/26 A2956 RMK 60002 SLP003 T02630256 57004 IEM_DS3505
ZGKL,2006-07-10 19:00,ZGKL 101900Z AUTO 34002KT 25/25 A2956 RMK T02500250 IEM_DS3505
ZGKL,2006-07-10 20:00,ZGKL 102000Z AUTO 30002KT 25/24 A2956 RMK T02500240 IEM_DS3505
ZGKL,2006-07-10 21:00,ZGKL 102100Z AUTO 02004KT 7SM 26/25 A2956 RMK 70036 SLP000 T02580249 57004 IEM_DS3505
ZGKL,2006-07-10 22:00,ZGKL 102200Z AUTO 02004KT 1 1/4SM 25/25 A2956 RMK T02500250 IEM_DS3505
ZGKL,2006-07-10 23:00,ZGKL 102300Z AUTO 11004KT 2SM 25/25 A2959 RMK T02500250 IEM_DS3505
ZGKL,2006-07-11 00:00,ZGKL 110000Z AUTO 02002KT 6SM 26/25 A2962 RMK 60031 70069 SLP017 T02550248 52016 IEM_DS3505
ZGKL,2006-07-11 01:00,ZGKL 110100Z AUTO 32002KT 1 1/2SM 25/25 A2962 RMK T02500250 IEM_DS3505
ZGKL,2006-07-11 02:00,ZGKL 110200Z AUTO 00000KT 2SM 25/25 A2962 RMK T02500250 IEM_DS3505
ZGKL,2006-07-11 03:00,ZGKL 110300Z AUTO 07002KT 3SM 26/25 A2962 RMK SLP025 T02650253 52008 IEM_DS3505
ZGKL,2006-07-11 04:00,ZGKL 110400Z AUTO 35002KT 4SM 26/25 A2962 RMK T02600250 IEM_DS3505
ZGKL,2006-07-11 05:00,ZGKL 110500Z AUTO 00000KT 7SM 28/25 A2962 RMK T02800250 IEM_DS3505
ZGKL,2006-07-11 06:00,ZGKL 110600Z AUTO 18002KT 7SM 28/25 A2959 RMK 60031 SLP010 T02790251 57015 IEM_DS3505
ZGKL,2006-07-11 07:00,ZGKL 110700Z AUTO 11004KT 7SM 29/25 A2956 RMK T02900250 IEM_DS3505
ZGKL,2006-07-11 08:00,ZGKL 110800Z AUTO 13002KT 7SM 29/25 A2956 RMK T02900250 IEM_DS3505
ZGKL,2006-07-11 09:00,ZGKL 110900Z AUTO 16002KT 12SM 30/25 A2956 RMK SLP001 T03000251 57008 IEM_DS3505
ZGKL,2006-07-11 10:00,ZGKL 111000Z AUTO 31002KT 5SM 29/26 A2956 RMK T02900260 IEM_DS3505
ZGKL,2006-07-11 11:00,ZGKL 111100Z AUTO 33002KT 5SM 28/26 A2956 RMK T02800260 IEM_DS3505
ZGKL,2006-07-11 12:00,ZGKL 111200Z AUTO 02002KT 11SM 28/25 A2956 RMK SLP004 T02840252 52002 IEM_DS3505
ZGKL,2006-07-11 13:00,ZGKL 111300Z AUTO 26002KT 4SM 27/25 A2959 RMK T02700250 IEM_DS3505
ZGKL,2006-07-11 14:00,ZGKL 111400Z AUTO 01002KT 4SM 26/25 A2962 RMK T02600250 IEM_DS3505
ZGKL,2006-07-11 15:00,ZGKL 111500Z AUTO 16004KT 8SM 27/25 A2962 RMK SLP027 T02660252 52023 IEM_DS3505
ZGKL,2006-07-11 16:00,ZGKL 111600Z AUTO 24004KT 1 1/4SM 25/24 A2965 RMK T02500240 IEM_DS3505
ZGKL,2006-07-11 17:00,ZGKL 111700Z AUTO 18004KT 25/24 A2965 RMK T02500240 IEM_DS3505
ZGKL,2006-07-11 18:00,ZGKL 111800Z AUTO 02002KT 4SM 26/25 A2962 RMK 60122 SLP026 T02570252 57001 IEM_DS3505
ZGKL,2006-07-11 19:00,ZGKL 111900Z AUTO 07002KT 25/25 A2962 RMK T02500250 IEM_DS3505
ZGKL,2006-07-11 20:00,ZGKL 112000Z AUTO 34004KT 25/24 A2962 RMK T02500240 IEM_DS3505
ZGKL,2006-07-11 21:00,ZGKL 112100Z AUTO 04002KT 4SM 25/25 A2962 RMK 70194 SLP015 T02530248 57010 IEM_DS3505
ZGKL,2006-07-11 22:00,ZGKL 112200Z AUTO 00000KT 4SM 25/24 A2959 RMK T02500240 IEM_DS3505
ZGKL,2006-07-11 23:00,ZGKL 112300Z AUTO 29002KT 3SM 25/24 A2962 RMK T02500240 IEM_DS3505
ZGKL,2006-07-12 00:00,ZGKL 120000Z AUTO 00000KT 4SM 26/25 A2962 RMK 60008 70162 SLP024 T02590250 52008 IEM_DS3505
ZGKL,2006-07-12 01:00,ZGKL 120100Z AUTO 00000KT 4SM 26/25 A2965 RMK T02600250 IEM_DS3505
ZGKL,2006-07-12 02:00,ZGKL 120200Z AUTO 00000KT 4SM 27/25 A2965 RMK T02700250 IEM_DS3505
ZGKL,2006-07-12 03:00,ZGKL 120300Z AUTO 34002KT 4SM 29/26 A2965 RMK SLP028 T02940256 52005 IEM_DS3505
ZGKL,2006-07-12 04:00,ZGKL 120400Z AUTO 30002KT 4SM 30/26 A2962 RMK T03000260 IEM_DS3505
ZGKL,2006-07-12 05:00,ZGKL 120500Z AUTO 18002KT 7SM 31/25 A2959 RMK T03100250 IEM_DS3505
ZGKL,2006-07-12 06:00,ZGKL 120600Z AUTO 14004KT 9SM 32/25 A2959 RMK SLP005 T03220248 57022 IEM_DS3505
ZGKL,2006-07-12 07:00,ZGKL 120700Z AUTO 20002KT 7SM 32/26 A2956 RMK T03200260 IEM_DS3505
ZGKL,2006-07-12 08:00,ZGKL 120800Z AUTO 21002KT 7SM 32/24 A2953 RMK T03200240 IEM_DS3505
ZGKL,2006-07-12 09:00,ZGKL 120900Z AUTO 04002KT 16SM 34/25 A2953 RMK SLP983 T03420248 57022 IEM_DS3505
ZGKL,2006-07-12 10:00,ZGKL 121000Z AUTO 00000KT 7SM 33/24 A2953 RMK T03300240 IEM_DS3505
ZGKL,2006-07-12 11:00,ZGKL 121100Z AUTO 33004KT 6SM 31/27 A2953 RMK T03100270 IEM_DS3505
ZGKL,2006-07-12 12:00,ZGKL 121200Z AUTO 04002KT 14SM 30/26 A2953 RMK SLP986 T03040261 52002 IEM_DS3505
ZGKL,2006-07-12 13:00,ZGKL 121300Z AUTO 26002KT 4SM 28/26 A2953 RMK T02800260 IEM_DS3505
ZGKL,2006-07-12 14:00,ZGKL 121400Z AUTO 34004KT 4SM 28/26 A2956 RMK T02800260 IEM_DS3505
ZGKL,2006-07-12 15:00,ZGKL 121500Z AUTO 04002KT 11SM 28/26 A2956 RMK SLP004 T02800258 52018 IEM_DS3505
ZGKL,2006-07-12 16:00,ZGKL 121600Z AUTO 28002KT 4SM 26/25 A2959 RMK T02600250 IEM_DS3505
ZGKL,2006-07-12 17:00,ZGKL 121700Z AUTO 30002KT 26/25 A2956 RMK T02600250 IEM_DS3505
ZGKL,2006-07-12 18:00,ZGKL 121800Z AUTO 02002KT 10SM 27/25 A2956 RMK SLP999 T02670253 57004 IEM_DS3505
ZGKL,2006-07-12 19:00,ZGKL 121900Z AUTO 18002KT 27/25 A2956 RMK T02700250 IEM_DS3505
ZGKL,2006-07-12 20:00,ZGKL 122000Z AUTO 00000KT 26/25 A2956 RMK T02600250 IEM_DS3505
ZGKL,2006-07-12 21:00,ZGKL 122100Z AUTO 34002KT 9SM 27/25 A2956 RMK 70000 SLP996 T02670253 57002 IEM_DS3505
ZGKL,2006-07-12 22:00,ZGKL 122200Z AUTO 00000KT 4SM 26/25 A2956 RMK T02600250 IEM_DS3505
ZGKL,2006-07-12 23:00,ZGKL 122300Z AUTO 33002KT 5SM 26/25 A2956 RMK T02600250 IEM_DS3505
ZGKL,2006-07-13 00:00,ZGKL 130000Z AUTO 00000KT 2 1/2SM 28/26 A2956 RMK SLP002 T02800258 52005 IEM_DS3505
ZGKL,2006-07-13 01:00,ZGKL 130100Z AUTO 15002KT 6SM 29/25 A2956 RMK T02900250 IEM_DS3505
ZGKL,2006-07-13 02:00,ZGKL 130200Z AUTO 30002KT 7SM 31/26 A2956 RMK T03100260 IEM_DS3505
ZGKL,2006-07-13 03:00,ZGKL 130300Z AUTO 09002KT 4SM 32/26 A2956 RMK SLP001 T03180259 57001 IEM_DS3505
ZGKL,2006-07-13 04:00,ZGKL 130400Z AUTO 24002KT 7SM 33/25 A2956 RMK T03300250 IEM_DS3505
ZGKL,2006-07-13 05:00,ZGKL 130500Z AUTO 22004KT 7SM 34/25 A2953 RMK T03400250 IEM_DS3505
ZGKL,2006-07-13 06:00,ZGKL 130600Z AUTO 22006KT 7SM 35/25 A2950 RMK SLP974 T03490248 57026 IEM_DS3505
ZGKL,2006-07-13 07:00,ZGKL 130700Z AUTO 15004KT 7SM 36/24 A2947 RMK T03600240 IEM_DS3505
ZGKL,2006-07-13 08:00,ZGKL 130800Z AUTO 17004KT 7SM 36/25 A2947 RMK T03600250 IEM_DS3505
ZGKL,2006-07-13 09:00,ZGKL 130900Z AUTO 14002KT 9SM 34/26 A2944 RMK SLP966 T03370259 57008 IEM_DS3505
ZGKL,2006-07-13 10:00,ZGKL 131000Z AUTO 00000KT 7SM 33/26 A2947 RMK T03300260 IEM_DS3505
ZGKL,2006-07-13 12:00,ZGKL 131200Z AUTO 02004KT 9SM 26/24 A2950 RMK 60012 SLP988 T02550236 52020 IEM_DS3505
ZGKL,2006-07-13 13:00,ZGKL 131300Z AUTO 27002KT 4SM 25/24 A2956 RMK T02500240 IEM_DS3505
ZGKL,2006-07-13 14:00,ZGKL 131400Z AUTO 27002KT 7SM 25/24 A2953 RMK T02500240 IEM_DS3505
ZGKL,2006-07-13 15:00,ZGKL 131500Z AUTO 14002KT 8SM 26/24 A2953 RMK SLP990 T02550241 52003 IEM_DS3505
ZGKL,2006-07-13 16:00,ZGKL 131600Z AUTO 04002KT 5SM 25/23 A2953 RMK T02500230 IEM_DS3505
ZGKL,2006-07-13 17:00,ZGKL 131700Z AUTO 23002KT 5SM 24/23 A2950 RMK T02400230 IEM_DS3505
ZGKL,2006-07-13 18:00,ZGKL 131800Z AUTO 27004KT 7SM 25/24 A2950 RMK 60000 SLP975 T02490235 57014 IEM_DS3505
ZGKL,2006-07-13 19:00,ZGKL 131900Z AUTO 00000KT 24/23 A2950 RMK T02400230 IEM_DS3505
ZGKL,2006-07-13 20:00,ZGKL 132000Z AUTO 36002KT 24/23 A2950 RMK T02400230 IEM_DS3505
ZGKL,2006-07-13 21:00,ZGKL 132100Z AUTO 36002KT 6SM 24/24 A2950 RMK 70013 SLP977 T02440237 52001 IEM_DS3505
ZGKL,2006-07-13 22:00,ZGKL 132200Z AUTO 35002KT 6SM 24/23 A2950 RMK T02400230 IEM_DS3505
ZGKL,2006-07-13 23:00,ZGKL 132300Z AUTO 00000KT 6SM 24/23 A2950 RMK T02400230 IEM_DS3505
ZGKL,2006-07-14 00:00,ZGKL 140000Z AUTO 36002KT 3SM 26/24 A2950 RMK 70013 SLP984 T02600240 52005 IEM_DS3505
ZGKL,2006-07-14 01:00,ZGKL 140100Z AUTO 13002KT 6SM 28/24 A2950 RMK T02800240 IEM_DS3505
ZGKL,2006-07-14 02:00,ZGKL 140200Z AUTO 33002KT 6SM 30/24 A2950 RMK T03000240 IEM_DS3505
ZGKL,2006-07-14 03:00,ZGKL 140300Z AUTO 07002KT 6SM 31/24 A2947 RMK SLP973 T03090245 57009 IEM_DS3505
ZGKL,2006-07-14 04:00,ZGKL 140400Z AUTO 19002KT 6SM 33/25 A2947 RMK T03300250 IEM_DS3505
ZGKL,2006-07-14 05:00,ZGKL 140500Z AUTO 18004KT 7SM 34/25 A2944 RMK T03400250 IEM_DS3505
ZGKL,2006-07-14 06:00,ZGKL 140600Z AUTO 04004KT 9SM 36/24 A2941 RMK SLP947 T03560242 57025 IEM_DS3505
ZGKL,2006-07-14 07:00,ZGKL 140700Z AUTO 27002KT 7SM 36/26 A2938 RMK T03600260 IEM_DS3505
ZGKL,2006-07-14 08:00,ZGKL 140800Z AUTO 14004KT 7SM 37/25 A2938 RMK T03700250 IEM_DS3505
ZGKL,2006-07-14 09:00,ZGKL 140900Z AUTO 27004KT 9SM 36/24 A2935 RMK SLP925 T03560236 57021 IEM_DS3505
ZGKL,2006-07-14 10:00,ZGKL 141000Z AUTO 18004KT 6SM 35/26 A2932 RMK T03500260 IEM_DS3505
ZGKL,2006-07-14 11:00,ZGKL 141100Z AUTO 17004KT 6SM 34/27 A2935 RMK T03400270 IEM_DS3505
ZGKL,2006-07-14 12:00,ZGKL 141200Z AUTO 07002KT 9SM 31/26 A2938 RMK 60000 SLP936 T03080261 52009 IEM_DS3505
ZGKL,2006-07-14 13:00,ZGKL 141300Z AUTO 00000KT 6SM 30/28 A2938 RMK T03000280 IEM_DS3505
ZGKL,2006-07-14 14:00,ZGKL 141400Z AUTO 26002KT 4SM 30/28 A2941 RMK T03000280 IEM_DS3505
ZGKL,2006-07-14 15:00,ZGKL 141500Z AUTO 07002KT 8SM 29/26 A2944 RMK SLP954 T02920264 52019 IEM_DS3505
ZGKL,2006-07-14 16:00,ZGKL 141600Z AUTO 23002KT 4SM 29/27 A2944 RMK T02900270 IEM_DS3505
ZGKL,2006-07-14 17:00,ZGKL 141700Z AUTO 00000KT 29/27 A2941 RMK T02900270 IEM_DS3505
ZGKL,2006-07-14 18:00,ZGKL 141800Z AUTO 04002KT 7SM 28/26 A2938 RMK SLP944 T02820264 57009 IEM_DS3505
ZGKL,2006-07-14 19:00,ZGKL 141900Z AUTO 07002KT 28/26 A2938 RMK T02800260 IEM_DS3505
ZGKL,2006-07-14 20:00,ZGKL 142000Z AUTO 27002KT 27/26 A2938 RMK T02700260 IEM_DS3505
ZGKL,2006-07-14 21:00,ZGKL 142100Z AUTO 34002KT 7SM 28/26 A2938 RMK 70000 SLP939 T02780264 57005 IEM_DS3505
ZGKL,2006-07-14 22:00,ZGKL 142200Z AUTO 02002KT 3SM 27/26 A2941 RMK T02700260 IEM_DS3505
ZGKL,2006-07-14 23:00,ZGKL 142300Z AUTO 04002KT 3SM 27/26 A2941 RMK T02700260 IEM_DS3505
ZGKL,2006-07-15 00:00,ZGKL 150000Z AUTO 09002KT 2 1/2SM 28/26 A2944 RMK 70000 SLP956 T02830265 52016 IEM_DS3505
ZGKL,2006-07-15 01:00,ZGKL 150100Z AUTO 26002KT 3SM 29/26 A2944 RMK T02900260 IEM_DS3505
ZGKL,2006-07-15 02:00,ZGKL 150200Z AUTO 19006KT 4SM 31/27 A2941 RMK T03100270 IEM_DS3505
ZGKL,2006-07-15 03:00,ZGKL 150300Z AUTO 14002KT 2 1/2SM 31/26 A2941 RMK SLP954 T03110261 57002 IEM_DS3505
ZGKL,2006-07-15 04:00,ZGKL 150400Z AUTO 31004KT 6SM 31/27 A2941 RMK T03100270 IEM_DS3505
ZGKL,2006-07-15 05:00,ZGKL 150500Z AUTO 26006KT 5SM 31/26 A2941 RMK T03100260 IEM_DS3505
ZGKL,2006-07-15 06:00,ZGKL 150600Z AUTO 22004KT 4SM 32/26 A2941 RMK 60000 SLP945 T03160259 57009 IEM_DS3505
ZGKL,2006-07-15 07:00,ZGKL 150700Z AUTO 25004KT 5SM 30/26 A2938 RMK T03000260 IEM_DS3505
ZGKL,2006-07-15 08:00,ZGKL 150800Z AUTO 22006KT 5SM 30/26 A2938 RMK T03000260 IEM_DS3505
ZGKL,2006-07-15 09:00,ZGKL 150900Z AUTO 11002KT 2 1/2SM 29/27 A2938 RMK SLP941 T02860270 57005 IEM_DS3505
ZGKL,2006-07-15 10:00,ZGKL 151000Z AUTO 20004KT 6SM 30/25 A2938 RMK T03000250 IEM_DS3505
ZGKL,2006-07-15 11:00,ZGKL 151100Z AUTO 17002KT 5SM 29/26 A2941 RMK T02900260 IEM_DS3505
ZGKL,2006-07-15 12:00,ZGKL 151200Z AUTO 14002KT 4SM 28/27 A2944 RMK 60024 SLP955 T02790268 52014 IEM_DS3505
ZGKL,2006-07-15 13:00,ZGKL 151300Z AUTO 33004KT 2SM 27/26 A2944 RMK T02700260 IEM_DS3505
ZGKL,2006-07-15 14:00,ZGKL 151400Z AUTO 18004KT 2SM 27/26 A2947 RMK T02700260 IEM_DS3505
ZGKL,2006-07-15 15:00,ZGKL 151500Z AUTO 29002KT 4SM 28/26 A2944 RMK SLP964 T02770257 52010 IEM_DS3505
ZGKL,2006-07-15 16:00,ZGKL 151600Z AUTO 00000KT 2 1/2SM 27/25 A2947 RMK T02700250 IEM_DS3505
ZGKL,2006-07-15 17:00,ZGKL 151700Z AUTO 00000KT 2SM 26/25 A2944 RMK T02600250 IEM_DS3505
ZGKL,2006-07-15 18:00,ZGKL 151800Z AUTO 16004KT 4SM 27/25 A2944 RMK SLP956 T02670249 57008 IEM_DS3505
ZGKL,2006-07-15 19:00,ZGKL 151900Z AUTO 35004KT 26/25 A2944 RMK T02600250 IEM_DS3505
ZGKL,2006-07-15 20:00,ZGKL 152000Z AUTO 00000KT 26/25 A2941 RMK T02600250 IEM_DS3505
ZGKL,2006-07-15 21:00,ZGKL 152100Z AUTO 00000KT 4SM 26/25 RMK 70022 SLP950 T02620253 57007 IEM_DS3505
ZGKL,2006-07-15 22:00,ZGKL 152200Z AUTO 18004KT 6SM 26/25 A2941 RMK T02600250 IEM_DS3505
ZGKL,2006-07-15 23:00,ZGKL 152300Z AUTO 20002KT 6SM 26/25 A2941 RMK T02600250 IEM_DS3505
ZGKL,2006-07-16 00:00,ZGKL 160000Z AUTO 16002KT 4SM 27/26 A2944 RMK 70022 SLP958 T02670257 52007 IEM_DS3505
ZGKL,2006-07-16 01:00,ZGKL 160100Z AUTO 16006KT 7SM 27/24 A2944 RMK T02700240 IEM_DS3505
ZGKL,2006-07-16 02:00,ZGKL 160200Z AUTO 17006KT 7SM 28/25 A2944 RMK T02800250 IEM_DS3505
ZGKL,2006-07-16 03:00,ZGKL 160300Z AUTO 16004KT 4SM 28/25 A2944 RMK SLP956 T02760252 57001 IEM_DS3505
ZGKL,2006-07-16 04:00,ZGKL 160400Z AUTO 15006KT 4SM 29/25 A2941 RMK T02900250 IEM_DS3505
ZGKL,2006-07-16 05:00,ZGKL 160500Z AUTO 14006KT 1 1/2SM 27/25 A2941 RMK T02700250 IEM_DS3505
ZGKL,2006-07-16 06:00,ZGKL 160600Z AUTO 14002KT 4SM 26/26 A2941 RMK 60035 SLP952 T02650255 57005 IEM_DS3505
ZGKL,2006-07-16 07:00,ZGKL 160700Z AUTO 21004KT 3SM 27/25 A2941 RMK T02700250 IEM_DS3505
ZGKL,2006-07-16 08:00,ZGKL 160800Z AUTO 19006KT 4SM 27/25 A2938 RMK T02700250 IEM_DS3505
ZGKL,2006-07-16 09:00,ZGKL 160900Z AUTO 20002KT 4SM 28/26 A2938 RMK SLP944 T02750257 57008 IEM_DS3505
ZGKL,2006-07-16 10:00,ZGKL 161000Z AUTO 17006KT 3SM 27/25 A2941 RMK T02700250 IEM_DS3505
ZGKL,2006-07-16 11:00,ZGKL 161100Z AUTO 17010KT 2 1/2SM 25/24 A2941 RMK T02500240 IEM_DS3505
ZGKL,2006-07-16 12:00,ZGKL 161200Z AUTO 18004KT 5SM 25/24 A2944 RMK 60012 SLP960 T02520242 52016 IEM_DS3505
ZGKL,2006-07-16 13:00,ZGKL 161300Z AUTO 15006KT 2 1/2SM 25/24 A2947 RMK T02500240 IEM_DS3505
ZGKL,2006-07-16 14:00,ZGKL 161400Z AUTO 15010KT 3SM 25/23 A2947 RMK T02500230 IEM_DS3505
ZGKL,2006-07-16 15:00,ZGKL 161500Z AUTO 20006KT 5SM 25/24 A2950 RMK SLP978 T02480236 52017 IEM_DS3505
ZGKL,2006-07-16 16:00,ZGKL 161600Z AUTO 16010KT 1 1/2SM 24/23 A2950 RMK T02400230 IEM_DS3505
ZGKL,2006-07-16 17:00,ZGKL 161700Z AUTO 16008KT 1 1/2SM 24/23 A2947 RMK T02400230 IEM_DS3505
ZGKL,2006-07-16 18:00,ZGKL 161800Z AUTO 18008KT 4SM 24/23 A2947 RMK 60031 SLP977 T02410232 57001 IEM_DS3505
ZGKL,2006-07-16 19:00,ZGKL 161900Z AUTO 14006KT 1 1/2SM 24/23 A2947 RMK T02400230 IEM_DS3505
ZGKL,2006-07-16 20:00,ZGKL 162000Z AUTO 11006KT 1SM 24/23 A2947 RMK T02400230 IEM_DS3505
ZGKL,2006-07-16 21:00,ZGKL 162100Z AUTO 27002KT 3SM 24/23 A2950 RMK 70154 SLP978 T02370230 52001 IEM_DS3505
ZGKL,2006-07-16 22:00,ZGKL 162200Z AUTO 36004KT 2 1/2SM 24/23 A2950 RMK T02400230 IEM_DS3505
ZGKL,2006-07-16 23:00,ZGKL 162300Z AUTO 01002KT 3SM 24/23 A2953 RMK T02400230 IEM_DS3505
ZGKL,2006-07-17 00:00,ZGKL 170000Z AUTO 02002KT 4SM 24/23 A2953 RMK 60083 70163 SLP996 T02360231 52017 IEM_DS3505
ZGKL,2006-07-17 01:00,ZGKL 170100Z AUTO 36004KT 4SM 24/23 A2956 RMK T02400230 IEM_DS3505
ZGKL,2006-07-17 02:00,ZGKL 170200Z AUTO 34004KT 4SM 24/23 A2953 RMK T02400230 IEM_DS3505
ZGKL,2006-07-17 03:00,ZGKL 170300Z AUTO 04004KT 2 1/2SM 25/24 A2953 RMK SLP999 T02500236 52003 IEM_DS3505
ZGKL,2006-07-17 04:00,ZGKL 170400Z AUTO 36004KT 4SM 25/24 A2956 RMK T02500240 IEM_DS3505
ZGKL,2006-07-17 05:00,ZGKL 170500Z AUTO 31004KT 5SM 26/24 A2956 RMK T02600240 IEM_DS3505
ZGKL,2006-07-17 06:00,ZGKL 170600Z AUTO 20004KT 7SM 29/25 A2956 RMK 60012 SLP998 T02880246 54000 IEM_DS3505
ZGKL,2006-07-17 07:00,ZGKL 170700Z AUTO 31004KT 5SM 27/24 A2956 RMK T02700240 IEM_DS3505
ZGKL,2006-07-17 08:00,ZGKL 170800Z AUTO 12008KT 7SM 28/24 A2953 RMK T02800240 IEM_DS3505
ZGKL,2006-07-17 09:00,ZGKL 170900Z AUTO 16008KT 10SM 27/24 A2956 RMK SLP006 T02690236 52007 IEM_DS3505
ZGKL,2006-07-17 10:00,ZGKL 171000Z AUTO 11008KT 4SM 26/24 A2956 RMK T02600240 IEM_DS3505
ZGKL,2006-07-17 11:00,ZGKL 171100Z AUTO 11004KT 4SM 25/24 A2959 RMK T02500240 IEM_DS3505
ZGKL,2006-07-17 12:00,ZGKL 171200Z AUTO 16004KT 9SM 26/24 A2962 RMK 60000 SLP026 T02580240 52020 IEM_DS3505
ZGKL,2006-07-17 13:00,ZGKL 171300Z AUTO 00000KT 4SM 25/24 A2965 RMK T02500240 IEM_DS3505
ZGKL,2006-07-17 14:00,ZGKL 171400Z AUTO 07004KT 7SM 25/24 A2968 RMK T02500240 IEM_DS3505
ZGKL,2006-07-17 15:00,ZGKL 171500Z AUTO 16002KT 8SM 25/24 A2968 RMK SLP045 T02520236 52018 IEM_DS3505
ZGKL,2006-07-17 16:00,ZGKL 171600Z AUTO 03002KT 7SM 25/23 A2968 RMK T02500230 IEM_DS3505
ZGKL,2006-07-17 17:00,ZGKL 171700Z AUTO 35004KT 25/23 A2968 RMK T02500230 IEM_DS3505
ZGKL,2006-07-17 18:00,ZGKL 171800Z AUTO 14002KT 8SM 25/23 A2968 RMK 60000 SLP043 T02510233 54000 IEM_DS3505
ZGKL,2006-07-17 19:00,ZGKL 171900Z AUTO 36002KT 25/23 A2968 RMK T02500230 IEM_DS3505
ZGKL,2006-07-17 20:00,ZGKL 172000Z AUTO 32002KT 25/24 A2968 RMK T02500240 IEM_DS3505
ZGKL,2006-07-17 21:00,ZGKL 172100Z AUTO 35002KT 7SM 25/24 A2968 RMK 70019 SLP045 T02460237 52001 IEM_DS3505
ZGKL,2006-07-17 22:00,ZGKL 172200Z AUTO 00000KT 7SM 25/24 A2971 RMK T02500240 IEM_DS3505
ZGKL,2006-07-17 23:00,ZGKL 172300Z AUTO 35002KT 1 1/2SM 24/23 A2974 RMK T02400230 IEM_DS3505
ZGKL,2006-07-18 00:00,ZGKL 180000Z AUTO 03002KT 6SM 25/24 A2974 RMK 60008 70017 SLP066 T02540238 52020 IEM_DS3505
ZGKL,2006-07-18 01:00,ZGKL 180100Z AUTO 02004KT 7SM 25/24 A2977 RMK T02500240 IEM_DS3505
ZGKL,2006-07-18 02:00,ZGKL 180200Z AUTO 10002KT 7SM 26/25 A2977 RMK T02600250 IEM_DS3505
ZGKL,2006-07-18 03:00,ZGKL 180300Z AUTO 29002KT 4SM 29/24 A2977 RMK SLP071 T02880244 52006 IEM_DS3505
ZGKL,2006-07-18 04:00,ZGKL 180400Z AUTO 01002KT 7SM 30/24 A2977 RMK T03000240 IEM_DS3505
ZGKL,2006-07-18 05:00,ZGKL 180500Z AUTO 30002KT 7SM 31/25 A2974 RMK T03100250 IEM_DS3505
ZGKL,2006-07-18 06:00,ZGKL 180600Z AUTO 32004KT 11SM 30/25 A2974 RMK 60000 SLP060 T03030247 57010 IEM_DS3505
ZGKL,2006-07-18 07:00,ZGKL 180700Z AUTO 13004KT 7SM 30/26 A2974 RMK T03000260 IEM_DS3505
ZGKL,2006-07-18 08:00,ZGKL 180800Z AUTO 14012KT 1/2SM 28/24 A2974 RMK T02800240 IEM_DS3505
ZGKL,2006-07-18 09:00,ZGKL 180900Z AUTO 29002KT 16SM 32/24 A2971 RMK SLP052 T03230244 57008 IEM_DS3505
ZGKL,2006-07-18 10:00,ZGKL 181000Z AUTO 34004KT 7SM 28/25 A2971 RMK T02800250 IEM_DS3505
ZGKL,2006-07-18 11:00,ZGKL 181100Z AUTO 34002KT 7SM 28/26 A2974 RMK T02800260 IEM_DS3505
ZGKL,2006-07-18 12:00,ZGKL 181200Z AUTO 20004KT 14SM 30/24 A2977 RMK SLP068 T02980237 52016 IEM_DS3505
ZGKL,2006-07-18 13:00,ZGKL 181300Z AUTO 15004KT 6SM 27/25 A2980 RMK T02700250 IEM_DS3505
ZGKL,2006-07-18 14:00,ZGKL 181400Z AUTO 00000KT 6SM 26/25 A2983 RMK T02600250 IEM_DS3505
ZGKL,2006-07-18 15:00,ZGKL 181500Z AUTO 32002KT 11SM 27/24 A2980 RMK SLP086 T02670244 52017 IEM_DS3505
ZGKL,2006-07-18 16:00,ZGKL 181600Z AUTO 35002KT 6SM 25/24 A2980 RMK T02500240 IEM_DS3505
ZGKL,2006-07-18 17:00,ZGKL 181700Z AUTO 05002KT 25/24 A2980 RMK T02500240 IEM_DS3505
ZGKL,2006-07-18 18:00,ZGKL 181800Z AUTO 20002KT 9SM 26/25 A2977 RMK SLP071 T02600246 57014 IEM_DS3505
ZGKL,2006-07-18 19:00,ZGKL 181900Z AUTO 17002KT 25/24 A2977 RMK T02500240 IEM_DS3505
ZGKL,2006-07-18 20:00,ZGKL 182000Z AUTO 06002KT 25/24 A2977 RMK T02500240 IEM_DS3505
ZGKL,2006-07-18 21:00,ZGKL 182100Z AUTO 13002KT 9SM A2980 RMK 70006 SLP076 52005 IEM_DS3505
ZGKL,2006-07-18 22:00,ZGKL 182200Z AUTO 00000KT 3SM 25/24 A2980 RMK T02500240 IEM_DS3505
ZGKL,2006-07-18 23:00,ZGKL 182300Z AUTO 00000KT 2 1/2SM 25/24 A2980 RMK T02500240 IEM_DS3505
ZGKL,2006-07-19 00:00,ZGKL 190000Z AUTO 18002KT 9SM 27/25 A2983 RMK 70000 SLP087 T02660248 52011 IEM_DS3505
ZGKL,2006-07-19 01:00,ZGKL 190100Z AUTO 00000KT 3SM 27/24 A2983 RMK T02700240 IEM_DS3505
ZGKL,2006-07-19 02:00,ZGKL 190200Z AUTO 17004KT 4SM 28/24 A2983 RMK T02800240 IEM_DS3505
ZGKL,2006-07-19 03:00,ZGKL 190300Z AUTO 20002KT 9SM 29/23 A2983 RMK SLP089 T02900232 52001 IEM_DS3505
ZGKL,2006-07-19 04:00,ZGKL 190400Z AUTO 19004KT 7SM 29/24 A2983 RMK T02900240 IEM_DS3505
ZGKL,2006-07-19 05:00,ZGKL 190500Z AUTO 18006KT 7SM 31/24 A2980 RMK T03100240 IEM_DS3505
ZGKL,2006-07-19 06:00,ZGKL 190600Z AUTO 16002KT 12SM 31/24 A2977 RMK 60000 SLP073 T03100236 57015 IEM_DS3505
ZGKL,2006-07-19 07:00,ZGKL 190700Z AUTO 25004KT 7SM 32/23 A2977 RMK T03200230 IEM_DS3505
ZGKL,2006-07-19 08:00,ZGKL 190800Z AUTO 22006KT 7SM 33/24 A2974 RMK T03300240 IEM_DS3505
ZGKL,2006-07-19 09:00,ZGKL 190900Z AUTO 16004KT 16SM 32/24 A2974 RMK SLP059 T03210239 57013 IEM_DS3505
ZGKL,2006-07-19 10:00,ZGKL 191000Z AUTO 17004KT 6SM 33/24 A2974 RMK T03300240 IEM_DS3505
ZGKL,2006-07-19 11:00,ZGKL 191100Z AUTO 13002KT 7SM 31/24 A2974 RMK T03100240 IEM_DS3505
ZGKL,2006-07-19 12:00,ZGKL 191200Z AUTO 26002KT 12SM 30/24 A2974 RMK SLP057 T03030245 57003 IEM_DS3505
ZGKL,2006-07-19 13:00,ZGKL 191300Z AUTO 28002KT 6SM 27/26 A2974 RMK T02700260 IEM_DS3505
ZGKL,2006-07-19 14:00,ZGKL 191400Z AUTO 31002KT 6SM 27/26 A2977 RMK T02700260 IEM_DS3505
ZGKL,2006-07-19 15:00,ZGKL 191500Z AUTO 36002KT 11SM 28/25 A2980 RMK SLP074 T02760248 52017 IEM_DS3505
ZGKL,2006-07-19 16:00,ZGKL 191600Z AUTO 00000KT 4SM 26/25 A2977 RMK T02600250 IEM_DS3505
ZGKL,2006-07-19 17:00,ZGKL 191700Z AUTO 00000KT 26/25 A2977 RMK T02600250 IEM_DS3505
ZGKL,2006-07-19 18:00,ZGKL 191800Z AUTO 07002KT 9SM 27/25 A2974 RMK SLP064 T02670247 57010 IEM_DS3505
ZGKL,2006-07-19 19:00,ZGKL 191900Z AUTO 00000KT 25/24 A2974 RMK T02500240 IEM_DS3505
ZGKL,2006-07-19 20:00,ZGKL 192000Z AUTO 00000KT 25/24 A2974 RMK T02500240 IEM_DS3505
ZGKL,2006-07-19 21:00,ZGKL 192100Z AUTO 32002KT 8SM 26/25 A2974 RMK 70000 SLP063 T02570247 57001 IEM_DS3505
ZGKL,2006-07-19 22:00,ZGKL 192200Z AUTO 33002KT 5SM 25/24 A2974 RMK T02500240 IEM_DS3505
ZGKL,2006-07-19 23:00,ZGKL 192300Z AUTO 00000KT 5SM 25/24 A2977 RMK T02500240 IEM_DS3505
ZGKL,2006-07-20 00:00,ZGKL 200000Z AUTO 11002KT 5SM 28/25 A2977 RMK 70000 SLP067 T02840254 52005 IEM_DS3505
ZGKL,2006-07-20 01:00,ZGKL 200100Z AUTO 16006KT 7SM 29/25 A2977 RMK T02900250 IEM_DS3505
ZGKL,2006-07-20 02:00,ZGKL 200200Z AUTO 18004KT 7SM 30/24 A2977 RMK T03000240 IEM_DS3505
ZGKL,2006-07-20 03:00,ZGKL 200300Z AUTO 25006KT 9SM 31/23 A2977 RMK SLP069 T03130234 52002 IEM_DS3505
ZGKL,2006-07-20 04:00,ZGKL 200400Z AUTO 18008KT 7SM 31/23 A2977 RMK T03100230 IEM_DS3505
ZGKL,2006-07-20 05:00,ZGKL 200500Z AUTO 19008KT 7SM 32/23 A2974 RMK T03200230 IEM_DS3505
ZGKL,2006-07-20 06:00,ZGKL 200600Z AUTO 22006KT 12SM 34/22 A2971 RMK SLP053 T03360224 57016 IEM_DS3505
ZGKL,2006-07-20 07:00,ZGKL 200700Z AUTO 18006KT 7SM 34/23 A2971 RMK T03400230 IEM_DS3505
ZGKL,2006-07-20 08:00,ZGKL 200800Z AUTO 18008KT 7SM 34/23 A2968 RMK T03400230 IEM_DS3505
ZGKL,2006-07-20 09:00,ZGKL 200900Z AUTO 27004KT 16SM 35/23 A2968 RMK SLP036 T03510234 57016 IEM_DS3505
ZGKL,2006-07-20 10:00,ZGKL 201000Z AUTO 18008KT 6SM 33/23 A2965 RMK T03300230 IEM_DS3505
ZGKL,2006-07-20 11:00,ZGKL 201100Z AUTO 18006KT 6SM 32/24 A2965 RMK T03200240 IEM_DS3505
ZGKL,2006-07-20 12:00,ZGKL 201200Z AUTO 22004KT 17SM 32/23 A2968 RMK SLP036 T03200230 54000 IEM_DS3505
ZGKL,2006-07-20 13:00,ZGKL 201300Z AUTO 24002KT 6SM 28/25 A2968 RMK T02800250 IEM_DS3505
ZGKL,2006-07-20 14:00,ZGKL 201400Z AUTO 27002KT 6SM 27/25 A2971 RMK T02700250 IEM_DS3505
ZGKL,2006-07-20 15:00,ZGKL 201500Z AUTO 04002KT 16SM 29/25 A2971 RMK SLP047 T02860254 52010 IEM_DS3505
ZGKL,2006-07-20 16:00,ZGKL 201600Z AUTO 00000KT 6SM 26/25 A2971 RMK T02600250 IEM_DS3505
ZGKL,2006-07-20 17:00,ZGKL 201700Z AUTO 00000KT 26/25 A2971 RMK T02600250 IEM_DS3505
ZGKL,2006-07-20 18:00,ZGKL 201800Z AUTO 07002KT 11SM 27/25 A2968 RMK SLP038 T02700248 57008 IEM_DS3505
ZGKL,2006-07-20 19:00,ZGKL 201900Z AUTO 00000KT 25/24 A2968 RMK T02500240 IEM_DS3505
ZGKL,2006-07-20 20:00,ZGKL 202000Z AUTO 28002KT 25/24 A2968 RMK T02500240 IEM_DS3505
ZGKL,2006-07-20 21:00,ZGKL 202100Z AUTO 00000KT 10SM 26/24 A2968 RMK SLP043 T02590245 52005 IEM_DS3505
ZGKL,2006-07-20 22:00,ZGKL 202200Z AUTO 00000KT 3SM 25/24 A2971 RMK T02500240 IEM_DS3505
ZGKL,2006-07-20 23:00,ZGKL 202300Z AUTO 32002KT 3SM 25/24 A2971 RMK T02500240 IEM_DS3505
ZGKL,2006-07-21 00:00,ZGKL 210000Z AUTO 07002KT 6SM 28/25 A2974 RMK SLP060 T02770247 52016 IEM_DS3505
ZGKL,2006-07-21 01:00,ZGKL 210100Z AUTO 17006KT 7SM 29/25 A2974 RMK T02900250 IEM_DS3505
ZGKL,2006-07-21 02:00,ZGKL 210200Z AUTO 18006KT 7SM 31/24 A2974 RMK T03100240 IEM_DS3505
ZGKL,2006-07-21 03:00,ZGKL 210300Z AUTO 22008KT 10SM 32/23 A2974 RMK SLP061 T03190229 52001 IEM_DS3505
ZGKL,2006-07-21 04:00,ZGKL 210400Z AUTO 20006KT 7SM 31/24 A2974 RMK T03100240 IEM_DS3505
ZGKL,2006-07-21 05:00,ZGKL 210500Z AUTO 22006KT 7SM 33/23 A2971 RMK T03300230 IEM_DS3505
ZGKL,2006-07-21 06:00,ZGKL 210600Z AUTO 22008KT 12SM 34/22 A2968 RMK SLP040 T03390217 57020 IEM_DS3505
ZGKL,2006-07-21 07:00,ZGKL 210700Z AUTO 17008KT 7SM 34/21 A2965 RMK T03400210 IEM_DS3505
ZGKL,2006-07-21 08:00,ZGKL 210800Z AUTO 17010KT 6SM 34/22 A2965 RMK T03400220 IEM_DS3505
ZGKL,2006-07-21 09:00,ZGKL 210900Z AUTO 20006KT 14SM 35/20 A2962 RMK SLP021 T03460202 57019 IEM_DS3505
ZGKL,2006-07-21 10:00,ZGKL 211000Z AUTO 18010KT 6SM 33/22 A2962 RMK T03300220 IEM_DS3505
ZGKL,2006-07-21 11:00,ZGKL 211100Z AUTO 21004KT 6SM 32/24 A2962 RMK T03200240 IEM_DS3505
ZGKL,2006-07-21 12:00,ZGKL 211200Z AUTO 23004KT 15SM 32/21 A2965 RMK SLP025 T03210213 52004 IEM_DS3505
ZGKL,2006-07-21 13:00,ZGKL 211300Z AUTO 24002KT 6SM 28/24 A2965 RMK T02800240 IEM_DS3505
ZGKL,2006-07-21 14:00,ZGKL 211400Z AUTO 31002KT 6SM 27/25 A2968 RMK T02700250 IEM_DS3505
ZGKL,2006-07-21 15:00,ZGKL 211500Z AUTO 04002KT 12SM 28/24 A2971 RMK SLP044 T02820236 52018 IEM_DS3505
ZGKL,2006-07-21 16:00,ZGKL 211600Z AUTO 00000KT 6SM 26/24 A2971 RMK T02600240 IEM_DS3505
ZGKL,2006-07-21 17:00,ZGKL 211700Z AUTO 34002KT 25/24 A2968 RMK T02500240 IEM_DS3505
ZGKL,2006-07-21 18:00,ZGKL 211800Z AUTO 25002KT 11SM 27/24 A2968 RMK SLP041 T02670236 57002 IEM_DS3505
ZGKL,2006-07-21 19:00,ZGKL 211900Z AUTO 32002KT 25/23 A2968 RMK T02500230 IEM_DS3505
ZGKL,2006-07-21 20:00,ZGKL 212000Z AUTO 28002KT 24/23 A2971 RMK T02400230 IEM_DS3505
ZGKL,2006-07-21 21:00,ZGKL 212100Z AUTO 29002KT 9SM 26/24 A2971 RMK SLP047 T02620239 52006 IEM_DS3505
ZGKL,2006-07-21 22:00,ZGKL 212200Z AUTO 33004KT 4SM 24/23 A2971 RMK T02400230 IEM_DS3505
ZGKL,2006-07-21 23:00,ZGKL 212300Z AUTO 00000KT 4SM 24/23 A2971 RMK T02400230 IEM_DS3505
ZGKL,2006-07-22 00:00,ZGKL 220000Z AUTO 07002KT 6SM 28/24 A2974 RMK SLP056 T02770241 52008 IEM_DS3505
ZGKL,2006-07-22 01:00,ZGKL 220100Z AUTO 17006KT 4SM 29/25 A2974 RMK T02900250 IEM_DS3505
ZGKL,2006-07-22 02:00,ZGKL 220200Z AUTO 16004KT 6SM 31/24 A2974 RMK T03100240 IEM_DS3505
ZGKL,2006-07-22 03:00,ZGKL 220300Z AUTO 20006KT 9SM 32/23 A2974 RMK SLP056 T03150233 54000 IEM_DS3505
ZGKL,2006-07-22 04:00,ZGKL 220400Z AUTO 18010KT 7SM 33/23 A2971 RMK T03300230 IEM_DS3505
ZGKL,2006-07-22 05:00,ZGKL 220500Z AUTO 17008KT 7SM 33/23 A2968 RMK T03300230 IEM_DS3505
ZGKL,2006-07-22 06:00,ZGKL 220600Z AUTO 25004KT 10SM 34/21 A2968 RMK SLP035 T03420213 57020 IEM_DS3505
ZGKL,2006-07-22 07:00,ZGKL 220700Z AUTO 17010KT 7SM 34/23 A2965 RMK T03400230 IEM_DS3505
ZGKL,2006-07-22 08:00,ZGKL 220800Z AUTO 18010KT 7SM 34/22 A2962 RMK T03400220 IEM_DS3505
ZGKL,2006-07-22 09:00,ZGKL 220900Z AUTO 22006KT 10SM 35/20 A2962 RMK SLP018 T03460198 57017 IEM_DS3505
ZGKL,2006-07-22 10:00,ZGKL 221000Z AUTO 20006KT 7SM 33/22 A2962 RMK T03300220 IEM_DS3505
ZGKL,2006-07-22 11:00,ZGKL 221100Z AUTO 19004KT 7SM 32/22 A2962 RMK T03200220 IEM_DS3505
ZGKL,2006-07-22 12:00,ZGKL 221200Z AUTO 25002KT 12SM 32/22 A2965 RMK SLP025 T03230215 52007 IEM_DS3505
ZGKL,2006-07-22 13:00,ZGKL 221300Z AUTO 00000KT 4SM 28/25 A2965 RMK T02800250 IEM_DS3505
ZGKL,2006-07-22 14:00,ZGKL 221400Z AUTO 00000KT 4SM 27/25 A2968 RMK T02700250 IEM_DS3505
ZGKL,2006-07-22 15:00,ZGKL 221500Z AUTO 36002KT 10SM 28/23 A2968 RMK SLP043 T02850230 52017 IEM_DS3505
ZGKL,2006-07-22 16:00,ZGKL 221600Z AUTO 29002KT 4SM 25/24 A2971 RMK T02500240 IEM_DS3505
ZGKL,2006-07-22 17:00,ZGKL 221700Z AUTO 33002KT 25/23 A2971 RMK T02500230 IEM_DS3505
ZGKL,2006-07-22 18:00,ZGKL 221800Z AUTO 11002KT 10SM 26/23 A2971 RMK SLP047 T02630230 52005 IEM_DS3505
ZGKL,2006-07-22 19:00,ZGKL 221900Z AUTO 00000KT 24/23 A2968 RMK T02400230 IEM_DS3505
ZGKL,2006-07-22 20:00,ZGKL 222000Z AUTO 00000KT 24/23 A2968 RMK T02400230 IEM_DS3505
ZGKL,2006-07-22 21:00,ZGKL 222100Z AUTO 00000KT 10SM 26/23 A2968 RMK SLP045 T02550230 57003 IEM_DS3505
ZGKL,2006-07-22 22:00,ZGKL 222200Z AUTO 29002KT 3SM 24/23 A2971 RMK T02400230 IEM_DS3505
ZGKL,2006-07-22 23:00,ZGKL 222300Z AUTO 32002KT 4SM 24/23 A2971 RMK T02400230 IEM_DS3505
ZGKL,2006-07-23 00:00,ZGKL 230000Z AUTO 36002KT 5SM 27/23 A2971 RMK SLP055 T02690234 52010 IEM_DS3505
ZGKL,2006-07-23 01:00,ZGKL 230100Z AUTO 05002KT 4SM 29/24 A2974 RMK T02900240 IEM_DS3505
ZGKL,2006-07-23 02:00,ZGKL 230200Z AUTO 17002KT 4SM 30/24 A2974 RMK T03000240 IEM_DS3505
ZGKL,2006-07-23 03:00,ZGKL 230300Z AUTO 14006KT 4SM 31/24 A2971 RMK SLP056 T03090243 52001 IEM_DS3505
ZGKL,2006-07-23 04:00,ZGKL 230400Z AUTO 19004KT 6SM 33/23 A2971 RMK T03300230 IEM_DS3505
ZGKL,2006-07-23 05:00,ZGKL 230500Z AUTO 17004KT 7SM 34/23 A2971 RMK T03400230 IEM_DS3505
ZGKL,2006-07-23 06:00,ZGKL 230600Z AUTO 27004KT 7SM 35/20 A2968 RMK SLP037 T03470195 57018 IEM_DS3505
ZGKL,2006-07-23 07:00,ZGKL 230700Z AUTO 15004KT 7SM 35/21 A2965 RMK T03500210 IEM_DS3505
ZGKL,2006-07-23 08:00,ZGKL 230800Z AUTO 16006KT 6SM 35/22 A2965 RMK T03500220 IEM_DS3505
ZGKL,2006-07-23 09:00,ZGKL 230900Z AUTO 27004KT 9SM 36/22 A2962 RMK SLP022 T03560218 57015 IEM_DS3505
ZGKL,2006-07-23 10:00,ZGKL 231000Z AUTO 18004KT 6SM 34/24 A2965 RMK T03400240 IEM_DS3505
ZGKL,2006-07-23 11:00,ZGKL 231100Z AUTO 18004KT 6SM 33/24 A2962 RMK T03300240 IEM_DS3505
ZGKL,2006-07-23 12:00,ZGKL 231200Z AUTO 11002KT 9SM 32/24 A2965 RMK SLP026 T03200238 52003 IEM_DS3505
ZGKL,2006-07-23 13:00,ZGKL 231300Z AUTO 26002KT 5SM 29/26 A2968 RMK T02900260 IEM_DS3505
ZGKL,2006-07-23 14:00,ZGKL 231400Z AUTO 31002KT 4SM 27/26 A2968 RMK T02700260 IEM_DS3505
ZGKL,2006-07-23 15:00,ZGKL 231500Z AUTO 04002KT 8SM 29/24 A2971 RMK SLP049 T02880239 52023 IEM_DS3505
ZGKL,2006-07-23 16:00,ZGKL 231600Z AUTO 30004KT 4SM 26/24 A2971 RMK T02600240 IEM_DS3505
ZGKL,2006-07-23 17:00,ZGKL 231700Z AUTO 28002KT 26/24 A2971 RMK T02600240 IEM_DS3505
ZGKL,2006-07-23 18:00,ZGKL 231800Z AUTO 04004KT 7SM 27/24 A2968 RMK SLP042 T02660235 57006 IEM_DS3505
ZGKL,2006-07-23 19:00,ZGKL 231900Z AUTO 00000KT 25/24 A2968 RMK T02500240 IEM_DS3505
ZGKL,2006-07-23 20:00,ZGKL 232000Z AUTO 32002KT 25/24 A2968 RMK T02500240 IEM_DS3505
ZGKL,2006-07-23 21:00,ZGKL 232100Z AUTO 04002KT 6SM 25/24 A2968 RMK SLP039 T02540236 57003 IEM_DS3505
ZGKL,2006-07-23 22:00,ZGKL 232200Z AUTO 00000KT 3SM 25/24 A2968 RMK T02500240 IEM_DS3505
ZGKL,2006-07-23 23:00,ZGKL 232300Z AUTO 00000KT 2 1/2SM 25/24 A2971 RMK T02500240 IEM_DS3505
ZGKL,2006-07-24 00:00,ZGKL 240000Z AUTO 04002KT 4SM 27/24 A2971 RMK SLP049 T02670236 52009 IEM_DS3505
ZGKL,2006-07-24 01:00,ZGKL 240100Z AUTO 30002KT 3SM 28/25 A2971 RMK T02800250 IEM_DS3505
ZGKL,2006-07-24 02:00,ZGKL 240200Z AUTO 31002KT 2 1/2SM 30/26 A2971 RMK T03000260 IEM_DS3505
ZGKL,2006-07-24 03:00,ZGKL 240300Z AUTO 11002KT 4SM 32/24 A2971 RMK SLP045 T03200243 57003 IEM_DS3505
ZGKL,2006-07-24 04:00,ZGKL 240400Z AUTO 13004KT 4SM 34/25 A2968 RMK T03400250 IEM_DS3505
ZGKL,2006-07-24 05:00,ZGKL 240500Z AUTO 20004KT 5SM 34/24 A2965 RMK T03400240 IEM_DS3505
ZGKL,2006-07-24 06:00,ZGKL 240600Z AUTO 04004KT 6SM 36/23 A2965 RMK SLP025 T03560232 57020 IEM_DS3505
ZGKL,2006-07-24 07:00,ZGKL 240700Z AUTO 05002KT 6SM 36/24 A2962 RMK T03600240 IEM_DS3505
ZGKL,2006-07-24 08:00,ZGKL 240800Z AUTO 16004KT 6SM 36/25 A2959 RMK T03600250 IEM_DS3505
ZGKL,2006-07-24 09:00,ZGKL 240900Z AUTO 04004KT 7SM 35/23 A2959 RMK SLP006 T03540231 57019 IEM_DS3505
ZGKL,2006-07-24 10:00,ZGKL 241000Z AUTO 12002KT 5SM 35/25 A2959 RMK T03500250 IEM_DS3505
ZGKL,2006-07-24 11:00,ZGKL 241100Z AUTO 26004KT 7SM 32/27 A2959 RMK T03200270 IEM_DS3505
ZGKL,2006-07-24 12:00,ZGKL 241200Z AUTO 07006KT 7SM 29/22 A2965 RMK SLP028 T02860219 52020 IEM_DS3505
ZGKL,2006-07-24 13:00,ZGKL 241300Z AUTO 35002KT 6SM 27/23 A2965 RMK T02700230 IEM_DS3505
ZGKL,2006-07-24 14:00,ZGKL 241400Z AUTO 00000KT 6SM 27/23 A2968 RMK T02700230 IEM_DS3505
ZGKL,2006-07-24 15:00,ZGKL 241500Z AUTO 34006KT 7SM 26/22 A2968 RMK SLP042 T02640216 52015 IEM_DS3505
ZGKL,2006-07-24 16:00,ZGKL 241600Z AUTO 32002KT 26/24 A2968 RMK T02600240 IEM_DS3505
ZGKL,2006-07-24 17:00,ZGKL 241700Z AUTO 36004KT 26/24 A2968 RMK T02600240 IEM_DS3505
ZGKL,2006-07-24 18:00,ZGKL 241800Z AUTO 36004KT 7SM 26/22 A2965 RMK SLP030 T02600221 57011 IEM_DS3505
ZGKL,2006-07-24 19:00,ZGKL 241900Z AUTO 30002KT 25/23 A2965 RMK T02500230 IEM_DS3505
ZGKL,2006-07-24 20:00,ZGKL 242000Z AUTO 00000KT 25/23 A2962 RMK T02500230 IEM_DS3505
ZGKL,2006-07-24 21:00,ZGKL 242100Z AUTO 04002KT 7SM 25/23 A2962 RMK SLP023 T02510226 57007 IEM_DS3505
ZGKL,2006-07-24 22:00,ZGKL 242200Z AUTO 35002KT 3SM 25/23 A2965 RMK T02500230 IEM_DS3505
ZGKL,2006-07-24 23:00,ZGKL 242300Z AUTO 00000KT 3SM 25/23 A2965 RMK T02500230 IEM_DS3505
ZGKL,2006-07-25 00:00,ZGKL 250000Z AUTO 02004KT 4SM 27/23 A2968 RMK SLP037 T02680226 52012 IEM_DS3505
ZGKL,2006-07-25 01:00,ZGKL 250100Z AUTO 35002KT 4SM 28/23 A2968 RMK T02800230 IEM_DS3505
ZGKL,2006-07-25 02:00,ZGKL 250200Z AUTO 32004KT 6SM 30/23 A2968 RMK T03000230 IEM_DS3505
ZGKL,2006-07-25 03:00,ZGKL 250300Z AUTO 02006KT 3SM 31/24 A2965 RMK SLP032 T03130239 57004 IEM_DS3505
ZGKL,2006-07-25 04:00,ZGKL 250400Z AUTO 32004KT 7SM 32/24 A2965 RMK T03200240 IEM_DS3505
ZGKL,2006-07-25 05:00,ZGKL 250500Z AUTO 36002KT 6SM 33/23 A2962 RMK T03300230 IEM_DS3505
ZGKL,2006-07-25 06:00,ZGKL 250600Z AUTO 36006KT 4SM 34/24 A2962 RMK SLP012 T03360245 57019 IEM_DS3505
ZGKL,2006-07-25 07:00,ZGKL 250700Z AUTO 28008KT 7SM 32/25 A2959 RMK T03200250 IEM_DS3505
ZGKL,2006-07-25 08:00,ZGKL 250800Z AUTO 03014KT 4SM 27/24 A2962 RMK T02700240 IEM_DS3505
ZGKL,2006-07-25 09:00,ZGKL 250900Z AUTO 36004KT 5SM 26/24 A2962 RMK SLP020 T02570236 52005 IEM_DS3505
ZGKL,2006-07-25 10:00,ZGKL 251000Z AUTO 29002KT 4SM 25/24 A2962 RMK T02500240 IEM_DS3505
ZGKL,2006-07-25 11:00,ZGKL 251100Z AUTO 08002KT 4SM 25/23 A2962 RMK T02500230 IEM_DS3505
ZGKL,2006-07-25 12:00,ZGKL 251200Z AUTO 02004KT 8SM 26/24 A2965 RMK 60008 SLP028 T02580235 52008 IEM_DS3505
ZGKL,2006-07-25 13:00,ZGKL 251300Z AUTO 00000KT 4SM 25/23 A2965 RMK T02500230 IEM_DS3505
ZGKL,2006-07-25 14:00,ZGKL 251400Z AUTO 10002KT 3SM 25/24 A2968 RMK T02500240 IEM_DS3505
ZGKL,2006-07-25 15:00,ZGKL 251500Z AUTO 02004KT 8SM 25/22 A2968 RMK SLP042 T02540221 52015 IEM_DS3505
ZGKL,2006-07-25 16:00,ZGKL 251600Z AUTO 30004KT 3SM 25/24 A2968 RMK T02500240 IEM_DS3505
ZGKL,2006-07-25 17:00,ZGKL 251700Z AUTO 35002KT 3SM 25/24 A2965 RMK T02500240 IEM_DS3505
ZGKL,2006-07-25 18:00,ZGKL 251800Z AUTO 36004KT 7SM 25/21 A2962 RMK SLP023 T02470214 57018 IEM_DS3505
ZGKL,2006-07-25 19:00,ZGKL 251900Z AUTO 01004KT 25/23 A2962 RMK T02500230 IEM_DS3505
ZGKL,2006-07-25 20:00,ZGKL 252000Z AUTO 26002KT 24/23 A2962 RMK T02400230 IEM_DS3505
ZGKL,2006-07-25 21:00,ZGKL 252100Z AUTO 36004KT 7SM 25/21 A2962 RMK 70007 SLP020 T02490206 57005 IEM_DS3505
ZGKL,2006-07-25 22:00,ZGKL 252200Z AUTO 28002KT 6SM 24/23 A2962 RMK T02400230 IEM_DS3505
ZGKL,2006-07-25 23:00,ZGKL 252300Z AUTO 31002KT 7SM 24/22 A2965 RMK T02400220 IEM_DS3505
ZGKL,2006-07-26 00:00,ZGKL 260000Z AUTO 01002KT 6SM 26/21 A2965 RMK 70007 SLP036 T02630213 52016 IEM_DS3505
ZGKL,2006-07-26 01:00,ZGKL 260100Z AUTO 32002KT 6SM 25/22 A2968 RMK T02500220 IEM_DS3505
ZGKL,2006-07-26 02:00,ZGKL 260200Z AUTO 25002KT 6SM 28/22 A2965 RMK T02800220 IEM_DS3505
ZGKL,2006-07-26 03:00,ZGKL 260300Z AUTO 07002KT 6SM 29/21 A2965 RMK SLP030 T02910213 57005 IEM_DS3505
ZGKL,2006-07-26 04:00,ZGKL 260400Z AUTO 04002KT 6SM 30/22 A2965 RMK T03000220 IEM_DS3505
ZGKL,2006-07-26 05:00,ZGKL 260500Z AUTO 23002KT 6SM 31/21 A2962 RMK T03100210 IEM_DS3505
ZGKL,2006-07-26 06:00,ZGKL 260600Z AUTO 04006KT 6SM 30/21 A2962 RMK SLP016 T03050210 57013 IEM_DS3505
ZGKL,2006-07-26 07:00,ZGKL 260700Z AUTO 28004KT 6SM 31/23 A2959 RMK T03100230 IEM_DS3505
ZGKL,2006-07-26 08:00,ZGKL 260800Z AUTO 02002KT 6SM 30/23 A2959 RMK T03000230 IEM_DS3505
ZGKL,2006-07-26 09:00,ZGKL 260900Z AUTO 07002KT 6SM 28/22 A2959 RMK SLP010 T02850223 57007 IEM_DS3505
ZGKL,2006-07-26 10:00,ZGKL 261000Z AUTO 12004KT 4SM 29/23 A2959 RMK T02900230 IEM_DS3505
ZGKL,2006-07-26 11:00,ZGKL 261100Z AUTO 13004KT 3SM 28/24 A2959 RMK T02800240 IEM_DS3505
ZGKL,2006-07-26 12:00,ZGKL 261200Z AUTO 09002KT 5SM 28/23 A2959 RMK SLP014 T02760234 52004 IEM_DS3505
ZGKL,2006-07-26 13:00,ZGKL 261300Z AUTO 00000KT 3SM 27/24 A2959 RMK T02700240 IEM_DS3505
ZGKL,2006-07-26 14:00,ZGKL 261400Z AUTO 00000KT 3SM 27/24 A2962 RMK T02700240 IEM_DS3505
ZGKL,2006-07-26 15:00,ZGKL 261500Z AUTO 11002KT 5SM 26/24 A2962 RMK SLP021 T02630240 52007 IEM_DS3505
ZGKL,2006-07-26 16:00,ZGKL 261600Z AUTO 00000KT 2 1/2SM 26/25 A2962 RMK T02600250 IEM_DS3505
ZGKL,2006-07-26 17:00,ZGKL 261700Z AUTO 00000KT 26/25 A2962 RMK T02600250 IEM_DS3505
ZGKL,2006-07-26 18:00,ZGKL 261800Z AUTO 09002KT 5SM 26/23 A2959 RMK SLP013 T02570234 57007 IEM_DS3505
ZGKL,2006-07-26 19:00,ZGKL 261900Z AUTO 15002KT 26/24 A2959 RMK T02600240 IEM_DS3505
ZGKL,2006-07-26 20:00,ZGKL 262000Z AUTO 00000KT 25/24 A2956 RMK T02500240 IEM_DS3505
ZGKL,2006-07-26 21:00,ZGKL 262100Z AUTO 07002KT 4SM A2956 RMK SLP003 57011 IEM_DS3505
ZGKL,2006-07-26 22:00,ZGKL 262200Z AUTO 00000KT 1 1/4SM 24/23 A2956 RMK T02400230 IEM_DS3505
ZGKL,2006-07-26 23:00,ZGKL 262300Z AUTO 20002KT 1SM 25/24 A2956 RMK T02500240 IEM_DS3505
ZGKL,2006-07-27 00:00,ZGKL 270000Z AUTO 07002KT 4SM 27/23 A2956 RMK SLP006 T02660233 52003 IEM_DS3505
ZGKL,2006-07-27 01:00,ZGKL 270100Z AUTO 18004KT 3SM 29/23 A2956 RMK T02900230 IEM_DS3505
ZGKL,2006-07-27 02:00,ZGKL 270200Z AUTO 00000KT 4SM 30/22 A2959 RMK T03000220 IEM_DS3505
ZGKL,2006-07-27 03:00,ZGKL 270300Z AUTO 24002KT 4SM 30/24 A2956 RMK SLP006 T03000245 54000 IEM_DS3505
ZGKL,2006-07-27 04:00,ZGKL 270400Z AUTO 21002KT 4SM 30/22 A2956 RMK T03000220 IEM_DS3505
ZGKL,2006-07-27 05:00,ZGKL 270500Z AUTO 12002KT 4SM 31/22 A2956 RMK T03100220 IEM_DS3505
ZGKL,2006-07-27 06:00,ZGKL 270600Z AUTO 04006KT 10SM 31/22 A2953 RMK SLP994 T03060222 57015 IEM_DS3505
ZGKL,2006-07-27 07:00,ZGKL 270700Z AUTO 17002KT 5SM 31/23 A2953 RMK T03100230 IEM_DS3505
ZGKL,2006-07-27 08:00,ZGKL 270800Z AUTO 11004KT 5SM 32/23 A2950 RMK T03200230 IEM_DS3505
ZGKL,2006-07-27 09:00,ZGKL 270900Z AUTO 02008KT 11SM 31/22 A2950 RMK SLP980 T03080221 57014 IEM_DS3505
ZGKL,2006-07-27 10:00,ZGKL 271000Z AUTO 00000KT 5SM 29/25 A2950 RMK T02900250 IEM_DS3505
ZGKL,2006-07-27 11:00,ZGKL 271100Z AUTO 26002KT 4SM 29/25 A2950 RMK T02900250 IEM_DS3505
ZGKL,2006-07-27 12:00,ZGKL 271200Z AUTO 04010KT 11SM 29/22 A2953 RMK SLP991 T02900223 52011 IEM_DS3505
ZGKL,2006-07-27 13:00,ZGKL 271300Z AUTO 06006KT 3SM 28/24 A2953 RMK T02800240 IEM_DS3505
ZGKL,2006-07-27 14:00,ZGKL 271400Z AUTO 32002KT 3SM 27/25 A2956 RMK T02700250 IEM_DS3505
ZGKL,2006-07-27 15:00,ZGKL 271500Z AUTO 02004KT 9SM 27/23 A2956 RMK SLP003 T02720226 52012 IEM_DS3505
ZGKL,2006-07-27 16:00,ZGKL 271600Z AUTO 32002KT 26/24 A2956 RMK T02600240 IEM_DS3505
ZGKL,2006-07-27 17:00,ZGKL 271700Z AUTO 36002KT 26/23 A2956 RMK T02600230 IEM_DS3505
ZGKL,2006-07-27 18:00,ZGKL 271800Z AUTO 02006KT 9SM 26/23 A2956 RMK SLP002 T02630228 57001 IEM_DS3505
ZGKL,2006-07-27 19:00,ZGKL 271900Z AUTO 01002KT 26/24 A2956 RMK T02600240 IEM_DS3505
ZGKL,2006-07-27 20:00,ZGKL 272000Z AUTO 00000KT 25/24 A2956 RMK T02500240 IEM_DS3505
ZGKL,2006-07-27 21:00,ZGKL 272100Z AUTO 34002KT 8SM 26/23 A2956 RMK 70000 SLP002 T02600227 54000 IEM_DS3505
ZGKL,2006-07-27 22:00,ZGKL 272200Z AUTO 35002KT 2SM 25/24 A2956 RMK T02500240 IEM_DS3505
ZGKL,2006-07-27 23:00,ZGKL 272300Z AUTO 11002KT 3SM 25/23 A2956 RMK T02500230 IEM_DS3505
ZGKL,2006-07-28 00:00,ZGKL 280000Z AUTO 04004KT 4SM 25/23 A2959 RMK 70000 SLP012 T02540233 52009 IEM_DS3505
ZGKL,2006-07-28 01:00,ZGKL 280100Z AUTO 11002KT 7SM 25/23 A2959 RMK T02500230 IEM_DS3505
ZGKL,2006-07-28 02:00,ZGKL 280200Z AUTO 05004KT 1 1/4SM 25/24 A2962 RMK T02500240 IEM_DS3505
ZGKL,2006-07-28 03:00,ZGKL 280300Z AUTO 34002KT 2 1/2SM 24/24 A2962 RMK SLP025 T02450236 52012 IEM_DS3505
ZGKL,2006-07-28 04:00,ZGKL 280400Z AUTO 02006KT 2 1/2SM 25/24 A2962 RMK T02500240 IEM_DS3505
ZGKL,2006-07-28 05:00,ZGKL 280500Z AUTO 03004KT 4SM 25/24 A2962 RMK T02500240 IEM_DS3505
ZGKL,2006-07-28 06:00,ZGKL 280600Z AUTO 02004KT 4SM 26/24 A2959 RMK 60063 SLP016 T02650238 57008 IEM_DS3505
ZGKL,2006-07-28 07:00,ZGKL 280700Z AUTO 35006KT 7SM 26/24 A2959 RMK T02600240 IEM_DS3505
ZGKL,2006-07-28 08:00,ZGKL 280800Z AUTO 33004KT 7SM 27/23 A2959 RMK T02700230 IEM_DS3505
ZGKL,2006-07-28 09:00,ZGKL 280900Z AUTO 02004KT 5SM 28/24 A2956 RMK SLP006 T02780238 57010 IEM_DS3505
ZGKL,2006-07-28 10:00,ZGKL 281000Z AUTO 33004KT 6SM 27/25 A2956 RMK T02700250 IEM_DS3505
ZGKL,2006-07-28 11:00,ZGKL 281100Z AUTO 34004KT 7SM 27/24 A2959 RMK T02700240 IEM_DS3505
ZGKL,2006-07-28 12:00,ZGKL 281200Z AUTO 02002KT 8SM 26/24 A2959 RMK SLP013 T02650238 52007 IEM_DS3505
ZGKL,2006-07-28 13:00,ZGKL 281300Z AUTO 15014KT 1 1/4SM 26/23 A2965 RMK T02600230 IEM_DS3505
ZGKL,2006-07-28 14:00,ZGKL 281400Z AUTO 31006KT 5SM 24/23 A2965 RMK T02400230 IEM_DS3505
ZGKL,2006-07-28 15:00,ZGKL 281500Z AUTO 27002KT 7SM 25/24 A2965 RMK SLP035 T02540242 52021 IEM_DS3505
ZGKL,2006-07-28 16:00,ZGKL 281600Z AUTO 00000KT 6SM 24/23 A2965 RMK T02400230 IEM_DS3505
ZGKL,2006-07-28 17:00,ZGKL 281700Z AUTO 00000KT 24/23 A2965 RMK T02400230 IEM_DS3505
ZGKL,2006-07-28 18:00,ZGKL 281800Z AUTO 32002KT 6SM 25/24 A2968 RMK 60004 SLP039 T02490242 52004 IEM_DS3505
ZGKL,2006-07-28 19:00,ZGKL 281900Z AUTO 27002KT 24/23 A2968 RMK T02400230 IEM_DS3505
ZGKL,2006-07-28 20:00,ZGKL 282000Z AUTO 34002KT 24/23 A2968 RMK T02400230 IEM_DS3505
ZGKL,2006-07-28 21:00,ZGKL 282100Z AUTO 09002KT 6SM 25/24 A2968 RMK 70069 SLP044 T02470240 52005 IEM_DS3505
ZGKL,2006-07-28 22:00,ZGKL 282200Z AUTO 06004KT 2 1/2SM 25/24 A2968 RMK T02500240 IEM_DS3505
ZGKL,2006-07-28 23:00,ZGKL 282300Z AUTO 32002KT 2 1/2SM 25/24 A2971 RMK T02500240 IEM_DS3505
ZGKL,2006-07-29 00:00,ZGKL 290000Z AUTO 02002KT 4SM 25/24 A2974 RMK 60012 70082 SLP059 T02510242 52015 IEM_DS3505
ZGKL,2006-07-29 01:00,ZGKL 290100Z AUTO 33004KT 4SM 25/23 A2974 RMK T02500230 IEM_DS3505
ZGKL,2006-07-29 02:00,ZGKL 290200Z AUTO 36004KT 5SM 26/24 A2977 RMK T02600240 IEM_DS3505
ZGKL,2006-07-29 03:00,ZGKL 290300Z AUTO 02004KT 5SM 27/24 A2977 RMK SLP074 T02690240 52015 IEM_DS3505
ZGKL,2006-07-29 04:00,ZGKL 290400Z AUTO 08006KT 3SM 25/24 A2977 RMK T02500240 IEM_DS3505
ZGKL,2006-07-29 05:00,ZGKL 290500Z AUTO 32004KT 4SM 28/25 A2977 RMK T02800250 IEM_DS3505
ZGKL,2006-07-29 06:00,ZGKL 290600Z AUTO 04006KT 9SM 30/24 A2974 RMK SLP061 T03040236 57012 IEM_DS3505
ZGKL,2006-07-29 07:00,ZGKL 290700Z AUTO 34006KT 6SM 30/24 A2974 RMK T03000240 IEM_DS3505
ZGKL,2006-07-29 08:00,ZGKL 290800Z AUTO 32006KT 7SM 30/24 A2968 RMK T03000240 IEM_DS3505
ZGKL,2006-07-29 09:00,ZGKL 290900Z AUTO 02002KT 9SM 29/24 A2971 RMK SLP050 T02890245 57012 IEM_DS3505
ZGKL,2006-07-29 10:00,ZGKL 291000Z AUTO 23004KT 6SM 26/25 A2971 RMK T02600250 IEM_DS3505
ZGKL,2006-07-29 11:00,ZGKL 291100Z AUTO 00000KT 7SM 27/25 A2974 RMK T02700250 IEM_DS3505
ZGKL,2006-07-29 12:00,ZGKL 291200Z AUTO 33004KT 11SM 26/23 A2977 RMK 60028 SLP072 T02620233 52021 IEM_DS3505
ZGKL,2006-07-29 13:00,ZGKL 291300Z AUTO 30002KT 7SM 24/23 A2983 RMK T02400230 IEM_DS3505
ZGKL,2006-07-29 14:00,ZGKL 291400Z AUTO 27002KT 7SM 24/23 A2983 RMK T02400230 IEM_DS3505
ZGKL,2006-07-29 15:00,ZGKL 291500Z AUTO 36002KT 9SM 25/23 A2985 RMK SLP104 T02510226 52032 IEM_DS3505
ZGKL,2006-07-29 16:00,ZGKL 291600Z AUTO 32002KT 7SM 24/23 A2985 RMK T02400230 IEM_DS3505
ZGKL,2006-07-29 17:00,ZGKL 291700Z AUTO 25002KT 24/23 A2985 RMK T02400230 IEM_DS3505
ZGKL,2006-07-29 18:00,ZGKL 291800Z AUTO 34002KT 7SM 24/23 A2983 RMK SLP094 T02410227 57009 IEM_DS3505
ZGKL,2006-07-29 19:00,ZGKL 291900Z AUTO 06004KT 24/23 A2983 RMK T02400230 IEM_DS3505
ZGKL,2006-07-29 20:00,ZGKL 292000Z AUTO 03002KT 24/23 A2983 RMK T02400230 IEM_DS3505
ZGKL,2006-07-29 21:00,ZGKL 292100Z AUTO 02002KT 6SM 24/23 A2983 RMK 70040 SLP096 T02430229 52001 IEM_DS3505
ZGKL,2006-07-29 22:00,ZGKL 292200Z AUTO 00000KT 4SM 24/23 A2983 RMK T02400230 IEM_DS3505
ZGKL,2006-07-29 23:00,ZGKL 292300Z AUTO 30002KT 4SM 24/23 A2985 RMK T02400230 IEM_DS3505
ZGKL,2006-07-30 00:00,ZGKL 300000Z AUTO 04002KT 7SM 26/24 A2985 RMK 70027 SLP106 T02570237 52010 IEM_DS3505
ZGKL,2006-07-30 01:00,ZGKL 300100Z AUTO 00000KT 7SM 27/24 A2988 RMK T02700240 IEM_DS3505
ZGKL,2006-07-30 02:00,ZGKL 300200Z AUTO 33004KT 7SM 28/24 A2988 RMK T02800240 IEM_DS3505
ZGKL,2006-07-30 03:00,ZGKL 300300Z AUTO 09002KT 8SM 30/23 A2988 RMK SLP112 T03010233 52007 IEM_DS3505
ZGKL,2006-07-30 04:00,ZGKL 300400Z AUTO 14004KT 7SM 29/22 A2988 RMK T02900220 IEM_DS3505
ZGKL,2006-07-30 05:00,ZGKL 300500Z AUTO 16004KT 7SM 29/23 A2988 RMK T02900230 IEM_DS3505
ZGKL,2006-07-30 06:00,ZGKL 300600Z AUTO 36006KT 8SM 31/23 A2985 RMK SLP097 T03070234 57015 IEM_DS3505
ZGKL,2006-07-30 07:00,ZGKL 300700Z AUTO 14004KT 7SM 32/22 A2983 RMK T03200220 IEM_DS3505
ZGKL,2006-07-30 08:00,ZGKL 300800Z AUTO 13004KT 7SM 32/22 A2980 RMK T03200220 IEM_DS3505
ZGKL,2006-07-30 09:00,ZGKL 300900Z AUTO 02006KT 9SM 26/22 A2980 RMK SLP089 T02640225 57009 IEM_DS3505
ZGKL,2006-07-30 10:00,ZGKL 301000Z AUTO 14004KT 7SM 29/24 A2983 RMK T02900240 IEM_DS3505
ZGKL,2006-07-30 11:00,ZGKL 301100Z AUTO 07004KT 6SM 26/23 A2985 RMK T02600230 IEM_DS3505
ZGKL,2006-07-30 12:00,ZGKL 301200Z AUTO 02002KT 11SM 25/23 A2985 RMK 60008 SLP105 T02540227 52016 IEM_DS3505
ZGKL,2006-07-30 13:00,ZGKL 301300Z AUTO 36004KT 6SM 26/24 A2985 RMK T02600240 IEM_DS3505
ZGKL,2006-07-30 14:00,ZGKL 301400Z AUTO 00000KT 6SM 25/24 A2988 RMK T02500240 IEM_DS3505
ZGKL,2006-07-30 15:00,ZGKL 301500Z AUTO 11002KT 9SM 25/23 A2991 RMK SLP121 T02470233 52016 IEM_DS3505
ZGKL,2006-07-30 16:00,ZGKL 301600Z AUTO 00000KT 6SM 25/23 A2991 RMK T02500230 IEM_DS3505
ZGKL,2006-07-30 17:00,ZGKL 301700Z AUTO 34002KT 25/24 A2988 RMK T02500240 IEM_DS3505
ZGKL,2006-07-30 18:00,ZGKL 301800Z AUTO 36002KT 9SM 24/23 A2988 RMK SLP115 T02400230 57005 IEM_DS3505
ZGKL,2006-07-30 19:00,ZGKL 301900Z AUTO 00000KT 24/23 A2988 RMK T02400230 IEM_DS3505
ZGKL,2006-07-30 20:00,ZGKL 302000Z AUTO 29002KT 24/23 A2988 RMK T02400230 IEM_DS3505
ZGKL,2006-07-30 21:00,ZGKL 302100Z AUTO 02004KT 8SM 23/22 A2985 RMK 70006 SLP107 T02310224 57010 IEM_DS3505
ZGKL,2006-07-30 22:00,ZGKL 302200Z AUTO 00000KT 4SM 23/22 A2985 RMK T02300220 IEM_DS3505
ZGKL,2006-07-30 23:00,ZGKL 302300Z AUTO 00000KT 4SM 23/22 A2988 RMK T02300220 IEM_DS3505
ZGKL,2006-07-31 00:00,ZGKL 310000Z AUTO 02002KT 4SM 25/23 A2988 RMK 70006 SLP112 T02490228 52005 IEM_DS3505
ZGKL,2006-07-31 01:00,ZGKL 310100Z AUTO 00000KT 7SM 28/23 A2988 RMK T02800230 IEM_DS3505
ZGKL,2006-07-31 02:00,ZGKL 310200Z AUTO 00000KT 7SM 29/24 A2988 RMK T02900240 IEM_DS3505
ZGKL,2006-07-31 03:00,ZGKL 310300Z AUTO 29002KT 5SM 29/22 A2991 RMK SLP119 T02880221 52008 IEM_DS3505
ZGKL,2006-07-31 04:00,ZGKL 310400Z AUTO 03002KT 7SM 30/22 A2988 RMK T03000220 IEM_DS3505
ZGKL,2006-07-31 05:00,ZGKL 310500Z AUTO 09004KT 7SM 31/23 A2985 RMK T03100230 IEM_DS3505
ZGKL,2006-07-31 06:00,ZGKL 310600Z AUTO 16004KT 9SM 32/21 A2985 RMK SLP099 T03230206 57019 IEM_DS3505
ZGKL,2006-07-31 07:00,ZGKL 310700Z AUTO 11004KT 7SM 33/23 A2983 RMK T03300230 IEM_DS3505
ZGKL,2006-07-31 08:00,ZGKL 310800Z AUTO 13002KT 7SM 34/22 A2980 RMK T03400220 IEM_DS3505
ZGKL,2006-07-31 09:00,ZGKL 310900Z AUTO 27006KT 16SM 34/21 A2977 RMK SLP067 T03350213 57031 IEM_DS3505
ZGKL,2006-07-31 10:00,ZGKL 311000Z AUTO 16002KT 7SM 33/22 A2977 RMK T03300220 IEM_DS3505
ZGKL,2006-07-31 11:00,ZGKL 311100Z AUTO 16004KT 6SM 31/23 A2977 RMK T03100230 IEM_DS3505
ZGKL,2006-07-31 12:00,ZGKL 311200Z AUTO 22002KT 14SM 31/22 A2980 RMK SLP074 T03110216 52007 IEM_DS3505
ZGKL,2006-07-31 13:00,ZGKL 311300Z AUTO 29002KT 6SM 28/25 A2980 RMK T02800250 IEM_DS3505
ZGKL,2006-07-31 14:00,ZGKL 311400Z AUTO 32002KT 6SM 27/25 A2983 RMK T02700250 IEM_DS3505
ZGKL,2006-07-31 15:00,ZGKL 311500Z AUTO 09002KT 10SM 28/24 A2983 RMK SLP093 T02750235 52018 IEM_DS3505
ZGKL,2006-07-31 16:00,ZGKL 311600Z AUTO 00000KT 6SM 27/24 A2983 RMK T02700240 IEM_DS3505
ZGKL,2006-07-31 17:00,ZGKL 311700Z AUTO 29002KT 26/24 A2983 RMK T02600240 IEM_DS3505
ZGKL,2006-07-31 18:00,ZGKL 311800Z AUTO 04002KT 9SM 26/23 A2980 RMK SLP085 T02610228 57007 IEM_DS3505
ZGKL,2006-07-31 19:00,ZGKL 311900Z AUTO 00000KT 25/24 A2980 RMK T02500240 IEM_DS3505
ZGKL,2006-07-31 20:00,ZGKL 312000Z AUTO 00000KT 25/24 A2977 RMK T02500240 IEM_DS3505
ZGKL,2006-07-31 21:00,ZGKL 312100Z AUTO 07002KT 9SM 25/23 A2977 RMK SLP072 T02480229 57013 IEM_DS3505
ZGKL,2006-07-31 22:00,ZGKL 312200Z AUTO 33002KT 2SM 24/23 A2977 RMK T02400230 IEM_DS3505
ZGKL,2006-07-31 23:00,ZGKL 312300Z AUTO 00000KT 3SM 24/24 A2977 RMK T02400240 IEM_DS3505
ZGKL,2006-08-01 00:00,ZGKL 010000Z AUTO 04002KT 4SM 26/23 A2980 RMK SLP081 T02650234 52009 IEM_DS3505
ZGKL,2006-08-01 01:00,ZGKL 010100Z AUTO 00000KT 5SM 27/24 A2980 RMK T02700240 IEM_DS3505
ZGKL,2006-08-01 02:00,ZGKL 010200Z AUTO 18004KT 6SM 29/24 A2983 RMK T02900240 IEM_DS3505
ZGKL,2006-08-01 03:00,ZGKL 010300Z AUTO 32002KT 6SM 31/24 A2983 RMK SLP085 T03080245 52004 IEM_DS3505
ZGKL,2006-08-01 04:00,ZGKL 010400Z AUTO 21002KT 7SM 32/24 A2980 RMK T03200240 IEM_DS3505
ZGKL,2006-08-01 05:00,ZGKL 010500Z AUTO 27002KT 7SM 33/23 A2977 RMK T03300230 IEM_DS3505
ZGKL,2006-08-01 06:00,ZGKL 010600Z AUTO 16004KT 8SM 33/23 A2977 RMK SLP064 T03300231 57020 IEM_DS3505
ZGKL,2006-08-01 07:00,ZGKL 010700Z AUTO 18008KT 7SM 33/24 A2974 RMK T03300240 IEM_DS3505
ZGKL,2006-08-01 08:00,ZGKL 010800Z AUTO 18008KT 6SM 34/24 A2968 RMK T03400240 IEM_DS3505
ZGKL,2006-08-01 09:00,ZGKL 010900Z AUTO 18004KT 9SM 34/23 A2965 RMK SLP035 T03350229 57029 IEM_DS3505
ZGKL,2006-08-01 10:00,ZGKL 011000Z AUTO 19004KT 6SM 33/24 A2965 RMK T03300240 IEM_DS3505
ZGKL,2006-08-01 11:00,ZGKL 011100Z AUTO 20004KT 7SM 31/24 A2968 RMK T03100240 IEM_DS3505
ZGKL,2006-08-01 12:00,ZGKL 011200Z AUTO 22002KT 9SM 31/22 A2968 RMK SLP043 T03140224 52008 IEM_DS3505
ZGKL,2006-08-01 13:00,ZGKL 011300Z AUTO 34002KT 4SM 28/25 A2971 RMK T02800250 IEM_DS3505
ZGKL,2006-08-01 14:00,ZGKL 011400Z AUTO 31004KT 3SM 27/25 A2974 RMK T02700250 IEM_DS3505
ZGKL,2006-08-01 15:00,ZGKL 011500Z AUTO 32002KT 9SM 28/24 A2974 RMK SLP059 T02830245 52016 IEM_DS3505
ZGKL,2006-08-01 16:00,ZGKL 011600Z AUTO 31002KT 3SM 27/25 A2974 RMK T02700250 IEM_DS3505
ZGKL,2006-08-01 17:00,ZGKL 011700Z AUTO 00000KT 26/25 A2971 RMK T02600250 IEM_DS3505
ZGKL,2006-08-01 18:00,ZGKL 011800Z AUTO 14002KT 8SM 27/24 A2971 RMK SLP052 T02660241 57007 IEM_DS3505
ZGKL,2006-08-01 19:00,ZGKL 011900Z AUTO 21002KT 26/25 A2968 RMK T02600250 IEM_DS3505
ZGKL,2006-08-01 20:00,ZGKL 012000Z AUTO 00000KT 26/25 A2968 RMK T02600250 IEM_DS3505
ZGKL,2006-08-01 21:00,ZGKL 012100Z AUTO 36002KT 7SM 26/24 A2968 RMK SLP043 T02590239 57009 IEM_DS3505
ZGKL,2006-08-01 22:00,ZGKL 012200Z AUTO 35002KT 3SM 25/24 A2968 RMK T02500240 IEM_DS3505
ZGKL,2006-08-01 23:00,ZGKL 012300Z AUTO 29002KT 3SM 25/24 A2971 RMK T02500240 IEM_DS3505
ZGKL,2006-08-02 00:00,ZGKL 020000Z AUTO 02004KT 5SM 27/24 A2971 RMK SLP051 T02710238 52008 IEM_DS3505
ZGKL,2006-08-02 01:00,ZGKL 020100Z AUTO 30002KT 6SM 28/24 A2971 RMK T02800240 IEM_DS3505
ZGKL,2006-08-02 02:00,ZGKL 020200Z AUTO 08004KT 6SM 31/24 A2971 RMK T03100240 IEM_DS3505
ZGKL,2006-08-02 03:00,ZGKL 020300Z AUTO 34006KT 6SM 31/24 A2971 RMK SLP049 T03110242 57002 IEM_DS3505
ZGKL,2006-08-02 04:00,ZGKL 020400Z AUTO 33004KT 6SM 32/24 A2968 RMK T03200240 IEM_DS3505
ZGKL,2006-08-02 05:00,ZGKL 020500Z AUTO 33002KT 7SM 33/24 A2965 RMK T03300240 IEM_DS3505
ZGKL,2006-08-02 06:00,ZGKL 020600Z AUTO 36006KT 8SM 34/23 A2965 RMK SLP022 T03440231 57026 IEM_DS3505
ZGKL,2006-08-02 07:00,ZGKL 020700Z AUTO 33004KT 7SM 35/24 A2962 RMK T03500240 IEM_DS3505
ZGKL,2006-08-02 08:00,ZGKL 020800Z AUTO 31006KT 7SM 35/23 A2959 RMK T03500230 IEM_DS3505
ZGKL,2006-08-02 09:00,ZGKL 020900Z AUTO 34008KT 9SM 35/23 A2959 RMK SLP003 T03520232 57018 IEM_DS3505
ZGKL,2006-08-02 10:00,ZGKL 021000Z AUTO 16012KT 7SM 29/22 A2959 RMK T02900220 IEM_DS3505
ZGKL,2006-08-02 11:00,ZGKL 021100Z AUTO 18004KT 7SM 27/21 A2962 RMK T02700210 IEM_DS3505
ZGKL,2006-08-02 12:00,ZGKL 021200Z AUTO 18004KT 9SM 28/22 A2965 RMK SLP037 T02800218 52031 IEM_DS3505
ZGKL,2006-08-02 13:00,ZGKL 021300Z AUTO 15012KT 5SM 25/22 A2971 RMK T02500220 IEM_DS3505
ZGKL,2006-08-02 14:00,ZGKL 021400Z AUTO 25008KT 4SM 24/22 A2974 RMK T02400220 IEM_DS3505
ZGKL,2006-08-02 15:00,ZGKL 021500Z AUTO 02004KT 7SM 24/22 A2977 RMK SLP075 T02360220 52037 IEM_DS3505
ZGKL,2006-08-02 16:00,ZGKL 021600Z AUTO 36006KT 4SM 23/22 A2977 RMK T02300220 IEM_DS3505
ZGKL,2006-08-02 17:00,ZGKL 021700Z AUTO 34002KT 4SM 23/22 A2977 RMK T02300220 IEM_DS3505
ZGKL,2006-08-02 18:00,ZGKL 021800Z AUTO 36004KT 7SM 24/22 A2974 RMK 60055 SLP059 T02350218 57014 IEM_DS3505
ZGKL,2006-08-02 19:00,ZGKL 021900Z AUTO 00000KT 23/22 A2971 RMK T02300220 IEM_DS3505
ZGKL,2006-08-02 20:00,ZGKL 022000Z AUTO 32002KT 23/22 A2968 RMK T02300220 IEM_DS3505
ZGKL,2006-08-02 21:00,ZGKL 022100Z AUTO 36004KT 6SM 23/21 A2965 RMK 70056 SLP036 T02310212 57023 IEM_DS3505
ZGKL,2006-08-02 22:00,ZGKL 022200Z AUTO 00000KT 6SM 23/22 A2965 RMK T02300220 IEM_DS3505
ZGKL,2006-08-02 23:00,ZGKL 022300Z AUTO 34002KT 6SM 23/22 A2968 RMK T02300220 IEM_DS3505
ZGKL,2006-08-03 00:00,ZGKL 030000Z AUTO 04006KT 11SM 24/21 A2971 RMK 60002 70057 SLP054 T02390210 52016 IEM_DS3505
ZGKL,2006-08-03 01:00,ZGKL 030100Z AUTO 33002KT 6SM 25/23 A2971 RMK T02500230 IEM_DS3505
ZGKL,2006-08-03 02:00,ZGKL 030200Z AUTO 01006KT 7SM 26/23 A2971 RMK T02600230 IEM_DS3505
ZGKL,2006-08-03 03:00,ZGKL 030300Z AUTO 02006KT 10SM 25/22 A2971 RMK SLP060 T02480219 52005 IEM_DS3505
ZGKL,2006-08-03 04:00,ZGKL 030400Z AUTO 06008KT 7SM 26/23 A2971 RMK T02600230 IEM_DS3505
ZGKL,2006-08-03 05:00,ZGKL 030500Z AUTO 03008KT 7SM 26/23 A2971 RMK T02600230 IEM_DS3505
ZGKL,2006-08-03 06:00,ZGKL 030600Z AUTO 36012KT 11SM 26/22 A2968 RMK 60002 SLP046 T02580219 57014 IEM_DS3505
ZGKL,2006-08-03 07:00,ZGKL 030700Z AUTO 01012KT 7SM 28/23 A2968 RMK T02800230 IEM_DS3505
ZGKL,2006-08-03 08:00,ZGKL 030800Z AUTO 04012KT 7SM 28/22 A2965 RMK T02800220 IEM_DS3505
ZGKL,2006-08-03 09:00,ZGKL 030900Z AUTO 36010KT 10SM 26/22 A2965 RMK SLP030 T02590220 57016 IEM_DS3505
ZGKL,2006-08-03 10:00,ZGKL 031000Z AUTO 02008KT 7SM 26/23 A2962 RMK T02600230 IEM_DS3505
ZGKL,2006-08-03 11:00,ZGKL 031100Z AUTO 02012KT 7SM 27/22 A2962 RMK T02700220 IEM_DS3505
ZGKL,2006-08-03 12:00,ZGKL 031200Z AUTO 02008KT 9SM 26/22 A2965 RMK 60000 SLP027 T02590216 57002 IEM_DS3505
ZGKL,2006-08-03 13:00,ZGKL 031300Z AUTO 02008KT 7SM 26/22 A2965 RMK T02600220 IEM_DS3505
ZGKL,2006-08-03 14:00,ZGKL 031400Z AUTO 30002KT 7SM 25/23 A2965 RMK T02500230 IEM_DS3505
ZGKL,2006-08-03 15:00,ZGKL 031500Z AUTO 36010KT 9SM 26/22 A2962 RMK SLP028 T02610215 52001 IEM_DS3505
ZGKL,2006-08-03 16:00,ZGKL 031600Z AUTO 02008KT 4SM 26/22 A2962 RMK T02600220 IEM_DS3505
ZGKL,2006-08-03 17:00,ZGKL 031700Z AUTO 01008KT 4SM 25/22 A2962 RMK T02500220 IEM_DS3505
ZGKL,2006-08-03 18:00,ZGKL 031800Z AUTO 02010KT 9SM 26/22 A2959 RMK SLP010 T02560219 57018 IEM_DS3505
ZGKL,2006-08-03 19:00,ZGKL 031900Z AUTO 02010KT 26/21 A2956 RMK T02600210 IEM_DS3505
ZGKL,2006-08-03 20:00,ZGKL 032000Z AUTO 05012KT 26/22 A2956 RMK T02600220 IEM_DS3505
ZGKL,2006-08-03 21:00,ZGKL 032100Z AUTO 02008KT 9SM 26/21 A2956 RMK 70004 SLP007 T02600214 57002 IEM_DS3505
ZGKL,2006-08-03 22:00,ZGKL 032200Z AUTO 36006KT 7SM 24/22 A2956 RMK T02400220 IEM_DS3505
ZGKL,2006-08-03 23:00,ZGKL 032300Z AUTO 02008KT 7SM 25/22 A2959 RMK T02500220 IEM_DS3505
ZGKL,2006-08-04 00:00,ZGKL 040000Z AUTO 02012KT 9SM 25/22 A2959 RMK 60000 70003 SLP013 T02480219 52005 IEM_DS3505
ZGKL,2006-08-04 01:00,ZGKL 040100Z AUTO 01010KT 7SM 24/22 A2959 RMK T02400220 IEM_DS3505
ZGKL,2006-08-04 02:00,ZGKL 040200Z AUTO 01014KT 7SM 24/22 A2962 RMK T02400220 IEM_DS3505
ZGKL,2006-08-04 03:00,ZGKL 040300Z AUTO 02010KT 9SM 26/22 A2962 RMK SLP019 T02550218 52006 IEM_DS3505
ZGKL,2006-08-04 04:00,ZGKL 040400Z AUTO 01008KT 5SM 25/23 A2962 RMK T02500230 IEM_DS3505
ZGKL,2006-08-04 05:00,ZGKL 040500Z AUTO 02012KT 4SM 25/22 A2959 RMK T02500220 IEM_DS3505
ZGKL,2006-08-04 06:00,ZGKL 040600Z AUTO 02010KT 9SM 25/22 A2959 RMK 60008 SLP017 T02540223 57002 IEM_DS3505
ZGKL,2006-08-04 07:00,ZGKL 040700Z AUTO 03012KT 7SM 25/22 A2959 RMK T02500220 IEM_DS3505
ZGKL,2006-08-04 08:00,ZGKL 040800Z AUTO 03010KT 4SM 25/22 A2959 RMK T02500220 IEM_DS3505
ZGKL,2006-08-04 09:00,ZGKL 040900Z AUTO 04006KT 9SM 25/22 A2959 RMK SLP015 T02470224 57002 IEM_DS3505
ZGKL,2006-08-04 10:00,ZGKL 041000Z AUTO 04010KT 4SM 24/22 A2962 RMK T02400220 IEM_DS3505
ZGKL,2006-08-04 11:00,ZGKL 041100Z AUTO 34006KT 5SM 24/22 A2962 RMK T02400220 IEM_DS3505
ZGKL,2006-08-04 12:00,ZGKL 041200Z AUTO 36004KT 9SM 24/22 A2965 RMK 60003 SLP039 T02420223 52023 IEM_DS3505
ZGKL,2006-08-04 13:00,ZGKL 041300Z AUTO 35006KT 5SM 24/22 A2968 RMK T02400220 IEM_DS3505
ZGKL,2006-08-04 14:00,ZGKL 041400Z AUTO 05006KT 2SM 23/22 A2971 RMK T02300220 IEM_DS3505
ZGKL,2006-08-04 15:00,ZGKL 041500Z AUTO 02002KT 8SM 24/23 A2974 RMK SLP062 T02360226 52023 IEM_DS3505
ZGKL,2006-08-04 16:00,ZGKL 041600Z AUTO 36006KT 2SM 23/22 A2971 RMK T02300220 IEM_DS3505
ZGKL,2006-08-04 17:00,ZGKL 041700Z AUTO 34004KT 1 1/4SM 23/22 A2971 RMK T02300220 IEM_DS3505
ZGKL,2006-08-04 18:00,ZGKL 041800Z AUTO 36002KT 7SM 23/23 A2971 RMK 60071 SLP055 T02310226 57007 IEM_DS3505
ZGKL,2006-08-04 19:00,ZGKL 041900Z AUTO 02008KT 23/22 A2971 RMK T02300220 IEM_DS3505
ZGKL,2006-08-04 20:00,ZGKL 042000Z AUTO 36008KT 23/22 A2968 RMK T02300220 IEM_DS3505
ZGKL,2006-08-04 21:00,ZGKL 042100Z AUTO 04004KT 6SM 23/23 A2971 RMK 70131 SLP051 T02310228 57004 IEM_DS3505
ZGKL,2006-08-04 22:00,ZGKL 042200Z AUTO 02006KT 3SM 23/22 A2971 RMK T02300220 IEM_DS3505
ZGKL,2006-08-04 23:00,ZGKL 042300Z AUTO 01006KT 4SM 23/23 A2971 RMK T02300230 IEM_DS3505
ZGKL,2006-08-05 00:00,ZGKL 050000Z AUTO 02006KT 10SM 24/23 A2974 RMK 60059 70140 SLP060 T02380226 52008 IEM_DS3505
ZGKL,2006-08-05 01:00,ZGKL 050100Z AUTO 04004KT 7SM 24/23 A2974 RMK T02400230 IEM_DS3505
ZGKL,2006-08-05 02:00,ZGKL 050200Z AUTO 30004KT 7SM 24/23 A2977 RMK T02400230 IEM_DS3505
ZGKL,2006-08-05 03:00,ZGKL 050300Z AUTO 02006KT 9SM 25/24 A2977 RMK SLP075 T02530235 52015 IEM_DS3505
ZGKL,2006-08-05 04:00,ZGKL 050400Z AUTO 34006KT 7SM 26/24 A2977 RMK T02600240 IEM_DS3505
ZGKL,2006-08-05 05:00,ZGKL 050500Z AUTO 32004KT 7SM 27/24 A2974 RMK T02700240 IEM_DS3505
ZGKL,2006-08-05 06:00,ZGKL 050600Z AUTO 02004KT 10SM 27/24 A2974 RMK 60003 SLP059 T02730235 57015 IEM_DS3505
ZGKL,2006-08-05 07:00,ZGKL 050700Z AUTO 32004KT 7SM 27/24 A2971 RMK T02700240 IEM_DS3505
ZGKL,2006-08-05 08:00,ZGKL 050800Z AUTO 32004KT 7SM 28/24 A2968 RMK T02800240 IEM_DS3505
ZGKL,2006-08-05 09:00,ZGKL 050900Z AUTO 22006KT 9SM 27/23 A2968 RMK SLP046 T02670234 57013 IEM_DS3505
ZGKL,2006-08-05 10:00,ZGKL 051000Z AUTO 02006KT 7SM 27/23 A2971 RMK T02700230 IEM_DS3505
ZGKL,2006-08-05 11:00,ZGKL 051100Z AUTO 33002KT 6SM 26/23 A2971 RMK T02600230 IEM_DS3505
ZGKL,2006-08-05 12:00,ZGKL 051200Z AUTO 02002KT 9SM 26/24 A2971 RMK SLP056 T02570237 52010 IEM_DS3505
ZGKL,2006-08-05 13:00,ZGKL 051300Z AUTO 36002KT 7SM 25/23 A2974 RMK T02500230 IEM_DS3505
ZGKL,2006-08-05 14:00,ZGKL 051400Z AUTO 30004KT 7SM 24/23 A2977 RMK T02400230 IEM_DS3505
ZGKL,2006-08-05 15:00,ZGKL 051500Z AUTO 32002KT 9SM 25/24 A2977 RMK SLP077 T02480238 52021 IEM_DS3505
ZGKL,2006-08-05 16:00,ZGKL 051600Z AUTO 03004KT 7SM 24/23 A2977 RMK T02400230 IEM_DS3505
ZGKL,2006-08-05 17:00,ZGKL 051700Z AUTO 36002KT 24/23 A2974 RMK T02400230 IEM_DS3505
ZGKL,2006-08-05 18:00,ZGKL 051800Z AUTO 11002KT 9SM 23/22 A2974 RMK SLP061 T02340224 57016 IEM_DS3505
ZGKL,2006-08-05 19:00,ZGKL 051900Z AUTO 00000KT 24/23 A2974 RMK T02400230 IEM_DS3505
ZGKL,2006-08-05 20:00,ZGKL 052000Z AUTO 00000KT 24/23 A2971 RMK T02400230 IEM_DS3505
ZGKL,2006-08-05 21:00,ZGKL 052100Z AUTO 36002KT 9SM 24/23 A2974 RMK 70011 SLP062 T02350227 52001 IEM_DS3505
ZGKL,2006-08-05 22:00,ZGKL 052200Z AUTO 01004KT 4SM 24/23 A2974 RMK T02400230 IEM_DS3505
ZGKL,2006-08-05 23:00,ZGKL 052300Z AUTO 36002KT 4SM 24/23 A2974 RMK T02400230 IEM_DS3505
ZGKL,2006-08-06 00:00,ZGKL 060000Z AUTO 36002KT 5SM 25/23 A2977 RMK 70003 SLP072 T02460230 52010 IEM_DS3505
ZGKL,2006-08-06 01:00,ZGKL 060100Z AUTO 29002KT 4SM 25/23 A2977 RMK T02500230 IEM_DS3505
ZGKL,2006-08-06 02:00,ZGKL 060200Z AUTO 29002KT 5SM 26/23 A2980 RMK T02600230 IEM_DS3505
ZGKL,2006-08-06 03:00,ZGKL 060300Z AUTO 27002KT 5SM 29/24 A2980 RMK SLP076 T02870236 52005 IEM_DS3505
ZGKL,2006-08-06 04:00,ZGKL 060400Z AUTO 24004KT 4SM 26/24 A2980 RMK T02600240 IEM_DS3505
ZGKL,2006-08-06 05:00,ZGKL 060500Z AUTO 28004KT 7SM 26/24 A2977 RMK T02600240 IEM_DS3505
ZGKL,2006-08-06 06:00,ZGKL 060600Z AUTO 27002KT 6SM 29/24 A2974 RMK SLP057 T02880239 57019 IEM_DS3505
ZGKL,2006-08-06 07:00,ZGKL 060700Z AUTO 29002KT 7SM 30/23 A2971 RMK T03000230 IEM_DS3505
ZGKL,2006-08-06 08:00,ZGKL 060800Z AUTO 34002KT 7SM 31/23 A2968 RMK T03100230 IEM_DS3505
ZGKL,2006-08-06 09:00,ZGKL 060900Z AUTO 34002KT 7SM 31/23 A2968 RMK SLP037 T03140230 57019 IEM_DS3505
ZGKL,2006-08-06 10:00,ZGKL 061000Z AUTO 07004KT 6SM 31/23 A2965 RMK T03100230 IEM_DS3505
ZGKL,2006-08-06 11:00,ZGKL 061100Z AUTO 08002KT 7SM 30/23 A2968 RMK T03000230 IEM_DS3505
ZGKL,2006-08-06 12:00,ZGKL 061200Z AUTO 36002KT 6SM 28/25 A2968 RMK SLP047 T02850247 52009 IEM_DS3505
ZGKL,2006-08-06 13:00,ZGKL 061300Z AUTO 35004KT 7SM 27/25 A2971 RMK T02700250 IEM_DS3505
ZGKL,2006-08-06 14:00,ZGKL 061400Z AUTO 34002KT 7SM 26/24 A2974 RMK T02600240 IEM_DS3505
ZGKL,2006-08-06 15:00,ZGKL 061500Z AUTO 30004KT 5SM 26/24 A2974 RMK SLP060 T02650240 52014 IEM_DS3505
ZGKL,2006-08-06 16:00,ZGKL 061600Z AUTO 28002KT 7SM 25/24 A2974 RMK T02500240 IEM_DS3505
ZGKL,2006-08-06 17:00,ZGKL 061700Z AUTO 35002KT 25/23 A2971 RMK T02500230 IEM_DS3505
ZGKL,2006-08-06 18:00,ZGKL 061800Z AUTO 04002KT 5SM 25/23 A2971 RMK SLP050 T02510233 57011 IEM_DS3505
ZGKL,2006-08-06 19:00,ZGKL 061900Z AUTO 30002KT 24/23 A2968 RMK T02400230 IEM_DS3505
ZGKL,2006-08-06 20:00,ZGKL 062000Z AUTO 00000KT 24/23 A2968 RMK T02400230 IEM_DS3505
ZGKL,2006-08-06 21:00,ZGKL 062100Z AUTO 00000KT 5SM 25/23 A2971 RMK SLP048 T02460234 57001 IEM_DS3505
ZGKL,2006-08-06 22:00,ZGKL 062200Z AUTO 27002KT 3SM 24/23 A2971 RMK T02400230 IEM_DS3505
ZGKL,2006-08-06 23:00,ZGKL 062300Z AUTO 02002KT 4SM 24/23 A2971 RMK T02400230 IEM_DS3505
ZGKL,2006-08-07 00:00,ZGKL 070000Z AUTO 29002KT 4SM 26/24 A2971 RMK SLP056 T02600235 52008 IEM_DS3505
ZGKL,2006-08-07 01:00,ZGKL 070100Z AUTO 02002KT 3SM 26/23 A2974 RMK T02600230 IEM_DS3505
ZGKL,2006-08-07 02:00,ZGKL 070200Z AUTO 33002KT 4SM 29/23 A2974 RMK T02900230 IEM_DS3505
ZGKL,2006-08-07 03:00,ZGKL 070300Z AUTO 27004KT 4SM 30/24 A2974 RMK SLP057 T02990236 52001 IEM_DS3505
ZGKL,2006-08-07 04:00,ZGKL 070400Z AUTO 14002KT 5SM 31/23 A2971 RMK T03100230 IEM_DS3505
ZGKL,2006-08-07 05:00,ZGKL 070500Z AUTO 20004KT 5SM 31/23 A2968 RMK T03100230 IEM_DS3505
ZGKL,2006-08-07 06:00,ZGKL 070600Z AUTO 14006KT 8SM 33/22 A2968 RMK SLP033 T03260221 57023 IEM_DS3505
ZGKL,2006-08-07 07:00,ZGKL 070700Z AUTO 19004KT 7SM 31/24 A2965 RMK T03100240 IEM_DS3505
ZGKL,2006-08-07 08:00,ZGKL 070800Z AUTO 00000KT 7SM 33/21 A2962 RMK T03300210 IEM_DS3505
ZGKL,2006-08-07 09:00,ZGKL 070900Z AUTO 32004KT 9SM 32/23 A2962 RMK SLP014 T03180228 57019 IEM_DS3505
ZGKL,2006-08-07 10:00,ZGKL 071000Z AUTO 18010KT 5SM 29/24 A2962 RMK T02900240 IEM_DS3505
ZGKL,2006-08-07 11:00,ZGKL 071100Z AUTO 19008KT 5SM 27/24 A2965 RMK T02700240 IEM_DS3505
ZGKL,2006-08-07 12:00,ZGKL 071200Z AUTO 14004KT 8SM 28/24 A2965 RMK 60000 SLP038 T02820238 52023 IEM_DS3505
ZGKL,2006-08-07 13:00,ZGKL 071300Z AUTO 17006KT 4SM 26/23 A2968 RMK T02600230 IEM_DS3505
ZGKL,2006-08-07 14:00,ZGKL 071400Z AUTO 17006KT 3SM 26/23 A2968 RMK T02600230 IEM_DS3505
ZGKL,2006-08-07 15:00,ZGKL 071500Z AUTO 02004KT 7SM 27/23 A2971 RMK SLP052 T02670234 52014 IEM_DS3505
ZGKL,2006-08-07 16:00,ZGKL 071600Z AUTO 32002KT 2 1/2SM 25/24 A2971 RMK T02500240 IEM_DS3505
ZGKL,2006-08-07 17:00,ZGKL 071700Z AUTO 20002KT 25/24 A2968 RMK T02500240 IEM_DS3505
ZGKL,2006-08-07 18:00,ZGKL 071800Z AUTO 11002KT 7SM 26/24 A2968 RMK SLP037 T02570237 57014 IEM_DS3505
ZGKL,2006-08-07 19:00,ZGKL 071900Z AUTO 00000KT 25/24 A2968 RMK T02500240 IEM_DS3505
ZGKL,2006-08-07 20:00,ZGKL 072000Z AUTO 00000KT 24/23 A2968 RMK T02400230 IEM_DS3505
ZGKL,2006-08-07 21:00,ZGKL 072100Z AUTO 36002KT 6SM A2968 RMK 70000 SLP042 52005 IEM_DS3505
ZGKL,2006-08-07 22:00,ZGKL 072200Z AUTO 12002KT 1SM 24/23 A2968 RMK T02400230 IEM_DS3505
ZGKL,2006-08-07 23:00,ZGKL 072300Z AUTO 00000KT 1SM 24/23 A2971 RMK T02400230 IEM_DS3505
ZGKL,2006-08-08 00:00,ZGKL 080000Z AUTO 27002KT 3SM 26/24 A2971 RMK 70000 SLP048 T02600237 52005 IEM_DS3505
ZGKL,2006-08-08 01:00,ZGKL 080100Z AUTO 00000KT 3SM 27/24 A2971 RMK T02700240 IEM_DS3505
ZGKL,2006-08-08 02:00,ZGKL 080200Z AUTO 17002KT 3SM 29/24 A2971 RMK T02900240 IEM_DS3505
ZGKL,2006-08-08 03:00,ZGKL 080300Z AUTO 04002KT 5SM 30/24 A2971 RMK SLP051 T03050237 52003 IEM_DS3505
ZGKL,2006-08-08 04:00,ZGKL 080400Z AUTO 33002KT 4SM 31/23 A2968 RMK T03100230 IEM_DS3505
ZGKL,2006-08-08 05:00,ZGKL 080500Z AUTO 19004KT 5SM 33/25 A2968 RMK T03300250 IEM_DS3505
ZGKL,2006-08-08 06:00,ZGKL 080600Z AUTO 32004KT 5SM 34/22 A2965 RMK SLP025 T03360221 57024 IEM_DS3505
ZGKL,2006-08-08 07:00,ZGKL 080700Z AUTO 24002KT 5SM 34/24 A2962 RMK T03400240 IEM_DS3505
ZGKL,2006-08-08 08:00,ZGKL 080800Z AUTO 24002KT 7SM 35/24 A2959 RMK T03500240 IEM_DS3505
ZGKL,2006-08-08 09:00,ZGKL 080900Z AUTO 07004KT 7SM 35/22 A2959 RMK SLP013 T03460220 57012 IEM_DS3505
ZGKL,2006-08-08 10:00,ZGKL 081000Z AUTO 14006KT 7SM 30/24 A2962 RMK T03000240 IEM_DS3505
ZGKL,2006-08-08 11:00,ZGKL 081100Z AUTO 02014KT 7SM 28/23 A2965 RMK T02800230 IEM_DS3505
ZGKL,2006-08-08 12:00,ZGKL 081200Z AUTO 02004KT 9SM 29/23 A2965 RMK SLP031 T02860228 52016 IEM_DS3505
ZGKL,2006-08-08 13:00,ZGKL 081300Z AUTO 06004KT 3SM 25/24 A2968 RMK T02500240 IEM_DS3505
ZGKL,2006-08-08 14:00,ZGKL 081400Z AUTO 00000KT 3SM 26/24 A2971 RMK T02600240 IEM_DS3505
ZGKL,2006-08-08 15:00,ZGKL 081500Z AUTO 15002KT 9SM 26/23 A2971 RMK SLP051 T02640231 52020 IEM_DS3505
ZGKL,2006-08-08 16:00,ZGKL 081600Z AUTO 17002KT 4SM 26/24 A2971 RMK T02600240 IEM_DS3505
ZGKL,2006-08-08 17:00,ZGKL 081700Z AUTO 36002KT 25/24 A2971 RMK T02500240 IEM_DS3505
ZGKL,2006-08-08 18:00,ZGKL 081800Z AUTO 04004KT 7SM 25/23 A2968 RMK SLP043 T02540231 57007 IEM_DS3505
ZGKL,2006-08-08 19:00,ZGKL 081900Z AUTO 17004KT 25/24 A2968 RMK T02500240 IEM_DS3505
ZGKL,2006-08-08 20:00,ZGKL 082000Z AUTO 00000KT 25/24 A2968 RMK T02500240 IEM_DS3505
ZGKL,2006-08-08 21:00,ZGKL 082100Z AUTO 02002KT 6SM A2965 RMK SLP037 57006 IEM_DS3505
ZGKL,2006-08-08 22:00,ZGKL 082200Z AUTO 00000KT 3/8SM 24/24 A2965 RMK T02400240 IEM_DS3505
ZGKL,2006-08-08 23:00,ZGKL 082300Z AUTO 00000KT 3/8SM 24/24 A2968 RMK T02400240 IEM_DS3505
ZGKL,2006-08-09 00:00,ZGKL 090000Z AUTO 02002KT 3SM 26/24 A2968 RMK SLP042 T02600235 52004 IEM_DS3505
ZGKL,2006-08-09 01:00,ZGKL 090100Z AUTO 15002KT 2SM 26/24 A2968 RMK T02600240 IEM_DS3505
ZGKL,2006-08-09 02:00,ZGKL 090200Z AUTO 18002KT 3SM 28/24 A2971 RMK T02800240 IEM_DS3505
ZGKL,2006-08-09 03:00,ZGKL 090300Z AUTO 07004KT 6SM 31/24 A2971 RMK SLP047 T03140238 52006 IEM_DS3505
ZGKL,2006-08-09 04:00,ZGKL 090400Z AUTO 31002KT 5SM 31/25 A2968 RMK T03100250 IEM_DS3505
ZGKL,2006-08-09 05:00,ZGKL 090500Z AUTO 26002KT 5SM 32/26 A2968 RMK T03200260 IEM_DS3505
ZGKL,2006-08-09 06:00,ZGKL 090600Z AUTO 22002KT 9SM 34/23 A2965 RMK SLP024 T03390230 57022 IEM_DS3505
ZGKL,2006-08-09 07:00,ZGKL 090700Z AUTO 34006KT 6SM 31/26 A2962 RMK T03100260 IEM_DS3505
ZGKL,2006-08-09 08:00,ZGKL 090800Z AUTO 34004KT 7SM 33/25 A2959 RMK T03300250 IEM_DS3505
ZGKL,2006-08-09 09:00,ZGKL 090900Z AUTO 20002KT 8SM 26/23 A2962 RMK SLP016 T02630234 57011 IEM_DS3505
ZGKL,2006-08-09 10:00,ZGKL 091000Z AUTO 35004KT 7SM 28/24 A2962 RMK T02800240 IEM_DS3505
ZGKL,2006-08-09 11:00,ZGKL 091100Z AUTO 34002KT 7SM 28/24 A2962 RMK T02800240 IEM_DS3505
ZGKL,2006-08-09 12:00,ZGKL 091200Z AUTO 36002KT 8SM 27/24 A2965 RMK 60020 SLP027 T02680243 52012 IEM_DS3505
ZGKL,2006-08-09 13:00,ZGKL 091300Z AUTO 00000KT 3SM 27/25 A2965 RMK T02700250 IEM_DS3505
ZGKL,2006-08-09 14:00,ZGKL 091400Z AUTO 33002KT 3SM 26/25 A2968 RMK T02600250 IEM_DS3505
ZGKL,2006-08-09 15:00,ZGKL 091500Z AUTO 30004KT 8SM 26/25 A2968 RMK SLP040 T02640246 52014 IEM_DS3505
ZGKL,2006-08-09 16:00,ZGKL 091600Z AUTO 33002KT 3SM 26/24 A2968 RMK T02600240 IEM_DS3505
ZGKL,2006-08-09 17:00,ZGKL 091700Z AUTO 33002KT 25/24 A2965 RMK T02500240 IEM_DS3505
ZGKL,2006-08-09 18:00,ZGKL 091800Z AUTO 02002KT 6SM 26/24 A2965 RMK SLP032 T02590236 57007 IEM_DS3505
ZGKL,2006-08-09 19:00,ZGKL 091900Z AUTO 35004KT 25/24 A2965 RMK T02500240 IEM_DS3505
ZGKL,2006-08-09 20:00,ZGKL 092000Z AUTO 00000KT 25/24 A2965 RMK T02500240 IEM_DS3505
ZGKL,2006-08-09 21:00,ZGKL 092100Z AUTO 36004KT 6SM 26/23 A2965 RMK 70020 SLP029 T02550228 57006 IEM_DS3505
ZGKL,2006-08-09 22:00,ZGKL 092200Z AUTO 00000KT 6SM 25/23 A2965 RMK T02500230 IEM_DS3505
ZGKL,2006-08-09 23:00,ZGKL 092300Z AUTO 00000KT 6SM 24/23 A2965 RMK T02400230 IEM_DS3505
ZGKL,2006-08-10 00:00,ZGKL 100000Z AUTO 36004KT 4SM 27/23 A2968 RMK 70020 SLP038 T02710234 52010 IEM_DS3505
ZGKL,2006-08-10 01:00,ZGKL 100100Z AUTO 01004KT 6SM 28/24 A2968 RMK T02800240 IEM_DS3505
ZGKL,2006-08-10 02:00,ZGKL 100200Z AUTO 31002KT 6SM 30/23 A2968 RMK T03000230 IEM_DS3505
ZGKL,2006-08-10 03:00,ZGKL 100300Z AUTO 04006KT 5SM 32/25 A2968 RMK SLP040 T03170246 52003 IEM_DS3505
ZGKL,2006-08-10 04:00,ZGKL 100400Z AUTO 04010KT 7SM 33/24 A2968 RMK T03300240 IEM_DS3505
ZGKL,2006-08-10 05:00,ZGKL 100500Z AUTO 03010KT 6SM 34/23 A2965 RMK T03400230 IEM_DS3505
ZGKL,2006-08-10 06:00,ZGKL 100600Z AUTO 02006KT 7SM 35/22 A2962 RMK SLP019 T03470224 57020 IEM_DS3505
ZGKL,2006-08-10 07:00,ZGKL 100700Z AUTO 04006KT 7SM 35/21 A2959 RMK T03500210 IEM_DS3505
ZGKL,2006-08-10 08:00,ZGKL 100800Z AUTO 04006KT 7SM 35/20 A2956 RMK T03500200 IEM_DS3505
ZGKL,2006-08-10 09:00,ZGKL 100900Z AUTO 07004KT 8SM 35/22 A2956 RMK SLP999 T03500223 57020 IEM_DS3505
ZGKL,2006-08-10 10:00,ZGKL 101000Z AUTO 07004KT 7SM 34/23 A2956 RMK T03400230 IEM_DS3505
ZGKL,2006-08-10 11:00,ZGKL 101100Z AUTO 07004KT 7SM 32/23 A2953 RMK T03200230 IEM_DS3505
ZGKL,2006-08-10 12:00,ZGKL 101200Z AUTO 02002KT 9SM 31/24 A2959 RMK SLP005 T03110237 52006 IEM_DS3505
ZGKL,2006-08-10 13:00,ZGKL 101300Z AUTO 32002KT 4SM 29/25 A2962 RMK T02900250 IEM_DS3505
ZGKL,2006-08-10 14:00,ZGKL 101400Z AUTO 34002KT 4SM 28/25 A2965 RMK T02800250 IEM_DS3505
ZGKL,2006-08-10 15:00,ZGKL 101500Z AUTO 36002KT 9SM 30/24 A2965 RMK SLP029 T02950237 52024 IEM_DS3505
ZGKL,2006-08-10 16:00,ZGKL 101600Z AUTO 32004KT 4SM 27/25 A2965 RMK T02700250 IEM_DS3505
ZGKL,2006-08-10 17:00,ZGKL 101700Z AUTO 36004KT 27/25 A2965 RMK T02700250 IEM_DS3505
ZGKL,2006-08-10 18:00,ZGKL 101800Z AUTO 04002KT 7SM 28/24 A2962 RMK SLP019 T02790239 57009 IEM_DS3505
ZGKL,2006-08-10 19:00,ZGKL 101900Z AUTO 26002KT 26/25 A2962 RMK T02600250 IEM_DS3505
ZGKL,2006-08-10 20:00,ZGKL 102000Z AUTO 33002KT 26/24 A2962 RMK T02600240 IEM_DS3505
ZGKL,2006-08-10 21:00,ZGKL 102100Z AUTO 36004KT 6SM A2962 RMK SLP020 54000 IEM_DS3505
ZGKL,2006-08-10 22:00,ZGKL 102200Z AUTO 31004KT 3SM 25/24 A2962 RMK T02500240 IEM_DS3505
ZGKL,2006-08-10 23:00,ZGKL 102300Z AUTO 34002KT 4SM 25/24 A2962 RMK T02500240 IEM_DS3505
ZGKL,2006-08-11 00:00,ZGKL 110000Z AUTO 36006KT 5SM 28/23 A2965 RMK SLP025 T02800234 52005 IEM_DS3505
ZGKL,2006-08-11 01:00,ZGKL 110100Z AUTO 34004KT 4SM 28/24 A2965 RMK T02800240 IEM_DS3505
ZGKL,2006-08-11 02:00,ZGKL 110200Z AUTO 36004KT 4SM 31/24 A2965 RMK T03100240 IEM_DS3505
ZGKL,2006-08-11 03:00,ZGKL 110300Z AUTO 36006KT 5SM 33/24 A2965 RMK SLP031 T03290241 52006 IEM_DS3505
ZGKL,2006-08-11 04:00,ZGKL 110400Z AUTO 03008KT 5SM 34/24 A2965 RMK T03400240 IEM_DS3505
ZGKL,2006-08-11 05:00,ZGKL 110500Z AUTO 36004KT 5SM 35/23 A2965 RMK T03500230 IEM_DS3505
ZGKL,2006-08-11 06:00,ZGKL 110600Z AUTO 04006KT 7SM 35/22 A2962 RMK SLP017 T03540224 57013 IEM_DS3505
ZGKL,2006-08-11 07:00,ZGKL 110700Z AUTO 05004KT 5SM 36/22 A2959 RMK T03600220 IEM_DS3505
ZGKL,2006-08-11 08:00,ZGKL 110800Z AUTO 36002KT 7SM 36/22 A2959 RMK T03600220 IEM_DS3505
ZGKL,2006-08-11 09:00,ZGKL 110900Z AUTO 14004KT 9SM 34/24 A2956 RMK SLP002 T03440240 57015 IEM_DS3505
ZGKL,2006-08-11 10:00,ZGKL 111000Z AUTO 08004KT 6SM 36/21 A2956 RMK T03600210 IEM_DS3505
ZGKL,2006-08-11 11:00,ZGKL 111100Z AUTO 08004KT 6SM 34/23 A2956 RMK T03400230 IEM_DS3505
ZGKL,2006-08-11 12:00,ZGKL 111200Z AUTO 02002KT 8SM 32/24 A2959 RMK SLP007 T03210244 52004 IEM_DS3505
ZGKL,2006-08-11 13:00,ZGKL 111300Z AUTO 00000KT 5SM 30/25 A2962 RMK T03000250 IEM_DS3505
ZGKL,2006-08-11 14:00,ZGKL 111400Z AUTO 32004KT 5SM 29/26 A2962 RMK T02900260 IEM_DS3505
ZGKL,2006-08-11 15:00,ZGKL 111500Z AUTO 04002KT 8SM 30/24 A2965 RMK SLP025 T02990245 52019 IEM_DS3505
ZGKL,2006-08-11 16:00,ZGKL 111600Z AUTO 18002KT 5SM 28/25 A2965 RMK T02800250 IEM_DS3505
ZGKL,2006-08-11 17:00,ZGKL 111700Z AUTO 22002KT 27/26 A2968 RMK T02700260 IEM_DS3505
ZGKL,2006-08-11 18:00,ZGKL 111800Z AUTO 11002KT 7SM 29/25 A2968 RMK SLP034 T02870253 52009 IEM_DS3505
ZGKL,2006-08-11 19:00,ZGKL 111900Z AUTO 29004KT 27/25 A2968 RMK T02700250 IEM_DS3505
ZGKL,2006-08-11 20:00,ZGKL 112000Z AUTO 32002KT 27/25 A2968 RMK T02700250 IEM_DS3505
ZGKL,2006-08-11 21:00,ZGKL 112100Z AUTO 14002KT 7SM 28/24 A2968 RMK SLP034 T02850243 54000 IEM_DS3505
ZGKL,2006-08-11 22:00,ZGKL 112200Z AUTO 36002KT 2 1/2SM 27/25 A2968 RMK T02700250 IEM_DS3505
ZGKL,2006-08-11 23:00,ZGKL 112300Z AUTO 34002KT 3SM 27/25 A2971 RMK T02700250 IEM_DS3505
ZGKL,2006-08-12 00:00,ZGKL 120000Z AUTO 18004KT 9SM 29/24 A2971 RMK SLP052 T02860235 52017 IEM_DS3505
ZGKL,2006-08-12 01:00,ZGKL 120100Z AUTO 16004KT 4SM 30/24 A2971 RMK T03000240 IEM_DS3505
ZGKL,2006-08-12 02:00,ZGKL 120200Z AUTO 22002KT 5SM 31/24 A2974 RMK T03100240 IEM_DS3505
ZGKL,2006-08-12 03:00,ZGKL 120300Z AUTO 14002KT 9SM 32/23 A2974 RMK SLP053 T03150228 52001 IEM_DS3505
ZGKL,2006-08-12 04:00,ZGKL 120400Z AUTO 07004KT 6SM 32/23 A2971 RMK T03200230 IEM_DS3505
ZGKL,2006-08-12 05:00,ZGKL 120500Z AUTO 08002KT 7SM 33/23 A2971 RMK T03300230 IEM_DS3505
ZGKL,2006-08-12 06:00,ZGKL 120600Z AUTO 22002KT 9SM 34/23 A2968 RMK SLP039 T03370231 57014 IEM_DS3505
ZGKL,2006-08-12 07:00,ZGKL 120700Z AUTO 16006KT 6SM 34/22 A2965 RMK T03400220 IEM_DS3505
ZGKL,2006-08-12 08:00,ZGKL 120800Z AUTO 13006KT 6SM 34/22 A2965 RMK T03400220 IEM_DS3505
ZGKL,2006-08-12 09:00,ZGKL 120900Z AUTO 14004KT 9SM 33/22 A2962 RMK SLP026 T03310216 57013 IEM_DS3505
ZGKL,2006-08-12 10:00,ZGKL 121000Z AUTO 10004KT 6SM 33/22 A2962 RMK T03300220 IEM_DS3505
ZGKL,2006-08-12 11:00,ZGKL 121100Z AUTO 09002KT 6SM 32/23 A2965 RMK T03200230 IEM_DS3505
ZGKL,2006-08-12 12:00,ZGKL 121200Z AUTO 04004KT 8SM 31/23 A2965 RMK SLP034 T03070231 52007 IEM_DS3505
ZGKL,2006-08-12 13:00,ZGKL 121300Z AUTO 00000KT 4SM 29/24 A2968 RMK T02900240 IEM_DS3505
ZGKL,2006-08-12 14:00,ZGKL 121400Z AUTO 00000KT 3SM 28/25 A2971 RMK T02800250 IEM_DS3505
ZGKL,2006-08-12 15:00,ZGKL 121500Z AUTO 27002KT 8SM 28/24 A2974 RMK SLP056 T02840244 52022 IEM_DS3505
ZGKL,2006-08-12 16:00,ZGKL 121600Z AUTO 32004KT 2SM 27/25 A2974 RMK T02700250 IEM_DS3505
ZGKL,2006-08-12 17:00,ZGKL 121700Z AUTO 29002KT 2SM 26/24 A2974 RMK T02600240 IEM_DS3505
ZGKL,2006-08-12 18:00,ZGKL 121800Z AUTO 36002KT 7SM 27/24 A2971 RMK SLP055 T02700241 57001 IEM_DS3505
ZGKL,2006-08-12 19:00,ZGKL 121900Z AUTO 00000KT 26/24 A2971 RMK T02600240 IEM_DS3505
ZGKL,2006-08-12 20:00,ZGKL 122000Z AUTO 30002KT 25/24 A2971 RMK T02500240 IEM_DS3505
ZGKL,2006-08-12 21:00,ZGKL 122100Z AUTO 02002KT 7SM 26/24 A2971 RMK SLP054 T02590236 57001 IEM_DS3505
ZGKL,2006-08-12 22:00,ZGKL 122200Z AUTO 27002KT 3SM 25/24 A2971 RMK T02500240 IEM_DS3505
ZGKL,2006-08-12 23:00,ZGKL 122300Z AUTO 33002KT 4SM 25/24 A2974 RMK T02500240 IEM_DS3505
ZGKL,2006-08-13 00:00,ZGKL 130000Z AUTO 07004KT 5SM 27/24 A2974 RMK SLP060 T02720239 52006 IEM_DS3505
ZGKL,2006-08-13 01:00,ZGKL 130100Z AUTO 28002KT 4SM 28/24 A2974 RMK T02800240 IEM_DS3505
ZGKL,2006-08-13 02:00,ZGKL 130200Z AUTO 05002KT 4SM 30/25 A2974 RMK T03000250 IEM_DS3505
ZGKL,2006-08-13 03:00,ZGKL 130300Z AUTO 18004KT 5SM 32/22 A2974 RMK SLP062 T03170224 52002 IEM_DS3505
ZGKL,2006-08-13 04:00,ZGKL 130400Z AUTO 11002KT 5SM 33/24 A2974 RMK T03300240 IEM_DS3505
ZGKL,2006-08-13 05:00,ZGKL 130500Z AUTO 16004KT 5SM 34/23 A2971 RMK T03400230 IEM_DS3505
ZGKL,2006-08-13 06:00,ZGKL 130600Z AUTO 18002KT 7SM 35/22 A2968 RMK SLP040 T03490219 57021 IEM_DS3505
ZGKL,2006-08-13 07:00,ZGKL 130700Z AUTO 18004KT 5SM 35/25 A2965 RMK T03500250 IEM_DS3505
ZGKL,2006-08-13 08:00,ZGKL 130800Z AUTO 22004KT 5SM 35/23 A2965 RMK T03500230 IEM_DS3505
ZGKL,2006-08-13 09:00,ZGKL 130900Z AUTO 27006KT 11SM 35/22 A2962 RMK SLP022 T03500220 57018 IEM_DS3505
ZGKL,2006-08-13 10:00,ZGKL 131000Z AUTO 17002KT 5SM 35/24 A2962 RMK T03500240 IEM_DS3505
ZGKL,2006-08-13 11:00,ZGKL 131100Z AUTO 17002KT 4SM 33/23 A2962 RMK T03300230 IEM_DS3505
ZGKL,2006-08-13 12:00,ZGKL 131200Z AUTO 07002KT 10SM 32/24 A2965 RMK SLP028 T03170238 52005 IEM_DS3505
ZGKL,2006-08-13 13:00,ZGKL 131300Z AUTO 24004KT 3SM 29/26 A2968 RMK T02900260 IEM_DS3505
ZGKL,2006-08-13 14:00,ZGKL 131400Z AUTO 00000KT 2 1/2SM 28/26 A2968 RMK T02800260 IEM_DS3505
ZGKL,2006-08-13 15:00,ZGKL 131500Z AUTO 04002KT 9SM 29/24 A2971 RMK SLP047 T02930237 52020 IEM_DS3505
ZGKL,2006-08-13 16:00,ZGKL 131600Z AUTO 00000KT 2SM 28/26 A2971 RMK T02800260 IEM_DS3505
ZGKL,2006-08-13 17:00,ZGKL 131700Z AUTO 09002KT 27/25 A2968 RMK T02700250 IEM_DS3505
ZGKL,2006-08-13 18:00,ZGKL 131800Z AUTO 04002KT 9SM 28/23 A2968 RMK SLP039 T02760234 57008 IEM_DS3505
ZGKL,2006-08-13 19:00,ZGKL 131900Z AUTO 00000KT 26/25 A2968 RMK T02600250 IEM_DS3505
ZGKL,2006-08-13 20:00,ZGKL 132000Z AUTO 31002KT 26/25 A2965 RMK T02600250 IEM_DS3505
ZGKL,2006-08-13 21:00,ZGKL 132100Z AUTO 02002KT 8SM 26/24 A2968 RMK SLP035 T02640235 57004 IEM_DS3505
ZGKL,2006-08-13 22:00,ZGKL 132200Z AUTO 30002KT 1SM 25/24 A2968 RMK T02500240 IEM_DS3505
ZGKL,2006-08-13 23:00,ZGKL 132300Z AUTO 00000KT 1SM 25/24 A2968 RMK T02500240 IEM_DS3505
ZGKL,2006-08-14 00:00,ZGKL 140000Z AUTO 02002KT 7SM 28/24 A2971 RMK SLP047 T02760242 52011 IEM_DS3505
ZGKL,2006-08-14 01:00,ZGKL 140100Z AUTO 00000KT 2SM 29/25 A2971 RMK T02900250 IEM_DS3505
ZGKL,2006-08-14 02:00,ZGKL 140200Z AUTO 26002KT 2 1/2SM 31/25 A2971 RMK T03100250 IEM_DS3505
ZGKL,2006-08-14 03:00,ZGKL 140300Z AUTO 11004KT 4SM 32/25 A2968 RMK SLP043 T03250248 57003 IEM_DS3505
ZGKL,2006-08-14 04:00,ZGKL 140400Z AUTO 17004KT 4SM 34/23 A2968 RMK T03400230 IEM_DS3505
ZGKL,2006-08-14 05:00,ZGKL 140500Z AUTO 15002KT 7SM 35/25 A2965 RMK T03500250 IEM_DS3505
ZGKL,2006-08-14 06:00,ZGKL 140600Z AUTO 25004KT 6SM 36/22 A2962 RMK SLP019 T03590225 57023 IEM_DS3505
ZGKL,2006-08-14 07:00,ZGKL 140700Z AUTO 21004KT 7SM 37/22 A2959 RMK T03700220 IEM_DS3505
ZGKL,2006-08-14 08:00,ZGKL 140800Z AUTO 19004KT 6SM 36/21 A2959 RMK T03600210 IEM_DS3505
ZGKL,2006-08-14 09:00,ZGKL 140900Z AUTO 22004KT 9SM 36/20 A2956 RMK SLP004 T03580205 57015 IEM_DS3505
ZGKL,2006-08-14 10:00,ZGKL 141000Z AUTO 18006KT 6SM 34/24 A2956 RMK T03400240 IEM_DS3505
ZGKL,2006-08-14 11:00,ZGKL 141100Z AUTO 18004KT 6SM 33/25 A2956 RMK T03300250 IEM_DS3505
ZGKL,2006-08-14 12:00,ZGKL 141200Z AUTO 04002KT 9SM 32/23 A2959 RMK SLP012 T03210231 52007 IEM_DS3505
ZGKL,2006-08-14 13:00,ZGKL 141300Z AUTO 19002KT 4SM 30/26 A2962 RMK T03000260 IEM_DS3505
ZGKL,2006-08-14 14:00,ZGKL 141400Z AUTO 22002KT 4SM 29/26 A2962 RMK T02900260 IEM_DS3505
ZGKL,2006-08-14 15:00,ZGKL 141500Z AUTO 02004KT 8SM 29/25 A2962 RMK SLP020 T02910247 52008 IEM_DS3505
ZGKL,2006-08-14 16:00,ZGKL 141600Z AUTO 36002KT 4SM 28/25 A2962 RMK T02800250 IEM_DS3505
ZGKL,2006-08-14 17:00,ZGKL 141700Z AUTO 19002KT 28/26 A2965 RMK T02800260 IEM_DS3505
ZGKL,2006-08-14 18:00,ZGKL 141800Z AUTO 14002KT 7SM 29/25 A2965 RMK SLP023 T02900248 52004 IEM_DS3505
ZGKL,2006-08-14 19:00,ZGKL 141900Z AUTO 32002KT 27/26 A2965 RMK T02700260 IEM_DS3505
ZGKL,2006-08-14 20:00,ZGKL 142000Z AUTO 31002KT 27/25 A2962 RMK T02700250 IEM_DS3505
ZGKL,2006-08-14 21:00,ZGKL 142100Z AUTO 07002KT 7SM 27/24 A2965 RMK SLP026 T02680241 52003 IEM_DS3505
ZGKL,2006-08-14 22:00,ZGKL 142200Z AUTO 30002KT 3SM 26/25 A2965 RMK T02600250 IEM_DS3505
ZGKL,2006-08-14 23:00,ZGKL 142300Z AUTO 00000KT 3SM 26/25 A2965 RMK T02600250 IEM_DS3505
ZGKL,2006-08-15 00:00,ZGKL 150000Z AUTO 00000KT 5SM 28/25 A2968 RMK SLP036 T02840248 52009 IEM_DS3505
ZGKL,2006-08-15 01:00,ZGKL 150100Z AUTO 09002KT 4SM 30/24 A2968 RMK T03000240 IEM_DS3505
ZGKL,2006-08-15 02:00,ZGKL 150200Z AUTO 16002KT 4SM 31/25 A2968 RMK T03100250 IEM_DS3505
ZGKL,2006-08-15 03:00,ZGKL 150300Z AUTO 18006KT 5SM 32/24 A2968 RMK SLP041 T03230241 52005 IEM_DS3505
ZGKL,2006-08-15 04:00,ZGKL 150400Z AUTO 21004KT 5SM 34/24 A2968 RMK T03400240 IEM_DS3505
ZGKL,2006-08-15 05:00,ZGKL 150500Z AUTO 14004KT 6SM 34/25 A2965 RMK T03400250 IEM_DS3505
ZGKL,2006-08-15 06:00,ZGKL 150600Z AUTO 16004KT 7SM 34/23 A2962 RMK SLP020 T03450232 57020 IEM_DS3505
ZGKL,2006-08-15 07:00,ZGKL 150700Z AUTO 18002KT 7SM 36/25 A2959 RMK T03600250 IEM_DS3505
ZGKL,2006-08-15 08:00,ZGKL 150800Z AUTO 20002KT 7SM 37/23 A2956 RMK T03700230 IEM_DS3505
ZGKL,2006-08-15 09:00,ZGKL 150900Z AUTO 11004KT 9SM 35/23 A2956 RMK SLP000 T03540227 57020 IEM_DS3505
ZGKL,2006-08-15 10:00,ZGKL 151000Z AUTO 11004KT 7SM 35/23 A2956 RMK T03500230 IEM_DS3505
ZGKL,2006-08-15 11:00,ZGKL 151100Z AUTO 10004KT 6SM 34/23 A2956 RMK T03400230 IEM_DS3505
ZGKL,2006-08-15 12:00,ZGKL 151200Z AUTO 14002KT 9SM 32/24 A2959 RMK SLP006 T03190240 52005 IEM_DS3505
ZGKL,2006-08-15 13:00,ZGKL 151300Z AUTO 00000KT 5SM 30/26 A2962 RMK T03000260 IEM_DS3505
ZGKL,2006-08-15 14:00,ZGKL 151400Z AUTO 30002KT 4SM 29/27 A2962 RMK T02900270 IEM_DS3505
ZGKL,2006-08-15 15:00,ZGKL 151500Z AUTO 36002KT 9SM 30/25 A2962 RMK SLP025 T02980253 52019 IEM_DS3505
ZGKL,2006-08-15 16:00,ZGKL 151600Z AUTO 24002KT 4SM 28/26 A2965 RMK T02800260 IEM_DS3505
ZGKL,2006-08-15 17:00,ZGKL 151700Z AUTO 33002KT 28/26 A2965 RMK T02800260 IEM_DS3505
ZGKL,2006-08-15 18:00,ZGKL 151800Z AUTO 02002KT 9SM 28/25 A2965 RMK SLP029 T02840252 52005 IEM_DS3505
ZGKL,2006-08-15 19:00,ZGKL 151900Z AUTO 00000KT 27/26 A2965 RMK T02700260 IEM_DS3505
ZGKL,2006-08-15 20:00,ZGKL 152000Z AUTO 29002KT 27/26 A2965 RMK T02700260 IEM_DS3505
ZGKL,2006-08-15 21:00,ZGKL 152100Z AUTO 07004KT 7SM 28/25 A2965 RMK SLP034 T02760252 52005 IEM_DS3505
ZGKL,2006-08-15 22:00,ZGKL 152200Z AUTO 30002KT 3SM 27/25 A2965 RMK T02700250 IEM_DS3505
ZGKL,2006-08-15 23:00,ZGKL 152300Z AUTO 00000KT 3SM 26/25 A2968 RMK T02600250 IEM_DS3505
ZGKL,2006-08-16 00:00,ZGKL 160000Z AUTO 07004KT 4SM 28/25 A2968 RMK SLP041 T02820252 52006 IEM_DS3505
ZGKL,2006-08-16 01:00,ZGKL 160100Z AUTO 31002KT 2 1/2SM 29/26 A2971 RMK T02900260 IEM_DS3505
ZGKL,2006-08-16 02:00,ZGKL 160200Z AUTO 26002KT 2 1/2SM 31/25 A2971 RMK T03100250 IEM_DS3505
ZGKL,2006-08-16 03:00,ZGKL 160300Z AUTO 18004KT 4SM 33/23 A2971 RMK SLP046 T03280229 52005 IEM_DS3505
ZGKL,2006-08-16 04:00,ZGKL 160400Z AUTO 05002KT 4SM 34/23 A2968 RMK T03400230 IEM_DS3505
ZGKL,2006-08-16 05:00,ZGKL 160500Z AUTO 09004KT 4SM 34/23 A2968 RMK T03400230 IEM_DS3505
ZGKL,2006-08-16 06:00,ZGKL 160600Z AUTO 14004KT 7SM 36/22 RMK SLP026 T03560222 57019 IEM_DS3505
ZGKL,2006-08-16 07:00,ZGKL 160700Z AUTO 16004KT 7SM 36/21 A2962 RMK T03600210 IEM_DS3505
ZGKL,2006-08-16 08:00,ZGKL 160800Z AUTO 18004KT 6SM 36/21 A2959 RMK T03600210 IEM_DS3505
ZGKL,2006-08-16 09:00,ZGKL 160900Z AUTO 18004KT 7SM 35/22 A2959 RMK SLP005 T03500223 57021 IEM_DS3505
ZGKL,2006-08-16 10:00,ZGKL 161000Z AUTO 17006KT 6SM 34/20 A2959 RMK T03400200 IEM_DS3505
ZGKL,2006-08-16 11:00,ZGKL 161100Z AUTO 18002KT 6SM 32/22 A2962 RMK T03200220 IEM_DS3505
ZGKL,2006-08-16 12:00,ZGKL 161200Z AUTO 20004KT 9SM 33/20 A2965 RMK SLP027 T03330201 52021 IEM_DS3505
ZGKL,2006-08-16 13:00,ZGKL 161300Z AUTO 26002KT 4SM 29/24 A2968 RMK T02900240 IEM_DS3505
ZGKL,2006-08-16 14:00,ZGKL 161400Z AUTO 33004KT 4SM 28/25 A2971 RMK T02800250 IEM_DS3505
ZGKL,2006-08-16 15:00,ZGKL 161500Z AUTO 02002KT 8SM 29/24 A2968 RMK SLP044 T02930235 52017 IEM_DS3505
ZGKL,2006-08-16 16:00,ZGKL 161600Z AUTO 25002KT 3SM 27/25 A2968 RMK T02700250 IEM_DS3505
ZGKL,2006-08-16 17:00,ZGKL 161700Z AUTO 32002KT 26/24 A2968 RMK T02600240 IEM_DS3505
ZGKL,2006-08-16 18:00,ZGKL 161800Z AUTO 09002KT 8SM 28/23 A2968 RMK SLP041 T02780234 57002 IEM_DS3505
ZGKL,2006-08-16 19:00,ZGKL 161900Z AUTO 00000KT 26/24 A2968 RMK T02600240 IEM_DS3505
ZGKL,2006-08-16 20:00,ZGKL 162000Z AUTO 00000KT 26/24 A2968 RMK T02600240 IEM_DS3505
ZGKL,2006-08-16 21:00,ZGKL 162100Z AUTO 36002KT 8SM 27/24 A2968 RMK SLP041 T02710238 57001 IEM_DS3505
ZGKL,2006-08-16 22:00,ZGKL 162200Z AUTO 21002KT 3SM 25/24 A2968 RMK T02500240 IEM_DS3505
ZGKL,2006-08-16 23:00,ZGKL 162300Z AUTO 21002KT 3SM 26/24 A2971 RMK T02600240 IEM_DS3505
ZGKL,2006-08-17 00:00,ZGKL 170000Z AUTO 02004KT 4SM 28/24 A2974 RMK SLP057 T02770237 52016 IEM_DS3505
ZGKL,2006-08-17 01:00,ZGKL 170100Z AUTO 29002KT 4SM 28/24 A2974 RMK T02800240 IEM_DS3505
ZGKL,2006-08-17 02:00,ZGKL 170200Z AUTO 17002KT 4SM 30/24 A2974 RMK T03000240 IEM_DS3505
ZGKL,2006-08-17 03:00,ZGKL 170300Z AUTO 16004KT 5SM 32/24 A2974 RMK SLP056 T03210236 57001 IEM_DS3505
ZGKL,2006-08-17 04:00,ZGKL 170400Z AUTO 33002KT 4SM 33/24 A2971 RMK T03300240 IEM_DS3505
ZGKL,2006-08-17 05:00,ZGKL 170500Z AUTO 20004KT 5SM 35/23 A2971 RMK T03500230 IEM_DS3505
ZGKL,2006-08-17 06:00,ZGKL 170600Z AUTO 22004KT 6SM 36/22 A2968 RMK SLP032 T03580216 57023 IEM_DS3505
ZGKL,2006-08-17 07:00,ZGKL 170700Z AUTO 22004KT 7SM 36/23 A2965 RMK T03600230 IEM_DS3505
ZGKL,2006-08-17 08:00,ZGKL 170800Z AUTO 17004KT 7SM 36/22 A2962 RMK T03600220 IEM_DS3505
ZGKL,2006-08-17 09:00,ZGKL 170900Z AUTO 04012KT 9SM 29/22 A2965 RMK SLP038 T02930220 52003 IEM_DS3505
ZGKL,2006-08-17 10:00,ZGKL 171000Z AUTO 02019KT 7SM 30/22 A2971 RMK T03000220 IEM_DS3505
ZGKL,2006-08-17 11:00,ZGKL 171100Z AUTO 01008KT 7SM 27/22 A2971 RMK T02700220 IEM_DS3505
ZGKL,2006-08-17 12:00,ZGKL 171200Z AUTO 02004KT 9SM 26/23 A2971 RMK 60004 SLP048 T02630228 52010 IEM_DS3505
ZGKL,2006-08-17 13:00,ZGKL 171300Z AUTO 36004KT 7SM 26/22 A2971 RMK T02600220 IEM_DS3505
ZGKL,2006-08-17 14:00,ZGKL 171400Z AUTO 35004KT 6SM 26/23 A2974 RMK T02600230 IEM_DS3505
ZGKL,2006-08-17 15:00,ZGKL 171500Z AUTO 36004KT 9SM 26/23 A2974 RMK SLP060 T02590226 52013 IEM_DS3505
ZGKL,2006-08-17 16:00,ZGKL 171600Z AUTO 33002KT 25/23 A2974 RMK T02500230 IEM_DS3505
ZGKL,2006-08-17 17:00,ZGKL 171700Z AUTO 33002KT 25/23 A2974 RMK T02500230 IEM_DS3505
ZGKL,2006-08-17 18:00,ZGKL 171800Z AUTO 07002KT 9SM 26/23 A2974 RMK SLP057 T02560229 57002 IEM_DS3505
ZGKL,2006-08-17 19:00,ZGKL 171900Z AUTO 31002KT 25/23 A2971 RMK T02500230 IEM_DS3505
ZGKL,2006-08-17 20:00,ZGKL 172000Z AUTO 00000KT 25/23 A2971 RMK T02500230 IEM_DS3505
ZGKL,2006-08-17 21:00,ZGKL 172100Z AUTO 02002KT 6SM 25/23 A2971 RMK 70006 SLP053 T02470229 57007 IEM_DS3505
ZGKL,2006-08-17 22:00,ZGKL 172200Z AUTO 33002KT 6SM 24/23 A2971 RMK T02400230 IEM_DS3505
ZGKL,2006-08-17 23:00,ZGKL 172300Z AUTO 00000KT 6SM 24/23 A2974 RMK T02400230 IEM_DS3505
ZGKL,2006-08-18 00:00,ZGKL 180000Z AUTO 02002KT 2 1/2SM 26/23 A2974 RMK 70006 SLP063 T02590234 52010 IEM_DS3505
ZGKL,2006-08-18 01:00,ZGKL 180100Z AUTO 01002KT 6SM 28/23 A2974 RMK T02800230 IEM_DS3505
ZGKL,2006-08-18 02:00,ZGKL 180200Z AUTO 30002KT 6SM 29/24 A2977 RMK T02900240 IEM_DS3505
ZGKL,2006-08-18 03:00,ZGKL 180300Z AUTO 36004KT 5SM 31/24 A2977 RMK SLP064 T03130239 52002 IEM_DS3505
ZGKL,2006-08-18 04:00,ZGKL 180400Z AUTO 24002KT 6SM 33/24 A2974 RMK T03300240 IEM_DS3505
ZGKL,2006-08-18 05:00,ZGKL 180500Z AUTO 03004KT 6SM 34/25 A2971 RMK T03400250 IEM_DS3505
ZGKL,2006-08-18 06:00,ZGKL 180600Z AUTO 07004KT 6SM 34/24 A2968 RMK SLP039 T03450241 57023 IEM_DS3505
ZGKL,2006-08-18 07:00,ZGKL 180700Z AUTO 06006KT 7SM 35/23 A2965 RMK T03500230 IEM_DS3505
ZGKL,2006-08-18 08:00,ZGKL 180800Z AUTO 07006KT 6SM 36/22 A2965 RMK T03600220 IEM_DS3505
ZGKL,2006-08-18 09:00,ZGKL 180900Z AUTO 14006KT 7SM 30/24 A2965 RMK SLP031 T03020244 57010 IEM_DS3505
ZGKL,2006-08-18 10:00,ZGKL 181000Z AUTO 05006KT 7SM 30/23 A2968 RMK T03000230 IEM_DS3505
ZGKL,2006-08-18 11:00,ZGKL 181100Z AUTO 03006KT 6SM 28/23 A2968 RMK T02800230 IEM_DS3505
ZGKL,2006-08-18 12:00,ZGKL 181200Z AUTO 25002KT 7SM 29/24 A2971 RMK SLP048 T02910238 52017 IEM_DS3505
ZGKL,2006-08-18 13:00,ZGKL 181300Z AUTO 34004KT 6SM 27/23 A2974 RMK T02700230 IEM_DS3505
ZGKL,2006-08-18 14:00,ZGKL 181400Z AUTO 06002KT 6SM 27/24 A2974 RMK T02700240 IEM_DS3505
ZGKL,2006-08-18 15:00,ZGKL 181500Z AUTO 11002KT 6SM 27/24 A2977 RMK SLP069 T02740241 52022 IEM_DS3505
ZGKL,2006-08-18 16:00,ZGKL 181600Z AUTO 35002KT 6SM 26/24 A2977 RMK T02600240 IEM_DS3505
ZGKL,2006-08-18 17:00,ZGKL 181700Z AUTO 35004KT 6SM 26/24 A2974 RMK T02600240 IEM_DS3505
ZGKL,2006-08-18 18:00,ZGKL 181800Z AUTO 09002KT 6SM 26/25 A2974 RMK SLP062 T02640248 57007 IEM_DS3505
ZGKL,2006-08-18 19:00,ZGKL 181900Z AUTO 34002KT 25/24 A2974 RMK T02500240 IEM_DS3505
ZGKL,2006-08-18 20:00,ZGKL 182000Z AUTO 30002KT 25/24 A2974 RMK T02500240 IEM_DS3505
ZGKL,2006-08-18 21:00,ZGKL 182100Z AUTO 02002KT 6SM 26/24 A2974 RMK SLP060 T02630236 57003 IEM_DS3505
ZGKL,2006-08-18 22:00,ZGKL 182200Z AUTO 31002KT 2 1/2SM 25/24 A2977 RMK T02500240 IEM_DS3505
ZGKL,2006-08-18 23:00,ZGKL 182300Z AUTO 01002KT 2 1/2SM 25/24 A2977 RMK T02500240 IEM_DS3505
ZGKL,2006-08-19 00:00,ZGKL 190000Z AUTO 02004KT 3SM 28/24 A2977 RMK SLP076 T02770239 52016 IEM_DS3505
ZGKL,2006-08-19 01:00,ZGKL 190100Z AUTO 31002KT 3SM 28/24 A2980 RMK T02800240 IEM_DS3505
ZGKL,2006-08-19 02:00,ZGKL 190200Z AUTO 25002KT 4SM 30/24 A2980 RMK T03000240 IEM_DS3505
ZGKL,2006-08-19 03:00,ZGKL 190300Z AUTO 02008KT 4SM 32/24 A2980 RMK SLP073 T03160242 57002 IEM_DS3505
ZGKL,2006-08-19 04:00,ZGKL 190400Z AUTO 07004KT 4SM 33/24 A2977 RMK T03300240 IEM_DS3505
ZGKL,2006-08-19 05:00,ZGKL 190500Z AUTO 08006KT 4SM 33/23 A2977 RMK T03300230 IEM_DS3505
ZGKL,2006-08-19 06:00,ZGKL 190600Z AUTO 36006KT 4SM 33/24 A2974 RMK SLP058 T03290238 57015 IEM_DS3505
ZGKL,2006-08-19 07:00,ZGKL 190700Z AUTO 29004KT 4SM 33/25 A2971 RMK T03300250 IEM_DS3505
ZGKL,2006-08-19 08:00,ZGKL 190800Z AUTO 07006KT 4SM 33/23 A2968 RMK T03300230 IEM_DS3505
ZGKL,2006-08-19 09:00,ZGKL 190900Z AUTO 02006KT 5SM 33/23 A2965 RMK SLP035 T03320232 57023 IEM_DS3505
ZGKL,2006-08-19 10:00,ZGKL 191000Z AUTO 06006KT 3SM 33/23 A2965 RMK T03300230 IEM_DS3505
ZGKL,2006-08-19 11:00,ZGKL 191100Z AUTO 06006KT 3SM 31/23 A2968 RMK T03100230 IEM_DS3505
ZGKL,2006-08-19 12:00,ZGKL 191200Z AUTO 02004KT 5SM 30/22 A2971 RMK SLP050 T02980223 52015 IEM_DS3505
ZGKL,2006-08-19 13:00,ZGKL 191300Z AUTO 34002KT 3SM 29/23 A2974 RMK T02900230 IEM_DS3505
ZGKL,2006-08-19 14:00,ZGKL 191400Z AUTO 35006KT 3SM 29/22 A2977 RMK T02900220 IEM_DS3505
ZGKL,2006-08-19 15:00,ZGKL 191500Z AUTO 02004KT 5SM 28/22 A2977 RMK SLP067 T02800218 52017 IEM_DS3505
ZGKL,2006-08-19 16:00,ZGKL 191600Z AUTO 35004KT 2 1/2SM 27/24 A2977 RMK T02700240 IEM_DS3505
ZGKL,2006-08-19 17:00,ZGKL 191700Z AUTO 32002KT 26/24 A2977 RMK T02600240 IEM_DS3505
ZGKL,2006-08-19 18:00,ZGKL 191800Z AUTO 36006KT 5SM 26/22 A2974 RMK SLP058 T02650219 57009 IEM_DS3505
ZGKL,2006-08-19 19:00,ZGKL 191900Z AUTO 30002KT 25/24 A2971 RMK T02500240 IEM_DS3505
ZGKL,2006-08-19 20:00,ZGKL 192000Z AUTO 00000KT 25/24 A2971 RMK T02500240 IEM_DS3505
ZGKL,2006-08-19 21:00,ZGKL 192100Z AUTO 36004KT 4SM A2971 RMK SLP053 57005 IEM_DS3505
ZGKL,2006-08-19 22:00,ZGKL 192200Z AUTO 31002KT 1SM 25/24 A2971 RMK T02500240 IEM_DS3505
ZGKL,2006-08-19 23:00,ZGKL 192300Z AUTO 00000KT 1 1/4SM 25/24 A2974 RMK T02500240 IEM_DS3505
ZGKL,2006-08-20 00:00,ZGKL 200000Z AUTO 02008KT 7SM 26/21 A2974 RMK SLP064 T02590213 52010 IEM_DS3505
ZGKL,2006-08-20 01:00,ZGKL 200100Z AUTO 21002KT 2SM 27/24 A2977 RMK T02700240 IEM_DS3505
ZGKL,2006-08-20 02:00,ZGKL 200200Z AUTO 04004KT 4SM 30/21 A2977 RMK T03000210 IEM_DS3505
ZGKL,2006-08-20 03:00,ZGKL 200300Z AUTO 02004KT 6SM 30/20 A2977 RMK SLP065 T03020205 52002 IEM_DS3505
ZGKL,2006-08-20 04:00,ZGKL 200400Z AUTO 29002KT 6SM 32/21 A2974 RMK T03200210 IEM_DS3505
ZGKL,2006-08-20 05:00,ZGKL 200500Z AUTO 06004KT 6SM 32/20 A2971 RMK T03200200 IEM_DS3505
ZGKL,2006-08-20 06:00,ZGKL 200600Z AUTO 02004KT 9SM 34/19 A2968 RMK SLP043 T03410186 57021 IEM_DS3505
ZGKL,2006-08-20 07:00,ZGKL 200700Z AUTO 06004KT 6SM 34/18 A2965 RMK T03400180 IEM_DS3505
ZGKL,2006-08-20 08:00,ZGKL 200800Z AUTO 09006KT 6SM 34/18 A2965 RMK T03400180 IEM_DS3505
ZGKL,2006-08-20 09:00,ZGKL 200900Z AUTO 04006KT 9SM 34/20 A2962 RMK SLP023 T03350199 57021 IEM_DS3505
ZGKL,2006-08-20 10:00,ZGKL 201000Z AUTO 09004KT 6SM 33/20 A2962 RMK T03300200 IEM_DS3505
ZGKL,2006-08-20 11:00,ZGKL 201100Z AUTO 06006KT 6SM 32/20 A2965 RMK T03200200 IEM_DS3505
ZGKL,2006-08-20 12:00,ZGKL 201200Z AUTO 02002KT 8SM 29/20 A2971 RMK SLP050 T02920201 52026 IEM_DS3505
ZGKL,2006-08-20 13:00,ZGKL 201300Z AUTO 02006KT 5SM 29/19 A2974 RMK T02900190 IEM_DS3505
ZGKL,2006-08-20 14:00,ZGKL 201400Z AUTO 33004KT 5SM 27/20 A2977 RMK T02700200 IEM_DS3505
ZGKL,2006-08-20 15:00,ZGKL 201500Z AUTO 04004KT 8SM 27/20 A2977 RMK SLP074 T02680197 52024 IEM_DS3505
ZGKL,2006-08-20 16:00,ZGKL 201600Z AUTO 29002KT 4SM 24/22 A2977 RMK T02400220 IEM_DS3505
ZGKL,2006-08-20 17:00,ZGKL 201700Z AUTO 30004KT 24/22 A2977 RMK T02400220 IEM_DS3505
ZGKL,2006-08-20 18:00,ZGKL 201800Z AUTO 02004KT 7SM 25/19 A2974 RMK SLP059 T02530192 57014 IEM_DS3505
ZGKL,2006-08-20 19:00,ZGKL 201900Z AUTO 35002KT 23/21 A2971 RMK T02300210 IEM_DS3505
ZGKL,2006-08-20 20:00,ZGKL 202000Z AUTO 34006KT 23/21 A2971 RMK T02300210 IEM_DS3505
ZGKL,2006-08-20 21:00,ZGKL 202100Z AUTO 02004KT 7SM 23/19 A2971 RMK SLP057 T02320189 57003 IEM_DS3505
ZGKL,2006-08-20 22:00,ZGKL 202200Z AUTO 36002KT 2 1/2SM 22/20 A2974 RMK T02200200 IEM_DS3505
ZGKL,2006-08-20 23:00,ZGKL 202300Z AUTO 33004KT 4SM 22/20 A2974 RMK T02200200 IEM_DS3505
ZGKL,2006-08-21 00:00,ZGKL 210000Z AUTO 02004KT 5SM 24/19 A2977 RMK SLP071 T02420186 52013 IEM_DS3505
ZGKL,2006-08-21 01:00,ZGKL 210100Z AUTO 32004KT 6SM 25/21 A2977 RMK T02500210 IEM_DS3505
ZGKL,2006-08-21 02:00,ZGKL 210200Z AUTO 07006KT 6SM 29/19 A2977 RMK T02900190 IEM_DS3505
ZGKL,2006-08-21 03:00,ZGKL 210300Z AUTO 02008KT 5SM 30/19 A2977 RMK SLP074 T03020186 52004 IEM_DS3505
ZGKL,2006-08-21 04:00,ZGKL 210400Z AUTO 06010KT 5SM 31/16 A2977 RMK T03100160 IEM_DS3505
ZGKL,2006-08-21 05:00,ZGKL 210500Z AUTO 05008KT 5SM 32/15 A2974 RMK T03200150 IEM_DS3505
ZGKL,2006-08-21 06:00,ZGKL 210600Z AUTO 04006KT 7SM 33/16 A2971 RMK SLP052 T03280158 57021 IEM_DS3505
ZGKL,2006-08-21 07:00,ZGKL 210700Z AUTO 07008KT 6SM 34/18 A2968 RMK T03400180 IEM_DS3505
ZGKL,2006-08-21 08:00,ZGKL 210800Z AUTO 06010KT 6SM 34/20 A2965 RMK T03400200 IEM_DS3505
ZGKL,2006-08-21 09:00,ZGKL 210900Z AUTO 04008KT 7SM 33/17 A2965 RMK SLP036 T03280166 57017 IEM_DS3505
ZGKL,2006-08-21 10:00,ZGKL 211000Z AUTO 04010KT 6SM 31/17 A2965 RMK T03100170 IEM_DS3505
ZGKL,2006-08-21 11:00,ZGKL 211100Z AUTO 04010KT 5SM 30/17 A2968 RMK T03000170 IEM_DS3505
ZGKL,2006-08-21 12:00,ZGKL 211200Z AUTO 02004KT 7SM 28/17 A2971 RMK SLP056 T02840167 52019 IEM_DS3505
ZGKL,2006-08-21 13:00,ZGKL 211300Z AUTO 34006KT 4SM 28/17 A2977 RMK T02800170 IEM_DS3505
ZGKL,2006-08-21 14:00,ZGKL 211400Z AUTO 32002KT 4SM 26/20 A2980 RMK T02600200 IEM_DS3505
ZGKL,2006-08-21 15:00,ZGKL 211500Z AUTO 36006KT 7SM 27/18 A2980 RMK SLP081 T02660179 52026 IEM_DS3505
ZGKL,2006-08-21 16:00,ZGKL 211600Z AUTO 33004KT 4SM 23/20 A2977 RMK T02300200 IEM_DS3505
ZGKL,2006-08-21 17:00,ZGKL 211700Z AUTO 36004KT 24/20 A2977 RMK T02400200 IEM_DS3505
ZGKL,2006-08-21 18:00,ZGKL 211800Z AUTO 02004KT 6SM 25/18 A2974 RMK SLP065 T02520179 57016 IEM_DS3505
ZGKL,2006-08-21 19:00,ZGKL 211900Z AUTO 34004KT 23/20 A2974 RMK T02300200 IEM_DS3505
ZGKL,2006-08-21 20:00,ZGKL 212000Z AUTO 34004KT 23/20 A2974 RMK T02300200 IEM_DS3505
ZGKL,2006-08-21 21:00,ZGKL 212100Z AUTO 02006KT 6SM 25/18 A2977 RMK SLP066 T02500184 52001 IEM_DS3505
ZGKL,2006-08-21 22:00,ZGKL 212200Z AUTO 32002KT 4SM 23/20 A2977 RMK T02300200 IEM_DS3505
ZGKL,2006-08-21 23:00,ZGKL 212300Z AUTO 01002KT 4SM 23/19 A2977 RMK T02300190 IEM_DS3505
ZGKL,2006-08-22 00:00,ZGKL 220000Z AUTO 04008KT 5SM 26/19 A2980 RMK SLP080 T02570191 52013 IEM_DS3505
ZGKL,2006-08-22 01:00,ZGKL 220100Z AUTO 03006KT 4SM 27/19 A2980 RMK T02700190 IEM_DS3505
ZGKL,2006-08-22 02:00,ZGKL 220200Z AUTO 01006KT 4SM 29/20 A2980 RMK T02900200 IEM_DS3505
ZGKL,2006-08-22 03:00,ZGKL 220300Z AUTO 36008KT 4SM 29/20 A2980 RMK SLP079 T02930205 54000 IEM_DS3505
ZGKL,2006-08-22 04:00,ZGKL 220400Z AUTO 03006KT 4SM 31/20 A2977 RMK T03100200 IEM_DS3505
ZGKL,2006-08-22 05:00,ZGKL 220500Z AUTO 03006KT 4SM 31/20 A2977 RMK T03100200 IEM_DS3505
ZGKL,2006-08-22 06:00,ZGKL 220600Z AUTO 04002KT 5SM 32/19 A2974 RMK SLP058 T03220191 57021 IEM_DS3505
ZGKL,2006-08-22 07:00,ZGKL 220700Z AUTO 05008KT 4SM 32/18 A2971 RMK T03200180 IEM_DS3505
ZGKL,2006-08-22 08:00,ZGKL 220800Z AUTO 11016KT 4SM 28/19 A2971 RMK T02800190 IEM_DS3505
ZGKL,2006-08-22 09:00,ZGKL 220900Z AUTO 32002KT 5SM 28/21 A2971 RMK SLP050 T02810214 57009 IEM_DS3505
ZGKL,2006-08-22 10:00,ZGKL 221000Z AUTO 35006KT 4SM 27/20 A2968 RMK T02700200 IEM_DS3505
ZGKL,2006-08-22 11:00,ZGKL 221100Z AUTO 35004KT 3SM 25/21 A2971 RMK T02500210 IEM_DS3505
ZGKL,2006-08-22 12:00,ZGKL 221200Z AUTO 27002KT 4SM 26/22 A2974 RMK 60001 SLP059 T02650215 52009 IEM_DS3505
ZGKL,2006-08-22 13:00,ZGKL 221300Z AUTO 32002KT 2 1/2SM 24/22 A2977 RMK T02400220 IEM_DS3505
ZGKL,2006-08-22 14:00,ZGKL 221400Z AUTO 33002KT 2SM 24/22 A2977 RMK T02400220 IEM_DS3505
ZGKL,2006-08-22 15:00,ZGKL 221500Z AUTO 02004KT 4SM 26/21 A2980 RMK SLP076 T02650213 52018 IEM_DS3505
ZGKL,2006-08-22 16:00,ZGKL 221600Z AUTO 33004KT 24/21 A2977 RMK T02400210 IEM_DS3505
ZGKL,2006-08-22 17:00,ZGKL 221700Z AUTO 35004KT 24/21 A2977 RMK T02400210 IEM_DS3505
ZGKL,2006-08-22 18:00,ZGKL 221800Z AUTO 04004KT 4SM 25/20 A2977 RMK SLP071 T02540202 57005 IEM_DS3505
ZGKL,2006-08-22 19:00,ZGKL 221900Z AUTO 00000KT 23/21 A2977 RMK T02300210 IEM_DS3505
ZGKL,2006-08-22 20:00,ZGKL 222000Z AUTO 01004KT 2SM 23/21 A2977 RMK T02300210 IEM_DS3505
ZGKL,2006-08-22 21:00,ZGKL 222100Z AUTO 02006KT 4SM 24/21 A2977 RMK 70001 SLP071 T02440211 57001 IEM_DS3505
ZGKL,2006-08-22 22:00,ZGKL 222200Z AUTO 34002KT 1 1/2SM 22/21 A2977 RMK T02200210 IEM_DS3505
ZGKL,2006-08-22 23:00,ZGKL 222300Z AUTO 00000KT 1 1/2SM 22/21 A2977 RMK T02200210 IEM_DS3505
ZGKL,2006-08-23 00:00,ZGKL 230000Z AUTO 02004KT 4SM 25/21 A2980 RMK 70001 SLP083 T02510210 52011 IEM_DS3505
ZGKL,2006-08-23 01:00,ZGKL 230100Z AUTO 31002KT 2 1/2SM 26/21 A2980 RMK T02600210 IEM_DS3505
ZGKL,2006-08-23 02:00,ZGKL 230200Z AUTO 30002KT 3SM 27/21 A2980 RMK T02700210 IEM_DS3505
ZGKL,2006-08-23 03:00,ZGKL 230300Z AUTO 02008KT 4SM 28/22 A2980 RMK SLP086 T02770217 52004 IEM_DS3505
ZGKL,2006-08-23 04:00,ZGKL 230400Z AUTO 06010KT 4SM 30/21 A2980 RMK T03000210 IEM_DS3505
ZGKL,2006-08-23 05:00,ZGKL 230500Z AUTO 07010KT 3SM 31/21 A2977 RMK T03100210 IEM_DS3505
ZGKL,2006-08-23 06:00,ZGKL 230600Z AUTO 07002KT 4SM 27/22 A2977 RMK SLP073 T02730220 57013 IEM_DS3505
ZGKL,2006-08-23 07:00,ZGKL 230700Z AUTO 05010KT 3SM 30/21 A2974 RMK T03000210 IEM_DS3505
ZGKL,2006-08-23 08:00,ZGKL 230800Z AUTO 06008KT 3SM 30/21 A2971 RMK T03000210 IEM_DS3505
ZGKL,2006-08-23 09:00,ZGKL 230900Z AUTO 27002KT 3SM 29/23 A2971 RMK SLP052 T02880232 57021 IEM_DS3505
ZGKL,2006-08-23 10:00,ZGKL 231000Z AUTO 20002KT 3SM 28/23 A2971 RMK T02800230 IEM_DS3505
ZGKL,2006-08-23 11:00,ZGKL 231100Z AUTO 19002KT 1 1/2SM 28/23 A2971 RMK T02800230 IEM_DS3505
ZGKL,2006-08-23 12:00,ZGKL 231200Z AUTO 29002KT 4SM 27/23 A2971 RMK SLP057 T02700226 52005 IEM_DS3505
ZGKL,2006-08-23 13:00,ZGKL 231300Z AUTO 35004KT 1 1/4SM 25/23 A2977 RMK T02500230 IEM_DS3505
ZGKL,2006-08-23 14:00,ZGKL 231400Z AUTO 35004KT 1 1/4SM 25/23 A2977 RMK T02500230 IEM_DS3505
ZGKL,2006-08-23 15:00,ZGKL 231500Z AUTO 02006KT 4SM 27/23 A2980 RMK SLP078 T02670232 52021 IEM_DS3505
ZGKL,2006-08-23 16:00,ZGKL 231600Z AUTO 00000KT 24/22 A2980 RMK T02400220 IEM_DS3505
ZGKL,2006-08-23 17:00,ZGKL 231700Z AUTO 30002KT 24/22 A2977 RMK T02400220 IEM_DS3505
ZGKL,2006-08-23 18:00,ZGKL 231800Z AUTO 02008KT 4SM A2977 RMK SLP071 57007 IEM_DS3505
ZGKL,2006-08-23 19:00,ZGKL 231900Z AUTO 34002KT 23/22 A2977 RMK T02300220 IEM_DS3505
ZGKL,2006-08-23 20:00,ZGKL 232000Z AUTO 35002KT 23/22 A2974 RMK T02300220 IEM_DS3505
ZGKL,2006-08-23 21:00,ZGKL 232100Z AUTO 36004KT 4SM 25/22 A2974 RMK SLP063 T02520217 57008 IEM_DS3505
ZGKL,2006-08-23 22:00,ZGKL 232200Z AUTO 29004KT 1 1/4SM 23/22 A2974 RMK T02300220 IEM_DS3505
ZGKL,2006-08-23 23:00,ZGKL 232300Z AUTO 00000KT 1 1/4SM 23/22 A2977 RMK T02300220 IEM_DS3505
ZGKL,2006-08-24 00:00,ZGKL 240000Z AUTO 36002KT 2 1/2SM 26/22 A2977 RMK SLP077 T02580221 52014 IEM_DS3505
ZGKL,2006-08-24 01:00,ZGKL 240100Z AUTO 31002KT 2SM 26/22 A2980 RMK T02600220 IEM_DS3505
ZGKL,2006-08-24 02:00,ZGKL 240200Z AUTO 31004KT 2 1/2SM 28/23 A2980 RMK T02800230 IEM_DS3505
ZGKL,2006-08-24 03:00,ZGKL 240300Z AUTO 34002KT 2 1/2SM 30/23 A2980 RMK SLP079 T02980230 52003 IEM_DS3505
ZGKL,2006-08-24 04:00,ZGKL 240400Z AUTO 00000KT 2 1/2SM 29/19 A2977 RMK T02900190 IEM_DS3505
ZGKL,2006-08-24 05:00,ZGKL 240500Z AUTO 29002KT 3SM 32/25 A2974 RMK T03200250 IEM_DS3505
ZGKL,2006-08-24 06:00,ZGKL 240600Z AUTO 32002KT 4SM 32/23 A2974 RMK SLP058 T03200230 57020 IEM_DS3505
ZGKL,2006-08-24 07:00,ZGKL 240700Z AUTO 23004KT 4SM 32/22 A2971 RMK T03200220 IEM_DS3505
ZGKL,2006-08-24 08:00,ZGKL 240800Z AUTO 28002KT 4SM 33/22 A2968 RMK T03300220 IEM_DS3505
ZGKL,2006-08-24 09:00,ZGKL 240900Z AUTO 27004KT 4SM 32/23 A2968 RMK SLP040 T03220232 57018 IEM_DS3505
ZGKL,2006-08-24 10:00,ZGKL 241000Z AUTO 33002KT 3SM 31/24 A2968 RMK T03100240 IEM_DS3505
ZGKL,2006-08-24 11:00,ZGKL 241100Z AUTO 11004KT 3SM 30/23 A2968 RMK T03000230 IEM_DS3505
ZGKL,2006-08-24 12:00,ZGKL 241200Z AUTO 09002KT 4SM 28/25 A2971 RMK 60001 SLP056 T02750246 52014 IEM_DS3505
ZGKL,2006-08-24 13:00,ZGKL 241300Z AUTO 00000KT 2SM 29/24 A2974 RMK T02900240 IEM_DS3505
ZGKL,2006-08-24 14:00,ZGKL 241400Z AUTO 04006KT 2 1/2SM 27/23 A2974 RMK T02700230 IEM_DS3505
ZGKL,2006-08-24 15:00,ZGKL 241500Z AUTO 02002KT 4SM 27/23 A2977 RMK SLP073 T02680231 52018 IEM_DS3505
ZGKL,2006-08-24 16:00,ZGKL 241600Z AUTO 02002KT 2SM 26/23 A2977 RMK T02600230 IEM_DS3505
ZGKL,2006-08-24 17:00,ZGKL 241700Z AUTO 35002KT 25/23 A2974 RMK T02500230 IEM_DS3505
ZGKL,2006-08-24 18:00,ZGKL 241800Z AUTO 02004KT 4SM 27/24 A2974 RMK SLP058 T02700239 57014 IEM_DS3505
ZGKL,2006-08-24 19:00,ZGKL 241900Z AUTO 25002KT 24/23 A2974 RMK T02400230 IEM_DS3505
ZGKL,2006-08-24 20:00,ZGKL 242000Z AUTO 00000KT 25/23 A2974 RMK T02500230 IEM_DS3505
ZGKL,2006-08-24 21:00,ZGKL 242100Z AUTO 02004KT 4SM 27/24 A2974 RMK 70001 SLP059 T02670238 52001 IEM_DS3505
ZGKL,2006-08-24 22:00,ZGKL 242200Z AUTO 00000KT 1 1/2SM 25/23 A2974 RMK T02500230 IEM_DS3505
ZGKL,2006-08-24 23:00,ZGKL 242300Z AUTO 00000KT 1 1/2SM 25/23 A2974 RMK T02500230 IEM_DS3505
ZGKL,2006-08-25 00:00,ZGKL 250000Z AUTO 02004KT 4SM 28/24 A2977 RMK 70001 SLP072 T02760238 52011 IEM_DS3505
ZGKL,2006-08-25 01:00,ZGKL 250100Z AUTO 30002KT 2 1/2SM 28/24 A2977 RMK T02800240 IEM_DS3505
ZGKL,2006-08-25 02:00,ZGKL 250200Z AUTO 29002KT 2 1/2SM 29/23 A2977 RMK T02900230 IEM_DS3505
ZGKL,2006-08-25 03:00,ZGKL 250300Z AUTO 02004KT 5SM 32/24 A2977 RMK SLP067 T03200243 57003 IEM_DS3505
ZGKL,2006-08-25 04:00,ZGKL 250400Z AUTO 19004KT 4SM 33/24 A2974 RMK T03300240 IEM_DS3505
ZGKL,2006-08-25 05:00,ZGKL 250500Z AUTO 27004KT 5SM 33/25 A2971 RMK T03300250 IEM_DS3505
ZGKL,2006-08-25 06:00,ZGKL 250600Z AUTO 11004KT 7SM 35/23 A2968 RMK SLP045 T03470227 57021 IEM_DS3505
ZGKL,2006-08-25 07:00,ZGKL 250700Z AUTO 19002KT 6SM 34/22 A2965 RMK T03400220 IEM_DS3505
ZGKL,2006-08-25 08:00,ZGKL 250800Z AUTO 14010KT 4SM 33/24 A2965 RMK T03300240 IEM_DS3505
ZGKL,2006-08-25 09:00,ZGKL 250900Z AUTO 29004KT 9SM 26/24 A2968 RMK SLP040 T02630243 57008 IEM_DS3505
ZGKL,2006-08-25 10:00,ZGKL 251000Z AUTO 23008KT 7SM 26/23 A2968 RMK T02600230 IEM_DS3505
ZGKL,2006-08-25 11:00,ZGKL 251100Z AUTO 07002KT 7SM 26/24 A2968 RMK T02600240 IEM_DS3505
ZGKL,2006-08-25 12:00,ZGKL 251200Z AUTO 21002KT 5SM 26/25 A2971 RMK 60063 SLP055 T02630247 52015 IEM_DS3505
ZGKL,2006-08-25 13:00,ZGKL 251300Z AUTO 00000KT 4SM 26/24 A2974 RMK T02600240 IEM_DS3505
ZGKL,2006-08-25 14:00,ZGKL 251400Z AUTO 00000KT 4SM 25/24 A2974 RMK T02500240 IEM_DS3505
ZGKL,2006-08-25 15:00,ZGKL 251500Z AUTO 02002KT 5SM 26/25 A2974 RMK SLP061 T02580246 52007 IEM_DS3505
ZGKL,2006-08-25 16:00,ZGKL 251600Z AUTO 17004KT 3SM 25/24 A2974 RMK T02500240 IEM_DS3505
ZGKL,2006-08-25 17:00,ZGKL 251700Z AUTO 27004KT 25/24 A2974 RMK T02500240 IEM_DS3505
ZGKL,2006-08-25 18:00,ZGKL 251800Z AUTO 29002KT 5SM 26/25 A2974 RMK SLP060 T02550250 54000 IEM_DS3505
ZGKL,2006-08-25 19:00,ZGKL 251900Z AUTO 33002KT 25/24 A2971 RMK T02500240 IEM_DS3505
ZGKL,2006-08-25 20:00,ZGKL 252000Z AUTO 06002KT 25/24 A2971 RMK T02500240 IEM_DS3505
ZGKL,2006-08-25 21:00,ZGKL 252100Z AUTO 02002KT 5SM 25/25 A2971 RMK 70063 SLP053 T02510246 57009 IEM_DS3505
ZGKL,2006-08-25 22:00,ZGKL 252200Z AUTO 17002KT 2 1/2SM 25/24 A2971 RMK T02500240 IEM_DS3505
ZGKL,2006-08-25 23:00,ZGKL 252300Z AUTO 29002KT 2SM 25/24 A2971 RMK T02500240 IEM_DS3505
ZGKL,2006-08-26 00:00,ZGKL 260000Z AUTO 04002KT 4SM 26/24 A2971 RMK 70063 SLP060 T02610245 52007 IEM_DS3505
ZGKL,2006-08-26 01:00,ZGKL 260100Z AUTO 00000KT 2 1/2SM 28/24 A2974 RMK T02800240 IEM_DS3505
ZGKL,2006-08-26 02:00,ZGKL 260200Z AUTO 34002KT 2 1/2SM 28/25 A2974 RMK T02800250 IEM_DS3505
ZGKL,2006-08-26 03:00,ZGKL 260300Z AUTO 29002KT 6SM 30/25 A2974 RMK SLP058 T03020248 57001 IEM_DS3505
ZGKL,2006-08-26 04:00,ZGKL 260400Z AUTO 27002KT 4SM 30/24 A2971 RMK T03000240 IEM_DS3505
ZGKL,2006-08-26 05:00,ZGKL 260500Z AUTO 23002KT 5SM 31/24 A2968 RMK T03100240 IEM_DS3505
ZGKL,2006-08-26 06:00,ZGKL 260600Z AUTO 20004KT 6SM 32/24 A2965 RMK SLP037 T03150244 57020 IEM_DS3505
ZGKL,2006-08-26 07:00,ZGKL 260700Z AUTO 19006KT 5SM 31/24 A2965 RMK T03100240 IEM_DS3505
ZGKL,2006-08-26 08:00,ZGKL 260800Z AUTO 18008KT 5SM 32/23 A2962 RMK T03200230 IEM_DS3505
ZGKL,2006-08-26 09:00,ZGKL 260900Z AUTO 04006KT 7SM 26/25 A2965 RMK SLP036 T02640248 57003 IEM_DS3505
ZGKL,2006-08-26 10:00,ZGKL 261000Z AUTO 17012KT 5SM 28/24 A2965 RMK T02800240 IEM_DS3505
ZGKL,2006-08-26 11:00,ZGKL 261100Z AUTO 14010KT 1 1/2SM 25/24 A2968 RMK T02500240 IEM_DS3505
ZGKL,2006-08-26 12:00,ZGKL 261200Z AUTO 34002KT 7SM 26/24 A2971 RMK 60012 SLP058 T02550241 52022 IEM_DS3505
ZGKL,2006-08-26 13:00,ZGKL 261300Z AUTO 17008KT 1 1/2SM 25/24 A2974 RMK T02500240 IEM_DS3505
ZGKL,2006-08-26 14:00,ZGKL 261400Z AUTO 20006KT 2SM 25/24 A2974 RMK T02500240 IEM_DS3505
ZGKL,2006-08-26 15:00,ZGKL 261500Z AUTO 18004KT 7SM 25/24 A2974 RMK SLP065 T02520240 52008 IEM_DS3505
ZGKL,2006-08-26 16:00,ZGKL 261600Z AUTO 18004KT 1 1/2SM 25/23 A2974 RMK T02500230 IEM_DS3505
ZGKL,2006-08-26 17:00,ZGKL 261700Z AUTO 17004KT 2SM 25/23 A2974 RMK T02500230 IEM_DS3505
ZGKL,2006-08-26 18:00,ZGKL 261800Z AUTO 16002KT 6SM 25/24 A2974 RMK 60004 SLP067 T02510244 52002 IEM_DS3505
ZGKL,2006-08-26 19:00,ZGKL 261900Z AUTO 17004KT 24/23 A2974 RMK T02400230 IEM_DS3505
ZGKL,2006-08-26 20:00,ZGKL 262000Z AUTO 16004KT 24/23 A2974 RMK T02400230 IEM_DS3505
ZGKL,2006-08-26 21:00,ZGKL 262100Z AUTO 17002KT 5SM 25/24 A2974 RMK 70015 SLP073 T02480241 52004 IEM_DS3505
ZGKL,2006-08-26 22:00,ZGKL 262200Z AUTO 15002KT 2 1/2SM 24/23 A2977 RMK T02400230 IEM_DS3505
ZGKL,2006-08-26 23:00,ZGKL 262300Z AUTO 15004KT 1 1/2SM 25/23 A2977 RMK T02500230 IEM_DS3505
ZGKL,2006-08-27 00:00,ZGKL 270000Z AUTO 11002KT 4SM 25/24 A2980 RMK 60004 70017 SLP086 T02500245 52013 IEM_DS3505
ZGKL,2006-08-27 01:00,ZGKL 270100Z AUTO 16002KT 2SM 25/24 A2980 RMK T02500240 IEM_DS3505
ZGKL,2006-08-27 02:00,ZGKL 270200Z AUTO 00000KT 3SM 25/24 A2983 RMK T02500240 IEM_DS3505
ZGKL,2006-08-27 03:00,ZGKL 270300Z AUTO 04002KT 4SM 27/24 A2983 RMK SLP094 T02670244 52008 IEM_DS3505
ZGKL,2006-08-27 04:00,ZGKL 270400Z AUTO 17002KT 4SM 27/24 A2980 RMK T02700240 IEM_DS3505
ZGKL,2006-08-27 05:00,ZGKL 270500Z AUTO 33002KT 4SM 29/24 A2980 RMK T02900240 IEM_DS3505
ZGKL,2006-08-27 06:00,ZGKL 270600Z AUTO 14006KT 4SM 27/25 A2974 RMK 60012 SLP076 T02660248 57018 IEM_DS3505
ZGKL,2006-08-27 07:00,ZGKL 270700Z AUTO 27002KT 5SM 31/24 A2974 RMK T03100240 IEM_DS3505
ZGKL,2006-08-27 08:00,ZGKL 270800Z AUTO 35006KT 4SM 26/25 A2974 RMK T02600250 IEM_DS3505
ZGKL,2006-08-27 09:00,ZGKL 270900Z AUTO 14002KT 7SM 30/24 A2971 RMK SLP058 T02970243 57016 IEM_DS3505
ZGKL,2006-08-27 10:00,ZGKL 271000Z AUTO 31002KT 6SM 26/24 A2971 RMK T02600240 IEM_DS3505
ZGKL,2006-08-27 11:00,ZGKL 271100Z AUTO 36004KT 6SM 26/24 A2974 RMK T02600240 IEM_DS3505
ZGKL,2006-08-27 12:00,ZGKL 271200Z AUTO 36002KT 9SM 27/25 A2974 RMK 60031 SLP063 T02710249 52004 IEM_DS3505
ZGKL,2006-08-27 13:00,ZGKL 271300Z AUTO 32002KT 5SM 25/24 A2977 RMK T02500240 IEM_DS3505
ZGKL,2006-08-27 14:00,ZGKL 271400Z AUTO 31002KT 4SM 25/24 A2980 RMK T02500240 IEM_DS3505
ZGKL,2006-08-27 15:00,ZGKL 271500Z AUTO 32002KT 9SM 26/25 A2980 RMK SLP085 T02560247 52021 IEM_DS3505
ZGKL,2006-08-27 16:00,ZGKL 271600Z AUTO 36004KT 25/24 A2980 RMK T02500240 IEM_DS3505
ZGKL,2006-08-27 17:00,ZGKL 271700Z AUTO 00000KT 25/24 A2980 RMK T02500240 IEM_DS3505
ZGKL,2006-08-27 18:00,ZGKL 271800Z AUTO 04002KT 6SM 25/24 A2980 RMK SLP084 T02520245 57001 IEM_DS3505
ZGKL,2006-08-27 19:00,ZGKL 271900Z AUTO 27002KT 24/23 A2980 RMK T02400230 IEM_DS3505
ZGKL,2006-08-27 21:00,ZGKL 272100Z AUTO 02002KT 6SM 25/24 A2977 RMK 70044 SLP080 T02480243 57003 IEM_DS3505
ZGKL,2006-08-27 22:00,ZGKL 272200Z AUTO 17002KT 3SM 24/23 A2980 RMK T02400230 IEM_DS3505
ZGKL,2006-08-27 23:00,ZGKL 272300Z AUTO 00000KT 2 1/2SM 25/24 A2983 RMK T02500240 IEM_DS3505
ZGKL,2006-08-28 00:00,ZGKL 280000Z AUTO 11002KT 3SM 26/25 A2983 RMK 70043 SLP094 T02560251 52013 IEM_DS3505
ZGKL,2006-08-28 01:00,ZGKL 280100Z AUTO 00000KT 2SM 26/24 A2985 RMK T02600240 IEM_DS3505
ZGKL,2006-08-28 02:00,ZGKL 280200Z AUTO 00000KT 2 1/2SM 28/24 A2983 RMK T02800240 IEM_DS3505
ZGKL,2006-08-28 03:00,ZGKL 280300Z AUTO 29002KT 6SM 28/25 A2983 RMK SLP098 T02850253 52005 IEM_DS3505
ZGKL,2006-08-28 04:00,ZGKL 280400Z AUTO 16004KT 4SM 31/23 A2983 RMK T03100230 IEM_DS3505
ZGKL,2006-08-28 05:00,ZGKL 280500Z AUTO 18004KT 4SM 33/23 A2980 RMK T03300230 IEM_DS3505
ZGKL,2006-08-28 06:00,ZGKL 280600Z AUTO 11006KT 8SM 32/24 A2980 RMK 60002 SLP079 T03230244 57018 IEM_DS3505
ZGKL,2006-08-28 07:00,ZGKL 280700Z AUTO 12006KT 7SM 32/24 A2977 RMK T03200240 IEM_DS3505
ZGKL,2006-08-28 08:00,ZGKL 280800Z AUTO 12004KT 7SM 33/23 A2974 RMK T03300230 IEM_DS3505
ZGKL,2006-08-28 09:00,ZGKL 280900Z AUTO 18004KT 9SM 33/23 A2971 RMK SLP059 T03320229 57019 IEM_DS3505
ZGKL,2006-08-28 10:00,ZGKL 281000Z AUTO 12004KT 6SM 32/24 A2971 RMK T03200240 IEM_DS3505
ZGKL,2006-08-28 11:00,ZGKL 281100Z AUTO 12002KT 6SM 31/24 A2974 RMK T03100240 IEM_DS3505
ZGKL,2006-08-28 12:00,ZGKL 281200Z AUTO 14002KT 8SM 30/25 A2977 RMK SLP079 T02960249 52018 IEM_DS3505
ZGKL,2006-08-28 13:00,ZGKL 281300Z AUTO 00000KT 4SM 28/26 A2980 RMK T02800260 IEM_DS3505
ZGKL,2006-08-28 14:00,ZGKL 281400Z AUTO 33004KT 2 1/2SM 27/26 A2983 RMK T02700260 IEM_DS3505
ZGKL,2006-08-28 15:00,ZGKL 281500Z AUTO 04002KT 8SM 28/25 A2983 RMK SLP092 T02750248 52013 IEM_DS3505
ZGKL,2006-08-28 16:00,ZGKL 281600Z AUTO 33002KT 2SM 26/25 A2983 RMK T02600250 IEM_DS3505
ZGKL,2006-08-28 17:00,ZGKL 281700Z AUTO 30002KT 26/25 A2983 RMK T02600250 IEM_DS3505
ZGKL,2006-08-28 18:00,ZGKL 281800Z AUTO 11002KT 7SM 26/24 A2980 RMK SLP083 T02620244 57008 IEM_DS3505
ZGKL,2006-08-28 19:00,ZGKL 281900Z AUTO 00000KT 25/24 A2980 RMK T02500240 IEM_DS3505
ZGKL,2006-08-28 20:00,ZGKL 282000Z AUTO 00000KT 25/24 A2980 RMK T02500240 IEM_DS3505
ZGKL,2006-08-28 21:00,ZGKL 282100Z AUTO 04002KT 6SM 25/24 A2980 RMK 70002 SLP086 T02530244 52003 IEM_DS3505
ZGKL,2006-08-28 22:00,ZGKL 282200Z AUTO 00000KT 1SM 25/24 A2983 RMK T02500240 IEM_DS3505
ZGKL,2006-08-28 23:00,ZGKL 282300Z AUTO 00000KT 1SM 25/24 A2985 RMK T02500240 IEM_DS3505
ZGKL,2006-08-29 00:00,ZGKL 290000Z AUTO 02002KT 5SM 26/24 A2985 RMK 70002 SLP106 T02620244 52019 IEM_DS3505
ZGKL,2006-08-29 01:00,ZGKL 290100Z AUTO 00000KT 3SM 29/24 A2988 RMK T02900240 IEM_DS3505
ZGKL,2006-08-29 02:00,ZGKL 290200Z AUTO 14004KT 4SM 29/25 A2988 RMK T02900250 IEM_DS3505
ZGKL,2006-08-29 03:00,ZGKL 290300Z AUTO 14004KT 6SM 30/23 A2988 RMK SLP110 T03050234 52005 IEM_DS3505
ZGKL,2006-08-29 04:00,ZGKL 290400Z AUTO 12002KT 5SM 31/24 A2985 RMK T03100240 IEM_DS3505
ZGKL,2006-08-29 05:00,ZGKL 290500Z AUTO 12006KT 7SM 32/23 A2985 RMK T03200230 IEM_DS3505
ZGKL,2006-08-29 06:00,ZGKL 290600Z AUTO 18006KT 9SM 32/23 A2983 RMK SLP095 T03220232 57015 IEM_DS3505
ZGKL,2006-08-29 07:00,ZGKL 290700Z AUTO 06002KT 7SM 33/24 A2980 RMK T03300240 IEM_DS3505
ZGKL,2006-08-29 09:00,ZGKL 290900Z AUTO 16004KT 11SM 33/22 A2977 RMK SLP080 T03290224 57015 IEM_DS3505
ZGKL,2006-08-29 10:00,ZGKL 291000Z AUTO 15004KT 7SM 32/23 A2980 RMK T03200230 IEM_DS3505
ZGKL,2006-08-29 11:00,ZGKL 291100Z AUTO 15004KT 6SM 31/23 A2980 RMK T03100230 IEM_DS3505
ZGKL,2006-08-29 12:00,ZGKL 291200Z AUTO 18006KT 10SM 31/23 A2983 RMK SLP096 T03060233 52016 IEM_DS3505
ZGKL,2006-08-29 13:00,ZGKL 291300Z AUTO 00000KT 6SM 29/24 A2983 RMK T02900240 IEM_DS3505
ZGKL,2006-08-29 14:00,ZGKL 291400Z AUTO 32002KT 4SM 28/25 A2985 RMK T02800250 IEM_DS3505
ZGKL,2006-08-29 15:00,ZGKL 291500Z AUTO 34002KT 8SM 28/24 A2985 RMK SLP104 T02790245 52008 IEM_DS3505
ZGKL,2006-08-29 16:00,ZGKL 291600Z AUTO 36002KT 26/24 A2985 RMK T02600240 IEM_DS3505
ZGKL,2006-08-29 17:00,ZGKL 291700Z AUTO 00000KT 26/24 A2985 RMK T02600240 IEM_DS3505
ZGKL,2006-08-29 18:00,ZGKL 291800Z AUTO 07002KT 8SM 27/24 A2985 RMK SLP101 T02690244 57003 IEM_DS3505
ZGKL,2006-08-29 19:00,ZGKL 291900Z AUTO 17002KT 25/24 A2985 RMK T02500240 IEM_DS3505
ZGKL,2006-08-29 20:00,ZGKL 292000Z AUTO 14002KT 25/24 A2983 RMK T02500240 IEM_DS3505
ZGKL,2006-08-29 21:00,ZGKL 292100Z AUTO 18004KT 7SM 27/24 A2985 RMK SLP103 T02730235 52002 IEM_DS3505
ZGKL,2006-08-29 22:00,ZGKL 292200Z AUTO 16002KT 3SM 25/24 A2985 RMK T02500240 IEM_DS3505
ZGKL,2006-08-29 23:00,ZGKL 292300Z AUTO 16004KT 3SM 25/23 A2988 RMK T02500230 IEM_DS3505
ZGKL,2006-08-30 00:00,ZGKL 300000Z AUTO 18004KT 7SM 28/24 A2988 RMK SLP117 T02800236 52014 IEM_DS3505
ZGKL,2006-08-30 01:00,ZGKL 300100Z AUTO 17006KT 4SM 27/24 A2991 RMK T02700240 IEM_DS3505
ZGKL,2006-08-30 02:00,ZGKL 300200Z AUTO 17006KT 7SM 30/23 A2991 RMK T03000230 IEM_DS3505
ZGKL,2006-08-30 03:00,ZGKL 300300Z AUTO 25004KT 8SM 30/24 A2988 RMK SLP120 T03010235 52002 IEM_DS3505
ZGKL,2006-08-30 04:00,ZGKL 300400Z AUTO 19006KT 7SM 32/24 A2988 RMK T03200240 IEM_DS3505
ZGKL,2006-08-30 05:00,ZGKL 300500Z AUTO 19010KT 7SM 31/22 A2985 RMK T03100220 IEM_DS3505
ZGKL,2006-08-30 06:00,ZGKL 300600Z AUTO 20010KT 12SM 32/21 A2985 RMK SLP100 T03240213 57019 IEM_DS3505
ZGKL,2006-08-30 07:00,ZGKL 300700Z AUTO 19006KT 6SM 32/23 A2983 RMK T03200230 IEM_DS3505
ZGKL,2006-08-30 08:00,ZGKL 300800Z AUTO 17010KT 6SM 33/22 A2980 RMK T03300220 IEM_DS3505
ZGKL,2006-08-30 09:00,ZGKL 300900Z AUTO 22006KT 16SM 32/21 A2977 RMK SLP078 T03250214 57021 IEM_DS3505
ZGKL,2006-08-30 10:00,ZGKL 301000Z AUTO 18008KT 6SM 31/23 A2977 RMK T03100230 IEM_DS3505
ZGKL,2006-08-30 11:00,ZGKL 301100Z AUTO 17004KT 6SM 30/23 A2977 RMK T03000230 IEM_DS3505
ZGKL,2006-08-30 12:00,ZGKL 301200Z AUTO 25002KT 14SM 30/22 A2980 RMK SLP081 T03050219 52002 IEM_DS3505
ZGKL,2006-08-30 13:00,ZGKL 301300Z AUTO 26002KT 6SM 26/24 A2980 RMK T02600240 IEM_DS3505
ZGKL,2006-08-30 14:00,ZGKL 301400Z AUTO 29002KT 5SM 26/24 A2983 RMK T02600240 IEM_DS3505
ZGKL,2006-08-30 15:00,ZGKL 301500Z AUTO 07002KT 11SM 28/24 A2983 RMK SLP089 T02760238 52008 IEM_DS3505
ZGKL,2006-08-30 16:00,ZGKL 301600Z AUTO 29002KT 25/24 A2980 RMK T02500240 IEM_DS3505
ZGKL,2006-08-30 17:00,ZGKL 301700Z AUTO 16002KT 25/24 A2980 RMK T02500240 IEM_DS3505
ZGKL,2006-08-30 18:00,ZGKL 301800Z AUTO 32002KT 9SM 26/24 A2980 RMK SLP078 T02600237 57011 IEM_DS3505
ZGKL,2006-08-30 19:00,ZGKL 301900Z AUTO 27002KT 24/23 A2977 RMK T02400230 IEM_DS3505
ZGKL,2006-08-30 20:00,ZGKL 302000Z AUTO 35002KT 24/23 A2977 RMK T02400230 IEM_DS3505
ZGKL,2006-08-30 21:00,ZGKL 302100Z AUTO 00000KT 9SM A2977 RMK SLP077 57001 IEM_DS3505
ZGKL,2006-08-30 22:00,ZGKL 302200Z AUTO 00000KT 4SM 24/23 A2980 RMK T02400230 IEM_DS3505
ZGKL,2006-08-30 23:00,ZGKL 302300Z AUTO 20002KT 4SM 24/23 A2980 RMK T02400230 IEM_DS3505
ZGKL,2006-08-31 00:00,ZGKL 310000Z AUTO 20002KT 7SM 27/25 A2983 RMK SLP091 T02710246 52014 IEM_DS3505
ZGKL,2006-08-31 01:00,ZGKL 310100Z AUTO 16008KT 6SM 29/24 A2983 RMK T02900240 IEM_DS3505
ZGKL,2006-08-31 02:00,ZGKL 310200Z AUTO 18002KT 7SM 30/23 A2983 RMK T03000230 IEM_DS3505
ZGKL,2006-08-31 03:00,ZGKL 310300Z AUTO 25004KT 6SM 31/24 A2983 RMK SLP088 T03080237 57003 IEM_DS3505
ZGKL,2006-08-31 04:00,ZGKL 310400Z AUTO 17006KT 7SM 33/22 A2980 RMK T03300220 IEM_DS3505
ZGKL,2006-08-31 05:00,ZGKL 310500Z AUTO 19008KT 7SM 33/23 A2977 RMK T03300230 IEM_DS3505
ZGKL,2006-08-31 06:00,ZGKL 310600Z AUTO 16006KT 9SM 33/22 A2974 RMK SLP060 T03300221 57027 IEM_DS3505
ZGKL,2006-08-31 07:00,ZGKL 310700Z AUTO 18012KT 7SM 33/21 A2971 RMK T03300210 IEM_DS3505
ZGKL,2006-08-31 08:00,ZGKL 310800Z AUTO 18010KT 7SM 34/22 A2968 RMK T03400220 IEM_DS3505
ZGKL,2006-08-31 09:00,ZGKL 310900Z AUTO 18008KT 11SM 34/21 A2968 RMK SLP041 T03350213 57019 IEM_DS3505
ZGKL,2006-08-31 10:00,ZGKL 311000Z AUTO 19010KT 7SM 32/22 A2968 RMK T03200220 IEM_DS3505
ZGKL,2006-08-31 11:00,ZGKL 311100Z AUTO 19006KT 7SM 30/23 A2968 RMK T03000230 IEM_DS3505
ZGKL,2006-08-31 12:00,ZGKL 311200Z AUTO 25004KT 12SM 31/23 A2971 RMK SLP051 T03100226 52010 IEM_DS3505
ZGKL,2006-08-31 13:00,ZGKL 311300Z AUTO 18004KT 4SM 27/24 A2971 RMK T02700240 IEM_DS3505
ZGKL,2006-08-31 14:00,ZGKL 311400Z AUTO 22002KT 4SM 26/24 A2974 RMK T02600240 IEM_DS3505
ZGKL,2006-08-31 15:00,ZGKL 311500Z AUTO 27002KT 9SM 28/24 A2974 RMK SLP058 T02840238 52007 IEM_DS3505
ZGKL,2006-08-31 16:00,ZGKL 311600Z AUTO 00000KT 26/24 A2971 RMK T02600240 IEM_DS3505
ZGKL,2006-08-31 17:00,ZGKL 311700Z AUTO 19002KT 25/24 A2971 RMK T02500240 IEM_DS3505
ZGKL,2006-08-31 18:00,ZGKL 311800Z AUTO 11002KT 9SM 27/24 A2971 RMK SLP056 T02700235 57002 IEM_DS3505
ZGKL,2006-08-31 19:00,ZGKL 311900Z AUTO 00000KT 25/24 A2971 RMK T02500240 IEM_DS3505
ZGKL,2006-08-31 20:00,ZGKL 312000Z AUTO 22002KT A2971 RMK IEM_DS3505
ZGKL,2006-08-31 21:00,ZGKL 312100Z AUTO 16002KT 9SM 27/24 A2971 RMK SLP057 T02670236 52001 IEM_DS3505
ZGKL,2006-08-31 22:00,ZGKL 312200Z AUTO 17004KT 3SM 26/24 A2971 RMK T02600240 IEM_DS3505
ZGKL,2006-08-31 23:00,ZGKL 312300Z AUTO 15002KT 4SM 26/24 A2974 RMK T02600240 IEM_DS3505
ZGKL,2006-09-01 00:00,ZGKL 010000Z AUTO 16002KT 7SM 28/24 A2974 RMK SLP067 T02770239 52010 IEM_DS3505
ZGKL,2006-09-01 01:00,ZGKL 010100Z AUTO 19008KT 6SM 28/24 A2977 RMK T02800240 IEM_DS3505
ZGKL,2006-09-01 02:00,ZGKL 010200Z AUTO 18010KT 7SM 30/24 A2977 RMK T03000240 IEM_DS3505
ZGKL,2006-09-01 03:00,ZGKL 010300Z AUTO 25006KT 10SM 31/23 A2977 RMK SLP070 T03130234 52003 IEM_DS3505
ZGKL,2006-09-01 04:00,ZGKL 010400Z AUTO 18008KT 7SM 31/23 A2974 RMK T03100230 IEM_DS3505
ZGKL,2006-09-01 05:00,ZGKL 010500Z AUTO 18008KT 7SM 33/23 A2971 RMK T03300230 IEM_DS3505
ZGKL,2006-09-01 06:00,ZGKL 010600Z AUTO 20006KT 14SM 34/22 A2971 RMK SLP048 T03380219 57021 IEM_DS3505
ZGKL,2006-09-01 07:00,ZGKL 010700Z AUTO 18010KT 7SM 33/22 A2968 RMK T03300220 IEM_DS3505
ZGKL,2006-09-01 08:00,ZGKL 010800Z AUTO 18008KT 7SM 34/22 A2965 RMK T03400220 IEM_DS3505
ZGKL,2006-09-01 09:00,ZGKL 010900Z AUTO 25006KT 14SM 34/22 A2965 RMK SLP034 T03410225 57014 IEM_DS3505
ZGKL,2006-09-01 10:00,ZGKL 011000Z AUTO 20006KT 6SM 32/23 A2965 RMK T03200230 IEM_DS3505
ZGKL,2006-09-01 11:00,ZGKL 011100Z AUTO 20004KT 6SM 31/24 A2965 RMK T03100240 IEM_DS3505
ZGKL,2006-09-01 12:00,ZGKL 011200Z AUTO 22004KT 11SM 32/23 A2968 RMK SLP044 T03190229 52009 IEM_DS3505
ZGKL,2006-09-01 13:00,ZGKL 011300Z AUTO 00000KT 5SM 28/25 A2971 RMK T02800250 IEM_DS3505
ZGKL,2006-09-01 14:00,ZGKL 011400Z AUTO 26002KT 5SM 27/25 A2974 RMK T02700250 IEM_DS3505
ZGKL,2006-09-01 15:00,ZGKL 011500Z AUTO 36002KT 10SM 29/25 A2974 RMK SLP059 T02940247 52015 IEM_DS3505
ZGKL,2006-09-01 16:00,ZGKL 011600Z AUTO 00000KT 27/25 A2971 RMK T02700250 IEM_DS3505
ZGKL,2006-09-01 17:00,ZGKL 011700Z AUTO 00000KT 27/25 A2971 RMK T02700250 IEM_DS3505
ZGKL,2006-09-01 18:00,ZGKL 011800Z AUTO 36002KT 10SM 27/24 A2971 RMK SLP054 T02670242 57005 IEM_DS3505
ZGKL,2006-09-01 19:00,ZGKL 011900Z AUTO 00000KT 26/25 A2971 RMK T02600250 IEM_DS3505
ZGKL,2006-09-01 20:00,ZGKL 012000Z AUTO 00000KT 26/25 A2971 RMK T02600250 IEM_DS3505
ZGKL,2006-09-01 21:00,ZGKL 012100Z AUTO 07002KT 10SM 26/24 A2971 RMK SLP057 T02640243 52003 IEM_DS3505
ZGKL,2006-09-01 22:00,ZGKL 012200Z AUTO 36002KT 1 1/4SM 26/24 A2974 RMK T02600240 IEM_DS3505
ZGKL,2006-09-01 23:00,ZGKL 012300Z AUTO 35004KT 4SM 26/24 A2977 RMK T02600240 IEM_DS3505
ZGKL,2006-09-02 00:00,ZGKL 020000Z AUTO 09002KT 4SM 28/25 A2977 RMK SLP073 T02750246 52016 IEM_DS3505
ZGKL,2006-09-02 01:00,ZGKL 020100Z AUTO 18006KT 5SM 30/25 A2977 RMK T03000250 IEM_DS3505
ZGKL,2006-09-02 02:00,ZGKL 020200Z AUTO 19006KT 7SM 31/24 A2977 RMK T03100240 IEM_DS3505
ZGKL,2006-09-02 03:00,ZGKL 020300Z AUTO 22002KT 6SM 32/24 A2977 RMK SLP068 T03200243 57005 IEM_DS3505
ZGKL,2006-09-02 04:00,ZGKL 020400Z AUTO 20006KT 7SM 33/24 A2974 RMK T03300240 IEM_DS3505
ZGKL,2006-09-02 05:00,ZGKL 020500Z AUTO 20004KT 7SM 33/23 A2971 RMK T03300230 IEM_DS3505
ZGKL,2006-09-02 06:00,ZGKL 020600Z AUTO 20004KT 9SM 34/23 A2971 RMK SLP047 T03450232 57020 IEM_DS3505
ZGKL,2006-09-02 07:00,ZGKL 020700Z AUTO 21006KT 7SM 35/22 A2968 RMK T03500220 IEM_DS3505
ZGKL,2006-09-02 08:00,ZGKL 020800Z AUTO 22004KT 7SM 35/22 A2965 RMK T03500220 IEM_DS3505
ZGKL,2006-09-02 09:00,ZGKL 020900Z AUTO 25006KT 10SM 36/22 A2965 RMK SLP033 T03560218 57014 IEM_DS3505
ZGKL,2006-09-02 10:00,ZGKL 021000Z AUTO 20004KT 6SM 34/23 A2965 RMK T03400230 IEM_DS3505
ZGKL,2006-09-02 11:00,ZGKL 021100Z AUTO 20004KT 6SM 31/26 A2965 RMK T03100260 IEM_DS3505
ZGKL,2006-09-02 12:00,ZGKL 021200Z AUTO 22004KT 11SM 33/23 A2968 RMK SLP043 T03280232 52010 IEM_DS3505
ZGKL,2006-09-02 13:00,ZGKL 021300Z AUTO 00000KT 5SM 28/26 A2971 RMK T02800260 IEM_DS3505
ZGKL,2006-09-02 14:00,ZGKL 021400Z AUTO 30002KT 4SM 28/26 A2971 RMK T02800260 IEM_DS3505
ZGKL,2006-09-02 15:00,ZGKL 021500Z AUTO 02002KT 10SM 29/24 A2974 RMK SLP057 T02940243 52014 IEM_DS3505
ZGKL,2006-09-02 16:00,ZGKL 021600Z AUTO 25002KT 27/25 A2974 RMK T02700250 IEM_DS3505
ZGKL,2006-09-02 17:00,ZGKL 021700Z AUTO 00000KT 27/25 A2974 RMK T02700250 IEM_DS3505
ZGKL,2006-09-02 18:00,ZGKL 021800Z AUTO 17002KT 10SM 28/25 A2971 RMK SLP054 T02750246 57003 IEM_DS3505
ZGKL,2006-09-02 19:00,ZGKL 021900Z AUTO 00000KT 26/24 A2971 RMK T02600240 IEM_DS3505
ZGKL,2006-09-02 20:00,ZGKL 022000Z AUTO 34002KT 26/25 A2971 RMK T02600250 IEM_DS3505
ZGKL,2006-09-02 21:00,ZGKL 022100Z AUTO 36002KT 8SM 27/24 A2971 RMK SLP054 T02660241 54000 IEM_DS3505
ZGKL,2006-09-02 22:00,ZGKL 022200Z AUTO 30002KT 2SM 25/24 A2971 RMK T02500240 IEM_DS3505
ZGKL,2006-09-02 23:00,ZGKL 022300Z AUTO 00000KT 4SM 25/24 A2974 RMK T02500240 IEM_DS3505
ZGKL,2006-09-03 00:00,ZGKL 030000Z AUTO 04002KT 6SM 28/24 A2977 RMK SLP072 T02770245 52017 IEM_DS3505
ZGKL,2006-09-03 01:00,ZGKL 030100Z AUTO 32002KT 2 1/2SM 29/25 A2977 RMK T02900250 IEM_DS3505
ZGKL,2006-09-03 02:00,ZGKL 030200Z AUTO 26002KT 3SM 30/25 A2977 RMK T03000250 IEM_DS3505
ZGKL,2006-09-03 03:00,ZGKL 030300Z AUTO 14002KT 4SM 32/25 A2977 RMK SLP070 T03200248 57002 IEM_DS3505
ZGKL,2006-09-03 04:00,ZGKL 030400Z AUTO 20002KT 4SM 34/24 A2971 RMK T03400240 IEM_DS3505
ZGKL,2006-09-03 05:00,ZGKL 030500Z AUTO 18004KT 7SM 34/23 A2971 RMK T03400230 IEM_DS3505
ZGKL,2006-09-03 06:00,ZGKL 030600Z AUTO 20002KT 6SM 35/24 A2968 RMK SLP039 T03490242 57030 IEM_DS3505
ZGKL,2006-09-03 07:00,ZGKL 030700Z AUTO 25002KT 7SM 36/23 A2965 RMK T03600230 IEM_DS3505
ZGKL,2006-09-03 08:00,ZGKL 030800Z AUTO 14002KT 7SM 36/24 A2962 RMK T03600240 IEM_DS3505
ZGKL,2006-09-03 09:00,ZGKL 030900Z AUTO 22002KT 7SM 36/22 RMK SLP022 T03580220 57016 IEM_DS3505
ZGKL,2006-09-03 10:00,ZGKL 031000Z AUTO 14004KT 7SM 34/24 A2962 RMK T03400240 IEM_DS3505
ZGKL,2006-09-03 11:00,ZGKL 031100Z AUTO 17006KT 7SM 33/24 A2962 RMK T03300240 IEM_DS3505
ZGKL,2006-09-03 12:00,ZGKL 031200Z AUTO 16004KT 8SM 32/24 A2965 RMK SLP034 T03200241 52011 IEM_DS3505
ZGKL,2006-09-03 13:00,ZGKL 031300Z AUTO 24004KT 4SM 29/26 A2968 RMK T02900260 IEM_DS3505
ZGKL,2006-09-03 14:00,ZGKL 031400Z AUTO 00000KT 4SM 29/25 A2971 RMK T02900250 IEM_DS3505
ZGKL,2006-09-03 15:00,ZGKL 031500Z AUTO 09002KT 8SM 30/25 A2971 RMK SLP052 T02980253 52018 IEM_DS3505
ZGKL,2006-09-03 16:00,ZGKL 031600Z AUTO 29002KT 3SM 28/26 A2971 RMK T02800260 IEM_DS3505
ZGKL,2006-09-03 17:00,ZGKL 031700Z AUTO 00000KT 2 1/2SM 28/26 A2971 RMK T02800260 IEM_DS3505
ZGKL,2006-09-03 18:00,ZGKL 031800Z AUTO 04002KT 7SM 28/26 A2971 RMK SLP048 T02810257 57004 IEM_DS3505
ZGKL,2006-09-03 19:00,ZGKL 031900Z AUTO 17002KT 27/25 A2968 RMK T02700250 IEM_DS3505
ZGKL,2006-09-03 20:00,ZGKL 032000Z AUTO 00000KT 27/25 A2968 RMK T02700250 IEM_DS3505
ZGKL,2006-09-03 21:00,ZGKL 032100Z AUTO 32002KT 7SM 27/25 A2971 RMK SLP048 T02740250 54000 IEM_DS3505
ZGKL,2006-09-03 22:00,ZGKL 032200Z AUTO 19002KT 1 1/4SM 26/25 A2971 RMK T02600250 IEM_DS3505
ZGKL,2006-09-03 23:00,ZGKL 032300Z AUTO 00000KT 1 1/4SM 27/26 A2971 RMK T02700260 IEM_DS3505
ZGKL,2006-09-04 00:00,ZGKL 040000Z AUTO 11002KT 6SM 28/25 A2974 RMK SLP061 T02780254 52012 IEM_DS3505
ZGKL,2006-09-04 01:00,ZGKL 040100Z AUTO 18006KT 2 1/2SM 28/25 A2977 RMK T02800250 IEM_DS3505
ZGKL,2006-09-04 02:00,ZGKL 040200Z AUTO 00000KT 4SM 29/25 A2977 RMK T02900250 IEM_DS3505
ZGKL,2006-09-04 03:00,ZGKL 040300Z AUTO 32004KT 5SM 28/25 A2974 RMK SLP068 T02780250 52006 IEM_DS3505
ZGKL,2006-09-04 04:00,ZGKL 040400Z AUTO 15004KT 7SM 33/24 A2971 RMK T03300240 IEM_DS3505
ZGKL,2006-09-04 05:00,ZGKL 040500Z AUTO 16006KT 7SM 31/24 A2971 RMK T03100240 IEM_DS3505
ZGKL,2006-09-04 06:00,ZGKL 040600Z AUTO 16004KT 9SM 30/25 A2968 RMK 60043 SLP050 T03020250 57017 IEM_DS3505
ZGKL,2006-09-04 07:00,ZGKL 040700Z AUTO 14008KT 7SM 31/24 A2965 RMK T03100240 IEM_DS3505
ZGKL,2006-09-04 08:00,ZGKL 040800Z AUTO 13006KT 6SM 31/24 A2965 RMK T03100240 IEM_DS3505
ZGKL,2006-09-04 09:00,ZGKL 040900Z AUTO 18006KT 12SM 29/24 A2965 RMK SLP038 T02890236 57013 IEM_DS3505
ZGKL,2006-09-04 10:00,ZGKL 041000Z AUTO 18004KT 7SM 28/24 A2968 RMK T02800240 IEM_DS3505
ZGKL,2006-09-04 11:00,ZGKL 041100Z AUTO 10004KT 6SM 27/24 A2968 RMK T02700240 IEM_DS3505
ZGKL,2006-09-04 12:00,ZGKL 041200Z AUTO 07004KT 9SM 27/25 A2968 RMK SLP050 T02740247 52012 IEM_DS3505
ZGKL,2006-09-04 13:00,ZGKL 041300Z AUTO 33002KT 6SM 26/24 A2971 RMK T02600240 IEM_DS3505
ZGKL,2006-09-04 14:00,ZGKL 041400Z AUTO 29002KT 6SM 26/25 A2974 RMK T02600250 IEM_DS3505
ZGKL,2006-09-04 15:00,ZGKL 041500Z AUTO 04002KT 8SM 27/24 A2974 RMK SLP061 T02660241 52010 IEM_DS3505
ZGKL,2006-09-04 16:00,ZGKL 041600Z AUTO 18002KT 6SM 26/24 A2974 RMK T02600240 IEM_DS3505
ZGKL,2006-09-04 17:00,ZGKL 041700Z AUTO 00000KT 25/24 A2974 RMK T02500240 IEM_DS3505
ZGKL,2006-09-04 18:00,ZGKL 041800Z AUTO 07002KT 8SM 26/25 A2974 RMK SLP060 T02550246 54000 IEM_DS3505
ZGKL,2006-09-04 19:00,ZGKL 041900Z AUTO 00000KT 25/24 A2974 RMK T02500240 IEM_DS3505
ZGKL,2006-09-04 20:00,ZGKL 042000Z AUTO 00000KT 25/24 A2974 RMK T02500240 IEM_DS3505
ZGKL,2006-09-04 21:00,ZGKL 042100Z AUTO 08002KT 7SM A2974 RMK 70041 SLP061 54000 IEM_DS3505
ZGKL,2006-09-04 22:00,ZGKL 042200Z AUTO 00000KT 1/2SM 25/24 A2977 RMK T02500240 IEM_DS3505
ZGKL,2006-09-04 23:00,ZGKL 042300Z AUTO 00000KT 3/8SM 25/24 A2974 RMK T02500240 IEM_DS3505
ZGKL,2006-09-05 00:00,ZGKL 050000Z AUTO 04002KT 2 1/2SM 25/24 A2980 RMK 70041 SLP079 T02540240 52018 IEM_DS3505
ZGKL,2006-09-05 01:00,ZGKL 050100Z AUTO 08002KT 1SM 26/24 A2980 RMK T02600240 IEM_DS3505
ZGKL,2006-09-05 02:00,ZGKL 050200Z AUTO 08002KT 1 1/2SM 27/24 A2980 RMK T02700240 IEM_DS3505
ZGKL,2006-09-05 03:00,ZGKL 050300Z AUTO 34004KT 3SM 29/25 A2980 RMK SLP086 T02890249 52007 IEM_DS3505
ZGKL,2006-09-05 04:00,ZGKL 050400Z AUTO 08002KT 3SM 30/25 A2977 RMK T03000250 IEM_DS3505
ZGKL,2006-09-05 05:00,ZGKL 050500Z AUTO 20002KT 5SM 30/24 A2977 RMK T03000240 IEM_DS3505
ZGKL,2006-09-05 06:00,ZGKL 050600Z AUTO 11002KT 5SM 30/26 A2971 RMK 60002 SLP062 T02950255 57023 IEM_DS3505
ZGKL,2006-09-05 07:00,ZGKL 050700Z AUTO 35002KT 6SM 32/24 A2971 RMK T03200240 IEM_DS3505
ZGKL,2006-09-05 08:00,ZGKL 050800Z AUTO 07006KT 3SM 31/24 A2968 RMK T03100240 IEM_DS3505
ZGKL,2006-09-05 09:00,ZGKL 050900Z AUTO 02006KT 9SM 27/22 A2974 RMK SLP063 T02660220 57001 IEM_DS3505
ZGKL,2006-09-05 10:00,ZGKL 051000Z AUTO 06008KT 3SM 27/22 A2977 RMK T02700220 IEM_DS3505
ZGKL,2006-09-05 11:00,ZGKL 051100Z AUTO 06014KT 3SM 25/20 A2977 RMK T02500200 IEM_DS3505
ZGKL,2006-09-05 12:00,ZGKL 051200Z AUTO 02010KT 9SM 23/19 A2980 RMK SLP091 T02280190 52027 IEM_DS3505
ZGKL,2006-09-05 13:00,ZGKL 051300Z AUTO 05006KT 4SM 23/18 A2983 RMK T02300180 IEM_DS3505
ZGKL,2006-09-05 14:00,ZGKL 051400Z AUTO 05008KT 4SM 23/18 A2985 RMK T02300180 IEM_DS3505
ZGKL,2006-09-05 15:00,ZGKL 051500Z AUTO 36008KT 8SM 22/18 A2988 RMK SLP116 T02160180 52025 IEM_DS3505
ZGKL,2006-09-05 16:00,ZGKL 051600Z AUTO 04004KT 4SM 22/18 A2985 RMK T02200180 IEM_DS3505
ZGKL,2006-09-05 17:00,ZGKL 051700Z AUTO 07004KT 22/18 A2988 RMK T02200180 IEM_DS3505
ZGKL,2006-09-05 18:00,ZGKL 051800Z AUTO 02008KT 8SM 21/17 A2985 RMK SLP109 T02060170 57007 IEM_DS3505
ZGKL,2006-09-05 19:00,ZGKL 051900Z AUTO 06004KT 21/17 A2985 RMK T02100170 IEM_DS3505
ZGKL,2006-09-05 20:00,ZGKL 052000Z AUTO 03004KT 21/17 A2985 RMK T02100170 IEM_DS3505
ZGKL,2006-09-05 21:00,ZGKL 052100Z AUTO 02006KT 8SM 20/16 A2983 RMK 70002 SLP105 T02040164 57005 IEM_DS3505
ZGKL,2006-09-05 22:00,ZGKL 052200Z AUTO 03004KT 4SM 21/17 A2985 RMK T02100170 IEM_DS3505
ZGKL,2006-09-05 23:00,ZGKL 052300Z AUTO 02002KT 5SM 21/17 A2985 RMK T02100170 IEM_DS3505
ZGKL,2006-09-06 00:00,ZGKL 060000Z AUTO 04008KT 9SM 22/16 A2985 RMK 70002 SLP114 T02150162 52008 IEM_DS3505
ZGKL,2006-09-06 01:00,ZGKL 060100Z AUTO 05002KT 6SM 22/17 A2988 RMK T02200170 IEM_DS3505
ZGKL,2006-09-06 02:00,ZGKL 060200Z AUTO 04002KT 6SM 23/17 A2988 RMK T02300170 IEM_DS3505
ZGKL,2006-09-06 03:00,ZGKL 060300Z AUTO 07006KT 9SM 24/17 A2988 RMK SLP116 T02400170 52003 IEM_DS3505
ZGKL,2006-09-06 04:00,ZGKL 060400Z AUTO 06006KT 6SM 26/17 A2985 RMK T02600170 IEM_DS3505
ZGKL,2006-09-06 05:00,ZGKL 060500Z AUTO 05006KT 7SM 27/18 A2983 RMK T02700180 IEM_DS3505
ZGKL,2006-09-06 06:00,ZGKL 060600Z AUTO 02004KT 11SM 28/19 A2980 RMK SLP089 T02750188 57026 IEM_DS3505
ZGKL,2006-09-06 07:00,ZGKL 060700Z AUTO 11004KT 6SM 27/18 A2980 RMK T02700180 IEM_DS3505
ZGKL,2006-09-06 08:00,ZGKL 060800Z AUTO 08004KT 6SM 29/18 A2977 RMK T02900180 IEM_DS3505
ZGKL,2006-09-06 09:00,ZGKL 060900Z AUTO 36006KT 10SM 28/19 A2974 RMK SLP069 T02790189 57020 IEM_DS3505
ZGKL,2006-09-06 10:00,ZGKL 061000Z AUTO 18004KT 6SM 27/20 A2974 RMK T02700200 IEM_DS3505
ZGKL,2006-09-06 11:00,ZGKL 061100Z AUTO 15004KT 6SM 26/20 A2977 RMK T02600200 IEM_DS3505
ZGKL,2006-09-06 12:00,ZGKL 061200Z AUTO 02004KT 10SM 26/20 A2977 RMK SLP076 T02570198 52007 IEM_DS3505
ZGKL,2006-09-06 13:00,ZGKL 061300Z AUTO 36002KT 6SM 24/21 A2977 RMK T02400210 IEM_DS3505
ZGKL,2006-09-06 14:00,ZGKL 061400Z AUTO 06004KT 5SM 25/19 A2980 RMK T02500190 IEM_DS3505
ZGKL,2006-09-06 15:00,ZGKL 061500Z AUTO 02004KT 9SM 24/19 A2980 RMK SLP092 T02420191 52016 IEM_DS3505
ZGKL,2006-09-06 16:00,ZGKL 061600Z AUTO 00000KT 4SM 23/21 A2983 RMK T02300210 IEM_DS3505
ZGKL,2006-09-06 17:00,ZGKL 061700Z AUTO 30004KT 4SM 22/21 A2983 RMK T02200210 IEM_DS3505
ZGKL,2006-09-06 18:00,ZGKL 061800Z AUTO 04002KT 9SM 23/19 A2980 RMK SLP090 T02330192 57001 IEM_DS3505
ZGKL,2006-09-06 19:00,ZGKL 061900Z AUTO 30002KT 22/21 A2980 RMK T02200210 IEM_DS3505
ZGKL,2006-09-06 20:00,ZGKL 062000Z AUTO 00000KT 22/21 A2977 RMK T02200210 IEM_DS3505
ZGKL,2006-09-06 21:00,ZGKL 062100Z AUTO 02004KT 8SM 22/20 A2980 RMK SLP083 T02240196 57007 IEM_DS3505
ZGKL,2006-09-06 22:00,ZGKL 062200Z AUTO 30002KT 2SM 21/21 A2980 RMK T02100210 IEM_DS3505
ZGKL,2006-09-06 23:00,ZGKL 062300Z AUTO 32002KT 2 1/2SM 22/21 A2980 RMK T02200210 IEM_DS3505
ZGKL,2006-09-07 00:00,ZGKL 070000Z AUTO 36002KT 7SM 23/20 A2983 RMK SLP095 T02340198 52011 IEM_DS3505
ZGKL,2006-09-07 01:00,ZGKL 070100Z AUTO 11002KT 3SM 25/21 A2983 RMK T02500210 IEM_DS3505
ZGKL,2006-09-07 02:00,ZGKL 070200Z AUTO 15002KT 3SM 25/20 A2983 RMK T02500200 IEM_DS3505
ZGKL,2006-09-07 03:00,ZGKL 070300Z AUTO 09002KT 5SM 27/20 A2983 RMK SLP094 T02720198 54000 IEM_DS3505
ZGKL,2006-09-07 04:00,ZGKL 070400Z AUTO 02002KT 4SM 28/21 A2980 RMK T02800210 IEM_DS3505
ZGKL,2006-09-07 05:00,ZGKL 070500Z AUTO 08004KT 5SM 30/22 A2977 RMK T03000220 IEM_DS3505
ZGKL,2006-09-07 06:00,ZGKL 070600Z AUTO 04002KT 5SM 31/22 A2974 RMK SLP064 T03070215 57029 IEM_DS3505
ZGKL,2006-09-07 07:00,ZGKL 070700Z AUTO 31002KT 5SM 30/22 A2971 RMK T03000220 IEM_DS3505
ZGKL,2006-09-07 08:00,ZGKL 070800Z AUTO 30004KT 5SM 30/22 A2968 RMK T03000220 IEM_DS3505
ZGKL,2006-09-07 09:00,ZGKL 070900Z AUTO 20002KT 7SM 32/22 A2968 RMK SLP046 T03150225 57017 IEM_DS3505
ZGKL,2006-09-07 10:00,ZGKL 071000Z AUTO 35004KT 6SM 30/22 A2968 RMK T03000220 IEM_DS3505
ZGKL,2006-09-07 11:00,ZGKL 071100Z AUTO 34004KT 4SM 28/23 A2968 RMK T02800230 IEM_DS3505
ZGKL,2006-09-07 12:00,ZGKL 071200Z AUTO 07002KT 7SM 28/23 A2971 RMK SLP052 T02820233 52005 IEM_DS3505
ZGKL,2006-09-07 13:00,ZGKL 071300Z AUTO 34004KT 4SM 26/24 A2971 RMK T02600240 IEM_DS3505
ZGKL,2006-09-07 14:00,ZGKL 071400Z AUTO 30002KT 2 1/2SM 25/24 A2974 RMK T02500240 IEM_DS3505
ZGKL,2006-09-07 15:00,ZGKL 071500Z AUTO 04002KT 7SM 26/23 A2974 RMK SLP068 T02610234 52016 IEM_DS3505
ZGKL,2006-09-07 16:00,ZGKL 071600Z AUTO 33002KT 25/23 A2974 RMK T02500230 IEM_DS3505
ZGKL,2006-09-07 17:00,ZGKL 071700Z AUTO 29002KT 25/23 A2974 RMK T02500230 IEM_DS3505
ZGKL,2006-09-07 18:00,ZGKL 071800Z AUTO 02002KT 6SM 25/23 A2974 RMK SLP065 T02520229 57002 IEM_DS3505
ZGKL,2006-09-07 19:00,ZGKL 071900Z AUTO 33002KT 24/23 A2974 RMK T02400230 IEM_DS3505
ZGKL,2006-09-07 20:00,ZGKL 072000Z AUTO 27004KT 24/23 A2974 RMK T02400230 IEM_DS3505
ZGKL,2006-09-07 21:00,ZGKL 072100Z AUTO 09002KT 6SM 25/23 A2974 RMK SLP063 T02500231 57002 IEM_DS3505
ZGKL,2006-09-07 22:00,ZGKL 072200Z AUTO 24006KT 1 1/2SM 24/23 A2977 RMK T02400230 IEM_DS3505
ZGKL,2006-09-07 23:00,ZGKL 072300Z AUTO 04002KT 5SM 24/22 A2977 RMK T02400220 IEM_DS3505
ZGKL,2006-09-08 00:00,ZGKL 080000Z AUTO 07002KT 5SM 26/24 A2980 RMK 60000 70000 SLP083 T02570237 52019 IEM_DS3505
ZGKL,2006-09-08 01:00,ZGKL 080100Z AUTO 00000KT 4SM 27/24 A2980 RMK T02700240 IEM_DS3505
ZGKL,2006-09-08 02:00,ZGKL 080200Z AUTO 30002KT 4SM 28/24 A2980 RMK T02800240 IEM_DS3505
ZGKL,2006-09-08 03:00,ZGKL 080300Z AUTO 09002KT 5SM 30/24 A2980 RMK SLP083 T02980240 54000 IEM_DS3505
ZGKL,2006-09-08 04:00,ZGKL 080400Z AUTO 26004KT 4SM 31/24 A2980 RMK T03100240 IEM_DS3505
ZGKL,2006-09-08 05:00,ZGKL 080500Z AUTO 21002KT 5SM 31/24 A2977 RMK T03100240 IEM_DS3505
ZGKL,2006-09-08 06:00,ZGKL 080600Z AUTO 27006KT 6SM 33/23 A2974 RMK 60000 SLP065 T03280229 57017 IEM_DS3505
ZGKL,2006-09-08 07:00,ZGKL 080700Z AUTO 17006KT 6SM 32/23 A2971 RMK T03200230 IEM_DS3505
ZGKL,2006-09-08 08:00,ZGKL 080800Z AUTO 18004KT 7SM 32/23 A2971 RMK T03200230 IEM_DS3505
ZGKL,2006-09-08 09:00,ZGKL 080900Z AUTO 27010KT 8SM 30/23 A2974 RMK SLP059 T02980230 57006 IEM_DS3505
ZGKL,2006-09-08 10:00,ZGKL 081000Z AUTO 34006KT 6SM 26/24 A2971 RMK T02600240 IEM_DS3505
ZGKL,2006-09-08 11:00,ZGKL 081100Z AUTO 01004KT 6SM 26/24 A2977 RMK T02600240 IEM_DS3505
ZGKL,2006-09-08 12:00,ZGKL 081200Z AUTO 04014KT 9SM 28/22 A2980 RMK SLP084 T02750218 52024 IEM_DS3505
ZGKL,2006-09-08 13:00,ZGKL 081300Z AUTO 05017KT 7SM 25/21 A2983 RMK T02500210 IEM_DS3505
ZGKL,2006-09-08 14:00,ZGKL 081400Z AUTO 07006KT 7SM 24/21 A2991 RMK T02400210 IEM_DS3505
ZGKL,2006-09-08 15:00,ZGKL 081500Z AUTO 36010KT 11SM 22/19 A2994 RMK SLP133 T02250191 52047 IEM_DS3505
ZGKL,2006-09-08 16:00,ZGKL 081600Z AUTO 05010KT 7SM 21/19 A2994 RMK T02100190 IEM_DS3505
ZGKL,2006-09-08 17:00,ZGKL 081700Z AUTO 01006KT 7SM 21/19 A2994 RMK T02100190 IEM_DS3505
ZGKL,2006-09-08 18:00,ZGKL 081800Z AUTO 36010KT 10SM 21/18 A2994 RMK 60000 SLP141 T02120178 52009 IEM_DS3505
ZGKL,2006-09-08 19:00,ZGKL 081900Z AUTO 02002KT 21/19 A2994 RMK T02100190 IEM_DS3505
ZGKL,2006-09-08 21:00,ZGKL 082100Z AUTO 36010KT 10SM 21/17 A2994 RMK 70001 SLP144 T02060174 52002 IEM_DS3505
ZGKL,2006-09-08 22:00,ZGKL 082200Z AUTO 07008KT 7SM 20/18 A2997 RMK T02000180 IEM_DS3505
ZGKL,2006-09-08 23:00,ZGKL 082300Z AUTO 06008KT 7SM 21/17 A2997 RMK T02100170 IEM_DS3505
ZGKL,2006-09-09 00:00,ZGKL 090000Z AUTO 02014KT 10SM 21/16 A3000 RMK 70001 SLP161 T02110165 52016 IEM_DS3505
ZGKL,2006-09-09 01:00,ZGKL 090100Z AUTO 06008KT 7SM 21/17 A3003 RMK T02100170 IEM_DS3505
ZGKL,2006-09-09 02:00,ZGKL 090200Z AUTO 04010KT 7SM 22/17 A3003 RMK T02200170 IEM_DS3505
ZGKL,2006-09-09 03:00,ZGKL 090300Z AUTO 02012KT 9SM 22/16 A3006 RMK SLP178 T02230159 52015 IEM_DS3505
ZGKL,2006-09-09 04:00,ZGKL 090400Z AUTO 05012KT 7SM 22/15 A3006 RMK T02200150 IEM_DS3505
ZGKL,2006-09-09 05:00,ZGKL 090500Z AUTO 05010KT 7SM 22/16 A3003 RMK T02200160 IEM_DS3505
ZGKL,2006-09-09 06:00,ZGKL 090600Z AUTO 02012KT 9SM 22/15 A3006 RMK SLP172 T02170151 57006 IEM_DS3505
ZGKL,2006-09-09 07:00,ZGKL 090700Z AUTO 34008KT 7SM 20/17 A3003 RMK T02000170 IEM_DS3505
ZGKL,2006-09-09 08:00,ZGKL 090800Z AUTO 32006KT 7SM 19/17 A3003 RMK T01900170 IEM_DS3505
ZGKL,2006-09-09 09:00,ZGKL 090900Z AUTO 02010KT 9SM 21/15 A3003 RMK SLP172 T02120148 57001 IEM_DS3505
ZGKL,2006-09-09 10:00,ZGKL 091000Z AUTO 35008KT 7SM 19/17 A3003 RMK T01900170 IEM_DS3505
ZGKL,2006-09-09 11:00,ZGKL 091100Z AUTO 33004KT 7SM 19/17 A3006 RMK T01900170 IEM_DS3505
ZGKL,2006-09-09 12:00,ZGKL 091200Z AUTO 02010KT 9SM 21/15 A3006 RMK 60000 SLP184 T02060149 52012 IEM_DS3505
ZGKL,2006-09-09 13:00,ZGKL 091300Z AUTO 35006KT 6SM 19/17 A3009 RMK T01900170 IEM_DS3505
ZGKL,2006-09-09 14:00,ZGKL 091400Z AUTO 33004KT 6SM 19/17 A3012 RMK T01900170 IEM_DS3505
ZGKL,2006-09-09 15:00,ZGKL 091500Z AUTO 04010KT 8SM 21/14 A3012 RMK SLP199 T02080140 52015 IEM_DS3505
ZGKL,2006-09-09 16:00,ZGKL 091600Z AUTO 35002KT 19/17 A3012 RMK T01900170 IEM_DS3505
ZGKL,2006-09-09 17:00,ZGKL 091700Z AUTO 05006KT 20/14 A3012 RMK T02000140 IEM_DS3505
ZGKL,2006-09-09 18:00,ZGKL 091800Z AUTO 36010KT 8SM 20/13 A3009 RMK SLP189 T01990134 57010 IEM_DS3505
ZGKL,2006-09-09 19:00,ZGKL 091900Z AUTO 00000KT 19/16 A3009 RMK T01900160 IEM_DS3505
ZGKL,2006-09-09 20:00,ZGKL 092000Z AUTO 00000KT 19/17 A3006 RMK T01900170 IEM_DS3505
ZGKL,2006-09-09 21:00,ZGKL 092100Z AUTO 02010KT 8SM 20/12 A3006 RMK 70000 SLP184 T02030125 57005 IEM_DS3505
ZGKL,2006-09-09 22:00,ZGKL 092200Z AUTO 29002KT 6SM 19/17 A3009 RMK T01900170 IEM_DS3505
ZGKL,2006-09-09 23:00,ZGKL 092300Z AUTO 33002KT 6SM 19/17 A3006 RMK T01900170 IEM_DS3505
ZGKL,2006-09-10 00:00,ZGKL 100000Z AUTO 02010KT 10SM 21/12 A3009 RMK 70000 SLP191 T02060115 52007 IEM_DS3505
ZGKL,2006-09-10 01:00,ZGKL 100100Z AUTO 02006KT 6SM 21/13 A3009 RMK T02100130 IEM_DS3505
ZGKL,2006-09-10 02:00,ZGKL 100200Z AUTO 03008KT 6SM 22/12 A3012 RMK T02200120 IEM_DS3505
ZGKL,2006-09-10 03:00,ZGKL 100300Z AUTO 02010KT 11SM 22/11 A3009 RMK SLP192 T02160113 52001 IEM_DS3505
ZGKL,2006-09-10 04:00,ZGKL 100400Z AUTO 03012KT 6SM 23/11 A3009 RMK T02300110 IEM_DS3505
ZGKL,2006-09-10 05:00,ZGKL 100500Z AUTO 04010KT 6SM 23/11 A3006 RMK T02300110 IEM_DS3505
ZGKL,2006-09-10 06:00,ZGKL 100600Z AUTO 36010KT 14SM 23/11 A3003 RMK SLP173 T02280109 57018 IEM_DS3505
ZGKL,2006-09-10 07:00,ZGKL 100700Z AUTO 05008KT 6SM 23/11 A3003 RMK T02300110 IEM_DS3505
ZGKL,2006-09-10 08:00,ZGKL 100800Z AUTO 06008KT 6SM 23/13 A3003 RMK T02300130 IEM_DS3505
ZGKL,2006-09-10 09:00,ZGKL 100900Z AUTO 02008KT 14SM 23/11 A3000 RMK SLP160 T02300111 57013 IEM_DS3505
ZGKL,2006-09-10 10:00,ZGKL 101000Z AUTO 06006KT 6SM 22/13 A3000 RMK T02200130 IEM_DS3505
ZGKL,2006-09-10 11:00,ZGKL 101100Z AUTO 05004KT 6SM 22/13 A3003 RMK T02200130 IEM_DS3505
ZGKL,2006-09-10 12:00,ZGKL 101200Z AUTO 02008KT 11SM 21/11 A3003 RMK SLP172 T02120110 52011 IEM_DS3505
ZGKL,2006-09-10 13:00,ZGKL 101300Z AUTO 06006KT 6SM 21/12 A3006 RMK T02100120 IEM_DS3505
ZGKL,2006-09-10 14:00,ZGKL 101400Z AUTO 05006KT 5SM 20/12 A3006 RMK T02000120 IEM_DS3505
ZGKL,2006-09-10 15:00,ZGKL 101500Z AUTO 02008KT 9SM 20/10 A3006 RMK SLP178 T01960098 52006 IEM_DS3505
ZGKL,2006-09-10 16:00,ZGKL 101600Z AUTO 06012KT 5SM 19/10 A3003 RMK T01900100 IEM_DS3505
ZGKL,2006-09-10 17:00,ZGKL 101700Z AUTO 04008KT 19/10 A3003 RMK T01900100 IEM_DS3505
ZGKL,2006-09-10 18:00,ZGKL 101800Z AUTO 02008KT 9SM 19/11 A3000 RMK SLP165 T01860107 57013 IEM_DS3505
ZGKL,2006-09-10 19:00,ZGKL 101900Z AUTO 00000KT 18/12 A3000 RMK T01800120 IEM_DS3505
ZGKL,2006-09-10 21:00,ZGKL 102100Z AUTO 02008KT 9SM 19/10 A2997 RMK SLP153 T01900103 57011 IEM_DS3505
ZGKL,2006-09-10 22:00,ZGKL 102200Z AUTO 32002KT 5SM 18/15 A2997 RMK T01800150 IEM_DS3505
ZGKL,2006-09-10 23:00,ZGKL 102300Z AUTO 33002KT 6SM 18/14 A2997 RMK T01800140 IEM_DS3505
ZGKL,2006-09-11 00:00,ZGKL 110000Z AUTO 02012KT 11SM 20/10 A3000 RMK SLP159 T01970099 52005 IEM_DS3505
ZGKL,2006-09-11 01:00,ZGKL 110100Z AUTO 04004KT 6SM 21/11 A3000 RMK T02100110 IEM_DS3505
ZGKL,2006-09-11 02:00,ZGKL 110200Z AUTO 05008KT 6SM 23/10 A3000 RMK T02300100 IEM_DS3505
ZGKL,2006-09-11 03:00,ZGKL 110300Z AUTO 02012KT 11SM 23/10 A3000 RMK SLP162 T02280103 52004 IEM_DS3505
ZGKL,2006-09-11 04:00,ZGKL 110400Z AUTO 06008KT 6SM 24/11 A3000 RMK T02400110 IEM_DS3505
ZGKL,2006-09-11 05:00,ZGKL 110500Z AUTO 03012KT 6SM 25/10 A2997 RMK T02500100 IEM_DS3505
ZGKL,2006-09-11 06:00,ZGKL 110600Z AUTO 02014KT 12SM 25/11 A2994 RMK SLP142 T02510106 57019 IEM_DS3505
ZGKL,2006-09-11 07:00,ZGKL 110700Z AUTO 04012KT 6SM 27/09 A2994 RMK T02700090 IEM_DS3505
ZGKL,2006-09-11 08:00,ZGKL 110800Z AUTO 03016KT 6SM 27/09 A2991 RMK T02700090 IEM_DS3505
ZGKL,2006-09-11 09:00,ZGKL 110900Z AUTO 02008KT 12SM 25/11 A2991 RMK SLP133 T02460108 57009 IEM_DS3505
ZGKL,2006-09-11 10:00,ZGKL 111000Z AUTO 05012KT 6SM 25/10 A2991 RMK T02500100 IEM_DS3505
ZGKL,2006-09-11 11:00,ZGKL 111100Z AUTO 04010KT 6SM 24/11 A2991 RMK T02400110 IEM_DS3505
ZGKL,2006-09-11 12:00,ZGKL 111200Z AUTO 02008KT 10SM 22/13 A2994 RMK SLP143 T02200126 52009 IEM_DS3505
ZGKL,2006-09-11 13:00,ZGKL 111300Z AUTO 02008KT 6SM 22/12 A2997 RMK T02200120 IEM_DS3505
ZGKL,2006-09-11 14:00,ZGKL 111400Z AUTO 02010KT 6SM 21/12 A2997 RMK T02100120 IEM_DS3505
ZGKL,2006-09-11 15:00,ZGKL 111500Z AUTO 02008KT 10SM 20/11 A2997 RMK SLP154 T02050114 52011 IEM_DS3505
ZGKL,2006-09-11 16:00,ZGKL 111600Z AUTO 03004KT 6SM 20/12 A3000 RMK T02000120 IEM_DS3505
ZGKL,2006-09-11 17:00,ZGKL 111700Z AUTO 33002KT 17/14 A2997 RMK T01700140 IEM_DS3505
ZGKL,2006-09-11 18:00,ZGKL 111800Z AUTO 02006KT 9SM 20/11 A3000 RMK SLP155 T01960106 52002 IEM_DS3505
ZGKL,2006-09-11 19:00,ZGKL 111900Z AUTO 34004KT 16/14 A2997 RMK T01600140 IEM_DS3505
ZGKL,2006-09-11 20:00,ZGKL 112000Z AUTO 32002KT 16/14 A2997 RMK T01600140 IEM_DS3505
ZGKL,2006-09-11 21:00,ZGKL 112100Z AUTO 36008KT 8SM 20/12 A2997 RMK SLP150 T01980116 57005 IEM_DS3505
ZGKL,2006-09-11 22:00,ZGKL 112200Z AUTO 34002KT 6SM 17/14 A2997 RMK T01700140 IEM_DS3505
ZGKL,2006-09-11 23:00,ZGKL 112300Z AUTO 34004KT 6SM 17/14 A2997 RMK T01700140 IEM_DS3505
ZGKL,2006-09-12 00:00,ZGKL 120000Z AUTO 02008KT 9SM 21/12 A3000 RMK SLP160 T02110123 52009 IEM_DS3505
ZGKL,2006-09-12 01:00,ZGKL 120100Z AUTO 04008KT 6SM 23/13 A3000 RMK T02300130 IEM_DS3505
ZGKL,2006-09-12 02:00,ZGKL 120200Z AUTO 05008KT 6SM 24/12 A3000 RMK T02400120 IEM_DS3505
ZGKL,2006-09-12 03:00,ZGKL 120300Z AUTO 04012KT 12SM 24/13 A3000 RMK SLP157 T02440127 57002 IEM_DS3505
ZGKL,2006-09-12 04:00,ZGKL 120400Z AUTO 06010KT 6SM 26/13 A2997 RMK T02600130 IEM_DS3505
ZGKL,2006-09-12 05:00,ZGKL 120500Z AUTO 06008KT 7SM 27/13 A2994 RMK T02700130 IEM_DS3505
ZGKL,2006-09-12 06:00,ZGKL 120600Z AUTO 02010KT 14SM 28/14 A2991 RMK SLP137 T02770140 57019 IEM_DS3505
ZGKL,2006-09-12 07:00,ZGKL 120700Z AUTO 07012KT 6SM 28/14 A2991 RMK T02800140 IEM_DS3505
ZGKL,2006-09-12 08:00,ZGKL 120800Z AUTO 07014KT 6SM 28/15 A2991 RMK T02800150 IEM_DS3505
ZGKL,2006-09-12 09:00,ZGKL 120900Z AUTO 02010KT 14SM 26/15 A2991 RMK SLP138 T02590150 54000 IEM_DS3505
ZGKL,2006-09-12 10:00,ZGKL 121000Z AUTO 06016KT 6SM 25/14 A2994 RMK T02500140 IEM_DS3505
ZGKL,2006-09-12 11:00,ZGKL 121100Z AUTO 06014KT 7SM 24/15 A2997 RMK T02400150 IEM_DS3505
ZGKL,2006-09-12 12:00,ZGKL 121200Z AUTO 04006KT 11SM 23/15 A3000 RMK SLP160 T02320150 52021 IEM_DS3505
ZGKL,2006-09-12 13:00,ZGKL 121300Z AUTO 06016KT 6SM 23/15 A3000 RMK T02300150 IEM_DS3505
ZGKL,2006-09-12 14:00,ZGKL 121400Z AUTO 05012KT 6SM 23/15 A3003 RMK T02300150 IEM_DS3505
ZGKL,2006-09-12 15:00,ZGKL 121500Z AUTO 36010KT 10SM 22/16 A3003 RMK SLP170 T02190162 52011 IEM_DS3505
ZGKL,2006-09-12 16:00,ZGKL 121600Z AUTO 08010KT 22/16 A3003 RMK T02200160 IEM_DS3505
ZGKL,2006-09-12 17:00,ZGKL 121700Z AUTO 07010KT 21/16 A3003 RMK T02100160 IEM_DS3505
ZGKL,2006-09-12 18:00,ZGKL 121800Z AUTO 02006KT 10SM 21/15 A3003 RMK SLP165 T02130152 57004 IEM_DS3505
ZGKL,2006-09-12 19:00,ZGKL 121900Z AUTO 04006KT 21/15 A3000 RMK T02100150 IEM_DS3505
ZGKL,2006-09-12 20:00,ZGKL 122000Z AUTO 35002KT 20/17 A3000 RMK T02000170 IEM_DS3505
ZGKL,2006-09-12 21:00,ZGKL 122100Z AUTO 36008KT 10SM 22/15 A3000 RMK SLP157 T02150146 57009 IEM_DS3505
ZGKL,2006-09-12 22:00,ZGKL 122200Z AUTO 34002KT 3SM 20/17 A3000 RMK T02000170 IEM_DS3505
ZGKL,2006-09-12 23:00,ZGKL 122300Z AUTO 02002KT 6SM 20/18 A3000 RMK T02000180 IEM_DS3505
ZGKL,2006-09-13 00:00,ZGKL 130000Z AUTO 02010KT 9SM 22/15 A3000 RMK SLP164 T02190150 52007 IEM_DS3505
ZGKL,2006-09-13 01:00,ZGKL 130100Z AUTO 05006KT 6SM 23/15 A3003 RMK T02300150 IEM_DS3505
ZGKL,2006-09-13 02:00,ZGKL 130200Z AUTO 05012KT 6SM 24/15 A3003 RMK T02400150 IEM_DS3505
ZGKL,2006-09-13 03:00,ZGKL 130300Z AUTO 02012KT 9SM 23/16 A3003 RMK SLP168 T02330156 52004 IEM_DS3505
ZGKL,2006-09-13 04:00,ZGKL 130400Z AUTO 06014KT 6SM 25/16 A3000 RMK T02500160 IEM_DS3505
ZGKL,2006-09-13 05:00,ZGKL 130500Z AUTO 05012KT 6SM 25/15 A3000 RMK T02500150 IEM_DS3505
ZGKL,2006-09-13 06:00,ZGKL 130600Z AUTO 04008KT 8SM 25/16 A2997 RMK SLP149 T02510160 57019 IEM_DS3505
ZGKL,2006-09-13 07:00,ZGKL 130700Z AUTO 05012KT 6SM 26/15 A2994 RMK T02600150 IEM_DS3505
ZGKL,2006-09-13 08:00,ZGKL 130800Z AUTO 05012KT 5SM 25/16 A2994 RMK T02500160 IEM_DS3505
ZGKL,2006-09-13 09:00,ZGKL 130900Z AUTO 07006KT 6SM 24/17 A2994 RMK SLP147 T02360166 57002 IEM_DS3505
ZGKL,2006-09-13 10:00,ZGKL 131000Z AUTO 07012KT 3SM 21/17 A2997 RMK T02100170 IEM_DS3505
ZGKL,2006-09-13 11:00,ZGKL 131100Z AUTO 05008KT 1 1/4SM 20/18 A2997 RMK T02000180 IEM_DS3505
ZGKL,2006-09-13 12:00,ZGKL 131200Z AUTO 02006KT 5SM 21/18 A3000 RMK 60003 SLP157 T02080178 52009 IEM_DS3505
ZGKL,2006-09-13 13:00,ZGKL 131300Z AUTO 34002KT 2SM 20/19 A3000 RMK T02000190 IEM_DS3505
ZGKL,2006-09-13 14:00,ZGKL 131400Z AUTO 33002KT 2SM 20/19 A3000 RMK T02000190 IEM_DS3505
ZGKL,2006-09-13 15:00,ZGKL 131500Z AUTO 02006KT 5SM 21/17 A3000 RMK SLP159 T02100174 52002 IEM_DS3505
ZGKL,2006-09-13 16:00,ZGKL 131600Z AUTO 00000KT 2SM 20/19 A3000 RMK T02000190 IEM_DS3505
ZGKL,2006-09-13 17:00,ZGKL 131700Z AUTO 02002KT 2SM 20/19 A2997 RMK T02000190 IEM_DS3505
ZGKL,2006-09-13 18:00,ZGKL 131800Z AUTO 02008KT 4SM 21/17 RMK 60000 SLP151 T02060174 57007 IEM_DS3505
ZGKL,2006-09-13 19:00,ZGKL 131900Z AUTO 05002KT 20/18 A2997 RMK T02000180 IEM_DS3505
ZGKL,2006-09-13 20:00,ZGKL 132000Z AUTO 34004KT 19/18 A2994 RMK T01900180 IEM_DS3505
ZGKL,2006-09-13 21:00,ZGKL 132100Z AUTO 02008KT 4SM 20/18 A2994 RMK 70007 SLP144 T01990177 57008 IEM_DS3505
ZGKL,2006-09-13 22:00,ZGKL 132200Z AUTO 35004KT 2SM 19/18 A2994 RMK T01900180 IEM_DS3505
ZGKL,2006-09-13 23:00,ZGKL 132300Z AUTO 35004KT 1 1/4SM 19/19 A2997 RMK T01900190 IEM_DS3505
ZGKL,2006-09-14 00:00,ZGKL 140000Z AUTO 36008KT 4SM 19/18 A2997 RMK 60012 70017 SLP154 T01930183 52009 IEM_DS3505
ZGKL,2006-09-14 01:00,ZGKL 140100Z AUTO 35006KT 3SM 20/19 A2997 RMK T02000190 IEM_DS3505
ZGKL,2006-09-14 02:00,ZGKL 140200Z AUTO 33004KT 4SM 20/19 A3000 RMK T02000190 IEM_DS3505
ZGKL,2006-09-14 03:00,ZGKL 140300Z AUTO 36008KT 4SM 20/19 A3000 RMK SLP158 T02020194 52004 IEM_DS3505
ZGKL,2006-09-14 04:00,ZGKL 140400Z AUTO 01008KT 6SM 21/19 A2997 RMK T02100190 IEM_DS3505
ZGKL,2006-09-14 05:00,ZGKL 140500Z AUTO 01006KT 7SM 22/19 A2997 RMK T02200190 IEM_DS3505
ZGKL,2006-09-14 06:00,ZGKL 140600Z AUTO 02008KT 7SM 22/19 A2994 RMK 60016 SLP137 T02210189 57020 IEM_DS3505
ZGKL,2006-09-14 07:00,ZGKL 140700Z AUTO 02006KT 7SM 23/19 A2991 RMK T02300190 IEM_DS3505
ZGKL,2006-09-14 08:00,ZGKL 140800Z AUTO 02006KT 7SM 23/19 A2991 RMK T02300190 IEM_DS3505
ZGKL,2006-09-14 09:00,ZGKL 140900Z AUTO 36010KT 9SM 22/18 A2991 RMK SLP125 T02200184 57012 IEM_DS3505
ZGKL,2006-09-14 10:00,ZGKL 141000Z AUTO 02006KT 7SM 22/19 A2991 RMK T02200190 IEM_DS3505
ZGKL,2006-09-14 11:00,ZGKL 141100Z AUTO 35004KT 7SM 22/20 A2991 RMK T02200200 IEM_DS3505
ZGKL,2006-09-14 12:00,ZGKL 141200Z AUTO 02006KT 9SM 21/18 A2994 RMK SLP136 T02130183 52011 IEM_DS3505
ZGKL,2006-09-14 13:00,ZGKL 141300Z AUTO 04002KT 5SM 21/18 A2994 RMK T02100180 IEM_DS3505
ZGKL,2006-09-14 14:00,ZGKL 141400Z AUTO 35002KT 5SM 21/19 A2997 RMK T02100190 IEM_DS3505
ZGKL,2006-09-14 15:00,ZGKL 141500Z AUTO 36008KT 10SM 21/18 A2997 RMK SLP145 T02130179 52009 IEM_DS3505
ZGKL,2006-09-14 16:00,ZGKL 141600Z AUTO 00000KT 4SM 21/19 A2994 RMK T02100190 IEM_DS3505
ZGKL,2006-09-14 17:00,ZGKL 141700Z AUTO 02002KT 4SM 21/19 A2994 RMK T02100190 IEM_DS3505
ZGKL,2006-09-14 18:00,ZGKL 141800Z AUTO 02006KT 9SM 21/18 A2994 RMK SLP139 T02110179 57006 IEM_DS3505
ZGKL,2006-09-14 19:00,ZGKL 141900Z AUTO 32002KT 21/20 A2994 RMK T02100200 IEM_DS3505
ZGKL,2006-09-14 20:00,ZGKL 142000Z AUTO 34002KT 21/20 A2991 RMK T02100200 IEM_DS3505
ZGKL,2006-09-14 21:00,ZGKL 142100Z AUTO 02008KT 9SM 21/18 A2991 RMK 70026 SLP134 T02070177 57005 IEM_DS3505
ZGKL,2006-09-14 22:00,ZGKL 142200Z AUTO 02004KT 4SM 21/18 A2991 RMK T02100180 IEM_DS3505
ZGKL,2006-09-14 23:00,ZGKL 142300Z AUTO 32002KT 4SM 21/19 A2994 RMK T02100190 IEM_DS3505
ZGKL,2006-09-15 00:00,ZGKL 150000Z AUTO 02008KT 5SM 21/17 A2994 RMK 70017 SLP145 T02110171 52011 IEM_DS3505
ZGKL,2006-09-15 01:00,ZGKL 150100Z AUTO 34004KT 7SM 22/19 A2994 RMK T02200190 IEM_DS3505
ZGKL,2006-09-15 02:00,ZGKL 150200Z AUTO 02004KT 7SM 23/18 A2997 RMK T02300180 IEM_DS3505
ZGKL,2006-09-15 03:00,ZGKL 150300Z AUTO 02012KT 5SM 22/18 A2997 RMK SLP152 T02240175 52007 IEM_DS3505
ZGKL,2006-09-15 04:00,ZGKL 150400Z AUTO 03010KT 7SM 24/17 A2997 RMK T02400170 IEM_DS3505
ZGKL,2006-09-15 05:00,ZGKL 150500Z AUTO 05010KT 7SM 25/17 A2994 RMK T02500170 IEM_DS3505
ZGKL,2006-09-15 06:00,ZGKL 150600Z AUTO 36008KT 7SM 24/18 A2994 RMK SLP134 T02380182 57017 IEM_DS3505
ZGKL,2006-09-15 07:00,ZGKL 150700Z AUTO 05010KT 7SM 24/17 A2991 RMK T02400170 IEM_DS3505
ZGKL,2006-09-15 08:00,ZGKL 150800Z AUTO 05008KT 7SM 24/18 A2991 RMK T02400180 IEM_DS3505
ZGKL,2006-09-15 09:00,ZGKL 150900Z AUTO 02006KT 7SM 23/18 A2991 RMK SLP127 T02280179 57007 IEM_DS3505
ZGKL,2006-09-15 10:00,ZGKL 151000Z AUTO 04010KT 4SM 23/17 A2991 RMK T02300170 IEM_DS3505
ZGKL,2006-09-15 11:00,ZGKL 151100Z AUTO 04008KT 4SM 22/17 A2991 RMK T02200170 IEM_DS3505
ZGKL,2006-09-15 12:00,ZGKL 151200Z AUTO 36006KT 6SM 22/18 A2994 RMK SLP137 T02160178 52009 IEM_DS3505
ZGKL,2006-09-15 13:00,ZGKL 151300Z AUTO 34006KT 3SM 21/18 A2997 RMK T02100180 IEM_DS3505
ZGKL,2006-09-15 14:00,ZGKL 151400Z AUTO 01004KT 3SM 20/18 A2994 RMK T02000180 IEM_DS3505
ZGKL,2006-09-15 15:00,ZGKL 151500Z AUTO 02006KT 5SM 21/18 A2997 RMK SLP146 T02110175 52009 IEM_DS3505
ZGKL,2006-09-15 16:00,ZGKL 151600Z AUTO 00000KT 2SM 19/18 A2997 RMK T01900180 IEM_DS3505
ZGKL,2006-09-15 17:00,ZGKL 151700Z AUTO 31002KT 19/18 A2997 RMK T01900180 IEM_DS3505
ZGKL,2006-09-15 18:00,ZGKL 151800Z AUTO 36006KT 4SM 21/17 A2997 RMK SLP147 T02140174 52002 IEM_DS3505
ZGKL,2006-09-15 19:00,ZGKL 151900Z AUTO 31002KT A2997 RMK IEM_DS3505
ZGKL,2006-09-15 20:00,ZGKL 152000Z AUTO 32002KT 19/18 A2994 RMK T01900180 IEM_DS3505
ZGKL,2006-09-15 21:00,ZGKL 152100Z AUTO 02004KT 4SM A2994 RMK SLP138 57009 IEM_DS3505
ZGKL,2006-09-15 22:00,ZGKL 152200Z AUTO 03004KT 1 1/2SM 19/18 A2994 RMK T01900180 IEM_DS3505
ZGKL,2006-09-15 23:00,ZGKL 152300Z AUTO 33004KT 2SM 19/18 A2994 RMK T01900180 IEM_DS3505
ZGKL,2006-09-16 00:00,ZGKL 160000Z AUTO 04002KT 6SM 22/18 A2994 RMK SLP149 T02150175 52010 IEM_DS3505
ZGKL,2006-09-16 01:00,ZGKL 160100Z AUTO 31002KT 4SM 23/19 A3000 RMK T02300190 IEM_DS3505
ZGKL,2006-09-16 02:00,ZGKL 160200Z AUTO 03008KT 4SM 25/16 A2997 RMK T02500160 IEM_DS3505
ZGKL,2006-09-16 03:00,ZGKL 160300Z AUTO 02012KT 7SM 26/16 A3000 RMK SLP150 T02580161 52002 IEM_DS3505
ZGKL,2006-09-16 04:00,ZGKL 160400Z AUTO 01010KT 6SM 28/16 A2997 RMK T02800160 IEM_DS3505
ZGKL,2006-09-16 05:00,ZGKL 160500Z AUTO 03010KT 6SM 28/15 A2994 RMK T02800150 IEM_DS3505
ZGKL,2006-09-16 06:00,ZGKL 160600Z AUTO 36006KT 11SM 29/15 A2991 RMK SLP126 T02880146 57022 IEM_DS3505
ZGKL,2006-09-16 07:00,ZGKL 160700Z AUTO 08008KT 6SM 29/16 A2988 RMK T02900160 IEM_DS3505
ZGKL,2006-09-16 08:00,ZGKL 160800Z AUTO 04008KT 6SM 29/16 A2988 RMK T02900160 IEM_DS3505
ZGKL,2006-09-16 09:00,ZGKL 160900Z AUTO 02004KT 12SM 29/15 A2988 RMK SLP112 T02880150 57014 IEM_DS3505
ZGKL,2006-09-16 10:00,ZGKL 161000Z AUTO 05008KT 6SM 28/15 A2988 RMK T02800150 IEM_DS3505
ZGKL,2006-09-16 11:00,ZGKL 161100Z AUTO 04006KT 6SM 26/16 A2988 RMK T02600160 IEM_DS3505
ZGKL,2006-09-16 12:00,ZGKL 161200Z AUTO 02004KT 9SM 24/17 A2991 RMK SLP128 T02430166 52014 IEM_DS3505
ZGKL,2006-09-16 13:00,ZGKL 161300Z AUTO 33004KT 6SM 23/18 A2994 RMK T02300180 IEM_DS3505
ZGKL,2006-09-16 14:00,ZGKL 161400Z AUTO 34002KT 5SM 22/18 A2997 RMK T02200180 IEM_DS3505
ZGKL,2006-09-16 15:00,ZGKL 161500Z AUTO 02002KT 9SM 22/16 A2994 RMK SLP145 T02250161 52018 IEM_DS3505
ZGKL,2006-09-16 16:00,ZGKL 161600Z AUTO 33004KT 5SM 20/18 A2994 RMK T02000180 IEM_DS3505
ZGKL,2006-09-16 17:00,ZGKL 161700Z AUTO 34004KT 5SM 19/18 A2994 RMK T01900180 IEM_DS3505
ZGKL,2006-09-16 18:00,ZGKL 161800Z AUTO 04002KT 9SM 20/16 A2994 RMK SLP137 T01980164 57008 IEM_DS3505
ZGKL,2006-09-16 19:00,ZGKL 161900Z AUTO 35004KT 18/17 A2991 RMK T01800170 IEM_DS3505
ZGKL,2006-09-16 20:00,ZGKL 162000Z AUTO 31004KT 17/17 A2991 RMK T01700170 IEM_DS3505
ZGKL,2006-09-16 21:00,ZGKL 162100Z AUTO 36002KT 8SM 18/16 A2991 RMK SLP133 T01810159 57004 IEM_DS3505
ZGKL,2006-09-16 22:00,ZGKL 162200Z AUTO 35004KT 3SM 17/16 A2994 RMK T01700160 IEM_DS3505
ZGKL,2006-09-16 23:00,ZGKL 162300Z AUTO 35004KT 6SM 17/16 A2994 RMK T01700160 IEM_DS3505
ZGKL,2006-09-17 00:00,ZGKL 170000Z AUTO 02002KT 9SM 20/16 A2997 RMK SLP147 T01990158 52013 IEM_DS3505
ZGKL,2006-09-17 01:00,ZGKL 170100Z AUTO 34002KT 6SM 21/17 A2997 RMK T02100170 IEM_DS3505
ZGKL,2006-09-17 02:00,ZGKL 170200Z AUTO 00000KT 6SM 24/17 A2997 RMK T02400170 IEM_DS3505
ZGKL,2006-09-17 03:00,ZGKL 170300Z AUTO 02008KT 9SM 27/15 A2997 RMK SLP148 T02660147 52002 IEM_DS3505
ZGKL,2006-09-17 04:00,ZGKL 170400Z AUTO 07012KT 7SM 28/13 A2994 RMK T02800130 IEM_DS3505
ZGKL,2006-09-17 05:00,ZGKL 170500Z AUTO 03014KT 7SM 29/11 A2991 RMK T02900110 IEM_DS3505
ZGKL,2006-09-17 06:00,ZGKL 170600Z AUTO 36008KT 11SM 29/11 A2988 RMK SLP118 T02940110 57029 IEM_DS3505
ZGKL,2006-09-17 07:00,ZGKL 170700Z AUTO 06012KT 6SM 30/11 A2985 RMK T03000110 IEM_DS3505
ZGKL,2006-09-17 08:00,ZGKL 170800Z AUTO 07008KT 6SM 30/13 A2985 RMK T03000130 IEM_DS3505
ZGKL,2006-09-17 09:00,ZGKL 170900Z AUTO 04004KT 14SM 29/12 A2985 RMK SLP107 T02920122 57012 IEM_DS3505
ZGKL,2006-09-17 10:00,ZGKL 171000Z AUTO 05008KT 6SM 28/12 A2985 RMK T02800120 IEM_DS3505
ZGKL,2006-09-17 11:00,ZGKL 171100Z AUTO 04006KT 6SM 26/15 A2985 RMK T02600150 IEM_DS3505
ZGKL,2006-09-17 12:00,ZGKL 171200Z AUTO 36004KT 11SM 25/14 A2988 RMK SLP119 T02490135 52011 IEM_DS3505
ZGKL,2006-09-17 13:00,ZGKL 171300Z AUTO 35002KT 6SM 22/17 A2991 RMK T02200170 IEM_DS3505
ZGKL,2006-09-17 14:00,ZGKL 171400Z AUTO 36004KT 6SM 21/17 A2991 RMK T02100170 IEM_DS3505
ZGKL,2006-09-17 15:00,ZGKL 171500Z AUTO 04002KT 10SM 22/15 A2994 RMK SLP134 T02200151 52016 IEM_DS3505
ZGKL,2006-09-17 16:00,ZGKL 171600Z AUTO 36004KT 4SM 19/16 A2994 RMK T01900160 IEM_DS3505
ZGKL,2006-09-17 17:00,ZGKL 171700Z AUTO 33006KT 19/17 A2994 RMK T01900170 IEM_DS3505
ZGKL,2006-09-17 18:00,ZGKL 171800Z AUTO 36004KT 9SM 20/16 A2994 RMK SLP136 T01990160 52002 IEM_DS3505
ZGKL,2006-09-17 19:00,ZGKL 171900Z AUTO 36004KT 18/16 A2991 RMK T01800160 IEM_DS3505
ZGKL,2006-09-17 20:00,ZGKL 172000Z AUTO 24002KT 17/16 A2991 RMK T01700160 IEM_DS3505
ZGKL,2006-09-17 21:00,ZGKL 172100Z AUTO 36004KT 9SM 18/16 A2994 RMK SLP134 T01840156 57002 IEM_DS3505
ZGKL,2006-09-17 22:00,ZGKL 172200Z AUTO 00000KT 5SM 16/15 A2994 RMK T01600150 IEM_DS3505
ZGKL,2006-09-17 23:00,ZGKL 172300Z AUTO 32002KT 6SM 17/16 A2994 RMK T01700160 IEM_DS3505
ZGKL,2006-09-18 00:00,ZGKL 180000Z AUTO 04002KT 8SM 20/15 A2997 RMK SLP149 T02000154 52014 IEM_DS3505
ZGKL,2006-09-18 01:00,ZGKL 180100Z AUTO 00000KT 6SM 21/17 A2997 RMK T02100170 IEM_DS3505
ZGKL,2006-09-18 02:00,ZGKL 180200Z AUTO 24002KT 6SM 24/16 A3000 RMK T02400160 IEM_DS3505
ZGKL,2006-09-18 03:00,ZGKL 180300Z AUTO 36006KT 7SM 27/14 A2997 RMK SLP149 T02740144 52001 IEM_DS3505
ZGKL,2006-09-18 04:00,ZGKL 180400Z AUTO 04006KT 6SM 29/13 A2997 RMK T02900130 IEM_DS3505
ZGKL,2006-09-18 05:00,ZGKL 180500Z AUTO 06008KT 6SM 29/11 A2994 RMK T02900110 IEM_DS3505
ZGKL,2006-09-18 06:00,ZGKL 180600Z AUTO 04008KT 9SM 30/11 A2991 RMK SLP124 T02990114 57024 IEM_DS3505
ZGKL,2006-09-18 07:00,ZGKL 180700Z AUTO 10006KT 6SM 30/10 A2988 RMK T03000100 IEM_DS3505
ZGKL,2006-09-18 08:00,ZGKL 180800Z AUTO 05006KT 6SM 30/09 A2985 RMK T03000090 IEM_DS3505
ZGKL,2006-09-18 09:00,ZGKL 180900Z AUTO 04006KT 9SM 30/13 A2985 RMK SLP107 T03020126 57017 IEM_DS3505
ZGKL,2006-09-18 10:00,ZGKL 181000Z AUTO 05004KT 6SM 29/11 A2985 RMK T02900110 IEM_DS3505
ZGKL,2006-09-18 11:00,ZGKL 181100Z AUTO 29004KT 6SM 23/18 A2988 RMK T02300180 IEM_DS3505
ZGKL,2006-09-18 12:00,ZGKL 181200Z AUTO 02004KT 9SM 25/14 A2991 RMK SLP126 T02540136 52017 IEM_DS3505
ZGKL,2006-09-18 13:00,ZGKL 181300Z AUTO 35004KT 6SM 22/17 A2994 RMK T02200170 IEM_DS3505
ZGKL,2006-09-18 14:00,ZGKL 181400Z AUTO 34002KT 6SM 21/17 A2994 RMK T02100170 IEM_DS3505
ZGKL,2006-09-18 15:00,ZGKL 181500Z AUTO 36002KT 9SM 23/14 A2994 RMK SLP137 T02330140 52013 IEM_DS3505
ZGKL,2006-09-18 16:00,ZGKL 181600Z AUTO 30002KT 6SM 19/17 A2994 RMK T01900170 IEM_DS3505
ZGKL,2006-09-18 17:00,ZGKL 181700Z AUTO 00000KT 6SM 20/17 A2994 RMK T02000170 IEM_DS3505
ZGKL,2006-09-18 18:00,ZGKL 181800Z AUTO 07002KT 9SM 21/15 A2994 RMK SLP137 T02130152 54000 IEM_DS3505
ZGKL,2006-09-18 19:00,ZGKL 181900Z AUTO 30002KT 19/17 A2994 RMK T01900170 IEM_DS3505
ZGKL,2006-09-18 20:00,ZGKL 182000Z AUTO 00000KT 19/18 A2994 RMK T01900180 IEM_DS3505
ZGKL,2006-09-18 21:00,ZGKL 182100Z AUTO 00000KT 8SM 20/16 A2994 RMK SLP135 T01980157 57002 IEM_DS3505
ZGKL,2006-09-18 22:00,ZGKL 182200Z AUTO 00000KT 4SM 19/18 A2994 RMK T01900180 IEM_DS3505
ZGKL,2006-09-18 23:00,ZGKL 182300Z AUTO 00000KT 4SM 19/18 A2994 RMK T01900180 IEM_DS3505
ZGKL,2006-09-19 00:00,ZGKL 190000Z AUTO 02002KT 7SM 20/16 A2997 RMK SLP152 T02030161 52015 IEM_DS3505
ZGKL,2006-09-19 01:00,ZGKL 190100Z AUTO 00000KT 4SM 21/18 A3000 RMK T02100180 IEM_DS3505
ZGKL,2006-09-19 02:00,ZGKL 190200Z AUTO 11002KT 4SM 24/17 A3000 RMK T02400170 IEM_DS3505
ZGKL,2006-09-19 03:00,ZGKL 190300Z AUTO 07004KT 6SM 26/17 A3000 RMK SLP155 T02620170 52004 IEM_DS3505
ZGKL,2006-09-19 04:00,ZGKL 190400Z AUTO 05002KT 4SM 26/18 A2997 RMK T02600180 IEM_DS3505
ZGKL,2006-09-19 05:00,ZGKL 190500Z AUTO 29004KT 4SM 27/17 A2997 RMK T02700170 IEM_DS3505
ZGKL,2006-09-19 06:00,ZGKL 190600Z AUTO 32002KT 5SM 29/14 A2994 RMK SLP134 T02870142 57020 IEM_DS3505
ZGKL,2006-09-19 07:00,ZGKL 190700Z AUTO 31002KT 4SM 27/16 A2991 RMK T02700160 IEM_DS3505
ZGKL,2006-09-19 08:00,ZGKL 190800Z AUTO 32002KT 4SM 29/14 A2988 RMK T02900140 IEM_DS3505
ZGKL,2006-09-19 09:00,ZGKL 190900Z AUTO 07004KT 5SM 28/14 A2988 RMK SLP122 T02770143 57013 IEM_DS3505
ZGKL,2006-09-19 10:00,ZGKL 191000Z AUTO 07002KT 5SM 27/17 A2991 RMK T02700170 IEM_DS3505
ZGKL,2006-09-19 11:00,ZGKL 191100Z AUTO 30004KT 4SM 24/20 A2991 RMK T02400200 IEM_DS3505
ZGKL,2006-09-19 12:00,ZGKL 191200Z AUTO 02002KT 5SM 24/18 A2994 RMK SLP136 T02420182 52013 IEM_DS3505
ZGKL,2006-09-19 13:00,ZGKL 191300Z AUTO 33002KT 4SM 22/20 A2994 RMK T02200200 IEM_DS3505
ZGKL,2006-09-19 14:00,ZGKL 191400Z AUTO 32002KT 4SM 21/19 A2997 RMK T02100190 IEM_DS3505
ZGKL,2006-09-19 15:00,ZGKL 191500Z AUTO 02004KT 5SM 22/18 A2994 RMK SLP144 T02200176 52009 IEM_DS3505
ZGKL,2006-09-19 16:00,ZGKL 191600Z AUTO 32002KT 21/19 A2994 RMK T02100190 IEM_DS3505
ZGKL,2006-09-19 17:00,ZGKL 191700Z AUTO 31002KT 20/19 A2994 RMK T02000190 IEM_DS3505
ZGKL,2006-09-19 18:00,ZGKL 191800Z AUTO 02002KT 5SM 21/17 A2991 RMK SLP134 T02090173 57009 IEM_DS3505
ZGKL,2006-09-19 19:00,ZGKL 191900Z AUTO 02002KT 20/18 A2991 RMK T02000180 IEM_DS3505
ZGKL,2006-09-19 20:00,ZGKL 192000Z AUTO 31002KT 19/18 A2991 RMK T01900180 IEM_DS3505
ZGKL,2006-09-19 21:00,ZGKL 192100Z AUTO 36002KT 5SM 20/17 A2988 RMK SLP125 T01960168 57010 IEM_DS3505
ZGKL,2006-09-19 22:00,ZGKL 192200Z AUTO 00000KT 3SM 19/18 A2991 RMK T01900180 IEM_DS3505
ZGKL,2006-09-19 23:00,ZGKL 192300Z AUTO 00000KT 2 1/2SM 19/18 A2994 RMK T01900180 IEM_DS3505
ZGKL,2006-09-20 00:00,ZGKL 200000Z AUTO 36002KT 4SM 20/17 A2994 RMK SLP145 T01980168 52019 IEM_DS3505
ZGKL,2006-09-20 01:00,ZGKL 200100Z AUTO 00000KT 2 1/2SM 22/17 A2997 RMK T02200170 IEM_DS3505
ZGKL,2006-09-20 02:00,ZGKL 200200Z AUTO 00000KT 2SM 23/18 A2997 RMK T02300180 IEM_DS3505
ZGKL,2006-09-20 03:00,ZGKL 200300Z AUTO 04002KT 4SM 26/17 A2997 RMK SLP144 T02610169 54000 IEM_DS3505
ZGKL,2006-09-20 04:00,ZGKL 200400Z AUTO 00000KT 4SM 27/17 A2994 RMK T02700170 IEM_DS3505
ZGKL,2006-09-20 05:00,ZGKL 200500Z AUTO 26002KT 5SM 28/18 A2991 RMK T02800180 IEM_DS3505
ZGKL,2006-09-20 06:00,ZGKL 200600Z AUTO 20002KT 4SM 31/13 A2988 RMK SLP114 T03070130 57028 IEM_DS3505
ZGKL,2006-09-20 07:00,ZGKL 200700Z AUTO 28004KT 5SM 31/10 A2985 RMK T03100100 IEM_DS3505
ZGKL,2006-09-20 08:00,ZGKL 200800Z AUTO 31004KT 5SM 31/13 A2983 RMK T03100130 IEM_DS3505
ZGKL,2006-09-20 09:00,ZGKL 200900Z AUTO 11002KT 5SM 31/12 A2983 RMK SLP100 T03070121 57015 IEM_DS3505
ZGKL,2006-09-20 10:00,ZGKL 201000Z AUTO 25002KT 4SM 27/19 A2983 RMK T02700190 IEM_DS3505
ZGKL,2006-09-20 11:00,ZGKL 201100Z AUTO 27002KT 3SM 24/18 A2985 RMK T02400180 IEM_DS3505
ZGKL,2006-09-20 12:00,ZGKL 201200Z AUTO 00000KT 5SM 25/16 A2988 RMK SLP116 T02530159 52014 IEM_DS3505
ZGKL,2006-09-20 13:00,ZGKL 201300Z AUTO 32002KT 2SM 21/19 A2991 RMK T02100190 IEM_DS3505
ZGKL,2006-09-20 14:00,ZGKL 201400Z AUTO 30004KT 2SM 20/18 A2991 RMK T02000180 IEM_DS3505
ZGKL,2006-09-20 15:00,ZGKL 201500Z AUTO 04002KT 5SM 22/15 A2994 RMK SLP133 T02230149 52018 IEM_DS3505
ZGKL,2006-09-20 16:00,ZGKL 201600Z AUTO 22002KT 2SM 19/17 A2991 RMK T01900170 IEM_DS3505
ZGKL,2006-09-20 17:00,ZGKL 201700Z AUTO 00000KT 18/17 A2991 RMK T01800170 IEM_DS3505
ZGKL,2006-09-20 18:00,ZGKL 201800Z AUTO 04002KT 4SM 20/16 A2991 RMK SLP127 T01960155 57005 IEM_DS3505
ZGKL,2006-09-20 19:00,ZGKL 201900Z AUTO 00000KT A2991 RMK IEM_DS3505
ZGKL,2006-09-20 20:00,ZGKL 202000Z AUTO 21002KT 17/16 A2991 RMK T01700160 IEM_DS3505
ZGKL,2006-09-20 21:00,ZGKL 202100Z AUTO 02002KT 4SM A2991 RMK SLP128 54000 IEM_DS3505
ZGKL,2006-09-20 22:00,ZGKL 202200Z AUTO 23002KT 1SM 16/15 A2991 RMK T01600150 IEM_DS3505
ZGKL,2006-09-20 23:00,ZGKL 202300Z AUTO 35002KT 1SM 16/16 A2991 RMK T01600160 IEM_DS3505
ZGKL,2006-09-21 00:00,ZGKL 210000Z AUTO 02002KT 4SM 19/15 A2994 RMK SLP144 T01880151 52015 IEM_DS3505
ZGKL,2006-09-21 01:00,ZGKL 210100Z AUTO 00000KT 1 1/2SM 20/17 A2997 RMK T02000170 IEM_DS3505
ZGKL,2006-09-21 02:00,ZGKL 210200Z AUTO 31002KT 2SM 23/18 A2997 RMK T02300180 IEM_DS3505
ZGKL,2006-09-21 03:00,ZGKL 210300Z AUTO 11004KT 4SM 26/15 A2997 RMK SLP146 T02610152 52003 IEM_DS3505
ZGKL,2006-09-21 04:00,ZGKL 210400Z AUTO 31004KT 3SM 28/17 A2994 RMK T02800170 IEM_DS3505
ZGKL,2006-09-21 05:00,ZGKL 210500Z AUTO 21004KT 3SM 30/15 A2991 RMK T03000150 IEM_DS3505
ZGKL,2006-09-21 06:00,ZGKL 210600Z AUTO 04006KT 4SM 31/14 A2988 RMK SLP115 T03120135 57030 IEM_DS3505
ZGKL,2006-09-21 07:00,ZGKL 210700Z AUTO 30004KT 4SM 31/13 A2985 RMK T03100130 IEM_DS3505
ZGKL,2006-09-21 08:00,ZGKL 210800Z AUTO 29004KT 4SM 30/12 A2983 RMK T03000120 IEM_DS3505
ZGKL,2006-09-21 09:00,ZGKL 210900Z AUTO 25004KT 5SM 32/12 A2983 RMK SLP099 T03190117 57016 IEM_DS3505
ZGKL,2006-09-21 10:00,ZGKL 211000Z AUTO 22004KT 5SM 28/16 A2983 RMK T02800160 IEM_DS3505
ZGKL,2006-09-21 11:00,ZGKL 211100Z AUTO 26004KT 5SM 25/17 A2985 RMK T02500170 IEM_DS3505
ZGKL,2006-09-21 12:00,ZGKL 211200Z AUTO 32004KT 7SM 27/13 A2988 RMK SLP115 T02680132 52015 IEM_DS3505
ZGKL,2006-09-21 13:00,ZGKL 211300Z AUTO 34004KT 4SM 22/17 A2991 RMK T02200170 IEM_DS3505
ZGKL,2006-09-21 14:00,ZGKL 211400Z AUTO 32004KT 3SM 20/17 A2991 RMK T02000170 IEM_DS3505
ZGKL,2006-09-21 15:00,ZGKL 211500Z AUTO 02004KT 6SM 24/14 A2991 RMK SLP132 T02440145 52018 IEM_DS3505
ZGKL,2006-09-21 16:00,ZGKL 211600Z AUTO 33002KT 3SM 19/17 A2994 RMK T01900170 IEM_DS3505
ZGKL,2006-09-21 17:00,ZGKL 211700Z AUTO 31002KT 2 1/2SM 19/17 A2994 RMK T01900170 IEM_DS3505
ZGKL,2006-09-21 18:00,ZGKL 211800Z AUTO 02002KT 6SM 22/15 A2994 RMK SLP135 T02230149 52004 IEM_DS3505
ZGKL,2006-09-21 19:00,ZGKL 211900Z AUTO 30002KT 18/16 A2994 RMK T01800160 IEM_DS3505
ZGKL,2006-09-21 20:00,ZGKL 212000Z AUTO 24002KT 17/16 A2994 RMK T01700160 IEM_DS3505
ZGKL,2006-09-21 21:00,ZGKL 212100Z AUTO 02002KT 6SM 19/15 A2994 RMK SLP139 T01920147 52003 IEM_DS3505
ZGKL,2006-09-21 22:00,ZGKL 212200Z AUTO 33004KT 3SM 17/15 A2994 RMK T01700150 IEM_DS3505
ZGKL,2006-09-21 23:00,ZGKL 212300Z AUTO 32002KT 4SM 17/15 A2997 RMK T01700150 IEM_DS3505
ZGKL,2006-09-22 00:00,ZGKL 220000Z AUTO 34004KT 4SM 21/14 A3000 RMK SLP157 T02060140 52016 IEM_DS3505
ZGKL,2006-09-22 01:00,ZGKL 220100Z AUTO 36002KT 3SM 21/15 A3000 RMK T02100150 IEM_DS3505
ZGKL,2006-09-22 02:00,ZGKL 220200Z AUTO 30004KT 4SM 25/16 A3000 RMK T02500160 IEM_DS3505
ZGKL,2006-09-22 03:00,ZGKL 220300Z AUTO 36006KT 4SM 28/16 A3000 RMK SLP154 T02830156 57001 IEM_DS3505
ZGKL,2006-09-22 04:00,ZGKL 220400Z AUTO 02006KT 4SM 30/14 A2997 RMK T03000140 IEM_DS3505
ZGKL,2006-09-22 05:00,ZGKL 220500Z AUTO 02006KT 4SM 30/13 A2994 RMK T03000130 IEM_DS3505
ZGKL,2006-09-22 06:00,ZGKL 220600Z AUTO 02008KT 6SM 31/13 A2991 RMK SLP122 T03140132 57031 IEM_DS3505
ZGKL,2006-09-22 07:00,ZGKL 220700Z AUTO 06006KT 5SM 31/13 A2988 RMK T03100130 IEM_DS3505
ZGKL,2006-09-22 08:00,ZGKL 220800Z AUTO 06008KT 5SM 31/12 A2985 RMK T03100120 IEM_DS3505
ZGKL,2006-09-22 09:00,ZGKL 220900Z AUTO 02006KT 7SM 31/13 A2985 RMK SLP109 T03070130 57014 IEM_DS3505
ZGKL,2006-09-22 10:00,ZGKL 221000Z AUTO 06006KT 6SM 30/13 A2985 RMK T03000130 IEM_DS3505
ZGKL,2006-09-22 11:00,ZGKL 221100Z AUTO 05010KT 6SM 28/12 A2988 RMK T02800120 IEM_DS3505
ZGKL,2006-09-22 12:00,ZGKL 221200Z AUTO 04006KT 7SM 26/14 A2988 RMK SLP122 T02580140 52012 IEM_DS3505
ZGKL,2006-09-22 13:00,ZGKL 221300Z AUTO 33004KT 4SM 22/17 A2991 RMK T02200170 IEM_DS3505
ZGKL,2006-09-22 14:00,ZGKL 221400Z AUTO 23002KT 3SM 21/17 A2994 RMK T02100170 IEM_DS3505
ZGKL,2006-09-22 15:00,ZGKL 221500Z AUTO 36006KT 7SM 25/17 A2994 RMK SLP137 T02490166 52017 IEM_DS3505
ZGKL,2006-09-22 16:00,ZGKL 221600Z AUTO 00000KT 3SM 20/17 A2994 RMK T02000170 IEM_DS3505
ZGKL,2006-09-22 17:00,ZGKL 221700Z AUTO 35002KT 19/17 A2994 RMK T01900170 IEM_DS3505
ZGKL,2006-09-22 18:00,ZGKL 221800Z AUTO 02004KT 7SM 23/16 A2997 RMK SLP141 T02320163 52004 IEM_DS3505
ZGKL,2006-09-22 19:00,ZGKL 221900Z AUTO 36002KT 19/17 A2994 RMK T01900170 IEM_DS3505
ZGKL,2006-09-22 20:00,ZGKL 222000Z AUTO 36004KT 19/16 A2994 RMK T01900160 IEM_DS3505
ZGKL,2006-09-22 21:00,ZGKL 222100Z AUTO 02004KT 7SM 22/16 A2994 RMK SLP139 T02190162 57003 IEM_DS3505
ZGKL,2006-09-22 22:00,ZGKL 222200Z AUTO 35002KT 3SM 18/16 A2997 RMK T01800160 IEM_DS3505
ZGKL,2006-09-22 23:00,ZGKL 222300Z AUTO 36002KT 3SM 18/16 A2997 RMK T01800160 IEM_DS3505
ZGKL,2006-09-23 00:00,ZGKL 230000Z AUTO 36006KT 6SM 22/16 A2997 RMK SLP152 T02230163 52012 IEM_DS3505
ZGKL,2006-09-23 01:00,ZGKL 230100Z AUTO 33002KT 3SM 23/17 A3000 RMK T02300170 IEM_DS3505
ZGKL,2006-09-23 02:00,ZGKL 230200Z AUTO 29002KT 3SM 25/17 A3000 RMK T02500170 IEM_DS3505
ZGKL,2006-09-23 03:00,ZGKL 230300Z AUTO 36008KT 5SM 28/17 A3000 RMK SLP152 T02840167 52001 IEM_DS3505
ZGKL,2006-09-23 04:00,ZGKL 230400Z AUTO 05008KT 4SM 30/16 A2997 RMK T03000160 IEM_DS3505
ZGKL,2006-09-23 05:00,ZGKL 230500Z AUTO 08006KT 4SM 31/15 A2991 RMK T03100150 IEM_DS3505
ZGKL,2006-09-23 06:00,ZGKL 230600Z AUTO 04008KT 7SM 32/15 A2988 RMK SLP112 T03150151 57038 IEM_DS3505
ZGKL,2006-09-23 07:00,ZGKL 230700Z AUTO 05008KT 5SM 31/14 A2985 RMK T03100140 IEM_DS3505
ZGKL,2006-09-23 08:00,ZGKL 230800Z AUTO 05008KT 6SM 32/14 A2983 RMK T03200140 IEM_DS3505
ZGKL,2006-09-23 09:00,ZGKL 230900Z AUTO 02008KT 7SM 31/14 A2983 RMK SLP097 T03100142 57016 IEM_DS3505
ZGKL,2006-09-23 10:00,ZGKL 231000Z AUTO 06006KT 6SM 30/15 A2983 RMK T03000150 IEM_DS3505
ZGKL,2006-09-23 11:00,ZGKL 231100Z AUTO 06008KT 6SM 28/15 A2985 RMK T02800150 IEM_DS3505
ZGKL,2006-09-23 12:00,ZGKL 231200Z AUTO 02004KT 7SM 27/16 A2985 RMK SLP111 T02680164 52013 IEM_DS3505
ZGKL,2006-09-23 13:00,ZGKL 231300Z AUTO 33004KT 6SM 23/18 A2988 RMK T02300180 IEM_DS3505
ZGKL,2006-09-23 14:00,ZGKL 231400Z AUTO 31002KT 5SM 22/18 A2991 RMK T02200180 IEM_DS3505
ZGKL,2006-09-23 15:00,ZGKL 231500Z AUTO 36004KT 7SM 25/17 A2991 RMK SLP131 T02530167 52021 IEM_DS3505
ZGKL,2006-09-23 16:00,ZGKL 231600Z AUTO 36004KT 5SM 21/17 A2994 RMK T02100170 IEM_DS3505
ZGKL,2006-09-23 17:00,ZGKL 231700Z AUTO 35002KT 5SM 21/18 A2991 RMK T02100180 IEM_DS3505
ZGKL,2006-09-23 18:00,ZGKL 231800Z AUTO 02004KT 7SM 24/17 A2991 RMK SLP127 T02370167 57004 IEM_DS3505
ZGKL,2006-09-23 19:00,ZGKL 231900Z AUTO 34004KT 20/17 A2991 RMK T02000170 IEM_DS3505
ZGKL,2006-09-23 20:00,ZGKL 232000Z AUTO 31002KT 19/17 A2991 RMK T01900170 IEM_DS3505
ZGKL,2006-09-23 21:00,ZGKL 232100Z AUTO 36004KT 7SM 23/17 A2991 RMK SLP123 T02270172 57004 IEM_DS3505
ZGKL,2006-09-23 22:00,ZGKL 232200Z AUTO 35002KT 4SM 19/17 A2991 RMK T01900170 IEM_DS3505
ZGKL,2006-09-23 23:00,ZGKL 232300Z AUTO 00000KT 4SM 19/17 A2994 RMK T01900170 IEM_DS3505
ZGKL,2006-09-24 00:00,ZGKL 240000Z AUTO 02004KT 6SM 24/18 A2994 RMK SLP141 T02370179 52017 IEM_DS3505
ZGKL,2006-09-24 01:00,ZGKL 240100Z AUTO 33002KT 3SM 24/19 A2997 RMK T02400190 IEM_DS3505
ZGKL,2006-09-24 02:00,ZGKL 240200Z AUTO 32004KT 3SM 26/20 A2997 RMK T02600200 IEM_DS3505
ZGKL,2006-09-24 03:00,ZGKL 240300Z AUTO 36008KT 6SM 29/18 A2994 RMK SLP139 T02890181 57001 IEM_DS3505
ZGKL,2006-09-24 04:00,ZGKL 240400Z AUTO 03008KT 4SM 30/17 A2994 RMK T03000170 IEM_DS3505
ZGKL,2006-09-24 05:00,ZGKL 240500Z AUTO 07006KT 4SM 31/17 A2991 RMK T03100170 IEM_DS3505
ZGKL,2006-09-24 06:00,ZGKL 240600Z AUTO 02006KT 7SM 32/16 A2988 RMK SLP109 T03250164 57029 IEM_DS3505
ZGKL,2006-09-24 07:00,ZGKL 240700Z AUTO 03006KT 5SM 33/14 A2983 RMK T03300140 IEM_DS3505
ZGKL,2006-09-24 08:00,ZGKL 240800Z AUTO 04008KT 6SM 33/14 A2983 RMK T03300140 IEM_DS3505
ZGKL,2006-09-24 09:00,ZGKL 240900Z AUTO 02006KT 9SM 32/16 A2983 RMK SLP094 T03190162 57015 IEM_DS3505
ZGKL,2006-09-24 10:00,ZGKL 241000Z AUTO 07004KT 6SM 31/16 A2983 RMK T03100160 IEM_DS3505
ZGKL,2006-09-24 11:00,ZGKL 241100Z AUTO 05008KT 6SM 29/16 A2985 RMK T02900160 IEM_DS3505
ZGKL,2006-09-24 12:00,ZGKL 241200Z AUTO 04004KT 6SM 28/17 A2988 RMK SLP112 T02790174 52017 IEM_DS3505
ZGKL,2006-09-24 13:00,ZGKL 241300Z AUTO 34006KT 6SM 24/19 A2988 RMK T02400190 IEM_DS3505
ZGKL,2006-09-24 14:00,ZGKL 241400Z AUTO 31004KT 6SM 24/19 A2991 RMK T02400190 IEM_DS3505
ZGKL,2006-09-24 15:00,ZGKL 241500Z AUTO 02004KT 6SM 26/18 A2991 RMK SLP130 T02600179 52018 IEM_DS3505
ZGKL,2006-09-24 16:00,ZGKL 241600Z AUTO 33004KT 5SM 21/19 A2994 RMK T02100190 IEM_DS3505
ZGKL,2006-09-24 17:00,ZGKL 241700Z AUTO 36002KT 5SM 22/19 A2991 RMK T02200190 IEM_DS3505
ZGKL,2006-09-24 18:00,ZGKL 241800Z AUTO 02004KT 6SM 25/18 A2991 RMK SLP127 T02490179 57002 IEM_DS3505
ZGKL,2006-09-24 19:00,ZGKL 241900Z AUTO 31002KT 21/19 A2991 RMK T02100190 IEM_DS3505
ZGKL,2006-09-24 20:00,ZGKL 242000Z AUTO 35002KT 20/19 A2991 RMK T02000190 IEM_DS3505
ZGKL,2006-09-24 21:00,ZGKL 242100Z AUTO 02004KT 6SM 23/18 A2991 RMK SLP124 T02340176 57003 IEM_DS3505
ZGKL,2006-09-24 22:00,ZGKL 242200Z AUTO 31002KT 3SM 20/18 A2994 RMK T02000180 IEM_DS3505
ZGKL,2006-09-24 23:00,ZGKL 242300Z AUTO 30002KT 3SM 20/19 A2994 RMK T02000190 IEM_DS3505
ZGKL,2006-09-25 00:00,ZGKL 250000Z AUTO 02004KT 7SM 24/18 A2994 RMK SLP144 T02450177 52018 IEM_DS3505
ZGKL,2006-09-25 01:00,ZGKL 250100Z AUTO 34004KT 4SM 25/20 A2997 RMK T02500200 IEM_DS3505
ZGKL,2006-09-25 02:00,ZGKL 250200Z AUTO 28002KT 4SM 27/19 A2997 RMK T02700190 IEM_DS3505
ZGKL,2006-09-25 03:00,ZGKL 250300Z AUTO 02006KT 7SM 30/18 A2994 RMK SLP134 T03030181 57008 IEM_DS3505
ZGKL,2006-09-25 04:00,ZGKL 250400Z AUTO 35004KT 5SM 32/17 A2991 RMK T03200170 IEM_DS3505
ZGKL,2006-09-25 05:00,ZGKL 250500Z AUTO 03004KT 5SM 33/17 A2988 RMK T03300170 IEM_DS3505
ZGKL,2006-09-25 06:00,ZGKL 250600Z AUTO 09004KT 7SM 34/18 A2983 RMK SLP098 T03360177 57035 IEM_DS3505
ZGKL,2006-09-25 07:00,ZGKL 250700Z AUTO 33002KT 5SM 33/17 A2980 RMK T03300170 IEM_DS3505
ZGKL,2006-09-25 08:00,ZGKL 250800Z AUTO 30004KT 5SM 34/16 A2980 RMK T03400160 IEM_DS3505
ZGKL,2006-09-25 09:00,ZGKL 250900Z AUTO 02002KT 8SM 34/16 A2977 RMK SLP076 T03410165 57022 IEM_DS3505
ZGKL,2006-09-25 10:00,ZGKL 251000Z AUTO 28004KT 5SM 31/21 A2977 RMK T03100210 IEM_DS3505
ZGKL,2006-09-25 11:00,ZGKL 251100Z AUTO 26004KT 5SM 28/21 A2980 RMK T02800210 IEM_DS3505
ZGKL,2006-09-25 12:00,ZGKL 251200Z AUTO 02004KT 9SM 29/19 A2980 RMK SLP091 T02920189 52014 IEM_DS3505
ZGKL,2006-09-25 13:00,ZGKL 251300Z AUTO 30004KT 4SM 25/21 A2983 RMK T02500210 IEM_DS3505
ZGKL,2006-09-25 14:00,ZGKL 251400Z AUTO 36004KT 4SM 25/21 A2985 RMK T02500210 IEM_DS3505
ZGKL,2006-09-25 15:00,ZGKL 251500Z AUTO 04004KT 9SM 27/19 A2985 RMK SLP104 T02690187 52013 IEM_DS3505
ZGKL,2006-09-25 16:00,ZGKL 251600Z AUTO 32004KT 4SM 23/21 A2985 RMK T02300210 IEM_DS3505
ZGKL,2006-09-25 17:00,ZGKL 251700Z AUTO 33002KT 23/21 A2985 RMK T02300210 IEM_DS3505
ZGKL,2006-09-25 18:00,ZGKL 251800Z AUTO 02004KT 9SM 26/19 A2985 RMK SLP101 T02580187 57002 IEM_DS3505
ZGKL,2006-09-25 19:00,ZGKL 251900Z AUTO 34002KT 23/21 A2985 RMK T02300210 IEM_DS3505
ZGKL,2006-09-25 20:00,ZGKL 252000Z AUTO 01002KT 23/20 A2985 RMK T02300200 IEM_DS3505
ZGKL,2006-09-25 21:00,ZGKL 252100Z AUTO 36002KT 8SM 24/19 A2985 RMK SLP104 T02430194 52003 IEM_DS3505
ZGKL,2006-09-25 22:00,ZGKL 252200Z AUTO 32002KT 3SM 22/21 A2985 RMK T02200210 IEM_DS3505
ZGKL,2006-09-25 23:00,ZGKL 252300Z AUTO 31002KT 4SM 22/20 A2988 RMK T02200200 IEM_DS3505
ZGKL,2006-09-26 00:00,ZGKL 260000Z AUTO 04002KT 6SM 25/19 A2988 RMK SLP118 T02470193 52012 IEM_DS3505
ZGKL,2006-09-26 01:00,ZGKL 260100Z AUTO 31002KT 4SM 25/20 A2988 RMK T02500200 IEM_DS3505
ZGKL,2006-09-26 02:00,ZGKL 260200Z AUTO 32002KT 4SM 28/20 A2988 RMK T02800200 IEM_DS3505
ZGKL,2006-09-26 03:00,ZGKL 260300Z AUTO 04002KT 6SM 31/19 A2985 RMK SLP109 T03060190 57008 IEM_DS3505
ZGKL,2006-09-26 04:00,ZGKL 260400Z AUTO 31004KT 4SM 31/19 A2985 RMK T03100190 IEM_DS3505
ZGKL,2006-09-26 05:00,ZGKL 260500Z AUTO 28004KT 4SM 32/20 A2983 RMK T03200200 IEM_DS3505
ZGKL,2006-09-26 06:00,ZGKL 260600Z AUTO 02002KT 6SM 34/19 A2977 RMK SLP075 T03370190 57032 IEM_DS3505
ZGKL,2006-09-26 07:00,ZGKL 260700Z AUTO 19004KT 5SM 33/19 A2974 RMK T03300190 IEM_DS3505
ZGKL,2006-09-26 08:00,ZGKL 260800Z AUTO 24004KT 5SM 34/19 A2974 RMK T03400190 IEM_DS3505
ZGKL,2006-09-26 09:00,ZGKL 260900Z AUTO 29002KT 5SM 34/18 A2971 RMK SLP059 T03380179 57016 IEM_DS3505
ZGKL,2006-09-26 10:00,ZGKL 261000Z AUTO 29002KT 5SM 32/23 A2974 RMK T03200230 IEM_DS3505
ZGKL,2006-09-26 11:00,ZGKL 261100Z AUTO 28004KT 5SM 28/22 A2974 RMK T02800220 IEM_DS3505
ZGKL,2006-09-26 12:00,ZGKL 261200Z AUTO 04004KT 5SM 30/20 A2977 RMK SLP075 T03000200 52014 IEM_DS3505
ZGKL,2006-09-26 13:00,ZGKL 261300Z AUTO 36004KT 4SM 27/22 A2980 RMK T02700220 IEM_DS3505
ZGKL,2006-09-26 14:00,ZGKL 261400Z AUTO 33004KT 4SM 26/22 A2983 RMK T02600220 IEM_DS3505
ZGKL,2006-09-26 15:00,ZGKL 261500Z AUTO 36004KT 5SM 27/19 A2983 RMK SLP092 T02730189 52018 IEM_DS3505
ZGKL,2006-09-26 16:00,ZGKL 261600Z AUTO 28002KT 4SM 25/22 A2983 RMK T02500220 IEM_DS3505
ZGKL,2006-09-26 17:00,ZGKL 261700Z AUTO 28002KT 4SM 24/22 A2983 RMK T02400220 IEM_DS3505
ZGKL,2006-09-26 18:00,ZGKL 261800Z AUTO 36004KT 5SM 26/18 A2983 RMK SLP090 T02630182 57001 IEM_DS3505
ZGKL,2006-09-26 19:00,ZGKL 261900Z AUTO 31002KT 23/22 A2980 RMK T02300220 IEM_DS3505
ZGKL,2006-09-26 20:00,ZGKL 262000Z AUTO 00000KT 23/21 A2983 RMK T02300210 IEM_DS3505
ZGKL,2006-09-26 21:00,ZGKL 262100Z AUTO 29002KT 5SM 25/18 A2983 RMK SLP096 T02500184 52005 IEM_DS3505
ZGKL,2006-09-26 22:00,ZGKL 262200Z AUTO 35002KT 4SM 23/21 A2985 RMK T02300210 IEM_DS3505
ZGKL,2006-09-26 23:00,ZGKL 262300Z AUTO 35004KT 2 1/2SM 22/21 A2985 RMK T02200210 IEM_DS3505
ZGKL,2006-09-27 00:00,ZGKL 270000Z AUTO 02002KT 5SM 25/19 A2988 RMK SLP112 T02470191 52015 IEM_DS3505
ZGKL,2006-09-27 01:00,ZGKL 270100Z AUTO 33002KT 3SM 26/21 A2988 RMK T02600210 IEM_DS3505
ZGKL,2006-09-27 02:00,ZGKL 270200Z AUTO 29002KT 4SM 28/21 A2988 RMK T02800210 IEM_DS3505
ZGKL,2006-09-27 03:00,ZGKL 270300Z AUTO 11002KT 5SM 31/19 A2988 RMK SLP112 T03080189 52001 IEM_DS3505
ZGKL,2006-09-27 04:00,ZGKL 270400Z AUTO 01004KT 4SM 31/19 A2985 RMK T03100190 IEM_DS3505
ZGKL,2006-09-27 05:00,ZGKL 270500Z AUTO 22004KT 4SM 33/19 A2983 RMK T03300190 IEM_DS3505
ZGKL,2006-09-27 06:00,ZGKL 270600Z AUTO 18002KT 6SM 34/18 A2980 RMK SLP085 T03360185 57026 IEM_DS3505
ZGKL,2006-09-27 07:00,ZGKL 270700Z AUTO 26002KT 5SM 34/18 A2980 RMK T03400180 IEM_DS3505
ZGKL,2006-09-27 08:00,ZGKL 270800Z AUTO 34002KT 5SM 33/21 A2977 RMK T03300210 IEM_DS3505
ZGKL,2006-09-27 09:00,ZGKL 270900Z AUTO 16004KT 6SM 33/19 A2977 RMK SLP076 T03330186 57010 IEM_DS3505
ZGKL,2006-09-27 10:00,ZGKL 271000Z AUTO 22002KT 5SM 31/21 A2977 RMK T03100210 IEM_DS3505
ZGKL,2006-09-27 11:00,ZGKL 271100Z AUTO 27002KT 5SM 28/22 A2980 RMK T02800220 IEM_DS3505
ZGKL,2006-09-27 12:00,ZGKL 271200Z AUTO 09002KT 6SM 30/20 A2983 RMK SLP093 T02960199 52016 IEM_DS3505
ZGKL,2006-09-27 13:00,ZGKL 271300Z AUTO 29002KT 4SM 25/23 A2985 RMK T02500230 IEM_DS3505
ZGKL,2006-09-27 14:00,ZGKL 271400Z AUTO 34004KT 4SM 25/23 A2985 RMK T02500230 IEM_DS3505
ZGKL,2006-09-27 15:00,ZGKL 271500Z AUTO 02004KT 6SM 27/20 A2985 RMK SLP106 T02730196 52014 IEM_DS3505
ZGKL,2006-09-27 16:00,ZGKL 271600Z AUTO 29002KT 4SM 24/22 A2985 RMK T02400220 IEM_DS3505
ZGKL,2006-09-27 17:00,ZGKL 271700Z AUTO 33002KT 3SM 23/21 A2985 RMK T02300210 IEM_DS3505
ZGKL,2006-09-27 18:00,ZGKL 271800Z AUTO 02002KT 5SM 26/20 A2985 RMK SLP105 T02610195 57001 IEM_DS3505
ZGKL,2006-09-27 19:00,ZGKL 271900Z AUTO 00000KT 23/21 A2985 RMK T02300210 IEM_DS3505
ZGKL,2006-09-27 20:00,ZGKL 272000Z AUTO 33002KT 22/21 A2985 RMK T02200210 IEM_DS3505
ZGKL,2006-09-27 21:00,ZGKL 272100Z AUTO 04002KT 5SM 25/19 A2985 RMK SLP104 T02470193 57001 IEM_DS3505
ZGKL,2006-09-27 22:00,ZGKL 272200Z AUTO 33002KT 3SM 22/21 A2988 RMK T02200210 IEM_DS3505
ZGKL,2006-09-27 23:00,ZGKL 272300Z AUTO 00000KT 2SM 21/20 A2988 RMK T02100200 IEM_DS3505
ZGKL,2006-09-28 00:00,ZGKL 280000Z AUTO 09002KT 5SM 25/20 A2991 RMK SLP125 T02510199 52019 IEM_DS3505
ZGKL,2006-09-28 01:00,ZGKL 280100Z AUTO 33002KT 2 1/2SM 26/21 A2994 RMK T02600210 IEM_DS3505
ZGKL,2006-09-28 02:00,ZGKL 280200Z AUTO 28002KT 3SM 29/19 A2994 RMK T02900190 IEM_DS3505
ZGKL,2006-09-28 03:00,ZGKL 280300Z AUTO 11002KT 4SM 31/18 A2991 RMK SLP127 T03060183 52003 IEM_DS3505
ZGKL,2006-09-28 04:00,ZGKL 280400Z AUTO 15002KT 4SM 32/20 A2988 RMK T03200200 IEM_DS3505
ZGKL,2006-09-28 05:00,ZGKL 280500Z AUTO 13002KT 4SM 33/19 A2985 RMK T03300190 IEM_DS3505
ZGKL,2006-09-28 06:00,ZGKL 280600Z AUTO 14004KT 6SM 34/19 A2983 RMK SLP095 T03400189 57030 IEM_DS3505
ZGKL,2006-09-28 07:00,ZGKL 280700Z AUTO 23006KT 5SM 34/21 A2980 RMK T03400210 IEM_DS3505
ZGKL,2006-09-28 08:00,ZGKL 280800Z AUTO 18006KT 5SM 34/20 A2980 RMK T03400200 IEM_DS3505
ZGKL,2006-09-28 09:00,ZGKL 280900Z AUTO 27004KT 6SM 34/18 A2980 RMK SLP086 T03430179 57010 IEM_DS3505
ZGKL,2006-09-28 10:00,ZGKL 281000Z AUTO 22004KT 5SM 31/22 A2980 RMK T03100220 IEM_DS3505
ZGKL,2006-09-28 11:00,ZGKL 281100Z AUTO 21002KT 3SM 29/23 A2983 RMK T02900230 IEM_DS3505
ZGKL,2006-09-28 12:00,ZGKL 281200Z AUTO 02002KT 5SM 30/21 A2983 RMK SLP096 T03030214 52009 IEM_DS3505
ZGKL,2006-09-28 13:00,ZGKL 281300Z AUTO 17004KT 2 1/2SM 27/22 A2985 RMK T02700220 IEM_DS3505
ZGKL,2006-09-28 14:00,ZGKL 281400Z AUTO 31002KT 2 1/2SM 26/23 A2985 RMK T02600230 IEM_DS3505
ZGKL,2006-09-28 15:00,ZGKL 281500Z AUTO 02004KT 5SM 28/19 A2988 RMK SLP110 T02830192 52015 IEM_DS3505
ZGKL,2006-09-28 16:00,ZGKL 281600Z AUTO 01002KT 2 1/2SM 25/22 A2988 RMK T02500220 IEM_DS3505
ZGKL,2006-09-28 17:00,ZGKL 281700Z AUTO 35002KT 2SM 24/22 A2988 RMK T02400220 IEM_DS3505
ZGKL,2006-09-28 18:00,ZGKL 281800Z AUTO 02002KT 5SM 27/19 A2988 RMK SLP108 T02670191 57002 IEM_DS3505
ZGKL,2006-09-28 19:00,ZGKL 281900Z AUTO 00000KT 23/22 A2985 RMK T02300220 IEM_DS3505
ZGKL,2006-09-28 20:00,ZGKL 282000Z AUTO 28002KT 23/22 A2985 RMK T02300220 IEM_DS3505
ZGKL,2006-09-28 21:00,ZGKL 282100Z AUTO 02006KT 5SM 25/19 A2985 RMK SLP108 T02500191 54000 IEM_DS3505
ZGKL,2006-09-28 22:00,ZGKL 282200Z AUTO 31002KT 1 1/2SM 22/21 A2988 RMK T02200210 IEM_DS3505
ZGKL,2006-09-28 23:00,ZGKL 282300Z AUTO 29004KT 1 1/4SM 21/21 A2988 RMK T02100210 IEM_DS3505
ZGKL,2006-09-29 00:00,ZGKL 290000Z AUTO 04004KT 4SM 25/20 A2991 RMK SLP128 T02510201 52018 IEM_DS3505
ZGKL,2006-09-29 01:00,ZGKL 290100Z AUTO 29002KT 2SM 26/21 A2994 RMK T02600210 IEM_DS3505
ZGKL,2006-09-29 02:00,ZGKL 290200Z AUTO 31002KT 2SM 28/21 A2994 RMK T02800210 IEM_DS3505
ZGKL,2006-09-29 03:00,ZGKL 290300Z AUTO 02004KT 4SM 30/20 A2994 RMK SLP131 T02970203 52004 IEM_DS3505
ZGKL,2006-09-29 04:00,ZGKL 290400Z AUTO 31004KT 2SM 31/20 A2991 RMK T03100200 IEM_DS3505
ZGKL,2006-09-29 05:00,ZGKL 290500Z AUTO 34002KT 2 1/2SM 32/20 A2988 RMK T03200200 IEM_DS3505
ZGKL,2006-09-29 06:00,ZGKL 290600Z AUTO 02004KT 4SM 33/17 A2985 RMK SLP101 T03340167 57029 IEM_DS3505
ZGKL,2006-09-29 07:00,ZGKL 290700Z AUTO 04002KT 3SM 34/17 A2983 RMK T03400170 IEM_DS3505
ZGKL,2006-09-29 08:00,ZGKL 290800Z AUTO 04004KT 3SM 34/16 A2980 RMK T03400160 IEM_DS3505
ZGKL,2006-09-29 09:00,ZGKL 290900Z AUTO 07004KT 5SM 32/19 A2980 RMK SLP090 T03210190 57011 IEM_DS3505
ZGKL,2006-09-29 10:00,ZGKL 291000Z AUTO 05008KT 3SM 31/18 A2983 RMK T03100180 IEM_DS3505
ZGKL,2006-09-29 11:00,ZGKL 291100Z AUTO 06010KT 2 1/2SM 30/18 A2983 RMK T03000180 IEM_DS3505
ZGKL,2006-09-29 12:00,ZGKL 291200Z AUTO 04006KT 4SM 27/20 A2985 RMK SLP111 T02720195 52019 IEM_DS3505
ZGKL,2006-09-29 13:00,ZGKL 291300Z AUTO 04010KT 1 1/2SM 27/20 A2988 RMK T02700200 IEM_DS3505
ZGKL,2006-09-29 14:00,ZGKL 291400Z AUTO 36006KT 1 1/2SM 26/20 A2991 RMK T02600200 IEM_DS3505
ZGKL,2006-09-29 15:00,ZGKL 291500Z AUTO 36006KT 4SM 25/20 A2991 RMK SLP132 T02510197 52021 IEM_DS3505
ZGKL,2006-09-29 16:00,ZGKL 291600Z AUTO 05002KT 1 1/2SM 24/20 A2994 RMK T02400200 IEM_DS3505
ZGKL,2006-09-29 17:00,ZGKL 291700Z AUTO 03004KT 1 1/2SM 24/20 A2994 RMK T02400200 IEM_DS3505
ZGKL,2006-09-29 18:00,ZGKL 291800Z AUTO 02004KT 4SM 24/19 A2991 RMK SLP129 T02370192 57002 IEM_DS3505
ZGKL,2006-09-29 19:00,ZGKL 291900Z AUTO 27004KT A2991 RMK IEM_DS3505
ZGKL,2006-09-29 20:00,ZGKL 292000Z AUTO 28002KT 21/20 A2991 RMK T02100200 IEM_DS3505
ZGKL,2006-09-29 21:00,ZGKL 292100Z AUTO 04002KT 4SM A2991 RMK SLP126 57004 IEM_DS3505
ZGKL,2006-09-29 22:00,ZGKL 292200Z AUTO 29002KT 1 1/2SM 20/19 A2991 RMK T02000190 IEM_DS3505
ZGKL,2006-09-29 23:00,ZGKL 292300Z AUTO 32002KT 1SM 20/19 A2994 RMK T02000190 IEM_DS3505
ZGKL,2006-09-30 00:00,ZGKL 300000Z AUTO 07004KT 2SM 23/19 A2997 RMK SLP146 T02330190 52019 IEM_DS3505
ZGKL,2006-09-30 01:00,ZGKL 300100Z AUTO 36002KT 1SM 24/20 A2997 RMK T02400200 IEM_DS3505
ZGKL,2006-09-30 02:00,ZGKL 300200Z AUTO 06006KT 2SM 26/19 A3000 RMK T02600190 IEM_DS3505
ZGKL,2006-09-30 03:00,ZGKL 300300Z AUTO 07006KT 3SM 28/19 A3000 RMK SLP154 T02760191 52008 IEM_DS3505
ZGKL,2006-09-30 04:00,ZGKL 300400Z AUTO 03006KT 2 1/2SM 29/19 A2997 RMK T02900190 IEM_DS3505
ZGKL,2006-09-30 05:00,ZGKL 300500Z AUTO 04010KT 4SM 30/18 A2991 RMK T03000180 IEM_DS3505
ZGKL,2006-09-30 06:00,ZGKL 300600Z AUTO 36008KT 4SM 30/19 A2991 RMK SLP124 T02990190 57029 IEM_DS3505
ZGKL,2006-09-30 07:00,ZGKL 300700Z AUTO 06010KT 4SM 31/18 A2988 RMK T03100180 IEM_DS3505
ZGKL,2006-09-30 08:00,ZGKL 300800Z AUTO 06010KT 4SM 31/17 A2985 RMK T03100170 IEM_DS3505
ZGKL,2006-09-30 09:00,ZGKL 300900Z AUTO 04006KT 4SM 29/19 A2985 RMK SLP112 T02880186 57012 IEM_DS3505
ZGKL,2006-09-30 10:00,ZGKL 301000Z AUTO 06012KT 4SM 28/19 A2988 RMK T02800190 IEM_DS3505
ZGKL,2006-09-30 11:00,ZGKL 301100Z AUTO 05016KT 4SM 26/19 A2991 RMK T02600190 IEM_DS3505
ZGKL,2006-09-30 12:00,ZGKL 301200Z AUTO 02010KT 4SM 24/19 A2994 RMK SLP144 T02360187 52030 IEM_DS3505
ZGKL,2006-09-30 13:00,ZGKL 301300Z AUTO 06014KT 4SM 24/18 A2997 RMK T02400180 IEM_DS3505
ZGKL,2006-09-30 14:00,ZGKL 301400Z AUTO 05010KT 4SM 23/18 A2997 RMK T02300180 IEM_DS3505
ZGKL,2006-09-30 15:00,ZGKL 301500Z AUTO 02012KT 4SM 22/18 A2997 RMK SLP154 T02210175 52010 IEM_DS3505
ZGKL,2006-09-30 16:00,ZGKL 301600Z AUTO 02004KT 5SM 22/18 A2997 RMK T02200180 IEM_DS3505
ZGKL,2006-09-30 17:00,ZGKL 301700Z AUTO 03006KT 6SM 22/18 A2997 RMK T02200180 IEM_DS3505
ZGKL,2006-09-30 18:00,ZGKL 301800Z AUTO 02010KT 4SM 21/17 A2997 RMK SLP149 T02130173 57004 IEM_DS3505
ZGKL,2006-09-30 19:00,ZGKL 301900Z AUTO 36002KT 21/18 A2997 RMK T02100180 IEM_DS3505
ZGKL,2006-09-30 20:00,ZGKL 302000Z AUTO 03004KT 21/17 A2997 RMK T02100170 IEM_DS3505
ZGKL,2006-09-30 21:00,ZGKL 302100Z AUTO 02006KT 4SM 21/16 A2997 RMK SLP150 T02070163 54000 IEM_DS3505
ZGKL,2006-09-30 22:00,ZGKL 302200Z AUTO 05004KT 7SM 20/17 A2997 RMK T02000170 IEM_DS3505
ZGKL,2006-09-30 23:00,ZGKL 302300Z AUTO 33004KT 7SM 20/17 A3000 RMK T02000170 IEM_DS3505
ZGKL,2006-10-01 00:00,ZGKL 010000Z AUTO 02010KT 6SM 22/16 A3000 RMK SLP165 T02160159 52014 IEM_DS3505
ZGKL,2006-10-01 01:00,ZGKL 010100Z AUTO 03014KT 7SM 23/16 A3003 RMK T02300160 IEM_DS3505
ZGKL,2006-10-01 02:00,ZGKL 010200Z AUTO 04012KT 7SM 25/16 A3003 RMK T02500160 IEM_DS3505
ZGKL,2006-10-01 03:00,ZGKL 010300Z AUTO 02012KT 6SM 25/16 A3003 RMK SLP165 T02490155 54000 IEM_DS3505
ZGKL,2006-10-01 04:00,ZGKL 010400Z AUTO 04010KT 7SM 26/15 A3000 RMK T02600150 IEM_DS3505
ZGKL,2006-10-01 05:00,ZGKL 010500Z AUTO 03012KT 7SM 27/15 A2997 RMK T02700150 IEM_DS3505
ZGKL,2006-10-01 06:00,ZGKL 010600Z AUTO 02010KT 8SM 26/16 A2994 RMK SLP137 T02650155 57027 IEM_DS3505
ZGKL,2006-10-01 07:00,ZGKL 010700Z AUTO 03014KT 6SM 28/15 A2991 RMK T02800150 IEM_DS3505
ZGKL,2006-10-01 08:00,ZGKL 010800Z AUTO 05012KT 6SM 28/15 A2991 RMK T02800150 IEM_DS3505
ZGKL,2006-10-01 09:00,ZGKL 010900Z AUTO 02008KT 8SM 26/16 A2991 RMK SLP135 T02600157 57002 IEM_DS3505
ZGKL,2006-10-01 10:00,ZGKL 011000Z AUTO 06012KT 6SM 25/16 A2991 RMK T02500160 IEM_DS3505
ZGKL,2006-10-01 11:00,ZGKL 011100Z AUTO 06012KT 5SM 24/16 A2994 RMK T02400160 IEM_DS3505
ZGKL,2006-10-01 12:00,ZGKL 011200Z AUTO 02006KT 8SM 23/16 A2997 RMK SLP157 T02270155 52020 IEM_DS3505
ZGKL,2006-10-01 13:00,ZGKL 011300Z AUTO 04008KT 5SM 23/15 A3000 RMK T02300150 IEM_DS3505
ZGKL,2006-10-01 14:00,ZGKL 011400Z AUTO 02008KT 5SM 22/15 A3000 RMK T02200150 IEM_DS3505
ZGKL,2006-10-01 15:00,ZGKL 011500Z AUTO 02004KT 8SM 21/15 A3000 RMK SLP164 T02130152 52008 IEM_DS3505
ZGKL,2006-10-01 16:00,ZGKL 011600Z AUTO 33004KT 5SM 19/16 A3000 RMK T01900160 IEM_DS3505
ZGKL,2006-10-01 17:00,ZGKL 011700Z AUTO 02002KT 5SM 19/16 A3000 RMK T01900160 IEM_DS3505
ZGKL,2006-10-01 18:00,ZGKL 011800Z AUTO 02006KT 8SM 21/15 A2997 RMK SLP154 T02090150 57010 IEM_DS3505
ZGKL,2006-10-01 19:00,ZGKL 011900Z AUTO 30004KT 18/17 A2997 RMK T01800170 IEM_DS3505
ZGKL,2006-10-01 20:00,ZGKL 012000Z AUTO 00000KT 4SM 18/17 A2997 RMK T01800170 IEM_DS3505
ZGKL,2006-10-01 21:00,ZGKL 012100Z AUTO 02004KT 8SM 20/15 A2997 RMK SLP152 T02020150 57002 IEM_DS3505
ZGKL,2006-10-01 22:00,ZGKL 012200Z AUTO 32004KT 4SM 17/16 A2997 RMK T01700160 IEM_DS3505
ZGKL,2006-10-01 23:00,ZGKL 012300Z AUTO 34002KT 4SM 18/17 A3000 RMK T01800170 IEM_DS3505
ZGKL,2006-10-02 00:00,ZGKL 020000Z AUTO 02006KT 7SM 21/15 A3000 RMK SLP165 T02100153 52012 IEM_DS3505
ZGKL,2006-10-02 01:00,ZGKL 020100Z AUTO 35006KT 4SM 22/17 A3003 RMK T02200170 IEM_DS3505
ZGKL,2006-10-02 02:00,ZGKL 020200Z AUTO 03006KT 5SM 24/15 A3000 RMK T02400150 IEM_DS3505
ZGKL,2006-10-02 03:00,ZGKL 020300Z AUTO 36008KT 7SM 26/15 A3000 RMK SLP156 T02550149 57008 IEM_DS3505
ZGKL,2006-10-02 04:00,ZGKL 020400Z AUTO 04004KT 6SM 26/15 A2997 RMK T02600150 IEM_DS3505
ZGKL,2006-10-02 05:00,ZGKL 020500Z AUTO 07004KT 6SM 27/15 A2994 RMK T02700150 IEM_DS3505
ZGKL,2006-10-02 06:00,ZGKL 020600Z AUTO 04004KT 9SM 29/15 A2988 RMK SLP121 T02890147 57033 IEM_DS3505
ZGKL,2006-10-02 07:00,ZGKL 020700Z AUTO 34004KT 6SM 28/15 A2988 RMK T02800150 IEM_DS3505
ZGKL,2006-10-02 08:00,ZGKL 020800Z AUTO 33002KT 6SM 29/15 A2985 RMK T02900150 IEM_DS3505
ZGKL,2006-10-02 09:00,ZGKL 020900Z AUTO 09004KT 9SM 28/15 A2985 RMK SLP115 T02790149 57007 IEM_DS3505
ZGKL,2006-10-02 10:00,ZGKL 021000Z AUTO 04006KT 6SM 28/15 A2988 RMK T02800150 IEM_DS3505
ZGKL,2006-10-02 11:00,ZGKL 021100Z AUTO 05008KT 6SM 26/15 A2988 RMK T02600150 IEM_DS3505
ZGKL,2006-10-02 12:00,ZGKL 021200Z AUTO 02006KT 9SM 24/16 A2991 RMK SLP131 T02380156 52015 IEM_DS3505
ZGKL,2006-10-02 13:00,ZGKL 021300Z AUTO 04010KT 6SM 24/15 A2994 RMK T02400150 IEM_DS3505
ZGKL,2006-10-02 14:00,ZGKL 021400Z AUTO 35006KT 6SM 22/16 A2997 RMK T02200160 IEM_DS3505
ZGKL,2006-10-02 15:00,ZGKL 021500Z AUTO 36006KT 8SM 22/15 A2997 RMK SLP147 T02240153 52017 IEM_DS3505
ZGKL,2006-10-02 16:00,ZGKL 021600Z AUTO 34004KT 5SM 19/16 A2994 RMK T01900160 IEM_DS3505
ZGKL,2006-10-02 17:00,ZGKL 021700Z AUTO 02002KT 20/17 A2994 RMK T02000170 IEM_DS3505
ZGKL,2006-10-02 18:00,ZGKL 021800Z AUTO 02004KT 8SM 21/16 A2994 RMK SLP140 T02070155 57007 IEM_DS3505
ZGKL,2006-10-02 19:00,ZGKL 021900Z AUTO 36002KT 18/17 A2991 RMK T01800170 IEM_DS3505
ZGKL,2006-10-02 20:00,ZGKL 022000Z AUTO 32002KT 18/17 A2991 RMK T01800170 IEM_DS3505
ZGKL,2006-10-02 21:00,ZGKL 022100Z AUTO 36004KT 7SM 20/15 A2994 RMK SLP133 T02000154 57007 IEM_DS3505
ZGKL,2006-10-02 22:00,ZGKL 022200Z AUTO 00000KT 3SM 17/16 A2994 RMK T01700160 IEM_DS3505
ZGKL,2006-10-02 23:00,ZGKL 022300Z AUTO 00000KT 3SM 17/16 A2994 RMK T01700160 IEM_DS3505
ZGKL,2006-10-03 00:00,ZGKL 030000Z AUTO 36004KT 6SM 21/16 A2997 RMK SLP151 T02090159 52017 IEM_DS3505
ZGKL,2006-10-03 01:00,ZGKL 030100Z AUTO 01002KT 3SM 22/17 A2997 RMK T02200170 IEM_DS3505
ZGKL,2006-10-03 02:00,ZGKL 030200Z AUTO 32004KT 4SM 25/16 A2997 RMK T02500160 IEM_DS3505
ZGKL,2006-10-03 03:00,ZGKL 030300Z AUTO 36006KT 5SM 27/16 A2997 RMK SLP146 T02710164 57004 IEM_DS3505
ZGKL,2006-10-03 04:00,ZGKL 030400Z AUTO 05004KT 5SM 29/16 A2994 RMK T02900160 IEM_DS3505
ZGKL,2006-10-03 05:00,ZGKL 030500Z AUTO 07006KT 6SM 29/14 A2991 RMK T02900140 IEM_DS3505
ZGKL,2006-10-03 06:00,ZGKL 030600Z AUTO 02006KT 7SM 31/14 A2985 RMK SLP111 T03060138 57033 IEM_DS3505
ZGKL,2006-10-03 07:00,ZGKL 030700Z AUTO 12004KT 6SM 31/14 A2985 RMK T03100140 IEM_DS3505
ZGKL,2006-10-03 08:00,ZGKL 030800Z AUTO 12002KT 6SM 31/13 A2983 RMK T03100130 IEM_DS3505
ZGKL,2006-10-03 09:00,ZGKL 030900Z AUTO 09006KT 8SM 31/14 A2983 RMK SLP095 T03120135 57016 IEM_DS3505
ZGKL,2006-10-03 10:00,ZGKL 031000Z AUTO 27004KT 6SM 27/18 A2983 RMK T02700180 IEM_DS3505
ZGKL,2006-10-03 11:00,ZGKL 031100Z AUTO 03002KT 6SM 26/17 A2985 RMK T02600170 IEM_DS3505
ZGKL,2006-10-03 12:00,ZGKL 031200Z AUTO 04004KT 9SM 26/15 A2988 RMK SLP118 T02590150 52021 IEM_DS3505
ZGKL,2006-10-03 13:00,ZGKL 031300Z AUTO 32002KT 6SM 23/17 A2991 RMK T02300170 IEM_DS3505
ZGKL,2006-10-03 14:00,ZGKL 031400Z AUTO 35002KT 6SM 24/16 A2991 RMK T02400160 IEM_DS3505
ZGKL,2006-10-03 15:00,ZGKL 031500Z AUTO 02004KT 7SM 24/16 A2991 RMK SLP126 T02430155 52009 IEM_DS3505
ZGKL,2006-10-03 16:00,ZGKL 031600Z AUTO 29004KT 21/18 A2991 RMK T02100180 IEM_DS3505
ZGKL,2006-10-03 17:00,ZGKL 031700Z AUTO 35004KT 20/18 A2991 RMK T02000180 IEM_DS3505
ZGKL,2006-10-03 18:00,ZGKL 031800Z AUTO 36004KT 7SM 23/16 A2988 RMK SLP119 T02320160 57006 IEM_DS3505
ZGKL,2006-10-03 19:00,ZGKL 031900Z AUTO 35004KT 20/18 A2988 RMK T02000180 IEM_DS3505
ZGKL,2006-10-03 20:00,ZGKL 032000Z AUTO 35002KT 20/18 A2988 RMK T02000180 IEM_DS3505
ZGKL,2006-10-03 21:00,ZGKL 032100Z AUTO 02002KT 7SM 22/16 A2988 RMK SLP118 T02220160 57001 IEM_DS3505
ZGKL,2006-10-03 22:00,ZGKL 032200Z AUTO 33002KT 2SM 20/18 A2988 RMK T02000180 IEM_DS3505
ZGKL,2006-10-03 23:00,ZGKL 032300Z AUTO 00000KT 3SM 20/18 A2991 RMK T02000180 IEM_DS3505
ZGKL,2006-10-04 00:00,ZGKL 040000Z AUTO 02006KT 7SM 23/16 A2994 RMK SLP137 T02300158 52017 IEM_DS3505
ZGKL,2006-10-04 01:00,ZGKL 040100Z AUTO 31002KT 3SM 23/17 A2994 RMK T02300170 IEM_DS3505
ZGKL,2006-10-04 02:00,ZGKL 040200Z AUTO 19002KT 3SM 25/17 A2994 RMK T02500170 IEM_DS3505
ZGKL,2006-10-04 03:00,ZGKL 040300Z AUTO 04008KT 7SM 28/14 A2994 RMK SLP135 T02750142 57001 IEM_DS3505
ZGKL,2006-10-04 04:00,ZGKL 040400Z AUTO 23002KT 4SM 27/16 A2991 RMK T02700160 IEM_DS3505
ZGKL,2006-10-04 05:00,ZGKL 040500Z AUTO 32002KT 4SM 28/15 A2985 RMK T02800150 IEM_DS3505
ZGKL,2006-10-04 06:00,ZGKL 040600Z AUTO 36004KT 7SM 31/13 A2983 RMK SLP095 T03140132 57038 IEM_DS3505
ZGKL,2006-10-04 07:00,ZGKL 040700Z AUTO 31004KT 5SM 30/13 A2983 RMK T03000130 IEM_DS3505
ZGKL,2006-10-04 08:00,ZGKL 040800Z AUTO 29004KT 5SM 31/16 A2980 RMK T03100160 IEM_DS3505
ZGKL,2006-10-04 09:00,ZGKL 040900Z AUTO 02006KT 8SM 31/12 A2980 RMK SLP086 T03080122 57009 IEM_DS3505
ZGKL,2006-10-04 10:00,ZGKL 041000Z AUTO 28002KT 5SM 28/17 A2983 RMK T02800170 IEM_DS3505
ZGKL,2006-10-04 11:00,ZGKL 041100Z AUTO 03004KT 4SM 28/17 A2983 RMK T02800170 IEM_DS3505
ZGKL,2006-10-04 12:00,ZGKL 041200Z AUTO 02004KT 6SM 26/14 A2985 RMK SLP108 T02630138 52020 IEM_DS3505
ZGKL,2006-10-04 13:00,ZGKL 041300Z AUTO 36004KT 4SM 25/15 A2988 RMK T02500150 IEM_DS3505
ZGKL,2006-10-04 14:00,ZGKL 041400Z AUTO 36006KT 4SM 25/15 A2991 RMK T02500150 IEM_DS3505
ZGKL,2006-10-04 15:00,ZGKL 041500Z AUTO 36004KT 6SM 25/13 A2991 RMK SLP124 T02530129 52017 IEM_DS3505
ZGKL,2006-10-04 16:00,ZGKL 041600Z AUTO 32004KT 4SM 24/16 A2988 RMK T02400160 IEM_DS3505
ZGKL,2006-10-04 17:00,ZGKL 041700Z AUTO 32002KT 4SM 23/17 A2991 RMK T02300170 IEM_DS3505
ZGKL,2006-10-04 18:00,ZGKL 041800Z AUTO 02004KT 6SM 24/14 A2988 RMK SLP117 T02430138 57006 IEM_DS3505
ZGKL,2006-10-04 19:00,ZGKL 041900Z AUTO 31002KT 22/18 A2988 RMK T02200180 IEM_DS3505
ZGKL,2006-10-04 20:00,ZGKL 042000Z AUTO 23002KT 21/18 A2985 RMK T02100180 IEM_DS3505
ZGKL,2006-10-04 21:00,ZGKL 042100Z AUTO 02004KT 6SM 22/15 A2988 RMK SLP113 T02250151 57005 IEM_DS3505
ZGKL,2006-10-04 22:00,ZGKL 042200Z AUTO 35004KT 2 1/2SM 19/17 A2988 RMK T01900170 IEM_DS3505
ZGKL,2006-10-04 23:00,ZGKL 042300Z AUTO 32002KT 4SM 19/17 A2991 RMK T01900170 IEM_DS3505
ZGKL,2006-10-05 00:00,ZGKL 050000Z AUTO 02004KT 7SM 23/15 A2991 RMK SLP130 T02300146 52016 IEM_DS3505
ZGKL,2006-10-05 01:00,ZGKL 050100Z AUTO 34004KT 4SM 23/17 A2994 RMK T02300170 IEM_DS3505
ZGKL,2006-10-05 02:00,ZGKL 050200Z AUTO 34006KT 4SM 26/15 A2991 RMK T02600150 IEM_DS3505
ZGKL,2006-10-05 03:00,ZGKL 050300Z AUTO 36004KT 6SM 28/13 A2991 RMK SLP129 T02790131 54000 IEM_DS3505
ZGKL,2006-10-05 04:00,ZGKL 050400Z AUTO 05006KT 5SM 29/11 A2991 RMK T02900110 IEM_DS3505
ZGKL,2006-10-05 05:00,ZGKL 050500Z AUTO 09002KT 5SM 30/11 A2985 RMK T03000110 IEM_DS3505
ZGKL,2006-10-05 06:00,ZGKL 050600Z AUTO 36006KT 6SM 31/12 A2983 RMK SLP100 T03110115 57028 IEM_DS3505
ZGKL,2006-10-05 07:00,ZGKL 050700Z AUTO 02002KT 6SM 30/13 A2983 RMK T03000130 IEM_DS3505
ZGKL,2006-10-05 08:00,ZGKL 050800Z AUTO 28004KT 6SM 28/15 A2983 RMK T02800150 IEM_DS3505
ZGKL,2006-10-05 09:00,ZGKL 050900Z AUTO 04004KT 6SM 30/14 A2983 RMK SLP091 T02980136 57010 IEM_DS3505
ZGKL,2006-10-05 10:00,ZGKL 051000Z AUTO 29002KT 6SM 28/15 A2983 RMK T02800150 IEM_DS3505
ZGKL,2006-10-05 11:00,ZGKL 051100Z AUTO 04010KT 5SM 28/13 A2983 RMK T02800130 IEM_DS3505
ZGKL,2006-10-05 12:00,ZGKL 051200Z AUTO 02006KT 6SM 26/15 A2985 RMK SLP111 T02580152 52019 IEM_DS3505
ZGKL,2006-10-05 13:00,ZGKL 051300Z AUTO 05006KT 4SM 26/15 A2988 RMK T02600150 IEM_DS3505
ZGKL,2006-10-05 14:00,ZGKL 051400Z AUTO 27002KT 4SM 23/19 A2991 RMK T02300190 IEM_DS3505
ZGKL,2006-10-05 15:00,ZGKL 051500Z AUTO 02004KT 6SM 24/15 A2991 RMK SLP126 T02410151 52015 IEM_DS3505
ZGKL,2006-10-05 16:00,ZGKL 051600Z AUTO 00000KT 4SM 22/19 A2991 RMK T02200190 IEM_DS3505
ZGKL,2006-10-05 17:00,ZGKL 051700Z AUTO 26002KT 4SM 22/18 A2991 RMK T02200180 IEM_DS3505
ZGKL,2006-10-05 18:00,ZGKL 051800Z AUTO 02004KT 6SM 24/15 A2991 RMK SLP121 T02350150 57004 IEM_DS3505
ZGKL,2006-10-05 19:00,ZGKL 051900Z AUTO 27002KT 21/19 A2988 RMK T02100190 IEM_DS3505
ZGKL,2006-10-05 20:00,ZGKL 052000Z AUTO 00000KT 21/19 A2988 RMK T02100190 IEM_DS3505
ZGKL,2006-10-05 21:00,ZGKL 052100Z AUTO 02002KT 6SM 22/16 A2988 RMK SLP116 T02240155 57005 IEM_DS3505
ZGKL,2006-10-05 22:00,ZGKL 052200Z AUTO 00000KT 3SM 21/19 A2988 RMK T02100190 IEM_DS3505
ZGKL,2006-10-05 23:00,ZGKL 052300Z AUTO 32002KT 2 1/2SM 21/19 A2991 RMK T02100190 IEM_DS3505
ZGKL,2006-10-06 00:00,ZGKL 060000Z AUTO 02004KT 4SM 23/16 A2994 RMK SLP134 T02290160 52016 IEM_DS3505
ZGKL,2006-10-06 01:00,ZGKL 060100Z AUTO 02004KT 2 1/2SM 23/17 A2994 RMK T02300170 IEM_DS3505
ZGKL,2006-10-06 02:00,ZGKL 060200Z AUTO 32002KT 3SM 25/17 A2994 RMK T02500170 IEM_DS3505
ZGKL,2006-10-06 03:00,ZGKL 060300Z AUTO 11004KT 4SM 26/16 A2994 RMK SLP136 T02630160 52003 IEM_DS3505
ZGKL,2006-10-06 04:00,ZGKL 060400Z AUTO 04004KT 4SM 29/16 A2991 RMK T02900160 IEM_DS3505
ZGKL,2006-10-06 05:00,ZGKL 060500Z AUTO 07004KT 4SM 30/16 A2988 RMK T03000160 IEM_DS3505
ZGKL,2006-10-06 06:00,ZGKL 060600Z AUTO 07004KT 6SM 30/16 A2985 RMK SLP107 T02970158 57028 IEM_DS3505
ZGKL,2006-10-06 07:00,ZGKL 060700Z AUTO 27002KT 4SM 30/17 A2983 RMK T03000170 IEM_DS3505
ZGKL,2006-10-06 08:00,ZGKL 060800Z AUTO 30002KT 4SM 31/16 A2980 RMK T03100160 IEM_DS3505
ZGKL,2006-10-06 09:00,ZGKL 060900Z AUTO 09002KT 6SM 30/16 A2983 RMK SLP095 T03020159 57012 IEM_DS3505
ZGKL,2006-10-06 10:00,ZGKL 061000Z AUTO 06002KT 4SM 29/16 A2983 RMK T02900160 IEM_DS3505
ZGKL,2006-10-06 11:00,ZGKL 061100Z AUTO 29002KT 4SM 27/20 A2983 RMK T02700200 IEM_DS3505
ZGKL,2006-10-06 12:00,ZGKL 061200Z AUTO 02004KT 6SM 28/19 A2985 RMK SLP109 T02770187 52013 IEM_DS3505
ZGKL,2006-10-06 13:00,ZGKL 061300Z AUTO 34004KT 3SM 25/21 A2985 RMK T02500210 IEM_DS3505
ZGKL,2006-10-06 14:00,ZGKL 061400Z AUTO 33004KT 3SM 25/21 A2988 RMK T02500210 IEM_DS3505
ZGKL,2006-10-06 15:00,ZGKL 061500Z AUTO 02004KT 6SM 26/17 A2988 RMK SLP116 T02590173 52008 IEM_DS3505
ZGKL,2006-10-06 16:00,ZGKL 061600Z AUTO 06002KT 3SM 25/19 A2988 RMK T02500190 IEM_DS3505
ZGKL,2006-10-06 17:00,ZGKL 061700Z AUTO 06002KT 3SM 25/18 A2988 RMK T02500180 IEM_DS3505
ZGKL,2006-10-06 18:00,ZGKL 061800Z AUTO 02004KT 6SM 25/17 A2985 RMK SLP108 T02470167 57007 IEM_DS3505
ZGKL,2006-10-06 19:00,ZGKL 061900Z AUTO 06002KT 3SM 25/17 A2985 RMK T02500170 IEM_DS3505
ZGKL,2006-10-06 21:00,ZGKL 062100Z AUTO 02004KT 6SM 24/17 A2985 RMK SLP101 T02390169 57007 IEM_DS3505
ZGKL,2006-10-06 22:00,ZGKL 062200Z AUTO 04006KT 3SM 24/17 A2985 RMK T02400170 IEM_DS3505
ZGKL,2006-10-06 23:00,ZGKL 062300Z AUTO 00000KT 3SM 23/18 A2985 RMK T02300180 IEM_DS3505
ZGKL,2006-10-07 00:00,ZGKL 070000Z AUTO 02002KT 3SM 23/17 A2988 RMK SLP122 T02340169 52019 IEM_DS3505
ZGKL,2006-10-07 01:00,ZGKL 070100Z AUTO 35002KT 1 1/2SM 23/18 A2991 RMK T02300180 IEM_DS3505
ZGKL,2006-10-07 02:00,ZGKL 070200Z AUTO 34004KT 1 1/4SM 22/20 A2994 RMK T02200200 IEM_DS3505
ZGKL,2006-10-07 03:00,ZGKL 070300Z AUTO 02004KT 2SM 23/18 A2994 RMK SLP135 T02280179 52012 IEM_DS3505
ZGKL,2006-10-07 04:00,ZGKL 070400Z AUTO 35004KT 1 1/2SM 23/20 A2991 RMK T02300200 IEM_DS3505
ZGKL,2006-10-07 05:00,ZGKL 070500Z AUTO 05002KT 2SM 26/19 A2988 RMK T02600190 IEM_DS3505
ZGKL,2006-10-07 06:00,ZGKL 070600Z AUTO 36004KT 2SM 24/18 A2985 RMK SLP111 T02430185 57023 IEM_DS3505
ZGKL,2006-10-07 07:00,ZGKL 070700Z AUTO 33006KT 2SM 26/20 A2983 RMK T02600200 IEM_DS3505
ZGKL,2006-10-07 08:00,ZGKL 070800Z AUTO 34006KT 2SM 26/20 A2983 RMK T02600200 IEM_DS3505
ZGKL,2006-10-07 09:00,ZGKL 070900Z AUTO 36008KT 2SM 24/19 A2983 RMK SLP099 T02430187 57012 IEM_DS3505
ZGKL,2006-10-07 10:00,ZGKL 071000Z AUTO 35006KT 1 1/2SM 25/20 A2983 RMK T02500200 IEM_DS3505
ZGKL,2006-10-07 11:00,ZGKL 071100Z AUTO 35004KT 1 1/4SM 24/20 A2985 RMK T02400200 IEM_DS3505
ZGKL,2006-10-07 12:00,ZGKL 071200Z AUTO 02006KT 2SM 23/18 A2988 RMK SLP118 T02260179 52018 IEM_DS3505
ZGKL,2006-10-07 13:00,ZGKL 071300Z AUTO 05004KT 1 1/4SM 23/18 A2988 RMK T02300180 IEM_DS3505
ZGKL,2006-10-07 14:00,ZGKL 071400Z AUTO 04004KT 1 1/4SM 22/18 A2991 RMK T02200180 IEM_DS3505
ZGKL,2006-10-07 15:00,ZGKL 071500Z AUTO 04008KT 2 1/2SM 21/17 A2991 RMK SLP129 T02140172 52010 IEM_DS3505
ZGKL,2006-10-07 16:00,ZGKL 071600Z AUTO 10004KT 1 1/4SM 22/18 A2991 RMK T02200180 IEM_DS3505
ZGKL,2006-10-07 17:00,ZGKL 071700Z AUTO 02002KT 1 1/4SM 22/18 A2991 RMK T02200180 IEM_DS3505
ZGKL,2006-10-07 18:00,ZGKL 071800Z AUTO 02006KT 2 1/2SM 21/18 A2991 RMK 60000 SLP130 T02080176 52001 IEM_DS3505
ZGKL,2006-10-07 19:00,ZGKL 071900Z AUTO 07004KT 21/17 A2991 RMK T02100170 IEM_DS3505
ZGKL,2006-10-07 20:00,ZGKL 072000Z AUTO 05002KT 21/17 A2991 RMK T02100170 IEM_DS3505
ZGKL,2006-10-07 21:00,ZGKL 072100Z AUTO 02006KT 2 1/2SM 21/17 A2991 RMK 70000 SLP132 T02060168 52002 IEM_DS3505
ZGKL,2006-10-07 22:00,ZGKL 072200Z AUTO 02002KT 2 1/2SM 21/17 A2994 RMK T02100170 IEM_DS3505
ZGKL,2006-10-07 23:00,ZGKL 072300Z AUTO 04004KT 2 1/2SM 21/18 A2997 RMK T02100180 IEM_DS3505
ZGKL,2006-10-08 00:00,ZGKL 080000Z AUTO 02006KT 2 1/2SM 20/17 A3000 RMK 70000 SLP157 T02050169 52024 IEM_DS3505
ZGKL,2006-10-08 01:00,ZGKL 080100Z AUTO 03004KT 1 1/2SM 21/17 A3003 RMK T02100170 IEM_DS3505
ZGKL,2006-10-08 02:00,ZGKL 080200Z AUTO 05004KT 1 1/2SM 21/18 A3003 RMK T02100180 IEM_DS3505
ZGKL,2006-10-08 03:00,ZGKL 080300Z AUTO 07004KT 2SM 20/18 A3003 RMK SLP177 T01960177 52019 IEM_DS3505
ZGKL,2006-10-08 04:00,ZGKL 080400Z AUTO 01002KT 1SM 20/18 A3003 RMK T02000180 IEM_DS3505
ZGKL,2006-10-08 05:00,ZGKL 080500Z AUTO 03004KT 2SM 19/18 A3003 RMK T01900180 IEM_DS3505
ZGKL,2006-10-08 06:00,ZGKL 080600Z AUTO 02004KT 2SM 19/18 A3000 RMK 60000 SLP164 T01920182 57013 IEM_DS3505
ZGKL,2006-10-08 07:00,ZGKL 080700Z AUTO 02002KT 1 1/4SM 19/18 A3000 RMK T01900180 IEM_DS3505
ZGKL,2006-10-08 08:00,ZGKL 080800Z AUTO 05004KT 2 1/2SM 19/18 A3000 RMK T01900180 IEM_DS3505
ZGKL,2006-10-08 09:00,ZGKL 080900Z AUTO 02004KT 2 1/2SM 19/18 RMK SLP162 T01920184 57002 IEM_DS3505
ZGKL,2006-10-08 10:00,ZGKL 081000Z AUTO 02002KT 4SM 19/18 A3000 RMK T01900180 IEM_DS3505
ZGKL,2006-10-08 11:00,ZGKL 081100Z AUTO 00000KT 4SM 19/18 A3000 RMK T01900180 IEM_DS3505
ZGKL,2006-10-08 12:00,ZGKL 081200Z AUTO 36004KT 2 1/2SM 19/18 A3003 RMK 60008 SLP171 T01920177 52009 IEM_DS3505
ZGKL,2006-10-08 13:00,ZGKL 081300Z AUTO 00000KT 7SM 19/18 A3006 RMK T01900180 IEM_DS3505
ZGKL,2006-10-08 14:00,ZGKL 081400Z AUTO 00000KT 4SM 19/18 A3006 RMK T01900180 IEM_DS3505
ZGKL,2006-10-08 15:00,ZGKL 081500Z AUTO 02004KT 7SM 19/17 A3006 RMK SLP178 T01880173 52006 IEM_DS3505
ZGKL,2006-10-08 16:00,ZGKL 081600Z AUTO 00000KT 1SM 18/17 A3003 RMK T01800170 IEM_DS3505
ZGKL,2006-10-08 17:00,ZGKL 081700Z AUTO 30002KT 18/18 A3003 RMK T01800180 IEM_DS3505
ZGKL,2006-10-08 18:00,ZGKL 081800Z AUTO 36002KT 6SM 18/17 A3003 RMK SLP170 T01830171 57008 IEM_DS3505
ZGKL,2006-10-08 19:00,ZGKL 081900Z AUTO 33002KT 18/17 A3000 RMK T01800170 IEM_DS3505
ZGKL,2006-10-08 20:00,ZGKL 082000Z AUTO 04004KT 18/17 A3000 RMK T01800170 IEM_DS3505
ZGKL,2006-10-08 21:00,ZGKL 082100Z AUTO 34002KT 4SM 18/17 A3000 RMK 70007 SLP164 T01770174 57006 IEM_DS3505
ZGKL,2006-10-08 22:00,ZGKL 082200Z AUTO 29002KT 1SM 18/17 A3003 RMK T01800170 IEM_DS3505
ZGKL,2006-10-08 23:00,ZGKL 082300Z AUTO 00000KT 1SM 18/17 A3003 RMK T01800170 IEM_DS3505
ZGKL,2006-10-09 00:00,ZGKL 090000Z AUTO 32002KT 6SM 19/18 A3006 RMK 70007 SLP178 T01870179 52014 IEM_DS3505
ZGKL,2006-10-09 01:00,ZGKL 090100Z AUTO 00000KT 1 1/2SM 19/18 A3006 RMK T01900180 IEM_DS3505
ZGKL,2006-10-09 02:00,ZGKL 090200Z AUTO 01002KT 3SM 21/19 A3006 RMK T02100190 IEM_DS3505
ZGKL,2006-10-09 03:00,ZGKL 090300Z AUTO 34004KT 7SM 24/18 A3006 RMK SLP173 T02430178 57003 IEM_DS3505
ZGKL,2006-10-09 04:00,ZGKL 090400Z AUTO 06006KT 5SM 25/17 A3003 RMK T02500170 IEM_DS3505
ZGKL,2006-10-09 05:00,ZGKL 090500Z AUTO 05002KT 5SM 26/17 A3000 RMK T02600170 IEM_DS3505
ZGKL,2006-10-09 06:00,ZGKL 090600Z AUTO 27002KT 9SM 28/16 A2997 RMK SLP144 T02760159 57028 IEM_DS3505
ZGKL,2006-10-09 07:00,ZGKL 090700Z AUTO 35002KT 6SM 29/17 A2994 RMK T02900170 IEM_DS3505
ZGKL,2006-10-09 08:00,ZGKL 090800Z AUTO 30002KT 6SM 28/15 A2994 RMK T02800150 IEM_DS3505
ZGKL,2006-10-09 09:00,ZGKL 090900Z AUTO 16002KT 10SM 28/16 A2994 RMK SLP137 T02780158 57007 IEM_DS3505
ZGKL,2006-10-09 10:00,ZGKL 091000Z AUTO 22002KT 6SM 25/18 A2994 RMK T02500180 IEM_DS3505
ZGKL,2006-10-09 11:00,ZGKL 091100Z AUTO 25004KT 6SM 23/20 A2994 RMK T02300200 IEM_DS3505
ZGKL,2006-10-09 12:00,ZGKL 091200Z AUTO 02004KT 10SM 24/17 A2997 RMK SLP156 T02440174 52018 IEM_DS3505
ZGKL,2006-10-09 13:00,ZGKL 091300Z AUTO 09002KT 6SM 23/19 A3000 RMK T02300190 IEM_DS3505
ZGKL,2006-10-09 14:00,ZGKL 091400Z AUTO 33004KT 4SM 23/19 A3003 RMK T02300190 IEM_DS3505
ZGKL,2006-10-09 15:00,ZGKL 091500Z AUTO 02004KT 9SM 23/18 A3003 RMK SLP165 T02300175 52010 IEM_DS3505
ZGKL,2006-10-09 16:00,ZGKL 091600Z AUTO 03002KT 3SM 23/17 A3003 RMK T02300170 IEM_DS3505
ZGKL,2006-10-09 17:00,ZGKL 091700Z AUTO 06004KT 23/17 A3003 RMK T02300170 IEM_DS3505
ZGKL,2006-10-09 18:00,ZGKL 091800Z AUTO 36002KT 8SM 22/17 A3000 RMK SLP161 T02230170 57003 IEM_DS3505
ZGKL,2006-10-09 19:00,ZGKL 091900Z AUTO 36002KT 21/18 A3000 RMK T02100180 IEM_DS3505
ZGKL,2006-10-09 20:00,ZGKL 092000Z AUTO 33002KT 21/19 A3000 RMK T02100190 IEM_DS3505
ZGKL,2006-10-09 21:00,ZGKL 092100Z AUTO 07002KT 6SM 22/17 A3000 RMK SLP160 T02180172 57001 IEM_DS3505
ZGKL,2006-10-09 22:00,ZGKL 092200Z AUTO 00000KT 3SM 20/19 A3003 RMK T02000190 IEM_DS3505
ZGKL,2006-10-09 23:00,ZGKL 092300Z AUTO 00000KT 2 1/2SM 20/19 A3003 RMK T02000190 IEM_DS3505
ZGKL,2006-10-10 00:00,ZGKL 100000Z AUTO 04002KT 6SM 23/18 A3006 RMK SLP177 T02270178 52016 IEM_DS3505
ZGKL,2006-10-10 01:00,ZGKL 100100Z AUTO 31002KT 3SM 24/19 A3006 RMK T02400190 IEM_DS3505
ZGKL,2006-10-10 02:00,ZGKL 100200Z AUTO 26002KT 4SM 25/18 A3006 RMK T02500180 IEM_DS3505
ZGKL,2006-10-10 03:00,ZGKL 100300Z AUTO 11004KT 7SM 27/17 A3006 RMK SLP176 T02680167 54000 IEM_DS3505
ZGKL,2006-10-10 04:00,ZGKL 100400Z AUTO 20004KT 4SM 28/18 A3003 RMK T02800180 IEM_DS3505
ZGKL,2006-10-10 05:00,ZGKL 100500Z AUTO 32004KT 4SM 28/19 A3000 RMK T02800190 IEM_DS3505
ZGKL,2006-10-10 06:00,ZGKL 100600Z AUTO 36004KT 9SM 31/15 A2997 RMK SLP145 T03110151 57029 IEM_DS3505
ZGKL,2006-10-10 07:00,ZGKL 100700Z AUTO 33002KT 6SM 29/18 A2994 RMK T02900180 IEM_DS3505
ZGKL,2006-10-10 08:00,ZGKL 100800Z AUTO 34006KT 6SM 29/18 A2994 RMK T02900180 IEM_DS3505
ZGKL,2006-10-10 09:00,ZGKL 100900Z AUTO 29004KT 9SM 29/17 A2997 RMK SLP138 T02920174 57008 IEM_DS3505
ZGKL,2006-10-10 10:00,ZGKL 101000Z AUTO 27002KT 6SM 26/19 A2997 RMK T02600190 IEM_DS3505
ZGKL,2006-10-10 11:00,ZGKL 101100Z AUTO 26002KT 6SM 25/20 A2997 RMK T02500200 IEM_DS3505
ZGKL,2006-10-10 12:00,ZGKL 101200Z AUTO 04004KT 9SM 27/17 A3000 RMK SLP154 T02720168 52015 IEM_DS3505
ZGKL,2006-10-10 13:00,ZGKL 101300Z AUTO 29002KT 6SM 24/20 A3000 RMK T02400200 IEM_DS3505
ZGKL,2006-10-10 14:00,ZGKL 101400Z AUTO 28002KT 6SM 23/20 A3003 RMK T02300200 IEM_DS3505
ZGKL,2006-10-10 15:00,ZGKL 101500Z AUTO 04004KT 9SM 25/17 A3003 RMK SLP161 T02520174 52008 IEM_DS3505
ZGKL,2006-10-10 16:00,ZGKL 101600Z AUTO 29002KT 22/20 A3003 RMK T02200200 IEM_DS3505
ZGKL,2006-10-10 17:00,ZGKL 101700Z AUTO 33004KT 22/19 A3003 RMK T02200190 IEM_DS3505
ZGKL,2006-10-10 18:00,ZGKL 101800Z AUTO 36004KT 9SM 24/17 A3003 RMK SLP162 T02420174 52002 IEM_DS3505
ZGKL,2006-10-10 19:00,ZGKL 101900Z AUTO 36002KT 22/19 A3003 RMK T02200190 IEM_DS3505
ZGKL,2006-10-10 20:00,ZGKL 102000Z AUTO 36004KT 21/18 A3003 RMK T02100180 IEM_DS3505
ZGKL,2006-10-10 21:00,ZGKL 102100Z AUTO 02002KT 8SM 23/17 A3003 RMK SLP164 T02280173 52001 IEM_DS3505
ZGKL,2006-10-10 22:00,ZGKL 102200Z AUTO 29004KT 4SM 20/19 A3003 RMK T02000190 IEM_DS3505
ZGKL,2006-10-10 23:00,ZGKL 102300Z AUTO 33004KT 5SM 21/19 A3006 RMK T02100190 IEM_DS3505
ZGKL,2006-10-11 00:00,ZGKL 110000Z AUTO 36006KT 8SM 23/17 A3006 RMK SLP180 T02320172 52015 IEM_DS3505
ZGKL,2006-10-11 01:00,ZGKL 110100Z AUTO 36002KT 6SM 23/18 A3006 RMK T02300180 IEM_DS3505
ZGKL,2006-10-11 02:00,ZGKL 110200Z AUTO 02002KT 6SM 25/17 A3009 RMK T02500170 IEM_DS3505
ZGKL,2006-10-11 03:00,ZGKL 110300Z AUTO 36002KT 7SM 27/17 A3006 RMK SLP180 T02680170 54000 IEM_DS3505
ZGKL,2006-10-11 04:00,ZGKL 110400Z AUTO 34004KT 6SM 27/16 A3006 RMK T02700160 IEM_DS3505
ZGKL,2006-10-11 05:00,ZGKL 110500Z AUTO 02006KT 6SM 28/14 A3003 RMK T02800140 IEM_DS3505
ZGKL,2006-10-11 06:00,ZGKL 110600Z AUTO 36006KT 6SM 28/16 A3000 RMK SLP159 T02850164 57020 IEM_DS3505
ZGKL,2006-10-11 07:00,ZGKL 110700Z AUTO 34006KT 6SM 30/16 A3000 RMK T03000160 IEM_DS3505
ZGKL,2006-10-11 08:00,ZGKL 110800Z AUTO 04002KT 6SM 30/16 A3000 RMK T03000160 IEM_DS3505
ZGKL,2006-10-11 09:00,ZGKL 110900Z AUTO 02004KT 7SM 29/16 A3000 RMK SLP153 T02880160 57006 IEM_DS3505
ZGKL,2006-10-11 10:00,ZGKL 111000Z AUTO 02004KT 6SM 28/14 A3000 RMK T02800140 IEM_DS3505
ZGKL,2006-10-11 11:00,ZGKL 111100Z AUTO 06004KT 6SM 25/17 A3000 RMK T02500170 IEM_DS3505
ZGKL,2006-10-11 12:00,ZGKL 111200Z AUTO 36004KT 7SM 25/18 A3003 RMK SLP167 T02540176 52013 IEM_DS3505
ZGKL,2006-10-11 13:00,ZGKL 111300Z AUTO 06002KT 6SM 23/18 A3006 RMK T02300180 IEM_DS3505
ZGKL,2006-10-11 14:00,ZGKL 111400Z AUTO 08002KT 6SM 22/18 A3006 RMK T02200180 IEM_DS3505
ZGKL,2006-10-11 15:00,ZGKL 111500Z AUTO 02004KT 7SM 24/18 A3006 RMK SLP176 T02390181 52009 IEM_DS3505
ZGKL,2006-10-11 16:00,ZGKL 111600Z AUTO 05002KT 20/19 A3006 RMK T02000190 IEM_DS3505
ZGKL,2006-10-11 17:00,ZGKL 111700Z AUTO 07002KT 21/18 A3006 RMK T02100180 IEM_DS3505
ZGKL,2006-10-11 18:00,ZGKL 111800Z AUTO 02004KT 7SM 23/18 A3006 RMK SLP170 T02270183 57006 IEM_DS3505
ZGKL,2006-10-11 19:00,ZGKL 111900Z AUTO 00000KT 20/18 A3006 RMK T02000180 IEM_DS3505
ZGKL,2006-10-11 20:00,ZGKL 112000Z AUTO 00000KT 20/18 A3003 RMK T02000180 IEM_DS3505
ZGKL,2006-10-11 21:00,ZGKL 112100Z AUTO 02004KT 7SM 23/18 A3006 RMK SLP170 T02260182 54000 IEM_DS3505
ZGKL,2006-10-11 22:00,ZGKL 112200Z AUTO 02002KT 5SM 20/18 A3006 RMK T02000180 IEM_DS3505
ZGKL,2006-10-11 23:14,ZGKL 112314Z AUTO 00000KT 5SM 20/18 A3009 RMK T02000180 IEM_DS3505
ZGKL,2006-10-12 00:00,ZGKL 120000Z AUTO 36004KT 4SM 22/18 A3009 RMK SLP190 T02250185 52019 IEM_DS3505
ZGKL,2006-10-12 01:00,ZGKL 120100Z AUTO 05002KT 4SM 23/18 A3012 RMK T02300180 IEM_DS3505
ZGKL,2006-10-12 02:00,ZGKL 120200Z AUTO 31002KT 4SM 26/18 A3012 RMK T02600180 IEM_DS3505
ZGKL,2006-10-12 03:00,ZGKL 120300Z AUTO 02004KT 4SM 27/18 A3012 RMK SLP191 T02710179 52002 IEM_DS3505
ZGKL,2006-10-12 04:00,ZGKL 120400Z AUTO 11002KT 4SM 29/18 A3009 RMK T02900180 IEM_DS3505
ZGKL,2006-10-12 05:00,ZGKL 120500Z AUTO 32004KT 4SM 29/18 A3006 RMK T02900180 IEM_DS3505
ZGKL,2006-10-12 06:00,ZGKL 120600Z AUTO 16004KT 3SM 30/17 A3003 RMK SLP161 T02970169 57029 IEM_DS3505
ZGKL,2006-10-12 07:00,ZGKL 120700Z AUTO 33004KT 5SM 30/16 A3000 RMK T03000160 IEM_DS3505
ZGKL,2006-10-12 08:00,ZGKL 120800Z AUTO 33004KT 4SM 29/16 A3000 RMK T02900160 IEM_DS3505
ZGKL,2006-10-12 09:00,ZGKL 120900Z AUTO 32002KT 6SM 29/17 A3000 RMK SLP158 T02920167 57003 IEM_DS3505
ZGKL,2006-10-12 10:00,ZGKL 121000Z AUTO 32002KT 4SM 27/19 A3003 RMK T02700190 IEM_DS3505
ZGKL,2006-10-12 12:00,ZGKL 121200Z AUTO 04002KT 4SM 26/20 A3006 RMK 60000 SLP178 T02580199 52018 IEM_DS3505
ZGKL,2006-10-12 15:00,ZGKL 121500Z AUTO 36004KT 3SM 24/18 RMK SLP189 T02390183 52012 IEM_DS3505
ZGKL,2006-10-12 16:00,ZGKL 121600Z AUTO 34002KT 4SM 23/19 A3012 RMK T02300190 IEM_DS3505
ZGKL,2006-10-12 17:00,ZGKL 121700Z AUTO 33004KT 23/19 A3009 RMK T02300190 IEM_DS3505
ZGKL,2006-10-12 18:00,ZGKL 121800Z AUTO 02004KT 3SM 23/19 A3009 RMK 60000 SLP184 T02290189 57004 IEM_DS3505
ZGKL,2006-10-12 19:00,ZGKL 121900Z AUTO 34004KT 22/19 A3009 RMK T02200190 IEM_DS3505
ZGKL,2006-10-12 20:00,ZGKL 122000Z AUTO 04002KT 22/20 A3006 RMK T02200200 IEM_DS3505
ZGKL,2006-10-12 21:00,ZGKL 122100Z AUTO 02004KT 3SM 23/18 A3006 RMK 70000 SLP177 T02270185 57008 IEM_DS3505
ZGKL,2006-10-12 22:00,ZGKL 122200Z AUTO 20002KT 3SM 21/20 A3009 RMK T02100200 IEM_DS3505
ZGKL,2006-10-12 23:00,ZGKL 122300Z AUTO 07002KT 3SM 21/20 A3009 RMK T02100200 IEM_DS3505
ZGKL,2006-10-13 00:00,ZGKL 130000Z AUTO 36004KT 2 1/2SM 23/19 A3012 RMK 60000 70000 SLP194 T02290189 52016 IEM_DS3505
ZGKL,2006-10-13 01:00,ZGKL 130100Z AUTO 36002KT 3SM 23/20 A3012 RMK T02300200 IEM_DS3505
ZGKL,2006-10-13 02:00,ZGKL 130200Z AUTO 07002KT 3SM 24/20 A3012 RMK T02400200 IEM_DS3505
ZGKL,2006-10-13 03:00,ZGKL 130300Z AUTO 36006KT 3SM 26/19 A3012 RMK SLP196 T02600192 52002 IEM_DS3505
ZGKL,2006-10-13 04:00,ZGKL 130400Z AUTO 04002KT 4SM 26/20 A3009 RMK T02600200 IEM_DS3505
ZGKL,2006-10-13 05:00,ZGKL 130500Z AUTO 35004KT 4SM 28/19 A3006 RMK T02800190 IEM_DS3505
ZGKL,2006-10-13 06:00,ZGKL 130600Z AUTO 02004KT 4SM 28/19 A3003 RMK SLP165 T02840191 57029 IEM_DS3505
ZGKL,2006-10-13 07:00,ZGKL 130700Z AUTO 35002KT 4SM 29/18 A3003 RMK T02900180 IEM_DS3505
ZGKL,2006-10-13 08:00,ZGKL 130800Z AUTO 08002KT 4SM 28/19 A3000 RMK T02800190 IEM_DS3505
ZGKL,2006-10-13 09:00,ZGKL 130900Z AUTO 07002KT 4SM 28/19 A3000 RMK SLP154 T02820192 57011 IEM_DS3505
ZGKL,2006-10-13 10:00,ZGKL 131000Z AUTO 00000KT 4SM 27/20 A3000 RMK T02700200 IEM_DS3505
ZGKL,2006-10-13 11:00,ZGKL 131100Z AUTO 35002KT 3SM 26/21 A3000 RMK T02600210 IEM_DS3505
ZGKL,2006-10-13 12:00,ZGKL 131200Z AUTO 04002KT 4SM 26/20 A3003 RMK SLP162 T02610200 52007 IEM_DS3505
ZGKL,2006-10-13 13:00,ZGKL 131300Z AUTO 34002KT 2 1/2SM 25/20 A3003 RMK T02500200 IEM_DS3505
ZGKL,2006-10-13 14:00,ZGKL 131400Z AUTO 36002KT 2 1/2SM 24/20 A3003 RMK T02400200 IEM_DS3505
ZGKL,2006-10-13 15:00,ZGKL 131500Z AUTO 02004KT 4SM 25/21 A3003 RMK SLP168 T02490206 52006 IEM_DS3505
ZGKL,2006-10-13 16:00,ZGKL 131600Z AUTO 29002KT 2 1/2SM 24/20 A3003 RMK T02400200 IEM_DS3505
ZGKL,2006-10-13 17:00,ZGKL 131700Z AUTO 29002KT 2SM 23/20 A3003 RMK T02300200 IEM_DS3505
ZGKL,2006-10-13 18:00,ZGKL 131800Z AUTO 36002KT 4SM 24/20 A3000 RMK 60000 SLP156 T02420205 57011 IEM_DS3505
ZGKL,2006-10-13 19:00,ZGKL 131900Z AUTO 04002KT 23/21 A3000 RMK T02300210 IEM_DS3505
ZGKL,2006-10-13 20:00,ZGKL 132000Z AUTO 00000KT 23/21 A3000 RMK T02300210 IEM_DS3505
ZGKL,2006-10-13 21:00,ZGKL 132100Z AUTO 04002KT 4SM 24/21 A3000 RMK 70000 SLP151 T02360209 57005 IEM_DS3505
ZGKL,2006-10-13 22:00,ZGKL 132200Z AUTO 06002KT 2SM 22/21 A3000 RMK T02200210 IEM_DS3505
ZGKL,2006-10-13 23:00,ZGKL 132300Z AUTO 00000KT 2SM 22/21 A3000 RMK T02200210 IEM_DS3505
ZGKL,2006-10-14 00:00,ZGKL 140000Z AUTO 04002KT 3SM 24/21 A3003 RMK 60000 70000 SLP162 T02380211 52010 IEM_DS3505
ZGKL,2006-10-14 01:00,ZGKL 140100Z AUTO 33002KT 2 1/2SM 24/21 A3003 RMK T02400210 IEM_DS3505
ZGKL,2006-10-14 02:00,ZGKL 140200Z AUTO 28002KT 2 1/2SM 26/21 A3003 RMK T02600210 IEM_DS3505
ZGKL,2006-10-14 03:00,ZGKL 140300Z AUTO 34002KT 3SM 27/20 A3003 RMK SLP162 T02690205 52001 IEM_DS3505
ZGKL,2006-10-14 04:00,ZGKL 140400Z AUTO 02002KT 2 1/2SM 25/21 A3000 RMK T02500210 IEM_DS3505
ZGKL,2006-10-14 05:00,ZGKL 140500Z AUTO 03004KT 2 1/2SM 26/21 A2997 RMK T02600210 IEM_DS3505
ZGKL,2006-10-14 06:00,ZGKL 140600Z AUTO 29002KT 3SM 28/21 A2994 RMK SLP136 T02750206 57026 IEM_DS3505
ZGKL,2006-10-14 07:00,ZGKL 140700Z AUTO 01004KT 4SM 28/21 A2991 RMK T02800210 IEM_DS3505
ZGKL,2006-10-14 08:00,ZGKL 140800Z AUTO 36004KT 4SM 28/21 A2991 RMK T02800210 IEM_DS3505
ZGKL,2006-10-14 09:00,ZGKL 140900Z AUTO 11002KT 3SM 28/21 A2991 RMK SLP123 T02810212 57013 IEM_DS3505
ZGKL,2006-10-14 10:00,ZGKL 141000Z AUTO 35002KT 4SM 27/21 A2991 RMK T02700210 IEM_DS3505
ZGKL,2006-10-14 11:00,ZGKL 141100Z AUTO 02002KT 3SM 25/22 A2991 RMK T02500220 IEM_DS3505
ZGKL,2006-10-14 12:00,ZGKL 141200Z AUTO 36002KT 3SM 26/21 A2994 RMK SLP133 T02570212 52010 IEM_DS3505
ZGKL,2006-10-14 13:00,ZGKL 141300Z AUTO 34004KT 3SM 24/21 A2997 RMK T02400210 IEM_DS3505
ZGKL,2006-10-14 14:00,ZGKL 141400Z AUTO 34002KT 3SM 23/21 A2997 RMK T02300210 IEM_DS3505
ZGKL,2006-10-14 15:00,ZGKL 141500Z AUTO 36004KT 3SM 24/22 A2997 RMK SLP145 T02450218 52012 IEM_DS3505
ZGKL,2006-10-14 16:00,ZGKL 141600Z AUTO 36002KT 2 1/2SM 23/21 A2997 RMK T02300210 IEM_DS3505
ZGKL,2006-10-14 17:00,ZGKL 141700Z AUTO 34002KT 23/21 A2994 RMK T02300210 IEM_DS3505
ZGKL,2006-10-14 18:00,ZGKL 141800Z AUTO 36002KT 3SM 24/22 A2994 RMK SLP134 T02440215 57011 IEM_DS3505
ZGKL,2006-10-14 19:00,ZGKL 141900Z AUTO 03002KT 23/21 A2994 RMK T02300210 IEM_DS3505
ZGKL,2006-10-14 20:00,ZGKL 142000Z AUTO 36002KT 23/21 A2994 RMK T02300210 IEM_DS3505
ZGKL,2006-10-14 21:00,ZGKL 142100Z AUTO 36002KT 3SM 24/21 A2994 RMK 70000 SLP133 T02400211 57001 IEM_DS3505
ZGKL,2006-10-14 22:00,ZGKL 142200Z AUTO 00000KT 2 1/2SM 22/21 A2994 RMK T02200210 IEM_DS3505
ZGKL,2006-10-14 23:00,ZGKL 142300Z AUTO 00000KT 3SM 22/21 A2997 RMK T02200210 IEM_DS3505
ZGKL,2006-10-15 00:00,ZGKL 150000Z AUTO 02002KT 2 1/2SM 24/21 A3000 RMK SLP152 T02380213 52018 IEM_DS3505
ZGKL,2006-10-15 01:00,ZGKL 150100Z AUTO 36002KT 3SM 24/21 A3000 RMK T02400210 IEM_DS3505
ZGKL,2006-10-15 02:00,ZGKL 150200Z AUTO 21004KT 2 1/2SM 23/22 A3003 RMK T02300220 IEM_DS3505
ZGKL,2006-10-15 03:00,ZGKL 150300Z AUTO 14002KT 2 1/2SM 26/21 A3000 RMK SLP158 T02600212 52006 IEM_DS3505
ZGKL,2006-10-15 04:00,ZGKL 150400Z AUTO 20002KT 1SM 24/22 A3000 RMK T02400220 IEM_DS3505
ZGKL,2006-10-15 05:00,ZGKL 150500Z AUTO 21006KT 1SM 25/23 A2997 RMK T02500230 IEM_DS3505
ZGKL,2006-10-15 06:00,ZGKL 150600Z AUTO 22002KT 2SM 24/22 A2994 RMK 60004 SLP136 T02450224 57022 IEM_DS3505
ZGKL,2006-10-15 07:00,ZGKL 150700Z AUTO 01004KT 1SM 25/22 A2991 RMK T02500220 IEM_DS3505
ZGKL,2006-10-15 08:00,ZGKL 150800Z AUTO 09002KT 3SM 26/22 A2991 RMK T02600220 IEM_DS3505
ZGKL,2006-10-15 09:00,ZGKL 150900Z AUTO 09002KT 2SM 25/23 A2991 RMK SLP128 T02490228 57008 IEM_DS3505
ZGKL,2006-10-15 10:00,ZGKL 151000Z AUTO 35004KT 2 1/2SM 25/22 A2991 RMK T02500220 IEM_DS3505
ZGKL,2006-10-15 11:00,ZGKL 151100Z AUTO 36004KT 2SM 24/22 A2994 RMK T02400220 IEM_DS3505
ZGKL,2006-10-15 12:00,ZGKL 151200Z AUTO 02002KT 2 1/2SM 24/22 A2997 RMK 60000 SLP139 T02390223 52011 IEM_DS3505
ZGKL,2006-10-15 13:00,ZGKL 151300Z AUTO 36002KT 1 1/2SM 22/21 A2997 RMK T02200210 IEM_DS3505
ZGKL,2006-10-15 14:00,ZGKL 151400Z AUTO 34002KT 1 1/2SM 22/21 A2997 RMK T02200210 IEM_DS3505
ZGKL,2006-10-15 15:00,ZGKL 151500Z AUTO 33002KT 2 1/2SM 23/22 A2997 RMK SLP148 T02280225 52009 IEM_DS3505
ZGKL,2006-10-15 16:00,ZGKL 151600Z AUTO 33002KT 1 1/2SM 21/20 A2997 RMK T02100200 IEM_DS3505
ZGKL,2006-10-15 17:00,ZGKL 151700Z AUTO 35002KT 1 1/2SM 22/21 A2997 RMK T02200210 IEM_DS3505
ZGKL,2006-10-15 18:00,ZGKL 151800Z AUTO 07002KT 2SM 22/22 A2997 RMK SLP141 T02200220 57008 IEM_DS3505
ZGKL,2006-10-15 19:00,ZGKL 151900Z AUTO 02002KT 22/21 A2994 RMK T02200210 IEM_DS3505
ZGKL,2006-10-15 20:00,ZGKL 152000Z AUTO 00000KT 22/21 A2994 RMK T02200210 IEM_DS3505
ZGKL,2006-10-15 21:00,ZGKL 152100Z AUTO 00000KT 2 1/2SM 22/22 A2997 RMK 70004 SLP141 T02200215 52001 IEM_DS3505
ZGKL,2006-10-15 22:00,ZGKL 152200Z AUTO 13002KT 1 1/2SM 22/21 A2997 RMK T02200210 IEM_DS3505
ZGKL,2006-10-15 23:00,ZGKL 152300Z AUTO 04002KT 1 1/2SM 22/21 A3000 RMK T02200210 IEM_DS3505
ZGKL,2006-10-16 00:00,ZGKL 160000Z AUTO 07002KT 2SM 22/22 A3000 RMK 70004 SLP159 T02240217 52017 IEM_DS3505
ZGKL,2006-10-16 01:00,ZGKL 160100Z AUTO 07002KT 2 1/2SM 23/21 A3003 RMK T02300210 IEM_DS3505
ZGKL,2006-10-16 02:00,ZGKL 160200Z AUTO 17002KT 1 1/2SM 25/22 A3003 RMK T02500220 IEM_DS3505
ZGKL,2006-10-16 03:00,ZGKL 160300Z AUTO 11002KT 2SM 25/22 A3000 RMK SLP160 T02530224 52002 IEM_DS3505
ZGKL,2006-10-16 04:00,ZGKL 160400Z AUTO 07002KT 1 1/2SM 28/22 A2997 RMK T02800220 IEM_DS3505
ZGKL,2006-10-16 05:00,ZGKL 160500Z AUTO 18002KT 2 1/2SM 30/23 A2994 RMK T03000230 IEM_DS3505
ZGKL,2006-10-16 06:00,ZGKL 160600Z AUTO 11002KT 2SM 29/22 A2991 RMK 60004 SLP126 T02920222 57033 IEM_DS3505
ZGKL,2006-10-16 07:00,ZGKL 160700Z AUTO 24006KT 3SM 32/22 A2988 RMK T03200220 IEM_DS3505
ZGKL,2006-10-16 08:00,ZGKL 160800Z AUTO 21008KT 4SM 31/20 A2988 RMK T03100200 IEM_DS3505
ZGKL,2006-10-16 09:00,ZGKL 160900Z AUTO 14002KT 4SM 30/22 A2988 RMK SLP114 T03020216 57011 IEM_DS3505
ZGKL,2006-10-16 10:00,ZGKL 161000Z AUTO 26002KT 3SM 29/22 A2991 RMK T02900220 IEM_DS3505
ZGKL,2006-10-16 11:00,ZGKL 161100Z AUTO 30002KT 2 1/2SM 26/23 A2991 RMK T02600230 IEM_DS3505
ZGKL,2006-10-16 12:00,ZGKL 161200Z AUTO 14006KT 3SM 26/23 A2991 RMK SLP131 T02620229 52015 IEM_DS3505
ZGKL,2006-10-16 13:00,ZGKL 161300Z AUTO 06002KT 2SM 24/22 A2994 RMK T02400220 IEM_DS3505
ZGKL,2006-10-16 14:00,ZGKL 161400Z AUTO 11002KT 2SM 23/22 A2994 RMK T02300220 IEM_DS3505
ZGKL,2006-10-16 15:00,ZGKL 161500Z AUTO 11002KT 4SM 25/22 A2994 RMK SLP138 T02470224 52008 IEM_DS3505
ZGKL,2006-10-16 16:00,ZGKL 161600Z AUTO 14002KT 2SM 23/22 A2994 RMK T02300220 IEM_DS3505
ZGKL,2006-10-16 17:00,ZGKL 161700Z AUTO 12002KT 2SM 22/22 A2994 RMK T02200220 IEM_DS3505
ZGKL,2006-10-16 18:00,ZGKL 161800Z AUTO 09002KT 4SM 24/22 A2994 RMK SLP133 T02430222 57004 IEM_DS3505
ZGKL,2006-10-16 19:00,ZGKL 161900Z AUTO 22002KT 23/22 A2994 RMK T02300220 IEM_DS3505
ZGKL,2006-10-16 20:00,ZGKL 162000Z AUTO 18002KT 23/22 A2994 RMK T02300220 IEM_DS3505
ZGKL,2006-10-16 21:00,ZGKL 162100Z AUTO 22004KT 3SM 24/22 A2994 RMK 70005 SLP131 T02390225 57002 IEM_DS3505
ZGKL,2006-10-16 22:00,ZGKL 162200Z AUTO 21004KT 2SM 24/22 A2994 RMK T02400220 IEM_DS3505
ZGKL,2006-10-16 23:00,ZGKL 162300Z AUTO 18004KT 2 1/2SM 24/22 A2997 RMK T02400220 IEM_DS3505
ZGKL,2006-10-17 00:00,ZGKL 170000Z AUTO 14002KT 3SM 24/23 A2997 RMK 70005 SLP151 T02430227 52019 IEM_DS3505
ZGKL,2006-10-17 01:00,ZGKL 170100Z AUTO 21006KT 2 1/2SM 27/22 A3000 RMK T02700220 IEM_DS3505
ZGKL,2006-10-17 02:00,ZGKL 170200Z AUTO 20006KT 2 1/2SM 27/22 A3003 RMK T02700220 IEM_DS3505
ZGKL,2006-10-17 03:00,ZGKL 170300Z AUTO 16006KT 3SM 27/22 A3000 RMK SLP159 T02720219 52008 IEM_DS3505
ZGKL,2006-10-17 04:00,ZGKL 170400Z AUTO 20010KT 3SM 29/22 A2997 RMK T02900220 IEM_DS3505
ZGKL,2006-10-17 05:00,ZGKL 170500Z AUTO 19008KT 3SM 30/22 A2994 RMK T03000220 IEM_DS3505
ZGKL,2006-10-17 06:00,ZGKL 170600Z AUTO 22008KT 5SM 29/20 A2994 RMK SLP130 T02910205 57028 IEM_DS3505
ZGKL,2006-10-17 07:00,ZGKL 170700Z AUTO 20008KT 4SM 31/22 A2991 RMK T03100220 IEM_DS3505
ZGKL,2006-10-17 08:00,ZGKL 170800Z AUTO 18006KT 4SM 30/22 A2991 RMK T03000220 IEM_DS3505
ZGKL,2006-10-17 09:00,ZGKL 170900Z AUTO 22006KT 5SM 30/21 A2991 RMK SLP126 T02970206 57004 IEM_DS3505
ZGKL,2006-10-17 10:00,ZGKL 171000Z AUTO 03006KT 5SM 26/20 A2991 RMK T02600200 IEM_DS3505
ZGKL,2006-10-17 11:00,ZGKL 171100Z AUTO 03006KT 5SM 25/21 A2994 RMK T02500210 IEM_DS3505
ZGKL,2006-10-17 12:00,ZGKL 171200Z AUTO 02006KT 2 1/2SM 24/23 A2997 RMK 60012 SLP148 T02400226 52020 IEM_DS3505
ZGKL,2006-10-17 13:00,ZGKL 171300Z AUTO 35006KT 5SM 24/21 A3000 RMK T02400210 IEM_DS3505
ZGKL,2006-10-17 14:00,ZGKL 171400Z AUTO 31002KT 5SM 24/21 A3000 RMK T02400210 IEM_DS3505
ZGKL,2006-10-17 15:00,ZGKL 171500Z AUTO 02008KT 5SM 24/20 A3000 RMK SLP160 T02350196 52012 IEM_DS3505
ZGKL,2006-10-17 16:00,ZGKL 171600Z AUTO 09002KT 4SM 24/21 A3000 RMK T02400210 IEM_DS3505
ZGKL,2006-10-17 17:00,ZGKL 171700Z AUTO 10002KT 23/21 A3000 RMK T02300210 IEM_DS3505
ZGKL,2006-10-17 18:00,ZGKL 171800Z AUTO 02004KT 4SM 22/19 A3000 RMK 60002 SLP153 T02200194 57006 IEM_DS3505
ZGKL,2006-10-17 19:00,ZGKL 171900Z AUTO 26002KT 22/20 A3000 RMK T02200200 IEM_DS3505
ZGKL,2006-10-17 20:00,ZGKL 172000Z AUTO 08002KT 22/20 A3000 RMK T02200200 IEM_DS3505
ZGKL,2006-10-17 21:00,ZGKL 172100Z AUTO 36004KT 4SM 22/18 A3000 RMK 70015 SLP150 T02200184 57003 IEM_DS3505
ZGKL,2006-10-17 22:00,ZGKL 172200Z AUTO 11002KT 3SM 22/19 A3000 RMK T02200190 IEM_DS3505
ZGKL,2006-10-17 23:00,ZGKL 172300Z AUTO 05002KT 2 1/2SM 22/20 A3000 RMK T02200200 IEM_DS3505
ZGKL,2006-10-18 00:00,ZGKL 180000Z AUTO 02006KT 6SM 22/18 A3003 RMK 60000 70015 SLP170 T02220180 52018 IEM_DS3505
ZGKL,2006-10-18 01:00,ZGKL 180100Z AUTO 03002KT 3SM 24/19 A3006 RMK T02400190 IEM_DS3505
ZGKL,2006-10-18 02:00,ZGKL 180200Z AUTO 04002KT 3SM 24/18 A3006 RMK T02400180 IEM_DS3505
ZGKL,2006-10-18 03:00,ZGKL 180300Z AUTO 02004KT 4SM 24/18 A3006 RMK SLP178 T02360183 52008 IEM_DS3505
ZGKL,2006-10-18 04:00,ZGKL 180400Z AUTO 34004KT 4SM 23/20 A3006 RMK T02300200 IEM_DS3505
ZGKL,2006-10-18 05:00,ZGKL 180500Z AUTO 35004KT 4SM 24/20 A3003 RMK T02400200 IEM_DS3505
ZGKL,2006-10-18 06:00,ZGKL 180600Z AUTO 16002KT 4SM 22/20 A3000 RMK 60004 SLP160 T02180197 57019 IEM_DS3505
ZGKL,2006-10-18 07:00,ZGKL 180700Z AUTO 33002KT 4SM 25/20 A2997 RMK T02500200 IEM_DS3505
ZGKL,2006-10-18 08:00,ZGKL 180800Z AUTO 01004KT 4SM 25/20 A2997 RMK T02500200 IEM_DS3505
ZGKL,2006-10-18 09:00,ZGKL 180900Z AUTO 04002KT 4SM 24/20 A2997 RMK SLP146 T02390198 57013 IEM_DS3505
ZGKL,2006-10-18 10:00,ZGKL 181000Z AUTO 03004KT 3SM 24/19 A2997 RMK T02400190 IEM_DS3505
ZGKL,2006-10-18 11:00,ZGKL 181100Z AUTO 07002KT 2 1/2SM 24/20 A2997 RMK T02400200 IEM_DS3505
ZGKL,2006-10-18 12:00,ZGKL 181200Z AUTO 04002KT 4SM 23/20 A3000 RMK SLP158 T02320205 52012 IEM_DS3505
ZGKL,2006-10-18 13:00,ZGKL 181300Z AUTO 06002KT 2 1/2SM 23/20 A3003 RMK T02300200 IEM_DS3505
ZGKL,2006-10-18 14:00,ZGKL 181400Z AUTO 36002KT 2 1/2SM 23/20 A3003 RMK T02300200 IEM_DS3505
ZGKL,2006-10-18 15:00,ZGKL 181500Z AUTO 02002KT 4SM 23/20 A3003 RMK SLP171 T02280205 52013 IEM_DS3505
ZGKL,2006-10-18 16:00,ZGKL 181600Z AUTO 04002KT 2 1/2SM 23/20 A3003 RMK T02300200 IEM_DS3505
ZGKL,2006-10-18 17:00,ZGKL 181700Z AUTO 08002KT 23/20 A3003 RMK T02300200 IEM_DS3505
ZGKL,2006-10-18 18:00,ZGKL 181800Z AUTO 27002KT 3SM 22/20 A3003 RMK SLP163 T02230200 57009 IEM_DS3505
ZGKL,2006-10-18 19:00,ZGKL 181900Z AUTO 34004KT 23/21 A3000 RMK T02300210 IEM_DS3505
ZGKL,2006-10-18 20:00,ZGKL 182000Z AUTO 03002KT 22/21 A3000 RMK T02200210 IEM_DS3505
ZGKL,2006-10-18 21:00,ZGKL 182100Z AUTO 09002KT 3SM 22/20 A3000 RMK 70006 SLP157 T02200201 57005 IEM_DS3505
ZGKL,2006-10-18 22:00,ZGKL 182200Z AUTO 09002KT 2SM 22/21 A3000 RMK T02200210 IEM_DS3505
ZGKL,2006-10-18 23:00,ZGKL 182300Z AUTO 06002KT 2SM 23/21 A3003 RMK T02300210 IEM_DS3505
ZGKL,2006-10-19 00:00,ZGKL 190000Z AUTO 09002KT 2 1/2SM 22/21 A3006 RMK 60000 70006 SLP173 T02220208 52015 IEM_DS3505
ZGKL,2006-10-19 01:00,ZGKL 190100Z AUTO 14002KT 2SM 23/20 A3009 RMK T02300200 IEM_DS3505
ZGKL,2006-10-19 02:00,ZGKL 190200Z AUTO 02002KT 2SM 24/21 A3009 RMK T02400210 IEM_DS3505
ZGKL,2006-10-19 03:00,ZGKL 190300Z AUTO 09004KT 2 1/2SM 24/21 A3009 RMK SLP183 T02370214 52011 IEM_DS3505
ZGKL,2006-10-19 04:00,ZGKL 190400Z AUTO 13002KT 2 1/2SM 26/21 A3006 RMK T02600210 IEM_DS3505
ZGKL,2006-10-19 05:00,ZGKL 190500Z AUTO 35002KT 3SM 27/21 A3003 RMK T02700210 IEM_DS3505
ZGKL,2006-10-19 06:00,ZGKL 190600Z AUTO 18004KT 3SM 27/22 A3000 RMK 60000 SLP158 T02730218 57024 IEM_DS3505
ZGKL,2006-10-19 07:00,ZGKL 190700Z AUTO 18004KT 3SM 30/21 A2997 RMK T03000210 IEM_DS3505
ZGKL,2006-10-19 08:00,ZGKL 190800Z AUTO 14004KT 3SM 30/21 A2997 RMK T03000210 IEM_DS3505
ZGKL,2006-10-19 09:00,ZGKL 190900Z AUTO 16004KT 4SM 28/22 A2997 RMK SLP145 T02770217 57013 IEM_DS3505
ZGKL,2006-10-19 10:00,ZGKL 191000Z AUTO 12002KT 3SM 27/22 A2997 RMK T02700220 IEM_DS3505
ZGKL,2006-10-19 11:00,ZGKL 191100Z AUTO 07002KT 3SM 25/22 A3000 RMK T02500220 IEM_DS3505
ZGKL,2006-10-19 12:00,ZGKL 191200Z AUTO 32002KT 5SM 25/22 A3003 RMK SLP162 T02460223 52016 IEM_DS3505
ZGKL,2006-10-19 13:00,ZGKL 191300Z AUTO 03002KT 2 1/2SM 23/22 A3006 RMK T02300220 IEM_DS3505
ZGKL,2006-10-19 14:00,ZGKL 191400Z AUTO 02002KT 2 1/2SM 23/22 A3006 RMK T02300220 IEM_DS3505
ZGKL,2006-10-19 15:00,ZGKL 191500Z AUTO 02002KT 5SM 23/22 A3006 RMK SLP176 T02340217 52014 IEM_DS3505
ZGKL,2006-10-19 16:00,ZGKL 191600Z AUTO 00000KT 2SM 22/21 A3006 RMK T02200210 IEM_DS3505
ZGKL,2006-10-19 17:00,ZGKL 191700Z AUTO 25002KT 2SM 22/21 A3006 RMK T02200210 IEM_DS3505
ZGKL,2006-10-19 18:00,ZGKL 191800Z AUTO 36002KT 4SM 23/21 A3006 RMK SLP171 T02280213 57004 IEM_DS3505
ZGKL,2006-10-19 19:00,ZGKL 191900Z AUTO 09002KT 22/21 A3006 RMK T02200210 IEM_DS3505
ZGKL,2006-10-19 20:00,ZGKL 192000Z AUTO 00000KT 22/21 A3006 RMK T02200210 IEM_DS3505
ZGKL,2006-10-19 21:00,ZGKL 192100Z AUTO 34002KT 4SM 23/21 RMK 70000 SLP171 T02260214 54000 IEM_DS3505
ZGKL,2006-10-19 22:00,ZGKL 192200Z AUTO 15002KT 2SM 22/21 A3006 RMK T02200210 IEM_DS3505
ZGKL,2006-10-19 23:00,ZGKL 192300Z AUTO 00000KT 2SM 22/22 A3009 RMK T02200220 IEM_DS3505
ZGKL,2006-10-20 00:00,ZGKL 200000Z AUTO 04002KT 4SM 23/22 A3009 RMK 60000 70000 SLP191 T02330219 52019 IEM_DS3505
ZGKL,2006-10-20 01:00,ZGKL 200100Z AUTO 36002KT 2SM 24/22 A3012 RMK T02400220 IEM_DS3505
ZGKL,2006-10-20 02:00,ZGKL 200200Z AUTO 36004KT 2SM 25/22 A3012 RMK T02500220 IEM_DS3505
ZGKL,2006-10-20 03:00,ZGKL 200300Z AUTO 02006KT 4SM 26/22 A3012 RMK SLP201 T02550216 52010 IEM_DS3505
ZGKL,2006-10-20 04:00,ZGKL 200400Z AUTO 01006KT 2 1/2SM 27/22 A3009 RMK T02700220 IEM_DS3505
ZGKL,2006-10-20 05:00,ZGKL 200500Z AUTO 02008KT 4SM 28/22 A3009 RMK T02800220 IEM_DS3505
ZGKL,2006-10-20 06:00,ZGKL 200600Z AUTO 36010KT 6SM 26/21 A3006 RMK 60000 SLP175 T02560211 57026 IEM_DS3505
ZGKL,2006-10-20 07:00,ZGKL 200700Z AUTO 01006KT 5SM 27/21 A3003 RMK T02700210 IEM_DS3505
ZGKL,2006-10-20 08:00,ZGKL 200800Z AUTO 05006KT 5SM 27/21 A3003 RMK T02700210 IEM_DS3505
ZGKL,2006-10-20 09:00,ZGKL 200900Z AUTO 02006KT 7SM 25/21 A3003 RMK SLP165 T02530210 57010 IEM_DS3505
ZGKL,2006-10-20 10:00,ZGKL 201000Z AUTO 04004KT 4SM 25/21 A3003 RMK T02500210 IEM_DS3505
ZGKL,2006-10-20 11:00,ZGKL 201100Z AUTO 06002KT 4SM 24/21 A3006 RMK T02400210 IEM_DS3505
ZGKL,2006-10-20 12:00,ZGKL 201200Z AUTO 02004KT 7SM 24/21 A3009 RMK SLP182 T02360207 52017 IEM_DS3505
ZGKL,2006-10-20 13:00,ZGKL 201300Z AUTO 00000KT 4SM 22/21 A3009 RMK T02200210 IEM_DS3505
ZGKL,2006-10-20 14:00,ZGKL 201400Z AUTO 03002KT 4SM 22/21 A3012 RMK T02200210 IEM_DS3505
ZGKL,2006-10-20 15:00,ZGKL 201500Z AUTO 02004KT 6SM 23/20 A3012 RMK SLP190 T02310199 52008 IEM_DS3505
ZGKL,2006-10-20 16:00,ZGKL 201600Z AUTO 00000KT 4SM 21/20 A3009 RMK T02100200 IEM_DS3505
ZGKL,2006-10-20 17:00,ZGKL 201700Z AUTO 00000KT 3SM 20/20 A3009 RMK T02000200 IEM_DS3505
ZGKL,2006-10-20 18:00,ZGKL 201800Z AUTO 36004KT 6SM 22/20 A3006 RMK SLP179 T02220197 57011 IEM_DS3505
ZGKL,2006-10-20 19:00,ZGKL 201900Z AUTO 07002KT 20/20 A3006 RMK T02000200 IEM_DS3505
ZGKL,2006-10-20 20:00,ZGKL 202000Z AUTO 00000KT 20/20 A3006 RMK T02000200 IEM_DS3505
ZGKL,2006-10-20 21:00,ZGKL 202100Z AUTO 04002KT 6SM 22/20 A3006 RMK 70000 SLP177 T02240201 57002 IEM_DS3505
ZGKL,2006-10-20 22:00,ZGKL 202200Z AUTO 36002KT 2 1/2SM 21/20 A3006 RMK T02100200 IEM_DS3505
ZGKL,2006-10-20 23:00,ZGKL 202300Z AUTO 06002KT 2 1/2SM 21/20 A3009 RMK T02100200 IEM_DS3505
ZGKL,2006-10-21 00:00,ZGKL 210000Z AUTO 00000KT 4SM 23/20 A3009 RMK 70000 SLP191 T02270200 52013 IEM_DS3505
ZGKL,2006-10-21 01:00,ZGKL 210100Z AUTO 27002KT 2 1/2SM 23/21 A3012 RMK T02300210 IEM_DS3505
ZGKL,2006-10-21 02:00,ZGKL 210200Z AUTO 05002KT 2 1/2SM 25/21 A3012 RMK T02500210 IEM_DS3505
ZGKL,2006-10-21 03:00,ZGKL 210300Z AUTO 09002KT 3SM 26/21 A3009 RMK SLP190 T02590207 54000 IEM_DS3505
ZGKL,2006-10-21 04:00,ZGKL 210400Z AUTO 08002KT 4SM 28/20 A3006 RMK T02800200 IEM_DS3505
ZGKL,2006-10-21 05:00,ZGKL 210500Z AUTO 24002KT 4SM 29/21 A3003 RMK T02900210 IEM_DS3505
ZGKL,2006-10-21 06:00,ZGKL 210600Z AUTO 18004KT 4SM 30/20 A3000 RMK SLP151 T02960205 57037 IEM_DS3505
ZGKL,2006-10-21 07:00,ZGKL 210700Z AUTO 10004KT 4SM 31/21 A2997 RMK T03100210 IEM_DS3505
ZGKL,2006-10-21 08:00,ZGKL 210800Z AUTO 10002KT 4SM 31/21 A2994 RMK T03100210 IEM_DS3505
ZGKL,2006-10-21 09:00,ZGKL 210900Z AUTO 09002KT 5SM 30/21 A2994 RMK SLP136 T03000208 57015 IEM_DS3505
ZGKL,2006-10-21 10:00,ZGKL 211000Z AUTO 16002KT 4SM 28/22 A2994 RMK T02800220 IEM_DS3505
ZGKL,2006-10-21 11:00,ZGKL 211100Z AUTO 36002KT 3SM 26/22 A2997 RMK T02600220 IEM_DS3505
ZGKL,2006-10-21 12:00,ZGKL 211200Z AUTO 02002KT 4SM 26/22 A3000 RMK SLP152 T02610220 52015 IEM_DS3505
ZGKL,2006-10-21 13:00,ZGKL 211300Z AUTO 01002KT 2 1/2SM 24/22 A3000 RMK T02400220 IEM_DS3505
ZGKL,2006-10-21 14:00,ZGKL 211400Z AUTO 00000KT 2SM 23/21 A3000 RMK T02300210 IEM_DS3505
ZGKL,2006-10-21 15:00,ZGKL 211500Z AUTO 04004KT 4SM 24/21 A3000 RMK SLP159 T02430212 52007 IEM_DS3505
ZGKL,2006-10-21 16:00,ZGKL 211600Z AUTO 03002KT 2SM 22/21 A3000 RMK T02200210 IEM_DS3505
ZGKL,2006-10-21 17:00,ZGKL 211700Z AUTO 00000KT 2SM 22/21 A3000 RMK T02200210 IEM_DS3505
ZGKL,2006-10-21 18:00,ZGKL 211800Z AUTO 02002KT 4SM 24/21 A3000 RMK SLP152 T02350210 57006 IEM_DS3505
ZGKL,2006-10-21 19:00,ZGKL 211900Z AUTO 06002KT 22/21 A3000 RMK T02200210 IEM_DS3505
ZGKL,2006-10-21 20:00,ZGKL 212000Z AUTO 00000KT 22/21 A2997 RMK T02200210 IEM_DS3505
ZGKL,2006-10-21 21:00,ZGKL 212100Z AUTO 04002KT 4SM 23/21 A2997 RMK SLP150 T02280209 57002 IEM_DS3505
ZGKL,2006-10-21 22:00,ZGKL 212200Z AUTO 06002KT 2SM 22/21 A3000 RMK T02200210 IEM_DS3505
ZGKL,2006-10-21 23:00,ZGKL 212300Z AUTO 15002KT 1 1/4SM 22/21 A3003 RMK T02200210 IEM_DS3505
ZGKL,2006-10-22 00:00,ZGKL 220000Z AUTO 08002KT 2 1/2SM 23/21 A3006 RMK SLP173 T02290214 52022 IEM_DS3505
ZGKL,2006-10-22 01:00,ZGKL 220100Z AUTO 06002KT 1 1/4SM 25/22 A3006 RMK T02500220 IEM_DS3505
ZGKL,2006-10-22 02:00,ZGKL 220200Z AUTO 16002KT 2SM 27/22 A3009 RMK T02700220 IEM_DS3505
ZGKL,2006-10-22 03:00,ZGKL 220300Z AUTO 27002KT 2 1/2SM 27/22 A3006 RMK SLP176 T02730220 52003 IEM_DS3505
ZGKL,2006-10-22 04:00,ZGKL 220400Z AUTO 20002KT 2 1/2SM 30/22 A3003 RMK T03000220 IEM_DS3505
ZGKL,2006-10-22 05:00,ZGKL 220500Z AUTO 19006KT 3SM 31/22 A3000 RMK T03100220 IEM_DS3505
ZGKL,2006-10-22 06:00,ZGKL 220600Z AUTO 20004KT 3SM 32/21 A2997 RMK SLP141 T03150214 57033 IEM_DS3505
ZGKL,2006-10-22 07:00,ZGKL 220700Z AUTO 18002KT 4SM 30/23 A2994 RMK T03000230 IEM_DS3505
ZGKL,2006-10-22 08:00,ZGKL 220800Z AUTO 18002KT 4SM 32/21 A2994 RMK T03200210 IEM_DS3505
ZGKL,2006-10-22 09:00,ZGKL 220900Z AUTO 07002KT 4SM 31/21 A2994 RMK SLP132 T03080210 57009 IEM_DS3505
ZGKL,2006-10-22 10:00,ZGKL 221000Z AUTO 06002KT 3SM 29/24 A2994 RMK T02900240 IEM_DS3505
ZGKL,2006-10-22 11:00,ZGKL 221100Z AUTO 06010KT 3SM 25/20 A2997 RMK T02500200 IEM_DS3505
ZGKL,2006-10-22 12:00,ZGKL 221200Z AUTO 36006KT 4SM 22/20 A3003 RMK 60020 SLP170 T02220205 52034 IEM_DS3505
ZGKL,2006-10-22 13:00,ZGKL 221300Z AUTO 01002KT 4SM 22/21 A3006 RMK T02200210 IEM_DS3505
ZGKL,2006-10-22 14:00,ZGKL 221400Z AUTO 12002KT 4SM 22/21 A3006 RMK T02200210 IEM_DS3505
ZGKL,2006-10-22 15:00,ZGKL 221500Z AUTO 02008KT 4SM 22/19 A3006 RMK SLP180 T02220192 52012 IEM_DS3505
ZGKL,2006-10-22 16:00,ZGKL 221600Z AUTO 35002KT 4SM 22/20 A3006 RMK T02200200 IEM_DS3505
ZGKL,2006-10-22 17:00,ZGKL 221700Z AUTO 05002KT 21/21 A3006 RMK T02100210 IEM_DS3505
ZGKL,2006-10-22 18:00,ZGKL 221800Z AUTO 02006KT 5SM 22/19 A3006 RMK 60000 SLP175 T02170191 57004 IEM_DS3505
ZGKL,2006-10-22 19:00,ZGKL 221900Z AUTO 12002KT 20/20 A3006 RMK T02000200 IEM_DS3505
ZGKL,2006-10-22 20:00,ZGKL 222000Z AUTO 36002KT 21/19 A3006 RMK T02100190 IEM_DS3505
ZGKL,2006-10-22 21:00,ZGKL 222100Z AUTO 36006KT 5SM 21/18 A3006 RMK 70020 SLP172 T02130181 57003 IEM_DS3505
ZGKL,2006-10-22 22:00,ZGKL 222200Z AUTO 00000KT 4SM 20/19 A3006 RMK T02000190 IEM_DS3505
ZGKL,2006-10-22 23:00,ZGKL 222300Z AUTO 00000KT 5SM 20/19 A3009 RMK T02000190 IEM_DS3505
ZGKL,2006-10-23 00:00,ZGKL 230000Z AUTO 02004KT 7SM 22/18 A3012 RMK 70020 SLP194 T02180182 52019 IEM_DS3505
ZGKL,2006-10-23 01:00,ZGKL 230100Z AUTO 03004KT 6SM 23/20 A3012 RMK T02300200 IEM_DS3505
ZGKL,2006-10-23 02:00,ZGKL 230200Z AUTO 07004KT 7SM 25/20 A3015 RMK T02500200 IEM_DS3505
ZGKL,2006-10-23 03:00,ZGKL 230300Z AUTO 02008KT 7SM 26/19 A3012 RMK SLP200 T02570186 52007 IEM_DS3505
ZGKL,2006-10-23 04:00,ZGKL 230400Z AUTO 05004KT 7SM 27/19 A3012 RMK T02700190 IEM_DS3505
ZGKL,2006-10-23 05:00,ZGKL 230500Z AUTO 02006KT 7SM 27/19 A3009 RMK T02700190 IEM_DS3505
ZGKL,2006-10-23 06:00,ZGKL 230600Z AUTO 02008KT 8SM 26/19 A3006 RMK SLP179 T02650186 57021 IEM_DS3505
ZGKL,2006-10-23 07:00,ZGKL 230700Z AUTO 06006KT 7SM 27/18 A3006 RMK T02700180 IEM_DS3505
ZGKL,2006-10-23 08:00,ZGKL 230800Z AUTO 07006KT 7SM 27/19 A3003 RMK T02700190 IEM_DS3505
ZGKL,2006-10-23 09:00,ZGKL 230900Z AUTO 02008KT 9SM 26/19 A3003 RMK SLP170 T02550187 57009 IEM_DS3505
ZGKL,2006-10-23 10:00,ZGKL 231000Z AUTO 07004KT 6SM 25/19 A3006 RMK T02500190 IEM_DS3505
ZGKL,2006-10-23 11:00,ZGKL 231100Z AUTO 06006KT 6SM 24/19 A3006 RMK T02400190 IEM_DS3505
ZGKL,2006-10-23 12:00,ZGKL 231200Z AUTO 36004KT 8SM 23/19 A3009 RMK SLP188 T02330186 52017 IEM_DS3505
ZGKL,2006-10-23 13:00,ZGKL 231300Z AUTO 05002KT 7SM 24/19 A3012 RMK T02400190 IEM_DS3505
ZGKL,2006-10-23 14:00,ZGKL 231400Z AUTO 02004KT 5SM 23/19 A3012 RMK T02300190 IEM_DS3505
ZGKL,2006-10-23 15:00,ZGKL 231500Z AUTO 04008KT 8SM 23/19 A3012 RMK SLP196 T02280188 52009 IEM_DS3505
ZGKL,2006-10-23 16:00,ZGKL 231600Z AUTO 06002KT 6SM 21/20 A3012 RMK T02100200 IEM_DS3505
ZGKL,2006-10-23 17:00,ZGKL 231700Z AUTO 06002KT 20/19 A3012 RMK T02000190 IEM_DS3505
ZGKL,2006-10-23 18:00,ZGKL 231800Z AUTO 02004KT 8SM 22/19 A3009 RMK SLP190 T02210189 57006 IEM_DS3505
ZGKL,2006-10-23 19:00,ZGKL 231900Z AUTO 00000KT 21/20 A3009 RMK T02100200 IEM_DS3505
ZGKL,2006-10-23 20:00,ZGKL 232000Z AUTO 09002KT 21/20 A3009 RMK T02100200 IEM_DS3505
ZGKL,2006-10-23 21:00,ZGKL 232100Z AUTO 02006KT 7SM 22/19 A3009 RMK SLP183 T02180188 57007 IEM_DS3505
ZGKL,2006-10-23 22:00,ZGKL 232200Z AUTO 35002KT 5SM 21/20 A3009 RMK T02100200 IEM_DS3505
ZGKL,2006-10-23 23:00,ZGKL 232300Z AUTO 00000KT 4SM 22/20 A3012 RMK T02200200 IEM_DS3505
ZGKL,2006-10-24 00:00,ZGKL 240000Z AUTO 02004KT 6SM 22/18 A3012 RMK SLP202 T02180184 52018 IEM_DS3505
ZGKL,2006-10-24 01:00,ZGKL 240100Z AUTO 07004KT 4SM 23/19 A3015 RMK T02300190 IEM_DS3505
ZGKL,2006-10-24 02:00,ZGKL 240200Z AUTO 08004KT 4SM 23/19 A3018 RMK T02300190 IEM_DS3505
ZGKL,2006-10-24 03:00,ZGKL 240300Z AUTO 02004KT 4SM 23/18 A3018 RMK SLP217 T02300179 52015 IEM_DS3505
ZGKL,2006-10-24 04:00,ZGKL 240400Z AUTO 05004KT 4SM 25/19 A3015 RMK T02500190 IEM_DS3505
ZGKL,2006-10-24 05:00,ZGKL 240500Z AUTO 08006KT 4SM 26/19 A3012 RMK T02600190 IEM_DS3505
ZGKL,2006-10-24 06:00,ZGKL 240600Z AUTO 04004KT 5SM 25/18 A3009 RMK SLP192 T02470179 57024 IEM_DS3505
ZGKL,2006-10-24 07:00,ZGKL 240700Z AUTO 05004KT 4SM 26/18 A3009 RMK T02600180 IEM_DS3505
ZGKL,2006-10-24 08:00,ZGKL 240800Z AUTO 05006KT 4SM 26/18 A3009 RMK T02600180 IEM_DS3505
ZGKL,2006-10-24 09:00,ZGKL 240900Z AUTO 02004KT 4SM 25/18 A3009 RMK SLP186 T02490179 57006 IEM_DS3505
ZGKL,2006-10-24 10:00,ZGKL 241000Z AUTO 03004KT 4SM 25/18 A3009 RMK T02500180 IEM_DS3505
ZGKL,2006-10-24 11:00,ZGKL 241100Z AUTO 04002KT 4SM 23/18 A3009 RMK T02300180 IEM_DS3505
ZGKL,2006-10-24 12:00,ZGKL 241200Z AUTO 02004KT 5SM 22/17 A3012 RMK SLP199 T02180172 52011 IEM_DS3505
ZGKL,2006-10-24 13:00,ZGKL 241300Z AUTO 03002KT 4SM 22/17 A3015 RMK T02200170 IEM_DS3505
ZGKL,2006-10-24 14:00,ZGKL 241400Z AUTO 02002KT 4SM 21/18 A3015 RMK T02100180 IEM_DS3505
ZGKL,2006-10-24 15:00,ZGKL 241500Z AUTO 02004KT 5SM 21/17 A3015 RMK SLP211 T02060168 52012 IEM_DS3505
ZGKL,2006-10-24 16:00,ZGKL 241600Z AUTO 04002KT 4SM 20/17 A3015 RMK T02000170 IEM_DS3505
ZGKL,2006-10-24 17:00,ZGKL 241700Z AUTO 04002KT 19/17 A3015 RMK T01900170 IEM_DS3505
ZGKL,2006-10-24 18:00,ZGKL 241800Z AUTO 02004KT 5SM 20/16 A3015 RMK SLP209 T02000160 57001 IEM_DS3505
ZGKL,2006-10-24 19:00,ZGKL 241900Z AUTO 30002KT 19/17 A3015 RMK T01900170 IEM_DS3505
ZGKL,2006-10-24 20:00,ZGKL 242000Z AUTO 11002KT 18/17 A3015 RMK T01800170 IEM_DS3505
ZGKL,2006-10-24 21:00,ZGKL 242100Z AUTO 36002KT 5SM 19/16 A3015 RMK SLP211 T01920157 52001 IEM_DS3505
ZGKL,2006-10-24 22:00,ZGKL 242200Z AUTO 04002KT 4SM 18/17 A3018 RMK T01800170 IEM_DS3505
ZGKL,2006-10-24 23:00,ZGKL 242300Z AUTO 05002KT 3SM 19/16 A3018 RMK T01900160 IEM_DS3505
ZGKL,2006-10-25 00:00,ZGKL 250000Z AUTO 36004KT 5SM 20/16 A3021 RMK SLP226 T01980161 52014 IEM_DS3505
ZGKL,2006-10-25 01:00,ZGKL 250100Z AUTO 00000KT 2SM 22/17 A3021 RMK T02200170 IEM_DS3505
ZGKL,2006-10-25 02:00,ZGKL 250200Z AUTO 06002KT 2SM 24/17 A3021 RMK T02400170 IEM_DS3505
ZGKL,2006-10-25 03:00,ZGKL 250300Z AUTO 02004KT 5SM 25/16 A3021 RMK SLP226 T02470164 52001 IEM_DS3505
ZGKL,2006-10-25 04:00,ZGKL 250400Z AUTO 07004KT 4SM 27/17 A3018 RMK T02700170 IEM_DS3505
ZGKL,2006-10-25 05:00,ZGKL 250500Z AUTO 08006KT 4SM 27/17 A3015 RMK T02700170 IEM_DS3505
ZGKL,2006-10-25 06:00,ZGKL 250600Z AUTO 02006KT 6SM 27/17 A3012 RMK SLP195 T02700166 57029 IEM_DS3505
ZGKL,2006-10-25 07:00,ZGKL 250700Z AUTO 11004KT 4SM 28/17 A3009 RMK T02800170 IEM_DS3505
ZGKL,2006-10-25 08:00,ZGKL 250800Z AUTO 06006KT 4SM 27/17 A3009 RMK T02700170 IEM_DS3505
ZGKL,2006-10-25 09:00,ZGKL 250900Z AUTO 02008KT 6SM 24/16 A3009 RMK SLP196 T02390162 57001 IEM_DS3505
ZGKL,2006-10-25 10:00,ZGKL 251000Z AUTO 08008KT 3SM 23/16 A3012 RMK T02300160 IEM_DS3505
ZGKL,2006-10-25 11:00,ZGKL 251100Z AUTO 07008KT 2 1/2SM 22/16 A3015 RMK T02200160 IEM_DS3505
ZGKL,2006-10-25 12:00,ZGKL 251200Z AUTO 02008KT 6SM 21/15 A3015 RMK SLP217 T02060154 52020 IEM_DS3505
ZGKL,2006-10-25 13:00,ZGKL 251300Z AUTO 06006KT 2SM 21/16 A3018 RMK T02100160 IEM_DS3505
ZGKL,2006-10-25 14:00,ZGKL 251400Z AUTO 05008KT 2SM 21/15 A3021 RMK T02100150 IEM_DS3505
ZGKL,2006-10-25 15:00,ZGKL 251500Z AUTO 02008KT 5SM 19/15 A3021 RMK SLP230 T01940151 52014 IEM_DS3505
ZGKL,2006-10-25 16:00,ZGKL 251600Z AUTO 05006KT 1 1/2SM 20/15 A3021 RMK T02000150 IEM_DS3505
ZGKL,2006-10-25 17:00,ZGKL 251700Z AUTO 07004KT 20/15 A3021 RMK T02000150 IEM_DS3505
ZGKL,2006-10-25 18:00,ZGKL 251800Z AUTO 02004KT 5SM 19/15 A3021 RMK SLP228 T01890148 57001 IEM_DS3505
ZGKL,2006-10-25 19:00,ZGKL 251900Z AUTO 07004KT 19/15 A3021 RMK T01900150 IEM_DS3505
ZGKL,2006-10-25 20:00,ZGKL 252000Z AUTO 08004KT 19/15 A3018 RMK T01900150 IEM_DS3505
ZGKL,2006-10-25 21:00,ZGKL 252100Z AUTO 02008KT 5SM 18/14 A3018 RMK SLP226 T01800137 57004 IEM_DS3505
ZGKL,2006-10-25 22:00,ZGKL 252200Z AUTO 03004KT 2 1/2SM 18/14 A3021 RMK T01800140 IEM_DS3505
ZGKL,2006-10-25 23:00,ZGKL 252300Z AUTO 31002KT 2 1/2SM 18/14 A3024 RMK T01800140 IEM_DS3505
ZGKL,2006-10-26 00:00,ZGKL 260000Z AUTO 36008KT 6SM 18/13 A3027 RMK SLP249 T01770134 52022 IEM_DS3505
ZGKL,2006-10-26 01:00,ZGKL 260100Z AUTO 07006KT 3SM 19/14 A3027 RMK T01900140 IEM_DS3505
ZGKL,2006-10-26 02:00,ZGKL 260200Z AUTO 07006KT 3SM 21/15 A3030 RMK T02100150 IEM_DS3505
ZGKL,2006-10-26 03:00,ZGKL 260300Z AUTO 36012KT 7SM 20/13 A3027 RMK SLP257 T01950132 52008 IEM_DS3505
ZGKL,2006-10-26 04:00,ZGKL 260400Z AUTO 07008KT 4SM 22/14 A3027 RMK T02200140 IEM_DS3505
ZGKL,2006-10-26 05:00,ZGKL 260500Z AUTO 08010KT 4SM 23/14 A3024 RMK T02300140 IEM_DS3505
ZGKL,2006-10-26 06:00,ZGKL 260600Z AUTO 36012KT 8SM 22/13 A3021 RMK SLP229 T02170128 57027 IEM_DS3505
ZGKL,2006-10-26 07:00,ZGKL 260700Z AUTO 07010KT 4SM 23/14 A3018 RMK T02300140 IEM_DS3505
ZGKL,2006-10-26 08:00,ZGKL 260800Z AUTO 06010KT 4SM 22/14 A3018 RMK T02200140 IEM_DS3505
ZGKL,2006-10-26 09:00,ZGKL 260900Z AUTO 02008KT 9SM 21/12 A3021 RMK SLP232 T02090123 52002 IEM_DS3505
ZGKL,2006-10-26 10:00,ZGKL 261000Z AUTO 06010KT 4SM 20/13 A3021 RMK T02000130 IEM_DS3505
ZGKL,2006-10-26 11:00,ZGKL 261100Z AUTO 07010KT 4SM 19/12 A3024 RMK T01900120 IEM_DS3505
ZGKL,2006-10-26 12:00,ZGKL 261200Z AUTO 02010KT 8SM 18/12 A3024 RMK SLP247 T01820120 52014 IEM_DS3505
ZGKL,2006-10-26 13:00,ZGKL 261300Z AUTO 05008KT 3SM 18/13 A3027 RMK T01800130 IEM_DS3505
ZGKL,2006-10-26 14:00,ZGKL 261400Z AUTO 03006KT 3SM 18/13 A3027 RMK T01800130 IEM_DS3505
ZGKL,2006-10-26 15:00,ZGKL 261500Z AUTO 02004KT 8SM 17/12 RMK SLP255 T01740125 52008 IEM_DS3505
ZGKL,2006-10-26 16:00,ZGKL 261600Z AUTO 08004KT 4SM 17/13 A3027 RMK T01700130 IEM_DS3505
ZGKL,2006-10-26 18:00,ZGKL 261800Z AUTO 36004KT 7SM 16/12 A3024 RMK SLP239 T01640118 57015 IEM_DS3505
ZGKL,2006-10-26 19:00,ZGKL 261900Z AUTO 03002KT 16/13 A3021 RMK T01600130 IEM_DS3505
ZGKL,2006-10-26 20:00,ZGKL 262000Z AUTO 18002KT 15/13 A3021 RMK T01500130 IEM_DS3505
ZGKL,2006-10-26 21:00,ZGKL 262100Z AUTO 04004KT 7SM 17/12 A3021 RMK SLP232 T01670118 57007 IEM_DS3505
ZGKL,2006-10-26 22:00,ZGKL 262200Z AUTO 00000KT 4SM 14/13 A3024 RMK T01400130 IEM_DS3505
ZGKL,2006-10-26 23:00,ZGKL 262300Z AUTO 05002KT 4SM 14/13 A3024 RMK T01400130 IEM_DS3505
ZGKL,2006-10-27 00:00,ZGKL 270000Z AUTO 02006KT 5SM 18/12 A3024 RMK SLP244 T01800116 52011 IEM_DS3505
ZGKL,2006-10-27 01:00,ZGKL 270100Z AUTO 35002KT 4SM 19/14 A3027 RMK T01900140 IEM_DS3505
ZGKL,2006-10-27 02:00,ZGKL 270200Z AUTO 05004KT 4SM 21/14 A3027 RMK T02100140 IEM_DS3505
ZGKL,2006-10-27 03:00,ZGKL 270300Z AUTO 36006KT 5SM 22/12 A3024 RMK SLP239 T02200123 57004 IEM_DS3505
ZGKL,2006-10-27 04:00,ZGKL 270400Z AUTO 03004KT 4SM 24/13 A3021 RMK T02400130 IEM_DS3505
ZGKL,2006-10-27 05:00,ZGKL 270500Z AUTO 01006KT 6SM 25/14 A3015 RMK T02500140 IEM_DS3505
ZGKL,2006-10-27 06:00,ZGKL 270600Z AUTO 02006KT 7SM 25/13 A3012 RMK SLP197 T02540130 57040 IEM_DS3505
ZGKL,2006-10-27 07:00,ZGKL 270700Z AUTO 04004KT 6SM 26/14 A3009 RMK T02600140 IEM_DS3505
ZGKL,2006-10-27 08:00,ZGKL 270800Z AUTO 07004KT 6SM 26/14 A3009 RMK T02600140 IEM_DS3505
ZGKL,2006-10-27 09:00,ZGKL 270900Z AUTO 02006KT 9SM 25/14 A3009 RMK SLP186 T02460138 57011 IEM_DS3505
ZGKL,2006-10-27 10:00,ZGKL 271000Z AUTO 07002KT 6SM 23/15 A3009 RMK T02300150 IEM_DS3505
ZGKL,2006-10-27 11:00,ZGKL 271100Z AUTO 07004KT 6SM 22/15 A3009 RMK T02200150 IEM_DS3505
ZGKL,2006-10-27 12:00,ZGKL 271200Z AUTO 02004KT 9SM 21/14 A3012 RMK SLP197 T02060138 52010 IEM_DS3505
ZGKL,2006-10-27 13:00,ZGKL 271300Z AUTO 04002KT 6SM 20/14 A3012 RMK T02000140 IEM_DS3505
ZGKL,2006-10-27 14:00,ZGKL 271400Z AUTO 04002KT 5SM 18/14 A3015 RMK T01800140 IEM_DS3505
ZGKL,2006-10-27 15:00,ZGKL 271500Z AUTO 02004KT 7SM 19/14 A3015 RMK SLP211 T01890140 52014 IEM_DS3505
ZGKL,2006-10-27 16:00,ZGKL 271600Z AUTO 05002KT 5SM 18/14 A3015 RMK T01800140 IEM_DS3505
ZGKL,2006-10-27 17:00,ZGKL 271700Z AUTO 03002KT 4SM 16/14 A3015 RMK T01600140 IEM_DS3505
ZGKL,2006-10-27 18:00,ZGKL 271800Z AUTO 02004KT 7SM 18/14 A3015 RMK SLP206 T01790138 57004 IEM_DS3505
ZGKL,2006-10-27 19:00,ZGKL 271900Z AUTO 07002KT 16/14 A3012 RMK T01600140 IEM_DS3505
ZGKL,2006-10-27 20:00,ZGKL 272000Z AUTO 08002KT 15/15 A3012 RMK T01500150 IEM_DS3505
ZGKL,2006-10-27 21:00,ZGKL 272100Z AUTO 36004KT 7SM 17/14 A3015 RMK SLP204 T01720137 57002 IEM_DS3505
ZGKL,2006-10-27 23:00,ZGKL 272300Z AUTO 09002KT 2 1/2SM 15/15 A3015 RMK T01500150 IEM_DS3505
ZGKL,2006-10-28 00:00,ZGKL 280000Z AUTO 04002KT 4SM 18/14 A3018 RMK SLP218 T01810140 52012 IEM_DS3505
ZGKL,2006-10-28 01:00,ZGKL 280100Z AUTO 03002KT 2 1/2SM 20/15 A3018 RMK T02000150 IEM_DS3505
ZGKL,2006-10-28 02:00,ZGKL 280200Z AUTO 33002KT 3SM 22/15 A3018 RMK T02200150 IEM_DS3505
ZGKL,2006-10-28 03:00,ZGKL 280300Z AUTO 02006KT 4SM 23/14 A3018 RMK SLP212 T02290142 57004 IEM_DS3505
ZGKL,2006-10-28 04:00,ZGKL 280400Z AUTO 05004KT 4SM 24/15 A3012 RMK T02400150 IEM_DS3505
ZGKL,2006-10-28 05:00,ZGKL 280500Z AUTO 33004KT 4SM 26/16 A3009 RMK T02600160 IEM_DS3505
ZGKL,2006-10-28 06:00,ZGKL 280600Z AUTO 02006KT 4SM 26/14 A3006 RMK SLP178 T02620140 57033 IEM_DS3505
ZGKL,2006-10-28 07:00,ZGKL 280700Z AUTO 06002KT 4SM 28/15 A3003 RMK T02800150 IEM_DS3505
ZGKL,2006-10-28 08:00,ZGKL 280800Z AUTO 05004KT 4SM 27/16 A3003 RMK T02700160 IEM_DS3505
ZGKL,2006-10-28 09:00,ZGKL 280900Z AUTO 02008KT 6SM 26/15 A3003 RMK SLP167 T02550152 57011 IEM_DS3505
ZGKL,2006-10-28 10:00,ZGKL 281000Z AUTO 06002KT 4SM 24/16 A3003 RMK T02400160 IEM_DS3505
ZGKL,2006-10-28 11:00,ZGKL 281100Z AUTO 06002KT 4SM 22/16 A3006 RMK T02200160 IEM_DS3505
ZGKL,2006-10-28 12:00,ZGKL 281200Z AUTO 02006KT 6SM 22/15 A3009 RMK SLP189 T02200154 52020 IEM_DS3505
ZGKL,2006-10-28 13:00,ZGKL 281300Z AUTO 05004KT 4SM 23/16 A3009 RMK T02300160 IEM_DS3505
ZGKL,2006-10-28 14:00,ZGKL 281400Z AUTO 06008KT 4SM 22/15 A3009 RMK T02200150 IEM_DS3505
ZGKL,2006-10-28 15:00,ZGKL 281500Z AUTO 36006KT 5SM 21/15 A3009 RMK SLP196 T02070148 52008 IEM_DS3505
ZGKL,2006-10-28 16:00,ZGKL 281600Z AUTO 06006KT 4SM 21/15 A3009 RMK T02100150 IEM_DS3505
ZGKL,2006-10-28 17:00,ZGKL 281700Z AUTO 04004KT 20/15 A3009 RMK T02000150 IEM_DS3505
ZGKL,2006-10-28 18:00,ZGKL 281800Z AUTO 02006KT 5SM 20/14 A3009 RMK SLP189 T01970145 57006 IEM_DS3505
ZGKL,2006-10-28 19:00,ZGKL 281900Z AUTO 29002KT 18/15 A3009 RMK T01800150 IEM_DS3505
ZGKL,2006-10-28 20:00,ZGKL 282000Z AUTO 13002KT 17/15 A3009 RMK T01700150 IEM_DS3505
ZGKL,2006-10-28 21:00,ZGKL 282100Z AUTO 02004KT 5SM 19/15 A3009 RMK SLP188 T01870148 57001 IEM_DS3505
ZGKL,2006-10-28 22:00,ZGKL 282200Z AUTO 06002KT 3SM 16/15 A3009 RMK T01600150 IEM_DS3505
ZGKL,2006-10-28 23:00,ZGKL 282300Z AUTO 02002KT 2 1/2SM 15/15 A3012 RMK T01500150 IEM_DS3505
ZGKL,2006-10-29 00:00,ZGKL 290000Z AUTO 04004KT 3SM 19/15 A3012 RMK SLP201 T01920149 52012 IEM_DS3505
ZGKL,2006-10-29 01:00,ZGKL 290100Z AUTO 04002KT 2SM 20/16 A3012 RMK T02000160 IEM_DS3505
ZGKL,2006-10-29 02:00,ZGKL 290200Z AUTO 36002KT 2 1/2SM 23/15 A3015 RMK T02300150 IEM_DS3505
ZGKL,2006-10-29 03:00,ZGKL 290300Z AUTO 04006KT 4SM 24/14 A3012 RMK SLP198 T02450143 57002 IEM_DS3505
ZGKL,2006-10-29 04:00,ZGKL 290400Z AUTO 04006KT 4SM 25/15 A3009 RMK T02500150 IEM_DS3505
ZGKL,2006-10-29 05:00,ZGKL 290500Z AUTO 35006KT 4SM 27/15 A3006 RMK T02700150 IEM_DS3505
ZGKL,2006-10-29 06:00,ZGKL 290600Z AUTO 02008KT 5SM 26/14 A3003 RMK SLP164 T02590141 57033 IEM_DS3505
ZGKL,2006-10-29 07:00,ZGKL 290700Z AUTO 10006KT 4SM 28/14 A3000 RMK T02800140 IEM_DS3505
ZGKL,2006-10-29 08:00,ZGKL 290800Z AUTO 08006KT 4SM 27/14 A3000 RMK T02700140 IEM_DS3505
ZGKL,2006-10-29 09:00,ZGKL 290900Z AUTO 02006KT 5SM 25/15 A3000 RMK SLP157 T02500148 57008 IEM_DS3505
ZGKL,2006-10-29 10:00,ZGKL 291000Z AUTO 06004KT 4SM 24/15 A3000 RMK T02400150 IEM_DS3505
ZGKL,2006-10-29 11:00,ZGKL 291100Z AUTO 07008KT 3SM 23/15 A3003 RMK T02300150 IEM_DS3505
ZGKL,2006-10-29 12:00,ZGKL 291200Z AUTO 36004KT 5SM 22/15 A3003 RMK SLP176 T02150149 52018 IEM_DS3505
ZGKL,2006-10-29 13:00,ZGKL 291300Z AUTO 04002KT 2SM 22/15 A3006 RMK T02200150 IEM_DS3505
ZGKL,2006-10-29 14:00,ZGKL 291400Z AUTO 36002KT 2SM 20/16 A3006 RMK T02000160 IEM_DS3505
ZGKL,2006-10-29 15:00,ZGKL 291500Z AUTO 07002KT 4SM 20/15 A3009 RMK SLP186 T02050148 52011 IEM_DS3505
ZGKL,2006-10-29 16:00,ZGKL 291600Z AUTO 04002KT 1 1/2SM 17/16 A3009 RMK T01700160 IEM_DS3505
ZGKL,2006-10-29 17:00,ZGKL 291700Z AUTO 02002KT 1 1/4SM 17/16 A3009 RMK T01700160 IEM_DS3505
ZGKL,2006-10-29 18:00,ZGKL 291800Z AUTO 04002KT 4SM 20/15 A3009 RMK SLP183 T01990149 57003 IEM_DS3505
ZGKL,2006-10-29 19:00,ZGKL 291900Z AUTO 00000KT 17/16 A3006 RMK T01700160 IEM_DS3505
ZGKL,2006-10-29 20:00,ZGKL 292000Z AUTO 00000KT 16/15 A3006 RMK T01600150 IEM_DS3505
ZGKL,2006-10-29 21:00,ZGKL 292100Z AUTO 02004KT 4SM 20/15 A3006 RMK SLP177 T02000150 57006 IEM_DS3505
ZGKL,2006-10-29 22:00,ZGKL 292200Z AUTO 07002KT 1SM 16/15 A3006 RMK T01600150 IEM_DS3505
ZGKL,2006-10-29 23:00,ZGKL 292300Z AUTO 06002KT 1SM 16/15 A3009 RMK T01600150 IEM_DS3505
ZGKL,2006-10-30 00:00,ZGKL 300000Z AUTO 02006KT 3SM 20/15 A3012 RMK SLP196 T01990147 52018 IEM_DS3505
ZGKL,2006-10-30 01:00,ZGKL 300100Z AUTO 32002KT 1 1/2SM 20/17 A3012 RMK T02000170 IEM_DS3505
ZGKL,2006-10-30 02:00,ZGKL 300200Z AUTO 33004KT 2 1/2SM 23/16 A3012 RMK T02300160 IEM_DS3505
ZGKL,2006-10-30 03:00,ZGKL 300300Z AUTO 36008KT 4SM 24/15 A3012 RMK SLP199 T02440148 52004 IEM_DS3505
ZGKL,2006-10-30 04:00,ZGKL 300400Z AUTO 03006KT 3SM 26/15 A3009 RMK T02600150 IEM_DS3505
ZGKL,2006-10-30 05:00,ZGKL 300500Z AUTO 06006KT 3SM 28/15 A3006 RMK T02800150 IEM_DS3505
ZGKL,2006-10-30 06:00,ZGKL 300600Z AUTO 34008KT 4SM 28/14 A3003 RMK SLP163 T02770136 57035 IEM_DS3505
ZGKL,2006-10-30 07:00,ZGKL 300700Z AUTO 06004KT 4SM 28/14 A3000 RMK T02800140 IEM_DS3505
ZGKL,2006-10-30 08:00,ZGKL 300800Z AUTO 07006KT 4SM 28/14 A2997 RMK T02800140 IEM_DS3505
ZGKL,2006-10-30 09:00,ZGKL 300900Z AUTO 02008KT 6SM 27/14 A3000 RMK SLP156 T02690136 57007 IEM_DS3505
ZGKL,2006-10-30 10:00,ZGKL 301000Z AUTO 07002KT 4SM 25/15 A3003 RMK T02500150 IEM_DS3505
ZGKL,2006-10-30 11:00,ZGKL 301100Z AUTO 07002KT 4SM 23/15 A3003 RMK T02300150 IEM_DS3505
ZGKL,2006-10-30 12:00,ZGKL 301200Z AUTO 02006KT 6SM 23/15 A3006 RMK SLP181 T02330146 52024 IEM_DS3505
ZGKL,2006-10-30 13:00,ZGKL 301300Z AUTO 36002KT 3SM 21/15 A3009 RMK T02100150 IEM_DS3505
ZGKL,2006-10-30 14:00,ZGKL 301400Z AUTO 01002KT 3SM 21/16 A3009 RMK T02100160 IEM_DS3505
ZGKL,2006-10-30 15:00,ZGKL 301500Z AUTO 36006KT 6SM 22/15 A3009 RMK SLP188 T02220148 52008 IEM_DS3505
ZGKL,2006-10-30 16:00,ZGKL 301600Z AUTO 08002KT 2 1/2SM 19/17 A3009 RMK T01900170 IEM_DS3505
ZGKL,2006-10-30 17:00,ZGKL 301700Z AUTO 07002KT 2 1/2SM 19/16 A3009 RMK T01900160 IEM_DS3505
ZGKL,2006-10-30 18:00,ZGKL 301800Z AUTO 04006KT 6SM 21/14 A3006 RMK SLP181 T02130145 57007 IEM_DS3505
ZGKL,2006-10-30 19:00,ZGKL 301900Z AUTO 05002KT 17/16 A3006 RMK T01700160 IEM_DS3505
ZGKL,2006-10-30 20:00,ZGKL 302000Z AUTO 04002KT 18/16 A3006 RMK T01800160 IEM_DS3505
ZGKL,2006-10-30 21:00,ZGKL 302100Z AUTO 02006KT 6SM 20/14 A3006 RMK SLP181 T02000141 54000 IEM_DS3505
ZGKL,2006-10-30 22:00,ZGKL 302200Z AUTO 04002KT 2 1/2SM 16/15 A3009 RMK T01600150 IEM_DS3505
ZGKL,2006-10-30 23:00,ZGKL 302300Z AUTO 00000KT 1SM 17/16 A3012 RMK T01700160 IEM_DS3505
ZGKL,2006-10-31 00:00,ZGKL 310000Z AUTO 02012KT 4SM 20/13 A3012 RMK SLP201 T02050130 52018 IEM_DS3505
ZGKL,2006-10-31 01:00,ZGKL 310100Z AUTO 36004KT 2SM 22/16 A3015 RMK T02200160 IEM_DS3505
ZGKL,2006-10-31 03:00,ZGKL 310300Z AUTO 02014KT 5SM 24/10 A3012 RMK SLP203 T02400096 52003 IEM_DS3505
ZGKL,2006-10-31 04:00,ZGKL 310400Z AUTO 06008KT 4SM 27/11 A3009 RMK T02700110 IEM_DS3505
ZGKL,2006-10-31 05:00,ZGKL 310500Z AUTO 05008KT 4SM 28/09 A3006 RMK T02800090 IEM_DS3505
ZGKL,2006-10-31 06:00,ZGKL 310600Z AUTO 02008KT 6SM 27/10 A3006 RMK SLP170 T02730101 57031 IEM_DS3505
ZGKL,2006-10-31 07:00,ZGKL 310700Z AUTO 05006KT 5SM 28/10 A3003 RMK T02800100 IEM_DS3505
ZGKL,2006-10-31 08:00,ZGKL 310800Z AUTO 06008KT 5SM 28/11 A3003 RMK T02800110 IEM_DS3505
ZGKL,2006-10-31 09:00,ZGKL 310900Z AUTO 02006KT 6SM 26/10 A3003 RMK SLP170 T02610095 57001 IEM_DS3505
ZGKL,2006-10-31 10:00,ZGKL 311000Z AUTO 05008KT 4SM 25/09 A3006 RMK T02500090 IEM_DS3505
ZGKL,2006-10-31 11:00,ZGKL 311100Z AUTO 05008KT 4SM 24/07 A3009 RMK T02400070 IEM_DS3505
ZGKL,2006-10-31 12:00,ZGKL 311200Z AUTO 02006KT 6SM 23/09 A3012 RMK SLP197 T02330086 52026 IEM_DS3505
ZGKL,2006-10-31 13:00,ZGKL 311300Z AUTO 06004KT 4SM 21/10 A3015 RMK T02100100 IEM_DS3505
ZGKL,2006-10-31 14:00,ZGKL 311400Z AUTO 32002KT 4SM 22/10 A3015 RMK T02200100 IEM_DS3505
ZGKL,2006-10-31 15:00,ZGKL 311500Z AUTO 36006KT 6SM 22/09 A3015 RMK SLP207 T02150094 52010 IEM_DS3505
ZGKL,2006-10-31 16:00,ZGKL 311600Z AUTO 05002KT 4SM 17/12 A3015 RMK T01700120 IEM_DS3505
ZGKL,2006-10-31 17:00,ZGKL 311700Z AUTO 20002KT 16/13 A3012 RMK T01600130 IEM_DS3505
ZGKL,2006-10-31 18:00,ZGKL 311800Z AUTO 02006KT 6SM 20/10 A3012 RMK SLP195 T01980100 57011 IEM_DS3505
ZGKL,2006-10-31 19:00,ZGKL 311900Z AUTO 34004KT 17/12 A3012 RMK T01700120 IEM_DS3505
ZGKL,2006-10-31 20:00,ZGKL 312000Z AUTO 18002KT 14/13 A3012 RMK T01400130 IEM_DS3505
ZGKL,2006-10-31 21:00,ZGKL 312100Z AUTO 02002KT 6SM 19/10 A3012 RMK SLP199 T01860102 52003 IEM_DS3505
ZGKL,2006-10-31 22:00,ZGKL 312200Z AUTO 02002KT 3SM 13/12 A3012 RMK T01300120 IEM_DS3505
ZGKL,2006-10-31 23:00,ZGKL 312300Z AUTO 10002KT 4SM 13/12 A3015 RMK T01300120 IEM_DS3505
ZGKL,2006-11-01 00:00,ZGKL 010000Z AUTO 02008KT 7SM 20/09 A3015 RMK SLP213 T01970093 52013 IEM_DS3505
ZGKL,2006-11-01 01:00,ZGKL 010100Z AUTO 00000KT 5SM 21/12 A3018 RMK T02100120 IEM_DS3505
ZGKL,2006-11-01 02:00,ZGKL 010200Z AUTO 07008KT 6SM 24/09 A3018 RMK T02400090 IEM_DS3505
ZGKL,2006-11-01 03:00,ZGKL 010300Z AUTO 02012KT 8SM 24/08 A3018 RMK SLP215 T02410085 52003 IEM_DS3505
ZGKL,2006-11-01 04:00,ZGKL 010400Z AUTO 07010KT 6SM 26/07 A3015 RMK T02600070 IEM_DS3505
ZGKL,2006-11-01 05:00,ZGKL 010500Z AUTO 09010KT 6SM 27/08 A3009 RMK T02700080 IEM_DS3505
ZGKL,2006-11-01 06:00,ZGKL 010600Z AUTO 07010KT 8SM 27/08 A3006 RMK SLP177 T02690084 57037 IEM_DS3505
ZGKL,2006-11-01 07:00,ZGKL 010700Z AUTO 09008KT 6SM 27/08 A3003 RMK T02700080 IEM_DS3505
ZGKL,2006-11-01 08:00,ZGKL 010800Z AUTO 08010KT 6SM 27/07 A3003 RMK T02700070 IEM_DS3505
ZGKL,2006-11-01 09:00,ZGKL 010900Z AUTO 04008KT 8SM 26/07 A3003 RMK SLP168 T02560068 57010 IEM_DS3505
ZGKL,2006-11-01 10:00,ZGKL 011000Z AUTO 05006KT 6SM 24/07 A3003 RMK T02400070 IEM_DS3505
ZGKL,2006-11-01 11:00,ZGKL 011100Z AUTO 04004KT 6SM 22/08 A3006 RMK T02200080 IEM_DS3505
ZGKL,2006-11-01 12:00,ZGKL 011200Z AUTO 04004KT 8SM 21/07 A3009 RMK SLP190 T02120067 52021 IEM_DS3505
ZGKL,2006-11-01 13:00,ZGKL 011300Z AUTO 06002KT 6SM 18/09 A3012 RMK T01800090 IEM_DS3505
ZGKL,2006-11-01 14:00,ZGKL 011400Z AUTO 01002KT 6SM 15/11 A3012 RMK T01500110 IEM_DS3505
ZGKL,2006-11-01 15:00,ZGKL 011500Z AUTO 02002KT 7SM 19/08 A3012 RMK SLP201 T01870075 52011 IEM_DS3505
ZGKL,2006-11-01 16:00,ZGKL 011600Z AUTO 00000KT 6SM 13/11 A3012 RMK T01300110 IEM_DS3505
ZGKL,2006-11-01 17:00,ZGKL 011700Z AUTO 06002KT 12/10 A3012 RMK T01200100 IEM_DS3505
ZGKL,2006-11-01 18:00,ZGKL 011800Z AUTO 02004KT 6SM 17/08 A3009 RMK SLP193 T01710080 57007 IEM_DS3505
ZGKL,2006-11-01 19:00,ZGKL 011900Z AUTO 05002KT 11/10 A3009 RMK T01100100 IEM_DS3505
ZGKL,2006-11-01 20:00,ZGKL 012000Z AUTO 13002KT 10/09 A3009 RMK T01000090 IEM_DS3505
ZGKL,2006-11-01 21:00,ZGKL 012100Z AUTO 36002KT 7SM 15/09 A3009 RMK SLP192 T01470086 57003 IEM_DS3505
ZGKL,2006-11-01 22:00,ZGKL 012200Z AUTO 07002KT 5SM 10/09 A3009 RMK T01000090 IEM_DS3505
ZGKL,2006-11-01 23:00,ZGKL 012300Z AUTO 03002KT 6SM 10/09 A3012 RMK T01000090 IEM_DS3505
ZGKL,2006-11-02 00:00,ZGKL 020000Z AUTO 36004KT 7SM 16/08 A3012 RMK SLP202 T01580083 52009 IEM_DS3505
ZGKL,2006-11-02 01:00,ZGKL 020100Z AUTO 34002KT 6SM 17/11 A3015 RMK T01700110 IEM_DS3505
ZGKL,2006-11-02 02:00,ZGKL 020200Z AUTO 04002KT 6SM 22/10 A3015 RMK T02200100 IEM_DS3505
ZGKL,2006-11-02 03:00,ZGKL 020300Z AUTO 36012KT 9SM 23/04 A3012 RMK SLP199 T02340044 57001 IEM_DS3505
ZGKL,2006-11-02 04:00,ZGKL 020400Z AUTO 03010KT 6SM 25/04 A3009 RMK T02500040 IEM_DS3505
ZGKL,2006-11-02 05:00,ZGKL 020500Z AUTO 05008KT 6SM A3006 RMK IEM_DS3505
ZGKL,2006-11-02 06:00,ZGKL 020600Z AUTO 36010KT 11SM 26/02 A3000 RMK SLP161 T02640023 57037 IEM_DS3505
ZGKL,2006-11-02 07:00,ZGKL 020700Z AUTO 04008KT 6SM 27/02 A3000 RMK T02700020 IEM_DS3505
ZGKL,2006-11-02 08:00,ZGKL 020800Z AUTO 07006KT 6SM 27/02 A2997 RMK T02700020 IEM_DS3505
ZGKL,2006-11-02 09:00,ZGKL 020900Z AUTO 04006KT 16SM 26/04 A2997 RMK SLP153 T02580043 57009 IEM_DS3505
ZGKL,2006-11-02 10:00,ZGKL 021000Z AUTO 06004KT 6SM 23/06 A3000 RMK T02300060 IEM_DS3505
ZGKL,2006-11-02 11:00,ZGKL 021100Z AUTO 31002KT 6SM 21/08 A3000 RMK T02100080 IEM_DS3505
ZGKL,2006-11-02 12:00,ZGKL 021200Z AUTO 04006KT 9SM 21/04 A3006 RMK SLP176 T02090045 52022 IEM_DS3505
ZGKL,2006-11-02 13:00,ZGKL 021300Z AUTO 02002KT 6SM 17/10 A3006 RMK T01700100 IEM_DS3505
ZGKL,2006-11-02 14:00,ZGKL 021400Z AUTO 36002KT 6SM 13/10 A3009 RMK T01300100 IEM_DS3505
ZGKL,2006-11-02 15:00,ZGKL 021500Z AUTO 02002KT 9SM 18/07 A3009 RMK SLP189 T01840072 52014 IEM_DS3505
ZGKL,2006-11-02 16:00,ZGKL 021600Z AUTO 03002KT 6SM 11/10 A3009 RMK T01100100 IEM_DS3505
ZGKL,2006-11-02 17:00,ZGKL 021700Z AUTO 05002KT 11/09 A3009 RMK T01100090 IEM_DS3505
ZGKL,2006-11-02 18:00,ZGKL 021800Z AUTO 36004KT 7SM 16/08 A3009 RMK SLP185 T01640081 57004 IEM_DS3505
ZGKL,2006-11-02 19:00,ZGKL 021900Z AUTO 02002KT 10/09 A3006 RMK T01000090 IEM_DS3505
ZGKL,2006-11-02 20:00,ZGKL 022000Z AUTO 05002KT 09/09 A3006 RMK T00900090 IEM_DS3505
ZGKL,2006-11-02 21:00,ZGKL 022100Z AUTO 04002KT 7SM 14/08 A3006 RMK SLP181 T01410081 57004 IEM_DS3505
ZGKL,2006-11-02 22:00,ZGKL 022200Z AUTO 07002KT 6SM 09/08 A3006 RMK T00900080 IEM_DS3505
ZGKL,2006-11-02 23:00,ZGKL 022300Z AUTO 06002KT 6SM 08/08 A3009 RMK T00800080 IEM_DS3505
ZGKL,2006-11-03 00:00,ZGKL 030000Z AUTO 02002KT 7SM 14/09 A3012 RMK SLP197 T01410087 52014 IEM_DS3505
ZGKL,2006-11-03 01:00,ZGKL 030100Z AUTO 32002KT 6SM 16/11 A3012 RMK T01600110 IEM_DS3505
ZGKL,2006-11-03 02:00,ZGKL 030200Z AUTO 05002KT 6SM 20/10 A3015 RMK T02000100 IEM_DS3505
ZGKL,2006-11-03 03:00,ZGKL 030300Z AUTO 32004KT 7SM 23/08 A3012 RMK SLP199 T02270077 52004 IEM_DS3505
ZGKL,2006-11-03 04:00,ZGKL 030400Z AUTO 34004KT 6SM 25/07 A3009 RMK T02500070 IEM_DS3505
ZGKL,2006-11-03 05:00,ZGKL 030500Z AUTO 35004KT 6SM 27/07 A3006 RMK T02700070 IEM_DS3505
ZGKL,2006-11-03 06:00,ZGKL 030600Z AUTO 36006KT 12SM 28/04 A3000 RMK SLP156 T02800043 57042 IEM_DS3505
ZGKL,2006-11-03 07:00,ZGKL 030700Z AUTO 26004KT 6SM 29/06 A2997 RMK T02900060 IEM_DS3505
ZGKL,2006-11-03 08:00,ZGKL 030800Z AUTO 25006KT 6SM 28/05 A2997 RMK T02800050 IEM_DS3505
ZGKL,2006-11-03 09:00,ZGKL 030900Z AUTO 36004KT 17SM 28/03 A2997 RMK SLP145 T02800030 57011 IEM_DS3505
ZGKL,2006-11-03 10:00,ZGKL 031000Z AUTO 23002KT 6SM 23/09 A2997 RMK T02300090 IEM_DS3505
ZGKL,2006-11-03 11:00,ZGKL 031100Z AUTO 05004KT 6SM 18/11 A2997 RMK T01800110 IEM_DS3505
ZGKL,2006-11-03 12:00,ZGKL 031200Z AUTO 04004KT 14SM 23/06 A3000 RMK SLP161 T02260060 52014 IEM_DS3505
ZGKL,2006-11-03 13:00,ZGKL 031300Z AUTO 12002KT 6SM 14/12 A3003 RMK T01400120 IEM_DS3505
ZGKL,2006-11-03 14:00,ZGKL 031400Z AUTO 00000KT 6SM 13/11 A3003 RMK T01300110 IEM_DS3505
ZGKL,2006-11-03 15:00,ZGKL 031500Z AUTO 36004KT 14SM 19/08 A3006 RMK SLP173 T01880085 52013 IEM_DS3505
ZGKL,2006-11-03 16:00,ZGKL 031600Z AUTO 07002KT 6SM 11/10 A3003 RMK T01100100 IEM_DS3505
ZGKL,2006-11-03 17:00,ZGKL 031700Z AUTO 06002KT 6SM 11/10 A3003 RMK T01100100 IEM_DS3505
ZGKL,2006-11-03 18:00,ZGKL 031800Z AUTO 07002KT 11SM 15/10 A3003 RMK SLP169 T01540100 57003 IEM_DS3505
ZGKL,2006-11-03 19:00,ZGKL 031900Z AUTO 04002KT 10/09 A3003 RMK T01000090 IEM_DS3505
ZGKL,2006-11-03 20:00,ZGKL 032000Z AUTO 08002KT 09/09 A3003 RMK T00900090 IEM_DS3505
ZGKL,2006-11-03 21:00,ZGKL 032100Z AUTO 04002KT 10SM 13/10 A3003 RMK SLP167 T01320096 57003 IEM_DS3505
ZGKL,2006-11-03 22:00,ZGKL 032200Z AUTO 09002KT 4SM 09/08 A3003 RMK T00900080 IEM_DS3505
ZGKL,2006-11-03 23:00,ZGKL 032300Z AUTO 05002KT 4SM 08/08 A3006 RMK T00800080 IEM_DS3505
ZGKL,2006-11-04 00:00,ZGKL 040000Z AUTO 07002KT 9SM 14/10 A3009 RMK SLP190 T01430103 52021 IEM_DS3505
ZGKL,2006-11-04 01:00,ZGKL 040100Z AUTO 02002KT 6SM 16/12 A3009 RMK T01600120 IEM_DS3505
ZGKL,2006-11-04 02:00,ZGKL 040200Z AUTO 11002KT 6SM 21/12 A3009 RMK T02100120 IEM_DS3505
ZGKL,2006-11-04 03:00,ZGKL 040300Z AUTO 11002KT 9SM 23/10 A3009 RMK SLP183 T02280096 57005 IEM_DS3505
ZGKL,2006-11-04 04:00,ZGKL 040400Z AUTO 22004KT 6SM 26/09 A3003 RMK T02600090 IEM_DS3505
ZGKL,2006-11-04 05:00,ZGKL 040500Z AUTO 31002KT 6SM 27/09 A3000 RMK T02700090 IEM_DS3505
ZGKL,2006-11-04 06:00,ZGKL 040600Z AUTO 18004KT 5SM 28/07 A2997 RMK SLP145 T02780066 57037 IEM_DS3505
ZGKL,2006-11-04 07:00,ZGKL 040700Z AUTO 29002KT 6SM 31/06 A2994 RMK T03100060 IEM_DS3505
ZGKL,2006-11-04 08:00,ZGKL 040800Z AUTO 31002KT 6SM 31/04 A2991 RMK T03100040 IEM_DS3505
ZGKL,2006-11-04 09:00,ZGKL 040900Z AUTO 11002KT 11SM 28/03 A2991 RMK SLP131 T02850027 57014 IEM_DS3505
ZGKL,2006-11-04 10:00,ZGKL 041000Z AUTO 28002KT 6SM 24/08 A2994 RMK T02400080 IEM_DS3505
ZGKL,2006-11-04 11:00,ZGKL 041100Z AUTO 05002KT 6SM 18/11 A2994 RMK T01800110 IEM_DS3505
ZGKL,2006-11-04 12:00,ZGKL 041200Z AUTO 36002KT 11SM 20/08 A2997 RMK SLP152 T02040078 52018 IEM_DS3505
ZGKL,2006-11-04 13:00,ZGKL 041300Z AUTO 00000KT 6SM 14/11 A3000 RMK T01400110 IEM_DS3505
ZGKL,2006-11-04 14:00,ZGKL 041400Z AUTO 00000KT 6SM 13/11 A3000 RMK T01300110 IEM_DS3505
ZGKL,2006-11-04 15:00,ZGKL 041500Z AUTO 04002KT 10SM 17/08 A3000 RMK SLP163 T01700076 52013 IEM_DS3505
ZGKL,2006-11-04 16:00,ZGKL 041600Z AUTO 06002KT 11/10 A3000 RMK T01100100 IEM_DS3505
ZGKL,2006-11-04 17:00,ZGKL 041700Z AUTO 06002KT 11/10 A3000 RMK T01100100 IEM_DS3505
ZGKL,2006-11-04 18:00,ZGKL 041800Z AUTO 04002KT 9SM 15/09 A3000 RMK SLP157 T01530090 57005 IEM_DS3505
ZGKL,2006-11-04 19:00,ZGKL 041900Z AUTO 00000KT 10/09 A3000 RMK T01000090 IEM_DS3505
ZGKL,2006-11-04 20:00,ZGKL 042000Z AUTO 06002KT 09/08 A3000 RMK T00900080 IEM_DS3505
ZGKL,2006-11-04 21:00,ZGKL 042100Z AUTO 02002KT 9SM 13/08 A3000 RMK SLP156 T01340085 57001 IEM_DS3505
ZGKL,2006-11-04 22:00,ZGKL 042200Z AUTO 00000KT 6SM 09/08 A3000 RMK T00900080 IEM_DS3505
ZGKL,2006-11-04 23:00,ZGKL 042300Z AUTO 05002KT 6SM 08/07 A3003 RMK T00800070 IEM_DS3505
ZGKL,2006-11-05 00:00,ZGKL 050000Z AUTO 02002KT 9SM 14/09 A3006 RMK SLP179 T01410087 52020 IEM_DS3505
ZGKL,2006-11-05 01:00,ZGKL 050100Z AUTO 15002KT 6SM 16/11 A3006 RMK T01600110 IEM_DS3505
ZGKL,2006-11-05 02:00,ZGKL 050200Z AUTO 06002KT 6SM 20/08 A3009 RMK T02000080 IEM_DS3505
ZGKL,2006-11-05 03:00,ZGKL 050300Z AUTO 14004KT 9SM 23/09 A3006 RMK SLP177 T02310091 54000 IEM_DS3505
ZGKL,2006-11-05 04:00,ZGKL 050400Z AUTO 33002KT 6SM 27/08 A3000 RMK T02700080 IEM_DS3505
ZGKL,2006-11-05 05:00,ZGKL 050500Z AUTO 01002KT 6SM 29/09 A2997 RMK T02900090 IEM_DS3505
ZGKL,2006-11-05 06:00,ZGKL 050600Z AUTO 14004KT 7SM 29/05 A2994 RMK SLP134 T02930054 57041 IEM_DS3505
ZGKL,2006-11-05 07:00,ZGKL 050700Z AUTO 35002KT 6SM 30/04 A2991 RMK T03000040 IEM_DS3505
ZGKL,2006-11-05 08:00,ZGKL 050800Z AUTO 13002KT 6SM 30/04 A2991 RMK T03000040 IEM_DS3505
ZGKL,2006-11-05 09:00,ZGKL 050900Z AUTO 02008KT 8SM 28/08 A2991 RMK SLP134 T02790077 57001 IEM_DS3505
ZGKL,2006-11-05 10:00,ZGKL 051000Z AUTO 06006KT 6SM 25/08 A2994 RMK T02500080 IEM_DS3505
ZGKL,2006-11-05 11:00,ZGKL 051100Z AUTO 05008KT 6SM 24/09 A2997 RMK T02400090 IEM_DS3505
ZGKL,2006-11-05 12:00,ZGKL 051200Z AUTO 02006KT 7SM 23/09 A3000 RMK SLP161 T02330093 52025 IEM_DS3505
ZGKL,2006-11-05 13:00,ZGKL 051300Z AUTO 35002KT 6SM 22/11 A3003 RMK T02200110 IEM_DS3505
ZGKL,2006-11-05 14:00,ZGKL 051400Z AUTO 05002KT 6SM 19/12 A3006 RMK T01900120 IEM_DS3505
ZGKL,2006-11-05 15:00,ZGKL 051500Z AUTO 02006KT 7SM 22/10 A3009 RMK SLP183 T02240105 52024 IEM_DS3505
ZGKL,2006-11-05 16:00,ZGKL 051600Z AUTO 00000KT 6SM 18/14 A3009 RMK T01800140 IEM_DS3505
ZGKL,2006-11-05 17:00,ZGKL 051700Z AUTO 02002KT 18/13 A3009 RMK T01800130 IEM_DS3505
ZGKL,2006-11-05 18:00,ZGKL 051800Z AUTO 02008KT 7SM 22/10 A3009 RMK SLP181 T02200099 54000 IEM_DS3505
ZGKL,2006-11-05 19:00,ZGKL 051900Z AUTO 00000KT 18/14 A3009 RMK T01800140 IEM_DS3505
ZGKL,2006-11-05 20:00,ZGKL 052000Z AUTO 00000KT 17/14 A3009 RMK T01700140 IEM_DS3505
ZGKL,2006-11-05 21:00,ZGKL 052100Z AUTO 36004KT 9SM 21/09 A3009 RMK SLP189 T02130092 52007 IEM_DS3505
ZGKL,2006-11-05 22:00,ZGKL 052200Z AUTO 04002KT 6SM 18/14 A3012 RMK T01800140 IEM_DS3505
ZGKL,2006-11-05 23:00,ZGKL 052300Z AUTO 01002KT 6SM 17/14 A3015 RMK T01700140 IEM_DS3505
ZGKL,2006-11-06 00:00,ZGKL 060000Z AUTO 02006KT 9SM 21/09 A3018 RMK SLP211 T02080094 52020 IEM_DS3505
ZGKL,2006-11-06 01:00,ZGKL 060100Z AUTO 07002KT 6SM 19/15 A3021 RMK T01900150 IEM_DS3505
ZGKL,2006-11-06 02:00,ZGKL 060200Z AUTO 05002KT 6SM 20/14 A3021 RMK T02000140 IEM_DS3505
ZGKL,2006-11-06 03:00,ZGKL 060300Z AUTO 02006KT 10SM 22/10 A3021 RMK SLP225 T02230098 52014 IEM_DS3505
ZGKL,2006-11-06 04:00,ZGKL 060400Z AUTO 36002KT 6SM 23/12 A3018 RMK T02300120 IEM_DS3505
ZGKL,2006-11-06 05:00,ZGKL 060500Z AUTO 09004KT 6SM 25/09 A3012 RMK T02500090 IEM_DS3505
ZGKL,2006-11-06 06:00,ZGKL 060600Z AUTO 02012KT 11SM 25/08 A3012 RMK SLP193 T02510077 57030 IEM_DS3505
ZGKL,2006-11-06 07:00,ZGKL 060700Z AUTO 03006KT 6SM 25/09 A3009 RMK T02500090 IEM_DS3505
ZGKL,2006-11-06 08:00,ZGKL 060800Z AUTO 06008KT 6SM 25/07 A3009 RMK T02500070 IEM_DS3505
ZGKL,2006-11-06 09:00,ZGKL 060900Z AUTO 02006KT 11SM 24/06 A3012 RMK SLP193 T02400063 57001 IEM_DS3505
ZGKL,2006-11-06 10:00,ZGKL 061000Z AUTO 05006KT 6SM 23/06 A3012 RMK T02300060 IEM_DS3505
ZGKL,2006-11-06 11:00,ZGKL 061100Z AUTO 05006KT 6SM 23/05 A3012 RMK T02300050 IEM_DS3505
ZGKL,2006-11-06 12:00,ZGKL 061200Z AUTO 02006KT 10SM 22/05 A3015 RMK SLP213 T02180053 52019 IEM_DS3505
ZGKL,2006-11-06 13:00,ZGKL 061300Z AUTO 35002KT 6SM 21/07 A3018 RMK T02100070 IEM_DS3505
ZGKL,2006-11-06 14:00,ZGKL 061400Z AUTO 36002KT 6SM 19/11 A3018 RMK T01900110 IEM_DS3505
ZGKL,2006-11-06 15:00,ZGKL 061500Z AUTO 02004KT 8SM 20/08 A3018 RMK SLP222 T01990076 52009 IEM_DS3505
ZGKL,2006-11-06 16:00,ZGKL 061600Z AUTO 05004KT 7SM 16/11 A3018 RMK T01600110 IEM_DS3505
ZGKL,2006-11-06 17:00,ZGKL 061700Z AUTO 06002KT 16/11 A3018 RMK T01600110 IEM_DS3505
ZGKL,2006-11-06 18:00,ZGKL 061800Z AUTO 02004KT 8SM 17/09 A3018 RMK SLP217 T01700087 57005 IEM_DS3505
ZGKL,2006-11-06 19:00,ZGKL 061900Z AUTO 01002KT 13/10 A3018 RMK T01300100 IEM_DS3505
ZGKL,2006-11-06 20:00,ZGKL 062000Z AUTO 01002KT 12/10 A3018 RMK T01200100 IEM_DS3505
ZGKL,2006-11-06 21:00,ZGKL 062100Z AUTO 02004KT 8SM 15/09 A3018 RMK SLP215 T01500091 57003 IEM_DS3505
ZGKL,2006-11-06 22:00,ZGKL 062200Z AUTO 00000KT 6SM 10/09 A3018 RMK T01000090 IEM_DS3505
ZGKL,2006-11-06 23:00,ZGKL 062300Z AUTO 12002KT 6SM 10/09 A3018 RMK T01000090 IEM_DS3505
ZGKL,2006-11-07 00:00,ZGKL 070000Z AUTO 34004KT 9SM 15/08 A3021 RMK SLP230 T01530085 52014 IEM_DS3505
ZGKL,2006-11-07 01:00,ZGKL 070100Z AUTO 05002KT 6SM 18/10 A3024 RMK T01800100 IEM_DS3505
ZGKL,2006-11-07 02:00,ZGKL 070200Z AUTO 17002KT 6SM 23/08 A3024 RMK T02300080 IEM_DS3505
ZGKL,2006-11-07 03:00,ZGKL 070300Z AUTO 02006KT 9SM 24/06 A3021 RMK SLP228 T02360055 54000 IEM_DS3505
ZGKL,2006-11-07 04:00,ZGKL 070400Z AUTO 06006KT 6SM 26/03 A3018 RMK T02600030 IEM_DS3505
ZGKL,2006-11-07 05:00,ZGKL 070500Z AUTO 08006KT 6SM 26/00 A3015 RMK T02600000 IEM_DS3505
ZGKL,2006-11-07 06:00,ZGKL 070600Z AUTO 34004KT 9SM 27/02 A3009 RMK SLP188 T02740025 57039 IEM_DS3505
ZGKL,2006-11-07 07:00,ZGKL 070700Z AUTO 04002KT 6SM 27/M01 A3006 RMK T02701010 IEM_DS3505
ZGKL,2006-11-07 08:00,ZGKL 070800Z AUTO 24002KT 6SM 28/00 A3006 RMK T02800000 IEM_DS3505
ZGKL,2006-11-07 09:00,ZGKL 070900Z AUTO 04004KT 9SM 26/03 A3006 RMK SLP182 T02650031 57007 IEM_DS3505
ZGKL,2006-11-07 10:00,ZGKL 071000Z AUTO 32002KT 6SM 21/08 A3006 RMK T02100080 IEM_DS3505
ZGKL,2006-11-07 11:00,ZGKL 071100Z AUTO 15002KT 6SM 17/09 A3009 RMK T01700090 IEM_DS3505
ZGKL,2006-11-07 12:00,ZGKL 071200Z AUTO 02004KT 9SM 21/04 A3009 RMK SLP195 T02090040 52011 IEM_DS3505
ZGKL,2006-11-07 13:00,ZGKL 071300Z AUTO 05002KT 6SM 15/10 A3012 RMK T01500100 IEM_DS3505
ZGKL,2006-11-07 14:00,ZGKL 071400Z AUTO 06002KT 6SM 13/10 A3015 RMK T01300100 IEM_DS3505
ZGKL,2006-11-07 15:00,ZGKL 071500Z AUTO 36004KT 9SM 18/04 A3015 RMK SLP203 T01800039 52010 IEM_DS3505
ZGKL,2006-11-07 16:00,ZGKL 071600Z AUTO 06002KT 6SM 11/09 A3015 RMK T01100090 IEM_DS3505
ZGKL,2006-11-07 17:00,ZGKL 071700Z AUTO 08002KT 11/09 A3015 RMK T01100090 IEM_DS3505
ZGKL,2006-11-07 18:00,ZGKL 071800Z AUTO 09002KT 9SM 15/07 A3012 RMK SLP202 T01510067 57001 IEM_DS3505
ZGKL,2006-11-07 19:00,ZGKL 071900Z AUTO 06002KT 10/09 A3012 RMK T01000090 IEM_DS3505
ZGKL,2006-11-07 20:00,ZGKL 072000Z AUTO 07002KT 10/09 A3012 RMK T01000090 IEM_DS3505
ZGKL,2006-11-07 21:00,ZGKL 072100Z AUTO 36002KT 9SM 13/06 A3012 RMK SLP199 T01330059 57004 IEM_DS3505
ZGKL,2006-11-07 22:00,ZGKL 072200Z AUTO 10002KT 6SM 09/08 A3012 RMK T00900080 IEM_DS3505
ZGKL,2006-11-07 23:00,ZGKL 072300Z AUTO 06002KT 6SM 09/08 A3015 RMK T00900080 IEM_DS3505
ZGKL,2006-11-08 00:00,ZGKL 080000Z AUTO 02002KT 8SM 13/06 A3015 RMK SLP216 T01340060 52015 IEM_DS3505
ZGKL,2006-11-08 01:00,ZGKL 080100Z AUTO 05002KT 6SM 15/10 A3018 RMK T01500100 IEM_DS3505
ZGKL,2006-11-08 02:00,ZGKL 080200Z AUTO 06002KT 6SM 19/08 A3021 RMK T01900080 IEM_DS3505
ZGKL,2006-11-08 03:00,ZGKL 080300Z AUTO 34002KT 7SM 22/05 A3018 RMK SLP217 T02190049 52003 IEM_DS3505
ZGKL,2006-11-08 04:00,ZGKL 080400Z AUTO 20004KT 6SM 24/07 A3015 RMK T02400070 IEM_DS3505
ZGKL,2006-11-08 05:00,ZGKL 080500Z AUTO 21004KT 6SM 26/08 A3012 RMK T02600080 IEM_DS3505
ZGKL,2006-11-08 06:00,ZGKL 080600Z AUTO 14004KT 8SM 27/08 A3006 RMK SLP181 T02700084 57035 IEM_DS3505
ZGKL,2006-11-08 07:00,ZGKL 080700Z AUTO 15004KT 6SM 28/09 A3003 RMK T02800090 IEM_DS3505
ZGKL,2006-11-08 08:00,ZGKL 080800Z AUTO 18006KT 6SM 28/09 A3003 RMK T02800090 IEM_DS3505
ZGKL,2006-11-08 09:00,ZGKL 080900Z AUTO 14002KT 9SM 27/09 A3000 RMK SLP163 T02690093 57018 IEM_DS3505
ZGKL,2006-11-08 10:00,ZGKL 081000Z AUTO 16004KT 6SM 24/10 A3003 RMK T02400100 IEM_DS3505
ZGKL,2006-11-08 11:00,ZGKL 081100Z AUTO 03002KT 6SM 19/13 A3003 RMK T01900130 IEM_DS3505
ZGKL,2006-11-08 12:00,ZGKL 081200Z AUTO 02002KT 9SM 21/12 A3006 RMK SLP177 T02090118 52012 IEM_DS3505
ZGKL,2006-11-08 13:00,ZGKL 081300Z AUTO 00000KT 6SM 16/12 A3009 RMK T01600120 IEM_DS3505
ZGKL,2006-11-08 14:00,ZGKL 081400Z AUTO 05002KT 6SM 15/13 A3009 RMK T01500130 IEM_DS3505
ZGKL,2006-11-08 15:00,ZGKL 081500Z AUTO 04002KT 8SM 19/12 A3009 RMK SLP194 T01880121 52019 IEM_DS3505
ZGKL,2006-11-08 16:00,ZGKL 081600Z AUTO 08002KT 6SM 14/13 A3012 RMK T01400130 IEM_DS3505
ZGKL,2006-11-08 17:00,ZGKL 081700Z AUTO 06002KT 14/12 A3012 RMK T01400120 IEM_DS3505
ZGKL,2006-11-08 18:00,ZGKL 081800Z AUTO 02002KT 7SM 17/12 A3012 RMK SLP197 T01740119 52004 IEM_DS3505
ZGKL,2006-11-08 19:00,ZGKL 081900Z AUTO 00000KT 13/12 A3012 RMK T01300120 IEM_DS3505
ZGKL,2006-11-08 20:00,ZGKL 082000Z AUTO 07002KT 13/12 A3012 RMK T01300120 IEM_DS3505
ZGKL,2006-11-08 21:00,ZGKL 082100Z AUTO 34002KT 7SM 17/12 A3012 RMK SLP197 T01690124 54000 IEM_DS3505
ZGKL,2006-11-08 22:00,ZGKL 082200Z AUTO 08002KT 6SM 13/12 A3012 RMK T01300120 IEM_DS3505
ZGKL,2006-11-08 23:00,ZGKL 082300Z AUTO 04002KT 5SM 13/12 A3015 RMK T01300120 IEM_DS3505
ZGKL,2006-11-09 00:00,ZGKL 090000Z AUTO 09002KT 4SM 18/13 A3015 RMK SLP214 T01780131 52015 IEM_DS3505
ZGKL,2006-11-09 01:00,ZGKL 090100Z AUTO 07002KT 4SM 18/14 A3018 RMK T01800140 IEM_DS3505
ZGKL,2006-11-09 02:00,ZGKL 090200Z AUTO 00000KT 4SM 19/15 A3018 RMK T01900150 IEM_DS3505
ZGKL,2006-11-09 03:00,ZGKL 090300Z AUTO 11002KT 5SM 22/13 A3018 RMK SLP216 T02230134 52002 IEM_DS3505
ZGKL,2006-11-09 04:00,ZGKL 090400Z AUTO 22002KT 4SM 25/14 A3012 RMK T02500140 IEM_DS3505
ZGKL,2006-11-09 05:00,ZGKL 090500Z AUTO 21004KT 4SM 27/16 A3009 RMK T02700160 IEM_DS3505
ZGKL,2006-11-09 06:00,ZGKL 090600Z AUTO 16006KT 5SM 27/16 A3006 RMK SLP176 T02700163 57038 IEM_DS3505
ZGKL,2006-11-09 07:00,ZGKL 090700Z AUTO 18004KT 4SM 28/17 A3003 RMK T02800170 IEM_DS3505
ZGKL,2006-11-09 08:00,ZGKL 090800Z AUTO 18006KT 4SM 29/18 A3003 RMK T02900180 IEM_DS3505
ZGKL,2006-11-09 09:00,ZGKL 090900Z AUTO 16002KT 7SM 27/18 A3003 RMK SLP165 T02730178 57011 IEM_DS3505
ZGKL,2006-11-09 10:00,ZGKL 091000Z AUTO 19002KT 6SM 26/18 A3003 RMK T02600180 IEM_DS3505
ZGKL,2006-11-09 11:00,ZGKL 091100Z AUTO 30002KT 6SM 25/18 A3003 RMK T02500180 IEM_DS3505
ZGKL,2006-11-09 12:00,ZGKL 091200Z AUTO 07002KT 7SM 23/18 A3006 RMK SLP172 T02320179 52006 IEM_DS3505
ZGKL,2006-11-09 13:00,ZGKL 091300Z AUTO 06002KT 4SM 20/18 A3006 RMK T02000180 IEM_DS3505
ZGKL,2006-11-09 14:00,ZGKL 091400Z AUTO 00000KT 4SM 20/18 A3006 RMK T02000180 IEM_DS3505
ZGKL,2006-11-09 15:00,ZGKL 091500Z AUTO 09002KT 7SM 22/18 A3009 RMK SLP181 T02230181 52010 IEM_DS3505
ZGKL,2006-11-09 16:00,ZGKL 091600Z AUTO 00000KT 20/18 A3009 RMK T02000180 IEM_DS3505
ZGKL,2006-11-09 17:00,ZGKL 091700Z AUTO 16002KT 20/18 A3006 RMK T02000180 IEM_DS3505
ZGKL,2006-11-09 18:00,ZGKL 091800Z AUTO 07002KT 7SM 22/18 A3006 RMK SLP176 T02160180 57004 IEM_DS3505
ZGKL,2006-11-09 19:00,ZGKL 091900Z AUTO 04002KT 19/18 A3006 RMK T01900180 IEM_DS3505
ZGKL,2006-11-09 20:00,ZGKL 092000Z AUTO 01002KT 18/17 A3006 RMK T01800170 IEM_DS3505
ZGKL,2006-11-09 21:00,ZGKL 092100Z AUTO 34002KT 7SM 21/18 A3006 RMK SLP174 T02090181 57002 IEM_DS3505
ZGKL,2006-11-09 22:00,ZGKL 092200Z AUTO 00000KT 4SM 19/18 A3006 RMK T01900180 IEM_DS3505
ZGKL,2006-11-09 23:00,ZGKL 092300Z AUTO 00000KT 2 1/2SM 18/17 A3009 RMK T01800170 IEM_DS3505
ZGKL,2006-11-10 00:00,ZGKL 100000Z AUTO 16002KT 4SM 21/18 A3012 RMK SLP196 T02130185 52021 IEM_DS3505
ZGKL,2006-11-10 01:00,ZGKL 100100Z AUTO 03002KT 2 1/2SM 22/19 A3012 RMK T02200190 IEM_DS3505
ZGKL,2006-11-10 02:00,ZGKL 100200Z AUTO 07002KT 2 1/2SM 25/19 A3012 RMK T02500190 IEM_DS3505
ZGKL,2006-11-10 03:00,ZGKL 100300Z AUTO 20002KT 6SM 26/19 A3012 RMK SLP197 T02560188 52002 IEM_DS3505
ZGKL,2006-11-10 04:00,ZGKL 100400Z AUTO 20006KT 3SM 27/20 A3009 RMK T02700200 IEM_DS3505
ZGKL,2006-11-10 05:00,ZGKL 100500Z AUTO 19004KT 4SM 28/19 A3006 RMK T02800190 IEM_DS3505
ZGKL,2006-11-10 06:00,ZGKL 100600Z AUTO 14002KT 6SM 28/19 A3003 RMK SLP165 T02800187 57031 IEM_DS3505
ZGKL,2006-11-10 07:00,ZGKL 100700Z AUTO 03002KT 7SM 30/19 A3000 RMK T03000190 IEM_DS3505
ZGKL,2006-11-10 08:00,ZGKL 100800Z AUTO 34002KT 7SM 29/19 A3000 RMK T02900190 IEM_DS3505
ZGKL,2006-11-10 09:00,ZGKL 100900Z AUTO 29002KT 7SM 28/19 A3003 RMK SLP160 T02830187 57005 IEM_DS3505
ZGKL,2006-11-10 10:00,ZGKL 101000Z AUTO 35004KT 5SM 27/20 A3003 RMK T02700200 IEM_DS3505
ZGKL,2006-11-10 11:00,ZGKL 101100Z AUTO 35002KT 5SM 25/20 A3006 RMK T02500200 IEM_DS3505
ZGKL,2006-11-10 12:00,ZGKL 101200Z AUTO 04002KT 7SM 26/19 A3009 RMK SLP184 T02560193 52023 IEM_DS3505
ZGKL,2006-11-10 13:00,ZGKL 101300Z AUTO 01002KT 4SM 24/20 A3009 RMK T02400200 IEM_DS3505
ZGKL,2006-11-10 14:00,ZGKL 101400Z AUTO 29002KT 4SM 24/20 A3009 RMK T02400200 IEM_DS3505
ZGKL,2006-11-10 15:00,ZGKL 101500Z AUTO 02002KT 6SM 24/19 A3012 RMK SLP193 T02390194 52009 IEM_DS3505
ZGKL,2006-11-10 16:00,ZGKL 101600Z AUTO 08002KT 4SM 23/20 A3012 RMK T02300200 IEM_DS3505
ZGKL,2006-11-10 17:00,ZGKL 101700Z AUTO 05002KT 23/20 A3012 RMK T02300200 IEM_DS3505
ZGKL,2006-11-10 18:00,ZGKL 101800Z AUTO 04006KT 6SM 24/18 A3012 RMK SLP196 T02390183 52004 IEM_DS3505
ZGKL,2006-11-10 19:00,ZGKL 101900Z AUTO 33002KT 22/20 A3012 RMK T02200200 IEM_DS3505
ZGKL,2006-11-10 20:00,ZGKL 102000Z AUTO 04006KT 23/18 A3012 RMK T02300180 IEM_DS3505
ZGKL,2006-11-10 21:00,ZGKL 102100Z AUTO 02008KT 6SM 23/14 A3015 RMK SLP201 T02300138 52005 IEM_DS3505
ZGKL,2006-11-10 22:00,ZGKL 102200Z AUTO 03004KT 2 1/2SM 23/16 A3015 RMK T02300160 IEM_DS3505
ZGKL,2006-11-10 23:00,ZGKL 102300Z AUTO 04004KT 2 1/2SM 22/15 A3018 RMK T02200150 IEM_DS3505
ZGKL,2006-11-11 00:00,ZGKL 110000Z AUTO 02006KT 5SM 22/14 A3021 RMK SLP230 T02160135 52027 IEM_DS3505
ZGKL,2006-11-11 01:00,ZGKL 110100Z AUTO 06002KT 2 1/2SM 24/15 A3024 RMK T02400150 IEM_DS3505
ZGKL,2006-11-11 02:00,ZGKL 110200Z AUTO 05010KT 3SM 25/14 A3024 RMK T02500140 IEM_DS3505
ZGKL,2006-11-11 03:00,ZGKL 110300Z AUTO 36010KT 6SM 26/11 A3021 RMK SLP228 T02570107 57001 IEM_DS3505
ZGKL,2006-11-11 04:00,ZGKL 110400Z AUTO 05010KT 4SM 28/10 A3018 RMK T02800100 IEM_DS3505
ZGKL,2006-11-11 05:00,ZGKL 110500Z AUTO 05014KT 6SM 28/07 A3015 RMK T02800070 IEM_DS3505
ZGKL,2006-11-11 06:00,ZGKL 110600Z AUTO 07012KT 9SM 28/06 A3012 RMK SLP196 T02850060 57031 IEM_DS3505
ZGKL,2006-11-11 07:00,ZGKL 110700Z AUTO 06012KT 6SM 29/06 A3009 RMK T02900060 IEM_DS3505
ZGKL,2006-11-11 08:00,ZGKL 110800Z AUTO 06010KT 6SM 28/06 A3009 RMK T02800060 IEM_DS3505
ZGKL,2006-11-11 09:00,ZGKL 110900Z AUTO 04008KT 10SM 27/05 A3009 RMK SLP190 T02680051 57006 IEM_DS3505
ZGKL,2006-11-11 10:00,ZGKL 111000Z AUTO 04006KT 6SM 25/05 A3012 RMK T02500050 IEM_DS3505
ZGKL,2006-11-11 11:00,ZGKL 111100Z AUTO 03006KT 6SM 24/06 A3012 RMK T02400060 IEM_DS3505
ZGKL,2006-11-11 12:00,ZGKL 111200Z AUTO 02004KT 10SM 22/08 A3015 RMK SLP214 T02230077 52021 IEM_DS3505
ZGKL,2006-11-11 13:00,ZGKL 111300Z AUTO 03002KT 6SM 20/09 A3018 RMK T02000090 IEM_DS3505
ZGKL,2006-11-11 14:00,ZGKL 111400Z AUTO 01002KT 6SM 18/10 A3018 RMK T01800100 IEM_DS3505
ZGKL,2006-11-11 15:00,ZGKL 111500Z AUTO 02004KT 10SM 21/07 A3021 RMK SLP222 T02060069 52009 IEM_DS3505
ZGKL,2006-11-11 17:00,ZGKL 111700Z AUTO 03002KT 16/10 A3018 RMK T01600100 IEM_DS3505
ZGKL,2006-11-11 18:00,ZGKL 111800Z AUTO 02004KT 7SM 18/05 A3018 RMK SLP215 T01820054 57007 IEM_DS3505
ZGKL,2006-11-11 19:00,ZGKL 111900Z AUTO 35002KT 12/11 A3015 RMK T01200110 IEM_DS3505
ZGKL,2006-11-11 20:00,ZGKL 112000Z AUTO 00000KT 11/10 A3015 RMK T01100100 IEM_DS3505
ZGKL,2006-11-11 21:00,ZGKL 112100Z AUTO 04004KT 6SM 15/07 A3015 RMK SLP207 T01530071 57009 IEM_DS3505
ZGKL,2006-11-11 22:00,ZGKL 112200Z AUTO 00000KT 2SM 10/09 A3015 RMK T01000090 IEM_DS3505
ZGKL,2006-11-11 23:00,ZGKL 112300Z AUTO 05002KT 4SM 09/08 A3015 RMK T00900080 IEM_DS3505
ZGKL,2006-11-12 00:00,ZGKL 120000Z AUTO 02006KT 7SM 16/07 A3018 RMK SLP218 T01560069 52009 IEM_DS3505
ZGKL,2006-11-12 01:00,ZGKL 120100Z AUTO 25002KT 6SM 16/10 A3018 RMK T01600100 IEM_DS3505
ZGKL,2006-11-12 02:00,ZGKL 120200Z AUTO 05002KT 6SM 20/09 A3018 RMK T02000090 IEM_DS3505
ZGKL,2006-11-12 03:00,ZGKL 120300Z AUTO 29004KT 7SM 23/06 A3015 RMK SLP205 T02310060 57011 IEM_DS3505
ZGKL,2006-11-12 04:00,ZGKL 120400Z AUTO 13002KT 6SM 25/05 A3012 RMK T02500050 IEM_DS3505
ZGKL,2006-11-12 05:00,ZGKL 120500Z AUTO 36004KT 6SM 26/05 A3006 RMK T02600050 IEM_DS3505
ZGKL,2006-11-12 06:00,ZGKL 120600Z AUTO 18004KT 8SM 26/05 A3000 RMK SLP161 T02640048 57043 IEM_DS3505
ZGKL,2006-11-12 07:00,ZGKL 120700Z AUTO 14004KT 6SM 28/03 A3000 RMK T02800030 IEM_DS3505
ZGKL,2006-11-12 08:00,ZGKL 120800Z AUTO 15004KT 6SM 27/04 A2997 RMK T02700040 IEM_DS3505
ZGKL,2006-11-12 09:00,ZGKL 120900Z AUTO 14002KT 10SM 26/05 A2997 RMK SLP150 T02620046 57011 IEM_DS3505
ZGKL,2006-11-12 10:00,ZGKL 121000Z AUTO 11002KT 6SM 22/13 A2997 RMK T02200130 IEM_DS3505
ZGKL,2006-11-12 11:00,ZGKL 121100Z AUTO 00000KT 6SM 18/13 A3000 RMK T01800130 IEM_DS3505
ZGKL,2006-11-12 12:00,ZGKL 121200Z AUTO 02004KT 9SM 20/08 A3000 RMK SLP161 T02050078 52009 IEM_DS3505
ZGKL,2006-11-12 13:00,ZGKL 121300Z AUTO 00000KT 4SM 15/12 A3003 RMK T01500120 IEM_DS3505
ZGKL,2006-11-12 14:00,ZGKL 121400Z AUTO 05002KT 4SM 14/12 A3003 RMK T01400120 IEM_DS3505
ZGKL,2006-11-12 15:00,ZGKL 121500Z AUTO 36002KT 8SM 17/08 A3003 RMK SLP164 T01730084 52004 IEM_DS3505
ZGKL,2006-11-12 16:00,ZGKL 121600Z AUTO 36002KT 4SM 13/11 A3003 RMK T01300110 IEM_DS3505
ZGKL,2006-11-12 17:00,ZGKL 121700Z AUTO 06002KT 12/11 A3000 RMK T01200110 IEM_DS3505
ZGKL,2006-11-12 18:00,ZGKL 121800Z AUTO 02002KT 8SM 16/09 A3000 RMK SLP159 T01600092 57004 IEM_DS3505
ZGKL,2006-11-12 19:00,ZGKL 121900Z AUTO 00000KT 12/11 A3000 RMK T01200110 IEM_DS3505
ZGKL,2006-11-12 20:00,ZGKL 122000Z AUTO 08002KT 12/11 A3000 RMK T01200110 IEM_DS3505
ZGKL,2006-11-12 21:00,ZGKL 122100Z AUTO 08002KT 8SM 15/10 A3000 RMK SLP157 T01460096 57003 IEM_DS3505
ZGKL,2006-11-12 22:00,ZGKL 122200Z AUTO 17002KT 4SM 12/11 A3000 RMK T01200110 IEM_DS3505
ZGKL,2006-11-12 23:00,ZGKL 122300Z AUTO 05002KT 2 1/2SM 12/11 A3003 RMK T01200110 IEM_DS3505
ZGKL,2006-11-13 00:00,ZGKL 130000Z AUTO 07002KT 7SM 16/12 A3006 RMK SLP177 T01550115 52018 IEM_DS3505
ZGKL,2006-11-13 01:00,ZGKL 130100Z AUTO 07002KT 3SM 16/13 A3006 RMK T01600130 IEM_DS3505
ZGKL,2006-11-13 02:00,ZGKL 130200Z AUTO 02002KT 3SM 17/12 A3009 RMK T01700120 IEM_DS3505
ZGKL,2006-11-13 03:00,ZGKL 130300Z AUTO 07002KT 4SM 20/11 A3006 RMK SLP179 T02040108 52003 IEM_DS3505
ZGKL,2006-11-13 04:00,ZGKL 130400Z AUTO 00000KT 4SM 19/12 A3003 RMK T01900120 IEM_DS3505
ZGKL,2006-11-13 05:00,ZGKL 130500Z AUTO 04002KT 4SM 20/12 A3000 RMK T02000120 IEM_DS3505
ZGKL,2006-11-13 06:00,ZGKL 130600Z AUTO 27002KT 4SM 23/10 A2997 RMK SLP148 T02270105 57030 IEM_DS3505
ZGKL,2006-11-13 07:00,ZGKL 130700Z AUTO 35002KT 4SM 21/12 A2997 RMK T02100120 IEM_DS3505
ZGKL,2006-11-13 08:00,ZGKL 130800Z AUTO 01002KT 4SM 21/12 A2994 RMK T02100120 IEM_DS3505
ZGKL,2006-11-13 09:00,ZGKL 130900Z AUTO 05002KT 4SM 22/12 A2994 RMK SLP143 T02220116 57006 IEM_DS3505
ZGKL,2006-11-13 10:00,ZGKL 131000Z AUTO 08002KT 4SM 20/13 A2997 RMK T02000130 IEM_DS3505
ZGKL,2006-11-13 11:00,ZGKL 131100Z AUTO 00000KT 4SM 19/14 A2997 RMK T01900140 IEM_DS3505
ZGKL,2006-11-13 12:00,ZGKL 131200Z AUTO 34002KT 4SM 20/13 A3000 RMK SLP162 T01960126 52018 IEM_DS3505
ZGKL,2006-11-13 13:00,ZGKL 131300Z AUTO 18002KT 3SM 17/14 A3003 RMK T01700140 IEM_DS3505
ZGKL,2006-11-13 14:00,ZGKL 131400Z AUTO 00000KT 3SM 17/14 A3006 RMK T01700140 IEM_DS3505
ZGKL,2006-11-13 15:00,ZGKL 131500Z AUTO 00000KT 4SM 20/14 A3006 RMK SLP179 T01990140 52019 IEM_DS3505
ZGKL,2006-11-13 16:00,ZGKL 131600Z AUTO 06002KT 3SM 18/15 A3006 RMK T01800150 IEM_DS3505
ZGKL,2006-11-13 17:00,ZGKL 131700Z AUTO 18002KT 18/15 A3006 RMK T01800150 IEM_DS3505
ZGKL,2006-11-13 18:00,ZGKL 131800Z AUTO 20002KT 4SM 19/15 A3006 RMK SLP179 T01880147 54000 IEM_DS3505
ZGKL,2006-11-13 19:00,ZGKL 131900Z AUTO 06002KT 18/15 A3006 RMK T01800150 IEM_DS3505
ZGKL,2006-11-13 20:00,ZGKL 132000Z AUTO 07002KT 17/15 A3006 RMK T01700150 IEM_DS3505
ZGKL,2006-11-13 21:00,ZGKL 132100Z AUTO 27002KT 4SM 18/14 A3006 RMK SLP179 T01800145 54000 IEM_DS3505
ZGKL,2006-11-13 22:00,ZGKL 132200Z AUTO 26002KT 3SM 18/15 A3009 RMK T01800150 IEM_DS3505
ZGKL,2006-11-13 23:00,ZGKL 132300Z AUTO 04002KT 2 1/2SM 17/15 A3012 RMK T01700150 IEM_DS3505
ZGKL,2006-11-14 00:00,ZGKL 140000Z AUTO 02006KT 4SM 20/12 A3015 RMK SLP207 T02040124 52027 IEM_DS3505
ZGKL,2006-11-14 01:00,ZGKL 140100Z AUTO 35002KT 1 1/2SM 20/16 A3018 RMK T02000160 IEM_DS3505
ZGKL,2006-11-14 02:00,ZGKL 140200Z AUTO 06008KT 1 1/2SM 21/12 A3021 RMK T02100120 IEM_DS3505
ZGKL,2006-11-14 03:00,ZGKL 140300Z AUTO 02012KT 4SM 20/11 A3021 RMK SLP231 T01970110 52023 IEM_DS3505
ZGKL,2006-11-14 04:00,ZGKL 140400Z AUTO 06012KT 2SM 21/11 A3018 RMK T02100110 IEM_DS3505
ZGKL,2006-11-14 05:00,ZGKL 140500Z AUTO 05010KT 2SM 21/11 A3018 RMK T02100110 IEM_DS3505
ZGKL,2006-11-14 06:00,ZGKL 140600Z AUTO 36010KT 5SM 20/10 A3015 RMK SLP216 T01970099 57015 IEM_DS3505
ZGKL,2006-11-14 07:00,ZGKL 140700Z AUTO 03008KT 3SM 20/10 A3015 RMK T02000100 IEM_DS3505
ZGKL,2006-11-14 08:00,ZGKL 140800Z AUTO 03012KT 3SM 20/09 A3015 RMK T02000090 IEM_DS3505
ZGKL,2006-11-14 09:00,ZGKL 140900Z AUTO 02010KT 5SM 19/07 A3015 RMK SLP211 T01880069 57005 IEM_DS3505
ZGKL,2006-11-14 10:00,ZGKL 141000Z AUTO 07004KT 2 1/2SM 18/10 A3015 RMK T01800100 IEM_DS3505
ZGKL,2006-11-14 11:00,ZGKL 141100Z AUTO 07004KT 2 1/2SM 17/09 A3018 RMK T01700090 IEM_DS3505
ZGKL,2006-11-14 12:00,ZGKL 141200Z AUTO 02008KT 4SM 17/06 A3021 RMK SLP230 T01690061 52019 IEM_DS3505
ZGKL,2006-11-14 13:00,ZGKL 141300Z AUTO 03006KT 2SM 16/08 A3021 RMK T01600080 IEM_DS3505
ZGKL,2006-11-14 14:00,ZGKL 141400Z AUTO 02004KT 2SM 16/07 A3024 RMK T01600070 IEM_DS3505
ZGKL,2006-11-14 15:00,ZGKL 141500Z AUTO 02008KT 4SM 16/05 A3024 RMK SLP238 T01560052 52007 IEM_DS3505
ZGKL,2006-11-14 16:00,ZGKL 141600Z AUTO 00000KT 12/09 A3021 RMK T01200090 IEM_DS3505
ZGKL,2006-11-14 17:00,ZGKL 141700Z AUTO 00000KT 12/10 A3021 RMK T01200100 IEM_DS3505
ZGKL,2006-11-14 18:00,ZGKL 141800Z AUTO 02006KT 4SM 15/06 A3021 RMK SLP230 T01530061 57008 IEM_DS3505
ZGKL,2006-11-14 19:00,ZGKL 141900Z AUTO 00000KT 14/10 A3018 RMK T01400100 IEM_DS3505
ZGKL,2006-11-14 20:00,ZGKL 142000Z AUTO 00000KT 14/11 A3018 RMK T01400110 IEM_DS3505
ZGKL,2006-11-14 21:00,ZGKL 142100Z AUTO 02006KT 5SM 14/07 A3018 RMK SLP226 T01440067 57005 IEM_DS3505
ZGKL,2006-11-14 22:00,ZGKL 142200Z AUTO 35002KT 2SM 14/08 A3018 RMK T01400080 IEM_DS3505
ZGKL,2006-11-14 23:00,ZGKL 142300Z AUTO 04002KT 2SM 14/10 A3021 RMK T01400100 IEM_DS3505
ZGKL,2006-11-15 00:00,ZGKL 150000Z AUTO 36002KT 4SM 15/07 A3021 RMK SLP232 T01480074 52006 IEM_DS3505
ZGKL,2006-11-15 01:00,ZGKL 150100Z AUTO 06002KT 2SM 16/08 A3021 RMK T01600080 IEM_DS3505
ZGKL,2006-11-15 02:00,ZGKL 150200Z AUTO 08004KT 2 1/2SM 17/08 A3024 RMK T01700080 IEM_DS3505
ZGKL,2006-11-15 03:00,ZGKL 150300Z AUTO 34004KT 3SM 18/08 A3021 RMK SLP231 T01830080 54000 IEM_DS3505
ZGKL,2006-11-15 04:00,ZGKL 150400Z AUTO 06004KT 2 1/2SM 20/08 A3015 RMK T02000080 IEM_DS3505
ZGKL,2006-11-15 05:00,ZGKL 150500Z AUTO 09004KT 3SM 21/09 A3009 RMK T02100090 IEM_DS3505
ZGKL,2006-11-15 06:00,ZGKL 150600Z AUTO 32002KT 4SM 22/09 A3006 RMK SLP177 T02170093 57052 IEM_DS3505
ZGKL,2006-11-15 07:00,ZGKL 150700Z AUTO 09004KT 3SM 22/09 A3003 RMK T02200090 IEM_DS3505
ZGKL,2006-11-15 08:00,ZGKL 150800Z AUTO 07002KT 3SM 23/10 A3000 RMK T02300100 IEM_DS3505
ZGKL,2006-11-15 09:00,ZGKL 150900Z AUTO 07002KT 4SM 22/10 A3000 RMK SLP161 T02150100 57016 IEM_DS3505
ZGKL,2006-11-15 10:00,ZGKL 151000Z AUTO 31002KT 2SM 21/11 A3000 RMK T02100110 IEM_DS3505
ZGKL,2006-11-15 11:00,ZGKL 151100Z AUTO 00000KT 1 1/2SM 18/13 A3000 RMK T01800130 IEM_DS3505
ZGKL,2006-11-15 12:00,ZGKL 151200Z AUTO 02004KT 3SM 19/11 A3003 RMK SLP173 T01890107 52011 IEM_DS3505
ZGKL,2006-11-15 13:00,ZGKL 151300Z AUTO 00000KT 1 1/2SM 18/14 A3006 RMK T01800140 IEM_DS3505
ZGKL,2006-11-15 14:00,ZGKL 151400Z AUTO 06002KT 1 1/2SM 18/14 A3006 RMK T01800140 IEM_DS3505
ZGKL,2006-11-15 15:00,ZGKL 151500Z AUTO 02002KT 3SM 19/11 A3006 RMK SLP181 T01910109 52009 IEM_DS3505
ZGKL,2006-11-15 16:00,ZGKL 151600Z AUTO 02002KT 1 1/4SM 18/13 A3006 RMK T01800130 IEM_DS3505
ZGKL,2006-11-15 17:00,ZGKL 151700Z AUTO 34002KT 1 1/4SM 19/13 A3006 RMK T01900130 IEM_DS3505
ZGKL,2006-11-15 18:00,ZGKL 151800Z AUTO 36004KT 3SM 19/11 A3003 RMK SLP170 T01860112 57010 IEM_DS3505
ZGKL,2006-11-15 19:00,ZGKL 151900Z AUTO 01002KT 1 1/4SM 19/13 A3003 RMK T01900130 IEM_DS3505
ZGKL,2006-11-15 20:00,ZGKL 152000Z AUTO 04002KT 1 1/4SM 18/14 A3003 RMK T01800140 IEM_DS3505
ZGKL,2006-11-15 21:00,ZGKL 152100Z AUTO 02004KT 3SM 17/12 A3003 RMK SLP170 T01720117 57001 IEM_DS3505
ZGKL,2006-11-15 22:00,ZGKL 152200Z AUTO 00000KT 1SM 17/14 A3003 RMK T01700140 IEM_DS3505
ZGKL,2006-11-15 23:00,ZGKL 152300Z AUTO 34004KT 1SM 18/13 A3006 RMK T01800130 IEM_DS3505
ZGKL,2006-11-16 00:00,ZGKL 160000Z AUTO 02002KT 2 1/2SM 18/11 A3006 RMK 60000 70000 SLP185 T01760114 52014 IEM_DS3505
ZGKL,2006-11-16 01:00,ZGKL 160100Z AUTO 05004KT 2SM 18/13 A3009 RMK T01800130 IEM_DS3505
ZGKL,2006-11-16 02:00,ZGKL 160200Z AUTO 04002KT 2SM 19/13 A3009 RMK T01900130 IEM_DS3505
ZGKL,2006-11-16 03:00,ZGKL 160300Z AUTO 02002KT 2 1/2SM 19/12 A3009 RMK SLP187 T01910117 52003 IEM_DS3505
ZGKL,2006-11-16 04:00,ZGKL 160400Z AUTO 09002KT 2SM 20/12 A3006 RMK T02000120 IEM_DS3505
ZGKL,2006-11-16 05:00,ZGKL 160500Z AUTO 03002KT 2 1/2SM 20/13 A3000 RMK T02000130 IEM_DS3505
ZGKL,2006-11-16 06:00,ZGKL 160600Z AUTO 02006KT 2 1/2SM 20/12 A3000 RMK SLP156 T01960119 57031 IEM_DS3505
ZGKL,2006-11-16 07:00,ZGKL 160700Z AUTO 02002KT 2SM 20/14 A2997 RMK T02000140 IEM_DS3505
ZGKL,2006-11-16 08:00,ZGKL 160800Z AUTO 04004KT 2SM 20/13 A2997 RMK T02000130 IEM_DS3505
ZGKL,2006-11-16 09:00,ZGKL 160900Z AUTO 04006KT 2 1/2SM 18/12 A3000 RMK SLP159 T01840117 52003 IEM_DS3505
ZGKL,2006-11-16 10:00,ZGKL 161000Z AUTO 06004KT 1 1/2SM 19/12 A3000 RMK T01900120 IEM_DS3505
ZGKL,2006-11-16 11:00,ZGKL 161100Z AUTO 05002KT 1 1/2SM 18/13 A3003 RMK T01800130 IEM_DS3505
ZGKL,2006-11-16 12:00,ZGKL 161200Z AUTO 02006KT 2 1/2SM 18/12 A3006 RMK SLP182 T01750118 52022 IEM_DS3505
ZGKL,2006-11-16 13:00,ZGKL 161300Z AUTO 07002KT 1 1/4SM 18/13 A3006 RMK T01800130 IEM_DS3505
ZGKL,2006-11-16 14:00,ZGKL 161400Z AUTO 00000KT 1 1/4SM 18/13 A3006 RMK T01800130 IEM_DS3505
ZGKL,2006-11-16 15:00,ZGKL 161500Z AUTO 02006KT 2 1/2SM 17/12 A3006 RMK SLP187 T01720117 52005 IEM_DS3505
ZGKL,2006-11-16 16:00,ZGKL 161600Z AUTO 07004KT 17/12 A3006 RMK T01700120 IEM_DS3505
ZGKL,2006-11-16 17:00,ZGKL 161700Z AUTO 04002KT 17/12 A3003 RMK T01700120 IEM_DS3505
ZGKL,2006-11-16 18:00,ZGKL 161800Z AUTO 04006KT 2 1/2SM 16/12 A3003 RMK 60000 SLP168 T01570123 57019 IEM_DS3505
ZGKL,2006-11-16 19:00,ZGKL 161900Z AUTO 08004KT 16/13 A3000 RMK T01600130 IEM_DS3505
ZGKL,2006-11-16 20:00,ZGKL 162000Z AUTO 11004KT 15/13 A3000 RMK T01500130 IEM_DS3505
ZGKL,2006-11-16 21:00,ZGKL 162100Z AUTO 02002KT 1 1/4SM 14/13 A3000 RMK 70049 SLP168 T01410133 57001 IEM_DS3505
ZGKL,2006-11-16 22:00,ZGKL 162200Z AUTO 07004KT 1SM 15/13 A3003 RMK T01500130 IEM_DS3505
ZGKL,2006-11-16 23:00,ZGKL 162300Z AUTO 04002KT 1SM 15/14 A3003 RMK T01500140 IEM_DS3505
ZGKL,2006-11-17 00:00,ZGKL 170000Z AUTO 07006KT 2SM 14/13 A3006 RMK 60051 70052 SLP179 T01450132 52011 IEM_DS3505
ZGKL,2006-11-17 01:00,ZGKL 170100Z AUTO 05002KT 1SM 15/14 A3009 RMK T01500140 IEM_DS3505
ZGKL,2006-11-17 02:00,ZGKL 170200Z AUTO 07002KT 1SM 15/14 A3009 RMK T01500140 IEM_DS3505
ZGKL,2006-11-17 03:00,ZGKL 170300Z AUTO 04002KT 1 1/4SM 15/14 A3009 RMK SLP191 T01510138 52012 IEM_DS3505
ZGKL,2006-11-17 04:00,ZGKL 170400Z AUTO 06004KT 1SM 16/14 A3006 RMK T01600140 IEM_DS3505
ZGKL,2006-11-17 05:00,ZGKL 170500Z AUTO 07002KT 1 1/2SM 16/14 A3003 RMK T01600140 IEM_DS3505
ZGKL,2006-11-17 06:00,ZGKL 170600Z AUTO 02002KT 2SM 16/14 A3000 RMK 60002 SLP160 T01620137 57031 IEM_DS3505
ZGKL,2006-11-17 07:00,ZGKL 170700Z AUTO 06004KT 2SM 16/14 A2997 RMK T01600140 IEM_DS3505
ZGKL,2006-11-17 08:00,ZGKL 170800Z AUTO 06002KT 2SM 16/14 A2997 RMK T01600140 IEM_DS3505
ZGKL,2006-11-17 09:00,ZGKL 170900Z AUTO 02004KT 2 1/2SM 16/14 A2997 RMK SLP154 T01580136 57006 IEM_DS3505
ZGKL,2006-11-17 10:00,ZGKL 171000Z AUTO 10002KT 2SM 16/14 A3000 RMK T01600140 IEM_DS3505
ZGKL,2006-11-17 11:00,ZGKL 171100Z AUTO 08002KT 2SM 16/14 A3000 RMK T01600140 IEM_DS3505
ZGKL,2006-11-17 12:00,ZGKL 171200Z AUTO 02004KT 2SM 16/13 A3000 RMK 60000 SLP166 T01550132 52012 IEM_DS3505
ZGKL,2006-11-17 13:00,ZGKL 171300Z AUTO 06004KT 2SM 15/14 A3003 RMK T01500140 IEM_DS3505
ZGKL,2006-11-17 14:00,ZGKL 171400Z AUTO 03002KT 1 1/2SM 15/14 A3006 RMK T01500140 IEM_DS3505
ZGKL,2006-11-17 15:00,ZGKL 171500Z AUTO 36004KT 2SM 14/13 A3003 RMK SLP183 T01420131 52016 IEM_DS3505
ZGKL,2006-11-17 16:00,ZGKL 171600Z AUTO 06004KT 1 1/4SM 14/13 A3003 RMK T01400130 IEM_DS3505
ZGKL,2006-11-17 17:00,ZGKL 171700Z AUTO 08004KT 2SM 14/13 A3003 RMK T01400130 IEM_DS3505
ZGKL,2006-11-17 18:00,ZGKL 171800Z AUTO 36006KT 2SM 14/12 A3000 RMK 60020 SLP164 T01380125 57018 IEM_DS3505
ZGKL,2006-11-17 19:00,ZGKL 171900Z AUTO 01004KT 14/13 A3000 RMK T01400130 IEM_DS3505
ZGKL,2006-11-17 20:00,ZGKL 172000Z AUTO 00000KT 14/13 A3000 RMK T01400130 IEM_DS3505
ZGKL,2006-11-17 21:00,ZGKL 172100Z AUTO 02006KT 2SM 14/12 A3000 RMK 70025 SLP169 T01350117 52004 IEM_DS3505
ZGKL,2006-11-17 22:00,ZGKL 172200Z AUTO 20002KT 2 1/2SM 13/13 A3003 RMK T01300130 IEM_DS3505
ZGKL,2006-11-17 23:00,ZGKL 172300Z AUTO 03002KT 2 1/2SM 13/13 A3006 RMK T01300130 IEM_DS3505
ZGKL,2006-11-18 00:00,ZGKL 180000Z AUTO 02006KT 7SM 13/12 A3006 RMK 60016 70035 SLP186 T01330117 52017 IEM_DS3505
ZGKL,2006-11-18 01:00,ZGKL 180100Z AUTO 10002KT 4SM 14/13 A3009 RMK T01400130 IEM_DS3505
ZGKL,2006-11-18 02:00,ZGKL 180200Z AUTO 02002KT 4SM 15/13 A3012 RMK T01500130 IEM_DS3505
ZGKL,2006-11-18 03:00,ZGKL 180300Z AUTO 36008KT 9SM 15/11 A3009 RMK SLP193 T01460114 52007 IEM_DS3505
ZGKL,2006-11-18 04:00,ZGKL 180400Z AUTO 06004KT 4SM 16/13 A3009 RMK T01600130 IEM_DS3505
ZGKL,2006-11-18 05:00,ZGKL 180500Z AUTO 06004KT 4SM 16/13 A3006 RMK T01600130 IEM_DS3505
ZGKL,2006-11-18 06:00,ZGKL 180600Z AUTO 36008KT 9SM 16/11 A3003 RMK 60000 SLP174 T01590113 57019 IEM_DS3505
ZGKL,2006-11-18 07:00,ZGKL 180700Z AUTO 06004KT 4SM 17/13 A3000 RMK T01700130 IEM_DS3505
ZGKL,2006-11-18 08:00,ZGKL 180800Z AUTO 08004KT 4SM 16/12 A3000 RMK T01600120 IEM_DS3505
ZGKL,2006-11-18 09:00,ZGKL 180900Z AUTO 02008KT 9SM 15/11 A3003 RMK SLP172 T01490107 57002 IEM_DS3505
ZGKL,2006-11-18 10:00,ZGKL 181000Z AUTO 08004KT 4SM 15/11 A3003 RMK T01500110 IEM_DS3505
ZGKL,2006-11-18 11:00,ZGKL 181100Z AUTO 06004KT 4SM 15/11 A3006 RMK T01500110 IEM_DS3505
ZGKL,2006-11-18 12:00,ZGKL 181200Z AUTO 02008KT 9SM 14/10 A3006 RMK SLP190 T01370103 52017 IEM_DS3505
ZGKL,2006-11-18 13:00,ZGKL 181300Z AUTO 05004KT 4SM 14/11 A3009 RMK T01400110 IEM_DS3505
ZGKL,2006-11-18 14:00,ZGKL 181400Z AUTO 05004KT 4SM 14/11 A3009 RMK T01400110 IEM_DS3505
ZGKL,2006-11-18 15:00,ZGKL 181500Z AUTO 02006KT 8SM 14/10 A3009 RMK SLP199 T01350101 52009 IEM_DS3505
ZGKL,2006-11-18 16:00,ZGKL 181600Z AUTO 04004KT 14/11 A3012 RMK T01400110 IEM_DS3505
ZGKL,2006-11-18 17:00,ZGKL 181700Z AUTO 03002KT 14/10 A3009 RMK T01400100 IEM_DS3505
ZGKL,2006-11-18 18:00,ZGKL 181800Z AUTO 36006KT 8SM 13/10 A3009 RMK SLP200 T01310099 52002 IEM_DS3505
ZGKL,2006-11-18 19:00,ZGKL 181900Z AUTO 06004KT 14/11 A3009 RMK T01400110 IEM_DS3505
ZGKL,2006-11-18 20:00,ZGKL 182000Z AUTO 36002KT 14/10 A3009 RMK T01400100 IEM_DS3505
ZGKL,2006-11-18 21:00,ZGKL 182100Z AUTO 36008KT 7SM 13/10 A3009 RMK 70013 SLP195 T01310095 57006 IEM_DS3505
ZGKL,2006-11-18 22:00,ZGKL 182200Z AUTO 13002KT 4SM 13/11 A3009 RMK T01300110 IEM_DS3505
ZGKL,2006-11-18 23:00,ZGKL 182300Z AUTO 10002KT 4SM 13/11 A3012 RMK T01300110 IEM_DS3505
ZGKL,2006-11-19 00:00,ZGKL 190000Z AUTO 02008KT 7SM 13/10 A3015 RMK 70000 SLP211 T01340095 52016 IEM_DS3505
ZGKL,2006-11-19 01:00,ZGKL 190100Z AUTO 04004KT 4SM 15/11 A3015 RMK T01500110 IEM_DS3505
ZGKL,2006-11-19 02:00,ZGKL 190200Z AUTO 05004KT 4SM 16/11 A3015 RMK T01600110 IEM_DS3505
ZGKL,2006-11-19 03:00,ZGKL 190300Z AUTO 02012KT 8SM 16/10 A3015 RMK SLP215 T01570098 52004 IEM_DS3505
ZGKL,2006-11-19 04:00,ZGKL 190400Z AUTO 07006KT 5SM 17/11 A3015 RMK T01700110 IEM_DS3505
ZGKL,2006-11-19 05:00,ZGKL 190500Z AUTO 07008KT 5SM 18/10 A3009 RMK T01800100 IEM_DS3505
ZGKL,2006-11-19 06:00,ZGKL 190600Z AUTO 02012KT 7SM 16/10 A3009 RMK SLP188 T01620098 57026 IEM_DS3505
ZGKL,2006-11-19 07:00,ZGKL 190700Z AUTO 08006KT 4SM 17/10 A3006 RMK T01700100 IEM_DS3505
ZGKL,2006-11-19 08:00,ZGKL 190800Z AUTO 08010KT 4SM 16/10 A3006 RMK T01600100 IEM_DS3505
ZGKL,2006-11-19 09:00,ZGKL 190900Z AUTO 04010KT 2 1/2SM 14/12 A3012 RMK SLP180 T01360115 57009 IEM_DS3505
ZGKL,2006-11-19 10:00,ZGKL 191000Z AUTO 34002KT 1 1/4SM 13/12 A3009 RMK T01300120 IEM_DS3505
ZGKL,2006-11-19 11:00,ZGKL 191100Z AUTO 04006KT 2SM 13/12 A3009 RMK T01300120 IEM_DS3505
ZGKL,2006-11-19 12:00,ZGKL 191200Z AUTO 02008KT 2SM 13/11 A3012 RMK 60035 SLP202 T01290110 52022 IEM_DS3505
ZGKL,2006-11-19 13:00,ZGKL 191300Z AUTO 11004KT 1 1/2SM 13/12 A3012 RMK T01300120 IEM_DS3505
ZGKL,2006-11-19 14:00,ZGKL 191400Z AUTO 08004KT 1 1/4SM 13/12 A3012 RMK T01300120 IEM_DS3505
ZGKL,2006-11-19 15:00,ZGKL 191500Z AUTO 04002KT 2SM 12/11 A3012 RMK SLP204 T01200114 52002 IEM_DS3505
ZGKL,2006-11-19 16:00,ZGKL 191600Z AUTO 01004KT 1 1/4SM 12/12 A3009 RMK T01200120 IEM_DS3505
ZGKL,2006-11-19 17:00,ZGKL 191700Z AUTO 10002KT 1 1/4SM 12/12 A3009 RMK T01200120 IEM_DS3505
ZGKL,2006-11-19 18:00,ZGKL 191800Z AUTO 34004KT 2SM 12/11 A3009 RMK 60067 SLP191 T01190111 57013 IEM_DS3505
ZGKL,2006-11-19 19:00,ZGKL 191900Z AUTO 29004KT 1SM 12/12 A3009 RMK T01200120 IEM_DS3505
ZGKL,2006-11-19 20:00,ZGKL 192000Z AUTO 07002KT 12/12 A3006 RMK T01200120 IEM_DS3505
ZGKL,2006-11-19 21:00,ZGKL 192100Z AUTO 02004KT 2SM 12/11 A3003 RMK 70152 SLP177 T01180110 57014 IEM_DS3505
ZGKL,2006-11-19 22:00,ZGKL 192200Z AUTO 01002KT 2SM 12/12 A3006 RMK T01200120 IEM_DS3505
ZGKL,2006-11-19 23:00,ZGKL 192300Z AUTO 00000KT 2 1/2SM 12/12 A3009 RMK T01200120 IEM_DS3505
ZGKL,2006-11-20 00:00,ZGKL 200000Z AUTO 04006KT 8SM 12/11 A3009 RMK 60083 70186 SLP195 T01190110 52017 IEM_DS3505
ZGKL,2006-11-20 01:00,ZGKL 200100Z AUTO 07002KT 2SM 12/12 A3009 RMK T01200120 IEM_DS3505
ZGKL,2006-11-20 02:00,ZGKL 200200Z AUTO 08002KT 2 1/2SM 13/12 A3012 RMK T01300120 IEM_DS3505
ZGKL,2006-11-20 03:00,ZGKL 200300Z AUTO 14002KT 6SM 14/11 A3009 RMK SLP202 T01370110 52007 IEM_DS3505
ZGKL,2006-11-20 04:00,ZGKL 200400Z AUTO 06002KT 3SM 14/12 A3009 RMK T01400120 IEM_DS3505
ZGKL,2006-11-20 05:00,ZGKL 200500Z AUTO 05002KT 4SM 14/12 A3003 RMK T01400120 IEM_DS3505
ZGKL,2006-11-20 06:00,ZGKL 200600Z AUTO 36006KT 7SM 15/11 A3000 RMK 60000 SLP168 T01490111 57033 IEM_DS3505
ZGKL,2006-11-20 07:00,ZGKL 200700Z AUTO 02002KT 4SM 15/12 A3000 RMK T01500120 IEM_DS3505
ZGKL,2006-11-20 08:00,ZGKL 200800Z AUTO 07002KT 4SM 15/12 A3000 RMK T01500120 IEM_DS3505
ZGKL,2006-11-20 09:00,ZGKL 200900Z AUTO 02004KT 8SM 14/12 A3000 RMK SLP167 T01450117 57001 IEM_DS3505
ZGKL,2006-11-20 10:00,ZGKL 201000Z AUTO 05004KT 4SM 15/12 A3000 RMK T01500120 IEM_DS3505
ZGKL,2006-11-20 11:00,ZGKL 201100Z AUTO 04002KT 3SM 15/12 A3003 RMK T01500120 IEM_DS3505
ZGKL,2006-11-20 12:00,ZGKL 201200Z AUTO 02004KT 9SM 14/11 A3003 RMK 60000 SLP179 T01370114 52012 IEM_DS3505
ZGKL,2006-11-20 13:00,ZGKL 201300Z AUTO 04002KT 2 1/2SM 14/13 A3006 RMK T01400130 IEM_DS3505
ZGKL,2006-11-20 14:00,ZGKL 201400Z AUTO 07004KT 2 1/2SM 14/12 A3003 RMK T01400120 IEM_DS3505
ZGKL,2006-11-20 15:00,ZGKL 201500Z AUTO 36004KT 9SM 13/11 A3006 RMK SLP180 T01330114 52001 IEM_DS3505
ZGKL,2006-11-20 16:00,ZGKL 201600Z AUTO 05006KT 2SM 14/12 A3003 RMK T01400120 IEM_DS3505
ZGKL,2006-11-20 17:00,ZGKL 201700Z AUTO 04004KT 1 1/4SM 13/12 A3000 RMK T01300120 IEM_DS3505
ZGKL,2006-11-20 18:00,ZGKL 201800Z AUTO 02006KT 7SM 12/12 A2997 RMK 60020 SLP160 T01230115 57019 IEM_DS3505
ZGKL,2006-11-20 19:00,ZGKL 201900Z AUTO 31004KT 13/12 A3003 RMK T01300120 IEM_DS3505
ZGKL,2006-11-20 20:00,ZGKL 202000Z AUTO 14004KT 13/12 A3000 RMK T01300120 IEM_DS3505
ZGKL,2006-11-20 21:00,ZGKL 202100Z AUTO 32004KT 7SM 12/12 A2994 RMK 70122 SLP152 T01250123 57008 IEM_DS3505
ZGKL,2006-11-20 22:00,ZGKL 202200Z AUTO 02004KT 1 1/2SM 13/12 A2997 RMK T01300120 IEM_DS3505
ZGKL,2006-11-20 23:00,ZGKL 202300Z AUTO 22002KT 1 1/4SM 13/12 A2997 RMK T01300120 IEM_DS3505
ZGKL,2006-11-21 00:00,ZGKL 210000Z AUTO 25002KT 7SM 13/12 A2997 RMK 60079 70096 SLP162 T01290120 52009 IEM_DS3505
ZGKL,2006-11-21 01:00,ZGKL 210100Z AUTO 19002KT 3SM 13/13 A3000 RMK T01300130 IEM_DS3505
ZGKL,2006-11-21 02:00,ZGKL 210200Z AUTO 05002KT 3SM 13/13 A3000 RMK T01300130 IEM_DS3505
ZGKL,2006-11-21 03:00,ZGKL 210300Z AUTO 04004KT 5SM 13/12 A3000 RMK SLP167 T01290121 52005 IEM_DS3505
ZGKL,2006-11-21 04:00,ZGKL 210400Z AUTO 11002KT 2 1/2SM 14/13 A2997 RMK T01400130 IEM_DS3505
ZGKL,2006-11-21 05:00,ZGKL 210500Z AUTO 08002KT 2 1/2SM 14/13 A2994 RMK T01400130 IEM_DS3505
ZGKL,2006-11-21 06:00,ZGKL 210600Z AUTO 02006KT 5SM 13/12 A2991 RMK 60035 SLP132 T01330122 57034 IEM_DS3505
ZGKL,2006-11-21 07:00,ZGKL 210700Z AUTO 18002KT 4SM 14/13 A2991 RMK T01400130 IEM_DS3505
ZGKL,2006-11-21 08:00,ZGKL 210800Z AUTO 09002KT 4SM 14/13 A2991 RMK T01400130 IEM_DS3505
ZGKL,2006-11-21 09:00,ZGKL 210900Z AUTO 02002KT 6SM 13/13 A2991 RMK SLP137 T01340126 52005 IEM_DS3505
ZGKL,2006-11-21 10:00,ZGKL 211000Z AUTO 34004KT 3SM 14/13 A2991 RMK T01400130 IEM_DS3505
ZGKL,2006-11-21 11:00,ZGKL 211100Z AUTO 31002KT 3SM 14/13 A2991 RMK T01400130 IEM_DS3505
ZGKL,2006-11-21 12:00,ZGKL 211200Z AUTO 36006KT 6SM 14/12 A2994 RMK 60020 SLP142 T01380118 52005 IEM_DS3505
ZGKL,2006-11-21 13:00,ZGKL 211300Z AUTO 16002KT 3SM 14/13 A2994 RMK T01400130 IEM_DS3505
ZGKL,2006-11-21 14:00,ZGKL 211400Z AUTO 00000KT 3SM 14/13 A2997 RMK T01400130 IEM_DS3505
ZGKL,2006-11-21 15:00,ZGKL 211500Z AUTO 04002KT 6SM 14/12 A2997 RMK SLP155 T01350121 52013 IEM_DS3505
ZGKL,2006-11-21 16:00,ZGKL 211600Z AUTO 01002KT 3SM 14/13 A2997 RMK T01400130 IEM_DS3505
ZGKL,2006-11-21 17:00,ZGKL 211700Z AUTO 36002KT 3SM 14/13 A2997 RMK T01400130 IEM_DS3505
ZGKL,2006-11-21 18:00,ZGKL 211800Z AUTO 02004KT 6SM 14/12 A2997 RMK SLP150 T01370118 57005 IEM_DS3505
ZGKL,2006-11-21 19:00,ZGKL 211900Z AUTO 00000KT 14/13 A2994 RMK T01400130 IEM_DS3505
ZGKL,2006-11-21 20:00,ZGKL 212000Z AUTO 00000KT 14/13 A2994 RMK T01400130 IEM_DS3505
ZGKL,2006-11-21 21:00,ZGKL 212100Z AUTO 04002KT 6SM 14/12 A2994 RMK 70063 SLP145 T01350122 57005 IEM_DS3505
ZGKL,2006-11-21 22:00,ZGKL 212200Z AUTO 35002KT 3SM 14/13 A2994 RMK T01400130 IEM_DS3505
ZGKL,2006-11-21 23:00,ZGKL 212300Z AUTO 00000KT 3SM 14/13 A2994 RMK T01400130 IEM_DS3505
ZGKL,2006-11-22 00:00,ZGKL 220000Z AUTO 36004KT 6SM 14/12 A2997 RMK 70054 SLP159 T01380118 52014 IEM_DS3505
ZGKL,2006-11-22 01:00,ZGKL 220100Z AUTO 01002KT 3SM 15/13 A3000 RMK T01500130 IEM_DS3505
ZGKL,2006-11-22 02:00,ZGKL 220200Z AUTO 26002KT 3SM 15/13 A3003 RMK T01500130 IEM_DS3505
ZGKL,2006-11-22 03:00,ZGKL 220300Z AUTO 04004KT 7SM 16/12 A3003 RMK SLP173 T01650123 52014 IEM_DS3505
ZGKL,2006-11-22 04:00,ZGKL 220400Z AUTO 32002KT 7SM 17/13 A3000 RMK T01700130 IEM_DS3505
ZGKL,2006-11-22 05:00,ZGKL 220500Z AUTO 31004KT 7SM 18/12 A2997 RMK T01800120 IEM_DS3505
ZGKL,2006-11-22 06:00,ZGKL 220600Z AUTO 36004KT 9SM 18/12 A2997 RMK SLP149 T01800116 57023 IEM_DS3505
ZGKL,2006-11-22 07:00,ZGKL 220700Z AUTO 09002KT 7SM 17/12 A2997 RMK T01700120 IEM_DS3505
ZGKL,2006-11-22 08:00,ZGKL 220800Z AUTO 09002KT 7SM 18/12 A2997 RMK T01800120 IEM_DS3505
ZGKL,2006-11-22 09:00,ZGKL 220900Z AUTO 02006KT 9SM 17/12 A2997 RMK SLP151 T01700123 52002 IEM_DS3505
ZGKL,2006-11-22 10:00,ZGKL 221000Z AUTO 05002KT 6SM 16/14 A2997 RMK T01600140 IEM_DS3505
ZGKL,2006-11-22 11:00,ZGKL 221100Z AUTO 05004KT 6SM 16/13 A2997 RMK T01600130 IEM_DS3505
ZGKL,2006-11-22 12:00,ZGKL 221200Z AUTO 02004KT 9SM 14/12 A3000 RMK SLP168 T01450115 52016 IEM_DS3505
ZGKL,2006-11-22 13:00,ZGKL 221300Z AUTO 07002KT 4SM 14/12 A3003 RMK T01400120 IEM_DS3505
ZGKL,2006-11-22 14:00,ZGKL 221400Z AUTO 05004KT 3SM 14/12 A3006 RMK T01400120 IEM_DS3505
ZGKL,2006-11-22 15:00,ZGKL 221500Z AUTO 36004KT 9SM 14/12 A3006 RMK SLP184 T01430116 52016 IEM_DS3505
ZGKL,2006-11-22 16:00,ZGKL 221600Z AUTO 04002KT 3SM 13/12 A3006 RMK T01300120 IEM_DS3505
ZGKL,2006-11-22 17:00,ZGKL 221700Z AUTO 36002KT 13/12 A3006 RMK T01300120 IEM_DS3505
ZGKL,2006-11-22 18:00,ZGKL 221800Z AUTO 34002KT 9SM 13/11 A3006 RMK SLP186 T01320111 52003 IEM_DS3505
ZGKL,2006-11-22 19:00,ZGKL 221900Z AUTO 35002KT 13/11 A3006 RMK T01300110 IEM_DS3505
ZGKL,2006-11-22 20:00,ZGKL 222000Z AUTO 04002KT 12/11 A3003 RMK T01200110 IEM_DS3505
ZGKL,2006-11-22 21:00,ZGKL 222100Z AUTO 36002KT 7SM 13/11 A3006 RMK SLP175 T01300107 57012 IEM_DS3505
ZGKL,2006-11-22 22:00,ZGKL 222200Z AUTO 34002KT 2 1/2SM 13/12 A3006 RMK T01300120 IEM_DS3505
ZGKL,2006-11-22 23:00,ZGKL 222300Z AUTO 04002KT 4SM 13/12 A3006 RMK T01300120 IEM_DS3505
ZGKL,2006-11-23 00:00,ZGKL 230000Z AUTO 36002KT 7SM 14/11 A3009 RMK SLP196 T01380110 52020 IEM_DS3505
ZGKL,2006-11-23 01:00,ZGKL 230100Z AUTO 08002KT 4SM 14/13 A3012 RMK T01400130 IEM_DS3505
ZGKL,2006-11-23 02:00,ZGKL 230200Z AUTO 03002KT 4SM 15/12 A3012 RMK T01500120 IEM_DS3505
ZGKL,2006-11-23 03:00,ZGKL 230300Z AUTO 02006KT 7SM 15/11 A3012 RMK SLP205 T01500112 52010 IEM_DS3505
ZGKL,2006-11-23 04:00,ZGKL 230400Z AUTO 03004KT 4SM 16/12 A3012 RMK T01600120 IEM_DS3505
ZGKL,2006-11-23 05:00,ZGKL 230500Z AUTO 08004KT 4SM 16/11 A3009 RMK T01600110 IEM_DS3505
ZGKL,2006-11-23 06:00,ZGKL 230600Z AUTO 02006KT 7SM 16/10 A3006 RMK SLP184 T01590104 57021 IEM_DS3505
ZGKL,2006-11-23 07:00,ZGKL 230700Z AUTO 06008KT 5SM 17/11 A3006 RMK T01700110 IEM_DS3505
ZGKL,2006-11-23 08:00,ZGKL 230800Z AUTO 06006KT 5SM 17/11 A3003 RMK T01700110 IEM_DS3505
ZGKL,2006-11-23 09:00,ZGKL 230900Z AUTO 02006KT 7SM 15/11 A3006 RMK SLP181 T01540106 57003 IEM_DS3505
ZGKL,2006-11-23 10:00,ZGKL 231000Z AUTO 06006KT 4SM 16/10 A3006 RMK T01600100 IEM_DS3505
ZGKL,2006-11-23 11:00,ZGKL 231100Z AUTO 05006KT 3SM 15/10 A3009 RMK T01500100 IEM_DS3505
ZGKL,2006-11-23 12:00,ZGKL 231200Z AUTO 02004KT 7SM 14/10 A3009 RMK 60000 SLP198 T01430105 52016 IEM_DS3505
ZGKL,2006-11-23 13:00,ZGKL 231300Z AUTO 04008KT 1 1/2SM 13/11 A3012 RMK T01300110 IEM_DS3505
ZGKL,2006-11-23 14:00,ZGKL 231400Z AUTO 05004KT 1 1/4SM 13/11 A3012 RMK T01300110 IEM_DS3505
ZGKL,2006-11-23 15:00,ZGKL 231500Z AUTO 02004KT 5SM 12/11 A3012 RMK SLP207 T01220113 52009 IEM_DS3505
ZGKL,2006-11-23 16:00,ZGKL 231600Z AUTO 04002KT 1 1/2SM 13/11 A3012 RMK T01300110 IEM_DS3505
ZGKL,2006-11-23 17:00,ZGKL 231700Z AUTO 09002KT 1 1/2SM 13/11 A3012 RMK T01300110 IEM_DS3505
ZGKL,2006-11-23 18:00,ZGKL 231800Z AUTO 04004KT 6SM 12/10 A3012 RMK 60024 SLP208 T01230104 52001 IEM_DS3505
ZGKL,2006-11-23 19:00,ZGKL 231900Z AUTO 06004KT 12/11 A3012 RMK T01200110 IEM_DS3505
ZGKL,2006-11-23 20:00,ZGKL 232000Z AUTO 08002KT 12/11 A3009 RMK T01200110 IEM_DS3505
ZGKL,2006-11-23 21:00,ZGKL 232100Z AUTO 36004KT 6SM 12/09 A3009 RMK 70022 SLP197 T01170094 57011 IEM_DS3505
ZGKL,2006-11-23 22:00,ZGKL 232200Z AUTO 07002KT 1 1/2SM 12/10 A3009 RMK T01200100 IEM_DS3505
ZGKL,2006-11-23 23:00,ZGKL 232300Z AUTO 03002KT 1 1/2SM 12/10 A3012 RMK T01200100 IEM_DS3505
ZGKL,2006-11-24 00:00,ZGKL 240000Z AUTO 02006KT 4SM 12/09 A3012 RMK 60000 70022 SLP206 T01170093 52008 IEM_DS3505
ZGKL,2006-11-24 01:00,ZGKL 240100Z AUTO 05002KT 1 1/2SM 12/10 A3015 RMK T01200100 IEM_DS3505
ZGKL,2006-11-24 02:00,ZGKL 240200Z AUTO 09002KT 2SM 12/11 A3015 RMK T01200110 IEM_DS3505
ZGKL,2006-11-24 03:00,ZGKL 240300Z AUTO 36004KT 5SM 12/10 A3012 RMK SLP210 T01180104 52004 IEM_DS3505
ZGKL,2006-11-24 04:00,ZGKL 240400Z AUTO 07002KT 2SM 12/11 A3012 RMK T01200110 IEM_DS3505
ZGKL,2006-11-24 05:00,ZGKL 240500Z AUTO 06004KT 2 1/2SM 12/10 A3009 RMK T01200100 IEM_DS3505
ZGKL,2006-11-24 06:00,ZGKL 240600Z AUTO 36004KT 4SM 12/10 A3006 RMK 60012 SLP185 T01200102 57025 IEM_DS3505
ZGKL,2006-11-24 07:00,ZGKL 240700Z AUTO 06004KT 2 1/2SM 12/11 A3003 RMK T01200110 IEM_DS3505
ZGKL,2006-11-24 08:00,ZGKL 240800Z AUTO 04004KT 2 1/2SM 12/11 A3003 RMK T01200110 IEM_DS3505
ZGKL,2006-11-24 09:00,ZGKL 240900Z AUTO 02004KT 7SM 12/10 A3003 RMK SLP174 T01180100 57011 IEM_DS3505
ZGKL,2006-11-24 10:00,ZGKL 241000Z AUTO 05004KT 3SM 12/11 A3003 RMK T01200110 IEM_DS3505
ZGKL,2006-11-24 11:00,ZGKL 241100Z AUTO 11002KT 3SM 12/11 A3003 RMK T01200110 IEM_DS3505
ZGKL,2006-11-24 12:00,ZGKL 241200Z AUTO 02004KT 8SM 12/10 A3003 RMK 60000 SLP179 T01160095 52005 IEM_DS3505
ZGKL,2006-11-24 13:00,ZGKL 241300Z AUTO 02002KT 2SM 12/10 A3006 RMK T01200100 IEM_DS3505
ZGKL,2006-11-24 14:00,ZGKL 241400Z AUTO 03002KT 2 1/2SM 12/10 A3006 RMK T01200100 IEM_DS3505
ZGKL,2006-11-24 15:00,ZGKL 241500Z AUTO 02004KT 7SM 11/10 A3006 RMK SLP184 T01140098 52005 IEM_DS3505
ZGKL,2006-11-24 16:00,ZGKL 241600Z AUTO 02002KT 3SM 12/10 A3006 RMK T01200100 IEM_DS3505
ZGKL,2006-11-24 17:00,ZGKL 241700Z AUTO 07002KT 3SM 12/10 A3003 RMK T01200100 IEM_DS3505
ZGKL,2006-11-24 18:00,ZGKL 241800Z AUTO 04002KT 7SM 11/10 A3003 RMK 60003 SLP177 T01110097 57007 IEM_DS3505
ZGKL,2006-11-24 19:00,ZGKL 241900Z AUTO 06004KT 11/10 A3003 RMK T01100100 IEM_DS3505
ZGKL,2006-11-24 20:00,ZGKL 242000Z AUTO 06004KT 11/10 A3000 RMK T01100100 IEM_DS3505
ZGKL,2006-11-24 21:00,ZGKL 242100Z AUTO 02004KT 6SM 11/09 A3000 RMK 70014 SLP162 T01100094 57015 IEM_DS3505
ZGKL,2006-11-24 22:00,ZGKL 242200Z AUTO 03002KT 3SM 11/10 A3000 RMK T01100100 IEM_DS3505
ZGKL,2006-11-24 23:00,ZGKL 242300Z AUTO 05002KT 6SM 11/10 A3000 RMK T01100100 IEM_DS3505
ZGKL,2006-11-25 00:00,ZGKL 250000Z AUTO 02004KT 7SM 11/09 A3003 RMK 60001 70015 SLP175 T01130092 52013 IEM_DS3505
ZGKL,2006-11-25 01:00,ZGKL 250100Z AUTO 07004KT 3SM 12/10 A3003 RMK T01200100 IEM_DS3505
ZGKL,2006-11-25 02:00,ZGKL 250200Z AUTO 04006KT 4SM 12/10 A3006 RMK T01200100 IEM_DS3505
ZGKL,2006-11-25 03:00,ZGKL 250300Z AUTO 36004KT 7SM 12/10 A3006 RMK SLP181 T01230095 52006 IEM_DS3505
ZGKL,2006-11-25 04:00,ZGKL 250400Z AUTO 06004KT 4SM 13/11 A3003 RMK T01300110 IEM_DS3505
ZGKL,2006-11-25 05:00,ZGKL 250500Z AUTO 06002KT 4SM 14/10 A2997 RMK T01400100 IEM_DS3505
ZGKL,2006-11-25 06:00,ZGKL 250600Z AUTO 36004KT 7SM 13/10 A2994 RMK SLP147 T01330099 57033 IEM_DS3505
ZGKL,2006-11-25 07:00,ZGKL 250700Z AUTO 01002KT 4SM 14/11 A2991 RMK T01400110 IEM_DS3505
ZGKL,2006-11-25 08:00,ZGKL 250800Z AUTO 08004KT 4SM 14/11 A2991 RMK T01400110 IEM_DS3505
ZGKL,2006-11-25 09:00,ZGKL 250900Z AUTO 36004KT 7SM 13/10 A2991 RMK SLP137 T01280100 57010 IEM_DS3505
ZGKL,2006-11-25 10:00,ZGKL 251000Z AUTO 05002KT 3SM 13/11 A2991 RMK T01300110 IEM_DS3505
ZGKL,2006-11-25 11:00,ZGKL 251100Z AUTO 05004KT 3SM 13/11 A2994 RMK T01300110 IEM_DS3505
ZGKL,2006-11-25 12:00,ZGKL 251200Z AUTO 04006KT 7SM 12/10 A2994 RMK SLP146 T01240100 52009 IEM_DS3505
ZGKL,2006-11-25 13:00,ZGKL 251300Z AUTO 07002KT 3SM 13/11 A2994 RMK T01300110 IEM_DS3505
ZGKL,2006-11-25 14:00,ZGKL 251400Z AUTO 07002KT 3SM 13/11 A2994 RMK T01300110 IEM_DS3505
ZGKL,2006-11-25 15:00,ZGKL 251500Z AUTO 02010KT 6SM 12/10 A2994 RMK SLP150 T01150098 52004 IEM_DS3505
ZGKL,2006-11-25 16:00,ZGKL 251600Z AUTO 03004KT 2 1/2SM 12/11 A2994 RMK T01200110 IEM_DS3505
ZGKL,2006-11-25 17:00,ZGKL 251700Z AUTO 05004KT 12/11 A2994 RMK T01200110 IEM_DS3505
ZGKL,2006-11-25 18:00,ZGKL 251800Z AUTO 04004KT 5SM 11/10 A2994 RMK 60004 SLP145 T01130097 57005 IEM_DS3505
ZGKL,2006-11-25 19:00,ZGKL 251900Z AUTO 05004KT 11/10 A2994 RMK T01100100 IEM_DS3505
ZGKL,2006-11-25 20:00,ZGKL 252000Z AUTO 09002KT 11/10 A2991 RMK T01100100 IEM_DS3505
ZGKL,2006-11-25 21:00,ZGKL 252100Z AUTO 04006KT 6SM 11/09 A2991 RMK 70004 SLP134 T01120089 57011 IEM_DS3505
ZGKL,2006-11-25 22:00,ZGKL 252200Z AUTO 12002KT 4SM 11/10 A2991 RMK T01100100 IEM_DS3505
ZGKL,2006-11-25 23:00,ZGKL 252300Z AUTO 08004KT 3SM 11/10 A2994 RMK T01100100 IEM_DS3505
ZGKL,2006-11-26 00:00,ZGKL 260000Z AUTO 02004KT 7SM 11/09 A2997 RMK 60004 70007 SLP151 T01070091 52016 IEM_DS3505
ZGKL,2006-11-26 01:00,ZGKL 260100Z AUTO 06002KT 2 1/2SM 11/10 A2997 RMK T01100100 IEM_DS3505
ZGKL,2006-11-26 02:00,ZGKL 260200Z AUTO 07002KT 2 1/2SM 12/11 A2997 RMK T01200110 IEM_DS3505
ZGKL,2006-11-26 03:00,ZGKL 260300Z AUTO 02008KT 9SM 12/09 A2997 RMK SLP160 T01210089 52009 IEM_DS3505
ZGKL,2006-11-26 04:00,ZGKL 260400Z AUTO 09002KT 3SM 13/10 A2997 RMK T01300100 IEM_DS3505
ZGKL,2006-11-26 05:00,ZGKL 260500Z AUTO 06002KT 3SM 13/11 A2994 RMK T01300110 IEM_DS3505
ZGKL,2006-11-26 06:00,ZGKL 260600Z AUTO 02010KT 10SM 14/09 A2991 RMK SLP135 T01350088 57024 IEM_DS3505
ZGKL,2006-11-26 07:00,ZGKL 260700Z AUTO 09004KT 4SM 14/10 A2991 RMK T01400100 IEM_DS3505
ZGKL,2006-11-26 08:00,ZGKL 260800Z AUTO 03002KT 4SM 14/10 A2991 RMK T01400100 IEM_DS3505
ZGKL,2006-11-26 09:00,ZGKL 260900Z AUTO 36006KT 10SM 13/09 A2991 RMK SLP138 T01280089 52003 IEM_DS3505
ZGKL,2006-11-26 10:00,ZGKL 261000Z AUTO 04004KT 4SM 13/09 A2994 RMK T01300090 IEM_DS3505
ZGKL,2006-11-26 11:00,ZGKL 261100Z AUTO 06004KT 4SM 12/09 A2997 RMK T01200090 IEM_DS3505
ZGKL,2006-11-26 12:00,ZGKL 261200Z AUTO 36010KT 9SM 11/08 A3000 RMK SLP167 T01140081 52028 IEM_DS3505
ZGKL,2006-11-26 13:00,ZGKL 261300Z AUTO 07004KT 3SM 12/09 A3000 RMK T01200090 IEM_DS3505
ZGKL,2006-11-26 14:00,ZGKL 261400Z AUTO 07006KT 3SM 11/09 A3003 RMK T01100090 IEM_DS3505
ZGKL,2006-11-26 15:00,ZGKL 261500Z AUTO 02008KT 7SM 11/08 A3003 RMK SLP181 T01090078 52014 IEM_DS3505
ZGKL,2006-11-26 16:00,ZGKL 261600Z AUTO 07004KT 2 1/2SM 11/08 A3003 RMK T01100080 IEM_DS3505
ZGKL,2006-11-26 17:00,ZGKL 261700Z AUTO 07004KT 11/08 A3003 RMK T01100080 IEM_DS3505
ZGKL,2006-11-26 18:00,ZGKL 261800Z AUTO 02008KT 7SM 10/08 A3003 RMK SLP176 T01040075 57005 IEM_DS3505
ZGKL,2006-11-26 19:00,ZGKL 261900Z AUTO 05004KT 11/08 A3003 RMK T01100080 IEM_DS3505
ZGKL,2006-11-26 20:00,ZGKL 262000Z AUTO 04002KT 11/08 A3003 RMK T01100080 IEM_DS3505
ZGKL,2006-11-26 21:00,ZGKL 262100Z AUTO 02006KT 7SM 10/08 A3003 RMK 70003 SLP173 T01040075 57003 IEM_DS3505
ZGKL,2006-11-26 22:00,ZGKL 262200Z AUTO 07002KT 3SM 11/08 A3003 RMK T01100080 IEM_DS3505
ZGKL,2006-11-26 23:00,ZGKL 262300Z AUTO 05002KT 4SM 11/08 A3006 RMK T01100080 IEM_DS3505
ZGKL,2006-11-27 00:00,ZGKL 270000Z AUTO 02008KT 7SM 10/07 A3009 RMK 60001 70001 SLP194 T01010073 52020 IEM_DS3505
ZGKL,2006-11-27 01:00,ZGKL 270100Z AUTO 08004KT 5SM 12/08 A3012 RMK T01200080 IEM_DS3505
ZGKL,2006-11-27 02:00,ZGKL 270200Z AUTO 08006KT 5SM 12/08 A3012 RMK T01200080 IEM_DS3505
ZGKL,2006-11-27 03:00,ZGKL 270300Z AUTO 02008KT 9SM 11/07 A3012 RMK SLP208 T01140073 52014 IEM_DS3505
ZGKL,2006-11-27 04:00,ZGKL 270400Z AUTO 07008KT 7SM 14/08 A3009 RMK T01400080 IEM_DS3505
ZGKL,2006-11-27 05:00,ZGKL 270500Z AUTO 08006KT 7SM 13/08 A3006 RMK T01300080 IEM_DS3505
ZGKL,2006-11-27 06:00,ZGKL 270600Z AUTO 02008KT 9SM 12/07 A3003 RMK 60000 SLP182 T01190068 57025 IEM_DS3505
ZGKL,2006-11-27 07:00,ZGKL 270700Z AUTO 08006KT 5SM 13/08 A3003 RMK T01300080 IEM_DS3505
ZGKL,2006-11-27 08:00,ZGKL 270800Z AUTO 06006KT 4SM 13/08 A3003 RMK T01300080 IEM_DS3505
ZGKL,2006-11-27 09:00,ZGKL 270900Z AUTO 02008KT 8SM 11/07 A3006 RMK SLP188 T01130072 52005 IEM_DS3505
ZGKL,2006-11-27 10:00,ZGKL 271000Z AUTO 08006KT 3SM 12/08 A3009 RMK T01200080 IEM_DS3505
ZGKL,2006-11-27 11:00,ZGKL 271100Z AUTO 07006KT 2 1/2SM 11/08 A3009 RMK T01100080 IEM_DS3505
ZGKL,2006-11-27 12:00,ZGKL 271200Z AUTO 02006KT 8SM 10/07 A3012 RMK SLP214 T01040073 52025 IEM_DS3505
ZGKL,2006-11-27 13:00,ZGKL 271300Z AUTO 06006KT 2 1/2SM 11/08 A3015 RMK T01100080 IEM_DS3505
ZGKL,2006-11-27 14:00,ZGKL 271400Z AUTO 07008KT 2 1/2SM 11/08 A3018 RMK T01100080 IEM_DS3505
ZGKL,2006-11-27 15:00,ZGKL 271500Z AUTO 36006KT 8SM 11/07 A3018 RMK SLP227 T01070070 52014 IEM_DS3505
ZGKL,2006-11-27 16:00,ZGKL 271600Z AUTO 04004KT 2 1/2SM 11/08 A3018 RMK T01100080 IEM_DS3505
ZGKL,2006-11-27 17:00,ZGKL 271700Z AUTO 04004KT 11/07 A3018 RMK T01100070 IEM_DS3505
ZGKL,2006-11-27 18:00,ZGKL 271800Z AUTO 02006KT 8SM 10/07 A3018 RMK SLP222 T00990066 57005 IEM_DS3505
ZGKL,2006-11-27 19:00,ZGKL 271900Z AUTO 34002KT 10/07 A3015 RMK T01000070 IEM_DS3505
ZGKL,2006-11-27 20:00,ZGKL 272000Z AUTO 00000KT 09/07 A3015 RMK T00900070 IEM_DS3505
ZGKL,2006-11-27 21:00,ZGKL 272100Z AUTO 02008KT 7SM 10/06 A3015 RMK 70002 SLP214 T01000065 57008 IEM_DS3505
ZGKL,2006-11-27 22:00,ZGKL 272200Z AUTO 33002KT 2SM 09/07 A3015 RMK T00900070 IEM_DS3505
ZGKL,2006-11-27 23:00,ZGKL 272300Z AUTO 01002KT 2SM 09/07 A3015 RMK T00900070 IEM_DS3505
ZGKL,2006-11-28 00:00,ZGKL 280000Z AUTO 02004KT 7SM 10/07 A3018 RMK 70000 SLP227 T01030068 52012 IEM_DS3505
ZGKL,2006-11-28 01:00,ZGKL 280100Z AUTO 35004KT 4SM 11/08 A3018 RMK T01100080 IEM_DS3505
ZGKL,2006-11-28 02:00,ZGKL 280200Z AUTO 06006KT 5SM 13/08 A3018 RMK T01300080 IEM_DS3505
ZGKL,2006-11-28 03:00,ZGKL 280300Z AUTO 02008KT 9SM 13/07 A3018 RMK SLP223 T01290067 57003 IEM_DS3505
ZGKL,2006-11-28 04:00,ZGKL 280400Z AUTO 04004KT 7SM 14/08 A3015 RMK T01400080 IEM_DS3505
ZGKL,2006-11-28 05:00,ZGKL 280500Z AUTO 07008KT 7SM 15/07 A3012 RMK T01500070 IEM_DS3505
ZGKL,2006-11-28 06:00,ZGKL 280600Z AUTO 02008KT 10SM 14/07 A3009 RMK SLP193 T01400071 57029 IEM_DS3505
ZGKL,2006-11-28 07:00,ZGKL 280700Z AUTO 06008KT 7SM 14/07 A3006 RMK T01400070 IEM_DS3505
ZGKL,2006-11-28 08:00,ZGKL 280800Z AUTO 05008KT 6SM 14/08 A3006 RMK T01400080 IEM_DS3505
ZGKL,2006-11-28 09:00,ZGKL 280900Z AUTO 02004KT 9SM 12/07 A3006 RMK SLP189 T01230072 57005 IEM_DS3505
ZGKL,2006-11-28 10:00,ZGKL 281000Z AUTO 06008KT 6SM 12/07 A3009 RMK T01200070 IEM_DS3505
ZGKL,2006-11-28 11:00,ZGKL 281100Z AUTO 06008KT 6SM 12/07 A3009 RMK T01200070 IEM_DS3505
ZGKL,2006-11-28 12:00,ZGKL 281200Z AUTO 02006KT 9SM 11/07 A3009 RMK SLP203 T01130066 52014 IEM_DS3505
ZGKL,2006-11-28 13:00,ZGKL 281300Z AUTO 03004KT 7SM 12/07 A3012 RMK T01200070 IEM_DS3505
ZGKL,2006-11-28 14:00,ZGKL 281400Z AUTO 09002KT 5SM 12/07 A3015 RMK T01200070 IEM_DS3505
ZGKL,2006-11-28 15:00,ZGKL 281500Z AUTO 04004KT 9SM 11/07 A3015 RMK SLP215 T01120069 52013 IEM_DS3505
ZGKL,2006-11-28 16:00,ZGKL 281600Z AUTO 02002KT 5SM 11/07 A3015 RMK T01100070 IEM_DS3505
ZGKL,2006-11-28 17:00,ZGKL 281700Z AUTO 07002KT 11/08 A3015 RMK T01100080 IEM_DS3505
ZGKL,2006-11-28 18:00,ZGKL 281800Z AUTO 02004KT 9SM 11/07 A3015 RMK SLP214 T01100071 57001 IEM_DS3505
ZGKL,2006-11-28 19:00,ZGKL 281900Z AUTO 05004KT 11/08 A3012 RMK T01100080 IEM_DS3505
ZGKL,2006-11-28 20:00,ZGKL 282000Z AUTO 04002KT 11/08 A3012 RMK T01100080 IEM_DS3505
ZGKL,2006-11-28 21:00,ZGKL 282100Z AUTO 09002KT 9SM 10/07 A3012 RMK SLP212 T01040073 57003 IEM_DS3505
ZGKL,2006-11-28 22:00,ZGKL 282200Z AUTO 03002KT 4SM 11/08 A3015 RMK T01100080 IEM_DS3505
ZGKL,2006-11-28 23:00,ZGKL 282300Z AUTO 00000KT 4SM 10/09 A3018 RMK T01000090 IEM_DS3505
ZGKL,2006-11-29 00:00,ZGKL 290000Z AUTO 04004KT 7SM 10/08 A3018 RMK 60008 70007 SLP231 T01020083 52018 IEM_DS3505
ZGKL,2006-11-29 01:00,ZGKL 290100Z AUTO 13002KT 4SM 11/08 A3021 RMK T01100080 IEM_DS3505
ZGKL,2006-11-29 02:00,ZGKL 290200Z AUTO 13002KT 4SM 12/09 A3024 RMK T01200090 IEM_DS3505
ZGKL,2006-11-29 03:00,ZGKL 290300Z AUTO 02004KT 7SM 12/08 A3024 RMK SLP242 T01210082 52012 IEM_DS3505
ZGKL,2006-11-29 04:00,ZGKL 290400Z AUTO 09002KT 5SM 13/09 A3021 RMK T01300090 IEM_DS3505
ZGKL,2006-11-29 05:00,ZGKL 290500Z AUTO 33002KT 5SM 13/09 A3018 RMK T01300090 IEM_DS3505
ZGKL,2006-11-29 06:00,ZGKL 290600Z AUTO 02008KT 8SM 13/08 A3015 RMK SLP215 T01340085 57026 IEM_DS3505
ZGKL,2006-11-29 07:00,ZGKL 290700Z AUTO 07004KT 5SM 14/09 A3012 RMK T01400090 IEM_DS3505
ZGKL,2006-11-29 08:00,ZGKL 290800Z AUTO 06004KT 5SM 14/09 A3012 RMK T01400090 IEM_DS3505
ZGKL,2006-11-29 09:00,ZGKL 290900Z AUTO 02010KT 7SM 12/08 A3012 RMK SLP207 T01200081 57009 IEM_DS3505
ZGKL,2006-11-29 10:00,ZGKL 291000Z AUTO 04004KT 4SM 13/09 A3015 RMK T01300090 IEM_DS3505
ZGKL,2006-11-29 11:00,ZGKL 291100Z AUTO 08004KT 4SM 12/09 A3018 RMK T01200090 IEM_DS3505
ZGKL,2006-11-29 12:00,ZGKL 291200Z AUTO 36008KT 6SM 11/08 A3018 RMK SLP232 T01110078 52024 IEM_DS3505
ZGKL,2006-11-29 13:00,ZGKL 291300Z AUTO 06004KT 3SM 11/08 A3021 RMK T01100080 IEM_DS3505
ZGKL,2006-11-29 14:00,ZGKL 291400Z AUTO 04002KT 3SM 11/08 A3021 RMK T01100080 IEM_DS3505
ZGKL,2006-11-29 15:00,ZGKL 291500Z AUTO 02008KT 6SM 11/07 A3024 RMK SLP241 T01110072 52010 IEM_DS3505
ZGKL,2006-11-29 16:00,ZGKL 291600Z AUTO 03004KT 3SM 11/08 A3024 RMK T01100080 IEM_DS3505
ZGKL,2006-11-29 17:00,ZGKL 291700Z AUTO 03002KT 11/08 A3021 RMK T01100080 IEM_DS3505
ZGKL,2006-11-29 18:00,ZGKL 291800Z AUTO 02010KT 6SM 11/07 A3021 RMK SLP237 T01070070 57004 IEM_DS3505
ZGKL,2006-11-29 19:00,ZGKL 291900Z AUTO 05002KT 11/08 A3021 RMK T01100080 IEM_DS3505
ZGKL,2006-11-29 20:00,ZGKL 292000Z AUTO 08006KT 11/08 A3018 RMK T01100080 IEM_DS3505
ZGKL,2006-11-29 21:00,ZGKL 292100Z AUTO 02004KT 6SM 10/06 A3018 RMK 70006 SLP222 T01020065 57015 IEM_DS3505
ZGKL,2006-11-29 22:00,ZGKL 292200Z AUTO 04002KT 4SM 10/08 A3018 RMK T01000080 IEM_DS3505
ZGKL,2006-11-29 23:00,ZGKL 292300Z AUTO 33002KT 5SM 10/08 A3021 RMK T01000080 IEM_DS3505
ZGKL,2006-11-30 00:00,ZGKL 300000Z AUTO 02006KT 7SM 10/06 A3021 RMK SLP239 T01050063 52016 IEM_DS3505
ZGKL,2006-11-30 01:00,ZGKL 300100Z AUTO 03002KT 5SM 11/08 A3021 RMK T01100080 IEM_DS3505
ZGKL,2006-11-30 02:00,ZGKL 300200Z AUTO 35002KT 6SM 12/08 A3024 RMK T01200080 IEM_DS3505
ZGKL,2006-11-30 03:00,ZGKL 300300Z AUTO 02006KT 9SM 12/07 A3024 RMK SLP242 T01190066 52004 IEM_DS3505
ZGKL,2006-11-30 04:00,ZGKL 300400Z AUTO 09004KT 6SM 14/08 A3021 RMK T01400080 IEM_DS3505
ZGKL,2006-11-30 05:00,ZGKL 300500Z AUTO 08006KT 6SM 14/07 A3015 RMK T01400070 IEM_DS3505
ZGKL,2006-11-30 06:00,ZGKL 300600Z AUTO 02006KT 9SM 13/07 A3012 RMK SLP209 T01330069 57032 IEM_DS3505
ZGKL,2006-11-30 07:00,ZGKL 300700Z AUTO 08006KT 6SM 13/07 A3012 RMK T01300070 IEM_DS3505
ZGKL,2006-11-30 08:00,ZGKL 300800Z AUTO 06008KT 5SM 13/08 A3009 RMK T01300080 IEM_DS3505
ZGKL,2006-11-30 09:00,ZGKL 300900Z AUTO 36006KT 9SM 12/07 A3012 RMK SLP208 T01200069 57002 IEM_DS3505
ZGKL,2006-11-30 11:00,ZGKL 301100Z AUTO 05004KT 4SM 11/08 A3015 RMK T01100080 IEM_DS3505
ZGKL,2006-11-30 12:00,ZGKL 301200Z AUTO 36006KT 8SM 11/07 A3021 RMK SLP238 T01070066 52029 IEM_DS3505
ZGKL,2006-11-30 13:00,ZGKL 301300Z AUTO 03004KT 4SM 10/08 A3024 RMK T01000080 IEM_DS3505
ZGKL,2006-11-30 14:00,ZGKL 301400Z AUTO 00000KT 3SM 10/09 A3027 RMK T01000090 IEM_DS3505
ZGKL,2006-11-30 15:00,ZGKL 301500Z AUTO 02008KT 7SM 10/07 A3027 RMK SLP257 T00950073 52019 IEM_DS3505
ZGKL,2006-11-30 16:00,ZGKL 301600Z AUTO 36002KT 3SM 10/08 A3027 RMK T01000080 IEM_DS3505
ZGKL,2006-11-30 17:00,ZGKL 301700Z AUTO 07002KT 2 1/2SM 09/08 A3027 RMK T00900080 IEM_DS3505
ZGKL,2006-11-30 18:00,ZGKL 301800Z AUTO 02006KT 6SM 09/07 A3024 RMK 60002 SLP252 T00900066 57005 IEM_DS3505
ZGKL,2006-11-30 19:00,ZGKL 301900Z AUTO 00000KT 10/09 A3024 RMK T01000090 IEM_DS3505
ZGKL,2006-11-30 20:00,ZGKL 302000Z AUTO 36002KT 10/08 A3021 RMK T01000080 IEM_DS3505
ZGKL,2006-11-30 21:00,ZGKL 302100Z AUTO 02006KT 7SM 09/06 A3021 RMK 70002 SLP241 T00920061 57011 IEM_DS3505
ZGKL,2006-11-30 22:00,ZGKL 302200Z AUTO 08002KT 3SM 09/08 A3021 RMK T00900080 IEM_DS3505
ZGKL,2006-11-30 23:00,ZGKL 302300Z AUTO 07002KT 3SM 10/08 A3021 RMK T01000080 IEM_DS3505
ZGKL,2006-12-01 00:00,ZGKL 010000Z AUTO 02008KT 6SM 10/06 A3024 RMK 70002 SLP248 T00970059 52007 IEM_DS3505
ZGKL,2006-12-01 01:00,ZGKL 010100Z AUTO 09002KT 3SM 10/09 A3027 RMK T01000090 IEM_DS3505
ZGKL,2006-12-01 02:00,ZGKL 010200Z AUTO 07004KT 4SM 11/08 A3027 RMK T01100080 IEM_DS3505
ZGKL,2006-12-01 03:00,ZGKL 010300Z AUTO 02008KT 6SM 11/06 A3024 RMK SLP252 T01140061 52004 IEM_DS3505
ZGKL,2006-12-01 04:00,ZGKL 010400Z AUTO 05002KT 4SM 15/08 A3021 RMK T01500080 IEM_DS3505
ZGKL,2006-12-01 05:00,ZGKL 010500Z AUTO 14004KT 5SM 14/07 A3018 RMK T01400070 IEM_DS3505
ZGKL,2006-12-01 06:00,ZGKL 010600Z AUTO 04008KT 7SM 15/07 A3012 RMK SLP213 T01460069 57038 IEM_DS3505
ZGKL,2006-12-01 07:00,ZGKL 010700Z AUTO 30002KT 6SM 15/08 A3012 RMK T01500080 IEM_DS3505
ZGKL,2006-12-01 08:00,ZGKL 010800Z AUTO 25002KT 6SM 15/09 A3012 RMK T01500090 IEM_DS3505
ZGKL,2006-12-01 09:00,ZGKL 010900Z AUTO 02006KT 8SM 13/07 A3012 RMK SLP209 T01340070 57004 IEM_DS3505
ZGKL,2006-12-01 10:00,ZGKL 011000Z AUTO 07010KT 4SM 13/07 A3015 RMK T01300070 IEM_DS3505
ZGKL,2006-12-01 11:00,ZGKL 011100Z AUTO 07008KT 4SM 12/06 A3015 RMK T01200060 IEM_DS3505
ZGKL,2006-12-01 12:00,ZGKL 011200Z AUTO 36004KT 7SM 10/06 A3018 RMK SLP233 T01030064 52023 IEM_DS3505
ZGKL,2006-12-01 13:00,ZGKL 011300Z AUTO 05004KT 4SM 11/06 A3021 RMK T01100060 IEM_DS3505
ZGKL,2006-12-01 14:00,ZGKL 011400Z AUTO 01004KT 3SM 11/06 A3021 RMK T01100060 IEM_DS3505
ZGKL,2006-12-01 15:00,ZGKL 011500Z AUTO 02006KT 7SM 11/06 A3024 RMK SLP244 T01080062 52011 IEM_DS3505
ZGKL,2006-12-01 16:00,ZGKL 011600Z AUTO 03002KT 3SM 11/07 A3021 RMK T01100070 IEM_DS3505
ZGKL,2006-12-01 17:00,ZGKL 011700Z AUTO 00000KT 3SM 10/08 A3021 RMK T01000080 IEM_DS3505
ZGKL,2006-12-01 18:00,ZGKL 011800Z AUTO 02004KT 7SM 10/06 A3021 RMK SLP236 T01050057 57007 IEM_DS3505
ZGKL,2006-12-01 19:00,ZGKL 011900Z AUTO 17002KT 09/08 A3021 RMK T00900080 IEM_DS3505
ZGKL,2006-12-01 20:00,ZGKL 012000Z AUTO 14002KT 09/08 A3018 RMK T00900080 IEM_DS3505
ZGKL,2006-12-01 21:00,ZGKL 012100Z AUTO 02006KT 7SM 11/05 A3018 RMK SLP229 T01070053 57007 IEM_DS3505
ZGKL,2006-12-01 22:00,ZGKL 012200Z AUTO 04002KT 3SM 10/09 A3018 RMK T01000090 IEM_DS3505
ZGKL,2006-12-01 23:00,ZGKL 012300Z AUTO 09002KT 3SM 10/09 A3021 RMK T01000090 IEM_DS3505
ZGKL,2006-12-02 00:00,ZGKL 020000Z AUTO 02008KT 6SM 11/05 A3024 RMK SLP248 T01110050 52018 IEM_DS3505
ZGKL,2006-12-02 01:00,ZGKL 020100Z AUTO 00000KT 4SM 13/11 A3027 RMK T01300110 IEM_DS3505
ZGKL,2006-12-02 02:00,ZGKL 020200Z AUTO 03006KT 4SM 14/06 A3027 RMK T01400060 IEM_DS3505
ZGKL,2006-12-02 03:00,ZGKL 020300Z AUTO 02010KT 7SM 15/06 A3027 RMK SLP254 T01470055 52007 IEM_DS3505
ZGKL,2006-12-02 04:00,ZGKL 020400Z AUTO 05010KT 5SM 16/06 A3024 RMK T01600060 IEM_DS3505
ZGKL,2006-12-02 05:00,ZGKL 020500Z AUTO 07008KT 5SM 17/06 A3021 RMK T01700060 IEM_DS3505
ZGKL,2006-12-02 06:00,ZGKL 020600Z AUTO 04012KT 8SM 16/06 A3015 RMK SLP221 T01620055 57032 IEM_DS3505
ZGKL,2006-12-02 07:00,ZGKL 020700Z AUTO 08006KT 6SM 17/07 A3015 RMK T01700070 IEM_DS3505
ZGKL,2006-12-02 08:00,ZGKL 020800Z AUTO 07008KT 6SM 16/06 A3015 RMK T01600060 IEM_DS3505
ZGKL,2006-12-02 09:00,ZGKL 020900Z AUTO 02008KT 7SM 14/06 A3015 RMK SLP221 T01420058 54000 IEM_DS3505
ZGKL,2006-12-02 10:00,ZGKL 021000Z AUTO 07010KT 3SM 14/06 A3018 RMK T01400060 IEM_DS3505
ZGKL,2006-12-02 11:00,ZGKL 021100Z AUTO 07010KT 3SM 13/06 A3021 RMK T01300060 IEM_DS3505
ZGKL,2006-12-02 12:00,ZGKL 021200Z AUTO 04006KT 7SM 12/06 A3021 RMK SLP241 T01250057 52019 IEM_DS3505
ZGKL,2006-12-02 13:00,ZGKL 021300Z AUTO 04006KT 2 1/2SM 13/06 A3024 RMK T01300060 IEM_DS3505
ZGKL,2006-12-02 14:00,ZGKL 021400Z AUTO 02004KT 2 1/2SM 13/06 A3027 RMK T01300060 IEM_DS3505
ZGKL,2006-12-02 15:00,ZGKL 021500Z AUTO 02008KT 7SM 13/06 A3027 RMK SLP255 T01260064 52015 IEM_DS3505
ZGKL,2006-12-02 16:00,ZGKL 021600Z AUTO 02004KT 2 1/2SM 13/07 A3027 RMK T01300070 IEM_DS3505
ZGKL,2006-12-02 17:00,ZGKL 021700Z AUTO 19002KT 12/08 A3027 RMK T01200080 IEM_DS3505
ZGKL,2006-12-02 18:00,ZGKL 021800Z AUTO 04002KT 7SM 11/07 A3027 RMK 60000 SLP253 T01140073 57002 IEM_DS3505
ZGKL,2006-12-02 19:00,ZGKL 021900Z AUTO 04002KT 11/09 A3027 RMK T01100090 IEM_DS3505
ZGKL,2006-12-02 20:00,ZGKL 022000Z AUTO 04002KT 11/09 A3024 RMK T01100090 IEM_DS3505
ZGKL,2006-12-02 21:00,ZGKL 022100Z AUTO 04004KT 5SM 10/08 A3024 RMK 70007 SLP248 T01010080 57006 IEM_DS3505
ZGKL,2006-12-02 22:00,ZGKL 022200Z AUTO 17002KT 2SM 11/09 A3027 RMK T01100090 IEM_DS3505
ZGKL,2006-12-02 23:00,ZGKL 022300Z AUTO 00000KT 1 1/2SM 11/09 A3030 RMK T01100090 IEM_DS3505
ZGKL,2006-12-03 00:00,ZGKL 030000Z AUTO 36006KT 6SM 11/06 A3033 RMK 60008 70007 SLP276 T01100057 52027 IEM_DS3505
ZGKL,2006-12-03 01:00,ZGKL 030100Z AUTO 06002KT 2 1/2SM 11/10 A3033 RMK T01100100 IEM_DS3505
ZGKL,2006-12-03 02:00,ZGKL 030200Z AUTO 10002KT 3SM 12/10 A3036 RMK T01200100 IEM_DS3505
ZGKL,2006-12-03 03:00,ZGKL 030300Z AUTO 02006KT 7SM 12/05 A3036 RMK SLP286 T01160048 52010 IEM_DS3505
ZGKL,2006-12-03 04:00,ZGKL 030400Z AUTO 06006KT 4SM 13/07 A3033 RMK T01300070 IEM_DS3505
ZGKL,2006-12-03 05:00,ZGKL 030500Z AUTO 08004KT 4SM 13/07 A3030 RMK T01300070 IEM_DS3505
ZGKL,2006-12-03 06:00,ZGKL 030600Z AUTO 02008KT 7SM 12/05 A3027 RMK SLP258 T01250050 57027 IEM_DS3505
ZGKL,2006-12-03 07:00,ZGKL 030700Z AUTO 07006KT 4SM 13/06 A3027 RMK T01300060 IEM_DS3505
ZGKL,2006-12-03 08:00,ZGKL 030800Z AUTO 06006KT 4SM 13/06 A3027 RMK T01300060 IEM_DS3505
ZGKL,2006-12-03 09:00,ZGKL 030900Z AUTO 02008KT 7SM 12/05 A3027 RMK SLP258 T01170053 57001 IEM_DS3505
ZGKL,2006-12-03 10:00,ZGKL 031000Z AUTO 08004KT 4SM 12/07 A3030 RMK T01200070 IEM_DS3505
ZGKL,2006-12-03 11:00,ZGKL 031100Z AUTO 05004KT 4SM 11/06 A3030 RMK T01100060 IEM_DS3505
ZGKL,2006-12-03 12:00,ZGKL 031200Z AUTO 02006KT 7SM 10/05 A3033 RMK SLP282 T01030053 52023 IEM_DS3505
ZGKL,2006-12-03 13:00,ZGKL 031300Z AUTO 05004KT 4SM 11/06 A3036 RMK T01100060 IEM_DS3505
ZGKL,2006-12-03 14:00,ZGKL 031400Z AUTO 07002KT 4SM 11/06 A3039 RMK T01100060 IEM_DS3505
ZGKL,2006-12-03 15:00,ZGKL 031500Z AUTO 02010KT 7SM 10/05 A3039 RMK SLP298 T01040050 52016 IEM_DS3505
ZGKL,2006-12-03 16:00,ZGKL 031600Z AUTO 05004KT 4SM 10/06 A3039 RMK T01000060 IEM_DS3505
ZGKL,2006-12-03 17:00,ZGKL 031700Z AUTO 04004KT 10/06 A3039 RMK T01000060 IEM_DS3505
ZGKL,2006-12-03 18:00,ZGKL 031800Z AUTO 02008KT 7SM 10/04 A3039 RMK SLP294 T01000037 57004 IEM_DS3505
ZGKL,2006-12-03 19:00,ZGKL 031900Z AUTO 05006KT 10/06 A3036 RMK T01000060 IEM_DS3505
ZGKL,2006-12-03 20:00,ZGKL 032000Z AUTO 00000KT 10/06 A3036 RMK T01000060 IEM_DS3505
ZGKL,2006-12-03 21:00,ZGKL 032100Z AUTO 02008KT 7SM 10/03 A3033 RMK SLP281 T00960034 57013 IEM_DS3505
ZGKL,2006-12-03 22:00,ZGKL 032200Z AUTO 06004KT 4SM 10/05 A3033 RMK T01000050 IEM_DS3505
ZGKL,2006-12-03 23:00,ZGKL 032300Z AUTO 05002KT 3SM 10/05 A3036 RMK T01000050 IEM_DS3505
ZGKL,2006-12-04 00:00,ZGKL 040000Z AUTO 04004KT 6SM 10/03 A3039 RMK SLP293 T00960034 52012 IEM_DS3505
ZGKL,2006-12-04 01:00,ZGKL 040100Z AUTO 08002KT 3SM 11/05 A3039 RMK T01100050 IEM_DS3505
ZGKL,2006-12-04 02:00,ZGKL 040200Z AUTO 03002KT 3SM 12/04 A3042 RMK T01200040 IEM_DS3505
ZGKL,2006-12-04 03:00,ZGKL 040300Z AUTO 02004KT 6SM 12/04 A3039 RMK SLP296 T01200038 52003 IEM_DS3505
ZGKL,2006-12-04 04:00,ZGKL 040400Z AUTO 05002KT 3SM 15/05 A3036 RMK T01500050 IEM_DS3505
ZGKL,2006-12-04 05:00,ZGKL 040500Z AUTO 09006KT 4SM 15/04 A3030 RMK T01500040 IEM_DS3505
ZGKL,2006-12-04 06:00,ZGKL 040600Z AUTO 07004KT 6SM 16/05 A3027 RMK SLP253 T01550048 57041 IEM_DS3505
ZGKL,2006-12-04 07:00,ZGKL 040700Z AUTO 00000KT 4SM 16/05 A3024 RMK T01600050 IEM_DS3505
ZGKL,2006-12-04 08:00,ZGKL 040800Z AUTO 07004KT 4SM 16/06 A3024 RMK T01600060 IEM_DS3505
ZGKL,2006-12-04 09:00,ZGKL 040900Z AUTO 04004KT 7SM 15/06 A3024 RMK SLP244 T01520057 57009 IEM_DS3505
ZGKL,2006-12-04 10:00,ZGKL 041000Z AUTO 04002KT 4SM 15/09 A3024 RMK T01500090 IEM_DS3505
ZGKL,2006-12-04 11:00,ZGKL 041100Z AUTO 05002KT 3SM 14/08 A3024 RMK T01400080 IEM_DS3505
ZGKL,2006-12-04 12:00,ZGKL 041200Z AUTO 02006KT 7SM 13/05 A3027 RMK SLP254 T01330052 52009 IEM_DS3505
ZGKL,2006-12-04 13:00,ZGKL 041300Z AUTO 08004KT 3SM 14/06 A3027 RMK T01400060 IEM_DS3505
ZGKL,2006-12-04 14:00,ZGKL 041400Z AUTO 06004KT 4SM 13/06 A3030 RMK T01300060 IEM_DS3505
ZGKL,2006-12-04 15:00,ZGKL 041500Z AUTO 02006KT 7SM 12/04 A3030 RMK SLP265 T01230045 52012 IEM_DS3505
ZGKL,2006-12-04 16:00,ZGKL 041600Z AUTO 05004KT 4SM 13/05 A3030 RMK T01300050 IEM_DS3505
ZGKL,2006-12-04 17:00,ZGKL 041700Z AUTO 05002KT 4SM 12/05 A3030 RMK T01200050 IEM_DS3505
ZGKL,2006-12-04 18:00,ZGKL 041800Z AUTO 02004KT 6SM 12/04 A3027 RMK SLP258 T01160043 57006 IEM_DS3505
ZGKL,2006-12-04 19:00,ZGKL 041900Z AUTO 06002KT 12/06 A3027 RMK T01200060 IEM_DS3505
ZGKL,2006-12-04 20:00,ZGKL 042000Z AUTO 03002KT 12/05 A3027 RMK T01200050 IEM_DS3505
ZGKL,2006-12-04 21:00,ZGKL 042100Z AUTO 02004KT 6SM 11/04 A3027 RMK SLP254 T01120037 57004 IEM_DS3505
ZGKL,2006-12-04 22:00,ZGKL 042200Z AUTO 05004KT 4SM 11/05 A3027 RMK T01100050 IEM_DS3505
ZGKL,2006-12-04 23:00,ZGKL 042300Z AUTO 04002KT 3SM 11/05 A3030 RMK T01100050 IEM_DS3505
ZGKL,2006-12-05 00:00,ZGKL 050000Z AUTO 02004KT 6SM 11/04 A3030 RMK SLP270 T01110041 52015 IEM_DS3505
ZGKL,2006-12-05 01:00,ZGKL 050100Z AUTO 04004KT 3SM 12/05 A3033 RMK T01200050 IEM_DS3505
ZGKL,2006-12-05 02:00,ZGKL 050200Z AUTO 04002KT 3SM 13/05 A3036 RMK T01300050 IEM_DS3505
ZGKL,2006-12-05 03:00,ZGKL 050300Z AUTO 02006KT 5SM 12/04 A3036 RMK SLP284 T01240044 52013 IEM_DS3505
ZGKL,2006-12-05 04:00,ZGKL 050400Z AUTO 11002KT 3SM 13/06 A3033 RMK T01300060 IEM_DS3505
ZGKL,2006-12-05 05:00,ZGKL 050500Z AUTO 05002KT 3SM 14/06 A3030 RMK T01400060 IEM_DS3505
ZGKL,2006-12-05 06:00,ZGKL 050600Z AUTO 02004KT 5SM 14/05 A3027 RMK SLP256 T01400046 57027 IEM_DS3505
ZGKL,2006-12-05 07:00,ZGKL 050700Z AUTO 05002KT 4SM 15/06 A3024 RMK T01500060 IEM_DS3505
ZGKL,2006-12-05 08:00,ZGKL 050800Z AUTO 03004KT 4SM 15/07 A3024 RMK T01500070 IEM_DS3505
ZGKL,2006-12-05 09:00,ZGKL 050900Z AUTO 02004KT 5SM 14/05 A3024 RMK SLP242 T01380047 57014 IEM_DS3505
ZGKL,2006-12-05 10:00,ZGKL 051000Z AUTO 08002KT 4SM 14/07 A3021 RMK T01400070 IEM_DS3505
ZGKL,2006-12-05 11:00,ZGKL 051100Z AUTO 04004KT 4SM 13/06 A3024 RMK T01300060 IEM_DS3505
ZGKL,2006-12-05 12:00,ZGKL 051200Z AUTO 36004KT 5SM 12/05 A3024 RMK SLP246 T01240053 52004 IEM_DS3505
ZGKL,2006-12-05 13:00,ZGKL 051300Z AUTO 05002KT 4SM 12/06 A3024 RMK T01200060 IEM_DS3505
ZGKL,2006-12-05 14:00,ZGKL 051400Z AUTO 05002KT 4SM 12/07 A3024 RMK T01200070 IEM_DS3505
ZGKL,2006-12-05 15:00,ZGKL 051500Z AUTO 02004KT 5SM 12/05 A3024 RMK SLP246 T01200052 54000 IEM_DS3505
ZGKL,2006-12-05 16:00,ZGKL 051600Z AUTO 03002KT 4SM 12/06 A3024 RMK T01200060 IEM_DS3505
ZGKL,2006-12-05 17:00,ZGKL 051700Z AUTO 00000KT 11/06 A3024 RMK T01100060 IEM_DS3505
ZGKL,2006-12-05 18:00,ZGKL 051800Z AUTO 36002KT 4SM 11/05 A3024 RMK SLP243 T01140053 57003 IEM_DS3505
ZGKL,2006-12-05 19:00,ZGKL 051900Z AUTO 04004KT 12/05 A3021 RMK T01200050 IEM_DS3505
ZGKL,2006-12-05 20:00,ZGKL 052000Z AUTO 06004KT 12/05 A3021 RMK T01200050 IEM_DS3505
ZGKL,2006-12-05 21:00,ZGKL 052100Z AUTO 02004KT 4SM 11/05 A3018 RMK SLP225 T01100049 57017 IEM_DS3505
ZGKL,2006-12-05 22:00,ZGKL 052200Z AUTO 05004KT 3SM 11/06 A3018 RMK T01100060 IEM_DS3505
ZGKL,2006-12-05 23:00,ZGKL 052300Z AUTO 05004KT 3SM 11/06 A3018 RMK T01100060 IEM_DS3505
ZGKL,2006-12-06 00:00,ZGKL 060000Z AUTO 02004KT 4SM 11/05 A3018 RMK SLP227 T01080053 52001 IEM_DS3505
ZGKL,2006-12-06 01:00,ZGKL 060100Z AUTO 36002KT 2 1/2SM 11/07 A3018 RMK T01100070 IEM_DS3505
ZGKL,2006-12-06 02:00,ZGKL 060200Z AUTO 01002KT 2 1/2SM 12/07 A3021 RMK T01200070 IEM_DS3505
ZGKL,2006-12-06 03:00,ZGKL 060300Z AUTO 36004KT 4SM 13/06 A3018 RMK SLP225 T01330057 57001 IEM_DS3505
ZGKL,2006-12-06 04:00,ZGKL 060400Z AUTO 35002KT 2 1/2SM 14/07 A3015 RMK T01400070 IEM_DS3505
ZGKL,2006-12-06 05:00,ZGKL 060500Z AUTO 29002KT 2 1/2SM 16/08 A3009 RMK T01600080 IEM_DS3505
ZGKL,2006-12-06 06:00,ZGKL 060600Z AUTO 02002KT 5SM 16/07 A3006 RMK 60000 SLP182 T01580073 57042 IEM_DS3505
ZGKL,2006-12-06 07:00,ZGKL 060700Z AUTO 33004KT 3SM 18/09 A3003 RMK T01800090 IEM_DS3505
ZGKL,2006-12-06 08:00,ZGKL 060800Z AUTO 35004KT 3SM 17/09 A3000 RMK T01700090 IEM_DS3505
ZGKL,2006-12-06 09:00,ZGKL 060900Z AUTO 07004KT 5SM 17/10 A3000 RMK SLP161 T01670096 57020 IEM_DS3505
ZGKL,2006-12-06 10:00,ZGKL 061000Z AUTO 01002KT 2 1/2SM 16/10 A3000 RMK T01600100 IEM_DS3505
ZGKL,2006-12-06 11:00,ZGKL 061100Z AUTO 00000KT 2 1/2SM 15/11 A3003 RMK T01500110 IEM_DS3505
ZGKL,2006-12-06 13:00,ZGKL 061300Z AUTO 34002KT 2 1/2SM 15/11 A3006 RMK T01500110 IEM_DS3505
ZGKL,2006-12-06 14:00,ZGKL 061400Z AUTO 33002KT 2 1/2SM 15/11 A3006 RMK T01500110 IEM_DS3505
ZGKL,2006-12-06 15:00,ZGKL 061500Z AUTO 36004KT 4SM 15/08 A3006 RMK SLP191 T01460085 52016 IEM_DS3505
ZGKL,2006-12-06 16:00,ZGKL 061600Z AUTO 08002KT 2SM 15/10 A3009 RMK T01500100 IEM_DS3505
ZGKL,2006-12-06 17:00,ZGKL 061700Z AUTO 00000KT 15/10 A3009 RMK T01500100 IEM_DS3505
ZGKL,2006-12-06 18:00,ZGKL 061800Z AUTO 04002KT 4SM 13/09 A3009 RMK 60000 SLP192 T01330094 52002 IEM_DS3505
ZGKL,2006-12-06 19:00,ZGKL 061900Z AUTO 06002KT 15/10 A3006 RMK T01500100 IEM_DS3505
ZGKL,2006-12-06 20:00,ZGKL 062000Z AUTO 06004KT 14/10 A3006 RMK T01400100 IEM_DS3505
ZGKL,2006-12-06 21:00,ZGKL 062100Z AUTO 02004KT 4SM 14/09 A3009 RMK 70000 SLP191 T01350090 57001 IEM_DS3505
ZGKL,2006-12-06 22:00,ZGKL 062200Z AUTO 36002KT 2SM 14/10 A3009 RMK T01400100 IEM_DS3505
ZGKL,2006-12-06 23:00,ZGKL 062300Z AUTO 06002KT 1 1/2SM 14/11 A3009 RMK T01400110 IEM_DS3505
ZGKL,2006-12-07 00:00,ZGKL 070000Z AUTO 02004KT 3SM 13/09 A3012 RMK 60000 70000 SLP204 T01320087 52012 IEM_DS3505
ZGKL,2006-12-07 01:00,ZGKL 070100Z AUTO 06002KT 1 1/2SM 14/10 A3015 RMK T01400100 IEM_DS3505
ZGKL,2006-12-07 02:00,ZGKL 070200Z AUTO 05004KT 1 1/2SM 14/10 A3015 RMK T01400100 IEM_DS3505
ZGKL,2006-12-07 03:00,ZGKL 070300Z AUTO 02004KT 2 1/2SM 13/10 A3018 RMK SLP223 T01320096 52019 IEM_DS3505
ZGKL,2006-12-07 04:00,ZGKL 070400Z AUTO 06004KT 2SM 14/10 A3015 RMK T01400100 IEM_DS3505
ZGKL,2006-12-07 05:00,ZGKL 070500Z AUTO 05004KT 1 1/2SM 14/11 A3012 RMK T01400110 IEM_DS3505
ZGKL,2006-12-07 06:00,ZGKL 070600Z AUTO 02008KT 2 1/2SM 13/09 A3012 RMK 60000 SLP199 T01340089 57024 IEM_DS3505
ZGKL,2006-12-07 07:00,ZGKL 070700Z AUTO 08004KT 1 1/4SM 14/10 A3009 RMK T01400100 IEM_DS3505
ZGKL,2006-12-07 08:00,ZGKL 070800Z AUTO 07004KT 1 1/4SM 14/10 A3009 RMK T01400100 IEM_DS3505
ZGKL,2006-12-07 10:00,ZGKL 071000Z AUTO 08002KT 1SM 12/10 A3012 RMK T01200100 IEM_DS3505
ZGKL,2006-12-07 11:00,ZGKL 071100Z AUTO 06004KT 1SM 12/10 A3012 RMK T01200100 IEM_DS3505
ZGKL,2006-12-07 12:00,ZGKL 071200Z AUTO 36008KT 2 1/2SM 11/08 A3015 RMK SLP223 T01100082 52023 IEM_DS3505
ZGKL,2006-12-07 13:00,ZGKL 071300Z AUTO 08004KT 1SM 12/09 A3018 RMK T01200090 IEM_DS3505
ZGKL,2006-12-07 14:00,ZGKL 071400Z AUTO 07002KT 1 1/4SM 11/09 A3021 RMK T01100090 IEM_DS3505
ZGKL,2006-12-07 15:00,ZGKL 071500Z AUTO 02008KT 2 1/2SM 11/08 A3021 RMK SLP232 T01060075 52009 IEM_DS3505
ZGKL,2006-12-07 16:00,ZGKL 071600Z AUTO 11002KT 1 1/4SM 11/08 A3021 RMK T01100080 IEM_DS3505
ZGKL,2006-12-07 17:00,ZGKL 071700Z AUTO 08004KT 11/08 A3018 RMK T01100080 IEM_DS3505
ZGKL,2006-12-07 18:00,ZGKL 071800Z AUTO 02008KT 2 1/2SM 10/07 A3018 RMK 60000 SLP233 T00980069 52001 IEM_DS3505
ZGKL,2006-12-07 19:00,ZGKL 071900Z AUTO 10004KT 10/08 A3021 RMK T01000080 IEM_DS3505
ZGKL,2006-12-07 20:00,ZGKL 072000Z AUTO 10004KT 10/07 A3021 RMK T01000070 IEM_DS3505
ZGKL,2006-12-07 21:00,ZGKL 072100Z AUTO 02010KT 2 1/2SM 09/06 A3021 RMK 70001 SLP239 T00900063 52005 IEM_DS3505
ZGKL,2006-12-07 22:00,ZGKL 072200Z AUTO 08006KT 4SM 09/07 A3024 RMK T00900070 IEM_DS3505
ZGKL,2006-12-07 23:00,ZGKL 072300Z AUTO 06006KT 2 1/2SM 09/07 A3024 RMK T00900070 IEM_DS3505
ZGKL,2006-12-08 00:00,ZGKL 080000Z AUTO 36006KT 5SM 08/07 A3027 RMK 60008 70009 SLP262 T00830066 52022 IEM_DS3505
ZGKL,2006-12-08 01:00,ZGKL 080100Z AUTO 02004KT 3SM 09/07 A3030 RMK T00900070 IEM_DS3505
ZGKL,2006-12-08 02:00,ZGKL 080200Z AUTO 07002KT 3SM 10/07 A3030 RMK T01000070 IEM_DS3505
ZGKL,2006-12-08 03:00,ZGKL 080300Z AUTO 02006KT 6SM 09/06 A3030 RMK SLP269 T00940063 52007 IEM_DS3505
ZGKL,2006-12-08 04:00,ZGKL 080400Z AUTO 07004KT 4SM 11/07 A3027 RMK T01100070 IEM_DS3505
ZGKL,2006-12-08 05:00,ZGKL 080500Z AUTO 08004KT 4SM 11/07 A3024 RMK T01100070 IEM_DS3505
ZGKL,2006-12-08 06:00,ZGKL 080600Z AUTO 02010KT 7SM 10/06 A3024 RMK SLP247 T00970057 57022 IEM_DS3505
ZGKL,2006-12-08 07:00,ZGKL 080700Z AUTO 07006KT 4SM 10/06 A3024 RMK T01000060 IEM_DS3505
ZGKL,2006-12-08 08:00,ZGKL 080800Z AUTO 08004KT 4SM 10/06 A3024 RMK T01000060 IEM_DS3505
ZGKL,2006-12-08 09:00,ZGKL 080900Z AUTO 02008KT 7SM 08/05 A3024 RMK SLP253 T00820050 52005 IEM_DS3505
ZGKL,2006-12-08 10:00,ZGKL 081000Z AUTO 07006KT 4SM 09/06 A3027 RMK T00900060 IEM_DS3505
ZGKL,2006-12-08 11:00,ZGKL 081100Z AUTO 06004KT 4SM 08/05 A3030 RMK T00800050 IEM_DS3505
ZGKL,2006-12-08 12:00,ZGKL 081200Z AUTO 36008KT 7SM 07/04 A3033 RMK SLP284 T00730039 52030 IEM_DS3505
ZGKL,2006-12-08 13:00,ZGKL 081300Z AUTO 07008KT 4SM 08/05 A3036 RMK T00800050 IEM_DS3505
ZGKL,2006-12-08 14:00,ZGKL 081400Z AUTO 07006KT 4SM 07/04 A3039 RMK T00700040 IEM_DS3505
ZGKL,2006-12-08 15:00,ZGKL 081500Z AUTO 02010KT 7SM 07/03 A3042 RMK SLP307 T00670031 52023 IEM_DS3505
ZGKL,2006-12-08 16:00,ZGKL 081600Z AUTO 07008KT 4SM 07/04 A3042 RMK T00700040 IEM_DS3505
ZGKL,2006-12-08 17:00,ZGKL 081700Z AUTO 07008KT 07/04 A3042 RMK T00700040 IEM_DS3505
ZGKL,2006-12-08 18:00,ZGKL 081800Z AUTO 02016KT 7SM 06/03 A3042 RMK SLP308 T00630026 52001 IEM_DS3505
ZGKL,2006-12-08 19:00,ZGKL 081900Z AUTO 06006KT 07/03 A3039 RMK T00700030 IEM_DS3505
ZGKL,2006-12-08 20:00,ZGKL 082000Z AUTO 05004KT 07/03 A3039 RMK T00700030 IEM_DS3505
ZGKL,2006-12-08 21:00,ZGKL 082100Z AUTO 02010KT 7SM 06/02 A3039 RMK 70008 SLP302 T00610022 57007 IEM_DS3505
ZGKL,2006-12-08 22:00,ZGKL 082200Z AUTO 05004KT 4SM 07/03 A3039 RMK T00700030 IEM_DS3505
ZGKL,2006-12-08 23:00,ZGKL 082300Z AUTO 03004KT 4SM 06/03 A3042 RMK T00600030 IEM_DS3505
ZGKL,2006-12-09 00:00,ZGKL 090000Z AUTO 36010KT 7SM 06/03 A3042 RMK 60004 70004 SLP313 T00550028 52011 IEM_DS3505
ZGKL,2006-12-09 01:00,ZGKL 090100Z AUTO 05002KT 4SM 06/04 A3045 RMK T00600040 IEM_DS3505
ZGKL,2006-12-09 02:00,ZGKL 090200Z AUTO 04004KT 4SM 06/05 A3047 RMK T00600050 IEM_DS3505
ZGKL,2006-12-09 03:00,ZGKL 090300Z AUTO 02010KT 4SM 05/04 A3047 RMK SLP332 T00530035 52018 IEM_DS3505
ZGKL,2006-12-09 04:00,ZGKL 090400Z AUTO 08004KT 3SM 06/05 A3045 RMK T00600050 IEM_DS3505
ZGKL,2006-12-09 05:00,ZGKL 090500Z AUTO 06006KT 3SM 06/05 A3042 RMK T00600050 IEM_DS3505
ZGKL,2006-12-09 06:00,ZGKL 090600Z AUTO 36008KT 4SM 06/03 A3039 RMK 60008 SLP301 T00570029 57030 IEM_DS3505
ZGKL,2006-12-09 07:00,ZGKL 090700Z AUTO 05004KT 3SM 07/04 A3036 RMK T00700040 IEM_DS3505
ZGKL,2006-12-09 08:00,ZGKL 090800Z AUTO 05004KT 4SM 07/04 A3036 RMK T00700040 IEM_DS3505
ZGKL,2006-12-09 09:00,ZGKL 090900Z AUTO 02010KT 4SM 06/03 A3036 RMK SLP296 T00600026 57005 IEM_DS3505
ZGKL,2006-12-09 10:00,ZGKL 091000Z AUTO 05006KT 4SM 07/04 A3039 RMK T00700040 IEM_DS3505
ZGKL,2006-12-09 11:00,ZGKL 091100Z AUTO 04004KT 4SM 07/04 A3039 RMK T00700040 IEM_DS3505
ZGKL,2006-12-09 12:00,ZGKL 091200Z AUTO 02010KT 5SM 06/03 A3042 RMK SLP306 T00610026 52009 IEM_DS3505
ZGKL,2006-12-09 13:00,ZGKL 091300Z AUTO 06002KT 4SM 06/04 A3042 RMK T00600040 IEM_DS3505
ZGKL,2006-12-09 14:00,ZGKL 091400Z AUTO 08002KT 3SM 06/04 A3042 RMK T00600040 IEM_DS3505
ZGKL,2006-12-09 15:00,ZGKL 091500Z AUTO 02008KT 5SM 06/02 A3042 RMK SLP314 T00610018 52008 IEM_DS3505
ZGKL,2006-12-09 16:00,ZGKL 091600Z AUTO 06006KT 2 1/2SM 06/03 A3045 RMK T00600030 IEM_DS3505
ZGKL,2006-12-09 17:00,ZGKL 091700Z AUTO 01002KT 06/04 A3045 RMK T00600040 IEM_DS3505
ZGKL,2006-12-09 18:00,ZGKL 091800Z AUTO 36006KT 5SM 05/02 A3045 RMK SLP321 T00520024 52007 IEM_DS3505
ZGKL,2006-12-09 19:00,ZGKL 091900Z AUTO 05002KT 05/04 A3042 RMK T00500040 IEM_DS3505
ZGKL,2006-12-09 20:00,ZGKL 092000Z AUTO 07002KT 05/04 A3042 RMK T00500040 IEM_DS3505
ZGKL,2006-12-09 21:00,ZGKL 092100Z AUTO 04008KT 5SM 05/02 A3042 RMK 70011 SLP310 T00510023 57011 IEM_DS3505
ZGKL,2006-12-09 22:00,ZGKL 092200Z AUTO 03002KT 2 1/2SM 05/04 A3042 RMK T00500040 IEM_DS3505
ZGKL,2006-12-09 23:00,ZGKL 092300Z AUTO 36002KT 2 1/2SM 05/04 A3042 RMK T00500040 IEM_DS3505
ZGKL,2006-12-10 00:00,ZGKL 100000Z AUTO 36008KT 3SM 05/02 A3042 RMK 70007 SLP317 T00480022 52007 IEM_DS3505
ZGKL,2006-12-10 01:00,ZGKL 100100Z AUTO 07004KT 2 1/2SM 06/03 A3042 RMK T00600030 IEM_DS3505
ZGKL,2006-12-10 02:00,ZGKL 100200Z AUTO 05004KT 2 1/2SM 06/03 A3045 RMK T00600030 IEM_DS3505
ZGKL,2006-12-10 03:00,ZGKL 100300Z AUTO 36008KT 5SM 06/02 A3042 RMK SLP311 T00610020 57006 IEM_DS3505
ZGKL,2006-12-10 04:00,ZGKL 100400Z AUTO 06004KT 3SM 07/03 A3039 RMK T00700030 IEM_DS3505
ZGKL,2006-12-10 05:00,ZGKL 100500Z AUTO 06004KT 3SM 07/03 A3033 RMK T00700030 IEM_DS3505
ZGKL,2006-12-10 06:00,ZGKL 100600Z AUTO 36008KT 6SM 07/02 A3030 RMK SLP270 T00670022 57040 IEM_DS3505
ZGKL,2006-12-10 07:00,ZGKL 100700Z AUTO 07002KT 3SM 08/03 A3027 RMK T00800030 IEM_DS3505
ZGKL,2006-12-10 08:00,ZGKL 100800Z AUTO 07004KT 3SM 08/03 A3027 RMK T00800030 IEM_DS3505
ZGKL,2006-12-10 09:00,ZGKL 100900Z AUTO 02006KT 5SM 06/02 A3027 RMK SLP260 T00630020 57010 IEM_DS3505
ZGKL,2006-12-10 10:00,ZGKL 101000Z AUTO 08004KT 2 1/2SM 07/03 A3027 RMK T00700030 IEM_DS3505
ZGKL,2006-12-10 11:00,ZGKL 101100Z AUTO 08004KT 2 1/2SM 07/03 A3027 RMK T00700030 IEM_DS3505
ZGKL,2006-12-10 12:00,ZGKL 101200Z AUTO 02004KT 5SM 06/02 A3027 RMK SLP263 T00600025 52003 IEM_DS3505
ZGKL,2006-12-10 13:00,ZGKL 101300Z AUTO 04002KT 2 1/2SM 07/03 A3027 RMK T00700030 IEM_DS3505
ZGKL,2006-12-10 14:00,ZGKL 101400Z AUTO 04002KT 2 1/2SM 07/03 A3030 RMK T00700030 IEM_DS3505
ZGKL,2006-12-10 15:00,ZGKL 101500Z AUTO 02004KT 5SM 06/02 A3030 RMK SLP270 T00570023 52007 IEM_DS3505
ZGKL,2006-12-10 16:00,ZGKL 101600Z AUTO 04002KT 2SM 06/04 A3030 RMK T00600040 IEM_DS3505
ZGKL,2006-12-10 17:00,ZGKL 101700Z AUTO 11002KT 05/04 A3030 RMK T00500040 IEM_DS3505
ZGKL,2006-12-10 18:00,ZGKL 101800Z AUTO 07002KT 4SM 05/04 A3030 RMK 60000 SLP268 T00480036 57002 IEM_DS3505
ZGKL,2006-12-10 19:00,ZGKL 101900Z AUTO 06002KT 05/04 A3030 RMK T00500040 IEM_DS3505
ZGKL,2006-12-10 20:00,ZGKL 102000Z AUTO 09002KT 05/04 A3030 RMK T00500040 IEM_DS3505
ZGKL,2006-12-10 21:00,ZGKL 102100Z AUTO 04006KT 4SM 05/04 A3030 RMK 70000 SLP266 T00490037 57002 IEM_DS3505
ZGKL,2006-12-10 22:00,ZGKL 102200Z AUTO 07002KT 1 1/4SM 05/04 A3030 RMK T00500040 IEM_DS3505
ZGKL,2006-12-10 23:00,ZGKL 102300Z AUTO 06002KT 1SM 05/05 A3030 RMK T00500050 IEM_DS3505
ZGKL,2006-12-11 00:00,ZGKL 110000Z AUTO 02002KT 4SM 05/03 A3030 RMK 60000 70000 SLP274 T00540034 52008 IEM_DS3505
ZGKL,2006-12-11 01:00,ZGKL 110100Z AUTO 07002KT 1SM 06/05 A3033 RMK T00600050 IEM_DS3505
ZGKL,2006-12-11 02:00,ZGKL 110200Z AUTO 00000KT 1 1/2SM 07/05 A3033 RMK T00700050 IEM_DS3505
ZGKL,2006-12-11 03:00,ZGKL 110300Z AUTO 04002KT 5SM 07/04 A3030 RMK SLP276 T00730039 52002 IEM_DS3505
ZGKL,2006-12-11 04:00,ZGKL 110400Z AUTO 04002KT 3SM 08/05 A3027 RMK T00800050 IEM_DS3505
ZGKL,2006-12-11 05:00,ZGKL 110500Z AUTO 03002KT 3SM 08/06 A3024 RMK T00800060 IEM_DS3505
ZGKL,2006-12-11 06:00,ZGKL 110600Z AUTO 02004KT 8SM 09/04 A3021 RMK SLP243 T00880036 57032 IEM_DS3505
ZGKL,2006-12-11 07:00,ZGKL 110700Z AUTO 29002KT 3SM 09/06 A3021 RMK T00900060 IEM_DS3505
ZGKL,2006-12-11 08:00,ZGKL 110800Z AUTO 07002KT 3SM 10/05 A3018 RMK T01000050 IEM_DS3505
ZGKL,2006-12-11 09:00,ZGKL 110900Z AUTO 04004KT 8SM 09/04 A3018 RMK SLP232 T00870037 57011 IEM_DS3505
ZGKL,2006-12-11 10:00,ZGKL 111000Z AUTO 06004KT 3SM 09/04 A3018 RMK T00900040 IEM_DS3505
ZGKL,2006-12-11 11:00,ZGKL 111100Z AUTO 05002KT 2 1/2SM 09/05 A3021 RMK T00900050 IEM_DS3505
ZGKL,2006-12-11 12:00,ZGKL 111200Z AUTO 02002KT 7SM 08/04 A3021 RMK SLP243 T00800040 52011 IEM_DS3505
ZGKL,2006-12-11 13:00,ZGKL 111300Z AUTO 08004KT 2 1/2SM 08/05 A3024 RMK T00800050 IEM_DS3505
ZGKL,2006-12-11 14:00,ZGKL 111400Z AUTO 08004KT 2SM 08/06 A3024 RMK T00800060 IEM_DS3505
ZGKL,2006-12-11 15:00,ZGKL 111500Z AUTO 07002KT 7SM 07/05 A3024 RMK SLP247 T00730049 52005 IEM_DS3505
ZGKL,2006-12-11 16:00,ZGKL 111600Z AUTO 04002KT 2SM 07/05 A3024 RMK T00700050 IEM_DS3505
ZGKL,2006-12-11 17:00,ZGKL 111700Z AUTO 00000KT 07/06 A3024 RMK T00700060 IEM_DS3505
ZGKL,2006-12-11 18:00,ZGKL 111800Z AUTO 07002KT 7SM 07/06 A3021 RMK 60000 SLP241 T00670055 57006 IEM_DS3505
ZGKL,2006-12-11 19:00,ZGKL 111900Z AUTO 05002KT 07/06 A3021 RMK T00700060 IEM_DS3505
ZGKL,2006-12-11 20:00,ZGKL 112000Z AUTO 08002KT 07/06 A3018 RMK T00700060 IEM_DS3505
ZGKL,2006-12-11 21:00,ZGKL 112100Z AUTO 02004KT 5SM 06/06 A3018 RMK 70004 SLP230 T00630057 57011 IEM_DS3505
ZGKL,2006-12-11 22:00,ZGKL 112200Z AUTO 08002KT 1SM 07/06 A3018 RMK T00700060 IEM_DS3505
ZGKL,2006-12-11 23:00,ZGKL 112300Z AUTO 08002KT 1SM 07/06 A3018 RMK T00700060 IEM_DS3505
ZGKL,2006-12-12 00:00,ZGKL 120000Z AUTO 04004KT 3SM 07/06 A3021 RMK 60004 70005 SLP238 T00670060 52008 IEM_DS3505
ZGKL,2006-12-12 01:00,ZGKL 120100Z AUTO 05002KT 1 1/4SM 07/06 A3021 RMK T00700060 IEM_DS3505
ZGKL,2006-12-12 02:00,ZGKL 120200Z AUTO 07002KT 1 1/4SM 08/07 A3024 RMK T00800070 IEM_DS3505
ZGKL,2006-12-12 03:00,ZGKL 120300Z AUTO 02002KT 2 1/2SM 08/06 A3021 RMK SLP242 T00780064 52004 IEM_DS3505
ZGKL,2006-12-12 04:00,ZGKL 120400Z AUTO 08002KT 1 1/4SM 08/07 A3018 RMK T00800070 IEM_DS3505
ZGKL,2006-12-12 05:00,ZGKL 120500Z AUTO 06002KT 1 1/4SM 08/07 A3015 RMK T00800070 IEM_DS3505
ZGKL,2006-12-12 06:00,ZGKL 120600Z AUTO 36002KT 3SM 09/07 A3012 RMK 60000 SLP210 T00880068 57031 IEM_DS3505
ZGKL,2006-12-12 07:00,ZGKL 120700Z AUTO 00000KT 1 1/2SM 09/08 A3012 RMK T00900080 IEM_DS3505
ZGKL,2006-12-12 08:00,ZGKL 120800Z AUTO 35002KT 2 1/2SM 09/08 A3012 RMK T00900080 IEM_DS3505
ZGKL,2006-12-12 09:00,ZGKL 120900Z AUTO 02004KT 3SM 10/07 A3012 RMK SLP207 T00950071 57003 IEM_DS3505
ZGKL,2006-12-12 10:00,ZGKL 121000Z AUTO 35002KT 2 1/2SM 09/08 A3012 RMK T00900080 IEM_DS3505
ZGKL,2006-12-12 11:00,ZGKL 121100Z AUTO 02002KT 2 1/2SM 10/08 A3015 RMK T01000080 IEM_DS3505
ZGKL,2006-12-12 12:00,ZGKL 121200Z AUTO 02002KT 3SM 09/07 A3018 RMK SLP231 T00930071 52023 IEM_DS3505
ZGKL,2006-12-12 13:00,ZGKL 121300Z AUTO 36002KT 2 1/2SM 10/09 A3021 RMK T01000090 IEM_DS3505
ZGKL,2006-12-12 14:00,ZGKL 121400Z AUTO 09002KT 2 1/2SM 10/09 A3024 RMK T01000090 IEM_DS3505
ZGKL,2006-12-12 15:00,ZGKL 121500Z AUTO 02004KT 3SM 10/07 A3024 RMK SLP253 T01000071 52023 IEM_DS3505
ZGKL,2006-12-12 16:00,ZGKL 121600Z AUTO 01002KT 2SM 10/09 A3027 RMK T01000090 IEM_DS3505
ZGKL,2006-12-12 17:00,ZGKL 121700Z AUTO 05002KT 10/09 A3027 RMK T01000090 IEM_DS3505
ZGKL,2006-12-12 18:00,ZGKL 121800Z AUTO 36010KT 3SM 10/07 A3027 RMK SLP255 T00960069 52002 IEM_DS3505
ZGKL,2006-12-12 19:00,ZGKL 121900Z AUTO 06002KT 09/09 A3027 RMK T00900090 IEM_DS3505
ZGKL,2006-12-12 20:00,ZGKL 122000Z AUTO 03002KT 09/09 A3027 RMK T00900090 IEM_DS3505
ZGKL,2006-12-12 21:00,ZGKL 122100Z AUTO 36010KT 3SM 10/06 A3027 RMK 70003 SLP255 T00950064 54000 IEM_DS3505
ZGKL,2006-12-12 22:00,ZGKL 122200Z AUTO 01002KT 1 1/2SM 09/08 A3027 RMK T00900080 IEM_DS3505
ZGKL,2006-12-12 23:00,ZGKL 122300Z AUTO 05004KT 2SM 09/07 A3030 RMK T00900070 IEM_DS3505
ZGKL,2006-12-13 00:00,ZGKL 130000Z AUTO 36008KT 6SM 09/06 A3030 RMK 60000 70001 SLP272 T00920059 52016 IEM_DS3505
ZGKL,2006-12-13 01:00,ZGKL 130100Z AUTO 04002KT 4SM 10/08 A3033 RMK T01000080 IEM_DS3505
ZGKL,2006-12-13 02:00,ZGKL 130200Z AUTO 04004KT 5SM 11/08 A3033 RMK T01100080 IEM_DS3505
ZGKL,2006-12-13 03:00,ZGKL 130300Z AUTO 02008KT 10SM 12/06 A3033 RMK SLP282 T01150062 52011 IEM_DS3505
ZGKL,2006-12-13 04:00,ZGKL 130400Z AUTO 06008KT 5SM 12/07 A3033 RMK T01200070 IEM_DS3505
ZGKL,2006-12-13 05:00,ZGKL 130500Z AUTO 07008KT 7SM 12/06 A3027 RMK T01200060 IEM_DS3505
ZGKL,2006-12-13 06:00,ZGKL 130600Z AUTO 02010KT 9SM 12/04 A3027 RMK SLP253 T01190044 57028 IEM_DS3505
ZGKL,2006-12-13 07:00,ZGKL 130700Z AUTO 04006KT 7SM 12/06 A3024 RMK T01200060 IEM_DS3505
ZGKL,2006-12-13 08:00,ZGKL 130800Z AUTO 04004KT 7SM 12/06 A3024 RMK T01200060 IEM_DS3505
ZGKL,2006-12-13 09:00,ZGKL 130900Z AUTO 04008KT 9SM 12/04 A3024 RMK SLP250 T01150035 57003 IEM_DS3505
ZGKL,2006-12-13 10:00,ZGKL 131000Z AUTO 07002KT 6SM 11/05 A3027 RMK T01100050 IEM_DS3505
ZGKL,2006-12-13 11:00,ZGKL 131100Z AUTO 04002KT 5SM 11/06 A3027 RMK T01100060 IEM_DS3505
ZGKL,2006-12-13 12:00,ZGKL 131200Z AUTO 02008KT 8SM 11/04 A3030 RMK SLP264 T01060041 52013 IEM_DS3505
ZGKL,2006-12-13 13:00,ZGKL 131300Z AUTO 02004KT 5SM 11/05 A3030 RMK T01100050 IEM_DS3505
ZGKL,2006-12-13 14:00,ZGKL 131400Z AUTO 01002KT 4SM 10/06 A3030 RMK T01000060 IEM_DS3505
ZGKL,2006-12-13 15:00,ZGKL 131500Z AUTO 36008KT 8SM 10/03 A3030 RMK SLP261 T01010034 57002 IEM_DS3505
ZGKL,2006-12-13 16:00,ZGKL 131600Z AUTO 35002KT 4SM 10/06 A3027 RMK T01000060 IEM_DS3505
ZGKL,2006-12-13 17:00,ZGKL 131700Z AUTO 00000KT 08/07 A3027 RMK T00800070 IEM_DS3505
ZGKL,2006-12-13 18:00,ZGKL 131800Z AUTO 02006KT 8SM 10/03 A3027 RMK SLP258 T00960027 57003 IEM_DS3505
ZGKL,2006-12-13 19:00,ZGKL 131900Z AUTO 02002KT 07/06 A3027 RMK T00700060 IEM_DS3505
ZGKL,2006-12-13 20:00,ZGKL 132000Z AUTO 00000KT 07/06 A3024 RMK T00700060 IEM_DS3505
ZGKL,2006-12-13 21:00,ZGKL 132100Z AUTO 36008KT 7SM 09/02 A3024 RMK 70000 SLP246 T00890022 57012 IEM_DS3505
ZGKL,2006-12-13 22:00,ZGKL 132200Z AUTO 33002KT 4SM 05/05 A3024 RMK T00500050 IEM_DS3505
ZGKL,2006-12-13 23:00,ZGKL 132300Z AUTO 06002KT 6SM 05/04 A3027 RMK T00500040 IEM_DS3505
ZGKL,2006-12-14 00:00,ZGKL 140000Z AUTO 02006KT 7SM 09/03 A3027 RMK SLP261 T00880026 52014 IEM_DS3505
ZGKL,2006-12-14 01:00,ZGKL 140100Z AUTO 31002KT 6SM 09/06 A3030 RMK T00900060 IEM_DS3505
ZGKL,2006-12-14 02:00,ZGKL 140200Z AUTO 32002KT 6SM 11/05 A3030 RMK T01100050 IEM_DS3505
ZGKL,2006-12-14 03:00,ZGKL 140300Z AUTO 02008KT 6SM 14/01 A3027 RMK SLP256 T01370010 57003 IEM_DS3505
ZGKL,2006-12-14 04:00,ZGKL 140400Z AUTO 29004KT 6SM 15/04 A3024 RMK T01500040 IEM_DS3505
ZGKL,2006-12-14 05:00,ZGKL 140500Z AUTO 07008KT 6SM 17/01 A3018 RMK T01700010 IEM_DS3505
ZGKL,2006-12-14 06:00,ZGKL 140600Z AUTO 02004KT 7SM 17/M02 A3012 RMK SLP208 T01741018 57046 IEM_DS3505
ZGKL,2006-12-14 07:00,ZGKL 140700Z AUTO 09006KT 6SM 18/M02 A3009 RMK T01801020 IEM_DS3505
ZGKL,2006-12-14 08:00,ZGKL 140800Z AUTO 05004KT 6SM 18/M01 A3009 RMK T01801010 IEM_DS3505
ZGKL,2006-12-14 09:00,ZGKL 140900Z AUTO 04004KT 9SM 16/M00 A3009 RMK SLP196 T01651002 57013 IEM_DS3505
ZGKL,2006-12-14 10:00,ZGKL 141000Z AUTO 07002KT 6SM 14/06 A3009 RMK T01400060 IEM_DS3505
ZGKL,2006-12-14 11:00,ZGKL 141100Z AUTO 07004KT 6SM 13/01 A3012 RMK T01300010 IEM_DS3505
ZGKL,2006-12-14 12:00,ZGKL 141200Z AUTO 02006KT 9SM 12/M00 A3015 RMK SLP214 T01241005 52017 IEM_DS3505
ZGKL,2006-12-14 13:00,ZGKL 141300Z AUTO 34002KT 6SM 10/05 A3018 RMK T01000050 IEM_DS3505
ZGKL,2006-12-14 14:00,ZGKL 141400Z AUTO 21002KT 6SM 08/05 A3021 RMK T00800050 IEM_DS3505
ZGKL,2006-12-14 15:00,ZGKL 141500Z AUTO 02004KT 9SM 10/00 A3021 RMK SLP233 T01050000 52019 IEM_DS3505
ZGKL,2006-12-14 16:00,ZGKL 141600Z AUTO 35002KT 06/05 A3021 RMK T00600050 IEM_DS3505
ZGKL,2006-12-14 17:00,ZGKL 141700Z AUTO 09002KT 05/04 A3021 RMK T00500040 IEM_DS3505
ZGKL,2006-12-14 18:00,ZGKL 141800Z AUTO 36002KT 8SM 09/02 A3021 RMK SLP230 T00900017 57002 IEM_DS3505
ZGKL,2006-12-14 19:00,ZGKL 141900Z AUTO 04002KT 04/03 A3021 RMK T00400030 IEM_DS3505
ZGKL,2006-12-14 20:00,ZGKL 142000Z AUTO 05002KT 04/03 A3021 RMK T00400030 IEM_DS3505
ZGKL,2006-12-14 21:00,ZGKL 142100Z AUTO 36004KT 8SM 08/02 A3018 RMK SLP226 T00840018 57004 IEM_DS3505
ZGKL,2006-12-14 22:00,ZGKL 142200Z AUTO 07002KT 6SM 04/04 A3021 RMK T00400040 IEM_DS3505
ZGKL,2006-12-14 23:00,ZGKL 142300Z AUTO 35002KT 4SM 04/03 A3021 RMK T00400030 IEM_DS3505
ZGKL,2006-12-15 00:00,ZGKL 150000Z AUTO 02002KT 9SM 09/02 A3024 RMK SLP244 T00880024 52016 IEM_DS3505
ZGKL,2006-12-15 01:00,ZGKL 150100Z AUTO 11002KT 5SM 09/06 A3027 RMK T00900060 IEM_DS3505
ZGKL,2006-12-15 02:00,ZGKL 150200Z AUTO 29002KT 6SM 11/07 A3027 RMK T01100070 IEM_DS3505
ZGKL,2006-12-15 03:00,ZGKL 150300Z AUTO 02004KT 9SM 14/02 A3027 RMK SLP253 T01430022 52010 IEM_DS3505
ZGKL,2006-12-15 04:00,ZGKL 150400Z AUTO 32004KT 6SM 15/05 A3024 RMK T01500050 IEM_DS3505
ZGKL,2006-12-15 05:00,ZGKL 150500Z AUTO 05006KT 6SM 17/03 A3021 RMK T01700030 IEM_DS3505
ZGKL,2006-12-15 06:00,ZGKL 150600Z AUTO 02008KT 9SM 16/01 A3018 RMK SLP230 T01620007 57022 IEM_DS3505
ZGKL,2006-12-15 07:00,ZGKL 150700Z AUTO 04006KT 6SM 18/03 A3018 RMK T01800030 IEM_DS3505
ZGKL,2006-12-15 08:00,ZGKL 150800Z AUTO 07006KT 6SM 17/03 A3018 RMK T01700030 IEM_DS3505
ZGKL,2006-12-15 09:00,ZGKL 150900Z AUTO 36008KT 8SM 15/02 A3018 RMK SLP231 T01500015 54000 IEM_DS3505
ZGKL,2006-12-15 10:00,ZGKL 151000Z AUTO 01004KT 6SM 14/04 A3021 RMK T01400040 IEM_DS3505
ZGKL,2006-12-15 11:00,ZGKL 151100Z AUTO 04002KT 6SM 11/07 A3024 RMK T01100070 IEM_DS3505
ZGKL,2006-12-15 12:00,ZGKL 151200Z AUTO 02006KT 8SM 14/02 A3027 RMK SLP256 T01360019 52024 IEM_DS3505
ZGKL,2006-12-15 13:00,ZGKL 151300Z AUTO 00000KT 5SM 10/08 A3030 RMK T01000080 IEM_DS3505
ZGKL,2006-12-15 14:00,ZGKL 151400Z AUTO 10002KT 5SM 10/08 A3033 RMK T01000080 IEM_DS3505
ZGKL,2006-12-15 15:00,ZGKL 151500Z AUTO 02006KT 7SM 13/03 A3036 RMK SLP283 T01330028 52028 IEM_DS3505
ZGKL,2006-12-15 16:00,ZGKL 151600Z AUTO 35002KT 4SM 11/08 A3036 RMK T01100080 IEM_DS3505
ZGKL,2006-12-15 17:00,ZGKL 151700Z AUTO 00000KT 10/08 A3039 RMK T01000080 IEM_DS3505
ZGKL,2006-12-15 18:00,ZGKL 151800Z AUTO 02008KT 7SM 13/02 A3039 RMK SLP293 T01330022 52011 IEM_DS3505
ZGKL,2006-12-15 19:00,ZGKL 151900Z AUTO 04002KT 09/08 A3039 RMK T00900080 IEM_DS3505
ZGKL,2006-12-15 20:00,ZGKL 152000Z AUTO 00000KT 10/08 A3039 RMK T01000080 IEM_DS3505
ZGKL,2006-12-15 21:00,ZGKL 152100Z AUTO 02008KT 7SM 13/02 A3039 RMK 70000 SLP297 T01280021 52003 IEM_DS3505
ZGKL,2006-12-15 22:00,ZGKL 152200Z AUTO 15002KT 6SM 08/07 A3042 RMK T00800070 IEM_DS3505
ZGKL,2006-12-15 23:00,ZGKL 152300Z AUTO 11002KT 6SM 06/05 A3042 RMK T00600050 IEM_DS3505
ZGKL,2006-12-16 00:00,ZGKL 160000Z AUTO 02008KT 9SM 12/02 A3045 RMK 60000 70000 SLP312 T01170016 52014 IEM_DS3505
ZGKL,2006-12-16 01:00,ZGKL 160100Z AUTO 31002KT 6SM 11/07 A3047 RMK T01100070 IEM_DS3505
ZGKL,2006-12-16 02:00,ZGKL 160200Z AUTO 02006KT 6SM 15/02 A3047 RMK T01500020 IEM_DS3505
ZGKL,2006-12-16 03:00,ZGKL 160300Z AUTO 02012KT 9SM 16/M03 A3047 RMK SLP319 T01601030 52008 IEM_DS3505
ZGKL,2006-12-16 04:00,ZGKL 160400Z AUTO 06008KT 6SM 18/00 A3045 RMK T01800000 IEM_DS3505
ZGKL,2006-12-16 05:00,ZGKL 160500Z AUTO 07008KT 6SM 19/M01 A3039 RMK T01901010 IEM_DS3505
ZGKL,2006-12-16 06:00,ZGKL 160600Z AUTO 02010KT 12SM 19/M05 A3036 RMK SLP283 T01871047 57034 IEM_DS3505
ZGKL,2006-12-16 07:00,ZGKL 160700Z AUTO 09010KT 6SM 19/M03 A3033 RMK T01901030 IEM_DS3505
ZGKL,2006-12-16 08:00,ZGKL 160800Z AUTO 05008KT 6SM 19/M02 A3033 RMK T01901020 IEM_DS3505
ZGKL,2006-12-16 09:00,ZGKL 160900Z AUTO 07008KT 15SM 18/M05 A3033 RMK SLP277 T01761050 57006 IEM_DS3505
ZGKL,2006-12-16 10:00,ZGKL 161000Z AUTO 05004KT 6SM 15/M02 A3036 RMK T01501020 IEM_DS3505
ZGKL,2006-12-16 11:00,ZGKL 161100Z AUTO 32002KT 6SM 13/00 A3039 RMK T01300000 IEM_DS3505
ZGKL,2006-12-16 12:00,ZGKL 161200Z AUTO 02006KT 11SM 13/M03 A3039 RMK SLP300 T01301033 52020 IEM_DS3505
ZGKL,2006-12-16 13:00,ZGKL 161300Z AUTO 00000KT 6SM 07/04 A3042 RMK T00700040 IEM_DS3505
ZGKL,2006-12-16 14:00,ZGKL 161400Z AUTO 04002KT 6SM 06/03 A3042 RMK T00600030 IEM_DS3505
ZGKL,2006-12-16 15:00,ZGKL 161500Z AUTO 04004KT 10SM 11/M03 A3045 RMK SLP310 T01121029 52011 IEM_DS3505
ZGKL,2006-12-16 16:00,ZGKL 161600Z AUTO 04002KT 4SM 04/03 A3045 RMK T00400030 IEM_DS3505
ZGKL,2006-12-16 17:00,ZGKL 161700Z AUTO 04002KT 4SM 04/03 A3045 RMK T00400030 IEM_DS3505
ZGKL,2006-12-16 18:00,ZGKL 161800Z AUTO 04002KT 9SM 08/M02 A3045 RMK SLP311 T00831021 52001 IEM_DS3505
ZGKL,2006-12-16 19:00,ZGKL 161900Z AUTO 09002KT 04/01 A3042 RMK T00400010 IEM_DS3505
ZGKL,2006-12-16 20:00,ZGKL 162000Z AUTO 05002KT 04/01 A3042 RMK T00400010 IEM_DS3505
ZGKL,2006-12-16 21:00,ZGKL 162100Z AUTO 02004KT 9SM 07/M01 A3042 RMK SLP303 T00661011 57009 IEM_DS3505
ZGKL,2006-12-16 22:00,ZGKL 162200Z AUTO 35002KT 4SM 02/01 A3042 RMK T00200010 IEM_DS3505
ZGKL,2006-12-16 23:00,ZGKL 162300Z AUTO 02002KT 6SM 01/01 A3045 RMK T00100010 IEM_DS3505
ZGKL,2006-12-17 00:00,ZGKL 170000Z AUTO 02004KT 9SM 08/M03 A3047 RMK SLP322 T00781028 52017 IEM_DS3505
ZGKL,2006-12-17 01:00,ZGKL 170100Z AUTO 10002KT 6SM 07/03 A3047 RMK T00700030 IEM_DS3505
ZGKL,2006-12-17 02:00,ZGKL 170200Z AUTO 01002KT 6SM 10/02 A3047 RMK T01000020 IEM_DS3505
ZGKL,2006-12-17 03:00,ZGKL 170300Z AUTO 02006KT 10SM 14/M03 A3047 RMK SLP319 T01411032 57001 IEM_DS3505
ZGKL,2006-12-17 04:00,ZGKL 170400Z AUTO 05006KT 6SM 16/M04 A3042 RMK T01601040 IEM_DS3505
ZGKL,2006-12-17 05:00,ZGKL 170500Z AUTO 06006KT 6SM 17/M05 A3036 RMK T01701050 IEM_DS3505
ZGKL,2006-12-17 06:00,ZGKL 170600Z AUTO 36006KT 11SM 18/M04 A3033 RMK SLP272 T01751044 57046 IEM_DS3505
ZGKL,2006-12-17 07:00,ZGKL 170700Z AUTO 04006KT 6SM 18/M05 A3030 RMK T01801050 IEM_DS3505
ZGKL,2006-12-17 08:00,ZGKL 170800Z AUTO 06008KT 6SM 18/M03 A3027 RMK T01801030 IEM_DS3505
ZGKL,2006-12-17 09:00,ZGKL 170900Z AUTO 02008KT 12SM 16/M03 A3027 RMK SLP255 T01631032 57018 IEM_DS3505
ZGKL,2006-12-17 10:00,ZGKL 171000Z AUTO 09004KT 6SM 14/M01 A3027 RMK T01401010 IEM_DS3505
ZGKL,2006-12-17 11:00,ZGKL 171100Z AUTO 05006KT 6SM 13/M01 A3030 RMK T01301010 IEM_DS3505
ZGKL,2006-12-17 12:00,ZGKL 171200Z AUTO 04004KT 11SM 12/M02 A3033 RMK SLP279 T01191016 52023 IEM_DS3505
ZGKL,2006-12-17 13:00,ZGKL 171300Z AUTO 02006KT 6SM 12/M02 A3036 RMK T01201020 IEM_DS3505
ZGKL,2006-12-17 14:00,ZGKL 171400Z AUTO 33002KT 6SM 09/00 A3036 RMK T00900000 IEM_DS3505
ZGKL,2006-12-17 15:00,ZGKL 171500Z AUTO 02004KT 10SM 10/M01 A3039 RMK SLP293 T01021012 52015 IEM_DS3505
ZGKL,2006-12-17 16:00,ZGKL 171600Z AUTO 00000KT 6SM 04/02 A3039 RMK T00400020 IEM_DS3505
ZGKL,2006-12-17 17:00,ZGKL 171700Z AUTO 05002KT 03/02 A3039 RMK T00300020 IEM_DS3505
ZGKL,2006-12-17 18:00,ZGKL 171800Z AUTO 36002KT 10SM 08/M01 A3042 RMK SLP299 T00851008 52007 IEM_DS3505
ZGKL,2006-12-17 19:00,ZGKL 171900Z AUTO 33002KT 02/01 A3039 RMK T00200010 IEM_DS3505
ZGKL,2006-12-17 20:00,ZGKL 172000Z AUTO 04002KT 02/01 A3039 RMK T00200010 IEM_DS3505
ZGKL,2006-12-17 21:00,ZGKL 172100Z AUTO 02006KT 9SM 07/M01 A3039 RMK SLP300 T00731011 54000 IEM_DS3505
ZGKL,2006-12-17 22:00,ZGKL 172200Z AUTO 02002KT 6SM 01/00 A3042 RMK T00100000 IEM_DS3505
ZGKL,2006-12-17 23:00,ZGKL 172300Z AUTO 04002KT 6SM 01/00 A3042 RMK T00100000 IEM_DS3505
ZGKL,2006-12-18 00:00,ZGKL 180000Z AUTO 04004KT 8SM 07/M01 A3045 RMK SLP315 T00701014 52013 IEM_DS3505
ZGKL,2006-12-18 01:00,ZGKL 180100Z AUTO 02002KT 6SM 06/03 A3045 RMK T00600030 IEM_DS3505
ZGKL,2006-12-18 02:00,ZGKL 180200Z AUTO 30002KT 6SM 10/02 A3047 RMK T01000020 IEM_DS3505
ZGKL,2006-12-18 03:00,ZGKL 180300Z AUTO 36006KT 8SM 13/M02 A3045 RMK SLP316 T01271024 52002 IEM_DS3505
ZGKL,2006-12-18 04:00,ZGKL 180400Z AUTO 13004KT 6SM 14/M01 A3042 RMK T01401010 IEM_DS3505
ZGKL,2006-12-18 05:00,ZGKL 180500Z AUTO 02004KT 6SM 16/M01 A3036 RMK T01601010 IEM_DS3505
ZGKL,2006-12-18 06:00,ZGKL 180600Z AUTO 18002KT 9SM 16/M01 A3030 RMK SLP271 T01621014 57043 IEM_DS3505
ZGKL,2006-12-18 07:00,ZGKL 180700Z AUTO 18002KT 6SM 18/M01 A3030 RMK T01801010 IEM_DS3505
ZGKL,2006-12-18 08:00,ZGKL 180800Z AUTO 01002KT 6SM 17/M01 A3030 RMK T01701010 IEM_DS3505
ZGKL,2006-12-18 09:00,ZGKL 180900Z AUTO 29002KT 9SM 17/M02 A3030 RMK SLP263 T01681023 57008 IEM_DS3505
ZGKL,2006-12-18 10:00,ZGKL 181000Z AUTO 04002KT 6SM 12/05 A3030 RMK T01200050 IEM_DS3505
ZGKL,2006-12-18 11:00,ZGKL 181100Z AUTO 05002KT 6SM 08/05 A3033 RMK T00800050 IEM_DS3505
ZGKL,2006-12-18 12:00,ZGKL 181200Z AUTO 02004KT 8SM 12/M00 A3036 RMK SLP290 T01181004 52024 IEM_DS3505
ZGKL,2006-12-18 13:00,ZGKL 181300Z AUTO 32002KT 6SM 07/05 A3039 RMK T00700050 IEM_DS3505
ZGKL,2006-12-18 14:00,ZGKL 181400Z AUTO 04002KT 6SM 07/05 A3039 RMK T00700050 IEM_DS3505
ZGKL,2006-12-18 15:00,ZGKL 181500Z AUTO 02004KT 8SM 11/M01 A3039 RMK SLP300 T01071010 52012 IEM_DS3505
ZGKL,2006-12-18 16:00,ZGKL 181600Z AUTO 35002KT 6SM 05/04 A3039 RMK T00500040 IEM_DS3505
ZGKL,2006-12-18 17:00,ZGKL 181700Z AUTO 05002KT 05/03 A3039 RMK T00500030 IEM_DS3505
ZGKL,2006-12-18 18:00,ZGKL 181800Z AUTO 02004KT 8SM 10/M01 A3042 RMK SLP301 T00951012 52001 IEM_DS3505
ZGKL,2006-12-18 19:00,ZGKL 181900Z AUTO 36002KT 03/03 A3039 RMK T00300030 IEM_DS3505
ZGKL,2006-12-18 20:00,ZGKL 182000Z AUTO 06002KT 03/02 A3039 RMK T00300020 IEM_DS3505
ZGKL,2006-12-18 21:00,ZGKL 182100Z AUTO 02006KT 8SM 08/M01 A3039 RMK SLP294 T00831010 57007 IEM_DS3505
ZGKL,2006-12-18 22:00,ZGKL 182200Z AUTO 04002KT 6SM 02/01 A3039 RMK T00200010 IEM_DS3505
ZGKL,2006-12-18 23:00,ZGKL 182300Z AUTO 06002KT 6SM 02/01 A3042 RMK T00200010 IEM_DS3505
ZGKL,2006-12-19 00:00,ZGKL 190000Z AUTO 02002KT 9SM 07/M01 A3042 RMK SLP309 T00731011 52013 IEM_DS3505
ZGKL,2006-12-19 01:00,ZGKL 190100Z AUTO 16002KT 6SM 05/04 A3045 RMK T00500040 IEM_DS3505
ZGKL,2006-12-19 02:00,ZGKL 190200Z AUTO 32002KT 6SM 10/06 A3047 RMK T01000060 IEM_DS3505
ZGKL,2006-12-19 03:00,ZGKL 190300Z AUTO 04006KT 8SM 14/M02 A3045 RMK SLP317 T01431022 52010 IEM_DS3505
ZGKL,2006-12-19 04:00,ZGKL 190400Z AUTO 13002KT 6SM 16/00 A3042 RMK T01600000 IEM_DS3505
ZGKL,2006-12-19 05:00,ZGKL 190500Z AUTO 08008KT 6SM 17/M02 A3039 RMK T01701020 IEM_DS3505
ZGKL,2006-12-19 06:00,ZGKL 190600Z AUTO 02010KT 10SM 18/M05 A3036 RMK SLP282 T01761050 57034 IEM_DS3505
ZGKL,2006-12-19 07:00,ZGKL 190700Z AUTO 08008KT 6SM 18/M04 A3033 RMK T01801040 IEM_DS3505
ZGKL,2006-12-19 08:00,ZGKL 190800Z AUTO 05008KT 6SM 18/M06 A3033 RMK T01801060 IEM_DS3505
ZGKL,2006-12-19 09:00,ZGKL 190900Z AUTO 02006KT 12SM 17/M03 A3033 RMK SLP277 T01701032 57005 IEM_DS3505
ZGKL,2006-12-19 10:00,ZGKL 191000Z AUTO 07004KT 6SM 15/M01 A3033 RMK T01501010 IEM_DS3505
ZGKL,2006-12-19 11:00,ZGKL 191100Z AUTO 34002KT 6SM 13/M01 A3036 RMK T01301010 IEM_DS3505
ZGKL,2006-12-19 12:00,ZGKL 191200Z AUTO 02004KT 10SM 13/M04 A3039 RMK SLP302 T01261041 52022 IEM_DS3505
ZGKL,2006-12-19 13:00,ZGKL 191300Z AUTO 01002KT 5SM 07/04 A3042 RMK T00700040 IEM_DS3505
ZGKL,2006-12-19 14:00,ZGKL 191400Z AUTO 33002KT 4SM 07/04 A3042 RMK T00700040 IEM_DS3505
ZGKL,2006-12-19 15:00,ZGKL 191500Z AUTO 36006KT 9SM 11/M02 A3042 RMK SLP309 T01141017 52009 IEM_DS3505
ZGKL,2006-12-19 16:00,ZGKL 191600Z AUTO 03004KT 07/03 A3045 RMK T00700030 IEM_DS3505
ZGKL,2006-12-19 17:00,ZGKL 191700Z AUTO 00000KT 05/03 A3045 RMK T00500030 IEM_DS3505
ZGKL,2006-12-19 18:00,ZGKL 191800Z AUTO 02004KT 9SM 10/M01 A3042 RMK SLP311 T00971014 52003 IEM_DS3505
ZGKL,2006-12-19 19:00,ZGKL 191900Z AUTO 18002KT 03/02 A3042 RMK T00300020 IEM_DS3505
ZGKL,2006-12-19 20:00,ZGKL 192000Z AUTO 05002KT 03/03 A3042 RMK T00300030 IEM_DS3505
ZGKL,2006-12-19 21:00,ZGKL 192100Z AUTO 02006KT 9SM 09/M00 A3042 RMK SLP301 T00921004 57010 IEM_DS3505
ZGKL,2006-12-19 22:00,ZGKL 192200Z AUTO 00000KT 4SM 03/03 A3042 RMK T00300030 IEM_DS3505
ZGKL,2006-12-19 23:00,ZGKL 192300Z AUTO 00000KT 4SM 04/03 A3042 RMK T00400030 IEM_DS3505
ZGKL,2006-12-20 00:00,ZGKL 200000Z AUTO 02004KT 8SM 10/00 A3045 RMK SLP311 T00990000 52008 IEM_DS3505
ZGKL,2006-12-20 01:00,ZGKL 200100Z AUTO 15002KT 6SM 08/05 A3045 RMK T00800050 IEM_DS3505
ZGKL,2006-12-20 02:00,ZGKL 200200Z AUTO 32002KT 6SM 11/05 A3047 RMK T01100050 IEM_DS3505
ZGKL,2006-12-20 03:00,ZGKL 200300Z AUTO 02008KT 7SM 14/M01 A3045 RMK SLP313 T01441012 52003 IEM_DS3505
ZGKL,2006-12-20 04:00,ZGKL 200400Z AUTO 30002KT 6SM 16/02 A3042 RMK T01600020 IEM_DS3505
ZGKL,2006-12-20 05:00,ZGKL 200500Z AUTO 09004KT 6SM 17/M02 A3036 RMK T01701020 IEM_DS3505
ZGKL,2006-12-20 06:00,ZGKL 200600Z AUTO 02006KT 9SM 18/M03 A3033 RMK SLP272 T01811033 57039 IEM_DS3505
ZGKL,2006-12-20 07:00,ZGKL 200700Z AUTO 04004KT 6SM 18/M04 A3030 RMK T01801040 IEM_DS3505
ZGKL,2006-12-20 08:00,ZGKL 200800Z AUTO 07002KT 6SM 19/M03 A3030 RMK T01901030 IEM_DS3505
ZGKL,2006-12-20 09:00,ZGKL 200900Z AUTO 02006KT 10SM 17/M03 A3030 RMK SLP261 T01731029 57012 IEM_DS3505
ZGKL,2006-12-20 10:00,ZGKL 201000Z AUTO 33002KT 6SM 14/04 A3030 RMK T01400040 IEM_DS3505
ZGKL,2006-12-20 11:00,ZGKL 201100Z AUTO 05002KT 6SM 10/05 A3033 RMK T01000050 IEM_DS3505
ZGKL,2006-12-20 12:00,ZGKL 201200Z AUTO 02006KT 9SM 14/M02 A3036 RMK SLP285 T01371019 52023 IEM_DS3505
ZGKL,2006-12-20 13:00,ZGKL 201300Z AUTO 02002KT 6SM 08/05 A3039 RMK T00800050 IEM_DS3505
ZGKL,2006-12-20 14:00,ZGKL 201400Z AUTO 33002KT 4SM 08/05 A3039 RMK T00800050 IEM_DS3505
ZGKL,2006-12-20 15:00,ZGKL 201500Z AUTO 02006KT 9SM 12/M00 A3039 RMK SLP297 T01201005 52013 IEM_DS3505
ZGKL,2006-12-20 16:00,ZGKL 201600Z AUTO 03002KT 4SM 05/04 A3039 RMK T00500040 IEM_DS3505
ZGKL,2006-12-20 17:00,ZGKL 201700Z AUTO 05002KT 5SM 05/03 A3039 RMK T00500030 IEM_DS3505
ZGKL,2006-12-20 18:00,ZGKL 201800Z AUTO 02006KT 9SM 10/01 A3039 RMK SLP293 T01030006 57003 IEM_DS3505
ZGKL,2006-12-20 19:00,ZGKL 201900Z AUTO 04002KT 04/03 A3039 RMK T00400030 IEM_DS3505
ZGKL,2006-12-20 20:00,ZGKL 202000Z AUTO 16002KT 03/02 A3039 RMK T00300020 IEM_DS3505
ZGKL,2006-12-20 21:00,ZGKL 202100Z AUTO 04004KT 9SM 08/01 A3036 RMK SLP286 T00850007 57008 IEM_DS3505
ZGKL,2006-12-20 22:00,ZGKL 202200Z AUTO 05002KT 5SM 02/01 A3039 RMK T00200010 IEM_DS3505
ZGKL,2006-12-20 23:00,ZGKL 202300Z AUTO 07002KT 4SM 01/01 A3039 RMK T00100010 IEM_DS3505
ZGKL,2006-12-21 00:00,ZGKL 210000Z AUTO 02004KT 9SM 07/01 A3039 RMK SLP300 T00730009 52012 IEM_DS3505
ZGKL,2006-12-21 01:00,ZGKL 210100Z AUTO 00000KT 4SM 06/04 A3042 RMK T00600040 IEM_DS3505
ZGKL,2006-12-21 02:00,ZGKL 210200Z AUTO 20002KT 5SM 10/04 A3042 RMK T01000040 IEM_DS3505
ZGKL,2006-12-21 03:00,ZGKL 210300Z AUTO 02006KT 7SM 14/M00 A3042 RMK SLP300 T01401004 52002 IEM_DS3505
ZGKL,2006-12-21 04:00,ZGKL 210400Z AUTO 29002KT 6SM 17/01 A3036 RMK T01700010 IEM_DS3505
ZGKL,2006-12-21 05:00,ZGKL 210500Z AUTO 08006KT 6SM 18/M03 A3033 RMK T01801030 IEM_DS3505
ZGKL,2006-12-21 06:00,ZGKL 210600Z AUTO 36006KT 9SM 19/M05 A3027 RMK SLP255 T01871047 57044 IEM_DS3505
ZGKL,2006-12-21 07:00,ZGKL 210700Z AUTO 08004KT 6SM 20/M05 A3024 RMK T02001050 IEM_DS3505
ZGKL,2006-12-21 08:00,ZGKL 210800Z AUTO 05004KT 6SM 20/M04 A3021 RMK T02001040 IEM_DS3505
ZGKL,2006-12-21 09:00,ZGKL 210900Z AUTO 02006KT 12SM 18/M04 A3024 RMK SLP239 T01841043 57016 IEM_DS3505
ZGKL,2006-12-21 10:00,ZGKL 211000Z AUTO 06002KT 6SM 14/01 A3024 RMK T01400010 IEM_DS3505
ZGKL,2006-12-21 11:00,ZGKL 211100Z AUTO 02002KT 6SM 09/04 A3027 RMK T00900040 IEM_DS3505
ZGKL,2006-12-21 12:00,ZGKL 211200Z AUTO 36004KT 11SM 13/M02 A3027 RMK SLP261 T01281023 52019 IEM_DS3505
ZGKL,2006-12-21 13:00,ZGKL 211300Z AUTO 34002KT 4SM 06/03 A3030 RMK T00600030 IEM_DS3505
ZGKL,2006-12-21 14:00,ZGKL 211400Z AUTO 00000KT 4SM 05/03 A3030 RMK T00500030 IEM_DS3505
ZGKL,2006-12-21 15:00,ZGKL 211500Z AUTO 04004KT 10SM 11/01 A3030 RMK SLP269 T01110008 52010 IEM_DS3505
ZGKL,2006-12-21 16:00,ZGKL 211600Z AUTO 03002KT 04/02 A3030 RMK T00400020 IEM_DS3505
ZGKL,2006-12-21 17:00,ZGKL 211700Z AUTO 01002KT 02/01 A3030 RMK T00200010 IEM_DS3505
ZGKL,2006-12-21 18:00,ZGKL 211800Z AUTO 36004KT 9SM 10/01 A3030 RMK SLP264 T00980009 57004 IEM_DS3505
ZGKL,2006-12-21 19:00,ZGKL 211900Z AUTO 02002KT 02/01 A3030 RMK T00200010 IEM_DS3505
ZGKL,2006-12-21 20:00,ZGKL 212000Z AUTO 07002KT 01/00 A3027 RMK T00100000 IEM_DS3505
ZGKL,2006-12-21 21:00,ZGKL 212100Z AUTO 02002KT 8SM 08/01 A3027 RMK SLP253 T00830008 57011 IEM_DS3505
ZGKL,2006-12-21 22:00,ZGKL 212200Z AUTO 06002KT 3SM A3030 RMK IEM_DS3505
ZGKL,2006-12-21 23:00,ZGKL 212300Z AUTO 00000KT 3SM 00/M01 A3030 RMK T00001010 IEM_DS3505
ZGKL,2006-12-22 00:00,ZGKL 220000Z AUTO 02002KT 8SM 07/01 A3033 RMK SLP273 T00680011 52017 IEM_DS3505
ZGKL,2006-12-22 01:00,ZGKL 220100Z AUTO 04002KT 6SM 05/03 A3033 RMK T00500030 IEM_DS3505
ZGKL,2006-12-22 02:00,ZGKL 220200Z AUTO 35002KT 6SM 10/04 A3033 RMK T01000040 IEM_DS3505
ZGKL,2006-12-22 03:00,ZGKL 220300Z AUTO 04004KT 7SM 14/02 A3033 RMK SLP270 T01430016 57001 IEM_DS3505
ZGKL,2006-12-22 04:00,ZGKL 220400Z AUTO 21004KT 6SM 16/00 A3030 RMK T01600000 IEM_DS3505
ZGKL,2006-12-22 05:00,ZGKL 220500Z AUTO 24004KT 6SM 18/00 A3024 RMK T01800000 IEM_DS3505
ZGKL,2006-12-22 07:00,ZGKL 220700Z AUTO 05002KT 6SM 20/M01 A3018 RMK T02001010 IEM_DS3505
ZGKL,2006-12-22 08:00,ZGKL 220800Z AUTO 10002KT 6SM 21/M01 A3018 RMK T02101010 IEM_DS3505
ZGKL,2006-12-22 09:00,ZGKL 220900Z AUTO 16002KT 7SM 19/02 A3018 RMK SLP220 T01920017 57015 IEM_DS3505
ZGKL,2006-12-22 10:00,ZGKL 221000Z AUTO 08002KT 6SM 13/05 A3015 RMK T01300050 IEM_DS3505
ZGKL,2006-12-22 11:00,ZGKL 221100Z AUTO 06002KT 6SM 09/05 A3018 RMK T00900050 IEM_DS3505
ZGKL,2006-12-22 12:00,ZGKL 221200Z AUTO 36002KT 7SM 14/M00 A3018 RMK SLP230 T01391002 52007 IEM_DS3505
ZGKL,2006-12-22 13:00,ZGKL 221300Z AUTO 01002KT 6SM 06/04 A3021 RMK T00600040 IEM_DS3505
ZGKL,2006-12-22 14:00,ZGKL 221400Z AUTO 05002KT 5SM 05/04 A3024 RMK T00500040 IEM_DS3505
ZGKL,2006-12-22 15:00,ZGKL 221500Z AUTO 36004KT 6SM 11/00 A3024 RMK SLP242 T01140005 52014 IEM_DS3505
ZGKL,2006-12-22 16:00,ZGKL 221600Z AUTO 02002KT 5SM 04/03 A3024 RMK T00400030 IEM_DS3505
ZGKL,2006-12-22 17:00,ZGKL 221700Z AUTO 05002KT 03/02 A3021 RMK T00300020 IEM_DS3505
ZGKL,2006-12-22 18:00,ZGKL 221800Z AUTO 36002KT 6SM 10/00 A3021 RMK SLP234 T00990005 57007 IEM_DS3505
ZGKL,2006-12-22 19:00,ZGKL 221900Z AUTO 05002KT 02/01 A3021 RMK T00200010 IEM_DS3505
ZGKL,2006-12-22 20:00,ZGKL 222000Z AUTO 05002KT 01/01 A3021 RMK T00100010 IEM_DS3505
ZGKL,2006-12-22 21:00,ZGKL 222100Z AUTO 02002KT 6SM 07/02 A3021 RMK SLP233 T00670016 57002 IEM_DS3505
ZGKL,2006-12-22 22:00,ZGKL 222200Z AUTO 00000KT 6SM 01/00 A3021 RMK T00100000 IEM_DS3505
ZGKL,2006-12-22 23:00,ZGKL 222300Z AUTO 00000KT 6SM 00/M01 A3024 RMK T00001010 IEM_DS3505
ZGKL,2006-12-23 00:00,ZGKL 230000Z AUTO 07002KT 7SM 05/02 A3024 RMK SLP250 T00530018 52014 IEM_DS3505
ZGKL,2006-12-23 01:00,ZGKL 230100Z AUTO 05002KT 6SM 05/03 A3027 RMK T00500030 IEM_DS3505
ZGKL,2006-12-23 02:00,ZGKL 230200Z AUTO 00000KT 6SM 10/05 A3027 RMK T01000050 IEM_DS3505
ZGKL,2006-12-23 03:00,ZGKL 230300Z AUTO 20002KT 6SM 13/02 A3024 RMK SLP247 T01290022 57001 IEM_DS3505
ZGKL,2006-12-23 04:00,ZGKL 230400Z AUTO 19004KT 6SM 16/03 A3021 RMK T01600030 IEM_DS3505
ZGKL,2006-12-23 05:00,ZGKL 230500Z AUTO 03002KT 6SM 18/00 A3015 RMK T01800000 IEM_DS3505
ZGKL,2006-12-23 06:00,ZGKL 230600Z AUTO 16002KT 4SM 19/01 A3012 RMK SLP204 T01880013 57041 IEM_DS3505
ZGKL,2006-12-23 07:00,ZGKL 230700Z AUTO 02002KT 6SM 21/00 A3009 RMK T02100000 IEM_DS3505
ZGKL,2006-12-23 08:00,ZGKL 230800Z AUTO 08002KT 6SM 20/M01 A3009 RMK T02001010 IEM_DS3505
ZGKL,2006-12-23 09:00,ZGKL 230900Z AUTO 16002KT 5SM 20/M00 A3009 RMK SLP191 T01961004 57013 IEM_DS3505
ZGKL,2006-12-23 10:00,ZGKL 231000Z AUTO 00000KT 6SM 13/05 A3009 RMK T01300050 IEM_DS3505
ZGKL,2006-12-23 11:00,ZGKL 231100Z AUTO 05002KT 6SM 09/05 A3012 RMK T00900050 IEM_DS3505
ZGKL,2006-12-23 12:00,ZGKL 231200Z AUTO 02004KT 7SM 14/01 A3015 RMK SLP213 T01360013 52019 IEM_DS3505
ZGKL,2006-12-23 13:00,ZGKL 231300Z AUTO 03002KT 5SM 06/04 A3015 RMK T00600040 IEM_DS3505
ZGKL,2006-12-23 14:00,ZGKL 231400Z AUTO 07002KT 5SM 05/04 A3018 RMK T00500040 IEM_DS3505
ZGKL,2006-12-23 15:00,ZGKL 231500Z AUTO 36006KT 7SM 12/02 A3018 RMK SLP225 T01200016 52014 IEM_DS3505
ZGKL,2006-12-23 16:00,ZGKL 231600Z AUTO 08002KT 4SM 04/03 A3018 RMK T00400030 IEM_DS3505
ZGKL,2006-12-23 17:00,ZGKL 231700Z AUTO 00000KT 03/02 A3018 RMK T00300020 IEM_DS3505
ZGKL,2006-12-23 18:00,ZGKL 231800Z AUTO 29002KT 7SM 08/02 A3018 RMK SLP223 T00830023 57002 IEM_DS3505
ZGKL,2006-12-23 19:00,ZGKL 231900Z AUTO 06002KT 02/01 A3018 RMK T00200010 IEM_DS3505
ZGKL,2006-12-23 20:00,ZGKL 232000Z AUTO 00000KT 02/01 A3015 RMK T00200010 IEM_DS3505
ZGKL,2006-12-23 21:00,ZGKL 232100Z AUTO 02002KT 7SM 06/02 A3015 RMK SLP217 T00610022 57006 IEM_DS3505
ZGKL,2006-12-23 22:00,ZGKL 232200Z AUTO 06002KT 4SM 01/00 A3015 RMK T00100000 IEM_DS3505
ZGKL,2006-12-23 23:00,ZGKL 232300Z AUTO 00000KT 4SM 01/00 A3018 RMK T00100000 IEM_DS3505
ZGKL,2006-12-24 00:00,ZGKL 240000Z AUTO 07002KT 7SM 05/02 A3021 RMK SLP236 T00510019 52016 IEM_DS3505
ZGKL,2006-12-24 01:00,ZGKL 240100Z AUTO 08002KT 4SM 05/03 A3021 RMK T00500030 IEM_DS3505
ZGKL,2006-12-24 02:00,ZGKL 240200Z AUTO 23002KT 4SM 09/04 A3021 RMK T00900040 IEM_DS3505
ZGKL,2006-12-24 03:00,ZGKL 240300Z AUTO 07002KT 6SM 12/03 A3021 RMK SLP235 T01250026 52001 IEM_DS3505
ZGKL,2006-12-24 04:00,ZGKL 240400Z AUTO 22002KT 4SM 16/04 A3018 RMK T01600040 IEM_DS3505
ZGKL,2006-12-24 05:00,ZGKL 240500Z AUTO 26004KT 4SM 18/02 A3012 RMK T01800020 IEM_DS3505
ZGKL,2006-12-24 06:00,ZGKL 240600Z AUTO 20002KT 6SM 19/01 A3009 RMK SLP195 T01890010 57038 IEM_DS3505
ZGKL,2006-12-24 07:00,ZGKL 240700Z AUTO 11002KT 5SM 21/01 A3006 RMK T02100010 IEM_DS3505
ZGKL,2006-12-24 08:00,ZGKL 240800Z AUTO 11002KT 5SM 21/00 A3006 RMK T02100000 IEM_DS3505
ZGKL,2006-12-24 09:00,ZGKL 240900Z AUTO 14002KT 6SM 19/01 A3003 RMK SLP178 T01910011 57017 IEM_DS3505
ZGKL,2006-12-24 10:00,ZGKL 241000Z AUTO 00000KT 6SM 14/07 A3006 RMK T01400070 IEM_DS3505
ZGKL,2006-12-24 11:00,ZGKL 241100Z AUTO 05002KT 5SM 10/06 A3006 RMK T01000060 IEM_DS3505
ZGKL,2006-12-24 12:00,ZGKL 241200Z AUTO 36004KT 6SM 13/04 A3009 RMK SLP196 T01330037 52015 IEM_DS3505
ZGKL,2006-12-24 13:00,ZGKL 241300Z AUTO 03002KT 4SM 07/05 A3009 RMK T00700050 IEM_DS3505
ZGKL,2006-12-24 14:00,ZGKL 241400Z AUTO 00000KT 4SM 06/05 A3012 RMK T00600050 IEM_DS3505
ZGKL,2006-12-24 15:00,ZGKL 241500Z AUTO 02004KT 6SM 12/01 A3012 RMK SLP207 T01230010 52013 IEM_DS3505
ZGKL,2006-12-24 16:00,ZGKL 241600Z AUTO 07002KT 4SM 05/04 A3012 RMK T00500040 IEM_DS3505
ZGKL,2006-12-24 17:00,ZGKL 241700Z AUTO 00000KT 04/03 A3012 RMK T00400030 IEM_DS3505
ZGKL,2006-12-24 18:00,ZGKL 241800Z AUTO 29002KT 6SM 08/02 A3012 RMK SLP207 T00850021 52001 IEM_DS3505
ZGKL,2006-12-24 19:00,ZGKL 241900Z AUTO 07002KT 03/02 A3015 RMK T00300020 IEM_DS3505
ZGKL,2006-12-24 20:00,ZGKL 242000Z AUTO 04002KT 02/02 A3012 RMK T00200020 IEM_DS3505
ZGKL,2006-12-24 21:00,ZGKL 242100Z AUTO 00000KT 6SM 07/03 A3012 RMK SLP207 T00690030 57001 IEM_DS3505
ZGKL,2006-12-24 22:00,ZGKL 242200Z AUTO 05002KT 4SM 02/01 A3012 RMK T00200010 IEM_DS3505
ZGKL,2006-12-24 23:00,ZGKL 242300Z AUTO 00000KT 4SM 01/01 A3015 RMK T00100010 IEM_DS3505
ZGKL,2006-12-25 00:00,ZGKL 250000Z AUTO 05002KT 6SM 06/02 A3015 RMK SLP222 T00580023 52013 IEM_DS3505
ZGKL,2006-12-25 01:00,ZGKL 250100Z AUTO 10002KT 2 1/2SM 05/03 A3018 RMK T00500030 IEM_DS3505
ZGKL,2006-12-25 02:00,ZGKL 250200Z AUTO 33002KT 2 1/2SM 10/05 A3018 RMK T01000050 IEM_DS3505
ZGKL,2006-12-25 03:00,ZGKL 250300Z AUTO 29002KT 5SM 13/03 A3015 RMK SLP218 T01300034 57002 IEM_DS3505
ZGKL,2006-12-25 04:00,ZGKL 250400Z AUTO 05002KT 4SM 17/05 A3012 RMK T01700050 IEM_DS3505
ZGKL,2006-12-25 05:00,ZGKL 250500Z AUTO 09002KT 4SM 18/01 A3009 RMK T01800010 IEM_DS3505
ZGKL,2006-12-25 06:00,ZGKL 250600Z AUTO 20002KT 4SM 19/01 A3003 RMK SLP174 T01910007 57042 IEM_DS3505
ZGKL,2006-12-25 07:00,ZGKL 250700Z AUTO 11004KT 4SM 20/02 A3000 RMK T02000020 IEM_DS3505
ZGKL,2006-12-25 08:00,ZGKL 250800Z AUTO 10002KT 4SM 21/02 A2997 RMK T02100020 IEM_DS3505
ZGKL,2006-12-25 09:00,ZGKL 250900Z AUTO 14002KT 6SM 20/02 A2997 RMK SLP155 T01960020 57019 IEM_DS3505
ZGKL,2006-12-25 10:00,ZGKL 251000Z AUTO 00000KT 4SM 14/08 A2997 RMK T01400080 IEM_DS3505
ZGKL,2006-12-25 11:00,ZGKL 251100Z AUTO 05002KT 3SM 10/07 A3000 RMK T01000070 IEM_DS3505
ZGKL,2006-12-25 12:00,ZGKL 251200Z AUTO 36002KT 7SM 13/05 A3003 RMK SLP175 T01260046 52016 IEM_DS3505
ZGKL,2006-12-25 13:00,ZGKL 251300Z AUTO 00000KT 2 1/2SM 07/05 A3003 RMK T00700050 IEM_DS3505
ZGKL,2006-12-25 14:00,ZGKL 251400Z AUTO 04002KT 2 1/2SM 06/05 A3006 RMK T00600050 IEM_DS3505
ZGKL,2006-12-25 15:00,ZGKL 251500Z AUTO 09002KT 7SM 10/04 A3006 RMK SLP185 T01020044 52012 IEM_DS3505
ZGKL,2006-12-25 16:00,ZGKL 251600Z AUTO 00000KT 2 1/2SM 05/04 A3009 RMK T00500040 IEM_DS3505
ZGKL,2006-12-25 17:00,ZGKL 251700Z AUTO 06002KT 04/04 A3009 RMK T00400040 IEM_DS3505
ZGKL,2006-12-25 18:00,ZGKL 251800Z AUTO 32002KT 7SM 09/04 A3009 RMK SLP193 T00890039 52009 IEM_DS3505
ZGKL,2006-12-25 19:00,ZGKL 251900Z AUTO 04002KT 04/03 A3009 RMK T00400030 IEM_DS3505
ZGKL,2006-12-25 20:00,ZGKL 252000Z AUTO 05002KT 04/03 A3009 RMK T00400030 IEM_DS3505
ZGKL,2006-12-25 21:00,ZGKL 252100Z AUTO 00000KT 7SM 08/04 A3009 RMK SLP193 T00770041 54000 IEM_DS3505
ZGKL,2006-12-25 22:00,ZGKL 252200Z AUTO 07002KT 2 1/2SM 03/02 A3009 RMK T00300020 IEM_DS3505
ZGKL,2006-12-25 23:00,ZGKL 252300Z AUTO 04002KT 2 1/2SM 02/02 A3012 RMK T00200020 IEM_DS3505
ZGKL,2006-12-26 00:00,ZGKL 260000Z AUTO 07002KT 5SM 06/04 A3012 RMK SLP211 T00640036 52015 IEM_DS3505
ZGKL,2006-12-26 01:00,ZGKL 260100Z AUTO 04002KT 2 1/2SM 06/04 A3015 RMK T00600040 IEM_DS3505
ZGKL,2006-12-26 02:00,ZGKL 260200Z AUTO 18002KT 3SM 10/06 A3015 RMK T01000060 IEM_DS3505
ZGKL,2006-12-26 03:00,ZGKL 260300Z AUTO 18002KT 4SM 13/05 A3015 RMK SLP213 T01330050 52003 IEM_DS3505
ZGKL,2006-12-26 04:00,ZGKL 260400Z AUTO 27002KT 3SM 16/05 A3009 RMK T01600050 IEM_DS3505
ZGKL,2006-12-26 05:00,ZGKL 260500Z AUTO 04002KT 4SM 19/04 A3006 RMK T01900040 IEM_DS3505
ZGKL,2006-12-26 06:00,ZGKL 260600Z AUTO 09002KT 6SM 20/03 A3003 RMK SLP173 T01970030 57037 IEM_DS3505
ZGKL,2006-12-26 07:00,ZGKL 260700Z AUTO 07002KT 5SM 21/03 A3000 RMK T02100030 IEM_DS3505
ZGKL,2006-12-26 08:00,ZGKL 260800Z AUTO 11002KT 5SM 21/03 A3000 RMK T02100030 IEM_DS3505
ZGKL,2006-12-26 09:00,ZGKL 260900Z AUTO 18002KT 6SM 19/04 A3003 RMK SLP171 T01940044 57003 IEM_DS3505
ZGKL,2006-12-26 10:00,ZGKL 261000Z AUTO 00000KT 4SM 15/09 A3003 RMK T01500090 IEM_DS3505
ZGKL,2006-12-26 11:00,ZGKL 261100Z AUTO 05002KT 4SM 11/08 A3006 RMK T01100080 IEM_DS3505
ZGKL,2006-12-26 12:00,ZGKL 261200Z AUTO 36004KT 6SM 14/07 A3006 RMK SLP192 T01360067 52019 IEM_DS3505
ZGKL,2006-12-26 13:00,ZGKL 261300Z AUTO 05002KT 3SM 08/07 A3009 RMK T00800070 IEM_DS3505
ZGKL,2006-12-26 14:00,ZGKL 261400Z AUTO 05002KT 2 1/2SM 07/06 A3012 RMK T00700060 IEM_DS3505
ZGKL,2006-12-26 15:00,ZGKL 261500Z AUTO 05002KT 5SM 11/06 A3012 RMK SLP206 T01060056 52015 IEM_DS3505
ZGKL,2006-12-26 16:00,ZGKL 261600Z AUTO 00000KT 2SM 06/05 A3012 RMK T00600050 IEM_DS3505
ZGKL,2006-12-26 17:00,ZGKL 261700Z AUTO 00000KT 06/05 A3009 RMK T00600050 IEM_DS3505
ZGKL,2006-12-26 18:00,ZGKL 261800Z AUTO 07002KT 5SM 09/06 A3012 RMK SLP199 T00910060 57006 IEM_DS3505
ZGKL,2006-12-26 19:00,ZGKL 261900Z AUTO 04002KT 05/04 A3009 RMK T00500040 IEM_DS3505
ZGKL,2006-12-26 20:00,ZGKL 262000Z AUTO 02002KT 06/05 A3009 RMK T00600050 IEM_DS3505
ZGKL,2006-12-26 21:00,ZGKL 262100Z AUTO 36002KT 5SM 09/06 A3009 RMK SLP191 T00940058 57007 IEM_DS3505
ZGKL,2006-12-26 22:00,ZGKL 262200Z AUTO 00000KT 2SM 08/07 A3009 RMK T00800070 IEM_DS3505
ZGKL,2006-12-26 23:00,ZGKL 262300Z AUTO 06002KT 2SM 08/07 A3012 RMK T00800070 IEM_DS3505
ZGKL,2006-12-27 00:00,ZGKL 270000Z AUTO 04002KT 5SM 11/06 A3012 RMK SLP203 T01070061 52010 IEM_DS3505
ZGKL,2006-12-27 01:00,ZGKL 270100Z AUTO 16002KT 2 1/2SM 10/08 A3015 RMK T01000080 IEM_DS3505
ZGKL,2006-12-27 02:00,ZGKL 270200Z AUTO 01002KT 2 1/2SM 12/09 A3018 RMK T01200090 IEM_DS3505
ZGKL,2006-12-27 03:00,ZGKL 270300Z AUTO 02002KT 4SM 16/06 A3015 RMK SLP218 T01550065 52015 IEM_DS3505
ZGKL,2006-12-27 04:00,ZGKL 270400Z AUTO 31002KT 2 1/2SM 16/09 A3015 RMK T01600090 IEM_DS3505
ZGKL,2006-12-27 05:00,ZGKL 270500Z AUTO 25004KT 2SM 17/08 A3012 RMK T01700080 IEM_DS3505
ZGKL,2006-12-27 06:00,ZGKL 270600Z AUTO 20002KT 4SM 18/06 A3009 RMK SLP191 T01780063 57026 IEM_DS3505
ZGKL,2006-12-27 07:00,ZGKL 270700Z AUTO 26002KT 2SM 17/07 A3006 RMK T01700070 IEM_DS3505
ZGKL,2006-12-27 08:00,ZGKL 270800Z AUTO 26002KT 2SM 16/06 A3006 RMK T01600060 IEM_DS3505
ZGKL,2006-12-27 09:00,ZGKL 270900Z AUTO 36002KT 3SM 16/07 A3009 RMK SLP190 T01650072 57001 IEM_DS3505
ZGKL,2006-12-27 10:00,ZGKL 271000Z AUTO 00000KT 1 1/4SM 14/10 A3009 RMK T01400100 IEM_DS3505
ZGKL,2006-12-27 11:00,ZGKL 271100Z AUTO 36002KT 1 1/4SM 13/10 A3012 RMK T01300100 IEM_DS3505
ZGKL,2006-12-27 12:00,ZGKL 271200Z AUTO 02004KT 3SM 16/06 A3015 RMK SLP215 T01570059 52024 IEM_DS3505
ZGKL,2006-12-27 13:00,ZGKL 271300Z AUTO 03002KT 1 1/4SM 13/10 A3018 RMK T01300100 IEM_DS3505
ZGKL,2006-12-27 14:00,ZGKL 271400Z AUTO 36002KT 1SM 13/10 A3018 RMK T01300100 IEM_DS3505
ZGKL,2006-12-27 15:00,ZGKL 271500Z AUTO 02006KT 3SM 15/06 A3021 RMK SLP228 T01540056 52015 IEM_DS3505
ZGKL,2006-12-27 16:00,ZGKL 271600Z AUTO 00000KT 1SM 11/10 A3018 RMK T01100100 IEM_DS3505
ZGKL,2006-12-27 17:00,ZGKL 271700Z AUTO 00000KT 1SM 11/09 A3018 RMK T01100090 IEM_DS3505
ZGKL,2006-12-27 18:00,ZGKL 271800Z AUTO 36006KT 3SM 14/05 A3021 RMK SLP230 T01360053 52002 IEM_DS3505
ZGKL,2006-12-27 19:00,ZGKL 271900Z AUTO 32002KT 11/08 A3021 RMK T01100080 IEM_DS3505
ZGKL,2006-12-27 20:00,ZGKL 272000Z AUTO 35002KT 11/07 A3021 RMK T01100070 IEM_DS3505
ZGKL,2006-12-27 21:00,ZGKL 272100Z AUTO 02008KT 4SM 11/04 RMK SLP244 T01130045 52012 IEM_DS3505
ZGKL,2006-12-27 22:00,ZGKL 272200Z AUTO 06006KT 2SM 10/05 A3024 RMK T01000050 IEM_DS3505
ZGKL,2006-12-27 23:00,ZGKL 272300Z AUTO 03006KT 1SM 09/05 A3030 RMK T00900050 IEM_DS3505
ZGKL,2006-12-28 00:00,ZGKL 280000Z AUTO 02010KT 2SM 08/04 A3033 RMK SLP278 T00810041 52032 IEM_DS3505
ZGKL,2006-12-28 01:00,ZGKL 280100Z AUTO 07008KT 1SM 09/05 A3036 RMK T00900050 IEM_DS3505
ZGKL,2006-12-28 02:00,ZGKL 280200Z AUTO 05006KT 1 1/4SM 10/05 A3039 RMK T01000050 IEM_DS3505
ZGKL,2006-12-28 03:00,ZGKL 280300Z AUTO 02010KT 2SM 10/04 A3039 RMK SLP302 T00990036 52024 IEM_DS3505
ZGKL,2006-12-28 04:00,ZGKL 280400Z AUTO 07010KT 1 1/2SM 11/05 A3039 RMK T01100050 IEM_DS3505
ZGKL,2006-12-28 05:00,ZGKL 280500Z AUTO 07008KT 1 1/2SM 12/05 A3033 RMK T01200050 IEM_DS3505
ZGKL,2006-12-28 06:00,ZGKL 280600Z AUTO 02010KT 2SM 11/03 A3030 RMK SLP268 T01090030 57033 IEM_DS3505
ZGKL,2006-12-28 07:00,ZGKL 280700Z AUTO 08008KT 2SM 12/04 A3030 RMK T01200040 IEM_DS3505
ZGKL,2006-12-28 08:00,ZGKL 280800Z AUTO 07008KT 2SM 11/04 A3030 RMK T01100040 IEM_DS3505
ZGKL,2006-12-28 09:00,ZGKL 280900Z AUTO 02010KT 2SM 10/03 A3030 RMK SLP277 T00980026 52007 IEM_DS3505
ZGKL,2006-12-28 10:00,ZGKL 281000Z AUTO 06010KT 2SM 09/03 A3033 RMK T00900030 IEM_DS3505
ZGKL,2006-12-28 11:00,ZGKL 281100Z AUTO 07006KT 2SM 09/03 A3036 RMK T00900030 IEM_DS3505
ZGKL,2006-12-28 12:00,ZGKL 281200Z AUTO 02010KT 2SM 08/02 A3039 RMK SLP299 T00800025 52020 IEM_DS3505
ZGKL,2006-12-28 13:00,ZGKL 281300Z AUTO 07006KT 1 1/2SM 08/03 A3042 RMK T00800030 IEM_DS3505
ZGKL,2006-12-28 14:00,ZGKL 281400Z AUTO 07004KT 1 1/2SM 07/03 A3042 RMK T00700030 IEM_DS3505
ZGKL,2006-12-28 15:00,ZGKL 281500Z AUTO 04008KT 2SM 08/02 A3042 RMK SLP310 T00780025 52011 IEM_DS3505
ZGKL,2006-12-28 16:00,ZGKL 281600Z AUTO 05002KT 1 1/2SM 06/03 A3042 RMK T00600030 IEM_DS3505
ZGKL,2006-12-28 17:00,ZGKL 281700Z AUTO 20002KT 1 1/4SM 05/03 A3039 RMK T00500030 IEM_DS3505
ZGKL,2006-12-28 18:00,ZGKL 281800Z AUTO 02008KT 2SM 07/02 A3039 RMK SLP295 T00740025 57014 IEM_DS3505
ZGKL,2006-12-28 19:00,ZGKL 281900Z AUTO 00000KT 1 1/4SM 05/04 A3036 RMK T00500040 IEM_DS3505
ZGKL,2006-12-28 20:00,ZGKL 282000Z AUTO 33002KT 1 1/4SM 04/03 A3036 RMK T00400030 IEM_DS3505
ZGKL,2006-12-28 21:00,ZGKL 282100Z AUTO 02002KT 2SM 06/02 A3036 RMK SLP291 T00600025 57005 IEM_DS3505
ZGKL,2006-12-28 22:00,ZGKL 282200Z AUTO 30002KT 1 1/4SM 06/04 A3039 RMK T00600040 IEM_DS3505
ZGKL,2006-12-28 23:00,ZGKL 282300Z AUTO 35002KT 1 1/2SM 06/03 A3039 RMK T00600030 IEM_DS3505
ZGKL,2006-12-29 00:00,ZGKL 290000Z AUTO 02002KT 3SM 06/02 A3042 RMK SLP308 T00590024 52016 IEM_DS3505
ZGKL,2006-12-29 01:00,ZGKL 290100Z AUTO 07004KT 3SM 08/04 A3042 RMK T00800040 IEM_DS3505
ZGKL,2006-12-29 02:00,ZGKL 290200Z AUTO 04004KT 3SM 09/04 A3045 RMK T00900040 IEM_DS3505
ZGKL,2006-12-29 03:00,ZGKL 290300Z AUTO 02006KT 3SM 10/03 A3042 RMK SLP314 T00990030 52007 IEM_DS3505
ZGKL,2006-12-29 04:00,ZGKL 290400Z AUTO 05004KT 3SM 11/04 A3039 RMK T01100040 IEM_DS3505
ZGKL,2006-12-29 05:00,ZGKL 290500Z AUTO 06006KT 3SM 12/03 A3033 RMK T01200030 IEM_DS3505
ZGKL,2006-12-29 06:00,ZGKL 290600Z AUTO 02008KT 3SM 12/03 A3030 RMK SLP263 T01190032 57049 IEM_DS3505
ZGKL,2006-12-29 07:00,ZGKL 290700Z AUTO 07004KT 3SM 13/04 A3024 RMK T01300040 IEM_DS3505
ZGKL,2006-12-29 08:00,ZGKL 290800Z AUTO 08006KT 3SM 13/04 A3024 RMK T01300040 IEM_DS3505
ZGKL,2006-12-29 09:00,ZGKL 290900Z AUTO 02006KT 2 1/2SM 11/03 A3024 RMK SLP250 T01090034 57014 IEM_DS3505
ZGKL,2006-12-29 10:00,ZGKL 291000Z AUTO 06004KT 3SM 10/04 A3024 RMK T01000040 IEM_DS3505
ZGKL,2006-12-29 11:00,ZGKL 291100Z AUTO 07008KT 3SM 09/04 A3027 RMK T00900040 IEM_DS3505
ZGKL,2006-12-29 12:00,ZGKL 291200Z AUTO 02004KT 2SM 08/04 A3030 RMK SLP271 T00760035 52020 IEM_DS3505
ZGKL,2006-12-29 13:00,ZGKL 291300Z AUTO 02004KT 2 1/2SM 08/03 A3030 RMK T00800030 IEM_DS3505
ZGKL,2006-12-29 14:00,ZGKL 291400Z AUTO 03002KT 2SM 07/03 A3033 RMK T00700030 IEM_DS3505
ZGKL,2006-12-29 15:00,ZGKL 291500Z AUTO 02004KT 2SM 07/03 A3033 RMK SLP280 T00700032 52010 IEM_DS3505
ZGKL,2006-12-29 16:00,ZGKL 291600Z AUTO 02002KT 2SM 08/04 A3033 RMK T00800040 IEM_DS3505
ZGKL,2006-12-29 18:00,ZGKL 291800Z AUTO 04002KT 2 1/2SM 07/04 A3030 RMK SLP268 T00730035 57011 IEM_DS3505
ZGKL,2006-12-29 19:00,ZGKL 291900Z AUTO 05004KT 1 1/2SM 07/04 A3030 RMK T00700040 IEM_DS3505
ZGKL,2006-12-29 20:00,ZGKL 292000Z AUTO 02002KT 1 1/2SM 07/04 A3030 RMK T00700040 IEM_DS3505
ZGKL,2006-12-29 21:00,ZGKL 292100Z AUTO 36004KT 2 1/2SM 07/03 A3027 RMK SLP261 T00700034 57008 IEM_DS3505
ZGKL,2006-12-29 22:00,ZGKL 292200Z AUTO 33002KT 2SM 07/04 A3027 RMK T00700040 IEM_DS3505
ZGKL,2006-12-29 23:00,ZGKL 292300Z AUTO 06002KT 2 1/2SM 07/05 A3030 RMK T00700050 IEM_DS3505
ZGKL,2006-12-30 00:00,ZGKL 300000Z AUTO 02002KT 2SM 07/04 A3030 RMK SLP275 T00720036 52013 IEM_DS3505
ZGKL,2006-12-30 01:00,ZGKL 300100Z AUTO 04004KT 1 1/4SM 08/04 A3033 RMK T00800040 IEM_DS3505
ZGKL,2006-12-30 02:00,ZGKL 300200Z AUTO 35002KT 1 1/4SM 09/05 A3033 RMK T00900050 IEM_DS3505
ZGKL,2006-12-30 03:00,ZGKL 300300Z AUTO 02004KT 2SM 09/04 A3033 RMK SLP277 T00920040 52003 IEM_DS3505
ZGKL,2006-12-30 04:00,ZGKL 300400Z AUTO 35004KT 2 1/2SM 10/05 A3030 RMK T01000050 IEM_DS3505
ZGKL,2006-12-30 05:00,ZGKL 300500Z AUTO 36004KT 2 1/2SM 12/05 A3027 RMK T01200050 IEM_DS3505
ZGKL,2006-12-30 06:00,ZGKL 300600Z AUTO 36006KT 2SM 11/04 A3024 RMK SLP245 T01120040 57031 IEM_DS3505
ZGKL,2006-12-30 07:00,ZGKL 300700Z AUTO 08004KT 2 1/2SM 12/05 A3021 RMK T01200050 IEM_DS3505
ZGKL,2006-12-30 08:00,ZGKL 300800Z AUTO 06004KT 2 1/2SM 12/05 A3021 RMK T01200050 IEM_DS3505
ZGKL,2006-12-30 09:00,ZGKL 300900Z AUTO 02004KT 2SM 11/04 A3021 RMK SLP236 T01080040 57009 IEM_DS3505
ZGKL,2006-12-30 10:00,ZGKL 301000Z AUTO 02002KT 2 1/2SM 10/05 A3021 RMK T01000050 IEM_DS3505
ZGKL,2006-12-30 11:00,ZGKL 301100Z AUTO 05002KT 2SM 08/06 A3021 RMK T00800060 IEM_DS3505
ZGKL,2006-12-30 12:00,ZGKL 301200Z AUTO 02004KT 2SM 09/04 A3024 RMK SLP249 T00940044 52012 IEM_DS3505
ZGKL,2006-12-30 13:00,ZGKL 301300Z AUTO 05002KT 1 1/2SM 07/05 A3027 RMK T00700050 IEM_DS3505
ZGKL,2006-12-30 14:00,ZGKL 301400Z AUTO 34002KT 1 1/2SM 06/05 A3030 RMK T00600050 IEM_DS3505
ZGKL,2006-12-30 15:00,ZGKL 301500Z AUTO 02004KT 2SM 08/04 A3030 RMK SLP266 T00830041 52017 IEM_DS3505
ZGKL,2006-12-30 21:00,ZGKL 302100Z AUTO 05002KT 1 1/4SM 06/05 A3024 RMK T00600050 IEM_DS3505
ZGKL,2006-12-30 22:00,ZGKL 302200Z AUTO 06006KT 1 1/4SM 08/04 A3024 RMK T00800040 IEM_DS3505
ZGKL,2006-12-30 23:00,ZGKL 302300Z AUTO 02002KT 1 1/4SM 07/04 A3027 RMK T00700040 IEM_DS3505
