station,valid,metar
ZGKL,2007-01-01 00:00,ZGKL 010000Z AUTO 02004KT 2 1/2SM 09/04 A3021 RMK SLP237 T00880044 52008 IEM_DS3505
ZGKL,2007-01-01 01:00,ZGKL 010100Z AUTO 06004KT 1 1/2SM 09/05 A3021 RMK T00900050 IEM_DS3505
ZGKL,2007-01-01 02:00,ZGKL 010200Z AUTO 07004KT 1 1/2SM 10/05 A3024 RMK T01000050 IEM_DS3505
ZGKL,2007-01-01 03:00,ZGKL 010300Z AUTO 02008KT 2 1/2SM 10/04 A3024 RMK SLP244 T00970045 52006 IEM_DS3505
ZGKL,2007-01-01 04:00,ZGKL 010400Z AUTO 05004KT 1 1/2SM 10/06 A3021 RMK T01000060 IEM_DS3505
ZGKL,2007-01-01 05:00,ZGKL 010500Z AUTO 03004KT 1 1/2SM 10/06 A3015 RMK T01000060 IEM_DS3505
ZGKL,2007-01-01 06:00,ZGKL 010600Z AUTO 02008KT 2 1/2SM 10/05 A3015 RMK 60000 SLP213 T00990051 57030 IEM_DS3505
ZGKL,2007-01-01 07:00,ZGKL 010700Z AUTO 34002KT 1 1/4SM 10/07 A3012 RMK T01000070 IEM_DS3505
ZGKL,2007-01-01 08:00,ZGKL 010800Z AUTO 03002KT 1 1/4SM 10/08 A3012 RMK T01000080 IEM_DS3505
ZGKL,2007-01-01 09:00,ZGKL 010900Z AUTO 04008KT 2 1/2SM 09/05 A3012 RMK SLP208 T00940050 57005 IEM_DS3505
ZGKL,2007-01-01 10:00,ZGKL 011000Z AUTO 08002KT 1SM 10/07 A3012 RMK T01000070 IEM_DS3505
ZGKL,2007-01-01 11:00,ZGKL 011100Z AUTO 05004KT 1SM 09/07 A3012 RMK T00900070 IEM_DS3505
ZGKL,2007-01-01 12:00,ZGKL 011200Z AUTO 02008KT 2 1/2SM 09/05 A3015 RMK 60000 SLP216 T00860046 52007 IEM_DS3505
ZGKL,2007-01-01 13:00,ZGKL 011300Z AUTO 07002KT 1 1/4SM 09/07 A3015 RMK T00900070 IEM_DS3505
ZGKL,2007-01-01 14:00,ZGKL 011400Z AUTO 08002KT 1 1/4SM 08/07 A3018 RMK T00800070 IEM_DS3505
ZGKL,2007-01-01 15:00,ZGKL 011500Z AUTO 04006KT 2 1/2SM 07/06 A3018 RMK SLP231 T00740059 52015 IEM_DS3505
ZGKL,2007-01-01 16:00,ZGKL 011600Z AUTO 07002KT 1SM 08/07 A3018 RMK T00800070 IEM_DS3505
ZGKL,2007-01-01 17:00,ZGKL 011700Z AUTO 07004KT 07/06 A3018 RMK T00700060 IEM_DS3505
ZGKL,2007-01-01 18:00,ZGKL 011800Z AUTO 02004KT 2 1/2SM 07/06 A3018 RMK 60035 SLP231 T00660060 54000 IEM_DS3505
ZGKL,2007-01-01 19:00,ZGKL 011900Z AUTO 12004KT 07/06 A3018 RMK T00700060 IEM_DS3505
ZGKL,2007-01-01 20:00,ZGKL 012000Z AUTO 06004KT 07/06 A3015 RMK T00700060 IEM_DS3505
ZGKL,2007-01-01 21:00,ZGKL 012100Z AUTO 02004KT 2 1/2SM 06/06 A3015 RMK 70061 SLP217 T00630056 57014 IEM_DS3505
ZGKL,2007-01-01 22:00,ZGKL 012200Z AUTO 02002KT 1 1/4SM 07/06 A3015 RMK T00700060 IEM_DS3505
ZGKL,2007-01-01 23:00,ZGKL 012300Z AUTO 10002KT 2SM 07/06 A3015 RMK T00700060 IEM_DS3505
ZGKL,2007-01-02 00:00,ZGKL 020000Z AUTO 02004KT 4SM 06/05 A3015 RMK 60039 70076 SLP226 T00630053 52008 IEM_DS3505
ZGKL,2007-01-02 01:00,ZGKL 020100Z AUTO 07004KT 4SM 07/05 A3018 RMK T00700050 IEM_DS3505
ZGKL,2007-01-02 02:00,ZGKL 020200Z AUTO 08002KT 3SM 07/06 A3018 RMK T00700060 IEM_DS3505
ZGKL,2007-01-02 03:00,ZGKL 020300Z AUTO 02006KT 7SM 07/04 A3018 RMK SLP233 T00660044 52007 IEM_DS3505
ZGKL,2007-01-02 04:00,ZGKL 020400Z AUTO 05004KT 3SM 07/05 A3018 RMK T00700050 IEM_DS3505
ZGKL,2007-01-02 05:00,ZGKL 020500Z AUTO 08004KT 2 1/2SM 07/06 A3015 RMK T00700060 IEM_DS3505
ZGKL,2007-01-02 06:00,ZGKL 020600Z AUTO 02006KT 7SM 06/05 A3012 RMK 60003 SLP210 T00610046 57023 IEM_DS3505
ZGKL,2007-01-02 07:00,ZGKL 020700Z AUTO 06004KT 3SM 06/05 A3009 RMK T00600050 IEM_DS3505
ZGKL,2007-01-02 08:00,ZGKL 020800Z AUTO 06004KT 3SM 07/05 A3009 RMK T00700050 IEM_DS3505
ZGKL,2007-01-02 09:00,ZGKL 020900Z AUTO 02008KT 8SM 06/04 A3009 RMK SLP203 T00620035 57007 IEM_DS3505
ZGKL,2007-01-02 10:00,ZGKL 021000Z AUTO 05002KT 4SM 06/05 A3012 RMK T00600050 IEM_DS3505
ZGKL,2007-01-02 11:00,ZGKL 021100Z AUTO 03002KT 4SM 06/05 A3012 RMK T00600050 IEM_DS3505
ZGKL,2007-01-02 12:00,ZGKL 021200Z AUTO 02006KT 7SM 06/03 A3015 RMK SLP216 T00600033 52012 IEM_DS3505
ZGKL,2007-01-02 13:00,ZGKL 021300Z AUTO 05002KT 4SM 06/04 A3015 RMK T00600040 IEM_DS3505
ZGKL,2007-01-02 14:00,ZGKL 021400Z AUTO 03002KT 4SM 06/04 A3018 RMK T00600040 IEM_DS3505
ZGKL,2007-01-02 15:00,ZGKL 021500Z AUTO 02006KT 7SM 06/03 A3018 RMK SLP236 T00560028 52020 IEM_DS3505
ZGKL,2007-01-02 16:00,ZGKL 021600Z AUTO 05002KT 4SM 06/04 A3021 RMK T00600040 IEM_DS3505
ZGKL,2007-01-02 17:00,ZGKL 021700Z AUTO 05006KT 4SM 06/04 A3021 RMK T00600040 IEM_DS3505
ZGKL,2007-01-02 18:00,ZGKL 021800Z AUTO 02010KT 7SM 05/03 A3021 RMK 60000 SLP243 T00530027 52006 IEM_DS3505
ZGKL,2007-01-02 19:00,ZGKL 021900Z AUTO 06004KT 4SM 06/03 A3021 RMK T00600030 IEM_DS3505
ZGKL,2007-01-02 20:00,ZGKL 022000Z AUTO 07004KT 4SM 05/04 A3018 RMK T00500040 IEM_DS3505
ZGKL,2007-01-02 21:00,ZGKL 022100Z AUTO 02008KT 7SM 05/02 A3018 RMK 70017 SLP233 T00490021 57009 IEM_DS3505
ZGKL,2007-01-02 22:00,ZGKL 022200Z AUTO 04002KT 4SM 05/03 A3018 RMK T00500030 IEM_DS3505
ZGKL,2007-01-02 23:00,ZGKL 022300Z AUTO 07004KT 4SM 05/03 A3021 RMK T00500030 IEM_DS3505
ZGKL,2007-01-03 00:00,ZGKL 030000Z AUTO 02006KT 7SM 05/02 A3021 RMK 60003 70006 SLP244 T00460025 52010 IEM_DS3505
ZGKL,2007-01-03 01:00,ZGKL 030100Z AUTO 03002KT 3SM 05/04 A3024 RMK T00500040 IEM_DS3505
ZGKL,2007-01-03 02:00,ZGKL 030200Z AUTO 01002KT 3SM 05/04 A3027 RMK T00500040 IEM_DS3505
ZGKL,2007-01-03 03:00,ZGKL 030300Z AUTO 02006KT 8SM 05/02 A3027 RMK SLP259 T00490024 52015 IEM_DS3505
ZGKL,2007-01-03 04:00,ZGKL 030400Z AUTO 07004KT 2 1/2SM 06/04 A3024 RMK T00600040 IEM_DS3505
ZGKL,2007-01-03 05:00,ZGKL 030500Z AUTO 07004KT 3SM 06/04 A3021 RMK T00600040 IEM_DS3505
ZGKL,2007-01-03 06:00,ZGKL 030600Z AUTO 36008KT 8SM 05/02 A3021 RMK 60002 SLP240 T00480023 57019 IEM_DS3505
ZGKL,2007-01-03 07:00,ZGKL 030700Z AUTO 07006KT 4SM 06/04 A3018 RMK T00600040 IEM_DS3505
ZGKL,2007-01-03 08:00,ZGKL 030800Z AUTO 07004KT 4SM 06/04 A3021 RMK T00600040 IEM_DS3505
ZGKL,2007-01-03 09:00,ZGKL 030900Z AUTO 36008KT 9SM 05/02 A3021 RMK SLP245 T00500017 52005 IEM_DS3505
ZGKL,2007-01-03 10:00,ZGKL 031000Z AUTO 05004KT 4SM 05/03 A3024 RMK T00500030 IEM_DS3505
ZGKL,2007-01-03 11:00,ZGKL 031100Z AUTO 06004KT 4SM 05/03 A3024 RMK T00500030 IEM_DS3505
ZGKL,2007-01-03 12:00,ZGKL 031200Z AUTO 02008KT 8SM 05/02 A3024 RMK 60001 SLP256 T00460018 52010 IEM_DS3505
ZGKL,2007-01-03 13:00,ZGKL 031300Z AUTO 04002KT 4SM 05/03 A3027 RMK T00500030 IEM_DS3505
ZGKL,2007-01-03 14:00,ZGKL 031400Z AUTO 02002KT 4SM 05/03 A3030 RMK T00500030 IEM_DS3505
ZGKL,2007-01-03 15:00,ZGKL 031500Z AUTO 02012KT 7SM 04/02 A3030 RMK SLP273 T00400022 52017 IEM_DS3505
ZGKL,2007-01-03 16:00,ZGKL 031600Z AUTO 07004KT 2 1/2SM 04/03 A3030 RMK T00400030 IEM_DS3505
ZGKL,2007-01-03 17:00,ZGKL 031700Z AUTO 06004KT 2 1/2SM 04/03 A3030 RMK T00400030 IEM_DS3505
ZGKL,2007-01-03 18:00,ZGKL 031800Z AUTO 02010KT 5SM 04/02 A3030 RMK 60008 SLP275 T00390018 52002 IEM_DS3505
ZGKL,2007-01-03 19:00,ZGKL 031900Z AUTO 03004KT 04/03 A3030 RMK T00400030 IEM_DS3505
ZGKL,2007-01-03 20:00,ZGKL 032000Z AUTO 05004KT 04/03 A3030 RMK T00400030 IEM_DS3505
ZGKL,2007-01-03 21:00,ZGKL 032100Z AUTO 36008KT 7SM 04/01 A3030 RMK 70015 SLP272 T00390013 57003 IEM_DS3505
ZGKL,2007-01-03 22:00,ZGKL 032200Z AUTO 02002KT 2 1/2SM 04/02 A3030 RMK T00400020 IEM_DS3505
ZGKL,2007-01-03 23:00,ZGKL 032300Z AUTO 01002KT 3SM 04/02 A3030 RMK T00400020 IEM_DS3505
ZGKL,2007-01-04 00:00,ZGKL 040000Z AUTO 36008KT 7SM 04/01 A3033 RMK 70013 SLP280 T00380012 52008 IEM_DS3505
ZGKL,2007-01-04 01:00,ZGKL 040100Z AUTO 06004KT 4SM 05/02 A3033 RMK T00500020 IEM_DS3505
ZGKL,2007-01-04 02:00,ZGKL 040200Z AUTO 06004KT 4SM 05/02 A3036 RMK T00500020 IEM_DS3505
ZGKL,2007-01-04 03:00,ZGKL 040300Z AUTO 02006KT 7SM 04/01 A3039 RMK SLP299 T00450014 52018 IEM_DS3505
ZGKL,2007-01-04 04:00,ZGKL 040400Z AUTO 03004KT 4SM 05/03 A3036 RMK T00500030 IEM_DS3505
ZGKL,2007-01-04 05:00,ZGKL 040500Z AUTO 02002KT 4SM 06/03 A3033 RMK T00600030 IEM_DS3505
ZGKL,2007-01-04 06:00,ZGKL 040600Z AUTO 02008KT 7SM 05/02 A3030 RMK SLP276 T00480015 57022 IEM_DS3505
ZGKL,2007-01-04 07:00,ZGKL 040700Z AUTO 05006KT 7SM 06/02 A3030 RMK T00600020 IEM_DS3505
ZGKL,2007-01-04 08:00,ZGKL 040800Z AUTO 07004KT 4SM 06/03 A3027 RMK T00600030 IEM_DS3505
ZGKL,2007-01-04 09:00,ZGKL 040900Z AUTO 02012KT 7SM 04/01 A3030 RMK SLP271 T00450014 57005 IEM_DS3505
ZGKL,2007-01-04 10:00,ZGKL 041000Z AUTO 08002KT 4SM 05/02 A3030 RMK T00500020 IEM_DS3505
ZGKL,2007-01-04 11:00,ZGKL 041100Z AUTO 04004KT 4SM 05/02 A3033 RMK T00500020 IEM_DS3505
ZGKL,2007-01-04 12:00,ZGKL 041200Z AUTO 02008KT 7SM 04/01 A3033 RMK 60000 SLP286 T00440013 52014 IEM_DS3505
ZGKL,2007-01-04 13:00,ZGKL 041300Z AUTO 06004KT 3SM 05/02 A3036 RMK T00500020 IEM_DS3505
ZGKL,2007-01-04 14:00,ZGKL 041400Z AUTO 05004KT 3SM 05/02 A3036 RMK T00500020 IEM_DS3505
ZGKL,2007-01-04 15:00,ZGKL 041500Z AUTO 36008KT 7SM 04/01 A3039 RMK SLP300 T00440013 52014 IEM_DS3505
ZGKL,2007-01-04 16:00,ZGKL 041600Z AUTO 07004KT 05/02 A3039 RMK T00500020 IEM_DS3505
ZGKL,2007-01-04 17:00,ZGKL 041700Z AUTO 04004KT 05/02 A3039 RMK T00500020 IEM_DS3505
ZGKL,2007-01-04 18:00,ZGKL 041800Z AUTO 36008KT 7SM 04/01 A3039 RMK SLP298 T00420012 57002 IEM_DS3505
ZGKL,2007-01-04 19:00,ZGKL 041900Z AUTO 04002KT 05/02 A3036 RMK T00500020 IEM_DS3505
ZGKL,2007-01-04 20:00,ZGKL 042000Z AUTO 03004KT 05/02 A3036 RMK T00500020 IEM_DS3505
ZGKL,2007-01-04 21:00,ZGKL 042100Z AUTO 36008KT 7SM 04/01 A3036 RMK 70000 SLP297 T00420012 57001 IEM_DS3505
ZGKL,2007-01-04 22:00,ZGKL 042200Z AUTO 05002KT 3SM 05/02 A3039 RMK T00500020 IEM_DS3505
ZGKL,2007-01-04 23:00,ZGKL 042300Z AUTO 03002KT 3SM 05/02 A3039 RMK T00500020 IEM_DS3505
ZGKL,2007-01-05 00:00,ZGKL 050000Z AUTO 02008KT 4SM 04/01 A3042 RMK 70000 SLP307 T00420011 52010 IEM_DS3505
ZGKL,2007-01-05 01:00,ZGKL 050100Z AUTO 08004KT 2SM 05/02 A3042 RMK T00500020 IEM_DS3505
ZGKL,2007-01-05 02:00,ZGKL 050200Z AUTO 07002KT 2SM 05/02 A3042 RMK T00500020 IEM_DS3505
ZGKL,2007-01-05 03:00,ZGKL 050300Z AUTO 02008KT 4SM 05/01 A3042 RMK SLP314 T00520010 52007 IEM_DS3505
ZGKL,2007-01-05 04:00,ZGKL 050400Z AUTO 33002KT 3SM 07/02 A3039 RMK T00700020 IEM_DS3505
ZGKL,2007-01-05 05:00,ZGKL 050500Z AUTO 34004KT 3SM 08/03 A3036 RMK T00800030 IEM_DS3505
ZGKL,2007-01-05 06:00,ZGKL 050600Z AUTO 02012KT 4SM 07/01 A3033 RMK SLP283 T00690006 57029 IEM_DS3505
ZGKL,2007-01-05 07:00,ZGKL 050700Z AUTO 05006KT 4SM 09/02 A3033 RMK T00900020 IEM_DS3505
ZGKL,2007-01-05 08:00,ZGKL 050800Z AUTO 07004KT 4SM 09/02 A3033 RMK T00900020 IEM_DS3505
ZGKL,2007-01-05 09:00,ZGKL 050900Z AUTO 02008KT 5SM 07/01 A3033 RMK SLP287 T00690012 52003 IEM_DS3505
ZGKL,2007-01-05 10:00,ZGKL 051000Z AUTO 07006KT 3SM 07/02 A3036 RMK T00700020 IEM_DS3505
ZGKL,2007-01-05 11:00,ZGKL 051100Z AUTO 06006KT 2 1/2SM 07/02 A3036 RMK T00700020 IEM_DS3505
ZGKL,2007-01-05 12:00,ZGKL 051200Z AUTO 36008KT 5SM 06/01 A3039 RMK SLP306 T00590011 52019 IEM_DS3505
ZGKL,2007-01-05 13:00,ZGKL 051300Z AUTO 04004KT 2 1/2SM 07/02 A3042 RMK T00700020 IEM_DS3505
ZGKL,2007-01-05 14:00,ZGKL 051400Z AUTO 06004KT 2 1/2SM 06/02 A3042 RMK T00600020 IEM_DS3505
ZGKL,2007-01-05 15:00,ZGKL 051500Z AUTO 02010KT 5SM 06/00 A3042 RMK SLP318 T00570005 52012 IEM_DS3505
ZGKL,2007-01-05 16:00,ZGKL 051600Z AUTO 03004KT 07/01 A3042 RMK T00700010 IEM_DS3505
ZGKL,2007-01-05 17:00,ZGKL 051700Z AUTO 02002KT 07/01 A3045 RMK T00700010 IEM_DS3505
ZGKL,2007-01-05 18:00,ZGKL 051800Z AUTO 36010KT 5SM 06/M01 A3045 RMK SLP319 T00611008 52002 IEM_DS3505
ZGKL,2007-01-05 19:00,ZGKL 051900Z AUTO 10002KT 07/02 A3045 RMK T00700020 IEM_DS3505
ZGKL,2007-01-05 20:00,ZGKL 052000Z AUTO 00000KT 07/01 A3045 RMK T00700010 IEM_DS3505
ZGKL,2007-01-05 21:00,ZGKL 052100Z AUTO 02010KT 5SM 06/M02 A3045 RMK SLP322 T00651021 52003 IEM_DS3505
ZGKL,2007-01-05 22:00,ZGKL 052200Z AUTO 03004KT 2 1/2SM 07/01 A3047 RMK T00700010 IEM_DS3505
ZGKL,2007-01-05 23:00,ZGKL 052300Z AUTO 10002KT 2 1/2SM 07/01 A3047 RMK T00700010 IEM_DS3505
ZGKL,2007-01-06 00:00,ZGKL 060000Z AUTO 02008KT 5SM 06/M02 A3050 RMK SLP338 T00651019 52015 IEM_DS3505
ZGKL,2007-01-06 01:00,ZGKL 060100Z AUTO 07004KT 4SM 07/00 A3050 RMK T00700000 IEM_DS3505
ZGKL,2007-01-06 02:00,ZGKL 060200Z AUTO 04004KT 4SM 08/M01 A3053 RMK T00801010 IEM_DS3505
ZGKL,2007-01-06 03:00,ZGKL 060300Z AUTO 02012KT 5SM 08/M02 A3053 RMK SLP347 T00761019 52009 IEM_DS3505
ZGKL,2007-01-06 04:00,ZGKL 060400Z AUTO 07004KT 5SM 09/M01 A3050 RMK T00901010 IEM_DS3505
ZGKL,2007-01-06 05:00,ZGKL 060500Z AUTO 09006KT 5SM 10/M01 A3047 RMK T01001010 IEM_DS3505
ZGKL,2007-01-06 06:00,ZGKL 060600Z AUTO 02012KT 5SM 09/M02 A3045 RMK SLP321 T00881019 57025 IEM_DS3505
ZGKL,2007-01-06 07:00,ZGKL 060700Z AUTO 08006KT 4SM 10/M01 A3042 RMK T01001010 IEM_DS3505
ZGKL,2007-01-06 08:00,ZGKL 060800Z AUTO 04008KT 4SM 11/M03 A3042 RMK T01101030 IEM_DS3505
ZGKL,2007-01-06 09:00,ZGKL 060900Z AUTO 02012KT 7SM 09/M04 A3042 RMK SLP309 T00901039 57011 IEM_DS3505
ZGKL,2007-01-06 10:00,ZGKL 061000Z AUTO 07004KT 4SM 09/00 A3042 RMK T00900000 IEM_DS3505
ZGKL,2007-01-06 11:00,ZGKL 061100Z AUTO 07004KT 4SM 08/00 A3042 RMK T00800000 IEM_DS3505
ZGKL,2007-01-06 12:00,ZGKL 061200Z AUTO 02008KT 7SM 08/M03 A3045 RMK SLP317 T00791033 52007 IEM_DS3505
ZGKL,2007-01-06 13:00,ZGKL 061300Z AUTO 05006KT 4SM 08/M01 A3045 RMK T00801010 IEM_DS3505
ZGKL,2007-01-06 14:00,ZGKL 061400Z AUTO 03004KT 4SM 08/M02 A3045 RMK T00801020 IEM_DS3505
ZGKL,2007-01-06 15:00,ZGKL 061500Z AUTO 02008KT 7SM 07/M03 A3045 RMK SLP322 T00741029 52005 IEM_DS3505
ZGKL,2007-01-06 16:00,ZGKL 061600Z AUTO 01002KT 07/M01 A3045 RMK T00701010 IEM_DS3505
ZGKL,2007-01-06 17:00,ZGKL 061700Z AUTO 00000KT 07/01 A3045 RMK T00700010 IEM_DS3505
ZGKL,2007-01-06 18:00,ZGKL 061800Z AUTO 02010KT 7SM 07/M04 A3045 RMK SLP320 T00731041 57001 IEM_DS3505
ZGKL,2007-01-06 19:00,ZGKL 061900Z AUTO 00000KT 06/03 A3045 RMK T00600030 IEM_DS3505
ZGKL,2007-01-06 20:00,ZGKL 062000Z AUTO 04002KT 06/03 A3045 RMK T00600030 IEM_DS3505
ZGKL,2007-01-06 21:00,ZGKL 062100Z AUTO 02006KT 8SM 07/M05 A3045 RMK SLP316 T00701053 57004 IEM_DS3505
ZGKL,2007-01-06 22:00,ZGKL 062200Z AUTO 02002KT 5SM 06/01 A3045 RMK T00600010 IEM_DS3505
ZGKL,2007-01-06 23:00,ZGKL 062300Z AUTO 05002KT 5SM 06/01 A3045 RMK T00600010 IEM_DS3505
ZGKL,2007-01-07 00:00,ZGKL 070000Z AUTO 02008KT 8SM 07/M08 A3045 RMK SLP317 T00681080 54000 IEM_DS3505
ZGKL,2007-01-07 01:00,ZGKL 070100Z AUTO 05004KT 6SM 07/M03 A3045 RMK T00701030 IEM_DS3505
ZGKL,2007-01-07 02:00,ZGKL 070200Z AUTO 07004KT 6SM 08/M03 A3047 RMK T00801030 IEM_DS3505
ZGKL,2007-01-07 03:00,ZGKL 070300Z AUTO 02012KT 9SM 07/M09 A3047 RMK SLP327 T00731091 52010 IEM_DS3505
ZGKL,2007-01-07 04:00,ZGKL 070400Z AUTO 06008KT 6SM 09/M06 A3042 RMK T00901060 IEM_DS3505
ZGKL,2007-01-07 05:00,ZGKL 070500Z AUTO 08008KT 6SM 10/M06 A3039 RMK T01001060 IEM_DS3505
ZGKL,2007-01-07 06:00,ZGKL 070600Z AUTO 02008KT 11SM 10/M10 A3036 RMK SLP286 T00961095 57039 IEM_DS3505
ZGKL,2007-01-07 07:00,ZGKL 070700Z AUTO 08006KT 6SM 11/M07 A3033 RMK T01101070 IEM_DS3505
ZGKL,2007-01-07 08:00,ZGKL 070800Z AUTO 07008KT 6SM 11/M08 A3033 RMK T01101080 IEM_DS3505
ZGKL,2007-01-07 09:00,ZGKL 070900Z AUTO 02010KT 11SM 10/M10 A3033 RMK SLP279 T00971104 57007 IEM_DS3505
ZGKL,2007-01-07 10:00,ZGKL 071000Z AUTO 07004KT 6SM 09/M06 A3036 RMK T00901060 IEM_DS3505
ZGKL,2007-01-07 11:00,ZGKL 071100Z AUTO 08004KT 6SM 07/M05 A3036 RMK T00701050 IEM_DS3505
ZGKL,2007-01-07 12:00,ZGKL 071200Z AUTO 02010KT 11SM 07/M09 A3039 RMK SLP299 T00681091 52018 IEM_DS3505
ZGKL,2007-01-07 13:00,ZGKL 071300Z AUTO 02002KT 6SM 06/M06 A3042 RMK T00601060 IEM_DS3505
ZGKL,2007-01-07 14:00,ZGKL 071400Z AUTO 02004KT 6SM 06/M06 A3045 RMK T00601060 IEM_DS3505
ZGKL,2007-01-07 15:00,ZGKL 071500Z AUTO 36006KT 10SM 06/M08 A3045 RMK SLP324 T00551080 52024 IEM_DS3505
ZGKL,2007-01-07 16:00,ZGKL 071600Z AUTO 00000KT 03/M01 A3047 RMK T00301010 IEM_DS3505
ZGKL,2007-01-07 17:00,ZGKL 071700Z AUTO 00000KT 04/M01 A3047 RMK T00401010 IEM_DS3505
ZGKL,2007-01-07 18:00,ZGKL 071800Z AUTO 02006KT 9SM 06/ A3047 RMK SLP326 52003 IEM_DS3505
ZGKL,2007-01-07 19:00,ZGKL 071900Z AUTO 05002KT 05/01 A3047 RMK T00500010 IEM_DS3505
ZGKL,2007-01-07 20:00,ZGKL 072000Z AUTO 02002KT 05/01 A3047 RMK T00500010 IEM_DS3505
ZGKL,2007-01-07 21:00,ZGKL 072100Z AUTO 02004KT 9SM 06/ A3047 RMK SLP325 57001 IEM_DS3505
ZGKL,2007-01-07 22:00,ZGKL 072200Z AUTO 00000KT 6SM 05/02 A3047 RMK T00500020 IEM_DS3505
ZGKL,2007-01-07 23:00,ZGKL 072300Z AUTO 04004KT 6SM 05/M03 A3047 RMK T00501030 IEM_DS3505
ZGKL,2007-01-08 00:00,ZGKL 080000Z AUTO 02006KT 9SM 06/M10 A3047 RMK SLP333 T00561102 52007 IEM_DS3505
ZGKL,2007-01-08 01:00,ZGKL 080100Z AUTO 06006KT 6SM 07/M07 A3050 RMK T00701070 IEM_DS3505
ZGKL,2007-01-08 02:00,ZGKL 080200Z AUTO 04006KT 6SM 08/M08 A3050 RMK T00801080 IEM_DS3505
ZGKL,2007-01-08 03:00,ZGKL 080300Z AUTO 02010KT 10SM 08/M13 A3050 RMK SLP342 T00821128 52009 IEM_DS3505
ZGKL,2007-01-08 04:00,ZGKL 080400Z AUTO 08006KT 6SM 10/M08 A3047 RMK T01001080 IEM_DS3505
ZGKL,2007-01-08 05:00,ZGKL 080500Z AUTO 05004KT 6SM 11/M09 A3042 RMK T01101090 IEM_DS3505
ZGKL,2007-01-08 06:00,ZGKL 080600Z AUTO 36006KT 11SM 11/M11 A3039 RMK SLP297 T01131108 57042 IEM_DS3505
ZGKL,2007-01-08 07:00,ZGKL 080700Z AUTO 04006KT 6SM 13/M12 A3036 RMK T01301120 IEM_DS3505
ZGKL,2007-01-08 08:00,ZGKL 080800Z AUTO 05006KT 6SM 13/M10 A3033 RMK T01301100 IEM_DS3505
ZGKL,2007-01-08 09:00,ZGKL 080900Z AUTO 04004KT 14SM 12/M12 A3033 RMK SLP281 T01191124 57016 IEM_DS3505
ZGKL,2007-01-08 10:00,ZGKL 081000Z AUTO 08004KT 6SM 11/M08 A3033 RMK T01101080 IEM_DS3505
ZGKL,2007-01-08 11:00,ZGKL 081100Z AUTO 07006KT 6SM 10/M07 A3036 RMK T01001070 IEM_DS3505
ZGKL,2007-01-08 12:00,ZGKL 081200Z AUTO 02008KT 11SM 08/M09 A3039 RMK SLP303 T00841091 52020 IEM_DS3505
ZGKL,2007-01-08 13:00,ZGKL 081300Z AUTO 04004KT 6SM 09/M07 A3042 RMK T00901070 IEM_DS3505
ZGKL,2007-01-08 14:00,ZGKL 081400Z AUTO 04002KT 6SM 07/M08 A3042 RMK T00701080 IEM_DS3505
ZGKL,2007-01-08 15:00,ZGKL 081500Z AUTO 36006KT 10SM 07/M10 A3045 RMK SLP317 T00721096 52014 IEM_DS3505
ZGKL,2007-01-08 16:00,ZGKL 081600Z AUTO 04002KT 6SM 06/M05 A3045 RMK T00601050 IEM_DS3505
ZGKL,2007-01-08 17:00,ZGKL 081700Z AUTO 00000KT 06/M01 A3042 RMK T00601010 IEM_DS3505
ZGKL,2007-01-08 18:00,ZGKL 081800Z AUTO 02006KT 9SM 08/ A3042 RMK SLP309 57006 IEM_DS3505
ZGKL,2007-01-08 19:00,ZGKL 081900Z AUTO 00000KT 06/02 A3042 RMK T00600020 IEM_DS3505
ZGKL,2007-01-08 20:00,ZGKL 082000Z AUTO 00000KT 06/02 A3039 RMK T00600020 IEM_DS3505
ZGKL,2007-01-08 21:00,ZGKL 082100Z AUTO 02006KT 9SM 07/ A3039 RMK SLP300 57009 IEM_DS3505
ZGKL,2007-01-08 22:00,ZGKL 082200Z AUTO 14002KT 4SM 06/02 A3042 RMK T00600020 IEM_DS3505
ZGKL,2007-01-08 23:00,ZGKL 082300Z AUTO 00000KT 6SM 06/03 A3042 RMK T00600030 IEM_DS3505
ZGKL,2007-01-09 00:00,ZGKL 090000Z AUTO 02004KT 9SM 07/M08 A3042 RMK SLP311 T00691079 52010 IEM_DS3505
ZGKL,2007-01-09 01:00,ZGKL 090100Z AUTO 03002KT 6SM 08/M03 A3045 RMK T00801030 IEM_DS3505
ZGKL,2007-01-09 02:00,ZGKL 090200Z AUTO 02002KT 6SM 10/M06 A3045 RMK T01001060 IEM_DS3505
ZGKL,2007-01-09 03:00,ZGKL 090300Z AUTO 04004KT 9SM 11/M10 A3045 RMK SLP315 T01091100 52004 IEM_DS3505
ZGKL,2007-01-09 04:00,ZGKL 090400Z AUTO 12002KT 6SM 13/M06 A3039 RMK T01301060 IEM_DS3505
ZGKL,2007-01-09 05:00,ZGKL 090500Z AUTO 15002KT 6SM 14/M09 A3033 RMK T01401090 IEM_DS3505
ZGKL,2007-01-09 06:00,ZGKL 090600Z AUTO 20006KT 9SM 15/M08 A3030 RMK SLP260 T01461075 57052 IEM_DS3505
ZGKL,2007-01-09 07:00,ZGKL 090700Z AUTO 16004KT 6SM 15/M06 A3024 RMK T01501060 IEM_DS3505
ZGKL,2007-01-09 08:00,ZGKL 090800Z AUTO 21002KT 6SM 16/M07 A3024 RMK T01601070 IEM_DS3505
ZGKL,2007-01-09 09:00,ZGKL 090900Z AUTO 18002KT 10SM 15/M06 A3024 RMK SLP245 T01511064 57015 IEM_DS3505
ZGKL,2007-01-09 10:00,ZGKL 091000Z AUTO 00000KT 6SM 12/M01 A3024 RMK T01201010 IEM_DS3505
ZGKL,2007-01-09 11:00,ZGKL 091100Z AUTO 06002KT 6SM 08/03 A3027 RMK T00800030 IEM_DS3505
ZGKL,2007-01-09 12:00,ZGKL 091200Z AUTO 02004KT 10SM 11/M04 A3027 RMK SLP262 T01061042 52015 IEM_DS3505
ZGKL,2007-01-09 13:00,ZGKL 091300Z AUTO 36002KT 6SM 05/03 A3030 RMK T00500030 IEM_DS3505
ZGKL,2007-01-09 14:00,ZGKL 091400Z AUTO 04002KT 5SM 04/02 A3033 RMK T00400020 IEM_DS3505
ZGKL,2007-01-09 15:00,ZGKL 091500Z AUTO 02004KT 9SM 08/M04 A3033 RMK SLP276 T00851043 52015 IEM_DS3505
ZGKL,2007-01-09 16:00,ZGKL 091600Z AUTO 05002KT 03/01 A3033 RMK T00300010 IEM_DS3505
ZGKL,2007-01-09 17:00,ZGKL 091700Z AUTO 03002KT 02/01 A3033 RMK T00200010 IEM_DS3505
ZGKL,2007-01-09 18:00,ZGKL 091800Z AUTO 32002KT 9SM 07/M04 A3033 RMK SLP277 T00681037 52001 IEM_DS3505
ZGKL,2007-01-09 19:00,ZGKL 091900Z AUTO 04002KT 01/00 A3033 RMK T00100000 IEM_DS3505
ZGKL,2007-01-09 20:00,ZGKL 092000Z AUTO 00000KT 01/00 A3033 RMK T00100000 IEM_DS3505
ZGKL,2007-01-09 21:00,ZGKL 092100Z AUTO 27002KT 9SM 04/M03 A3030 RMK SLP271 T00441027 57006 IEM_DS3505
ZGKL,2007-01-09 22:00,ZGKL 092200Z AUTO 00000KT 00/M01 A3030 RMK T00001010 IEM_DS3505
ZGKL,2007-01-09 23:00,ZGKL 092300Z AUTO 08002KT 5SM 00/M01 A3033 RMK T00001010 IEM_DS3505
ZGKL,2007-01-10 00:00,ZGKL 100000Z AUTO 09002KT 10SM 04/M02 A3033 RMK SLP277 T00361015 52004 IEM_DS3505
ZGKL,2007-01-10 01:00,ZGKL 100100Z AUTO 00000KT 6SM 04/02 A3033 RMK T00400020 IEM_DS3505
ZGKL,2007-01-10 02:00,ZGKL 100200Z AUTO 00000KT 6SM 08/02 A3033 RMK T00800020 IEM_DS3505
ZGKL,2007-01-10 03:00,ZGKL 100300Z AUTO 11002KT 9SM 11/M03 A3033 RMK SLP275 T01091032 54000 IEM_DS3505
ZGKL,2007-01-10 04:00,ZGKL 100400Z AUTO 07002KT 6SM 13/M02 A3027 RMK T01301020 IEM_DS3505
ZGKL,2007-01-10 05:00,ZGKL 100500Z AUTO 09002KT 6SM 15/M04 A3024 RMK T01501040 IEM_DS3505
ZGKL,2007-01-10 06:00,ZGKL 100600Z AUTO 14004KT 7SM 15/M03 A3018 RMK SLP226 T01511033 57047 IEM_DS3505
ZGKL,2007-01-10 07:00,ZGKL 100700Z AUTO 10004KT 6SM 17/M02 A3015 RMK T01701020 IEM_DS3505
ZGKL,2007-01-10 08:00,ZGKL 100800Z AUTO 09002KT 6SM 17/M02 A3012 RMK T01701020 IEM_DS3505
ZGKL,2007-01-10 09:00,ZGKL 100900Z AUTO 16002KT 7SM 17/M01 A3012 RMK SLP204 T01681013 57022 IEM_DS3505
ZGKL,2007-01-10 10:00,ZGKL 101000Z AUTO 36002KT 6SM 14/02 A3012 RMK T01400020 IEM_DS3505
ZGKL,2007-01-10 11:00,ZGKL 101100Z AUTO 04002KT 6SM 11/05 A3015 RMK T01100050 IEM_DS3505
ZGKL,2007-01-10 12:00,ZGKL 101200Z AUTO 36002KT 7SM 12/01 A3015 RMK SLP222 T01210014 52015 IEM_DS3505
ZGKL,2007-01-10 13:00,ZGKL 101300Z AUTO 35002KT 4SM 10/06 A3018 RMK T01000060 IEM_DS3505
ZGKL,2007-01-10 14:00,ZGKL 101400Z AUTO 06002KT 4SM 07/05 A3018 RMK T00700050 IEM_DS3505
ZGKL,2007-01-10 15:00,ZGKL 101500Z AUTO 07002KT 7SM 10/02 A3021 RMK SLP234 T01000019 52014 IEM_DS3505
ZGKL,2007-01-10 16:00,ZGKL 101600Z AUTO 05002KT 3SM 05/04 A3021 RMK T00500040 IEM_DS3505
ZGKL,2007-01-10 17:00,ZGKL 101700Z AUTO 05002KT 3SM 06/04 A3021 RMK T00600040 IEM_DS3505
ZGKL,2007-01-10 18:00,ZGKL 101800Z AUTO 00000KT 7SM 10/02 A3021 RMK SLP233 T00950019 54000 IEM_DS3505
ZGKL,2007-01-10 19:00,ZGKL 101900Z AUTO 00000KT 07/05 A3021 RMK T00700050 IEM_DS3505
ZGKL,2007-01-10 20:00,ZGKL 102000Z AUTO 00000KT 08/05 A3018 RMK T00800050 IEM_DS3505
ZGKL,2007-01-10 21:00,ZGKL 102100Z AUTO 14002KT 6SM 10/04 A3018 RMK SLP229 T00950037 57003 IEM_DS3505
ZGKL,2007-01-10 22:00,ZGKL 102200Z AUTO 00000KT 2 1/2SM 08/06 A3021 RMK T00800060 IEM_DS3505
ZGKL,2007-01-10 23:00,ZGKL 102300Z AUTO 04002KT 2 1/2SM 09/06 A3021 RMK T00900060 IEM_DS3505
ZGKL,2007-01-11 00:00,ZGKL 110000Z AUTO 36002KT 7SM 10/02 A3024 RMK SLP244 T01040020 52013 IEM_DS3505
ZGKL,2007-01-11 01:00,ZGKL 110100Z AUTO 00000KT 3SM 10/06 A3024 RMK T01000060 IEM_DS3505
ZGKL,2007-01-11 02:00,ZGKL 110200Z AUTO 32002KT 3SM 12/06 A3027 RMK T01200060 IEM_DS3505
ZGKL,2007-01-11 03:00,ZGKL 110300Z AUTO 02006KT 7SM 15/M00 A3027 RMK SLP253 T01471002 52010 IEM_DS3505
ZGKL,2007-01-11 04:00,ZGKL 110400Z AUTO 31002KT 3SM 15/03 A3024 RMK T01500030 IEM_DS3505
ZGKL,2007-01-11 05:00,ZGKL 110500Z AUTO 33004KT 4SM 16/03 A3021 RMK T01600030 IEM_DS3505
ZGKL,2007-01-11 06:00,ZGKL 110600Z AUTO 36010KT 7SM 16/M00 A3015 RMK SLP219 T01601003 57033 IEM_DS3505
ZGKL,2007-01-11 07:00,ZGKL 110700Z AUTO 06004KT 4SM 17/02 A3015 RMK T01700020 IEM_DS3505
ZGKL,2007-01-11 08:00,ZGKL 110800Z AUTO 06004KT 4SM 17/02 A3012 RMK T01700020 IEM_DS3505
ZGKL,2007-01-11 09:00,ZGKL 110900Z AUTO 04010KT 7SM 15/M00 A3015 RMK SLP212 T01521005 57007 IEM_DS3505
ZGKL,2007-01-11 10:00,ZGKL 111000Z AUTO 08004KT 3SM 15/02 A3015 RMK T01500020 IEM_DS3505
ZGKL,2007-01-11 11:00,ZGKL 111100Z AUTO 06004KT 2 1/2SM 14/02 A3018 RMK T01400020 IEM_DS3505
ZGKL,2007-01-11 12:00,ZGKL 111200Z AUTO 02012KT 7SM 13/M01 A3021 RMK SLP237 T01301010 52024 IEM_DS3505
ZGKL,2007-01-11 13:00,ZGKL 111300Z AUTO 09004KT 2 1/2SM 13/01 A3024 RMK T01300010 IEM_DS3505
ZGKL,2007-01-11 14:00,ZGKL 111400Z AUTO 06006KT 2 1/2SM 12/01 A3027 RMK T01200010 IEM_DS3505
ZGKL,2007-01-11 15:00,ZGKL 111500Z AUTO 09002KT 7SM 10/01 A3027 RMK SLP260 T01020011 52023 IEM_DS3505
ZGKL,2007-01-11 16:00,ZGKL 111600Z AUTO 07004KT 11/02 A3030 RMK T01100020 IEM_DS3505
ZGKL,2007-01-11 17:00,ZGKL 111700Z AUTO 07004KT 10/03 A3030 RMK T01000030 IEM_DS3505
ZGKL,2007-01-11 18:00,ZGKL 111800Z AUTO 02010KT 7SM 09/02 A3030 RMK SLP273 T00940018 52013 IEM_DS3505
ZGKL,2007-01-11 19:00,ZGKL 111900Z AUTO 07008KT 09/03 A3030 RMK T00900030 IEM_DS3505
ZGKL,2007-01-11 20:00,ZGKL 112000Z AUTO 05006KT 09/03 A3030 RMK T00900030 IEM_DS3505
ZGKL,2007-01-11 21:00,ZGKL 112100Z AUTO 02010KT 7SM 08/02 A3030 RMK SLP272 T00790022 57002 IEM_DS3505
ZGKL,2007-01-11 22:00,ZGKL 112200Z AUTO 07006KT 2 1/2SM 08/03 A3033 RMK T00800030 IEM_DS3505
ZGKL,2007-01-11 23:00,ZGKL 112300Z AUTO 08006KT 2 1/2SM 08/03 A3036 RMK T00800030 IEM_DS3505
ZGKL,2007-01-12 00:00,ZGKL 120000Z AUTO 02012KT 6SM 07/02 A3039 RMK SLP298 T00700021 52024 IEM_DS3505
ZGKL,2007-01-12 01:00,ZGKL 120100Z AUTO 06006KT 3SM 07/03 A3039 RMK T00700030 IEM_DS3505
ZGKL,2007-01-12 02:00,ZGKL 120200Z AUTO 08008KT 3SM 08/03 A3042 RMK T00800030 IEM_DS3505
ZGKL,2007-01-12 03:00,ZGKL 120300Z AUTO 02014KT 4SM 07/02 A3042 RMK SLP309 T00710016 52011 IEM_DS3505
ZGKL,2007-01-12 04:00,ZGKL 120400Z AUTO 08008KT 3SM 08/03 A3039 RMK T00800030 IEM_DS3505
ZGKL,2007-01-12 05:00,ZGKL 120500Z AUTO 08008KT 3SM 09/03 A3036 RMK T00900030 IEM_DS3505
ZGKL,2007-01-12 06:00,ZGKL 120600Z AUTO 36012KT 2 1/2SM 07/01 A3030 RMK SLP277 T00700013 57032 IEM_DS3505
ZGKL,2007-01-12 07:00,ZGKL 120700Z AUTO 07006KT 3SM 08/02 A3030 RMK T00800020 IEM_DS3505
ZGKL,2007-01-12 08:00,ZGKL 120800Z AUTO 05006KT 3SM 08/02 A3030 RMK T00800020 IEM_DS3505
ZGKL,2007-01-12 09:00,ZGKL 120900Z AUTO 02008KT 2 1/2SM 06/01 A3030 RMK SLP276 T00600011 57002 IEM_DS3505
ZGKL,2007-01-12 10:00,ZGKL 121000Z AUTO 08008KT 2 1/2SM 06/02 A3030 RMK T00600020 IEM_DS3505
ZGKL,2007-01-12 11:00,ZGKL 121100Z AUTO 08006KT 2 1/2SM 06/02 A3033 RMK T00600020 IEM_DS3505
ZGKL,2007-01-12 12:00,ZGKL 121200Z AUTO 02008KT 2 1/2SM 06/01 A3033 RMK SLP286 T00580011 52009 IEM_DS3505
ZGKL,2007-01-12 13:00,ZGKL 121300Z AUTO 08004KT 2 1/2SM 06/02 A3036 RMK T00600020 IEM_DS3505
ZGKL,2007-01-12 14:00,ZGKL 121400Z AUTO 05002KT 2 1/2SM 06/02 A3036 RMK T00600020 IEM_DS3505
ZGKL,2007-01-12 15:00,ZGKL 121500Z AUTO 36008KT 2 1/2SM 06/01 A3039 RMK SLP296 T00550012 52010 IEM_DS3505
ZGKL,2007-01-12 16:00,ZGKL 121600Z AUTO 07004KT 2 1/2SM 06/02 A3036 RMK T00600020 IEM_DS3505
ZGKL,2007-01-12 17:00,ZGKL 121700Z AUTO 07002KT 06/02 A3036 RMK T00600020 IEM_DS3505
ZGKL,2007-01-12 18:00,ZGKL 121800Z AUTO 02006KT 2 1/2SM 05/01 A3033 RMK SLP283 T00530012 57013 IEM_DS3505
ZGKL,2007-01-12 19:00,ZGKL 121900Z AUTO 07004KT 06/02 A3033 RMK T00600020 IEM_DS3505
ZGKL,2007-01-12 20:00,ZGKL 122000Z AUTO 06002KT 06/02 A3030 RMK T00600020 IEM_DS3505
ZGKL,2007-01-12 21:00,ZGKL 122100Z AUTO 02006KT 2 1/2SM 06/01 A3030 RMK SLP276 T00560010 57007 IEM_DS3505
ZGKL,2007-01-12 22:00,ZGKL 122200Z AUTO 04004KT 2 1/2SM 06/02 A3033 RMK T00600020 IEM_DS3505
ZGKL,2007-01-12 23:00,ZGKL 122300Z AUTO 06002KT 2 1/2SM 06/02 A3036 RMK T00600020 IEM_DS3505
ZGKL,2007-01-13 00:00,ZGKL 130000Z AUTO 02008KT 2SM 05/01 A3039 RMK SLP297 T00540010 52020 IEM_DS3505
ZGKL,2007-01-13 01:00,ZGKL 130100Z AUTO 05002KT 1 1/4SM 06/02 A3039 RMK T00600020 IEM_DS3505
ZGKL,2007-01-13 02:00,ZGKL 130200Z AUTO 08004KT 1 1/2SM 07/02 A3042 RMK T00700020 IEM_DS3505
ZGKL,2007-01-13 03:00,ZGKL 130300Z AUTO 02008KT 2SM 06/01 A3042 RMK SLP307 T00550011 52010 IEM_DS3505
ZGKL,2007-01-13 04:00,ZGKL 130400Z AUTO 07004KT 1 1/2SM 07/02 A3039 RMK T00700020 IEM_DS3505
ZGKL,2007-01-13 05:00,ZGKL 130500Z AUTO 08004KT 1 1/2SM 07/02 A3033 RMK T00700020 IEM_DS3505
ZGKL,2007-01-13 06:00,ZGKL 130600Z AUTO 02008KT 2 1/2SM 06/01 A3030 RMK SLP274 T00570012 57032 IEM_DS3505
ZGKL,2007-01-13 07:00,ZGKL 130700Z AUTO 07004KT 2SM 07/02 A3030 RMK T00700020 IEM_DS3505
ZGKL,2007-01-13 08:00,ZGKL 130800Z AUTO 08004KT 2SM 06/02 A3030 RMK T00600020 IEM_DS3505
ZGKL,2007-01-13 09:00,ZGKL 130900Z AUTO 02008KT 2 1/2SM 05/01 A3030 RMK SLP271 T00530010 57003 IEM_DS3505
ZGKL,2007-01-13 10:00,ZGKL 131000Z AUTO 07004KT 1 1/2SM 06/02 A3030 RMK T00600020 IEM_DS3505
ZGKL,2007-01-13 11:00,ZGKL 131100Z AUTO 08004KT 1 1/2SM 05/02 A3030 RMK T00500020 IEM_DS3505
ZGKL,2007-01-13 12:00,ZGKL 131200Z AUTO 02008KT 2 1/2SM 05/01 A3033 RMK SLP279 T00500011 52007 IEM_DS3505
ZGKL,2007-01-13 13:00,ZGKL 131300Z AUTO 07004KT 1 1/2SM 05/02 A3033 RMK T00500020 IEM_DS3505
ZGKL,2007-01-13 14:00,ZGKL 131400Z AUTO 07002KT 1 1/2SM 05/02 A3033 RMK T00500020 IEM_DS3505
ZGKL,2007-01-13 15:00,ZGKL 131500Z AUTO 02006KT 2 1/2SM 05/01 A3033 RMK SLP284 T00520011 52005 IEM_DS3505
ZGKL,2007-01-13 16:00,ZGKL 131600Z AUTO 09002KT 05/02 A3033 RMK T00500020 IEM_DS3505
ZGKL,2007-01-13 17:00,ZGKL 131700Z AUTO 05002KT 05/02 A3033 RMK T00500020 IEM_DS3505
ZGKL,2007-01-13 18:00,ZGKL 131800Z AUTO 36006KT 3SM 05/01 A3033 RMK SLP278 T00510010 57005 IEM_DS3505
ZGKL,2007-01-13 19:00,ZGKL 131900Z AUTO 01002KT 05/02 A3033 RMK T00500020 IEM_DS3505
ZGKL,2007-01-13 20:00,ZGKL 132000Z AUTO 04002KT 05/02 A3033 RMK T00500020 IEM_DS3505
ZGKL,2007-01-13 21:00,ZGKL 132100Z AUTO 02004KT 3SM 05/01 A3030 RMK SLP275 T00500013 57004 IEM_DS3505
ZGKL,2007-01-13 22:00,ZGKL 132200Z AUTO 09002KT 1 1/2SM 05/02 A3033 RMK T00500020 IEM_DS3505
ZGKL,2007-01-13 23:00,ZGKL 132300Z AUTO 08002KT 2SM 05/02 A3033 RMK T00500020 IEM_DS3505
ZGKL,2007-01-14 00:00,ZGKL 140000Z AUTO 02004KT 3SM 05/01 A3033 RMK SLP284 T00480013 52009 IEM_DS3505
ZGKL,2007-01-14 01:00,ZGKL 140100Z AUTO 04002KT 2 1/2SM 05/03 A3036 RMK T00500030 IEM_DS3505
ZGKL,2007-01-14 02:00,ZGKL 140200Z AUTO 01002KT 2 1/2SM 05/03 A3039 RMK T00500030 IEM_DS3505
ZGKL,2007-01-14 03:00,ZGKL 140300Z AUTO 04004KT 4SM 05/02 A3039 RMK SLP296 T00530020 52012 IEM_DS3505
ZGKL,2007-01-14 04:00,ZGKL 140400Z AUTO 08002KT 2 1/2SM 06/04 A3036 RMK T00600040 IEM_DS3505
ZGKL,2007-01-14 05:00,ZGKL 140500Z AUTO 07002KT 2 1/2SM 06/03 A3030 RMK T00600030 IEM_DS3505
ZGKL,2007-01-14 06:00,ZGKL 140600Z AUTO 36004KT 4SM 06/02 A3027 RMK SLP260 T00600019 57035 IEM_DS3505
ZGKL,2007-01-14 07:00,ZGKL 140700Z AUTO 08002KT 2 1/2SM 06/03 A3024 RMK T00600030 IEM_DS3505
ZGKL,2007-01-14 08:00,ZGKL 140800Z AUTO 08002KT 2 1/2SM 07/04 A3024 RMK T00700040 IEM_DS3505
ZGKL,2007-01-14 09:00,ZGKL 140900Z AUTO 02004KT 4SM 06/02 A3024 RMK SLP248 T00600021 57012 IEM_DS3505
ZGKL,2007-01-14 10:00,ZGKL 141000Z AUTO 10002KT 2 1/2SM 07/03 A3024 RMK T00700030 IEM_DS3505
ZGKL,2007-01-14 11:00,ZGKL 141100Z AUTO 06002KT 2 1/2SM 06/03 A3024 RMK T00600030 IEM_DS3505
ZGKL,2007-01-14 12:00,ZGKL 141200Z AUTO 02006KT 4SM 06/02 A3027 RMK SLP257 T00600021 52009 IEM_DS3505
ZGKL,2007-01-14 13:00,ZGKL 141300Z AUTO 10002KT 2 1/2SM 06/04 A3027 RMK T00600040 IEM_DS3505
ZGKL,2007-01-14 14:00,ZGKL 141400Z AUTO 05002KT 2 1/2SM 06/03 A3027 RMK T00600030 IEM_DS3505
ZGKL,2007-01-14 15:00,ZGKL 141500Z AUTO 02004KT 4SM 06/02 A3027 RMK SLP265 T00580024 52008 IEM_DS3505
ZGKL,2007-01-14 16:00,ZGKL 141600Z AUTO 07002KT 2 1/2SM 06/03 A3027 RMK T00600030 IEM_DS3505
ZGKL,2007-01-14 17:00,ZGKL 141700Z AUTO 06002KT 06/03 A3027 RMK T00600030 IEM_DS3505
ZGKL,2007-01-14 18:00,ZGKL 141800Z AUTO 04004KT 4SM 06/02 A3027 RMK SLP261 T00580024 57004 IEM_DS3505
ZGKL,2007-01-14 19:00,ZGKL 141900Z AUTO 05002KT 06/03 A3027 RMK T00600030 IEM_DS3505
ZGKL,2007-01-14 20:00,ZGKL 142000Z AUTO 05002KT 06/03 A3024 RMK T00600030 IEM_DS3505
ZGKL,2007-01-14 21:00,ZGKL 142100Z AUTO 07002KT 06/03 A3024 RMK T00600030 IEM_DS3505
ZGKL,2007-01-14 22:00,ZGKL 142200Z AUTO 05002KT 3SM 06/03 A3024 RMK T00600030 IEM_DS3505
ZGKL,2007-01-14 23:00,ZGKL 142300Z AUTO 05002KT 3SM 06/03 A3024 RMK T00600030 IEM_DS3505
ZGKL,2007-01-15 00:00,ZGKL 150000Z AUTO 02006KT 4SM 06/02 A3027 RMK SLP260 T00580023 52007 IEM_DS3505
ZGKL,2007-01-15 01:00,ZGKL 150100Z AUTO 05004KT 3SM 07/03 A3027 RMK T00700030 IEM_DS3505
ZGKL,2007-01-15 02:00,ZGKL 150200Z AUTO 07004KT 3SM 07/03 A3030 RMK T00700030 IEM_DS3505
ZGKL,2007-01-15 03:00,ZGKL 150300Z AUTO 02006KT 4SM 07/03 A3030 RMK SLP270 T00660027 52010 IEM_DS3505
ZGKL,2007-01-15 04:00,ZGKL 150400Z AUTO 11002KT 3SM 08/03 A3027 RMK T00800030 IEM_DS3505
ZGKL,2007-01-15 05:00,ZGKL 150500Z AUTO 36002KT 3SM 08/04 A3024 RMK T00800040 IEM_DS3505
ZGKL,2007-01-15 06:00,ZGKL 150600Z AUTO 02006KT 4SM 08/03 A3018 RMK SLP235 T00770032 57034 IEM_DS3505
ZGKL,2007-01-15 07:00,ZGKL 150700Z AUTO 36004KT 2 1/2SM 09/04 A3015 RMK T00900040 IEM_DS3505
ZGKL,2007-01-15 08:00,ZGKL 150800Z AUTO 01004KT 2 1/2SM 09/05 A3015 RMK T00900050 IEM_DS3505
ZGKL,2007-01-15 09:00,ZGKL 150900Z AUTO 02006KT 4SM 07/03 A3015 RMK SLP223 T00720033 57012 IEM_DS3505
ZGKL,2007-01-15 10:00,ZGKL 151000Z AUTO 06004KT 2 1/2SM 08/05 A3015 RMK T00800050 IEM_DS3505
ZGKL,2007-01-15 11:00,ZGKL 151100Z AUTO 06004KT 2 1/2SM 08/04 A3018 RMK T00800040 IEM_DS3505
ZGKL,2007-01-15 12:00,ZGKL 151200Z AUTO 02006KT 4SM 07/03 A3018 RMK SLP236 T00680029 52013 IEM_DS3505
ZGKL,2007-01-15 13:00,ZGKL 151300Z AUTO 08002KT 2 1/2SM 07/04 A3021 RMK T00700040 IEM_DS3505
ZGKL,2007-01-15 14:00,ZGKL 151400Z AUTO 07004KT 2 1/2SM 07/04 A3021 RMK T00700040 IEM_DS3505
ZGKL,2007-01-15 15:00,ZGKL 151500Z AUTO 04004KT 4SM 07/03 A3024 RMK SLP247 T00660029 52011 IEM_DS3505
ZGKL,2007-01-15 16:00,ZGKL 151600Z AUTO 07002KT 2 1/2SM 07/04 A3024 RMK T00700040 IEM_DS3505
ZGKL,2007-01-15 17:00,ZGKL 151700Z AUTO 07004KT 07/04 A3024 RMK T00700040 IEM_DS3505
ZGKL,2007-01-15 18:00,ZGKL 151800Z AUTO 36006KT 4SM 06/03 A3024 RMK SLP247 T00640030 54000 IEM_DS3505
ZGKL,2007-01-15 19:00,ZGKL 151900Z AUTO 34004KT 07/04 A3024 RMK T00700040 IEM_DS3505
ZGKL,2007-01-15 20:00,ZGKL 152000Z AUTO 01002KT 07/04 A3021 RMK T00700040 IEM_DS3505
ZGKL,2007-01-15 21:00,ZGKL 152100Z AUTO 02008KT 4SM 06/03 A3021 RMK SLP245 T00630028 57002 IEM_DS3505
ZGKL,2007-01-15 22:00,ZGKL 152200Z AUTO 07002KT 2SM 07/04 A3024 RMK T00700040 IEM_DS3505
ZGKL,2007-01-15 23:00,ZGKL 152300Z AUTO 02002KT 2SM 07/04 A3024 RMK T00700040 IEM_DS3505
ZGKL,2007-01-16 00:00,ZGKL 160000Z AUTO 02008KT 5SM 06/03 A3027 RMK SLP262 T00600026 52017 IEM_DS3505
ZGKL,2007-01-16 01:00,ZGKL 160100Z AUTO 08004KT 2 1/2SM 06/04 A3027 RMK T00600040 IEM_DS3505
ZGKL,2007-01-16 02:00,ZGKL 160200Z AUTO 07004KT 4SM 06/04 A3030 RMK T00600040 IEM_DS3505
ZGKL,2007-01-16 03:00,ZGKL 160300Z AUTO 36008KT 5SM 06/02 A3033 RMK SLP280 T00590024 52017 IEM_DS3505
ZGKL,2007-01-16 04:00,ZGKL 160400Z AUTO 05002KT 2 1/2SM 06/04 A3033 RMK T00600040 IEM_DS3505
ZGKL,2007-01-16 05:00,ZGKL 160500Z AUTO 07004KT 2 1/2SM 06/04 A3030 RMK T00600040 IEM_DS3505
ZGKL,2007-01-16 06:00,ZGKL 160600Z AUTO 02008KT 4SM 06/02 A3027 RMK 60000 SLP257 T00550025 57023 IEM_DS3505
ZGKL,2007-01-16 07:00,ZGKL 160700Z AUTO 07006KT 2 1/2SM 06/04 A3024 RMK T00600040 IEM_DS3505
ZGKL,2007-01-16 08:00,ZGKL 160800Z AUTO 07004KT 2 1/2SM 06/03 A3024 RMK T00600030 IEM_DS3505
ZGKL,2007-01-16 09:00,ZGKL 160900Z AUTO 02008KT 7SM 05/02 A3024 RMK SLP255 T00520020 57002 IEM_DS3505
ZGKL,2007-01-16 10:00,ZGKL 161000Z AUTO 05004KT 2SM 05/04 A3027 RMK T00500040 IEM_DS3505
ZGKL,2007-01-16 11:00,ZGKL 161100Z AUTO 03002KT 2 1/2SM 05/03 A3030 RMK T00500030 IEM_DS3505
ZGKL,2007-01-16 12:00,ZGKL 161200Z AUTO 02008KT 6SM 05/02 A3033 RMK 60000 SLP278 T00470024 52023 IEM_DS3505
ZGKL,2007-01-16 13:00,ZGKL 161300Z AUTO 11002KT 2 1/2SM 05/04 A3033 RMK T00500040 IEM_DS3505
ZGKL,2007-01-16 14:00,ZGKL 161400Z AUTO 06002KT 4SM 05/04 A3036 RMK T00500040 IEM_DS3505
ZGKL,2007-01-16 15:00,ZGKL 161500Z AUTO 02010KT 6SM 05/02 A3036 RMK SLP290 T00490019 52011 IEM_DS3505
ZGKL,2007-01-16 16:00,ZGKL 161600Z AUTO 00000KT 05/04 A3036 RMK T00500040 IEM_DS3505
ZGKL,2007-01-16 17:00,ZGKL 161700Z AUTO 00000KT 05/03 A3036 RMK T00500030 IEM_DS3505
ZGKL,2007-01-16 18:00,ZGKL 161800Z AUTO 36008KT 6SM 05/02 A3033 RMK 60000 SLP287 T00470021 57003 IEM_DS3505
ZGKL,2007-01-16 19:00,ZGKL 161900Z AUTO 12002KT 05/04 A3033 RMK T00500040 IEM_DS3505
ZGKL,2007-01-16 20:00,ZGKL 162000Z AUTO 02002KT 05/03 A3033 RMK T00500030 IEM_DS3505
ZGKL,2007-01-16 21:00,ZGKL 162100Z AUTO 02008KT 6SM 04/02 A3030 RMK 70002 SLP278 T00440019 57009 IEM_DS3505
ZGKL,2007-01-16 22:00,ZGKL 162200Z AUTO 04002KT 3SM 05/03 A3033 RMK T00500030 IEM_DS3505
ZGKL,2007-01-16 23:00,ZGKL 162300Z AUTO 09002KT 3SM 05/03 A3033 RMK T00500030 IEM_DS3505
ZGKL,2007-01-17 00:00,ZGKL 170000Z AUTO 02008KT 8SM 04/02 A3036 RMK 60002 70002 SLP288 T00450019 52010 IEM_DS3505
ZGKL,2007-01-17 01:00,ZGKL 170100Z AUTO 03002KT 4SM 05/03 A3039 RMK T00500030 IEM_DS3505
ZGKL,2007-01-17 02:00,ZGKL 170200Z AUTO 35002KT 4SM 05/04 A3042 RMK T00500040 IEM_DS3505
ZGKL,2007-01-17 03:00,ZGKL 170300Z AUTO 02010KT 8SM 05/02 A3042 RMK SLP311 T00510018 52023 IEM_DS3505
ZGKL,2007-01-17 04:00,ZGKL 170400Z AUTO 06002KT 4SM 06/03 A3039 RMK T00600030 IEM_DS3505
ZGKL,2007-01-17 05:00,ZGKL 170500Z AUTO 03004KT 4SM 06/03 A3036 RMK T00600030 IEM_DS3505
ZGKL,2007-01-17 06:00,ZGKL 170600Z AUTO 36010KT 7SM 05/03 A3036 RMK 60000 SLP291 T00490026 57020 IEM_DS3505
ZGKL,2007-01-17 07:00,ZGKL 170700Z AUTO 07004KT 4SM 06/04 A3033 RMK T00600040 IEM_DS3505
ZGKL,2007-01-17 08:00,ZGKL 170800Z AUTO 02002KT 5SM 07/04 A3033 RMK T00700040 IEM_DS3505
ZGKL,2007-01-17 09:00,ZGKL 170900Z AUTO 02008KT 9SM 06/02 A3033 RMK SLP285 T00580024 57006 IEM_DS3505
ZGKL,2007-01-17 10:00,ZGKL 171000Z AUTO 07004KT 6SM 07/04 A3033 RMK T00700040 IEM_DS3505
ZGKL,2007-01-17 11:00,ZGKL 171100Z AUTO 07008KT 4SM 06/03 A3036 RMK T00600030 IEM_DS3505
ZGKL,2007-01-17 12:00,ZGKL 171200Z AUTO 36006KT 9SM 05/02 A3039 RMK 60000 SLP298 T00520015 52013 IEM_DS3505
ZGKL,2007-01-17 13:00,ZGKL 171300Z AUTO 07004KT 4SM 06/02 A3039 RMK T00600020 IEM_DS3505
ZGKL,2007-01-17 14:00,ZGKL 171400Z AUTO 32002KT 4SM 05/03 A3039 RMK T00500030 IEM_DS3505
ZGKL,2007-01-17 15:00,ZGKL 171500Z AUTO 02008KT 9SM 05/01 A3042 RMK SLP305 T00510009 52007 IEM_DS3505
ZGKL,2007-01-17 16:00,ZGKL 171600Z AUTO 04002KT 4SM 05/03 A3039 RMK T00500030 IEM_DS3505
ZGKL,2007-01-17 17:00,ZGKL 171700Z AUTO 33002KT 4SM 06/03 A3039 RMK T00600030 IEM_DS3505
ZGKL,2007-01-17 18:00,ZGKL 171800Z AUTO 02008KT 8SM 06/00 A3036 RMK SLP297 T00550001 57008 IEM_DS3505
ZGKL,2007-01-17 19:00,ZGKL 171900Z AUTO 01002KT 06/03 A3036 RMK T00600030 IEM_DS3505
ZGKL,2007-01-17 20:00,ZGKL 172000Z AUTO 07002KT 06/04 A3033 RMK T00600040 IEM_DS3505
ZGKL,2007-01-17 21:00,ZGKL 172100Z AUTO 02006KT 8SM 06/M00 A3033 RMK 70002 SLP282 T00561005 57014 IEM_DS3505
ZGKL,2007-01-17 22:00,ZGKL 172200Z AUTO 10002KT 3SM 06/03 A3033 RMK T00600030 IEM_DS3505
ZGKL,2007-01-17 23:00,ZGKL 172300Z AUTO 00000KT 3SM 06/02 A3033 RMK T00600020 IEM_DS3505
ZGKL,2007-01-18 00:00,ZGKL 180000Z AUTO 02004KT 6SM 05/00 A3036 RMK 60000 70001 SLP291 T00540004 52008 IEM_DS3505
ZGKL,2007-01-18 01:00,ZGKL 180100Z AUTO 06002KT 2 1/2SM 05/03 A3039 RMK T00500030 IEM_DS3505
ZGKL,2007-01-18 02:00,ZGKL 180200Z AUTO 03002KT 2 1/2SM 05/03 A3042 RMK T00500030 IEM_DS3505
ZGKL,2007-01-18 03:00,ZGKL 180300Z AUTO 36006KT 2 1/2SM 04/02 A3042 RMK SLP311 T00420024 52019 IEM_DS3505
ZGKL,2007-01-18 04:00,ZGKL 180400Z AUTO 08004KT 1 1/2SM 05/04 A3039 RMK T00500040 IEM_DS3505
ZGKL,2007-01-18 05:00,ZGKL 180500Z AUTO 08004KT 1 1/4SM 05/04 A3036 RMK T00500040 IEM_DS3505
ZGKL,2007-01-18 06:00,ZGKL 180600Z AUTO 36006KT 2 1/2SM 04/02 A3033 RMK 60008 SLP285 T00440023 57025 IEM_DS3505
ZGKL,2007-01-18 07:00,ZGKL 180700Z AUTO 07004KT 1 1/4SM 05/04 A3033 RMK T00500040 IEM_DS3505
ZGKL,2007-01-18 08:00,ZGKL 180800Z AUTO 08004KT 1SM 05/04 A3030 RMK T00500040 IEM_DS3505
ZGKL,2007-01-18 09:00,ZGKL 180900Z AUTO 02006KT 2 1/2SM 04/03 A3030 RMK SLP271 T00400027 57014 IEM_DS3505
ZGKL,2007-01-18 10:00,ZGKL 181000Z AUTO 07002KT 1SM 04/04 A3030 RMK T00400040 IEM_DS3505
ZGKL,2007-01-18 11:00,ZGKL 181100Z AUTO 10002KT 1SM 04/03 A3033 RMK T00400030 IEM_DS3505
ZGKL,2007-01-18 12:00,ZGKL 181200Z AUTO 36006KT 2SM 04/02 A3036 RMK 60020 SLP291 T00400024 52020 IEM_DS3505
ZGKL,2007-01-18 13:00,ZGKL 181300Z AUTO 32002KT 1SM 05/04 A3039 RMK T00500040 IEM_DS3505
ZGKL,2007-01-18 14:00,ZGKL 181400Z AUTO 14002KT 1SM 05/04 A3039 RMK T00500040 IEM_DS3505
ZGKL,2007-01-18 15:00,ZGKL 181500Z AUTO 04010KT 2SM 04/02 A3039 RMK SLP300 T00440019 52008 IEM_DS3505
ZGKL,2007-01-18 16:00,ZGKL 181600Z AUTO 35002KT 04/04 A3039 RMK T00400040 IEM_DS3505
ZGKL,2007-01-18 17:00,ZGKL 181700Z AUTO 12004KT 04/04 A3039 RMK T00400040 IEM_DS3505
ZGKL,2007-01-18 18:00,ZGKL 181800Z AUTO 36004KT 2SM 04/02 A3039 RMK 60004 SLP301 T00350023 52001 IEM_DS3505
ZGKL,2007-01-18 19:00,ZGKL 181900Z AUTO 08004KT 04/03 A3036 RMK T00400030 IEM_DS3505
ZGKL,2007-01-18 20:00,ZGKL 182000Z AUTO 06004KT 04/03 A3033 RMK T00400030 IEM_DS3505
ZGKL,2007-01-18 21:00,ZGKL 182100Z AUTO 02008KT 2SM 04/02 A3033 RMK 70039 SLP284 T00370017 57017 IEM_DS3505
ZGKL,2007-01-18 22:00,ZGKL 182200Z AUTO 00000KT 1SM 04/03 A3033 RMK T00400030 IEM_DS3505
ZGKL,2007-01-18 23:00,ZGKL 182300Z AUTO 01002KT 1SM 04/03 A3033 RMK T00400030 IEM_DS3505
ZGKL,2007-01-19 00:00,ZGKL 190000Z AUTO 02004KT 7SM 04/02 A3033 RMK 60008 70039 SLP285 T00350019 52001 IEM_DS3505
ZGKL,2007-01-19 01:00,ZGKL 190100Z AUTO 04002KT 2SM 05/03 A3036 RMK T00500030 IEM_DS3505
ZGKL,2007-01-19 02:00,ZGKL 190200Z AUTO 15002KT 4SM 06/04 A3036 RMK T00600040 IEM_DS3505
ZGKL,2007-01-19 03:00,ZGKL 190300Z AUTO 02006KT 6SM 06/02 A3036 RMK SLP291 T00590022 52007 IEM_DS3505
ZGKL,2007-01-19 04:02,ZGKL 190402Z AUTO 07004KT 7SM 07/03 A3033 RMK T00700030 IEM_DS3505
ZGKL,2007-01-19 05:00,ZGKL 190500Z AUTO 07004KT 7SM 08/03 A3027 RMK T00800030 IEM_DS3505
ZGKL,2007-01-19 06:00,ZGKL 190600Z AUTO 02006KT 5SM 08/03 A3024 RMK SLP251 T00830027 57039 IEM_DS3505
ZGKL,2007-01-19 07:00,ZGKL 190700Z AUTO 06004KT 7SM 09/03 A3021 RMK T00900030 IEM_DS3505
ZGKL,2007-01-19 08:00,ZGKL 190800Z AUTO 08006KT 7SM 09/03 A3018 RMK T00900030 IEM_DS3505
ZGKL,2007-01-19 09:00,ZGKL 190900Z AUTO 04004KT 5SM 08/03 A3018 RMK SLP230 T00750026 57020 IEM_DS3505
ZGKL,2007-01-19 10:00,ZGKL 191000Z AUTO 07004KT 7SM 08/03 A3018 RMK T00800030 IEM_DS3505
ZGKL,2007-01-19 11:00,ZGKL 191100Z AUTO 09004KT 7SM 08/03 A3018 RMK T00800030 IEM_DS3505
ZGKL,2007-01-19 12:00,ZGKL 191200Z AUTO 02002KT 5SM 07/03 A3021 RMK SLP238 T00680027 52007 IEM_DS3505
ZGKL,2007-01-19 13:00,ZGKL 191300Z AUTO 07004KT 7SM 07/03 A3021 RMK T00700030 IEM_DS3505
ZGKL,2007-01-19 14:00,ZGKL 191400Z AUTO 01004KT 2 1/2SM 06/04 A3024 RMK T00600040 IEM_DS3505
ZGKL,2007-01-19 15:00,ZGKL 191500Z AUTO 07004KT 4SM 05/04 A3024 RMK SLP245 T00510039 52007 IEM_DS3505
ZGKL,2007-01-19 16:00,ZGKL 191600Z AUTO 04002KT 2 1/2SM 05/04 A3024 RMK T00500040 IEM_DS3505
ZGKL,2007-01-19 17:00,ZGKL 191700Z AUTO 07004KT 05/04 A3021 RMK T00500040 IEM_DS3505
ZGKL,2007-01-19 18:00,ZGKL 191800Z AUTO 34004KT 3SM 05/04 A3021 RMK 60039 SLP236 T00470038 57008 IEM_DS3505
ZGKL,2007-01-19 19:00,ZGKL 191900Z AUTO 11002KT 05/04 A3021 RMK T00500040 IEM_DS3505
ZGKL,2007-01-19 20:00,ZGKL 192000Z AUTO 30002KT 05/04 A3018 RMK T00500040 IEM_DS3505
ZGKL,2007-01-19 21:00,ZGKL 192100Z AUTO 04004KT 3SM 05/04 A3018 RMK 70115 SLP234 T00460042 57002 IEM_DS3505
ZGKL,2007-01-19 22:00,ZGKL 192200Z AUTO 08002KT 1 1/4SM 05/04 A3018 RMK T00500040 IEM_DS3505
ZGKL,2007-01-19 23:00,ZGKL 192300Z AUTO 04004KT 1 1/4SM 05/04 A3021 RMK T00500040 IEM_DS3505
ZGKL,2007-01-20 00:00,ZGKL 200000Z AUTO 04006KT 4SM 05/04 A3024 RMK 60118 70157 SLP251 T00490039 52016 IEM_DS3505
ZGKL,2007-01-20 01:00,ZGKL 200100Z AUTO 31002KT 1 1/4SM 05/05 A3027 RMK T00500050 IEM_DS3505
ZGKL,2007-01-20 02:00,ZGKL 200200Z AUTO 36002KT 1 1/4SM 06/05 A3027 RMK T00600050 IEM_DS3505
ZGKL,2007-01-20 03:00,ZGKL 200300Z AUTO 02004KT 4SM 06/05 A3027 RMK SLP260 T00570047 52009 IEM_DS3505
ZGKL,2007-01-20 04:00,ZGKL 200400Z AUTO 12002KT 2SM 06/06 A3024 RMK T00600060 IEM_DS3505
ZGKL,2007-01-20 05:00,ZGKL 200500Z AUTO 22004KT 1 1/4SM 06/06 A3024 RMK T00600060 IEM_DS3505
ZGKL,2007-01-20 06:00,ZGKL 200600Z AUTO 02002KT 3SM 06/05 A3021 RMK 60031 SLP231 T00640050 57022 IEM_DS3505
ZGKL,2007-01-20 07:00,ZGKL 200700Z AUTO 09002KT 2SM 07/06 A3018 RMK T00700060 IEM_DS3505
ZGKL,2007-01-20 08:00,ZGKL 200800Z AUTO 07004KT 1 1/2SM 07/06 A3015 RMK T00700060 IEM_DS3505
ZGKL,2007-01-20 09:00,ZGKL 200900Z AUTO 02006KT 7SM 06/04 A3015 RMK SLP220 T00620045 57014 IEM_DS3505
ZGKL,2007-01-20 10:00,ZGKL 201000Z AUTO 09004KT 1 1/4SM 06/06 A3018 RMK T00600060 IEM_DS3505
ZGKL,2007-01-20 11:00,ZGKL 201100Z AUTO 07002KT 1 1/2SM 06/05 A3021 RMK T00600050 IEM_DS3505
ZGKL,2007-01-20 12:00,ZGKL 201200Z AUTO 36008KT 5SM 06/04 A3024 RMK 60020 SLP252 T00600043 52031 IEM_DS3505
ZGKL,2007-01-20 13:00,ZGKL 201300Z AUTO 08002KT 2SM 06/05 A3024 RMK T00600050 IEM_DS3505
ZGKL,2007-01-20 14:00,ZGKL 201400Z AUTO 35002KT 1 1/2SM 06/05 A3030 RMK T00600050 IEM_DS3505
ZGKL,2007-01-20 15:00,ZGKL 201500Z AUTO 36008KT 5SM 06/04 A3030 RMK SLP266 T00600042 52014 IEM_DS3505
ZGKL,2007-01-20 16:00,ZGKL 201600Z AUTO 13002KT 06/05 A3027 RMK T00600050 IEM_DS3505
ZGKL,2007-01-20 17:00,ZGKL 201700Z AUTO 11002KT 06/05 A3030 RMK T00600050 IEM_DS3505
ZGKL,2007-01-20 18:00,ZGKL 201800Z AUTO 02008KT 4SM 06/04 A3030 RMK 60012 SLP261 T00590042 57005 IEM_DS3505
ZGKL,2007-01-20 19:00,ZGKL 201900Z AUTO 33002KT 06/05 A3030 RMK T00600050 IEM_DS3505
ZGKL,2007-01-20 20:00,ZGKL 202000Z AUTO 19002KT 06/05 A3027 RMK T00600050 IEM_DS3505
ZGKL,2007-01-20 21:00,ZGKL 202100Z AUTO 36008KT 4SM 06/04 A3027 RMK 70107 SLP260 T00610038 57001 IEM_DS3505
ZGKL,2007-01-20 22:00,ZGKL 202200Z AUTO 07002KT 1 1/2SM 06/05 A3027 RMK T00600050 IEM_DS3505
ZGKL,2007-01-20 23:00,ZGKL 202300Z AUTO 07002KT 2SM 06/05 A3030 RMK T00600050 IEM_DS3505
ZGKL,2007-01-21 00:00,ZGKL 210000Z AUTO 36012KT 9SM 06/04 A3030 RMK 60002 70065 SLP271 T00630035 52011 IEM_DS3505
ZGKL,2007-01-21 01:00,ZGKL 210100Z AUTO 04004KT 3SM 07/05 A3033 RMK T00700050 IEM_DS3505
ZGKL,2007-01-21 02:00,ZGKL 210200Z AUTO 08002KT 4SM 08/05 A3033 RMK T00800050 IEM_DS3505
ZGKL,2007-01-21 03:00,ZGKL 210300Z AUTO 36008KT 7SM 08/04 A3033 RMK SLP282 T00750039 52011 IEM_DS3505
ZGKL,2007-01-21 04:00,ZGKL 210400Z AUTO 08004KT 4SM 09/05 A3030 RMK T00900050 IEM_DS3505
ZGKL,2007-01-21 05:00,ZGKL 210500Z AUTO 08004KT 5SM 09/05 A3027 RMK T00900050 IEM_DS3505
ZGKL,2007-01-21 06:00,ZGKL 210600Z AUTO 02008KT 6SM 08/04 A3024 RMK SLP257 T00830038 57024 IEM_DS3505
ZGKL,2007-01-21 07:00,ZGKL 210700Z AUTO 08004KT 4SM 10/05 A3024 RMK T01000050 IEM_DS3505
ZGKL,2007-01-21 08:00,ZGKL 210800Z AUTO 07006KT 3SM 09/05 A3024 RMK T00900050 IEM_DS3505
ZGKL,2007-01-21 09:00,ZGKL 210900Z AUTO 02010KT 5SM 08/04 A3024 RMK SLP248 T00820035 57009 IEM_DS3505
ZGKL,2007-01-21 10:00,ZGKL 211000Z AUTO 06004KT 3SM 09/04 A3024 RMK T00900040 IEM_DS3505
ZGKL,2007-01-21 11:00,ZGKL 211100Z AUTO 06004KT 2 1/2SM 08/04 A3024 RMK T00800040 IEM_DS3505
ZGKL,2007-01-21 12:00,ZGKL 211200Z AUTO 02008KT 5SM 07/04 A3027 RMK SLP257 T00730035 52009 IEM_DS3505
ZGKL,2007-01-21 13:00,ZGKL 211300Z AUTO 08004KT 2 1/2SM 08/04 A3027 RMK T00800040 IEM_DS3505
ZGKL,2007-01-21 14:00,ZGKL 211400Z AUTO 05002KT 2 1/2SM 08/04 A3027 RMK T00800040 IEM_DS3505
ZGKL,2007-01-21 15:00,ZGKL 211500Z AUTO 02006KT 5SM 08/03 A3030 RMK SLP266 T00750028 52009 IEM_DS3505
ZGKL,2007-01-21 16:00,ZGKL 211600Z AUTO 16002KT 08/05 A3030 RMK T00800050 IEM_DS3505
ZGKL,2007-01-21 17:00,ZGKL 211700Z AUTO 17002KT 08/05 A3030 RMK T00800050 IEM_DS3505
ZGKL,2007-01-21 18:00,ZGKL 211800Z AUTO 02004KT 4SM 07/03 A3030 RMK SLP265 T00730028 54000 IEM_DS3505
ZGKL,2007-01-21 19:00,ZGKL 211900Z AUTO 03002KT 07/05 A3027 RMK T00700050 IEM_DS3505
ZGKL,2007-01-21 20:00,ZGKL 212000Z AUTO 07002KT 07/04 A3027 RMK T00700040 IEM_DS3505
ZGKL,2007-01-21 21:00,ZGKL 212100Z AUTO 02004KT 4SM 07/03 A3024 RMK SLP253 T00700029 57012 IEM_DS3505
ZGKL,2007-01-21 22:00,ZGKL 212200Z AUTO 04002KT 1 1/2SM 07/03 A3027 RMK T00700030 IEM_DS3505
ZGKL,2007-01-21 23:00,ZGKL 212300Z AUTO 02002KT 1 1/2SM 07/03 A3027 RMK T00700030 IEM_DS3505
ZGKL,2007-01-22 00:00,ZGKL 220000Z AUTO 02002KT 4SM 07/03 A3030 RMK SLP270 T00710028 52016 IEM_DS3505
ZGKL,2007-01-22 01:00,ZGKL 220100Z AUTO 34002KT 2 1/2SM 08/04 A3033 RMK T00800040 IEM_DS3505
ZGKL,2007-01-22 02:00,ZGKL 220200Z AUTO 33002KT 2 1/2SM 08/04 A3033 RMK T00800040 IEM_DS3505
ZGKL,2007-01-22 03:00,ZGKL 220300Z AUTO 02004KT 4SM 09/03 A3033 RMK SLP282 T00870029 52012 IEM_DS3505
ZGKL,2007-01-22 04:00,ZGKL 220400Z AUTO 33002KT 3SM 10/04 A3033 RMK T01000040 IEM_DS3505
ZGKL,2007-01-22 05:00,ZGKL 220500Z AUTO 19002KT 3SM 10/04 A3027 RMK T01000040 IEM_DS3505
ZGKL,2007-01-22 06:00,ZGKL 220600Z AUTO 04002KT 4SM 10/04 A3024 RMK SLP251 T00990039 57030 IEM_DS3505
ZGKL,2007-01-22 07:00,ZGKL 220700Z AUTO 13002KT 3SM 10/04 A3021 RMK T01000040 IEM_DS3505
ZGKL,2007-01-22 08:00,ZGKL 220800Z AUTO 09004KT 3SM 10/04 A3021 RMK T01000040 IEM_DS3505
ZGKL,2007-01-22 09:00,ZGKL 220900Z AUTO 02002KT 4SM 10/04 A3021 RMK SLP243 T00950043 57008 IEM_DS3505
ZGKL,2007-01-22 10:00,ZGKL 221000Z AUTO 05006KT 3SM 10/05 A3024 RMK T01000050 IEM_DS3505
ZGKL,2007-01-22 11:00,ZGKL 221100Z AUTO 07004KT 2 1/2SM 09/05 A3027 RMK T00900050 IEM_DS3505
ZGKL,2007-01-22 12:00,ZGKL 221200Z AUTO 02008KT 3SM 08/05 A3030 RMK 60000 SLP268 T00750053 52024 IEM_DS3505
ZGKL,2007-01-22 13:00,ZGKL 221300Z AUTO 05002KT 1 1/4SM 08/07 A3030 RMK T00800070 IEM_DS3505
ZGKL,2007-01-22 14:00,ZGKL 221400Z AUTO 01002KT 1 1/4SM 08/06 A3036 RMK T00800060 IEM_DS3505
ZGKL,2007-01-22 15:00,ZGKL 221500Z AUTO 02006KT 3SM 08/05 A3036 RMK SLP289 T00750051 52021 IEM_DS3505
ZGKL,2007-01-22 16:00,ZGKL 221600Z AUTO 00000KT 08/07 A3036 RMK T00800070 IEM_DS3505
ZGKL,2007-01-22 17:00,ZGKL 221700Z AUTO 04002KT 08/07 A3036 RMK T00800070 IEM_DS3505
ZGKL,2007-01-22 18:00,ZGKL 221800Z AUTO 02006KT 3SM 07/05 A3036 RMK 60000 SLP292 T00730049 52004 IEM_DS3505
ZGKL,2007-01-22 19:00,ZGKL 221900Z AUTO 02002KT 08/07 A3036 RMK T00800070 IEM_DS3505
ZGKL,2007-01-22 20:00,ZGKL 222000Z AUTO 09002KT 08/06 A3036 RMK T00800060 IEM_DS3505
ZGKL,2007-01-22 21:00,ZGKL 222100Z AUTO 02008KT 3SM 07/04 A3036 RMK 70000 SLP290 T00740044 57002 IEM_DS3505
ZGKL,2007-01-22 22:00,ZGKL 222200Z AUTO 01002KT 2SM 08/05 A3039 RMK T00800050 IEM_DS3505
ZGKL,2007-01-22 23:00,ZGKL 222300Z AUTO 35002KT 2SM 08/06 A3042 RMK T00800060 IEM_DS3505
ZGKL,2007-01-23 00:00,ZGKL 230000Z AUTO 02006KT 4SM 08/04 A3042 RMK 60000 70000 SLP309 T00750045 52017 IEM_DS3505
ZGKL,2007-01-23 01:00,ZGKL 230100Z AUTO 36002KT 2 1/2SM 09/05 A3045 RMK T00900050 IEM_DS3505
ZGKL,2007-01-23 02:00,ZGKL 230200Z AUTO 34002KT 3SM 10/06 A3045 RMK T01000060 IEM_DS3505
ZGKL,2007-01-23 03:00,ZGKL 230300Z AUTO 02008KT 4SM 08/05 A3045 RMK SLP326 T00830051 52017 IEM_DS3505
ZGKL,2007-01-23 04:00,ZGKL 230400Z AUTO 07008KT 4SM 11/06 A3042 RMK T01100060 IEM_DS3505
ZGKL,2007-01-23 05:00,ZGKL 230500Z AUTO 07010KT 4SM 12/06 A3039 RMK T01200060 IEM_DS3505
ZGKL,2007-01-23 06:00,ZGKL 230600Z AUTO 36006KT 6SM 09/04 A3036 RMK SLP297 T00900042 57028 IEM_DS3505
ZGKL,2007-01-23 07:00,ZGKL 230700Z AUTO 07008KT 5SM 11/05 A3036 RMK T01100050 IEM_DS3505
ZGKL,2007-01-23 08:00,ZGKL 230800Z AUTO 07008KT 5SM 11/05 A3036 RMK T01100050 IEM_DS3505
ZGKL,2007-01-23 09:00,ZGKL 230900Z AUTO 07008KT 6SM 09/04 A3036 RMK SLP290 T00920036 57007 IEM_DS3505
ZGKL,2007-01-23 10:00,ZGKL 231000Z AUTO 07010KT 5SM 09/04 A3036 RMK T00900040 IEM_DS3505
ZGKL,2007-01-23 12:00,ZGKL 231200Z AUTO 02008KT 6SM 08/03 A3042 RMK SLP313 T00750034 52022 IEM_DS3505
ZGKL,2007-01-23 13:00,ZGKL 231300Z AUTO 06008KT 4SM 08/03 A3045 RMK T00800030 IEM_DS3505
ZGKL,2007-01-23 14:00,ZGKL 231400Z AUTO 05008KT 4SM 08/03 A3045 RMK T00800030 IEM_DS3505
ZGKL,2007-01-23 15:00,ZGKL 231500Z AUTO 02008KT 6SM 07/02 A3045 RMK SLP321 T00690020 52008 IEM_DS3505
ZGKL,2007-01-23 16:00,ZGKL 231600Z AUTO 35004KT 07/03 A3045 RMK T00700030 IEM_DS3505
ZGKL,2007-01-23 17:00,ZGKL 231700Z AUTO 05006KT 08/02 A3045 RMK T00800020 IEM_DS3505
ZGKL,2007-01-23 18:00,ZGKL 231800Z AUTO 02008KT 5SM 07/02 A3045 RMK SLP319 T00660019 57002 IEM_DS3505
ZGKL,2007-01-23 19:00,ZGKL 231900Z AUTO 10004KT 06/02 A3045 RMK T00600020 IEM_DS3505
ZGKL,2007-01-23 20:00,ZGKL 232000Z AUTO 02002KT 06/02 A3042 RMK T00600020 IEM_DS3505
ZGKL,2007-01-23 21:00,ZGKL 232100Z AUTO 02006KT 5SM 06/02 A3042 RMK SLP307 T00590016 57011 IEM_DS3505
ZGKL,2007-01-23 22:00,ZGKL 232200Z AUTO 02002KT 4SM 06/02 A3042 RMK T00600020 IEM_DS3505
ZGKL,2007-01-23 23:00,ZGKL 232300Z AUTO 35002KT 4SM 06/02 A3042 RMK T00600020 IEM_DS3505
ZGKL,2007-01-24 00:00,ZGKL 240000Z AUTO 36008KT 5SM 06/01 A3045 RMK SLP319 T00560013 52011 IEM_DS3505
ZGKL,2007-01-24 01:00,ZGKL 240100Z AUTO 03006KT 2 1/2SM 07/02 A3045 RMK T00700020 IEM_DS3505
ZGKL,2007-01-24 02:00,ZGKL 240200Z AUTO 05004KT 2 1/2SM 08/02 A3047 RMK T00800020 IEM_DS3505
ZGKL,2007-01-24 03:00,ZGKL 240300Z AUTO 36012KT 5SM 08/01 A3045 RMK SLP324 T00780012 52005 IEM_DS3505
ZGKL,2007-01-24 04:00,ZGKL 240400Z AUTO 08004KT 2 1/2SM 10/02 A3042 RMK T01000020 IEM_DS3505
ZGKL,2007-01-24 05:00,ZGKL 240500Z AUTO 08006KT 3SM 11/02 A3039 RMK T01100020 IEM_DS3505
ZGKL,2007-01-24 06:00,ZGKL 240600Z AUTO 04008KT 6SM 11/02 A3033 RMK SLP281 T01140016 57041 IEM_DS3505
ZGKL,2007-01-24 07:00,ZGKL 240700Z AUTO 07004KT 4SM 12/02 A3030 RMK T01200020 IEM_DS3505
ZGKL,2007-01-24 08:00,ZGKL 240800Z AUTO 07004KT 4SM 12/02 A3027 RMK T01200020 IEM_DS3505
ZGKL,2007-01-24 09:00,ZGKL 240900Z AUTO 02008KT 6SM 11/02 A3027 RMK SLP258 T01060024 57023 IEM_DS3505
ZGKL,2007-01-24 10:00,ZGKL 241000Z AUTO 05006KT 4SM 11/03 A3027 RMK T01100030 IEM_DS3505
ZGKL,2007-01-24 11:00,ZGKL 241100Z AUTO 07010KT 4SM 08/02 A3027 RMK T00800020 IEM_DS3505
ZGKL,2007-01-24 12:00,ZGKL 241200Z AUTO 02006KT 6SM 06/01 A3030 RMK SLP275 T00610014 52015 IEM_DS3505
ZGKL,2007-01-24 13:00,ZGKL 241300Z AUTO 35004KT 3SM 06/01 A3033 RMK T00600010 IEM_DS3505
ZGKL,2007-01-24 14:00,ZGKL 241400Z AUTO 00000KT 2 1/2SM 05/01 A3033 RMK T00500010 IEM_DS3505
ZGKL,2007-01-24 15:00,ZGKL 241500Z AUTO 02006KT 6SM 05/01 A3036 RMK SLP289 T00510009 52014 IEM_DS3505
ZGKL,2007-01-24 16:00,ZGKL 241600Z AUTO 09002KT 04/02 A3036 RMK T00400020 IEM_DS3505
ZGKL,2007-01-24 17:00,ZGKL 241700Z AUTO 02002KT 03/02 A3036 RMK T00300020 IEM_DS3505
ZGKL,2007-01-24 18:00,ZGKL 241800Z AUTO 04004KT 6SM 04/00 A3036 RMK SLP290 T00440005 52002 IEM_DS3505
ZGKL,2007-01-24 19:00,ZGKL 241900Z AUTO 13002KT 05/03 A3036 RMK T00500030 IEM_DS3505
ZGKL,2007-01-24 20:00,ZGKL 242000Z AUTO 24004KT 06/02 A3036 RMK T00600020 IEM_DS3505
ZGKL,2007-01-24 21:00,ZGKL 242100Z AUTO 02002KT 6SM 05/01 A3036 RMK SLP286 T00540008 57004 IEM_DS3505
ZGKL,2007-01-24 22:00,ZGKL 242200Z AUTO 03004KT 2 1/2SM 05/02 A3036 RMK T00500020 IEM_DS3505
ZGKL,2007-01-24 23:00,ZGKL 242300Z AUTO 03002KT 2 1/2SM 05/02 A3036 RMK T00500020 IEM_DS3505
ZGKL,2007-01-25 00:00,ZGKL 250000Z AUTO 36002KT 5SM 04/01 A3039 RMK SLP299 T00430006 52011 IEM_DS3505
ZGKL,2007-01-25 01:00,ZGKL 250100Z AUTO 34002KT 2 1/2SM 06/03 A3042 RMK T00600030 IEM_DS3505
ZGKL,2007-01-25 02:00,ZGKL 250200Z AUTO 04004KT 2 1/2SM 07/02 A3042 RMK T00700020 IEM_DS3505
ZGKL,2007-01-25 03:00,ZGKL 250300Z AUTO 02004KT 4SM 08/01 A3042 RMK SLP306 T00770009 52008 IEM_DS3505
ZGKL,2007-01-25 04:00,ZGKL 250400Z AUTO 24002KT 3SM 08/02 A3039 RMK T00800020 IEM_DS3505
ZGKL,2007-01-25 05:00,ZGKL 250500Z AUTO 30002KT 3SM 09/02 A3036 RMK T00900020 IEM_DS3505
ZGKL,2007-01-25 06:00,ZGKL 250600Z AUTO 16002KT 5SM 10/02 A3030 RMK SLP269 T01010015 57036 IEM_DS3505
ZGKL,2007-01-25 07:00,ZGKL 250700Z AUTO 19002KT 3SM 10/03 A3027 RMK T01000030 IEM_DS3505
ZGKL,2007-01-25 08:00,ZGKL 250800Z AUTO 25002KT 3SM 11/03 A3027 RMK T01100030 IEM_DS3505
ZGKL,2007-01-25 09:00,ZGKL 250900Z AUTO 32002KT 4SM 11/02 A3027 RMK SLP255 T01090020 57013 IEM_DS3505
ZGKL,2007-01-25 10:00,ZGKL 251000Z AUTO 33002KT 3SM 10/03 A3024 RMK T01000030 IEM_DS3505
ZGKL,2007-01-25 11:00,ZGKL 251100Z AUTO 34002KT 2SM 10/04 A3027 RMK T01000040 IEM_DS3505
ZGKL,2007-01-25 12:00,ZGKL 251200Z AUTO 00000KT 4SM 08/04 A3027 RMK SLP262 T00830038 52006 IEM_DS3505
ZGKL,2007-01-25 13:00,ZGKL 251300Z AUTO 02002KT 1 1/2SM 07/05 A3030 RMK T00700050 IEM_DS3505
ZGKL,2007-01-25 14:00,ZGKL 251400Z AUTO 04002KT 1 1/2SM 07/05 A3030 RMK T00700050 IEM_DS3505
ZGKL,2007-01-25 15:00,ZGKL 251500Z AUTO 05002KT 4SM 06/04 A3030 RMK SLP272 T00610039 52010 IEM_DS3505
ZGKL,2007-01-25 16:00,ZGKL 251600Z AUTO 03002KT 05/04 A3033 RMK T00500040 IEM_DS3505
ZGKL,2007-01-25 17:00,ZGKL 251700Z AUTO 04002KT 04/03 A3033 RMK T00400030 IEM_DS3505
ZGKL,2007-01-25 18:00,ZGKL 251800Z AUTO 02002KT 3SM 07/04 A3033 RMK SLP277 T00730035 52006 IEM_DS3505
ZGKL,2007-01-25 19:00,ZGKL 251900Z AUTO 36002KT 05/05 A3033 RMK T00500050 IEM_DS3505
ZGKL,2007-01-25 20:00,ZGKL 252000Z AUTO 09002KT 06/05 A3030 RMK T00600050 IEM_DS3505
ZGKL,2007-01-25 21:00,ZGKL 252100Z AUTO 04006KT 3SM 08/03 A3030 RMK SLP270 T00830030 57006 IEM_DS3505
ZGKL,2007-01-25 22:00,ZGKL 252200Z AUTO 16002KT 1 1/4SM 06/05 A3033 RMK T00600050 IEM_DS3505
ZGKL,2007-01-25 23:00,ZGKL 252300Z AUTO 06002KT 1 1/4SM 07/06 A3033 RMK T00700060 IEM_DS3505
ZGKL,2007-01-26 00:00,ZGKL 260000Z AUTO 02006KT 5SM 08/03 A3036 RMK SLP288 T00820031 52016 IEM_DS3505
ZGKL,2007-01-26 01:00,ZGKL 260100Z AUTO 00000KT 1 1/2SM 08/06 A3039 RMK T00800060 IEM_DS3505
ZGKL,2007-01-26 02:00,ZGKL 260200Z AUTO 09002KT 1 1/2SM 10/05 A3042 RMK T01000050 IEM_DS3505
ZGKL,2007-01-26 03:00,ZGKL 260300Z AUTO 02010KT 5SM 12/03 A3042 RMK SLP305 T01240031 52018 IEM_DS3505
ZGKL,2007-01-26 04:00,ZGKL 260400Z AUTO 31002KT 4SM 13/05 A3039 RMK T01300050 IEM_DS3505
ZGKL,2007-01-26 05:00,ZGKL 260500Z AUTO 07008KT 4SM 15/03 A3036 RMK T01500030 IEM_DS3505
ZGKL,2007-01-26 07:00,ZGKL 260700Z AUTO 06008KT 4SM 14/03 A3033 RMK T01400030 IEM_DS3505
ZGKL,2007-01-26 08:00,ZGKL 260800Z AUTO 03008KT 4SM 14/03 A3033 RMK T01400030 IEM_DS3505
ZGKL,2007-01-26 09:00,ZGKL 260900Z AUTO 04006KT 6SM 14/01 A3033 RMK SLP272 T01400010 57008 IEM_DS3505
ZGKL,2007-01-26 10:00,ZGKL 261000Z AUTO 05006KT 4SM 13/02 A3033 RMK T01300020 IEM_DS3505
ZGKL,2007-01-26 11:00,ZGKL 261100Z AUTO 05006KT 3SM 12/02 A3036 RMK T01200020 IEM_DS3505
ZGKL,2007-01-26 12:00,ZGKL 261200Z AUTO 36004KT 7SM 10/02 A3036 RMK SLP290 T01000019 52016 IEM_DS3505
ZGKL,2007-01-26 13:00,ZGKL 261300Z AUTO 35002KT 2 1/2SM 08/02 A3036 RMK T00800020 IEM_DS3505
ZGKL,2007-01-26 14:00,ZGKL 261400Z AUTO 00000KT 2SM 06/03 A3039 RMK T00600030 IEM_DS3505
ZGKL,2007-01-26 15:00,ZGKL 261500Z AUTO 02004KT 7SM 08/01 A3039 RMK SLP302 T00810013 52013 IEM_DS3505
ZGKL,2007-01-26 16:00,ZGKL 261600Z AUTO 36002KT 2SM 05/03 A3042 RMK T00500030 IEM_DS3505
ZGKL,2007-01-26 17:00,ZGKL 261700Z AUTO 00000KT 03/02 A3039 RMK T00300020 IEM_DS3505
ZGKL,2007-01-26 18:00,ZGKL 261800Z AUTO 36004KT 6SM 06/02 A3039 RMK SLP294 T00600019 57008 IEM_DS3505
ZGKL,2007-01-26 19:00,ZGKL 261900Z AUTO 13002KT 01/01 A3036 RMK T00100010 IEM_DS3505
ZGKL,2007-01-26 20:00,ZGKL 262000Z AUTO 01002KT 01/00 A3036 RMK T00100000 IEM_DS3505
ZGKL,2007-01-26 21:00,ZGKL 262100Z AUTO 02002KT 6SM 04/02 A3036 RMK SLP289 T00400017 57006 IEM_DS3505
ZGKL,2007-01-26 22:00,ZGKL 262200Z AUTO 09002KT 1SM 00/M01 A3039 RMK T00001010 IEM_DS3505
ZGKL,2007-01-26 23:00,ZGKL 262300Z AUTO 07002KT 1SM 00/M01 A3042 RMK T00001010 IEM_DS3505
ZGKL,2007-01-27 00:00,ZGKL 270000Z AUTO 16002KT 6SM 03/01 A3045 RMK SLP317 T00330010 52026 IEM_DS3505
ZGKL,2007-01-27 01:00,ZGKL 270100Z AUTO 16002KT 2 1/2SM 03/03 A3047 RMK T00300030 IEM_DS3505
ZGKL,2007-01-27 02:00,ZGKL 270200Z AUTO 32002KT 3SM 08/03 A3047 RMK T00800030 IEM_DS3505
ZGKL,2007-01-27 03:00,ZGKL 270300Z AUTO 02006KT 5SM 12/01 A3047 RMK SLP326 T01240014 52011 IEM_DS3505
ZGKL,2007-01-27 04:00,ZGKL 270400Z AUTO 10004KT 4SM 15/01 A3045 RMK T01500010 IEM_DS3505
ZGKL,2007-01-27 05:00,ZGKL 270500Z AUTO 19004KT 4SM 17/M01 A3039 RMK T01701010 IEM_DS3505
ZGKL,2007-01-27 06:00,ZGKL 270600Z AUTO 02008KT 7SM 18/M04 A3036 RMK SLP283 T01761038 57041 IEM_DS3505
ZGKL,2007-01-27 07:00,ZGKL 270700Z AUTO 07004KT 4SM 19/M06 A3033 RMK T01901060 IEM_DS3505
ZGKL,2007-01-27 08:00,ZGKL 270800Z AUTO 03008KT 6SM 19/M08 A3033 RMK T01901080 IEM_DS3505
ZGKL,2007-01-27 09:00,ZGKL 270900Z AUTO 02004KT 11SM 18/M06 A3033 RMK SLP277 T01761063 57007 IEM_DS3505
ZGKL,2007-01-27 10:00,ZGKL 271000Z AUTO 03004KT 6SM 16/M03 A3036 RMK T01601030 IEM_DS3505
ZGKL,2007-01-27 11:00,ZGKL 271100Z AUTO 05004KT 6SM 11/M01 A3039 RMK T01101010 IEM_DS3505
ZGKL,2007-01-27 12:00,ZGKL 271200Z AUTO 02004KT 9SM 12/M03 A3042 RMK SLP309 T01251033 52030 IEM_DS3505
ZGKL,2007-01-27 13:00,ZGKL 271300Z AUTO 34002KT 5SM 08/03 A3045 RMK T00800030 IEM_DS3505
ZGKL,2007-01-27 14:00,ZGKL 271400Z AUTO 00000KT 4SM 06/02 A3047 RMK T00600020 IEM_DS3505
ZGKL,2007-01-27 15:00,ZGKL 271500Z AUTO 02004KT 9SM 10/M02 A3045 RMK SLP321 T01041023 52014 IEM_DS3505
ZGKL,2007-01-27 16:00,ZGKL 271600Z AUTO 02002KT 03/02 A3047 RMK T00300020 IEM_DS3505
ZGKL,2007-01-27 18:00,ZGKL 271800Z AUTO 02006KT 9SM 09/M00 RMK SLP319 T00921004 57001 IEM_DS3505
ZGKL,2007-01-27 21:00,ZGKL 272100Z AUTO 02008KT 9SM 08/01 RMK SLP319 T00830012 54000 IEM_DS3505
ZGKL,2007-01-27 23:00,ZGKL 272300Z AUTO 02002KT 3SM 01/00 A3050 RMK T00100000 IEM_DS3505
ZGKL,2007-01-28 00:00,ZGKL 280000Z AUTO 02008KT 7SM 08/00 A3050 RMK SLP342 T00790004 52021 IEM_DS3505
ZGKL,2007-01-28 01:00,ZGKL 280100Z AUTO 36002KT 3SM 05/03 A3053 RMK T00500030 IEM_DS3505
ZGKL,2007-01-28 02:00,ZGKL 280200Z AUTO 34004KT 4SM 10/03 A3053 RMK T01000030 IEM_DS3505
ZGKL,2007-01-28 03:00,ZGKL 280300Z AUTO 36010KT 7SM 12/M02 A3053 RMK SLP343 T01241022 52002 IEM_DS3505
ZGKL,2007-01-28 04:00,ZGKL 280400Z AUTO 05006KT 5SM 15/M03 A3050 RMK T01501030 IEM_DS3505
ZGKL,2007-01-28 05:00,ZGKL 280500Z AUTO 07004KT 5SM 16/M03 A3045 RMK T01601030 IEM_DS3505
ZGKL,2007-01-28 06:00,ZGKL 280600Z AUTO 34006KT 8SM 16/M04 A3039 RMK SLP298 T01631043 57044 IEM_DS3505
ZGKL,2007-01-28 07:00,ZGKL 280700Z AUTO 02002KT 5SM 17/M03 A3036 RMK T01701030 IEM_DS3505
ZGKL,2007-01-28 08:00,ZGKL 280800Z AUTO 07002KT 5SM 18/M02 A3033 RMK T01801020 IEM_DS3505
ZGKL,2007-01-28 09:00,ZGKL 280900Z AUTO 32002KT 9SM 17/M02 A3033 RMK SLP272 T01691022 57025 IEM_DS3505
ZGKL,2007-01-28 10:00,ZGKL 281000Z AUTO 00000KT 5SM 15/00 A3033 RMK T01500000 IEM_DS3505
ZGKL,2007-01-28 11:00,ZGKL 281100Z AUTO 00000KT 5SM 10/06 A3033 RMK T01000060 IEM_DS3505
ZGKL,2007-01-28 12:00,ZGKL 281200Z AUTO 02004KT 9SM 12/M02 A3036 RMK SLP284 T01231020 52010 IEM_DS3505
ZGKL,2007-01-28 13:00,ZGKL 281300Z AUTO 04002KT 3SM 06/04 A3036 RMK T00600040 IEM_DS3505
ZGKL,2007-01-28 14:00,ZGKL 281400Z AUTO 00000KT 3SM 05/04 A3036 RMK T00500040 IEM_DS3505
ZGKL,2007-01-28 15:00,ZGKL 281500Z AUTO 04002KT 9SM 08/M01 A3036 RMK SLP290 T00841009 52006 IEM_DS3505
ZGKL,2007-01-28 16:00,ZGKL 281600Z AUTO 04002KT 03/02 A3036 RMK T00300020 IEM_DS3505
ZGKL,2007-01-28 17:00,ZGKL 281700Z AUTO 05002KT 03/02 A3036 RMK T00300020 IEM_DS3505
ZGKL,2007-01-28 18:00,ZGKL 281800Z AUTO 36002KT 9SM 06/00 A3036 RMK SLP283 T00590000 57006 IEM_DS3505
ZGKL,2007-01-28 19:00,ZGKL 281900Z AUTO 01002KT 01/01 A3033 RMK T00100010 IEM_DS3505
ZGKL,2007-01-28 20:00,ZGKL 282000Z AUTO 06002KT 01/00 A3033 RMK T00100000 IEM_DS3505
ZGKL,2007-01-28 21:00,ZGKL 282100Z AUTO 07002KT 9SM 04/00 A3033 RMK SLP275 T00420004 57009 IEM_DS3505
ZGKL,2007-01-28 22:00,ZGKL 282200Z AUTO 04002KT 3SM 00/M01 A3033 RMK T00001010 IEM_DS3505
ZGKL,2007-01-28 23:00,ZGKL 282300Z AUTO 00000KT 3SM 00/M01 A3033 RMK T00001010 IEM_DS3505
ZGKL,2007-01-29 00:00,ZGKL 290000Z AUTO 02002KT 7SM 03/00 A3036 RMK SLP287 T00330000 52010 IEM_DS3505
ZGKL,2007-01-29 01:00,ZGKL 290100Z AUTO 00000KT 2 1/2SM 04/02 A3036 RMK T00400020 IEM_DS3505
ZGKL,2007-01-29 02:00,ZGKL 290200Z AUTO 01002KT 3SM 08/03 A3036 RMK T00800030 IEM_DS3505
ZGKL,2007-01-29 03:00,ZGKL 290300Z AUTO 16002KT 6SM 11/01 A3036 RMK SLP285 T01120014 54000 IEM_DS3505
ZGKL,2007-01-29 04:00,ZGKL 290400Z AUTO 03004KT 4SM 14/01 A3030 RMK T01400010 IEM_DS3505
ZGKL,2007-01-29 05:00,ZGKL 290500Z AUTO 18002KT 4SM 17/02 A3027 RMK T01700020 IEM_DS3505
ZGKL,2007-01-29 06:00,ZGKL 290600Z AUTO 25004KT 5SM 17/01 A3021 RMK SLP241 T01690010 57042 IEM_DS3505
ZGKL,2007-01-29 07:00,ZGKL 290700Z AUTO 20004KT 4SM 19/02 A3018 RMK T01900020 IEM_DS3505
ZGKL,2007-01-29 08:00,ZGKL 290800Z AUTO 09002KT 4SM 20/02 A3018 RMK T02000020 IEM_DS3505
ZGKL,2007-01-29 09:00,ZGKL 290900Z AUTO 14004KT 6SM 18/01 A3015 RMK SLP220 T01830013 57021 IEM_DS3505
ZGKL,2007-01-29 10:00,ZGKL 291000Z AUTO 00000KT 4SM 17/08 A3018 RMK T01700080 IEM_DS3505
ZGKL,2007-01-29 11:00,ZGKL 291100Z AUTO 04002KT 3SM 12/07 A3018 RMK T01200070 IEM_DS3505
ZGKL,2007-01-29 12:00,ZGKL 291200Z AUTO 05002KT 6SM 12/05 A3021 RMK SLP241 T01250047 52018 IEM_DS3505
ZGKL,2007-01-29 13:00,ZGKL 291300Z AUTO 05002KT 3SM 08/06 A3024 RMK T00800060 IEM_DS3505
ZGKL,2007-01-29 14:00,ZGKL 291400Z AUTO 00000KT 2 1/2SM 06/05 A3027 RMK T00600050 IEM_DS3505
ZGKL,2007-01-29 15:00,ZGKL 291500Z AUTO 00000KT 6SM 10/03 A3027 RMK SLP259 T00970034 52020 IEM_DS3505
ZGKL,2007-01-29 16:00,ZGKL 291600Z AUTO 00000KT 2 1/2SM 06/05 A3030 RMK T00600050 IEM_DS3505
ZGKL,2007-01-29 17:00,ZGKL 291700Z AUTO 07002KT 06/05 A3030 RMK T00600050 IEM_DS3505
ZGKL,2007-01-29 18:00,ZGKL 291800Z AUTO 04002KT 6SM 09/03 A3030 RMK SLP263 T00860034 52005 IEM_DS3505
ZGKL,2007-01-29 19:00,ZGKL 291900Z AUTO 00000KT 07/06 A3030 RMK T00700060 IEM_DS3505
ZGKL,2007-01-29 20:00,ZGKL 292000Z AUTO 05002KT 07/06 A3027 RMK T00700060 IEM_DS3505
ZGKL,2007-01-29 21:00,ZGKL 292100Z AUTO 02002KT 6SM 07/04 A3027 RMK SLP260 T00710035 57003 IEM_DS3505
ZGKL,2007-01-29 22:00,ZGKL 292200Z AUTO 00000KT 2 1/2SM 07/05 A3030 RMK T00700050 IEM_DS3505
ZGKL,2007-01-29 23:00,ZGKL 292300Z AUTO 06002KT 2 1/2SM 06/05 A3030 RMK T00600050 IEM_DS3505
ZGKL,2007-01-30 00:00,ZGKL 300000Z AUTO 11002KT 5SM 06/04 A3033 RMK SLP283 T00650035 52020 IEM_DS3505
ZGKL,2007-01-30 01:00,ZGKL 300100Z AUTO 04002KT 2SM 08/05 A3036 RMK T00800050 IEM_DS3505
ZGKL,2007-01-30 02:00,ZGKL 300200Z AUTO 30002KT 2SM 11/06 A3039 RMK T01100060 IEM_DS3505
ZGKL,2007-01-30 03:00,ZGKL 300300Z AUTO 32002KT 5SM 12/05 A3039 RMK SLP295 T01250047 52013 IEM_DS3505
ZGKL,2007-01-30 04:00,ZGKL 300400Z AUTO 03002KT 2 1/2SM 16/04 A3036 RMK T01600040 IEM_DS3505
ZGKL,2007-01-30 05:00,ZGKL 300500Z AUTO 26002KT 3SM 16/06 A3033 RMK T01600060 IEM_DS3505
ZGKL,2007-01-30 06:00,ZGKL 300600Z AUTO 16002KT 4SM 18/05 A3027 RMK SLP255 T01770046 57037 IEM_DS3505
ZGKL,2007-01-30 08:00,ZGKL 300800Z AUTO 22002KT 4SM 19/04 A3024 RMK T01900040 IEM_DS3505
ZGKL,2007-01-30 09:00,ZGKL 300900Z AUTO 20002KT 3SM 18/07 A3024 RMK SLP247 T01780070 57009 IEM_DS3505
ZGKL,2007-01-30 10:00,ZGKL 301000Z AUTO 00000KT 4SM 15/08 A3024 RMK T01500080 IEM_DS3505
ZGKL,2007-01-30 11:00,ZGKL 301100Z AUTO 00000KT 3SM 12/07 A3027 RMK T01200070 IEM_DS3505
ZGKL,2007-01-30 12:00,ZGKL 301200Z AUTO 03002KT 3SM 12/08 A3027 RMK SLP258 T01220077 52009 IEM_DS3505
ZGKL,2007-01-30 13:00,ZGKL 301300Z AUTO 05002KT 2SM 09/07 A3030 RMK T00900070 IEM_DS3505
ZGKL,2007-01-30 14:00,ZGKL 301400Z AUTO 05002KT 2SM 09/07 A3030 RMK T00900070 IEM_DS3505
ZGKL,2007-01-30 15:00,ZGKL 301500Z AUTO 36002KT 3SM 12/05 A3030 RMK SLP265 T01160053 52009 IEM_DS3505
ZGKL,2007-01-30 16:00,ZGKL 301600Z AUTO 03002KT 09/07 A3030 RMK T00900070 IEM_DS3505
ZGKL,2007-01-30 17:00,ZGKL 301700Z AUTO 06002KT 09/07 A3030 RMK T00900070 IEM_DS3505
ZGKL,2007-01-30 18:00,ZGKL 301800Z AUTO 04002KT 3SM 10/05 A3027 RMK SLP258 T00960046 57006 IEM_DS3505
ZGKL,2007-01-30 19:00,ZGKL 301900Z AUTO 06002KT 08/07 A3027 RMK T00800070 IEM_DS3505
ZGKL,2007-01-30 20:00,ZGKL 302000Z AUTO 04002KT 07/06 A3024 RMK T00700060 IEM_DS3505
ZGKL,2007-01-30 21:00,ZGKL 302100Z AUTO 02002KT 3SM 09/04 A3024 RMK SLP246 T00920044 57012 IEM_DS3505
ZGKL,2007-01-30 22:00,ZGKL 302200Z AUTO 07002KT 1 1/4SM 05/05 A3024 RMK T00500050 IEM_DS3505
ZGKL,2007-01-30 23:00,ZGKL 302300Z AUTO 06002KT 1SM 04/04 A3027 RMK T00400040 IEM_DS3505
ZGKL,2007-01-31 00:00,ZGKL 310000Z AUTO 07002KT 3SM 08/04 A3030 RMK SLP269 T00760042 52020 IEM_DS3505
ZGKL,2007-01-31 01:00,ZGKL 310100Z AUTO 00000KT 1 1/2SM 07/06 A3033 RMK T00700060 IEM_DS3505
ZGKL,2007-01-31 02:00,ZGKL 310200Z AUTO 00000KT 2SM 09/07 A3033 RMK T00900070 IEM_DS3505
ZGKL,2007-01-31 03:00,ZGKL 310300Z AUTO 29002KT 3SM 13/06 A3036 RMK SLP283 T01310055 52015 IEM_DS3505
ZGKL,2007-01-31 04:00,ZGKL 310400Z AUTO 06002KT 2 1/2SM 17/05 A3033 RMK T01700050 IEM_DS3505
ZGKL,2007-01-31 05:00,ZGKL 310500Z AUTO 21002KT 4SM 19/05 A3030 RMK T01900050 IEM_DS3505
ZGKL,2007-01-31 06:00,ZGKL 310600Z AUTO 14002KT 3SM 20/04 A3024 RMK SLP247 T01960041 57033 IEM_DS3505
ZGKL,2007-01-31 07:00,ZGKL 310700Z AUTO 24002KT 4SM 21/04 A3024 RMK T02100040 IEM_DS3505
ZGKL,2007-01-31 08:00,ZGKL 310800Z AUTO 10002KT 3SM 21/02 A3021 RMK T02100020 IEM_DS3505
ZGKL,2007-01-31 09:00,ZGKL 310900Z AUTO 20002KT 5SM 21/04 A3024 RMK SLP237 T02080044 57010 IEM_DS3505
ZGKL,2007-01-31 10:00,ZGKL 311000Z AUTO 06002KT 3SM 18/08 A3024 RMK T01800080 IEM_DS3505
ZGKL,2007-01-31 11:00,ZGKL 311100Z AUTO 01002KT 2 1/2SM 17/09 A3027 RMK T01700090 IEM_DS3505
ZGKL,2007-01-31 12:00,ZGKL 311200Z AUTO 02004KT 5SM 17/05 A3030 RMK SLP266 T01670053 52027 IEM_DS3505
ZGKL,2007-01-31 13:00,ZGKL 311300Z AUTO 04002KT 3SM 12/09 A3033 RMK T01200090 IEM_DS3505
ZGKL,2007-01-31 14:00,ZGKL 311400Z AUTO 05002KT 2SM 10/08 A3036 RMK T01000080 IEM_DS3505
ZGKL,2007-01-31 15:00,ZGKL 311500Z AUTO 02006KT 4SM 16/M00 A3039 RMK SLP299 T01621001 52034 IEM_DS3505
ZGKL,2007-01-31 16:00,ZGKL 311600Z AUTO 05010KT 5SM 17/M04 A3042 RMK T01701040 IEM_DS3505
ZGKL,2007-01-31 17:00,ZGKL 311700Z AUTO 04006KT 15/M04 A3042 RMK T01501040 IEM_DS3505
ZGKL,2007-01-31 18:00,ZGKL 311800Z AUTO 36006KT 5SM 13/M03 A3042 RMK SLP309 T01301033 52011 IEM_DS3505
ZGKL,2007-01-31 19:00,ZGKL 311900Z AUTO 02002KT 09/00 A3045 RMK T00900000 IEM_DS3505
ZGKL,2007-01-31 20:00,ZGKL 312000Z AUTO 02004KT 11/M05 A3045 RMK T01101050 IEM_DS3505
ZGKL,2007-01-31 21:00,ZGKL 312100Z AUTO 36006KT 5SM 12/M04 A3047 RMK SLP321 T01171044 52011 IEM_DS3505
ZGKL,2007-01-31 22:00,ZGKL 312200Z AUTO 02002KT 5SM 08/M02 A3047 RMK T00801020 IEM_DS3505
ZGKL,2007-01-31 23:00,ZGKL 312300Z AUTO 29002KT 5SM 05/01 A3050 RMK T00500010 IEM_DS3505
ZGKL,2007-02-01 00:00,ZGKL 010000Z AUTO 02008KT 9SM 11/M04 A3053 RMK SLP341 T01071045 52018 IEM_DS3505
ZGKL,2007-02-01 01:00,ZGKL 010100Z AUTO 08002KT 6SM 10/01 A3053 RMK T01000010 IEM_DS3505
ZGKL,2007-02-01 02:00,ZGKL 010200Z AUTO 09004KT 6SM 14/M05 A3053 RMK T01401050 IEM_DS3505
ZGKL,2007-02-01 03:00,ZGKL 010300Z AUTO 02010KT 9SM 15/M11 A3053 RMK SLP345 T01501106 52005 IEM_DS3505
ZGKL,2007-02-01 04:00,ZGKL 010400Z AUTO 05010KT 6SM 16/M10 A3050 RMK T01601100 IEM_DS3505
ZGKL,2007-02-01 05:00,ZGKL 010500Z AUTO 05006KT 6SM 18/M08 A3047 RMK T01801080 IEM_DS3505
ZGKL,2007-02-01 06:00,ZGKL 010600Z AUTO 02012KT 10SM 18/M11 A3042 RMK SLP303 T01761111 57041 IEM_DS3505
ZGKL,2007-02-01 07:00,ZGKL 010700Z AUTO 03006KT 6SM 18/M09 A3039 RMK T01801090 IEM_DS3505
ZGKL,2007-02-01 08:00,ZGKL 010800Z AUTO 07006KT 6SM 19/M06 A3036 RMK T01901060 IEM_DS3505
ZGKL,2007-02-01 09:00,ZGKL 010900Z AUTO 02006KT 11SM 18/M08 A3036 RMK SLP284 T01801082 57019 IEM_DS3505
ZGKL,2007-02-01 10:00,ZGKL 011000Z AUTO 05004KT 6SM 16/M03 A3036 RMK T01601030 IEM_DS3505
ZGKL,2007-02-01 11:00,ZGKL 011100Z AUTO 32002KT 6SM 12/M01 A3039 RMK T01201010 IEM_DS3505
ZGKL,2007-02-01 12:00,ZGKL 011200Z AUTO 02004KT 10SM 09/04 A3039 RMK SLP302 T00900040 52016 IEM_DS3505
ZGKL,2007-02-01 13:00,ZGKL 011300Z AUTO 05002KT 6SM 07/02 A3042 RMK T00700020 IEM_DS3505
ZGKL,2007-02-01 14:00,ZGKL 011400Z AUTO 05002KT 6SM 05/03 A3045 RMK T00500030 IEM_DS3505
ZGKL,2007-02-01 16:00,ZGKL 011600Z AUTO 04002KT 6SM 04/02 A3045 RMK T00400020 IEM_DS3505
ZGKL,2007-02-01 17:00,ZGKL 011700Z AUTO 00000KT 03/02 A3042 RMK T00300020 IEM_DS3505
ZGKL,2007-02-01 18:00,ZGKL 011800Z AUTO 36002KT 7SM 08/M05 A3042 RMK SLP303 T00791049 57008 IEM_DS3505
ZGKL,2007-02-01 19:00,ZGKL 011900Z AUTO 06002KT 02/01 A3039 RMK T00200010 IEM_DS3505
ZGKL,2007-02-01 20:00,ZGKL 012000Z AUTO 06002KT 01/00 A3039 RMK T00100000 IEM_DS3505
ZGKL,2007-02-01 21:00,ZGKL 012100Z AUTO 04002KT 7SM 05/M02 A3039 RMK SLP291 T00511020 57012 IEM_DS3505
ZGKL,2007-02-01 22:00,ZGKL 012200Z AUTO 06002KT 6SM 00/M01 A3039 RMK T00001010 IEM_DS3505
ZGKL,2007-02-01 23:00,ZGKL 012300Z 07001MPS CAVOK M00/M01 Q1030 NOSIG
ZGKL,2007-02-02 00:00,ZGKL 020000Z 06001MPS CAVOK M00/M01 Q1030 NOSIG
ZGKL,2007-02-02 01:00,ZGKL 020100Z AUTO 12002KT 6SM 05/02 A3045 RMK T00500020 IEM_DS3505
ZGKL,2007-02-02 02:00,ZGKL 020200Z AUTO 05002KT 6SM 09/00 A3045 RMK T00900000 IEM_DS3505
ZGKL,2007-02-02 03:00,ZGKL 020300Z AUTO 11002KT 9SM 12/M03 A3042 RMK SLP308 T01241030 52001 IEM_DS3505
ZGKL,2007-02-02 04:00,ZGKL 020400Z AUTO 23004KT 6SM 15/M01 A3039 RMK T01501010 IEM_DS3505
ZGKL,2007-02-02 05:00,ZGKL 020500Z AUTO 27004KT 6SM 17/M02 A3036 RMK T01701020 IEM_DS3505
ZGKL,2007-02-02 06:00,ZGKL 020600Z AUTO 11002KT 8SM 20/M05 A3030 RMK SLP265 T01951047 57040 IEM_DS3505
ZGKL,2007-02-02 07:00,ZGKL 020700Z AUTO 31004KT 6SM 20/M04 A3027 RMK T02001040 IEM_DS3505
ZGKL,2007-02-02 08:00,ZGKL 020800Z AUTO 25002KT 6SM 20/M04 A3027 RMK T02001040 IEM_DS3505
ZGKL,2007-02-02 09:00,ZGKL 020900Z AUTO 18004KT 9SM 20/M08 A3024 RMK SLP247 T01981076 57019 IEM_DS3505
ZGKL,2007-02-02 10:00,ZGKL 021000Z AUTO 14002KT 6SM 17/M02 A3024 RMK T01701020 IEM_DS3505
ZGKL,2007-02-02 11:00,ZGKL 021100Z AUTO 00000KT 6SM 13/03 A3027 RMK T01300030 IEM_DS3505
ZGKL,2007-02-02 12:00,ZGKL 021200Z AUTO 34002KT 8SM 15/M03 A3027 RMK SLP259 T01481026 52010 IEM_DS3505
ZGKL,2007-02-02 13:00,ZGKL 021300Z AUTO 07002KT 6SM 10/05 A3030 RMK T01000050 IEM_DS3505
ZGKL,2007-02-02 14:00,ZGKL 021400Z AUTO 05002KT 6SM 10/06 A3030 RMK T01000060 IEM_DS3505
ZGKL,2007-02-02 15:00,ZGKL 021500Z AUTO 36002KT 7SM 13/M02 A3030 RMK SLP262 T01341017 52005 IEM_DS3505
ZGKL,2007-02-02 16:00,ZGKL 021600Z AUTO 15002KT 09/05 A3030 RMK T00900050 IEM_DS3505
ZGKL,2007-02-02 17:00,ZGKL 021700Z AUTO 00000KT 08/05 A3027 RMK T00800050 IEM_DS3505
ZGKL,2007-02-02 18:00,ZGKL 021800Z AUTO 27002KT 7SM 11/01 A3027 RMK SLP252 T01140008 57008 IEM_DS3505
ZGKL,2007-02-02 19:00,ZGKL 021900Z AUTO 10002KT 07/05 A3024 RMK T00700050 IEM_DS3505
ZGKL,2007-02-02 20:00,ZGKL 022000Z AUTO 05002KT 07/05 A3024 RMK T00700050 IEM_DS3505
ZGKL,2007-02-02 21:00,ZGKL 022100Z AUTO 04002KT 7SM 10/01 A3024 RMK SLP242 T00970011 57010 IEM_DS3505
ZGKL,2007-02-02 22:00,ZGKL 022200Z AUTO 02002KT 5SM 07/05 A3024 RMK T00700050 IEM_DS3505
ZGKL,2007-02-02 23:00,ZGKL 022300Z AUTO 00000KT 5SM 06/05 A3024 RMK T00600050 IEM_DS3505
ZGKL,2007-02-03 00:00,ZGKL 030000Z AUTO 07002KT 7SM 09/02 A3027 RMK SLP251 T00880015 52007 IEM_DS3505
ZGKL,2007-02-03 01:00,ZGKL 030100Z AUTO 00000KT 5SM 08/06 A3027 RMK T00800060 IEM_DS3505
ZGKL,2007-02-03 02:00,ZGKL 030200Z AUTO 05002KT 5SM 13/04 A3027 RMK T01300040 IEM_DS3505
ZGKL,2007-02-03 03:00,ZGKL 030300Z AUTO 00000KT 7SM 14/02 A3027 RMK SLP256 T01420018 52006 IEM_DS3505
ZGKL,2007-02-03 04:00,ZGKL 030400Z AUTO 33002KT 5SM 18/00 A3024 RMK T01800000 IEM_DS3505
ZGKL,2007-02-03 05:00,ZGKL 030500Z AUTO 09004KT 5SM 20/M02 A3021 RMK T02001020 IEM_DS3505
ZGKL,2007-02-03 06:00,ZGKL 030600Z AUTO 14004KT 6SM 20/M02 A3018 RMK SLP221 T01981019 57033 IEM_DS3505
ZGKL,2007-02-03 07:00,ZGKL 030700Z AUTO 15004KT 6SM 20/00 A3015 RMK T02000000 IEM_DS3505
ZGKL,2007-02-03 08:00,ZGKL 030800Z AUTO 15006KT 6SM 20/00 A3012 RMK T02000000 IEM_DS3505
ZGKL,2007-02-03 09:00,ZGKL 030900Z AUTO 20004KT 7SM 19/M02 A3012 RMK SLP208 T01911019 57014 IEM_DS3505
ZGKL,2007-02-03 10:00,ZGKL 031000Z AUTO 13004KT 6SM 18/00 A3012 RMK T01800000 IEM_DS3505
ZGKL,2007-02-03 11:00,ZGKL 031100Z AUTO 20002KT 6SM 16/00 A3012 RMK T01600000 IEM_DS3505
ZGKL,2007-02-03 12:00,ZGKL 031200Z AUTO 04002KT 6SM 14/02 A3015 RMK SLP218 T01420024 52008 IEM_DS3505
ZGKL,2007-02-03 13:00,ZGKL 031300Z AUTO 36002KT 6SM 11/06 A3015 RMK T01100060 IEM_DS3505
ZGKL,2007-02-03 14:00,ZGKL 031400Z AUTO 05002KT 6SM 10/06 A3018 RMK T01000060 IEM_DS3505
ZGKL,2007-02-03 15:00,ZGKL 031500Z AUTO 16002KT 6SM 12/04 A3018 RMK SLP226 T01170040 52009 IEM_DS3505
ZGKL,2007-02-03 16:00,ZGKL 031600Z AUTO 05002KT 08/05 A3018 RMK T00800050 IEM_DS3505
ZGKL,2007-02-03 17:00,ZGKL 031700Z AUTO 04002KT 08/06 A3018 RMK T00800060 IEM_DS3505
ZGKL,2007-02-03 18:00,ZGKL 031800Z AUTO 36002KT 6SM 11/03 A3015 RMK SLP218 T01110027 57006 IEM_DS3505
ZGKL,2007-02-03 19:00,ZGKL 031900Z AUTO 02002KT 08/06 A3015 RMK T00800060 IEM_DS3505
ZGKL,2007-02-03 20:00,ZGKL 032000Z AUTO 08002KT 08/06 A3012 RMK T00800060 IEM_DS3505
ZGKL,2007-02-03 21:00,ZGKL 032100Z AUTO 00000KT 6SM 09/05 A3012 RMK SLP208 T00940046 57011 IEM_DS3505
ZGKL,2007-02-03 22:00,ZGKL 032200Z AUTO 17002KT 4SM 07/06 A3012 RMK T00700060 IEM_DS3505
ZGKL,2007-02-03 23:00,ZGKL 032300Z AUTO 00000KT 4SM 06/05 A3015 RMK T00600050 IEM_DS3505
ZGKL,2007-02-04 00:00,ZGKL 040000Z AUTO 02002KT 5SM 09/05 A3015 RMK SLP219 T00920048 52009 IEM_DS3505
ZGKL,2007-02-04 01:00,ZGKL 040100Z AUTO 19002KT 3SM 09/07 A3018 RMK T00900070 IEM_DS3505
ZGKL,2007-02-04 02:00,ZGKL 040200Z AUTO 34002KT 3SM 12/06 A3018 RMK T01200060 IEM_DS3505
ZGKL,2007-02-04 03:00,ZGKL 040300Z AUTO 07002KT 5SM 16/05 A3018 RMK SLP223 T01550048 52005 IEM_DS3505
ZGKL,2007-02-04 04:00,ZGKL 040400Z AUTO 32002KT 3SM 18/06 A3015 RMK T01800060 IEM_DS3505
ZGKL,2007-02-04 05:00,ZGKL 040500Z AUTO 19004KT 4SM 20/02 A3009 RMK T02000020 IEM_DS3505
ZGKL,2007-02-04 06:00,ZGKL 040600Z AUTO 29002KT 7SM 20/01 A3006 RMK SLP181 T01980013 57039 IEM_DS3505
ZGKL,2007-02-04 07:00,ZGKL 040700Z AUTO 14004KT 5SM 22/02 A3003 RMK T02200020 IEM_DS3505
ZGKL,2007-02-04 08:00,ZGKL 040800Z AUTO 11004KT 5SM 22/03 A3000 RMK T02200030 IEM_DS3505
ZGKL,2007-02-04 09:00,ZGKL 040900Z AUTO 14002KT 7SM 21/01 A3000 RMK SLP162 T02090007 57019 IEM_DS3505
ZGKL,2007-02-04 10:00,ZGKL 041000Z AUTO 07002KT 5SM 19/05 A3000 RMK T01900050 IEM_DS3505
ZGKL,2007-02-04 11:00,ZGKL 041100Z AUTO 06002KT 4SM 14/08 A3003 RMK T01400080 IEM_DS3505
ZGKL,2007-02-04 12:00,ZGKL 041200Z AUTO 32002KT 7SM 15/05 A3003 RMK SLP179 T01460046 52014 IEM_DS3505
ZGKL,2007-02-04 13:00,ZGKL 041300Z AUTO 06002KT 3SM 09/07 A3006 RMK T00900070 IEM_DS3505
ZGKL,2007-02-04 14:00,ZGKL 041400Z AUTO 05002KT 3SM 08/07 A3006 RMK T00800070 IEM_DS3505
ZGKL,2007-02-04 15:00,ZGKL 041500Z AUTO 36002KT 6SM 12/04 A3009 RMK SLP194 T01210043 52016 IEM_DS3505
ZGKL,2007-02-04 16:00,ZGKL 041600Z AUTO 05002KT 2 1/2SM 07/06 A3009 RMK T00700060 IEM_DS3505
ZGKL,2007-02-04 17:00,ZGKL 041700Z AUTO 07002KT 06/05 A3009 RMK T00600050 IEM_DS3505
ZGKL,2007-02-04 18:00,ZGKL 041800Z AUTO 36002KT 6SM 10/05 A3009 RMK SLP193 T00990047 54000 IEM_DS3505
ZGKL,2007-02-04 19:00,ZGKL 041900Z AUTO 05002KT 05/05 A3009 RMK T00500050 IEM_DS3505
ZGKL,2007-02-04 20:00,ZGKL 042000Z AUTO 05002KT 05/04 A3006 RMK T00500040 IEM_DS3505
ZGKL,2007-02-04 21:00,ZGKL 042100Z AUTO 32002KT 6SM 08/04 A3006 RMK SLP188 T00790043 57005 IEM_DS3505
ZGKL,2007-02-04 22:00,ZGKL 042200Z AUTO 06002KT 2SM 04/04 A3009 RMK T00400040 IEM_DS3505
ZGKL,2007-02-04 23:00,ZGKL 042300Z 09001MPS 3000 BR FEW036 04/03 Q1020 NOSIG
ZGKL,2007-02-05 00:00,ZGKL 050000Z 00000MPS 2200 BR FEW033 04/04 Q1021 NOSIG
ZGKL,2007-02-05 01:00,ZGKL 050100Z AUTO 06002KT 1 1/4SM 07/06 A3015 RMK T00700060 IEM_DS3505
ZGKL,2007-02-05 02:00,ZGKL 050200Z AUTO 01002KT 1 1/2SM 10/08 A3018 RMK T01000080 IEM_DS3505
ZGKL,2007-02-05 03:00,ZGKL 050300Z AUTO 36002KT 4SM 13/06 A3018 RMK SLP226 T01320065 52016 IEM_DS3505
ZGKL,2007-02-05 04:00,ZGKL 050400Z AUTO 08002KT 2 1/2SM 16/07 A3015 RMK T01600070 IEM_DS3505
ZGKL,2007-02-05 05:00,ZGKL 050500Z AUTO 36002KT 3SM 17/06 A3012 RMK T01700060 IEM_DS3505
ZGKL,2007-02-05 06:00,ZGKL 050600Z AUTO 29002KT 3SM 17/07 A3009 RMK SLP197 T01720067 57028 IEM_DS3505
ZGKL,2007-02-05 07:00,ZGKL 050700Z AUTO 22002KT 3SM 19/08 A3006 RMK T01900080 IEM_DS3505
ZGKL,2007-02-05 08:00,ZGKL 050800Z AUTO 31002KT 3SM 19/09 A3006 RMK T01900090 IEM_DS3505
ZGKL,2007-02-05 09:00,ZGKL 050900Z AUTO 09002KT 4SM 19/08 A3003 RMK SLP179 T01890080 57018 IEM_DS3505
ZGKL,2007-02-05 10:00,ZGKL 051000Z AUTO 03002KT 2 1/2SM 18/10 A3006 RMK T01800100 IEM_DS3505
ZGKL,2007-02-05 11:00,ZGKL 051100Z AUTO 30002KT 2 1/2SM 15/10 A3006 RMK T01500100 IEM_DS3505
ZGKL,2007-02-05 12:00,ZGKL 051200Z AUTO 04002KT 4SM 16/09 A3009 RMK SLP195 T01560088 52014 IEM_DS3505
ZGKL,2007-02-05 13:00,ZGKL 051300Z AUTO 05002KT 2SM 13/11 A3009 RMK T01300110 IEM_DS3505
ZGKL,2007-02-05 14:00,ZGKL 051400Z AUTO 06002KT 1 1/4SM 13/11 A3009 RMK T01300110 IEM_DS3505
ZGKL,2007-02-05 15:00,ZGKL 051500Z AUTO 11002KT 4SM 15/10 A3012 RMK SLP201 T01460096 52008 IEM_DS3505
ZGKL,2007-02-05 16:00,ZGKL 051600Z AUTO 03002KT 13/11 A3009 RMK T01300110 IEM_DS3505
ZGKL,2007-02-05 17:00,ZGKL 051700Z AUTO 08002KT 13/11 A3009 RMK T01300110 IEM_DS3505
ZGKL,2007-02-05 18:00,ZGKL 051800Z AUTO 09002KT 4SM 14/10 A3009 RMK SLP194 T01420104 57006 IEM_DS3505
ZGKL,2007-02-05 19:00,ZGKL 051900Z AUTO 08002KT 13/11 A3009 RMK T01300110 IEM_DS3505
ZGKL,2007-02-05 20:00,ZGKL 052000Z AUTO 00000KT 13/11 A3006 RMK T01300110 IEM_DS3505
ZGKL,2007-02-05 21:00,ZGKL 052100Z AUTO 04002KT 4SM 14/10 A3006 RMK SLP183 T01370105 57010 IEM_DS3505
ZGKL,2007-02-05 22:00,ZGKL 052200Z AUTO 00000KT 1 1/2SM 13/11 A3006 RMK T01300110 IEM_DS3505
ZGKL,2007-02-05 23:00,ZGKL 052300Z AUTO 19002KT 1 1/2SM 13/11 A3009 RMK T01300110 IEM_DS3505
ZGKL,2007-02-06 00:00,ZGKL 060000Z AUTO 36002KT 2 1/2SM 14/11 A3009 RMK SLP199 T01360108 52015 IEM_DS3505
ZGKL,2007-02-06 01:00,ZGKL 060100Z AUTO 18002KT 1SM 13/12 A3012 RMK T01300120 IEM_DS3505
ZGKL,2007-02-06 02:00,ZGKL 060200Z AUTO 17002KT 1 1/4SM 14/12 A3015 RMK T01400120 IEM_DS3505
ZGKL,2007-02-06 03:00,ZGKL 060300Z AUTO 25002KT 2 1/2SM 15/11 A3015 RMK SLP216 T01520114 52016 IEM_DS3505
ZGKL,2007-02-06 04:00,ZGKL 060400Z AUTO 31004KT 2 1/2SM 17/12 A3012 RMK T01700120 IEM_DS3505
ZGKL,2007-02-06 05:00,ZGKL 060500Z AUTO 31004KT 2 1/2SM 19/13 A3009 RMK T01900130 IEM_DS3505
ZGKL,2007-02-06 06:00,ZGKL 060600Z AUTO 07002KT 2SM 22/12 A3003 RMK 60000 SLP176 T02160122 57037 IEM_DS3505
ZGKL,2007-02-06 07:00,ZGKL 060700Z AUTO 31004KT 3SM 21/14 A3000 RMK T02100140 IEM_DS3505
ZGKL,2007-02-06 08:00,ZGKL 060800Z AUTO 34004KT 3SM 20/14 A3000 RMK T02000140 IEM_DS3505
ZGKL,2007-02-06 09:00,ZGKL 060900Z AUTO 02002KT 5SM 21/13 A3000 RMK SLP162 T02060126 57014 IEM_DS3505
ZGKL,2007-02-06 10:00,ZGKL 061000Z AUTO 3SM 19/14 A3000 RMK T01900140 IEM_DS3505
ZGKL,2007-02-06 11:00,ZGKL 061100Z AUTO 2 1/2SM 18/14 A3000 RMK T01800140 IEM_DS3505
ZGKL,2007-02-06 12:00,ZGKL 061200Z AUTO 36002KT 4SM 18/13 A3003 RMK SLP177 T01780133 52014 IEM_DS3505
ZGKL,2007-02-06 13:00,ZGKL 061300Z AUTO 2SM 16/13 A3006 RMK T01600130 IEM_DS3505
ZGKL,2007-02-06 14:00,ZGKL 061400Z AUTO 28002KT 1 1/2SM 15/14 A3006 RMK T01500140 IEM_DS3505
ZGKL,2007-02-06 15:00,ZGKL 061500Z AUTO 09002KT 4SM 15/13 A3006 RMK SLP192 T01540131 52014 IEM_DS3505
ZGKL,2007-02-06 16:00,ZGKL 061600Z AUTO 00000KT 14/13 A3009 RMK T01400130 IEM_DS3505
ZGKL,2007-02-06 17:00,ZGKL 061700Z AUTO 05002KT 14/13 A3006 RMK T01400130 IEM_DS3505
ZGKL,2007-02-06 18:00,ZGKL 061800Z AUTO 17004KT 4SM 15/13 A3006 RMK SLP188 T01480130 57002 IEM_DS3505
ZGKL,2007-02-06 19:00,ZGKL 061900Z AUTO A3006 RMK IEM_DS3505
ZGKL,2007-02-06 20:00,ZGKL 062000Z AUTO 15002KT 13/12 A3006 RMK T01300120 IEM_DS3505
ZGKL,2007-02-06 21:00,ZGKL 062100Z AUTO 15004KT 4SM A3006 RMK 70000 SLP187 57001 IEM_DS3505
ZGKL,2007-02-06 22:00,ZGKL 062200Z AUTO 00000KT 1SM 13/12 A3006 RMK T01300120 IEM_DS3505
ZGKL,2007-02-06 23:00,ZGKL 062300Z AUTO 00000KT 1SM 13/12 A3009 RMK T01300120 IEM_DS3505
ZGKL,2007-02-07 00:00,ZGKL 070000Z AUTO 00000KT 5SM 15/13 A3012 RMK 70000 SLP206 T01480130 52018 IEM_DS3505
ZGKL,2007-02-07 01:00,ZGKL 070100Z AUTO 1SM 14/13 A3015 RMK T01400130 IEM_DS3505
ZGKL,2007-02-07 02:00,ZGKL 070200Z AUTO 1SM 15/14 A3015 RMK T01500140 IEM_DS3505
ZGKL,2007-02-07 03:00,ZGKL 070300Z AUTO 34004KT 5SM 21/14 A3015 RMK SLP216 T02100139 52011 IEM_DS3505
ZGKL,2007-02-07 04:00,ZGKL 070400Z AUTO 4SM 21/13 A3012 RMK T02100130 IEM_DS3505
ZGKL,2007-02-07 05:00,ZGKL 070500Z AUTO 18016KT 4SM 24/09 A3009 RMK T02400090 IEM_DS3505
ZGKL,2007-02-07 06:00,ZGKL 070600Z AUTO 18006KT 9SM 24/12 A3006 RMK SLP184 T02420122 57031 IEM_DS3505
ZGKL,2007-02-07 07:00,ZGKL 070700Z AUTO 18014KT 6SM 25/11 A3003 RMK T02500110 IEM_DS3505
ZGKL,2007-02-07 08:00,ZGKL 070800Z AUTO 17014KT 6SM 24/12 A3003 RMK T02400120 IEM_DS3505
ZGKL,2007-02-07 09:00,ZGKL 070900Z AUTO 16006KT 11SM 23/12 A3003 RMK SLP173 T02310115 57011 IEM_DS3505
ZGKL,2007-02-07 10:00,ZGKL 071000Z AUTO 23004KT 6SM 22/13 A3006 RMK T02200130 IEM_DS3505
ZGKL,2007-02-07 11:00,ZGKL 071100Z AUTO 00000KT 6SM 21/13 A3006 RMK T02100130 IEM_DS3505
ZGKL,2007-02-07 12:00,ZGKL 071200Z AUTO 11002KT 9SM 19/13 A3009 RMK SLP195 T01930126 52020 IEM_DS3505
ZGKL,2007-02-07 13:00,ZGKL 071300Z AUTO 00000KT 6SM 17/13 A3009 RMK T01700130 IEM_DS3505
ZGKL,2007-02-07 14:00,ZGKL 071400Z AUTO 31004KT 4SM 16/13 A3009 RMK T01600130 IEM_DS3505
ZGKL,2007-02-07 15:00,ZGKL 071500Z AUTO 36002KT 7SM 17/12 A3009 RMK SLP198 T01700125 52005 IEM_DS3505
ZGKL,2007-02-07 16:00,ZGKL 071600Z AUTO 31004KT 4SM 14/12 A3009 RMK T01400120 IEM_DS3505
ZGKL,2007-02-07 17:00,ZGKL 071700Z AUTO 00000KT 14/12 A3009 RMK T01400120 IEM_DS3505
ZGKL,2007-02-07 18:00,ZGKL 071800Z AUTO 07002KT 7SM 15/12 A3009 RMK SLP197 T01510124 57001 IEM_DS3505
ZGKL,2007-02-07 19:00,ZGKL 071900Z AUTO 32002KT 13/12 A3009 RMK T01300120 IEM_DS3505
ZGKL,2007-02-07 20:00,ZGKL 072000Z AUTO 04004KT 12/11 A3006 RMK T01200110 IEM_DS3505
ZGKL,2007-02-07 21:00,ZGKL 072100Z AUTO 00000KT 7SM 14/12 A3009 RMK SLP193 T01370119 57005 IEM_DS3505
ZGKL,2007-02-07 22:00,ZGKL 072200Z AUTO 00000KT 3SM 12/11 A3009 RMK T01200110 IEM_DS3505
ZGKL,2007-02-07 23:00,ZGKL 072300Z AUTO 00000KT 2 1/2SM 13/12 A3012 RMK T01300120 IEM_DS3505
ZGKL,2007-02-08 00:00,ZGKL 080000Z AUTO 00000KT 6SM 14/12 A3012 RMK SLP213 T01370121 52019 IEM_DS3505
ZGKL,2007-02-08 01:00,ZGKL 080100Z AUTO 00000KT 2 1/2SM 14/13 A3015 RMK T01400130 IEM_DS3505
ZGKL,2007-02-08 02:00,ZGKL 080200Z AUTO 00000KT 2 1/2SM 16/13 A3015 RMK T01600130 IEM_DS3505
ZGKL,2007-02-08 03:00,ZGKL 080300Z AUTO 02002KT 6SM 19/13 A3015 RMK SLP219 T01860130 52006 IEM_DS3505
ZGKL,2007-02-08 04:00,ZGKL 080400Z AUTO 3SM 21/13 A3012 RMK T02100130 IEM_DS3505
ZGKL,2007-02-08 05:00,ZGKL 080500Z AUTO 16004KT 4SM 24/14 A3009 RMK T02400140 IEM_DS3505
ZGKL,2007-02-08 06:00,ZGKL 080600Z AUTO 16002KT 5SM 24/14 A3006 RMK SLP183 T02350137 57034 IEM_DS3505
ZGKL,2007-02-08 07:00,ZGKL 080700Z AUTO 19012KT 7SM 25/13 A3003 RMK T02500130 IEM_DS3505
ZGKL,2007-02-08 08:00,ZGKL 080800Z AUTO 19012KT 6SM 24/12 A3003 RMK T02400120 IEM_DS3505
ZGKL,2007-02-08 09:00,ZGKL 080900Z AUTO 16002KT 6SM 23/14 A3003 RMK SLP173 T02320139 57010 IEM_DS3505
ZGKL,2007-02-08 10:00,ZGKL 081000Z AUTO 19006KT 6SM 22/13 A3003 RMK T02200130 IEM_DS3505
ZGKL,2007-02-08 11:00,ZGKL 081100Z AUTO 16006KT 6SM 22/13 A3006 RMK T02200130 IEM_DS3505
ZGKL,2007-02-08 12:00,ZGKL 081200Z AUTO 16002KT 6SM 20/14 A3006 RMK SLP189 T02010145 52014 IEM_DS3505
ZGKL,2007-02-08 13:00,ZGKL 081300Z AUTO 18004KT 6SM 19/14 A3009 RMK T01900140 IEM_DS3505
ZGKL,2007-02-08 14:00,ZGKL 081400Z AUTO 23004KT 6SM 18/14 A3009 RMK T01800140 IEM_DS3505
ZGKL,2007-02-08 15:00,ZGKL 081500Z AUTO 07002KT 6SM 19/14 A3009 RMK SLP198 T01890144 52010 IEM_DS3505
ZGKL,2007-02-08 16:00,ZGKL 081600Z AUTO 00000KT 17/14 A3009 RMK T01700140 IEM_DS3505
ZGKL,2007-02-08 17:00,ZGKL 081700Z AUTO 17/14 A3009 RMK T01700140 IEM_DS3505
ZGKL,2007-02-08 18:00,ZGKL 081800Z AUTO 02004KT 6SM 17/12 A3009 RMK SLP193 T01710122 57003 IEM_DS3505
ZGKL,2007-02-08 19:00,ZGKL 081900Z AUTO 17/14 A3006 RMK T01700140 IEM_DS3505
ZGKL,2007-02-08 20:00,ZGKL 082000Z AUTO 04006KT 17/12 A3006 RMK T01700120 IEM_DS3505
ZGKL,2007-02-08 21:00,ZGKL 082100Z AUTO 02006KT 6SM 15/11 A3006 RMK SLP191 T01510111 57003 IEM_DS3505
ZGKL,2007-02-08 22:00,ZGKL 082200Z AUTO 04008KT 2 1/2SM 16/11 A3009 RMK T01600110 IEM_DS3505
ZGKL,2007-02-08 23:00,ZGKL 082300Z AUTO 05008KT 2 1/2SM 15/11 A3012 RMK T01500110 IEM_DS3505
ZGKL,2007-02-09 00:00,ZGKL 090000Z AUTO 02006KT 4SM 14/10 A3012 RMK SLP210 T01390101 52017 IEM_DS3505
ZGKL,2007-02-09 01:00,ZGKL 090100Z AUTO 03008KT 2SM 15/10 A3015 RMK T01500100 IEM_DS3505
ZGKL,2007-02-09 02:00,ZGKL 090200Z AUTO 03008KT 2SM 15/10 A3015 RMK T01500100 IEM_DS3505
ZGKL,2007-02-09 03:00,ZGKL 090300Z AUTO 36008KT 3SM 15/10 A3015 RMK SLP218 T01520098 52008 IEM_DS3505
ZGKL,2007-02-09 04:00,ZGKL 090400Z AUTO 06008KT 2 1/2SM 16/10 A3012 RMK T01600100 IEM_DS3505
ZGKL,2007-02-09 05:00,ZGKL 090500Z AUTO 04008KT 2 1/2SM 17/11 A3009 RMK T01700110 IEM_DS3505
ZGKL,2007-02-09 06:00,ZGKL 090600Z AUTO 02008KT 4SM 16/10 A3006 RMK SLP186 T01650099 57032 IEM_DS3505
ZGKL,2007-02-09 07:00,ZGKL 090700Z AUTO 07008KT 2 1/2SM 18/11 A3000 RMK T01800110 IEM_DS3505
ZGKL,2007-02-09 08:00,ZGKL 090800Z AUTO 07008KT 2 1/2SM 19/11 A3000 RMK T01900110 IEM_DS3505
ZGKL,2007-02-09 09:00,ZGKL 090900Z AUTO 04006KT 5SM 17/10 A3000 RMK SLP171 T01660095 57015 IEM_DS3505
ZGKL,2007-02-09 10:00,ZGKL 091000Z AUTO 06010KT 3SM 16/10 A3000 RMK T01600100 IEM_DS3505
ZGKL,2007-02-09 11:00,ZGKL 091100Z AUTO 06012KT 3SM 15/09 A3003 RMK T01500090 IEM_DS3505
ZGKL,2007-02-09 12:00,ZGKL 091200Z AUTO 02008KT 5SM 13/08 A3006 RMK SLP194 T01340085 52021 IEM_DS3505
ZGKL,2007-02-09 13:00,ZGKL 091300Z AUTO 2 1/2SM 14/09 A3009 RMK T01400090 IEM_DS3505
ZGKL,2007-02-09 14:00,ZGKL 091400Z AUTO 04006KT 2 1/2SM 13/09 A3012 RMK T01300090 IEM_DS3505
ZGKL,2007-02-09 15:00,ZGKL 091500Z AUTO 02006KT 5SM 12/08 A3012 RMK SLP214 T01250084 52020 IEM_DS3505
ZGKL,2007-02-09 16:00,ZGKL 091600Z AUTO 07004KT 2 1/2SM 13/09 A3012 RMK T01300090 IEM_DS3505
ZGKL,2007-02-09 17:00,ZGKL 091700Z AUTO 04004KT 12/08 A3012 RMK T01200080 IEM_DS3505
ZGKL,2007-02-09 18:00,ZGKL 091800Z AUTO 02006KT 5SM 11/08 A3012 RMK SLP211 T01120079 57003 IEM_DS3505
ZGKL,2007-02-09 19:00,ZGKL 091900Z AUTO 12/08 A3012 RMK T01200080 IEM_DS3505
ZGKL,2007-02-09 20:00,ZGKL 092000Z AUTO 05006KT 11/08 A3012 RMK T01100080 IEM_DS3505
ZGKL,2007-02-09 21:00,ZGKL 092100Z AUTO 36006KT 4SM 10/08 A3012 RMK 70001 SLP209 T01010084 57002 IEM_DS3505
ZGKL,2007-02-09 22:00,ZGKL 092200Z AUTO 2SM 10/09 A3012 RMK T01000090 IEM_DS3505
ZGKL,2007-02-09 23:00,ZGKL 092300Z VRB01MPS 2700 BR FEW009 SCT023 OVC043 10/09 Q1021 NOSIG
ZGKL,2007-02-10 00:00,ZGKL 100000Z 05002MPS 2500 BR SCT020 OVC043 10/08 Q1022 NOSIG
ZGKL,2007-02-10 01:00,ZGKL 100100Z AUTO 05006KT 2SM 11/08 A3018 RMK T01100080 IEM_DS3505
ZGKL,2007-02-10 02:00,ZGKL 100200Z AUTO 05004KT 2 1/2SM 12/08 A3021 RMK T01200080 IEM_DS3505
ZGKL,2007-02-10 03:00,ZGKL 100300Z AUTO 04006KT 4SM 12/08 A3021 RMK SLP241 T01220079 52011 IEM_DS3505
ZGKL,2007-02-10 04:00,ZGKL 100400Z AUTO 07006KT 4SM 14/09 A3018 RMK T01400090 IEM_DS3505
ZGKL,2007-02-10 05:00,ZGKL 100500Z AUTO 29002KT 4SM 14/09 A3015 RMK T01400090 IEM_DS3505
ZGKL,2007-02-10 06:00,ZGKL 100600Z AUTO 36008KT 4SM 14/08 A3012 RMK 60000 SLP211 T01440079 57029 IEM_DS3505
ZGKL,2007-02-10 07:00,ZGKL 100700Z AUTO 4SM 15/09 A3012 RMK T01500090 IEM_DS3505
ZGKL,2007-02-10 08:00,ZGKL 100800Z AUTO 4SM 16/09 A3012 RMK T01600090 IEM_DS3505
ZGKL,2007-02-10 09:00,ZGKL 100900Z AUTO 02004KT 4SM 15/08 A3012 RMK SLP207 T01520084 57004 IEM_DS3505
ZGKL,2007-02-10 10:00,ZGKL 101000Z AUTO 33004KT 4SM 15/10 A3012 RMK T01500100 IEM_DS3505
ZGKL,2007-02-10 11:00,ZGKL 101100Z AUTO 07006KT 4SM 15/09 A3015 RMK T01500090 IEM_DS3505
ZGKL,2007-02-10 12:00,ZGKL 101200Z AUTO 02006KT 4SM 13/08 A3015 RMK SLP227 T01330075 52019 IEM_DS3505
ZGKL,2007-02-10 13:00,ZGKL 101300Z AUTO 07008KT 2 1/2SM 13/08 A3018 RMK T01300080 IEM_DS3505
ZGKL,2007-02-10 14:00,ZGKL 101400Z AUTO 07004KT 2 1/2SM 13/08 A3018 RMK T01300080 IEM_DS3505
ZGKL,2007-02-10 15:00,ZGKL 101500Z AUTO 02008KT 4SM 13/07 A3021 RMK SLP238 T01280066 52011 IEM_DS3505
ZGKL,2007-02-10 16:00,ZGKL 101600Z AUTO 05004KT 2 1/2SM 13/08 A3018 RMK T01300080 IEM_DS3505
ZGKL,2007-02-10 17:00,ZGKL 101700Z AUTO 32002KT 2 1/2SM 13/08 A3018 RMK T01300080 IEM_DS3505
ZGKL,2007-02-10 18:00,ZGKL 101800Z AUTO 02006KT 4SM 13/07 A3018 RMK SLP228 T01280070 57009 IEM_DS3505
ZGKL,2007-02-10 19:00,ZGKL 101900Z AUTO 00000KT 12/10 A3015 RMK T01200100 IEM_DS3505
ZGKL,2007-02-10 20:00,ZGKL 102000Z AUTO 00000KT 12/09 A3015 RMK T01200090 IEM_DS3505
ZGKL,2007-02-10 21:00,ZGKL 102100Z AUTO 02002KT 4SM 13/07 A3012 RMK 70002 SLP215 T01260066 57012 IEM_DS3505
ZGKL,2007-02-10 22:00,ZGKL 102200Z AUTO 00000KT 2SM 12/09 A3015 RMK T01200090 IEM_DS3505
ZGKL,2007-02-10 23:00,ZGKL 102300Z AUTO 00000KT 1 1/2SM 12/09 A3015 RMK T01200090 IEM_DS3505
ZGKL,2007-02-11 00:00,ZGKL 110000Z AUTO 36002KT 4SM 13/07 A3018 RMK 70000 SLP229 T01260066 52013 IEM_DS3505
ZGKL,2007-02-11 01:00,ZGKL 110100Z AUTO 00000KT 2 1/2SM 13/07 A3018 RMK T01300070 IEM_DS3505
ZGKL,2007-02-11 02:00,ZGKL 110200Z AUTO 07004KT 3SM 15/07 A3021 RMK T01500070 IEM_DS3505
ZGKL,2007-02-11 03:00,ZGKL 110300Z AUTO 36004KT 4SM 16/06 A3018 RMK SLP233 T01640062 52005 IEM_DS3505
ZGKL,2007-02-11 04:00,ZGKL 110400Z AUTO 05004KT 4SM 17/07 A3018 RMK T01700070 IEM_DS3505
ZGKL,2007-02-11 05:00,ZGKL 110500Z AUTO 4SM 19/08 A3012 RMK T01900080 IEM_DS3505
ZGKL,2007-02-11 06:00,ZGKL 110600Z AUTO 18004KT 4SM 18/08 A3009 RMK SLP195 T01850085 57037 IEM_DS3505
ZGKL,2007-02-11 07:00,ZGKL 110700Z AUTO 4SM 21/09 A3003 RMK T02100090 IEM_DS3505
ZGKL,2007-02-11 08:00,ZGKL 110800Z AUTO 4SM 20/09 A3000 RMK T02000090 IEM_DS3505
ZGKL,2007-02-11 09:00,ZGKL 110900Z AUTO 16002KT 6SM 20/10 A3000 RMK SLP163 T02050100 57030 IEM_DS3505
ZGKL,2007-02-11 10:00,ZGKL 111000Z AUTO 00000KT 4SM 19/11 A3000 RMK T01900110 IEM_DS3505
ZGKL,2007-02-11 11:00,ZGKL 111100Z AUTO 00000KT 3SM 18/12 A3000 RMK T01800120 IEM_DS3505
ZGKL,2007-02-11 12:00,ZGKL 111200Z AUTO 29002KT 6SM 19/11 A3003 RMK SLP179 T01870108 52015 IEM_DS3505
ZGKL,2007-02-11 13:00,ZGKL 111300Z AUTO 00000KT 2 1/2SM 17/13 A3006 RMK T01700130 IEM_DS3505
ZGKL,2007-02-11 14:00,ZGKL 111400Z AUTO 00000KT 2 1/2SM 16/13 A3006 RMK T01600130 IEM_DS3505
ZGKL,2007-02-11 15:00,ZGKL 111500Z AUTO 00000KT 6SM 17/12 A3006 RMK SLP184 T01710122 52005 IEM_DS3505
ZGKL,2007-02-11 16:00,ZGKL 111600Z AUTO 00000KT 2 1/2SM 16/13 A3003 RMK T01600130 IEM_DS3505
ZGKL,2007-02-11 17:00,ZGKL 111700Z AUTO 00000KT 2 1/2SM 16/14 A3003 RMK T01600140 IEM_DS3505
ZGKL,2007-02-11 18:00,ZGKL 111800Z AUTO 36002KT 6SM 16/12 A3000 RMK SLP170 T01640122 57013 IEM_DS3505
ZGKL,2007-02-11 19:00,ZGKL 111900Z AUTO 16/13 A3000 RMK T01600130 IEM_DS3505
ZGKL,2007-02-11 20:00,ZGKL 112000Z AUTO 00000KT 16/13 A2997 RMK T01600130 IEM_DS3505
ZGKL,2007-02-11 21:00,ZGKL 112100Z AUTO 32002KT 5SM 16/13 A2997 RMK SLP158 T01570126 57011 IEM_DS3505
ZGKL,2007-02-11 22:00,ZGKL 112200Z AUTO 00000KT 2 1/2SM 15/14 A2997 RMK T01500140 IEM_DS3505
ZGKL,2007-02-11 23:00,ZGKL 112300Z AUTO 00000KT 2 1/2SM 15/14 A2997 RMK T01500140 IEM_DS3505
ZGKL,2007-02-12 00:00,ZGKL 120000Z AUTO 34002KT 3SM 16/14 A3000 RMK SLP164 T01550137 52005 IEM_DS3505
ZGKL,2007-02-12 01:00,ZGKL 120100Z AUTO 00000KT 2SM 16/14 A3000 RMK T01600140 IEM_DS3505
ZGKL,2007-02-12 02:00,ZGKL 120200Z AUTO 00000KT 2SM 16/14 A3000 RMK T01600140 IEM_DS3505
ZGKL,2007-02-12 03:00,ZGKL 120300Z AUTO 11002KT 3SM 17/14 A3000 RMK SLP166 T01730140 52002 IEM_DS3505
ZGKL,2007-02-12 04:00,ZGKL 120400Z AUTO 19004KT 2SM 18/13 A2997 RMK T01800130 IEM_DS3505
ZGKL,2007-02-12 05:00,ZGKL 120500Z AUTO 26004KT 2SM 20/15 A2991 RMK T02000150 IEM_DS3505
ZGKL,2007-02-12 06:00,ZGKL 120600Z AUTO 20004KT 3SM 21/15 A2988 RMK SLP120 T02130147 57044 IEM_DS3505
ZGKL,2007-02-12 07:00,ZGKL 120700Z AUTO 21004KT 3SM 21/15 A2983 RMK T02100150 IEM_DS3505
ZGKL,2007-02-12 08:00,ZGKL 120800Z AUTO 19017KT 3SM 23/15 A2980 RMK T02300150 IEM_DS3505
ZGKL,2007-02-12 09:00,ZGKL 120900Z AUTO 20006KT 3SM 22/15 A2977 RMK SLP089 T02190153 57030 IEM_DS3505
ZGKL,2007-02-12 10:00,ZGKL 121000Z AUTO 18012KT 3SM 22/15 A2977 RMK T02200150 IEM_DS3505
ZGKL,2007-02-12 11:00,ZGKL 121100Z AUTO 16008KT 4SM 22/15 A2980 RMK T02200150 IEM_DS3505
ZGKL,2007-02-12 12:00,ZGKL 121200Z AUTO 18004KT 4SM 20/15 A2980 RMK SLP095 T02040154 52005 IEM_DS3505
ZGKL,2007-02-12 13:00,ZGKL 121300Z AUTO 17014KT 4SM 22/15 A2980 RMK T02200150 IEM_DS3505
ZGKL,2007-02-12 14:00,ZGKL 121400Z AUTO 18019KT 4SM 22/15 A2980 RMK T02200150 IEM_DS3505
ZGKL,2007-02-12 15:00,ZGKL 121500Z AUTO 18006KT 4SM 21/15 A2980 RMK SLP101 T02100153 52007 IEM_DS3505
ZGKL,2007-02-12 16:00,ZGKL 121600Z AUTO 17017KT 4SM 22/15 A2980 RMK T02200150 IEM_DS3505
ZGKL,2007-02-12 17:00,ZGKL 121700Z AUTO 17017KT 22/15 A2980 RMK T02200150 IEM_DS3505
ZGKL,2007-02-12 18:00,ZGKL 121800Z AUTO 20008KT 4SM 21/15 A2980 RMK SLP100 T02100153 54000 IEM_DS3505
ZGKL,2007-02-12 19:00,ZGKL 121900Z AUTO 17016KT 21/15 A2983 RMK T02100150 IEM_DS3505
ZGKL,2007-02-12 20:00,ZGKL 122000Z AUTO 17016KT 21/15 A2983 RMK T02100150 IEM_DS3505
ZGKL,2007-02-12 21:00,ZGKL 122100Z AUTO 18004KT 4SM 20/15 A2983 RMK SLP100 T02040147 54000 IEM_DS3505
ZGKL,2007-02-12 22:00,ZGKL 122200Z AUTO 18010KT 4SM 21/15 A2983 RMK T02100150 IEM_DS3505
ZGKL,2007-02-12 23:00,ZGKL 122300Z 18007MPS 7000 OVC043 21/16 Q1011 NOSIG
ZGKL,2007-02-13 00:00,ZGKL 130000Z 17007MPS 7000 BKN040 21/16 Q1011 NOSIG
ZGKL,2007-02-13 01:00,ZGKL 130100Z AUTO 17016KT 5SM 22/16 A2988 RMK T02200160 IEM_DS3505
ZGKL,2007-02-13 02:00,ZGKL 130200Z AUTO 18017KT 5SM 24/16 A2991 RMK T02400160 IEM_DS3505
ZGKL,2007-02-13 03:00,ZGKL 130300Z AUTO 18006KT 6SM 22/16 A2991 RMK SLP133 T02190160 52015 IEM_DS3505
ZGKL,2007-02-13 04:00,ZGKL 130400Z AUTO 17014KT 7SM 25/16 A2988 RMK T02500160 IEM_DS3505
ZGKL,2007-02-13 05:00,ZGKL 130500Z AUTO 20012KT 7SM 26/16 A2985 RMK T02600160 IEM_DS3505
ZGKL,2007-02-13 06:00,ZGKL 130600Z AUTO 20008KT 7SM 24/16 A2983 RMK SLP103 T02410161 57028 IEM_DS3505
ZGKL,2007-02-13 07:00,ZGKL 130700Z AUTO 19012KT 7SM 26/16 A2983 RMK T02600160 IEM_DS3505
ZGKL,2007-02-13 08:00,ZGKL 130800Z AUTO 18012KT 7SM 27/16 A2980 RMK T02700160 IEM_DS3505
ZGKL,2007-02-13 09:00,ZGKL 130900Z AUTO 18006KT 7SM 24/16 A2983 RMK SLP097 T02450165 57006 IEM_DS3505
ZGKL,2007-02-13 10:00,ZGKL 131000Z AUTO 18012KT 6SM 24/17 A2983 RMK T02400170 IEM_DS3505
ZGKL,2007-02-13 11:00,ZGKL 131100Z AUTO 13008KT 6SM 22/16 A2985 RMK T02200160 IEM_DS3505
ZGKL,2007-02-13 12:00,ZGKL 131200Z AUTO 20002KT 7SM 22/16 A2988 RMK SLP123 T02180163 52024 IEM_DS3505
ZGKL,2007-02-13 13:00,ZGKL 131300Z AUTO 34006KT 7SM 21/17 A2991 RMK T02100170 IEM_DS3505
ZGKL,2007-02-13 14:00,ZGKL 131400Z AUTO 7SM 20/17 A2994 RMK T02000170 IEM_DS3505
ZGKL,2007-02-13 15:00,ZGKL 131500Z AUTO 04004KT 7SM 21/16 A2994 RMK SLP146 T02070165 52023 IEM_DS3505
ZGKL,2007-02-13 16:00,ZGKL 131600Z AUTO 05016KT 7SM 19/13 A2994 RMK T01900130 IEM_DS3505
ZGKL,2007-02-13 17:00,ZGKL 131700Z AUTO 05016KT 7SM 16/12 A3000 RMK T01600120 IEM_DS3505
ZGKL,2007-02-13 18:00,ZGKL 131800Z AUTO 02010KT 5SM 13/11 A3003 RMK 60024 SLP177 T01260108 52029 IEM_DS3505
ZGKL,2007-02-13 19:00,ZGKL 131900Z AUTO 07006KT 13/11 A3006 RMK T01300110 IEM_DS3505
ZGKL,2007-02-13 20:00,ZGKL 132000Z AUTO 12/10 A3006 RMK T01200100 IEM_DS3505
ZGKL,2007-02-13 21:00,ZGKL 132100Z AUTO 02010KT 5SM 12/08 A3006 RMK 70071 SLP192 T01180085 52014 IEM_DS3505
ZGKL,2007-02-13 22:00,ZGKL 132200Z AUTO 7SM 12/11 A3009 RMK T01200110 IEM_DS3505
ZGKL,2007-02-13 23:00,ZGKL 132300Z AUTO 7SM 13/10 A3012 RMK T01300100 IEM_DS3505
ZGKL,2007-02-14 00:00,ZGKL 140000Z AUTO 36012KT 6SM 12/08 A3015 RMK 60047 70071 SLP219 T01230084 52026 IEM_DS3505
ZGKL,2007-02-14 01:00,ZGKL 140100Z AUTO 03012KT 7SM 12/09 A3018 RMK T01200090 IEM_DS3505
ZGKL,2007-02-14 02:00,ZGKL 140200Z AUTO 03008KT 7SM 12/09 A3021 RMK T01200090 IEM_DS3505
ZGKL,2007-02-14 03:00,ZGKL 140300Z AUTO 02006KT 6SM 12/08 A3021 RMK SLP237 T01240079 52017 IEM_DS3505
ZGKL,2007-02-14 04:00,ZGKL 140400Z AUTO 07006KT 7SM 13/08 A3018 RMK T01300080 IEM_DS3505
ZGKL,2007-02-14 05:00,ZGKL 140500Z AUTO 04006KT 7SM 14/08 A3015 RMK T01400080 IEM_DS3505
ZGKL,2007-02-14 06:00,ZGKL 140600Z AUTO 02006KT 6SM 14/07 A3012 RMK 60000 SLP215 T01370070 57024 IEM_DS3505
ZGKL,2007-02-14 07:00,ZGKL 140700Z AUTO 06006KT 5SM 14/08 A3012 RMK T01400080 IEM_DS3505
ZGKL,2007-02-14 08:00,ZGKL 140800Z AUTO 07006KT 5SM 15/08 A3009 RMK T01500080 IEM_DS3505
ZGKL,2007-02-14 09:00,ZGKL 140900Z AUTO 02006KT 7SM 15/08 A3009 RMK SLP206 T01500075 57008 IEM_DS3505
ZGKL,2007-02-14 10:00,ZGKL 141000Z AUTO 05008KT 5SM 15/08 A3012 RMK T01500080 IEM_DS3505
ZGKL,2007-02-14 11:00,ZGKL 141100Z AUTO 06008KT 4SM 14/07 A3012 RMK T01400070 IEM_DS3505
ZGKL,2007-02-14 12:00,ZGKL 141200Z AUTO 02004KT 6SM 14/07 A3012 RMK SLP211 T01380069 52004 IEM_DS3505
ZGKL,2007-02-14 13:00,ZGKL 141300Z AUTO 04006KT 4SM 14/07 A3015 RMK T01400070 IEM_DS3505
ZGKL,2007-02-14 14:00,ZGKL 141400Z AUTO 05004KT 3SM 14/07 A3015 RMK T01400070 IEM_DS3505
ZGKL,2007-02-14 15:00,ZGKL 141500Z AUTO 02006KT 6SM 14/08 A3015 RMK SLP221 T01350077 52010 IEM_DS3505
ZGKL,2007-02-14 16:00,ZGKL 141600Z AUTO 04006KT 3SM 13/08 A3012 RMK T01300080 IEM_DS3505
ZGKL,2007-02-14 17:00,ZGKL 141700Z AUTO 06004KT 3SM 13/08 A3012 RMK T01300080 IEM_DS3505
ZGKL,2007-02-14 18:00,ZGKL 141800Z AUTO 02004KT 6SM 13/08 A3012 RMK SLP208 T01320079 57012 IEM_DS3505
ZGKL,2007-02-14 19:00,ZGKL 141900Z AUTO 08006KT 13/08 A3006 RMK T01300080 IEM_DS3505
ZGKL,2007-02-14 20:00,ZGKL 142000Z AUTO 32002KT 13/09 A3006 RMK T01300090 IEM_DS3505
ZGKL,2007-02-14 21:00,ZGKL 142100Z AUTO 04006KT 6SM 13/08 A3003 RMK 70000 SLP185 T01260083 57023 IEM_DS3505
ZGKL,2007-02-14 22:00,ZGKL 142200Z AUTO 34004KT 1 1/2SM 12/10 A3003 RMK T01200100 IEM_DS3505
ZGKL,2007-02-14 23:00,ZGKL 142300Z AUTO 1 1/2SM 12/10 A3003 RMK T01200100 IEM_DS3505
ZGKL,2007-02-15 00:00,ZGKL 150000Z VRB02MPS 2100 BR FEW020 OVC033 12/10 Q1017 NOSIG
ZGKL,2007-02-15 01:00,ZGKL 150100Z AUTO 1 1/2SM 12/10 A3006 RMK T01200100 IEM_DS3505
ZGKL,2007-02-15 02:00,ZGKL 150200Z AUTO 03004KT 1 1/2SM 12/10 A3006 RMK T01200100 IEM_DS3505
ZGKL,2007-02-15 03:00,ZGKL 150300Z AUTO 00000KT 3SM 12/10 A3003 RMK SLP184 T01230095 57002 IEM_DS3505
ZGKL,2007-02-15 04:00,ZGKL 150400Z AUTO 04006KT 1 1/2SM 12/10 A3000 RMK T01200100 IEM_DS3505
ZGKL,2007-02-15 05:00,ZGKL 150500Z AUTO 1 1/4SM 12/10 A2994 RMK T01200100 IEM_DS3505
ZGKL,2007-02-15 06:00,ZGKL 150600Z AUTO 02002KT 2SM 12/10 A2991 RMK 60002 SLP133 T01200097 57050 IEM_DS3505
ZGKL,2007-02-15 07:00,ZGKL 150700Z AUTO 00000KT 1SM 11/10 A2988 RMK T01100100 IEM_DS3505
ZGKL,2007-02-15 08:00,ZGKL 150800Z AUTO 30004KT 1SM 12/11 A2988 RMK T01200110 IEM_DS3505
ZGKL,2007-02-15 09:00,ZGKL 150900Z AUTO 02002KT 1 1/4SM 11/11 A2988 RMK SLP129 T01120110 57005 IEM_DS3505
ZGKL,2007-02-15 10:00,ZGKL 151000Z AUTO 18002KT 1SM 12/11 A2988 RMK T01200110 IEM_DS3505
ZGKL,2007-02-15 11:00,ZGKL 151100Z AUTO 00000KT 1SM 12/11 A2988 RMK T01200110 IEM_DS3505
ZGKL,2007-02-15 12:00,ZGKL 151200Z AUTO 25002KT 1 1/4SM 12/12 A2988 RMK 60083 SLP133 T01180118 52004 IEM_DS3505
ZGKL,2007-02-15 13:00,ZGKL 151300Z AUTO 19002KT 1SM 12/11 A2988 RMK T01200110 IEM_DS3505
ZGKL,2007-02-15 14:00,ZGKL 151400Z AUTO 23002KT 1SM 12/11 A2988 RMK T01200110 IEM_DS3505
ZGKL,2007-02-15 15:00,ZGKL 151500Z AUTO 34002KT 1 1/4SM 12/12 A2985 RMK SLP127 T01200120 57002 IEM_DS3505
ZGKL,2007-02-15 16:00,ZGKL 151600Z AUTO 02002KT 1 1/4SM 12/12 A2985 RMK T01200120 IEM_DS3505
ZGKL,2007-02-15 17:00,ZGKL 151700Z AUTO 12/12 A2985 RMK T01200120 IEM_DS3505
ZGKL,2007-02-15 18:00,ZGKL 151800Z AUTO 00000KT 2SM 12/12 A2983 RMK 60024 SLP112 T01240120 57014 IEM_DS3505
ZGKL,2007-02-15 19:00,ZGKL 151900Z AUTO 12/12 A2983 RMK T01200120 IEM_DS3505
ZGKL,2007-02-15 20:00,ZGKL 152000Z AUTO 00000KT 13/12 A2980 RMK T01300120 IEM_DS3505
ZGKL,2007-02-15 21:00,ZGKL 152100Z AUTO 29004KT 2SM 13/12 A2980 RMK 70106 SLP093 T01290124 57019 IEM_DS3505
ZGKL,2007-02-15 22:00,ZGKL 152200Z AUTO 00000KT 1 1/2SM 13/12 A2980 RMK T01300120 IEM_DS3505
ZGKL,2007-02-15 23:00,ZGKL 152300Z AUTO 00000KT 1 1/2SM 13/12 A2980 RMK T01300120 IEM_DS3505
ZGKL,2007-02-16 00:00,ZGKL 160000Z 01001MPS 2000 -RA BR SCT010 OVC033 13/13 Q1010 NOSIG
ZGKL,2007-02-16 01:00,ZGKL 160100Z AUTO 2SM 14/13 A2985 RMK T01400130 IEM_DS3505
ZGKL,2007-02-16 02:00,ZGKL 160200Z AUTO 04004KT 2 1/2SM 15/14 A2985 RMK T01500140 IEM_DS3505
ZGKL,2007-02-16 03:00,ZGKL 160300Z AUTO 00000KT 2SM 15/14 A2985 RMK SLP118 T01500145 52014 IEM_DS3505
ZGKL,2007-02-16 04:00,ZGKL 160400Z AUTO 3SM 18/16 A2983 RMK T01800160 IEM_DS3505
ZGKL,2007-02-16 05:00,ZGKL 160500Z AUTO 3SM 19/16 A2980 RMK T01900160 IEM_DS3505
ZGKL,2007-02-16 06:00,ZGKL 160600Z AUTO 30004KT 8SM 21/18 A2974 RMK 60004 SLP081 T02120177 57034 IEM_DS3505
ZGKL,2007-02-16 07:00,ZGKL 160700Z AUTO 00000KT 4SM 22/18 A2971 RMK T02200180 IEM_DS3505
ZGKL,2007-02-16 08:00,ZGKL 160800Z AUTO 30004KT 6SM 22/19 A2968 RMK T02200190 IEM_DS3505
ZGKL,2007-02-16 09:00,ZGKL 160900Z AUTO 32004KT 8SM 22/19 A2968 RMK SLP058 T02190189 57022 IEM_DS3505
ZGKL,2007-02-16 10:00,ZGKL 161000Z AUTO 00000KT 6SM 22/19 A2968 RMK T02200190 IEM_DS3505
ZGKL,2007-02-16 11:00,ZGKL 161100Z AUTO 4SM 20/18 A2971 RMK T02000180 IEM_DS3505
ZGKL,2007-02-16 12:00,ZGKL 161200Z AUTO 27006KT 6SM 20/18 A2971 RMK SLP065 T01980176 52004 IEM_DS3505
ZGKL,2007-02-16 13:00,ZGKL 161300Z AUTO 3SM 19/18 A2974 RMK T01900180 IEM_DS3505
ZGKL,2007-02-16 14:00,ZGKL 161400Z AUTO 33008KT 3SM 19/18 A2977 RMK T01900180 IEM_DS3505
ZGKL,2007-02-16 15:00,ZGKL 161500Z AUTO 07004KT 5SM 18/16 A2980 RMK SLP097 T01810164 52031 IEM_DS3505
ZGKL,2007-02-16 16:00,ZGKL 161600Z AUTO 31004KT 7SM 17/15 A2980 RMK T01700150 IEM_DS3505
ZGKL,2007-02-16 17:00,ZGKL 161700Z AUTO 6SM 16/15 A2980 RMK T01600150 IEM_DS3505
ZGKL,2007-02-16 18:00,ZGKL 161800Z AUTO 02002KT 5SM 16/15 A2980 RMK 60024 SLP096 T01600147 54000 IEM_DS3505
ZGKL,2007-02-16 19:00,ZGKL 161900Z AUTO 09004KT 17/15 A2980 RMK T01700150 IEM_DS3505
ZGKL,2007-02-16 20:00,ZGKL 162000Z AUTO 16/15 A2983 RMK T01600150 IEM_DS3505
ZGKL,2007-02-16 21:00,ZGKL 162100Z AUTO 36006KT 5SM 14/12 A2983 RMK 70037 SLP108 T01400122 52012 IEM_DS3505
ZGKL,2007-02-16 22:00,ZGKL 162200Z AUTO 06008KT 7SM 15/12 A2985 RMK T01500120 IEM_DS3505
ZGKL,2007-02-16 23:00,ZGKL 162300Z AUTO 06008KT 7SM 14/11 A2985 RMK T01400110 IEM_DS3505
ZGKL,2007-02-17 00:00,ZGKL 170000Z AUTO 02010KT 10SM 12/10 A2991 RMK 60008 70037 SLP137 T01240096 52027 IEM_DS3505
ZGKL,2007-02-17 01:00,ZGKL 170100Z AUTO 04008KT 7SM 13/10 A2991 RMK T01300100 IEM_DS3505
ZGKL,2007-02-17 02:00,ZGKL 170200Z AUTO 06006KT 7SM 14/10 A2994 RMK T01400100 IEM_DS3505
ZGKL,2007-02-17 03:00,ZGKL 170300Z AUTO 02008KT 11SM 13/09 A2994 RMK SLP154 T01260091 52016 IEM_DS3505
ZGKL,2007-02-17 04:00,ZGKL 170400Z AUTO 06006KT 7SM 14/10 A2994 RMK T01400100 IEM_DS3505
ZGKL,2007-02-17 05:00,ZGKL 170500Z AUTO 03010KT 7SM 15/10 A2991 RMK T01500100 IEM_DS3505
ZGKL,2007-02-17 06:00,ZGKL 170600Z AUTO 02008KT 12SM 14/09 A2988 RMK SLP129 T01350094 57025 IEM_DS3505
ZGKL,2007-02-17 07:00,ZGKL 170700Z AUTO 08004KT 7SM 15/11 A2988 RMK T01500110 IEM_DS3505
ZGKL,2007-02-17 08:00,ZGKL 170800Z AUTO 06010KT 7SM 14/10 A2985 RMK T01400100 IEM_DS3505
ZGKL,2007-02-17 09:00,ZGKL 170900Z AUTO 04008KT 11SM 12/09 A2988 RMK SLP127 T01240087 57003 IEM_DS3505
ZGKL,2007-02-17 10:00,ZGKL 171000Z AUTO 06006KT 7SM 13/10 A2988 RMK T01300100 IEM_DS3505
ZGKL,2007-02-17 11:00,ZGKL 171100Z AUTO 06008KT 7SM 12/09 A2988 RMK T01200090 IEM_DS3505
ZGKL,2007-02-17 12:00,ZGKL 171200Z AUTO 02008KT 7SM 11/08 A2994 RMK 60000 SLP148 T01090080 52020 IEM_DS3505
ZGKL,2007-02-17 13:00,ZGKL 171300Z AUTO 04006KT 3SM 11/10 A2997 RMK T01100100 IEM_DS3505
ZGKL,2007-02-17 14:00,ZGKL 171400Z AUTO 05006KT 3SM 10/09 A2997 RMK T01000090 IEM_DS3505
ZGKL,2007-02-17 15:00,ZGKL 171500Z AUTO 04006KT 6SM 10/07 A3000 RMK SLP172 T01000074 52023 IEM_DS3505
ZGKL,2007-02-17 16:00,ZGKL 171600Z AUTO 4SM 10/08 A3000 RMK T01000080 IEM_DS3505
ZGKL,2007-02-17 17:00,ZGKL 171700Z AUTO 7SM 10/08 A3003 RMK T01000080 IEM_DS3505
ZGKL,2007-02-17 18:00,ZGKL 171800Z AUTO 02008KT 6SM 09/07 A3003 RMK 60039 SLP178 T00930067 52006 IEM_DS3505
ZGKL,2007-02-17 19:00,ZGKL 171900Z AUTO 7SM 10/08 A3000 RMK T01000080 IEM_DS3505
ZGKL,2007-02-17 20:00,ZGKL 172000Z AUTO 7SM 10/08 A3000 RMK T01000080 IEM_DS3505
ZGKL,2007-02-17 21:00,ZGKL 172100Z AUTO 02006KT 7SM 10/06 A3000 RMK 70038 SLP175 T00950062 57003 IEM_DS3505
ZGKL,2007-02-17 22:00,ZGKL 172200Z AUTO 7SM 10/07 A3000 RMK T01000070 IEM_DS3505
ZGKL,2007-02-17 23:00,ZGKL 172300Z 00000MPS 9999 FEW023 OVC036 10/07 Q1017 NOSIG
ZGKL,2007-02-18 00:00,ZGKL 180000Z 00000MPS 9999 FEW023 OVC040 10/08 Q1018 NOSIG
ZGKL,2007-02-18 01:00,ZGKL 180100Z AUTO 05004KT 7SM 10/07 A3009 RMK T01000070 IEM_DS3505
ZGKL,2007-02-18 02:00,ZGKL 180200Z AUTO 05004KT 7SM 11/08 A3009 RMK T01100080 IEM_DS3505
ZGKL,2007-02-18 03:00,ZGKL 180300Z AUTO 36010KT 9SM 12/07 A3009 RMK SLP200 T01200069 52007 IEM_DS3505
ZGKL,2007-02-18 04:00,ZGKL 180400Z AUTO 05008KT 7SM 14/08 A3006 RMK T01400080 IEM_DS3505
ZGKL,2007-02-18 05:00,ZGKL 180500Z AUTO 05008KT 7SM 15/08 A3003 RMK T01500080 IEM_DS3505
ZGKL,2007-02-18 06:00,ZGKL 180600Z AUTO 36008KT 11SM 15/08 A2997 RMK SLP164 T01510076 57034 IEM_DS3505
ZGKL,2007-02-18 07:00,ZGKL 180700Z AUTO 06010KT 6SM 16/08 A2994 RMK T01600080 IEM_DS3505
ZGKL,2007-02-18 08:00,ZGKL 180800Z AUTO 06010KT 7SM 17/08 A2994 RMK T01700080 IEM_DS3505
ZGKL,2007-02-18 09:00,ZGKL 180900Z AUTO 04006KT 10SM 16/08 A2994 RMK SLP149 T01560079 57015 IEM_DS3505
ZGKL,2007-02-18 10:00,ZGKL 181000Z AUTO 05010KT 7SM 15/08 A2994 RMK T01500080 IEM_DS3505
ZGKL,2007-02-18 11:00,ZGKL 181100Z AUTO 06014KT 7SM 13/07 A2994 RMK T01300070 IEM_DS3505
ZGKL,2007-02-18 12:00,ZGKL 181200Z AUTO 04006KT 9SM 12/07 A3000 RMK SLP170 T01190068 52020 IEM_DS3505
ZGKL,2007-02-18 13:00,ZGKL 181300Z AUTO 05010KT 7SM 12/07 A3003 RMK T01200070 IEM_DS3505
ZGKL,2007-02-18 14:00,ZGKL 181400Z AUTO 05006KT 7SM 11/07 A3003 RMK T01100070 IEM_DS3505
ZGKL,2007-02-18 15:00,ZGKL 181500Z AUTO 02006KT 8SM 11/07 A3006 RMK SLP189 T01110068 52019 IEM_DS3505
ZGKL,2007-02-18 16:00,ZGKL 181600Z AUTO 05006KT 7SM 11/07 A3006 RMK T01100070 IEM_DS3505
ZGKL,2007-02-18 17:00,ZGKL 181700Z AUTO 07008KT 7SM 11/07 A3003 RMK T01100070 IEM_DS3505
ZGKL,2007-02-18 18:00,ZGKL 181800Z AUTO 04006KT 8SM 11/07 A3003 RMK SLP182 T01100066 57006 IEM_DS3505
ZGKL,2007-02-18 19:00,ZGKL 181900Z AUTO 06008KT 7SM 11/07 A3003 RMK T01100070 IEM_DS3505
ZGKL,2007-02-18 20:00,ZGKL 182000Z AUTO 06006KT 7SM 11/07 A3003 RMK T01100070 IEM_DS3505
ZGKL,2007-02-18 21:00,ZGKL 182100Z AUTO 36004KT 7SM 11/07 A3003 RMK SLP177 T01060066 57005 IEM_DS3505
ZGKL,2007-02-18 22:00,ZGKL 182200Z AUTO 06004KT 7SM 11/07 A3003 RMK T01100070 IEM_DS3505
ZGKL,2007-02-18 23:00,ZGKL 182300Z 05002MPS 330V130 7000 OVC033 10/07 Q1017 NOSIG
ZGKL,2007-02-19 00:00,ZGKL 190000Z VRB02MPS 7000 OVC030 11/07 Q1018 NOSIG
ZGKL,2007-02-19 01:00,ZGKL 190100Z AUTO 3SM 11/07 A3006 RMK T01100070 IEM_DS3505
ZGKL,2007-02-19 02:00,ZGKL 190200Z AUTO 3SM 11/07 A3006 RMK T01100070 IEM_DS3505
ZGKL,2007-02-19 03:00,ZGKL 190300Z AUTO 02004KT 4SM 12/06 A3006 RMK SLP190 T01200065 57002 IEM_DS3505
ZGKL,2007-02-19 04:00,ZGKL 190400Z AUTO 4SM 12/07 A3003 RMK T01200070 IEM_DS3505
ZGKL,2007-02-19 05:00,ZGKL 190500Z AUTO 4SM 12/07 A3000 RMK T01200070 IEM_DS3505
ZGKL,2007-02-19 06:00,ZGKL 190600Z AUTO 22002KT 6SM 14/07 A2994 RMK SLP155 T01370072 57034 IEM_DS3505
ZGKL,2007-02-19 07:00,ZGKL 190700Z AUTO 00000KT 4SM 14/08 A2991 RMK T01400080 IEM_DS3505
ZGKL,2007-02-19 08:00,ZGKL 190800Z AUTO 06004KT 4SM 14/08 A2991 RMK T01400080 IEM_DS3505
ZGKL,2007-02-19 09:00,ZGKL 190900Z AUTO 18002KT 5SM 14/08 A2991 RMK SLP137 T01380076 57018 IEM_DS3505
ZGKL,2007-02-19 10:00,ZGKL 191000Z AUTO 4SM 13/08 A2991 RMK T01300080 IEM_DS3505
ZGKL,2007-02-19 11:00,ZGKL 191100Z AUTO 3SM 13/09 A2991 RMK T01300090 IEM_DS3505
ZGKL,2007-02-19 12:00,ZGKL 191200Z AUTO 02006KT 4SM 13/09 A2994 RMK 60000 SLP155 T01260089 52017 IEM_DS3505
ZGKL,2007-02-19 13:00,ZGKL 191300Z AUTO 3SM 12/10 A2997 RMK T01200100 IEM_DS3505
ZGKL,2007-02-19 14:00,ZGKL 191400Z AUTO 33004KT 2 1/2SM 12/10 A2997 RMK T01200100 IEM_DS3505
ZGKL,2007-02-19 15:00,ZGKL 191500Z AUTO 02004KT 4SM 13/09 A3000 RMK SLP166 T01280091 52012 IEM_DS3505
ZGKL,2007-02-19 16:00,ZGKL 191600Z AUTO 00000KT 2SM 12/10 A3000 RMK T01200100 IEM_DS3505
ZGKL,2007-02-19 18:00,ZGKL 191800Z AUTO 02006KT 4SM 12/08 A2997 RMK SLP166 T01230084 54000 IEM_DS3505
ZGKL,2007-02-19 19:00,ZGKL 191900Z AUTO 00000KT 12/11 A2997 RMK T01200110 IEM_DS3505
ZGKL,2007-02-19 20:00,ZGKL 192000Z AUTO 07004KT 12/10 A3000 RMK T01200100 IEM_DS3505
ZGKL,2007-02-19 21:00,ZGKL 192100Z AUTO 36004KT 4SM 11/09 A3000 RMK 70002 SLP173 T01130094 52007 IEM_DS3505
ZGKL,2007-02-19 22:00,ZGKL 192200Z AUTO 1 1/2SM 11/10 A3003 RMK T01100100 IEM_DS3505
ZGKL,2007-02-19 23:00,ZGKL 192300Z AUTO 03004KT 1 1/2SM 12/10 A3003 RMK T01200100 IEM_DS3505
ZGKL,2007-02-20 00:00,ZGKL 200000Z AUTO 36002KT 5SM 12/09 A3003 RMK 60004 70005 SLP186 T01160092 52012 IEM_DS3505
ZGKL,2007-02-20 01:00,ZGKL 200100Z AUTO 00000KT 1 1/2SM 12/10 A3006 RMK T01200100 IEM_DS3505
ZGKL,2007-02-20 02:00,ZGKL 200200Z AUTO 00000KT 2SM 13/10 A3006 RMK T01300100 IEM_DS3505
ZGKL,2007-02-20 03:00,ZGKL 200300Z AUTO 36004KT 6SM 14/10 A3006 RMK SLP193 T01360096 52008 IEM_DS3505
ZGKL,2007-02-20 04:00,ZGKL 200400Z AUTO 00000KT 3SM 14/11 A3006 RMK T01400110 IEM_DS3505
ZGKL,2007-02-20 05:00,ZGKL 200500Z AUTO 16004KT 4SM 15/11 A3000 RMK T01500110 IEM_DS3505
ZGKL,2007-02-20 06:00,ZGKL 200600Z AUTO 18004KT 5SM 16/10 A2997 RMK SLP161 T01580103 57031 IEM_DS3505
ZGKL,2007-02-20 07:00,ZGKL 200700Z AUTO 13004KT 4SM 16/11 A2997 RMK T01600110 IEM_DS3505
ZGKL,2007-02-20 08:00,ZGKL 200800Z AUTO 13004KT 4SM 16/11 A2994 RMK T01600110 IEM_DS3505
ZGKL,2007-02-20 09:00,ZGKL 200900Z AUTO 18002KT 5SM 16/11 A2994 RMK SLP151 T01600110 57010 IEM_DS3505
ZGKL,2007-02-20 10:00,ZGKL 201000Z AUTO 00000KT 4SM 16/11 A2994 RMK T01600110 IEM_DS3505
ZGKL,2007-02-20 11:00,ZGKL 201100Z AUTO 00000KT 4SM 16/12 A2997 RMK T01600120 IEM_DS3505
ZGKL,2007-02-20 12:00,ZGKL 201200Z AUTO 02004KT 5SM 15/10 A3000 RMK SLP166 T01480104 52014 IEM_DS3505
ZGKL,2007-02-20 13:00,ZGKL 201300Z AUTO 05008KT 4SM 16/11 A3003 RMK T01600110 IEM_DS3505
ZGKL,2007-02-20 14:00,ZGKL 201400Z AUTO 06010KT 5SM 15/11 A3003 RMK T01500110 IEM_DS3505
ZGKL,2007-02-20 15:00,ZGKL 201500Z AUTO 02004KT 5SM 14/10 A3006 RMK SLP188 T01450101 52022 IEM_DS3505
ZGKL,2007-02-20 16:00,ZGKL 201600Z AUTO 05006KT 15/11 A3003 RMK T01500110 IEM_DS3505
ZGKL,2007-02-20 17:00,ZGKL 201700Z AUTO 14/11 A3003 RMK T01400110 IEM_DS3505
ZGKL,2007-02-20 18:00,ZGKL 201800Z AUTO 02004KT 5SM 14/10 A3003 RMK SLP177 T01400100 57010 IEM_DS3505
ZGKL,2007-02-20 19:00,ZGKL 201900Z AUTO 04004KT 14/10 A3000 RMK T01400100 IEM_DS3505
ZGKL,2007-02-20 20:00,ZGKL 202000Z AUTO 14/10 A3000 RMK T01400100 IEM_DS3505
ZGKL,2007-02-20 21:00,ZGKL 202100Z AUTO 34002KT 4SM 14/10 A3000 RMK 70003 SLP167 T01360102 57010 IEM_DS3505
ZGKL,2007-02-20 22:00,ZGKL 202200Z AUTO 5SM 14/11 A3000 RMK T01400110 IEM_DS3505
ZGKL,2007-02-20 23:00,ZGKL 202300Z AUTO 36004KT 4SM 14/11 A3003 RMK T01400110 IEM_DS3505
ZGKL,2007-02-21 00:00,ZGKL 210000Z AUTO 07002KT 7SM 13/11 A3003 RMK SLP177 T01340106 52010 IEM_DS3505
ZGKL,2007-02-21 01:00,ZGKL 210100Z AUTO 4SM 14/11 A3003 RMK T01400110 IEM_DS3505
ZGKL,2007-02-21 02:00,ZGKL 210200Z AUTO 4SM 14/11 A3006 RMK T01400110 IEM_DS3505
ZGKL,2007-02-21 03:00,ZGKL 210300Z AUTO 04004KT 6SM 13/12 A3003 RMK SLP178 T01320118 52001 IEM_DS3505
ZGKL,2007-02-21 04:00,ZGKL 210400Z AUTO 00000KT 3SM 13/12 A3003 RMK T01300120 IEM_DS3505
ZGKL,2007-02-21 05:00,ZGKL 210500Z AUTO 00000KT 3SM 14/12 A3000 RMK T01400120 IEM_DS3505
ZGKL,2007-02-21 06:00,ZGKL 210600Z AUTO 02004KT 4SM 13/12 A2997 RMK 60031 SLP156 T01320124 57022 IEM_DS3505
ZGKL,2007-02-21 07:00,ZGKL 210700Z AUTO 3SM 14/13 A2994 RMK T01400130 IEM_DS3505
ZGKL,2007-02-21 08:00,ZGKL 210800Z AUTO 00000KT 3SM 14/13 A2991 RMK T01400130 IEM_DS3505
ZGKL,2007-02-21 09:00,ZGKL 210900Z AUTO 34002KT 6SM 14/13 A2991 RMK SLP142 T01410128 57014 IEM_DS3505
ZGKL,2007-02-21 10:00,ZGKL 211000Z AUTO 3SM 14/13 A2994 RMK T01400130 IEM_DS3505
ZGKL,2007-02-21 11:00,ZGKL 211100Z AUTO 00000KT 2 1/2SM 14/13 A2994 RMK T01400130 IEM_DS3505
ZGKL,2007-02-21 12:00,ZGKL 211200Z AUTO 36002KT 4SM 14/13 A2997 RMK 60004 SLP157 T01420129 52015 IEM_DS3505
ZGKL,2007-02-21 13:00,ZGKL 211300Z AUTO 2SM 14/13 A2997 RMK T01400130 IEM_DS3505
ZGKL,2007-02-21 14:00,ZGKL 211400Z AUTO 2SM 14/13 A3000 RMK T01400130 IEM_DS3505
ZGKL,2007-02-21 15:00,ZGKL 211500Z AUTO 04002KT 4SM 14/13 A3000 RMK SLP167 T01420129 52010 IEM_DS3505
ZGKL,2007-02-21 16:00,ZGKL 211600Z AUTO 27004KT 1SM 14/13 A3000 RMK T01400130 IEM_DS3505
ZGKL,2007-02-21 17:00,ZGKL 211700Z AUTO 00000KT 1 1/4SM 14/13 A3000 RMK T01400130 IEM_DS3505
ZGKL,2007-02-21 18:00,ZGKL 211800Z AUTO 36006KT 4SM 14/12 A2997 RMK 60043 SLP159 T01370124 57008 IEM_DS3505
ZGKL,2007-02-21 19:00,ZGKL 211900Z AUTO 1SM 14/13 A2997 RMK T01400130 IEM_DS3505
ZGKL,2007-02-21 20:00,ZGKL 212000Z AUTO 14/13 A2997 RMK T01400130 IEM_DS3505
ZGKL,2007-02-21 21:00,ZGKL 212100Z AUTO 02004KT 4SM 13/12 A2997 RMK 70100 SLP152 T01320121 57007 IEM_DS3505
ZGKL,2007-02-21 22:00,ZGKL 212200Z AUTO 10004KT 1 1/2SM 14/13 A2997 RMK T01400130 IEM_DS3505
ZGKL,2007-02-21 23:00,ZGKL 212300Z AUTO 11006KT 1SM 13/13 A2997 RMK T01300130 IEM_DS3505
ZGKL,2007-02-22 00:00,ZGKL 220000Z AUTO 32002KT 7SM 13/12 A3000 RMK 60039 70116 SLP178 T01320121 52025 IEM_DS3505
ZGKL,2007-02-22 01:00,ZGKL 220100Z AUTO 22004KT 2SM 13/13 A3006 RMK T01300130 IEM_DS3505
ZGKL,2007-02-22 02:00,ZGKL 220200Z AUTO 13004KT 2SM 14/13 A3006 RMK T01400130 IEM_DS3505
ZGKL,2007-02-22 03:00,ZGKL 220300Z 06002MPS 020V100 6000 FEW008 SCT023 OVC033 14/13 Q1018 NOSIG
ZGKL,2007-02-22 04:00,ZGKL 220400Z AUTO 5SM 15/13 A3006 RMK T01500130 IEM_DS3505
ZGKL,2007-02-22 05:00,ZGKL 220500Z AUTO 5SM 15/13 A3003 RMK T01500130 IEM_DS3505
ZGKL,2007-02-22 06:00,ZGKL 220600Z AUTO 36006KT 8SM 16/12 A2997 RMK 60012 SLP161 T01630123 57029 IEM_DS3505
ZGKL,2007-02-22 07:00,ZGKL 220700Z AUTO 7SM 18/13 A2994 RMK T01800130 IEM_DS3505
ZGKL,2007-02-22 08:00,ZGKL 220800Z AUTO 06008KT 7SM 17/13 A2994 RMK T01700130 IEM_DS3505
ZGKL,2007-02-22 09:00,ZGKL 220900Z AUTO 02006KT 8SM 17/12 A2994 RMK SLP154 T01680115 57007 IEM_DS3505
ZGKL,2007-02-22 10:00,ZGKL 221000Z AUTO 05010KT 5SM 16/11 A2997 RMK T01600110 IEM_DS3505
ZGKL,2007-02-22 11:00,ZGKL 221100Z AUTO 07010KT 5SM 15/11 A2997 RMK T01500110 IEM_DS3505
ZGKL,2007-02-22 12:00,ZGKL 221200Z AUTO 02004KT 7SM 14/11 A2997 RMK SLP163 T01440108 52008 IEM_DS3505
ZGKL,2007-02-22 13:00,ZGKL 221300Z AUTO 5SM 14/10 A3000 RMK T01400100 IEM_DS3505
ZGKL,2007-02-22 14:00,ZGKL 221400Z AUTO 34006KT 4SM 14/11 A3000 RMK T01400110 IEM_DS3505
ZGKL,2007-02-22 15:00,ZGKL 221500Z AUTO 02006KT 7SM 14/11 A3000 RMK SLP169 T01410107 52006 IEM_DS3505
ZGKL,2007-02-22 16:00,ZGKL 221600Z AUTO 00000KT 4SM 14/11 A3000 RMK T01400110 IEM_DS3505
ZGKL,2007-02-22 17:00,ZGKL 221700Z AUTO 00000KT 4SM 14/12 A3000 RMK T01400120 IEM_DS3505
ZGKL,2007-02-22 18:00,ZGKL 221800Z AUTO 02006KT 7SM 14/10 A3000 RMK SLP164 T01370105 57004 IEM_DS3505
ZGKL,2007-02-22 19:00,ZGKL 221900Z AUTO 00000KT 14/12 A2997 RMK T01400120 IEM_DS3505
ZGKL,2007-02-22 20:00,ZGKL 222000Z AUTO 00000KT 13/11 A2997 RMK T01300110 IEM_DS3505
ZGKL,2007-02-22 21:00,ZGKL 222100Z AUTO 36004KT 7SM 13/10 A2994 RMK 70028 SLP151 T01270102 57013 IEM_DS3505
ZGKL,2007-02-22 22:00,ZGKL 222200Z AUTO 00000KT 4SM 13/11 A2994 RMK T01300110 IEM_DS3505
ZGKL,2007-02-22 23:00,ZGKL 222300Z AUTO 4SM 13/11 A2997 RMK T01300110 IEM_DS3505
ZGKL,2007-02-23 00:00,ZGKL 230000Z AUTO 32002KT 6SM 13/10 A3000 RMK 70012 SLP167 T01260103 52014 IEM_DS3505
ZGKL,2007-02-23 01:00,ZGKL 230100Z AUTO 05006KT 4SM 14/11 A3000 RMK T01400110 IEM_DS3505
ZGKL,2007-02-23 02:00,ZGKL 230200Z AUTO 6SM 15/11 A3003 RMK T01500110 IEM_DS3505
ZGKL,2007-02-23 03:00,ZGKL 230300Z AUTO 09002KT 6SM 16/11 A3000 RMK SLP169 T01640111 52004 IEM_DS3505
ZGKL,2007-02-23 04:00,ZGKL 230400Z AUTO 32004KT 7SM 17/12 A2997 RMK T01700120 IEM_DS3505
ZGKL,2007-02-23 05:00,ZGKL 230500Z AUTO 7SM 17/12 A2994 RMK T01700120 IEM_DS3505
ZGKL,2007-02-23 06:00,ZGKL 230600Z AUTO 02004KT 9SM 19/11 A2991 RMK SLP129 T01920113 57039 IEM_DS3505
ZGKL,2007-02-23 07:00,ZGKL 230700Z AUTO 32006KT 7SM 18/12 A2985 RMK T01800120 IEM_DS3505
ZGKL,2007-02-23 08:00,ZGKL 230800Z AUTO 32006KT 7SM 19/13 A2985 RMK T01900130 IEM_DS3505
ZGKL,2007-02-23 09:00,ZGKL 230900Z AUTO 36002KT 11SM 20/13 A2985 RMK SLP108 T02010128 57020 IEM_DS3505
ZGKL,2007-02-23 10:00,ZGKL 231000Z AUTO 7SM 18/14 A2985 RMK T01800140 IEM_DS3505
ZGKL,2007-02-23 11:00,ZGKL 231100Z AUTO 7SM 18/14 A2985 RMK T01800140 IEM_DS3505
ZGKL,2007-02-23 12:00,ZGKL 231200Z AUTO 33002KT 9SM 18/14 A2985 RMK SLP122 T01750138 52012 IEM_DS3505
ZGKL,2007-02-23 13:00,ZGKL 231300Z AUTO 00000KT 7SM 17/14 A2988 RMK T01700140 IEM_DS3505
ZGKL,2007-02-23 14:00,ZGKL 231400Z AUTO 00000KT 7SM 16/14 A2988 RMK T01600140 IEM_DS3505
ZGKL,2007-02-23 15:00,ZGKL 231500Z AUTO 02002KT 8SM 17/14 A2991 RMK SLP136 T01690138 52015 IEM_DS3505
ZGKL,2007-02-23 16:00,ZGKL 231600Z AUTO 00000KT 7SM 17/15 A2991 RMK T01700150 IEM_DS3505
ZGKL,2007-02-23 17:00,ZGKL 231700Z AUTO 00000KT 7SM 16/15 A2991 RMK T01600150 IEM_DS3505
ZGKL,2007-02-23 18:00,ZGKL 231800Z AUTO 09002KT 7SM 16/14 A2988 RMK SLP128 T01650140 57007 IEM_DS3505
ZGKL,2007-02-23 19:00,ZGKL 231900Z AUTO 00000KT 7SM 16/15 A2988 RMK T01600150 IEM_DS3505
ZGKL,2007-02-23 20:00,ZGKL 232000Z AUTO 00000KT 7SM 16/15 A2985 RMK T01600150 IEM_DS3505
ZGKL,2007-02-23 21:00,ZGKL 232100Z AUTO 00000KT 7SM 16/14 A2985 RMK SLP118 T01610143 57009 IEM_DS3505
ZGKL,2007-02-23 22:00,ZGKL 232200Z AUTO 00000KT 7SM 16/15 A2988 RMK T01600150 IEM_DS3505
ZGKL,2007-02-23 23:00,ZGKL 232300Z AUTO 00000KT 7SM 16/15 A2988 RMK T01600150 IEM_DS3505
ZGKL,2007-02-24 00:00,ZGKL 240000Z AUTO 29002KT 3SM 16/15 A2988 RMK 60012 70010 SLP135 T01600150 52015 IEM_DS3505
ZGKL,2007-02-24 01:00,ZGKL 240100Z AUTO 00000KT 4SM 17/16 A2991 RMK T01700160 IEM_DS3505
ZGKL,2007-02-24 02:00,ZGKL 240200Z AUTO 00000KT 3SM 17/16 A2994 RMK T01700160 IEM_DS3505
ZGKL,2007-02-24 03:00,ZGKL 240300Z AUTO 36002KT 3SM 17/16 A2994 RMK SLP147 T01670157 52012 IEM_DS3505
ZGKL,2007-02-24 04:00,ZGKL 240400Z AUTO 1SM 17/17 A2991 RMK T01700170 IEM_DS3505
ZGKL,2007-02-24 05:00,ZGKL 240500Z AUTO 2SM 19/18 A2988 RMK T01900180 IEM_DS3505
ZGKL,2007-02-24 06:00,ZGKL 240600Z AUTO 36006KT 3SM 17/16 A2985 RMK 60031 SLP122 T01730160 57024 IEM_DS3505
ZGKL,2007-02-24 07:00,ZGKL 240700Z AUTO 09006KT 2 1/2SM 20/18 A2985 RMK T02000180 IEM_DS3505
ZGKL,2007-02-24 08:00,ZGKL 240800Z AUTO 06014KT 2SM 17/16 A2985 RMK T01700160 IEM_DS3505
ZGKL,2007-02-24 09:00,ZGKL 240900Z AUTO 02008KT 6SM 16/14 A2991 RMK SLP136 T01560138 52013 IEM_DS3505
ZGKL,2007-02-24 10:00,ZGKL 241000Z AUTO 08004KT 4SM 16/14 A2994 RMK T01600140 IEM_DS3505
ZGKL,2007-02-24 11:00,ZGKL 241100Z AUTO 5SM 15/14 A2997 RMK T01500140 IEM_DS3505
ZGKL,2007-02-24 12:00,ZGKL 241200Z AUTO 02008KT 10SM 15/12 A3000 RMK 60035 SLP167 T01530121 52030 IEM_DS3505
ZGKL,2007-02-24 13:00,ZGKL 241300Z AUTO 05004KT 5SM 15/13 A3003 RMK T01500130 IEM_DS3505
ZGKL,2007-02-24 14:00,ZGKL 241400Z AUTO 04006KT 5SM 15/12 A3003 RMK T01500120 IEM_DS3505
ZGKL,2007-02-24 15:00,ZGKL 241500Z AUTO 36010KT 10SM 14/11 A3006 RMK SLP187 T01450109 52020 IEM_DS3505
ZGKL,2007-02-24 16:00,ZGKL 241600Z AUTO 5SM 14/12 A3006 RMK T01400120 IEM_DS3505
ZGKL,2007-02-24 17:00,ZGKL 241700Z AUTO 5SM 13/11 A3006 RMK T01300110 IEM_DS3505
ZGKL,2007-02-24 18:00,ZGKL 241800Z AUTO 02010KT 10SM 14/10 A3003 RMK SLP184 T01380095 57003 IEM_DS3505
ZGKL,2007-02-24 19:00,ZGKL 241900Z AUTO 00000KT 12/11 A3003 RMK T01200110 IEM_DS3505
ZGKL,2007-02-24 20:00,ZGKL 242000Z AUTO 12/10 A3000 RMK T01200100 IEM_DS3505
ZGKL,2007-02-24 21:00,ZGKL 242100Z AUTO 02010KT 10SM 13/09 A3000 RMK 70078 SLP169 T01310092 57016 IEM_DS3505
ZGKL,2007-02-24 22:00,ZGKL 242200Z AUTO 00000KT 6SM 11/10 A3003 RMK T01100100 IEM_DS3505
ZGKL,2007-02-24 23:00,ZGKL 242300Z AUTO 14004KT 6SM 10/09 A3003 RMK T01000090 IEM_DS3505
ZGKL,2007-02-25 00:00,ZGKL 250000Z AUTO 34002KT 10SM 12/09 A3009 RMK 70068 SLP196 T01170091 52026 IEM_DS3505
ZGKL,2007-02-25 01:00,ZGKL 250100Z AUTO 03008KT 6SM 14/10 A3009 RMK T01400100 IEM_DS3505
ZGKL,2007-02-25 02:00,ZGKL 250200Z AUTO 04010KT 6SM 15/10 A3009 RMK T01500100 IEM_DS3505
ZGKL,2007-02-25 03:00,ZGKL 250300Z AUTO 04004KT 10SM 16/10 A3009 RMK SLP195 T01640098 54000 IEM_DS3505
ZGKL,2007-02-25 04:00,ZGKL 250400Z 04005MPS CAVOK 18/09 Q1018 NOSIG
ZGKL,2007-02-25 05:00,ZGKL 250500Z 05004MPS 010V080 CAVOK 20/08 Q1016 NOSIG
ZGKL,2007-02-25 06:00,ZGKL 250600Z AUTO 36008KT 11SM 20/07 A2997 RMK SLP151 T02040074 57042 IEM_DS3505
ZGKL,2007-02-25 07:00,ZGKL 250700Z AUTO 07008KT 6SM 21/07 A2994 RMK T02100070 IEM_DS3505
ZGKL,2007-02-25 08:00,ZGKL 250800Z AUTO 08008KT 6SM 22/07 A2991 RMK T02200070 IEM_DS3505
ZGKL,2007-02-25 09:00,ZGKL 250900Z AUTO 02004KT 12SM 21/07 A2991 RMK SLP133 T02110070 57017 IEM_DS3505
ZGKL,2007-02-25 10:00,ZGKL 251000Z AUTO 08004KT 6SM 20/08 A2991 RMK T02000080 IEM_DS3505
ZGKL,2007-02-25 11:00,ZGKL 251100Z AUTO 06008KT 6SM 19/08 A2991 RMK T01900080 IEM_DS3505
ZGKL,2007-02-25 12:00,ZGKL 251200Z AUTO 02004KT 10SM 18/08 A2994 RMK SLP149 T01800083 52014 IEM_DS3505
ZGKL,2007-02-25 13:00,ZGKL 251300Z AUTO 00000KT 6SM 17/09 A2997 RMK T01700090 IEM_DS3505
ZGKL,2007-02-25 14:00,ZGKL 251400Z AUTO 04004KT 6SM 18/08 A2997 RMK T01800080 IEM_DS3505
ZGKL,2007-02-25 15:00,ZGKL 251500Z AUTO 02004KT 9SM 17/08 A3000 RMK SLP164 T01670079 52016 IEM_DS3505
ZGKL,2007-02-25 16:00,ZGKL 251600Z AUTO 05006KT 6SM 17/08 A3000 RMK T01700080 IEM_DS3505
ZGKL,2007-02-25 17:00,ZGKL 251700Z AUTO 04006KT 6SM 17/08 A3000 RMK T01700080 IEM_DS3505
ZGKL,2007-02-25 18:00,ZGKL 251800Z AUTO 02004KT 9SM 16/08 A3000 RMK SLP161 T01600085 57002 IEM_DS3505
ZGKL,2007-02-25 19:00,ZGKL 251900Z AUTO 05006KT 16/08 A2997 RMK T01600080 IEM_DS3505
ZGKL,2007-02-25 20:00,ZGKL 252000Z AUTO 00000KT 15/10 A2997 RMK T01500100 IEM_DS3505
ZGKL,2007-02-25 21:00,ZGKL 252100Z AUTO 02004KT 9SM 15/08 A2997 RMK SLP153 T01540082 57008 IEM_DS3505
ZGKL,2007-02-25 22:00,ZGKL 252200Z AUTO 00000KT 7SM 15/10 A2997 RMK T01500100 IEM_DS3505
ZGKL,2007-02-25 23:00,ZGKL 252300Z AUTO 03004KT 7SM 15/09 A2997 RMK T01500090 IEM_DS3505
ZGKL,2007-02-26 00:00,ZGKL 260000Z AUTO 36002KT 9SM 15/09 A3000 RMK SLP169 T01520089 52015 IEM_DS3505
ZGKL,2007-02-26 01:00,ZGKL 260100Z AUTO 03004KT 7SM 15/09 A3003 RMK T01500090 IEM_DS3505
ZGKL,2007-02-26 02:00,ZGKL 260200Z AUTO 7SM 16/10 A3003 RMK T01600100 IEM_DS3505
ZGKL,2007-02-26 03:00,ZGKL 260300Z AUTO 02002KT 9SM 16/09 A3003 RMK SLP180 T01600090 52010 IEM_DS3505
ZGKL,2007-02-26 04:00,ZGKL 260400Z AUTO 7SM 16/10 A3003 RMK T01600100 IEM_DS3505
ZGKL,2007-02-26 05:00,ZGKL 260500Z AUTO 7SM 17/10 A3000 RMK T01700100 IEM_DS3505
ZGKL,2007-02-26 06:00,ZGKL 260600Z AUTO 04004KT 7SM 19/10 A2994 RMK SLP147 T01860097 57032 IEM_DS3505
ZGKL,2007-02-26 07:00,ZGKL 260700Z AUTO 7SM 18/10 A2994 RMK T01800100 IEM_DS3505
ZGKL,2007-02-26 08:00,ZGKL 260800Z AUTO 00000KT 7SM 18/11 A2994 RMK T01800110 IEM_DS3505
ZGKL,2007-02-26 09:00,ZGKL 260900Z AUTO 36002KT 6SM 18/11 A2991 RMK SLP140 T01770106 57007 IEM_DS3505
ZGKL,2007-02-26 10:00,ZGKL 261000Z AUTO 7SM 17/12 A2994 RMK T01700120 IEM_DS3505
ZGKL,2007-02-26 11:00,ZGKL 261100Z AUTO 7SM 17/13 A2994 RMK T01700130 IEM_DS3505
ZGKL,2007-02-26 12:00,ZGKL 261200Z AUTO 02004KT 6SM 17/11 A2994 RMK SLP144 T01660109 52004 IEM_DS3505
ZGKL,2007-02-26 13:00,ZGKL 261300Z AUTO 00000KT 5SM 16/13 A2997 RMK T01600130 IEM_DS3505
ZGKL,2007-02-26 14:00,ZGKL 261400Z AUTO 5SM 16/14 A2997 RMK T01600140 IEM_DS3505
ZGKL,2007-02-26 15:00,ZGKL 261500Z AUTO 02006KT 6SM 16/11 A2997 RMK SLP157 T01560112 52012 IEM_DS3505
ZGKL,2007-02-26 16:00,ZGKL 261600Z AUTO 02004KT 3SM 16/13 A2997 RMK T01600130 IEM_DS3505
ZGKL,2007-02-26 17:00,ZGKL 261700Z AUTO 16/14 A2997 RMK T01600140 IEM_DS3505
ZGKL,2007-02-26 18:00,ZGKL 261800Z AUTO 02006KT 6SM 15/12 A2994 RMK 60001 SLP151 T01490117 57005 IEM_DS3505
ZGKL,2007-02-26 19:00,ZGKL 261900Z AUTO 00000KT 15/14 A2991 RMK T01500140 IEM_DS3505
ZGKL,2007-02-26 20:00,ZGKL 262000Z AUTO 05006KT 14/13 A2991 RMK T01400130 IEM_DS3505
ZGKL,2007-02-26 21:00,ZGKL 262100Z AUTO 34004KT 5SM 14/12 A2991 RMK 70003 SLP136 T01380120 57015 IEM_DS3505
ZGKL,2007-02-26 22:00,ZGKL 262200Z AUTO 00000KT 1SM 14/13 A2991 RMK T01400130 IEM_DS3505
ZGKL,2007-02-26 23:00,ZGKL 262300Z AUTO 00000KT 1SM 14/13 A2994 RMK T01400130 IEM_DS3505
ZGKL,2007-02-27 00:00,ZGKL 270000Z AUTO 36002KT 3SM 14/13 A2997 RMK 60002 70003 SLP160 T01400126 52023 IEM_DS3505
ZGKL,2007-02-27 01:00,ZGKL 270100Z AUTO 00000KT 1SM 15/14 A3000 RMK T01500140 IEM_DS3505
ZGKL,2007-02-27 02:00,ZGKL 270200Z AUTO 00000KT 1SM 15/14 A3000 RMK T01500140 IEM_DS3505
ZGKL,2007-02-27 03:00,ZGKL 270300Z AUTO 36002KT 2 1/2SM 15/13 A3000 RMK SLP169 T01530130 52009 IEM_DS3505
ZGKL,2007-02-27 04:00,ZGKL 270400Z VRB01MPS 0700 R01/1000 -RA FG SCT006 OVC030 15/14 Q1016 NOSIG
ZGKL,2007-02-27 05:00,ZGKL 270500Z 00000MPS 1600 -RA BR SCT006 OVC030 15/14 Q1015 NOSIG
ZGKL,2007-02-27 06:00,ZGKL 270600Z AUTO 34002KT 2 1/2SM 15/14 A2994 RMK 60002 SLP144 T01510140 57025 IEM_DS3505
ZGKL,2007-02-27 07:00,ZGKL 270700Z AUTO 00000KT 1SM 15/15 A2991 RMK T01500150 IEM_DS3505
ZGKL,2007-02-27 08:00,ZGKL 270800Z AUTO 00000KT 1SM 15/15 A2988 RMK T01500150 IEM_DS3505
ZGKL,2007-02-27 09:00,ZGKL 270900Z AUTO 36004KT 2 1/2SM 16/14 A2988 RMK SLP130 T01570137 57014 IEM_DS3505
ZGKL,2007-02-27 10:00,ZGKL 271000Z AUTO 00000KT 1SM 16/15 A2988 RMK T01600150 IEM_DS3505
ZGKL,2007-02-27 11:00,ZGKL 271100Z AUTO 1/2SM 16/15 A2988 RMK T01600150 IEM_DS3505
ZGKL,2007-02-27 12:00,ZGKL 271200Z AUTO 36002KT 2 1/2SM 15/14 A2991 RMK 60000 SLP137 T01530135 52007 IEM_DS3505
ZGKL,2007-02-27 13:00,ZGKL 271300Z AUTO 00000KT 1SM 16/15 A2991 RMK T01600150 IEM_DS3505
ZGKL,2007-02-27 14:00,ZGKL 271400Z AUTO 1SM 16/15 A2994 RMK T01600150 IEM_DS3505
ZGKL,2007-02-27 15:00,ZGKL 271500Z AUTO 04002KT 2 1/2SM 15/13 A2994 RMK SLP147 T01540134 52010 IEM_DS3505
ZGKL,2007-02-27 16:00,ZGKL 271600Z AUTO 00000KT A2991 RMK IEM_DS3505
ZGKL,2007-02-27 17:00,ZGKL 271700Z AUTO 00000KT 16/15 A2991 RMK T01600150 IEM_DS3505
ZGKL,2007-02-27 18:00,ZGKL 271800Z AUTO 02002KT 2SM 15/14 A2991 RMK SLP138 T01530137 57009 IEM_DS3505
ZGKL,2007-02-27 19:00,ZGKL 271900Z AUTO 16/16 A2988 RMK T01600160 IEM_DS3505
ZGKL,2007-02-27 20:00,ZGKL 272000Z AUTO 16/16 A2985 RMK T01600160 IEM_DS3505
ZGKL,2007-02-27 21:00,ZGKL 272100Z AUTO 04004KT 1 1/4SM A2988 RMK 70004 SLP119 57018 IEM_DS3505
ZGKL,2007-02-27 22:00,ZGKL 272200Z AUTO 1/2SM 16/16 A2988 RMK T01600160 IEM_DS3505
ZGKL,2007-02-27 23:00,ZGKL 272300Z AUTO 30002KT 1SM 16/16 A2991 RMK T01600160 IEM_DS3505
ZGKL,2007-02-28 00:00,ZGKL 280000Z AUTO 02002KT 1 1/4SM 15/14 A2991 RMK 60004 70006 SLP141 T01480142 52021 IEM_DS3505
ZGKL,2007-02-28 01:00,ZGKL 280100Z AUTO 1SM 17/16 A2994 RMK T01700160 IEM_DS3505
ZGKL,2007-02-28 02:00,ZGKL 280200Z AUTO 1/2SM 17/16 A2994 RMK T01700160 IEM_DS3505
ZGKL,2007-02-28 03:00,ZGKL 280300Z AUTO 36002KT 1 1/4SM 15/14 A2994 RMK SLP149 T01510143 52008 IEM_DS3505
ZGKL,2007-02-28 04:00,ZGKL 280400Z AUTO 08004KT 1SM 17/16 A2994 RMK T01700160 IEM_DS3505
ZGKL,2007-02-28 05:00,ZGKL 280500Z VRB01MPS 0800 R01/1300 -RA FG FEW002 SCT007 FEW020CB BKN020 17/16 Q1013 NOSIG
ZGKL,2007-02-28 06:00,ZGKL 280600Z AUTO 34002KT 1 1/4SM 15/15 A2988 RMK 60008 SLP131 T01540149 57018 IEM_DS3505
ZGKL,2007-02-28 07:00,ZGKL 280700Z AUTO 00000KT 1SM 17/16 A2988 RMK T01700160 IEM_DS3505
ZGKL,2007-02-28 08:00,ZGKL 280800Z AUTO 1SM 17/16 A2985 RMK T01700160 IEM_DS3505
ZGKL,2007-02-28 09:00,ZGKL 280900Z AUTO 02002KT 1SM 16/16 A2985 RMK SLP122 T01590156 57008 IEM_DS3505
ZGKL,2007-02-28 10:00,ZGKL 281000Z AUTO 1SM 17/16 A2985 RMK T01700160 IEM_DS3505
ZGKL,2007-02-28 11:00,ZGKL 281100Z AUTO 32004KT 1SM 17/16 A2988 RMK T01700160 IEM_DS3505
ZGKL,2007-02-28 16:00,ZGKL 281600Z AUTO 00000KT 2SM 17/16 A2994 RMK T01700160 IEM_DS3505
ZGKL,2007-02-28 17:00,ZGKL 281700Z AUTO 00000KT 17/16 A2991 RMK T01700160 IEM_DS3505
ZGKL,2007-02-28 18:00,ZGKL 281800Z AUTO 34002KT 1 1/4SM 16/16 A2991 RMK 60002 SLP138 T01580158 57004 IEM_DS3505
ZGKL,2007-02-28 19:00,ZGKL 281900Z AUTO 00000KT 17/16 A2991 RMK T01700160 IEM_DS3505
ZGKL,2007-02-28 20:00,ZGKL 282000Z AUTO 00000KT 17/16 A2988 RMK T01700160 IEM_DS3505
ZGKL,2007-02-28 21:00,ZGKL 282100Z AUTO 00000KT 1 1/4SM 16/16 A2988 RMK 70034 SLP130 T01590159 57007 IEM_DS3505
ZGKL,2007-02-28 22:00,ZGKL 282200Z AUTO 00000KT 1SM 16/16 A2991 RMK T01600160 IEM_DS3505
ZGKL,2007-02-28 23:00,ZGKL 282300Z AUTO 00000KT 1SM 16/16 A2991 RMK T01600160 IEM_DS3505
ZGKL,2007-03-01 00:00,ZGKL 010000Z AUTO 34002KT 1 1/4SM 16/16 A2994 RMK 60002 70031 SLP148 T01600160 52018 IEM_DS3505
ZGKL,2007-03-01 01:00,ZGKL 010100Z AUTO 00000KT 1 1/4SM 17/17 A2997 RMK T01700170 IEM_DS3505
ZGKL,2007-03-01 02:00,ZGKL 010200Z AUTO 1 1/2SM 18/17 A2997 RMK T01800170 IEM_DS3505
ZGKL,2007-03-01 03:00,ZGKL 010300Z AUTO 00000KT 2SM 18/17 A2997 RMK SLP160 T01780170 52012 IEM_DS3505
ZGKL,2007-03-01 04:00,ZGKL 010400Z AUTO 2 1/2SM 20/17 A2997 RMK T02000170 IEM_DS3505
ZGKL,2007-03-01 05:00,ZGKL 010500Z AUTO 00000KT 2 1/2SM 20/17 A2994 RMK T02000170 IEM_DS3505
ZGKL,2007-03-01 06:00,ZGKL 010600Z AUTO 20002KT 4SM 22/18 A2991 RMK 60000 SLP131 T02210179 57027 IEM_DS3505
ZGKL,2007-03-01 07:00,ZGKL 010700Z AUTO 32004KT 4SM 21/18 A2988 RMK T02100180 IEM_DS3505
ZGKL,2007-03-01 08:00,ZGKL 010800Z AUTO 30004KT 4SM 21/18 A2985 RMK T02100180 IEM_DS3505
ZGKL,2007-03-01 09:00,ZGKL 010900Z AUTO 11002KT 2 1/2SM 21/19 A2985 RMK SLP116 T02060191 57015 IEM_DS3505
ZGKL,2007-03-01 10:00,ZGKL 011000Z AUTO 19002KT 2 1/2SM 20/19 A2988 RMK T02000190 IEM_DS3505
ZGKL,2007-03-01 11:00,ZGKL 011100Z AUTO 00000KT 2SM 20/19 A2985 RMK T02000190 IEM_DS3505
ZGKL,2007-03-01 12:00,ZGKL 011200Z AUTO 02002KT 4SM 20/20 A2988 RMK 60039 SLP125 T01950195 52008 IEM_DS3505
ZGKL,2007-03-01 13:00,ZGKL 011300Z AUTO 00000KT 4SM 20/18 A2988 RMK T02000180 IEM_DS3505
ZGKL,2007-03-01 14:00,ZGKL 011400Z AUTO 00000KT 7SM 20/18 A2991 RMK T02000180 IEM_DS3505
ZGKL,2007-03-01 15:00,ZGKL 011500Z AUTO 16002KT 7SM 20/18 A2991 RMK SLP133 T01950175 52009 IEM_DS3505
ZGKL,2007-03-01 17:00,ZGKL 011700Z AUTO 00000KT 19/17 A2991 RMK T01900170 IEM_DS3505
ZGKL,2007-03-01 18:00,ZGKL 011800Z AUTO 00000KT 6SM 18/18 A2988 RMK SLP128 T01830178 57004 IEM_DS3505
ZGKL,2007-03-01 19:00,ZGKL 011900Z AUTO 00000KT 18/17 A2988 RMK T01800170 IEM_DS3505
ZGKL,2007-03-01 20:00,ZGKL 012000Z AUTO 02002KT 18/17 A2988 RMK T01800170 IEM_DS3505
ZGKL,2007-03-01 21:00,ZGKL 012100Z AUTO 29002KT 6SM 17/17 A2985 RMK 70038 SLP121 T01740174 57008 IEM_DS3505
ZGKL,2007-03-02 00:00,ZGKL 020000Z AUTO 00000KT 2SM 18/18 A2991 RMK 70037 SLP137 T01750175 52015 IEM_DS3505
ZGKL,2007-03-02 01:00,ZGKL 020100Z AUTO 00000KT 4SM 19/18 A2991 RMK T01900180 IEM_DS3505
ZGKL,2007-03-02 02:00,ZGKL 020200Z AUTO 00000KT 4SM 20/18 A2994 RMK T02000180 IEM_DS3505
ZGKL,2007-03-02 03:00,ZGKL 020300Z AUTO 02004KT 6SM 21/18 RMK SLP137 T02100178 52002 IEM_DS3505
ZGKL,2007-03-02 04:00,ZGKL 020400Z AUTO 5SM 22/18 A2991 RMK T02200180 IEM_DS3505
ZGKL,2007-03-02 05:00,ZGKL 020500Z AUTO 6SM 23/18 A2985 RMK T02300180 IEM_DS3505
ZGKL,2007-03-02 06:00,ZGKL 020600Z AUTO 18006KT 9SM 24/18 A2983 RMK SLP104 T02410178 57032 IEM_DS3505
ZGKL,2007-03-02 07:00,ZGKL 020700Z AUTO 14008KT 7SM 25/18 A2980 RMK T02500180 IEM_DS3505
ZGKL,2007-03-02 08:00,ZGKL 020800Z AUTO 14006KT 7SM 24/18 A2980 RMK T02400180 IEM_DS3505
ZGKL,2007-03-02 09:00,ZGKL 020900Z AUTO 18004KT 9SM 24/17 A2977 RMK SLP085 T02440174 57019 IEM_DS3505
ZGKL,2007-03-02 10:00,ZGKL 021000Z AUTO 00000KT 7SM 23/19 A2980 RMK T02300190 IEM_DS3505
ZGKL,2007-03-02 11:00,ZGKL 021100Z AUTO 7SM 22/18 A2980 RMK T02200180 IEM_DS3505
ZGKL,2007-03-02 12:00,ZGKL 021200Z AUTO 18006KT 9SM 22/17 A2980 RMK 60000 SLP096 T02240171 52010 IEM_DS3505
ZGKL,2007-03-02 13:00,ZGKL 021300Z AUTO 5SM 21/18 A2983 RMK T02100180 IEM_DS3505
ZGKL,2007-03-02 14:00,ZGKL 021400Z AUTO 19004KT 5SM 21/18 A2983 RMK T02100180 IEM_DS3505
ZGKL,2007-03-02 15:00,ZGKL 021500Z AUTO 18006KT 9SM 22/18 A2985 RMK SLP106 T02230177 52011 IEM_DS3505
ZGKL,2007-03-02 16:00,ZGKL 021600Z AUTO 14006KT 21/18 A2985 RMK T02100180 IEM_DS3505
ZGKL,2007-03-02 17:00,ZGKL 021700Z AUTO 13008KT 22/18 A2983 RMK T02200180 IEM_DS3505
ZGKL,2007-03-02 18:00,ZGKL 021800Z AUTO 22006KT 9SM 22/18 A2983 RMK 60000 SLP106 T02230177 52001 IEM_DS3505
ZGKL,2007-03-02 19:00,ZGKL 021900Z AUTO 00000KT 21/18 A2983 RMK T02100180 IEM_DS3505
ZGKL,2007-03-02 20:00,ZGKL 022000Z AUTO 00000KT 20/18 A2983 RMK T02000180 IEM_DS3505
ZGKL,2007-03-02 21:00,ZGKL 022100Z AUTO 18004KT 9SM 22/17 A2983 RMK 70000 SLP098 T02160174 57008 IEM_DS3505
ZGKL,2007-03-02 22:00,ZGKL 022200Z AUTO 00000KT 4SM 20/18 A2983 RMK T02000180 IEM_DS3505
ZGKL,2007-03-02 23:00,ZGKL 022300Z AUTO 00000KT 4SM 20/18 A2983 RMK T02000180 IEM_DS3505
ZGKL,2007-03-03 00:00,ZGKL 030000Z AUTO 18006KT 9SM 22/17 A2985 RMK 60000 70000 SLP110 T02170173 52011 IEM_DS3505
ZGKL,2007-03-03 01:00,ZGKL 030100Z AUTO 00000KT 4SM 21/18 A2985 RMK T02100180 IEM_DS3505
ZGKL,2007-03-03 02:00,ZGKL 030200Z AUTO 00000KT 4SM 21/19 A2985 RMK T02100190 IEM_DS3505
ZGKL,2007-03-03 03:00,ZGKL 030300Z AUTO 22006KT 9SM 23/18 A2985 RMK SLP111 T02330177 52002 IEM_DS3505
ZGKL,2007-03-03 04:00,ZGKL 030400Z AUTO 16006KT 4SM 23/19 A2983 RMK T02300190 IEM_DS3505
ZGKL,2007-03-03 05:00,ZGKL 030500Z AUTO 00000KT 4SM 24/20 A2980 RMK T02400200 IEM_DS3505
ZGKL,2007-03-03 06:00,ZGKL 030600Z AUTO 18006KT 9SM 24/18 A2974 RMK 60000 SLP076 T02430183 57034 IEM_DS3505
ZGKL,2007-03-03 07:00,ZGKL 030700Z AUTO 18017KT 5SM 25/19 A2971 RMK T02500190 IEM_DS3505
ZGKL,2007-03-03 08:00,ZGKL 030800Z AUTO 17019KT 5SM 25/19 A2971 RMK T02500190 IEM_DS3505
ZGKL,2007-03-03 09:00,ZGKL 030900Z AUTO 27002KT 9SM 25/19 A2971 RMK SLP058 T02480187 57018 IEM_DS3505
ZGKL,2007-03-03 10:00,ZGKL 031000Z AUTO 18014KT 5SM 23/19 A2971 RMK T02300190 IEM_DS3505
ZGKL,2007-03-03 11:00,ZGKL 031100Z AUTO 19010KT 4SM 22/19 A2971 RMK T02200190 IEM_DS3505
ZGKL,2007-03-03 12:00,ZGKL 031200Z AUTO 20006KT 9SM 24/18 A2971 RMK SLP070 T02380182 52011 IEM_DS3505
ZGKL,2007-03-03 13:00,ZGKL 031300Z AUTO 17010KT 4SM 22/19 A2974 RMK T02200190 IEM_DS3505
ZGKL,2007-03-03 14:00,ZGKL 031400Z AUTO 14010KT 4SM 22/19 A2977 RMK T02200190 IEM_DS3505
ZGKL,2007-03-03 15:00,ZGKL 031500Z AUTO 18006KT 9SM 23/18 A2977 RMK SLP081 T02300183 52012 IEM_DS3505
ZGKL,2007-03-03 16:00,ZGKL 031600Z AUTO 16014KT 5SM 23/19 A2977 RMK T02300190 IEM_DS3505
ZGKL,2007-03-03 17:00,ZGKL 031700Z AUTO 17014KT 5SM 23/19 A2977 RMK T02300190 IEM_DS3505
ZGKL,2007-03-03 18:00,ZGKL 031800Z AUTO 18006KT 9SM 22/19 A2974 RMK SLP075 T02240186 57006 IEM_DS3505
ZGKL,2007-03-03 19:00,ZGKL 031900Z AUTO 18014KT 5SM 23/19 A2974 RMK T02300190 IEM_DS3505
ZGKL,2007-03-03 20:00,ZGKL 032000Z AUTO 18014KT 4SM 22/19 A2974 RMK T02200190 IEM_DS3505
ZGKL,2007-03-03 21:00,ZGKL 032100Z AUTO 20004KT 9SM 22/19 A2974 RMK 70007 SLP073 T02170187 57002 IEM_DS3505
ZGKL,2007-03-03 22:00,ZGKL 032200Z AUTO 34012KT 3SM 19/18 A2980 RMK T01900180 IEM_DS3505
ZGKL,2007-03-03 23:00,ZGKL 032300Z AUTO 18004KT 7SM 19/17 A2983 RMK T01900170 IEM_DS3505
ZGKL,2007-03-04 00:00,ZGKL 040000Z AUTO 36008KT 11SM 17/14 A2988 RMK 60071 70070 SLP129 T01690142 52053 IEM_DS3505
ZGKL,2007-03-04 01:00,ZGKL 040100Z AUTO 06016KT 7SM 17/13 A2991 RMK T01700130 IEM_DS3505
ZGKL,2007-03-04 02:00,ZGKL 040200Z AUTO 05014KT 7SM 16/12 A2994 RMK T01600120 IEM_DS3505
ZGKL,2007-03-04 03:00,ZGKL 040300Z AUTO 36012KT 12SM 15/10 A2997 RMK SLP153 T01470103 52022 IEM_DS3505
ZGKL,2007-03-04 04:00,ZGKL 040400Z AUTO 05010KT 7SM 16/12 A2994 RMK T01600120 IEM_DS3505
ZGKL,2007-03-04 05:00,ZGKL 040500Z AUTO 07008KT 7SM 16/11 A2994 RMK T01600110 IEM_DS3505
ZGKL,2007-03-04 06:00,ZGKL 040600Z AUTO 36012KT 16SM 16/10 A2994 RMK SLP142 T01570096 57010 IEM_DS3505
ZGKL,2007-03-04 07:00,ZGKL 040700Z AUTO 08010KT 7SM 17/11 A2991 RMK T01700110 IEM_DS3505
ZGKL,2007-03-04 08:00,ZGKL 040800Z AUTO 08010KT 7SM 16/11 A2991 RMK T01600110 IEM_DS3505
ZGKL,2007-03-04 09:00,ZGKL 040900Z AUTO 02010KT 16SM 15/07 A2991 RMK SLP140 T01540069 57003 IEM_DS3505
ZGKL,2007-03-04 10:00,ZGKL 041000Z AUTO 04008KT 7SM 16/10 A2994 RMK T01600100 IEM_DS3505
ZGKL,2007-03-04 11:00,ZGKL 041100Z AUTO 05006KT 7SM 15/10 A2994 RMK T01500100 IEM_DS3505
ZGKL,2007-03-04 12:00,ZGKL 041200Z AUTO 02008KT 12SM 14/07 A2997 RMK SLP159 T01440070 52017 IEM_DS3505
ZGKL,2007-03-04 13:00,ZGKL 041300Z AUTO 05008KT 7SM 14/08 A3000 RMK T01400080 IEM_DS3505
ZGKL,2007-03-04 14:00,ZGKL 041400Z AUTO 05006KT 7SM 14/07 A3003 RMK T01400070 IEM_DS3505
ZGKL,2007-03-04 15:00,ZGKL 041500Z AUTO 02004KT 11SM 13/07 A3006 RMK SLP190 T01340067 52029 IEM_DS3505
ZGKL,2007-03-04 16:00,ZGKL 041600Z AUTO 04006KT 7SM 14/07 A3006 RMK T01400070 IEM_DS3505
ZGKL,2007-03-04 17:00,ZGKL 041700Z AUTO 06004KT 14/07 A3009 RMK T01400070 IEM_DS3505
ZGKL,2007-03-04 18:00,ZGKL 041800Z AUTO 02010KT 14SM 14/05 A3009 RMK SLP194 T01430054 52005 IEM_DS3505
ZGKL,2007-03-04 19:00,ZGKL 041900Z AUTO 04006KT 14/07 A3009 RMK T01400070 IEM_DS3505
ZGKL,2007-03-04 20:00,ZGKL 042000Z AUTO 05010KT 14/04 A3006 RMK T01400040 IEM_DS3505
ZGKL,2007-03-04 21:00,ZGKL 042100Z AUTO 02008KT 12SM 14/04 A3006 RMK 70063 SLP185 T01380036 57009 IEM_DS3505
ZGKL,2007-03-04 22:00,ZGKL 042200Z AUTO 04017KT 6SM 14/04 A3006 RMK T01400040 IEM_DS3505
ZGKL,2007-03-04 23:00,ZGKL 042300Z AUTO 04016KT 6SM 14/03 A3009 RMK T01400030 IEM_DS3505
ZGKL,2007-03-05 00:00,ZGKL 050000Z AUTO 04010KT 11SM 13/03 A3012 RMK 60000 70000 SLP209 T01330034 52023 IEM_DS3505
ZGKL,2007-03-05 01:00,ZGKL 050100Z AUTO 02010KT 7SM 12/07 A3015 RMK T01200070 IEM_DS3505
ZGKL,2007-03-05 02:00,ZGKL 050200Z AUTO 7SM 11/07 A3018 RMK T01100070 IEM_DS3505
ZGKL,2007-03-05 03:00,ZGKL 050300Z AUTO 02008KT 12SM 12/04 A3018 RMK SLP231 T01200038 52021 IEM_DS3505
ZGKL,2007-03-05 05:00,ZGKL 050500Z AUTO 06008KT 6SM 13/06 A3015 RMK T01300060 IEM_DS3505
ZGKL,2007-03-05 06:00,ZGKL 050600Z AUTO 04008KT 12SM 12/04 A3012 RMK 60000 SLP216 T01210041 57015 IEM_DS3505
ZGKL,2007-03-05 08:00,ZGKL 050800Z AUTO 05010KT 7SM 12/06 A3012 RMK T01200060 IEM_DS3505
ZGKL,2007-03-05 09:00,ZGKL 050900Z AUTO 03010KT 7SM 11/06 A3012 RMK T01100060 IEM_DS3505
ZGKL,2007-03-05 10:00,ZGKL 051000Z AUTO 03010KT 7SM 11/06 A3012 RMK T01100060 IEM_DS3505
ZGKL,2007-03-05 11:00,ZGKL 051100Z AUTO 03008KT 7SM 10/06 A3015 RMK T01000060 IEM_DS3505
ZGKL,2007-03-05 12:00,ZGKL 051200Z AUTO 02010KT 9SM 10/05 A3018 RMK SLP231 T00970047 52020 IEM_DS3505
ZGKL,2007-03-05 13:00,ZGKL 051300Z AUTO 05014KT 7SM 09/06 A3021 RMK T00900060 IEM_DS3505
ZGKL,2007-03-05 14:00,ZGKL 051400Z AUTO 05010KT 7SM 08/06 A3024 RMK T00800060 IEM_DS3505
ZGKL,2007-03-05 15:00,ZGKL 051500Z AUTO 02010KT 8SM 08/04 A3024 RMK SLP255 T00810039 52022 IEM_DS3505
ZGKL,2007-03-05 17:00,ZGKL 051700Z AUTO 08/05 A3024 RMK T00800050 IEM_DS3505
ZGKL,2007-03-05 18:00,ZGKL 051800Z AUTO 02012KT 8SM 08/04 A3024 RMK 60008 SLP251 T00790037 57004 IEM_DS3505
ZGKL,2007-03-05 20:00,ZGKL 052000Z AUTO 07/06 A3021 RMK T00700060 IEM_DS3505
ZGKL,2007-03-05 21:00,ZGKL 052100Z AUTO 02010KT 7SM 06/04 A3021 RMK 70008 SLP248 T00650035 57004 IEM_DS3505
ZGKL,2007-03-06 00:00,ZGKL 060000Z AUTO 04010KT 10SM 07/02 A3027 RMK 60002 70009 SLP260 T00700021 52012 IEM_DS3505
ZGKL,2007-03-06 01:00,ZGKL 060100Z AUTO 04008KT 5SM 07/04 A3027 RMK T00700040 IEM_DS3505
ZGKL,2007-03-06 04:00,ZGKL 060400Z AUTO 07008KT 7SM 08/04 A3027 RMK T00800040 IEM_DS3505
ZGKL,2007-03-06 05:00,ZGKL 060500Z AUTO 06008KT 7SM 08/03 A3024 RMK T00800030 IEM_DS3505
ZGKL,2007-03-06 06:00,ZGKL 060600Z AUTO 02008KT 12SM 07/02 A3021 RMK SLP252 T00710024 57019 IEM_DS3505
ZGKL,2007-03-06 07:00,ZGKL 060700Z AUTO 06010KT 7SM 08/04 A3018 RMK T00800040 IEM_DS3505
ZGKL,2007-03-06 08:00,ZGKL 060800Z AUTO 07010KT 7SM 07/03 A3018 RMK T00700030 IEM_DS3505
ZGKL,2007-03-06 09:00,ZGKL 060900Z AUTO 02010KT 12SM 06/02 A3015 RMK SLP233 T00650018 57020 IEM_DS3505
ZGKL,2007-03-06 10:00,ZGKL 061000Z AUTO 04010KT 7SM 06/03 A3018 RMK T00600030 IEM_DS3505
ZGKL,2007-03-06 11:00,ZGKL 061100Z AUTO 07010KT 7SM 06/03 A3018 RMK T00600030 IEM_DS3505
ZGKL,2007-03-06 12:00,ZGKL 061200Z AUTO 02008KT 12SM 06/01 A3021 RMK SLP249 T00600011 52016 IEM_DS3505
ZGKL,2007-03-06 13:00,ZGKL 061300Z AUTO 05008KT 7SM 06/02 A3024 RMK T00600020 IEM_DS3505
ZGKL,2007-03-06 14:00,ZGKL 061400Z AUTO 05008KT 7SM 06/02 A3024 RMK T00600020 IEM_DS3505
ZGKL,2007-03-06 15:00,ZGKL 061500Z AUTO 02010KT 10SM 06/01 A3024 RMK SLP254 T00580008 52005 IEM_DS3505
ZGKL,2007-03-06 16:00,ZGKL 061600Z AUTO 08004KT 7SM 06/03 A3024 RMK T00600030 IEM_DS3505
ZGKL,2007-03-06 17:00,ZGKL 061700Z AUTO 08006KT 7SM 06/02 A3024 RMK T00600020 IEM_DS3505
ZGKL,2007-03-06 18:00,ZGKL 061800Z AUTO 02008KT 9SM 05/01 A3024 RMK 60000 SLP250 T00540013 57004 IEM_DS3505
ZGKL,2007-03-06 19:00,ZGKL 061900Z AUTO 06/02 A3021 RMK T00600020 IEM_DS3505
ZGKL,2007-03-06 20:00,ZGKL 062000Z AUTO 05004KT 06/02 A3018 RMK T00600020 IEM_DS3505
ZGKL,2007-03-06 21:00,ZGKL 062100Z AUTO 02006KT 9SM 05/02 A3018 RMK 70000 SLP240 T00510016 57010 IEM_DS3505
ZGKL,2007-03-06 22:00,ZGKL 062200Z AUTO 05006KT 4SM 06/02 A3018 RMK T00600020 IEM_DS3505
ZGKL,2007-03-06 23:00,ZGKL 062300Z AUTO 06004KT 3SM 05/02 A3018 RMK T00500020 IEM_DS3505
ZGKL,2007-03-07 00:00,ZGKL 070000Z AUTO 02008KT 8SM 05/01 A3021 RMK 70000 SLP244 T00520010 52003 IEM_DS3505
ZGKL,2007-03-07 01:00,ZGKL 070100Z AUTO 4SM 06/02 A3021 RMK T00600020 IEM_DS3505
ZGKL,2007-03-07 02:00,ZGKL 070200Z AUTO 01004KT 5SM 06/02 A3021 RMK T00600020 IEM_DS3505
ZGKL,2007-03-07 03:00,ZGKL 070300Z AUTO 02010KT 9SM 06/01 A3021 RMK SLP242 T00580011 57001 IEM_DS3505
ZGKL,2007-03-07 04:00,ZGKL 070400Z AUTO 5SM 07/03 A3018 RMK T00700030 IEM_DS3505
ZGKL,2007-03-07 05:00,ZGKL 070500Z AUTO 09004KT 5SM 07/03 A3015 RMK T00700030 IEM_DS3505
ZGKL,2007-03-07 06:00,ZGKL 070600Z AUTO 36008KT 9SM 07/01 A3012 RMK SLP216 T00710014 57026 IEM_DS3505
ZGKL,2007-03-07 07:00,ZGKL 070700Z AUTO 09006KT 5SM 07/03 A3009 RMK T00700030 IEM_DS3505
ZGKL,2007-03-07 08:00,ZGKL 070800Z AUTO 08006KT 5SM 07/02 A3006 RMK T00700020 IEM_DS3505
ZGKL,2007-03-07 09:00,ZGKL 070900Z AUTO 36004KT 9SM 07/02 A3006 RMK SLP195 T00690018 57020 IEM_DS3505
ZGKL,2007-03-07 10:00,ZGKL 071000Z AUTO 07010KT 5SM 07/02 A3006 RMK T00700020 IEM_DS3505
ZGKL,2007-03-07 11:00,ZGKL 071100Z AUTO 06010KT 4SM 07/03 A3006 RMK T00700030 IEM_DS3505
ZGKL,2007-03-07 12:00,ZGKL 071200Z AUTO 04004KT 9SM 06/03 A3009 RMK 60000 SLP207 T00560031 52011 IEM_DS3505
ZGKL,2007-03-07 13:00,ZGKL 071300Z AUTO 06006KT 3SM 05/04 A3012 RMK T00500040 IEM_DS3505
ZGKL,2007-03-07 14:00,ZGKL 071400Z AUTO 05006KT 2 1/2SM 05/04 A3015 RMK T00500040 IEM_DS3505
ZGKL,2007-03-07 15:00,ZGKL 071500Z AUTO 05004KT 2SM 05/04 A3015 RMK T00500040 IEM_DS3505
ZGKL,2007-03-07 16:00,ZGKL 071600Z AUTO 05/04 A3012 RMK T00500040 IEM_DS3505
ZGKL,2007-03-07 17:00,ZGKL 071700Z AUTO 00000KT 05/04 A3012 RMK T00500040 IEM_DS3505
ZGKL,2007-03-07 18:00,ZGKL 071800Z AUTO 36004KT 8SM 06/03 A3012 RMK 60003 SLP216 T00550027 57006 IEM_DS3505
ZGKL,2007-03-07 19:00,ZGKL 071900Z AUTO 00000KT 05/04 A3009 RMK T00500040 IEM_DS3505
ZGKL,2007-03-07 20:00,ZGKL 072000Z AUTO 00000KT 05/04 A3009 RMK T00500040 IEM_DS3505
ZGKL,2007-03-07 21:00,ZGKL 072100Z AUTO 04002KT 7SM 06/03 A3009 RMK 70004 SLP209 T00560029 57006 IEM_DS3505
ZGKL,2007-03-07 22:00,ZGKL 072200Z AUTO 00000KT 3SM 05/05 A3012 RMK T00500050 IEM_DS3505
ZGKL,2007-03-07 23:00,ZGKL 072300Z AUTO 00000KT 3SM 05/05 A3012 RMK T00500050 IEM_DS3505
ZGKL,2007-03-08 00:00,ZGKL 080000Z AUTO 02002KT 6SM 06/03 A3015 RMK 60000 70004 SLP230 T00590034 52020 IEM_DS3505
ZGKL,2007-03-08 01:00,ZGKL 080100Z AUTO 00000KT 2 1/2SM 06/04 A3018 RMK T00600040 IEM_DS3505
ZGKL,2007-03-08 02:00,ZGKL 080200Z AUTO 07004KT 2 1/2SM 06/05 A3021 RMK T00600050 IEM_DS3505
ZGKL,2007-03-08 03:00,ZGKL 080300Z AUTO 07004KT 6SM 08/04 A3018 RMK SLP240 T00760042 52010 IEM_DS3505
ZGKL,2007-03-08 04:00,ZGKL 080400Z AUTO 4SM 08/04 A3018 RMK T00800040 IEM_DS3505
ZGKL,2007-03-08 05:00,ZGKL 080500Z AUTO 00000KT 5SM 08/05 A3015 RMK T00800050 IEM_DS3505
ZGKL,2007-03-08 06:00,ZGKL 080600Z AUTO 02006KT 7SM 09/04 A3012 RMK SLP214 T00890041 57025 IEM_DS3505
ZGKL,2007-03-08 07:00,ZGKL 080700Z AUTO 28004KT 5SM 09/05 A3009 RMK T00900050 IEM_DS3505
ZGKL,2007-03-08 08:00,ZGKL 080800Z AUTO 5SM 09/06 A3009 RMK T00900060 IEM_DS3505
ZGKL,2007-03-08 09:00,ZGKL 080900Z AUTO 02006KT 7SM 08/04 A3006 RMK SLP200 T00830041 57014 IEM_DS3505
ZGKL,2007-03-08 10:00,ZGKL 081000Z AUTO 06010KT 5SM 08/05 A3006 RMK T00800050 IEM_DS3505
ZGKL,2007-03-08 11:00,ZGKL 081100Z AUTO 05006KT 5SM 08/05 A3009 RMK T00800050 IEM_DS3505
ZGKL,2007-03-08 12:00,ZGKL 081200Z AUTO 05006KT 4SM 08/05 A3012 RMK T00800050 IEM_DS3505
ZGKL,2007-03-08 13:00,ZGKL 081300Z AUTO 04008KT 4SM 08/05 A3015 RMK T00800050 IEM_DS3505
ZGKL,2007-03-08 14:00,ZGKL 081400Z AUTO 4SM 08/04 A3015 RMK T00800040 IEM_DS3505
ZGKL,2007-03-08 15:00,ZGKL 081500Z AUTO 02006KT 6SM 08/03 A3018 RMK SLP230 T00790032 52015 IEM_DS3505
ZGKL,2007-03-08 17:00,ZGKL 081700Z AUTO 00000KT 3SM 08/05 A3015 RMK T00800050 IEM_DS3505
ZGKL,2007-03-08 18:00,ZGKL 081800Z AUTO 02004KT 6SM 08/03 A3015 RMK SLP221 T00800033 57008 IEM_DS3505
ZGKL,2007-03-08 19:00,ZGKL 081900Z AUTO 00000KT 08/06 A3012 RMK T00800060 IEM_DS3505
ZGKL,2007-03-08 20:00,ZGKL 082000Z AUTO 00000KT 08/06 A3012 RMK T00800060 IEM_DS3505
ZGKL,2007-03-08 21:00,ZGKL 082100Z AUTO 36004KT 6SM 08/03 A3012 RMK 70000 SLP211 T00810034 57010 IEM_DS3505
ZGKL,2007-03-08 22:00,ZGKL 082200Z AUTO 00000KT 4SM 08/05 A3012 RMK T00800050 IEM_DS3505
ZGKL,2007-03-08 23:00,ZGKL 082300Z AUTO 00000KT 4SM 08/04 A3012 RMK T00800040 IEM_DS3505
ZGKL,2007-03-09 00:00,ZGKL 090000Z AUTO 36002KT 6SM 08/04 A3015 RMK SLP223 T00820037 52012 IEM_DS3505
ZGKL,2007-03-09 01:00,ZGKL 090100Z AUTO 00000KT 3SM 09/04 A3015 RMK T00900040 IEM_DS3505
ZGKL,2007-03-09 02:00,ZGKL 090200Z AUTO 09004KT 3SM 09/04 A3018 RMK T00900040 IEM_DS3505
ZGKL,2007-03-09 03:00,ZGKL 090300Z AUTO 09004KT 5SM 09/04 A3018 RMK SLP230 T00900040 52007 IEM_DS3505
ZGKL,2007-03-09 04:00,ZGKL 090400Z AUTO 3SM 09/05 A3015 RMK T00900050 IEM_DS3505
ZGKL,2007-03-09 05:00,ZGKL 090500Z AUTO 00000KT 4SM 10/05 A3012 RMK T01000050 IEM_DS3505
ZGKL,2007-03-09 06:00,ZGKL 090600Z AUTO 07002KT 5SM 09/05 A3009 RMK SLP202 T00940052 57028 IEM_DS3505
ZGKL,2007-03-09 07:00,ZGKL 090700Z AUTO 4SM 11/05 A3006 RMK T01100050 IEM_DS3505
ZGKL,2007-03-09 08:00,ZGKL 090800Z AUTO 07004KT 4SM 11/06 A3003 RMK T01100060 IEM_DS3505
ZGKL,2007-03-09 09:00,ZGKL 090900Z AUTO 18002KT 4SM 10/06 A3000 RMK SLP178 T00990061 57023 IEM_DS3505
ZGKL,2007-03-09 10:00,ZGKL 091000Z AUTO 13004KT 4SM 10/06 A3003 RMK T01000060 IEM_DS3505
ZGKL,2007-03-09 11:00,ZGKL 091100Z AUTO 12004KT 2 1/2SM 09/07 A3003 RMK T00900070 IEM_DS3505
ZGKL,2007-03-09 12:00,ZGKL 091200Z AUTO 14002KT 4SM 09/07 A3006 RMK 60000 SLP193 T00900068 52015 IEM_DS3505
ZGKL,2007-03-09 13:00,ZGKL 091300Z AUTO 00000KT 1SM 08/08 A3009 RMK T00800080 IEM_DS3505
ZGKL,2007-03-09 14:00,ZGKL 091400Z AUTO 00000KT 1SM 09/08 A3009 RMK T00900080 IEM_DS3505
ZGKL,2007-03-09 15:00,ZGKL 091500Z AUTO 34002KT 2 1/2SM 09/08 A3009 RMK SLP208 T00870078 52014 IEM_DS3505
ZGKL,2007-03-09 16:00,ZGKL 091600Z AUTO 00000KT 1SM 09/08 A3009 RMK T00900080 IEM_DS3505
ZGKL,2007-03-09 17:00,ZGKL 091700Z AUTO 00000KT 09/08 A3009 RMK T00900080 IEM_DS3505
ZGKL,2007-03-09 18:00,ZGKL 091800Z AUTO 34002KT 2SM 09/08 A3009 RMK 60000 SLP203 T00870075 57004 IEM_DS3505
ZGKL,2007-03-09 19:00,ZGKL 091900Z AUTO 00000KT 09/08 A3006 RMK T00900080 IEM_DS3505
ZGKL,2007-03-09 20:00,ZGKL 092000Z AUTO 00000KT 09/08 A3006 RMK T00900080 IEM_DS3505
ZGKL,2007-03-09 21:00,ZGKL 092100Z AUTO 32002KT 1 1/4SM 09/08 A3006 RMK 70002 SLP195 T00860078 57008 IEM_DS3505
ZGKL,2007-03-09 22:00,ZGKL 092200Z AUTO 00000KT 1SM 09/08 A3009 RMK T00900080 IEM_DS3505
ZGKL,2007-03-09 23:00,ZGKL 092300Z AUTO 00000KT 1/2SM 09/08 A3009 RMK T00900080 IEM_DS3505
ZGKL,2007-03-10 00:00,ZGKL 100000Z AUTO 36002KT 1 1/4SM 09/08 A3012 RMK 60001 70002 SLP215 T00890083 52019 IEM_DS3505
ZGKL,2007-03-10 01:00,ZGKL 100100Z AUTO 00000KT 1/2SM 09/08 A3015 RMK T00900080 IEM_DS3505
ZGKL,2007-03-10 02:00,ZGKL 100200Z AUTO 00000KT 1SM 10/09 A3015 RMK T01000090 IEM_DS3505
ZGKL,2007-03-10 03:00,ZGKL 100300Z AUTO 36004KT 2SM 11/08 A3015 RMK SLP220 T01090083 52006 IEM_DS3505
ZGKL,2007-03-10 04:00,ZGKL 100400Z AUTO 00000KT 1 1/2SM 11/09 A3012 RMK T01100090 IEM_DS3505
ZGKL,2007-03-10 05:00,ZGKL 100500Z AUTO 00000KT 2 1/2SM 12/09 A3009 RMK T01200090 IEM_DS3505
ZGKL,2007-03-10 06:00,ZGKL 100600Z AUTO 04004KT 3SM 13/09 A3006 RMK 60000 SLP192 T01310086 57027 IEM_DS3505
ZGKL,2007-03-10 07:00,ZGKL 100700Z AUTO 00000KT 2 1/2SM 13/10 A3003 RMK T01300100 IEM_DS3505
ZGKL,2007-03-10 08:00,ZGKL 100800Z AUTO 2 1/2SM 13/10 A3003 RMK T01300100 IEM_DS3505
ZGKL,2007-03-10 09:00,ZGKL 100900Z AUTO 36006KT 4SM 14/07 A3003 RMK SLP183 T01350071 57009 IEM_DS3505
ZGKL,2007-03-10 10:00,ZGKL 101000Z AUTO 04006KT 2 1/2SM 13/08 A3006 RMK T01300080 IEM_DS3505
ZGKL,2007-03-10 11:00,ZGKL 101100Z AUTO 04010KT 3SM 13/07 A3006 RMK T01300070 IEM_DS3505
ZGKL,2007-03-10 12:00,ZGKL 101200Z AUTO 02008KT 4SM 12/06 A3009 RMK SLP198 T01220058 52015 IEM_DS3505
ZGKL,2007-03-10 13:00,ZGKL 101300Z AUTO 03006KT 3SM 12/07 A3012 RMK T01200070 IEM_DS3505
ZGKL,2007-03-10 14:00,ZGKL 101400Z AUTO 03006KT 3SM 12/07 A3012 RMK T01200070 IEM_DS3505
ZGKL,2007-03-10 15:00,ZGKL 101500Z AUTO 04008KT 4SM 12/06 A3015 RMK SLP218 T01230057 52020 IEM_DS3505
ZGKL,2007-03-10 16:00,ZGKL 101600Z AUTO 04006KT 12/07 A3015 RMK T01200070 IEM_DS3505
ZGKL,2007-03-10 17:00,ZGKL 101700Z AUTO 00000KT 12/07 A3015 RMK T01200070 IEM_DS3505
ZGKL,2007-03-10 18:00,ZGKL 101800Z AUTO 02008KT 4SM 11/06 A3015 RMK SLP222 T01140065 52005 IEM_DS3505
ZGKL,2007-03-10 19:00,ZGKL 101900Z AUTO 00000KT 11/07 A3015 RMK T01100070 IEM_DS3505
ZGKL,2007-03-10 20:00,ZGKL 102000Z AUTO 06006KT 11/07 A3015 RMK T01100070 IEM_DS3505
ZGKL,2007-03-10 21:00,ZGKL 102100Z AUTO 36010KT 4SM 11/07 A3015 RMK 70001 SLP221 T01090068 57001 IEM_DS3505
ZGKL,2007-03-10 22:00,ZGKL 102200Z AUTO 06008KT 2 1/2SM 11/08 A3015 RMK T01100080 IEM_DS3505
ZGKL,2007-03-10 23:00,ZGKL 102300Z AUTO 05006KT 2SM 11/07 A3018 RMK T01100070 IEM_DS3505
ZGKL,2007-03-11 00:00,ZGKL 110000Z AUTO 36006KT 4SM 11/06 A3018 RMK 70000 SLP235 T01140063 52013 IEM_DS3505
ZGKL,2007-03-11 01:00,ZGKL 110100Z AUTO 00000KT 3SM 12/08 A3021 RMK T01200080 IEM_DS3505
ZGKL,2007-03-11 02:00,ZGKL 110200Z AUTO 07006KT 3SM 13/07 A3021 RMK T01300070 IEM_DS3505
ZGKL,2007-03-11 03:00,ZGKL 110300Z AUTO 02004KT 4SM 13/06 A3021 RMK SLP239 T01290063 52004 IEM_DS3505
ZGKL,2007-03-11 04:00,ZGKL 110400Z AUTO 07008KT 3SM 14/07 A3018 RMK T01400070 IEM_DS3505
ZGKL,2007-03-11 05:00,ZGKL 110500Z AUTO 04010KT 3SM 14/07 A3015 RMK T01400070 IEM_DS3505
ZGKL,2007-03-11 06:00,ZGKL 110600Z AUTO 07004KT 5SM 14/06 A3012 RMK SLP206 T01430064 57032 IEM_DS3505
ZGKL,2007-03-11 07:00,ZGKL 110700Z AUTO 06010KT 3SM 14/06 A3009 RMK T01400060 IEM_DS3505
ZGKL,2007-03-11 08:00,ZGKL 110800Z AUTO 06010KT 3SM 15/07 A3006 RMK T01500070 IEM_DS3505
ZGKL,2007-03-11 09:00,ZGKL 110900Z AUTO 07004KT 4SM 14/06 A3006 RMK SLP194 T01410065 57012 IEM_DS3505
ZGKL,2007-03-11 10:00,ZGKL 111000Z AUTO 05006KT 3SM 14/07 A3006 RMK T01400070 IEM_DS3505
ZGKL,2007-03-11 11:00,ZGKL 111100Z AUTO 05006KT 3SM 13/07 A3006 RMK T01300070 IEM_DS3505
ZGKL,2007-03-11 12:00,ZGKL 111200Z AUTO 36002KT 4SM 13/06 A3006 RMK SLP196 T01270065 52002 IEM_DS3505
ZGKL,2007-03-11 13:00,ZGKL 111300Z AUTO 06008KT 3SM 13/07 A3009 RMK T01300070 IEM_DS3505
ZGKL,2007-03-11 14:00,ZGKL 111400Z AUTO 06006KT 3SM 13/07 A3012 RMK T01300070 IEM_DS3505
ZGKL,2007-03-11 15:00,ZGKL 111500Z AUTO 04002KT 3SM 12/07 A3012 RMK SLP208 T01230068 52012 IEM_DS3505
ZGKL,2007-03-11 16:00,ZGKL 111600Z AUTO 03008KT 3SM 12/07 A3012 RMK T01200070 IEM_DS3505
ZGKL,2007-03-11 17:00,ZGKL 111700Z AUTO 06004KT 12/08 A3009 RMK T01200080 IEM_DS3505
ZGKL,2007-03-11 18:00,ZGKL 111800Z AUTO 36004KT 3SM 11/08 A3009 RMK 60000 SLP204 T01100077 57004 IEM_DS3505
ZGKL,2007-03-11 19:00,ZGKL 111900Z AUTO 05006KT 11/08 A3006 RMK T01100080 IEM_DS3505
ZGKL,2007-03-11 20:00,ZGKL 112000Z AUTO 05006KT 11/08 A3006 RMK T01100080 IEM_DS3505
ZGKL,2007-03-11 21:00,ZGKL 112100Z AUTO 07006KT 3SM 11/08 A3006 RMK 70001 SLP195 T01080082 57009 IEM_DS3505
ZGKL,2007-03-11 22:00,ZGKL 112200Z AUTO 00000KT 1 1/2SM 10/09 A3009 RMK T01000090 IEM_DS3505
ZGKL,2007-03-11 23:00,ZGKL 112300Z AUTO 00000KT 1 1/2SM 10/09 A3009 RMK T01000090 IEM_DS3505
ZGKL,2007-03-12 00:00,ZGKL 120000Z AUTO 36002KT 2SM 10/09 A3012 RMK 60001 70002 SLP208 T01010092 52012 IEM_DS3505
ZGKL,2007-03-12 01:00,ZGKL 120100Z AUTO 08002KT 3/8SM 10/09 A3012 RMK T01000090 IEM_DS3505
ZGKL,2007-03-12 02:00,ZGKL 120200Z AUTO 05004KT 1/2SM 10/10 A3012 RMK T01000100 IEM_DS3505
ZGKL,2007-03-12 03:00,ZGKL 120300Z AUTO 02006KT 2SM 10/10 A3012 RMK SLP214 T01040096 52006 IEM_DS3505
ZGKL,2007-03-12 04:00,ZGKL 120400Z AUTO 36002KT 1SM 11/10 A3012 RMK T01100100 IEM_DS3505
ZGKL,2007-03-12 05:00,ZGKL 120500Z AUTO 00000KT 1SM 11/10 A3009 RMK T01100100 IEM_DS3505
ZGKL,2007-03-12 06:00,ZGKL 120600Z AUTO 02002KT 2SM 11/10 A3006 RMK 60004 SLP188 T01120101 57026 IEM_DS3505
ZGKL,2007-03-12 07:00,ZGKL 120700Z AUTO 00000KT 1SM 11/11 A3003 RMK T01100110 IEM_DS3505
ZGKL,2007-03-12 08:00,ZGKL 120800Z AUTO 00000KT 1SM 12/11 A3003 RMK T01200110 IEM_DS3505
ZGKL,2007-03-12 09:00,ZGKL 120900Z AUTO 16002KT 2SM 12/11 A3003 RMK SLP182 T01160107 57005 IEM_DS3505
ZGKL,2007-03-12 10:00,ZGKL 121000Z AUTO 07004KT 1SM 12/11 A3003 RMK T01200110 IEM_DS3505
ZGKL,2007-03-12 11:00,ZGKL 121100Z AUTO 05004KT 1SM 12/11 A3006 RMK T01200110 IEM_DS3505
ZGKL,2007-03-12 12:00,ZGKL 121200Z AUTO 02004KT 2 1/2SM 12/10 A3009 RMK 60002 SLP198 T01160099 52015 IEM_DS3505
ZGKL,2007-03-12 13:00,ZGKL 121300Z AUTO 06002KT 1SM 12/11 A3009 RMK T01200110 IEM_DS3505
ZGKL,2007-03-12 14:00,ZGKL 121400Z AUTO 03004KT 1SM 11/11 A3012 RMK T01100110 IEM_DS3505
ZGKL,2007-03-12 15:00,ZGKL 121500Z AUTO 32002KT 3SM 12/10 A3012 RMK SLP210 T01170101 52012 IEM_DS3505
ZGKL,2007-03-12 16:00,ZGKL 121600Z AUTO 00000KT 1/2SM 11/11 A3009 RMK T01100110 IEM_DS3505
ZGKL,2007-03-12 17:00,ZGKL 121700Z AUTO 00000KT A3009 RMK IEM_DS3505
ZGKL,2007-03-12 18:00,ZGKL 121800Z AUTO 04004KT 2 1/2SM 12/10 A3009 RMK 60000 SLP197 T01190100 57012 IEM_DS3505
ZGKL,2007-03-12 19:00,ZGKL 121900Z AUTO 00000KT 11/11 A3006 RMK T01100110 IEM_DS3505
ZGKL,2007-03-12 20:00,ZGKL 122000Z AUTO 00000KT 11/11 A3003 RMK T01100110 IEM_DS3505
ZGKL,2007-03-12 21:00,ZGKL 122100Z AUTO 02002KT 2 1/2SM 12/10 A3000 RMK 70007 SLP178 T01150104 57019 IEM_DS3505
ZGKL,2007-03-12 22:00,ZGKL 122200Z AUTO 33002KT 1/2SM 11/11 A3003 RMK T01100110 IEM_DS3505
ZGKL,2007-03-12 23:00,ZGKL 122300Z AUTO 34002KT 1SM 11/11 A3003 RMK T01100110 IEM_DS3505
ZGKL,2007-03-13 00:00,ZGKL 130000Z AUTO 31002KT 1 1/4SM 11/11 A3003 RMK 60000 70008 SLP185 T01140109 52007 IEM_DS3505
ZGKL,2007-03-13 01:00,ZGKL 130100Z AUTO 1SM 12/11 A3003 RMK T01200110 IEM_DS3505
ZGKL,2007-03-13 02:00,ZGKL 130200Z AUTO 00000KT 1SM 12/11 A3003 RMK T01200110 IEM_DS3505
ZGKL,2007-03-13 03:00,ZGKL 130300Z AUTO 00000KT 2SM 13/11 A3003 RMK SLP180 T01260110 57005 IEM_DS3505
ZGKL,2007-03-13 04:00,ZGKL 130400Z AUTO 1 1/4SM 13/12 A3000 RMK T01300120 IEM_DS3505
ZGKL,2007-03-13 05:00,ZGKL 130500Z AUTO 1 1/2SM 13/12 A2994 RMK T01300120 IEM_DS3505
ZGKL,2007-03-13 06:00,ZGKL 130600Z AUTO 36002KT 1 1/4SM 14/11 A2991 RMK 60000 SLP136 T01380113 57042 IEM_DS3505
ZGKL,2007-03-13 07:00,ZGKL 130700Z AUTO 35004KT 1 1/2SM 14/12 A2985 RMK T01400120 IEM_DS3505
ZGKL,2007-03-13 08:00,ZGKL 130800Z AUTO 1 1/2SM 14/12 A2985 RMK T01400120 IEM_DS3505
ZGKL,2007-03-13 09:00,ZGKL 130900Z AUTO 11002KT 1 1/4SM 14/12 A2983 RMK SLP112 T01400119 57024 IEM_DS3505
ZGKL,2007-03-13 10:00,ZGKL 131000Z AUTO 00000KT 1 1/2SM 13/12 A2983 RMK T01300120 IEM_DS3505
ZGKL,2007-03-13 11:00,ZGKL 131100Z AUTO 00000KT 1 1/2SM 13/12 A2983 RMK T01300120 IEM_DS3505
ZGKL,2007-03-13 12:00,ZGKL 131200Z AUTO 36002KT 1 1/4SM 14/12 A2983 RMK SLP112 T01380122 54000 IEM_DS3505
ZGKL,2007-03-13 13:00,ZGKL 131300Z AUTO 00000KT 1 1/4SM 14/13 A2985 RMK T01400130 IEM_DS3505
ZGKL,2007-03-13 14:00,ZGKL 131400Z AUTO 00000KT 1 1/4SM 14/13 A2985 RMK T01400130 IEM_DS3505
ZGKL,2007-03-13 15:00,ZGKL 131500Z AUTO 29002KT 1 1/4SM 14/12 A2985 RMK SLP117 T01390125 52005 IEM_DS3505
ZGKL,2007-03-13 16:00,ZGKL 131600Z AUTO 00000KT 14/13 A2985 RMK T01400130 IEM_DS3505
ZGKL,2007-03-13 17:00,ZGKL 131700Z AUTO 00000KT 14/13 A2985 RMK T01400130 IEM_DS3505
ZGKL,2007-03-13 18:00,ZGKL 131800Z AUTO 36002KT 1 1/4SM 14/13 A2983 RMK SLP111 T01410130 57005 IEM_DS3505
ZGKL,2007-03-13 19:00,ZGKL 131900Z AUTO 00000KT 14/13 A2983 RMK T01400130 IEM_DS3505
ZGKL,2007-03-13 20:00,ZGKL 132000Z AUTO 00000KT 14/13 A2980 RMK T01400130 IEM_DS3505
ZGKL,2007-03-13 21:00,ZGKL 132100Z AUTO 14002KT 1 1/4SM A2980 RMK 70001 SLP098 57013 IEM_DS3505
ZGKL,2007-03-13 22:00,ZGKL 132200Z AUTO 00000KT 1SM 14/14 A2980 RMK T01400140 IEM_DS3505
ZGKL,2007-03-13 23:00,ZGKL 132300Z AUTO 00000KT 1SM 14/14 A2980 RMK T01400140 IEM_DS3505
ZGKL,2007-03-14 00:00,ZGKL 140000Z AUTO 00000KT 2SM 15/14 A2983 RMK 70000 SLP108 T01470136 52010 IEM_DS3505
ZGKL,2007-03-14 01:00,ZGKL 140100Z AUTO 33002KT 1 1/4SM 15/14 A2985 RMK T01500140 IEM_DS3505
ZGKL,2007-03-14 02:00,ZGKL 140200Z AUTO 34002KT 1 1/4SM 16/15 A2985 RMK T01600150 IEM_DS3505
ZGKL,2007-03-14 03:00,ZGKL 140300Z AUTO 11002KT 5SM 18/16 A2983 RMK SLP106 T01790157 57001 IEM_DS3505
ZGKL,2007-03-14 04:00,ZGKL 140400Z AUTO 00000KT 1 1/2SM 18/17 A2980 RMK T01800170 IEM_DS3505
ZGKL,2007-03-14 05:00,ZGKL 140500Z AUTO 00000KT 2SM 19/17 A2977 RMK T01900170 IEM_DS3505
ZGKL,2007-03-14 06:00,ZGKL 140600Z AUTO 20004KT 7SM 21/17 A2974 RMK SLP066 T02120174 57038 IEM_DS3505
ZGKL,2007-03-14 07:00,ZGKL 140700Z AUTO 34004KT 1 1/2SM 19/18 A2971 RMK T01900180 IEM_DS3505
ZGKL,2007-03-14 08:00,ZGKL 140800Z AUTO 34004KT 2 1/2SM 20/18 A2968 RMK T02000180 IEM_DS3505
ZGKL,2007-03-14 09:00,ZGKL 140900Z AUTO 04002KT 7SM 20/18 A2968 RMK SLP053 T02010175 57013 IEM_DS3505
ZGKL,2007-03-14 10:00,ZGKL 141000Z AUTO 34006KT 2 1/2SM 20/18 A2968 RMK T02000180 IEM_DS3505
ZGKL,2007-03-14 11:00,ZGKL 141100Z AUTO 32004KT 1 1/2SM 19/18 A2968 RMK T01900180 IEM_DS3505
ZGKL,2007-03-14 12:00,ZGKL 141200Z AUTO 02004KT 6SM 19/18 A2968 RMK SLP057 T01890177 52004 IEM_DS3505
ZGKL,2007-03-14 13:00,ZGKL 141300Z AUTO 34002KT 1 1/2SM 18/17 A2971 RMK T01800170 IEM_DS3505
ZGKL,2007-03-14 14:00,ZGKL 141400Z AUTO 32002KT 2SM 18/17 A2974 RMK T01800170 IEM_DS3505
ZGKL,2007-03-14 15:00,ZGKL 141500Z AUTO 00000KT 4SM 18/17 A2974 RMK SLP073 T01760168 52016 IEM_DS3505
ZGKL,2007-03-14 16:00,ZGKL 141600Z AUTO 00000KT 2SM 18/17 A2974 RMK T01800170 IEM_DS3505
ZGKL,2007-03-14 17:00,ZGKL 141700Z AUTO 00000KT 18/17 A2974 RMK T01800170 IEM_DS3505
ZGKL,2007-03-14 18:00,ZGKL 141800Z AUTO 25002KT 4SM 18/17 A2974 RMK SLP070 T01750167 57002 IEM_DS3505
ZGKL,2007-03-14 19:00,ZGKL 141900Z AUTO 00000KT 17/17 A2971 RMK T01700170 IEM_DS3505
ZGKL,2007-03-14 20:00,ZGKL 142000Z AUTO 17/17 A2971 RMK T01700170 IEM_DS3505
ZGKL,2007-03-14 21:00,ZGKL 142100Z AUTO 02004KT 3SM 18/15 A2971 RMK 70000 SLP070 T01760152 54000 IEM_DS3505
ZGKL,2007-03-14 22:00,ZGKL 142200Z AUTO 04008KT 1 1/2SM 18/16 A2974 RMK T01800160 IEM_DS3505
ZGKL,2007-03-14 23:00,ZGKL 142300Z AUTO 05010KT 1 1/2SM 18/15 A2977 RMK T01800150 IEM_DS3505
ZGKL,2007-03-15 00:00,ZGKL 150000Z AUTO 02006KT 4SM 16/13 A2980 RMK 70000 SLP094 T01650134 52023 IEM_DS3505
ZGKL,2007-03-15 01:00,ZGKL 150100Z AUTO 2SM 17/14 A2980 RMK T01700140 IEM_DS3505
ZGKL,2007-03-15 02:00,ZGKL 150200Z AUTO 04006KT 2 1/2SM 17/14 A2983 RMK T01700140 IEM_DS3505
ZGKL,2007-03-15 03:00,ZGKL 150300Z AUTO 36008KT 6SM 16/12 A2983 RMK SLP103 T01570123 52008 IEM_DS3505
ZGKL,2007-03-15 04:00,ZGKL 150400Z AUTO 4SM 17/14 A2980 RMK T01700140 IEM_DS3505
ZGKL,2007-03-15 05:00,ZGKL 150500Z AUTO 06004KT 4SM 18/14 A2977 RMK T01800140 IEM_DS3505
ZGKL,2007-03-15 06:00,ZGKL 150600Z AUTO 02008KT 7SM 16/12 A2971 RMK 60000 SLP074 T01560116 57029 IEM_DS3505
ZGKL,2007-03-15 07:00,ZGKL 150700Z AUTO 04006KT 4SM 18/14 A2971 RMK T01800140 IEM_DS3505
ZGKL,2007-03-15 08:00,ZGKL 150800Z AUTO 06006KT 4SM 17/13 A2968 RMK T01700130 IEM_DS3505
ZGKL,2007-03-15 09:00,ZGKL 150900Z AUTO 02008KT 7SM 15/11 A2968 RMK SLP060 T01470109 57014 IEM_DS3505
ZGKL,2007-03-15 10:00,ZGKL 151000Z AUTO 07006KT 4SM 16/13 A2968 RMK T01600130 IEM_DS3505
ZGKL,2007-03-15 11:00,ZGKL 151100Z AUTO 05006KT 4SM 15/12 A2971 RMK T01500120 IEM_DS3505
ZGKL,2007-03-15 12:00,ZGKL 151200Z AUTO 02008KT 7SM 14/10 A2974 RMK SLP084 T01370101 52023 IEM_DS3505
ZGKL,2007-03-15 13:00,ZGKL 151300Z AUTO 06006KT 4SM 14/11 A2977 RMK T01400110 IEM_DS3505
ZGKL,2007-03-15 14:00,ZGKL 151400Z AUTO 04004KT 4SM 14/11 A2980 RMK T01400110 IEM_DS3505
ZGKL,2007-03-15 15:00,ZGKL 151500Z AUTO 02008KT 7SM 13/10 A2983 RMK SLP106 T01290095 52021 IEM_DS3505
ZGKL,2007-03-15 16:00,ZGKL 151600Z AUTO 05006KT 5SM 13/10 A2983 RMK T01300100 IEM_DS3505
ZGKL,2007-03-15 17:00,ZGKL 151700Z AUTO 04004KT 7SM 13/10 A2983 RMK T01300100 IEM_DS3505
ZGKL,2007-03-15 18:00,ZGKL 151800Z AUTO 02010KT 7SM 12/09 A2983 RMK SLP112 T01240089 52006 IEM_DS3505
ZGKL,2007-03-15 19:00,ZGKL 151900Z AUTO 06006KT 7SM 12/10 A2983 RMK T01200100 IEM_DS3505
ZGKL,2007-03-15 20:00,ZGKL 152000Z AUTO 06006KT 7SM 12/09 A2983 RMK T01200090 IEM_DS3505
ZGKL,2007-03-15 21:00,ZGKL 152100Z AUTO 02008KT 7SM 12/08 A2985 RMK 70000 SLP116 T01190080 52003 IEM_DS3505
ZGKL,2007-03-15 22:00,ZGKL 152200Z AUTO 07006KT 7SM 12/09 A2988 RMK T01200090 IEM_DS3505
ZGKL,2007-03-15 23:00,ZGKL 152300Z AUTO 06006KT 7SM 12/09 A2991 RMK T01200090 IEM_DS3505
ZGKL,2007-03-16 00:00,ZGKL 160000Z AUTO 02008KT 7SM 12/08 A2994 RMK 70000 SLP150 T01150078 52033 IEM_DS3505
ZGKL,2007-03-16 01:00,ZGKL 160100Z AUTO 06004KT 7SM 12/09 A2997 RMK T01200090 IEM_DS3505
ZGKL,2007-03-16 02:00,ZGKL 160200Z AUTO 04004KT 7SM 12/09 A3000 RMK T01200090 IEM_DS3505
ZGKL,2007-03-16 03:00,ZGKL 160300Z AUTO 36006KT 8SM 12/08 A3000 RMK SLP172 T01220079 52022 IEM_DS3505
ZGKL,2007-03-16 04:00,ZGKL 160400Z AUTO 07006KT 7SM 13/09 A3000 RMK T01300090 IEM_DS3505
ZGKL,2007-03-16 05:00,ZGKL 160500Z AUTO 06006KT 7SM 13/09 A2997 RMK T01300090 IEM_DS3505
ZGKL,2007-03-16 06:00,ZGKL 160600Z AUTO 36012KT 9SM 13/08 A2997 RMK SLP162 T01270080 57010 IEM_DS3505
ZGKL,2007-03-16 07:00,ZGKL 160700Z AUTO 06008KT 7SM 13/09 A2994 RMK T01300090 IEM_DS3505
ZGKL,2007-03-16 08:00,ZGKL 160800Z AUTO 05012KT 7SM 13/09 A2997 RMK T01300090 IEM_DS3505
ZGKL,2007-03-16 09:00,ZGKL 160900Z AUTO 02008KT 9SM 12/08 A2997 RMK SLP164 T01200075 52001 IEM_DS3505
ZGKL,2007-03-16 10:00,ZGKL 161000Z AUTO 06014KT 7SM 12/08 A2997 RMK T01200080 IEM_DS3505
ZGKL,2007-03-16 11:00,ZGKL 161100Z AUTO 06012KT 7SM 12/08 A3000 RMK T01200080 IEM_DS3505
ZGKL,2007-03-16 12:00,ZGKL 161200Z AUTO 02012KT 9SM 12/07 A3003 RMK SLP186 T01150066 52022 IEM_DS3505
ZGKL,2007-03-16 13:00,ZGKL 161300Z AUTO 05006KT 7SM 12/08 A3006 RMK T01200080 IEM_DS3505
ZGKL,2007-03-16 14:00,ZGKL 161400Z AUTO 07004KT 7SM 11/08 A3009 RMK T01100080 IEM_DS3505
ZGKL,2007-03-16 15:00,ZGKL 161500Z AUTO 02008KT 9SM 11/06 A3009 RMK SLP206 T01100064 52019 IEM_DS3505
ZGKL,2007-03-16 16:00,ZGKL 161600Z AUTO 06008KT 7SM 11/07 A3009 RMK T01100070 IEM_DS3505
ZGKL,2007-03-16 17:00,ZGKL 161700Z AUTO 06008KT 11/07 A3009 RMK T01100070 IEM_DS3505
ZGKL,2007-03-16 18:00,ZGKL 161800Z AUTO 02014KT 9SM 10/05 A3009 RMK SLP205 T01030053 57001 IEM_DS3505
ZGKL,2007-03-16 19:00,ZGKL 161900Z AUTO 06008KT 10/07 A3009 RMK T01000070 IEM_DS3505
ZGKL,2007-03-16 20:00,ZGKL 162000Z AUTO 06008KT 10/06 A3009 RMK T01000060 IEM_DS3505
ZGKL,2007-03-16 21:00,ZGKL 162100Z AUTO 04010KT 9SM 10/05 A3009 RMK SLP205 T00980050 54000 IEM_DS3505
ZGKL,2007-03-16 22:00,ZGKL 162200Z AUTO 06006KT 7SM 10/06 A3009 RMK T01000060 IEM_DS3505
ZGKL,2007-03-16 23:00,ZGKL 162300Z AUTO 06006KT 7SM 10/06 A3012 RMK T01000060 IEM_DS3505
ZGKL,2007-03-17 00:00,ZGKL 170000Z AUTO 04012KT 11SM 10/05 A3012 RMK SLP220 T00980046 52014 IEM_DS3505
ZGKL,2007-03-17 01:00,ZGKL 170100Z AUTO 06006KT 7SM 10/07 A3015 RMK T01000070 IEM_DS3505
ZGKL,2007-03-17 02:00,ZGKL 170200Z AUTO 06006KT 7SM 10/06 A3015 RMK T01000060 IEM_DS3505
ZGKL,2007-03-17 03:00,ZGKL 170300Z AUTO 02008KT 11SM 10/05 A3015 RMK SLP228 T00990049 52008 IEM_DS3505
ZGKL,2007-03-17 04:00,ZGKL 170400Z AUTO 7SM 09/07 A3015 RMK T00900070 IEM_DS3505
ZGKL,2007-03-17 05:00,ZGKL 170500Z AUTO 7SM 09/07 A3012 RMK T00900070 IEM_DS3505
ZGKL,2007-03-17 06:00,ZGKL 170600Z AUTO 02006KT 9SM 09/06 A3012 RMK 60000 SLP211 T00930060 57017 IEM_DS3505
ZGKL,2007-03-17 07:00,ZGKL 170700Z AUTO 05008KT 7SM 10/07 A3006 RMK T01000070 IEM_DS3505
ZGKL,2007-03-17 08:00,ZGKL 170800Z AUTO 06006KT 7SM 10/07 A3009 RMK T01000070 IEM_DS3505
ZGKL,2007-03-17 09:00,ZGKL 170900Z AUTO 36008KT 10SM 09/05 A3006 RMK SLP197 T00920054 57014 IEM_DS3505
ZGKL,2007-03-17 10:00,ZGKL 171000Z AUTO 05008KT 7SM 09/07 A3006 RMK T00900070 IEM_DS3505
ZGKL,2007-03-17 11:00,ZGKL 171100Z AUTO 08006KT 7SM 09/07 A3009 RMK T00900070 IEM_DS3505
ZGKL,2007-03-17 12:00,ZGKL 171200Z AUTO 36010KT 11SM 09/05 A3012 RMK 60000 SLP213 T00900050 52016 IEM_DS3505
ZGKL,2007-03-17 13:00,ZGKL 171300Z AUTO 04006KT 7SM 09/07 A3015 RMK T00900070 IEM_DS3505
ZGKL,2007-03-17 14:00,ZGKL 171400Z AUTO 05008KT 7SM 09/06 A3015 RMK T00900060 IEM_DS3505
ZGKL,2007-03-17 15:00,ZGKL 171500Z AUTO 02010KT 10SM 08/05 A3015 RMK SLP228 T00830052 52014 IEM_DS3505
ZGKL,2007-03-17 16:00,ZGKL 171600Z AUTO 07004KT 08/07 A3015 RMK T00800070 IEM_DS3505
ZGKL,2007-03-17 17:00,ZGKL 171700Z AUTO 06006KT 08/06 A3015 RMK T00800060 IEM_DS3505
ZGKL,2007-03-17 18:00,ZGKL 171800Z AUTO 36008KT 9SM 08/05 A3015 RMK 60000 SLP218 T00780053 57010 IEM_DS3505
ZGKL,2007-03-17 19:00,ZGKL 171900Z AUTO 08/07 A3012 RMK T00800070 IEM_DS3505
ZGKL,2007-03-17 20:00,ZGKL 172000Z AUTO 07/07 A3009 RMK T00700070 IEM_DS3505
ZGKL,2007-03-17 21:00,ZGKL 172100Z AUTO 04006KT 5SM 07/06 A3009 RMK 70003 SLP208 T00730058 57010 IEM_DS3505
ZGKL,2007-03-17 22:00,ZGKL 172200Z AUTO 00000KT 3SM 07/07 A3012 RMK T00700070 IEM_DS3505
ZGKL,2007-03-17 23:00,ZGKL 172300Z AUTO 4SM 08/07 A3012 RMK T00800070 IEM_DS3505
ZGKL,2007-03-18 01:00,ZGKL 180100Z AUTO 06002KT 2 1/2SM 08/07 A3015 RMK T00800070 IEM_DS3505
ZGKL,2007-03-18 02:00,ZGKL 180200Z AUTO 05004KT 4SM 08/07 A3015 RMK T00800070 IEM_DS3505
ZGKL,2007-03-18 03:00,ZGKL 180300Z AUTO 02008KT 11SM 08/05 A3012 RMK SLP220 T00830051 57002 IEM_DS3505
ZGKL,2007-03-18 04:00,ZGKL 180400Z AUTO 17002KT 7SM 09/06 A3015 RMK T00900060 IEM_DS3505
ZGKL,2007-03-18 05:00,ZGKL 180500Z AUTO 05004KT 4SM 08/07 A3009 RMK T00800070 IEM_DS3505
ZGKL,2007-03-18 07:00,ZGKL 180700Z AUTO 21002KT 3SM 09/07 A3006 RMK T00900070 IEM_DS3505
ZGKL,2007-03-18 08:00,ZGKL 180800Z AUTO 14010KT 2SM 09/08 A3006 RMK T00900080 IEM_DS3505
ZGKL,2007-03-18 09:00,ZGKL 180900Z AUTO 29004KT 5SM 08/06 A3006 RMK SLP188 T00790064 57012 IEM_DS3505
ZGKL,2007-03-18 10:00,ZGKL 181000Z AUTO 02004KT 4SM 08/07 A3006 RMK T00800070 IEM_DS3505
ZGKL,2007-03-18 11:00,ZGKL 181100Z AUTO 00000KT 4SM 08/07 A3009 RMK T00800070 IEM_DS3505
ZGKL,2007-03-18 12:00,ZGKL 181200Z AUTO 02008KT 8SM 08/06 A3009 RMK 60028 SLP210 T00790062 52022 IEM_DS3505
ZGKL,2007-03-18 13:00,ZGKL 181300Z AUTO 05004KT 3SM 08/07 A3015 RMK T00800070 IEM_DS3505
ZGKL,2007-03-18 14:00,ZGKL 181400Z AUTO 07004KT 2 1/2SM 08/07 A3015 RMK T00800070 IEM_DS3505
ZGKL,2007-03-18 15:00,ZGKL 181500Z AUTO 36008KT 9SM 08/05 A3015 RMK SLP225 T00790054 52015 IEM_DS3505
ZGKL,2007-03-18 16:00,ZGKL 181600Z AUTO 06002KT 4SM 08/07 A3015 RMK T00800070 IEM_DS3505
ZGKL,2007-03-18 17:00,ZGKL 181700Z AUTO 04004KT 08/06 A3015 RMK T00800060 IEM_DS3505
ZGKL,2007-03-18 19:00,ZGKL 181900Z AUTO 06004KT 08/06 A3015 RMK T00800060 IEM_DS3505
ZGKL,2007-03-18 20:00,ZGKL 182000Z AUTO 04004KT 08/06 A3012 RMK T00800060 IEM_DS3505
ZGKL,2007-03-18 21:00,ZGKL 182100Z AUTO 36008KT 9SM 07/04 A3015 RMK 70031 SLP222 T00730044 57006 IEM_DS3505
ZGKL,2007-03-18 22:00,ZGKL 182200Z AUTO 34006KT 6SM 07/06 A3015 RMK T00700060 IEM_DS3505
ZGKL,2007-03-18 23:00,ZGKL 182300Z AUTO 00000KT 5SM 07/06 A3018 RMK T00700060 IEM_DS3505
ZGKL,2007-03-19 01:00,ZGKL 190100Z AUTO 05006KT 7SM 08/06 A3021 RMK T00800060 IEM_DS3505
ZGKL,2007-03-19 02:00,ZGKL 190200Z AUTO 7SM 09/06 A3024 RMK T00900060 IEM_DS3505
ZGKL,2007-03-19 03:00,ZGKL 190300Z AUTO 02010KT 9SM 09/04 A3024 RMK SLP257 T00900040 52015 IEM_DS3505
ZGKL,2007-03-19 04:00,ZGKL 190400Z AUTO 05012KT 7SM 10/06 A3021 RMK T01000060 IEM_DS3505
ZGKL,2007-03-19 05:00,ZGKL 190500Z AUTO 05010KT 7SM 10/06 A3021 RMK T01000060 IEM_DS3505
ZGKL,2007-03-19 08:00,ZGKL 190800Z AUTO 05012KT 7SM 11/06 A3015 RMK T01100060 IEM_DS3505
ZGKL,2007-03-19 09:00,ZGKL 190900Z AUTO 02010KT 7SM 11/05 A3015 RMK SLP228 T01080047 57013 IEM_DS3505
ZGKL,2007-03-19 11:00,ZGKL 191100Z AUTO 04006KT 4SM 10/05 A3021 RMK T01000050 IEM_DS3505
ZGKL,2007-03-19 12:00,ZGKL 191200Z AUTO 36008KT 7SM 09/05 A3021 RMK SLP251 T00920046 52022 IEM_DS3505
ZGKL,2007-03-19 13:00,ZGKL 191300Z AUTO 4SM 10/05 A3024 RMK T01000050 IEM_DS3505
ZGKL,2007-03-19 14:00,ZGKL 191400Z AUTO 03012KT 6SM 10/05 A3030 RMK T01000050 IEM_DS3505
ZGKL,2007-03-19 15:00,ZGKL 191500Z AUTO 02008KT 7SM 09/04 A3030 RMK SLP273 T00940042 52022 IEM_DS3505
ZGKL,2007-03-19 18:00,ZGKL 191800Z AUTO 36004KT 7SM 09/04 A3030 RMK SLP272 T00930041 54000 IEM_DS3505
ZGKL,2007-03-19 19:00,ZGKL 191900Z AUTO 00000KT 06/05 A3027 RMK T00600050 IEM_DS3505
ZGKL,2007-03-19 20:00,ZGKL 192000Z AUTO 00000KT 06/05 A3027 RMK T00600050 IEM_DS3505
ZGKL,2007-03-19 21:00,ZGKL 192100Z AUTO 36004KT 7SM 08/04 A3027 RMK SLP261 T00840040 57011 IEM_DS3505
ZGKL,2007-03-19 22:00,ZGKL 192200Z AUTO 00000KT 3SM 05/05 A3027 RMK T00500050 IEM_DS3505
ZGKL,2007-03-19 23:00,ZGKL 192300Z AUTO 4SM 05/05 A3030 RMK T00500050 IEM_DS3505
ZGKL,2007-03-20 00:00,ZGKL 200000Z AUTO 02006KT 6SM 09/04 A3033 RMK SLP280 T00920040 52018 IEM_DS3505
ZGKL,2007-03-20 01:00,ZGKL 200100Z AUTO 34004KT 4SM 09/06 A3033 RMK T00900060 IEM_DS3505
ZGKL,2007-03-20 02:00,ZGKL 200200Z AUTO 4SM 13/06 A3033 RMK T01300060 IEM_DS3505
ZGKL,2007-03-20 03:00,ZGKL 200300Z AUTO 36010KT 5SM 14/04 A3030 RMK SLP266 T01450042 57012 IEM_DS3505
ZGKL,2007-03-20 04:00,ZGKL 200400Z AUTO 08008KT 6SM 16/04 A3027 RMK T01600040 IEM_DS3505
ZGKL,2007-03-20 05:00,ZGKL 200500Z AUTO 06010KT 6SM 18/03 A3021 RMK T01800030 IEM_DS3505
ZGKL,2007-03-20 06:00,ZGKL 200600Z AUTO 36008KT 7SM 19/02 A3018 RMK SLP225 T01910025 57038 IEM_DS3505
ZGKL,2007-03-20 07:00,ZGKL 200700Z AUTO 07008KT 6SM 19/03 A3015 RMK T01900030 IEM_DS3505
ZGKL,2007-03-20 08:00,ZGKL 200800Z AUTO 07006KT 6SM 20/04 A3012 RMK T02000040 IEM_DS3505
ZGKL,2007-03-20 09:00,ZGKL 200900Z AUTO 04004KT 9SM 20/02 A3009 RMK SLP194 T02010025 57031 IEM_DS3505
ZGKL,2007-03-20 10:00,ZGKL 201000Z AUTO 10004KT 6SM 19/04 A3006 RMK T01900040 IEM_DS3505
ZGKL,2007-03-20 11:07,ZGKL 201107Z AUTO 14004KT 6SM 17/07 A3006 RMK T01700070 IEM_DS3505
ZGKL,2007-03-20 12:00,ZGKL 201200Z AUTO 02004KT 9SM 15/04 A3009 RMK SLP198 T01500044 52003 IEM_DS3505
ZGKL,2007-03-20 13:00,ZGKL 201300Z AUTO 6SM 14/06 A3009 RMK T01400060 IEM_DS3505
ZGKL,2007-03-20 14:00,ZGKL 201400Z AUTO 6SM 11/08 A3009 RMK T01100080 IEM_DS3505
ZGKL,2007-03-20 15:00,ZGKL 201500Z AUTO 36002KT 9SM 13/04 A3012 RMK SLP207 T01280045 52010 IEM_DS3505
ZGKL,2007-03-20 16:00,ZGKL 201600Z AUTO 33004KT 5SM 10/08 A3012 RMK T01000080 IEM_DS3505
ZGKL,2007-03-20 17:00,ZGKL 201700Z AUTO 00000KT 10/08 A3012 RMK T01000080 IEM_DS3505
ZGKL,2007-03-20 18:00,ZGKL 201800Z AUTO 02002KT 9SM 11/05 A3012 RMK SLP205 T01060054 57001 IEM_DS3505
ZGKL,2007-03-20 19:00,ZGKL 201900Z AUTO 00000KT 09/08 A3009 RMK T00900080 IEM_DS3505
ZGKL,2007-03-20 20:00,ZGKL 202000Z AUTO 00000KT 09/08 A3009 RMK T00900080 IEM_DS3505
ZGKL,2007-03-20 21:00,ZGKL 202100Z AUTO 00000KT 9SM 10/06 A3009 RMK SLP202 T01000058 57003 IEM_DS3505
ZGKL,2007-03-20 22:00,ZGKL 202200Z AUTO 00000KT 4SM 10/08 A3009 RMK T01000080 IEM_DS3505
ZGKL,2007-03-20 23:00,ZGKL 202300Z AUTO 4SM 10/08 A3012 RMK T01000080 IEM_DS3505
ZGKL,2007-03-21 00:00,ZGKL 210000Z AUTO 36002KT 7SM 11/07 A3012 RMK SLP215 T01070066 52011 IEM_DS3505
ZGKL,2007-03-21 02:00,ZGKL 210200Z AUTO 00000KT 3SM 12/08 A3015 RMK T01200080 IEM_DS3505
ZGKL,2007-03-21 03:00,ZGKL 210300Z AUTO 14002KT 7SM 12/07 A3015 RMK SLP222 T01250072 52007 IEM_DS3505
ZGKL,2007-03-21 04:00,ZGKL 210400Z AUTO 00000KT 3SM 13/09 A3012 RMK T01300090 IEM_DS3505
ZGKL,2007-03-21 05:00,ZGKL 210500Z AUTO 00000KT 3SM 14/08 A3012 RMK T01400080 IEM_DS3505
ZGKL,2007-03-21 06:00,ZGKL 210600Z AUTO 32002KT 5SM 14/07 A3009 RMK SLP203 T01410074 57019 IEM_DS3505
ZGKL,2007-03-21 07:00,ZGKL 210700Z AUTO 29004KT 3SM 14/09 A3009 RMK T01400090 IEM_DS3505
ZGKL,2007-03-21 08:00,ZGKL 210800Z AUTO 32004KT 3SM 14/09 A3006 RMK T01400090 IEM_DS3505
ZGKL,2007-03-21 09:00,ZGKL 210900Z AUTO 32002KT 3SM 14/09 A3006 RMK SLP195 T01450087 57008 IEM_DS3505
ZGKL,2007-03-21 10:00,ZGKL 211000Z AUTO 1SM 12/11 A3009 RMK T01200110 IEM_DS3505
ZGKL,2007-03-21 11:00,ZGKL 211100Z AUTO 1SM 12/11 A3012 RMK T01200110 IEM_DS3505
ZGKL,2007-03-21 12:00,ZGKL 211200Z AUTO 04002KT 2SM 12/11 A3012 RMK 60000 SLP214 T01210110 52018 IEM_DS3505
ZGKL,2007-03-21 13:00,ZGKL 211300Z AUTO 1SM 12/11 A3015 RMK T01200110 IEM_DS3505
ZGKL,2007-03-21 14:00,ZGKL 211400Z AUTO 00000KT 1SM 12/11 A3015 RMK T01200110 IEM_DS3505
ZGKL,2007-03-21 15:00,ZGKL 211500Z AUTO 04002KT 2SM 12/11 A3015 RMK SLP223 T01210112 52010 IEM_DS3505
ZGKL,2007-03-21 16:00,ZGKL 211600Z AUTO 00000KT 1SM 12/11 A3015 RMK T01200110 IEM_DS3505
ZGKL,2007-03-21 17:00,ZGKL 211700Z AUTO 00000KT 1SM 12/11 A3015 RMK T01200110 IEM_DS3505
ZGKL,2007-03-21 18:00,ZGKL 211800Z AUTO 09002KT 2SM 12/11 A3012 RMK 60001 SLP214 T01210113 57009 IEM_DS3505
ZGKL,2007-03-21 19:00,ZGKL 211900Z AUTO 00000KT 1SM 12/11 A3012 RMK T01200110 IEM_DS3505
ZGKL,2007-03-21 20:00,ZGKL 212000Z AUTO 00000KT 1SM 12/12 A3009 RMK T01200120 IEM_DS3505
ZGKL,2007-03-21 21:00,ZGKL 212100Z AUTO 00000KT 2SM 12/11 A3009 RMK 70002 SLP202 T01230110 57011 IEM_DS3505
ZGKL,2007-03-21 22:00,ZGKL 212200Z AUTO 00000KT 1SM 12/12 A3009 RMK T01200120 IEM_DS3505
ZGKL,2007-03-21 23:00,ZGKL 212300Z AUTO 00000KT 1SM 12/12 A3012 RMK T01200120 IEM_DS3505
ZGKL,2007-03-22 00:00,ZGKL 220000Z AUTO 07002KT 1 1/4SM 12/12 A3012 RMK 70002 SLP210 T01250116 52007 IEM_DS3505
ZGKL,2007-03-22 01:00,ZGKL 220100Z AUTO 00000KT 1SM 13/12 A3015 RMK T01300120 IEM_DS3505
ZGKL,2007-03-22 02:00,ZGKL 220200Z AUTO 34002KT 1SM 13/12 A3015 RMK T01300120 IEM_DS3505
ZGKL,2007-03-22 03:00,ZGKL 220300Z AUTO 02002KT 1 1/4SM 14/12 A3012 RMK SLP216 T01350121 52006 IEM_DS3505
ZGKL,2007-03-22 04:00,ZGKL 220400Z AUTO 00000KT 1SM 14/12 A3012 RMK T01400120 IEM_DS3505
ZGKL,2007-03-22 05:00,ZGKL 220500Z AUTO 00000KT 1 1/2SM 14/13 A3009 RMK T01400130 IEM_DS3505
ZGKL,2007-03-22 06:00,ZGKL 220600Z AUTO 32002KT 1 1/4SM 16/13 A3006 RMK SLP184 T01600126 57030 IEM_DS3505
ZGKL,2007-03-22 07:00,ZGKL 220700Z AUTO 30002KT 2 1/2SM 17/13 A3000 RMK T01700130 IEM_DS3505
ZGKL,2007-03-22 08:00,ZGKL 220800Z AUTO 32004KT 4SM 18/13 A2997 RMK T01800130 IEM_DS3505
ZGKL,2007-03-22 09:00,ZGKL 220900Z AUTO 27002KT 2SM 18/13 A2997 RMK SLP156 T01780131 57027 IEM_DS3505
ZGKL,2007-03-22 10:00,ZGKL 221000Z AUTO 31002KT 3SM 18/13 A2994 RMK T01800130 IEM_DS3505
ZGKL,2007-03-22 11:00,ZGKL 221100Z AUTO 00000KT 2 1/2SM 17/14 A2997 RMK T01700140 IEM_DS3505
ZGKL,2007-03-22 12:00,ZGKL 221200Z AUTO 00000KT 2SM 16/13 A2997 RMK SLP162 T01590134 52005 IEM_DS3505
ZGKL,2007-03-22 13:00,ZGKL 221300Z AUTO 00000KT 2SM 16/14 A3000 RMK T01600140 IEM_DS3505
ZGKL,2007-03-22 14:00,ZGKL 221400Z AUTO 11002KT 1 1/2SM 16/13 A3003 RMK T01600130 IEM_DS3505
ZGKL,2007-03-22 15:00,ZGKL 221500Z AUTO 27002KT 2SM 16/14 A3003 RMK SLP174 T01550137 52012 IEM_DS3505
ZGKL,2007-03-22 16:00,ZGKL 221600Z AUTO 00000KT 1 1/4SM 15/14 A3000 RMK T01500140 IEM_DS3505
ZGKL,2007-03-22 17:00,ZGKL 221700Z AUTO 00000KT 1SM 15/14 A3000 RMK T01500140 IEM_DS3505
ZGKL,2007-03-22 18:00,ZGKL 221800Z AUTO 02002KT 2SM 15/14 A3000 RMK SLP166 T01530138 57007 IEM_DS3505
ZGKL,2007-03-22 19:00,ZGKL 221900Z AUTO 00000KT 1SM 15/14 A3000 RMK T01500140 IEM_DS3505
ZGKL,2007-03-22 20:00,ZGKL 222000Z AUTO 00000KT 1SM 15/14 A2997 RMK T01500140 IEM_DS3505
ZGKL,2007-03-22 21:00,ZGKL 222100Z AUTO 09002KT 2SM 15/14 A3000 RMK 70001 SLP160 T01520141 57005 IEM_DS3505
ZGKL,2007-03-22 22:00,ZGKL 222200Z AUTO 15002KT 1SM 15/14 A3000 RMK T01500140 IEM_DS3505
ZGKL,2007-03-22 23:00,ZGKL 222300Z AUTO 18004KT 1/2SM 15/14 A3000 RMK T01500140 IEM_DS3505
ZGKL,2007-03-23 00:00,ZGKL 230000Z AUTO 04002KT 1 1/4SM 15/15 A3000 RMK 60001 70001 SLP172 T01540146 52011 IEM_DS3505
ZGKL,2007-03-23 01:00,ZGKL 230100Z AUTO 3/8SM 15/15 A3003 RMK T01500150 IEM_DS3505
ZGKL,2007-03-23 02:00,ZGKL 230200Z AUTO 1/4SM 16/15 A3003 RMK T01600150 IEM_DS3505
ZGKL,2007-03-23 03:00,ZGKL 230300Z AUTO 00000KT 1 1/4SM 16/16 A3003 RMK SLP174 T01650159 52002 IEM_DS3505
ZGKL,2007-03-23 04:00,ZGKL 230400Z AUTO 00000KT 3/8SM 16/16 A3000 RMK T01600160 IEM_DS3505
ZGKL,2007-03-23 05:00,ZGKL 230500Z AUTO 1SM 17/16 A2997 RMK T01700160 IEM_DS3505
ZGKL,2007-03-23 06:00,ZGKL 230600Z AUTO 14002KT 2SM 20/18 A2994 RMK 60004 SLP142 T02050179 57030 IEM_DS3505
ZGKL,2007-03-23 07:00,ZGKL 230700Z AUTO 1SM 18/17 A2988 RMK T01800170 IEM_DS3505
ZGKL,2007-03-23 08:00,ZGKL 230800Z AUTO 1SM 18/17 A2988 RMK T01800170 IEM_DS3505
ZGKL,2007-03-23 09:00,ZGKL 230900Z AUTO 18002KT 4SM 20/18 A2988 RMK SLP127 T01960176 57015 IEM_DS3505
ZGKL,2007-03-23 10:00,ZGKL 231000Z AUTO 34004KT 1SM 18/17 A2988 RMK T01800170 IEM_DS3505
ZGKL,2007-03-23 11:00,ZGKL 231100Z AUTO 1SM 18/17 A2985 RMK T01800170 IEM_DS3505
ZGKL,2007-03-23 12:00,ZGKL 231200Z AUTO 07002KT 4SM 19/17 A2988 RMK SLP120 T01860173 57007 IEM_DS3505
ZGKL,2007-03-23 13:00,ZGKL 231300Z AUTO 07004KT 1SM 18/17 A2988 RMK T01800170 IEM_DS3505
ZGKL,2007-03-23 14:00,ZGKL 231400Z AUTO 32004KT 1/2SM 18/17 A2991 RMK T01800170 IEM_DS3505
ZGKL,2007-03-23 15:00,ZGKL 231500Z AUTO 04002KT 2 1/2SM 18/17 A2991 RMK SLP134 T01810173 52014 IEM_DS3505
ZGKL,2007-03-23 16:00,ZGKL 231600Z AUTO 3/8SM 17/17 A2991 RMK T01700170 IEM_DS3505
ZGKL,2007-03-23 17:00,ZGKL 231700Z AUTO 00000KT 17/17 A2991 RMK T01700170 IEM_DS3505
ZGKL,2007-03-23 18:00,ZGKL 231800Z AUTO 22002KT 2SM 17/17 A2988 RMK 60003 SLP128 T01740171 57005 IEM_DS3505
ZGKL,2007-03-23 19:00,ZGKL 231900Z AUTO 00000KT 17/16 A2988 RMK T01700160 IEM_DS3505
ZGKL,2007-03-23 20:00,ZGKL 232000Z AUTO 00000KT 17/16 A2988 RMK T01700160 IEM_DS3505
ZGKL,2007-03-23 21:00,ZGKL 232100Z AUTO 34002KT 2SM 17/17 A2988 RMK 70020 SLP122 T01720172 57006 IEM_DS3505
ZGKL,2007-03-23 22:00,ZGKL 232200Z AUTO 00000KT 1/4SM 17/16 A2988 RMK T01700160 IEM_DS3505
ZGKL,2007-03-23 23:00,ZGKL 232300Z AUTO 00000KT 1/4SM 17/16 A2988 RMK T01700160 IEM_DS3505
ZGKL,2007-03-24 00:00,ZGKL 240000Z AUTO 22002KT 1/2SM 17/17 A2988 RMK 60012 70020 SLP129 T01740174 52006 IEM_DS3505
ZGKL,2007-03-24 01:00,ZGKL 240100Z AUTO 00000KT 1/2SM 18/17 A2991 RMK T01800170 IEM_DS3505
ZGKL,2007-03-24 02:00,ZGKL 240200Z AUTO 34004KT 4SM 18/18 A2991 RMK T01800180 IEM_DS3505
ZGKL,2007-03-24 03:00,ZGKL 240300Z AUTO 14002KT 1 1/4SM 18/18 A2991 RMK SLP137 T01850185 52008 IEM_DS3505
ZGKL,2007-03-24 04:00,ZGKL 240400Z AUTO 5SM 20/18 A2988 RMK T02000180 IEM_DS3505
ZGKL,2007-03-24 05:00,ZGKL 240500Z AUTO 00000KT 4SM 20/18 A2985 RMK T02000180 IEM_DS3505
ZGKL,2007-03-24 06:00,ZGKL 240600Z AUTO 14002KT 2SM 21/19 A2983 RMK 60004 SLP106 T02060189 57030 IEM_DS3505
ZGKL,2007-03-24 07:00,ZGKL 240700Z AUTO 00000KT 3SM 21/19 A2980 RMK T02100190 IEM_DS3505
ZGKL,2007-03-24 08:00,ZGKL 240800Z AUTO 00000KT 3SM 22/19 A2980 RMK T02200190 IEM_DS3505
ZGKL,2007-03-24 09:00,ZGKL 240900Z AUTO 20002KT 2 1/2SM 23/19 A2977 RMK SLP087 T02310193 57018 IEM_DS3505
ZGKL,2007-03-24 10:00,ZGKL 241000Z AUTO 00000KT 2 1/2SM 22/19 A2977 RMK T02200190 IEM_DS3505
ZGKL,2007-03-24 11:00,ZGKL 241100Z AUTO 00000KT 2SM 20/19 A2980 RMK T02000190 IEM_DS3505
ZGKL,2007-03-24 12:00,ZGKL 241200Z AUTO 34004KT 2SM 21/18 A2983 RMK SLP099 T02090183 52012 IEM_DS3505
ZGKL,2007-03-24 13:00,ZGKL 241300Z AUTO 00000KT 1SM 20/19 A2985 RMK T02000190 IEM_DS3505
ZGKL,2007-03-24 14:00,ZGKL 241400Z AUTO 00000KT 1 1/4SM 20/19 A2985 RMK T02000190 IEM_DS3505
ZGKL,2007-03-24 15:00,ZGKL 241500Z AUTO 04008KT 2SM 20/16 A2988 RMK SLP123 T01990155 52023 IEM_DS3505
ZGKL,2007-03-24 16:00,ZGKL 241600Z AUTO 04006KT 20/17 A2988 RMK T02000170 IEM_DS3505
ZGKL,2007-03-24 17:00,ZGKL 241700Z AUTO 06004KT 19/16 A2988 RMK T01900160 IEM_DS3505
ZGKL,2007-03-24 18:00,ZGKL 241800Z AUTO 04004KT 4SM 19/14 A2985 RMK SLP118 T01870144 57004 IEM_DS3505
ZGKL,2007-03-24 19:00,ZGKL 241900Z AUTO 00000KT 18/16 A2985 RMK T01800160 IEM_DS3505
ZGKL,2007-03-24 20:00,ZGKL 242000Z AUTO 00000KT 18/16 A2985 RMK T01800160 IEM_DS3505
ZGKL,2007-03-24 21:00,ZGKL 242100Z AUTO 02004KT 5SM 18/13 A2983 RMK 70005 SLP108 T01830130 57010 IEM_DS3505
ZGKL,2007-03-24 22:00,ZGKL 242200Z AUTO 00000KT 2 1/2SM 18/16 A2983 RMK T01800160 IEM_DS3505
ZGKL,2007-03-24 23:00,ZGKL 242300Z AUTO 00000KT 2SM 18/16 A2983 RMK T01800160 IEM_DS3505
ZGKL,2007-03-25 00:00,ZGKL 250000Z AUTO 02006KT 6SM 18/12 A2985 RMK 70004 SLP111 T01810125 52003 IEM_DS3505
ZGKL,2007-03-25 01:00,ZGKL 250100Z AUTO 1 1/4SM 17/16 A2988 RMK T01700160 IEM_DS3505
ZGKL,2007-03-25 02:00,ZGKL 250200Z AUTO 1 1/4SM 17/16 A2988 RMK T01700160 IEM_DS3505
ZGKL,2007-03-25 03:00,ZGKL 250300Z AUTO 02004KT 3SM 16/14 A2991 RMK SLP131 T01550140 52018 IEM_DS3505
ZGKL,2007-03-25 04:00,ZGKL 250400Z AUTO 00000KT 2 1/2SM 16/15 A2988 RMK T01600150 IEM_DS3505
ZGKL,2007-03-25 05:00,ZGKL 250500Z AUTO 13004KT 2 1/2SM 16/15 A2985 RMK T01600150 IEM_DS3505
ZGKL,2007-03-25 06:00,ZGKL 250600Z AUTO 02006KT 4SM 17/13 A2983 RMK 60039 SLP103 T01670134 57027 IEM_DS3505
ZGKL,2007-03-25 07:00,ZGKL 250700Z AUTO 17004KT 3SM 17/15 A2980 RMK T01700150 IEM_DS3505
ZGKL,2007-03-25 08:00,ZGKL 250800Z AUTO 3SM 17/15 A2977 RMK T01700150 IEM_DS3505
ZGKL,2007-03-25 09:00,ZGKL 250900Z AUTO 07002KT 4SM 17/14 A2980 RMK SLP092 T01700141 57011 IEM_DS3505
ZGKL,2007-03-25 10:00,ZGKL 251000Z AUTO 05004KT 3SM 17/14 A2980 RMK T01700140 IEM_DS3505
ZGKL,2007-03-25 11:00,ZGKL 251100Z AUTO 15004KT 2 1/2SM 17/15 A2980 RMK T01700150 IEM_DS3505
ZGKL,2007-03-25 12:00,ZGKL 251200Z AUTO 04002KT 4SM 17/14 A2980 RMK 60000 SLP101 T01660143 52008 IEM_DS3505
ZGKL,2007-03-25 13:00,ZGKL 251300Z AUTO 00000KT 1 1/2SM 17/16 A2983 RMK T01700160 IEM_DS3505
ZGKL,2007-03-25 14:00,ZGKL 251400Z AUTO 00000KT 2 1/2SM 17/15 A2983 RMK T01700150 IEM_DS3505
ZGKL,2007-03-25 15:00,ZGKL 251500Z AUTO 02004KT 4SM 16/14 A2983 RMK SLP104 T01640139 52002 IEM_DS3505
ZGKL,2007-03-25 16:00,ZGKL 251600Z AUTO 00000KT 1 1/2SM 16/15 A2983 RMK T01600150 IEM_DS3505
ZGKL,2007-03-25 17:00,ZGKL 251700Z AUTO 00000KT 1 1/2SM 16/15 A2980 RMK T01600150 IEM_DS3505
ZGKL,2007-03-25 18:00,ZGKL 251800Z AUTO 07002KT 4SM 15/15 A2980 RMK 60039 SLP098 T01540146 57005 IEM_DS3505
ZGKL,2007-03-25 19:00,ZGKL 251900Z AUTO 00000KT 15/15 A2980 RMK T01500150 IEM_DS3505
ZGKL,2007-03-25 20:00,ZGKL 252000Z AUTO 00000KT 15/15 A2977 RMK T01500150 IEM_DS3505
ZGKL,2007-03-25 21:00,ZGKL 252100Z AUTO 29004KT 2 1/2SM 15/15 A2977 RMK 70091 SLP084 T01540148 57014 IEM_DS3505
ZGKL,2007-03-25 22:00,ZGKL 252200Z AUTO 00000KT 1 1/2SM 15/15 A2977 RMK T01500150 IEM_DS3505
ZGKL,2007-03-25 23:00,ZGKL 252300Z AUTO 00000KT 1 1/4SM 15/15 A2977 RMK T01500150 IEM_DS3505
ZGKL,2007-03-26 00:00,ZGKL 260000Z AUTO 00000KT 2SM 15/15 A2980 RMK 60016 70097 SLP094 T01540148 52010 IEM_DS3505
ZGKL,2007-03-26 01:00,ZGKL 260100Z AUTO 00000KT 1SM 15/15 A2980 RMK T01500150 IEM_DS3505
ZGKL,2007-03-26 02:00,ZGKL 260200Z AUTO 00000KT 1SM 16/15 A2983 RMK T01600150 IEM_DS3505
ZGKL,2007-03-26 03:00,ZGKL 260300Z AUTO 36002KT 1 1/4SM 16/15 A2980 RMK SLP099 T01610151 52005 IEM_DS3505
ZGKL,2007-03-26 04:00,ZGKL 260400Z AUTO 00000KT 1SM 16/15 A2977 RMK T01600150 IEM_DS3505
ZGKL,2007-03-26 05:00,ZGKL 260500Z AUTO 00000KT 1 1/2SM 17/15 A2977 RMK T01700150 IEM_DS3505
ZGKL,2007-03-26 06:00,ZGKL 260600Z AUTO 02002KT 2SM 17/16 A2974 RMK 60008 SLP074 T01680157 57025 IEM_DS3505
ZGKL,2007-03-26 07:00,ZGKL 260700Z AUTO 00000KT 2 1/2SM 18/16 A2971 RMK T01800160 IEM_DS3505
ZGKL,2007-03-26 08:00,ZGKL 260800Z AUTO 00000KT 2 1/2SM 18/16 A2971 RMK T01800160 IEM_DS3505
ZGKL,2007-03-26 09:00,ZGKL 260900Z AUTO 04002KT 2SM 18/16 A2971 RMK SLP069 T01790162 57004 IEM_DS3505
ZGKL,2007-03-26 10:00,ZGKL 261000Z AUTO 4SM 18/16 A2974 RMK T01800160 IEM_DS3505
ZGKL,2007-03-26 11:00,ZGKL 261100Z AUTO 00000KT 4SM 18/16 A2977 RMK T01800160 IEM_DS3505
ZGKL,2007-03-26 12:00,ZGKL 261200Z AUTO 02002KT 2SM 18/17 A2980 RMK 60002 SLP094 T01760170 52024 IEM_DS3505
ZGKL,2007-03-26 13:00,ZGKL 261300Z AUTO 00000KT 3SM 19/17 A2983 RMK T01900170 IEM_DS3505
ZGKL,2007-03-26 14:00,ZGKL 261400Z AUTO 05006KT 2 1/2SM 18/17 A2985 RMK T01800170 IEM_DS3505
ZGKL,2007-03-26 15:00,ZGKL 261500Z AUTO 36006KT 3SM 18/16 A2988 RMK SLP126 T01790161 52032 IEM_DS3505
ZGKL,2007-03-26 16:00,ZGKL 261600Z AUTO 00000KT 2SM 18/17 A2991 RMK T01800170 IEM_DS3505
ZGKL,2007-03-26 17:00,ZGKL 261700Z AUTO 00000KT 1 1/4SM 18/17 A2991 RMK T01800170 IEM_DS3505
ZGKL,2007-03-26 18:00,ZGKL 261800Z AUTO 36010KT 3SM 18/15 A2991 RMK 60000 SLP141 T01750148 52014 IEM_DS3505
ZGKL,2007-03-26 19:00,ZGKL 261900Z AUTO 18004KT 17/16 A2994 RMK T01700160 IEM_DS3505
ZGKL,2007-03-26 20:00,ZGKL 262000Z AUTO 06004KT 17/15 A2994 RMK T01700150 IEM_DS3505
ZGKL,2007-03-26 21:00,ZGKL 262100Z AUTO 02008KT 5SM 16/13 A2994 RMK 70021 SLP150 T01640133 52009 IEM_DS3505
ZGKL,2007-03-26 22:00,ZGKL 262200Z AUTO 00000KT 4SM 16/15 A2997 RMK T01600150 IEM_DS3505
ZGKL,2007-03-26 23:00,ZGKL 262300Z AUTO 5SM 16/14 A2997 RMK T01600140 IEM_DS3505
ZGKL,2007-03-27 00:00,ZGKL 270000Z AUTO 04006KT 9SM 16/12 A3000 RMK 60004 70015 SLP172 T01620122 52022 IEM_DS3505
ZGKL,2007-03-27 01:00,ZGKL 270100Z AUTO 5SM 17/13 A3003 RMK T01700130 IEM_DS3505
ZGKL,2007-03-27 02:00,ZGKL 270200Z AUTO 7SM 18/14 A3003 RMK T01800140 IEM_DS3505
ZGKL,2007-03-27 03:00,ZGKL 270300Z AUTO 02008KT 10SM 19/12 A3003 RMK SLP173 T01920118 52002 IEM_DS3505
ZGKL,2007-03-27 04:00,ZGKL 270400Z AUTO 7SM 21/12 A3000 RMK T02100120 IEM_DS3505
ZGKL,2007-03-27 05:00,ZGKL 270500Z AUTO 6SM 23/12 A2997 RMK T02300120 IEM_DS3505
ZGKL,2007-03-27 06:00,ZGKL 270600Z AUTO 36006KT 14SM 24/11 A2994 RMK SLP141 T02430106 57030 IEM_DS3505
ZGKL,2007-03-27 07:00,ZGKL 270700Z AUTO 6SM 24/12 A2991 RMK T02400120 IEM_DS3505
ZGKL,2007-03-27 08:00,ZGKL 270800Z AUTO 08006KT 6SM 25/11 A2988 RMK T02500110 IEM_DS3505
ZGKL,2007-03-27 09:00,ZGKL 270900Z AUTO 07004KT 16SM 25/10 A2988 RMK SLP122 T02500097 57019 IEM_DS3505
ZGKL,2007-03-27 10:00,ZGKL 271000Z AUTO 07004KT 6SM 24/12 A2988 RMK T02400120 IEM_DS3505
ZGKL,2007-03-27 11:00,ZGKL 271100Z AUTO 06004KT 6SM 23/12 A2991 RMK T02300120 IEM_DS3505
ZGKL,2007-03-27 12:00,ZGKL 271200Z AUTO 02004KT 11SM 20/12 A2991 RMK SLP139 T02010121 52015 IEM_DS3505
ZGKL,2007-03-27 13:00,ZGKL 271300Z AUTO 6SM 19/13 A2994 RMK T01900130 IEM_DS3505
ZGKL,2007-03-27 14:00,ZGKL 271400Z AUTO 6SM 19/14 A2997 RMK T01900140 IEM_DS3505
ZGKL,2007-03-27 15:00,ZGKL 271500Z AUTO 36002KT 11SM 18/12 A2997 RMK SLP159 T01850118 52020 IEM_DS3505
ZGKL,2007-03-27 16:00,ZGKL 271600Z AUTO 34002KT 6SM 17/15 A3000 RMK T01700150 IEM_DS3505
ZGKL,2007-03-27 17:00,ZGKL 271700Z AUTO 00000KT 5SM 16/14 A2997 RMK T01600140 IEM_DS3505
ZGKL,2007-03-27 18:00,ZGKL 271800Z AUTO 04002KT 10SM 17/12 A2994 RMK SLP147 T01730120 57010 IEM_DS3505
ZGKL,2007-03-27 19:00,ZGKL 271900Z AUTO 00000KT 16/15 A2994 RMK T01600150 IEM_DS3505
ZGKL,2007-03-27 20:00,ZGKL 272000Z AUTO 00000KT 16/15 A2994 RMK T01600150 IEM_DS3505
ZGKL,2007-03-27 21:00,ZGKL 272100Z AUTO 07002KT 9SM 16/13 A2994 RMK SLP143 T01640131 57004 IEM_DS3505
ZGKL,2007-03-27 22:00,ZGKL 272200Z AUTO 00000KT 5SM 16/15 A2994 RMK T01600150 IEM_DS3505
ZGKL,2007-03-27 23:00,ZGKL 272300Z AUTO 00000KT 5SM 16/15 A2994 RMK T01600150 IEM_DS3505
ZGKL,2007-03-28 00:00,ZGKL 280000Z AUTO 04002KT 9SM 16/13 A2997 RMK SLP160 T01650130 52015 IEM_DS3505
ZGKL,2007-03-28 01:00,ZGKL 280100Z AUTO 00000KT 7SM 18/15 A3000 RMK T01800150 IEM_DS3505
ZGKL,2007-03-28 02:00,ZGKL 280200Z AUTO 00000KT 7SM 19/15 A3000 RMK T01900150 IEM_DS3505
ZGKL,2007-03-28 03:00,ZGKL 280300Z AUTO 07002KT 9SM 21/13 A3000 RMK SLP163 T02070129 52004 IEM_DS3505
ZGKL,2007-03-28 04:00,ZGKL 280400Z AUTO 7SM 21/15 A2997 RMK T02100150 IEM_DS3505
ZGKL,2007-03-28 05:00,ZGKL 280500Z AUTO 00000KT 7SM 22/15 A2994 RMK T02200150 IEM_DS3505
ZGKL,2007-03-28 06:00,ZGKL 280600Z AUTO 16004KT 9SM 23/14 A2991 RMK SLP129 T02330143 57033 IEM_DS3505
ZGKL,2007-03-28 07:00,ZGKL 280700Z AUTO 15004KT 7SM 22/15 A2988 RMK T02200150 IEM_DS3505
ZGKL,2007-03-28 08:00,ZGKL 280800Z AUTO 00000KT 7SM 22/15 A2985 RMK T02200150 IEM_DS3505
ZGKL,2007-03-28 09:00,ZGKL 280900Z AUTO 14002KT 8SM 23/16 A2985 RMK SLP116 T02280161 57013 IEM_DS3505
ZGKL,2007-03-28 10:00,ZGKL 281000Z AUTO 7SM 22/17 A2988 RMK T02200170 IEM_DS3505
ZGKL,2007-03-28 11:00,ZGKL 281100Z AUTO 00000KT 5SM 21/18 A2988 RMK T02100180 IEM_DS3505
ZGKL,2007-03-28 12:00,ZGKL 281200Z AUTO 18002KT 7SM 21/17 A2991 RMK 60000 SLP131 T02130167 52014 IEM_DS3505
ZGKL,2007-03-28 13:00,ZGKL 281300Z AUTO 00000KT 3SM 20/18 A2991 RMK T02000180 IEM_DS3505
ZGKL,2007-03-28 14:00,ZGKL 281400Z AUTO 00000KT 3SM 20/18 A2994 RMK T02000180 IEM_DS3505
ZGKL,2007-03-28 15:00,ZGKL 281500Z AUTO 04002KT 6SM 20/18 A2994 RMK SLP145 T02020180 52015 IEM_DS3505
ZGKL,2007-03-28 16:00,ZGKL 281600Z AUTO 00000KT 3SM 19/18 A2994 RMK T01900180 IEM_DS3505
ZGKL,2007-03-28 17:00,ZGKL 281700Z AUTO 00000KT 3SM 19/18 A2991 RMK T01900180 IEM_DS3505
ZGKL,2007-03-28 18:00,ZGKL 281800Z AUTO 02002KT 5SM 20/18 A2988 RMK 60001 SLP123 T01960183 57021 IEM_DS3505
ZGKL,2007-03-28 19:00,ZGKL 281900Z AUTO 00000KT 19/18 A2988 RMK T01900180 IEM_DS3505
ZGKL,2007-03-28 20:00,ZGKL 282000Z AUTO 00000KT 19/18 A2985 RMK T01900180 IEM_DS3505
ZGKL,2007-03-28 21:00,ZGKL 282100Z AUTO 04002KT 3SM 19/18 A2985 RMK 70001 SLP111 T01940177 57012 IEM_DS3505
ZGKL,2007-03-28 22:00,ZGKL 282200Z AUTO 00000KT 2SM 19/18 A2985 RMK T01900180 IEM_DS3505
ZGKL,2007-03-28 23:00,ZGKL 282300Z AUTO 00000KT 2SM 19/18 A2988 RMK T01900180 IEM_DS3505
ZGKL,2007-03-29 00:00,ZGKL 290000Z AUTO 04002KT 3SM 20/18 A2988 RMK 70001 SLP124 T01950182 52012 IEM_DS3505
ZGKL,2007-03-29 01:00,ZGKL 290100Z AUTO 00000KT 2 1/2SM 19/18 A2991 RMK T01900180 IEM_DS3505
ZGKL,2007-03-29 02:00,ZGKL 290200Z AUTO 00000KT 2 1/2SM 21/18 A2991 RMK T02100180 IEM_DS3505
ZGKL,2007-03-29 03:00,ZGKL 290300Z AUTO 02002KT 1/2SM 19/19 A2991 RMK SLP134 T01920189 52009 IEM_DS3505
ZGKL,2007-03-29 04:00,ZGKL 290400Z AUTO 00000KT 2 1/2SM 22/18 A2988 RMK T02200180 IEM_DS3505
ZGKL,2007-03-29 05:00,ZGKL 290500Z AUTO 2 1/2SM 23/19 A2985 RMK T02300190 IEM_DS3505
ZGKL,2007-03-29 06:00,ZGKL 290600Z AUTO 36002KT 1 1/4SM 21/19 A2983 RMK SLP108 T02110192 57025 IEM_DS3505
ZGKL,2007-03-29 07:00,ZGKL 290700Z AUTO 30004KT 2 1/2SM 24/20 A2980 RMK T02400200 IEM_DS3505
ZGKL,2007-03-29 08:00,ZGKL 290800Z AUTO 2 1/2SM 23/20 A2980 RMK T02300200 IEM_DS3505
ZGKL,2007-03-29 09:00,ZGKL 290900Z AUTO 09002KT 1 1/4SM 22/20 A2980 RMK SLP091 T02220199 57016 IEM_DS3505
ZGKL,2007-03-29 10:00,ZGKL 291000Z AUTO 00000KT 2 1/2SM 23/20 A2980 RMK T02300200 IEM_DS3505
ZGKL,2007-03-29 11:00,ZGKL 291100Z AUTO 00000KT 2SM 22/20 A2980 RMK T02200200 IEM_DS3505
ZGKL,2007-03-29 12:00,ZGKL 291200Z AUTO 25002KT 1 1/4SM 21/20 A2983 RMK SLP102 T02140197 52010 IEM_DS3505
ZGKL,2007-03-29 13:00,ZGKL 291300Z AUTO 1 1/4SM 22/20 A2985 RMK T02200200 IEM_DS3505
ZGKL,2007-03-29 14:00,ZGKL 291400Z AUTO 00000KT 1SM 22/20 A2985 RMK T02200200 IEM_DS3505
ZGKL,2007-03-29 15:00,ZGKL 291500Z AUTO 22002KT 1 1/4SM 21/20 A2985 RMK SLP112 T02070199 52010 IEM_DS3505
ZGKL,2007-03-29 16:00,ZGKL 291600Z AUTO 00000KT 1SM 21/20 A2985 RMK T02100200 IEM_DS3505
ZGKL,2007-03-29 17:00,ZGKL 291700Z AUTO 1SM 21/20 A2985 RMK T02100200 IEM_DS3505
ZGKL,2007-03-29 18:00,ZGKL 291800Z AUTO 14002KT 1SM 20/20 A2983 RMK SLP105 T02030203 57007 IEM_DS3505
ZGKL,2007-03-29 19:00,ZGKL 291900Z AUTO 00000KT A2980 RMK IEM_DS3505
ZGKL,2007-03-29 20:00,ZGKL 292000Z AUTO 00000KT 21/20 A2980 RMK T02100200 IEM_DS3505
ZGKL,2007-03-29 21:00,ZGKL 292100Z AUTO 18002KT 1 1/4SM A2980 RMK SLP098 57006 IEM_DS3505
ZGKL,2007-03-29 22:00,ZGKL 292200Z AUTO 00000KT 3SM 22/20 A2983 RMK T02200200 IEM_DS3505
ZGKL,2007-03-29 23:00,ZGKL 292300Z AUTO 19008KT 7SM 23/20 A2985 RMK T02300200 IEM_DS3505
ZGKL,2007-03-30 00:00,ZGKL 300000Z AUTO 20002KT 4SM 22/21 A2985 RMK SLP115 T02150207 52017 IEM_DS3505
ZGKL,2007-03-30 01:00,ZGKL 300100Z AUTO 17012KT 7SM 25/21 A2985 RMK T02500210 IEM_DS3505
ZGKL,2007-03-30 02:00,ZGKL 300200Z AUTO 17014KT 7SM 26/20 A2985 RMK T02600200 IEM_DS3505
ZGKL,2007-03-30 03:00,ZGKL 300300Z AUTO 18006KT 8SM 26/20 A2985 RMK SLP111 T02650201 57003 IEM_DS3505
ZGKL,2007-03-30 04:00,ZGKL 300400Z AUTO 18016KT 7SM 28/20 A2983 RMK T02800200 IEM_DS3505
ZGKL,2007-03-30 05:00,ZGKL 300500Z AUTO 18014KT 7SM 28/20 A2980 RMK T02800200 IEM_DS3505
ZGKL,2007-03-30 06:00,ZGKL 300600Z AUTO 18008KT 11SM 29/19 A2974 RMK SLP071 T02910194 57038 IEM_DS3505
ZGKL,2007-03-30 07:00,ZGKL 300700Z AUTO 19016KT 7SM 28/20 A2971 RMK T02800200 IEM_DS3505
ZGKL,2007-03-30 08:00,ZGKL 300800Z AUTO 18014KT 7SM 27/20 A2971 RMK T02700200 IEM_DS3505
ZGKL,2007-03-30 09:00,ZGKL 300900Z AUTO 20006KT 10SM 28/20 A2971 RMK SLP053 T02790199 57018 IEM_DS3505
ZGKL,2007-03-30 10:00,ZGKL 301000Z AUTO 21010KT 7SM 26/20 A2971 RMK T02600200 IEM_DS3505
ZGKL,2007-03-30 11:00,ZGKL 301100Z AUTO 18012KT 5SM 26/20 A2971 RMK T02600200 IEM_DS3505
ZGKL,2007-03-30 12:00,ZGKL 301200Z AUTO 22004KT 6SM 26/20 A2974 RMK SLP071 T02610200 52017 IEM_DS3505
ZGKL,2007-03-30 13:00,ZGKL 301300Z AUTO 18006KT 4SM 25/20 A2977 RMK T02500200 IEM_DS3505
ZGKL,2007-03-30 14:00,ZGKL 301400Z AUTO 19014KT 4SM 25/20 A2980 RMK T02500200 IEM_DS3505
ZGKL,2007-03-30 15:00,ZGKL 301500Z AUTO 18006KT 5SM 24/21 A2980 RMK SLP090 T02360211 52020 IEM_DS3505
ZGKL,2007-03-30 16:00,ZGKL 301600Z AUTO 18004KT 4SM 23/21 A2980 RMK T02300210 IEM_DS3505
ZGKL,2007-03-30 17:00,ZGKL 301700Z AUTO 28002KT 2 1/2SM 22/21 A2977 RMK T02200210 IEM_DS3505
ZGKL,2007-03-30 18:00,ZGKL 301800Z AUTO 18002KT 4SM 23/22 A2977 RMK 60004 SLP082 T02290215 57008 IEM_DS3505
ZGKL,2007-03-30 19:00,ZGKL 301900Z AUTO 00000KT 23/21 A2977 RMK T02300210 IEM_DS3505
ZGKL,2007-03-30 20:00,ZGKL 302000Z AUTO 00000KT 22/21 A2974 RMK T02200210 IEM_DS3505
ZGKL,2007-03-30 21:00,ZGKL 302100Z AUTO 18004KT 4SM 23/21 A2974 RMK 70005 SLP073 T02280213 57009 IEM_DS3505
ZGKL,2007-03-30 22:00,ZGKL 302200Z AUTO 00000KT 3SM 23/21 A2977 RMK T02300210 IEM_DS3505
ZGKL,2007-03-30 23:00,ZGKL 302300Z AUTO 3SM 23/21 A2977 RMK T02300210 IEM_DS3505
ZGKL,2007-03-31 00:00,ZGKL 310000Z AUTO 18004KT 5SM 24/21 A2980 RMK 70005 SLP089 T02360211 52015 IEM_DS3505
ZGKL,2007-03-31 01:00,ZGKL 310100Z AUTO 18012KT 4SM 25/21 A2980 RMK T02500210 IEM_DS3505
ZGKL,2007-03-31 02:00,ZGKL 310200Z AUTO 18014KT 5SM 26/22 A2980 RMK T02600220 IEM_DS3505
ZGKL,2007-03-31 03:00,ZGKL 310300Z AUTO 18004KT 5SM 26/21 A2980 RMK SLP092 T02630211 52003 IEM_DS3505
ZGKL,2007-03-31 04:00,ZGKL 310400Z AUTO 18016KT 7SM 28/20 A2977 RMK T02800200 IEM_DS3505
ZGKL,2007-03-31 05:00,ZGKL 310500Z AUTO 18017KT 7SM 28/21 A2974 RMK T02800210 IEM_DS3505
ZGKL,2007-03-31 06:00,ZGKL 310600Z AUTO 20006KT 7SM 30/20 A2968 RMK SLP052 T02990205 57038 IEM_DS3505
ZGKL,2007-03-31 07:00,ZGKL 310700Z AUTO 18016KT 7SM 29/22 A2965 RMK T02900220 IEM_DS3505
ZGKL,2007-03-31 08:00,ZGKL 310800Z AUTO 19012KT 5SM 29/21 A2965 RMK T02900210 IEM_DS3505
ZGKL,2007-03-31 09:00,ZGKL 310900Z AUTO 18008KT 6SM 28/22 A2965 RMK SLP033 T02830216 57019 IEM_DS3505
ZGKL,2007-03-31 10:00,ZGKL 311000Z AUTO 17008KT 5SM 27/22 A2965 RMK T02700220 IEM_DS3505
ZGKL,2007-03-31 11:00,ZGKL 311100Z AUTO 13006KT 5SM 26/22 A2968 RMK T02600220 IEM_DS3505
ZGKL,2007-03-31 12:00,ZGKL 311200Z AUTO 18006KT 6SM 26/21 A2968 RMK SLP051 T02580210 52017 IEM_DS3505
ZGKL,2007-03-31 13:00,ZGKL 311300Z AUTO 11004KT 4SM 25/22 A2971 RMK T02500220 IEM_DS3505
ZGKL,2007-03-31 14:00,ZGKL 311400Z AUTO 4SM 25/22 A2971 RMK T02500220 IEM_DS3505
ZGKL,2007-03-31 15:00,ZGKL 311500Z AUTO 20004KT 6SM 25/21 A2971 RMK SLP061 T02520211 52011 IEM_DS3505
ZGKL,2007-03-31 16:00,ZGKL 311600Z AUTO 3SM 24/22 A2971 RMK T02400220 IEM_DS3505
ZGKL,2007-03-31 17:00,ZGKL 311700Z AUTO 3SM 24/22 A2971 RMK T02400220 IEM_DS3505
ZGKL,2007-03-31 18:00,ZGKL 311800Z AUTO 11002KT 6SM 24/21 A2968 RMK SLP049 T02450212 57011 IEM_DS3505
ZGKL,2007-03-31 19:00,ZGKL 311900Z AUTO 00000KT 23/22 A2965 RMK T02300220 IEM_DS3505
ZGKL,2007-03-31 20:00,ZGKL 312000Z AUTO 00000KT 23/22 A2965 RMK T02300220 IEM_DS3505
ZGKL,2007-03-31 21:00,ZGKL 312100Z AUTO 18004KT 6SM 25/21 A2965 RMK SLP037 T02480211 57013 IEM_DS3505
ZGKL,2007-03-31 22:00,ZGKL 312200Z AUTO 00000KT 3SM 23/22 A2965 RMK T02300220 IEM_DS3505
ZGKL,2007-03-31 23:00,ZGKL 312300Z AUTO 00000KT 3SM 23/21 A2968 RMK T02300210 IEM_DS3505
ZGKL,2007-04-01 00:00,ZGKL 010000Z AUTO 14002KT 6SM 24/21 A2971 RMK SLP055 T02450214 52017 IEM_DS3505
ZGKL,2007-04-01 01:00,ZGKL 010100Z AUTO 00000KT 2 1/2SM 24/22 A2971 RMK T02400220 IEM_DS3505
ZGKL,2007-04-01 02:00,ZGKL 010200Z AUTO 00000KT 3SM 26/22 A2971 RMK T02600220 IEM_DS3505
ZGKL,2007-04-01 03:00,ZGKL 010300Z AUTO 20004KT 6SM 26/21 A2971 RMK SLP061 T02590211 52006 IEM_DS3505
ZGKL,2007-04-01 04:00,ZGKL 010400Z AUTO 13006KT 3SM 27/22 A2971 RMK T02700220 IEM_DS3505
ZGKL,2007-04-01 05:00,ZGKL 010500Z AUTO 13006KT 3SM 27/22 A2968 RMK T02700220 IEM_DS3505
ZGKL,2007-04-01 06:00,ZGKL 010600Z AUTO 09002KT 6SM 27/21 A2965 RMK SLP042 T02680211 57018 IEM_DS3505
ZGKL,2007-04-01 07:00,ZGKL 010700Z AUTO 11004KT 4SM 27/22 A2965 RMK T02700220 IEM_DS3505
ZGKL,2007-04-01 08:00,ZGKL 010800Z AUTO 13004KT 5SM 27/22 A2962 RMK T02700220 IEM_DS3505
ZGKL,2007-04-01 09:00,ZGKL 010900Z AUTO 18002KT 4SM 27/22 A2962 RMK SLP028 T02700215 57014 IEM_DS3505
ZGKL,2007-04-01 10:00,ZGKL 011000Z AUTO 00000KT 4SM 26/22 A2962 RMK T02600220 IEM_DS3505
ZGKL,2007-04-01 11:00,ZGKL 011100Z AUTO 00000KT 4SM 25/22 A2965 RMK T02500220 IEM_DS3505
ZGKL,2007-04-01 12:00,ZGKL 011200Z AUTO 04004KT 5SM 25/22 A2968 RMK SLP052 T02530220 52023 IEM_DS3505
ZGKL,2007-04-01 13:00,ZGKL 011300Z AUTO 05014KT 2 1/2SM 24/20 A2974 RMK T02400200 IEM_DS3505
ZGKL,2007-04-01 14:00,ZGKL 011400Z AUTO 04016KT 2 1/2SM 22/17 A2980 RMK T02200170 IEM_DS3505
ZGKL,2007-04-01 15:00,ZGKL 011500Z AUTO 02012KT 5SM 20/15 A2983 RMK SLP099 T02050146 52045 IEM_DS3505
ZGKL,2007-04-01 16:00,ZGKL 011600Z AUTO 06008KT 3SM 20/16 A2983 RMK T02000160 IEM_DS3505
ZGKL,2007-04-01 17:00,ZGKL 011700Z AUTO 04010KT 2 1/2SM 20/16 A2985 RMK T02000160 IEM_DS3505
ZGKL,2007-04-01 18:00,ZGKL 011800Z AUTO 02012KT 6SM 19/11 A2985 RMK SLP109 T01920113 52010 IEM_DS3505
ZGKL,2007-04-01 19:00,ZGKL 011900Z AUTO 05008KT 19/14 A2985 RMK T01900140 IEM_DS3505
ZGKL,2007-04-01 20:00,ZGKL 012000Z AUTO 07004KT 18/14 A2985 RMK T01800140 IEM_DS3505
ZGKL,2007-04-01 21:00,ZGKL 012100Z AUTO 02014KT 7SM 18/09 A2985 RMK SLP109 T01800088 54000 IEM_DS3505
ZGKL,2007-04-01 22:00,ZGKL 012200Z AUTO 06010KT 2 1/2SM 17/11 A2988 RMK T01700110 IEM_DS3505
ZGKL,2007-04-01 23:00,ZGKL 012300Z AUTO 07014KT 2SM 15/13 A2994 RMK T01500130 IEM_DS3505
ZGKL,2007-04-02 00:00,ZGKL 020000Z AUTO 04008KT 4SM 14/11 A2997 RMK 60024 70024 SLP135 T01390109 52023 IEM_DS3505
ZGKL,2007-04-02 01:00,ZGKL 020100Z AUTO 3SM 15/12 A3000 RMK T01500120 IEM_DS3505
ZGKL,2007-04-02 02:00,ZGKL 020200Z AUTO 05017KT 4SM 15/11 A3006 RMK T01500110 IEM_DS3505
ZGKL,2007-04-02 03:00,ZGKL 020300Z AUTO 02012KT 7SM 15/09 A3006 RMK T01480092 52054 IEM_DS3505
ZGKL,2007-04-02 04:00,ZGKL 020400Z AUTO 04014KT 7SM 15/12 A3006 RMK T01500120 IEM_DS3505
ZGKL,2007-04-02 05:00,ZGKL 020500Z AUTO 01016KT 7SM 15/10 A3006 RMK T01500100 IEM_DS3505
ZGKL,2007-04-02 06:00,ZGKL 020600Z AUTO 02014KT 8SM 14/08 A3006 RMK 60004 SLP184 T01420082 57008 IEM_DS3505
ZGKL,2007-04-02 07:00,ZGKL 020700Z AUTO 03019KT 7SM 15/09 A3006 RMK T01500090 IEM_DS3505
ZGKL,2007-04-02 08:00,ZGKL 020800Z AUTO 04016KT 7SM 16/08 A3003 RMK T01600080 IEM_DS3505
ZGKL,2007-04-02 09:00,ZGKL 020900Z AUTO 02010KT 7SM 14/07 A3006 RMK SLP185 T01430069 52001 IEM_DS3505
ZGKL,2007-04-02 10:00,ZGKL 021000Z AUTO 03016KT 7SM 15/07 A3006 RMK T01500070 IEM_DS3505
ZGKL,2007-04-02 11:00,ZGKL 021100Z AUTO 02012KT 7SM 14/07 A3009 RMK T01400070 IEM_DS3505
ZGKL,2007-04-02 12:00,ZGKL 021200Z AUTO 02012KT 7SM 14/06 A3015 RMK SLP219 T01420058 52032 IEM_DS3505
ZGKL,2007-04-02 13:00,ZGKL 021300Z AUTO 03010KT 7SM 14/07 A3018 RMK T01400070 IEM_DS3505
ZGKL,2007-04-02 14:00,ZGKL 021400Z AUTO 7SM 14/07 A3021 RMK T01400070 IEM_DS3505
ZGKL,2007-04-02 15:00,ZGKL 021500Z AUTO 02010KT 7SM 14/07 A3021 RMK SLP242 T01400068 52023 IEM_DS3505
ZGKL,2007-04-02 16:00,ZGKL 021600Z AUTO 06006KT 7SM 14/07 A3021 RMK T01400070 IEM_DS3505
ZGKL,2007-04-02 17:00,ZGKL 021700Z AUTO 05012KT 7SM 14/08 A3021 RMK T01400080 IEM_DS3505
ZGKL,2007-04-02 18:00,ZGKL 021800Z AUTO 04008KT 7SM 13/06 A3021 RMK SLP243 T01340063 54000 IEM_DS3505
ZGKL,2007-04-02 19:00,ZGKL 021900Z AUTO 04014KT 7SM 13/07 A3021 RMK T01300070 IEM_DS3505
ZGKL,2007-04-02 20:00,ZGKL 022000Z AUTO 04010KT 7SM 12/06 A3018 RMK T01200060 IEM_DS3505
ZGKL,2007-04-02 21:00,ZGKL 022100Z AUTO 02010KT 6SM 12/02 A3018 RMK 70029 SLP236 T01190015 57007 IEM_DS3505
ZGKL,2007-04-02 22:00,ZGKL 022200Z AUTO 05014KT 7SM 12/03 A3021 RMK T01200030 IEM_DS3505
ZGKL,2007-04-02 23:00,ZGKL 022300Z AUTO 03012KT 7SM 12/02 A3024 RMK T01200020 IEM_DS3505
ZGKL,2007-04-03 00:00,ZGKL 030000Z AUTO 02010KT 7SM 12/02 A3027 RMK 70005 SLP260 T01160018 52023 IEM_DS3505
ZGKL,2007-04-03 01:00,ZGKL 030100Z AUTO 03012KT 7SM 12/02 A3030 RMK T01200020 IEM_DS3505
ZGKL,2007-04-03 02:00,ZGKL 030200Z AUTO 04012KT 7SM 12/02 A3030 RMK T01200020 IEM_DS3505
ZGKL,2007-04-03 03:00,ZGKL 030300Z AUTO 02008KT 7SM 11/02 A3030 RMK SLP275 T01110019 52015 IEM_DS3505
ZGKL,2007-04-03 04:00,ZGKL 030400Z AUTO 04014KT 7SM 12/01 A3030 RMK T01200010 IEM_DS3505
ZGKL,2007-04-03 05:00,ZGKL 030500Z AUTO 03012KT 7SM 12/00 A3030 RMK T01200000 IEM_DS3505
ZGKL,2007-04-03 06:00,ZGKL 030600Z AUTO 02008KT 10SM 11/M02 A3027 RMK SLP262 T01111016 57013 IEM_DS3505
ZGKL,2007-04-03 07:00,ZGKL 030700Z AUTO 04014KT 7SM 11/00 A3024 RMK T01100000 IEM_DS3505
ZGKL,2007-04-03 08:00,ZGKL 030800Z AUTO 05008KT 7SM 11/01 A3024 RMK T01100010 IEM_DS3505
ZGKL,2007-04-03 09:00,ZGKL 030900Z AUTO 02010KT 11SM 10/M00 A3024 RMK SLP249 T01031005 57014 IEM_DS3505
ZGKL,2007-04-03 10:00,ZGKL 031000Z AUTO 06008KT 7SM 10/01 A3024 RMK T01000010 IEM_DS3505
ZGKL,2007-04-03 11:00,ZGKL 031100Z AUTO 7SM 10/01 A3024 RMK T01000010 IEM_DS3505
ZGKL,2007-04-03 12:00,ZGKL 031200Z AUTO 02010KT 8SM 10/01 A3027 RMK 60000 SLP260 T00970014 52011 IEM_DS3505
ZGKL,2007-04-03 13:00,ZGKL 031300Z AUTO 7SM 09/04 A3030 RMK T00900040 IEM_DS3505
ZGKL,2007-04-03 14:00,ZGKL 031400Z AUTO 05004KT 7SM 09/04 A3030 RMK T00900040 IEM_DS3505
ZGKL,2007-04-03 15:00,ZGKL 031500Z AUTO 04004KT 8SM 08/04 A3033 RMK SLP282 T00850037 52021 IEM_DS3505
ZGKL,2007-04-03 16:00,ZGKL 031600Z AUTO 7SM 09/05 A3033 RMK T00900050 IEM_DS3505
ZGKL,2007-04-03 18:00,ZGKL 031800Z AUTO 02004KT 7SM 08/04 A3030 RMK 60004 SLP276 T00840038 57006 IEM_DS3505
ZGKL,2007-04-03 19:00,ZGKL 031900Z AUTO 11004KT 08/06 A3027 RMK T00800060 IEM_DS3505
ZGKL,2007-04-03 20:00,ZGKL 032000Z AUTO 08/05 A3027 RMK T00800050 IEM_DS3505
ZGKL,2007-04-03 21:00,ZGKL 032100Z AUTO 02006KT 7SM 08/04 A3024 RMK 70004 SLP258 T00840040 57018 IEM_DS3505
ZGKL,2007-04-03 22:00,ZGKL 032200Z AUTO 00000KT 6SM 08/06 A3027 RMK T00800060 IEM_DS3505
ZGKL,2007-04-03 23:00,ZGKL 032300Z AUTO 00000KT 3SM 08/06 A3027 RMK T00800060 IEM_DS3505
ZGKL,2007-04-04 00:00,ZGKL 040000Z AUTO 04004KT 7SM 08/05 A3027 RMK 60000 70004 SLP264 T00840052 52005 IEM_DS3505
ZGKL,2007-04-04 01:00,ZGKL 040100Z AUTO 00000KT 4SM 09/06 A3030 RMK T00900060 IEM_DS3505
ZGKL,2007-04-04 02:00,ZGKL 040200Z AUTO 4SM 09/06 A3027 RMK T00900060 IEM_DS3505
ZGKL,2007-04-04 03:00,ZGKL 040300Z AUTO 36004KT 9SM 09/04 A3030 RMK SLP273 T00940042 52009 IEM_DS3505
ZGKL,2007-04-04 04:00,ZGKL 040400Z AUTO 07004KT 4SM 10/06 A3027 RMK T01000060 IEM_DS3505
ZGKL,2007-04-04 05:00,ZGKL 040500Z AUTO 00000KT 5SM 10/06 A3024 RMK T01000060 IEM_DS3505
ZGKL,2007-04-04 06:00,ZGKL 040600Z AUTO 07002KT 10SM 10/04 A3021 RMK 60000 SLP248 T01000042 57024 IEM_DS3505
ZGKL,2007-04-04 07:00,ZGKL 040700Z AUTO 5SM 10/06 A3018 RMK T01000060 IEM_DS3505
ZGKL,2007-04-04 08:00,ZGKL 040800Z AUTO 06006KT 7SM 10/05 A3018 RMK T01000050 IEM_DS3505
ZGKL,2007-04-04 09:00,ZGKL 040900Z AUTO 04002KT 10SM 10/04 A3018 RMK SLP234 T00990043 57014 IEM_DS3505
ZGKL,2007-04-04 10:00,ZGKL 041000Z AUTO 05006KT 7SM 10/04 A3018 RMK T01000040 IEM_DS3505
ZGKL,2007-04-04 11:00,ZGKL 041100Z AUTO 04006KT 7SM 10/03 A3018 RMK T01000030 IEM_DS3505
ZGKL,2007-04-04 12:00,ZGKL 041200Z AUTO 04004KT 9SM 09/03 A3021 RMK SLP247 T00910027 52013 IEM_DS3505
ZGKL,2007-04-04 13:00,ZGKL 041300Z AUTO 04006KT 7SM 09/03 A3024 RMK T00900030 IEM_DS3505
ZGKL,2007-04-04 14:00,ZGKL 041400Z AUTO 03006KT 7SM 09/04 A3024 RMK T00900040 IEM_DS3505
ZGKL,2007-04-04 15:00,ZGKL 041500Z AUTO 04002KT 8SM 09/04 A3027 RMK SLP260 T00880038 52013 IEM_DS3505
ZGKL,2007-04-04 16:00,ZGKL 041600Z AUTO 00000KT 5SM 08/06 A3027 RMK T00800060 IEM_DS3505
ZGKL,2007-04-04 17:00,ZGKL 041700Z AUTO 00000KT 3SM 08/06 A3027 RMK T00800060 IEM_DS3505
ZGKL,2007-04-04 18:00,ZGKL 041800Z AUTO 09002KT 8SM 08/04 A3024 RMK 60000 SLP251 T00850039 57009 IEM_DS3505
ZGKL,2007-04-04 19:00,ZGKL 041900Z AUTO 00000KT 08/06 A3021 RMK T00800060 IEM_DS3505
ZGKL,2007-04-04 20:00,ZGKL 042000Z AUTO 00000KT 08/06 A3018 RMK T00800060 IEM_DS3505
ZGKL,2007-04-04 21:00,ZGKL 042100Z AUTO 00000KT 8SM 08/04 A3018 RMK 70000 SLP242 T00840044 57009 IEM_DS3505
ZGKL,2007-04-04 22:00,ZGKL 042200Z AUTO 00000KT 3SM 08/06 A3021 RMK T00800060 IEM_DS3505
ZGKL,2007-04-04 23:00,ZGKL 042300Z AUTO 19004KT 3SM 08/06 A3024 RMK T00800060 IEM_DS3505
ZGKL,2007-04-05 00:00,ZGKL 050000Z AUTO 02004KT 6SM 08/06 A3024 RMK 70000 SLP258 T00840055 52015 IEM_DS3505
ZGKL,2007-04-05 01:00,ZGKL 050100Z AUTO 00000KT 2 1/2SM 09/07 A3027 RMK T00900070 IEM_DS3505
ZGKL,2007-04-05 02:00,ZGKL 050200Z AUTO 00000KT 3SM 09/06 A3027 RMK T00900060 IEM_DS3505
ZGKL,2007-04-05 04:00,ZGKL 050400Z AUTO 00000KT 3SM 11/07 A3024 RMK T01100070 IEM_DS3505
ZGKL,2007-04-05 05:00,ZGKL 050500Z AUTO 4SM 12/07 A3021 RMK T01200070 IEM_DS3505
ZGKL,2007-04-05 06:00,ZGKL 050600Z AUTO 02002KT 6SM 13/06 A3015 RMK SLP226 T01310062 57030 IEM_DS3505
ZGKL,2007-04-05 07:00,ZGKL 050700Z AUTO 6SM 15/08 A3012 RMK T01500080 IEM_DS3505
ZGKL,2007-04-05 08:00,ZGKL 050800Z AUTO 14004KT 6SM 15/08 A3012 RMK T01500080 IEM_DS3505
ZGKL,2007-04-05 09:00,ZGKL 050900Z AUTO 14004KT 6SM 15/07 A3009 RMK SLP203 T01500073 57021 IEM_DS3505
ZGKL,2007-04-05 10:00,ZGKL 051000Z AUTO 12006KT 4SM 14/08 A3009 RMK T01400080 IEM_DS3505
ZGKL,2007-04-05 11:00,ZGKL 051100Z AUTO 15004KT 4SM 13/09 A3012 RMK T01300090 IEM_DS3505
ZGKL,2007-04-05 12:00,ZGKL 051200Z AUTO 00000KT 6SM 13/08 A3015 RMK SLP217 T01290084 52013 IEM_DS3505
ZGKL,2007-04-05 13:00,ZGKL 051300Z AUTO 00000KT 3SM 12/10 A3018 RMK T01200100 IEM_DS3505
ZGKL,2007-04-05 14:00,ZGKL 051400Z AUTO 00000KT 3SM 11/10 A3018 RMK T01100100 IEM_DS3505
ZGKL,2007-04-05 15:00,ZGKL 051500Z AUTO 04004KT 5SM 11/08 A3018 RMK SLP236 T01090081 52018 IEM_DS3505
ZGKL,2007-04-05 16:00,ZGKL 051600Z AUTO 00000KT 2SM 11/10 A3018 RMK T01100100 IEM_DS3505
ZGKL,2007-04-05 18:00,ZGKL 051800Z AUTO 00000KT 5SM 11/08 A3015 RMK SLP226 T01080080 57009 IEM_DS3505
ZGKL,2007-04-05 19:00,ZGKL 051900Z AUTO 33002KT 2SM 11/10 A3012 RMK T01100100 IEM_DS3505
ZGKL,2007-04-05 20:00,ZGKL 052000Z AUTO 00000KT 2SM 11/10 A3012 RMK T01100100 IEM_DS3505
ZGKL,2007-04-05 21:00,ZGKL 052100Z AUTO 36002KT 5SM 11/08 A3012 RMK SLP209 T01090078 57016 IEM_DS3505
ZGKL,2007-04-05 22:00,ZGKL 052200Z AUTO 00000KT 3SM 11/09 A3012 RMK T01100090 IEM_DS3505
ZGKL,2007-04-05 23:00,ZGKL 052300Z AUTO 00000KT 3SM 11/10 A3015 RMK T01100100 IEM_DS3505
ZGKL,2007-04-06 00:00,ZGKL 060000Z AUTO 00000KT 5SM 12/08 A3018 RMK SLP230 T01150082 52020 IEM_DS3505
ZGKL,2007-04-06 01:00,ZGKL 060100Z AUTO 00000KT 3SM 12/09 A3018 RMK T01200090 IEM_DS3505
ZGKL,2007-04-06 02:00,ZGKL 060200Z AUTO 00000KT 3SM 13/10 A3018 RMK T01300100 IEM_DS3505
ZGKL,2007-04-06 03:00,ZGKL 060300Z AUTO 02002KT 4SM 14/10 A3018 RMK SLP231 T01410095 52002 IEM_DS3505
ZGKL,2007-04-06 04:00,ZGKL 060400Z AUTO 00000KT 4SM 15/10 A3015 RMK T01500100 IEM_DS3505
ZGKL,2007-04-06 05:00,ZGKL 060500Z AUTO 00000KT 5SM 15/10 A3012 RMK T01500100 IEM_DS3505
ZGKL,2007-04-06 06:00,ZGKL 060600Z AUTO 16004KT 7SM 16/09 A3009 RMK 60001 SLP203 T01620094 57027 IEM_DS3505
ZGKL,2007-04-06 07:00,ZGKL 060700Z AUTO 17004KT 5SM 17/09 A3009 RMK T01700090 IEM_DS3505
ZGKL,2007-04-06 08:00,ZGKL 060800Z AUTO 17002KT 5SM 17/10 A3006 RMK T01700100 IEM_DS3505
ZGKL,2007-04-06 09:00,ZGKL 060900Z AUTO 18004KT 7SM 17/10 A3006 RMK SLP190 T01710102 57013 IEM_DS3505
ZGKL,2007-04-06 10:00,ZGKL 061000Z AUTO 16004KT 5SM 17/10 A3009 RMK T01700100 IEM_DS3505
ZGKL,2007-04-06 11:00,ZGKL 061100Z AUTO 5SM 16/11 A3009 RMK T01600110 IEM_DS3505
ZGKL,2007-04-06 12:00,ZGKL 061200Z AUTO 02006KT 7SM 16/07 A3012 RMK SLP208 T01620069 52018 IEM_DS3505
ZGKL,2007-04-06 13:00,ZGKL 061300Z AUTO 03010KT 6SM 17/07 A3012 RMK T01700070 IEM_DS3505
ZGKL,2007-04-06 14:00,ZGKL 061400Z AUTO 04010KT 6SM 16/07 A3015 RMK T01600070 IEM_DS3505
ZGKL,2007-04-06 15:00,ZGKL 061500Z AUTO 02004KT 7SM 15/07 A3015 RMK SLP216 T01510072 52008 IEM_DS3505
ZGKL,2007-04-06 16:00,ZGKL 061600Z AUTO 00000KT 6SM 15/08 A3015 RMK T01500080 IEM_DS3505
ZGKL,2007-04-06 17:00,ZGKL 061700Z AUTO 05004KT 6SM 15/08 A3012 RMK T01500080 IEM_DS3505
ZGKL,2007-04-06 18:00,ZGKL 061800Z AUTO 36004KT 7SM 14/07 A3012 RMK SLP208 T01440070 57007 IEM_DS3505
ZGKL,2007-04-06 19:00,ZGKL 061900Z AUTO 00000KT 14/11 A3009 RMK T01400110 IEM_DS3505
ZGKL,2007-04-06 20:00,ZGKL 062000Z AUTO 00000KT 14/12 A3009 RMK T01400120 IEM_DS3505
ZGKL,2007-04-06 21:00,ZGKL 062100Z AUTO 02002KT 7SM 14/07 A3009 RMK 70001 SLP198 T01410074 57010 IEM_DS3505
ZGKL,2007-04-06 22:00,ZGKL 062200Z AUTO 00000KT 4SM 13/11 A3009 RMK T01300110 IEM_DS3505
ZGKL,2007-04-06 23:00,ZGKL 062300Z AUTO 00000KT 4SM 13/12 A3012 RMK T01300120 IEM_DS3505
ZGKL,2007-04-07 00:00,ZGKL 070000Z AUTO 36002KT 8SM 15/07 A3015 RMK 70001 SLP217 T01460067 52019 IEM_DS3505
ZGKL,2007-04-07 01:00,ZGKL 070100Z AUTO 00000KT 3SM 15/11 A3015 RMK T01500110 IEM_DS3505
ZGKL,2007-04-07 02:00,ZGKL 070200Z AUTO 00000KT 3SM 17/10 A3015 RMK T01700100 IEM_DS3505
ZGKL,2007-04-07 03:00,ZGKL 070300Z AUTO 02004KT 8SM 18/07 A3015 RMK SLP218 T01800074 52002 IEM_DS3505
ZGKL,2007-04-07 04:00,ZGKL 070400Z AUTO 26002KT 4SM 18/09 A3012 RMK T01800090 IEM_DS3505
ZGKL,2007-04-07 05:00,ZGKL 070500Z AUTO 04004KT 5SM 19/08 A3009 RMK T01900080 IEM_DS3505
ZGKL,2007-04-07 06:00,ZGKL 070600Z AUTO 02006KT 7SM 20/07 A3009 RMK SLP187 T02040074 57030 IEM_DS3505
ZGKL,2007-04-07 07:00,ZGKL 070700Z AUTO 5SM 20/07 A3006 RMK T02000070 IEM_DS3505
ZGKL,2007-04-07 08:00,ZGKL 070800Z AUTO 09004KT 4SM 20/09 A3003 RMK T02000090 IEM_DS3505
ZGKL,2007-04-07 09:00,ZGKL 070900Z AUTO 02006KT 7SM 20/07 A3003 RMK SLP176 T01960070 57011 IEM_DS3505
ZGKL,2007-04-07 10:00,ZGKL 071000Z AUTO 05010KT 4SM 19/07 A3003 RMK T01900070 IEM_DS3505
ZGKL,2007-04-07 11:00,ZGKL 071100Z AUTO 06012KT 4SM 17/10 A3006 RMK T01700100 IEM_DS3505
ZGKL,2007-04-07 12:00,ZGKL 071200Z AUTO 02008KT 7SM 17/08 A3009 RMK 60000 SLP199 T01680082 52021 IEM_DS3505
ZGKL,2007-04-07 13:00,ZGKL 071300Z AUTO 03008KT 2 1/2SM 17/10 A3009 RMK T01700100 IEM_DS3505
ZGKL,2007-04-07 14:00,ZGKL 071400Z AUTO 2 1/2SM 16/11 A3012 RMK T01600110 IEM_DS3505
ZGKL,2007-04-07 15:00,ZGKL 071500Z AUTO 02004KT 6SM 16/09 A3012 RMK SLP210 T01580092 52012 IEM_DS3505
ZGKL,2007-04-07 16:00,ZGKL 071600Z AUTO 03004KT 2 1/2SM 16/10 A3012 RMK T01600100 IEM_DS3505
ZGKL,2007-04-07 17:00,ZGKL 071700Z AUTO 34004KT 2 1/2SM 15/11 A3012 RMK T01500110 IEM_DS3505
ZGKL,2007-04-07 18:00,ZGKL 071800Z AUTO 02006KT 6SM 15/10 A3015 RMK 60000 SLP209 T01490099 57001 IEM_DS3505
ZGKL,2007-04-07 19:00,ZGKL 071900Z AUTO 00000KT 13/13 A3012 RMK T01300130 IEM_DS3505
ZGKL,2007-04-07 20:00,ZGKL 072000Z AUTO 00000KT 13/12 A3012 RMK T01300120 IEM_DS3505
ZGKL,2007-04-07 21:00,ZGKL 072100Z AUTO 32002KT 6SM 14/10 A3012 RMK 70000 SLP203 T01440102 57006 IEM_DS3505
ZGKL,2007-04-07 22:00,ZGKL 072200Z AUTO 00000KT 1 1/4SM 13/12 A3012 RMK T01300120 IEM_DS3505
ZGKL,2007-04-07 23:00,ZGKL 072300Z AUTO 00000KT 1SM 13/12 A3015 RMK T01300120 IEM_DS3505
ZGKL,2007-04-08 00:00,ZGKL 080000Z AUTO 34002KT 6SM 14/10 A3018 RMK 60000 70001 SLP225 T01450099 52021 IEM_DS3505
ZGKL,2007-04-08 01:00,ZGKL 080100Z AUTO 00000KT 1SM 14/13 A3018 RMK T01400130 IEM_DS3505
ZGKL,2007-04-08 03:00,ZGKL 080300Z AUTO 02002KT 5SM 16/11 A3021 RMK SLP234 T01630106 52009 IEM_DS3505
ZGKL,2007-04-08 04:00,ZGKL 080400Z AUTO 33006KT 4SM 17/11 A3018 RMK T01700110 IEM_DS3505
ZGKL,2007-04-08 05:00,ZGKL 080500Z AUTO 5SM 19/09 A3015 RMK T01900090 IEM_DS3505
ZGKL,2007-04-08 06:00,ZGKL 080600Z AUTO 34008KT 7SM 21/07 A3012 RMK 60000 SLP202 T02070073 57030 IEM_DS3505
ZGKL,2007-04-08 07:00,ZGKL 080700Z AUTO 06006KT 5SM 20/08 A3009 RMK T02000080 IEM_DS3505
ZGKL,2007-04-08 08:00,ZGKL 080800Z AUTO 09006KT 6SM 20/08 A3006 RMK T02000080 IEM_DS3505
ZGKL,2007-04-08 09:00,ZGKL 080900Z AUTO 09006KT 7SM 21/08 A3006 RMK SLP182 T02080078 57020 IEM_DS3505
ZGKL,2007-04-08 10:00,ZGKL 081000Z AUTO 00000KT 6SM 20/08 A3006 RMK T02000080 IEM_DS3505
ZGKL,2007-04-08 11:00,ZGKL 081100Z AUTO 00000KT 6SM 18/11 A3006 RMK T01800110 IEM_DS3505
ZGKL,2007-04-08 12:00,ZGKL 081200Z AUTO 14004KT 7SM 18/11 A3009 RMK SLP196 T01830114 52013 IEM_DS3505
ZGKL,2007-04-08 13:00,ZGKL 081300Z AUTO 00000KT 4SM 15/12 A3012 RMK T01500120 IEM_DS3505
ZGKL,2007-04-08 14:00,ZGKL 081400Z AUTO 00000KT 3SM 14/12 A3012 RMK T01400120 IEM_DS3505
ZGKL,2007-04-08 15:00,ZGKL 081500Z AUTO 07002KT 7SM 15/11 A3015 RMK SLP214 T01520114 52017 IEM_DS3505
ZGKL,2007-04-08 16:00,ZGKL 081600Z AUTO 00000KT 1 1/2SM 13/11 A3012 RMK T01300110 IEM_DS3505
ZGKL,2007-04-08 17:00,ZGKL 081700Z AUTO 00000KT 1 1/4SM 12/11 A3012 RMK T01200110 IEM_DS3505
ZGKL,2007-04-08 18:00,ZGKL 081800Z AUTO 00000KT 7SM 13/11 A3009 RMK SLP197 T01320107 57016 IEM_DS3505
ZGKL,2007-04-08 19:00,ZGKL 081900Z AUTO 00000KT 1 1/4SM 12/11 A3006 RMK T01200110 IEM_DS3505
ZGKL,2007-04-08 20:00,ZGKL 082000Z AUTO 00000KT 1 1/4SM 12/11 A3006 RMK T01200110 IEM_DS3505
ZGKL,2007-04-08 21:00,ZGKL 082100Z AUTO 07002KT 7SM 13/10 A3006 RMK 70001 SLP190 T01310105 57007 IEM_DS3505
ZGKL,2007-04-08 22:00,ZGKL 082200Z AUTO 00000KT 2SM 12/11 A3006 RMK T01200110 IEM_DS3505
ZGKL,2007-04-08 23:00,ZGKL 082300Z AUTO 00000KT 1 1/2SM 12/12 A3006 RMK T01200120 IEM_DS3505
ZGKL,2007-04-09 00:00,ZGKL 090000Z AUTO 00000KT 2 1/2SM 13/11 A3009 RMK 70000 SLP201 T01340111 52010 IEM_DS3505
ZGKL,2007-04-09 01:00,ZGKL 090100Z AUTO 00000KT 1 1/2SM 14/12 A3009 RMK T01400120 IEM_DS3505
ZGKL,2007-04-09 02:00,ZGKL 090200Z AUTO 00000KT 1 1/4SM 15/12 A3012 RMK T01500120 IEM_DS3505
ZGKL,2007-04-09 03:00,ZGKL 090300Z AUTO 14002KT 1 1/4SM 16/11 A3012 RMK SLP203 T01600114 52002 IEM_DS3505
ZGKL,2007-04-09 04:00,ZGKL 090400Z AUTO 00000KT 1 1/2SM 17/13 A3009 RMK T01700130 IEM_DS3505
ZGKL,2007-04-09 05:00,ZGKL 090500Z AUTO 00000KT 2 1/2SM 17/12 A3009 RMK T01700120 IEM_DS3505
ZGKL,2007-04-09 06:00,ZGKL 090600Z AUTO 04002KT 2SM 17/12 A3006 RMK 60000 SLP186 T01700123 57017 IEM_DS3505
ZGKL,2007-04-09 07:00,ZGKL 090700Z AUTO 35006KT 2 1/2SM 17/13 A3003 RMK T01700130 IEM_DS3505
ZGKL,2007-04-09 08:00,ZGKL 090800Z AUTO 34006KT 2 1/2SM 17/13 A3000 RMK T01700130 IEM_DS3505
ZGKL,2007-04-09 09:00,ZGKL 090900Z AUTO 36006KT 2SM 16/11 A3003 RMK SLP176 T01630112 57010 IEM_DS3505
ZGKL,2007-04-09 10:00,ZGKL 091000Z AUTO 00000KT 2 1/2SM 17/13 A3003 RMK T01700130 IEM_DS3505
ZGKL,2007-04-09 11:00,ZGKL 091100Z AUTO 00000KT 2 1/2SM 16/14 A3006 RMK T01600140 IEM_DS3505
ZGKL,2007-04-09 12:00,ZGKL 091200Z AUTO 02006KT 3SM 16/11 A3006 RMK SLP196 T01590113 52020 IEM_DS3505
ZGKL,2007-04-09 13:00,ZGKL 091300Z AUTO 1 1/2SM 16/13 A3009 RMK T01600130 IEM_DS3505
ZGKL,2007-04-09 14:00,ZGKL 091400Z AUTO 00000KT 1 1/2SM 16/13 A3012 RMK T01600130 IEM_DS3505
ZGKL,2007-04-09 15:00,ZGKL 091500Z AUTO 02006KT 3SM 15/12 A3012 RMK SLP208 T01500118 52012 IEM_DS3505
ZGKL,2007-04-09 16:00,ZGKL 091600Z AUTO 04004KT 1 1/2SM 15/12 A3012 RMK T01500120 IEM_DS3505
ZGKL,2007-04-09 18:00,ZGKL 091800Z AUTO 02006KT 3SM 15/12 A3009 RMK SLP196 T01480118 57011 IEM_DS3505
ZGKL,2007-04-09 19:00,ZGKL 091900Z AUTO 00000KT 14/13 A3006 RMK T01400130 IEM_DS3505
ZGKL,2007-04-09 20:00,ZGKL 092000Z AUTO 00000KT 14/13 A3006 RMK T01400130 IEM_DS3505
ZGKL,2007-04-09 21:00,ZGKL 092100Z AUTO 34002KT 3SM 14/12 A3006 RMK 70002 SLP190 T01420121 57007 IEM_DS3505
ZGKL,2007-04-09 22:00,ZGKL 092200Z AUTO 00000KT 1SM 14/13 A3009 RMK T01400130 IEM_DS3505
ZGKL,2007-04-09 23:00,ZGKL 092300Z AUTO 00000KT 1SM 14/13 A3009 RMK T01400130 IEM_DS3505
ZGKL,2007-04-10 00:00,ZGKL 100000Z AUTO 04002KT 2SM 14/13 A3012 RMK 60002 70003 SLP209 T01440126 52019 IEM_DS3505
ZGKL,2007-04-10 01:00,ZGKL 100100Z AUTO 00000KT 2SM 17/13 A3015 RMK T01700130 IEM_DS3505
ZGKL,2007-04-10 02:00,ZGKL 100200Z AUTO 2 1/2SM 18/13 A3015 RMK T01800130 IEM_DS3505
ZGKL,2007-04-10 03:00,ZGKL 100300Z AUTO 36006KT 5SM 20/12 A3012 RMK SLP211 T01970115 52003 IEM_DS3505
ZGKL,2007-04-10 04:00,ZGKL 100400Z AUTO 4SM 21/13 A3012 RMK T02100130 IEM_DS3505
ZGKL,2007-04-10 05:00,ZGKL 100500Z AUTO 23006KT 4SM 21/13 A3009 RMK T02100130 IEM_DS3505
ZGKL,2007-04-10 06:00,ZGKL 100600Z AUTO 02004KT 6SM 23/12 A3006 RMK SLP180 T02310115 57029 IEM_DS3505
ZGKL,2007-04-10 07:00,ZGKL 100700Z AUTO 17006KT 6SM 23/12 A3003 RMK T02300120 IEM_DS3505
ZGKL,2007-04-10 08:00,ZGKL 100800Z AUTO 17006KT 6SM 24/12 A3000 RMK T02400120 IEM_DS3505
ZGKL,2007-04-10 09:00,ZGKL 100900Z AUTO 20004KT 9SM 24/11 A3000 RMK SLP163 T02400110 57017 IEM_DS3505
ZGKL,2007-04-10 10:00,ZGKL 101000Z AUTO 13004KT 6SM 23/12 A3000 RMK T02300120 IEM_DS3505
ZGKL,2007-04-10 11:00,ZGKL 101100Z AUTO 16004KT 6SM 21/12 A3000 RMK T02100120 IEM_DS3505
ZGKL,2007-04-10 12:00,ZGKL 101200Z AUTO 14002KT 8SM 20/14 A3003 RMK SLP178 T02020137 52014 IEM_DS3505
ZGKL,2007-04-10 13:00,ZGKL 101300Z AUTO 00000KT 5SM 18/15 A3006 RMK T01800150 IEM_DS3505
ZGKL,2007-04-10 14:00,ZGKL 101400Z AUTO 5SM 19/14 A3006 RMK T01900140 IEM_DS3505
ZGKL,2007-04-10 15:00,ZGKL 101500Z AUTO 04002KT 8SM 18/14 A3006 RMK SLP186 T01760139 52009 IEM_DS3505
ZGKL,2007-04-10 16:00,ZGKL 101600Z AUTO 00000KT 3SM 16/14 A3006 RMK T01600140 IEM_DS3505
ZGKL,2007-04-10 17:00,ZGKL 101700Z AUTO 00000KT 3SM 15/14 A3006 RMK T01500140 IEM_DS3505
ZGKL,2007-04-10 18:00,ZGKL 101800Z AUTO 32002KT 7SM 16/13 A3006 RMK SLP183 T01600133 57003 IEM_DS3505
ZGKL,2007-04-10 19:00,ZGKL 101900Z AUTO 00000KT 2 1/2SM 14/13 A3006 RMK T01400130 IEM_DS3505
ZGKL,2007-04-10 20:00,ZGKL 102000Z AUTO 00000KT 2SM 14/13 A3006 RMK T01400130 IEM_DS3505
ZGKL,2007-04-10 21:00,ZGKL 102100Z AUTO 00000KT 7SM 14/12 A3006 RMK 70001 SLP184 T01410120 52001 IEM_DS3505
ZGKL,2007-04-10 22:00,ZGKL 102200Z AUTO 00000KT 1SM 12/12 A3006 RMK T01200120 IEM_DS3505
ZGKL,2007-04-10 23:00,ZGKL 102300Z AUTO 00000KT 1SM 12/12 A3006 RMK T01200120 IEM_DS3505
ZGKL,2007-04-11 00:00,ZGKL 110000Z AUTO 00000KT 2 1/2SM 15/12 A3009 RMK SLP199 T01540123 52014 IEM_DS3505
ZGKL,2007-04-11 01:00,ZGKL 110100Z AUTO 1 1/2SM 16/14 A3012 RMK T01600140 IEM_DS3505
ZGKL,2007-04-11 02:00,ZGKL 110200Z AUTO 00000KT 2 1/2SM 19/14 A3012 RMK T01900140 IEM_DS3505
ZGKL,2007-04-11 03:00,ZGKL 110300Z AUTO 32002KT 4SM 22/13 A3009 RMK SLP194 T02170131 57004 IEM_DS3505
ZGKL,2007-04-11 04:00,ZGKL 110400Z AUTO 27004KT 4SM 23/13 A3006 RMK T02300130 IEM_DS3505
ZGKL,2007-04-11 05:00,ZGKL 110500Z AUTO 15002KT 4SM 24/12 A3003 RMK T02400120 IEM_DS3505
ZGKL,2007-04-11 06:00,ZGKL 110600Z AUTO 20002KT 4SM 25/10 A3000 RMK SLP159 T02520103 57034 IEM_DS3505
ZGKL,2007-04-11 07:00,ZGKL 110700Z AUTO 5SM 26/11 A2994 RMK T02600110 IEM_DS3505
ZGKL,2007-04-11 09:00,ZGKL 110900Z AUTO 18006KT 7SM 26/10 A2991 RMK SLP135 T02590097 57024 IEM_DS3505
ZGKL,2007-04-11 10:00,ZGKL 111000Z AUTO 11006KT 6SM 25/11 A2991 RMK T02500110 IEM_DS3505
ZGKL,2007-04-11 11:00,ZGKL 111100Z AUTO 6SM 24/11 A2994 RMK T02400110 IEM_DS3505
ZGKL,2007-04-11 12:00,ZGKL 111200Z AUTO 30004KT 7SM 21/12 A2994 RMK SLP148 T02140125 52012 IEM_DS3505
ZGKL,2007-04-11 13:00,ZGKL 111300Z AUTO 4SM 18/14 A2997 RMK T01800140 IEM_DS3505
ZGKL,2007-04-11 14:00,ZGKL 111400Z AUTO 00000KT 3SM 18/13 A2997 RMK T01800130 IEM_DS3505
ZGKL,2007-04-11 15:00,ZGKL 111500Z AUTO 00000KT 7SM 18/13 A2997 RMK SLP157 T01850134 52010 IEM_DS3505
ZGKL,2007-04-11 16:00,ZGKL 111600Z AUTO 00000KT 3SM 16/12 A2997 RMK T01600120 IEM_DS3505
ZGKL,2007-04-11 17:00,ZGKL 111700Z AUTO 00000KT 2 1/2SM 15/13 A2997 RMK T01500130 IEM_DS3505
ZGKL,2007-04-11 18:00,ZGKL 111800Z AUTO 02002KT 6SM 16/13 A2997 RMK SLP150 T01640128 57006 IEM_DS3505
ZGKL,2007-04-11 19:00,ZGKL 111900Z AUTO 00000KT 2SM 14/13 A2994 RMK T01400130 IEM_DS3505
ZGKL,2007-04-11 20:00,ZGKL 112000Z AUTO 00000KT 2SM 13/12 A2994 RMK T01300120 IEM_DS3505
ZGKL,2007-04-11 21:00,ZGKL 112100Z AUTO 02002KT 4SM 15/12 A2994 RMK SLP144 T01480121 57006 IEM_DS3505
ZGKL,2007-04-11 22:00,ZGKL 112200Z AUTO 00000KT 1 1/2SM 13/12 A2997 RMK T01300120 IEM_DS3505
ZGKL,2007-04-11 23:00,ZGKL 112300Z AUTO 00000KT 2 1/2SM 14/13 A3000 RMK T01400130 IEM_DS3505
ZGKL,2007-04-12 00:00,ZGKL 120000Z AUTO 07002KT 5SM 16/12 A3000 RMK SLP166 T01580125 52020 IEM_DS3505
ZGKL,2007-04-12 01:00,ZGKL 120100Z AUTO 00000KT 2 1/2SM 17/13 A3000 RMK T01700130 IEM_DS3505
ZGKL,2007-04-12 02:00,ZGKL 120200Z AUTO 00000KT 3SM 20/14 A3000 RMK T02000140 IEM_DS3505
ZGKL,2007-04-12 03:00,ZGKL 120300Z AUTO 20004KT 2 1/2SM 23/14 A3000 RMK SLP164 T02290137 57001 IEM_DS3505
ZGKL,2007-04-12 04:00,ZGKL 120400Z AUTO 17006KT 4SM 24/15 A2997 RMK T02400150 IEM_DS3505
ZGKL,2007-04-12 05:00,ZGKL 120500Z AUTO 18010KT 4SM 23/15 A2994 RMK T02300150 IEM_DS3505
ZGKL,2007-04-12 06:00,ZGKL 120600Z AUTO 27004KT 7SM 24/14 A2994 RMK SLP139 T02350145 57025 IEM_DS3505
ZGKL,2007-04-12 07:00,ZGKL 120700Z AUTO 4SM 24/15 A2991 RMK T02400150 IEM_DS3505
ZGKL,2007-04-12 08:00,ZGKL 120800Z AUTO 18006KT 4SM 24/16 A2988 RMK T02400160 IEM_DS3505
ZGKL,2007-04-12 09:00,ZGKL 120900Z AUTO 14002KT 6SM 24/15 A2988 RMK SLP118 T02390149 57021 IEM_DS3505
ZGKL,2007-04-12 10:00,ZGKL 121000Z AUTO 17006KT 3SM 23/16 A2988 RMK T02300160 IEM_DS3505
ZGKL,2007-04-12 11:00,ZGKL 121100Z AUTO 16006KT 2 1/2SM 23/16 A2988 RMK T02300160 IEM_DS3505
ZGKL,2007-04-12 12:00,ZGKL 121200Z AUTO 04002KT 6SM 22/16 A2991 RMK SLP132 T02220158 52014 IEM_DS3505
ZGKL,2007-04-12 13:00,ZGKL 121300Z AUTO 00000KT 1 1/2SM 21/18 A2994 RMK T02100180 IEM_DS3505
ZGKL,2007-04-12 14:00,ZGKL 121400Z AUTO 00000KT 1 1/2SM 20/18 A2994 RMK T02000180 IEM_DS3505
ZGKL,2007-04-12 15:00,ZGKL 121500Z AUTO 36002KT 6SM 21/17 A2997 RMK SLP149 T02070169 52018 IEM_DS3505
ZGKL,2007-04-12 16:00,ZGKL 121600Z AUTO 00000KT 1 1/4SM 19/18 A2994 RMK T01900180 IEM_DS3505
ZGKL,2007-04-12 17:00,ZGKL 121700Z AUTO 00000KT 1 1/4SM 19/18 A2994 RMK T01900180 IEM_DS3505
ZGKL,2007-04-12 18:00,ZGKL 121800Z AUTO 11002KT 5SM 20/17 A2994 RMK SLP141 T02020166 57007 IEM_DS3505
ZGKL,2007-04-12 19:00,ZGKL 121900Z AUTO 19004KT 1 1/2SM 19/18 A2991 RMK T01900180 IEM_DS3505
ZGKL,2007-04-12 20:00,ZGKL 122000Z AUTO 00000KT 1 1/4SM 19/17 A2991 RMK T01900170 IEM_DS3505
ZGKL,2007-04-12 21:00,ZGKL 122100Z AUTO 16002KT 5SM 20/17 A2991 RMK SLP133 T02000168 57008 IEM_DS3505
ZGKL,2007-04-12 22:00,ZGKL 122200Z AUTO 11004KT 1 1/2SM 19/17 A2991 RMK T01900170 IEM_DS3505
ZGKL,2007-04-12 23:00,ZGKL 122300Z AUTO 35004KT 1 1/2SM 19/17 A2994 RMK T01900170 IEM_DS3505
ZGKL,2007-04-13 00:00,ZGKL 130000Z AUTO 00000KT 4SM 19/17 A2997 RMK SLP151 T01940168 52017 IEM_DS3505
ZGKL,2007-04-13 01:00,ZGKL 130100Z AUTO 00000KT 1 1/2SM 20/18 A2997 RMK T02000180 IEM_DS3505
ZGKL,2007-04-13 02:00,ZGKL 130200Z AUTO 00000KT 1 1/2SM 20/18 A3000 RMK T02000180 IEM_DS3505
ZGKL,2007-04-13 03:00,ZGKL 130300Z AUTO 02002KT 3SM 21/17 A3000 RMK SLP163 T02060174 52011 IEM_DS3505
ZGKL,2007-04-13 04:00,ZGKL 130400Z AUTO 17008KT 2 1/2SM 24/18 A2997 RMK T02400180 IEM_DS3505
ZGKL,2007-04-13 05:00,ZGKL 130500Z AUTO 17006KT 2 1/2SM 24/18 A2994 RMK T02400180 IEM_DS3505
ZGKL,2007-04-13 06:00,ZGKL 130600Z AUTO 18004KT 3SM 24/17 A2991 RMK 60000 SLP136 T02420174 57025 IEM_DS3505
ZGKL,2007-04-13 07:00,ZGKL 130700Z AUTO 20004KT 3SM 25/18 A2991 RMK T02500180 IEM_DS3505
ZGKL,2007-04-13 08:00,ZGKL 130800Z AUTO 00000KT 3SM 25/18 A2988 RMK T02500180 IEM_DS3505
ZGKL,2007-04-13 09:00,ZGKL 130900Z AUTO 09002KT 3SM 24/18 A2988 RMK SLP117 T02450180 57019 IEM_DS3505
ZGKL,2007-04-13 10:00,ZGKL 131000Z AUTO 1 1/2SM 23/19 A2988 RMK T02300190 IEM_DS3505
ZGKL,2007-04-13 11:00,ZGKL 131100Z AUTO 1 1/2SM 22/19 A2988 RMK T02200190 IEM_DS3505
ZGKL,2007-04-13 12:00,ZGKL 131200Z AUTO 02002KT 3SM 22/18 A2988 RMK SLP120 T02210181 52002 IEM_DS3505
ZGKL,2007-04-13 13:00,ZGKL 131300Z AUTO 34004KT 1 1/4SM 21/19 A2988 RMK T02100190 IEM_DS3505
ZGKL,2007-04-13 14:00,ZGKL 131400Z AUTO 1 1/4SM 21/19 A2991 RMK T02100190 IEM_DS3505
ZGKL,2007-04-13 15:00,ZGKL 131500Z AUTO 02002KT 3SM 21/18 A2991 RMK SLP133 T02080184 52013 IEM_DS3505
ZGKL,2007-04-13 16:00,ZGKL 131600Z AUTO 1SM 20/19 A2991 RMK T02000190 IEM_DS3505
ZGKL,2007-04-13 18:00,ZGKL 131800Z AUTO 11002KT 3SM 20/18 A2988 RMK SLP121 T02030184 57011 IEM_DS3505
ZGKL,2007-04-13 19:00,ZGKL 131900Z AUTO 00000KT 1SM 20/19 A2985 RMK T02000190 IEM_DS3505
ZGKL,2007-04-13 20:00,ZGKL 132000Z AUTO 13004KT 1 1/4SM 20/19 A2983 RMK T02000190 IEM_DS3505
ZGKL,2007-04-13 21:00,ZGKL 132100Z AUTO 02002KT 2SM 20/18 A2983 RMK 70000 SLP103 T01970182 57018 IEM_DS3505
ZGKL,2007-04-13 22:00,ZGKL 132200Z AUTO 00000KT 1 1/4SM 19/18 A2983 RMK T01900180 IEM_DS3505
ZGKL,2007-04-13 23:00,ZGKL 132300Z AUTO 00000KT 1SM 19/18 A2983 RMK T01900180 IEM_DS3505
ZGKL,2007-04-14 00:00,ZGKL 140000Z AUTO 16002KT 2SM 21/19 A2985 RMK 70000 SLP110 T02130190 52007 IEM_DS3505
ZGKL,2007-04-14 01:00,ZGKL 140100Z AUTO 15004KT 1 1/2SM 22/20 A2985 RMK T02200200 IEM_DS3505
ZGKL,2007-04-14 02:00,ZGKL 140200Z AUTO 18010KT 2SM 23/20 A2985 RMK T02300200 IEM_DS3505
ZGKL,2007-04-14 03:00,ZGKL 140300Z AUTO 18004KT 3SM 23/19 A2985 RMK SLP110 T02320194 54000 IEM_DS3505
ZGKL,2007-04-14 04:00,ZGKL 140400Z AUTO 18010KT 3SM 23/20 A2983 RMK T02300200 IEM_DS3505
ZGKL,2007-04-14 05:00,ZGKL 140500Z AUTO 18010KT 3SM 23/21 A2980 RMK T02300210 IEM_DS3505
ZGKL,2007-04-14 06:00,ZGKL 140600Z AUTO 16004KT 4SM 25/20 A2977 RMK 60002 SLP083 T02480201 57026 IEM_DS3505
ZGKL,2007-04-14 07:00,ZGKL 140700Z AUTO 21006KT 4SM 26/21 A2977 RMK T02600210 IEM_DS3505
ZGKL,2007-04-14 08:00,ZGKL 140800Z AUTO 23008KT 4SM 26/20 A2974 RMK T02600200 IEM_DS3505
ZGKL,2007-04-14 09:00,ZGKL 140900Z AUTO 20006KT 4SM 26/19 A2974 RMK SLP068 T02640190 57014 IEM_DS3505
ZGKL,2007-04-14 10:00,ZGKL 141000Z AUTO 17006KT 5SM 26/20 A2974 RMK T02600200 IEM_DS3505
ZGKL,2007-04-14 11:00,ZGKL 141100Z AUTO 16008KT 4SM 25/20 A2974 RMK T02500200 IEM_DS3505
ZGKL,2007-04-14 12:00,ZGKL 141200Z AUTO 25002KT 4SM 24/20 A2977 RMK SLP083 T02430200 52014 IEM_DS3505
ZGKL,2007-04-14 13:00,ZGKL 141300Z AUTO 15004KT 3SM 24/21 A2980 RMK T02400210 IEM_DS3505
ZGKL,2007-04-14 14:00,ZGKL 141400Z AUTO 00000KT 2 1/2SM 21/20 A2983 RMK T02100200 IEM_DS3505
ZGKL,2007-04-14 15:00,ZGKL 141500Z AUTO 09002KT 3SM 22/20 A2983 RMK SLP102 T02200199 52019 IEM_DS3505
ZGKL,2007-04-14 16:00,ZGKL 141600Z AUTO 2 1/2SM 21/20 A2983 RMK T02100200 IEM_DS3505
ZGKL,2007-04-14 17:00,ZGKL 141700Z AUTO 33002KT 2 1/2SM 20/19 A2983 RMK T02000190 IEM_DS3505
ZGKL,2007-04-14 18:00,ZGKL 141800Z AUTO 36002KT 3SM 21/20 A2983 RMK SLP099 T02100195 57003 IEM_DS3505
ZGKL,2007-04-14 19:00,ZGKL 141900Z AUTO 32002KT 20/19 A2980 RMK T02000190 IEM_DS3505
ZGKL,2007-04-14 20:00,ZGKL 142000Z AUTO 20/19 A2980 RMK T02000190 IEM_DS3505
ZGKL,2007-04-14 21:00,ZGKL 142100Z AUTO 36004KT 3SM 21/18 A2980 RMK 70002 SLP093 T02080178 57005 IEM_DS3505
ZGKL,2007-04-14 22:00,ZGKL 142200Z AUTO 1 1/4SM 19/19 A2980 RMK T01900190 IEM_DS3505
ZGKL,2007-04-14 23:00,ZGKL 142300Z AUTO 1SM 20/19 A2985 RMK T02000190 IEM_DS3505
ZGKL,2007-04-15 00:00,ZGKL 150000Z AUTO 36004KT 3SM 22/18 A2988 RMK 70002 SLP117 T02150175 52023 IEM_DS3505
ZGKL,2007-04-15 01:00,ZGKL 150100Z AUTO 00000KT 1 1/2SM 23/20 A2991 RMK T02300200 IEM_DS3505
ZGKL,2007-04-15 02:00,ZGKL 150200Z AUTO 17004KT 2 1/2SM 25/20 A2988 RMK T02500200 IEM_DS3505
ZGKL,2007-04-15 03:00,ZGKL 150300Z AUTO 18004KT 4SM 25/20 A2988 RMK SLP116 T02490195 57001 IEM_DS3505
ZGKL,2007-04-15 04:00,ZGKL 150400Z AUTO 16004KT 2 1/2SM 27/20 A2985 RMK T02700200 IEM_DS3505
ZGKL,2007-04-15 05:00,ZGKL 150500Z AUTO 15006KT 4SM 28/19 A2983 RMK T02800190 IEM_DS3505
ZGKL,2007-04-15 06:00,ZGKL 150600Z AUTO 16006KT 5SM 29/19 A2980 RMK SLP090 T02860190 57025 IEM_DS3505
ZGKL,2007-04-15 07:00,ZGKL 150700Z AUTO 15006KT 5SM 30/17 A2977 RMK T03000170 IEM_DS3505
ZGKL,2007-04-15 08:00,ZGKL 150800Z AUTO 16006KT 5SM 30/18 A2974 RMK T03000180 IEM_DS3505
ZGKL,2007-04-15 09:00,ZGKL 150900Z AUTO 16002KT 7SM 30/16 A2974 RMK SLP073 T02980162 57016 IEM_DS3505
ZGKL,2007-04-15 10:00,ZGKL 151000Z AUTO 14006KT 4SM 29/19 A2977 RMK T02900190 IEM_DS3505
ZGKL,2007-04-15 11:00,ZGKL 151100Z AUTO 16006KT 4SM 27/19 A2977 RMK T02700190 IEM_DS3505
ZGKL,2007-04-15 12:00,ZGKL 151200Z AUTO 16004KT 6SM 26/19 A2980 RMK SLP088 T02570186 52014 IEM_DS3505
ZGKL,2007-04-15 13:00,ZGKL 151300Z AUTO 20004KT 2 1/2SM 24/20 A2980 RMK T02400200 IEM_DS3505
ZGKL,2007-04-15 14:00,ZGKL 151400Z AUTO 00000KT 2SM 23/20 A2983 RMK T02300200 IEM_DS3505
ZGKL,2007-04-15 15:00,ZGKL 151500Z AUTO 02002KT 6SM 23/17 A2985 RMK SLP111 T02320172 52023 IEM_DS3505
ZGKL,2007-04-15 16:00,ZGKL 151600Z AUTO 00000KT 1 1/2SM 21/20 A2985 RMK T02100200 IEM_DS3505
ZGKL,2007-04-15 18:00,ZGKL 151800Z AUTO 36002KT 6SM 21/18 A2983 RMK SLP105 T02130177 57006 IEM_DS3505
ZGKL,2007-04-15 19:00,ZGKL 151900Z AUTO 00000KT A2983 RMK IEM_DS3505
ZGKL,2007-04-15 20:00,ZGKL 152000Z AUTO 00000KT 19/18 A2980 RMK T01900180 IEM_DS3505
ZGKL,2007-04-15 21:00,ZGKL 152100Z AUTO 04002KT 6SM 20/18 A2983 RMK SLP098 T02000178 57007 IEM_DS3505
ZGKL,2007-04-15 22:00,ZGKL 152200Z AUTO 00000KT 1SM 18/18 A2983 RMK T01800180 IEM_DS3505
ZGKL,2007-04-15 23:00,ZGKL 152300Z AUTO 00000KT 1SM 19/18 A2983 RMK T01900180 IEM_DS3505
ZGKL,2007-04-16 00:00,ZGKL 160000Z AUTO 36002KT 3SM 20/18 A2985 RMK SLP108 T02040180 52009 IEM_DS3505
ZGKL,2007-04-16 01:00,ZGKL 160100Z AUTO 00000KT 1 1/4SM 22/19 A2985 RMK T02200190 IEM_DS3505
ZGKL,2007-04-16 02:00,ZGKL 160200Z AUTO 00000KT 1 1/4SM 25/20 A2985 RMK T02500200 IEM_DS3505
ZGKL,2007-04-16 03:00,ZGKL 160300Z AUTO 34004KT 2 1/2SM 27/19 A2983 RMK SLP102 T02700191 57005 IEM_DS3505
ZGKL,2007-04-16 04:00,ZGKL 160400Z AUTO 3SM 28/20 A2980 RMK T02800200 IEM_DS3505
ZGKL,2007-04-16 05:00,ZGKL 160500Z AUTO 16004KT 4SM 29/20 A2977 RMK T02900200 IEM_DS3505
ZGKL,2007-04-16 06:00,ZGKL 160600Z AUTO 14002KT 6SM 30/20 A2974 RMK SLP073 T03020196 57028 IEM_DS3505
ZGKL,2007-04-16 07:00,ZGKL 160700Z AUTO 5SM 31/20 A2971 RMK T03100200 IEM_DS3505
ZGKL,2007-04-16 08:00,ZGKL 160800Z AUTO 13004KT 5SM 30/20 A2971 RMK T03000200 IEM_DS3505
ZGKL,2007-04-16 09:00,ZGKL 160900Z AUTO 11002KT 7SM 30/19 A2971 RMK SLP053 T03000188 57020 IEM_DS3505
ZGKL,2007-04-16 10:00,ZGKL 161000Z AUTO 5SM 29/21 A2968 RMK T02900210 IEM_DS3505
ZGKL,2007-04-16 11:00,ZGKL 161100Z AUTO 5SM 28/21 A2971 RMK T02800210 IEM_DS3505
ZGKL,2007-04-16 12:00,ZGKL 161200Z AUTO 19004KT 6SM 27/21 A2971 RMK SLP060 T02700211 52006 IEM_DS3505
ZGKL,2007-04-16 13:00,ZGKL 161300Z AUTO 00000KT 2 1/2SM 25/22 A2971 RMK T02500220 IEM_DS3505
ZGKL,2007-04-16 14:00,ZGKL 161400Z AUTO 30004KT 2 1/2SM 25/22 A2974 RMK T02500220 IEM_DS3505
ZGKL,2007-04-16 15:00,ZGKL 161500Z AUTO 36002KT 6SM 25/20 A2974 RMK SLP066 T02500200 52008 IEM_DS3505
ZGKL,2007-04-16 16:00,ZGKL 161600Z AUTO 00000KT 1 1/2SM 23/22 A2974 RMK T02300220 IEM_DS3505
ZGKL,2007-04-16 17:00,ZGKL 161700Z AUTO 00000KT 1 1/4SM 23/22 A2971 RMK T02300220 IEM_DS3505
ZGKL,2007-04-16 18:00,ZGKL 161800Z AUTO 02002KT 6SM 23/20 A2971 RMK SLP057 T02320200 57009 IEM_DS3505
ZGKL,2007-04-16 19:00,ZGKL 161900Z AUTO 00000KT 1 1/2SM 22/21 A2968 RMK T02200210 IEM_DS3505
ZGKL,2007-04-16 20:00,ZGKL 162000Z AUTO 00000KT 1 1/2SM 22/21 A2968 RMK T02200210 IEM_DS3505
ZGKL,2007-04-16 21:00,ZGKL 162100Z AUTO 02002KT 6SM 22/20 A2968 RMK SLP049 T02210198 57008 IEM_DS3505
ZGKL,2007-04-16 22:00,ZGKL 162200Z AUTO 00000KT 1SM 22/21 A2968 RMK T02200210 IEM_DS3505
ZGKL,2007-04-16 23:00,ZGKL 162300Z AUTO 1SM 22/21 A2968 RMK T02200210 IEM_DS3505
ZGKL,2007-04-17 00:00,ZGKL 170000Z AUTO 07002KT 3SM 23/21 A2971 RMK 60001 70001 SLP062 T02300207 52012 IEM_DS3505
ZGKL,2007-04-17 01:00,ZGKL 170100Z AUTO 19008KT 2SM 25/22 A2974 RMK T02500220 IEM_DS3505
ZGKL,2007-04-17 02:00,ZGKL 170200Z AUTO 19008KT 3SM 27/22 A2977 RMK T02700220 IEM_DS3505
ZGKL,2007-04-17 03:00,ZGKL 170300Z AUTO 22008KT 5SM 28/20 A2974 RMK SLP068 T02790202 52007 IEM_DS3505
ZGKL,2007-04-17 04:00,ZGKL 170400Z AUTO 20008KT 5SM 29/21 A2974 RMK T02900210 IEM_DS3505
ZGKL,2007-04-17 05:00,ZGKL 170500Z AUTO 33021G33KT 1SM 20/18 A2977 RMK T02000180 IEM_DS3505
ZGKL,2007-04-17 06:00,ZGKL 170600Z AUTO 02012KT 7SM 18/16 RMK 60098 SLP109 T01800160 52036 IEM_DS3505
ZGKL,2007-04-17 07:00,ZGKL 170700Z AUTO 07010KT 5SM 18/17 A2985 RMK T01800170 IEM_DS3505
ZGKL,2007-04-17 08:00,ZGKL 170800Z AUTO 06016KT 5SM 15/13 A2988 RMK T01500130 IEM_DS3505
ZGKL,2007-04-17 09:00,ZGKL 170900Z AUTO 02014KT 12SM 15/11 A2994 RMK SLP147 T01490107 52036 IEM_DS3505
ZGKL,2007-04-17 10:00,ZGKL 171000Z AUTO 05008KT 7SM 15/11 A2997 RMK T01500110 IEM_DS3505
ZGKL,2007-04-17 11:00,ZGKL 171100Z AUTO 7SM 15/11 A3000 RMK T01500110 IEM_DS3505
ZGKL,2007-04-17 12:00,ZGKL 171200Z AUTO 04008KT 12SM 14/10 A3003 RMK 60008 SLP179 T01410099 52032 IEM_DS3505
ZGKL,2007-04-17 13:00,ZGKL 171300Z AUTO 7SM 14/10 A3006 RMK T01400100 IEM_DS3505
ZGKL,2007-04-17 14:00,ZGKL 171400Z AUTO 7SM 13/10 A3009 RMK T01300100 IEM_DS3505
ZGKL,2007-04-17 15:00,ZGKL 171500Z AUTO 02008KT 11SM 14/10 A3009 RMK SLP196 T01350097 52018 IEM_DS3505
ZGKL,2007-04-17 16:00,ZGKL 171600Z AUTO 30004KT 6SM 12/11 A3009 RMK T01200110 IEM_DS3505
ZGKL,2007-04-17 17:00,ZGKL 171700Z AUTO 00000KT 6SM 12/11 A3009 RMK T01200110 IEM_DS3505
ZGKL,2007-04-17 18:00,ZGKL 171800Z AUTO 02004KT 11SM 12/09 A3006 RMK SLP193 T01250091 57007 IEM_DS3505
ZGKL,2007-04-17 19:00,ZGKL 171900Z AUTO 00000KT 6SM 11/10 A3006 RMK T01100100 IEM_DS3505
ZGKL,2007-04-17 20:00,ZGKL 172000Z AUTO 00000KT 6SM 11/10 A3003 RMK T01100100 IEM_DS3505
ZGKL,2007-04-17 21:00,ZGKL 172100Z AUTO 02002KT 11/08 A3003 RMK 70105 SLP181 T01140084 57013 IEM_DS3505
ZGKL,2007-04-17 22:00,ZGKL 172200Z AUTO 00000KT 1/4SM 10/09 A3003 RMK T01000090 IEM_DS3505
ZGKL,2007-04-17 23:00,ZGKL 172300Z AUTO 00000KT 1/2SM 10/09 A3006 RMK T01000090 IEM_DS3505
ZGKL,2007-04-18 00:00,ZGKL 180000Z AUTO 36002KT 11SM 13/09 A3006 RMK 70104 SLP193 T01300093 52012 IEM_DS3505
ZGKL,2007-04-18 01:00,ZGKL 180100Z AUTO 00000KT 6SM 13/12 A3009 RMK T01300120 IEM_DS3505
ZGKL,2007-04-18 02:00,ZGKL 180200Z AUTO 00000KT 6SM 16/11 A3009 RMK T01600110 IEM_DS3505
ZGKL,2007-04-18 03:00,ZGKL 180300Z AUTO 02002KT 14SM 20/07 A3009 RMK SLP192 T01960067 52001 IEM_DS3505
ZGKL,2007-04-18 04:00,ZGKL 180400Z AUTO 23004KT 6SM 21/08 A3006 RMK T02100080 IEM_DS3505
ZGKL,2007-04-18 05:00,ZGKL 180500Z AUTO 6SM 23/06 A3003 RMK T02300060 IEM_DS3505
ZGKL,2007-04-18 06:00,ZGKL 180600Z AUTO 22004KT 16SM 25/08 A3000 RMK SLP158 T02510077 57032 IEM_DS3505
ZGKL,2007-04-18 07:00,ZGKL 180700Z AUTO 6SM 25/08 A2994 RMK T02500080 IEM_DS3505
ZGKL,2007-04-18 08:00,ZGKL 180800Z AUTO 6SM 26/07 A2994 RMK T02600070 IEM_DS3505
ZGKL,2007-04-18 09:00,ZGKL 180900Z AUTO 27004KT 16SM 27/07 A2991 RMK SLP129 T02690069 57028 IEM_DS3505
ZGKL,2007-04-18 10:00,ZGKL 181000Z AUTO 00000KT 6SM 26/09 A2991 RMK T02600090 IEM_DS3505
ZGKL,2007-04-18 11:00,ZGKL 181100Z AUTO 00000KT 6SM 23/12 A2991 RMK T02300120 IEM_DS3505
ZGKL,2007-04-18 12:00,ZGKL 181200Z AUTO 14002KT 16SM 22/12 A2991 RMK SLP140 T02190116 52010 IEM_DS3505
ZGKL,2007-04-18 13:00,ZGKL 181300Z AUTO 00000KT 6SM 18/14 A2994 RMK T01800140 IEM_DS3505
ZGKL,2007-04-18 14:00,ZGKL 181400Z AUTO 00000KT 6SM 18/15 A2997 RMK T01800150 IEM_DS3505
ZGKL,2007-04-18 15:00,ZGKL 181500Z AUTO 33004KT 12SM 18/12 A2997 RMK SLP151 T01790124 52011 IEM_DS3505
ZGKL,2007-04-18 16:00,ZGKL 181600Z AUTO 31004KT 6SM 16/14 A2994 RMK T01600140 IEM_DS3505
ZGKL,2007-04-18 17:00,ZGKL 181700Z AUTO 32002KT 6SM 15/13 A2994 RMK T01500130 IEM_DS3505
ZGKL,2007-04-18 18:00,ZGKL 181800Z AUTO 02002KT 11SM 15/11 A2994 RMK SLP145 T01510113 57005 IEM_DS3505
ZGKL,2007-04-18 19:00,ZGKL 181900Z AUTO 00000KT 6SM 14/13 A2994 RMK T01400130 IEM_DS3505
ZGKL,2007-04-18 20:00,ZGKL 182000Z AUTO 00000KT 13/12 A2991 RMK T01300120 IEM_DS3505
ZGKL,2007-04-18 21:00,ZGKL 182100Z AUTO 04002KT 10SM 14/11 A2994 RMK SLP140 T01400112 57004 IEM_DS3505
ZGKL,2007-04-18 22:00,ZGKL 182200Z AUTO 00000KT 6SM 12/12 A2994 RMK T01200120 IEM_DS3505
ZGKL,2007-04-18 23:00,ZGKL 182300Z AUTO 00000KT 7SM 13/12 A2994 RMK T01300120 IEM_DS3505
ZGKL,2007-04-19 00:00,ZGKL 190000Z AUTO 04002KT 8SM 16/12 A2997 RMK SLP155 T01570117 52013 IEM_DS3505
ZGKL,2007-04-19 01:00,ZGKL 190100Z AUTO 00000KT 6SM 18/14 A2997 RMK T01800140 IEM_DS3505
ZGKL,2007-04-19 02:00,ZGKL 190200Z AUTO 00000KT 6SM 21/13 A2997 RMK T02100130 IEM_DS3505
ZGKL,2007-04-19 03:00,ZGKL 190300Z AUTO 20006KT 11SM 23/11 A2997 RMK SLP154 T02300108 54000 IEM_DS3505
ZGKL,2007-04-19 04:00,ZGKL 190400Z AUTO 17008KT 6SM 26/10 A2994 RMK T02600100 IEM_DS3505
ZGKL,2007-04-19 05:00,ZGKL 190500Z AUTO 18012KT 6SM 27/09 A2991 RMK T02700090 IEM_DS3505
ZGKL,2007-04-19 06:00,ZGKL 190600Z AUTO 16006KT 15SM 27/10 A2988 RMK SLP122 T02720100 57031 IEM_DS3505
ZGKL,2007-04-19 07:00,ZGKL 190700Z AUTO 14010KT 6SM 28/11 A2985 RMK T02800110 IEM_DS3505
ZGKL,2007-04-19 08:00,ZGKL 190800Z AUTO 12008KT 6SM 28/12 A2983 RMK T02800120 IEM_DS3505
ZGKL,2007-04-19 09:00,ZGKL 190900Z AUTO 18004KT 15SM 27/11 A2980 RMK SLP098 T02740106 57023 IEM_DS3505
ZGKL,2007-04-19 10:00,ZGKL 191000Z AUTO 17006KT 6SM 27/13 A2980 RMK T02700130 IEM_DS3505
ZGKL,2007-04-19 11:00,ZGKL 191100Z AUTO 18006KT 6SM 24/15 A2983 RMK T02400150 IEM_DS3505
ZGKL,2007-04-19 12:00,ZGKL 191200Z AUTO 18002KT 14SM 26/12 A2983 RMK SLP102 T02550124 52003 IEM_DS3505
ZGKL,2007-04-19 13:00,ZGKL 191300Z AUTO 18006KT 6SM 21/16 A2985 RMK T02100160 IEM_DS3505
ZGKL,2007-04-19 14:00,ZGKL 191400Z AUTO 00000KT 6SM 21/15 A2985 RMK T02100150 IEM_DS3505
ZGKL,2007-04-19 15:00,ZGKL 191500Z AUTO 20004KT 14SM 24/11 A2988 RMK SLP117 T02400113 52017 IEM_DS3505
ZGKL,2007-04-19 16:00,ZGKL 191600Z AUTO 00000KT 6SM 19/16 A2988 RMK T01900160 IEM_DS3505
ZGKL,2007-04-19 17:00,ZGKL 191700Z AUTO 00000KT 19/16 A2988 RMK T01900160 IEM_DS3505
ZGKL,2007-04-19 18:00,ZGKL 191800Z AUTO 16002KT 14SM 22/13 RMK SLP118 T02180126 52002 IEM_DS3505
ZGKL,2007-04-19 20:00,ZGKL 192000Z AUTO 00000KT 4SM 17/16 A2988 RMK T01700160 IEM_DS3505
ZGKL,2007-04-19 21:00,ZGKL 192100Z AUTO 14002KT 11SM 19/14 A2988 RMK SLP117 T01920140 57002 IEM_DS3505
ZGKL,2007-04-19 22:00,ZGKL 192200Z AUTO 00000KT 3SM 16/15 A2988 RMK T01600150 IEM_DS3505
ZGKL,2007-04-19 23:00,ZGKL 192300Z AUTO 00000KT 3SM 17/15 A2991 RMK T01700150 IEM_DS3505
ZGKL,2007-04-20 00:00,ZGKL 200000Z AUTO 11004KT 9SM 20/15 A2991 RMK SLP132 T02050148 52014 IEM_DS3505
ZGKL,2007-04-20 01:00,ZGKL 200100Z AUTO 00000KT 4SM 21/16 A2991 RMK T02100160 IEM_DS3505
ZGKL,2007-04-20 02:00,ZGKL 200200Z AUTO 20004KT 6SM 23/17 A2991 RMK T02300170 IEM_DS3505
ZGKL,2007-04-20 03:00,ZGKL 200300Z AUTO 18004KT 8SM 23/14 A2994 RMK SLP135 T02260139 52004 IEM_DS3505
ZGKL,2007-04-20 04:00,ZGKL 200400Z AUTO 18006KT 5SM 21/18 A2991 RMK T02100180 IEM_DS3505
ZGKL,2007-04-20 05:00,ZGKL 200500Z AUTO 12006KT 4SM 21/18 A2991 RMK T02100180 IEM_DS3505
ZGKL,2007-04-20 06:00,ZGKL 200600Z AUTO 18006KT 9SM 22/15 A2988 RMK SLP117 T02230152 57019 IEM_DS3505
ZGKL,2007-04-20 07:00,ZGKL 200700Z AUTO 14006KT 2 1/2SM 20/18 A2985 RMK T02000180 IEM_DS3505
ZGKL,2007-04-20 08:00,ZGKL 200800Z AUTO 14006KT 2 1/2SM 20/18 A2983 RMK T02000180 IEM_DS3505
ZGKL,2007-04-20 09:00,ZGKL 200900Z AUTO 16002KT 6SM 21/17 A2983 RMK SLP106 T02120166 57012 IEM_DS3505
ZGKL,2007-04-20 10:00,ZGKL 201000Z AUTO 00000KT 1SM 19/18 A2983 RMK T01900180 IEM_DS3505
ZGKL,2007-04-20 11:00,ZGKL 201100Z AUTO 00000KT 1SM 19/18 A2985 RMK T01900180 IEM_DS3505
ZGKL,2007-04-20 12:00,ZGKL 201200Z AUTO 04002KT 4SM 20/18 A2985 RMK 60000 SLP114 T01950182 52008 IEM_DS3505
ZGKL,2007-04-20 13:00,ZGKL 201300Z AUTO 1SM 19/18 A2988 RMK T01900180 IEM_DS3505
ZGKL,2007-04-20 14:00,ZGKL 201400Z AUTO 1SM 19/18 A2988 RMK T01900180 IEM_DS3505
ZGKL,2007-04-20 15:00,ZGKL 201500Z AUTO 07002KT 4SM 19/18 A2988 RMK SLP124 T01900183 52010 IEM_DS3505
ZGKL,2007-04-20 16:00,ZGKL 201600Z AUTO 33004KT 1SM 19/18 A2988 RMK T01900180 IEM_DS3505
ZGKL,2007-04-20 17:00,ZGKL 201700Z AUTO 1SM 19/18 A2988 RMK T01900180 IEM_DS3505
ZGKL,2007-04-20 18:00,ZGKL 201800Z AUTO 00000KT 3SM 19/18 A2985 RMK 60001 SLP116 T01920185 57008 IEM_DS3505
ZGKL,2007-04-20 19:00,ZGKL 201900Z AUTO 1SM 19/18 A2985 RMK T01900180 IEM_DS3505
ZGKL,2007-04-20 20:00,ZGKL 202000Z AUTO 00000KT 1SM 19/18 A2983 RMK T01900180 IEM_DS3505
ZGKL,2007-04-20 21:00,ZGKL 202100Z AUTO 02002KT 4SM 19/19 A2983 RMK 70003 SLP105 T01900188 57011 IEM_DS3505
ZGKL,2007-04-20 22:00,ZGKL 202200Z AUTO 1SM 19/18 A2983 RMK T01900180 IEM_DS3505
ZGKL,2007-04-20 23:00,ZGKL 202300Z AUTO 00000KT 1SM 19/18 A2983 RMK T01900180 IEM_DS3505
ZGKL,2007-04-21 00:00,ZGKL 210000Z AUTO 32002KT 2SM 20/19 A2983 RMK 60002 70003 SLP108 T01950193 52003 IEM_DS3505
ZGKL,2007-04-21 01:00,ZGKL 210100Z AUTO 1 1/2SM 20/19 A2985 RMK T02000190 IEM_DS3505
ZGKL,2007-04-21 02:00,ZGKL 210200Z AUTO 00000KT 1 1/2SM 21/19 A2985 RMK T02100190 IEM_DS3505
ZGKL,2007-04-21 03:00,ZGKL 210300Z AUTO 04002KT 2SM 21/19 A2983 RMK SLP107 T02090188 57001 IEM_DS3505
ZGKL,2007-04-21 04:00,ZGKL 210400Z AUTO 00000KT 2 1/2SM 22/19 A2983 RMK T02200190 IEM_DS3505
ZGKL,2007-04-21 05:00,ZGKL 210500Z AUTO 00000KT 2 1/2SM 22/20 A2980 RMK T02200200 IEM_DS3505
ZGKL,2007-04-21 06:00,ZGKL 210600Z AUTO 02002KT 2SM 22/20 A2977 RMK 60000 SLP081 T02240196 57025 IEM_DS3505
ZGKL,2007-04-21 07:00,ZGKL 210700Z AUTO 2 1/2SM 22/20 A2974 RMK T02200200 IEM_DS3505
ZGKL,2007-04-21 08:00,ZGKL 210800Z AUTO 34004KT 2SM 22/20 A2971 RMK T02200200 IEM_DS3505
ZGKL,2007-04-21 09:00,ZGKL 210900Z AUTO 36002KT 2SM 22/20 A2971 RMK SLP058 T02230200 57023 IEM_DS3505
ZGKL,2007-04-21 10:00,ZGKL 211000Z AUTO 05004KT 1 1/4SM 22/20 A2968 RMK T02200200 IEM_DS3505
ZGKL,2007-04-21 11:00,ZGKL 211100Z AUTO 32004KT 1SM 21/20 A2971 RMK T02100200 IEM_DS3505
ZGKL,2007-04-21 12:00,ZGKL 211200Z AUTO 18002KT 2SM 22/20 A2971 RMK 60000 SLP064 T02170203 52006 IEM_DS3505
ZGKL,2007-04-21 13:00,ZGKL 211300Z AUTO 00000KT 1SM 21/20 A2971 RMK T02100200 IEM_DS3505
ZGKL,2007-04-21 14:00,ZGKL 211400Z AUTO 1SM 21/20 A2974 RMK T02100200 IEM_DS3505
ZGKL,2007-04-21 15:00,ZGKL 211500Z AUTO 03002KT 2SM 21/20 A2974 RMK SLP072 T02130205 52008 IEM_DS3505
ZGKL,2007-04-21 16:00,ZGKL 211600Z AUTO 00000KT 1SM 21/20 A2974 RMK T02100200 IEM_DS3505
ZGKL,2007-04-21 17:00,ZGKL 211700Z AUTO 00000KT 1SM 21/20 A2971 RMK T02100200 IEM_DS3505
ZGKL,2007-04-21 18:00,ZGKL 211800Z AUTO 00000KT 1 1/4SM 21/21 A2971 RMK 60001 SLP061 T02110208 57010 IEM_DS3505
ZGKL,2007-04-21 19:00,ZGKL 211900Z AUTO 00000KT 21/20 A2968 RMK T02100200 IEM_DS3505
ZGKL,2007-04-21 20:00,ZGKL 212000Z AUTO 00000KT 21/20 A2968 RMK T02100200 IEM_DS3505
ZGKL,2007-04-21 21:00,ZGKL 212100Z AUTO 20002KT 2SM 22/22 A2968 RMK 70003 SLP052 T02180218 57009 IEM_DS3505
ZGKL,2007-04-21 22:00,ZGKL 212200Z AUTO 00000KT 1SM 21/20 A2968 RMK T02100200 IEM_DS3505
ZGKL,2007-04-21 23:00,ZGKL 212300Z AUTO 1/2SM 21/20 A2968 RMK T02100200 IEM_DS3505
ZGKL,2007-04-22 00:00,ZGKL 220000Z AUTO 00000KT 4SM 23/22 A2971 RMK 60002 70003 SLP062 T02310223 52010 IEM_DS3505
ZGKL,2007-04-22 01:00,ZGKL 220100Z AUTO 20006KT 3SM 24/22 A2974 RMK T02400220 IEM_DS3505
ZGKL,2007-04-22 02:00,ZGKL 220200Z AUTO 20006KT 4SM 25/23 A2974 RMK T02500230 IEM_DS3505
ZGKL,2007-04-22 03:00,ZGKL 220300Z AUTO 20006KT 4SM 27/23 A2971 RMK SLP060 T02700228 54000 IEM_DS3505
ZGKL,2007-04-22 04:00,ZGKL 220400Z AUTO 19012KT 7SM 28/22 A2968 RMK T02800220 IEM_DS3505
ZGKL,2007-04-22 05:00,ZGKL 220500Z AUTO 20010KT 7SM 29/23 A2968 RMK T02900230 IEM_DS3505
ZGKL,2007-04-22 06:00,ZGKL 220600Z AUTO 20004KT 8SM 28/22 A2965 RMK 60002 SLP038 T02840222 57022 IEM_DS3505
ZGKL,2007-04-22 07:00,ZGKL 220700Z AUTO 36012KT 7SM 26/20 A2965 RMK T02600200 IEM_DS3505
ZGKL,2007-04-22 08:00,ZGKL 220800Z AUTO 34006KT 5SM 22/21 A2965 RMK T02200210 IEM_DS3505
ZGKL,2007-04-22 09:00,ZGKL 220900Z AUTO 18002KT 7SM 24/23 A2968 RMK SLP043 T02380233 52004 IEM_DS3505
ZGKL,2007-04-22 10:00,ZGKL 221000Z AUTO 00000KT 6SM 24/21 A2965 RMK T02400210 IEM_DS3505
ZGKL,2007-04-22 11:00,ZGKL 221100Z AUTO 6SM 24/22 A2968 RMK T02400220 IEM_DS3505
ZGKL,2007-04-22 12:00,ZGKL 221200Z AUTO 07002KT 7SM 23/23 A2971 RMK 60039 SLP062 T02270227 52019 IEM_DS3505
ZGKL,2007-04-22 13:00,ZGKL 221300Z AUTO 36004KT 3SM 22/21 A2974 RMK T02200210 IEM_DS3505
ZGKL,2007-04-22 14:00,ZGKL 221400Z AUTO 2SM 22/21 A2977 RMK T02200210 IEM_DS3505
ZGKL,2007-04-22 15:00,ZGKL 221500Z AUTO 02006KT 9SM 22/19 A2977 RMK SLP089 T02160190 52027 IEM_DS3505
ZGKL,2007-04-22 16:00,ZGKL 221600Z AUTO 04008KT 7SM 22/18 A2980 RMK T02200180 IEM_DS3505
ZGKL,2007-04-22 17:00,ZGKL 221700Z AUTO 7SM 21/19 A2980 RMK T02100190 IEM_DS3505
ZGKL,2007-04-22 18:00,ZGKL 221800Z AUTO 02006KT 9SM 21/18 A2977 RMK SLP092 T02080184 52003 IEM_DS3505
ZGKL,2007-04-22 19:00,ZGKL 221900Z AUTO 06004KT 21/18 A2977 RMK T02100180 IEM_DS3505
ZGKL,2007-04-22 20:00,ZGKL 222000Z AUTO 20/18 A2974 RMK T02000180 IEM_DS3505
ZGKL,2007-04-22 21:00,ZGKL 222100Z AUTO 02008KT 7SM 20/18 A2974 RMK 70043 SLP074 T02000176 57019 IEM_DS3505
ZGKL,2007-04-22 22:00,ZGKL 222200Z AUTO 00000KT 7SM 20/18 A2977 RMK T02000180 IEM_DS3505
ZGKL,2007-04-22 23:00,ZGKL 222300Z AUTO 00000KT 7SM 20/17 A2977 RMK T02000170 IEM_DS3505
ZGKL,2007-04-23 00:00,ZGKL 230000Z AUTO 02006KT 9SM 21/17 A2980 RMK 60000 70043 SLP091 T02060174 52016 IEM_DS3505
ZGKL,2007-04-23 01:00,ZGKL 230100Z AUTO 7SM 21/17 A2983 RMK T02100170 IEM_DS3505
ZGKL,2007-04-23 02:00,ZGKL 230200Z AUTO 04008KT 7SM 23/18 A2983 RMK T02300180 IEM_DS3505
ZGKL,2007-04-23 03:00,ZGKL 230300Z AUTO 02008KT 9SM 21/17 A2980 RMK SLP098 T02060168 52007 IEM_DS3505
ZGKL,2007-04-23 04:00,ZGKL 230400Z AUTO 07008KT 7SM 21/18 A2980 RMK T02100180 IEM_DS3505
ZGKL,2007-04-23 05:00,ZGKL 230500Z AUTO 06008KT 7SM 21/17 A2980 RMK T02100170 IEM_DS3505
ZGKL,2007-04-23 06:00,ZGKL 230600Z AUTO 02008KT 9SM 20/16 A2977 RMK 60002 SLP079 T01990162 57019 IEM_DS3505
ZGKL,2007-04-23 07:00,ZGKL 230700Z AUTO 03008KT 7SM 21/17 A2974 RMK T02100170 IEM_DS3505
ZGKL,2007-04-23 08:00,ZGKL 230800Z AUTO 07006KT 7SM 21/17 A2974 RMK T02100170 IEM_DS3505
ZGKL,2007-04-23 09:00,ZGKL 230900Z AUTO 02004KT 9SM 20/16 A2974 RMK SLP073 T01980163 57006 IEM_DS3505
ZGKL,2007-04-23 10:00,ZGKL 231000Z AUTO 08004KT 7SM 20/17 A2974 RMK T02000170 IEM_DS3505
ZGKL,2007-04-23 11:00,ZGKL 231100Z AUTO 07006KT 7SM 20/16 A2977 RMK T02000160 IEM_DS3505
ZGKL,2007-04-23 12:00,ZGKL 231200Z AUTO 02006KT 9SM 19/15 A2980 RMK 60000 SLP093 T01860153 52019 IEM_DS3505
ZGKL,2007-04-23 13:00,ZGKL 231300Z AUTO 7SM 19/17 A2983 RMK T01900170 IEM_DS3505
ZGKL,2007-04-23 14:00,ZGKL 231400Z AUTO 06006KT 7SM 18/16 A2983 RMK T01800160 IEM_DS3505
ZGKL,2007-04-23 15:00,ZGKL 231500Z AUTO 02006KT 9SM 18/15 A2980 RMK SLP099 T01790150 52006 IEM_DS3505
ZGKL,2007-04-23 16:00,ZGKL 231600Z AUTO 4SM 18/16 A2980 RMK T01800160 IEM_DS3505
ZGKL,2007-04-23 17:00,ZGKL 231700Z AUTO 10008KT 1SM 17/16 A2980 RMK T01700160 IEM_DS3505
ZGKL,2007-04-23 18:00,ZGKL 231800Z AUTO 02004KT 5SM 16/16 A2985 RMK 60114 SLP112 T01610161 52012 IEM_DS3505
ZGKL,2007-04-23 19:00,ZGKL 231900Z AUTO 05006KT 4SM 16/15 A2983 RMK T01600150 IEM_DS3505
ZGKL,2007-04-23 20:00,ZGKL 232000Z AUTO 4SM 16/15 A2985 RMK T01600150 IEM_DS3505
ZGKL,2007-04-23 21:00,ZGKL 232100Z AUTO 24004KT 4SM 16/15 A2983 RMK T01600150 IEM_DS3505
ZGKL,2007-04-23 22:00,ZGKL 232200Z AUTO 00000KT 4SM 16/15 A2985 RMK T01600150 IEM_DS3505
ZGKL,2007-04-23 23:00,ZGKL 232300Z AUTO 4SM 17/15 A2991 RMK T01700150 IEM_DS3505
ZGKL,2007-04-24 00:00,ZGKL 240000Z AUTO 36014KT 10SM 16/13 A2991 RMK 60043 70158 SLP135 T01590132 52031 IEM_DS3505
ZGKL,2007-04-24 01:00,ZGKL 240100Z AUTO 06010KT 7SM 16/13 A2994 RMK T01600130 IEM_DS3505
ZGKL,2007-04-24 02:00,ZGKL 240200Z AUTO 04008KT 7SM 17/13 A2997 RMK T01700130 IEM_DS3505
ZGKL,2007-04-24 03:00,ZGKL 240300Z AUTO 02008KT 12SM 17/13 A2997 RMK SLP160 T01730130 52024 IEM_DS3505
ZGKL,2007-04-24 04:00,ZGKL 240400Z AUTO 03010KT 7SM 19/13 A2997 RMK T01900130 IEM_DS3505
ZGKL,2007-04-24 05:00,ZGKL 240500Z AUTO 05008KT 7SM 20/14 A2997 RMK T02000140 IEM_DS3505
ZGKL,2007-04-24 06:00,ZGKL 240600Z AUTO 04010KT 16SM 20/13 A2994 RMK SLP154 T01960126 57005 IEM_DS3505
ZGKL,2007-04-24 07:00,ZGKL 240700Z AUTO 06014KT 7SM 18/13 A2994 RMK T01800130 IEM_DS3505
ZGKL,2007-04-24 08:00,ZGKL 240800Z AUTO 05012KT 7SM 18/12 A2994 RMK T01800120 IEM_DS3505
ZGKL,2007-04-24 09:00,ZGKL 240900Z AUTO 02008KT 14SM 18/12 A2994 RMK SLP155 T01750122 54000 IEM_DS3505
ZGKL,2007-04-24 10:00,ZGKL 241000Z AUTO 05014KT 7SM 17/12 A2997 RMK T01700120 IEM_DS3505
ZGKL,2007-04-24 11:00,ZGKL 241100Z AUTO 05012KT 7SM 17/11 A3000 RMK T01700110 IEM_DS3505
ZGKL,2007-04-24 12:00,ZGKL 241200Z AUTO 02006KT 11SM 16/12 A3003 RMK SLP177 T01580116 52021 IEM_DS3505
ZGKL,2007-04-24 13:00,ZGKL 241300Z AUTO 34004KT 5SM 15/12 A3006 RMK T01500120 IEM_DS3505
ZGKL,2007-04-24 14:00,ZGKL 241400Z AUTO 5SM 15/12 A3006 RMK T01500120 IEM_DS3505
ZGKL,2007-04-24 15:00,ZGKL 241500Z AUTO 02006KT 9SM 15/12 A3009 RMK SLP196 T01540120 52019 IEM_DS3505
ZGKL,2007-04-24 16:00,ZGKL 241600Z AUTO 03006KT 3SM 15/12 A3006 RMK T01500120 IEM_DS3505
ZGKL,2007-04-24 17:00,ZGKL 241700Z AUTO 34006KT 4SM 15/13 A3003 RMK T01500130 IEM_DS3505
ZGKL,2007-04-24 18:00,ZGKL 241800Z AUTO 02008KT 7SM 15/11 A3003 RMK 60000 SLP181 T01520114 57014 IEM_DS3505
ZGKL,2007-04-24 19:00,ZGKL 241900Z AUTO 00000KT 4SM 14/13 A3003 RMK T01400130 IEM_DS3505
ZGKL,2007-04-24 20:00,ZGKL 242000Z AUTO 00000KT 4SM 14/13 A3003 RMK T01400130 IEM_DS3505
ZGKL,2007-04-24 21:00,ZGKL 242100Z AUTO 02004KT 7SM 15/11 A3003 RMK 70000 SLP183 T01480112 52001 IEM_DS3505
ZGKL,2007-04-24 22:00,ZGKL 242200Z AUTO 00000KT 2 1/2SM 14/13 A3006 RMK T01400130 IEM_DS3505
ZGKL,2007-04-24 23:00,ZGKL 242300Z AUTO 00000KT 4SM 14/13 A3009 RMK T01400130 IEM_DS3505
ZGKL,2007-04-25 00:00,ZGKL 250000Z AUTO 02006KT 7SM 16/11 A3009 RMK 60003 70004 SLP204 T01550109 52020 IEM_DS3505
ZGKL,2007-04-25 01:00,ZGKL 250100Z AUTO 03008KT 6SM 18/12 A3012 RMK T01800120 IEM_DS3505
ZGKL,2007-04-25 02:00,ZGKL 250200Z AUTO 6SM 19/10 A3012 RMK T01900100 IEM_DS3505
ZGKL,2007-04-25 03:00,ZGKL 250300Z AUTO 04006KT 9SM 20/10 A3012 RMK SLP205 T01950105 52002 IEM_DS3505
ZGKL,2007-04-25 04:00,ZGKL 250400Z AUTO 6SM 20/11 A3009 RMK T02000110 IEM_DS3505
ZGKL,2007-04-25 05:00,ZGKL 250500Z AUTO 03010KT 6SM 22/10 A3006 RMK T02200100 IEM_DS3505
ZGKL,2007-04-25 06:00,ZGKL 250600Z AUTO 09006KT 11SM 23/12 A3003 RMK SLP177 T02320116 57026 IEM_DS3505
ZGKL,2007-04-25 07:00,ZGKL 250700Z AUTO 09008KT 6SM 23/12 A3000 RMK T02300120 IEM_DS3505
ZGKL,2007-04-25 08:00,ZGKL 250800Z AUTO 11004KT 6SM 24/12 A3000 RMK T02400120 IEM_DS3505
ZGKL,2007-04-25 09:00,ZGKL 250900Z AUTO 36006KT 12SM 25/11 A3000 RMK SLP159 T02470109 57017 IEM_DS3505
ZGKL,2007-04-25 10:00,ZGKL 251000Z AUTO 08004KT 6SM 23/12 A3000 RMK T02300120 IEM_DS3505
ZGKL,2007-04-25 11:00,ZGKL 251100Z AUTO 09002KT 6SM 22/14 A2997 RMK T02200140 IEM_DS3505
ZGKL,2007-04-25 12:00,ZGKL 251200Z AUTO 02002KT 11SM 21/13 A3000 RMK SLP164 T02060126 52004 IEM_DS3505
ZGKL,2007-04-25 13:00,ZGKL 251300Z AUTO 35004KT 6SM 19/13 A3000 RMK T01900130 IEM_DS3505
ZGKL,2007-04-25 14:00,ZGKL 251400Z AUTO 33006KT 6SM 19/14 A3003 RMK T01900140 IEM_DS3505
ZGKL,2007-04-25 15:00,ZGKL 251500Z AUTO 02006KT 11SM 19/12 A3003 RMK SLP177 T01900120 52013 IEM_DS3505
ZGKL,2007-04-25 16:00,ZGKL 251600Z AUTO 6SM 17/15 A3003 RMK T01700150 IEM_DS3505
ZGKL,2007-04-25 17:00,ZGKL 251700Z AUTO 00000KT 6SM 17/15 A3003 RMK T01700150 IEM_DS3505
ZGKL,2007-04-25 18:00,ZGKL 251800Z AUTO 02002KT 11SM 18/12 A3003 RMK SLP170 T01810123 57006 IEM_DS3505
ZGKL,2007-04-25 19:00,ZGKL 251900Z AUTO 00000KT 6SM 17/15 A3003 RMK T01700150 IEM_DS3505
ZGKL,2007-04-25 20:00,ZGKL 252000Z AUTO 00000KT 6SM 17/15 A3003 RMK T01700150 IEM_DS3505
ZGKL,2007-04-25 21:00,ZGKL 252100Z AUTO 07002KT 10SM 17/13 A3003 RMK 70003 SLP171 T01730128 52001 IEM_DS3505
ZGKL,2007-04-25 22:00,ZGKL 252200Z AUTO 00000KT 6SM 17/15 A3003 RMK T01700150 IEM_DS3505
ZGKL,2007-04-25 23:00,ZGKL 252300Z AUTO 00000KT 6SM 17/15 A3003 RMK T01700150 IEM_DS3505
ZGKL,2007-04-26 00:00,ZGKL 260000Z AUTO 04002KT 8SM 18/13 A3006 RMK SLP181 T01790132 52009 IEM_DS3505
ZGKL,2007-04-26 01:00,ZGKL 260100Z AUTO 36004KT 6SM 19/15 A3006 RMK T01900150 IEM_DS3505
ZGKL,2007-04-26 02:00,ZGKL 260200Z AUTO 33004KT 6SM 20/14 A3006 RMK T02000140 IEM_DS3505
ZGKL,2007-04-26 03:00,ZGKL 260300Z AUTO 34002KT 8SM 20/14 A3006 RMK SLP186 T02020137 52005 IEM_DS3505
ZGKL,2007-04-26 04:00,ZGKL 260400Z AUTO 7SM 21/15 A3006 RMK T02100150 IEM_DS3505
ZGKL,2007-04-26 05:00,ZGKL 260500Z AUTO 7SM 21/15 A3003 RMK T02100150 IEM_DS3505
ZGKL,2007-04-26 06:00,ZGKL 260600Z AUTO 36002KT 8SM 22/14 A3000 RMK SLP164 T02200141 57021 IEM_DS3505
ZGKL,2007-04-26 07:00,ZGKL 260700Z AUTO 7SM 22/14 A2997 RMK T02200140 IEM_DS3505
ZGKL,2007-04-26 08:00,ZGKL 260800Z AUTO 33004KT 7SM 21/15 A2997 RMK T02100150 IEM_DS3505
ZGKL,2007-04-26 09:00,ZGKL 260900Z AUTO 02004KT 6SM 22/15 A2997 RMK SLP152 T02180154 57012 IEM_DS3505
ZGKL,2007-04-26 10:00,ZGKL 261000Z AUTO 35004KT 7SM 21/16 A2997 RMK T02100160 IEM_DS3505
ZGKL,2007-04-26 11:00,ZGKL 261100Z AUTO 35008KT 5SM 20/17 A3000 RMK T02000170 IEM_DS3505
ZGKL,2007-04-26 12:00,ZGKL 261200Z AUTO 02002KT 6SM 21/16 A3000 RMK 60000 SLP168 T02060158 52015 IEM_DS3505
ZGKL,2007-04-26 13:00,ZGKL 261300Z AUTO 32004KT 4SM 19/17 A3003 RMK T01900170 IEM_DS3505
ZGKL,2007-04-26 14:00,ZGKL 261400Z AUTO 00000KT 4SM 19/17 A3003 RMK T01900170 IEM_DS3505
ZGKL,2007-04-26 15:00,ZGKL 261500Z AUTO 34004KT 6SM 20/16 A3006 RMK SLP181 T01960161 52014 IEM_DS3505
ZGKL,2007-04-26 16:00,ZGKL 261600Z AUTO 4SM 19/17 A3006 RMK T01900170 IEM_DS3505
ZGKL,2007-04-26 17:00,ZGKL 261700Z AUTO 4SM 19/17 A3006 RMK T01900170 IEM_DS3505
ZGKL,2007-04-26 18:00,ZGKL 261800Z AUTO 02006KT 6SM 19/16 A3003 RMK SLP175 T01940157 57006 IEM_DS3505
ZGKL,2007-04-26 19:00,ZGKL 261900Z AUTO 35004KT 4SM 19/17 A3003 RMK T01900170 IEM_DS3505
ZGKL,2007-04-26 20:00,ZGKL 262000Z AUTO 34006KT 3SM 18/17 A3003 RMK T01800170 IEM_DS3505
ZGKL,2007-04-26 21:00,ZGKL 262100Z AUTO 02008KT 7SM 18/16 A3003 RMK 70000 SLP179 T01770157 52003 IEM_DS3505
ZGKL,2007-04-26 22:00,ZGKL 262200Z AUTO 33004KT 4SM 18/17 A3006 RMK T01800170 IEM_DS3505
ZGKL,2007-04-26 23:00,ZGKL 262300Z AUTO 4SM 18/17 A3006 RMK T01800170 IEM_DS3505
ZGKL,2007-04-27 00:00,ZGKL 270000Z AUTO 02006KT 6SM 18/15 A3009 RMK 60000 70000 SLP194 T01800153 52015 IEM_DS3505
ZGKL,2007-04-27 01:00,ZGKL 270100Z AUTO 00000KT 3SM 19/17 A3009 RMK T01900170 IEM_DS3505
ZGKL,2007-04-27 02:00,ZGKL 270200Z AUTO 00000KT 2 1/2SM 19/17 A3009 RMK T01900170 IEM_DS3505
ZGKL,2007-04-27 03:00,ZGKL 270300Z AUTO 02006KT 6SM 19/15 A3009 RMK SLP199 T01860153 52005 IEM_DS3505
ZGKL,2007-04-27 04:00,ZGKL 270400Z AUTO 00000KT 3SM 19/17 A3009 RMK T01900170 IEM_DS3505
ZGKL,2007-04-27 05:00,ZGKL 270500Z AUTO 3SM 19/17 A3006 RMK T01900170 IEM_DS3505
ZGKL,2007-04-27 06:00,ZGKL 270600Z AUTO 02004KT 6SM 19/15 A3006 RMK 60000 SLP183 T01870154 57016 IEM_DS3505
ZGKL,2007-04-27 07:00,ZGKL 270700Z AUTO 34008KT 7SM 18/15 A3003 RMK T01800150 IEM_DS3505
ZGKL,2007-04-27 08:00,ZGKL 270800Z AUTO 33006KT 4SM 17/15 A3003 RMK T01700150 IEM_DS3505
ZGKL,2007-04-27 09:00,ZGKL 270900Z AUTO 02006KT 4SM 18/16 A3003 RMK SLP174 T01760158 57010 IEM_DS3505
ZGKL,2007-04-27 10:00,ZGKL 271000Z AUTO 7SM 17/16 A3003 RMK T01700160 IEM_DS3505
ZGKL,2007-04-27 11:00,ZGKL 271100Z AUTO 00000KT 7SM 17/16 A3003 RMK T01700160 IEM_DS3505
ZGKL,2007-04-27 12:00,ZGKL 271200Z AUTO 02006KT 4SM 17/15 A3006 RMK 60000 SLP184 T01710147 52010 IEM_DS3505
ZGKL,2007-04-27 13:00,ZGKL 271300Z AUTO 00000KT 4SM 17/16 A3006 RMK T01700160 IEM_DS3505
ZGKL,2007-04-27 14:00,ZGKL 271400Z AUTO 00000KT 4SM 17/16 A3009 RMK T01700160 IEM_DS3505
ZGKL,2007-04-27 15:00,ZGKL 271500Z AUTO 02008KT 4SM 18/14 A3009 RMK SLP202 T01750140 52018 IEM_DS3505
ZGKL,2007-04-27 16:00,ZGKL 271600Z AUTO 00000KT 5SM 17/16 A3009 RMK T01700160 IEM_DS3505
ZGKL,2007-04-27 17:00,ZGKL 271700Z AUTO 5SM 17/16 A3009 RMK T01700160 IEM_DS3505
ZGKL,2007-04-27 18:00,ZGKL 271800Z AUTO 02006KT 4SM 17/14 A3006 RMK 60000 SLP185 T01690138 57017 IEM_DS3505
ZGKL,2007-04-27 19:00,ZGKL 271900Z AUTO 00000KT 4SM 17/16 A3003 RMK T01700160 IEM_DS3505
ZGKL,2007-04-27 20:00,ZGKL 272000Z AUTO 4SM 16/15 A3000 RMK T01600150 IEM_DS3505
ZGKL,2007-04-27 21:00,ZGKL 272100Z AUTO 02004KT 5SM 17/14 A3000 RMK 70000 SLP171 T01660135 57014 IEM_DS3505
ZGKL,2007-04-27 22:00,ZGKL 272200Z AUTO 00000KT 2SM 16/15 A3003 RMK T01600150 IEM_DS3505
ZGKL,2007-04-27 23:00,ZGKL 272300Z AUTO 00000KT 2SM 17/15 A3003 RMK T01700150 IEM_DS3505
ZGKL,2007-04-28 00:00,ZGKL 280000Z AUTO 02006KT 6SM 17/14 A3006 RMK 60000 70000 SLP183 T01670138 52011 IEM_DS3505
ZGKL,2007-04-28 01:00,ZGKL 280100Z AUTO 00000KT 2SM 17/16 A3006 RMK T01700160 IEM_DS3505
ZGKL,2007-04-28 02:00,ZGKL 280200Z AUTO 00000KT 4SM 17/15 A3006 RMK T01700150 IEM_DS3505
ZGKL,2007-04-28 03:00,ZGKL 280300Z AUTO 02004KT 4SM 17/15 A3006 RMK SLP188 T01670149 52006 IEM_DS3505
ZGKL,2007-04-28 04:00,ZGKL 280400Z AUTO 00000KT 2 1/2SM 17/16 A3006 RMK T01700160 IEM_DS3505
ZGKL,2007-04-28 05:00,ZGKL 280500Z AUTO 29002KT 2 1/2SM 17/16 A3006 RMK T01700160 IEM_DS3505
ZGKL,2007-04-28 06:00,ZGKL 280600Z AUTO 02006KT 3SM 17/16 A3003 RMK 60047 SLP171 T01700157 57017 IEM_DS3505
ZGKL,2007-04-28 07:00,ZGKL 280700Z AUTO 00000KT 4SM 17/16 A3000 RMK T01700160 IEM_DS3505
ZGKL,2007-04-28 08:00,ZGKL 280800Z AUTO 00000KT 3SM 17/16 A2997 RMK T01700160 IEM_DS3505
ZGKL,2007-04-28 09:00,ZGKL 280900Z AUTO 02004KT 4SM 17/15 A2997 RMK SLP158 T01680152 57013 IEM_DS3505
ZGKL,2007-04-28 10:00,ZGKL 281000Z AUTO 2 1/2SM 18/16 A2997 RMK T01800160 IEM_DS3505
ZGKL,2007-04-28 11:00,ZGKL 281100Z AUTO 06004KT 2 1/2SM 17/15 A3000 RMK T01700150 IEM_DS3505
ZGKL,2007-04-28 12:00,ZGKL 281200Z AUTO 02006KT 7SM 16/15 A3000 RMK 60012 SLP169 T01610146 52010 IEM_DS3505
ZGKL,2007-04-28 13:00,ZGKL 281300Z AUTO 2SM 16/15 A3003 RMK T01600150 IEM_DS3505
ZGKL,2007-04-28 14:00,ZGKL 281400Z AUTO 06002KT 1 1/4SM 16/15 A3006 RMK T01600150 IEM_DS3505
ZGKL,2007-04-28 15:00,ZGKL 281500Z AUTO 36004KT 6SM 16/15 A3006 RMK SLP187 T01560153 52018 IEM_DS3505
ZGKL,2007-04-28 16:00,ZGKL 281600Z AUTO 04004KT 2SM 16/15 A3003 RMK T01600150 IEM_DS3505
ZGKL,2007-04-28 17:00,ZGKL 281700Z AUTO 00000KT 2SM 16/15 A3003 RMK T01600150 IEM_DS3505
ZGKL,2007-04-28 18:00,ZGKL 281800Z AUTO 36002KT 3SM 15/15 A3000 RMK 60079 SLP168 T01530153 57019 IEM_DS3505
ZGKL,2007-04-28 19:00,ZGKL 281900Z AUTO 00000KT 16/15 A2997 RMK T01600150 IEM_DS3505
ZGKL,2007-04-28 20:00,ZGKL 282000Z AUTO 00000KT 16/15 A2997 RMK T01600150 IEM_DS3505
ZGKL,2007-04-28 21:00,ZGKL 282100Z AUTO 02002KT 3SM 15/15 A2997 RMK 70193 SLP162 T01510151 57006 IEM_DS3505
ZGKL,2007-04-28 22:00,ZGKL 282200Z AUTO 00000KT 4SM 16/15 A3000 RMK T01600150 IEM_DS3505
ZGKL,2007-04-28 23:00,ZGKL 282300Z AUTO 00000KT 4SM 16/15 A3000 RMK T01600150 IEM_DS3505
ZGKL,2007-04-29 00:00,ZGKL 290000Z AUTO 29004KT 2 1/2SM 16/15 A3003 RMK 60071 70209 SLP177 T01550153 52015 IEM_DS3505
ZGKL,2007-04-29 01:00,ZGKL 290100Z AUTO 00000KT 7SM 16/15 A3003 RMK T01600150 IEM_DS3505
ZGKL,2007-04-29 02:00,ZGKL 290200Z AUTO 00000KT 6SM 16/15 A3006 RMK T01600150 IEM_DS3505
ZGKL,2007-04-29 03:00,ZGKL 290300Z AUTO 32002KT 2 1/2SM 16/16 A3006 RMK SLP187 T01640159 52010 IEM_DS3505
ZGKL,2007-04-29 04:00,ZGKL 290400Z AUTO 00000KT 7SM 17/15 A3006 RMK T01700150 IEM_DS3505
ZGKL,2007-04-29 05:00,ZGKL 290500Z AUTO 00000KT 3SM 17/15 A3003 RMK T01700150 IEM_DS3505
ZGKL,2007-04-29 06:00,ZGKL 290600Z AUTO 18002KT 2 1/2SM 17/16 A3003 RMK 60020 SLP168 T01670159 57019 IEM_DS3505
ZGKL,2007-04-29 07:00,ZGKL 290700Z AUTO 00000KT 5SM 17/15 A3000 RMK T01700150 IEM_DS3505
ZGKL,2007-04-29 08:00,ZGKL 290800Z AUTO 00000KT 7SM 17/15 A2997 RMK T01700150 IEM_DS3505
ZGKL,2007-04-29 09:00,ZGKL 290900Z AUTO 16002KT 5SM 18/16 A2997 RMK SLP160 T01750158 57007 IEM_DS3505
ZGKL,2007-04-29 10:00,ZGKL 291000Z AUTO 00000KT 7SM 18/15 A2997 RMK T01800150 IEM_DS3505
ZGKL,2007-04-29 11:00,ZGKL 291100Z AUTO 00000KT 7SM 17/16 A3000 RMK T01700160 IEM_DS3505
ZGKL,2007-04-29 12:00,ZGKL 291200Z AUTO 02002KT 5SM 17/16 A3003 RMK 60008 SLP174 T01690164 52013 IEM_DS3505
ZGKL,2007-04-29 13:00,ZGKL 291300Z AUTO 00000KT 5SM 16/15 A3003 RMK T01600150 IEM_DS3505
ZGKL,2007-04-29 14:00,ZGKL 291400Z AUTO 00000KT 2 1/2SM 16/15 A3006 RMK T01600150 IEM_DS3505
ZGKL,2007-04-29 15:00,ZGKL 291500Z AUTO 02002KT 5SM 16/16 A3006 RMK SLP188 T01580158 52014 IEM_DS3505
ZGKL,2007-04-29 16:00,ZGKL 291600Z AUTO 31004KT 2 1/2SM 15/15 A3006 RMK T01500150 IEM_DS3505
ZGKL,2007-04-29 17:00,ZGKL 291700Z AUTO 00000KT 2 1/2SM 15/14 A3003 RMK T01500140 IEM_DS3505
ZGKL,2007-04-29 18:00,ZGKL 291800Z AUTO 36004KT 4SM 15/15 A3003 RMK SLP180 T01520152 57008 IEM_DS3505
ZGKL,2007-04-29 19:00,ZGKL 291900Z AUTO 00000KT 14/13 A3003 RMK T01400130 IEM_DS3505
ZGKL,2007-04-29 20:00,ZGKL 292000Z AUTO 00000KT 13/13 A3000 RMK T01300130 IEM_DS3505
ZGKL,2007-04-29 21:00,ZGKL 292100Z AUTO 32002KT 1SM 14/14 A3000 RMK 70040 SLP173 T01410141 57007 IEM_DS3505
ZGKL,2007-04-29 22:00,ZGKL 292200Z AUTO 00000KT 1/2SM 13/12 A3003 RMK T01300120 IEM_DS3505
ZGKL,2007-04-29 23:00,ZGKL 292300Z AUTO 31004KT 3/8SM 13/12 A3006 RMK T01300120 IEM_DS3505
ZGKL,2007-04-30 00:00,ZGKL 300000Z AUTO 07002KT 2SM 14/14 A3006 RMK 70024 SLP189 T01450145 52016 IEM_DS3505
ZGKL,2007-04-30 01:00,ZGKL 300100Z AUTO 00000KT 4SM 15/15 A3006 RMK T01500150 IEM_DS3505
ZGKL,2007-04-30 02:00,ZGKL 300200Z AUTO 00000KT 5SM 18/14 A3006 RMK T01800140 IEM_DS3505
ZGKL,2007-04-30 03:00,ZGKL 300300Z AUTO 14004KT 5SM 19/15 A3006 RMK SLP185 T01930152 57003 IEM_DS3505
ZGKL,2007-04-30 04:00,ZGKL 300400Z AUTO 17004KT 6SM 22/15 A3003 RMK T02200150 IEM_DS3505
ZGKL,2007-04-30 05:00,ZGKL 300500Z AUTO 18004KT 6SM 23/15 A3000 RMK T02300150 IEM_DS3505
ZGKL,2007-04-30 06:00,ZGKL 300600Z AUTO 16004KT 6SM 24/15 A2994 RMK SLP149 T02450152 57034 IEM_DS3505
ZGKL,2007-04-30 07:00,ZGKL 300700Z AUTO 14004KT 6SM 26/12 A2994 RMK T02600120 IEM_DS3505
ZGKL,2007-04-30 08:00,ZGKL 300800Z AUTO 17006KT 6SM 27/12 A2991 RMK T02700120 IEM_DS3505
ZGKL,2007-04-30 09:00,ZGKL 300900Z AUTO 18004KT 11SM 27/14 A2988 RMK SLP127 T02680135 57021 IEM_DS3505
ZGKL,2007-04-30 10:00,ZGKL 301000Z AUTO 00000KT 6SM 27/13 A2988 RMK T02700130 IEM_DS3505
ZGKL,2007-04-30 11:00,ZGKL 301100Z AUTO 00000KT 6SM 26/14 A2991 RMK T02600140 IEM_DS3505
ZGKL,2007-04-30 12:00,ZGKL 301200Z AUTO 07002KT 16SM 22/17 A2994 RMK SLP140 T02200172 52011 IEM_DS3505
ZGKL,2007-04-30 13:00,ZGKL 301300Z AUTO 00000KT 6SM 20/18 A2994 RMK T02000180 IEM_DS3505
ZGKL,2007-04-30 14:00,ZGKL 301400Z AUTO 00000KT 6SM 20/17 A2997 RMK T02000170 IEM_DS3505
ZGKL,2007-04-30 15:00,ZGKL 301500Z AUTO 00000KT 14SM 19/16 A2997 RMK SLP157 T01920164 52018 IEM_DS3505
ZGKL,2007-04-30 16:00,ZGKL 301600Z AUTO 00000KT 6SM 18/17 A2997 RMK T01800170 IEM_DS3505
ZGKL,2007-04-30 17:00,ZGKL 301700Z AUTO 00000KT 4SM 17/16 A2997 RMK T01700160 IEM_DS3505
ZGKL,2007-04-30 18:00,ZGKL 301800Z AUTO 02002KT 11SM 17/16 A2997 RMK SLP154 T01720161 57002 IEM_DS3505
ZGKL,2007-04-30 19:00,ZGKL 301900Z AUTO 00000KT 4SM 16/15 A2997 RMK T01600150 IEM_DS3505
ZGKL,2007-04-30 20:00,ZGKL 302000Z AUTO 00000KT 3SM 15/14 A2997 RMK T01500140 IEM_DS3505
ZGKL,2007-04-30 21:00,ZGKL 302100Z AUTO 19004KT 10SM 16/16 A2997 RMK SLP152 T01550155 57002 IEM_DS3505
ZGKL,2007-04-30 22:00,ZGKL 302200Z AUTO 00000KT 1 1/4SM 14/14 A2997 RMK T01400140 IEM_DS3505
ZGKL,2007-04-30 23:00,ZGKL 302300Z AUTO 00000KT 7SM 15/15 A3000 RMK T01500150 IEM_DS3505
ZGKL,2007-05-01 00:00,ZGKL 010000Z AUTO 02002KT 6SM 18/16 A3003 RMK SLP174 T01780163 52021 IEM_DS3505
ZGKL,2007-05-01 01:00,ZGKL 010100Z AUTO 00000KT 3SM 20/16 A3003 RMK T02000160 IEM_DS3505
ZGKL,2007-05-01 02:00,ZGKL 010200Z AUTO 3SM 22/17 A3003 RMK T02200170 IEM_DS3505
ZGKL,2007-05-01 03:00,ZGKL 010300Z AUTO 22002KT 5SM 24/17 A3003 RMK SLP171 T02430171 57002 IEM_DS3505
ZGKL,2007-05-01 04:00,ZGKL 010400Z AUTO 4SM 27/16 A3000 RMK T02700160 IEM_DS3505
ZGKL,2007-05-01 05:00,ZGKL 010500Z AUTO 28004KT 6SM 28/15 A2997 RMK T02800150 IEM_DS3505
ZGKL,2007-05-01 06:00,ZGKL 010600Z AUTO 07002KT 7SM 30/16 A2994 RMK SLP139 T03030163 57030 IEM_DS3505
ZGKL,2007-05-01 07:00,ZGKL 010700Z AUTO 6SM 32/11 A2991 RMK T03200110 IEM_DS3505
ZGKL,2007-05-01 08:00,ZGKL 010800Z AUTO 17004KT 6SM 32/13 A2988 RMK T03200130 IEM_DS3505
ZGKL,2007-05-01 09:00,ZGKL 010900Z AUTO 18004KT 9SM 31/16 A2985 RMK SLP113 T03070163 57026 IEM_DS3505
ZGKL,2007-05-01 10:00,ZGKL 011000Z AUTO 15004KT 6SM 30/15 A2985 RMK T03000150 IEM_DS3505
ZGKL,2007-05-01 11:00,ZGKL 011100Z AUTO 6SM 27/18 A2988 RMK T02700180 IEM_DS3505
ZGKL,2007-05-01 12:00,ZGKL 011200Z AUTO 07002KT 10SM 25/18 A2991 RMK SLP129 T02510183 52015 IEM_DS3505
ZGKL,2007-05-01 13:00,ZGKL 011300Z AUTO 30002KT 4SM 22/19 A2994 RMK T02200190 IEM_DS3505
ZGKL,2007-05-01 14:00,ZGKL 011400Z AUTO 35004KT 4SM 21/18 A2994 RMK T02100180 IEM_DS3505
ZGKL,2007-05-01 15:00,ZGKL 011500Z AUTO 36002KT 10SM 22/17 A2997 RMK SLP147 T02230170 52018 IEM_DS3505
ZGKL,2007-05-01 16:00,ZGKL 011600Z AUTO 30004KT 4SM 20/17 A2997 RMK T02000170 IEM_DS3505
ZGKL,2007-05-01 17:00,ZGKL 011700Z AUTO 00000KT 4SM 19/17 A2997 RMK T01900170 IEM_DS3505
ZGKL,2007-05-01 18:00,ZGKL 011800Z AUTO 04002KT 9SM 20/16 A2994 RMK SLP147 T01980164 52001 IEM_DS3505
ZGKL,2007-05-01 19:00,ZGKL 011900Z AUTO 18004KT 18/17 A2994 RMK T01800170 IEM_DS3505
ZGKL,2007-05-01 20:00,ZGKL 012000Z AUTO 00000KT 17/17 A2994 RMK T01700170 IEM_DS3505
ZGKL,2007-05-01 21:00,ZGKL 012100Z AUTO 00000KT 9SM 18/16 RMK SLP142 T01800163 57005 IEM_DS3505
ZGKL,2007-05-01 22:00,ZGKL 012200Z AUTO 00000KT 1 1/4SM 16/15 A2994 RMK T01600150 IEM_DS3505
ZGKL,2007-05-01 23:00,ZGKL 012300Z AUTO 00000KT 1 1/2SM 17/16 A2994 RMK T01700160 IEM_DS3505
ZGKL,2007-05-02 00:00,ZGKL 020000Z AUTO 36002KT 6SM 20/16 A2997 RMK SLP150 T01990163 52007 IEM_DS3505
ZGKL,2007-05-02 01:00,ZGKL 020100Z AUTO 00000KT 2 1/2SM 21/17 A2997 RMK T02100170 IEM_DS3505
ZGKL,2007-05-02 02:00,ZGKL 020200Z AUTO 3SM 24/18 A2997 RMK T02400180 IEM_DS3505
ZGKL,2007-05-02 03:00,ZGKL 020300Z AUTO 16002KT 6SM 27/18 A2994 RMK SLP144 T02680181 57005 IEM_DS3505
ZGKL,2007-05-02 04:00,ZGKL 020400Z AUTO 00000KT 6SM 29/18 A2991 RMK T02900180 IEM_DS3505
ZGKL,2007-05-02 05:00,ZGKL 020500Z AUTO 6SM 31/15 A2988 RMK T03100150 IEM_DS3505
ZGKL,2007-05-02 06:00,ZGKL 020600Z AUTO 20006KT 9SM 32/12 A2985 RMK SLP106 T03150118 57036 IEM_DS3505
ZGKL,2007-05-02 07:00,ZGKL 020700Z AUTO 13008KT 6SM 32/16 A2980 RMK T03200160 IEM_DS3505
ZGKL,2007-05-02 08:00,ZGKL 020800Z AUTO 15006KT 6SM 32/16 A2977 RMK T03200160 IEM_DS3505
ZGKL,2007-05-02 09:00,ZGKL 020900Z AUTO 18006KT 16SM 32/14 A2977 RMK SLP078 T03210138 57028 IEM_DS3505
ZGKL,2007-05-02 10:00,ZGKL 021000Z AUTO 17010KT 6SM 31/16 A2977 RMK T03100160 IEM_DS3505
ZGKL,2007-05-02 11:00,ZGKL 021100Z AUTO 17008KT 6SM 28/17 A2980 RMK T02800170 IEM_DS3505
ZGKL,2007-05-02 12:00,ZGKL 021200Z AUTO 20004KT 12SM 29/16 A2980 RMK SLP087 T02860155 52008 IEM_DS3505
ZGKL,2007-05-02 13:00,ZGKL 021300Z AUTO 21002KT 6SM 24/19 A2983 RMK T02400190 IEM_DS3505
ZGKL,2007-05-02 14:00,ZGKL 021400Z AUTO 19004KT 6SM 24/18 A2983 RMK T02400180 IEM_DS3505
ZGKL,2007-05-02 15:00,ZGKL 021500Z AUTO 02002KT 11SM 24/18 A2985 RMK SLP104 T02380185 52017 IEM_DS3505
ZGKL,2007-05-02 16:00,ZGKL 021600Z AUTO 00000KT 6SM 21/18 A2985 RMK T02100180 IEM_DS3505
ZGKL,2007-05-02 17:00,ZGKL 021700Z AUTO 34002KT 5SM 20/19 A2983 RMK T02000190 IEM_DS3505
ZGKL,2007-05-02 18:00,ZGKL 021800Z AUTO 00000KT 10SM 21/17 A2983 RMK SLP103 T02080174 54000 IEM_DS3505
ZGKL,2007-05-02 19:00,ZGKL 021900Z AUTO 00000KT 18/18 A2983 RMK T01800180 IEM_DS3505
ZGKL,2007-05-02 20:00,ZGKL 022000Z AUTO 00000KT 18/18 A2983 RMK T01800180 IEM_DS3505
ZGKL,2007-05-02 21:00,ZGKL 022100Z AUTO 29002KT 10SM 20/18 A2985 RMK SLP108 T01990175 52005 IEM_DS3505
ZGKL,2007-05-02 22:00,ZGKL 022200Z AUTO 00000KT 3SM 18/17 A2985 RMK T01800170 IEM_DS3505
ZGKL,2007-05-02 23:00,ZGKL 022300Z AUTO 00000KT 3SM 19/18 A2988 RMK T01900180 IEM_DS3505
ZGKL,2007-05-03 00:00,ZGKL 030000Z AUTO 00000KT 7SM 21/18 A2988 RMK SLP122 T02130179 52013 IEM_DS3505
ZGKL,2007-05-03 01:00,ZGKL 030100Z AUTO 00000KT 4SM 23/18 A2988 RMK T02300180 IEM_DS3505
ZGKL,2007-05-03 02:00,ZGKL 030200Z AUTO 00000KT 4SM 26/19 A2988 RMK T02600190 IEM_DS3505
ZGKL,2007-05-03 03:00,ZGKL 030300Z AUTO 32004KT 7SM 28/18 A2988 RMK SLP122 T02800184 54000 IEM_DS3505
ZGKL,2007-05-03 04:00,ZGKL 030400Z AUTO 18012KT 4SM 30/20 A2985 RMK T03000200 IEM_DS3505
ZGKL,2007-05-03 05:00,ZGKL 030500Z AUTO 18012KT 4SM 31/19 A2983 RMK T03100190 IEM_DS3505
ZGKL,2007-05-03 06:00,ZGKL 030600Z AUTO 16004KT 7SM 30/18 A2980 RMK SLP090 T03030184 57031 IEM_DS3505
ZGKL,2007-05-03 07:00,ZGKL 030700Z AUTO 18008KT 6SM 32/18 A2977 RMK T03200180 IEM_DS3505
ZGKL,2007-05-03 08:00,ZGKL 030800Z AUTO 19008KT 6SM 32/18 A2974 RMK T03200180 IEM_DS3505
ZGKL,2007-05-03 09:00,ZGKL 030900Z AUTO 18006KT 8SM 31/18 A2971 RMK SLP063 T03130180 57027 IEM_DS3505
ZGKL,2007-05-03 10:00,ZGKL 031000Z AUTO 20006KT 6SM 30/19 A2971 RMK T03000190 IEM_DS3505
ZGKL,2007-05-03 11:00,ZGKL 031100Z AUTO 15004KT 6SM 28/20 A2974 RMK T02800200 IEM_DS3505
ZGKL,2007-05-03 12:00,ZGKL 031200Z AUTO 24002KT 7SM 28/21 A2977 RMK SLP075 T02790207 52012 IEM_DS3505
ZGKL,2007-05-03 13:00,ZGKL 031300Z AUTO 25004KT 4SM 25/20 A2977 RMK T02500200 IEM_DS3505
ZGKL,2007-05-03 14:00,ZGKL 031400Z AUTO 00000KT 3SM 25/21 A2980 RMK T02500210 IEM_DS3505
ZGKL,2007-05-03 15:00,ZGKL 031500Z AUTO 07002KT 6SM 26/21 A2980 RMK SLP096 T02630213 52022 IEM_DS3505
ZGKL,2007-05-03 16:00,ZGKL 031600Z AUTO 06019KT 7SM 24/19 A2980 RMK T02400190 IEM_DS3505
ZGKL,2007-05-03 17:00,ZGKL 031700Z AUTO 34006KT 2 1/2SM 21/20 A2988 RMK T02100200 IEM_DS3505
ZGKL,2007-05-03 18:00,ZGKL 031800Z AUTO 07002KT 5SM 21/21 A2985 RMK 60071 SLP115 T02100208 52017 IEM_DS3505
ZGKL,2007-05-03 19:00,ZGKL 031900Z AUTO 7SM 20/20 A2985 RMK T02000200 IEM_DS3505
ZGKL,2007-05-03 20:00,ZGKL 032000Z AUTO 7SM 21/20 A2985 RMK T02100200 IEM_DS3505
ZGKL,2007-05-03 21:00,ZGKL 032100Z AUTO 36004KT 4SM 21/21 A2985 RMK 70091 SLP111 T02110211 57003 IEM_DS3505
ZGKL,2007-05-03 22:00,ZGKL 032200Z AUTO 2 1/2SM 20/20 A2988 RMK T02000200 IEM_DS3505
ZGKL,2007-05-03 23:00,ZGKL 032300Z AUTO 4SM 20/20 A2985 RMK T02000200 IEM_DS3505
ZGKL,2007-05-04 00:00,ZGKL 040000Z AUTO 36004KT 7SM 21/21 A2988 RMK 60028 70096 SLP116 T02090209 52004 IEM_DS3505
ZGKL,2007-05-04 01:00,ZGKL 040100Z AUTO 00000KT 6SM 21/20 A2991 RMK T02100200 IEM_DS3505
ZGKL,2007-05-04 02:00,ZGKL 040200Z AUTO 00000KT 6SM 21/20 A2991 RMK T02100200 IEM_DS3505
ZGKL,2007-05-04 03:00,ZGKL 040300Z AUTO 29004KT 5SM 22/21 A2988 RMK SLP123 T02230211 52006 IEM_DS3505
ZGKL,2007-05-04 04:00,ZGKL 040400Z AUTO 7SM 23/20 A2988 RMK T02300200 IEM_DS3505
ZGKL,2007-05-04 05:00,ZGKL 040500Z AUTO 00000KT 7SM 23/20 A2985 RMK T02300200 IEM_DS3505
ZGKL,2007-05-04 06:00,ZGKL 040600Z AUTO 26006KT 6SM 24/21 A2985 RMK 60002 SLP109 T02370210 57015 IEM_DS3505
ZGKL,2007-05-04 07:00,ZGKL 040700Z AUTO 27004KT 7SM 24/19 A2983 RMK T02400190 IEM_DS3505
ZGKL,2007-05-04 08:00,ZGKL 040800Z AUTO 25006KT 7SM 24/19 A2980 RMK T02400190 IEM_DS3505
ZGKL,2007-05-04 09:00,ZGKL 040900Z AUTO 02006KT 7SM 24/20 A2980 RMK SLP094 T02350201 57014 IEM_DS3505
ZGKL,2007-05-04 10:00,ZGKL 041000Z AUTO 25006KT 6SM 23/18 A2983 RMK T02300180 IEM_DS3505
ZGKL,2007-05-04 11:00,ZGKL 041100Z AUTO 00000KT 6SM 22/19 A2983 RMK T02200190 IEM_DS3505
ZGKL,2007-05-04 12:00,ZGKL 041200Z AUTO 31006KT 7SM 22/20 A2983 RMK 60000 SLP100 T02200201 52005 IEM_DS3505
ZGKL,2007-05-04 13:00,ZGKL 041300Z AUTO 00000KT 7SM 21/18 A2983 RMK T02100180 IEM_DS3505
ZGKL,2007-05-04 14:00,ZGKL 041400Z AUTO 00000KT 7SM 21/18 A2985 RMK T02100180 IEM_DS3505
ZGKL,2007-05-04 15:00,ZGKL 041500Z AUTO 00000KT 7SM 22/20 A2985 RMK SLP111 T02150203 52011 IEM_DS3505
ZGKL,2007-05-04 16:00,ZGKL 041600Z AUTO 18004KT 4SM 20/18 A2985 RMK T02000180 IEM_DS3505
ZGKL,2007-05-04 17:00,ZGKL 041700Z AUTO 00000KT 4SM 19/18 A2983 RMK T01900180 IEM_DS3505
ZGKL,2007-05-04 18:00,ZGKL 041800Z AUTO 32004KT 6SM 21/20 A2983 RMK SLP098 T02100202 57012 IEM_DS3505
ZGKL,2007-05-04 19:00,ZGKL 041900Z AUTO 00000KT 4SM 19/18 A2980 RMK T01900180 IEM_DS3505
ZGKL,2007-05-04 20:00,ZGKL 042000Z AUTO 00000KT 4SM 18/18 A2980 RMK T01800180 IEM_DS3505
ZGKL,2007-05-04 21:00,ZGKL 042100Z AUTO 29002KT 6SM 20/18 A2980 RMK 70006 SLP090 T01970185 57009 IEM_DS3505
ZGKL,2007-05-04 22:00,ZGKL 042200Z AUTO 00000KT 3SM 18/17 A2980 RMK T01800170 IEM_DS3505
ZGKL,2007-05-04 23:00,ZGKL 042300Z AUTO 00000KT 4SM 19/18 A2983 RMK T01900180 IEM_DS3505
ZGKL,2007-05-05 00:00,ZGKL 050000Z AUTO 20002KT 8SM 21/18 A2983 RMK 70002 SLP102 T02130183 52012 IEM_DS3505
ZGKL,2007-05-05 01:00,ZGKL 050100Z AUTO 5SM 22/17 A2983 RMK T02200170 IEM_DS3505
ZGKL,2007-05-05 02:00,ZGKL 050200Z AUTO 20004KT 6SM 23/17 A2983 RMK T02300170 IEM_DS3505
ZGKL,2007-05-05 03:00,ZGKL 050300Z AUTO 14004KT 7SM 25/18 A2983 RMK SLP102 T02460181 52001 IEM_DS3505
ZGKL,2007-05-05 04:00,ZGKL 050400Z AUTO 6SM 25/17 A2980 RMK T02500170 IEM_DS3505
ZGKL,2007-05-05 05:00,ZGKL 050500Z AUTO 6SM 27/18 A2980 RMK T02700180 IEM_DS3505
ZGKL,2007-05-05 06:00,ZGKL 050600Z AUTO 14004KT 6SM 27/19 A2977 RMK SLP082 T02710187 57019 IEM_DS3505
ZGKL,2007-05-05 07:00,ZGKL 050700Z AUTO 19006KT 7SM 28/18 A2974 RMK T02800180 IEM_DS3505
ZGKL,2007-05-05 08:00,ZGKL 050800Z AUTO 20004KT 7SM 29/18 A2974 RMK T02900180 IEM_DS3505
ZGKL,2007-05-05 09:00,ZGKL 050900Z AUTO 16002KT 6SM 28/17 A2974 RMK SLP069 T02800172 57013 IEM_DS3505
ZGKL,2007-05-05 10:00,ZGKL 051000Z AUTO 17008KT 6SM 27/20 A2974 RMK T02700200 IEM_DS3505
ZGKL,2007-05-05 11:00,ZGKL 051100Z AUTO 18008KT 6SM 25/20 A2974 RMK T02500200 IEM_DS3505
ZGKL,2007-05-05 12:00,ZGKL 051200Z AUTO 14002KT 7SM 25/20 A2980 RMK SLP086 T02510197 52016 IEM_DS3505
ZGKL,2007-05-05 13:00,ZGKL 051300Z AUTO 19006KT 2 1/2SM 23/20 A2980 RMK T02300200 IEM_DS3505
ZGKL,2007-05-05 14:00,ZGKL 051400Z AUTO 22004KT 2 1/2SM 22/20 A2983 RMK T02200200 IEM_DS3505
ZGKL,2007-05-05 15:00,ZGKL 051500Z AUTO 04004KT 7SM 23/20 A2985 RMK SLP107 T02270199 52021 IEM_DS3505
ZGKL,2007-05-05 16:00,ZGKL 051600Z AUTO 00000KT 2SM 20/19 A2983 RMK T02000190 IEM_DS3505
ZGKL,2007-05-05 18:00,ZGKL 051800Z AUTO 04002KT 7SM 20/19 A2983 RMK SLP097 T02040191 57009 IEM_DS3505
ZGKL,2007-05-05 19:00,ZGKL 051900Z AUTO 00000KT 19/18 A2980 RMK T01900180 IEM_DS3505
ZGKL,2007-05-05 20:00,ZGKL 052000Z AUTO 00000KT 18/17 A2980 RMK T01800170 IEM_DS3505
ZGKL,2007-05-05 21:00,ZGKL 052100Z AUTO 36002KT 6SM 19/19 A2983 RMK SLP097 T01930190 54000 IEM_DS3505
ZGKL,2007-05-05 22:00,ZGKL 052200Z AUTO 00000KT 3SM 17/17 A2983 RMK T01700170 IEM_DS3505
ZGKL,2007-05-05 23:00,ZGKL 052300Z AUTO 00000KT 3SM 19/18 A2985 RMK T01900180 IEM_DS3505
ZGKL,2007-05-06 00:00,ZGKL 060000Z AUTO 36002KT 3SM 21/19 A2988 RMK SLP118 T02070192 52020 IEM_DS3505
ZGKL,2007-05-06 01:00,ZGKL 060100Z AUTO 00000KT 6SM 23/18 A2988 RMK T02300180 IEM_DS3505
ZGKL,2007-05-06 02:00,ZGKL 060200Z AUTO 00000KT 6SM 25/19 A2988 RMK T02500190 IEM_DS3505
ZGKL,2007-05-06 03:00,ZGKL 060300Z AUTO 34002KT 4SM 26/20 A2988 RMK SLP113 T02640203 57004 IEM_DS3505
ZGKL,2007-05-06 04:00,ZGKL 060400Z AUTO 5SM 28/20 A2985 RMK T02800200 IEM_DS3505
ZGKL,2007-05-06 05:00,ZGKL 060500Z AUTO 30004KT 5SM 30/19 A2983 RMK T03000190 IEM_DS3505
ZGKL,2007-05-06 06:00,ZGKL 060600Z AUTO 32002KT 9SM 32/14 A2980 RMK SLP088 T03180140 57024 IEM_DS3505
ZGKL,2007-05-06 07:00,ZGKL 060700Z AUTO 24004KT 6SM 32/15 A2977 RMK T03200150 IEM_DS3505
ZGKL,2007-05-06 08:00,ZGKL 060800Z AUTO 26004KT 6SM 32/15 A2977 RMK T03200150 IEM_DS3505
ZGKL,2007-05-06 09:00,ZGKL 060900Z AUTO 27002KT 14SM 33/12 A2974 RMK SLP065 T03330123 57022 IEM_DS3505
ZGKL,2007-05-06 10:00,ZGKL 061000Z AUTO 20004KT 6SM 31/14 A2974 RMK T03100140 IEM_DS3505
ZGKL,2007-05-06 11:00,ZGKL 061100Z AUTO 23004KT 6SM 28/18 A2977 RMK T02800180 IEM_DS3505
ZGKL,2007-05-06 12:00,ZGKL 061200Z AUTO 14002KT 11SM 28/19 A2977 RMK SLP079 T02760186 52012 IEM_DS3505
ZGKL,2007-05-06 13:00,ZGKL 061300Z AUTO 00000KT 6SM 23/20 A2980 RMK T02300200 IEM_DS3505
ZGKL,2007-05-06 14:00,ZGKL 061400Z AUTO 00000KT 5SM 23/20 A2980 RMK T02300200 IEM_DS3505
ZGKL,2007-05-06 15:00,ZGKL 061500Z AUTO 02004KT 10SM 23/16 A2983 RMK SLP096 T02340160 52017 IEM_DS3505
ZGKL,2007-05-06 16:00,ZGKL 061600Z AUTO 30004KT 5SM 21/17 A2983 RMK T02100170 IEM_DS3505
ZGKL,2007-05-06 17:00,ZGKL 061700Z AUTO 00000KT 5SM 21/17 A2983 RMK T02100170 IEM_DS3505
ZGKL,2007-05-06 18:00,ZGKL 061800Z AUTO 00000KT 10SM 20/15 A2983 RMK SLP099 T02050153 52004 IEM_DS3505
ZGKL,2007-05-06 19:00,ZGKL 061900Z AUTO 00000KT 19/18 A2983 RMK T01900180 IEM_DS3505
ZGKL,2007-05-06 20:00,ZGKL 062000Z AUTO 00000KT 18/18 A2983 RMK T01800180 IEM_DS3505
ZGKL,2007-05-06 21:00,ZGKL 062100Z AUTO 36002KT 9SM 19/15 A2983 RMK SLP097 T01860147 57002 IEM_DS3505
ZGKL,2007-05-06 22:00,ZGKL 062200Z AUTO 00000KT 3SM 18/17 A2983 RMK T01800170 IEM_DS3505
ZGKL,2007-05-06 23:00,ZGKL 062300Z AUTO 00000KT 3SM 18/17 A2985 RMK T01800170 IEM_DS3505
ZGKL,2007-05-07 00:00,ZGKL 070000Z AUTO 09002KT 6SM 21/15 A2988 RMK SLP121 T02080151 52022 IEM_DS3505
ZGKL,2007-05-07 01:00,ZGKL 070100Z AUTO 4SM 23/18 A2988 RMK T02300180 IEM_DS3505
ZGKL,2007-05-07 02:00,ZGKL 070200Z AUTO 30004KT 6SM 25/17 A2988 RMK T02500170 IEM_DS3505
ZGKL,2007-05-07 03:00,ZGKL 070300Z AUTO 16002KT 6SM 27/17 A2988 RMK SLP113 T02720171 57007 IEM_DS3505
ZGKL,2007-05-07 04:00,ZGKL 070400Z AUTO 6SM 30/19 A2985 RMK T03000190 IEM_DS3505
ZGKL,2007-05-07 05:00,ZGKL 070500Z AUTO 19004KT 6SM 31/18 A2983 RMK T03100180 IEM_DS3505
ZGKL,2007-05-07 06:00,ZGKL 070600Z AUTO 27002KT 7SM 32/16 A2980 RMK SLP086 T03190162 57026 IEM_DS3505
ZGKL,2007-05-07 07:00,ZGKL 070700Z AUTO 16006KT 6SM 33/12 A2977 RMK T03300120 IEM_DS3505
ZGKL,2007-05-07 08:00,ZGKL 070800Z AUTO 18004KT 6SM 33/13 A2974 RMK T03300130 IEM_DS3505
ZGKL,2007-05-07 09:00,ZGKL 070900Z AUTO 14006KT 10SM 32/14 A2974 RMK SLP066 T03250137 57020 IEM_DS3505
ZGKL,2007-05-07 10:00,ZGKL 071000Z AUTO 20008KT 6SM 31/17 A2974 RMK T03100170 IEM_DS3505
ZGKL,2007-05-07 11:00,ZGKL 071100Z AUTO 19004KT 6SM 28/19 A2974 RMK T02800190 IEM_DS3505
ZGKL,2007-05-07 12:00,ZGKL 071200Z AUTO 00000KT 10SM 28/18 A2977 RMK SLP077 T02790177 52010 IEM_DS3505
ZGKL,2007-05-07 13:00,ZGKL 071300Z AUTO 00000KT 6SM 25/20 A2980 RMK T02500200 IEM_DS3505
ZGKL,2007-05-07 14:00,ZGKL 071400Z AUTO 00000KT 5SM 23/20 A2980 RMK T02300200 IEM_DS3505
ZGKL,2007-05-07 15:00,ZGKL 071500Z AUTO 04002KT 9SM 24/17 A2983 RMK SLP098 T02400170 52022 IEM_DS3505
ZGKL,2007-05-07 16:00,ZGKL 071600Z AUTO 00000KT 4SM 22/20 A2983 RMK T02200200 IEM_DS3505
ZGKL,2007-05-07 17:00,ZGKL 071700Z AUTO 00000KT 4SM 21/19 A2983 RMK T02100190 IEM_DS3505
ZGKL,2007-05-07 18:00,ZGKL 071800Z AUTO 02002KT 9SM 22/17 A2983 RMK SLP100 T02210173 52003 IEM_DS3505
ZGKL,2007-05-07 19:00,ZGKL 071900Z AUTO 00000KT 4SM 20/18 A2983 RMK T02000180 IEM_DS3505
ZGKL,2007-05-07 20:00,ZGKL 072000Z AUTO 00000KT 4SM 20/18 A2985 RMK T02000180 IEM_DS3505
ZGKL,2007-05-07 21:00,ZGKL 072100Z AUTO 04002KT 7SM 21/17 A2985 RMK SLP106 T02060170 52005 IEM_DS3505
ZGKL,2007-05-07 22:00,ZGKL 072200Z AUTO 17002KT 3SM 19/18 A2985 RMK T01900180 IEM_DS3505
ZGKL,2007-05-07 23:00,ZGKL 072300Z AUTO 00000KT 2 1/2SM 20/19 A2988 RMK T02000190 IEM_DS3505
ZGKL,2007-05-08 00:00,ZGKL 080000Z AUTO 07002KT 5SM 23/18 A2988 RMK SLP123 T02280177 52016 IEM_DS3505
ZGKL,2007-05-08 01:00,ZGKL 080100Z AUTO 17004KT 3SM 24/18 A2988 RMK T02400180 IEM_DS3505
ZGKL,2007-05-08 02:00,ZGKL 080200Z AUTO 18004KT 4SM 27/18 A2988 RMK T02700180 IEM_DS3505
ZGKL,2007-05-08 03:00,ZGKL 080300Z AUTO 16004KT 7SM 29/16 A2988 RMK SLP121 T02860165 57001 IEM_DS3505
ZGKL,2007-05-08 04:00,ZGKL 080400Z AUTO 16010KT 6SM 30/13 A2988 RMK T03000130 IEM_DS3505
ZGKL,2007-05-08 05:00,ZGKL 080500Z AUTO 18010KT 6SM 31/14 A2985 RMK T03100140 IEM_DS3505
ZGKL,2007-05-08 06:00,ZGKL 080600Z AUTO 27008KT 11SM 31/13 A2983 RMK SLP095 T03110134 57026 IEM_DS3505
ZGKL,2007-05-08 07:00,ZGKL 080700Z AUTO 17012KT 6SM 32/13 A2980 RMK T03200130 IEM_DS3505
ZGKL,2007-05-08 08:00,ZGKL 080800Z AUTO 18010KT 6SM 31/14 A2977 RMK T03100140 IEM_DS3505
ZGKL,2007-05-08 09:00,ZGKL 080900Z AUTO 25006KT 11SM 31/15 A2977 RMK SLP072 T03130153 57023 IEM_DS3505
ZGKL,2007-05-08 10:00,ZGKL 081000Z AUTO 19008KT 6SM 30/16 A2977 RMK T03000160 IEM_DS3505
ZGKL,2007-05-08 11:00,ZGKL 081100Z AUTO 17006KT 6SM 27/18 A2977 RMK T02700180 IEM_DS3505
ZGKL,2007-05-08 12:00,ZGKL 081200Z AUTO 25002KT 10SM 29/16 A2977 RMK SLP082 T02880157 52010 IEM_DS3505
ZGKL,2007-05-08 13:00,ZGKL 081300Z AUTO 20004KT 4SM 24/19 A2980 RMK T02400190 IEM_DS3505
ZGKL,2007-05-08 14:00,ZGKL 081400Z AUTO 00000KT 3SM 23/19 A2983 RMK T02300190 IEM_DS3505
ZGKL,2007-05-08 15:00,ZGKL 081500Z AUTO 02002KT 10SM 24/19 A2985 RMK SLP104 T02440190 52022 IEM_DS3505
ZGKL,2007-05-08 16:00,ZGKL 081600Z AUTO 00000KT 2SM 21/20 A2985 RMK T02100200 IEM_DS3505
ZGKL,2007-05-08 17:00,ZGKL 081700Z AUTO 00000KT 21/19 A2985 RMK T02100190 IEM_DS3505
ZGKL,2007-05-08 18:00,ZGKL 081800Z AUTO 07004KT 9SM 22/18 A2985 RMK SLP108 T02200180 52004 IEM_DS3505
ZGKL,2007-05-08 19:00,ZGKL 081900Z AUTO 00000KT 20/19 A2985 RMK T02000190 IEM_DS3505
ZGKL,2007-05-08 20:00,ZGKL 082000Z AUTO 00000KT 19/18 A2985 RMK T01900180 IEM_DS3505
ZGKL,2007-05-08 21:00,ZGKL 082100Z AUTO 00000KT 7SM 21/17 A2985 RMK SLP111 T02080170 52003 IEM_DS3505
ZGKL,2007-05-08 22:00,ZGKL 082200Z AUTO 00000KT 1SM 18/18 A2988 RMK T01800180 IEM_DS3505
ZGKL,2007-05-08 23:00,ZGKL 082300Z AUTO 00000KT 1 1/4SM 19/18 A2991 RMK T01900180 IEM_DS3505
ZGKL,2007-05-09 00:00,ZGKL 090000Z AUTO 02002KT 5SM 22/18 A2991 RMK SLP134 T02250183 52022 IEM_DS3505
ZGKL,2007-05-09 01:00,ZGKL 090100Z AUTO 00000KT 2 1/2SM 23/19 A2991 RMK T02300190 IEM_DS3505
ZGKL,2007-05-09 02:00,ZGKL 090200Z AUTO 16006KT 4SM 26/16 A2994 RMK T02600160 IEM_DS3505
ZGKL,2007-05-09 03:00,ZGKL 090300Z AUTO 18004KT 6SM 28/14 A2991 RMK SLP131 T02840143 57002 IEM_DS3505
ZGKL,2007-05-09 04:00,ZGKL 090400Z AUTO 5SM 30/17 A2988 RMK T03000170 IEM_DS3505
ZGKL,2007-05-09 05:00,ZGKL 090500Z AUTO 6SM 31/15 A2985 RMK T03100150 IEM_DS3505
ZGKL,2007-05-09 06:00,ZGKL 090600Z AUTO 20006KT 9SM 31/14 A2983 RMK SLP102 T03100138 57029 IEM_DS3505
ZGKL,2007-05-09 07:00,ZGKL 090700Z AUTO 17010KT 6SM 32/14 A2980 RMK T03200140 IEM_DS3505
ZGKL,2007-05-09 08:00,ZGKL 090800Z AUTO 15008KT 6SM 32/14 A2980 RMK T03200140 IEM_DS3505
ZGKL,2007-05-09 09:00,ZGKL 090900Z AUTO 16004KT 12SM 32/14 A2980 RMK SLP084 T03160138 57018 IEM_DS3505
ZGKL,2007-05-09 10:00,ZGKL 091000Z AUTO 18006KT 6SM 30/16 A2980 RMK T03000160 IEM_DS3505
ZGKL,2007-05-09 11:00,ZGKL 091100Z AUTO 16004KT 6SM 28/16 A2980 RMK T02800160 IEM_DS3505
ZGKL,2007-05-09 12:00,ZGKL 091200Z AUTO 00000KT 11SM 28/16 A2983 RMK SLP099 T02780161 52014 IEM_DS3505
ZGKL,2007-05-09 13:00,ZGKL 091300Z AUTO 00000KT 4SM 23/20 A2985 RMK T02300200 IEM_DS3505
ZGKL,2007-05-09 14:00,ZGKL 091400Z AUTO 00000KT 3SM 23/21 A2988 RMK T02300210 IEM_DS3505
ZGKL,2007-05-09 15:00,ZGKL 091500Z AUTO 36002KT 10SM 24/17 A2988 RMK SLP118 T02430168 52020 IEM_DS3505
ZGKL,2007-05-09 16:00,ZGKL 091600Z AUTO 00000KT 3SM 21/19 A2988 RMK T02100190 IEM_DS3505
ZGKL,2007-05-09 17:00,ZGKL 091700Z AUTO 00000KT 2SM 21/19 A2988 RMK T02100190 IEM_DS3505
ZGKL,2007-05-09 18:00,ZGKL 091800Z AUTO 02004KT 8SM 22/17 A2988 RMK SLP120 T02200167 52002 IEM_DS3505
ZGKL,2007-05-09 19:00,ZGKL 091900Z AUTO 00000KT 19/18 A2988 RMK T01900180 IEM_DS3505
ZGKL,2007-05-09 20:00,ZGKL 092000Z AUTO 00000KT 19/18 A2988 RMK T01900180 IEM_DS3505
ZGKL,2007-05-09 21:00,ZGKL 092100Z AUTO 02002KT 8SM 20/17 A2988 RMK SLP123 T02010169 52002 IEM_DS3505
ZGKL,2007-05-09 22:00,ZGKL 092200Z AUTO 00000KT 1 1/2SM 19/18 A2991 RMK T01900180 IEM_DS3505
ZGKL,2007-05-09 23:00,ZGKL 092300Z AUTO 00000KT 1 1/2SM 19/18 A2991 RMK T01900180 IEM_DS3505
ZGKL,2007-05-10 00:00,ZGKL 100000Z AUTO 36002KT 5SM 22/17 A2994 RMK SLP136 T02180172 52013 IEM_DS3505
ZGKL,2007-05-10 01:00,ZGKL 100100Z AUTO 00000KT 2 1/2SM 24/19 A2994 RMK T02400190 IEM_DS3505
ZGKL,2007-05-10 02:00,ZGKL 100200Z AUTO 4SM 26/18 A2994 RMK T02600180 IEM_DS3505
ZGKL,2007-05-10 03:00,ZGKL 100300Z AUTO 04004KT 5SM 28/17 A2991 RMK SLP128 T02850174 57007 IEM_DS3505
ZGKL,2007-05-10 04:00,ZGKL 100400Z AUTO 4SM 29/19 A2988 RMK T02900190 IEM_DS3505
ZGKL,2007-05-10 05:00,ZGKL 100500Z AUTO 4SM 31/18 A2985 RMK T03100180 IEM_DS3505
ZGKL,2007-05-10 06:00,ZGKL 100600Z AUTO 18004KT 5SM 31/17 A2983 RMK SLP099 T03120171 57029 IEM_DS3505
ZGKL,2007-05-10 07:00,ZGKL 100700Z AUTO 13006KT 5SM 32/17 A2980 RMK T03200170 IEM_DS3505
ZGKL,2007-05-10 08:00,ZGKL 100800Z AUTO 13006KT 5SM 32/17 A2977 RMK T03200170 IEM_DS3505
ZGKL,2007-05-10 09:00,ZGKL 100900Z AUTO 27004KT 5SM 31/18 A2977 RMK SLP077 T03120175 57022 IEM_DS3505
ZGKL,2007-05-10 10:00,ZGKL 101000Z AUTO 00000KT 6SM 30/18 A2977 RMK T03000180 IEM_DS3505
ZGKL,2007-05-10 11:00,ZGKL 101100Z AUTO 00000KT 6SM 29/19 A2977 RMK T02900190 IEM_DS3505
ZGKL,2007-05-10 12:00,ZGKL 101200Z AUTO 20002KT 7SM 29/18 A2980 RMK SLP089 T02940185 52012 IEM_DS3505
ZGKL,2007-05-10 13:00,ZGKL 101300Z AUTO 2SM 27/23 A2983 RMK T02700230 IEM_DS3505
ZGKL,2007-05-10 14:00,ZGKL 101400Z AUTO 00000KT 2 1/2SM 26/21 A2983 RMK T02600210 IEM_DS3505
ZGKL,2007-05-10 15:00,ZGKL 101500Z AUTO 09002KT 7SM 27/22 A2985 RMK SLP107 T02670215 52019 IEM_DS3505
ZGKL,2007-05-10 16:00,ZGKL 101600Z AUTO 00000KT 2 1/2SM 25/22 A2985 RMK T02500220 IEM_DS3505
ZGKL,2007-05-10 17:00,ZGKL 101700Z AUTO 00000KT 2 1/2SM 25/22 A2985 RMK T02500220 IEM_DS3505
ZGKL,2007-05-10 18:00,ZGKL 101800Z AUTO 20004KT 7SM 28/20 RMK SLP100 T02770205 57006 IEM_DS3505
ZGKL,2007-05-10 19:00,ZGKL 101900Z AUTO 32002KT 24/22 A2983 RMK T02400220 IEM_DS3505
ZGKL,2007-05-10 20:00,ZGKL 102000Z AUTO 2SM 24/22 A2983 RMK T02400220 IEM_DS3505
ZGKL,2007-05-10 21:00,ZGKL 102100Z AUTO 18004KT 7SM 27/20 A2985 RMK SLP099 T02690205 57001 IEM_DS3505
ZGKL,2007-05-10 22:00,ZGKL 102200Z AUTO 00000KT 2 1/2SM 25/22 A2985 RMK T02500220 IEM_DS3505
ZGKL,2007-05-10 23:00,ZGKL 102300Z AUTO 30004KT 2SM 24/22 A2988 RMK T02400220 IEM_DS3505
ZGKL,2007-05-11 00:00,ZGKL 110000Z AUTO 09002KT 6SM 26/22 A2988 RMK SLP117 T02650215 52017 IEM_DS3505
ZGKL,2007-05-11 01:00,ZGKL 110100Z AUTO 00000KT 4SM 25/22 A2991 RMK T02500220 IEM_DS3505
ZGKL,2007-05-11 02:00,ZGKL 110200Z AUTO 4SM 27/22 A2991 RMK T02700220 IEM_DS3505
ZGKL,2007-05-11 03:00,ZGKL 110300Z AUTO 18006KT 5SM 29/21 A2988 RMK SLP120 T02880208 52003 IEM_DS3505
ZGKL,2007-05-11 04:00,ZGKL 110400Z AUTO 13008KT 4SM 29/21 A2988 RMK T02900210 IEM_DS3505
ZGKL,2007-05-11 05:00,ZGKL 110500Z AUTO 13010KT 4SM 28/22 A2988 RMK T02800220 IEM_DS3505
ZGKL,2007-05-11 06:00,ZGKL 110600Z AUTO 14006KT 7SM 29/21 A2985 RMK SLP109 T02900207 57011 IEM_DS3505
ZGKL,2007-05-11 07:00,ZGKL 110700Z AUTO 11008KT 4SM 28/21 A2985 RMK T02800210 IEM_DS3505
ZGKL,2007-05-11 08:00,ZGKL 110800Z AUTO 13008KT 4SM 28/21 A2985 RMK T02800210 IEM_DS3505
ZGKL,2007-05-11 09:00,ZGKL 110900Z AUTO 16006KT 12SM 28/20 A2983 RMK SLP099 T02810199 57010 IEM_DS3505
ZGKL,2007-05-11 10:00,ZGKL 111000Z AUTO 09004KT 6SM 27/21 A2983 RMK T02700210 IEM_DS3505
ZGKL,2007-05-11 11:00,ZGKL 111100Z AUTO 00000KT 5SM 26/21 A2985 RMK T02600210 IEM_DS3505
ZGKL,2007-05-11 12:00,ZGKL 111200Z AUTO 14002KT 11SM 27/20 A2985 RMK SLP110 T02700196 52010 IEM_DS3505
ZGKL,2007-05-11 13:00,ZGKL 111300Z AUTO 33004KT 4SM 25/22 A2988 RMK T02500220 IEM_DS3505
ZGKL,2007-05-11 14:00,ZGKL 111400Z AUTO 4SM 25/23 A2991 RMK T02500230 IEM_DS3505
ZGKL,2007-05-11 15:00,ZGKL 111500Z AUTO 07002KT 9SM 26/21 A2994 RMK SLP133 T02560208 52023 IEM_DS3505
ZGKL,2007-05-11 16:00,ZGKL 111600Z AUTO 00000KT 4SM 25/23 A2991 RMK T02500230 IEM_DS3505
ZGKL,2007-05-11 17:00,ZGKL 111700Z AUTO 32004KT 3SM 24/23 A2991 RMK T02400230 IEM_DS3505
ZGKL,2007-05-11 18:00,ZGKL 111800Z AUTO 27006KT 9SM 25/21 A2991 RMK 60000 SLP127 T02500213 57006 IEM_DS3505
ZGKL,2007-05-11 19:00,ZGKL 111900Z AUTO 35006KT 2SM 22/21 A2991 RMK T02200210 IEM_DS3505
ZGKL,2007-05-11 20:00,ZGKL 112000Z AUTO 34012KT 4SM 21/20 A2991 RMK T02100200 IEM_DS3505
ZGKL,2007-05-11 21:00,ZGKL 112100Z AUTO 02012KT 5SM 20/19 A2994 RMK 70084 SLP146 T01990186 52017 IEM_DS3505
ZGKL,2007-05-11 22:00,ZGKL 112200Z AUTO 34008KT 5SM 20/19 A2997 RMK T02000190 IEM_DS3505
ZGKL,2007-05-11 23:00,ZGKL 112300Z AUTO 06006KT 3SM 19/18 A3003 RMK T01900180 IEM_DS3505
ZGKL,2007-05-12 00:00,ZGKL 120000Z AUTO 36012KT 8SM 18/16 A3009 RMK 60142 70140 SLP191 T01790162 52043 IEM_DS3505
ZGKL,2007-05-12 01:00,ZGKL 120100Z AUTO 05012KT 7SM 18/17 A3012 RMK T01800170 IEM_DS3505
ZGKL,2007-05-12 02:00,ZGKL 120200Z AUTO 04010KT 7SM 18/17 A3012 RMK T01800170 IEM_DS3505
ZGKL,2007-05-12 03:00,ZGKL 120300Z AUTO 04010KT 7SM 18/16 A3012 RMK SLP205 T01820162 52013 IEM_DS3505
ZGKL,2007-05-12 04:00,ZGKL 120400Z AUTO 04008KT 7SM 20/18 A3012 RMK T02000180 IEM_DS3505
ZGKL,2007-05-12 05:00,ZGKL 120500Z AUTO 04010KT 7SM 21/17 A3009 RMK T02100170 IEM_DS3505
ZGKL,2007-05-12 06:00,ZGKL 120600Z AUTO 02010KT 14SM 22/16 A3006 RMK 60016 SLP183 T02170158 57020 IEM_DS3505
ZGKL,2007-05-12 07:00,ZGKL 120700Z AUTO 05008KT 7SM 22/17 A3006 RMK T02200170 IEM_DS3505
ZGKL,2007-05-12 08:00,ZGKL 120800Z AUTO 07004KT 7SM 22/16 A3003 RMK T02200160 IEM_DS3505
ZGKL,2007-05-12 09:00,ZGKL 120900Z AUTO 02010KT 16SM 22/13 A3003 RMK SLP169 T02200131 57016 IEM_DS3505
ZGKL,2007-05-12 10:00,ZGKL 121000Z AUTO 6SM 22/16 A3003 RMK T02200160 IEM_DS3505
ZGKL,2007-05-12 11:00,ZGKL 121100Z AUTO 07004KT 6SM 22/15 A3003 RMK T02200150 IEM_DS3505
ZGKL,2007-05-12 12:00,ZGKL 121200Z AUTO 36006KT 12SM 21/12 A3003 RMK SLP178 T02110123 52008 IEM_DS3505
ZGKL,2007-05-12 13:00,ZGKL 121300Z AUTO 00000KT 6SM 21/16 A3006 RMK T02100160 IEM_DS3505
ZGKL,2007-05-12 14:00,ZGKL 121400Z AUTO 05006KT 6SM 21/15 A3006 RMK T02100150 IEM_DS3505
ZGKL,2007-05-12 15:00,ZGKL 121500Z AUTO 02010KT 10SM 21/13 A3009 RMK SLP190 T02060126 52012 IEM_DS3505
ZGKL,2007-05-12 16:00,ZGKL 121600Z AUTO 6SM 20/15 A3006 RMK T02000150 IEM_DS3505
ZGKL,2007-05-12 17:00,ZGKL 121700Z AUTO 6SM 19/17 A3006 RMK T01900170 IEM_DS3505
ZGKL,2007-05-12 18:00,ZGKL 121800Z AUTO 02006KT 10SM 20/12 A3003 RMK SLP178 T01980118 57011 IEM_DS3505
ZGKL,2007-05-12 19:00,ZGKL 121900Z AUTO 00000KT 19/17 A3003 RMK T01900170 IEM_DS3505
ZGKL,2007-05-12 20:00,ZGKL 122000Z AUTO 33004KT 18/16 A3000 RMK T01800160 IEM_DS3505
ZGKL,2007-05-12 21:00,ZGKL 122100Z AUTO 02004KT 7SM 19/11 A3003 RMK 70072 SLP169 T01910109 57009 IEM_DS3505
ZGKL,2007-05-12 22:00,ZGKL 122200Z AUTO 00000KT 6SM 17/16 A3003 RMK T01700160 IEM_DS3505
ZGKL,2007-05-12 23:00,ZGKL 122300Z AUTO 00000KT 6SM 19/16 A3003 RMK T01900160 IEM_DS3505
ZGKL,2007-05-13 00:00,ZGKL 130000Z AUTO 07004KT 8SM 22/11 A3003 RMK 70015 SLP172 T02170114 52004 IEM_DS3505
ZGKL,2007-05-13 01:00,ZGKL 130100Z AUTO 00000KT 6SM 20/15 A3003 RMK T02000150 IEM_DS3505
ZGKL,2007-05-13 02:00,ZGKL 130200Z AUTO 00000KT 6SM 21/13 A3003 RMK T02100130 IEM_DS3505
ZGKL,2007-05-13 03:00,ZGKL 130300Z AUTO 07002KT 9SM 24/12 A3003 RMK SLP173 T02390116 52001 IEM_DS3505
ZGKL,2007-05-13 04:00,ZGKL 130400Z AUTO 6SM 25/12 A3003 RMK T02500120 IEM_DS3505
ZGKL,2007-05-13 05:00,ZGKL 130500Z AUTO 30004KT 6SM 26/10 A3000 RMK T02600100 IEM_DS3505
ZGKL,2007-05-13 06:00,ZGKL 130600Z AUTO 04002KT 9SM 27/11 A2997 RMK SLP149 T02710112 57023 IEM_DS3505
ZGKL,2007-05-13 07:00,ZGKL 130700Z AUTO 6SM 28/12 A2994 RMK T02800120 IEM_DS3505
ZGKL,2007-05-13 08:00,ZGKL 130800Z AUTO 22004KT 6SM 28/10 A2991 RMK T02800100 IEM_DS3505
ZGKL,2007-05-13 09:00,ZGKL 130900Z AUTO 18004KT 11SM 28/12 A2991 RMK SLP126 T02780118 57022 IEM_DS3505
ZGKL,2007-05-13 10:00,ZGKL 131000Z AUTO 00000KT 6SM 27/13 A2991 RMK T02700130 IEM_DS3505
ZGKL,2007-05-13 11:00,ZGKL 131100Z AUTO 00000KT 6SM 26/13 A2991 RMK T02600130 IEM_DS3505
ZGKL,2007-05-13 12:00,ZGKL 131200Z AUTO 18002KT 9SM 25/15 A2991 RMK SLP134 T02510149 52008 IEM_DS3505
ZGKL,2007-05-13 13:00,ZGKL 131300Z AUTO 00000KT 6SM 22/17 A2994 RMK T02200170 IEM_DS3505
ZGKL,2007-05-13 14:00,ZGKL 131400Z AUTO 00000KT 5SM 21/17 A2994 RMK T02100170 IEM_DS3505
ZGKL,2007-05-13 15:00,ZGKL 131500Z AUTO 36002KT 9SM 22/16 A2994 RMK SLP145 T02180163 52010 IEM_DS3505
ZGKL,2007-05-13 16:00,ZGKL 131600Z AUTO 00000KT 5SM 19/17 A2994 RMK T01900170 IEM_DS3505
ZGKL,2007-05-13 17:00,ZGKL 131700Z AUTO 00000KT 5SM 19/16 A2994 RMK T01900160 IEM_DS3505
ZGKL,2007-05-13 18:00,ZGKL 131800Z AUTO 36004KT 9SM 20/14 A2991 RMK SLP135 T01980140 57009 IEM_DS3505
ZGKL,2007-05-13 19:00,ZGKL 131900Z AUTO 00000KT 18/16 A2991 RMK T01800160 IEM_DS3505
ZGKL,2007-05-13 20:00,ZGKL 132000Z AUTO 00000KT 18/16 A2991 RMK T01800160 IEM_DS3505
ZGKL,2007-05-13 21:00,ZGKL 132100Z AUTO 36002KT 9SM 19/14 A2991 RMK SLP133 T01880143 57002 IEM_DS3505
ZGKL,2007-05-13 22:00,ZGKL 132200Z AUTO 00000KT 5SM 17/16 A2994 RMK T01700160 IEM_DS3505
ZGKL,2007-05-13 23:00,ZGKL 132300Z AUTO 00000KT 4SM 18/16 A2994 RMK T01800160 IEM_DS3505
ZGKL,2007-05-14 00:00,ZGKL 140000Z AUTO 09002KT 8SM 21/16 A2997 RMK SLP151 T02110156 52017 IEM_DS3505
ZGKL,2007-05-14 01:00,ZGKL 140100Z AUTO 00000KT 4SM 22/17 A2997 RMK T02200170 IEM_DS3505
ZGKL,2007-05-14 02:00,ZGKL 140200Z AUTO 00000KT 4SM 24/18 A2997 RMK T02400180 IEM_DS3505
ZGKL,2007-05-14 03:00,ZGKL 140300Z AUTO 14004KT 7SM 25/17 A2997 RMK SLP148 T02540173 57002 IEM_DS3505
ZGKL,2007-05-14 04:00,ZGKL 140400Z AUTO 17006KT 5SM 28/17 A2994 RMK T02800170 IEM_DS3505
ZGKL,2007-05-14 05:00,ZGKL 140500Z AUTO 18008KT 5SM 29/18 A2991 RMK T02900180 IEM_DS3505
ZGKL,2007-05-14 06:00,ZGKL 140600Z AUTO 16006KT 9SM 30/18 A2988 RMK SLP118 T02950177 57029 IEM_DS3505
ZGKL,2007-05-14 07:00,ZGKL 140700Z AUTO 18010KT 5SM 30/19 A2985 RMK T03000190 IEM_DS3505
ZGKL,2007-05-14 08:00,ZGKL 140800Z AUTO 18010KT 4SM 30/20 A2985 RMK T03000200 IEM_DS3505
ZGKL,2007-05-14 09:00,ZGKL 140900Z AUTO 18004KT 10SM 31/18 A2983 RMK SLP097 T03060180 57021 IEM_DS3505
ZGKL,2007-05-14 10:00,ZGKL 141000Z AUTO 16006KT 4SM 28/20 A2983 RMK T02800200 IEM_DS3505
ZGKL,2007-05-14 11:00,ZGKL 141100Z AUTO 17004KT 4SM 27/20 A2983 RMK T02700200 IEM_DS3505
ZGKL,2007-05-14 12:00,ZGKL 141200Z AUTO 22002KT 8SM 28/19 A2985 RMK SLP108 T02810188 52011 IEM_DS3505
ZGKL,2007-05-14 13:00,ZGKL 141300Z AUTO 00000KT 3SM 25/22 A2988 RMK T02500220 IEM_DS3505
ZGKL,2007-05-14 14:00,ZGKL 141400Z AUTO 00000KT 3SM 24/21 A2988 RMK T02400210 IEM_DS3505
ZGKL,2007-05-14 15:00,ZGKL 141500Z AUTO 30004KT 8SM 25/20 A2988 RMK SLP122 T02520198 52014 IEM_DS3505
ZGKL,2007-05-14 16:00,ZGKL 141600Z AUTO 00000KT 2SM 23/21 A2988 RMK T02300210 IEM_DS3505
ZGKL,2007-05-14 17:00,ZGKL 141700Z AUTO 00000KT 22/21 A2988 RMK T02200210 IEM_DS3505
ZGKL,2007-05-14 18:00,ZGKL 141800Z AUTO 00000KT 7SM 24/21 A2988 RMK SLP115 T02360207 57006 IEM_DS3505
ZGKL,2007-05-14 19:00,ZGKL 141900Z AUTO 00000KT 22/21 A2985 RMK T02200210 IEM_DS3505
ZGKL,2007-05-14 20:00,ZGKL 142000Z AUTO 22/21 A2985 RMK T02200210 IEM_DS3505
ZGKL,2007-05-14 21:00,ZGKL 142100Z AUTO 14002KT 6SM 23/21 A2985 RMK SLP103 T02330210 57012 IEM_DS3505
ZGKL,2007-05-14 22:00,ZGKL 142200Z AUTO 00000KT 2 1/2SM 22/21 A2985 RMK T02200210 IEM_DS3505
ZGKL,2007-05-14 23:00,ZGKL 142300Z AUTO 00000KT 1 1/4SM 22/21 A2985 RMK T02200210 IEM_DS3505
ZGKL,2007-05-15 00:00,ZGKL 150000Z AUTO 00000KT 3SM 25/21 A2985 RMK SLP111 T02480213 52008 IEM_DS3505
ZGKL,2007-05-15 01:00,ZGKL 150100Z AUTO 18008KT 2SM 28/23 A2988 RMK T02800230 IEM_DS3505
ZGKL,2007-05-15 02:00,ZGKL 150200Z AUTO 18008KT 2 1/2SM 27/23 A2988 RMK T02700230 IEM_DS3505
ZGKL,2007-05-15 03:00,ZGKL 150300Z AUTO 22004KT 3SM 28/22 A2985 RMK SLP110 T02830218 57001 IEM_DS3505
ZGKL,2007-05-15 04:00,ZGKL 150400Z AUTO 21006KT 3SM 28/23 A2985 RMK T02800230 IEM_DS3505
ZGKL,2007-05-15 05:00,ZGKL 150500Z AUTO 20006KT 3SM 30/22 A2983 RMK T03000220 IEM_DS3505
ZGKL,2007-05-15 06:00,ZGKL 150600Z AUTO 22006KT 5SM 30/21 A2980 RMK SLP091 T02980209 57018 IEM_DS3505
ZGKL,2007-05-15 07:00,ZGKL 150700Z AUTO 17010KT 4SM 29/22 A2980 RMK T02900220 IEM_DS3505
ZGKL,2007-05-15 08:00,ZGKL 150800Z AUTO 18008KT 4SM 29/23 A2977 RMK T02900230 IEM_DS3505
ZGKL,2007-05-15 09:00,ZGKL 150900Z AUTO 20004KT 5SM 30/21 A2974 RMK SLP071 T02970214 57020 IEM_DS3505
ZGKL,2007-05-15 10:00,ZGKL 151000Z AUTO 00000KT 3SM 29/23 A2974 RMK T02900230 IEM_DS3505
ZGKL,2007-05-15 11:00,ZGKL 151100Z AUTO 00000KT 3SM 28/24 A2977 RMK T02800240 IEM_DS3505
ZGKL,2007-05-15 12:00,ZGKL 151200Z AUTO 32002KT 5SM 28/22 A2977 RMK SLP080 T02850223 52009 IEM_DS3505
ZGKL,2007-05-15 13:00,ZGKL 151300Z AUTO 00000KT 2SM 26/24 A2980 RMK T02600240 IEM_DS3505
ZGKL,2007-05-15 14:00,ZGKL 151400Z AUTO 00000KT 2SM 25/23 A2983 RMK T02500230 IEM_DS3505
ZGKL,2007-05-15 15:00,ZGKL 151500Z AUTO 29002KT 5SM 28/22 A2985 RMK SLP101 T02780223 52021 IEM_DS3505
ZGKL,2007-05-15 16:00,ZGKL 151600Z AUTO 18004KT 2SM 25/23 A2985 RMK T02500230 IEM_DS3505
ZGKL,2007-05-15 17:00,ZGKL 151700Z AUTO 17006KT 3SM 25/23 A2983 RMK T02500230 IEM_DS3505
ZGKL,2007-05-15 18:00,ZGKL 151800Z AUTO 22004KT 5SM 27/21 A2983 RMK SLP095 T02730211 57005 IEM_DS3505
ZGKL,2007-05-15 19:00,ZGKL 151900Z AUTO 18006KT 25/22 A2983 RMK T02500220 IEM_DS3505
ZGKL,2007-05-15 20:00,ZGKL 152000Z AUTO 19008KT 25/22 A2980 RMK T02500220 IEM_DS3505
ZGKL,2007-05-15 21:00,ZGKL 152100Z AUTO 16002KT 5SM 26/22 A2980 RMK SLP089 T02630219 57007 IEM_DS3505
ZGKL,2007-05-15 22:00,ZGKL 152200Z AUTO 16010KT 4SM 25/23 A2980 RMK T02500230 IEM_DS3505
ZGKL,2007-05-15 23:00,ZGKL 152300Z AUTO 17008KT 4SM 25/23 A2983 RMK T02500230 IEM_DS3505
ZGKL,2007-05-16 00:00,ZGKL 160000Z AUTO 29004KT 9SM 26/22 A2985 RMK 60000 70000 SLP108 T02620221 52019 IEM_DS3505
ZGKL,2007-05-16 01:00,ZGKL 160100Z AUTO 32004KT 4SM 24/22 A2988 RMK T02400220 IEM_DS3505
ZGKL,2007-05-16 02:00,ZGKL 160200Z AUTO 20004KT 4SM 25/22 A2991 RMK T02500220 IEM_DS3505
ZGKL,2007-05-16 03:00,ZGKL 160300Z AUTO 34004KT 3SM 26/21 A2991 RMK SLP126 T02650208 52017 IEM_DS3505
ZGKL,2007-05-16 04:00,ZGKL 160400Z AUTO 27004KT 6SM 26/21 A2991 RMK T02600210 IEM_DS3505
ZGKL,2007-05-16 05:00,ZGKL 160500Z AUTO 28004KT 7SM 26/21 A2991 RMK T02600210 IEM_DS3505
ZGKL,2007-05-16 06:00,ZGKL 160600Z AUTO 34008KT 7SM 26/19 A2991 RMK 60020 SLP129 T02570186 52003 IEM_DS3505
ZGKL,2007-05-16 07:00,ZGKL 160700Z AUTO 33012KT 7SM 24/19 A2988 RMK T02400190 IEM_DS3505
ZGKL,2007-05-16 08:00,ZGKL 160800Z AUTO 36006KT 7SM 23/20 A2988 RMK T02300200 IEM_DS3505
ZGKL,2007-05-16 09:00,ZGKL 160900Z AUTO 02006KT 9SM 24/17 A2988 RMK SLP121 T02380173 57009 IEM_DS3505
ZGKL,2007-05-16 10:00,ZGKL 161000Z AUTO 01004KT 7SM 23/20 A2988 RMK T02300200 IEM_DS3505
ZGKL,2007-05-16 11:00,ZGKL 161100Z AUTO 36004KT 7SM 23/19 A2991 RMK T02300190 IEM_DS3505
ZGKL,2007-05-16 12:00,ZGKL 161200Z AUTO 04006KT 8SM 23/15 A2994 RMK 60000 SLP141 T02330148 52019 IEM_DS3505
ZGKL,2007-05-16 13:00,ZGKL 161300Z AUTO 03010KT 7SM 22/17 A2997 RMK T02200170 IEM_DS3505
ZGKL,2007-05-16 14:00,ZGKL 161400Z AUTO 02008KT 6SM 22/17 A2997 RMK T02200170 IEM_DS3505
ZGKL,2007-05-16 15:00,ZGKL 161500Z AUTO 02004KT 7SM 21/14 A2997 RMK SLP153 T02070139 52011 IEM_DS3505
ZGKL,2007-05-16 16:00,ZGKL 161600Z AUTO 06004KT 6SM 21/16 A2994 RMK T02100160 IEM_DS3505
ZGKL,2007-05-16 17:00,ZGKL 161700Z AUTO 00000KT 21/17 A2991 RMK T02100170 IEM_DS3505
ZGKL,2007-05-16 18:00,ZGKL 161800Z AUTO 15002KT 7SM 20/15 A2991 RMK SLP126 T02020148 57026 IEM_DS3505
ZGKL,2007-05-16 19:00,ZGKL 161900Z AUTO 00000KT 20/17 A2988 RMK T02000170 IEM_DS3505
ZGKL,2007-05-16 20:00,ZGKL 162000Z AUTO 00000KT 20/18 A2988 RMK T02000180 IEM_DS3505
ZGKL,2007-05-16 21:00,ZGKL 162100Z AUTO 07002KT 6SM 20/16 A2988 RMK 70019 SLP122 T01980161 57005 IEM_DS3505
ZGKL,2007-05-16 22:00,ZGKL 162200Z AUTO 00000KT 7SM 20/18 A2988 RMK T02000180 IEM_DS3505
ZGKL,2007-05-16 23:00,ZGKL 162300Z AUTO 00000KT 7SM 20/17 A2988 RMK T02000170 IEM_DS3505
ZGKL,2007-05-17 00:00,ZGKL 170000Z AUTO 32002KT 9SM 20/15 A2991 RMK 70019 SLP135 T01970151 52012 IEM_DS3505
ZGKL,2007-05-17 01:00,ZGKL 170100Z AUTO 00000KT 2 1/2SM 20/18 A2991 RMK T02000180 IEM_DS3505
ZGKL,2007-05-17 02:00,ZGKL 170200Z AUTO 00000KT 4SM 20/18 A2994 RMK T02000180 IEM_DS3505
ZGKL,2007-05-17 03:00,ZGKL 170300Z AUTO 29002KT 4SM 19/17 A2994 RMK SLP141 T01940168 52005 IEM_DS3505
ZGKL,2007-05-17 04:00,ZGKL 170400Z AUTO 2 1/2SM 20/17 A2991 RMK T02000170 IEM_DS3505
ZGKL,2007-05-17 05:00,ZGKL 170500Z AUTO 32004KT 2 1/2SM 19/18 A2991 RMK T01900180 IEM_DS3505
ZGKL,2007-05-17 06:00,ZGKL 170600Z AUTO 11002KT 3SM 18/17 A2988 RMK 60035 SLP126 T01850173 57015 IEM_DS3505
ZGKL,2007-05-17 07:00,ZGKL 170700Z AUTO 2 1/2SM 19/18 A2988 RMK T01900180 IEM_DS3505
ZGKL,2007-05-17 08:00,ZGKL 170800Z AUTO 05004KT 2 1/2SM 19/18 A2985 RMK T01900180 IEM_DS3505
ZGKL,2007-05-17 09:00,ZGKL 170900Z AUTO 09002KT 3SM 19/18 A2985 RMK SLP113 T01880178 57013 IEM_DS3505
ZGKL,2007-05-17 10:00,ZGKL 171000Z AUTO 08004KT 2SM 19/18 A2983 RMK T01900180 IEM_DS3505
ZGKL,2007-05-17 11:00,ZGKL 171100Z AUTO 2 1/2SM 19/18 A2983 RMK T01900180 IEM_DS3505
ZGKL,2007-05-17 12:00,ZGKL 171200Z AUTO 00000KT 4SM 19/18 A2985 RMK 60016 SLP114 T01880176 52001 IEM_DS3505
ZGKL,2007-05-17 13:00,ZGKL 171300Z AUTO 00000KT 2 1/2SM 19/18 A2985 RMK T01900180 IEM_DS3505
ZGKL,2007-05-17 14:00,ZGKL 171400Z AUTO 00000KT 2SM 19/18 A2988 RMK T01900180 IEM_DS3505
ZGKL,2007-05-17 15:00,ZGKL 171500Z AUTO 04002KT 4SM 19/18 A2988 RMK SLP123 T01910181 52009 IEM_DS3505
ZGKL,2007-05-17 16:00,ZGKL 171600Z AUTO 00000KT 2SM 19/18 A2988 RMK T01900180 IEM_DS3505
ZGKL,2007-05-17 17:00,ZGKL 171700Z AUTO 2SM 19/18 A2985 RMK T01900180 IEM_DS3505
ZGKL,2007-05-17 18:00,ZGKL 171800Z AUTO 09002KT 4SM 19/19 A2985 RMK 60008 SLP109 T01890189 57014 IEM_DS3505
ZGKL,2007-05-17 19:00,ZGKL 171900Z AUTO 00000KT 1 1/2SM 19/18 A2983 RMK T01900180 IEM_DS3505
ZGKL,2007-05-17 20:00,ZGKL 172000Z AUTO 00000KT 1 1/2SM 19/18 A2983 RMK T01900180 IEM_DS3505
ZGKL,2007-05-17 21:00,ZGKL 172100Z AUTO 02002KT 2 1/2SM 19/19 A2980 RMK 70067 SLP100 T01900188 57009 IEM_DS3505
ZGKL,2007-05-17 22:00,ZGKL 172200Z AUTO 00000KT 1 1/4SM 19/18 A2983 RMK T01900180 IEM_DS3505
ZGKL,2007-05-17 23:00,ZGKL 172300Z AUTO 04004KT 1 1/4SM 19/18 A2983 RMK T01900180 IEM_DS3505
ZGKL,2007-05-18 00:00,ZGKL 180000Z AUTO 11002KT 1 1/4SM 19/19 A2985 RMK 60028 70085 SLP108 T01900190 52008 IEM_DS3505
ZGKL,2007-05-18 01:00,ZGKL 180100Z AUTO 00000KT 2 1/2SM 20/19 A2985 RMK T02000190 IEM_DS3505
ZGKL,2007-05-18 02:00,ZGKL 180200Z AUTO 17004KT 2 1/2SM 20/19 A2988 RMK T02000190 IEM_DS3505
ZGKL,2007-05-18 03:00,ZGKL 180300Z AUTO 07002KT 2SM 21/20 A2988 RMK SLP122 T02060198 52015 IEM_DS3505
ZGKL,2007-05-18 04:00,ZGKL 180400Z AUTO 4SM 21/19 A2988 RMK T02100190 IEM_DS3505
ZGKL,2007-05-18 05:00,ZGKL 180500Z AUTO 00000KT 4SM 22/20 A2988 RMK T02200200 IEM_DS3505
ZGKL,2007-05-18 06:00,ZGKL 180600Z AUTO 16002KT 3SM 22/20 A2985 RMK 60016 SLP116 T02160199 57006 IEM_DS3505
ZGKL,2007-05-18 07:00,ZGKL 180700Z AUTO 19004KT 4SM 22/20 A2985 RMK T02200200 IEM_DS3505
ZGKL,2007-05-18 08:00,ZGKL 180800Z AUTO 00000KT 4SM 22/20 A2983 RMK T02200200 IEM_DS3505
ZGKL,2007-05-18 09:00,ZGKL 180900Z AUTO 07002KT 3SM 22/20 A2980 RMK SLP099 T02190200 57017 IEM_DS3505
ZGKL,2007-05-18 10:00,ZGKL 181000Z AUTO 00000KT 4SM 22/21 A2980 RMK T02200210 IEM_DS3505
ZGKL,2007-05-18 11:00,ZGKL 181100Z AUTO 19002KT 4SM 22/20 A2980 RMK T02200200 IEM_DS3505
ZGKL,2007-05-18 12:00,ZGKL 181200Z AUTO 18002KT 4SM 22/20 A2983 RMK 60002 SLP103 T02170203 52004 IEM_DS3505
ZGKL,2007-05-18 13:00,ZGKL 181300Z AUTO 11004KT 4SM 22/20 A2983 RMK T02200200 IEM_DS3505
ZGKL,2007-05-18 14:00,ZGKL 181400Z AUTO 16004KT 3SM 22/20 A2985 RMK T02200200 IEM_DS3505
ZGKL,2007-05-18 15:00,ZGKL 181500Z AUTO 02002KT 3SM 21/21 A2985 RMK SLP120 T02090209 52017 IEM_DS3505
ZGKL,2007-05-18 16:00,ZGKL 181600Z AUTO 04004KT 2SM 21/20 A2988 RMK T02100200 IEM_DS3505
ZGKL,2007-05-18 17:00,ZGKL 181700Z AUTO 07002KT 1 1/4SM 21/20 A2985 RMK T02100200 IEM_DS3505
ZGKL,2007-05-18 18:00,ZGKL 181800Z AUTO 00000KT 4SM 21/21 A2985 RMK 60000 SLP111 T02080208 57008 IEM_DS3505
ZGKL,2007-05-18 19:00,ZGKL 181900Z AUTO 00000KT 1SM 21/20 A2983 RMK T02100200 IEM_DS3505
ZGKL,2007-05-18 20:00,ZGKL 182000Z AUTO 00000KT 1SM 21/20 A2983 RMK T02100200 IEM_DS3505
ZGKL,2007-05-18 21:00,ZGKL 182100Z AUTO 00000KT 4SM 20/20 RMK 70035 SLP106 T02050205 57005 IEM_DS3505
ZGKL,2007-05-18 22:00,ZGKL 182200Z AUTO 00000KT 1SM 21/20 A2985 RMK T02100200 IEM_DS3505
ZGKL,2007-05-18 23:00,ZGKL 182300Z AUTO 00000KT 1SM 21/20 A2985 RMK T02100200 IEM_DS3505
ZGKL,2007-05-19 00:00,ZGKL 190000Z AUTO 18002KT 3SM 21/21 A2988 RMK 70016 SLP118 T02130213 52012 IEM_DS3505
ZGKL,2007-05-19 01:00,ZGKL 190100Z AUTO 00000KT 1 1/4SM 22/21 A2988 RMK T02200210 IEM_DS3505
ZGKL,2007-05-19 02:00,ZGKL 190200Z AUTO 00000KT 1 1/2SM 23/21 A2988 RMK T02300210 IEM_DS3505
ZGKL,2007-05-19 03:00,ZGKL 190300Z AUTO 07002KT 3SM 24/20 A2988 RMK SLP119 T02380203 52001 IEM_DS3505
ZGKL,2007-05-19 04:00,ZGKL 190400Z AUTO 04006KT 1 1/2SM 24/21 A2985 RMK T02400210 IEM_DS3505
ZGKL,2007-05-19 05:00,ZGKL 190500Z AUTO 27004KT 2SM 23/21 A2985 RMK T02300210 IEM_DS3505
ZGKL,2007-05-19 06:00,ZGKL 190600Z AUTO 11002KT 3SM 24/20 A2983 RMK SLP103 T02440203 57015 IEM_DS3505
ZGKL,2007-05-19 07:00,ZGKL 190700Z AUTO 1 1/4SM 23/21 A2980 RMK T02300210 IEM_DS3505
ZGKL,2007-05-19 08:00,ZGKL 190800Z AUTO 34004KT 2SM 23/21 A2980 RMK T02300210 IEM_DS3505
ZGKL,2007-05-19 09:00,ZGKL 190900Z AUTO 02004KT 7SM 23/22 A2977 RMK SLP082 T02340215 57021 IEM_DS3505
ZGKL,2007-05-19 10:00,ZGKL 191000Z AUTO 34004KT 3SM 24/21 A2977 RMK T02400210 IEM_DS3505
ZGKL,2007-05-19 11:00,ZGKL 191100Z AUTO 3SM 23/21 A2977 RMK T02300210 IEM_DS3505
ZGKL,2007-05-19 12:00,ZGKL 191200Z AUTO 02002KT 8SM 23/22 A2980 RMK SLP090 T02260216 52008 IEM_DS3505
ZGKL,2007-05-19 13:00,ZGKL 191300Z AUTO 2 1/2SM 22/21 A2980 RMK T02200210 IEM_DS3505
ZGKL,2007-05-19 14:00,ZGKL 191400Z AUTO 1 1/2SM 21/20 A2980 RMK T02100200 IEM_DS3505
ZGKL,2007-05-19 15:00,ZGKL 191500Z AUTO 00000KT 7SM 21/21 A2980 RMK SLP098 T02130213 52008 IEM_DS3505
ZGKL,2007-05-19 16:00,ZGKL 191600Z AUTO 1 1/4SM 20/20 A2983 RMK T02000200 IEM_DS3505
ZGKL,2007-05-19 17:00,ZGKL 191700Z AUTO 00000KT 1 1/2SM 21/20 A2980 RMK T02100200 IEM_DS3505
ZGKL,2007-05-19 18:00,ZGKL 191800Z AUTO 04002KT 4SM 21/21 A2980 RMK SLP092 T02120212 57006 IEM_DS3505
ZGKL,2007-05-19 19:00,ZGKL 191900Z AUTO 00000KT 1 1/4SM 21/20 A2977 RMK T02100200 IEM_DS3505
ZGKL,2007-05-19 20:00,ZGKL 192000Z AUTO 00000KT 21/20 A2977 RMK T02100200 IEM_DS3505
ZGKL,2007-05-19 21:00,ZGKL 192100Z AUTO 04002KT 2 1/2SM 21/21 A2977 RMK SLP080 T02110211 57012 IEM_DS3505
ZGKL,2007-05-19 23:00,ZGKL 192300Z AUTO 00000KT 1 1/2SM 21/20 A2977 RMK T02100200 IEM_DS3505
ZGKL,2007-05-20 00:00,ZGKL 200000Z AUTO 04002KT 2SM 22/22 A2980 RMK SLP087 T02190219 52007 IEM_DS3505
ZGKL,2007-05-20 01:00,ZGKL 200100Z AUTO 00000KT 3SM 23/21 A2980 RMK T02300210 IEM_DS3505
ZGKL,2007-05-20 02:00,ZGKL 200200Z AUTO 00000KT 5SM 24/21 A2977 RMK T02400210 IEM_DS3505
ZGKL,2007-05-20 03:00,ZGKL 200300Z AUTO 16004KT 4SM 26/22 A2977 RMK SLP078 T02600217 57008 IEM_DS3505
ZGKL,2007-05-20 04:00,ZGKL 200400Z AUTO 00000KT 7SM 27/21 A2974 RMK T02700210 IEM_DS3505
ZGKL,2007-05-20 05:00,ZGKL 200500Z AUTO 13004KT 7SM 28/21 A2971 RMK T02800210 IEM_DS3505
ZGKL,2007-05-20 06:00,ZGKL 200600Z AUTO 16004KT 9SM 29/20 A2968 RMK SLP046 T02920198 57031 IEM_DS3505
ZGKL,2007-05-20 07:00,ZGKL 200700Z AUTO 19006KT 7SM 29/20 A2965 RMK T02900200 IEM_DS3505
ZGKL,2007-05-20 08:00,ZGKL 200800Z AUTO 13006KT 7SM 30/19 A2962 RMK T03000190 IEM_DS3505
ZGKL,2007-05-20 09:00,ZGKL 200900Z AUTO 20002KT 12SM 30/20 A2962 RMK SLP026 T02960199 57019 IEM_DS3505
ZGKL,2007-05-20 10:00,ZGKL 201000Z AUTO 12006KT 6SM 29/21 A2962 RMK T02900210 IEM_DS3505
ZGKL,2007-05-20 11:00,ZGKL 201100Z AUTO 6SM 28/21 A2962 RMK T02800210 IEM_DS3505
ZGKL,2007-05-20 12:00,ZGKL 201200Z AUTO 22002KT 11SM 27/21 A2965 RMK SLP036 T02740214 52009 IEM_DS3505
ZGKL,2007-05-20 13:00,ZGKL 201300Z AUTO 00000KT 3SM 25/23 A2968 RMK T02500230 IEM_DS3505
ZGKL,2007-05-20 14:00,ZGKL 201400Z AUTO 00000KT 4SM 25/23 A2968 RMK T02500230 IEM_DS3505
ZGKL,2007-05-20 15:00,ZGKL 201500Z AUTO 00000KT 10SM 26/22 A2971 RMK SLP054 T02610224 52019 IEM_DS3505
ZGKL,2007-05-20 16:00,ZGKL 201600Z AUTO 00000KT 3SM 24/22 A2971 RMK T02400220 IEM_DS3505
ZGKL,2007-05-20 17:00,ZGKL 201700Z AUTO 00000KT 2 1/2SM 23/22 A2968 RMK T02300220 IEM_DS3505
ZGKL,2007-05-20 18:00,ZGKL 201800Z AUTO 18002KT 9SM 25/22 A2965 RMK SLP041 T02480223 57012 IEM_DS3505
ZGKL,2007-05-20 19:00,ZGKL 201900Z AUTO 00000KT 23/22 A2968 RMK T02300220 IEM_DS3505
ZGKL,2007-05-20 20:00,ZGKL 202000Z AUTO 00000KT 23/22 A2968 RMK T02300220 IEM_DS3505
ZGKL,2007-05-20 21:00,ZGKL 202100Z AUTO 00000KT 8SM 24/22 A2965 RMK SLP038 T02360222 57004 IEM_DS3505
ZGKL,2007-05-20 22:00,ZGKL 202200Z AUTO 00000KT 2 1/2SM 22/21 A2965 RMK T02200210 IEM_DS3505
ZGKL,2007-05-20 23:00,ZGKL 202300Z AUTO 00000KT 3SM 23/22 A2965 RMK T02300220 IEM_DS3505
ZGKL,2007-05-21 00:00,ZGKL 210000Z AUTO 09002KT 7SM 24/23 A2968 RMK SLP048 T02400228 52010 IEM_DS3505
ZGKL,2007-05-21 01:00,ZGKL 210100Z AUTO 4SM 25/22 A2968 RMK T02500220 IEM_DS3505
ZGKL,2007-05-21 02:00,ZGKL 210200Z AUTO 5SM 25/21 A2968 RMK T02500210 IEM_DS3505
ZGKL,2007-05-21 03:00,ZGKL 210300Z AUTO 22002KT 7SM 26/22 A2968 RMK SLP045 T02640220 57003 IEM_DS3505
ZGKL,2007-05-21 04:00,ZGKL 210400Z AUTO 11006KT 3SM 24/22 A2968 RMK T02400220 IEM_DS3505
ZGKL,2007-05-21 05:00,ZGKL 210500Z AUTO 00000KT 2 1/2SM 24/22 A2965 RMK T02400220 IEM_DS3505
ZGKL,2007-05-21 06:00,ZGKL 210600Z AUTO 20004KT 5SM 25/23 A2962 RMK 60000 SLP028 T02520229 57017 IEM_DS3505
ZGKL,2007-05-21 07:00,ZGKL 210700Z AUTO 00000KT 3SM 24/22 A2959 RMK T02400220 IEM_DS3505
ZGKL,2007-05-21 08:00,ZGKL 210800Z AUTO 00000KT 3SM 24/22 A2959 RMK T02400220 IEM_DS3505
ZGKL,2007-05-21 09:00,ZGKL 210900Z AUTO 32002KT 4SM 25/23 A2956 RMK SLP013 T02490231 57016 IEM_DS3505
ZGKL,2007-05-21 10:00,ZGKL 211000Z AUTO 33004KT 3SM 24/23 A2956 RMK T02400230 IEM_DS3505
ZGKL,2007-05-21 11:00,ZGKL 211100Z AUTO 02006KT 3SM 24/22 A2956 RMK T02400220 IEM_DS3505
ZGKL,2007-05-21 12:00,ZGKL 211200Z AUTO 04002KT 3SM 24/23 A2959 RMK 60000 SLP016 T02430233 52003 IEM_DS3505
ZGKL,2007-05-21 13:00,ZGKL 211300Z AUTO 34004KT 2SM 23/22 A2959 RMK T02300220 IEM_DS3505
ZGKL,2007-05-21 14:00,ZGKL 211400Z AUTO 1 1/2SM 23/22 A2962 RMK T02300220 IEM_DS3505
ZGKL,2007-05-21 15:00,ZGKL 211500Z AUTO 07002KT 3SM 24/24 A2962 RMK SLP024 T02390239 52009 IEM_DS3505
ZGKL,2007-05-21 16:00,ZGKL 211600Z AUTO 35004KT 1 1/2SM 23/22 A2959 RMK T02300220 IEM_DS3505
ZGKL,2007-05-21 17:00,ZGKL 211700Z AUTO 03004KT 23/22 A2959 RMK T02300220 IEM_DS3505
ZGKL,2007-05-21 18:00,ZGKL 211800Z AUTO 14002KT 3SM 24/24 A2956 RMK 60002 SLP014 T02380238 57010 IEM_DS3505
ZGKL,2007-05-21 19:00,ZGKL 211900Z AUTO 00000KT 23/22 A2956 RMK T02300220 IEM_DS3505
ZGKL,2007-05-21 20:00,ZGKL 212000Z AUTO 00000KT 1 1/4SM 23/22 A2953 RMK T02300220 IEM_DS3505
ZGKL,2007-05-21 21:00,ZGKL 212100Z AUTO 32002KT 2 1/2SM 24/24 A2953 RMK 70004 SLP003 T02350235 57011 IEM_DS3505
ZGKL,2007-05-21 22:00,ZGKL 212200Z AUTO 00000KT 1 1/4SM 23/23 A2956 RMK T02300230 IEM_DS3505
ZGKL,2007-05-21 23:00,ZGKL 212300Z AUTO 34004KT 1 1/4SM 23/23 A2956 RMK T02300230 IEM_DS3505
ZGKL,2007-05-22 00:00,ZGKL 220000Z AUTO 09002KT 3SM 25/25 A2956 RMK 60000 70004 SLP010 T02520252 52007 IEM_DS3505
ZGKL,2007-05-22 01:00,ZGKL 220100Z AUTO 00000KT 3SM 26/24 A2956 RMK T02600240 IEM_DS3505
ZGKL,2007-05-22 02:00,ZGKL 220200Z AUTO 00000KT 3SM 26/24 A2956 RMK T02600240 IEM_DS3505
ZGKL,2007-05-22 03:00,ZGKL 220300Z AUTO 20006KT 8SM 30/24 A2953 RMK SLP997 T03040243 57011 IEM_DS3505
ZGKL,2007-05-22 04:00,ZGKL 220400Z AUTO 17006KT 6SM 30/25 A2950 RMK T03000250 IEM_DS3505
ZGKL,2007-05-22 05:00,ZGKL 220500Z AUTO 14006KT 7SM 31/25 A2947 RMK T03100250 IEM_DS3505
ZGKL,2007-05-22 06:00,ZGKL 220600Z AUTO 18004KT 12SM 33/24 A2947 RMK SLP970 T03300242 57026 IEM_DS3505
ZGKL,2007-05-22 07:00,ZGKL 220700Z AUTO 20010KT 7SM 33/25 A2944 RMK T03300250 IEM_DS3505
ZGKL,2007-05-22 08:00,ZGKL 220800Z AUTO 20012KT 7SM 34/25 A2941 RMK T03400250 IEM_DS3505
ZGKL,2007-05-22 09:00,ZGKL 220900Z AUTO 20006KT 14SM 33/25 A2941 RMK SLP958 T03290246 57012 IEM_DS3505
ZGKL,2007-05-22 10:00,ZGKL 221000Z AUTO 18006KT 7SM 32/25 A2941 RMK T03200250 IEM_DS3505
ZGKL,2007-05-22 11:00,ZGKL 221100Z AUTO 14004KT 7SM 31/25 A2944 RMK T03100250 IEM_DS3505
ZGKL,2007-05-22 12:00,ZGKL 221200Z AUTO 20002KT 11SM 31/25 A2947 RMK SLP975 T03060247 52016 IEM_DS3505
ZGKL,2007-05-22 13:00,ZGKL 221300Z AUTO 29002KT 6SM 29/26 A2947 RMK T02900260 IEM_DS3505
ZGKL,2007-05-22 14:00,ZGKL 221400Z AUTO 6SM 28/25 A2950 RMK T02800250 IEM_DS3505
ZGKL,2007-05-22 15:00,ZGKL 221500Z AUTO 18002KT 9SM 30/25 A2950 RMK SLP984 T02970246 52011 IEM_DS3505
ZGKL,2007-05-22 16:00,ZGKL 221600Z AUTO 20004KT 4SM 27/25 A2950 RMK T02700250 IEM_DS3505
ZGKL,2007-05-22 17:00,ZGKL 221700Z AUTO 19004KT 6SM 29/23 A2950 RMK T02900230 IEM_DS3505
ZGKL,2007-05-22 18:00,ZGKL 221800Z AUTO 20006KT 9SM 29/24 A2950 RMK SLP984 T02930235 54000 IEM_DS3505
ZGKL,2007-05-22 19:00,ZGKL 221900Z AUTO 16010KT 29/22 A2950 RMK T02900220 IEM_DS3505
ZGKL,2007-05-22 20:00,ZGKL 222000Z AUTO 15006KT 28/22 A2950 RMK T02800220 IEM_DS3505
ZGKL,2007-05-22 21:00,ZGKL 222100Z AUTO 18004KT 9SM 28/23 A2950 RMK SLP989 T02810230 52005 IEM_DS3505
ZGKL,2007-05-22 22:00,ZGKL 222200Z AUTO 14006KT 7SM 27/23 A2953 RMK T02700230 IEM_DS3505
ZGKL,2007-05-22 23:00,ZGKL 222300Z AUTO 14004KT 6SM 27/23 A2953 RMK T02700230 IEM_DS3505
ZGKL,2007-05-23 00:00,ZGKL 230000Z AUTO 18002KT 11SM 28/23 A2956 RMK SLP006 T02810230 52016 IEM_DS3505
ZGKL,2007-05-23 01:00,ZGKL 230100Z AUTO 6SM 28/23 A2956 RMK T02800230 IEM_DS3505
ZGKL,2007-05-23 02:00,ZGKL 230200Z AUTO 6SM 30/24 A2956 RMK T03000240 IEM_DS3505
ZGKL,2007-05-23 03:00,ZGKL 230300Z AUTO 20006KT 11SM 32/23 A2953 RMK SLP992 T03210231 57013 IEM_DS3505
ZGKL,2007-05-23 04:00,ZGKL 230400Z AUTO 30004KT 7SM 31/25 A2950 RMK T03100250 IEM_DS3505
ZGKL,2007-05-23 05:00,ZGKL 230500Z AUTO 32006KT 7SM 31/26 A2950 RMK T03100260 IEM_DS3505
ZGKL,2007-05-23 06:00,ZGKL 230600Z AUTO 20006KT 12SM 33/23 A2947 RMK SLP972 T03300231 57020 IEM_DS3505
ZGKL,2007-05-23 07:00,ZGKL 230700Z AUTO 19008KT 7SM 34/23 A2944 RMK T03400230 IEM_DS3505
ZGKL,2007-05-23 08:00,ZGKL 230800Z AUTO 20008KT 7SM 34/23 A2944 RMK T03400230 IEM_DS3505
ZGKL,2007-05-23 09:00,ZGKL 230900Z AUTO 16004KT 14SM 34/24 A2944 RMK SLP959 T03370243 57012 IEM_DS3505
ZGKL,2007-05-23 10:00,ZGKL 231000Z AUTO 17006KT 7SM 32/24 A2944 RMK T03200240 IEM_DS3505
ZGKL,2007-05-23 11:00,ZGKL 231100Z AUTO 7SM 31/25 A2944 RMK T03100250 IEM_DS3505
ZGKL,2007-05-23 12:00,ZGKL 231200Z AUTO 20002KT 11SM 31/24 A2947 RMK SLP973 T03140240 52013 IEM_DS3505
ZGKL,2007-05-23 13:00,ZGKL 231300Z AUTO 00000KT 5SM 29/26 A2947 RMK T02900260 IEM_DS3505
ZGKL,2007-05-23 14:00,ZGKL 231400Z AUTO 4SM 28/26 A2950 RMK T02800260 IEM_DS3505
ZGKL,2007-05-23 15:00,ZGKL 231500Z AUTO 4SM 28/25 A2950 RMK T02800250 IEM_DS3505
ZGKL,2007-05-23 17:00,ZGKL 231700Z AUTO 00000KT 4SM 26/25 A2950 RMK T02600250 IEM_DS3505
ZGKL,2007-05-23 18:00,ZGKL 231800Z AUTO 18004KT 9SM 29/24 A2950 RMK SLP985 T02930235 57001 IEM_DS3505
ZGKL,2007-05-23 19:00,ZGKL 231900Z AUTO 00000KT 26/25 A2950 RMK T02600250 IEM_DS3505
ZGKL,2007-05-23 20:00,ZGKL 232000Z AUTO 00000KT 26/24 A2950 RMK T02600240 IEM_DS3505
ZGKL,2007-05-23 21:00,ZGKL 232100Z AUTO 18004KT 9SM 28/23 A2953 RMK SLP988 T02840233 52003 IEM_DS3505
ZGKL,2007-05-23 22:00,ZGKL 232200Z AUTO 7SM 26/24 A2953 RMK T02600240 IEM_DS3505
ZGKL,2007-05-23 23:00,ZGKL 232300Z AUTO 32004KT 7SM 26/24 A2956 RMK T02600240 IEM_DS3505
ZGKL,2007-05-24 00:00,ZGKL 240000Z AUTO 09002KT 10SM 26/25 A2956 RMK 60008 70009 SLP011 T02590250 52021 IEM_DS3505
ZGKL,2007-05-24 01:00,ZGKL 240100Z AUTO 34006KT 5SM 27/24 A2959 RMK T02700240 IEM_DS3505
ZGKL,2007-05-24 02:00,ZGKL 240200Z AUTO 6SM 29/23 A2959 RMK T02900230 IEM_DS3505
ZGKL,2007-05-24 03:00,ZGKL 240300Z AUTO 22002KT 7SM 31/25 A2959 RMK SLP012 T03070251 52002 IEM_DS3505
ZGKL,2007-05-24 04:00,ZGKL 240400Z AUTO 7SM 31/24 A2956 RMK T03100240 IEM_DS3505
ZGKL,2007-05-24 05:00,ZGKL 240500Z AUTO 7SM 32/24 A2953 RMK T03200240 IEM_DS3505
ZGKL,2007-05-24 06:00,ZGKL 240600Z AUTO 04004KT 9SM 32/24 A2953 RMK SLP994 T03250243 57017 IEM_DS3505
ZGKL,2007-05-24 07:00,ZGKL 240700Z AUTO 7SM 33/24 A2950 RMK T03300240 IEM_DS3505
ZGKL,2007-05-24 08:00,ZGKL 240800Z AUTO 14012KT 7SM 32/24 A2950 RMK T03200240 IEM_DS3505
ZGKL,2007-05-24 09:00,ZGKL 240900Z AUTO 02012KT 5SM 23/22 A2953 RMK SLP022 T02320224 52024 IEM_DS3505
ZGKL,2007-05-24 10:00,ZGKL 241000Z AUTO 05012KT 3SM 23/22 A2959 RMK T02300220 IEM_DS3505
ZGKL,2007-05-24 11:00,ZGKL 241100Z AUTO 5SM 23/21 A2962 RMK T02300210 IEM_DS3505
ZGKL,2007-05-24 12:00,ZGKL 241200Z AUTO 02008KT 6SM 23/21 A2965 RMK 60094 SLP041 T02330206 52018 IEM_DS3505
ZGKL,2007-05-24 14:00,ZGKL 241400Z AUTO 06004KT 5SM 22/21 A2971 RMK T02200210 IEM_DS3505
ZGKL,2007-05-24 15:00,ZGKL 241500Z AUTO 02008KT 6SM 22/19 A2971 RMK SLP058 T02240194 52018 IEM_DS3505
ZGKL,2007-05-24 16:00,ZGKL 241600Z AUTO 29004KT 5SM 22/21 A2971 RMK T02200210 IEM_DS3505
ZGKL,2007-05-24 17:00,ZGKL 241700Z AUTO 07004KT 6SM 22/20 A2971 RMK T02200200 IEM_DS3505
ZGKL,2007-05-24 18:00,ZGKL 241800Z AUTO 02006KT 6SM 22/19 A2968 RMK 60000 SLP050 T02190191 57007 IEM_DS3505
ZGKL,2007-05-24 19:00,ZGKL 241900Z AUTO 00000KT 3SM 22/20 A2968 RMK T02200200 IEM_DS3505
ZGKL,2007-05-24 20:00,ZGKL 242000Z AUTO 00000KT 3SM 22/20 A2968 RMK T02200200 IEM_DS3505
ZGKL,2007-05-24 21:00,ZGKL 242100Z AUTO 36004KT 7SM 22/19 A2971 RMK 70103 SLP058 T02180188 52005 IEM_DS3505
ZGKL,2007-05-24 22:00,ZGKL 242200Z AUTO 00000KT 5SM 22/20 A2971 RMK T02200200 IEM_DS3505
ZGKL,2007-05-24 23:00,ZGKL 242300Z AUTO 6SM 21/20 A2974 RMK T02100200 IEM_DS3505
ZGKL,2007-05-25 00:00,ZGKL 250000Z AUTO 36006KT 6SM 21/19 A2977 RMK 60001 70095 SLP080 T02130189 52021 IEM_DS3505
ZGKL,2007-05-25 01:00,ZGKL 250100Z AUTO 34004KT 7SM 22/20 A2977 RMK T02200200 IEM_DS3505
ZGKL,2007-05-25 02:00,ZGKL 250200Z AUTO 34006KT 7SM 23/20 A2977 RMK T02300200 IEM_DS3505
ZGKL,2007-05-25 03:00,ZGKL 250300Z AUTO 02006KT 4SM 24/19 A2977 RMK SLP083 T02350186 52003 IEM_DS3505
ZGKL,2007-05-25 04:00,ZGKL 250400Z AUTO 02010KT 5SM 25/19 A2977 RMK T02500190 IEM_DS3505
ZGKL,2007-05-25 05:00,ZGKL 250500Z AUTO 02008KT 4SM 25/19 A2974 RMK T02500190 IEM_DS3505
ZGKL,2007-05-25 06:00,ZGKL 250600Z AUTO 02008KT 4SM 26/18 A2974 RMK SLP064 T02610185 57018 IEM_DS3505
ZGKL,2007-05-25 07:00,ZGKL 250700Z AUTO 4SM 27/19 A2971 RMK T02700190 IEM_DS3505
ZGKL,2007-05-25 08:00,ZGKL 250800Z AUTO 4SM 27/19 A2971 RMK T02700190 IEM_DS3505
ZGKL,2007-05-25 09:00,ZGKL 250900Z AUTO 36002KT 4SM 28/19 A2968 RMK SLP052 T02780191 57011 IEM_DS3505
ZGKL,2007-05-25 10:00,ZGKL 251000Z AUTO 00000KT 4SM 27/19 A2968 RMK T02700190 IEM_DS3505
ZGKL,2007-05-25 11:00,ZGKL 251100Z AUTO 00000KT 4SM 26/21 A2971 RMK T02600210 IEM_DS3505
ZGKL,2007-05-25 12:00,ZGKL 251200Z AUTO 14002KT 4SM 25/21 A2971 RMK SLP063 T02490206 52010 IEM_DS3505
ZGKL,2007-05-25 13:00,ZGKL 251300Z AUTO 30004KT 4SM 24/20 A2974 RMK T02400200 IEM_DS3505
ZGKL,2007-05-25 14:00,ZGKL 251400Z AUTO 00000KT 4SM 23/21 A2974 RMK T02300210 IEM_DS3505
ZGKL,2007-05-25 15:00,ZGKL 251500Z AUTO 02002KT 4SM 24/20 A2977 RMK SLP076 T02450198 52013 IEM_DS3505
ZGKL,2007-05-25 16:00,ZGKL 251600Z AUTO 00000KT 4SM 23/21 A2974 RMK T02300210 IEM_DS3505
ZGKL,2007-05-25 17:00,ZGKL 251700Z AUTO 00000KT 3SM 23/21 A2974 RMK T02300210 IEM_DS3505
ZGKL,2007-05-25 18:00,ZGKL 251800Z AUTO 04002KT 4SM 24/19 A2974 RMK SLP065 T02360193 57010 IEM_DS3505
ZGKL,2007-05-25 19:00,ZGKL 251900Z AUTO 00000KT 3SM 23/21 A2974 RMK T02300210 IEM_DS3505
ZGKL,2007-05-25 20:00,ZGKL 252000Z AUTO 00000KT 3SM 23/21 A2974 RMK T02300210 IEM_DS3505
ZGKL,2007-05-25 21:00,ZGKL 252100Z AUTO 36002KT 4SM 24/19 A2974 RMK 70001 SLP067 T02360193 52002 IEM_DS3505
ZGKL,2007-05-25 22:00,ZGKL 252200Z AUTO 00000KT 3SM 23/21 A2974 RMK T02300210 IEM_DS3505
ZGKL,2007-05-25 23:00,ZGKL 252300Z AUTO 00000KT 2 1/2SM 23/21 A2977 RMK T02300210 IEM_DS3505
ZGKL,2007-05-26 00:00,ZGKL 260000Z AUTO 00000KT 4SM 24/20 A2977 RMK SLP084 T02380201 52016 IEM_DS3505
ZGKL,2007-05-26 01:00,ZGKL 260100Z AUTO 00000KT 2 1/2SM 25/21 A2980 RMK T02500210 IEM_DS3505
ZGKL,2007-05-26 02:00,ZGKL 260200Z AUTO 00000KT 2 1/2SM 26/21 A2980 RMK T02600210 IEM_DS3505
ZGKL,2007-05-26 03:00,ZGKL 260300Z AUTO 09004KT 4SM 28/20 A2977 RMK SLP081 T02760197 57002 IEM_DS3505
ZGKL,2007-05-26 04:00,ZGKL 260400Z AUTO 18004KT 3SM 29/21 A2977 RMK T02900210 IEM_DS3505
ZGKL,2007-05-26 05:00,ZGKL 260500Z AUTO 19004KT 3SM 30/21 A2974 RMK T03000210 IEM_DS3505
ZGKL,2007-05-26 06:00,ZGKL 260600Z AUTO 16004KT 5SM 30/20 A2971 RMK SLP061 T02980198 57019 IEM_DS3505
ZGKL,2007-05-26 07:00,ZGKL 260700Z AUTO 00000KT 3SM 29/20 A2971 RMK T02900200 IEM_DS3505
ZGKL,2007-05-26 08:00,ZGKL 260800Z AUTO 3SM 30/21 A2968 RMK T03000210 IEM_DS3505
ZGKL,2007-05-26 09:00,ZGKL 260900Z AUTO 32002KT 5SM 31/20 A2968 RMK SLP042 T03090202 57018 IEM_DS3505
ZGKL,2007-05-26 10:00,ZGKL 261000Z AUTO 16006KT 3SM 30/22 A2968 RMK T03000220 IEM_DS3505
ZGKL,2007-05-26 11:00,ZGKL 261100Z AUTO 13004KT 2 1/2SM 28/22 A2971 RMK T02800220 IEM_DS3505
ZGKL,2007-05-26 12:00,ZGKL 261200Z AUTO 14002KT 5SM 28/21 A2971 RMK SLP055 T02820212 52012 IEM_DS3505
ZGKL,2007-05-26 13:00,ZGKL 261300Z AUTO 28002KT 2SM 26/24 A2974 RMK T02600240 IEM_DS3505
ZGKL,2007-05-26 14:00,ZGKL 261400Z AUTO 00000KT 1 1/4SM 25/23 A2974 RMK T02500230 IEM_DS3505
ZGKL,2007-05-26 15:00,ZGKL 261500Z AUTO 34004KT 5SM 26/22 A2977 RMK SLP073 T02600225 52018 IEM_DS3505
ZGKL,2007-05-26 16:00,ZGKL 261600Z AUTO 34002KT 1 1/2SM 24/22 A2974 RMK T02400220 IEM_DS3505
ZGKL,2007-05-26 17:00,ZGKL 261700Z AUTO 30002KT 1 1/4SM 23/22 A2974 RMK T02300220 IEM_DS3505
ZGKL,2007-05-26 18:00,ZGKL 261800Z AUTO 07002KT 5SM 24/22 A2974 RMK SLP067 T02450218 57006 IEM_DS3505
ZGKL,2007-05-26 19:00,ZGKL 261900Z AUTO 00000KT 23/22 A2974 RMK T02300220 IEM_DS3505
ZGKL,2007-05-26 20:00,ZGKL 262000Z AUTO 00000KT 23/22 A2974 RMK T02300220 IEM_DS3505
ZGKL,2007-05-26 21:00,ZGKL 262100Z AUTO 00000KT 4SM 23/22 A2974 RMK SLP064 T02330219 57003 IEM_DS3505
ZGKL,2007-05-26 22:00,ZGKL 262200Z AUTO 00000KT 1SM 22/21 A2974 RMK T02200210 IEM_DS3505
ZGKL,2007-05-26 23:00,ZGKL 262300Z AUTO 00000KT 1 1/4SM 23/22 A2977 RMK T02300220 IEM_DS3505
ZGKL,2007-05-27 00:00,ZGKL 270000Z AUTO 34002KT 3SM 25/22 A2977 RMK SLP081 T02460223 52017 IEM_DS3505
ZGKL,2007-05-27 01:00,ZGKL 270100Z AUTO 00000KT 1 1/4SM 25/23 A2980 RMK T02500230 IEM_DS3505
ZGKL,2007-05-27 02:00,ZGKL 270200Z AUTO 00000KT 1 1/2SM 27/23 A2980 RMK T02700230 IEM_DS3505
ZGKL,2007-05-27 03:00,ZGKL 270300Z AUTO 27004KT 3SM 29/23 A2977 RMK SLP079 T02910228 57002 IEM_DS3505
ZGKL,2007-05-27 04:00,ZGKL 270400Z AUTO 17004KT 2 1/2SM 31/21 A2974 RMK T03100210 IEM_DS3505
ZGKL,2007-05-27 05:00,ZGKL 270500Z AUTO 2 1/2SM 31/23 A2974 RMK T03100230 IEM_DS3505
ZGKL,2007-05-27 06:00,ZGKL 270600Z AUTO 25006KT 6SM 32/22 A2971 RMK SLP053 T03240216 57025 IEM_DS3505
ZGKL,2007-05-27 07:00,ZGKL 270700Z AUTO 20006KT 2 1/2SM 32/24 A2968 RMK T03200240 IEM_DS3505
ZGKL,2007-05-27 08:00,ZGKL 270800Z AUTO 19010KT 3SM 32/23 A2968 RMK T03200230 IEM_DS3505
ZGKL,2007-05-27 09:00,ZGKL 270900Z AUTO 16006KT 6SM 32/23 A2965 RMK SLP038 T03220232 57015 IEM_DS3505
ZGKL,2007-05-27 10:00,ZGKL 271000Z AUTO 14008KT 4SM 31/24 A2965 RMK T03100240 IEM_DS3505
ZGKL,2007-05-27 11:00,ZGKL 271100Z AUTO 13006KT 4SM 29/23 A2965 RMK T02900230 IEM_DS3505
ZGKL,2007-05-27 12:00,ZGKL 271200Z AUTO 16004KT 6SM 29/23 A2968 RMK SLP049 T02910231 52010 IEM_DS3505
ZGKL,2007-05-27 13:00,ZGKL 271300Z AUTO 00000KT 3SM 27/24 A2971 RMK T02700240 IEM_DS3505
ZGKL,2007-05-27 14:00,ZGKL 271400Z AUTO 00000KT 2 1/2SM 26/24 A2974 RMK T02600240 IEM_DS3505
ZGKL,2007-05-27 15:00,ZGKL 271500Z AUTO 18002KT 6SM 28/24 A2974 RMK SLP064 T02800236 52016 IEM_DS3505
ZGKL,2007-05-27 16:00,ZGKL 271600Z AUTO 00000KT 2SM 25/24 A2974 RMK T02500240 IEM_DS3505
ZGKL,2007-05-27 17:00,ZGKL 271700Z AUTO 2SM 25/24 A2974 RMK T02500240 IEM_DS3505
ZGKL,2007-05-27 18:00,ZGKL 271800Z AUTO 04002KT 6SM 26/24 A2974 RMK SLP059 T02610240 57004 IEM_DS3505
ZGKL,2007-05-27 19:00,ZGKL 271900Z AUTO 00000KT 1 1/2SM 25/24 A2971 RMK T02500240 IEM_DS3505
ZGKL,2007-05-27 20:00,ZGKL 272000Z AUTO 00000KT 25/24 A2971 RMK T02500240 IEM_DS3505
ZGKL,2007-05-27 21:00,ZGKL 272100Z AUTO 11002KT 5SM 24/23 A2974 RMK 70119 SLP063 T02430234 52003 IEM_DS3505
ZGKL,2007-05-27 22:00,ZGKL 272200Z AUTO 19004KT 3SM 24/23 A2974 RMK T02400230 IEM_DS3505
ZGKL,2007-05-27 23:00,ZGKL 272300Z AUTO 15002KT 5SM 24/23 A2977 RMK T02400230 IEM_DS3505
ZGKL,2007-05-28 00:00,ZGKL 280000Z AUTO 11002KT 4SM 25/24 A2977 RMK 60130 70131 SLP085 T02460241 52021 IEM_DS3505
ZGKL,2007-05-28 01:00,ZGKL 280100Z AUTO 00000KT 4SM 26/24 A2980 RMK T02600240 IEM_DS3505
ZGKL,2007-05-28 02:00,ZGKL 280200Z AUTO 00000KT 5SM 29/24 A2980 RMK T02900240 IEM_DS3505
ZGKL,2007-05-28 03:00,ZGKL 280300Z AUTO 11006KT 4SM 29/24 A2980 RMK SLP085 T02870245 52001 IEM_DS3505
ZGKL,2007-05-28 04:00,ZGKL 280400Z AUTO 15006KT 6SM 31/23 A2977 RMK T03100230 IEM_DS3505
ZGKL,2007-05-28 05:00,ZGKL 280500Z AUTO 7SM 31/23 A2974 RMK T03100230 IEM_DS3505
ZGKL,2007-05-28 06:00,ZGKL 280600Z AUTO 18004KT 7SM 32/23 A2971 RMK 60000 SLP055 T03220229 57029 IEM_DS3505
ZGKL,2007-05-28 07:00,ZGKL 280700Z AUTO 23004KT 4SM 32/24 A2968 RMK T03200240 IEM_DS3505
ZGKL,2007-05-28 08:00,ZGKL 280800Z AUTO 23006KT 6SM 26/22 A2971 RMK T02600220 IEM_DS3505
ZGKL,2007-05-28 09:00,ZGKL 280900Z AUTO 27002KT 9SM 25/22 A2968 RMK SLP053 T02500219 57005 IEM_DS3505
ZGKL,2007-05-28 10:00,ZGKL 281000Z AUTO 7SM 27/22 A2971 RMK T02700220 IEM_DS3505
ZGKL,2007-05-28 11:00,ZGKL 281100Z AUTO 7SM 26/23 A2971 RMK T02600230 IEM_DS3505
ZGKL,2007-05-28 12:00,ZGKL 281200Z AUTO 04002KT 9SM 25/23 A2974 RMK 60002 SLP069 T02540229 52016 IEM_DS3505
ZGKL,2007-05-28 13:00,ZGKL 281300Z AUTO 34004KT 4SM 25/23 A2977 RMK T02500230 IEM_DS3505
ZGKL,2007-05-28 14:00,ZGKL 281400Z AUTO 31004KT 3SM 24/23 A2977 RMK T02400230 IEM_DS3505
ZGKL,2007-05-28 15:00,ZGKL 281500Z AUTO 02002KT 9SM 24/23 A2977 RMK SLP079 T02420226 52011 IEM_DS3505
ZGKL,2007-05-28 16:00,ZGKL 281600Z AUTO 00000KT 2SM 24/23 A2977 RMK T02400230 IEM_DS3505
ZGKL,2007-05-28 17:00,ZGKL 281700Z AUTO 00000KT 3SM 23/22 A2977 RMK T02300220 IEM_DS3505
ZGKL,2007-05-28 18:00,ZGKL 281800Z AUTO 00000KT 9SM 24/23 A2974 RMK SLP072 T02360226 57006 IEM_DS3505
ZGKL,2007-05-28 19:00,ZGKL 281900Z AUTO 32002KT 23/22 A2974 RMK T02300220 IEM_DS3505
ZGKL,2007-05-28 20:00,ZGKL 282000Z AUTO 34004KT 2 1/2SM 23/22 A2974 RMK T02300220 IEM_DS3505
ZGKL,2007-05-28 21:00,ZGKL 282100Z AUTO 02002KT 9SM 24/22 A2977 RMK 70014 SLP077 T02350225 52002 IEM_DS3505
ZGKL,2007-05-28 22:00,ZGKL 282200Z AUTO 00000KT 2SM 23/22 A2977 RMK T02300220 IEM_DS3505
ZGKL,2007-05-28 23:00,ZGKL 282300Z AUTO 00000KT 2 1/2SM 23/22 A2980 RMK T02300220 IEM_DS3505
ZGKL,2007-05-29 00:00,ZGKL 290000Z AUTO 25002KT 5SM 25/22 A2980 RMK 70002 SLP093 T02490224 52017 IEM_DS3505
ZGKL,2007-05-29 01:00,ZGKL 290100Z AUTO 00000KT 4SM 26/23 A2983 RMK T02600230 IEM_DS3505
ZGKL,2007-05-29 02:00,ZGKL 290200Z AUTO 00000KT 4SM 27/23 A2983 RMK T02700230 IEM_DS3505
ZGKL,2007-05-29 03:00,ZGKL 290300Z AUTO 20004KT 4SM 29/23 A2983 RMK SLP098 T02890233 52005 IEM_DS3505
ZGKL,2007-05-29 04:00,ZGKL 290400Z AUTO 13004KT 6SM 30/23 A2980 RMK T03000230 IEM_DS3505
ZGKL,2007-05-29 05:00,ZGKL 290500Z AUTO 7SM 29/24 A2977 RMK T02900240 IEM_DS3505
ZGKL,2007-05-29 06:00,ZGKL 290600Z AUTO 20008KT 8SM 31/22 A2980 RMK SLP077 T03100223 57020 IEM_DS3505
ZGKL,2007-05-29 07:00,ZGKL 290700Z AUTO 00000KT 7SM A2977 RMK IEM_DS3505
ZGKL,2007-05-29 08:00,ZGKL 290800Z AUTO 00000KT 7SM 23/22 A2977 RMK T02300220 IEM_DS3505
ZGKL,2007-05-29 09:00,ZGKL 290900Z AUTO 34004KT 9SM 24/22 A2974 RMK SLP068 T02440215 57011 IEM_DS3505
ZGKL,2007-05-29 10:00,ZGKL 291000Z AUTO 7SM 24/23 A2971 RMK T02400230 IEM_DS3505
ZGKL,2007-05-29 11:00,ZGKL 291100Z AUTO 7SM 24/23 A2974 RMK T02400230 IEM_DS3505
ZGKL,2007-05-29 12:00,ZGKL 291200Z AUTO 02002KT 9SM 25/22 A2977 RMK 60002 SLP077 T02470222 52010 IEM_DS3505
ZGKL,2007-05-29 13:00,ZGKL 291300Z AUTO 00000KT 7SM 23/22 A2977 RMK T02300220 IEM_DS3505
ZGKL,2007-05-29 14:00,ZGKL 291400Z AUTO 30002KT 5SM 23/23 A2980 RMK T02300230 IEM_DS3505
ZGKL,2007-05-29 15:00,ZGKL 291500Z AUTO 04002KT 7SM 24/23 A2980 RMK SLP091 T02410229 52014 IEM_DS3505
ZGKL,2007-05-29 16:00,ZGKL 291600Z AUTO 00000KT 5SM 24/23 A2980 RMK T02400230 IEM_DS3505
ZGKL,2007-05-29 17:00,ZGKL 291700Z AUTO 00000KT 5SM 23/22 A2980 RMK T02300220 IEM_DS3505
ZGKL,2007-05-29 18:00,ZGKL 291800Z AUTO 04002KT 5SM 23/23 RMK SLP084 T02320232 57006 IEM_DS3505
ZGKL,2007-05-29 19:00,ZGKL 291900Z AUTO 00000KT 5SM 23/22 A2980 RMK T02300220 IEM_DS3505
ZGKL,2007-05-29 20:00,ZGKL 292000Z AUTO 00000KT 3SM 23/22 A2977 RMK T02300220 IEM_DS3505
ZGKL,2007-05-29 21:00,ZGKL 292100Z AUTO 04002KT 5SM 23/23 A2977 RMK 70002 SLP085 T02310231 57001 IEM_DS3505
ZGKL,2007-05-29 22:00,ZGKL 292200Z AUTO 00000KT 1SM 23/22 A2980 RMK T02300220 IEM_DS3505
ZGKL,2007-05-29 23:00,ZGKL 292300Z AUTO 00000KT 2SM 23/22 A2983 RMK T02300220 IEM_DS3505
ZGKL,2007-05-30 00:00,ZGKL 300000Z AUTO 32002KT 4SM 25/24 A2983 RMK 70002 SLP102 T02460239 52017 IEM_DS3505
ZGKL,2007-05-30 01:00,ZGKL 300100Z AUTO 00000KT 3SM 25/23 A2985 RMK T02500230 IEM_DS3505
ZGKL,2007-05-30 02:00,ZGKL 300200Z AUTO 00000KT 3SM 26/23 A2985 RMK T02600230 IEM_DS3505
ZGKL,2007-05-30 03:00,ZGKL 300300Z AUTO 14004KT 4SM 29/24 A2983 RMK SLP100 T02900239 57001 IEM_DS3505
ZGKL,2007-05-30 04:00,ZGKL 300400Z AUTO 00000KT 4SM 29/23 A2983 RMK T02900230 IEM_DS3505
ZGKL,2007-05-30 05:00,ZGKL 300500Z AUTO 4SM 31/24 A2980 RMK T03100240 IEM_DS3505
ZGKL,2007-05-30 06:00,ZGKL 300600Z AUTO 25004KT 10SM 32/23 A2977 RMK SLP072 T03220232 57026 IEM_DS3505
ZGKL,2007-05-30 07:00,ZGKL 300700Z AUTO 5SM 31/23 A2974 RMK T03100230 IEM_DS3505
ZGKL,2007-05-30 08:00,ZGKL 300800Z AUTO 00000KT 5SM 32/24 A2971 RMK T03200240 IEM_DS3505
ZGKL,2007-05-30 09:00,ZGKL 300900Z AUTO 27004KT 12SM 31/23 A2971 RMK SLP052 T03130229 57020 IEM_DS3505
ZGKL,2007-05-30 10:00,ZGKL 301000Z AUTO 14010KT 7SM 28/23 A2971 RMK T02800230 IEM_DS3505
ZGKL,2007-05-30 11:00,ZGKL 301100Z AUTO 19004KT 7SM 27/24 A2971 RMK T02700240 IEM_DS3505
ZGKL,2007-05-30 12:00,ZGKL 301200Z AUTO 18004KT 10SM 28/24 A2974 RMK SLP063 T02790243 52010 IEM_DS3505
ZGKL,2007-05-30 13:00,ZGKL 301300Z AUTO 00000KT 7SM 26/24 A2974 RMK T02600240 IEM_DS3505
ZGKL,2007-05-30 14:00,ZGKL 301400Z AUTO 00000KT 7SM 25/24 A2974 RMK T02500240 IEM_DS3505
ZGKL,2007-05-30 15:00,ZGKL 301500Z AUTO 32002KT 10SM 27/24 A2977 RMK SLP073 T02690238 52011 IEM_DS3505
ZGKL,2007-05-30 16:00,ZGKL 301600Z AUTO 00000KT 4SM 24/24 A2977 RMK T02400240 IEM_DS3505
ZGKL,2007-05-30 17:00,ZGKL 301700Z AUTO 00000KT 4SM 24/24 A2977 RMK T02400240 IEM_DS3505
ZGKL,2007-05-30 18:00,ZGKL 301800Z AUTO 16002KT 9SM 26/25 A2974 RMK SLP069 T02570250 57004 IEM_DS3505
ZGKL,2007-05-30 19:00,ZGKL 301900Z AUTO 00000KT 24/23 A2974 RMK T02400230 IEM_DS3505
ZGKL,2007-05-30 20:00,ZGKL 302000Z AUTO 00000KT 24/23 A2974 RMK T02400230 IEM_DS3505
ZGKL,2007-05-30 21:00,ZGKL 302100Z AUTO 09002KT 7SM 26/24 A2974 RMK 70002 SLP066 T02550245 57003 IEM_DS3505
ZGKL,2007-05-30 22:00,ZGKL 302200Z AUTO 00000KT 1SM 23/22 A2974 RMK T02300220 IEM_DS3505
ZGKL,2007-05-30 23:00,ZGKL 302300Z AUTO 00000KT 3SM 24/23 A2974 RMK T02400230 IEM_DS3505
ZGKL,2007-05-31 00:00,ZGKL 310000Z AUTO 11004KT 8SM 27/24 A2977 RMK 60002 70002 SLP078 T02660244 52011 IEM_DS3505
ZGKL,2007-05-31 01:00,ZGKL 310100Z AUTO 18008KT 5SM 29/24 A2977 RMK T02900240 IEM_DS3505
ZGKL,2007-05-31 02:00,ZGKL 310200Z AUTO 18014KT 7SM 28/23 A2977 RMK T02800230 IEM_DS3505
ZGKL,2007-05-31 03:00,ZGKL 310300Z AUTO 18004KT 8SM 29/23 A2977 RMK SLP075 T02920234 57002 IEM_DS3505
ZGKL,2007-05-31 04:00,ZGKL 310400Z AUTO 17012KT 7SM 31/24 A2974 RMK T03100240 IEM_DS3505
ZGKL,2007-05-31 05:00,ZGKL 310500Z AUTO 18012KT 7SM 32/24 A2971 RMK T03200240 IEM_DS3505
ZGKL,2007-05-31 06:00,ZGKL 310600Z AUTO 18006KT 12SM 32/22 A2971 RMK SLP052 T03160223 57023 IEM_DS3505
ZGKL,2007-05-31 07:00,ZGKL 310700Z AUTO 18012KT 7SM 32/23 A2968 RMK T03200230 IEM_DS3505
ZGKL,2007-05-31 08:00,ZGKL 310800Z AUTO 19012KT 7SM 33/24 A2965 RMK T03300240 IEM_DS3505
ZGKL,2007-05-31 09:00,ZGKL 310900Z AUTO 22004KT 16SM 33/22 A2962 RMK SLP026 T03290221 57025 IEM_DS3505
ZGKL,2007-05-31 10:00,ZGKL 311000Z AUTO 20008KT 6SM 31/23 A2962 RMK T03100230 IEM_DS3505
ZGKL,2007-05-31 11:00,ZGKL 311100Z AUTO 16004KT 6SM 31/24 A2962 RMK T03100240 IEM_DS3505
ZGKL,2007-05-31 12:00,ZGKL 311200Z AUTO 22002KT 12SM 30/22 A2965 RMK SLP030 T03050224 52004 IEM_DS3505
ZGKL,2007-05-31 13:00,ZGKL 311300Z AUTO 25004KT 4SM 28/25 A2965 RMK T02800250 IEM_DS3505
ZGKL,2007-05-31 14:00,ZGKL 311400Z AUTO 00000KT 4SM 27/25 A2968 RMK T02700250 IEM_DS3505
ZGKL,2007-05-31 15:00,ZGKL 311500Z AUTO 18002KT 10SM 29/23 A2968 RMK SLP049 T02940234 52019 IEM_DS3505
ZGKL,2007-05-31 16:00,ZGKL 311600Z AUTO 19008KT 5SM 27/23 A2968 RMK T02700230 IEM_DS3505
ZGKL,2007-05-31 17:00,ZGKL 311700Z AUTO 17010KT 6SM 27/23 A2968 RMK T02700230 IEM_DS3505
ZGKL,2007-05-31 18:00,ZGKL 311800Z AUTO 17010KT 9SM 28/22 A2968 RMK SLP043 T02800225 57006 IEM_DS3505
ZGKL,2007-05-31 19:00,ZGKL 311900Z AUTO 17004KT 27/23 A2965 RMK T02700230 IEM_DS3505
ZGKL,2007-05-31 20:00,ZGKL 312000Z AUTO 19004KT 7SM 27/24 A2965 RMK T02700240 IEM_DS3505
ZGKL,2007-05-31 21:00,ZGKL 312100Z AUTO 18004KT 8SM 28/23 A2965 RMK 70000 SLP034 T02750233 57008 IEM_DS3505
ZGKL,2007-05-31 22:00,ZGKL 312200Z AUTO 17008KT 7SM 27/23 A2965 RMK T02700230 IEM_DS3505
ZGKL,2007-05-31 23:00,ZGKL 312300Z AUTO 17008KT 7SM 27/23 A2968 RMK T02700230 IEM_DS3505
ZGKL,2007-06-01 00:00,ZGKL 010000Z AUTO 18004KT 7SM 27/24 A2968 RMK 60012 70011 SLP049 T02660237 52013 IEM_DS3505
ZGKL,2007-06-01 01:00,ZGKL 010100Z AUTO 19010KT 5SM 26/24 A2968 RMK T02600240 IEM_DS3505
ZGKL,2007-06-01 02:00,ZGKL 010200Z AUTO 19010KT 6SM 27/24 A2971 RMK T02700240 IEM_DS3505
ZGKL,2007-06-01 03:00,ZGKL 010300Z AUTO 18006KT 9SM 29/23 A2968 RMK SLP050 T02860231 52002 IEM_DS3505
ZGKL,2007-06-01 04:00,ZGKL 010400Z AUTO 19012KT 7SM 31/24 A2968 RMK T03100240 IEM_DS3505
ZGKL,2007-06-01 05:00,ZGKL 010500Z AUTO 16010KT 7SM 31/24 A2965 RMK T03100240 IEM_DS3505
ZGKL,2007-06-01 06:00,ZGKL 010600Z AUTO 16004KT 12SM 32/23 A2962 RMK SLP024 T03170233 57025 IEM_DS3505
ZGKL,2007-06-01 07:00,ZGKL 010700Z AUTO 21004KT 7SM 31/24 A2959 RMK T03100240 IEM_DS3505
ZGKL,2007-06-01 08:00,ZGKL 010800Z AUTO 09004KT 7SM 27/24 A2959 RMK T02700240 IEM_DS3505
ZGKL,2007-06-01 09:00,ZGKL 010900Z AUTO 14006KT 7SM 28/24 A2959 RMK SLP018 T02810237 57007 IEM_DS3505
ZGKL,2007-06-01 10:00,ZGKL 011000Z AUTO 29004KT 3SM 25/24 A2959 RMK T02500240 IEM_DS3505
ZGKL,2007-06-01 11:00,ZGKL 011100Z AUTO 00000KT 5SM 25/24 A2959 RMK T02500240 IEM_DS3505
ZGKL,2007-06-01 12:00,ZGKL 011200Z AUTO 04002KT 8SM 26/24 A2959 RMK 60000 SLP021 T02640243 52002 IEM_DS3505
ZGKL,2007-06-01 13:00,ZGKL 011300Z AUTO 23004KT 3SM 25/24 A2962 RMK T02500240 IEM_DS3505
ZGKL,2007-06-01 14:00,ZGKL 011400Z AUTO 00000KT 3SM 25/24 A2965 RMK T02500240 IEM_DS3505
ZGKL,2007-06-01 15:00,ZGKL 011500Z AUTO 27006KT 7SM 26/25 A2965 RMK SLP038 T02590249 52017 IEM_DS3505
ZGKL,2007-06-01 16:00,ZGKL 011600Z AUTO 17010KT 7SM 24/22 A2968 RMK T02400220 IEM_DS3505
ZGKL,2007-06-01 17:00,ZGKL 011700Z AUTO 18004KT 7SM 24/22 A2965 RMK T02400220 IEM_DS3505
ZGKL,2007-06-01 18:00,ZGKL 011800Z AUTO 20002KT 7SM 25/22 A2965 RMK 60001 SLP040 T02530218 52003 IEM_DS3505
ZGKL,2007-06-01 19:00,ZGKL 011900Z AUTO 20004KT 24/22 A2965 RMK T02400220 IEM_DS3505
ZGKL,2007-06-01 20:00,ZGKL 012000Z AUTO 15008KT 23/22 A2965 RMK T02300220 IEM_DS3505
ZGKL,2007-06-01 21:00,ZGKL 012100Z AUTO 20002KT 6SM 24/24 A2965 RMK 70062 SLP040 T02360236 57002 IEM_DS3505
ZGKL,2007-06-01 22:00,ZGKL 012200Z AUTO 4SM 23/22 A2965 RMK T02300220 IEM_DS3505
ZGKL,2007-06-01 23:00,ZGKL 012300Z AUTO 00000KT 3SM 23/22 A2968 RMK T02300220 IEM_DS3505
ZGKL,2007-06-02 00:00,ZGKL 020000Z AUTO 02002KT 3SM 24/24 A2968 RMK 60118 70120 SLP054 T02390239 52013 IEM_DS3505
ZGKL,2007-06-02 01:00,ZGKL 020100Z AUTO 00000KT 2 1/2SM 24/23 A2971 RMK T02400230 IEM_DS3505
ZGKL,2007-06-02 02:00,ZGKL 020200Z AUTO 00000KT 2 1/2SM 24/23 A2971 RMK T02400230 IEM_DS3505
ZGKL,2007-06-02 03:00,ZGKL 020300Z AUTO 07002KT 3SM 25/25 A2971 RMK SLP062 T02460246 52008 IEM_DS3505
ZGKL,2007-06-02 04:00,ZGKL 020400Z AUTO 00000KT 4SM 25/23 A2971 RMK T02500230 IEM_DS3505
ZGKL,2007-06-02 05:00,ZGKL 020500Z AUTO 33002KT 2 1/2SM 24/23 A2971 RMK T02400230 IEM_DS3505
ZGKL,2007-06-02 06:00,ZGKL 020600Z AUTO 02002KT 2 1/2SM 25/25 A2968 RMK 60002 SLP050 T02500247 57012 IEM_DS3505
ZGKL,2007-06-02 07:00,ZGKL 020700Z AUTO 6SM 26/24 A2968 RMK T02600240 IEM_DS3505
ZGKL,2007-06-02 08:00,ZGKL 020800Z AUTO 34004KT 7SM 26/24 A2965 RMK T02600240 IEM_DS3505
ZGKL,2007-06-02 09:00,ZGKL 020900Z AUTO 04002KT 2 1/2SM 26/25 A2965 RMK SLP038 T02620246 57012 IEM_DS3505
ZGKL,2007-06-02 10:00,ZGKL 021000Z AUTO 00000KT 7SM 26/24 A2965 RMK T02600240 IEM_DS3505
ZGKL,2007-06-02 11:00,ZGKL 021100Z AUTO 00000KT 4SM 26/24 A2968 RMK T02600240 IEM_DS3505
ZGKL,2007-06-02 12:00,ZGKL 021200Z AUTO 02004KT 2 1/2SM 25/24 A2968 RMK 60000 SLP050 T02530244 52012 IEM_DS3505
ZGKL,2007-06-02 13:00,ZGKL 021300Z AUTO 2 1/2SM 26/24 A2968 RMK T02600240 IEM_DS3505
ZGKL,2007-06-02 14:00,ZGKL 021400Z AUTO 06006KT 2 1/2SM 25/24 A2971 RMK T02500240 IEM_DS3505
ZGKL,2007-06-02 15:00,ZGKL 021500Z AUTO 02006KT 3SM 24/23 A2974 RMK SLP068 T02420226 52018 IEM_DS3505
ZGKL,2007-06-02 16:00,ZGKL 021600Z AUTO 4SM 25/22 A2974 RMK T02500220 IEM_DS3505
ZGKL,2007-06-02 17:00,ZGKL 021700Z AUTO 03004KT 4SM 24/22 A2971 RMK T02400220 IEM_DS3505
ZGKL,2007-06-02 18:00,ZGKL 021800Z AUTO 02002KT 5SM 23/23 A2971 RMK 60016 SLP061 T02320230 57008 IEM_DS3505
ZGKL,2007-06-02 19:00,ZGKL 021900Z AUTO 04006KT 24/22 A2971 RMK T02400220 IEM_DS3505
ZGKL,2007-06-02 20:00,ZGKL 022000Z AUTO 05002KT 23/22 A2971 RMK T02300220 IEM_DS3505
ZGKL,2007-06-02 21:00,ZGKL 022100Z AUTO 02002KT 4SM 23/22 A2971 RMK 70088 SLP057 T02330219 57003 IEM_DS3505
ZGKL,2007-06-02 22:00,ZGKL 022200Z AUTO 1 1/4SM 23/22 A2971 RMK T02300220 IEM_DS3505
ZGKL,2007-06-02 23:00,ZGKL 022300Z AUTO 1 1/2SM 23/22 A2974 RMK T02300220 IEM_DS3505
ZGKL,2007-06-03 00:00,ZGKL 030000Z AUTO 02004KT 2SM 23/22 A2977 RMK 60035 70054 SLP077 T02260221 52019 IEM_DS3505
ZGKL,2007-06-03 01:00,ZGKL 030100Z AUTO 00000KT 1 1/4SM 23/21 A2977 RMK T02300210 IEM_DS3505
ZGKL,2007-06-03 02:00,ZGKL 030200Z AUTO 00000KT 2SM 25/23 A2977 RMK T02500230 IEM_DS3505
ZGKL,2007-06-03 03:00,ZGKL 030300Z AUTO 02004KT 2 1/2SM 25/23 A2977 RMK SLP080 T02530226 52004 IEM_DS3505
ZGKL,2007-06-03 04:00,ZGKL 030400Z AUTO 00000KT 3SM 26/23 A2977 RMK T02600230 IEM_DS3505
ZGKL,2007-06-03 05:00,ZGKL 030500Z AUTO 00000KT 3SM 27/23 A2974 RMK T02700230 IEM_DS3505
ZGKL,2007-06-03 06:00,ZGKL 030600Z AUTO 36004KT 4SM 28/23 A2974 RMK 60000 SLP063 T02840231 57016 IEM_DS3505
ZGKL,2007-06-03 07:00,ZGKL 030700Z AUTO 3SM 28/25 A2971 RMK T02800250 IEM_DS3505
ZGKL,2007-06-03 08:00,ZGKL 030800Z AUTO 3SM 30/25 A2968 RMK T03000250 IEM_DS3505
ZGKL,2007-06-03 09:00,ZGKL 030900Z AUTO 02004KT 6SM 30/24 A2968 RMK SLP043 T03040243 57019 IEM_DS3505
ZGKL,2007-06-03 10:00,ZGKL 031000Z AUTO 3SM 29/25 A2965 RMK T02900250 IEM_DS3505
ZGKL,2007-06-03 11:00,ZGKL 031100Z AUTO 00000KT 3SM 28/25 A2971 RMK T02800250 IEM_DS3505
ZGKL,2007-06-03 12:00,ZGKL 031200Z AUTO 36004KT 7SM 27/24 A2971 RMK SLP057 T02740236 52012 IEM_DS3505
ZGKL,2007-06-03 13:00,ZGKL 031300Z AUTO 00000KT 2SM 27/25 A2971 RMK T02700250 IEM_DS3505
ZGKL,2007-06-03 14:00,ZGKL 031400Z AUTO 00000KT 2SM 26/25 A2974 RMK T02600250 IEM_DS3505
ZGKL,2007-06-03 15:00,ZGKL 031500Z AUTO 36004KT 7SM 26/23 A2974 RMK SLP069 T02590228 52012 IEM_DS3505
ZGKL,2007-06-03 16:00,ZGKL 031600Z AUTO 05006KT 2SM 26/23 A2974 RMK T02600230 IEM_DS3505
ZGKL,2007-06-03 17:00,ZGKL 031700Z AUTO 03006KT 2SM 26/23 A2974 RMK T02600230 IEM_DS3505
ZGKL,2007-06-03 18:00,ZGKL 031800Z AUTO 36004KT 6SM 25/22 A2974 RMK SLP064 T02540223 57004 IEM_DS3505
ZGKL,2007-06-03 19:00,ZGKL 031900Z AUTO 16006KT 24/23 A2974 RMK T02400230 IEM_DS3505
ZGKL,2007-06-03 20:00,ZGKL 032000Z AUTO 23/22 A2974 RMK T02300220 IEM_DS3505
ZGKL,2007-06-03 21:00,ZGKL 032100Z AUTO 09002KT 3SM 24/24 A2974 RMK 70113 SLP077 T02360236 52013 IEM_DS3505
ZGKL,2007-06-03 22:00,ZGKL 032200Z AUTO 3SM 23/23 A2977 RMK T02300230 IEM_DS3505
ZGKL,2007-06-03 23:00,ZGKL 032300Z AUTO 30004KT 4SM 23/23 A2977 RMK T02300230 IEM_DS3505
ZGKL,2007-06-04 00:00,ZGKL 040000Z AUTO 29004KT 9SM 24/24 A2977 RMK 60091 70091 SLP081 T02420237 52003 IEM_DS3505
ZGKL,2007-06-04 01:00,ZGKL 040100Z AUTO 00000KT 4SM 25/23 A2977 RMK T02500230 IEM_DS3505
ZGKL,2007-06-04 02:00,ZGKL 040200Z AUTO 00000KT 7SM 27/23 A2977 RMK T02700230 IEM_DS3505
ZGKL,2007-06-04 03:00,ZGKL 040300Z AUTO 27004KT 6SM 28/24 A2977 RMK SLP076 T02790239 57004 IEM_DS3505
ZGKL,2007-06-04 04:00,ZGKL 040400Z AUTO 29004KT 1 1/4SM 26/24 A2977 RMK T02600240 IEM_DS3505
ZGKL,2007-06-04 05:00,ZGKL 040500Z AUTO 7SM 24/22 A2977 RMK T02400220 IEM_DS3505
ZGKL,2007-06-04 06:00,ZGKL 040600Z AUTO 04004KT 5SM 25/24 A2974 RMK 60008 SLP073 T02490244 57004 IEM_DS3505
ZGKL,2007-06-04 07:00,ZGKL 040700Z AUTO 31004KT 7SM 24/23 A2974 RMK T02400230 IEM_DS3505
ZGKL,2007-06-04 08:00,ZGKL 040800Z AUTO 33006KT 7SM 25/23 A2971 RMK T02500230 IEM_DS3505
ZGKL,2007-06-04 09:00,ZGKL 040900Z AUTO 27002KT 5SM 25/23 A2971 RMK SLP059 T02490231 57014 IEM_DS3505
ZGKL,2007-06-04 10:00,ZGKL 041000Z AUTO 00000KT 7SM 26/23 A2971 RMK T02600230 IEM_DS3505
ZGKL,2007-06-04 11:00,ZGKL 041100Z AUTO 00000KT 7SM 25/23 A2971 RMK T02500230 IEM_DS3505
ZGKL,2007-06-04 12:00,ZGKL 041200Z AUTO 20002KT 8SM 25/23 A2974 RMK 60004 SLP063 T02470233 52004 IEM_DS3505
ZGKL,2007-06-04 13:00,ZGKL 041300Z AUTO 00000KT 4SM 24/23 A2974 RMK T02400230 IEM_DS3505
ZGKL,2007-06-04 14:00,ZGKL 041400Z AUTO 00000KT 4SM 24/23 A2974 RMK T02400230 IEM_DS3505
ZGKL,2007-06-04 15:00,ZGKL 041500Z AUTO 00000KT 8SM 24/24 A2974 RMK SLP074 T02390239 52011 IEM_DS3505
ZGKL,2007-06-04 16:00,ZGKL 041600Z AUTO 00000KT 1SM 23/22 A2974 RMK T02300220 IEM_DS3505
ZGKL,2007-06-04 18:00,ZGKL 041800Z AUTO 36002KT 6SM 24/24 A2971 RMK SLP061 T02350235 57013 IEM_DS3505
ZGKL,2007-06-04 19:00,ZGKL 041900Z AUTO 00000KT 23/22 A2974 RMK T02300220 IEM_DS3505
ZGKL,2007-06-04 20:00,ZGKL 042000Z AUTO 00000KT 23/22 A2974 RMK T02300220 IEM_DS3505
ZGKL,2007-06-04 21:00,ZGKL 042100Z AUTO 00000KT 6SM 23/23 A2974 RMK 70026 SLP066 T02310231 52004 IEM_DS3505
ZGKL,2007-06-04 22:00,ZGKL 042200Z AUTO 1SM 23/22 A2971 RMK T02300220 IEM_DS3505
ZGKL,2007-06-04 23:00,ZGKL 042300Z AUTO 1 1/2SM 23/22 A2971 RMK T02300220 IEM_DS3505
ZGKL,2007-06-05 00:00,ZGKL 050000Z AUTO 04002KT 4SM 24/24 A2974 RMK 60002 70015 SLP070 T02350235 52004 IEM_DS3505
ZGKL,2007-06-05 01:00,ZGKL 050100Z AUTO 00000KT 1 1/2SM 24/23 A2977 RMK T02400230 IEM_DS3505
ZGKL,2007-06-05 02:00,ZGKL 050200Z AUTO 00000KT 2 1/2SM 25/23 A2974 RMK T02500230 IEM_DS3505
ZGKL,2007-06-05 03:00,ZGKL 050300Z AUTO 20004KT 5SM 25/24 A2974 RMK SLP069 T02540236 54000 IEM_DS3505
ZGKL,2007-06-05 04:00,ZGKL 050400Z AUTO 5SM 27/23 A2974 RMK T02700230 IEM_DS3505
ZGKL,2007-06-05 05:00,ZGKL 050500Z AUTO 18004KT 5SM 28/23 A2971 RMK T02800230 IEM_DS3505
ZGKL,2007-06-05 06:00,ZGKL 050600Z AUTO 18004KT 9SM 29/24 A2971 RMK SLP057 T02870240 57011 IEM_DS3505
ZGKL,2007-06-05 07:00,ZGKL 050700Z AUTO 14004KT 4SM 28/23 A2968 RMK T02800230 IEM_DS3505
ZGKL,2007-06-05 08:00,ZGKL 050800Z AUTO 00000KT 4SM 28/24 A2965 RMK T02800240 IEM_DS3505
ZGKL,2007-06-05 09:00,ZGKL 050900Z AUTO 14002KT 9SM 29/22 A2965 RMK SLP039 T02920224 57018 IEM_DS3505
ZGKL,2007-06-05 10:00,ZGKL 051000Z AUTO 00000KT 4SM 29/24 A2965 RMK T02900240 IEM_DS3505
ZGKL,2007-06-05 11:00,ZGKL 051100Z AUTO 00000KT 4SM 28/24 A2965 RMK T02800240 IEM_DS3505
ZGKL,2007-06-05 12:00,ZGKL 051200Z AUTO 09002KT 7SM 27/24 A2968 RMK SLP049 T02710240 52009 IEM_DS3505
ZGKL,2007-06-05 13:00,ZGKL 051300Z AUTO 00000KT 2 1/2SM 25/24 A2968 RMK T02500240 IEM_DS3505
ZGKL,2007-06-05 14:00,ZGKL 051400Z AUTO 00000KT 2SM 25/24 A2971 RMK T02500240 IEM_DS3505
ZGKL,2007-06-05 15:00,ZGKL 051500Z AUTO 07002KT 6SM 25/24 A2971 RMK SLP060 T02540242 52011 IEM_DS3505
ZGKL,2007-06-05 16:00,ZGKL 051600Z AUTO 00000KT 2SM 25/24 A2974 RMK T02500240 IEM_DS3505
ZGKL,2007-06-05 17:00,ZGKL 051700Z AUTO 16004KT 24/23 A2971 RMK T02400230 IEM_DS3505
ZGKL,2007-06-05 18:00,ZGKL 051800Z AUTO 16002KT 6SM 25/24 A2971 RMK SLP058 T02500240 57001 IEM_DS3505
ZGKL,2007-06-05 19:00,ZGKL 051900Z AUTO 00000KT 24/23 A2971 RMK T02400230 IEM_DS3505
ZGKL,2007-06-05 20:00,ZGKL 052000Z AUTO 00000KT 24/23 A2971 RMK T02400230 IEM_DS3505
ZGKL,2007-06-05 21:00,ZGKL 052100Z AUTO 00000KT 6SM 24/24 A2971 RMK 70002 SLP056 T02440244 57002 IEM_DS3505
ZGKL,2007-06-05 22:00,ZGKL 052200Z AUTO 00000KT 1/4SM 24/23 A2971 RMK T02400230 IEM_DS3505
ZGKL,2007-06-05 23:00,ZGKL 052300Z AUTO 00000KT 1SM 24/23 A2971 RMK T02400230 IEM_DS3505
ZGKL,2007-06-06 00:00,ZGKL 060000Z AUTO 16002KT 8SM 26/24 A2974 RMK SLP067 T02560242 52011 IEM_DS3505
ZGKL,2007-06-06 01:00,ZGKL 060100Z AUTO 00000KT 4SM 26/23 A2974 RMK T02600230 IEM_DS3505
ZGKL,2007-06-06 02:00,ZGKL 060200Z AUTO 00000KT 4SM 27/23 A2977 RMK T02700230 IEM_DS3505
ZGKL,2007-06-06 03:00,ZGKL 060300Z AUTO 18004KT 7SM 27/23 A2974 RMK SLP069 T02740234 52002 IEM_DS3505
ZGKL,2007-06-06 04:00,ZGKL 060400Z AUTO 17006KT 4SM 26/24 A2974 RMK T02600240 IEM_DS3505
ZGKL,2007-06-06 05:00,ZGKL 060500Z AUTO 13006KT 4SM 25/24 A2974 RMK T02500240 IEM_DS3505
ZGKL,2007-06-06 06:00,ZGKL 060600Z AUTO 20002KT 9SM 25/25 A2971 RMK 60012 SLP059 T02500248 57011 IEM_DS3505
ZGKL,2007-06-06 07:00,ZGKL 060700Z AUTO 7SM 27/24 A2968 RMK T02700240 IEM_DS3505
ZGKL,2007-06-06 08:00,ZGKL 060800Z AUTO 12006KT 7SM 27/24 A2968 RMK T02700240 IEM_DS3505
ZGKL,2007-06-06 09:00,ZGKL 060900Z AUTO 20002KT 9SM 28/24 A2965 RMK SLP039 T02760240 57019 IEM_DS3505
ZGKL,2007-06-06 10:00,ZGKL 061000Z AUTO 7SM 27/23 A2965 RMK T02700230 IEM_DS3505
ZGKL,2007-06-06 11:00,ZGKL 061100Z AUTO 00000KT 7SM 26/24 A2968 RMK T02600240 IEM_DS3505
ZGKL,2007-06-06 12:00,ZGKL 061200Z AUTO 18002KT 9SM 26/24 A2968 RMK 60000 SLP048 T02650242 52009 IEM_DS3505
ZGKL,2007-06-06 13:00,ZGKL 061300Z AUTO 00000KT 5SM 25/24 A2968 RMK T02500240 IEM_DS3505
ZGKL,2007-06-06 14:00,ZGKL 061400Z AUTO 00000KT 4SM 25/24 A2971 RMK T02500240 IEM_DS3505
ZGKL,2007-06-06 15:00,ZGKL 061500Z AUTO 09004KT 9SM 26/25 A2971 RMK SLP058 T02560247 52010 IEM_DS3505
ZGKL,2007-06-06 16:00,ZGKL 061600Z AUTO 00000KT 3SM 25/24 A2968 RMK T02500240 IEM_DS3505
ZGKL,2007-06-06 18:00,ZGKL 061800Z AUTO 02002KT 7SM 25/25 A2965 RMK 60016 SLP045 T02500250 57014 IEM_DS3505
ZGKL,2007-06-06 19:00,ZGKL 061900Z AUTO 00000KT 25/24 A2965 RMK T02500240 IEM_DS3505
ZGKL,2007-06-06 20:00,ZGKL 062000Z AUTO 00000KT 25/24 A2962 RMK T02500240 IEM_DS3505
ZGKL,2007-06-06 21:00,ZGKL 062100Z AUTO 16002KT 5SM 24/24 A2962 RMK 70082 SLP035 T02440244 57009 IEM_DS3505
ZGKL,2007-06-06 22:00,ZGKL 062200Z AUTO 20004KT 2 1/2SM 24/23 A2965 RMK T02400230 IEM_DS3505
ZGKL,2007-06-06 23:00,ZGKL 062300Z AUTO 17004KT 2 1/2SM 24/23 A2965 RMK T02400230 IEM_DS3505
ZGKL,2007-06-07 00:00,ZGKL 070000Z AUTO 04002KT 3SM 24/24 A2968 RMK 60126 70156 SLP047 T02440244 52012 IEM_DS3505
ZGKL,2007-06-07 01:00,ZGKL 070100Z AUTO 11004KT 2SM 25/24 A2968 RMK T02500240 IEM_DS3505
ZGKL,2007-06-07 02:00,ZGKL 070200Z AUTO 09004KT 1 1/4SM 25/24 A2968 RMK T02500240 IEM_DS3505
ZGKL,2007-06-07 03:00,ZGKL 070300Z AUTO 04006KT 4SM 24/24 A2965 RMK SLP038 T02430243 57010 IEM_DS3505
ZGKL,2007-06-07 04:00,ZGKL 070400Z AUTO 7SM 23/23 A2965 RMK T02300230 IEM_DS3505
ZGKL,2007-06-07 05:00,ZGKL 070500Z AUTO 00000KT 3SM 24/24 A2968 RMK T02400240 IEM_DS3505
ZGKL,2007-06-07 06:00,ZGKL 070600Z AUTO 04002KT 2SM 24/24 A2965 RMK 60303 SLP046 T02380238 52008 IEM_DS3505
ZGKL,2007-06-07 07:00,ZGKL 070700Z AUTO 08004KT 7SM 26/24 A2962 RMK T02600240 IEM_DS3505
ZGKL,2007-06-07 08:00,ZGKL 070800Z AUTO 15006KT 7SM 27/24 A2962 RMK T02700240 IEM_DS3505
ZGKL,2007-06-07 09:00,ZGKL 070900Z AUTO 16002KT 8SM 26/24 A2962 RMK SLP033 T02640239 57012 IEM_DS3505
ZGKL,2007-06-07 10:00,ZGKL 071000Z AUTO 00000KT 7SM 27/24 A2962 RMK T02700240 IEM_DS3505
ZGKL,2007-06-07 11:00,ZGKL 071100Z AUTO 7SM 26/24 A2965 RMK T02600240 IEM_DS3505
ZGKL,2007-06-07 12:00,ZGKL 071200Z AUTO 04002KT 9SM 26/24 A2968 RMK 60003 SLP045 T02580242 52011 IEM_DS3505
ZGKL,2007-06-07 13:00,ZGKL 071300Z AUTO 34004KT 2 1/2SM 25/24 A2968 RMK T02500240 IEM_DS3505
ZGKL,2007-06-07 14:00,ZGKL 071400Z AUTO 32002KT 3SM 25/24 A2971 RMK T02500240 IEM_DS3505
ZGKL,2007-06-07 15:00,ZGKL 071500Z AUTO 04002KT 9SM 24/24 A2971 RMK SLP056 T02450242 52011 IEM_DS3505
ZGKL,2007-06-07 16:00,ZGKL 071600Z AUTO 00000KT 2SM 24/23 A2968 RMK T02400230 IEM_DS3505
ZGKL,2007-06-07 17:00,ZGKL 071700Z AUTO 00000KT 2 1/2SM 24/24 A2968 RMK T02400240 IEM_DS3505
ZGKL,2007-06-07 18:00,ZGKL 071800Z AUTO 02004KT 9SM 24/24 A2968 RMK SLP047 T02400238 57009 IEM_DS3505
ZGKL,2007-06-07 19:00,ZGKL 071900Z AUTO 00000KT 24/23 A2968 RMK T02400230 IEM_DS3505
ZGKL,2007-06-07 20:00,ZGKL 072000Z AUTO 00000KT 24/23 A2965 RMK T02400230 IEM_DS3505
ZGKL,2007-06-07 21:00,ZGKL 072100Z AUTO 36004KT 6SM 24/24 A2965 RMK 70380 SLP046 T02380238 57001 IEM_DS3505
ZGKL,2007-06-07 22:00,ZGKL 072200Z AUTO 1SM 24/23 A2968 RMK T02400230 IEM_DS3505
ZGKL,2007-06-07 23:00,ZGKL 072300Z AUTO 2 1/2SM 23/23 A2968 RMK T02300230 IEM_DS3505
ZGKL,2007-06-08 00:00,ZGKL 080000Z AUTO 32002KT 5SM 24/24 A2971 RMK 60016 70319 SLP058 T02350235 52012 IEM_DS3505
ZGKL,2007-06-08 01:00,ZGKL 080100Z AUTO 00000KT 1 1/2SM 23/23 A2974 RMK T02300230 IEM_DS3505
ZGKL,2007-06-08 02:00,ZGKL 080200Z AUTO 2 1/2SM 23/22 A2971 RMK T02300220 IEM_DS3505
ZGKL,2007-06-08 03:00,ZGKL 080300Z AUTO 07002KT 5SM 24/24 A2971 RMK SLP058 T02360236 54000 IEM_DS3505
ZGKL,2007-06-08 04:00,ZGKL 080400Z AUTO 19004KT 3SM 24/23 A2971 RMK T02400230 IEM_DS3505
ZGKL,2007-06-08 05:00,ZGKL 080500Z AUTO 17006KT 7SM 25/24 A2971 RMK T02500240 IEM_DS3505
ZGKL,2007-06-08 06:00,ZGKL 080600Z AUTO 00000KT 6SM 25/25 A2968 RMK 60024 SLP050 T02470247 57008 IEM_DS3505
ZGKL,2007-06-08 07:00,ZGKL 080700Z AUTO 7SM 27/24 A2965 RMK T02700240 IEM_DS3505
ZGKL,2007-06-08 08:00,ZGKL 080800Z AUTO 00000KT 7SM 26/23 A2965 RMK T02600230 IEM_DS3505
ZGKL,2007-06-08 09:00,ZGKL 080900Z AUTO 09002KT 8SM 27/24 A2962 RMK SLP032 T02680239 57017 IEM_DS3505
ZGKL,2007-06-08 10:00,ZGKL 081000Z AUTO 00000KT 7SM 26/24 A2962 RMK T02600240 IEM_DS3505
ZGKL,2007-06-08 11:00,ZGKL 081100Z AUTO 00000KT 7SM 25/24 A2965 RMK T02500240 IEM_DS3505
ZGKL,2007-06-08 12:00,ZGKL 081200Z AUTO 07002KT 6SM 26/25 A2968 RMK 60000 SLP046 T02550246 52013 IEM_DS3505
ZGKL,2007-06-08 13:00,ZGKL 081300Z AUTO 00000KT 7SM 25/24 A2968 RMK T02500240 IEM_DS3505
ZGKL,2007-06-08 14:00,ZGKL 081400Z AUTO 00000KT 3SM 24/24 A2968 RMK T02400240 IEM_DS3505
ZGKL,2007-06-08 15:00,ZGKL 081500Z AUTO 33006KT 5SM 25/25 A2968 RMK SLP050 T02490249 52004 IEM_DS3505
ZGKL,2007-06-08 16:00,ZGKL 081600Z AUTO 00000KT 4SM 24/23 A2968 RMK T02400230 IEM_DS3505
ZGKL,2007-06-08 18:00,ZGKL 081800Z AUTO 18002KT 4SM 24/24 A2965 RMK 60028 SLP039 T02420242 57011 IEM_DS3505
ZGKL,2007-06-08 19:00,ZGKL 081900Z AUTO 23/23 A2965 RMK T02300230 IEM_DS3505
ZGKL,2007-06-08 20:00,ZGKL 082000Z AUTO 23/23 A2962 RMK T02300230 IEM_DS3505
ZGKL,2007-06-08 21:00,ZGKL 082100Z AUTO 04004KT 4SM 24/24 A2962 RMK 70194 SLP034 T02360236 57004 IEM_DS3505
ZGKL,2007-06-08 22:00,ZGKL 082200Z AUTO 2 1/2SM 23/22 A2962 RMK T02300220 IEM_DS3505
ZGKL,2007-06-08 23:00,ZGKL 082300Z AUTO 2 1/2SM 23/22 A2962 RMK T02300220 IEM_DS3505
ZGKL,2007-06-09 00:00,ZGKL 090000Z AUTO 34004KT 4SM 23/23 A2965 RMK 60173 70224 SLP037 T02340234 52002 IEM_DS3505
ZGKL,2007-06-09 01:00,ZGKL 090100Z AUTO 3SM 23/23 A2965 RMK T02300230 IEM_DS3505
ZGKL,2007-06-09 02:00,ZGKL 090200Z AUTO 00000KT 5SM 24/23 A2968 RMK T02400230 IEM_DS3505
ZGKL,2007-06-09 03:00,ZGKL 090300Z AUTO 20002KT 6SM 24/24 A2965 RMK SLP047 T02380238 52010 IEM_DS3505
ZGKL,2007-06-09 04:00,ZGKL 090400Z AUTO 17004KT 4SM 24/23 A2968 RMK T02400230 IEM_DS3505
ZGKL,2007-06-09 05:00,ZGKL 090500Z AUTO 17006KT 5SM 24/23 A2965 RMK T02400230 IEM_DS3505
ZGKL,2007-06-09 06:00,ZGKL 090600Z AUTO 16002KT 6SM 25/24 A2962 RMK 60055 SLP035 T02490244 57012 IEM_DS3505
ZGKL,2007-06-09 07:00,ZGKL 090700Z AUTO 21004KT 7SM 26/23 A2962 RMK T02600230 IEM_DS3505
ZGKL,2007-06-09 08:00,ZGKL 090800Z AUTO 00000KT 2 1/2SM 26/23 A2962 RMK T02600230 IEM_DS3505
ZGKL,2007-06-09 09:00,ZGKL 090900Z AUTO 29002KT 5SM 25/25 A2962 RMK SLP027 T02470247 57008 IEM_DS3505
ZGKL,2007-06-09 10:00,ZGKL 091000Z AUTO 00000KT 4SM 25/24 A2962 RMK T02500240 IEM_DS3505
ZGKL,2007-06-09 11:00,ZGKL 091100Z AUTO 00000KT 4SM 25/24 A2962 RMK T02500240 IEM_DS3505
ZGKL,2007-06-09 12:00,ZGKL 091200Z AUTO 36002KT 5SM 24/24 A2965 RMK 60016 SLP037 T02420242 52010 IEM_DS3505
ZGKL,2007-06-09 13:00,ZGKL 091300Z AUTO 00000KT 4SM 24/23 A2968 RMK T02400230 IEM_DS3505
ZGKL,2007-06-09 14:00,ZGKL 091400Z AUTO 28004KT 4SM 24/22 A2968 RMK T02400220 IEM_DS3505
ZGKL,2007-06-09 15:00,ZGKL 091500Z AUTO 28004KT 5SM 24/24 A2968 RMK SLP052 T02420242 52015 IEM_DS3505
ZGKL,2007-06-09 16:00,ZGKL 091600Z AUTO 00000KT 7SM 24/22 A2968 RMK T02400220 IEM_DS3505
ZGKL,2007-06-09 17:00,ZGKL 091700Z AUTO 28004KT 7SM 24/22 A2968 RMK T02400220 IEM_DS3505
ZGKL,2007-06-09 18:00,ZGKL 091800Z AUTO 04002KT 4SM 24/24 A2965 RMK 60000 SLP039 T02400240 57013 IEM_DS3505
ZGKL,2007-06-09 19:00,ZGKL 091900Z AUTO 00000KT 7SM 23/22 A2962 RMK T02300220 IEM_DS3505
ZGKL,2007-06-09 20:00,ZGKL 092000Z AUTO 00000KT 7SM 23/21 A2962 RMK T02300210 IEM_DS3505
ZGKL,2007-06-09 21:00,ZGKL 092100Z AUTO 36002KT 6SM 23/23 A2965 RMK 70117 SLP037 T02320230 57002 IEM_DS3505
ZGKL,2007-06-09 22:00,ZGKL 092200Z AUTO 00000KT 7SM 22/21 A2965 RMK T02200210 IEM_DS3505
ZGKL,2007-06-09 23:00,ZGKL 092300Z AUTO 00000KT 7SM 23/22 A2968 RMK T02300220 IEM_DS3505
ZGKL,2007-06-10 00:00,ZGKL 100000Z AUTO 02002KT 6SM 24/24 A2968 RMK 70072 SLP054 T02390239 52017 IEM_DS3505
ZGKL,2007-06-10 01:00,ZGKL 100100Z AUTO 32006KT 7SM 26/21 A2968 RMK T02600210 IEM_DS3505
ZGKL,2007-06-10 02:00,ZGKL 100200Z AUTO 27004KT 7SM 28/22 A2971 RMK T02800220 IEM_DS3505
ZGKL,2007-06-10 03:00,ZGKL 100300Z AUTO 02004KT 12SM 27/22 A2968 RMK SLP050 T02740217 57003 IEM_DS3505
ZGKL,2007-06-10 04:00,ZGKL 100400Z AUTO 7SM 29/22 A2968 RMK T02900220 IEM_DS3505
ZGKL,2007-06-10 05:00,ZGKL 100500Z AUTO 7SM 29/22 A2968 RMK T02900220 IEM_DS3505
ZGKL,2007-06-10 06:00,ZGKL 100600Z AUTO 36008KT 12SM 28/22 A2965 RMK SLP039 T02760219 57011 IEM_DS3505
ZGKL,2007-06-10 07:00,ZGKL 100700Z AUTO 33008KT 7SM 26/23 A2968 RMK T02600230 IEM_DS3505
ZGKL,2007-06-10 08:00,ZGKL 100800Z AUTO 02010KT 7SM 24/22 A2968 RMK T02400220 IEM_DS3505
ZGKL,2007-06-10 09:00,ZGKL 100900Z AUTO 02006KT 8SM 26/22 A2965 RMK SLP040 T02560215 54000 IEM_DS3505
ZGKL,2007-06-10 10:00,ZGKL 101000Z AUTO 00000KT 7SM 25/23 A2968 RMK T02500230 IEM_DS3505
ZGKL,2007-06-10 11:00,ZGKL 101100Z AUTO 00000KT 7SM 24/23 A2968 RMK T02400230 IEM_DS3505
ZGKL,2007-06-10 12:00,ZGKL 101200Z AUTO 02006KT 8SM 25/20 A2968 RMK SLP051 T02460205 52011 IEM_DS3505
ZGKL,2007-06-10 13:00,ZGKL 101300Z AUTO 34004KT 7SM 24/22 A2968 RMK T02400220 IEM_DS3505
ZGKL,2007-06-10 14:00,ZGKL 101400Z AUTO 00000KT 7SM 24/22 A2971 RMK T02400220 IEM_DS3505
ZGKL,2007-06-10 15:00,ZGKL 101500Z AUTO 36002KT 8SM 23/21 A2971 RMK SLP062 T02320207 52011 IEM_DS3505
ZGKL,2007-06-10 16:00,ZGKL 101600Z AUTO 00000KT 7SM 24/21 A2971 RMK T02400210 IEM_DS3505
ZGKL,2007-06-10 17:00,ZGKL 101700Z AUTO 00000KT 7SM 23/22 A2971 RMK T02300220 IEM_DS3505
ZGKL,2007-06-10 18:00,ZGKL 101800Z AUTO 02002KT 7SM 23/20 A2971 RMK SLP056 T02290204 57006 IEM_DS3505
ZGKL,2007-06-10 19:00,ZGKL 101900Z AUTO 00000KT 23/22 A2968 RMK T02300220 IEM_DS3505
ZGKL,2007-06-10 20:00,ZGKL 102000Z AUTO 00000KT 23/22 A2968 RMK T02300220 IEM_DS3505
ZGKL,2007-06-10 21:00,ZGKL 102100Z AUTO 02002KT 7SM 22/20 A2968 RMK 70000 SLP049 T02250202 57007 IEM_DS3505
ZGKL,2007-06-10 22:00,ZGKL 102200Z AUTO 31004KT 6SM 22/21 A2968 RMK T02200210 IEM_DS3505
ZGKL,2007-06-10 23:00,ZGKL 102300Z AUTO 00000KT 7SM 23/21 A2971 RMK T02300210 IEM_DS3505
ZGKL,2007-06-11 00:00,ZGKL 110000Z AUTO 36004KT 7SM 24/20 A2971 RMK 70000 SLP063 T02390204 52014 IEM_DS3505
ZGKL,2007-06-11 01:00,ZGKL 110100Z AUTO 00000KT 7SM 25/22 A2971 RMK T02500220 IEM_DS3505
ZGKL,2007-06-11 02:00,ZGKL 110200Z AUTO 7SM 27/21 A2971 RMK T02700210 IEM_DS3505
ZGKL,2007-06-11 03:00,ZGKL 110300Z AUTO 36006KT 7SM 27/21 A2971 RMK SLP057 T02720208 57006 IEM_DS3505
ZGKL,2007-06-11 04:00,ZGKL 110400Z AUTO 07006KT 7SM 29/21 A2968 RMK T02900210 IEM_DS3505
ZGKL,2007-06-11 05:00,ZGKL 110500Z AUTO 04006KT 7SM 29/21 A2968 RMK T02900210 IEM_DS3505
ZGKL,2007-06-11 06:00,ZGKL 110600Z AUTO 36006KT 8SM 30/21 A2965 RMK SLP041 T02990210 57015 IEM_DS3505
ZGKL,2007-06-11 07:00,ZGKL 110700Z AUTO 05006KT 7SM 30/20 A2965 RMK T03000200 IEM_DS3505
ZGKL,2007-06-11 08:00,ZGKL 110800Z AUTO 05006KT 7SM 29/20 A2962 RMK T02900200 IEM_DS3505
ZGKL,2007-06-11 09:00,ZGKL 110900Z AUTO 02006KT 8SM 28/20 A2962 RMK SLP028 T02800198 57013 IEM_DS3505
ZGKL,2007-06-11 10:00,ZGKL 111000Z AUTO 7SM 28/22 A2962 RMK T02800220 IEM_DS3505
ZGKL,2007-06-11 11:00,ZGKL 111100Z AUTO 7SM 26/22 A2965 RMK T02600220 IEM_DS3505
ZGKL,2007-06-11 12:00,ZGKL 111200Z AUTO 02004KT 8SM 26/20 A2965 RMK SLP039 T02590200 52010 IEM_DS3505
ZGKL,2007-06-11 13:00,ZGKL 111300Z AUTO 32004KT 5SM 24/22 A2968 RMK T02400220 IEM_DS3505
ZGKL,2007-06-11 14:00,ZGKL 111400Z AUTO 34004KT 4SM 24/22 A2968 RMK T02400220 IEM_DS3505
ZGKL,2007-06-11 15:00,ZGKL 111500Z AUTO 36004KT 8SM 25/20 A2971 RMK SLP055 T02500200 52017 IEM_DS3505
ZGKL,2007-06-11 16:00,ZGKL 111600Z AUTO 29004KT 4SM 23/22 A2971 RMK T02300220 IEM_DS3505
ZGKL,2007-06-11 18:00,ZGKL 111800Z AUTO 00000KT 7SM 24/21 A2965 RMK SLP040 T02390208 57014 IEM_DS3505
ZGKL,2007-06-11 19:00,ZGKL 111900Z AUTO 00000KT 4SM 23/21 A2965 RMK T02300210 IEM_DS3505
ZGKL,2007-06-11 20:00,ZGKL 112000Z AUTO 00000KT 3SM 22/21 A2965 RMK T02200210 IEM_DS3505
ZGKL,2007-06-11 21:00,ZGKL 112100Z AUTO 04002KT 7SM 23/21 A2965 RMK SLP036 T02330210 57005 IEM_DS3505
ZGKL,2007-06-11 22:00,ZGKL 112200Z AUTO 00000KT 3SM 22/21 A2965 RMK T02200210 IEM_DS3505
ZGKL,2007-06-11 23:00,ZGKL 112300Z AUTO 32004KT 4SM 22/21 A2968 RMK T02200210 IEM_DS3505
ZGKL,2007-06-12 00:00,ZGKL 120000Z AUTO 02004KT 6SM 24/21 A2968 RMK SLP044 T02400211 52007 IEM_DS3505
ZGKL,2007-06-12 01:00,ZGKL 120100Z AUTO 7SM 24/21 A2968 RMK T02400210 IEM_DS3505
ZGKL,2007-06-12 02:00,ZGKL 120200Z AUTO 08004KT 5SM 26/21 A2968 RMK T02600210 IEM_DS3505
ZGKL,2007-06-12 03:00,ZGKL 120300Z AUTO 02004KT 6SM 26/22 A2968 RMK SLP051 T02550216 52007 IEM_DS3505
ZGKL,2007-06-12 04:00,ZGKL 120400Z AUTO 07004KT 4SM 28/21 A2968 RMK T02800210 IEM_DS3505
ZGKL,2007-06-12 05:00,ZGKL 120500Z AUTO 04006KT 3SM 28/21 A2965 RMK T02800210 IEM_DS3505
ZGKL,2007-06-12 06:00,ZGKL 120600Z AUTO 02006KT 4SM 28/21 A2965 RMK SLP033 T02830213 57017 IEM_DS3505
ZGKL,2007-06-12 07:00,ZGKL 120700Z AUTO 04006KT 2 1/2SM 28/21 A2962 RMK T02800210 IEM_DS3505
ZGKL,2007-06-12 08:00,ZGKL 120800Z AUTO 03006KT 3SM 28/21 A2959 RMK T02800210 IEM_DS3505
ZGKL,2007-06-12 09:00,ZGKL 120900Z AUTO 02010KT 4SM 26/21 A2959 RMK SLP018 T02610209 57015 IEM_DS3505
ZGKL,2007-06-12 10:00,ZGKL 121000Z AUTO 2 1/2SM 26/22 A2959 RMK T02600220 IEM_DS3505
ZGKL,2007-06-12 11:00,ZGKL 121100Z AUTO 1 1/2SM 25/23 A2962 RMK T02500230 IEM_DS3505
ZGKL,2007-06-12 12:00,ZGKL 121200Z AUTO 02004KT 4SM 25/21 A2962 RMK 60000 SLP033 T02470212 52014 IEM_DS3505
ZGKL,2007-06-12 13:00,ZGKL 121300Z AUTO 00000KT 1 1/2SM 24/23 A2965 RMK T02400230 IEM_DS3505
ZGKL,2007-06-12 14:00,ZGKL 121400Z AUTO 33004KT 1 1/4SM 24/23 A2968 RMK T02400230 IEM_DS3505
ZGKL,2007-06-12 15:00,ZGKL 121500Z AUTO 02006KT 4SM 23/22 A2968 RMK SLP045 T02340215 52012 IEM_DS3505
ZGKL,2007-06-12 16:00,ZGKL 121600Z AUTO 1 1/4SM 23/22 A2965 RMK T02300220 IEM_DS3505
ZGKL,2007-06-12 17:00,ZGKL 121700Z AUTO 34004KT 23/22 A2962 RMK T02300220 IEM_DS3505
ZGKL,2007-06-12 18:00,ZGKL 121800Z AUTO 34004KT 4SM 23/22 A2959 RMK 60016 SLP024 T02270225 57020 IEM_DS3505
ZGKL,2007-06-12 19:00,ZGKL 121900Z AUTO 22/22 A2959 RMK T02200220 IEM_DS3505
ZGKL,2007-06-12 20:00,ZGKL 122000Z AUTO A2959 RMK IEM_DS3505
ZGKL,2007-06-12 21:00,ZGKL 122100Z AUTO 02004KT 2 1/2SM 22/22 A2956 RMK 70096 SLP011 T02210221 57014 IEM_DS3505
ZGKL,2007-06-12 22:00,ZGKL 122200Z AUTO 2SM 22/21 A2956 RMK T02200210 IEM_DS3505
ZGKL,2007-06-12 23:00,ZGKL 122300Z AUTO 33006KT 1 1/2SM 22/21 A2959 RMK T02200210 IEM_DS3505
ZGKL,2007-06-13 00:00,ZGKL 130000Z AUTO 32004KT 2 1/2SM 22/22 A2959 RMK 60244 70261 SLP025 T02190219 52014 IEM_DS3505
ZGKL,2007-06-13 01:00,ZGKL 130100Z AUTO 27004KT 7SM 22/21 A2962 RMK T02200210 IEM_DS3505
ZGKL,2007-06-13 02:00,ZGKL 130200Z AUTO 21004KT 7SM 23/22 A2965 RMK T02300220 IEM_DS3505
ZGKL,2007-06-13 03:00,ZGKL 130300Z AUTO 02004KT 6SM 23/23 A2965 RMK SLP041 T02340229 52015 IEM_DS3505
ZGKL,2007-06-13 04:00,ZGKL 130400Z AUTO 2 1/2SM 22/21 A2965 RMK T02200210 IEM_DS3505
ZGKL,2007-06-13 05:00,ZGKL 130500Z AUTO 3SM 23/21 A2965 RMK T02300210 IEM_DS3505
ZGKL,2007-06-13 06:00,ZGKL 130600Z AUTO 36004KT 4SM 24/22 A2962 RMK 60004 SLP028 T02400224 57012 IEM_DS3505
ZGKL,2007-06-13 07:00,ZGKL 130700Z AUTO 7SM 25/22 A2962 RMK T02500220 IEM_DS3505
ZGKL,2007-06-13 08:00,ZGKL 130800Z AUTO 00000KT 7SM 25/22 A2962 RMK T02500220 IEM_DS3505
ZGKL,2007-06-13 09:00,ZGKL 130900Z AUTO 02004KT 11SM 25/21 A2962 RMK SLP024 T02470214 57004 IEM_DS3505
ZGKL,2007-06-13 10:00,ZGKL 131000Z AUTO 22006KT 7SM 23/22 A2962 RMK T02300220 IEM_DS3505
ZGKL,2007-06-13 11:00,ZGKL 131100Z AUTO 12004KT 7SM 23/22 A2962 RMK T02300220 IEM_DS3505
ZGKL,2007-06-13 12:00,ZGKL 131200Z AUTO 29002KT 11SM 23/22 A2965 RMK 60000 SLP036 T02330225 52011 IEM_DS3505
ZGKL,2007-06-13 13:00,ZGKL 131300Z AUTO 00000KT 7SM 23/22 A2965 RMK T02300220 IEM_DS3505
ZGKL,2007-06-13 14:00,ZGKL 131400Z AUTO 00000KT 7SM 22/22 A2968 RMK T02200220 IEM_DS3505
ZGKL,2007-06-13 15:00,ZGKL 131500Z AUTO 36004KT 11SM 23/21 A2971 RMK SLP055 T02290214 52019 IEM_DS3505
ZGKL,2007-06-13 16:00,ZGKL 131600Z AUTO 00000KT 7SM 22/21 A2968 RMK T02200210 IEM_DS3505
ZGKL,2007-06-13 17:00,ZGKL 131700Z AUTO 00000KT 7SM 22/21 A2971 RMK T02200210 IEM_DS3505
ZGKL,2007-06-13 18:00,ZGKL 131800Z AUTO 36002KT 9SM 22/21 A2968 RMK SLP052 T02250211 57003 IEM_DS3505
ZGKL,2007-06-13 19:00,ZGKL 131900Z AUTO 00000KT 7SM 22/21 A2968 RMK T02200210 IEM_DS3505
ZGKL,2007-06-13 20:00,ZGKL 132000Z AUTO 00000KT 22/21 A2968 RMK T02200210 IEM_DS3505
ZGKL,2007-06-13 21:00,ZGKL 132100Z AUTO 00000KT 9SM 22/21 A2968 RMK 70169 SLP048 T02220214 57004 IEM_DS3505
ZGKL,2007-06-13 22:00,ZGKL 132200Z AUTO 00000KT 7SM 21/21 A2968 RMK T02100210 IEM_DS3505
ZGKL,2007-06-13 23:00,ZGKL 132300Z AUTO 00000KT 7SM 22/21 A2968 RMK T02200210 IEM_DS3505
ZGKL,2007-06-14 00:00,ZGKL 140000Z AUTO 04004KT 8SM 24/22 A2971 RMK 70004 SLP058 T02440217 52010 IEM_DS3505
ZGKL,2007-06-14 01:00,ZGKL 140100Z AUTO 00000KT 7SM 25/21 A2971 RMK T02500210 IEM_DS3505
ZGKL,2007-06-14 02:00,ZGKL 140200Z AUTO 00000KT 7SM 27/21 A2971 RMK T02700210 IEM_DS3505
ZGKL,2007-06-14 03:00,ZGKL 140300Z AUTO 02006KT 9SM 28/19 A2971 RMK SLP059 T02800192 52002 IEM_DS3505
ZGKL,2007-06-14 04:00,ZGKL 140400Z AUTO 00000KT 7SM 29/20 A2971 RMK T02900200 IEM_DS3505
ZGKL,2007-06-14 05:00,ZGKL 140500Z AUTO 28004KT 7SM 30/20 A2971 RMK T03000200 IEM_DS3505
ZGKL,2007-06-14 06:00,ZGKL 140600Z AUTO 02004KT 11SM 31/18 A2968 RMK SLP042 T03060183 57016 IEM_DS3505
ZGKL,2007-06-14 07:00,ZGKL 140700Z AUTO 09006KT 7SM 31/19 A2965 RMK T03100190 IEM_DS3505
ZGKL,2007-06-14 08:00,ZGKL 140800Z AUTO 05010KT 6SM 31/16 A2965 RMK T03100160 IEM_DS3505
ZGKL,2007-06-14 09:00,ZGKL 140900Z AUTO 04006KT 12SM 31/15 A2962 RMK SLP030 T03130153 57011 IEM_DS3505
ZGKL,2007-06-14 10:00,ZGKL 141000Z AUTO 06004KT 6SM 30/17 A2962 RMK T03000170 IEM_DS3505
ZGKL,2007-06-14 11:00,ZGKL 141100Z AUTO 35004KT 6SM 28/20 A2965 RMK T02800200 IEM_DS3505
ZGKL,2007-06-14 12:00,ZGKL 141200Z AUTO 07002KT 11SM 27/20 A2965 RMK SLP041 T02670198 52010 IEM_DS3505
ZGKL,2007-06-14 13:00,ZGKL 141300Z AUTO 31002KT 5SM 24/21 A2968 RMK T02400210 IEM_DS3505
ZGKL,2007-06-14 14:00,ZGKL 141400Z AUTO 00000KT 4SM 23/22 A2971 RMK T02300220 IEM_DS3505
ZGKL,2007-06-14 15:00,ZGKL 141500Z AUTO 02002KT 11SM 24/19 A2971 RMK SLP061 T02450193 52020 IEM_DS3505
ZGKL,2007-06-14 16:00,ZGKL 141600Z AUTO 00000KT 4SM 22/20 A2974 RMK T02200200 IEM_DS3505
ZGKL,2007-06-14 17:00,ZGKL 141700Z AUTO 33004KT 4SM 21/20 A2971 RMK T02100200 IEM_DS3505
ZGKL,2007-06-14 18:00,ZGKL 141800Z AUTO 02002KT 10SM 24/19 A2971 RMK SLP059 T02350194 57002 IEM_DS3505
ZGKL,2007-06-14 19:00,ZGKL 141900Z AUTO 00000KT 21/20 A2971 RMK T02100200 IEM_DS3505
ZGKL,2007-06-14 20:00,ZGKL 142000Z AUTO 00000KT 4SM 20/20 A2974 RMK T02000200 IEM_DS3505
ZGKL,2007-06-14 21:00,ZGKL 142100Z AUTO 00000KT 8SM 21/20 A2974 RMK SLP064 T02140199 52005 IEM_DS3505
ZGKL,2007-06-14 22:00,ZGKL 142200Z AUTO 00000KT 3SM 20/20 A2974 RMK T02000200 IEM_DS3505
ZGKL,2007-06-14 23:00,ZGKL 142300Z AUTO 00000KT 3SM 21/20 A2974 RMK T02100200 IEM_DS3505
ZGKL,2007-06-15 00:00,ZGKL 150000Z AUTO 04002KT 6SM 24/20 A2977 RMK SLP080 T02360203 52015 IEM_DS3505
ZGKL,2007-06-15 01:00,ZGKL 150100Z AUTO 00000KT 3SM 25/21 A2977 RMK T02500210 IEM_DS3505
ZGKL,2007-06-15 02:00,ZGKL 150200Z AUTO 00000KT 3SM 27/21 A2977 RMK T02700210 IEM_DS3505
ZGKL,2007-06-15 03:00,ZGKL 150300Z AUTO 02004KT 5SM 28/21 A2977 RMK SLP076 T02830206 57003 IEM_DS3505
ZGKL,2007-06-15 04:00,ZGKL 150400Z AUTO 31004KT 3SM 29/21 A2974 RMK T02900210 IEM_DS3505
ZGKL,2007-06-15 05:00,ZGKL 150500Z AUTO 3SM 30/19 A2974 RMK T03000190 IEM_DS3505
ZGKL,2007-06-15 06:00,ZGKL 150600Z AUTO 36002KT 6SM 31/20 A2971 RMK SLP053 T03090202 57022 IEM_DS3505
ZGKL,2007-06-15 07:00,ZGKL 150700Z AUTO 4SM 31/18 A2968 RMK T03100180 IEM_DS3505
ZGKL,2007-06-15 08:00,ZGKL 150800Z AUTO 4SM 31/20 A2965 RMK T03100200 IEM_DS3505
ZGKL,2007-06-15 09:00,ZGKL 150900Z AUTO 02004KT 6SM 31/21 A2965 RMK SLP037 T03070209 57017 IEM_DS3505
ZGKL,2007-06-15 10:00,ZGKL 151000Z AUTO 00000KT 4SM 31/20 A2965 RMK T03100200 IEM_DS3505
ZGKL,2007-06-15 11:00,ZGKL 151100Z AUTO 3SM 29/22 A2965 RMK T02900220 IEM_DS3505
ZGKL,2007-06-15 12:00,ZGKL 151200Z AUTO 02006KT 5SM 27/21 A2968 RMK SLP048 T02680206 52010 IEM_DS3505
ZGKL,2007-06-15 13:00,ZGKL 151300Z AUTO 2 1/2SM 25/22 A2968 RMK T02500220 IEM_DS3505
ZGKL,2007-06-15 14:00,ZGKL 151400Z AUTO 32004KT 2 1/2SM 24/22 A2971 RMK T02400220 IEM_DS3505
ZGKL,2007-06-15 15:00,ZGKL 151500Z AUTO 36004KT 5SM 25/20 A2971 RMK SLP061 T02520202 52014 IEM_DS3505
ZGKL,2007-06-15 16:00,ZGKL 151600Z AUTO 00000KT 2 1/2SM 23/22 A2971 RMK T02300220 IEM_DS3505
ZGKL,2007-06-15 17:00,ZGKL 151700Z AUTO 00000KT 2 1/2SM 23/22 A2971 RMK T02300220 IEM_DS3505
ZGKL,2007-06-15 18:00,ZGKL 151800Z AUTO 02002KT 5SM 24/20 A2971 RMK SLP057 T02360199 57003 IEM_DS3505
ZGKL,2007-06-15 19:00,ZGKL 151900Z AUTO 00000KT 22/21 A2971 RMK T02200210 IEM_DS3505
ZGKL,2007-06-15 20:00,ZGKL 152000Z AUTO 00000KT 22/21 A2971 RMK T02200210 IEM_DS3505
ZGKL,2007-06-15 21:00,ZGKL 152100Z AUTO 02002KT 5SM 23/20 A2971 RMK SLP060 T02310199 52002 IEM_DS3505
ZGKL,2007-06-15 22:00,ZGKL 152200Z AUTO 1 1/4SM 22/21 A2971 RMK T02200210 IEM_DS3505
ZGKL,2007-06-15 23:00,ZGKL 152300Z AUTO 1 1/2SM 22/21 A2974 RMK T02200210 IEM_DS3505
ZGKL,2007-06-16 00:00,ZGKL 160000Z AUTO 07002KT 4SM 24/20 A2974 RMK SLP068 T02440205 52007 IEM_DS3505
ZGKL,2007-06-16 01:00,ZGKL 160100Z AUTO 00000KT 2SM 25/22 A2974 RMK T02500220 IEM_DS3505
ZGKL,2007-06-16 02:00,ZGKL 160200Z AUTO 00000KT 2 1/2SM 28/22 A2974 RMK T02800220 IEM_DS3505
ZGKL,2007-06-16 03:00,ZGKL 160300Z AUTO 04006KT 5SM 29/20 A2974 RMK SLP068 T02890204 52001 IEM_DS3505
ZGKL,2007-06-16 04:00,ZGKL 160400Z AUTO 3SM 30/21 A2971 RMK T03000210 IEM_DS3505
ZGKL,2007-06-16 05:00,ZGKL 160500Z AUTO 3SM 31/21 A2968 RMK T03100210 IEM_DS3505
ZGKL,2007-06-16 06:00,ZGKL 160600Z AUTO 11002KT 5SM 32/21 A2968 RMK SLP043 T03210213 57024 IEM_DS3505
ZGKL,2007-06-16 07:00,ZGKL 160700Z AUTO 4SM 32/21 A2965 RMK T03200210 IEM_DS3505
ZGKL,2007-06-16 08:00,ZGKL 160800Z AUTO 4SM 32/21 A2962 RMK T03200210 IEM_DS3505
ZGKL,2007-06-16 09:00,ZGKL 160900Z AUTO 04002KT 5SM 32/22 A2959 RMK SLP024 T03220217 57019 IEM_DS3505
ZGKL,2007-06-16 10:00,ZGKL 161000Z AUTO 08004KT 5SM 32/22 A2962 RMK T03200220 IEM_DS3505
ZGKL,2007-06-16 11:00,ZGKL 161100Z AUTO 4SM 31/22 A2962 RMK T03100220 IEM_DS3505
ZGKL,2007-06-16 12:00,ZGKL 161200Z AUTO 02002KT 6SM 30/22 A2965 RMK SLP036 T02950217 52012 IEM_DS3505
ZGKL,2007-06-16 13:00,ZGKL 161300Z AUTO 13012KT 3SM 26/23 A2968 RMK T02600230 IEM_DS3505
ZGKL,2007-06-16 14:00,ZGKL 161400Z AUTO 00000KT 2SM 24/23 A2971 RMK T02400230 IEM_DS3505
ZGKL,2007-06-16 15:00,ZGKL 161500Z AUTO 04002KT 5SM 25/24 A2971 RMK SLP056 T02540244 52019 IEM_DS3505
ZGKL,2007-06-16 16:00,ZGKL 161600Z AUTO 00000KT 2SM 24/23 A2971 RMK T02400230 IEM_DS3505
ZGKL,2007-06-16 17:00,ZGKL 161700Z AUTO 00000KT 24/23 A2968 RMK T02400230 IEM_DS3505
ZGKL,2007-06-16 18:00,ZGKL 161800Z AUTO 25002KT 5SM 26/25 A2968 RMK 60016 SLP045 T02550253 57009 IEM_DS3505
ZGKL,2007-06-16 19:00,ZGKL 161900Z AUTO 19006KT 24/23 A2968 RMK T02400230 IEM_DS3505
ZGKL,2007-06-16 20:00,ZGKL 162000Z AUTO 00000KT 24/23 A2968 RMK T02400230 IEM_DS3505
ZGKL,2007-06-16 21:00,ZGKL 162100Z AUTO 29002KT 4SM 25/25 A2968 RMK 70017 SLP043 T02510251 57002 IEM_DS3505
ZGKL,2007-06-16 22:00,ZGKL 162200Z AUTO 33004KT 1SM 24/23 A2968 RMK T02400230 IEM_DS3505
ZGKL,2007-06-16 23:00,ZGKL 162300Z AUTO 00000KT 1SM 24/23 A2968 RMK T02400230 IEM_DS3505
ZGKL,2007-06-17 00:00,ZGKL 170000Z AUTO 09002KT 4SM 25/25 A2971 RMK 60004 70019 SLP055 T02540252 52011 IEM_DS3505
ZGKL,2007-06-17 01:00,ZGKL 170100Z AUTO 34004KT 2 1/2SM 25/24 A2971 RMK T02500240 IEM_DS3505
ZGKL,2007-06-17 02:00,ZGKL 170200Z AUTO 33004KT 3SM 26/24 A2971 RMK T02600240 IEM_DS3505
ZGKL,2007-06-17 03:00,ZGKL 170300Z AUTO 04002KT 5SM 28/25 A2971 RMK SLP055 T02790251 57001 IEM_DS3505
ZGKL,2007-06-17 04:00,ZGKL 170400Z AUTO 00000KT 6SM 28/25 A2971 RMK T02800250 IEM_DS3505
ZGKL,2007-06-17 05:00,ZGKL 170500Z AUTO 7SM 29/25 A2968 RMK T02900250 IEM_DS3505
ZGKL,2007-06-17 06:00,ZGKL 170600Z AUTO 16004KT 11SM 30/24 A2965 RMK SLP032 T03010245 57022 IEM_DS3505
ZGKL,2007-06-17 07:00,ZGKL 170700Z AUTO 29004KT 7SM 30/25 A2962 RMK T03000250 IEM_DS3505
ZGKL,2007-06-17 08:00,ZGKL 170800Z AUTO 7SM 31/25 A2959 RMK T03100250 IEM_DS3505
ZGKL,2007-06-17 09:00,ZGKL 170900Z AUTO 20002KT 9SM 28/25 A2959 RMK SLP016 T02810247 57016 IEM_DS3505
ZGKL,2007-06-17 10:00,ZGKL 171000Z AUTO 17010KT 7SM 27/25 A2959 RMK T02700250 IEM_DS3505
ZGKL,2007-06-17 11:00,ZGKL 171100Z AUTO 18010KT 7SM 26/24 A2962 RMK T02600240 IEM_DS3505
ZGKL,2007-06-17 12:00,ZGKL 171200Z AUTO 14002KT 6SM 26/26 A2965 RMK 60028 SLP036 T02560256 52019 IEM_DS3505
ZGKL,2007-06-17 13:00,ZGKL 171300Z AUTO 13006KT 7SM 26/24 A2965 RMK T02600240 IEM_DS3505
ZGKL,2007-06-17 14:00,ZGKL 171400Z AUTO 7SM 25/24 A2968 RMK T02500240 IEM_DS3505
ZGKL,2007-06-17 15:00,ZGKL 171500Z AUTO 11002KT 6SM 25/25 A2971 RMK SLP059 T02510251 52023 IEM_DS3505
ZGKL,2007-06-17 16:00,ZGKL 171600Z AUTO 31004KT 7SM 24/24 A2971 RMK T02400240 IEM_DS3505
ZGKL,2007-06-17 17:00,ZGKL 171700Z AUTO 00000KT 7SM 24/23 A2971 RMK T02400230 IEM_DS3505
ZGKL,2007-06-17 18:00,ZGKL 171800Z AUTO 14002KT 6SM 25/25 A2968 RMK 60000 SLP050 T02460246 57008 IEM_DS3505
ZGKL,2007-06-17 19:00,ZGKL 171900Z AUTO 00000KT 24/24 A2968 RMK T02400240 IEM_DS3505
ZGKL,2007-06-17 20:00,ZGKL 172000Z AUTO 00000KT 25/23 A2968 RMK T02500230 IEM_DS3505
ZGKL,2007-06-17 21:00,ZGKL 172100Z AUTO 32002KT 7SM 25/25 A2968 RMK 70030 SLP048 T02470247 57003 IEM_DS3505
ZGKL,2007-06-17 22:00,ZGKL 172200Z AUTO 00000KT 7SM 24/23 A2968 RMK T02400230 IEM_DS3505
ZGKL,2007-06-17 23:00,ZGKL 172300Z AUTO 00000KT 7SM 24/23 A2971 RMK T02400230 IEM_DS3505
ZGKL,2007-06-18 00:00,ZGKL 180000Z AUTO 18004KT 7SM 26/24 A2971 RMK 70028 SLP057 T02610240 52009 IEM_DS3505
ZGKL,2007-06-18 01:00,ZGKL 180100Z AUTO 00000KT 7SM 26/24 A2971 RMK T02600240 IEM_DS3505
ZGKL,2007-06-18 02:00,ZGKL 180200Z AUTO 29002KT 7SM 27/24 A2971 RMK T02700240 IEM_DS3505
ZGKL,2007-06-18 03:00,ZGKL 180300Z AUTO 20006KT 8SM 29/24 A2971 RMK SLP061 T02900243 52004 IEM_DS3505
ZGKL,2007-06-18 04:00,ZGKL 180400Z AUTO 20008KT 7SM 31/24 A2971 RMK T03100240 IEM_DS3505
ZGKL,2007-06-18 05:00,ZGKL 180500Z AUTO 20008KT 7SM 29/25 A2968 RMK T02900250 IEM_DS3505
ZGKL,2007-06-18 06:00,ZGKL 180600Z AUTO 18002KT 10SM 30/25 A2968 RMK 60004 SLP044 T03000249 57016 IEM_DS3505
ZGKL,2007-06-18 07:00,ZGKL 180700Z AUTO 18014KT 7SM 31/25 A2965 RMK T03100250 IEM_DS3505
ZGKL,2007-06-18 08:00,ZGKL 180800Z AUTO 19012KT 1 1/4SM 28/24 A2965 RMK T02800240 IEM_DS3505
ZGKL,2007-06-18 09:00,ZGKL 180900Z AUTO 09002KT 9SM 28/26 A2962 RMK SLP027 T02820260 57017 IEM_DS3505
ZGKL,2007-06-18 10:00,ZGKL 181000Z AUTO 16008KT 7SM 28/24 A2965 RMK T02800240 IEM_DS3505
ZGKL,2007-06-18 11:00,ZGKL 181100Z AUTO 13010KT 7SM 26/23 A2968 RMK T02600230 IEM_DS3505
ZGKL,2007-06-18 12:00,ZGKL 181200Z AUTO 32002KT 5SM 24/24 A2968 RMK 60071 SLP050 T02440242 52021 IEM_DS3505
ZGKL,2007-06-18 13:00,ZGKL 181300Z AUTO 00000KT 7SM 25/23 A2971 RMK T02500230 IEM_DS3505
ZGKL,2007-06-18 14:00,ZGKL 181400Z AUTO 7SM 24/23 A2974 RMK T02400230 IEM_DS3505
ZGKL,2007-06-18 15:00,ZGKL 181500Z AUTO 04002KT 5SM 24/24 A2974 RMK SLP069 T02420242 52020 IEM_DS3505
ZGKL,2007-06-18 16:00,ZGKL 181600Z AUTO 00000KT 24/23 A2974 RMK T02400230 IEM_DS3505
ZGKL,2007-06-18 17:00,ZGKL 181700Z AUTO 15002KT 24/23 A2971 RMK T02400230 IEM_DS3505
ZGKL,2007-06-18 18:00,ZGKL 181800Z AUTO 00000KT 6SM 24/24 A2971 RMK 60000 SLP059 T02410241 57010 IEM_DS3505
ZGKL,2007-06-18 19:00,ZGKL 181900Z AUTO 00000KT 24/23 A2971 RMK T02400230 IEM_DS3505
ZGKL,2007-06-18 20:00,ZGKL 182000Z AUTO 00000KT 4SM 24/23 A2971 RMK T02400230 IEM_DS3505
ZGKL,2007-06-18 21:00,ZGKL 182100Z AUTO 11002KT 5SM 24/24 A2974 RMK 70078 SLP068 T02420242 52009 IEM_DS3505
ZGKL,2007-06-18 22:00,ZGKL 182200Z AUTO 00000KT 1SM 24/23 A2974 RMK T02400230 IEM_DS3505
ZGKL,2007-06-18 23:00,ZGKL 182300Z AUTO 00000KT 1 1/4SM 24/23 A2977 RMK T02400230 IEM_DS3505
ZGKL,2007-06-19 00:00,ZGKL 190000Z AUTO 04002KT 3SM 24/24 A2977 RMK 60004 70082 SLP080 T02430243 52010 IEM_DS3505
ZGKL,2007-06-19 01:00,ZGKL 190100Z AUTO 00000KT 3SM 25/24 A2977 RMK T02500240 IEM_DS3505
ZGKL,2007-06-19 02:00,ZGKL 190200Z AUTO 4SM 27/25 A2980 RMK T02700250 IEM_DS3505
ZGKL,2007-06-19 03:00,ZGKL 190300Z AUTO 22006KT 7SM 29/25 A2977 RMK SLP081 T02860248 52003 IEM_DS3505
ZGKL,2007-06-19 04:00,ZGKL 190400Z AUTO 17010KT 5SM 30/25 A2977 RMK T03000250 IEM_DS3505
ZGKL,2007-06-19 05:00,ZGKL 190500Z AUTO 21008KT 7SM 31/24 A2974 RMK T03100240 IEM_DS3505
ZGKL,2007-06-19 06:00,ZGKL 190600Z AUTO 18004KT 11SM 32/25 A2974 RMK 60000 SLP063 T03150249 57017 IEM_DS3505
ZGKL,2007-06-19 07:00,ZGKL 190700Z AUTO 17012KT 7SM 32/24 A2971 RMK T03200240 IEM_DS3505
ZGKL,2007-06-19 08:00,ZGKL 190800Z AUTO 16012KT 7SM 33/25 A2968 RMK T03300250 IEM_DS3505
ZGKL,2007-06-19 09:00,ZGKL 190900Z AUTO 14004KT 11SM 30/24 A2968 RMK SLP045 T03000239 57018 IEM_DS3505
ZGKL,2007-06-19 10:00,ZGKL 191000Z AUTO 13008KT 7SM 31/25 A2968 RMK T03100250 IEM_DS3505
ZGKL,2007-06-19 11:00,ZGKL 191100Z AUTO 13008KT 7SM 30/25 A2968 RMK T03000250 IEM_DS3505
ZGKL,2007-06-19 12:00,ZGKL 191200Z AUTO 18002KT 12SM 29/24 A2968 RMK 60000 SLP051 T02900241 52005 IEM_DS3505
ZGKL,2007-06-19 13:00,ZGKL 191300Z AUTO 22002KT 5SM 28/25 A2971 RMK T02800250 IEM_DS3505
ZGKL,2007-06-19 14:00,ZGKL 191400Z AUTO 4SM 27/25 A2974 RMK T02700250 IEM_DS3505
ZGKL,2007-06-19 15:00,ZGKL 191500Z AUTO 04002KT 11SM 27/25 A2974 RMK SLP071 T02680250 52021 IEM_DS3505
ZGKL,2007-06-19 16:00,ZGKL 191600Z AUTO 2 1/2SM 26/25 A2974 RMK T02600250 IEM_DS3505
ZGKL,2007-06-19 17:00,ZGKL 191700Z AUTO 00000KT 2 1/2SM 25/24 A2974 RMK T02500240 IEM_DS3505
ZGKL,2007-06-19 18:00,ZGKL 191800Z AUTO 00000KT 10SM 26/25 A2974 RMK SLP064 T02560251 57007 IEM_DS3505
ZGKL,2007-06-19 19:00,ZGKL 191900Z AUTO 00000KT 25/24 A2974 RMK T02500240 IEM_DS3505
ZGKL,2007-06-19 20:00,ZGKL 192000Z AUTO 00000KT 25/24 A2974 RMK T02500240 IEM_DS3505
ZGKL,2007-06-19 21:00,ZGKL 192100Z AUTO 00000KT 9SM 26/26 A2974 RMK 70006 SLP071 T02550255 52007 IEM_DS3505
ZGKL,2007-06-19 22:00,ZGKL 192200Z AUTO 3SM 25/24 A2977 RMK T02500240 IEM_DS3505
ZGKL,2007-06-19 23:00,ZGKL 192300Z AUTO 19004KT 1 1/4SM 25/24 A2977 RMK T02500240 IEM_DS3505
ZGKL,2007-06-20 00:00,ZGKL 200000Z AUTO 14002KT 6SM 25/25 A2980 RMK 60004 70004 SLP084 T02540254 52012 IEM_DS3505
ZGKL,2007-06-20 01:00,ZGKL 200100Z AUTO 15004KT 4SM 27/25 A2980 RMK T02700250 IEM_DS3505
ZGKL,2007-06-20 02:00,ZGKL 200200Z AUTO 17008KT 5SM 29/25 A2980 RMK T02900250 IEM_DS3505
ZGKL,2007-06-20 03:00,ZGKL 200300Z AUTO 20008KT 7SM 30/24 A2977 RMK SLP083 T03040245 54000 IEM_DS3505
ZGKL,2007-06-20 04:00,ZGKL 200400Z AUTO 18008KT 7SM 32/25 A2977 RMK T03200250 IEM_DS3505
ZGKL,2007-06-20 05:00,ZGKL 200500Z AUTO 19010KT 7SM 32/24 A2974 RMK T03200240 IEM_DS3505
ZGKL,2007-06-20 06:00,ZGKL 200600Z AUTO 16006KT 11SM 32/23 A2974 RMK SLP061 T03240234 57021 IEM_DS3505
ZGKL,2007-06-20 07:00,ZGKL 200700Z AUTO 18014KT 7SM 33/23 A2971 RMK T03300230 IEM_DS3505
ZGKL,2007-06-20 08:00,ZGKL 200800Z AUTO 19012KT 7SM 34/23 A2968 RMK T03400230 IEM_DS3505
ZGKL,2007-06-20 09:00,ZGKL 200900Z AUTO 22004KT 12SM 34/21 A2968 RMK SLP047 T03400207 57014 IEM_DS3505
ZGKL,2007-06-20 10:00,ZGKL 201000Z AUTO 19010KT 7SM 33/22 A2968 RMK T03300220 IEM_DS3505
ZGKL,2007-06-20 11:00,ZGKL 201100Z AUTO 18008KT 7SM 31/22 A2968 RMK T03100220 IEM_DS3505
ZGKL,2007-06-20 12:00,ZGKL 201200Z AUTO 14004KT 11SM 30/23 A2971 RMK SLP051 T02990234 52003 IEM_DS3505
ZGKL,2007-06-20 13:00,ZGKL 201300Z AUTO 00000KT 6SM 28/24 A2971 RMK T02800240 IEM_DS3505
ZGKL,2007-06-20 14:00,ZGKL 201400Z AUTO 00000KT 6SM 27/24 A2974 RMK T02700240 IEM_DS3505
ZGKL,2007-06-20 15:00,ZGKL 201500Z AUTO 16002KT 10SM 29/23 A2974 RMK SLP067 T02890233 52017 IEM_DS3505
ZGKL,2007-06-20 16:00,ZGKL 201600Z AUTO 31002KT 6SM 25/24 A2974 RMK T02500240 IEM_DS3505
ZGKL,2007-06-20 17:00,ZGKL 201700Z AUTO 29004KT 6SM 25/23 A2974 RMK T02500230 IEM_DS3505
ZGKL,2007-06-20 18:00,ZGKL 201800Z AUTO 04002KT 9SM 26/25 A2974 RMK SLP066 T02640246 57001 IEM_DS3505
ZGKL,2007-06-20 19:00,ZGKL 201900Z AUTO 00000KT 24/23 A2974 RMK T02400230 IEM_DS3505
ZGKL,2007-06-20 20:00,ZGKL 202000Z AUTO 00000KT 24/23 A2974 RMK T02400230 IEM_DS3505
ZGKL,2007-06-20 21:00,ZGKL 202100Z AUTO 04002KT 9SM 25/24 A2977 RMK 70004 SLP071 T02520243 52005 IEM_DS3505
ZGKL,2007-06-20 22:00,ZGKL 202200Z AUTO 00000KT 6SM 23/23 A2977 RMK T02300230 IEM_DS3505
ZGKL,2007-06-20 23:00,ZGKL 202300Z AUTO 00000KT 6SM 24/23 A2980 RMK T02400230 IEM_DS3505
ZGKL,2007-06-21 00:00,ZGKL 210000Z AUTO 00000KT 6SM 27/25 A2980 RMK SLP084 T02730248 52012 IEM_DS3505
ZGKL,2007-06-21 01:00,ZGKL 210100Z AUTO 18004KT 7SM 28/23 A2977 RMK T02800230 IEM_DS3505
ZGKL,2007-06-21 02:00,ZGKL 210200Z AUTO 18006KT 7SM 30/24 A2977 RMK T03000240 IEM_DS3505
ZGKL,2007-06-21 03:00,ZGKL 210300Z AUTO 20004KT 7SM 30/23 A2977 RMK SLP074 T03050232 57009 IEM_DS3505
ZGKL,2007-06-21 04:00,ZGKL 210400Z AUTO 18010KT 7SM 32/23 A2974 RMK T03200230 IEM_DS3505
ZGKL,2007-06-21 05:00,ZGKL 210500Z AUTO 18010KT 7SM 33/23 A2974 RMK T03300230 IEM_DS3505
ZGKL,2007-06-21 06:00,ZGKL 210600Z AUTO 22006KT 11SM 33/22 A2971 RMK SLP052 T03330215 57022 IEM_DS3505
ZGKL,2007-06-21 07:00,ZGKL 210700Z AUTO 18014KT 7SM 34/22 A2968 RMK T03400220 IEM_DS3505
ZGKL,2007-06-21 08:00,ZGKL 210800Z AUTO 19012KT 7SM 34/22 A2968 RMK T03400220 IEM_DS3505
ZGKL,2007-06-21 09:00,ZGKL 210900Z AUTO 27006KT 14SM 34/22 A2965 RMK SLP038 T03440215 57014 IEM_DS3505
ZGKL,2007-06-21 10:00,ZGKL 211000Z AUTO 19010KT 7SM 33/21 A2968 RMK T03300210 IEM_DS3505
ZGKL,2007-06-21 11:00,ZGKL 211100Z AUTO 19008KT 7SM 31/22 A2968 RMK T03100220 IEM_DS3505
ZGKL,2007-06-21 12:00,ZGKL 211200Z AUTO 22004KT 14SM 32/20 A2968 RMK SLP044 T03200196 52006 IEM_DS3505
ZGKL,2007-06-21 13:00,ZGKL 211300Z AUTO 26004KT 6SM 27/24 A2971 RMK T02700240 IEM_DS3505
ZGKL,2007-06-21 14:00,ZGKL 211400Z AUTO 6SM 27/24 A2971 RMK T02700240 IEM_DS3505
ZGKL,2007-06-21 15:00,ZGKL 211500Z AUTO 07002KT 10SM 28/22 A2971 RMK SLP056 T02840224 52012 IEM_DS3505
ZGKL,2007-06-21 16:00,ZGKL 211600Z AUTO 00000KT 6SM 25/24 A2971 RMK T02500240 IEM_DS3505
ZGKL,2007-06-21 17:00,ZGKL 211700Z AUTO 00000KT 25/24 A2971 RMK T02500240 IEM_DS3505
ZGKL,2007-06-21 18:00,ZGKL 211800Z AUTO 02002KT 9SM 26/23 A2971 RMK SLP058 T02640229 52002 IEM_DS3505
ZGKL,2007-06-21 19:00,ZGKL 211900Z AUTO 00000KT 24/23 A2974 RMK T02400230 IEM_DS3505
ZGKL,2007-06-21 20:00,ZGKL 212000Z AUTO 00000KT 4SM 24/23 A2974 RMK T02400230 IEM_DS3505
ZGKL,2007-06-21 21:00,ZGKL 212100Z AUTO 07002KT 8SM 25/23 A2974 RMK SLP069 T02530232 52011 IEM_DS3505
ZGKL,2007-06-21 22:00,ZGKL 212200Z AUTO 00000KT 6SM 23/22 A2977 RMK T02300220 IEM_DS3505
ZGKL,2007-06-21 23:00,ZGKL 212300Z AUTO 00000KT 7SM 24/23 A2977 RMK T02400230 IEM_DS3505
ZGKL,2007-06-22 00:00,ZGKL 220000Z AUTO 09002KT 8SM 27/24 A2977 RMK SLP075 T02700243 52006 IEM_DS3505
ZGKL,2007-06-22 01:00,ZGKL 220100Z AUTO 17004KT 7SM 29/23 A2977 RMK T02900230 IEM_DS3505
ZGKL,2007-06-22 02:00,ZGKL 220200Z AUTO 18012KT 7SM 31/23 A2977 RMK T03100230 IEM_DS3505
ZGKL,2007-06-22 03:00,ZGKL 220300Z AUTO 25006KT 9SM 31/23 A2977 RMK SLP071 T03130229 57004 IEM_DS3505
ZGKL,2007-06-22 04:00,ZGKL 220400Z AUTO 18012KT 7SM 33/23 A2974 RMK T03300230 IEM_DS3505
ZGKL,2007-06-22 05:00,ZGKL 220500Z AUTO 18012KT 7SM 34/23 A2971 RMK T03400230 IEM_DS3505
ZGKL,2007-06-22 06:00,ZGKL 220600Z AUTO 25006KT 11SM 34/21 A2971 RMK SLP053 T03380209 57018 IEM_DS3505
ZGKL,2007-06-22 07:00,ZGKL 220700Z AUTO 18012KT 7SM 34/23 A2968 RMK T03400230 IEM_DS3505
ZGKL,2007-06-22 08:00,ZGKL 220800Z AUTO 18014KT 7SM 34/23 A2968 RMK T03400230 IEM_DS3505
ZGKL,2007-06-22 09:00,ZGKL 220900Z AUTO 22004KT 12SM 35/23 A2965 RMK SLP036 T03490226 57016 IEM_DS3505
ZGKL,2007-06-22 10:00,ZGKL 221000Z AUTO 20008KT 7SM 33/23 A2965 RMK T03300230 IEM_DS3505
ZGKL,2007-06-22 11:00,ZGKL 221100Z AUTO 20006KT 6SM 31/23 A2965 RMK T03100230 IEM_DS3505
ZGKL,2007-06-22 12:00,ZGKL 221200Z AUTO 22004KT 14SM 32/22 A2968 RMK SLP047 T03240216 52010 IEM_DS3505
ZGKL,2007-06-22 13:00,ZGKL 221300Z AUTO 25004KT 6SM 28/24 A2971 RMK T02800240 IEM_DS3505
ZGKL,2007-06-22 14:00,ZGKL 221400Z AUTO 00000KT 6SM 28/25 A2974 RMK T02800250 IEM_DS3505
ZGKL,2007-06-22 15:00,ZGKL 221500Z AUTO 11002KT 11SM 30/24 A2974 RMK SLP065 T02980235 52018 IEM_DS3505
ZGKL,2007-06-22 16:00,ZGKL 221600Z AUTO 00000KT 4SM 26/24 A2974 RMK T02600240 IEM_DS3505
ZGKL,2007-06-22 17:00,ZGKL 221700Z AUTO 00000KT 4SM 26/24 A2974 RMK T02600240 IEM_DS3505
ZGKL,2007-06-22 18:00,ZGKL 221800Z AUTO 11002KT 11SM 28/24 A2974 RMK SLP061 T02820238 57003 IEM_DS3505
ZGKL,2007-06-22 19:00,ZGKL 221900Z AUTO 00000KT 25/24 A2974 RMK T02500240 IEM_DS3505
ZGKL,2007-06-22 20:00,ZGKL 222000Z AUTO 00000KT 25/24 A2974 RMK T02500240 IEM_DS3505
ZGKL,2007-06-22 21:00,ZGKL 222100Z AUTO 34002KT 10SM 27/24 A2977 RMK SLP071 T02710238 52010 IEM_DS3505
ZGKL,2007-06-22 22:00,ZGKL 222200Z AUTO 00000KT 3SM 25/24 A2977 RMK T02500240 IEM_DS3505
ZGKL,2007-06-22 23:00,ZGKL 222300Z AUTO 00000KT 4SM 26/24 A2980 RMK T02600240 IEM_DS3505
ZGKL,2007-06-23 00:00,ZGKL 230000Z AUTO 18004KT 9SM 29/23 A2980 RMK SLP085 T02940231 52013 IEM_DS3505
ZGKL,2007-06-23 01:00,ZGKL 230100Z AUTO 17012KT 6SM 30/24 A2980 RMK T03000240 IEM_DS3505
ZGKL,2007-06-23 02:00,ZGKL 230200Z AUTO 17010KT 6SM 31/24 A2980 RMK T03100240 IEM_DS3505
ZGKL,2007-06-23 03:00,ZGKL 230300Z AUTO 22006KT 9SM 32/22 A2980 RMK SLP088 T03230218 52003 IEM_DS3505
ZGKL,2007-06-23 04:00,ZGKL 230400Z AUTO 17008KT 7SM 32/24 A2980 RMK T03200240 IEM_DS3505
ZGKL,2007-06-23 05:00,ZGKL 230500Z AUTO 18010KT 7SM 33/24 A2977 RMK T03300240 IEM_DS3505
ZGKL,2007-06-23 06:00,ZGKL 230600Z AUTO 16004KT 15SM 33/23 A2974 RMK SLP065 T03340231 57022 IEM_DS3505
ZGKL,2007-06-23 07:00,ZGKL 230700Z AUTO 18010KT 7SM 34/24 A2974 RMK T03400240 IEM_DS3505
ZGKL,2007-06-23 08:00,ZGKL 230800Z AUTO 18010KT 7SM 34/25 A2971 RMK T03400250 IEM_DS3505
ZGKL,2007-06-23 09:00,ZGKL 230900Z AUTO 25006KT 15SM 35/23 A2971 RMK SLP051 T03460227 57014 IEM_DS3505
ZGKL,2007-06-23 10:00,ZGKL 231000Z AUTO 18010KT 7SM 33/24 A2971 RMK T03300240 IEM_DS3505
ZGKL,2007-06-23 11:00,ZGKL 231100Z AUTO 20006KT 6SM 31/25 A2971 RMK T03100250 IEM_DS3505
ZGKL,2007-06-23 12:00,ZGKL 231200Z AUTO 29002KT 12SM 32/24 A2971 RMK SLP051 T03200238 54000 IEM_DS3505
ZGKL,2007-06-23 13:00,ZGKL 231300Z AUTO 00000KT 4SM 29/26 A2974 RMK T02900260 IEM_DS3505
ZGKL,2007-06-23 14:00,ZGKL 231400Z AUTO 31002KT 3SM 27/25 A2974 RMK T02700250 IEM_DS3505
ZGKL,2007-06-23 15:00,ZGKL 231500Z AUTO 14002KT 10SM 29/25 A2977 RMK SLP070 T02940252 52018 IEM_DS3505
ZGKL,2007-06-23 16:00,ZGKL 231600Z AUTO 00000KT 3SM 27/25 A2977 RMK T02700250 IEM_DS3505
ZGKL,2007-06-23 17:00,ZGKL 231700Z AUTO 00000KT 3SM 27/25 A2977 RMK T02700250 IEM_DS3505
ZGKL,2007-06-23 18:00,ZGKL 231800Z AUTO 07002KT 10SM 29/25 A2974 RMK SLP068 T02920247 57001 IEM_DS3505
ZGKL,2007-06-23 19:00,ZGKL 231900Z AUTO 00000KT 3SM 27/25 A2974 RMK T02700250 IEM_DS3505
ZGKL,2007-06-23 20:00,ZGKL 232000Z AUTO 00000KT 3SM 27/25 A2974 RMK T02700250 IEM_DS3505
ZGKL,2007-06-23 21:00,ZGKL 232100Z AUTO 22006KT 9SM 30/24 A2977 RMK SLP068 T02980235 54000 IEM_DS3505
ZGKL,2007-06-23 22:00,ZGKL 232200Z AUTO 20006KT 5SM 27/25 A2977 RMK T02700250 IEM_DS3505
ZGKL,2007-06-23 23:00,ZGKL 232300Z AUTO 18006KT 6SM 28/24 A2977 RMK T02800240 IEM_DS3505
ZGKL,2007-06-24 00:00,ZGKL 240000Z AUTO 20004KT 9SM 31/24 A2977 RMK SLP076 T03070239 52008 IEM_DS3505
ZGKL,2007-06-24 01:00,ZGKL 240100Z AUTO 19010KT 7SM 31/24 A2977 RMK T03100240 IEM_DS3505
ZGKL,2007-06-24 02:00,ZGKL 240200Z AUTO 17010KT 7SM 32/24 A2977 RMK T03200240 IEM_DS3505
ZGKL,2007-06-24 03:00,ZGKL 240300Z AUTO 18004KT 11SM 33/23 A2977 RMK SLP077 T03270228 54000 IEM_DS3505
ZGKL,2007-06-24 04:00,ZGKL 240400Z AUTO 20008KT 7SM 33/24 A2974 RMK T03300240 IEM_DS3505
ZGKL,2007-06-24 05:00,ZGKL 240500Z AUTO 18010KT 7SM 34/24 A2974 RMK T03400240 IEM_DS3505
ZGKL,2007-06-24 06:00,ZGKL 240600Z AUTO 22006KT 12SM 34/23 A2971 RMK SLP051 T03370231 57025 IEM_DS3505
ZGKL,2007-06-24 07:00,ZGKL 240700Z AUTO 18012KT 7SM 34/25 A2968 RMK T03400250 IEM_DS3505
ZGKL,2007-06-24 08:00,ZGKL 240800Z AUTO 18012KT 7SM 34/25 A2965 RMK T03400250 IEM_DS3505
ZGKL,2007-06-24 09:00,ZGKL 240900Z AUTO 20008KT 12SM 34/23 A2962 RMK SLP027 T03370231 57023 IEM_DS3505
ZGKL,2007-06-24 10:00,ZGKL 241000Z AUTO 33008KT 7SM 31/22 A2965 RMK T03100220 IEM_DS3505
ZGKL,2007-06-24 11:00,ZGKL 241100Z AUTO 34006KT 7SM 27/23 A2965 RMK T02700230 IEM_DS3505
ZGKL,2007-06-24 12:00,ZGKL 241200Z AUTO 07002KT 11SM 29/22 A2968 RMK SLP044 T02860219 52015 IEM_DS3505
ZGKL,2007-06-24 13:00,ZGKL 241300Z AUTO 7SM 27/24 A2968 RMK T02700240 IEM_DS3505
ZGKL,2007-06-24 14:00,ZGKL 241400Z AUTO 00000KT 6SM 26/24 A2971 RMK T02600240 IEM_DS3505
ZGKL,2007-06-24 15:00,ZGKL 241500Z AUTO 09002KT 10SM 27/23 A2971 RMK SLP058 T02680231 52014 IEM_DS3505
ZGKL,2007-06-24 16:00,ZGKL 241600Z AUTO 00000KT 6SM 26/24 A2971 RMK T02600240 IEM_DS3505
ZGKL,2007-06-24 17:00,ZGKL 241700Z AUTO 00000KT 5SM 26/24 A2968 RMK T02600240 IEM_DS3505
ZGKL,2007-06-24 18:00,ZGKL 241800Z AUTO 00000KT 9SM 26/24 A2968 RMK SLP043 T02650238 57014 IEM_DS3505
ZGKL,2007-06-24 19:00,ZGKL 241900Z AUTO 00000KT 4SM 26/24 A2968 RMK T02600240 IEM_DS3505
ZGKL,2007-06-24 20:00,ZGKL 242000Z AUTO 00000KT 4SM 26/24 A2968 RMK T02600240 IEM_DS3505
ZGKL,2007-06-24 21:00,ZGKL 242100Z AUTO 29002KT 9SM 27/24 A2968 RMK SLP044 T02670242 52001 IEM_DS3505
ZGKL,2007-06-24 22:00,ZGKL 242200Z AUTO 00000KT 3SM 25/24 A2968 RMK T02500240 IEM_DS3505
ZGKL,2007-06-24 23:00,ZGKL 242300Z AUTO 7SM 26/24 A2968 RMK T02600240 IEM_DS3505
ZGKL,2007-06-25 00:00,ZGKL 250000Z AUTO 04002KT 7SM 29/25 A2971 RMK SLP053 T02910249 52008 IEM_DS3505
ZGKL,2007-06-25 01:00,ZGKL 250100Z AUTO 20008KT 7SM 29/24 A2971 RMK T02900240 IEM_DS3505
ZGKL,2007-06-25 02:00,ZGKL 250200Z AUTO 18016KT 7SM 30/24 A2971 RMK T03000240 IEM_DS3505
ZGKL,2007-06-25 03:00,ZGKL 250300Z AUTO 25004KT 10SM 31/23 A2971 RMK SLP050 T03070226 57003 IEM_DS3505
ZGKL,2007-06-25 04:00,ZGKL 250400Z AUTO 17006KT 7SM 32/24 A2968 RMK T03200240 IEM_DS3505
ZGKL,2007-06-25 05:00,ZGKL 250500Z AUTO 18012KT 7SM 33/24 A2965 RMK T03300240 IEM_DS3505
ZGKL,2007-06-25 06:00,ZGKL 250600Z AUTO 25004KT 12SM 33/23 A2962 RMK SLP023 T03270228 57026 IEM_DS3505
ZGKL,2007-06-25 07:00,ZGKL 250700Z AUTO 20008KT 7SM 32/24 A2962 RMK T03200240 IEM_DS3505
ZGKL,2007-06-25 08:00,ZGKL 250800Z AUTO 29008KT 7SM 29/22 A2959 RMK T02900220 IEM_DS3505
ZGKL,2007-06-25 09:00,ZGKL 250900Z AUTO 07002KT 11SM 28/23 A2959 RMK SLP018 T02750229 57007 IEM_DS3505
ZGKL,2007-06-25 10:00,ZGKL 251000Z AUTO 34006KT 7SM 26/23 A2956 RMK T02600230 IEM_DS3505
ZGKL,2007-06-25 11:00,ZGKL 251100Z AUTO 7SM 26/23 A2959 RMK T02600230 IEM_DS3505
ZGKL,2007-06-25 12:00,ZGKL 251200Z AUTO 02004KT 11SM 27/23 A2962 RMK SLP027 T02660227 52009 IEM_DS3505
ZGKL,2007-06-25 13:00,ZGKL 251300Z AUTO 00000KT 6SM 25/24 A2962 RMK T02500240 IEM_DS3505
ZGKL,2007-06-25 14:00,ZGKL 251400Z AUTO 00000KT 6SM 25/24 A2965 RMK T02500240 IEM_DS3505
ZGKL,2007-06-25 15:00,ZGKL 251500Z AUTO 07002KT 10SM 25/23 A2965 RMK SLP039 T02530230 52012 IEM_DS3505
ZGKL,2007-06-25 16:00,ZGKL 251600Z AUTO 00000KT 7SM 25/24 A2965 RMK T02500240 IEM_DS3505
ZGKL,2007-06-25 17:00,ZGKL 251700Z AUTO 33002KT 25/24 A2962 RMK T02500240 IEM_DS3505
ZGKL,2007-06-25 18:00,ZGKL 251800Z AUTO 07002KT 9SM 25/24 A2962 RMK 60002 SLP025 T02480238 57013 IEM_DS3505
ZGKL,2007-06-25 19:00,ZGKL 251900Z AUTO 12004KT 24/23 A2959 RMK T02400230 IEM_DS3505
ZGKL,2007-06-25 20:00,ZGKL 252000Z AUTO 04004KT 7SM 24/23 A2959 RMK T02400230 IEM_DS3505
ZGKL,2007-06-25 21:00,ZGKL 252100Z AUTO 36002KT 8SM 24/24 A2962 RMK 70009 SLP025 T02440241 57002 IEM_DS3505
ZGKL,2007-06-25 22:00,ZGKL 252200Z AUTO 00000KT 7SM 24/23 A2959 RMK T02400230 IEM_DS3505
ZGKL,2007-06-25 23:00,ZGKL 252300Z AUTO 00000KT 7SM 24/24 A2962 RMK T02400240 IEM_DS3505
ZGKL,2007-06-26 00:00,ZGKL 260000Z AUTO 09002KT 7SM 26/24 A2962 RMK 60008 70009 SLP029 T02550241 52004 IEM_DS3505
ZGKL,2007-06-26 01:00,ZGKL 260100Z AUTO 3SM 25/24 A2962 RMK T02500240 IEM_DS3505
ZGKL,2007-06-26 02:00,ZGKL 260200Z AUTO 3SM 25/24 A2962 RMK T02500240 IEM_DS3505
ZGKL,2007-06-26 03:00,ZGKL 260300Z AUTO 29004KT 4SM 28/24 A2962 RMK SLP027 T02750244 57001 IEM_DS3505
ZGKL,2007-06-26 04:00,ZGKL 260400Z AUTO 34006KT 1 1/2SM 25/24 A2962 RMK T02500240 IEM_DS3505
ZGKL,2007-06-26 05:00,ZGKL 260500Z AUTO 4SM 25/24 A2959 RMK T02500240 IEM_DS3505
ZGKL,2007-06-26 06:00,ZGKL 260600Z AUTO 34004KT 5SM 28/25 A2956 RMK 60008 SLP013 T02750246 57014 IEM_DS3505
ZGKL,2007-06-26 07:00,ZGKL 260700Z AUTO 7SM 29/25 A2956 RMK T02900250 IEM_DS3505
ZGKL,2007-06-26 08:00,ZGKL 260800Z AUTO 00000KT 5SM 26/25 A2953 RMK T02600250 IEM_DS3505
ZGKL,2007-06-26 09:00,ZGKL 260900Z AUTO 09004KT 6SM 28/25 A2950 RMK SLP991 T02810251 57022 IEM_DS3505
ZGKL,2007-06-26 10:00,ZGKL 261000Z AUTO 00000KT 5SM 27/25 A2953 RMK T02700250 IEM_DS3505
ZGKL,2007-06-26 11:00,ZGKL 261100Z AUTO 7SM 26/25 A2953 RMK T02600250 IEM_DS3505
ZGKL,2007-06-26 12:00,ZGKL 261200Z AUTO 07002KT 5SM 27/26 A2956 RMK 60004 SLP013 T02700260 52022 IEM_DS3505
ZGKL,2007-06-26 13:00,ZGKL 261300Z AUTO 12004KT 4SM 26/25 A2959 RMK T02600250 IEM_DS3505
ZGKL,2007-06-26 14:00,ZGKL 261400Z AUTO 13004KT 4SM 26/25 A2959 RMK T02600250 IEM_DS3505
ZGKL,2007-06-26 15:00,ZGKL 261500Z AUTO 25002KT 4SM 26/24 A2962 RMK SLP025 T02610243 52012 IEM_DS3505
ZGKL,2007-06-26 16:00,ZGKL 261600Z AUTO 00000KT 4SM 25/24 A2959 RMK T02500240 IEM_DS3505
ZGKL,2007-06-26 17:00,ZGKL 261700Z AUTO 00000KT 4SM 25/24 A2962 RMK T02500240 IEM_DS3505
ZGKL,2007-06-26 18:00,ZGKL 261800Z AUTO 06004KT 6SM 26/24 A2959 RMK 60035 SLP019 T02580242 57006 IEM_DS3505
ZGKL,2007-06-26 19:00,ZGKL 261900Z AUTO 25/24 A2959 RMK T02500240 IEM_DS3505
ZGKL,2007-06-26 20:00,ZGKL 262000Z AUTO 15006KT 24/23 A2959 RMK T02400230 IEM_DS3505
ZGKL,2007-06-26 21:00,ZGKL 262100Z AUTO 18004KT 5SM 25/24 A2959 RMK 70054 SLP019 T02530241 54000 IEM_DS3505
ZGKL,2007-06-26 22:00,ZGKL 262200Z AUTO 00000KT 3SM 25/24 A2959 RMK T02500240 IEM_DS3505
ZGKL,2007-06-26 23:00,ZGKL 262300Z AUTO 00000KT 2 1/2SM 25/24 A2962 RMK T02500240 IEM_DS3505
ZGKL,2007-06-27 00:00,ZGKL 270000Z AUTO 14002KT 6SM 25/25 A2962 RMK 60024 70068 SLP032 T02540251 52012 IEM_DS3505
ZGKL,2007-06-27 01:00,ZGKL 270100Z AUTO 14004KT 5SM 26/24 A2965 RMK T02600240 IEM_DS3505
ZGKL,2007-06-27 02:00,ZGKL 270200Z AUTO 00000KT 5SM 27/25 A2962 RMK T02700250 IEM_DS3505
ZGKL,2007-06-27 03:00,ZGKL 270300Z AUTO 27004KT 7SM 27/25 A2962 RMK SLP028 T02730248 57003 IEM_DS3505
ZGKL,2007-06-27 04:00,ZGKL 270400Z AUTO 13004KT 7SM 29/25 A2962 RMK T02900250 IEM_DS3505
ZGKL,2007-06-27 05:00,ZGKL 270500Z AUTO 16006KT 7SM 31/26 A2959 RMK T03100260 IEM_DS3505
ZGKL,2007-06-27 06:00,ZGKL 270600Z AUTO 16002KT 7SM 30/26 A2956 RMK 60008 SLP009 T02960256 57018 IEM_DS3505
ZGKL,2007-06-27 07:00,ZGKL 270700Z AUTO 19014KT 7SM 28/25 A2956 RMK T02800250 IEM_DS3505
ZGKL,2007-06-27 08:00,ZGKL 270800Z AUTO 7SM 30/24 A2956 RMK T03000240 IEM_DS3505
ZGKL,2007-06-27 09:00,ZGKL 270900Z AUTO 07002KT 8SM 26/25 A2956 RMK SLP008 T02610251 57003 IEM_DS3505
ZGKL,2007-06-27 10:00,ZGKL 271000Z AUTO 7SM 26/25 A2956 RMK T02600250 IEM_DS3505
ZGKL,2007-06-27 11:00,ZGKL 271100Z AUTO 7SM 26/25 A2956 RMK T02600250 IEM_DS3505
ZGKL,2007-06-27 12:00,ZGKL 271200Z AUTO 09002KT 7SM 26/25 A2959 RMK 60016 SLP024 T02610254 52016 IEM_DS3505
ZGKL,2007-06-27 13:00,ZGKL 271300Z AUTO 00000KT 5SM 26/25 A2962 RMK T02600250 IEM_DS3505
ZGKL,2007-06-27 14:00,ZGKL 271400Z AUTO 00000KT 4SM 26/25 A2965 RMK T02600250 IEM_DS3505
ZGKL,2007-06-27 15:00,ZGKL 271500Z AUTO 00000KT 7SM 26/26 A2965 RMK SLP042 T02580258 52018 IEM_DS3505
ZGKL,2007-06-27 16:00,ZGKL 271600Z AUTO 00000KT 2 1/2SM 26/25 A2965 RMK T02600250 IEM_DS3505
ZGKL,2007-06-27 17:00,ZGKL 271700Z AUTO 2 1/2SM 26/25 A2965 RMK T02600250 IEM_DS3505
ZGKL,2007-06-27 18:00,ZGKL 271800Z AUTO 07002KT 6SM 25/25 A2965 RMK 60004 SLP033 T02540254 57008 IEM_DS3505
ZGKL,2007-06-27 19:00,ZGKL 271900Z AUTO 25/24 A2962 RMK T02500240 IEM_DS3505
ZGKL,2007-06-27 20:00,ZGKL 272000Z AUTO 25/24 A2962 RMK T02500240 IEM_DS3505
ZGKL,2007-06-27 21:00,ZGKL 272100Z AUTO 14004KT 6SM 25/25 A2962 RMK 70220 SLP032 T02460246 57002 IEM_DS3505
ZGKL,2007-06-27 22:00,ZGKL 272200Z AUTO 5SM 24/23 A2965 RMK T02400230 IEM_DS3505
ZGKL,2007-06-27 23:00,ZGKL 272300Z AUTO 7SM 24/23 A2965 RMK T02400230 IEM_DS3505
ZGKL,2007-06-28 00:00,ZGKL 280000Z AUTO 11002KT 8SM 25/25 A2965 RMK 60197 70226 SLP043 T02510251 52011 IEM_DS3505
ZGKL,2007-06-28 01:00,ZGKL 280100Z AUTO 15006KT 2SM 25/24 A2968 RMK T02500240 IEM_DS3505
ZGKL,2007-06-28 02:00,ZGKL 280200Z AUTO 00000KT 7SM 27/25 A2968 RMK T02700250 IEM_DS3505
ZGKL,2007-06-28 03:00,ZGKL 280300Z AUTO 07002KT 9SM 28/26 A2968 RMK SLP046 T02830259 52004 IEM_DS3505
ZGKL,2007-06-28 04:00,ZGKL 280400Z AUTO 00000KT 7SM 30/26 A2965 RMK T03000260 IEM_DS3505
ZGKL,2007-06-28 05:00,ZGKL 280500Z AUTO 00000KT 7SM 31/26 A2965 RMK T03100260 IEM_DS3505
ZGKL,2007-06-28 06:00,ZGKL 280600Z AUTO 22002KT 12SM 32/24 A2962 RMK 60000 SLP024 T03210244 57021 IEM_DS3505
ZGKL,2007-06-28 07:00,ZGKL 280700Z AUTO 7SM 32/25 A2959 RMK T03200250 IEM_DS3505
ZGKL,2007-06-28 08:00,ZGKL 280800Z AUTO 08008KT 7SM 30/25 A2959 RMK T03000250 IEM_DS3505
ZGKL,2007-06-28 09:00,ZGKL 280900Z AUTO 25002KT 11SM 28/25 A2959 RMK SLP019 T02760247 57006 IEM_DS3505
ZGKL,2007-06-28 10:00,ZGKL 281000Z AUTO 23004KT 7SM 28/25 A2962 RMK T02800250 IEM_DS3505
ZGKL,2007-06-28 11:00,ZGKL 281100Z AUTO 7SM 28/25 A2962 RMK T02800250 IEM_DS3505
ZGKL,2007-06-28 12:00,ZGKL 281200Z AUTO 29004KT 10SM 28/26 A2965 RMK 60008 SLP037 T02770263 52017 IEM_DS3505
ZGKL,2007-06-28 13:00,ZGKL 281300Z AUTO 6SM 27/25 A2968 RMK T02700250 IEM_DS3505
ZGKL,2007-06-28 14:00,ZGKL 281400Z AUTO 21002KT 7SM 26/25 A2968 RMK T02600250 IEM_DS3505
ZGKL,2007-06-28 15:00,ZGKL 281500Z AUTO 20004KT 10SM 27/25 A2971 RMK SLP055 T02720248 52019 IEM_DS3505
ZGKL,2007-06-28 16:00,ZGKL 281600Z AUTO 00000KT 7SM 26/25 A2971 RMK T02600250 IEM_DS3505
ZGKL,2007-06-28 17:00,ZGKL 281700Z AUTO 7SM 26/24 A2971 RMK T02600240 IEM_DS3505
ZGKL,2007-06-28 18:00,ZGKL 281800Z AUTO 20004KT 10SM 26/24 A2968 RMK 60000 SLP048 T02620237 57006 IEM_DS3505
ZGKL,2007-06-28 19:00,ZGKL 281900Z AUTO 00000KT 7SM 25/23 A2968 RMK T02500230 IEM_DS3505
ZGKL,2007-06-28 20:00,ZGKL 282000Z AUTO 00000KT 7SM 25/23 A2965 RMK T02500230 IEM_DS3505
ZGKL,2007-06-28 21:00,ZGKL 282100Z AUTO 18004KT 9SM 26/23 A2965 RMK 70028 SLP044 T02580231 57006 IEM_DS3505
ZGKL,2007-06-28 22:00,ZGKL 282200Z AUTO 00000KT 7SM 25/23 A2968 RMK T02500230 IEM_DS3505
ZGKL,2007-06-28 23:00,ZGKL 282300Z AUTO 00000KT 7SM 25/24 A2968 RMK T02500240 IEM_DS3505
ZGKL,2007-06-29 00:00,ZGKL 290000Z AUTO 11002KT 6SM 25/24 A2971 RMK 60000 70008 SLP056 T02480238 52012 IEM_DS3505
ZGKL,2007-06-29 01:00,ZGKL 290100Z AUTO 00000KT 7SM 25/24 A2971 RMK T02500240 IEM_DS3505
ZGKL,2007-06-29 02:00,ZGKL 290200Z AUTO 00000KT 7SM 27/24 A2971 RMK T02700240 IEM_DS3505
ZGKL,2007-06-29 03:00,ZGKL 290300Z AUTO 16004KT 7SM 28/24 A2971 RMK SLP051 T02850245 57004 IEM_DS3505
ZGKL,2007-06-29 04:00,ZGKL 290400Z AUTO 33002KT 7SM 28/24 A2968 RMK T02800240 IEM_DS3505
ZGKL,2007-06-29 05:00,ZGKL 290500Z AUTO 34006KT 7SM 29/25 A2968 RMK T02900250 IEM_DS3505
ZGKL,2007-06-29 06:00,ZGKL 290600Z AUTO 11004KT 14SM 31/24 A2965 RMK 60004 SLP032 T03100244 57018 IEM_DS3505
ZGKL,2007-06-29 07:00,ZGKL 290700Z AUTO 31004KT 7SM 30/25 A2962 RMK T03000250 IEM_DS3505
ZGKL,2007-06-29 08:00,ZGKL 290800Z AUTO 00000KT 7SM 31/25 A2959 RMK T03100250 IEM_DS3505
ZGKL,2007-06-29 09:00,ZGKL 290900Z AUTO 27004KT 17SM 32/24 A2959 RMK SLP011 T03240244 57020 IEM_DS3505
ZGKL,2007-06-29 10:00,ZGKL 291000Z AUTO 11012KT 25/24 A2962 RMK T02500240 IEM_DS3505
ZGKL,2007-06-29 11:00,ZGKL 291100Z AUTO 11012KT 1SM 25/24 A2962 RMK T02500240 IEM_DS3505
ZGKL,2007-06-29 12:00,ZGKL 291200Z AUTO 34002KT 9SM 26/24 A2965 RMK 60000 SLP037 T02600237 52023 IEM_DS3505
ZGKL,2007-06-29 13:00,ZGKL 291300Z AUTO 02008KT 7SM 25/24 A2968 RMK T02500240 IEM_DS3505
ZGKL,2007-06-29 14:00,ZGKL 291400Z AUTO 7SM 25/24 A2968 RMK T02500240 IEM_DS3505
ZGKL,2007-06-29 15:00,ZGKL 291500Z AUTO 36002KT 9SM 25/24 A2968 RMK SLP046 T02470244 52009 IEM_DS3505
ZGKL,2007-06-29 16:00,ZGKL 291600Z AUTO 30004KT 5SM 24/23 A2965 RMK T02400230 IEM_DS3505
ZGKL,2007-06-29 17:00,ZGKL 291700Z AUTO 32004KT 4SM 24/23 A2965 RMK T02400230 IEM_DS3505
ZGKL,2007-06-29 18:00,ZGKL 291800Z AUTO 02002KT 8SM 24/24 A2965 RMK 60008 SLP038 T02450245 57007 IEM_DS3505
ZGKL,2007-06-29 19:00,ZGKL 291900Z AUTO 00000KT 25/24 A2965 RMK T02500240 IEM_DS3505
ZGKL,2007-06-29 20:00,ZGKL 292000Z AUTO 00000KT 25/24 A2965 RMK T02500240 IEM_DS3505
ZGKL,2007-06-29 21:00,ZGKL 292100Z AUTO 36002KT 7SM 25/25 A2965 RMK 70012 SLP034 T02470247 57003 IEM_DS3505
ZGKL,2007-06-29 22:00,ZGKL 292200Z AUTO 00000KT 2 1/2SM 25/24 A2965 RMK T02500240 IEM_DS3505
ZGKL,2007-06-29 23:00,ZGKL 292300Z AUTO 00000KT 3SM 25/24 A2968 RMK T02500240 IEM_DS3505
ZGKL,2007-06-30 00:00,ZGKL 300000Z AUTO 02002KT 7SM 26/25 A2968 RMK 70012 SLP047 T02600253 52011 IEM_DS3505
ZGKL,2007-06-30 01:00,ZGKL 300100Z AUTO 00000KT 5SM 26/24 A2968 RMK T02600240 IEM_DS3505
ZGKL,2007-06-30 02:00,ZGKL 300200Z AUTO 6SM 27/25 A2968 RMK T02700250 IEM_DS3505
ZGKL,2007-06-30 03:00,ZGKL 300300Z AUTO 14006KT 9SM 29/23 A2968 RMK SLP045 T02910231 57001 IEM_DS3505
ZGKL,2007-06-30 04:00,ZGKL 300400Z AUTO 12010KT 7SM 30/24 A2968 RMK T03000240 IEM_DS3505
ZGKL,2007-06-30 05:00,ZGKL 300500Z AUTO 12006KT 7SM 30/24 A2965 RMK T03000240 IEM_DS3505
ZGKL,2007-06-30 06:00,ZGKL 300600Z AUTO 11004KT 14SM 32/23 A2962 RMK SLP025 T03170233 57019 IEM_DS3505
ZGKL,2007-06-30 07:00,ZGKL 300700Z AUTO 13010KT 7SM 32/24 A2959 RMK T03200240 IEM_DS3505
ZGKL,2007-06-30 08:00,ZGKL 300800Z AUTO 12010KT 7SM 30/24 A2959 RMK T03000240 IEM_DS3505
ZGKL,2007-06-30 09:00,ZGKL 300900Z AUTO 02004KT 12SM 27/24 A2956 RMK SLP015 T02690242 57012 IEM_DS3505
ZGKL,2007-06-30 10:00,ZGKL 301000Z AUTO 12008KT 5SM 26/24 A2959 RMK T02600240 IEM_DS3505
ZGKL,2007-06-30 11:00,ZGKL 301100Z AUTO 7SM 26/25 A2959 RMK T02600250 IEM_DS3505
ZGKL,2007-06-30 12:00,ZGKL 301200Z AUTO 04002KT 9SM 27/26 A2962 RMK 60012 SLP028 T02660256 52013 IEM_DS3505
ZGKL,2007-06-30 13:00,ZGKL 301300Z AUTO 5SM 26/25 A2962 RMK T02600250 IEM_DS3505
ZGKL,2007-06-30 14:00,ZGKL 301400Z AUTO 5SM 26/24 A2965 RMK T02600240 IEM_DS3505
ZGKL,2007-06-30 15:00,ZGKL 301500Z AUTO 36002KT 7SM 26/26 A2968 RMK SLP042 T02620262 52015 IEM_DS3505
ZGKL,2007-06-30 16:00,ZGKL 301600Z AUTO 00000KT 5SM 25/24 A2968 RMK T02500240 IEM_DS3505
ZGKL,2007-06-30 17:00,ZGKL 301700Z AUTO 30002KT 6SM 25/24 A2965 RMK T02500240 IEM_DS3505
ZGKL,2007-06-30 18:00,ZGKL 301800Z AUTO 04002KT 7SM 26/26 A2965 RMK 60000 SLP034 T02560256 57007 IEM_DS3505
ZGKL,2007-06-30 19:00,ZGKL 301900Z AUTO 00000KT 25/24 A2962 RMK T02500240 IEM_DS3505
ZGKL,2007-06-30 20:00,ZGKL 302000Z AUTO 00000KT 25/24 A2965 RMK T02500240 IEM_DS3505
ZGKL,2007-06-30 21:00,ZGKL 302100Z AUTO 14002KT 5SM 25/25 A2965 RMK 70013 SLP036 T02520252 54000 IEM_DS3505
ZGKL,2007-06-30 22:00,ZGKL 302200Z AUTO 00000KT 4SM 25/24 A2965 RMK T02500240 IEM_DS3505
ZGKL,2007-06-30 23:00,ZGKL 302300Z AUTO 5SM 25/24 A2965 RMK T02500240 IEM_DS3505
ZGKL,2007-07-01 00:00,ZGKL 010000Z AUTO 32002KT 7SM 26/26 A2968 RMK 60000 70014 SLP050 T02610258 52014 IEM_DS3505
ZGKL,2007-07-01 01:00,ZGKL 010100Z AUTO 09006KT 7SM 27/24 A2971 RMK T02700240 IEM_DS3505
ZGKL,2007-07-01 02:00,ZGKL 010200Z AUTO 12006KT 7SM 29/24 A2971 RMK T02900240 IEM_DS3505
ZGKL,2007-07-01 03:00,ZGKL 010300Z AUTO 10006KT 7SM 29/24 A2971 RMK SLP054 T02900241 52005 IEM_DS3505
ZGKL,2007-07-01 04:00,ZGKL 010400Z AUTO 13006KT 7SM 30/24 A2968 RMK T03000240 IEM_DS3505
ZGKL,2007-07-01 05:00,ZGKL 010500Z AUTO 14008KT 7SM 29/24 A2968 RMK T02900240 IEM_DS3505
ZGKL,2007-07-01 06:00,ZGKL 010600Z AUTO 20004KT 14SM 31/24 A2965 RMK SLP038 T03060235 57016 IEM_DS3505
ZGKL,2007-07-01 07:00,ZGKL 010700Z AUTO 7SM 28/25 A2962 RMK T02800250 IEM_DS3505
ZGKL,2007-07-01 08:00,ZGKL 010800Z AUTO 31004KT 7SM 28/26 A2962 RMK T02800260 IEM_DS3505
ZGKL,2007-07-01 09:00,ZGKL 010900Z AUTO 07004KT 16SM 30/24 A2962 RMK SLP026 T03020241 57012 IEM_DS3505
ZGKL,2007-07-01 10:00,ZGKL 011000Z AUTO 7SM 28/26 A2962 RMK T02800260 IEM_DS3505
ZGKL,2007-07-01 11:00,ZGKL 011100Z AUTO 22008G29KT 2SM 24/23 A2965 RMK T02400230 IEM_DS3505
ZGKL,2007-07-01 12:00,ZGKL 011200Z AUTO 20004KT 14SM 26/23 A2968 RMK 60004 SLP051 T02580231 52024 IEM_DS3505
ZGKL,2007-07-01 13:00,ZGKL 011300Z AUTO 7SM 25/23 A2971 RMK T02500230 IEM_DS3505
ZGKL,2007-07-01 14:00,ZGKL 011400Z AUTO 32004KT 7SM 24/24 A2974 RMK T02400240 IEM_DS3505
ZGKL,2007-07-01 15:00,ZGKL 011500Z AUTO 09002KT 12SM 25/24 A2977 RMK SLP074 T02540242 52023 IEM_DS3505
ZGKL,2007-07-01 16:00,ZGKL 011600Z AUTO 00000KT 7SM 25/24 A2974 RMK T02500240 IEM_DS3505
ZGKL,2007-07-01 17:00,ZGKL 011700Z AUTO 00000KT 7SM 25/24 A2974 RMK T02500240 IEM_DS3505
ZGKL,2007-07-01 18:00,ZGKL 011800Z AUTO 00000KT 11SM 25/24 A2971 RMK 60000 SLP055 T02520245 57018 IEM_DS3505
ZGKL,2007-07-01 19:00,ZGKL 011900Z AUTO 00000KT 25/24 A2971 RMK T02500240 IEM_DS3505
ZGKL,2007-07-01 20:00,ZGKL 012000Z AUTO 00000KT 24/24 A2971 RMK T02400240 IEM_DS3505
ZGKL,2007-07-01 21:00,ZGKL 012100Z AUTO 36002KT 10SM 25/25 A2971 RMK 70006 SLP052 T02470247 57003 IEM_DS3505
ZGKL,2007-07-01 22:00,ZGKL 012200Z AUTO 00000KT 4SM 24/24 A2971 RMK T02400240 IEM_DS3505
ZGKL,2007-07-01 23:00,ZGKL 012300Z AUTO 00000KT 3SM 25/24 A2971 RMK T02500240 IEM_DS3505
ZGKL,2007-07-02 00:00,ZGKL 020000Z AUTO 02002KT 6SM 26/25 A2971 RMK 70005 SLP062 T02560253 52008 IEM_DS3505
ZGKL,2007-07-02 01:00,ZGKL 020100Z AUTO 33004KT 7SM 26/25 A2974 RMK T02600250 IEM_DS3505
ZGKL,2007-07-02 02:00,ZGKL 020200Z AUTO 29004KT 7SM 27/25 A2974 RMK T02700250 IEM_DS3505
ZGKL,2007-07-02 03:00,ZGKL 020300Z AUTO 16004KT 5SM 29/24 A2974 RMK SLP062 T02920243 52001 IEM_DS3505
ZGKL,2007-07-02 04:00,ZGKL 020400Z AUTO 00000KT 7SM 28/25 A2971 RMK T02800250 IEM_DS3505
ZGKL,2007-07-02 05:00,ZGKL 020500Z AUTO 00000KT 7SM 29/25 A2971 RMK T02900250 IEM_DS3505
ZGKL,2007-07-02 06:00,ZGKL 020600Z AUTO 14006KT 15SM 30/24 A2971 RMK 60000 SLP050 T02960242 57011 IEM_DS3505
ZGKL,2007-07-02 07:00,ZGKL 020700Z AUTO 22004KT 7SM 30/26 A2968 RMK T03000260 IEM_DS3505
ZGKL,2007-07-02 08:00,ZGKL 020800Z AUTO 28004KT 7SM 30/24 A2965 RMK T03000240 IEM_DS3505
ZGKL,2007-07-02 09:00,ZGKL 020900Z AUTO 32004KT 11SM 30/26 A2965 RMK SLP032 T02980260 57018 IEM_DS3505
ZGKL,2007-07-02 10:00,ZGKL 021000Z AUTO 00000KT 7SM 30/26 A2962 RMK T03000260 IEM_DS3505
ZGKL,2007-07-02 11:00,ZGKL 021100Z AUTO 00000KT 7SM 28/26 A2965 RMK T02800260 IEM_DS3505
ZGKL,2007-07-02 12:00,ZGKL 021200Z AUTO 14006KT 10SM 29/25 A2968 RMK 60000 SLP044 T02870253 52012 IEM_DS3505
ZGKL,2007-07-02 13:00,ZGKL 021300Z AUTO 11006KT 7SM 27/25 A2968 RMK T02700250 IEM_DS3505
ZGKL,2007-07-02 14:00,ZGKL 021400Z AUTO 16002KT 7SM 26/23 A2971 RMK T02600230 IEM_DS3505
ZGKL,2007-07-02 15:00,ZGKL 021500Z AUTO 18002KT 10SM 27/23 A2974 RMK SLP064 T02700226 52020 IEM_DS3505
ZGKL,2007-07-02 16:00,ZGKL 021600Z AUTO 00000KT 7SM 25/24 A2974 RMK T02500240 IEM_DS3505
ZGKL,2007-07-02 17:00,ZGKL 021700Z AUTO 32004KT 7SM 25/24 A2974 RMK T02500240 IEM_DS3505
ZGKL,2007-07-02 18:00,ZGKL 021800Z AUTO 31004KT 10SM 26/23 A2971 RMK SLP057 T02560233 57007 IEM_DS3505
ZGKL,2007-07-02 19:00,ZGKL 021900Z AUTO 00000KT 24/23 A2971 RMK T02400230 IEM_DS3505
ZGKL,2007-07-02 20:00,ZGKL 022000Z AUTO 28002KT 24/23 A2971 RMK T02400230 IEM_DS3505
ZGKL,2007-07-02 21:00,ZGKL 022100Z AUTO 22002KT 11SM 25/24 A2971 RMK 70000 SLP059 T02530239 52002 IEM_DS3505
ZGKL,2007-07-02 22:00,ZGKL 022200Z AUTO 00000KT 7SM 24/24 A2971 RMK T02400240 IEM_DS3505
ZGKL,2007-07-02 23:00,ZGKL 022300Z AUTO 00000KT 7SM 25/24 A2974 RMK T02500240 IEM_DS3505
ZGKL,2007-07-03 00:00,ZGKL 030000Z AUTO 16004KT 14SM 27/24 A2974 RMK 70000 SLP066 T02730235 52007 IEM_DS3505
ZGKL,2007-07-03 01:00,ZGKL 030100Z AUTO 00000KT 7SM 27/24 A2974 RMK T02700240 IEM_DS3505
ZGKL,2007-07-03 02:00,ZGKL 030200Z AUTO 7SM 28/25 A2974 RMK T02800250 IEM_DS3505
ZGKL,2007-07-03 03:00,ZGKL 030300Z AUTO 18008KT 15SM 30/23 A2974 RMK SLP062 T03010230 57004 IEM_DS3505
ZGKL,2007-07-03 04:00,ZGKL 030400Z AUTO 17008KT 7SM 31/25 A2971 RMK T03100250 IEM_DS3505
ZGKL,2007-07-03 05:00,ZGKL 030500Z AUTO 17008KT 7SM 31/24 A2971 RMK T03100240 IEM_DS3505
ZGKL,2007-07-03 06:00,ZGKL 030600Z AUTO 18006KT 17SM 32/22 A2968 RMK SLP049 T03180225 57012 IEM_DS3505
ZGKL,2007-07-03 07:00,ZGKL 030700Z AUTO 11006KT 7SM 32/24 A2968 RMK T03200240 IEM_DS3505
ZGKL,2007-07-03 08:00,ZGKL 030800Z AUTO 12006KT 7SM 32/24 A2968 RMK T03200240 IEM_DS3505
ZGKL,2007-07-03 09:00,ZGKL 030900Z AUTO 18004KT 17SM 32/23 A2965 RMK SLP038 T03210231 57011 IEM_DS3505
ZGKL,2007-07-03 10:00,ZGKL 031000Z AUTO 13006KT 7SM 32/25 A2965 RMK T03200250 IEM_DS3505
ZGKL,2007-07-03 11:00,ZGKL 031100Z AUTO 23004KT 7SM 28/25 A2965 RMK T02800250 IEM_DS3505
ZGKL,2007-07-03 12:00,ZGKL 031200Z AUTO 00000KT 16SM 30/24 A2965 RMK SLP038 T02990243 54000 IEM_DS3505
ZGKL,2007-07-03 13:00,ZGKL 031300Z AUTO 6SM 27/25 A2968 RMK T02700250 IEM_DS3505
ZGKL,2007-07-03 14:00,ZGKL 031400Z AUTO 00000KT 7SM 26/25 A2968 RMK T02600250 IEM_DS3505
ZGKL,2007-07-03 15:00,ZGKL 031500Z AUTO 07002KT 11SM 28/24 A2971 RMK SLP051 T02760242 52013 IEM_DS3505
ZGKL,2007-07-03 16:00,ZGKL 031600Z AUTO 00000KT 6SM 26/25 A2968 RMK T02600250 IEM_DS3505
ZGKL,2007-07-03 17:00,ZGKL 031700Z AUTO 00000KT 6SM 26/25 A2968 RMK T02600250 IEM_DS3505
ZGKL,2007-07-03 18:00,ZGKL 031800Z AUTO 07002KT 10SM 26/24 A2965 RMK SLP040 T02650243 57011 IEM_DS3505
ZGKL,2007-07-03 19:00,ZGKL 031900Z AUTO 00000KT 25/25 A2965 RMK T02500250 IEM_DS3505
ZGKL,2007-07-03 20:00,ZGKL 032000Z AUTO 00000KT 25/25 A2965 RMK T02500250 IEM_DS3505
ZGKL,2007-07-03 21:00,ZGKL 032100Z AUTO 09002KT 8SM 26/25 A2965 RMK SLP039 T02550248 57001 IEM_DS3505
ZGKL,2007-07-03 22:00,ZGKL 032200Z AUTO 00000KT 7SM 25/24 A2968 RMK T02500240 IEM_DS3505
ZGKL,2007-07-03 23:00,ZGKL 032300Z AUTO 00000KT 6SM 26/25 A2968 RMK T02600250 IEM_DS3505
ZGKL,2007-07-04 00:00,ZGKL 040000Z AUTO 07002KT 9SM 28/25 A2968 RMK SLP049 T02810249 52010 IEM_DS3505
ZGKL,2007-07-04 01:00,ZGKL 040100Z AUTO 7SM 29/25 A2968 RMK T02900250 IEM_DS3505
ZGKL,2007-07-04 02:00,ZGKL 040200Z AUTO 7SM 29/25 A2968 RMK T02900250 IEM_DS3505
ZGKL,2007-07-04 03:00,ZGKL 040300Z AUTO 18004KT 9SM 31/23 A2968 RMK SLP042 T03070234 57007 IEM_DS3505
ZGKL,2007-07-04 04:00,ZGKL 040400Z AUTO 00000KT 7SM 32/24 A2965 RMK T03200240 IEM_DS3505
ZGKL,2007-07-04 05:00,ZGKL 040500Z AUTO 7SM 32/24 A2962 RMK T03200240 IEM_DS3505
ZGKL,2007-07-04 06:00,ZGKL 040600Z AUTO 20006KT 14SM 34/23 A2959 RMK SLP019 T03410228 57022 IEM_DS3505
ZGKL,2007-07-04 07:00,ZGKL 040700Z AUTO 00000KT 7SM 34/25 A2959 RMK T03400250 IEM_DS3505
ZGKL,2007-07-04 08:00,ZGKL 040800Z AUTO 12008KT 7SM 33/25 A2959 RMK T03300250 IEM_DS3505
ZGKL,2007-07-04 09:00,ZGKL 040900Z AUTO 14006KT 16SM 34/23 A2956 RMK SLP007 T03350229 57012 IEM_DS3505
ZGKL,2007-07-04 10:00,ZGKL 041000Z AUTO 13006KT 7SM 32/25 A2956 RMK T03200250 IEM_DS3505
ZGKL,2007-07-04 11:00,ZGKL 041100Z AUTO 7SM 31/26 A2956 RMK T03100260 IEM_DS3505
ZGKL,2007-07-04 12:00,ZGKL 041200Z AUTO 18004KT 12SM 32/23 RMK SLP015 T03170230 52008 IEM_DS3505
ZGKL,2007-07-04 13:00,ZGKL 041300Z AUTO 00000KT 7SM 29/26 A2959 RMK T02900260 IEM_DS3505
ZGKL,2007-07-04 14:00,ZGKL 041400Z AUTO 15004KT 7SM 29/25 A2962 RMK T02900250 IEM_DS3505
ZGKL,2007-07-04 15:00,ZGKL 041500Z AUTO 18004KT 10SM 30/24 A2962 RMK SLP030 T03010235 52015 IEM_DS3505
ZGKL,2007-07-04 16:00,ZGKL 041600Z AUTO 12004KT 7SM 27/24 A2962 RMK T02700240 IEM_DS3505
ZGKL,2007-07-04 17:00,ZGKL 041700Z AUTO 00000KT 7SM 27/25 A2962 RMK T02700250 IEM_DS3505
ZGKL,2007-07-04 18:00,ZGKL 041800Z AUTO 18004KT 11SM 29/23 A2959 RMK SLP018 T02880230 57011 IEM_DS3505
ZGKL,2007-07-04 19:00,ZGKL 041900Z AUTO 00000KT 26/25 A2959 RMK T02600250 IEM_DS3505
ZGKL,2007-07-04 20:00,ZGKL 042000Z AUTO 00000KT 26/25 A2959 RMK T02600250 IEM_DS3505
ZGKL,2007-07-04 21:00,ZGKL 042100Z AUTO 11002KT 10SM 27/24 A2962 RMK SLP025 T02730244 52006 IEM_DS3505
ZGKL,2007-07-04 22:00,ZGKL 042200Z AUTO 12004KT 5SM 26/24 A2962 RMK T02600240 IEM_DS3505
ZGKL,2007-07-04 23:00,ZGKL 042300Z AUTO 00000KT 6SM 26/24 A2965 RMK T02600240 IEM_DS3505
ZGKL,2007-07-05 00:00,ZGKL 050000Z AUTO 02002KT 9SM 27/24 A2968 RMK SLP040 T02740243 52014 IEM_DS3505
ZGKL,2007-07-05 01:00,ZGKL 050100Z AUTO 00000KT 7SM 28/25 A2965 RMK T02800250 IEM_DS3505
ZGKL,2007-07-05 02:00,ZGKL 050200Z AUTO 08004KT 7SM 29/25 A2965 RMK T02900250 IEM_DS3505
ZGKL,2007-07-05 03:00,ZGKL 050300Z AUTO 16006KT 11SM 31/23 A2965 RMK SLP035 T03090230 57004 IEM_DS3505
ZGKL,2007-07-05 04:00,ZGKL 050400Z AUTO 14008KT 7SM 30/23 A2965 RMK T03000230 IEM_DS3505
ZGKL,2007-07-05 05:00,ZGKL 050500Z AUTO 12008KT 7SM 32/23 A2962 RMK T03200230 IEM_DS3505
ZGKL,2007-07-05 06:00,ZGKL 050600Z AUTO 14006KT 16SM 33/22 A2959 RMK SLP015 T03310225 57019 IEM_DS3505
ZGKL,2007-07-05 07:00,ZGKL 050700Z AUTO 15008KT 7SM 32/23 A2959 RMK T03200230 IEM_DS3505
ZGKL,2007-07-05 08:00,ZGKL 050800Z AUTO 13006KT 7SM 32/24 A2956 RMK T03200240 IEM_DS3505
ZGKL,2007-07-05 09:00,ZGKL 050900Z AUTO 16006KT 16SM 33/22 A2956 RMK SLP005 T03330221 57011 IEM_DS3505
ZGKL,2007-07-05 10:00,ZGKL 051000Z AUTO 16006KT 7SM 31/24 A2956 RMK T03100240 IEM_DS3505
ZGKL,2007-07-05 11:00,ZGKL 051100Z AUTO 00000KT 7SM 31/24 A2959 RMK T03100240 IEM_DS3505
ZGKL,2007-07-05 12:00,ZGKL 051200Z AUTO 11002KT 15SM 31/23 A2959 RMK SLP019 T03130226 52014 IEM_DS3505
ZGKL,2007-07-05 13:00,ZGKL 051300Z AUTO 29004KT 7SM 26/25 A2962 RMK T02600250 IEM_DS3505
ZGKL,2007-07-05 14:00,ZGKL 051400Z AUTO 00000KT 6SM 26/25 A2962 RMK T02600250 IEM_DS3505
ZGKL,2007-07-05 15:00,ZGKL 051500Z AUTO 27002KT 14SM 29/24 A2965 RMK SLP032 T02900243 52013 IEM_DS3505
ZGKL,2007-07-05 16:00,ZGKL 051600Z AUTO 27002KT 7SM 26/25 A2965 RMK T02600250 IEM_DS3505
ZGKL,2007-07-05 17:00,ZGKL 051700Z AUTO 00000KT 7SM 26/25 A2962 RMK T02600250 IEM_DS3505
ZGKL,2007-07-05 18:00,ZGKL 051800Z AUTO 04002KT 9SM 27/25 A2962 RMK SLP025 T02710251 57007 IEM_DS3505
ZGKL,2007-07-05 19:00,ZGKL 051900Z AUTO 00000KT 6SM 26/25 A2962 RMK T02600250 IEM_DS3505
ZGKL,2007-07-05 20:00,ZGKL 052000Z AUTO 6SM 25/24 A2962 RMK T02500240 IEM_DS3505
ZGKL,2007-07-05 21:00,ZGKL 052100Z AUTO 34002KT 9SM 27/25 A2965 RMK SLP036 T02660252 52011 IEM_DS3505
ZGKL,2007-07-05 22:00,ZGKL 052200Z AUTO 34004KT 7SM 25/25 A2968 RMK T02500250 IEM_DS3505
ZGKL,2007-07-05 23:00,ZGKL 052300Z AUTO 7SM 26/25 A2968 RMK T02600250 IEM_DS3505
ZGKL,2007-07-06 00:00,ZGKL 060000Z AUTO 00000KT 9SM 27/25 A2971 RMK SLP052 T02730246 52015 IEM_DS3505
ZGKL,2007-07-06 01:00,ZGKL 060100Z AUTO 00000KT 7SM 28/25 A2971 RMK T02800250 IEM_DS3505
ZGKL,2007-07-06 02:00,ZGKL 060200Z AUTO 11010KT 7SM 30/24 A2971 RMK T03000240 IEM_DS3505
ZGKL,2007-07-06 03:00,ZGKL 060300Z AUTO 16008KT 14SM 32/22 A2971 RMK SLP052 T03220223 52001 IEM_DS3505
ZGKL,2007-07-06 04:00,ZGKL 060400Z AUTO 32006KT 7SM 28/25 A2971 RMK T02800250 IEM_DS3505
ZGKL,2007-07-06 05:00,ZGKL 060500Z AUTO 33006KT 7SM 31/25 A2968 RMK T03100250 IEM_DS3505
ZGKL,2007-07-06 06:00,ZGKL 060600Z AUTO 18008KT 17SM 33/22 A2968 RMK SLP041 T03290217 57011 IEM_DS3505
ZGKL,2007-07-06 07:00,ZGKL 060700Z AUTO 21004KT 7SM 33/23 A2965 RMK T03300230 IEM_DS3505
ZGKL,2007-07-06 08:00,ZGKL 060800Z AUTO 19004KT 7SM 32/23 A2965 RMK T03200230 IEM_DS3505
ZGKL,2007-07-06 09:00,ZGKL 060900Z AUTO 18006KT 17SM 34/22 A2965 RMK SLP032 T03380219 57009 IEM_DS3505
ZGKL,2007-07-06 10:00,ZGKL 061000Z AUTO 00000KT 6SM 32/26 A2965 RMK T03200260 IEM_DS3505
ZGKL,2007-07-06 11:00,ZGKL 061100Z AUTO 00000KT 6SM 30/26 A2965 RMK T03000260 IEM_DS3505
ZGKL,2007-07-06 12:00,ZGKL 061200Z AUTO 20002KT 16SM 31/23 A2965 RMK SLP039 T03110232 52006 IEM_DS3505
ZGKL,2007-07-06 13:00,ZGKL 061300Z AUTO 00000KT 6SM 27/26 A2968 RMK T02700260 IEM_DS3505
ZGKL,2007-07-06 14:00,ZGKL 061400Z AUTO 00000KT 6SM 27/25 A2971 RMK T02700250 IEM_DS3505
ZGKL,2007-07-06 15:00,ZGKL 061500Z AUTO 02002KT 12SM 28/24 A2971 RMK SLP059 T02790239 52020 IEM_DS3505
ZGKL,2007-07-06 16:00,ZGKL 061600Z AUTO 7SM 26/25 A2971 RMK T02600250 IEM_DS3505
ZGKL,2007-07-06 17:00,ZGKL 061700Z AUTO 00000KT 7SM 26/25 A2971 RMK T02600250 IEM_DS3505
ZGKL,2007-07-06 18:00,ZGKL 061800Z AUTO 07002KT 11SM 27/24 A2971 RMK SLP054 T02710242 57005 IEM_DS3505
ZGKL,2007-07-06 19:00,ZGKL 061900Z AUTO 00000KT 26/25 A2971 RMK T02600250 IEM_DS3505
ZGKL,2007-07-06 20:00,ZGKL 062000Z AUTO 00000KT 26/25 A2971 RMK T02600250 IEM_DS3505
ZGKL,2007-07-06 21:00,ZGKL 062100Z AUTO 18002KT 10SM 28/24 A2974 RMK 70000 SLP058 T02790245 52005 IEM_DS3505
ZGKL,2007-07-06 22:00,ZGKL 062200Z AUTO 00000KT 7SM 26/24 A2974 RMK T02600240 IEM_DS3505
ZGKL,2007-07-06 23:00,ZGKL 062300Z AUTO 19004KT 7SM 26/24 A2977 RMK T02600240 IEM_DS3505
ZGKL,2007-07-07 00:00,ZGKL 070000Z AUTO 22004KT 10SM 28/24 A2977 RMK 60012 70010 SLP078 T02760242 52018 IEM_DS3505
ZGKL,2007-07-07 01:00,ZGKL 070100Z AUTO 19006KT 7SM 30/24 A2977 RMK T03000240 IEM_DS3505
ZGKL,2007-07-07 02:00,ZGKL 070200Z AUTO 18008KT 7SM 31/25 A2977 RMK T03100250 IEM_DS3505
ZGKL,2007-07-07 03:00,ZGKL 070300Z AUTO 18006KT 10SM 31/24 A2977 RMK SLP077 T03110237 54000 IEM_DS3505
ZGKL,2007-07-07 04:00,ZGKL 070400Z AUTO 20008KT 7SM 32/24 A2974 RMK T03200240 IEM_DS3505
ZGKL,2007-07-07 05:00,ZGKL 070500Z AUTO 20010KT 7SM 32/23 A2974 RMK T03200230 IEM_DS3505
ZGKL,2007-07-07 06:00,ZGKL 070600Z AUTO 16004KT 11SM 32/24 A2971 RMK 60000 SLP059 T03220240 57018 IEM_DS3505
ZGKL,2007-07-07 07:00,ZGKL 070700Z AUTO 18010KT 7SM 33/23 A2971 RMK T03300230 IEM_DS3505
ZGKL,2007-07-07 08:00,ZGKL 070800Z AUTO 21004KT 7SM 34/23 A2968 RMK T03400230 IEM_DS3505
ZGKL,2007-07-07 09:00,ZGKL 070900Z AUTO 16004KT 11SM 33/23 A2968 RMK SLP040 T03340228 57018 IEM_DS3505
ZGKL,2007-07-07 10:00,ZGKL 071000Z AUTO 00000KT 7SM 33/23 A2968 RMK T03300230 IEM_DS3505
ZGKL,2007-07-07 11:00,ZGKL 071100Z AUTO 00000KT 6SM 31/24 A2968 RMK T03100240 IEM_DS3505
ZGKL,2007-07-07 12:00,ZGKL 071200Z AUTO 20002KT 11SM 32/24 A2968 RMK SLP046 T03150239 52005 IEM_DS3505
ZGKL,2007-07-07 13:00,ZGKL 071300Z AUTO 00000KT 6SM 28/25 A2968 RMK T02800250 IEM_DS3505
ZGKL,2007-07-07 14:00,ZGKL 071400Z AUTO 00000KT 6SM 27/25 A2971 RMK T02700250 IEM_DS3505
ZGKL,2007-07-07 15:00,ZGKL 071500Z AUTO 00000KT 9SM 29/25 A2971 RMK SLP052 T02870253 52006 IEM_DS3505
ZGKL,2007-07-07 16:00,ZGKL 071600Z AUTO 00000KT 6SM 26/25 A2971 RMK T02600250 IEM_DS3505
ZGKL,2007-07-07 17:00,ZGKL 071700Z AUTO 00000KT 4SM 26/24 A2971 RMK T02600240 IEM_DS3505
ZGKL,2007-07-07 18:00,ZGKL 071800Z AUTO 36002KT 9SM 27/25 A2968 RMK SLP049 T02730249 57003 IEM_DS3505
ZGKL,2007-07-07 19:00,ZGKL 071900Z AUTO 00000KT 26/25 A2968 RMK T02600250 IEM_DS3505
ZGKL,2007-07-07 20:00,ZGKL 072000Z AUTO 00000KT 26/25 A2968 RMK T02600250 IEM_DS3505
ZGKL,2007-07-07 21:00,ZGKL 072100Z AUTO 20006KT 9SM 28/24 A2968 RMK 70010 SLP047 T02810239 57001 IEM_DS3505
ZGKL,2007-07-07 22:00,ZGKL 072200Z AUTO 00000KT 4SM 26/25 A2968 RMK T02600250 IEM_DS3505
ZGKL,2007-07-07 23:00,ZGKL 072300Z AUTO 18006KT 4SM 27/24 A2971 RMK T02700240 IEM_DS3505
ZGKL,2007-07-08 00:00,ZGKL 080000Z AUTO 20004KT 9SM 28/23 A2971 RMK 60000 70000 SLP057 T02850234 52009 IEM_DS3505
ZGKL,2007-07-08 01:00,ZGKL 080100Z AUTO 18012KT 7SM 28/23 A2971 RMK T02800230 IEM_DS3505
ZGKL,2007-07-08 02:00,ZGKL 080200Z AUTO 20008KT 7SM 28/24 A2971 RMK T02800240 IEM_DS3505
ZGKL,2007-07-08 03:00,ZGKL 080300Z AUTO 22006KT 9SM 28/23 A2971 RMK SLP053 T02840229 57005 IEM_DS3505
ZGKL,2007-07-08 04:00,ZGKL 080400Z AUTO 18010KT 7SM 30/23 A2968 RMK T03000230 IEM_DS3505
ZGKL,2007-07-08 05:00,ZGKL 080500Z AUTO 18010KT 7SM 32/24 A2965 RMK T03200240 IEM_DS3505
ZGKL,2007-07-08 06:00,ZGKL 080600Z AUTO 27010KT 14SM 32/22 A2965 RMK SLP031 T03200224 57021 IEM_DS3505
ZGKL,2007-07-08 07:00,ZGKL 080700Z AUTO 19012KT 7SM 32/23 A2962 RMK T03200230 IEM_DS3505
ZGKL,2007-07-08 08:00,ZGKL 080800Z AUTO 19014KT 7SM 31/23 A2962 RMK T03100230 IEM_DS3505
ZGKL,2007-07-08 09:00,ZGKL 080900Z AUTO 25010KT 16SM 33/22 A2959 RMK SLP014 T03270222 57016 IEM_DS3505
ZGKL,2007-07-08 10:00,ZGKL 081000Z AUTO 19012KT 7SM 32/23 A2959 RMK T03200230 IEM_DS3505
ZGKL,2007-07-08 11:00,ZGKL 081100Z AUTO 19010KT 7SM 30/23 A2959 RMK T03000230 IEM_DS3505
ZGKL,2007-07-08 12:00,ZGKL 081200Z AUTO 20008KT 16SM 31/23 A2959 RMK SLP018 T03090233 52004 IEM_DS3505
ZGKL,2007-07-08 13:00,ZGKL 081300Z AUTO 18006KT 7SM 28/24 A2959 RMK T02800240 IEM_DS3505
ZGKL,2007-07-08 14:00,ZGKL 081400Z AUTO 00000KT 7SM 28/24 A2962 RMK T02800240 IEM_DS3505
ZGKL,2007-07-08 15:00,ZGKL 081500Z AUTO 18004KT 12SM 30/24 A2962 RMK SLP027 T02950239 52008 IEM_DS3505
ZGKL,2007-07-08 16:00,ZGKL 081600Z AUTO 00000KT 5SM 26/24 A2962 RMK T02600240 IEM_DS3505
ZGKL,2007-07-08 17:00,ZGKL 081700Z AUTO 00000KT 4SM 25/24 A2962 RMK T02500240 IEM_DS3505
ZGKL,2007-07-08 18:00,ZGKL 081800Z AUTO 22002KT 12SM 29/23 A2959 RMK SLP019 T02880230 57007 IEM_DS3505
ZGKL,2007-07-08 19:00,ZGKL 081900Z AUTO 00000KT 4SM 25/24 A2959 RMK T02500240 IEM_DS3505
ZGKL,2007-07-08 20:00,ZGKL 082000Z AUTO 00000KT 4SM 25/24 A2959 RMK T02500240 IEM_DS3505
ZGKL,2007-07-08 21:00,ZGKL 082100Z AUTO 16004KT 11SM 28/24 A2959 RMK SLP018 T02780236 57001 IEM_DS3505
ZGKL,2007-07-08 22:00,ZGKL 082200Z AUTO 00000KT 4SM 26/24 A2962 RMK T02600240 IEM_DS3505
ZGKL,2007-07-08 23:00,ZGKL 082300Z AUTO 18002KT 5SM 26/25 A2962 RMK T02600250 IEM_DS3505
ZGKL,2007-07-09 00:00,ZGKL 090000Z AUTO 22006KT 10SM 29/23 A2962 RMK SLP029 T02900230 52011 IEM_DS3505
ZGKL,2007-07-09 01:00,ZGKL 090100Z AUTO 18010KT 7SM 29/24 A2962 RMK T02900240 IEM_DS3505
ZGKL,2007-07-09 02:00,ZGKL 090200Z AUTO 18012KT 7SM 30/25 A2962 RMK T03000250 IEM_DS3505
ZGKL,2007-07-09 03:00,ZGKL 090300Z AUTO 22006KT 10SM 30/23 A2962 RMK SLP025 T03030227 57004 IEM_DS3505
ZGKL,2007-07-09 04:00,ZGKL 090400Z AUTO 19008KT 7SM 30/24 A2962 RMK T03000240 IEM_DS3505
ZGKL,2007-07-09 05:00,ZGKL 090500Z AUTO 19010KT 7SM 31/24 A2959 RMK T03100240 IEM_DS3505
ZGKL,2007-07-09 06:00,ZGKL 090600Z AUTO 20006KT 15SM 32/23 A2959 RMK SLP011 T03200227 57014 IEM_DS3505
ZGKL,2007-07-09 07:00,ZGKL 090700Z AUTO 20008KT 7SM 33/24 A2956 RMK T03300240 IEM_DS3505
ZGKL,2007-07-09 08:00,ZGKL 090800Z AUTO 18010KT 7SM 31/24 A2956 RMK T03100240 IEM_DS3505
ZGKL,2007-07-09 09:00,ZGKL 090900Z AUTO 20006KT 12SM 31/23 A2953 RMK SLP998 T03140227 57013 IEM_DS3505
ZGKL,2007-07-09 10:00,ZGKL 091000Z AUTO 18010KT 6SM 31/24 A2953 RMK T03100240 IEM_DS3505
ZGKL,2007-07-09 11:00,ZGKL 091100Z AUTO 17006KT 6SM 30/25 A2953 RMK T03000250 IEM_DS3505
ZGKL,2007-07-09 12:00,ZGKL 091200Z AUTO 27002KT 11SM 30/24 A2956 RMK SLP007 T03030235 52009 IEM_DS3505
ZGKL,2007-07-09 13:00,ZGKL 091300Z AUTO 27002KT 6SM 27/25 A2959 RMK T02700250 IEM_DS3505
ZGKL,2007-07-09 14:00,ZGKL 091400Z AUTO 28002KT 6SM 26/25 A2959 RMK T02600250 IEM_DS3505
ZGKL,2007-07-09 15:00,ZGKL 091500Z AUTO 09002KT 10SM 28/25 A2959 RMK SLP020 T02760247 52012 IEM_DS3505
ZGKL,2007-07-09 16:00,ZGKL 091600Z AUTO 00000KT 7SM 26/25 A2959 RMK T02600250 IEM_DS3505
ZGKL,2007-07-09 17:00,ZGKL 091700Z AUTO 00000KT 5SM 25/24 A2959 RMK T02500240 IEM_DS3505
ZGKL,2007-07-09 18:00,ZGKL 091800Z AUTO 20002KT 10SM 27/25 A2956 RMK SLP010 T02720248 57009 IEM_DS3505
ZGKL,2007-07-09 19:00,ZGKL 091900Z AUTO 00000KT 25/24 A2956 RMK T02500240 IEM_DS3505
ZGKL,2007-07-09 20:00,ZGKL 092000Z AUTO 15004KT 4SM 26/24 A2956 RMK T02600240 IEM_DS3505
ZGKL,2007-07-09 21:00,ZGKL 092100Z AUTO 11004KT 9SM 27/24 A2956 RMK SLP011 T02740245 52001 IEM_DS3505
ZGKL,2007-07-09 22:00,ZGKL 092200Z AUTO 19006KT 4SM 26/25 A2959 RMK T02600250 IEM_DS3505
ZGKL,2007-07-09 23:00,ZGKL 092300Z AUTO 18008KT 4SM 27/25 A2959 RMK T02700250 IEM_DS3505
ZGKL,2007-07-10 00:00,ZGKL 100000Z AUTO 16006KT 9SM 29/24 A2959 RMK SLP020 T02870240 52009 IEM_DS3505
ZGKL,2007-07-10 01:00,ZGKL 100100Z AUTO 18012KT 7SM 28/24 A2962 RMK T02800240 IEM_DS3505
ZGKL,2007-07-10 02:00,ZGKL 100200Z AUTO 18012KT 7SM 28/24 A2962 RMK T02800240 IEM_DS3505
ZGKL,2007-07-10 03:00,ZGKL 100300Z AUTO 22004KT 9SM 29/23 A2962 RMK SLP025 T02940234 52004 IEM_DS3505
ZGKL,2007-07-10 04:00,ZGKL 100400Z AUTO 19010KT 7SM 29/24 A2962 RMK T02900240 IEM_DS3505
ZGKL,2007-07-10 05:00,ZGKL 100500Z AUTO 20008KT 4SM 28/25 A2959 RMK T02800250 IEM_DS3505
ZGKL,2007-07-10 06:00,ZGKL 100600Z AUTO 27002KT 9SM 30/24 A2959 RMK SLP013 T03000239 57012 IEM_DS3505
ZGKL,2007-07-10 07:00,ZGKL 100700Z AUTO 21004KT 7SM 30/25 A2956 RMK T03000250 IEM_DS3505
ZGKL,2007-07-10 08:00,ZGKL 100800Z AUTO 23004KT 7SM 31/25 A2956 RMK T03100250 IEM_DS3505
ZGKL,2007-07-10 09:00,ZGKL 100900Z AUTO 29004KT 9SM 31/24 A2953 RMK SLP997 T03100242 57015 IEM_DS3505
ZGKL,2007-07-10 10:00,ZGKL 101000Z AUTO 00000KT 5SM 31/25 A2953 RMK T03100250 IEM_DS3505
ZGKL,2007-07-10 11:00,ZGKL 101100Z AUTO 5SM 29/26 A2953 RMK T02900260 IEM_DS3505
ZGKL,2007-07-10 12:00,ZGKL 101200Z AUTO 02002KT 9SM 29/25 A2956 RMK SLP003 T02910253 52006 IEM_DS3505
ZGKL,2007-07-10 13:00,ZGKL 101300Z AUTO 33004KT 3SM 28/26 A2956 RMK T02800260 IEM_DS3505
ZGKL,2007-07-10 14:00,ZGKL 101400Z AUTO 32004KT 3SM 27/26 A2959 RMK T02700260 IEM_DS3505
ZGKL,2007-07-10 15:00,ZGKL 101500Z AUTO 00000KT 8SM 27/25 A2959 RMK SLP017 T02720250 52013 IEM_DS3505
ZGKL,2007-07-10 16:00,ZGKL 101600Z AUTO 00000KT 3SM 27/25 A2959 RMK T02700250 IEM_DS3505
ZGKL,2007-07-10 17:00,ZGKL 101700Z AUTO 00000KT 3SM 26/25 A2959 RMK T02600250 IEM_DS3505
ZGKL,2007-07-10 18:00,ZGKL 101800Z AUTO 04002KT 8SM 27/25 A2956 RMK SLP011 T02690247 57006 IEM_DS3505
ZGKL,2007-07-10 19:00,ZGKL 101900Z AUTO 12002KT 2 1/2SM 26/25 A2956 RMK T02600250 IEM_DS3505
ZGKL,2007-07-10 20:00,ZGKL 102000Z AUTO 26002KT 1 1/2SM 26/25 A2953 RMK T02600250 IEM_DS3505
ZGKL,2007-07-10 21:00,ZGKL 102100Z AUTO 32002KT 7SM 26/26 A2956 RMK SLP004 T02640255 57007 IEM_DS3505
ZGKL,2007-07-10 22:00,ZGKL 102200Z AUTO 32004KT 1 1/4SM 25/24 A2956 RMK T02500240 IEM_DS3505
ZGKL,2007-07-10 23:00,ZGKL 102300Z AUTO 00000KT 2SM 26/25 A2956 RMK T02600250 IEM_DS3505
ZGKL,2007-07-11 00:00,ZGKL 110000Z AUTO 04002KT 3SM 28/26 A2959 RMK SLP014 T02750259 52010 IEM_DS3505
ZGKL,2007-07-11 01:00,ZGKL 110100Z AUTO 00000KT 3SM 28/25 A2959 RMK T02800250 IEM_DS3505
ZGKL,2007-07-11 02:00,ZGKL 110200Z AUTO 4SM 29/26 A2959 RMK T02900260 IEM_DS3505
ZGKL,2007-07-11 03:00,ZGKL 110300Z AUTO 20004KT 9SM 30/24 A2959 RMK SLP019 T03020244 52005 IEM_DS3505
ZGKL,2007-07-11 04:00,ZGKL 110400Z AUTO 19012KT 7SM 30/25 A2959 RMK T03000250 IEM_DS3505
ZGKL,2007-07-11 05:00,ZGKL 110500Z AUTO 19008KT 7SM 31/25 A2956 RMK T03100250 IEM_DS3505
ZGKL,2007-07-11 06:00,ZGKL 110600Z AUTO 18004KT 9SM 33/24 A2953 RMK SLP999 T03270242 57019 IEM_DS3505
ZGKL,2007-07-11 07:00,ZGKL 110700Z AUTO 18008KT 7SM 33/25 A2950 RMK T03300250 IEM_DS3505
ZGKL,2007-07-11 08:00,ZGKL 110800Z AUTO 20006KT 7SM 34/25 A2950 RMK T03400250 IEM_DS3505
ZGKL,2007-07-11 09:00,ZGKL 110900Z AUTO 22004KT 10SM 34/24 A2947 RMK SLP978 T03400237 57020 IEM_DS3505
ZGKL,2007-07-11 10:00,ZGKL 111000Z AUTO 22004KT 7SM 33/25 A2947 RMK T03300250 IEM_DS3505
ZGKL,2007-07-11 11:00,ZGKL 111100Z AUTO 00000KT 7SM 31/27 A2950 RMK T03100270 IEM_DS3505
ZGKL,2007-07-11 12:00,ZGKL 111200Z AUTO 02002KT 9SM 31/26 A2950 RMK SLP985 T03130256 52006 IEM_DS3505
ZGKL,2007-07-11 13:00,ZGKL 111300Z AUTO 32004KT 3SM 29/27 A2950 RMK T02900270 IEM_DS3505
ZGKL,2007-07-11 14:00,ZGKL 111400Z AUTO 33002KT 3SM 28/26 A2953 RMK T02800260 IEM_DS3505
ZGKL,2007-07-11 15:00,ZGKL 111500Z AUTO 00000KT 9SM 29/25 A2953 RMK SLP996 T02880254 52011 IEM_DS3505
ZGKL,2007-07-11 16:00,ZGKL 111600Z AUTO 00000KT 2 1/2SM 27/26 A2953 RMK T02700260 IEM_DS3505
ZGKL,2007-07-11 17:00,ZGKL 111700Z AUTO 00000KT 2 1/2SM 27/26 A2953 RMK T02700260 IEM_DS3505
ZGKL,2007-07-11 18:00,ZGKL 111800Z AUTO 09002KT 9SM 28/25 A2953 RMK SLP993 T02790253 57002 IEM_DS3505
ZGKL,2007-07-11 19:00,ZGKL 111900Z AUTO 00000KT 27/26 A2953 RMK T02700260 IEM_DS3505
ZGKL,2007-07-11 20:00,ZGKL 112000Z AUTO 00000KT 26/25 A2953 RMK T02600250 IEM_DS3505
ZGKL,2007-07-11 21:00,ZGKL 112100Z AUTO 07002KT 7SM 27/26 A2953 RMK SLP989 T02690257 57004 IEM_DS3505
ZGKL,2007-07-11 22:00,ZGKL 112200Z AUTO 00000KT 1 1/2SM 26/25 A2953 RMK T02600250 IEM_DS3505
ZGKL,2007-07-11 23:00,ZGKL 112300Z AUTO 00000KT 2SM 26/26 A2953 RMK T02600260 IEM_DS3505
ZGKL,2007-07-12 00:00,ZGKL 120000Z AUTO 04002KT 6SM 29/26 A2953 RMK SLP002 T02900256 52012 IEM_DS3505
ZGKL,2007-07-12 01:00,ZGKL 120100Z AUTO 21006KT 6SM 31/25 A2953 RMK T03100250 IEM_DS3505
ZGKL,2007-07-12 02:00,ZGKL 120200Z AUTO 19014KT 7SM 32/24 A2956 RMK T03200240 IEM_DS3505
ZGKL,2007-07-12 03:00,ZGKL 120300Z AUTO 25004KT 8SM 32/24 A2956 RMK SLP002 T03170235 54000 IEM_DS3505
ZGKL,2007-07-12 04:00,ZGKL 120400Z AUTO 18008KT 7SM 34/24 A2953 RMK T03400240 IEM_DS3505
ZGKL,2007-07-12 05:00,ZGKL 120500Z AUTO 19010KT 7SM 34/23 A2950 RMK T03400230 IEM_DS3505
ZGKL,2007-07-12 06:00,ZGKL 120600Z AUTO 16004KT 12SM 35/23 A2947 RMK SLP977 T03460227 57024 IEM_DS3505
ZGKL,2007-07-12 07:00,ZGKL 120700Z AUTO 21006KT 7SM 34/24 A2947 RMK T03400240 IEM_DS3505
ZGKL,2007-07-12 08:00,ZGKL 120800Z AUTO 21006KT 6SM 34/24 A2944 RMK T03400240 IEM_DS3505
ZGKL,2007-07-12 09:00,ZGKL 120900Z AUTO 27006KT 14SM 34/23 A2944 RMK SLP961 T03440231 57016 IEM_DS3505
ZGKL,2007-07-12 10:00,ZGKL 121000Z AUTO 16006KT 6SM 33/24 A2944 RMK T03300240 IEM_DS3505
ZGKL,2007-07-12 11:00,ZGKL 121100Z AUTO 20004KT 6SM 32/25 A2944 RMK T03200250 IEM_DS3505
ZGKL,2007-07-12 12:00,ZGKL 121200Z AUTO 04002KT 9SM 32/25 A2947 RMK SLP973 T03170248 52012 IEM_DS3505
ZGKL,2007-07-12 13:00,ZGKL 121300Z AUTO 00000KT 3SM 29/26 A2950 RMK T02900260 IEM_DS3505
ZGKL,2007-07-12 14:00,ZGKL 121400Z AUTO 00000KT 3SM 28/26 A2953 RMK T02800260 IEM_DS3505
ZGKL,2007-07-12 15:00,ZGKL 121500Z AUTO 09002KT 9SM 29/25 A2953 RMK SLP994 T02910247 52021 IEM_DS3505
ZGKL,2007-07-12 16:00,ZGKL 121600Z AUTO 33004KT 3SM 27/26 A2953 RMK T02700260 IEM_DS3505
ZGKL,2007-07-12 17:00,ZGKL 121700Z AUTO 3SM 27/25 A2950 RMK T02700250 IEM_DS3505
ZGKL,2007-07-12 18:00,ZGKL 121800Z AUTO 07002KT 8SM 27/25 A2950 RMK SLP984 T02730246 57010 IEM_DS3505
ZGKL,2007-07-12 19:00,ZGKL 121900Z AUTO 00000KT 27/25 A2950 RMK T02700250 IEM_DS3505
ZGKL,2007-07-12 20:00,ZGKL 122000Z AUTO 00000KT 4SM 26/25 A2950 RMK T02600250 IEM_DS3505
ZGKL,2007-07-12 21:00,ZGKL 122100Z AUTO 07002KT 7SM 27/24 A2950 RMK SLP985 T02700243 52001 IEM_DS3505
ZGKL,2007-07-12 22:00,ZGKL 122200Z AUTO 33002KT 4SM 26/25 A2950 RMK T02600250 IEM_DS3505
ZGKL,2007-07-12 23:00,ZGKL 122300Z AUTO 00000KT 4SM 27/25 A2950 RMK T02700250 IEM_DS3505
ZGKL,2007-07-13 00:00,ZGKL 130000Z AUTO 07004KT 6SM 29/25 A2953 RMK SLP991 T02890249 52006 IEM_DS3505
ZGKL,2007-07-13 01:00,ZGKL 130100Z AUTO 16008KT 4SM 30/26 A2953 RMK T03000260 IEM_DS3505
ZGKL,2007-07-13 02:00,ZGKL 130200Z AUTO 18006KT 7SM 32/26 A2953 RMK T03200260 IEM_DS3505
ZGKL,2007-07-13 03:00,ZGKL 130300Z AUTO 18006KT 9SM 32/24 A2953 RMK SLP992 T03200235 52001 IEM_DS3505
ZGKL,2007-07-13 04:00,ZGKL 130400Z AUTO 18012KT 7SM 32/25 A2950 RMK T03200250 IEM_DS3505
ZGKL,2007-07-13 05:00,ZGKL 130500Z AUTO 19008KT 7SM 33/25 A2950 RMK T03300250 IEM_DS3505
ZGKL,2007-07-13 06:00,ZGKL 130600Z AUTO 25006KT 11SM 34/23 A2947 RMK SLP968 T03390227 57024 IEM_DS3505
ZGKL,2007-07-13 07:00,ZGKL 130700Z AUTO 28006KT 7SM 34/25 A2944 RMK T03400250 IEM_DS3505
ZGKL,2007-07-13 08:00,ZGKL 130800Z AUTO 20006KT 6SM 33/25 A2944 RMK T03300250 IEM_DS3505
ZGKL,2007-07-13 09:00,ZGKL 130900Z AUTO 02004KT 11SM 34/25 A2941 RMK SLP953 T03370251 57015 IEM_DS3505
ZGKL,2007-07-13 10:00,ZGKL 131000Z AUTO 00000KT 7SM 33/26 A2941 RMK T03300260 IEM_DS3505
ZGKL,2007-07-13 11:00,ZGKL 131100Z AUTO 00000KT 6SM 31/27 A2944 RMK T03100270 IEM_DS3505
ZGKL,2007-07-13 12:00,ZGKL 131200Z AUTO 18004KT 9SM 31/23 A2944 RMK SLP967 T03100234 52014 IEM_DS3505
ZGKL,2007-07-13 13:00,ZGKL 131300Z AUTO 18006KT 4SM 30/26 A2947 RMK T03000260 IEM_DS3505
ZGKL,2007-07-13 14:00,ZGKL 131400Z AUTO 18006KT 4SM 29/25 A2950 RMK T02900250 IEM_DS3505
ZGKL,2007-07-13 15:00,ZGKL 131500Z AUTO 21004KT 9SM 30/25 A2950 RMK SLP984 T03000246 52017 IEM_DS3505
ZGKL,2007-07-13 16:00,ZGKL 131600Z AUTO 00000KT 4SM 28/25 A2950 RMK T02800250 IEM_DS3505
ZGKL,2007-07-13 17:00,ZGKL 131700Z AUTO 00000KT 4SM 27/26 A2950 RMK T02700260 IEM_DS3505
ZGKL,2007-07-13 18:00,ZGKL 131800Z AUTO 32002KT 7SM 29/26 A2950 RMK SLP984 T02870255 54000 IEM_DS3505
ZGKL,2007-07-13 19:00,ZGKL 131900Z AUTO 00000KT 5SM 27/25 A2950 RMK T02700250 IEM_DS3505
ZGKL,2007-07-13 20:00,ZGKL 132000Z AUTO 00000KT 4SM 26/25 A2950 RMK T02600250 IEM_DS3505
ZGKL,2007-07-13 21:00,ZGKL 132100Z AUTO 32002KT 7SM 27/24 A2950 RMK SLP982 T02700245 57002 IEM_DS3505
ZGKL,2007-07-13 22:00,ZGKL 132200Z AUTO 2SM 26/25 A2950 RMK T02600250 IEM_DS3505
ZGKL,2007-07-13 23:00,ZGKL 132300Z AUTO 7SM 26/25 A2953 RMK T02600250 IEM_DS3505
ZGKL,2007-07-14 00:00,ZGKL 140000Z AUTO 04004KT 3SM 26/26 A2953 RMK 60020 70019 SLP004 T02580258 52020 IEM_DS3505
ZGKL,2007-07-14 01:00,ZGKL 140100Z AUTO 35004KT 7SM 27/25 A2956 RMK T02700250 IEM_DS3505
ZGKL,2007-07-14 02:00,ZGKL 140200Z AUTO 05004KT 5SM 28/26 A2953 RMK T02800260 IEM_DS3505
ZGKL,2007-07-14 03:00,ZGKL 140300Z AUTO 07002KT 6SM 29/26 A2953 RMK SLP003 T02870255 54000 IEM_DS3505
ZGKL,2007-07-14 04:00,ZGKL 140400Z AUTO 18006KT 5SM 30/26 A2953 RMK T03000260 IEM_DS3505
ZGKL,2007-07-14 05:00,ZGKL 140500Z AUTO 27006KT 7SM 31/26 A2953 RMK T03100260 IEM_DS3505
ZGKL,2007-07-14 06:00,ZGKL 140600Z AUTO 18004KT 7SM 29/25 A2950 RMK 60008 SLP993 T02860254 57010 IEM_DS3505
ZGKL,2007-07-14 07:00,ZGKL 140700Z AUTO 24004KT 7SM 32/25 A2950 RMK T03200250 IEM_DS3505
ZGKL,2007-07-14 08:00,ZGKL 140800Z AUTO 7SM 33/24 A2947 RMK T03300240 IEM_DS3505
ZGKL,2007-07-14 09:00,ZGKL 140900Z AUTO 02004KT 8SM 31/26 A2947 RMK SLP980 T03100260 57013 IEM_DS3505
ZGKL,2007-07-14 10:00,ZGKL 141000Z AUTO 34006KT 7SM 31/26 A2947 RMK T03100260 IEM_DS3505
ZGKL,2007-07-14 11:00,ZGKL 141100Z AUTO 04006KT 6SM 31/25 A2950 RMK T03100250 IEM_DS3505
ZGKL,2007-07-14 12:00,ZGKL 141200Z AUTO 07002KT 7SM 29/26 A2950 RMK 60004 SLP988 T02920260 52007 IEM_DS3505
ZGKL,2007-07-14 13:00,ZGKL 141300Z AUTO 00000KT 3SM 28/26 A2953 RMK T02800260 IEM_DS3505
ZGKL,2007-07-14 14:00,ZGKL 141400Z AUTO 00000KT 3SM 28/26 A2956 RMK T02800260 IEM_DS3505
ZGKL,2007-07-14 15:00,ZGKL 141500Z AUTO 36004KT 7SM 28/26 A2959 RMK SLP012 T02780260 52024 IEM_DS3505
ZGKL,2007-07-14 17:00,ZGKL 141700Z AUTO 4SM 27/26 A2956 RMK T02700260 IEM_DS3505
ZGKL,2007-07-14 18:00,ZGKL 141800Z AUTO 09002KT 7SM 26/26 A2956 RMK 60071 SLP012 T02590257 57001 IEM_DS3505
ZGKL,2007-07-14 19:00,ZGKL 141900Z AUTO 26/25 A2956 RMK T02600250 IEM_DS3505
ZGKL,2007-07-14 20:00,ZGKL 142000Z AUTO 26/25 A2959 RMK T02600250 IEM_DS3505
ZGKL,2007-07-14 21:00,ZGKL 142100Z AUTO 02004KT 8SM 26/26 A2959 RMK 70103 SLP016 T02590257 52005 IEM_DS3505
ZGKL,2007-07-14 22:00,ZGKL 142200Z AUTO 32002KT 2SM 25/25 A2959 RMK T02500250 IEM_DS3505
ZGKL,2007-07-14 23:00,ZGKL 142300Z AUTO 29010KT 1SM 25/25 A2962 RMK T02500250 IEM_DS3505
ZGKL,2007-07-15 00:00,ZGKL 150000Z AUTO 16006KT 2SM 24/24 A2962 RMK 60205 70290 SLP035 T02450245 52018 IEM_DS3505
ZGKL,2007-07-15 01:00,ZGKL 150100Z AUTO 5SM 25/24 A2965 RMK T02500240 IEM_DS3505
ZGKL,2007-07-15 02:00,ZGKL 150200Z AUTO 31004KT 5SM 25/24 A2965 RMK T02500240 IEM_DS3505
ZGKL,2007-07-15 03:00,ZGKL 150300Z AUTO 36004KT 5SM 25/25 A2965 RMK SLP040 T02470247 52004 IEM_DS3505
ZGKL,2007-07-15 04:00,ZGKL 150400Z AUTO 7SM 28/26 A2965 RMK T02800260 IEM_DS3505
ZGKL,2007-07-15 05:00,ZGKL 150500Z AUTO 7SM 28/26 A2965 RMK T02800260 IEM_DS3505
ZGKL,2007-07-15 06:00,ZGKL 150600Z AUTO 29002KT 8SM 29/26 A2962 RMK 60063 SLP029 T02930263 57010 IEM_DS3505
ZGKL,2007-07-15 07:00,ZGKL 150700Z AUTO 16006KT 5SM 29/26 A2959 RMK T02900260 IEM_DS3505
ZGKL,2007-07-15 08:00,ZGKL 150800Z AUTO 00000KT 5SM 29/25 A2959 RMK T02900250 IEM_DS3505
ZGKL,2007-07-15 09:00,ZGKL 150900Z AUTO 14002KT 10SM 30/26 A2959 RMK SLP013 T02960256 57015 IEM_DS3505
ZGKL,2007-07-15 10:00,ZGKL 151000Z AUTO 00000KT 4SM 28/26 A2956 RMK T02800260 IEM_DS3505
ZGKL,2007-07-15 11:00,ZGKL 151100Z AUTO 00000KT 5SM 28/26 A2959 RMK T02800260 IEM_DS3505
ZGKL,2007-07-15 12:00,ZGKL 151200Z AUTO 00000KT 9SM 28/26 A2959 RMK SLP019 T02840260 52005 IEM_DS3505
ZGKL,2007-07-15 13:00,ZGKL 151300Z AUTO 00000KT 3SM 27/26 A2962 RMK T02700260 IEM_DS3505
ZGKL,2007-07-15 14:00,ZGKL 151400Z AUTO 00000KT 3SM 26/25 A2962 RMK T02600250 IEM_DS3505
ZGKL,2007-07-15 15:00,ZGKL 151500Z AUTO 16002KT 7SM 27/26 A2962 RMK SLP033 T02700260 52013 IEM_DS3505
ZGKL,2007-07-15 16:00,ZGKL 151600Z AUTO 00000KT 2SM 26/25 A2962 RMK T02600250 IEM_DS3505
ZGKL,2007-07-15 17:00,ZGKL 151700Z AUTO 00000KT 1 1/4SM 25/25 A2962 RMK T02500250 IEM_DS3505
ZGKL,2007-07-15 18:00,ZGKL 151800Z AUTO 16002KT 7SM 26/26 RMK SLP030 T02650263 57002 IEM_DS3505
ZGKL,2007-07-15 21:00,ZGKL 152100Z AUTO 00000KT 7SM 26/26 RMK 70269 SLP026 T02580258 57004 IEM_DS3505
ZGKL,2007-07-15 23:00,ZGKL 152300Z AUTO 00000KT 1SM 25/24 A2965 RMK T02500240 IEM_DS3505
ZGKL,2007-07-16 00:00,ZGKL 160000Z AUTO 18006KT 6SM 28/26 A2965 RMK 70063 SLP037 T02770257 52011 IEM_DS3505
ZGKL,2007-07-16 01:00,ZGKL 160100Z AUTO 00000KT 1 1/2SM 27/26 A2965 RMK T02700260 IEM_DS3505
ZGKL,2007-07-16 02:00,ZGKL 160200Z AUTO 00000KT 3SM 28/26 A2965 RMK T02800260 IEM_DS3505
ZGKL,2007-07-16 03:00,ZGKL 160300Z AUTO 18004KT 7SM 30/25 A2965 RMK SLP036 T03020250 54000 IEM_DS3505
ZGKL,2007-07-16 04:00,ZGKL 160400Z AUTO 17010KT 7SM 32/26 A2965 RMK T03200260 IEM_DS3505
ZGKL,2007-07-16 05:00,ZGKL 160500Z AUTO 19010KT 7SM 34/25 A2962 RMK T03400250 IEM_DS3505
ZGKL,2007-07-16 06:00,ZGKL 160600Z AUTO 18006KT 9SM 33/24 A2959 RMK SLP016 T03320238 57019 IEM_DS3505
ZGKL,2007-07-16 07:00,ZGKL 160700Z AUTO 19012KT 7SM 35/25 A2956 RMK T03500250 IEM_DS3505
ZGKL,2007-07-16 08:00,ZGKL 160800Z AUTO 21012KT 7SM 35/24 A2953 RMK T03500240 IEM_DS3505
ZGKL,2007-07-16 09:00,ZGKL 160900Z AUTO 20004KT 9SM 34/24 A2953 RMK SLP992 T03410238 57024 IEM_DS3505
ZGKL,2007-07-16 10:00,ZGKL 161000Z AUTO 19010KT 7SM 30/25 A2953 RMK T03000250 IEM_DS3505
ZGKL,2007-07-16 11:00,ZGKL 161100Z AUTO 19006KT 7SM 30/25 A2956 RMK T03000250 IEM_DS3505
ZGKL,2007-07-16 12:00,ZGKL 161200Z AUTO 18004KT 11SM 29/25 A2956 RMK 60001 SLP011 T02930251 52018 IEM_DS3505
ZGKL,2007-07-16 13:00,ZGKL 161300Z AUTO 19004KT 7SM 29/25 A2959 RMK T02900250 IEM_DS3505
ZGKL,2007-07-16 14:00,ZGKL 161400Z AUTO 17008KT 7SM 29/25 A2959 RMK T02900250 IEM_DS3505
ZGKL,2007-07-16 15:00,ZGKL 161500Z AUTO 14004KT 10SM 28/25 A2959 RMK SLP018 T02820248 52007 IEM_DS3505
ZGKL,2007-07-16 16:00,ZGKL 161600Z AUTO 13006KT 7SM 28/25 A2959 RMK T02800250 IEM_DS3505
ZGKL,2007-07-16 17:00,ZGKL 161700Z AUTO 7SM 27/25 A2959 RMK T02700250 IEM_DS3505
ZGKL,2007-07-16 18:00,ZGKL 161800Z AUTO 20006KT 9SM 29/24 A2959 RMK SLP019 T02870243 52002 IEM_DS3505
ZGKL,2007-07-16 19:00,ZGKL 161900Z AUTO 16010KT 28/24 A2959 RMK T02800240 IEM_DS3505
ZGKL,2007-07-16 20:00,ZGKL 162000Z AUTO 16010KT 7SM 28/24 A2959 RMK T02800240 IEM_DS3505
ZGKL,2007-07-16 21:00,ZGKL 162100Z AUTO 18004KT 9SM 28/24 A2962 RMK 70001 SLP022 T02840240 52004 IEM_DS3505
ZGKL,2007-07-16 22:00,ZGKL 162200Z AUTO 15008KT 7SM 28/24 A2962 RMK T02800240 IEM_DS3505
ZGKL,2007-07-16 23:00,ZGKL 162300Z AUTO 16004KT 7SM 28/25 A2962 RMK T02800250 IEM_DS3505
ZGKL,2007-07-17 00:00,ZGKL 170000Z AUTO 20006KT 9SM 29/24 A2962 RMK 70001 SLP029 T02880237 52005 IEM_DS3505
ZGKL,2007-07-17 01:00,ZGKL 170100Z AUTO 14008KT 7SM 30/25 A2962 RMK T03000250 IEM_DS3505
ZGKL,2007-07-17 02:00,ZGKL 170200Z AUTO 13010KT 7SM 29/25 A2965 RMK T02900250 IEM_DS3505
ZGKL,2007-07-17 03:00,ZGKL 170300Z AUTO 18006KT 10SM 30/24 A2965 RMK SLP033 T03020236 52004 IEM_DS3505
ZGKL,2007-07-17 04:00,ZGKL 170400Z AUTO 7SM 30/26 A2962 RMK T03000260 IEM_DS3505
ZGKL,2007-07-17 05:00,ZGKL 170500Z AUTO 7SM 32/26 A2959 RMK T03200260 IEM_DS3505
ZGKL,2007-07-17 06:00,ZGKL 170600Z AUTO 18006KT 14SM 33/24 A2956 RMK SLP010 T03260238 57022 IEM_DS3505
ZGKL,2007-07-17 07:00,ZGKL 170700Z AUTO 19010KT 7SM 34/24 A2956 RMK T03400240 IEM_DS3505
ZGKL,2007-07-17 08:00,ZGKL 170800Z AUTO 19010KT 7SM 33/24 A2953 RMK T03300240 IEM_DS3505
ZGKL,2007-07-17 09:00,ZGKL 170900Z AUTO 14002KT 12SM 32/24 A2956 RMK SLP997 T03240239 57012 IEM_DS3505
ZGKL,2007-07-17 10:00,ZGKL 171000Z AUTO 17006KT 7SM 28/25 A2956 RMK T02800250 IEM_DS3505
ZGKL,2007-07-17 11:00,ZGKL 171100Z AUTO 16006KT 7SM 28/25 A2959 RMK T02800250 IEM_DS3505
ZGKL,2007-07-17 12:00,ZGKL 171200Z AUTO 36002KT 9SM 26/26 A2959 RMK 60012 SLP017 T02650262 52018 IEM_DS3505
ZGKL,2007-07-17 13:00,ZGKL 171300Z AUTO 6SM 28/24 A2959 RMK T02800240 IEM_DS3505
ZGKL,2007-07-17 14:00,ZGKL 171400Z AUTO 6SM 26/25 A2962 RMK T02600250 IEM_DS3505
ZGKL,2007-07-17 15:00,ZGKL 171500Z AUTO 04002KT 9SM 26/25 A2962 RMK SLP029 T02610252 52012 IEM_DS3505
ZGKL,2007-07-17 16:00,ZGKL 171600Z AUTO 31004KT 4SM 26/25 A2962 RMK T02600250 IEM_DS3505
ZGKL,2007-07-17 18:00,ZGKL 171800Z AUTO 00000KT 9SM 26/26 A2962 RMK SLP028 T02590259 57001 IEM_DS3505
ZGKL,2007-07-17 19:00,ZGKL 171900Z AUTO 12002KT 26/25 A2962 RMK T02600250 IEM_DS3505
ZGKL,2007-07-17 20:00,ZGKL 172000Z AUTO 26004KT 26/25 A2962 RMK T02600250 IEM_DS3505
ZGKL,2007-07-17 21:00,ZGKL 172100Z AUTO 18004KT 8SM 28/24 A2962 RMK 70012 SLP025 T02810237 57002 IEM_DS3505
ZGKL,2007-07-17 22:00,ZGKL 172200Z AUTO 16008KT 7SM 28/24 A2962 RMK T02800240 IEM_DS3505
ZGKL,2007-07-17 23:00,ZGKL 172300Z AUTO 14006KT 7SM 27/25 A2965 RMK T02700250 IEM_DS3505
ZGKL,2007-07-18 00:00,ZGKL 180000Z AUTO 18006KT 9SM 28/24 A2965 RMK 70012 SLP038 T02820236 52011 IEM_DS3505
ZGKL,2007-07-18 01:00,ZGKL 180100Z AUTO 15006KT 7SM 29/25 A2968 RMK T02900250 IEM_DS3505
ZGKL,2007-07-18 02:00,ZGKL 180200Z AUTO 17012KT 7SM 30/25 A2968 RMK T03000250 IEM_DS3505
ZGKL,2007-07-18 03:00,ZGKL 180300Z AUTO 18006KT 9SM 31/24 A2968 RMK SLP041 T03070241 52004 IEM_DS3505
ZGKL,2007-07-18 04:00,ZGKL 180400Z AUTO 20010KT 7SM 31/26 A2965 RMK T03100260 IEM_DS3505
ZGKL,2007-07-18 05:00,ZGKL 180500Z AUTO 18016KT 7SM 32/25 A2962 RMK T03200250 IEM_DS3505
ZGKL,2007-07-18 06:00,ZGKL 180600Z AUTO 16010KT 12SM 32/24 A2962 RMK SLP025 T03230238 57016 IEM_DS3505
ZGKL,2007-07-18 07:00,ZGKL 180700Z AUTO 19012KT 7SM 32/26 A2959 RMK T03200260 IEM_DS3505
ZGKL,2007-07-18 08:00,ZGKL 180800Z AUTO 19004KT 7SM 31/26 A2959 RMK T03100260 IEM_DS3505
ZGKL,2007-07-18 09:00,ZGKL 180900Z AUTO 18008KT 14SM 33/24 A2956 RMK SLP009 T03310237 57015 IEM_DS3505
ZGKL,2007-07-18 10:00,ZGKL 181000Z AUTO 17004KT 7SM 31/26 A2956 RMK T03100260 IEM_DS3505
ZGKL,2007-07-18 11:00,ZGKL 181100Z AUTO 13004KT 7SM 31/26 A2959 RMK T03100260 IEM_DS3505
ZGKL,2007-07-18 12:00,ZGKL 181200Z AUTO 18004KT 16SM 31/23 A2959 RMK 60004 SLP014 T03140232 52005 IEM_DS3505
ZGKL,2007-07-18 13:00,ZGKL 181300Z AUTO 19006KT 7SM 29/25 A2962 RMK T02900250 IEM_DS3505
ZGKL,2007-07-18 14:00,ZGKL 181400Z AUTO 7SM 29/25 A2962 RMK T02900250 IEM_DS3505
ZGKL,2007-07-18 15:00,ZGKL 181500Z AUTO 18004KT 12SM 30/23 A2965 RMK SLP032 T03020229 52018 IEM_DS3505
ZGKL,2007-07-18 16:00,ZGKL 181600Z AUTO 15008KT 6SM 28/24 A2965 RMK T02800240 IEM_DS3505
ZGKL,2007-07-18 17:00,ZGKL 181700Z AUTO 16012KT 6SM 28/23 A2965 RMK T02800230 IEM_DS3505
ZGKL,2007-07-18 18:00,ZGKL 181800Z AUTO 22002KT 11SM 29/24 A2965 RMK SLP031 T02940236 57001 IEM_DS3505
ZGKL,2007-07-18 19:00,ZGKL 181900Z AUTO 00000KT 7SM 28/23 A2962 RMK T02800230 IEM_DS3505
ZGKL,2007-07-18 20:00,ZGKL 182000Z AUTO 00000KT 7SM 27/23 A2962 RMK T02700230 IEM_DS3505
ZGKL,2007-07-18 21:00,ZGKL 182100Z AUTO 22004KT 9SM 29/23 A2965 RMK 70005 SLP030 T02900234 57001 IEM_DS3505
ZGKL,2007-07-18 22:00,ZGKL 182200Z AUTO 19004KT 7SM 27/23 A2965 RMK T02700230 IEM_DS3505
ZGKL,2007-07-18 23:00,ZGKL 182300Z AUTO 17012KT 7SM 28/23 A2968 RMK T02800230 IEM_DS3505
ZGKL,2007-07-19 00:00,ZGKL 190000Z AUTO 20006KT 9SM 29/23 A2968 RMK 70005 SLP045 T02940234 52015 IEM_DS3505
ZGKL,2007-07-19 01:00,ZGKL 190100Z AUTO 17010KT 7SM 28/24 A2968 RMK T02800240 IEM_DS3505
ZGKL,2007-07-19 02:00,ZGKL 190200Z AUTO 18014KT 7SM 30/25 A2968 RMK T03000250 IEM_DS3505
ZGKL,2007-07-19 03:00,ZGKL 190300Z AUTO 18006KT 9SM 31/23 A2968 RMK SLP044 T03130234 57001 IEM_DS3505
ZGKL,2007-07-19 04:00,ZGKL 190400Z AUTO 19010KT 7SM 31/25 A2968 RMK T03100250 IEM_DS3505
ZGKL,2007-07-19 05:00,ZGKL 190500Z AUTO 16006KT 7SM 28/26 A2968 RMK T02800260 IEM_DS3505
ZGKL,2007-07-19 06:00,ZGKL 190600Z AUTO 32002KT 7SM 28/26 A2965 RMK 60020 SLP037 T02800264 57008 IEM_DS3505
ZGKL,2007-07-19 07:00,ZGKL 190700Z AUTO 20008KT 7SM 30/26 A2962 RMK T03000260 IEM_DS3505
ZGKL,2007-07-19 08:00,ZGKL 190800Z AUTO 10006KT 7SM 31/26 A2962 RMK T03100260 IEM_DS3505
ZGKL,2007-07-19 09:00,ZGKL 190900Z AUTO 02002KT 9SM 29/26 A2962 RMK SLP024 T02900260 57013 IEM_DS3505
ZGKL,2007-07-19 10:00,ZGKL 191000Z AUTO 14004KT 7SM 27/25 A2962 RMK T02700250 IEM_DS3505
ZGKL,2007-07-19 11:00,ZGKL 191100Z AUTO 00000KT 7SM 27/25 A2965 RMK T02700250 IEM_DS3505
ZGKL,2007-07-19 12:00,ZGKL 191200Z AUTO 20002KT 7SM 28/28 A2965 RMK 60016 SLP037 T02770275 52013 IEM_DS3505
ZGKL,2007-07-19 13:00,ZGKL 191300Z AUTO 00000KT 7SM 27/26 A2968 RMK T02700260 IEM_DS3505
ZGKL,2007-07-19 14:00,ZGKL 191400Z AUTO 4SM 26/25 A2968 RMK T02600250 IEM_DS3505
ZGKL,2007-07-19 15:00,ZGKL 191500Z AUTO 25002KT 7SM 28/25 A2971 RMK SLP049 T02750253 52012 IEM_DS3505
ZGKL,2007-07-19 16:00,ZGKL 191600Z AUTO 19006KT 7SM 26/23 A2971 RMK T02600230 IEM_DS3505
ZGKL,2007-07-19 17:00,ZGKL 191700Z AUTO 17004KT 7SM 25/23 A2971 RMK T02500230 IEM_DS3505
ZGKL,2007-07-19 18:00,ZGKL 191800Z AUTO 04002KT 7SM 27/23 A2971 RMK SLP056 T02710231 52006 IEM_DS3505
ZGKL,2007-07-19 19:00,ZGKL 191900Z AUTO 00000KT 7SM 24/23 A2971 RMK T02400230 IEM_DS3505
ZGKL,2007-07-19 20:00,ZGKL 192000Z AUTO 00000KT 7SM 24/23 A2971 RMK T02400230 IEM_DS3505
ZGKL,2007-07-19 21:00,ZGKL 192100Z AUTO 07002KT 7SM 25/24 A2971 RMK 70035 SLP057 T02530244 54000 IEM_DS3505
ZGKL,2007-07-19 22:00,ZGKL 192200Z AUTO 00000KT 3SM 24/23 A2971 RMK T02400230 IEM_DS3505
ZGKL,2007-07-19 23:00,ZGKL 192300Z AUTO 00000KT 5SM 25/23 A2974 RMK T02500230 IEM_DS3505
ZGKL,2007-07-20 00:00,ZGKL 200000Z AUTO 22002KT 7SM 26/24 A2974 RMK 70035 SLP072 T02630238 52015 IEM_DS3505
ZGKL,2007-07-20 01:00,ZGKL 200100Z AUTO 00000KT 6SM 26/25 A2977 RMK T02600250 IEM_DS3505
ZGKL,2007-07-20 02:00,ZGKL 200200Z AUTO 00000KT 7SM 28/25 A2977 RMK T02800250 IEM_DS3505
ZGKL,2007-07-20 03:00,ZGKL 200300Z AUTO 18004KT 7SM 30/24 A2974 RMK SLP070 T03000237 57001 IEM_DS3505
ZGKL,2007-07-20 04:00,ZGKL 200400Z AUTO 18010KT 7SM 32/26 A2974 RMK T03200260 IEM_DS3505
ZGKL,2007-07-20 05:00,ZGKL 200500Z AUTO 18010KT 7SM 33/25 A2971 RMK T03300250 IEM_DS3505
ZGKL,2007-07-20 06:00,ZGKL 200600Z AUTO 14006KT 10SM 31/26 A2968 RMK SLP049 T03090257 57020 IEM_DS3505
ZGKL,2007-07-20 07:00,ZGKL 200700Z AUTO 17012KT 7SM 34/25 A2965 RMK T03400250 IEM_DS3505
ZGKL,2007-07-20 08:00,ZGKL 200800Z AUTO 7SM 30/25 A2965 RMK T03000250 IEM_DS3505
ZGKL,2007-07-20 09:00,ZGKL 200900Z AUTO 18010KT 7SM 25/22 A2968 RMK SLP057 T02500225 52005 IEM_DS3505
ZGKL,2007-07-20 10:00,ZGKL 201000Z AUTO 6SM 26/23 A2968 RMK T02600230 IEM_DS3505
ZGKL,2007-07-20 11:00,ZGKL 201100Z AUTO 00000KT 6SM 26/23 A2968 RMK T02600230 IEM_DS3505
ZGKL,2007-07-20 12:00,ZGKL 201200Z AUTO 07002KT 12SM 25/22 A2971 RMK 60008 SLP056 T02520223 54000 IEM_DS3505
ZGKL,2007-07-20 13:00,ZGKL 201300Z AUTO 00000KT 6SM 25/23 A2974 RMK T02500230 IEM_DS3505
ZGKL,2007-07-20 14:00,ZGKL 201400Z AUTO 00000KT 5SM 25/23 A2974 RMK T02500230 IEM_DS3505
ZGKL,2007-07-20 15:00,ZGKL 201500Z AUTO 00000KT 11SM 25/23 A2974 RMK SLP070 T02470229 52014 IEM_DS3505
ZGKL,2007-07-20 16:00,ZGKL 201600Z AUTO 00000KT 4SM 24/23 A2974 RMK T02400230 IEM_DS3505
ZGKL,2007-07-20 17:00,ZGKL 201700Z AUTO 00000KT 4SM 24/23 A2974 RMK T02400230 IEM_DS3505
ZGKL,2007-07-20 18:00,ZGKL 201800Z AUTO 07002KT 11SM 24/24 A2974 RMK SLP063 T02410241 57006 IEM_DS3505
ZGKL,2007-07-20 19:00,ZGKL 201900Z AUTO 00000KT 2 1/2SM 24/23 A2974 RMK T02400230 IEM_DS3505
ZGKL,2007-07-20 20:00,ZGKL 202000Z AUTO 00000KT 4SM 24/23 A2974 RMK T02400230 IEM_DS3505
ZGKL,2007-07-20 21:00,ZGKL 202100Z AUTO 14002KT 9SM 24/24 A2974 RMK 70008 SLP072 T02410241 52007 IEM_DS3505
ZGKL,2007-07-20 22:00,ZGKL 202200Z AUTO 00000KT 1 1/4SM 23/23 A2974 RMK T02300230 IEM_DS3505
ZGKL,2007-07-20 23:00,ZGKL 202300Z AUTO 00000KT 1SM 24/23 A2977 RMK T02400230 IEM_DS3505
ZGKL,2007-07-21 00:00,ZGKL 210000Z AUTO 14004KT 7SM 25/24 A2977 RMK 70008 SLP078 T02540240 52006 IEM_DS3505
ZGKL,2007-07-21 02:00,ZGKL 210200Z AUTO 00000KT 4SM 28/24 A2977 RMK T02800240 IEM_DS3505
ZGKL,2007-07-21 03:00,ZGKL 210300Z AUTO 18004KT 7SM 30/24 A2977 RMK SLP080 T02980244 52003 IEM_DS3505
ZGKL,2007-07-21 04:00,ZGKL 210400Z AUTO 19008KT 7SM 32/25 A2977 RMK T03200250 IEM_DS3505
ZGKL,2007-07-21 05:00,ZGKL 210500Z AUTO 7SM 32/25 A2974 RMK T03200250 IEM_DS3505
ZGKL,2007-07-21 06:00,ZGKL 210600Z AUTO 09006KT 10SM 32/24 A2971 RMK SLP059 T03210244 57020 IEM_DS3505
ZGKL,2007-07-21 07:00,ZGKL 210700Z AUTO 17006KT 7SM 34/24 A2968 RMK T03400240 IEM_DS3505
ZGKL,2007-07-21 08:00,ZGKL 210800Z AUTO 20006KT 7SM 35/23 A2968 RMK T03500230 IEM_DS3505
ZGKL,2007-07-21 09:00,ZGKL 210900Z AUTO 09002KT 11SM 32/25 A2968 RMK SLP043 T03230249 57016 IEM_DS3505
ZGKL,2007-07-21 10:00,ZGKL 211000Z AUTO 00000KT 7SM 26/22 A2971 RMK T02600220 IEM_DS3505
ZGKL,2007-07-21 11:00,ZGKL 211100Z AUTO 00000KT 7SM 26/23 A2974 RMK T02600230 IEM_DS3505
ZGKL,2007-07-21 12:00,ZGKL 211200Z AUTO 29002KT 8SM 27/22 A2974 RMK SLP068 T02720219 52024 IEM_DS3505
ZGKL,2007-07-21 13:00,ZGKL 211300Z AUTO 6SM 25/24 A2977 RMK T02500240 IEM_DS3505
ZGKL,2007-07-21 14:00,ZGKL 211400Z AUTO 00000KT 6SM 25/24 A2977 RMK T02500240 IEM_DS3505
ZGKL,2007-07-21 15:00,ZGKL 211500Z AUTO 02002KT 8SM 25/23 A2977 RMK SLP073 T02530226 52005 IEM_DS3505
ZGKL,2007-07-21 16:00,ZGKL 211600Z AUTO 00000KT 6SM 24/23 A2977 RMK T02400230 IEM_DS3505
ZGKL,2007-07-21 17:00,ZGKL 211700Z AUTO 5SM 24/23 A2977 RMK T02400230 IEM_DS3505
ZGKL,2007-07-21 18:00,ZGKL 211800Z AUTO 19002KT 8SM 24/23 A2974 RMK SLP070 T02450231 57002 IEM_DS3505
ZGKL,2007-07-21 19:00,ZGKL 211900Z AUTO 00000KT 24/23 A2974 RMK T02400230 IEM_DS3505
ZGKL,2007-07-21 20:00,ZGKL 212000Z AUTO 00000KT 24/23 A2977 RMK T02400230 IEM_DS3505
ZGKL,2007-07-21 21:00,ZGKL 212100Z AUTO 02002KT 7SM 24/23 A2977 RMK SLP079 T02430233 52009 IEM_DS3505
ZGKL,2007-07-21 22:00,ZGKL 212200Z AUTO 00000KT 1SM 24/23 A2977 RMK T02400230 IEM_DS3505
ZGKL,2007-07-21 23:00,ZGKL 212300Z AUTO 00000KT 2SM 24/23 A2980 RMK T02400230 IEM_DS3505
ZGKL,2007-07-22 00:00,ZGKL 220000Z AUTO 02002KT 7SM 26/24 A2980 RMK SLP087 T02600235 52007 IEM_DS3505
ZGKL,2007-07-22 01:00,ZGKL 220100Z AUTO 00000KT 2 1/2SM 26/24 A2980 RMK T02600240 IEM_DS3505
ZGKL,2007-07-22 02:00,ZGKL 220200Z AUTO 00000KT 4SM 28/24 A2980 RMK T02800240 IEM_DS3505
ZGKL,2007-07-22 03:00,ZGKL 220300Z AUTO 18004KT 8SM 30/24 A2980 RMK SLP085 T03010240 57002 IEM_DS3505
ZGKL,2007-07-22 04:00,ZGKL 220400Z AUTO 17008KT 5SM 31/25 A2977 RMK T03100250 IEM_DS3505
ZGKL,2007-07-22 05:00,ZGKL 220500Z AUTO 20006KT 7SM 31/24 A2977 RMK T03100240 IEM_DS3505
ZGKL,2007-07-22 06:00,ZGKL 220600Z AUTO 14004KT 11SM 32/24 A2974 RMK SLP063 T03190237 57021 IEM_DS3505
ZGKL,2007-07-22 07:00,ZGKL 220700Z AUTO 20004KT 7SM 33/25 A2971 RMK T03300250 IEM_DS3505
ZGKL,2007-07-22 08:00,ZGKL 220800Z AUTO 23004KT 7SM 34/23 A2968 RMK T03400230 IEM_DS3505
ZGKL,2007-07-22 09:00,ZGKL 220900Z AUTO 18006KT 15SM 33/23 A2965 RMK SLP039 T03320229 57023 IEM_DS3505
ZGKL,2007-07-22 10:00,ZGKL 221000Z AUTO 20006KT 7SM 33/23 A2965 RMK T03300230 IEM_DS3505
ZGKL,2007-07-22 11:00,ZGKL 221100Z AUTO 18006KT 7SM 32/24 A2968 RMK T03200240 IEM_DS3505
ZGKL,2007-07-22 12:00,ZGKL 221200Z AUTO 16002KT 15SM 30/23 A2971 RMK SLP060 T03020229 52020 IEM_DS3505
ZGKL,2007-07-22 13:00,ZGKL 221300Z AUTO 17010KT 7SM 25/22 A2977 RMK T02500220 IEM_DS3505
ZGKL,2007-07-22 14:00,ZGKL 221400Z AUTO 14004KT 7SM 24/22 A2977 RMK T02400220 IEM_DS3505
ZGKL,2007-07-22 15:00,ZGKL 221500Z AUTO 02002KT 4SM 25/23 A2980 RMK SLP091 T02460230 52030 IEM_DS3505
ZGKL,2007-07-22 16:00,ZGKL 221600Z AUTO 4SM 24/22 A2977 RMK T02400220 IEM_DS3505
ZGKL,2007-07-22 17:00,ZGKL 221700Z AUTO 00000KT 5SM 24/23 A2977 RMK T02400230 IEM_DS3505
ZGKL,2007-07-22 18:00,ZGKL 221800Z AUTO 14002KT 6SM 24/23 A2977 RMK 60031 SLP077 T02410229 57013 IEM_DS3505
ZGKL,2007-07-22 19:00,ZGKL 221900Z AUTO 00000KT 2 1/2SM 24/23 A2977 RMK T02400230 IEM_DS3505
ZGKL,2007-07-22 20:00,ZGKL 222000Z AUTO 00000KT 3SM 24/23 A2977 RMK T02400230 IEM_DS3505
ZGKL,2007-07-22 21:00,ZGKL 222100Z AUTO 09002KT 6SM 24/24 A2977 RMK 70032 SLP074 T02380238 57003 IEM_DS3505
ZGKL,2007-07-22 22:00,ZGKL 222200Z AUTO 00000KT 1 1/4SM 23/22 A2977 RMK T02300220 IEM_DS3505
ZGKL,2007-07-22 23:00,ZGKL 222300Z AUTO 00000KT 2SM 24/23 A2980 RMK T02400230 IEM_DS3505
ZGKL,2007-07-23 00:00,ZGKL 230000Z AUTO 04002KT 4SM 26/24 A2980 RMK 70032 SLP092 T02590236 52017 IEM_DS3505
ZGKL,2007-07-23 01:00,ZGKL 230100Z AUTO 00000KT 4SM 28/24 A2983 RMK T02800240 IEM_DS3505
ZGKL,2007-07-23 02:00,ZGKL 230200Z AUTO 17010KT 4SM 29/25 A2983 RMK T02900250 IEM_DS3505
ZGKL,2007-07-23 03:00,ZGKL 230300Z AUTO 16004KT 7SM 30/24 A2980 RMK SLP088 T02980237 57004 IEM_DS3505
ZGKL,2007-07-23 04:00,ZGKL 230400Z AUTO 19010KT 7SM 32/24 A2980 RMK T03200240 IEM_DS3505
ZGKL,2007-07-23 05:00,ZGKL 230500Z AUTO 17010KT 7SM 33/23 A2977 RMK T03300230 IEM_DS3505
ZGKL,2007-07-23 06:00,ZGKL 230600Z AUTO 20006KT 11SM 34/22 A2977 RMK SLP072 T03350216 57015 IEM_DS3505
ZGKL,2007-07-23 07:00,ZGKL 230700Z AUTO 19012KT 7SM 33/22 A2974 RMK T03300220 IEM_DS3505
ZGKL,2007-07-23 08:00,ZGKL 230800Z AUTO 18012KT 7SM 34/22 A2971 RMK T03400220 IEM_DS3505
ZGKL,2007-07-23 09:00,ZGKL 230900Z AUTO 18004KT 14SM 33/22 A2968 RMK SLP052 T03340222 57020 IEM_DS3505
ZGKL,2007-07-23 10:00,ZGKL 231000Z AUTO 21006KT 7SM 33/22 A2968 RMK T03300220 IEM_DS3505
ZGKL,2007-07-23 11:00,ZGKL 231100Z AUTO 20006KT 6SM 31/24 A2971 RMK T03100240 IEM_DS3505
ZGKL,2007-07-23 12:00,ZGKL 231200Z AUTO 18010KT 14SM 30/22 A2974 RMK 60000 SLP065 T03000219 52013 IEM_DS3505
ZGKL,2007-07-23 13:00,ZGKL 231300Z AUTO 22004KT 7SM 27/23 A2977 RMK T02700230 IEM_DS3505
ZGKL,2007-07-23 14:00,ZGKL 231400Z AUTO 00000KT 7SM 26/23 A2977 RMK T02600230 IEM_DS3505
ZGKL,2007-07-23 15:00,ZGKL 231500Z AUTO 18002KT 14SM 27/22 A2980 RMK SLP090 T02690217 52025 IEM_DS3505
ZGKL,2007-07-23 16:00,ZGKL 231600Z AUTO 00000KT 6SM 26/23 A2980 RMK T02600230 IEM_DS3505
ZGKL,2007-07-23 18:00,ZGKL 231800Z AUTO 09002KT 11SM 25/23 RMK 60000 SLP082 T02530226 57008 IEM_DS3505
ZGKL,2007-07-23 19:00,ZGKL 231900Z AUTO 00000KT 24/23 A2977 RMK T02400230 IEM_DS3505
ZGKL,2007-07-23 20:00,ZGKL 232000Z AUTO 00000KT 4SM 24/23 A2977 RMK T02400230 IEM_DS3505
ZGKL,2007-07-23 21:00,ZGKL 232100Z AUTO 25002KT 10SM 25/23 A2977 RMK 70000 SLP078 T02480230 57004 IEM_DS3505
ZGKL,2007-07-23 22:00,ZGKL 232200Z AUTO 00000KT 3SM 23/23 A2977 RMK T02300230 IEM_DS3505
ZGKL,2007-07-23 23:00,ZGKL 232300Z AUTO 00000KT 3SM 24/23 A2977 RMK T02400230 IEM_DS3505
ZGKL,2007-07-24 00:00,ZGKL 240000Z AUTO 09004KT 8SM 26/24 A2980 RMK 70000 SLP086 T02590236 52007 IEM_DS3505
ZGKL,2007-07-24 01:00,ZGKL 240100Z AUTO 18004KT 5SM 28/24 A2980 RMK T02800240 IEM_DS3505
ZGKL,2007-07-24 02:00,ZGKL 240200Z AUTO 19012KT 7SM 29/24 A2980 RMK T02900240 IEM_DS3505
ZGKL,2007-07-24 03:00,ZGKL 240300Z AUTO 20006KT 8SM 30/23 A2980 RMK SLP087 T03030227 52002 IEM_DS3505
ZGKL,2007-07-24 04:00,ZGKL 240400Z AUTO 19010KT 7SM 31/24 A2980 RMK T03100240 IEM_DS3505
ZGKL,2007-07-24 05:00,ZGKL 240500Z AUTO 21008KT 7SM 32/24 A2977 RMK T03200240 IEM_DS3505
ZGKL,2007-07-24 06:00,ZGKL 240600Z AUTO 16006KT 11SM 33/23 A2977 RMK SLP071 T03260233 57016 IEM_DS3505
ZGKL,2007-07-24 07:00,ZGKL 240700Z AUTO 20012KT 7SM 34/23 A2971 RMK T03400230 IEM_DS3505
ZGKL,2007-07-24 08:00,ZGKL 240800Z AUTO 20010KT 7SM 34/23 A2971 RMK T03400230 IEM_DS3505
ZGKL,2007-07-24 09:00,ZGKL 240900Z AUTO 09002KT 12SM 31/24 A2968 RMK SLP050 T03110237 57021 IEM_DS3505
ZGKL,2007-07-24 10:00,ZGKL 241000Z AUTO 21004KT 7SM 32/25 A2971 RMK T03200250 IEM_DS3505
ZGKL,2007-07-24 11:00,ZGKL 241100Z AUTO 00000KT 7SM 31/26 A2971 RMK T03100260 IEM_DS3505
ZGKL,2007-07-24 12:00,ZGKL 241200Z AUTO 07002KT 12SM 29/26 A2974 RMK 60004 SLP066 T02890263 52015 IEM_DS3505
ZGKL,2007-07-24 13:00,ZGKL 241300Z AUTO 19004KT 6SM 28/24 A2974 RMK T02800240 IEM_DS3505
ZGKL,2007-07-24 14:00,ZGKL 241400Z AUTO 00000KT 6SM 27/25 A2977 RMK T02700250 IEM_DS3505
ZGKL,2007-07-24 15:00,ZGKL 241500Z AUTO 14002KT 11SM 28/25 A2980 RMK SLP083 T02770253 52018 IEM_DS3505
ZGKL,2007-07-24 16:00,ZGKL 241600Z AUTO 00000KT 4SM 26/25 A2980 RMK T02600250 IEM_DS3505
ZGKL,2007-07-24 18:00,ZGKL 241800Z AUTO 00000KT 10SM 26/25 RMK SLP076 T02630247 57006 IEM_DS3505
ZGKL,2007-07-24 19:00,ZGKL 241900Z AUTO 25/24 A2977 RMK T02500240 IEM_DS3505
ZGKL,2007-07-24 20:00,ZGKL 242000Z AUTO 33002KT 25/24 A2977 RMK T02500240 IEM_DS3505
ZGKL,2007-07-24 21:00,ZGKL 242100Z AUTO 04002KT 9SM 26/24 A2977 RMK 70004 SLP076 T02560244 57001 IEM_DS3505
ZGKL,2007-07-24 22:00,ZGKL 242200Z AUTO 00000KT 7SM 24/23 A2980 RMK T02400230 IEM_DS3505
ZGKL,2007-07-24 23:00,ZGKL 242300Z AUTO 00000KT 7SM 25/24 A2980 RMK T02500240 IEM_DS3505
ZGKL,2007-07-25 00:00,ZGKL 250000Z AUTO 14002KT 8SM 26/24 A2983 RMK 70004 SLP096 T02650242 52019 IEM_DS3505
ZGKL,2007-07-25 01:00,ZGKL 250100Z AUTO 17006KT 7SM 28/23 A2983 RMK T02800230 IEM_DS3505
ZGKL,2007-07-25 02:00,ZGKL 250200Z AUTO 18012KT 7SM 30/24 A2983 RMK T03000240 IEM_DS3505
ZGKL,2007-07-25 03:00,ZGKL 250300Z AUTO 18006KT 7SM 30/23 A2983 RMK SLP094 T03010228 57001 IEM_DS3505
ZGKL,2007-07-25 04:00,ZGKL 250400Z AUTO 18016KT 7SM 31/23 A2980 RMK T03100230 IEM_DS3505
ZGKL,2007-07-25 05:00,ZGKL 250500Z AUTO 18012KT 7SM 32/23 A2980 RMK T03200230 IEM_DS3505
ZGKL,2007-07-25 06:00,ZGKL 250600Z AUTO 20006KT 11SM 32/22 A2977 RMK SLP080 T03190217 57014 IEM_DS3505
ZGKL,2007-07-25 07:00,ZGKL 250700Z AUTO 18012KT 7SM 33/22 A2974 RMK T03300220 IEM_DS3505
ZGKL,2007-07-25 08:00,ZGKL 250800Z AUTO 17012KT 7SM 33/22 A2974 RMK T03300220 IEM_DS3505
ZGKL,2007-07-25 09:00,ZGKL 250900Z AUTO 18004KT 12SM 33/22 A2971 RMK SLP057 T03280216 57022 IEM_DS3505
ZGKL,2007-07-25 10:00,ZGKL 251000Z AUTO 20008KT 7SM 33/22 A2971 RMK T03300220 IEM_DS3505
ZGKL,2007-07-25 11:00,ZGKL 251100Z AUTO 22004KT 6SM 31/23 A2971 RMK T03100230 IEM_DS3505
ZGKL,2007-07-25 12:00,ZGKL 251200Z AUTO 11002KT 12SM 30/23 A2974 RMK SLP064 T03030227 52006 IEM_DS3505
ZGKL,2007-07-25 13:00,ZGKL 251300Z AUTO 00000KT 4SM 28/24 A2974 RMK T02800240 IEM_DS3505
ZGKL,2007-07-25 15:00,ZGKL 251500Z AUTO 02002KT 11SM 28/23 A2977 RMK SLP075 T02780232 52011 IEM_DS3505
ZGKL,2007-07-25 16:00,ZGKL 251600Z AUTO 30004KT 3SM 25/24 A2977 RMK T02500240 IEM_DS3505
ZGKL,2007-07-25 17:00,ZGKL 251700Z AUTO 00000KT 2 1/2SM 25/24 A2977 RMK T02500240 IEM_DS3505
ZGKL,2007-07-25 18:00,ZGKL 251800Z AUTO 04002KT 10SM 26/23 A2974 RMK SLP071 T02600229 57004 IEM_DS3505
ZGKL,2007-07-25 19:00,ZGKL 251900Z AUTO 00000KT 24/24 A2974 RMK T02400240 IEM_DS3505
ZGKL,2007-07-25 20:00,ZGKL 252000Z AUTO 00000KT 25/24 A2974 RMK T02500240 IEM_DS3505
ZGKL,2007-07-25 21:00,ZGKL 252100Z AUTO 07002KT 10SM 25/23 A2974 RMK SLP071 T02500227 54000 IEM_DS3505
ZGKL,2007-07-25 22:00,ZGKL 252200Z AUTO 00000KT 2 1/2SM 25/24 A2974 RMK T02500240 IEM_DS3505
ZGKL,2007-07-25 23:00,ZGKL 252300Z AUTO 2SM 24/23 A2977 RMK T02400230 IEM_DS3505
ZGKL,2007-07-26 00:00,ZGKL 260000Z AUTO 36002KT 6SM 26/24 A2980 RMK SLP090 T02640235 52019 IEM_DS3505
ZGKL,2007-07-26 01:00,ZGKL 260100Z AUTO 4SM 28/24 A2983 RMK T02800240 IEM_DS3505
ZGKL,2007-07-26 02:00,ZGKL 260200Z AUTO 18012KT 5SM 29/23 A2983 RMK T02900230 IEM_DS3505
ZGKL,2007-07-26 03:00,ZGKL 260300Z AUTO 25002KT 6SM 31/23 A2983 RMK SLP090 T03060230 54000 IEM_DS3505
ZGKL,2007-07-26 04:00,ZGKL 260400Z AUTO 19010KT 7SM 30/23 A2980 RMK T03000230 IEM_DS3505
ZGKL,2007-07-26 05:00,ZGKL 260500Z AUTO 19004KT 7SM 31/23 A2980 RMK T03100230 IEM_DS3505
ZGKL,2007-07-26 06:00,ZGKL 260600Z AUTO 27004KT 9SM 31/22 A2980 RMK SLP082 T03130218 57008 IEM_DS3505
ZGKL,2007-07-26 07:00,ZGKL 260700Z AUTO 29004KT 7SM 31/23 A2977 RMK T03100230 IEM_DS3505
ZGKL,2007-07-26 08:00,ZGKL 260800Z AUTO 7SM 31/22 A2974 RMK T03100220 IEM_DS3505
ZGKL,2007-07-26 09:00,ZGKL 260900Z AUTO 29006KT 9SM 31/22 A2974 RMK SLP066 T03070218 57016 IEM_DS3505
ZGKL,2007-07-26 10:00,ZGKL 261000Z AUTO 34004KT 7SM 30/23 A2974 RMK T03000230 IEM_DS3505
ZGKL,2007-07-26 11:00,ZGKL 261100Z AUTO 00000KT 7SM 29/25 A2974 RMK T02900250 IEM_DS3505
ZGKL,2007-07-26 12:00,ZGKL 261200Z AUTO 09002KT 7SM 29/24 A2977 RMK SLP075 T02900237 52008 IEM_DS3505
ZGKL,2007-07-26 13:00,ZGKL 261300Z AUTO 00000KT 2SM 27/25 A2977 RMK T02700250 IEM_DS3505
ZGKL,2007-07-26 14:00,ZGKL 261400Z AUTO 29004KT 2 1/2SM 26/24 A2977 RMK T02600240 IEM_DS3505
ZGKL,2007-07-26 15:00,ZGKL 261500Z AUTO 07004KT 7SM 27/23 A2980 RMK SLP085 T02730233 52011 IEM_DS3505
ZGKL,2007-07-26 16:00,ZGKL 261600Z AUTO 32004KT 2 1/2SM 26/24 A2980 RMK T02600240 IEM_DS3505
ZGKL,2007-07-26 17:00,ZGKL 261700Z AUTO 00000KT 3SM 26/24 A2980 RMK T02600240 IEM_DS3505
ZGKL,2007-07-26 18:00,ZGKL 261800Z AUTO 07002KT 7SM 26/23 A2980 RMK SLP084 T02550232 57001 IEM_DS3505
ZGKL,2007-07-26 19:00,ZGKL 261900Z AUTO 00000KT 2 1/2SM 25/24 A2980 RMK T02500240 IEM_DS3505
ZGKL,2007-07-26 20:00,ZGKL 262000Z AUTO 00000KT 1 1/2SM 24/24 A2980 RMK T02400240 IEM_DS3505
ZGKL,2007-07-26 21:00,ZGKL 262100Z AUTO 07002KT 7SM 25/23 A2980 RMK SLP085 T02490230 54000 IEM_DS3505
ZGKL,2007-07-26 22:00,ZGKL 262200Z AUTO 00000KT 1 1/4SM 24/24 A2980 RMK T02400240 IEM_DS3505
ZGKL,2007-07-26 23:00,ZGKL 262300Z AUTO 00000KT 2SM 25/24 A2980 RMK T02500240 IEM_DS3505
ZGKL,2007-07-27 00:00,ZGKL 270000Z AUTO 07002KT 5SM 27/23 A2983 RMK SLP098 T02690232 52013 IEM_DS3505
ZGKL,2007-07-27 01:00,ZGKL 270100Z AUTO 3SM 28/25 A2985 RMK T02800250 IEM_DS3505
ZGKL,2007-07-27 02:00,ZGKL 270200Z AUTO 4SM 29/24 A2985 RMK T02900240 IEM_DS3505
ZGKL,2007-07-27 03:00,ZGKL 270300Z AUTO 18006KT 4SM 30/23 A2985 RMK SLP103 T03000230 52006 IEM_DS3505
ZGKL,2007-07-27 04:00,ZGKL 270400Z AUTO 17010KT 6SM 32/22 A2983 RMK T03200220 IEM_DS3505
ZGKL,2007-07-27 05:00,ZGKL 270500Z AUTO 19010KT 7SM 32/22 A2983 RMK T03200220 IEM_DS3505
ZGKL,2007-07-27 06:00,ZGKL 270600Z AUTO 20006KT 7SM 31/21 A2980 RMK SLP084 T03130212 57019 IEM_DS3505
ZGKL,2007-07-27 07:00,ZGKL 270700Z AUTO 28004KT 7SM 33/21 A2977 RMK T03300210 IEM_DS3505
ZGKL,2007-07-27 08:00,ZGKL 270800Z AUTO 27004KT 7SM 33/22 A2974 RMK T03300220 IEM_DS3505
ZGKL,2007-07-27 09:00,ZGKL 270900Z AUTO 04004KT 11SM 34/21 A2971 RMK SLP058 T03360211 57025 IEM_DS3505
ZGKL,2007-07-27 10:00,ZGKL 271000Z AUTO 00000KT 6SM 32/22 A2974 RMK T03200220 IEM_DS3505
ZGKL,2007-07-27 11:00,ZGKL 271100Z AUTO 15004KT 7SM 30/23 A2974 RMK T03000230 IEM_DS3505
ZGKL,2007-07-27 12:00,ZGKL 271200Z AUTO 14004KT 9SM 29/23 A2974 RMK 60000 SLP068 T02940231 52009 IEM_DS3505
ZGKL,2007-07-27 13:00,ZGKL 271300Z AUTO 00000KT 4SM 27/23 A2974 RMK T02700230 IEM_DS3505
ZGKL,2007-07-27 14:00,ZGKL 271400Z AUTO 17006KT 4SM 26/23 A2977 RMK T02600230 IEM_DS3505
ZGKL,2007-07-27 15:00,ZGKL 271500Z AUTO 07002KT 9SM 27/24 A2980 RMK SLP083 T02700235 52015 IEM_DS3505
ZGKL,2007-07-27 16:00,ZGKL 271600Z AUTO 00000KT 4SM 25/23 A2980 RMK T02500230 IEM_DS3505
ZGKL,2007-07-27 17:00,ZGKL 271700Z AUTO 00000KT 4SM 26/23 A2980 RMK T02600230 IEM_DS3505
ZGKL,2007-07-27 18:00,ZGKL 271800Z AUTO 09002KT 7SM 26/24 A2977 RMK SLP080 T02600235 57003 IEM_DS3505
ZGKL,2007-07-27 19:00,ZGKL 271900Z AUTO 00000KT 25/23 A2977 RMK T02500230 IEM_DS3505
ZGKL,2007-07-27 20:00,ZGKL 272000Z AUTO 00000KT 25/23 A2977 RMK T02500230 IEM_DS3505
ZGKL,2007-07-27 21:00,ZGKL 272100Z AUTO 04002KT 7SM 26/23 A2977 RMK 70000 SLP080 T02550234 52001 IEM_DS3505
ZGKL,2007-07-27 22:00,ZGKL 272200Z AUTO 00000KT 2SM 24/23 A2980 RMK T02400230 IEM_DS3505
ZGKL,2007-07-27 23:00,ZGKL 272300Z AUTO 00000KT 2SM 25/24 A2980 RMK T02500240 IEM_DS3505
ZGKL,2007-07-28 00:00,ZGKL 280000Z AUTO 07002KT 4SM 26/24 A2983 RMK 70000 SLP096 T02630239 52014 IEM_DS3505
ZGKL,2007-07-28 01:00,ZGKL 280100Z AUTO 2 1/2SM 28/24 A2983 RMK T02800240 IEM_DS3505
ZGKL,2007-07-28 02:00,ZGKL 280200Z AUTO 18006KT 4SM 30/24 A2983 RMK T03000240 IEM_DS3505
ZGKL,2007-07-28 03:00,ZGKL 280300Z AUTO 18004KT 7SM 31/22 A2983 RMK SLP095 T03120222 57002 IEM_DS3505
ZGKL,2007-07-28 04:00,ZGKL 280400Z AUTO 19012KT 7SM 33/22 A2980 RMK T03300220 IEM_DS3505
ZGKL,2007-07-28 05:00,ZGKL 280500Z AUTO 19012KT 7SM 34/21 A2977 RMK T03400210 IEM_DS3505
ZGKL,2007-07-28 06:00,ZGKL 280600Z AUTO 18006KT 9SM 34/21 A2974 RMK SLP071 T03380206 57023 IEM_DS3505
ZGKL,2007-07-28 07:00,ZGKL 280700Z AUTO 19010KT 7SM 35/20 A2974 RMK T03500200 IEM_DS3505
ZGKL,2007-07-28 08:00,ZGKL 280800Z AUTO 21010KT 7SM 35/20 A2971 RMK T03500200 IEM_DS3505
ZGKL,2007-07-28 09:00,ZGKL 280900Z AUTO 20006KT 14SM 35/19 A2968 RMK SLP049 T03490189 57022 IEM_DS3505
ZGKL,2007-07-28 10:00,ZGKL 281000Z AUTO 20004KT 7SM 34/20 A2968 RMK T03400200 IEM_DS3505
ZGKL,2007-07-28 11:00,ZGKL 281100Z AUTO 21004KT 7SM 32/22 A2968 RMK T03200220 IEM_DS3505
ZGKL,2007-07-28 12:00,ZGKL 281200Z AUTO 09002KT 12SM 31/22 A2971 RMK SLP051 T03140224 52002 IEM_DS3505
ZGKL,2007-07-28 13:00,ZGKL 281300Z AUTO 00000KT 7SM 28/23 A2971 RMK T02800230 IEM_DS3505
ZGKL,2007-07-28 14:00,ZGKL 281400Z AUTO 00000KT 7SM 27/23 A2974 RMK T02700230 IEM_DS3505
ZGKL,2007-07-28 15:00,ZGKL 281500Z AUTO 32002KT 11SM 28/22 A2977 RMK SLP075 T02770222 52024 IEM_DS3505
ZGKL,2007-07-28 16:00,ZGKL 281600Z AUTO 00000KT 3SM 25/23 A2977 RMK T02500230 IEM_DS3505
ZGKL,2007-07-28 17:00,ZGKL 281700Z AUTO 00000KT 4SM 25/23 A2977 RMK T02500230 IEM_DS3505
ZGKL,2007-07-28 18:00,ZGKL 281800Z AUTO 04002KT 10SM 26/22 A2974 RMK SLP069 T02610222 57006 IEM_DS3505
ZGKL,2007-07-28 19:00,ZGKL 281900Z AUTO 00000KT 25/23 A2977 RMK T02500230 IEM_DS3505
ZGKL,2007-07-28 20:00,ZGKL 282000Z AUTO 00000KT 25/23 A2977 RMK T02500230 IEM_DS3505
ZGKL,2007-07-28 21:00,ZGKL 282100Z AUTO 00000KT 10SM 26/22 A2977 RMK SLP076 T02550222 52007 IEM_DS3505
ZGKL,2007-07-28 22:00,ZGKL 282200Z AUTO 00000KT 7SM 24/23 A2977 RMK T02400230 IEM_DS3505
ZGKL,2007-07-28 23:00,ZGKL 282300Z AUTO 00000KT 7SM 25/23 A2980 RMK T02500230 IEM_DS3505
ZGKL,2007-07-29 00:00,ZGKL 290000Z AUTO 04002KT 9SM 27/23 A2980 RMK SLP092 T02720230 52015 IEM_DS3505
ZGKL,2007-07-29 01:00,ZGKL 290100Z AUTO 12004KT 4SM 29/24 A2983 RMK T02900240 IEM_DS3505
ZGKL,2007-07-29 02:00,ZGKL 290200Z AUTO 17008KT 7SM 31/23 A2983 RMK T03100230 IEM_DS3505
ZGKL,2007-07-29 03:00,ZGKL 290300Z AUTO 11002KT 8SM 32/22 A2983 RMK SLP094 T03170221 52002 IEM_DS3505
ZGKL,2007-07-29 04:00,ZGKL 290400Z AUTO 18014KT 7SM 33/21 A2980 RMK T03300210 IEM_DS3505
ZGKL,2007-07-29 05:00,ZGKL 290500Z AUTO 21010KT 7SM 34/20 A2980 RMK T03400200 IEM_DS3505
ZGKL,2007-07-29 06:00,ZGKL 290600Z AUTO 29006KT 9SM 33/21 A2977 RMK SLP075 T03320214 57018 IEM_DS3505
ZGKL,2007-07-29 07:00,ZGKL 290700Z AUTO 14006KT 7SM 35/22 A2974 RMK T03500220 IEM_DS3505
ZGKL,2007-07-29 08:00,ZGKL 290800Z AUTO 12008KT 7SM 35/21 A2971 RMK T03500210 IEM_DS3505
ZGKL,2007-07-29 09:00,ZGKL 290900Z AUTO 11002KT 9SM 34/21 A2971 RMK SLP053 T03400214 57022 IEM_DS3505
ZGKL,2007-07-29 10:00,ZGKL 291000Z AUTO 7SM 32/23 A2971 RMK T03200230 IEM_DS3505
ZGKL,2007-07-29 11:00,ZGKL 291100Z AUTO 6SM 31/24 A2971 RMK T03100240 IEM_DS3505
ZGKL,2007-07-29 12:00,ZGKL 291200Z AUTO 00000KT 9SM 31/22 A2971 RMK SLP056 T03120222 52003 IEM_DS3505
ZGKL,2007-07-29 13:00,ZGKL 291300Z AUTO 00000KT 3SM 28/25 A2974 RMK T02800250 IEM_DS3505
ZGKL,2007-07-29 14:00,ZGKL 291400Z AUTO 00000KT 2SM 27/25 A2977 RMK T02700250 IEM_DS3505
ZGKL,2007-07-29 15:00,ZGKL 291500Z AUTO 04002KT 7SM 28/24 A2980 RMK SLP082 T02840235 52026 IEM_DS3505
ZGKL,2007-07-29 16:00,ZGKL 291600Z AUTO 31002KT 2SM 26/24 A2980 RMK T02600240 IEM_DS3505
ZGKL,2007-07-29 17:00,ZGKL 291700Z AUTO 33004KT 2 1/2SM 26/24 A2977 RMK T02600240 IEM_DS3505
ZGKL,2007-07-29 18:00,ZGKL 291800Z AUTO 04002KT 7SM 27/23 A2977 RMK SLP080 T02660231 57002 IEM_DS3505
ZGKL,2007-07-29 19:00,ZGKL 291900Z AUTO 00000KT 25/24 A2980 RMK T02500240 IEM_DS3505
ZGKL,2007-07-29 20:00,ZGKL 292000Z AUTO 26/24 A2977 RMK T02600240 IEM_DS3505
ZGKL,2007-07-29 21:00,ZGKL 292100Z AUTO 00000KT 7SM 25/23 A2977 RMK SLP080 T02530232 54000 IEM_DS3505
ZGKL,2007-07-29 22:00,ZGKL 292200Z AUTO 13004KT 2SM 25/24 A2980 RMK T02500240 IEM_DS3505
ZGKL,2007-07-29 23:00,ZGKL 292300Z AUTO 00000KT 2 1/2SM 26/24 A2980 RMK T02600240 IEM_DS3505
ZGKL,2007-07-30 00:00,ZGKL 300000Z AUTO 02002KT 7SM 28/24 A2983 RMK SLP093 T02750239 52012 IEM_DS3505
ZGKL,2007-07-30 01:00,ZGKL 300100Z AUTO 00000KT 4SM 28/24 A2983 RMK T02800240 IEM_DS3505
ZGKL,2007-07-30 02:00,ZGKL 300200Z AUTO 17006KT 7SM 31/23 A2983 RMK T03100230 IEM_DS3505
ZGKL,2007-07-30 03:00,ZGKL 300300Z AUTO 27006KT 9SM 31/22 A2983 RMK SLP095 T03080221 52002 IEM_DS3505
ZGKL,2007-07-30 04:00,ZGKL 300400Z AUTO 20006KT 7SM 33/22 A2983 RMK T03300220 IEM_DS3505
ZGKL,2007-07-30 05:00,ZGKL 300500Z AUTO 7SM 34/21 A2980 RMK T03400210 IEM_DS3505
ZGKL,2007-07-30 06:00,ZGKL 300600Z AUTO 29002KT 11SM 34/22 A2977 RMK SLP077 T03370222 57017 IEM_DS3505
ZGKL,2007-07-30 07:00,ZGKL 300700Z AUTO 15010KT 7SM 34/22 A2977 RMK T03400220 IEM_DS3505
ZGKL,2007-07-30 08:00,ZGKL 300800Z AUTO 15006KT 6SM 34/21 A2974 RMK T03400210 IEM_DS3505
ZGKL,2007-07-30 09:00,ZGKL 300900Z AUTO 29004KT 12SM 34/20 A2971 RMK SLP059 T03440200 57018 IEM_DS3505
ZGKL,2007-07-30 10:00,ZGKL 301000Z AUTO 21004KT 6SM 34/21 A2971 RMK T03400210 IEM_DS3505
ZGKL,2007-07-30 11:00,ZGKL 301100Z AUTO 23004KT 7SM 32/24 A2971 RMK T03200240 IEM_DS3505
ZGKL,2007-07-30 12:00,ZGKL 301200Z AUTO 02002KT 11SM 31/22 A2971 RMK SLP060 T03140221 52001 IEM_DS3505
ZGKL,2007-07-30 13:00,ZGKL 301300Z AUTO 00000KT 6SM 28/25 A2974 RMK T02800250 IEM_DS3505
ZGKL,2007-07-30 14:00,ZGKL 301400Z AUTO 00000KT 6SM 27/24 A2977 RMK T02700240 IEM_DS3505
ZGKL,2007-07-30 15:00,ZGKL 301500Z AUTO 07002KT 11SM 28/22 A2977 RMK SLP073 T02790224 52013 IEM_DS3505
ZGKL,2007-07-30 16:00,ZGKL 301600Z AUTO 00000KT 6SM 26/24 A2977 RMK T02600240 IEM_DS3505
ZGKL,2007-07-30 17:00,ZGKL 301700Z AUTO 00000KT 6SM 26/24 A2977 RMK T02600240 IEM_DS3505
ZGKL,2007-07-30 18:00,ZGKL 301800Z AUTO 04002KT 11SM 26/22 A2974 RMK SLP070 T02650221 57003 IEM_DS3505
ZGKL,2007-07-30 19:00,ZGKL 301900Z AUTO 00000KT 5SM 25/24 A2974 RMK T02500240 IEM_DS3505
ZGKL,2007-07-30 20:00,ZGKL 302000Z AUTO 00000KT 5SM 25/23 A2974 RMK T02500230 IEM_DS3505
ZGKL,2007-07-30 21:00,ZGKL 302100Z AUTO 07002KT 9SM 26/22 A2977 RMK SLP072 T02550220 52002 IEM_DS3505
ZGKL,2007-07-30 22:00,ZGKL 302200Z AUTO 00000KT 3SM 24/23 A2977 RMK T02400230 IEM_DS3505
ZGKL,2007-07-30 23:00,ZGKL 302300Z AUTO 00000KT 3SM 25/24 A2977 RMK T02500240 IEM_DS3505
ZGKL,2007-07-31 00:00,ZGKL 310000Z AUTO 02002KT 7SM 27/22 A2980 RMK SLP083 T02700224 52010 IEM_DS3505
ZGKL,2007-07-31 01:00,ZGKL 310100Z AUTO 4SM 28/24 A2980 RMK T02800240 IEM_DS3505
ZGKL,2007-07-31 02:00,ZGKL 310200Z AUTO 14006KT 5SM 30/23 A2980 RMK T03000230 IEM_DS3505
ZGKL,2007-07-31 03:00,ZGKL 310300Z AUTO 27006KT 9SM 31/22 A2980 RMK SLP081 T03140221 57001 IEM_DS3505
ZGKL,2007-07-31 04:00,ZGKL 310400Z AUTO 7SM 32/23 A2977 RMK T03200230 IEM_DS3505
ZGKL,2007-07-31 05:00,ZGKL 310500Z AUTO 21006KT 7SM 33/22 A2974 RMK T03300220 IEM_DS3505
ZGKL,2007-07-31 06:00,ZGKL 310600Z AUTO 27004KT 11SM 34/20 A2971 RMK SLP059 T03410205 57022 IEM_DS3505
ZGKL,2007-07-31 07:00,ZGKL 310700Z AUTO 7SM 34/21 A2971 RMK T03400210 IEM_DS3505
ZGKL,2007-07-31 08:00,ZGKL 310800Z AUTO 7SM 34/22 A2968 RMK T03400220 IEM_DS3505
ZGKL,2007-07-31 09:00,ZGKL 310900Z AUTO 27006KT 17SM 35/19 A2965 RMK SLP035 T03510191 57023 IEM_DS3505
ZGKL,2007-07-31 10:00,ZGKL 311000Z AUTO 21004KT 7SM 34/22 A2965 RMK T03400220 IEM_DS3505
ZGKL,2007-07-31 11:00,ZGKL 311100Z AUTO 24004KT 7SM 32/24 A2968 RMK T03200240 IEM_DS3505
ZGKL,2007-07-31 12:00,ZGKL 311200Z AUTO 27004KT 16SM 32/22 A2968 RMK SLP046 T03210216 52010 IEM_DS3505
ZGKL,2007-07-31 13:00,ZGKL 311300Z AUTO 16008KT 5SM 27/23 A2971 RMK T02700230 IEM_DS3505
ZGKL,2007-07-31 14:00,ZGKL 311400Z AUTO 18014KT 6SM 26/23 A2974 RMK T02600230 IEM_DS3505
ZGKL,2007-07-31 15:00,ZGKL 311500Z AUTO 25008KT 14SM 28/22 A2977 RMK SLP074 T02840217 52028 IEM_DS3505
ZGKL,2007-07-31 16:00,ZGKL 311600Z AUTO 17008KT 7SM 25/23 A2977 RMK T02500230 IEM_DS3505
ZGKL,2007-07-31 17:00,ZGKL 311700Z AUTO 17008KT 6SM 25/22 A2977 RMK T02500220 IEM_DS3505
ZGKL,2007-07-31 18:00,ZGKL 311800Z AUTO 04002KT 11SM 26/22 A2974 RMK SLP069 T02650217 57005 IEM_DS3505
ZGKL,2007-07-31 19:00,ZGKL 311900Z AUTO 23004KT 5SM 24/23 A2974 RMK T02400230 IEM_DS3505
ZGKL,2007-07-31 20:10,ZGKL 312010Z AUTO 01004KT 4SM 24/23 A2974 RMK T02400230 IEM_DS3505
ZGKL,2007-07-31 21:00,ZGKL 312100Z AUTO 07002KT 10SM 25/22 A2977 RMK SLP071 T02530222 52002 IEM_DS3505
ZGKL,2007-07-31 22:00,ZGKL 312200Z AUTO 00000KT 4SM 24/23 A2974 RMK T02400230 IEM_DS3505
ZGKL,2007-07-31 23:00,ZGKL 312300Z AUTO 3SM 24/23 A2977 RMK T02400230 IEM_DS3505
ZGKL,2007-08-01 00:00,ZGKL 010000Z AUTO 36002KT 7SM 27/22 A2977 RMK SLP075 T02660224 52003 IEM_DS3505
ZGKL,2007-08-01 01:00,ZGKL 010100Z AUTO 00000KT 4SM 27/23 A2977 RMK T02700230 IEM_DS3505
ZGKL,2007-08-01 02:00,ZGKL 010200Z AUTO 00000KT 4SM 28/23 A2980 RMK T02800230 IEM_DS3505
ZGKL,2007-08-01 03:00,ZGKL 010300Z AUTO 14004KT 9SM 29/22 A2980 RMK SLP081 T02940219 52006 IEM_DS3505
ZGKL,2007-08-01 04:00,ZGKL 010400Z AUTO 17004KT 6SM 31/23 A2977 RMK T03100230 IEM_DS3505
ZGKL,2007-08-01 05:00,ZGKL 010500Z AUTO 20004KT 6SM 32/22 A2974 RMK T03200220 IEM_DS3505
ZGKL,2007-08-01 06:00,ZGKL 010600Z AUTO 16004KT 10SM 32/22 A2971 RMK SLP057 T03250217 57023 IEM_DS3505
ZGKL,2007-08-01 07:00,ZGKL 010700Z AUTO 7SM 33/21 A2968 RMK T03300210 IEM_DS3505
ZGKL,2007-08-01 08:00,ZGKL 010800Z AUTO 00000KT 7SM 34/22 A2965 RMK T03400220 IEM_DS3505
ZGKL,2007-08-01 09:00,ZGKL 010900Z AUTO 11004KT 14SM 34/21 A2965 RMK SLP030 T03410208 57026 IEM_DS3505
ZGKL,2007-08-01 10:00,ZGKL 011000Z AUTO 00000KT 7SM 34/22 A2962 RMK T03400220 IEM_DS3505
ZGKL,2007-08-01 11:00,ZGKL 011100Z AUTO 00000KT 7SM 32/24 A2965 RMK T03200240 IEM_DS3505
ZGKL,2007-08-01 12:00,ZGKL 011200Z AUTO 32002KT 16SM 32/22 A2965 RMK SLP038 T03170218 52007 IEM_DS3505
ZGKL,2007-08-01 13:00,ZGKL 011300Z AUTO 00000KT 4SM 28/24 A2968 RMK T02800240 IEM_DS3505
ZGKL,2007-08-01 14:00,ZGKL 011400Z AUTO 20006KT 5SM 28/24 A2971 RMK T02800240 IEM_DS3505
ZGKL,2007-08-01 15:00,ZGKL 011500Z AUTO 22002KT 15SM 29/23 A2971 RMK SLP055 T02900230 52017 IEM_DS3505
ZGKL,2007-08-01 16:00,ZGKL 011600Z AUTO 18006KT 5SM 27/23 A2971 RMK T02700230 IEM_DS3505
ZGKL,2007-08-01 17:00,ZGKL 011700Z AUTO 00000KT 6SM 26/24 A2971 RMK T02600240 IEM_DS3505
ZGKL,2007-08-01 18:00,ZGKL 011800Z AUTO 36004KT 10SM 27/23 A2971 RMK SLP054 T02740230 57001 IEM_DS3505
ZGKL,2007-08-01 19:00,ZGKL 011900Z AUTO 00000KT 25/23 A2971 RMK T02500230 IEM_DS3505
ZGKL,2007-08-01 20:00,ZGKL 012000Z AUTO 00000KT 25/23 A2971 RMK T02500230 IEM_DS3505
ZGKL,2007-08-01 21:00,ZGKL 012100Z AUTO 00000KT 9SM 26/23 A2971 RMK SLP057 T02620233 52003 IEM_DS3505
ZGKL,2007-08-01 22:00,ZGKL 012200Z AUTO 00000KT 3SM 24/23 A2974 RMK T02400230 IEM_DS3505
ZGKL,2007-08-01 23:00,ZGKL 012300Z AUTO 00000KT 3SM 25/24 A2974 RMK T02500240 IEM_DS3505
ZGKL,2007-08-02 00:00,ZGKL 020000Z AUTO 07002KT 6SM 29/24 A2974 RMK SLP065 T02870238 52008 IEM_DS3505
ZGKL,2007-08-02 01:00,ZGKL 020100Z AUTO 18008KT 6SM 30/24 A2974 RMK T03000240 IEM_DS3505
ZGKL,2007-08-02 02:00,ZGKL 020200Z AUTO 16006KT 7SM 31/23 A2977 RMK T03100230 IEM_DS3505
ZGKL,2007-08-02 03:00,ZGKL 020300Z AUTO 22006KT 7SM 32/22 A2977 RMK SLP072 T03180216 52007 IEM_DS3505
ZGKL,2007-08-02 04:00,ZGKL 020400Z AUTO 17006KT 7SM 33/23 A2974 RMK T03300230 IEM_DS3505
ZGKL,2007-08-02 05:00,ZGKL 020500Z AUTO 18008KT 7SM 34/21 A2971 RMK T03400210 IEM_DS3505
ZGKL,2007-08-02 06:00,ZGKL 020600Z AUTO 27002KT 12SM 35/21 A2971 RMK SLP052 T03460213 57019 IEM_DS3505
ZGKL,2007-08-02 07:00,ZGKL 020700Z AUTO 22006KT 7SM 35/21 A2968 RMK T03500210 IEM_DS3505
ZGKL,2007-08-02 08:00,ZGKL 020800Z AUTO 22004KT 7SM 35/20 A2965 RMK T03500200 IEM_DS3505
ZGKL,2007-08-02 09:00,ZGKL 020900Z AUTO 20008KT 16SM 35/19 A2962 RMK SLP028 T03500190 57024 IEM_DS3505
ZGKL,2007-08-02 10:00,ZGKL 021000Z AUTO 19010KT 7SM 34/22 A2962 RMK T03400220 IEM_DS3505
ZGKL,2007-08-02 11:00,ZGKL 021100Z AUTO 19010KT 6SM 32/22 A2965 RMK T03200220 IEM_DS3505
ZGKL,2007-08-02 12:00,ZGKL 021200Z AUTO 22004KT 14SM 33/21 A2965 RMK SLP036 T03270212 52008 IEM_DS3505
ZGKL,2007-08-02 13:00,ZGKL 021300Z AUTO 23002KT 4SM 29/24 A2968 RMK T02900240 IEM_DS3505
ZGKL,2007-08-02 14:00,ZGKL 021400Z AUTO 00000KT 3SM 28/24 A2971 RMK T02800240 IEM_DS3505
ZGKL,2007-08-02 15:00,ZGKL 021500Z AUTO 32002KT 11SM 30/23 A2971 RMK SLP057 T02950227 52021 IEM_DS3505
ZGKL,2007-08-02 16:00,ZGKL 021600Z AUTO 00000KT 4SM 27/24 A2971 RMK T02700240 IEM_DS3505
ZGKL,2007-08-02 17:00,ZGKL 021700Z AUTO 00000KT 5SM 26/24 A2971 RMK T02600240 IEM_DS3505
ZGKL,2007-08-02 18:00,ZGKL 021800Z AUTO 09002KT 10SM 28/24 RMK SLP053 T02750235 57004 IEM_DS3505
ZGKL,2007-08-02 20:00,ZGKL 022000Z AUTO 00000KT 2SM 25/24 A2971 RMK T02500240 IEM_DS3505
ZGKL,2007-08-02 21:00,ZGKL 022100Z AUTO 04002KT 9SM 26/23 A2971 RMK SLP050 T02610232 57003 IEM_DS3505
ZGKL,2007-08-02 22:00,ZGKL 022200Z AUTO 00000KT 3SM 24/23 A2971 RMK T02400230 IEM_DS3505
ZGKL,2007-08-02 23:00,ZGKL 022300Z AUTO 00000KT 3SM 24/23 A2971 RMK T02400230 IEM_DS3505
ZGKL,2007-08-03 00:00,ZGKL 030000Z AUTO 04002KT 6SM 27/24 A2974 RMK SLP062 T02730238 52011 IEM_DS3505
ZGKL,2007-08-03 01:00,ZGKL 030100Z AUTO 18004KT 4SM 29/24 A2974 RMK T02900240 IEM_DS3505
ZGKL,2007-08-03 02:00,ZGKL 030200Z AUTO 18006KT 6SM 31/25 A2974 RMK T03100250 IEM_DS3505
ZGKL,2007-08-03 03:00,ZGKL 030300Z AUTO 22004KT 7SM 32/23 A2971 RMK SLP058 T03240231 57003 IEM_DS3505
ZGKL,2007-08-03 04:00,ZGKL 030400Z AUTO 7SM 34/23 A2971 RMK T03400230 IEM_DS3505
ZGKL,2007-08-03 05:00,ZGKL 030500Z AUTO 19008KT 7SM 35/22 A2968 RMK T03500220 IEM_DS3505
ZGKL,2007-08-03 06:00,ZGKL 030600Z AUTO 20004KT 9SM 35/21 A2968 RMK SLP040 T03460213 57018 IEM_DS3505
ZGKL,2007-08-03 07:00,ZGKL 030700Z AUTO 26008KT 7SM 36/21 A2965 RMK T03600210 IEM_DS3505
ZGKL,2007-08-03 08:00,ZGKL 030800Z AUTO 23006KT 7SM 36/21 A2962 RMK T03600210 IEM_DS3505
ZGKL,2007-08-03 09:00,ZGKL 030900Z AUTO 27004KT 9SM 36/19 A2959 RMK SLP015 T03570194 57024 IEM_DS3505
ZGKL,2007-08-03 10:00,ZGKL 031000Z AUTO 23006KT 7SM 35/21 A2959 RMK T03500210 IEM_DS3505
ZGKL,2007-08-03 11:00,ZGKL 031100Z AUTO 21004KT 7SM 34/22 A2959 RMK T03400220 IEM_DS3505
ZGKL,2007-08-03 12:00,ZGKL 031200Z AUTO 14004KT 11SM 33/22 A2962 RMK SLP025 T03260224 52009 IEM_DS3505
ZGKL,2007-08-03 13:00,ZGKL 031300Z AUTO 00000KT 6SM 29/25 A2965 RMK T02900250 IEM_DS3505
ZGKL,2007-08-03 14:00,ZGKL 031400Z AUTO 6SM 28/23 A2965 RMK T02800230 IEM_DS3505
ZGKL,2007-08-03 15:00,ZGKL 031500Z AUTO 14004KT 10SM 31/23 A2965 RMK SLP037 T03100231 52013 IEM_DS3505
ZGKL,2007-08-03 16:00,ZGKL 031600Z AUTO 00000KT 6SM 27/23 A2968 RMK T02700230 IEM_DS3505
ZGKL,2007-08-03 17:00,ZGKL 031700Z AUTO 00000KT 6SM 25/24 A2968 RMK T02500240 IEM_DS3505
ZGKL,2007-08-03 18:00,ZGKL 031800Z AUTO 36002KT 9SM 27/23 A2965 RMK SLP036 T02720234 57002 IEM_DS3505
ZGKL,2007-08-03 19:00,ZGKL 031900Z AUTO 00000KT 6SM 25/23 A2965 RMK T02500230 IEM_DS3505
ZGKL,2007-08-03 20:00,ZGKL 032000Z AUTO 00000KT 6SM 25/23 A2965 RMK T02500230 IEM_DS3505
ZGKL,2007-08-03 21:00,ZGKL 032100Z AUTO 07002KT 8SM 26/23 A2965 RMK SLP037 T02640233 52001 IEM_DS3505
ZGKL,2007-08-03 23:00,ZGKL 032300Z AUTO 00000KT 6SM 25/23 A2968 RMK T02500230 IEM_DS3505
ZGKL,2007-08-04 00:00,ZGKL 040000Z AUTO 07002KT 5SM 28/24 A2971 RMK SLP053 T02750237 52015 IEM_DS3505
ZGKL,2007-08-04 01:00,ZGKL 040100Z AUTO 00000KT 7SM 29/23 A2971 RMK T02900230 IEM_DS3505
ZGKL,2007-08-04 02:00,ZGKL 040200Z AUTO 16006KT 7SM 30/24 A2971 RMK T03000240 IEM_DS3505
ZGKL,2007-08-04 03:00,ZGKL 040300Z AUTO 20006KT 6SM 32/23 A2971 RMK SLP051 T03230233 57001 IEM_DS3505
ZGKL,2007-08-04 04:00,ZGKL 040400Z AUTO 21006KT 7SM 34/23 A2968 RMK T03400230 IEM_DS3505
ZGKL,2007-08-04 05:00,ZGKL 040500Z AUTO 16006KT 7SM 35/22 A2965 RMK T03500220 IEM_DS3505
ZGKL,2007-08-04 06:00,ZGKL 040600Z AUTO 16004KT 9SM 34/22 A2962 RMK SLP029 T03440225 57022 IEM_DS3505
ZGKL,2007-08-04 07:00,ZGKL 040700Z AUTO 17010KT 7SM 35/23 A2962 RMK T03500230 IEM_DS3505
ZGKL,2007-08-04 08:00,ZGKL 040800Z AUTO 17010KT 7SM 36/21 A2959 RMK T03600210 IEM_DS3505
ZGKL,2007-08-04 09:00,ZGKL 040900Z AUTO 16004KT 14SM 36/21 A2959 RMK SLP015 T03590214 57013 IEM_DS3505
ZGKL,2007-08-04 10:00,ZGKL 041000Z AUTO 19008KT 7SM 35/23 A2959 RMK T03500230 IEM_DS3505
ZGKL,2007-08-04 11:00,ZGKL 041100Z AUTO 18006KT 6SM 33/24 A2962 RMK T03300240 IEM_DS3505
ZGKL,2007-08-04 12:00,ZGKL 041200Z AUTO 04004KT 11SM 33/22 A2965 RMK SLP030 T03340219 52014 IEM_DS3505
ZGKL,2007-08-04 13:00,ZGKL 041300Z AUTO 00000KT 4SM 29/24 A2965 RMK T02900240 IEM_DS3505
ZGKL,2007-08-04 14:00,ZGKL 041400Z AUTO 18002KT 4SM 28/25 A2968 RMK T02800250 IEM_DS3505
ZGKL,2007-08-04 15:00,ZGKL 041500Z AUTO 32002KT 10SM 28/22 A2968 RMK SLP045 T02850220 52015 IEM_DS3505
ZGKL,2007-08-04 16:00,ZGKL 041600Z AUTO 00000KT 2 1/2SM 27/25 A2968 RMK T02700250 IEM_DS3505
ZGKL,2007-08-04 17:00,ZGKL 041700Z AUTO 00000KT 2 1/2SM 26/25 A2968 RMK T02600250 IEM_DS3505
ZGKL,2007-08-04 18:00,ZGKL 041800Z AUTO 04002KT 10SM 27/22 A2968 RMK SLP047 T02680222 52002 IEM_DS3505
ZGKL,2007-08-04 19:00,ZGKL 041900Z AUTO 32002KT 25/24 A2968 RMK T02500240 IEM_DS3505
ZGKL,2007-08-04 20:00,ZGKL 042000Z AUTO 00000KT 25/24 A2968 RMK T02500240 IEM_DS3505
ZGKL,2007-08-04 21:00,ZGKL 042100Z AUTO 04002KT 10SM 26/23 A2971 RMK SLP055 T02590226 52008 IEM_DS3505
ZGKL,2007-08-04 22:00,ZGKL 042200Z AUTO 00000KT 2SM 25/24 A2974 RMK T02500240 IEM_DS3505
ZGKL,2007-08-04 23:00,ZGKL 042300Z AUTO 00000KT 2SM 25/24 A2974 RMK T02500240 IEM_DS3505
ZGKL,2007-08-05 00:00,ZGKL 050000Z AUTO 36004KT 8SM 27/23 A2977 RMK SLP072 T02690229 52016 IEM_DS3505
ZGKL,2007-08-05 01:00,ZGKL 050100Z AUTO 00000KT 2 1/2SM 30/24 A2977 RMK T03000240 IEM_DS3505
ZGKL,2007-08-05 02:00,ZGKL 050200Z AUTO 4SM 32/25 A2977 RMK T03200250 IEM_DS3505
ZGKL,2007-08-05 03:00,ZGKL 050300Z AUTO 18004KT 9SM 33/21 A2974 RMK SLP064 T03320210 57007 IEM_DS3505
ZGKL,2007-08-05 04:00,ZGKL 050400Z AUTO 7SM 35/22 A2971 RMK T03500220 IEM_DS3505
ZGKL,2007-08-05 05:00,ZGKL 050500Z AUTO 7SM 35/22 A2971 RMK T03500220 IEM_DS3505
ZGKL,2007-08-05 06:00,ZGKL 050600Z AUTO 20002KT 12SM 36/20 A2968 RMK SLP040 T03580205 57024 IEM_DS3505
ZGKL,2007-08-05 07:00,ZGKL 050700Z AUTO 23004KT 7SM 36/21 A2965 RMK T03600210 IEM_DS3505
ZGKL,2007-08-05 08:00,ZGKL 050800Z AUTO 18006KT 7SM 36/20 A2962 RMK T03600200 IEM_DS3505
ZGKL,2007-08-05 09:00,ZGKL 050900Z AUTO 22004KT 16SM 36/20 A2962 RMK SLP022 T03650195 57017 IEM_DS3505
ZGKL,2007-08-05 10:00,ZGKL 051000Z AUTO 00000KT 6SM 36/21 A2962 RMK T03600210 IEM_DS3505
ZGKL,2007-08-05 11:00,ZGKL 051100Z AUTO 00000KT 6SM 35/21 A2962 RMK T03500210 IEM_DS3505
ZGKL,2007-08-05 12:00,ZGKL 051200Z AUTO 07002KT 11SM 32/23 A2965 RMK SLP035 T03250229 52011 IEM_DS3505
ZGKL,2007-08-05 13:00,ZGKL 051300Z AUTO 00000KT 4SM 29/25 A2965 RMK T02900250 IEM_DS3505
ZGKL,2007-08-05 14:00,ZGKL 051400Z AUTO 00000KT 3SM 28/25 A2968 RMK T02800250 IEM_DS3505
ZGKL,2007-08-05 15:00,ZGKL 051500Z AUTO 02002KT 11SM 30/23 A2971 RMK SLP048 T02960226 52014 IEM_DS3505
ZGKL,2007-08-05 16:00,ZGKL 051600Z AUTO 00000KT 4SM 27/24 A2971 RMK T02700240 IEM_DS3505
ZGKL,2007-08-05 17:00,ZGKL 051700Z AUTO 00000KT 3SM 27/24 A2971 RMK T02700240 IEM_DS3505
ZGKL,2007-08-05 18:00,ZGKL 051800Z AUTO 04002KT 10SM 28/23 A2971 RMK SLP053 T02760228 52005 IEM_DS3505
ZGKL,2007-08-05 19:00,ZGKL 051900Z AUTO 00000KT 3SM 26/24 A2971 RMK T02600240 IEM_DS3505
ZGKL,2007-08-05 20:00,ZGKL 052000Z AUTO 2 1/2SM 25/24 A2971 RMK T02500240 IEM_DS3505
ZGKL,2007-08-05 21:00,ZGKL 052100Z AUTO 04002KT 9SM 26/23 A2971 RMK SLP058 T02610230 52005 IEM_DS3505
ZGKL,2007-08-05 22:00,ZGKL 052200Z AUTO 00000KT 3SM 25/23 A2974 RMK T02500230 IEM_DS3505
ZGKL,2007-08-05 23:00,ZGKL 052300Z AUTO 00000KT 4SM 25/24 A2974 RMK T02500240 IEM_DS3505
ZGKL,2007-08-06 00:00,ZGKL 060000Z AUTO 11002KT 8SM 29/23 A2977 RMK SLP072 T02860228 52013 IEM_DS3505
ZGKL,2007-08-06 01:00,ZGKL 060100Z AUTO 00000KT 5SM 30/24 A2977 RMK T03000240 IEM_DS3505
ZGKL,2007-08-06 02:00,ZGKL 060200Z AUTO 7SM 31/23 A2977 RMK T03100230 IEM_DS3505
ZGKL,2007-08-06 03:00,ZGKL 060300Z AUTO 14006KT 8SM 33/22 A2974 RMK SLP062 T03290217 57009 IEM_DS3505
ZGKL,2007-08-06 04:00,ZGKL 060400Z AUTO 7SM 34/22 A2971 RMK T03400220 IEM_DS3505
ZGKL,2007-08-06 05:00,ZGKL 060500Z AUTO 7SM 34/22 A2971 RMK T03400220 IEM_DS3505
ZGKL,2007-08-06 06:00,ZGKL 060600Z AUTO 25004KT 9SM 36/21 A2968 RMK SLP039 T03570212 57022 IEM_DS3505
ZGKL,2007-08-06 07:00,ZGKL 060700Z AUTO 16006KT 7SM 36/20 A2965 RMK T03600200 IEM_DS3505
ZGKL,2007-08-06 08:00,ZGKL 060800Z AUTO 7SM 36/20 A2962 RMK T03600200 IEM_DS3505
ZGKL,2007-08-06 09:00,ZGKL 060900Z AUTO 29004KT 9SM 36/20 A2959 RMK SLP015 T03580205 57024 IEM_DS3505
ZGKL,2007-08-06 10:00,ZGKL 061000Z AUTO 6SM 35/20 A2959 RMK T03500200 IEM_DS3505
ZGKL,2007-08-06 11:00,ZGKL 061100Z AUTO 07004KT 6SM 34/22 A2959 RMK T03400220 IEM_DS3505
ZGKL,2007-08-06 12:00,ZGKL 061200Z AUTO 09002KT 9SM 33/23 A2962 RMK SLP025 T03270228 52009 IEM_DS3505
ZGKL,2007-08-06 13:00,ZGKL 061300Z AUTO 00000KT 4SM 29/25 A2965 RMK T02900250 IEM_DS3505
ZGKL,2007-08-06 14:00,ZGKL 061400Z AUTO 00000KT 4SM 29/24 A2968 RMK T02900240 IEM_DS3505
ZGKL,2007-08-06 15:00,ZGKL 061500Z AUTO 18004KT 9SM 32/22 A2968 RMK SLP043 T03170221 52019 IEM_DS3505
ZGKL,2007-08-06 16:00,ZGKL 061600Z AUTO 00000KT 4SM 29/24 A2968 RMK T02900240 IEM_DS3505
ZGKL,2007-08-06 17:00,ZGKL 061700Z AUTO 00000KT 3SM 27/25 A2968 RMK T02700250 IEM_DS3505
ZGKL,2007-08-06 18:00,ZGKL 061800Z AUTO 11002KT 9SM 30/22 A2968 RMK SLP041 T02990221 57002 IEM_DS3505
ZGKL,2007-08-06 19:00,ZGKL 061900Z AUTO 32004KT 26/24 A2968 RMK T02600240 IEM_DS3505
ZGKL,2007-08-06 20:00,ZGKL 062000Z AUTO 34004KT 2 1/2SM 26/24 A2965 RMK T02600240 IEM_DS3505
ZGKL,2007-08-06 21:00,ZGKL 062100Z AUTO 20004KT 9SM 28/22 A2965 RMK SLP036 T02820220 57005 IEM_DS3505
ZGKL,2007-08-06 22:00,ZGKL 062200Z AUTO 00000KT 2 1/2SM 25/24 A2968 RMK T02500240 IEM_DS3505
ZGKL,2007-08-06 23:00,ZGKL 062300Z AUTO 00000KT 2 1/2SM 25/24 A2968 RMK T02500240 IEM_DS3505
ZGKL,2007-08-07 00:00,ZGKL 070000Z AUTO 09002KT 9SM 29/23 A2971 RMK SLP051 T02920232 52014 IEM_DS3505
ZGKL,2007-08-07 01:00,ZGKL 070100Z AUTO 00000KT 4SM 30/24 A2971 RMK T03000240 IEM_DS3505
ZGKL,2007-08-07 02:00,ZGKL 070200Z AUTO 20004KT 7SM 32/22 A2971 RMK T03200220 IEM_DS3505
ZGKL,2007-08-07 03:00,ZGKL 070300Z AUTO 07002KT 8SM 33/22 A2971 RMK SLP049 T03270219 57001 IEM_DS3505
ZGKL,2007-08-07 04:00,ZGKL 070400Z AUTO 7SM 33/22 A2968 RMK T03300220 IEM_DS3505
ZGKL,2007-08-07 05:00,ZGKL 070500Z AUTO 7SM 34/22 A2965 RMK T03400220 IEM_DS3505
ZGKL,2007-08-07 06:00,ZGKL 070600Z AUTO 29004KT 9SM 35/21 A2962 RMK SLP026 T03470207 57023 IEM_DS3505
ZGKL,2007-08-07 07:00,ZGKL 070700Z AUTO 7SM 36/21 A2959 RMK T03600210 IEM_DS3505
ZGKL,2007-08-07 08:00,ZGKL 070800Z AUTO 7SM 36/20 A2956 RMK T03600200 IEM_DS3505
ZGKL,2007-08-07 09:00,ZGKL 070900Z AUTO 27004KT 11SM 36/20 A2953 RMK SLP996 T03590202 57029 IEM_DS3505
ZGKL,2007-08-07 10:00,ZGKL 071000Z AUTO 7SM 35/21 A2953 RMK T03500210 IEM_DS3505
ZGKL,2007-08-07 11:00,ZGKL 071100Z AUTO 00000KT 6SM 34/22 A2953 RMK T03400220 IEM_DS3505
ZGKL,2007-08-07 12:00,ZGKL 071200Z AUTO 27002KT 11SM 34/21 A2956 RMK SLP005 T03350210 52008 IEM_DS3505
ZGKL,2007-08-07 13:00,ZGKL 071300Z AUTO 00000KT 6SM 29/24 A2959 RMK T02900240 IEM_DS3505
ZGKL,2007-08-07 14:00,ZGKL 071400Z AUTO 00000KT 6SM 29/25 A2959 RMK T02900250 IEM_DS3505
ZGKL,2007-08-07 15:00,ZGKL 071500Z AUTO 07004KT 11SM 30/24 A2959 RMK SLP012 T02980242 52007 IEM_DS3505
ZGKL,2007-08-07 16:00,ZGKL 071600Z AUTO 00000KT 6SM 27/25 A2959 RMK T02700250 IEM_DS3505
ZGKL,2007-08-07 17:00,ZGKL 071700Z AUTO 00000KT 6SM 27/24 A2959 RMK T02700240 IEM_DS3505
ZGKL,2007-08-07 18:00,ZGKL 071800Z AUTO 04002KT 9SM 28/23 A2956 RMK SLP006 T02830234 57006 IEM_DS3505
ZGKL,2007-08-07 19:00,ZGKL 071900Z AUTO 00000KT 5SM 26/25 A2956 RMK T02600250 IEM_DS3505
ZGKL,2007-08-07 20:00,ZGKL 072000Z AUTO 00000KT 5SM 26/24 A2956 RMK T02600240 IEM_DS3505
ZGKL,2007-08-07 21:00,ZGKL 072100Z AUTO 32002KT 9SM 27/24 A2956 RMK SLP002 T02700235 57004 IEM_DS3505
ZGKL,2007-08-07 22:00,ZGKL 072200Z AUTO 00000KT 5SM 25/24 A2956 RMK T02500240 IEM_DS3505
ZGKL,2007-08-07 23:00,ZGKL 072300Z AUTO 00000KT 3SM 25/24 A2956 RMK T02500240 IEM_DS3505
ZGKL,2007-08-08 00:00,ZGKL 080000Z AUTO 07002KT 5SM 28/24 A2959 RMK SLP012 T02850239 52010 IEM_DS3505
ZGKL,2007-08-08 01:00,ZGKL 080100Z AUTO 00000KT 6SM 30/24 A2959 RMK T03000240 IEM_DS3505
ZGKL,2007-08-08 02:00,ZGKL 080200Z AUTO 6SM 32/24 A2959 RMK T03200240 IEM_DS3505
ZGKL,2007-08-08 03:00,ZGKL 080300Z AUTO 25004KT 5SM 34/23 A2959 RMK SLP009 T03380226 57003 IEM_DS3505
ZGKL,2007-08-08 04:00,ZGKL 080400Z AUTO 7SM 35/23 A2956 RMK T03500230 IEM_DS3505
ZGKL,2007-08-08 05:00,ZGKL 080500Z AUTO 7SM 37/22 A2953 RMK T03700220 IEM_DS3505
ZGKL,2007-08-08 06:00,ZGKL 080600Z AUTO 02008KT 10SM 38/19 A2950 RMK SLP979 T03810190 57028 IEM_DS3505
ZGKL,2007-08-08 07:00,ZGKL 080700Z AUTO 7SM 38/19 A2947 RMK T03800190 IEM_DS3505
ZGKL,2007-08-08 08:00,ZGKL 080800Z AUTO 06008KT 7SM 38/18 A2944 RMK T03800180 IEM_DS3505
ZGKL,2007-08-08 09:00,ZGKL 080900Z AUTO 07006KT 12SM 38/19 A2941 RMK SLP956 T03840188 57023 IEM_DS3505
ZGKL,2007-08-08 10:00,ZGKL 081000Z AUTO 28006KT 7SM 36/24 A2941 RMK T03600240 IEM_DS3505
ZGKL,2007-08-08 11:00,ZGKL 081100Z AUTO 00000KT 7SM 34/24 A2944 RMK T03400240 IEM_DS3505
ZGKL,2007-08-08 12:00,ZGKL 081200Z AUTO 02002KT 11SM 34/20 A2947 RMK SLP971 T03410201 52014 IEM_DS3505
ZGKL,2007-08-08 13:00,ZGKL 081300Z AUTO 7SM 31/25 A2947 RMK T03100250 IEM_DS3505
ZGKL,2007-08-08 14:00,ZGKL 081400Z AUTO 6SM 30/25 A2950 RMK T03000250 IEM_DS3505
ZGKL,2007-08-08 15:00,ZGKL 081500Z AUTO 02004KT 11SM 33/21 A2950 RMK SLP983 T03270212 52013 IEM_DS3505
ZGKL,2007-08-08 16:00,ZGKL 081600Z AUTO 6SM 30/25 A2950 RMK T03000250 IEM_DS3505
ZGKL,2007-08-08 17:00,ZGKL 081700Z AUTO 6SM 30/25 A2950 RMK T03000250 IEM_DS3505
ZGKL,2007-08-08 18:00,ZGKL 081800Z AUTO 04004KT 10SM 30/22 A2950 RMK SLP976 T03020218 57007 IEM_DS3505
ZGKL,2007-08-08 19:00,ZGKL 081900Z AUTO 33004KT 6SM 28/24 A2947 RMK T02800240 IEM_DS3505
ZGKL,2007-08-08 20:00,ZGKL 082000Z AUTO 6SM 28/24 A2947 RMK T02800240 IEM_DS3505
ZGKL,2007-08-08 21:00,ZGKL 082100Z AUTO 02006KT 9SM 30/22 A2947 RMK SLP976 T03030222 54000 IEM_DS3505
ZGKL,2007-08-08 22:00,ZGKL 082200Z AUTO 34004KT 6SM 27/24 A2950 RMK T02700240 IEM_DS3505
ZGKL,2007-08-08 23:00,ZGKL 082300Z AUTO 00000KT 6SM 28/24 A2950 RMK T02800240 IEM_DS3505
ZGKL,2007-08-09 00:00,ZGKL 090000Z AUTO 02006KT 9SM 31/23 A2950 RMK SLP986 T03080229 52009 IEM_DS3505
ZGKL,2007-08-09 01:00,ZGKL 090100Z AUTO 32004KT 6SM 31/25 A2950 RMK T03100250 IEM_DS3505
ZGKL,2007-08-09 02:00,ZGKL 090200Z AUTO 6SM 33/24 A2950 RMK T03300240 IEM_DS3505
ZGKL,2007-08-09 03:00,ZGKL 090300Z AUTO 04006KT 9SM 33/23 A2950 RMK SLP987 T03290233 52001 IEM_DS3505
ZGKL,2007-08-09 04:00,ZGKL 090400Z AUTO 06012KT 7SM 35/23 A2950 RMK T03500230 IEM_DS3505
ZGKL,2007-08-09 05:00,ZGKL 090500Z AUTO 7SM 35/23 A2947 RMK T03500230 IEM_DS3505
ZGKL,2007-08-09 06:00,ZGKL 090600Z AUTO 36012KT 10SM 35/22 A2944 RMK SLP963 T03540224 57023 IEM_DS3505
ZGKL,2007-08-09 07:00,ZGKL 090700Z AUTO 04012KT 7SM 36/22 A2941 RMK T03600220 IEM_DS3505
ZGKL,2007-08-09 08:00,ZGKL 090800Z AUTO 05012KT 7SM 36/21 A2941 RMK T03600210 IEM_DS3505
ZGKL,2007-08-09 09:00,ZGKL 090900Z AUTO 04008KT 11SM 36/22 A2938 RMK SLP944 T03610223 57019 IEM_DS3505
ZGKL,2007-08-09 10:00,ZGKL 091000Z AUTO 6SM 36/22 A2938 RMK T03600220 IEM_DS3505
ZGKL,2007-08-09 11:00,ZGKL 091100Z AUTO 07006KT 6SM 34/23 A2941 RMK T03400230 IEM_DS3505
ZGKL,2007-08-09 12:00,ZGKL 091200Z AUTO 04006KT 11SM 34/21 A2944 RMK SLP961 T03370212 52016 IEM_DS3505
ZGKL,2007-08-09 13:00,ZGKL 091300Z AUTO 04012KT 6SM 34/21 A2944 RMK T03400210 IEM_DS3505
ZGKL,2007-08-09 14:00,ZGKL 091400Z AUTO 03012KT 6SM 33/21 A2947 RMK T03300210 IEM_DS3505
ZGKL,2007-08-09 15:00,ZGKL 091500Z AUTO 04004KT 10SM 32/22 A2947 RMK SLP971 T03170221 52010 IEM_DS3505
ZGKL,2007-08-09 16:00,ZGKL 091600Z AUTO 25004KT 6SM 30/24 A2947 RMK T03000240 IEM_DS3505
ZGKL,2007-08-09 17:00,ZGKL 091700Z AUTO 28004KT 6SM 30/23 A2947 RMK T03000230 IEM_DS3505
ZGKL,2007-08-09 18:00,ZGKL 091800Z AUTO 02008KT 10SM 31/23 A2944 RMK SLP965 T03110227 57005 IEM_DS3505
ZGKL,2007-08-09 19:00,ZGKL 091900Z AUTO 32004KT 6SM 29/24 A2944 RMK T02900240 IEM_DS3505
ZGKL,2007-08-09 20:00,ZGKL 092000Z AUTO 00000KT 6SM 28/24 A2941 RMK T02800240 IEM_DS3505
ZGKL,2007-08-09 21:00,ZGKL 092100Z AUTO 02004KT 9SM 30/23 A2941 RMK SLP957 T02950234 57008 IEM_DS3505
ZGKL,2007-08-09 22:00,ZGKL 092200Z AUTO 00000KT 7SM 28/24 A2941 RMK T02800240 IEM_DS3505
ZGKL,2007-08-09 23:00,ZGKL 092300Z AUTO 00000KT 7SM 28/25 A2944 RMK T02800250 IEM_DS3505
ZGKL,2007-08-10 00:00,ZGKL 100000Z AUTO 02010KT 8SM 31/24 A2944 RMK SLP962 T03090241 52004 IEM_DS3505
ZGKL,2007-08-10 01:00,ZGKL 100100Z AUTO 03012KT 7SM 34/24 A2944 RMK T03400240 IEM_DS3505
ZGKL,2007-08-10 02:00,ZGKL 100200Z AUTO 7SM 34/24 A2944 RMK T03400240 IEM_DS3505
ZGKL,2007-08-10 03:00,ZGKL 100300Z AUTO 02006KT 8SM 35/24 A2944 RMK SLP962 T03480238 52001 IEM_DS3505
ZGKL,2007-08-10 04:00,ZGKL 100400Z AUTO 05012KT 7SM 36/23 A2941 RMK T03600230 IEM_DS3505
ZGKL,2007-08-10 05:00,ZGKL 100500Z AUTO 05012KT 7SM 37/23 A2941 RMK T03700230 IEM_DS3505
ZGKL,2007-08-10 06:00,ZGKL 100600Z AUTO 02006KT 9SM 36/23 A2938 RMK SLP939 T03610226 57022 IEM_DS3505
ZGKL,2007-08-10 07:00,ZGKL 100700Z AUTO 04012KT 7SM 38/22 A2935 RMK T03800220 IEM_DS3505
ZGKL,2007-08-10 08:00,ZGKL 100800Z AUTO 13012KT 7SM 34/25 A2932 RMK T03400250 IEM_DS3505
ZGKL,2007-08-10 09:00,ZGKL 100900Z AUTO 18004KT 9SM 36/24 A2932 RMK SLP914 T03550235 57026 IEM_DS3505
ZGKL,2007-08-10 10:00,ZGKL 101000Z AUTO 7SM 30/26 A2932 RMK T03000260 IEM_DS3505
ZGKL,2007-08-10 11:00,ZGKL 101100Z AUTO 00000KT 7SM 30/26 A2932 RMK T03000260 IEM_DS3505
ZGKL,2007-08-10 12:00,ZGKL 101200Z AUTO 02004KT 9SM 33/23 A2935 RMK SLP932 T03260233 52018 IEM_DS3505
ZGKL,2007-08-10 13:00,ZGKL 101300Z AUTO 00000KT 3SM 29/27 A2938 RMK T02900270 IEM_DS3505
ZGKL,2007-08-10 14:00,ZGKL 101400Z AUTO 00000KT 3SM 28/26 A2938 RMK T02800260 IEM_DS3505
ZGKL,2007-08-10 15:00,ZGKL 101500Z AUTO 02006KT 9SM 31/23 A2941 RMK SLP953 T03130231 52021 IEM_DS3505
ZGKL,2007-08-10 16:00,ZGKL 101600Z AUTO 3SM 28/26 A2941 RMK T02800260 IEM_DS3505
ZGKL,2007-08-10 17:00,ZGKL 101700Z AUTO 4SM 28/26 A2941 RMK T02800260 IEM_DS3505
ZGKL,2007-08-10 18:00,ZGKL 101800Z AUTO 36004KT 9SM 30/23 A2938 RMK SLP946 T02970234 57007 IEM_DS3505
ZGKL,2007-08-10 19:00,ZGKL 101900Z AUTO 32004KT 27/25 A2938 RMK T02700250 IEM_DS3505
ZGKL,2007-08-10 20:00,ZGKL 102000Z AUTO 27/25 A2938 RMK T02700250 IEM_DS3505
ZGKL,2007-08-10 21:00,ZGKL 102100Z AUTO 02004KT 9SM 29/23 A2935 RMK SLP939 T02870234 57007 IEM_DS3505
ZGKL,2007-08-10 22:00,ZGKL 102200Z AUTO 00000KT 6SM 26/24 A2938 RMK T02600240 IEM_DS3505
ZGKL,2007-08-10 23:00,ZGKL 102300Z AUTO 00000KT 6SM 27/25 A2938 RMK T02700250 IEM_DS3505
ZGKL,2007-08-11 00:00,ZGKL 110000Z AUTO 02006KT 9SM 30/24 A2938 RMK SLP948 T03010235 52008 IEM_DS3505
ZGKL,2007-08-11 01:00,ZGKL 110100Z AUTO 6SM 31/24 A2941 RMK T03100240 IEM_DS3505
ZGKL,2007-08-11 02:00,ZGKL 110200Z AUTO 6SM 33/24 A2941 RMK T03300240 IEM_DS3505
ZGKL,2007-08-11 03:00,ZGKL 110300Z AUTO 04008KT 9SM 34/24 A2941 RMK SLP955 T03430237 52008 IEM_DS3505
ZGKL,2007-08-11 04:00,ZGKL 110400Z AUTO 7SM 36/24 A2938 RMK T03600240 IEM_DS3505
ZGKL,2007-08-11 05:00,ZGKL 110500Z AUTO 7SM 36/23 A2938 RMK T03600230 IEM_DS3505
ZGKL,2007-08-11 06:00,ZGKL 110600Z AUTO 36010KT 9SM 37/22 A2935 RMK SLP932 T03680225 57023 IEM_DS3505
ZGKL,2007-08-11 07:00,ZGKL 110700Z AUTO 7SM 37/23 A2932 RMK T03700230 IEM_DS3505
ZGKL,2007-08-11 08:00,ZGKL 110800Z AUTO 6SM 30/26 A2932 RMK T03000260 IEM_DS3505
ZGKL,2007-08-11 09:00,ZGKL 110900Z AUTO 32006KT 9SM 33/23 A2935 RMK SLP926 T03320229 57007 IEM_DS3505
ZGKL,2007-08-11 10:00,ZGKL 111000Z AUTO 33006KT 6SM 28/24 A2935 RMK T02800240 IEM_DS3505
ZGKL,2007-08-11 11:00,ZGKL 111100Z AUTO 33006KT 6SM 29/25 A2935 RMK T02900250 IEM_DS3505
ZGKL,2007-08-11 12:00,ZGKL 111200Z AUTO 02008KT 9SM 31/23 A2938 RMK SLP942 T03070226 52016 IEM_DS3505
ZGKL,2007-08-11 13:00,ZGKL 111300Z AUTO 00000KT 4SM 28/26 A2941 RMK T02800260 IEM_DS3505
ZGKL,2007-08-11 14:00,ZGKL 111400Z AUTO 31002KT 4SM 28/25 A2941 RMK T02800250 IEM_DS3505
ZGKL,2007-08-11 15:00,ZGKL 111500Z AUTO 02006KT 9SM 29/22 A2944 RMK SLP965 T02930225 52023 IEM_DS3505
ZGKL,2007-08-11 16:00,ZGKL 111600Z AUTO 00000KT 4SM 27/24 A2947 RMK T02700240 IEM_DS3505
ZGKL,2007-08-11 17:00,ZGKL 111700Z AUTO 4SM 27/25 A2947 RMK T02700250 IEM_DS3505
ZGKL,2007-08-11 18:00,ZGKL 111800Z AUTO 02006KT 9SM 29/23 A2947 RMK 60000 SLP971 T02860226 52006 IEM_DS3505
ZGKL,2007-08-11 19:00,ZGKL 111900Z AUTO 00000KT 4SM 26/24 A2944 RMK T02600240 IEM_DS3505
ZGKL,2007-08-11 20:00,ZGKL 112000Z AUTO 00000KT 26/24 A2944 RMK T02600240 IEM_DS3505
ZGKL,2007-08-11 21:00,ZGKL 112100Z AUTO 02006KT 9SM 28/22 A2944 RMK 70000 SLP965 T02770222 57007 IEM_DS3505
ZGKL,2007-08-11 22:00,ZGKL 112200Z AUTO 00000KT 4SM 26/24 A2947 RMK T02600240 IEM_DS3505
ZGKL,2007-08-11 23:00,ZGKL 112300Z AUTO 00000KT 5SM 26/25 A2947 RMK T02600250 IEM_DS3505
ZGKL,2007-08-12 00:00,ZGKL 120000Z AUTO 02002KT 6SM 28/22 A2950 RMK 70000 SLP982 T02750222 52016 IEM_DS3505
ZGKL,2007-08-12 01:00,ZGKL 120100Z AUTO 00000KT 4SM 27/24 A2950 RMK T02700240 IEM_DS3505
ZGKL,2007-08-12 02:00,ZGKL 120200Z AUTO 00000KT 5SM 28/24 A2953 RMK T02800240 IEM_DS3505
ZGKL,2007-08-12 03:00,ZGKL 120300Z AUTO 04004KT 7SM 29/22 A2953 RMK SLP999 T02860224 52017 IEM_DS3505
ZGKL,2007-08-12 04:00,ZGKL 120400Z AUTO 5SM 30/23 A2953 RMK T03000230 IEM_DS3505
ZGKL,2007-08-12 05:00,ZGKL 120500Z AUTO 6SM 32/23 A2950 RMK T03200230 IEM_DS3505
ZGKL,2007-08-12 06:00,ZGKL 120600Z AUTO 02006KT 8SM 33/22 A2950 RMK SLP982 T03260221 57016 IEM_DS3505
ZGKL,2007-08-12 07:00,ZGKL 120700Z AUTO 09006KT 6SM 33/22 A2947 RMK T03300220 IEM_DS3505
ZGKL,2007-08-12 08:00,ZGKL 120800Z AUTO 04008KT 6SM 32/22 A2944 RMK T03200220 IEM_DS3505
ZGKL,2007-08-12 09:00,ZGKL 120900Z AUTO 02004KT 8SM 31/22 A2944 RMK SLP965 T03130218 57017 IEM_DS3505
ZGKL,2007-08-12 10:00,ZGKL 121000Z AUTO 34006KT 5SM 29/25 A2947 RMK T02900250 IEM_DS3505
ZGKL,2007-08-12 11:00,ZGKL 121100Z AUTO 33004KT 5SM 28/24 A2947 RMK T02800240 IEM_DS3505
ZGKL,2007-08-12 12:00,ZGKL 121200Z AUTO 02004KT 9SM 30/22 A2953 RMK SLP991 T02960221 52025 IEM_DS3505
ZGKL,2007-08-12 13:00,ZGKL 121300Z AUTO 34004KT 4SM 27/24 A2953 RMK T02700240 IEM_DS3505
ZGKL,2007-08-12 14:00,ZGKL 121400Z AUTO 5SM 26/24 A2956 RMK T02600240 IEM_DS3505
ZGKL,2007-08-12 15:00,ZGKL 121500Z AUTO 36006KT 8SM 28/22 A2956 RMK SLP009 T02850220 52017 IEM_DS3505
ZGKL,2007-08-12 16:00,ZGKL 121600Z AUTO 4SM 26/24 A2956 RMK T02600240 IEM_DS3505
ZGKL,2007-08-12 17:00,ZGKL 121700Z AUTO 33004KT 3SM 26/25 A2956 RMK T02600250 IEM_DS3505
ZGKL,2007-08-12 18:00,ZGKL 121800Z AUTO 07002KT 7SM 28/22 A2956 RMK SLP004 T02760225 57004 IEM_DS3505
ZGKL,2007-08-12 19:00,ZGKL 121900Z AUTO 00000KT 26/25 A2953 RMK T02600250 IEM_DS3505
ZGKL,2007-08-12 20:00,ZGKL 122000Z AUTO 00000KT 26/25 A2956 RMK T02600250 IEM_DS3505
ZGKL,2007-08-12 21:00,ZGKL 122100Z AUTO 07002KT 7SM 26/23 A2956 RMK SLP001 T02630226 57003 IEM_DS3505
ZGKL,2007-08-12 22:00,ZGKL 122200Z AUTO 00000KT 3SM 26/24 A2956 RMK T02600240 IEM_DS3505
ZGKL,2007-08-12 23:00,ZGKL 122300Z AUTO 04004KT 2 1/2SM 26/24 A2956 RMK T02600240 IEM_DS3505
ZGKL,2007-08-13 00:00,ZGKL 130000Z AUTO 02002KT 5SM 27/23 A2956 RMK SLP010 T02660227 52008 IEM_DS3505
ZGKL,2007-08-13 01:00,ZGKL 130100Z AUTO 00000KT 2 1/2SM 26/25 A2959 RMK T02600250 IEM_DS3505
ZGKL,2007-08-13 02:00,ZGKL 130200Z AUTO 00000KT 2 1/2SM 27/24 A2959 RMK T02700240 IEM_DS3505
ZGKL,2007-08-13 03:00,ZGKL 130300Z AUTO 07002KT 5SM 29/23 A2959 RMK SLP020 T02890226 52010 IEM_DS3505
ZGKL,2007-08-13 04:00,ZGKL 130400Z AUTO 14012KT 1SM 24/24 A2959 RMK T02400240 IEM_DS3505
ZGKL,2007-08-13 05:00,ZGKL 130500Z AUTO 10004KT 2SM 25/23 A2959 RMK T02500230 IEM_DS3505
ZGKL,2007-08-13 06:00,ZGKL 130600Z AUTO 34002KT 4SM 27/24 A2956 RMK 60016 SLP011 T02660235 57010 IEM_DS3505
ZGKL,2007-08-13 07:00,ZGKL 130700Z AUTO 2SM 29/25 A2953 RMK T02900250 IEM_DS3505
ZGKL,2007-08-13 08:00,ZGKL 130800Z AUTO 2 1/2SM 30/24 A2953 RMK T03000240 IEM_DS3505
ZGKL,2007-08-13 09:00,ZGKL 130900Z AUTO 25002KT 3SM 29/24 A2953 RMK SLP990 T02940238 57020 IEM_DS3505
ZGKL,2007-08-13 10:00,ZGKL 131000Z AUTO 3SM 28/23 A2950 RMK T02800230 IEM_DS3505
ZGKL,2007-08-13 11:00,ZGKL 131100Z AUTO 00000KT 3SM 27/24 A2953 RMK T02700240 IEM_DS3505
ZGKL,2007-08-13 12:00,ZGKL 131200Z AUTO 34002KT 3SM 28/23 A2953 RMK 60000 SLP997 T02840231 52007 IEM_DS3505
ZGKL,2007-08-13 13:00,ZGKL 131300Z AUTO 00000KT 2 1/2SM 26/24 A2956 RMK T02600240 IEM_DS3505
ZGKL,2007-08-13 14:00,ZGKL 131400Z AUTO 00000KT 2 1/2SM 26/24 A2959 RMK T02600240 IEM_DS3505
ZGKL,2007-08-13 15:00,ZGKL 131500Z AUTO 32004KT 3SM 27/24 A2959 RMK SLP013 T02710242 52016 IEM_DS3505
ZGKL,2007-08-13 16:00,ZGKL 131600Z AUTO 30004KT 2 1/2SM 26/24 A2959 RMK T02600240 IEM_DS3505
ZGKL,2007-08-13 17:00,ZGKL 131700Z AUTO 00000KT 3SM 26/24 A2959 RMK T02600240 IEM_DS3505
ZGKL,2007-08-13 18:00,ZGKL 131800Z AUTO 02002KT 3SM 26/24 A2956 RMK SLP013 T02640237 57001 IEM_DS3505
ZGKL,2007-08-13 19:00,ZGKL 131900Z AUTO 00000KT 2 1/2SM 25/24 A2956 RMK T02500240 IEM_DS3505
ZGKL,2007-08-13 20:00,ZGKL 132000Z AUTO 00000KT 2 1/2SM 25/23 A2956 RMK T02500230 IEM_DS3505
ZGKL,2007-08-13 21:00,ZGKL 132100Z AUTO 34004KT 3SM 26/22 A2956 RMK 70015 SLP007 T02580219 57005 IEM_DS3505
ZGKL,2007-08-13 22:00,ZGKL 132200Z AUTO 35006KT 2SM 24/23 A2956 RMK T02400230 IEM_DS3505
ZGKL,2007-08-13 23:00,ZGKL 132300Z AUTO 3SM 24/23 A2959 RMK T02400230 IEM_DS3505
ZGKL,2007-08-14 00:00,ZGKL 140000Z AUTO 04004KT 5SM 25/22 A2959 RMK 60000 70015 SLP017 T02500215 52009 IEM_DS3505
ZGKL,2007-08-14 01:00,ZGKL 140100Z AUTO 33004KT 4SM 26/21 A2959 RMK T02600210 IEM_DS3505
ZGKL,2007-08-14 02:00,ZGKL 140200Z AUTO 4SM 29/22 A2962 RMK T02900220 IEM_DS3505
ZGKL,2007-08-14 03:00,ZGKL 140300Z AUTO 02006KT 5SM 30/20 A2959 RMK SLP019 T03020202 52003 IEM_DS3505
ZGKL,2007-08-14 04:00,ZGKL 140400Z AUTO 4SM 32/21 A2959 RMK T03200210 IEM_DS3505
ZGKL,2007-08-14 05:00,ZGKL 140500Z AUTO 08006KT 4SM 32/21 A2956 RMK T03200210 IEM_DS3505
ZGKL,2007-08-14 06:00,ZGKL 140600Z AUTO 04006KT 6SM 34/20 A2953 RMK SLP998 T03370201 57020 IEM_DS3505
ZGKL,2007-08-14 07:00,ZGKL 140700Z AUTO 4SM 34/20 A2950 RMK T03400200 IEM_DS3505
ZGKL,2007-08-14 08:00,ZGKL 140800Z AUTO 08006KT 4SM 34/20 A2950 RMK T03400200 IEM_DS3505
ZGKL,2007-08-14 09:00,ZGKL 140900Z AUTO 02010KT 6SM 33/20 A2950 RMK SLP981 T03290204 57017 IEM_DS3505
ZGKL,2007-08-14 10:00,ZGKL 141000Z AUTO 03014KT 3SM 30/20 A2950 RMK T03000200 IEM_DS3505
ZGKL,2007-08-14 11:00,ZGKL 141100Z AUTO 28008KT 3SM 25/23 A2953 RMK T02500230 IEM_DS3505
ZGKL,2007-08-14 12:00,ZGKL 141200Z AUTO 02004KT 6SM 29/21 A2956 RMK SLP003 T02920212 52020 IEM_DS3505
ZGKL,2007-08-14 13:00,ZGKL 141300Z AUTO 00000KT 2SM 25/24 A2956 RMK T02500240 IEM_DS3505
ZGKL,2007-08-14 14:00,ZGKL 141400Z AUTO 00000KT 1 1/2SM 25/24 A2959 RMK T02500240 IEM_DS3505
ZGKL,2007-08-14 15:00,ZGKL 141500Z AUTO 02002KT 4SM 27/22 A2959 RMK SLP016 T02710223 52014 IEM_DS3505
ZGKL,2007-08-14 16:00,ZGKL 141600Z AUTO 00000KT 1SM 24/23 A2959 RMK T02400230 IEM_DS3505
ZGKL,2007-08-14 17:00,ZGKL 141700Z AUTO 00000KT 1 1/4SM 24/23 A2956 RMK T02400230 IEM_DS3505
ZGKL,2007-08-14 18:00,ZGKL 141800Z AUTO 04002KT 4SM 26/22 A2956 RMK SLP007 T02560221 57008 IEM_DS3505
ZGKL,2007-08-14 19:00,ZGKL 141900Z AUTO 00000KT 24/23 A2956 RMK T02400230 IEM_DS3505
ZGKL,2007-08-14 20:00,ZGKL 142000Z AUTO 00000KT 23/23 A2956 RMK T02300230 IEM_DS3505
ZGKL,2007-08-14 21:00,ZGKL 142100Z AUTO 02002KT 4SM 25/22 A2956 RMK 70000 SLP010 T02500215 52002 IEM_DS3505
ZGKL,2007-08-14 22:00,ZGKL 142200Z AUTO 00000KT 1 1/4SM 23/22 A2959 RMK T02300220 IEM_DS3505
ZGKL,2007-08-14 23:00,ZGKL 142300Z AUTO 33006KT 2SM 23/22 A2959 RMK T02300220 IEM_DS3505
ZGKL,2007-08-15 00:00,ZGKL 150000Z AUTO 02004KT 4SM 26/20 A2959 RMK SLP019 T02640203 52009 IEM_DS3505
ZGKL,2007-08-15 01:00,ZGKL 150100Z AUTO 2 1/2SM 27/22 A2962 RMK T02700220 IEM_DS3505
ZGKL,2007-08-15 02:00,ZGKL 150200Z AUTO 00000KT 2 1/2SM 30/22 A2962 RMK T03000220 IEM_DS3505
ZGKL,2007-08-15 03:00,ZGKL 150300Z AUTO 02008KT 4SM 32/19 A2959 RMK SLP015 T03190192 57003 IEM_DS3505
ZGKL,2007-08-15 04:00,ZGKL 150400Z AUTO 07008KT 4SM 33/18 A2959 RMK T03300180 IEM_DS3505
ZGKL,2007-08-15 05:00,ZGKL 150500Z AUTO 05008KT 4SM 34/18 A2956 RMK T03400180 IEM_DS3505
ZGKL,2007-08-15 06:00,ZGKL 150600Z AUTO 02006KT 6SM 35/17 A2953 RMK SLP997 T03510169 57017 IEM_DS3505
ZGKL,2007-08-15 07:00,ZGKL 150700Z AUTO 08008KT 5SM 35/19 A2953 RMK T03500190 IEM_DS3505
ZGKL,2007-08-15 08:00,ZGKL 150800Z AUTO 06006KT 4SM 35/18 A2950 RMK T03500180 IEM_DS3505
ZGKL,2007-08-15 09:00,ZGKL 150900Z AUTO 04006KT 6SM 35/18 A2950 RMK SLP983 T03480175 57014 IEM_DS3505
ZGKL,2007-08-15 10:00,ZGKL 151000Z AUTO 00000KT 4SM 34/20 A2950 RMK T03400200 IEM_DS3505
ZGKL,2007-08-15 11:00,ZGKL 151100Z AUTO 00000KT 4SM 31/22 A2953 RMK T03100220 IEM_DS3505
ZGKL,2007-08-15 12:00,ZGKL 151200Z AUTO 36002KT 5SM 31/20 A2953 RMK SLP002 T03090199 52017 IEM_DS3505
ZGKL,2007-08-15 13:00,ZGKL 151300Z AUTO 33004KT 2 1/2SM 27/24 A2956 RMK T02700240 IEM_DS3505
ZGKL,2007-08-15 14:00,ZGKL 151400Z AUTO 35006KT 2SM 27/23 A2959 RMK T02700230 IEM_DS3505
ZGKL,2007-08-15 15:00,ZGKL 151500Z AUTO 02004KT 5SM 29/19 A2959 RMK SLP015 T02890187 52014 IEM_DS3505
ZGKL,2007-08-15 16:00,ZGKL 151600Z AUTO 00000KT 2 1/2SM 25/22 A2962 RMK T02500220 IEM_DS3505
ZGKL,2007-08-15 17:00,ZGKL 151700Z AUTO 32006KT 2 1/2SM 24/22 A2962 RMK T02400220 IEM_DS3505
ZGKL,2007-08-15 18:00,ZGKL 151800Z AUTO 36006KT 5SM 28/17 A2959 RMK SLP018 T02800172 52004 IEM_DS3505
ZGKL,2007-08-15 19:00,ZGKL 151900Z AUTO 00000KT 2 1/2SM 24/21 A2959 RMK T02400210 IEM_DS3505
ZGKL,2007-08-15 20:00,ZGKL 152000Z AUTO 00000KT 23/20 A2959 RMK T02300200 IEM_DS3505
ZGKL,2007-08-15 21:00,ZGKL 152100Z AUTO 02004KT 5SM 26/18 A2962 RMK SLP023 T02570181 52004 IEM_DS3505
ZGKL,2007-08-15 22:00,ZGKL 152200Z AUTO 00000KT 3SM 22/20 A2962 RMK T02200200 IEM_DS3505
ZGKL,2007-08-15 23:00,ZGKL 152300Z AUTO 00000KT 2 1/2SM 22/21 A2965 RMK T02200210 IEM_DS3505
ZGKL,2007-08-16 00:00,ZGKL 160000Z AUTO 36004KT 4SM 26/19 A2965 RMK SLP040 T02620191 52016 IEM_DS3505
ZGKL,2007-08-16 01:00,ZGKL 160100Z AUTO 3SM 27/20 A2968 RMK T02700200 IEM_DS3505
ZGKL,2007-08-16 02:00,ZGKL 160200Z AUTO 3SM 30/20 A2968 RMK T03000200 IEM_DS3505
ZGKL,2007-08-16 03:00,ZGKL 160300Z AUTO 02008KT 4SM 31/19 A2968 RMK SLP042 T03080189 52002 IEM_DS3505
ZGKL,2007-08-16 04:00,ZGKL 160400Z AUTO 03010KT 3SM 32/18 A2965 RMK T03200180 IEM_DS3505
ZGKL,2007-08-16 05:00,ZGKL 160500Z AUTO 05010KT 3SM 33/18 A2965 RMK T03300180 IEM_DS3505
ZGKL,2007-08-16 06:00,ZGKL 160600Z AUTO 02008KT 5SM 33/18 A2962 RMK SLP026 T03330179 57015 IEM_DS3505
ZGKL,2007-08-16 07:00,ZGKL 160700Z AUTO 07010KT 4SM 33/19 A2959 RMK T03300190 IEM_DS3505
ZGKL,2007-08-16 08:00,ZGKL 160800Z AUTO 07010KT 4SM 34/19 A2959 RMK T03400190 IEM_DS3505
ZGKL,2007-08-16 09:00,ZGKL 160900Z AUTO 04006KT 7SM 33/18 A2959 RMK SLP013 T03300176 57013 IEM_DS3505
ZGKL,2007-08-16 10:00,ZGKL 161000Z AUTO 05014KT 5SM 32/18 A2959 RMK T03200180 IEM_DS3505
ZGKL,2007-08-16 11:00,ZGKL 161100Z AUTO 05010KT 5SM 31/18 A2962 RMK T03100180 IEM_DS3505
ZGKL,2007-08-16 12:00,ZGKL 161200Z AUTO 02006KT 6SM 29/19 A2962 RMK SLP034 T02930187 52019 IEM_DS3505
ZGKL,2007-08-16 13:00,ZGKL 161300Z AUTO 05017KT 4SM 28/19 A2965 RMK T02800190 IEM_DS3505
ZGKL,2007-08-16 14:00,ZGKL 161400Z AUTO 05014KT 4SM 27/19 A2968 RMK T02700190 IEM_DS3505
ZGKL,2007-08-16 15:00,ZGKL 161500Z AUTO 04006KT 6SM 27/19 A2968 RMK SLP053 T02670191 52020 IEM_DS3505
ZGKL,2007-08-16 16:00,ZGKL 161600Z AUTO 05016KT 6SM 26/19 A2971 RMK T02600190 IEM_DS3505
ZGKL,2007-08-16 17:00,ZGKL 161700Z AUTO 05008KT 5SM 26/20 A2971 RMK T02600200 IEM_DS3505
ZGKL,2007-08-16 18:00,ZGKL 161800Z AUTO 02006KT 6SM 25/19 A2968 RMK SLP049 T02530194 57004 IEM_DS3505
ZGKL,2007-08-16 19:00,ZGKL 161900Z AUTO 04006KT 6SM 25/20 A2968 RMK T02500200 IEM_DS3505
ZGKL,2007-08-16 20:00,ZGKL 162000Z AUTO 06004KT 4SM 23/21 A2968 RMK T02300210 IEM_DS3505
ZGKL,2007-08-16 21:00,ZGKL 162100Z AUTO 02004KT 4SM 23/21 A2971 RMK 70002 SLP054 T02300209 52004 IEM_DS3505
ZGKL,2007-08-16 22:00,ZGKL 162200Z AUTO 00000KT 2SM 23/22 A2971 RMK T02300220 IEM_DS3505
ZGKL,2007-08-16 23:00,ZGKL 162300Z AUTO 2 1/2SM 23/22 A2971 RMK T02300220 IEM_DS3505
ZGKL,2007-08-17 00:00,ZGKL 170000Z AUTO 02008KT 7SM 24/21 A2971 RMK 60003 70003 SLP057 T02420211 52002 IEM_DS3505
ZGKL,2007-08-17 01:00,ZGKL 170100Z AUTO 7SM 24/22 A2971 RMK T02400220 IEM_DS3505
ZGKL,2007-08-17 02:00,ZGKL 170200Z AUTO 00000KT 7SM 26/23 A2971 RMK T02600230 IEM_DS3505
ZGKL,2007-08-17 03:00,ZGKL 170300Z AUTO 02006KT 9SM 28/21 A2971 RMK SLP061 T02780214 52004 IEM_DS3505
ZGKL,2007-08-17 04:00,ZGKL 170400Z AUTO 30006KT 7SM 27/23 A2971 RMK T02700230 IEM_DS3505
ZGKL,2007-08-17 05:00,ZGKL 170500Z AUTO 7SM 30/22 A2968 RMK T03000220 IEM_DS3505
ZGKL,2007-08-17 06:00,ZGKL 170600Z AUTO 04010KT 11SM 32/21 A2968 RMK SLP040 T03240206 57019 IEM_DS3505
ZGKL,2007-08-17 07:00,ZGKL 170700Z AUTO 7SM 33/21 A2965 RMK T03300210 IEM_DS3505
ZGKL,2007-08-17 08:00,ZGKL 170800Z AUTO 03012KT 7SM 33/21 A2962 RMK T03300210 IEM_DS3505
ZGKL,2007-08-17 09:00,ZGKL 170900Z AUTO 02012KT 14SM 32/20 A2962 RMK SLP028 T03250204 57013 IEM_DS3505
ZGKL,2007-08-17 10:00,ZGKL 171000Z AUTO 03012KT 7SM 32/20 A2962 RMK T03200200 IEM_DS3505
ZGKL,2007-08-17 11:00,ZGKL 171100Z AUTO 02008KT 6SM 31/20 A2962 RMK T03100200 IEM_DS3505
ZGKL,2007-08-17 12:00,ZGKL 171200Z AUTO 02006KT 12SM 29/21 A2965 RMK SLP038 T02940214 52010 IEM_DS3505
ZGKL,2007-08-17 13:00,ZGKL 171300Z AUTO 6SM 29/21 A2968 RMK T02900210 IEM_DS3505
ZGKL,2007-08-17 14:00,ZGKL 171400Z AUTO 00000KT 6SM 27/22 A2971 RMK T02700220 IEM_DS3505
ZGKL,2007-08-17 15:00,ZGKL 171500Z AUTO 36008KT 10SM 29/21 A2971 RMK SLP052 T02870212 52014 IEM_DS3505
ZGKL,2007-08-17 16:00,ZGKL 171600Z AUTO 00000KT 6SM 26/23 A2971 RMK T02600230 IEM_DS3505
ZGKL,2007-08-17 17:00,ZGKL 171700Z AUTO 00000KT 6SM 25/23 A2968 RMK T02500230 IEM_DS3505
ZGKL,2007-08-17 18:00,ZGKL 171800Z AUTO 36006KT 9SM 28/22 A2968 RMK SLP044 T02800218 57006 IEM_DS3505
ZGKL,2007-08-17 19:00,ZGKL 171900Z AUTO 00000KT 6SM 25/23 A2968 RMK T02500230 IEM_DS3505
ZGKL,2007-08-17 20:00,ZGKL 172000Z AUTO 6SM 25/22 A2968 RMK T02500220 IEM_DS3505
ZGKL,2007-08-17 21:00,ZGKL 172100Z AUTO 02006KT 9SM 27/22 A2968 RMK 70001 SLP044 T02740224 57001 IEM_DS3505
ZGKL,2007-08-17 22:00,ZGKL 172200Z AUTO 00000KT 6SM 25/23 A2968 RMK T02500230 IEM_DS3505
ZGKL,2007-08-17 23:00,ZGKL 172300Z AUTO 00000KT 5SM 25/23 A2971 RMK T02500230 IEM_DS3505
ZGKL,2007-08-18 00:00,ZGKL 180000Z AUTO 02006KT 5SM 29/23 A2971 RMK SLP054 T02870227 52010 IEM_DS3505
ZGKL,2007-08-18 01:00,ZGKL 180100Z AUTO 00000KT 6SM 28/23 A2971 RMK T02800230 IEM_DS3505
ZGKL,2007-08-18 02:00,ZGKL 180200Z AUTO 05012KT 7SM 32/23 A2971 RMK T03200230 IEM_DS3505
ZGKL,2007-08-18 03:00,ZGKL 180300Z AUTO 02010KT 6SM 32/22 A2971 RMK SLP058 T03190220 52004 IEM_DS3505
ZGKL,2007-08-18 04:00,ZGKL 180400Z AUTO 04012KT 7SM 34/22 A2971 RMK T03400220 IEM_DS3505
ZGKL,2007-08-18 05:00,ZGKL 180500Z AUTO 05012KT 7SM 34/22 A2968 RMK T03400220 IEM_DS3505
ZGKL,2007-08-18 06:00,ZGKL 180600Z AUTO 36008KT 8SM 34/22 A2965 RMK SLP037 T03420220 57020 IEM_DS3505
ZGKL,2007-08-18 07:00,ZGKL 180700Z AUTO 06010KT 7SM 36/21 A2962 RMK T03600210 IEM_DS3505
ZGKL,2007-08-18 08:00,ZGKL 180800Z AUTO 04010KT 7SM 36/20 A2959 RMK T03600200 IEM_DS3505
ZGKL,2007-08-18 09:00,ZGKL 180900Z AUTO 02008KT 9SM 35/21 A2956 RMK SLP009 T03530212 57027 IEM_DS3505
ZGKL,2007-08-18 10:00,ZGKL 181000Z AUTO 06008KT 7SM 34/21 A2956 RMK T03400210 IEM_DS3505
ZGKL,2007-08-18 11:00,ZGKL 181100Z AUTO 07008KT 7SM 33/22 A2959 RMK T03300220 IEM_DS3505
ZGKL,2007-08-18 12:00,ZGKL 181200Z AUTO 04004KT 10SM 32/21 A2962 RMK SLP020 T03150214 52010 IEM_DS3505
ZGKL,2007-08-18 13:00,ZGKL 181300Z AUTO 6SM 30/22 A2962 RMK T03000220 IEM_DS3505
ZGKL,2007-08-18 14:00,ZGKL 181400Z AUTO 29004KT 6SM 28/24 A2965 RMK T02800240 IEM_DS3505
ZGKL,2007-08-18 15:00,ZGKL 181500Z AUTO 09002KT 9SM 29/22 A2962 RMK SLP026 T02910223 52006 IEM_DS3505
ZGKL,2007-08-18 16:00,ZGKL 181600Z AUTO 00000KT 6SM 28/24 A2962 RMK T02800240 IEM_DS3505
ZGKL,2007-08-18 17:00,ZGKL 181700Z AUTO 31004KT 5SM 26/24 A2962 RMK T02600240 IEM_DS3505
ZGKL,2007-08-18 18:00,ZGKL 181800Z AUTO 02004KT 8SM 28/22 A2962 RMK SLP024 T02820220 57001 IEM_DS3505
ZGKL,2007-08-18 19:00,ZGKL 181900Z AUTO 00000KT 26/24 A2962 RMK T02600240 IEM_DS3505
ZGKL,2007-08-18 20:00,ZGKL 182000Z AUTO 30004KT 25/23 A2962 RMK T02500230 IEM_DS3505
ZGKL,2007-08-18 21:00,ZGKL 182100Z AUTO 04004KT 7SM 28/22 A2962 RMK SLP024 T02770217 54000 IEM_DS3505
ZGKL,2007-08-18 22:00,ZGKL 182200Z AUTO 00000KT 5SM 25/23 A2965 RMK T02500230 IEM_DS3505
ZGKL,2007-08-18 23:00,ZGKL 182300Z AUTO 00000KT 6SM 25/23 A2965 RMK T02500230 IEM_DS3505
ZGKL,2007-08-19 00:00,ZGKL 190000Z AUTO 36006KT 6SM 29/21 A2968 RMK SLP042 T02890214 52017 IEM_DS3505
ZGKL,2007-08-19 01:00,ZGKL 190100Z AUTO 6SM 29/23 A2968 RMK T02900230 IEM_DS3505
ZGKL,2007-08-19 02:00,ZGKL 190200Z AUTO 6SM 32/23 A2968 RMK T03200230 IEM_DS3505
ZGKL,2007-08-19 03:00,ZGKL 190300Z AUTO 36006KT 7SM 33/21 A2968 RMK SLP042 T03280207 54000 IEM_DS3505
ZGKL,2007-08-19 04:00,ZGKL 190400Z AUTO 7SM 34/21 A2965 RMK T03400210 IEM_DS3505
ZGKL,2007-08-19 05:00,ZGKL 190500Z AUTO 18006KT 7SM 35/21 A2965 RMK T03500210 IEM_DS3505
ZGKL,2007-08-19 06:00,ZGKL 190600Z AUTO 36004KT 12SM 36/18 A2962 RMK SLP019 T03640185 57022 IEM_DS3505
ZGKL,2007-08-19 07:00,ZGKL 190700Z AUTO 20004KT 7SM 36/21 A2959 RMK T03600210 IEM_DS3505
ZGKL,2007-08-19 08:00,ZGKL 190800Z AUTO 24006KT 7SM 36/22 A2956 RMK T03600220 IEM_DS3505
ZGKL,2007-08-19 09:00,ZGKL 190900Z AUTO 36004KT 14SM 36/19 A2956 RMK SLP000 T03630193 57019 IEM_DS3505
ZGKL,2007-08-19 10:00,ZGKL 191000Z AUTO 23006KT 7SM 34/22 A2956 RMK T03400220 IEM_DS3505
ZGKL,2007-08-19 11:00,ZGKL 191100Z AUTO 23006KT 7SM 32/23 A2956 RMK T03200230 IEM_DS3505
ZGKL,2007-08-19 12:00,ZGKL 191200Z AUTO 34002KT 11SM 33/22 A2956 RMK SLP007 T03310216 52007 IEM_DS3505
ZGKL,2007-08-19 13:00,ZGKL 191300Z AUTO 00000KT 5SM 30/24 A2959 RMK T03000240 IEM_DS3505
ZGKL,2007-08-19 14:00,ZGKL 191400Z AUTO 03008KT 5SM 30/23 A2962 RMK T03000230 IEM_DS3505
ZGKL,2007-08-19 15:00,ZGKL 191500Z AUTO 02002KT 10SM 30/23 A2965 RMK SLP029 T02960228 52021 IEM_DS3505
ZGKL,2007-08-19 16:00,ZGKL 191600Z AUTO 00000KT 4SM 28/23 A2965 RMK T02800230 IEM_DS3505
ZGKL,2007-08-19 17:00,ZGKL 191700Z AUTO 00000KT 4SM 27/24 A2962 RMK T02700240 IEM_DS3505
ZGKL,2007-08-19 18:00,ZGKL 191800Z AUTO 02004KT 9SM 29/21 A2962 RMK SLP023 T02860206 57005 IEM_DS3505
ZGKL,2007-08-19 19:00,ZGKL 191900Z AUTO 00000KT 26/24 A2965 RMK T02600240 IEM_DS3505
ZGKL,2007-08-19 20:00,ZGKL 192000Z AUTO 00000KT 25/23 A2965 RMK T02500230 IEM_DS3505
ZGKL,2007-08-19 21:00,ZGKL 192100Z AUTO 36002KT 8SM 28/21 A2965 RMK SLP031 T02750208 52008 IEM_DS3505
ZGKL,2007-08-19 22:00,ZGKL 192200Z AUTO 00000KT 4SM 25/23 A2965 RMK T02500230 IEM_DS3505
ZGKL,2007-08-19 23:00,ZGKL 192300Z AUTO 00000KT 4SM 25/23 A2965 RMK T02500230 IEM_DS3505
ZGKL,2007-08-20 00:00,ZGKL 200000Z AUTO 02002KT 7SM 29/22 A2968 RMK SLP042 T02930215 52010 IEM_DS3505
ZGKL,2007-08-20 01:00,ZGKL 200100Z AUTO 00000KT 6SM 30/22 A2968 RMK T03000220 IEM_DS3505
ZGKL,2007-08-20 02:00,ZGKL 200200Z AUTO 6SM 31/22 A2968 RMK T03100220 IEM_DS3505
ZGKL,2007-08-20 03:00,ZGKL 200300Z AUTO 04006KT 7SM 32/21 A2968 RMK SLP046 T03220208 52004 IEM_DS3505
ZGKL,2007-08-20 04:00,ZGKL 200400Z AUTO 19004KT 6SM 33/21 A2968 RMK T03300210 IEM_DS3505
ZGKL,2007-08-20 05:00,ZGKL 200500Z AUTO 12006KT 7SM 34/20 A2965 RMK T03400200 IEM_DS3505
ZGKL,2007-08-20 06:00,ZGKL 200600Z AUTO 09004KT 9SM 32/20 A2965 RMK SLP033 T03250201 57013 IEM_DS3505
ZGKL,2007-08-20 07:00,ZGKL 200700Z AUTO 07006KT 7SM 33/21 A2962 RMK T03300210 IEM_DS3505
ZGKL,2007-08-20 08:00,ZGKL 200800Z AUTO 7SM 34/21 A2959 RMK T03400210 IEM_DS3505
ZGKL,2007-08-20 09:00,ZGKL 200900Z AUTO 32004KT 10SM 35/20 A2959 RMK SLP013 T03470195 57019 IEM_DS3505
ZGKL,2007-08-20 10:00,ZGKL 201000Z AUTO 00000KT 6SM 32/23 A2959 RMK T03200230 IEM_DS3505
ZGKL,2007-08-20 11:00,ZGKL 201100Z AUTO 00000KT 6SM 31/23 A2959 RMK T03100230 IEM_DS3505
ZGKL,2007-08-20 12:00,ZGKL 201200Z AUTO 02002KT 9SM 31/21 A2962 RMK SLP026 T03060208 52012 IEM_DS3505
ZGKL,2007-08-20 13:00,ZGKL 201300Z AUTO 4SM 31/22 A2965 RMK T03100220 IEM_DS3505
ZGKL,2007-08-20 14:00,ZGKL 201400Z AUTO 00000KT 3SM 29/24 A2965 RMK T02900240 IEM_DS3505
ZGKL,2007-08-20 15:00,ZGKL 201500Z AUTO 36004KT 7SM 29/21 A2968 RMK SLP037 T02920212 52011 IEM_DS3505
ZGKL,2007-08-20 16:00,ZGKL 201600Z AUTO 00000KT 3SM 28/24 A2965 RMK T02800240 IEM_DS3505
ZGKL,2007-08-20 17:00,ZGKL 201700Z AUTO 00000KT 3SM 28/24 A2965 RMK T02800240 IEM_DS3505
ZGKL,2007-08-20 18:00,ZGKL 201800Z AUTO 04002KT 7SM 28/22 A2965 RMK SLP030 T02790222 57007 IEM_DS3505
ZGKL,2007-08-20 19:00,ZGKL 201900Z AUTO 00000KT 26/24 A2962 RMK T02600240 IEM_DS3505
ZGKL,2007-08-20 20:00,ZGKL 202000Z AUTO 00000KT 2 1/2SM 26/25 A2962 RMK T02600250 IEM_DS3505
ZGKL,2007-08-20 21:00,ZGKL 202100Z AUTO 09002KT 7SM 26/22 A2962 RMK SLP023 T02640225 57007 IEM_DS3505
ZGKL,2007-08-20 22:00,ZGKL 202200Z AUTO 00000KT 2SM 26/24 A2962 RMK T02600240 IEM_DS3505
ZGKL,2007-08-20 23:00,ZGKL 202300Z AUTO 00000KT 2SM 26/24 A2965 RMK T02600240 IEM_DS3505
ZGKL,2007-08-21 00:00,ZGKL 210000Z AUTO 09002KT 4SM 27/23 A2965 RMK SLP042 T02660227 52018 IEM_DS3505
ZGKL,2007-08-21 01:00,ZGKL 210100Z AUTO 00000KT 2 1/2SM 28/24 A2965 RMK T02800240 IEM_DS3505
ZGKL,2007-08-21 02:00,ZGKL 210200Z AUTO 18002KT 3SM 30/24 A2965 RMK T03000240 IEM_DS3505
ZGKL,2007-08-21 03:00,ZGKL 210300Z AUTO 04002KT 5SM 30/23 A2965 RMK SLP039 T03030227 57003 IEM_DS3505
ZGKL,2007-08-21 04:00,ZGKL 210400Z AUTO 4SM 32/22 A2965 RMK T03200220 IEM_DS3505
ZGKL,2007-08-21 05:00,ZGKL 210500Z AUTO 17006KT 4SM 32/23 A2965 RMK T03200230 IEM_DS3505
ZGKL,2007-08-21 06:00,ZGKL 210600Z AUTO 04004KT 5SM 33/23 A2962 RMK SLP025 T03270228 57013 IEM_DS3505
ZGKL,2007-08-21 07:00,ZGKL 210700Z AUTO 7SM 33/23 A2959 RMK T03300230 IEM_DS3505
ZGKL,2007-08-21 08:00,ZGKL 210800Z AUTO 19008KT 7SM 32/24 A2956 RMK T03200240 IEM_DS3505
ZGKL,2007-08-21 09:00,ZGKL 210900Z AUTO 16004KT 6SM 30/23 A2959 RMK SLP014 T02970229 57012 IEM_DS3505
ZGKL,2007-08-21 10:00,ZGKL 211000Z AUTO 00000KT 4SM 27/24 A2959 RMK T02700240 IEM_DS3505
ZGKL,2007-08-21 11:00,ZGKL 211100Z AUTO 18002KT 4SM 27/24 A2962 RMK T02700240 IEM_DS3505
ZGKL,2007-08-21 12:00,ZGKL 211200Z AUTO 14004KT 6SM 27/22 A2962 RMK SLP027 T02730225 52012 IEM_DS3505
ZGKL,2007-08-21 13:00,ZGKL 211300Z AUTO 12004KT 3SM 26/24 A2965 RMK T02600240 IEM_DS3505
ZGKL,2007-08-21 14:00,ZGKL 211400Z AUTO 00000KT 2 1/2SM 26/25 A2965 RMK T02600250 IEM_DS3505
ZGKL,2007-08-21 15:00,ZGKL 211500Z AUTO 09002KT 6SM 27/23 A2965 RMK SLP040 T02740228 52014 IEM_DS3505
ZGKL,2007-08-21 16:00,ZGKL 211600Z AUTO 18002KT 2 1/2SM 26/25 A2965 RMK T02600250 IEM_DS3505
ZGKL,2007-08-21 17:00,ZGKL 211700Z AUTO 22006KT 5SM 26/24 A2965 RMK T02600240 IEM_DS3505
ZGKL,2007-08-21 18:00,ZGKL 211800Z AUTO 16004KT 6SM 27/23 A2965 RMK SLP034 T02690229 57005 IEM_DS3505
ZGKL,2007-08-21 19:00,ZGKL 211900Z AUTO 17010KT 26/24 A2965 RMK T02600240 IEM_DS3505
ZGKL,2007-08-21 20:00,ZGKL 212000Z AUTO 19010KT 26/23 A2965 RMK T02600230 IEM_DS3505
ZGKL,2007-08-21 21:00,ZGKL 212100Z AUTO 18004KT 5SM 27/23 A2965 RMK SLP034 T02660233 57001 IEM_DS3505
ZGKL,2007-08-21 22:00,ZGKL 212200Z AUTO 18010KT 7SM 25/23 A2965 RMK T02500230 IEM_DS3505
ZGKL,2007-08-21 23:00,ZGKL 212300Z AUTO 17010KT 7SM 26/23 A2968 RMK T02600230 IEM_DS3505
ZGKL,2007-08-22 00:00,ZGKL 220000Z AUTO 18004KT 5SM 27/22 A2968 RMK SLP044 T02740219 52009 IEM_DS3505
ZGKL,2007-08-22 01:00,ZGKL 220100Z AUTO 18010KT 7SM 27/23 A2968 RMK T02700230 IEM_DS3505
ZGKL,2007-08-22 02:00,ZGKL 220200Z AUTO 18010KT 7SM 28/23 A2968 RMK T02800230 IEM_DS3505
ZGKL,2007-08-22 03:00,ZGKL 220300Z AUTO 22006KT 7SM 30/22 A2968 RMK SLP046 T02970216 52003 IEM_DS3505
ZGKL,2007-08-22 04:00,ZGKL 220400Z AUTO 20006KT 7SM 30/23 A2968 RMK T03000230 IEM_DS3505
ZGKL,2007-08-22 05:00,ZGKL 220500Z AUTO 20008KT 7SM 31/24 A2965 RMK T03100240 IEM_DS3505
ZGKL,2007-08-22 06:00,ZGKL 220600Z AUTO 16004KT 9SM 31/23 A2962 RMK 60002 SLP025 T03070231 57021 IEM_DS3505
ZGKL,2007-08-22 07:00,ZGKL 220700Z AUTO 17008KT 5SM 31/23 A2959 RMK T03100230 IEM_DS3505
ZGKL,2007-08-22 08:00,ZGKL 220800Z AUTO 17010KT 5SM 31/23 A2959 RMK T03100230 IEM_DS3505
ZGKL,2007-08-22 09:00,ZGKL 220900Z AUTO 14004KT 7SM 31/22 A2956 RMK SLP007 T03090222 57018 IEM_DS3505
ZGKL,2007-08-22 10:00,ZGKL 221000Z AUTO 17008KT 4SM 30/23 A2956 RMK T03000230 IEM_DS3505
ZGKL,2007-08-22 11:00,ZGKL 221100Z AUTO 16006KT 4SM 29/24 A2959 RMK T02900240 IEM_DS3505
ZGKL,2007-08-22 12:00,ZGKL 221200Z AUTO 18006KT 7SM 29/23 A2962 RMK 60000 SLP024 T02940231 52017 IEM_DS3505
ZGKL,2007-08-22 13:00,ZGKL 221300Z AUTO 33008KT 4SM 25/22 A2965 RMK T02500220 IEM_DS3505
ZGKL,2007-08-22 14:00,ZGKL 221400Z AUTO 14010KT 3SM 24/23 A2968 RMK T02400230 IEM_DS3505
ZGKL,2007-08-22 15:00,ZGKL 221500Z AUTO 32004KT 5SM 24/23 A2968 RMK SLP050 T02410234 52024 IEM_DS3505
ZGKL,2007-08-22 16:00,ZGKL 221600Z AUTO 23004KT 3SM 24/23 A2968 RMK T02400230 IEM_DS3505
ZGKL,2007-08-22 17:00,ZGKL 221700Z AUTO 18006KT 4SM 23/22 A2968 RMK T02300220 IEM_DS3505
ZGKL,2007-08-22 18:00,ZGKL 221800Z AUTO 14006KT 5SM 24/24 A2968 RMK 60122 SLP047 T02370237 57002 IEM_DS3505
ZGKL,2007-08-22 19:00,ZGKL 221900Z AUTO 15002KT 23/22 A2965 RMK T02300220 IEM_DS3505
ZGKL,2007-08-22 20:00,ZGKL 222000Z AUTO 23/22 A2965 RMK T02300220 IEM_DS3505
ZGKL,2007-08-22 21:00,ZGKL 222100Z AUTO 16002KT 4SM 23/23 A2965 RMK 70165 SLP040 T02340234 57007 IEM_DS3505
ZGKL,2007-08-22 22:00,ZGKL 222200Z AUTO 00000KT 5SM 23/22 A2968 RMK T02300220 IEM_DS3505
ZGKL,2007-08-22 23:00,ZGKL 222300Z AUTO 00000KT 4SM 23/22 A2968 RMK T02300220 IEM_DS3505
ZGKL,2007-08-23 00:00,ZGKL 230000Z AUTO 00000KT 3SM 24/24 A2968 RMK 60055 70180 SLP054 T02410239 52013 IEM_DS3505
ZGKL,2007-08-23 01:00,ZGKL 230100Z AUTO 00000KT 5SM 24/23 A2971 RMK T02400230 IEM_DS3505
ZGKL,2007-08-23 02:00,ZGKL 230200Z AUTO 00000KT 5SM 25/23 A2971 RMK T02500230 IEM_DS3505
ZGKL,2007-08-23 03:00,ZGKL 230300Z AUTO 16002KT 5SM 25/24 A2971 RMK SLP061 T02480239 52006 IEM_DS3505
ZGKL,2007-08-23 04:00,ZGKL 230400Z AUTO 21004KT 2 1/2SM 25/24 A2971 RMK T02500240 IEM_DS3505
ZGKL,2007-08-23 05:00,ZGKL 230500Z AUTO 17008KT 4SM 25/24 A2971 RMK T02500240 IEM_DS3505
ZGKL,2007-08-23 06:00,ZGKL 230600Z AUTO 14004KT 3SM 24/24 A2968 RMK 60020 SLP056 T02440235 57005 IEM_DS3505
ZGKL,2007-08-23 07:00,ZGKL 230700Z AUTO 16006KT 5SM 26/24 A2968 RMK T02600240 IEM_DS3505
ZGKL,2007-08-23 08:00,ZGKL 230800Z AUTO 15008KT 7SM 26/24 A2968 RMK T02600240 IEM_DS3505
ZGKL,2007-08-23 09:00,ZGKL 230900Z AUTO 14004KT 9SM 25/23 A2968 RMK SLP049 T02520229 57007 IEM_DS3505
ZGKL,2007-08-23 10:00,ZGKL 231000Z AUTO 14006KT 7SM 26/24 A2968 RMK T02600240 IEM_DS3505
ZGKL,2007-08-23 11:00,ZGKL 231100Z AUTO 00000KT 7SM 25/24 A2968 RMK T02500240 IEM_DS3505
ZGKL,2007-08-23 12:00,ZGKL 231200Z AUTO 07002KT 7SM 25/23 A2971 RMK 60001 SLP059 T02530232 52010 IEM_DS3505
ZGKL,2007-08-23 13:00,ZGKL 231300Z AUTO 00000KT 7SM 25/24 A2974 RMK T02500240 IEM_DS3505
ZGKL,2007-08-23 14:00,ZGKL 231400Z AUTO 00000KT 7SM 25/24 A2977 RMK T02500240 IEM_DS3505
ZGKL,2007-08-23 15:00,ZGKL 231500Z AUTO 07002KT 7SM 25/24 A2977 RMK SLP083 T02520236 52024 IEM_DS3505
ZGKL,2007-08-23 16:00,ZGKL 231600Z AUTO 00000KT 7SM 25/24 A2977 RMK T02500240 IEM_DS3505
ZGKL,2007-08-23 17:00,ZGKL 231700Z AUTO 2 1/2SM 25/24 A2977 RMK T02500240 IEM_DS3505
ZGKL,2007-08-23 18:00,ZGKL 231800Z AUTO 07004KT 5SM 24/24 A2977 RMK SLP079 T02440244 57005 IEM_DS3505
ZGKL,2007-08-23 19:00,ZGKL 231900Z AUTO 00000KT 25/24 A2977 RMK T02500240 IEM_DS3505
ZGKL,2007-08-23 20:00,ZGKL 232000Z AUTO 00000KT 2 1/2SM 25/24 A2974 RMK T02500240 IEM_DS3505
ZGKL,2007-08-23 21:00,ZGKL 232100Z AUTO 00000KT 5SM 24/24 A2977 RMK 70036 SLP078 T02450245 54000 IEM_DS3505
ZGKL,2007-08-23 22:00,ZGKL 232200Z AUTO 00000KT 2SM 24/24 A2977 RMK T02400240 IEM_DS3505
ZGKL,2007-08-23 23:00,ZGKL 232300Z AUTO 1 1/2SM 25/24 A2980 RMK T02500240 IEM_DS3505
ZGKL,2007-08-24 00:00,ZGKL 240000Z AUTO 02002KT 9SM 25/24 A2980 RMK 70021 SLP094 T02520238 52016 IEM_DS3505
ZGKL,2007-08-24 01:00,ZGKL 240100Z AUTO 00000KT 3SM 27/24 A2983 RMK T02700240 IEM_DS3505
ZGKL,2007-08-24 02:00,ZGKL 240200Z AUTO 4SM 27/24 A2983 RMK T02700240 IEM_DS3505
ZGKL,2007-08-24 03:00,ZGKL 240300Z AUTO 09002KT 10SM 29/23 A2985 RMK SLP104 T02910231 52011 IEM_DS3505
ZGKL,2007-08-24 04:00,ZGKL 240400Z AUTO 12008KT 7SM 30/24 A2983 RMK T03000240 IEM_DS3505
ZGKL,2007-08-24 05:00,ZGKL 240500Z AUTO 15004KT 7SM 31/23 A2983 RMK T03100230 IEM_DS3505
ZGKL,2007-08-24 06:00,ZGKL 240600Z AUTO 18004KT 12SM 32/22 A2980 RMK SLP082 T03230224 57021 IEM_DS3505
ZGKL,2007-08-24 07:00,ZGKL 240700Z AUTO 7SM 31/24 A2977 RMK T03100240 IEM_DS3505
ZGKL,2007-08-24 08:00,ZGKL 240800Z AUTO 7SM 30/24 A2977 RMK T03000240 IEM_DS3505
ZGKL,2007-08-24 09:00,ZGKL 240900Z AUTO 27004KT 15SM 31/24 A2977 RMK SLP074 T03060238 57009 IEM_DS3505
ZGKL,2007-08-24 10:00,ZGKL 241000Z AUTO 17008KT 7SM 24/22 A2980 RMK T02400220 IEM_DS3505
ZGKL,2007-08-24 11:00,ZGKL 241100Z AUTO 10004KT 7SM 24/23 A2983 RMK T02400230 IEM_DS3505
ZGKL,2007-08-24 12:00,ZGKL 241200Z AUTO 36004KT 7SM 24/23 A2983 RMK 60016 SLP104 T02440232 52028 IEM_DS3505
ZGKL,2007-08-24 13:00,ZGKL 241300Z AUTO 7SM 24/23 A2985 RMK T02400230 IEM_DS3505
ZGKL,2007-08-24 14:00,ZGKL 241400Z AUTO 33004KT 7SM 24/23 A2988 RMK T02400230 IEM_DS3505
ZGKL,2007-08-24 15:00,ZGKL 241500Z AUTO 02004KT 5SM 24/22 A2988 RMK SLP113 T02370221 52010 IEM_DS3505
ZGKL,2007-08-24 16:00,ZGKL 241600Z AUTO 00000KT 6SM 24/22 A2988 RMK T02400220 IEM_DS3505
ZGKL,2007-08-24 17:00,ZGKL 241700Z AUTO 00000KT 7SM 24/23 A2988 RMK T02400230 IEM_DS3505
ZGKL,2007-08-24 18:00,ZGKL 241800Z AUTO 32002KT 6SM 24/22 A2985 RMK 60004 SLP111 T02380224 57001 IEM_DS3505
ZGKL,2007-08-24 19:00,ZGKL 241900Z AUTO 00000KT 4SM 24/23 A2985 RMK T02400230 IEM_DS3505
ZGKL,2007-08-24 20:00,ZGKL 242000Z AUTO 00000KT 24/23 A2983 RMK T02400230 IEM_DS3505
ZGKL,2007-08-24 21:00,ZGKL 242100Z AUTO 00000KT 6SM 23/23 A2985 RMK 70020 SLP102 T02340229 57009 IEM_DS3505
ZGKL,2007-08-24 22:00,ZGKL 242200Z AUTO 00000KT 4SM 24/23 A2985 RMK T02400230 IEM_DS3505
ZGKL,2007-08-24 23:00,ZGKL 242300Z AUTO 00000KT 5SM 24/23 A2985 RMK T02400230 IEM_DS3505
ZGKL,2007-08-25 00:00,ZGKL 250000Z AUTO 36002KT 7SM 24/22 A2985 RMK 60002 70022 SLP114 T02390225 52010 IEM_DS3505
ZGKL,2007-08-25 01:00,ZGKL 250100Z AUTO 00000KT 4SM 25/24 A2988 RMK T02500240 IEM_DS3505
ZGKL,2007-08-25 02:00,ZGKL 250200Z AUTO 00000KT 6SM 26/23 A2988 RMK T02600230 IEM_DS3505
ZGKL,2007-08-25 03:00,ZGKL 250300Z AUTO 11002KT 8SM 28/22 A2988 RMK SLP116 T02820222 52003 IEM_DS3505
ZGKL,2007-08-25 04:00,ZGKL 250400Z AUTO 00000KT 5SM 26/24 A2988 RMK T02600240 IEM_DS3505
ZGKL,2007-08-25 05:00,ZGKL 250500Z AUTO 00000KT 6SM 27/25 A2985 RMK T02700250 IEM_DS3505
ZGKL,2007-08-25 06:00,ZGKL 250600Z AUTO 29004KT 9SM 30/23 A2980 RMK SLP091 T02950232 57024 IEM_DS3505
ZGKL,2007-08-25 07:00,ZGKL 250700Z AUTO 00000KT 7SM 31/25 A2977 RMK T03100250 IEM_DS3505
ZGKL,2007-08-25 08:00,ZGKL 250800Z AUTO 7SM 31/25 A2977 RMK T03100250 IEM_DS3505
ZGKL,2007-08-25 09:00,ZGKL 250900Z AUTO 07002KT 11SM 31/22 A2974 RMK SLP067 T03070223 57024 IEM_DS3505
ZGKL,2007-08-25 10:00,ZGKL 251000Z AUTO 00000KT 7SM 30/24 A2974 RMK T03000240 IEM_DS3505
ZGKL,2007-08-25 11:00,ZGKL 251100Z AUTO 00000KT 7SM 29/25 A2977 RMK T02900250 IEM_DS3505
ZGKL,2007-08-25 12:00,ZGKL 251200Z AUTO 02004KT 9SM 27/23 A2980 RMK SLP086 T02740234 52018 IEM_DS3505
ZGKL,2007-08-25 13:00,ZGKL 251300Z AUTO 6SM 27/25 A2980 RMK T02700250 IEM_DS3505
ZGKL,2007-08-25 14:00,ZGKL 251400Z AUTO 00000KT 5SM 26/24 A2983 RMK T02600240 IEM_DS3505
ZGKL,2007-08-25 15:00,ZGKL 251500Z AUTO 02002KT 9SM 26/23 A2983 RMK SLP098 T02580231 52013 IEM_DS3505
ZGKL,2007-08-25 16:00,ZGKL 251600Z AUTO 6SM 25/24 A2983 RMK T02500240 IEM_DS3505
ZGKL,2007-08-25 17:00,ZGKL 251700Z AUTO 00000KT 5SM 25/24 A2980 RMK T02500240 IEM_DS3505
ZGKL,2007-08-25 18:00,ZGKL 251800Z AUTO 02002KT 9SM 25/23 A2980 RMK SLP091 T02520234 57007 IEM_DS3505
ZGKL,2007-08-25 19:00,ZGKL 251900Z AUTO 2 1/2SM 25/24 A2980 RMK T02500240 IEM_DS3505
ZGKL,2007-08-25 20:00,ZGKL 252000Z AUTO 05004KT 25/24 A2980 RMK T02500240 IEM_DS3505
ZGKL,2007-08-25 21:00,ZGKL 252100Z AUTO 16002KT 9SM 25/23 A2980 RMK 70002 SLP091 T02490230 54000 IEM_DS3505
ZGKL,2007-08-25 22:00,ZGKL 252200Z AUTO 00000KT 2 1/2SM 25/24 A2980 RMK T02500240 IEM_DS3505
ZGKL,2007-08-25 23:00,ZGKL 252300Z AUTO 00000KT 2 1/2SM 25/24 A2983 RMK T02500240 IEM_DS3505
ZGKL,2007-08-26 00:00,ZGKL 260000Z AUTO 02002KT 7SM 26/23 A2983 RMK SLP100 T02610232 52008 IEM_DS3505
ZGKL,2007-08-26 01:00,ZGKL 260100Z AUTO 00000KT 4SM 27/24 A2983 RMK T02700240 IEM_DS3505
ZGKL,2007-08-26 02:00,ZGKL 260200Z AUTO 00000KT 4SM 28/24 A2985 RMK T02800240 IEM_DS3505
ZGKL,2007-08-26 03:00,ZGKL 260300Z AUTO 29004KT 7SM 30/23 A2985 RMK SLP101 T03030230 52002 IEM_DS3505
ZGKL,2007-08-26 04:00,ZGKL 260400Z AUTO 00000KT 5SM 31/24 A2983 RMK T03100240 IEM_DS3505
ZGKL,2007-08-26 05:00,ZGKL 260500Z AUTO 28010KT 6SM 29/23 A2980 RMK T02900230 IEM_DS3505
ZGKL,2007-08-26 06:00,ZGKL 260600Z AUTO 27006KT 8SM 30/22 A2977 RMK SLP077 T03020224 57024 IEM_DS3505
ZGKL,2007-08-26 07:00,ZGKL 260700Z AUTO 22006KT 7SM 28/24 A2977 RMK T02800240 IEM_DS3505
ZGKL,2007-08-26 08:00,ZGKL 260800Z AUTO 00000KT 7SM 31/23 A2974 RMK T03100230 IEM_DS3505
ZGKL,2007-08-26 09:00,ZGKL 260900Z AUTO 02006KT 7SM 27/24 A2974 RMK SLP072 T02700237 57006 IEM_DS3505
ZGKL,2007-08-26 10:00,ZGKL 261000Z AUTO 17010KT 7SM 28/23 A2977 RMK T02800230 IEM_DS3505
ZGKL,2007-08-26 11:00,ZGKL 261100Z AUTO 09006KT 7SM 27/24 A2977 RMK T02700240 IEM_DS3505
ZGKL,2007-08-26 12:00,ZGKL 261200Z AUTO 02002KT 7SM 26/23 A2980 RMK 60012 SLP088 T02550234 52016 IEM_DS3505
ZGKL,2007-08-26 13:00,ZGKL 261300Z AUTO 5SM 25/24 A2983 RMK T02500240 IEM_DS3505
ZGKL,2007-08-26 14:00,ZGKL 261400Z AUTO 4SM 26/23 A2985 RMK T02600230 IEM_DS3505
ZGKL,2007-08-26 15:00,ZGKL 261500Z AUTO 02002KT 7SM 25/23 A2985 RMK SLP108 T02480230 52021 IEM_DS3505
ZGKL,2007-08-26 16:00,ZGKL 261600Z AUTO 00000KT 2 1/2SM 25/23 A2985 RMK T02500230 IEM_DS3505
ZGKL,2007-08-26 17:00,ZGKL 261700Z AUTO 00000KT 2 1/2SM 24/23 A2985 RMK T02400230 IEM_DS3505
ZGKL,2007-08-26 18:00,ZGKL 261800Z AUTO 00000KT 6SM 24/23 A2985 RMK SLP103 T02420226 57005 IEM_DS3505
ZGKL,2007-08-26 19:00,ZGKL 261900Z AUTO 00000KT 1 1/4SM 24/23 A2983 RMK T02400230 IEM_DS3505
ZGKL,2007-08-26 20:00,ZGKL 262000Z AUTO 00000KT 24/23 A2980 RMK T02400230 IEM_DS3505
ZGKL,2007-08-26 21:00,ZGKL 262100Z AUTO 02002KT 6SM 24/23 A2980 RMK 70011 SLP088 T02350232 57016 IEM_DS3505
ZGKL,2007-08-26 22:00,ZGKL 262200Z AUTO 00000KT 1 1/4SM 23/23 A2980 RMK T02300230 IEM_DS3505
ZGKL,2007-08-26 23:00,ZGKL 262300Z AUTO 00000KT 1SM 24/23 A2983 RMK T02400230 IEM_DS3505
ZGKL,2007-08-27 00:00,ZGKL 270000Z AUTO 04002KT 5SM 24/23 A2985 RMK 70011 SLP110 T02420228 52021 IEM_DS3505
ZGKL,2007-08-27 01:00,ZGKL 270100Z AUTO 00000KT 2 1/2SM 26/24 A2988 RMK T02600240 IEM_DS3505
ZGKL,2007-08-27 02:00,ZGKL 270200Z AUTO 00000KT 3SM 27/24 A2988 RMK T02700240 IEM_DS3505
ZGKL,2007-08-27 03:00,ZGKL 270300Z AUTO 04002KT 5SM 29/24 A2988 RMK SLP113 T02930235 52004 IEM_DS3505
ZGKL,2007-08-27 04:00,ZGKL 270400Z AUTO 00000KT 4SM 31/24 A2985 RMK T03100240 IEM_DS3505
ZGKL,2007-08-27 05:00,ZGKL 270500Z AUTO 00000KT 7SM 31/23 A2983 RMK T03100230 IEM_DS3505
ZGKL,2007-08-27 06:00,ZGKL 270600Z AUTO 09004KT 9SM 32/23 A2980 RMK SLP089 T03150231 57023 IEM_DS3505
ZGKL,2007-08-27 07:00,ZGKL 270700Z AUTO 08006KT 7SM 33/23 A2977 RMK T03300230 IEM_DS3505
ZGKL,2007-08-27 08:00,ZGKL 270800Z AUTO 11006KT 7SM 33/21 A2974 RMK T03300210 IEM_DS3505
ZGKL,2007-08-27 09:00,ZGKL 270900Z AUTO 02004KT 14SM 31/23 A2974 RMK SLP066 T03120231 57023 IEM_DS3505
ZGKL,2007-08-27 10:00,ZGKL 271000Z AUTO 20006KT 7SM 28/24 A2977 RMK T02800240 IEM_DS3505
ZGKL,2007-08-27 11:00,ZGKL 271100Z AUTO 19004KT 6SM 27/24 A2977 RMK T02700240 IEM_DS3505
ZGKL,2007-08-27 12:00,ZGKL 271200Z AUTO 18008KT 12SM 26/22 A2983 RMK 60000 SLP100 T02610220 52032 IEM_DS3505
ZGKL,2007-08-27 13:00,ZGKL 271300Z AUTO 16006KT 5SM 25/23 A2985 RMK T02500230 IEM_DS3505
ZGKL,2007-08-27 14:00,ZGKL 271400Z AUTO 7SM 25/23 A2988 RMK T02500230 IEM_DS3505
ZGKL,2007-08-27 15:00,ZGKL 271500Z AUTO 04002KT 7SM 25/23 A2988 RMK SLP120 T02510232 52021 IEM_DS3505
ZGKL,2007-08-27 16:00,ZGKL 271600Z AUTO 00000KT 5SM 25/23 A2988 RMK T02500230 IEM_DS3505
ZGKL,2007-08-27 17:00,ZGKL 271700Z AUTO 00000KT 5SM 25/24 A2988 RMK T02500240 IEM_DS3505
ZGKL,2007-08-27 18:00,ZGKL 271800Z AUTO 02002KT 7SM 24/23 A2988 RMK 60008 SLP114 T02450233 57005 IEM_DS3505
ZGKL,2007-08-27 19:00,ZGKL 271900Z AUTO 24/23 A2985 RMK T02400230 IEM_DS3505
ZGKL,2007-08-27 20:00,ZGKL 272000Z AUTO 06002KT 4SM 24/23 A2985 RMK T02400230 IEM_DS3505
ZGKL,2007-08-27 21:00,ZGKL 272100Z AUTO 04004KT 6SM 24/23 A2983 RMK 70007 SLP101 T02420228 57013 IEM_DS3505
ZGKL,2007-08-27 22:00,ZGKL 272200Z AUTO 00000KT 2 1/2SM 24/23 A2983 RMK T02400230 IEM_DS3505
ZGKL,2007-08-27 23:00,ZGKL 272300Z AUTO 00000KT 3SM 24/23 A2985 RMK T02400230 IEM_DS3505
ZGKL,2007-08-28 00:00,ZGKL 280000Z AUTO 02002KT 3SM 25/23 A2988 RMK 70007 SLP120 T02470231 52017 IEM_DS3505
ZGKL,2007-08-28 01:00,ZGKL 280100Z AUTO 00000KT 2 1/2SM 26/24 A2988 RMK T02600240 IEM_DS3505
ZGKL,2007-08-28 02:00,ZGKL 280200Z AUTO 00000KT 3SM 27/24 A2991 RMK T02700240 IEM_DS3505
ZGKL,2007-08-28 15:00,ZGKL 281500Z AUTO 32002KT 10SM 27/23 RMK SLP105 T02720234 52013 IEM_DS3505
ZGKL,2007-08-28 18:00,ZGKL 281800Z AUTO 00000KT 9SM 26/24 A2983 RMK SLP099 T02550236 57006 IEM_DS3505
ZGKL,2007-08-28 20:00,ZGKL 282000Z AUTO 00000KT 25/23 A2983 RMK T02500230 IEM_DS3505
ZGKL,2007-08-29 02:00,ZGKL 290200Z AUTO 00000KT 4SM 28/24 A2988 RMK T02800240 IEM_DS3505
ZGKL,2007-08-29 03:00,ZGKL 290300Z AUTO 16004KT 6SM 30/23 A2985 RMK SLP111 T02990234 52002 IEM_DS3505
ZGKL,2007-08-29 05:00,ZGKL 290500Z AUTO 7SM 32/23 A2983 RMK T03200230 IEM_DS3505
ZGKL,2007-08-29 06:00,ZGKL 290600Z AUTO 18008KT 11SM 34/21 A2980 RMK SLP081 T03350210 57029 IEM_DS3505
ZGKL,2007-08-29 07:00,ZGKL 290700Z AUTO 30010KT 7SM 32/24 A2977 RMK T03200240 IEM_DS3505
ZGKL,2007-08-29 08:00,ZGKL 290800Z AUTO 27006KT 7SM 33/23 A2974 RMK T03300230 IEM_DS3505
ZGKL,2007-08-29 09:00,ZGKL 290900Z AUTO 27004KT 14SM 33/23 A2971 RMK SLP056 T03270228 57024 IEM_DS3505
ZGKL,2007-08-29 10:00,ZGKL 291000Z AUTO 18008KT 7SM 31/24 A2971 RMK T03100240 IEM_DS3505
ZGKL,2007-08-29 11:00,ZGKL 291100Z AUTO 17006KT 7SM 29/24 A2971 RMK T02900240 IEM_DS3505
ZGKL,2007-08-29 12:00,ZGKL 291200Z AUTO 25002KT 11SM 31/23 A2974 RMK SLP065 T03060228 52008 IEM_DS3505
ZGKL,2007-08-29 13:00,ZGKL 291300Z AUTO 00000KT 6SM 27/25 A2977 RMK T02700250 IEM_DS3505
ZGKL,2007-08-29 14:00,ZGKL 291400Z AUTO 00000KT 6SM 27/24 A2977 RMK T02700240 IEM_DS3505
ZGKL,2007-08-29 15:00,ZGKL 291500Z AUTO 09002KT 10SM 28/24 A2977 RMK SLP080 T02770243 52015 IEM_DS3505
ZGKL,2007-08-29 16:00,ZGKL 291600Z AUTO 00000KT 6SM 25/24 A2980 RMK T02500240 IEM_DS3505
ZGKL,2007-08-29 17:00,ZGKL 291700Z AUTO 00000KT 6SM 25/24 A2977 RMK T02500240 IEM_DS3505
ZGKL,2007-08-29 18:00,ZGKL 291800Z AUTO 04002KT 8SM 26/24 A2977 RMK SLP076 T02640237 57003 IEM_DS3505
ZGKL,2007-08-29 19:00,ZGKL 291900Z AUTO 00000KT 24/23 A2977 RMK T02400230 IEM_DS3505
ZGKL,2007-08-29 20:00,ZGKL 292000Z AUTO 00000KT 24/23 A2977 RMK T02400230 IEM_DS3505
ZGKL,2007-08-29 21:00,ZGKL 292100Z AUTO 09002KT 8SM 26/23 A2977 RMK SLP078 T02550234 52001 IEM_DS3505
ZGKL,2007-08-29 22:00,ZGKL 292200Z AUTO 00000KT 7SM 24/24 A2977 RMK T02400240 IEM_DS3505
ZGKL,2007-08-29 23:00,ZGKL 292300Z AUTO 00000KT 7SM 25/24 A2980 RMK T02500240 IEM_DS3505
ZGKL,2007-08-30 00:00,ZGKL 300000Z AUTO 29002KT 5SM 26/24 A2980 RMK SLP090 T02650242 52012 IEM_DS3505
ZGKL,2007-08-30 01:00,ZGKL 300100Z AUTO 00000KT 4SM 28/24 A2980 RMK T02800240 IEM_DS3505
ZGKL,2007-08-30 02:00,ZGKL 300200Z AUTO 18006KT 5SM 30/25 A2980 RMK T03000250 IEM_DS3505
ZGKL,2007-08-30 03:00,ZGKL 300300Z AUTO 25004KT 6SM 30/24 A2977 RMK SLP081 T02980235 57009 IEM_DS3505
ZGKL,2007-08-30 04:00,ZGKL 300400Z AUTO 23004KT 7SM 31/25 A2977 RMK T03100250 IEM_DS3505
ZGKL,2007-08-30 05:00,ZGKL 300500Z AUTO 26004KT 7SM 33/23 A2974 RMK T03300230 IEM_DS3505
ZGKL,2007-08-30 06:00,ZGKL 300600Z AUTO 16002KT 10SM 33/22 A2971 RMK SLP058 T03320223 57022 IEM_DS3505
ZGKL,2007-08-30 07:00,ZGKL 300700Z AUTO 25006KT 7SM 33/22 A2971 RMK T03300220 IEM_DS3505
ZGKL,2007-08-30 08:00,ZGKL 300800Z AUTO 25006KT 7SM 35/22 A2968 RMK T03500220 IEM_DS3505
ZGKL,2007-08-30 09:00,ZGKL 300900Z AUTO 22002KT 10SM 34/22 A2965 RMK SLP038 T03410219 57020 IEM_DS3505
ZGKL,2007-08-30 10:00,ZGKL 301000Z AUTO 08004KT 7SM 33/23 A2965 RMK T03300230 IEM_DS3505
ZGKL,2007-08-30 11:00,ZGKL 301100Z AUTO 7SM 29/24 A2965 RMK T02900240 IEM_DS3505
ZGKL,2007-08-30 12:00,ZGKL 301200Z AUTO 11002KT 11SM 30/23 A2968 RMK SLP046 T03040233 52007 IEM_DS3505
ZGKL,2007-08-30 13:00,ZGKL 301300Z AUTO 00000KT 5SM 27/24 A2971 RMK T02700240 IEM_DS3505
ZGKL,2007-08-30 14:00,ZGKL 301400Z AUTO 00000KT 4SM 27/24 A2971 RMK T02700240 IEM_DS3505
ZGKL,2007-08-30 15:00,ZGKL 301500Z AUTO 07002KT 11SM 28/24 A2971 RMK SLP059 T02810239 52014 IEM_DS3505
ZGKL,2007-08-30 16:00,ZGKL 301600Z AUTO 29002KT 2 1/2SM 26/24 A2974 RMK T02600240 IEM_DS3505
ZGKL,2007-08-30 17:00,ZGKL 301700Z AUTO 33002KT 3SM 25/24 A2971 RMK T02500240 IEM_DS3505
ZGKL,2007-08-30 18:00,ZGKL 301800Z AUTO 04002KT 11SM 27/24 A2971 RMK SLP059 T02660235 54000 IEM_DS3505
ZGKL,2007-08-30 19:00,ZGKL 301900Z AUTO 00000KT 25/24 A2971 RMK T02500240 IEM_DS3505
ZGKL,2007-08-30 20:00,ZGKL 302000Z AUTO 00000KT 2 1/2SM 24/23 A2971 RMK T02400230 IEM_DS3505
ZGKL,2007-08-30 21:00,ZGKL 302100Z AUTO 00000KT 9SM 26/23 A2974 RMK SLP059 T02620227 54000 IEM_DS3505
ZGKL,2007-08-30 22:00,ZGKL 302200Z AUTO 00000KT 2SM 24/24 A2974 RMK T02400240 IEM_DS3505
ZGKL,2007-08-30 23:00,ZGKL 302300Z AUTO 00000KT 4SM 25/24 A2974 RMK T02500240 IEM_DS3505
ZGKL,2007-08-31 00:00,ZGKL 310000Z AUTO 29002KT 9SM 27/24 A2977 RMK SLP071 T02660235 52011 IEM_DS3505
ZGKL,2007-08-31 01:00,ZGKL 310100Z AUTO 00000KT 4SM 27/24 A2977 RMK T02700240 IEM_DS3505
ZGKL,2007-08-31 02:00,ZGKL 310200Z AUTO 16006KT 4SM 30/25 A2977 RMK T03000250 IEM_DS3505
ZGKL,2007-08-31 03:00,ZGKL 310300Z AUTO 25004KT 7SM 31/23 A2974 RMK SLP068 T03060230 57002 IEM_DS3505
ZGKL,2007-08-31 04:00,ZGKL 310400Z AUTO 17012KT 7SM 33/23 A2971 RMK T03300230 IEM_DS3505
ZGKL,2007-08-31 05:00,ZGKL 310500Z AUTO 16012KT 7SM 34/22 A2971 RMK T03400220 IEM_DS3505
ZGKL,2007-08-31 06:00,ZGKL 310600Z AUTO 27004KT 10SM 33/22 A2968 RMK SLP047 T03310216 57021 IEM_DS3505
ZGKL,2007-08-31 07:00,ZGKL 310700Z AUTO 18010KT 7SM 35/22 A2968 RMK T03500220 IEM_DS3505
ZGKL,2007-08-31 08:00,ZGKL 310800Z AUTO 18008KT 7SM 34/23 A2965 RMK T03400230 IEM_DS3505
ZGKL,2007-08-31 09:00,ZGKL 310900Z AUTO 22006KT 16SM 34/21 A2962 RMK SLP030 T03400207 57016 IEM_DS3505
ZGKL,2007-08-31 10:00,ZGKL 311000Z AUTO 18006KT 7SM 33/23 A2962 RMK T03300230 IEM_DS3505
ZGKL,2007-08-31 11:00,ZGKL 311100Z AUTO 17006KT 6SM 31/23 A2962 RMK T03100230 IEM_DS3505
ZGKL,2007-08-31 12:00,ZGKL 311200Z AUTO 27004KT 11SM 32/22 A2965 RMK SLP034 T03160218 52003 IEM_DS3505
ZGKL,2007-08-31 13:00,ZGKL 311300Z AUTO 00000KT 6SM 28/25 A2968 RMK T02800250 IEM_DS3505
ZGKL,2007-08-31 14:00,ZGKL 311400Z AUTO 00000KT 6SM 27/25 A2971 RMK T02700250 IEM_DS3505
ZGKL,2007-08-31 15:00,ZGKL 311500Z AUTO 29002KT 10SM 29/23 A2971 RMK SLP051 T02870234 52017 IEM_DS3505
ZGKL,2007-08-31 16:00,ZGKL 311600Z AUTO 00000KT 4SM 26/24 A2971 RMK T02600240 IEM_DS3505
ZGKL,2007-08-31 17:00,ZGKL 311700Z AUTO 31002KT 4SM 25/24 A2971 RMK T02500240 IEM_DS3505
ZGKL,2007-08-31 18:00,ZGKL 311800Z AUTO 07002KT 10SM 27/23 A2968 RMK SLP048 T02670230 57003 IEM_DS3505
ZGKL,2007-08-31 19:00,ZGKL 311900Z AUTO 00000KT 25/24 A2968 RMK T02500240 IEM_DS3505
ZGKL,2007-08-31 20:00,ZGKL 312000Z AUTO 00000KT 25/24 A2971 RMK T02500240 IEM_DS3505
ZGKL,2007-08-31 21:00,ZGKL 312100Z AUTO 09002KT 8SM 26/23 A2971 RMK SLP052 T02620231 52004 IEM_DS3505
ZGKL,2007-08-31 22:00,ZGKL 312200Z AUTO 00000KT 25/24 A2971 RMK T02500240 IEM_DS3505
ZGKL,2007-08-31 23:00,ZGKL 312300Z AUTO 00000KT 7SM 25/24 A2971 RMK T02500240 IEM_DS3505
ZGKL,2007-09-01 00:00,ZGKL 010000Z AUTO 00000KT 7SM 27/24 A2974 RMK SLP061 T02700239 52009 IEM_DS3505
ZGKL,2007-09-01 01:00,ZGKL 010100Z AUTO 00000KT 5SM 27/24 A2974 RMK T02700240 IEM_DS3505
ZGKL,2007-09-01 02:00,ZGKL 010200Z AUTO 21006KT 6SM 29/25 A2974 RMK T02900250 IEM_DS3505
ZGKL,2007-09-01 03:00,ZGKL 010300Z AUTO 09002KT 6SM 29/24 A2974 RMK SLP068 T02940241 52006 IEM_DS3505
ZGKL,2007-09-01 04:00,ZGKL 010400Z AUTO 16008KT 7SM 31/24 A2974 RMK T03100240 IEM_DS3505
ZGKL,2007-09-01 05:00,ZGKL 010500Z AUTO 16006KT 7SM 31/24 A2971 RMK T03100240 IEM_DS3505
ZGKL,2007-09-01 06:00,ZGKL 010600Z AUTO 25006KT 12SM 32/22 A2968 RMK SLP051 T03180216 57016 IEM_DS3505
ZGKL,2007-09-01 07:00,ZGKL 010700Z AUTO 17006KT 7SM 32/23 A2968 RMK T03200230 IEM_DS3505
ZGKL,2007-09-01 08:00,ZGKL 010800Z AUTO 12006KT 7SM 33/23 A2965 RMK T03300230 IEM_DS3505
ZGKL,2007-09-01 09:00,ZGKL 010900Z AUTO 14004KT 15SM 32/22 A2965 RMK SLP035 T03180216 57016 IEM_DS3505
ZGKL,2007-09-01 10:00,ZGKL 011000Z AUTO 14006KT 7SM 31/23 A2965 RMK T03100230 IEM_DS3505
ZGKL,2007-09-01 11:00,ZGKL 011100Z AUTO 16004KT 7SM 30/24 A2965 RMK T03000240 IEM_DS3505
ZGKL,2007-09-01 12:00,ZGKL 011200Z AUTO 36006KT 14SM 28/23 A2968 RMK SLP050 T02850232 52014 IEM_DS3505
ZGKL,2007-09-01 13:00,ZGKL 011300Z AUTO 00000KT 6SM 28/25 A2971 RMK T02800250 IEM_DS3505
ZGKL,2007-09-01 14:00,ZGKL 011400Z AUTO 05012KT 4SM 27/23 A2974 RMK T02700230 IEM_DS3505
ZGKL,2007-09-01 15:00,ZGKL 011500Z AUTO 02008KT 12SM 26/21 A2974 RMK SLP074 T02560211 52023 IEM_DS3505
ZGKL,2007-09-01 16:00,ZGKL 011600Z AUTO 05004KT 6SM 26/22 A2977 RMK T02600220 IEM_DS3505
ZGKL,2007-09-01 17:00,ZGKL 011700Z AUTO 04004KT 25/22 A2977 RMK T02500220 IEM_DS3505
ZGKL,2007-09-01 18:00,ZGKL 011800Z AUTO 02004KT 10SM 25/21 A2974 RMK SLP068 T02470206 57005 IEM_DS3505
ZGKL,2007-09-01 19:00,ZGKL 011900Z AUTO 10002KT 24/22 A2974 RMK T02400220 IEM_DS3505
ZGKL,2007-09-01 20:00,ZGKL 012000Z AUTO 24/22 A2974 RMK T02400220 IEM_DS3505
ZGKL,2007-09-01 21:00,ZGKL 012100Z AUTO 04004KT 7SM 24/20 A2974 RMK SLP063 T02420203 57005 IEM_DS3505
ZGKL,2007-09-01 22:00,ZGKL 012200Z AUTO 04004KT 4SM 24/21 A2974 RMK T02400210 IEM_DS3505
ZGKL,2007-09-01 23:00,ZGKL 012300Z AUTO 00000KT 3SM 24/22 A2977 RMK T02400220 IEM_DS3505
ZGKL,2007-09-02 00:00,ZGKL 020000Z AUTO 04004KT 5SM 23/21 A2977 RMK 60012 70012 SLP077 T02300211 52012 IEM_DS3505
ZGKL,2007-09-02 01:00,ZGKL 020100Z AUTO 2 1/2SM 22/21 A2980 RMK T02200210 IEM_DS3505
ZGKL,2007-09-02 02:00,ZGKL 020200Z AUTO 2 1/2SM 22/22 A2980 RMK T02200220 IEM_DS3505
ZGKL,2007-09-02 03:00,ZGKL 020300Z AUTO 02004KT 2SM 23/23 A2980 RMK SLP091 T02280228 52013 IEM_DS3505
ZGKL,2007-09-02 04:00,ZGKL 020400Z AUTO 03006KT 4SM 24/22 A2980 RMK T02400220 IEM_DS3505
ZGKL,2007-09-02 05:00,ZGKL 020500Z AUTO 06004KT 3SM 24/23 A2977 RMK T02400230 IEM_DS3505
ZGKL,2007-09-02 06:00,ZGKL 020600Z AUTO 36006KT 6SM 25/22 A2974 RMK 60067 SLP073 T02460217 57017 IEM_DS3505
ZGKL,2007-09-02 07:00,ZGKL 020700Z AUTO 00000KT 7SM 25/22 A2974 RMK T02500220 IEM_DS3505
ZGKL,2007-09-02 08:00,ZGKL 020800Z AUTO 7SM 26/23 A2971 RMK T02600230 IEM_DS3505
ZGKL,2007-09-02 09:00,ZGKL 020900Z AUTO 02004KT 8SM 24/21 A2971 RMK SLP061 T02430206 57012 IEM_DS3505
ZGKL,2007-09-02 10:00,ZGKL 021000Z AUTO 7SM 25/22 A2971 RMK T02500220 IEM_DS3505
ZGKL,2007-09-02 11:00,ZGKL 021100Z AUTO 05002KT 7SM 24/22 A2974 RMK T02400220 IEM_DS3505
ZGKL,2007-09-02 12:00,ZGKL 021200Z AUTO 02006KT 9SM 23/20 A2974 RMK SLP075 T02310199 52013 IEM_DS3505
ZGKL,2007-09-02 13:00,ZGKL 021300Z AUTO 00000KT 5SM 24/22 A2980 RMK T02400220 IEM_DS3505
ZGKL,2007-09-02 14:00,ZGKL 021400Z AUTO 00000KT 7SM 23/21 A2980 RMK T02300210 IEM_DS3505
ZGKL,2007-09-02 15:00,ZGKL 021500Z AUTO 02004KT 9SM 23/20 A2980 RMK SLP096 T02260200 52020 IEM_DS3505
ZGKL,2007-09-02 16:00,ZGKL 021600Z AUTO 00000KT 4SM 23/21 A2980 RMK T02300210 IEM_DS3505
ZGKL,2007-09-02 17:00,ZGKL 021700Z AUTO 10002KT 3SM 22/21 A2980 RMK T02200210 IEM_DS3505
ZGKL,2007-09-02 18:00,ZGKL 021800Z AUTO 36004KT 7SM 22/19 A2977 RMK 60000 SLP085 T02220194 57010 IEM_DS3505
ZGKL,2007-09-02 19:00,ZGKL 021900Z AUTO 00000KT 3SM 22/21 A2977 RMK T02200210 IEM_DS3505
ZGKL,2007-09-02 20:00,ZGKL 022000Z AUTO 00000KT 22/21 A2977 RMK T02200210 IEM_DS3505
ZGKL,2007-09-02 21:00,ZGKL 022100Z AUTO 02004KT 6SM 22/20 A2977 RMK 70078 SLP082 T02160199 57004 IEM_DS3505
ZGKL,2007-09-02 22:00,ZGKL 022200Z AUTO 00000KT 1SM 21/21 A2977 RMK T02100210 IEM_DS3505
ZGKL,2007-09-02 23:00,ZGKL 022300Z AUTO 08006KT 7SM 21/20 A2980 RMK T02100200 IEM_DS3505
ZGKL,2007-09-03 00:00,ZGKL 030000Z AUTO 09002KT 4SM 21/21 A2980 RMK 60087 70152 SLP095 T02120210 52013 IEM_DS3505
ZGKL,2007-09-03 01:00,ZGKL 030100Z AUTO 00000KT 4SM 22/21 A2980 RMK T02200210 IEM_DS3505
ZGKL,2007-09-03 02:00,ZGKL 030200Z AUTO 2 1/2SM 22/21 A2983 RMK T02200210 IEM_DS3505
ZGKL,2007-09-03 03:00,ZGKL 030300Z AUTO 02004KT 5SM 23/21 A2983 RMK SLP098 T02260211 52003 IEM_DS3505
ZGKL,2007-09-03 04:00,ZGKL 030400Z AUTO 29004KT 2 1/2SM 22/21 A2983 RMK T02200210 IEM_DS3505
ZGKL,2007-09-03 05:00,ZGKL 030500Z AUTO 2 1/2SM 22/21 A2980 RMK T02200210 IEM_DS3505
ZGKL,2007-09-03 06:00,ZGKL 030600Z AUTO 02004KT 4SM 22/21 A2980 RMK 60020 SLP091 T02220210 57007 IEM_DS3505
ZGKL,2007-09-03 07:00,ZGKL 030700Z AUTO 32004KT 2 1/2SM 22/21 A2977 RMK T02200210 IEM_DS3505
ZGKL,2007-09-03 08:00,ZGKL 030800Z AUTO 30004KT 5SM 22/21 A2977 RMK T02200210 IEM_DS3505
ZGKL,2007-09-03 09:00,ZGKL 030900Z AUTO 02008KT 6SM 22/20 A2977 RMK SLP076 T02210200 57015 IEM_DS3505
ZGKL,2007-09-03 10:00,ZGKL 031000Z AUTO 29004KT 7SM 22/21 A2977 RMK T02200210 IEM_DS3505
ZGKL,2007-09-03 11:00,ZGKL 031100Z AUTO 00000KT 7SM 22/21 A2977 RMK T02200210 IEM_DS3505
ZGKL,2007-09-03 12:00,ZGKL 031200Z AUTO 02008KT 8SM 22/20 A2980 RMK 60008 SLP090 T02220196 52013 IEM_DS3505
ZGKL,2007-09-03 13:00,ZGKL 031300Z AUTO 00000KT 6SM 22/21 A2983 RMK T02200210 IEM_DS3505
ZGKL,2007-09-03 14:00,ZGKL 031400Z AUTO 00000KT 6SM 22/21 A2983 RMK T02200210 IEM_DS3505
ZGKL,2007-09-03 15:00,ZGKL 031500Z AUTO 02004KT 7SM 22/20 A2983 RMK SLP103 T02190195 52014 IEM_DS3505
ZGKL,2007-09-03 16:00,ZGKL 031600Z AUTO 00000KT 6SM 22/21 A2983 RMK T02200210 IEM_DS3505
ZGKL,2007-09-03 17:00,ZGKL 031700Z AUTO 6SM 22/21 A2980 RMK T02200210 IEM_DS3505
ZGKL,2007-09-03 18:00,ZGKL 031800Z AUTO 02006KT 7SM 22/20 A2980 RMK SLP094 T02180195 57009 IEM_DS3505
ZGKL,2007-09-03 19:00,ZGKL 031900Z AUTO 00000KT 7SM 22/21 A2980 RMK T02200210 IEM_DS3505
ZGKL,2007-09-03 20:00,ZGKL 032000Z AUTO 34004KT 7SM 22/21 A2980 RMK T02200210 IEM_DS3505
ZGKL,2007-09-03 21:00,ZGKL 032100Z AUTO 36006KT 5SM 21/19 A2980 RMK 70113 SLP095 T02110194 54000 IEM_DS3505
ZGKL,2007-09-03 22:00,ZGKL 032200Z AUTO 2 1/2SM 21/20 A2983 RMK T02100200 IEM_DS3505
ZGKL,2007-09-03 23:00,ZGKL 032300Z AUTO 33004KT 3SM 21/20 A2983 RMK T02100200 IEM_DS3505
ZGKL,2007-09-04 00:00,ZGKL 040000Z AUTO 36006KT 5SM 21/20 A2985 RMK 60020 70046 SLP109 T02070197 52014 IEM_DS3505
ZGKL,2007-09-04 01:00,ZGKL 040100Z AUTO 00000KT 3SM 21/20 A2985 RMK T02100200 IEM_DS3505
ZGKL,2007-09-04 02:00,ZGKL 040200Z AUTO 4SM 22/21 A2988 RMK T02200210 IEM_DS3505
ZGKL,2007-09-04 03:00,ZGKL 040300Z AUTO 36006KT 7SM 22/19 A2988 RMK SLP118 T02210193 52009 IEM_DS3505
ZGKL,2007-09-04 04:00,ZGKL 040400Z AUTO 32006KT 7SM 23/21 A2988 RMK T02300210 IEM_DS3505
ZGKL,2007-09-04 05:00,ZGKL 040500Z AUTO 04006KT 7SM 22/20 A2985 RMK T02200200 IEM_DS3505
ZGKL,2007-09-04 06:00,ZGKL 040600Z AUTO 02006KT 8SM 23/18 A2985 RMK 60004 SLP110 T02290176 57008 IEM_DS3505
ZGKL,2007-09-04 07:00,ZGKL 040700Z AUTO 03008KT 7SM 23/20 A2983 RMK T02300200 IEM_DS3505
ZGKL,2007-09-04 08:00,ZGKL 040800Z AUTO 03008KT 7SM 23/19 A2983 RMK T02300190 IEM_DS3505
ZGKL,2007-09-04 09:00,ZGKL 040900Z AUTO 02004KT 8SM 22/19 A2983 RMK SLP104 T02230189 57006 IEM_DS3505
ZGKL,2007-09-04 10:00,ZGKL 041000Z AUTO 00000KT 7SM 22/20 A2983 RMK T02200200 IEM_DS3505
ZGKL,2007-09-04 11:00,ZGKL 041100Z AUTO 00000KT 5SM 22/20 A2985 RMK T02200200 IEM_DS3505
ZGKL,2007-09-04 12:00,ZGKL 041200Z AUTO 02002KT 6SM 22/19 A2985 RMK 60001 SLP112 T02160188 52008 IEM_DS3505
ZGKL,2007-09-04 13:00,ZGKL 041300Z AUTO 00000KT 4SM 21/20 A2988 RMK T02100200 IEM_DS3505
ZGKL,2007-09-04 15:00,ZGKL 041500Z AUTO 00000KT 2 1/2SM 21/20 A2988 RMK T02100200 IEM_DS3505
ZGKL,2007-09-04 16:00,ZGKL 041600Z AUTO 00000KT 2 1/2SM 21/20 A2988 RMK T02100200 IEM_DS3505
ZGKL,2007-09-04 17:00,ZGKL 041700Z AUTO 00000KT 2 1/2SM 21/20 A2988 RMK T02100200 IEM_DS3505
ZGKL,2007-09-04 18:00,ZGKL 041800Z AUTO 00000KT 4SM 21/20 A2985 RMK 60002 SLP115 T02100202 57012 IEM_DS3505
ZGKL,2007-09-04 19:00,ZGKL 041900Z AUTO 00000KT 21/20 A2985 RMK T02100200 IEM_DS3505
ZGKL,2007-09-04 20:00,ZGKL 042000Z AUTO 00000KT 21/20 A2985 RMK T02100200 IEM_DS3505
ZGKL,2007-09-04 21:00,ZGKL 042100Z AUTO 36004KT 3SM 21/20 A2985 RMK 70027 SLP109 T02110199 57006 IEM_DS3505
ZGKL,2007-09-04 22:00,ZGKL 042200Z AUTO 34004KT 2 1/2SM 21/20 A2985 RMK T02100200 IEM_DS3505
ZGKL,2007-09-04 23:00,ZGKL 042300Z AUTO 00000KT 2 1/2SM 21/20 A2985 RMK T02100200 IEM_DS3505
ZGKL,2007-09-05 00:00,ZGKL 050000Z AUTO 02006KT 6SM 22/19 A2988 RMK 60000 70009 SLP119 T02220188 52010 IEM_DS3505
ZGKL,2007-09-05 01:00,ZGKL 050100Z AUTO 4SM 23/21 A2988 RMK T02300210 IEM_DS3505
ZGKL,2007-09-05 02:00,ZGKL 050200Z AUTO 03008KT 5SM 25/20 A2988 RMK T02500200 IEM_DS3505
ZGKL,2007-09-05 03:00,ZGKL 050300Z AUTO 02010KT 7SM 25/18 A2991 RMK SLP126 T02470179 52008 IEM_DS3505
ZGKL,2007-09-05 04:00,ZGKL 050400Z AUTO 05008KT 7SM 26/18 A2988 RMK T02600180 IEM_DS3505
ZGKL,2007-09-05 05:00,ZGKL 050500Z AUTO 04012KT 7SM 27/18 A2988 RMK T02700180 IEM_DS3505
ZGKL,2007-09-05 06:00,ZGKL 050600Z AUTO 36008KT 9SM 27/18 A2985 RMK SLP111 T02690182 57015 IEM_DS3505
ZGKL,2007-09-05 07:00,ZGKL 050700Z AUTO 04010KT 7SM 27/18 A2983 RMK T02700180 IEM_DS3505
ZGKL,2007-09-05 08:00,ZGKL 050800Z AUTO 05012KT 7SM 27/16 A2983 RMK T02700160 IEM_DS3505
ZGKL,2007-09-05 09:00,ZGKL 050900Z AUTO 02008KT 11SM 27/16 A2983 RMK SLP100 T02660156 57010 IEM_DS3505
ZGKL,2007-09-05 10:00,ZGKL 051000Z AUTO 04008KT 7SM 26/17 A2983 RMK T02600170 IEM_DS3505
ZGKL,2007-09-05 11:00,ZGKL 051100Z AUTO 04004KT 7SM 25/18 A2985 RMK T02500180 IEM_DS3505
ZGKL,2007-09-05 12:00,ZGKL 051200Z AUTO 07002KT 11SM 23/17 A2985 RMK SLP111 T02340174 52010 IEM_DS3505
ZGKL,2007-09-05 13:00,ZGKL 051300Z AUTO 00000KT 5SM 22/20 A2988 RMK T02200200 IEM_DS3505
ZGKL,2007-09-05 14:00,ZGKL 051400Z AUTO 00000KT 4SM 21/20 A2988 RMK T02100200 IEM_DS3505
ZGKL,2007-09-05 15:00,ZGKL 051500Z AUTO 04002KT 10SM 22/18 A2988 RMK SLP122 T02190177 52011 IEM_DS3505
ZGKL,2007-09-05 16:00,ZGKL 051600Z AUTO 32002KT 3SM 21/20 A2988 RMK T02100200 IEM_DS3505
ZGKL,2007-09-05 17:00,ZGKL 051700Z AUTO 00000KT 2 1/2SM 21/20 A2985 RMK T02100200 IEM_DS3505
ZGKL,2007-09-05 18:00,ZGKL 051800Z AUTO 02004KT 10SM 21/18 A2985 RMK SLP107 T02140182 57014 IEM_DS3505
ZGKL,2007-09-05 19:00,ZGKL 051900Z AUTO 00000KT 21/20 A2983 RMK T02100200 IEM_DS3505
ZGKL,2007-09-05 20:00,ZGKL 052000Z AUTO 00000KT 20/19 A2983 RMK T02000190 IEM_DS3505
ZGKL,2007-09-05 21:00,ZGKL 052100Z AUTO 00000KT 9SM 21/19 A2983 RMK 70000 SLP102 T02120186 57005 IEM_DS3505
ZGKL,2007-09-05 22:00,ZGKL 052200Z AUTO 00000KT 3SM 21/20 A2985 RMK T02100200 IEM_DS3505
ZGKL,2007-09-05 23:00,ZGKL 052300Z AUTO 00000KT 3SM 21/20 A2985 RMK T02100200 IEM_DS3505
ZGKL,2007-09-06 00:00,ZGKL 060000Z AUTO 32002KT 4SM 22/19 A2985 RMK 60000 70000 SLP113 T02230193 52010 IEM_DS3505
ZGKL,2007-09-06 01:00,ZGKL 060100Z AUTO 00000KT 4SM 23/20 A2988 RMK T02300200 IEM_DS3505
ZGKL,2007-09-06 02:00,ZGKL 060200Z AUTO 00000KT 4SM 25/20 A2988 RMK T02500200 IEM_DS3505
ZGKL,2007-09-06 03:00,ZGKL 060300Z AUTO 04004KT 4SM 26/19 A2985 RMK SLP112 T02650189 54000 IEM_DS3505
ZGKL,2007-09-06 04:00,ZGKL 060400Z AUTO 4SM 27/20 A2985 RMK T02700200 IEM_DS3505
ZGKL,2007-09-06 05:00,ZGKL 060500Z AUTO 05006KT 4SM 28/19 A2983 RMK T02800190 IEM_DS3505
ZGKL,2007-09-06 06:00,ZGKL 060600Z AUTO 02006KT 6SM 28/18 A2980 RMK SLP093 T02800181 57019 IEM_DS3505
ZGKL,2007-09-06 07:00,ZGKL 060700Z AUTO 4SM 28/18 A2980 RMK T02800180 IEM_DS3505
ZGKL,2007-09-06 08:00,ZGKL 060800Z AUTO 00000KT 4SM 28/19 A2977 RMK T02800190 IEM_DS3505
ZGKL,2007-09-06 09:00,ZGKL 060900Z AUTO 02004KT 6SM 29/18 A2977 RMK SLP077 T02860181 57015 IEM_DS3505
ZGKL,2007-09-06 10:00,ZGKL 061000Z AUTO 00000KT 5SM 28/17 A2977 RMK T02800170 IEM_DS3505
ZGKL,2007-09-06 11:00,ZGKL 061100Z AUTO 4SM 27/19 A2977 RMK T02700190 IEM_DS3505
ZGKL,2007-09-06 12:00,ZGKL 061200Z AUTO 02002KT 6SM 26/19 A2980 RMK SLP087 T02580192 52009 IEM_DS3505
ZGKL,2007-09-06 13:00,ZGKL 061300Z AUTO 2 1/2SM 24/20 A2980 RMK T02400200 IEM_DS3505
ZGKL,2007-09-06 14:00,ZGKL 061400Z AUTO 00000KT 2 1/2SM 23/21 A2983 RMK T02300210 IEM_DS3505
ZGKL,2007-09-06 15:00,ZGKL 061500Z AUTO 02002KT 6SM 24/18 A2983 RMK SLP097 T02350179 52010 IEM_DS3505
ZGKL,2007-09-06 16:00,ZGKL 061600Z AUTO 00000KT 2SM 22/21 A2983 RMK T02200210 IEM_DS3505
ZGKL,2007-09-06 17:00,ZGKL 061700Z AUTO 00000KT 21/20 A2980 RMK T02100200 IEM_DS3505
ZGKL,2007-09-06 18:00,ZGKL 061800Z AUTO 02002KT 6SM 23/19 A2980 RMK SLP091 T02290187 57005 IEM_DS3505
ZGKL,2007-09-06 19:00,ZGKL 061900Z AUTO 00000KT 22/21 A2980 RMK T02200210 IEM_DS3505
ZGKL,2007-09-06 20:00,ZGKL 062000Z AUTO 00000KT 2SM 21/21 A2980 RMK T02100210 IEM_DS3505
ZGKL,2007-09-06 21:00,ZGKL 062100Z AUTO 00000KT 6SM 22/20 A2980 RMK 70000 SLP085 T02250197 57006 IEM_DS3505
ZGKL,2007-09-06 22:00,ZGKL 062200Z AUTO 00000KT 1 1/4SM 21/20 A2980 RMK T02100200 IEM_DS3505
ZGKL,2007-09-06 23:00,ZGKL 062300Z AUTO 00000KT 1 1/2SM 21/20 A2980 RMK T02100200 IEM_DS3505
ZGKL,2007-09-07 00:00,ZGKL 070000Z AUTO 36002KT 4SM 23/20 A2980 RMK SLP092 T02330195 52006 IEM_DS3505
ZGKL,2007-09-07 01:00,ZGKL 070100Z AUTO 00000KT 2 1/2SM 24/20 A2983 RMK T02400200 IEM_DS3505
ZGKL,2007-09-07 02:00,ZGKL 070200Z AUTO 00000KT 2 1/2SM 26/20 A2980 RMK T02600200 IEM_DS3505
ZGKL,2007-09-07 03:00,ZGKL 070300Z AUTO 36004KT 4SM 26/20 A2980 RMK SLP093 T02650199 52001 IEM_DS3505
ZGKL,2007-09-07 04:00,ZGKL 070400Z AUTO 07004KT 3SM 27/20 A2980 RMK T02700200 IEM_DS3505
ZGKL,2007-09-07 05:00,ZGKL 070500Z AUTO 3SM 28/20 A2977 RMK T02800200 IEM_DS3505
ZGKL,2007-09-07 06:00,ZGKL 070600Z AUTO 02002KT 4SM 28/20 A2974 RMK SLP071 T02760199 57021 IEM_DS3505
ZGKL,2007-09-07 07:00,ZGKL 070700Z AUTO 3SM 29/18 A2971 RMK T02900180 IEM_DS3505
ZGKL,2007-09-07 08:00,ZGKL 070800Z AUTO 3SM 29/19 A2971 RMK T02900190 IEM_DS3505
ZGKL,2007-09-07 09:00,ZGKL 070900Z AUTO 09004KT 6SM 29/20 A2971 RMK SLP053 T02940197 57017 IEM_DS3505
ZGKL,2007-09-07 10:00,ZGKL 071000Z AUTO 00000KT 3SM 28/20 A2968 RMK T02800200 IEM_DS3505
ZGKL,2007-09-07 11:00,ZGKL 071100Z AUTO 00000KT 3SM 27/20 A2971 RMK T02700200 IEM_DS3505
ZGKL,2007-09-07 12:00,ZGKL 071200Z AUTO 02002KT 5SM 26/20 A2971 RMK SLP061 T02630204 52007 IEM_DS3505
ZGKL,2007-09-07 13:00,ZGKL 071300Z AUTO 00000KT 1 1/2SM 25/23 A2974 RMK T02500230 IEM_DS3505
ZGKL,2007-09-07 14:00,ZGKL 071400Z AUTO 33004KT 1 1/2SM 25/22 A2977 RMK T02500220 IEM_DS3505
ZGKL,2007-09-07 15:00,ZGKL 071500Z AUTO 02004KT 5SM 26/20 A2977 RMK SLP074 T02550199 52013 IEM_DS3505
ZGKL,2007-09-07 16:00,ZGKL 071600Z AUTO 00000KT 2SM 24/22 A2977 RMK T02400220 IEM_DS3505
ZGKL,2007-09-07 17:00,ZGKL 071700Z AUTO 00000KT 2 1/2SM 25/22 A2974 RMK T02500220 IEM_DS3505
ZGKL,2007-09-07 18:00,ZGKL 071800Z AUTO 04006KT 5SM 25/20 A2974 RMK SLP070 T02500198 57003 IEM_DS3505
ZGKL,2007-09-07 19:00,ZGKL 071900Z AUTO 1 1/2SM 24/21 A2974 RMK T02400210 IEM_DS3505
ZGKL,2007-09-07 20:00,ZGKL 072000Z AUTO 00000KT 24/21 A2974 RMK T02400210 IEM_DS3505
ZGKL,2007-09-07 21:00,ZGKL 072100Z AUTO 02004KT 4SM 24/20 A2974 RMK SLP063 T02370200 57007 IEM_DS3505
ZGKL,2007-09-07 22:00,ZGKL 072200Z AUTO 00000KT 2SM 23/21 A2974 RMK T02300210 IEM_DS3505
ZGKL,2007-09-07 23:00,ZGKL 072300Z AUTO 00000KT 2SM 23/21 A2974 RMK T02300210 IEM_DS3505
ZGKL,2007-09-08 00:00,ZGKL 080000Z AUTO 04004KT 4SM 24/20 A2974 RMK SLP074 T02430202 52010 IEM_DS3505
ZGKL,2007-09-08 01:00,ZGKL 080100Z AUTO 00000KT 2 1/2SM 24/21 A2977 RMK T02400210 IEM_DS3505
ZGKL,2007-09-08 02:00,ZGKL 080200Z AUTO 00000KT 2 1/2SM 25/22 A2977 RMK T02500220 IEM_DS3505
ZGKL,2007-09-08 03:00,ZGKL 080300Z AUTO 36006KT 4SM 26/20 A2977 RMK SLP075 T02650204 52001 IEM_DS3505
ZGKL,2007-09-08 04:00,ZGKL 080400Z AUTO 32004KT 3SM 26/22 A2974 RMK T02600220 IEM_DS3505
ZGKL,2007-09-08 05:00,ZGKL 080500Z AUTO 34008KT 3SM 27/22 A2974 RMK T02700220 IEM_DS3505
ZGKL,2007-09-08 06:00,ZGKL 080600Z AUTO 02006KT 4SM 28/20 A2971 RMK SLP054 T02760204 57020 IEM_DS3505
ZGKL,2007-09-08 07:00,ZGKL 080700Z AUTO 4SM 27/22 A2968 RMK T02700220 IEM_DS3505
ZGKL,2007-09-08 08:00,ZGKL 080800Z AUTO 4SM 27/21 A2968 RMK T02700210 IEM_DS3505
ZGKL,2007-09-08 09:00,ZGKL 080900Z AUTO 02006KT 4SM 27/20 A2968 RMK SLP047 T02680202 57008 IEM_DS3505
ZGKL,2007-09-08 10:00,ZGKL 081000Z AUTO 2 1/2SM 27/22 A2968 RMK T02700220 IEM_DS3505
ZGKL,2007-09-08 11:00,ZGKL 081100Z AUTO 00000KT 2 1/2SM 26/22 A2971 RMK T02600220 IEM_DS3505
ZGKL,2007-09-08 12:00,ZGKL 081200Z AUTO 14002KT 4SM 26/21 A2974 RMK SLP067 T02560208 52020 IEM_DS3505
ZGKL,2007-09-08 13:00,ZGKL 081300Z AUTO 35006KT 1 1/2SM 24/22 A2977 RMK T02400220 IEM_DS3505
ZGKL,2007-09-08 14:00,ZGKL 081400Z AUTO 1 1/2SM 23/22 A2977 RMK T02300220 IEM_DS3505
ZGKL,2007-09-08 15:00,ZGKL 081500Z AUTO 36004KT 4SM 24/22 A2977 RMK SLP081 T02350216 52014 IEM_DS3505
ZGKL,2007-09-08 16:00,ZGKL 081600Z AUTO 1 1/4SM 23/22 A2977 RMK T02300220 IEM_DS3505
ZGKL,2007-09-08 17:00,ZGKL 081700Z AUTO 00000KT 23/22 A2977 RMK T02300220 IEM_DS3505
ZGKL,2007-09-08 18:00,ZGKL 081800Z AUTO 36004KT 4SM 23/22 A2974 RMK 60000 SLP070 T02310217 57011 IEM_DS3505
ZGKL,2007-09-08 19:00,ZGKL 081900Z AUTO 00000KT 23/22 A2971 RMK T02300220 IEM_DS3505
ZGKL,2007-09-08 20:00,ZGKL 082000Z AUTO 00000KT 23/22 A2971 RMK T02300220 IEM_DS3505
ZGKL,2007-09-08 21:00,ZGKL 082100Z AUTO 36004KT 4SM 23/21 A2971 RMK 70000 SLP061 T02290214 57009 IEM_DS3505
ZGKL,2007-09-08 22:00,ZGKL 082200Z AUTO 00000KT 2SM 23/22 A2974 RMK T02300220 IEM_DS3505
ZGKL,2007-09-08 23:00,ZGKL 082300Z AUTO 00000KT 1 1/4SM 23/22 A2974 RMK T02300220 IEM_DS3505
ZGKL,2007-09-09 00:00,ZGKL 090000Z AUTO 02006KT 4SM 22/21 A2977 RMK 60000 70001 SLP078 T02250206 52016 IEM_DS3505
ZGKL,2007-09-09 01:00,ZGKL 090100Z AUTO 07004KT 1SM 23/22 A2977 RMK T02300220 IEM_DS3505
ZGKL,2007-09-09 02:00,ZGKL 090200Z AUTO 08006KT 1SM 22/22 A2980 RMK T02200220 IEM_DS3505
ZGKL,2007-09-09 03:00,ZGKL 090300Z AUTO 02006KT 4SM 21/20 A2980 RMK SLP099 T02080201 52020 IEM_DS3505
ZGKL,2007-09-09 04:00,ZGKL 090400Z AUTO 05004KT 4SM 22/21 A2980 RMK T02200210 IEM_DS3505
ZGKL,2007-09-09 05:00,ZGKL 090500Z AUTO 06004KT 3SM 22/21 A2980 RMK T02200210 IEM_DS3505
ZGKL,2007-09-09 06:00,ZGKL 090600Z AUTO 02006KT 5SM 21/20 A2977 RMK 60043 SLP087 T02090197 57012 IEM_DS3505
ZGKL,2007-09-09 07:00,ZGKL 090700Z AUTO 03006KT 2 1/2SM 22/20 A2977 RMK T02200200 IEM_DS3505
ZGKL,2007-09-09 08:00,ZGKL 090800Z AUTO 3SM 22/21 A2977 RMK T02200210 IEM_DS3505
ZGKL,2007-09-09 09:00,ZGKL 090900Z AUTO 02008KT 6SM 21/19 A2977 RMK SLP082 T02090192 57005 IEM_DS3505
ZGKL,2007-09-09 10:00,ZGKL 091000Z AUTO 06006KT 7SM 22/20 A2977 RMK T02200200 IEM_DS3505
ZGKL,2007-09-09 11:00,ZGKL 091100Z AUTO 00000KT 7SM 22/20 A2977 RMK T02200200 IEM_DS3505
ZGKL,2007-09-09 12:00,ZGKL 091200Z AUTO 02010KT 12SM 22/18 A2980 RMK 60001 SLP092 T02150185 52010 IEM_DS3505
ZGKL,2007-09-09 13:00,ZGKL 091300Z AUTO 00000KT 7SM 22/21 A2983 RMK T02200210 IEM_DS3505
ZGKL,2007-09-09 14:00,ZGKL 091400Z AUTO 00000KT 7SM 22/20 A2983 RMK T02200200 IEM_DS3505
ZGKL,2007-09-09 15:00,ZGKL 091500Z AUTO 02006KT 11SM 22/18 A2983 RMK SLP106 T02160184 52013 IEM_DS3505
ZGKL,2007-09-09 16:00,ZGKL 091600Z AUTO 00000KT 5SM 21/20 A2985 RMK T02100200 IEM_DS3505
ZGKL,2007-09-09 17:00,ZGKL 091700Z AUTO 00000KT 5SM 21/20 A2983 RMK T02100200 IEM_DS3505
ZGKL,2007-09-09 18:00,ZGKL 091800Z AUTO 02008KT 10SM 22/18 A2983 RMK SLP100 T02170183 57006 IEM_DS3505
ZGKL,2007-09-09 19:00,ZGKL 091900Z AUTO 00000KT 21/21 A2980 RMK T02100210 IEM_DS3505
ZGKL,2007-09-09 20:00,ZGKL 092000Z AUTO 00000KT 21/20 A2980 RMK T02100200 IEM_DS3505
ZGKL,2007-09-09 21:00,ZGKL 092100Z AUTO 02006KT 5SM 20/19 A2980 RMK 70047 SLP098 T02050190 57002 IEM_DS3505
ZGKL,2007-09-09 22:00,ZGKL 092200Z AUTO 00000KT 3SM 21/20 A2983 RMK T02100200 IEM_DS3505
ZGKL,2007-09-09 23:00,ZGKL 092300Z AUTO 00000KT 3SM 21/20 A2983 RMK T02100200 IEM_DS3505
ZGKL,2007-09-10 00:00,ZGKL 100000Z AUTO 02006KT 9SM 21/19 A2985 RMK 60004 70047 SLP108 T02090190 52010 IEM_DS3505
ZGKL,2007-09-10 01:00,ZGKL 100100Z AUTO 29004KT 3SM 20/20 A2985 RMK T02000200 IEM_DS3505
ZGKL,2007-09-10 02:00,ZGKL 100200Z AUTO 4SM 21/20 A2988 RMK T02100200 IEM_DS3505
ZGKL,2007-09-10 03:00,ZGKL 100300Z AUTO 36004KT 5SM 21/19 A2988 RMK SLP121 T02140193 52013 IEM_DS3505
ZGKL,2007-09-10 04:00,ZGKL 100400Z AUTO 27004KT 5SM 21/20 A2988 RMK T02100200 IEM_DS3505
ZGKL,2007-09-10 05:00,ZGKL 100500Z AUTO 00000KT 3SM 21/20 A2985 RMK T02100200 IEM_DS3505
ZGKL,2007-09-10 06:00,ZGKL 100600Z AUTO 29002KT 4SM 21/20 A2983 RMK 60008 SLP107 T02140202 57014 IEM_DS3505
ZGKL,2007-09-10 07:00,ZGKL 100700Z AUTO 00000KT 5SM 22/21 A2983 RMK T02200210 IEM_DS3505
ZGKL,2007-09-10 09:00,ZGKL 100900Z AUTO 36006KT 5SM 21/20 A2983 RMK SLP101 T02130203 57006 IEM_DS3505
ZGKL,2007-09-10 10:00,ZGKL 101000Z AUTO 00000KT 4SM 22/21 A2983 RMK T02200210 IEM_DS3505
ZGKL,2007-09-10 11:00,ZGKL 101100Z AUTO 03004KT 6SM 21/20 A2983 RMK T02100200 IEM_DS3505
ZGKL,2007-09-10 12:00,ZGKL 101200Z AUTO 36006KT 5SM 21/21 A2985 RMK 60012 SLP112 T02100207 52011 IEM_DS3505
ZGKL,2007-09-10 13:00,ZGKL 101300Z AUTO 00000KT 4SM 22/21 A2988 RMK T02200210 IEM_DS3505
ZGKL,2007-09-10 14:00,ZGKL 101400Z AUTO 00000KT 4SM 22/21 A2988 RMK T02200210 IEM_DS3505
ZGKL,2007-09-10 15:00,ZGKL 101500Z AUTO 36002KT 5SM 21/20 A2988 RMK SLP126 T02110203 52013 IEM_DS3505
ZGKL,2007-09-10 16:00,ZGKL 101600Z AUTO 00000KT 3SM 21/21 A2988 RMK T02100210 IEM_DS3505
ZGKL,2007-09-10 17:00,ZGKL 101700Z AUTO 00000KT 21/20 A2985 RMK T02100200 IEM_DS3505
ZGKL,2007-09-10 18:00,ZGKL 101800Z AUTO 36002KT 4SM 21/20 A2985 RMK 60003 SLP108 T02090199 57017 IEM_DS3505
ZGKL,2007-09-10 19:00,ZGKL 101900Z AUTO 00000KT 21/20 A2985 RMK T02100200 IEM_DS3505
ZGKL,2007-09-10 20:00,ZGKL 102000Z AUTO 00000KT 1 1/4SM 21/21 A2983 RMK T02100210 IEM_DS3505
ZGKL,2007-09-10 21:00,ZGKL 102100Z AUTO 02004KT 4SM 22/20 A2983 RMK 70024 SLP104 T02150200 57004 IEM_DS3505
ZGKL,2007-09-10 22:00,ZGKL 102200Z AUTO 00000KT 3SM 21/21 A2983 RMK T02100210 IEM_DS3505
ZGKL,2007-09-10 23:00,ZGKL 102300Z AUTO 00000KT 4SM 21/21 A2983 RMK T02100210 IEM_DS3505
ZGKL,2007-09-11 00:00,ZGKL 110000Z AUTO 02002KT 5SM 22/20 A2985 RMK 60000 70024 SLP109 T02180201 52005 IEM_DS3505
ZGKL,2007-09-11 01:00,ZGKL 110100Z AUTO 00000KT 7SM 23/21 A2985 RMK T02300210 IEM_DS3505
ZGKL,2007-09-11 02:00,ZGKL 110200Z AUTO 00000KT 7SM 24/21 A2988 RMK T02400210 IEM_DS3505
ZGKL,2007-09-11 03:00,ZGKL 110300Z AUTO 02006KT 5SM 24/20 A2988 RMK SLP119 T02450204 52011 IEM_DS3505
ZGKL,2007-09-11 04:00,ZGKL 110400Z AUTO 00000KT 7SM 24/21 A2985 RMK T02400210 IEM_DS3505
ZGKL,2007-09-11 05:00,ZGKL 110500Z AUTO 00000KT 7SM 24/21 A2985 RMK T02400210 IEM_DS3505
ZGKL,2007-09-11 06:00,ZGKL 110600Z AUTO 02002KT 10SM 26/21 A2985 RMK 60000 SLP104 T02610207 57015 IEM_DS3505
ZGKL,2007-09-11 07:00,ZGKL 110700Z AUTO 27006KT 3SM 22/21 A2983 RMK T02200210 IEM_DS3505
ZGKL,2007-09-11 08:00,ZGKL 110800Z AUTO 7SM 22/22 A2980 RMK T02200220 IEM_DS3505
ZGKL,2007-09-11 09:00,ZGKL 110900Z AUTO 04002KT 10SM 25/21 A2980 RMK SLP091 T02510208 57013 IEM_DS3505
ZGKL,2007-09-11 10:00,ZGKL 111000Z AUTO 5SM 23/22 A2980 RMK T02300220 IEM_DS3505
ZGKL,2007-09-11 11:00,ZGKL 111100Z AUTO 00000KT 5SM 23/22 A2980 RMK T02300220 IEM_DS3505
ZGKL,2007-09-11 12:00,ZGKL 111200Z AUTO 02004KT 8SM 24/20 A2983 RMK 60000 SLP100 T02390204 52009 IEM_DS3505
ZGKL,2007-09-11 13:00,ZGKL 111300Z AUTO 00000KT 2 1/2SM 23/22 A2985 RMK T02300220 IEM_DS3505
ZGKL,2007-09-11 14:00,ZGKL 111400Z AUTO 00000KT 2SM 23/22 A2985 RMK T02300220 IEM_DS3505
ZGKL,2007-09-11 15:00,ZGKL 111500Z AUTO 36006KT 7SM 23/20 A2985 RMK SLP108 T02310201 52008 IEM_DS3505
ZGKL,2007-09-11 16:00,ZGKL 111600Z AUTO 00000KT 3SM 22/21 A2985 RMK T02200210 IEM_DS3505
ZGKL,2007-09-11 17:00,ZGKL 111700Z AUTO 00000KT 22/22 A2985 RMK T02200220 IEM_DS3505
ZGKL,2007-09-11 18:00,ZGKL 111800Z AUTO 04004KT 7SM 23/20 A2983 RMK 60000 SLP104 T02280201 57003 IEM_DS3505
ZGKL,2007-09-11 19:00,ZGKL 111900Z AUTO 00000KT 22/21 A2983 RMK T02200210 IEM_DS3505
ZGKL,2007-09-11 20:00,ZGKL 112000Z AUTO 00000KT 22/21 A2980 RMK T02200210 IEM_DS3505
ZGKL,2007-09-11 21:00,ZGKL 112100Z AUTO 02004KT 7SM 22/20 A2980 RMK 70000 SLP096 T02250199 57008 IEM_DS3505
ZGKL,2007-09-11 22:00,ZGKL 112200Z AUTO 00000KT 1 1/2SM 22/21 A2983 RMK T02200210 IEM_DS3505
ZGKL,2007-09-11 23:00,ZGKL 112300Z AUTO 00000KT 2 1/2SM 22/21 A2983 RMK T02200210 IEM_DS3505
ZGKL,2007-09-12 00:00,ZGKL 120000Z AUTO 02004KT 9SM 23/20 A2985 RMK 70000 SLP107 T02290202 52010 IEM_DS3505
ZGKL,2007-09-12 01:00,ZGKL 120100Z AUTO 00000KT 4SM 25/22 A2985 RMK T02500220 IEM_DS3505
ZGKL,2007-09-12 02:00,ZGKL 120200Z AUTO 00000KT 7SM 26/21 A2985 RMK T02600210 IEM_DS3505
ZGKL,2007-09-12 03:00,ZGKL 120300Z AUTO 36004KT 9SM 26/21 A2985 RMK SLP108 T02640207 52002 IEM_DS3505
ZGKL,2007-09-12 04:00,ZGKL 120400Z AUTO 00000KT 7SM 28/22 A2983 RMK T02800220 IEM_DS3505
ZGKL,2007-09-12 06:00,ZGKL 120600Z AUTO 02004KT 9SM 29/22 A2977 RMK SLP083 T02880216 57024 IEM_DS3505
ZGKL,2007-09-12 07:00,ZGKL 120700Z AUTO 11004KT 7SM 29/22 A2977 RMK T02900220 IEM_DS3505
ZGKL,2007-09-12 08:00,ZGKL 120800Z AUTO 7SM 30/22 A2974 RMK T03000220 IEM_DS3505
ZGKL,2007-09-12 09:00,ZGKL 120900Z AUTO 11004KT 9SM 30/21 A2974 RMK SLP067 T02990213 57015 IEM_DS3505
ZGKL,2007-09-12 10:00,ZGKL 121000Z AUTO 00000KT 6SM 29/22 A2974 RMK T02900220 IEM_DS3505
ZGKL,2007-09-12 11:00,ZGKL 121100Z AUTO 00000KT 5SM 27/23 A2974 RMK T02700230 IEM_DS3505
ZGKL,2007-09-12 12:00,ZGKL 121200Z AUTO 02004KT 8SM 26/21 A2977 RMK SLP085 T02600214 52016 IEM_DS3505
ZGKL,2007-09-12 13:00,ZGKL 121300Z AUTO 05006KT 5SM 26/22 A2980 RMK T02600220 IEM_DS3505
ZGKL,2007-09-12 14:00,ZGKL 121400Z AUTO 4SM 25/22 A2983 RMK T02500220 IEM_DS3505
ZGKL,2007-09-12 15:00,ZGKL 121500Z AUTO 36004KT 7SM 25/21 A2983 RMK SLP103 T02470208 52019 IEM_DS3505
ZGKL,2007-09-12 16:00,ZGKL 121600Z AUTO 00000KT 4SM 25/21 A2985 RMK T02500210 IEM_DS3505
ZGKL,2007-09-12 17:00,ZGKL 121700Z AUTO 00000KT 4SM 25/22 A2985 RMK T02500220 IEM_DS3505
ZGKL,2007-09-12 18:00,ZGKL 121800Z AUTO 02004KT 7SM 24/21 A2983 RMK SLP099 T02450206 57004 IEM_DS3505
ZGKL,2007-09-12 19:00,ZGKL 121900Z AUTO 00000KT 24/22 A2980 RMK T02400220 IEM_DS3505
ZGKL,2007-09-12 20:00,ZGKL 122000Z AUTO 00000KT 23/22 A2980 RMK T02300220 IEM_DS3505
ZGKL,2007-09-12 21:00,ZGKL 122100Z AUTO 34002KT 7SM 23/20 A2980 RMK SLP094 T02340205 57005 IEM_DS3505
ZGKL,2007-09-12 22:00,ZGKL 122200Z AUTO 00000KT 1SM 22/22 A2983 RMK T02200220 IEM_DS3505
ZGKL,2007-09-12 23:00,ZGKL 122300Z AUTO 00000KT 1/8SM 22/22 A2983 RMK T02200220 IEM_DS3505
ZGKL,2007-09-13 00:00,ZGKL 130000Z AUTO 36004KT 7SM 25/21 A2983 RMK SLP100 T02470212 52006 IEM_DS3505
ZGKL,2007-09-13 01:00,ZGKL 130100Z AUTO 00000KT 2 1/2SM 26/23 A2985 RMK T02600230 IEM_DS3505
ZGKL,2007-09-13 02:00,ZGKL 130200Z AUTO 5SM 27/22 A2985 RMK T02700220 IEM_DS3505
ZGKL,2007-09-13 03:00,ZGKL 130300Z AUTO 02004KT 6SM 30/22 A2983 RMK SLP100 T02950215 52001 IEM_DS3505
ZGKL,2007-09-13 04:00,ZGKL 130400Z AUTO 5SM 30/23 A2983 RMK T03000230 IEM_DS3505
ZGKL,2007-09-13 05:00,ZGKL 130500Z AUTO 5SM 32/22 A2980 RMK T03200220 IEM_DS3505
ZGKL,2007-09-13 06:00,ZGKL 130600Z AUTO 11004KT 7SM 32/22 A2977 RMK SLP072 T03190220 57027 IEM_DS3505
ZGKL,2007-09-13 07:00,ZGKL 130700Z AUTO 27006KT 6SM 31/23 A2974 RMK T03100230 IEM_DS3505
ZGKL,2007-09-13 08:00,ZGKL 130800Z AUTO 30004KT 6SM 30/24 A2974 RMK T03000240 IEM_DS3505
ZGKL,2007-09-13 09:00,ZGKL 130900Z AUTO 29004KT 7SM 30/22 A2974 RMK SLP064 T03010223 57009 IEM_DS3505
ZGKL,2007-09-13 10:00,ZGKL 131000Z AUTO 6SM 29/23 A2974 RMK T02900230 IEM_DS3505
ZGKL,2007-09-13 11:00,ZGKL 131100Z AUTO 00000KT 6SM 28/23 A2977 RMK T02800230 IEM_DS3505
ZGKL,2007-09-13 12:00,ZGKL 131200Z AUTO 04002KT 5SM 28/23 A2977 RMK SLP077 T02830234 52013 IEM_DS3505
ZGKL,2007-09-13 13:00,ZGKL 131300Z AUTO 32006KT 4SM 26/23 A2977 RMK T02600230 IEM_DS3505
ZGKL,2007-09-13 14:00,ZGKL 131400Z AUTO 00000KT 4SM 25/22 A2980 RMK T02500220 IEM_DS3505
ZGKL,2007-09-13 15:00,ZGKL 131500Z AUTO 02002KT 5SM 26/22 A2983 RMK SLP094 T02640220 52017 IEM_DS3505
ZGKL,2007-09-13 16:00,ZGKL 131600Z AUTO 00000KT 4SM 24/23 A2983 RMK T02400230 IEM_DS3505
ZGKL,2007-09-13 17:00,ZGKL 131700Z AUTO 00000KT 4SM 24/23 A2983 RMK T02400230 IEM_DS3505
ZGKL,2007-09-13 18:00,ZGKL 131800Z AUTO 36002KT 5SM 26/22 A2980 RMK SLP092 T02580219 57001 IEM_DS3505
ZGKL,2007-09-13 19:00,ZGKL 131900Z AUTO 00000KT 24/23 A2980 RMK T02400230 IEM_DS3505
ZGKL,2007-09-13 20:00,ZGKL 132000Z AUTO 00000KT 4SM 24/23 A2980 RMK T02400230 IEM_DS3505
ZGKL,2007-09-13 21:00,ZGKL 132100Z AUTO 04002KT 5SM 25/22 RMK SLP088 T02510222 57005 IEM_DS3505
ZGKL,2007-09-13 22:00,ZGKL 132200Z AUTO 00000KT 4SM 24/23 A2980 RMK T02400230 IEM_DS3505
ZGKL,2007-09-13 23:00,ZGKL 132300Z AUTO 00000KT 4SM 24/23 A2980 RMK T02400230 IEM_DS3505
ZGKL,2007-09-14 00:00,ZGKL 140000Z AUTO 07002KT 5SM 26/22 A2983 RMK SLP098 T02570224 52010 IEM_DS3505
ZGKL,2007-09-14 01:00,ZGKL 140100Z AUTO 00000KT 4SM 25/24 A2983 RMK T02500240 IEM_DS3505
ZGKL,2007-09-14 02:00,ZGKL 140200Z AUTO 00000KT 4SM 26/23 A2985 RMK T02600230 IEM_DS3505
ZGKL,2007-09-14 03:00,ZGKL 140300Z AUTO 36006KT 4SM 26/23 A2985 RMK SLP108 T02570226 52009 IEM_DS3505
ZGKL,2007-09-14 04:00,ZGKL 140400Z AUTO 34008KT 7SM 28/23 A2983 RMK T02800230 IEM_DS3505
ZGKL,2007-09-14 05:00,ZGKL 140500Z AUTO 36006KT 7SM 29/22 A2983 RMK T02900220 IEM_DS3505
ZGKL,2007-09-14 06:00,ZGKL 140600Z AUTO 02006KT 5SM 29/22 A2980 RMK 60000 SLP084 T02900223 57023 IEM_DS3505
ZGKL,2007-09-14 07:00,ZGKL 140700Z AUTO 36010KT 7SM 31/21 A2977 RMK T03100210 IEM_DS3505
ZGKL,2007-09-14 08:00,ZGKL 140800Z AUTO 34010KT 7SM 30/21 A2974 RMK T03000210 IEM_DS3505
ZGKL,2007-09-14 09:00,ZGKL 140900Z AUTO 02006KT 7SM 29/21 A2974 RMK SLP066 T02890214 57018 IEM_DS3505
ZGKL,2007-09-14 10:00,ZGKL 141000Z AUTO 31010KT 7SM 29/20 A2974 RMK T02900200 IEM_DS3505
ZGKL,2007-09-14 11:00,ZGKL 141100Z AUTO 7SM 26/21 A2977 RMK T02600210 IEM_DS3505
ZGKL,2007-09-14 12:00,ZGKL 141200Z AUTO 02004KT 7SM 26/21 A2977 RMK SLP082 T02600210 52015 IEM_DS3505
ZGKL,2007-09-14 13:00,ZGKL 141300Z AUTO 7SM 25/21 A2980 RMK T02500210 IEM_DS3505
ZGKL,2007-09-14 14:00,ZGKL 141400Z AUTO 00000KT 7SM 25/22 A2980 RMK T02500220 IEM_DS3505
ZGKL,2007-09-14 15:00,ZGKL 141500Z AUTO 02006KT 7SM 25/20 A2983 RMK SLP101 T02460197 52018 IEM_DS3505
ZGKL,2007-09-14 16:00,ZGKL 141600Z AUTO 7SM 25/21 A2983 RMK T02500210 IEM_DS3505
ZGKL,2007-09-14 17:00,ZGKL 141700Z AUTO 00000KT 4SM 24/22 A2983 RMK T02400220 IEM_DS3505
ZGKL,2007-09-14 18:00,ZGKL 141800Z AUTO 02006KT 7SM 23/19 A2980 RMK SLP092 T02340191 57008 IEM_DS3505
ZGKL,2007-09-14 19:00,ZGKL 141900Z AUTO 00000KT 22/21 A2980 RMK T02200210 IEM_DS3505
ZGKL,2007-09-14 20:00,ZGKL 142000Z AUTO 00000KT 22/21 A2980 RMK T02200210 IEM_DS3505
ZGKL,2007-09-14 21:00,ZGKL 142100Z AUTO 02004KT 7SM 23/19 A2980 RMK 70000 SLP087 T02270191 57005 IEM_DS3505
ZGKL,2007-09-14 22:00,ZGKL 142200Z AUTO 00000KT 6SM 22/21 A2980 RMK T02200210 IEM_DS3505
ZGKL,2007-09-14 23:00,ZGKL 142300Z AUTO 00000KT 6SM 22/21 A2980 RMK T02200210 IEM_DS3505
ZGKL,2007-09-15 00:00,ZGKL 150000Z AUTO 02004KT 9SM 23/19 A2980 RMK 70000 SLP094 T02300190 52006 IEM_DS3505
ZGKL,2007-09-15 01:00,ZGKL 150100Z AUTO 00000KT 6SM 24/21 A2983 RMK T02400210 IEM_DS3505
ZGKL,2007-09-15 02:00,ZGKL 150200Z AUTO 6SM 26/21 A2983 RMK T02600210 IEM_DS3505
ZGKL,2007-09-15 03:00,ZGKL 150300Z AUTO 04008KT 9SM 27/18 A2983 RMK SLP095 T02730183 52002 IEM_DS3505
ZGKL,2007-09-15 04:00,ZGKL 150400Z AUTO 07006KT 6SM 28/17 A2980 RMK T02800170 IEM_DS3505
ZGKL,2007-09-15 05:00,ZGKL 150500Z AUTO 6SM 30/15 A2977 RMK T03000150 IEM_DS3505
ZGKL,2007-09-15 06:00,ZGKL 150600Z AUTO 07006KT 12SM 31/11 A2977 RMK SLP071 T03100109 57023 IEM_DS3505
ZGKL,2007-09-15 07:00,ZGKL 150700Z AUTO 05004KT 6SM 31/12 A2974 RMK T03100120 IEM_DS3505
ZGKL,2007-09-15 08:00,ZGKL 150800Z AUTO 04008KT 6SM 31/11 A2974 RMK T03100110 IEM_DS3505
ZGKL,2007-09-15 09:00,ZGKL 150900Z AUTO 02008KT 16SM 30/14 A2971 RMK SLP059 T02980136 57012 IEM_DS3505
ZGKL,2007-09-15 10:00,ZGKL 151000Z AUTO 05006KT 6SM 29/17 A2971 RMK T02900170 IEM_DS3505
ZGKL,2007-09-15 11:00,ZGKL 151100Z AUTO 04006KT 6SM 27/16 A2974 RMK T02700160 IEM_DS3505
ZGKL,2007-09-15 12:00,ZGKL 151200Z AUTO 34002KT 14SM 26/16 A2974 RMK SLP070 T02560156 52009 IEM_DS3505
ZGKL,2007-09-15 13:00,ZGKL 151300Z AUTO 35004KT 6SM 22/20 A2977 RMK T02200200 IEM_DS3505
ZGKL,2007-09-15 14:00,ZGKL 151400Z AUTO 6SM 22/19 A2977 RMK T02200190 IEM_DS3505
ZGKL,2007-09-15 15:00,ZGKL 151500Z AUTO 04004KT 11SM 24/16 A2980 RMK SLP083 T02420162 52014 IEM_DS3505
ZGKL,2007-09-15 16:00,ZGKL 151600Z AUTO 00000KT 6SM 21/19 A2980 RMK T02100190 IEM_DS3505
ZGKL,2007-09-15 17:00,ZGKL 151700Z AUTO 00000KT 6SM 20/19 A2980 RMK T02000190 IEM_DS3505
ZGKL,2007-09-15 18:00,ZGKL 151800Z AUTO 36004KT 11SM 22/17 A2980 RMK SLP088 T02190168 52005 IEM_DS3505
ZGKL,2007-09-15 19:00,ZGKL 151900Z AUTO 00000KT 19/19 A2980 RMK T01900190 IEM_DS3505
ZGKL,2007-09-15 20:00,ZGKL 152000Z AUTO 00000KT 19/18 A2980 RMK T01900180 IEM_DS3505
ZGKL,2007-09-15 21:00,ZGKL 152100Z AUTO 02002KT 11SM 20/17 A2980 RMK SLP088 T02010167 54000 IEM_DS3505
ZGKL,2007-09-15 22:00,ZGKL 152200Z AUTO 00000KT 5SM 18/18 A2980 RMK T01800180 IEM_DS3505
ZGKL,2007-09-15 23:00,ZGKL 152300Z AUTO 00000KT 6SM 19/18 A2980 RMK T01900180 IEM_DS3505
ZGKL,2007-09-16 00:00,ZGKL 160000Z AUTO 36002KT 7SM 22/17 A2983 RMK SLP100 T02160172 52010 IEM_DS3505
ZGKL,2007-09-16 01:00,ZGKL 160100Z AUTO 00000KT 6SM 24/19 A2983 RMK T02400190 IEM_DS3505
ZGKL,2007-09-16 02:00,ZGKL 160200Z AUTO 00000KT 6SM 26/19 A2983 RMK T02600190 IEM_DS3505
ZGKL,2007-09-16 03:00,ZGKL 160300Z AUTO 36006KT 8SM 28/17 A2983 RMK SLP093 T02800166 57005 IEM_DS3505
ZGKL,2007-09-16 04:00,ZGKL 160400Z AUTO 6SM 30/17 A2980 RMK T03000170 IEM_DS3505
ZGKL,2007-09-16 05:00,ZGKL 160500Z AUTO 6SM 31/15 A2977 RMK T03100150 IEM_DS3505
ZGKL,2007-09-16 06:00,ZGKL 160600Z AUTO 36004KT 12SM 32/12 A2974 RMK SLP066 T03160119 57026 IEM_DS3505
ZGKL,2007-09-16 07:00,ZGKL 160700Z AUTO 14004KT 6SM 32/13 A2971 RMK T03200130 IEM_DS3505
ZGKL,2007-09-16 08:00,ZGKL 160800Z AUTO 6SM 32/12 A2968 RMK T03200120 IEM_DS3505
ZGKL,2007-09-16 09:00,ZGKL 160900Z AUTO 02004KT 14SM 32/13 A2971 RMK SLP052 T03180126 57014 IEM_DS3505
ZGKL,2007-09-16 10:00,ZGKL 161000Z AUTO 07004KT 6SM 31/14 A2971 RMK T03100140 IEM_DS3505
ZGKL,2007-09-16 11:00,ZGKL 161100Z AUTO 29004KT 6SM 26/18 A2971 RMK T02600180 IEM_DS3505
ZGKL,2007-09-16 12:00,ZGKL 161200Z AUTO 02004KT 15SM 26/15 A2974 RMK SLP072 T02610152 52018 IEM_DS3505
ZGKL,2007-09-16 13:00,ZGKL 161300Z AUTO 00000KT 6SM 24/19 A2977 RMK T02400190 IEM_DS3505
ZGKL,2007-09-16 14:00,ZGKL 161400Z AUTO 00000KT 6SM 23/20 A2980 RMK T02300200 IEM_DS3505
ZGKL,2007-09-16 15:00,ZGKL 161500Z AUTO 36004KT 14SM 25/16 A2980 RMK SLP085 T02460155 52014 IEM_DS3505
ZGKL,2007-09-16 16:00,ZGKL 161600Z AUTO 00000KT 6SM 21/19 A2980 RMK T02100190 IEM_DS3505
ZGKL,2007-09-16 18:00,ZGKL 161800Z AUTO 02002KT 12SM 23/17 A2980 RMK SLP086 T02260166 52002 IEM_DS3505
ZGKL,2007-09-16 19:00,ZGKL 161900Z AUTO 00000KT 20/19 A2980 RMK T02000190 IEM_DS3505
ZGKL,2007-09-16 20:00,ZGKL 162000Z AUTO 30004KT 19/19 A2980 RMK T01900190 IEM_DS3505
ZGKL,2007-09-16 21:00,ZGKL 162100Z AUTO 36004KT 10SM 21/17 A2983 RMK SLP096 T02080166 52009 IEM_DS3505
ZGKL,2007-09-16 22:00,ZGKL 162200Z AUTO 00000KT 4SM 19/18 A2983 RMK T01900180 IEM_DS3505
ZGKL,2007-09-16 23:00,ZGKL 162300Z AUTO 00000KT 5SM 19/18 A2985 RMK T01900180 IEM_DS3505
ZGKL,2007-09-17 00:00,ZGKL 170000Z AUTO 36004KT 6SM 22/17 A2985 RMK SLP111 T02230172 52014 IEM_DS3505
ZGKL,2007-09-17 01:00,ZGKL 170100Z AUTO 00000KT 6SM 24/19 A2985 RMK T02400190 IEM_DS3505
ZGKL,2007-09-17 02:00,ZGKL 170200Z AUTO 00000KT 6SM 26/19 A2985 RMK T02600190 IEM_DS3505
ZGKL,2007-09-17 03:00,ZGKL 170300Z AUTO 04006KT 7SM 29/18 A2988 RMK SLP111 T02880180 52001 IEM_DS3505
ZGKL,2007-09-17 04:00,ZGKL 170400Z AUTO 05008KT 5SM 30/18 A2985 RMK T03000180 IEM_DS3505
ZGKL,2007-09-17 05:00,ZGKL 170500Z AUTO 06006KT 6SM 31/18 A2983 RMK T03100180 IEM_DS3505
ZGKL,2007-09-17 06:00,ZGKL 170600Z AUTO 04006KT 9SM 32/15 A2980 RMK SLP088 T03220152 57022 IEM_DS3505
ZGKL,2007-09-17 07:00,ZGKL 170700Z AUTO 05008KT 7SM 32/16 A2977 RMK T03200160 IEM_DS3505
ZGKL,2007-09-17 08:00,ZGKL 170800Z AUTO 05010KT 7SM 31/17 A2977 RMK T03100170 IEM_DS3505
ZGKL,2007-09-17 09:00,ZGKL 170900Z AUTO 04004KT 11SM 31/17 A2977 RMK SLP081 T03070167 57008 IEM_DS3505
ZGKL,2007-09-17 10:00,ZGKL 171000Z AUTO 05006KT 5SM 29/17 A2980 RMK T02900170 IEM_DS3505
ZGKL,2007-09-17 11:00,ZGKL 171100Z AUTO 04008KT 5SM 28/17 A2980 RMK T02800170 IEM_DS3505
ZGKL,2007-09-17 12:00,ZGKL 171200Z AUTO 36004KT 9SM 27/18 A2980 RMK SLP092 T02700178 52010 IEM_DS3505
ZGKL,2007-09-17 13:00,ZGKL 171300Z AUTO 32006KT 2 1/2SM 25/21 A2985 RMK T02500210 IEM_DS3505
ZGKL,2007-09-17 14:00,ZGKL 171400Z AUTO 32006KT 3SM 25/21 A2985 RMK T02500210 IEM_DS3505
ZGKL,2007-09-17 15:00,ZGKL 171500Z AUTO 36004KT 9SM 26/18 A2985 RMK SLP108 T02600176 52018 IEM_DS3505
ZGKL,2007-09-17 16:00,ZGKL 171600Z AUTO 32006KT 4SM 24/20 A2985 RMK T02400200 IEM_DS3505
ZGKL,2007-09-17 17:00,ZGKL 171700Z AUTO 33006KT 4SM 24/19 A2985 RMK T02400190 IEM_DS3505
ZGKL,2007-09-17 18:00,ZGKL 171800Z AUTO 36006KT 7SM 25/17 A2985 RMK SLP105 T02540173 57002 IEM_DS3505
ZGKL,2007-09-17 19:00,ZGKL 171900Z AUTO 32004KT 3SM 23/19 A2985 RMK T02300190 IEM_DS3505
ZGKL,2007-09-17 20:00,ZGKL 172000Z AUTO 31004KT 3SM 23/19 A2985 RMK T02300190 IEM_DS3505
ZGKL,2007-09-17 21:00,ZGKL 172100Z AUTO 02006KT 7SM 25/17 A2983 RMK SLP101 T02490169 57005 IEM_DS3505
ZGKL,2007-09-17 22:00,ZGKL 172200Z AUTO 32004KT 4SM 23/19 A2985 RMK T02300190 IEM_DS3505
ZGKL,2007-09-17 23:00,ZGKL 172300Z AUTO 33002KT 3SM 23/19 A2985 RMK T02300190 IEM_DS3505
ZGKL,2007-09-18 00:00,ZGKL 180000Z AUTO 36004KT 7SM 26/17 A2985 RMK SLP106 T02550166 52004 IEM_DS3505
ZGKL,2007-09-18 01:00,ZGKL 180100Z AUTO 34006KT 4SM 25/19 A2985 RMK T02500190 IEM_DS3505
ZGKL,2007-09-18 02:00,ZGKL 180200Z AUTO 6SM 28/16 A2985 RMK T02800160 IEM_DS3505
ZGKL,2007-09-18 03:00,ZGKL 180300Z AUTO 04010KT 7SM 28/15 A2985 RMK SLP106 T02850154 52001 IEM_DS3505
ZGKL,2007-09-18 04:00,ZGKL 180400Z AUTO 7SM 30/16 A2983 RMK T03000160 IEM_DS3505
ZGKL,2007-09-18 05:00,ZGKL 180500Z AUTO 04008KT 7SM 30/16 A2980 RMK T03000160 IEM_DS3505
ZGKL,2007-09-18 06:00,ZGKL 180600Z AUTO 07010KT 6SM 30/15 A2977 RMK SLP073 T02960153 57033 IEM_DS3505
ZGKL,2007-09-18 07:00,ZGKL 180700Z AUTO 04008KT 7SM 29/16 A2974 RMK T02900160 IEM_DS3505
ZGKL,2007-09-18 08:00,ZGKL 180800Z AUTO 08004KT 7SM 28/18 A2971 RMK T02800180 IEM_DS3505
ZGKL,2007-09-18 09:00,ZGKL 180900Z AUTO 04008KT 7SM 29/15 A2971 RMK SLP059 T02940152 57014 IEM_DS3505
ZGKL,2007-09-18 10:00,ZGKL 181000Z AUTO 33004KT 7SM 28/18 A2971 RMK T02800180 IEM_DS3505
ZGKL,2007-09-18 11:00,ZGKL 181100Z AUTO 30002KT 5SM 25/20 A2971 RMK T02500200 IEM_DS3505
ZGKL,2007-09-18 12:00,ZGKL 181200Z AUTO 02004KT 7SM 26/16 A2974 RMK SLP065 T02600163 52005 IEM_DS3505
ZGKL,2007-09-18 13:00,ZGKL 181300Z AUTO 3SM 23/20 A2974 RMK T02300200 IEM_DS3505
ZGKL,2007-09-18 14:00,ZGKL 181400Z AUTO 00000KT 4SM 22/19 A2977 RMK T02200190 IEM_DS3505
ZGKL,2007-09-18 15:00,ZGKL 181500Z AUTO 36002KT 7SM 24/16 A2977 RMK SLP080 T02350158 52015 IEM_DS3505
ZGKL,2007-09-18 16:00,ZGKL 181600Z AUTO 4SM 20/19 A2977 RMK T02000190 IEM_DS3505
ZGKL,2007-09-18 17:00,ZGKL 181700Z AUTO 3SM 19/18 A2977 RMK T01900180 IEM_DS3505
ZGKL,2007-09-18 18:00,ZGKL 181800Z AUTO 02004KT 6SM 22/14 A2977 RMK SLP076 T02210137 57004 IEM_DS3505
ZGKL,2007-09-18 19:00,ZGKL 181900Z AUTO 00000KT 4SM 19/18 A2977 RMK T01900180 IEM_DS3505
ZGKL,2007-09-18 20:00,ZGKL 182000Z AUTO 00000KT 4SM 19/17 A2977 RMK T01900170 IEM_DS3505
ZGKL,2007-09-18 21:00,ZGKL 182100Z AUTO 36004KT 6SM 21/12 A2977 RMK SLP081 T02130124 52005 IEM_DS3505
ZGKL,2007-09-18 22:00,ZGKL 182200Z AUTO 00000KT 7SM 17/17 A2977 RMK T01700170 IEM_DS3505
ZGKL,2007-09-18 23:00,ZGKL 182300Z AUTO 28004KT 6SM 18/17 A2980 RMK T01800170 IEM_DS3505
ZGKL,2007-09-19 00:00,ZGKL 190000Z AUTO 36004KT 10SM 23/11 A2983 RMK SLP095 T02290113 52013 IEM_DS3505
ZGKL,2007-09-19 01:00,ZGKL 190100Z AUTO 00000KT 6SM 23/17 A2983 RMK T02300170 IEM_DS3505
ZGKL,2007-09-19 02:00,ZGKL 190200Z AUTO 6SM 27/10 A2983 RMK T02700100 IEM_DS3505
ZGKL,2007-09-19 03:00,ZGKL 190300Z AUTO 02008KT 16SM 28/08 A2983 RMK SLP095 T02790077 52001 IEM_DS3505
ZGKL,2007-09-19 04:00,ZGKL 190400Z AUTO 6SM 29/08 A2980 RMK T02900080 IEM_DS3505
ZGKL,2007-09-19 05:00,ZGKL 190500Z AUTO 6SM 29/10 A2977 RMK T02900100 IEM_DS3505
ZGKL,2007-09-19 06:00,ZGKL 190600Z AUTO 04008KT 15SM 30/08 A2974 RMK SLP063 T03020080 57031 IEM_DS3505
ZGKL,2007-09-19 07:00,ZGKL 190700Z AUTO 10008KT 6SM 31/08 A2971 RMK T03100080 IEM_DS3505
ZGKL,2007-09-19 08:00,ZGKL 190800Z AUTO 07008KT 6SM 31/09 A2971 RMK T03100090 IEM_DS3505
ZGKL,2007-09-19 09:00,ZGKL 190900Z AUTO 02008KT 15SM 30/08 A2971 RMK SLP056 T03020080 57007 IEM_DS3505
ZGKL,2007-09-19 10:00,ZGKL 191000Z AUTO 06006KT 6SM 29/10 A2971 RMK T02900100 IEM_DS3505
ZGKL,2007-09-19 11:00,ZGKL 191100Z AUTO 30004KT 6SM 24/14 A2974 RMK T02400140 IEM_DS3505
ZGKL,2007-09-19 12:00,ZGKL 191200Z AUTO 02006KT 12SM 25/11 A2977 RMK SLP079 T02470106 52021 IEM_DS3505
ZGKL,2007-09-19 13:00,ZGKL 191300Z AUTO 00000KT 6SM 21/15 A2980 RMK T02100150 IEM_DS3505
ZGKL,2007-09-19 14:00,ZGKL 191400Z AUTO 34004KT 6SM 20/15 A2983 RMK T02000150 IEM_DS3505
ZGKL,2007-09-19 15:00,ZGKL 191500Z AUTO 02004KT 11SM 22/12 A2983 RMK SLP105 T02230117 52026 IEM_DS3505
ZGKL,2007-09-19 16:00,ZGKL 191600Z AUTO 31002KT 6SM 19/15 A2985 RMK T01900150 IEM_DS3505
ZGKL,2007-09-19 17:00,ZGKL 191700Z AUTO 35004KT 6SM 17/15 A2985 RMK T01700150 IEM_DS3505
ZGKL,2007-09-19 18:00,ZGKL 191800Z AUTO 36004KT 10SM 21/11 A2985 RMK SLP113 T02070113 52008 IEM_DS3505
ZGKL,2007-09-19 21:00,ZGKL 192100Z AUTO 36004KT 8SM 20/11 A2988 RMK SLP120 T01970110 52007 IEM_DS3505
ZGKL,2007-09-19 22:00,ZGKL 192200Z AUTO 33004KT 6SM 15/14 A2988 RMK T01500140 IEM_DS3505
ZGKL,2007-09-19 23:00,ZGKL 192300Z AUTO 34004KT 6SM 16/14 A2991 RMK T01600140 IEM_DS3505
ZGKL,2007-09-20 00:00,ZGKL 200000Z AUTO 36006KT 9SM 22/11 A2994 RMK SLP137 T02150107 52015 IEM_DS3505
ZGKL,2007-09-20 01:00,ZGKL 200100Z AUTO 00000KT 6SM 22/14 A2994 RMK T02200140 IEM_DS3505
ZGKL,2007-09-20 02:00,ZGKL 200200Z AUTO 30004KT 6SM 25/13 A2994 RMK T02500130 IEM_DS3505
ZGKL,2007-09-20 03:00,ZGKL 200300Z AUTO 04012KT 9SM 27/07 A2994 RMK SLP140 T02730072 52004 IEM_DS3505
ZGKL,2007-09-20 04:00,ZGKL 200400Z AUTO 6SM 29/09 A2991 RMK T02900090 IEM_DS3505
ZGKL,2007-09-20 05:00,ZGKL 200500Z AUTO 05010KT 6SM 29/09 A2988 RMK T02900090 IEM_DS3505
ZGKL,2007-09-20 06:00,ZGKL 200600Z AUTO 02008KT 11SM 30/08 A2985 RMK SLP112 T02980077 57027 IEM_DS3505
ZGKL,2007-09-20 07:00,ZGKL 200700Z AUTO 07010KT 6SM 30/10 A2985 RMK T03000100 IEM_DS3505
ZGKL,2007-09-20 08:00,ZGKL 200800Z AUTO 06012KT 6SM 30/09 A2983 RMK T03000090 IEM_DS3505
ZGKL,2007-09-20 09:00,ZGKL 200900Z AUTO 04006KT 11SM 30/09 A2983 RMK SLP103 T02960092 57009 IEM_DS3505
ZGKL,2007-09-20 10:00,ZGKL 201000Z AUTO 04006KT 6SM 28/11 A2985 RMK T02800110 IEM_DS3505
ZGKL,2007-09-20 11:00,ZGKL 201100Z AUTO 6SM 24/13 A2985 RMK T02400130 IEM_DS3505
ZGKL,2007-09-20 12:00,ZGKL 201200Z AUTO 04006KT 10SM 25/10 A2988 RMK SLP122 T02510102 52018 IEM_DS3505
ZGKL,2007-09-20 13:00,ZGKL 201300Z AUTO 6SM 21/14 A2991 RMK T02100140 IEM_DS3505
ZGKL,2007-09-20 14:00,ZGKL 201400Z AUTO 6SM 19/14 A2991 RMK T01900140 IEM_DS3505
ZGKL,2007-09-20 15:00,ZGKL 201500Z AUTO 04004KT 10SM 23/10 A2994 RMK SLP139 T02310105 52018 IEM_DS3505
ZGKL,2007-09-20 16:00,ZGKL 201600Z AUTO 00000KT 6SM 18/15 A2994 RMK T01800150 IEM_DS3505
ZGKL,2007-09-20 17:00,ZGKL 201700Z AUTO 00000KT 6SM 17/14 A2994 RMK T01700140 IEM_DS3505
ZGKL,2007-09-20 18:00,ZGKL 201800Z AUTO 02006KT 9SM 22/10 A2994 RMK SLP139 T02200099 54000 IEM_DS3505
ZGKL,2007-09-20 19:00,ZGKL 201900Z AUTO 00000KT 4SM 16/14 A2994 RMK T01600140 IEM_DS3505
ZGKL,2007-09-20 20:00,ZGKL 202000Z AUTO 00000KT 4SM 16/14 A2994 RMK T01600140 IEM_DS3505
ZGKL,2007-09-20 21:00,ZGKL 202100Z AUTO 02006KT 9SM 20/10 A2994 RMK SLP144 T01990103 52004 IEM_DS3505
ZGKL,2007-09-20 22:00,ZGKL 202200Z AUTO 00000KT 5SM 15/14 A2997 RMK T01500140 IEM_DS3505
ZGKL,2007-09-20 23:00,ZGKL 202300Z AUTO 00000KT 6SM 16/14 A2997 RMK T01600140 IEM_DS3505
ZGKL,2007-09-21 00:00,ZGKL 210000Z AUTO 36008KT 9SM 22/11 A3000 RMK SLP156 T02160107 52011 IEM_DS3505
ZGKL,2007-09-21 01:00,ZGKL 210100Z AUTO 6SM 21/13 A3000 RMK T02100130 IEM_DS3505
ZGKL,2007-09-21 02:00,ZGKL 210200Z AUTO 30004KT 6SM 25/14 A3000 RMK T02500140 IEM_DS3505
ZGKL,2007-09-21 03:00,ZGKL 210300Z AUTO 04012KT 9SM 26/13 A2997 RMK SLP152 T02640128 57003 IEM_DS3505
ZGKL,2007-09-21 04:00,ZGKL 210400Z AUTO 04012KT 6SM 29/14 A2997 RMK T02900140 IEM_DS3505
ZGKL,2007-09-21 05:00,ZGKL 210500Z AUTO 04012KT 6SM 30/13 A2994 RMK T03000130 IEM_DS3505
ZGKL,2007-09-21 06:00,ZGKL 210600Z AUTO 04008KT 9SM 29/14 A2991 RMK SLP128 T02940136 57023 IEM_DS3505
ZGKL,2007-09-21 07:00,ZGKL 210700Z AUTO 06010KT 6SM 30/14 A2988 RMK T03000140 IEM_DS3505
ZGKL,2007-09-21 08:00,ZGKL 210800Z AUTO 07012KT 6SM 30/15 A2985 RMK T03000150 IEM_DS3505
ZGKL,2007-09-21 09:00,ZGKL 210900Z AUTO 04006KT 8SM 29/13 A2985 RMK SLP112 T02880131 57016 IEM_DS3505
ZGKL,2007-09-21 10:00,ZGKL 211000Z AUTO 05010KT 5SM 28/14 A2988 RMK T02800140 IEM_DS3505
ZGKL,2007-09-21 11:00,ZGKL 211100Z AUTO 04008KT 4SM 26/13 A2988 RMK T02600130 IEM_DS3505
ZGKL,2007-09-21 12:00,ZGKL 211200Z AUTO 02004KT 7SM 25/14 A2991 RMK SLP135 T02490135 52022 IEM_DS3505
ZGKL,2007-09-21 13:00,ZGKL 211300Z AUTO 4SM 23/14 A2994 RMK T02300140 IEM_DS3505
ZGKL,2007-09-21 14:00,ZGKL 211400Z AUTO 36006KT 3SM 22/15 A2994 RMK T02200150 IEM_DS3505
ZGKL,2007-09-21 15:00,ZGKL 211500Z AUTO 36006KT 7SM 24/14 A2994 RMK SLP142 T02370141 52008 IEM_DS3505
ZGKL,2007-09-21 16:00,ZGKL 211600Z AUTO 34006KT 2 1/2SM 20/16 A2994 RMK T02000160 IEM_DS3505
ZGKL,2007-09-21 17:00,ZGKL 211700Z AUTO 35004KT 2 1/2SM 19/16 A2991 RMK T01900160 IEM_DS3505
ZGKL,2007-09-21 18:00,ZGKL 211800Z AUTO 02008KT 7SM 23/14 A2991 RMK SLP130 T02300135 57011 IEM_DS3505
ZGKL,2007-09-21 19:00,ZGKL 211900Z AUTO 00000KT 18/16 A2991 RMK T01800160 IEM_DS3505
ZGKL,2007-09-21 20:00,ZGKL 212000Z AUTO 00000KT 18/16 A2991 RMK T01800160 IEM_DS3505
ZGKL,2007-09-21 21:00,ZGKL 212100Z AUTO 36006KT 7SM 22/14 A2991 RMK SLP133 T02160135 52002 IEM_DS3505
ZGKL,2007-09-21 22:00,ZGKL 212200Z AUTO 00000KT 3SM 18/16 A2994 RMK T01800160 IEM_DS3505
ZGKL,2007-09-21 23:00,ZGKL 212300Z AUTO 3SM 18/16 A2994 RMK T01800160 IEM_DS3505
ZGKL,2007-09-22 00:00,ZGKL 220000Z AUTO 02006KT 7SM 23/14 A2994 RMK SLP146 T02260139 52012 IEM_DS3505
ZGKL,2007-09-22 01:00,ZGKL 220100Z AUTO 33006KT 4SM 23/16 A2997 RMK T02300160 IEM_DS3505
ZGKL,2007-09-22 02:00,ZGKL 220200Z AUTO 03010KT 5SM 26/15 A2997 RMK T02600150 IEM_DS3505
ZGKL,2007-09-22 03:00,ZGKL 220300Z AUTO 36012KT 7SM 27/15 A2994 RMK SLP142 T02730147 57003 IEM_DS3505
ZGKL,2007-09-22 04:00,ZGKL 220400Z AUTO 05012KT 5SM 29/16 A2994 RMK T02900160 IEM_DS3505
ZGKL,2007-09-22 05:00,ZGKL 220500Z AUTO 05012KT 5SM 30/15 A2991 RMK T03000150 IEM_DS3505
ZGKL,2007-09-22 06:00,ZGKL 220600Z AUTO 04012KT 8SM 29/15 A2985 RMK SLP115 T02890151 57026 IEM_DS3505
ZGKL,2007-09-22 07:00,ZGKL 220700Z AUTO 07012KT 4SM 30/16 A2985 RMK T03000160 IEM_DS3505
ZGKL,2007-09-22 08:00,ZGKL 220800Z AUTO 07012KT 4SM 29/15 A2983 RMK T02900150 IEM_DS3505
ZGKL,2007-09-22 09:00,ZGKL 220900Z AUTO 04006KT 8SM 28/14 A2983 RMK SLP104 T02850140 57012 IEM_DS3505
ZGKL,2007-09-22 10:00,ZGKL 221000Z AUTO 05008KT 4SM 27/15 A2985 RMK T02700150 IEM_DS3505
ZGKL,2007-09-22 11:00,ZGKL 221100Z AUTO 4SM 25/16 A2985 RMK T02500160 IEM_DS3505
ZGKL,2007-09-22 12:00,ZGKL 221200Z AUTO 04004KT 8SM 24/15 A2988 RMK SLP119 T02450149 52014 IEM_DS3505
ZGKL,2007-09-22 13:00,ZGKL 221300Z AUTO 04006KT 4SM 24/15 A2988 RMK T02400150 IEM_DS3505
ZGKL,2007-09-22 14:00,ZGKL 221400Z AUTO 35004KT 4SM 22/17 A2991 RMK T02200170 IEM_DS3505
ZGKL,2007-09-22 15:00,ZGKL 221500Z AUTO 02006KT 7SM 25/15 A2991 RMK SLP128 T02460147 52010 IEM_DS3505
ZGKL,2007-09-22 16:00,ZGKL 221600Z AUTO 3SM 20/17 A2991 RMK T02000170 IEM_DS3505
ZGKL,2007-09-22 17:00,ZGKL 221700Z AUTO 31004KT 19/17 A2991 RMK T01900170 IEM_DS3505
ZGKL,2007-09-22 18:00,ZGKL 221800Z AUTO 04006KT 7SM 23/14 A2988 RMK SLP120 T02270135 57008 IEM_DS3505
ZGKL,2007-09-22 19:00,ZGKL 221900Z AUTO 00000KT 18/16 A2988 RMK T01800160 IEM_DS3505
ZGKL,2007-09-22 20:00,ZGKL 222000Z AUTO 00000KT 19/16 A2988 RMK T01900160 IEM_DS3505
ZGKL,2007-09-22 21:00,ZGKL 222100Z AUTO 02006KT 7SM 22/14 A2988 RMK SLP114 T02210135 57006 IEM_DS3505
ZGKL,2007-09-22 22:00,ZGKL 222200Z AUTO 32006KT 6SM 18/15 A2988 RMK T01800150 IEM_DS3505
ZGKL,2007-09-22 23:00,ZGKL 222300Z AUTO 31004KT 6SM 18/15 A2988 RMK T01800150 IEM_DS3505
ZGKL,2007-09-23 00:00,ZGKL 230000Z AUTO 36006KT 8SM 23/13 A2991 RMK SLP127 T02320134 52012 IEM_DS3505
ZGKL,2007-09-23 01:00,ZGKL 230100Z AUTO 32006KT 6SM 24/16 A2991 RMK T02400160 IEM_DS3505
ZGKL,2007-09-23 02:00,ZGKL 230200Z AUTO 02012KT 6SM 27/14 A2991 RMK T02700140 IEM_DS3505
ZGKL,2007-09-23 03:00,ZGKL 230300Z AUTO 02010KT 8SM 27/14 A2988 RMK SLP115 T02720142 57010 IEM_DS3505
ZGKL,2007-09-23 04:00,ZGKL 230400Z AUTO 04016KT 7SM 29/14 A2985 RMK T02900140 IEM_DS3505
ZGKL,2007-09-23 05:00,ZGKL 230500Z AUTO 05012KT 7SM 30/15 A2983 RMK T03000150 IEM_DS3505
ZGKL,2007-09-23 06:00,ZGKL 230600Z AUTO 02012KT 8SM 29/15 A2980 RMK SLP089 T02910153 57026 IEM_DS3505
ZGKL,2007-09-23 07:00,ZGKL 230700Z AUTO 07012KT 6SM 30/16 A2977 RMK T03000160 IEM_DS3505
ZGKL,2007-09-23 08:00,ZGKL 230800Z AUTO 06014KT 7SM 28/16 A2977 RMK T02800160 IEM_DS3505
ZGKL,2007-09-23 09:00,ZGKL 230900Z AUTO 04010KT 8SM 27/16 A2977 RMK SLP086 T02660156 57004 IEM_DS3505
ZGKL,2007-09-23 10:00,ZGKL 231000Z AUTO 06014KT 4SM 26/16 A2980 RMK T02600160 IEM_DS3505
ZGKL,2007-09-23 11:00,ZGKL 231100Z AUTO 06016KT 3SM 25/16 A2980 RMK T02500160 IEM_DS3505
ZGKL,2007-09-23 12:00,ZGKL 231200Z AUTO 04008KT 7SM 23/17 A2983 RMK SLP103 T02300170 52016 IEM_DS3505
ZGKL,2007-09-23 13:00,ZGKL 231300Z AUTO 05012KT 3SM 23/17 A2985 RMK T02300170 IEM_DS3505
ZGKL,2007-09-23 14:00,ZGKL 231400Z AUTO 3SM 23/17 A2985 RMK T02300170 IEM_DS3505
ZGKL,2007-09-23 15:00,ZGKL 231500Z AUTO 36006KT 7SM 22/17 A2985 RMK SLP111 T02190171 52009 IEM_DS3505
ZGKL,2007-09-23 16:00,ZGKL 231600Z AUTO 03008KT 3SM 22/17 A2985 RMK T02200170 IEM_DS3505
ZGKL,2007-09-23 17:00,ZGKL 231700Z AUTO 06006KT 3SM 21/18 A2983 RMK T02100180 IEM_DS3505
ZGKL,2007-09-23 18:00,ZGKL 231800Z AUTO 02010KT 7SM 22/16 A2983 RMK SLP098 T02150162 57012 IEM_DS3505
ZGKL,2007-09-23 19:00,ZGKL 231900Z AUTO 3SM 21/18 A2980 RMK T02100180 IEM_DS3505
ZGKL,2007-09-23 20:00,ZGKL 232000Z AUTO 03008KT 4SM 21/18 A2980 RMK T02100180 IEM_DS3505
ZGKL,2007-09-23 21:00,ZGKL 232100Z AUTO 02008KT 7SM 20/17 A2980 RMK 70000 SLP097 T02020172 57003 IEM_DS3505
ZGKL,2007-09-23 22:00,ZGKL 232200Z AUTO 00000KT 3SM 20/18 A2983 RMK T02000180 IEM_DS3505
ZGKL,2007-09-23 23:00,ZGKL 232300Z AUTO 00000KT 3SM 20/19 A2983 RMK T02000190 IEM_DS3505
ZGKL,2007-09-24 00:00,ZGKL 240000Z AUTO 02006KT 8SM 20/17 A2985 RMK 60002 70002 SLP107 T02040172 52009 IEM_DS3505
ZGKL,2007-09-24 01:00,ZGKL 240100Z AUTO 00000KT 3SM 21/19 A2985 RMK T02100190 IEM_DS3505
ZGKL,2007-09-24 02:00,ZGKL 240200Z AUTO 00000KT 3SM 21/20 A2985 RMK T02100200 IEM_DS3505
ZGKL,2007-09-24 03:00,ZGKL 240300Z AUTO 36010KT 8SM 21/18 A2988 RMK SLP117 T02140176 52010 IEM_DS3505
ZGKL,2007-09-24 04:00,ZGKL 240400Z AUTO 32006KT 2SM 22/20 A2985 RMK T02200200 IEM_DS3505
ZGKL,2007-09-24 05:00,ZGKL 240500Z AUTO 7SM 24/20 A2983 RMK T02400200 IEM_DS3505
ZGKL,2007-09-24 06:00,ZGKL 240600Z AUTO 02012KT 11SM 24/18 A2980 RMK 60000 SLP093 T02420182 57023 IEM_DS3505
ZGKL,2007-09-24 07:00,ZGKL 240700Z AUTO 05010KT 7SM 25/19 A2980 RMK T02500190 IEM_DS3505
ZGKL,2007-09-24 08:00,ZGKL 240800Z AUTO 04014KT 7SM 26/19 A2977 RMK T02600190 IEM_DS3505
ZGKL,2007-09-24 09:00,ZGKL 240900Z AUTO 02010KT 9SM 23/18 A2980 RMK SLP090 T02320179 57004 IEM_DS3505
ZGKL,2007-09-24 10:00,ZGKL 241000Z AUTO 06008KT 7SM 24/19 A2980 RMK T02400190 IEM_DS3505
ZGKL,2007-09-24 11:00,ZGKL 241100Z AUTO 08006KT 4SM 22/20 A2983 RMK T02200200 IEM_DS3505
ZGKL,2007-09-24 12:00,ZGKL 241200Z AUTO 36006KT 8SM 22/18 A2985 RMK 60000 SLP109 T02240184 52019 IEM_DS3505
ZGKL,2007-09-24 13:00,ZGKL 241300Z AUTO 04008KT 4SM 23/19 A2985 RMK T02300190 IEM_DS3505
ZGKL,2007-09-24 14:00,ZGKL 241400Z AUTO 32006KT 4SM 22/20 A2985 RMK T02200200 IEM_DS3505
ZGKL,2007-09-24 15:00,ZGKL 241500Z AUTO 02008KT 8SM 22/18 A2985 RMK SLP116 T02250185 52007 IEM_DS3505
ZGKL,2007-09-24 16:00,ZGKL 241600Z AUTO 6SM 23/19 A2985 RMK T02300190 IEM_DS3505
ZGKL,2007-09-24 17:00,ZGKL 241700Z AUTO 04006KT 6SM 23/19 A2985 RMK T02300190 IEM_DS3505
ZGKL,2007-09-24 18:00,ZGKL 241800Z AUTO 36008KT 8SM 22/19 A2983 RMK SLP104 T02190189 57011 IEM_DS3505
ZGKL,2007-09-24 19:00,ZGKL 241900Z AUTO 00000KT 22/20 A2983 RMK T02200200 IEM_DS3505
ZGKL,2007-09-24 20:00,ZGKL 242000Z AUTO 00000KT 3SM 21/20 A2983 RMK T02100200 IEM_DS3505
ZGKL,2007-09-24 21:00,ZGKL 242100Z AUTO 02006KT 7SM 22/19 A2983 RMK 70002 SLP102 T02210189 57002 IEM_DS3505
ZGKL,2007-09-24 22:00,ZGKL 242200Z AUTO 00000KT 2SM 21/21 A2985 RMK T02100210 IEM_DS3505
ZGKL,2007-09-24 23:00,ZGKL 242300Z AUTO 32004KT 3SM 21/20 A2985 RMK T02100200 IEM_DS3505
ZGKL,2007-09-25 00:00,ZGKL 250000Z AUTO 02008KT 6SM 22/19 A2988 RMK 60000 70001 SLP126 T02220194 52023 IEM_DS3505
ZGKL,2007-09-25 01:00,ZGKL 250100Z AUTO 31004KT 3SM 22/21 A2991 RMK T02200210 IEM_DS3505
ZGKL,2007-09-25 02:00,ZGKL 250200Z AUTO 33006KT 5SM 23/21 A2994 RMK T02300210 IEM_DS3505
ZGKL,2007-09-25 03:00,ZGKL 250300Z AUTO 36010KT 7SM 23/20 A2994 RMK SLP143 T02320196 52017 IEM_DS3505
ZGKL,2007-09-25 04:00,ZGKL 250400Z AUTO 00000KT 7SM 24/21 A2994 RMK T02400210 IEM_DS3505
ZGKL,2007-09-25 05:00,ZGKL 250500Z AUTO 32006KT 7SM 25/22 A2991 RMK T02500220 IEM_DS3505
ZGKL,2007-09-25 06:00,ZGKL 250600Z AUTO 02010KT 8SM 26/20 A2988 RMK 60000 SLP125 T02640200 57017 IEM_DS3505
ZGKL,2007-09-25 07:00,ZGKL 250700Z AUTO 03010KT 7SM 28/21 A2988 RMK T02800210 IEM_DS3505
ZGKL,2007-09-25 08:00,ZGKL 250800Z AUTO 05008KT 7SM 28/21 A2985 RMK T02800210 IEM_DS3505
ZGKL,2007-09-25 09:00,ZGKL 250900Z AUTO 02008KT 8SM 26/20 A2985 RMK SLP115 T02610202 57010 IEM_DS3505
ZGKL,2007-09-25 10:00,ZGKL 251000Z AUTO 07008KT 5SM 26/21 A2988 RMK T02600210 IEM_DS3505
ZGKL,2007-09-25 11:00,ZGKL 251100Z AUTO 07006KT 2 1/2SM 24/21 A2991 RMK T02400210 IEM_DS3505
ZGKL,2007-09-25 12:00,ZGKL 251200Z AUTO 32004KT 7SM 23/21 A2994 RMK 60008 SLP137 T02290208 52021 IEM_DS3505
ZGKL,2007-09-25 13:00,ZGKL 251300Z AUTO 00000KT 2SM 22/22 A2997 RMK T02200220 IEM_DS3505
ZGKL,2007-09-25 14:00,ZGKL 251400Z AUTO 00000KT 2SM 23/22 A2997 RMK T02300220 IEM_DS3505
ZGKL,2007-09-25 15:00,ZGKL 251500Z AUTO 36004KT 7SM 23/20 A2997 RMK SLP147 T02290204 52010 IEM_DS3505
ZGKL,2007-09-25 16:00,ZGKL 251600Z AUTO 00000KT 1SM 22/21 A2994 RMK T02200210 IEM_DS3505
ZGKL,2007-09-25 17:00,ZGKL 251700Z AUTO 00000KT 22/22 A2994 RMK T02200220 IEM_DS3505
ZGKL,2007-09-25 18:00,ZGKL 251800Z AUTO 00000KT 22/21 A2991 RMK T02200210 IEM_DS3505
ZGKL,2007-09-25 21:00,ZGKL 252100Z AUTO 00000KT 1 1/4SM 22/21 A2991 RMK T02200210 IEM_DS3505
ZGKL,2007-09-25 22:00,ZGKL 252200Z AUTO 00000KT 1 1/4SM 22/21 A2991 RMK T02200210 IEM_DS3505
ZGKL,2007-09-25 23:00,ZGKL 252300Z AUTO 00000KT 1SM 22/22 A2991 RMK T02200220 IEM_DS3505
ZGKL,2007-09-26 00:00,ZGKL 260000Z AUTO 07002KT 4SM 23/21 A2994 RMK 70009 SLP144 T02280209 52015 IEM_DS3505
ZGKL,2007-09-26 01:00,ZGKL 260100Z AUTO 00000KT 2SM 25/22 A2997 RMK T02500220 IEM_DS3505
ZGKL,2007-09-26 02:00,ZGKL 260200Z AUTO 00000KT 2 1/2SM 26/22 A2997 RMK T02600220 IEM_DS3505
ZGKL,2007-09-26 03:00,ZGKL 260300Z AUTO 14002KT 4SM 28/21 A2997 RMK SLP146 T02850213 52004 IEM_DS3505
ZGKL,2007-09-26 04:00,ZGKL 260400Z AUTO 30004KT 4SM 28/23 A2994 RMK T02800230 IEM_DS3505
ZGKL,2007-09-26 05:00,ZGKL 260500Z AUTO 4SM 30/22 A2991 RMK T03000220 IEM_DS3505
ZGKL,2007-09-26 06:00,ZGKL 260600Z AUTO 09002KT 9SM 31/21 A2988 RMK SLP115 T03100206 57030 IEM_DS3505
ZGKL,2007-09-26 07:00,ZGKL 260700Z AUTO 00000KT 5SM 31/22 A2985 RMK T03100220 IEM_DS3505
ZGKL,2007-09-26 08:00,ZGKL 260800Z AUTO 00000KT 6SM 32/21 A2983 RMK T03200210 IEM_DS3505
ZGKL,2007-09-26 09:00,ZGKL 260900Z AUTO 07004KT 11SM 32/21 A2983 RMK SLP096 T03210207 57018 IEM_DS3505
ZGKL,2007-09-26 10:00,ZGKL 261000Z AUTO 00000KT 6SM 30/23 A2983 RMK T03000230 IEM_DS3505
ZGKL,2007-09-26 11:00,ZGKL 261100Z AUTO 00000KT 5SM 27/23 A2983 RMK T02700230 IEM_DS3505
ZGKL,2007-09-26 12:00,ZGKL 261200Z AUTO 29002KT 9SM 29/22 A2985 RMK SLP109 T02880218 52012 IEM_DS3505
ZGKL,2007-09-26 13:00,ZGKL 261300Z AUTO 00000KT 5SM 25/23 A2988 RMK T02500230 IEM_DS3505
ZGKL,2007-09-26 14:00,ZGKL 261400Z AUTO 00000KT 5SM 24/23 A2988 RMK T02400230 IEM_DS3505
ZGKL,2007-09-26 15:00,ZGKL 261500Z AUTO 36002KT 9SM 26/22 A2991 RMK SLP126 T02580219 52017 IEM_DS3505
ZGKL,2007-09-26 16:00,ZGKL 261600Z AUTO 00000KT 5SM 23/22 A2991 RMK T02300220 IEM_DS3505
ZGKL,2007-09-26 17:00,ZGKL 261700Z AUTO 00000KT 4SM 23/22 A2991 RMK T02300220 IEM_DS3505
ZGKL,2007-09-26 18:00,ZGKL 261800Z AUTO 36002KT 8SM 24/22 A2988 RMK SLP120 T02450216 57005 IEM_DS3505
ZGKL,2007-09-26 19:00,ZGKL 261900Z AUTO 00000KT 23/22 A2988 RMK T02300220 IEM_DS3505
ZGKL,2007-09-26 20:00,ZGKL 262000Z AUTO 00000KT 22/22 A2988 RMK T02200220 IEM_DS3505
ZGKL,2007-09-26 21:00,ZGKL 262100Z AUTO 04002KT 7SM 24/21 A2988 RMK SLP118 T02370214 57002 IEM_DS3505
ZGKL,2007-09-26 22:00,ZGKL 262200Z AUTO 00000KT 2SM 22/21 A2988 RMK T02200210 IEM_DS3505
ZGKL,2007-09-26 23:00,ZGKL 262300Z AUTO 00000KT 2SM 22/21 A2991 RMK T02200210 IEM_DS3505
ZGKL,2007-09-27 00:00,ZGKL 270000Z AUTO 07002KT 4SM 24/21 A2991 RMK SLP132 T02390214 52013 IEM_DS3505
ZGKL,2007-09-27 01:00,ZGKL 270100Z AUTO 00000KT 2 1/2SM 24/23 A2994 RMK T02400230 IEM_DS3505
ZGKL,2007-09-27 02:00,ZGKL 270200Z AUTO 00000KT 2 1/2SM 27/24 A2994 RMK T02700240 IEM_DS3505
ZGKL,2007-09-27 03:00,ZGKL 270300Z AUTO 32002KT 5SM 30/22 A2991 RMK SLP131 T03000224 54000 IEM_DS3505
ZGKL,2007-09-27 04:00,ZGKL 270400Z AUTO 3SM 30/23 A2991 RMK T03000230 IEM_DS3505
ZGKL,2007-09-27 05:00,ZGKL 270500Z AUTO 4SM 32/23 A2985 RMK T03200230 IEM_DS3505
ZGKL,2007-09-27 06:00,ZGKL 270600Z AUTO 18006KT 7SM 33/20 A2983 RMK SLP096 T03310203 57034 IEM_DS3505
ZGKL,2007-09-27 07:00,ZGKL 270700Z AUTO 5SM 33/22 A2980 RMK T03300220 IEM_DS3505
ZGKL,2007-09-27 08:00,ZGKL 270800Z AUTO 23006KT 5SM 33/22 A2980 RMK T03300220 IEM_DS3505
ZGKL,2007-09-27 09:00,ZGKL 270900Z AUTO 27006KT 9SM 33/21 A2977 RMK SLP076 T03270212 57020 IEM_DS3505
ZGKL,2007-09-27 10:00,ZGKL 271000Z AUTO 18004KT 3SM 29/25 A2977 RMK T02900250 IEM_DS3505
ZGKL,2007-09-27 11:00,ZGKL 271100Z AUTO 19004KT 2 1/2SM 27/25 A2980 RMK T02700250 IEM_DS3505
ZGKL,2007-09-27 12:00,ZGKL 271200Z AUTO 16002KT 9SM 29/23 A2980 RMK SLP094 T02910228 52016 IEM_DS3505
ZGKL,2007-09-27 13:00,ZGKL 271300Z AUTO 18006KT 2 1/2SM 26/24 A2983 RMK T02600240 IEM_DS3505
ZGKL,2007-09-27 14:00,ZGKL 271400Z AUTO 3SM 26/23 A2985 RMK T02600230 IEM_DS3505
ZGKL,2007-09-27 15:00,ZGKL 271500Z AUTO 02002KT 9SM 27/23 A2985 RMK SLP109 T02670232 52016 IEM_DS3505
ZGKL,2007-09-27 16:00,ZGKL 271600Z AUTO 00000KT 2 1/2SM 24/23 A2985 RMK T02400230 IEM_DS3505
ZGKL,2007-09-27 18:00,ZGKL 271800Z AUTO 36002KT 7SM 26/22 A2985 RMK SLP103 T02550224 57005 IEM_DS3505
ZGKL,2007-09-27 19:00,ZGKL 271900Z AUTO 00000KT 23/22 A2985 RMK T02300220 IEM_DS3505
ZGKL,2007-09-27 20:00,ZGKL 272000Z AUTO 00000KT 1 1/2SM 22/22 A2985 RMK T02200220 IEM_DS3505
ZGKL,2007-09-27 21:00,ZGKL 272100Z AUTO 04002KT 6SM 24/22 A2988 RMK SLP113 T02430222 52009 IEM_DS3505
ZGKL,2007-09-27 22:00,ZGKL 272200Z AUTO 00000KT 1 1/2SM 22/21 A2988 RMK T02200210 IEM_DS3505
ZGKL,2007-09-27 23:00,ZGKL 272300Z AUTO 00000KT 2SM 22/22 A2991 RMK T02200220 IEM_DS3505
ZGKL,2007-09-28 00:00,ZGKL 280000Z AUTO 02002KT 4SM 25/22 A2991 RMK SLP131 T02480223 52017 IEM_DS3505
ZGKL,2007-09-28 01:00,ZGKL 280100Z AUTO 00000KT 4SM 26/23 A2994 RMK T02600230 IEM_DS3505
ZGKL,2007-09-28 02:00,ZGKL 280200Z AUTO 00000KT 3SM 28/23 A2994 RMK T02800230 IEM_DS3505
ZGKL,2007-09-28 03:00,ZGKL 280300Z AUTO 11002KT 3SM 31/23 A2994 RMK SLP134 T03080227 52004 IEM_DS3505
ZGKL,2007-09-28 04:00,ZGKL 280400Z AUTO 26004KT 4SM 32/23 A2991 RMK T03200230 IEM_DS3505
ZGKL,2007-09-28 05:00,ZGKL 280500Z AUTO 4SM 33/22 A2988 RMK T03300220 IEM_DS3505
ZGKL,2007-09-28 06:00,ZGKL 280600Z AUTO 22002KT 4SM 34/21 A2985 RMK SLP104 T03380213 57029 IEM_DS3505
ZGKL,2007-09-28 07:00,ZGKL 280700Z AUTO 4SM 34/22 A2983 RMK T03400220 IEM_DS3505
ZGKL,2007-09-28 08:00,ZGKL 280800Z AUTO 16004KT 4SM 34/21 A2983 RMK T03400210 IEM_DS3505
ZGKL,2007-09-28 09:00,ZGKL 280900Z AUTO 25002KT 5SM 34/21 A2980 RMK SLP085 T03440207 57019 IEM_DS3505
ZGKL,2007-09-28 10:00,ZGKL 281000Z AUTO 00000KT 6SM 32/22 A2980 RMK T03200220 IEM_DS3505
ZGKL,2007-09-28 11:00,ZGKL 281100Z AUTO 00000KT 4SM 29/24 A2983 RMK T02900240 IEM_DS3505
ZGKL,2007-09-28 12:00,ZGKL 281200Z AUTO 02002KT 6SM 30/23 A2983 RMK SLP101 T02990231 52015 IEM_DS3505
ZGKL,2007-09-28 13:00,ZGKL 281300Z AUTO 3SM 28/23 A2985 RMK T02800230 IEM_DS3505
ZGKL,2007-09-28 15:00,ZGKL 281500Z AUTO 16002KT 5SM 29/23 A2988 RMK SLP118 T02880232 52018 IEM_DS3505
ZGKL,2007-09-28 16:00,ZGKL 281600Z AUTO 20004KT 2SM 26/24 A2991 RMK T02600240 IEM_DS3505
ZGKL,2007-09-28 17:00,ZGKL 281700Z AUTO 1 1/2SM 25/24 A2988 RMK T02500240 IEM_DS3505
ZGKL,2007-09-28 18:00,ZGKL 281800Z AUTO 04002KT 5SM 26/23 A2988 RMK SLP120 T02630228 52002 IEM_DS3505
ZGKL,2007-09-28 19:00,ZGKL 281900Z AUTO 00000KT 24/23 A2988 RMK T02400230 IEM_DS3505
ZGKL,2007-09-28 20:00,ZGKL 282000Z AUTO 11004KT 25/23 A2988 RMK T02500230 IEM_DS3505
ZGKL,2007-09-28 21:00,ZGKL 282100Z AUTO 02004KT 5SM 25/21 A2991 RMK SLP126 T02530210 52006 IEM_DS3505
ZGKL,2007-09-28 22:00,ZGKL 282200Z AUTO 05008KT 2SM 25/22 A2991 RMK T02500220 IEM_DS3505
ZGKL,2007-09-28 23:00,ZGKL 282300Z AUTO 05010KT 2 1/2SM 25/21 A2994 RMK T02500210 IEM_DS3505
ZGKL,2007-09-29 00:00,ZGKL 290000Z AUTO 36008KT 5SM 24/20 A2997 RMK SLP147 T02420197 52019 IEM_DS3505
ZGKL,2007-09-29 01:00,ZGKL 290100Z AUTO 03008KT 2SM 26/21 A3000 RMK T02600210 IEM_DS3505
ZGKL,2007-09-29 02:00,ZGKL 290200Z AUTO 05010KT 3SM 27/21 A3000 RMK T02700210 IEM_DS3505
ZGKL,2007-09-29 03:00,ZGKL 290300Z AUTO 36010KT 5SM 27/20 A3000 RMK SLP156 T02710195 52009 IEM_DS3505
ZGKL,2007-09-29 04:00,ZGKL 290400Z AUTO 07008KT 4SM 30/21 A2997 RMK T03000210 IEM_DS3505
ZGKL,2007-09-29 05:00,ZGKL 290500Z AUTO 06010KT 4SM 30/20 A2994 RMK T03000200 IEM_DS3505
ZGKL,2007-09-29 06:00,ZGKL 290600Z AUTO 04006KT 6SM 30/20 A2991 RMK SLP129 T03050195 57026 IEM_DS3505
ZGKL,2007-09-29 07:00,ZGKL 290700Z AUTO 07008KT 4SM 30/20 A2988 RMK T03000200 IEM_DS3505
ZGKL,2007-09-29 08:00,ZGKL 290800Z AUTO 06010KT 4SM 31/20 A2988 RMK T03100200 IEM_DS3505
ZGKL,2007-09-29 09:00,ZGKL 290900Z AUTO 07006KT 7SM 30/20 A2988 RMK SLP116 T02970197 57013 IEM_DS3505
ZGKL,2007-09-29 10:00,ZGKL 291000Z AUTO 05008KT 5SM 29/20 A2988 RMK T02900200 IEM_DS3505
ZGKL,2007-09-29 11:00,ZGKL 291100Z AUTO 04012KT 4SM 27/20 A2988 RMK T02700200 IEM_DS3505
ZGKL,2007-09-29 12:00,ZGKL 291200Z AUTO 02008KT 7SM 25/19 A2991 RMK SLP135 T02510190 52016 IEM_DS3505
ZGKL,2007-09-29 13:00,ZGKL 291300Z AUTO 3SM 25/20 A2994 RMK T02500200 IEM_DS3505
ZGKL,2007-09-29 14:00,ZGKL 291400Z AUTO 06008KT 3SM 24/20 A2997 RMK T02400200 IEM_DS3505
ZGKL,2007-09-29 15:00,ZGKL 291500Z AUTO 02006KT 7SM 23/18 A2997 RMK SLP152 T02300185 52017 IEM_DS3505
ZGKL,2007-09-29 16:00,ZGKL 291600Z AUTO 06006KT 2 1/2SM 23/20 A2997 RMK T02300200 IEM_DS3505
ZGKL,2007-09-29 17:00,ZGKL 291700Z AUTO 05004KT 2SM 22/19 A2997 RMK T02200190 IEM_DS3505
ZGKL,2007-09-29 18:00,ZGKL 291800Z AUTO 02002KT 6SM 22/18 A2994 RMK SLP145 T02180182 57006 IEM_DS3505
ZGKL,2007-09-29 19:00,ZGKL 291900Z AUTO 05004KT 21/19 A2994 RMK T02100190 IEM_DS3505
ZGKL,2007-09-29 20:00,ZGKL 292000Z AUTO 03004KT 21/19 A2994 RMK T02100190 IEM_DS3505
ZGKL,2007-09-29 21:00,ZGKL 292100Z AUTO 02004KT 6SM 21/18 A2994 RMK SLP143 T02110179 57002 IEM_DS3505
ZGKL,2007-09-29 22:00,ZGKL 292200Z AUTO 00000KT 2SM 21/19 A2994 RMK T02100190 IEM_DS3505
ZGKL,2007-09-29 23:00,ZGKL 292300Z AUTO 00000KT 1 1/2SM 21/19 A2994 RMK T02100190 IEM_DS3505
ZGKL,2007-09-30 00:00,ZGKL 300000Z AUTO 02006KT 5SM 22/18 A2997 RMK SLP148 T02230179 52004 IEM_DS3505
ZGKL,2007-09-30 01:00,ZGKL 300100Z AUTO 00000KT 2 1/2SM 24/20 A2997 RMK T02400200 IEM_DS3505
ZGKL,2007-09-30 02:00,ZGKL 300200Z AUTO 3SM 26/20 A2997 RMK T02600200 IEM_DS3505
ZGKL,2007-09-30 03:00,ZGKL 300300Z AUTO 04004KT 6SM 27/18 A2994 RMK SLP141 T02690182 57006 IEM_DS3505
ZGKL,2007-09-30 04:00,ZGKL 300400Z AUTO 04008KT 5SM 29/19 A2991 RMK T02900190 IEM_DS3505
ZGKL,2007-09-30 05:00,ZGKL 300500Z AUTO 05010KT 7SM 30/19 A2988 RMK T03000190 IEM_DS3505
ZGKL,2007-09-30 06:00,ZGKL 300600Z AUTO 36008KT 9SM 30/19 A2985 RMK SLP104 T02980186 57036 IEM_DS3505
ZGKL,2007-09-30 07:00,ZGKL 300700Z AUTO 07012KT 7SM 31/19 A2983 RMK T03100190 IEM_DS3505
ZGKL,2007-09-30 08:00,ZGKL 300800Z AUTO 07012KT 7SM 30/19 A2980 RMK T03000190 IEM_DS3505
ZGKL,2007-09-30 09:00,ZGKL 300900Z AUTO 04006KT 9SM 29/19 A2980 RMK SLP088 T02890187 57016 IEM_DS3505
ZGKL,2007-09-30 10:00,ZGKL 301000Z AUTO 05010KT 7SM 28/19 A2980 RMK T02800190 IEM_DS3505
ZGKL,2007-09-30 11:00,ZGKL 301100Z AUTO 05008KT 7SM 26/19 A2983 RMK T02600190 IEM_DS3505
ZGKL,2007-09-30 12:00,ZGKL 301200Z AUTO 02004KT 9SM 24/19 A2983 RMK SLP106 T02440188 52016 IEM_DS3505
ZGKL,2007-09-30 13:00,ZGKL 301300Z AUTO 05004KT 5SM 24/19 A2985 RMK T02400190 IEM_DS3505
ZGKL,2007-09-30 14:00,ZGKL 301400Z AUTO 4SM 23/20 A2988 RMK T02300200 IEM_DS3505
ZGKL,2007-09-30 15:00,ZGKL 301500Z AUTO 02004KT 9SM 23/19 A2988 RMK SLP117 T02270187 52012 IEM_DS3505
ZGKL,2007-09-30 16:00,ZGKL 301600Z AUTO 05008KT 3SM 23/19 A2988 RMK T02300190 IEM_DS3505
ZGKL,2007-09-30 17:00,ZGKL 301700Z AUTO 3SM 22/19 A2988 RMK T02200190 IEM_DS3505
ZGKL,2007-09-30 18:00,ZGKL 301800Z AUTO 02004KT 7SM 22/19 A2985 RMK SLP108 T02190187 57008 IEM_DS3505
ZGKL,2007-09-30 19:00,ZGKL 301900Z AUTO 00000KT 21/19 A2985 RMK T02100190 IEM_DS3505
ZGKL,2007-09-30 20:00,ZGKL 302000Z AUTO 00000KT 3SM 20/19 A2985 RMK T02000190 IEM_DS3505
ZGKL,2007-09-30 21:00,ZGKL 302100Z AUTO 02004KT 7SM 22/19 A2985 RMK SLP108 T02160186 57001 IEM_DS3505
ZGKL,2007-09-30 22:00,ZGKL 302200Z AUTO 34004KT 2SM 20/19 A2985 RMK T02000190 IEM_DS3505
ZGKL,2007-09-30 23:00,ZGKL 302300Z AUTO 00000KT 2SM 19/19 A2985 RMK T01900190 IEM_DS3505
ZGKL,2007-10-01 00:00,ZGKL 010000Z AUTO 02006KT 6SM 23/19 A2985 RMK SLP113 T02280188 52004 IEM_DS3505
ZGKL,2007-10-01 01:00,ZGKL 010100Z AUTO 4SM 24/20 A2988 RMK T02400200 IEM_DS3505
ZGKL,2007-10-01 02:00,ZGKL 010200Z AUTO 4SM 26/20 A2988 RMK T02600200 IEM_DS3505
ZGKL,2007-10-01 03:00,ZGKL 010300Z AUTO 02010KT 9SM 27/19 A2985 RMK SLP113 T02690193 52001 IEM_DS3505
ZGKL,2007-10-01 04:00,ZGKL 010400Z AUTO 07014KT 7SM 29/20 A2985 RMK T02900200 IEM_DS3505
ZGKL,2007-10-01 05:00,ZGKL 010500Z AUTO 05016KT 7SM 30/21 A2983 RMK T03000210 IEM_DS3505
ZGKL,2007-10-01 06:00,ZGKL 010600Z AUTO 36008KT 10SM 30/20 A2980 RMK SLP089 T03020196 57023 IEM_DS3505
ZGKL,2007-10-01 07:00,ZGKL 010700Z AUTO 05012KT 7SM 31/20 A2977 RMK T03100200 IEM_DS3505
ZGKL,2007-10-01 08:00,ZGKL 010800Z AUTO 04016KT 6SM 31/20 A2977 RMK T03100200 IEM_DS3505
ZGKL,2007-10-01 09:00,ZGKL 010900Z AUTO 04008KT 10SM 30/20 A2974 RMK SLP071 T02950198 57018 IEM_DS3505
ZGKL,2007-10-01 10:00,ZGKL 011000Z AUTO 6SM 28/20 A2974 RMK T02800200 IEM_DS3505
ZGKL,2007-10-01 11:00,ZGKL 011100Z AUTO 06010KT 3SM 27/20 A2977 RMK T02700200 IEM_DS3505
ZGKL,2007-10-01 12:00,ZGKL 011200Z AUTO 02006KT 8SM 25/20 A2977 RMK SLP086 T02510197 52014 IEM_DS3505
ZGKL,2007-10-01 13:00,ZGKL 011300Z AUTO 05008KT 2 1/2SM 24/21 A2983 RMK T02400210 IEM_DS3505
ZGKL,2007-10-01 14:00,ZGKL 011400Z AUTO 33006KT 2SM 23/21 A2983 RMK T02300210 IEM_DS3505
ZGKL,2007-10-01 15:00,ZGKL 011500Z AUTO 02006KT 7SM 25/20 A2983 RMK SLP098 T02480199 52013 IEM_DS3505
ZGKL,2007-10-01 16:00,ZGKL 011600Z AUTO 00000KT 2SM 23/20 A2983 RMK T02300200 IEM_DS3505
ZGKL,2007-10-01 17:00,ZGKL 011700Z AUTO 00000KT 2SM 22/20 A2983 RMK T02200200 IEM_DS3505
ZGKL,2007-10-01 18:00,ZGKL 011800Z AUTO 02006KT 7SM 24/20 A2983 RMK SLP096 T02440199 57001 IEM_DS3505
ZGKL,2007-10-01 19:00,ZGKL 011900Z AUTO 00000KT 22/20 A2983 RMK T02200200 IEM_DS3505
ZGKL,2007-10-01 20:00,ZGKL 012000Z AUTO 00000KT 1 1/2SM 21/20 A2983 RMK T02100200 IEM_DS3505
ZGKL,2007-10-01 21:00,ZGKL 012100Z AUTO 36008KT 7SM 24/20 A2983 RMK SLP092 T02450200 57004 IEM_DS3505
ZGKL,2007-10-01 22:00,ZGKL 012200Z AUTO 00000KT 2 1/2SM 21/20 A2983 RMK T02100200 IEM_DS3505
ZGKL,2007-10-01 23:00,ZGKL 012300Z AUTO 00000KT 3SM 21/20 A2983 RMK T02100200 IEM_DS3505
ZGKL,2007-10-02 00:00,ZGKL 020000Z AUTO 02008KT 5SM 25/20 A2985 RMK SLP111 T02500203 52017 IEM_DS3505
ZGKL,2007-10-02 01:00,ZGKL 020100Z AUTO 3SM 25/21 A2988 RMK T02500210 IEM_DS3505
ZGKL,2007-10-02 02:00,ZGKL 020200Z AUTO 3SM 27/21 A2988 RMK T02700210 IEM_DS3505
ZGKL,2007-10-02 03:00,ZGKL 020300Z AUTO 02012KT 5SM 27/20 A2988 RMK SLP117 T02670203 52006 IEM_DS3505
ZGKL,2007-10-02 04:00,ZGKL 020400Z AUTO 06014KT 3SM 29/21 A2985 RMK T02900210 IEM_DS3505
ZGKL,2007-10-02 05:00,ZGKL 020500Z AUTO 04012KT 4SM 30/21 A2983 RMK T03000210 IEM_DS3505
ZGKL,2007-10-02 06:00,ZGKL 020600Z AUTO 36012KT 5SM 29/21 A2980 RMK SLP088 T02940206 57027 IEM_DS3505
ZGKL,2007-10-02 07:00,ZGKL 020700Z AUTO 05016KT 4SM 31/20 A2977 RMK T03100200 IEM_DS3505
ZGKL,2007-10-02 08:00,ZGKL 020800Z AUTO 04014KT 4SM 31/20 A2977 RMK T03100200 IEM_DS3505
ZGKL,2007-10-02 09:00,ZGKL 020900Z AUTO 02012KT 4SM 29/20 A2977 RMK SLP076 T02880200 57012 IEM_DS3505
ZGKL,2007-10-02 10:00,ZGKL 021000Z AUTO 05006KT 4SM 28/21 A2977 RMK T02800210 IEM_DS3505
ZGKL,2007-10-02 11:00,ZGKL 021100Z AUTO 06006KT 2SM 27/21 A2980 RMK T02700210 IEM_DS3505
ZGKL,2007-10-02 12:00,ZGKL 021200Z AUTO 02006KT 6SM 27/20 A2983 RMK SLP096 T02660202 52019 IEM_DS3505
ZGKL,2007-10-02 13:00,ZGKL 021300Z AUTO 04016KT 2SM 26/21 A2985 RMK T02600210 IEM_DS3505
ZGKL,2007-10-02 14:00,ZGKL 021400Z AUTO 34008KT 1 1/2SM 25/22 A2985 RMK T02500220 IEM_DS3505
ZGKL,2007-10-02 15:00,ZGKL 021500Z AUTO 02006KT 6SM 24/21 A2985 RMK SLP110 T02420209 52013 IEM_DS3505
ZGKL,2007-10-02 16:00,ZGKL 021600Z AUTO 2SM 25/21 A2985 RMK T02500210 IEM_DS3505
ZGKL,2007-10-02 17:00,ZGKL 021700Z AUTO 3SM 24/21 A2985 RMK T02400210 IEM_DS3505
ZGKL,2007-10-02 18:00,ZGKL 021800Z AUTO 02006KT 7SM 24/21 A2983 RMK 60000 SLP104 T02420209 57005 IEM_DS3505
ZGKL,2007-10-02 19:00,ZGKL 021900Z AUTO 00000KT 23/22 A2983 RMK T02300220 IEM_DS3505
ZGKL,2007-10-02 20:00,ZGKL 022000Z AUTO 00000KT 23/21 A2983 RMK T02300210 IEM_DS3505
ZGKL,2007-10-02 21:00,ZGKL 022100Z AUTO 02008KT 7SM 24/21 A2983 RMK 70000 SLP103 T02380207 57001 IEM_DS3505
ZGKL,2007-10-02 22:00,ZGKL 022200Z AUTO 00000KT 2 1/2SM 23/22 A2985 RMK T02300220 IEM_DS3505
ZGKL,2007-10-02 23:00,ZGKL 022300Z AUTO 00000KT 3SM 23/22 A2988 RMK T02300220 IEM_DS3505
ZGKL,2007-10-03 00:00,ZGKL 030000Z AUTO 02006KT 7SM 24/20 A2988 RMK 70000 SLP124 T02430204 52020 IEM_DS3505
ZGKL,2007-10-03 01:00,ZGKL 030100Z AUTO 33004KT 4SM 25/22 A2991 RMK T02500220 IEM_DS3505
ZGKL,2007-10-03 02:00,ZGKL 030200Z AUTO 03010KT 7SM 27/21 A2991 RMK T02700210 IEM_DS3505
ZGKL,2007-10-03 03:00,ZGKL 030300Z AUTO 02006KT 7SM 26/20 A2991 RMK SLP135 T02570205 52011 IEM_DS3505
ZGKL,2007-10-03 04:00,ZGKL 030400Z AUTO 05010KT 7SM 28/22 A2991 RMK T02800220 IEM_DS3505
ZGKL,2007-10-03 05:00,ZGKL 030500Z AUTO 03014KT 7SM 28/21 A2988 RMK T02800210 IEM_DS3505
ZGKL,2007-10-03 06:00,ZGKL 030600Z AUTO 36006KT 7SM 26/21 A2988 RMK 60000 SLP115 T02640209 57020 IEM_DS3505
ZGKL,2007-10-03 07:00,ZGKL 030700Z AUTO 06008KT 7SM 28/22 A2985 RMK T02800220 IEM_DS3505
ZGKL,2007-10-03 08:00,ZGKL 030800Z AUTO 05008KT 5SM 28/22 A2985 RMK T02800220 IEM_DS3505
ZGKL,2007-10-03 09:00,ZGKL 030900Z AUTO 02006KT 7SM 27/21 A2985 RMK SLP110 T02710212 57005 IEM_DS3505
ZGKL,2007-10-03 10:00,ZGKL 031000Z AUTO 06004KT 4SM 27/22 A2985 RMK T02700220 IEM_DS3505
ZGKL,2007-10-03 11:00,ZGKL 031100Z AUTO 05006KT 3SM 26/22 A2985 RMK T02600220 IEM_DS3505
ZGKL,2007-10-03 12:00,ZGKL 031200Z AUTO 36002KT 5SM 25/21 A2988 RMK 60000 SLP118 T02530210 52008 IEM_DS3505
ZGKL,2007-10-03 13:00,ZGKL 031300Z AUTO 05010KT 2 1/2SM 26/22 A2991 RMK T02600220 IEM_DS3505
ZGKL,2007-10-03 14:00,ZGKL 031400Z AUTO 00000KT 2SM 25/22 A2991 RMK T02500220 IEM_DS3505
ZGKL,2007-10-03 15:00,ZGKL 031500Z AUTO 36004KT 5SM 25/21 A2991 RMK SLP129 T02460207 52011 IEM_DS3505
ZGKL,2007-10-03 16:00,ZGKL 031600Z AUTO 00000KT 2SM 24/22 A2991 RMK T02400220 IEM_DS3505
ZGKL,2007-10-03 17:00,ZGKL 031700Z AUTO 00000KT 2SM 24/22 A2991 RMK T02400220 IEM_DS3505
ZGKL,2007-10-03 18:00,ZGKL 031800Z AUTO 36004KT 5SM 24/21 A2991 RMK SLP129 T02420207 54000 IEM_DS3505
ZGKL,2007-10-03 19:00,ZGKL 031900Z AUTO 00000KT 24/22 A2991 RMK T02400220 IEM_DS3505
ZGKL,2007-10-03 20:00,ZGKL 032000Z AUTO 00000KT 24/22 A2988 RMK T02400220 IEM_DS3505
ZGKL,2007-10-03 21:00,ZGKL 032100Z AUTO 02006KT 5SM 24/21 A2988 RMK 70000 SLP123 T02420207 57006 IEM_DS3505
ZGKL,2007-10-03 22:00,ZGKL 032200Z AUTO 00000KT 1 1/4SM 23/22 A2991 RMK T02300220 IEM_DS3505
ZGKL,2007-10-03 23:00,ZGKL 032300Z AUTO 00000KT 1SM 23/22 A2991 RMK T02300220 IEM_DS3505
ZGKL,2007-10-04 00:00,ZGKL 040000Z AUTO 02004KT 4SM 25/21 A2994 RMK 70000 SLP141 T02490206 52018 IEM_DS3505
ZGKL,2007-10-04 01:00,ZGKL 040100Z AUTO 00000KT 3SM 26/22 A2994 RMK T02600220 IEM_DS3505
ZGKL,2007-10-04 02:00,ZGKL 040200Z AUTO 06008KT 4SM 28/22 A2997 RMK T02800220 IEM_DS3505
ZGKL,2007-10-04 03:00,ZGKL 040300Z AUTO 02008KT 5SM 30/21 A2994 RMK SLP140 T02970211 54000 IEM_DS3505
ZGKL,2007-10-04 04:00,ZGKL 040400Z AUTO 08008KT 4SM 31/22 A2991 RMK T03100220 IEM_DS3505
ZGKL,2007-10-04 05:00,ZGKL 040500Z AUTO 04008KT 4SM 31/21 A2988 RMK T03100210 IEM_DS3505
ZGKL,2007-10-04 06:00,ZGKL 040600Z AUTO 04010KT 5SM 31/21 A2985 RMK SLP111 T03120211 57028 IEM_DS3505
ZGKL,2007-10-04 07:00,ZGKL 040700Z AUTO 05008KT 5SM 32/21 A2985 RMK T03200210 IEM_DS3505
ZGKL,2007-10-04 08:00,ZGKL 040800Z AUTO 06012KT 5SM 32/21 A2983 RMK T03200210 IEM_DS3505
ZGKL,2007-10-04 09:00,ZGKL 040900Z AUTO 02004KT 6SM 31/21 A2983 RMK SLP099 T03080210 57012 IEM_DS3505
ZGKL,2007-10-04 10:00,ZGKL 041000Z AUTO 05008KT 3SM 30/21 A2983 RMK T03000210 IEM_DS3505
ZGKL,2007-10-04 11:00,ZGKL 041100Z AUTO 06006KT 3SM 28/21 A2985 RMK T02800210 IEM_DS3505
ZGKL,2007-10-04 12:00,ZGKL 041200Z AUTO 02004KT 6SM 27/21 A2988 RMK SLP116 T02730213 52016 IEM_DS3505
ZGKL,2007-10-04 13:00,ZGKL 041300Z AUTO 06004KT 2SM 27/22 A2988 RMK T02700220 IEM_DS3505
ZGKL,2007-10-04 14:00,ZGKL 041400Z AUTO 00000KT 2SM 24/23 A2991 RMK T02400230 IEM_DS3505
ZGKL,2007-10-04 15:00,ZGKL 041500Z AUTO 04004KT 6SM 26/21 A2991 RMK SLP128 T02600214 52013 IEM_DS3505
ZGKL,2007-10-04 16:00,ZGKL 041600Z AUTO 00000KT 1 1/4SM 23/22 A2991 RMK T02300220 IEM_DS3505
ZGKL,2007-10-04 17:00,ZGKL 041700Z AUTO 00000KT 1 1/4SM 23/22 A2988 RMK T02300220 IEM_DS3505
ZGKL,2007-10-04 18:00,ZGKL 041800Z AUTO 32002KT 6SM 25/21 A2988 RMK SLP115 T02460211 57013 IEM_DS3505
ZGKL,2007-10-04 19:00,ZGKL 041900Z AUTO 00000KT 22/21 A2985 RMK T02200210 IEM_DS3505
ZGKL,2007-10-04 20:00,ZGKL 042000Z AUTO 00000KT 1SM 22/21 A2985 RMK T02200210 IEM_DS3505
ZGKL,2007-10-04 21:00,ZGKL 042100Z AUTO 36004KT 6SM 24/21 A2985 RMK SLP109 T02380207 57006 IEM_DS3505
ZGKL,2007-10-04 22:00,ZGKL 042200Z AUTO 00000KT 1SM 22/21 A2988 RMK T02200210 IEM_DS3505
ZGKL,2007-10-04 23:00,ZGKL 042300Z AUTO 00000KT 1 1/4SM 21/21 A2988 RMK T02100210 IEM_DS3505
ZGKL,2007-10-05 00:00,ZGKL 050000Z AUTO 02002KT 4SM 24/21 A2988 RMK SLP123 T02430210 52012 IEM_DS3505
ZGKL,2007-10-05 01:00,ZGKL 050100Z AUTO 00000KT 2SM 25/22 A2991 RMK T02500220 IEM_DS3505
ZGKL,2007-10-05 02:00,ZGKL 050200Z AUTO 2 1/2SM 28/22 A2988 RMK T02800220 IEM_DS3505
ZGKL,2007-10-05 03:00,ZGKL 050300Z AUTO 02006KT 4SM 30/22 A2988 RMK SLP111 T03020216 57010 IEM_DS3505
ZGKL,2007-10-05 04:00,ZGKL 050400Z AUTO 3SM 32/22 A2985 RMK T03200220 IEM_DS3505
ZGKL,2007-10-05 05:00,ZGKL 050500Z AUTO 3SM 32/21 A2980 RMK T03200210 IEM_DS3505
ZGKL,2007-10-05 06:00,ZGKL 050600Z AUTO 04006KT 5SM 33/19 A2977 RMK SLP076 T03330194 57034 IEM_DS3505
ZGKL,2007-10-05 07:00,ZGKL 050700Z AUTO 4SM 33/19 A2974 RMK T03300190 IEM_DS3505
ZGKL,2007-10-05 08:00,ZGKL 050800Z AUTO 5SM 33/19 A2971 RMK T03300190 IEM_DS3505
ZGKL,2007-10-05 09:00,ZGKL 050900Z AUTO 02008KT 9SM 32/17 A2971 RMK SLP058 T03250172 57018 IEM_DS3505
ZGKL,2007-10-05 10:00,ZGKL 051000Z AUTO 05004KT 5SM 31/19 A2971 RMK T03100190 IEM_DS3505
ZGKL,2007-10-05 11:00,ZGKL 051100Z AUTO 05006KT 4SM 29/19 A2974 RMK T02900190 IEM_DS3505
ZGKL,2007-10-05 12:00,ZGKL 051200Z AUTO 02004KT 8SM 28/20 A2974 RMK SLP072 T02830198 52013 IEM_DS3505
ZGKL,2007-10-05 13:00,ZGKL 051300Z AUTO 00000KT 3SM 26/22 A2977 RMK T02600220 IEM_DS3505
ZGKL,2007-10-05 14:00,ZGKL 051400Z AUTO 00000KT 2 1/2SM 25/22 A2980 RMK T02500220 IEM_DS3505
ZGKL,2007-10-05 15:00,ZGKL 051500Z AUTO 02004KT 7SM 26/21 A2980 RMK SLP082 T02650208 52011 IEM_DS3505
ZGKL,2007-10-05 16:00,ZGKL 051600Z AUTO 00000KT 2SM 24/22 A2977 RMK T02400220 IEM_DS3505
ZGKL,2007-10-05 18:00,ZGKL 051800Z AUTO 36002KT 7SM 25/21 RMK SLP070 T02510208 57012 IEM_DS3505
ZGKL,2007-10-05 19:00,ZGKL 051900Z AUTO 00000KT 22/21 A2974 RMK T02200210 IEM_DS3505
ZGKL,2007-10-05 20:00,ZGKL 052000Z AUTO 00000KT 22/21 A2974 RMK T02200210 IEM_DS3505
ZGKL,2007-10-05 21:00,ZGKL 052100Z AUTO 04002KT 6SM 24/20 A2974 RMK SLP072 T02370204 52002 IEM_DS3505
ZGKL,2007-10-05 22:00,ZGKL 052200Z AUTO 00000KT 1SM 21/20 A2977 RMK T02100200 IEM_DS3505
ZGKL,2007-10-05 23:00,ZGKL 052300Z AUTO 00000KT 1SM 21/20 A2977 RMK T02100200 IEM_DS3505
ZGKL,2007-10-06 00:00,ZGKL 060000Z AUTO 02004KT 3SM 24/20 A2980 RMK SLP089 T02400205 52015 IEM_DS3505
ZGKL,2007-10-06 01:00,ZGKL 060100Z AUTO 00000KT 2 1/2SM 25/22 A2980 RMK T02500220 IEM_DS3505
ZGKL,2007-10-06 02:00,ZGKL 060200Z AUTO 00000KT 2 1/2SM 28/21 A2980 RMK T02800210 IEM_DS3505
ZGKL,2007-10-06 03:00,ZGKL 060300Z AUTO 36006KT 2 1/2SM 30/20 A2980 RMK SLP083 T03010201 57004 IEM_DS3505
ZGKL,2007-10-06 04:00,ZGKL 060400Z AUTO 4SM 32/20 A2977 RMK T03200200 IEM_DS3505
ZGKL,2007-10-06 05:00,ZGKL 060500Z AUTO 4SM 33/20 A2971 RMK T03300200 IEM_DS3505
ZGKL,2007-10-06 06:00,ZGKL 060600Z AUTO 04004KT 7SM 34/18 A2968 RMK SLP048 T03360177 57034 IEM_DS3505
ZGKL,2007-10-06 07:00,ZGKL 060700Z AUTO 6SM 34/17 A2968 RMK T03400170 IEM_DS3505
ZGKL,2007-10-06 08:00,ZGKL 060800Z AUTO 6SM 34/18 A2965 RMK T03400180 IEM_DS3505
ZGKL,2007-10-06 09:00,ZGKL 060900Z AUTO 02006KT 12SM 34/14 A2965 RMK SLP035 T03350141 57013 IEM_DS3505
ZGKL,2007-10-06 10:00,ZGKL 061000Z AUTO 00000KT 5SM 30/21 A2965 RMK T03000210 IEM_DS3505
ZGKL,2007-10-06 11:00,ZGKL 061100Z AUTO 00000KT 4SM 28/22 A2965 RMK T02800220 IEM_DS3505
ZGKL,2007-10-06 12:00,ZGKL 061200Z AUTO 02004KT 10SM 29/18 A2968 RMK SLP051 T02870176 52014 IEM_DS3505
ZGKL,2007-10-06 13:00,ZGKL 061300Z AUTO 00000KT 3SM 25/22 A2971 RMK T02500220 IEM_DS3505
ZGKL,2007-10-06 14:00,ZGKL 061400Z AUTO 00000KT 3SM 25/22 A2974 RMK T02500220 IEM_DS3505
ZGKL,2007-10-06 15:00,ZGKL 061500Z AUTO 02004KT 10SM 27/18 A2974 RMK SLP065 T02700183 52015 IEM_DS3505
ZGKL,2007-10-06 16:00,ZGKL 061600Z AUTO 00000KT 3SM 23/22 A2974 RMK T02300220 IEM_DS3505
ZGKL,2007-10-06 17:00,ZGKL 061700Z AUTO 00000KT 3SM 23/21 A2971 RMK T02300210 IEM_DS3505
ZGKL,2007-10-06 18:00,ZGKL 061800Z AUTO 04002KT 9SM 24/19 A2971 RMK SLP057 T02410192 57007 IEM_DS3505
ZGKL,2007-10-06 19:00,ZGKL 061900Z AUTO 31004KT 22/21 A2971 RMK T02200210 IEM_DS3505
ZGKL,2007-10-06 20:00,ZGKL 062000Z AUTO 22/21 A2971 RMK T02200210 IEM_DS3505
ZGKL,2007-10-06 21:00,ZGKL 062100Z AUTO 36002KT 6SM 23/19 A2971 RMK SLP058 T02300194 54000 IEM_DS3505
ZGKL,2007-10-06 22:00,ZGKL 062200Z AUTO 00000KT 2 1/2SM 21/20 A2974 RMK T02100200 IEM_DS3505
ZGKL,2007-10-06 23:00,ZGKL 062300Z AUTO 33004KT 3SM 21/20 A2974 RMK T02100200 IEM_DS3505
ZGKL,2007-10-07 00:00,ZGKL 070000Z AUTO 02002KT 5SM 25/19 A2977 RMK SLP077 T02480192 52018 IEM_DS3505
ZGKL,2007-10-07 01:00,ZGKL 070100Z AUTO 00000KT 4SM 24/21 A2980 RMK T02400210 IEM_DS3505
ZGKL,2007-10-07 02:00,ZGKL 070200Z AUTO 4SM 28/20 A2980 RMK T02800200 IEM_DS3505
ZGKL,2007-10-07 03:00,ZGKL 070300Z AUTO 02008KT 5SM 30/18 A2980 RMK SLP081 T03010185 52005 IEM_DS3505
ZGKL,2007-10-07 04:00,ZGKL 070400Z AUTO 05014KT 4SM 32/18 A2977 RMK T03200180 IEM_DS3505
ZGKL,2007-10-07 05:00,ZGKL 070500Z AUTO 03008KT 5SM 33/18 A2974 RMK T03300180 IEM_DS3505
ZGKL,2007-10-07 06:00,ZGKL 070600Z AUTO 04010KT 7SM 33/17 A2971 RMK SLP058 T03310169 57023 IEM_DS3505
ZGKL,2007-10-07 07:00,ZGKL 070700Z AUTO 03008KT 4SM 33/18 A2971 RMK T03300180 IEM_DS3505
ZGKL,2007-10-07 08:00,ZGKL 070800Z AUTO 05008KT 4SM 33/18 A2968 RMK T03300180 IEM_DS3505
ZGKL,2007-10-07 09:00,ZGKL 070900Z AUTO 04006KT 8SM 32/17 A2971 RMK SLP055 T03220173 57003 IEM_DS3505
ZGKL,2007-10-07 10:00,ZGKL 071000Z AUTO 05008KT 4SM 31/18 A2971 RMK T03100180 IEM_DS3505
ZGKL,2007-10-07 11:00,ZGKL 071100Z AUTO 3SM 29/19 A2974 RMK T02900190 IEM_DS3505
ZGKL,2007-10-07 12:00,ZGKL 071200Z AUTO 07008KT 7SM 28/18 A2977 RMK SLP080 T02840182 52024 IEM_DS3505
ZGKL,2007-10-07 13:00,ZGKL 071300Z AUTO 04006KT 2 1/2SM 28/18 A2980 RMK T02800180 IEM_DS3505
ZGKL,2007-10-07 14:00,ZGKL 071400Z AUTO 2 1/2SM 26/19 A2985 RMK T02600190 IEM_DS3505
ZGKL,2007-10-07 15:00,ZGKL 071500Z AUTO 36008KT 7SM 26/18 A2985 RMK SLP113 T02610183 52033 IEM_DS3505
ZGKL,2007-10-07 16:00,ZGKL 071600Z AUTO 03008KT 2SM 25/20 A2988 RMK T02500200 IEM_DS3505
ZGKL,2007-10-07 17:00,ZGKL 071700Z AUTO 05006KT 2SM 24/19 A2988 RMK T02400190 IEM_DS3505
ZGKL,2007-10-07 18:00,ZGKL 071800Z AUTO 02006KT 7SM 25/18 A2988 RMK SLP116 T02460181 52003 IEM_DS3505
ZGKL,2007-10-07 19:00,ZGKL 071900Z AUTO 34008KT 22/19 A2985 RMK T02200190 IEM_DS3505
ZGKL,2007-10-07 20:00,ZGKL 072000Z AUTO 34006KT 21/18 A2985 RMK T02100180 IEM_DS3505
ZGKL,2007-10-07 21:00,ZGKL 072100Z AUTO 02010KT 7SM 24/17 A2985 RMK SLP108 T02390174 57008 IEM_DS3505
ZGKL,2007-10-07 22:00,ZGKL 072200Z AUTO 04006KT 4SM 22/18 A2988 RMK T02200180 IEM_DS3505
ZGKL,2007-10-07 23:00,ZGKL 072300Z AUTO 2 1/2SM 22/18 A2991 RMK T02200180 IEM_DS3505
ZGKL,2007-10-08 00:00,ZGKL 080000Z AUTO 02010KT 6SM 24/16 A2994 RMK SLP136 T02370160 52026 IEM_DS3505
ZGKL,2007-10-08 01:00,ZGKL 080100Z AUTO 05008KT 3SM 25/17 A2997 RMK T02500170 IEM_DS3505
ZGKL,2007-10-08 02:00,ZGKL 080200Z AUTO 04012KT 4SM 27/16 A2997 RMK T02700160 IEM_DS3505
ZGKL,2007-10-08 03:00,ZGKL 080300Z AUTO 02012KT 7SM 26/16 A2997 RMK SLP150 T02580155 52014 IEM_DS3505
ZGKL,2007-10-08 04:00,ZGKL 080400Z AUTO 05016KT 5SM 28/16 A2994 RMK T02800160 IEM_DS3505
ZGKL,2007-10-08 05:00,ZGKL 080500Z AUTO 06016KT 5SM 28/16 A2994 RMK T02800160 IEM_DS3505
ZGKL,2007-10-08 06:00,ZGKL 080600Z AUTO 36016KT 6SM 25/16 A2991 RMK SLP136 T02540157 57014 IEM_DS3505
ZGKL,2007-10-08 07:00,ZGKL 080700Z AUTO 06017KT 4SM 26/16 A2991 RMK T02600160 IEM_DS3505
ZGKL,2007-10-08 08:00,ZGKL 080800Z AUTO 06014KT 4SM 25/16 A2991 RMK T02500160 IEM_DS3505
ZGKL,2007-10-08 09:00,ZGKL 080900Z AUTO 02012KT 6SM 24/15 A2991 RMK SLP135 T02370150 57002 IEM_DS3505
ZGKL,2007-10-08 10:00,ZGKL 081000Z AUTO 06012KT 3SM 23/15 A2991 RMK T02300150 IEM_DS3505
ZGKL,2007-10-08 11:00,ZGKL 081100Z AUTO 06016KT 3SM 22/15 A2994 RMK T02200150 IEM_DS3505
ZGKL,2007-10-08 12:00,ZGKL 081200Z AUTO 02006KT 6SM 21/14 A2997 RMK SLP158 T02100137 52022 IEM_DS3505
ZGKL,2007-10-08 13:00,ZGKL 081300Z AUTO 05012KT 3SM 21/14 A3000 RMK T02100140 IEM_DS3505
ZGKL,2007-10-08 14:00,ZGKL 081400Z AUTO 05008KT 3SM 20/14 A3003 RMK T02000140 IEM_DS3505
ZGKL,2007-10-08 15:00,ZGKL 081500Z AUTO 02006KT 6SM 20/13 A3003 RMK SLP176 T02020132 52018 IEM_DS3505
ZGKL,2007-10-08 16:00,ZGKL 081600Z AUTO 04010KT 4SM 20/13 A3003 RMK T02000130 IEM_DS3505
ZGKL,2007-10-08 17:00,ZGKL 081700Z AUTO 04008KT 4SM 20/13 A3003 RMK T02000130 IEM_DS3505
ZGKL,2007-10-08 18:00,ZGKL 081800Z AUTO 02010KT 5SM 20/11 A3003 RMK SLP172 T01970107 57005 IEM_DS3505
ZGKL,2007-10-08 19:00,ZGKL 081900Z AUTO 05006KT 5SM 19/12 A3003 RMK T01900120 IEM_DS3505
ZGKL,2007-10-08 20:00,ZGKL 082000Z AUTO 6SM 19/12 A3003 RMK T01900120 IEM_DS3505
ZGKL,2007-10-08 21:00,ZGKL 082100Z AUTO 02006KT 5SM 19/10 A3003 RMK SLP176 T01880104 52003 IEM_DS3505
ZGKL,2007-10-08 22:00,ZGKL 082200Z AUTO 05006KT 6SM 19/12 A3006 RMK T01900120 IEM_DS3505
ZGKL,2007-10-08 23:00,ZGKL 082300Z AUTO 05006KT 7SM 19/11 A3006 RMK T01900110 IEM_DS3505
ZGKL,2007-10-09 00:00,ZGKL 090000Z AUTO 02008KT 9SM 19/10 A3006 RMK SLP192 T01880096 52015 IEM_DS3505
ZGKL,2007-10-09 01:00,ZGKL 090100Z AUTO 04010KT 7SM 21/11 A3009 RMK T02100110 IEM_DS3505
ZGKL,2007-10-09 02:00,ZGKL 090200Z AUTO 04010KT 7SM 21/11 A3009 RMK T02100110 IEM_DS3505
ZGKL,2007-10-09 03:00,ZGKL 090300Z AUTO 36010KT 10SM 22/10 A3009 RMK SLP192 T02190098 52001 IEM_DS3505
ZGKL,2007-10-09 04:00,ZGKL 090400Z AUTO 6SM 24/11 A3006 RMK T02400110 IEM_DS3505
ZGKL,2007-10-09 05:00,ZGKL 090500Z AUTO 6SM 26/12 A3000 RMK T02600120 IEM_DS3505
ZGKL,2007-10-09 06:00,ZGKL 090600Z AUTO 02006KT 10SM 26/12 A2997 RMK SLP151 T02580116 57039 IEM_DS3505
ZGKL,2007-10-09 07:00,ZGKL 090700Z AUTO 6SM 27/12 A2994 RMK T02700120 IEM_DS3505
ZGKL,2007-10-09 08:00,ZGKL 090800Z AUTO 07010KT 6SM 27/12 A2991 RMK T02700120 IEM_DS3505
ZGKL,2007-10-09 09:00,ZGKL 090900Z AUTO 02008KT 10SM 24/12 A2991 RMK SLP138 T02440120 57014 IEM_DS3505
ZGKL,2007-10-09 10:00,ZGKL 091000Z AUTO 05008KT 6SM 24/13 A2991 RMK T02400130 IEM_DS3505
ZGKL,2007-10-09 11:00,ZGKL 091100Z AUTO 04012KT 6SM 22/12 A2994 RMK T02200120 IEM_DS3505
ZGKL,2007-10-09 12:00,ZGKL 091200Z AUTO 02008KT 10SM 21/12 A2997 RMK SLP158 T02060121 52019 IEM_DS3505
ZGKL,2007-10-09 13:00,ZGKL 091300Z AUTO 4SM 20/13 A3000 RMK T02000130 IEM_DS3505
ZGKL,2007-10-09 14:00,ZGKL 091400Z AUTO 07006KT 4SM 19/13 A3003 RMK T01900130 IEM_DS3505
ZGKL,2007-10-09 15:00,ZGKL 091500Z AUTO 02006KT 9SM 19/12 A3003 RMK SLP170 T01890115 52012 IEM_DS3505
ZGKL,2007-10-09 16:00,ZGKL 091600Z AUTO 00000KT 3SM 17/14 A3003 RMK T01700140 IEM_DS3505
ZGKL,2007-10-09 17:00,ZGKL 091700Z AUTO 00000KT 3SM 16/14 A3003 RMK T01600140 IEM_DS3505
ZGKL,2007-10-09 18:00,ZGKL 091800Z AUTO 36004KT 7SM 18/12 A3000 RMK SLP166 T01820115 57003 IEM_DS3505
ZGKL,2007-10-09 19:00,ZGKL 091900Z AUTO 00000KT 3SM 17/15 A3000 RMK T01700150 IEM_DS3505
ZGKL,2007-10-09 20:00,ZGKL 092000Z AUTO 00000KT 3SM 17/15 A3000 RMK T01700150 IEM_DS3505
ZGKL,2007-10-09 21:00,ZGKL 092100Z AUTO 02004KT 7SM 19/12 A3000 RMK SLP165 T01920120 57001 IEM_DS3505
ZGKL,2007-10-10 00:00,ZGKL 100000Z AUTO 02008KT 7SM 20/12 A3006 RMK SLP183 T01970120 52017 IEM_DS3505
ZGKL,2007-10-10 01:00,ZGKL 100100Z AUTO 4SM 21/15 A3006 RMK T02100150 IEM_DS3505
ZGKL,2007-10-10 02:00,ZGKL 100200Z AUTO 04012KT 4SM 23/13 A3006 RMK T02300130 IEM_DS3505
ZGKL,2007-10-10 03:00,ZGKL 100300Z AUTO 02006KT 7SM 22/12 A3006 RMK SLP188 T02230123 52005 IEM_DS3505
ZGKL,2007-10-10 04:00,ZGKL 100400Z AUTO 5SM 25/13 A3006 RMK T02500130 IEM_DS3505
ZGKL,2007-10-10 05:00,ZGKL 100500Z AUTO 6SM 25/13 A3003 RMK T02500130 IEM_DS3505
ZGKL,2007-10-10 06:00,ZGKL 100600Z AUTO 02008KT 7SM 25/13 A2997 RMK SLP158 T02470126 57029 IEM_DS3505
ZGKL,2007-10-10 07:00,ZGKL 100700Z AUTO 07008KT 6SM 26/14 A2997 RMK T02600140 IEM_DS3505
ZGKL,2007-10-10 08:00,ZGKL 100800Z AUTO 04008KT 6SM 26/14 A2994 RMK T02600140 IEM_DS3505
ZGKL,2007-10-10 09:00,ZGKL 100900Z AUTO 02008KT 7SM 24/12 A2997 RMK SLP150 T02440124 57008 IEM_DS3505
ZGKL,2007-10-10 10:00,ZGKL 101000Z AUTO 04006KT 6SM 24/14 A2997 RMK T02400140 IEM_DS3505
ZGKL,2007-10-10 11:00,ZGKL 101100Z AUTO 05006KT 5SM 23/14 A2997 RMK T02300140 IEM_DS3505
ZGKL,2007-10-10 12:00,ZGKL 101200Z AUTO 02004KT 7SM 21/13 A3000 RMK SLP166 T02100129 52015 IEM_DS3505
ZGKL,2007-10-10 13:00,ZGKL 101300Z AUTO 4SM 21/13 A3003 RMK T02100130 IEM_DS3505
ZGKL,2007-10-10 14:00,ZGKL 101400Z AUTO 4SM 20/15 A3006 RMK T02000150 IEM_DS3505
ZGKL,2007-10-10 15:00,ZGKL 101500Z AUTO 04004KT 7SM 20/13 A3006 RMK SLP181 T01960126 52015 IEM_DS3505
ZGKL,2007-10-10 16:00,ZGKL 101600Z AUTO 00000KT 3SM 18/15 A3006 RMK T01800150 IEM_DS3505
ZGKL,2007-10-10 17:00,ZGKL 101700Z AUTO 00000KT 17/16 A3006 RMK T01700160 IEM_DS3505
ZGKL,2007-10-10 18:00,ZGKL 101800Z AUTO 02004KT 7SM 20/12 A3006 RMK SLP182 T01950118 52002 IEM_DS3505
ZGKL,2007-10-10 19:00,ZGKL 101900Z AUTO 00000KT 16/15 A3006 RMK T01600150 IEM_DS3505
ZGKL,2007-10-10 20:00,ZGKL 102000Z AUTO 00000KT 16/15 A3006 RMK T01600150 IEM_DS3505
ZGKL,2007-10-10 21:00,ZGKL 102100Z AUTO 02004KT 7SM 19/13 A3006 RMK SLP176 T01920127 57006 IEM_DS3505
ZGKL,2007-10-10 22:00,ZGKL 102200Z AUTO 00000KT 2 1/2SM 16/15 A3006 RMK T01600150 IEM_DS3505
ZGKL,2007-10-10 23:00,ZGKL 102300Z AUTO 00000KT 3SM 16/15 A3006 RMK T01600150 IEM_DS3505
ZGKL,2007-10-11 00:00,ZGKL 110000Z AUTO 02006KT 6SM 20/13 A3009 RMK SLP191 T01980130 52014 IEM_DS3505
ZGKL,2007-10-11 01:00,ZGKL 110100Z AUTO 00000KT 2 1/2SM 19/17 A3009 RMK T01900170 IEM_DS3505
ZGKL,2007-10-11 02:00,ZGKL 110200Z AUTO 00000KT 2 1/2SM 21/15 A3012 RMK T02100150 IEM_DS3505
ZGKL,2007-10-11 03:00,ZGKL 110300Z AUTO 36008KT 5SM 22/13 A3012 RMK SLP200 T02160127 52009 IEM_DS3505
ZGKL,2007-10-11 04:00,ZGKL 110400Z AUTO 03006KT 3SM 24/14 A3009 RMK T02400140 IEM_DS3505
ZGKL,2007-10-11 05:00,ZGKL 110500Z AUTO 06006KT 4SM 26/13 A3006 RMK T02600130 IEM_DS3505
ZGKL,2007-10-11 06:00,ZGKL 110600Z AUTO 02004KT 7SM 26/12 A3003 RMK SLP172 T02560121 57027 IEM_DS3505
ZGKL,2007-10-11 07:00,ZGKL 110700Z AUTO 05008KT 4SM 26/14 A3000 RMK T02600140 IEM_DS3505
ZGKL,2007-10-11 08:00,ZGKL 110800Z AUTO 06008KT 4SM 26/13 A3000 RMK T02600130 IEM_DS3505
ZGKL,2007-10-11 09:00,ZGKL 110900Z AUTO 02006KT 8SM 25/14 A3000 RMK SLP164 T02490135 57008 IEM_DS3505
ZGKL,2007-10-11 10:00,ZGKL 111000Z AUTO 06006KT 4SM 25/14 A3000 RMK T02500140 IEM_DS3505
ZGKL,2007-10-11 11:00,ZGKL 111100Z AUTO 04004KT 4SM 23/14 A3003 RMK T02300140 IEM_DS3505
ZGKL,2007-10-11 12:00,ZGKL 111200Z AUTO 02004KT 6SM 23/14 A3006 RMK SLP179 T02300138 52015 IEM_DS3505
ZGKL,2007-10-11 13:00,ZGKL 111300Z AUTO 00000KT 2 1/2SM 20/17 A3009 RMK T02000170 IEM_DS3505
ZGKL,2007-10-11 14:00,ZGKL 111400Z AUTO 00000KT 2 1/2SM 20/17 A3009 RMK T02000170 IEM_DS3505
ZGKL,2007-10-11 15:00,ZGKL 111500Z AUTO 02006KT 6SM 23/14 A3009 RMK SLP193 T02290142 52014 IEM_DS3505
ZGKL,2007-10-11 16:00,ZGKL 111600Z AUTO 00000KT 2 1/2SM 20/18 A3009 RMK T02000180 IEM_DS3505
ZGKL,2007-10-11 17:00,ZGKL 111700Z AUTO 00000KT 20/17 A3009 RMK T02000170 IEM_DS3505
ZGKL,2007-10-11 18:00,ZGKL 111800Z AUTO 02006KT 6SM 23/14 A3009 RMK SLP188 T02290137 57004 IEM_DS3505
ZGKL,2007-10-11 19:00,ZGKL 111900Z AUTO 00000KT 21/18 A3009 RMK T02100180 IEM_DS3505
ZGKL,2007-10-11 20:00,ZGKL 112000Z AUTO 00000KT 2SM 20/18 A3006 RMK T02000180 IEM_DS3505
ZGKL,2007-10-11 21:00,ZGKL 112100Z AUTO 02006KT 6SM 22/13 A3006 RMK SLP184 T02190130 57004 IEM_DS3505
ZGKL,2007-10-11 22:00,ZGKL 112200Z AUTO 00000KT 1 1/4SM 18/17 A3009 RMK T01800170 IEM_DS3505
ZGKL,2007-10-11 23:00,ZGKL 112300Z AUTO 00000KT 2SM 18/17 A3009 RMK T01800170 IEM_DS3505
ZGKL,2007-10-12 00:00,ZGKL 120000Z AUTO 02006KT 4SM 22/13 A3012 RMK SLP202 T02160130 52017 IEM_DS3505
ZGKL,2007-10-12 01:00,ZGKL 120100Z AUTO 3SM 22/16 A3012 RMK T02200160 IEM_DS3505
ZGKL,2007-10-12 02:00,ZGKL 120200Z AUTO 3SM 25/15 A3015 RMK T02500150 IEM_DS3505
ZGKL,2007-10-12 03:00,ZGKL 120300Z AUTO 02010KT 5SM 25/12 A3015 RMK SLP207 T02530122 52006 IEM_DS3505
ZGKL,2007-10-12 04:00,ZGKL 120400Z AUTO 03012KT 3SM 27/13 A3012 RMK T02700130 IEM_DS3505
ZGKL,2007-10-12 05:00,ZGKL 120500Z AUTO 05012KT 4SM 28/12 A3009 RMK T02800120 IEM_DS3505
ZGKL,2007-10-12 06:00,ZGKL 120600Z AUTO 02008KT 4SM 29/12 A3006 RMK SLP178 T02860125 57028 IEM_DS3505
ZGKL,2007-10-12 07:00,ZGKL 120700Z AUTO 06008KT 4SM 29/12 A3003 RMK T02900120 IEM_DS3505
ZGKL,2007-10-12 09:00,ZGKL 120900Z AUTO 02008KT 5SM 27/12 A3003 RMK SLP171 T02690118 57007 IEM_DS3505
ZGKL,2007-10-12 10:00,ZGKL 121000Z AUTO 05010KT 4SM 26/13 A3006 RMK T02600130 IEM_DS3505
ZGKL,2007-10-12 11:00,ZGKL 121100Z AUTO 05008KT 3SM 24/13 A3006 RMK T02400130 IEM_DS3505
ZGKL,2007-10-12 12:00,ZGKL 121200Z AUTO 02010KT 5SM 23/13 A3009 RMK SLP198 T02330126 52025 IEM_DS3505
ZGKL,2007-10-12 13:00,ZGKL 121300Z AUTO 00000KT 3SM 21/15 A3012 RMK T02100150 IEM_DS3505
ZGKL,2007-10-12 14:00,ZGKL 121400Z AUTO 00000KT 3SM 20/15 A3015 RMK T02000150 IEM_DS3505
ZGKL,2007-10-12 15:00,ZGKL 121500Z AUTO 02010KT 5SM 21/13 A3015 RMK SLP213 T02120129 52015 IEM_DS3505
ZGKL,2007-10-12 16:00,ZGKL 121600Z AUTO 09004KT 2 1/2SM 20/14 A3015 RMK T02000140 IEM_DS3505
ZGKL,2007-10-12 17:00,ZGKL 121700Z AUTO 06006KT 2SM 20/13 A3015 RMK T02000130 IEM_DS3505
ZGKL,2007-10-12 18:00,ZGKL 121800Z AUTO 02010KT 5SM 20/12 A3015 RMK SLP212 T01950120 54000 IEM_DS3505
ZGKL,2007-10-12 19:00,ZGKL 121900Z AUTO 00000KT 2SM 19/14 A3015 RMK T01900140 IEM_DS3505
ZGKL,2007-10-12 20:00,ZGKL 122000Z AUTO 00000KT 2SM 18/13 A3015 RMK T01800130 IEM_DS3505
ZGKL,2007-10-12 21:00,ZGKL 122100Z AUTO 02008KT 5SM 18/12 A3015 RMK SLP211 T01820115 57002 IEM_DS3505
ZGKL,2007-10-12 22:00,ZGKL 122200Z AUTO 00000KT 2SM 17/13 A3015 RMK T01700130 IEM_DS3505
ZGKL,2007-10-12 23:00,ZGKL 122300Z AUTO 2 1/2SM 17/13 A3018 RMK T01700130 IEM_DS3505
ZGKL,2007-10-13 00:00,ZGKL 130000Z AUTO 02010KT 4SM 18/11 A3018 RMK SLP229 T01830111 52016 IEM_DS3505
ZGKL,2007-10-13 01:00,ZGKL 130100Z AUTO 2 1/2SM 20/13 A3021 RMK T02000130 IEM_DS3505
ZGKL,2007-10-13 02:00,ZGKL 130200Z AUTO 05010KT 2 1/2SM 21/12 A3021 RMK T02100120 IEM_DS3505
ZGKL,2007-10-13 03:00,ZGKL 130300Z AUTO 02010KT 3SM 21/12 A3021 RMK SLP236 T02120118 52007 IEM_DS3505
ZGKL,2007-10-13 04:00,ZGKL 130400Z AUTO 07012KT 2 1/2SM 23/13 A3018 RMK T02300130 IEM_DS3505
ZGKL,2007-10-13 05:00,ZGKL 130500Z AUTO 08014KT 2 1/2SM 24/13 A3015 RMK T02400130 IEM_DS3505
ZGKL,2007-10-13 06:00,ZGKL 130600Z AUTO 02012KT 3SM 22/12 A3015 RMK SLP213 T02240121 57022 IEM_DS3505
ZGKL,2007-10-13 07:00,ZGKL 130700Z AUTO 06014KT 3SM 24/13 A3012 RMK T02400130 IEM_DS3505
ZGKL,2007-10-13 08:00,ZGKL 130800Z AUTO 06014KT 3SM 24/13 A3012 RMK T02400130 IEM_DS3505
ZGKL,2007-10-13 09:00,ZGKL 130900Z AUTO 36008KT 3SM 22/13 A3012 RMK SLP204 T02180126 57010 IEM_DS3505
ZGKL,2007-10-13 10:00,ZGKL 131000Z AUTO 06010KT 2 1/2SM 21/13 A3012 RMK T02100130 IEM_DS3505
ZGKL,2007-10-13 11:00,ZGKL 131100Z AUTO 04006KT 2 1/2SM 20/13 A3015 RMK T02000130 IEM_DS3505
ZGKL,2007-10-13 12:00,ZGKL 131200Z AUTO 02010KT 3SM 19/12 A3018 RMK SLP229 T01900120 52024 IEM_DS3505
ZGKL,2007-10-13 13:00,ZGKL 131300Z AUTO 06010KT 2 1/2SM 18/13 A3021 RMK T01800130 IEM_DS3505
ZGKL,2007-10-13 14:00,ZGKL 131400Z AUTO 05006KT 2 1/2SM 18/13 A3021 RMK T01800130 IEM_DS3505
ZGKL,2007-10-13 15:00,ZGKL 131500Z AUTO 02010KT 3SM 18/12 A3021 RMK SLP240 T01810121 52011 IEM_DS3505
ZGKL,2007-10-13 16:00,ZGKL 131600Z AUTO 3SM 17/13 A3024 RMK T01700130 IEM_DS3505
ZGKL,2007-10-13 17:00,ZGKL 131700Z AUTO 00000KT 2 1/2SM 16/14 A3021 RMK T01600140 IEM_DS3505
ZGKL,2007-10-13 18:00,ZGKL 131800Z AUTO 02008KT 3SM 17/12 A3021 RMK SLP235 T01720121 57005 IEM_DS3505
ZGKL,2007-10-13 19:00,ZGKL 131900Z AUTO 00000KT 2SM 15/14 A3021 RMK T01500140 IEM_DS3505
ZGKL,2007-10-13 20:00,ZGKL 132000Z AUTO 00000KT 2SM 16/14 A3018 RMK T01600140 IEM_DS3505
ZGKL,2007-10-13 21:00,ZGKL 132100Z AUTO 36010KT 3SM 17/12 RMK SLP230 T01660115 57005 IEM_DS3505
ZGKL,2007-10-13 22:00,ZGKL 132200Z AUTO 00000KT 3SM 16/13 A3021 RMK T01600130 IEM_DS3505
ZGKL,2007-10-13 23:00,ZGKL 132300Z AUTO 2SM 16/13 A3024 RMK T01600130 IEM_DS3505
ZGKL,2007-10-14 00:00,ZGKL 140000Z AUTO 36010KT 3SM 17/12 A3027 RMK SLP253 T01720119 52022 IEM_DS3505
ZGKL,2007-10-14 01:00,ZGKL 140100Z AUTO 2 1/2SM 18/14 A3027 RMK T01800140 IEM_DS3505
ZGKL,2007-10-14 02:00,ZGKL 140200Z AUTO 03008KT 3SM 19/13 A3030 RMK T01900130 IEM_DS3505
ZGKL,2007-10-14 03:00,ZGKL 140300Z AUTO 02012KT 5SM 20/12 A3027 RMK SLP257 T01970120 52004 IEM_DS3505
ZGKL,2007-10-14 04:00,ZGKL 140400Z AUTO 03010KT 5SM 22/13 A3024 RMK T02200130 IEM_DS3505
ZGKL,2007-10-14 05:00,ZGKL 140500Z AUTO 05008KT 5SM 22/12 A3021 RMK T02200120 IEM_DS3505
ZGKL,2007-10-14 06:00,ZGKL 140600Z AUTO 02014KT 6SM 22/12 A3018 RMK SLP231 T02160119 57025 IEM_DS3505
ZGKL,2007-10-14 07:00,ZGKL 140700Z AUTO 05012KT 4SM 23/13 A3018 RMK T02300130 IEM_DS3505
ZGKL,2007-10-14 08:00,ZGKL 140800Z AUTO 06012KT 4SM 22/12 A3018 RMK T02200120 IEM_DS3505
ZGKL,2007-10-14 09:00,ZGKL 140900Z AUTO 04010KT 6SM 20/12 A3018 RMK SLP234 T01960121 52002 IEM_DS3505
ZGKL,2007-10-14 10:00,ZGKL 141000Z AUTO 06014KT 3SM 19/13 A3021 RMK T01900130 IEM_DS3505
ZGKL,2007-10-14 11:00,ZGKL 141100Z AUTO 06012KT 3SM 18/13 A3024 RMK T01800130 IEM_DS3505
ZGKL,2007-10-14 12:00,ZGKL 141200Z AUTO 02010KT 5SM 18/12 A3027 RMK SLP254 T01770119 52019 IEM_DS3505
ZGKL,2007-10-14 13:00,ZGKL 141300Z AUTO 04010KT 3SM 18/13 A3027 RMK T01800130 IEM_DS3505
ZGKL,2007-10-14 14:00,ZGKL 141400Z AUTO 03010KT 4SM 18/13 A3027 RMK T01800130 IEM_DS3505
ZGKL,2007-10-14 15:00,ZGKL 141500Z AUTO 02010KT 5SM 17/12 A3027 RMK SLP262 T01730118 52009 IEM_DS3505
ZGKL,2007-10-14 16:00,ZGKL 141600Z AUTO 06008KT 3SM 17/13 A3027 RMK T01700130 IEM_DS3505
ZGKL,2007-10-14 17:00,ZGKL 141700Z AUTO 06010KT 17/13 A3027 RMK T01700130 IEM_DS3505
ZGKL,2007-10-14 18:00,ZGKL 141800Z AUTO 02006KT 4SM 17/12 A3027 RMK SLP252 T01690116 57009 IEM_DS3505
ZGKL,2007-10-14 19:00,ZGKL 141900Z AUTO 16/13 A3027 RMK T01600130 IEM_DS3505
ZGKL,2007-10-14 20:00,ZGKL 142000Z AUTO 16/13 A3027 RMK T01600130 IEM_DS3505
ZGKL,2007-10-14 21:00,ZGKL 142100Z AUTO 02010KT 6SM 16/11 A3024 RMK SLP249 T01620114 57004 IEM_DS3505
ZGKL,2007-10-14 22:00,ZGKL 142200Z AUTO 00000KT 3SM 14/13 A3027 RMK T01400130 IEM_DS3505
ZGKL,2007-10-14 23:00,ZGKL 142300Z AUTO 00000KT 4SM 14/13 A3027 RMK T01400130 IEM_DS3505
ZGKL,2007-10-15 00:00,ZGKL 150000Z AUTO 02010KT 5SM 17/11 A3030 RMK SLP263 T01690114 52013 IEM_DS3505
ZGKL,2007-10-15 01:00,ZGKL 150100Z AUTO 03010KT 7SM 19/12 A3030 RMK T01900120 IEM_DS3505
ZGKL,2007-10-15 02:00,ZGKL 150200Z AUTO 03012KT 7SM 20/12 A3030 RMK T02000120 IEM_DS3505
ZGKL,2007-10-15 03:00,ZGKL 150300Z AUTO 02012KT 7SM 20/12 A3030 RMK SLP266 T02000115 52004 IEM_DS3505
ZGKL,2007-10-15 04:00,ZGKL 150400Z AUTO 06012KT 7SM 22/11 A3027 RMK T02200110 IEM_DS3505
ZGKL,2007-10-15 05:00,ZGKL 150500Z AUTO 06014KT 7SM 23/11 A3024 RMK T02300110 IEM_DS3505
ZGKL,2007-10-15 06:00,ZGKL 150600Z AUTO 04012KT 7SM 22/12 A3021 RMK SLP242 T02180115 57023 IEM_DS3505
ZGKL,2007-10-15 07:00,ZGKL 150700Z AUTO 06012KT 7SM 22/12 A3021 RMK T02200120 IEM_DS3505
ZGKL,2007-10-15 08:00,ZGKL 150800Z AUTO 05012KT 7SM 22/12 A3021 RMK T02200120 IEM_DS3505
ZGKL,2007-10-15 09:00,ZGKL 150900Z AUTO 04010KT 7SM 20/12 A3021 RMK SLP237 T02050117 57006 IEM_DS3505
ZGKL,2007-10-15 10:00,ZGKL 151000Z AUTO 05010KT 7SM 20/12 A3021 RMK T02000120 IEM_DS3505
ZGKL,2007-10-15 11:00,ZGKL 151100Z AUTO 05010KT 4SM 19/12 A3024 RMK T01900120 IEM_DS3505
ZGKL,2007-10-15 12:00,ZGKL 151200Z AUTO 02008KT 7SM 19/12 A3027 RMK SLP257 T01870120 52020 IEM_DS3505
ZGKL,2007-10-15 13:00,ZGKL 151300Z AUTO 06010KT 4SM 19/13 A3030 RMK T01900130 IEM_DS3505
ZGKL,2007-10-15 14:00,ZGKL 151400Z AUTO 03008KT 4SM 18/13 A3030 RMK T01800130 IEM_DS3505
ZGKL,2007-10-15 15:00,ZGKL 151500Z AUTO 36006KT 7SM 18/12 A3030 RMK SLP266 T01780123 52009 IEM_DS3505
ZGKL,2007-10-15 16:00,ZGKL 151600Z AUTO 3SM 18/13 A3030 RMK T01800130 IEM_DS3505
ZGKL,2007-10-15 17:00,ZGKL 151700Z AUTO 18/13 A3027 RMK T01800130 IEM_DS3505
ZGKL,2007-10-15 18:00,ZGKL 151800Z AUTO 02008KT 6SM 17/12 A3027 RMK SLP254 T01740121 57011 IEM_DS3505
ZGKL,2007-10-15 19:00,ZGKL 151900Z AUTO 00000KT 17/13 A3027 RMK T01700130 IEM_DS3505
ZGKL,2007-10-15 20:00,ZGKL 152000Z AUTO 00000KT 3SM 17/14 A3024 RMK T01700140 IEM_DS3505
ZGKL,2007-10-15 21:00,ZGKL 152100Z AUTO 36008KT 6SM 17/12 A3024 RMK SLP249 T01700115 57006 IEM_DS3505
ZGKL,2007-10-15 22:00,ZGKL 152200Z AUTO 00000KT 3SM 17/14 A3024 RMK T01700140 IEM_DS3505
ZGKL,2007-10-15 23:00,ZGKL 152300Z AUTO 3SM 17/13 A3027 RMK T01700130 IEM_DS3505
ZGKL,2007-10-16 00:00,ZGKL 160000Z AUTO 02006KT 6SM 17/12 A3027 RMK SLP256 T01720115 52007 IEM_DS3505
ZGKL,2007-10-16 01:00,ZGKL 160100Z AUTO 02008KT 3SM 19/12 A3027 RMK T01900120 IEM_DS3505
ZGKL,2007-10-16 02:00,ZGKL 160200Z AUTO 03012KT 4SM 19/12 A3030 RMK T01900120 IEM_DS3505
ZGKL,2007-10-16 03:00,ZGKL 160300Z AUTO 02012KT 7SM 19/11 A3027 RMK SLP260 T01940109 52004 IEM_DS3505
ZGKL,2007-10-16 04:00,ZGKL 160400Z AUTO 07012KT 4SM 22/11 A3024 RMK T02200110 IEM_DS3505
ZGKL,2007-10-16 05:00,ZGKL 160500Z AUTO 05010KT 4SM 23/12 A3021 RMK T02300120 IEM_DS3505
ZGKL,2007-10-16 06:00,ZGKL 160600Z AUTO 02008KT 7SM 22/11 A3018 RMK SLP230 T02170111 57029 IEM_DS3505
ZGKL,2007-10-16 07:00,ZGKL 160700Z AUTO 05012KT 4SM 22/11 A3018 RMK T02200110 IEM_DS3505
ZGKL,2007-10-16 08:00,ZGKL 160800Z AUTO 04010KT 4SM 23/11 A3015 RMK T02300110 IEM_DS3505
ZGKL,2007-10-16 09:00,ZGKL 160900Z AUTO 02008KT 7SM 21/11 A3018 RMK SLP227 T02080112 57003 IEM_DS3505
ZGKL,2007-10-16 10:00,ZGKL 161000Z AUTO 06008KT 4SM 20/11 A3018 RMK T02000110 IEM_DS3505
ZGKL,2007-10-16 11:00,ZGKL 161100Z AUTO 06010KT 4SM 20/12 A3018 RMK T02000120 IEM_DS3505
ZGKL,2007-10-16 12:00,ZGKL 161200Z AUTO 02004KT 6SM 18/11 A3021 RMK SLP236 T01850113 52008 IEM_DS3505
ZGKL,2007-10-16 13:00,ZGKL 161300Z AUTO 33006KT 3SM 16/12 A3024 RMK T01600120 IEM_DS3505
ZGKL,2007-10-16 14:00,ZGKL 161400Z AUTO 32004KT 3SM 16/13 A3024 RMK T01600130 IEM_DS3505
ZGKL,2007-10-16 15:00,ZGKL 161500Z AUTO 36004KT 6SM 18/11 A3024 RMK SLP244 T01760114 52008 IEM_DS3505
ZGKL,2007-10-16 16:00,ZGKL 161600Z AUTO 2 1/2SM 15/13 A3024 RMK T01500130 IEM_DS3505
ZGKL,2007-10-16 17:00,ZGKL 161700Z AUTO 00000KT 2SM 14/13 A3021 RMK T01400130 IEM_DS3505
ZGKL,2007-10-16 18:00,ZGKL 161800Z AUTO 04002KT 6SM 16/12 A3021 RMK SLP236 T01570117 57007 IEM_DS3505
ZGKL,2007-10-16 19:00,ZGKL 161900Z AUTO 00000KT 1 1/2SM 13/13 A3018 RMK T01300130 IEM_DS3505
ZGKL,2007-10-16 20:00,ZGKL 162000Z AUTO 32004KT 1 1/4SM 13/12 A3018 RMK T01300120 IEM_DS3505
ZGKL,2007-10-16 21:00,ZGKL 162100Z AUTO 36004KT 6SM 15/12 A3018 RMK SLP224 T01470117 57013 IEM_DS3505
ZGKL,2007-10-16 22:00,ZGKL 162200Z AUTO 1 1/2SM 13/12 A3018 RMK T01300120 IEM_DS3505
ZGKL,2007-10-16 23:00,ZGKL 162300Z AUTO 35004KT 1 1/4SM 13/12 A3021 RMK T01300120 IEM_DS3505
ZGKL,2007-10-17 00:00,ZGKL 170000Z AUTO 02004KT 5SM 16/11 A3024 RMK SLP243 T01560114 52018 IEM_DS3505
ZGKL,2007-10-17 01:00,ZGKL 170100Z AUTO 2 1/2SM 16/13 A3024 RMK T01600130 IEM_DS3505
ZGKL,2007-10-17 02:00,ZGKL 170200Z AUTO 4SM 20/13 A3024 RMK T02000130 IEM_DS3505
ZGKL,2007-10-17 03:00,ZGKL 170300Z AUTO 02010KT 5SM 22/10 A3021 RMK SLP236 T02210096 57005 IEM_DS3505
ZGKL,2007-10-17 04:00,ZGKL 170400Z AUTO 05008KT 5SM 23/10 A3018 RMK T02300100 IEM_DS3505
ZGKL,2007-10-17 05:00,ZGKL 170500Z AUTO 03012KT 5SM 25/08 A3015 RMK T02500080 IEM_DS3505
ZGKL,2007-10-17 06:00,ZGKL 170600Z AUTO 02008KT 7SM 25/07 A3009 RMK SLP197 T02530074 57037 IEM_DS3505
ZGKL,2007-10-17 07:00,ZGKL 170700Z AUTO 06010KT 6SM 26/07 A3009 RMK T02600070 IEM_DS3505
ZGKL,2007-10-17 08:00,ZGKL 170800Z AUTO 05010KT 6SM 25/08 A3006 RMK T02500080 IEM_DS3505
ZGKL,2007-10-17 09:00,ZGKL 170900Z AUTO 02004KT 7SM 25/07 A3006 RMK SLP186 T02470069 57012 IEM_DS3505
ZGKL,2007-10-17 10:00,ZGKL 171000Z AUTO 05008KT 6SM 23/07 A3006 RMK T02300070 IEM_DS3505
ZGKL,2007-10-17 11:00,ZGKL 171100Z AUTO 4SM 20/09 A3009 RMK T02000090 IEM_DS3505
ZGKL,2007-10-17 12:00,ZGKL 171200Z AUTO 02004KT 7SM 21/09 A3012 RMK SLP201 T02060092 52014 IEM_DS3505
ZGKL,2007-10-17 13:00,ZGKL 171300Z AUTO 3SM 17/11 A3012 RMK T01700110 IEM_DS3505
ZGKL,2007-10-17 14:00,ZGKL 171400Z AUTO 3SM 16/12 A3012 RMK T01600120 IEM_DS3505
ZGKL,2007-10-17 15:00,ZGKL 171500Z AUTO 02006KT 7SM 19/10 A3012 RMK SLP206 T01890102 52006 IEM_DS3505
ZGKL,2007-10-17 16:00,ZGKL 171600Z AUTO 00000KT 2 1/2SM 15/13 A3012 RMK T01500130 IEM_DS3505
ZGKL,2007-10-17 17:00,ZGKL 171700Z AUTO 00000KT 15/12 A3012 RMK T01500120 IEM_DS3505
ZGKL,2007-10-17 18:00,ZGKL 171800Z AUTO 02002KT 6SM 18/10 A3009 RMK SLP198 T01760105 57007 IEM_DS3505
ZGKL,2007-10-17 19:00,ZGKL 171900Z AUTO 00000KT 15/13 A3009 RMK T01500130 IEM_DS3505
ZGKL,2007-10-17 21:00,ZGKL 172100Z AUTO 02004KT 6SM 18/11 RMK SLP196 T01810112 57002 IEM_DS3505
ZGKL,2007-10-17 23:00,ZGKL 172300Z AUTO 00000KT 1 1/2SM 16/14 A3012 RMK T01600140 IEM_DS3505
ZGKL,2007-10-18 00:00,ZGKL 180000Z AUTO 02004KT 6SM 18/11 A3015 RMK SLP214 T01830114 52017 IEM_DS3505
ZGKL,2007-10-18 01:00,ZGKL 180100Z AUTO 00000KT 3SM 18/14 A3015 RMK T01800140 IEM_DS3505
ZGKL,2007-10-18 02:00,ZGKL 180200Z AUTO 4SM 21/12 A3018 RMK T02100120 IEM_DS3505
ZGKL,2007-10-18 03:00,ZGKL 180300Z AUTO 04004KT 5SM 22/12 A3015 RMK SLP215 T02220116 52001 IEM_DS3505
ZGKL,2007-10-18 04:00,ZGKL 180400Z AUTO 4SM 24/12 A3012 RMK T02400120 IEM_DS3505
ZGKL,2007-10-18 05:00,ZGKL 180500Z AUTO 4SM 25/11 A3009 RMK T02500110 IEM_DS3505
ZGKL,2007-10-18 06:00,ZGKL 180600Z AUTO 02006KT 5SM 26/09 A3006 RMK SLP180 T02640093 57033 IEM_DS3505
ZGKL,2007-10-18 07:00,ZGKL 180700Z AUTO 4SM 26/10 A3003 RMK T02600100 IEM_DS3505
ZGKL,2007-10-18 08:00,ZGKL 180800Z AUTO 4SM 26/10 A3003 RMK T02600100 IEM_DS3505
ZGKL,2007-10-18 09:00,ZGKL 180900Z AUTO 02006KT 6SM 25/10 A3003 RMK SLP174 T02490096 57006 IEM_DS3505
ZGKL,2007-10-18 10:00,ZGKL 181000Z AUTO 04006KT 4SM 25/11 A3006 RMK T02500110 IEM_DS3505
ZGKL,2007-10-18 11:00,ZGKL 181100Z AUTO 4SM 23/12 A3006 RMK T02300120 IEM_DS3505
ZGKL,2007-10-18 12:00,ZGKL 181200Z AUTO 02006KT 5SM 22/12 A3009 RMK SLP201 T02240115 52025 IEM_DS3505
ZGKL,2007-10-18 13:00,ZGKL 181300Z AUTO 02014KT 4SM 22/12 A3012 RMK T02200120 IEM_DS3505
ZGKL,2007-10-18 14:00,ZGKL 181400Z AUTO 02010KT 3SM 22/12 A3015 RMK T02200120 IEM_DS3505
ZGKL,2007-10-18 15:00,ZGKL 181500Z AUTO 02008KT 5SM 21/12 A3015 RMK SLP216 T02120115 52016 IEM_DS3505
ZGKL,2007-10-18 16:00,ZGKL 181600Z AUTO 3SM 21/12 A3015 RMK T02100120 IEM_DS3505
ZGKL,2007-10-18 17:00,ZGKL 181700Z AUTO 3SM 20/12 A3015 RMK T02000120 IEM_DS3505
ZGKL,2007-10-18 18:00,ZGKL 181800Z AUTO 02008KT 5SM 20/11 A3015 RMK SLP214 T01980110 57001 IEM_DS3505
ZGKL,2007-10-18 19:00,ZGKL 181900Z AUTO 4SM 19/10 A3015 RMK T01900100 IEM_DS3505
ZGKL,2007-10-18 20:00,ZGKL 182000Z AUTO 32006KT 4SM 17/11 A3015 RMK T01700110 IEM_DS3505
ZGKL,2007-10-18 21:00,ZGKL 182100Z AUTO 36004KT 5SM 19/10 A3018 RMK 70000 SLP221 T01890102 52006 IEM_DS3505
ZGKL,2007-10-18 22:00,ZGKL 182200Z AUTO 32004KT 4SM 17/11 A3021 RMK T01700110 IEM_DS3505
ZGKL,2007-10-18 23:00,ZGKL 182300Z AUTO 00000KT 4SM 16/11 A3021 RMK T01600110 IEM_DS3505
ZGKL,2007-10-19 00:00,ZGKL 190000Z AUTO 36006KT 5SM 19/10 A3024 RMK 60000 70000 SLP244 T01900103 52022 IEM_DS3505
ZGKL,2007-10-19 01:00,ZGKL 190100Z AUTO 4SM 20/11 A3027 RMK T02000110 IEM_DS3505
ZGKL,2007-10-19 02:00,ZGKL 190200Z AUTO 4SM 22/09 A3027 RMK T02200090 IEM_DS3505
ZGKL,2007-10-19 03:00,ZGKL 190300Z AUTO 04008KT 6SM 22/07 A3024 RMK SLP248 T02230073 52004 IEM_DS3505
ZGKL,2007-10-19 04:00,ZGKL 190400Z AUTO 05012KT 5SM 23/07 A3021 RMK T02300070 IEM_DS3505
ZGKL,2007-10-19 05:00,ZGKL 190500Z AUTO 05008KT 4SM 24/07 A3018 RMK T02400070 IEM_DS3505
ZGKL,2007-10-19 06:00,ZGKL 190600Z AUTO 02008KT 9SM 25/04 A3015 RMK SLP213 T02480035 57034 IEM_DS3505
ZGKL,2007-10-19 07:00,ZGKL 190700Z AUTO 6SM 25/05 A3012 RMK T02500050 IEM_DS3505
ZGKL,2007-10-19 08:00,ZGKL 190800Z AUTO 06010KT 6SM 25/05 A3012 RMK T02500050 IEM_DS3505
ZGKL,2007-10-19 09:00,ZGKL 190900Z AUTO 02008KT 11SM 24/02 A3012 RMK SLP200 T02450020 57013 IEM_DS3505
ZGKL,2007-10-19 10:00,ZGKL 191000Z AUTO 05008KT 6SM 23/04 A3012 RMK T02300040 IEM_DS3505
ZGKL,2007-10-19 11:00,ZGKL 191100Z AUTO 6SM 20/06 A3012 RMK T02000060 IEM_DS3505
ZGKL,2007-10-19 12:00,ZGKL 191200Z AUTO 02004KT 9SM 20/05 A3015 RMK SLP215 T02020047 52014 IEM_DS3505
ZGKL,2007-10-19 13:00,ZGKL 191300Z AUTO 35006KT 4SM 17/09 A3015 RMK T01700090 IEM_DS3505
ZGKL,2007-10-19 14:00,ZGKL 191400Z AUTO 31004KT 3SM 15/11 A3018 RMK T01500110 IEM_DS3505
ZGKL,2007-10-19 15:00,ZGKL 191500Z AUTO 36006KT 9SM 19/07 A3018 RMK SLP223 T01890074 52008 IEM_DS3505
ZGKL,2007-10-19 16:00,ZGKL 191600Z AUTO 00000KT 2 1/2SM 14/11 A3018 RMK T01400110 IEM_DS3505
ZGKL,2007-10-19 17:00,ZGKL 191700Z AUTO 31004KT 2 1/2SM 13/11 A3018 RMK T01300110 IEM_DS3505
ZGKL,2007-10-19 18:00,ZGKL 191800Z AUTO 02006KT 9SM 18/05 A3015 RMK SLP218 T01800046 57004 IEM_DS3505
ZGKL,2007-10-19 19:00,ZGKL 191900Z AUTO 00000KT 2 1/2SM 13/11 A3015 RMK T01300110 IEM_DS3505
ZGKL,2007-10-19 20:00,ZGKL 192000Z AUTO 00000KT 2 1/2SM 13/11 A3015 RMK T01300110 IEM_DS3505
ZGKL,2007-10-19 21:00,ZGKL 192100Z AUTO 02006KT 9SM 17/05 A3015 RMK 70000 SLP216 T01700053 57003 IEM_DS3505
ZGKL,2007-10-19 22:00,ZGKL 192200Z AUTO 00000KT 2SM 11/10 A3015 RMK T01100100 IEM_DS3505
ZGKL,2007-10-19 23:00,ZGKL 192300Z AUTO 00000KT 2SM 11/11 A3018 RMK T01100110 IEM_DS3505
ZGKL,2007-10-20 00:00,ZGKL 200000Z AUTO 02004KT 8SM 17/05 A3018 RMK SLP230 T01740050 52013 IEM_DS3505
ZGKL,2007-10-20 01:00,ZGKL 200100Z AUTO 4SM 16/11 A3021 RMK T01600110 IEM_DS3505
ZGKL,2007-10-20 02:00,ZGKL 200200Z AUTO 6SM 20/07 A3021 RMK T02000070 IEM_DS3505
ZGKL,2007-10-20 03:00,ZGKL 200300Z AUTO 36008KT 8SM 23/03 A3018 RMK SLP222 T02310026 57007 IEM_DS3505
ZGKL,2007-10-20 04:00,ZGKL 200400Z AUTO 6SM 25/03 A3015 RMK T02500030 IEM_DS3505
ZGKL,2007-10-20 05:00,ZGKL 200500Z AUTO 07008KT 6SM 26/02 A3012 RMK T02600020 IEM_DS3505
ZGKL,2007-10-20 06:00,ZGKL 200600Z AUTO 36008KT 8SM 27/03 A3006 RMK SLP184 T02670026 57036 IEM_DS3505
ZGKL,2007-10-20 07:00,ZGKL 200700Z AUTO 6SM 27/04 A3003 RMK T02700040 IEM_DS3505
ZGKL,2007-10-20 08:00,ZGKL 200800Z AUTO 09006KT 6SM 27/04 A3003 RMK T02700040 IEM_DS3505
ZGKL,2007-10-20 09:00,ZGKL 200900Z AUTO 02006KT 10SM 26/M00 A3003 RMK SLP172 T02581003 57012 IEM_DS3505
ZGKL,2007-10-20 10:00,ZGKL 201000Z AUTO 07006KT 6SM 24/04 A3003 RMK T02400040 IEM_DS3505
ZGKL,2007-10-20 11:00,ZGKL 201100Z AUTO 06010KT 6SM 23/00 A3006 RMK T02300000 IEM_DS3505
ZGKL,2007-10-20 12:00,ZGKL 201200Z AUTO 36004KT 8SM 21/02 A3009 RMK SLP190 T02100018 52016 IEM_DS3505
ZGKL,2007-10-20 13:00,ZGKL 201300Z AUTO 34002KT 6SM 19/06 A3009 RMK T01900060 IEM_DS3505
ZGKL,2007-10-20 14:00,ZGKL 201400Z AUTO 00000KT 6SM 18/10 A3009 RMK T01800100 IEM_DS3505
ZGKL,2007-10-20 15:00,ZGKL 201500Z AUTO 02004KT 8SM 21/05 A3009 RMK SLP197 T02070047 52009 IEM_DS3505
ZGKL,2007-10-20 16:00,ZGKL 201600Z AUTO 00000KT 5SM 17/11 A3009 RMK T01700110 IEM_DS3505
ZGKL,2007-10-20 17:00,ZGKL 201700Z AUTO 00000KT 5SM 17/12 A3009 RMK T01700120 IEM_DS3505
ZGKL,2007-10-20 18:00,ZGKL 201800Z AUTO 02004KT 8SM 20/06 A3009 RMK SLP188 T02010057 57008 IEM_DS3505
ZGKL,2007-10-20 19:00,ZGKL 201900Z AUTO 00000KT 17/13 A3006 RMK T01700130 IEM_DS3505
ZGKL,2007-10-20 20:00,ZGKL 202000Z AUTO 00000KT 17/13 A3006 RMK T01700130 IEM_DS3505
ZGKL,2007-10-20 21:00,ZGKL 202100Z AUTO 02004KT 7SM 19/ A3006 RMK SLP185 57004 IEM_DS3505
ZGKL,2007-10-20 22:00,ZGKL 202200Z AUTO 00000KT 4SM 16/14 A3009 RMK T01600140 IEM_DS3505
ZGKL,2007-10-20 23:00,ZGKL 202300Z AUTO 00000KT 5SM 16/14 A3009 RMK T01600140 IEM_DS3505
ZGKL,2007-10-21 00:00,ZGKL 210000Z AUTO 02002KT 6SM 19/07 A3012 RMK SLP202 T01870069 52015 IEM_DS3505
ZGKL,2007-10-21 01:00,ZGKL 210100Z AUTO 00000KT 5SM 19/12 A3012 RMK T01900120 IEM_DS3505
ZGKL,2007-10-21 02:00,ZGKL 210200Z AUTO 4SM 22/08 A3012 RMK T02200080 IEM_DS3505
ZGKL,2007-10-21 03:00,ZGKL 210300Z AUTO 32002KT 6SM 23/05 A3012 RMK SLP200 T02330048 54000 IEM_DS3505
ZGKL,2007-10-21 04:00,ZGKL 210400Z AUTO 4SM 25/06 A3009 RMK T02500060 IEM_DS3505
ZGKL,2007-10-21 05:00,ZGKL 210500Z AUTO 4SM 26/06 A3003 RMK T02600060 IEM_DS3505
ZGKL,2007-10-21 06:00,ZGKL 210600Z AUTO 18004KT 5SM 28/06 A3000 RMK SLP157 T02750063 57042 IEM_DS3505
ZGKL,2007-10-21 07:00,ZGKL 210700Z AUTO 4SM 28/07 A2997 RMK T02800070 IEM_DS3505
ZGKL,2007-10-21 08:00,ZGKL 210800Z AUTO 17006KT 4SM 28/07 A2994 RMK T02800070 IEM_DS3505
ZGKL,2007-10-21 09:00,ZGKL 210900Z AUTO 18002KT 5SM 27/07 A2994 RMK SLP142 T02720066 57015 IEM_DS3505
ZGKL,2007-10-21 10:00,ZGKL 211000Z AUTO 3SM 26/08 A2994 RMK T02600080 IEM_DS3505
ZGKL,2007-10-21 11:00,ZGKL 211100Z AUTO 29004KT 3SM 21/12 A2997 RMK T02100120 IEM_DS3505
ZGKL,2007-10-21 12:00,ZGKL 211200Z AUTO 36004KT 6SM 22/11 A2997 RMK SLP158 T02170111 52014 IEM_DS3505
ZGKL,2007-10-21 13:00,ZGKL 211300Z AUTO 31004KT 2 1/2SM 18/14 A3003 RMK T01800140 IEM_DS3505
ZGKL,2007-10-21 14:00,ZGKL 211400Z AUTO 32006KT 2 1/2SM 17/13 A3003 RMK T01700130 IEM_DS3505
ZGKL,2007-10-21 15:00,ZGKL 211500Z AUTO 02004KT 6SM 20/09 A3003 RMK SLP174 T02040087 52017 IEM_DS3505
ZGKL,2007-10-21 16:00,ZGKL 211600Z AUTO 00000KT 3SM 16/13 A3003 RMK T01600130 IEM_DS3505
ZGKL,2007-10-21 17:00,ZGKL 211700Z AUTO 00000KT 16/13 A3003 RMK T01600130 IEM_DS3505
ZGKL,2007-10-21 18:00,ZGKL 211800Z AUTO 02002KT 6SM 19/10 A3003 RMK SLP168 T01860097 57005 IEM_DS3505
ZGKL,2007-10-21 19:00,ZGKL 211900Z AUTO 00000KT 14/13 A3003 RMK T01400130 IEM_DS3505
ZGKL,2007-10-21 20:00,ZGKL 212000Z AUTO 00000KT 14/13 A3000 RMK T01400130 IEM_DS3505
ZGKL,2007-10-21 21:00,ZGKL 212100Z AUTO 04002KT 6SM 16/11 A3003 RMK SLP168 T01630106 57001 IEM_DS3505
ZGKL,2007-10-21 22:00,ZGKL 212200Z AUTO 00000KT 2SM 14/13 A3003 RMK T01400130 IEM_DS3505
ZGKL,2007-10-21 23:00,ZGKL 212300Z AUTO 00000KT 2SM 13/12 A3006 RMK T01300120 IEM_DS3505
ZGKL,2007-10-22 00:00,ZGKL 220000Z AUTO 02002KT 5SM 17/11 A3006 RMK SLP190 T01660107 52020 IEM_DS3505
ZGKL,2007-10-22 01:00,ZGKL 220100Z AUTO 00000KT 2 1/2SM 18/14 A3009 RMK T01800140 IEM_DS3505
ZGKL,2007-10-22 02:00,ZGKL 220200Z AUTO 00000KT 3SM 21/12 A3009 RMK T02100120 IEM_DS3505
ZGKL,2007-10-22 03:00,ZGKL 220300Z AUTO 22002KT 4SM 24/10 A3006 RMK SLP185 T02360096 57003 IEM_DS3505
ZGKL,2007-10-22 04:00,ZGKL 220400Z AUTO 3SM 26/09 A3003 RMK T02600090 IEM_DS3505
ZGKL,2007-10-22 05:00,ZGKL 220500Z AUTO 14006KT 3SM 26/10 A3000 RMK T02600100 IEM_DS3505
ZGKL,2007-10-22 06:00,ZGKL 220600Z AUTO 18002KT 6SM 28/10 A2994 RMK SLP147 T02770095 57037 IEM_DS3505
ZGKL,2007-10-22 07:00,ZGKL 220700Z AUTO 00000KT 3SM 28/11 A2994 RMK T02800110 IEM_DS3505
ZGKL,2007-10-22 08:00,ZGKL 220800Z AUTO 00000KT 3SM 29/11 A2991 RMK T02900110 IEM_DS3505
ZGKL,2007-10-22 09:00,ZGKL 220900Z AUTO 11002KT 6SM 28/10 A2991 RMK SLP135 T02790097 57012 IEM_DS3505
ZGKL,2007-10-22 10:00,ZGKL 221000Z AUTO 00000KT 3SM 26/13 A2994 RMK T02600130 IEM_DS3505
ZGKL,2007-10-22 11:00,ZGKL 221100Z AUTO 00000KT 2 1/2SM 22/15 A2994 RMK T02200150 IEM_DS3505
ZGKL,2007-10-22 12:00,ZGKL 221200Z AUTO 02004KT 6SM 23/13 A2997 RMK SLP155 T02330132 52018 IEM_DS3505
ZGKL,2007-10-22 13:00,ZGKL 221300Z AUTO 2SM 19/15 A3000 RMK T01900150 IEM_DS3505
ZGKL,2007-10-22 14:00,ZGKL 221400Z AUTO 00000KT 2SM 19/15 A3003 RMK T01900150 IEM_DS3505
ZGKL,2007-10-22 15:00,ZGKL 221500Z AUTO 02004KT 6SM 22/11 A3003 RMK SLP171 T02150112 52017 IEM_DS3505
ZGKL,2007-10-22 16:00,ZGKL 221600Z AUTO 00000KT 2SM 18/15 A3003 RMK T01800150 IEM_DS3505
ZGKL,2007-10-22 17:00,ZGKL 221700Z AUTO 00000KT 17/15 A3003 RMK T01700150 IEM_DS3505
ZGKL,2007-10-22 18:00,ZGKL 221800Z AUTO 04004KT 5SM 20/11 A3003 RMK SLP168 T02030110 57002 IEM_DS3505
ZGKL,2007-10-22 19:00,ZGKL 221900Z AUTO 00000KT 16/15 A3000 RMK T01600150 IEM_DS3505
ZGKL,2007-10-22 20:00,ZGKL 222000Z AUTO 00000KT 1 1/4SM 16/14 A3000 RMK T01600140 IEM_DS3505
ZGKL,2007-10-22 21:00,ZGKL 222100Z AUTO 36004KT 5SM 19/10 A3000 RMK SLP163 T01920105 57005 IEM_DS3505
ZGKL,2007-10-22 22:00,ZGKL 222200Z AUTO 00000KT 1SM 15/14 A3003 RMK T01500140 IEM_DS3505
ZGKL,2007-10-22 23:00,ZGKL 222300Z AUTO 00000KT 1 1/4SM 16/15 A3006 RMK T01600150 IEM_DS3505
ZGKL,2007-10-23 00:00,ZGKL 230000Z AUTO 02002KT 4SM 20/12 A3009 RMK SLP190 T02010116 52026 IEM_DS3505
ZGKL,2007-10-23 01:00,ZGKL 230100Z AUTO 00000KT 2SM 19/15 A3012 RMK T01900150 IEM_DS3505
ZGKL,2007-10-23 02:00,ZGKL 230200Z AUTO 00000KT 2SM 22/13 A3012 RMK T02200130 IEM_DS3505
ZGKL,2007-10-23 03:00,ZGKL 230300Z AUTO 02004KT 4SM 25/11 A3009 RMK SLP188 T02500108 57001 IEM_DS3505
ZGKL,2007-10-23 04:00,ZGKL 230400Z AUTO 2 1/2SM 26/11 A3006 RMK T02600110 IEM_DS3505
ZGKL,2007-10-23 05:00,ZGKL 230500Z AUTO 2 1/2SM 27/11 A3003 RMK T02700110 IEM_DS3505
ZGKL,2007-10-23 06:00,ZGKL 230600Z AUTO 02002KT 4SM 29/10 A2997 RMK SLP153 T02860103 57034 IEM_DS3505
ZGKL,2007-10-23 07:00,ZGKL 230700Z AUTO 30004KT 2 1/2SM 29/11 A2997 RMK T02900110 IEM_DS3505
ZGKL,2007-10-23 08:00,ZGKL 230800Z AUTO 09004KT 3SM 29/11 A2994 RMK T02900110 IEM_DS3505
ZGKL,2007-10-23 09:00,ZGKL 230900Z AUTO 04002KT 4SM 28/11 A2994 RMK SLP144 T02800111 57009 IEM_DS3505
ZGKL,2007-10-23 10:00,ZGKL 231000Z AUTO 00000KT 2 1/2SM 27/13 A2997 RMK T02700130 IEM_DS3505
ZGKL,2007-10-23 11:00,ZGKL 231100Z AUTO 00000KT 2SM 22/16 A2997 RMK T02200160 IEM_DS3505
ZGKL,2007-10-23 12:00,ZGKL 231200Z AUTO 04004KT 4SM 24/11 A3000 RMK SLP167 T02370114 52021 IEM_DS3505
ZGKL,2007-10-23 13:00,ZGKL 231300Z AUTO 2SM 21/14 A3003 RMK T02100140 IEM_DS3505
ZGKL,2007-10-23 14:00,ZGKL 231400Z AUTO 00000KT 2SM 19/15 A3006 RMK T01900150 IEM_DS3505
ZGKL,2007-10-23 15:00,ZGKL 231500Z AUTO 02006KT 4SM 22/11 A3006 RMK SLP185 T02230108 52019 IEM_DS3505
ZGKL,2007-10-23 16:00,ZGKL 231600Z AUTO 00000KT 1 1/4SM 18/16 A3009 RMK T01800160 IEM_DS3505
ZGKL,2007-10-23 17:00,ZGKL 231700Z AUTO 00000KT 1 1/4SM 17/15 A3006 RMK T01700150 IEM_DS3505
ZGKL,2007-10-23 18:00,ZGKL 231800Z AUTO 36004KT 4SM 21/11 RMK SLP179 T02080112 57005 IEM_DS3505
ZGKL,2007-10-23 19:00,ZGKL 231900Z AUTO 00000KT 1SM 16/15 A3006 RMK T01600150 IEM_DS3505
ZGKL,2007-10-23 20:00,ZGKL 232000Z AUTO 00000KT 1SM 16/15 A3006 RMK T01600150 IEM_DS3505
ZGKL,2007-10-23 21:00,ZGKL 232100Z AUTO 36002KT 4SM 20/11 A3006 RMK SLP176 T01990114 57004 IEM_DS3505
ZGKL,2007-10-23 22:00,ZGKL 232200Z AUTO 00000KT 1SM 15/15 A3006 RMK T01500150 IEM_DS3505
ZGKL,2007-10-23 23:00,ZGKL 232300Z AUTO 00000KT 1SM 15/14 A3009 RMK T01500140 IEM_DS3505
ZGKL,2007-10-24 00:00,ZGKL 240000Z AUTO 36002KT 4SM 19/12 A3012 RMK SLP199 T01910124 52021 IEM_DS3505
ZGKL,2007-10-24 01:00,ZGKL 240100Z AUTO 00000KT 1 1/2SM 19/16 A3012 RMK T01900160 IEM_DS3505
ZGKL,2007-10-24 02:00,ZGKL 240200Z AUTO 00000KT 2 1/2SM 22/16 A3012 RMK T02200160 IEM_DS3505
ZGKL,2007-10-24 03:00,ZGKL 240300Z AUTO 02002KT 4SM 25/12 A3009 RMK SLP194 T02500119 57003 IEM_DS3505
ZGKL,2007-10-24 04:00,ZGKL 240400Z AUTO 3SM 26/12 A3006 RMK T02600120 IEM_DS3505
ZGKL,2007-10-24 05:00,ZGKL 240500Z AUTO 2 1/2SM 27/12 A3003 RMK T02700120 IEM_DS3505
ZGKL,2007-10-24 06:00,ZGKL 240600Z AUTO 02004KT 3SM 29/11 A3000 RMK SLP160 T02910112 57033 IEM_DS3505
ZGKL,2007-10-24 07:00,ZGKL 240700Z AUTO 15004KT 2 1/2SM 29/11 A2997 RMK T02900110 IEM_DS3505
ZGKL,2007-10-24 08:00,ZGKL 240800Z AUTO 00000KT 2 1/2SM 29/12 A2997 RMK T02900120 IEM_DS3505
ZGKL,2007-10-24 09:00,ZGKL 240900Z AUTO 07002KT 3SM 29/11 A2997 RMK SLP149 T02880114 57011 IEM_DS3505
ZGKL,2007-10-24 10:00,ZGKL 241000Z AUTO 00000KT 2 1/2SM 26/15 A2997 RMK T02600150 IEM_DS3505
ZGKL,2007-10-24 11:00,ZGKL 241100Z AUTO 00000KT 2SM 23/16 A2997 RMK T02300160 IEM_DS3505
ZGKL,2007-10-24 12:00,ZGKL 241200Z AUTO 02004KT 3SM 24/13 A3000 RMK SLP167 T02430132 52016 IEM_DS3505
ZGKL,2007-10-24 13:00,ZGKL 241300Z AUTO 32006KT 2SM 20/17 A3003 RMK T02000170 IEM_DS3505
ZGKL,2007-10-24 14:00,ZGKL 241400Z AUTO 00000KT 2SM 20/17 A3006 RMK T02000170 IEM_DS3505
ZGKL,2007-10-24 15:00,ZGKL 241500Z AUTO 02006KT 3SM 22/13 A3009 RMK SLP185 T02230131 52019 IEM_DS3505
ZGKL,2007-10-24 16:00,ZGKL 241600Z AUTO 00000KT 1 1/2SM 18/16 A3006 RMK T01800160 IEM_DS3505
ZGKL,2007-10-24 17:00,ZGKL 241700Z AUTO 00000KT 1 1/2SM 18/16 A3006 RMK T01800160 IEM_DS3505
ZGKL,2007-10-24 18:00,ZGKL 241800Z AUTO 02004KT 3SM 21/13 A3006 RMK SLP180 T02100132 57004 IEM_DS3505
ZGKL,2007-10-24 19:00,ZGKL 241900Z AUTO 00000KT 17/16 A3006 RMK T01700160 IEM_DS3505
ZGKL,2007-10-24 20:00,ZGKL 242000Z AUTO 00000KT 16/15 A3006 RMK T01600150 IEM_DS3505
ZGKL,2007-10-24 21:00,ZGKL 242100Z AUTO 36004KT 3SM 20/13 A3006 RMK SLP178 T02030130 57002 IEM_DS3505
ZGKL,2007-10-24 22:00,ZGKL 242200Z AUTO 00000KT 1SM 16/15 A3006 RMK T01600150 IEM_DS3505
ZGKL,2007-10-24 23:00,ZGKL 242300Z AUTO 00000KT 1SM 15/15 A3009 RMK T01500150 IEM_DS3505
ZGKL,2007-10-25 00:00,ZGKL 250000Z AUTO 04004KT 3SM 20/14 A3012 RMK SLP200 T02010136 52020 IEM_DS3505
ZGKL,2007-10-25 01:00,ZGKL 250100Z AUTO 00000KT 1 1/2SM 19/17 A3012 RMK T01900170 IEM_DS3505
ZGKL,2007-10-25 02:00,ZGKL 250200Z AUTO 00000KT 1 1/2SM 22/16 A3015 RMK T02200160 IEM_DS3505
ZGKL,2007-10-25 03:00,ZGKL 250300Z AUTO 36008KT 3SM 25/13 A3012 RMK SLP201 T02470133 52001 IEM_DS3505
ZGKL,2007-10-25 04:00,ZGKL 250400Z AUTO 2 1/2SM 26/15 A3009 RMK T02600150 IEM_DS3505
ZGKL,2007-10-25 05:00,ZGKL 250500Z AUTO 2 1/2SM 27/14 A3003 RMK T02700140 IEM_DS3505
ZGKL,2007-10-25 06:00,ZGKL 250600Z AUTO 36006KT 3SM 29/13 A3000 RMK SLP160 T02890128 57039 IEM_DS3505
ZGKL,2007-10-25 07:00,ZGKL 250700Z AUTO 06006KT 2 1/2SM 29/13 A2997 RMK T02900130 IEM_DS3505
ZGKL,2007-10-25 08:00,ZGKL 250800Z AUTO 3SM 29/13 A2997 RMK T02900130 IEM_DS3505
ZGKL,2007-10-25 09:00,ZGKL 250900Z AUTO 02006KT 3SM 28/13 A2997 RMK SLP148 T02760128 57012 IEM_DS3505
ZGKL,2007-10-25 10:00,ZGKL 251000Z AUTO 06008KT 2 1/2SM 26/13 A2997 RMK T02600130 IEM_DS3505
ZGKL,2007-10-25 11:00,ZGKL 251100Z AUTO 06010KT 2SM 25/13 A2997 RMK T02500130 IEM_DS3505
ZGKL,2007-10-25 12:00,ZGKL 251200Z AUTO 02006KT 3SM 23/13 A3003 RMK SLP170 T02340130 52020 IEM_DS3505
ZGKL,2007-10-25 13:00,ZGKL 251300Z AUTO 00000KT 1 1/2SM 22/14 A3003 RMK T02200140 IEM_DS3505
ZGKL,2007-10-25 14:00,ZGKL 251400Z AUTO 00000KT 1 1/2SM 20/16 A3006 RMK T02000160 IEM_DS3505
ZGKL,2007-10-25 15:00,ZGKL 251500Z AUTO 02004KT 3SM 22/13 A3006 RMK SLP180 T02170128 52011 IEM_DS3505
ZGKL,2007-10-25 16:00,ZGKL 251600Z AUTO 00000KT 1 1/4SM 18/16 A3006 RMK T01800160 IEM_DS3505
ZGKL,2007-10-25 17:00,ZGKL 251700Z AUTO 00000KT 1 1/4SM 17/16 A3006 RMK T01700160 IEM_DS3505
ZGKL,2007-10-25 18:00,ZGKL 251800Z AUTO 02004KT 4SM 20/13 A3006 RMK SLP176 T01990129 57003 IEM_DS3505
ZGKL,2007-10-25 19:00,ZGKL 251900Z AUTO 00000KT 16/15 A3006 RMK T01600150 IEM_DS3505
ZGKL,2007-10-25 20:00,ZGKL 252000Z AUTO 00000KT 2SM 16/15 A3003 RMK T01600150 IEM_DS3505
ZGKL,2007-10-25 21:00,ZGKL 252100Z AUTO 36004KT 4SM 19/13 A3006 RMK SLP177 T01940131 54000 IEM_DS3505
ZGKL,2007-10-25 22:00,ZGKL 252200Z AUTO 00000KT 1 1/2SM 15/14 A3006 RMK T01500140 IEM_DS3505
ZGKL,2007-10-25 23:00,ZGKL 252300Z AUTO 00000KT 1SM 15/14 A3006 RMK T01500140 IEM_DS3505
ZGKL,2007-10-26 00:00,ZGKL 260000Z AUTO 02006KT 3SM 20/14 A3009 RMK SLP190 T01980140 52011 IEM_DS3505
ZGKL,2007-10-26 01:00,ZGKL 260100Z AUTO 00000KT 1SM 19/17 A3009 RMK T01900170 IEM_DS3505
ZGKL,2007-10-26 02:00,ZGKL 260200Z AUTO 00000KT 1 1/2SM 22/15 A3009 RMK T02200150 IEM_DS3505
ZGKL,2007-10-26 03:00,ZGKL 260300Z AUTO 36004KT 3SM 25/14 A3009 RMK SLP185 T02510143 57003 IEM_DS3505
ZGKL,2007-10-26 04:00,ZGKL 260400Z AUTO 00000KT 2SM 26/14 A3006 RMK T02600140 IEM_DS3505
ZGKL,2007-10-26 05:00,ZGKL 260500Z AUTO 2 1/2SM 27/14 A3000 RMK T02700140 IEM_DS3505
ZGKL,2007-10-26 06:00,ZGKL 260600Z AUTO 22004KT 4SM 29/13 A2997 RMK SLP146 T02870134 57038 IEM_DS3505
ZGKL,2007-10-26 07:00,ZGKL 260700Z AUTO 2 1/2SM 29/13 A2994 RMK T02900130 IEM_DS3505
ZGKL,2007-10-26 08:00,ZGKL 260800Z AUTO 2 1/2SM 29/13 A2991 RMK T02900130 IEM_DS3505
ZGKL,2007-10-26 09:00,ZGKL 260900Z AUTO 14002KT 4SM 29/13 A2991 RMK SLP126 T02860129 57020 IEM_DS3505
ZGKL,2007-10-26 10:00,ZGKL 261000Z AUTO 00000KT 2 1/2SM 26/15 A2991 RMK T02600150 IEM_DS3505
ZGKL,2007-10-26 11:00,ZGKL 261100Z AUTO 00000KT 2SM 23/16 A2991 RMK T02300160 IEM_DS3505
ZGKL,2007-10-26 12:00,ZGKL 261200Z AUTO 36006KT 4SM 25/16 A2994 RMK SLP139 T02460156 52006 IEM_DS3505
ZGKL,2007-10-26 13:00,ZGKL 261300Z AUTO 31004KT 1 1/4SM 20/17 A2994 RMK T02000170 IEM_DS3505
ZGKL,2007-10-26 14:00,ZGKL 261400Z AUTO 00000KT 1 1/4SM 19/17 A2997 RMK T01900170 IEM_DS3505
ZGKL,2007-10-26 15:00,ZGKL 261500Z AUTO 36006KT 4SM 22/15 A2997 RMK SLP147 T02230152 52008 IEM_DS3505
ZGKL,2007-10-26 16:00,ZGKL 261600Z AUTO 00000KT 1SM 17/16 A2997 RMK T01700160 IEM_DS3505
ZGKL,2007-10-26 17:00,ZGKL 261700Z AUTO 00000KT 1SM 17/16 A2997 RMK T01700160 IEM_DS3505
ZGKL,2007-10-26 18:00,ZGKL 261800Z AUTO 32002KT 4SM 21/15 A2994 RMK SLP143 T02070148 57004 IEM_DS3505
ZGKL,2007-10-26 19:00,ZGKL 261900Z AUTO 00000KT 1SM 16/15 A2994 RMK T01600150 IEM_DS3505
ZGKL,2007-10-26 20:00,ZGKL 262000Z AUTO 00000KT 1SM 16/15 A2994 RMK T01600150 IEM_DS3505
ZGKL,2007-10-26 21:00,ZGKL 262100Z AUTO 02002KT 4SM 18/15 A2994 RMK SLP145 T01840149 52002 IEM_DS3505
ZGKL,2007-10-26 22:00,ZGKL 262200Z AUTO 00000KT 1SM 15/15 A2997 RMK T01500150 IEM_DS3505
ZGKL,2007-10-26 23:00,ZGKL 262300Z AUTO 00000KT 1SM 15/15 A2997 RMK T01500150 IEM_DS3505
ZGKL,2007-10-27 00:00,ZGKL 270000Z AUTO 09002KT 2SM 18/15 A3000 RMK SLP159 T01840153 52012 IEM_DS3505
ZGKL,2007-10-27 01:00,ZGKL 270100Z AUTO 00000KT 1 1/4SM 19/17 A3000 RMK T01900170 IEM_DS3505
ZGKL,2007-10-27 02:00,ZGKL 270200Z AUTO 00000KT 2SM 22/16 A3000 RMK T02200160 IEM_DS3505
ZGKL,2007-10-27 03:00,ZGKL 270300Z AUTO 18002KT 3SM 24/16 A2997 RMK SLP152 T02440156 57006 IEM_DS3505
ZGKL,2007-10-27 04:00,ZGKL 270400Z AUTO 00000KT 2SM 27/16 A2994 RMK T02700160 IEM_DS3505
ZGKL,2007-10-27 05:00,ZGKL 270500Z AUTO 2 1/2SM 28/15 A2991 RMK T02800150 IEM_DS3505
ZGKL,2007-10-27 06:00,ZGKL 270600Z AUTO 14004KT 3SM 29/15 A2985 RMK SLP111 T02880150 57039 IEM_DS3505
ZGKL,2007-10-27 07:00,ZGKL 270700Z AUTO 15004KT 2 1/2SM 30/16 A2983 RMK T03000160 IEM_DS3505
ZGKL,2007-10-27 08:00,ZGKL 270800Z AUTO 14004KT 2 1/2SM 30/15 A2980 RMK T03000150 IEM_DS3505
ZGKL,2007-10-27 09:00,ZGKL 270900Z AUTO 16002KT 3SM 29/15 A2980 RMK SLP090 T02930151 57021 IEM_DS3505
ZGKL,2007-10-27 10:00,ZGKL 271000Z AUTO 00000KT 2SM 25/18 A2980 RMK T02500180 IEM_DS3505
ZGKL,2007-10-27 11:00,ZGKL 271100Z AUTO 00000KT 1 1/4SM 23/19 A2983 RMK T02300190 IEM_DS3505
ZGKL,2007-10-27 12:00,ZGKL 271200Z AUTO 36002KT 3SM 24/16 A2985 RMK SLP107 T02400165 52015 IEM_DS3505
ZGKL,2007-10-27 13:00,ZGKL 271300Z AUTO 00000KT 1 1/4SM 21/18 A2985 RMK T02100180 IEM_DS3505
ZGKL,2007-10-27 14:00,ZGKL 271400Z AUTO 00000KT 1 1/4SM 21/18 A2988 RMK T02100180 IEM_DS3505
ZGKL,2007-10-27 15:00,ZGKL 271500Z AUTO 02002KT 3SM 22/16 A2988 RMK SLP122 T02190160 52016 IEM_DS3505
ZGKL,2007-10-27 16:00,ZGKL 271600Z AUTO 00000KT 1SM 19/17 A2988 RMK T01900170 IEM_DS3505
ZGKL,2007-10-27 17:00,ZGKL 271700Z AUTO 00000KT 1SM 18/17 A2991 RMK T01800170 IEM_DS3505
ZGKL,2007-10-27 18:00,ZGKL 271800Z AUTO 34002KT 3SM 20/16 A2991 RMK SLP131 T02030155 52009 IEM_DS3505
ZGKL,2007-10-27 19:00,ZGKL 271900Z AUTO 19004KT 1SM 18/17 A2991 RMK T01800170 IEM_DS3505
ZGKL,2007-10-27 20:00,ZGKL 272000Z AUTO 1SM 18/17 A2991 RMK T01800170 IEM_DS3505
ZGKL,2007-10-27 21:00,ZGKL 272100Z AUTO 09002KT 2 1/2SM 19/16 A2991 RMK SLP129 T01940157 57002 IEM_DS3505
ZGKL,2007-10-27 22:00,ZGKL 272200Z AUTO 00000KT 1SM 18/17 A2991 RMK T01800170 IEM_DS3505
ZGKL,2007-10-27 23:00,ZGKL 272300Z AUTO 00000KT 1SM 17/16 A2994 RMK T01700160 IEM_DS3505
ZGKL,2007-10-28 00:00,ZGKL 280000Z AUTO 02002KT 2 1/2SM 20/16 A2997 RMK SLP153 T02000160 52022 IEM_DS3505
ZGKL,2007-10-28 01:00,ZGKL 280100Z AUTO 00000KT 1SM 20/18 A3000 RMK T02000180 IEM_DS3505
ZGKL,2007-10-28 02:00,ZGKL 280200Z AUTO 00000KT 1 1/4SM 23/18 A3000 RMK T02300180 IEM_DS3505
ZGKL,2007-10-28 03:00,ZGKL 280300Z AUTO 09002KT 2 1/2SM 26/16 A3000 RMK SLP157 T02570163 52005 IEM_DS3505
ZGKL,2007-10-28 04:00,ZGKL 280400Z AUTO 00000KT 2SM 28/17 A2997 RMK T02800170 IEM_DS3505
ZGKL,2007-10-28 05:00,ZGKL 280500Z AUTO 2SM 29/17 A2991 RMK T02900170 IEM_DS3505
ZGKL,2007-10-28 06:00,ZGKL 280600Z AUTO 20002KT 3SM 30/16 A2988 RMK SLP117 T02950163 57038 IEM_DS3505
ZGKL,2007-10-28 07:00,ZGKL 280700Z AUTO 00000KT 2 1/2SM 30/17 A2985 RMK T03000170 IEM_DS3505
ZGKL,2007-10-28 08:00,ZGKL 280800Z AUTO 00000KT 3SM 29/16 A2985 RMK T02900160 IEM_DS3505
ZGKL,2007-10-28 09:00,ZGKL 280900Z AUTO 02010KT 3SM 26/15 A2985 RMK SLP113 T02630147 57005 IEM_DS3505
ZGKL,2007-10-28 10:00,ZGKL 281000Z AUTO 05014KT 2SM 25/15 A2988 RMK T02500150 IEM_DS3505
ZGKL,2007-10-28 11:00,ZGKL 281100Z AUTO 03010KT 2SM 24/15 A2991 RMK T02400150 IEM_DS3505
ZGKL,2007-10-28 12:00,ZGKL 281200Z AUTO 02008KT 3SM 22/14 A2994 RMK SLP146 T02230142 52031 IEM_DS3505
ZGKL,2007-10-28 13:00,ZGKL 281300Z AUTO 06006KT 1 1/4SM 22/15 A2997 RMK T02200150 IEM_DS3505
ZGKL,2007-10-28 14:00,ZGKL 281400Z AUTO 1 1/4SM 21/15 A3000 RMK T02100150 IEM_DS3505
ZGKL,2007-10-28 15:00,ZGKL 281500Z AUTO 02012KT 3SM 19/12 A3000 RMK SLP168 T01930123 52022 IEM_DS3505
ZGKL,2007-10-28 16:00,ZGKL 281600Z AUTO 07006KT 2 1/2SM 19/13 A3003 RMK T01900130 IEM_DS3505
ZGKL,2007-10-28 17:00,ZGKL 281700Z AUTO 06006KT 2 1/2SM 18/12 A3003 RMK T01800120 IEM_DS3505
ZGKL,2007-10-28 18:00,ZGKL 281800Z AUTO 02010KT 3SM 18/11 A3003 RMK SLP177 T01760107 52010 IEM_DS3505
ZGKL,2007-10-28 19:00,ZGKL 281900Z AUTO 06008KT 18/12 A3003 RMK T01800120 IEM_DS3505
ZGKL,2007-10-28 20:00,ZGKL 282000Z AUTO 17/11 A3003 RMK T01700110 IEM_DS3505
ZGKL,2007-10-28 21:00,ZGKL 282100Z AUTO 02010KT 3SM 17/09 A3006 RMK SLP181 T01670094 52003 IEM_DS3505
ZGKL,2007-10-28 22:00,ZGKL 282200Z AUTO 05006KT 3SM 17/10 A3006 RMK T01700100 IEM_DS3505
ZGKL,2007-10-28 23:00,ZGKL 282300Z AUTO 07006KT 3SM 16/10 A3009 RMK T01600100 IEM_DS3505
ZGKL,2007-10-29 00:00,ZGKL 290000Z AUTO 02012KT 6SM 16/09 A3012 RMK SLP205 T01610088 52022 IEM_DS3505
ZGKL,2007-10-29 01:00,ZGKL 290100Z AUTO 05008KT 3SM 17/10 A3015 RMK T01700100 IEM_DS3505
ZGKL,2007-10-29 02:00,ZGKL 290200Z AUTO 08008KT 3SM 18/10 A3015 RMK T01800100 IEM_DS3505
ZGKL,2007-10-29 03:00,ZGKL 290300Z AUTO 02010KT 6SM 16/09 A3015 RMK SLP223 T01650094 52016 IEM_DS3505
ZGKL,2007-10-29 04:00,ZGKL 290400Z AUTO 3SM 19/10 A3015 RMK T01900100 IEM_DS3505
ZGKL,2007-10-29 05:00,ZGKL 290500Z AUTO 07008KT 4SM 18/10 A3012 RMK T01800100 IEM_DS3505
ZGKL,2007-10-29 06:00,ZGKL 290600Z AUTO 02010KT 7SM 17/10 A3009 RMK SLP201 T01720099 57022 IEM_DS3505
ZGKL,2007-10-29 07:00,ZGKL 290700Z AUTO 05010KT 4SM 20/11 A3006 RMK T02000110 IEM_DS3505
ZGKL,2007-10-29 08:00,ZGKL 290800Z AUTO 07012KT 3SM 18/10 A3006 RMK T01800100 IEM_DS3505
ZGKL,2007-10-29 09:00,ZGKL 290900Z AUTO 02010KT 7SM 15/09 A3009 RMK SLP198 T01530092 57003 IEM_DS3505
ZGKL,2007-10-29 10:00,ZGKL 291000Z AUTO 06012KT 2 1/2SM 15/10 A3009 RMK T01500100 IEM_DS3505
ZGKL,2007-10-29 11:00,ZGKL 291100Z AUTO 04008KT 2 1/2SM 15/10 A3012 RMK T01500100 IEM_DS3505
ZGKL,2007-10-29 12:00,ZGKL 291200Z AUTO 02008KT 7SM 13/09 A3018 RMK SLP232 T01330086 52032 IEM_DS3505
ZGKL,2007-10-29 13:00,ZGKL 291300Z AUTO 06010KT 2 1/2SM 14/09 A3021 RMK T01400090 IEM_DS3505
ZGKL,2007-10-29 14:00,ZGKL 291400Z AUTO 06010KT 3SM 13/09 A3021 RMK T01300090 IEM_DS3505
ZGKL,2007-10-29 15:00,ZGKL 291500Z AUTO 02010KT 7SM 13/08 A3021 RMK SLP244 T01270080 52012 IEM_DS3505
ZGKL,2007-10-29 16:00,ZGKL 291600Z AUTO 04006KT 3SM 13/09 A3021 RMK T01300090 IEM_DS3505
ZGKL,2007-10-29 17:00,ZGKL 291700Z AUTO 05004KT 12/09 A3018 RMK T01200090 IEM_DS3505
ZGKL,2007-10-29 18:00,ZGKL 291800Z AUTO 02008KT 7SM 12/08 A3018 RMK SLP233 T01200075 57011 IEM_DS3505
ZGKL,2007-10-29 19:00,ZGKL 291900Z AUTO 11/09 A3018 RMK T01100090 IEM_DS3505
ZGKL,2007-10-29 20:00,ZGKL 292000Z AUTO 5SM 11/09 A3018 RMK T01100090 IEM_DS3505
ZGKL,2007-10-29 21:00,ZGKL 292100Z AUTO 02010KT 7SM 12/07 A3018 RMK SLP234 T01150072 54000 IEM_DS3505
ZGKL,2007-10-29 22:00,ZGKL 292200Z AUTO 00000KT 5SM 11/08 A3021 RMK T01100080 IEM_DS3505
ZGKL,2007-10-29 23:00,ZGKL 292300Z AUTO 3SM 11/08 A3021 RMK T01100080 IEM_DS3505
ZGKL,2007-10-30 00:00,ZGKL 300000Z AUTO 02010KT 7SM 12/07 A3024 RMK SLP246 T01210074 52011 IEM_DS3505
ZGKL,2007-10-30 01:00,ZGKL 300100Z AUTO 00000KT 5SM 13/09 A3024 RMK T01300090 IEM_DS3505
ZGKL,2007-10-30 02:00,ZGKL 300200Z AUTO 07008KT 6SM 15/09 A3024 RMK T01500090 IEM_DS3505
ZGKL,2007-10-30 03:00,ZGKL 300300Z AUTO 04006KT 8SM 16/08 A3021 RMK SLP242 T01590082 57002 IEM_DS3505
ZGKL,2007-10-30 04:00,ZGKL 300400Z AUTO 08006KT 6SM 18/09 A3018 RMK T01800090 IEM_DS3505
ZGKL,2007-10-30 05:00,ZGKL 300500Z AUTO 09006KT 6SM 19/09 A3015 RMK T01900090 IEM_DS3505
ZGKL,2007-10-30 06:00,ZGKL 300600Z AUTO 07004KT 10SM 20/09 A3012 RMK SLP206 T01960086 57035 IEM_DS3505
ZGKL,2007-10-30 07:00,ZGKL 300700Z AUTO 07006KT 6SM 21/09 A3009 RMK T02100090 IEM_DS3505
ZGKL,2007-10-30 08:00,ZGKL 300800Z AUTO 08006KT 6SM 21/09 A3009 RMK T02100090 IEM_DS3505
ZGKL,2007-10-30 09:00,ZGKL 300900Z AUTO 04006KT 10SM 19/09 A3009 RMK SLP198 T01880093 57008 IEM_DS3505
ZGKL,2007-10-30 10:00,ZGKL 301000Z AUTO 06008KT 6SM 18/10 A3009 RMK T01800100 IEM_DS3505
ZGKL,2007-10-30 11:00,ZGKL 301100Z AUTO 05008KT 6SM 16/09 A3009 RMK T01600090 IEM_DS3505
ZGKL,2007-10-30 12:00,ZGKL 301200Z AUTO 02004KT 9SM 14/09 A3012 RMK SLP218 T01450091 52018 IEM_DS3505
ZGKL,2007-10-30 13:00,ZGKL 301300Z AUTO 4SM 14/10 A3015 RMK T01400100 IEM_DS3505
ZGKL,2007-10-30 14:00,ZGKL 301400Z AUTO 4SM 14/09 A3015 RMK T01400090 IEM_DS3505
ZGKL,2007-10-30 15:00,ZGKL 301500Z AUTO 02004KT 9SM 14/09 A3015 RMK SLP221 T01370087 52004 IEM_DS3505
ZGKL,2007-10-30 16:00,ZGKL 301600Z AUTO 00000KT 3SM 13/10 A3018 RMK T01300100 IEM_DS3505
ZGKL,2007-10-30 17:00,ZGKL 301700Z AUTO 3SM 13/10 A3018 RMK T01300100 IEM_DS3505
ZGKL,2007-10-30 18:00,ZGKL 301800Z AUTO 07006KT 9SM 14/09 A3018 RMK SLP227 T01420090 52008 IEM_DS3505
ZGKL,2007-10-30 19:00,ZGKL 301900Z AUTO 14/10 A3018 RMK T01400100 IEM_DS3505
ZGKL,2007-10-30 20:00,ZGKL 302000Z AUTO 14/10 A3018 RMK T01400100 IEM_DS3505
ZGKL,2007-10-30 21:00,ZGKL 302100Z AUTO 02006KT 7SM 14/09 A3018 RMK SLP224 T01410089 57004 IEM_DS3505
ZGKL,2007-10-30 22:00,ZGKL 302200Z AUTO 00000KT 3SM 14/10 A3018 RMK T01400100 IEM_DS3505
ZGKL,2007-10-30 23:00,ZGKL 302300Z AUTO 00000KT 3SM 14/10 A3018 RMK T01400100 IEM_DS3505
ZGKL,2007-10-31 00:00,ZGKL 310000Z AUTO 02006KT 6SM 15/09 A3018 RMK SLP233 T01500094 52008 IEM_DS3505
ZGKL,2007-10-31 01:00,ZGKL 310100Z AUTO 3SM 15/10 A3021 RMK T01500100 IEM_DS3505
ZGKL,2007-10-31 02:00,ZGKL 310200Z AUTO 3SM 17/11 A3021 RMK T01700110 IEM_DS3505
ZGKL,2007-10-31 03:00,ZGKL 310300Z AUTO 02006KT 7SM 18/10 A3018 RMK SLP231 T01810097 57001 IEM_DS3505
ZGKL,2007-10-31 04:00,ZGKL 310400Z AUTO 4SM 19/11 A3018 RMK T01900110 IEM_DS3505
ZGKL,2007-10-31 05:00,ZGKL 310500Z AUTO 4SM 20/11 A3015 RMK T02000110 IEM_DS3505
ZGKL,2007-10-31 06:00,ZGKL 310600Z AUTO 07006KT 7SM 21/10 A3012 RMK SLP206 T02060104 57024 IEM_DS3505
ZGKL,2007-10-31 07:00,ZGKL 310700Z AUTO 09004KT 4SM 21/11 A3012 RMK T02100110 IEM_DS3505
ZGKL,2007-10-31 08:00,ZGKL 310800Z AUTO 11004KT 4SM 21/11 A3012 RMK T02100110 IEM_DS3505
ZGKL,2007-10-31 09:00,ZGKL 310900Z AUTO 07004KT 7SM 20/11 A3012 RMK SLP208 T01970107 52002 IEM_DS3505
ZGKL,2007-10-31 10:00,ZGKL 311000Z AUTO 14004KT 3SM 19/12 A3012 RMK T01900120 IEM_DS3505
ZGKL,2007-10-31 11:00,ZGKL 311100Z AUTO 00000KT 2 1/2SM 18/13 A3015 RMK T01800130 IEM_DS3505
ZGKL,2007-10-31 12:00,ZGKL 311200Z AUTO 36006KT 7SM 17/11 A3018 RMK SLP231 T01740108 52022 IEM_DS3505
ZGKL,2007-10-31 13:00,ZGKL 311300Z AUTO 2 1/2SM 17/12 A3021 RMK T01700120 IEM_DS3505
ZGKL,2007-10-31 14:00,ZGKL 311400Z AUTO 05008KT 2 1/2SM 16/13 A3021 RMK T01600130 IEM_DS3505
ZGKL,2007-10-31 15:00,ZGKL 311500Z AUTO 02010KT 6SM 15/12 A3024 RMK SLP244 T01530117 52013 IEM_DS3505
ZGKL,2007-10-31 16:00,ZGKL 311600Z AUTO 1 1/2SM 15/13 A3024 RMK T01500130 IEM_DS3505
ZGKL,2007-10-31 17:00,ZGKL 311700Z AUTO 15/13 A3024 RMK T01500130 IEM_DS3505
ZGKL,2007-10-31 18:00,ZGKL 311800Z AUTO 02008KT 5SM 14/12 A3024 RMK 60008 SLP244 T01400120 52001 IEM_DS3505
ZGKL,2007-10-31 19:00,ZGKL 311900Z AUTO 04006KT 14/13 A3024 RMK T01400130 IEM_DS3505
ZGKL,2007-10-31 20:00,ZGKL 312000Z AUTO 14/13 A3024 RMK T01400130 IEM_DS3505
ZGKL,2007-10-31 21:00,ZGKL 312100Z AUTO 36008KT 4SM 14/12 RMK 70025 SLP248 T01370118 52003 IEM_DS3505
ZGKL,2007-10-31 22:00,ZGKL 312200Z AUTO 05004KT 2SM 14/13 A3024 RMK T01400130 IEM_DS3505
ZGKL,2007-10-31 23:00,ZGKL 312300Z AUTO 05006KT 2SM 14/12 A3027 RMK T01400120 IEM_DS3505
ZGKL,2007-11-01 00:00,ZGKL 010000Z AUTO 36010KT 4SM 14/11 A3030 RMK 60028 70037 SLP269 T01360113 52020 IEM_DS3505
ZGKL,2007-11-01 01:00,ZGKL 010100Z AUTO 2 1/2SM 14/13 A3033 RMK T01400130 IEM_DS3505
ZGKL,2007-11-01 02:00,ZGKL 010200Z AUTO 02006KT 2SM 14/13 A3033 RMK T01400130 IEM_DS3505
ZGKL,2007-11-01 03:00,ZGKL 010300Z AUTO 36012KT 5SM 14/11 A3033 RMK SLP284 T01400112 52014 IEM_DS3505
ZGKL,2007-11-01 04:00,ZGKL 010400Z AUTO 04008KT 5SM 15/13 A3033 RMK T01500130 IEM_DS3505
ZGKL,2007-11-01 05:00,ZGKL 010500Z AUTO 04008KT 5SM 16/12 A3030 RMK T01600120 IEM_DS3505
ZGKL,2007-11-01 06:00,ZGKL 010600Z AUTO 02008KT 8SM 16/09 A3027 RMK 60004 SLP263 T01640093 57020 IEM_DS3505
ZGKL,2007-11-01 07:00,ZGKL 010700Z AUTO 03012KT 7SM 17/10 A3027 RMK T01700100 IEM_DS3505
ZGKL,2007-11-01 08:00,ZGKL 010800Z AUTO 04010KT 7SM 17/09 A3027 RMK T01700090 IEM_DS3505
ZGKL,2007-11-01 09:00,ZGKL 010900Z AUTO 02010KT 7SM 16/08 A3027 RMK SLP258 T01650080 57005 IEM_DS3505
ZGKL,2007-11-01 10:00,ZGKL 011000Z AUTO 02006KT 7SM 16/10 A3027 RMK T01600100 IEM_DS3505
ZGKL,2007-11-01 11:00,ZGKL 011100Z AUTO 34006KT 5SM 15/11 A3030 RMK T01500110 IEM_DS3505
ZGKL,2007-11-01 12:00,ZGKL 011200Z AUTO 02008KT 7SM 16/07 A3030 RMK SLP271 T01580068 52012 IEM_DS3505
ZGKL,2007-11-01 13:00,ZGKL 011300Z AUTO 35006KT 5SM 15/10 A3030 RMK T01500100 IEM_DS3505
ZGKL,2007-11-01 14:00,ZGKL 011400Z AUTO 4SM 14/11 A3030 RMK T01400110 IEM_DS3505
ZGKL,2007-11-01 15:00,ZGKL 011500Z AUTO 02008KT 7SM 15/06 A3030 RMK SLP273 T01540056 52002 IEM_DS3505
ZGKL,2007-11-01 16:00,ZGKL 011600Z AUTO 5SM 15/09 A3030 RMK T01500090 IEM_DS3505
ZGKL,2007-11-01 17:00,ZGKL 011700Z AUTO 00000KT 5SM 14/10 A3027 RMK T01400100 IEM_DS3505
ZGKL,2007-11-01 18:00,ZGKL 011800Z AUTO 36006KT 7SM 15/06 A3027 RMK SLP259 T01500060 57013 IEM_DS3505
ZGKL,2007-11-01 19:00,ZGKL 011900Z AUTO 00000KT 14/10 A3027 RMK T01400100 IEM_DS3505
ZGKL,2007-11-01 20:00,ZGKL 012000Z AUTO 00000KT 13/10 A3024 RMK T01300100 IEM_DS3505
ZGKL,2007-11-01 21:00,ZGKL 012100Z AUTO 02006KT 7SM 14/06 A3024 RMK 70017 SLP246 T01420056 57013 IEM_DS3505
ZGKL,2007-11-01 22:00,ZGKL 012200Z AUTO 00000KT 4SM 13/11 A3024 RMK T01300110 IEM_DS3505
ZGKL,2007-11-01 23:00,ZGKL 012300Z AUTO 00000KT 4SM 13/11 A3027 RMK T01300110 IEM_DS3505
ZGKL,2007-11-02 00:00,ZGKL 020000Z AUTO 36010KT 6SM 14/04 A3027 RMK 70005 SLP258 T01450039 52012 IEM_DS3505
ZGKL,2007-11-02 01:00,ZGKL 020100Z AUTO 4SM 15/08 A3030 RMK T01500080 IEM_DS3505
ZGKL,2007-11-02 02:00,ZGKL 020200Z AUTO 05008KT 5SM 16/06 A3027 RMK T01600060 IEM_DS3505
ZGKL,2007-11-02 03:00,ZGKL 020300Z AUTO 36012KT 6SM 16/03 A3024 RMK SLP252 T01600034 57006 IEM_DS3505
ZGKL,2007-11-02 04:00,ZGKL 020400Z AUTO 7SM 18/04 A3021 RMK T01800040 IEM_DS3505
ZGKL,2007-11-02 05:00,ZGKL 020500Z AUTO 7SM 18/04 A3018 RMK T01800040 IEM_DS3505
ZGKL,2007-11-02 06:00,ZGKL 020600Z AUTO 36008KT 7SM 18/04 A3015 RMK SLP214 T01780044 57036 IEM_DS3505
ZGKL,2007-11-02 07:00,ZGKL 020700Z AUTO 03010KT 6SM 19/02 A3012 RMK T01900020 IEM_DS3505
ZGKL,2007-11-02 08:00,ZGKL 020800Z AUTO 05008KT 6SM 19/02 A3009 RMK T01900020 IEM_DS3505
ZGKL,2007-11-02 09:00,ZGKL 020900Z AUTO 36006KT 8SM 19/04 A3009 RMK SLP201 T01860044 57013 IEM_DS3505
ZGKL,2007-11-02 10:00,ZGKL 021000Z AUTO 00000KT 6SM 17/07 A3012 RMK T01700070 IEM_DS3505
ZGKL,2007-11-02 11:00,ZGKL 021100Z AUTO 00000KT 6SM 16/09 A3012 RMK T01600090 IEM_DS3505
ZGKL,2007-11-02 12:00,ZGKL 021200Z AUTO 02006KT 8SM 16/04 A3015 RMK SLP222 T01630037 52020 IEM_DS3505
ZGKL,2007-11-02 13:00,ZGKL 021300Z AUTO 35004KT 6SM 14/11 A3018 RMK T01400110 IEM_DS3505
ZGKL,2007-11-02 14:00,ZGKL 021400Z AUTO 34004KT 6SM 14/11 A3018 RMK T01400110 IEM_DS3505
ZGKL,2007-11-02 15:00,ZGKL 021500Z AUTO 02004KT 8SM 16/05 A3018 RMK SLP234 T01560049 52012 IEM_DS3505
ZGKL,2007-11-02 16:00,ZGKL 021600Z AUTO 00000KT 6SM 13/10 A3018 RMK T01300100 IEM_DS3505
ZGKL,2007-11-02 17:00,ZGKL 021700Z AUTO 00000KT 5SM 13/11 A3018 RMK T01300110 IEM_DS3505
ZGKL,2007-11-02 18:00,ZGKL 021800Z AUTO 36004KT 7SM 15/06 A3018 RMK SLP232 T01480064 57002 IEM_DS3505
ZGKL,2007-11-02 19:00,ZGKL 021900Z AUTO 00000KT 4SM 13/11 A3015 RMK T01300110 IEM_DS3505
ZGKL,2007-11-02 20:00,ZGKL 022000Z AUTO 00000KT 4SM 13/11 A3015 RMK T01300110 IEM_DS3505
ZGKL,2007-11-02 21:00,ZGKL 022100Z AUTO 36004KT 7SM 15/06 A3018 RMK SLP226 T01460064 57006 IEM_DS3505
ZGKL,2007-11-02 22:00,ZGKL 022200Z AUTO 00000KT 4SM 13/11 A3015 RMK T01300110 IEM_DS3505
ZGKL,2007-11-02 23:00,ZGKL 022300Z AUTO 00000KT 4SM 12/11 A3015 RMK T01200110 IEM_DS3505
ZGKL,2007-11-03 00:00,ZGKL 030000Z AUTO 02006KT 7SM 15/06 A3018 RMK SLP228 T01490062 52002 IEM_DS3505
ZGKL,2007-11-03 01:00,ZGKL 030100Z AUTO 6SM 15/10 A3024 RMK T01500100 IEM_DS3505
ZGKL,2007-11-03 02:00,ZGKL 030200Z AUTO 32002KT 6SM 17/09 A3024 RMK T01700090 IEM_DS3505
ZGKL,2007-11-03 03:00,ZGKL 030300Z AUTO 02008KT 7SM 18/04 A3021 RMK SLP238 T01840042 52010 IEM_DS3505
ZGKL,2007-11-03 04:00,ZGKL 030400Z AUTO 05006KT 6SM 19/05 A3018 RMK T01900050 IEM_DS3505
ZGKL,2007-11-03 05:00,ZGKL 030500Z AUTO 05012KT 7SM 20/04 A3015 RMK T02000040 IEM_DS3505
ZGKL,2007-11-03 06:00,ZGKL 030600Z AUTO 02012KT 9SM 18/03 A3012 RMK SLP210 T01840027 57027 IEM_DS3505
ZGKL,2007-11-03 07:00,ZGKL 030700Z AUTO 03012KT 7SM 19/03 A3009 RMK T01900030 IEM_DS3505
ZGKL,2007-11-03 08:00,ZGKL 030800Z AUTO 7SM 17/09 A3012 RMK T01700090 IEM_DS3505
ZGKL,2007-11-03 09:00,ZGKL 030900Z AUTO 02004KT 6SM 16/08 A3015 RMK SLP219 T01570077 52008 IEM_DS3505
ZGKL,2007-11-03 10:00,ZGKL 031000Z AUTO 4SM 15/10 A3015 RMK T01500100 IEM_DS3505
ZGKL,2007-11-03 11:00,ZGKL 031100Z AUTO 33004KT 2 1/2SM 14/12 A3018 RMK T01400120 IEM_DS3505
ZGKL,2007-11-03 12:00,ZGKL 031200Z AUTO 02004KT 6SM 14/08 A3021 RMK 60000 SLP243 T01420077 52023 IEM_DS3505
ZGKL,2007-11-03 13:00,ZGKL 031300Z AUTO 2SM 14/12 A3024 RMK T01400120 IEM_DS3505
ZGKL,2007-11-03 14:00,ZGKL 031400Z AUTO 33006KT 1 1/2SM 13/12 A3027 RMK T01300120 IEM_DS3505
ZGKL,2007-11-03 15:00,ZGKL 031500Z AUTO 07004KT 5SM 12/09 A3027 RMK SLP255 T01210089 52012 IEM_DS3505
ZGKL,2007-11-03 16:00,ZGKL 031600Z AUTO 2SM 12/11 A3024 RMK T01200110 IEM_DS3505
ZGKL,2007-11-03 17:00,ZGKL 031700Z AUTO 13/12 A3024 RMK T01300120 IEM_DS3505
ZGKL,2007-11-03 18:00,ZGKL 031800Z AUTO 02004KT 6SM 13/08 A3024 RMK 60004 SLP248 T01290076 57007 IEM_DS3505
ZGKL,2007-11-03 19:00,ZGKL 031900Z AUTO 00000KT 12/12 A3024 RMK T01200120 IEM_DS3505
ZGKL,2007-11-03 20:00,ZGKL 032000Z AUTO 00000KT 12/12 A3024 RMK T01200120 IEM_DS3505
ZGKL,2007-11-03 21:00,ZGKL 032100Z AUTO 36004KT 6SM 12/09 A3024 RMK 70005 SLP245 T01250088 57004 IEM_DS3505
ZGKL,2007-11-03 22:00,ZGKL 032200Z AUTO 32006KT 2 1/2SM 12/10 A3024 RMK T01200100 IEM_DS3505
ZGKL,2007-11-03 23:00,ZGKL 032300Z AUTO 6SM 13/08 A3027 RMK T01300080 IEM_DS3505
ZGKL,2007-11-04 00:00,ZGKL 040000Z AUTO 02002KT 5SM 13/08 A3027 RMK 60001 70005 SLP257 T01260083 52012 IEM_DS3505
ZGKL,2007-11-04 01:00,ZGKL 040100Z AUTO 00000KT 7SM 13/11 A3027 RMK T01300110 IEM_DS3505
ZGKL,2007-11-04 02:00,ZGKL 040200Z AUTO 7SM 13/11 A3027 RMK T01300110 IEM_DS3505
ZGKL,2007-11-04 03:00,ZGKL 040300Z AUTO 34004KT 5SM 15/08 A3027 RMK SLP254 T01500080 57003 IEM_DS3505
ZGKL,2007-11-04 04:00,ZGKL 040400Z AUTO 00000KT 7SM 16/08 A3024 RMK T01600080 IEM_DS3505
ZGKL,2007-11-04 05:00,ZGKL 040500Z AUTO 7SM 17/08 A3018 RMK T01700080 IEM_DS3505
ZGKL,2007-11-04 06:00,ZGKL 040600Z AUTO 02004KT 7SM 18/06 A3015 RMK 60000 SLP221 T01820058 57031 IEM_DS3505
ZGKL,2007-11-04 07:00,ZGKL 040700Z AUTO 7SM 19/07 A3015 RMK T01900070 IEM_DS3505
ZGKL,2007-11-04 08:00,ZGKL 040800Z AUTO 7SM 19/07 A3015 RMK T01900070 IEM_DS3505
ZGKL,2007-11-04 09:00,ZGKL 040900Z AUTO 36004KT 8SM 18/06 A3015 RMK SLP221 T01820061 54000 IEM_DS3505
ZGKL,2007-11-04 10:00,ZGKL 041000Z AUTO 04006KT 7SM 17/07 A3015 RMK T01700070 IEM_DS3505
ZGKL,2007-11-04 11:00,ZGKL 041100Z AUTO 6SM 17/06 A3018 RMK T01700060 IEM_DS3505
ZGKL,2007-11-04 12:00,ZGKL 041200Z AUTO 04004KT 8SM 16/04 A3018 RMK SLP232 T01630044 52010 IEM_DS3505
ZGKL,2007-11-04 13:00,ZGKL 041300Z AUTO 00000KT 4SM 14/09 A3018 RMK T01400090 IEM_DS3505
ZGKL,2007-11-04 14:00,ZGKL 041400Z AUTO 30002KT 4SM 13/10 A3021 RMK T01300100 IEM_DS3505
ZGKL,2007-11-04 15:00,ZGKL 041500Z AUTO 02006KT 7SM 15/05 A3021 RMK SLP237 T01500050 52005 IEM_DS3505
ZGKL,2007-11-04 16:00,ZGKL 041600Z AUTO 00000KT 3SM 11/10 A3021 RMK T01100100 IEM_DS3505
ZGKL,2007-11-04 17:00,ZGKL 041700Z AUTO 00000KT 10/09 A3018 RMK T01000090 IEM_DS3505
ZGKL,2007-11-04 18:00,ZGKL 041800Z AUTO 02002KT 7SM 13/05 A3018 RMK SLP230 T01330052 57006 IEM_DS3505
ZGKL,2007-11-04 19:00,ZGKL 041900Z AUTO 00000KT 09/09 A3018 RMK T00900090 IEM_DS3505
ZGKL,2007-11-04 20:00,ZGKL 042000Z AUTO 00000KT 09/08 A3015 RMK T00900080 IEM_DS3505
ZGKL,2007-11-04 21:00,ZGKL 042100Z AUTO 36004KT 7SM 12/05 A3015 RMK 70000 SLP222 T01220049 57008 IEM_DS3505
ZGKL,2007-11-04 22:00,ZGKL 042200Z AUTO 00000KT 2 1/2SM 08/08 A3015 RMK T00800080 IEM_DS3505
ZGKL,2007-11-04 23:00,ZGKL 042300Z AUTO 00000KT 3SM 08/07 A3018 RMK T00800070 IEM_DS3505
ZGKL,2007-11-05 00:00,ZGKL 050000Z AUTO 36004KT 8SM 14/05 A3018 RMK 70000 SLP232 T01350046 52009 IEM_DS3505
ZGKL,2007-11-05 01:00,ZGKL 050100Z AUTO 00000KT 6SM 13/09 A3021 RMK T01300090 IEM_DS3505
ZGKL,2007-11-05 02:00,ZGKL 050200Z AUTO 6SM 17/07 A3021 RMK T01700070 IEM_DS3505
ZGKL,2007-11-05 03:00,ZGKL 050300Z AUTO 02014KT 7SM 20/03 A3018 RMK SLP226 T01970026 57004 IEM_DS3505
ZGKL,2007-11-05 04:00,ZGKL 050400Z AUTO 6SM 22/03 A3015 RMK T02200030 IEM_DS3505
ZGKL,2007-11-05 05:00,ZGKL 050500Z AUTO 05012KT 6SM 23/00 A3009 RMK T02300000 IEM_DS3505
ZGKL,2007-11-05 06:00,ZGKL 050600Z AUTO 02008KT 9SM 24/00 A3006 RMK SLP185 T02360000 57040 IEM_DS3505
ZGKL,2007-11-05 07:00,ZGKL 050700Z AUTO 6SM 25/M02 A3003 RMK T02501020 IEM_DS3505
ZGKL,2007-11-05 08:00,ZGKL 050800Z AUTO 06010KT 6SM 25/M02 A3003 RMK T02501020 IEM_DS3505
ZGKL,2007-11-05 09:00,ZGKL 050900Z AUTO 02004KT 11SM 24/M03 A3003 RMK SLP178 T02371028 57007 IEM_DS3505
ZGKL,2007-11-05 10:00,ZGKL 051000Z AUTO 04010KT 6SM 21/01 A3006 RMK T02100010 IEM_DS3505
ZGKL,2007-11-05 11:00,ZGKL 051100Z AUTO 04010KT 6SM 20/01 A3006 RMK T02000010 IEM_DS3505
ZGKL,2007-11-05 12:00,ZGKL 051200Z AUTO 02006KT 9SM 19/02 A3009 RMK SLP199 T01890019 52020 IEM_DS3505
ZGKL,2007-11-05 13:00,ZGKL 051300Z AUTO 00000KT 6SM 13/08 A3012 RMK T01300080 IEM_DS3505
ZGKL,2007-11-05 14:00,ZGKL 051400Z AUTO 00000KT 6SM 12/08 A3012 RMK T01200080 IEM_DS3505
ZGKL,2007-11-05 15:00,ZGKL 051500Z AUTO 02006KT 9SM 18/02 A3012 RMK SLP206 T01820025 52008 IEM_DS3505
ZGKL,2007-11-05 16:00,ZGKL 051600Z AUTO 00000KT 5SM 10/08 A3012 RMK T01000080 IEM_DS3505
ZGKL,2007-11-05 17:00,ZGKL 051700Z AUTO 00000KT 5SM 10/08 A3012 RMK T01000080 IEM_DS3505
ZGKL,2007-11-05 18:00,ZGKL 051800Z AUTO 36006KT 9SM 16/03 A3012 RMK SLP204 T01640028 57001 IEM_DS3505
ZGKL,2007-11-05 19:00,ZGKL 051900Z AUTO 00000KT 10/07 A3012 RMK T01000070 IEM_DS3505
ZGKL,2007-11-05 20:00,ZGKL 052000Z AUTO 00000KT 08/07 A3012 RMK T00800070 IEM_DS3505
ZGKL,2007-11-05 21:00,ZGKL 052100Z AUTO 02008KT 9SM 15/02 A3012 RMK SLP209 T01540019 52005 IEM_DS3505
ZGKL,2007-11-05 22:00,ZGKL 052200Z AUTO 00000KT 4SM A3015 RMK IEM_DS3505
ZGKL,2007-11-05 23:00,ZGKL 052300Z AUTO 00000KT 5SM 07/06 A3015 RMK T00700060 IEM_DS3505
ZGKL,2007-11-06 00:00,ZGKL 060000Z AUTO 02008KT 7SM 16/02 A3018 RMK SLP226 T01560024 52015 IEM_DS3505
ZGKL,2007-11-06 01:00,ZGKL 060100Z AUTO 00000KT 6SM 13/09 A3018 RMK T01300090 IEM_DS3505
ZGKL,2007-11-06 02:00,ZGKL 060200Z AUTO 6SM 18/06 A3021 RMK T01800060 IEM_DS3505
ZGKL,2007-11-06 03:00,ZGKL 060300Z AUTO 02012KT 7SM 21/03 A3018 RMK SLP224 T02080031 57001 IEM_DS3505
ZGKL,2007-11-06 04:00,ZGKL 060400Z AUTO 32006KT 6SM 23/04 A3015 RMK T02300040 IEM_DS3505
ZGKL,2007-11-06 05:00,ZGKL 060500Z AUTO 04012KT 6SM 25/03 A3009 RMK T02500030 IEM_DS3505
ZGKL,2007-11-06 06:00,ZGKL 060600Z AUTO 02012KT 8SM 24/01 A3006 RMK SLP186 T02440013 57036 IEM_DS3505
ZGKL,2007-11-06 07:00,ZGKL 060700Z AUTO 07006KT 6SM 26/01 A3006 RMK T02600010 IEM_DS3505
ZGKL,2007-11-06 08:00,ZGKL 060800Z AUTO 09010KT 6SM 26/02 A3003 RMK T02600020 IEM_DS3505
ZGKL,2007-11-06 09:00,ZGKL 060900Z AUTO 02006KT 9SM 24/05 A3003 RMK SLP180 T02380047 57007 IEM_DS3505
ZGKL,2007-11-06 10:00,ZGKL 061000Z AUTO 06014KT 5SM 22/04 A3006 RMK T02200040 IEM_DS3505
ZGKL,2007-11-06 11:00,ZGKL 061100Z AUTO 05012KT 5SM 21/02 A3009 RMK T02100020 IEM_DS3505
ZGKL,2007-11-06 12:00,ZGKL 061200Z AUTO 02006KT 8SM 20/04 A3012 RMK SLP202 T01970042 52021 IEM_DS3505
ZGKL,2007-11-06 13:00,ZGKL 061300Z AUTO 32006KT 4SM 16/08 A3012 RMK T01600080 IEM_DS3505
ZGKL,2007-11-06 14:00,ZGKL 061400Z AUTO 00000KT 3SM 13/09 A3015 RMK T01300090 IEM_DS3505
ZGKL,2007-11-06 15:00,ZGKL 061500Z AUTO 04002KT 7SM 18/05 A3015 RMK SLP216 T01750051 52014 IEM_DS3505
ZGKL,2007-11-06 16:00,ZGKL 061600Z AUTO 34006KT 3SM 11/09 A3015 RMK T01100090 IEM_DS3505
ZGKL,2007-11-06 17:00,ZGKL 061700Z AUTO 00000KT 10/08 A3012 RMK T01000080 IEM_DS3505
ZGKL,2007-11-06 18:00,ZGKL 061800Z AUTO 02004KT 7SM 16/04 A3012 RMK SLP204 T01600044 57011 IEM_DS3505
ZGKL,2007-11-06 19:00,ZGKL 061900Z AUTO 00000KT 09/07 A3012 RMK T00900070 IEM_DS3505
ZGKL,2007-11-06 20:00,ZGKL 062000Z AUTO 00000KT 08/07 A3012 RMK T00800070 IEM_DS3505
ZGKL,2007-11-06 21:00,ZGKL 062100Z AUTO 02004KT 7SM 15/04 A3009 RMK SLP200 T01530044 57004 IEM_DS3505
ZGKL,2007-11-06 22:00,ZGKL 062200Z AUTO 00000KT 2 1/2SM A3012 RMK IEM_DS3505
ZGKL,2007-11-06 23:00,ZGKL 062300Z AUTO 00000KT 4SM 07/06 A3012 RMK T00700060 IEM_DS3505
ZGKL,2007-11-07 00:00,ZGKL 070000Z AUTO 02008KT 6SM 16/04 A3015 RMK SLP213 T01550045 52011 IEM_DS3505
ZGKL,2007-11-07 01:00,ZGKL 070100Z AUTO 00000KT 7SM 13/09 A3015 RMK T01300090 IEM_DS3505
ZGKL,2007-11-07 02:00,ZGKL 070200Z AUTO 00000KT 6SM 17/07 A3015 RMK T01700070 IEM_DS3505
ZGKL,2007-11-07 03:00,ZGKL 070300Z AUTO 04006KT 7SM 22/05 A3015 RMK SLP208 T02150046 57003 IEM_DS3505
ZGKL,2007-11-07 04:00,ZGKL 070400Z AUTO 06008KT 4SM 22/04 A3009 RMK T02200040 IEM_DS3505
ZGKL,2007-11-07 05:00,ZGKL 070500Z AUTO 04010KT 5SM 24/04 A3006 RMK T02400040 IEM_DS3505
ZGKL,2007-11-07 06:00,ZGKL 070600Z AUTO 02012KT 8SM 24/02 A3003 RMK SLP169 T02440019 57038 IEM_DS3505
ZGKL,2007-11-07 07:00,ZGKL 070700Z AUTO 04008KT 6SM 25/04 A3000 RMK T02500040 IEM_DS3505
ZGKL,2007-11-07 08:00,ZGKL 070800Z AUTO 04006KT 6SM 25/05 A2997 RMK T02500050 IEM_DS3505
ZGKL,2007-11-07 09:00,ZGKL 070900Z AUTO 02004KT 11SM 24/M02 A2997 RMK SLP158 T02431015 57011 IEM_DS3505
ZGKL,2007-11-07 10:00,ZGKL 071000Z AUTO 05006KT 6SM 21/02 A3000 RMK T02100020 IEM_DS3505
ZGKL,2007-11-07 11:00,ZGKL 071100Z AUTO 29006KT 4SM 17/09 A3003 RMK T01700090 IEM_DS3505
ZGKL,2007-11-07 12:00,ZGKL 071200Z AUTO 36004KT 11SM 20/02 A3003 RMK SLP180 T01950015 52020 IEM_DS3505
ZGKL,2007-11-07 13:00,ZGKL 071300Z AUTO 00000KT 3SM 14/09 A3006 RMK T01400090 IEM_DS3505
ZGKL,2007-11-07 14:00,ZGKL 071400Z AUTO 00000KT 2 1/2SM 12/09 A3006 RMK T01200090 IEM_DS3505
ZGKL,2007-11-07 15:00,ZGKL 071500Z AUTO 02004KT 10SM 17/04 A3006 RMK SLP189 T01700043 52010 IEM_DS3505
ZGKL,2007-11-07 16:00,ZGKL 071600Z AUTO 00000KT 2 1/2SM 11/09 A3006 RMK T01100090 IEM_DS3505
ZGKL,2007-11-07 17:00,ZGKL 071700Z AUTO 00000KT 2 1/2SM 09/08 A3006 RMK T00900080 IEM_DS3505
ZGKL,2007-11-07 18:00,ZGKL 071800Z AUTO 32002KT 9SM 15/05 A3006 RMK SLP181 T01460054 57008 IEM_DS3505
ZGKL,2007-11-07 19:00,ZGKL 071900Z AUTO 00000KT 08/07 A3003 RMK T00800070 IEM_DS3505
ZGKL,2007-11-07 20:00,ZGKL 072000Z AUTO 00000KT 08/07 A3003 RMK T00800070 IEM_DS3505
ZGKL,2007-11-07 21:00,ZGKL 072100Z AUTO 02002KT 8SM 12/06 A3003 RMK SLP180 T01210057 57002 IEM_DS3505
ZGKL,2007-11-07 22:00,ZGKL 072200Z AUTO 00000KT 4SM 08/07 A3006 RMK T00800070 IEM_DS3505
ZGKL,2007-11-07 23:00,ZGKL 072300Z AUTO 00000KT 4SM 07/06 A3006 RMK T00700060 IEM_DS3505
ZGKL,2007-11-08 00:00,ZGKL 080000Z AUTO 04002KT 7SM 13/06 A3009 RMK SLP193 T01320061 52012 IEM_DS3505
ZGKL,2007-11-08 01:00,ZGKL 080100Z AUTO 00000KT 6SM 13/09 A3009 RMK T01300090 IEM_DS3505
ZGKL,2007-11-08 02:00,ZGKL 080200Z AUTO 00000KT 6SM 18/07 A3009 RMK T01800070 IEM_DS3505
ZGKL,2007-11-08 03:00,ZGKL 080300Z AUTO 36008KT 7SM 22/05 A3009 RMK SLP188 T02210051 57003 IEM_DS3505
ZGKL,2007-11-08 04:00,ZGKL 080400Z AUTO 00000KT 6SM 24/06 A3003 RMK T02400060 IEM_DS3505
ZGKL,2007-11-08 05:00,ZGKL 080500Z AUTO 6SM 26/04 A3000 RMK T02600040 IEM_DS3505
ZGKL,2007-11-08 06:00,ZGKL 080600Z AUTO 04008KT 9SM 26/02 A2997 RMK SLP152 T02610021 57035 IEM_DS3505
ZGKL,2007-11-08 07:00,ZGKL 080700Z AUTO 06008KT 6SM 27/05 A2994 RMK T02700050 IEM_DS3505
ZGKL,2007-11-08 08:00,ZGKL 080800Z AUTO 06008KT 6SM 26/05 A2994 RMK T02600050 IEM_DS3505
ZGKL,2007-11-08 09:00,ZGKL 080900Z AUTO 02006KT 11SM 25/04 A2997 RMK SLP150 T02520044 57003 IEM_DS3505
ZGKL,2007-11-08 10:00,ZGKL 081000Z AUTO 04008KT 6SM 23/04 A2997 RMK T02300040 IEM_DS3505
ZGKL,2007-11-08 11:00,ZGKL 081100Z AUTO 6SM 20/08 A3000 RMK T02000080 IEM_DS3505
ZGKL,2007-11-08 12:00,ZGKL 081200Z AUTO 36006KT 8SM 21/05 A3003 RMK SLP175 T02100046 52024 IEM_DS3505
ZGKL,2007-11-08 13:00,ZGKL 081300Z AUTO 6SM 16/09 A3006 RMK T01600090 IEM_DS3505
ZGKL,2007-11-08 14:00,ZGKL 081400Z AUTO 00000KT 6SM 15/09 A3006 RMK T01500090 IEM_DS3505
ZGKL,2007-11-08 15:00,ZGKL 081500Z AUTO 02008KT 8SM 19/06 A3006 RMK SLP188 T01910062 52015 IEM_DS3505
ZGKL,2007-11-08 16:00,ZGKL 081600Z AUTO 00000KT 5SM 12/10 A3006 RMK T01200100 IEM_DS3505
ZGKL,2007-11-08 17:00,ZGKL 081700Z AUTO 00000KT 4SM 12/09 A3006 RMK T01200090 IEM_DS3505
ZGKL,2007-11-08 18:00,ZGKL 081800Z AUTO 36006KT 7SM 18/05 A3006 RMK SLP185 T01790048 57002 IEM_DS3505
ZGKL,2007-11-08 19:00,ZGKL 081900Z AUTO 31004KT 10/09 A3006 RMK T01000090 IEM_DS3505
ZGKL,2007-11-08 20:00,ZGKL 082000Z AUTO 10/08 A3006 RMK T01000080 IEM_DS3505
ZGKL,2007-11-08 21:00,ZGKL 082100Z AUTO 02004KT 7SM 16/04 RMK SLP188 T01640041 52002 IEM_DS3505
ZGKL,2007-11-08 22:00,ZGKL 082200Z AUTO 00000KT 4SM 09/08 A3009 RMK T00900080 IEM_DS3505
ZGKL,2007-11-08 23:00,ZGKL 082300Z AUTO 00000KT 6SM 09/07 A3009 RMK T00900070 IEM_DS3505
ZGKL,2007-11-09 00:00,ZGKL 090000Z AUTO 02006KT 7SM 17/04 A3012 RMK SLP205 T01720038 52016 IEM_DS3505
ZGKL,2007-11-09 01:00,ZGKL 090100Z AUTO 00000KT 6SM 14/10 A3015 RMK T01400100 IEM_DS3505
ZGKL,2007-11-09 02:00,ZGKL 090200Z AUTO 6SM 19/07 A3015 RMK T01900070 IEM_DS3505
ZGKL,2007-11-09 03:00,ZGKL 090300Z AUTO 02010KT 7SM 22/04 A3012 RMK SLP204 T02230044 54000 IEM_DS3505
ZGKL,2007-11-09 04:00,ZGKL 090400Z AUTO 05012KT 6SM 25/05 A3009 RMK T02500050 IEM_DS3505
ZGKL,2007-11-09 05:00,ZGKL 090500Z AUTO 6SM 26/03 A3006 RMK T02600030 IEM_DS3505
ZGKL,2007-11-09 06:00,ZGKL 090600Z AUTO 02010KT 8SM 26/02 A3003 RMK SLP166 T02590019 57037 IEM_DS3505
ZGKL,2007-11-09 07:00,ZGKL 090700Z AUTO 05014KT 6SM 27/01 A3000 RMK T02700010 IEM_DS3505
ZGKL,2007-11-09 08:00,ZGKL 090800Z AUTO 03014KT 6SM 26/00 A2997 RMK T02600000 IEM_DS3505
ZGKL,2007-11-09 09:00,ZGKL 090900Z AUTO 02008KT 8SM 24/02 A2997 RMK SLP159 T02440025 57008 IEM_DS3505
ZGKL,2007-11-09 10:00,ZGKL 091000Z AUTO 05008KT 6SM 22/04 A3000 RMK T02200040 IEM_DS3505
ZGKL,2007-11-09 11:00,ZGKL 091100Z AUTO 05010KT 6SM 21/03 A3000 RMK T02100030 IEM_DS3505
ZGKL,2007-11-09 12:00,ZGKL 091200Z AUTO 02002KT 7SM 20/03 A3003 RMK SLP173 T01950032 52013 IEM_DS3505
ZGKL,2007-11-09 13:00,ZGKL 091300Z AUTO 4SM 15/07 A3006 RMK T01500070 IEM_DS3505
ZGKL,2007-11-09 14:00,ZGKL 091400Z AUTO 00000KT 4SM 14/07 A3006 RMK T01400070 IEM_DS3505
ZGKL,2007-11-09 15:00,ZGKL 091500Z AUTO 04002KT 7SM 18/05 A3009 RMK SLP191 T01830052 52019 IEM_DS3505
ZGKL,2007-11-09 16:00,ZGKL 091600Z AUTO 00000KT 4SM 12/08 A3009 RMK T01200080 IEM_DS3505
ZGKL,2007-11-09 17:00,ZGKL 091700Z AUTO 00000KT 3SM 11/09 A3009 RMK T01100090 IEM_DS3505
ZGKL,2007-11-09 18:00,ZGKL 091800Z AUTO 02006KT 7SM 17/06 A3009 RMK SLP191 T01720055 54000 IEM_DS3505
ZGKL,2007-11-09 19:00,ZGKL 091900Z AUTO 00000KT 3SM 10/08 A3006 RMK T01000080 IEM_DS3505
ZGKL,2007-11-09 20:00,ZGKL 092000Z AUTO 00000KT 3SM 09/08 A3006 RMK T00900080 IEM_DS3505
ZGKL,2007-11-09 21:00,ZGKL 092100Z AUTO 02006KT 7SM 16/07 A3006 RMK SLP185 T01590066 57006 IEM_DS3505
ZGKL,2007-11-09 22:00,ZGKL 092200Z AUTO 00000KT 4SM 09/07 A3009 RMK T00900070 IEM_DS3505
ZGKL,2007-11-09 23:00,ZGKL 092300Z AUTO 00000KT 4SM 08/07 A3012 RMK T00800070 IEM_DS3505
ZGKL,2007-11-10 00:00,ZGKL 100000Z AUTO 02004KT 7SM 16/07 A3015 RMK SLP211 T01590069 52023 IEM_DS3505
ZGKL,2007-11-10 01:00,ZGKL 100100Z AUTO 3SM 14/10 A3015 RMK T01400100 IEM_DS3505
ZGKL,2007-11-10 02:00,ZGKL 100200Z AUTO 00000KT 3SM 18/08 A3018 RMK T01800080 IEM_DS3505
ZGKL,2007-11-10 03:00,ZGKL 100300Z AUTO 36006KT 5SM 22/07 A3015 RMK SLP213 T02150070 52004 IEM_DS3505
ZGKL,2007-11-10 04:00,ZGKL 100400Z AUTO 04008KT 3SM 24/06 A3012 RMK T02400060 IEM_DS3505
ZGKL,2007-11-10 05:00,ZGKL 100500Z AUTO 3SM 25/05 A3009 RMK T02500050 IEM_DS3505
ZGKL,2007-11-10 06:00,ZGKL 100600Z AUTO 02006KT 5SM 25/04 A3003 RMK SLP174 T02540040 57037 IEM_DS3505
ZGKL,2007-11-10 07:00,ZGKL 100700Z AUTO 09008KT 4SM 26/03 A3003 RMK T02600030 IEM_DS3505
ZGKL,2007-11-10 08:00,ZGKL 100800Z AUTO 07006KT 4SM 26/03 A3000 RMK T02600030 IEM_DS3505
ZGKL,2007-11-10 09:00,ZGKL 100900Z AUTO 02006KT 6SM 24/01 A3000 RMK SLP161 T02410011 57014 IEM_DS3505
ZGKL,2007-11-10 10:00,ZGKL 101000Z AUTO 07006KT 4SM 22/03 A3000 RMK T02200030 IEM_DS3505
ZGKL,2007-11-10 11:00,ZGKL 101100Z AUTO 05006KT 4SM 20/02 A3003 RMK T02000020 IEM_DS3505
ZGKL,2007-11-10 12:00,ZGKL 101200Z AUTO 04004KT 7SM 19/05 A3006 RMK SLP187 T01890050 52024 IEM_DS3505
ZGKL,2007-11-10 13:00,ZGKL 101300Z AUTO 3SM 14/08 A3009 RMK T01400080 IEM_DS3505
ZGKL,2007-11-10 14:00,ZGKL 101400Z AUTO 31004KT 3SM 13/08 A3012 RMK T01300080 IEM_DS3505
ZGKL,2007-11-10 15:00,ZGKL 101500Z AUTO 04004KT 7SM 18/07 A3012 RMK SLP203 T01770072 52017 IEM_DS3505
ZGKL,2007-11-10 16:00,ZGKL 101600Z AUTO 00000KT 2 1/2SM 12/09 A3012 RMK T01200090 IEM_DS3505
ZGKL,2007-11-10 18:00,ZGKL 101800Z AUTO 04004KT 7SM 16/08 A3012 RMK SLP203 T01630075 52001 IEM_DS3505
ZGKL,2007-11-10 19:00,ZGKL 101900Z AUTO 00000KT 10/08 A3012 RMK T01000080 IEM_DS3505
ZGKL,2007-11-10 20:00,ZGKL 102000Z AUTO 00000KT 09/08 A3012 RMK T00900080 IEM_DS3505
ZGKL,2007-11-10 21:00,ZGKL 102100Z AUTO 02006KT 7SM 15/08 A3012 RMK SLP202 T01540079 57002 IEM_DS3505
ZGKL,2007-11-10 22:00,ZGKL 102200Z AUTO 00000KT 2SM 09/07 A3012 RMK T00900070 IEM_DS3505
ZGKL,2007-11-10 23:00,ZGKL 102300Z AUTO 00000KT 2SM 09/08 A3015 RMK T00900080 IEM_DS3505
ZGKL,2007-11-11 00:00,ZGKL 110000Z AUTO 02006KT 4SM 15/08 A3015 RMK SLP220 T01520080 52016 IEM_DS3505
ZGKL,2007-11-11 01:00,ZGKL 110100Z AUTO 00000KT 2SM 13/10 A3018 RMK T01300100 IEM_DS3505
ZGKL,2007-11-11 02:00,ZGKL 110200Z AUTO 00000KT 2 1/2SM 17/10 A3018 RMK T01700100 IEM_DS3505
ZGKL,2007-11-11 03:00,ZGKL 110300Z AUTO 02006KT 3SM 20/08 A3015 RMK SLP216 T02020085 57003 IEM_DS3505
ZGKL,2007-11-11 04:00,ZGKL 110400Z AUTO 2 1/2SM 21/09 A3012 RMK T02100090 IEM_DS3505
ZGKL,2007-11-11 05:00,ZGKL 110500Z AUTO 06006KT 2SM 23/08 A3006 RMK T02300080 IEM_DS3505
ZGKL,2007-11-11 06:00,ZGKL 110600Z AUTO 36004KT 3SM 24/07 A3003 RMK SLP172 T02420074 57042 IEM_DS3505
ZGKL,2007-11-11 07:00,ZGKL 110700Z AUTO 07006KT 2 1/2SM 24/07 A3000 RMK T02400070 IEM_DS3505
ZGKL,2007-11-11 08:00,ZGKL 110800Z AUTO 08004KT 2 1/2SM 25/07 A3000 RMK T02500070 IEM_DS3505
ZGKL,2007-11-11 09:00,ZGKL 110900Z AUTO 04004KT 3SM 24/06 A3000 RMK SLP160 T02350063 57012 IEM_DS3505
ZGKL,2007-11-11 10:00,ZGKL 111000Z AUTO 00000KT 2SM 20/10 A3000 RMK T02000100 IEM_DS3505
ZGKL,2007-11-11 11:00,ZGKL 111100Z AUTO 04006KT 2SM 19/08 A3003 RMK T01900080 IEM_DS3505
ZGKL,2007-11-11 12:00,ZGKL 111200Z AUTO 02006KT 3SM 19/07 A3006 RMK SLP185 T01920073 52023 IEM_DS3505
ZGKL,2007-11-11 13:00,ZGKL 111300Z AUTO 34006KT 2SM 17/09 A3009 RMK T01700090 IEM_DS3505
ZGKL,2007-11-11 14:00,ZGKL 111400Z AUTO 1 1/2SM 14/11 A3009 RMK T01400110 IEM_DS3505
ZGKL,2007-11-11 15:00,ZGKL 111500Z AUTO 36006KT 3SM 18/08 A3009 RMK SLP195 T01800077 52011 IEM_DS3505
ZGKL,2007-11-11 16:00,ZGKL 111600Z AUTO 00000KT 1 1/4SM 13/11 A3009 RMK T01300110 IEM_DS3505
ZGKL,2007-11-11 17:00,ZGKL 111700Z AUTO 00000KT 13/10 A3009 RMK T01300100 IEM_DS3505
ZGKL,2007-11-11 18:00,ZGKL 111800Z AUTO 02004KT 3SM 17/08 A3009 RMK SLP193 T01660083 57001 IEM_DS3505
ZGKL,2007-11-11 19:00,ZGKL 111900Z AUTO 00000KT 11/10 A3009 RMK T01100100 IEM_DS3505
ZGKL,2007-11-11 20:00,ZGKL 112000Z AUTO 00000KT 11/10 A3009 RMK T01100100 IEM_DS3505
ZGKL,2007-11-11 21:00,ZGKL 112100Z AUTO 02004KT 3SM 15/08 A3006 RMK SLP189 T01530076 57005 IEM_DS3505
ZGKL,2007-11-11 22:00,ZGKL 112200Z AUTO 00000KT 1 1/4SM 10/09 A3009 RMK T01000090 IEM_DS3505
ZGKL,2007-11-11 23:00,ZGKL 112300Z AUTO 00000KT 1SM 10/09 A3009 RMK T01000090 IEM_DS3505
ZGKL,2007-11-12 00:00,ZGKL 120000Z AUTO 36004KT 3SM 15/08 A3012 RMK SLP206 T01510083 52015 IEM_DS3505
ZGKL,2007-11-12 01:00,ZGKL 120100Z AUTO 00000KT 1SM 13/12 A3012 RMK T01300120 IEM_DS3505
ZGKL,2007-11-12 02:00,ZGKL 120200Z AUTO 00000KT 2 1/2SM 16/11 A3012 RMK T01600110 IEM_DS3505
ZGKL,2007-11-12 03:00,ZGKL 120300Z AUTO 36002KT 3SM 20/09 A3012 RMK SLP201 T02000087 57003 IEM_DS3505
ZGKL,2007-11-12 04:00,ZGKL 120400Z AUTO 00000KT 2 1/2SM 21/09 A3009 RMK T02100090 IEM_DS3505
ZGKL,2007-11-12 05:00,ZGKL 120500Z AUTO 00000KT 2 1/2SM 23/08 A3003 RMK T02300080 IEM_DS3505
ZGKL,2007-11-12 06:00,ZGKL 120600Z AUTO 20004KT 4SM 24/09 A3000 RMK SLP160 T02420086 57040 IEM_DS3505
ZGKL,2007-11-12 07:00,ZGKL 120700Z AUTO 00000KT 2 1/2SM 24/08 A2997 RMK T02400080 IEM_DS3505
ZGKL,2007-11-12 08:00,ZGKL 120800Z AUTO 00000KT 2 1/2SM 25/08 A2994 RMK T02500080 IEM_DS3505
ZGKL,2007-11-12 09:00,ZGKL 120900Z AUTO 29002KT 4SM 24/08 A2994 RMK SLP145 T02440080 57015 IEM_DS3505
ZGKL,2007-11-12 10:00,ZGKL 121000Z AUTO 27004KT 2SM 21/11 A2994 RMK T02100110 IEM_DS3505
ZGKL,2007-11-12 11:00,ZGKL 121100Z AUTO 31002KT 2SM 18/12 A2997 RMK T01800120 IEM_DS3505
ZGKL,2007-11-12 12:00,ZGKL 121200Z AUTO 36004KT 3SM 20/11 A2997 RMK SLP158 T01980108 52011 IEM_DS3505
ZGKL,2007-11-12 13:00,ZGKL 121300Z AUTO 00000KT 1 1/4SM 16/13 A3000 RMK T01600130 IEM_DS3505
ZGKL,2007-11-12 14:00,ZGKL 121400Z AUTO 00000KT 1SM 15/13 A3000 RMK T01500130 IEM_DS3505
ZGKL,2007-11-12 15:00,ZGKL 121500Z AUTO 02004KT 3SM 20/10 A3000 RMK SLP168 T01960100 52012 IEM_DS3505
ZGKL,2007-11-12 16:00,ZGKL 121600Z AUTO 00000KT 1 1/4SM 16/13 A3003 RMK T01600130 IEM_DS3505
ZGKL,2007-11-12 17:00,ZGKL 121700Z AUTO 00000KT 2SM 16/13 A3003 RMK T01600130 IEM_DS3505
ZGKL,2007-11-12 18:00,ZGKL 121800Z AUTO 02004KT 3SM 19/10 A3003 RMK SLP167 T01890097 54000 IEM_DS3505
ZGKL,2007-11-12 19:00,ZGKL 121900Z AUTO 00000KT 1 1/2SM 17/14 A3003 RMK T01700140 IEM_DS3505
ZGKL,2007-11-12 20:00,ZGKL 122000Z AUTO 00000KT 1 1/2SM 16/14 A3000 RMK T01600140 IEM_DS3505
ZGKL,2007-11-12 21:00,ZGKL 122100Z AUTO 02004KT 3SM 18/09 A3000 RMK SLP166 T01830094 57001 IEM_DS3505
ZGKL,2007-11-12 22:00,ZGKL 122200Z AUTO 00000KT 1 1/4SM 16/13 A3003 RMK T01600130 IEM_DS3505
ZGKL,2007-11-12 23:00,ZGKL 122300Z AUTO 00000KT 1SM 15/13 A3003 RMK T01500130 IEM_DS3505
ZGKL,2007-11-13 00:00,ZGKL 130000Z AUTO 36004KT 3SM 17/10 A3006 RMK SLP184 T01730097 52016 IEM_DS3505
ZGKL,2007-11-13 01:00,ZGKL 130100Z AUTO 1 1/2SM 18/12 A3009 RMK T01800120 IEM_DS3505
ZGKL,2007-11-13 02:00,ZGKL 130200Z AUTO 1 1/2SM 20/10 A3009 RMK T02000100 IEM_DS3505
ZGKL,2007-11-13 03:00,ZGKL 130300Z AUTO 34004KT 3SM 21/10 A3006 RMK SLP188 T02120095 52005 IEM_DS3505
ZGKL,2007-11-13 04:00,ZGKL 130400Z AUTO 00000KT 1 1/2SM 23/10 A3006 RMK T02300100 IEM_DS3505
ZGKL,2007-11-13 05:00,ZGKL 130500Z AUTO 1 1/2SM 24/10 A3003 RMK T02400100 IEM_DS3505
ZGKL,2007-11-13 06:00,ZGKL 130600Z AUTO 16004KT 3SM 24/10 A2997 RMK SLP158 T02400096 57029 IEM_DS3505
ZGKL,2007-11-13 07:00,ZGKL 130700Z AUTO 1 1/2SM 26/10 A2997 RMK T02600100 IEM_DS3505
ZGKL,2007-11-13 08:00,ZGKL 130800Z AUTO 22004KT 1 1/2SM 25/11 A2994 RMK T02500110 IEM_DS3505
ZGKL,2007-11-13 09:00,ZGKL 130900Z AUTO 14002KT 3SM 25/11 A2994 RMK SLP144 T02470106 57014 IEM_DS3505
ZGKL,2007-11-13 10:00,ZGKL 131000Z AUTO 00000KT 1 1/2SM 22/13 A2997 RMK T02200130 IEM_DS3505
ZGKL,2007-11-13 11:00,ZGKL 131100Z AUTO 00000KT 1 1/4SM 20/14 A2997 RMK T02000140 IEM_DS3505
ZGKL,2007-11-13 12:00,ZGKL 131200Z AUTO 36002KT 3SM 20/13 A3000 RMK SLP163 T01960126 52017 IEM_DS3505
ZGKL,2007-11-13 13:00,ZGKL 131300Z AUTO 33004KT 1SM 19/15 A3000 RMK T01900150 IEM_DS3505
ZGKL,2007-11-13 14:00,ZGKL 131400Z AUTO 00000KT 1SM 18/15 A3003 RMK T01800150 IEM_DS3505
ZGKL,2007-11-13 15:00,ZGKL 131500Z AUTO 02006KT 3SM 20/11 A3003 RMK SLP174 T01970107 52012 IEM_DS3505
ZGKL,2007-11-13 16:00,ZGKL 131600Z AUTO 1SM 19/14 A3003 RMK T01900140 IEM_DS3505
ZGKL,2007-11-13 17:00,ZGKL 131700Z AUTO 1SM 19/13 A3006 RMK T01900130 IEM_DS3505
ZGKL,2007-11-13 18:00,ZGKL 131800Z AUTO 02006KT 3SM 19/11 A3006 RMK SLP179 T01880106 52006 IEM_DS3505
ZGKL,2007-11-13 19:00,ZGKL 131900Z AUTO 00000KT 1SM 18/13 A3006 RMK T01800130 IEM_DS3505
ZGKL,2007-11-13 20:00,ZGKL 132000Z AUTO 1 1/4SM 18/13 A3003 RMK T01800130 IEM_DS3505
ZGKL,2007-11-13 21:00,ZGKL 132100Z AUTO 36004KT 3SM 18/11 A3006 RMK SLP177 T01830107 57002 IEM_DS3505
ZGKL,2007-11-13 22:00,ZGKL 132200Z AUTO 00000KT 1 1/4SM 17/13 A3006 RMK T01700130 IEM_DS3505
ZGKL,2007-11-13 23:00,ZGKL 132300Z AUTO 00000KT 1SM 17/13 A3006 RMK T01700130 IEM_DS3505
ZGKL,2007-11-14 00:00,ZGKL 140000Z AUTO 02004KT 2 1/2SM 18/10 A3009 RMK SLP195 T01810102 52016 IEM_DS3505
ZGKL,2007-11-14 01:00,ZGKL 140100Z AUTO 00000KT 1SM 19/14 A3009 RMK T01900140 IEM_DS3505
ZGKL,2007-11-14 02:00,ZGKL 140200Z AUTO 06004KT 1 1/4SM 21/12 A3012 RMK T02100120 IEM_DS3505
ZGKL,2007-11-14 03:00,ZGKL 140300Z AUTO 32002KT 3SM 22/10 A3012 RMK SLP201 T02210103 52007 IEM_DS3505
ZGKL,2007-11-14 04:00,ZGKL 140400Z AUTO 1 1/2SM 24/11 A3009 RMK T02400110 IEM_DS3505
ZGKL,2007-11-14 05:00,ZGKL 140500Z AUTO 1 1/2SM 24/11 A3006 RMK T02400110 IEM_DS3505
ZGKL,2007-11-14 06:00,ZGKL 140600Z AUTO 22004KT 3SM 27/11 A3000 RMK SLP164 T02660107 57035 IEM_DS3505
ZGKL,2007-11-14 07:00,ZGKL 140700Z AUTO 2SM 26/11 A3000 RMK T02600110 IEM_DS3505
ZGKL,2007-11-14 08:00,ZGKL 140800Z AUTO 00000KT 2SM 26/12 A2997 RMK T02600120 IEM_DS3505
ZGKL,2007-11-14 09:00,ZGKL 140900Z AUTO 07002KT 3SM 26/12 A3000 RMK SLP157 T02650118 57007 IEM_DS3505
ZGKL,2007-11-14 10:00,ZGKL 141000Z AUTO 00000KT 2SM 24/14 A3000 RMK T02400140 IEM_DS3505
ZGKL,2007-11-14 11:00,ZGKL 141100Z AUTO 00000KT 1 1/4SM 22/14 A3000 RMK T02200140 IEM_DS3505
ZGKL,2007-11-14 12:00,ZGKL 141200Z AUTO 04002KT 3SM 22/14 A3003 RMK SLP173 T02240140 52014 IEM_DS3505
ZGKL,2007-11-14 13:00,ZGKL 141300Z AUTO 00000KT 1 1/4SM 19/16 A3006 RMK T01900160 IEM_DS3505
ZGKL,2007-11-14 14:00,ZGKL 141400Z AUTO 00000KT 1 1/4SM 19/15 A3006 RMK T01900150 IEM_DS3505
ZGKL,2007-11-14 15:00,ZGKL 141500Z AUTO 07002KT 3SM 19/14 A3006 RMK SLP186 T01900136 52013 IEM_DS3505
ZGKL,2007-11-14 16:00,ZGKL 141600Z AUTO 00000KT 1SM 17/15 A3009 RMK T01700150 IEM_DS3505
ZGKL,2007-11-14 17:00,ZGKL 141700Z AUTO 00000KT 16/15 A3009 RMK T01600150 IEM_DS3505
ZGKL,2007-11-14 18:00,ZGKL 141800Z AUTO 07002KT 3SM 18/13 A3009 RMK SLP192 T01770132 52007 IEM_DS3505
ZGKL,2007-11-14 19:00,ZGKL 141900Z AUTO 00000KT 14/14 A3009 RMK T01400140 IEM_DS3505
ZGKL,2007-11-14 20:00,ZGKL 142000Z AUTO 00000KT 14/13 A3009 RMK T01400130 IEM_DS3505
ZGKL,2007-11-14 21:00,ZGKL 142100Z AUTO 07002KT 3SM 17/13 A3009 RMK SLP195 T01660126 52002 IEM_DS3505
ZGKL,2007-11-14 22:00,ZGKL 142200Z AUTO 00000KT 1SM 14/13 A3009 RMK T01400130 IEM_DS3505
ZGKL,2007-11-14 23:00,ZGKL 142300Z AUTO 00000KT 1SM 14/13 A3012 RMK T01400130 IEM_DS3505
ZGKL,2007-11-15 00:00,ZGKL 150000Z AUTO 09002KT 3SM 17/13 A3012 RMK SLP208 T01660126 52012 IEM_DS3505
ZGKL,2007-11-15 01:00,ZGKL 150100Z AUTO 00000KT 1SM 17/15 A3015 RMK T01700150 IEM_DS3505
ZGKL,2007-11-15 02:00,ZGKL 150200Z AUTO 00000KT 1 1/4SM 20/15 A3015 RMK T02000150 IEM_DS3505
ZGKL,2007-11-15 03:00,ZGKL 150300Z AUTO 02002KT 3SM 23/13 A3015 RMK SLP210 T02280133 52003 IEM_DS3505
ZGKL,2007-11-15 04:00,ZGKL 150400Z AUTO 00000KT 1 1/4SM 25/14 A3012 RMK T02500140 IEM_DS3505
ZGKL,2007-11-15 05:00,ZGKL 150500Z AUTO 1 1/4SM 26/13 A3006 RMK T02600130 IEM_DS3505
ZGKL,2007-11-15 06:00,ZGKL 150600Z AUTO 07002KT 3SM 28/12 A3003 RMK SLP172 T02750115 57037 IEM_DS3505
ZGKL,2007-11-15 07:00,ZGKL 150700Z AUTO 00000KT 2 1/2SM 28/12 A3000 RMK T02800120 IEM_DS3505
ZGKL,2007-11-15 08:00,ZGKL 150800Z AUTO 2 1/2SM 28/11 A3000 RMK T02800110 IEM_DS3505
ZGKL,2007-11-15 09:00,ZGKL 150900Z AUTO 16002KT 5SM 28/08 A3000 RMK SLP162 T02790077 57010 IEM_DS3505
ZGKL,2007-11-15 10:00,ZGKL 151000Z AUTO 00000KT 2 1/2SM 24/14 A3003 RMK T02400140 IEM_DS3505
ZGKL,2007-11-15 11:00,ZGKL 151100Z AUTO 30004KT 2 1/2SM 21/15 A3003 RMK T02100150 IEM_DS3505
ZGKL,2007-11-15 12:00,ZGKL 151200Z AUTO 32002KT 5SM 22/12 A3006 RMK SLP186 T02180121 52022 IEM_DS3505
ZGKL,2007-11-15 13:00,ZGKL 151300Z AUTO 00000KT 2 1/2SM 19/15 A3009 RMK T01900150 IEM_DS3505
ZGKL,2007-11-15 14:00,ZGKL 151400Z AUTO 00000KT 1 1/2SM 18/15 A3009 RMK T01800150 IEM_DS3505
ZGKL,2007-11-15 15:00,ZGKL 151500Z AUTO 16002KT 5SM 19/13 A3012 RMK SLP203 T01940129 52018 IEM_DS3505
ZGKL,2007-11-15 16:00,ZGKL 151600Z AUTO 00000KT 1 1/2SM 17/14 A3012 RMK T01700140 IEM_DS3505
ZGKL,2007-11-15 17:00,ZGKL 151700Z AUTO 00000KT 1 1/2SM 16/14 A3012 RMK T01600140 IEM_DS3505
ZGKL,2007-11-15 18:00,ZGKL 151800Z AUTO 02002KT 5SM 18/13 A3012 RMK SLP201 T01820133 57001 IEM_DS3505
ZGKL,2007-11-15 19:00,ZGKL 151900Z AUTO 00000KT 2SM 15/13 A3012 RMK T01500130 IEM_DS3505
ZGKL,2007-11-15 20:00,ZGKL 152000Z AUTO 00000KT 1 1/2SM 14/13 A3009 RMK T01400130 IEM_DS3505
ZGKL,2007-11-15 21:00,ZGKL 152100Z AUTO 09002KT 5SM 17/13 A3009 RMK SLP195 T01710132 57006 IEM_DS3505
ZGKL,2007-11-15 22:00,ZGKL 152200Z AUTO 00000KT 1 1/4SM 14/13 A3012 RMK T01400130 IEM_DS3505
ZGKL,2007-11-15 23:00,ZGKL 152300Z AUTO 00000KT 1 1/4SM 13/12 A3012 RMK T01300120 IEM_DS3505
ZGKL,2007-11-16 00:00,ZGKL 160000Z AUTO 36006KT 4SM 18/13 A3015 RMK SLP213 T01810130 52016 IEM_DS3505
ZGKL,2007-11-16 01:00,ZGKL 160100Z AUTO 00000KT 2SM 16/14 A3015 RMK T01600140 IEM_DS3505
ZGKL,2007-11-16 02:00,ZGKL 160200Z AUTO 00000KT 1 1/4SM 20/15 A3018 RMK T02000150 IEM_DS3505
ZGKL,2007-11-16 03:00,ZGKL 160300Z AUTO 02008KT 4SM 22/13 A3015 RMK SLP216 T02150129 52003 IEM_DS3505
ZGKL,2007-11-16 04:00,ZGKL 160400Z AUTO 1 1/4SM 24/13 A3012 RMK T02400130 IEM_DS3505
ZGKL,2007-11-16 05:00,ZGKL 160500Z AUTO 06010KT 1 1/2SM 24/13 A3009 RMK T02400130 IEM_DS3505
ZGKL,2007-11-16 06:00,ZGKL 160600Z AUTO 02006KT 4SM 24/13 A3003 RMK SLP176 T02360129 57039 IEM_DS3505
ZGKL,2007-11-16 07:00,ZGKL 160700Z AUTO 1 1/2SM 25/13 A3000 RMK T02500130 IEM_DS3505
ZGKL,2007-11-16 08:00,ZGKL 160800Z AUTO 04012KT 1 1/2SM 24/13 A3000 RMK T02400130 IEM_DS3505
ZGKL,2007-11-16 09:00,ZGKL 160900Z AUTO 02010KT 4SM 20/12 A3000 RMK SLP167 T02040124 57010 IEM_DS3505
ZGKL,2007-11-16 10:00,ZGKL 161000Z AUTO 06012KT 1 1/4SM 20/12 A3003 RMK T02000120 IEM_DS3505
ZGKL,2007-11-16 11:00,ZGKL 161100Z AUTO 04010KT 1 1/4SM 18/12 A3003 RMK T01800120 IEM_DS3505
ZGKL,2007-11-16 12:00,ZGKL 161200Z AUTO 02008KT 3SM 17/12 A3009 RMK SLP191 T01680117 52023 IEM_DS3505
ZGKL,2007-11-16 13:00,ZGKL 161300Z AUTO 00000KT 1 1/4SM 16/13 A3009 RMK T01600130 IEM_DS3505
ZGKL,2007-11-16 14:00,ZGKL 161400Z AUTO 00000KT 1 1/4SM 16/12 A3009 RMK T01600120 IEM_DS3505
ZGKL,2007-11-16 15:00,ZGKL 161500Z AUTO 04004KT 3SM 16/11 A3012 RMK SLP202 T01570113 52011 IEM_DS3505
ZGKL,2007-11-16 16:00,ZGKL 161600Z AUTO 04004KT 1SM 15/12 A3012 RMK T01500120 IEM_DS3505
ZGKL,2007-11-16 17:00,ZGKL 161700Z AUTO 00000KT 1SM 14/12 A3009 RMK T01400120 IEM_DS3505
ZGKL,2007-11-16 18:00,ZGKL 161800Z AUTO 02004KT 3SM 14/11 A3009 RMK SLP195 T01450107 57006 IEM_DS3505
ZGKL,2007-11-16 19:00,ZGKL 161900Z AUTO 05006KT 1 1/4SM 14/12 A3009 RMK T01400120 IEM_DS3505
ZGKL,2007-11-16 20:00,ZGKL 162000Z AUTO 05006KT 1 1/4SM 14/11 A3006 RMK T01400110 IEM_DS3505
ZGKL,2007-11-16 21:00,ZGKL 162100Z AUTO 36004KT 3SM 13/10 A3006 RMK SLP192 T01330099 57005 IEM_DS3505
ZGKL,2007-11-16 22:00,ZGKL 162200Z AUTO 03006KT 2SM 14/11 A3006 RMK T01400110 IEM_DS3505
ZGKL,2007-11-16 23:00,ZGKL 162300Z AUTO 05006KT 2SM 14/11 A3009 RMK T01400110 IEM_DS3505
ZGKL,2007-11-17 00:00,ZGKL 170000Z AUTO 02004KT 3SM 13/10 A3012 RMK SLP206 T01330097 52013 IEM_DS3505
ZGKL,2007-11-17 01:00,ZGKL 170100Z AUTO 04006KT 2 1/2SM 15/11 A3012 RMK T01500110 IEM_DS3505
ZGKL,2007-11-17 02:00,ZGKL 170200Z AUTO 04006KT 2 1/2SM 15/11 A3012 RMK T01500110 IEM_DS3505
ZGKL,2007-11-17 03:00,ZGKL 170300Z AUTO 02008KT 3SM 16/10 A3012 RMK SLP209 T01650097 52003 IEM_DS3505
ZGKL,2007-11-17 04:00,ZGKL 170400Z AUTO 00000KT 2 1/2SM 16/11 A3012 RMK T01600110 IEM_DS3505
ZGKL,2007-11-17 05:00,ZGKL 170500Z AUTO 2 1/2SM 17/11 A3009 RMK T01700110 IEM_DS3505
ZGKL,2007-11-17 06:00,ZGKL 170600Z AUTO 02008KT 5SM 18/10 A3006 RMK SLP183 T01820098 57025 IEM_DS3505
ZGKL,2007-11-17 07:00,ZGKL 170700Z AUTO 31004KT 2 1/2SM 18/12 A3003 RMK T01800120 IEM_DS3505
ZGKL,2007-11-17 08:00,ZGKL 170800Z AUTO 32006KT 2 1/2SM 18/12 A3003 RMK T01800120 IEM_DS3505
ZGKL,2007-11-17 09:00,ZGKL 170900Z AUTO 04006KT 5SM 17/09 A3003 RMK SLP181 T01690093 57003 IEM_DS3505
ZGKL,2007-11-17 10:00,ZGKL 171000Z AUTO 06010KT 2 1/2SM 16/10 A3006 RMK T01600100 IEM_DS3505
ZGKL,2007-11-17 11:00,ZGKL 171100Z AUTO 07010KT 2SM 15/10 A3009 RMK T01500100 IEM_DS3505
ZGKL,2007-11-17 12:00,ZGKL 171200Z AUTO 02004KT 4SM 14/09 A3012 RMK SLP208 T01440090 52026 IEM_DS3505
ZGKL,2007-11-17 13:00,ZGKL 171300Z AUTO 03006KT 2 1/2SM 15/10 A3012 RMK T01500100 IEM_DS3505
ZGKL,2007-11-17 14:00,ZGKL 171400Z AUTO 04006KT 2 1/2SM 15/10 A3015 RMK T01500100 IEM_DS3505
ZGKL,2007-11-17 15:00,ZGKL 171500Z AUTO 02010KT 4SM 14/09 A3015 RMK SLP222 T01410087 52015 IEM_DS3505
ZGKL,2007-11-17 16:00,ZGKL 171600Z AUTO 05006KT 2 1/2SM 14/10 A3015 RMK T01400100 IEM_DS3505
ZGKL,2007-11-17 17:00,ZGKL 171700Z AUTO 05006KT 14/10 A3015 RMK T01400100 IEM_DS3505
ZGKL,2007-11-17 18:00,ZGKL 171800Z AUTO 02006KT 5SM 13/09 A3018 RMK SLP227 T01270086 52005 IEM_DS3505
ZGKL,2007-11-17 19:00,ZGKL 171900Z AUTO 05008KT 14/10 A3018 RMK T01400100 IEM_DS3505
ZGKL,2007-11-17 20:00,ZGKL 172000Z AUTO 04008KT 13/09 A3018 RMK T01300090 IEM_DS3505
ZGKL,2007-11-17 21:00,ZGKL 172100Z AUTO 02010KT 5SM 12/08 A3021 RMK SLP240 T01230082 52012 IEM_DS3505
ZGKL,2007-11-17 22:00,ZGKL 172200Z AUTO 05008KT 2 1/2SM 13/09 A3021 RMK T01300090 IEM_DS3505
ZGKL,2007-11-17 23:00,ZGKL 172300Z AUTO 05008KT 3SM 13/09 A3027 RMK T01300090 IEM_DS3505
ZGKL,2007-11-18 00:00,ZGKL 180000Z AUTO 02010KT 9SM 13/08 A3030 RMK SLP266 T01260077 52025 IEM_DS3505
ZGKL,2007-11-18 01:00,ZGKL 180100Z AUTO 6SM 13/09 A3030 RMK T01300090 IEM_DS3505
ZGKL,2007-11-18 02:00,ZGKL 180200Z AUTO 7SM 14/08 A3033 RMK T01400080 IEM_DS3505
ZGKL,2007-11-18 03:00,ZGKL 180300Z AUTO 02010KT 11SM 14/08 A3033 RMK SLP276 T01410079 52010 IEM_DS3505
ZGKL,2007-11-18 04:00,ZGKL 180400Z AUTO 05008KT 7SM 16/08 A3030 RMK T01600080 IEM_DS3505
ZGKL,2007-11-18 05:00,ZGKL 180500Z AUTO 06012KT 7SM 17/08 A3027 RMK T01700080 IEM_DS3505
ZGKL,2007-11-18 06:00,ZGKL 180600Z AUTO 02012KT 11SM 15/08 A3024 RMK SLP255 T01470080 57021 IEM_DS3505
ZGKL,2007-11-18 07:00,ZGKL 180700Z AUTO 06014KT 7SM 17/08 A3021 RMK T01700080 IEM_DS3505
ZGKL,2007-11-18 08:00,ZGKL 180800Z AUTO 06014KT 7SM 15/08 A3024 RMK T01500080 IEM_DS3505
ZGKL,2007-11-18 09:00,ZGKL 180900Z AUTO 02010KT 11SM 14/08 A3024 RMK SLP256 T01390079 54000 IEM_DS3505
ZGKL,2007-11-18 10:00,ZGKL 181000Z AUTO 06016KT 4SM 14/08 A3027 RMK T01400080 IEM_DS3505
ZGKL,2007-11-18 11:00,ZGKL 181100Z AUTO 05014KT 4SM 14/08 A3027 RMK T01400080 IEM_DS3505
ZGKL,2007-11-18 12:00,ZGKL 181200Z AUTO 36010KT 9SM 13/08 A3030 RMK SLP272 T01310080 52016 IEM_DS3505
ZGKL,2007-11-18 13:00,ZGKL 181300Z AUTO 05008KT 4SM 13/09 A3033 RMK T01300090 IEM_DS3505
ZGKL,2007-11-18 14:00,ZGKL 181400Z AUTO 06008KT 4SM 13/09 A3033 RMK T01300090 IEM_DS3505
ZGKL,2007-11-18 15:00,ZGKL 181500Z AUTO 02008KT 9SM 13/08 A3033 RMK SLP280 T01300081 52008 IEM_DS3505
ZGKL,2007-11-18 16:00,ZGKL 181600Z AUTO 03006KT 4SM 13/09 A3033 RMK T01300090 IEM_DS3505
ZGKL,2007-11-18 18:00,ZGKL 181800Z AUTO 02006KT 9SM 13/08 A3030 RMK SLP271 T01280079 57008 IEM_DS3505
ZGKL,2007-11-18 19:00,ZGKL 181900Z AUTO 00000KT 13/10 A3030 RMK T01300100 IEM_DS3505
ZGKL,2007-11-18 20:00,ZGKL 182000Z AUTO 04004KT 13/09 A3030 RMK T01300090 IEM_DS3505
ZGKL,2007-11-18 21:00,ZGKL 182100Z AUTO 02006KT 9SM 12/08 A3030 RMK SLP267 T01250076 57005 IEM_DS3505
ZGKL,2007-11-18 22:00,ZGKL 182200Z AUTO 03008KT 4SM 13/09 A3030 RMK T01300090 IEM_DS3505
ZGKL,2007-11-18 23:00,ZGKL 182300Z AUTO 4SM 12/08 A3030 RMK T01200080 IEM_DS3505
ZGKL,2007-11-19 00:00,ZGKL 190000Z AUTO 02008KT 7SM 13/07 A3033 RMK SLP279 T01290074 52012 IEM_DS3505
ZGKL,2007-11-19 01:00,ZGKL 190100Z AUTO 4SM 14/09 A3033 RMK T01400090 IEM_DS3505
ZGKL,2007-11-19 02:00,ZGKL 190200Z AUTO 5SM 16/08 A3036 RMK T01600080 IEM_DS3505
ZGKL,2007-11-19 03:00,ZGKL 190300Z AUTO 36010KT 9SM 16/07 A3033 RMK SLP283 T01590074 52005 IEM_DS3505
ZGKL,2007-11-19 04:00,ZGKL 190400Z AUTO 07010KT 7SM 18/07 A3030 RMK T01800070 IEM_DS3505
ZGKL,2007-11-19 05:00,ZGKL 190500Z AUTO 06008KT 7SM 18/07 A3027 RMK T01800070 IEM_DS3505
ZGKL,2007-11-19 06:00,ZGKL 190600Z AUTO 02008KT 9SM 18/07 A3024 RMK SLP247 T01760071 57035 IEM_DS3505
ZGKL,2007-11-19 07:00,ZGKL 190700Z AUTO 7SM 18/08 A3021 RMK T01800080 IEM_DS3505
ZGKL,2007-11-19 08:00,ZGKL 190800Z AUTO 07010KT 5SM 18/07 A3021 RMK T01800070 IEM_DS3505
ZGKL,2007-11-19 09:00,ZGKL 190900Z AUTO 04006KT 9SM 16/07 A3021 RMK SLP241 T01650074 57006 IEM_DS3505
ZGKL,2007-11-19 10:00,ZGKL 191000Z AUTO 06010KT 4SM 16/08 A3021 RMK T01600080 IEM_DS3505
ZGKL,2007-11-19 11:00,ZGKL 191100Z AUTO 06010KT 3SM 15/08 A3024 RMK T01500080 IEM_DS3505
ZGKL,2007-11-19 12:00,ZGKL 191200Z AUTO 04004KT 9SM 14/08 A3027 RMK SLP263 T01360076 52020 IEM_DS3505
ZGKL,2007-11-19 13:00,ZGKL 191300Z AUTO 00000KT 2 1/2SM 13/08 A3030 RMK T01300080 IEM_DS3505
ZGKL,2007-11-19 14:00,ZGKL 191400Z AUTO 2 1/2SM 12/08 A3030 RMK T01200080 IEM_DS3505
ZGKL,2007-11-19 15:00,ZGKL 191500Z AUTO 02004KT 9SM 12/08 A3033 RMK SLP275 T01210078 52013 IEM_DS3505
ZGKL,2007-11-19 16:00,ZGKL 191600Z AUTO 00000KT 2 1/2SM 11/09 A3033 RMK T01100090 IEM_DS3505
ZGKL,2007-11-19 17:00,ZGKL 191700Z AUTO 00000KT 1 1/2SM 11/09 A3030 RMK T01100090 IEM_DS3505
ZGKL,2007-11-19 18:00,ZGKL 191800Z AUTO 02004KT 8SM 13/08 A3030 RMK SLP269 T01290076 57005 IEM_DS3505
ZGKL,2007-11-19 19:00,ZGKL 191900Z AUTO 00000KT 11/10 A3027 RMK T01100100 IEM_DS3505
ZGKL,2007-11-19 20:00,ZGKL 192000Z AUTO 00000KT 11/09 A3027 RMK T01100090 IEM_DS3505
ZGKL,2007-11-19 21:00,ZGKL 192100Z AUTO 36004KT 8SM 12/07 A3027 RMK SLP256 T01240071 57014 IEM_DS3505
ZGKL,2007-11-19 22:00,ZGKL 192200Z AUTO 00000KT 2SM 10/09 A3027 RMK T01000090 IEM_DS3505
ZGKL,2007-11-19 23:00,ZGKL 192300Z AUTO 00000KT 1 1/2SM 09/08 A3030 RMK T00900080 IEM_DS3505
ZGKL,2007-11-20 00:00,ZGKL 200000Z AUTO 02004KT 7SM 12/07 A3030 RMK SLP273 T01250072 52016 IEM_DS3505
ZGKL,2007-11-20 01:00,ZGKL 200100Z AUTO 2 1/2SM 13/10 A3030 RMK T01300100 IEM_DS3505
ZGKL,2007-11-20 02:00,ZGKL 200200Z AUTO 4SM 16/08 A3030 RMK T01600080 IEM_DS3505
ZGKL,2007-11-20 03:00,ZGKL 200300Z AUTO 02010KT 7SM 18/05 A3027 RMK SLP259 T01840053 57012 IEM_DS3505
ZGKL,2007-11-20 04:00,ZGKL 200400Z AUTO 05010KT 6SM 21/03 A3024 RMK T02100030 IEM_DS3505
ZGKL,2007-11-20 05:00,ZGKL 200500Z AUTO 03006KT 6SM 21/04 A3018 RMK T02100040 IEM_DS3505
ZGKL,2007-11-20 06:00,ZGKL 200600Z AUTO 04008KT 9SM 22/03 A3015 RMK SLP215 T02210028 57042 IEM_DS3505
ZGKL,2007-11-20 07:00,ZGKL 200700Z AUTO 06010KT 6SM 23/02 A3012 RMK T02300020 IEM_DS3505
ZGKL,2007-11-20 08:00,ZGKL 200800Z AUTO 07010KT 6SM 22/02 A3012 RMK T02200020 IEM_DS3505
ZGKL,2007-11-20 09:00,ZGKL 200900Z AUTO 02006KT 12SM 21/02 A3012 RMK SLP210 T02070020 57005 IEM_DS3505
ZGKL,2007-11-20 10:00,ZGKL 201000Z AUTO 06010KT 6SM 19/01 A3015 RMK T01900010 IEM_DS3505
ZGKL,2007-11-20 11:00,ZGKL 201100Z AUTO 04012KT 6SM 18/02 A3015 RMK T01800020 IEM_DS3505
ZGKL,2007-11-20 12:00,ZGKL 201200Z AUTO 02006KT 11SM 17/04 A3018 RMK SLP230 T01680035 52018 IEM_DS3505
ZGKL,2007-11-20 13:00,ZGKL 201300Z AUTO 03008KT 4SM 15/04 A3021 RMK T01500040 IEM_DS3505
ZGKL,2007-11-20 14:00,ZGKL 201400Z AUTO 34006KT 4SM 13/05 A3021 RMK T01300050 IEM_DS3505
ZGKL,2007-11-20 15:00,ZGKL 201500Z AUTO 02008KT 10SM 16/05 A3024 RMK SLP244 T01550048 52015 IEM_DS3505
ZGKL,2007-11-20 16:00,ZGKL 201600Z AUTO 00000KT 3SM 11/07 A3024 RMK T01100070 IEM_DS3505
ZGKL,2007-11-20 17:00,ZGKL 201700Z AUTO 00000KT 3SM 12/08 A3024 RMK T01200080 IEM_DS3505
ZGKL,2007-11-20 18:00,ZGKL 201800Z AUTO 36004KT 10SM 14/04 A3024 RMK SLP243 T01420039 54000 IEM_DS3505
ZGKL,2007-11-20 19:00,ZGKL 201900Z AUTO 00000KT 12/09 A3024 RMK T01200090 IEM_DS3505
ZGKL,2007-11-20 20:00,ZGKL 202000Z AUTO 00000KT 12/08 A3021 RMK T01200080 IEM_DS3505
ZGKL,2007-11-20 21:00,ZGKL 202100Z AUTO 02004KT 9SM 15/04 A3021 RMK SLP240 T01480036 57003 IEM_DS3505
ZGKL,2007-11-20 22:00,ZGKL 202200Z AUTO 00000KT 2 1/2SM 12/10 A3024 RMK T01200100 IEM_DS3505
ZGKL,2007-11-20 23:00,ZGKL 202300Z AUTO 00000KT 2 1/2SM 12/10 A3024 RMK T01200100 IEM_DS3505
ZGKL,2007-11-21 00:00,ZGKL 210000Z AUTO 02004KT 9SM 15/04 A3027 RMK SLP253 T01500041 52011 IEM_DS3505
ZGKL,2007-11-21 01:00,ZGKL 210100Z AUTO 00000KT 4SM 15/09 A3027 RMK T01500090 IEM_DS3505
ZGKL,2007-11-21 02:00,ZGKL 210200Z AUTO 4SM 17/06 A3027 RMK T01700060 IEM_DS3505
ZGKL,2007-11-21 03:00,ZGKL 210300Z AUTO 02006KT 9SM 20/03 A3027 RMK SLP252 T01950032 52001 IEM_DS3505
ZGKL,2007-11-21 04:00,ZGKL 210400Z AUTO 6SM 21/03 A3024 RMK T02100030 IEM_DS3505
ZGKL,2007-11-21 05:00,ZGKL 210500Z AUTO 05010KT 6SM 22/03 A3018 RMK T02200030 IEM_DS3505
ZGKL,2007-11-21 06:00,ZGKL 210600Z AUTO 02004KT 9SM 23/02 A3015 RMK SLP215 T02310020 57036 IEM_DS3505
ZGKL,2007-11-21 07:00,ZGKL 210700Z AUTO 08008KT 6SM 23/02 A3012 RMK T02300020 IEM_DS3505
ZGKL,2007-11-21 08:00,ZGKL 210800Z AUTO 05010KT 6SM 23/02 A3012 RMK T02300020 IEM_DS3505
ZGKL,2007-11-21 09:00,ZGKL 210900Z AUTO 02006KT 9SM 22/02 A3012 RMK SLP208 T02190021 57007 IEM_DS3505
ZGKL,2007-11-21 10:00,ZGKL 211000Z AUTO 06008KT 5SM 20/02 A3015 RMK T02000020 IEM_DS3505
ZGKL,2007-11-21 11:00,ZGKL 211100Z AUTO 04008KT 5SM 19/03 A3015 RMK T01900030 IEM_DS3505
ZGKL,2007-11-21 12:00,ZGKL 211200Z AUTO 02006KT 9SM 18/00 A3018 RMK SLP233 T01780005 52023 IEM_DS3505
ZGKL,2007-11-21 13:00,ZGKL 211300Z AUTO 31004KT 4SM 15/04 A3021 RMK T01500040 IEM_DS3505
ZGKL,2007-11-21 14:00,ZGKL 211400Z AUTO 00000KT 4SM 14/05 A3024 RMK T01400050 IEM_DS3505
ZGKL,2007-11-21 15:00,ZGKL 211500Z AUTO 02008KT 9SM 16/02 A3024 RMK SLP249 T01640017 52017 IEM_DS3505
ZGKL,2007-11-21 16:00,ZGKL 211600Z AUTO 00000KT 3SM 11/08 A3027 RMK T01100080 IEM_DS3505
ZGKL,2007-11-21 17:00,ZGKL 211700Z AUTO 00000KT 3SM 10/07 A3024 RMK T01000070 IEM_DS3505
ZGKL,2007-11-21 18:00,ZGKL 211800Z AUTO 02004KT 9SM 15/02 A3024 RMK SLP241 T01490018 57007 IEM_DS3505
ZGKL,2007-11-21 19:00,ZGKL 211900Z AUTO 00000KT 09/07 A3021 RMK T00900070 IEM_DS3505
ZGKL,2007-11-21 20:00,ZGKL 212000Z AUTO 00000KT 08/07 A3021 RMK T00800070 IEM_DS3505
ZGKL,2007-11-21 21:00,ZGKL 212100Z AUTO 02006KT 9SM 14/02 A3021 RMK SLP233 T01380021 57009 IEM_DS3505
ZGKL,2007-11-21 22:00,ZGKL 212200Z AUTO 00000KT 2 1/2SM 08/07 A3021 RMK T00800070 IEM_DS3505
ZGKL,2007-11-21 23:00,ZGKL 212300Z AUTO 33002KT 3SM 07/06 A3024 RMK T00700060 IEM_DS3505
ZGKL,2007-11-22 00:00,ZGKL 220000Z AUTO 02004KT 9SM 14/02 A3027 RMK SLP257 T01350021 52022 IEM_DS3505
ZGKL,2007-11-22 01:00,ZGKL 220100Z AUTO 5SM 12/09 A3030 RMK T01200090 IEM_DS3505
ZGKL,2007-11-22 02:00,ZGKL 220200Z AUTO 5SM 16/05 A3030 RMK T01600050 IEM_DS3505
ZGKL,2007-11-22 03:00,ZGKL 220300Z AUTO 36008KT 9SM 19/01 A3027 RMK SLP254 T01940014 57001 IEM_DS3505
ZGKL,2007-11-22 04:00,ZGKL 220400Z AUTO 6SM 21/01 A3024 RMK T02100010 IEM_DS3505
ZGKL,2007-11-22 05:00,ZGKL 220500Z AUTO 08008KT 6SM 22/01 A3018 RMK T02200010 IEM_DS3505
ZGKL,2007-11-22 06:00,ZGKL 220600Z AUTO 04006KT 10SM 23/00 A3015 RMK SLP214 T02290001 57039 IEM_DS3505
ZGKL,2007-11-22 07:00,ZGKL 220700Z AUTO 6SM 24/00 A3012 RMK T02400000 IEM_DS3505
ZGKL,2007-11-22 08:00,ZGKL 220800Z AUTO 05004KT 6SM 24/00 A3012 RMK T02400000 IEM_DS3505
ZGKL,2007-11-22 09:00,ZGKL 220900Z AUTO 04006KT 9SM 22/M02 A3012 RMK SLP202 T02231017 57012 IEM_DS3505
ZGKL,2007-11-22 10:00,ZGKL 221000Z AUTO 05004KT 6SM 20/01 A3012 RMK T02000010 IEM_DS3505
ZGKL,2007-11-22 11:00,ZGKL 221100Z AUTO 00000KT 5SM 17/03 A3015 RMK T01700030 IEM_DS3505
ZGKL,2007-11-22 12:00,ZGKL 221200Z AUTO 02008KT 9SM 18/M01 A3018 RMK SLP226 T01801008 52022 IEM_DS3505
ZGKL,2007-11-22 13:00,ZGKL 221300Z AUTO 00000KT 3SM 13/06 A3018 RMK T01300060 IEM_DS3505
ZGKL,2007-11-22 14:00,ZGKL 221400Z AUTO 00000KT 4SM 13/06 A3021 RMK T01300060 IEM_DS3505
ZGKL,2007-11-22 15:00,ZGKL 221500Z AUTO 02006KT 9SM 16/02 A3021 RMK SLP235 T01640021 52010 IEM_DS3505
ZGKL,2007-11-22 16:00,ZGKL 221600Z AUTO 3SM 11/07 A3021 RMK T01100070 IEM_DS3505
ZGKL,2007-11-22 17:00,ZGKL 221700Z AUTO 3SM 10/07 A3021 RMK T01000070 IEM_DS3505
ZGKL,2007-11-22 18:00,ZGKL 221800Z AUTO 02004KT 8SM 15/03 A3018 RMK SLP228 T01470029 57006 IEM_DS3505
ZGKL,2007-11-22 19:00,ZGKL 221900Z AUTO 00000KT 09/07 A3018 RMK T00900070 IEM_DS3505
ZGKL,2007-11-22 20:00,ZGKL 222000Z AUTO 00000KT 09/07 A3015 RMK T00900070 IEM_DS3505
ZGKL,2007-11-22 21:00,ZGKL 222100Z AUTO 36004KT 8SM 13/03 A3015 RMK SLP220 T01290033 57009 IEM_DS3505
ZGKL,2007-11-22 22:00,ZGKL 222200Z AUTO 00000KT 2 1/2SM 08/07 A3015 RMK T00800070 IEM_DS3505
ZGKL,2007-11-22 23:00,ZGKL 222300Z AUTO 4SM 08/06 A3018 RMK T00800060 IEM_DS3505
ZGKL,2007-11-23 00:00,ZGKL 230000Z AUTO 36006KT 7SM 14/03 A3018 RMK SLP234 T01380030 52013 IEM_DS3505
ZGKL,2007-11-23 01:00,ZGKL 230100Z AUTO 4SM 12/09 A3021 RMK T01200090 IEM_DS3505
ZGKL,2007-11-23 02:00,ZGKL 230200Z AUTO 4SM 16/07 A3021 RMK T01600070 IEM_DS3505
ZGKL,2007-11-23 03:00,ZGKL 230300Z AUTO 36006KT 7SM 20/03 A3021 RMK SLP231 T01970026 57002 IEM_DS3505
ZGKL,2007-11-23 04:00,ZGKL 230400Z AUTO 02008KT 6SM 21/02 A3015 RMK T02100020 IEM_DS3505
ZGKL,2007-11-23 05:00,ZGKL 230500Z AUTO 6SM 22/02 A3012 RMK T02200020 IEM_DS3505
ZGKL,2007-11-23 06:00,ZGKL 230600Z AUTO 36008KT 9SM 23/M02 A3006 RMK SLP186 T02331023 57043 IEM_DS3505
ZGKL,2007-11-23 07:00,ZGKL 230700Z AUTO 6SM 24/M01 A3006 RMK T02401010 IEM_DS3505
ZGKL,2007-11-23 08:00,ZGKL 230800Z AUTO 6SM 24/M01 A3006 RMK T02401010 IEM_DS3505
ZGKL,2007-11-23 09:00,ZGKL 230900Z AUTO 02004KT 10SM 23/M04 A3003 RMK SLP182 T02271044 57005 IEM_DS3505
ZGKL,2007-11-23 10:00,ZGKL 231000Z AUTO 05006KT 4SM 20/01 A3006 RMK T02000010 IEM_DS3505
ZGKL,2007-11-23 11:00,ZGKL 231100Z AUTO 32006KT 4SM 17/02 A3009 RMK T01700020 IEM_DS3505
ZGKL,2007-11-23 12:00,ZGKL 231200Z AUTO 36006KT 10SM 19/M03 A3012 RMK SLP210 T01861029 52026 IEM_DS3505
ZGKL,2007-11-23 13:00,ZGKL 231300Z AUTO 32004KT 5SM 16/01 A3015 RMK T01600010 IEM_DS3505
ZGKL,2007-11-23 14:00,ZGKL 231400Z AUTO 4SM 13/05 A3015 RMK T01300050 IEM_DS3505
ZGKL,2007-11-23 15:00,ZGKL 231500Z AUTO 36006KT 9SM 18/M01 A3018 RMK SLP221 T01761006 52013 IEM_DS3505
ZGKL,2007-11-23 16:00,ZGKL 231600Z AUTO 00000KT 5SM 13/05 A3018 RMK T01300050 IEM_DS3505
ZGKL,2007-11-23 17:00,ZGKL 231700Z AUTO 4SM 12/06 A3015 RMK T01200060 IEM_DS3505
ZGKL,2007-11-23 18:00,ZGKL 231800Z AUTO 36008KT 7SM 16/05 A3015 RMK SLP221 T01570050 57001 IEM_DS3505
ZGKL,2007-11-23 19:00,ZGKL 231900Z AUTO 00000KT 4SM 11/07 A3015 RMK T01100070 IEM_DS3505
ZGKL,2007-11-23 21:00,ZGKL 232100Z AUTO 36004KT 9SM 15/02 A3015 RMK SLP217 T01460018 54000 IEM_DS3505
ZGKL,2007-11-23 22:00,ZGKL 232200Z AUTO 00000KT 3SM 07/05 A3015 RMK T00700050 IEM_DS3505
ZGKL,2007-11-23 23:00,ZGKL 232300Z AUTO 00000KT 3SM 08/06 A3018 RMK T00800060 IEM_DS3505
ZGKL,2007-11-24 00:00,ZGKL 240000Z AUTO 36004KT 9SM 14/01 A3021 RMK SLP234 T01450014 52015 IEM_DS3505
ZGKL,2007-11-24 01:00,ZGKL 240100Z AUTO 6SM 12/08 A3021 RMK T01200080 IEM_DS3505
ZGKL,2007-11-24 02:00,ZGKL 240200Z AUTO 00000KT 6SM 17/06 A3024 RMK T01700060 IEM_DS3505
ZGKL,2007-11-24 03:00,ZGKL 240300Z AUTO 02010KT 9SM 20/00 A3021 RMK SLP234 T01950005 52002 IEM_DS3505
ZGKL,2007-11-24 04:00,ZGKL 240400Z AUTO 6SM 22/00 A3018 RMK T02200000 IEM_DS3505
ZGKL,2007-11-24 05:00,ZGKL 240500Z AUTO 6SM 23/00 A3012 RMK T02300000 IEM_DS3505
ZGKL,2007-11-24 06:00,ZGKL 240600Z AUTO 02010KT 11SM 24/M04 A3009 RMK SLP194 T02351037 57039 IEM_DS3505
ZGKL,2007-11-24 07:00,ZGKL 240700Z AUTO 04010G23KT 6SM 25/M05 A3006 RMK T02501050 IEM_DS3505
ZGKL,2007-11-24 08:00,ZGKL 240800Z AUTO 05010KT 6SM 24/M06 A3003 RMK T02401060 IEM_DS3505
ZGKL,2007-11-24 09:00,ZGKL 240900Z AUTO 04004KT 11SM 23/M04 A3003 RMK SLP179 T02281043 57015 IEM_DS3505
ZGKL,2007-11-24 10:00,ZGKL 241000Z AUTO 06006KT 6SM 20/M02 A3006 RMK T02001020 IEM_DS3505
ZGKL,2007-11-24 11:00,ZGKL 241100Z AUTO 28006KT 5SM 16/02 A3009 RMK T01600020 IEM_DS3505
ZGKL,2007-11-24 12:00,ZGKL 241200Z AUTO 02004KT 10SM 18/M00 A3012 RMK SLP204 T01781005 52023 IEM_DS3505
ZGKL,2007-11-24 13:00,ZGKL 241300Z AUTO 4SM 13/06 A3012 RMK T01300060 IEM_DS3505
ZGKL,2007-11-24 14:00,ZGKL 241400Z AUTO 4SM 12/05 A3015 RMK T01200050 IEM_DS3505
ZGKL,2007-11-24 15:00,ZGKL 241500Z AUTO 02004KT 10SM 17/02 A3015 RMK SLP212 T01690021 52009 IEM_DS3505
ZGKL,2007-11-24 16:00,ZGKL 241600Z AUTO 03004KT 4SM 11/05 A3012 RMK T01100050 IEM_DS3505
ZGKL,2007-11-24 17:00,ZGKL 241700Z AUTO 00000KT 3SM 11/06 A3012 RMK T01100060 IEM_DS3505
ZGKL,2007-11-24 18:00,ZGKL 241800Z AUTO 36004KT 9SM 16/03 A3012 RMK SLP203 T01550027 57008 IEM_DS3505
ZGKL,2007-11-24 19:00,ZGKL 241900Z AUTO 00000KT 10/07 A3009 RMK T01000070 IEM_DS3505
ZGKL,2007-11-24 20:00,ZGKL 242000Z AUTO 00000KT 10/08 A3009 RMK T01000080 IEM_DS3505
ZGKL,2007-11-24 21:00,ZGKL 242100Z AUTO 29002KT 9SM 15/04 A3009 RMK SLP194 T01500038 57009 IEM_DS3505
ZGKL,2007-11-24 22:00,ZGKL 242200Z AUTO 00000KT 3SM 11/08 A3009 RMK T01100080 IEM_DS3505
ZGKL,2007-11-24 23:00,ZGKL 242300Z AUTO 00000KT 4SM 11/08 A3012 RMK T01100080 IEM_DS3505
ZGKL,2007-11-25 00:00,ZGKL 250000Z AUTO 29002KT 7SM 15/05 A3015 RMK SLP210 T01460046 52013 IEM_DS3505
ZGKL,2007-11-25 01:00,ZGKL 250100Z AUTO 00000KT 2SM 13/08 A3015 RMK T01300080 IEM_DS3505
ZGKL,2007-11-25 02:00,ZGKL 250200Z AUTO 00000KT 2 1/2SM 14/08 A3018 RMK T01400080 IEM_DS3505
ZGKL,2007-11-25 03:00,ZGKL 250300Z AUTO 36006KT 6SM 18/04 A3018 RMK SLP221 T01800039 52012 IEM_DS3505
ZGKL,2007-11-25 04:00,ZGKL 250400Z AUTO 00000KT 2 1/2SM 17/07 A3015 RMK T01700070 IEM_DS3505
ZGKL,2007-11-25 05:00,ZGKL 250500Z AUTO 00000KT 2 1/2SM 19/05 A3012 RMK T01900050 IEM_DS3505
ZGKL,2007-11-25 06:00,ZGKL 250600Z AUTO 02004KT 7SM 21/04 A3009 RMK SLP193 T02070039 57027 IEM_DS3505
ZGKL,2007-11-25 07:00,ZGKL 250700Z AUTO 4SM 20/05 A3006 RMK T02000050 IEM_DS3505
ZGKL,2007-11-25 08:00,ZGKL 250800Z AUTO 4SM 21/05 A3006 RMK T02100050 IEM_DS3505
ZGKL,2007-11-25 09:00,ZGKL 250900Z AUTO 02004KT 7SM 20/05 A3006 RMK SLP189 T02010046 57004 IEM_DS3505
ZGKL,2007-11-25 10:00,ZGKL 251000Z AUTO 00000KT 4SM 18/09 A3009 RMK T01800090 IEM_DS3505
ZGKL,2007-11-25 11:00,ZGKL 251100Z AUTO 00000KT 3SM 17/08 A3012 RMK T01700080 IEM_DS3505
ZGKL,2007-11-25 12:00,ZGKL 251200Z AUTO 36008KT 7SM 18/05 A3012 RMK SLP208 T01830052 52018 IEM_DS3505
ZGKL,2007-11-25 13:00,ZGKL 251300Z AUTO 00000KT 2SM 14/10 A3015 RMK T01400100 IEM_DS3505
ZGKL,2007-11-25 14:00,ZGKL 251400Z AUTO 00000KT 2 1/2SM 13/09 A3015 RMK T01300090 IEM_DS3505
ZGKL,2007-11-25 15:00,ZGKL 251500Z AUTO 02010KT 7SM 17/05 A3018 RMK SLP223 T01680051 52015 IEM_DS3505
ZGKL,2007-11-25 16:00,ZGKL 251600Z AUTO 00000KT 2SM 11/09 A3018 RMK T01100090 IEM_DS3505
ZGKL,2007-11-25 17:00,ZGKL 251700Z AUTO 1 1/2SM 10/08 A3018 RMK T01000080 IEM_DS3505
ZGKL,2007-11-25 18:00,ZGKL 251800Z AUTO 36008KT 7SM 16/05 A3018 RMK SLP221 T01570050 57001 IEM_DS3505
ZGKL,2007-11-25 19:00,ZGKL 251900Z AUTO 00000KT 10/08 A3018 RMK T01000080 IEM_DS3505
ZGKL,2007-11-25 20:00,ZGKL 252000Z AUTO 35004KT 09/07 A3018 RMK T00900070 IEM_DS3505
ZGKL,2007-11-25 21:00,ZGKL 252100Z AUTO 02008KT 7SM 15/05 A3015 RMK SLP221 T01520046 57001 IEM_DS3505
ZGKL,2007-11-25 22:00,ZGKL 252200Z AUTO 00000KT 2 1/2SM 09/07 A3018 RMK T00900070 IEM_DS3505
ZGKL,2007-11-25 23:00,ZGKL 252300Z AUTO 00000KT 2 1/2SM 08/06 A3021 RMK T00800060 IEM_DS3505
ZGKL,2007-11-26 00:00,ZGKL 260000Z AUTO 02008KT 8SM 15/04 RMK SLP242 T01520040 52020 IEM_DS3505
ZGKL,2007-11-26 01:00,ZGKL 260100Z AUTO 00000KT 6SM 12/08 A3024 RMK T01200080 IEM_DS3505
ZGKL,2007-11-26 02:00,ZGKL 260200Z AUTO 03010KT 6SM 18/03 A3027 RMK T01800030 IEM_DS3505
ZGKL,2007-11-26 03:00,ZGKL 260300Z AUTO 02010KT 8SM 19/02 A3024 RMK SLP250 T01860024 52009 IEM_DS3505
ZGKL,2007-11-26 04:00,ZGKL 260400Z AUTO 05014KT 6SM 21/03 A3021 RMK T02100030 IEM_DS3505
ZGKL,2007-11-26 05:00,ZGKL 260500Z AUTO 06014KT 6SM 22/03 A3018 RMK T02200030 IEM_DS3505
ZGKL,2007-11-26 06:00,ZGKL 260600Z AUTO 02010KT 7SM 21/02 A3015 RMK SLP221 T02120015 57028 IEM_DS3505
ZGKL,2007-11-26 07:00,ZGKL 260700Z AUTO 06016KT 6SM 22/02 A3015 RMK T02200020 IEM_DS3505
ZGKL,2007-11-26 08:00,ZGKL 260800Z AUTO 06016KT 6SM 21/00 A3012 RMK T02100000 IEM_DS3505
ZGKL,2007-11-26 09:00,ZGKL 260900Z AUTO 04010KT 7SM 20/M00 A3015 RMK SLP218 T02021004 57004 IEM_DS3505
ZGKL,2007-11-26 10:00,ZGKL 261000Z AUTO 05012KT 4SM 19/00 A3015 RMK T01900000 IEM_DS3505
ZGKL,2007-11-26 11:00,ZGKL 261100Z AUTO 05010KT 3SM 18/01 A3021 RMK T01800010 IEM_DS3505
ZGKL,2007-11-26 12:00,ZGKL 261200Z AUTO 02008KT 7SM 17/M01 A3021 RMK SLP244 T01691008 52025 IEM_DS3505
ZGKL,2007-11-26 13:00,ZGKL 261300Z AUTO 02010KT 3SM 15/01 A3024 RMK T01500010 IEM_DS3505
ZGKL,2007-11-26 14:00,ZGKL 261400Z AUTO 06006KT 3SM 14/01 A3024 RMK T01400010 IEM_DS3505
ZGKL,2007-11-26 15:00,ZGKL 261500Z AUTO 02008KT 7SM 14/M02 A3024 RMK SLP253 T01441021 52009 IEM_DS3505
ZGKL,2007-11-26 16:00,ZGKL 261600Z AUTO 06008KT 3SM 13/M01 A3024 RMK T01301010 IEM_DS3505
ZGKL,2007-11-26 17:00,ZGKL 261700Z AUTO 00000KT 11/00 A3024 RMK T01100000 IEM_DS3505
ZGKL,2007-11-26 18:00,ZGKL 261800Z AUTO 02008KT 7SM 13/M04 A3024 RMK SLP248 T01261036 57005 IEM_DS3505
ZGKL,2007-11-26 19:00,ZGKL 261900Z AUTO 09/M01 A3021 RMK T00901010 IEM_DS3505
ZGKL,2007-11-26 20:00,ZGKL 262000Z AUTO 08/M01 A3021 RMK T00801010 IEM_DS3505
ZGKL,2007-11-26 21:00,ZGKL 262100Z AUTO 02008KT 7SM 11/M05 A3021 RMK SLP241 T01131052 57007 IEM_DS3505
ZGKL,2007-11-26 22:00,ZGKL 262200Z AUTO 00000KT 3SM 05/02 A3024 RMK T00500020 IEM_DS3505
ZGKL,2007-11-26 23:00,ZGKL 262300Z AUTO 00000KT 4SM 05/02 A3024 RMK T00500020 IEM_DS3505
ZGKL,2007-11-27 00:00,ZGKL 270000Z AUTO 04006KT 8SM 10/M05 A3027 RMK SLP255 T01031053 52012 IEM_DS3505
ZGKL,2007-11-27 01:00,ZGKL 270100Z AUTO 6SM 11/M02 A3027 RMK T01101020 IEM_DS3505
ZGKL,2007-11-27 02:00,ZGKL 270200Z AUTO 6SM 15/M06 A3027 RMK T01501060 IEM_DS3505
ZGKL,2007-11-27 03:00,ZGKL 270300Z AUTO 02016KT 8SM 15/M14 A3024 RMK SLP252 T01541139 57002 IEM_DS3505
ZGKL,2007-11-27 04:00,ZGKL 270400Z AUTO 6SM 18/M10 A3021 RMK T01801100 IEM_DS3505
ZGKL,2007-11-27 05:00,ZGKL 270500Z AUTO 04010KT 6SM 19/M11 A3015 RMK T01901110 IEM_DS3505
ZGKL,2007-11-27 06:00,ZGKL 270600Z AUTO 04006KT 9SM 19/M10 A3009 RMK SLP203 T01861103 57048 IEM_DS3505
ZGKL,2007-11-27 07:00,ZGKL 270700Z AUTO 08010KT 6SM 19/M10 A3006 RMK T01901100 IEM_DS3505
ZGKL,2007-11-27 08:00,ZGKL 270800Z AUTO 06010KT 6SM 19/M10 A3006 RMK T01901100 IEM_DS3505
ZGKL,2007-11-27 09:00,ZGKL 270900Z AUTO 07004KT 9SM 17/M10 A3006 RMK SLP187 T01741095 57016 IEM_DS3505
ZGKL,2007-11-27 10:00,ZGKL 271000Z AUTO 04008KT 6SM 15/M08 A3009 RMK T01501080 IEM_DS3505
ZGKL,2007-11-27 11:00,ZGKL 271100Z AUTO 6SM 13/M08 A3012 RMK T01301080 IEM_DS3505
ZGKL,2007-11-27 12:00,ZGKL 271200Z AUTO 04006KT 9SM 13/M08 A3012 RMK SLP217 T01291077 52027 IEM_DS3505
ZGKL,2007-11-27 13:00,ZGKL 271300Z AUTO 4SM 08/M03 A3015 RMK T00801030 IEM_DS3505
ZGKL,2007-11-27 14:00,ZGKL 271400Z AUTO 32006KT 4SM 07/M02 A3015 RMK T00701020 IEM_DS3505
ZGKL,2007-11-27 15:00,ZGKL 271500Z AUTO 02004KT 9SM 11/M08 A3015 RMK SLP227 T01081084 52011 IEM_DS3505
ZGKL,2007-11-27 16:00,ZGKL 271600Z AUTO 5SM 05/M02 A3015 RMK T00501020 IEM_DS3505
ZGKL,2007-11-27 17:00,ZGKL 271700Z AUTO 31004KT 5SM 04/M01 A3015 RMK T00401010 IEM_DS3505
ZGKL,2007-11-27 18:00,ZGKL 271800Z AUTO 04004KT 9SM 09/M08 A3012 RMK SLP214 T00921079 57012 IEM_DS3505
ZGKL,2007-11-27 19:00,ZGKL 271900Z AUTO 00000KT 02/M01 A3012 RMK T00201010 IEM_DS3505
ZGKL,2007-11-27 20:00,ZGKL 272000Z AUTO 00000KT 01/M01 A3012 RMK T00101010 IEM_DS3505
ZGKL,2007-11-27 21:00,ZGKL 272100Z AUTO 02002KT 9SM 07/M08 A3012 RMK SLP208 T00731075 57007 IEM_DS3505
ZGKL,2007-11-27 22:00,ZGKL 272200Z AUTO 00000KT 6SM 00/M02 A3012 RMK T00001020 IEM_DS3505
ZGKL,2007-11-27 23:00,ZGKL 272300Z AUTO 00000KT 6SM 00/M02 A3015 RMK T00001020 IEM_DS3505
ZGKL,2007-11-28 00:00,ZGKL 280000Z AUTO 36004KT 10SM 07/M06 A3018 RMK SLP229 T00691061 52019 IEM_DS3505
ZGKL,2007-11-28 01:00,ZGKL 280100Z AUTO 00000KT 6SM 06/00 A3018 RMK T00600000 IEM_DS3505
ZGKL,2007-11-28 02:00,ZGKL 280200Z AUTO 00000KT 6SM 11/M03 A3018 RMK T01101030 IEM_DS3505
ZGKL,2007-11-28 03:00,ZGKL 280300Z AUTO 02008KT 10SM 15/M09 A3015 RMK SLP221 T01511090 57006 IEM_DS3505
ZGKL,2007-11-28 04:00,ZGKL 280400Z AUTO 04012KT 6SM 18/M10 A3012 RMK T01801100 IEM_DS3505
ZGKL,2007-11-28 05:00,ZGKL 280500Z AUTO 06012KT 6SM 19/M09 A3009 RMK T01901090 IEM_DS3505
ZGKL,2007-11-28 06:00,ZGKL 280600Z AUTO 36008KT 12SM 19/M09 A3006 RMK SLP183 T01941088 57036 IEM_DS3505
ZGKL,2007-11-28 07:00,ZGKL 280700Z AUTO 04014KT 6SM 20/M10 A3003 RMK T02001100 IEM_DS3505
ZGKL,2007-11-28 08:00,ZGKL 280800Z AUTO 06010KT 6SM 20/M10 A3003 RMK T02001100 IEM_DS3505
ZGKL,2007-11-28 09:00,ZGKL 280900Z AUTO 02004KT 17SM 19/M08 A3003 RMK SLP182 T01921080 57002 IEM_DS3505
ZGKL,2007-11-28 10:00,ZGKL 281000Z AUTO 05004KT 6SM 17/M07 A3006 RMK T01701070 IEM_DS3505
ZGKL,2007-11-28 11:00,ZGKL 281100Z AUTO 31004KT 6SM 12/M02 A3006 RMK T01201020 IEM_DS3505
ZGKL,2007-11-28 12:00,ZGKL 281200Z AUTO 04006KT 14SM 14/M06 A3009 RMK SLP204 T01411062 52020 IEM_DS3505
ZGKL,2007-11-28 13:00,ZGKL 281300Z AUTO 6SM 08/00 A3009 RMK T00800000 IEM_DS3505
ZGKL,2007-11-28 14:00,ZGKL 281400Z AUTO 00000KT 4SM 08/00 A3012 RMK T00800000 IEM_DS3505
ZGKL,2007-11-28 15:00,ZGKL 281500Z AUTO 02006KT 14SM 13/M06 A3015 RMK SLP214 T01301056 52012 IEM_DS3505
ZGKL,2007-11-28 16:00,ZGKL 281600Z AUTO 6SM 05/01 A3015 RMK T00500010 IEM_DS3505
ZGKL,2007-11-28 17:00,ZGKL 281700Z AUTO 00000KT 04/01 A3015 RMK T00400010 IEM_DS3505
ZGKL,2007-11-28 18:00,ZGKL 281800Z AUTO 02006KT 12SM 11/M04 A3015 RMK SLP217 T01071045 52004 IEM_DS3505
ZGKL,2007-11-28 19:00,ZGKL 281900Z AUTO 00000KT 04/01 A3015 RMK T00400010 IEM_DS3505
ZGKL,2007-11-28 20:00,ZGKL 282000Z AUTO 00000KT 03/01 A3015 RMK T00300010 IEM_DS3505
ZGKL,2007-11-28 21:00,ZGKL 282100Z AUTO 04004KT 10SM 08/M03 A3015 RMK SLP221 T00811031 52003 IEM_DS3505
ZGKL,2007-11-28 22:00,ZGKL 282200Z AUTO 00000KT 3SM 02/00 A3018 RMK T00200000 IEM_DS3505
ZGKL,2007-11-28 23:00,ZGKL 282300Z AUTO 00000KT 5SM 01/00 A3021 RMK T00100000 IEM_DS3505
ZGKL,2007-11-29 00:00,ZGKL 290000Z AUTO 02002KT 10SM 08/M03 A3024 RMK SLP247 T00771026 52023 IEM_DS3505
ZGKL,2007-11-29 01:00,ZGKL 290100Z AUTO 00000KT 6SM 07/03 A3024 RMK T00700030 IEM_DS3505
ZGKL,2007-11-29 02:00,ZGKL 290200Z AUTO 00000KT 6SM 12/M01 A3024 RMK T01201010 IEM_DS3505
ZGKL,2007-11-29 03:00,ZGKL 290300Z AUTO 34004KT 7SM 16/M05 A3024 RMK SLP243 T01651053 57001 IEM_DS3505
ZGKL,2007-11-29 04:00,ZGKL 290400Z AUTO 6SM 18/M05 A3021 RMK T01801050 IEM_DS3505
ZGKL,2007-11-29 05:00,ZGKL 290500Z AUTO 6SM 19/M05 A3018 RMK T01901050 IEM_DS3505
ZGKL,2007-11-29 06:00,ZGKL 290600Z AUTO 02004KT 9SM 21/M07 A3015 RMK SLP214 T02121073 57028 IEM_DS3505
ZGKL,2007-11-29 07:00,ZGKL 290700Z AUTO 25004KT 6SM 21/M06 A3012 RMK T02101060 IEM_DS3505
ZGKL,2007-11-29 08:00,ZGKL 290800Z AUTO 6SM 21/M06 A3012 RMK T02101060 IEM_DS3505
ZGKL,2007-11-29 09:00,ZGKL 290900Z AUTO 02004KT 9SM 20/M08 A3012 RMK SLP212 T02041080 57003 IEM_DS3505
ZGKL,2007-11-29 10:00,ZGKL 291000Z AUTO 26004KT 6SM 16/M02 A3015 RMK T01601020 IEM_DS3505
ZGKL,2007-11-29 11:00,ZGKL 291100Z AUTO 00000KT 6SM 12/00 A3018 RMK T01200000 IEM_DS3505
ZGKL,2007-11-29 12:00,ZGKL 291200Z AUTO 02006KT 9SM 15/M06 A3021 RMK SLP235 T01481061 52021 IEM_DS3505
ZGKL,2007-11-29 13:00,ZGKL 291300Z AUTO 00000KT 4SM 08/01 A3021 RMK T00800010 IEM_DS3505
ZGKL,2007-11-29 14:00,ZGKL 291400Z AUTO 00000KT 4SM 07/02 A3024 RMK T00700020 IEM_DS3505
ZGKL,2007-11-29 15:00,ZGKL 291500Z AUTO 02006KT 7SM 13/M05 A3024 RMK SLP250 T01281052 52017 IEM_DS3505
ZGKL,2007-11-29 16:00,ZGKL 291600Z AUTO 00000KT 4SM 05/01 A3024 RMK T00500010 IEM_DS3505
ZGKL,2007-11-29 17:00,ZGKL 291700Z AUTO 00000KT 4SM 04/01 A3027 RMK T00400010 IEM_DS3505
ZGKL,2007-11-29 18:00,ZGKL 291800Z AUTO 36002KT 7SM 11/M05 A3024 RMK SLP251 T01121049 52002 IEM_DS3505
ZGKL,2007-11-29 19:00,ZGKL 291900Z AUTO 00000KT 03/01 A3024 RMK T00300010 IEM_DS3505
ZGKL,2007-11-29 20:00,ZGKL 292000Z AUTO 00000KT 02/00 A3027 RMK T00200000 IEM_DS3505
ZGKL,2007-11-29 21:00,ZGKL 292100Z AUTO 02004KT 8SM 10/M03 A3024 RMK SLP251 T00951034 57001 IEM_DS3505
ZGKL,2007-11-29 22:00,ZGKL 292200Z AUTO 00000KT 4SM 02/00 A3027 RMK T00200000 IEM_DS3505
ZGKL,2007-11-29 23:00,ZGKL 292300Z AUTO 00000KT 5SM 01/00 A3030 RMK T00100000 IEM_DS3505
ZGKL,2007-11-30 00:00,ZGKL 300000Z AUTO 02002KT 7SM 08/M02 A3030 RMK SLP271 T00811017 52017 IEM_DS3505
ZGKL,2007-11-30 01:00,ZGKL 300100Z AUTO 00000KT 6SM 06/03 A3030 RMK T00600030 IEM_DS3505
ZGKL,2007-11-30 02:00,ZGKL 300200Z AUTO 00000KT 6SM 11/03 A3033 RMK T01100030 IEM_DS3505
ZGKL,2007-11-30 03:00,ZGKL 300300Z AUTO 07004KT 6SM 15/M02 A3030 RMK SLP268 T01511019 57001 IEM_DS3505
ZGKL,2007-11-30 04:00,ZGKL 300400Z AUTO 6SM 17/M02 A3027 RMK T01701020 IEM_DS3505
ZGKL,2007-11-30 05:00,ZGKL 300500Z AUTO 6SM 19/M03 A3024 RMK T01901030 IEM_DS3505
ZGKL,2007-11-30 06:00,ZGKL 300600Z AUTO 14002KT 5SM 20/M04 A3018 RMK SLP227 T01991044 57039 IEM_DS3505
ZGKL,2007-11-30 07:00,ZGKL 300700Z AUTO 13004KT 6SM 20/M03 A3015 RMK T02001030 IEM_DS3505
ZGKL,2007-11-30 08:00,ZGKL 300800Z AUTO 13004KT 6SM 20/M03 A3012 RMK T02001030 IEM_DS3505
ZGKL,2007-11-30 09:00,ZGKL 300900Z AUTO 18002KT 6SM 20/M05 A3012 RMK SLP211 T02021049 57016 IEM_DS3505
ZGKL,2007-11-30 10:00,ZGKL 301000Z AUTO 27004KT 4SM 15/01 A3015 RMK T01500010 IEM_DS3505
ZGKL,2007-11-30 11:00,ZGKL 301100Z AUTO 4SM 12/03 A3015 RMK T01200030 IEM_DS3505
ZGKL,2007-11-30 12:00,ZGKL 301200Z AUTO 34002KT 6SM 14/00 A3018 RMK SLP228 T01350005 52013 IEM_DS3505
ZGKL,2007-11-30 13:00,ZGKL 301300Z AUTO 00000KT 2 1/2SM 08/04 A3018 RMK T00800040 IEM_DS3505
ZGKL,2007-11-30 14:00,ZGKL 301400Z AUTO 00000KT 2 1/2SM 07/04 A3018 RMK T00700040 IEM_DS3505
ZGKL,2007-11-30 15:00,ZGKL 301500Z AUTO 04002KT 6SM 11/01 A3018 RMK SLP231 T01060009 52005 IEM_DS3505
ZGKL,2007-11-30 16:00,ZGKL 301600Z AUTO 00000KT 2 1/2SM 05/03 A3018 RMK T00500030 IEM_DS3505
ZGKL,2007-11-30 17:00,ZGKL 301700Z AUTO 00000KT 2SM 05/03 A3018 RMK T00500030 IEM_DS3505
ZGKL,2007-11-30 18:00,ZGKL 301800Z AUTO 00000KT 6SM 08/01 A3018 RMK SLP230 T00810008 54000 IEM_DS3505
ZGKL,2007-11-30 19:00,ZGKL 301900Z AUTO 00000KT 2 1/2SM 04/02 A3018 RMK T00400020 IEM_DS3505
ZGKL,2007-11-30 20:00,ZGKL 302000Z AUTO 00000KT 2SM 03/02 A3018 RMK T00300020 IEM_DS3505
ZGKL,2007-11-30 21:00,ZGKL 302100Z AUTO 02002KT 6SM 07/01 A3015 RMK SLP225 T00670010 57006 IEM_DS3505
ZGKL,2007-11-30 22:00,ZGKL 302200Z AUTO 00000KT 2 1/2SM 02/01 A3018 RMK T00200010 IEM_DS3505
ZGKL,2007-11-30 23:00,ZGKL 302300Z AUTO 00000KT 2SM 02/01 A3018 RMK T00200010 IEM_DS3505
ZGKL,2007-12-01 00:00,ZGKL 010000Z AUTO 00000KT 6SM 06/01 A3021 RMK SLP245 T00590011 52017 IEM_DS3505
ZGKL,2007-12-01 01:00,ZGKL 010100Z AUTO 00000KT 1 1/2SM 06/04 A3024 RMK T00600040 IEM_DS3505
ZGKL,2007-12-01 02:00,ZGKL 010200Z AUTO 00000KT 2SM 09/05 A3024 RMK T00900050 IEM_DS3505
ZGKL,2007-12-01 03:00,ZGKL 010300Z AUTO 14002KT 6SM 15/02 A3021 RMK SLP242 T01470016 57001 IEM_DS3505
ZGKL,2007-12-01 04:00,ZGKL 010400Z AUTO 2 1/2SM 17/03 A3018 RMK T01700030 IEM_DS3505
ZGKL,2007-12-01 05:00,ZGKL 010500Z AUTO 17006KT 3SM 19/02 A3012 RMK T01900020 IEM_DS3505
ZGKL,2007-12-01 06:00,ZGKL 010600Z AUTO 18008KT 5SM 21/04 A3006 RMK SLP187 T02120039 57052 IEM_DS3505
ZGKL,2007-12-01 07:00,ZGKL 010700Z AUTO 14006KT 5SM 22/03 A3003 RMK T02200030 IEM_DS3505
ZGKL,2007-12-01 08:00,ZGKL 010800Z AUTO 09008KT 5SM 22/04 A3000 RMK T02200040 IEM_DS3505
ZGKL,2007-12-01 09:00,ZGKL 010900Z AUTO 36002KT 8SM 21/04 A3000 RMK SLP171 T02080040 57016 IEM_DS3505
ZGKL,2007-12-01 10:00,ZGKL 011000Z AUTO 3SM 18/06 A3003 RMK T01800060 IEM_DS3505
ZGKL,2007-12-01 11:00,ZGKL 011100Z AUTO 33004KT 2 1/2SM 17/07 A3003 RMK T01700070 IEM_DS3505
ZGKL,2007-12-01 12:00,ZGKL 011200Z AUTO 29002KT 8SM 18/06 A3006 RMK SLP189 T01760059 52016 IEM_DS3505
ZGKL,2007-12-01 13:00,ZGKL 011300Z AUTO 00000KT 2 1/2SM 15/08 A3009 RMK T01500080 IEM_DS3505
ZGKL,2007-12-01 14:00,ZGKL 011400Z AUTO 35006KT 2 1/2SM 15/08 A3009 RMK T01500080 IEM_DS3505
ZGKL,2007-12-01 15:00,ZGKL 011500Z AUTO 04002KT 7SM 15/07 A3012 RMK SLP208 T01540067 52021 IEM_DS3505
ZGKL,2007-12-01 16:00,ZGKL 011600Z AUTO 3SM 11/08 A3012 RMK T01100080 IEM_DS3505
ZGKL,2007-12-01 17:00,ZGKL 011700Z AUTO 10/08 A3012 RMK T01000080 IEM_DS3505
ZGKL,2007-12-01 18:00,ZGKL 011800Z AUTO 04002KT 7SM 15/07 A3012 RMK SLP211 T01480069 52005 IEM_DS3505
ZGKL,2007-12-01 19:00,ZGKL 011900Z AUTO 00000KT 10/08 A3012 RMK T01000080 IEM_DS3505
ZGKL,2007-12-01 20:00,ZGKL 012000Z AUTO 00000KT 11/09 A3015 RMK T01100090 IEM_DS3505
ZGKL,2007-12-01 21:00,ZGKL 012100Z AUTO 34002KT 7SM 15/08 A3015 RMK SLP219 T01460076 52007 IEM_DS3505
ZGKL,2007-12-01 22:00,ZGKL 012200Z AUTO 00000KT 2 1/2SM 11/09 A3018 RMK T01100090 IEM_DS3505
ZGKL,2007-12-01 23:00,ZGKL 012300Z AUTO 00000KT 3SM 12/09 A3018 RMK T01200090 IEM_DS3505
ZGKL,2007-12-02 00:00,ZGKL 020000Z AUTO 04002KT 5SM 14/09 A3021 RMK SLP239 T01420090 52019 IEM_DS3505
ZGKL,2007-12-02 01:00,ZGKL 020100Z AUTO 3SM 13/10 A3024 RMK T01300100 IEM_DS3505
ZGKL,2007-12-02 02:00,ZGKL 020200Z AUTO 00000KT 3SM 15/09 A3024 RMK T01500090 IEM_DS3505
ZGKL,2007-12-02 03:00,ZGKL 020300Z AUTO 36008KT 5SM 14/07 A3027 RMK SLP259 T01450073 52019 IEM_DS3505
ZGKL,2007-12-02 04:00,ZGKL 020400Z AUTO 04008KT 3SM 16/06 A3024 RMK T01600060 IEM_DS3505
ZGKL,2007-12-02 05:00,ZGKL 020500Z AUTO 05008KT 2 1/2SM 17/06 A3024 RMK T01700060 IEM_DS3505
ZGKL,2007-12-02 06:00,ZGKL 020600Z AUTO 36010KT 4SM 15/06 A3021 RMK 60002 SLP244 T01510059 57015 IEM_DS3505
ZGKL,2007-12-02 07:00,ZGKL 020700Z AUTO 06008KT 2SM 15/07 A3021 RMK T01500070 IEM_DS3505
ZGKL,2007-12-02 08:00,ZGKL 020800Z AUTO 06012KT 1 1/2SM 14/06 A3024 RMK T01400060 IEM_DS3505
ZGKL,2007-12-02 09:00,ZGKL 020900Z AUTO 02010KT 3SM 13/06 A3024 RMK SLP257 T01280057 52012 IEM_DS3505
ZGKL,2007-12-02 10:00,ZGKL 021000Z AUTO 05010KT 1 1/2SM 13/06 A3027 RMK T01300060 IEM_DS3505
ZGKL,2007-12-02 11:00,ZGKL 021100Z AUTO 1 1/2SM 12/06 A3027 RMK T01200060 IEM_DS3505
ZGKL,2007-12-02 12:00,ZGKL 021200Z AUTO 02008KT 3SM 12/05 A3030 RMK SLP271 T01220047 52013 IEM_DS3505
ZGKL,2007-12-02 13:00,ZGKL 021300Z AUTO 00000KT 1 1/4SM 11/07 A3030 RMK T01100070 IEM_DS3505
ZGKL,2007-12-02 14:00,ZGKL 021400Z AUTO 1 1/4SM 10/07 A3030 RMK T01000070 IEM_DS3505
ZGKL,2007-12-02 15:00,ZGKL 021500Z AUTO 02008KT 3SM 12/04 A3030 RMK SLP275 T01180038 52004 IEM_DS3505
ZGKL,2007-12-02 16:00,ZGKL 021600Z AUTO 00000KT 1 1/4SM 10/08 A3030 RMK T01000080 IEM_DS3505
ZGKL,2007-12-02 17:00,ZGKL 021700Z AUTO 00000KT 10/07 A3030 RMK T01000070 IEM_DS3505
ZGKL,2007-12-02 18:00,ZGKL 021800Z AUTO 02008KT 3SM 12/02 A3030 RMK SLP268 T01200019 57006 IEM_DS3505
ZGKL,2007-12-02 19:00,ZGKL 021900Z AUTO 05004KT 11/04 A3030 RMK T01100040 IEM_DS3505
ZGKL,2007-12-02 20:00,ZGKL 022000Z AUTO 11/05 A3027 RMK T01100050 IEM_DS3505
ZGKL,2007-12-02 21:00,ZGKL 022100Z AUTO 02002KT 3SM 12/01 A3027 RMK 70002 SLP261 T01170014 57008 IEM_DS3505
ZGKL,2007-12-02 22:00,ZGKL 022200Z AUTO 00000KT 2 1/2SM 10/05 A3030 RMK T01000050 IEM_DS3505
ZGKL,2007-12-02 23:00,ZGKL 022300Z AUTO 00000KT 2SM 10/06 A3030 RMK T01000060 IEM_DS3505
ZGKL,2007-12-03 00:00,ZGKL 030000Z AUTO 02006KT 4SM 12/00 A3030 RMK 70002 SLP276 T01170005 52014 IEM_DS3505
ZGKL,2007-12-03 01:00,ZGKL 030100Z AUTO 00000KT 1 1/2SM 11/06 A3033 RMK T01100060 IEM_DS3505
ZGKL,2007-12-03 02:00,ZGKL 030200Z AUTO 05004KT 4SM 13/02 A3033 RMK T01300020 IEM_DS3505
ZGKL,2007-12-03 03:00,ZGKL 030300Z AUTO 02008KT 6SM 14/M03 A3033 RMK SLP277 T01431030 52002 IEM_DS3505
ZGKL,2007-12-03 04:00,ZGKL 030400Z AUTO 07008KT 4SM 16/M03 A3030 RMK T01601030 IEM_DS3505
ZGKL,2007-12-03 05:00,ZGKL 030500Z AUTO 06006KT 4SM 17/M04 A3027 RMK T01701040 IEM_DS3505
ZGKL,2007-12-03 06:00,ZGKL 030600Z AUTO 02004KT 8SM 18/M05 A3024 RMK SLP244 T01801053 57031 IEM_DS3505
ZGKL,2007-12-03 07:00,ZGKL 030700Z AUTO 07006KT 6SM 17/M04 A3021 RMK T01701040 IEM_DS3505
ZGKL,2007-12-03 08:00,ZGKL 030800Z AUTO 06004KT 6SM 18/M05 A3021 RMK T01801050 IEM_DS3505
ZGKL,2007-12-03 09:00,ZGKL 030900Z AUTO 02004KT 8SM 17/M06 A3021 RMK SLP238 T01731059 57006 IEM_DS3505
ZGKL,2007-12-03 10:00,ZGKL 031000Z AUTO 31002KT 4SM 15/M01 A3021 RMK T01501010 IEM_DS3505
ZGKL,2007-12-03 11:00,ZGKL 031100Z AUTO 00000KT 4SM 15/03 A3024 RMK T01500030 IEM_DS3505
ZGKL,2007-12-03 12:00,ZGKL 031200Z AUTO 36004KT 7SM 15/M03 A3024 RMK SLP252 T01491034 52013 IEM_DS3505
ZGKL,2007-12-03 13:00,ZGKL 031300Z AUTO 00000KT 3SM 12/02 A3027 RMK T01200020 IEM_DS3505
ZGKL,2007-12-03 14:00,ZGKL 031400Z AUTO 04006KT 4SM 13/M02 A3027 RMK T01301020 IEM_DS3505
ZGKL,2007-12-03 15:00,ZGKL 031500Z AUTO 02004KT 7SM 13/M04 A3027 RMK SLP264 T01301042 52012 IEM_DS3505
ZGKL,2007-12-03 16:00,ZGKL 031600Z AUTO 00000KT 3SM 10/03 A3027 RMK T01000030 IEM_DS3505
ZGKL,2007-12-03 17:00,ZGKL 031700Z AUTO 00000KT 09/03 A3030 RMK T00900030 IEM_DS3505
ZGKL,2007-12-03 18:00,ZGKL 031800Z AUTO 02002KT 7SM 12/M02 A3027 RMK SLP261 T01171021 57002 IEM_DS3505
ZGKL,2007-12-03 19:00,ZGKL 031900Z AUTO 00000KT 08/05 A3027 RMK T00800050 IEM_DS3505
ZGKL,2007-12-03 20:00,ZGKL 032000Z AUTO 00000KT 08/05 A3027 RMK T00800050 IEM_DS3505
ZGKL,2007-12-03 21:00,ZGKL 032100Z AUTO 02004KT 7SM 11/M02 A3027 RMK SLP265 T01111020 52003 IEM_DS3505
ZGKL,2007-12-03 22:00,ZGKL 032200Z AUTO 34004KT 3SM 08/06 A3030 RMK T00800060 IEM_DS3505
ZGKL,2007-12-03 23:00,ZGKL 032300Z AUTO 00000KT 3SM 08/06 A3033 RMK T00800060 IEM_DS3505
ZGKL,2007-12-04 00:00,ZGKL 040000Z AUTO 02004KT 6SM 12/00 A3033 RMK SLP286 T01230001 52020 IEM_DS3505
ZGKL,2007-12-04 01:00,ZGKL 040100Z AUTO 00000KT 2 1/2SM 11/07 A3036 RMK T01100070 IEM_DS3505
ZGKL,2007-12-04 02:00,ZGKL 040200Z AUTO 00000KT 3SM 14/01 A3039 RMK T01400010 IEM_DS3505
ZGKL,2007-12-04 03:00,ZGKL 040300Z AUTO 02006KT 7SM 15/M01 A3036 RMK SLP293 T01501007 52007 IEM_DS3505
ZGKL,2007-12-04 04:00,ZGKL 040400Z AUTO 3SM 17/01 A3036 RMK T01700010 IEM_DS3505
ZGKL,2007-12-04 05:00,ZGKL 040500Z AUTO 04010KT 3SM 17/00 A3033 RMK T01700000 IEM_DS3505
ZGKL,2007-12-04 06:00,ZGKL 040600Z AUTO 02010KT 7SM 17/M02 A3027 RMK SLP262 T01741023 57030 IEM_DS3505
ZGKL,2007-12-04 07:00,ZGKL 040700Z AUTO 3SM 18/M01 A3027 RMK T01801010 IEM_DS3505
ZGKL,2007-12-04 08:00,ZGKL 040800Z AUTO 06010KT 3SM 18/M01 A3027 RMK T01801010 IEM_DS3505
ZGKL,2007-12-04 09:00,ZGKL 040900Z AUTO 04006KT 7SM 17/M02 A3027 RMK SLP258 T01681018 57004 IEM_DS3505
ZGKL,2007-12-04 10:00,ZGKL 041000Z AUTO 06010KT 3SM 16/M01 A3027 RMK T01601010 IEM_DS3505
ZGKL,2007-12-04 11:00,ZGKL 041100Z AUTO 06014KT 4SM 16/M02 A3030 RMK T01601020 IEM_DS3505
ZGKL,2007-12-04 12:00,ZGKL 041200Z AUTO 02008KT 7SM 14/M03 A3033 RMK SLP282 T01401033 52023 IEM_DS3505
ZGKL,2007-12-04 13:00,ZGKL 041300Z AUTO 04004KT 4SM 14/M02 A3036 RMK T01401020 IEM_DS3505
ZGKL,2007-12-04 14:00,ZGKL 041400Z AUTO 4SM 13/00 A3036 RMK T01300000 IEM_DS3505
ZGKL,2007-12-04 15:00,ZGKL 041500Z AUTO 02006KT 7SM 13/M01 A3036 RMK SLP294 T01321008 52012 IEM_DS3505
ZGKL,2007-12-04 16:00,ZGKL 041600Z AUTO 00000KT 3SM 12/02 A3036 RMK T01200020 IEM_DS3505
ZGKL,2007-12-04 17:00,ZGKL 041700Z AUTO 05004KT 12/01 A3036 RMK T01200010 IEM_DS3505
ZGKL,2007-12-04 18:00,ZGKL 041800Z AUTO 02010KT 7SM 12/01 A3036 RMK SLP290 T01190010 57003 IEM_DS3505
ZGKL,2007-12-04 19:00,ZGKL 041900Z AUTO 06004KT 11/02 A3036 RMK T01100020 IEM_DS3505
ZGKL,2007-12-04 20:00,ZGKL 042000Z AUTO 06006KT 11/02 A3036 RMK T01100020 IEM_DS3505
ZGKL,2007-12-04 21:00,ZGKL 042100Z AUTO 04008KT 7SM 11/00 A3036 RMK SLP287 T01090003 57004 IEM_DS3505
ZGKL,2007-12-04 22:00,ZGKL 042200Z AUTO 08004KT 2 1/2SM 10/01 A3036 RMK T01000010 IEM_DS3505
ZGKL,2007-12-04 23:00,ZGKL 042300Z AUTO 2 1/2SM 10/02 A3036 RMK T01000020 IEM_DS3505
ZGKL,2007-12-05 00:00,ZGKL 050000Z AUTO 02008KT 6SM 10/00 A3039 RMK SLP301 T01030003 52013 IEM_DS3505
ZGKL,2007-12-05 01:00,ZGKL 050100Z AUTO 2SM 11/02 A3039 RMK T01100020 IEM_DS3505
ZGKL,2007-12-05 02:00,ZGKL 050200Z AUTO 06006KT 2 1/2SM 12/01 A3039 RMK T01200010 IEM_DS3505
ZGKL,2007-12-05 03:00,ZGKL 050300Z AUTO 02004KT 5SM 13/00 A3039 RMK SLP297 T01340001 57003 IEM_DS3505
ZGKL,2007-12-05 04:00,ZGKL 050400Z AUTO 3SM 15/01 A3033 RMK T01500010 IEM_DS3505
ZGKL,2007-12-05 05:00,ZGKL 050500Z AUTO 3SM 16/01 A3030 RMK T01600010 IEM_DS3505
ZGKL,2007-12-05 06:00,ZGKL 050600Z AUTO 04004KT 5SM 17/00 A3027 RMK SLP255 T01710003 57041 IEM_DS3505
ZGKL,2007-12-05 07:00,ZGKL 050700Z AUTO 06008KT 3SM 18/01 A3024 RMK T01800010 IEM_DS3505
ZGKL,2007-12-05 08:00,ZGKL 050800Z AUTO 07006KT 3SM 18/01 A3021 RMK T01800010 IEM_DS3505
ZGKL,2007-12-05 09:00,ZGKL 050900Z AUTO 02006KT 5SM 16/00 A3021 RMK SLP244 T01620003 57011 IEM_DS3505
ZGKL,2007-12-05 10:00,ZGKL 051000Z AUTO 05008KT 3SM 16/01 A3024 RMK T01600010 IEM_DS3505
ZGKL,2007-12-05 11:00,ZGKL 051100Z AUTO 06010KT 3SM 15/01 A3027 RMK T01500010 IEM_DS3505
ZGKL,2007-12-05 12:00,ZGKL 051200Z AUTO 02004KT 5SM 14/02 A3030 RMK SLP270 T01360016 52024 IEM_DS3505
ZGKL,2007-12-05 13:00,ZGKL 051300Z AUTO 2 1/2SM 13/02 A3030 RMK T01300020 IEM_DS3505
ZGKL,2007-12-05 14:00,ZGKL 051400Z AUTO 2 1/2SM 13/02 A3033 RMK T01300020 IEM_DS3505
ZGKL,2007-12-05 15:00,ZGKL 051500Z AUTO 02006KT 5SM 12/02 A3033 RMK SLP282 T01210017 52013 IEM_DS3505
ZGKL,2007-12-05 16:00,ZGKL 051600Z AUTO 11004KT 2 1/2SM 12/03 A3033 RMK T01200030 IEM_DS3505
ZGKL,2007-12-05 17:00,ZGKL 051700Z AUTO 00000KT 11/04 A3033 RMK T01100040 IEM_DS3505
ZGKL,2007-12-05 18:00,ZGKL 051800Z AUTO 02006KT 5SM 11/02 A3033 RMK 60000 SLP278 T01140022 57003 IEM_DS3505
ZGKL,2007-12-05 19:00,ZGKL 051900Z AUTO 00000KT 11/05 A3033 RMK T01100050 IEM_DS3505
ZGKL,2007-12-05 20:00,ZGKL 052000Z AUTO 00000KT 11/04 A3033 RMK T01100040 IEM_DS3505
ZGKL,2007-12-05 21:00,ZGKL 052100Z AUTO 02004KT 5SM 11/02 A3033 RMK 70000 SLP276 T01090025 57003 IEM_DS3505
ZGKL,2007-12-05 22:00,ZGKL 052200Z AUTO 00000KT 1 1/2SM 11/04 A3033 RMK T01100040 IEM_DS3505
ZGKL,2007-12-05 23:00,ZGKL 052300Z AUTO 00000KT 1 1/2SM 10/05 A3033 RMK T01000050 IEM_DS3505
ZGKL,2007-12-06 00:00,ZGKL 060000Z AUTO 02006KT 4SM 09/05 A3036 RMK 60002 70002 SLP289 T00870054 52011 IEM_DS3505
ZGKL,2007-12-06 01:00,ZGKL 060100Z AUTO 1SM 10/08 A3036 RMK T01000080 IEM_DS3505
ZGKL,2007-12-06 02:00,ZGKL 060200Z AUTO 1 1/2SM 11/08 A3036 RMK T01100080 IEM_DS3505
ZGKL,2007-12-06 03:00,ZGKL 060300Z AUTO 02006KT 3SM 11/05 A3033 RMK SLP285 T01120053 57003 IEM_DS3505
ZGKL,2007-12-06 04:00,ZGKL 060400Z AUTO 2 1/2SM 13/07 A3030 RMK T01300070 IEM_DS3505
ZGKL,2007-12-06 05:00,ZGKL 060500Z AUTO 2 1/2SM 14/06 A3027 RMK T01400060 IEM_DS3505
ZGKL,2007-12-06 06:00,ZGKL 060600Z AUTO 04004KT 3SM 15/05 A3024 RMK 60000 SLP246 T01470050 57037 IEM_DS3505
ZGKL,2007-12-06 07:00,ZGKL 060700Z AUTO 2 1/2SM 16/06 A3021 RMK T01600060 IEM_DS3505
ZGKL,2007-12-06 08:00,ZGKL 060800Z AUTO 2 1/2SM 17/06 A3018 RMK T01700060 IEM_DS3505
ZGKL,2007-12-06 09:00,ZGKL 060900Z AUTO 14002KT 3SM 15/05 A3021 RMK SLP236 T01530047 57010 IEM_DS3505
ZGKL,2007-12-06 10:00,ZGKL 061000Z AUTO 00000KT 2SM 14/07 A3021 RMK T01400070 IEM_DS3505
ZGKL,2007-12-06 11:00,ZGKL 061100Z AUTO 00000KT 2SM 11/07 A3024 RMK T01100070 IEM_DS3505
ZGKL,2007-12-06 12:00,ZGKL 061200Z AUTO 02002KT 3SM 12/05 A3024 RMK SLP257 T01210048 52019 IEM_DS3505
ZGKL,2007-12-06 13:00,ZGKL 061300Z AUTO 00000KT 1 1/4SM 09/07 A3027 RMK T00900070 IEM_DS3505
ZGKL,2007-12-06 14:00,ZGKL 061400Z AUTO 1SM 08/07 A3027 RMK T00800070 IEM_DS3505
ZGKL,2007-12-06 15:00,ZGKL 061500Z AUTO 02006KT 3SM 11/04 A3027 RMK SLP263 T01080045 52006 IEM_DS3505
ZGKL,2007-12-06 16:00,ZGKL 061600Z AUTO 31002KT 1SM 07/07 A3027 RMK T00700070 IEM_DS3505
ZGKL,2007-12-06 17:00,ZGKL 061700Z AUTO 00000KT 06/06 A3027 RMK T00600060 IEM_DS3505
ZGKL,2007-12-06 18:00,ZGKL 061800Z AUTO 36004KT 3SM 10/05 A3027 RMK SLP258 T00960046 57004 IEM_DS3505
ZGKL,2007-12-06 19:00,ZGKL 061900Z AUTO 00000KT 05/05 A3024 RMK T00500050 IEM_DS3505
ZGKL,2007-12-06 20:00,ZGKL 062000Z AUTO 05/04 A3024 RMK T00500040 IEM_DS3505
ZGKL,2007-12-06 21:00,ZGKL 062100Z AUTO 04004KT 4SM 08/04 A3024 RMK 70002 SLP253 T00850043 57005 IEM_DS3505
ZGKL,2007-12-06 22:00,ZGKL 062200Z AUTO 00000KT 1SM 03/02 A3027 RMK T00300020 IEM_DS3505
ZGKL,2007-12-06 23:00,ZGKL 062300Z AUTO 00000KT 1SM 03/02 A3027 RMK T00300020 IEM_DS3505
ZGKL,2007-12-07 00:00,ZGKL 070000Z AUTO 02002KT 4SM 08/04 A3030 RMK 70000 SLP269 T00790041 52014 IEM_DS3505
ZGKL,2007-12-07 01:00,ZGKL 070100Z AUTO 00000KT 1SM 06/05 A3030 RMK T00600050 IEM_DS3505
ZGKL,2007-12-07 02:00,ZGKL 070200Z AUTO 00000KT 2 1/2SM 10/08 A3033 RMK T01000080 IEM_DS3505
ZGKL,2007-12-07 03:00,ZGKL 070300Z AUTO 02006KT 4SM 14/04 A3030 RMK SLP270 T01380041 52003 IEM_DS3505
ZGKL,2007-12-07 04:00,ZGKL 070400Z AUTO 2 1/2SM 15/05 A3027 RMK T01500050 IEM_DS3505
ZGKL,2007-12-07 05:00,ZGKL 070500Z AUTO 07006KT 3SM 17/01 A3021 RMK T01700010 IEM_DS3505
ZGKL,2007-12-07 06:00,ZGKL 070600Z AUTO 02006KT 9SM 19/M02 A3018 RMK SLP225 T01891021 57043 IEM_DS3505
ZGKL,2007-12-07 07:00,ZGKL 070700Z AUTO 19004KT 4SM 19/01 A3015 RMK T01900010 IEM_DS3505
ZGKL,2007-12-07 08:00,ZGKL 070800Z AUTO 08004KT 5SM 20/M03 A3012 RMK T02001030 IEM_DS3505
ZGKL,2007-12-07 09:00,ZGKL 070900Z AUTO 02006KT 11SM 19/M05 A3012 RMK SLP209 T01861048 57016 IEM_DS3505
ZGKL,2007-12-07 10:00,ZGKL 071000Z AUTO 28004KT 5SM 15/01 A3012 RMK T01500010 IEM_DS3505
ZGKL,2007-12-07 11:00,ZGKL 071100Z AUTO 4SM 13/02 A3015 RMK T01300020 IEM_DS3505
ZGKL,2007-12-07 12:00,ZGKL 071200Z AUTO 02006KT 9SM 13/M03 A3015 RMK SLP228 T01331030 52016 IEM_DS3505
ZGKL,2007-12-07 13:00,ZGKL 071300Z AUTO 3SM 10/02 A3018 RMK T01000020 IEM_DS3505
ZGKL,2007-12-07 14:00,ZGKL 071400Z AUTO 00000KT 3SM 08/03 A3018 RMK T00800030 IEM_DS3505
ZGKL,2007-12-07 15:00,ZGKL 071500Z AUTO 02004KT 9SM 11/00 A3021 RMK SLP239 T01090003 52012 IEM_DS3505
ZGKL,2007-12-07 16:00,ZGKL 071600Z AUTO 00000KT 2 1/2SM 06/03 A3021 RMK T00600030 IEM_DS3505
ZGKL,2007-12-07 17:00,ZGKL 071700Z AUTO 00000KT 2SM 05/03 A3021 RMK T00500030 IEM_DS3505
ZGKL,2007-12-07 18:00,ZGKL 071800Z AUTO 04004KT 7SM 10/01 A3021 RMK SLP237 T00950012 54000 IEM_DS3505
ZGKL,2007-12-07 19:00,ZGKL 071900Z AUTO 00000KT 2 1/2SM 04/03 A3021 RMK T00400030 IEM_DS3505
ZGKL,2007-12-07 20:00,ZGKL 072000Z AUTO 00000KT 2SM 03/01 A3021 RMK T00300010 IEM_DS3505
ZGKL,2007-12-07 21:00,ZGKL 072100Z AUTO 02002KT 7SM 08/01 A3021 RMK SLP238 T00810008 54000 IEM_DS3505
ZGKL,2007-12-07 22:00,ZGKL 072200Z AUTO 00000KT 2SM 03/01 A3021 RMK T00300010 IEM_DS3505
ZGKL,2007-12-07 23:00,ZGKL 072300Z AUTO 00000KT 2 1/2SM 02/01 A3024 RMK T00200010 IEM_DS3505
ZGKL,2007-12-08 00:00,ZGKL 080000Z AUTO 02002KT 7SM 08/01 A3024 RMK SLP250 T00800014 52010 IEM_DS3505
ZGKL,2007-12-08 01:00,ZGKL 080100Z AUTO 00000KT 3SM 07/05 A3024 RMK T00700050 IEM_DS3505
ZGKL,2007-12-08 02:00,ZGKL 080200Z AUTO 00000KT 3SM 11/03 A3024 RMK T01100030 IEM_DS3505
ZGKL,2007-12-08 03:00,ZGKL 080300Z AUTO 25002KT 4SM 14/02 A3024 RMK SLP245 T01360016 57004 IEM_DS3505
ZGKL,2007-12-08 04:00,ZGKL 080400Z AUTO 4SM 14/02 A3018 RMK T01400020 IEM_DS3505
ZGKL,2007-12-08 05:00,ZGKL 080500Z AUTO 4SM 15/02 A3012 RMK T01500020 IEM_DS3505
ZGKL,2007-12-08 06:00,ZGKL 080600Z AUTO 29004KT 4SM 16/01 A3009 RMK SLP196 T01610010 57048 IEM_DS3505
ZGKL,2007-12-08 07:00,ZGKL 080700Z AUTO 4SM 17/01 A3006 RMK T01700010 IEM_DS3505
ZGKL,2007-12-08 08:00,ZGKL 080800Z AUTO 3SM 16/02 A3003 RMK T01600020 IEM_DS3505
ZGKL,2007-12-08 09:00,ZGKL 080900Z AUTO 09002KT 4SM 16/02 A3003 RMK SLP176 T01640024 57020 IEM_DS3505
ZGKL,2007-12-08 10:00,ZGKL 081000Z AUTO 00000KT 3SM 14/04 A3000 RMK T01400040 IEM_DS3505
ZGKL,2007-12-08 11:00,ZGKL 081100Z AUTO 00000KT 3SM 12/04 A3003 RMK T01200040 IEM_DS3505
ZGKL,2007-12-08 12:00,ZGKL 081200Z AUTO 00000KT 4SM 14/04 A3003 RMK SLP186 T01390045 52009 IEM_DS3505
ZGKL,2007-12-08 13:00,ZGKL 081300Z AUTO 00000KT 2 1/2SM 10/06 A3006 RMK T01000060 IEM_DS3505
ZGKL,2007-12-08 14:00,ZGKL 081400Z AUTO 00000KT 1 1/2SM 09/06 A3006 RMK T00900060 IEM_DS3505
ZGKL,2007-12-08 15:00,ZGKL 081500Z AUTO 02002KT 4SM 12/04 A3009 RMK SLP197 T01250037 52013 IEM_DS3505
ZGKL,2007-12-08 16:00,ZGKL 081600Z AUTO 00000KT 1 1/2SM 09/07 A3009 RMK T00900070 IEM_DS3505
ZGKL,2007-12-08 17:00,ZGKL 081700Z AUTO 00000KT 1 1/2SM 10/07 A3009 RMK T01000070 IEM_DS3505
ZGKL,2007-12-08 18:00,ZGKL 081800Z AUTO 36002KT 4SM 12/05 A3009 RMK SLP198 T01240051 52001 IEM_DS3505
ZGKL,2007-12-08 19:00,ZGKL 081900Z AUTO 00000KT 11/08 A3009 RMK T01100080 IEM_DS3505
ZGKL,2007-12-08 20:00,ZGKL 082000Z AUTO 00000KT 11/08 A3006 RMK T01100080 IEM_DS3505
ZGKL,2007-12-08 21:00,ZGKL 082100Z AUTO 29002KT 4SM 13/04 A3006 RMK SLP188 T01300039 57009 IEM_DS3505
ZGKL,2007-12-08 22:00,ZGKL 082200Z AUTO 00000KT 2SM 11/09 A3006 RMK T01100090 IEM_DS3505
ZGKL,2007-12-08 23:00,ZGKL 082300Z AUTO 00000KT 2SM 12/08 A3009 RMK T01200080 IEM_DS3505
ZGKL,2007-12-09 00:00,ZGKL 090000Z AUTO 14002KT 4SM 13/05 A3009 RMK SLP204 T01280048 52015 IEM_DS3505
ZGKL,2007-12-09 01:00,ZGKL 090100Z AUTO 00000KT 1 1/4SM 12/09 A3012 RMK T01200090 IEM_DS3505
ZGKL,2007-12-09 02:00,ZGKL 090200Z AUTO 00000KT 1 1/2SM 12/09 A3012 RMK T01200090 IEM_DS3505
ZGKL,2007-12-09 03:00,ZGKL 090300Z AUTO 02004KT 4SM 13/04 A3012 RMK SLP209 T01320036 52004 IEM_DS3505
ZGKL,2007-12-09 04:00,ZGKL 090400Z AUTO 00000KT 1SM 12/09 A3009 RMK T01200090 IEM_DS3505
ZGKL,2007-12-09 05:00,ZGKL 090500Z AUTO 00000KT 1SM 12/09 A3006 RMK T01200090 IEM_DS3505
ZGKL,2007-12-09 06:00,ZGKL 090600Z AUTO 36004KT 4SM 13/04 A3003 RMK 60000 SLP176 T01320044 57032 IEM_DS3505
ZGKL,2007-12-09 07:00,ZGKL 090700Z AUTO 00000KT 1SM 13/09 A3000 RMK T01300090 IEM_DS3505
ZGKL,2007-12-09 08:00,ZGKL 090800Z AUTO 00000KT 1SM 13/09 A3000 RMK T01300090 IEM_DS3505
ZGKL,2007-12-09 09:00,ZGKL 090900Z AUTO 36004KT 3SM 13/06 A3000 RMK SLP166 T01330059 57010 IEM_DS3505
ZGKL,2007-12-09 10:00,ZGKL 091000Z AUTO 00000KT 1SM 12/10 A3000 RMK T01200100 IEM_DS3505
ZGKL,2007-12-09 11:00,ZGKL 091100Z AUTO 00000KT 1SM 12/10 A3000 RMK T01200100 IEM_DS3505
ZGKL,2007-12-09 12:00,ZGKL 091200Z AUTO 02004KT 3SM 13/05 A3000 RMK SLP175 T01300054 52009 IEM_DS3505
ZGKL,2007-12-09 13:00,ZGKL 091300Z AUTO 00000KT 1SM 12/09 A3003 RMK T01200090 IEM_DS3505
ZGKL,2007-12-09 14:00,ZGKL 091400Z AUTO 00000KT 1SM 13/08 A3003 RMK T01300080 IEM_DS3505
ZGKL,2007-12-09 15:00,ZGKL 091500Z AUTO 36002KT 3SM 13/05 A3003 RMK SLP184 T01310050 52009 IEM_DS3505
ZGKL,2007-12-09 16:00,ZGKL 091600Z AUTO 00000KT 1 1/4SM 13/08 A3003 RMK T01300080 IEM_DS3505
ZGKL,2007-12-09 17:00,ZGKL 091700Z AUTO 00000KT 13/10 A3003 RMK T01300100 IEM_DS3505
ZGKL,2007-12-09 18:00,ZGKL 091800Z AUTO 02004KT 3SM 13/06 A3003 RMK 60000 SLP177 T01280059 57007 IEM_DS3505
ZGKL,2007-12-09 19:00,ZGKL 091900Z AUTO 00000KT 12/09 A3003 RMK T01200090 IEM_DS3505
ZGKL,2007-12-09 20:00,ZGKL 092000Z AUTO 00000KT 13/08 A3003 RMK T01300080 IEM_DS3505
ZGKL,2007-12-09 21:00,ZGKL 092100Z AUTO 34006KT 3SM 12/06 A3003 RMK 70000 SLP179 T01250061 52002 IEM_DS3505
ZGKL,2007-12-09 22:00,ZGKL 092200Z AUTO 00000KT 1SM 12/10 A3003 RMK T01200100 IEM_DS3505
ZGKL,2007-12-09 23:00,ZGKL 092300Z AUTO 00000KT 1SM 12/10 A3006 RMK T01200100 IEM_DS3505
ZGKL,2007-12-10 00:00,ZGKL 100000Z AUTO 36004KT 2SM 12/07 A3006 RMK 60000 70000 SLP193 T01150074 52013 IEM_DS3505
ZGKL,2007-12-10 01:00,ZGKL 100100Z AUTO 00000KT 1SM 12/11 A3009 RMK T01200110 IEM_DS3505
ZGKL,2007-12-10 02:00,ZGKL 100200Z AUTO 00000KT 1SM 12/11 A3009 RMK T01200110 IEM_DS3505
ZGKL,2007-12-10 03:00,ZGKL 100300Z AUTO 36002KT 2SM 12/08 A3009 RMK SLP200 T01210084 52007 IEM_DS3505
ZGKL,2007-12-10 04:00,ZGKL 100400Z AUTO 00000KT 1SM 12/10 A3006 RMK T01200100 IEM_DS3505
ZGKL,2007-12-10 05:00,ZGKL 100500Z AUTO 00000KT 1SM 13/10 A3003 RMK T01300100 IEM_DS3505
ZGKL,2007-12-10 06:00,ZGKL 100600Z AUTO 36004KT 2 1/2SM 14/09 A3000 RMK 60002 SLP169 T01440090 57029 IEM_DS3505
ZGKL,2007-12-10 07:00,ZGKL 100700Z AUTO 00000KT 1SM 15/11 A3000 RMK T01500110 IEM_DS3505
ZGKL,2007-12-10 08:00,ZGKL 100800Z AUTO 00000KT 1SM 15/12 A2997 RMK T01500120 IEM_DS3505
ZGKL,2007-12-10 09:00,ZGKL 100900Z AUTO 36004KT 2 1/2SM 15/08 A2997 RMK SLP158 T01470084 57011 IEM_DS3505
ZGKL,2007-12-10 10:00,ZGKL 101000Z AUTO 00000KT 1SM 13/11 A2997 RMK T01300110 IEM_DS3505
ZGKL,2007-12-10 11:00,ZGKL 101100Z AUTO 1/2SM 13/11 A2997 RMK T01300110 IEM_DS3505
ZGKL,2007-12-10 12:00,ZGKL 101200Z AUTO 36004KT 2 1/2SM 13/08 A2997 RMK SLP167 T01300083 52008 IEM_DS3505
ZGKL,2007-12-10 13:00,ZGKL 101300Z AUTO 00000KT 1SM 13/12 A3000 RMK T01300120 IEM_DS3505
ZGKL,2007-12-10 14:00,ZGKL 101400Z AUTO 1SM 13/11 A3000 RMK T01300110 IEM_DS3505
ZGKL,2007-12-10 15:00,ZGKL 101500Z AUTO 02002KT 2 1/2SM 13/08 A3000 RMK SLP174 T01310082 52007 IEM_DS3505
ZGKL,2007-12-10 16:00,ZGKL 101600Z AUTO 1SM 12/11 A3000 RMK T01200110 IEM_DS3505
ZGKL,2007-12-10 17:00,ZGKL 101700Z AUTO 13/10 A3000 RMK T01300100 IEM_DS3505
ZGKL,2007-12-10 18:00,ZGKL 101800Z AUTO 36004KT 2 1/2SM 13/08 A2997 RMK SLP167 T01260077 57007 IEM_DS3505
ZGKL,2007-12-10 19:00,ZGKL 101900Z AUTO 00000KT 12/11 A2997 RMK T01200110 IEM_DS3505
ZGKL,2007-12-10 20:00,ZGKL 102000Z AUTO 00000KT 13/10 A2997 RMK T01300100 IEM_DS3505
ZGKL,2007-12-10 21:00,ZGKL 102100Z AUTO 02004KT 2 1/2SM 12/08 A2994 RMK 70002 SLP154 T01230076 57012 IEM_DS3505
ZGKL,2007-12-10 22:00,ZGKL 102200Z AUTO 00000KT 1SM 12/09 A2997 RMK T01200090 IEM_DS3505
ZGKL,2007-12-10 23:00,ZGKL 102300Z AUTO 00000KT 1SM 12/09 A2997 RMK T01200090 IEM_DS3505
ZGKL,2007-12-11 00:00,ZGKL 110000Z AUTO 02004KT 3SM 12/08 A3000 RMK 70002 SLP168 T01230076 52013 IEM_DS3505
ZGKL,2007-12-11 01:00,ZGKL 110100Z AUTO 05002KT 1SM 13/09 A3000 RMK T01300090 IEM_DS3505
ZGKL,2007-12-11 02:00,ZGKL 110200Z AUTO 00000KT 1SM 14/09 A3003 RMK T01400090 IEM_DS3505
ZGKL,2007-12-11 03:00,ZGKL 110300Z AUTO 02004KT 2 1/2SM 14/08 A3003 RMK SLP175 T01400080 52007 IEM_DS3505
ZGKL,2007-12-11 04:00,ZGKL 110400Z AUTO 1SM 16/10 A2997 RMK T01600100 IEM_DS3505
ZGKL,2007-12-11 05:00,ZGKL 110500Z AUTO 00000KT 1SM 18/11 A2994 RMK T01800110 IEM_DS3505
ZGKL,2007-12-11 06:00,ZGKL 110600Z AUTO 04002KT 2 1/2SM 19/10 A2988 RMK SLP133 T01930103 57039 IEM_DS3505
ZGKL,2007-12-11 07:00,ZGKL 110700Z AUTO 29004KT 1SM 20/11 A2985 RMK T02000110 IEM_DS3505
ZGKL,2007-12-11 08:00,ZGKL 110800Z AUTO 1 1/4SM 20/12 A2985 RMK T02000120 IEM_DS3505
ZGKL,2007-12-11 09:00,ZGKL 110900Z AUTO 02002KT 2 1/2SM 21/12 A2985 RMK SLP111 T02060118 57021 IEM_DS3505
ZGKL,2007-12-11 10:00,ZGKL 111000Z AUTO 00000KT 1SM 17/13 A2985 RMK T01700130 IEM_DS3505
ZGKL,2007-12-11 11:00,ZGKL 111100Z AUTO 00000KT 1SM 15/13 A2985 RMK T01500130 IEM_DS3505
ZGKL,2007-12-11 12:00,ZGKL 111200Z AUTO 02002KT 2 1/2SM 17/13 A2988 RMK SLP125 T01680127 52012 IEM_DS3505
ZGKL,2007-12-11 13:00,ZGKL 111300Z AUTO 00000KT 1SM 13/12 A2988 RMK T01300120 IEM_DS3505
ZGKL,2007-12-11 14:00,ZGKL 111400Z AUTO 00000KT 1SM 14/13 A2991 RMK T01400130 IEM_DS3505
ZGKL,2007-12-11 15:00,ZGKL 111500Z AUTO 32002KT 2 1/2SM 16/12 A2991 RMK SLP137 T01550123 52012 IEM_DS3505
ZGKL,2007-12-11 16:00,ZGKL 111600Z AUTO 00000KT 1/2SM 14/13 A2991 RMK T01400130 IEM_DS3505
ZGKL,2007-12-11 17:00,ZGKL 111700Z AUTO 00000KT 1SM 14/14 A2991 RMK T01400140 IEM_DS3505
ZGKL,2007-12-11 18:00,ZGKL 111800Z AUTO 02002KT 2 1/2SM 16/12 A2991 RMK SLP140 T01560125 52005 IEM_DS3505
ZGKL,2007-12-11 19:00,ZGKL 111900Z AUTO 00000KT 14/13 A2991 RMK T01400130 IEM_DS3505
ZGKL,2007-12-11 20:00,ZGKL 112000Z AUTO 00000KT 14/13 A2991 RMK T01400130 IEM_DS3505
ZGKL,2007-12-11 21:00,ZGKL 112100Z AUTO 02006KT 2 1/2SM 16/11 A2991 RMK SLP134 T01630106 57006 IEM_DS3505
ZGKL,2007-12-11 22:00,ZGKL 112200Z AUTO 03002KT 1SM 14/13 A2991 RMK T01400130 IEM_DS3505
ZGKL,2007-12-11 23:00,ZGKL 112300Z AUTO 33004KT 1SM 14/13 A2991 RMK T01400130 IEM_DS3505
ZGKL,2007-12-12 00:00,ZGKL 120000Z AUTO 02006KT 2 1/2SM 16/10 A2994 RMK SLP149 T01580101 52014 IEM_DS3505
ZGKL,2007-12-12 01:00,ZGKL 120100Z AUTO 1 1/4SM 16/11 A2997 RMK T01600110 IEM_DS3505
ZGKL,2007-12-12 02:00,ZGKL 120200Z AUTO 1 1/4SM 17/11 A3000 RMK T01700110 IEM_DS3505
ZGKL,2007-12-12 03:00,ZGKL 120300Z AUTO 02006KT 2 1/2SM 15/10 A3000 RMK SLP168 T01530097 52018 IEM_DS3505
ZGKL,2007-12-12 04:00,ZGKL 120400Z AUTO 05008KT 1SM 17/11 A2997 RMK T01700110 IEM_DS3505
ZGKL,2007-12-12 05:00,ZGKL 120500Z AUTO 08006KT 1SM 15/12 A2997 RMK T01500120 IEM_DS3505
ZGKL,2007-12-12 06:00,ZGKL 120600Z AUTO 02008KT 2 1/2SM 13/09 A2994 RMK 60000 SLP152 T01270088 57017 IEM_DS3505
ZGKL,2007-12-12 07:00,ZGKL 120700Z AUTO 06010KT 1SM 14/10 A2994 RMK T01400100 IEM_DS3505
ZGKL,2007-12-12 08:00,ZGKL 120800Z AUTO 06008KT 1 1/4SM 13/09 A2994 RMK T01300090 IEM_DS3505
ZGKL,2007-12-12 09:00,ZGKL 120900Z AUTO 02010KT 2 1/2SM 11/07 A2997 RMK SLP159 T01130068 52007 IEM_DS3505
ZGKL,2007-12-12 10:00,ZGKL 121000Z AUTO 06006KT 2SM 12/08 A2997 RMK T01200080 IEM_DS3505
ZGKL,2007-12-12 11:00,ZGKL 121100Z AUTO 2 1/2SM 11/07 A3000 RMK T01100070 IEM_DS3505
ZGKL,2007-12-12 12:00,ZGKL 121200Z AUTO 02010KT 2 1/2SM 10/06 A3003 RMK SLP185 T01040058 52025 IEM_DS3505
ZGKL,2007-12-12 13:00,ZGKL 121300Z AUTO 06008KT 3SM 11/07 A3006 RMK T01100070 IEM_DS3505
ZGKL,2007-12-12 14:00,ZGKL 121400Z AUTO 04008KT 3SM 10/06 A3009 RMK T01000060 IEM_DS3505
ZGKL,2007-12-12 15:00,ZGKL 121500Z AUTO 02010KT 2 1/2SM 10/05 A3012 RMK SLP207 T00980050 52021 IEM_DS3505
ZGKL,2007-12-12 16:00,ZGKL 121600Z AUTO 05008KT 4SM 10/06 A3012 RMK T01000060 IEM_DS3505
ZGKL,2007-12-12 17:00,ZGKL 121700Z AUTO 05006KT 4SM 10/06 A3012 RMK T01000060 IEM_DS3505
ZGKL,2007-12-12 18:00,ZGKL 121800Z AUTO 02010KT 2 1/2SM 09/04 A3012 RMK SLP216 T00940044 52008 IEM_DS3505
ZGKL,2007-12-12 19:00,ZGKL 121900Z AUTO 10/06 A3012 RMK T01000060 IEM_DS3505
ZGKL,2007-12-12 20:00,ZGKL 122000Z AUTO 05004KT 10/06 A3012 RMK T01000060 IEM_DS3505
ZGKL,2007-12-12 21:00,ZGKL 122100Z AUTO 02006KT 2 1/2SM 09/04 A3012 RMK 70000 SLP211 T00930037 57006 IEM_DS3505
ZGKL,2007-12-12 22:00,ZGKL 122200Z AUTO 04004KT 3SM 10/05 A3012 RMK T01000050 IEM_DS3505
ZGKL,2007-12-12 23:00,ZGKL 122300Z AUTO 3SM 09/05 A3012 RMK T00900050 IEM_DS3505
ZGKL,2007-12-13 00:00,ZGKL 130000Z AUTO 02010KT 4SM 10/03 A3015 RMK 70000 SLP223 T00950026 52012 IEM_DS3505
ZGKL,2007-12-13 01:00,ZGKL 130100Z AUTO 00000KT 4SM 10/05 A3018 RMK T01000050 IEM_DS3505
ZGKL,2007-12-13 02:00,ZGKL 130200Z AUTO 00000KT 4SM 10/05 A3018 RMK T01000050 IEM_DS3505
ZGKL,2007-12-13 03:00,ZGKL 130300Z AUTO 02008KT 4SM 10/03 A3018 RMK SLP235 T01000031 52012 IEM_DS3505
ZGKL,2007-12-13 04:00,ZGKL 130400Z AUTO 04006KT 4SM 12/04 A3015 RMK T01200040 IEM_DS3505
ZGKL,2007-12-13 05:00,ZGKL 130500Z AUTO 05008KT 4SM 12/04 A3012 RMK T01200040 IEM_DS3505
ZGKL,2007-12-13 06:00,ZGKL 130600Z AUTO 06006KT 4SM 12/04 A3009 RMK T01200040 IEM_DS3505
ZGKL,2007-12-13 07:00,ZGKL 130700Z AUTO 07006KT 3SM 11/03 A3009 RMK T01100030 IEM_DS3505
ZGKL,2007-12-13 08:00,ZGKL 130800Z AUTO 05006KT 3SM 11/03 A3006 RMK T01100030 IEM_DS3505
ZGKL,2007-12-13 09:00,ZGKL 130900Z AUTO 36008KT 4SM 10/02 A3006 RMK SLP193 T01050018 57014 IEM_DS3505
ZGKL,2007-12-13 10:00,ZGKL 131000Z AUTO 00000KT 2 1/2SM 11/03 A3006 RMK T01100030 IEM_DS3505
ZGKL,2007-12-13 11:00,ZGKL 131100Z AUTO 06004KT 2 1/2SM 10/03 A3006 RMK T01000030 IEM_DS3505
ZGKL,2007-12-13 12:00,ZGKL 131200Z AUTO 02006KT 4SM 10/01 A3009 RMK SLP201 T01030009 52008 IEM_DS3505
ZGKL,2007-12-13 13:00,ZGKL 131300Z AUTO 00000KT 2 1/2SM 10/03 A3009 RMK T01000030 IEM_DS3505
ZGKL,2007-12-13 14:00,ZGKL 131400Z AUTO 05004KT 2 1/2SM 10/02 A3009 RMK T01000020 IEM_DS3505
ZGKL,2007-12-13 15:00,ZGKL 131500Z AUTO 04006KT 4SM 10/01 A3009 RMK SLP208 T01030009 52007 IEM_DS3505
ZGKL,2007-12-13 16:00,ZGKL 131600Z AUTO 00000KT 2 1/2SM 10/03 A3012 RMK T01000030 IEM_DS3505
ZGKL,2007-12-13 17:00,ZGKL 131700Z AUTO 00000KT 2 1/2SM 10/03 A3012 RMK T01000030 IEM_DS3505
ZGKL,2007-12-13 18:00,ZGKL 131800Z AUTO 02004KT 4SM 10/01 A3009 RMK SLP205 T01050011 57002 IEM_DS3505
ZGKL,2007-12-13 19:00,ZGKL 131900Z AUTO 00000KT 10/04 A3009 RMK T01000040 IEM_DS3505
ZGKL,2007-12-13 20:00,ZGKL 132000Z AUTO 00000KT 10/04 A3009 RMK T01000040 IEM_DS3505
ZGKL,2007-12-13 21:00,ZGKL 132100Z AUTO 02006KT 4SM 10/01 A3006 RMK SLP197 T01040012 57008 IEM_DS3505
ZGKL,2007-12-13 22:00,ZGKL 132200Z AUTO 00000KT 2 1/2SM 10/04 A3006 RMK T01000040 IEM_DS3505
ZGKL,2007-12-13 23:00,ZGKL 132300Z AUTO 00000KT 2 1/2SM 10/05 A3009 RMK T01000050 IEM_DS3505
ZGKL,2007-12-14 00:00,ZGKL 140000Z AUTO 02004KT 4SM 10/00 A3009 RMK SLP206 T01050005 52009 IEM_DS3505
ZGKL,2007-12-14 01:00,ZGKL 140100Z AUTO 05004KT 1 1/2SM 11/02 A3012 RMK T01100020 IEM_DS3505
ZGKL,2007-12-14 02:00,ZGKL 140200Z AUTO 2SM 11/01 A3012 RMK T01100010 IEM_DS3505
ZGKL,2007-12-14 03:00,ZGKL 140300Z AUTO 02004KT 4SM 12/01 A3012 RMK SLP211 T01150009 52005 IEM_DS3505
ZGKL,2007-12-14 04:00,ZGKL 140400Z AUTO 2 1/2SM 12/01 A3009 RMK T01200010 IEM_DS3505
ZGKL,2007-12-14 05:00,ZGKL 140500Z AUTO 00000KT 2SM 12/02 A3006 RMK T01200020 IEM_DS3505
ZGKL,2007-12-14 06:00,ZGKL 140600Z AUTO 02004KT 4SM 12/02 A3003 RMK SLP183 T01170016 57027 IEM_DS3505
ZGKL,2007-12-14 07:00,ZGKL 140700Z AUTO 2 1/2SM 12/03 A3000 RMK T01200030 IEM_DS3505
ZGKL,2007-12-14 08:00,ZGKL 140800Z AUTO 00000KT 2SM 12/03 A3000 RMK T01200030 IEM_DS3505
ZGKL,2007-12-14 09:00,ZGKL 140900Z AUTO 02006KT 4SM 12/03 A3000 RMK SLP174 T01180033 57009 IEM_DS3505
ZGKL,2007-12-14 10:00,ZGKL 141000Z AUTO 00000KT 2SM 12/03 A3003 RMK T01200030 IEM_DS3505
ZGKL,2007-12-14 11:00,ZGKL 141100Z AUTO 00000KT 2SM 12/06 A3003 RMK T01200060 IEM_DS3505
ZGKL,2007-12-14 12:00,ZGKL 141200Z AUTO 04006KT 4SM 11/04 A3006 RMK SLP187 T01130041 52012 IEM_DS3505
ZGKL,2007-12-14 13:00,ZGKL 141300Z AUTO 1 1/2SM 12/05 A3006 RMK T01200050 IEM_DS3505
ZGKL,2007-12-14 14:00,ZGKL 141400Z AUTO 06004KT 1 1/2SM 12/05 A3009 RMK T01200050 IEM_DS3505
ZGKL,2007-12-14 15:00,ZGKL 141500Z AUTO 02006KT 4SM 11/05 A3009 RMK SLP200 T01120047 52013 IEM_DS3505
ZGKL,2007-12-14 16:00,ZGKL 141600Z AUTO 00000KT 1 1/2SM 11/05 A3009 RMK T01100050 IEM_DS3505
ZGKL,2007-12-14 17:00,ZGKL 141700Z AUTO 00000KT 1 1/2SM 11/06 A3009 RMK T01100060 IEM_DS3505
ZGKL,2007-12-14 18:00,ZGKL 141800Z AUTO 36004KT 4SM 11/05 A3009 RMK SLP200 T01090050 54000 IEM_DS3505
ZGKL,2007-12-14 19:00,ZGKL 141900Z AUTO 04004KT 1 1/2SM 11/06 A3009 RMK T01100060 IEM_DS3505
ZGKL,2007-12-14 20:00,ZGKL 142000Z AUTO 03004KT 1 1/2SM 11/06 A3009 RMK T01100060 IEM_DS3505
ZGKL,2007-12-14 21:00,ZGKL 142100Z AUTO 02006KT 4SM 11/05 A3009 RMK SLP202 T01090046 52002 IEM_DS3505
ZGKL,2007-12-14 22:00,ZGKL 142200Z AUTO 04004KT 1 1/4SM 11/06 A3009 RMK T01100060 IEM_DS3505
ZGKL,2007-12-14 23:00,ZGKL 142300Z AUTO 00000KT 1 1/2SM 11/05 A3012 RMK T01100050 IEM_DS3505
ZGKL,2007-12-15 00:00,ZGKL 150000Z AUTO 00000KT 4SM 11/04 A3012 RMK SLP217 T01100038 52015 IEM_DS3505
ZGKL,2007-12-15 01:00,ZGKL 150100Z AUTO 06004KT 1 1/2SM 11/05 A3015 RMK T01100050 IEM_DS3505
ZGKL,2007-12-15 02:00,ZGKL 150200Z AUTO 1 1/2SM 12/05 A3018 RMK T01200050 IEM_DS3505
ZGKL,2007-12-15 03:00,ZGKL 150300Z AUTO 02006KT 3SM 12/04 A3015 RMK SLP227 T01210043 52010 IEM_DS3505
ZGKL,2007-12-15 04:00,ZGKL 150400Z AUTO 1 1/2SM 13/06 A3015 RMK T01300060 IEM_DS3505
ZGKL,2007-12-15 05:00,ZGKL 150500Z AUTO 03006KT 1 1/2SM 14/06 A3009 RMK T01400060 IEM_DS3505
ZGKL,2007-12-15 06:00,ZGKL 150600Z AUTO 02004KT 3SM 13/04 A3006 RMK SLP195 T01300044 57031 IEM_DS3505
ZGKL,2007-12-15 07:00,ZGKL 150700Z AUTO 03006KT 2SM 14/06 A3006 RMK T01400060 IEM_DS3505
ZGKL,2007-12-15 08:00,ZGKL 150800Z AUTO 02008KT 2SM 14/06 A3006 RMK T01400060 IEM_DS3505
ZGKL,2007-12-15 09:00,ZGKL 150900Z AUTO 02008KT 3SM 12/04 A3006 RMK SLP190 T01220042 57005 IEM_DS3505
ZGKL,2007-12-15 10:00,ZGKL 151000Z AUTO 06006KT 1 1/2SM 13/06 A3006 RMK T01300060 IEM_DS3505
ZGKL,2007-12-15 11:00,ZGKL 151100Z AUTO 10004KT 1 1/2SM 13/06 A3009 RMK T01300060 IEM_DS3505
ZGKL,2007-12-15 12:00,ZGKL 151200Z AUTO 02008KT 3SM 11/05 A3009 RMK SLP206 T01140046 52015 IEM_DS3505
ZGKL,2007-12-15 13:00,ZGKL 151300Z AUTO 07004KT 1 1/4SM 12/06 A3012 RMK T01200060 IEM_DS3505
ZGKL,2007-12-15 14:00,ZGKL 151400Z AUTO 1 1/4SM 12/06 A3015 RMK T01200060 IEM_DS3505
ZGKL,2007-12-15 15:00,ZGKL 151500Z AUTO 02006KT 3SM 11/05 A3015 RMK SLP222 T01110050 52016 IEM_DS3505
ZGKL,2007-12-15 16:00,ZGKL 151600Z AUTO 05006KT 1 1/2SM 11/06 A3015 RMK T01100060 IEM_DS3505
ZGKL,2007-12-15 17:00,ZGKL 151700Z AUTO 05004KT 1 1/2SM 11/06 A3015 RMK T01100060 IEM_DS3505
ZGKL,2007-12-15 18:00,ZGKL 151800Z AUTO 02008KT 3SM 11/05 A3015 RMK SLP220 T01090054 57002 IEM_DS3505
ZGKL,2007-12-15 19:00,ZGKL 151900Z AUTO 05006KT 1 1/2SM 11/06 A3012 RMK T01100060 IEM_DS3505
ZGKL,2007-12-15 21:00,ZGKL 152100Z AUTO 04006KT 3SM 10/06 A3012 RMK SLP217 T01050057 57003 IEM_DS3505
ZGKL,2007-12-15 22:00,ZGKL 152200Z AUTO 06004KT 1 1/4SM 11/07 A3015 RMK T01100070 IEM_DS3505
ZGKL,2007-12-15 23:00,ZGKL 152300Z AUTO 1 1/4SM 11/07 A3015 RMK T01100070 IEM_DS3505
ZGKL,2007-12-16 00:00,ZGKL 160000Z AUTO 02004KT 4SM 10/05 A3018 RMK SLP230 T01050053 52012 IEM_DS3505
ZGKL,2007-12-16 01:00,ZGKL 160100Z AUTO 05004KT 1 1/4SM 11/07 A3018 RMK T01100070 IEM_DS3505
ZGKL,2007-12-16 02:00,ZGKL 160200Z AUTO 06004KT 1 1/4SM 12/06 A3018 RMK T01200060 IEM_DS3505
ZGKL,2007-12-16 03:00,ZGKL 160300Z AUTO 36002KT 4SM 12/05 A3018 RMK SLP236 T01200054 52007 IEM_DS3505
ZGKL,2007-12-16 04:00,ZGKL 160400Z AUTO 1 1/2SM 13/06 A3018 RMK T01300060 IEM_DS3505
ZGKL,2007-12-16 05:00,ZGKL 160500Z AUTO 1 1/2SM 14/07 A3012 RMK T01400070 IEM_DS3505
ZGKL,2007-12-16 06:00,ZGKL 160600Z AUTO 36004KT 4SM 14/06 A3009 RMK SLP200 T01390058 57035 IEM_DS3505
ZGKL,2007-12-16 07:00,ZGKL 160700Z AUTO 1 1/2SM 15/07 A3006 RMK T01500070 IEM_DS3505
ZGKL,2007-12-16 08:00,ZGKL 160800Z AUTO 09004KT 1 1/2SM 15/07 A3006 RMK T01500070 IEM_DS3505
ZGKL,2007-12-16 09:00,ZGKL 160900Z AUTO 36004KT 4SM 14/06 A3006 RMK SLP190 T01380059 57010 IEM_DS3505
ZGKL,2007-12-16 10:00,ZGKL 161000Z AUTO 07004KT 1 1/2SM 14/07 A3006 RMK T01400070 IEM_DS3505
ZGKL,2007-12-16 11:00,ZGKL 161100Z AUTO 07004KT 1 1/2SM 14/07 A3009 RMK T01400070 IEM_DS3505
ZGKL,2007-12-16 12:00,ZGKL 161200Z AUTO 02006KT 4SM 12/05 A3009 RMK SLP209 T01230052 52018 IEM_DS3505
ZGKL,2007-12-16 13:00,ZGKL 161300Z AUTO 04008KT 1 1/4SM 13/06 A3012 RMK T01300060 IEM_DS3505
ZGKL,2007-12-16 14:00,ZGKL 161400Z AUTO 04008KT 1 1/4SM 13/06 A3012 RMK T01300060 IEM_DS3505
ZGKL,2007-12-16 15:00,ZGKL 161500Z AUTO 02006KT 4SM 12/05 A3012 RMK SLP216 T01180052 52007 IEM_DS3505
ZGKL,2007-12-16 16:00,ZGKL 161600Z AUTO 03006KT 1 1/4SM 12/06 A3015 RMK T01200060 IEM_DS3505
ZGKL,2007-12-16 17:00,ZGKL 161700Z AUTO 04006KT 1 1/4SM 12/06 A3015 RMK T01200060 IEM_DS3505
ZGKL,2007-12-16 18:00,ZGKL 161800Z AUTO 02006KT 4SM 11/05 A3012 RMK SLP218 T01110052 52003 IEM_DS3505
ZGKL,2007-12-16 19:00,ZGKL 161900Z AUTO 04004KT 11/06 A3012 RMK T01100060 IEM_DS3505
ZGKL,2007-12-16 20:00,ZGKL 162000Z AUTO 06004KT 11/07 A3012 RMK T01100070 IEM_DS3505
ZGKL,2007-12-16 21:00,ZGKL 162100Z AUTO 02006KT 4SM 10/06 A3015 RMK 70000 SLP220 T01050055 52002 IEM_DS3505
ZGKL,2007-12-16 22:00,ZGKL 162200Z AUTO 04004KT 1SM 10/07 A3015 RMK T01000070 IEM_DS3505
ZGKL,2007-12-16 23:00,ZGKL 162300Z AUTO 1SM 10/07 A3018 RMK T01000070 IEM_DS3505
ZGKL,2007-12-17 00:00,ZGKL 170000Z AUTO 02012KT 4SM 10/06 A3021 RMK 60000 70000 SLP243 T00970057 52021 IEM_DS3505
ZGKL,2007-12-17 01:00,ZGKL 170100Z AUTO 00000KT 1SM 10/08 A3021 RMK T01000080 IEM_DS3505
ZGKL,2007-12-17 02:00,ZGKL 170200Z AUTO 1SM 10/08 A3027 RMK T01000080 IEM_DS3505
ZGKL,2007-12-17 03:00,ZGKL 170300Z AUTO 02008KT 2 1/2SM 09/06 A3027 RMK SLP259 T00930060 52016 IEM_DS3505
ZGKL,2007-12-17 04:00,ZGKL 170400Z AUTO 06004KT 1SM 10/08 A3024 RMK T01000080 IEM_DS3505
ZGKL,2007-12-17 05:00,ZGKL 170500Z AUTO 1 1/2SM 10/08 A3021 RMK T01000080 IEM_DS3505
ZGKL,2007-12-17 06:00,ZGKL 170600Z AUTO 02008KT 2 1/2SM 10/05 A3015 RMK 60000 SLP230 T01010053 57029 IEM_DS3505
ZGKL,2007-12-17 07:00,ZGKL 170700Z AUTO 1 1/2SM 11/07 A3015 RMK T01100070 IEM_DS3505
ZGKL,2007-12-17 08:00,ZGKL 170800Z AUTO 03004KT 2SM 10/07 A3015 RMK T01000070 IEM_DS3505
ZGKL,2007-12-17 09:00,ZGKL 170900Z AUTO 02004KT 2 1/2SM 10/06 A3015 RMK SLP227 T01000056 57003 IEM_DS3505
ZGKL,2007-12-17 10:00,ZGKL 171000Z AUTO 04004KT 2SM 10/07 A3018 RMK T01000070 IEM_DS3505
ZGKL,2007-12-17 11:00,ZGKL 171100Z AUTO 06004KT 2SM 10/07 A3021 RMK T01000070 IEM_DS3505
ZGKL,2007-12-17 12:00,ZGKL 171200Z AUTO 02006KT 2 1/2SM 10/06 A3021 RMK 60000 SLP246 T00960056 52018 IEM_DS3505
ZGKL,2007-12-17 13:00,ZGKL 171300Z AUTO 05004KT 3SM 10/06 A3021 RMK T01000060 IEM_DS3505
ZGKL,2007-12-17 14:00,ZGKL 171400Z AUTO 04006KT 3SM 10/06 A3024 RMK T01000060 IEM_DS3505
ZGKL,2007-12-17 15:00,ZGKL 171500Z AUTO 02006KT 2 1/2SM 09/05 A3024 RMK SLP250 T00920054 52004 IEM_DS3505
ZGKL,2007-12-17 16:00,ZGKL 171600Z AUTO 2 1/2SM 09/07 A3021 RMK T00900070 IEM_DS3505
ZGKL,2007-12-17 17:00,ZGKL 171700Z AUTO 09/07 A3021 RMK T00900070 IEM_DS3505
ZGKL,2007-12-17 18:00,ZGKL 171800Z AUTO 36008KT 2 1/2SM 09/05 A3021 RMK 60000 SLP245 T00880054 57005 IEM_DS3505
ZGKL,2007-12-17 19:00,ZGKL 171900Z AUTO 00000KT 08/07 A3018 RMK T00800070 IEM_DS3505
ZGKL,2007-12-17 20:00,ZGKL 172000Z AUTO 08/07 A3021 RMK T00800070 IEM_DS3505
ZGKL,2007-12-17 21:00,ZGKL 172100Z AUTO 02008KT 2 1/2SM 08/05 A3021 RMK 70000 SLP241 T00800049 57004 IEM_DS3505
ZGKL,2007-12-17 22:00,ZGKL 172200Z AUTO 2SM 08/07 A3021 RMK T00800070 IEM_DS3505
ZGKL,2007-12-17 23:00,ZGKL 172300Z AUTO 2 1/2SM 08/07 A3021 RMK T00800070 IEM_DS3505
ZGKL,2007-12-18 00:00,ZGKL 180000Z AUTO 04006KT 4SM 08/05 A3024 RMK 60000 70000 SLP254 T00790050 52012 IEM_DS3505
ZGKL,2007-12-18 01:00,ZGKL 180100Z AUTO 00000KT 1SM 08/07 A3027 RMK T00800070 IEM_DS3505
ZGKL,2007-12-18 02:00,ZGKL 180200Z AUTO 00000KT 1 1/2SM 08/07 A3027 RMK T00800070 IEM_DS3505
ZGKL,2007-12-18 03:00,ZGKL 180300Z AUTO 02008KT 4SM 09/05 A3027 RMK SLP269 T00860052 52015 IEM_DS3505
ZGKL,2007-12-18 04:00,ZGKL 180400Z AUTO 2 1/2SM 09/07 A3024 RMK T00900070 IEM_DS3505
ZGKL,2007-12-18 05:00,ZGKL 180500Z AUTO 00000KT 2 1/2SM 09/07 A3021 RMK T00900070 IEM_DS3505
ZGKL,2007-12-18 06:00,ZGKL 180600Z AUTO 02010KT 7SM 09/04 A3018 RMK 60000 SLP237 T00940042 57031 IEM_DS3505
ZGKL,2007-12-18 07:00,ZGKL 180700Z AUTO 00000KT 2SM 09/07 A3015 RMK T00900070 IEM_DS3505
ZGKL,2007-12-18 08:00,ZGKL 180800Z AUTO 2SM 09/08 A3015 RMK T00900080 IEM_DS3505
ZGKL,2007-12-18 09:00,ZGKL 180900Z AUTO 04008KT 5SM 09/05 A3015 RMK SLP226 T00860050 57011 IEM_DS3505
ZGKL,2007-12-18 10:00,ZGKL 181000Z AUTO 05006KT 2SM 08/07 A3015 RMK T00800070 IEM_DS3505
ZGKL,2007-12-18 11:00,ZGKL 181100Z AUTO 00000KT 2SM 08/07 A3018 RMK T00800070 IEM_DS3505
ZGKL,2007-12-18 12:00,ZGKL 181200Z AUTO 02006KT 5SM 08/06 A3018 RMK 60000 SLP241 T00800055 52014 IEM_DS3505
ZGKL,2007-12-18 13:00,ZGKL 181300Z AUTO 1 1/4SM 08/07 A3021 RMK T00800070 IEM_DS3505
ZGKL,2007-12-18 14:00,ZGKL 181400Z AUTO 00000KT 1 1/2SM 08/07 A3021 RMK T00800070 IEM_DS3505
ZGKL,2007-12-18 15:00,ZGKL 181500Z AUTO 02008KT 5SM 08/06 A3024 RMK SLP254 T00790055 52013 IEM_DS3505
ZGKL,2007-12-18 16:00,ZGKL 181600Z AUTO 08/07 A3024 RMK T00800070 IEM_DS3505
ZGKL,2007-12-18 17:00,ZGKL 181700Z AUTO 08/07 A3024 RMK T00800070 IEM_DS3505
ZGKL,2007-12-18 18:00,ZGKL 181800Z AUTO 02008KT 4SM 08/06 A3024 RMK 60001 SLP253 T00800056 57001 IEM_DS3505
ZGKL,2007-12-18 19:00,ZGKL 181900Z AUTO 00000KT 08/07 A3024 RMK T00800070 IEM_DS3505
ZGKL,2007-12-18 20:00,ZGKL 182000Z AUTO 00000KT 08/07 A3021 RMK T00800070 IEM_DS3505
ZGKL,2007-12-18 21:00,ZGKL 182100Z AUTO 36006KT 4SM 08/05 A3021 RMK 70002 SLP245 T00830054 57008 IEM_DS3505
ZGKL,2007-12-18 22:00,ZGKL 182200Z AUTO 11002KT 2 1/2SM 08/07 A3021 RMK T00800070 IEM_DS3505
ZGKL,2007-12-18 23:00,ZGKL 182300Z AUTO 2SM 08/07 A3021 RMK T00800070 IEM_DS3505
ZGKL,2007-12-19 00:00,ZGKL 190000Z AUTO 02004KT 8SM 08/06 A3024 RMK 60000 70002 SLP251 T00820055 52006 IEM_DS3505
ZGKL,2007-12-19 01:00,ZGKL 190100Z AUTO 1 1/2SM 09/07 A3024 RMK T00900070 IEM_DS3505
ZGKL,2007-12-19 02:00,ZGKL 190200Z AUTO 00000KT 2 1/2SM 10/08 A3024 RMK T01000080 IEM_DS3505
ZGKL,2007-12-19 03:00,ZGKL 190300Z AUTO 04004KT 8SM 12/05 A3024 RMK SLP250 T01200052 54000 IEM_DS3505
ZGKL,2007-12-19 04:00,ZGKL 190400Z AUTO 7SM 14/07 A3018 RMK T01400070 IEM_DS3505
ZGKL,2007-12-19 05:00,ZGKL 190500Z AUTO 7SM 13/07 A3015 RMK T01300070 IEM_DS3505
ZGKL,2007-12-19 06:00,ZGKL 190600Z AUTO 20006KT 9SM 16/06 A3009 RMK SLP201 T01550057 57046 IEM_DS3505
ZGKL,2007-12-19 07:00,ZGKL 190700Z AUTO 6SM 15/07 A3006 RMK T01500070 IEM_DS3505
ZGKL,2007-12-19 08:00,ZGKL 190800Z AUTO 18004KT 4SM 16/07 A3003 RMK T01600070 IEM_DS3505
ZGKL,2007-12-19 09:00,ZGKL 190900Z AUTO 18004KT 9SM 15/07 A3003 RMK SLP183 T01460072 57018 IEM_DS3505
ZGKL,2007-12-19 10:00,ZGKL 191000Z AUTO 13004KT 4SM 13/08 A3003 RMK T01300080 IEM_DS3505
ZGKL,2007-12-19 11:00,ZGKL 191100Z AUTO 00000KT 4SM 12/08 A3006 RMK T01200080 IEM_DS3505
ZGKL,2007-12-19 12:00,ZGKL 191200Z AUTO 00000KT 9SM 12/08 A3006 RMK SLP194 T01160075 52009 IEM_DS3505
ZGKL,2007-12-19 13:00,ZGKL 191300Z AUTO 00000KT 2 1/2SM 11/09 A3006 RMK T01100090 IEM_DS3505
ZGKL,2007-12-19 14:00,ZGKL 191400Z AUTO 00000KT 2 1/2SM 12/09 A3009 RMK T01200090 IEM_DS3505
ZGKL,2007-12-19 15:00,ZGKL 191500Z AUTO 00000KT 8SM 12/08 A3006 RMK SLP197 T01230082 52005 IEM_DS3505
ZGKL,2007-12-19 16:00,ZGKL 191600Z AUTO 00000KT 2 1/2SM 12/09 A3006 RMK T01200090 IEM_DS3505
ZGKL,2007-12-19 17:00,ZGKL 191700Z AUTO 00000KT 12/10 A3006 RMK T01200100 IEM_DS3505
ZGKL,2007-12-19 18:00,ZGKL 191800Z AUTO 22002KT 8SM 12/08 A3006 RMK SLP188 T01210080 57008 IEM_DS3505
ZGKL,2007-12-19 19:00,ZGKL 191900Z AUTO 00000KT 12/09 A3003 RMK T01200090 IEM_DS3505
ZGKL,2007-12-19 20:00,ZGKL 192000Z AUTO 00000KT 12/10 A3003 RMK T01200100 IEM_DS3505
ZGKL,2007-12-19 21:00,ZGKL 192100Z AUTO 25002KT 8SM 12/09 A3003 RMK SLP178 T01190086 57010 IEM_DS3505
ZGKL,2007-12-19 22:00,ZGKL 192200Z AUTO 00000KT 2SM 11/10 A3003 RMK T01100100 IEM_DS3505
ZGKL,2007-12-19 23:00,ZGKL 192300Z AUTO 00000KT 1 1/4SM 11/10 A3003 RMK T01100100 IEM_DS3505
ZGKL,2007-12-20 00:00,ZGKL 200000Z AUTO 36002KT 4SM 11/08 A3006 RMK 60000 70000 SLP188 T01130085 52009 IEM_DS3505
ZGKL,2007-12-20 01:00,ZGKL 200100Z AUTO 00000KT 1SM 11/10 A3006 RMK T01100100 IEM_DS3505
ZGKL,2007-12-20 02:00,ZGKL 200200Z AUTO 1SM 11/10 A3006 RMK T01100100 IEM_DS3505
ZGKL,2007-12-20 03:00,ZGKL 200300Z AUTO 07002KT 4SM 12/09 A3006 RMK SLP190 T01180092 52002 IEM_DS3505
ZGKL,2007-12-20 04:00,ZGKL 200400Z AUTO 1 1/4SM 13/11 A3003 RMK T01300110 IEM_DS3505
ZGKL,2007-12-20 05:00,ZGKL 200500Z AUTO 1 1/2SM 13/11 A2997 RMK T01300110 IEM_DS3505
ZGKL,2007-12-20 06:00,ZGKL 200600Z AUTO 04002KT 4SM 13/10 A2994 RMK 60000 SLP155 T01290103 57034 IEM_DS3505
ZGKL,2007-12-20 07:00,ZGKL 200700Z AUTO 00000KT 1 1/4SM 12/11 A2994 RMK T01200110 IEM_DS3505
ZGKL,2007-12-20 08:00,ZGKL 200800Z AUTO 00000KT 1SM 12/11 A2994 RMK T01200110 IEM_DS3505
ZGKL,2007-12-20 09:00,ZGKL 200900Z AUTO 27002KT 3SM 13/11 A2994 RMK SLP149 T01260108 57006 IEM_DS3505
ZGKL,2007-12-20 10:00,ZGKL 201000Z AUTO 00000KT 1/2SM 12/12 A2994 RMK T01200120 IEM_DS3505
ZGKL,2007-12-20 11:00,ZGKL 201100Z AUTO 00000KT 1/2SM 12/12 A2997 RMK T01200120 IEM_DS3505
ZGKL,2007-12-20 12:00,ZGKL 201200Z AUTO 36002KT 1 1/4SM 12/12 A3000 RMK 60002 SLP166 T01240122 52016 IEM_DS3505
ZGKL,2007-12-20 13:00,ZGKL 201300Z AUTO 00000KT 1SM 12/12 A3000 RMK T01200120 IEM_DS3505
ZGKL,2007-12-20 14:00,ZGKL 201400Z AUTO 00000KT 1SM 13/12 A3000 RMK T01300120 IEM_DS3505
ZGKL,2007-12-20 15:00,ZGKL 201500Z AUTO 36004KT 1 1/4SM 12/11 A3000 RMK SLP179 T01230114 52013 IEM_DS3505
ZGKL,2007-12-20 16:00,ZGKL 201600Z AUTO 00000KT 1SM 13/12 A3000 RMK T01300120 IEM_DS3505
ZGKL,2007-12-20 17:00,ZGKL 201700Z AUTO 00000KT 1SM 13/12 A3000 RMK T01300120 IEM_DS3505
ZGKL,2007-12-20 18:00,ZGKL 201800Z AUTO 02006KT 2SM 12/11 A2997 RMK 60008 SLP168 T01200109 57010 IEM_DS3505
ZGKL,2007-12-20 19:00,ZGKL 201900Z AUTO 12/11 A2997 RMK T01200110 IEM_DS3505
ZGKL,2007-12-20 20:00,ZGKL 202000Z AUTO 12/12 A2997 RMK T01200120 IEM_DS3505
ZGKL,2007-12-20 21:00,ZGKL 202100Z AUTO 36004KT 2SM 12/11 A2997 RMK 70044 SLP168 T01170108 54000 IEM_DS3505
ZGKL,2007-12-20 22:00,ZGKL 202200Z AUTO 06006KT 3SM 12/11 A3000 RMK T01200110 IEM_DS3505
ZGKL,2007-12-20 23:00,ZGKL 202300Z AUTO 06006KT 5SM 12/11 A3003 RMK T01200110 IEM_DS3505
ZGKL,2007-12-21 00:00,ZGKL 210000Z AUTO 36006KT 6SM 12/10 A3006 RMK 60039 70052 SLP192 T01180100 52023 IEM_DS3505
ZGKL,2007-12-21 01:00,ZGKL 210100Z AUTO 00000KT 5SM 12/11 A3009 RMK T01200110 IEM_DS3505
ZGKL,2007-12-21 02:00,ZGKL 210200Z AUTO 29004KT 4SM 13/11 A3009 RMK T01300110 IEM_DS3505
ZGKL,2007-12-21 03:00,ZGKL 210300Z AUTO 02008KT 9SM 12/10 A3009 RMK SLP205 T01250097 52013 IEM_DS3505
ZGKL,2007-12-21 04:00,ZGKL 210400Z AUTO 4SM 13/12 A3009 RMK T01300120 IEM_DS3505
ZGKL,2007-12-21 05:00,ZGKL 210500Z AUTO 13004KT 4SM 13/12 A3003 RMK T01300120 IEM_DS3505
ZGKL,2007-12-21 06:00,ZGKL 210600Z AUTO 02006KT 9SM 12/09 A3000 RMK 60003 SLP176 T01210093 57029 IEM_DS3505
ZGKL,2007-12-21 07:00,ZGKL 210700Z AUTO 07006KT 4SM 13/11 A3000 RMK T01300110 IEM_DS3505
ZGKL,2007-12-21 08:00,ZGKL 210800Z AUTO 07006KT 4SM 12/10 A3000 RMK T01200100 IEM_DS3505
ZGKL,2007-12-21 09:00,ZGKL 210900Z AUTO 02006KT 9SM 12/09 A3000 RMK SLP169 T01160093 57007 IEM_DS3505
ZGKL,2007-12-21 10:00,ZGKL 211000Z AUTO 06004KT 4SM 12/10 A3000 RMK T01200100 IEM_DS3505
ZGKL,2007-12-21 11:00,ZGKL 211100Z AUTO 4SM 12/10 A3003 RMK T01200100 IEM_DS3505
ZGKL,2007-12-21 12:00,ZGKL 211200Z AUTO 02012KT 7SM 12/08 A3006 RMK 60003 SLP187 T01170082 52018 IEM_DS3505
ZGKL,2007-12-21 13:00,ZGKL 211300Z AUTO 04004KT 3SM 12/10 A3006 RMK T01200100 IEM_DS3505
ZGKL,2007-12-21 14:00,ZGKL 211400Z AUTO 04006KT 3SM 12/09 A3009 RMK T01200090 IEM_DS3505
ZGKL,2007-12-21 15:00,ZGKL 211500Z AUTO 02010KT 7SM 12/08 A3009 RMK SLP197 T01170080 52010 IEM_DS3505
ZGKL,2007-12-21 16:00,ZGKL 211600Z AUTO 2SM 11/10 A3009 RMK T01100100 IEM_DS3505
ZGKL,2007-12-21 17:00,ZGKL 211700Z AUTO 1 1/2SM 10/10 A3009 RMK T01000100 IEM_DS3505
ZGKL,2007-12-21 18:00,ZGKL 211800Z AUTO 36004KT 2 1/2SM 10/09 A3009 RMK 60059 SLP202 T00980087 52004 IEM_DS3505
ZGKL,2007-12-21 19:00,ZGKL 211900Z AUTO 03004KT 1SM 10/09 A3006 RMK T01000090 IEM_DS3505
ZGKL,2007-12-21 20:00,ZGKL 212000Z AUTO 10004KT 1 1/4SM 10/09 A3006 RMK T01000090 IEM_DS3505
ZGKL,2007-12-21 21:00,ZGKL 212100Z AUTO 36008KT 2 1/2SM 09/08 A3006 RMK 70126 SLP193 T00930077 57009 IEM_DS3505
ZGKL,2007-12-21 22:00,ZGKL 212200Z AUTO 07006KT 1SM 09/08 A3009 RMK T00900080 IEM_DS3505
ZGKL,2007-12-21 23:00,ZGKL 212300Z AUTO 05006KT 1SM 09/08 A3009 RMK T00900080 IEM_DS3505
ZGKL,2007-12-22 00:00,ZGKL 220000Z AUTO 36006KT 2 1/2SM 09/07 A3012 RMK 60091 70154 SLP213 T00900074 52019 IEM_DS3505
ZGKL,2007-12-22 01:00,ZGKL 220100Z AUTO 05004KT 1SM 09/09 A3012 RMK T00900090 IEM_DS3505
ZGKL,2007-12-22 02:00,ZGKL 220200Z AUTO 1 1/2SM 10/09 A3012 RMK T01000090 IEM_DS3505
ZGKL,2007-12-22 03:00,ZGKL 220300Z AUTO 02010KT 2 1/2SM 10/07 A3015 RMK SLP214 T01010072 52002 IEM_DS3505
ZGKL,2007-12-22 04:00,ZGKL 220400Z AUTO 04006KT 2 1/2SM 11/09 A3012 RMK T01100090 IEM_DS3505
ZGKL,2007-12-22 05:00,ZGKL 220500Z AUTO 05008KT 2 1/2SM 12/09 A3009 RMK T01200090 IEM_DS3505
ZGKL,2007-12-22 06:00,ZGKL 220600Z AUTO 36008KT 3SM 11/06 A3006 RMK 60008 SLP193 T01110060 57021 IEM_DS3505
ZGKL,2007-12-22 07:00,ZGKL 220700Z AUTO 06006KT 1 1/2SM 11/08 A3003 RMK T01100080 IEM_DS3505
ZGKL,2007-12-22 08:00,ZGKL 220800Z AUTO 1SM 10/09 A3003 RMK T01000090 IEM_DS3505
ZGKL,2007-12-22 09:00,ZGKL 220900Z AUTO 04004KT 2 1/2SM 10/08 A3006 RMK SLP188 T01000076 57006 IEM_DS3505
ZGKL,2007-12-22 10:00,ZGKL 221000Z AUTO 1SM 10/09 A3006 RMK T01000090 IEM_DS3505
ZGKL,2007-12-22 11:00,ZGKL 221100Z AUTO 05008KT 1SM 10/09 A3006 RMK T01000090 IEM_DS3505
ZGKL,2007-12-22 12:00,ZGKL 221200Z AUTO 27004KT 2SM 09/08 A3009 RMK 60008 SLP205 T00910080 52017 IEM_DS3505
ZGKL,2007-12-22 13:00,ZGKL 221300Z AUTO 05004KT 1SM 10/08 A3009 RMK T01000080 IEM_DS3505
ZGKL,2007-12-22 14:00,ZGKL 221400Z AUTO 1SM 10/08 A3009 RMK T01000080 IEM_DS3505
ZGKL,2007-12-22 15:00,ZGKL 221500Z AUTO 02006KT 3SM 10/07 A3012 RMK SLP209 T00950069 52004 IEM_DS3505
ZGKL,2007-12-22 16:00,ZGKL 221600Z AUTO 1SM 10/08 A3012 RMK T01000080 IEM_DS3505
ZGKL,2007-12-22 17:00,ZGKL 221700Z AUTO 1SM 10/09 A3009 RMK T01000090 IEM_DS3505
ZGKL,2007-12-22 18:00,ZGKL 221800Z AUTO 02004KT 3SM 09/07 A3009 RMK 60000 SLP203 T00930066 57006 IEM_DS3505
ZGKL,2007-12-22 19:00,ZGKL 221900Z AUTO 00000KT 1SM 10/08 A3009 RMK T01000080 IEM_DS3505
ZGKL,2007-12-22 20:00,ZGKL 222000Z AUTO 06004KT 09/08 A3009 RMK T00900080 IEM_DS3505
ZGKL,2007-12-22 21:00,ZGKL 222100Z AUTO 02008KT 2 1/2SM 08/07 A3006 RMK 70061 SLP203 T00850066 54000 IEM_DS3505
ZGKL,2007-12-22 22:00,ZGKL 222200Z AUTO 1SM 09/08 A3009 RMK T00900080 IEM_DS3505
ZGKL,2007-12-22 23:00,ZGKL 222300Z AUTO 04004KT 1SM 08/08 A3009 RMK T00800080 IEM_DS3505
ZGKL,2007-12-23 00:00,ZGKL 230000Z AUTO 04002KT 2 1/2SM 08/07 A3012 RMK 60028 70046 SLP212 T00830066 52008 IEM_DS3505
ZGKL,2007-12-23 01:00,ZGKL 230100Z AUTO 05004KT 1SM 09/08 A3012 RMK T00900080 IEM_DS3505
ZGKL,2007-12-23 02:00,ZGKL 230200Z AUTO 06004KT 1 1/4SM 09/08 A3015 RMK T00900080 IEM_DS3505
ZGKL,2007-12-23 03:00,ZGKL 230300Z AUTO 02008KT 4SM 10/07 A3015 RMK SLP221 T01010072 52010 IEM_DS3505
ZGKL,2007-12-23 04:00,ZGKL 230400Z AUTO 1 1/2SM 11/09 A3012 RMK T01100090 IEM_DS3505
ZGKL,2007-12-23 05:00,ZGKL 230500Z AUTO 2SM 12/09 A3012 RMK T01200090 IEM_DS3505
ZGKL,2007-12-23 06:00,ZGKL 230600Z AUTO 02010KT 6SM 11/07 A3006 RMK 60000 SLP196 T01090068 57024 IEM_DS3505
ZGKL,2007-12-23 07:00,ZGKL 230700Z AUTO 06006KT 2 1/2SM 11/08 A3006 RMK T01100080 IEM_DS3505
ZGKL,2007-12-23 08:00,ZGKL 230800Z AUTO 06008KT 2 1/2SM 11/08 A3006 RMK T01100080 IEM_DS3505
ZGKL,2007-12-23 09:00,ZGKL 230900Z AUTO 36008KT 6SM 10/06 A3009 RMK SLP201 T01030064 52004 IEM_DS3505
ZGKL,2007-12-23 10:00,ZGKL 231000Z AUTO 2 1/2SM 11/08 A3009 RMK T01100080 IEM_DS3505
ZGKL,2007-12-23 11:00,ZGKL 231100Z AUTO 02006KT 2SM 10/08 A3009 RMK T01000080 IEM_DS3505
ZGKL,2007-12-23 12:00,ZGKL 231200Z AUTO 36008KT 6SM 10/06 A3012 RMK 60000 SLP212 T00950064 52010 IEM_DS3505
ZGKL,2007-12-23 13:00,ZGKL 231300Z AUTO 2SM 09/07 A3012 RMK T00900070 IEM_DS3505
ZGKL,2007-12-23 14:00,ZGKL 231400Z AUTO 00000KT 1 1/2SM 09/07 A3012 RMK T00900070 IEM_DS3505
ZGKL,2007-12-23 15:00,ZGKL 231500Z AUTO 02008KT 6SM 10/06 A3015 RMK SLP218 T00960063 52007 IEM_DS3505
ZGKL,2007-12-23 16:00,ZGKL 231600Z AUTO 00000KT 1 1/2SM 09/07 A3015 RMK T00900070 IEM_DS3505
ZGKL,2007-12-23 17:00,ZGKL 231700Z AUTO 00000KT 09/08 A3015 RMK T00900080 IEM_DS3505
ZGKL,2007-12-23 18:00,ZGKL 231800Z AUTO 02006KT 7SM 10/06 A3015 RMK SLP223 T00960060 52005 IEM_DS3505
ZGKL,2007-12-23 19:00,ZGKL 231900Z AUTO 00000KT 09/07 A3015 RMK T00900070 IEM_DS3505
ZGKL,2007-12-23 20:00,ZGKL 232000Z AUTO 04002KT 09/07 A3012 RMK T00900070 IEM_DS3505
ZGKL,2007-12-23 21:00,ZGKL 232100Z AUTO 02006KT 7SM 10/06 A3012 RMK 70020 SLP218 T00960063 57005 IEM_DS3505
ZGKL,2007-12-23 22:00,ZGKL 232200Z AUTO 00000KT 1 1/4SM 09/08 A3015 RMK T00900080 IEM_DS3505
ZGKL,2007-12-24 00:00,ZGKL 240000Z AUTO 02004KT 7SM 10/06 A3018 RMK 70000 SLP233 T00970064 52014 IEM_DS3505
ZGKL,2007-12-24 01:00,ZGKL 240100Z AUTO 05004KT 3SM 10/07 A3018 RMK T01000070 IEM_DS3505
ZGKL,2007-12-24 02:00,ZGKL 240200Z AUTO 4SM 11/08 A3021 RMK T01100080 IEM_DS3505
ZGKL,2007-12-24 03:00,ZGKL 240300Z AUTO 04006KT 8SM 13/07 A3018 RMK SLP235 T01270074 52004 IEM_DS3505
ZGKL,2007-12-24 04:00,ZGKL 240400Z AUTO 7SM 14/08 A3015 RMK T01400080 IEM_DS3505
ZGKL,2007-12-24 05:00,ZGKL 240500Z AUTO 05008KT 7SM 14/07 A3012 RMK T01400070 IEM_DS3505
ZGKL,2007-12-24 06:00,ZGKL 240600Z AUTO 02006KT 10SM 14/07 A3009 RMK SLP201 T01440067 57033 IEM_DS3505
ZGKL,2007-12-24 07:00,ZGKL 240700Z AUTO 7SM 14/08 A3006 RMK T01400080 IEM_DS3505
ZGKL,2007-12-24 08:00,ZGKL 240800Z AUTO 04008KT 7SM 15/07 A3006 RMK T01500070 IEM_DS3505
ZGKL,2007-12-24 09:00,ZGKL 240900Z AUTO 07006KT 10SM 14/06 A3003 RMK SLP188 T01360065 57013 IEM_DS3505
ZGKL,2007-12-24 10:00,ZGKL 241000Z AUTO 06014KT 7SM 13/06 A3006 RMK T01300060 IEM_DS3505
ZGKL,2007-12-24 11:00,ZGKL 241100Z AUTO 06012KT 7SM 12/07 A3009 RMK T01200070 IEM_DS3505
ZGKL,2007-12-24 12:00,ZGKL 241200Z AUTO 02010KT 9SM 11/06 A3012 RMK SLP211 T01070061 52021 IEM_DS3505
ZGKL,2007-12-24 13:00,ZGKL 241300Z AUTO 04010KT 7SM 10/07 A3012 RMK T01000070 IEM_DS3505
ZGKL,2007-12-24 14:00,ZGKL 241400Z AUTO 03012KT 7SM 10/07 A3012 RMK T01000070 IEM_DS3505
ZGKL,2007-12-24 15:00,ZGKL 241500Z AUTO 04004KT 9SM 10/06 A3015 RMK SLP220 T01020058 52010 IEM_DS3505
ZGKL,2007-12-24 16:00,ZGKL 241600Z AUTO 7SM 10/06 A3015 RMK T01000060 IEM_DS3505
ZGKL,2007-12-24 17:00,ZGKL 241700Z AUTO 10/07 A3015 RMK T01000070 IEM_DS3505
ZGKL,2007-12-24 18:00,ZGKL 241800Z AUTO 02004KT 8SM 10/06 A3015 RMK SLP226 T01030059 52007 IEM_DS3505
ZGKL,2007-12-24 19:00,ZGKL 241900Z AUTO 02010KT 10/06 A3015 RMK T01000060 IEM_DS3505
ZGKL,2007-12-24 20:00,ZGKL 242000Z AUTO 03010KT 10/06 A3015 RMK T01000060 IEM_DS3505
ZGKL,2007-12-24 21:00,ZGKL 242100Z AUTO 02004KT 7SM 10/06 A3015 RMK SLP219 T01000062 57008 IEM_DS3505
ZGKL,2007-12-24 22:00,ZGKL 242200Z AUTO 04008KT 7SM 10/06 A3015 RMK T01000060 IEM_DS3505
ZGKL,2007-12-24 23:00,ZGKL 242300Z AUTO 04010KT 7SM 10/06 A3015 RMK T01000060 IEM_DS3505
ZGKL,2007-12-25 00:00,ZGKL 250000Z AUTO 02006KT 6SM 10/06 A3018 RMK SLP231 T01000058 52011 IEM_DS3505
ZGKL,2007-12-25 01:00,ZGKL 250100Z AUTO 4SM 10/07 A3018 RMK T01000070 IEM_DS3505
ZGKL,2007-12-25 02:00,ZGKL 250200Z AUTO 05004KT 4SM 11/07 A3021 RMK T01100070 IEM_DS3505
ZGKL,2007-12-25 03:00,ZGKL 250300Z AUTO 04006KT 6SM 11/06 A3021 RMK SLP242 T01090057 52011 IEM_DS3505
ZGKL,2007-12-25 04:00,ZGKL 250400Z AUTO 05008KT 4SM 11/06 A3018 RMK T01100060 IEM_DS3505
ZGKL,2007-12-25 05:00,ZGKL 250500Z AUTO 06010KT 5SM 12/06 A3015 RMK T01200060 IEM_DS3505
ZGKL,2007-12-25 06:00,ZGKL 250600Z AUTO 02006KT 6SM 12/06 A3012 RMK SLP209 T01210057 57032 IEM_DS3505
ZGKL,2007-12-25 07:00,ZGKL 250700Z AUTO 5SM 13/06 A3009 RMK T01300060 IEM_DS3505
ZGKL,2007-12-25 08:00,ZGKL 250800Z AUTO 03006KT 5SM 13/07 A3009 RMK T01300070 IEM_DS3505
ZGKL,2007-12-25 09:00,ZGKL 250900Z AUTO 04006KT 7SM 12/06 A3009 RMK SLP204 T01200059 57005 IEM_DS3505
ZGKL,2007-12-25 10:00,ZGKL 251000Z AUTO 06008KT 5SM 12/06 A3009 RMK T01200060 IEM_DS3505
ZGKL,2007-12-25 11:00,ZGKL 251100Z AUTO 05010KT 4SM 11/07 A3012 RMK T01100070 IEM_DS3505
ZGKL,2007-12-25 12:00,ZGKL 251200Z AUTO 02008KT 7SM 11/06 A3015 RMK SLP226 T01060056 52021 IEM_DS3505
ZGKL,2007-12-25 13:00,ZGKL 251300Z AUTO 04008KT 4SM 11/07 A3018 RMK T01100070 IEM_DS3505
ZGKL,2007-12-25 14:00,ZGKL 251400Z AUTO 05006KT 4SM 10/07 A3018 RMK T01000070 IEM_DS3505
ZGKL,2007-12-25 15:00,ZGKL 251500Z AUTO 02006KT 7SM 10/06 A3018 RMK SLP233 T01000060 52007 IEM_DS3505
ZGKL,2007-12-25 16:00,ZGKL 251600Z AUTO 06004KT 3SM 10/07 A3018 RMK T01000070 IEM_DS3505
ZGKL,2007-12-25 17:00,ZGKL 251700Z AUTO 09/07 A3021 RMK T00900070 IEM_DS3505
ZGKL,2007-12-25 18:00,ZGKL 251800Z AUTO 36004KT 6SM 09/07 A3021 RMK 60004 SLP240 T00900068 52007 IEM_DS3505
ZGKL,2007-12-25 19:00,ZGKL 251900Z AUTO 00000KT 09/08 A3018 RMK T00900080 IEM_DS3505
ZGKL,2007-12-25 20:00,ZGKL 252000Z AUTO 00000KT 09/08 A3018 RMK T00900080 IEM_DS3505
ZGKL,2007-12-25 21:00,ZGKL 252100Z AUTO 02004KT 6SM 09/07 A3018 RMK 70007 SLP234 T00870067 57006 IEM_DS3505
ZGKL,2007-12-25 22:00,ZGKL 252200Z AUTO 00000KT 2SM 09/08 A3018 RMK T00900080 IEM_DS3505
ZGKL,2007-12-25 23:00,ZGKL 252300Z AUTO 00000KT 2 1/2SM 09/08 A3018 RMK T00900080 IEM_DS3505
ZGKL,2007-12-26 00:00,ZGKL 260000Z AUTO 02004KT 9SM 09/06 A3021 RMK 60004 70007 SLP242 T00900061 52007 IEM_DS3505
ZGKL,2007-12-26 01:00,ZGKL 260100Z AUTO 00000KT 2SM 09/08 A3021 RMK T00900080 IEM_DS3505
ZGKL,2007-12-26 02:00,ZGKL 260200Z AUTO 00000KT 3SM 10/08 A3021 RMK T01000080 IEM_DS3505
ZGKL,2007-12-26 03:00,ZGKL 260300Z AUTO 02004KT 9SM 10/06 A3021 RMK SLP245 T01000065 52004 IEM_DS3505
ZGKL,2007-12-26 04:00,ZGKL 260400Z AUTO 00000KT 3SM 10/08 A3018 RMK T01000080 IEM_DS3505
ZGKL,2007-12-26 05:00,ZGKL 260500Z AUTO 00000KT 5SM 10/08 A3015 RMK T01000080 IEM_DS3505
ZGKL,2007-12-26 06:00,ZGKL 260600Z AUTO 02006KT 10SM 10/06 A3012 RMK SLP213 T01050065 57032 IEM_DS3505
ZGKL,2007-12-26 07:00,ZGKL 260700Z AUTO 00000KT 4SM 11/08 A3009 RMK T01100080 IEM_DS3505
ZGKL,2007-12-26 08:00,ZGKL 260800Z AUTO 00000KT 4SM 11/08 A3009 RMK T01100080 IEM_DS3505
ZGKL,2007-12-26 09:00,ZGKL 260900Z AUTO 36002KT 5SM 10/07 A3009 RMK SLP207 T00950074 57006 IEM_DS3505
ZGKL,2007-12-26 10:00,ZGKL 261000Z AUTO 06004KT 1 1/2SM 09/08 A3012 RMK T00900080 IEM_DS3505
ZGKL,2007-12-26 11:00,ZGKL 261100Z AUTO 06004KT 1SM 09/08 A3012 RMK T00900080 IEM_DS3505
ZGKL,2007-12-26 12:00,ZGKL 261200Z AUTO 02004KT 4SM 09/08 A3015 RMK 60008 SLP227 T00860075 52019 IEM_DS3505
ZGKL,2007-12-26 13:00,ZGKL 261300Z AUTO 08004KT 1 1/4SM 09/08 A3015 RMK T00900080 IEM_DS3505
ZGKL,2007-12-26 14:00,ZGKL 261400Z AUTO 06004KT 1 1/4SM 09/08 A3018 RMK T00900080 IEM_DS3505
ZGKL,2007-12-26 15:00,ZGKL 261500Z AUTO 02006KT 5SM 08/07 A3018 RMK SLP235 T00850071 52008 IEM_DS3505
ZGKL,2007-12-26 16:00,ZGKL 261600Z AUTO 09004KT 1 1/2SM 09/08 A3018 RMK T00900080 IEM_DS3505
ZGKL,2007-12-26 17:00,ZGKL 261700Z AUTO 07004KT 1 1/2SM 09/08 A3018 RMK T00900080 IEM_DS3505
ZGKL,2007-12-26 18:00,ZGKL 261800Z AUTO 02006KT 6SM 09/07 A3015 RMK 60001 SLP226 T00860067 57008 IEM_DS3505
ZGKL,2007-12-26 19:00,ZGKL 261900Z AUTO 00000KT 09/07 A3015 RMK T00900070 IEM_DS3505
ZGKL,2007-12-26 20:00,ZGKL 262000Z AUTO 00000KT 09/08 A3012 RMK T00900080 IEM_DS3505
ZGKL,2007-12-26 21:00,ZGKL 262100Z AUTO 02004KT 9SM 09/06 A3012 RMK 70009 SLP213 T00880064 57013 IEM_DS3505
ZGKL,2007-12-26 22:00,ZGKL 262200Z AUTO 00000KT 1 1/2SM 09/08 A3012 RMK T00900080 IEM_DS3505
ZGKL,2007-12-26 23:00,ZGKL 262300Z AUTO 00000KT 1 1/4SM 09/08 A3012 RMK T00900080 IEM_DS3505
ZGKL,2007-12-27 00:00,ZGKL 270000Z AUTO 02004KT 8SM 09/06 A3015 RMK 60000 70009 SLP221 T00890065 52007 IEM_DS3505
ZGKL,2007-12-27 01:00,ZGKL 270100Z AUTO 1 1/2SM 09/08 A3015 RMK T00900080 IEM_DS3505
ZGKL,2007-12-27 02:00,ZGKL 270200Z AUTO 00000KT 2SM 09/08 A3015 RMK T00900080 IEM_DS3505
ZGKL,2007-12-27 03:00,ZGKL 270300Z AUTO 02006KT 8SM 09/07 A3015 RMK SLP222 T00940068 52001 IEM_DS3505
ZGKL,2007-12-27 04:00,ZGKL 270400Z AUTO 00000KT 2 1/2SM 09/08 A3012 RMK T00900080 IEM_DS3505
ZGKL,2007-12-27 05:00,ZGKL 270500Z AUTO 00000KT 2 1/2SM 09/08 A3009 RMK T00900080 IEM_DS3505
ZGKL,2007-12-27 06:00,ZGKL 270600Z AUTO 02004KT 7SM 10/07 A3003 RMK 60000 SLP183 T01040071 57038 IEM_DS3505
ZGKL,2007-12-27 07:00,ZGKL 270700Z AUTO 00000KT 1 1/2SM 10/08 A3000 RMK T01000080 IEM_DS3505
ZGKL,2007-12-27 08:00,ZGKL 270800Z AUTO 00000KT 2SM 10/09 A3000 RMK T01000090 IEM_DS3505
ZGKL,2007-12-27 09:00,ZGKL 270900Z AUTO 02006KT 7SM 10/07 A3000 RMK SLP172 T00980069 57011 IEM_DS3505
ZGKL,2007-12-27 11:00,ZGKL 271100Z AUTO 06004KT 1 1/2SM 09/09 A3000 RMK T00900090 IEM_DS3505
ZGKL,2007-12-27 12:00,ZGKL 271200Z AUTO 02006KT 6SM 09/07 A3003 RMK 60002 SLP179 T00930074 52007 IEM_DS3505
ZGKL,2007-12-27 13:00,ZGKL 271300Z AUTO 06004KT 1 1/4SM 09/09 A3003 RMK T00900090 IEM_DS3505
ZGKL,2007-12-27 14:00,ZGKL 271400Z AUTO 06004KT 1 1/2SM 09/09 A3003 RMK T00900090 IEM_DS3505
ZGKL,2007-12-27 15:00,ZGKL 271500Z AUTO 04006KT 6SM 09/08 A3006 RMK SLP191 T00910079 52012 IEM_DS3505
ZGKL,2007-12-27 16:00,ZGKL 271600Z AUTO 1SM 09/09 A3006 RMK T00900090 IEM_DS3505
ZGKL,2007-12-27 17:00,ZGKL 271700Z AUTO 00000KT 1SM 09/09 A3006 RMK T00900090 IEM_DS3505
ZGKL,2007-12-27 18:00,ZGKL 271800Z AUTO 02004KT 6SM 09/08 A3006 RMK 60016 SLP191 T00890077 54000 IEM_DS3505
ZGKL,2007-12-27 19:00,ZGKL 271900Z AUTO 09004KT 09/08 A3003 RMK T00900080 IEM_DS3505
ZGKL,2007-12-27 20:00,ZGKL 272000Z AUTO 09/08 A3003 RMK T00900080 IEM_DS3505
ZGKL,2007-12-27 21:00,ZGKL 272100Z AUTO 02004KT 5SM 09/08 A3003 RMK 70024 SLP182 T00890077 57009 IEM_DS3505
ZGKL,2007-12-27 22:00,ZGKL 272200Z AUTO 2SM 09/08 A3003 RMK T00900080 IEM_DS3505
ZGKL,2007-12-27 23:00,ZGKL 272300Z AUTO 00000KT 1 1/4SM 09/08 A3006 RMK T00900080 IEM_DS3505
ZGKL,2007-12-28 00:00,ZGKL 280000Z AUTO 04006KT 4SM 09/08 A3009 RMK 60016 70034 SLP206 T00890075 52024 IEM_DS3505
ZGKL,2007-12-28 01:00,ZGKL 280100Z AUTO 00000KT 1SM 09/09 A3012 RMK T00900090 IEM_DS3505
ZGKL,2007-12-28 02:00,ZGKL 280200Z AUTO 00000KT 1SM 09/09 A3015 RMK T00900090 IEM_DS3505
ZGKL,2007-12-28 03:00,ZGKL 280300Z AUTO 36010KT 5SM 09/07 A3018 RMK SLP230 T00940068 52023 IEM_DS3505
ZGKL,2007-12-28 04:00,ZGKL 280400Z AUTO 1 1/4SM 10/09 A3015 RMK T01000090 IEM_DS3505
ZGKL,2007-12-28 05:00,ZGKL 280500Z AUTO 05004KT 2 1/2SM 10/09 A3012 RMK T01000090 IEM_DS3505
ZGKL,2007-12-28 06:00,ZGKL 280600Z AUTO 02008KT 9SM 10/07 A3009 RMK 60004 SLP209 T00950074 57020 IEM_DS3505
ZGKL,2007-12-28 07:00,ZGKL 280700Z AUTO 7SM 10/08 A3009 RMK T01000080 IEM_DS3505
ZGKL,2007-12-28 08:00,ZGKL 280800Z AUTO 08004KT 7SM 10/09 A3009 RMK T01000090 IEM_DS3505
ZGKL,2007-12-28 09:00,ZGKL 280900Z AUTO 36010KT 10SM 10/06 A3012 RMK SLP210 T00970064 52001 IEM_DS3505
ZGKL,2007-12-28 10:00,ZGKL 281000Z AUTO 04004KT 7SM 10/08 A3012 RMK T01000080 IEM_DS3505
ZGKL,2007-12-28 11:00,ZGKL 281100Z AUTO 06004KT 7SM 09/08 A3012 RMK T00900080 IEM_DS3505
ZGKL,2007-12-28 12:00,ZGKL 281200Z AUTO 36008KT 9SM 09/06 A3015 RMK 60000 SLP223 T00930060 52012 IEM_DS3505
ZGKL,2007-12-28 13:00,ZGKL 281300Z AUTO 7SM 09/08 A3015 RMK T00900080 IEM_DS3505
ZGKL,2007-12-28 14:00,ZGKL 281400Z AUTO 00000KT 7SM 09/07 A3015 RMK T00900070 IEM_DS3505
ZGKL,2007-12-28 15:00,ZGKL 281500Z AUTO 36010KT 9SM 09/06 A3015 RMK SLP225 T00920056 52002 IEM_DS3505
ZGKL,2007-12-28 16:00,ZGKL 281600Z AUTO 00000KT 7SM 09/07 A3015 RMK T00900070 IEM_DS3505
ZGKL,2007-12-28 17:00,ZGKL 281700Z AUTO 00000KT 08/07 A3015 RMK T00800070 IEM_DS3505
ZGKL,2007-12-28 18:00,ZGKL 281800Z AUTO 02008KT 9SM 09/05 A3015 RMK SLP225 T00890049 54000 IEM_DS3505
ZGKL,2007-12-28 19:00,ZGKL 281900Z AUTO 08/07 A3015 RMK T00800070 IEM_DS3505
ZGKL,2007-12-28 20:00,ZGKL 282000Z AUTO 00000KT 08/07 A3015 RMK T00800070 IEM_DS3505
ZGKL,2007-12-28 21:00,ZGKL 282100Z AUTO 36008KT 9SM 08/04 A3015 RMK 70015 SLP226 T00850041 52001 IEM_DS3505
ZGKL,2007-12-28 22:00,ZGKL 282200Z AUTO 00000KT 7SM 08/06 A3015 RMK T00800060 IEM_DS3505
ZGKL,2007-12-28 23:00,ZGKL 282300Z AUTO 00000KT 7SM 08/06 A3018 RMK T00800060 IEM_DS3505
ZGKL,2007-12-29 00:00,ZGKL 290000Z AUTO 02010KT 9SM 09/03 A3018 RMK 70005 SLP233 T00870027 52007 IEM_DS3505
ZGKL,2007-12-29 01:00,ZGKL 290100Z AUTO 00000KT 5SM 09/06 A3018 RMK T00900060 IEM_DS3505
ZGKL,2007-12-29 02:00,ZGKL 290200Z AUTO 4SM 10/06 A3021 RMK T01000060 IEM_DS3505
ZGKL,2007-12-29 03:00,ZGKL 290300Z AUTO 02012KT 9SM 10/02 A3021 RMK SLP243 T01040018 52010 IEM_DS3505
ZGKL,2007-12-29 04:00,ZGKL 290400Z AUTO 05010KT 5SM 12/04 A3018 RMK T01200040 IEM_DS3505
ZGKL,2007-12-29 05:00,ZGKL 290500Z AUTO 03014KT 6SM 12/03 A3015 RMK T01200030 IEM_DS3505
ZGKL,2007-12-29 06:00,ZGKL 290600Z AUTO 02012KT 9SM 12/00 A3012 RMK SLP212 T01190000 57030 IEM_DS3505
ZGKL,2007-12-29 07:00,ZGKL 290700Z AUTO 06010KT 6SM 13/03 A3009 RMK T01300030 IEM_DS3505
ZGKL,2007-12-29 08:00,ZGKL 290800Z AUTO 06008KT 6SM 12/03 A3009 RMK T01200030 IEM_DS3505
ZGKL,2007-12-29 09:00,ZGKL 290900Z AUTO 02006KT 9SM 12/00 A3009 RMK SLP207 T01160001 57005 IEM_DS3505
ZGKL,2007-12-29 10:00,ZGKL 291000Z AUTO 05008KT 6SM 11/02 A3009 RMK T01100020 IEM_DS3505
ZGKL,2007-12-29 11:00,ZGKL 291100Z AUTO 05006KT 4SM 11/02 A3012 RMK T01100020 IEM_DS3505
ZGKL,2007-12-29 12:00,ZGKL 291200Z AUTO 02008KT 9SM 10/01 A3015 RMK SLP223 T01040007 52016 IEM_DS3505
ZGKL,2007-12-29 13:00,ZGKL 291300Z AUTO 05006KT 4SM 10/02 A3015 RMK T01000020 IEM_DS3505
ZGKL,2007-12-29 14:00,ZGKL 291400Z AUTO 04006KT 4SM 10/02 A3018 RMK T01000020 IEM_DS3505
ZGKL,2007-12-29 15:00,ZGKL 291500Z AUTO 02008KT 9SM 10/02 A3018 RMK SLP235 T01010015 52012 IEM_DS3505
ZGKL,2007-12-29 16:00,ZGKL 291600Z AUTO 4SM 10/03 A3018 RMK T01000030 IEM_DS3505
ZGKL,2007-12-29 17:00,ZGKL 291700Z AUTO 4SM 10/03 A3018 RMK T01000030 IEM_DS3505
ZGKL,2007-12-29 18:00,ZGKL 291800Z AUTO 02008KT 9SM 10/00 A3018 RMK 60000 SLP239 T01000003 52004 IEM_DS3505
ZGKL,2007-12-29 19:00,ZGKL 291900Z AUTO 00000KT 09/06 A3018 RMK T00900060 IEM_DS3505
ZGKL,2007-12-29 20:00,ZGKL 292000Z AUTO 00000KT 09/05 A3018 RMK T00900050 IEM_DS3505
ZGKL,2007-12-29 21:00,ZGKL 292100Z AUTO 02012KT 7SM 10/M02 A3018 RMK 70000 SLP238 T01011022 57001 IEM_DS3505
ZGKL,2007-12-29 22:00,ZGKL 292200Z AUTO 04006KT 4SM 10/02 A3021 RMK T01000020 IEM_DS3505
ZGKL,2007-12-29 23:00,ZGKL 292300Z AUTO 05008KT 5SM 10/00 A3024 RMK T01000000 IEM_DS3505
ZGKL,2007-12-30 00:00,ZGKL 300000Z AUTO 02012KT 9SM 09/M03 A3024 RMK 70000 SLP259 T00921034 52020 IEM_DS3505
ZGKL,2007-12-30 01:00,ZGKL 300100Z AUTO 06008KT 7SM 10/M01 A3027 RMK T01001010 IEM_DS3505
ZGKL,2007-12-30 02:00,ZGKL 300200Z AUTO 07008KT 7SM 10/M01 A3030 RMK T01001010 IEM_DS3505
ZGKL,2007-12-30 03:00,ZGKL 300300Z AUTO 02010KT 9SM 10/M06 A3030 RMK SLP273 T01001059 52014 IEM_DS3505
ZGKL,2007-12-30 04:00,ZGKL 300400Z AUTO 06010KT 7SM 11/M02 A3027 RMK T01101020 IEM_DS3505
ZGKL,2007-12-30 05:00,ZGKL 300500Z AUTO 05010KT 7SM 12/M04 A3024 RMK T01201040 IEM_DS3505
ZGKL,2007-12-30 06:00,ZGKL 300600Z AUTO 02014KT 10SM 11/M08 A3021 RMK SLP246 T01061076 57026 IEM_DS3505
ZGKL,2007-12-30 07:00,ZGKL 300700Z AUTO 05014KT 6SM 12/M07 A3021 RMK T01201070 IEM_DS3505
ZGKL,2007-12-30 08:00,ZGKL 300800Z AUTO 04016KT 7SM 11/M06 A3021 RMK T01101060 IEM_DS3505
ZGKL,2007-12-30 09:00,ZGKL 300900Z AUTO 02008KT 9SM 10/M05 A3021 RMK SLP245 T01021050 57001 IEM_DS3505
ZGKL,2007-12-30 10:00,ZGKL 301000Z AUTO 04010KT 7SM 10/M03 A3021 RMK T01001030 IEM_DS3505
ZGKL,2007-12-30 11:00,ZGKL 301100Z AUTO 04010KT 7SM 09/M03 A3024 RMK T00901030 IEM_DS3505
ZGKL,2007-12-30 12:00,ZGKL 301200Z AUTO 04006KT 9SM 09/M04 A3027 RMK SLP261 T00901042 52015 IEM_DS3505
ZGKL,2007-12-30 13:00,ZGKL 301300Z AUTO 05010KT 7SM 09/M04 A3027 RMK T00901040 IEM_DS3505
ZGKL,2007-12-30 14:00,ZGKL 301400Z AUTO 04010KT 7SM 09/M03 A3030 RMK T00901030 IEM_DS3505
ZGKL,2007-12-30 15:00,ZGKL 301500Z AUTO 02012KT 9SM 08/M04 A3030 RMK SLP277 T00831045 52015 IEM_DS3505
ZGKL,2007-12-30 16:00,ZGKL 301600Z AUTO 06006KT 5SM 08/M03 A3030 RMK T00801030 IEM_DS3505
ZGKL,2007-12-30 17:00,ZGKL 301700Z AUTO 05008KT 08/M03 A3030 RMK T00801030 IEM_DS3505
ZGKL,2007-12-30 18:00,ZGKL 301800Z AUTO 02010KT 9SM 08/M10 A3030 RMK SLP277 T00771097 54000 IEM_DS3505
ZGKL,2007-12-30 19:00,ZGKL 301900Z AUTO 06010KT 07/M06 A3030 RMK T00701060 IEM_DS3505
ZGKL,2007-12-30 20:00,ZGKL 302000Z AUTO 06014KT 07/M07 A3030 RMK T00701070 IEM_DS3505
ZGKL,2007-12-30 21:00,ZGKL 302100Z AUTO 02014KT 9SM 07/M09 A3030 RMK SLP279 T00671092 52002 IEM_DS3505
ZGKL,2007-12-30 22:00,ZGKL 302200Z AUTO 04008KT 7SM 07/M07 A3033 RMK T00701070 IEM_DS3505
