station,valid,metar
ZGHA,2008-01-01 00:00,ZGHA 010000Z AUTO 00000KT 6SM M02/M04 A3056 RMK T10201040 IEM_DS3505
ZGHA,2008-01-01 01:00,ZGHA 010100Z AUTO 00000KT 6SM 02/M02 A3059 RMK T00201020 IEM_DS3505
ZGHA,2008-01-01 02:00,ZGHA 010200Z AUTO 6SM 04/M04 A3059 RMK T00401040 IEM_DS3505
ZGHA,2008-01-01 03:00,ZGHA 010300Z AUTO 6SM 07/M05 A3059 RMK T00701050 IEM_DS3505
ZGHA,2008-01-01 04:00,ZGHA 010400Z AUTO 6SM 09/M06 A3056 RMK T00901060 IEM_DS3505
ZGHA,2008-01-01 05:00,ZGHA 010500Z AUTO 01004KT 6SM 11/M07 A3053 RMK T01101070 IEM_DS3505
ZGHA,2008-01-01 06:00,ZGHA 010600Z AUTO 33012KT 6SM 12/M10 A3050 RMK T01201100 IEM_DS3505
ZGHA,2008-01-01 07:00,ZGHA 010700Z AUTO 33006KT 6SM 12/M09 A3047 RMK T01201090 IEM_DS3505
ZGHA,2008-01-01 08:00,ZGHA 010800Z AUTO 34010KT 6SM 11/M08 A3047 RMK T01101080 IEM_DS3505
ZGHA,2008-01-01 09:00,ZGHA 010900Z AUTO 32008KT 6SM 10/M08 A3047 RMK T01001080 IEM_DS3505
ZGHA,2008-01-01 10:00,ZGHA 011000Z AUTO 32006KT 6SM 08/M07 A3047 RMK T00801070 IEM_DS3505
ZGHA,2008-01-01 11:00,ZGHA 011100Z AUTO 32006KT 6SM 06/M06 A3050 RMK T00601060 IEM_DS3505
ZGHA,2008-01-01 12:00,ZGHA 011200Z AUTO 35004KT 6SM 05/M04 A3050 RMK T00501040 IEM_DS3505
ZGHA,2008-01-01 13:00,ZGHA 011300Z AUTO 36004KT 6SM 04/M05 A3053 RMK T00401050 IEM_DS3505
ZGHA,2008-01-01 14:00,ZGHA 011400Z AUTO 07002KT 6SM 02/M05 A3053 RMK T00201050 IEM_DS3505
ZGHA,2008-01-01 15:00,ZGHA 011500Z AUTO 36006KT 4SM 01/M04 A3053 RMK T00101040 IEM_DS3505
ZGHA,2008-01-01 16:00,ZGHA 011600Z AUTO 35002KT 4SM 00/M06 A3053 RMK T00001060 IEM_DS3505
ZGHA,2008-01-01 17:00,ZGHA 011700Z AUTO 36002KT 1 1/2SM M01/M05 A3053 RMK T10101050 IEM_DS3505
ZGHA,2008-01-01 18:00,ZGHA 011800Z AUTO 35004KT 1 1/2SM M02/M05 A3050 RMK T10201050 IEM_DS3505
ZGHA,2008-01-01 19:00,ZGHA 011900Z AUTO 00000KT 1 1/2SM M02/M05 A3050 RMK T10201050 IEM_DS3505
ZGHA,2008-01-01 21:00,ZGHA 012100Z AUTO 00000KT 4SM M03/M04 A3050 RMK T10301040 IEM_DS3505
ZGHA,2008-01-01 22:00,ZGHA 012200Z AUTO 00000KT 3SM M04/M05 A3050 RMK T10401050 IEM_DS3505
ZGHA,2008-01-01 23:00,ZGHA 012300Z AUTO 00000KT 2 1/2SM M04/M05 A3050 RMK T10401050 IEM_DS3505
ZGHA,2008-01-02 00:00,ZGHA 020000Z AUTO 00000KT 3SM M03/M04 A3053 RMK T10301040 IEM_DS3505
ZGHA,2008-01-02 01:00,ZGHA 020100Z AUTO 00000KT 4SM 02/00 A3053 RMK T00200000 IEM_DS3505
ZGHA,2008-01-02 02:00,ZGHA 020200Z AUTO 00000KT 4SM 04/M02 A3056 RMK T00401020 IEM_DS3505
ZGHA,2008-01-02 03:00,ZGHA 020300Z AUTO 6SM 05/M03 A3053 RMK T00501030 IEM_DS3505
ZGHA,2008-01-02 04:00,ZGHA 020400Z AUTO 6SM 09/M03 A3050 RMK T00901030 IEM_DS3505
ZGHA,2008-01-02 05:00,ZGHA 020500Z AUTO 17004KT 6SM 10/M04 A3045 RMK T01001040 IEM_DS3505
ZGHA,2008-01-02 06:00,ZGHA 020600Z AUTO 00000KT 6SM 10/M07 A3042 RMK T01001070 IEM_DS3505
ZGHA,2008-01-02 07:00,ZGHA 020700Z AUTO 02004KT 6SM 11/M08 A3039 RMK T01101080 IEM_DS3505
ZGHA,2008-01-02 08:00,ZGHA 020800Z AUTO 28004KT 6SM 11/M06 A3039 RMK T01101060 IEM_DS3505
ZGHA,2008-01-02 09:00,ZGHA 020900Z AUTO 29004KT 6SM 10/M06 A3039 RMK T01001060 IEM_DS3505
ZGHA,2008-01-02 10:00,ZGHA 021000Z AUTO 29004KT 4SM 08/M05 A3039 RMK T00801050 IEM_DS3505
ZGHA,2008-01-02 11:00,ZGHA 021100Z AUTO 3SM 04/M02 A3039 RMK T00401020 IEM_DS3505
ZGHA,2008-01-02 12:00,ZGHA 021200Z AUTO 04004KT 2 1/2SM 03/M01 A3039 RMK T00301010 IEM_DS3505
ZGHA,2008-01-02 13:00,ZGHA 021300Z AUTO 34004KT 2 1/2SM 01/M03 A3042 RMK T00101030 IEM_DS3505
ZGHA,2008-01-02 14:00,ZGHA 021400Z AUTO 30006KT 2 1/2SM 02/M02 A3042 RMK T00201020 IEM_DS3505
ZGHA,2008-01-02 15:00,ZGHA 021500Z AUTO 01002KT 2 1/2SM 02/M02 A3042 RMK T00201020 IEM_DS3505
ZGHA,2008-01-02 16:00,ZGHA 021600Z AUTO 00000KT 2 1/2SM 02/M01 A3042 RMK T00201010 IEM_DS3505
ZGHA,2008-01-02 17:00,ZGHA 021700Z AUTO 10002KT 2 1/2SM 02/M01 A3042 RMK T00201010 IEM_DS3505
ZGHA,2008-01-02 18:00,ZGHA 021800Z AUTO 00000KT 2 1/2SM 02/M01 A3042 RMK T00201010 IEM_DS3505
ZGHA,2008-01-02 19:00,ZGHA 021900Z AUTO 00000KT 1 1/4SM 01/M01 A3039 RMK T00101010 IEM_DS3505
ZGHA,2008-01-02 20:00,ZGHA 022000Z AUTO 00000KT 1 1/2SM M01/M02 A3039 RMK T10101020 IEM_DS3505
ZGHA,2008-01-02 21:00,ZGHA 022100Z AUTO 00000KT 2 1/2SM M01/M02 A3039 RMK T10101020 IEM_DS3505
ZGHA,2008-01-02 22:00,ZGHA 022200Z AUTO 00000KT 3SM M02/M03 A3039 RMK T10201030 IEM_DS3505
ZGHA,2008-01-02 23:00,ZGHA 022300Z AUTO 00000KT 5SM M02/M04 A3042 RMK T10201040 IEM_DS3505
ZGHA,2008-01-03 00:00,ZGHA 030000Z AUTO 00000KT 5SM M01/M02 A3042 RMK T10101020 IEM_DS3505
ZGHA,2008-01-03 01:00,ZGHA 030100Z AUTO 08004KT 5SM 02/01 A3042 RMK T00200010 IEM_DS3505
ZGHA,2008-01-03 02:00,ZGHA 030200Z AUTO 6SM 05/01 A3045 RMK T00500010 IEM_DS3505
ZGHA,2008-01-03 03:00,ZGHA 030300Z AUTO 6SM 07/00 A3045 RMK T00700000 IEM_DS3505
ZGHA,2008-01-03 04:00,ZGHA 030400Z AUTO 32004KT 6SM 10/M03 A3039 RMK T01001030 IEM_DS3505
ZGHA,2008-01-03 05:00,ZGHA 030500Z AUTO 30004KT 6SM 12/M03 A3036 RMK T01201030 IEM_DS3505
ZGHA,2008-01-03 06:00,ZGHA 030600Z AUTO 6SM 12/M05 A3033 RMK T01201050 IEM_DS3505
ZGHA,2008-01-03 07:00,ZGHA 030700Z AUTO 6SM 13/M05 A3030 RMK T01301050 IEM_DS3505
ZGHA,2008-01-03 08:00,ZGHA 030800Z AUTO 6SM 13/M04 A3027 RMK T01301040 IEM_DS3505
ZGHA,2008-01-03 09:00,ZGHA 030900Z AUTO 29006KT 6SM 12/M03 A3027 RMK T01201030 IEM_DS3505
ZGHA,2008-01-03 10:00,ZGHA 031000Z AUTO 29006KT 4SM 09/M01 A3030 RMK T00901010 IEM_DS3505
ZGHA,2008-01-03 11:00,ZGHA 031100Z AUTO 31006KT 4SM 08/M01 A3030 RMK T00801010 IEM_DS3505
ZGHA,2008-01-03 12:00,ZGHA 031200Z AUTO 00000KT 4SM 06/M02 A3030 RMK T00601020 IEM_DS3505
ZGHA,2008-01-03 13:00,ZGHA 031300Z AUTO 00000KT 3SM 04/00 A3033 RMK T00400000 IEM_DS3505
ZGHA,2008-01-03 14:00,ZGHA 031400Z AUTO 00000KT 3SM 05/01 A3033 RMK T00500010 IEM_DS3505
ZGHA,2008-01-03 15:00,ZGHA 031500Z AUTO 01002KT 4SM 06/M01 A3033 RMK T00601010 IEM_DS3505
ZGHA,2008-01-03 16:00,ZGHA 031600Z AUTO 00000KT 4SM 06/00 A3033 RMK T00600000 IEM_DS3505
ZGHA,2008-01-03 17:00,ZGHA 031700Z AUTO 1 1/2SM 05/01 A3033 RMK T00500010 IEM_DS3505
ZGHA,2008-01-03 18:00,ZGHA 031800Z AUTO 00000KT 1 1/2SM 06/01 A3033 RMK T00600010 IEM_DS3505
ZGHA,2008-01-03 19:00,ZGHA 031900Z AUTO 00000KT 1 1/2SM 06/00 A3030 RMK T00600000 IEM_DS3505
ZGHA,2008-01-03 20:00,ZGHA 032000Z AUTO 00000KT 1 1/2SM 05/00 A3030 RMK T00500000 IEM_DS3505
ZGHA,2008-01-03 21:00,ZGHA 032100Z AUTO 00000KT 4SM 05/01 A3030 RMK T00500010 IEM_DS3505
ZGHA,2008-01-03 22:00,ZGHA 032200Z AUTO 00000KT 4SM 05/01 A3030 RMK T00500010 IEM_DS3505
ZGHA,2008-01-03 23:00,ZGHA 032300Z AUTO 00000KT 3SM 05/01 A3030 RMK T00500010 IEM_DS3505
ZGHA,2008-01-04 00:00,ZGHA 040000Z AUTO 00000KT 3SM 06/01 A3033 RMK T00600010 IEM_DS3505
ZGHA,2008-01-04 01:00,ZGHA 040100Z AUTO 00000KT 3SM 07/02 A3033 RMK T00700020 IEM_DS3505
ZGHA,2008-01-04 02:00,ZGHA 040200Z AUTO 32004KT 3SM 08/02 A3036 RMK T00800020 IEM_DS3505
ZGHA,2008-01-04 03:00,ZGHA 040300Z AUTO 3SM 08/03 A3036 RMK T00800030 IEM_DS3505
ZGHA,2008-01-04 04:00,ZGHA 040400Z AUTO 34004KT 4SM 10/01 A3033 RMK T01000010 IEM_DS3505
ZGHA,2008-01-04 05:00,ZGHA 040500Z AUTO 30006KT 4SM 10/01 A3030 RMK T01000010 IEM_DS3505
ZGHA,2008-01-04 06:00,ZGHA 040600Z AUTO 00000KT 4SM 11/01 A3027 RMK T01100010 IEM_DS3505
ZGHA,2008-01-04 07:00,ZGHA 040700Z AUTO 4SM 12/00 A3024 RMK T01200000 IEM_DS3505
ZGHA,2008-01-04 08:00,ZGHA 040800Z AUTO 31004KT 3SM 11/01 A3024 RMK T01100010 IEM_DS3505
ZGHA,2008-01-04 09:00,ZGHA 040900Z AUTO 31006KT 3SM 11/02 A3027 RMK T01100020 IEM_DS3505
ZGHA,2008-01-04 10:00,ZGHA 041000Z AUTO 31006KT 3SM 10/02 A3027 RMK T01000020 IEM_DS3505
ZGHA,2008-01-04 11:00,ZGHA 041100Z AUTO 33004KT 2 1/2SM 09/03 A3027 RMK T00900030 IEM_DS3505
ZGHA,2008-01-04 12:00,ZGHA 041200Z AUTO 36002KT 2 1/2SM 09/02 A3030 RMK T00900020 IEM_DS3505
ZGHA,2008-01-04 13:00,ZGHA 041300Z AUTO 00000KT 2 1/2SM 09/02 A3030 RMK T00900020 IEM_DS3505
ZGHA,2008-01-04 14:00,ZGHA 041400Z AUTO 34006KT 2SM 08/02 A3033 RMK T00800020 IEM_DS3505
ZGHA,2008-01-04 15:00,ZGHA 041500Z AUTO 35002KT 2SM 08/02 A3033 RMK T00800020 IEM_DS3505
ZGHA,2008-01-04 16:00,ZGHA 041600Z AUTO 36004KT 2SM 08/03 A3033 RMK T00800030 IEM_DS3505
ZGHA,2008-01-04 17:00,ZGHA 041700Z AUTO 00000KT 2SM 08/03 A3033 RMK T00800030 IEM_DS3505
ZGHA,2008-01-04 18:00,ZGHA 041800Z AUTO 00000KT 1SM 08/03 A3033 RMK T00800030 IEM_DS3505
ZGHA,2008-01-04 19:00,ZGHA 041900Z AUTO 00000KT 1SM 07/03 A3033 RMK T00700030 IEM_DS3505
ZGHA,2008-01-04 20:00,ZGHA 042000Z AUTO 00000KT 1SM 07/03 A3030 RMK T00700030 IEM_DS3505
ZGHA,2008-01-04 21:00,ZGHA 042100Z AUTO 00000KT 1 1/2SM 05/03 A3030 RMK T00500030 IEM_DS3505
ZGHA,2008-01-04 22:00,ZGHA 042200Z AUTO 00000KT 1SM 04/02 A3030 RMK T00400020 IEM_DS3505
ZGHA,2008-01-04 23:00,ZGHA 042300Z AUTO 00000KT 1SM 03/02 A3030 RMK T00300020 IEM_DS3505
ZGHA,2008-01-05 00:00,ZGHA 050000Z AUTO 00000KT 1SM 02/01 A3033 RMK T00200010 IEM_DS3505
ZGHA,2008-01-05 01:00,ZGHA 050100Z AUTO 00000KT 1SM 06/05 A3033 RMK T00600050 IEM_DS3505
ZGHA,2008-01-05 02:00,ZGHA 050200Z AUTO 1SM 09/05 A3033 RMK T00900050 IEM_DS3505
ZGHA,2008-01-05 03:00,ZGHA 050300Z AUTO 1SM 11/02 A3033 RMK T01100020 IEM_DS3505
ZGHA,2008-01-05 04:00,ZGHA 050400Z AUTO 00000KT 1 1/2SM 13/00 A3030 RMK T01300000 IEM_DS3505
ZGHA,2008-01-05 05:00,ZGHA 050500Z AUTO 00000KT 2SM 14/00 A3024 RMK T01400000 IEM_DS3505
ZGHA,2008-01-05 06:00,ZGHA 050600Z AUTO 2 1/2SM 15/M02 A3021 RMK T01501020 IEM_DS3505
ZGHA,2008-01-05 07:00,ZGHA 050700Z AUTO 23004KT 2 1/2SM 16/M03 A3018 RMK T01601030 IEM_DS3505
ZGHA,2008-01-05 08:00,ZGHA 050800Z AUTO 2 1/2SM 15/M02 A3015 RMK T01501020 IEM_DS3505
ZGHA,2008-01-05 09:00,ZGHA 050900Z AUTO 24004KT 3SM 15/M03 A3015 RMK T01501030 IEM_DS3505
ZGHA,2008-01-05 10:00,ZGHA 051000Z AUTO 00000KT 2 1/2SM 11/M02 A3015 RMK T01101020 IEM_DS3505
ZGHA,2008-01-05 11:00,ZGHA 051100Z AUTO 00000KT 2SM 08/02 A3015 RMK T00800020 IEM_DS3505
ZGHA,2008-01-05 12:00,ZGHA 051200Z AUTO 08002KT 1 1/4SM 06/02 A3015 RMK T00600020 IEM_DS3505
ZGHA,2008-01-05 13:00,ZGHA 051300Z AUTO 00000KT 1 1/4SM 05/02 A3015 RMK T00500020 IEM_DS3505
ZGHA,2008-01-05 14:00,ZGHA 051400Z AUTO 00000KT 1SM 05/03 A3015 RMK T00500030 IEM_DS3505
ZGHA,2008-01-05 15:00,ZGHA 051500Z AUTO 00000KT 1SM 04/03 A3012 RMK T00400030 IEM_DS3505
ZGHA,2008-01-05 16:00,ZGHA 051600Z AUTO 00000KT 1SM 03/02 A3012 RMK T00300020 IEM_DS3505
ZGHA,2008-01-05 21:00,ZGHA 052100Z AUTO 00000KT 1SM 02/01 A3012 RMK T00200010 IEM_DS3505
ZGHA,2008-01-05 22:00,ZGHA 052200Z AUTO 1 1/4SM 02/01 A3012 RMK T00200010 IEM_DS3505
ZGHA,2008-01-05 23:00,ZGHA 052300Z AUTO 00000KT 1 1/4SM 02/02 A3012 RMK T00200020 IEM_DS3505
ZGHA,2008-01-06 00:00,ZGHA 060000Z AUTO 00000KT 1SM 02/02 A3015 RMK T00200020 IEM_DS3505
ZGHA,2008-01-06 01:00,ZGHA 060100Z AUTO 00000KT 1 1/4SM 06/05 A3018 RMK T00600050 IEM_DS3505
ZGHA,2008-01-06 02:00,ZGHA 060200Z AUTO 19002KT 2 1/2SM 08/04 A3021 RMK T00800040 IEM_DS3505
ZGHA,2008-01-06 03:00,ZGHA 060300Z AUTO 00000KT 2 1/2SM 11/03 A3018 RMK T01100030 IEM_DS3505
ZGHA,2008-01-06 04:00,ZGHA 060400Z AUTO 00000KT 2 1/2SM 13/04 A3015 RMK T01300040 IEM_DS3505
ZGHA,2008-01-06 05:00,ZGHA 060500Z AUTO 20008KT 3SM 16/04 A3012 RMK T01600040 IEM_DS3505
ZGHA,2008-01-06 06:00,ZGHA 060600Z AUTO 20004KT 2 1/2SM 16/03 A3009 RMK T01600030 IEM_DS3505
ZGHA,2008-01-06 07:00,ZGHA 060700Z AUTO 2 1/2SM 17/04 A3006 RMK T01700040 IEM_DS3505
ZGHA,2008-01-06 08:00,ZGHA 060800Z AUTO 2 1/2SM 17/04 A3006 RMK T01700040 IEM_DS3505
ZGHA,2008-01-06 09:00,ZGHA 060900Z AUTO 00000KT 2SM 16/05 A3009 RMK T01600050 IEM_DS3505
ZGHA,2008-01-06 10:00,ZGHA 061000Z AUTO 00000KT 1 1/4SM 11/05 A3009 RMK T01100050 IEM_DS3505
ZGHA,2008-01-06 11:00,ZGHA 061100Z AUTO 00000KT 1 1/4SM 10/06 A3012 RMK T01000060 IEM_DS3505
ZGHA,2008-01-06 12:00,ZGHA 061200Z AUTO 1SM 08/05 A3015 RMK T00800050 IEM_DS3505
ZGHA,2008-01-06 13:00,ZGHA 061300Z AUTO 1SM 09/06 A3018 RMK T00900060 IEM_DS3505
ZGHA,2008-01-06 14:00,ZGHA 061400Z AUTO 1SM 08/06 A3018 RMK T00800060 IEM_DS3505
ZGHA,2008-01-06 15:00,ZGHA 061500Z AUTO 1SM 07/05 A3018 RMK T00700050 IEM_DS3505
ZGHA,2008-01-06 16:00,ZGHA 061600Z AUTO 00000KT 1SM 05/03 A3021 RMK T00500030 IEM_DS3505
ZGHA,2008-01-06 17:00,ZGHA 061700Z AUTO 00000KT 1SM 04/03 A3018 RMK T00400030 IEM_DS3505
ZGHA,2008-01-06 18:00,ZGHA 061800Z AUTO 00000KT 1/2SM 04/03 A3018 RMK T00400030 IEM_DS3505
ZGHA,2008-01-06 19:00,ZGHA 061900Z AUTO 00000KT 1/2SM 03/03 A3018 RMK T00300030 IEM_DS3505
ZGHA,2008-01-06 20:00,ZGHA 062000Z AUTO 00000KT 1SM 04/03 A3018 RMK T00400030 IEM_DS3505
ZGHA,2008-01-06 21:00,ZGHA 062100Z AUTO 00000KT 1SM 03/02 A3018 RMK T00300020 IEM_DS3505
ZGHA,2008-01-06 22:00,ZGHA 062200Z AUTO 00000KT 1SM 02/02 A3021 RMK T00200020 IEM_DS3505
ZGHA,2008-01-06 23:00,ZGHA 062300Z AUTO 00000KT 1SM 02/02 A3021 RMK T00200020 IEM_DS3505
ZGHA,2008-01-07 00:00,ZGHA 070000Z AUTO 00000KT 1SM 03/03 A3024 RMK T00300030 IEM_DS3505
ZGHA,2008-01-07 01:00,ZGHA 070100Z AUTO 00000KT 1SM 06/05 A3027 RMK T00600050 IEM_DS3505
ZGHA,2008-01-07 02:00,ZGHA 070200Z AUTO 00000KT 1SM 08/07 A3027 RMK T00800070 IEM_DS3505
ZGHA,2008-01-07 03:00,ZGHA 070300Z AUTO 1SM 11/07 A3027 RMK T01100070 IEM_DS3505
ZGHA,2008-01-07 04:00,ZGHA 070400Z AUTO 31006KT 1SM 13/07 A3024 RMK T01300070 IEM_DS3505
ZGHA,2008-01-07 05:00,ZGHA 070500Z AUTO 31004KT 1SM 15/07 A3018 RMK T01500070 IEM_DS3505
ZGHA,2008-01-07 06:00,ZGHA 070600Z AUTO 30006KT 1SM 16/07 A3015 RMK T01600070 IEM_DS3505
ZGHA,2008-01-07 07:00,ZGHA 070700Z AUTO 1SM 17/07 A3012 RMK T01700070 IEM_DS3505
ZGHA,2008-01-07 08:00,ZGHA 070800Z AUTO 28006KT 1SM 16/08 A3009 RMK T01600080 IEM_DS3505
ZGHA,2008-01-07 09:00,ZGHA 070900Z AUTO 29006KT 1SM 14/08 A3009 RMK T01400080 IEM_DS3505
ZGHA,2008-01-07 10:00,ZGHA 071000Z AUTO 31004KT 1SM 13/08 A3012 RMK T01300080 IEM_DS3505
ZGHA,2008-01-07 11:00,ZGHA 071100Z AUTO 00000KT 1SM 11/07 A3012 RMK T01100070 IEM_DS3505
ZGHA,2008-01-07 12:00,ZGHA 071200Z AUTO 00000KT 1SM 09/06 A3012 RMK T00900060 IEM_DS3505
ZGHA,2008-01-07 13:00,ZGHA 071300Z AUTO 35004KT 1SM 09/06 A3012 RMK T00900060 IEM_DS3505
ZGHA,2008-01-07 14:00,ZGHA 071400Z AUTO 00000KT 1SM 07/05 A3009 RMK T00700050 IEM_DS3505
ZGHA,2008-01-07 15:00,ZGHA 071500Z AUTO 00000KT 1SM 07/05 A3012 RMK T00700050 IEM_DS3505
ZGHA,2008-01-07 16:00,ZGHA 071600Z AUTO 34002KT 1SM 05/04 A3012 RMK T00500040 IEM_DS3505
ZGHA,2008-01-07 17:00,ZGHA 071700Z AUTO 00000KT 3/8SM 06/05 A3012 RMK T00600050 IEM_DS3505
ZGHA,2008-01-07 19:00,ZGHA 071900Z AUTO 00000KT 1/2SM 08/07 A3012 RMK T00800070 IEM_DS3505
ZGHA,2008-01-07 21:00,ZGHA 072100Z AUTO 00000KT 1SM 08/07 A3009 RMK T00800070 IEM_DS3505
ZGHA,2008-01-07 22:00,ZGHA 072200Z AUTO 00000KT 1SM 08/06 A3009 RMK T00800060 IEM_DS3505
ZGHA,2008-01-07 23:00,ZGHA 072300Z AUTO 00000KT 1SM 07/06 A3012 RMK T00700060 IEM_DS3505
ZGHA,2008-01-08 00:00,ZGHA 080000Z AUTO 20004KT 1SM 07/06 A3012 RMK T00700060 IEM_DS3505
ZGHA,2008-01-08 01:00,ZGHA 080100Z AUTO 33010KT 1SM 09/07 A3015 RMK T00900070 IEM_DS3505
ZGHA,2008-01-08 02:00,ZGHA 080200Z AUTO 29004KT 1SM 10/07 A3015 RMK T01000070 IEM_DS3505
ZGHA,2008-01-08 03:00,ZGHA 080300Z AUTO 36004KT 1SM 11/07 A3018 RMK T01100070 IEM_DS3505
ZGHA,2008-01-08 04:00,ZGHA 080400Z AUTO 34004KT 1SM 13/06 A3015 RMK T01300060 IEM_DS3505
ZGHA,2008-01-08 05:00,ZGHA 080500Z AUTO 28004KT 1SM 13/07 A3012 RMK T01300070 IEM_DS3505
ZGHA,2008-01-08 06:00,ZGHA 080600Z AUTO 28004KT 1SM 14/06 A3009 RMK T01400060 IEM_DS3505
ZGHA,2008-01-08 07:00,ZGHA 080700Z AUTO 00000KT 1SM 14/06 A3006 RMK T01400060 IEM_DS3505
ZGHA,2008-01-08 08:00,ZGHA 080800Z AUTO 00000KT 1SM 14/07 A3006 RMK T01400070 IEM_DS3505
ZGHA,2008-01-08 09:00,ZGHA 080900Z AUTO 22002KT 1SM 12/07 A3003 RMK T01200070 IEM_DS3505
ZGHA,2008-01-08 10:00,ZGHA 081000Z AUTO 00000KT 1SM 12/06 A3006 RMK T01200060 IEM_DS3505
ZGHA,2008-01-08 11:00,ZGHA 081100Z AUTO 00000KT 1SM 09/06 A3009 RMK T00900060 IEM_DS3505
ZGHA,2008-01-08 12:00,ZGHA 081200Z AUTO 00000KT 1SM 08/06 A3009 RMK T00800060 IEM_DS3505
ZGHA,2008-01-08 13:00,ZGHA 081300Z AUTO 00000KT 1SM 08/06 A3012 RMK T00800060 IEM_DS3505
ZGHA,2008-01-08 14:00,ZGHA 081400Z AUTO 00000KT 1SM 06/05 A3012 RMK T00600050 IEM_DS3505
ZGHA,2008-01-08 15:00,ZGHA 081500Z AUTO 00000KT 1SM 06/05 A3012 RMK T00600050 IEM_DS3505
ZGHA,2008-01-08 16:00,ZGHA 081600Z AUTO 00000KT 1SM 06/05 A3012 RMK T00600050 IEM_DS3505
ZGHA,2008-01-08 17:00,ZGHA 081700Z AUTO 00000KT 1/4SM 05/04 A3009 RMK T00500040 IEM_DS3505
ZGHA,2008-01-08 18:00,ZGHA 081800Z AUTO 00000KT 1/8SM 04/03 A3009 RMK T00400030 IEM_DS3505
ZGHA,2008-01-08 19:00,ZGHA 081900Z AUTO 00000KT 1/4SM 04/04 A3006 RMK T00400040 IEM_DS3505
ZGHA,2008-01-08 21:00,ZGHA 082100Z AUTO 00000KT 1SM 04/04 A3006 RMK T00400040 IEM_DS3505
ZGHA,2008-01-08 22:00,ZGHA 082200Z AUTO 00000KT 1SM 04/03 A3006 RMK T00400030 IEM_DS3505
ZGHA,2008-01-08 23:00,ZGHA 082300Z AUTO 00000KT 1/2SM 03/03 A3006 RMK T00300030 IEM_DS3505
ZGHA,2008-01-09 00:00,ZGHA 090000Z AUTO 00000KT 3/8SM 03/03 A3009 RMK T00300030 IEM_DS3505
ZGHA,2008-01-09 01:00,ZGHA 090100Z AUTO 00000KT 1SM 06/06 A3009 RMK T00600060 IEM_DS3505
ZGHA,2008-01-09 02:00,ZGHA 090200Z AUTO 00000KT 1SM 08/08 A3009 RMK T00800080 IEM_DS3505
ZGHA,2008-01-09 03:00,ZGHA 090300Z AUTO 00000KT 1SM 12/11 A3006 RMK T01200110 IEM_DS3505
ZGHA,2008-01-09 04:00,ZGHA 090400Z AUTO 1 1/4SM 15/10 A3003 RMK T01500100 IEM_DS3505
ZGHA,2008-01-09 05:00,ZGHA 090500Z AUTO 20004KT 1 1/4SM 18/11 A2997 RMK T01800110 IEM_DS3505
ZGHA,2008-01-09 06:00,ZGHA 090600Z AUTO 00000KT 2SM A2994 RMK IEM_DS3505
ZGHA,2008-01-09 07:00,ZGHA 090700Z AUTO 18004KT 2 1/2SM 21/11 A2991 RMK T02100110 IEM_DS3505
ZGHA,2008-01-09 08:00,ZGHA 090800Z AUTO 2 1/2SM 21/11 A2991 RMK T02100110 IEM_DS3505
ZGHA,2008-01-09 09:00,ZGHA 090900Z AUTO 00000KT 1 1/2SM 20/12 A2991 RMK T02000120 IEM_DS3505
ZGHA,2008-01-09 10:00,ZGHA 091000Z AUTO 00000KT 1 1/4SM 18/12 A2991 RMK T01800120 IEM_DS3505
ZGHA,2008-01-09 11:00,ZGHA 091100Z AUTO 00000KT 1 1/4SM 16/12 A2991 RMK T01600120 IEM_DS3505
ZGHA,2008-01-09 12:00,ZGHA 091200Z AUTO 00000KT 1 1/4SM 15/12 A2994 RMK T01500120 IEM_DS3505
ZGHA,2008-01-09 13:00,ZGHA 091300Z AUTO 00000KT 1 1/4SM 14/12 A2994 RMK T01400120 IEM_DS3505
ZGHA,2008-01-09 14:00,ZGHA 091400Z AUTO 00000KT 1 1/4SM 14/12 A2994 RMK T01400120 IEM_DS3505
ZGHA,2008-01-09 15:00,ZGHA 091500Z AUTO 28004KT 1 1/4SM 13/11 A2994 RMK T01300110 IEM_DS3505
ZGHA,2008-01-09 16:00,ZGHA 091600Z AUTO 31002KT 1SM 14/12 A2994 RMK T01400120 IEM_DS3505
ZGHA,2008-01-09 21:00,ZGHA 092100Z AUTO 30004KT 1SM 12/10 A2994 RMK T01200100 IEM_DS3505
ZGHA,2008-01-09 22:00,ZGHA 092200Z AUTO 30004KT 1SM 11/09 A2997 RMK T01100090 IEM_DS3505
ZGHA,2008-01-09 23:00,ZGHA 092300Z AUTO 30006KT 1SM 11/09 A2997 RMK T01100090 IEM_DS3505
ZGHA,2008-01-10 00:00,ZGHA 100000Z AUTO 31008KT 1SM 10/08 A3000 RMK T01000080 IEM_DS3505
ZGHA,2008-01-10 01:00,ZGHA 100100Z AUTO 30008KT 1SM 10/08 A3000 RMK T01000080 IEM_DS3505
ZGHA,2008-01-10 02:00,ZGHA 100200Z AUTO 30006KT 1SM 11/08 A3003 RMK T01100080 IEM_DS3505
ZGHA,2008-01-10 03:00,ZGHA 100300Z AUTO 28008KT 1/2SM 10/07 A3003 RMK T01000070 IEM_DS3505
ZGHA,2008-01-10 04:00,ZGHA 100400Z AUTO 29006KT 1/2SM 11/07 A3000 RMK T01100070 IEM_DS3505
ZGHA,2008-01-10 05:00,ZGHA 100500Z AUTO 1SM 12/08 A2994 RMK T01200080 IEM_DS3505
ZGHA,2008-01-10 06:00,ZGHA 100600Z AUTO 30006KT 1SM 13/08 A2991 RMK T01300080 IEM_DS3505
ZGHA,2008-01-10 07:00,ZGHA 100700Z AUTO 29006KT 1SM 13/07 A2988 RMK T01300070 IEM_DS3505
ZGHA,2008-01-10 08:00,ZGHA 100800Z AUTO 30008KT 1SM 12/07 A2988 RMK T01200070 IEM_DS3505
ZGHA,2008-01-10 09:00,ZGHA 100900Z AUTO 35008KT 1SM 11/07 A2988 RMK T01100070 IEM_DS3505
ZGHA,2008-01-10 10:00,ZGHA 101000Z AUTO 35006KT 1SM 11/07 A2988 RMK T01100070 IEM_DS3505
ZGHA,2008-01-10 11:00,ZGHA 101100Z AUTO 34006KT 1SM 10/07 A2991 RMK T01000070 IEM_DS3505
ZGHA,2008-01-10 12:00,ZGHA 101200Z AUTO 32006KT 1SM 09/06 A2991 RMK T00900060 IEM_DS3505
ZGHA,2008-01-10 13:00,ZGHA 101300Z AUTO 30008KT 1SM 08/06 A2994 RMK T00800060 IEM_DS3505
ZGHA,2008-01-10 14:00,ZGHA 101400Z AUTO 32004KT 1SM 08/06 A2997 RMK T00800060 IEM_DS3505
ZGHA,2008-01-10 15:00,ZGHA 101500Z AUTO 36004KT 1SM 08/06 A2997 RMK T00800060 IEM_DS3505
ZGHA,2008-01-10 16:00,ZGHA 101600Z AUTO 36008KT 1SM 08/05 A2997 RMK T00800050 IEM_DS3505
ZGHA,2008-01-10 17:00,ZGHA 101700Z AUTO 36006KT 1SM 07/05 A2997 RMK T00700050 IEM_DS3505
ZGHA,2008-01-10 21:00,ZGHA 102100Z AUTO 35006KT 1SM 06/04 A2997 RMK T00600040 IEM_DS3505
ZGHA,2008-01-10 22:00,ZGHA 102200Z AUTO 34008KT 1SM 05/04 A2997 RMK T00500040 IEM_DS3505
ZGHA,2008-01-10 23:00,ZGHA 102300Z AUTO 34008KT 1SM 05/04 A2997 RMK T00500040 IEM_DS3505
ZGHA,2008-01-11 00:00,ZGHA 110000Z AUTO 34010KT 1SM 05/04 A3000 RMK T00500040 IEM_DS3505
ZGHA,2008-01-11 01:00,ZGHA 110100Z AUTO 35006KT 1SM 05/04 A3003 RMK T00500040 IEM_DS3505
ZGHA,2008-01-11 02:00,ZGHA 110200Z AUTO 32004KT 1SM 05/04 A3006 RMK T00500040 IEM_DS3505
ZGHA,2008-01-11 03:00,ZGHA 110300Z AUTO 29010KT 1SM 05/04 A3006 RMK T00500040 IEM_DS3505
ZGHA,2008-01-11 04:00,ZGHA 110400Z AUTO 30008KT 1SM 05/04 A3006 RMK T00500040 IEM_DS3505
ZGHA,2008-01-11 05:00,ZGHA 110500Z AUTO 36008KT 1 1/4SM 04/04 A3003 RMK T00400040 IEM_DS3505
ZGHA,2008-01-11 06:00,ZGHA 110600Z AUTO 35010KT 1 1/2SM 04/03 A3000 RMK T00400030 IEM_DS3505
ZGHA,2008-01-11 07:00,ZGHA 110700Z AUTO 36010KT 1 1/2SM 04/03 A3000 RMK T00400030 IEM_DS3505
ZGHA,2008-01-11 08:00,ZGHA 110800Z AUTO 35010KT 2SM 04/03 A3003 RMK T00400030 IEM_DS3505
ZGHA,2008-01-11 09:00,ZGHA 110900Z AUTO 35008KT 2SM 04/03 A3003 RMK T00400030 IEM_DS3505
ZGHA,2008-01-11 10:00,ZGHA 111000Z AUTO 34008KT 2 1/2SM 04/03 A3006 RMK T00400030 IEM_DS3505
ZGHA,2008-01-11 11:00,ZGHA 111100Z AUTO 34010KT 3SM 04/02 A3009 RMK T00400020 IEM_DS3505
ZGHA,2008-01-11 12:00,ZGHA 111200Z AUTO 34010KT 3SM 04/02 A3009 RMK T00400020 IEM_DS3505
ZGHA,2008-01-11 13:00,ZGHA 111300Z AUTO 34010KT 4SM 04/02 A3012 RMK T00400020 IEM_DS3505
ZGHA,2008-01-11 14:00,ZGHA 111400Z AUTO 34010KT 4SM 04/02 A3015 RMK T00400020 IEM_DS3505
ZGHA,2008-01-11 15:00,ZGHA 111500Z AUTO 34008KT 4SM 04/02 A3015 RMK T00400020 IEM_DS3505
ZGHA,2008-01-11 16:00,ZGHA 111600Z AUTO 34006KT 3SM 04/02 A3018 RMK T00400020 IEM_DS3505
ZGHA,2008-01-11 17:00,ZGHA 111700Z AUTO 34008KT 3SM 03/03 A3021 RMK T00300030 IEM_DS3505
ZGHA,2008-01-11 18:00,ZGHA 111800Z AUTO 34010KT 2 1/2SM 03/03 A3021 RMK T00300030 IEM_DS3505
ZGHA,2008-01-11 19:00,ZGHA 111900Z AUTO 34010KT 2SM 03/02 A3021 RMK T00300020 IEM_DS3505
ZGHA,2008-01-11 20:00,ZGHA 112000Z AUTO 36006KT 1 1/2SM 03/02 A3021 RMK T00300020 IEM_DS3505
ZGHA,2008-01-11 21:00,ZGHA 112100Z AUTO 35006KT 2 1/2SM 03/02 A3021 RMK T00300020 IEM_DS3505
ZGHA,2008-01-11 22:00,ZGHA 112200Z AUTO 34010KT 2SM 03/02 A3024 RMK T00300020 IEM_DS3505
ZGHA,2008-01-11 23:00,ZGHA 112300Z AUTO 35008KT 1 1/2SM 03/02 A3027 RMK T00300020 IEM_DS3505
ZGHA,2008-01-12 00:00,ZGHA 120000Z AUTO 34006KT 1 1/4SM 03/03 A3027 RMK T00300030 IEM_DS3505
ZGHA,2008-01-12 01:00,ZGHA 120100Z AUTO 34008KT 1 1/2SM 03/03 A3030 RMK T00300030 IEM_DS3505
ZGHA,2008-01-12 02:00,ZGHA 120200Z AUTO 34010KT 2SM 03/03 A3030 RMK T00300030 IEM_DS3505
ZGHA,2008-01-12 03:00,ZGHA 120300Z AUTO 34008KT 2SM 03/03 A3030 RMK T00300030 IEM_DS3505
ZGHA,2008-01-12 04:00,ZGHA 120400Z AUTO 34012KT 1 1/4SM 03/03 A3030 RMK T00300030 IEM_DS3505
ZGHA,2008-01-12 05:00,ZGHA 120500Z AUTO 34010KT 1 1/2SM 03/03 A3030 RMK T00300030 IEM_DS3505
ZGHA,2008-01-12 06:00,ZGHA 120600Z AUTO 34010KT 1 1/2SM 03/03 A3027 RMK T00300030 IEM_DS3505
ZGHA,2008-01-12 07:00,ZGHA 120700Z AUTO 34010KT 1 1/4SM 03/02 A3027 RMK T00300020 IEM_DS3505
ZGHA,2008-01-12 08:00,ZGHA 120800Z AUTO 34010KT 1 1/4SM 03/02 A3030 RMK T00300020 IEM_DS3505
ZGHA,2008-01-12 09:00,ZGHA 120900Z AUTO 34008KT 1 1/4SM 03/02 A3030 RMK T00300020 IEM_DS3505
ZGHA,2008-01-12 10:00,ZGHA 121000Z AUTO 34012KT 1 1/4SM 03/02 A3033 RMK T00300020 IEM_DS3505
ZGHA,2008-01-12 11:00,ZGHA 121100Z AUTO 34010KT 1 1/4SM 02/02 A3036 RMK T00200020 IEM_DS3505
ZGHA,2008-01-12 12:00,ZGHA 121200Z AUTO 33010KT 1 1/4SM 02/02 A3036 RMK T00200020 IEM_DS3505
ZGHA,2008-01-12 13:00,ZGHA 121300Z AUTO 34012KT 1 1/4SM 02/02 A3039 RMK T00200020 IEM_DS3505
ZGHA,2008-01-12 14:00,ZGHA 121400Z AUTO 33012KT 1 1/4SM 02/02 A3042 RMK T00200020 IEM_DS3505
ZGHA,2008-01-12 15:00,ZGHA 121500Z AUTO 34012KT 1 1/4SM 02/02 A3042 RMK T00200020 IEM_DS3505
ZGHA,2008-01-12 16:00,ZGHA 121600Z AUTO 34012KT 1 1/4SM 02/01 A3045 RMK T00200010 IEM_DS3505
ZGHA,2008-01-12 17:00,ZGHA 121700Z AUTO 34012KT 2SM 01/01 A3045 RMK T00100010 IEM_DS3505
ZGHA,2008-01-12 18:00,ZGHA 121800Z AUTO 35012KT 1 1/4SM 01/01 A3045 RMK T00100010 IEM_DS3505
ZGHA,2008-01-12 19:00,ZGHA 121900Z AUTO 34010KT 1 1/2SM 01/01 A3045 RMK T00100010 IEM_DS3505
ZGHA,2008-01-12 20:00,ZGHA 122000Z AUTO 34012KT 1 1/2SM 01/01 A3045 RMK T00100010 IEM_DS3505
ZGHA,2008-01-12 21:00,ZGHA 122100Z AUTO 34012KT 1SM 01/00 A3045 RMK T00100000 IEM_DS3505
ZGHA,2008-01-12 22:00,ZGHA 122200Z AUTO 34012KT 1SM 01/00 A3045 RMK T00100000 IEM_DS3505
ZGHA,2008-01-12 23:00,ZGHA 122300Z AUTO 34010KT 1SM 00/00 A3047 RMK T00000000 IEM_DS3505
ZGHA,2008-01-13 00:00,ZGHA 130000Z AUTO 34012KT 1SM 00/00 A3047 RMK T00000000 IEM_DS3505
ZGHA,2008-01-13 01:00,ZGHA 130100Z AUTO 00000KT 4SM 00/00 A3050 RMK T00000000 IEM_DS3505
ZGHA,2008-01-13 02:00,ZGHA 130200Z AUTO 34012KT 4SM 00/00 A3053 RMK T00000000 IEM_DS3505
ZGHA,2008-01-13 03:00,ZGHA 130300Z AUTO 34012KT 3SM 00/00 A3053 RMK T00000000 IEM_DS3505
ZGHA,2008-01-13 04:00,ZGHA 130400Z AUTO 33012KT 2SM 00/00 A3053 RMK T00000000 IEM_DS3505
ZGHA,2008-01-13 05:00,ZGHA 130500Z AUTO 29012KT 4SM 00/M01 A3050 RMK T00001010 IEM_DS3505
ZGHA,2008-01-13 06:00,ZGHA 130600Z AUTO 28014KT 2 1/2SM 00/M01 A3047 RMK T00001010 IEM_DS3505
ZGHA,2008-01-13 07:00,ZGHA 130700Z AUTO 28012KT 4SM M01/M01 A3050 RMK T10101010 IEM_DS3505
ZGHA,2008-01-13 08:00,ZGHA 130800Z AUTO 29008KT 4SM M01/M01 A3050 RMK T10101010 IEM_DS3505
ZGHA,2008-01-13 09:00,ZGHA 130900Z AUTO 28010KT 4SM M01/M01 A3050 RMK T10101010 IEM_DS3505
ZGHA,2008-01-13 10:00,ZGHA 131000Z AUTO 29008KT 4SM M01/M01 A3050 RMK T10101010 IEM_DS3505
ZGHA,2008-01-13 11:00,ZGHA 131100Z AUTO 28008KT 4SM M01/M02 A3053 RMK T10101020 IEM_DS3505
ZGHA,2008-01-13 12:00,ZGHA 131200Z AUTO 28010KT 3SM M01/M02 A3056 RMK T10101020 IEM_DS3505
ZGHA,2008-01-13 13:00,ZGHA 131300Z AUTO 28008KT 3SM M01/M02 A3056 RMK T10101020 IEM_DS3505
ZGHA,2008-01-13 14:00,ZGHA 131400Z AUTO 29008KT 3SM M01/M02 A3056 RMK T10101020 IEM_DS3505
ZGHA,2008-01-13 15:00,ZGHA 131500Z AUTO 29008KT 3SM M01/M02 A3056 RMK T10101020 IEM_DS3505
ZGHA,2008-01-13 16:00,ZGHA 131600Z AUTO 29004KT 3SM M01/M02 A3056 RMK T10101020 IEM_DS3505
ZGHA,2008-01-13 17:00,ZGHA 131700Z AUTO 27006KT 3SM M01/M02 A3056 RMK T10101020 IEM_DS3505
ZGHA,2008-01-13 18:00,ZGHA 131800Z AUTO 29008KT 3SM M01/M02 A3056 RMK T10101020 IEM_DS3505
ZGHA,2008-01-13 19:00,ZGHA 131900Z AUTO 29006KT 3SM M01/M02 A3053 RMK T10101020 IEM_DS3505
ZGHA,2008-01-13 21:00,ZGHA 132100Z AUTO 30006KT 2SM M01/M02 A3050 RMK T10101020 IEM_DS3505
ZGHA,2008-01-13 22:00,ZGHA 132200Z AUTO 27006KT 1 1/4SM M01/M01 A3050 RMK T10101010 IEM_DS3505
ZGHA,2008-01-13 23:00,ZGHA 132300Z AUTO 28008KT 1SM M01/M02 A3053 RMK T10101020 IEM_DS3505
ZGHA,2008-01-14 00:00,ZGHA 140000Z AUTO 29008KT 1SM M01/M01 A3053 RMK T10101010 IEM_DS3505
ZGHA,2008-01-14 01:00,ZGHA 140100Z AUTO 29006KT 1 1/4SM M01/M01 A3056 RMK T10101010 IEM_DS3505
ZGHA,2008-01-14 02:00,ZGHA 140200Z AUTO 28010KT 1SM M01/M01 A3056 RMK T10101010 IEM_DS3505
ZGHA,2008-01-14 03:00,ZGHA 140300Z AUTO 29008KT 1 1/2SM M01/M01 A3056 RMK T10101010 IEM_DS3505
ZGHA,2008-01-14 04:00,ZGHA 140400Z AUTO 29008KT 2 1/2SM M01/M01 A3053 RMK T10101010 IEM_DS3505
ZGHA,2008-01-14 05:00,ZGHA 140500Z AUTO 29008KT 2 1/2SM M01/M01 A3050 RMK T10101010 IEM_DS3505
ZGHA,2008-01-14 06:00,ZGHA 140600Z AUTO 2 1/2SM M01/M01 A3047 RMK T10101010 IEM_DS3505
ZGHA,2008-01-14 07:00,ZGHA 140700Z AUTO 34006KT 2 1/2SM M01/M01 A3045 RMK T10101010 IEM_DS3505
ZGHA,2008-01-14 08:00,ZGHA 140800Z AUTO 34006KT 3SM M01/M01 A3045 RMK T10101010 IEM_DS3505
ZGHA,2008-01-14 09:00,ZGHA 140900Z AUTO 33008KT 3SM M01/M02 A3045 RMK T10101020 IEM_DS3505
ZGHA,2008-01-14 10:00,ZGHA 141000Z AUTO 34006KT 2 1/2SM M01/M02 A3047 RMK T10101020 IEM_DS3505
ZGHA,2008-01-14 11:00,ZGHA 141100Z AUTO 33008KT 2SM M01/M01 A3047 RMK T10101010 IEM_DS3505
ZGHA,2008-01-14 12:00,ZGHA 141200Z AUTO 34004KT 2SM M01/M01 A3050 RMK T10101010 IEM_DS3505
ZGHA,2008-01-14 13:00,ZGHA 141300Z AUTO 33006KT 1 1/2SM M01/M01 A3050 RMK T10101010 IEM_DS3505
ZGHA,2008-01-14 14:00,ZGHA 141400Z AUTO 33006KT 1 1/2SM M01/M01 A3050 RMK T10101010 IEM_DS3505
ZGHA,2008-01-14 15:00,ZGHA 141500Z AUTO 31008KT 1 1/2SM M01/M01 A3050 RMK T10101010 IEM_DS3505
ZGHA,2008-01-14 16:00,ZGHA 141600Z AUTO 34008KT 1 1/2SM M01/M01 A3050 RMK T10101010 IEM_DS3505
ZGHA,2008-01-14 17:00,ZGHA 141700Z AUTO 34008KT 1 1/4SM M01/M01 A3050 RMK T10101010 IEM_DS3505
ZGHA,2008-01-14 18:00,ZGHA 141800Z AUTO 32006KT 1 1/4SM 00/M01 A3050 RMK T00001010 IEM_DS3505
ZGHA,2008-01-14 19:00,ZGHA 141900Z AUTO 35006KT 1 1/2SM M01/M01 A3050 RMK T10101010 IEM_DS3505
ZGHA,2008-01-14 20:00,ZGHA 142000Z AUTO 33008KT 1 1/2SM M01/M01 A3050 RMK T10101010 IEM_DS3505
ZGHA,2008-01-14 21:00,ZGHA 142100Z AUTO 34006KT 1 1/4SM M01/M01 A3050 RMK T10101010 IEM_DS3505
ZGHA,2008-01-14 22:00,ZGHA 142200Z AUTO 33008KT 1 1/4SM M01/M01 A3053 RMK T10101010 IEM_DS3505
ZGHA,2008-01-14 23:00,ZGHA 142300Z AUTO 33008KT 1SM M01/M01 A3056 RMK T10101010 IEM_DS3505
ZGHA,2008-01-15 00:00,ZGHA 150000Z AUTO 33008KT 1 1/2SM M01/M01 A3056 RMK T10101010 IEM_DS3505
ZGHA,2008-01-15 01:00,ZGHA 150100Z AUTO 33012KT 1 1/4SM M01/M01 A3059 RMK T10101010 IEM_DS3505
ZGHA,2008-01-15 02:00,ZGHA 150200Z AUTO 34008KT 1 1/2SM M01/M01 A3062 RMK T10101010 IEM_DS3505
ZGHA,2008-01-15 03:00,ZGHA 150300Z AUTO 34010KT 1 1/2SM M01/M01 A3062 RMK T10101010 IEM_DS3505
ZGHA,2008-01-15 04:00,ZGHA 150400Z AUTO 34008KT 1SM M01/M01 A3062 RMK T10101010 IEM_DS3505
ZGHA,2008-01-15 05:00,ZGHA 150500Z AUTO 33006KT 1SM M01/M01 A3059 RMK T10101010 IEM_DS3505
ZGHA,2008-01-15 06:00,ZGHA 150600Z AUTO 33010KT 1SM M01/M01 A3056 RMK T10101010 IEM_DS3505
ZGHA,2008-01-15 07:00,ZGHA 150700Z AUTO 32006KT 1 1/4SM M01/M01 A3056 RMK T10101010 IEM_DS3505
ZGHA,2008-01-15 08:00,ZGHA 150800Z AUTO 34008KT 1SM M01/M01 A3056 RMK T10101010 IEM_DS3505
ZGHA,2008-01-15 09:00,ZGHA 150900Z AUTO 34010KT 1SM M01/M02 A3059 RMK T10101020 IEM_DS3505
ZGHA,2008-01-15 10:00,ZGHA 151000Z AUTO 35010KT 1SM M01/M02 A3062 RMK T10101020 IEM_DS3505
ZGHA,2008-01-15 11:00,ZGHA 151100Z AUTO 35006KT 1SM M02/M02 A3062 RMK T10201020 IEM_DS3505
ZGHA,2008-01-15 12:00,ZGHA 151200Z AUTO 35008KT 1SM M02/M02 A3065 RMK T10201020 IEM_DS3505
ZGHA,2008-01-15 13:00,ZGHA 151300Z AUTO 36006KT 1 1/4SM M02/M02 A3065 RMK T10201020 IEM_DS3505
ZGHA,2008-01-15 14:00,ZGHA 151400Z AUTO 36006KT 1 1/2SM M02/M03 A3068 RMK T10201030 IEM_DS3505
ZGHA,2008-01-15 15:00,ZGHA 151500Z AUTO 33006KT 1 1/4SM M02/M03 A3068 RMK T10201030 IEM_DS3505
ZGHA,2008-01-15 16:00,ZGHA 151600Z AUTO 34006KT 1 1/2SM M02/M02 A3071 RMK T10201020 IEM_DS3505
ZGHA,2008-01-15 17:00,ZGHA 151700Z AUTO 34006KT 1 1/2SM M01/M02 A3068 RMK T10101020 IEM_DS3505
ZGHA,2008-01-15 18:00,ZGHA 151800Z AUTO 36004KT 1 1/2SM M02/M02 A3071 RMK T10201020 IEM_DS3505
ZGHA,2008-01-15 19:00,ZGHA 151900Z AUTO 35004KT 1 1/2SM M02/M02 A3068 RMK T10201020 IEM_DS3505
ZGHA,2008-01-15 20:00,ZGHA 152000Z AUTO 35006KT 1 1/2SM M02/M02 A3065 RMK T10201020 IEM_DS3505
ZGHA,2008-01-15 21:00,ZGHA 152100Z AUTO 34008KT 1 1/2SM M02/M02 A3068 RMK T10201020 IEM_DS3505
ZGHA,2008-01-15 22:00,ZGHA 152200Z AUTO 35006KT 1 1/2SM M02/M02 A3065 RMK T10201020 IEM_DS3505
ZGHA,2008-01-15 23:00,ZGHA 152300Z AUTO 34006KT 1 1/2SM M01/M02 A3068 RMK T10101020 IEM_DS3505
ZGHA,2008-01-16 00:00,ZGHA 160000Z AUTO 34004KT 1 1/2SM M01/M02 A3068 RMK T10101020 IEM_DS3505
ZGHA,2008-01-16 02:00,ZGHA 160200Z AUTO 33006KT 1 1/2SM M01/M02 A3071 RMK T10101020 IEM_DS3505
ZGHA,2008-01-16 03:00,ZGHA 160300Z AUTO 33006KT 1 1/4SM M01/M01 A3071 RMK T10101010 IEM_DS3505
ZGHA,2008-01-16 04:00,ZGHA 160400Z AUTO 30008KT 1SM M01/M01 A3071 RMK T10101010 IEM_DS3505
ZGHA,2008-01-16 05:00,ZGHA 160500Z AUTO 32004KT 1SM M01/M01 A3065 RMK T10101010 IEM_DS3505
ZGHA,2008-01-16 06:00,ZGHA 160600Z AUTO 36006KT 1SM M01/M01 A3062 RMK T10101010 IEM_DS3505
ZGHA,2008-01-16 07:00,ZGHA 160700Z AUTO 34006KT 1SM 00/M01 A3062 RMK T00001010 IEM_DS3505
ZGHA,2008-01-16 08:00,ZGHA 160800Z AUTO 33008KT 1SM 00/00 A3062 RMK T00000000 IEM_DS3505
ZGHA,2008-01-16 09:00,ZGHA 160900Z AUTO 32006KT 1 1/2SM 00/M01 A3062 RMK T00001010 IEM_DS3505
ZGHA,2008-01-16 10:00,ZGHA 161000Z AUTO 33006KT 1 1/2SM 00/M01 A3062 RMK T00001010 IEM_DS3505
ZGHA,2008-01-16 11:00,ZGHA 161100Z AUTO 33006KT 1 1/2SM 00/M01 A3062 RMK T00001010 IEM_DS3505
ZGHA,2008-01-16 12:00,ZGHA 161200Z AUTO 34006KT 1 1/2SM 00/M01 A3065 RMK T00001010 IEM_DS3505
ZGHA,2008-01-16 13:00,ZGHA 161300Z AUTO 34006KT 1 1/2SM 00/M01 A3065 RMK T00001010 IEM_DS3505
ZGHA,2008-01-16 14:00,ZGHA 161400Z AUTO 34008KT 1 1/2SM 00/M01 A3068 RMK T00001010 IEM_DS3505
ZGHA,2008-01-16 15:00,ZGHA 161500Z AUTO 34006KT 2SM 00/M01 A3068 RMK T00001010 IEM_DS3505
ZGHA,2008-01-16 16:00,ZGHA 161600Z AUTO 34006KT 2SM 00/M01 A3068 RMK T00001010 IEM_DS3505
ZGHA,2008-01-16 17:00,ZGHA 161700Z AUTO 35006KT 1 1/2SM 00/M01 A3065 RMK T00001010 IEM_DS3505
ZGHA,2008-01-16 18:00,ZGHA 161800Z AUTO 34008KT 1 1/2SM M01/M01 A3065 RMK T10101010 IEM_DS3505
ZGHA,2008-01-16 19:00,ZGHA 161900Z AUTO 34008KT 1SM M01/M02 A3062 RMK T10101020 IEM_DS3505
ZGHA,2008-01-16 20:00,ZGHA 162000Z AUTO 32006KT 1/2SM M01/M01 A3062 RMK T10101010 IEM_DS3505
ZGHA,2008-01-16 21:00,ZGHA 162100Z AUTO 32004KT 1SM M01/M02 A3059 RMK T10101020 IEM_DS3505
ZGHA,2008-01-16 22:00,ZGHA 162200Z AUTO 31006KT 1SM M01/M01 A3059 RMK T10101010 IEM_DS3505
ZGHA,2008-01-16 23:00,ZGHA 162300Z AUTO 33006KT 1SM M01/M02 A3059 RMK T10101020 IEM_DS3505
ZGHA,2008-01-17 00:00,ZGHA 170000Z AUTO 33006KT 1SM M01/M01 A3062 RMK T10101010 IEM_DS3505
ZGHA,2008-01-17 01:00,ZGHA 170100Z AUTO 34004KT 1SM M01/M01 A3062 RMK T10101010 IEM_DS3505
ZGHA,2008-01-17 02:00,ZGHA 170200Z AUTO 34004KT 1 1/4SM M01/M01 A3059 RMK T10101010 IEM_DS3505
ZGHA,2008-01-17 03:00,ZGHA 170300Z AUTO 32004KT 1 1/2SM M01/M01 A3062 RMK T10101010 IEM_DS3505
ZGHA,2008-01-17 04:00,ZGHA 170400Z AUTO 31006KT 1 1/2SM 00/M01 A3059 RMK T00001010 IEM_DS3505
ZGHA,2008-01-17 05:00,ZGHA 170500Z AUTO 28004KT 1 1/2SM 00/00 A3056 RMK T00000000 IEM_DS3505
ZGHA,2008-01-17 06:00,ZGHA 170600Z AUTO 28004KT 1 1/2SM 00/00 A3050 RMK T00000000 IEM_DS3505
ZGHA,2008-01-17 07:00,ZGHA 170700Z AUTO 33002KT 1 1/2SM 01/00 A3047 RMK T00100000 IEM_DS3505
ZGHA,2008-01-17 08:00,ZGHA 170800Z AUTO 2SM 01/00 A3047 RMK T00100000 IEM_DS3505
ZGHA,2008-01-17 09:00,ZGHA 170900Z AUTO 32004KT 2SM 01/00 A3047 RMK T00100000 IEM_DS3505
ZGHA,2008-01-17 10:00,ZGHA 171000Z AUTO 35004KT 1 1/2SM 01/00 A3050 RMK T00100000 IEM_DS3505
ZGHA,2008-01-17 11:00,ZGHA 171100Z AUTO 1 1/2SM 00/00 A3050 RMK T00000000 IEM_DS3505
ZGHA,2008-01-17 12:00,ZGHA 171200Z AUTO 33004KT 1 1/2SM 00/00 A3050 RMK T00000000 IEM_DS3505
ZGHA,2008-01-17 14:00,ZGHA 171400Z AUTO 1 1/2SM 00/00 A3050 RMK T00000000 IEM_DS3505
ZGHA,2008-01-17 15:00,ZGHA 171500Z AUTO 36004KT 1 1/2SM 00/00 A3050 RMK T00000000 IEM_DS3505
ZGHA,2008-01-17 16:00,ZGHA 171600Z AUTO 32006KT 1 1/2SM 00/00 A3050 RMK T00000000 IEM_DS3505
ZGHA,2008-01-17 17:00,ZGHA 171700Z AUTO 35004KT 1SM 01/00 A3050 RMK T00100000 IEM_DS3505
ZGHA,2008-01-17 18:00,ZGHA 171800Z AUTO 1SM 00/00 A3047 RMK T00000000 IEM_DS3505
ZGHA,2008-01-17 19:00,ZGHA 171900Z AUTO 36004KT 1SM 00/00 A3047 RMK T00000000 IEM_DS3505
ZGHA,2008-01-17 20:00,ZGHA 172000Z AUTO 36006KT 1SM 00/00 A3045 RMK T00000000 IEM_DS3505
ZGHA,2008-01-17 21:00,ZGHA 172100Z AUTO 35006KT 1 1/2SM 00/00 A3045 RMK T00000000 IEM_DS3505
ZGHA,2008-01-17 22:00,ZGHA 172200Z AUTO 35004KT 1 1/4SM 00/00 A3045 RMK T00000000 IEM_DS3505
ZGHA,2008-01-17 23:00,ZGHA 172300Z AUTO 35004KT 1SM 01/00 A3045 RMK T00100000 IEM_DS3505
ZGHA,2008-01-18 00:00,ZGHA 180000Z AUTO 35004KT 1SM 00/00 A3045 RMK T00000000 IEM_DS3505
ZGHA,2008-01-18 01:00,ZGHA 180100Z AUTO 35006KT 1SM 01/00 A3047 RMK T00100000 IEM_DS3505
ZGHA,2008-01-18 02:00,ZGHA 180200Z AUTO 34006KT 1SM 01/00 A3047 RMK T00100000 IEM_DS3505
ZGHA,2008-01-18 03:00,ZGHA 180300Z AUTO 34006KT 1SM 01/01 A3047 RMK T00100010 IEM_DS3505
ZGHA,2008-01-18 04:00,ZGHA 180400Z AUTO 34006KT 1SM 01/01 A3045 RMK T00100010 IEM_DS3505
ZGHA,2008-01-18 05:00,ZGHA 180500Z AUTO 35004KT 1SM 01/01 A3042 RMK T00100010 IEM_DS3505
ZGHA,2008-01-18 06:00,ZGHA 180600Z AUTO 1SM 01/01 A3036 RMK T00100010 IEM_DS3505
ZGHA,2008-01-18 07:00,ZGHA 180700Z AUTO 01004KT 1SM 01/01 A3036 RMK T00100010 IEM_DS3505
ZGHA,2008-01-18 08:00,ZGHA 180800Z AUTO 36004KT 1SM 01/01 A3036 RMK T00100010 IEM_DS3505
ZGHA,2008-01-18 09:00,ZGHA 180900Z AUTO 36004KT 1SM 01/01 A3036 RMK T00100010 IEM_DS3505
ZGHA,2008-01-18 10:00,ZGHA 181000Z AUTO 34006KT 1SM 01/01 A3036 RMK T00100010 IEM_DS3505
ZGHA,2008-01-18 11:00,ZGHA 181100Z AUTO 35004KT 1SM 01/01 A3036 RMK T00100010 IEM_DS3505
ZGHA,2008-01-18 12:00,ZGHA 181200Z AUTO 34004KT 1SM 01/01 A3036 RMK T00100010 IEM_DS3505
ZGHA,2008-01-18 13:00,ZGHA 181300Z AUTO 34004KT 1SM 01/01 A3039 RMK T00100010 IEM_DS3505
ZGHA,2008-01-18 14:00,ZGHA 181400Z AUTO 34006KT 1 1/4SM 01/01 A3039 RMK T00100010 IEM_DS3505
ZGHA,2008-01-18 15:00,ZGHA 181500Z AUTO 35004KT 1 1/2SM 01/01 A3036 RMK T00100010 IEM_DS3505
ZGHA,2008-01-18 16:00,ZGHA 181600Z AUTO 1 1/2SM 01/01 A3036 RMK T00100010 IEM_DS3505
ZGHA,2008-01-18 17:00,ZGHA 181700Z AUTO 36004KT 1 1/2SM 01/01 A3036 RMK T00100010 IEM_DS3505
ZGHA,2008-01-18 18:00,ZGHA 181800Z AUTO 35004KT 1 1/4SM 01/01 A3033 RMK T00100010 IEM_DS3505
ZGHA,2008-01-18 19:00,ZGHA 181900Z AUTO 30004KT 1 1/4SM 01/01 A3033 RMK T00100010 IEM_DS3505
ZGHA,2008-01-18 20:00,ZGHA 182000Z AUTO 33004KT 1 1/2SM 01/01 A3033 RMK T00100010 IEM_DS3505
ZGHA,2008-01-18 21:00,ZGHA 182100Z AUTO 34004KT 1 1/2SM 01/01 A3030 RMK T00100010 IEM_DS3505
ZGHA,2008-01-18 22:00,ZGHA 182200Z AUTO 33004KT 1 1/2SM 01/01 A3030 RMK T00100010 IEM_DS3505
ZGHA,2008-01-18 23:00,ZGHA 182300Z AUTO 33004KT 1 1/2SM 01/01 A3030 RMK T00100010 IEM_DS3505
ZGHA,2008-01-19 00:00,ZGHA 190000Z AUTO 32004KT 1 1/4SM 01/01 A3033 RMK T00100010 IEM_DS3505
ZGHA,2008-01-19 01:00,ZGHA 190100Z AUTO 31004KT 1 1/2SM 01/01 A3033 RMK T00100010 IEM_DS3505
ZGHA,2008-01-19 02:00,ZGHA 190200Z AUTO 33006KT 1 1/2SM 01/01 A3036 RMK T00100010 IEM_DS3505
ZGHA,2008-01-19 03:00,ZGHA 190300Z AUTO 35004KT 1 1/2SM 01/01 A3036 RMK T00100010 IEM_DS3505
ZGHA,2008-01-19 04:00,ZGHA 190400Z AUTO 34006KT 2SM 01/01 A3033 RMK T00100010 IEM_DS3505
ZGHA,2008-01-19 05:00,ZGHA 190500Z AUTO 33006KT 2 1/2SM 01/01 A3030 RMK T00100010 IEM_DS3505
ZGHA,2008-01-19 06:00,ZGHA 190600Z AUTO 35006KT 2SM 01/01 A3027 RMK T00100010 IEM_DS3505
ZGHA,2008-01-19 07:00,ZGHA 190700Z AUTO 34006KT 2 1/2SM 01/01 A3024 RMK T00100010 IEM_DS3505
ZGHA,2008-01-19 08:00,ZGHA 190800Z AUTO 34006KT 2 1/2SM 01/01 A3024 RMK T00100010 IEM_DS3505
ZGHA,2008-01-19 09:00,ZGHA 190900Z AUTO 34006KT 2SM 01/01 A3024 RMK T00100010 IEM_DS3505
ZGHA,2008-01-19 10:00,ZGHA 191000Z AUTO 35006KT 2SM 01/01 A3027 RMK T00100010 IEM_DS3505
ZGHA,2008-01-19 11:00,ZGHA 191100Z AUTO 33008KT 2 1/2SM 00/00 A3027 RMK T00000000 IEM_DS3505
ZGHA,2008-01-19 12:00,ZGHA 191200Z AUTO 33006KT 3SM 01/00 A3030 RMK T00100000 IEM_DS3505
ZGHA,2008-01-19 13:00,ZGHA 191300Z AUTO 34008KT 3SM 00/00 A3030 RMK T00000000 IEM_DS3505
ZGHA,2008-01-19 14:00,ZGHA 191400Z AUTO 34008KT 3SM 00/00 A3030 RMK T00000000 IEM_DS3505
ZGHA,2008-01-19 15:00,ZGHA 191500Z AUTO 34008KT 2SM 00/00 A3033 RMK T00000000 IEM_DS3505
ZGHA,2008-01-19 16:00,ZGHA 191600Z AUTO 34008KT 2SM 00/00 A3033 RMK T00000000 IEM_DS3505
ZGHA,2008-01-19 17:00,ZGHA 191700Z AUTO 34008KT 1 1/2SM 00/00 A3033 RMK T00000000 IEM_DS3505
ZGHA,2008-01-19 18:00,ZGHA 191800Z AUTO 34008KT 1SM 00/00 A3033 RMK T00000000 IEM_DS3505
ZGHA,2008-01-19 19:00,ZGHA 191900Z AUTO 34008KT 1SM 00/00 A3033 RMK T00000000 IEM_DS3505
ZGHA,2008-01-19 20:00,ZGHA 192000Z AUTO 34008KT 1SM 00/00 A3033 RMK T00000000 IEM_DS3505
ZGHA,2008-01-19 21:00,ZGHA 192100Z AUTO 34008KT 1 1/2SM 00/00 A3030 RMK T00000000 IEM_DS3505
ZGHA,2008-01-19 22:00,ZGHA 192200Z AUTO 34008KT 1 1/4SM 00/M01 A3033 RMK T00001010 IEM_DS3505
ZGHA,2008-01-19 23:00,ZGHA 192300Z AUTO 34006KT 1 1/4SM 00/00 A3033 RMK T00000000 IEM_DS3505
ZGHA,2008-01-20 00:00,ZGHA 200000Z AUTO 34006KT 1SM 00/00 A3036 RMK T00000000 IEM_DS3505
ZGHA,2008-01-20 01:00,ZGHA 200100Z AUTO 33008KT 1SM 00/00 A3036 RMK T00000000 IEM_DS3505
ZGHA,2008-01-20 02:00,ZGHA 200200Z AUTO 34008KT 1SM 00/00 A3039 RMK T00000000 IEM_DS3505
ZGHA,2008-01-20 03:00,ZGHA 200300Z AUTO 34006KT 1SM 00/00 A3039 RMK T00000000 IEM_DS3505
ZGHA,2008-01-20 04:00,ZGHA 200400Z AUTO 35006KT 1SM 00/00 A3036 RMK T00000000 IEM_DS3505
ZGHA,2008-01-20 05:00,ZGHA 200500Z AUTO 34004KT 1SM 00/00 A3033 RMK T00000000 IEM_DS3505
ZGHA,2008-01-20 06:00,ZGHA 200600Z AUTO 34006KT 1SM 00/00 A3033 RMK T00000000 IEM_DS3505
ZGHA,2008-01-20 07:00,ZGHA 200700Z AUTO 36006KT 1SM 00/00 A3030 RMK T00000000 IEM_DS3505
ZGHA,2008-01-20 08:00,ZGHA 200800Z AUTO 34006KT 1SM 00/00 A3030 RMK T00000000 IEM_DS3505
ZGHA,2008-01-20 09:00,ZGHA 200900Z AUTO 34008KT 1SM 00/00 A3033 RMK T00000000 IEM_DS3505
ZGHA,2008-01-20 10:00,ZGHA 201000Z AUTO 34008KT 1SM 00/00 A3033 RMK T00000000 IEM_DS3505
ZGHA,2008-01-20 11:00,ZGHA 201100Z AUTO 34008KT 1SM 00/00 A3033 RMK T00000000 IEM_DS3505
ZGHA,2008-01-20 12:00,ZGHA 201200Z AUTO 34008KT 1SM 00/00 A3036 RMK T00000000 IEM_DS3505
ZGHA,2008-01-20 13:00,ZGHA 201300Z AUTO 34008KT 1SM 00/00 A3039 RMK T00000000 IEM_DS3505
ZGHA,2008-01-20 14:00,ZGHA 201400Z AUTO 34008KT 1SM 00/00 A3039 RMK T00000000 IEM_DS3505
ZGHA,2008-01-20 15:00,ZGHA 201500Z AUTO 34008KT 1SM 00/00 A3039 RMK T00000000 IEM_DS3505
ZGHA,2008-01-20 16:00,ZGHA 201600Z AUTO 34008KT 1SM 00/00 A3042 RMK T00000000 IEM_DS3505
ZGHA,2008-01-20 17:00,ZGHA 201700Z AUTO 34008KT 1SM 00/00 A3039 RMK T00000000 IEM_DS3505
ZGHA,2008-01-20 18:00,ZGHA 201800Z AUTO 34010KT 1SM 00/M01 A3039 RMK T00001010 IEM_DS3505
ZGHA,2008-01-20 19:00,ZGHA 201900Z AUTO 35008KT 1SM 00/M01 A3036 RMK T00001010 IEM_DS3505
ZGHA,2008-01-20 21:00,ZGHA 202100Z AUTO 34008KT 1SM 00/M01 A3036 RMK T00001010 IEM_DS3505
ZGHA,2008-01-20 22:00,ZGHA 202200Z AUTO 34006KT 1SM 00/M01 A3036 RMK T00001010 IEM_DS3505
ZGHA,2008-01-20 23:00,ZGHA 202300Z AUTO 34006KT 1SM 00/M01 A3036 RMK T00001010 IEM_DS3505
ZGHA,2008-01-21 00:00,ZGHA 210000Z AUTO 33008KT 1SM 00/M01 A3036 RMK T00001010 IEM_DS3505
ZGHA,2008-01-21 01:00,ZGHA 210100Z AUTO 34008KT 1SM 00/00 A3039 RMK T00000000 IEM_DS3505
ZGHA,2008-01-21 02:00,ZGHA 210200Z AUTO 34006KT 1SM 00/00 A3039 RMK T00000000 IEM_DS3505
ZGHA,2008-01-21 03:00,ZGHA 210300Z AUTO 34008KT 1SM 00/00 A3042 RMK T00000000 IEM_DS3505
ZGHA,2008-01-21 04:00,ZGHA 210400Z AUTO 34006KT 1SM 00/00 A3039 RMK T00000000 IEM_DS3505
ZGHA,2008-01-21 05:00,ZGHA 210500Z AUTO 34006KT 1SM 00/00 A3033 RMK T00000000 IEM_DS3505
ZGHA,2008-01-21 06:00,ZGHA 210600Z AUTO 34006KT 1SM 00/00 A3033 RMK T00000000 IEM_DS3505
ZGHA,2008-01-21 07:00,ZGHA 210700Z AUTO 34006KT 1SM 00/00 A3030 RMK T00000000 IEM_DS3505
ZGHA,2008-01-21 08:00,ZGHA 210800Z AUTO 34008KT 1SM 00/00 A3030 RMK T00000000 IEM_DS3505
ZGHA,2008-01-21 09:00,ZGHA 210900Z AUTO 33006KT 1SM 00/00 A3030 RMK T00000000 IEM_DS3505
ZGHA,2008-01-21 10:00,ZGHA 211000Z AUTO 33006KT 1SM 00/00 A3030 RMK T00000000 IEM_DS3505
ZGHA,2008-01-21 11:00,ZGHA 211100Z AUTO 34008KT 1SM 00/00 A3033 RMK T00000000 IEM_DS3505
ZGHA,2008-01-21 12:00,ZGHA 211200Z AUTO 33006KT 1SM 00/00 A3036 RMK T00000000 IEM_DS3505
ZGHA,2008-01-21 13:00,ZGHA 211300Z AUTO 34008KT 1SM 00/00 A3036 RMK T00000000 IEM_DS3505
ZGHA,2008-01-21 14:00,ZGHA 211400Z AUTO 34006KT 1SM 00/00 A3036 RMK T00000000 IEM_DS3505
ZGHA,2008-01-21 15:00,ZGHA 211500Z AUTO 33008KT 1SM 00/00 A3039 RMK T00000000 IEM_DS3505
ZGHA,2008-01-21 16:00,ZGHA 211600Z AUTO 33008KT 1SM 00/00 A3039 RMK T00000000 IEM_DS3505
ZGHA,2008-01-21 17:00,ZGHA 211700Z AUTO 33008KT 1SM 00/M01 A3039 RMK T00001010 IEM_DS3505
ZGHA,2008-01-21 18:00,ZGHA 211800Z AUTO 33010KT 1SM M01/M01 A3039 RMK T10101010 IEM_DS3505
ZGHA,2008-01-21 19:00,ZGHA 211900Z AUTO 34008KT 1SM M01/M01 A3039 RMK T10101010 IEM_DS3505
ZGHA,2008-01-21 20:00,ZGHA 212000Z AUTO 34008KT 1SM M01/M01 A3039 RMK T10101010 IEM_DS3505
ZGHA,2008-01-21 21:00,ZGHA 212100Z AUTO 34008KT 1SM M01/M01 A3036 RMK T10101010 IEM_DS3505
ZGHA,2008-01-21 22:00,ZGHA 212200Z AUTO 33008KT 1SM M01/M01 A3039 RMK T10101010 IEM_DS3505
ZGHA,2008-01-21 23:00,ZGHA 212300Z AUTO 33008KT 1SM M01/M01 A3039 RMK T10101010 IEM_DS3505
ZGHA,2008-01-22 00:00,ZGHA 220000Z AUTO 34006KT 1SM M01/M01 A3042 RMK T10101010 IEM_DS3505
ZGHA,2008-01-22 01:00,ZGHA 220100Z AUTO 34006KT 1SM M01/M01 A3045 RMK T10101010 IEM_DS3505
ZGHA,2008-01-22 02:00,ZGHA 220200Z AUTO 33008KT 1SM M01/M01 A3047 RMK T10101010 IEM_DS3505
ZGHA,2008-01-22 03:00,ZGHA 220300Z AUTO 34004KT 1 1/4SM M01/M02 A3047 RMK T10101020 IEM_DS3505
ZGHA,2008-01-22 04:00,ZGHA 220400Z AUTO 35004KT 1 1/2SM M01/M02 A3045 RMK T10101020 IEM_DS3505
ZGHA,2008-01-22 05:00,ZGHA 220500Z AUTO 35008KT 2SM M01/M01 A3045 RMK T10101010 IEM_DS3505
ZGHA,2008-01-22 06:00,ZGHA 220600Z AUTO 35006KT 2SM M01/M02 A3042 RMK T10101020 IEM_DS3505
ZGHA,2008-01-22 07:00,ZGHA 220700Z AUTO 35004KT 2SM M01/M02 A3039 RMK T10101020 IEM_DS3505
ZGHA,2008-01-22 08:00,ZGHA 220800Z AUTO 34006KT 2SM M01/M02 A3042 RMK T10101020 IEM_DS3505
ZGHA,2008-01-22 09:00,ZGHA 220900Z AUTO 35004KT 2SM M01/M02 A3042 RMK T10101020 IEM_DS3505
ZGHA,2008-01-22 10:00,ZGHA 221000Z AUTO 35004KT 2SM M02/M02 A3045 RMK T10201020 IEM_DS3505
ZGHA,2008-01-22 11:00,ZGHA 221100Z AUTO 35002KT 1 1/2SM M02/M02 A3045 RMK T10201020 IEM_DS3505
ZGHA,2008-01-22 12:00,ZGHA 221200Z AUTO 34004KT 1 1/2SM M02/M02 A3045 RMK T10201020 IEM_DS3505
ZGHA,2008-01-22 13:00,ZGHA 221300Z AUTO 34004KT 1 1/2SM M02/M02 A3047 RMK T10201020 IEM_DS3505
ZGHA,2008-01-22 14:00,ZGHA 221400Z AUTO 34004KT 1SM M02/M02 A3047 RMK T10201020 IEM_DS3505
ZGHA,2008-01-22 15:00,ZGHA 221500Z AUTO 35004KT 1 1/2SM M02/M02 A3047 RMK T10201020 IEM_DS3505
ZGHA,2008-01-22 16:00,ZGHA 221600Z AUTO 33002KT 1 1/4SM M02/M02 A3050 RMK T10201020 IEM_DS3505
ZGHA,2008-01-22 17:00,ZGHA 221700Z AUTO 34004KT 1SM M02/M02 A3050 RMK T10201020 IEM_DS3505
ZGHA,2008-01-22 18:00,ZGHA 221800Z AUTO 33002KT 1SM M02/M02 A3050 RMK T10201020 IEM_DS3505
ZGHA,2008-01-22 19:00,ZGHA 221900Z AUTO 33004KT 1SM M01/M02 A3050 RMK T10101020 IEM_DS3505
ZGHA,2008-01-22 20:00,ZGHA 222000Z AUTO 35006KT 1SM M01/M02 A3047 RMK T10101020 IEM_DS3505
ZGHA,2008-01-22 21:00,ZGHA 222100Z AUTO 34004KT 1SM M01/M02 A3047 RMK T10101020 IEM_DS3505
ZGHA,2008-01-22 22:00,ZGHA 222200Z AUTO 34004KT 1SM M02/M02 A3047 RMK T10201020 IEM_DS3505
ZGHA,2008-01-22 23:00,ZGHA 222300Z AUTO 1SM M02/M02 A3047 RMK T10201020 IEM_DS3505
ZGHA,2008-01-23 00:00,ZGHA 230000Z AUTO 35004KT 1SM M01/M02 A3050 RMK T10101020 IEM_DS3505
ZGHA,2008-01-23 01:00,ZGHA 230100Z AUTO 33004KT 1SM M01/M02 A3050 RMK T10101020 IEM_DS3505
ZGHA,2008-01-23 02:00,ZGHA 230200Z AUTO 34004KT 1SM M01/M01 A3053 RMK T10101010 IEM_DS3505
ZGHA,2008-01-23 03:00,ZGHA 230300Z AUTO 34002KT 1 1/4SM M01/M01 A3053 RMK T10101010 IEM_DS3505
ZGHA,2008-01-23 04:00,ZGHA 230400Z AUTO 34006KT 1 1/4SM M01/M01 A3050 RMK T10101010 IEM_DS3505
ZGHA,2008-01-23 05:00,ZGHA 230500Z AUTO 33006KT 1SM M01/M01 A3050 RMK T10101010 IEM_DS3505
ZGHA,2008-01-23 06:00,ZGHA 230600Z AUTO 33004KT 1SM 00/M01 A3047 RMK T00001010 IEM_DS3505
ZGHA,2008-01-23 07:00,ZGHA 230700Z AUTO 35004KT 1SM 00/M01 A3047 RMK T00001010 IEM_DS3505
ZGHA,2008-01-23 08:00,ZGHA 230800Z AUTO 35006KT 1SM 00/M01 A3050 RMK T00001010 IEM_DS3505
ZGHA,2008-01-23 09:00,ZGHA 230900Z AUTO 35004KT 1 1/4SM 00/M01 A3050 RMK T00001010 IEM_DS3505
ZGHA,2008-01-23 10:00,ZGHA 231000Z AUTO 34006KT 1 1/2SM 00/M01 A3053 RMK T00001010 IEM_DS3505
ZGHA,2008-01-23 11:00,ZGHA 231100Z AUTO 34006KT 1 1/4SM 00/00 A3056 RMK T00000000 IEM_DS3505
ZGHA,2008-01-23 12:00,ZGHA 231200Z AUTO 34006KT 1 1/2SM 00/00 A3059 RMK T00000000 IEM_DS3505
ZGHA,2008-01-23 13:00,ZGHA 231300Z AUTO 35008KT 1 1/2SM 00/M01 A3059 RMK T00001010 IEM_DS3505
ZGHA,2008-01-23 14:00,ZGHA 231400Z AUTO 34008KT 1 1/2SM M01/M01 A3059 RMK T10101010 IEM_DS3505
ZGHA,2008-01-23 15:00,ZGHA 231500Z AUTO 34008KT 1 1/2SM M01/M01 A3062 RMK T10101010 IEM_DS3505
ZGHA,2008-01-23 16:00,ZGHA 231600Z AUTO 34008KT 1 1/2SM M01/M01 A3062 RMK T10101010 IEM_DS3505
ZGHA,2008-01-23 17:00,ZGHA 231700Z AUTO 35008KT 1 1/2SM M01/M01 A3062 RMK T10101010 IEM_DS3505
ZGHA,2008-01-23 18:00,ZGHA 231800Z AUTO 35006KT 1SM M01/M01 A3059 RMK T10101010 IEM_DS3505
ZGHA,2008-01-23 19:00,ZGHA 231900Z AUTO 34006KT 1SM M01/M01 A3059 RMK T10101010 IEM_DS3505
ZGHA,2008-01-23 20:00,ZGHA 232000Z AUTO 34006KT 1/2SM M01/M02 A3059 RMK T10101020 IEM_DS3505
ZGHA,2008-01-23 21:00,ZGHA 232100Z AUTO 33006KT 1SM M01/M02 A3059 RMK T10101020 IEM_DS3505
ZGHA,2008-01-23 22:00,ZGHA 232200Z AUTO 34006KT 1SM M01/M02 A3059 RMK T10101020 IEM_DS3505
ZGHA,2008-01-23 23:00,ZGHA 232300Z AUTO 33006KT 1SM M02/M02 A3062 RMK T10201020 IEM_DS3505
ZGHA,2008-01-24 00:00,ZGHA 240000Z AUTO 34008KT 1SM M02/M02 A3062 RMK T10201020 IEM_DS3505
ZGHA,2008-01-24 01:00,ZGHA 240100Z AUTO 34006KT 1SM M01/M02 A3062 RMK T10101020 IEM_DS3505
ZGHA,2008-01-24 02:00,ZGHA 240200Z AUTO 34006KT 1SM M01/M02 A3065 RMK T10101020 IEM_DS3505
ZGHA,2008-01-24 03:00,ZGHA 240300Z AUTO 33008KT 1SM M01/M01 A3065 RMK T10101010 IEM_DS3505
ZGHA,2008-01-24 04:00,ZGHA 240400Z AUTO 34008KT 1SM M01/M01 A3062 RMK T10101010 IEM_DS3505
ZGHA,2008-01-24 05:00,ZGHA 240500Z AUTO 34006KT 1SM M01/M01 A3059 RMK T10101010 IEM_DS3505
ZGHA,2008-01-24 06:00,ZGHA 240600Z AUTO 34006KT 1SM M01/M01 A3056 RMK T10101010 IEM_DS3505
ZGHA,2008-01-24 07:00,ZGHA 240700Z AUTO 33008KT 1SM M01/M01 A3053 RMK T10101010 IEM_DS3505
ZGHA,2008-01-24 08:00,ZGHA 240800Z AUTO 35006KT 1SM M01/M01 A3053 RMK T10101010 IEM_DS3505
ZGHA,2008-01-24 09:00,ZGHA 240900Z AUTO 34008KT 1SM M01/M01 A3053 RMK T10101010 IEM_DS3505
ZGHA,2008-01-24 10:00,ZGHA 241000Z AUTO 33006KT 1SM M01/M01 A3056 RMK T10101010 IEM_DS3505
ZGHA,2008-01-24 11:00,ZGHA 241100Z AUTO 34006KT 1SM M01/M01 A3056 RMK T10101010 IEM_DS3505
ZGHA,2008-01-24 12:00,ZGHA 241200Z AUTO 32006KT 1SM M01/M01 A3056 RMK T10101010 IEM_DS3505
ZGHA,2008-01-24 13:00,ZGHA 241300Z AUTO 32004KT 1SM M01/M01 A3056 RMK T10101010 IEM_DS3505
ZGHA,2008-01-24 14:00,ZGHA 241400Z AUTO 35004KT 1SM M01/M01 A3056 RMK T10101010 IEM_DS3505
ZGHA,2008-01-24 15:00,ZGHA 241500Z AUTO 34008KT 1SM M01/M02 A3056 RMK T10101020 IEM_DS3505
ZGHA,2008-01-24 16:00,ZGHA 241600Z AUTO 35004KT 1SM M02/M02 A3056 RMK T10201020 IEM_DS3505
ZGHA,2008-01-24 17:00,ZGHA 241700Z AUTO 35004KT 1SM M02/M02 A3053 RMK T10201020 IEM_DS3505
ZGHA,2008-01-24 18:00,ZGHA 241800Z AUTO 32006KT 1/2SM M02/M02 A3053 RMK T10201020 IEM_DS3505
ZGHA,2008-01-24 19:00,ZGHA 241900Z AUTO 31006KT 3/8SM M02/M02 A3053 RMK T10201020 IEM_DS3505
ZGHA,2008-01-24 20:00,ZGHA 242000Z AUTO 32004KT 3/8SM M02/M02 A3050 RMK T10201020 IEM_DS3505
ZGHA,2008-01-24 21:00,ZGHA 242100Z AUTO 34004KT 1SM M02/M02 A3050 RMK T10201020 IEM_DS3505
ZGHA,2008-01-24 22:00,ZGHA 242200Z AUTO 32006KT 1SM M02/M02 A3047 RMK T10201020 IEM_DS3505
ZGHA,2008-01-24 23:00,ZGHA 242300Z AUTO 34006KT 1SM M02/M02 A3050 RMK T10201020 IEM_DS3505
ZGHA,2008-01-25 00:00,ZGHA 250000Z AUTO 31006KT 1SM M02/M02 A3050 RMK T10201020 IEM_DS3505
ZGHA,2008-01-25 01:00,ZGHA 250100Z AUTO 32006KT 1SM M02/M02 A3053 RMK T10201020 IEM_DS3505
ZGHA,2008-01-25 02:00,ZGHA 250200Z AUTO 34006KT 1SM M02/M02 A3053 RMK T10201020 IEM_DS3505
ZGHA,2008-01-25 03:00,ZGHA 250300Z AUTO 33006KT 1SM M02/M02 A3053 RMK T10201020 IEM_DS3505
ZGHA,2008-01-25 04:00,ZGHA 250400Z AUTO 35006KT 1SM M02/M02 A3050 RMK T10201020 IEM_DS3505
ZGHA,2008-01-25 05:00,ZGHA 250500Z AUTO 34006KT 1SM M01/M01 A3050 RMK T10101010 IEM_DS3505
ZGHA,2008-01-25 06:00,ZGHA 250600Z AUTO 34006KT 1SM M01/M01 A3047 RMK T10101010 IEM_DS3505
ZGHA,2008-01-25 07:00,ZGHA 250700Z AUTO 34006KT 1SM M01/M01 A3047 RMK T10101010 IEM_DS3505
ZGHA,2008-01-25 08:00,ZGHA 250800Z AUTO 34008KT 1SM M02/M02 A3045 RMK T10201020 IEM_DS3505
ZGHA,2008-01-25 09:00,ZGHA 250900Z AUTO 34006KT 1SM M02/M02 A3047 RMK T10201020 IEM_DS3505
ZGHA,2008-01-25 10:00,ZGHA 251000Z AUTO 33008KT 1SM M02/M02 A3047 RMK T10201020 IEM_DS3505
ZGHA,2008-01-25 11:00,ZGHA 251100Z AUTO 33006KT 1SM M02/M02 A3050 RMK T10201020 IEM_DS3505
ZGHA,2008-01-25 12:00,ZGHA 251200Z AUTO 34008KT 1SM M02/M02 A3050 RMK T10201020 IEM_DS3505
ZGHA,2008-01-25 13:00,ZGHA 251300Z AUTO 33010KT 1SM M02/M02 A3050 RMK T10201020 IEM_DS3505
ZGHA,2008-01-25 14:00,ZGHA 251400Z AUTO 34006KT 1SM M02/M02 A3050 RMK T10201020 IEM_DS3505
ZGHA,2008-01-25 15:00,ZGHA 251500Z AUTO 34006KT 1SM M02/M02 A3053 RMK T10201020 IEM_DS3505
ZGHA,2008-01-25 16:00,ZGHA 251600Z AUTO 35008KT 1SM M02/M02 A3053 RMK T10201020 IEM_DS3505
ZGHA,2008-01-25 17:00,ZGHA 251700Z AUTO 33006KT 1SM M02/M02 A3053 RMK T10201020 IEM_DS3505
ZGHA,2008-01-25 18:00,ZGHA 251800Z AUTO 33008KT 1SM M02/M02 A3050 RMK T10201020 IEM_DS3505
ZGHA,2008-01-25 19:00,ZGHA 251900Z AUTO 32008KT 1SM M02/M02 A3053 RMK T10201020 IEM_DS3505
ZGHA,2008-01-25 20:00,ZGHA 252000Z AUTO 00000KT 1SM M02/M02 A3050 RMK T10201020 IEM_DS3505
ZGHA,2008-01-25 21:00,ZGHA 252100Z AUTO 00000KT 1SM M03/M03 A3050 RMK T10301030 IEM_DS3505
ZGHA,2008-01-25 22:00,ZGHA 252200Z AUTO 00000KT 1SM M03/M03 A3053 RMK T10301030 IEM_DS3505
ZGHA,2008-01-25 23:00,ZGHA 252300Z AUTO 00000KT 1SM M03/M03 A3056 RMK T10301030 IEM_DS3505
ZGHA,2008-01-26 00:00,ZGHA 260000Z AUTO 33004KT 1SM M03/M03 A3059 RMK T10301030 IEM_DS3505
ZGHA,2008-01-26 01:00,ZGHA 260100Z AUTO 34002KT 1SM M03/M03 A3059 RMK T10301030 IEM_DS3505
ZGHA,2008-01-26 02:00,ZGHA 260200Z AUTO 34004KT 1 1/2SM M03/M03 A3062 RMK T10301030 IEM_DS3505
ZGHA,2008-01-26 03:00,ZGHA 260300Z AUTO 34006KT 2SM M03/M03 A3059 RMK T10301030 IEM_DS3505
ZGHA,2008-01-26 04:00,ZGHA 260400Z AUTO 33004KT 2SM M03/M03 A3059 RMK T10301030 IEM_DS3505
ZGHA,2008-01-26 05:00,ZGHA 260500Z AUTO 33004KT 1 1/2SM M02/M03 A3056 RMK T10201030 IEM_DS3505
ZGHA,2008-01-26 06:00,ZGHA 260600Z AUTO 34006KT 1 1/2SM M02/M03 A3053 RMK T10201030 IEM_DS3505
ZGHA,2008-01-26 07:00,ZGHA 260700Z AUTO 34004KT 1 1/2SM M03/M03 A3050 RMK T10301030 IEM_DS3505
ZGHA,2008-01-26 08:00,ZGHA 260800Z AUTO 35006KT 1 1/2SM M03/M03 A3050 RMK T10301030 IEM_DS3505
ZGHA,2008-01-26 09:00,ZGHA 260900Z AUTO 35006KT 1 1/4SM M03/M03 A3053 RMK T10301030 IEM_DS3505
ZGHA,2008-01-26 10:00,ZGHA 261000Z AUTO 34008KT 1 1/4SM M03/M03 A3050 RMK T10301030 IEM_DS3505
ZGHA,2008-01-26 11:00,ZGHA 261100Z AUTO 34010KT 1SM M03/M03 A3053 RMK T10301030 IEM_DS3505
ZGHA,2008-01-26 12:00,ZGHA 261200Z AUTO 34008KT 1SM M03/M03 A3053 RMK T10301030 IEM_DS3505
ZGHA,2008-01-26 13:00,ZGHA 261300Z AUTO 35008KT 1SM M03/M03 A3056 RMK T10301030 IEM_DS3505
ZGHA,2008-01-26 14:00,ZGHA 261400Z AUTO 36006KT 1SM M03/M03 A3053 RMK T10301030 IEM_DS3505
ZGHA,2008-01-26 15:00,ZGHA 261500Z AUTO 35006KT 1SM M03/M03 A3053 RMK T10301030 IEM_DS3505
ZGHA,2008-01-26 16:00,ZGHA 261600Z AUTO 34010KT 1SM M03/M03 A3056 RMK T10301030 IEM_DS3505
ZGHA,2008-01-26 17:00,ZGHA 261700Z AUTO 34008KT 3/8SM M03/M03 A3056 RMK T10301030 IEM_DS3505
ZGHA,2008-01-26 18:00,ZGHA 261800Z AUTO 34010KT 1/2SM M02/M03 A3056 RMK T10201030 IEM_DS3505
ZGHA,2008-01-26 19:00,ZGHA 261900Z AUTO 34008KT 1/2SM M02/M03 A3056 RMK T10201030 IEM_DS3505
ZGHA,2008-01-26 20:00,ZGHA 262000Z AUTO 35006KT 1/2SM M02/M03 A3050 RMK T10201030 IEM_DS3505
ZGHA,2008-01-26 21:00,ZGHA 262100Z AUTO 33006KT 1SM M02/M03 A3053 RMK T10201030 IEM_DS3505
ZGHA,2008-01-26 22:00,ZGHA 262200Z AUTO 34006KT 1SM M02/M03 A3050 RMK T10201030 IEM_DS3505
ZGHA,2008-01-26 23:00,ZGHA 262300Z AUTO 33008KT 1SM M02/M02 A3053 RMK T10201020 IEM_DS3505
ZGHA,2008-01-27 00:00,ZGHA 270000Z AUTO 34006KT 1SM M02/M02 A3053 RMK T10201020 IEM_DS3505
ZGHA,2008-01-27 01:00,ZGHA 270100Z AUTO 35004KT 1SM M02/M02 A3050 RMK T10201020 IEM_DS3505
ZGHA,2008-01-27 02:00,ZGHA 270200Z AUTO 34008KT 1SM M02/M02 A3056 RMK T10201020 IEM_DS3505
ZGHA,2008-01-27 03:00,ZGHA 270300Z AUTO 34006KT 1SM M01/M02 A3050 RMK T10101020 IEM_DS3505
ZGHA,2008-01-27 04:00,ZGHA 270400Z AUTO 34006KT 1 1/4SM M01/M02 A3047 RMK T10101020 IEM_DS3505
ZGHA,2008-01-27 05:00,ZGHA 270500Z AUTO 32006KT 1 1/4SM M01/M01 A3045 RMK T10101010 IEM_DS3505
ZGHA,2008-01-27 06:00,ZGHA 270600Z AUTO 34004KT 1 1/2SM M01/M02 A3042 RMK T10101020 IEM_DS3505
ZGHA,2008-01-27 07:00,ZGHA 270700Z AUTO 35004KT 1 1/2SM M01/M01 A3039 RMK T10101010 IEM_DS3505
ZGHA,2008-01-27 08:00,ZGHA 270800Z AUTO 34006KT 1 1/2SM M01/M02 A3036 RMK T10101020 IEM_DS3505
ZGHA,2008-01-27 09:00,ZGHA 270900Z AUTO 34006KT 1 1/2SM M01/M02 A3036 RMK T10101020 IEM_DS3505
ZGHA,2008-01-27 10:00,ZGHA 271000Z AUTO 34004KT 1SM M01/M02 A3036 RMK T10101020 IEM_DS3505
ZGHA,2008-01-27 11:00,ZGHA 271100Z AUTO 34004KT 1SM M02/M02 A3036 RMK T10201020 IEM_DS3505
ZGHA,2008-01-27 12:00,ZGHA 271200Z AUTO 34006KT 1SM M02/M02 A3039 RMK T10201020 IEM_DS3505
ZGHA,2008-01-27 13:00,ZGHA 271300Z AUTO 34006KT 1SM M02/M02 A3039 RMK T10201020 IEM_DS3505
ZGHA,2008-01-27 14:00,ZGHA 271400Z AUTO 33008KT 1SM M02/M02 A3036 RMK T10201020 IEM_DS3505
ZGHA,2008-01-27 15:00,ZGHA 271500Z AUTO 35006KT 1SM M02/M02 A3036 RMK T10201020 IEM_DS3505
ZGHA,2008-01-27 16:00,ZGHA 271600Z AUTO 34006KT 1SM M02/M02 A3036 RMK T10201020 IEM_DS3505
ZGHA,2008-01-27 17:00,ZGHA 271700Z AUTO 34008KT 1/2SM M02/M03 A3036 RMK T10201030 IEM_DS3505
ZGHA,2008-01-27 18:00,ZGHA 271800Z AUTO 34006KT 1SM M02/M02 A3036 RMK T10201020 IEM_DS3505
ZGHA,2008-01-27 19:00,ZGHA 271900Z AUTO 36006KT 1SM M02/M02 A3033 RMK T10201020 IEM_DS3505
ZGHA,2008-01-27 20:00,ZGHA 272000Z AUTO 35006KT 1SM M02/M02 A3030 RMK T10201020 IEM_DS3505
ZGHA,2008-01-27 21:00,ZGHA 272100Z AUTO 35006KT 1SM M02/M02 A3030 RMK T10201020 IEM_DS3505
ZGHA,2008-01-27 22:00,ZGHA 272200Z AUTO 35002KT 1SM M02/M02 A3030 RMK T10201020 IEM_DS3505
ZGHA,2008-01-27 23:00,ZGHA 272300Z AUTO 34004KT 1SM M02/M02 A3030 RMK T10201020 IEM_DS3505
ZGHA,2008-01-28 00:00,ZGHA 280000Z AUTO 30004KT 1 1/4SM M01/M02 A3033 RMK T10101020 IEM_DS3505
ZGHA,2008-01-28 01:00,ZGHA 280100Z AUTO 32006KT 1SM M02/M02 A3033 RMK T10201020 IEM_DS3505
ZGHA,2008-01-28 02:00,ZGHA 280200Z AUTO 36006KT 1/2SM M02/M02 A3033 RMK T10201020 IEM_DS3505
ZGHA,2008-01-28 03:00,ZGHA 280300Z AUTO 34006KT 1SM M02/M02 A3036 RMK T10201020 IEM_DS3505
ZGHA,2008-01-28 04:00,ZGHA 280400Z AUTO 33004KT 1SM M02/M02 A3033 RMK T10201020 IEM_DS3505
ZGHA,2008-01-28 05:00,ZGHA 280500Z AUTO 30006KT 1SM M02/M02 A3030 RMK T10201020 IEM_DS3505
ZGHA,2008-01-28 06:00,ZGHA 280600Z AUTO 34008KT 1SM M02/M02 A3027 RMK T10201020 IEM_DS3505
ZGHA,2008-01-28 07:00,ZGHA 280700Z AUTO 1SM M02/M02 A3021 RMK T10201020 IEM_DS3505
ZGHA,2008-01-28 08:00,ZGHA 280800Z AUTO 31006KT 1SM M02/M02 A3024 RMK T10201020 IEM_DS3505
ZGHA,2008-01-28 09:00,ZGHA 280900Z AUTO 1SM M02/M02 A3021 RMK T10201020 IEM_DS3505
ZGHA,2008-01-28 10:00,ZGHA 281000Z AUTO 31006KT 1SM M02/M02 A3030 RMK T10201020 IEM_DS3505
ZGHA,2008-01-28 11:00,ZGHA 281100Z AUTO 29006KT 1SM M02/M02 A3030 RMK T10201020 IEM_DS3505
ZGHA,2008-01-28 12:00,ZGHA 281200Z AUTO 34004KT 1SM M02/M02 A3027 RMK T10201020 IEM_DS3505
ZGHA,2008-01-28 13:00,ZGHA 281300Z AUTO 32010KT 1SM M02/M02 A3030 RMK T10201020 IEM_DS3505
ZGHA,2008-01-28 14:00,ZGHA 281400Z AUTO 32010KT 1SM M02/M02 A3030 RMK T10201020 IEM_DS3505
ZGHA,2008-01-28 15:00,ZGHA 281500Z AUTO 33006KT 1SM M02/M02 A3033 RMK T10201020 IEM_DS3505
ZGHA,2008-01-28 16:00,ZGHA 281600Z AUTO 33006KT 1SM M02/M02 A3033 RMK T10201020 IEM_DS3505
ZGHA,2008-01-28 18:00,ZGHA 281800Z AUTO 31004KT 1SM M02/M02 A3033 RMK T10201020 IEM_DS3505
ZGHA,2008-01-28 19:00,ZGHA 281900Z AUTO 31006KT 1/2SM M02/M02 A3033 RMK T10201020 IEM_DS3505
ZGHA,2008-01-28 21:00,ZGHA 282100Z AUTO 31006KT 1/2SM M02/M02 A3033 RMK T10201020 IEM_DS3505
ZGHA,2008-01-28 22:00,ZGHA 282200Z AUTO 31004KT 1/2SM M02/M02 A3033 RMK T10201020 IEM_DS3505
ZGHA,2008-01-28 23:00,ZGHA 282300Z AUTO 32004KT 1/2SM M02/M02 A3033 RMK T10201020 IEM_DS3505
ZGHA,2008-01-29 00:00,ZGHA 290000Z AUTO 34006KT 1SM M02/M02 A3036 RMK T10201020 IEM_DS3505
ZGHA,2008-01-29 01:00,ZGHA 290100Z AUTO 34004KT 1SM M02/M02 A3039 RMK T10201020 IEM_DS3505
ZGHA,2008-01-29 02:00,ZGHA 290200Z AUTO 35004KT 1SM M01/M01 A3039 RMK T10101010 IEM_DS3505
ZGHA,2008-01-29 03:00,ZGHA 290300Z AUTO 35006KT 1SM M01/M01 A3039 RMK T10101010 IEM_DS3505
ZGHA,2008-01-29 04:00,ZGHA 290400Z AUTO 36006KT 1SM 00/M01 A3036 RMK T00001010 IEM_DS3505
ZGHA,2008-01-29 05:00,ZGHA 290500Z AUTO 36004KT 1SM 00/M01 A3033 RMK T00001010 IEM_DS3505
ZGHA,2008-01-29 06:00,ZGHA 290600Z AUTO 34006KT 1 1/2SM 00/M01 A3030 RMK T00001010 IEM_DS3505
ZGHA,2008-01-29 07:00,ZGHA 290700Z AUTO 33004KT 2SM 00/M01 A3030 RMK T00001010 IEM_DS3505
ZGHA,2008-01-29 08:00,ZGHA 290800Z AUTO 35004KT 2SM 00/M01 A3027 RMK T00001010 IEM_DS3505
ZGHA,2008-01-29 09:00,ZGHA 290900Z AUTO 00000KT 1 1/2SM 00/M01 A3027 RMK T00001010 IEM_DS3505
ZGHA,2008-01-29 10:00,ZGHA 291000Z AUTO 32004KT 1 1/2SM 00/M01 A3027 RMK T00001010 IEM_DS3505
ZGHA,2008-01-29 11:00,ZGHA 291100Z AUTO 34002KT 1 1/2SM 00/M01 A3030 RMK T00001010 IEM_DS3505
ZGHA,2008-01-29 12:00,ZGHA 291200Z AUTO 00000KT 1 1/2SM 00/M01 A3030 RMK T00001010 IEM_DS3505
ZGHA,2008-01-29 13:00,ZGHA 291300Z AUTO 30004KT 1 1/4SM 00/M01 A3033 RMK T00001010 IEM_DS3505
ZGHA,2008-01-29 14:00,ZGHA 291400Z AUTO 35006KT 1 1/4SM 00/M01 A3033 RMK T00001010 IEM_DS3505
ZGHA,2008-01-29 15:00,ZGHA 291500Z AUTO 1 1/4SM 00/M01 A3033 RMK T00001010 IEM_DS3505
ZGHA,2008-01-29 16:00,ZGHA 291600Z AUTO 1 1/4SM 00/M01 A3036 RMK T00001010 IEM_DS3505
ZGHA,2008-01-29 17:00,ZGHA 291700Z AUTO 1 1/4SM 00/M01 A3033 RMK T00001010 IEM_DS3505
ZGHA,2008-01-29 18:00,ZGHA 291800Z AUTO 36004KT 1SM 00/M01 A3036 RMK T00001010 IEM_DS3505
ZGHA,2008-01-29 19:00,ZGHA 291900Z AUTO 35002KT 1SM 00/M01 A3033 RMK T00001010 IEM_DS3505
ZGHA,2008-01-29 20:00,ZGHA 292000Z AUTO 33006KT 1SM 00/M01 A3036 RMK T00001010 IEM_DS3505
ZGHA,2008-01-29 21:00,ZGHA 292100Z AUTO 32004KT 1SM 00/M01 A3036 RMK T00001010 IEM_DS3505
ZGHA,2008-01-29 22:00,ZGHA 292200Z AUTO 33006KT 1SM M01/M01 A3039 RMK T10101010 IEM_DS3505
ZGHA,2008-01-29 23:00,ZGHA 292300Z AUTO 34004KT 1SM 00/M01 A3042 RMK T00001010 IEM_DS3505
ZGHA,2008-01-30 00:00,ZGHA 300000Z AUTO 34006KT 1SM 00/M01 A3042 RMK T00001010 IEM_DS3505
ZGHA,2008-01-30 01:00,ZGHA 300100Z AUTO 34006KT 1SM 00/M01 A3045 RMK T00001010 IEM_DS3505
ZGHA,2008-01-30 02:00,ZGHA 300200Z AUTO 34008KT 1 1/2SM 00/M01 A3047 RMK T00001010 IEM_DS3505
ZGHA,2008-01-30 03:00,ZGHA 300300Z AUTO 35008KT 2SM 00/M01 A3047 RMK T00001010 IEM_DS3505
ZGHA,2008-01-30 04:00,ZGHA 300400Z AUTO 36008KT 2SM 00/M01 A3047 RMK T00001010 IEM_DS3505
ZGHA,2008-01-30 05:00,ZGHA 300500Z AUTO 34008KT 2 1/2SM 01/M01 A3045 RMK T00101010 IEM_DS3505
ZGHA,2008-01-30 06:00,ZGHA 300600Z AUTO 34006KT 2SM 01/M01 A3045 RMK T00101010 IEM_DS3505
ZGHA,2008-01-30 07:00,ZGHA 300700Z AUTO 33006KT 1 1/2SM 01/M01 A3045 RMK T00101010 IEM_DS3505
ZGHA,2008-01-30 08:00,ZGHA 300800Z AUTO 34008KT 1 1/2SM 01/M01 A3042 RMK T00101010 IEM_DS3505
ZGHA,2008-01-30 09:00,ZGHA 300900Z AUTO 34008KT 1 1/2SM 01/M01 A3042 RMK T00101010 IEM_DS3505
ZGHA,2008-01-30 10:00,ZGHA 301000Z AUTO 34006KT 1 1/2SM 00/M01 A3045 RMK T00001010 IEM_DS3505
ZGHA,2008-01-30 11:00,ZGHA 301100Z AUTO 34006KT 1 1/2SM 00/M01 A3045 RMK T00001010 IEM_DS3505
ZGHA,2008-01-30 12:00,ZGHA 301200Z AUTO 35006KT 1 1/2SM 00/M01 A3045 RMK T00001010 IEM_DS3505
ZGHA,2008-01-30 13:00,ZGHA 301300Z AUTO 34006KT 1 1/2SM 00/M01 A3047 RMK T00001010 IEM_DS3505
ZGHA,2008-01-30 14:00,ZGHA 301400Z AUTO 32004KT 1 1/2SM 00/M01 A3047 RMK T00001010 IEM_DS3505
ZGHA,2008-01-30 15:00,ZGHA 301500Z AUTO 34004KT 1 1/2SM M01/M01 A3047 RMK T10101010 IEM_DS3505
ZGHA,2008-01-30 16:00,ZGHA 301600Z AUTO 33008KT 1 1/4SM M01/M01 A3047 RMK T10101010 IEM_DS3505
ZGHA,2008-01-30 17:00,ZGHA 301700Z AUTO 34006KT 1 1/4SM M01/M01 A3047 RMK T10101010 IEM_DS3505
ZGHA,2008-01-30 18:00,ZGHA 301800Z AUTO 33006KT 1 1/4SM M01/M01 A3050 RMK T10101010 IEM_DS3505
ZGHA,2008-01-30 19:00,ZGHA 301900Z AUTO 35006KT 1 1/4SM M01/M01 A3050 RMK T10101010 IEM_DS3505
ZGHA,2008-01-30 20:00,ZGHA 302000Z AUTO 36008KT 1 1/4SM M01/M01 A3047 RMK T10101010 IEM_DS3505
ZGHA,2008-01-30 21:00,ZGHA 302100Z AUTO 34006KT 1 1/4SM M01/M01 A3047 RMK T10101010 IEM_DS3505
ZGHA,2008-01-30 22:00,ZGHA 302200Z AUTO 01006KT 1SM M01/M01 A3050 RMK T10101010 IEM_DS3505
ZGHA,2008-01-30 23:00,ZGHA 302300Z AUTO 35006KT 1SM M01/M01 A3050 RMK T10101010 IEM_DS3505
ZGHA,2008-01-31 00:00,ZGHA 310000Z AUTO 34006KT 1SM M01/M01 A3053 RMK T10101010 IEM_DS3505
ZGHA,2008-01-31 01:00,ZGHA 310100Z AUTO 35006KT 1SM 00/M01 A3053 RMK T00001010 IEM_DS3505
ZGHA,2008-01-31 02:00,ZGHA 310200Z AUTO 34006KT 1 1/4SM 00/M01 A3056 RMK T00001010 IEM_DS3505
ZGHA,2008-01-31 03:00,ZGHA 310300Z AUTO 34006KT 1 1/2SM 00/M01 A3053 RMK T00001010 IEM_DS3505
ZGHA,2008-01-31 04:00,ZGHA 310400Z AUTO 34004KT 1 1/2SM 01/00 A3053 RMK T00100000 IEM_DS3505
ZGHA,2008-01-31 05:00,ZGHA 310500Z AUTO 35004KT 1 1/2SM 02/00 A3047 RMK T00200000 IEM_DS3505
ZGHA,2008-01-31 06:00,ZGHA 310600Z AUTO 34004KT 2SM 02/00 A3045 RMK T00200000 IEM_DS3505
ZGHA,2008-01-31 07:00,ZGHA 310700Z AUTO 35002KT 1 1/2SM 02/00 A3045 RMK T00200000 IEM_DS3505
ZGHA,2008-01-31 08:00,ZGHA 310800Z AUTO 01004KT 1 1/2SM 02/00 A3042 RMK T00200000 IEM_DS3505
ZGHA,2008-01-31 09:00,ZGHA 310900Z AUTO 36004KT 1 1/2SM 02/00 A3042 RMK T00200000 IEM_DS3505
ZGHA,2008-01-31 10:00,ZGHA 311000Z AUTO 35002KT 1 1/2SM 01/00 A3042 RMK T00100000 IEM_DS3505
ZGHA,2008-01-31 11:00,ZGHA 311100Z AUTO 33006KT 1 1/2SM 01/00 A3042 RMK T00100000 IEM_DS3505
ZGHA,2008-01-31 12:00,ZGHA 311200Z AUTO 1 1/2SM 01/00 A3042 RMK T00100000 IEM_DS3505
ZGHA,2008-01-31 13:00,ZGHA 311300Z AUTO 34006KT 1 1/2SM 01/00 A3045 RMK T00100000 IEM_DS3505
ZGHA,2008-01-31 14:00,ZGHA 311400Z AUTO 1 1/2SM 01/00 A3045 RMK T00100000 IEM_DS3505
ZGHA,2008-01-31 15:00,ZGHA 311500Z AUTO 1SM 01/00 A3045 RMK T00100000 IEM_DS3505
ZGHA,2008-01-31 16:00,ZGHA 311600Z AUTO 34006KT 1SM 00/00 A3045 RMK T00000000 IEM_DS3505
ZGHA,2008-01-31 17:00,ZGHA 311700Z AUTO 36004KT 1SM 00/00 A3045 RMK T00000000 IEM_DS3505
ZGHA,2008-01-31 18:00,ZGHA 311800Z AUTO 04004KT 1 1/4SM 00/M01 A3045 RMK T00001010 IEM_DS3505
ZGHA,2008-01-31 19:00,ZGHA 311900Z AUTO 06004KT 1 1/4SM 00/M01 A3039 RMK T00001010 IEM_DS3505
ZGHA,2008-01-31 20:00,ZGHA 312000Z AUTO 00000KT 1 1/4SM 00/M01 A3039 RMK T00001010 IEM_DS3505
ZGHA,2008-01-31 21:00,ZGHA 312100Z AUTO 36004KT 1 1/4SM 00/M01 A3042 RMK T00001010 IEM_DS3505
ZGHA,2008-01-31 22:00,ZGHA 312200Z AUTO 35004KT 1 1/4SM M01/M01 A3042 RMK T10101010 IEM_DS3505
ZGHA,2008-01-31 23:00,ZGHA 312300Z AUTO 04004KT 1 1/4SM M01/M01 A3042 RMK T10101010 IEM_DS3505
ZGHA,2008-02-01 00:00,ZGHA 010000Z AUTO 30004KT 1SM M01/M01 A3045 RMK T10101010 IEM_DS3505
ZGHA,2008-02-01 01:00,ZGHA 010100Z AUTO 32006KT 1 1/4SM M01/M01 A3047 RMK T10101010 IEM_DS3505
ZGHA,2008-02-01 02:00,ZGHA 010200Z AUTO 35004KT 1 1/2SM 00/M01 A3045 RMK T00001010 IEM_DS3505
ZGHA,2008-02-01 03:00,ZGHA 010300Z AUTO 35006KT 1 1/4SM 00/M01 A3045 RMK T00001010 IEM_DS3505
ZGHA,2008-02-01 04:00,ZGHA 010400Z AUTO 34004KT 1SM M01/M01 A3045 RMK T10101010 IEM_DS3505
ZGHA,2008-02-01 05:00,ZGHA 010500Z AUTO 34006KT 1SM 00/M01 A3042 RMK T00001010 IEM_DS3505
ZGHA,2008-02-01 06:00,ZGHA 010600Z AUTO 36004KT 1SM 00/M01 A3039 RMK T00001010 IEM_DS3505
ZGHA,2008-02-01 07:00,ZGHA 010700Z AUTO 36006KT 1SM M01/M01 A3036 RMK T10101010 IEM_DS3505
ZGHA,2008-02-01 08:00,ZGHA 010800Z AUTO 34008KT 1SM M01/M01 A3036 RMK T10101010 IEM_DS3505
ZGHA,2008-02-01 09:00,ZGHA 010900Z AUTO 33008KT 1 1/4SM M01/M01 A3036 RMK T10101010 IEM_DS3505
ZGHA,2008-02-01 10:00,ZGHA 011000Z AUTO 34006KT 1SM M01/M01 A3033 RMK T10101010 IEM_DS3505
ZGHA,2008-02-01 11:00,ZGHA 011100Z AUTO 34008KT 1SM M01/M01 A3036 RMK T10101010 IEM_DS3505
ZGHA,2008-02-01 12:00,ZGHA 011200Z AUTO 34004KT 1SM M01/M01 A3036 RMK T10101010 IEM_DS3505
ZGHA,2008-02-01 13:00,ZGHA 011300Z AUTO 35006KT 1/2SM M01/M02 A3036 RMK T10101020 IEM_DS3505
ZGHA,2008-02-01 14:00,ZGHA 011400Z AUTO 33008KT 1SM M02/M02 A3039 RMK T10201020 IEM_DS3505
ZGHA,2008-02-01 15:00,ZGHA 011500Z AUTO 33006KT 1SM M02/M02 A3039 RMK T10201020 IEM_DS3505
ZGHA,2008-02-01 16:00,ZGHA 011600Z AUTO 34006KT 1SM M02/M02 A3036 RMK T10201020 IEM_DS3505
ZGHA,2008-02-01 17:00,ZGHA 011700Z AUTO 35004KT 1SM M02/M02 A3039 RMK T10201020 IEM_DS3505
ZGHA,2008-02-01 18:00,ZGHA 011800Z AUTO 33008KT 1/2SM M02/M02 A3039 RMK T10201020 IEM_DS3505
ZGHA,2008-02-01 21:00,ZGHA 012100Z AUTO 1SM M02/M02 A3036 RMK T10201020 IEM_DS3505
ZGHA,2008-02-01 22:00,ZGHA 012200Z AUTO 33006KT 1SM M02/M02 A3036 RMK T10201020 IEM_DS3505
ZGHA,2008-02-01 23:00,ZGHA 012300Z AUTO 34006KT 1SM M02/M02 A3039 RMK T10201020 IEM_DS3505
ZGHA,2008-02-02 00:00,ZGHA 020000Z AUTO 35004KT 1 1/2SM M02/M02 A3042 RMK T10201020 IEM_DS3505
ZGHA,2008-02-02 01:00,ZGHA 020100Z AUTO 34008KT 2SM M02/M02 A3042 RMK T10201020 IEM_DS3505
ZGHA,2008-02-02 02:00,ZGHA 020200Z AUTO 34006KT 2 1/2SM M01/M02 A3042 RMK T10101020 IEM_DS3505
ZGHA,2008-02-02 03:00,ZGHA 020300Z AUTO 34008KT 3SM 00/M01 A3042 RMK T00001010 IEM_DS3505
ZGHA,2008-02-02 04:00,ZGHA 020400Z AUTO 35006KT 3SM 01/00 A3039 RMK T00100000 IEM_DS3505
ZGHA,2008-02-02 05:00,ZGHA 020500Z AUTO 32006KT 4SM 01/01 A3036 RMK T00100010 IEM_DS3505
ZGHA,2008-02-02 06:00,ZGHA 020600Z AUTO 34004KT 4SM 01/01 A3033 RMK T00100010 IEM_DS3505
ZGHA,2008-02-02 07:00,ZGHA 020700Z AUTO 33006KT 3SM 01/00 A3033 RMK T00100000 IEM_DS3505
ZGHA,2008-02-02 08:00,ZGHA 020800Z AUTO 02004KT 2 1/2SM 01/M01 A3030 RMK T00101010 IEM_DS3505
ZGHA,2008-02-02 09:00,ZGHA 020900Z AUTO 2 1/2SM 01/M02 A3033 RMK T00101020 IEM_DS3505
ZGHA,2008-02-02 10:00,ZGHA 021000Z AUTO 2 1/2SM 00/M02 A3033 RMK T00001020 IEM_DS3505
ZGHA,2008-02-02 11:00,ZGHA 021100Z AUTO 2 1/2SM 00/M03 A3033 RMK T00001030 IEM_DS3505
ZGHA,2008-02-02 12:00,ZGHA 021200Z AUTO 34002KT 2 1/2SM M02/M03 A3036 RMK T10201030 IEM_DS3505
ZGHA,2008-02-02 13:00,ZGHA 021300Z AUTO 19002KT 2 1/2SM M03/M04 A3039 RMK T10301040 IEM_DS3505
ZGHA,2008-02-02 14:00,ZGHA 021400Z AUTO 08002KT 2SM M03/M04 A3039 RMK T10301040 IEM_DS3505
ZGHA,2008-02-02 15:00,ZGHA 021500Z AUTO 2SM M04/M05 A3042 RMK T10401050 IEM_DS3505
ZGHA,2008-02-02 16:00,ZGHA 021600Z AUTO 00000KT 1 1/2SM M05/M05 A3042 RMK T10501050 IEM_DS3505
ZGHA,2008-02-02 17:00,ZGHA 021700Z AUTO 00000KT 1 1/4SM M05/M05 A3042 RMK T10501050 IEM_DS3505
ZGHA,2008-02-02 18:00,ZGHA 021800Z AUTO 1 1/4SM M06/M06 A3039 RMK T10601060 IEM_DS3505
ZGHA,2008-02-02 19:00,ZGHA 021900Z AUTO 07004KT 1/2SM M05/M06 A3039 RMK T10501060 IEM_DS3505
ZGHA,2008-02-02 20:00,ZGHA 022000Z AUTO 1/8SM M06/M06 A3042 RMK T10601060 IEM_DS3505
ZGHA,2008-02-02 21:00,ZGHA 022100Z AUTO 1/8SM M06/M06 A3042 RMK T10601060 IEM_DS3505
ZGHA,2008-02-02 22:00,ZGHA 022200Z AUTO 1/8SM M06/M06 A3042 RMK T10601060 IEM_DS3505
ZGHA,2008-02-02 23:00,ZGHA 022300Z AUTO 08002KT 1/8SM M06/M07 A3042 RMK T10601070 IEM_DS3505
ZGHA,2008-02-03 00:00,ZGHA 030000Z AUTO 00000KT 1/8SM M06/M07 A3042 RMK T10601070 IEM_DS3505
ZGHA,2008-02-03 01:00,ZGHA 030100Z AUTO 1SM M05/M05 A3045 RMK T10501050 IEM_DS3505
ZGHA,2008-02-03 02:00,ZGHA 030200Z AUTO 1 1/2SM M01/M02 A3045 RMK T10101020 IEM_DS3505
ZGHA,2008-02-03 03:00,ZGHA 030300Z AUTO 2 1/2SM 01/00 A3045 RMK T00100000 IEM_DS3505
ZGHA,2008-02-03 04:00,ZGHA 030400Z AUTO 3SM 04/00 A3042 RMK T00400000 IEM_DS3505
ZGHA,2008-02-03 05:00,ZGHA 030500Z AUTO 00000KT 4SM 05/M02 A3039 RMK T00501020 IEM_DS3505
ZGHA,2008-02-03 06:00,ZGHA 030600Z AUTO 5SM 04/M02 A3033 RMK T00401020 IEM_DS3505
ZGHA,2008-02-03 07:00,ZGHA 030700Z AUTO 09004KT 5SM 07/00 A3030 RMK T00700000 IEM_DS3505
ZGHA,2008-02-03 08:00,ZGHA 030800Z AUTO 10004KT 6SM 05/M01 A3030 RMK T00501010 IEM_DS3505
ZGHA,2008-02-03 09:00,ZGHA 030900Z AUTO 14004KT 6SM 03/M01 A3033 RMK T00301010 IEM_DS3505
ZGHA,2008-02-03 10:00,ZGHA 031000Z AUTO 4SM 02/M01 A3033 RMK T00201010 IEM_DS3505
ZGHA,2008-02-03 11:00,ZGHA 031100Z AUTO 4SM 01/M01 A3033 RMK T00101010 IEM_DS3505
ZGHA,2008-02-03 12:00,ZGHA 031200Z AUTO 4SM 01/M01 A3033 RMK T00101010 IEM_DS3505
ZGHA,2008-02-03 13:00,ZGHA 031300Z AUTO 00000KT 4SM 01/M01 A3036 RMK T00101010 IEM_DS3505
ZGHA,2008-02-03 14:00,ZGHA 031400Z AUTO 21002KT 4SM 01/M01 A3036 RMK T00101010 IEM_DS3505
ZGHA,2008-02-03 15:00,ZGHA 031500Z AUTO 3SM 00/M01 A3036 RMK T00001010 IEM_DS3505
ZGHA,2008-02-03 16:00,ZGHA 031600Z AUTO 2 1/2SM M01/M02 A3033 RMK T10101020 IEM_DS3505
ZGHA,2008-02-03 17:00,ZGHA 031700Z AUTO 00000KT 1 1/2SM M02/M02 A3033 RMK T10201020 IEM_DS3505
ZGHA,2008-02-03 18:00,ZGHA 031800Z AUTO 08002KT 1 1/2SM M03/M03 A3033 RMK T10301030 IEM_DS3505
ZGHA,2008-02-03 19:00,ZGHA 031900Z AUTO 00000KT 1 1/2SM M02/M02 A3033 RMK T10201020 IEM_DS3505
ZGHA,2008-02-03 20:00,ZGHA 032000Z AUTO 09002KT 1 1/2SM M01/M02 A3033 RMK T10101020 IEM_DS3505
ZGHA,2008-02-03 21:00,ZGHA 032100Z AUTO 00000KT 1 1/2SM M01/M01 A3030 RMK T10101010 IEM_DS3505
ZGHA,2008-02-03 22:00,ZGHA 032200Z AUTO 00000KT 1 1/4SM M02/M02 A3030 RMK T10201020 IEM_DS3505
ZGHA,2008-02-03 23:00,ZGHA 032300Z AUTO 00000KT 1SM M03/M04 A3030 RMK T10301040 IEM_DS3505
ZGHA,2008-02-04 00:00,ZGHA 040000Z AUTO 00000KT 1 1/4SM M03/M03 A3030 RMK T10301030 IEM_DS3505
ZGHA,2008-02-04 01:00,ZGHA 040100Z AUTO 08002KT 2SM 01/01 A3033 RMK T00100010 IEM_DS3505
ZGHA,2008-02-04 02:00,ZGHA 040200Z AUTO 2SM 05/04 A3033 RMK T00500040 IEM_DS3505
ZGHA,2008-02-04 03:00,ZGHA 040300Z AUTO 2 1/2SM 06/01 A3033 RMK T00600010 IEM_DS3505
ZGHA,2008-02-04 04:00,ZGHA 040400Z AUTO 10004KT 3SM 06/M01 A3030 RMK T00601010 IEM_DS3505
ZGHA,2008-02-04 05:00,ZGHA 040500Z AUTO 15006KT 4SM 05/M01 A3027 RMK T00501010 IEM_DS3505
ZGHA,2008-02-04 06:00,ZGHA 040600Z AUTO 15004KT 4SM 04/00 A3024 RMK T00400000 IEM_DS3505
ZGHA,2008-02-04 07:00,ZGHA 040700Z AUTO 13004KT 4SM 04/00 A3021 RMK T00400000 IEM_DS3505
ZGHA,2008-02-04 08:00,ZGHA 040800Z AUTO 4SM 04/00 A3021 RMK T00400000 IEM_DS3505
ZGHA,2008-02-04 09:00,ZGHA 040900Z AUTO 4SM 03/00 A3024 RMK T00300000 IEM_DS3505
ZGHA,2008-02-04 10:00,ZGHA 041000Z AUTO 4SM 02/00 A3024 RMK T00200000 IEM_DS3505
ZGHA,2008-02-04 11:00,ZGHA 041100Z AUTO 3SM 02/00 A3024 RMK T00200000 IEM_DS3505
ZGHA,2008-02-04 12:00,ZGHA 041200Z AUTO 33004KT 3SM 02/00 A3027 RMK T00200000 IEM_DS3505
ZGHA,2008-02-04 13:00,ZGHA 041300Z AUTO 31004KT 3SM 02/00 A3030 RMK T00200000 IEM_DS3505
ZGHA,2008-02-04 14:00,ZGHA 041400Z AUTO 36004KT 3SM 02/00 A3027 RMK T00200000 IEM_DS3505
ZGHA,2008-02-04 15:00,ZGHA 041500Z AUTO 00000KT 2 1/2SM 02/00 A3030 RMK T00200000 IEM_DS3505
ZGHA,2008-02-04 16:00,ZGHA 041600Z AUTO 2SM 01/00 A3030 RMK T00100000 IEM_DS3505
ZGHA,2008-02-04 17:00,ZGHA 041700Z AUTO 1 1/4SM 01/00 A3030 RMK T00100000 IEM_DS3505
ZGHA,2008-02-04 18:00,ZGHA 041800Z AUTO 1 1/4SM 01/00 A3030 RMK T00100000 IEM_DS3505
ZGHA,2008-02-04 19:00,ZGHA 041900Z AUTO 29006KT 1 1/4SM 01/01 A3030 RMK T00100010 IEM_DS3505
ZGHA,2008-02-04 20:00,ZGHA 042000Z AUTO 1SM 01/00 A3030 RMK T00100000 IEM_DS3505
ZGHA,2008-02-04 21:00,ZGHA 042100Z AUTO 32004KT 1/2SM 00/00 A3033 RMK T00000000 IEM_DS3505
ZGHA,2008-02-04 22:00,ZGHA 042200Z AUTO 30004KT 1/2SM 00/00 A3033 RMK T00000000 IEM_DS3505
ZGHA,2008-02-04 23:00,ZGHA 042300Z AUTO 31004KT 1/2SM 00/00 A3033 RMK T00000000 IEM_DS3505
ZGHA,2008-02-05 00:00,ZGHA 050000Z AUTO 33004KT 1SM 01/00 A3036 RMK T00100000 IEM_DS3505
ZGHA,2008-02-05 01:00,ZGHA 050100Z AUTO 33004KT 1SM 01/00 A3039 RMK T00100000 IEM_DS3505
ZGHA,2008-02-05 02:00,ZGHA 050200Z AUTO 33006KT 1SM 01/01 A3039 RMK T00100010 IEM_DS3505
ZGHA,2008-02-05 03:00,ZGHA 050300Z AUTO 1SM 02/02 A3039 RMK T00200020 IEM_DS3505
ZGHA,2008-02-05 04:00,ZGHA 050400Z AUTO 32006KT 1SM 03/02 A3039 RMK T00300020 IEM_DS3505
ZGHA,2008-02-05 05:00,ZGHA 050500Z AUTO 35006KT 1 1/4SM 03/03 A3036 RMK T00300030 IEM_DS3505
ZGHA,2008-02-05 06:00,ZGHA 050600Z AUTO 35006KT 1 1/4SM 04/03 A3033 RMK T00400030 IEM_DS3505
ZGHA,2008-02-05 07:00,ZGHA 050700Z AUTO 35006KT 2SM 04/02 A3033 RMK T00400020 IEM_DS3505
ZGHA,2008-02-05 08:00,ZGHA 050800Z AUTO 36008KT 2SM 04/01 A3033 RMK T00400010 IEM_DS3505
ZGHA,2008-02-05 09:00,ZGHA 050900Z AUTO 35006KT 2 1/2SM 04/01 A3033 RMK T00400010 IEM_DS3505
ZGHA,2008-02-05 10:00,ZGHA 051000Z AUTO 35004KT 2 1/2SM 03/00 A3033 RMK T00300000 IEM_DS3505
ZGHA,2008-02-05 11:00,ZGHA 051100Z AUTO 33006KT 2 1/2SM 03/00 A3036 RMK T00300000 IEM_DS3505
ZGHA,2008-02-05 12:00,ZGHA 051200Z AUTO 34006KT 2 1/2SM 03/00 A3036 RMK T00300000 IEM_DS3505
ZGHA,2008-02-05 13:00,ZGHA 051300Z AUTO 01004KT 2SM 03/00 A3039 RMK T00300000 IEM_DS3505
ZGHA,2008-02-05 14:00,ZGHA 051400Z AUTO 36004KT 2SM 03/00 A3042 RMK T00300000 IEM_DS3505
ZGHA,2008-02-05 15:00,ZGHA 051500Z AUTO 2SM 02/M01 A3042 RMK T00201010 IEM_DS3505
ZGHA,2008-02-05 16:00,ZGHA 051600Z AUTO 35004KT 2SM 02/M01 A3042 RMK T00201010 IEM_DS3505
ZGHA,2008-02-05 17:00,ZGHA 051700Z AUTO 36002KT 2SM 01/M01 A3042 RMK T00101010 IEM_DS3505
ZGHA,2008-02-05 18:00,ZGHA 051800Z AUTO 34004KT 2SM 01/M01 A3042 RMK T00101010 IEM_DS3505
ZGHA,2008-02-05 19:00,ZGHA 051900Z AUTO 36004KT 2SM 01/M01 A3042 RMK T00101010 IEM_DS3505
ZGHA,2008-02-05 20:00,ZGHA 052000Z AUTO 36004KT 2SM 00/M01 A3039 RMK T00001010 IEM_DS3505
ZGHA,2008-02-05 21:00,ZGHA 052100Z AUTO 2SM M01/M02 A3039 RMK T10101020 IEM_DS3505
ZGHA,2008-02-05 22:00,ZGHA 052200Z AUTO 34002KT 1 1/4SM M01/M03 A3039 RMK T10101030 IEM_DS3505
ZGHA,2008-02-05 23:00,ZGHA 052300Z AUTO 1SM M03/M04 A3042 RMK T10301040 IEM_DS3505
ZGHA,2008-02-06 00:00,ZGHA 060000Z AUTO 1SM M01/M02 A3042 RMK T10101020 IEM_DS3505
ZGHA,2008-02-06 01:00,ZGHA 060100Z AUTO 33006KT 1SM 00/M01 A3045 RMK T00001010 IEM_DS3505
ZGHA,2008-02-06 02:00,ZGHA 060200Z AUTO 33006KT 1 1/4SM 01/M01 A3045 RMK T00101010 IEM_DS3505
ZGHA,2008-02-06 03:00,ZGHA 060300Z AUTO 34004KT 1 1/2SM 03/00 A3045 RMK T00300000 IEM_DS3505
ZGHA,2008-02-06 04:00,ZGHA 060400Z AUTO 1 1/2SM 05/00 A3042 RMK T00500000 IEM_DS3505
ZGHA,2008-02-06 05:00,ZGHA 060500Z AUTO 28004KT 1 1/2SM 05/01 A3039 RMK T00500010 IEM_DS3505
ZGHA,2008-02-06 06:00,ZGHA 060600Z AUTO 27006KT 1 1/2SM 05/02 A3036 RMK T00500020 IEM_DS3505
ZGHA,2008-02-06 07:00,ZGHA 060700Z AUTO 29006KT 1 1/2SM 05/01 A3033 RMK T00500010 IEM_DS3505
ZGHA,2008-02-06 08:00,ZGHA 060800Z AUTO 27006KT 1 1/2SM 05/01 A3033 RMK T00500010 IEM_DS3505
ZGHA,2008-02-06 09:00,ZGHA 060900Z AUTO 30006KT 1 1/2SM 04/01 A3033 RMK T00400010 IEM_DS3505
ZGHA,2008-02-06 10:00,ZGHA 061000Z AUTO 28006KT 1 1/2SM 04/00 A3033 RMK T00400000 IEM_DS3505
ZGHA,2008-02-06 11:00,ZGHA 061100Z AUTO 29004KT 1 1/2SM 03/00 A3033 RMK T00300000 IEM_DS3505
ZGHA,2008-02-06 12:00,ZGHA 061200Z AUTO 33004KT 1 1/2SM 03/00 A3036 RMK T00300000 IEM_DS3505
ZGHA,2008-02-06 13:00,ZGHA 061300Z AUTO 34002KT 1 1/2SM 02/00 A3036 RMK T00200000 IEM_DS3505
ZGHA,2008-02-06 14:00,ZGHA 061400Z AUTO 00000KT 1 1/2SM 02/00 A3036 RMK T00200000 IEM_DS3505
ZGHA,2008-02-06 15:00,ZGHA 061500Z AUTO 28004KT 1 1/2SM 02/01 A3036 RMK T00200010 IEM_DS3505
ZGHA,2008-02-06 16:00,ZGHA 061600Z AUTO 31002KT 1 1/4SM 02/01 A3036 RMK T00200010 IEM_DS3505
ZGHA,2008-02-06 17:00,ZGHA 061700Z AUTO 1SM 02/01 A3036 RMK T00200010 IEM_DS3505
ZGHA,2008-02-06 18:00,ZGHA 061800Z AUTO 3/8SM 02/00 A3036 RMK T00200000 IEM_DS3505
ZGHA,2008-02-06 19:00,ZGHA 061900Z AUTO 34002KT 3/8SM 01/00 A3033 RMK T00100000 IEM_DS3505
ZGHA,2008-02-06 20:00,ZGHA 062000Z AUTO 35004KT 3/8SM 00/M01 A3033 RMK T00001010 IEM_DS3505
ZGHA,2008-02-06 21:00,ZGHA 062100Z AUTO 34002KT 1SM M02/M02 A3033 RMK T10201020 IEM_DS3505
ZGHA,2008-02-06 22:00,ZGHA 062200Z AUTO 1SM M01/M02 A3033 RMK T10101020 IEM_DS3505
ZGHA,2008-02-06 23:00,ZGHA 062300Z AUTO 36002KT 1SM M01/M02 A3033 RMK T10101020 IEM_DS3505
ZGHA,2008-02-07 00:00,ZGHA 070000Z AUTO 1SM M01/M02 A3036 RMK T10101020 IEM_DS3505
ZGHA,2008-02-07 01:00,ZGHA 070100Z AUTO 35004KT 3/8SM 00/00 A3039 RMK T00000000 IEM_DS3505
ZGHA,2008-02-07 02:00,ZGHA 070200Z AUTO 1/2SM 02/01 A3039 RMK T00200010 IEM_DS3505
ZGHA,2008-02-07 03:00,ZGHA 070300Z AUTO 35004KT 1SM 03/02 A3039 RMK T00300020 IEM_DS3505
ZGHA,2008-02-07 04:00,ZGHA 070400Z AUTO 30004KT 1 1/2SM 05/01 A3036 RMK T00500010 IEM_DS3505
ZGHA,2008-02-07 05:00,ZGHA 070500Z AUTO 29006KT 1 1/2SM 06/02 A3033 RMK T00600020 IEM_DS3505
ZGHA,2008-02-07 06:00,ZGHA 070600Z AUTO 30006KT 2SM 07/01 A3030 RMK T00700010 IEM_DS3505
ZGHA,2008-02-07 07:00,ZGHA 070700Z AUTO 30006KT 2SM 07/02 A3027 RMK T00700020 IEM_DS3505
ZGHA,2008-02-07 08:00,ZGHA 070800Z AUTO 27008KT 1 1/2SM 07/02 A3027 RMK T00700020 IEM_DS3505
ZGHA,2008-02-07 09:00,ZGHA 070900Z AUTO 27008KT 1 1/2SM 06/02 A3027 RMK T00600020 IEM_DS3505
ZGHA,2008-02-07 10:00,ZGHA 071000Z AUTO 28006KT 1 1/2SM 05/01 A3027 RMK T00500010 IEM_DS3505
ZGHA,2008-02-07 11:00,ZGHA 071100Z AUTO 32002KT 1 1/2SM 04/01 A3030 RMK T00400010 IEM_DS3505
ZGHA,2008-02-07 12:00,ZGHA 071200Z AUTO 1 1/2SM 02/00 A3030 RMK T00200000 IEM_DS3505
ZGHA,2008-02-07 13:00,ZGHA 071300Z AUTO 36002KT 1 1/2SM 01/M01 A3033 RMK T00101010 IEM_DS3505
ZGHA,2008-02-07 14:00,ZGHA 071400Z AUTO 1 1/2SM 00/M01 A3033 RMK T00001010 IEM_DS3505
ZGHA,2008-02-07 15:00,ZGHA 071500Z AUTO 36002KT 1 1/2SM M01/M02 A3036 RMK T10101020 IEM_DS3505
ZGHA,2008-02-07 16:00,ZGHA 071600Z AUTO 34004KT 1SM 00/M01 A3036 RMK T00001010 IEM_DS3505
ZGHA,2008-02-07 17:00,ZGHA 071700Z AUTO 36004KT 1SM M01/M02 A3036 RMK T10101020 IEM_DS3505
ZGHA,2008-02-07 18:00,ZGHA 071800Z AUTO 35004KT 1SM M02/M03 A3036 RMK T10201030 IEM_DS3505
ZGHA,2008-02-07 19:00,ZGHA 071900Z AUTO 02002KT 1SM M01/M02 A3033 RMK T10101020 IEM_DS3505
ZGHA,2008-02-07 20:00,ZGHA 072000Z AUTO 1SM M02/M02 A3036 RMK T10201020 IEM_DS3505
ZGHA,2008-02-07 21:00,ZGHA 072100Z AUTO 34002KT 1SM M02/M03 A3036 RMK T10201030 IEM_DS3505
ZGHA,2008-02-07 22:00,ZGHA 072200Z AUTO 35004KT 1SM M01/M01 A3036 RMK T10101010 IEM_DS3505
ZGHA,2008-02-07 23:00,ZGHA 072300Z AUTO 00000KT 1SM 00/M01 A3039 RMK T00001010 IEM_DS3505
ZGHA,2008-02-08 00:00,ZGHA 080000Z AUTO 32004KT 1SM 00/M01 A3042 RMK T00001010 IEM_DS3505
ZGHA,2008-02-08 01:00,ZGHA 080100Z AUTO 32004KT 1SM 01/00 A3045 RMK T00100000 IEM_DS3505
ZGHA,2008-02-08 02:00,ZGHA 080200Z AUTO 34004KT 1SM 02/01 A3047 RMK T00200010 IEM_DS3505
ZGHA,2008-02-08 03:00,ZGHA 080300Z AUTO 35006KT 1SM 04/02 A3047 RMK T00400020 IEM_DS3505
ZGHA,2008-02-08 04:00,ZGHA 080400Z AUTO 01008KT 2 1/2SM 06/M01 A3045 RMK T00601010 IEM_DS3505
ZGHA,2008-02-08 05:00,ZGHA 080500Z AUTO 02006KT 3SM 07/M03 A3045 RMK T00701030 IEM_DS3505
ZGHA,2008-02-08 06:00,ZGHA 080600Z AUTO 01010KT 4SM 07/M03 A3042 RMK T00701030 IEM_DS3505
ZGHA,2008-02-08 07:00,ZGHA 080700Z AUTO 36008KT 4SM 08/M03 A3042 RMK T00801030 IEM_DS3505
ZGHA,2008-02-08 08:00,ZGHA 080800Z AUTO 01010KT 5SM 08/M04 A3042 RMK T00801040 IEM_DS3505
ZGHA,2008-02-08 09:00,ZGHA 080900Z AUTO 36006KT 5SM 07/M05 A3042 RMK T00701050 IEM_DS3505
ZGHA,2008-02-08 10:00,ZGHA 081000Z AUTO 01004KT 5SM 06/M06 A3042 RMK T00601060 IEM_DS3505
ZGHA,2008-02-08 11:00,ZGHA 081100Z AUTO 35006KT 5SM 03/M03 A3042 RMK T00301030 IEM_DS3505
ZGHA,2008-02-08 12:00,ZGHA 081200Z AUTO 35006KT 4SM 02/M03 A3045 RMK T00201030 IEM_DS3505
ZGHA,2008-02-08 13:00,ZGHA 081300Z AUTO 35004KT 4SM 02/M03 A3047 RMK T00201030 IEM_DS3505
ZGHA,2008-02-08 14:00,ZGHA 081400Z AUTO 36006KT 4SM 01/M04 A3047 RMK T00101040 IEM_DS3505
ZGHA,2008-02-08 15:00,ZGHA 081500Z AUTO 36006KT 4SM 02/M05 A3050 RMK T00201050 IEM_DS3505
ZGHA,2008-02-08 16:00,ZGHA 081600Z AUTO 36006KT 3SM M01/M04 A3050 RMK T10101040 IEM_DS3505
ZGHA,2008-02-08 17:00,ZGHA 081700Z AUTO 36004KT 2 1/2SM 00/M04 A3050 RMK T00001040 IEM_DS3505
ZGHA,2008-02-08 18:00,ZGHA 081800Z AUTO 36004KT 2SM M03/M06 A3047 RMK T10301060 IEM_DS3505
ZGHA,2008-02-08 19:00,ZGHA 081900Z AUTO 36006KT 1 1/2SM M02/M05 A3047 RMK T10201050 IEM_DS3505
ZGHA,2008-02-08 21:00,ZGHA 082100Z AUTO 36006KT 2SM M01/M06 A3045 RMK T10101060 IEM_DS3505
ZGHA,2008-02-08 22:00,ZGHA 082200Z AUTO 01006KT 2 1/2SM M01/M06 A3045 RMK T10101060 IEM_DS3505
ZGHA,2008-02-08 23:00,ZGHA 082300Z AUTO 4SM M02/M06 A3047 RMK T10201060 IEM_DS3505
ZGHA,2008-02-09 00:00,ZGHA 090000Z AUTO 00000KT 5SM M02/M05 A3050 RMK T10201050 IEM_DS3505
ZGHA,2008-02-09 01:00,ZGHA 090100Z AUTO 02004KT 6SM 01/M06 A3050 RMK T00101060 IEM_DS3505
ZGHA,2008-02-09 02:00,ZGHA 090200Z AUTO 01006KT 6SM 04/M07 A3050 RMK T00401070 IEM_DS3505
ZGHA,2008-02-09 03:00,ZGHA 090300Z AUTO 07006KT 6SM 05/M07 A3050 RMK T00501070 IEM_DS3505
ZGHA,2008-02-09 04:00,ZGHA 090400Z AUTO 36004KT 6SM 06/M09 A3047 RMK T00601090 IEM_DS3505
ZGHA,2008-02-09 05:00,ZGHA 090500Z AUTO 09004KT 6SM 07/M08 A3042 RMK T00701080 IEM_DS3505
ZGHA,2008-02-09 06:00,ZGHA 090600Z AUTO 35006KT 6SM 08/M09 A3039 RMK T00801090 IEM_DS3505
ZGHA,2008-02-09 07:00,ZGHA 090700Z AUTO 35006KT 6SM 07/M10 A3036 RMK T00701100 IEM_DS3505
ZGHA,2008-02-09 08:00,ZGHA 090800Z AUTO 31004KT 6SM 07/M08 A3036 RMK T00701080 IEM_DS3505
ZGHA,2008-02-09 09:00,ZGHA 090900Z AUTO 31006KT 6SM 06/M07 A3036 RMK T00601070 IEM_DS3505
ZGHA,2008-02-09 10:00,ZGHA 091000Z AUTO 32008KT 6SM 06/M07 A3036 RMK T00601070 IEM_DS3505
ZGHA,2008-02-09 11:00,ZGHA 091100Z AUTO 35006KT 6SM 04/M04 A3036 RMK T00401040 IEM_DS3505
ZGHA,2008-02-09 12:00,ZGHA 091200Z AUTO 33010KT 6SM 04/M04 A3039 RMK T00401040 IEM_DS3505
ZGHA,2008-02-09 13:00,ZGHA 091300Z AUTO 34008KT 6SM 04/M04 A3039 RMK T00401040 IEM_DS3505
ZGHA,2008-02-09 14:00,ZGHA 091400Z AUTO 33006KT 6SM 03/M04 A3039 RMK T00301040 IEM_DS3505
ZGHA,2008-02-09 15:00,ZGHA 091500Z AUTO 33004KT 6SM 03/M04 A3039 RMK T00301040 IEM_DS3505
ZGHA,2008-02-09 16:00,ZGHA 091600Z AUTO 34002KT 6SM 03/M03 A3039 RMK T00301030 IEM_DS3505
ZGHA,2008-02-09 17:00,ZGHA 091700Z AUTO 01004KT 2 1/2SM 03/M03 A3039 RMK T00301030 IEM_DS3505
ZGHA,2008-02-09 18:00,ZGHA 091800Z AUTO 34004KT 2SM 02/M03 A3039 RMK T00201030 IEM_DS3505
ZGHA,2008-02-09 19:00,ZGHA 091900Z AUTO 34002KT 2SM 02/M03 A3036 RMK T00201030 IEM_DS3505
ZGHA,2008-02-09 20:00,ZGHA 092000Z AUTO 34004KT 2SM 02/M02 A3036 RMK T00201020 IEM_DS3505
ZGHA,2008-02-09 21:00,ZGHA 092100Z AUTO 32002KT 6SM 02/M02 A3036 RMK T00201020 IEM_DS3505
ZGHA,2008-02-09 22:00,ZGHA 092200Z AUTO 32004KT 6SM 02/M02 A3036 RMK T00201020 IEM_DS3505
ZGHA,2008-02-09 23:00,ZGHA 092300Z AUTO 32004KT 6SM 02/M01 A3039 RMK T00201010 IEM_DS3505
ZGHA,2008-02-10 00:00,ZGHA 100000Z AUTO 00000KT 6SM 02/M01 A3039 RMK T00201010 IEM_DS3505
ZGHA,2008-02-10 04:00,ZGHA 100400Z AUTO 6SM 05/M02 A3042 RMK T00501020 IEM_DS3505
ZGHA,2008-02-10 05:00,ZGHA 100500Z AUTO 6SM 05/M05 A3039 RMK T00501050 IEM_DS3505
ZGHA,2008-02-10 06:00,ZGHA 100600Z AUTO 00000KT 6SM 05/M04 A3036 RMK T00501040 IEM_DS3505
ZGHA,2008-02-10 07:00,ZGHA 100700Z AUTO 6SM 05/M04 A3033 RMK T00501040 IEM_DS3505
ZGHA,2008-02-10 08:00,ZGHA 100800Z AUTO 6SM 05/M06 A3033 RMK T00501060 IEM_DS3505
ZGHA,2008-02-10 09:00,ZGHA 100900Z AUTO 00000KT 6SM 05/M05 A3033 RMK T00501050 IEM_DS3505
ZGHA,2008-02-10 10:00,ZGHA 101000Z AUTO 24004KT 6SM 04/M03 A3033 RMK T00401030 IEM_DS3505
ZGHA,2008-02-10 11:00,ZGHA 101100Z AUTO 28004KT 6SM 04/M02 A3033 RMK T00401020 IEM_DS3505
ZGHA,2008-02-10 12:00,ZGHA 101200Z AUTO 6SM 04/M02 A3033 RMK T00401020 IEM_DS3505
ZGHA,2008-02-10 13:00,ZGHA 101300Z AUTO 34004KT 6SM 04/M01 A3033 RMK T00401010 IEM_DS3505
ZGHA,2008-02-10 15:00,ZGHA 101500Z AUTO 6SM 03/00 A3036 RMK T00300000 IEM_DS3505
ZGHA,2008-02-10 16:00,ZGHA 101600Z AUTO 6SM 03/M01 A3036 RMK T00301010 IEM_DS3505
ZGHA,2008-02-10 17:00,ZGHA 101700Z AUTO 09002KT 6SM 03/00 A3033 RMK T00300000 IEM_DS3505
ZGHA,2008-02-10 18:00,ZGHA 101800Z AUTO 02002KT 1 1/2SM 03/01 A3033 RMK T00300010 IEM_DS3505
ZGHA,2008-02-10 19:00,ZGHA 101900Z AUTO 1 1/2SM 03/01 A3030 RMK T00300010 IEM_DS3505
ZGHA,2008-02-11 00:00,ZGHA 110000Z AUTO 31002KT 4SM 02/01 A3039 RMK T00200010 IEM_DS3505
ZGHA,2008-02-11 01:00,ZGHA 110100Z AUTO 33004KT 4SM 03/01 A3042 RMK T00300010 IEM_DS3505
ZGHA,2008-02-11 02:00,ZGHA 110200Z AUTO 36004KT 4SM 04/00 A3042 RMK T00400000 IEM_DS3505
ZGHA,2008-02-11 03:00,ZGHA 110300Z AUTO 35006KT 4SM 05/M01 A3042 RMK T00501010 IEM_DS3505
ZGHA,2008-02-11 04:00,ZGHA 110400Z AUTO 35008KT 6SM 06/M04 A3042 RMK T00601040 IEM_DS3505
ZGHA,2008-02-11 05:00,ZGHA 110500Z AUTO 01004KT 6SM 07/M03 A3042 RMK T00701030 IEM_DS3505
ZGHA,2008-02-11 06:00,ZGHA 110600Z AUTO 34008KT 6SM 07/M05 A3039 RMK T00701050 IEM_DS3505
ZGHA,2008-02-11 07:00,ZGHA 110700Z AUTO 34010KT 6SM 08/M05 A3039 RMK T00801050 IEM_DS3505
ZGHA,2008-02-11 08:00,ZGHA 110800Z AUTO 36008KT 6SM 08/M06 A3039 RMK T00801060 IEM_DS3505
ZGHA,2008-02-11 09:00,ZGHA 110900Z AUTO 36008KT 6SM 07/M05 A3039 RMK T00701050 IEM_DS3505
ZGHA,2008-02-11 10:00,ZGHA 111000Z AUTO 36006KT 6SM 06/M05 A3039 RMK T00601050 IEM_DS3505
ZGHA,2008-02-11 11:00,ZGHA 111100Z AUTO 36004KT 6SM 03/M05 A3042 RMK T00301050 IEM_DS3505
ZGHA,2008-02-11 12:00,ZGHA 111200Z AUTO 35004KT 6SM 01/M04 A3045 RMK T00101040 IEM_DS3505
ZGHA,2008-02-11 13:00,ZGHA 111300Z AUTO 35004KT 6SM 02/M03 A3045 RMK T00201030 IEM_DS3505
ZGHA,2008-02-11 14:00,ZGHA 111400Z AUTO 36002KT 6SM 01/M04 A3047 RMK T00101040 IEM_DS3505
ZGHA,2008-02-11 15:00,ZGHA 111500Z AUTO 6SM 00/M03 A3047 RMK T00001030 IEM_DS3505
ZGHA,2008-02-11 16:00,ZGHA 111600Z AUTO 36006KT 6SM 01/M03 A3050 RMK T00101030 IEM_DS3505
ZGHA,2008-02-11 17:00,ZGHA 111700Z AUTO 6SM 01/M03 A3050 RMK T00101030 IEM_DS3505
ZGHA,2008-02-11 18:00,ZGHA 111800Z AUTO 2SM 01/M04 A3050 RMK T00101040 IEM_DS3505
ZGHA,2008-02-11 19:00,ZGHA 111900Z AUTO 2SM 01/M03 A3047 RMK T00101030 IEM_DS3505
ZGHA,2008-02-11 21:00,ZGHA 112100Z AUTO 34002KT 4SM 00/M03 A3047 RMK T00001030 IEM_DS3505
ZGHA,2008-02-11 22:00,ZGHA 112200Z AUTO 01004KT 5SM 01/M03 A3047 RMK T00101030 IEM_DS3505
ZGHA,2008-02-11 23:00,ZGHA 112300Z AUTO 5SM 00/M03 A3050 RMK T00001030 IEM_DS3505
ZGHA,2008-02-12 00:00,ZGHA 120000Z AUTO 00000KT 5SM 01/M02 A3050 RMK T00101020 IEM_DS3505
ZGHA,2008-02-12 01:00,ZGHA 120100Z AUTO 33004KT 5SM 04/M02 A3053 RMK T00401020 IEM_DS3505
ZGHA,2008-02-12 02:00,ZGHA 120200Z AUTO 03004KT 5SM 05/M03 A3056 RMK T00501030 IEM_DS3505
ZGHA,2008-02-12 03:00,ZGHA 120300Z AUTO 34004KT 5SM 07/M04 A3053 RMK T00701040 IEM_DS3505
ZGHA,2008-02-12 04:00,ZGHA 120400Z AUTO 05004KT 6SM 08/M04 A3053 RMK T00801040 IEM_DS3505
ZGHA,2008-02-12 05:00,ZGHA 120500Z AUTO 01010KT 6SM 09/M05 A3047 RMK T00901050 IEM_DS3505
ZGHA,2008-02-12 06:00,ZGHA 120600Z AUTO 07006KT 6SM 10/M07 A3045 RMK T01001070 IEM_DS3505
ZGHA,2008-02-12 07:00,ZGHA 120700Z AUTO 36006KT 6SM 09/M05 A3042 RMK T00901050 IEM_DS3505
ZGHA,2008-02-12 08:00,ZGHA 120800Z AUTO 02004KT 6SM 09/M05 A3042 RMK T00901050 IEM_DS3505
ZGHA,2008-02-12 09:00,ZGHA 120900Z AUTO 05006KT 6SM 08/M06 A3042 RMK T00801060 IEM_DS3505
ZGHA,2008-02-12 10:00,ZGHA 121000Z AUTO 05004KT 6SM 07/M05 A3042 RMK T00701050 IEM_DS3505
ZGHA,2008-02-12 11:00,ZGHA 121100Z AUTO 01002KT 5SM 05/M05 A3042 RMK T00501050 IEM_DS3505
ZGHA,2008-02-12 12:00,ZGHA 121200Z AUTO 5SM 03/M04 A3045 RMK T00301040 IEM_DS3505
ZGHA,2008-02-12 13:00,ZGHA 121300Z AUTO 5SM 03/M03 A3047 RMK T00301030 IEM_DS3505
ZGHA,2008-02-12 14:00,ZGHA 121400Z AUTO 5SM 01/M03 A3047 RMK T00101030 IEM_DS3505
ZGHA,2008-02-12 15:00,ZGHA 121500Z AUTO 4SM 01/M03 A3050 RMK T00101030 IEM_DS3505
ZGHA,2008-02-12 16:00,ZGHA 121600Z AUTO 4SM 01/M02 A3050 RMK T00101020 IEM_DS3505
ZGHA,2008-02-12 17:00,ZGHA 121700Z AUTO 00000KT 4SM 01/M02 A3047 RMK T00101020 IEM_DS3505
ZGHA,2008-02-12 18:00,ZGHA 121800Z AUTO 4SM 01/M02 A3047 RMK T00101020 IEM_DS3505
ZGHA,2008-02-12 19:00,ZGHA 121900Z AUTO 1 1/4SM 01/M02 A3047 RMK T00101020 IEM_DS3505
ZGHA,2008-02-12 20:00,ZGHA 122000Z AUTO 07002KT 1SM 00/M02 A3047 RMK T00001020 IEM_DS3505
ZGHA,2008-02-12 21:00,ZGHA 122100Z AUTO 01002KT 4SM M01/M02 A3045 RMK T10101020 IEM_DS3505
ZGHA,2008-02-12 22:00,ZGHA 122200Z AUTO 4SM 00/M01 A3045 RMK T00001010 IEM_DS3505
ZGHA,2008-02-12 23:00,ZGHA 122300Z AUTO 4SM 01/M02 A3047 RMK T00101020 IEM_DS3505
ZGHA,2008-02-13 00:00,ZGHA 130000Z AUTO 4SM 02/M01 A3050 RMK T00201010 IEM_DS3505
ZGHA,2008-02-13 01:00,ZGHA 130100Z AUTO 4SM 04/M02 A3050 RMK T00401020 IEM_DS3505
ZGHA,2008-02-13 02:00,ZGHA 130200Z AUTO 4SM 05/M03 A3053 RMK T00501030 IEM_DS3505
ZGHA,2008-02-13 03:00,ZGHA 130300Z AUTO 4SM 06/M02 A3053 RMK T00601020 IEM_DS3505
ZGHA,2008-02-13 04:00,ZGHA 130400Z AUTO 31006KT 4SM 07/M01 A3050 RMK T00701010 IEM_DS3505
ZGHA,2008-02-13 05:00,ZGHA 130500Z AUTO 27004KT 4SM 07/M01 A3047 RMK T00701010 IEM_DS3505
ZGHA,2008-02-13 06:00,ZGHA 130600Z AUTO 28010KT 4SM 07/M01 A3045 RMK T00701010 IEM_DS3505
ZGHA,2008-02-13 07:00,ZGHA 130700Z AUTO 28008KT 4SM 07/00 A3042 RMK T00700000 IEM_DS3505
ZGHA,2008-02-13 08:00,ZGHA 130800Z AUTO 26008KT 4SM 07/M01 A3039 RMK T00701010 IEM_DS3505
ZGHA,2008-02-13 09:00,ZGHA 130900Z AUTO 30008KT 4SM 07/00 A3039 RMK T00700000 IEM_DS3505
ZGHA,2008-02-13 10:00,ZGHA 131000Z AUTO 31008KT 4SM 06/00 A3042 RMK T00600000 IEM_DS3505
ZGHA,2008-02-13 11:00,ZGHA 131100Z AUTO 30008KT 4SM 05/00 A3042 RMK T00500000 IEM_DS3505
ZGHA,2008-02-13 12:00,ZGHA 131200Z AUTO 30006KT 4SM 05/M01 A3045 RMK T00501010 IEM_DS3505
ZGHA,2008-02-13 13:00,ZGHA 131300Z AUTO 32004KT 4SM 05/M01 A3045 RMK T00501010 IEM_DS3505
ZGHA,2008-02-13 14:00,ZGHA 131400Z AUTO 32006KT 4SM 04/M01 A3047 RMK T00401010 IEM_DS3505
ZGHA,2008-02-13 15:00,ZGHA 131500Z AUTO 31004KT 4SM 04/M01 A3047 RMK T00401010 IEM_DS3505
ZGHA,2008-02-13 16:00,ZGHA 131600Z AUTO 30004KT 4SM 04/M01 A3047 RMK T00401010 IEM_DS3505
ZGHA,2008-02-13 17:00,ZGHA 131700Z AUTO 4SM 03/M01 A3047 RMK T00301010 IEM_DS3505
ZGHA,2008-02-13 18:00,ZGHA 131800Z AUTO 28004KT 2SM 03/M01 A3050 RMK T00301010 IEM_DS3505
ZGHA,2008-02-13 19:00,ZGHA 131900Z AUTO 32004KT 1 1/2SM 03/M01 A3047 RMK T00301010 IEM_DS3505
ZGHA,2008-02-13 20:00,ZGHA 132000Z AUTO 32002KT 1 1/2SM 03/M01 A3047 RMK T00301010 IEM_DS3505
ZGHA,2008-02-13 21:00,ZGHA 132100Z AUTO 32002KT 4SM 01/M02 A3047 RMK T00101020 IEM_DS3505
ZGHA,2008-02-13 22:00,ZGHA 132200Z AUTO 3SM M01/M02 A3047 RMK T10101020 IEM_DS3505
ZGHA,2008-02-13 23:00,ZGHA 132300Z AUTO 34002KT 1 1/4SM M01/M02 A3047 RMK T10101020 IEM_DS3505
ZGHA,2008-02-14 00:00,ZGHA 140000Z AUTO 35002KT 2SM 00/M01 A3050 RMK T00001010 IEM_DS3505
ZGHA,2008-02-14 01:00,ZGHA 140100Z AUTO 35004KT 2 1/2SM 03/M01 A3053 RMK T00301010 IEM_DS3505
ZGHA,2008-02-14 02:00,ZGHA 140200Z AUTO 33006KT 4SM 06/M01 A3053 RMK T00601010 IEM_DS3505
ZGHA,2008-02-14 03:00,ZGHA 140300Z AUTO 33008KT 5SM 08/00 A3050 RMK T00800000 IEM_DS3505
ZGHA,2008-02-14 04:00,ZGHA 140400Z AUTO 34006KT 6SM 10/M04 A3047 RMK T01001040 IEM_DS3505
ZGHA,2008-02-14 05:00,ZGHA 140500Z AUTO 32010KT 6SM 11/M05 A3045 RMK T01101050 IEM_DS3505
ZGHA,2008-02-14 06:00,ZGHA 140600Z AUTO 32008KT 6SM 12/M04 A3039 RMK T01201040 IEM_DS3505
ZGHA,2008-02-14 07:00,ZGHA 140700Z AUTO 31006KT 6SM 12/M07 A3039 RMK T01201070 IEM_DS3505
ZGHA,2008-02-14 08:00,ZGHA 140800Z AUTO 36006KT 6SM 12/M07 A3036 RMK T01201070 IEM_DS3505
ZGHA,2008-02-14 09:00,ZGHA 140900Z AUTO 33006KT 6SM 11/M07 A3039 RMK T01101070 IEM_DS3505
ZGHA,2008-02-14 10:00,ZGHA 141000Z AUTO 33006KT 6SM 09/M07 A3039 RMK T00901070 IEM_DS3505
ZGHA,2008-02-14 11:00,ZGHA 141100Z AUTO 32004G16KT 6SM 08/M06 A3039 RMK T00801060 IEM_DS3505
ZGHA,2008-02-14 12:00,ZGHA 141200Z AUTO 30004KT 4SM 06/M04 A3039 RMK T00601040 IEM_DS3505
ZGHA,2008-02-14 13:00,ZGHA 141300Z AUTO 4SM 02/M03 A3042 RMK T00201030 IEM_DS3505
ZGHA,2008-02-14 14:00,ZGHA 141400Z AUTO 00000KT 3SM 01/M01 A3045 RMK T00101010 IEM_DS3505
ZGHA,2008-02-14 15:00,ZGHA 141500Z AUTO 00000KT 3SM 00/M01 A3045 RMK T00001010 IEM_DS3505
ZGHA,2008-02-14 16:00,ZGHA 141600Z AUTO 06002KT 2 1/2SM M01/M02 A3045 RMK T10101020 IEM_DS3505
ZGHA,2008-02-14 17:00,ZGHA 141700Z AUTO 09002KT 1 1/2SM M01/M02 A3045 RMK T10101020 IEM_DS3505
ZGHA,2008-02-14 18:00,ZGHA 141800Z AUTO 07002KT 1 1/4SM M02/M03 A3045 RMK T10201030 IEM_DS3505
ZGHA,2008-02-14 20:00,ZGHA 142000Z AUTO 00000KT 1/2SM M03/M03 A3042 RMK T10301030 IEM_DS3505
ZGHA,2008-02-14 21:00,ZGHA 142100Z AUTO 00000KT 1SM M03/M03 A3042 RMK T10301030 IEM_DS3505
ZGHA,2008-02-14 22:00,ZGHA 142200Z AUTO 00000KT 1SM M03/M04 A3042 RMK T10301040 IEM_DS3505
ZGHA,2008-02-14 23:00,ZGHA 142300Z AUTO 00000KT 1SM M04/M05 A3045 RMK T10401050 IEM_DS3505
ZGHA,2008-02-15 00:00,ZGHA 150000Z AUTO 00000KT 1 1/2SM M03/M03 A3045 RMK T10301030 IEM_DS3505
ZGHA,2008-02-15 01:00,ZGHA 150100Z AUTO 2 1/2SM 01/01 A3047 RMK T00100010 IEM_DS3505
ZGHA,2008-02-15 02:00,ZGHA 150200Z AUTO 4SM 05/02 A3047 RMK T00500020 IEM_DS3505
ZGHA,2008-02-15 03:00,ZGHA 150300Z AUTO 6SM 08/M01 A3045 RMK T00801010 IEM_DS3505
ZGHA,2008-02-15 04:00,ZGHA 150400Z AUTO 6SM 11/M02 A3042 RMK T01101020 IEM_DS3505
ZGHA,2008-02-15 05:00,ZGHA 150500Z AUTO 6SM 13/M03 A3036 RMK T01301030 IEM_DS3505
ZGHA,2008-02-15 06:00,ZGHA 150600Z AUTO 10004KT 6SM A3033 RMK IEM_DS3505
ZGHA,2008-02-15 07:00,ZGHA 150700Z AUTO 6SM 14/M04 A3030 RMK T01401040 IEM_DS3505
ZGHA,2008-02-15 08:00,ZGHA 150800Z AUTO 15004KT 6SM 15/M04 A3027 RMK T01501040 IEM_DS3505
ZGHA,2008-02-15 09:00,ZGHA 150900Z AUTO 6SM 15/M04 A3027 RMK T01501040 IEM_DS3505
ZGHA,2008-02-15 10:00,ZGHA 151000Z AUTO 00000KT 6SM 13/M03 A3027 RMK T01301030 IEM_DS3505
ZGHA,2008-02-15 11:00,ZGHA 151100Z AUTO 6SM 07/00 A3027 RMK T00700000 IEM_DS3505
ZGHA,2008-02-15 12:00,ZGHA 151200Z AUTO 6SM 04/01 A3027 RMK T00400010 IEM_DS3505
ZGHA,2008-02-15 13:00,ZGHA 151300Z AUTO 6SM 05/00 A3030 RMK T00500000 IEM_DS3505
ZGHA,2008-02-15 14:00,ZGHA 151400Z AUTO 6SM 04/00 A3033 RMK T00400000 IEM_DS3505
ZGHA,2008-02-15 15:00,ZGHA 151500Z AUTO 06002KT 6SM 04/00 A3033 RMK T00400000 IEM_DS3505
ZGHA,2008-02-15 16:00,ZGHA 151600Z AUTO 09004KT 6SM 03/00 A3033 RMK T00300000 IEM_DS3505
ZGHA,2008-02-15 17:00,ZGHA 151700Z AUTO 07004KT 6SM 04/M01 A3030 RMK T00401010 IEM_DS3505
ZGHA,2008-02-15 18:00,ZGHA 151800Z AUTO 6SM 02/M01 A3030 RMK T00201010 IEM_DS3505
ZGHA,2008-02-15 19:00,ZGHA 151900Z AUTO 1 1/2SM 01/M01 A3033 RMK T00101010 IEM_DS3505
ZGHA,2008-02-15 21:00,ZGHA 152100Z AUTO 01002KT 3SM 00/M03 A3033 RMK T00001030 IEM_DS3505
ZGHA,2008-02-15 22:00,ZGHA 152200Z AUTO 2 1/2SM 00/M02 A3033 RMK T00001020 IEM_DS3505
ZGHA,2008-02-15 23:00,ZGHA 152300Z AUTO 4SM M01/M02 A3036 RMK T10101020 IEM_DS3505
ZGHA,2008-02-16 00:00,ZGHA 160000Z AUTO 5SM 02/00 A3036 RMK T00200000 IEM_DS3505
ZGHA,2008-02-16 01:00,ZGHA 160100Z AUTO 09004KT 5SM 04/00 A3039 RMK T00400000 IEM_DS3505
ZGHA,2008-02-16 02:00,ZGHA 160200Z AUTO 6SM 07/00 A3039 RMK T00700000 IEM_DS3505
ZGHA,2008-02-16 03:00,ZGHA 160300Z AUTO 34004KT 6SM 10/00 A3039 RMK T01000000 IEM_DS3505
ZGHA,2008-02-16 04:00,ZGHA 160400Z AUTO 6SM 11/M01 A3036 RMK T01101010 IEM_DS3505
ZGHA,2008-02-16 05:00,ZGHA 160500Z AUTO 33004KT 6SM 12/M01 A3036 RMK T01201010 IEM_DS3505
ZGHA,2008-02-16 06:00,ZGHA 160600Z AUTO 6SM 13/M03 A3033 RMK T01301030 IEM_DS3505
ZGHA,2008-02-16 07:00,ZGHA 160700Z AUTO 33006KT 6SM 14/M03 A3033 RMK T01401030 IEM_DS3505
ZGHA,2008-02-16 08:00,ZGHA 160800Z AUTO 30006KT 6SM 14/00 A3033 RMK T01400000 IEM_DS3505
ZGHA,2008-02-16 09:00,ZGHA 160900Z AUTO 28004KT 6SM 14/00 A3030 RMK T01400000 IEM_DS3505
ZGHA,2008-02-16 10:00,ZGHA 161000Z AUTO 29004KT 6SM 12/01 A3033 RMK T01200010 IEM_DS3505
ZGHA,2008-02-16 11:00,ZGHA 161100Z AUTO 6SM 10/00 A3033 RMK T01000000 IEM_DS3505
ZGHA,2008-02-16 12:00,ZGHA 161200Z AUTO 35002KT 6SM 06/01 A3036 RMK T00600010 IEM_DS3505
ZGHA,2008-02-16 13:00,ZGHA 161300Z AUTO 6SM 04/01 A3036 RMK T00400010 IEM_DS3505
ZGHA,2008-02-16 14:00,ZGHA 161400Z AUTO 34002KT 6SM 05/02 A3039 RMK T00500020 IEM_DS3505
ZGHA,2008-02-16 15:00,ZGHA 161500Z AUTO 33004KT 6SM 05/02 A3039 RMK T00500020 IEM_DS3505
ZGHA,2008-02-16 16:00,ZGHA 161600Z AUTO 6SM 05/02 A3042 RMK T00500020 IEM_DS3505
ZGHA,2008-02-16 17:00,ZGHA 161700Z AUTO 6SM 06/02 A3042 RMK T00600020 IEM_DS3505
ZGHA,2008-02-16 18:00,ZGHA 161800Z AUTO 00000KT 1SM 05/02 A3042 RMK T00500020 IEM_DS3505
ZGHA,2008-02-16 21:00,ZGHA 162100Z AUTO 6SM 04/02 A3039 RMK T00400020 IEM_DS3505
ZGHA,2008-02-16 22:00,ZGHA 162200Z AUTO 36002KT 3SM 03/01 A3039 RMK T00300010 IEM_DS3505
ZGHA,2008-02-16 23:00,ZGHA 162300Z AUTO 32002KT 2 1/2SM 03/02 A3042 RMK T00300020 IEM_DS3505
ZGHA,2008-02-17 00:00,ZGHA 170000Z AUTO 36002KT 2SM 04/03 A3045 RMK T00400030 IEM_DS3505
ZGHA,2008-02-17 01:00,ZGHA 170100Z AUTO 2 1/2SM 07/03 A3045 RMK T00700030 IEM_DS3505
ZGHA,2008-02-17 02:00,ZGHA 170200Z AUTO 29006KT 2 1/2SM 08/04 A3047 RMK T00800040 IEM_DS3505
ZGHA,2008-02-17 03:00,ZGHA 170300Z AUTO 30004KT 2 1/2SM 09/03 A3047 RMK T00900030 IEM_DS3505
ZGHA,2008-02-17 04:00,ZGHA 170400Z AUTO 29004KT 4SM 09/03 A3045 RMK T00900030 IEM_DS3505
ZGHA,2008-02-17 05:00,ZGHA 170500Z AUTO 32006KT 4SM 11/03 A3042 RMK T01100030 IEM_DS3505
ZGHA,2008-02-17 06:00,ZGHA 170600Z AUTO 31006G16KT 5SM 11/03 A3039 RMK T01100030 IEM_DS3505
ZGHA,2008-02-17 07:00,ZGHA 170700Z AUTO 30010KT 4SM 11/05 A3036 RMK T01100050 IEM_DS3505
ZGHA,2008-02-17 08:00,ZGHA 170800Z AUTO 30006KT 3SM 09/04 A3036 RMK T00900040 IEM_DS3505
ZGHA,2008-02-17 09:00,ZGHA 170900Z AUTO 31006KT 2 1/2SM 09/05 A3036 RMK T00900050 IEM_DS3505
ZGHA,2008-02-17 10:00,ZGHA 171000Z AUTO 34004KT 2SM 09/05 A3036 RMK T00900050 IEM_DS3505
ZGHA,2008-02-17 11:00,ZGHA 171100Z AUTO 34004KT 2SM 08/05 A3039 RMK T00800050 IEM_DS3505
ZGHA,2008-02-17 12:00,ZGHA 171200Z AUTO 35004KT 2 1/2SM 08/05 A3039 RMK T00800050 IEM_DS3505
ZGHA,2008-02-17 13:00,ZGHA 171300Z AUTO 31006KT 2SM 08/05 A3042 RMK T00800050 IEM_DS3505
ZGHA,2008-02-17 14:00,ZGHA 171400Z AUTO 34006KT 2SM 08/05 A3045 RMK T00800050 IEM_DS3505
ZGHA,2008-02-17 15:00,ZGHA 171500Z AUTO 33008KT 1 1/2SM 07/05 A3047 RMK T00700050 IEM_DS3505
ZGHA,2008-02-17 16:00,ZGHA 171600Z AUTO 35004KT 1 1/2SM 06/06 A3047 RMK T00600060 IEM_DS3505
ZGHA,2008-02-17 17:00,ZGHA 171700Z AUTO 1 1/4SM 06/06 A3050 RMK T00600060 IEM_DS3505
ZGHA,2008-02-17 18:00,ZGHA 171800Z AUTO 3/8SM 06/06 A3047 RMK T00600060 IEM_DS3505
ZGHA,2008-02-17 19:00,ZGHA 171900Z AUTO 33006KT 1/2SM 06/06 A3050 RMK T00600060 IEM_DS3505
ZGHA,2008-02-17 20:00,ZGHA 172000Z AUTO 34006KT 1SM 06/06 A3047 RMK T00600060 IEM_DS3505
ZGHA,2008-02-17 21:00,ZGHA 172100Z AUTO 34008KT 1 1/2SM 06/06 A3050 RMK T00600060 IEM_DS3505
ZGHA,2008-02-17 22:00,ZGHA 172200Z AUTO 34006KT 1 1/2SM 06/06 A3050 RMK T00600060 IEM_DS3505
ZGHA,2008-02-17 23:00,ZGHA 172300Z AUTO 34004KT 1SM 06/05 A3053 RMK T00600050 IEM_DS3505
ZGHA,2008-02-18 00:00,ZGHA 180000Z AUTO 1SM 06/06 A3053 RMK T00600060 IEM_DS3505
ZGHA,2008-02-18 01:00,ZGHA 180100Z AUTO 34004KT 1SM 06/06 A3056 RMK T00600060 IEM_DS3505
ZGHA,2008-02-18 02:00,ZGHA 180200Z AUTO 35004KT 1 1/4SM 08/07 A3056 RMK T00800070 IEM_DS3505
ZGHA,2008-02-18 03:00,ZGHA 180300Z AUTO 36004KT 1 1/2SM 07/07 A3056 RMK T00700070 IEM_DS3505
ZGHA,2008-02-18 04:00,ZGHA 180400Z AUTO 34004KT 2SM 08/07 A3056 RMK T00800070 IEM_DS3505
ZGHA,2008-02-18 05:00,ZGHA 180500Z AUTO 32006KT 2SM 08/07 A3056 RMK T00800070 IEM_DS3505
ZGHA,2008-02-18 06:00,ZGHA 180600Z AUTO 33008KT 2 1/2SM 08/07 A3053 RMK T00800070 IEM_DS3505
ZGHA,2008-02-18 07:00,ZGHA 180700Z AUTO 36004KT 2 1/2SM 08/07 A3050 RMK T00800070 IEM_DS3505
ZGHA,2008-02-18 08:00,ZGHA 180800Z AUTO 02004KT 2 1/2SM 08/06 A3050 RMK T00800060 IEM_DS3505
ZGHA,2008-02-18 09:00,ZGHA 180900Z AUTO 03004KT 2 1/2SM 08/06 A3047 RMK T00800060 IEM_DS3505
ZGHA,2008-02-18 10:00,ZGHA 181000Z AUTO 3SM 08/06 A3047 RMK T00800060 IEM_DS3505
ZGHA,2008-02-18 11:00,ZGHA 181100Z AUTO 00000KT 2 1/2SM 07/06 A3047 RMK T00700060 IEM_DS3505
ZGHA,2008-02-18 12:00,ZGHA 181200Z AUTO 32004KT 2 1/2SM 07/06 A3050 RMK T00700060 IEM_DS3505
ZGHA,2008-02-18 13:00,ZGHA 181300Z AUTO 30006KT 2SM 07/06 A3053 RMK T00700060 IEM_DS3505
ZGHA,2008-02-18 14:00,ZGHA 181400Z AUTO 35006KT 2SM 07/06 A3053 RMK T00700060 IEM_DS3505
ZGHA,2008-02-18 15:00,ZGHA 181500Z AUTO 2SM 07/06 A3053 RMK T00700060 IEM_DS3505
ZGHA,2008-02-18 16:00,ZGHA 181600Z AUTO 31002KT 1 1/2SM 07/06 A3056 RMK T00700060 IEM_DS3505
ZGHA,2008-02-18 17:00,ZGHA 181700Z AUTO 36004KT 1 1/2SM 06/06 A3053 RMK T00600060 IEM_DS3505
ZGHA,2008-02-18 18:00,ZGHA 181800Z AUTO 1SM 06/06 A3050 RMK T00600060 IEM_DS3505
ZGHA,2008-02-18 19:00,ZGHA 181900Z AUTO 1SM 06/06 A3050 RMK T00600060 IEM_DS3505
ZGHA,2008-02-18 21:00,ZGHA 182100Z AUTO 28004KT 1 1/2SM 06/05 A3050 RMK T00600050 IEM_DS3505
ZGHA,2008-02-18 22:00,ZGHA 182200Z AUTO 1 1/4SM 06/06 A3050 RMK T00600060 IEM_DS3505
ZGHA,2008-02-18 23:00,ZGHA 182300Z AUTO 00000KT 1SM 06/05 A3050 RMK T00600050 IEM_DS3505
ZGHA,2008-02-19 00:00,ZGHA 190000Z AUTO 00000KT 1/2SM 06/06 A3053 RMK T00600060 IEM_DS3505
ZGHA,2008-02-19 01:00,ZGHA 190100Z AUTO 1SM 06/06 A3053 RMK T00600060 IEM_DS3505
ZGHA,2008-02-19 02:00,ZGHA 190200Z AUTO 29004KT 1SM 07/06 A3056 RMK T00700060 IEM_DS3505
ZGHA,2008-02-19 03:00,ZGHA 190300Z AUTO 31004KT 1SM 07/07 A3056 RMK T00700070 IEM_DS3505
ZGHA,2008-02-19 04:00,ZGHA 190400Z AUTO 1SM 08/07 A3053 RMK T00800070 IEM_DS3505
ZGHA,2008-02-19 05:00,ZGHA 190500Z AUTO 35004KT 1 1/2SM 09/07 A3050 RMK T00900070 IEM_DS3505
ZGHA,2008-02-19 06:00,ZGHA 190600Z AUTO 30004KT 1 1/2SM 08/06 A3047 RMK T00800060 IEM_DS3505
ZGHA,2008-02-19 07:00,ZGHA 190700Z AUTO 1 1/2SM 09/06 A3047 RMK T00900060 IEM_DS3505
ZGHA,2008-02-19 08:00,ZGHA 190800Z AUTO 29004KT 1 1/2SM 08/07 A3047 RMK T00800070 IEM_DS3505
ZGHA,2008-02-19 09:00,ZGHA 190900Z AUTO 29004KT 1 1/2SM 08/06 A3045 RMK T00800060 IEM_DS3505
ZGHA,2008-02-19 10:00,ZGHA 191000Z AUTO 30006KT 1 1/2SM 08/06 A3045 RMK T00800060 IEM_DS3505
ZGHA,2008-02-19 11:00,ZGHA 191100Z AUTO 31004KT 1 1/2SM 08/06 A3045 RMK T00800060 IEM_DS3505
ZGHA,2008-02-19 12:00,ZGHA 191200Z AUTO 33004KT 1 1/2SM 07/05 A3045 RMK T00700050 IEM_DS3505
ZGHA,2008-02-19 13:00,ZGHA 191300Z AUTO 31004KT 2SM 07/05 A3045 RMK T00700050 IEM_DS3505
ZGHA,2008-02-19 14:00,ZGHA 191400Z AUTO 30004KT 2SM 07/05 A3047 RMK T00700050 IEM_DS3505
ZGHA,2008-02-19 15:00,ZGHA 191500Z AUTO 2SM 07/05 A3047 RMK T00700050 IEM_DS3505
ZGHA,2008-02-19 16:00,ZGHA 191600Z AUTO 00000KT 2SM 06/05 A3047 RMK T00600050 IEM_DS3505
ZGHA,2008-02-19 17:00,ZGHA 191700Z AUTO 3/8SM 05/04 A3047 RMK T00500040 IEM_DS3505
ZGHA,2008-02-19 18:00,ZGHA 191800Z AUTO 00000KT 1/8SM 03/03 A3047 RMK T00300030 IEM_DS3505
ZGHA,2008-02-19 19:00,ZGHA 191900Z AUTO 00000KT 1/8SM 04/03 A3045 RMK T00400030 IEM_DS3505
ZGHA,2008-02-19 20:00,ZGHA 192000Z AUTO 00000KT 1/8SM 03/03 A3045 RMK T00300030 IEM_DS3505
ZGHA,2008-02-19 21:00,ZGHA 192100Z AUTO 1SM 04/03 A3045 RMK T00400030 IEM_DS3505
ZGHA,2008-02-19 22:00,ZGHA 192200Z AUTO 1SM 04/04 A3045 RMK T00400040 IEM_DS3505
ZGHA,2008-02-19 23:00,ZGHA 192300Z AUTO 00000KT 1/4SM 04/03 A3045 RMK T00400030 IEM_DS3505
ZGHA,2008-02-20 00:00,ZGHA 200000Z AUTO 3/8SM 04/04 A3045 RMK T00400040 IEM_DS3505
ZGHA,2008-02-20 01:00,ZGHA 200100Z AUTO 00000KT 3/8SM 05/05 A3045 RMK T00500050 IEM_DS3505
ZGHA,2008-02-20 02:00,ZGHA 200200Z AUTO 1SM 06/06 A3047 RMK T00600060 IEM_DS3505
ZGHA,2008-02-20 03:00,ZGHA 200300Z AUTO 33004KT 1 1/2SM 09/09 A3047 RMK T00900090 IEM_DS3505
ZGHA,2008-02-20 04:00,ZGHA 200400Z AUTO 00000KT 2SM 11/07 A3042 RMK T01100070 IEM_DS3505
ZGHA,2008-02-20 05:00,ZGHA 200500Z AUTO 03004KT 3SM 12/07 A3039 RMK T01200070 IEM_DS3505
ZGHA,2008-02-20 06:00,ZGHA 200600Z AUTO 4SM 13/07 A3036 RMK T01300070 IEM_DS3505
ZGHA,2008-02-20 07:00,ZGHA 200700Z AUTO 4SM 13/06 A3033 RMK T01300060 IEM_DS3505
ZGHA,2008-02-20 08:00,ZGHA 200800Z AUTO 00000KT 4SM 13/07 A3033 RMK T01300070 IEM_DS3505
ZGHA,2008-02-20 09:00,ZGHA 200900Z AUTO 4SM 12/07 A3030 RMK T01200070 IEM_DS3505
ZGHA,2008-02-20 10:00,ZGHA 201000Z AUTO 29004KT 4SM 12/07 A3030 RMK T01200070 IEM_DS3505
ZGHA,2008-02-20 11:00,ZGHA 201100Z AUTO 31006KT 4SM 11/07 A3033 RMK T01100070 IEM_DS3505
ZGHA,2008-02-20 12:00,ZGHA 201200Z AUTO 31006KT 2 1/2SM 11/07 A3033 RMK T01100070 IEM_DS3505
ZGHA,2008-02-20 13:00,ZGHA 201300Z AUTO 32004KT 2 1/2SM 10/07 A3033 RMK T01000070 IEM_DS3505
ZGHA,2008-02-20 14:00,ZGHA 201400Z AUTO 00000KT 2SM 10/07 A3033 RMK T01000070 IEM_DS3505
ZGHA,2008-02-20 15:00,ZGHA 201500Z AUTO 2SM 10/07 A3033 RMK T01000070 IEM_DS3505
ZGHA,2008-02-20 16:00,ZGHA 201600Z AUTO 00000KT 2SM 09/07 A3033 RMK T00900070 IEM_DS3505
ZGHA,2008-02-20 19:00,ZGHA 201900Z AUTO 00000KT 1SM 09/08 A3030 RMK T00900080 IEM_DS3505
ZGHA,2008-02-20 21:00,ZGHA 202100Z AUTO 00000KT 1SM 08/07 A3027 RMK T00800070 IEM_DS3505
ZGHA,2008-02-20 22:00,ZGHA 202200Z AUTO 00000KT 1SM 08/07 A3027 RMK T00800070 IEM_DS3505
ZGHA,2008-02-20 23:00,ZGHA 202300Z AUTO 00000KT 1SM 08/07 A3027 RMK T00800070 IEM_DS3505
ZGHA,2008-02-21 00:00,ZGHA 210000Z AUTO 00000KT 1SM 08/08 A3030 RMK T00800080 IEM_DS3505
ZGHA,2008-02-21 01:00,ZGHA 210100Z AUTO 00000KT 1 1/2SM 10/08 A3030 RMK T01000080 IEM_DS3505
ZGHA,2008-02-21 02:00,ZGHA 210200Z AUTO 1 1/2SM 10/08 A3030 RMK T01000080 IEM_DS3505
ZGHA,2008-02-21 03:00,ZGHA 210300Z AUTO 1 1/2SM 12/08 A3030 RMK T01200080 IEM_DS3505
ZGHA,2008-02-21 04:00,ZGHA 210400Z AUTO 21004KT 2SM 13/08 A3027 RMK T01300080 IEM_DS3505
ZGHA,2008-02-21 05:00,ZGHA 210500Z AUTO 22006KT 2 1/2SM 14/07 A3024 RMK T01400070 IEM_DS3505
ZGHA,2008-02-21 06:00,ZGHA 210600Z AUTO 22004KT 3SM 15/07 A3021 RMK T01500070 IEM_DS3505
ZGHA,2008-02-21 07:00,ZGHA 210700Z AUTO 22004KT 3SM 15/07 A3018 RMK T01500070 IEM_DS3505
ZGHA,2008-02-21 08:00,ZGHA 210800Z AUTO 24004KT 2SM 15/08 A3015 RMK T01500080 IEM_DS3505
ZGHA,2008-02-21 09:00,ZGHA 210900Z AUTO 17004KT 2SM 14/08 A3015 RMK T01400080 IEM_DS3505
ZGHA,2008-02-21 10:00,ZGHA 211000Z AUTO 18004KT 2SM 13/08 A3015 RMK T01300080 IEM_DS3505
ZGHA,2008-02-21 11:00,ZGHA 211100Z AUTO 21004KT 2SM 13/08 A3015 RMK T01300080 IEM_DS3505
ZGHA,2008-02-21 12:00,ZGHA 211200Z AUTO 17006KT 2SM 12/09 A3015 RMK T01200090 IEM_DS3505
ZGHA,2008-02-21 13:00,ZGHA 211300Z AUTO 2SM 12/09 A3015 RMK T01200090 IEM_DS3505
ZGHA,2008-02-21 14:00,ZGHA 211400Z AUTO 22004KT 2SM 12/09 A3015 RMK T01200090 IEM_DS3505
ZGHA,2008-02-21 15:00,ZGHA 211500Z AUTO 2 1/2SM 12/09 A3015 RMK T01200090 IEM_DS3505
ZGHA,2008-02-21 16:00,ZGHA 211600Z AUTO 19004KT 2 1/2SM 12/09 A3015 RMK T01200090 IEM_DS3505
ZGHA,2008-02-21 17:00,ZGHA 211700Z AUTO 17004KT 1SM 12/09 A3012 RMK T01200090 IEM_DS3505
ZGHA,2008-02-21 18:00,ZGHA 211800Z AUTO 1SM 11/08 A3012 RMK T01100080 IEM_DS3505
ZGHA,2008-02-21 19:00,ZGHA 211900Z AUTO 17002KT 1SM 11/09 A3012 RMK T01100090 IEM_DS3505
ZGHA,2008-02-21 20:00,ZGHA 212000Z AUTO 17002KT 1SM 11/09 A3012 RMK T01100090 IEM_DS3505
ZGHA,2008-02-21 21:00,ZGHA 212100Z AUTO 2SM 11/09 A3012 RMK T01100090 IEM_DS3505
ZGHA,2008-02-21 22:00,ZGHA 212200Z AUTO 17002KT 1 1/2SM 10/09 A3012 RMK T01000090 IEM_DS3505
ZGHA,2008-02-21 23:00,ZGHA 212300Z AUTO 1 1/2SM 10/09 A3015 RMK T01000090 IEM_DS3505
ZGHA,2008-02-22 00:00,ZGHA 220000Z AUTO 1 1/2SM 11/09 A3018 RMK T01100090 IEM_DS3505
ZGHA,2008-02-22 01:00,ZGHA 220100Z AUTO 1 1/2SM 12/09 A3021 RMK T01200090 IEM_DS3505
ZGHA,2008-02-22 02:00,ZGHA 220200Z AUTO 2SM 14/10 A3021 RMK T01400100 IEM_DS3505
ZGHA,2008-02-22 03:00,ZGHA 220300Z AUTO 24004KT 3SM 18/10 A3021 RMK T01800100 IEM_DS3505
ZGHA,2008-02-22 04:00,ZGHA 220400Z AUTO 4SM 20/11 A3018 RMK T02000110 IEM_DS3505
ZGHA,2008-02-22 05:00,ZGHA 220500Z AUTO 22004KT 5SM 22/11 A3015 RMK T02200110 IEM_DS3505
ZGHA,2008-02-22 06:00,ZGHA 220600Z AUTO 25006KT 6SM 22/11 A3012 RMK T02200110 IEM_DS3505
ZGHA,2008-02-22 07:00,ZGHA 220700Z AUTO 29004KT 6SM 24/11 A3012 RMK T02400110 IEM_DS3505
ZGHA,2008-02-22 08:00,ZGHA 220800Z AUTO 23004KT 6SM 23/11 A3009 RMK T02300110 IEM_DS3505
ZGHA,2008-02-22 09:00,ZGHA 220900Z AUTO 6SM 23/11 A3012 RMK T02300110 IEM_DS3505
ZGHA,2008-02-22 10:00,ZGHA 221000Z AUTO 6SM 21/11 A3012 RMK T02100110 IEM_DS3505
ZGHA,2008-02-22 11:00,ZGHA 221100Z AUTO 6SM 17/12 A3012 RMK T01700120 IEM_DS3505
ZGHA,2008-02-22 12:00,ZGHA 221200Z AUTO 02004KT 5SM 15/12 A3012 RMK T01500120 IEM_DS3505
ZGHA,2008-02-22 13:00,ZGHA 221300Z AUTO 02004KT 5SM 15/11 A3015 RMK T01500110 IEM_DS3505
ZGHA,2008-02-22 14:00,ZGHA 221400Z AUTO 5SM 14/11 A3015 RMK T01400110 IEM_DS3505
ZGHA,2008-02-22 15:00,ZGHA 221500Z AUTO 5SM 13/11 A3015 RMK T01300110 IEM_DS3505
ZGHA,2008-02-22 16:00,ZGHA 221600Z AUTO 4SM 12/10 A3015 RMK T01200100 IEM_DS3505
ZGHA,2008-02-22 21:00,ZGHA 222100Z AUTO 4SM 11/10 A3012 RMK T01100100 IEM_DS3505
ZGHA,2008-02-22 22:00,ZGHA 222200Z AUTO 00000KT 4SM 12/10 A3012 RMK T01200100 IEM_DS3505
ZGHA,2008-02-22 23:00,ZGHA 222300Z AUTO 4SM 11/10 A3015 RMK T01100100 IEM_DS3505
ZGHA,2008-02-23 00:00,ZGHA 230000Z AUTO 3SM 12/10 A3018 RMK T01200100 IEM_DS3505
ZGHA,2008-02-23 01:00,ZGHA 230100Z AUTO 30006KT 2 1/2SM 13/11 A3021 RMK T01300110 IEM_DS3505
ZGHA,2008-02-23 02:00,ZGHA 230200Z AUTO 1 1/2SM 13/11 A3021 RMK T01300110 IEM_DS3505
ZGHA,2008-02-23 03:00,ZGHA 230300Z AUTO 1 1/4SM 13/12 A3021 RMK T01300120 IEM_DS3505
ZGHA,2008-02-23 04:00,ZGHA 230400Z AUTO 1 1/2SM 13/12 A3021 RMK T01300120 IEM_DS3505
ZGHA,2008-02-23 05:00,ZGHA 230500Z AUTO 33004KT 1SM 13/12 A3018 RMK T01300120 IEM_DS3505
ZGHA,2008-02-23 06:00,ZGHA 230600Z AUTO 08006KT 1SM 13/12 A3012 RMK T01300120 IEM_DS3505
ZGHA,2008-02-23 07:00,ZGHA 230700Z AUTO 07004KT 2 1/2SM 15/15 A3012 RMK T01500150 IEM_DS3505
ZGHA,2008-02-23 08:00,ZGHA 230800Z AUTO 3SM 16/14 A3012 RMK T01600140 IEM_DS3505
ZGHA,2008-02-23 09:00,ZGHA 230900Z AUTO 3SM 16/14 A3012 RMK T01600140 IEM_DS3505
ZGHA,2008-02-23 10:00,ZGHA 231000Z AUTO 3SM 15/13 A3012 RMK T01500130 IEM_DS3505
ZGHA,2008-02-23 11:00,ZGHA 231100Z AUTO 2 1/2SM 14/12 A3015 RMK T01400120 IEM_DS3505
ZGHA,2008-02-23 12:00,ZGHA 231200Z AUTO 2SM 13/12 A3015 RMK T01300120 IEM_DS3505
ZGHA,2008-02-23 13:00,ZGHA 231300Z AUTO 01002KT 2SM 12/11 A3015 RMK T01200110 IEM_DS3505
ZGHA,2008-02-23 14:00,ZGHA 231400Z AUTO 1 1/2SM 12/12 A3015 RMK T01200120 IEM_DS3505
ZGHA,2008-02-23 15:00,ZGHA 231500Z AUTO 36004KT 1SM 12/11 A3015 RMK T01200110 IEM_DS3505
ZGHA,2008-02-23 16:00,ZGHA 231600Z AUTO 36004KT 1 1/4SM 11/11 A3015 RMK T01100110 IEM_DS3505
ZGHA,2008-02-23 17:00,ZGHA 231700Z AUTO 34002KT 3/8SM 11/11 A3015 RMK T01100110 IEM_DS3505
ZGHA,2008-02-23 18:00,ZGHA 231800Z AUTO 32002KT 3/8SM 11/11 A3015 RMK T01100110 IEM_DS3505
ZGHA,2008-02-23 19:00,ZGHA 231900Z AUTO 30004KT 3/8SM 11/11 A3015 RMK T01100110 IEM_DS3505
ZGHA,2008-02-23 20:00,ZGHA 232000Z AUTO 27004KT 3/8SM 11/11 A3015 RMK T01100110 IEM_DS3505
ZGHA,2008-02-23 21:00,ZGHA 232100Z AUTO 00000KT 1SM 11/11 A3015 RMK T01100110 IEM_DS3505
ZGHA,2008-02-23 22:00,ZGHA 232200Z AUTO 08004KT 1SM 10/10 A3018 RMK T01000100 IEM_DS3505
ZGHA,2008-02-23 23:00,ZGHA 232300Z AUTO 06004KT 1SM 09/09 A3018 RMK T00900090 IEM_DS3505
ZGHA,2008-02-24 00:00,ZGHA 240000Z AUTO 1SM 10/09 A3021 RMK T01000090 IEM_DS3505
ZGHA,2008-02-24 01:00,ZGHA 240100Z AUTO 30008KT 1SM 09/09 A3024 RMK T00900090 IEM_DS3505
ZGHA,2008-02-24 02:00,ZGHA 240200Z AUTO 27004KT 1SM 08/08 A3024 RMK T00800080 IEM_DS3505
ZGHA,2008-02-24 03:00,ZGHA 240300Z AUTO 1SM 08/08 A3024 RMK T00800080 IEM_DS3505
ZGHA,2008-02-24 04:00,ZGHA 240400Z AUTO 30004KT 1SM 08/08 A3021 RMK T00800080 IEM_DS3505
ZGHA,2008-02-24 05:00,ZGHA 240500Z AUTO 35006KT 1SM 08/08 A3018 RMK T00800080 IEM_DS3505
ZGHA,2008-02-24 06:00,ZGHA 240600Z AUTO 32004KT 1SM 08/07 A3018 RMK T00800070 IEM_DS3505
ZGHA,2008-02-24 07:00,ZGHA 240700Z AUTO 30006KT 1SM 07/06 A3015 RMK T00700060 IEM_DS3505
ZGHA,2008-02-24 08:00,ZGHA 240800Z AUTO 29006KT 1SM 07/06 A3015 RMK T00700060 IEM_DS3505
ZGHA,2008-02-24 09:00,ZGHA 240900Z AUTO 36006KT 1SM 07/07 A3015 RMK T00700070 IEM_DS3505
ZGHA,2008-02-24 10:00,ZGHA 241000Z AUTO 36004KT 1SM 06/06 A3015 RMK T00600060 IEM_DS3505
ZGHA,2008-02-24 11:00,ZGHA 241100Z AUTO 34006KT 1SM 06/06 A3018 RMK T00600060 IEM_DS3505
ZGHA,2008-02-24 12:00,ZGHA 241200Z AUTO 30008KT 1SM 05/05 A3021 RMK T00500050 IEM_DS3505
ZGHA,2008-02-24 13:00,ZGHA 241300Z AUTO 34008KT 1SM 05/05 A3021 RMK T00500050 IEM_DS3505
ZGHA,2008-02-24 14:00,ZGHA 241400Z AUTO 35006KT 1 1/2SM 05/05 A3024 RMK T00500050 IEM_DS3505
ZGHA,2008-02-24 15:00,ZGHA 241500Z AUTO 34010KT 2SM 04/04 A3024 RMK T00400040 IEM_DS3505
ZGHA,2008-02-24 16:00,ZGHA 241600Z AUTO 33014KT 1 1/2SM 04/04 A3024 RMK T00400040 IEM_DS3505
ZGHA,2008-02-24 17:00,ZGHA 241700Z AUTO 33010KT 1 1/2SM 04/04 A3027 RMK T00400040 IEM_DS3505
ZGHA,2008-02-24 18:00,ZGHA 241800Z AUTO 34012KT 2SM 03/03 A3027 RMK T00300030 IEM_DS3505
ZGHA,2008-02-24 19:00,ZGHA 241900Z AUTO 34012G23KT 2SM 03/03 A3024 RMK T00300030 IEM_DS3505
ZGHA,2008-02-24 20:00,ZGHA 242000Z AUTO 34010KT 1 1/2SM 03/03 A3024 RMK T00300030 IEM_DS3505
ZGHA,2008-02-24 21:00,ZGHA 242100Z AUTO 34012KT 2 1/2SM 03/03 A3024 RMK T00300030 IEM_DS3505
ZGHA,2008-02-24 22:00,ZGHA 242200Z AUTO 34010KT 2 1/2SM 03/02 A3027 RMK T00300020 IEM_DS3505
ZGHA,2008-02-24 23:00,ZGHA 242300Z AUTO 34012KT 2 1/2SM 03/02 A3027 RMK T00300020 IEM_DS3505
ZGHA,2008-02-25 00:00,ZGHA 250000Z AUTO 34010KT 2 1/2SM 03/02 A3027 RMK T00300020 IEM_DS3505
ZGHA,2008-02-25 01:00,ZGHA 250100Z AUTO 34008KT 2 1/2SM 03/03 A3030 RMK T00300030 IEM_DS3505
ZGHA,2008-02-25 02:00,ZGHA 250200Z AUTO 34008KT 2 1/2SM 03/03 A3030 RMK T00300030 IEM_DS3505
ZGHA,2008-02-25 03:00,ZGHA 250300Z AUTO 34008KT 4SM 03/02 A3027 RMK T00300020 IEM_DS3505
ZGHA,2008-02-25 04:00,ZGHA 250400Z AUTO 34010KT 3SM 03/02 A3030 RMK T00300020 IEM_DS3505
ZGHA,2008-02-25 05:00,ZGHA 250500Z AUTO 34008KT 3SM 03/02 A3027 RMK T00300020 IEM_DS3505
ZGHA,2008-02-25 06:00,ZGHA 250600Z AUTO 35008KT 2 1/2SM 02/02 A3024 RMK T00200020 IEM_DS3505
ZGHA,2008-02-25 07:00,ZGHA 250700Z AUTO 34012KT 4SM 03/02 A3024 RMK T00300020 IEM_DS3505
ZGHA,2008-02-25 08:00,ZGHA 250800Z AUTO 34008KT 2 1/2SM 03/02 A3027 RMK T00300020 IEM_DS3505
ZGHA,2008-02-25 09:00,ZGHA 250900Z AUTO 34010KT 2 1/2SM 02/02 A3030 RMK T00200020 IEM_DS3505
ZGHA,2008-02-25 10:00,ZGHA 251000Z AUTO 34010KT 2 1/2SM 02/02 A3030 RMK T00200020 IEM_DS3505
ZGHA,2008-02-25 11:00,ZGHA 251100Z AUTO 35006KT 2 1/2SM 02/02 A3030 RMK T00200020 IEM_DS3505
ZGHA,2008-02-25 12:00,ZGHA 251200Z AUTO 34008KT 2 1/2SM 02/02 A3033 RMK T00200020 IEM_DS3505
ZGHA,2008-02-25 13:00,ZGHA 251300Z AUTO 34010KT 2SM 02/02 A3036 RMK T00200020 IEM_DS3505
ZGHA,2008-02-25 14:00,ZGHA 251400Z AUTO 34008KT 2SM 02/02 A3039 RMK T00200020 IEM_DS3505
ZGHA,2008-02-25 15:00,ZGHA 251500Z AUTO 35006KT 2SM 03/02 A3039 RMK T00300020 IEM_DS3505
ZGHA,2008-02-25 16:00,ZGHA 251600Z AUTO 35006KT 2SM 02/02 A3039 RMK T00200020 IEM_DS3505
ZGHA,2008-02-25 17:00,ZGHA 251700Z AUTO 35008KT 1 1/4SM 03/02 A3039 RMK T00300020 IEM_DS3505
ZGHA,2008-02-25 18:00,ZGHA 251800Z AUTO 36008KT 1 1/4SM 02/02 A3039 RMK T00200020 IEM_DS3505
ZGHA,2008-02-25 19:00,ZGHA 251900Z AUTO 35006KT 1 1/4SM 02/02 A3039 RMK T00200020 IEM_DS3505
ZGHA,2008-02-25 20:00,ZGHA 252000Z AUTO 34008KT 1SM 02/02 A3042 RMK T00200020 IEM_DS3505
ZGHA,2008-02-25 21:00,ZGHA 252100Z AUTO 35006KT 1SM 02/01 A3042 RMK T00200010 IEM_DS3505
ZGHA,2008-02-25 22:00,ZGHA 252200Z AUTO 32004KT 1 1/4SM 02/02 A3045 RMK T00200020 IEM_DS3505
ZGHA,2008-02-25 23:00,ZGHA 252300Z AUTO 33008KT 1 1/2SM 03/02 A3047 RMK T00300020 IEM_DS3505
ZGHA,2008-02-26 00:00,ZGHA 260000Z AUTO 34006KT 1 1/2SM 03/02 A3050 RMK T00300020 IEM_DS3505
ZGHA,2008-02-26 01:00,ZGHA 260100Z AUTO 34008KT 1 1/2SM 03/03 A3053 RMK T00300030 IEM_DS3505
ZGHA,2008-02-26 02:00,ZGHA 260200Z AUTO 34008KT 2SM 04/03 A3056 RMK T00400030 IEM_DS3505
ZGHA,2008-02-26 03:00,ZGHA 260300Z AUTO 35008KT 2 1/2SM 05/03 A3056 RMK T00500030 IEM_DS3505
ZGHA,2008-02-26 04:00,ZGHA 260400Z AUTO 35008KT 3SM 06/04 A3053 RMK T00600040 IEM_DS3505
ZGHA,2008-02-26 05:00,ZGHA 260500Z AUTO 34010KT 4SM 07/04 A3050 RMK T00700040 IEM_DS3505
ZGHA,2008-02-26 06:00,ZGHA 260600Z AUTO 34010KT 5SM 08/04 A3050 RMK T00800040 IEM_DS3505
ZGHA,2008-02-26 07:00,ZGHA 260700Z AUTO 35006KT 5SM 08/04 A3050 RMK T00800040 IEM_DS3505
ZGHA,2008-02-26 08:00,ZGHA 260800Z AUTO 35010KT 4SM 08/04 A3047 RMK T00800040 IEM_DS3505
ZGHA,2008-02-26 09:00,ZGHA 260900Z AUTO 34006KT 5SM 08/04 A3047 RMK T00800040 IEM_DS3505
ZGHA,2008-02-26 10:00,ZGHA 261000Z AUTO 35004KT 5SM 08/03 A3050 RMK T00800030 IEM_DS3505
ZGHA,2008-02-26 11:00,ZGHA 261100Z AUTO 32004KT 4SM 06/03 A3050 RMK T00600030 IEM_DS3505
ZGHA,2008-02-26 12:00,ZGHA 261200Z AUTO 35004KT 4SM 04/02 A3053 RMK T00400020 IEM_DS3505
ZGHA,2008-02-26 13:00,ZGHA 261300Z AUTO 34002KT 3SM 04/03 A3053 RMK T00400030 IEM_DS3505
ZGHA,2008-02-26 14:00,ZGHA 261400Z AUTO 36002KT 2 1/2SM 02/01 A3056 RMK T00200010 IEM_DS3505
ZGHA,2008-02-26 15:00,ZGHA 261500Z AUTO 00000KT 1 1/2SM 02/01 A3056 RMK T00200010 IEM_DS3505
ZGHA,2008-02-26 16:00,ZGHA 261600Z AUTO 00000KT 1 1/2SM 01/00 A3056 RMK T00100000 IEM_DS3505
ZGHA,2008-02-26 18:00,ZGHA 261800Z AUTO 09002KT 1/4SM 01/01 RMK T00100010 IEM_DS3505
ZGHA,2008-02-26 19:00,ZGHA 261900Z AUTO 00000KT 1/8SM 00/00 RMK T00000000 IEM_DS3505
ZGHA,2008-02-26 20:00,ZGHA 262000Z AUTO 1/8SM 00/00 RMK T00000000 IEM_DS3505
ZGHA,2008-02-26 21:00,ZGHA 262100Z AUTO 3/8SM 00/00 A3056 RMK T00000000 IEM_DS3505
ZGHA,2008-02-26 22:00,ZGHA 262200Z AUTO 00000KT 1/8SM 00/M01 A3056 RMK T00001010 IEM_DS3505
ZGHA,2008-02-26 23:00,ZGHA 262300Z AUTO 34002KT 1/8SM M01/M01 A3056 RMK T10101010 IEM_DS3505
ZGHA,2008-02-27 00:00,ZGHA 270000Z AUTO 1/8SM 00/M01 A3059 RMK T00001010 IEM_DS3505
ZGHA,2008-02-27 01:00,ZGHA 270100Z AUTO 00000KT 1/4SM 01/01 A3062 RMK T00100010 IEM_DS3505
ZGHA,2008-02-27 02:00,ZGHA 270200Z AUTO 00000KT 1 1/4SM 05/05 A3059 RMK T00500050 IEM_DS3505
ZGHA,2008-02-27 03:00,ZGHA 270300Z AUTO 34004KT 2SM 08/08 A3059 RMK T00800080 IEM_DS3505
ZGHA,2008-02-27 04:00,ZGHA 270400Z AUTO 34008KT 4SM 12/03 A3056 RMK T01200030 IEM_DS3505
ZGHA,2008-02-27 05:00,ZGHA 270500Z AUTO 35006KT 6SM 12/M01 A3050 RMK T01201010 IEM_DS3505
ZGHA,2008-02-27 06:00,ZGHA 270600Z AUTO 33008KT 6SM 14/M02 A3047 RMK T01401020 IEM_DS3505
ZGHA,2008-02-27 07:00,ZGHA 270700Z AUTO 31006KT 6SM 14/M03 A3045 RMK T01401030 IEM_DS3505
ZGHA,2008-02-27 08:00,ZGHA 270800Z AUTO 32004KT 6SM 14/M02 A3042 RMK T01401020 IEM_DS3505
ZGHA,2008-02-27 09:00,ZGHA 270900Z AUTO 33004KT 6SM 13/M02 A3039 RMK T01301020 IEM_DS3505
ZGHA,2008-02-27 10:00,ZGHA 271000Z AUTO 32004KT 6SM 12/00 A3039 RMK T01200000 IEM_DS3505
ZGHA,2008-02-27 11:00,ZGHA 271100Z AUTO 29006KT 6SM 10/02 A3039 RMK T01000020 IEM_DS3505
ZGHA,2008-02-27 12:00,ZGHA 271200Z AUTO 32004KT 6SM 08/02 A3042 RMK T00800020 IEM_DS3505
ZGHA,2008-02-27 13:00,ZGHA 271300Z AUTO 00000KT 6SM 06/02 A3042 RMK T00600020 IEM_DS3505
ZGHA,2008-02-27 14:00,ZGHA 271400Z AUTO 10002KT 4SM 05/03 A3045 RMK T00500030 IEM_DS3505
ZGHA,2008-02-27 15:00,ZGHA 271500Z AUTO 20002KT 4SM 04/02 A3045 RMK T00400020 IEM_DS3505
ZGHA,2008-02-27 16:00,ZGHA 271600Z AUTO 00000KT 2 1/2SM 03/01 A3042 RMK T00300010 IEM_DS3505
ZGHA,2008-02-27 17:00,ZGHA 271700Z AUTO 10004KT 1SM 02/01 A3042 RMK T00200010 IEM_DS3505
ZGHA,2008-02-27 18:00,ZGHA 271800Z AUTO 00000KT 1SM 02/01 A3042 RMK T00200010 IEM_DS3505
ZGHA,2008-02-27 20:00,ZGHA 272000Z AUTO 18002KT 1SM 02/02 A3036 RMK T00200020 IEM_DS3505
ZGHA,2008-02-27 21:00,ZGHA 272100Z AUTO 20004KT 2SM 02/01 A3036 RMK T00200010 IEM_DS3505
ZGHA,2008-02-27 22:00,ZGHA 272200Z AUTO 00000KT 1 1/2SM 01/01 A3036 RMK T00100010 IEM_DS3505
ZGHA,2008-02-27 23:00,ZGHA 272300Z AUTO 08002KT 2SM 02/01 A3036 RMK T00200010 IEM_DS3505
ZGHA,2008-02-28 00:00,ZGHA 280000Z AUTO 08002KT 2SM 03/03 A3036 RMK T00300030 IEM_DS3505
ZGHA,2008-02-28 01:00,ZGHA 280100Z AUTO 09002KT 2 1/2SM 07/06 A3039 RMK T00700060 IEM_DS3505
ZGHA,2008-02-28 02:00,ZGHA 280200Z AUTO 4SM 10/05 A3036 RMK T01000050 IEM_DS3505
ZGHA,2008-02-28 03:00,ZGHA 280300Z AUTO 23004KT 5SM 12/03 A3036 RMK T01200030 IEM_DS3505
ZGHA,2008-02-28 04:00,ZGHA 280400Z AUTO 6SM 13/00 A3033 RMK T01300000 IEM_DS3505
ZGHA,2008-02-28 05:00,ZGHA 280500Z AUTO 22004KT 6SM 15/00 A3030 RMK T01500000 IEM_DS3505
ZGHA,2008-02-28 06:00,ZGHA 280600Z AUTO 32006KT 6SM 15/00 A3024 RMK T01500000 IEM_DS3505
ZGHA,2008-02-28 07:00,ZGHA 280700Z AUTO 29004KT 6SM 15/00 A3021 RMK T01500000 IEM_DS3505
ZGHA,2008-02-28 08:00,ZGHA 280800Z AUTO 31004KT 6SM 14/00 A3021 RMK T01400000 IEM_DS3505
ZGHA,2008-02-28 09:00,ZGHA 280900Z AUTO 32004KT 6SM 14/M01 A3021 RMK T01401010 IEM_DS3505
ZGHA,2008-02-28 10:00,ZGHA 281000Z AUTO 32004KT 6SM 13/03 A3021 RMK T01300030 IEM_DS3505
ZGHA,2008-02-28 11:00,ZGHA 281100Z AUTO 00000KT 6SM 12/04 A3021 RMK T01200040 IEM_DS3505
ZGHA,2008-02-28 12:00,ZGHA 281200Z AUTO 00000KT 6SM 10/06 A3021 RMK T01000060 IEM_DS3505
ZGHA,2008-02-28 13:00,ZGHA 281300Z AUTO 5SM 09/06 A3021 RMK T00900060 IEM_DS3505
ZGHA,2008-02-28 14:00,ZGHA 281400Z AUTO 17002KT 5SM 08/06 A3021 RMK T00800060 IEM_DS3505
ZGHA,2008-02-28 15:00,ZGHA 281500Z AUTO 17004KT 4SM 06/05 A3021 RMK T00600050 IEM_DS3505
ZGHA,2008-02-28 16:00,ZGHA 281600Z AUTO 09002KT 4SM 05/05 A3021 RMK T00500050 IEM_DS3505
ZGHA,2008-02-28 18:00,ZGHA 281800Z AUTO 00000KT 1/2SM 04/03 A3021 RMK T00400030 IEM_DS3505
ZGHA,2008-02-28 21:00,ZGHA 282100Z AUTO 00000KT 1 1/4SM 01/01 A3015 RMK T00100010 IEM_DS3505
ZGHA,2008-02-28 22:00,ZGHA 282200Z AUTO 00000KT 1 1/4SM 02/01 A3015 RMK T00200010 IEM_DS3505
ZGHA,2008-02-28 23:00,ZGHA 282300Z AUTO 00000KT 1 1/2SM 01/01 A3018 RMK T00100010 IEM_DS3505
ZGHA,2008-02-29 00:00,ZGHA 290000Z AUTO 00000KT 1 1/2SM 03/03 A3021 RMK T00300030 IEM_DS3505
ZGHA,2008-02-29 01:00,ZGHA 290100Z AUTO 2 1/2SM 07/07 A3021 RMK T00700070 IEM_DS3505
ZGHA,2008-02-29 02:00,ZGHA 290200Z AUTO 3SM 12/06 A3021 RMK T01200060 IEM_DS3505
ZGHA,2008-02-29 03:00,ZGHA 290300Z AUTO 18006KT 5SM 14/05 A3018 RMK T01400050 IEM_DS3505
ZGHA,2008-02-29 04:00,ZGHA 290400Z AUTO 6SM 16/05 A3018 RMK T01600050 IEM_DS3505
ZGHA,2008-02-29 05:00,ZGHA 290500Z AUTO 25006KT 6SM 18/04 A3015 RMK T01800040 IEM_DS3505
ZGHA,2008-02-29 06:00,ZGHA 290600Z AUTO 28006KT 6SM 19/03 A3012 RMK T01900030 IEM_DS3505
ZGHA,2008-02-29 07:00,ZGHA 290700Z AUTO 22004KT 6SM 19/03 A3009 RMK T01900030 IEM_DS3505
ZGHA,2008-02-29 08:00,ZGHA 290800Z AUTO 27004KT 6SM 19/02 A3006 RMK T01900020 IEM_DS3505
ZGHA,2008-02-29 09:00,ZGHA 290900Z AUTO 6SM 21/02 A3006 RMK T02100020 IEM_DS3505
ZGHA,2008-02-29 10:00,ZGHA 291000Z AUTO 6SM 17/01 A3006 RMK T01700010 IEM_DS3505
ZGHA,2008-02-29 11:00,ZGHA 291100Z AUTO 6SM 14/05 A3009 RMK T01400050 IEM_DS3505
ZGHA,2008-02-29 12:00,ZGHA 291200Z AUTO 6SM 09/06 A3009 RMK T00900060 IEM_DS3505
ZGHA,2008-02-29 13:00,ZGHA 291300Z AUTO 6SM 08/06 A3012 RMK T00800060 IEM_DS3505
ZGHA,2008-02-29 14:00,ZGHA 291400Z AUTO 6SM 07/06 A3012 RMK T00700060 IEM_DS3505
ZGHA,2008-02-29 15:00,ZGHA 291500Z AUTO 08002KT 5SM 06/04 A3015 RMK T00600040 IEM_DS3505
ZGHA,2008-02-29 16:00,ZGHA 291600Z AUTO 05002KT 4SM 05/04 A3015 RMK T00500040 IEM_DS3505
ZGHA,2008-02-29 17:00,ZGHA 291700Z AUTO 09002KT 1SM 04/03 A3015 RMK T00400030 IEM_DS3505
ZGHA,2008-02-29 18:00,ZGHA 291800Z AUTO 00000KT 1 1/2SM 04/03 A3015 RMK T00400030 IEM_DS3505
ZGHA,2008-02-29 19:00,ZGHA 291900Z AUTO 09002KT 1 1/2SM 04/04 A3015 RMK T00400040 IEM_DS3505
ZGHA,2008-02-29 21:00,ZGHA 292100Z AUTO 07002KT 4SM 03/02 A3015 RMK T00300020 IEM_DS3505
ZGHA,2008-02-29 22:00,ZGHA 292200Z AUTO 00000KT 2SM 02/02 A3015 RMK T00200020 IEM_DS3505
ZGHA,2008-02-29 23:00,ZGHA 292300Z AUTO 00000KT 1 1/2SM 02/02 A3018 RMK T00200020 IEM_DS3505
ZGHA,2008-03-01 00:00,ZGHA 010000Z AUTO 2 1/2SM 04/04 A3018 RMK T00400040 IEM_DS3505
ZGHA,2008-03-01 01:00,ZGHA 010100Z AUTO 00000KT 4SM 09/08 A3021 RMK T00900080 IEM_DS3505
ZGHA,2008-03-01 02:00,ZGHA 010200Z AUTO 6SM 14/08 A3021 RMK T01400080 IEM_DS3505
ZGHA,2008-03-01 03:00,ZGHA 010300Z AUTO 20004KT 6SM 17/05 A3021 RMK T01700050 IEM_DS3505
ZGHA,2008-03-01 04:00,ZGHA 010400Z AUTO 20006KT 6SM 19/04 A3018 RMK T01900040 IEM_DS3505
ZGHA,2008-03-01 05:00,ZGHA 010500Z AUTO 22006KT 6SM 20/02 A3012 RMK T02000020 IEM_DS3505
ZGHA,2008-03-01 06:00,ZGHA 010600Z AUTO 6SM 23/02 A3009 RMK T02300020 IEM_DS3505
ZGHA,2008-03-01 07:00,ZGHA 010700Z AUTO 27004KT 6SM 24/03 A3009 RMK T02400030 IEM_DS3505
ZGHA,2008-03-01 08:00,ZGHA 010800Z AUTO 6SM 23/01 A3006 RMK T02300010 IEM_DS3505
ZGHA,2008-03-01 09:00,ZGHA 010900Z AUTO 6SM 23/03 A3006 RMK T02300030 IEM_DS3505
ZGHA,2008-03-01 10:00,ZGHA 011000Z AUTO 02002KT 6SM 21/04 A3006 RMK T02100040 IEM_DS3505
ZGHA,2008-03-01 11:00,ZGHA 011100Z AUTO 6SM 16/05 A3009 RMK T01600050 IEM_DS3505
ZGHA,2008-03-01 12:00,ZGHA 011200Z AUTO 00000KT 6SM 12/08 A3012 RMK T01200080 IEM_DS3505
ZGHA,2008-03-01 13:00,ZGHA 011300Z AUTO 6SM 11/08 A3012 RMK T01100080 IEM_DS3505
ZGHA,2008-03-01 14:00,ZGHA 011400Z AUTO 00000KT 6SM 10/08 A3015 RMK T01000080 IEM_DS3505
ZGHA,2008-03-01 15:00,ZGHA 011500Z AUTO 00000KT 6SM 09/08 A3018 RMK T00900080 IEM_DS3505
ZGHA,2008-03-01 16:00,ZGHA 011600Z AUTO 07002KT 6SM 08/06 A3018 RMK T00800060 IEM_DS3505
ZGHA,2008-03-01 17:00,ZGHA 011700Z AUTO 1 1/4SM 07/06 A3018 RMK T00700060 IEM_DS3505
ZGHA,2008-03-01 21:00,ZGHA 012100Z AUTO 00000KT 3SM 05/04 A3018 RMK T00500040 IEM_DS3505
ZGHA,2008-03-01 22:00,ZGHA 012200Z AUTO 00000KT 2SM 05/05 A3021 RMK T00500050 IEM_DS3505
ZGHA,2008-03-01 23:00,ZGHA 012300Z AUTO 18002KT 1 1/4SM 04/04 A3021 RMK T00400040 IEM_DS3505
ZGHA,2008-03-02 00:00,ZGHA 020000Z AUTO 00000KT 2 1/2SM 06/05 A3024 RMK T00600050 IEM_DS3505
ZGHA,2008-03-02 01:00,ZGHA 020100Z AUTO 00000KT 3SM 09/09 A3024 RMK T00900090 IEM_DS3505
ZGHA,2008-03-02 02:00,ZGHA 020200Z AUTO 3SM 13/10 A3027 RMK T01300100 IEM_DS3505
ZGHA,2008-03-02 03:00,ZGHA 020300Z AUTO 22004KT 5SM 16/06 A3027 RMK T01600060 IEM_DS3505
ZGHA,2008-03-02 04:00,ZGHA 020400Z AUTO 6SM 20/07 A3024 RMK T02000070 IEM_DS3505
ZGHA,2008-03-02 05:00,ZGHA 020500Z AUTO 33004KT 6SM 22/06 A3021 RMK T02200060 IEM_DS3505
ZGHA,2008-03-02 06:00,ZGHA 020600Z AUTO 6SM 23/05 A3018 RMK T02300050 IEM_DS3505
ZGHA,2008-03-02 07:00,ZGHA 020700Z AUTO 32006KT 6SM 24/03 A3015 RMK T02400030 IEM_DS3505
ZGHA,2008-03-02 08:00,ZGHA 020800Z AUTO 33008KT 6SM 24/02 A3015 RMK T02400020 IEM_DS3505
ZGHA,2008-03-02 09:00,ZGHA 020900Z AUTO 30006KT 6SM 23/03 A3015 RMK T02300030 IEM_DS3505
ZGHA,2008-03-02 10:00,ZGHA 021000Z AUTO 33004KT 6SM 20/07 A3015 RMK T02000070 IEM_DS3505
ZGHA,2008-03-02 11:00,ZGHA 021100Z AUTO 36002KT 6SM 18/03 A3018 RMK T01800030 IEM_DS3505
ZGHA,2008-03-02 12:00,ZGHA 021200Z AUTO 01004KT 6SM 16/03 A3018 RMK T01600030 IEM_DS3505
ZGHA,2008-03-02 13:00,ZGHA 021300Z AUTO 6SM 12/05 A3021 RMK T01200050 IEM_DS3505
ZGHA,2008-03-02 14:00,ZGHA 021400Z AUTO 35004KT 6SM 12/06 A3021 RMK T01200060 IEM_DS3505
ZGHA,2008-03-02 15:00,ZGHA 021500Z AUTO 34004KT 6SM 11/04 A3024 RMK T01100040 IEM_DS3505
ZGHA,2008-03-02 16:00,ZGHA 021600Z AUTO 36002KT 6SM 09/05 A3027 RMK T00900050 IEM_DS3505
ZGHA,2008-03-02 18:00,ZGHA 021800Z AUTO 00000KT 3SM 08/04 A3027 RMK T00800040 IEM_DS3505
ZGHA,2008-03-02 21:00,ZGHA 022100Z AUTO 3SM 07/05 A3030 RMK T00700050 IEM_DS3505
ZGHA,2008-03-02 22:00,ZGHA 022200Z AUTO 08002KT 2 1/2SM 07/04 A3030 RMK T00700040 IEM_DS3505
ZGHA,2008-03-02 23:00,ZGHA 022300Z AUTO 32004KT 4SM 06/04 A3033 RMK T00600040 IEM_DS3505
ZGHA,2008-03-03 00:00,ZGHA 030000Z AUTO 35004KT 5SM 08/04 A3036 RMK T00800040 IEM_DS3505
ZGHA,2008-03-03 01:00,ZGHA 030100Z AUTO 5SM 11/03 A3036 RMK T01100030 IEM_DS3505
ZGHA,2008-03-03 02:00,ZGHA 030200Z AUTO 02004KT 5SM 14/03 A3036 RMK T01400030 IEM_DS3505
ZGHA,2008-03-03 03:00,ZGHA 030300Z AUTO 02004KT 6SM 17/02 A3036 RMK T01700020 IEM_DS3505
ZGHA,2008-03-03 04:00,ZGHA 030400Z AUTO 07006KT 6SM 20/00 A3033 RMK T02000000 IEM_DS3505
ZGHA,2008-03-03 05:00,ZGHA 030500Z AUTO 6SM 20/M01 A3030 RMK T02001010 IEM_DS3505
ZGHA,2008-03-03 06:00,ZGHA 030600Z AUTO 34004KT 6SM 21/01 A3027 RMK T02100010 IEM_DS3505
ZGHA,2008-03-03 07:00,ZGHA 030700Z AUTO 01006KT 6SM 22/M01 A3024 RMK T02201010 IEM_DS3505
ZGHA,2008-03-03 08:00,ZGHA 030800Z AUTO 33008KT 6SM 22/M03 A3021 RMK T02201030 IEM_DS3505
ZGHA,2008-03-03 09:00,ZGHA 030900Z AUTO 33012KT 6SM 20/M04 A3021 RMK T02001040 IEM_DS3505
ZGHA,2008-03-03 10:00,ZGHA 031000Z AUTO 36004KT 6SM 18/M03 A3021 RMK T01801030 IEM_DS3505
ZGHA,2008-03-03 11:00,ZGHA 031100Z AUTO 35002KT 6SM 15/M01 A3024 RMK T01501010 IEM_DS3505
ZGHA,2008-03-03 12:00,ZGHA 031200Z AUTO 36004KT 6SM 15/M01 A3024 RMK T01501010 IEM_DS3505
ZGHA,2008-03-03 13:00,ZGHA 031300Z AUTO 34004KT 6SM 11/M01 A3027 RMK T01101010 IEM_DS3505
ZGHA,2008-03-03 14:00,ZGHA 031400Z AUTO 11002KT 6SM 10/03 A3027 RMK T01000030 IEM_DS3505
ZGHA,2008-03-03 15:00,ZGHA 031500Z AUTO 35004KT 6SM 09/02 A3027 RMK T00900020 IEM_DS3505
ZGHA,2008-03-03 16:00,ZGHA 031600Z AUTO 02004KT 6SM 08/02 A3027 RMK T00800020 IEM_DS3505
ZGHA,2008-03-03 17:00,ZGHA 031700Z AUTO 4SM 07/04 A3027 RMK T00700040 IEM_DS3505
ZGHA,2008-03-03 18:00,ZGHA 031800Z AUTO 3SM 08/04 A3027 RMK T00800040 IEM_DS3505
ZGHA,2008-03-03 19:00,ZGHA 031900Z AUTO 00000KT 3SM 08/03 A3027 RMK T00800030 IEM_DS3505
ZGHA,2008-03-03 21:00,ZGHA 032100Z AUTO 5SM 08/03 A3024 RMK T00800030 IEM_DS3505
ZGHA,2008-03-03 22:00,ZGHA 032200Z AUTO 06004KT 5SM 09/02 A3027 RMK T00900020 IEM_DS3505
ZGHA,2008-03-03 23:00,ZGHA 032300Z AUTO 06004KT 5SM 09/01 A3027 RMK T00900010 IEM_DS3505
ZGHA,2008-03-04 00:00,ZGHA 040000Z AUTO 06006KT 5SM 09/01 A3027 RMK T00900010 IEM_DS3505
ZGHA,2008-03-04 01:00,ZGHA 040100Z AUTO 06004KT 5SM 11/02 A3030 RMK T01100020 IEM_DS3505
ZGHA,2008-03-04 02:00,ZGHA 040200Z AUTO 09004KT 6SM 14/00 A3030 RMK T01400000 IEM_DS3505
ZGHA,2008-03-04 03:00,ZGHA 040300Z AUTO 6SM 17/01 A3030 RMK T01700010 IEM_DS3505
ZGHA,2008-03-04 04:00,ZGHA 040400Z AUTO 07004KT 6SM 20/01 A3027 RMK T02000010 IEM_DS3505
ZGHA,2008-03-04 05:00,ZGHA 040500Z AUTO 6SM 20/00 A3024 RMK T02000000 IEM_DS3505
ZGHA,2008-03-04 06:00,ZGHA 040600Z AUTO 36004KT 6SM 20/00 A3021 RMK T02000000 IEM_DS3505
ZGHA,2008-03-04 07:00,ZGHA 040700Z AUTO 06004KT 6SM 19/01 A3018 RMK T01900010 IEM_DS3505
ZGHA,2008-03-04 08:00,ZGHA 040800Z AUTO 03004KT 6SM 18/02 A3018 RMK T01800020 IEM_DS3505
ZGHA,2008-03-04 09:00,ZGHA 040900Z AUTO 36004KT 6SM 18/02 A3018 RMK T01800020 IEM_DS3505
ZGHA,2008-03-04 10:00,ZGHA 041000Z AUTO 02004KT 6SM 17/02 A3021 RMK T01700020 IEM_DS3505
ZGHA,2008-03-04 11:00,ZGHA 041100Z AUTO 6SM 15/03 A3018 RMK T01500030 IEM_DS3505
ZGHA,2008-03-04 12:00,ZGHA 041200Z AUTO 6SM 14/04 A3021 RMK T01400040 IEM_DS3505
ZGHA,2008-03-04 13:00,ZGHA 041300Z AUTO 05006KT 6SM 14/04 A3021 RMK T01400040 IEM_DS3505
ZGHA,2008-03-04 14:00,ZGHA 041400Z AUTO 29004KT 6SM 13/04 A3024 RMK T01300040 IEM_DS3505
ZGHA,2008-03-04 15:00,ZGHA 041500Z AUTO 24004KT 6SM 13/05 A3024 RMK T01300050 IEM_DS3505
ZGHA,2008-03-04 16:00,ZGHA 041600Z AUTO 10002KT 6SM 13/04 A3021 RMK T01300040 IEM_DS3505
ZGHA,2008-03-04 18:00,ZGHA 041800Z AUTO 32002KT 4SM 12/05 A3021 RMK T01200050 IEM_DS3505
ZGHA,2008-03-04 19:00,ZGHA 041900Z AUTO 30002KT 3SM 11/05 A3021 RMK T01100050 IEM_DS3505
ZGHA,2008-03-04 21:00,ZGHA 042100Z AUTO 29004KT 3SM 11/07 A3021 RMK T01100070 IEM_DS3505
ZGHA,2008-03-04 22:00,ZGHA 042200Z AUTO 33004KT 2SM 08/05 A3024 RMK T00800050 IEM_DS3505
ZGHA,2008-03-04 23:00,ZGHA 042300Z AUTO 34002KT 1 1/2SM 09/07 A3024 RMK T00900070 IEM_DS3505
ZGHA,2008-03-05 00:00,ZGHA 050000Z AUTO 31004KT 1 1/2SM 10/08 A3024 RMK T01000080 IEM_DS3505
ZGHA,2008-03-05 01:00,ZGHA 050100Z AUTO 30004KT 1 1/2SM 12/08 A3027 RMK T01200080 IEM_DS3505
ZGHA,2008-03-05 02:00,ZGHA 050200Z AUTO 1 1/2SM 14/06 A3027 RMK T01400060 IEM_DS3505
ZGHA,2008-03-05 03:00,ZGHA 050300Z AUTO 00000KT 3SM 16/04 A3024 RMK T01600040 IEM_DS3505
ZGHA,2008-03-05 04:00,ZGHA 050400Z AUTO 5SM 18/02 A3021 RMK T01800020 IEM_DS3505
ZGHA,2008-03-05 05:00,ZGHA 050500Z AUTO 5SM 19/02 A3018 RMK T01900020 IEM_DS3505
ZGHA,2008-03-05 06:00,ZGHA 050600Z AUTO 6SM 20/00 A3015 RMK T02000000 IEM_DS3505
ZGHA,2008-03-05 07:00,ZGHA 050700Z AUTO 6SM 20/02 A3012 RMK T02000020 IEM_DS3505
ZGHA,2008-03-05 08:00,ZGHA 050800Z AUTO 6SM 21/03 A3012 RMK T02100030 IEM_DS3505
ZGHA,2008-03-05 09:00,ZGHA 050900Z AUTO 6SM 20/04 A3009 RMK T02000040 IEM_DS3505
ZGHA,2008-03-05 10:00,ZGHA 051000Z AUTO 00000KT 6SM 18/08 A3009 RMK T01800080 IEM_DS3505
ZGHA,2008-03-05 11:00,ZGHA 051100Z AUTO 07002KT 6SM 16/09 A3009 RMK T01600090 IEM_DS3505
ZGHA,2008-03-05 12:00,ZGHA 051200Z AUTO 6SM 15/09 A3009 RMK T01500090 IEM_DS3505
ZGHA,2008-03-05 13:00,ZGHA 051300Z AUTO 00000KT 6SM 15/09 A3012 RMK T01500090 IEM_DS3505
ZGHA,2008-03-05 14:00,ZGHA 051400Z AUTO 00000KT 4SM 13/10 A3012 RMK T01300100 IEM_DS3505
ZGHA,2008-03-05 15:00,ZGHA 051500Z AUTO 00000KT 4SM 14/09 A3012 RMK T01400090 IEM_DS3505
ZGHA,2008-03-05 16:00,ZGHA 051600Z AUTO 29004KT 4SM 14/07 A3012 RMK T01400070 IEM_DS3505
ZGHA,2008-03-05 17:00,ZGHA 051700Z AUTO 28008KT 2SM 14/08 A3018 RMK T01400080 IEM_DS3505
ZGHA,2008-03-05 18:00,ZGHA 051800Z AUTO 07004KT 2 1/2SM 13/09 A3015 RMK T01300090 IEM_DS3505
ZGHA,2008-03-05 19:00,ZGHA 051900Z AUTO 01004KT 4SM 13/07 A3012 RMK T01300070 IEM_DS3505
ZGHA,2008-03-05 21:00,ZGHA 052100Z AUTO 30002KT 4SM 11/09 A3012 RMK T01100090 IEM_DS3505
ZGHA,2008-03-05 22:00,ZGHA 052200Z AUTO 33002KT 3SM 11/08 A3012 RMK T01100080 IEM_DS3505
ZGHA,2008-03-05 23:00,ZGHA 052300Z AUTO 3SM 11/07 A3015 RMK T01100070 IEM_DS3505
ZGHA,2008-03-06 00:00,ZGHA 060000Z AUTO 34002KT 4SM 11/08 A3018 RMK T01100080 IEM_DS3505
ZGHA,2008-03-06 01:00,ZGHA 060100Z AUTO 00000KT 3SM 13/09 A3018 RMK T01300090 IEM_DS3505
ZGHA,2008-03-06 02:00,ZGHA 060200Z AUTO 36004KT 4SM 16/07 A3018 RMK T01600070 IEM_DS3505
ZGHA,2008-03-06 03:00,ZGHA 060300Z AUTO 34004KT 4SM 18/07 A3018 RMK T01800070 IEM_DS3505
ZGHA,2008-03-06 04:00,ZGHA 060400Z AUTO 33004KT 4SM 19/06 A3018 RMK T01900060 IEM_DS3505
ZGHA,2008-03-06 05:00,ZGHA 060500Z AUTO 35008KT 4SM 20/07 A3015 RMK T02000070 IEM_DS3505
ZGHA,2008-03-06 06:00,ZGHA 060600Z AUTO 34008KT 4SM 19/07 A3012 RMK T01900070 IEM_DS3505
ZGHA,2008-03-06 07:00,ZGHA 060700Z AUTO 34010KT 3SM 19/08 A3009 RMK T01900080 IEM_DS3505
ZGHA,2008-03-06 08:00,ZGHA 060800Z AUTO 34010KT 4SM 18/07 A3009 RMK T01800070 IEM_DS3505
ZGHA,2008-03-06 09:00,ZGHA 060900Z AUTO 35008KT 2 1/2SM 17/08 A3012 RMK T01700080 IEM_DS3505
ZGHA,2008-03-06 10:00,ZGHA 061000Z AUTO 34008KT 2SM 15/10 A3015 RMK T01500100 IEM_DS3505
ZGHA,2008-03-06 11:00,ZGHA 061100Z AUTO 31008KT 1 1/4SM 13/10 A3018 RMK T01300100 IEM_DS3505
ZGHA,2008-03-06 12:00,ZGHA 061200Z AUTO 30008KT 2SM 12/09 A3021 RMK T01200090 IEM_DS3505
ZGHA,2008-03-06 13:00,ZGHA 061300Z AUTO 32006KT 2SM 12/10 A3024 RMK T01200100 IEM_DS3505
ZGHA,2008-03-06 14:00,ZGHA 061400Z AUTO 33010KT 2SM 11/10 A3027 RMK T01100100 IEM_DS3505
ZGHA,2008-03-06 15:00,ZGHA 061500Z AUTO 34010KT 1 1/2SM 11/10 A3027 RMK T01100100 IEM_DS3505
ZGHA,2008-03-06 16:00,ZGHA 061600Z AUTO 33010KT 1 1/2SM 11/10 A3030 RMK T01100100 IEM_DS3505
ZGHA,2008-03-06 17:00,ZGHA 061700Z AUTO 33008KT 1SM 11/10 A3030 RMK T01100100 IEM_DS3505
ZGHA,2008-03-06 18:00,ZGHA 061800Z AUTO 34008KT 1SM 10/10 A3030 RMK T01000100 IEM_DS3505
ZGHA,2008-03-06 19:00,ZGHA 061900Z AUTO 35006KT 1SM 10/10 A3030 RMK T01000100 IEM_DS3505
ZGHA,2008-03-06 20:00,ZGHA 062000Z AUTO 35008KT 1SM 10/10 A3027 RMK T01000100 IEM_DS3505
ZGHA,2008-03-06 21:00,ZGHA 062100Z AUTO 34006KT 1 1/4SM 10/10 A3030 RMK T01000100 IEM_DS3505
ZGHA,2008-03-06 22:00,ZGHA 062200Z AUTO 34006KT 1 1/4SM 10/09 A3030 RMK T01000090 IEM_DS3505
ZGHA,2008-03-06 23:00,ZGHA 062300Z AUTO 34006KT 1SM 10/09 A3033 RMK T01000090 IEM_DS3505
ZGHA,2008-03-07 00:00,ZGHA 070000Z AUTO 34008KT 1SM 10/09 A3036 RMK T01000090 IEM_DS3505
ZGHA,2008-03-07 01:00,ZGHA 070100Z AUTO 34008KT 1 1/4SM 10/09 A3036 RMK T01000090 IEM_DS3505
ZGHA,2008-03-07 02:00,ZGHA 070200Z AUTO 34006KT 1 1/2SM 10/09 A3039 RMK T01000090 IEM_DS3505
ZGHA,2008-03-07 03:00,ZGHA 070300Z AUTO 33008KT 2SM 10/09 A3039 RMK T01000090 IEM_DS3505
ZGHA,2008-03-07 04:00,ZGHA 070400Z AUTO 32010KT 2SM 10/09 A3036 RMK T01000090 IEM_DS3505
ZGHA,2008-03-07 05:00,ZGHA 070500Z AUTO 33008KT 2 1/2SM 10/09 A3033 RMK T01000090 IEM_DS3505
ZGHA,2008-03-07 06:00,ZGHA 070600Z AUTO 31008KT 2 1/2SM 10/09 A3033 RMK T01000090 IEM_DS3505
ZGHA,2008-03-07 07:00,ZGHA 070700Z AUTO 32008KT 1 1/4SM 09/09 A3033 RMK T00900090 IEM_DS3505
ZGHA,2008-03-07 08:00,ZGHA 070800Z AUTO 33006KT 1 1/4SM 09/09 A3030 RMK T00900090 IEM_DS3505
ZGHA,2008-03-07 09:00,ZGHA 070900Z AUTO 32006KT 1 1/4SM 09/09 A3030 RMK T00900090 IEM_DS3505
ZGHA,2008-03-07 10:00,ZGHA 071000Z AUTO 33006KT 1 1/4SM 09/09 A3033 RMK T00900090 IEM_DS3505
ZGHA,2008-03-07 11:00,ZGHA 071100Z AUTO 33006KT 1 1/4SM 09/09 A3033 RMK T00900090 IEM_DS3505
ZGHA,2008-03-07 12:00,ZGHA 071200Z AUTO 31004KT 1 1/4SM 09/09 A3036 RMK T00900090 IEM_DS3505
ZGHA,2008-03-07 13:00,ZGHA 071300Z AUTO 30006KT 1SM 09/09 A3036 RMK T00900090 IEM_DS3505
ZGHA,2008-03-07 14:00,ZGHA 071400Z AUTO 31008KT 1SM 08/08 A3039 RMK T00800080 IEM_DS3505
ZGHA,2008-03-07 15:00,ZGHA 071500Z AUTO 32006KT 1SM 08/08 A3036 RMK T00800080 IEM_DS3505
ZGHA,2008-03-07 16:00,ZGHA 071600Z AUTO 29004KT 1SM 08/08 A3036 RMK T00800080 IEM_DS3505
ZGHA,2008-03-07 17:00,ZGHA 071700Z AUTO 29006KT 1/4SM 08/08 A3036 RMK T00800080 IEM_DS3505
ZGHA,2008-03-07 18:00,ZGHA 071800Z AUTO 30008KT 1/4SM 08/07 A3036 RMK T00800070 IEM_DS3505
ZGHA,2008-03-07 19:00,ZGHA 071900Z AUTO 30008KT 1/2SM 07/07 A3033 RMK T00700070 IEM_DS3505
ZGHA,2008-03-07 20:00,ZGHA 072000Z AUTO 29006KT 1/2SM 07/07 A3033 RMK T00700070 IEM_DS3505
ZGHA,2008-03-07 21:00,ZGHA 072100Z AUTO 29004KT 1SM 08/08 A3033 RMK T00800080 IEM_DS3505
ZGHA,2008-03-07 22:00,ZGHA 072200Z AUTO 30004KT 1SM 07/07 A3033 RMK T00700070 IEM_DS3505
ZGHA,2008-03-07 23:00,ZGHA 072300Z AUTO 1SM 08/07 A3033 RMK T00800070 IEM_DS3505
ZGHA,2008-03-08 00:00,ZGHA 080000Z AUTO 27004KT 1 1/2SM 08/08 A3036 RMK T00800080 IEM_DS3505
ZGHA,2008-03-08 01:00,ZGHA 080100Z AUTO 27004KT 1 1/2SM 08/ A3036 RMK IEM_DS3505
ZGHA,2008-03-08 02:00,ZGHA 080200Z AUTO 20004KT 2SM 10/09 A3036 RMK T01000090 IEM_DS3505
ZGHA,2008-03-08 03:00,ZGHA 080300Z AUTO 2 1/2SM 12/09 A3036 RMK T01200090 IEM_DS3505
ZGHA,2008-03-08 04:00,ZGHA 080400Z AUTO 3SM 12/07 A3033 RMK T01200070 IEM_DS3505
ZGHA,2008-03-08 05:00,ZGHA 080500Z AUTO 4SM 12/07 A3030 RMK T01200070 IEM_DS3505
ZGHA,2008-03-08 06:00,ZGHA 080600Z AUTO 4SM 13/08 A3030 RMK T01300080 IEM_DS3505
ZGHA,2008-03-08 07:00,ZGHA 080700Z AUTO 4SM 13/08 A3027 RMK T01300080 IEM_DS3505
ZGHA,2008-03-08 08:00,ZGHA 080800Z AUTO 18004KT 5SM 13/07 A3024 RMK T01300070 IEM_DS3505
ZGHA,2008-03-08 09:00,ZGHA 080900Z AUTO 10002KT 5SM 14/08 A3024 RMK T01400080 IEM_DS3505
ZGHA,2008-03-08 10:00,ZGHA 081000Z AUTO 6SM 13/08 A3024 RMK T01300080 IEM_DS3505
ZGHA,2008-03-08 11:00,ZGHA 081100Z AUTO 4SM 11/08 A3024 RMK T01100080 IEM_DS3505
ZGHA,2008-03-08 12:00,ZGHA 081200Z AUTO 4SM 09/07 A3024 RMK T00900070 IEM_DS3505
ZGHA,2008-03-08 13:00,ZGHA 081300Z AUTO 12002KT 3SM 09/07 A3027 RMK T00900070 IEM_DS3505
ZGHA,2008-03-08 14:00,ZGHA 081400Z AUTO 12002KT 2 1/2SM 07/06 A3027 RMK T00700060 IEM_DS3505
ZGHA,2008-03-08 15:00,ZGHA 081500Z AUTO 2SM 07/06 A3027 RMK T00700060 IEM_DS3505
ZGHA,2008-03-08 16:00,ZGHA 081600Z AUTO 13002KT 1 1/2SM 06/05 A3027 RMK T00600050 IEM_DS3505
ZGHA,2008-03-08 17:00,ZGHA 081700Z AUTO 34002KT 1/2SM 06/05 A3027 RMK T00600050 IEM_DS3505
ZGHA,2008-03-08 18:00,ZGHA 081800Z AUTO 00000KT 1/8SM 05/04 A3027 RMK T00500040 IEM_DS3505
ZGHA,2008-03-08 19:00,ZGHA 081900Z AUTO 3/8SM 05/05 A3024 RMK T00500050 IEM_DS3505
ZGHA,2008-03-08 20:00,ZGHA 082000Z AUTO 36002KT 1/8SM 05/04 A3024 RMK T00500040 IEM_DS3505
ZGHA,2008-03-08 21:00,ZGHA 082100Z AUTO 1SM 05/05 A3024 RMK T00500050 IEM_DS3505
ZGHA,2008-03-08 22:00,ZGHA 082200Z AUTO 33002KT 3/8SM 04/04 A3024 RMK T00400040 IEM_DS3505
ZGHA,2008-03-08 23:00,ZGHA 082300Z AUTO 3/8SM 03/03 A3027 RMK T00300030 IEM_DS3505
ZGHA,2008-03-09 00:00,ZGHA 090000Z AUTO 00000KT 3/8SM 05/05 A3027 RMK T00500050 IEM_DS3505
ZGHA,2008-03-09 01:00,ZGHA 090100Z AUTO 2SM 08/08 A3027 RMK T00800080 IEM_DS3505
ZGHA,2008-03-09 02:00,ZGHA 090200Z AUTO 4SM 11/10 A3027 RMK T01100100 IEM_DS3505
ZGHA,2008-03-09 03:00,ZGHA 090300Z AUTO 14004KT 5SM 14/12 A3027 RMK T01400120 IEM_DS3505
ZGHA,2008-03-09 04:00,ZGHA 090400Z AUTO 6SM 17/11 A3024 RMK T01700110 IEM_DS3505
ZGHA,2008-03-09 05:00,ZGHA 090500Z AUTO 6SM 18/11 A3018 RMK T01800110 IEM_DS3505
ZGHA,2008-03-09 06:00,ZGHA 090600Z AUTO 24004KT 6SM 18/10 A3015 RMK T01800100 IEM_DS3505
ZGHA,2008-03-09 07:00,ZGHA 090700Z AUTO 22004KT 6SM 20/11 A3012 RMK T02000110 IEM_DS3505
ZGHA,2008-03-09 08:00,ZGHA 090800Z AUTO 25006KT 6SM 19/11 A3015 RMK T01900110 IEM_DS3505
ZGHA,2008-03-09 09:00,ZGHA 090900Z AUTO 28006KT 6SM 18/11 A3012 RMK T01800110 IEM_DS3505
ZGHA,2008-03-09 10:00,ZGHA 091000Z AUTO 28006KT 4SM 17/11 A3015 RMK T01700110 IEM_DS3505
ZGHA,2008-03-09 11:00,ZGHA 091100Z AUTO 31004KT 4SM 16/11 A3015 RMK T01600110 IEM_DS3505
ZGHA,2008-03-09 12:00,ZGHA 091200Z AUTO 36004KT 2 1/2SM 14/12 A3015 RMK T01400120 IEM_DS3505
ZGHA,2008-03-09 13:00,ZGHA 091300Z AUTO 00000KT 2 1/2SM 13/12 A3018 RMK T01300120 IEM_DS3505
ZGHA,2008-03-09 14:00,ZGHA 091400Z AUTO 2SM 13/12 A3018 RMK T01300120 IEM_DS3505
ZGHA,2008-03-09 15:00,ZGHA 091500Z AUTO 2SM 12/12 A3018 RMK T01200120 IEM_DS3505
ZGHA,2008-03-09 16:00,ZGHA 091600Z AUTO 1 1/4SM 13/12 A3018 RMK T01300120 IEM_DS3505
ZGHA,2008-03-09 17:00,ZGHA 091700Z AUTO 32002KT 1SM 12/12 A3018 RMK T01200120 IEM_DS3505
ZGHA,2008-03-09 18:00,ZGHA 091800Z AUTO 1SM 12/12 A3018 RMK T01200120 IEM_DS3505
ZGHA,2008-03-09 19:00,ZGHA 091900Z AUTO 1SM 12/12 A3015 RMK T01200120 IEM_DS3505
ZGHA,2008-03-09 20:00,ZGHA 092000Z AUTO 1SM 12/12 A3015 RMK T01200120 IEM_DS3505
ZGHA,2008-03-09 21:00,ZGHA 092100Z AUTO 00000KT 1SM 12/12 A3015 RMK T01200120 IEM_DS3505
ZGHA,2008-03-09 22:00,ZGHA 092200Z AUTO 00000KT 1SM 12/12 A3015 RMK T01200120 IEM_DS3505
ZGHA,2008-03-09 23:00,ZGHA 092300Z AUTO 00000KT 1SM 12/12 A3015 RMK T01200120 IEM_DS3505
ZGHA,2008-03-10 00:00,ZGHA 100000Z AUTO 00000KT 1SM 12/12 A3018 RMK T01200120 IEM_DS3505
ZGHA,2008-03-10 01:00,ZGHA 100100Z AUTO 1SM 12/12 A3018 RMK T01200120 IEM_DS3505
ZGHA,2008-03-10 02:00,ZGHA 100200Z AUTO 00000KT 1/2SM 13/12 A3021 RMK T01300120 IEM_DS3505
ZGHA,2008-03-10 03:00,ZGHA 100300Z AUTO 1SM 13/13 A3018 RMK T01300130 IEM_DS3505
ZGHA,2008-03-10 04:00,ZGHA 100400Z AUTO 1 1/2SM 15/15 A3015 RMK T01500150 IEM_DS3505
ZGHA,2008-03-10 05:00,ZGHA 100500Z AUTO 19004KT 3SM 17/15 A3012 RMK T01700150 IEM_DS3505
ZGHA,2008-03-10 06:00,ZGHA 100600Z AUTO 20006KT 5SM 18/13 A3009 RMK T01800130 IEM_DS3505
ZGHA,2008-03-10 07:00,ZGHA 100700Z AUTO 20006KT 5SM 17/13 A3006 RMK T01700130 IEM_DS3505
ZGHA,2008-03-10 08:00,ZGHA 100800Z AUTO 21004KT 5SM 17/14 A3006 RMK T01700140 IEM_DS3505
ZGHA,2008-03-10 09:00,ZGHA 100900Z AUTO 6SM 18/14 A3006 RMK T01800140 IEM_DS3505
ZGHA,2008-03-10 10:00,ZGHA 101000Z AUTO 20006KT 6SM 17/13 A3006 RMK T01700130 IEM_DS3505
ZGHA,2008-03-10 11:00,ZGHA 101100Z AUTO 19004KT 4SM 15/13 A3006 RMK T01500130 IEM_DS3505
ZGHA,2008-03-10 12:00,ZGHA 101200Z AUTO 19004KT 3SM 14/12 A3009 RMK T01400120 IEM_DS3505
ZGHA,2008-03-10 13:00,ZGHA 101300Z AUTO 18004KT 3SM 14/12 A3009 RMK T01400120 IEM_DS3505
ZGHA,2008-03-10 14:00,ZGHA 101400Z AUTO 17004KT 2 1/2SM 13/12 A3012 RMK T01300120 IEM_DS3505
ZGHA,2008-03-10 15:00,ZGHA 101500Z AUTO 1 1/2SM 12/11 A3012 RMK T01200110 IEM_DS3505
ZGHA,2008-03-10 16:00,ZGHA 101600Z AUTO 1 1/2SM 12/12 A3012 RMK T01200120 IEM_DS3505
ZGHA,2008-03-10 17:00,ZGHA 101700Z AUTO 1SM 11/11 A3012 RMK T01100110 IEM_DS3505
ZGHA,2008-03-10 18:00,ZGHA 101800Z AUTO 1/2SM 11/11 A3012 RMK T01100110 IEM_DS3505
ZGHA,2008-03-10 19:00,ZGHA 101900Z AUTO 1/8SM 09/09 A3009 RMK T00900090 IEM_DS3505
ZGHA,2008-03-10 20:00,ZGHA 102000Z AUTO 18002KT 1/8SM 10/10 A3009 RMK T01000100 IEM_DS3505
ZGHA,2008-03-10 21:00,ZGHA 102100Z AUTO 00000KT 1 1/4SM 08/08 A3009 RMK T00800080 IEM_DS3505
ZGHA,2008-03-10 22:00,ZGHA 102200Z AUTO 1SM 08/08 A3012 RMK T00800080 IEM_DS3505
ZGHA,2008-03-10 23:00,ZGHA 102300Z AUTO 00000KT 1/4SM 08/08 A3012 RMK T00800080 IEM_DS3505
ZGHA,2008-03-11 00:00,ZGHA 110000Z AUTO 1SM 10/10 A3015 RMK T01000100 IEM_DS3505
ZGHA,2008-03-11 01:00,ZGHA 110100Z AUTO 1SM 13/12 A3015 RMK T01300120 IEM_DS3505
ZGHA,2008-03-11 02:00,ZGHA 110200Z AUTO 20008KT 2 1/2SM 16/15 A3015 RMK T01600150 IEM_DS3505
ZGHA,2008-03-11 03:00,ZGHA 110300Z AUTO 18006KT 4SM 18/15 A3015 RMK T01800150 IEM_DS3505
ZGHA,2008-03-11 04:00,ZGHA 110400Z AUTO 19006KT 6SM 19/15 A3012 RMK T01900150 IEM_DS3505
ZGHA,2008-03-11 06:00,ZGHA 110600Z AUTO 19006KT 6SM 22/14 A3003 RMK T02200140 IEM_DS3505
ZGHA,2008-03-11 07:00,ZGHA 110700Z AUTO 22004KT 6SM 22/14 A3003 RMK T02200140 IEM_DS3505
ZGHA,2008-03-11 08:00,ZGHA 110800Z AUTO 23004KT 6SM 24/15 A3000 RMK T02400150 IEM_DS3505
ZGHA,2008-03-11 09:00,ZGHA 110900Z AUTO 20006KT 6SM 23/14 A3000 RMK T02300140 IEM_DS3505
ZGHA,2008-03-11 10:00,ZGHA 111000Z AUTO 6SM 22/16 A3000 RMK T02200160 IEM_DS3505
ZGHA,2008-03-11 11:00,ZGHA 111100Z AUTO 6SM 19/15 A2997 RMK T01900150 IEM_DS3505
ZGHA,2008-03-11 12:00,ZGHA 111200Z AUTO 09002KT 5SM 18/15 A3000 RMK T01800150 IEM_DS3505
ZGHA,2008-03-11 13:00,ZGHA 111300Z AUTO 00000KT 5SM 16/14 A3003 RMK T01600140 IEM_DS3505
ZGHA,2008-03-11 14:00,ZGHA 111400Z AUTO 5SM 16/14 A3003 RMK T01600140 IEM_DS3505
ZGHA,2008-03-11 15:00,ZGHA 111500Z AUTO 09002KT 5SM 15/14 A3003 RMK T01500140 IEM_DS3505
ZGHA,2008-03-11 16:00,ZGHA 111600Z AUTO 00000KT 5SM 14/13 A3003 RMK T01400130 IEM_DS3505
ZGHA,2008-03-11 17:00,ZGHA 111700Z AUTO 1SM 13/13 A3003 RMK T01300130 IEM_DS3505
ZGHA,2008-03-11 18:00,ZGHA 111800Z AUTO 00000KT 1SM 13/13 A3003 RMK T01300130 IEM_DS3505
ZGHA,2008-03-11 19:00,ZGHA 111900Z AUTO 00000KT 1SM 13/12 A3000 RMK T01300120 IEM_DS3505
ZGHA,2008-03-11 21:00,ZGHA 112100Z AUTO 00000KT 1 1/4SM 11/11 A3000 RMK T01100110 IEM_DS3505
ZGHA,2008-03-11 22:00,ZGHA 112200Z AUTO 00000KT 1 1/4SM 11/11 A3000 RMK T01100110 IEM_DS3505
ZGHA,2008-03-11 23:00,ZGHA 112300Z AUTO 2SM 12/11 A3003 RMK T01200110 IEM_DS3505
ZGHA,2008-03-12 00:00,ZGHA 120000Z AUTO 00000KT 2SM 14/13 A3003 RMK T01400130 IEM_DS3505
ZGHA,2008-03-12 01:00,ZGHA 120100Z AUTO 00000KT 3SM 17/16 A3003 RMK T01700160 IEM_DS3505
ZGHA,2008-03-12 02:00,ZGHA 120200Z AUTO 00000KT 5SM 21/17 A3003 RMK T02100170 IEM_DS3505
ZGHA,2008-03-12 03:00,ZGHA 120300Z AUTO 11004KT 6SM 24/16 A3003 RMK T02400160 IEM_DS3505
ZGHA,2008-03-12 04:00,ZGHA 120400Z AUTO 6SM 25/17 A3000 RMK T02500170 IEM_DS3505
ZGHA,2008-03-12 05:00,ZGHA 120500Z AUTO 20006KT 6SM 27/17 A2997 RMK T02700170 IEM_DS3505
ZGHA,2008-03-12 07:00,ZGHA 120700Z AUTO 21012KT 6SM 28/17 A2988 RMK T02800170 IEM_DS3505
ZGHA,2008-03-12 08:00,ZGHA 120800Z AUTO 20010KT 6SM 26/16 A2988 RMK T02600160 IEM_DS3505
ZGHA,2008-03-12 09:00,ZGHA 120900Z AUTO 19006KT 6SM 26/17 A2988 RMK T02600170 IEM_DS3505
ZGHA,2008-03-12 10:00,ZGHA 121000Z AUTO 21004KT 6SM 24/16 A2988 RMK T02400160 IEM_DS3505
ZGHA,2008-03-12 11:00,ZGHA 121100Z AUTO 7SM 23/17 A2991 RMK T02300170 IEM_DS3505
ZGHA,2008-03-12 12:00,ZGHA 121200Z AUTO 31004KT 4SM 20/18 A2991 RMK T02000180 IEM_DS3505
ZGHA,2008-03-12 13:00,ZGHA 121300Z AUTO 36006KT 2SM 19/18 A2994 RMK T01900180 IEM_DS3505
ZGHA,2008-03-12 14:00,ZGHA 121400Z AUTO 36006KT 2SM 19/18 A2994 RMK T01900180 IEM_DS3505
ZGHA,2008-03-12 15:00,ZGHA 121500Z AUTO 34006KT 1 1/2SM 19/18 A2997 RMK T01900180 IEM_DS3505
ZGHA,2008-03-12 16:00,ZGHA 121600Z AUTO 00000KT 1SM 18/18 A2997 RMK T01800180 IEM_DS3505
ZGHA,2008-03-12 17:00,ZGHA 121700Z AUTO 00000KT 1/8SM 18/18 A2997 RMK T01800180 IEM_DS3505
ZGHA,2008-03-12 18:00,ZGHA 121800Z AUTO 34010KT 6SM 16/15 A2997 RMK T01600150 IEM_DS3505
ZGHA,2008-03-12 19:00,ZGHA 121900Z AUTO 33012KT 7SM 15/15 A2997 RMK T01500150 IEM_DS3505
ZGHA,2008-03-12 20:00,ZGHA 122000Z AUTO 32008KT 7SM 16/15 A2997 RMK T01600150 IEM_DS3505
ZGHA,2008-03-12 21:00,ZGHA 122100Z AUTO 34008KT 2 1/2SM 16/15 A2997 RMK T01600150 IEM_DS3505
ZGHA,2008-03-12 22:00,ZGHA 122200Z AUTO 34012KT 4SM 16/15 A3000 RMK T01600150 IEM_DS3505
ZGHA,2008-03-12 23:00,ZGHA 122300Z AUTO 32010KT 2 1/2SM 15/15 A3000 RMK T01500150 IEM_DS3505
ZGHA,2008-03-13 00:00,ZGHA 130000Z AUTO 34014KT 2SM 15/14 A3006 RMK T01500140 IEM_DS3505
ZGHA,2008-03-13 01:00,ZGHA 130100Z AUTO 34014KT 2 1/2SM 15/15 A3009 RMK T01500150 IEM_DS3505
ZGHA,2008-03-13 02:00,ZGHA 130200Z AUTO 33014KT 3SM 17/15 A3012 RMK T01700150 IEM_DS3505
ZGHA,2008-03-13 03:00,ZGHA 130300Z AUTO 34014KT 3SM 16/15 A3012 RMK T01600150 IEM_DS3505
ZGHA,2008-03-13 04:00,ZGHA 130400Z AUTO 34012KT 3SM 17/14 A3009 RMK T01700140 IEM_DS3505
ZGHA,2008-03-13 05:00,ZGHA 130500Z AUTO 35010KT 3SM 18/14 A3009 RMK T01800140 IEM_DS3505
ZGHA,2008-03-13 06:00,ZGHA 130600Z AUTO 35008KT 3SM 18/14 A3006 RMK T01800140 IEM_DS3505
ZGHA,2008-03-13 07:00,ZGHA 130700Z AUTO 35008KT 2 1/2SM 18/14 A3006 RMK T01800140 IEM_DS3505
ZGHA,2008-03-13 08:00,ZGHA 130800Z AUTO 34010KT 2 1/2SM 18/13 A3006 RMK T01800130 IEM_DS3505
ZGHA,2008-03-13 09:00,ZGHA 130900Z AUTO 36008KT 3SM 18/13 A3006 RMK T01800130 IEM_DS3505
ZGHA,2008-03-13 10:00,ZGHA 131000Z AUTO 35006KT 2 1/2SM 17/13 A3009 RMK T01700130 IEM_DS3505
ZGHA,2008-03-13 11:00,ZGHA 131100Z AUTO 35006KT 2SM 17/13 A3009 RMK T01700130 IEM_DS3505
ZGHA,2008-03-13 12:00,ZGHA 131200Z AUTO 33006KT 2SM 16/13 A3012 RMK T01600130 IEM_DS3505
ZGHA,2008-03-13 13:00,ZGHA 131300Z AUTO 35004KT 2SM 16/13 A3015 RMK T01600130 IEM_DS3505
ZGHA,2008-03-13 14:00,ZGHA 131400Z AUTO 36004KT 1 1/2SM 16/13 A3015 RMK T01600130 IEM_DS3505
ZGHA,2008-03-13 15:00,ZGHA 131500Z AUTO 00000KT 1 1/2SM 15/13 A3015 RMK T01500130 IEM_DS3505
ZGHA,2008-03-13 16:00,ZGHA 131600Z AUTO 31004KT 1 1/4SM 15/13 A3015 RMK T01500130 IEM_DS3505
ZGHA,2008-03-13 17:00,ZGHA 131700Z AUTO 34002KT 1 1/4SM 15/13 A3015 RMK T01500130 IEM_DS3505
ZGHA,2008-03-13 20:00,ZGHA 132000Z AUTO 1SM 14/13 A3012 RMK T01400130 IEM_DS3505
ZGHA,2008-03-13 21:00,ZGHA 132100Z AUTO 30002KT 1SM 14/13 A3012 RMK T01400130 IEM_DS3505
ZGHA,2008-03-13 22:00,ZGHA 132200Z AUTO 1SM 13/12 A3012 RMK T01300120 IEM_DS3505
ZGHA,2008-03-13 23:00,ZGHA 132300Z AUTO 1 1/4SM 13/12 A3015 RMK T01300120 IEM_DS3505
ZGHA,2008-03-14 00:00,ZGHA 140000Z AUTO 08004KT 1 1/2SM 14/13 A3015 RMK T01400130 IEM_DS3505
ZGHA,2008-03-14 01:00,ZGHA 140100Z AUTO 08004KT 1 1/2SM 16/14 A3015 RMK T01600140 IEM_DS3505
ZGHA,2008-03-14 02:00,ZGHA 140200Z AUTO 2SM 17/13 A3015 RMK T01700130 IEM_DS3505
ZGHA,2008-03-14 03:00,ZGHA 140300Z AUTO 3SM 19/14 A3015 RMK T01900140 IEM_DS3505
ZGHA,2008-03-14 04:00,ZGHA 140400Z AUTO 3SM 21/14 A3015 RMK T02100140 IEM_DS3505
ZGHA,2008-03-14 05:00,ZGHA 140500Z AUTO 4SM 22/14 A3009 RMK T02200140 IEM_DS3505
ZGHA,2008-03-14 06:00,ZGHA 140600Z AUTO 7SM 22/13 A3006 RMK T02200130 IEM_DS3505
ZGHA,2008-03-14 07:00,ZGHA 140700Z AUTO 6SM 23/14 A3003 RMK T02300140 IEM_DS3505
ZGHA,2008-03-14 08:00,ZGHA 140800Z AUTO 09004KT 6SM 24/13 A3000 RMK T02400130 IEM_DS3505
ZGHA,2008-03-14 09:00,ZGHA 140900Z AUTO 08004KT 6SM 23/13 A3000 RMK T02300130 IEM_DS3505
ZGHA,2008-03-14 10:00,ZGHA 141000Z AUTO 15004KT 6SM 21/14 A3000 RMK T02100140 IEM_DS3505
ZGHA,2008-03-14 11:00,ZGHA 141100Z AUTO 4SM 20/14 A3000 RMK T02000140 IEM_DS3505
ZGHA,2008-03-14 12:00,ZGHA 141200Z AUTO 4SM 19/14 A3003 RMK T01900140 IEM_DS3505
ZGHA,2008-03-14 13:00,ZGHA 141300Z AUTO 4SM 18/14 A3003 RMK T01800140 IEM_DS3505
ZGHA,2008-03-14 14:00,ZGHA 141400Z AUTO 00000KT 4SM 17/14 A3003 RMK T01700140 IEM_DS3505
ZGHA,2008-03-14 15:00,ZGHA 141500Z AUTO 3SM 17/15 A3006 RMK T01700150 IEM_DS3505
ZGHA,2008-03-14 16:00,ZGHA 141600Z AUTO 00000KT 3SM 17/14 A3003 RMK T01700140 IEM_DS3505
ZGHA,2008-03-14 17:00,ZGHA 141700Z AUTO 00000KT 2SM 17/14 A3003 RMK T01700140 IEM_DS3505
ZGHA,2008-03-14 18:00,ZGHA 141800Z AUTO 2SM 16/14 A3003 RMK T01600140 IEM_DS3505
ZGHA,2008-03-14 19:00,ZGHA 141900Z AUTO 21002KT 2SM 16/14 A3000 RMK T01600140 IEM_DS3505
ZGHA,2008-03-14 21:00,ZGHA 142100Z AUTO 00000KT 2 1/2SM 16/14 A3000 RMK T01600140 IEM_DS3505
ZGHA,2008-03-14 22:00,ZGHA 142200Z AUTO 30004KT 2SM 16/14 A3003 RMK T01600140 IEM_DS3505
ZGHA,2008-03-14 23:00,ZGHA 142300Z AUTO 1 1/2SM 16/14 A3003 RMK T01600140 IEM_DS3505
ZGHA,2008-03-15 00:00,ZGHA 150000Z AUTO 1 1/2SM 17/15 A3003 RMK T01700150 IEM_DS3505
ZGHA,2008-03-15 01:00,ZGHA 150100Z AUTO 00000KT 1 1/2SM 16/15 A3006 RMK T01600150 IEM_DS3505
ZGHA,2008-03-15 02:00,ZGHA 150200Z AUTO 1SM 15/14 A3009 RMK T01500140 IEM_DS3505
ZGHA,2008-03-15 03:00,ZGHA 150300Z AUTO 1SM 15/15 A3009 RMK T01500150 IEM_DS3505
ZGHA,2008-03-15 04:00,ZGHA 150400Z AUTO 1SM 16/15 A3006 RMK T01600150 IEM_DS3505
ZGHA,2008-03-15 05:00,ZGHA 150500Z AUTO 00000KT 1SM 16/15 A3003 RMK T01600150 IEM_DS3505
ZGHA,2008-03-15 06:00,ZGHA 150600Z AUTO 33004KT 1SM 16/15 A3003 RMK T01600150 IEM_DS3505
ZGHA,2008-03-15 07:00,ZGHA 150700Z AUTO 1SM 16/16 A3000 RMK T01600160 IEM_DS3505
ZGHA,2008-03-15 08:00,ZGHA 150800Z AUTO 1SM 16/16 A3000 RMK T01600160 IEM_DS3505
ZGHA,2008-03-15 09:00,ZGHA 150900Z AUTO 1SM 16/15 A2997 RMK T01600150 IEM_DS3505
ZGHA,2008-03-15 10:00,ZGHA 151000Z AUTO 1SM 15/15 A3000 RMK T01500150 IEM_DS3505
ZGHA,2008-03-15 11:00,ZGHA 151100Z AUTO 1SM 15/15 A3000 RMK T01500150 IEM_DS3505
ZGHA,2008-03-15 12:00,ZGHA 151200Z AUTO 00000KT 1SM 15/15 A3000 RMK T01500150 IEM_DS3505
ZGHA,2008-03-15 13:00,ZGHA 151300Z AUTO 00000KT 1SM 15/15 A3000 RMK T01500150 IEM_DS3505
ZGHA,2008-03-15 14:00,ZGHA 151400Z AUTO 31004KT 1SM 15/15 A3000 RMK T01500150 IEM_DS3505
ZGHA,2008-03-15 15:00,ZGHA 151500Z AUTO 1SM 15/15 A3000 RMK T01500150 IEM_DS3505
ZGHA,2008-03-15 16:00,ZGHA 151600Z AUTO 00000KT 1SM 15/15 A3000 RMK T01500150 IEM_DS3505
ZGHA,2008-03-15 17:00,ZGHA 151700Z AUTO 00000KT 1/2SM 15/15 A2997 RMK T01500150 IEM_DS3505
ZGHA,2008-03-15 18:00,ZGHA 151800Z AUTO 1/2SM 15/15 A2997 RMK T01500150 IEM_DS3505
ZGHA,2008-03-15 19:00,ZGHA 151900Z AUTO 31002KT 1/2SM 15/15 A2997 RMK T01500150 IEM_DS3505
ZGHA,2008-03-15 20:00,ZGHA 152000Z AUTO 3/8SM 15/15 A2994 RMK T01500150 IEM_DS3505
ZGHA,2008-03-15 21:00,ZGHA 152100Z AUTO 00000KT 1/2SM 15/15 A2994 RMK T01500150 IEM_DS3505
ZGHA,2008-03-15 22:00,ZGHA 152200Z AUTO 1SM 15/15 A2994 RMK T01500150 IEM_DS3505
ZGHA,2008-03-15 23:00,ZGHA 152300Z AUTO 30004KT 1SM 15/15 A3000 RMK T01500150 IEM_DS3505
ZGHA,2008-03-16 00:00,ZGHA 160000Z AUTO 09010KT 1SM 15/14 A2994 RMK T01500140 IEM_DS3505
ZGHA,2008-03-16 01:00,ZGHA 160100Z AUTO 2SM 15/15 A3000 RMK T01500150 IEM_DS3505
ZGHA,2008-03-16 02:00,ZGHA 160200Z AUTO 3SM 15/15 A3000 RMK T01500150 IEM_DS3505
ZGHA,2008-03-16 03:00,ZGHA 160300Z AUTO 08002KT 3SM 15/15 A3000 RMK T01500150 IEM_DS3505
ZGHA,2008-03-16 04:00,ZGHA 160400Z AUTO 35004KT 2SM 15/15 A2997 RMK T01500150 IEM_DS3505
ZGHA,2008-03-16 05:00,ZGHA 160500Z AUTO 08004KT 1 1/2SM 15/15 A2994 RMK T01500150 IEM_DS3505
ZGHA,2008-03-16 06:00,ZGHA 160600Z AUTO 2SM 15/15 A2994 RMK T01500150 IEM_DS3505
ZGHA,2008-03-16 07:00,ZGHA 160700Z AUTO 2SM 15/15 A2991 RMK T01500150 IEM_DS3505
ZGHA,2008-03-16 08:00,ZGHA 160800Z AUTO 34004KT 1 1/2SM 15/15 A2991 RMK T01500150 IEM_DS3505
ZGHA,2008-03-16 09:00,ZGHA 160900Z AUTO 32004KT 1 1/2SM 16/15 A2994 RMK T01600150 IEM_DS3505
ZGHA,2008-03-16 10:00,ZGHA 161000Z AUTO 30006KT 1 1/2SM 15/15 A2994 RMK T01500150 IEM_DS3505
ZGHA,2008-03-16 11:00,ZGHA 161100Z AUTO 28004KT 1 1/2SM 15/15 A2994 RMK T01500150 IEM_DS3505
ZGHA,2008-03-16 12:00,ZGHA 161200Z AUTO 31004KT 1 1/2SM 15/15 A2994 RMK T01500150 IEM_DS3505
ZGHA,2008-03-16 13:00,ZGHA 161300Z AUTO 30006KT 1 1/2SM 15/15 A2997 RMK T01500150 IEM_DS3505
ZGHA,2008-03-16 14:00,ZGHA 161400Z AUTO 29006KT 1SM 14/14 A3000 RMK T01400140 IEM_DS3505
ZGHA,2008-03-16 15:00,ZGHA 161500Z AUTO 28006KT 1SM 14/14 A3000 RMK T01400140 IEM_DS3505
ZGHA,2008-03-16 16:00,ZGHA 161600Z AUTO 28006KT 1SM 14/14 A3000 RMK T01400140 IEM_DS3505
ZGHA,2008-03-16 17:00,ZGHA 161700Z AUTO 28008KT 1/2SM 14/13 A3000 RMK T01400130 IEM_DS3505
ZGHA,2008-03-16 18:00,ZGHA 161800Z AUTO 29008KT 1/2SM 14/13 A2997 RMK T01400130 IEM_DS3505
ZGHA,2008-03-16 19:00,ZGHA 161900Z AUTO 28008KT 3/8SM 14/13 A2994 RMK T01400130 IEM_DS3505
ZGHA,2008-03-16 20:00,ZGHA 162000Z AUTO 32006KT 3/8SM 13/13 A2991 RMK T01300130 IEM_DS3505
ZGHA,2008-03-16 21:00,ZGHA 162100Z AUTO 29004KT 1SM 13/13 A2994 RMK T01300130 IEM_DS3505
ZGHA,2008-03-16 22:00,ZGHA 162200Z AUTO 30002KT 1SM 13/13 A2994 RMK T01300130 IEM_DS3505
ZGHA,2008-03-16 23:00,ZGHA 162300Z AUTO 33004KT 1SM 13/13 A2994 RMK T01300130 IEM_DS3505
ZGHA,2008-03-17 00:00,ZGHA 170000Z AUTO 28004KT 1SM 13/13 A2997 RMK T01300130 IEM_DS3505
ZGHA,2008-03-17 01:00,ZGHA 170100Z AUTO 33006KT 1SM 14/14 A2997 RMK T01400140 IEM_DS3505
ZGHA,2008-03-17 02:00,ZGHA 170200Z AUTO 28004KT 1SM 14/14 A2997 RMK T01400140 IEM_DS3505
ZGHA,2008-03-17 03:00,ZGHA 170300Z AUTO 26004KT 1/2SM 13/13 A2997 RMK T01300130 IEM_DS3505
ZGHA,2008-03-17 04:00,ZGHA 170400Z AUTO 29004KT 1SM 14/14 A2997 RMK T01400140 IEM_DS3505
ZGHA,2008-03-17 05:00,ZGHA 170500Z AUTO 1SM 14/14 A2991 RMK T01400140 IEM_DS3505
ZGHA,2008-03-17 06:00,ZGHA 170600Z AUTO 00000KT 1 1/2SM 15/14 A2988 RMK T01500140 IEM_DS3505
ZGHA,2008-03-17 07:00,ZGHA 170700Z AUTO 30004KT 1 1/2SM 15/14 A2988 RMK T01500140 IEM_DS3505
ZGHA,2008-03-17 08:00,ZGHA 170800Z AUTO 00000KT 1SM 14/14 A2988 RMK T01400140 IEM_DS3505
ZGHA,2008-03-17 09:00,ZGHA 170900Z AUTO 30004KT 1SM 14/14 A2988 RMK T01400140 IEM_DS3505
ZGHA,2008-03-17 10:00,ZGHA 171000Z AUTO 09004KT 1/2SM 14/14 A2985 RMK T01400140 IEM_DS3505
ZGHA,2008-03-17 11:00,ZGHA 171100Z AUTO 30004KT 1SM 14/14 A2988 RMK T01400140 IEM_DS3505
ZGHA,2008-03-17 12:00,ZGHA 171200Z AUTO 32004KT 1SM 14/14 A2988 RMK T01400140 IEM_DS3505
ZGHA,2008-03-17 13:00,ZGHA 171300Z AUTO 00000KT 1SM 14/14 A2991 RMK T01400140 IEM_DS3505
ZGHA,2008-03-17 14:00,ZGHA 171400Z AUTO 17002KT 1SM 14/14 A2991 RMK T01400140 IEM_DS3505
ZGHA,2008-03-17 15:00,ZGHA 171500Z AUTO 00000KT 1SM 14/14 A2991 RMK T01400140 IEM_DS3505
ZGHA,2008-03-17 16:00,ZGHA 171600Z AUTO 1/2SM 14/14 A2991 RMK T01400140 IEM_DS3505
ZGHA,2008-03-17 17:00,ZGHA 171700Z AUTO 21004KT 1/4SM 14/14 A2991 RMK T01400140 IEM_DS3505
ZGHA,2008-03-17 18:00,ZGHA 171800Z AUTO 26004KT 3/8SM 14/14 A2991 RMK T01400140 IEM_DS3505
ZGHA,2008-03-17 19:00,ZGHA 171900Z AUTO 18002KT 3/8SM 13/13 A2988 RMK T01300130 IEM_DS3505
ZGHA,2008-03-17 20:00,ZGHA 172000Z AUTO 00000KT 1/2SM 13/13 A2988 RMK T01300130 IEM_DS3505
ZGHA,2008-03-17 21:00,ZGHA 172100Z AUTO 00000KT 1SM 14/13 A2988 RMK T01400130 IEM_DS3505
ZGHA,2008-03-17 22:00,ZGHA 172200Z AUTO 1SM 13/13 A2988 RMK T01300130 IEM_DS3505
ZGHA,2008-03-17 23:00,ZGHA 172300Z AUTO 22004KT 3/8SM 14/14 A2991 RMK T01400140 IEM_DS3505
ZGHA,2008-03-18 00:00,ZGHA 180000Z AUTO 00000KT 1SM 14/13 A2991 RMK T01400130 IEM_DS3505
ZGHA,2008-03-18 01:00,ZGHA 180100Z AUTO 00000KT 1SM 14/14 A2994 RMK T01400140 IEM_DS3505
ZGHA,2008-03-18 02:00,ZGHA 180200Z AUTO 22004KT 1 1/2SM 15/15 A2997 RMK T01500150 IEM_DS3505
ZGHA,2008-03-18 03:00,ZGHA 180300Z AUTO 21004KT 2 1/2SM 16/16 A2997 RMK T01600160 IEM_DS3505
ZGHA,2008-03-18 04:00,ZGHA 180400Z AUTO 3SM 18/17 A2994 RMK T01800170 IEM_DS3505
ZGHA,2008-03-18 05:00,ZGHA 180500Z AUTO 4SM 19/15 A2991 RMK T01900150 IEM_DS3505
ZGHA,2008-03-18 06:00,ZGHA 180600Z AUTO 6SM 20/16 A2991 RMK T02000160 IEM_DS3505
ZGHA,2008-03-18 07:00,ZGHA 180700Z AUTO 30006KT 6SM 22/16 A2988 RMK T02200160 IEM_DS3505
ZGHA,2008-03-18 08:00,ZGHA 180800Z AUTO 6SM 22/16 A2988 RMK T02200160 IEM_DS3505
ZGHA,2008-03-18 09:00,ZGHA 180900Z AUTO 28006KT 6SM 22/16 A2991 RMK T02200160 IEM_DS3505
ZGHA,2008-03-18 10:00,ZGHA 181000Z AUTO 23004KT 6SM 21/15 A2991 RMK T02100150 IEM_DS3505
ZGHA,2008-03-18 11:00,ZGHA 181100Z AUTO 20002KT 6SM 19/16 A2991 RMK T01900160 IEM_DS3505
ZGHA,2008-03-18 12:00,ZGHA 181200Z AUTO 00000KT 6SM 17/16 A2994 RMK T01700160 IEM_DS3505
ZGHA,2008-03-18 13:00,ZGHA 181300Z AUTO 09002KT 4SM 16/15 A2997 RMK T01600150 IEM_DS3505
ZGHA,2008-03-18 14:00,ZGHA 181400Z AUTO 00000KT 4SM 16/15 A2997 RMK T01600150 IEM_DS3505
ZGHA,2008-03-18 15:00,ZGHA 181500Z AUTO 05002KT 4SM 15/14 A2997 RMK T01500140 IEM_DS3505
ZGHA,2008-03-18 16:00,ZGHA 181600Z AUTO 4SM 15/14 A3000 RMK T01500140 IEM_DS3505
ZGHA,2008-03-18 18:00,ZGHA 181800Z AUTO 00000KT 1/8SM 13/13 A3000 RMK T01300130 IEM_DS3505
ZGHA,2008-03-18 21:00,ZGHA 182100Z AUTO 00000KT 3SM 11/11 A3003 RMK T01100110 IEM_DS3505
ZGHA,2008-03-18 22:00,ZGHA 182200Z AUTO 00000KT 2SM 12/11 A3006 RMK T01200110 IEM_DS3505
ZGHA,2008-03-18 23:00,ZGHA 182300Z AUTO 00000KT 1SM 11/11 A3006 RMK T01100110 IEM_DS3505
ZGHA,2008-03-19 00:00,ZGHA 190000Z AUTO 2SM 14/14 A3009 RMK T01400140 IEM_DS3505
ZGHA,2008-03-19 01:00,ZGHA 190100Z AUTO 3SM 16/16 A3012 RMK T01600160 IEM_DS3505
ZGHA,2008-03-19 02:00,ZGHA 190200Z AUTO 6SM 20/18 A3012 RMK T02000180 IEM_DS3505
ZGHA,2008-03-19 03:00,ZGHA 190300Z AUTO 03004KT 7SM 22/16 A3012 RMK T02200160 IEM_DS3505
ZGHA,2008-03-19 04:00,ZGHA 190400Z AUTO 7SM 23/15 A3012 RMK T02300150 IEM_DS3505
ZGHA,2008-03-19 05:00,ZGHA 190500Z AUTO 10006KT 7SM 25/16 A3009 RMK T02500160 IEM_DS3505
ZGHA,2008-03-19 06:00,ZGHA 190600Z AUTO 09004KT 7SM 26/15 A3006 RMK T02600150 IEM_DS3505
ZGHA,2008-03-19 07:00,ZGHA 190700Z AUTO 7SM 25/13 A3003 RMK T02500130 IEM_DS3505
ZGHA,2008-03-19 08:00,ZGHA 190800Z AUTO 07004KT 7SM 26/14 A3000 RMK T02600140 IEM_DS3505
ZGHA,2008-03-19 09:00,ZGHA 190900Z AUTO 7SM 26/14 A2997 RMK T02600140 IEM_DS3505
ZGHA,2008-03-19 10:00,ZGHA 191000Z AUTO 30006KT 7SM 23/16 A3000 RMK T02300160 IEM_DS3505
ZGHA,2008-03-19 11:00,ZGHA 191100Z AUTO 6SM 22/17 A3000 RMK T02200170 IEM_DS3505
ZGHA,2008-03-19 12:00,ZGHA 191200Z AUTO 32006KT 5SM 20/16 A3003 RMK T02000160 IEM_DS3505
ZGHA,2008-03-19 13:00,ZGHA 191300Z AUTO 00000KT 5SM 19/16 A3003 RMK T01900160 IEM_DS3505
ZGHA,2008-03-19 14:00,ZGHA 191400Z AUTO 00000KT 4SM 17/16 A3006 RMK T01700160 IEM_DS3505
ZGHA,2008-03-19 15:00,ZGHA 191500Z AUTO 00000KT 4SM 17/14 A3006 RMK T01700140 IEM_DS3505
ZGHA,2008-03-19 16:00,ZGHA 191600Z AUTO 07006KT 5SM 15/14 A3003 RMK T01500140 IEM_DS3505
ZGHA,2008-03-19 17:00,ZGHA 191700Z AUTO 08004KT 1SM 14/13 A3003 RMK T01400130 IEM_DS3505
ZGHA,2008-03-19 19:00,ZGHA 191900Z AUTO 34002KT 2SM 14/13 A3000 RMK T01400130 IEM_DS3505
ZGHA,2008-03-19 20:00,ZGHA 192000Z AUTO 1SM 13/12 A3000 RMK T01300120 IEM_DS3505
ZGHA,2008-03-19 21:00,ZGHA 192100Z AUTO 00000KT 4SM 13/12 A2997 RMK T01300120 IEM_DS3505
ZGHA,2008-03-19 22:00,ZGHA 192200Z AUTO 5SM 13/12 A2997 RMK T01300120 IEM_DS3505
ZGHA,2008-03-19 23:00,ZGHA 192300Z AUTO 5SM 13/12 A3000 RMK T01300120 IEM_DS3505
ZGHA,2008-03-20 00:00,ZGHA 200000Z AUTO 00000KT 5SM 14/13 A3000 RMK T01400130 IEM_DS3505
ZGHA,2008-03-20 01:00,ZGHA 200100Z AUTO 05004KT 5SM 16/14 A3000 RMK T01600140 IEM_DS3505
ZGHA,2008-03-20 02:00,ZGHA 200200Z AUTO 00000KT 5SM 17/13 A3000 RMK T01700130 IEM_DS3505
ZGHA,2008-03-20 03:00,ZGHA 200300Z AUTO 00000KT 6SM 18/13 A3000 RMK T01800130 IEM_DS3505
ZGHA,2008-03-20 04:00,ZGHA 200400Z AUTO 29006KT 5SM 18/13 A2997 RMK T01800130 IEM_DS3505
ZGHA,2008-03-20 05:00,ZGHA 200500Z AUTO 32004KT 3SM 16/13 A2997 RMK T01600130 IEM_DS3505
ZGHA,2008-03-20 06:00,ZGHA 200600Z AUTO 2SM 16/15 A2997 RMK T01600150 IEM_DS3505
ZGHA,2008-03-20 07:00,ZGHA 200700Z AUTO 1SM 15/14 A2994 RMK T01500140 IEM_DS3505
ZGHA,2008-03-20 08:00,ZGHA 200800Z AUTO 2SM 15/15 A2991 RMK T01500150 IEM_DS3505
ZGHA,2008-03-20 09:00,ZGHA 200900Z AUTO 00000KT 2 1/2SM 15/15 A2991 RMK T01500150 IEM_DS3505
ZGHA,2008-03-20 10:00,ZGHA 201000Z AUTO 23002KT 1 1/2SM 15/15 A2988 RMK T01500150 IEM_DS3505
ZGHA,2008-03-20 11:00,ZGHA 201100Z AUTO 1 1/2SM 15/15 A2988 RMK T01500150 IEM_DS3505
ZGHA,2008-03-20 12:00,ZGHA 201200Z AUTO 1 1/2SM 15/15 A2988 RMK T01500150 IEM_DS3505
ZGHA,2008-03-20 13:00,ZGHA 201300Z AUTO 00000KT 1 1/2SM 15/15 A2991 RMK T01500150 IEM_DS3505
ZGHA,2008-03-20 14:00,ZGHA 201400Z AUTO 29004KT 1 1/2SM 15/15 A2994 RMK T01500150 IEM_DS3505
ZGHA,2008-03-20 15:00,ZGHA 201500Z AUTO 00000KT 1 1/2SM 15/15 A2994 RMK T01500150 IEM_DS3505
ZGHA,2008-03-20 16:00,ZGHA 201600Z AUTO 1 1/2SM 15/15 A2991 RMK T01500150 IEM_DS3505
ZGHA,2008-03-20 17:00,ZGHA 201700Z AUTO 00000KT 1 1/4SM 15/15 A2991 RMK T01500150 IEM_DS3505
ZGHA,2008-03-20 18:00,ZGHA 201800Z AUTO 34004KT 1 1/2SM 15/15 A2991 RMK T01500150 IEM_DS3505
ZGHA,2008-03-20 19:00,ZGHA 201900Z AUTO 33004KT 1SM 15/15 A2988 RMK T01500150 IEM_DS3505
ZGHA,2008-03-20 20:00,ZGHA 202000Z AUTO 00000KT 1/2SM 15/15 A2988 RMK T01500150 IEM_DS3505
ZGHA,2008-03-20 21:00,ZGHA 202100Z AUTO 36002KT 1 1/4SM 15/15 A2985 RMK T01500150 IEM_DS3505
ZGHA,2008-03-20 22:00,ZGHA 202200Z AUTO 00000KT 1 1/2SM 15/15 A2985 RMK T01500150 IEM_DS3505
ZGHA,2008-03-20 23:00,ZGHA 202300Z AUTO 00000KT 1SM 15/15 A2988 RMK T01500150 IEM_DS3505
ZGHA,2008-03-21 00:00,ZGHA 210000Z AUTO 34004KT 1SM 15/15 A2988 RMK T01500150 IEM_DS3505
ZGHA,2008-03-21 01:00,ZGHA 210100Z AUTO 31006KT 1SM 15/15 A2991 RMK T01500150 IEM_DS3505
ZGHA,2008-03-21 02:00,ZGHA 210200Z AUTO 35006KT 4SM 15/15 A2994 RMK T01500150 IEM_DS3505
ZGHA,2008-03-21 03:00,ZGHA 210300Z AUTO 36006KT 4SM 15/15 A2994 RMK T01500150 IEM_DS3505
ZGHA,2008-03-21 04:00,ZGHA 210400Z AUTO 03006KT 3SM 15/15 A2994 RMK T01500150 IEM_DS3505
ZGHA,2008-03-21 05:00,ZGHA 210500Z AUTO 33012KT 4SM 15/15 A2991 RMK T01500150 IEM_DS3505
ZGHA,2008-03-21 06:00,ZGHA 210600Z AUTO 33010KT 4SM 15/15 A2991 RMK T01500150 IEM_DS3505
ZGHA,2008-03-21 07:00,ZGHA 210700Z AUTO 32012KT 2 1/2SM 14/14 A2991 RMK T01400140 IEM_DS3505
ZGHA,2008-03-21 08:00,ZGHA 210800Z AUTO 31008KT 2 1/2SM 14/14 A2991 RMK T01400140 IEM_DS3505
ZGHA,2008-03-21 09:00,ZGHA 210900Z AUTO 32010KT 2 1/2SM 14/13 A2994 RMK T01400130 IEM_DS3505
ZGHA,2008-03-21 10:00,ZGHA 211000Z AUTO 32008KT 2 1/2SM 13/13 A2994 RMK T01300130 IEM_DS3505
ZGHA,2008-03-21 11:00,ZGHA 211100Z AUTO 34012KT 1 1/2SM 13/12 A2997 RMK T01300120 IEM_DS3505
ZGHA,2008-03-21 12:00,ZGHA 211200Z AUTO 34014KT 1 1/2SM 12/12 A3000 RMK T01200120 IEM_DS3505
ZGHA,2008-03-21 13:00,ZGHA 211300Z AUTO 36008KT 1 1/2SM 12/12 A3003 RMK T01200120 IEM_DS3505
ZGHA,2008-03-21 14:00,ZGHA 211400Z AUTO 33010KT 2SM 12/12 A3003 RMK T01200120 IEM_DS3505
ZGHA,2008-03-21 15:00,ZGHA 211500Z AUTO 34010KT 2SM 12/11 A3006 RMK T01200110 IEM_DS3505
ZGHA,2008-03-21 16:00,ZGHA 211600Z AUTO 34006KT 2SM 12/11 A3003 RMK T01200110 IEM_DS3505
ZGHA,2008-03-21 21:00,ZGHA 212100Z AUTO 01004KT 1 1/4SM 10/10 A3000 RMK T01000100 IEM_DS3505
ZGHA,2008-03-21 22:00,ZGHA 212200Z AUTO 36006KT 1SM 10/10 A3003 RMK T01000100 IEM_DS3505
ZGHA,2008-03-21 23:00,ZGHA 212300Z AUTO 33008KT 1SM 10/10 A3006 RMK T01000100 IEM_DS3505
ZGHA,2008-03-22 00:00,ZGHA 220000Z AUTO 34006KT 1 1/2SM 10/10 A3006 RMK T01000100 IEM_DS3505
ZGHA,2008-03-22 01:00,ZGHA 220100Z AUTO 34008KT 2SM 11/10 A3009 RMK T01100100 IEM_DS3505
ZGHA,2008-03-22 02:00,ZGHA 220200Z AUTO 34006KT 2SM 11/11 A3009 RMK T01100110 IEM_DS3505
ZGHA,2008-03-22 03:00,ZGHA 220300Z AUTO 35004KT 2 1/2SM 12/11 A3009 RMK T01200110 IEM_DS3505
ZGHA,2008-03-22 04:00,ZGHA 220400Z AUTO 34004KT 3SM 14/11 A3009 RMK T01400110 IEM_DS3505
ZGHA,2008-03-22 05:00,ZGHA 220500Z AUTO 32006KT 4SM 13/10 A3009 RMK T01300100 IEM_DS3505
ZGHA,2008-03-22 06:00,ZGHA 220600Z AUTO 34006KT 4SM 14/10 A3006 RMK T01400100 IEM_DS3505
ZGHA,2008-03-22 07:00,ZGHA 220700Z AUTO 33006KT 4SM 16/11 A3006 RMK T01600110 IEM_DS3505
ZGHA,2008-03-22 08:00,ZGHA 220800Z AUTO 00000KT 5SM 16/10 A3003 RMK T01600100 IEM_DS3505
ZGHA,2008-03-22 09:00,ZGHA 220900Z AUTO 34004KT 5SM 16/11 A3003 RMK T01600110 IEM_DS3505
ZGHA,2008-03-22 10:00,ZGHA 221000Z AUTO 33006KT 4SM 16/11 A3003 RMK T01600110 IEM_DS3505
ZGHA,2008-03-22 11:00,ZGHA 221100Z AUTO 00000KT 3SM 14/12 A3006 RMK T01400120 IEM_DS3505
ZGHA,2008-03-22 12:00,ZGHA 221200Z AUTO 22004KT 3SM 14/12 A3009 RMK T01400120 IEM_DS3505
ZGHA,2008-03-22 13:00,ZGHA 221300Z AUTO 18002KT 2 1/2SM 12/11 A3012 RMK T01200110 IEM_DS3505
ZGHA,2008-03-22 14:00,ZGHA 221400Z AUTO 24004KT 2 1/2SM 12/11 A3012 RMK T01200110 IEM_DS3505
ZGHA,2008-03-22 15:00,ZGHA 221500Z AUTO 2 1/2SM 11/11 A3012 RMK T01100110 IEM_DS3505
ZGHA,2008-03-22 16:00,ZGHA 221600Z AUTO 2 1/2SM 11/10 A3012 RMK T01100100 IEM_DS3505
ZGHA,2008-03-22 17:00,ZGHA 221700Z AUTO 1SM 11/10 A3012 RMK T01100100 IEM_DS3505
ZGHA,2008-03-22 20:00,ZGHA 222000Z AUTO 00000KT 3/8SM 09/09 A3009 RMK T00900090 IEM_DS3505
ZGHA,2008-03-22 21:00,ZGHA 222100Z AUTO 3/8SM 08/08 A3012 RMK T00800080 IEM_DS3505
ZGHA,2008-03-22 22:00,ZGHA 222200Z AUTO 1/4SM 09/09 A3012 RMK T00900090 IEM_DS3505
ZGHA,2008-03-22 23:00,ZGHA 222300Z AUTO 36002KT 3/8SM 08/08 A3015 RMK T00800080 IEM_DS3505
ZGHA,2008-03-23 00:00,ZGHA 230000Z AUTO 1SM 10/10 A3018 RMK T01000100 IEM_DS3505
ZGHA,2008-03-23 01:00,ZGHA 230100Z AUTO 09004KT 2SM 12/12 A3018 RMK T01200120 IEM_DS3505
ZGHA,2008-03-23 02:00,ZGHA 230200Z AUTO 00000KT 2 1/2SM 16/14 A3021 RMK T01600140 IEM_DS3505
ZGHA,2008-03-23 03:00,ZGHA 230300Z AUTO 36004KT 3SM 19/13 A3018 RMK T01900130 IEM_DS3505
ZGHA,2008-03-23 04:00,ZGHA 230400Z AUTO 31004KT 4SM 21/10 A3018 RMK T02100100 IEM_DS3505
ZGHA,2008-03-23 05:00,ZGHA 230500Z AUTO 34004KT 4SM 22/10 A3015 RMK T02200100 IEM_DS3505
ZGHA,2008-03-23 06:00,ZGHA 230600Z AUTO 32010KT 6SM 24/10 A3012 RMK T02400100 IEM_DS3505
ZGHA,2008-03-23 07:00,ZGHA 230700Z AUTO 6SM 23/12 A3009 RMK T02300120 IEM_DS3505
ZGHA,2008-03-23 08:00,ZGHA 230800Z AUTO 35008KT 6SM 24/08 A3009 RMK T02400080 IEM_DS3505
ZGHA,2008-03-23 09:00,ZGHA 230900Z AUTO 35006KT 6SM 23/10 A3006 RMK T02300100 IEM_DS3505
ZGHA,2008-03-23 10:00,ZGHA 231000Z AUTO 36004KT 6SM 21/11 A3006 RMK T02100110 IEM_DS3505
ZGHA,2008-03-23 11:00,ZGHA 231100Z AUTO 34004KT 6SM 17/11 A3006 RMK T01700110 IEM_DS3505
ZGHA,2008-03-23 12:00,ZGHA 231200Z AUTO 35004KT 6SM 16/12 A3009 RMK T01600120 IEM_DS3505
ZGHA,2008-03-23 13:00,ZGHA 231300Z AUTO 35002KT 6SM 15/11 A3012 RMK T01500110 IEM_DS3505
ZGHA,2008-03-23 14:00,ZGHA 231400Z AUTO 00000KT 6SM 14/11 A3012 RMK T01400110 IEM_DS3505
ZGHA,2008-03-23 15:00,ZGHA 231500Z AUTO 30004KT 6SM 14/12 A3015 RMK T01400120 IEM_DS3505
ZGHA,2008-03-23 16:00,ZGHA 231600Z AUTO 03002KT 6SM 13/12 A3012 RMK T01300120 IEM_DS3505
ZGHA,2008-03-23 21:00,ZGHA 232100Z AUTO 00000KT 2SM 10/09 A3012 RMK T01000090 IEM_DS3505
ZGHA,2008-03-23 22:00,ZGHA 232200Z AUTO 00000KT 1 1/2SM 09/09 A3012 RMK T00900090 IEM_DS3505
ZGHA,2008-03-23 23:00,ZGHA 232300Z AUTO 00000KT 2 1/2SM 09/09 A3012 RMK T00900090 IEM_DS3505
ZGHA,2008-03-24 00:00,ZGHA 240000Z AUTO 00000KT 3SM 11/11 A3012 RMK T01100110 IEM_DS3505
ZGHA,2008-03-24 01:00,ZGHA 240100Z AUTO 3SM 13/12 A3015 RMK T01300120 IEM_DS3505
ZGHA,2008-03-24 02:00,ZGHA 240200Z AUTO 4SM 17/12 A3015 RMK T01700120 IEM_DS3505
ZGHA,2008-03-24 03:00,ZGHA 240300Z AUTO 00000KT 6SM 21/13 A3012 RMK T02100130 IEM_DS3505
ZGHA,2008-03-24 04:00,ZGHA 240400Z AUTO 23004KT 6SM 23/12 A3009 RMK T02300120 IEM_DS3505
ZGHA,2008-03-24 05:00,ZGHA 240500Z AUTO 6SM 24/10 A3006 RMK T02400100 IEM_DS3505
ZGHA,2008-03-24 06:00,ZGHA 240600Z AUTO 28004KT 6SM 25/11 A3003 RMK T02500110 IEM_DS3505
ZGHA,2008-03-24 07:00,ZGHA 240700Z AUTO 27004KT 6SM 25/11 A3000 RMK T02500110 IEM_DS3505
ZGHA,2008-03-24 08:00,ZGHA 240800Z AUTO 6SM 25/09 A2997 RMK T02500090 IEM_DS3505
ZGHA,2008-03-24 09:00,ZGHA 240900Z AUTO 21004KT 6SM 25/07 A2994 RMK T02500070 IEM_DS3505
ZGHA,2008-03-24 10:00,ZGHA 241000Z AUTO 23004KT 6SM 24/07 A2994 RMK T02400070 IEM_DS3505
ZGHA,2008-03-24 11:00,ZGHA 241100Z AUTO 00000KT 6SM 20/11 A2997 RMK T02000110 IEM_DS3505
ZGHA,2008-03-24 12:00,ZGHA 241200Z AUTO 00000KT 6SM 17/13 A2997 RMK T01700130 IEM_DS3505
ZGHA,2008-03-24 13:00,ZGHA 241300Z AUTO 00000KT 4SM 15/13 A3000 RMK T01500130 IEM_DS3505
ZGHA,2008-03-24 14:00,ZGHA 241400Z AUTO 00000KT 4SM 15/13 A3003 RMK T01500130 IEM_DS3505
ZGHA,2008-03-24 15:00,ZGHA 241500Z AUTO 00000KT 4SM 14/13 A3003 RMK T01400130 IEM_DS3505
ZGHA,2008-03-24 16:00,ZGHA 241600Z AUTO 00000KT 4SM 13/12 A3003 RMK T01300120 IEM_DS3505
ZGHA,2008-03-24 21:00,ZGHA 242100Z AUTO 4SM 12/11 A2997 RMK T01200110 IEM_DS3505
ZGHA,2008-03-24 22:00,ZGHA 242200Z AUTO 34002KT 4SM 12/12 A3000 RMK T01200120 IEM_DS3505
ZGHA,2008-03-24 23:00,ZGHA 242300Z AUTO 00000KT 3SM 12/12 A3003 RMK T01200120 IEM_DS3505
ZGHA,2008-03-25 00:00,ZGHA 250000Z AUTO 10004KT 3SM 14/13 A3003 RMK T01400130 IEM_DS3505
ZGHA,2008-03-25 01:00,ZGHA 250100Z AUTO 3SM 15/13 A3003 RMK T01500130 IEM_DS3505
ZGHA,2008-03-25 02:00,ZGHA 250200Z AUTO 19006KT 5SM 17/12 A3006 RMK T01700120 IEM_DS3505
ZGHA,2008-03-25 03:00,ZGHA 250300Z AUTO 20004KT 6SM 20/11 A3006 RMK T02000110 IEM_DS3505
ZGHA,2008-03-25 04:00,ZGHA 250400Z AUTO 26004KT 6SM 21/11 A3006 RMK T02100110 IEM_DS3505
ZGHA,2008-03-25 05:00,ZGHA 250500Z AUTO 3SM 21/12 A3003 RMK T02100120 IEM_DS3505
ZGHA,2008-03-25 06:00,ZGHA 250600Z AUTO 28008KT 4SM 21/12 A3003 RMK T02100120 IEM_DS3505
ZGHA,2008-03-25 07:00,ZGHA 250700Z AUTO 25006KT 5SM 21/12 A3000 RMK T02100120 IEM_DS3505
ZGHA,2008-03-25 08:00,ZGHA 250800Z AUTO 28010KT 6SM 22/12 A3000 RMK T02200120 IEM_DS3505
ZGHA,2008-03-25 09:00,ZGHA 250900Z AUTO 31006KT 6SM 22/13 A2997 RMK T02200130 IEM_DS3505
ZGHA,2008-03-25 10:00,ZGHA 251000Z AUTO 29004KT 6SM 20/13 A3000 RMK T02000130 IEM_DS3505
ZGHA,2008-03-25 11:00,ZGHA 251100Z AUTO 29004KT 3SM 18/13 A3000 RMK T01800130 IEM_DS3505
ZGHA,2008-03-25 12:00,ZGHA 251200Z AUTO 00000KT 3SM 18/13 A3000 RMK T01800130 IEM_DS3505
ZGHA,2008-03-25 13:00,ZGHA 251300Z AUTO 00000KT 2 1/2SM 15/13 A3003 RMK T01500130 IEM_DS3505
ZGHA,2008-03-25 14:00,ZGHA 251400Z AUTO 00000KT 2SM 15/14 A3003 RMK T01500140 IEM_DS3505
ZGHA,2008-03-25 15:00,ZGHA 251500Z AUTO 19002KT 1 1/2SM 14/13 A3003 RMK T01400130 IEM_DS3505
ZGHA,2008-03-25 16:00,ZGHA 251600Z AUTO 1 1/2SM 14/13 A3003 RMK T01400130 IEM_DS3505
ZGHA,2008-03-25 18:00,ZGHA 251800Z AUTO 1SM 13/12 A3000 RMK T01300120 IEM_DS3505
ZGHA,2008-03-25 21:00,ZGHA 252100Z AUTO 16004KT 1 1/4SM 12/12 A3000 RMK T01200120 IEM_DS3505
ZGHA,2008-03-25 22:00,ZGHA 252200Z AUTO 1SM 12/12 A3000 RMK T01200120 IEM_DS3505
ZGHA,2008-03-25 23:00,ZGHA 252300Z AUTO 1SM 12/12 A3000 RMK T01200120 IEM_DS3505
ZGHA,2008-03-26 00:00,ZGHA 260000Z AUTO 17004KT 1 1/4SM 14/13 A3000 RMK T01400130 IEM_DS3505
ZGHA,2008-03-26 01:00,ZGHA 260100Z AUTO 18008KT 2 1/2SM 16/15 A3003 RMK T01600150 IEM_DS3505
ZGHA,2008-03-26 02:00,ZGHA 260200Z AUTO 20010KT 5SM 20/15 A3000 RMK T02000150 IEM_DS3505
ZGHA,2008-03-26 03:00,ZGHA 260300Z AUTO 20008KT 6SM 22/15 A2997 RMK T02200150 IEM_DS3505
ZGHA,2008-03-26 04:00,ZGHA 260400Z AUTO 20008KT 6SM 23/14 A2997 RMK T02300140 IEM_DS3505
ZGHA,2008-03-26 05:00,ZGHA 260500Z AUTO 23006KT 6SM 25/11 A2994 RMK T02500110 IEM_DS3505
ZGHA,2008-03-26 06:00,ZGHA 260600Z AUTO 20006KT 6SM 26/12 A2988 RMK T02600120 IEM_DS3505
ZGHA,2008-03-26 07:00,ZGHA 260700Z AUTO 23010KT 6SM 26/10 A2985 RMK T02600100 IEM_DS3505
ZGHA,2008-03-26 08:00,ZGHA 260800Z AUTO 24010KT 6SM 27/10 A2983 RMK T02700100 IEM_DS3505
ZGHA,2008-03-26 09:00,ZGHA 260900Z AUTO 20008KT 6SM 27/08 A2983 RMK T02700080 IEM_DS3505
ZGHA,2008-03-26 10:00,ZGHA 261000Z AUTO 22006KT 6SM 25/09 A2983 RMK T02500090 IEM_DS3505
ZGHA,2008-03-26 11:00,ZGHA 261100Z AUTO 18004KT 6SM 23/11 A2983 RMK T02300110 IEM_DS3505
ZGHA,2008-03-26 12:00,ZGHA 261200Z AUTO 6SM 19/13 A2985 RMK T01900130 IEM_DS3505
ZGHA,2008-03-26 13:00,ZGHA 261300Z AUTO 6SM 17/13 A2985 RMK T01700130 IEM_DS3505
ZGHA,2008-03-26 14:00,ZGHA 261400Z AUTO 6SM 17/12 A2988 RMK T01700120 IEM_DS3505
ZGHA,2008-03-26 15:00,ZGHA 261500Z AUTO 6SM 16/11 A2988 RMK T01600110 IEM_DS3505
ZGHA,2008-03-26 16:00,ZGHA 261600Z AUTO 6SM 15/11 A2988 RMK T01500110 IEM_DS3505
ZGHA,2008-03-26 17:00,ZGHA 261700Z AUTO 6SM 14/10 A2988 RMK T01400100 IEM_DS3505
ZGHA,2008-03-26 18:00,ZGHA 261800Z AUTO 00000KT 2 1/2SM 13/11 A2988 RMK T01300110 IEM_DS3505
ZGHA,2008-03-26 19:00,ZGHA 261900Z AUTO 00000KT 3SM 13/11 A2985 RMK T01300110 IEM_DS3505
ZGHA,2008-03-26 21:00,ZGHA 262100Z AUTO 00000KT 5SM 12/11 A2988 RMK T01200110 IEM_DS3505
ZGHA,2008-03-26 22:00,ZGHA 262200Z AUTO 18004KT 5SM 11/10 A2988 RMK T01100100 IEM_DS3505
ZGHA,2008-03-26 23:00,ZGHA 262300Z AUTO 18002KT 5SM 12/11 A2988 RMK T01200110 IEM_DS3505
ZGHA,2008-03-27 00:00,ZGHA 270000Z AUTO 5SM 16/13 A2988 RMK T01600130 IEM_DS3505
ZGHA,2008-03-27 01:00,ZGHA 270100Z AUTO 17004KT 6SM 20/13 A2991 RMK T02000130 IEM_DS3505
ZGHA,2008-03-27 02:00,ZGHA 270200Z AUTO 20010KT 6SM 23/14 A2991 RMK T02300140 IEM_DS3505
ZGHA,2008-03-27 03:00,ZGHA 270300Z AUTO 18006KT 6SM 23/13 A2994 RMK T02300130 IEM_DS3505
ZGHA,2008-03-27 04:00,ZGHA 270400Z AUTO 22004KT 6SM 24/14 A2991 RMK T02400140 IEM_DS3505
ZGHA,2008-03-27 05:00,ZGHA 270500Z AUTO 09004KT 6SM 26/15 A2988 RMK T02600150 IEM_DS3505
ZGHA,2008-03-27 06:00,ZGHA 270600Z AUTO 6SM 25/14 A2985 RMK T02500140 IEM_DS3505
ZGHA,2008-03-27 07:00,ZGHA 270700Z AUTO 6SM 25/14 A2983 RMK T02500140 IEM_DS3505
ZGHA,2008-03-27 08:00,ZGHA 270800Z AUTO 09004KT 6SM 27/15 A2983 RMK T02700150 IEM_DS3505
ZGHA,2008-03-27 09:00,ZGHA 270900Z AUTO 07004KT 6SM 25/15 A2980 RMK T02500150 IEM_DS3505
ZGHA,2008-03-27 10:00,ZGHA 271000Z AUTO 6SM 23/15 A2983 RMK T02300150 IEM_DS3505
ZGHA,2008-03-27 11:00,ZGHA 271100Z AUTO 07004KT 6SM 22/16 A2983 RMK T02200160 IEM_DS3505
ZGHA,2008-03-27 12:00,ZGHA 271200Z AUTO 6SM 20/15 A2983 RMK T02000150 IEM_DS3505
ZGHA,2008-03-27 13:00,ZGHA 271300Z AUTO 4SM 20/16 A2985 RMK T02000160 IEM_DS3505
ZGHA,2008-03-27 14:00,ZGHA 271400Z AUTO 00000KT 4SM 20/15 A2985 RMK T02000150 IEM_DS3505
ZGHA,2008-03-27 15:00,ZGHA 271500Z AUTO 4SM 19/16 A2985 RMK T01900160 IEM_DS3505
ZGHA,2008-03-27 16:00,ZGHA 271600Z AUTO 3SM 19/16 A2983 RMK T01900160 IEM_DS3505
ZGHA,2008-03-27 17:00,ZGHA 271700Z AUTO 00000KT 2 1/2SM 18/16 A2983 RMK T01800160 IEM_DS3505
ZGHA,2008-03-27 18:00,ZGHA 271800Z AUTO 21004KT 2 1/2SM 18/16 A2983 RMK T01800160 IEM_DS3505
ZGHA,2008-03-27 19:00,ZGHA 271900Z AUTO 18004KT 4SM 18/15 A2980 RMK T01800150 IEM_DS3505
ZGHA,2008-03-27 20:00,ZGHA 272000Z AUTO 16004KT 7SM 20/14 A2980 RMK T02000140 IEM_DS3505
ZGHA,2008-03-27 21:00,ZGHA 272100Z AUTO 4SM 19/14 A2977 RMK T01900140 IEM_DS3505
ZGHA,2008-03-27 22:00,ZGHA 272200Z AUTO 23004KT 3SM 17/14 A2980 RMK T01700140 IEM_DS3505
ZGHA,2008-03-27 23:00,ZGHA 272300Z AUTO 36006KT 2SM 16/15 A2983 RMK T01600150 IEM_DS3505
ZGHA,2008-03-28 00:00,ZGHA 280000Z AUTO 2SM 16/15 A2980 RMK T01600150 IEM_DS3505
ZGHA,2008-03-28 01:00,ZGHA 280100Z AUTO 31006KT 1 1/2SM 15/15 A2985 RMK T01500150 IEM_DS3505
ZGHA,2008-03-28 02:00,ZGHA 280200Z AUTO 07004KT 2SM 15/15 A2985 RMK T01500150 IEM_DS3505
ZGHA,2008-03-28 03:00,ZGHA 280300Z AUTO 08004KT 2SM 16/15 A2983 RMK T01600150 IEM_DS3505
ZGHA,2008-03-28 04:00,ZGHA 280400Z AUTO 2 1/2SM 16/16 A2983 RMK T01600160 IEM_DS3505
ZGHA,2008-03-28 05:00,ZGHA 280500Z AUTO 2 1/2SM 17/17 A2977 RMK T01700170 IEM_DS3505
ZGHA,2008-03-28 06:00,ZGHA 280600Z AUTO 00000KT 3SM 18/18 A2977 RMK T01800180 IEM_DS3505
ZGHA,2008-03-28 07:00,ZGHA 280700Z AUTO 4SM 18/17 A2974 RMK T01800170 IEM_DS3505
ZGHA,2008-03-28 08:00,ZGHA 280800Z AUTO 34004KT 4SM 19/17 A2974 RMK T01900170 IEM_DS3505
ZGHA,2008-03-28 09:00,ZGHA 280900Z AUTO 5SM 18/17 A2974 RMK T01800170 IEM_DS3505
ZGHA,2008-03-28 10:00,ZGHA 281000Z AUTO 04004KT 4SM 17/17 A2977 RMK T01700170 IEM_DS3505
ZGHA,2008-03-28 11:00,ZGHA 281100Z AUTO 04004KT 4SM 17/17 A2977 RMK T01700170 IEM_DS3505
ZGHA,2008-03-28 12:00,ZGHA 281200Z AUTO 04004KT 4SM 17/16 A2980 RMK T01700160 IEM_DS3505
ZGHA,2008-03-28 13:00,ZGHA 281300Z AUTO 07004KT 3SM 17/16 A2983 RMK T01700160 IEM_DS3505
ZGHA,2008-03-28 14:00,ZGHA 281400Z AUTO 08004KT 3SM 17/16 A2985 RMK T01700160 IEM_DS3505
ZGHA,2008-03-28 15:00,ZGHA 281500Z AUTO 3SM 16/16 A2985 RMK T01600160 IEM_DS3505
ZGHA,2008-03-28 16:00,ZGHA 281600Z AUTO 2 1/2SM 16/15 A2988 RMK T01600150 IEM_DS3505
ZGHA,2008-03-28 17:00,ZGHA 281700Z AUTO 2 1/2SM 16/16 A2988 RMK T01600160 IEM_DS3505
ZGHA,2008-03-28 18:00,ZGHA 281800Z AUTO 7SM 16/15 A2988 RMK T01600150 IEM_DS3505
ZGHA,2008-03-28 19:00,ZGHA 281900Z AUTO 00000KT 4SM 16/15 A2988 RMK T01600150 IEM_DS3505
ZGHA,2008-03-28 21:00,ZGHA 282100Z AUTO 07004KT 2 1/2SM 15/15 A2988 RMK T01500150 IEM_DS3505
ZGHA,2008-03-28 22:00,ZGHA 282200Z AUTO 04004KT 3SM 15/15 A2988 RMK T01500150 IEM_DS3505
ZGHA,2008-03-28 23:00,ZGHA 282300Z AUTO 09004KT 3SM 15/15 A2988 RMK T01500150 IEM_DS3505
ZGHA,2008-03-29 00:00,ZGHA 290000Z AUTO 00000KT 2SM 15/15 A2991 RMK T01500150 IEM_DS3505
ZGHA,2008-03-29 01:00,ZGHA 290100Z AUTO 00000KT 1 1/2SM 15/15 A2994 RMK T01500150 IEM_DS3505
ZGHA,2008-03-29 02:00,ZGHA 290200Z AUTO 34006KT 1 1/2SM 15/15 A2994 RMK T01500150 IEM_DS3505
ZGHA,2008-03-29 03:00,ZGHA 290300Z AUTO 34012KT 2SM 14/14 A2997 RMK T01400140 IEM_DS3505
ZGHA,2008-03-29 04:00,ZGHA 290400Z AUTO 34014KT 2SM 13/13 A2997 RMK T01300130 IEM_DS3505
ZGHA,2008-03-29 05:00,ZGHA 290500Z AUTO 34014KT 2SM 12/12 A2997 RMK T01200120 IEM_DS3505
ZGHA,2008-03-29 06:00,ZGHA 290600Z AUTO 34012KT 2SM 11/11 A2997 RMK T01100110 IEM_DS3505
ZGHA,2008-03-29 07:00,ZGHA 290700Z AUTO 34014KT 2SM 11/11 A2997 RMK T01100110 IEM_DS3505
ZGHA,2008-03-29 08:00,ZGHA 290800Z AUTO 34010KT 2SM 11/11 A2997 RMK T01100110 IEM_DS3505
ZGHA,2008-03-29 09:00,ZGHA 290900Z AUTO 34012KT 2SM 11/10 A3000 RMK T01100100 IEM_DS3505
ZGHA,2008-03-29 10:00,ZGHA 291000Z AUTO 34014KT 2SM 10/10 A3000 RMK T01000100 IEM_DS3505
ZGHA,2008-03-29 11:00,ZGHA 291100Z AUTO 34012KT 2 1/2SM 10/10 A3003 RMK T01000100 IEM_DS3505
ZGHA,2008-03-29 12:00,ZGHA 291200Z AUTO 34010KT 2 1/2SM 10/10 A3006 RMK T01000100 IEM_DS3505
ZGHA,2008-03-29 13:00,ZGHA 291300Z AUTO 34012KT 2 1/2SM 10/10 A3009 RMK T01000100 IEM_DS3505
ZGHA,2008-03-29 14:00,ZGHA 291400Z AUTO 35012KT 2 1/2SM 10/09 A3012 RMK T01000090 IEM_DS3505
ZGHA,2008-03-29 15:00,ZGHA 291500Z AUTO 34010KT 2 1/2SM 10/09 A3012 RMK T01000090 IEM_DS3505
ZGHA,2008-03-29 16:00,ZGHA 291600Z AUTO 34010KT 2 1/2SM 10/09 A3012 RMK T01000090 IEM_DS3505
ZGHA,2008-03-29 17:00,ZGHA 291700Z AUTO 34010KT 2 1/2SM 10/09 A3015 RMK T01000090 IEM_DS3505
ZGHA,2008-03-29 18:00,ZGHA 291800Z AUTO 34008KT 2 1/2SM 10/09 A3015 RMK T01000090 IEM_DS3505
ZGHA,2008-03-29 19:00,ZGHA 291900Z AUTO 35008KT 2SM 10/09 A3009 RMK T01000090 IEM_DS3505
ZGHA,2008-03-29 20:00,ZGHA 292000Z AUTO 33010KT 2SM 09/09 A3012 RMK T00900090 IEM_DS3505
ZGHA,2008-03-29 21:00,ZGHA 292100Z AUTO 33008KT 2 1/2SM 10/09 A3012 RMK T01000090 IEM_DS3505
ZGHA,2008-03-29 22:00,ZGHA 292200Z AUTO 35008KT 2SM 09/09 A3012 RMK T00900090 IEM_DS3505
ZGHA,2008-03-29 23:00,ZGHA 292300Z AUTO 36008KT 3SM 10/09 A3012 RMK T01000090 IEM_DS3505
ZGHA,2008-03-30 00:00,ZGHA 300000Z AUTO 36008KT 4SM 10/08 A3015 RMK T01000080 IEM_DS3505
ZGHA,2008-03-30 01:00,ZGHA 300100Z AUTO 36010KT 3SM 09/08 A3015 RMK T00900080 IEM_DS3505
ZGHA,2008-03-30 02:00,ZGHA 300200Z AUTO 34008KT 3SM 10/08 A3018 RMK T01000080 IEM_DS3505
ZGHA,2008-03-30 03:00,ZGHA 300300Z AUTO 34008KT 2 1/2SM 10/08 A3018 RMK T01000080 IEM_DS3505
ZGHA,2008-03-30 04:00,ZGHA 300400Z AUTO 33006KT 2 1/2SM 09/09 A3018 RMK T00900090 IEM_DS3505
ZGHA,2008-03-30 05:00,ZGHA 300500Z AUTO 33008KT 2SM 10/09 A3015 RMK T01000090 IEM_DS3505
ZGHA,2008-03-30 06:00,ZGHA 300600Z AUTO 36004KT 2SM 10/09 A3012 RMK T01000090 IEM_DS3505
ZGHA,2008-03-30 07:00,ZGHA 300700Z AUTO 34006KT 2 1/2SM 10/10 A3009 RMK T01000100 IEM_DS3505
ZGHA,2008-03-30 08:00,ZGHA 300800Z AUTO 34006KT 2 1/2SM 10/10 A3009 RMK T01000100 IEM_DS3505
ZGHA,2008-03-30 09:00,ZGHA 300900Z AUTO 2 1/2SM 10/09 A3009 RMK T01000090 IEM_DS3505
ZGHA,2008-03-30 10:00,ZGHA 301000Z AUTO 36004KT 2 1/2SM 10/09 A3009 RMK T01000090 IEM_DS3505
ZGHA,2008-03-30 11:00,ZGHA 301100Z AUTO 35006KT 2SM 10/09 A3012 RMK T01000090 IEM_DS3505
ZGHA,2008-03-30 12:00,ZGHA 301200Z AUTO 01004KT 2SM 10/09 A3012 RMK T01000090 IEM_DS3505
ZGHA,2008-03-30 13:00,ZGHA 301300Z AUTO 34006KT 2SM 10/10 A3012 RMK T01000100 IEM_DS3505
ZGHA,2008-03-30 14:00,ZGHA 301400Z AUTO 01004KT 2SM 10/09 A3012 RMK T01000090 IEM_DS3505
ZGHA,2008-03-30 15:00,ZGHA 301500Z AUTO 36004KT 2SM 10/10 A3012 RMK T01000100 IEM_DS3505
ZGHA,2008-03-30 16:00,ZGHA 301600Z AUTO 36004KT 1 1/2SM 10/10 A3012 RMK T01000100 IEM_DS3505
ZGHA,2008-03-30 17:00,ZGHA 301700Z AUTO 1SM 10/10 A3012 RMK T01000100 IEM_DS3505
ZGHA,2008-03-30 18:00,ZGHA 301800Z AUTO 34004KT 1SM 10/10 A3012 RMK T01000100 IEM_DS3505
ZGHA,2008-03-30 19:00,ZGHA 301900Z AUTO 35004KT 1SM 10/10 A3009 RMK T01000100 IEM_DS3505
ZGHA,2008-03-30 20:00,ZGHA 302000Z AUTO 1SM 10/10 A3006 RMK T01000100 IEM_DS3505
ZGHA,2008-03-30 21:00,ZGHA 302100Z AUTO 1 1/2SM 10/10 A3006 RMK T01000100 IEM_DS3505
ZGHA,2008-03-30 22:00,ZGHA 302200Z AUTO 30006KT 1 1/2SM 10/10 A3009 RMK T01000100 IEM_DS3505
ZGHA,2008-03-30 23:00,ZGHA 302300Z AUTO 36004KT 1SM 10/10 A3006 RMK T01000100 IEM_DS3505
ZGHA,2008-03-31 00:00,ZGHA 310000Z AUTO 1SM 10/10 A3012 RMK T01000100 IEM_DS3505
ZGHA,2008-03-31 01:00,ZGHA 310100Z AUTO 30004KT 1 1/2SM 10/10 A3018 RMK T01000100 IEM_DS3505
ZGHA,2008-03-31 02:00,ZGHA 310200Z AUTO 06004KT 1 1/4SM 11/10 A3015 RMK T01100100 IEM_DS3505
ZGHA,2008-03-31 03:00,ZGHA 310300Z AUTO 2 1/2SM 11/11 A3015 RMK T01100110 IEM_DS3505
ZGHA,2008-03-31 04:00,ZGHA 310400Z AUTO 3SM 11/11 A3015 RMK T01100110 IEM_DS3505
ZGHA,2008-03-31 05:00,ZGHA 310500Z AUTO 36004KT 4SM 12/11 A3012 RMK T01200110 IEM_DS3505
ZGHA,2008-03-31 06:00,ZGHA 310600Z AUTO 35004KT 4SM 12/12 A3009 RMK T01200120 IEM_DS3505
ZGHA,2008-03-31 07:00,ZGHA 310700Z AUTO 34004KT 4SM 12/11 A3009 RMK T01200110 IEM_DS3505
ZGHA,2008-03-31 08:00,ZGHA 310800Z AUTO 3SM 12/11 A3009 RMK T01200110 IEM_DS3505
ZGHA,2008-03-31 09:00,ZGHA 310900Z AUTO 35004KT 1 1/2SM 11/11 A3009 RMK T01100110 IEM_DS3505
ZGHA,2008-03-31 10:00,ZGHA 311000Z AUTO 00000KT 2 1/2SM 11/11 A3012 RMK T01100110 IEM_DS3505
ZGHA,2008-03-31 11:00,ZGHA 311100Z AUTO 10004KT 2 1/2SM 11/11 A3012 RMK T01100110 IEM_DS3505
ZGHA,2008-03-31 12:00,ZGHA 311200Z AUTO 09004KT 3SM 10/10 A3015 RMK T01000100 IEM_DS3505
ZGHA,2008-03-31 13:00,ZGHA 311300Z AUTO 00000KT 3SM 11/10 A3015 RMK T01100100 IEM_DS3505
ZGHA,2008-03-31 14:00,ZGHA 311400Z AUTO 2 1/2SM 11/10 A3015 RMK T01100100 IEM_DS3505
ZGHA,2008-03-31 15:00,ZGHA 311500Z AUTO 00000KT 2 1/2SM 11/10 A3015 RMK T01100100 IEM_DS3505
ZGHA,2008-03-31 16:00,ZGHA 311600Z AUTO 30002KT 2 1/2SM 10/10 A3015 RMK T01000100 IEM_DS3505
ZGHA,2008-03-31 17:00,ZGHA 311700Z AUTO 32002KT 2 1/2SM 11/10 A3015 RMK T01100100 IEM_DS3505
ZGHA,2008-03-31 18:00,ZGHA 311800Z AUTO 36002KT 1 1/4SM 11/10 A3015 RMK T01100100 IEM_DS3505
ZGHA,2008-03-31 19:00,ZGHA 311900Z AUTO 32004KT 2SM 11/10 A3012 RMK T01100100 IEM_DS3505
ZGHA,2008-03-31 20:00,ZGHA 312000Z AUTO 34002KT 1SM 11/10 A3012 RMK T01100100 IEM_DS3505
ZGHA,2008-03-31 21:00,ZGHA 312100Z AUTO 1 1/4SM 11/10 A3012 RMK T01100100 IEM_DS3505
ZGHA,2008-03-31 22:00,ZGHA 312200Z AUTO 1 1/2SM 11/10 A3012 RMK T01100100 IEM_DS3505
ZGHA,2008-03-31 23:00,ZGHA 312300Z AUTO 00000KT 1 1/2SM 11/10 A3015 RMK T01100100 IEM_DS3505
ZGHA,2008-04-01 00:00,ZGHA 010000Z AUTO 00000KT 2 1/2SM 11/11 A3018 RMK T01100110 IEM_DS3505
ZGHA,2008-04-01 01:00,ZGHA 010100Z AUTO 34004KT 2 1/2SM 12/11 A3021 RMK T01200110 IEM_DS3505
ZGHA,2008-04-01 02:00,ZGHA 010200Z AUTO 3SM 12/11 A3018 RMK T01200110 IEM_DS3505
ZGHA,2008-04-01 03:00,ZGHA 010300Z AUTO 00000KT 3SM 12/12 A3018 RMK T01200120 IEM_DS3505
ZGHA,2008-04-01 04:00,ZGHA 010400Z AUTO 24004KT 3SM 12/11 A3018 RMK T01200110 IEM_DS3505
ZGHA,2008-04-01 05:00,ZGHA 010500Z AUTO 24006KT 3SM 12/11 A3015 RMK T01200110 IEM_DS3505
ZGHA,2008-04-01 06:00,ZGHA 010600Z AUTO 23006KT 3SM 13/10 A3015 RMK T01300100 IEM_DS3505
ZGHA,2008-04-01 07:00,ZGHA 010700Z AUTO 21004KT 3SM 13/10 A3012 RMK T01300100 IEM_DS3505
ZGHA,2008-04-01 08:00,ZGHA 010800Z AUTO 3SM 13/10 A3012 RMK T01300100 IEM_DS3505
ZGHA,2008-04-01 09:00,ZGHA 010900Z AUTO 3SM 13/11 A3012 RMK T01300110 IEM_DS3505
ZGHA,2008-04-01 10:00,ZGHA 011000Z AUTO 3SM 12/11 A3012 RMK T01200110 IEM_DS3505
ZGHA,2008-04-01 11:00,ZGHA 011100Z AUTO 00000KT 2 1/2SM 12/11 A3015 RMK T01200110 IEM_DS3505
ZGHA,2008-04-01 12:00,ZGHA 011200Z AUTO 18002KT 2 1/2SM 12/11 A3015 RMK T01200110 IEM_DS3505
ZGHA,2008-04-01 13:00,ZGHA 011300Z AUTO 19002KT 2SM 12/11 A3018 RMK T01200110 IEM_DS3505
ZGHA,2008-04-01 14:00,ZGHA 011400Z AUTO 00000KT 1 1/2SM 11/11 A3021 RMK T01100110 IEM_DS3505
ZGHA,2008-04-01 15:00,ZGHA 011500Z AUTO 00000KT 1 1/2SM 11/10 A3021 RMK T01100100 IEM_DS3505
ZGHA,2008-04-01 16:00,ZGHA 011600Z AUTO 1 1/4SM 10/10 A3021 RMK T01000100 IEM_DS3505
ZGHA,2008-04-01 17:00,ZGHA 011700Z AUTO 00000KT 1/8SM 10/09 A3021 RMK T01000090 IEM_DS3505
ZGHA,2008-04-01 18:00,ZGHA 011800Z AUTO 00000KT 0SM 10/09 A3018 RMK T01000090 IEM_DS3505
ZGHA,2008-04-01 19:00,ZGHA 011900Z AUTO 1/8SM 10/10 A3015 RMK T01000100 IEM_DS3505
ZGHA,2008-04-01 20:00,ZGHA 012000Z AUTO 35002KT 1/8SM 10/10 A3015 RMK T01000100 IEM_DS3505
ZGHA,2008-04-01 21:00,ZGHA 012100Z AUTO 00000KT 1SM 10/10 A3015 RMK T01000100 IEM_DS3505
ZGHA,2008-04-01 22:00,ZGHA 012200Z AUTO 1SM 10/10 A3018 RMK T01000100 IEM_DS3505
ZGHA,2008-04-01 23:00,ZGHA 012300Z AUTO 1SM 10/10 A3021 RMK T01000100 IEM_DS3505
ZGHA,2008-04-02 00:00,ZGHA 020000Z AUTO 04002KT 1SM 10/10 A3021 RMK T01000100 IEM_DS3505
ZGHA,2008-04-02 01:00,ZGHA 020100Z AUTO 1SM 10/10 A3024 RMK T01000100 IEM_DS3505
ZGHA,2008-04-02 02:00,ZGHA 020200Z AUTO 1 1/4SM 11/11 A3024 RMK T01100110 IEM_DS3505
ZGHA,2008-04-02 03:00,ZGHA 020300Z AUTO 23002KT 1 1/2SM 11/11 A3024 RMK T01100110 IEM_DS3505
ZGHA,2008-04-02 04:00,ZGHA 020400Z AUTO 00000KT 1 1/2SM 12/12 A3024 RMK T01200120 IEM_DS3505
ZGHA,2008-04-02 05:00,ZGHA 020500Z AUTO 32004KT 2 1/2SM 14/13 A3021 RMK T01400130 IEM_DS3505
ZGHA,2008-04-02 06:00,ZGHA 020600Z AUTO 32004KT 2 1/2SM 18/14 A3018 RMK T01800140 IEM_DS3505
ZGHA,2008-04-02 07:00,ZGHA 020700Z AUTO 4SM 17/10 A3015 RMK T01700100 IEM_DS3505
ZGHA,2008-04-02 08:00,ZGHA 020800Z AUTO 34004KT 4SM 17/11 A3012 RMK T01700110 IEM_DS3505
ZGHA,2008-04-02 09:00,ZGHA 020900Z AUTO 00000KT 5SM 17/09 A3012 RMK T01700090 IEM_DS3505
ZGHA,2008-04-02 10:00,ZGHA 021000Z AUTO 30004KT 5SM 17/10 A3015 RMK T01700100 IEM_DS3505
ZGHA,2008-04-02 11:00,ZGHA 021100Z AUTO 02002KT 4SM 15/11 A3012 RMK T01500110 IEM_DS3505
ZGHA,2008-04-02 12:00,ZGHA 021200Z AUTO 32004KT 3SM 15/12 A3015 RMK T01500120 IEM_DS3505
ZGHA,2008-04-02 13:00,ZGHA 021300Z AUTO 00000KT 2 1/2SM 14/12 A3015 RMK T01400120 IEM_DS3505
ZGHA,2008-04-02 14:00,ZGHA 021400Z AUTO 00000KT 2 1/2SM 14/12 A3018 RMK T01400120 IEM_DS3505
ZGHA,2008-04-02 15:00,ZGHA 021500Z AUTO 35002KT 2SM 13/12 A3018 RMK T01300120 IEM_DS3505
ZGHA,2008-04-02 16:00,ZGHA 021600Z AUTO 00000KT 1 1/2SM 13/12 A3015 RMK T01300120 IEM_DS3505
ZGHA,2008-04-02 17:00,ZGHA 021700Z AUTO 15002KT 1SM 13/12 A3015 RMK T01300120 IEM_DS3505
ZGHA,2008-04-02 18:00,ZGHA 021800Z AUTO 1SM 13/12 A3012 RMK T01300120 IEM_DS3505
ZGHA,2008-04-02 19:00,ZGHA 021900Z AUTO 1 1/2SM 13/12 A3009 RMK T01300120 IEM_DS3505
ZGHA,2008-04-02 20:00,ZGHA 022000Z AUTO 00000KT 1 1/2SM 12/11 A3009 RMK T01200110 IEM_DS3505
ZGHA,2008-04-02 21:00,ZGHA 022100Z AUTO 20002KT 2SM 11/11 A3006 RMK T01100110 IEM_DS3505
ZGHA,2008-04-02 22:00,ZGHA 022200Z AUTO 00000KT 1 1/2SM 12/11 A3009 RMK T01200110 IEM_DS3505
ZGHA,2008-04-02 23:00,ZGHA 022300Z AUTO 2SM 12/11 A3009 RMK T01200110 IEM_DS3505
ZGHA,2008-04-03 00:00,ZGHA 030000Z AUTO 2SM 13/12 A3009 RMK T01300120 IEM_DS3505
ZGHA,2008-04-03 01:00,ZGHA 030100Z AUTO 10002KT 3SM 14/12 A3009 RMK T01400120 IEM_DS3505
ZGHA,2008-04-03 02:00,ZGHA 030200Z AUTO 00000KT 6SM 16/09 A3009 RMK T01600090 IEM_DS3505
ZGHA,2008-04-03 03:00,ZGHA 030300Z AUTO 7SM 16/09 A3006 RMK T01600090 IEM_DS3505
ZGHA,2008-04-03 04:00,ZGHA 030400Z AUTO 7SM 17/10 A3003 RMK T01700100 IEM_DS3505
ZGHA,2008-04-03 05:00,ZGHA 030500Z AUTO 32004KT 7SM 16/09 A3003 RMK T01600090 IEM_DS3505
ZGHA,2008-04-03 06:00,ZGHA 030600Z AUTO 7SM 16/09 A3000 RMK T01600090 IEM_DS3505
ZGHA,2008-04-03 07:00,ZGHA 030700Z AUTO 34004KT 7SM 16/10 A2997 RMK T01600100 IEM_DS3505
ZGHA,2008-04-03 08:00,ZGHA 030800Z AUTO 7SM 16/09 A2994 RMK T01600090 IEM_DS3505
ZGHA,2008-04-03 09:00,ZGHA 030900Z AUTO 5SM 16/11 A2994 RMK T01600110 IEM_DS3505
ZGHA,2008-04-03 10:00,ZGHA 031000Z AUTO 5SM 15/11 A2994 RMK T01500110 IEM_DS3505
ZGHA,2008-04-03 11:00,ZGHA 031100Z AUTO 4SM 15/11 A2994 RMK T01500110 IEM_DS3505
ZGHA,2008-04-03 12:00,ZGHA 031200Z AUTO 36004KT 4SM 15/11 A2994 RMK T01500110 IEM_DS3505
ZGHA,2008-04-03 13:00,ZGHA 031300Z AUTO 36004KT 3SM 14/11 A3000 RMK T01400110 IEM_DS3505
ZGHA,2008-04-03 14:00,ZGHA 031400Z AUTO 2 1/2SM 14/11 A3000 RMK T01400110 IEM_DS3505
ZGHA,2008-04-03 15:00,ZGHA 031500Z AUTO 2SM 14/11 A3000 RMK T01400110 IEM_DS3505
ZGHA,2008-04-03 16:00,ZGHA 031600Z AUTO 36004KT 2SM 13/12 A3000 RMK T01300120 IEM_DS3505
ZGHA,2008-04-03 18:00,ZGHA 031800Z AUTO 01004KT 1SM 12/12 A3000 RMK T01200120 IEM_DS3505
ZGHA,2008-04-03 19:00,ZGHA 031900Z AUTO 1/2SM 12/12 A2997 RMK T01200120 IEM_DS3505
ZGHA,2008-04-03 20:00,ZGHA 032000Z AUTO 1SM 12/12 A2997 RMK T01200120 IEM_DS3505
ZGHA,2008-04-03 21:00,ZGHA 032100Z AUTO 31006KT 1SM 12/12 A3000 RMK T01200120 IEM_DS3505
ZGHA,2008-04-03 22:00,ZGHA 032200Z AUTO 1SM 12/12 A3000 RMK T01200120 IEM_DS3505
ZGHA,2008-04-03 23:00,ZGHA 032300Z AUTO 1SM 12/12 A3000 RMK T01200120 IEM_DS3505
ZGHA,2008-04-04 00:00,ZGHA 040000Z AUTO 1SM 12/12 A3003 RMK T01200120 IEM_DS3505
ZGHA,2008-04-04 01:00,ZGHA 040100Z AUTO 2SM 12/12 A3006 RMK T01200120 IEM_DS3505
ZGHA,2008-04-04 02:00,ZGHA 040200Z AUTO 00000KT 1 1/2SM 13/13 A3006 RMK T01300130 IEM_DS3505
ZGHA,2008-04-04 03:00,ZGHA 040300Z AUTO 2 1/2SM 13/13 A3003 RMK T01300130 IEM_DS3505
ZGHA,2008-04-04 04:00,ZGHA 040400Z AUTO 3SM 14/14 A3006 RMK T01400140 IEM_DS3505
ZGHA,2008-04-04 05:00,ZGHA 040500Z AUTO 34006KT 3SM 15/14 A3003 RMK T01500140 IEM_DS3505
ZGHA,2008-04-04 06:00,ZGHA 040600Z AUTO 35006KT 3SM 15/13 A3003 RMK T01500130 IEM_DS3505
ZGHA,2008-04-04 07:00,ZGHA 040700Z AUTO 4SM 16/13 A3000 RMK T01600130 IEM_DS3505
ZGHA,2008-04-04 08:00,ZGHA 040800Z AUTO 4SM 17/13 A2997 RMK T01700130 IEM_DS3505
ZGHA,2008-04-04 09:00,ZGHA 040900Z AUTO 4SM 16/13 A2997 RMK T01600130 IEM_DS3505
ZGHA,2008-04-04 10:00,ZGHA 041000Z AUTO 00000KT 4SM 16/14 A2997 RMK T01600140 IEM_DS3505
ZGHA,2008-04-04 11:00,ZGHA 041100Z AUTO 00000KT 4SM 15/13 A2997 RMK T01500130 IEM_DS3505
ZGHA,2008-04-04 12:00,ZGHA 041200Z AUTO 01004KT 4SM 15/13 A3000 RMK T01500130 IEM_DS3505
ZGHA,2008-04-04 13:00,ZGHA 041300Z AUTO 3SM 15/14 A3000 RMK T01500140 IEM_DS3505
ZGHA,2008-04-04 14:00,ZGHA 041400Z AUTO 00000KT 3SM 15/14 A3003 RMK T01500140 IEM_DS3505
ZGHA,2008-04-04 15:00,ZGHA 041500Z AUTO 00000KT 3SM 15/14 A3003 RMK T01500140 IEM_DS3505
ZGHA,2008-04-04 16:00,ZGHA 041600Z AUTO 21002KT 2 1/2SM 15/14 A3003 RMK T01500140 IEM_DS3505
ZGHA,2008-04-04 18:00,ZGHA 041800Z AUTO 27002KT 1 1/2SM 14/14 A3003 RMK T01400140 IEM_DS3505
ZGHA,2008-04-04 19:00,ZGHA 041900Z AUTO 07002KT 1SM 14/14 A3000 RMK T01400140 IEM_DS3505
ZGHA,2008-04-04 20:00,ZGHA 042000Z AUTO 1 1/4SM 14/14 A3000 RMK T01400140 IEM_DS3505
ZGHA,2008-04-04 21:00,ZGHA 042100Z AUTO 00000KT 2SM 14/14 A3000 RMK T01400140 IEM_DS3505
ZGHA,2008-04-04 22:00,ZGHA 042200Z AUTO 1 1/2SM 14/14 A3000 RMK T01400140 IEM_DS3505
ZGHA,2008-04-04 23:00,ZGHA 042300Z AUTO 00000KT 1 1/2SM 14/14 A3003 RMK T01400140 IEM_DS3505
ZGHA,2008-04-05 00:00,ZGHA 050000Z AUTO 1 1/2SM 15/14 A3003 RMK T01500140 IEM_DS3505
ZGHA,2008-04-05 01:00,ZGHA 050100Z AUTO 18004KT 2 1/2SM 16/15 A3003 RMK T01600150 IEM_DS3505
ZGHA,2008-04-05 02:00,ZGHA 050200Z AUTO 18006KT 4SM 17/16 A3003 RMK T01700160 IEM_DS3505
ZGHA,2008-04-05 03:00,ZGHA 050300Z AUTO 18004KT 4SM 19/16 A3000 RMK T01900160 IEM_DS3505
ZGHA,2008-04-05 04:00,ZGHA 050400Z AUTO 18004KT 5SM 19/16 A3000 RMK T01900160 IEM_DS3505
ZGHA,2008-04-05 05:00,ZGHA 050500Z AUTO 5SM 20/16 A2997 RMK T02000160 IEM_DS3505
ZGHA,2008-04-05 06:00,ZGHA 050600Z AUTO 7SM 20/17 A2994 RMK T02000170 IEM_DS3505
ZGHA,2008-04-05 07:00,ZGHA 050700Z AUTO 00000KT 7SM 21/17 A2991 RMK T02100170 IEM_DS3505
ZGHA,2008-04-05 08:00,ZGHA 050800Z AUTO 36004KT 7SM 20/17 A2991 RMK T02000170 IEM_DS3505
ZGHA,2008-04-05 09:00,ZGHA 050900Z AUTO 00000KT 7SM 20/17 A2991 RMK T02000170 IEM_DS3505
ZGHA,2008-04-05 10:00,ZGHA 051000Z AUTO 4SM 20/17 A2991 RMK T02000170 IEM_DS3505
ZGHA,2008-04-05 11:00,ZGHA 051100Z AUTO 34008KT 3SM 18/17 A2991 RMK T01800170 IEM_DS3505
ZGHA,2008-04-05 12:00,ZGHA 051200Z AUTO 36004KT 2 1/2SM 18/17 A2994 RMK T01800170 IEM_DS3505
ZGHA,2008-04-05 13:00,ZGHA 051300Z AUTO 36004KT 2 1/2SM 18/17 A2994 RMK T01800170 IEM_DS3505
ZGHA,2008-04-05 14:00,ZGHA 051400Z AUTO 36006KT 2 1/2SM 18/17 A2997 RMK T01800170 IEM_DS3505
ZGHA,2008-04-05 15:00,ZGHA 051500Z AUTO 2 1/2SM 17/16 A2997 RMK T01700160 IEM_DS3505
ZGHA,2008-04-05 16:00,ZGHA 051600Z AUTO 00000KT 2SM 17/16 A2997 RMK T01700160 IEM_DS3505
ZGHA,2008-04-05 17:00,ZGHA 051700Z AUTO 30004KT 2SM 17/16 A2997 RMK T01700160 IEM_DS3505
ZGHA,2008-04-05 19:00,ZGHA 051900Z AUTO 34004KT 1SM 16/16 A2994 RMK T01600160 IEM_DS3505
ZGHA,2008-04-05 21:00,ZGHA 052100Z AUTO 00000KT 1 1/2SM 16/16 A2994 RMK T01600160 IEM_DS3505
ZGHA,2008-04-05 22:00,ZGHA 052200Z AUTO 00000KT 1SM 16/16 A2994 RMK T01600160 IEM_DS3505
ZGHA,2008-04-05 23:00,ZGHA 052300Z AUTO 00000KT 1SM 16/16 A2994 RMK T01600160 IEM_DS3505
ZGHA,2008-04-06 00:00,ZGHA 060000Z AUTO 33004KT 2SM 17/17 A2997 RMK T01700170 IEM_DS3505
ZGHA,2008-04-06 01:00,ZGHA 060100Z AUTO 3SM 20/18 A2997 RMK T02000180 IEM_DS3505
ZGHA,2008-04-06 02:00,ZGHA 060200Z AUTO 4SM 22/17 A2997 RMK T02200170 IEM_DS3505
ZGHA,2008-04-06 03:00,ZGHA 060300Z AUTO 4SM 22/17 A2997 RMK T02200170 IEM_DS3505
ZGHA,2008-04-06 04:00,ZGHA 060400Z AUTO 5SM 23/17 A2997 RMK T02300170 IEM_DS3505
ZGHA,2008-04-06 05:00,ZGHA 060500Z AUTO 5SM 24/17 A2991 RMK T02400170 IEM_DS3505
ZGHA,2008-04-06 06:00,ZGHA 060600Z AUTO 5SM 24/18 A2991 RMK T02400180 IEM_DS3505
ZGHA,2008-04-06 07:00,ZGHA 060700Z AUTO 00000KT 6SM 25/19 A2988 RMK T02500190 IEM_DS3505
ZGHA,2008-04-06 08:00,ZGHA 060800Z AUTO 6SM 25/19 A2985 RMK T02500190 IEM_DS3505
ZGHA,2008-04-06 09:00,ZGHA 060900Z AUTO 5SM 25/19 A2983 RMK T02500190 IEM_DS3505
ZGHA,2008-04-06 10:00,ZGHA 061000Z AUTO 00000KT 4SM 25/20 A2983 RMK T02500200 IEM_DS3505
ZGHA,2008-04-06 11:00,ZGHA 061100Z AUTO 4SM 23/20 A2983 RMK T02300200 IEM_DS3505
ZGHA,2008-04-06 12:00,ZGHA 061200Z AUTO 3SM 22/20 A2985 RMK T02200200 IEM_DS3505
ZGHA,2008-04-06 13:00,ZGHA 061300Z AUTO 01002KT 2 1/2SM 22/20 A2985 RMK T02200200 IEM_DS3505
ZGHA,2008-04-06 14:00,ZGHA 061400Z AUTO 2 1/2SM 21/20 A2985 RMK T02100200 IEM_DS3505
ZGHA,2008-04-06 15:00,ZGHA 061500Z AUTO 35002KT 2 1/2SM 21/20 A2983 RMK T02100200 IEM_DS3505
ZGHA,2008-04-06 16:00,ZGHA 061600Z AUTO 30004KT 2 1/2SM 20/19 A2983 RMK T02000190 IEM_DS3505
ZGHA,2008-04-06 18:00,ZGHA 061800Z AUTO 00000KT 1SM 19/19 A2980 RMK T01900190 IEM_DS3505
ZGHA,2008-04-06 21:00,ZGHA 062100Z AUTO 00000KT 1SM 17/17 A2977 RMK T01700170 IEM_DS3505
ZGHA,2008-04-06 22:00,ZGHA 062200Z AUTO 00000KT 1SM 18/17 A2977 RMK T01800170 IEM_DS3505
ZGHA,2008-04-06 23:00,ZGHA 062300Z AUTO 00000KT 1SM 18/17 A2977 RMK T01800170 IEM_DS3505
ZGHA,2008-04-07 00:00,ZGHA 070000Z AUTO 1 1/4SM 20/20 A2980 RMK T02000200 IEM_DS3505
ZGHA,2008-04-07 01:00,ZGHA 070100Z AUTO 1 1/2SM 24/22 A2980 RMK T02400220 IEM_DS3505
ZGHA,2008-04-07 02:00,ZGHA 070200Z AUTO 17006KT 4SM 28/22 A2980 RMK T02800220 IEM_DS3505
ZGHA,2008-04-07 03:00,ZGHA 070300Z AUTO 17006KT 6SM 29/23 A2977 RMK T02900230 IEM_DS3505
ZGHA,2008-04-07 04:00,ZGHA 070400Z AUTO 18012KT 6SM 30/22 A2974 RMK T03000220 IEM_DS3505
ZGHA,2008-04-07 05:00,ZGHA 070500Z AUTO 20010KT 6SM 31/23 A2971 RMK T03100230 IEM_DS3505
ZGHA,2008-04-07 06:00,ZGHA 070600Z AUTO 19012KT 7SM 32/23 A2968 RMK T03200230 IEM_DS3505
ZGHA,2008-04-07 07:00,ZGHA 070700Z AUTO 18012KT 6SM 32/22 A2965 RMK T03200220 IEM_DS3505
ZGHA,2008-04-07 08:00,ZGHA 070800Z AUTO 18014KT 6SM 32/22 A2962 RMK T03200220 IEM_DS3505
ZGHA,2008-04-07 09:00,ZGHA 070900Z AUTO 6SM 31/22 A2959 RMK T03100220 IEM_DS3505
ZGHA,2008-04-07 10:00,ZGHA 071000Z AUTO 15004KT 6SM 31/22 A2959 RMK T03100220 IEM_DS3505
ZGHA,2008-04-07 11:00,ZGHA 071100Z AUTO 6SM 29/22 A2956 RMK T02900220 IEM_DS3505
ZGHA,2008-04-07 12:00,ZGHA 071200Z AUTO 13004KT 6SM 28/22 A2959 RMK T02800220 IEM_DS3505
ZGHA,2008-04-07 13:00,ZGHA 071300Z AUTO 12004KT 6SM 28/22 A2959 RMK T02800220 IEM_DS3505
ZGHA,2008-04-07 14:00,ZGHA 071400Z AUTO 00000KT 6SM 26/22 A2962 RMK T02600220 IEM_DS3505
ZGHA,2008-04-07 15:00,ZGHA 071500Z AUTO 18004KT 6SM 25/22 A2962 RMK T02500220 IEM_DS3505
ZGHA,2008-04-07 16:00,ZGHA 071600Z AUTO 14004KT 6SM 26/22 A2962 RMK T02600220 IEM_DS3505
ZGHA,2008-04-07 17:00,ZGHA 071700Z AUTO 16004KT 6SM 25/21 A2959 RMK T02500210 IEM_DS3505
ZGHA,2008-04-07 18:00,ZGHA 071800Z AUTO 16004KT 6SM 25/21 A2959 RMK T02500210 IEM_DS3505
ZGHA,2008-04-07 20:00,ZGHA 072000Z AUTO 00000KT 7SM RMK IEM_DS3505
ZGHA,2008-04-07 21:00,ZGHA 072100Z AUTO 34008KT 6SM 25/20 A2950 RMK T02500200 IEM_DS3505
ZGHA,2008-04-07 22:00,ZGHA 072200Z AUTO 17008KT 6SM 25/24 A2950 RMK T02500240 IEM_DS3505
ZGHA,2008-04-07 23:00,ZGHA 072300Z AUTO 16004KT 6SM 25/21 A2953 RMK T02500210 IEM_DS3505
ZGHA,2008-04-08 00:00,ZGHA 080000Z AUTO 6SM 26/22 A2953 RMK T02600220 IEM_DS3505
ZGHA,2008-04-08 01:00,ZGHA 080100Z AUTO 15004KT 6SM 28/23 A2956 RMK T02800230 IEM_DS3505
ZGHA,2008-04-08 02:00,ZGHA 080200Z AUTO 20014KT 7SM 30/23 A2956 RMK T03000230 IEM_DS3505
ZGHA,2008-04-08 03:00,ZGHA 080300Z AUTO 19016KT 6SM 30/22 A2953 RMK T03000220 IEM_DS3505
ZGHA,2008-04-08 04:00,ZGHA 080400Z AUTO 20016KT 7SM 32/23 A2950 RMK T03200230 IEM_DS3505
ZGHA,2008-04-08 05:00,ZGHA 080500Z AUTO 21010KT 7SM 32/23 A2950 RMK T03200230 IEM_DS3505
ZGHA,2008-04-08 06:00,ZGHA 080600Z AUTO 24014KT 7SM 33/22 A2947 RMK T03300220 IEM_DS3505
ZGHA,2008-04-08 07:00,ZGHA 080700Z AUTO 25010KT 7SM 34/22 A2944 RMK T03400220 IEM_DS3505
ZGHA,2008-04-08 08:00,ZGHA 080800Z AUTO 22016KT 7SM 34/22 A2941 RMK T03400220 IEM_DS3505
ZGHA,2008-04-08 09:00,ZGHA 080900Z AUTO 36010KT 7SM 28/23 A2944 RMK T02800230 IEM_DS3505
ZGHA,2008-04-08 10:00,ZGHA 081000Z AUTO 12004KT 2 1/2SM 23/23 A2950 RMK T02300230 IEM_DS3505
ZGHA,2008-04-08 11:00,ZGHA 081100Z AUTO 02006KT 2SM 23/22 A2950 RMK T02300220 IEM_DS3505
ZGHA,2008-04-08 12:00,ZGHA 081200Z AUTO 35004KT 2 1/2SM 22/21 A2953 RMK T02200210 IEM_DS3505
ZGHA,2008-04-08 13:00,ZGHA 081300Z AUTO 34006KT 4SM 22/21 A2962 RMK T02200210 IEM_DS3505
ZGHA,2008-04-08 14:00,ZGHA 081400Z AUTO 02006KT 4SM 22/21 A2965 RMK T02200210 IEM_DS3505
ZGHA,2008-04-08 15:00,ZGHA 081500Z AUTO 35004KT 3SM 22/21 A2968 RMK T02200210 IEM_DS3505
ZGHA,2008-04-08 16:00,ZGHA 081600Z AUTO 33006KT 2 1/2SM 22/21 A2968 RMK T02200210 IEM_DS3505
ZGHA,2008-04-08 17:00,ZGHA 081700Z AUTO 33010KT 2 1/2SM 21/20 A2971 RMK T02100200 IEM_DS3505
ZGHA,2008-04-08 18:00,ZGHA 081800Z AUTO 32008KT 2 1/2SM 21/20 A2971 RMK T02100200 IEM_DS3505
ZGHA,2008-04-08 19:00,ZGHA 081900Z AUTO 34006KT 2 1/2SM 20/19 A2971 RMK T02000190 IEM_DS3505
ZGHA,2008-04-08 20:00,ZGHA 082000Z AUTO 35004KT 2 1/2SM 20/19 A2974 RMK T02000190 IEM_DS3505
ZGHA,2008-04-08 21:00,ZGHA 082100Z AUTO 34006KT 1 1/4SM 19/19 A2974 RMK T01900190 IEM_DS3505
ZGHA,2008-04-08 22:00,ZGHA 082200Z AUTO 32006KT 1 1/2SM 19/18 A2977 RMK T01900180 IEM_DS3505
ZGHA,2008-04-08 23:00,ZGHA 082300Z AUTO 34004KT 2 1/2SM 19/19 A2980 RMK T01900190 IEM_DS3505
ZGHA,2008-04-09 00:00,ZGHA 090000Z AUTO 35004KT 4SM 21/20 A2980 RMK T02100200 IEM_DS3505
ZGHA,2008-04-09 01:00,ZGHA 090100Z AUTO 33006KT 5SM 22/18 A2983 RMK T02200180 IEM_DS3505
ZGHA,2008-04-09 02:00,ZGHA 090200Z AUTO 35008KT 6SM 23/19 A2985 RMK T02300190 IEM_DS3505
ZGHA,2008-04-09 03:00,ZGHA 090300Z AUTO 03006KT 6SM 26/16 A2985 RMK T02600160 IEM_DS3505
ZGHA,2008-04-09 04:00,ZGHA 090400Z AUTO 35010KT 6SM 29/16 A2985 RMK T02900160 IEM_DS3505
ZGHA,2008-04-09 05:00,ZGHA 090500Z AUTO 34012KT 6SM 26/14 A2983 RMK T02600140 IEM_DS3505
ZGHA,2008-04-09 06:00,ZGHA 090600Z AUTO 34014KT 6SM 27/14 A2983 RMK T02700140 IEM_DS3505
ZGHA,2008-04-09 07:00,ZGHA 090700Z AUTO 34012KT 6SM 28/14 A2980 RMK T02800140 IEM_DS3505
ZGHA,2008-04-09 08:00,ZGHA 090800Z AUTO 34012KT 6SM 27/14 A2980 RMK T02700140 IEM_DS3505
ZGHA,2008-04-09 09:00,ZGHA 090900Z AUTO 34012KT 6SM 26/14 A2980 RMK T02600140 IEM_DS3505
ZGHA,2008-04-09 10:00,ZGHA 091000Z AUTO 34010KT 6SM 24/14 A2983 RMK T02400140 IEM_DS3505
ZGHA,2008-04-09 11:00,ZGHA 091100Z AUTO 34008KT 6SM 23/14 A2985 RMK T02300140 IEM_DS3505
ZGHA,2008-04-09 12:00,ZGHA 091200Z AUTO 36008KT 6SM 22/14 A2988 RMK T02200140 IEM_DS3505
ZGHA,2008-04-09 13:00,ZGHA 091300Z AUTO 36008KT 6SM 22/14 A2991 RMK T02200140 IEM_DS3505
ZGHA,2008-04-09 14:00,ZGHA 091400Z AUTO 36008KT 6SM 20/14 A2994 RMK T02000140 IEM_DS3505
ZGHA,2008-04-09 15:00,ZGHA 091500Z AUTO 01008KT 6SM 20/13 A2994 RMK T02000130 IEM_DS3505
ZGHA,2008-04-09 16:00,ZGHA 091600Z AUTO 01006KT 6SM 19/13 A2994 RMK T01900130 IEM_DS3505
ZGHA,2008-04-09 17:00,ZGHA 091700Z AUTO 01006KT 6SM 18/13 A2994 RMK T01800130 IEM_DS3505
ZGHA,2008-04-09 18:00,ZGHA 091800Z AUTO 36008KT 6SM 18/13 A2994 RMK T01800130 IEM_DS3505
ZGHA,2008-04-09 19:00,ZGHA 091900Z AUTO 36006KT 4SM 17/14 A2994 RMK T01700140 IEM_DS3505
ZGHA,2008-04-09 20:00,ZGHA 092000Z AUTO 01004KT 2 1/2SM 16/14 A2991 RMK T01600140 IEM_DS3505
ZGHA,2008-04-09 21:00,ZGHA 092100Z AUTO 01004KT 2SM 16/14 A2994 RMK T01600140 IEM_DS3505
ZGHA,2008-04-09 22:00,ZGHA 092200Z AUTO 2SM 15/14 A2994 RMK T01500140 IEM_DS3505
ZGHA,2008-04-09 23:00,ZGHA 092300Z AUTO 2SM 16/14 A2994 RMK T01600140 IEM_DS3505
ZGHA,2008-04-10 00:00,ZGHA 100000Z AUTO 2 1/2SM 16/15 A2994 RMK T01600150 IEM_DS3505
ZGHA,2008-04-10 01:00,ZGHA 100100Z AUTO 07004KT 3SM 19/15 A2994 RMK T01900150 IEM_DS3505
ZGHA,2008-04-10 02:00,ZGHA 100200Z AUTO 4SM 20/14 A2994 RMK T02000140 IEM_DS3505
ZGHA,2008-04-10 03:00,ZGHA 100300Z AUTO 28004KT 4SM 21/14 A2994 RMK T02100140 IEM_DS3505
ZGHA,2008-04-10 04:00,ZGHA 100400Z AUTO 00000KT 5SM 22/14 A2991 RMK T02200140 IEM_DS3505
ZGHA,2008-04-10 05:00,ZGHA 100500Z AUTO 13004KT 5SM 23/14 A2988 RMK T02300140 IEM_DS3505
ZGHA,2008-04-10 06:00,ZGHA 100600Z AUTO 6SM 24/15 A2985 RMK T02400150 IEM_DS3505
ZGHA,2008-04-10 07:00,ZGHA 100700Z AUTO 35004KT 7SM 23/13 A2983 RMK T02300130 IEM_DS3505
ZGHA,2008-04-10 08:00,ZGHA 100800Z AUTO 33004KT 7SM 23/14 A2983 RMK T02300140 IEM_DS3505
ZGHA,2008-04-10 09:00,ZGHA 100900Z AUTO 32012KT 3SM 20/16 A2980 RMK T02000160 IEM_DS3505
ZGHA,2008-04-10 10:00,ZGHA 101000Z AUTO 01006KT 3SM 19/16 A2980 RMK T01900160 IEM_DS3505
ZGHA,2008-04-10 11:00,ZGHA 101100Z AUTO 35010KT 2SM 18/15 A2983 RMK T01800150 IEM_DS3505
ZGHA,2008-04-10 12:00,ZGHA 101200Z AUTO 32008KT 1 1/2SM 17/15 A2985 RMK T01700150 IEM_DS3505
ZGHA,2008-04-10 13:00,ZGHA 101300Z AUTO 33008KT 1 1/4SM 16/15 A2988 RMK T01600150 IEM_DS3505
ZGHA,2008-04-10 14:00,ZGHA 101400Z AUTO 35010KT 1 1/2SM 16/15 A2988 RMK T01600150 IEM_DS3505
ZGHA,2008-04-10 15:00,ZGHA 101500Z AUTO 36006KT 1 1/2SM 16/15 A2991 RMK T01600150 IEM_DS3505
ZGHA,2008-04-10 16:00,ZGHA 101600Z AUTO 34006KT 1SM 15/15 A2991 RMK T01500150 IEM_DS3505
ZGHA,2008-04-10 17:00,ZGHA 101700Z AUTO 33008KT 1 1/2SM 16/15 A2991 RMK T01600150 IEM_DS3505
ZGHA,2008-04-10 18:00,ZGHA 101800Z AUTO 33008KT 2SM 16/15 A2991 RMK T01600150 IEM_DS3505
ZGHA,2008-04-10 19:00,ZGHA 101900Z AUTO 36004KT 1 1/2SM 15/15 A2988 RMK T01500150 IEM_DS3505
ZGHA,2008-04-10 20:00,ZGHA 102000Z AUTO 01006KT 3SM 15/15 A2988 RMK T01500150 IEM_DS3505
ZGHA,2008-04-10 21:00,ZGHA 102100Z AUTO 2SM 15/15 A2985 RMK T01500150 IEM_DS3505
ZGHA,2008-04-10 22:00,ZGHA 102200Z AUTO 34004KT 2SM 15/15 A2988 RMK T01500150 IEM_DS3505
ZGHA,2008-04-10 23:00,ZGHA 102300Z AUTO 1 1/2SM 15/15 A2991 RMK T01500150 IEM_DS3505
ZGHA,2008-04-11 00:00,ZGHA 110000Z AUTO 2 1/2SM 15/15 A2991 RMK T01500150 IEM_DS3505
ZGHA,2008-04-11 01:00,ZGHA 110100Z AUTO 35004KT 2 1/2SM 15/15 A2988 RMK T01500150 IEM_DS3505
ZGHA,2008-04-11 02:00,ZGHA 110200Z AUTO 32006KT 2 1/2SM 15/15 A2991 RMK T01500150 IEM_DS3505
ZGHA,2008-04-11 03:00,ZGHA 110300Z AUTO 35006KT 2 1/2SM 15/15 A2991 RMK T01500150 IEM_DS3505
ZGHA,2008-04-11 04:00,ZGHA 110400Z AUTO 2 1/2SM 15/15 A2991 RMK T01500150 IEM_DS3505
ZGHA,2008-04-11 05:00,ZGHA 110500Z AUTO 36006KT 3SM 15/15 A2991 RMK T01500150 IEM_DS3505
ZGHA,2008-04-11 06:00,ZGHA 110600Z AUTO 36004KT 3SM 15/15 A2988 RMK T01500150 IEM_DS3505
ZGHA,2008-04-11 07:00,ZGHA 110700Z AUTO 36004KT 3SM 15/15 A2988 RMK T01500150 IEM_DS3505
ZGHA,2008-04-11 08:00,ZGHA 110800Z AUTO 36004KT 4SM 15/15 A2985 RMK T01500150 IEM_DS3505
ZGHA,2008-04-11 09:00,ZGHA 110900Z AUTO 34006KT 4SM 15/15 A2985 RMK T01500150 IEM_DS3505
ZGHA,2008-04-11 10:00,ZGHA 111000Z AUTO 34006KT 3SM 15/15 A2988 RMK T01500150 IEM_DS3505
ZGHA,2008-04-11 11:00,ZGHA 111100Z AUTO 34006KT 2 1/2SM 15/14 A2991 RMK T01500140 IEM_DS3505
ZGHA,2008-04-11 12:00,ZGHA 111200Z AUTO 34006KT 3SM 15/14 A2994 RMK T01500140 IEM_DS3505
ZGHA,2008-04-11 13:00,ZGHA 111300Z AUTO 33008KT 2 1/2SM 15/14 A2997 RMK T01500140 IEM_DS3505
ZGHA,2008-04-11 14:00,ZGHA 111400Z AUTO 34006KT 3SM 14/14 A2997 RMK T01400140 IEM_DS3505
ZGHA,2008-04-11 15:00,ZGHA 111500Z AUTO 34004KT 3SM 14/14 A3000 RMK T01400140 IEM_DS3505
ZGHA,2008-04-11 16:00,ZGHA 111600Z AUTO 33006KT 3SM 15/14 A3000 RMK T01500140 IEM_DS3505
ZGHA,2008-04-11 17:00,ZGHA 111700Z AUTO 34006KT 2 1/2SM 15/14 A3000 RMK T01500140 IEM_DS3505
ZGHA,2008-04-11 18:00,ZGHA 111800Z AUTO 1 1/2SM 15/14 A3000 RMK T01500140 IEM_DS3505
ZGHA,2008-04-11 19:00,ZGHA 111900Z AUTO 36004KT 2SM 14/14 A2997 RMK T01400140 IEM_DS3505
ZGHA,2008-04-11 20:00,ZGHA 112000Z AUTO 35004KT 1 1/4SM 14/14 A2997 RMK T01400140 IEM_DS3505
ZGHA,2008-04-11 21:00,ZGHA 112100Z AUTO 2 1/2SM 14/14 A3000 RMK T01400140 IEM_DS3505
ZGHA,2008-04-11 22:00,ZGHA 112200Z AUTO 01004KT 2 1/2SM 14/14 A3000 RMK T01400140 IEM_DS3505
ZGHA,2008-04-11 23:00,ZGHA 112300Z AUTO 36004KT 2SM 15/14 A3000 RMK T01500140 IEM_DS3505
ZGHA,2008-04-12 00:00,ZGHA 120000Z AUTO 36004KT 2SM 15/15 A3003 RMK T01500150 IEM_DS3505
ZGHA,2008-04-12 01:00,ZGHA 120100Z AUTO 35006KT 2SM 15/15 A3006 RMK T01500150 IEM_DS3505
ZGHA,2008-04-12 02:00,ZGHA 120200Z AUTO 33008KT 1 1/2SM 15/15 A3009 RMK T01500150 IEM_DS3505
ZGHA,2008-04-12 03:00,ZGHA 120300Z AUTO 05004KT 1SM 15/14 A3003 RMK T01500140 IEM_DS3505
ZGHA,2008-04-12 04:00,ZGHA 120400Z AUTO 00000KT 1 1/2SM 15/15 A3003 RMK T01500150 IEM_DS3505
ZGHA,2008-04-12 05:00,ZGHA 120500Z AUTO 33006KT 2 1/2SM 15/15 A3003 RMK T01500150 IEM_DS3505
ZGHA,2008-04-12 06:00,ZGHA 120600Z AUTO 33004KT 1 1/2SM 15/15 A3003 RMK T01500150 IEM_DS3505
ZGHA,2008-04-12 07:00,ZGHA 120700Z AUTO 35006KT 2SM 16/15 A3003 RMK T01600150 IEM_DS3505
ZGHA,2008-04-12 08:00,ZGHA 120800Z AUTO 01006KT 1 1/2SM 15/14 A3003 RMK T01500140 IEM_DS3505
ZGHA,2008-04-12 09:00,ZGHA 120900Z AUTO 36004KT 2SM 15/15 A3000 RMK T01500150 IEM_DS3505
ZGHA,2008-04-12 10:00,ZGHA 121000Z AUTO 35008KT 1 1/2SM 15/14 A3000 RMK T01500140 IEM_DS3505
ZGHA,2008-04-12 11:00,ZGHA 121100Z AUTO 36006KT 1 1/2SM 15/14 A3003 RMK T01500140 IEM_DS3505
ZGHA,2008-04-12 12:00,ZGHA 121200Z AUTO 36008KT 1 1/2SM 15/14 A3000 RMK T01500140 IEM_DS3505
ZGHA,2008-04-12 13:00,ZGHA 121300Z AUTO 34008KT 1 1/4SM 14/14 A3006 RMK T01400140 IEM_DS3505
ZGHA,2008-04-12 14:00,ZGHA 121400Z AUTO 33008KT 1 1/2SM 14/14 A3009 RMK T01400140 IEM_DS3505
ZGHA,2008-04-12 15:00,ZGHA 121500Z AUTO 33008KT 1SM 14/14 A3009 RMK T01400140 IEM_DS3505
ZGHA,2008-04-12 16:00,ZGHA 121600Z AUTO 36004KT 1SM 14/13 A3009 RMK T01400130 IEM_DS3505
ZGHA,2008-04-12 17:00,ZGHA 121700Z AUTO 33006KT 1SM 14/13 A3009 RMK T01400130 IEM_DS3505
ZGHA,2008-04-12 18:00,ZGHA 121800Z AUTO 35004KT 1/2SM 14/13 A3006 RMK T01400130 IEM_DS3505
ZGHA,2008-04-12 19:00,ZGHA 121900Z AUTO 04004KT 1/2SM 14/13 A3000 RMK T01400130 IEM_DS3505
ZGHA,2008-04-12 20:00,ZGHA 122000Z AUTO 34004KT 1/2SM 14/13 A3003 RMK T01400130 IEM_DS3505
ZGHA,2008-04-12 21:00,ZGHA 122100Z AUTO 31006KT 1SM 14/13 A3003 RMK T01400130 IEM_DS3505
ZGHA,2008-04-12 22:00,ZGHA 122200Z AUTO 01004KT 1SM 13/13 A3003 RMK T01300130 IEM_DS3505
ZGHA,2008-04-12 23:00,ZGHA 122300Z AUTO 1SM 14/13 A3006 RMK T01400130 IEM_DS3505
ZGHA,2008-04-13 00:00,ZGHA 130000Z AUTO 01004KT 3/8SM 14/13 A3006 RMK T01400130 IEM_DS3505
ZGHA,2008-04-13 01:00,ZGHA 130100Z AUTO 31006KT 1/2SM 14/13 A3009 RMK T01400130 IEM_DS3505
ZGHA,2008-04-13 02:00,ZGHA 130200Z AUTO 30006KT 1SM 14/14 A3012 RMK T01400140 IEM_DS3505
ZGHA,2008-04-13 03:00,ZGHA 130300Z AUTO 31006KT 1SM 14/14 A3012 RMK T01400140 IEM_DS3505
ZGHA,2008-04-13 04:00,ZGHA 130400Z AUTO 32006KT 1/2SM 14/14 A3009 RMK T01400140 IEM_DS3505
ZGHA,2008-04-13 05:00,ZGHA 130500Z AUTO 34004KT 1/2SM 14/14 A3006 RMK T01400140 IEM_DS3505
ZGHA,2008-04-13 06:00,ZGHA 130600Z AUTO 34006KT 1SM 14/14 A3006 RMK T01400140 IEM_DS3505
ZGHA,2008-04-13 07:00,ZGHA 130700Z AUTO 33004KT 1SM 14/14 A3003 RMK T01400140 IEM_DS3505
ZGHA,2008-04-13 08:00,ZGHA 130800Z AUTO 33004KT 1SM 14/14 A3003 RMK T01400140 IEM_DS3505
ZGHA,2008-04-13 09:00,ZGHA 130900Z AUTO 34004KT 1SM 14/14 A3003 RMK T01400140 IEM_DS3505
ZGHA,2008-04-13 10:00,ZGHA 131000Z AUTO 35004KT 1 1/4SM 14/14 A3003 RMK T01400140 IEM_DS3505
ZGHA,2008-04-13 11:00,ZGHA 131100Z AUTO 35004KT 1SM 14/14 A3003 RMK T01400140 IEM_DS3505
ZGHA,2008-04-13 12:00,ZGHA 131200Z AUTO 35004KT 1 1/2SM 14/13 A3006 RMK T01400130 IEM_DS3505
ZGHA,2008-04-13 13:00,ZGHA 131300Z AUTO 34004KT 1 1/2SM 14/13 A3006 RMK T01400130 IEM_DS3505
ZGHA,2008-04-13 14:00,ZGHA 131400Z AUTO 1 1/2SM 14/13 A3006 RMK T01400130 IEM_DS3505
ZGHA,2008-04-13 15:00,ZGHA 131500Z AUTO 00000KT 1SM 14/13 A3006 RMK T01400130 IEM_DS3505
ZGHA,2008-04-13 16:00,ZGHA 131600Z AUTO 31004KT 1SM 14/13 A3006 RMK T01400130 IEM_DS3505
ZGHA,2008-04-13 17:00,ZGHA 131700Z AUTO 31002KT 1/2SM 14/13 A3003 RMK T01400130 IEM_DS3505
ZGHA,2008-04-13 18:00,ZGHA 131800Z AUTO 3/8SM 14/13 A3000 RMK T01400130 IEM_DS3505
ZGHA,2008-04-13 19:00,ZGHA 131900Z AUTO 1/4SM 14/13 A3000 RMK T01400130 IEM_DS3505
ZGHA,2008-04-13 20:00,ZGHA 132000Z AUTO 32004KT 3/8SM 13/13 A2997 RMK T01300130 IEM_DS3505
ZGHA,2008-04-13 21:00,ZGHA 132100Z AUTO 29004KT 1SM 14/13 A3000 RMK T01400130 IEM_DS3505
ZGHA,2008-04-13 22:00,ZGHA 132200Z AUTO 00000KT 1/2SM 13/13 A3000 RMK T01300130 IEM_DS3505
ZGHA,2008-04-13 23:00,ZGHA 132300Z AUTO 00000KT 1SM 14/13 A3003 RMK T01400130 IEM_DS3505
ZGHA,2008-04-14 00:00,ZGHA 140000Z AUTO 30002KT 1 1/4SM 14/13 A3003 RMK T01400130 IEM_DS3505
ZGHA,2008-04-14 01:00,ZGHA 140100Z AUTO 34004KT 1 1/4SM 14/14 A3006 RMK T01400140 IEM_DS3505
ZGHA,2008-04-14 02:00,ZGHA 140200Z AUTO 33004KT 1SM 14/14 A3006 RMK T01400140 IEM_DS3505
ZGHA,2008-04-14 03:00,ZGHA 140300Z AUTO 1SM 14/14 A3003 RMK T01400140 IEM_DS3505
ZGHA,2008-04-14 04:00,ZGHA 140400Z AUTO 00000KT 1 1/2SM 14/14 A3003 RMK T01400140 IEM_DS3505
ZGHA,2008-04-14 05:00,ZGHA 140500Z AUTO 00000KT 1 1/2SM 15/14 A3000 RMK T01500140 IEM_DS3505
ZGHA,2008-04-14 06:00,ZGHA 140600Z AUTO 1 1/2SM 15/14 A2997 RMK T01500140 IEM_DS3505
ZGHA,2008-04-14 07:00,ZGHA 140700Z AUTO 35004KT 1 1/4SM 15/14 A2994 RMK T01500140 IEM_DS3505
ZGHA,2008-04-14 08:00,ZGHA 140800Z AUTO 01004KT 1 1/2SM 15/15 A2994 RMK T01500150 IEM_DS3505
ZGHA,2008-04-14 09:00,ZGHA 140900Z AUTO 34004KT 2SM 15/15 A2994 RMK T01500150 IEM_DS3505
ZGHA,2008-04-14 10:00,ZGHA 141000Z AUTO 35004KT 1SM 15/15 A2994 RMK T01500150 IEM_DS3505
ZGHA,2008-04-14 11:00,ZGHA 141100Z AUTO 01004KT 1SM 15/14 A2997 RMK T01500140 IEM_DS3505
ZGHA,2008-04-14 12:00,ZGHA 141200Z AUTO 1SM 15/14 A2997 RMK T01500140 IEM_DS3505
ZGHA,2008-04-14 13:00,ZGHA 141300Z AUTO 35004KT 1 1/4SM 15/14 A3000 RMK T01500140 IEM_DS3505
ZGHA,2008-04-14 14:00,ZGHA 141400Z AUTO 34004KT 1SM 15/15 A3003 RMK T01500150 IEM_DS3505
ZGHA,2008-04-14 15:00,ZGHA 141500Z AUTO 1SM 15/14 A3000 RMK T01500140 IEM_DS3505
ZGHA,2008-04-14 16:00,ZGHA 141600Z AUTO 34004KT 1SM 15/14 A3000 RMK T01500140 IEM_DS3505
ZGHA,2008-04-14 17:00,ZGHA 141700Z AUTO 34004KT 1SM 15/14 A3000 RMK T01500140 IEM_DS3505
ZGHA,2008-04-14 18:00,ZGHA 141800Z AUTO 33004KT 1/2SM 15/14 A2997 RMK T01500140 IEM_DS3505
ZGHA,2008-04-14 19:00,ZGHA 141900Z AUTO 00000KT 1SM 14/14 A2994 RMK T01400140 IEM_DS3505
ZGHA,2008-04-14 20:00,ZGHA 142000Z AUTO 33002KT 1SM 14/14 A2991 RMK T01400140 IEM_DS3505
ZGHA,2008-04-14 21:00,ZGHA 142100Z AUTO 31002KT 1SM 15/14 A2991 RMK T01500140 IEM_DS3505
ZGHA,2008-04-14 22:00,ZGHA 142200Z AUTO 33004KT 1SM 15/14 A2991 RMK T01500140 IEM_DS3505
ZGHA,2008-04-14 23:00,ZGHA 142300Z AUTO 01004KT 1SM 14/14 A2991 RMK T01400140 IEM_DS3505
ZGHA,2008-04-15 00:00,ZGHA 150000Z AUTO 35004KT 1SM 15/15 A2994 RMK T01500150 IEM_DS3505
ZGHA,2008-04-15 01:00,ZGHA 150100Z AUTO 00000KT 1SM 15/15 A2997 RMK T01500150 IEM_DS3505
ZGHA,2008-04-15 03:00,ZGHA 150300Z AUTO 35004KT 1SM 15/15 A2997 RMK T01500150 IEM_DS3505
ZGHA,2008-04-15 04:00,ZGHA 150400Z AUTO 32004KT 1 1/2SM 15/15 A2997 RMK T01500150 IEM_DS3505
ZGHA,2008-04-15 05:00,ZGHA 150500Z AUTO 34006KT 2 1/2SM 15/ A2994 RMK IEM_DS3505
ZGHA,2008-04-15 06:00,ZGHA 150600Z AUTO 35004KT 3SM 15/15 A2994 RMK T01500150 IEM_DS3505
ZGHA,2008-04-15 07:00,ZGHA 150700Z AUTO 32004KT 3SM 15/15 A2994 RMK T01500150 IEM_DS3505
ZGHA,2008-04-15 08:00,ZGHA 150800Z AUTO 33006KT 2 1/2SM 15/15 A2994 RMK T01500150 IEM_DS3505
ZGHA,2008-04-15 09:00,ZGHA 150900Z AUTO 36004KT 4SM 15/15 A2991 RMK T01500150 IEM_DS3505
ZGHA,2008-04-15 10:00,ZGHA 151000Z AUTO 35004KT 4SM 15/15 A2994 RMK T01500150 IEM_DS3505
ZGHA,2008-04-15 11:00,ZGHA 151100Z AUTO 4SM 15/15 A2994 RMK T01500150 IEM_DS3505
ZGHA,2008-04-15 12:00,ZGHA 151200Z AUTO 32004KT 3SM 15/15 A2997 RMK T01500150 IEM_DS3505
ZGHA,2008-04-15 13:00,ZGHA 151300Z AUTO 29004KT 1 1/2SM 15/15 A3000 RMK T01500150 IEM_DS3505
ZGHA,2008-04-15 14:00,ZGHA 151400Z AUTO 31004KT 2SM 15/15 A3000 RMK T01500150 IEM_DS3505
ZGHA,2008-04-15 15:00,ZGHA 151500Z AUTO 30004KT 1 1/2SM 15/15 A3000 RMK T01500150 IEM_DS3505
ZGHA,2008-04-15 16:00,ZGHA 151600Z AUTO 31004KT 1 1/2SM 15/15 A3000 RMK T01500150 IEM_DS3505
ZGHA,2008-04-15 17:00,ZGHA 151700Z AUTO 32004KT 1 1/4SM 15/15 A3000 RMK T01500150 IEM_DS3505
ZGHA,2008-04-15 18:00,ZGHA 151800Z AUTO 31002KT 1 1/4SM 15/15 A3000 RMK T01500150 IEM_DS3505
ZGHA,2008-04-15 19:00,ZGHA 151900Z AUTO 00000KT 1 1/4SM 15/14 A3000 RMK T01500140 IEM_DS3505
ZGHA,2008-04-15 20:00,ZGHA 152000Z AUTO 30002KT 1SM 14/14 A2997 RMK T01400140 IEM_DS3505
ZGHA,2008-04-15 21:00,ZGHA 152100Z AUTO 00000KT 1SM 14/14 A2997 RMK T01400140 IEM_DS3505
ZGHA,2008-04-15 22:00,ZGHA 152200Z AUTO 33002KT 1SM 13/13 A3000 RMK T01300130 IEM_DS3505
ZGHA,2008-04-15 23:00,ZGHA 152300Z AUTO 35002KT 1/2SM 14/14 A3000 RMK T01400140 IEM_DS3505
ZGHA,2008-04-16 00:00,ZGHA 160000Z AUTO 33004KT 1SM 14/14 A3003 RMK T01400140 IEM_DS3505
ZGHA,2008-04-16 01:00,ZGHA 160100Z AUTO 34004KT 2 1/2SM 16/15 A3003 RMK T01600150 IEM_DS3505
ZGHA,2008-04-16 02:00,ZGHA 160200Z AUTO 35006KT 2 1/2SM 17/16 A3006 RMK T01700160 IEM_DS3505
ZGHA,2008-04-16 03:00,ZGHA 160300Z AUTO 30004KT 3SM 18/16 A3006 RMK T01800160 IEM_DS3505
ZGHA,2008-04-16 04:00,ZGHA 160400Z AUTO 32006KT 3SM 18/15 A3006 RMK T01800150 IEM_DS3505
ZGHA,2008-04-16 05:00,ZGHA 160500Z AUTO 34004KT 4SM 19/15 A3003 RMK T01900150 IEM_DS3505
ZGHA,2008-04-16 06:00,ZGHA 160600Z AUTO 34004KT 4SM 19/15 A3003 RMK T01900150 IEM_DS3505
ZGHA,2008-04-16 07:00,ZGHA 160700Z AUTO 28004KT 5SM 19/16 A3000 RMK T01900160 IEM_DS3505
ZGHA,2008-04-16 08:00,ZGHA 160800Z AUTO 5SM 19/16 A3000 RMK T01900160 IEM_DS3505
ZGHA,2008-04-16 09:00,ZGHA 160900Z AUTO 5SM 21/16 A2997 RMK T02100160 IEM_DS3505
ZGHA,2008-04-16 10:00,ZGHA 161000Z AUTO 00000KT 5SM 20/15 A2997 RMK T02000150 IEM_DS3505
ZGHA,2008-04-16 11:00,ZGHA 161100Z AUTO 23002KT 4SM 18/15 A3000 RMK T01800150 IEM_DS3505
ZGHA,2008-04-16 12:00,ZGHA 161200Z AUTO 3SM 17/15 A3000 RMK T01700150 IEM_DS3505
ZGHA,2008-04-16 13:00,ZGHA 161300Z AUTO 00000KT 2SM 15/14 A3003 RMK T01500140 IEM_DS3505
ZGHA,2008-04-16 14:00,ZGHA 161400Z AUTO 00000KT 1 1/2SM 15/15 A3003 RMK T01500150 IEM_DS3505
ZGHA,2008-04-16 15:00,ZGHA 161500Z AUTO 00000KT 1SM 15/14 A3006 RMK T01500140 IEM_DS3505
ZGHA,2008-04-16 16:00,ZGHA 161600Z AUTO 00000KT 1SM 14/13 A3003 RMK T01400130 IEM_DS3505
ZGHA,2008-04-16 18:00,ZGHA 161800Z AUTO 00000KT 1/2SM 13/13 A3003 RMK T01300130 IEM_DS3505
ZGHA,2008-04-16 19:00,ZGHA 161900Z AUTO 00000KT 1/8SM 13/12 A3003 RMK T01300120 IEM_DS3505
ZGHA,2008-04-16 20:00,ZGHA 162000Z AUTO 00000KT 1/4SM 11/11 A3003 RMK T01100110 IEM_DS3505
ZGHA,2008-04-16 21:00,ZGHA 162100Z AUTO 00000KT 1SM 13/12 A3003 RMK T01300120 IEM_DS3505
ZGHA,2008-04-16 22:00,ZGHA 162200Z AUTO 1SM 13/13 A3003 RMK T01300130 IEM_DS3505
ZGHA,2008-04-16 23:00,ZGHA 162300Z AUTO 00000KT 1 1/4SM 13/13 A3006 RMK T01300130 IEM_DS3505
ZGHA,2008-04-17 00:00,ZGHA 170000Z AUTO 1 1/2SM 15/14 A3006 RMK T01500140 IEM_DS3505
ZGHA,2008-04-17 01:00,ZGHA 170100Z AUTO 08004KT 2SM 19/18 A3006 RMK T01900180 IEM_DS3505
ZGHA,2008-04-17 02:00,ZGHA 170200Z AUTO 03004KT 2 1/2SM 21/17 A3006 RMK T02100170 IEM_DS3505
ZGHA,2008-04-17 03:00,ZGHA 170300Z AUTO 10004KT 7SM 23/15 A3006 RMK T02300150 IEM_DS3505
ZGHA,2008-04-17 04:00,ZGHA 170400Z AUTO 32004KT 7SM 23/16 A3003 RMK T02300160 IEM_DS3505
ZGHA,2008-04-17 05:00,ZGHA 170500Z AUTO 6SM 25/15 A3000 RMK T02500150 IEM_DS3505
ZGHA,2008-04-17 06:00,ZGHA 170600Z AUTO 23006KT 7SM 25/16 A2997 RMK T02500160 IEM_DS3505
ZGHA,2008-04-17 07:00,ZGHA 170700Z AUTO 27004KT 6SM 26/16 A2994 RMK T02600160 IEM_DS3505
ZGHA,2008-04-17 08:00,ZGHA 170800Z AUTO 29004KT 6SM 26/16 A2991 RMK T02600160 IEM_DS3505
ZGHA,2008-04-17 09:00,ZGHA 170900Z AUTO 6SM 26/16 A2991 RMK T02600160 IEM_DS3505
ZGHA,2008-04-17 10:00,ZGHA 171000Z AUTO 6SM 25/16 A2991 RMK T02500160 IEM_DS3505
ZGHA,2008-04-17 11:00,ZGHA 171100Z AUTO 00000KT 6SM 23/16 A2991 RMK T02300160 IEM_DS3505
ZGHA,2008-04-17 12:00,ZGHA 171200Z AUTO 16004KT 6SM 22/18 A2994 RMK T02200180 IEM_DS3505
ZGHA,2008-04-17 13:00,ZGHA 171300Z AUTO 00000KT 5SM 20/16 A2994 RMK T02000160 IEM_DS3505
ZGHA,2008-04-17 14:00,ZGHA 171400Z AUTO 00000KT 4SM 18/16 A2997 RMK T01800160 IEM_DS3505
ZGHA,2008-04-17 15:00,ZGHA 171500Z AUTO 00000KT 4SM 17/16 A2997 RMK T01700160 IEM_DS3505
ZGHA,2008-04-17 16:00,ZGHA 171600Z AUTO 00000KT 3SM 17/16 A2997 RMK T01700160 IEM_DS3505
ZGHA,2008-04-17 17:00,ZGHA 171700Z AUTO 00000KT 2SM 17/16 A2997 RMK T01700160 IEM_DS3505
ZGHA,2008-04-17 18:00,ZGHA 171800Z AUTO 00000KT 2SM 16/16 A2994 RMK T01600160 IEM_DS3505
ZGHA,2008-04-17 19:00,ZGHA 171900Z AUTO 00000KT 3SM 15/14 A2991 RMK T01500140 IEM_DS3505
ZGHA,2008-04-17 21:00,ZGHA 172100Z AUTO 00000KT 1 1/2SM 15/15 A2991 RMK T01500150 IEM_DS3505
ZGHA,2008-04-17 22:00,ZGHA 172200Z AUTO 00000KT 2 1/2SM 15/15 A2991 RMK T01500150 IEM_DS3505
ZGHA,2008-04-17 23:00,ZGHA 172300Z AUTO 4SM 16/15 A2991 RMK T01600150 IEM_DS3505
ZGHA,2008-04-18 00:00,ZGHA 180000Z AUTO 09004KT 6SM 19/16 A2991 RMK T01900160 IEM_DS3505
ZGHA,2008-04-18 01:00,ZGHA 180100Z AUTO 6SM 21/16 A2994 RMK T02100160 IEM_DS3505
ZGHA,2008-04-18 02:00,ZGHA 180200Z AUTO 6SM 25/15 A2994 RMK T02500150 IEM_DS3505
ZGHA,2008-04-18 03:00,ZGHA 180300Z AUTO 6SM 26/15 A2994 RMK T02600150 IEM_DS3505
ZGHA,2008-04-18 04:00,ZGHA 180400Z AUTO 6SM 28/16 A2991 RMK T02800160 IEM_DS3505
ZGHA,2008-04-18 05:00,ZGHA 180500Z AUTO 6SM 27/17 A2988 RMK T02700170 IEM_DS3505
ZGHA,2008-04-18 06:00,ZGHA 180600Z AUTO 14004KT 6SM 27/17 A2985 RMK T02700170 IEM_DS3505
ZGHA,2008-04-18 07:00,ZGHA 180700Z AUTO 13006KT 6SM 25/18 A2983 RMK T02500180 IEM_DS3505
ZGHA,2008-04-18 08:00,ZGHA 180800Z AUTO 11006KT 6SM 24/19 A2983 RMK T02400190 IEM_DS3505
ZGHA,2008-04-18 09:00,ZGHA 180900Z AUTO 10008KT 6SM 24/20 A2980 RMK T02400200 IEM_DS3505
ZGHA,2008-04-18 10:00,ZGHA 181000Z AUTO 09004KT 6SM 25/20 A2977 RMK T02500200 IEM_DS3505
ZGHA,2008-04-18 11:00,ZGHA 181100Z AUTO 13006KT 6SM 24/18 A2977 RMK T02400180 IEM_DS3505
ZGHA,2008-04-18 12:00,ZGHA 181200Z AUTO 6SM 24/19 A2980 RMK T02400190 IEM_DS3505
ZGHA,2008-04-18 13:00,ZGHA 181300Z AUTO 00000KT 6SM 23/19 A2980 RMK T02300190 IEM_DS3505
ZGHA,2008-04-18 14:00,ZGHA 181400Z AUTO 00000KT 6SM 22/19 A2983 RMK T02200190 IEM_DS3505
ZGHA,2008-04-18 15:00,ZGHA 181500Z AUTO 00000KT 6SM 23/20 A2983 RMK T02300200 IEM_DS3505
ZGHA,2008-04-18 16:00,ZGHA 181600Z AUTO 6SM 23/19 A2983 RMK T02300190 IEM_DS3505
ZGHA,2008-04-18 17:00,ZGHA 181700Z AUTO 12004KT 4SM 23/19 A2980 RMK T02300190 IEM_DS3505
ZGHA,2008-04-18 18:00,ZGHA 181800Z AUTO 11004KT 4SM 22/19 A2977 RMK T02200190 IEM_DS3505
ZGHA,2008-04-18 21:00,ZGHA 182100Z AUTO 4SM 22/19 A2977 RMK T02200190 IEM_DS3505
ZGHA,2008-04-18 22:00,ZGHA 182200Z AUTO 34002KT 4SM 21/19 A2977 RMK T02100190 IEM_DS3505
ZGHA,2008-04-18 23:00,ZGHA 182300Z AUTO 32002KT 3SM 21/20 A2980 RMK T02100200 IEM_DS3505
ZGHA,2008-04-19 00:00,ZGHA 190000Z AUTO 4SM 25/21 A2980 RMK T02500210 IEM_DS3505
ZGHA,2008-04-19 01:00,ZGHA 190100Z AUTO 12006KT 6SM 27/22 A2980 RMK T02700220 IEM_DS3505
ZGHA,2008-04-19 02:00,ZGHA 190200Z AUTO 12008KT 6SM 29/22 A2980 RMK T02900220 IEM_DS3505
ZGHA,2008-04-19 03:00,ZGHA 190300Z AUTO 17014KT 7SM 31/22 A2977 RMK T03100220 IEM_DS3505
ZGHA,2008-04-19 04:00,ZGHA 190400Z AUTO 17010KT 7SM 31/23 A2974 RMK T03100230 IEM_DS3505
ZGHA,2008-04-19 05:00,ZGHA 190500Z AUTO 16010KT 7SM 31/22 A2971 RMK T03100220 IEM_DS3505
ZGHA,2008-04-19 06:00,ZGHA 190600Z AUTO 17010KT 7SM 31/22 A2971 RMK T03100220 IEM_DS3505
ZGHA,2008-04-19 07:00,ZGHA 190700Z AUTO 17008KT 7SM 31/22 A2968 RMK T03100220 IEM_DS3505
ZGHA,2008-04-19 08:00,ZGHA 190800Z AUTO 15004KT 7SM 31/22 A2965 RMK T03100220 IEM_DS3505
ZGHA,2008-04-19 09:00,ZGHA 190900Z AUTO 18010KT 7SM 31/23 A2965 RMK T03100230 IEM_DS3505
ZGHA,2008-04-19 10:00,ZGHA 191000Z AUTO 11006KT 7SM 29/23 A2965 RMK T02900230 IEM_DS3505
ZGHA,2008-04-19 11:00,ZGHA 191100Z AUTO 11006KT 7SM 27/22 A2968 RMK T02700220 IEM_DS3505
ZGHA,2008-04-19 12:00,ZGHA 191200Z AUTO 12004KT 6SM 26/22 A2968 RMK T02600220 IEM_DS3505
ZGHA,2008-04-19 13:00,ZGHA 191300Z AUTO 14004KT 6SM 26/22 A2971 RMK T02600220 IEM_DS3505
ZGHA,2008-04-19 14:00,ZGHA 191400Z AUTO 6SM 25/22 A2971 RMK T02500220 IEM_DS3505
ZGHA,2008-04-19 15:00,ZGHA 191500Z AUTO 6SM 24/21 A2974 RMK T02400210 IEM_DS3505
ZGHA,2008-04-19 16:00,ZGHA 191600Z AUTO 00000KT 6SM 23/21 A2974 RMK T02300210 IEM_DS3505
ZGHA,2008-04-19 17:00,ZGHA 191700Z AUTO 18004KT 6SM 22/21 A2974 RMK T02200210 IEM_DS3505
ZGHA,2008-04-19 18:00,ZGHA 191800Z AUTO 29004KT 7SM 22/21 A2971 RMK T02200210 IEM_DS3505
ZGHA,2008-04-19 19:00,ZGHA 191900Z AUTO 30012KT 1SM 20/19 A2974 RMK T02000190 IEM_DS3505
ZGHA,2008-04-19 20:00,ZGHA 192000Z AUTO 32006KT 1 1/4SM 19/18 A2974 RMK T01900180 IEM_DS3505
ZGHA,2008-04-19 21:00,ZGHA 192100Z AUTO 36006KT 3SM 18/17 A2974 RMK T01800170 IEM_DS3505
ZGHA,2008-04-19 22:00,ZGHA 192200Z AUTO 32006KT 2 1/2SM 18/17 A2977 RMK T01800170 IEM_DS3505
ZGHA,2008-04-19 23:00,ZGHA 192300Z AUTO 34004KT 2SM 18/18 A2980 RMK T01800180 IEM_DS3505
ZGHA,2008-04-20 00:00,ZGHA 200000Z AUTO 31010KT 2SM 18/17 A2980 RMK T01800170 IEM_DS3505
ZGHA,2008-04-20 01:00,ZGHA 200100Z AUTO 31010KT 3SM 18/17 A2983 RMK T01800170 IEM_DS3505
ZGHA,2008-04-20 02:00,ZGHA 200200Z AUTO 31008KT 2SM 18/17 A2983 RMK T01800170 IEM_DS3505
ZGHA,2008-04-20 03:00,ZGHA 200300Z AUTO 31010KT 2SM 17/17 A2985 RMK T01700170 IEM_DS3505
ZGHA,2008-04-20 04:00,ZGHA 200400Z AUTO 32008KT 1 1/2SM 17/17 A2985 RMK T01700170 IEM_DS3505
ZGHA,2008-04-20 05:00,ZGHA 200500Z AUTO 31006KT 1 1/2SM 18/17 A2985 RMK T01800170 IEM_DS3505
ZGHA,2008-04-20 06:00,ZGHA 200600Z AUTO 32004KT 1 1/2SM 17/17 A2983 RMK T01700170 IEM_DS3505
ZGHA,2008-04-20 07:00,ZGHA 200700Z AUTO 35008KT 2SM 17/17 A2983 RMK T01700170 IEM_DS3505
ZGHA,2008-04-20 08:00,ZGHA 200800Z AUTO 36006KT 2 1/2SM 17/17 A2980 RMK T01700170 IEM_DS3505
ZGHA,2008-04-20 09:00,ZGHA 200900Z AUTO 34008KT 2 1/2SM 17/17 A2980 RMK T01700170 IEM_DS3505
ZGHA,2008-04-20 10:00,ZGHA 201000Z AUTO 35008KT 2SM 17/17 A2980 RMK T01700170 IEM_DS3505
ZGHA,2008-04-20 11:00,ZGHA 201100Z AUTO 35010KT 2SM 17/17 A2983 RMK T01700170 IEM_DS3505
ZGHA,2008-04-20 12:00,ZGHA 201200Z AUTO 35006KT 2 1/2SM 17/16 A2983 RMK T01700160 IEM_DS3505
ZGHA,2008-04-20 13:00,ZGHA 201300Z AUTO 34006KT 2 1/2SM 17/17 A2985 RMK T01700170 IEM_DS3505
ZGHA,2008-04-20 14:00,ZGHA 201400Z AUTO 36006KT 2 1/2SM 17/16 A2985 RMK T01700160 IEM_DS3505
ZGHA,2008-04-20 15:00,ZGHA 201500Z AUTO 32006KT 2 1/2SM 17/16 A2991 RMK T01700160 IEM_DS3505
ZGHA,2008-04-20 16:00,ZGHA 201600Z AUTO 33008KT 2SM 17/16 A2991 RMK T01700160 IEM_DS3505
ZGHA,2008-04-20 17:00,ZGHA 201700Z AUTO 35006KT 2 1/2SM 16/16 A2988 RMK T01600160 IEM_DS3505
ZGHA,2008-04-20 18:00,ZGHA 201800Z AUTO 34010KT 3SM 16/16 A2988 RMK T01600160 IEM_DS3505
ZGHA,2008-04-20 19:00,ZGHA 201900Z AUTO 34006KT 2 1/2SM 16/16 A2988 RMK T01600160 IEM_DS3505
ZGHA,2008-04-20 21:00,ZGHA 202100Z AUTO 34008KT 2 1/2SM 16/16 A2988 RMK T01600160 IEM_DS3505
ZGHA,2008-04-20 22:00,ZGHA 202200Z AUTO 32008KT 2SM 16/16 A2991 RMK T01600160 IEM_DS3505
ZGHA,2008-04-20 23:00,ZGHA 202300Z AUTO 34006KT 3SM 17/15 A2991 RMK T01700150 IEM_DS3505
ZGHA,2008-04-21 00:00,ZGHA 210000Z AUTO 36006KT 5SM 17/15 A2994 RMK T01700150 IEM_DS3505
ZGHA,2008-04-21 01:00,ZGHA 210100Z AUTO 36008KT 5SM 18/15 A2997 RMK T01800150 IEM_DS3505
ZGHA,2008-04-21 02:00,ZGHA 210200Z AUTO 36006KT 5SM 19/15 A2997 RMK T01900150 IEM_DS3505
ZGHA,2008-04-21 03:00,ZGHA 210300Z AUTO 35010KT 6SM 21/16 A2997 RMK T02100160 IEM_DS3505
ZGHA,2008-04-21 04:00,ZGHA 210400Z AUTO 35010KT 6SM 22/15 A2997 RMK T02200150 IEM_DS3505
ZGHA,2008-04-21 05:00,ZGHA 210500Z AUTO 02006KT 6SM 24/15 A2994 RMK T02400150 IEM_DS3505
ZGHA,2008-04-21 06:00,ZGHA 210600Z AUTO 01008KT 6SM 24/15 A2991 RMK T02400150 IEM_DS3505
ZGHA,2008-04-21 07:00,ZGHA 210700Z AUTO 34012KT 6SM 24/15 A2991 RMK T02400150 IEM_DS3505
ZGHA,2008-04-21 08:00,ZGHA 210800Z AUTO 34010KT 6SM 23/15 A2991 RMK T02300150 IEM_DS3505
ZGHA,2008-04-21 09:00,ZGHA 210900Z AUTO 33010KT 6SM 23/14 A2991 RMK T02300140 IEM_DS3505
ZGHA,2008-04-21 10:00,ZGHA 211000Z AUTO 32010KT 6SM 22/15 A2991 RMK T02200150 IEM_DS3505
ZGHA,2008-04-21 11:00,ZGHA 211100Z AUTO 34010KT 6SM 21/14 A2994 RMK T02100140 IEM_DS3505
ZGHA,2008-04-21 12:00,ZGHA 211200Z AUTO 35010KT 6SM 20/14 A2994 RMK T02000140 IEM_DS3505
ZGHA,2008-04-21 13:00,ZGHA 211300Z AUTO 36010KT 6SM 20/13 A3000 RMK T02000130 IEM_DS3505
ZGHA,2008-04-21 14:00,ZGHA 211400Z AUTO 36010KT 6SM 19/14 A3003 RMK T01900140 IEM_DS3505
ZGHA,2008-04-21 15:00,ZGHA 211500Z AUTO 35008KT 6SM 19/13 A3006 RMK T01900130 IEM_DS3505
ZGHA,2008-04-21 16:00,ZGHA 211600Z AUTO 34010KT 6SM 18/13 A3006 RMK T01800130 IEM_DS3505
ZGHA,2008-04-21 17:00,ZGHA 211700Z AUTO 36014KT 5SM 15/12 A3009 RMK T01500120 IEM_DS3505
ZGHA,2008-04-21 18:00,ZGHA 211800Z AUTO 01008KT 7SM 14/13 A3009 RMK T01400130 IEM_DS3505
ZGHA,2008-04-21 19:00,ZGHA 211900Z AUTO 01006KT 4SM 13/13 A3009 RMK T01300130 IEM_DS3505
ZGHA,2008-04-21 20:00,ZGHA 212000Z AUTO 36004KT 3SM 13/13 A3009 RMK T01300130 IEM_DS3505
ZGHA,2008-04-21 21:00,ZGHA 212100Z AUTO 01004KT 4SM 13/13 A3009 RMK T01300130 IEM_DS3505
ZGHA,2008-04-21 22:00,ZGHA 212200Z AUTO 34006KT 4SM 14/13 A3009 RMK T01400130 IEM_DS3505
ZGHA,2008-04-21 23:00,ZGHA 212300Z AUTO 35006KT 2SM 14/14 A3012 RMK T01400140 IEM_DS3505
ZGHA,2008-04-22 00:00,ZGHA 220000Z AUTO 34006KT 4SM 15/14 A3015 RMK T01500140 IEM_DS3505
ZGHA,2008-04-22 01:00,ZGHA 220100Z AUTO 36008KT 3SM 15/14 A3018 RMK T01500140 IEM_DS3505
ZGHA,2008-04-22 02:00,ZGHA 220200Z AUTO 36008KT 4SM 16/14 A3018 RMK T01600140 IEM_DS3505
ZGHA,2008-04-22 03:00,ZGHA 220300Z AUTO 02006KT 5SM 19/14 A3015 RMK T01900140 IEM_DS3505
ZGHA,2008-04-22 04:00,ZGHA 220400Z AUTO 02006KT 6SM 18/14 A3015 RMK T01800140 IEM_DS3505
ZGHA,2008-04-22 05:00,ZGHA 220500Z AUTO 6SM 19/13 A3012 RMK T01900130 IEM_DS3505
ZGHA,2008-04-22 06:00,ZGHA 220600Z AUTO 35008KT 6SM 22/14 A3012 RMK T02200140 IEM_DS3505
ZGHA,2008-04-22 07:00,ZGHA 220700Z AUTO 35006KT 6SM 22/15 A3009 RMK T02200150 IEM_DS3505
ZGHA,2008-04-22 08:00,ZGHA 220800Z AUTO 33012KT 6SM 22/15 A3009 RMK T02200150 IEM_DS3505
ZGHA,2008-04-22 09:00,ZGHA 220900Z AUTO 34012KT 6SM 21/15 A3009 RMK T02100150 IEM_DS3505
ZGHA,2008-04-22 10:00,ZGHA 221000Z AUTO 35006KT 6SM 20/15 A3009 RMK T02000150 IEM_DS3505
ZGHA,2008-04-22 11:00,ZGHA 221100Z AUTO 35002KT 4SM 18/14 A3009 RMK T01800140 IEM_DS3505
ZGHA,2008-04-22 12:00,ZGHA 221200Z AUTO 34008KT 4SM 18/14 A3012 RMK T01800140 IEM_DS3505
ZGHA,2008-04-22 13:00,ZGHA 221300Z AUTO 34006KT 4SM 18/14 A3015 RMK T01800140 IEM_DS3505
ZGHA,2008-04-22 14:00,ZGHA 221400Z AUTO 35008KT 4SM 17/14 A3018 RMK T01700140 IEM_DS3505
ZGHA,2008-04-22 15:00,ZGHA 221500Z AUTO 01006KT 4SM 17/13 A3021 RMK T01700130 IEM_DS3505
ZGHA,2008-04-22 16:00,ZGHA 221600Z AUTO 04004KT 4SM 17/13 A3021 RMK T01700130 IEM_DS3505
ZGHA,2008-04-22 17:00,ZGHA 221700Z AUTO 36004KT 4SM 17/13 A3021 RMK T01700130 IEM_DS3505
ZGHA,2008-04-22 21:00,ZGHA 222100Z AUTO 36006KT 3SM 16/13 A3024 RMK T01600130 IEM_DS3505
ZGHA,2008-04-22 22:00,ZGHA 222200Z AUTO 01006KT 4SM 16/12 A3024 RMK T01600120 IEM_DS3505
ZGHA,2008-04-22 23:00,ZGHA 222300Z AUTO 01008KT 6SM 17/10 A3024 RMK T01700100 IEM_DS3505
ZGHA,2008-04-23 00:00,ZGHA 230000Z AUTO 36008KT 6SM 17/10 A3027 RMK T01700100 IEM_DS3505
ZGHA,2008-04-23 01:00,ZGHA 230100Z AUTO 35008KT 6SM 17/12 A3030 RMK T01700120 IEM_DS3505
ZGHA,2008-04-23 02:00,ZGHA 230200Z AUTO 34008KT 6SM 17/11 A3030 RMK T01700110 IEM_DS3505
ZGHA,2008-04-23 03:00,ZGHA 230300Z AUTO 35006KT 6SM 18/10 A3030 RMK T01800100 IEM_DS3505
ZGHA,2008-04-23 04:00,ZGHA 230400Z AUTO 01006KT 6SM 20/08 A3027 RMK T02000080 IEM_DS3505
ZGHA,2008-04-23 05:00,ZGHA 230500Z AUTO 35010KT 6SM 21/07 A3024 RMK T02100070 IEM_DS3505
ZGHA,2008-04-23 06:00,ZGHA 230600Z AUTO 36008KT 6SM 22/09 A3021 RMK T02200090 IEM_DS3505
ZGHA,2008-04-23 07:00,ZGHA 230700Z AUTO 36006KT 6SM 23/09 A3018 RMK T02300090 IEM_DS3505
ZGHA,2008-04-23 08:00,ZGHA 230800Z AUTO 34010KT 6SM 23/09 A3015 RMK T02300090 IEM_DS3505
ZGHA,2008-04-23 09:00,ZGHA 230900Z AUTO 34010KT 6SM 22/10 A3015 RMK T02200100 IEM_DS3505
ZGHA,2008-04-23 10:00,ZGHA 231000Z AUTO 33010KT 6SM 21/08 A3015 RMK T02100080 IEM_DS3505
ZGHA,2008-04-23 11:00,ZGHA 231100Z AUTO 32008KT 6SM 19/11 A3018 RMK T01900110 IEM_DS3505
ZGHA,2008-04-23 12:00,ZGHA 231200Z AUTO 33006KT 6SM 17/11 A3018 RMK T01700110 IEM_DS3505
ZGHA,2008-04-23 14:00,ZGHA 231400Z AUTO 36004KT 5SM 16/09 A3021 RMK T01600090 IEM_DS3505
ZGHA,2008-04-23 15:00,ZGHA 231500Z AUTO 36004KT 5SM 14/09 A3024 RMK T01400090 IEM_DS3505
ZGHA,2008-04-23 16:00,ZGHA 231600Z AUTO 6SM 13/09 A3021 RMK T01300090 IEM_DS3505
ZGHA,2008-04-23 21:00,ZGHA 232100Z AUTO 00000KT 2 1/2SM 10/09 A3018 RMK T01000090 IEM_DS3505
ZGHA,2008-04-23 22:00,ZGHA 232200Z AUTO 00000KT 3SM 09/09 A3021 RMK T00900090 IEM_DS3505
ZGHA,2008-04-23 23:00,ZGHA 232300Z AUTO 4SM 11/11 A3021 RMK T01100110 IEM_DS3505
ZGHA,2008-04-24 00:00,ZGHA 240000Z AUTO 08004KT 6SM 15/11 A3024 RMK T01500110 IEM_DS3505
ZGHA,2008-04-24 01:00,ZGHA 240100Z AUTO 6SM 17/10 A3024 RMK T01700100 IEM_DS3505
ZGHA,2008-04-24 02:00,ZGHA 240200Z AUTO 6SM 19/11 A3024 RMK T01900110 IEM_DS3505
ZGHA,2008-04-24 03:00,ZGHA 240300Z AUTO 6SM 22/11 A3021 RMK T02200110 IEM_DS3505
ZGHA,2008-04-24 04:00,ZGHA 240400Z AUTO 6SM 24/10 A3018 RMK T02400100 IEM_DS3505
ZGHA,2008-04-24 05:00,ZGHA 240500Z AUTO 6SM 24/07 A3015 RMK T02400070 IEM_DS3505
ZGHA,2008-04-24 06:00,ZGHA 240600Z AUTO 6SM 25/08 A3012 RMK T02500080 IEM_DS3505
ZGHA,2008-04-24 07:00,ZGHA 240700Z AUTO 35004KT 6SM 24/08 A3009 RMK T02400080 IEM_DS3505
ZGHA,2008-04-24 08:00,ZGHA 240800Z AUTO 36004KT 6SM 24/07 A3006 RMK T02400070 IEM_DS3505
ZGHA,2008-04-24 09:00,ZGHA 240900Z AUTO 35004KT 6SM 23/09 A3006 RMK T02300090 IEM_DS3505
ZGHA,2008-04-24 10:00,ZGHA 241000Z AUTO 27004KT 6SM 22/10 A3006 RMK T02200100 IEM_DS3505
ZGHA,2008-04-24 11:00,ZGHA 241100Z AUTO 23002KT 6SM 22/09 A3006 RMK T02200090 IEM_DS3505
ZGHA,2008-04-24 12:00,ZGHA 241200Z AUTO 24006KT 6SM 20/13 A3009 RMK T02000130 IEM_DS3505
ZGHA,2008-04-24 13:00,ZGHA 241300Z AUTO 21004KT 4SM 18/14 A3009 RMK T01800140 IEM_DS3505
ZGHA,2008-04-24 14:00,ZGHA 241400Z AUTO 23004KT 3SM 18/14 A3012 RMK T01800140 IEM_DS3505
ZGHA,2008-04-24 15:00,ZGHA 241500Z AUTO 12002KT 2 1/2SM 18/14 A3012 RMK T01800140 IEM_DS3505
ZGHA,2008-04-24 16:00,ZGHA 241600Z AUTO 20004KT 2 1/2SM 17/13 A3009 RMK T01700130 IEM_DS3505
ZGHA,2008-04-24 18:00,ZGHA 241800Z AUTO 00000KT 3SM 16/13 A3009 RMK T01600130 IEM_DS3505
ZGHA,2008-04-24 19:00,ZGHA 241900Z AUTO 2 1/2SM 14/12 A3009 RMK T01400120 IEM_DS3505
ZGHA,2008-04-24 20:00,ZGHA 242000Z AUTO 00000KT 2SM 13/12 A3009 RMK T01300120 IEM_DS3505
ZGHA,2008-04-24 21:00,ZGHA 242100Z AUTO 00000KT 1 1/2SM 12/12 A3009 RMK T01200120 IEM_DS3505
ZGHA,2008-04-24 22:00,ZGHA 242200Z AUTO 00000KT 2SM 13/12 A3009 RMK T01300120 IEM_DS3505
ZGHA,2008-04-24 23:00,ZGHA 242300Z AUTO 00000KT 2 1/2SM 14/13 A3009 RMK T01400130 IEM_DS3505
ZGHA,2008-04-25 00:00,ZGHA 250000Z AUTO 3SM 16/14 A3012 RMK T01600140 IEM_DS3505
ZGHA,2008-04-25 01:00,ZGHA 250100Z AUTO 20006KT 3SM 19/14 A3012 RMK T01900140 IEM_DS3505
ZGHA,2008-04-25 02:00,ZGHA 250200Z AUTO 20006KT 4SM 22/14 A3012 RMK T02200140 IEM_DS3505
ZGHA,2008-04-25 03:00,ZGHA 250300Z AUTO 20006KT 4SM 24/13 A3009 RMK T02400130 IEM_DS3505
ZGHA,2008-04-25 04:00,ZGHA 250400Z AUTO 18008KT 5SM 26/12 A3006 RMK T02600120 IEM_DS3505
ZGHA,2008-04-25 05:00,ZGHA 250500Z AUTO 19008KT 6SM 27/11 A3003 RMK T02700110 IEM_DS3505
ZGHA,2008-04-25 06:00,ZGHA 250600Z AUTO 21006KT 6SM 28/09 A3000 RMK T02800090 IEM_DS3505
ZGHA,2008-04-25 07:00,ZGHA 250700Z AUTO 23006KT 6SM 29/11 A2997 RMK T02900110 IEM_DS3505
ZGHA,2008-04-25 08:00,ZGHA 250800Z AUTO 25006KT 6SM 28/10 A2994 RMK T02800100 IEM_DS3505
ZGHA,2008-04-25 09:00,ZGHA 250900Z AUTO 24008KT 6SM 28/10 A2994 RMK T02800100 IEM_DS3505
ZGHA,2008-04-25 10:00,ZGHA 251000Z AUTO 22006KT 6SM 26/12 A2994 RMK T02600120 IEM_DS3505
ZGHA,2008-04-25 11:00,ZGHA 251100Z AUTO 00000KT 6SM 24/12 A2994 RMK T02400120 IEM_DS3505
ZGHA,2008-04-25 12:00,ZGHA 251200Z AUTO 17004KT 6SM 21/13 A2997 RMK T02100130 IEM_DS3505
ZGHA,2008-04-25 13:00,ZGHA 251300Z AUTO 17004KT 6SM 21/14 A2997 RMK T02100140 IEM_DS3505
ZGHA,2008-04-25 14:00,ZGHA 251400Z AUTO 6SM 19/14 A3000 RMK T01900140 IEM_DS3505
ZGHA,2008-04-25 15:00,ZGHA 251500Z AUTO 6SM 18/13 A3000 RMK T01800130 IEM_DS3505
ZGHA,2008-04-25 16:00,ZGHA 251600Z AUTO 6SM 18/13 A3000 RMK T01800130 IEM_DS3505
ZGHA,2008-04-25 21:00,ZGHA 252100Z AUTO 00000KT 6SM 15/11 A3000 RMK T01500110 IEM_DS3505
ZGHA,2008-04-25 22:00,ZGHA 252200Z AUTO 00000KT 4SM 13/11 A3000 RMK T01300110 IEM_DS3505
ZGHA,2008-04-25 23:00,ZGHA 252300Z AUTO 00000KT 5SM 15/13 A3003 RMK T01500130 IEM_DS3505
ZGHA,2008-04-26 00:00,ZGHA 260000Z AUTO 00000KT 6SM 19/14 A3003 RMK T01900140 IEM_DS3505
ZGHA,2008-04-26 01:00,ZGHA 260100Z AUTO 18006KT 6SM 21/14 A3006 RMK T02100140 IEM_DS3505
ZGHA,2008-04-26 02:00,ZGHA 260200Z AUTO 20008KT 6SM 24/15 A3006 RMK T02400150 IEM_DS3505
ZGHA,2008-04-26 03:00,ZGHA 260300Z AUTO 21008KT 6SM 26/14 A3006 RMK T02600140 IEM_DS3505
ZGHA,2008-04-26 04:00,ZGHA 260400Z AUTO 20008KT 6SM 26/13 A3003 RMK T02600130 IEM_DS3505
ZGHA,2008-04-26 05:00,ZGHA 260500Z AUTO 21006KT 6SM 27/13 A3000 RMK T02700130 IEM_DS3505
ZGHA,2008-04-26 06:00,ZGHA 260600Z AUTO 6SM 28/12 A2994 RMK T02800120 IEM_DS3505
ZGHA,2008-04-26 07:00,ZGHA 260700Z AUTO 00000KT 6SM 29/11 A2994 RMK T02900110 IEM_DS3505
ZGHA,2008-04-26 08:00,ZGHA 260800Z AUTO 35002KT 6SM 28/07 A2991 RMK T02800070 IEM_DS3505
ZGHA,2008-04-26 09:00,ZGHA 260900Z AUTO 00000KT 6SM 27/14 A2988 RMK T02700140 IEM_DS3505
ZGHA,2008-04-26 10:00,ZGHA 261000Z AUTO 00000KT 6SM 26/16 A2988 RMK T02600160 IEM_DS3505
ZGHA,2008-04-26 11:00,ZGHA 261100Z AUTO 00000KT 6SM 23/19 A2988 RMK T02300190 IEM_DS3505
ZGHA,2008-04-26 12:00,ZGHA 261200Z AUTO 00000KT 4SM 21/19 A2991 RMK T02100190 IEM_DS3505
ZGHA,2008-04-26 13:00,ZGHA 261300Z AUTO 00000KT 4SM 21/18 A2991 RMK T02100180 IEM_DS3505
ZGHA,2008-04-26 14:00,ZGHA 261400Z AUTO 00000KT 4SM 20/18 A2991 RMK T02000180 IEM_DS3505
ZGHA,2008-04-26 15:00,ZGHA 261500Z AUTO 00000KT 4SM 20/17 A2991 RMK T02000170 IEM_DS3505
ZGHA,2008-04-26 16:00,ZGHA 261600Z AUTO 00000KT 4SM 19/16 A2991 RMK T01900160 IEM_DS3505
ZGHA,2008-04-26 20:00,ZGHA 262000Z AUTO 00000KT 3SM 16/16 A2988 RMK T01600160 IEM_DS3505
ZGHA,2008-04-26 21:00,ZGHA 262100Z AUTO 00000KT 2 1/2SM 16/15 A2988 RMK T01600150 IEM_DS3505
ZGHA,2008-04-26 22:00,ZGHA 262200Z AUTO 00000KT 2 1/2SM 16/16 A2991 RMK T01600160 IEM_DS3505
ZGHA,2008-04-26 23:00,ZGHA 262300Z AUTO 3SM 17/16 A2991 RMK T01700160 IEM_DS3505
ZGHA,2008-04-27 00:00,ZGHA 270000Z AUTO 00000KT 3SM 18/17 A2994 RMK T01800170 IEM_DS3505
ZGHA,2008-04-27 01:00,ZGHA 270100Z AUTO 4SM 20/16 A2994 RMK T02000160 IEM_DS3505
ZGHA,2008-04-27 02:00,ZGHA 270200Z AUTO 00000KT 6SM 22/16 A2994 RMK T02200160 IEM_DS3505
ZGHA,2008-04-27 03:00,ZGHA 270300Z AUTO 00000KT 6SM 24/16 A2994 RMK T02400160 IEM_DS3505
ZGHA,2008-04-27 04:00,ZGHA 270400Z AUTO 6SM 24/17 A2988 RMK T02400170 IEM_DS3505
ZGHA,2008-04-27 05:00,ZGHA 270500Z AUTO 00000KT 6SM 26/16 A2988 RMK T02600160 IEM_DS3505
ZGHA,2008-04-27 06:00,ZGHA 270600Z AUTO 19008KT 6SM 27/15 A2988 RMK T02700150 IEM_DS3505
ZGHA,2008-04-27 07:00,ZGHA 270700Z AUTO 22006KT 6SM 26/16 A2985 RMK T02600160 IEM_DS3505
ZGHA,2008-04-27 08:00,ZGHA 270800Z AUTO 20008KT 6SM 26/16 A2988 RMK T02600160 IEM_DS3505
ZGHA,2008-04-27 09:00,ZGHA 270900Z AUTO 18008KT 6SM 24/16 A2988 RMK T02400160 IEM_DS3505
ZGHA,2008-04-27 10:00,ZGHA 271000Z AUTO 17004KT 6SM 23/17 A2991 RMK T02300170 IEM_DS3505
ZGHA,2008-04-27 11:00,ZGHA 271100Z AUTO 18004KT 4SM 22/17 A2991 RMK T02200170 IEM_DS3505
ZGHA,2008-04-27 12:00,ZGHA 271200Z AUTO 22004KT 3SM 21/18 A2994 RMK T02100180 IEM_DS3505
ZGHA,2008-04-27 13:00,ZGHA 271300Z AUTO 3SM 21/18 A2997 RMK T02100180 IEM_DS3505
ZGHA,2008-04-27 14:00,ZGHA 271400Z AUTO 13002KT 2 1/2SM 20/18 A2997 RMK T02000180 IEM_DS3505
ZGHA,2008-04-27 15:00,ZGHA 271500Z AUTO 2 1/2SM 19/18 A2997 RMK T01900180 IEM_DS3505
ZGHA,2008-04-27 16:00,ZGHA 271600Z AUTO 2SM 19/18 A2997 RMK T01900180 IEM_DS3505
ZGHA,2008-04-27 17:00,ZGHA 271700Z AUTO 00000KT 2SM 18/17 A2997 RMK T01800170 IEM_DS3505
ZGHA,2008-04-27 18:00,ZGHA 271800Z AUTO 00000KT 3/8SM 17/17 A2997 RMK T01700170 IEM_DS3505
ZGHA,2008-04-27 19:00,ZGHA 271900Z AUTO 00000KT 1/2SM 17/17 A2997 RMK T01700170 IEM_DS3505
ZGHA,2008-04-27 21:00,ZGHA 272100Z AUTO 00000KT 1 1/4SM 16/16 A2997 RMK T01600160 IEM_DS3505
ZGHA,2008-04-27 22:00,ZGHA 272200Z AUTO 00000KT 1SM 16/15 A2997 RMK T01600150 IEM_DS3505
ZGHA,2008-04-27 23:00,ZGHA 272300Z AUTO 00000KT 1SM 17/17 A3000 RMK T01700170 IEM_DS3505
ZGHA,2008-04-28 00:00,ZGHA 280000Z AUTO 00000KT 1 1/2SM 18/18 A3000 RMK T01800180 IEM_DS3505
ZGHA,2008-04-28 01:00,ZGHA 280100Z AUTO 00000KT 1 1/2SM 21/20 A3003 RMK T02100200 IEM_DS3505
ZGHA,2008-04-28 02:00,ZGHA 280200Z AUTO 1 1/2SM 23/19 A3000 RMK T02300190 IEM_DS3505
ZGHA,2008-04-28 03:00,ZGHA 280300Z AUTO 2SM 25/19 A3000 RMK T02500190 IEM_DS3505
ZGHA,2008-04-28 04:00,ZGHA 280400Z AUTO 33006KT 2 1/2SM 26/19 A2997 RMK T02600190 IEM_DS3505
ZGHA,2008-04-28 05:00,ZGHA 280500Z AUTO 30004KT 3SM 27/19 A2997 RMK T02700190 IEM_DS3505
ZGHA,2008-04-28 06:00,ZGHA 280600Z AUTO 27006KT 4SM 28/19 A2994 RMK T02800190 IEM_DS3505
ZGHA,2008-04-28 07:00,ZGHA 280700Z AUTO 31010KT 4SM 29/20 A2991 RMK T02900200 IEM_DS3505
ZGHA,2008-04-28 08:00,ZGHA 280800Z AUTO 29010KT 6SM 28/19 A2988 RMK T02800190 IEM_DS3505
ZGHA,2008-04-28 09:00,ZGHA 280900Z AUTO 31008KT 6SM 27/18 A2988 RMK T02700180 IEM_DS3505
ZGHA,2008-04-28 10:00,ZGHA 281000Z AUTO 31008KT 4SM 26/18 A2988 RMK T02600180 IEM_DS3505
ZGHA,2008-04-28 11:00,ZGHA 281100Z AUTO 31006KT 4SM 24/18 A2988 RMK T02400180 IEM_DS3505
ZGHA,2008-04-28 12:00,ZGHA 281200Z AUTO 34004KT 4SM 23/18 A2988 RMK T02300180 IEM_DS3505
ZGHA,2008-04-28 13:00,ZGHA 281300Z AUTO 2 1/2SM 22/19 A2991 RMK T02200190 IEM_DS3505
ZGHA,2008-04-28 14:00,ZGHA 281400Z AUTO 00000KT 2SM 20/18 A2991 RMK T02000180 IEM_DS3505
ZGHA,2008-04-28 15:00,ZGHA 281500Z AUTO 00000KT 2SM 20/18 A2991 RMK T02000180 IEM_DS3505
ZGHA,2008-04-28 16:00,ZGHA 281600Z AUTO 35002KT 2SM 20/19 A2991 RMK T02000190 IEM_DS3505
ZGHA,2008-04-28 21:00,ZGHA 282100Z AUTO 00000KT 1SM 17/17 A2988 RMK T01700170 IEM_DS3505
ZGHA,2008-04-28 22:00,ZGHA 282200Z AUTO 00000KT 1SM 18/17 A2991 RMK T01800170 IEM_DS3505
ZGHA,2008-04-28 23:00,ZGHA 282300Z AUTO 00000KT 1 1/2SM 18/17 A2991 RMK T01800170 IEM_DS3505
ZGHA,2008-04-29 00:00,ZGHA 290000Z AUTO 00000KT 2 1/2SM 20/19 A2994 RMK T02000190 IEM_DS3505
ZGHA,2008-04-29 01:00,ZGHA 290100Z AUTO 00000KT 3SM 22/18 A2994 RMK T02200180 IEM_DS3505
ZGHA,2008-04-29 02:00,ZGHA 290200Z AUTO 00000KT 4SM 26/18 A2994 RMK T02600180 IEM_DS3505
ZGHA,2008-04-29 03:00,ZGHA 290300Z AUTO 15004KT 6SM 28/16 A2991 RMK T02800160 IEM_DS3505
ZGHA,2008-04-29 04:00,ZGHA 290400Z AUTO 6SM 27/18 A2991 RMK T02700180 IEM_DS3505
ZGHA,2008-04-29 05:00,ZGHA 290500Z AUTO 21008KT 6SM 29/17 A2988 RMK T02900170 IEM_DS3505
ZGHA,2008-04-29 06:00,ZGHA 290600Z AUTO 20008KT 6SM 29/17 A2985 RMK T02900170 IEM_DS3505
ZGHA,2008-04-29 07:00,ZGHA 290700Z AUTO 18006KT 6SM 29/17 A2985 RMK T02900170 IEM_DS3505
ZGHA,2008-04-29 08:00,ZGHA 290800Z AUTO 19008KT 6SM 28/18 A2983 RMK T02800180 IEM_DS3505
ZGHA,2008-04-29 09:00,ZGHA 290900Z AUTO 20008KT 6SM 27/16 A2983 RMK T02700160 IEM_DS3505
ZGHA,2008-04-29 10:00,ZGHA 291000Z AUTO 19008KT 6SM 26/17 A2983 RMK T02600170 IEM_DS3505
ZGHA,2008-04-29 11:00,ZGHA 291100Z AUTO 00000KT 5SM 26/18 A2983 RMK T02600180 IEM_DS3505
ZGHA,2008-04-29 12:00,ZGHA 291200Z AUTO 00000KT 5SM 24/18 A2983 RMK T02400180 IEM_DS3505
ZGHA,2008-04-29 13:00,ZGHA 291300Z AUTO 00000KT 4SM 23/18 A2985 RMK T02300180 IEM_DS3505
ZGHA,2008-04-29 14:00,ZGHA 291400Z AUTO 00000KT 3SM 21/18 A2985 RMK T02100180 IEM_DS3505
ZGHA,2008-04-29 15:00,ZGHA 291500Z AUTO 00000KT 3SM 21/19 A2985 RMK T02100190 IEM_DS3505
ZGHA,2008-04-29 16:00,ZGHA 291600Z AUTO 00000KT 3SM 21/19 A2985 RMK T02100190 IEM_DS3505
ZGHA,2008-04-29 17:00,ZGHA 291700Z AUTO 00000KT 2 1/2SM 20/19 A2983 RMK T02000190 IEM_DS3505
ZGHA,2008-04-29 21:00,ZGHA 292100Z AUTO 24004KT 3SM 21/17 A2983 RMK T02100170 IEM_DS3505
ZGHA,2008-04-29 22:00,ZGHA 292200Z AUTO 1 1/2SM 20/18 A2983 RMK T02000180 IEM_DS3505
ZGHA,2008-04-29 23:00,ZGHA 292300Z AUTO 00000KT 1 1/2SM 19/18 A2985 RMK T01900180 IEM_DS3505
ZGHA,2008-04-30 00:00,ZGHA 300000Z AUTO 18004KT 1 1/4SM 19/19 A2985 RMK T01900190 IEM_DS3505
ZGHA,2008-04-30 01:00,ZGHA 300100Z AUTO 00000KT 1 1/2SM 20/19 A2985 RMK T02000190 IEM_DS3505
ZGHA,2008-04-30 02:00,ZGHA 300200Z AUTO 16006KT 1 1/2SM 20/20 A2985 RMK T02000200 IEM_DS3505
ZGHA,2008-04-30 03:00,ZGHA 300300Z AUTO 16004KT 3SM 22/21 A2985 RMK T02200210 IEM_DS3505
ZGHA,2008-04-30 04:00,ZGHA 300400Z AUTO 3SM 23/20 A2983 RMK T02300200 IEM_DS3505
ZGHA,2008-04-30 05:00,ZGHA 300500Z AUTO 15006KT 4SM 26/22 A2980 RMK T02600220 IEM_DS3505
ZGHA,2008-04-30 06:00,ZGHA 300600Z AUTO 17006KT 5SM 27/22 A2977 RMK T02700220 IEM_DS3505
ZGHA,2008-04-30 07:00,ZGHA 300700Z AUTO 17006KT 5SM 28/22 A2974 RMK T02800220 IEM_DS3505
ZGHA,2008-04-30 08:00,ZGHA 300800Z AUTO 19008KT 6SM 28/22 A2974 RMK T02800220 IEM_DS3505
ZGHA,2008-04-30 09:00,ZGHA 300900Z AUTO 12006KT 6SM 27/22 A2971 RMK T02700220 IEM_DS3505
ZGHA,2008-04-30 10:00,ZGHA 301000Z AUTO 12004KT 5SM 26/22 A2974 RMK T02600220 IEM_DS3505
ZGHA,2008-04-30 11:00,ZGHA 301100Z AUTO 3SM 25/22 A2974 RMK T02500220 IEM_DS3505
ZGHA,2008-04-30 12:00,ZGHA 301200Z AUTO 00000KT 3SM 24/22 A2977 RMK T02400220 IEM_DS3505
ZGHA,2008-04-30 13:00,ZGHA 301300Z AUTO 00000KT 2 1/2SM 24/21 A2977 RMK T02400210 IEM_DS3505
ZGHA,2008-04-30 14:00,ZGHA 301400Z AUTO 14004KT 3SM 23/21 A2980 RMK T02300210 IEM_DS3505
ZGHA,2008-04-30 15:00,ZGHA 301500Z AUTO 2 1/2SM 22/20 A2980 RMK T02200200 IEM_DS3505
ZGHA,2008-04-30 16:00,ZGHA 301600Z AUTO 2 1/2SM 22/20 A2980 RMK T02200200 IEM_DS3505
ZGHA,2008-04-30 17:00,ZGHA 301700Z AUTO 17002KT 2SM 21/20 A2980 RMK T02100200 IEM_DS3505
ZGHA,2008-04-30 18:00,ZGHA 301800Z AUTO 00000KT 1 1/2SM 21/20 A2980 RMK T02100200 IEM_DS3505
ZGHA,2008-04-30 19:00,ZGHA 301900Z AUTO 1 1/2SM 20/20 A2977 RMK T02000200 IEM_DS3505
ZGHA,2008-04-30 21:00,ZGHA 302100Z AUTO 1 1/2SM 20/19 A2977 RMK T02000190 IEM_DS3505
ZGHA,2008-04-30 22:00,ZGHA 302200Z AUTO 00000KT 1 1/4SM 19/19 A2980 RMK T01900190 IEM_DS3505
ZGHA,2008-04-30 23:00,ZGHA 302300Z AUTO 00000KT 1 1/2SM 20/20 A2980 RMK T02000200 IEM_DS3505
ZGHA,2008-05-01 00:00,ZGHA 010000Z AUTO 3SM 23/22 A2983 RMK T02300220 IEM_DS3505
ZGHA,2008-05-01 01:00,ZGHA 010100Z AUTO 16006KT 5SM 25/21 A2983 RMK T02500210 IEM_DS3505
ZGHA,2008-05-01 02:00,ZGHA 010200Z AUTO 5SM 27/22 A2983 RMK T02700220 IEM_DS3505
ZGHA,2008-05-01 03:00,ZGHA 010300Z AUTO 18004KT 6SM 28/22 A2980 RMK T02800220 IEM_DS3505
ZGHA,2008-05-01 04:00,ZGHA 010400Z AUTO 22006KT 6SM 30/22 A2977 RMK T03000220 IEM_DS3505
ZGHA,2008-05-01 05:00,ZGHA 010500Z AUTO 20006KT 7SM 30/22 A2974 RMK T03000220 IEM_DS3505
ZGHA,2008-05-01 06:00,ZGHA 010600Z AUTO 18006KT 7SM 32/22 A2971 RMK T03200220 IEM_DS3505
ZGHA,2008-05-01 07:00,ZGHA 010700Z AUTO 17004KT 7SM 31/21 A2968 RMK T03100210 IEM_DS3505
ZGHA,2008-05-01 08:00,ZGHA 010800Z AUTO 20008KT 7SM 32/21 A2968 RMK T03200210 IEM_DS3505
ZGHA,2008-05-01 09:00,ZGHA 010900Z AUTO 20008KT 6SM 32/20 A2968 RMK T03200200 IEM_DS3505
ZGHA,2008-05-01 10:00,ZGHA 011000Z AUTO 19004KT 6SM 31/20 A2965 RMK T03100200 IEM_DS3505
ZGHA,2008-05-01 11:00,ZGHA 011100Z AUTO 6SM 29/22 A2968 RMK T02900220 IEM_DS3505
ZGHA,2008-05-01 12:00,ZGHA 011200Z AUTO 13002KT 6SM 26/22 A2968 RMK T02600220 IEM_DS3505
ZGHA,2008-05-01 13:00,ZGHA 011300Z AUTO 12004KT 6SM 26/21 A2971 RMK T02600210 IEM_DS3505
ZGHA,2008-05-01 14:00,ZGHA 011400Z AUTO 10002KT 6SM 26/21 A2971 RMK T02600210 IEM_DS3505
ZGHA,2008-05-01 15:00,ZGHA 011500Z AUTO 00000KT 6SM 26/20 A2971 RMK T02600200 IEM_DS3505
ZGHA,2008-05-01 16:00,ZGHA 011600Z AUTO 6SM 26/20 A2971 RMK T02600200 IEM_DS3505
ZGHA,2008-05-01 18:00,ZGHA 011800Z AUTO 00000KT 2 1/2SM 22/20 A2971 RMK T02200200 IEM_DS3505
ZGHA,2008-05-01 21:00,ZGHA 012100Z AUTO 00000KT 2 1/2SM 21/20 A2971 RMK T02100200 IEM_DS3505
ZGHA,2008-05-01 22:00,ZGHA 012200Z AUTO 00000KT 2 1/2SM 21/20 A2971 RMK T02100200 IEM_DS3505
ZGHA,2008-05-01 23:00,ZGHA 012300Z AUTO 00000KT 2 1/2SM 22/22 A2974 RMK T02200220 IEM_DS3505
ZGHA,2008-05-02 00:00,ZGHA 020000Z AUTO 00000KT 3SM 26/23 A2974 RMK T02600230 IEM_DS3505
ZGHA,2008-05-02 01:00,ZGHA 020100Z AUTO 12004KT 4SM 28/22 A2974 RMK T02800220 IEM_DS3505
ZGHA,2008-05-02 02:00,ZGHA 020200Z AUTO 16006KT 5SM 30/23 A2974 RMK T03000230 IEM_DS3505
ZGHA,2008-05-02 03:00,ZGHA 020300Z AUTO 17008KT 5SM 31/24 A2974 RMK T03100240 IEM_DS3505
ZGHA,2008-05-02 04:00,ZGHA 020400Z AUTO 19008KT 7SM 31/23 A2971 RMK T03100230 IEM_DS3505
ZGHA,2008-05-02 05:00,ZGHA 020500Z AUTO 18008KT 7SM 33/24 A2968 RMK T03300240 IEM_DS3505
ZGHA,2008-05-02 06:00,ZGHA 020600Z AUTO 22010KT 7SM 32/23 A2968 RMK T03200230 IEM_DS3505
ZGHA,2008-05-02 07:00,ZGHA 020700Z AUTO 20006KT 7SM 34/23 A2965 RMK T03400230 IEM_DS3505
ZGHA,2008-05-02 08:00,ZGHA 020800Z AUTO 13006KT 7SM 33/23 A2962 RMK T03300230 IEM_DS3505
ZGHA,2008-05-02 09:00,ZGHA 020900Z AUTO 7SM 32/23 A2959 RMK T03200230 IEM_DS3505
ZGHA,2008-05-02 10:00,ZGHA 021000Z AUTO 18006KT 7SM 31/24 A2959 RMK T03100240 IEM_DS3505
ZGHA,2008-05-02 11:00,ZGHA 021100Z AUTO 22010KT 7SM 29/23 A2965 RMK T02900230 IEM_DS3505
ZGHA,2008-05-02 12:00,ZGHA 021200Z AUTO 20004KT 6SM 27/23 A2965 RMK T02700230 IEM_DS3505
ZGHA,2008-05-02 13:00,ZGHA 021300Z AUTO 14004KT 4SM 27/23 A2971 RMK T02700230 IEM_DS3505
ZGHA,2008-05-02 14:00,ZGHA 021400Z AUTO 4SM 27/23 A2971 RMK T02700230 IEM_DS3505
ZGHA,2008-05-02 15:00,ZGHA 021500Z AUTO 00000KT 5SM 26/22 A2968 RMK T02600220 IEM_DS3505
ZGHA,2008-05-02 16:00,ZGHA 021600Z AUTO 00000KT 5SM 25/22 A2968 RMK T02500220 IEM_DS3505
ZGHA,2008-05-02 17:00,ZGHA 021700Z AUTO 00000KT 6SM 25/21 A2968 RMK T02500210 IEM_DS3505
ZGHA,2008-05-02 18:00,ZGHA 021800Z AUTO 6SM 24/21 A2968 RMK T02400210 IEM_DS3505
ZGHA,2008-05-02 20:00,ZGHA 022000Z AUTO 6SM 24/22 A2965 RMK T02400220 IEM_DS3505
ZGHA,2008-05-02 21:00,ZGHA 022100Z AUTO 14004KT 5SM 25/22 A2968 RMK T02500220 IEM_DS3505
ZGHA,2008-05-02 22:00,ZGHA 022200Z AUTO 5SM 25/22 A2968 RMK T02500220 IEM_DS3505
ZGHA,2008-05-02 23:00,ZGHA 022300Z AUTO 16004KT 7SM 25/22 A2971 RMK T02500220 IEM_DS3505
ZGHA,2008-05-03 00:00,ZGHA 030000Z AUTO 16006KT 7SM 26/22 A2971 RMK T02600220 IEM_DS3505
ZGHA,2008-05-03 01:00,ZGHA 030100Z AUTO 17006KT 7SM 26/22 A2971 RMK T02600220 IEM_DS3505
ZGHA,2008-05-03 02:00,ZGHA 030200Z AUTO 16008KT 6SM 26/23 A2971 RMK T02600230 IEM_DS3505
ZGHA,2008-05-03 03:00,ZGHA 030300Z AUTO 16006KT 7SM 29/23 A2971 RMK T02900230 IEM_DS3505
ZGHA,2008-05-03 04:00,ZGHA 030400Z AUTO 20014KT 7SM 31/24 A2968 RMK T03100240 IEM_DS3505
ZGHA,2008-05-03 05:00,ZGHA 030500Z AUTO 14004KT 7SM 30/24 A2968 RMK T03000240 IEM_DS3505
ZGHA,2008-05-03 06:00,ZGHA 030600Z AUTO 18008KT 7SM 30/24 A2965 RMK T03000240 IEM_DS3505
ZGHA,2008-05-03 07:00,ZGHA 030700Z AUTO 17008KT 7SM 32/25 A2962 RMK T03200250 IEM_DS3505
ZGHA,2008-05-03 08:00,ZGHA 030800Z AUTO 17010KT 7SM 32/24 A2962 RMK T03200240 IEM_DS3505
ZGHA,2008-05-03 09:00,ZGHA 030900Z AUTO 20014KT 7SM 31/23 A2962 RMK T03100230 IEM_DS3505
ZGHA,2008-05-03 10:00,ZGHA 031000Z AUTO 18012KT 6SM 31/23 A2959 RMK T03100230 IEM_DS3505
ZGHA,2008-05-03 11:00,ZGHA 031100Z AUTO 18008KT 6SM 30/24 A2962 RMK T03000240 IEM_DS3505
ZGHA,2008-05-03 12:00,ZGHA 031200Z AUTO 17008KT 6SM 29/23 A2965 RMK T02900230 IEM_DS3505
ZGHA,2008-05-03 13:00,ZGHA 031300Z AUTO 6SM 28/23 A2968 RMK T02800230 IEM_DS3505
ZGHA,2008-05-03 14:00,ZGHA 031400Z AUTO 17006KT 6SM 28/23 A2968 RMK T02800230 IEM_DS3505
ZGHA,2008-05-03 15:00,ZGHA 031500Z AUTO 19008KT 6SM 27/23 A2971 RMK T02700230 IEM_DS3505
ZGHA,2008-05-03 16:00,ZGHA 031600Z AUTO 35014KT 7SM 27/22 A2971 RMK T02700220 IEM_DS3505
ZGHA,2008-05-03 17:00,ZGHA 031700Z AUTO 32010KT 2 1/2SM A2977 RMK IEM_DS3505
ZGHA,2008-05-03 18:00,ZGHA 031800Z AUTO 33012KT 4SM 19/18 A2977 RMK T01900180 IEM_DS3505
ZGHA,2008-05-03 19:00,ZGHA 031900Z AUTO 31008KT 4SM 19/19 A2977 RMK T01900190 IEM_DS3505
ZGHA,2008-05-03 20:00,ZGHA 032000Z AUTO 34010KT 7SM 19/18 A2977 RMK T01900180 IEM_DS3505
ZGHA,2008-05-03 21:00,ZGHA 032100Z AUTO 34012KT 5SM 19/18 A2980 RMK T01900180 IEM_DS3505
ZGHA,2008-05-03 22:00,ZGHA 032200Z AUTO 34010KT 4SM 19/18 A2983 RMK T01900180 IEM_DS3505
ZGHA,2008-05-03 23:00,ZGHA 032300Z AUTO 36010KT 5SM 19/18 A2985 RMK T01900180 IEM_DS3505
ZGHA,2008-05-04 00:00,ZGHA 040000Z AUTO 36008KT 7SM 19/17 A2988 RMK T01900170 IEM_DS3505
ZGHA,2008-05-04 01:00,ZGHA 040100Z AUTO 36008KT 7SM 20/17 A2988 RMK T02000170 IEM_DS3505
ZGHA,2008-05-04 02:00,ZGHA 040200Z AUTO 36010KT 7SM 21/18 A2988 RMK T02100180 IEM_DS3505
ZGHA,2008-05-04 03:00,ZGHA 040300Z AUTO 34008KT 7SM 22/17 A2991 RMK T02200170 IEM_DS3505
ZGHA,2008-05-04 04:00,ZGHA 040400Z AUTO 34010KT 7SM 22/17 A2991 RMK T02200170 IEM_DS3505
ZGHA,2008-05-04 05:00,ZGHA 040500Z AUTO 33012KT 7SM 23/17 A2991 RMK T02300170 IEM_DS3505
ZGHA,2008-05-04 06:00,ZGHA 040600Z AUTO 34006KT 6SM 23/16 A2991 RMK T02300160 IEM_DS3505
ZGHA,2008-05-04 07:00,ZGHA 040700Z AUTO 30008KT 6SM 23/17 A2988 RMK T02300170 IEM_DS3505
ZGHA,2008-05-04 08:00,ZGHA 040800Z AUTO 32010KT 6SM 23/17 A2988 RMK T02300170 IEM_DS3505
ZGHA,2008-05-04 09:00,ZGHA 040900Z AUTO 30006KT 7SM 20/17 A2988 RMK T02000170 IEM_DS3505
ZGHA,2008-05-04 10:00,ZGHA 041000Z AUTO 30006KT 7SM 20/17 A2988 RMK T02000170 IEM_DS3505
ZGHA,2008-05-04 11:00,ZGHA 041100Z AUTO 32006KT 7SM 20/17 A2988 RMK T02000170 IEM_DS3505
ZGHA,2008-05-04 12:00,ZGHA 041200Z AUTO 31004KT 4SM 19/17 A2991 RMK T01900170 IEM_DS3505
ZGHA,2008-05-04 13:00,ZGHA 041300Z AUTO 32004KT 4SM 20/17 A2994 RMK T02000170 IEM_DS3505
ZGHA,2008-05-04 14:00,ZGHA 041400Z AUTO 21004KT 4SM 19/17 A2994 RMK T01900170 IEM_DS3505
ZGHA,2008-05-04 15:00,ZGHA 041500Z AUTO 3SM 19/17 A2994 RMK T01900170 IEM_DS3505
ZGHA,2008-05-04 16:00,ZGHA 041600Z AUTO 2 1/2SM 19/18 A2994 RMK T01900180 IEM_DS3505
ZGHA,2008-05-04 17:00,ZGHA 041700Z AUTO 2 1/2SM 19/18 A2994 RMK T01900180 IEM_DS3505
ZGHA,2008-05-04 18:00,ZGHA 041800Z AUTO 18002KT 2 1/2SM 18/18 A2991 RMK T01800180 IEM_DS3505
ZGHA,2008-05-04 19:00,ZGHA 041900Z AUTO 18004KT 1SM 18/18 A2991 RMK T01800180 IEM_DS3505
ZGHA,2008-05-04 20:00,ZGHA 042000Z AUTO 11004KT 1SM 18/17 A2991 RMK T01800170 IEM_DS3505
ZGHA,2008-05-04 21:00,ZGHA 042100Z AUTO 1 1/2SM 18/17 A2991 RMK T01800170 IEM_DS3505
ZGHA,2008-05-04 22:00,ZGHA 042200Z AUTO 1 1/2SM 18/18 A2991 RMK T01800180 IEM_DS3505
ZGHA,2008-05-04 23:00,ZGHA 042300Z AUTO 1 1/4SM 18/18 A2991 RMK T01800180 IEM_DS3505
ZGHA,2008-05-05 00:00,ZGHA 050000Z AUTO 10002KT 1 1/2SM 18/18 A2994 RMK T01800180 IEM_DS3505
ZGHA,2008-05-05 01:00,ZGHA 050100Z AUTO 2SM 19/19 A2994 RMK T01900190 IEM_DS3505
ZGHA,2008-05-05 02:00,ZGHA 050200Z AUTO 15004KT 2SM 20/19 A2991 RMK T02000190 IEM_DS3505
ZGHA,2008-05-05 03:00,ZGHA 050300Z AUTO 2 1/2SM 21/19 A2994 RMK T02100190 IEM_DS3505
ZGHA,2008-05-05 04:00,ZGHA 050400Z AUTO 18004KT 2 1/2SM 21/19 A2994 RMK T02100190 IEM_DS3505
ZGHA,2008-05-05 05:00,ZGHA 050500Z AUTO 20006KT 3SM 22/19 A2991 RMK T02200190 IEM_DS3505
ZGHA,2008-05-05 06:00,ZGHA 050600Z AUTO 19004KT 2 1/2SM 22/19 A2991 RMK T02200190 IEM_DS3505
ZGHA,2008-05-05 07:00,ZGHA 050700Z AUTO 23004KT 2SM 21/18 A2991 RMK T02100180 IEM_DS3505
ZGHA,2008-05-05 08:00,ZGHA 050800Z AUTO 24006KT 1 1/2SM 21/19 A2988 RMK T02100190 IEM_DS3505
ZGHA,2008-05-05 09:00,ZGHA 050900Z AUTO 22004KT 1 1/2SM 20/19 A2988 RMK T02000190 IEM_DS3505
ZGHA,2008-05-05 10:00,ZGHA 051000Z AUTO 20006KT 1 1/2SM 20/18 A2985 RMK T02000180 IEM_DS3505
ZGHA,2008-05-05 11:00,ZGHA 051100Z AUTO 25004KT 1 1/2SM 19/19 A2988 RMK T01900190 IEM_DS3505
ZGHA,2008-05-05 12:00,ZGHA 051200Z AUTO 1 1/2SM 19/18 A2988 RMK T01900180 IEM_DS3505
ZGHA,2008-05-05 13:00,ZGHA 051300Z AUTO 1 1/2SM 19/18 A2988 RMK T01900180 IEM_DS3505
ZGHA,2008-05-05 14:00,ZGHA 051400Z AUTO 1 1/2SM 19/18 A2988 RMK T01900180 IEM_DS3505
ZGHA,2008-05-05 15:00,ZGHA 051500Z AUTO 00000KT 1 1/2SM 18/18 A2991 RMK T01800180 IEM_DS3505
ZGHA,2008-05-05 16:00,ZGHA 051600Z AUTO 1 1/4SM 19/18 A2988 RMK T01900180 IEM_DS3505
ZGHA,2008-05-05 17:00,ZGHA 051700Z AUTO 1/2SM 18/18 A2988 RMK T01800180 IEM_DS3505
ZGHA,2008-05-05 18:00,ZGHA 051800Z AUTO 1SM 18/18 A2985 RMK T01800180 IEM_DS3505
ZGHA,2008-05-05 19:00,ZGHA 051900Z AUTO 2SM 18/18 A2983 RMK T01800180 IEM_DS3505
ZGHA,2008-05-05 21:00,ZGHA 052100Z AUTO 00000KT 2 1/2SM 18/18 A2983 RMK T01800180 IEM_DS3505
ZGHA,2008-05-05 22:00,ZGHA 052200Z AUTO 20004KT 3SM 18/18 A2983 RMK T01800180 IEM_DS3505
ZGHA,2008-05-05 23:00,ZGHA 052300Z AUTO 20004KT 4SM 19/18 A2983 RMK T01900180 IEM_DS3505
ZGHA,2008-05-06 00:00,ZGHA 060000Z AUTO 18006KT 5SM 20/18 A2985 RMK T02000180 IEM_DS3505
ZGHA,2008-05-06 01:00,ZGHA 060100Z AUTO 18006KT 7SM 20/18 A2985 RMK T02000180 IEM_DS3505
ZGHA,2008-05-06 02:00,ZGHA 060200Z AUTO 17004KT 7SM 21/19 A2985 RMK T02100190 IEM_DS3505
ZGHA,2008-05-06 03:00,ZGHA 060300Z AUTO 18008KT 7SM 23/18 A2985 RMK T02300180 IEM_DS3505
ZGHA,2008-05-06 04:00,ZGHA 060400Z AUTO 19008KT 7SM 23/18 A2985 RMK T02300180 IEM_DS3505
ZGHA,2008-05-06 05:00,ZGHA 060500Z AUTO 17006KT 7SM 23/19 A2983 RMK T02300190 IEM_DS3505
ZGHA,2008-05-06 06:00,ZGHA 060600Z AUTO 17008KT 7SM 24/19 A2980 RMK T02400190 IEM_DS3505
ZGHA,2008-05-06 07:00,ZGHA 060700Z AUTO 17006KT 7SM 23/19 A2980 RMK T02300190 IEM_DS3505
ZGHA,2008-05-06 08:00,ZGHA 060800Z AUTO 17008KT 7SM 22/19 A2977 RMK T02200190 IEM_DS3505
ZGHA,2008-05-06 09:00,ZGHA 060900Z AUTO 17006KT 7SM 22/19 A2977 RMK T02200190 IEM_DS3505
ZGHA,2008-05-06 10:00,ZGHA 061000Z AUTO 15004KT 7SM 21/19 A2977 RMK T02100190 IEM_DS3505
ZGHA,2008-05-06 11:00,ZGHA 061100Z AUTO 17008KT 7SM 20/19 A2977 RMK T02000190 IEM_DS3505
ZGHA,2008-05-06 12:00,ZGHA 061200Z AUTO 17004KT 7SM 20/19 A2977 RMK T02000190 IEM_DS3505
ZGHA,2008-05-06 13:00,ZGHA 061300Z AUTO 16004KT 7SM 20/19 A2980 RMK T02000190 IEM_DS3505
ZGHA,2008-05-06 14:00,ZGHA 061400Z AUTO 18004KT 5SM 20/19 A2977 RMK T02000190 IEM_DS3505
ZGHA,2008-05-06 15:00,ZGHA 061500Z AUTO 18006KT 4SM 19/19 A2980 RMK T01900190 IEM_DS3505
ZGHA,2008-05-06 16:00,ZGHA 061600Z AUTO 18004KT 4SM 20/19 A2977 RMK T02000190 IEM_DS3505
ZGHA,2008-05-06 17:00,ZGHA 061700Z AUTO 19006KT 4SM 20/19 A2977 RMK T02000190 IEM_DS3505
ZGHA,2008-05-06 18:00,ZGHA 061800Z AUTO 19004KT 4SM 20/19 A2977 RMK T02000190 IEM_DS3505
ZGHA,2008-05-06 19:00,ZGHA 061900Z AUTO 19004KT 4SM 19/19 A2974 RMK T01900190 IEM_DS3505
ZGHA,2008-05-06 20:00,ZGHA 062000Z AUTO 23004KT 5SM 20/19 A2974 RMK T02000190 IEM_DS3505
ZGHA,2008-05-06 21:00,ZGHA 062100Z AUTO 00000KT 5SM 20/19 A2974 RMK T02000190 IEM_DS3505
ZGHA,2008-05-06 22:00,ZGHA 062200Z AUTO 18004KT 4SM 20/19 A2977 RMK T02000190 IEM_DS3505
ZGHA,2008-05-06 23:00,ZGHA 062300Z AUTO 00000KT 4SM 20/19 A2977 RMK T02000190 IEM_DS3505
ZGHA,2008-05-07 00:00,ZGHA 070000Z AUTO 4SM 20/19 A2980 RMK T02000190 IEM_DS3505
ZGHA,2008-05-07 01:00,ZGHA 070100Z AUTO 5SM 21/20 A2980 RMK T02100200 IEM_DS3505
ZGHA,2008-05-07 02:00,ZGHA 070200Z AUTO 18006KT 6SM 23/21 A2980 RMK T02300210 IEM_DS3505
ZGHA,2008-05-07 03:00,ZGHA 070300Z AUTO 16006KT 6SM 24/21 A2980 RMK T02400210 IEM_DS3505
ZGHA,2008-05-07 04:00,ZGHA 070400Z AUTO 6SM 26/21 A2977 RMK T02600210 IEM_DS3505
ZGHA,2008-05-07 05:00,ZGHA 070500Z AUTO 18010KT 7SM 28/24 A2974 RMK T02800240 IEM_DS3505
ZGHA,2008-05-07 06:00,ZGHA 070600Z AUTO 18014KT 6SM 29/23 A2971 RMK T02900230 IEM_DS3505
ZGHA,2008-05-07 07:00,ZGHA 070700Z AUTO 18010KT 6SM 28/23 A2971 RMK T02800230 IEM_DS3505
ZGHA,2008-05-07 08:00,ZGHA 070800Z AUTO 18012KT 6SM 29/23 A2968 RMK T02900230 IEM_DS3505
ZGHA,2008-05-07 09:00,ZGHA 070900Z AUTO 18012KT 6SM 28/23 A2965 RMK T02800230 IEM_DS3505
ZGHA,2008-05-07 10:00,ZGHA 071000Z AUTO 15004KT 6SM 28/23 A2968 RMK T02800230 IEM_DS3505
ZGHA,2008-05-07 11:00,ZGHA 071100Z AUTO 6SM 26/23 A2968 RMK T02600230 IEM_DS3505
ZGHA,2008-05-07 12:00,ZGHA 071200Z AUTO 6SM 26/23 A2971 RMK T02600230 IEM_DS3505
ZGHA,2008-05-07 13:00,ZGHA 071300Z AUTO 6SM 25/23 A2971 RMK T02500230 IEM_DS3505
ZGHA,2008-05-07 14:00,ZGHA 071400Z AUTO 6SM 25/23 A2971 RMK T02500230 IEM_DS3505
ZGHA,2008-05-07 15:00,ZGHA 071500Z AUTO 15004KT 6SM 25/23 A2971 RMK T02500230 IEM_DS3505
ZGHA,2008-05-07 16:00,ZGHA 071600Z AUTO 6SM 25/22 A2971 RMK T02500220 IEM_DS3505
ZGHA,2008-05-07 17:00,ZGHA 071700Z AUTO 00000KT 6SM 24/22 A2971 RMK T02400220 IEM_DS3505
ZGHA,2008-05-07 21:00,ZGHA 072100Z AUTO 17004KT 6SM 23/22 A2968 RMK T02300220 IEM_DS3505
ZGHA,2008-05-07 22:00,ZGHA 072200Z AUTO 18004KT 5SM 23/22 A2968 RMK T02300220 IEM_DS3505
ZGHA,2008-05-07 23:00,ZGHA 072300Z AUTO 18006KT 4SM 24/22 A2968 RMK T02400220 IEM_DS3505
ZGHA,2008-05-08 00:00,ZGHA 080000Z AUTO 18006KT 4SM 25/23 A2968 RMK T02500230 IEM_DS3505
ZGHA,2008-05-08 01:00,ZGHA 080100Z AUTO 19006KT 5SM 25/23 A2968 RMK T02500230 IEM_DS3505
ZGHA,2008-05-08 02:00,ZGHA 080200Z AUTO 20004KT 5SM 26/23 A2971 RMK T02600230 IEM_DS3505
ZGHA,2008-05-08 03:00,ZGHA 080300Z AUTO 20006KT 3SM 26/24 A2971 RMK T02600240 IEM_DS3505
ZGHA,2008-05-08 04:00,ZGHA 080400Z AUTO 3SM 27/24 A2968 RMK T02700240 IEM_DS3505
ZGHA,2008-05-08 05:00,ZGHA 080500Z AUTO 3SM 28/24 A2965 RMK T02800240 IEM_DS3505
ZGHA,2008-05-08 06:00,ZGHA 080600Z AUTO 36006KT 2 1/2SM 27/24 A2965 RMK T02700240 IEM_DS3505
ZGHA,2008-05-08 07:00,ZGHA 080700Z AUTO 02006KT 1SM 23/23 A2965 RMK T02300230 IEM_DS3505
ZGHA,2008-05-08 08:00,ZGHA 080800Z AUTO 01010KT 4SM 23/23 A2965 RMK T02300230 IEM_DS3505
ZGHA,2008-05-08 09:00,ZGHA 080900Z AUTO 35006KT 2 1/2SM 23/23 A2965 RMK T02300230 IEM_DS3505
ZGHA,2008-05-08 10:00,ZGHA 081000Z AUTO 33012KT 2 1/2SM 22/21 A2965 RMK T02200210 IEM_DS3505
ZGHA,2008-05-08 11:00,ZGHA 081100Z AUTO 34012KT 1 1/2SM 21/21 A2968 RMK T02100210 IEM_DS3505
ZGHA,2008-05-08 12:00,ZGHA 081200Z AUTO 34014KT 1 1/2SM 21/20 A2971 RMK T02100200 IEM_DS3505
ZGHA,2008-05-08 13:00,ZGHA 081300Z AUTO 34010KT 1 1/4SM 20/19 A2977 RMK T02000190 IEM_DS3505
ZGHA,2008-05-08 14:00,ZGHA 081400Z AUTO 34010KT 1 1/4SM 19/18 A2977 RMK T01900180 IEM_DS3505
ZGHA,2008-05-08 15:00,ZGHA 081500Z AUTO 34012KT 1 1/2SM 19/18 A2980 RMK T01900180 IEM_DS3505
ZGHA,2008-05-08 16:00,ZGHA 081600Z AUTO 33012KT 2SM 18/18 A2980 RMK T01800180 IEM_DS3505
ZGHA,2008-05-08 17:00,ZGHA 081700Z AUTO 33012KT 2SM 18/18 A2980 RMK T01800180 IEM_DS3505
ZGHA,2008-05-08 18:00,ZGHA 081800Z AUTO 32014KT 2 1/2SM 18/17 A2980 RMK T01800170 IEM_DS3505
ZGHA,2008-05-08 19:00,ZGHA 081900Z AUTO 18/17 A2980 RMK T01800170 IEM_DS3505
ZGHA,2008-05-08 20:00,ZGHA 082000Z AUTO 34012KT 2 1/2SM 18/17 A2980 RMK T01800170 IEM_DS3505
ZGHA,2008-05-08 21:00,ZGHA 082100Z AUTO 34014KT 2 1/2SM 17/17 A2980 RMK T01700170 IEM_DS3505
ZGHA,2008-05-08 22:00,ZGHA 082200Z AUTO 34014KT 3SM 17/17 A2983 RMK T01700170 IEM_DS3505
ZGHA,2008-05-08 23:00,ZGHA 082300Z AUTO 34012KT 3SM 18/16 A2985 RMK T01800160 IEM_DS3505
ZGHA,2008-05-09 00:00,ZGHA 090000Z AUTO 34014KT 4SM 17/16 A2988 RMK T01700160 IEM_DS3505
ZGHA,2008-05-09 01:00,ZGHA 090100Z AUTO 34016KT 3SM 17/16 A2988 RMK T01700160 IEM_DS3505
ZGHA,2008-05-09 02:00,ZGHA 090200Z AUTO 34012KT 4SM 17/16 A2991 RMK T01700160 IEM_DS3505
ZGHA,2008-05-09 03:00,ZGHA 090300Z AUTO 34012KT 2 1/2SM 17/16 A2991 RMK T01700160 IEM_DS3505
ZGHA,2008-05-09 04:00,ZGHA 090400Z AUTO 35012KT 2 1/2SM 17/16 A2994 RMK T01700160 IEM_DS3505
ZGHA,2008-05-09 05:00,ZGHA 090500Z AUTO 35010KT 2SM 17/16 A2991 RMK T01700160 IEM_DS3505
ZGHA,2008-05-09 06:00,ZGHA 090600Z AUTO 33010KT 2SM 17/16 A2994 RMK T01700160 IEM_DS3505
ZGHA,2008-05-09 07:00,ZGHA 090700Z AUTO 34010KT 2SM 17/17 A2994 RMK T01700170 IEM_DS3505
ZGHA,2008-05-09 08:00,ZGHA 090800Z AUTO 36008KT 1 1/2SM 17/17 A2991 RMK T01700170 IEM_DS3505
ZGHA,2008-05-09 09:00,ZGHA 090900Z AUTO 34008KT 1 1/2SM 18/17 A2991 RMK T01800170 IEM_DS3505
ZGHA,2008-05-09 10:00,ZGHA 091000Z AUTO 34006KT 1 1/2SM 18/17 A2994 RMK T01800170 IEM_DS3505
ZGHA,2008-05-09 11:00,ZGHA 091100Z AUTO 35004KT 1 1/2SM 18/17 A2994 RMK T01800170 IEM_DS3505
ZGHA,2008-05-09 12:00,ZGHA 091200Z AUTO 35006KT 2SM 18/17 A2997 RMK T01800170 IEM_DS3505
ZGHA,2008-05-09 13:00,ZGHA 091300Z AUTO 1 1/2SM 17/16 A2997 RMK T01700160 IEM_DS3505
ZGHA,2008-05-09 14:00,ZGHA 091400Z AUTO 1 1/2SM 17/16 A3000 RMK T01700160 IEM_DS3505
ZGHA,2008-05-09 15:00,ZGHA 091500Z AUTO 36004KT 1 1/2SM 16/16 A3000 RMK T01600160 IEM_DS3505
ZGHA,2008-05-09 16:00,ZGHA 091600Z AUTO 34004KT 1 1/2SM 15/15 A3000 RMK T01500150 IEM_DS3505
ZGHA,2008-05-09 17:00,ZGHA 091700Z AUTO 09002KT 1SM 15/15 A3000 RMK T01500150 IEM_DS3505
ZGHA,2008-05-09 20:00,ZGHA 092000Z AUTO 00000KT 1/2SM 14/13 A3000 RMK T01400130 IEM_DS3505
ZGHA,2008-05-09 21:00,ZGHA 092100Z AUTO 35002KT 1SM 14/13 A3000 RMK T01400130 IEM_DS3505
ZGHA,2008-05-09 22:00,ZGHA 092200Z AUTO 06002KT 1SM 13/13 A3000 RMK T01300130 IEM_DS3505
ZGHA,2008-05-09 23:00,ZGHA 092300Z AUTO 36004KT 1SM 15/15 A3003 RMK T01500150 IEM_DS3505
ZGHA,2008-05-10 00:00,ZGHA 100000Z AUTO 35006KT 1SM 16/15 A3006 RMK T01600150 IEM_DS3505
ZGHA,2008-05-10 01:00,ZGHA 100100Z AUTO 35008KT 2 1/2SM 19/18 A3006 RMK T01900180 IEM_DS3505
ZGHA,2008-05-10 02:00,ZGHA 100200Z AUTO 36008KT 4SM 21/17 A3006 RMK T02100170 IEM_DS3505
ZGHA,2008-05-10 03:00,ZGHA 100300Z AUTO 01008KT 5SM 23/17 A3006 RMK T02300170 IEM_DS3505
ZGHA,2008-05-10 04:00,ZGHA 100400Z AUTO 36008KT 7SM 25/16 A3006 RMK T02500160 IEM_DS3505
ZGHA,2008-05-10 05:00,ZGHA 100500Z AUTO 36008KT 7SM 26/16 A3003 RMK T02600160 IEM_DS3505
ZGHA,2008-05-10 06:00,ZGHA 100600Z AUTO 34010KT 7SM 28/18 A3000 RMK T02800180 IEM_DS3505
ZGHA,2008-05-10 07:00,ZGHA 100700Z AUTO 34010KT 6SM 27/16 A3000 RMK T02700160 IEM_DS3505
ZGHA,2008-05-10 08:00,ZGHA 100800Z AUTO 33012KT 6SM 27/16 A2997 RMK T02700160 IEM_DS3505
ZGHA,2008-05-10 09:00,ZGHA 100900Z AUTO 33012KT 6SM 26/15 A2997 RMK T02600150 IEM_DS3505
ZGHA,2008-05-10 10:00,ZGHA 101000Z AUTO 34008KT 6SM 25/15 A2997 RMK T02500150 IEM_DS3505
ZGHA,2008-05-10 11:00,ZGHA 101100Z AUTO 32008KT 6SM 23/17 A2997 RMK T02300170 IEM_DS3505
ZGHA,2008-05-10 12:00,ZGHA 101200Z AUTO 32006KT 6SM 22/17 A2997 RMK T02200170 IEM_DS3505
ZGHA,2008-05-10 13:00,ZGHA 101300Z AUTO 36004KT 6SM 21/17 A2997 RMK T02100170 IEM_DS3505
ZGHA,2008-05-10 14:00,ZGHA 101400Z AUTO 36004KT 5SM 21/16 A3000 RMK T02100160 IEM_DS3505
ZGHA,2008-05-10 15:00,ZGHA 101500Z AUTO 4SM 19/16 A3000 RMK T01900160 IEM_DS3505
ZGHA,2008-05-10 16:00,ZGHA 101600Z AUTO 36002KT 4SM 18/16 A2997 RMK T01800160 IEM_DS3505
ZGHA,2008-05-10 17:00,ZGHA 101700Z AUTO 36004KT 3SM 18/15 A2997 RMK T01800150 IEM_DS3505
ZGHA,2008-05-10 21:00,ZGHA 102100Z AUTO 00000KT 2SM 16/15 A2997 RMK T01600150 IEM_DS3505
ZGHA,2008-05-10 22:00,ZGHA 102200Z AUTO 34002KT 3SM 16/15 A2997 RMK T01600150 IEM_DS3505
ZGHA,2008-05-10 23:00,ZGHA 102300Z AUTO 00000KT 3SM 17/16 A2997 RMK T01700160 IEM_DS3505
ZGHA,2008-05-11 00:00,ZGHA 110000Z AUTO 02004KT 4SM 20/18 A2997 RMK T02000180 IEM_DS3505
ZGHA,2008-05-11 01:00,ZGHA 110100Z AUTO 5SM 22/16 A2997 RMK T02200160 IEM_DS3505
ZGHA,2008-05-11 02:00,ZGHA 110200Z AUTO 09004KT 6SM 25/16 A2997 RMK T02500160 IEM_DS3505
ZGHA,2008-05-11 03:00,ZGHA 110300Z AUTO 32004KT 6SM 26/14 A2997 RMK T02600140 IEM_DS3505
ZGHA,2008-05-11 04:00,ZGHA 110400Z AUTO 6SM 27/13 A2994 RMK T02700130 IEM_DS3505
ZGHA,2008-05-11 05:00,ZGHA 110500Z AUTO 36006KT 6SM 28/12 A2991 RMK T02800120 IEM_DS3505
ZGHA,2008-05-11 06:00,ZGHA 110600Z AUTO 6SM 29/12 A2991 RMK T02900120 IEM_DS3505
ZGHA,2008-05-11 07:00,ZGHA 110700Z AUTO 11004KT 6SM 29/13 A2988 RMK T02900130 IEM_DS3505
ZGHA,2008-05-11 08:00,ZGHA 110800Z AUTO 34004KT 6SM 30/13 A2985 RMK T03000130 IEM_DS3505
ZGHA,2008-05-11 09:00,ZGHA 110900Z AUTO 34004KT 6SM 29/13 A2985 RMK T02900130 IEM_DS3505
ZGHA,2008-05-11 10:00,ZGHA 111000Z AUTO 32004KT 6SM 28/14 A2985 RMK T02800140 IEM_DS3505
ZGHA,2008-05-11 11:00,ZGHA 111100Z AUTO 6SM 26/15 A2985 RMK T02600150 IEM_DS3505
ZGHA,2008-05-11 12:00,ZGHA 111200Z AUTO 00000KT 6SM 23/19 A2988 RMK T02300190 IEM_DS3505
ZGHA,2008-05-11 13:00,ZGHA 111300Z AUTO 00000KT 4SM 21/19 A2988 RMK T02100190 IEM_DS3505
ZGHA,2008-05-11 14:00,ZGHA 111400Z AUTO 09002KT 4SM 20/18 A2991 RMK T02000180 IEM_DS3505
ZGHA,2008-05-11 15:00,ZGHA 111500Z AUTO 00000KT 4SM 19/18 A2991 RMK T01900180 IEM_DS3505
ZGHA,2008-05-11 16:00,ZGHA 111600Z AUTO 00000KT 4SM 18/17 A2991 RMK T01800170 IEM_DS3505
ZGHA,2008-05-11 18:00,ZGHA 111800Z AUTO 00000KT 1 1/2SM 17/17 A2988 RMK T01700170 IEM_DS3505
ZGHA,2008-05-11 19:00,ZGHA 111900Z AUTO 00000KT 1SM 17/17 A2988 RMK T01700170 IEM_DS3505
ZGHA,2008-05-11 21:00,ZGHA 112100Z AUTO 08002KT 4SM 17/16 A2991 RMK T01700160 IEM_DS3505
ZGHA,2008-05-11 22:00,ZGHA 112200Z AUTO 00000KT 4SM 16/16 A2994 RMK T01600160 IEM_DS3505
ZGHA,2008-05-11 23:00,ZGHA 112300Z AUTO 00000KT 4SM 18/17 A2994 RMK T01800170 IEM_DS3505
ZGHA,2008-05-12 00:00,ZGHA 120000Z AUTO 08004KT 5SM 21/19 A2997 RMK T02100190 IEM_DS3505
ZGHA,2008-05-12 01:00,ZGHA 120100Z AUTO 31004KT 6SM 24/18 A3000 RMK T02400180 IEM_DS3505
ZGHA,2008-05-12 02:00,ZGHA 120200Z AUTO 35010KT 6SM 27/18 A3000 RMK T02700180 IEM_DS3505
ZGHA,2008-05-12 03:00,ZGHA 120300Z AUTO 04006KT 6SM 28/17 A3000 RMK T02800170 IEM_DS3505
ZGHA,2008-05-12 04:00,ZGHA 120400Z AUTO 36008KT 6SM 30/18 A2997 RMK T03000180 IEM_DS3505
ZGHA,2008-05-12 05:00,ZGHA 120500Z AUTO 02008KT 6SM 30/18 A2997 RMK T03000180 IEM_DS3505
ZGHA,2008-05-12 06:00,ZGHA 120600Z AUTO 36012KT 6SM 30/16 A2994 RMK T03000160 IEM_DS3505
ZGHA,2008-05-12 07:00,ZGHA 120700Z AUTO 36010KT 6SM 30/14 A2994 RMK T03000140 IEM_DS3505
ZGHA,2008-05-12 08:00,ZGHA 120800Z AUTO 01008KT 6SM 30/13 A2994 RMK T03000130 IEM_DS3505
ZGHA,2008-05-12 09:00,ZGHA 120900Z AUTO 35012KT 6SM 28/13 A2994 RMK T02800130 IEM_DS3505
ZGHA,2008-05-12 10:00,ZGHA 121000Z AUTO 36008KT 6SM 27/11 A2994 RMK T02700110 IEM_DS3505
ZGHA,2008-05-12 11:00,ZGHA 121100Z AUTO 36008KT 6SM 24/13 A2997 RMK T02400130 IEM_DS3505
ZGHA,2008-05-12 12:00,ZGHA 121200Z AUTO 36008KT 6SM 23/13 A3000 RMK T02300130 IEM_DS3505
ZGHA,2008-05-12 13:00,ZGHA 121300Z AUTO 36006KT 6SM 22/13 A3000 RMK T02200130 IEM_DS3505
ZGHA,2008-05-12 14:00,ZGHA 121400Z AUTO 36006KT 6SM 21/11 A3003 RMK T02100110 IEM_DS3505
ZGHA,2008-05-12 15:00,ZGHA 121500Z AUTO 02004KT 6SM 20/11 A3003 RMK T02000110 IEM_DS3505
ZGHA,2008-05-12 16:00,ZGHA 121600Z AUTO 01004KT 6SM 19/11 A3006 RMK T01900110 IEM_DS3505
ZGHA,2008-05-12 17:00,ZGHA 121700Z AUTO 36006KT 6SM 18/10 A3006 RMK T01800100 IEM_DS3505
ZGHA,2008-05-12 18:00,ZGHA 121800Z AUTO 6SM 17/11 A3006 RMK T01700110 IEM_DS3505
ZGHA,2008-05-12 19:00,ZGHA 121900Z AUTO 6SM 17/10 A3006 RMK T01700100 IEM_DS3505
ZGHA,2008-05-12 20:00,ZGHA 122000Z AUTO 00000KT 6SM 16/12 A3006 RMK T01600120 IEM_DS3505
ZGHA,2008-05-12 21:00,ZGHA 122100Z AUTO 00000KT 6SM 17/12 A3006 RMK T01700120 IEM_DS3505
ZGHA,2008-05-12 22:00,ZGHA 122200Z AUTO 6SM 17/11 A3009 RMK T01700110 IEM_DS3505
ZGHA,2008-05-12 23:00,ZGHA 122300Z AUTO 01002KT 6SM 18/11 A3009 RMK T01800110 IEM_DS3505
ZGHA,2008-05-13 00:00,ZGHA 130000Z AUTO 02004KT 6SM 20/12 A3012 RMK T02000120 IEM_DS3505
ZGHA,2008-05-13 01:00,ZGHA 130100Z AUTO 04004KT 6SM 22/13 A3012 RMK T02200130 IEM_DS3505
ZGHA,2008-05-13 02:00,ZGHA 130200Z AUTO 05004KT 6SM 25/09 A3012 RMK T02500090 IEM_DS3505
ZGHA,2008-05-13 03:00,ZGHA 130300Z AUTO 6SM 26/08 A3012 RMK T02600080 IEM_DS3505
ZGHA,2008-05-13 04:00,ZGHA 130400Z AUTO 06004KT 6SM 27/06 A3012 RMK T02700060 IEM_DS3505
ZGHA,2008-05-13 05:00,ZGHA 130500Z AUTO 08004KT 6SM 28/08 A3009 RMK T02800080 IEM_DS3505
ZGHA,2008-05-13 06:00,ZGHA 130600Z AUTO 08006KT 6SM 29/07 A3006 RMK T02900070 IEM_DS3505
ZGHA,2008-05-13 07:00,ZGHA 130700Z AUTO 36004KT 6SM 30/06 A3003 RMK T03000060 IEM_DS3505
ZGHA,2008-05-13 08:00,ZGHA 130800Z AUTO 6SM 29/08 A3000 RMK T02900080 IEM_DS3505
ZGHA,2008-05-13 09:00,ZGHA 130900Z AUTO 01004KT 6SM 29/07 A3000 RMK T02900070 IEM_DS3505
ZGHA,2008-05-13 10:00,ZGHA 131000Z AUTO 35006KT 6SM 27/08 A3000 RMK T02700080 IEM_DS3505
ZGHA,2008-05-13 11:00,ZGHA 131100Z AUTO 33004KT 6SM 24/09 A3000 RMK T02400090 IEM_DS3505
ZGHA,2008-05-13 12:00,ZGHA 131200Z AUTO 36004KT 6SM 23/10 A3003 RMK T02300100 IEM_DS3505
ZGHA,2008-05-13 13:00,ZGHA 131300Z AUTO 36002KT 6SM 20/11 A3003 RMK T02000110 IEM_DS3505
ZGHA,2008-05-13 14:00,ZGHA 131400Z AUTO 00000KT 6SM 19/13 A3006 RMK T01900130 IEM_DS3505
ZGHA,2008-05-13 15:00,ZGHA 131500Z AUTO 02002KT 6SM 17/14 A3006 RMK T01700140 IEM_DS3505
ZGHA,2008-05-13 16:00,ZGHA 131600Z AUTO 6SM 16/14 A3006 RMK T01600140 IEM_DS3505
ZGHA,2008-05-13 17:00,ZGHA 131700Z AUTO 4SM 16/14 A3003 RMK T01600140 IEM_DS3505
ZGHA,2008-05-13 18:00,ZGHA 131800Z AUTO 4SM 16/14 A3003 RMK T01600140 IEM_DS3505
ZGHA,2008-05-13 19:00,ZGHA 131900Z AUTO 6SM 17/13 A3003 RMK T01700130 IEM_DS3505
ZGHA,2008-05-13 20:00,ZGHA 132000Z AUTO 6SM 15/12 A3003 RMK T01500120 IEM_DS3505
ZGHA,2008-05-13 21:00,ZGHA 132100Z AUTO 00000KT 6SM 15/11 A3003 RMK T01500110 IEM_DS3505
ZGHA,2008-05-13 22:00,ZGHA 132200Z AUTO 00000KT 6SM 14/11 A3003 RMK T01400110 IEM_DS3505
ZGHA,2008-05-13 23:00,ZGHA 132300Z AUTO 00000KT 6SM 16/13 A3006 RMK T01600130 IEM_DS3505
ZGHA,2008-05-14 00:00,ZGHA 140000Z AUTO 00000KT 6SM 19/12 A3006 RMK T01900120 IEM_DS3505
ZGHA,2008-05-14 01:00,ZGHA 140100Z AUTO 00000KT 6SM 21/13 A3006 RMK T02100130 IEM_DS3505
ZGHA,2008-05-14 02:00,ZGHA 140200Z AUTO 30004KT 6SM 24/11 A3006 RMK T02400110 IEM_DS3505
ZGHA,2008-05-14 03:00,ZGHA 140300Z AUTO 00000KT 6SM 25/11 A3006 RMK T02500110 IEM_DS3505
ZGHA,2008-05-14 04:00,ZGHA 140400Z AUTO 00000KT 6SM 28/12 A3003 RMK T02800120 IEM_DS3505
ZGHA,2008-05-14 05:00,ZGHA 140500Z AUTO 6SM 29/11 A3000 RMK T02900110 IEM_DS3505
ZGHA,2008-05-14 06:00,ZGHA 140600Z AUTO 33004KT 6SM 28/10 A2997 RMK T02800100 IEM_DS3505
ZGHA,2008-05-14 07:00,ZGHA 140700Z AUTO 33006KT 6SM 30/10 A2994 RMK T03000100 IEM_DS3505
ZGHA,2008-05-14 08:00,ZGHA 140800Z AUTO 32006KT 6SM 27/10 A2994 RMK T02700100 IEM_DS3505
ZGHA,2008-05-14 09:00,ZGHA 140900Z AUTO 35004KT 6SM 26/10 A2991 RMK T02600100 IEM_DS3505
ZGHA,2008-05-14 10:00,ZGHA 141000Z AUTO 34004KT 6SM 25/14 A2991 RMK T02500140 IEM_DS3505
ZGHA,2008-05-14 11:00,ZGHA 141100Z AUTO 33004KT 6SM 24/16 A2991 RMK T02400160 IEM_DS3505
ZGHA,2008-05-14 12:00,ZGHA 141200Z AUTO 32004KT 6SM 23/16 A2994 RMK T02300160 IEM_DS3505
ZGHA,2008-05-14 13:00,ZGHA 141300Z AUTO 30006KT 6SM 23/16 A2994 RMK T02300160 IEM_DS3505
ZGHA,2008-05-14 14:00,ZGHA 141400Z AUTO 00000KT 6SM 22/17 A2994 RMK T02200170 IEM_DS3505
ZGHA,2008-05-14 15:00,ZGHA 141500Z AUTO 09002KT 5SM 21/17 A2997 RMK T02100170 IEM_DS3505
ZGHA,2008-05-14 16:00,ZGHA 141600Z AUTO 00000KT 4SM 20/18 A2994 RMK T02000180 IEM_DS3505
ZGHA,2008-05-14 17:00,ZGHA 141700Z AUTO 35002KT 3SM 20/17 A2994 RMK T02000170 IEM_DS3505
ZGHA,2008-05-14 18:00,ZGHA 141800Z AUTO 00000KT 2 1/2SM 20/17 A2994 RMK T02000170 IEM_DS3505
ZGHA,2008-05-14 21:00,ZGHA 142100Z AUTO 00000KT 3SM 19/17 A2994 RMK T01900170 IEM_DS3505
ZGHA,2008-05-14 22:00,ZGHA 142200Z AUTO 00000KT 3SM 19/18 A2994 RMK T01900180 IEM_DS3505
ZGHA,2008-05-14 23:00,ZGHA 142300Z AUTO 00000KT 2 1/2SM 19/18 A2997 RMK T01900180 IEM_DS3505
ZGHA,2008-05-15 00:00,ZGHA 150000Z AUTO 00000KT 3SM 20/18 A3000 RMK T02000180 IEM_DS3505
ZGHA,2008-05-15 01:00,ZGHA 150100Z AUTO 00000KT 2 1/2SM 20/18 A3000 RMK T02000180 IEM_DS3505
ZGHA,2008-05-15 02:00,ZGHA 150200Z AUTO 2 1/2SM 22/19 A2997 RMK T02200190 IEM_DS3505
ZGHA,2008-05-15 03:00,ZGHA 150300Z AUTO 20006KT 3SM 23/18 A2997 RMK T02300180 IEM_DS3505
ZGHA,2008-05-15 04:00,ZGHA 150400Z AUTO 3SM 26/17 A2997 RMK T02600170 IEM_DS3505
ZGHA,2008-05-15 05:00,ZGHA 150500Z AUTO 3SM 27/19 A2994 RMK T02700190 IEM_DS3505
ZGHA,2008-05-15 06:00,ZGHA 150600Z AUTO 00000KT 2 1/2SM 27/18 A2994 RMK T02700180 IEM_DS3505
ZGHA,2008-05-15 07:00,ZGHA 150700Z AUTO 21004KT 3SM 28/19 A2988 RMK T02800190 IEM_DS3505
ZGHA,2008-05-15 08:00,ZGHA 150800Z AUTO 21006KT 4SM 28/19 A2988 RMK T02800190 IEM_DS3505
ZGHA,2008-05-15 09:00,ZGHA 150900Z AUTO 22006KT 4SM 27/19 A2985 RMK T02700190 IEM_DS3505
ZGHA,2008-05-15 10:00,ZGHA 151000Z AUTO 23010KT 4SM 25/19 A2985 RMK T02500190 IEM_DS3505
ZGHA,2008-05-15 11:00,ZGHA 151100Z AUTO 22006KT 5SM 23/18 A2988 RMK T02300180 IEM_DS3505
ZGHA,2008-05-15 12:00,ZGHA 151200Z AUTO 22004KT 4SM 22/18 A2988 RMK T02200180 IEM_DS3505
ZGHA,2008-05-15 13:00,ZGHA 151300Z AUTO 20004KT 4SM 21/18 A2988 RMK T02100180 IEM_DS3505
ZGHA,2008-05-15 14:00,ZGHA 151400Z AUTO 3SM 20/18 A2991 RMK T02000180 IEM_DS3505
ZGHA,2008-05-15 15:00,ZGHA 151500Z AUTO 18004KT 3SM 19/18 A2991 RMK T01900180 IEM_DS3505
ZGHA,2008-05-15 16:00,ZGHA 151600Z AUTO 18004KT 3SM 19/18 A2991 RMK T01900180 IEM_DS3505
ZGHA,2008-05-15 17:00,ZGHA 151700Z AUTO 3SM 18/17 A2988 RMK T01800170 IEM_DS3505
ZGHA,2008-05-15 18:00,ZGHA 151800Z AUTO 00000KT 2 1/2SM 18/17 A2988 RMK T01800170 IEM_DS3505
ZGHA,2008-05-15 21:00,ZGHA 152100Z AUTO 00000KT 1SM 17/16 A2988 RMK T01700160 IEM_DS3505
ZGHA,2008-05-15 22:00,ZGHA 152200Z AUTO 00000KT 1SM 17/16 A2988 RMK T01700160 IEM_DS3505
ZGHA,2008-05-15 23:00,ZGHA 152300Z AUTO 00000KT 1SM 17/17 A2991 RMK T01700170 IEM_DS3505
ZGHA,2008-05-16 00:00,ZGHA 160000Z AUTO 1 1/4SM 20/19 A2991 RMK T02000190 IEM_DS3505
ZGHA,2008-05-16 01:00,ZGHA 160100Z AUTO 21004KT 1 1/2SM 23/19 A2991 RMK T02300190 IEM_DS3505
ZGHA,2008-05-16 02:00,ZGHA 160200Z AUTO 21008KT 4SM 26/19 A2991 RMK T02600190 IEM_DS3505
ZGHA,2008-05-16 03:00,ZGHA 160300Z AUTO 22006KT 4SM 28/19 A2988 RMK T02800190 IEM_DS3505
ZGHA,2008-05-16 04:00,ZGHA 160400Z AUTO 20008KT 4SM 30/19 A2985 RMK T03000190 IEM_DS3505
ZGHA,2008-05-16 05:00,ZGHA 160500Z AUTO 19008KT 4SM 30/19 A2983 RMK T03000190 IEM_DS3505
ZGHA,2008-05-16 06:00,ZGHA 160600Z AUTO 18004KT 5SM 31/19 A2980 RMK T03100190 IEM_DS3505
ZGHA,2008-05-16 07:00,ZGHA 160700Z AUTO 23006KT 6SM 31/19 A2980 RMK T03100190 IEM_DS3505
ZGHA,2008-05-16 08:00,ZGHA 160800Z AUTO 25004KT 6SM 31/19 A2977 RMK T03100190 IEM_DS3505
ZGHA,2008-05-16 09:00,ZGHA 160900Z AUTO 25004KT 6SM 30/19 A2974 RMK T03000190 IEM_DS3505
ZGHA,2008-05-16 10:00,ZGHA 161000Z AUTO 7SM 29/20 A2974 RMK T02900200 IEM_DS3505
ZGHA,2008-05-16 11:00,ZGHA 161100Z AUTO 00000KT 4SM 28/21 A2974 RMK T02800210 IEM_DS3505
ZGHA,2008-05-16 12:00,ZGHA 161200Z AUTO 4SM 26/21 A2977 RMK T02600210 IEM_DS3505
ZGHA,2008-05-16 13:00,ZGHA 161300Z AUTO 00000KT 3SM 26/21 A2977 RMK T02600210 IEM_DS3505
ZGHA,2008-05-16 14:00,ZGHA 161400Z AUTO 2 1/2SM 25/21 A2980 RMK T02500210 IEM_DS3505
ZGHA,2008-05-16 15:00,ZGHA 161500Z AUTO 2SM 24/21 A2980 RMK T02400210 IEM_DS3505
ZGHA,2008-05-16 16:00,ZGHA 161600Z AUTO 17004KT 2SM 23/20 A2980 RMK T02300200 IEM_DS3505
ZGHA,2008-05-16 17:00,ZGHA 161700Z AUTO 2SM 23/20 A2977 RMK T02300200 IEM_DS3505
ZGHA,2008-05-16 19:00,ZGHA 161900Z AUTO 00000KT 2 1/2SM 23/19 A2977 RMK T02300190 IEM_DS3505
ZGHA,2008-05-16 21:00,ZGHA 162100Z AUTO 2 1/2SM 21/19 A2974 RMK T02100190 IEM_DS3505
ZGHA,2008-05-16 22:00,ZGHA 162200Z AUTO 2 1/2SM 21/19 A2977 RMK T02100190 IEM_DS3505
ZGHA,2008-05-16 23:00,ZGHA 162300Z AUTO 3SM 23/20 A2977 RMK T02300200 IEM_DS3505
ZGHA,2008-05-17 00:00,ZGHA 170000Z AUTO 3SM 24/20 A2977 RMK T02400200 IEM_DS3505
ZGHA,2008-05-17 01:00,ZGHA 170100Z AUTO 18006KT 4SM 26/20 A2977 RMK T02600200 IEM_DS3505
ZGHA,2008-05-17 02:00,ZGHA 170200Z AUTO 16004KT 5SM 27/21 A2977 RMK T02700210 IEM_DS3505
ZGHA,2008-05-17 03:00,ZGHA 170300Z AUTO 5SM 28/21 A2977 RMK T02800210 IEM_DS3505
ZGHA,2008-05-17 04:00,ZGHA 170400Z AUTO 20008KT 5SM 31/21 A2974 RMK T03100210 IEM_DS3505
ZGHA,2008-05-17 05:00,ZGHA 170500Z AUTO 18008KT 5SM 31/21 A2974 RMK T03100210 IEM_DS3505
ZGHA,2008-05-17 06:00,ZGHA 170600Z AUTO 18008KT 5SM 32/21 A2971 RMK T03200210 IEM_DS3505
ZGHA,2008-05-17 07:00,ZGHA 170700Z AUTO 20008KT 5SM 31/21 A2968 RMK T03100210 IEM_DS3505
ZGHA,2008-05-17 08:00,ZGHA 170800Z AUTO 18008KT 5SM 32/21 A2965 RMK T03200210 IEM_DS3505
ZGHA,2008-05-17 09:00,ZGHA 170900Z AUTO 19008KT 5SM 31/21 A2965 RMK T03100210 IEM_DS3505
ZGHA,2008-05-17 10:00,ZGHA 171000Z AUTO 19010KT 5SM 30/21 A2965 RMK T03000210 IEM_DS3505
ZGHA,2008-05-17 11:00,ZGHA 171100Z AUTO 19008KT 4SM 28/21 A2965 RMK T02800210 IEM_DS3505
ZGHA,2008-05-17 12:00,ZGHA 171200Z AUTO 18008KT 3SM 26/21 A2965 RMK T02600210 IEM_DS3505
ZGHA,2008-05-17 13:00,ZGHA 171300Z AUTO 3SM 26/21 A2968 RMK T02600210 IEM_DS3505
ZGHA,2008-05-17 14:00,ZGHA 171400Z AUTO 16004KT 3SM 25/21 A2968 RMK T02500210 IEM_DS3505
ZGHA,2008-05-17 15:00,ZGHA 171500Z AUTO 2 1/2SM 24/21 A2971 RMK T02400210 IEM_DS3505
ZGHA,2008-05-17 16:00,ZGHA 171600Z AUTO 2 1/2SM 23/20 A2971 RMK T02300200 IEM_DS3505
ZGHA,2008-05-17 17:00,ZGHA 171700Z AUTO 2 1/2SM 22/20 A2968 RMK T02200200 IEM_DS3505
ZGHA,2008-05-17 19:00,ZGHA 171900Z AUTO 2 1/2SM 23/20 A2968 RMK T02300200 IEM_DS3505
ZGHA,2008-05-17 20:00,ZGHA 172000Z AUTO 2SM 23/20 A2968 RMK T02300200 IEM_DS3505
ZGHA,2008-05-17 21:00,ZGHA 172100Z AUTO 2SM 22/20 A2965 RMK T02200200 IEM_DS3505
ZGHA,2008-05-17 22:00,ZGHA 172200Z AUTO 00000KT 3SM 22/20 A2968 RMK T02200200 IEM_DS3505
ZGHA,2008-05-17 23:00,ZGHA 172300Z AUTO 00000KT 2 1/2SM 23/21 A2971 RMK T02300210 IEM_DS3505
ZGHA,2008-05-18 00:00,ZGHA 180000Z AUTO 00000KT 2 1/2SM 24/21 A2971 RMK T02400210 IEM_DS3505
ZGHA,2008-05-18 01:00,ZGHA 180100Z AUTO 2 1/2SM 26/22 A2971 RMK T02600220 IEM_DS3505
ZGHA,2008-05-18 02:00,ZGHA 180200Z AUTO 17004KT 2 1/2SM 24/21 A2974 RMK T02400210 IEM_DS3505
ZGHA,2008-05-18 03:00,ZGHA 180300Z AUTO 20006KT 1SM 22/21 A2977 RMK T02200210 IEM_DS3505
ZGHA,2008-05-18 04:00,ZGHA 180400Z AUTO 20008KT 1SM 22/21 A2977 RMK T02200210 IEM_DS3505
ZGHA,2008-05-18 05:00,ZGHA 180500Z AUTO 1SM 22/22 A2974 RMK T02200220 IEM_DS3505
ZGHA,2008-05-18 06:00,ZGHA 180600Z AUTO 21004KT 1 1/4SM 22/22 A2974 RMK T02200220 IEM_DS3505
ZGHA,2008-05-18 07:00,ZGHA 180700Z AUTO 19004KT 1 1/4SM 22/22 A2977 RMK T02200220 IEM_DS3505
ZGHA,2008-05-18 08:00,ZGHA 180800Z AUTO 20004KT 1SM 22/22 A2974 RMK T02200220 IEM_DS3505
ZGHA,2008-05-18 09:00,ZGHA 180900Z AUTO 22004KT 1SM 22/22 A2974 RMK T02200220 IEM_DS3505
ZGHA,2008-05-18 10:00,ZGHA 181000Z AUTO 01006KT 1SM 22/22 A2977 RMK T02200220 IEM_DS3505
ZGHA,2008-05-18 11:00,ZGHA 181100Z AUTO 34006KT 2 1/2SM 22/22 A2980 RMK T02200220 IEM_DS3505
ZGHA,2008-05-18 12:00,ZGHA 181200Z AUTO 35004KT 3SM 22/21 A2983 RMK T02200210 IEM_DS3505
ZGHA,2008-05-18 13:00,ZGHA 181300Z AUTO 3SM 21/20 A2985 RMK T02100200 IEM_DS3505
ZGHA,2008-05-18 14:00,ZGHA 181400Z AUTO 35006KT 3SM 21/20 A2988 RMK T02100200 IEM_DS3505
ZGHA,2008-05-18 15:00,ZGHA 181500Z AUTO 36006KT 3SM 21/20 A2988 RMK T02100200 IEM_DS3505
ZGHA,2008-05-18 16:00,ZGHA 181600Z AUTO 36004KT 3SM 20/19 A2991 RMK T02000190 IEM_DS3505
ZGHA,2008-05-18 17:00,ZGHA 181700Z AUTO 36004KT 2 1/2SM 20/19 A2991 RMK T02000190 IEM_DS3505
ZGHA,2008-05-18 18:00,ZGHA 181800Z AUTO 02004KT 2 1/2SM 20/19 A2991 RMK T02000190 IEM_DS3505
ZGHA,2008-05-18 19:00,ZGHA 181900Z AUTO 2 1/2SM 20/19 A2988 RMK T02000190 IEM_DS3505
ZGHA,2008-05-18 21:00,ZGHA 182100Z AUTO 2SM 19/18 A2991 RMK T01900180 IEM_DS3505
ZGHA,2008-05-18 22:00,ZGHA 182200Z AUTO 1 1/4SM 18/18 A2994 RMK T01800180 IEM_DS3505
ZGHA,2008-05-18 23:00,ZGHA 182300Z AUTO 35006KT 1 1/4SM 20/19 A2994 RMK T02000190 IEM_DS3505
ZGHA,2008-05-19 00:00,ZGHA 190000Z AUTO 01004KT 2SM 22/20 A2997 RMK T02200200 IEM_DS3505
ZGHA,2008-05-19 01:00,ZGHA 190100Z AUTO 01004KT 3SM 24/19 A2997 RMK T02400190 IEM_DS3505
ZGHA,2008-05-19 02:00,ZGHA 190200Z AUTO 01004KT 3SM 26/20 A2997 RMK T02600200 IEM_DS3505
ZGHA,2008-05-19 03:00,ZGHA 190300Z AUTO 30004KT 4SM 27/19 A2997 RMK T02700190 IEM_DS3505
ZGHA,2008-05-19 04:00,ZGHA 190400Z AUTO 36008KT 5SM 28/17 A2994 RMK T02800170 IEM_DS3505
ZGHA,2008-05-19 05:00,ZGHA 190500Z AUTO 6SM 29/16 A2994 RMK T02900160 IEM_DS3505
ZGHA,2008-05-19 06:00,ZGHA 190600Z AUTO 11004KT 6SM 30/15 A2991 RMK T03000150 IEM_DS3505
ZGHA,2008-05-19 07:00,ZGHA 190700Z AUTO 6SM 31/13 A2988 RMK T03100130 IEM_DS3505
ZGHA,2008-05-19 08:00,ZGHA 190800Z AUTO 36008KT 6SM 32/16 A2985 RMK T03200160 IEM_DS3505
ZGHA,2008-05-19 09:00,ZGHA 190900Z AUTO 33010KT 6SM 30/14 A2985 RMK T03000140 IEM_DS3505
ZGHA,2008-05-19 10:00,ZGHA 191000Z AUTO 34008KT 6SM 29/11 A2985 RMK T02900110 IEM_DS3505
ZGHA,2008-05-19 11:00,ZGHA 191100Z AUTO 32006KT 6SM 26/14 A2985 RMK T02600140 IEM_DS3505
ZGHA,2008-05-19 12:00,ZGHA 191200Z AUTO 32004KT 6SM 24/16 A2988 RMK T02400160 IEM_DS3505
ZGHA,2008-05-19 13:00,ZGHA 191300Z AUTO 6SM 23/17 A2988 RMK T02300170 IEM_DS3505
ZGHA,2008-05-19 14:00,ZGHA 191400Z AUTO 6SM 21/17 A2991 RMK T02100170 IEM_DS3505
ZGHA,2008-05-19 15:00,ZGHA 191500Z AUTO 12002KT 6SM 20/17 A2991 RMK T02000170 IEM_DS3505
ZGHA,2008-05-19 16:00,ZGHA 191600Z AUTO 11002KT 6SM 19/17 A2991 RMK T01900170 IEM_DS3505
ZGHA,2008-05-19 18:00,ZGHA 191800Z AUTO 00000KT 2 1/2SM 17/16 A2988 RMK T01700160 IEM_DS3505
ZGHA,2008-05-19 21:00,ZGHA 192100Z AUTO 00000KT 4SM 16/15 A2988 RMK T01600150 IEM_DS3505
ZGHA,2008-05-19 22:00,ZGHA 192200Z AUTO 3SM 15/14 A2991 RMK T01500140 IEM_DS3505
ZGHA,2008-05-19 23:00,ZGHA 192300Z AUTO 4SM 18/17 A2991 RMK T01800170 IEM_DS3505
ZGHA,2008-05-20 00:00,ZGHA 200000Z AUTO 00000KT 5SM 20/17 A2991 RMK T02000170 IEM_DS3505
ZGHA,2008-05-20 01:00,ZGHA 200100Z AUTO 6SM 24/16 A2991 RMK T02400160 IEM_DS3505
ZGHA,2008-05-20 02:00,ZGHA 200200Z AUTO 18006KT 6SM 27/15 A2991 RMK T02700150 IEM_DS3505
ZGHA,2008-05-20 03:00,ZGHA 200300Z AUTO 15006KT 6SM 29/12 A2991 RMK T02900120 IEM_DS3505
ZGHA,2008-05-20 04:00,ZGHA 200400Z AUTO 20006KT 6SM 30/10 A2988 RMK T03000100 IEM_DS3505
ZGHA,2008-05-20 05:00,ZGHA 200500Z AUTO 22006KT 6SM 30/13 A2985 RMK T03000130 IEM_DS3505
ZGHA,2008-05-20 06:00,ZGHA 200600Z AUTO 22006KT 6SM 31/10 A2980 RMK T03100100 IEM_DS3505
ZGHA,2008-05-20 07:00,ZGHA 200700Z AUTO 19008KT 6SM 32/10 A2980 RMK T03200100 IEM_DS3505
ZGHA,2008-05-20 08:00,ZGHA 200800Z AUTO 24006KT 6SM 31/10 A2977 RMK T03100100 IEM_DS3505
ZGHA,2008-05-20 09:00,ZGHA 200900Z AUTO 23006KT 6SM 31/08 A2974 RMK T03100080 IEM_DS3505
ZGHA,2008-05-20 10:00,ZGHA 201000Z AUTO 23004KT 6SM 30/12 A2974 RMK T03000120 IEM_DS3505
ZGHA,2008-05-20 11:00,ZGHA 201100Z AUTO 22004KT 6SM 26/15 A2974 RMK T02600150 IEM_DS3505
ZGHA,2008-05-20 12:00,ZGHA 201200Z AUTO 4SM 22/16 A2974 RMK T02200160 IEM_DS3505
ZGHA,2008-05-20 14:00,ZGHA 201400Z AUTO 10002KT 3SM 21/18 A2977 RMK T02100180 IEM_DS3505
ZGHA,2008-05-20 15:00,ZGHA 201500Z AUTO 09002KT 3SM 21/17 A2980 RMK T02100170 IEM_DS3505
ZGHA,2008-05-20 16:00,ZGHA 201600Z AUTO 00000KT 4SM 21/17 A2980 RMK T02100170 IEM_DS3505
ZGHA,2008-05-20 17:00,ZGHA 201700Z AUTO 00000KT 3SM 20/17 A2977 RMK T02000170 IEM_DS3505
ZGHA,2008-05-20 19:00,ZGHA 201900Z AUTO 4SM 20/18 A2977 RMK T02000180 IEM_DS3505
ZGHA,2008-05-20 21:00,ZGHA 202100Z AUTO 3SM 19/16 A2977 RMK T01900160 IEM_DS3505
ZGHA,2008-05-20 22:00,ZGHA 202200Z AUTO 00000KT 3SM 19/17 A2980 RMK T01900170 IEM_DS3505
ZGHA,2008-05-20 23:00,ZGHA 202300Z AUTO 00000KT 3SM 21/18 A2980 RMK T02100180 IEM_DS3505
ZGHA,2008-05-21 00:00,ZGHA 210000Z AUTO 00000KT 4SM 24/19 A2980 RMK T02400190 IEM_DS3505
ZGHA,2008-05-21 01:00,ZGHA 210100Z AUTO 6SM 27/20 A2980 RMK T02700200 IEM_DS3505
ZGHA,2008-05-21 02:00,ZGHA 210200Z AUTO 19010KT 6SM 29/20 A2980 RMK T02900200 IEM_DS3505
ZGHA,2008-05-21 03:00,ZGHA 210300Z AUTO 21006KT 6SM 30/21 A2980 RMK T03000210 IEM_DS3505
ZGHA,2008-05-21 04:00,ZGHA 210400Z AUTO 19008KT 6SM 31/20 A2980 RMK T03100200 IEM_DS3505
ZGHA,2008-05-21 05:00,ZGHA 210500Z AUTO 19008KT 6SM 32/19 A2977 RMK T03200190 IEM_DS3505
ZGHA,2008-05-21 06:00,ZGHA 210600Z AUTO 6SM 33/19 A2974 RMK T03300190 IEM_DS3505
ZGHA,2008-05-21 07:00,ZGHA 210700Z AUTO 6SM 33/18 A2971 RMK T03300180 IEM_DS3505
ZGHA,2008-05-21 08:00,ZGHA 210800Z AUTO 17004KT 6SM 33/16 A2971 RMK T03300160 IEM_DS3505
ZGHA,2008-05-21 09:00,ZGHA 210900Z AUTO 22004KT 6SM 33/17 A2968 RMK T03300170 IEM_DS3505
ZGHA,2008-05-21 10:00,ZGHA 211000Z AUTO 20004KT 6SM 31/18 A2971 RMK T03100180 IEM_DS3505
ZGHA,2008-05-21 11:00,ZGHA 211100Z AUTO 00000KT 6SM 29/21 A2971 RMK T02900210 IEM_DS3505
ZGHA,2008-05-21 12:00,ZGHA 211200Z AUTO 00000KT 4SM 26/22 A2971 RMK T02600220 IEM_DS3505
ZGHA,2008-05-21 13:00,ZGHA 211300Z AUTO 00000KT 4SM 25/22 A2974 RMK T02500220 IEM_DS3505
ZGHA,2008-05-21 14:00,ZGHA 211400Z AUTO 00000KT 3SM 24/22 A2974 RMK T02400220 IEM_DS3505
ZGHA,2008-05-21 15:00,ZGHA 211500Z AUTO 00000KT 4SM 23/21 A2977 RMK T02300210 IEM_DS3505
ZGHA,2008-05-21 16:00,ZGHA 211600Z AUTO 4SM 23/21 A2974 RMK T02300210 IEM_DS3505
ZGHA,2008-05-21 18:00,ZGHA 211800Z AUTO 00000KT 2SM 22/21 A2974 RMK T02200210 IEM_DS3505
ZGHA,2008-05-21 21:00,ZGHA 212100Z AUTO 00000KT 2 1/2SM 21/20 A2974 RMK T02100200 IEM_DS3505
ZGHA,2008-05-21 22:00,ZGHA 212200Z AUTO 00000KT 2 1/2SM 21/21 A2977 RMK T02100210 IEM_DS3505
ZGHA,2008-05-21 23:00,ZGHA 212300Z AUTO 00000KT 2 1/2SM 23/22 A2977 RMK T02300220 IEM_DS3505
ZGHA,2008-05-22 00:00,ZGHA 220000Z AUTO 00000KT 3SM 26/23 A2980 RMK T02600230 IEM_DS3505
ZGHA,2008-05-22 01:00,ZGHA 220100Z AUTO 4SM 29/23 A2980 RMK T02900230 IEM_DS3505
ZGHA,2008-05-22 02:00,ZGHA 220200Z AUTO 17004KT 6SM 30/22 A2980 RMK T03000220 IEM_DS3505
ZGHA,2008-05-22 03:00,ZGHA 220300Z AUTO 19006KT 6SM 31/23 A2980 RMK T03100230 IEM_DS3505
ZGHA,2008-05-22 04:00,ZGHA 220400Z AUTO 20006KT 6SM 32/22 A2977 RMK T03200220 IEM_DS3505
ZGHA,2008-05-22 05:00,ZGHA 220500Z AUTO 20006KT 6SM 34/22 A2977 RMK T03400220 IEM_DS3505
ZGHA,2008-05-22 06:00,ZGHA 220600Z AUTO 26006KT 6SM 33/21 A2974 RMK T03300210 IEM_DS3505
ZGHA,2008-05-22 07:00,ZGHA 220700Z AUTO 20006KT 6SM 35/20 A2971 RMK T03500200 IEM_DS3505
ZGHA,2008-05-22 08:00,ZGHA 220800Z AUTO 00000KT 6SM 34/20 A2971 RMK T03400200 IEM_DS3505
ZGHA,2008-05-22 09:00,ZGHA 220900Z AUTO 23006KT 6SM 33/20 A2971 RMK T03300200 IEM_DS3505
ZGHA,2008-05-22 10:00,ZGHA 221000Z AUTO 6SM 31/24 A2971 RMK T03100240 IEM_DS3505
ZGHA,2008-05-22 11:00,ZGHA 221100Z AUTO 18004KT 6SM 29/24 A2971 RMK T02900240 IEM_DS3505
ZGHA,2008-05-22 12:00,ZGHA 221200Z AUTO 6SM 28/24 A2974 RMK T02800240 IEM_DS3505
ZGHA,2008-05-22 13:00,ZGHA 221300Z AUTO 00000KT 6SM 28/24 A2974 RMK T02800240 IEM_DS3505
ZGHA,2008-05-22 14:00,ZGHA 221400Z AUTO 11002KT 6SM 27/24 A2977 RMK T02700240 IEM_DS3505
ZGHA,2008-05-22 16:00,ZGHA 221600Z AUTO 17004KT 4SM 25/24 A2977 RMK T02500240 IEM_DS3505
ZGHA,2008-05-22 17:00,ZGHA 221700Z AUTO 00000KT 3SM 25/23 A2977 RMK T02500230 IEM_DS3505
ZGHA,2008-05-22 18:00,ZGHA 221800Z AUTO 00000KT 3SM 26/23 A2974 RMK T02600230 IEM_DS3505
ZGHA,2008-05-22 19:00,ZGHA 221900Z AUTO 00000KT 3SM 25/23 A2974 RMK T02500230 IEM_DS3505
ZGHA,2008-05-22 20:00,ZGHA 222000Z AUTO 00000KT 4SM 25/23 A2974 RMK T02500230 IEM_DS3505
ZGHA,2008-05-22 21:00,ZGHA 222100Z AUTO 00000KT 4SM 25/22 A2974 RMK T02500220 IEM_DS3505
ZGHA,2008-05-22 22:00,ZGHA 222200Z AUTO 17002KT 4SM 24/22 A2974 RMK T02400220 IEM_DS3505
ZGHA,2008-05-22 23:00,ZGHA 222300Z AUTO 00000KT 4SM 25/23 A2977 RMK T02500230 IEM_DS3505
ZGHA,2008-05-23 00:00,ZGHA 230000Z AUTO 17004KT 5SM 28/24 A2977 RMK T02800240 IEM_DS3505
ZGHA,2008-05-23 01:00,ZGHA 230100Z AUTO 17006KT 6SM 29/24 A2977 RMK T02900240 IEM_DS3505
ZGHA,2008-05-23 02:00,ZGHA 230200Z AUTO 21006KT 6SM 32/25 A2977 RMK T03200250 IEM_DS3505
ZGHA,2008-05-23 03:00,ZGHA 230300Z AUTO 21006KT 7SM 33/24 A2974 RMK T03300240 IEM_DS3505
ZGHA,2008-05-23 04:00,ZGHA 230400Z AUTO 21004KT 7SM 31/27 A2974 RMK T03100270 IEM_DS3505
ZGHA,2008-05-23 05:00,ZGHA 230500Z AUTO 22006KT 6SM 33/25 A2971 RMK T03300250 IEM_DS3505
ZGHA,2008-05-23 06:00,ZGHA 230600Z AUTO 20008KT 7SM 33/25 A2968 RMK T03300250 IEM_DS3505
ZGHA,2008-05-23 07:00,ZGHA 230700Z AUTO 23006KT 7SM 32/23 A2965 RMK T03200230 IEM_DS3505
ZGHA,2008-05-23 08:00,ZGHA 230800Z AUTO 32012KT 7SM 29/24 A2968 RMK T02900240 IEM_DS3505
ZGHA,2008-05-23 09:00,ZGHA 230900Z AUTO 33012KT 5SM 27/25 A2968 RMK T02700250 IEM_DS3505
ZGHA,2008-05-23 10:00,ZGHA 231000Z AUTO 01008KT 4SM 26/24 A2971 RMK T02600240 IEM_DS3505
ZGHA,2008-05-23 11:00,ZGHA 231100Z AUTO 04004KT 4SM 25/23 A2968 RMK T02500230 IEM_DS3505
ZGHA,2008-05-23 12:00,ZGHA 231200Z AUTO 4SM 25/23 A2968 RMK T02500230 IEM_DS3505
ZGHA,2008-05-23 13:00,ZGHA 231300Z AUTO 00000KT 4SM 25/23 A2971 RMK T02500230 IEM_DS3505
ZGHA,2008-05-23 14:00,ZGHA 231400Z AUTO 23004KT 2 1/2SM 24/23 A2971 RMK T02400230 IEM_DS3505
ZGHA,2008-05-23 15:00,ZGHA 231500Z AUTO 18004KT 2SM 24/23 A2971 RMK T02400230 IEM_DS3505
ZGHA,2008-05-23 16:00,ZGHA 231600Z AUTO 19002KT 2SM 24/23 A2971 RMK T02400230 IEM_DS3505
ZGHA,2008-05-23 17:00,ZGHA 231700Z AUTO 00000KT 2SM 24/23 A2971 RMK T02400230 IEM_DS3505
ZGHA,2008-05-23 18:00,ZGHA 231800Z AUTO 1 1/2SM 23/23 A2971 RMK T02300230 IEM_DS3505
ZGHA,2008-05-23 19:00,ZGHA 231900Z AUTO 33002KT 1SM 23/23 A2968 RMK T02300230 IEM_DS3505
ZGHA,2008-05-23 20:00,ZGHA 232000Z AUTO 33004KT 1SM 23/23 A2968 RMK T02300230 IEM_DS3505
ZGHA,2008-05-23 21:00,ZGHA 232100Z AUTO 33004KT 1 1/2SM 23/23 A2968 RMK T02300230 IEM_DS3505
ZGHA,2008-05-23 22:00,ZGHA 232200Z AUTO 00000KT 1 1/4SM 23/23 A2968 RMK T02300230 IEM_DS3505
ZGHA,2008-05-23 23:00,ZGHA 232300Z AUTO 2SM 24/23 A2971 RMK T02400230 IEM_DS3505
ZGHA,2008-05-24 00:00,ZGHA 240000Z AUTO 00000KT 2 1/2SM 25/25 A2971 RMK T02500250 IEM_DS3505
ZGHA,2008-05-24 01:00,ZGHA 240100Z AUTO 2 1/2SM 26/25 A2971 RMK T02600250 IEM_DS3505
ZGHA,2008-05-24 02:00,ZGHA 240200Z AUTO 2 1/2SM 27/24 A2971 RMK T02700240 IEM_DS3505
ZGHA,2008-05-24 03:00,ZGHA 240300Z AUTO 2 1/2SM 27/24 A2971 RMK T02700240 IEM_DS3505
ZGHA,2008-05-24 04:00,ZGHA 240400Z AUTO 3SM 29/23 A2971 RMK T02900230 IEM_DS3505
ZGHA,2008-05-24 05:00,ZGHA 240500Z AUTO 22006KT 3SM 31/24 A2971 RMK T03100240 IEM_DS3505
ZGHA,2008-05-24 06:00,ZGHA 240600Z AUTO 22008KT 3SM 30/24 A2968 RMK T03000240 IEM_DS3505
ZGHA,2008-05-24 07:00,ZGHA 240700Z AUTO 26004KT 4SM 31/24 A2965 RMK T03100240 IEM_DS3505
ZGHA,2008-05-24 08:00,ZGHA 240800Z AUTO 22004KT 4SM 31/23 A2965 RMK T03100230 IEM_DS3505
ZGHA,2008-05-24 09:00,ZGHA 240900Z AUTO 21006KT 3SM 30/25 A2965 RMK T03000250 IEM_DS3505
ZGHA,2008-05-24 10:00,ZGHA 241000Z AUTO 20004KT 4SM 29/24 A2965 RMK T02900240 IEM_DS3505
ZGHA,2008-05-24 11:00,ZGHA 241100Z AUTO 4SM 28/24 A2965 RMK T02800240 IEM_DS3505
ZGHA,2008-05-24 12:00,ZGHA 241200Z AUTO 19006KT 4SM 27/24 A2965 RMK T02700240 IEM_DS3505
ZGHA,2008-05-24 13:00,ZGHA 241300Z AUTO 19006KT 3SM 26/24 A2968 RMK T02600240 IEM_DS3505
ZGHA,2008-05-24 14:00,ZGHA 241400Z AUTO 3SM 25/24 A2971 RMK T02500240 IEM_DS3505
ZGHA,2008-05-24 15:00,ZGHA 241500Z AUTO 4SM 25/24 A2971 RMK T02500240 IEM_DS3505
ZGHA,2008-05-24 16:00,ZGHA 241600Z AUTO 00000KT 4SM 24/24 A2968 RMK T02400240 IEM_DS3505
ZGHA,2008-05-24 17:00,ZGHA 241700Z AUTO 3SM 24/23 A2968 RMK T02400230 IEM_DS3505
ZGHA,2008-05-24 21:00,ZGHA 242100Z AUTO 2 1/2SM 24/23 A2971 RMK T02400230 IEM_DS3505
ZGHA,2008-05-24 22:00,ZGHA 242200Z AUTO 00000KT 3SM 24/23 A2971 RMK T02400230 IEM_DS3505
ZGHA,2008-05-24 23:00,ZGHA 242300Z AUTO 00000KT 4SM 25/24 A2974 RMK T02500240 IEM_DS3505
ZGHA,2008-05-25 00:00,ZGHA 250000Z AUTO 17004KT 3SM 27/25 A2974 RMK T02700250 IEM_DS3505
ZGHA,2008-05-25 01:00,ZGHA 250100Z AUTO 19008KT 6SM 29/24 A2974 RMK T02900240 IEM_DS3505
ZGHA,2008-05-25 02:00,ZGHA 250200Z AUTO 20006KT 6SM 30/24 A2974 RMK T03000240 IEM_DS3505
ZGHA,2008-05-25 03:00,ZGHA 250300Z AUTO 20006KT 7SM 31/24 A2974 RMK T03100240 IEM_DS3505
ZGHA,2008-05-25 04:00,ZGHA 250400Z AUTO 17004KT 7SM 32/24 A2974 RMK T03200240 IEM_DS3505
ZGHA,2008-05-25 05:00,ZGHA 250500Z AUTO 28004KT 7SM 34/24 A2971 RMK T03400240 IEM_DS3505
ZGHA,2008-05-25 06:00,ZGHA 250600Z AUTO 26004KT 7SM 34/23 A2971 RMK T03400230 IEM_DS3505
ZGHA,2008-05-25 07:00,ZGHA 250700Z AUTO 25006KT 7SM 35/23 A2968 RMK T03500230 IEM_DS3505
ZGHA,2008-05-25 08:00,ZGHA 250800Z AUTO 30004KT 7SM 35/23 A2965 RMK T03500230 IEM_DS3505
ZGHA,2008-05-25 09:00,ZGHA 250900Z AUTO 25004KT 7SM 35/23 A2965 RMK T03500230 IEM_DS3505
ZGHA,2008-05-25 10:00,ZGHA 251000Z AUTO 7SM 34/23 A2962 RMK T03400230 IEM_DS3505
ZGHA,2008-05-25 11:00,ZGHA 251100Z AUTO 00000KT 7SM 32/24 A2962 RMK T03200240 IEM_DS3505
ZGHA,2008-05-25 12:00,ZGHA 251200Z AUTO 6SM 30/26 A2968 RMK T03000260 IEM_DS3505
ZGHA,2008-05-25 13:00,ZGHA 251300Z AUTO 17006KT 6SM 29/26 A2971 RMK T02900260 IEM_DS3505
ZGHA,2008-05-25 14:00,ZGHA 251400Z AUTO 6SM 29/25 A2971 RMK T02900250 IEM_DS3505
ZGHA,2008-05-25 15:00,ZGHA 251500Z AUTO 6SM 28/25 A2974 RMK T02800250 IEM_DS3505
ZGHA,2008-05-25 16:00,ZGHA 251600Z AUTO 6SM 28/24 A2974 RMK T02800240 IEM_DS3505
ZGHA,2008-05-25 17:00,ZGHA 251700Z AUTO 00000KT 6SM 27/23 A2971 RMK T02700230 IEM_DS3505
ZGHA,2008-05-25 18:00,ZGHA 251800Z AUTO 6SM 26/23 A2971 RMK T02600230 IEM_DS3505
ZGHA,2008-05-25 19:00,ZGHA 251900Z AUTO 4SM 25/24 A2971 RMK T02500240 IEM_DS3505
ZGHA,2008-05-25 21:00,ZGHA 252100Z AUTO 4SM 25/24 A2971 RMK T02500240 IEM_DS3505
ZGHA,2008-05-25 22:00,ZGHA 252200Z AUTO 19002KT 4SM 24/24 A2971 RMK T02400240 IEM_DS3505
ZGHA,2008-05-25 23:00,ZGHA 252300Z AUTO 18006KT 5SM 26/25 A2974 RMK T02600250 IEM_DS3505
ZGHA,2008-05-26 00:00,ZGHA 260000Z AUTO 14004KT 5SM 29/25 A2974 RMK T02900250 IEM_DS3505
ZGHA,2008-05-26 01:00,ZGHA 260100Z AUTO 16008KT 6SM 31/25 A2974 RMK T03100250 IEM_DS3505
ZGHA,2008-05-26 02:00,ZGHA 260200Z AUTO 18008KT 6SM 32/26 A2974 RMK T03200260 IEM_DS3505
ZGHA,2008-05-26 03:00,ZGHA 260300Z AUTO 16006KT 7SM 33/25 A2974 RMK T03300250 IEM_DS3505
ZGHA,2008-05-26 04:00,ZGHA 260400Z AUTO 21008KT 7SM 34/25 A2971 RMK T03400250 IEM_DS3505
ZGHA,2008-05-26 05:00,ZGHA 260500Z AUTO 20010G19KT 7SM 34/25 A2971 RMK T03400250 IEM_DS3505
ZGHA,2008-05-26 06:00,ZGHA 260600Z AUTO 24006KT 7SM 36/25 A2968 RMK T03600250 IEM_DS3505
ZGHA,2008-05-26 07:00,ZGHA 260700Z AUTO 20008KT 7SM 38/25 A2962 RMK T03800250 IEM_DS3505
ZGHA,2008-05-26 08:00,ZGHA 260800Z AUTO 20012KT 6SM 36/24 A2962 RMK T03600240 IEM_DS3505
ZGHA,2008-05-26 09:00,ZGHA 260900Z AUTO 21008KT 6SM 35/24 A2959 RMK T03500240 IEM_DS3505
ZGHA,2008-05-26 10:00,ZGHA 261000Z AUTO 19008KT 6SM 33/25 A2959 RMK T03300250 IEM_DS3505
ZGHA,2008-05-26 11:00,ZGHA 261100Z AUTO 17004KT 6SM 32/26 A2962 RMK T03200260 IEM_DS3505
ZGHA,2008-05-26 12:00,ZGHA 261200Z AUTO 14006KT 7SM 30/24 A2965 RMK T03000240 IEM_DS3505
ZGHA,2008-05-26 13:00,ZGHA 261300Z AUTO 12004KT 7SM 29/24 A2968 RMK T02900240 IEM_DS3505
ZGHA,2008-05-26 14:00,ZGHA 261400Z AUTO 7SM 28/24 A2968 RMK T02800240 IEM_DS3505
ZGHA,2008-05-26 15:00,ZGHA 261500Z AUTO 7SM 27/24 A2965 RMK T02700240 IEM_DS3505
ZGHA,2008-05-26 16:00,ZGHA 261600Z AUTO 7SM 27/24 A2965 RMK T02700240 IEM_DS3505
ZGHA,2008-05-26 17:00,ZGHA 261700Z AUTO 6SM 26/24 A2965 RMK T02600240 IEM_DS3505
ZGHA,2008-05-26 18:00,ZGHA 261800Z AUTO 00000KT 6SM 26/24 A2962 RMK T02600240 IEM_DS3505
ZGHA,2008-05-26 19:00,ZGHA 261900Z AUTO 17004KT 7SM 26/24 A2962 RMK T02600240 IEM_DS3505
ZGHA,2008-05-26 21:00,ZGHA 262100Z AUTO 17006KT 7SM 26/24 A2962 RMK T02600240 IEM_DS3505
ZGHA,2008-05-26 22:00,ZGHA 262200Z AUTO 15004KT 7SM 26/23 A2962 RMK T02600230 IEM_DS3505
ZGHA,2008-05-26 23:00,ZGHA 262300Z AUTO 16004KT 7SM 26/24 A2962 RMK T02600240 IEM_DS3505
ZGHA,2008-05-27 00:00,ZGHA 270000Z AUTO 17006KT 7SM 28/24 A2962 RMK T02800240 IEM_DS3505
ZGHA,2008-05-27 01:00,ZGHA 270100Z AUTO 17006KT 7SM 29/24 A2962 RMK T02900240 IEM_DS3505
ZGHA,2008-05-27 02:00,ZGHA 270200Z AUTO 17008KT 6SM 30/24 A2962 RMK T03000240 IEM_DS3505
ZGHA,2008-05-27 03:00,ZGHA 270300Z AUTO 17006KT 6SM 30/24 A2962 RMK T03000240 IEM_DS3505
ZGHA,2008-05-27 04:00,ZGHA 270400Z AUTO 16006KT 6SM 30/25 A2959 RMK T03000250 IEM_DS3505
ZGHA,2008-05-27 05:00,ZGHA 270500Z AUTO 17006KT 7SM 30/25 A2959 RMK T03000250 IEM_DS3505
ZGHA,2008-05-27 06:00,ZGHA 270600Z AUTO 19016KT 2SM 25/24 A2956 RMK T02500240 IEM_DS3505
ZGHA,2008-05-27 07:00,ZGHA 270700Z AUTO 18008KT 2SM 23/22 A2956 RMK T02300220 IEM_DS3505
ZGHA,2008-05-27 08:00,ZGHA 270800Z AUTO 20004KT 3SM 23/23 A2953 RMK T02300230 IEM_DS3505
ZGHA,2008-05-27 09:00,ZGHA 270900Z AUTO 5SM 24/23 A2953 RMK T02400230 IEM_DS3505
ZGHA,2008-05-27 10:00,ZGHA 271000Z AUTO 13004KT 6SM 25/24 A2950 RMK T02500240 IEM_DS3505
ZGHA,2008-05-27 11:00,ZGHA 271100Z AUTO 6SM 25/24 A2953 RMK T02500240 IEM_DS3505
ZGHA,2008-05-27 12:00,ZGHA 271200Z AUTO 00000KT 6SM 24/24 A2953 RMK T02400240 IEM_DS3505
ZGHA,2008-05-27 13:00,ZGHA 271300Z AUTO 00000KT 6SM 24/24 A2953 RMK T02400240 IEM_DS3505
ZGHA,2008-05-27 14:00,ZGHA 271400Z AUTO 6SM 25/24 A2956 RMK T02500240 IEM_DS3505
ZGHA,2008-05-27 15:00,ZGHA 271500Z AUTO 6SM 25/24 A2953 RMK T02500240 IEM_DS3505
ZGHA,2008-05-27 16:00,ZGHA 271600Z AUTO 00000KT 6SM 24/24 A2953 RMK T02400240 IEM_DS3505
ZGHA,2008-05-27 17:00,ZGHA 271700Z AUTO 7SM 24/24 A2950 RMK T02400240 IEM_DS3505
ZGHA,2008-05-27 19:00,ZGHA 271900Z AUTO 00000KT 3SM 24/24 A2947 RMK T02400240 IEM_DS3505
ZGHA,2008-05-27 20:00,ZGHA 272000Z AUTO 00000KT 2 1/2SM 24/24 A2947 RMK T02400240 IEM_DS3505
ZGHA,2008-05-27 21:00,ZGHA 272100Z AUTO 2SM 24/24 A2950 RMK T02400240 IEM_DS3505
ZGHA,2008-05-27 22:00,ZGHA 272200Z AUTO 33004KT 1 1/2SM 24/24 A2953 RMK T02400240 IEM_DS3505
ZGHA,2008-05-27 23:00,ZGHA 272300Z AUTO 36004KT 1 1/4SM 24/24 A2953 RMK T02400240 IEM_DS3505
ZGHA,2008-05-28 00:00,ZGHA 280000Z AUTO 35004KT 1 1/4SM 24/24 A2956 RMK T02400240 IEM_DS3505
ZGHA,2008-05-28 01:00,ZGHA 280100Z AUTO 32006KT 1 1/2SM 25/25 A2956 RMK T02500250 IEM_DS3505
ZGHA,2008-05-28 02:00,ZGHA 280200Z AUTO 28008KT 1 1/2SM 25/25 A2959 RMK T02500250 IEM_DS3505
ZGHA,2008-05-28 03:00,ZGHA 280300Z AUTO 34008KT 3SM 25/24 A2959 RMK T02500240 IEM_DS3505
ZGHA,2008-05-28 04:00,ZGHA 280400Z AUTO 34008KT 4SM 26/25 A2959 RMK T02600250 IEM_DS3505
ZGHA,2008-05-28 05:00,ZGHA 280500Z AUTO 33010KT 7SM 25/23 A2959 RMK T02500230 IEM_DS3505
ZGHA,2008-05-28 06:00,ZGHA 280600Z AUTO 34008KT 7SM 25/23 A2959 RMK T02500230 IEM_DS3505
ZGHA,2008-05-28 07:00,ZGHA 280700Z AUTO 34010KT 4SM 24/23 A2959 RMK T02400230 IEM_DS3505
ZGHA,2008-05-28 08:00,ZGHA 280800Z AUTO 33006KT 4SM 24/23 A2959 RMK T02400230 IEM_DS3505
ZGHA,2008-05-28 09:00,ZGHA 280900Z AUTO 32006KT 4SM 25/23 A2959 RMK T02500230 IEM_DS3505
ZGHA,2008-05-28 10:00,ZGHA 281000Z AUTO 35006KT 4SM 25/23 A2959 RMK T02500230 IEM_DS3505
ZGHA,2008-05-28 11:00,ZGHA 281100Z AUTO 36006KT 4SM 25/23 A2962 RMK T02500230 IEM_DS3505
ZGHA,2008-05-28 12:00,ZGHA 281200Z AUTO 01004KT 3SM 24/23 A2965 RMK T02400230 IEM_DS3505
ZGHA,2008-05-28 13:00,ZGHA 281300Z AUTO 34004KT 3SM 24/23 A2965 RMK T02400230 IEM_DS3505
ZGHA,2008-05-28 14:00,ZGHA 281400Z AUTO 3SM 24/23 A2968 RMK T02400230 IEM_DS3505
ZGHA,2008-05-28 15:00,ZGHA 281500Z AUTO 2 1/2SM 24/23 A2968 RMK T02400230 IEM_DS3505
ZGHA,2008-05-28 16:00,ZGHA 281600Z AUTO 2 1/2SM 24/23 A2965 RMK T02400230 IEM_DS3505
ZGHA,2008-05-28 17:00,ZGHA 281700Z AUTO 09002KT 1 1/2SM 23/23 A2965 RMK T02300230 IEM_DS3505
ZGHA,2008-05-28 18:00,ZGHA 281800Z AUTO 01002KT 1 1/2SM 23/22 A2965 RMK T02300220 IEM_DS3505
ZGHA,2008-05-28 20:00,ZGHA 282000Z AUTO 4SM 22/22 A2965 RMK T02200220 IEM_DS3505
ZGHA,2008-05-28 21:00,ZGHA 282100Z AUTO 4SM 22/22 A2965 RMK T02200220 IEM_DS3505
ZGHA,2008-05-28 22:00,ZGHA 282200Z AUTO 00000KT 4SM 22/22 A2965 RMK T02200220 IEM_DS3505
ZGHA,2008-05-28 23:00,ZGHA 282300Z AUTO 07004KT 6SM 23/23 A2965 RMK T02300230 IEM_DS3505
ZGHA,2008-05-29 00:00,ZGHA 290000Z AUTO 6SM 26/24 A2968 RMK T02600240 IEM_DS3505
ZGHA,2008-05-29 01:00,ZGHA 290100Z AUTO 6SM 27/23 A2968 RMK T02700230 IEM_DS3505
ZGHA,2008-05-29 02:00,ZGHA 290200Z AUTO 6SM 28/24 A2968 RMK T02800240 IEM_DS3505
ZGHA,2008-05-29 03:00,ZGHA 290300Z AUTO 25004KT 7SM 29/24 A2968 RMK T02900240 IEM_DS3505
ZGHA,2008-05-29 04:00,ZGHA 290400Z AUTO 6SM 29/23 A2968 RMK T02900230 IEM_DS3505
ZGHA,2008-05-29 05:00,ZGHA 290500Z AUTO 6SM 30/22 A2965 RMK T03000220 IEM_DS3505
ZGHA,2008-05-29 06:00,ZGHA 290600Z AUTO 6SM 30/22 A2965 RMK T03000220 IEM_DS3505
ZGHA,2008-05-29 07:00,ZGHA 290700Z AUTO 6SM 31/22 A2965 RMK T03100220 IEM_DS3505
ZGHA,2008-05-29 08:00,ZGHA 290800Z AUTO 6SM 31/22 A2962 RMK T03100220 IEM_DS3505
ZGHA,2008-05-29 09:00,ZGHA 290900Z AUTO 36004KT 6SM 31/22 A2962 RMK T03100220 IEM_DS3505
ZGHA,2008-05-29 10:00,ZGHA 291000Z AUTO 01004KT 6SM 30/22 A2962 RMK T03000220 IEM_DS3505
ZGHA,2008-05-29 11:00,ZGHA 291100Z AUTO 6SM 29/22 A2965 RMK T02900220 IEM_DS3505
ZGHA,2008-05-29 12:00,ZGHA 291200Z AUTO 36002KT 6SM 28/23 A2968 RMK T02800230 IEM_DS3505
ZGHA,2008-05-29 13:00,ZGHA 291300Z AUTO 36002KT 5SM 27/24 A2971 RMK T02700240 IEM_DS3505
ZGHA,2008-05-29 14:00,ZGHA 291400Z AUTO 5SM 27/24 A2974 RMK T02700240 IEM_DS3505
ZGHA,2008-05-29 15:00,ZGHA 291500Z AUTO 34004KT 4SM 27/24 A2974 RMK T02700240 IEM_DS3505
ZGHA,2008-05-29 16:00,ZGHA 291600Z AUTO 36004KT 4SM 26/24 A2974 RMK T02600240 IEM_DS3505
ZGHA,2008-05-29 17:00,ZGHA 291700Z AUTO 01004KT 2 1/2SM 25/23 A2974 RMK T02500230 IEM_DS3505
ZGHA,2008-05-29 18:00,ZGHA 291800Z AUTO 2 1/2SM 25/23 A2971 RMK T02500230 IEM_DS3505
ZGHA,2008-05-29 19:00,ZGHA 291900Z AUTO 2SM 24/22 A2974 RMK T02400220 IEM_DS3505
ZGHA,2008-05-29 20:00,ZGHA 292000Z AUTO 35004KT 2SM 24/22 A2974 RMK T02400220 IEM_DS3505
ZGHA,2008-05-29 21:00,ZGHA 292100Z AUTO 36004KT 4SM 23/22 A2977 RMK T02300220 IEM_DS3505
ZGHA,2008-05-29 22:00,ZGHA 292200Z AUTO 01006KT 2 1/2SM 24/22 A2977 RMK T02400220 IEM_DS3505
ZGHA,2008-05-29 23:00,ZGHA 292300Z AUTO 36008KT 2 1/2SM 24/22 A2980 RMK T02400220 IEM_DS3505
ZGHA,2008-05-30 00:00,ZGHA 300000Z AUTO 36008KT 3SM 25/22 A2983 RMK T02500220 IEM_DS3505
ZGHA,2008-05-30 01:00,ZGHA 300100Z AUTO 35008KT 3SM 26/21 A2983 RMK T02600210 IEM_DS3505
ZGHA,2008-05-30 02:00,ZGHA 300200Z AUTO 35008KT 3SM 27/21 A2985 RMK T02700210 IEM_DS3505
ZGHA,2008-05-30 03:00,ZGHA 300300Z AUTO 34008KT 3SM 26/20 A2985 RMK T02600200 IEM_DS3505
ZGHA,2008-05-30 04:00,ZGHA 300400Z AUTO 33012KT 4SM 26/19 A2985 RMK T02600190 IEM_DS3505
ZGHA,2008-05-30 05:00,ZGHA 300500Z AUTO 34010KT 4SM 29/19 A2983 RMK T02900190 IEM_DS3505
ZGHA,2008-05-30 06:00,ZGHA 300600Z AUTO 34008KT 6SM 29/17 A2983 RMK T02900170 IEM_DS3505
ZGHA,2008-05-30 07:00,ZGHA 300700Z AUTO 33014KT 6SM 29/16 A2983 RMK T02900160 IEM_DS3505
ZGHA,2008-05-30 08:00,ZGHA 300800Z AUTO 35014KT 6SM 29/14 A2983 RMK T02900140 IEM_DS3505
ZGHA,2008-05-30 09:00,ZGHA 300900Z AUTO 34008KT 6SM 27/14 A2983 RMK T02700140 IEM_DS3505
ZGHA,2008-05-30 10:00,ZGHA 301000Z AUTO 35006KT 6SM 26/13 A2983 RMK T02600130 IEM_DS3505
ZGHA,2008-05-30 11:00,ZGHA 301100Z AUTO 36006KT 6SM 25/15 A2983 RMK T02500150 IEM_DS3505
ZGHA,2008-05-30 12:00,ZGHA 301200Z AUTO 36006KT 6SM 24/14 A2985 RMK T02400140 IEM_DS3505
ZGHA,2008-05-30 13:00,ZGHA 301300Z AUTO 01004KT 6SM 23/14 A2988 RMK T02300140 IEM_DS3505
ZGHA,2008-05-30 14:00,ZGHA 301400Z AUTO 34004KT 6SM 23/14 A2988 RMK T02300140 IEM_DS3505
ZGHA,2008-05-30 15:00,ZGHA 301500Z AUTO 02004KT 6SM 22/15 A2988 RMK T02200150 IEM_DS3505
ZGHA,2008-05-30 16:00,ZGHA 301600Z AUTO 33004KT 6SM 22/15 A2988 RMK T02200150 IEM_DS3505
ZGHA,2008-05-30 17:00,ZGHA 301700Z AUTO 32004KT 6SM 21/15 A2988 RMK T02100150 IEM_DS3505
ZGHA,2008-05-30 18:00,ZGHA 301800Z AUTO 32004KT 4SM 21/15 A2985 RMK T02100150 IEM_DS3505
ZGHA,2008-05-30 21:00,ZGHA 302100Z AUTO 35004KT 6SM 21/16 A2985 RMK T02100160 IEM_DS3505
ZGHA,2008-05-30 22:00,ZGHA 302200Z AUTO 32004KT 4SM 20/17 A2985 RMK T02000170 IEM_DS3505
ZGHA,2008-05-30 23:00,ZGHA 302300Z AUTO 4SM 21/16 A2988 RMK T02100160 IEM_DS3505
ZGHA,2008-05-31 00:00,ZGHA 310000Z AUTO 35004KT 6SM 22/16 A2988 RMK T02200160 IEM_DS3505
ZGHA,2008-05-31 01:00,ZGHA 310100Z AUTO 6SM 24/17 A2988 RMK T02400170 IEM_DS3505
ZGHA,2008-05-31 02:00,ZGHA 310200Z AUTO 6SM 26/17 A2988 RMK T02600170 IEM_DS3505
ZGHA,2008-05-31 03:00,ZGHA 310300Z AUTO 25004KT 6SM 27/17 A2988 RMK T02700170 IEM_DS3505
ZGHA,2008-05-31 04:00,ZGHA 310400Z AUTO 6SM 27/17 A2985 RMK T02700170 IEM_DS3505
ZGHA,2008-05-31 05:00,ZGHA 310500Z AUTO 6SM 29/17 A2983 RMK T02900170 IEM_DS3505
ZGHA,2008-05-31 06:00,ZGHA 310600Z AUTO 22004KT 6SM 28/18 A2983 RMK T02800180 IEM_DS3505
ZGHA,2008-05-31 07:00,ZGHA 310700Z AUTO 24006KT 6SM 29/19 A2980 RMK T02900190 IEM_DS3505
ZGHA,2008-05-31 08:00,ZGHA 310800Z AUTO 22004KT 6SM 29/19 A2977 RMK T02900190 IEM_DS3505
ZGHA,2008-05-31 09:00,ZGHA 310900Z AUTO 25004KT 6SM 28/19 A2977 RMK T02800190 IEM_DS3505
ZGHA,2008-05-31 10:00,ZGHA 311000Z AUTO 22006KT 6SM 27/18 A2974 RMK T02700180 IEM_DS3505
ZGHA,2008-05-31 11:00,ZGHA 311100Z AUTO 24004KT 4SM 26/19 A2977 RMK T02600190 IEM_DS3505
ZGHA,2008-05-31 12:00,ZGHA 311200Z AUTO 4SM 25/20 A2977 RMK T02500200 IEM_DS3505
ZGHA,2008-05-31 13:00,ZGHA 311300Z AUTO 22004KT 2 1/2SM 24/21 A2977 RMK T02400210 IEM_DS3505
ZGHA,2008-05-31 14:00,ZGHA 311400Z AUTO 2SM 24/21 A2980 RMK T02400210 IEM_DS3505
ZGHA,2008-05-31 15:00,ZGHA 311500Z AUTO 2SM 24/20 A2980 RMK T02400200 IEM_DS3505
ZGHA,2008-05-31 16:00,ZGHA 311600Z AUTO 00000KT 1 1/2SM 23/21 A2977 RMK T02300210 IEM_DS3505
ZGHA,2008-05-31 19:00,ZGHA 311900Z AUTO 00000KT 1 1/2SM 22/20 A2974 RMK T02200200 IEM_DS3505
ZGHA,2008-05-31 20:00,ZGHA 312000Z AUTO 12004KT 1SM 21/21 A2971 RMK T02100210 IEM_DS3505
ZGHA,2008-05-31 21:00,ZGHA 312100Z AUTO 1 1/2SM 21/20 A2974 RMK T02100200 IEM_DS3505
ZGHA,2008-05-31 22:00,ZGHA 312200Z AUTO 14004KT 1 1/2SM 21/20 A2974 RMK T02100200 IEM_DS3505
ZGHA,2008-05-31 23:00,ZGHA 312300Z AUTO 15004KT 2SM 22/20 A2974 RMK T02200200 IEM_DS3505
ZGHA,2008-06-01 00:00,ZGHA 010000Z AUTO 17006KT 2 1/2SM 22/20 A2974 RMK T02200200 IEM_DS3505
ZGHA,2008-06-01 01:00,ZGHA 010100Z AUTO 17006KT 2 1/2SM 23/21 A2977 RMK T02300210 IEM_DS3505
ZGHA,2008-06-01 02:00,ZGHA 010200Z AUTO 14004KT 2 1/2SM 24/20 A2977 RMK T02400200 IEM_DS3505
ZGHA,2008-06-01 03:00,ZGHA 010300Z AUTO 17006KT 2 1/2SM 24/21 A2977 RMK T02400210 IEM_DS3505
ZGHA,2008-06-01 04:00,ZGHA 010400Z AUTO 13004KT 3SM 25/21 A2974 RMK T02500210 IEM_DS3505
ZGHA,2008-06-01 05:00,ZGHA 010500Z AUTO 13004KT 2 1/2SM 25/21 A2974 RMK T02500210 IEM_DS3505
ZGHA,2008-06-01 06:00,ZGHA 010600Z AUTO 13006KT 3SM 26/22 A2971 RMK T02600220 IEM_DS3505
ZGHA,2008-06-01 07:00,ZGHA 010700Z AUTO 10006KT 3SM 27/22 A2971 RMK T02700220 IEM_DS3505
ZGHA,2008-06-01 08:00,ZGHA 010800Z AUTO 12004KT 4SM 27/21 A2971 RMK T02700210 IEM_DS3505
ZGHA,2008-06-01 09:00,ZGHA 010900Z AUTO 4SM 26/21 A2968 RMK T02600210 IEM_DS3505
ZGHA,2008-06-01 10:00,ZGHA 011000Z AUTO 3SM 25/21 A2968 RMK T02500210 IEM_DS3505
ZGHA,2008-06-01 11:00,ZGHA 011100Z AUTO 10004KT 3SM 24/21 A2971 RMK T02400210 IEM_DS3505
ZGHA,2008-06-01 12:00,ZGHA 011200Z AUTO 3SM 24/21 A2971 RMK T02400210 IEM_DS3505
ZGHA,2008-06-01 13:00,ZGHA 011300Z AUTO 2 1/2SM 24/21 A2974 RMK T02400210 IEM_DS3505
ZGHA,2008-06-01 14:00,ZGHA 011400Z AUTO 15004KT 2 1/2SM 23/20 A2977 RMK T02300200 IEM_DS3505
ZGHA,2008-06-01 15:00,ZGHA 011500Z AUTO 2 1/2SM 23/21 A2977 RMK T02300210 IEM_DS3505
ZGHA,2008-06-01 16:00,ZGHA 011600Z AUTO 00000KT 2 1/2SM 22/21 A2980 RMK T02200210 IEM_DS3505
ZGHA,2008-06-01 17:00,ZGHA 011700Z AUTO 00000KT 2SM 22/21 A2980 RMK T02200210 IEM_DS3505
ZGHA,2008-06-01 19:00,ZGHA 011900Z AUTO 00000KT 1SM 21/20 A2980 RMK T02100200 IEM_DS3505
ZGHA,2008-06-01 21:00,ZGHA 012100Z AUTO 00000KT 1 1/4SM 20/20 A2980 RMK T02000200 IEM_DS3505
ZGHA,2008-06-01 22:00,ZGHA 012200Z AUTO 2SM 19/19 A2980 RMK T01900190 IEM_DS3505
ZGHA,2008-06-01 23:00,ZGHA 012300Z AUTO 2 1/2SM 21/21 A2980 RMK T02100210 IEM_DS3505
ZGHA,2008-06-02 00:00,ZGHA 020000Z AUTO 3SM 24/22 A2983 RMK T02400220 IEM_DS3505
ZGHA,2008-06-02 01:00,ZGHA 020100Z AUTO 4SM 26/22 A2985 RMK T02600220 IEM_DS3505
ZGHA,2008-06-02 02:00,ZGHA 020200Z AUTO 10004KT 6SM 28/22 A2985 RMK T02800220 IEM_DS3505
ZGHA,2008-06-02 03:00,ZGHA 020300Z AUTO 07004KT 6SM 29/21 A2983 RMK T02900210 IEM_DS3505
ZGHA,2008-06-02 04:00,ZGHA 020400Z AUTO 01004KT 6SM 31/21 A2983 RMK T03100210 IEM_DS3505
ZGHA,2008-06-02 05:00,ZGHA 020500Z AUTO 6SM 33/19 A2983 RMK T03300190 IEM_DS3505
ZGHA,2008-06-02 06:00,ZGHA 020600Z AUTO 31006KT 6SM 33/20 A2980 RMK T03300200 IEM_DS3505
ZGHA,2008-06-02 07:00,ZGHA 020700Z AUTO 31004KT 6SM 32/20 A2980 RMK T03200200 IEM_DS3505
ZGHA,2008-06-02 08:00,ZGHA 020800Z AUTO 32008KT 6SM 31/22 A2977 RMK T03100220 IEM_DS3505
ZGHA,2008-06-02 09:00,ZGHA 020900Z AUTO 32010KT 6SM 31/22 A2977 RMK T03100220 IEM_DS3505
ZGHA,2008-06-02 10:00,ZGHA 021000Z AUTO 34006KT 6SM 30/23 A2977 RMK T03000230 IEM_DS3505
ZGHA,2008-06-02 11:00,ZGHA 021100Z AUTO 34006KT 4SM 28/22 A2980 RMK T02800220 IEM_DS3505
ZGHA,2008-06-02 12:00,ZGHA 021200Z AUTO 00000KT 5SM 27/23 A2980 RMK T02700230 IEM_DS3505
ZGHA,2008-06-02 13:00,ZGHA 021300Z AUTO 00000KT 4SM 25/23 A2983 RMK T02500230 IEM_DS3505
ZGHA,2008-06-02 14:00,ZGHA 021400Z AUTO 01002KT 4SM 25/23 A2983 RMK T02500230 IEM_DS3505
ZGHA,2008-06-02 15:00,ZGHA 021500Z AUTO 00000KT 4SM 24/23 A2983 RMK T02400230 IEM_DS3505
ZGHA,2008-06-02 16:00,ZGHA 021600Z AUTO 00000KT 2 1/2SM 24/23 A2983 RMK T02400230 IEM_DS3505
ZGHA,2008-06-02 17:00,ZGHA 021700Z AUTO 00000KT 2SM 24/23 A2980 RMK T02400230 IEM_DS3505
ZGHA,2008-06-02 21:00,ZGHA 022100Z AUTO 00000KT 1 1/4SM 22/22 A2983 RMK T02200220 IEM_DS3505
ZGHA,2008-06-02 22:00,ZGHA 022200Z AUTO 00000KT 1 1/4SM 22/21 A2983 RMK T02200210 IEM_DS3505
ZGHA,2008-06-02 23:00,ZGHA 022300Z AUTO 00000KT 1 1/4SM 22/22 A2983 RMK T02200220 IEM_DS3505
ZGHA,2008-06-03 00:00,ZGHA 030000Z AUTO 2SM 25/25 A2983 RMK T02500250 IEM_DS3505
ZGHA,2008-06-03 01:00,ZGHA 030100Z AUTO 22004KT 2 1/2SM 27/24 A2983 RMK T02700240 IEM_DS3505
ZGHA,2008-06-03 02:00,ZGHA 030200Z AUTO 18004KT 4SM 29/23 A2983 RMK T02900230 IEM_DS3505
ZGHA,2008-06-03 03:00,ZGHA 030300Z AUTO 17006KT 6SM 31/22 A2983 RMK T03100220 IEM_DS3505
ZGHA,2008-06-03 04:00,ZGHA 030400Z AUTO 16004KT 6SM 32/21 A2980 RMK T03200210 IEM_DS3505
ZGHA,2008-06-03 05:00,ZGHA 030500Z AUTO 20010KT 6SM 33/21 A2977 RMK T03300210 IEM_DS3505
ZGHA,2008-06-03 06:00,ZGHA 030600Z AUTO 19010KT 6SM 34/19 A2974 RMK T03400190 IEM_DS3505
ZGHA,2008-06-03 07:00,ZGHA 030700Z AUTO 18008KT 6SM 34/19 A2974 RMK T03400190 IEM_DS3505
ZGHA,2008-06-03 08:00,ZGHA 030800Z AUTO 20008KT 6SM 34/17 A2971 RMK T03400170 IEM_DS3505
ZGHA,2008-06-03 09:00,ZGHA 030900Z AUTO 20008KT 6SM 33/19 A2971 RMK T03300190 IEM_DS3505
ZGHA,2008-06-03 10:00,ZGHA 031000Z AUTO 16004KT 6SM 32/19 A2971 RMK T03200190 IEM_DS3505
ZGHA,2008-06-03 11:00,ZGHA 031100Z AUTO 6SM 30/20 A2971 RMK T03000200 IEM_DS3505
ZGHA,2008-06-03 12:00,ZGHA 031200Z AUTO 17004KT 6SM 27/20 A2971 RMK T02700200 IEM_DS3505
ZGHA,2008-06-03 13:00,ZGHA 031300Z AUTO 6SM 26/21 A2974 RMK T02600210 IEM_DS3505
ZGHA,2008-06-03 14:00,ZGHA 031400Z AUTO 6SM 25/21 A2977 RMK T02500210 IEM_DS3505
ZGHA,2008-06-03 15:00,ZGHA 031500Z AUTO 00000KT 6SM 23/20 A2980 RMK T02300200 IEM_DS3505
ZGHA,2008-06-03 16:00,ZGHA 031600Z AUTO 00000KT 6SM 24/21 A2980 RMK T02400210 IEM_DS3505
ZGHA,2008-06-03 17:00,ZGHA 031700Z AUTO 20004KT 6SM 22/21 A2977 RMK T02200210 IEM_DS3505
ZGHA,2008-06-03 18:00,ZGHA 031800Z AUTO 10002KT 6SM 22/20 A2977 RMK T02200200 IEM_DS3505
ZGHA,2008-06-03 19:00,ZGHA 031900Z AUTO 05002KT 6SM 22/20 A2977 RMK T02200200 IEM_DS3505
ZGHA,2008-06-03 20:00,ZGHA 032000Z AUTO 00000KT 6SM 21/20 A2977 RMK T02100200 IEM_DS3505
ZGHA,2008-06-03 21:00,ZGHA 032100Z AUTO 6SM 21/20 A2980 RMK T02100200 IEM_DS3505
ZGHA,2008-06-03 22:00,ZGHA 032200Z AUTO 00000KT 3SM 21/20 A2980 RMK T02100200 IEM_DS3505
ZGHA,2008-06-03 23:00,ZGHA 032300Z AUTO 00000KT 4SM 23/22 A2980 RMK T02300220 IEM_DS3505
ZGHA,2008-06-04 00:00,ZGHA 040000Z AUTO 00000KT 6SM 25/22 A2983 RMK T02500220 IEM_DS3505
ZGHA,2008-06-04 01:00,ZGHA 040100Z AUTO 23004KT 6SM 28/22 A2983 RMK T02800220 IEM_DS3505
ZGHA,2008-06-04 02:00,ZGHA 040200Z AUTO 22004KT 6SM 30/22 A2985 RMK T03000220 IEM_DS3505
ZGHA,2008-06-04 03:00,ZGHA 040300Z AUTO 21006KT 6SM 31/22 A2985 RMK T03100220 IEM_DS3505
ZGHA,2008-06-04 04:00,ZGHA 040400Z AUTO 4SM 32/23 A2983 RMK T03200230 IEM_DS3505
ZGHA,2008-06-04 05:00,ZGHA 040500Z AUTO 30006KT 3SM 32/24 A2983 RMK T03200240 IEM_DS3505
ZGHA,2008-06-04 06:00,ZGHA 040600Z AUTO 31008KT 4SM 33/25 A2980 RMK T03300250 IEM_DS3505
ZGHA,2008-06-04 07:00,ZGHA 040700Z AUTO 30010KT 5SM 32/24 A2977 RMK T03200240 IEM_DS3505
ZGHA,2008-06-04 08:00,ZGHA 040800Z AUTO 30008KT 5SM 32/24 A2977 RMK T03200240 IEM_DS3505
ZGHA,2008-06-04 09:00,ZGHA 040900Z AUTO 30012KT 5SM 31/23 A2974 RMK T03100230 IEM_DS3505
ZGHA,2008-06-04 10:00,ZGHA 041000Z AUTO 30010KT 5SM 29/22 A2977 RMK T02900220 IEM_DS3505
ZGHA,2008-06-04 11:00,ZGHA 041100Z AUTO 30008KT 6SM 27/21 A2977 RMK T02700210 IEM_DS3505
ZGHA,2008-06-04 12:00,ZGHA 041200Z AUTO 6SM 26/20 A2980 RMK T02600200 IEM_DS3505
ZGHA,2008-06-04 13:00,ZGHA 041300Z AUTO 31006KT 6SM 25/21 A2980 RMK T02500210 IEM_DS3505
ZGHA,2008-06-04 14:00,ZGHA 041400Z AUTO 31004KT 6SM 25/20 A2983 RMK T02500200 IEM_DS3505
ZGHA,2008-06-04 15:00,ZGHA 041500Z AUTO 34004KT 6SM 24/20 A2983 RMK T02400200 IEM_DS3505
ZGHA,2008-06-04 16:00,ZGHA 041600Z AUTO 30006KT 6SM 24/20 A2983 RMK T02400200 IEM_DS3505
ZGHA,2008-06-04 17:00,ZGHA 041700Z AUTO 30004KT 6SM 23/20 A2983 RMK T02300200 IEM_DS3505
ZGHA,2008-06-04 18:00,ZGHA 041800Z AUTO 33004KT 6SM 23/20 A2980 RMK T02300200 IEM_DS3505
ZGHA,2008-06-04 19:00,ZGHA 041900Z AUTO 6SM 23/20 A2980 RMK T02300200 IEM_DS3505
ZGHA,2008-06-04 20:00,ZGHA 042000Z AUTO 34002KT 4SM 22/20 A2980 RMK T02200200 IEM_DS3505
ZGHA,2008-06-04 21:00,ZGHA 042100Z AUTO 2 1/2SM 22/20 A2980 RMK T02200200 IEM_DS3505
ZGHA,2008-06-04 22:00,ZGHA 042200Z AUTO 32004KT 3SM 22/20 A2980 RMK T02200200 IEM_DS3505
ZGHA,2008-06-04 23:00,ZGHA 042300Z AUTO 31004KT 3SM 23/21 A2983 RMK T02300210 IEM_DS3505
ZGHA,2008-06-05 00:00,ZGHA 050000Z AUTO 3SM 25/21 A2983 RMK T02500210 IEM_DS3505
ZGHA,2008-06-05 01:00,ZGHA 050100Z AUTO 4SM 26/21 A2983 RMK T02600210 IEM_DS3505
ZGHA,2008-06-05 02:00,ZGHA 050200Z AUTO 00000KT 6SM 28/21 A2983 RMK T02800210 IEM_DS3505
ZGHA,2008-06-05 03:00,ZGHA 050300Z AUTO 6SM 28/21 A2983 RMK T02800210 IEM_DS3505
ZGHA,2008-06-05 04:00,ZGHA 050400Z AUTO 33004KT 6SM 29/21 A2983 RMK T02900210 IEM_DS3505
ZGHA,2008-06-05 05:00,ZGHA 050500Z AUTO 32004KT 6SM 29/21 A2980 RMK T02900210 IEM_DS3505
ZGHA,2008-06-05 06:00,ZGHA 050600Z AUTO 29004KT 6SM 28/20 A2977 RMK T02800200 IEM_DS3505
ZGHA,2008-06-05 07:00,ZGHA 050700Z AUTO 36004KT 6SM 29/22 A2974 RMK T02900220 IEM_DS3505
ZGHA,2008-06-05 08:00,ZGHA 050800Z AUTO 03004KT 6SM 29/22 A2971 RMK T02900220 IEM_DS3505
ZGHA,2008-06-05 09:00,ZGHA 050900Z AUTO 00000KT 6SM 30/23 A2971 RMK T03000230 IEM_DS3505
ZGHA,2008-06-05 10:00,ZGHA 051000Z AUTO 6SM 29/23 A2971 RMK T02900230 IEM_DS3505
ZGHA,2008-06-05 11:00,ZGHA 051100Z AUTO 00000KT 4SM 28/23 A2971 RMK T02800230 IEM_DS3505
ZGHA,2008-06-05 12:00,ZGHA 051200Z AUTO 14002KT 2 1/2SM 26/23 A2974 RMK T02600230 IEM_DS3505
ZGHA,2008-06-05 13:00,ZGHA 051300Z AUTO 00000KT 2SM 25/23 A2974 RMK T02500230 IEM_DS3505
ZGHA,2008-06-05 14:00,ZGHA 051400Z AUTO 17002KT 1 1/2SM 24/23 A2974 RMK T02400230 IEM_DS3505
ZGHA,2008-06-05 15:00,ZGHA 051500Z AUTO 1 1/2SM 24/23 A2974 RMK T02400230 IEM_DS3505
ZGHA,2008-06-05 16:00,ZGHA 051600Z AUTO 00000KT 1 1/2SM 23/23 A2974 RMK T02300230 IEM_DS3505
ZGHA,2008-06-05 17:00,ZGHA 051700Z AUTO 00000KT 3SM 23/22 A2974 RMK T02300220 IEM_DS3505
ZGHA,2008-06-05 21:00,ZGHA 052100Z AUTO 33002KT 1 1/2SM 22/21 A2974 RMK T02200210 IEM_DS3505
ZGHA,2008-06-05 22:00,ZGHA 052200Z AUTO 35002KT 1 1/2SM 22/21 A2974 RMK T02200210 IEM_DS3505
ZGHA,2008-06-05 23:00,ZGHA 052300Z AUTO 36002KT 1 1/2SM 23/22 A2977 RMK T02300220 IEM_DS3505
ZGHA,2008-06-06 00:00,ZGHA 060000Z AUTO 3SM 26/23 A2977 RMK T02600230 IEM_DS3505
ZGHA,2008-06-06 01:00,ZGHA 060100Z AUTO 18004KT 6SM 28/23 A2977 RMK T02800230 IEM_DS3505
ZGHA,2008-06-06 02:00,ZGHA 060200Z AUTO 15004KT 6SM 31/22 A2977 RMK T03100220 IEM_DS3505
ZGHA,2008-06-06 03:00,ZGHA 060300Z AUTO 14004KT 6SM 32/22 A2974 RMK T03200220 IEM_DS3505
ZGHA,2008-06-06 04:00,ZGHA 060400Z AUTO 15006KT 6SM 33/23 A2974 RMK T03300230 IEM_DS3505
ZGHA,2008-06-06 05:00,ZGHA 060500Z AUTO 18006KT 6SM 34/23 A2971 RMK T03400230 IEM_DS3505
ZGHA,2008-06-06 06:00,ZGHA 060600Z AUTO 18006KT 6SM 35/23 A2971 RMK T03500230 IEM_DS3505
ZGHA,2008-06-06 07:00,ZGHA 060700Z AUTO 20008KT 6SM 36/21 A2968 RMK T03600210 IEM_DS3505
ZGHA,2008-06-06 08:00,ZGHA 060800Z AUTO 13010KT 7SM 29/20 A2971 RMK T02900200 IEM_DS3505
ZGHA,2008-06-06 09:00,ZGHA 060900Z AUTO 20008KT 7SM 28/22 A2971 RMK T02800220 IEM_DS3505
ZGHA,2008-06-06 10:00,ZGHA 061000Z AUTO 10004KT 6SM 28/23 A2971 RMK T02800230 IEM_DS3505
ZGHA,2008-06-06 11:00,ZGHA 061100Z AUTO 08004KT 6SM 27/21 A2971 RMK T02700210 IEM_DS3505
ZGHA,2008-06-06 12:00,ZGHA 061200Z AUTO 07006KT 6SM 26/22 A2974 RMK T02600220 IEM_DS3505
ZGHA,2008-06-06 13:00,ZGHA 061300Z AUTO 08006KT 6SM 26/23 A2974 RMK T02600230 IEM_DS3505
ZGHA,2008-06-06 14:00,ZGHA 061400Z AUTO 08006KT 6SM 25/22 A2977 RMK T02500220 IEM_DS3505
ZGHA,2008-06-06 15:00,ZGHA 061500Z AUTO 20004KT 6SM 24/22 A2977 RMK T02400220 IEM_DS3505
ZGHA,2008-06-06 16:00,ZGHA 061600Z AUTO 20002KT 6SM 24/22 A2977 RMK T02400220 IEM_DS3505
ZGHA,2008-06-06 17:00,ZGHA 061700Z AUTO 00000KT 4SM 23/22 A2977 RMK T02300220 IEM_DS3505
ZGHA,2008-06-06 18:00,ZGHA 061800Z AUTO 23002KT 3SM 22/21 A2974 RMK T02200210 IEM_DS3505
ZGHA,2008-06-06 20:00,ZGHA 062000Z AUTO 00000KT 6SM 22/22 A2974 RMK T02200220 IEM_DS3505
ZGHA,2008-06-06 21:00,ZGHA 062100Z AUTO 00000KT 6SM 22/21 A2977 RMK T02200210 IEM_DS3505
ZGHA,2008-06-06 22:00,ZGHA 062200Z AUTO 01002KT 6SM 22/21 A2977 RMK T02200210 IEM_DS3505
ZGHA,2008-06-06 23:00,ZGHA 062300Z AUTO 6SM 25/23 A2977 RMK T02500230 IEM_DS3505
ZGHA,2008-06-07 00:00,ZGHA 070000Z AUTO 07006KT 6SM 27/23 A2980 RMK T02700230 IEM_DS3505
ZGHA,2008-06-07 01:00,ZGHA 070100Z AUTO 08006KT 6SM 29/22 A2983 RMK T02900220 IEM_DS3505
ZGHA,2008-06-07 02:00,ZGHA 070200Z AUTO 6SM 30/22 A2983 RMK T03000220 IEM_DS3505
ZGHA,2008-06-07 03:00,ZGHA 070300Z AUTO 10004KT 6SM 30/22 A2983 RMK T03000220 IEM_DS3505
ZGHA,2008-06-07 04:00,ZGHA 070400Z AUTO 6SM 32/23 A2980 RMK T03200230 IEM_DS3505
ZGHA,2008-06-07 05:00,ZGHA 070500Z AUTO 6SM 32/22 A2980 RMK T03200220 IEM_DS3505
ZGHA,2008-06-07 06:00,ZGHA 070600Z AUTO 6SM 31/22 A2977 RMK T03100220 IEM_DS3505
ZGHA,2008-06-07 07:00,ZGHA 070700Z AUTO 25004KT 6SM 31/22 A2977 RMK T03100220 IEM_DS3505
ZGHA,2008-06-07 08:00,ZGHA 070800Z AUTO 31008KT 7SM 30/22 A2974 RMK T03000220 IEM_DS3505
ZGHA,2008-06-07 09:00,ZGHA 070900Z AUTO 6SM 32/24 A2974 RMK T03200240 IEM_DS3505
ZGHA,2008-06-07 10:00,ZGHA 071000Z AUTO 36004KT 6SM 30/23 A2974 RMK T03000230 IEM_DS3505
ZGHA,2008-06-07 11:00,ZGHA 071100Z AUTO 36004KT 6SM 29/23 A2974 RMK T02900230 IEM_DS3505
ZGHA,2008-06-07 12:00,ZGHA 071200Z AUTO 01004KT 5SM 27/23 A2977 RMK T02700230 IEM_DS3505
ZGHA,2008-06-07 13:00,ZGHA 071300Z AUTO 4SM 26/23 A2980 RMK T02600230 IEM_DS3505
ZGHA,2008-06-07 14:00,ZGHA 071400Z AUTO 36004KT 4SM 26/23 A2980 RMK T02600230 IEM_DS3505
ZGHA,2008-06-07 15:00,ZGHA 071500Z AUTO 3SM 25/23 A2980 RMK T02500230 IEM_DS3505
ZGHA,2008-06-07 16:00,ZGHA 071600Z AUTO 36002KT 2 1/2SM 24/22 A2980 RMK T02400220 IEM_DS3505
ZGHA,2008-06-07 18:00,ZGHA 071800Z AUTO 00000KT 1 1/2SM 24/23 A2977 RMK T02400230 IEM_DS3505
ZGHA,2008-06-07 19:00,ZGHA 071900Z AUTO 33002KT 1 1/4SM 24/23 A2977 RMK T02400230 IEM_DS3505
ZGHA,2008-06-07 20:00,ZGHA 072000Z AUTO 36004KT 1 1/2SM 24/23 A2974 RMK T02400230 IEM_DS3505
ZGHA,2008-06-07 21:00,ZGHA 072100Z AUTO 2SM 24/23 A2977 RMK T02400230 IEM_DS3505
ZGHA,2008-06-07 22:00,ZGHA 072200Z AUTO 00000KT 2SM 24/23 A2980 RMK T02400230 IEM_DS3505
ZGHA,2008-06-07 23:00,ZGHA 072300Z AUTO 1 1/2SM 24/23 A2977 RMK T02400230 IEM_DS3505
ZGHA,2008-06-08 00:00,ZGHA 080000Z AUTO 08004KT 2 1/2SM 25/24 A2980 RMK T02500240 IEM_DS3505
ZGHA,2008-06-08 01:00,ZGHA 080100Z AUTO 36002KT 2 1/2SM 25/24 A2980 RMK T02500240 IEM_DS3505
ZGHA,2008-06-08 02:00,ZGHA 080200Z AUTO 36004KT 3SM 26/24 A2980 RMK T02600240 IEM_DS3505
ZGHA,2008-06-08 03:00,ZGHA 080300Z AUTO 4SM 27/24 A2980 RMK T02700240 IEM_DS3505
ZGHA,2008-06-08 04:00,ZGHA 080400Z AUTO 08004KT 6SM 29/25 A2980 RMK T02900250 IEM_DS3505
ZGHA,2008-06-08 05:00,ZGHA 080500Z AUTO 6SM 29/24 A2977 RMK T02900240 IEM_DS3505
ZGHA,2008-06-08 06:00,ZGHA 080600Z AUTO 22004KT 7SM 29/25 A2977 RMK T02900250 IEM_DS3505
ZGHA,2008-06-08 07:00,ZGHA 080700Z AUTO 31004KT 7SM 28/25 A2974 RMK T02800250 IEM_DS3505
ZGHA,2008-06-08 08:00,ZGHA 080800Z AUTO 7SM 29/26 A2971 RMK T02900260 IEM_DS3505
ZGHA,2008-06-08 09:00,ZGHA 080900Z AUTO 00000KT 7SM 28/26 A2971 RMK T02800260 IEM_DS3505
ZGHA,2008-06-08 10:00,ZGHA 081000Z AUTO 7SM 28/25 A2971 RMK T02800250 IEM_DS3505
ZGHA,2008-06-08 11:00,ZGHA 081100Z AUTO 5SM 27/25 A2974 RMK T02700250 IEM_DS3505
ZGHA,2008-06-08 12:00,ZGHA 081200Z AUTO 2SM 27/25 A2974 RMK T02700250 IEM_DS3505
ZGHA,2008-06-08 13:00,ZGHA 081300Z AUTO 07004KT 2 1/2SM 25/24 A2974 RMK T02500240 IEM_DS3505
ZGHA,2008-06-08 14:00,ZGHA 081400Z AUTO 06004KT 2 1/2SM 25/24 A2977 RMK T02500240 IEM_DS3505
ZGHA,2008-06-08 15:00,ZGHA 081500Z AUTO 00000KT 2SM 24/24 A2977 RMK T02400240 IEM_DS3505
ZGHA,2008-06-08 16:00,ZGHA 081600Z AUTO 2SM 24/24 A2974 RMK T02400240 IEM_DS3505
ZGHA,2008-06-08 17:00,ZGHA 081700Z AUTO 00000KT 1SM 24/24 A2974 RMK T02400240 IEM_DS3505
ZGHA,2008-06-08 18:00,ZGHA 081800Z AUTO 1 1/2SM 24/24 A2974 RMK T02400240 IEM_DS3505
ZGHA,2008-06-08 19:00,ZGHA 081900Z AUTO 7SM 24/24 A2971 RMK T02400240 IEM_DS3505
ZGHA,2008-06-08 20:00,ZGHA 082000Z AUTO 21006KT 7SM 24/23 A2971 RMK T02400230 IEM_DS3505
ZGHA,2008-06-08 21:00,ZGHA 082100Z AUTO 31006KT 1 1/2SM 23/23 A2974 RMK T02300230 IEM_DS3505
ZGHA,2008-06-08 22:00,ZGHA 082200Z AUTO 30008KT 1 1/2SM 23/22 A2974 RMK T02300220 IEM_DS3505
ZGHA,2008-06-08 23:00,ZGHA 082300Z AUTO 30006KT 1 1/2SM 23/22 A2977 RMK T02300220 IEM_DS3505
ZGHA,2008-06-09 00:00,ZGHA 090000Z AUTO 31004KT 2SM 23/23 A2977 RMK T02300230 IEM_DS3505
ZGHA,2008-06-09 01:00,ZGHA 090100Z AUTO 30004KT 2SM 24/23 A2977 RMK T02400230 IEM_DS3505
ZGHA,2008-06-09 02:00,ZGHA 090200Z AUTO 31006KT 2SM 24/24 A2977 RMK T02400240 IEM_DS3505
ZGHA,2008-06-09 03:00,ZGHA 090300Z AUTO 30006KT 2SM 24/24 A2977 RMK T02400240 IEM_DS3505
ZGHA,2008-06-09 04:00,ZGHA 090400Z AUTO 27004KT 1 1/2SM 24/23 A2977 RMK T02400230 IEM_DS3505
ZGHA,2008-06-09 05:00,ZGHA 090500Z AUTO 22004KT 1SM 23/23 A2977 RMK T02300230 IEM_DS3505
ZGHA,2008-06-09 06:00,ZGHA 090600Z AUTO 1 1/2SM 24/24 A2974 RMK T02400240 IEM_DS3505
ZGHA,2008-06-09 07:00,ZGHA 090700Z AUTO 1 1/2SM 24/24 A2974 RMK T02400240 IEM_DS3505
ZGHA,2008-06-09 08:00,ZGHA 090800Z AUTO 30004KT 1 1/2SM 24/23 A2971 RMK T02400230 IEM_DS3505
ZGHA,2008-06-09 09:00,ZGHA 090900Z AUTO 30006KT 1 1/2SM 23/23 A2971 RMK T02300230 IEM_DS3505
ZGHA,2008-06-09 10:00,ZGHA 091000Z AUTO 31004KT 1SM 23/23 A2971 RMK T02300230 IEM_DS3505
ZGHA,2008-06-09 11:00,ZGHA 091100Z AUTO 31004KT 1 1/2SM 23/23 A2971 RMK T02300230 IEM_DS3505
ZGHA,2008-06-09 12:00,ZGHA 091200Z AUTO 30004KT 1 1/2SM 23/23 A2974 RMK T02300230 IEM_DS3505
ZGHA,2008-06-09 13:00,ZGHA 091300Z AUTO 30004KT 1 1/2SM 23/23 A2974 RMK T02300230 IEM_DS3505
ZGHA,2008-06-09 14:00,ZGHA 091400Z AUTO 1 1/2SM 23/23 A2974 RMK T02300230 IEM_DS3505
ZGHA,2008-06-09 15:00,ZGHA 091500Z AUTO 30004KT 1 1/2SM 23/22 A2974 RMK T02300220 IEM_DS3505
ZGHA,2008-06-09 16:00,ZGHA 091600Z AUTO 26004KT 2SM 23/22 A2974 RMK T02300220 IEM_DS3505
ZGHA,2008-06-09 17:00,ZGHA 091700Z AUTO 28004KT 2 1/2SM 23/22 A2971 RMK T02300220 IEM_DS3505
ZGHA,2008-06-09 18:00,ZGHA 091800Z AUTO 30004KT 2SM 22/22 A2971 RMK T02200220 IEM_DS3505
ZGHA,2008-06-09 19:00,ZGHA 091900Z AUTO 29004KT 1 1/2SM 23/22 A2968 RMK T02300220 IEM_DS3505
ZGHA,2008-06-09 20:00,ZGHA 092000Z AUTO 30004KT 1SM 22/22 A2968 RMK T02200220 IEM_DS3505
ZGHA,2008-06-09 21:00,ZGHA 092100Z AUTO 28004KT 1 1/2SM 22/22 A2968 RMK T02200220 IEM_DS3505
ZGHA,2008-06-09 22:00,ZGHA 092200Z AUTO 30004KT 2SM 22/22 A2968 RMK T02200220 IEM_DS3505
ZGHA,2008-06-09 23:00,ZGHA 092300Z AUTO 28004KT 2 1/2SM 23/22 A2971 RMK T02300220 IEM_DS3505
ZGHA,2008-06-10 00:00,ZGHA 100000Z AUTO 27006KT 2 1/2SM 23/22 A2971 RMK T02300220 IEM_DS3505
ZGHA,2008-06-10 01:00,ZGHA 100100Z AUTO 28008KT 4SM 23/23 A2974 RMK T02300230 IEM_DS3505
ZGHA,2008-06-10 02:00,ZGHA 100200Z AUTO 30006KT 7SM 24/24 A2971 RMK T02400240 IEM_DS3505
ZGHA,2008-06-10 03:00,ZGHA 100300Z AUTO 28006KT 5SM 24/23 A2974 RMK T02400230 IEM_DS3505
ZGHA,2008-06-10 04:00,ZGHA 100400Z AUTO 32004KT 5SM 24/24 A2971 RMK T02400240 IEM_DS3505
ZGHA,2008-06-10 05:00,ZGHA 100500Z AUTO 29004KT 5SM 24/23 A2971 RMK T02400230 IEM_DS3505
ZGHA,2008-06-10 06:00,ZGHA 100600Z AUTO 30006KT 7SM 26/24 A2971 RMK T02600240 IEM_DS3505
ZGHA,2008-06-10 07:00,ZGHA 100700Z AUTO 32006KT 7SM 25/23 A2968 RMK T02500230 IEM_DS3505
ZGHA,2008-06-10 08:00,ZGHA 100800Z AUTO 28008KT 7SM 25/23 A2968 RMK T02500230 IEM_DS3505
ZGHA,2008-06-10 09:00,ZGHA 100900Z AUTO 32006KT 7SM 25/23 A2968 RMK T02500230 IEM_DS3505
ZGHA,2008-06-10 10:00,ZGHA 101000Z AUTO 31006KT 7SM 24/23 A2968 RMK T02400230 IEM_DS3505
ZGHA,2008-06-10 11:00,ZGHA 101100Z AUTO 00000KT 6SM 25/23 A2971 RMK T02500230 IEM_DS3505
ZGHA,2008-06-10 12:00,ZGHA 101200Z AUTO 6SM 24/23 A2971 RMK T02400230 IEM_DS3505
ZGHA,2008-06-10 13:00,ZGHA 101300Z AUTO 31004KT 6SM 24/23 A2974 RMK T02400230 IEM_DS3505
ZGHA,2008-06-10 14:00,ZGHA 101400Z AUTO 31006KT 6SM 24/23 A2974 RMK T02400230 IEM_DS3505
ZGHA,2008-06-10 15:00,ZGHA 101500Z AUTO 29004KT 6SM 23/23 A2977 RMK T02300230 IEM_DS3505
ZGHA,2008-06-10 16:00,ZGHA 101600Z AUTO 29004KT 6SM 23/22 A2977 RMK T02300220 IEM_DS3505
ZGHA,2008-06-10 17:00,ZGHA 101700Z AUTO 22002KT 2 1/2SM 23/22 A2977 RMK T02300220 IEM_DS3505
ZGHA,2008-06-10 21:00,ZGHA 102100Z AUTO 23004KT 3SM 22/22 A2977 RMK T02200220 IEM_DS3505
ZGHA,2008-06-10 22:00,ZGHA 102200Z AUTO 24004KT 3SM 22/22 A2980 RMK T02200220 IEM_DS3505
ZGHA,2008-06-10 23:00,ZGHA 102300Z AUTO 26004KT 2 1/2SM 23/23 A2980 RMK T02300230 IEM_DS3505
ZGHA,2008-06-11 00:00,ZGHA 110000Z AUTO 26004KT 2SM 24/23 A2983 RMK T02400230 IEM_DS3505
ZGHA,2008-06-11 01:00,ZGHA 110100Z AUTO 28006KT 5SM 25/24 A2983 RMK T02500240 IEM_DS3505
ZGHA,2008-06-11 02:00,ZGHA 110200Z AUTO 7SM 26/22 A2983 RMK T02600220 IEM_DS3505
ZGHA,2008-06-11 03:00,ZGHA 110300Z AUTO 31008KT 7SM 28/24 A2983 RMK T02800240 IEM_DS3505
ZGHA,2008-06-11 04:00,ZGHA 110400Z AUTO 28008KT 7SM 27/23 A2983 RMK T02700230 IEM_DS3505
ZGHA,2008-06-11 05:00,ZGHA 110500Z AUTO 32006KT 7SM 29/23 A2980 RMK T02900230 IEM_DS3505
ZGHA,2008-06-11 06:00,ZGHA 110600Z AUTO 29006KT 7SM 30/23 A2980 RMK T03000230 IEM_DS3505
ZGHA,2008-06-11 07:00,ZGHA 110700Z AUTO 31008KT 7SM 29/24 A2977 RMK T02900240 IEM_DS3505
ZGHA,2008-06-11 08:00,ZGHA 110800Z AUTO 30008KT 7SM 29/22 A2974 RMK T02900220 IEM_DS3505
ZGHA,2008-06-11 09:00,ZGHA 110900Z AUTO 30008KT 6SM 29/22 A2974 RMK T02900220 IEM_DS3505
ZGHA,2008-06-11 10:00,ZGHA 111000Z AUTO 32008KT 6SM 28/22 A2974 RMK T02800220 IEM_DS3505
ZGHA,2008-06-11 11:00,ZGHA 111100Z AUTO 33006KT 6SM 26/21 A2974 RMK T02600210 IEM_DS3505
ZGHA,2008-06-11 12:00,ZGHA 111200Z AUTO 00000KT 6SM 25/22 A2977 RMK T02500220 IEM_DS3505
ZGHA,2008-06-11 13:00,ZGHA 111300Z AUTO 4SM 24/22 A2977 RMK T02400220 IEM_DS3505
ZGHA,2008-06-11 14:00,ZGHA 111400Z AUTO 4SM 24/22 A2980 RMK T02400220 IEM_DS3505
ZGHA,2008-06-11 15:00,ZGHA 111500Z AUTO 4SM 24/23 A2983 RMK T02400230 IEM_DS3505
ZGHA,2008-06-11 16:00,ZGHA 111600Z AUTO 2SM 23/22 A2980 RMK T02300220 IEM_DS3505
ZGHA,2008-06-11 18:00,ZGHA 111800Z AUTO 1SM 23/22 A2980 RMK T02300220 IEM_DS3505
ZGHA,2008-06-11 21:00,ZGHA 112100Z AUTO 1 1/2SM 22/22 A2974 RMK T02200220 IEM_DS3505
ZGHA,2008-06-11 22:00,ZGHA 112200Z AUTO 35002KT 1 1/2SM 22/22 A2977 RMK T02200220 IEM_DS3505
ZGHA,2008-06-12 00:00,ZGHA 120000Z AUTO 2SM 25/24 A2977 RMK T02500240 IEM_DS3505
ZGHA,2008-06-12 01:00,ZGHA 120100Z AUTO 2 1/2SM 27/24 A2977 RMK T02700240 IEM_DS3505
ZGHA,2008-06-12 02:00,ZGHA 120200Z AUTO 08004KT 4SM 28/23 A2977 RMK T02800230 IEM_DS3505
ZGHA,2008-06-12 03:00,ZGHA 120300Z AUTO 5SM 28/23 A2977 RMK T02800230 IEM_DS3505
ZGHA,2008-06-12 04:00,ZGHA 120400Z AUTO 7SM 29/21 A2977 RMK T02900210 IEM_DS3505
ZGHA,2008-06-12 05:00,ZGHA 120500Z AUTO 16004KT 7SM 31/23 A2974 RMK T03100230 IEM_DS3505
ZGHA,2008-06-12 06:00,ZGHA 120600Z AUTO 19006KT 7SM 29/23 A2974 RMK T02900230 IEM_DS3505
ZGHA,2008-06-12 07:00,ZGHA 120700Z AUTO 18004KT 5SM 29/24 A2971 RMK T02900240 IEM_DS3505
ZGHA,2008-06-12 08:00,ZGHA 120800Z AUTO 20006KT 5SM 29/23 A2968 RMK T02900230 IEM_DS3505
ZGHA,2008-06-12 09:00,ZGHA 120900Z AUTO 22006KT 4SM 29/23 A2968 RMK T02900230 IEM_DS3505
ZGHA,2008-06-12 10:00,ZGHA 121000Z AUTO 19004KT 4SM 28/23 A2968 RMK T02800230 IEM_DS3505
ZGHA,2008-06-12 11:00,ZGHA 121100Z AUTO 2 1/2SM 27/24 A2968 RMK T02700240 IEM_DS3505
ZGHA,2008-06-12 12:00,ZGHA 121200Z AUTO 4SM 26/23 A2968 RMK T02600230 IEM_DS3505
ZGHA,2008-06-12 13:00,ZGHA 121300Z AUTO 4SM 25/23 A2971 RMK T02500230 IEM_DS3505
ZGHA,2008-06-12 14:00,ZGHA 121400Z AUTO 18004KT 4SM 25/23 A2971 RMK T02500230 IEM_DS3505
ZGHA,2008-06-12 15:00,ZGHA 121500Z AUTO 20004KT 3SM 24/23 A2974 RMK T02400230 IEM_DS3505
ZGHA,2008-06-12 16:00,ZGHA 121600Z AUTO 2 1/2SM 24/23 A2971 RMK T02400230 IEM_DS3505
ZGHA,2008-06-12 17:00,ZGHA 121700Z AUTO 2SM 24/23 A2968 RMK T02400230 IEM_DS3505
ZGHA,2008-06-12 18:00,ZGHA 121800Z AUTO 1SM 23/23 A2968 RMK T02300230 IEM_DS3505
ZGHA,2008-06-12 19:00,ZGHA 121900Z AUTO 17004KT 2SM 23/23 A2968 RMK T02300230 IEM_DS3505
ZGHA,2008-06-12 21:00,ZGHA 122100Z AUTO 4SM 22/22 A2965 RMK T02200220 IEM_DS3505
ZGHA,2008-06-12 22:00,ZGHA 122200Z AUTO 4SM 22/22 A2965 RMK T02200220 IEM_DS3505
ZGHA,2008-06-12 23:00,ZGHA 122300Z AUTO 4SM 22/22 A2968 RMK T02200220 IEM_DS3505
ZGHA,2008-06-13 00:00,ZGHA 130000Z AUTO 4SM 22/22 A2968 RMK T02200220 IEM_DS3505
ZGHA,2008-06-13 01:00,ZGHA 130100Z AUTO 4SM 23/23 A2971 RMK T02300230 IEM_DS3505
ZGHA,2008-06-13 02:00,ZGHA 130200Z AUTO 01004KT 5SM 25/24 A2968 RMK T02500240 IEM_DS3505
ZGHA,2008-06-13 03:00,ZGHA 130300Z AUTO 7SM 27/25 A2968 RMK T02700250 IEM_DS3505
ZGHA,2008-06-13 04:00,ZGHA 130400Z AUTO 7SM 27/23 A2965 RMK T02700230 IEM_DS3505
ZGHA,2008-06-13 05:00,ZGHA 130500Z AUTO 7SM 28/23 A2965 RMK T02800230 IEM_DS3505
ZGHA,2008-06-13 06:00,ZGHA 130600Z AUTO 7SM 29/23 A2962 RMK T02900230 IEM_DS3505
ZGHA,2008-06-13 07:00,ZGHA 130700Z AUTO 07006KT 7SM 30/23 A2959 RMK T03000230 IEM_DS3505
ZGHA,2008-06-13 08:00,ZGHA 130800Z AUTO 08004KT 7SM 30/23 A2959 RMK T03000230 IEM_DS3505
ZGHA,2008-06-13 09:00,ZGHA 130900Z AUTO 08006KT 7SM 31/22 A2959 RMK T03100220 IEM_DS3505
ZGHA,2008-06-13 10:00,ZGHA 131000Z AUTO 7SM 28/24 A2956 RMK T02800240 IEM_DS3505
ZGHA,2008-06-13 11:00,ZGHA 131100Z AUTO 7SM 27/23 A2959 RMK T02700230 IEM_DS3505
ZGHA,2008-06-13 12:00,ZGHA 131200Z AUTO 35004KT 4SM 25/22 A2962 RMK T02500220 IEM_DS3505
ZGHA,2008-06-13 13:00,ZGHA 131300Z AUTO 00000KT 5SM 24/23 A2962 RMK T02400230 IEM_DS3505
ZGHA,2008-06-13 14:00,ZGHA 131400Z AUTO 00000KT 4SM 24/23 A2965 RMK T02400230 IEM_DS3505
ZGHA,2008-06-13 15:00,ZGHA 131500Z AUTO 00000KT 3SM 23/23 A2965 RMK T02300230 IEM_DS3505
ZGHA,2008-06-13 16:00,ZGHA 131600Z AUTO 00000KT 2 1/2SM 23/23 A2965 RMK T02300230 IEM_DS3505
ZGHA,2008-06-13 17:00,ZGHA 131700Z AUTO 00000KT 2SM 23/22 A2965 RMK T02300220 IEM_DS3505
ZGHA,2008-06-13 18:00,ZGHA 131800Z AUTO 00000KT 1 1/4SM 23/23 A2965 RMK T02300230 IEM_DS3505
ZGHA,2008-06-13 19:00,ZGHA 131900Z AUTO 1 1/2SM 23/23 A2965 RMK T02300230 IEM_DS3505
ZGHA,2008-06-13 20:00,ZGHA 132000Z AUTO 28004KT 1 1/2SM 23/23 A2965 RMK T02300230 IEM_DS3505
ZGHA,2008-06-13 21:00,ZGHA 132100Z AUTO 2SM 22/22 A2968 RMK T02200220 IEM_DS3505
ZGHA,2008-06-13 22:00,ZGHA 132200Z AUTO 34002KT 1 1/2SM 22/22 A2968 RMK T02200220 IEM_DS3505
ZGHA,2008-06-13 23:00,ZGHA 132300Z AUTO 00000KT 2SM 23/22 A2968 RMK T02300220 IEM_DS3505
ZGHA,2008-06-14 00:00,ZGHA 140000Z AUTO 00000KT 3SM 24/24 A2971 RMK T02400240 IEM_DS3505
ZGHA,2008-06-14 01:00,ZGHA 140100Z AUTO 4SM 25/23 A2971 RMK T02500230 IEM_DS3505
ZGHA,2008-06-14 02:00,ZGHA 140200Z AUTO 35006KT 4SM 27/22 A2974 RMK T02700220 IEM_DS3505
ZGHA,2008-06-14 03:00,ZGHA 140300Z AUTO 01004KT 7SM 28/23 A2974 RMK T02800230 IEM_DS3505
ZGHA,2008-06-14 04:00,ZGHA 140400Z AUTO 36006KT 7SM 30/24 A2971 RMK T03000240 IEM_DS3505
ZGHA,2008-06-14 05:00,ZGHA 140500Z AUTO 01004KT 7SM 31/23 A2971 RMK T03100230 IEM_DS3505
ZGHA,2008-06-14 06:00,ZGHA 140600Z AUTO 34008KT 7SM 32/22 A2968 RMK T03200220 IEM_DS3505
ZGHA,2008-06-14 07:00,ZGHA 140700Z AUTO 34006KT 7SM 33/23 A2968 RMK T03300230 IEM_DS3505
ZGHA,2008-06-14 08:00,ZGHA 140800Z AUTO 34010KT 6SM 33/22 A2965 RMK T03300220 IEM_DS3505
ZGHA,2008-06-14 09:00,ZGHA 140900Z AUTO 34010KT 6SM 31/22 A2965 RMK T03100220 IEM_DS3505
ZGHA,2008-06-14 10:00,ZGHA 141000Z AUTO 35010KT 6SM 31/22 A2965 RMK T03100220 IEM_DS3505
ZGHA,2008-06-14 11:00,ZGHA 141100Z AUTO 34008KT 6SM 29/23 A2968 RMK T02900230 IEM_DS3505
ZGHA,2008-06-14 12:00,ZGHA 141200Z AUTO 34004KT 4SM 28/23 A2971 RMK T02800230 IEM_DS3505
ZGHA,2008-06-14 13:00,ZGHA 141300Z AUTO 32004KT 3SM 27/23 A2971 RMK T02700230 IEM_DS3505
ZGHA,2008-06-14 14:00,ZGHA 141400Z AUTO 36004KT 3SM 26/23 A2974 RMK T02600230 IEM_DS3505
ZGHA,2008-06-14 15:00,ZGHA 141500Z AUTO 2 1/2SM 25/23 A2974 RMK T02500230 IEM_DS3505
ZGHA,2008-06-14 16:00,ZGHA 141600Z AUTO 00000KT 2 1/2SM 24/23 A2974 RMK T02400230 IEM_DS3505
ZGHA,2008-06-14 17:00,ZGHA 141700Z AUTO 01004KT 3SM 24/23 A2971 RMK T02400230 IEM_DS3505
ZGHA,2008-06-14 18:00,ZGHA 141800Z AUTO 2 1/2SM 23/22 A2971 RMK T02300220 IEM_DS3505
ZGHA,2008-06-14 19:00,ZGHA 141900Z AUTO 00000KT 3SM 23/22 A2971 RMK T02300220 IEM_DS3505
ZGHA,2008-06-14 21:00,ZGHA 142100Z AUTO 36002KT 1 1/2SM 23/22 A2974 RMK T02300220 IEM_DS3505
ZGHA,2008-06-14 22:00,ZGHA 142200Z AUTO 1 1/2SM 23/22 A2974 RMK T02300220 IEM_DS3505
ZGHA,2008-06-14 23:00,ZGHA 142300Z AUTO 1 1/2SM 24/23 A2974 RMK T02400230 IEM_DS3505
ZGHA,2008-06-15 00:00,ZGHA 150000Z AUTO 2SM 24/23 A2977 RMK T02400230 IEM_DS3505
ZGHA,2008-06-15 01:00,ZGHA 150100Z AUTO 4SM 27/24 A2977 RMK T02700240 IEM_DS3505
ZGHA,2008-06-15 02:00,ZGHA 150200Z AUTO 00000KT 6SM 29/24 A2977 RMK T02900240 IEM_DS3505
ZGHA,2008-06-15 03:00,ZGHA 150300Z AUTO 6SM 29/24 A2977 RMK T02900240 IEM_DS3505
ZGHA,2008-06-15 04:00,ZGHA 150400Z AUTO 02004KT 6SM 30/23 A2977 RMK T03000230 IEM_DS3505
ZGHA,2008-06-15 05:00,ZGHA 150500Z AUTO 31008KT 7SM 32/23 A2974 RMK T03200230 IEM_DS3505
ZGHA,2008-06-15 06:00,ZGHA 150600Z AUTO 36006KT 7SM 32/22 A2971 RMK T03200220 IEM_DS3505
ZGHA,2008-06-15 07:00,ZGHA 150700Z AUTO 7SM 32/24 A2971 RMK T03200240 IEM_DS3505
ZGHA,2008-06-15 08:00,ZGHA 150800Z AUTO 35008KT 6SM 32/23 A2968 RMK T03200230 IEM_DS3505
ZGHA,2008-06-15 09:00,ZGHA 150900Z AUTO 35008KT 6SM 31/23 A2968 RMK T03100230 IEM_DS3505
ZGHA,2008-06-15 10:00,ZGHA 151000Z AUTO 34008KT 6SM 29/22 A2968 RMK T02900220 IEM_DS3505
ZGHA,2008-06-15 11:00,ZGHA 151100Z AUTO 34008KT 6SM 28/23 A2971 RMK T02800230 IEM_DS3505
ZGHA,2008-06-15 12:00,ZGHA 151200Z AUTO 34008KT 6SM 27/23 A2971 RMK T02700230 IEM_DS3505
ZGHA,2008-06-15 13:00,ZGHA 151300Z AUTO 36006KT 6SM 26/23 A2971 RMK T02600230 IEM_DS3505
ZGHA,2008-06-15 14:00,ZGHA 151400Z AUTO 6SM 25/22 A2977 RMK T02500220 IEM_DS3505
ZGHA,2008-06-15 15:00,ZGHA 151500Z AUTO 01004KT 4SM 25/22 A2977 RMK T02500220 IEM_DS3505
ZGHA,2008-06-15 16:00,ZGHA 151600Z AUTO 34004KT 4SM 25/22 A2977 RMK T02500220 IEM_DS3505
ZGHA,2008-06-15 17:00,ZGHA 151700Z AUTO 4SM 25/22 A2974 RMK T02500220 IEM_DS3505
ZGHA,2008-06-15 18:00,ZGHA 151800Z AUTO 36004KT 4SM 24/22 A2974 RMK T02400220 IEM_DS3505
ZGHA,2008-06-15 19:00,ZGHA 151900Z AUTO 34004KT 3SM 24/22 A2974 RMK T02400220 IEM_DS3505
ZGHA,2008-06-15 21:00,ZGHA 152100Z AUTO 2 1/2SM 23/22 A2974 RMK T02300220 IEM_DS3505
ZGHA,2008-06-15 22:00,ZGHA 152200Z AUTO 01002KT 2SM 23/22 A2974 RMK T02300220 IEM_DS3505
ZGHA,2008-06-15 23:00,ZGHA 152300Z AUTO 2SM 23/22 A2974 RMK T02300220 IEM_DS3505
ZGHA,2008-06-16 00:00,ZGHA 160000Z AUTO 2SM 23/22 A2974 RMK T02300220 IEM_DS3505
ZGHA,2008-06-16 01:00,ZGHA 160100Z AUTO 01004KT 2 1/2SM 24/23 A2974 RMK T02400230 IEM_DS3505
ZGHA,2008-06-16 02:00,ZGHA 160200Z AUTO 33004KT 3SM 24/23 A2977 RMK T02400230 IEM_DS3505
ZGHA,2008-06-16 03:00,ZGHA 160300Z AUTO 31006KT 3SM 24/23 A2977 RMK T02400230 IEM_DS3505
ZGHA,2008-06-16 04:00,ZGHA 160400Z AUTO 00000KT 2SM 25/23 A2974 RMK T02500230 IEM_DS3505
ZGHA,2008-06-16 05:00,ZGHA 160500Z AUTO 33006KT 1 1/4SM 24/23 A2977 RMK T02400230 IEM_DS3505
ZGHA,2008-06-16 06:00,ZGHA 160600Z AUTO 31004KT 1SM 23/23 A2974 RMK T02300230 IEM_DS3505
ZGHA,2008-06-16 07:00,ZGHA 160700Z AUTO 33008KT 1 1/2SM 23/22 A2974 RMK T02300220 IEM_DS3505
ZGHA,2008-06-16 08:00,ZGHA 160800Z AUTO 35006KT 2 1/2SM 23/23 A2971 RMK T02300230 IEM_DS3505
ZGHA,2008-06-16 09:00,ZGHA 160900Z AUTO 01004KT 1 1/2SM 23/23 A2971 RMK T02300230 IEM_DS3505
ZGHA,2008-06-16 10:00,ZGHA 161000Z AUTO 01004KT 2SM 24/23 A2971 RMK T02400230 IEM_DS3505
ZGHA,2008-06-16 11:00,ZGHA 161100Z AUTO 2SM 24/23 A2971 RMK T02400230 IEM_DS3505
ZGHA,2008-06-16 12:00,ZGHA 161200Z AUTO 1 1/2SM 24/23 A2974 RMK T02400230 IEM_DS3505
ZGHA,2008-06-16 13:00,ZGHA 161300Z AUTO 1 1/2SM 23/23 A2974 RMK T02300230 IEM_DS3505
ZGHA,2008-06-16 14:00,ZGHA 161400Z AUTO 34006KT 1 1/2SM 23/23 A2977 RMK T02300230 IEM_DS3505
ZGHA,2008-06-16 15:00,ZGHA 161500Z AUTO 1 1/2SM 23/23 A2977 RMK T02300230 IEM_DS3505
ZGHA,2008-06-16 16:00,ZGHA 161600Z AUTO 1 1/2SM 23/22 A2974 RMK T02300220 IEM_DS3505
ZGHA,2008-06-16 17:00,ZGHA 161700Z AUTO 36004KT 1 1/2SM 22/22 A2974 RMK T02200220 IEM_DS3505
ZGHA,2008-06-16 19:00,ZGHA 161900Z AUTO 01004KT 2SM 22/22 A2971 RMK T02200220 IEM_DS3505
ZGHA,2008-06-16 20:00,ZGHA 162000Z AUTO 01004KT 3SM 22/22 A2971 RMK T02200220 IEM_DS3505
ZGHA,2008-06-16 21:00,ZGHA 162100Z AUTO 01004KT 1 1/2SM 22/22 A2971 RMK T02200220 IEM_DS3505
ZGHA,2008-06-16 22:00,ZGHA 162200Z AUTO 35006KT 1SM 22/22 A2971 RMK T02200220 IEM_DS3505
ZGHA,2008-06-16 23:00,ZGHA 162300Z AUTO 36008KT 1 1/2SM 22/21 A2974 RMK T02200210 IEM_DS3505
ZGHA,2008-06-17 00:00,ZGHA 170000Z AUTO 02004KT 2 1/2SM 21/21 A2974 RMK T02100210 IEM_DS3505
ZGHA,2008-06-17 01:00,ZGHA 170100Z AUTO 35006KT 3SM 22/21 A2977 RMK T02200210 IEM_DS3505
ZGHA,2008-06-17 02:00,ZGHA 170200Z AUTO 36006KT 3SM 21/ A2977 RMK IEM_DS3505
ZGHA,2008-06-17 03:00,ZGHA 170300Z AUTO 35008KT 4SM 22/22 A2977 RMK T02200220 IEM_DS3505
ZGHA,2008-06-17 04:00,ZGHA 170400Z AUTO 36008KT 2 1/2SM 22/22 A2977 RMK T02200220 IEM_DS3505
ZGHA,2008-06-17 05:00,ZGHA 170500Z AUTO 01008KT 6SM 22/21 A2974 RMK T02200210 IEM_DS3505
ZGHA,2008-06-17 06:00,ZGHA 170600Z AUTO 36010KT 7SM 22/22 A2974 RMK T02200220 IEM_DS3505
ZGHA,2008-06-17 07:00,ZGHA 170700Z AUTO 36010KT 7SM 22/21 A2974 RMK T02200210 IEM_DS3505
ZGHA,2008-06-17 08:00,ZGHA 170800Z AUTO 36008KT 7SM 22/20 A2974 RMK T02200200 IEM_DS3505
ZGHA,2008-06-17 09:00,ZGHA 170900Z AUTO 02006KT 7SM 21/20 A2971 RMK T02100200 IEM_DS3505
ZGHA,2008-06-17 10:00,ZGHA 171000Z AUTO 36006KT 7SM 20/20 A2971 RMK T02000200 IEM_DS3505
ZGHA,2008-06-17 11:00,ZGHA 171100Z AUTO 35006KT 7SM 20/20 A2974 RMK T02000200 IEM_DS3505
ZGHA,2008-06-17 12:00,ZGHA 171200Z AUTO 34004KT 7SM 20/20 A2974 RMK T02000200 IEM_DS3505
ZGHA,2008-06-17 13:00,ZGHA 171300Z AUTO 33004KT 7SM 20/20 A2974 RMK T02000200 IEM_DS3505
ZGHA,2008-06-17 14:00,ZGHA 171400Z AUTO 00000KT 5SM 20/20 A2977 RMK T02000200 IEM_DS3505
ZGHA,2008-06-17 15:00,ZGHA 171500Z AUTO 3SM 20/20 A2977 RMK T02000200 IEM_DS3505
ZGHA,2008-06-17 16:00,ZGHA 171600Z AUTO 36004KT 3SM 20/20 A2977 RMK T02000200 IEM_DS3505
ZGHA,2008-06-17 17:00,ZGHA 171700Z AUTO 2SM 20/20 A2977 RMK T02000200 IEM_DS3505
ZGHA,2008-06-17 18:00,ZGHA 171800Z AUTO 2SM 20/20 A2977 RMK T02000200 IEM_DS3505
ZGHA,2008-06-17 19:00,ZGHA 171900Z AUTO 01004KT 1 1/4SM 20/20 A2974 RMK T02000200 IEM_DS3505
ZGHA,2008-06-17 20:00,ZGHA 172000Z AUTO 1 1/4SM 20/20 A2974 RMK T02000200 IEM_DS3505
ZGHA,2008-06-17 21:00,ZGHA 172100Z AUTO 02004KT 1 1/2SM 20/19 A2977 RMK T02000190 IEM_DS3505
ZGHA,2008-06-17 22:00,ZGHA 172200Z AUTO 2SM 19/19 A2977 RMK T01900190 IEM_DS3505
ZGHA,2008-06-17 23:00,ZGHA 172300Z AUTO 36004KT 2SM 20/20 A2980 RMK T02000200 IEM_DS3505
ZGHA,2008-06-18 00:00,ZGHA 180000Z AUTO 36004KT 3SM 21/21 A2980 RMK T02100210 IEM_DS3505
ZGHA,2008-06-18 01:00,ZGHA 180100Z AUTO 36004KT 5SM 21/21 A2980 RMK T02100210 IEM_DS3505
ZGHA,2008-06-18 02:00,ZGHA 180200Z AUTO 7SM 22/21 A2983 RMK T02200210 IEM_DS3505
ZGHA,2008-06-18 03:00,ZGHA 180300Z AUTO 7SM 25/22 A2980 RMK T02500220 IEM_DS3505
ZGHA,2008-06-18 04:00,ZGHA 180400Z AUTO 11004KT 7SM 25/21 A2980 RMK T02500210 IEM_DS3505
ZGHA,2008-06-18 06:00,ZGHA 180600Z AUTO 7SM 26/22 A2977 RMK T02600220 IEM_DS3505
ZGHA,2008-06-18 07:00,ZGHA 180700Z AUTO 17006KT 7SM 26/22 A2974 RMK T02600220 IEM_DS3505
ZGHA,2008-06-18 08:00,ZGHA 180800Z AUTO 18004KT 7SM 26/22 A2974 RMK T02600220 IEM_DS3505
ZGHA,2008-06-18 09:00,ZGHA 180900Z AUTO 7SM 26/22 A2971 RMK T02600220 IEM_DS3505
ZGHA,2008-06-18 10:00,ZGHA 181000Z AUTO 7SM 26/22 A2971 RMK T02600220 IEM_DS3505
ZGHA,2008-06-18 11:00,ZGHA 181100Z AUTO 7SM 25/22 A2974 RMK T02500220 IEM_DS3505
ZGHA,2008-06-18 12:00,ZGHA 181200Z AUTO 7SM 25/22 A2974 RMK T02500220 IEM_DS3505
ZGHA,2008-06-18 13:00,ZGHA 181300Z AUTO 7SM 25/22 A2977 RMK T02500220 IEM_DS3505
ZGHA,2008-06-18 14:00,ZGHA 181400Z AUTO 7SM 24/22 A2977 RMK T02400220 IEM_DS3505
ZGHA,2008-06-18 15:00,ZGHA 181500Z AUTO 00000KT 7SM 24/22 A2977 RMK T02400220 IEM_DS3505
ZGHA,2008-06-18 16:00,ZGHA 181600Z AUTO 00000KT 7SM 23/22 A2977 RMK T02300220 IEM_DS3505
ZGHA,2008-06-18 17:00,ZGHA 181700Z AUTO 7SM 23/22 A2977 RMK T02300220 IEM_DS3505
ZGHA,2008-06-18 18:00,ZGHA 181800Z AUTO 7SM 23/22 A2977 RMK T02300220 IEM_DS3505
ZGHA,2008-06-18 19:00,ZGHA 181900Z AUTO 00000KT 7SM 23/22 A2974 RMK T02300220 IEM_DS3505
ZGHA,2008-06-18 20:00,ZGHA 182000Z AUTO 00000KT 7SM 23/22 A2974 RMK T02300220 IEM_DS3505
ZGHA,2008-06-18 21:00,ZGHA 182100Z AUTO 00000KT 7SM 23/22 A2977 RMK T02300220 IEM_DS3505
ZGHA,2008-06-18 22:00,ZGHA 182200Z AUTO 00000KT 4SM 22/22 A2974 RMK T02200220 IEM_DS3505
ZGHA,2008-06-18 23:00,ZGHA 182300Z AUTO 00000KT 4SM 23/22 A2977 RMK T02300220 IEM_DS3505
ZGHA,2008-06-19 00:00,ZGHA 190000Z AUTO 00000KT 4SM 24/23 A2977 RMK T02400230 IEM_DS3505
ZGHA,2008-06-19 01:00,ZGHA 190100Z AUTO 14004KT 7SM 25/23 A2977 RMK T02500230 IEM_DS3505
ZGHA,2008-06-19 02:00,ZGHA 190200Z AUTO 7SM 24/23 A2977 RMK T02400230 IEM_DS3505
ZGHA,2008-06-19 03:00,ZGHA 190300Z AUTO 7SM 26/25 A2977 RMK T02600250 IEM_DS3505
ZGHA,2008-06-19 04:00,ZGHA 190400Z AUTO 17006KT 6SM 28/25 A2974 RMK T02800250 IEM_DS3505
ZGHA,2008-06-19 05:00,ZGHA 190500Z AUTO 20006KT 7SM 27/25 A2974 RMK T02700250 IEM_DS3505
ZGHA,2008-06-19 06:00,ZGHA 190600Z AUTO 7SM 28/25 A2974 RMK T02800250 IEM_DS3505
ZGHA,2008-06-19 07:00,ZGHA 190700Z AUTO 13004KT 7SM 29/25 A2971 RMK T02900250 IEM_DS3505
ZGHA,2008-06-19 08:00,ZGHA 190800Z AUTO 17004KT 7SM 29/26 A2968 RMK T02900260 IEM_DS3505
ZGHA,2008-06-19 09:00,ZGHA 190900Z AUTO 6SM 29/26 A2968 RMK T02900260 IEM_DS3505
ZGHA,2008-06-19 10:00,ZGHA 191000Z AUTO 14004KT 6SM 29/27 A2968 RMK T02900270 IEM_DS3505
ZGHA,2008-06-19 11:00,ZGHA 191100Z AUTO 00000KT 6SM 29/27 A2968 RMK T02900270 IEM_DS3505
ZGHA,2008-06-19 12:00,ZGHA 191200Z AUTO 6SM 27/26 A2968 RMK T02700260 IEM_DS3505
ZGHA,2008-06-19 13:00,ZGHA 191300Z AUTO 6SM 27/26 A2968 RMK T02700260 IEM_DS3505
ZGHA,2008-06-19 14:00,ZGHA 191400Z AUTO 6SM 26/25 A2971 RMK T02600250 IEM_DS3505
ZGHA,2008-06-19 15:00,ZGHA 191500Z AUTO 6SM 26/25 A2971 RMK T02600250 IEM_DS3505
ZGHA,2008-06-19 16:00,ZGHA 191600Z AUTO 14004KT 6SM 26/25 A2971 RMK T02600250 IEM_DS3505
ZGHA,2008-06-19 17:00,ZGHA 191700Z AUTO 6SM 27/24 A2971 RMK T02700240 IEM_DS3505
ZGHA,2008-06-19 18:00,ZGHA 191800Z AUTO 6SM 26/24 A2971 RMK T02600240 IEM_DS3505
ZGHA,2008-06-19 19:00,ZGHA 191900Z AUTO 7SM 26/24 A2968 RMK T02600240 IEM_DS3505
ZGHA,2008-06-19 20:00,ZGHA 192000Z AUTO 16004KT 7SM 27/24 A2968 RMK T02700240 IEM_DS3505
ZGHA,2008-06-19 21:00,ZGHA 192100Z AUTO 17006KT 6SM 26/24 A2968 RMK T02600240 IEM_DS3505
ZGHA,2008-06-19 22:00,ZGHA 192200Z AUTO 18006KT 6SM 26/24 A2968 RMK T02600240 IEM_DS3505
ZGHA,2008-06-19 23:00,ZGHA 192300Z AUTO 16006KT 6SM 28/24 A2971 RMK T02800240 IEM_DS3505
ZGHA,2008-06-20 00:00,ZGHA 200000Z AUTO 6SM 29/26 A2971 RMK T02900260 IEM_DS3505
ZGHA,2008-06-20 01:00,ZGHA 200100Z AUTO 18012KT 6SM 31/25 A2971 RMK T03100250 IEM_DS3505
ZGHA,2008-06-20 02:00,ZGHA 200200Z AUTO 20016KT 6SM 33/25 A2971 RMK T03300250 IEM_DS3505
ZGHA,2008-06-20 03:00,ZGHA 200300Z AUTO 19016KT 6SM 33/25 A2971 RMK T03300250 IEM_DS3505
ZGHA,2008-06-20 04:00,ZGHA 200400Z AUTO 18014KT 6SM 34/25 A2971 RMK T03400250 IEM_DS3505
ZGHA,2008-06-20 05:00,ZGHA 200500Z AUTO 20016KT 6SM 34/25 A2968 RMK T03400250 IEM_DS3505
ZGHA,2008-06-20 06:00,ZGHA 200600Z AUTO 20017KT 6SM 33/25 A2968 RMK T03300250 IEM_DS3505
ZGHA,2008-06-20 07:00,ZGHA 200700Z AUTO 20014KT 7SM 34/25 A2965 RMK T03400250 IEM_DS3505
ZGHA,2008-06-20 08:00,ZGHA 200800Z AUTO 21014KT 6SM 34/25 A2965 RMK T03400250 IEM_DS3505
ZGHA,2008-06-20 09:00,ZGHA 200900Z AUTO 19012KT 6SM 34/25 A2962 RMK T03400250 IEM_DS3505
ZGHA,2008-06-20 10:00,ZGHA 201000Z AUTO 19014KT 6SM 33/25 A2962 RMK T03300250 IEM_DS3505
ZGHA,2008-06-20 11:00,ZGHA 201100Z AUTO 19008KT 6SM 31/25 A2965 RMK T03100250 IEM_DS3505
ZGHA,2008-06-20 12:00,ZGHA 201200Z AUTO 18004KT 6SM 30/25 A2965 RMK T03000250 IEM_DS3505
ZGHA,2008-06-20 13:00,ZGHA 201300Z AUTO 16004KT 6SM 29/25 A2965 RMK T02900250 IEM_DS3505
ZGHA,2008-06-20 14:00,ZGHA 201400Z AUTO 6SM 28/25 A2965 RMK T02800250 IEM_DS3505
ZGHA,2008-06-20 15:00,ZGHA 201500Z AUTO 6SM 27/25 A2965 RMK T02700250 IEM_DS3505
ZGHA,2008-06-20 16:00,ZGHA 201600Z AUTO 16004KT 6SM 27/24 A2962 RMK T02700240 IEM_DS3505
ZGHA,2008-06-20 17:00,ZGHA 201700Z AUTO 18004KT 6SM 27/24 A2962 RMK T02700240 IEM_DS3505
ZGHA,2008-06-20 18:00,ZGHA 201800Z AUTO 16004KT 7SM 27/24 A2962 RMK T02700240 IEM_DS3505
ZGHA,2008-06-20 19:00,ZGHA 201900Z AUTO 17006KT 7SM 27/24 A2962 RMK T02700240 IEM_DS3505
ZGHA,2008-06-20 20:00,ZGHA 202000Z AUTO 6SM 26/24 A2962 RMK T02600240 IEM_DS3505
ZGHA,2008-06-20 21:00,ZGHA 202100Z AUTO 6SM 26/24 A2962 RMK T02600240 IEM_DS3505
ZGHA,2008-06-20 22:00,ZGHA 202200Z AUTO 17004KT 6SM 26/24 A2965 RMK T02600240 IEM_DS3505
ZGHA,2008-06-20 23:00,ZGHA 202300Z AUTO 6SM 27/25 A2965 RMK T02700250 IEM_DS3505
ZGHA,2008-06-21 00:00,ZGHA 210000Z AUTO 18006KT 6SM 29/25 A2965 RMK T02900250 IEM_DS3505
ZGHA,2008-06-21 01:00,ZGHA 210100Z AUTO 18010KT 6SM 30/25 A2965 RMK T03000250 IEM_DS3505
ZGHA,2008-06-21 02:00,ZGHA 210200Z AUTO 19014KT 6SM 32/26 A2965 RMK T03200260 IEM_DS3505
ZGHA,2008-06-21 03:00,ZGHA 210300Z AUTO 19012KT 7SM 34/26 A2965 RMK T03400260 IEM_DS3505
ZGHA,2008-06-21 05:00,ZGHA 210500Z AUTO 20014KT 7SM 36/27 A2962 RMK T03600270 IEM_DS3505
ZGHA,2008-06-21 06:00,ZGHA 210600Z AUTO 21010KT 7SM 35/27 A2959 RMK T03500270 IEM_DS3505
ZGHA,2008-06-21 07:00,ZGHA 210700Z AUTO 21010KT 7SM 33/26 A2959 RMK T03300260 IEM_DS3505
ZGHA,2008-06-21 08:00,ZGHA 210800Z AUTO 17006KT 6SM 33/27 A2956 RMK T03300270 IEM_DS3505
ZGHA,2008-06-21 09:00,ZGHA 210900Z AUTO 16004KT 6SM 33/26 A2956 RMK T03300260 IEM_DS3505
ZGHA,2008-06-21 10:00,ZGHA 211000Z AUTO 16004KT 6SM 33/26 A2956 RMK T03300260 IEM_DS3505
ZGHA,2008-06-21 11:00,ZGHA 211100Z AUTO 16004KT 6SM 32/26 A2956 RMK T03200260 IEM_DS3505
ZGHA,2008-06-21 12:00,ZGHA 211200Z AUTO 6SM 30/26 A2956 RMK T03000260 IEM_DS3505
ZGHA,2008-06-21 13:00,ZGHA 211300Z AUTO 16004KT 6SM 29/26 A2959 RMK T02900260 IEM_DS3505
ZGHA,2008-06-21 14:00,ZGHA 211400Z AUTO 6SM 28/26 A2959 RMK T02800260 IEM_DS3505
ZGHA,2008-06-21 15:00,ZGHA 211500Z AUTO 17002KT 6SM 28/26 A2959 RMK T02800260 IEM_DS3505
ZGHA,2008-06-21 16:00,ZGHA 211600Z AUTO 6SM 27/25 A2959 RMK T02700250 IEM_DS3505
ZGHA,2008-06-21 17:00,ZGHA 211700Z AUTO 7SM 27/25 A2959 RMK T02700250 IEM_DS3505
ZGHA,2008-06-21 18:00,ZGHA 211800Z AUTO 16004KT 6SM 27/25 A2956 RMK T02700250 IEM_DS3505
ZGHA,2008-06-21 19:00,ZGHA 211900Z AUTO 6SM 26/25 A2956 RMK T02600250 IEM_DS3505
ZGHA,2008-06-21 20:00,ZGHA 212000Z AUTO 17004KT 6SM 26/25 A2959 RMK T02600250 IEM_DS3505
ZGHA,2008-06-21 21:00,ZGHA 212100Z AUTO 17004KT 6SM 26/25 A2959 RMK T02600250 IEM_DS3505
ZGHA,2008-06-21 22:00,ZGHA 212200Z AUTO 6SM 26/25 A2959 RMK T02600250 IEM_DS3505
ZGHA,2008-06-21 23:00,ZGHA 212300Z AUTO 16004KT 6SM 27/25 A2962 RMK T02700250 IEM_DS3505
ZGHA,2008-06-22 00:00,ZGHA 220000Z AUTO 18006KT 6SM 28/25 A2962 RMK T02800250 IEM_DS3505
ZGHA,2008-06-22 01:00,ZGHA 220100Z AUTO 18006KT 6SM 29/26 A2962 RMK T02900260 IEM_DS3505
ZGHA,2008-06-22 02:00,ZGHA 220200Z AUTO 19010KT 6SM 30/26 A2962 RMK T03000260 IEM_DS3505
ZGHA,2008-06-22 03:00,ZGHA 220300Z AUTO 20008KT 6SM 33/26 A2962 RMK T03300260 IEM_DS3505
ZGHA,2008-06-22 04:00,ZGHA 220400Z AUTO 18008KT 6SM 35/27 A2959 RMK T03500270 IEM_DS3505
ZGHA,2008-06-22 05:00,ZGHA 220500Z AUTO 21006KT 7SM 35/27 A2959 RMK T03500270 IEM_DS3505
ZGHA,2008-06-22 06:00,ZGHA 220600Z AUTO 19008KT 7SM 35/27 A2956 RMK T03500270 IEM_DS3505
ZGHA,2008-06-22 07:00,ZGHA 220700Z AUTO 20008KT 7SM 35/27 A2956 RMK T03500270 IEM_DS3505
ZGHA,2008-06-22 08:00,ZGHA 220800Z AUTO 20008KT 7SM 35/27 A2953 RMK T03500270 IEM_DS3505
ZGHA,2008-06-22 09:00,ZGHA 220900Z AUTO 19010KT 6SM 36/26 A2953 RMK T03600260 IEM_DS3505
ZGHA,2008-06-22 10:00,ZGHA 221000Z AUTO 16004KT 6SM 34/27 A2953 RMK T03400270 IEM_DS3505
ZGHA,2008-06-22 11:00,ZGHA 221100Z AUTO 7SM 32/27 A2953 RMK T03200270 IEM_DS3505
ZGHA,2008-06-22 12:00,ZGHA 221200Z AUTO 6SM 31/27 A2953 RMK T03100270 IEM_DS3505
ZGHA,2008-06-22 13:00,ZGHA 221300Z AUTO 18004KT 6SM 30/27 A2956 RMK T03000270 IEM_DS3505
ZGHA,2008-06-22 14:00,ZGHA 221400Z AUTO 6SM 29/27 A2956 RMK T02900270 IEM_DS3505
ZGHA,2008-06-22 15:00,ZGHA 221500Z AUTO 6SM 29/26 A2956 RMK T02900260 IEM_DS3505
ZGHA,2008-06-22 16:00,ZGHA 221600Z AUTO 6SM 28/26 A2956 RMK T02800260 IEM_DS3505
ZGHA,2008-06-22 17:00,ZGHA 221700Z AUTO 6SM 28/26 A2953 RMK T02800260 IEM_DS3505
ZGHA,2008-06-22 18:00,ZGHA 221800Z AUTO 18002KT 6SM 28/26 A2953 RMK T02800260 IEM_DS3505
ZGHA,2008-06-22 21:00,ZGHA 222100Z AUTO 5SM 27/26 A2953 RMK T02700260 IEM_DS3505
ZGHA,2008-06-22 22:00,ZGHA 222200Z AUTO 5SM 27/26 A2956 RMK T02700260 IEM_DS3505
ZGHA,2008-06-22 23:00,ZGHA 222300Z AUTO 4SM 27/27 A2956 RMK T02700270 IEM_DS3505
ZGHA,2008-06-23 00:00,ZGHA 230000Z AUTO 28004KT 5SM 29/28 A2956 RMK T02900280 IEM_DS3505
ZGHA,2008-06-23 01:00,ZGHA 230100Z AUTO 31006KT 2 1/2SM 29/27 A2956 RMK T02900270 IEM_DS3505
ZGHA,2008-06-23 02:00,ZGHA 230200Z AUTO 30010KT 3SM 30/27 A2956 RMK T03000270 IEM_DS3505
ZGHA,2008-06-23 03:00,ZGHA 230300Z AUTO 30012KT 3SM 29/26 A2959 RMK T02900260 IEM_DS3505
ZGHA,2008-06-23 04:00,ZGHA 230400Z AUTO 30012KT 4SM 27/25 A2959 RMK T02700250 IEM_DS3505
ZGHA,2008-06-23 05:00,ZGHA 230500Z AUTO 30012KT 5SM 26/24 A2959 RMK T02600240 IEM_DS3505
ZGHA,2008-06-23 06:00,ZGHA 230600Z AUTO 31010KT 5SM 26/24 A2959 RMK T02600240 IEM_DS3505
ZGHA,2008-06-23 07:00,ZGHA 230700Z AUTO 31008KT 5SM 26/24 A2959 RMK T02600240 IEM_DS3505
ZGHA,2008-06-23 08:00,ZGHA 230800Z AUTO 36008KT 3SM 26/24 A2959 RMK T02600240 IEM_DS3505
ZGHA,2008-06-23 09:00,ZGHA 230900Z AUTO 35008KT 3SM 25/23 A2959 RMK T02500230 IEM_DS3505
ZGHA,2008-06-23 10:00,ZGHA 231000Z AUTO 35006KT 3SM 26/24 A2959 RMK T02600240 IEM_DS3505
ZGHA,2008-06-23 11:00,ZGHA 231100Z AUTO 31006KT 3SM 25/23 A2959 RMK T02500230 IEM_DS3505
ZGHA,2008-06-23 12:00,ZGHA 231200Z AUTO 2 1/2SM 25/23 A2959 RMK T02500230 IEM_DS3505
ZGHA,2008-06-23 13:00,ZGHA 231300Z AUTO 34004KT 2 1/2SM 24/23 A2962 RMK T02400230 IEM_DS3505
ZGHA,2008-06-23 14:00,ZGHA 231400Z AUTO 32004KT 3SM 25/23 A2962 RMK T02500230 IEM_DS3505
ZGHA,2008-06-23 15:00,ZGHA 231500Z AUTO 00000KT 3SM 24/23 A2962 RMK T02400230 IEM_DS3505
ZGHA,2008-06-23 16:00,ZGHA 231600Z AUTO 35004KT 2 1/2SM 24/23 A2962 RMK T02400230 IEM_DS3505
ZGHA,2008-06-23 17:00,ZGHA 231700Z AUTO 36004KT 2SM 24/23 A2962 RMK T02400230 IEM_DS3505
ZGHA,2008-06-23 18:00,ZGHA 231800Z AUTO 30004KT 2SM 24/23 A2962 RMK T02400230 IEM_DS3505
ZGHA,2008-06-23 21:00,ZGHA 232100Z AUTO 35004KT 2SM 24/23 A2962 RMK T02400230 IEM_DS3505
ZGHA,2008-06-23 22:00,ZGHA 232200Z AUTO 34004KT 2 1/2SM 24/23 A2962 RMK T02400230 IEM_DS3505
ZGHA,2008-06-23 23:00,ZGHA 232300Z AUTO 00000KT 2 1/2SM 24/23 A2965 RMK T02400230 IEM_DS3505
ZGHA,2008-06-24 00:00,ZGHA 240000Z AUTO 3SM 24/23 A2965 RMK T02400230 IEM_DS3505
ZGHA,2008-06-24 01:00,ZGHA 240100Z AUTO 36004KT 3SM 26/24 A2965 RMK T02600240 IEM_DS3505
ZGHA,2008-06-24 02:00,ZGHA 240200Z AUTO 4SM 27/24 A2968 RMK T02700240 IEM_DS3505
ZGHA,2008-06-24 03:00,ZGHA 240300Z AUTO 36004KT 4SM 28/24 A2968 RMK T02800240 IEM_DS3505
ZGHA,2008-06-24 04:00,ZGHA 240400Z AUTO 33004KT 4SM 29/24 A2968 RMK T02900240 IEM_DS3505
ZGHA,2008-06-24 05:00,ZGHA 240500Z AUTO 02006KT 4SM 30/25 A2965 RMK T03000250 IEM_DS3505
ZGHA,2008-06-24 06:00,ZGHA 240600Z AUTO 35004KT 4SM 31/25 A2965 RMK T03100250 IEM_DS3505
ZGHA,2008-06-24 07:00,ZGHA 240700Z AUTO 35008KT 7SM 32/25 A2962 RMK T03200250 IEM_DS3505
ZGHA,2008-06-24 08:00,ZGHA 240800Z AUTO 34006KT 7SM 31/25 A2962 RMK T03100250 IEM_DS3505
ZGHA,2008-06-24 09:00,ZGHA 240900Z AUTO 34008KT 7SM 32/25 A2962 RMK T03200250 IEM_DS3505
ZGHA,2008-06-24 10:00,ZGHA 241000Z AUTO 35006KT 6SM 31/25 A2962 RMK T03100250 IEM_DS3505
ZGHA,2008-06-24 11:00,ZGHA 241100Z AUTO 35006KT 4SM 29/25 A2962 RMK T02900250 IEM_DS3505
ZGHA,2008-06-24 12:00,ZGHA 241200Z AUTO 32006KT 3SM 28/25 A2965 RMK T02800250 IEM_DS3505
ZGHA,2008-06-24 13:00,ZGHA 241300Z AUTO 34004KT 2 1/2SM 28/25 A2968 RMK T02800250 IEM_DS3505
ZGHA,2008-06-24 14:00,ZGHA 241400Z AUTO 34004KT 2 1/2SM 27/25 A2968 RMK T02700250 IEM_DS3505
ZGHA,2008-06-24 15:00,ZGHA 241500Z AUTO 2 1/2SM 26/25 A2968 RMK T02600250 IEM_DS3505
ZGHA,2008-06-24 16:00,ZGHA 241600Z AUTO 2SM 26/25 A2968 RMK T02600250 IEM_DS3505
ZGHA,2008-06-24 17:00,ZGHA 241700Z AUTO 2SM 26/25 A2968 RMK T02600250 IEM_DS3505
ZGHA,2008-06-24 21:00,ZGHA 242100Z AUTO 2SM 26/25 A2968 RMK T02600250 IEM_DS3505
ZGHA,2008-06-24 22:00,ZGHA 242200Z AUTO 00000KT 2SM 25/24 A2968 RMK T02500240 IEM_DS3505
ZGHA,2008-06-24 23:00,ZGHA 242300Z AUTO 2SM 26/25 A2968 RMK T02600250 IEM_DS3505
ZGHA,2008-06-25 00:00,ZGHA 250000Z AUTO 35004KT 2SM 28/25 A2971 RMK T02800250 IEM_DS3505
ZGHA,2008-06-25 01:00,ZGHA 250100Z AUTO 35004KT 2SM 28/25 A2971 RMK T02800250 IEM_DS3505
ZGHA,2008-06-25 02:00,ZGHA 250200Z AUTO 35006KT 1 1/2SM 27/25 A2971 RMK T02700250 IEM_DS3505
ZGHA,2008-06-25 03:00,ZGHA 250300Z AUTO 01006KT 2SM 26/25 A2971 RMK T02600250 IEM_DS3505
ZGHA,2008-06-25 04:00,ZGHA 250400Z AUTO 03006KT 4SM 27/26 A2971 RMK T02700260 IEM_DS3505
ZGHA,2008-06-25 05:00,ZGHA 250500Z AUTO 02004KT 4SM 28/25 A2968 RMK T02800250 IEM_DS3505
ZGHA,2008-06-25 06:00,ZGHA 250600Z AUTO 32008KT 4SM 28/25 A2965 RMK T02800250 IEM_DS3505
ZGHA,2008-06-25 07:00,ZGHA 250700Z AUTO 34008KT 5SM 28/24 A2965 RMK T02800240 IEM_DS3505
ZGHA,2008-06-25 08:00,ZGHA 250800Z AUTO 36008KT 6SM 28/23 A2965 RMK T02800230 IEM_DS3505
ZGHA,2008-06-25 09:00,ZGHA 250900Z AUTO 36006KT 6SM 27/23 A2962 RMK T02700230 IEM_DS3505
ZGHA,2008-06-25 10:00,ZGHA 251000Z AUTO 36008KT 6SM 28/23 A2962 RMK T02800230 IEM_DS3505
ZGHA,2008-06-25 11:00,ZGHA 251100Z AUTO 01004KT 6SM 27/24 A2962 RMK T02700240 IEM_DS3505
ZGHA,2008-06-25 12:00,ZGHA 251200Z AUTO 36004KT 4SM 26/24 A2962 RMK T02600240 IEM_DS3505
ZGHA,2008-06-25 13:00,ZGHA 251300Z AUTO 34004KT 3SM 26/24 A2965 RMK T02600240 IEM_DS3505
ZGHA,2008-06-25 14:00,ZGHA 251400Z AUTO 36004KT 2 1/2SM 25/24 A2965 RMK T02500240 IEM_DS3505
ZGHA,2008-06-25 15:00,ZGHA 251500Z AUTO 36002KT 2SM 25/24 A2965 RMK T02500240 IEM_DS3505
ZGHA,2008-06-25 16:00,ZGHA 251600Z AUTO 1 1/2SM 25/24 A2965 RMK T02500240 IEM_DS3505
ZGHA,2008-06-25 17:00,ZGHA 251700Z AUTO 02002KT 1 1/4SM 24/23 A2965 RMK T02400230 IEM_DS3505
ZGHA,2008-06-25 18:00,ZGHA 251800Z AUTO 1 1/4SM 24/23 A2962 RMK T02400230 IEM_DS3505
ZGHA,2008-06-25 21:00,ZGHA 252100Z AUTO 00000KT 3SM 23/23 A2962 RMK T02300230 IEM_DS3505
ZGHA,2008-06-25 22:00,ZGHA 252200Z AUTO 00000KT 3SM 24/23 A2965 RMK T02400230 IEM_DS3505
ZGHA,2008-06-25 23:00,ZGHA 252300Z AUTO 00000KT 5SM 25/23 A2965 RMK T02500230 IEM_DS3505
ZGHA,2008-06-26 00:00,ZGHA 260000Z AUTO 5SM 25/22 A2965 RMK T02500220 IEM_DS3505
ZGHA,2008-06-26 01:00,ZGHA 260100Z AUTO 04004KT 6SM 26/23 A2968 RMK T02600230 IEM_DS3505
ZGHA,2008-06-26 02:00,ZGHA 260200Z AUTO 6SM 27/23 A2965 RMK T02700230 IEM_DS3505
ZGHA,2008-06-26 03:00,ZGHA 260300Z AUTO 6SM 29/24 A2965 RMK T02900240 IEM_DS3505
ZGHA,2008-06-26 04:00,ZGHA 260400Z AUTO 35004KT 6SM 32/25 A2965 RMK T03200250 IEM_DS3505
ZGHA,2008-06-26 05:00,ZGHA 260500Z AUTO 6SM 32/25 A2962 RMK T03200250 IEM_DS3505
ZGHA,2008-06-26 06:00,ZGHA 260600Z AUTO 10004KT 7SM 32/24 A2962 RMK T03200240 IEM_DS3505
ZGHA,2008-06-26 07:00,ZGHA 260700Z AUTO 7SM 31/25 A2959 RMK T03100250 IEM_DS3505
ZGHA,2008-06-26 08:00,ZGHA 260800Z AUTO 35004KT 6SM 32/25 A2959 RMK T03200250 IEM_DS3505
ZGHA,2008-06-26 09:00,ZGHA 260900Z AUTO 6SM 29/25 A2959 RMK T02900250 IEM_DS3505
ZGHA,2008-06-26 10:00,ZGHA 261000Z AUTO 35008KT 1 1/2SM 26/24 A2959 RMK T02600240 IEM_DS3505
ZGHA,2008-06-26 11:00,ZGHA 261100Z AUTO 3SM 26/25 A2959 RMK T02600250 IEM_DS3505
ZGHA,2008-06-26 12:00,ZGHA 261200Z AUTO 10002KT 2SM 26/25 A2962 RMK T02600250 IEM_DS3505
ZGHA,2008-06-26 13:00,ZGHA 261300Z AUTO 2SM 25/25 A2962 RMK T02500250 IEM_DS3505
ZGHA,2008-06-26 14:00,ZGHA 261400Z AUTO 00000KT 2 1/2SM 25/24 A2965 RMK T02500240 IEM_DS3505
ZGHA,2008-06-26 15:00,ZGHA 261500Z AUTO 2 1/2SM 25/24 A2965 RMK T02500240 IEM_DS3505
ZGHA,2008-06-26 16:00,ZGHA 261600Z AUTO 00000KT 2SM 25/24 A2962 RMK T02500240 IEM_DS3505
ZGHA,2008-06-26 17:00,ZGHA 261700Z AUTO 24002KT 2SM 25/25 A2962 RMK T02500250 IEM_DS3505
ZGHA,2008-06-26 18:00,ZGHA 261800Z AUTO 2SM 25/25 A2962 RMK T02500250 IEM_DS3505
ZGHA,2008-06-26 19:00,ZGHA 261900Z AUTO 21002KT 2SM 25/25 A2962 RMK T02500250 IEM_DS3505
ZGHA,2008-06-26 20:00,ZGHA 262000Z AUTO 22002KT 2SM 25/25 A2962 RMK T02500250 IEM_DS3505
ZGHA,2008-06-26 21:00,ZGHA 262100Z AUTO 2SM 25/25 A2962 RMK T02500250 IEM_DS3505
ZGHA,2008-06-26 22:00,ZGHA 262200Z AUTO 00000KT 2SM 25/25 A2962 RMK T02500250 IEM_DS3505
ZGHA,2008-06-26 23:00,ZGHA 262300Z AUTO 2SM 25/25 A2962 RMK T02500250 IEM_DS3505
ZGHA,2008-06-27 00:00,ZGHA 270000Z AUTO 2 1/2SM 26/26 A2962 RMK T02600260 IEM_DS3505
ZGHA,2008-06-27 01:00,ZGHA 270100Z AUTO 32004KT 2 1/2SM 27/26 A2965 RMK T02700260 IEM_DS3505
ZGHA,2008-06-27 02:00,ZGHA 270200Z AUTO 29006KT 2 1/2SM 28/25 A2965 RMK T02800250 IEM_DS3505
ZGHA,2008-06-27 03:00,ZGHA 270300Z AUTO 34004KT 4SM 28/26 A2965 RMK T02800260 IEM_DS3505
ZGHA,2008-06-27 04:00,ZGHA 270400Z AUTO 29006KT 4SM 30/26 A2965 RMK T03000260 IEM_DS3505
ZGHA,2008-06-27 05:00,ZGHA 270500Z AUTO 32006KT 4SM 29/25 A2962 RMK T02900250 IEM_DS3505
ZGHA,2008-06-27 06:00,ZGHA 270600Z AUTO 32004KT 4SM 29/26 A2962 RMK T02900260 IEM_DS3505
ZGHA,2008-06-27 07:00,ZGHA 270700Z AUTO 33004KT 5SM 30/26 A2962 RMK T03000260 IEM_DS3505
ZGHA,2008-06-27 08:00,ZGHA 270800Z AUTO 32006KT 5SM 31/25 A2959 RMK T03100250 IEM_DS3505
ZGHA,2008-06-27 09:00,ZGHA 270900Z AUTO 32008KT 5SM 30/24 A2959 RMK T03000240 IEM_DS3505
ZGHA,2008-06-27 10:00,ZGHA 271000Z AUTO 33006KT 4SM 29/24 A2959 RMK T02900240 IEM_DS3505
ZGHA,2008-06-27 11:00,ZGHA 271100Z AUTO 00000KT 4SM 29/25 A2962 RMK T02900250 IEM_DS3505
ZGHA,2008-06-27 12:00,ZGHA 271200Z AUTO 2SM 27/25 A2962 RMK T02700250 IEM_DS3505
ZGHA,2008-06-27 13:00,ZGHA 271300Z AUTO 12002KT 2SM 27/25 A2965 RMK T02700250 IEM_DS3505
ZGHA,2008-06-27 14:00,ZGHA 271400Z AUTO 2SM 26/25 A2965 RMK T02600250 IEM_DS3505
ZGHA,2008-06-27 15:00,ZGHA 271500Z AUTO 2 1/2SM 26/25 A2965 RMK T02600250 IEM_DS3505
ZGHA,2008-06-27 16:00,ZGHA 271600Z AUTO 2SM 26/25 A2965 RMK T02600250 IEM_DS3505
ZGHA,2008-06-27 17:00,ZGHA 271700Z AUTO 1SM 26/25 A2965 RMK T02600250 IEM_DS3505
ZGHA,2008-06-27 18:00,ZGHA 271800Z AUTO 1SM 25/25 A2965 RMK T02500250 IEM_DS3505
ZGHA,2008-06-27 19:00,ZGHA 271900Z AUTO 1 1/4SM 25/25 A2965 RMK T02500250 IEM_DS3505
ZGHA,2008-06-27 21:00,ZGHA 272100Z AUTO 00000KT 2SM 24/24 A2965 RMK T02400240 IEM_DS3505
ZGHA,2008-06-27 22:00,ZGHA 272200Z AUTO 1 1/2SM 24/24 A2965 RMK T02400240 IEM_DS3505
ZGHA,2008-06-27 23:00,ZGHA 272300Z AUTO 1 1/2SM 25/25 A2968 RMK T02500250 IEM_DS3505
ZGHA,2008-06-28 00:00,ZGHA 280000Z AUTO 1 1/2SM 26/26 A2968 RMK T02600260 IEM_DS3505
ZGHA,2008-06-28 01:00,ZGHA 280100Z AUTO 17004KT 2SM 28/26 A2968 RMK T02800260 IEM_DS3505
ZGHA,2008-06-28 02:00,ZGHA 280200Z AUTO 20006KT 2SM 30/26 A2968 RMK T03000260 IEM_DS3505
ZGHA,2008-06-28 03:00,ZGHA 280300Z AUTO 17004KT 2 1/2SM 31/25 A2968 RMK T03100250 IEM_DS3505
ZGHA,2008-06-28 04:00,ZGHA 280400Z AUTO 3SM 32/24 A2965 RMK T03200240 IEM_DS3505
ZGHA,2008-06-28 05:00,ZGHA 280500Z AUTO 22006KT 4SM 33/23 A2965 RMK T03300230 IEM_DS3505
ZGHA,2008-06-28 06:00,ZGHA 280600Z AUTO 20008KT 7SM 34/22 A2965 RMK T03400220 IEM_DS3505
ZGHA,2008-06-28 07:00,ZGHA 280700Z AUTO 22006KT 7SM 34/23 A2962 RMK T03400230 IEM_DS3505
ZGHA,2008-06-28 08:00,ZGHA 280800Z AUTO 19012KT 7SM 33/25 A2962 RMK T03300250 IEM_DS3505
ZGHA,2008-06-28 09:00,ZGHA 280900Z AUTO 19008KT 6SM 33/24 A2962 RMK T03300240 IEM_DS3505
ZGHA,2008-06-28 10:00,ZGHA 281000Z AUTO 18008KT 6SM 31/24 A2962 RMK T03100240 IEM_DS3505
ZGHA,2008-06-28 11:00,ZGHA 281100Z AUTO 20008KT 6SM 29/24 A2962 RMK T02900240 IEM_DS3505
ZGHA,2008-06-28 12:00,ZGHA 281200Z AUTO 6SM 28/24 A2965 RMK T02800240 IEM_DS3505
ZGHA,2008-06-28 13:00,ZGHA 281300Z AUTO 17004KT 6SM 27/22 A2968 RMK T02700220 IEM_DS3505
ZGHA,2008-06-28 14:00,ZGHA 281400Z AUTO 6SM 26/22 A2968 RMK T02600220 IEM_DS3505
ZGHA,2008-06-28 15:00,ZGHA 281500Z AUTO 6SM 25/22 A2968 RMK T02500220 IEM_DS3505
ZGHA,2008-06-28 16:00,ZGHA 281600Z AUTO 6SM 25/22 A2968 RMK T02500220 IEM_DS3505
ZGHA,2008-06-28 17:00,ZGHA 281700Z AUTO 18004KT 6SM 23/22 A2968 RMK T02300220 IEM_DS3505
ZGHA,2008-06-28 18:00,ZGHA 281800Z AUTO 19002KT 6SM 24/22 A2968 RMK T02400220 IEM_DS3505
ZGHA,2008-06-28 19:00,ZGHA 281900Z AUTO 18002KT 6SM 23/22 A2968 RMK T02300220 IEM_DS3505
ZGHA,2008-06-28 21:00,ZGHA 282100Z AUTO 00000KT 7SM 23/22 A2968 RMK T02300220 IEM_DS3505
ZGHA,2008-06-28 22:00,ZGHA 282200Z AUTO 23002KT 7SM 23/23 A2968 RMK T02300230 IEM_DS3505
ZGHA,2008-06-28 23:00,ZGHA 282300Z AUTO 22004KT 7SM 24/23 A2971 RMK T02400230 IEM_DS3505
ZGHA,2008-06-29 00:00,ZGHA 290000Z AUTO 6SM 26/24 A2971 RMK T02600240 IEM_DS3505
ZGHA,2008-06-29 01:00,ZGHA 290100Z AUTO 16004KT 7SM 27/24 A2971 RMK T02700240 IEM_DS3505
ZGHA,2008-06-29 02:00,ZGHA 290200Z AUTO 12006KT 7SM 29/24 A2971 RMK T02900240 IEM_DS3505
ZGHA,2008-06-29 03:00,ZGHA 290300Z AUTO 13004KT 7SM 27/24 A2971 RMK T02700240 IEM_DS3505
ZGHA,2008-06-29 04:00,ZGHA 290400Z AUTO 12006KT 7SM 28/25 A2971 RMK T02800250 IEM_DS3505
ZGHA,2008-06-29 05:00,ZGHA 290500Z AUTO 7SM 29/24 A2971 RMK T02900240 IEM_DS3505
ZGHA,2008-06-29 06:00,ZGHA 290600Z AUTO 14006KT 7SM 31/25 A2968 RMK T03100250 IEM_DS3505
ZGHA,2008-06-29 07:00,ZGHA 290700Z AUTO 14004KT 7SM 29/24 A2965 RMK T02900240 IEM_DS3505
ZGHA,2008-06-29 08:00,ZGHA 290800Z AUTO 16004KT 7SM 29/24 A2965 RMK T02900240 IEM_DS3505
ZGHA,2008-06-29 09:00,ZGHA 290900Z AUTO 15004KT 7SM 29/24 A2965 RMK T02900240 IEM_DS3505
ZGHA,2008-06-29 10:00,ZGHA 291000Z AUTO 14004KT 6SM 29/25 A2965 RMK T02900250 IEM_DS3505
ZGHA,2008-06-29 11:00,ZGHA 291100Z AUTO 14006KT 6SM 28/25 A2965 RMK T02800250 IEM_DS3505
ZGHA,2008-06-29 12:00,ZGHA 291200Z AUTO 6SM 27/24 A2965 RMK T02700240 IEM_DS3505
ZGHA,2008-06-29 13:00,ZGHA 291300Z AUTO 00000KT 6SM 26/24 A2968 RMK T02600240 IEM_DS3505
ZGHA,2008-06-29 14:00,ZGHA 291400Z AUTO 00000KT 6SM 26/24 A2968 RMK T02600240 IEM_DS3505
ZGHA,2008-06-29 15:00,ZGHA 291500Z AUTO 18002KT 6SM 26/24 A2968 RMK T02600240 IEM_DS3505
ZGHA,2008-06-29 16:00,ZGHA 291600Z AUTO 6SM 26/25 A2968 RMK T02600250 IEM_DS3505
ZGHA,2008-06-29 17:00,ZGHA 291700Z AUTO 7SM 26/24 A2968 RMK T02600240 IEM_DS3505
ZGHA,2008-06-29 18:00,ZGHA 291800Z AUTO 00000KT 7SM 26/24 A2968 RMK T02600240 IEM_DS3505
ZGHA,2008-06-29 19:00,ZGHA 291900Z AUTO 23002KT 7SM 26/24 A2968 RMK T02600240 IEM_DS3505
ZGHA,2008-06-29 20:00,ZGHA 292000Z AUTO 17002KT 6SM 25/24 A2968 RMK T02500240 IEM_DS3505
ZGHA,2008-06-29 21:00,ZGHA 292100Z AUTO 00000KT 6SM 25/24 A2968 RMK T02500240 IEM_DS3505
ZGHA,2008-06-29 22:00,ZGHA 292200Z AUTO 7SM 25/24 A2968 RMK T02500240 IEM_DS3505
ZGHA,2008-06-29 23:00,ZGHA 292300Z AUTO 17004KT 7SM 26/25 A2971 RMK T02600250 IEM_DS3505
ZGHA,2008-06-30 00:00,ZGHA 300000Z AUTO 16004KT 7SM 28/25 A2971 RMK T02800250 IEM_DS3505
ZGHA,2008-06-30 01:00,ZGHA 300100Z AUTO 18008KT 7SM 29/25 A2971 RMK T02900250 IEM_DS3505
ZGHA,2008-06-30 02:00,ZGHA 300200Z AUTO 17008KT 7SM 31/26 A2971 RMK T03100260 IEM_DS3505
ZGHA,2008-06-30 03:00,ZGHA 300300Z AUTO 20012KT 7SM 31/25 A2971 RMK T03100250 IEM_DS3505
ZGHA,2008-06-30 04:00,ZGHA 300400Z AUTO 20012KT 7SM 32/24 A2971 RMK T03200240 IEM_DS3505
ZGHA,2008-06-30 05:00,ZGHA 300500Z AUTO 21010KT 7SM 33/25 A2968 RMK T03300250 IEM_DS3505
ZGHA,2008-06-30 06:00,ZGHA 300600Z AUTO 18012KT 6SM 34/25 A2968 RMK T03400250 IEM_DS3505
ZGHA,2008-06-30 07:00,ZGHA 300700Z AUTO 19012KT 6SM 35/25 A2965 RMK T03500250 IEM_DS3505
ZGHA,2008-06-30 08:00,ZGHA 300800Z AUTO 19016KT 6SM 35/25 A2965 RMK T03500250 IEM_DS3505
ZGHA,2008-06-30 09:00,ZGHA 300900Z AUTO 14006KT 6SM 33/26 A2965 RMK T03300260 IEM_DS3505
ZGHA,2008-06-30 10:00,ZGHA 301000Z AUTO 17008KT 6SM 32/25 A2965 RMK T03200250 IEM_DS3505
ZGHA,2008-06-30 11:00,ZGHA 301100Z AUTO 17006KT 6SM 31/25 A2968 RMK T03100250 IEM_DS3505
ZGHA,2008-06-30 12:00,ZGHA 301200Z AUTO 14004KT 6SM 30/25 A2971 RMK T03000250 IEM_DS3505
ZGHA,2008-06-30 13:00,ZGHA 301300Z AUTO 6SM 29/25 A2971 RMK T02900250 IEM_DS3505
ZGHA,2008-06-30 14:00,ZGHA 301400Z AUTO 6SM 28/25 A2974 RMK T02800250 IEM_DS3505
ZGHA,2008-06-30 15:00,ZGHA 301500Z AUTO 6SM 27/24 A2974 RMK T02700240 IEM_DS3505
ZGHA,2008-06-30 16:00,ZGHA 301600Z AUTO 17004KT 6SM 27/24 A2971 RMK T02700240 IEM_DS3505
ZGHA,2008-06-30 17:00,ZGHA 301700Z AUTO 16004KT 6SM 27/24 A2971 RMK T02700240 IEM_DS3505
ZGHA,2008-06-30 18:00,ZGHA 301800Z AUTO 17006KT 7SM 27/24 A2971 RMK T02700240 IEM_DS3505
ZGHA,2008-06-30 19:00,ZGHA 301900Z AUTO 16004KT 6SM 27/23 A2971 RMK T02700230 IEM_DS3505
ZGHA,2008-06-30 20:00,ZGHA 302000Z AUTO 15004KT 6SM 26/24 A2971 RMK T02600240 IEM_DS3505
ZGHA,2008-06-30 21:00,ZGHA 302100Z AUTO 16004KT 6SM 27/24 A2971 RMK T02700240 IEM_DS3505
ZGHA,2008-06-30 22:00,ZGHA 302200Z AUTO 14004KT 6SM 26/24 A2971 RMK T02600240 IEM_DS3505
ZGHA,2008-06-30 23:00,ZGHA 302300Z AUTO 6SM 28/24 A2974 RMK T02800240 IEM_DS3505
ZGHA,2008-07-01 00:00,ZGHA 010000Z AUTO 19008KT 6SM 30/25 A2977 RMK T03000250 IEM_DS3505
ZGHA,2008-07-01 01:00,ZGHA 010100Z AUTO 19014KT 6SM 31/24 A2977 RMK T03100240 IEM_DS3505
ZGHA,2008-07-01 02:00,ZGHA 010200Z AUTO 20012KT 6SM 31/24 A2980 RMK T03100240 IEM_DS3505
ZGHA,2008-07-01 03:00,ZGHA 010300Z AUTO 20016KT 6SM 33/25 A2977 RMK T03300250 IEM_DS3505
ZGHA,2008-07-01 04:00,ZGHA 010400Z AUTO 18016KT 6SM 34/25 A2977 RMK T03400250 IEM_DS3505
ZGHA,2008-07-01 05:00,ZGHA 010500Z AUTO 19019KT 7SM 34/25 A2974 RMK T03400250 IEM_DS3505
ZGHA,2008-07-01 06:00,ZGHA 010600Z AUTO 21016KT 7SM 35/25 A2974 RMK T03500250 IEM_DS3505
ZGHA,2008-07-01 07:00,ZGHA 010700Z AUTO 20016KT 7SM 35/25 A2971 RMK T03500250 IEM_DS3505
ZGHA,2008-07-01 08:00,ZGHA 010800Z AUTO 20012KT 7SM 34/26 A2968 RMK T03400260 IEM_DS3505
ZGHA,2008-07-01 09:00,ZGHA 010900Z AUTO 21010KT 7SM 33/25 A2968 RMK T03300250 IEM_DS3505
ZGHA,2008-07-01 10:00,ZGHA 011000Z AUTO 19014KT 7SM 33/25 A2965 RMK T03300250 IEM_DS3505
ZGHA,2008-07-01 11:00,ZGHA 011100Z AUTO 19008KT 6SM 31/25 A2968 RMK T03100250 IEM_DS3505
ZGHA,2008-07-01 12:00,ZGHA 011200Z AUTO 18004KT 6SM 30/25 A2968 RMK T03000250 IEM_DS3505
ZGHA,2008-07-01 13:00,ZGHA 011300Z AUTO 18006KT 6SM 29/25 A2971 RMK T02900250 IEM_DS3505
ZGHA,2008-07-01 14:00,ZGHA 011400Z AUTO 17006KT 6SM 29/25 A2974 RMK T02900250 IEM_DS3505
ZGHA,2008-07-01 15:00,ZGHA 011500Z AUTO 17004KT 6SM 28/25 A2971 RMK T02800250 IEM_DS3505
ZGHA,2008-07-01 16:00,ZGHA 011600Z AUTO 18010KT 6SM 29/24 A2971 RMK T02900240 IEM_DS3505
ZGHA,2008-07-01 17:00,ZGHA 011700Z AUTO 18008KT 6SM 28/24 A2971 RMK T02800240 IEM_DS3505
ZGHA,2008-07-01 18:00,ZGHA 011800Z AUTO 19006KT 6SM 28/24 A2971 RMK T02800240 IEM_DS3505
ZGHA,2008-07-01 19:00,ZGHA 011900Z AUTO 18006KT 6SM 28/24 A2971 RMK T02800240 IEM_DS3505
ZGHA,2008-07-01 20:00,ZGHA 012000Z AUTO 18006KT 7SM 27/24 A2971 RMK T02700240 IEM_DS3505
ZGHA,2008-07-01 21:00,ZGHA 012100Z AUTO 18008KT 6SM 27/23 A2971 RMK T02700230 IEM_DS3505
ZGHA,2008-07-01 22:00,ZGHA 012200Z AUTO 18010KT 6SM 27/23 A2971 RMK T02700230 IEM_DS3505
ZGHA,2008-07-01 23:00,ZGHA 012300Z AUTO 19006KT 6SM 28/24 A2974 RMK T02800240 IEM_DS3505
ZGHA,2008-07-02 00:00,ZGHA 020000Z AUTO 19012KT 6SM 29/24 A2974 RMK T02900240 IEM_DS3505
ZGHA,2008-07-02 01:00,ZGHA 020100Z AUTO 19017KT 6SM 31/24 A2974 RMK T03100240 IEM_DS3505
ZGHA,2008-07-02 02:00,ZGHA 020200Z AUTO 19014KT 6SM 33/25 A2974 RMK T03300250 IEM_DS3505
ZGHA,2008-07-02 03:00,ZGHA 020300Z AUTO 19014KT 6SM 34/24 A2974 RMK T03400240 IEM_DS3505
ZGHA,2008-07-02 04:00,ZGHA 020400Z AUTO 20016KT 7SM 35/25 A2974 RMK T03500250 IEM_DS3505
ZGHA,2008-07-02 05:00,ZGHA 020500Z AUTO 21012KT 7SM 34/25 A2974 RMK T03400250 IEM_DS3505
ZGHA,2008-07-02 06:00,ZGHA 020600Z AUTO 19012KT 7SM 33/26 A2974 RMK T03300260 IEM_DS3505
ZGHA,2008-07-02 07:00,ZGHA 020700Z AUTO 20010KT 7SM 34/25 A2971 RMK T03400250 IEM_DS3505
ZGHA,2008-07-02 08:00,ZGHA 020800Z AUTO 20014KT 7SM 35/25 A2968 RMK T03500250 IEM_DS3505
ZGHA,2008-07-02 09:00,ZGHA 020900Z AUTO 18012KT 7SM 34/25 A2965 RMK T03400250 IEM_DS3505
ZGHA,2008-07-02 10:00,ZGHA 021000Z AUTO 18008KT 6SM 33/24 A2965 RMK T03300240 IEM_DS3505
ZGHA,2008-07-02 11:00,ZGHA 021100Z AUTO 16004KT 6SM 31/25 A2968 RMK T03100250 IEM_DS3505
ZGHA,2008-07-02 12:00,ZGHA 021200Z AUTO 6SM 30/25 A2971 RMK T03000250 IEM_DS3505
ZGHA,2008-07-02 13:00,ZGHA 021300Z AUTO 6SM 29/24 A2971 RMK T02900240 IEM_DS3505
ZGHA,2008-07-02 14:00,ZGHA 021400Z AUTO 16004KT 6SM 29/24 A2971 RMK T02900240 IEM_DS3505
ZGHA,2008-07-02 15:00,ZGHA 021500Z AUTO 14004KT 6SM 28/24 A2974 RMK T02800240 IEM_DS3505
ZGHA,2008-07-02 16:00,ZGHA 021600Z AUTO 17004KT 6SM 28/24 A2974 RMK T02800240 IEM_DS3505
ZGHA,2008-07-02 17:00,ZGHA 021700Z AUTO 17006KT 6SM 27/24 A2971 RMK T02700240 IEM_DS3505
ZGHA,2008-07-02 18:00,ZGHA 021800Z AUTO 18008KT 6SM 27/24 A2971 RMK T02700240 IEM_DS3505
ZGHA,2008-07-02 19:00,ZGHA 021900Z AUTO 17006KT 6SM 27/24 A2971 RMK T02700240 IEM_DS3505
ZGHA,2008-07-02 20:00,ZGHA 022000Z AUTO 18004KT 6SM 27/24 A2974 RMK T02700240 IEM_DS3505
ZGHA,2008-07-02 21:00,ZGHA 022100Z AUTO 17006KT 6SM 27/24 A2974 RMK T02700240 IEM_DS3505
ZGHA,2008-07-02 22:00,ZGHA 022200Z AUTO 17006KT 6SM 27/24 A2977 RMK T02700240 IEM_DS3505
ZGHA,2008-07-02 23:00,ZGHA 022300Z AUTO 17006KT 6SM 28/24 A2977 RMK T02800240 IEM_DS3505
ZGHA,2008-07-03 00:00,ZGHA 030000Z AUTO 18012KT 6SM 30/24 A2977 RMK T03000240 IEM_DS3505
ZGHA,2008-07-03 01:00,ZGHA 030100Z AUTO 17010KT 6SM 31/25 A2980 RMK T03100250 IEM_DS3505
ZGHA,2008-07-03 02:00,ZGHA 030200Z AUTO 17008KT 6SM 32/25 A2980 RMK T03200250 IEM_DS3505
ZGHA,2008-07-03 03:00,ZGHA 030300Z AUTO 18012KT 6SM 33/25 A2977 RMK T03300250 IEM_DS3505
ZGHA,2008-07-03 04:00,ZGHA 030400Z AUTO 19014KT 6SM 35/25 A2977 RMK T03500250 IEM_DS3505
ZGHA,2008-07-03 05:00,ZGHA 030500Z AUTO 18012KT 6SM 36/25 A2974 RMK T03600250 IEM_DS3505
ZGHA,2008-07-03 06:00,ZGHA 030600Z AUTO 18012KT 6SM 35/25 A2974 RMK T03500250 IEM_DS3505
ZGHA,2008-07-03 07:00,ZGHA 030700Z AUTO 18008KT 6SM 35/26 A2971 RMK T03500260 IEM_DS3505
ZGHA,2008-07-03 08:00,ZGHA 030800Z AUTO 20012KT 6SM 35/25 A2971 RMK T03500250 IEM_DS3505
ZGHA,2008-07-03 09:00,ZGHA 030900Z AUTO 17008KT 6SM 34/25 A2968 RMK T03400250 IEM_DS3505
ZGHA,2008-07-03 10:00,ZGHA 031000Z AUTO 17006KT 6SM 33/25 A2968 RMK T03300250 IEM_DS3505
ZGHA,2008-07-03 11:00,ZGHA 031100Z AUTO 16004KT 6SM 32/25 A2971 RMK T03200250 IEM_DS3505
ZGHA,2008-07-03 12:00,ZGHA 031200Z AUTO 17004KT 6SM 31/25 A2971 RMK T03100250 IEM_DS3505
ZGHA,2008-07-03 13:00,ZGHA 031300Z AUTO 6SM 30/25 A2974 RMK T03000250 IEM_DS3505
ZGHA,2008-07-03 14:00,ZGHA 031400Z AUTO 6SM 29/25 A2974 RMK T02900250 IEM_DS3505
ZGHA,2008-07-03 15:00,ZGHA 031500Z AUTO 6SM 28/25 A2974 RMK T02800250 IEM_DS3505
ZGHA,2008-07-03 16:00,ZGHA 031600Z AUTO 17004KT 6SM 28/24 A2974 RMK T02800240 IEM_DS3505
ZGHA,2008-07-03 17:00,ZGHA 031700Z AUTO 16004KT 6SM 28/24 A2971 RMK T02800240 IEM_DS3505
ZGHA,2008-07-03 18:00,ZGHA 031800Z AUTO 16006KT 6SM 27/24 A2971 RMK T02700240 IEM_DS3505
ZGHA,2008-07-03 19:00,ZGHA 031900Z AUTO 17004KT 6SM 27/24 A2971 RMK T02700240 IEM_DS3505
ZGHA,2008-07-03 20:00,ZGHA 032000Z AUTO 6SM 27/24 A2971 RMK T02700240 IEM_DS3505
ZGHA,2008-07-03 21:00,ZGHA 032100Z AUTO 17004KT 6SM 27/24 A2971 RMK T02700240 IEM_DS3505
ZGHA,2008-07-03 22:00,ZGHA 032200Z AUTO 19004KT 6SM 26/24 A2974 RMK T02600240 IEM_DS3505
ZGHA,2008-07-03 23:00,ZGHA 032300Z AUTO 16006KT 6SM 28/25 A2974 RMK T02800250 IEM_DS3505
ZGHA,2008-07-04 00:00,ZGHA 040000Z AUTO 18008KT 6SM 29/25 A2974 RMK T02900250 IEM_DS3505
ZGHA,2008-07-04 01:00,ZGHA 040100Z AUTO 18010KT 6SM 31/25 A2974 RMK T03100250 IEM_DS3505
ZGHA,2008-07-04 02:00,ZGHA 040200Z AUTO 18014KT 6SM 33/25 A2974 RMK T03300250 IEM_DS3505
ZGHA,2008-07-04 03:00,ZGHA 040300Z AUTO 18016KT 6SM 34/25 A2971 RMK T03400250 IEM_DS3505
ZGHA,2008-07-04 04:00,ZGHA 040400Z AUTO 19014KT 6SM 35/25 A2971 RMK T03500250 IEM_DS3505
ZGHA,2008-07-04 05:00,ZGHA 040500Z AUTO 19014KT 7SM 35/25 A2968 RMK T03500250 IEM_DS3505
ZGHA,2008-07-04 06:00,ZGHA 040600Z AUTO 19014KT 7SM 35/25 A2968 RMK T03500250 IEM_DS3505
ZGHA,2008-07-04 07:00,ZGHA 040700Z AUTO 20014KT 7SM 35/25 A2968 RMK T03500250 IEM_DS3505
ZGHA,2008-07-04 08:00,ZGHA 040800Z AUTO 20014KT 7SM 35/24 A2965 RMK T03500240 IEM_DS3505
ZGHA,2008-07-04 09:00,ZGHA 040900Z AUTO 21012KT 6SM 35/24 A2965 RMK T03500240 IEM_DS3505
ZGHA,2008-07-04 10:00,ZGHA 041000Z AUTO 18008KT 6SM 33/25 A2962 RMK T03300250 IEM_DS3505
ZGHA,2008-07-04 11:00,ZGHA 041100Z AUTO 17006KT 6SM 32/25 A2962 RMK T03200250 IEM_DS3505
ZGHA,2008-07-04 12:00,ZGHA 041200Z AUTO 17006KT 5SM 31/25 A2965 RMK T03100250 IEM_DS3505
ZGHA,2008-07-04 13:00,ZGHA 041300Z AUTO 5SM 30/25 A2965 RMK T03000250 IEM_DS3505
ZGHA,2008-07-04 14:00,ZGHA 041400Z AUTO 6SM 29/25 A2965 RMK T02900250 IEM_DS3505
ZGHA,2008-07-04 15:00,ZGHA 041500Z AUTO 16004KT 6SM 29/24 A2965 RMK T02900240 IEM_DS3505
ZGHA,2008-07-04 16:00,ZGHA 041600Z AUTO 17004KT 6SM 29/24 A2968 RMK T02900240 IEM_DS3505
ZGHA,2008-07-04 17:00,ZGHA 041700Z AUTO 17006KT 6SM 28/24 A2965 RMK T02800240 IEM_DS3505
ZGHA,2008-07-04 21:00,ZGHA 042100Z AUTO 18002KT 6SM 27/23 A2962 RMK T02700230 IEM_DS3505
ZGHA,2008-07-04 22:00,ZGHA 042200Z AUTO 18004KT 6SM 27/23 A2965 RMK T02700230 IEM_DS3505
ZGHA,2008-07-04 23:00,ZGHA 042300Z AUTO 6SM 28/24 A2965 RMK T02800240 IEM_DS3505
ZGHA,2008-07-05 00:00,ZGHA 050000Z AUTO 16006KT 6SM 30/24 A2965 RMK T03000240 IEM_DS3505
ZGHA,2008-07-05 01:00,ZGHA 050100Z AUTO 18014KT 6SM 32/25 A2965 RMK T03200250 IEM_DS3505
ZGHA,2008-07-05 02:00,ZGHA 050200Z AUTO 19019KT 7SM 34/24 A2965 RMK T03400240 IEM_DS3505
ZGHA,2008-07-05 03:00,ZGHA 050300Z AUTO 19016KT 7SM 34/25 A2965 RMK T03400250 IEM_DS3505
ZGHA,2008-07-05 04:00,ZGHA 050400Z AUTO 19016KT 7SM 35/24 A2965 RMK T03500240 IEM_DS3505
ZGHA,2008-07-05 05:00,ZGHA 050500Z AUTO 21014KT 7SM 36/24 A2962 RMK T03600240 IEM_DS3505
ZGHA,2008-07-05 06:00,ZGHA 050600Z AUTO 18012KT 7SM 35/25 A2962 RMK T03500250 IEM_DS3505
ZGHA,2008-07-05 07:00,ZGHA 050700Z AUTO 20014KT 7SM 35/24 A2962 RMK T03500240 IEM_DS3505
ZGHA,2008-07-05 08:00,ZGHA 050800Z AUTO 21016KT 7SM 36/24 A2959 RMK T03600240 IEM_DS3505
ZGHA,2008-07-05 09:00,ZGHA 050900Z AUTO 19014KT 7SM 35/24 A2959 RMK T03500240 IEM_DS3505
ZGHA,2008-07-05 10:00,ZGHA 051000Z AUTO 20008KT 7SM 33/25 A2962 RMK T03300250 IEM_DS3505
ZGHA,2008-07-05 11:00,ZGHA 051100Z AUTO 19006KT 4SM 32/24 A2962 RMK T03200240 IEM_DS3505
ZGHA,2008-07-05 12:00,ZGHA 051200Z AUTO 18004KT 3SM 31/24 A2965 RMK T03100240 IEM_DS3505
ZGHA,2008-07-05 13:00,ZGHA 051300Z AUTO 17004KT 3SM 30/25 A2968 RMK T03000250 IEM_DS3505
ZGHA,2008-07-05 14:00,ZGHA 051400Z AUTO 17004KT 3SM 30/24 A2968 RMK T03000240 IEM_DS3505
ZGHA,2008-07-05 15:00,ZGHA 051500Z AUTO 3SM 28/24 A2968 RMK T02800240 IEM_DS3505
ZGHA,2008-07-05 16:00,ZGHA 051600Z AUTO 17004KT 3SM 28/24 A2968 RMK T02800240 IEM_DS3505
ZGHA,2008-07-05 17:00,ZGHA 051700Z AUTO 3SM 27/24 A2968 RMK T02700240 IEM_DS3505
ZGHA,2008-07-05 18:00,ZGHA 051800Z AUTO 16004KT 6SM 28/24 A2965 RMK T02800240 IEM_DS3505
ZGHA,2008-07-05 19:00,ZGHA 051900Z AUTO 6SM 27/23 A2965 RMK T02700230 IEM_DS3505
ZGHA,2008-07-05 20:00,ZGHA 052000Z AUTO 6SM 27/23 A2965 RMK T02700230 IEM_DS3505
ZGHA,2008-07-05 21:00,ZGHA 052100Z AUTO 3SM 27/23 A2965 RMK T02700230 IEM_DS3505
ZGHA,2008-07-05 22:00,ZGHA 052200Z AUTO 4SM 27/23 A2965 RMK T02700230 IEM_DS3505
ZGHA,2008-07-05 23:00,ZGHA 052300Z AUTO 17004KT 5SM 28/23 A2965 RMK T02800230 IEM_DS3505
ZGHA,2008-07-06 00:00,ZGHA 060000Z AUTO 16006KT 7SM 30/24 A2968 RMK T03000240 IEM_DS3505
ZGHA,2008-07-06 01:00,ZGHA 060100Z AUTO 17006KT 6SM 30/24 A2968 RMK T03000240 IEM_DS3505
ZGHA,2008-07-06 02:00,ZGHA 060200Z AUTO 18008KT 6SM 33/24 A2968 RMK T03300240 IEM_DS3505
ZGHA,2008-07-06 03:00,ZGHA 060300Z AUTO 19008KT 6SM 33/24 A2971 RMK T03300240 IEM_DS3505
ZGHA,2008-07-06 04:00,ZGHA 060400Z AUTO 22008KT 6SM 33/24 A2971 RMK T03300240 IEM_DS3505
ZGHA,2008-07-06 05:00,ZGHA 060500Z AUTO 25008KT 6SM 33/24 A2971 RMK T03300240 IEM_DS3505
ZGHA,2008-07-06 06:00,ZGHA 060600Z AUTO 24006KT 6SM 33/24 A2968 RMK T03300240 IEM_DS3505
ZGHA,2008-07-06 07:00,ZGHA 060700Z AUTO 32008KT 1SM 31/26 A2968 RMK T03100260 IEM_DS3505
ZGHA,2008-07-06 08:00,ZGHA 060800Z AUTO 32004KT 2SM 34/25 A2965 RMK T03400250 IEM_DS3505
ZGHA,2008-07-06 09:00,ZGHA 060900Z AUTO 36004KT 3SM 33/25 A2965 RMK T03300250 IEM_DS3505
ZGHA,2008-07-06 10:00,ZGHA 061000Z AUTO 01004KT 1 1/2SM 32/26 A2965 RMK T03200260 IEM_DS3505
ZGHA,2008-07-06 11:00,ZGHA 061100Z AUTO 1SM 30/26 A2965 RMK T03000260 IEM_DS3505
ZGHA,2008-07-06 12:00,ZGHA 061200Z AUTO 33004KT 1 1/2SM 30/25 A2968 RMK T03000250 IEM_DS3505
ZGHA,2008-07-06 13:00,ZGHA 061300Z AUTO 36004KT 1 1/4SM 29/26 A2968 RMK T02900260 IEM_DS3505
ZGHA,2008-07-06 14:00,ZGHA 061400Z AUTO 00000KT 1 1/2SM 28/26 A2971 RMK T02800260 IEM_DS3505
ZGHA,2008-07-06 15:00,ZGHA 061500Z AUTO 00000KT 2SM 28/26 A2971 RMK T02800260 IEM_DS3505
ZGHA,2008-07-06 16:00,ZGHA 061600Z AUTO 18016KT 3SM 23/22 A2977 RMK T02300220 IEM_DS3505
ZGHA,2008-07-06 17:00,ZGHA 061700Z AUTO 14004KT 7SM 23/22 A2974 RMK T02300220 IEM_DS3505
ZGHA,2008-07-06 18:00,ZGHA 061800Z AUTO 6SM 22/22 A2971 RMK T02200220 IEM_DS3505
ZGHA,2008-07-06 19:00,ZGHA 061900Z AUTO 6SM 22/22 A2971 RMK T02200220 IEM_DS3505
ZGHA,2008-07-06 20:00,ZGHA 062000Z AUTO 00000KT 7SM 23/23 A2971 RMK T02300230 IEM_DS3505
ZGHA,2008-07-06 21:00,ZGHA 062100Z AUTO 00000KT 4SM 23/23 A2971 RMK T02300230 IEM_DS3505
ZGHA,2008-07-06 22:00,ZGHA 062200Z AUTO 6SM 23/23 A2971 RMK T02300230 IEM_DS3505
ZGHA,2008-07-06 23:00,ZGHA 062300Z AUTO 6SM 23/23 A2971 RMK T02300230 IEM_DS3505
ZGHA,2008-07-07 00:00,ZGHA 070000Z AUTO 08004KT 6SM 24/23 A2971 RMK T02400230 IEM_DS3505
ZGHA,2008-07-07 01:00,ZGHA 070100Z AUTO 6SM 26/25 A2971 RMK T02600250 IEM_DS3505
ZGHA,2008-07-07 02:00,ZGHA 070200Z AUTO 6SM 28/25 A2974 RMK T02800250 IEM_DS3505
ZGHA,2008-07-07 03:00,ZGHA 070300Z AUTO 07004KT 6SM 30/25 A2974 RMK T03000250 IEM_DS3505
ZGHA,2008-07-07 04:00,ZGHA 070400Z AUTO 7SM 32/26 A2971 RMK T03200260 IEM_DS3505
ZGHA,2008-07-07 05:00,ZGHA 070500Z AUTO 01004KT 7SM 32/25 A2971 RMK T03200250 IEM_DS3505
ZGHA,2008-07-07 06:00,ZGHA 070600Z AUTO 36006KT 7SM 30/25 A2968 RMK T03000250 IEM_DS3505
ZGHA,2008-07-07 07:00,ZGHA 070700Z AUTO 30008KT 7SM 27/25 A2968 RMK T02700250 IEM_DS3505
ZGHA,2008-07-07 08:00,ZGHA 070800Z AUTO 32008KT 7SM 27/25 A2968 RMK T02700250 IEM_DS3505
ZGHA,2008-07-07 09:00,ZGHA 070900Z AUTO 35008KT 7SM 27/25 A2965 RMK T02700250 IEM_DS3505
ZGHA,2008-07-07 10:00,ZGHA 071000Z AUTO 36008KT 7SM 26/25 A2965 RMK T02600250 IEM_DS3505
ZGHA,2008-07-07 11:00,ZGHA 071100Z AUTO 4SM 24/24 A2971 RMK T02400240 IEM_DS3505
ZGHA,2008-07-07 12:00,ZGHA 071200Z AUTO 4SM 24/24 A2971 RMK T02400240 IEM_DS3505
ZGHA,2008-07-07 13:00,ZGHA 071300Z AUTO 36004KT 7SM 24/23 A2971 RMK T02400230 IEM_DS3505
ZGHA,2008-07-07 14:00,ZGHA 071400Z AUTO 7SM 24/23 A2971 RMK T02400230 IEM_DS3505
ZGHA,2008-07-07 15:00,ZGHA 071500Z AUTO 7SM 24/24 A2971 RMK T02400240 IEM_DS3505
ZGHA,2008-07-07 16:00,ZGHA 071600Z AUTO 6SM 24/24 A2971 RMK T02400240 IEM_DS3505
ZGHA,2008-07-07 17:00,ZGHA 071700Z AUTO 00000KT 7SM 24/24 A2971 RMK T02400240 IEM_DS3505
ZGHA,2008-07-07 18:00,ZGHA 071800Z AUTO 35002KT 7SM 24/24 A2968 RMK T02400240 IEM_DS3505
ZGHA,2008-07-07 19:00,ZGHA 071900Z AUTO 32004KT 6SM 24/24 A2968 RMK T02400240 IEM_DS3505
ZGHA,2008-07-07 20:00,ZGHA 072000Z AUTO 2SM 24/24 A2968 RMK T02400240 IEM_DS3505
ZGHA,2008-07-07 21:00,ZGHA 072100Z AUTO 36002KT 3SM 24/24 A2968 RMK T02400240 IEM_DS3505
ZGHA,2008-07-07 22:00,ZGHA 072200Z AUTO 34004KT 3SM 24/24 A2968 RMK T02400240 IEM_DS3505
ZGHA,2008-07-07 23:00,ZGHA 072300Z AUTO 3SM 25/25 A2968 RMK T02500250 IEM_DS3505
ZGHA,2008-07-08 00:00,ZGHA 080000Z AUTO 5SM 26/25 A2971 RMK T02600250 IEM_DS3505
ZGHA,2008-07-08 01:00,ZGHA 080100Z AUTO 5SM 29/28 A2971 RMK T02900280 IEM_DS3505
ZGHA,2008-07-08 02:00,ZGHA 080200Z AUTO 7SM 29/26 A2971 RMK T02900260 IEM_DS3505
ZGHA,2008-07-08 03:00,ZGHA 080300Z AUTO 05004KT 7SM 31/26 A2968 RMK T03100260 IEM_DS3505
ZGHA,2008-07-08 04:00,ZGHA 080400Z AUTO 09004KT 7SM 29/26 A2968 RMK T02900260 IEM_DS3505
ZGHA,2008-07-08 05:00,ZGHA 080500Z AUTO 24004KT 5SM 27/26 A2968 RMK T02700260 IEM_DS3505
ZGHA,2008-07-08 07:00,ZGHA 080700Z AUTO 5SM 29/26 A2965 RMK T02900260 IEM_DS3505
ZGHA,2008-07-08 08:00,ZGHA 080800Z AUTO 34012KT 7SM 27/25 A2965 RMK T02700250 IEM_DS3505
ZGHA,2008-07-08 09:00,ZGHA 080900Z AUTO 34008KT 7SM 26/25 A2965 RMK T02600250 IEM_DS3505
ZGHA,2008-07-08 10:00,ZGHA 081000Z AUTO 32008KT 5SM 26/25 A2968 RMK T02600250 IEM_DS3505
ZGHA,2008-07-08 11:00,ZGHA 081100Z AUTO 34004KT 5SM 25/24 A2968 RMK T02500240 IEM_DS3505
ZGHA,2008-07-08 12:00,ZGHA 081200Z AUTO 35004KT 4SM 25/24 A2968 RMK T02500240 IEM_DS3505
ZGHA,2008-07-08 13:00,ZGHA 081300Z AUTO 30006KT 4SM 25/24 A2971 RMK T02500240 IEM_DS3505
ZGHA,2008-07-08 14:00,ZGHA 081400Z AUTO 32004KT 3SM 25/25 A2971 RMK T02500250 IEM_DS3505
ZGHA,2008-07-08 15:00,ZGHA 081500Z AUTO 27004KT 2 1/2SM 25/25 A2974 RMK T02500250 IEM_DS3505
ZGHA,2008-07-08 16:00,ZGHA 081600Z AUTO 22004KT 2 1/2SM 25/25 A2974 RMK T02500250 IEM_DS3505
ZGHA,2008-07-08 17:00,ZGHA 081700Z AUTO 21004KT 2 1/2SM 25/25 A2974 RMK T02500250 IEM_DS3505
ZGHA,2008-07-08 18:00,ZGHA 081800Z AUTO 21004KT 1 1/2SM 25/25 A2974 RMK T02500250 IEM_DS3505
ZGHA,2008-07-08 19:00,ZGHA 081900Z AUTO 22004KT 1 1/2SM 25/25 A2974 RMK T02500250 IEM_DS3505
ZGHA,2008-07-08 20:00,ZGHA 082000Z AUTO 22004KT 1 1/2SM 25/25 A2974 RMK T02500250 IEM_DS3505
ZGHA,2008-07-08 21:00,ZGHA 082100Z AUTO 20004KT 2SM 25/25 A2974 RMK T02500250 IEM_DS3505
ZGHA,2008-07-08 22:00,ZGHA 082200Z AUTO 20004KT 1 1/2SM 25/25 A2974 RMK T02500250 IEM_DS3505
ZGHA,2008-07-08 23:00,ZGHA 082300Z AUTO 20004KT 1 1/2SM 25/25 A2977 RMK T02500250 IEM_DS3505
ZGHA,2008-07-09 00:00,ZGHA 090000Z AUTO 20004KT 2SM 25/25 A2980 RMK T02500250 IEM_DS3505
ZGHA,2008-07-09 01:00,ZGHA 090100Z AUTO 20004KT 2 1/2SM 26/26 A2980 RMK T02600260 IEM_DS3505
ZGHA,2008-07-09 02:00,ZGHA 090200Z AUTO 20004KT 3SM 28/26 A2980 RMK T02800260 IEM_DS3505
ZGHA,2008-07-09 03:00,ZGHA 090300Z AUTO 26004KT 5SM 29/25 A2980 RMK T02900250 IEM_DS3505
ZGHA,2008-07-09 04:00,ZGHA 090400Z AUTO 24004KT 5SM 31/26 A2980 RMK T03100260 IEM_DS3505
ZGHA,2008-07-09 05:00,ZGHA 090500Z AUTO 26006KT 7SM 31/26 A2977 RMK T03100260 IEM_DS3505
ZGHA,2008-07-09 06:00,ZGHA 090600Z AUTO 25006KT 7SM 33/27 A2974 RMK T03300270 IEM_DS3505
ZGHA,2008-07-09 07:00,ZGHA 090700Z AUTO 10004KT 7SM 33/26 A2974 RMK T03300260 IEM_DS3505
ZGHA,2008-07-09 08:00,ZGHA 090800Z AUTO 18004KT 7SM 32/25 A2971 RMK T03200250 IEM_DS3505
ZGHA,2008-07-09 09:00,ZGHA 090900Z AUTO 22004KT 7SM 32/26 A2968 RMK T03200260 IEM_DS3505
ZGHA,2008-07-09 10:00,ZGHA 091000Z AUTO 7SM 31/26 A2968 RMK T03100260 IEM_DS3505
ZGHA,2008-07-09 11:00,ZGHA 091100Z AUTO 7SM 30/26 A2971 RMK T03000260 IEM_DS3505
ZGHA,2008-07-09 12:00,ZGHA 091200Z AUTO 3SM 29/26 A2974 RMK T02900260 IEM_DS3505
ZGHA,2008-07-09 13:00,ZGHA 091300Z AUTO 1 1/2SM 28/27 A2974 RMK T02800270 IEM_DS3505
ZGHA,2008-07-09 14:00,ZGHA 091400Z AUTO 1 1/2SM 28/27 A2974 RMK T02800270 IEM_DS3505
ZGHA,2008-07-09 15:00,ZGHA 091500Z AUTO 3SM 27/26 A2974 RMK T02700260 IEM_DS3505
ZGHA,2008-07-09 16:00,ZGHA 091600Z AUTO 17004KT 4SM 26/26 A2974 RMK T02600260 IEM_DS3505
ZGHA,2008-07-09 17:00,ZGHA 091700Z AUTO 3SM 26/25 A2974 RMK T02600250 IEM_DS3505
ZGHA,2008-07-09 18:00,ZGHA 091800Z AUTO 18004KT 3SM 26/25 A2971 RMK T02600250 IEM_DS3505
ZGHA,2008-07-09 19:00,ZGHA 091900Z AUTO 3SM 26/25 A2971 RMK T02600250 IEM_DS3505
ZGHA,2008-07-09 20:00,ZGHA 092000Z AUTO 00000KT 4SM 25/25 A2971 RMK T02500250 IEM_DS3505
ZGHA,2008-07-09 21:00,ZGHA 092100Z AUTO 2 1/2SM 25/25 A2971 RMK T02500250 IEM_DS3505
ZGHA,2008-07-09 22:00,ZGHA 092200Z AUTO 2SM 25/25 A2971 RMK T02500250 IEM_DS3505
ZGHA,2008-07-09 23:00,ZGHA 092300Z AUTO 2 1/2SM 26/26 A2971 RMK T02600260 IEM_DS3505
ZGHA,2008-07-10 00:00,ZGHA 100000Z AUTO 18004KT 4SM 27/27 A2974 RMK T02700270 IEM_DS3505
ZGHA,2008-07-10 01:00,ZGHA 100100Z AUTO 17006KT 6SM 28/26 A2974 RMK T02800260 IEM_DS3505
ZGHA,2008-07-10 02:00,ZGHA 100200Z AUTO 20010KT 7SM 29/26 A2974 RMK T02900260 IEM_DS3505
ZGHA,2008-07-10 03:00,ZGHA 100300Z AUTO 18010KT 6SM 29/26 A2971 RMK T02900260 IEM_DS3505
ZGHA,2008-07-10 04:00,ZGHA 100400Z AUTO 23008KT 7SM 30/26 A2968 RMK T03000260 IEM_DS3505
ZGHA,2008-07-10 05:00,ZGHA 100500Z AUTO 19012KT 6SM 31/26 A2968 RMK T03100260 IEM_DS3505
ZGHA,2008-07-10 06:00,ZGHA 100600Z AUTO 19014KT 7SM 32/26 A2965 RMK T03200260 IEM_DS3505
ZGHA,2008-07-10 07:00,ZGHA 100700Z AUTO 25010KT 7SM 29/26 A2965 RMK T02900260 IEM_DS3505
ZGHA,2008-07-10 08:00,ZGHA 100800Z AUTO 24006KT 7SM 29/26 A2962 RMK T02900260 IEM_DS3505
ZGHA,2008-07-10 09:00,ZGHA 100900Z AUTO 7SM 30/26 A2962 RMK T03000260 IEM_DS3505
ZGHA,2008-07-10 10:00,ZGHA 101000Z AUTO 35006KT 7SM 28/26 A2962 RMK T02800260 IEM_DS3505
ZGHA,2008-07-10 11:00,ZGHA 101100Z AUTO 5SM 26/25 A2962 RMK T02600250 IEM_DS3505
ZGHA,2008-07-10 12:00,ZGHA 101200Z AUTO 2 1/2SM 26/26 A2965 RMK T02600260 IEM_DS3505
ZGHA,2008-07-10 13:00,ZGHA 101300Z AUTO 2SM 26/26 A2965 RMK T02600260 IEM_DS3505
ZGHA,2008-07-10 14:00,ZGHA 101400Z AUTO 2SM 26/25 A2965 RMK T02600250 IEM_DS3505
ZGHA,2008-07-10 15:00,ZGHA 101500Z AUTO 10002KT 2SM 26/25 A2968 RMK T02600250 IEM_DS3505
ZGHA,2008-07-10 16:00,ZGHA 101600Z AUTO 00000KT 1 1/4SM 26/25 A2965 RMK T02600250 IEM_DS3505
ZGHA,2008-07-10 17:00,ZGHA 101700Z AUTO 02002KT 1SM 26/26 A2965 RMK T02600260 IEM_DS3505
ZGHA,2008-07-10 18:00,ZGHA 101800Z AUTO 00000KT 1 1/2SM 25/25 A2965 RMK T02500250 IEM_DS3505
ZGHA,2008-07-10 19:00,ZGHA 101900Z AUTO 2 1/2SM 25/25 A2962 RMK T02500250 IEM_DS3505
ZGHA,2008-07-10 20:00,ZGHA 102000Z AUTO 2SM 25/25 A2962 RMK T02500250 IEM_DS3505
ZGHA,2008-07-10 21:00,ZGHA 102100Z AUTO 2 1/2SM 25/25 A2962 RMK T02500250 IEM_DS3505
ZGHA,2008-07-10 22:00,ZGHA 102200Z AUTO 4SM 25/25 A2965 RMK T02500250 IEM_DS3505
ZGHA,2008-07-10 23:00,ZGHA 102300Z AUTO 00000KT 4SM 25/24 A2965 RMK T02500240 IEM_DS3505
ZGHA,2008-07-11 00:00,ZGHA 110000Z AUTO 00000KT 4SM 26/25 A2965 RMK T02600250 IEM_DS3505
ZGHA,2008-07-11 01:00,ZGHA 110100Z AUTO 4SM 28/27 A2965 RMK T02800270 IEM_DS3505
ZGHA,2008-07-11 02:00,ZGHA 110200Z AUTO 15004KT 4SM 28/26 A2965 RMK T02800260 IEM_DS3505
ZGHA,2008-07-11 03:00,ZGHA 110300Z AUTO 20004KT 5SM 30/27 A2965 RMK T03000270 IEM_DS3505
ZGHA,2008-07-11 04:00,ZGHA 110400Z AUTO 28004KT 5SM 32/26 A2965 RMK T03200260 IEM_DS3505
ZGHA,2008-07-11 05:00,ZGHA 110500Z AUTO 5SM 33/28 A2962 RMK T03300280 IEM_DS3505
ZGHA,2008-07-11 06:00,ZGHA 110600Z AUTO 32004KT 6SM 33/26 A2959 RMK T03300260 IEM_DS3505
ZGHA,2008-07-11 07:00,ZGHA 110700Z AUTO 35004KT 7SM 34/25 A2956 RMK T03400250 IEM_DS3505
ZGHA,2008-07-11 08:00,ZGHA 110800Z AUTO 34006KT 6SM 35/24 A2953 RMK T03500240 IEM_DS3505
ZGHA,2008-07-11 09:00,ZGHA 110900Z AUTO 33006KT 6SM 34/24 A2953 RMK T03400240 IEM_DS3505
ZGHA,2008-07-11 10:00,ZGHA 111000Z AUTO 31006KT 6SM 33/24 A2953 RMK T03300240 IEM_DS3505
ZGHA,2008-07-11 11:00,ZGHA 111100Z AUTO 30006KT 6SM 31/24 A2956 RMK T03100240 IEM_DS3505
ZGHA,2008-07-11 12:00,ZGHA 111200Z AUTO 33006KT 6SM 29/24 A2956 RMK T02900240 IEM_DS3505
ZGHA,2008-07-11 13:00,ZGHA 111300Z AUTO 31004KT 6SM 29/25 A2959 RMK T02900250 IEM_DS3505
ZGHA,2008-07-11 14:00,ZGHA 111400Z AUTO 5SM 28/25 A2962 RMK T02800250 IEM_DS3505
ZGHA,2008-07-11 15:00,ZGHA 111500Z AUTO 06002KT 4SM 27/25 A2962 RMK T02700250 IEM_DS3505
ZGHA,2008-07-11 16:00,ZGHA 111600Z AUTO 00000KT 3SM 26/25 A2962 RMK T02600250 IEM_DS3505
ZGHA,2008-07-11 17:00,ZGHA 111700Z AUTO 08002KT 1 1/2SM 26/25 A2962 RMK T02600250 IEM_DS3505
ZGHA,2008-07-11 18:00,ZGHA 111800Z AUTO 1SM 25/25 A2959 RMK T02500250 IEM_DS3505
ZGHA,2008-07-11 19:00,ZGHA 111900Z AUTO 1SM 25/24 A2959 RMK T02500240 IEM_DS3505
ZGHA,2008-07-11 20:00,ZGHA 112000Z AUTO 00000KT 1SM 25/24 A2962 RMK T02500240 IEM_DS3505
ZGHA,2008-07-11 21:00,ZGHA 112100Z AUTO 00000KT 2SM 25/25 A2962 RMK T02500250 IEM_DS3505
ZGHA,2008-07-11 22:00,ZGHA 112200Z AUTO 17002KT 1SM 24/24 A2962 RMK T02400240 IEM_DS3505
ZGHA,2008-07-11 23:00,ZGHA 112300Z AUTO 1 1/4SM 25/25 A2962 RMK T02500250 IEM_DS3505
ZGHA,2008-07-12 00:00,ZGHA 120000Z AUTO 20004KT 1 1/2SM 27/26 A2965 RMK T02700260 IEM_DS3505
ZGHA,2008-07-12 01:00,ZGHA 120100Z AUTO 20004KT 2 1/2SM 29/27 A2965 RMK T02900270 IEM_DS3505
ZGHA,2008-07-12 02:00,ZGHA 120200Z AUTO 00000KT 2 1/2SM 31/26 A2965 RMK T03100260 IEM_DS3505
ZGHA,2008-07-12 03:00,ZGHA 120300Z AUTO 00000KT 3SM 34/26 A2965 RMK T03400260 IEM_DS3505
ZGHA,2008-07-12 04:00,ZGHA 120400Z AUTO 4SM 34/25 A2965 RMK T03400250 IEM_DS3505
ZGHA,2008-07-12 05:00,ZGHA 120500Z AUTO 4SM 35/26 A2962 RMK T03500260 IEM_DS3505
ZGHA,2008-07-12 06:00,ZGHA 120600Z AUTO 30004KT 4SM 34/24 A2962 RMK T03400240 IEM_DS3505
ZGHA,2008-07-12 07:00,ZGHA 120700Z AUTO 00000KT 4SM 35/25 A2959 RMK T03500250 IEM_DS3505
ZGHA,2008-07-12 08:00,ZGHA 120800Z AUTO 4SM 35/25 A2956 RMK T03500250 IEM_DS3505
ZGHA,2008-07-12 09:00,ZGHA 120900Z AUTO 4SM 36/23 A2956 RMK T03600230 IEM_DS3505
ZGHA,2008-07-12 10:00,ZGHA 121000Z AUTO 3SM 34/24 A2956 RMK T03400240 IEM_DS3505
ZGHA,2008-07-12 11:00,ZGHA 121100Z AUTO 16004KT 2 1/2SM 31/26 A2959 RMK T03100260 IEM_DS3505
ZGHA,2008-07-12 12:00,ZGHA 121200Z AUTO 1 1/4SM 30/27 A2959 RMK T03000270 IEM_DS3505
ZGHA,2008-07-12 13:00,ZGHA 121300Z AUTO 1 1/2SM 29/26 A2962 RMK T02900260 IEM_DS3505
ZGHA,2008-07-12 14:00,ZGHA 121400Z AUTO 1 1/2SM 29/26 A2965 RMK T02900260 IEM_DS3505
ZGHA,2008-07-12 15:00,ZGHA 121500Z AUTO 1 1/2SM 29/27 A2968 RMK T02900270 IEM_DS3505
ZGHA,2008-07-12 16:00,ZGHA 121600Z AUTO 00000KT 1 1/2SM 28/27 A2965 RMK T02800270 IEM_DS3505
ZGHA,2008-07-12 21:00,ZGHA 122100Z AUTO 17006KT 1 1/2SM 26/26 A2965 RMK T02600260 IEM_DS3505
ZGHA,2008-07-12 22:00,ZGHA 122200Z AUTO 1 1/2SM 26/25 A2968 RMK T02600250 IEM_DS3505
ZGHA,2008-07-12 23:00,ZGHA 122300Z AUTO 2 1/2SM 27/26 A2968 RMK T02700260 IEM_DS3505
ZGHA,2008-07-13 00:00,ZGHA 130000Z AUTO 4SM 28/27 A2968 RMK T02800270 IEM_DS3505
ZGHA,2008-07-13 01:00,ZGHA 130100Z AUTO 15004KT 4SM 31/26 A2968 RMK T03100260 IEM_DS3505
ZGHA,2008-07-13 02:00,ZGHA 130200Z AUTO 23004KT 7SM 32/26 A2971 RMK T03200260 IEM_DS3505
ZGHA,2008-07-13 03:00,ZGHA 130300Z AUTO 21006KT 7SM 31/26 A2971 RMK T03100260 IEM_DS3505
ZGHA,2008-07-13 04:00,ZGHA 130400Z AUTO 7SM 33/26 A2968 RMK T03300260 IEM_DS3505
ZGHA,2008-07-13 05:00,ZGHA 130500Z AUTO 7SM 34/25 A2965 RMK T03400250 IEM_DS3505
ZGHA,2008-07-13 06:00,ZGHA 130600Z AUTO 21006KT 7SM 36/26 A2965 RMK T03600260 IEM_DS3505
ZGHA,2008-07-13 07:00,ZGHA 130700Z AUTO 16004KT 7SM 34/26 A2962 RMK T03400260 IEM_DS3505
ZGHA,2008-07-13 08:00,ZGHA 130800Z AUTO 08006KT 3SM 31/27 A2962 RMK T03100270 IEM_DS3505
ZGHA,2008-07-13 09:00,ZGHA 130900Z AUTO 2SM 31/27 A2959 RMK T03100270 IEM_DS3505
ZGHA,2008-07-13 10:00,ZGHA 131000Z AUTO 08004KT 2SM 30/27 A2962 RMK T03000270 IEM_DS3505
ZGHA,2008-07-13 11:00,ZGHA 131100Z AUTO 08006KT 2 1/2SM 30/27 A2962 RMK T03000270 IEM_DS3505
ZGHA,2008-07-13 12:00,ZGHA 131200Z AUTO 2 1/2SM 29/27 A2965 RMK T02900270 IEM_DS3505
ZGHA,2008-07-13 13:00,ZGHA 131300Z AUTO 2 1/2SM 29/27 A2968 RMK T02900270 IEM_DS3505
ZGHA,2008-07-13 14:00,ZGHA 131400Z AUTO 2 1/2SM 28/27 A2971 RMK T02800270 IEM_DS3505
ZGHA,2008-07-13 15:00,ZGHA 131500Z AUTO 07004KT 3SM 28/27 A2968 RMK T02800270 IEM_DS3505
ZGHA,2008-07-13 16:00,ZGHA 131600Z AUTO 07004KT 3SM 28/27 A2968 RMK T02800270 IEM_DS3505
ZGHA,2008-07-13 18:00,ZGHA 131800Z AUTO 30004KT 2 1/2SM 27/27 A2968 RMK T02700270 IEM_DS3505
ZGHA,2008-07-13 19:00,ZGHA 131900Z AUTO 22004KT 2 1/2SM 27/27 A2968 RMK T02700270 IEM_DS3505
ZGHA,2008-07-13 20:00,ZGHA 132000Z AUTO 2 1/2SM 27/26 A2968 RMK T02700260 IEM_DS3505
ZGHA,2008-07-13 21:00,ZGHA 132100Z AUTO 16004KT 3SM 26/26 A2968 RMK T02600260 IEM_DS3505
ZGHA,2008-07-13 22:00,ZGHA 132200Z AUTO 17004KT 3SM 27/26 A2968 RMK T02700260 IEM_DS3505
ZGHA,2008-07-13 23:00,ZGHA 132300Z AUTO 3SM 27/26 A2971 RMK T02700260 IEM_DS3505
ZGHA,2008-07-14 00:00,ZGHA 140000Z AUTO 2 1/2SM 29/27 A2971 RMK T02900270 IEM_DS3505
ZGHA,2008-07-14 01:00,ZGHA 140100Z AUTO 15004KT 4SM 31/27 A2971 RMK T03100270 IEM_DS3505
ZGHA,2008-07-14 02:00,ZGHA 140200Z AUTO 18006KT 7SM 31/26 A2971 RMK T03100260 IEM_DS3505
ZGHA,2008-07-14 03:00,ZGHA 140300Z AUTO 15004KT 7SM 32/26 A2971 RMK T03200260 IEM_DS3505
ZGHA,2008-07-14 04:00,ZGHA 140400Z AUTO 21008KT 7SM 33/26 A2971 RMK T03300260 IEM_DS3505
ZGHA,2008-07-14 05:00,ZGHA 140500Z AUTO 18006KT 7SM 34/26 A2968 RMK T03400260 IEM_DS3505
ZGHA,2008-07-14 06:00,ZGHA 140600Z AUTO 17006KT 7SM 34/25 A2968 RMK T03400250 IEM_DS3505
ZGHA,2008-07-14 07:00,ZGHA 140700Z AUTO 15004KT 7SM 36/25 A2965 RMK T03600250 IEM_DS3505
ZGHA,2008-07-14 08:00,ZGHA 140800Z AUTO 18006KT 7SM 36/25 A2962 RMK T03600250 IEM_DS3505
ZGHA,2008-07-14 09:00,ZGHA 140900Z AUTO 21006KT 7SM 34/25 A2959 RMK T03400250 IEM_DS3505
ZGHA,2008-07-14 10:00,ZGHA 141000Z AUTO 22004KT 6SM 34/25 A2962 RMK T03400250 IEM_DS3505
ZGHA,2008-07-14 11:00,ZGHA 141100Z AUTO 6SM 33/27 A2962 RMK T03300270 IEM_DS3505
ZGHA,2008-07-14 12:00,ZGHA 141200Z AUTO 11004KT 7SM 31/26 A2965 RMK T03100260 IEM_DS3505
ZGHA,2008-07-14 13:00,ZGHA 141300Z AUTO 00000KT 4SM 30/27 A2968 RMK T03000270 IEM_DS3505
ZGHA,2008-07-14 14:00,ZGHA 141400Z AUTO 4SM 30/27 A2968 RMK T03000270 IEM_DS3505
ZGHA,2008-07-14 15:00,ZGHA 141500Z AUTO 5SM 30/26 A2968 RMK T03000260 IEM_DS3505
ZGHA,2008-07-14 16:00,ZGHA 141600Z AUTO 18004KT 5SM 29/26 A2968 RMK T02900260 IEM_DS3505
ZGHA,2008-07-14 17:00,ZGHA 141700Z AUTO 14002KT 6SM 28/25 A2965 RMK T02800250 IEM_DS3505
ZGHA,2008-07-14 18:00,ZGHA 141800Z AUTO 23002KT 6SM 28/26 A2965 RMK T02800260 IEM_DS3505
ZGHA,2008-07-14 21:00,ZGHA 142100Z AUTO 4SM 27/26 A2965 RMK T02700260 IEM_DS3505
ZGHA,2008-07-14 22:00,ZGHA 142200Z AUTO 6SM 28/26 A2968 RMK T02800260 IEM_DS3505
ZGHA,2008-07-14 23:00,ZGHA 142300Z AUTO 6SM 28/26 A2968 RMK T02800260 IEM_DS3505
ZGHA,2008-07-15 00:00,ZGHA 150000Z AUTO 6SM 30/26 A2968 RMK T03000260 IEM_DS3505
ZGHA,2008-07-15 01:00,ZGHA 150100Z AUTO 15004KT 6SM 31/26 A2968 RMK T03100260 IEM_DS3505
ZGHA,2008-07-15 02:00,ZGHA 150200Z AUTO 15004KT 6SM 33/26 A2968 RMK T03300260 IEM_DS3505
ZGHA,2008-07-15 03:00,ZGHA 150300Z AUTO 20006KT 7SM 34/26 A2965 RMK T03400260 IEM_DS3505
ZGHA,2008-07-15 04:00,ZGHA 150400Z AUTO 21004KT 7SM 35/27 A2965 RMK T03500270 IEM_DS3505
ZGHA,2008-07-15 05:00,ZGHA 150500Z AUTO 20004KT 7SM 36/26 A2962 RMK T03600260 IEM_DS3505
ZGHA,2008-07-15 06:00,ZGHA 150600Z AUTO 7SM 35/26 A2962 RMK T03500260 IEM_DS3505
ZGHA,2008-07-15 07:00,ZGHA 150700Z AUTO 18006KT 7SM 36/26 A2959 RMK T03600260 IEM_DS3505
ZGHA,2008-07-15 08:00,ZGHA 150800Z AUTO 7SM 36/26 A2956 RMK T03600260 IEM_DS3505
ZGHA,2008-07-15 09:00,ZGHA 150900Z AUTO 08004KT 7SM 35/26 A2956 RMK T03500260 IEM_DS3505
ZGHA,2008-07-15 10:00,ZGHA 151000Z AUTO 00000KT 6SM 34/26 A2956 RMK T03400260 IEM_DS3505
ZGHA,2008-07-15 11:00,ZGHA 151100Z AUTO 08006KT 7SM 34/27 A2959 RMK T03400270 IEM_DS3505
ZGHA,2008-07-15 12:00,ZGHA 151200Z AUTO 08006KT 6SM 31/26 A2962 RMK T03100260 IEM_DS3505
ZGHA,2008-07-15 13:00,ZGHA 151300Z AUTO 00000KT 6SM 30/26 A2962 RMK T03000260 IEM_DS3505
ZGHA,2008-07-15 14:00,ZGHA 151400Z AUTO 08004KT 6SM 29/26 A2962 RMK T02900260 IEM_DS3505
ZGHA,2008-07-15 15:00,ZGHA 151500Z AUTO 6SM 29/26 A2965 RMK T02900260 IEM_DS3505
ZGHA,2008-07-15 16:00,ZGHA 151600Z AUTO 08004KT 6SM 28/26 A2962 RMK T02800260 IEM_DS3505
ZGHA,2008-07-15 17:00,ZGHA 151700Z AUTO 06004KT 6SM 28/26 A2962 RMK T02800260 IEM_DS3505
ZGHA,2008-07-15 18:00,ZGHA 151800Z AUTO 01002KT 6SM 27/26 A2959 RMK T02700260 IEM_DS3505
ZGHA,2008-07-15 19:00,ZGHA 151900Z AUTO 36002KT 6SM 27/26 A2959 RMK T02700260 IEM_DS3505
ZGHA,2008-07-15 20:00,ZGHA 152000Z AUTO 33006KT 4SM 27/26 A2962 RMK T02700260 IEM_DS3505
ZGHA,2008-07-15 22:00,ZGHA 152200Z AUTO 3SM 27/26 A2962 RMK T02700260 IEM_DS3505
ZGHA,2008-07-15 23:00,ZGHA 152300Z AUTO 00000KT 3SM 28/27 A2965 RMK T02800270 IEM_DS3505
ZGHA,2008-07-16 00:00,ZGHA 160000Z AUTO 4SM 29/26 A2965 RMK T02900260 IEM_DS3505
ZGHA,2008-07-16 01:00,ZGHA 160100Z AUTO 5SM 31/27 A2965 RMK T03100270 IEM_DS3505
ZGHA,2008-07-16 02:00,ZGHA 160200Z AUTO 29004KT 3SM 31/27 A2965 RMK T03100270 IEM_DS3505
ZGHA,2008-07-16 03:00,ZGHA 160300Z AUTO 26004KT 2 1/2SM 31/27 A2965 RMK T03100270 IEM_DS3505
ZGHA,2008-07-16 04:00,ZGHA 160400Z AUTO 33004KT 2 1/2SM 32/28 A2965 RMK T03200280 IEM_DS3505
ZGHA,2008-07-16 05:00,ZGHA 160500Z AUTO 32008KT 2SM 33/28 A2962 RMK T03300280 IEM_DS3505
ZGHA,2008-07-16 06:00,ZGHA 160600Z AUTO 34008KT 2SM 33/28 A2962 RMK T03300280 IEM_DS3505
ZGHA,2008-07-16 07:00,ZGHA 160700Z AUTO 33006KT 1 1/2SM 32/27 A2959 RMK T03200270 IEM_DS3505
ZGHA,2008-07-16 08:00,ZGHA 160800Z AUTO 36006KT 2SM 31/28 A2959 RMK T03100280 IEM_DS3505
ZGHA,2008-07-16 09:00,ZGHA 160900Z AUTO 35006KT 2 1/2SM 30/27 A2956 RMK T03000270 IEM_DS3505
ZGHA,2008-07-16 10:00,ZGHA 161000Z AUTO 01006KT 2 1/2SM 29/27 A2959 RMK T02900270 IEM_DS3505
ZGHA,2008-07-16 11:00,ZGHA 161100Z AUTO 02004KT 3SM 29/26 A2959 RMK T02900260 IEM_DS3505
ZGHA,2008-07-16 12:00,ZGHA 161200Z AUTO 3SM 28/26 A2959 RMK T02800260 IEM_DS3505
ZGHA,2008-07-16 13:00,ZGHA 161300Z AUTO 01004KT 3SM 28/26 A2959 RMK T02800260 IEM_DS3505
ZGHA,2008-07-16 14:00,ZGHA 161400Z AUTO 3SM 28/27 A2962 RMK T02800270 IEM_DS3505
ZGHA,2008-07-16 15:00,ZGHA 161500Z AUTO 3SM 27/26 A2962 RMK T02700260 IEM_DS3505
ZGHA,2008-07-16 16:00,ZGHA 161600Z AUTO 33004KT 4SM 27/26 A2962 RMK T02700260 IEM_DS3505
ZGHA,2008-07-16 19:00,ZGHA 161900Z AUTO 00000KT 1 1/2SM 27/26 A2959 RMK T02700260 IEM_DS3505
ZGHA,2008-07-16 21:00,ZGHA 162100Z AUTO 00000KT 2SM 26/26 A2962 RMK T02600260 IEM_DS3505
ZGHA,2008-07-16 22:00,ZGHA 162200Z AUTO 1 1/2SM 26/26 A2962 RMK T02600260 IEM_DS3505
ZGHA,2008-07-16 23:00,ZGHA 162300Z AUTO 2 1/2SM 27/27 A2962 RMK T02700270 IEM_DS3505
ZGHA,2008-07-17 00:00,ZGHA 170000Z AUTO 09004KT 4SM 30/28 A2965 RMK T03000280 IEM_DS3505
ZGHA,2008-07-17 01:00,ZGHA 170100Z AUTO 5SM 31/27 A2965 RMK T03100270 IEM_DS3505
ZGHA,2008-07-17 02:00,ZGHA 170200Z AUTO 6SM 34/28 A2965 RMK T03400280 IEM_DS3505
ZGHA,2008-07-17 03:00,ZGHA 170300Z AUTO 12004KT 6SM 35/28 A2965 RMK T03500280 IEM_DS3505
ZGHA,2008-07-17 04:00,ZGHA 170400Z AUTO 21004KT 6SM 36/27 A2965 RMK T03600270 IEM_DS3505
ZGHA,2008-07-17 05:00,ZGHA 170500Z AUTO 23006KT 6SM 36/27 A2962 RMK T03600270 IEM_DS3505
ZGHA,2008-07-17 06:00,ZGHA 170600Z AUTO 28006KT 6SM 37/27 A2959 RMK T03700270 IEM_DS3505
ZGHA,2008-07-17 07:00,ZGHA 170700Z AUTO 29006KT 7SM 36/27 A2959 RMK T03600270 IEM_DS3505
ZGHA,2008-07-17 08:00,ZGHA 170800Z AUTO 6SM 38/26 A2956 RMK T03800260 IEM_DS3505
ZGHA,2008-07-17 09:00,ZGHA 170900Z AUTO 22006KT 7SM 36/26 A2953 RMK T03600260 IEM_DS3505
ZGHA,2008-07-17 10:00,ZGHA 171000Z AUTO 26004KT 6SM 36/27 A2953 RMK T03600270 IEM_DS3505
ZGHA,2008-07-17 11:00,ZGHA 171100Z AUTO 22004KT 6SM 34/28 A2956 RMK T03400280 IEM_DS3505
ZGHA,2008-07-17 12:00,ZGHA 171200Z AUTO 00000KT 2 1/2SM 33/27 A2959 RMK T03300270 IEM_DS3505
ZGHA,2008-07-17 13:00,ZGHA 171300Z AUTO 02002KT 2SM 32/29 A2962 RMK T03200290 IEM_DS3505
ZGHA,2008-07-17 14:00,ZGHA 171400Z AUTO 1 1/2SM 31/29 A2962 RMK T03100290 IEM_DS3505
ZGHA,2008-07-17 15:00,ZGHA 171500Z AUTO 00000KT 1 1/2SM 31/29 A2962 RMK T03100290 IEM_DS3505
ZGHA,2008-07-17 16:00,ZGHA 171600Z AUTO 1 1/2SM 30/29 A2962 RMK T03000290 IEM_DS3505
ZGHA,2008-07-17 17:00,ZGHA 171700Z AUTO 1 1/2SM 29/28 A2962 RMK T02900280 IEM_DS3505
ZGHA,2008-07-17 18:00,ZGHA 171800Z AUTO 2SM 29/27 A2959 RMK T02900270 IEM_DS3505
ZGHA,2008-07-17 21:00,ZGHA 172100Z AUTO 1 1/4SM 27/27 A2959 RMK T02700270 IEM_DS3505
ZGHA,2008-07-17 22:00,ZGHA 172200Z AUTO 1 1/4SM 27/27 A2962 RMK T02700270 IEM_DS3505
ZGHA,2008-07-17 23:00,ZGHA 172300Z AUTO 1 1/2SM 28/27 A2962 RMK T02800270 IEM_DS3505
ZGHA,2008-07-18 00:00,ZGHA 180000Z AUTO 2SM 30/28 A2965 RMK T03000280 IEM_DS3505
ZGHA,2008-07-18 01:00,ZGHA 180100Z AUTO 19006KT 3SM 32/28 A2965 RMK T03200280 IEM_DS3505
ZGHA,2008-07-18 02:00,ZGHA 180200Z AUTO 21004KT 3SM 35/28 A2965 RMK T03500280 IEM_DS3505
ZGHA,2008-07-18 03:00,ZGHA 180300Z AUTO 25004KT 3SM 36/28 A2965 RMK T03600280 IEM_DS3505
ZGHA,2008-07-18 04:00,ZGHA 180400Z AUTO 23006KT 3SM 37/27 A2962 RMK T03700270 IEM_DS3505
ZGHA,2008-07-18 05:00,ZGHA 180500Z AUTO 14004KT 4SM 37/27 A2959 RMK T03700270 IEM_DS3505
ZGHA,2008-07-18 06:00,ZGHA 180600Z AUTO 24006KT 5SM 38/27 A2956 RMK T03800270 IEM_DS3505
ZGHA,2008-07-18 07:00,ZGHA 180700Z AUTO 22004KT 7SM 38/25 A2956 RMK T03800250 IEM_DS3505
ZGHA,2008-07-18 08:00,ZGHA 180800Z AUTO 01014KT 4SM 37/26 A2953 RMK T03700260 IEM_DS3505
ZGHA,2008-07-18 09:00,ZGHA 180900Z AUTO 32006KT 3SM 30/27 A2959 RMK T03000270 IEM_DS3505
ZGHA,2008-07-18 10:00,ZGHA 181000Z AUTO 30004KT 4SM 27/25 A2959 RMK T02700250 IEM_DS3505
ZGHA,2008-07-18 11:00,ZGHA 181100Z AUTO 36004KT 4SM 27/25 A2962 RMK T02700250 IEM_DS3505
ZGHA,2008-07-18 12:00,ZGHA 181200Z AUTO 32006KT 2 1/2SM 27/25 A2965 RMK T02700250 IEM_DS3505
ZGHA,2008-07-18 13:00,ZGHA 181300Z AUTO 29006KT 2SM 27/26 A2965 RMK T02700260 IEM_DS3505
ZGHA,2008-07-18 14:00,ZGHA 181400Z AUTO 01004KT 2SM 27/26 A2965 RMK T02700260 IEM_DS3505
ZGHA,2008-07-18 15:00,ZGHA 181500Z AUTO 2SM 27/26 A2965 RMK T02700260 IEM_DS3505
ZGHA,2008-07-18 16:00,ZGHA 181600Z AUTO 32006KT 2 1/2SM 27/26 A2968 RMK T02700260 IEM_DS3505
ZGHA,2008-07-18 17:00,ZGHA 181700Z AUTO 32004KT 1 1/2SM 27/26 A2968 RMK T02700260 IEM_DS3505
ZGHA,2008-07-18 18:00,ZGHA 181800Z AUTO 35004KT 2 1/2SM 26/25 A2965 RMK T02600250 IEM_DS3505
ZGHA,2008-07-18 19:00,ZGHA 181900Z AUTO 00000KT 2SM 26/25 A2965 RMK T02600250 IEM_DS3505
ZGHA,2008-07-18 21:00,ZGHA 182100Z AUTO 2SM 26/25 A2965 RMK T02600250 IEM_DS3505
ZGHA,2008-07-18 22:00,ZGHA 182200Z AUTO 32004KT 2SM 26/25 A2968 RMK T02600250 IEM_DS3505
ZGHA,2008-07-18 23:00,ZGHA 182300Z AUTO 33004KT 2SM 27/26 A2968 RMK T02700260 IEM_DS3505
ZGHA,2008-07-19 00:00,ZGHA 190000Z AUTO 35006KT 3SM 28/26 A2971 RMK T02800260 IEM_DS3505
ZGHA,2008-07-19 01:00,ZGHA 190100Z AUTO 32012G21KT 4SM 30/25 A2971 RMK T03000250 IEM_DS3505
ZGHA,2008-07-19 02:00,ZGHA 190200Z AUTO 30008KT 4SM 30/26 A2971 RMK T03000260 IEM_DS3505
ZGHA,2008-07-19 03:00,ZGHA 190300Z AUTO 30006KT 4SM 30/25 A2971 RMK T03000250 IEM_DS3505
ZGHA,2008-07-19 04:00,ZGHA 190400Z AUTO 28006KT 6SM 31/24 A2971 RMK T03100240 IEM_DS3505
ZGHA,2008-07-19 05:00,ZGHA 190500Z AUTO 27006KT 6SM 32/25 A2971 RMK T03200250 IEM_DS3505
ZGHA,2008-07-19 06:00,ZGHA 190600Z AUTO 26008KT 6SM 32/24 A2971 RMK T03200240 IEM_DS3505
ZGHA,2008-07-19 07:00,ZGHA 190700Z AUTO 28004KT 6SM 33/25 A2968 RMK T03300250 IEM_DS3505
ZGHA,2008-07-19 08:00,ZGHA 190800Z AUTO 30006KT 4SM 33/25 A2968 RMK T03300250 IEM_DS3505
ZGHA,2008-07-19 09:00,ZGHA 190900Z AUTO 29008KT 4SM 32/25 A2965 RMK T03200250 IEM_DS3505
ZGHA,2008-07-19 10:00,ZGHA 191000Z AUTO 26006KT 4SM 31/25 A2965 RMK T03100250 IEM_DS3505
ZGHA,2008-07-19 11:00,ZGHA 191100Z AUTO 26006KT 2SM 30/25 A2968 RMK T03000250 IEM_DS3505
ZGHA,2008-07-19 12:00,ZGHA 191200Z AUTO 29004KT 1 1/2SM 29/25 A2968 RMK T02900250 IEM_DS3505
ZGHA,2008-07-19 13:00,ZGHA 191300Z AUTO 1 1/2SM 28/25 A2971 RMK T02800250 IEM_DS3505
ZGHA,2008-07-19 14:00,ZGHA 191400Z AUTO 30004KT 1 1/2SM 28/25 A2971 RMK T02800250 IEM_DS3505
ZGHA,2008-07-19 15:00,ZGHA 191500Z AUTO 28004KT 1 1/2SM 28/25 A2974 RMK T02800250 IEM_DS3505
ZGHA,2008-07-19 16:00,ZGHA 191600Z AUTO 09002KT 1 1/4SM 27/26 A2974 RMK T02700260 IEM_DS3505
ZGHA,2008-07-19 17:00,ZGHA 191700Z AUTO 1SM 27/26 A2971 RMK T02700260 IEM_DS3505
ZGHA,2008-07-19 19:00,ZGHA 191900Z AUTO 00000KT 1SM 26/26 A2971 RMK T02600260 IEM_DS3505
ZGHA,2008-07-19 21:00,ZGHA 192100Z AUTO 00000KT 1SM 26/25 A2971 RMK T02600250 IEM_DS3505
ZGHA,2008-07-19 22:00,ZGHA 192200Z AUTO 1SM 26/25 A2971 RMK T02600250 IEM_DS3505
ZGHA,2008-07-19 23:00,ZGHA 192300Z AUTO 1 1/4SM 26/25 A2974 RMK T02600250 IEM_DS3505
ZGHA,2008-07-20 00:00,ZGHA 200000Z AUTO 1 1/2SM 27/26 A2977 RMK T02700260 IEM_DS3505
ZGHA,2008-07-20 01:00,ZGHA 200100Z AUTO 1 1/2SM 28/26 A2977 RMK T02800260 IEM_DS3505
ZGHA,2008-07-20 02:00,ZGHA 200200Z AUTO 17006KT 1 1/2SM 30/26 A2977 RMK T03000260 IEM_DS3505
ZGHA,2008-07-20 03:00,ZGHA 200300Z AUTO 13004KT 1 1/2SM 30/27 A2977 RMK T03000270 IEM_DS3505
ZGHA,2008-07-20 04:00,ZGHA 200400Z AUTO 15006KT 3SM 30/26 A2977 RMK T03000260 IEM_DS3505
ZGHA,2008-07-20 05:00,ZGHA 200500Z AUTO 18010KT 4SM 32/27 A2974 RMK T03200270 IEM_DS3505
ZGHA,2008-07-20 06:00,ZGHA 200600Z AUTO 18010KT 5SM 31/26 A2971 RMK T03100260 IEM_DS3505
ZGHA,2008-07-20 07:00,ZGHA 200700Z AUTO 17008KT 6SM 31/26 A2971 RMK T03100260 IEM_DS3505
ZGHA,2008-07-20 08:00,ZGHA 200800Z AUTO 15006KT 6SM 31/26 A2971 RMK T03100260 IEM_DS3505
ZGHA,2008-07-20 09:00,ZGHA 200900Z AUTO 14004KT 6SM 31/26 A2968 RMK T03100260 IEM_DS3505
ZGHA,2008-07-20 10:00,ZGHA 201000Z AUTO 6SM 31/26 A2965 RMK T03100260 IEM_DS3505
ZGHA,2008-07-20 11:00,ZGHA 201100Z AUTO 6SM 30/25 A2965 RMK T03000250 IEM_DS3505
ZGHA,2008-07-20 12:00,ZGHA 201200Z AUTO 6SM 29/26 A2968 RMK T02900260 IEM_DS3505
ZGHA,2008-07-20 13:00,ZGHA 201300Z AUTO 6SM 28/26 A2968 RMK T02800260 IEM_DS3505
ZGHA,2008-07-20 14:00,ZGHA 201400Z AUTO 6SM 27/25 A2968 RMK T02700250 IEM_DS3505
ZGHA,2008-07-20 15:00,ZGHA 201500Z AUTO 00000KT 6SM 27/25 A2968 RMK T02700250 IEM_DS3505
ZGHA,2008-07-20 16:00,ZGHA 201600Z AUTO 6SM 26/25 A2968 RMK T02600250 IEM_DS3505
ZGHA,2008-07-20 17:00,ZGHA 201700Z AUTO 19002KT 6SM 26/25 A2968 RMK T02600250 IEM_DS3505
ZGHA,2008-07-20 18:00,ZGHA 201800Z AUTO 20004KT 6SM 26/25 A2965 RMK T02600250 IEM_DS3505
ZGHA,2008-07-20 19:00,ZGHA 201900Z AUTO 16004KT 6SM 27/25 A2965 RMK T02700250 IEM_DS3505
ZGHA,2008-07-20 20:00,ZGHA 202000Z AUTO 21004KT 6SM 26/24 A2965 RMK T02600240 IEM_DS3505
ZGHA,2008-07-20 21:00,ZGHA 202100Z AUTO 17004KT 6SM 25/24 A2965 RMK T02500240 IEM_DS3505
ZGHA,2008-07-20 22:00,ZGHA 202200Z AUTO 16004KT 6SM 26/25 A2968 RMK T02600250 IEM_DS3505
ZGHA,2008-07-20 23:00,ZGHA 202300Z AUTO 15006KT 6SM 27/25 A2968 RMK T02700250 IEM_DS3505
ZGHA,2008-07-21 00:00,ZGHA 210000Z AUTO 17008KT 6SM 28/25 A2968 RMK T02800250 IEM_DS3505
ZGHA,2008-07-21 01:00,ZGHA 210100Z AUTO 18016KT 6SM 31/24 A2968 RMK T03100240 IEM_DS3505
ZGHA,2008-07-21 02:00,ZGHA 210200Z AUTO 17010KT 6SM 32/25 A2968 RMK T03200250 IEM_DS3505
ZGHA,2008-07-21 03:00,ZGHA 210300Z AUTO 19014KT 7SM 34/24 A2968 RMK T03400240 IEM_DS3505
ZGHA,2008-07-21 04:00,ZGHA 210400Z AUTO 18012KT 7SM 33/24 A2968 RMK T03300240 IEM_DS3505
ZGHA,2008-07-21 05:00,ZGHA 210500Z AUTO 21014KT 7SM 36/25 A2965 RMK T03600250 IEM_DS3505
ZGHA,2008-07-21 06:00,ZGHA 210600Z AUTO 18010KT 7SM 34/25 A2962 RMK T03400250 IEM_DS3505
ZGHA,2008-07-21 07:00,ZGHA 210700Z AUTO 20012KT 7SM 36/26 A2959 RMK T03600260 IEM_DS3505
ZGHA,2008-07-21 08:00,ZGHA 210800Z AUTO 19012KT 7SM 34/25 A2959 RMK T03400250 IEM_DS3505
ZGHA,2008-07-21 09:00,ZGHA 210900Z AUTO 20012KT 7SM 35/26 A2956 RMK T03500260 IEM_DS3505
ZGHA,2008-07-21 10:00,ZGHA 211000Z AUTO 18010KT 6SM 33/25 A2959 RMK T03300250 IEM_DS3505
ZGHA,2008-07-21 11:00,ZGHA 211100Z AUTO 6SM 32/25 A2959 RMK T03200250 IEM_DS3505
ZGHA,2008-07-21 12:00,ZGHA 211200Z AUTO 6SM 31/26 A2959 RMK T03100260 IEM_DS3505
ZGHA,2008-07-21 13:00,ZGHA 211300Z AUTO 13004KT 6SM 30/26 A2962 RMK T03000260 IEM_DS3505
ZGHA,2008-07-21 14:00,ZGHA 211400Z AUTO 6SM 30/25 A2962 RMK T03000250 IEM_DS3505
ZGHA,2008-07-21 15:00,ZGHA 211500Z AUTO 6SM 29/25 A2959 RMK T02900250 IEM_DS3505
ZGHA,2008-07-21 16:00,ZGHA 211600Z AUTO 6SM 29/25 A2959 RMK T02900250 IEM_DS3505
ZGHA,2008-07-21 17:00,ZGHA 211700Z AUTO 6SM 29/24 A2959 RMK T02900240 IEM_DS3505
ZGHA,2008-07-21 18:00,ZGHA 211800Z AUTO 15004KT 7SM 29/24 A2956 RMK T02900240 IEM_DS3505
ZGHA,2008-07-21 19:00,ZGHA 211900Z AUTO 7SM 30/24 A2956 RMK T03000240 IEM_DS3505
ZGHA,2008-07-21 20:00,ZGHA 212000Z AUTO 17004KT 7SM 29/24 A2956 RMK T02900240 IEM_DS3505
ZGHA,2008-07-21 21:00,ZGHA 212100Z AUTO 15004KT 6SM 29/24 A2956 RMK T02900240 IEM_DS3505
ZGHA,2008-07-21 22:00,ZGHA 212200Z AUTO 15004KT 6SM 29/24 A2956 RMK T02900240 IEM_DS3505
ZGHA,2008-07-21 23:00,ZGHA 212300Z AUTO 17006KT 6SM 29/25 A2956 RMK T02900250 IEM_DS3505
ZGHA,2008-07-22 00:00,ZGHA 220000Z AUTO 17008KT 6SM 30/25 A2956 RMK T03000250 IEM_DS3505
ZGHA,2008-07-22 01:00,ZGHA 220100Z AUTO 16006KT 6SM 32/26 A2956 RMK T03200260 IEM_DS3505
ZGHA,2008-07-22 02:00,ZGHA 220200Z AUTO 18016KT 6SM 35/25 A2956 RMK T03500250 IEM_DS3505
ZGHA,2008-07-22 03:00,ZGHA 220300Z AUTO 19019KT 7SM 36/26 A2956 RMK T03600260 IEM_DS3505
ZGHA,2008-07-22 04:00,ZGHA 220400Z AUTO 19017KT 7SM 35/25 A2953 RMK T03500250 IEM_DS3505
ZGHA,2008-07-22 05:00,ZGHA 220500Z AUTO 20017KT 7SM 35/26 A2953 RMK T03500260 IEM_DS3505
ZGHA,2008-07-22 06:00,ZGHA 220600Z AUTO 18017KT 7SM 36/24 A2953 RMK T03600240 IEM_DS3505
ZGHA,2008-07-22 07:00,ZGHA 220700Z AUTO 18019KT 7SM 35/25 A2950 RMK T03500250 IEM_DS3505
ZGHA,2008-07-22 08:00,ZGHA 220800Z AUTO 19014KT 7SM 35/26 A2950 RMK T03500260 IEM_DS3505
ZGHA,2008-07-22 09:00,ZGHA 220900Z AUTO 18014KT 7SM 34/25 A2950 RMK T03400250 IEM_DS3505
ZGHA,2008-07-22 10:00,ZGHA 221000Z AUTO 18012KT 7SM 33/25 A2950 RMK T03300250 IEM_DS3505
ZGHA,2008-07-22 11:00,ZGHA 221100Z AUTO 17004KT 7SM 32/26 A2953 RMK T03200260 IEM_DS3505
ZGHA,2008-07-22 12:00,ZGHA 221200Z AUTO 7SM 31/26 A2953 RMK T03100260 IEM_DS3505
ZGHA,2008-07-22 13:00,ZGHA 221300Z AUTO 7SM 31/26 A2953 RMK T03100260 IEM_DS3505
ZGHA,2008-07-22 14:00,ZGHA 221400Z AUTO 6SM 31/25 A2956 RMK T03100250 IEM_DS3505
ZGHA,2008-07-22 15:00,ZGHA 221500Z AUTO 18006KT 6SM 30/25 A2956 RMK T03000250 IEM_DS3505
ZGHA,2008-07-22 16:00,ZGHA 221600Z AUTO 17006KT 6SM 30/25 A2953 RMK T03000250 IEM_DS3505
ZGHA,2008-07-22 17:00,ZGHA 221700Z AUTO 18004KT 6SM 30/25 A2953 RMK T03000250 IEM_DS3505
ZGHA,2008-07-22 18:00,ZGHA 221800Z AUTO 17004KT 7SM 29/25 A2953 RMK T02900250 IEM_DS3505
ZGHA,2008-07-22 19:00,ZGHA 221900Z AUTO 18008KT 6SM 30/24 A2953 RMK T03000240 IEM_DS3505
ZGHA,2008-07-22 20:00,ZGHA 222000Z AUTO 19008KT 7SM 30/24 A2953 RMK T03000240 IEM_DS3505
ZGHA,2008-07-22 21:00,ZGHA 222100Z AUTO 18006KT 6SM 29/24 A2956 RMK T02900240 IEM_DS3505
ZGHA,2008-07-22 22:00,ZGHA 222200Z AUTO 18006KT 6SM 28/24 A2956 RMK T02800240 IEM_DS3505
ZGHA,2008-07-22 23:00,ZGHA 222300Z AUTO 17006KT 6SM 29/24 A2956 RMK T02900240 IEM_DS3505
ZGHA,2008-07-23 00:00,ZGHA 230000Z AUTO 18010KT 6SM 32/25 A2959 RMK T03200250 IEM_DS3505
ZGHA,2008-07-23 01:00,ZGHA 230100Z AUTO 21016KT 6SM 33/24 A2959 RMK T03300240 IEM_DS3505
ZGHA,2008-07-23 02:00,ZGHA 230200Z AUTO 21014KT 6SM 33/25 A2962 RMK T03300250 IEM_DS3505
ZGHA,2008-07-23 03:00,ZGHA 230300Z AUTO 19014KT 7SM 34/25 A2962 RMK T03400250 IEM_DS3505
ZGHA,2008-07-23 04:00,ZGHA 230400Z AUTO 20014KT 7SM 35/25 A2962 RMK T03500250 IEM_DS3505
ZGHA,2008-07-23 05:00,ZGHA 230500Z AUTO 21019KT 7SM 36/24 A2959 RMK T03600240 IEM_DS3505
ZGHA,2008-07-23 06:00,ZGHA 230600Z AUTO 20014KT 7SM 34/25 A2959 RMK T03400250 IEM_DS3505
ZGHA,2008-07-23 07:00,ZGHA 230700Z AUTO 20016KT 7SM 35/24 A2959 RMK T03500240 IEM_DS3505
ZGHA,2008-07-23 08:00,ZGHA 230800Z AUTO 21010KT 7SM 35/25 A2959 RMK T03500250 IEM_DS3505
ZGHA,2008-07-23 09:00,ZGHA 230900Z AUTO 20010KT 6SM 34/25 A2959 RMK T03400250 IEM_DS3505
ZGHA,2008-07-23 10:00,ZGHA 231000Z AUTO 20008KT 6SM 34/26 A2959 RMK T03400260 IEM_DS3505
ZGHA,2008-07-23 11:00,ZGHA 231100Z AUTO 22004KT 6SM 33/26 A2959 RMK T03300260 IEM_DS3505
ZGHA,2008-07-23 12:00,ZGHA 231200Z AUTO 30008KT 6SM 30/27 A2962 RMK T03000270 IEM_DS3505
ZGHA,2008-07-23 13:00,ZGHA 231300Z AUTO 30010KT 6SM 28/26 A2965 RMK T02800260 IEM_DS3505
ZGHA,2008-07-23 14:00,ZGHA 231400Z AUTO 6SM 28/26 A2965 RMK T02800260 IEM_DS3505
ZGHA,2008-07-23 15:00,ZGHA 231500Z AUTO 4SM 27/26 A2968 RMK T02700260 IEM_DS3505
ZGHA,2008-07-23 16:00,ZGHA 231600Z AUTO 36004KT 4SM 26/25 A2968 RMK T02600250 IEM_DS3505
ZGHA,2008-07-23 18:00,ZGHA 231800Z AUTO 36004KT 2 1/2SM 26/25 A2968 RMK T02600250 IEM_DS3505
ZGHA,2008-07-23 20:00,ZGHA 232000Z AUTO 2SM 26/25 A2968 RMK T02600250 IEM_DS3505
ZGHA,2008-07-23 21:00,ZGHA 232100Z AUTO 2 1/2SM 25/24 A2968 RMK T02500240 IEM_DS3505
ZGHA,2008-07-23 22:00,ZGHA 232200Z AUTO 1 1/2SM 25/24 A2968 RMK T02500240 IEM_DS3505
ZGHA,2008-07-23 23:00,ZGHA 232300Z AUTO 2SM 26/26 A2971 RMK T02600260 IEM_DS3505
ZGHA,2008-07-24 00:00,ZGHA 240000Z AUTO 2 1/2SM 28/26 A2971 RMK T02800260 IEM_DS3505
ZGHA,2008-07-24 01:00,ZGHA 240100Z AUTO 18006KT 3SM 30/27 A2971 RMK T03000270 IEM_DS3505
ZGHA,2008-07-24 02:00,ZGHA 240200Z AUTO 19010KT 5SM 33/26 A2971 RMK T03300260 IEM_DS3505
ZGHA,2008-07-24 03:00,ZGHA 240300Z AUTO 20010KT 6SM 34/26 A2971 RMK T03400260 IEM_DS3505
ZGHA,2008-07-24 04:00,ZGHA 240400Z AUTO 20010KT 7SM 35/26 A2971 RMK T03500260 IEM_DS3505
ZGHA,2008-07-24 05:00,ZGHA 240500Z AUTO 19008KT 7SM 35/25 A2971 RMK T03500250 IEM_DS3505
ZGHA,2008-07-24 06:00,ZGHA 240600Z AUTO 24008KT 7SM 36/25 A2968 RMK T03600250 IEM_DS3505
ZGHA,2008-07-24 07:00,ZGHA 240700Z AUTO 21010KT 7SM 38/26 A2965 RMK T03800260 IEM_DS3505
ZGHA,2008-07-24 08:00,ZGHA 240800Z AUTO 18010KT 7SM 37/25 A2965 RMK T03700250 IEM_DS3505
ZGHA,2008-07-24 09:00,ZGHA 240900Z AUTO 21010KT 7SM 37/25 A2965 RMK T03700250 IEM_DS3505
ZGHA,2008-07-24 10:00,ZGHA 241000Z AUTO 16006KT 7SM 35/26 A2965 RMK T03500260 IEM_DS3505
ZGHA,2008-07-24 11:00,ZGHA 241100Z AUTO 16004KT 6SM 33/26 A2965 RMK T03300260 IEM_DS3505
ZGHA,2008-07-24 12:00,ZGHA 241200Z AUTO 6SM 32/26 A2965 RMK T03200260 IEM_DS3505
ZGHA,2008-07-24 13:00,ZGHA 241300Z AUTO 31004KT 6SM 31/26 A2968 RMK T03100260 IEM_DS3505
ZGHA,2008-07-24 14:00,ZGHA 241400Z AUTO 32006KT 6SM 30/26 A2971 RMK T03000260 IEM_DS3505
ZGHA,2008-07-24 15:00,ZGHA 241500Z AUTO 5SM 29/26 A2971 RMK T02900260 IEM_DS3505
ZGHA,2008-07-24 16:00,ZGHA 241600Z AUTO 32006KT 4SM 27/25 A2971 RMK T02700250 IEM_DS3505
ZGHA,2008-07-24 17:00,ZGHA 241700Z AUTO 34004KT 4SM 27/25 A2971 RMK T02700250 IEM_DS3505
ZGHA,2008-07-24 18:00,ZGHA 241800Z AUTO 33006KT 2 1/2SM 27/25 A2971 RMK T02700250 IEM_DS3505
ZGHA,2008-07-24 19:00,ZGHA 241900Z AUTO 33004KT 2 1/2SM 26/25 A2971 RMK T02600250 IEM_DS3505
ZGHA,2008-07-24 20:00,ZGHA 242000Z AUTO 33004KT 1 1/4SM 26/25 A2974 RMK T02600250 IEM_DS3505
ZGHA,2008-07-24 21:00,ZGHA 242100Z AUTO 2SM 26/25 A2974 RMK T02600250 IEM_DS3505
ZGHA,2008-07-24 22:00,ZGHA 242200Z AUTO 1 1/2SM 26/25 A2974 RMK T02600250 IEM_DS3505
ZGHA,2008-07-24 23:00,ZGHA 242300Z AUTO 1 1/2SM 26/26 A2974 RMK T02600260 IEM_DS3505
ZGHA,2008-07-25 00:00,ZGHA 250000Z AUTO 00000KT 2SM 29/27 A2974 RMK T02900270 IEM_DS3505
ZGHA,2008-07-25 01:00,ZGHA 250100Z AUTO 3SM 31/27 A2977 RMK T03100270 IEM_DS3505
ZGHA,2008-07-25 02:00,ZGHA 250200Z AUTO 4SM 32/27 A2977 RMK T03200270 IEM_DS3505
ZGHA,2008-07-25 03:00,ZGHA 250300Z AUTO 27006KT 4SM 33/27 A2977 RMK T03300270 IEM_DS3505
ZGHA,2008-07-25 04:00,ZGHA 250400Z AUTO 26004KT 5SM 34/27 A2974 RMK T03400270 IEM_DS3505
ZGHA,2008-07-25 05:00,ZGHA 250500Z AUTO 22004KT 7SM 36/26 A2974 RMK T03600260 IEM_DS3505
ZGHA,2008-07-25 06:00,ZGHA 250600Z AUTO 7SM 37/26 A2971 RMK T03700260 IEM_DS3505
ZGHA,2008-07-25 07:00,ZGHA 250700Z AUTO 7SM 38/25 A2971 RMK T03800250 IEM_DS3505
ZGHA,2008-07-25 08:00,ZGHA 250800Z AUTO 23008KT 7SM 38/25 A2968 RMK T03800250 IEM_DS3505
ZGHA,2008-07-25 09:00,ZGHA 250900Z AUTO 26004KT 6SM 37/24 A2968 RMK T03700240 IEM_DS3505
ZGHA,2008-07-25 10:00,ZGHA 251000Z AUTO 21004KT 6SM 37/24 A2965 RMK T03700240 IEM_DS3505
ZGHA,2008-07-25 11:00,ZGHA 251100Z AUTO 22004KT 6SM 35/25 A2968 RMK T03500250 IEM_DS3505
ZGHA,2008-07-25 12:00,ZGHA 251200Z AUTO 4SM 32/25 A2968 RMK T03200250 IEM_DS3505
ZGHA,2008-07-25 13:00,ZGHA 251300Z AUTO 00000KT 4SM 31/27 A2968 RMK T03100270 IEM_DS3505
ZGHA,2008-07-25 14:00,ZGHA 251400Z AUTO 09002KT 3SM 30/27 A2971 RMK T03000270 IEM_DS3505
ZGHA,2008-07-25 15:00,ZGHA 251500Z AUTO 3SM 29/26 A2971 RMK T02900260 IEM_DS3505
ZGHA,2008-07-25 16:00,ZGHA 251600Z AUTO 18002KT 4SM 28/25 A2971 RMK T02800250 IEM_DS3505
ZGHA,2008-07-25 17:00,ZGHA 251700Z AUTO 00000KT 4SM 27/25 A2971 RMK T02700250 IEM_DS3505
ZGHA,2008-07-25 21:00,ZGHA 252100Z AUTO 00000KT 3SM 26/25 A2971 RMK T02600250 IEM_DS3505
ZGHA,2008-07-25 22:00,ZGHA 252200Z AUTO 00000KT 2 1/2SM 26/25 A2974 RMK T02600250 IEM_DS3505
ZGHA,2008-07-25 23:00,ZGHA 252300Z AUTO 00000KT 2 1/2SM 27/26 A2974 RMK T02700260 IEM_DS3505
ZGHA,2008-07-26 00:00,ZGHA 260000Z AUTO 09004KT 4SM 29/26 A2974 RMK T02900260 IEM_DS3505
ZGHA,2008-07-26 01:00,ZGHA 260100Z AUTO 4SM 32/27 A2974 RMK T03200270 IEM_DS3505
ZGHA,2008-07-26 02:00,ZGHA 260200Z AUTO 20004KT 4SM 34/26 A2974 RMK T03400260 IEM_DS3505
ZGHA,2008-07-26 03:00,ZGHA 260300Z AUTO 16004KT 6SM 35/25 A2974 RMK T03500250 IEM_DS3505
ZGHA,2008-07-26 04:00,ZGHA 260400Z AUTO 21004KT 6SM 37/26 A2974 RMK T03700260 IEM_DS3505
ZGHA,2008-07-26 05:00,ZGHA 260500Z AUTO 26006KT 7SM 39/25 A2971 RMK T03900250 IEM_DS3505
ZGHA,2008-07-26 06:00,ZGHA 260600Z AUTO 21004KT 7SM 38/24 A2968 RMK T03800240 IEM_DS3505
ZGHA,2008-07-26 07:00,ZGHA 260700Z AUTO 7SM 38/25 A2965 RMK T03800250 IEM_DS3505
ZGHA,2008-07-26 08:00,ZGHA 260800Z AUTO 20004KT 7SM 40/25 A2965 RMK T04000250 IEM_DS3505
ZGHA,2008-07-26 09:00,ZGHA 260900Z AUTO 22006KT 7SM 38/26 A2965 RMK T03800260 IEM_DS3505
ZGHA,2008-07-26 10:00,ZGHA 261000Z AUTO 6SM 37/26 A2965 RMK T03700260 IEM_DS3505
ZGHA,2008-07-26 11:00,ZGHA 261100Z AUTO 17004KT 6SM 35/25 A2965 RMK T03500250 IEM_DS3505
ZGHA,2008-07-26 12:00,ZGHA 261200Z AUTO 6SM 33/26 A2968 RMK T03300260 IEM_DS3505
ZGHA,2008-07-26 13:00,ZGHA 261300Z AUTO 00000KT 6SM 32/27 A2968 RMK T03200270 IEM_DS3505
ZGHA,2008-07-26 14:00,ZGHA 261400Z AUTO 09002KT 6SM 30/27 A2971 RMK T03000270 IEM_DS3505
ZGHA,2008-07-26 15:00,ZGHA 261500Z AUTO 6SM 30/27 A2971 RMK T03000270 IEM_DS3505
ZGHA,2008-07-26 16:00,ZGHA 261600Z AUTO 6SM 29/26 A2971 RMK T02900260 IEM_DS3505
ZGHA,2008-07-26 17:00,ZGHA 261700Z AUTO 00000KT 6SM 28/25 A2971 RMK T02800250 IEM_DS3505
ZGHA,2008-07-26 21:00,ZGHA 262100Z AUTO 36002KT 6SM 26/25 A2968 RMK T02600250 IEM_DS3505
ZGHA,2008-07-26 22:00,ZGHA 262200Z AUTO 00000KT 6SM 26/25 A2971 RMK T02600250 IEM_DS3505
ZGHA,2008-07-26 23:00,ZGHA 262300Z AUTO 6SM 28/26 A2971 RMK T02800260 IEM_DS3505
ZGHA,2008-07-27 00:00,ZGHA 270000Z AUTO 6SM 30/25 A2974 RMK T03000250 IEM_DS3505
ZGHA,2008-07-27 01:00,ZGHA 270100Z AUTO 6SM 33/26 A2974 RMK T03300260 IEM_DS3505
ZGHA,2008-07-27 02:00,ZGHA 270200Z AUTO 09004KT 6SM 34/26 A2974 RMK T03400260 IEM_DS3505
ZGHA,2008-07-27 03:00,ZGHA 270300Z AUTO 09004KT 6SM 36/26 A2974 RMK T03600260 IEM_DS3505
ZGHA,2008-07-27 04:00,ZGHA 270400Z AUTO 6SM 37/25 A2971 RMK T03700250 IEM_DS3505
ZGHA,2008-07-27 05:00,ZGHA 270500Z AUTO 6SM 38/23 A2971 RMK T03800230 IEM_DS3505
ZGHA,2008-07-27 06:00,ZGHA 270600Z AUTO 26004KT 7SM 40/25 A2968 RMK T04000250 IEM_DS3505
ZGHA,2008-07-27 07:00,ZGHA 270700Z AUTO 7SM 40/23 A2965 RMK T04000230 IEM_DS3505
ZGHA,2008-07-27 08:00,ZGHA 270800Z AUTO 05004KT 7SM 41/22 A2962 RMK T04100220 IEM_DS3505
ZGHA,2008-07-27 09:00,ZGHA 270900Z AUTO 00000KT 7SM 39/21 A2962 RMK T03900210 IEM_DS3505
ZGHA,2008-07-27 10:00,ZGHA 271000Z AUTO 6SM 38/25 A2962 RMK T03800250 IEM_DS3505
ZGHA,2008-07-27 11:00,ZGHA 271100Z AUTO 6SM 36/26 A2965 RMK T03600260 IEM_DS3505
ZGHA,2008-07-27 12:00,ZGHA 271200Z AUTO 01004KT 6SM 33/25 A2965 RMK T03300250 IEM_DS3505
ZGHA,2008-07-27 13:00,ZGHA 271300Z AUTO 03004KT 6SM 32/23 A2968 RMK T03200230 IEM_DS3505
ZGHA,2008-07-27 14:00,ZGHA 271400Z AUTO 6SM 30/24 A2968 RMK T03000240 IEM_DS3505
ZGHA,2008-07-27 15:00,ZGHA 271500Z AUTO 6SM 30/24 A2968 RMK T03000240 IEM_DS3505
ZGHA,2008-07-27 16:00,ZGHA 271600Z AUTO 6SM 29/24 A2968 RMK T02900240 IEM_DS3505
ZGHA,2008-07-27 17:00,ZGHA 271700Z AUTO 00000KT 6SM 29/24 A2968 RMK T02900240 IEM_DS3505
ZGHA,2008-07-27 18:00,ZGHA 271800Z AUTO 00000KT 6SM 28/24 A2965 RMK T02800240 IEM_DS3505
ZGHA,2008-07-27 19:00,ZGHA 271900Z AUTO 07002KT 5SM 27/25 A2962 RMK T02700250 IEM_DS3505
ZGHA,2008-07-27 20:00,ZGHA 272000Z AUTO 36004KT 6SM 27/25 A2965 RMK T02700250 IEM_DS3505
ZGHA,2008-07-27 21:00,ZGHA 272100Z AUTO 31004KT 4SM 27/25 A2965 RMK T02700250 IEM_DS3505
ZGHA,2008-07-27 22:00,ZGHA 272200Z AUTO 33006KT 4SM 26/25 A2965 RMK T02600250 IEM_DS3505
ZGHA,2008-07-27 23:00,ZGHA 272300Z AUTO 33004KT 4SM 27/26 A2968 RMK T02700260 IEM_DS3505
ZGHA,2008-07-28 00:00,ZGHA 280000Z AUTO 4SM 29/26 A2968 RMK T02900260 IEM_DS3505
ZGHA,2008-07-28 01:00,ZGHA 280100Z AUTO 34006KT 4SM 31/27 A2968 RMK T03100270 IEM_DS3505
ZGHA,2008-07-28 02:00,ZGHA 280200Z AUTO 35004KT 4SM 32/26 A2968 RMK T03200260 IEM_DS3505
ZGHA,2008-07-28 03:00,ZGHA 280300Z AUTO 31006KT 5SM 34/27 A2968 RMK T03400270 IEM_DS3505
ZGHA,2008-07-28 04:00,ZGHA 280400Z AUTO 36004KT 7SM 35/27 A2965 RMK T03500270 IEM_DS3505
ZGHA,2008-07-28 05:00,ZGHA 280500Z AUTO 31010KT 6SM 37/27 A2962 RMK T03700270 IEM_DS3505
ZGHA,2008-07-28 06:00,ZGHA 280600Z AUTO 29016KT 6SM 36/27 A2959 RMK T03600270 IEM_DS3505
ZGHA,2008-07-28 07:00,ZGHA 280700Z AUTO 33014KT 6SM 38/27 A2956 RMK T03800270 IEM_DS3505
ZGHA,2008-07-28 08:00,ZGHA 280800Z AUTO 35012KT 6SM 38/27 A2956 RMK T03800270 IEM_DS3505
ZGHA,2008-07-28 09:00,ZGHA 280900Z AUTO 06008KT 6SM 34/26 A2956 RMK T03400260 IEM_DS3505
ZGHA,2008-07-28 10:00,ZGHA 281000Z AUTO 35010KT 4SM 35/28 A2953 RMK T03500280 IEM_DS3505
ZGHA,2008-07-28 11:00,ZGHA 281100Z AUTO 34010KT 4SM 34/28 A2953 RMK T03400280 IEM_DS3505
ZGHA,2008-07-28 12:00,ZGHA 281200Z AUTO 36008KT 3SM 33/28 A2956 RMK T03300280 IEM_DS3505
ZGHA,2008-07-28 13:00,ZGHA 281300Z AUTO 01004KT 4SM 32/27 A2956 RMK T03200270 IEM_DS3505
ZGHA,2008-07-28 14:00,ZGHA 281400Z AUTO 36006KT 4SM 31/27 A2959 RMK T03100270 IEM_DS3505
ZGHA,2008-07-28 15:00,ZGHA 281500Z AUTO 01006KT 4SM 31/27 A2959 RMK T03100270 IEM_DS3505
ZGHA,2008-07-28 16:00,ZGHA 281600Z AUTO 36006KT 2 1/2SM 30/28 A2956 RMK T03000280 IEM_DS3505
ZGHA,2008-07-28 17:00,ZGHA 281700Z AUTO 36006KT 2 1/2SM 30/28 A2953 RMK T03000280 IEM_DS3505
ZGHA,2008-07-28 19:00,ZGHA 281900Z AUTO 34010KT 2SM 30/28 A2950 RMK T03000280 IEM_DS3505
ZGHA,2008-07-28 21:00,ZGHA 282100Z AUTO 34010KT 2 1/2SM 29/27 A2950 RMK T02900270 IEM_DS3505
ZGHA,2008-07-28 22:00,ZGHA 282200Z AUTO 34010KT 2 1/2SM 29/27 A2950 RMK T02900270 IEM_DS3505
ZGHA,2008-07-28 23:00,ZGHA 282300Z AUTO 34008KT 2 1/2SM 29/27 A2950 RMK T02900270 IEM_DS3505
ZGHA,2008-07-29 00:00,ZGHA 290000Z AUTO 34012KT 2 1/2SM 31/27 A2950 RMK T03100270 IEM_DS3505
ZGHA,2008-07-29 01:00,ZGHA 290100Z AUTO 35010KT 3SM 32/27 A2953 RMK T03200270 IEM_DS3505
ZGHA,2008-07-29 02:00,ZGHA 290200Z AUTO 35010KT 4SM 33/26 A2953 RMK T03300260 IEM_DS3505
ZGHA,2008-07-29 03:00,ZGHA 290300Z AUTO 35012KT 5SM 34/26 A2950 RMK T03400260 IEM_DS3505
ZGHA,2008-07-29 04:00,ZGHA 290400Z AUTO 34012KT 6SM 33/26 A2950 RMK T03300260 IEM_DS3505
ZGHA,2008-07-29 05:00,ZGHA 290500Z AUTO 34014KT 5SM 34/26 A2947 RMK T03400260 IEM_DS3505
ZGHA,2008-07-29 06:00,ZGHA 290600Z AUTO 33012KT 7SM 34/26 A2947 RMK T03400260 IEM_DS3505
ZGHA,2008-07-29 07:00,ZGHA 290700Z AUTO 35012KT 7SM 35/26 A2944 RMK T03500260 IEM_DS3505
ZGHA,2008-07-29 08:00,ZGHA 290800Z AUTO 36012KT 7SM 33/26 A2944 RMK T03300260 IEM_DS3505
ZGHA,2008-07-29 09:00,ZGHA 290900Z AUTO 04004KT 2SM 28/26 A2944 RMK T02800260 IEM_DS3505
ZGHA,2008-07-29 10:00,ZGHA 291000Z AUTO 01004KT 2 1/2SM 29/28 A2944 RMK T02900280 IEM_DS3505
ZGHA,2008-07-29 11:00,ZGHA 291100Z AUTO 35006KT 5SM 29/27 A2944 RMK T02900270 IEM_DS3505
ZGHA,2008-07-29 12:00,ZGHA 291200Z AUTO 34010KT 7SM 30/26 A2944 RMK T03000260 IEM_DS3505
ZGHA,2008-07-29 13:00,ZGHA 291300Z AUTO 34010KT 7SM 30/26 A2947 RMK T03000260 IEM_DS3505
ZGHA,2008-07-29 14:00,ZGHA 291400Z AUTO 34012KT 7SM 30/26 A2947 RMK T03000260 IEM_DS3505
ZGHA,2008-07-29 15:00,ZGHA 291500Z AUTO 34012KT 7SM 29/26 A2947 RMK T02900260 IEM_DS3505
ZGHA,2008-07-29 16:00,ZGHA 291600Z AUTO 33010KT 7SM 29/26 A2947 RMK T02900260 IEM_DS3505
ZGHA,2008-07-29 17:00,ZGHA 291700Z AUTO 34008KT 7SM 29/26 A2947 RMK T02900260 IEM_DS3505
ZGHA,2008-07-29 18:00,ZGHA 291800Z AUTO 33014KT 6SM 29/25 A2944 RMK T02900250 IEM_DS3505
ZGHA,2008-07-29 19:00,ZGHA 291900Z AUTO 34014KT 7SM 29/26 A2944 RMK T02900260 IEM_DS3505
ZGHA,2008-07-29 20:00,ZGHA 292000Z AUTO 34010KT 6SM 29/25 A2944 RMK T02900250 IEM_DS3505
ZGHA,2008-07-29 21:00,ZGHA 292100Z AUTO 35010KT 7SM 27/26 A2944 RMK T02700260 IEM_DS3505
ZGHA,2008-07-29 22:00,ZGHA 292200Z AUTO 34010KT 7SM 28/25 A2947 RMK T02800250 IEM_DS3505
ZGHA,2008-07-29 23:00,ZGHA 292300Z AUTO 32008KT 5SM 28/26 A2950 RMK T02800260 IEM_DS3505
ZGHA,2008-07-30 00:00,ZGHA 300000Z AUTO 31010KT 5SM 28/26 A2950 RMK T02800260 IEM_DS3505
ZGHA,2008-07-30 01:00,ZGHA 300100Z AUTO 32012KT 7SM 29/26 A2950 RMK T02900260 IEM_DS3505
ZGHA,2008-07-30 02:00,ZGHA 300200Z AUTO 32012KT 7SM 30/26 A2950 RMK T03000260 IEM_DS3505
ZGHA,2008-07-30 03:00,ZGHA 300300Z AUTO 34008KT 4SM 27/26 A2953 RMK T02700260 IEM_DS3505
ZGHA,2008-07-30 04:00,ZGHA 300400Z AUTO 34006KT 4SM 29/26 A2953 RMK T02900260 IEM_DS3505
ZGHA,2008-07-30 05:00,ZGHA 300500Z AUTO 34008KT 5SM 31/26 A2950 RMK T03100260 IEM_DS3505
ZGHA,2008-07-30 06:00,ZGHA 300600Z AUTO 34004KT 4SM 28/28 A2950 RMK T02800280 IEM_DS3505
ZGHA,2008-07-30 07:00,ZGHA 300700Z AUTO 32010KT 7SM 32/27 A2947 RMK T03200270 IEM_DS3505
ZGHA,2008-07-30 08:00,ZGHA 300800Z AUTO 31010KT 7SM 28/25 A2950 RMK T02800250 IEM_DS3505
ZGHA,2008-07-30 09:00,ZGHA 300900Z AUTO 33006KT 7SM 28/26 A2950 RMK T02800260 IEM_DS3505
ZGHA,2008-07-30 10:00,ZGHA 301000Z AUTO 28008KT 7SM 28/26 A2950 RMK T02800260 IEM_DS3505
ZGHA,2008-07-30 11:00,ZGHA 301100Z AUTO 33010KT 4SM 28/26 A2953 RMK T02800260 IEM_DS3505
ZGHA,2008-07-30 12:00,ZGHA 301200Z AUTO 31004KT 4SM 26/26 A2956 RMK T02600260 IEM_DS3505
ZGHA,2008-07-30 13:00,ZGHA 301300Z AUTO 28004KT 4SM 26/25 A2956 RMK T02600250 IEM_DS3505
ZGHA,2008-07-30 14:00,ZGHA 301400Z AUTO 36004KT 1 1/2SM 26/25 A2962 RMK T02600250 IEM_DS3505
ZGHA,2008-07-30 15:00,ZGHA 301500Z AUTO 22004KT 2SM 26/25 A2962 RMK T02600250 IEM_DS3505
ZGHA,2008-07-30 16:00,ZGHA 301600Z AUTO 23004KT 2 1/2SM 26/25 A2962 RMK T02600250 IEM_DS3505
ZGHA,2008-07-30 17:00,ZGHA 301700Z AUTO 25006KT 2 1/2SM 26/26 A2962 RMK T02600260 IEM_DS3505
ZGHA,2008-07-30 18:00,ZGHA 301800Z AUTO 25006KT 2SM 26/25 A2962 RMK T02600250 IEM_DS3505
ZGHA,2008-07-30 19:00,ZGHA 301900Z AUTO 24004KT 1 1/2SM 26/25 A2962 RMK T02600250 IEM_DS3505
ZGHA,2008-07-30 20:00,ZGHA 302000Z AUTO 1 1/4SM 26/25 A2965 RMK T02600250 IEM_DS3505
ZGHA,2008-07-30 21:00,ZGHA 302100Z AUTO 20004KT 1 1/4SM 26/25 A2965 RMK T02600250 IEM_DS3505
ZGHA,2008-07-30 22:00,ZGHA 302200Z AUTO 20004KT 1 1/4SM 25/25 A2965 RMK T02500250 IEM_DS3505
ZGHA,2008-07-30 23:00,ZGHA 302300Z AUTO 21006KT 1 1/2SM 26/25 A2968 RMK T02600250 IEM_DS3505
ZGHA,2008-07-31 00:00,ZGHA 310000Z AUTO 21004KT 1 1/2SM 26/26 A2968 RMK T02600260 IEM_DS3505
ZGHA,2008-07-31 01:00,ZGHA 310100Z AUTO 22006KT 2SM 27/26 A2971 RMK T02700260 IEM_DS3505
ZGHA,2008-07-31 02:00,ZGHA 310200Z AUTO 23006KT 2 1/2SM 28/27 A2974 RMK T02800270 IEM_DS3505
ZGHA,2008-07-31 03:00,ZGHA 310300Z AUTO 23008KT 3SM 28/26 A2974 RMK T02800260 IEM_DS3505
ZGHA,2008-07-31 04:00,ZGHA 310400Z AUTO 26008KT 5SM 28/26 A2974 RMK T02800260 IEM_DS3505
ZGHA,2008-07-31 05:00,ZGHA 310500Z AUTO 29006KT 4SM 27/26 A2974 RMK T02700260 IEM_DS3505
ZGHA,2008-07-31 06:00,ZGHA 310600Z AUTO 4SM 27/26 A2974 RMK T02700260 IEM_DS3505
ZGHA,2008-07-31 07:00,ZGHA 310700Z AUTO 28006KT 5SM 28/26 A2971 RMK T02800260 IEM_DS3505
ZGHA,2008-07-31 08:00,ZGHA 310800Z AUTO 19004KT 5SM 28/26 A2971 RMK T02800260 IEM_DS3505
ZGHA,2008-07-31 09:00,ZGHA 310900Z AUTO 09004KT 7SM 29/27 A2968 RMK T02900270 IEM_DS3505
ZGHA,2008-07-31 10:00,ZGHA 311000Z AUTO 6SM 29/26 A2968 RMK T02900260 IEM_DS3505
ZGHA,2008-07-31 11:00,ZGHA 311100Z AUTO 6SM 28/27 A2971 RMK T02800270 IEM_DS3505
ZGHA,2008-07-31 12:00,ZGHA 311200Z AUTO 2 1/2SM 27/27 A2971 RMK T02700270 IEM_DS3505
ZGHA,2008-07-31 13:00,ZGHA 311300Z AUTO 3SM 27/26 A2974 RMK T02700260 IEM_DS3505
ZGHA,2008-07-31 14:00,ZGHA 311400Z AUTO 3SM 27/26 A2977 RMK T02700260 IEM_DS3505
ZGHA,2008-07-31 15:00,ZGHA 311500Z AUTO 20002KT 3SM 27/26 A2980 RMK T02700260 IEM_DS3505
ZGHA,2008-07-31 16:00,ZGHA 311600Z AUTO 3SM 27/26 A2980 RMK T02700260 IEM_DS3505
ZGHA,2008-07-31 17:00,ZGHA 311700Z AUTO 18002KT 1 1/2SM 26/26 A2977 RMK T02600260 IEM_DS3505
ZGHA,2008-07-31 19:00,ZGHA 311900Z AUTO 2 1/2SM 26/26 A2974 RMK T02600260 IEM_DS3505
ZGHA,2008-07-31 21:00,ZGHA 312100Z AUTO 18004KT 3SM 26/25 A2974 RMK T02600250 IEM_DS3505
ZGHA,2008-07-31 22:00,ZGHA 312200Z AUTO 17002KT 3SM 26/25 A2977 RMK T02600250 IEM_DS3505
ZGHA,2008-07-31 23:00,ZGHA 312300Z AUTO 16004KT 3SM 26/26 A2980 RMK T02600260 IEM_DS3505
ZGHA,2008-08-01 00:00,ZGHA 010000Z AUTO 17004KT 3SM 27/26 A2980 RMK T02700260 IEM_DS3505
ZGHA,2008-08-01 01:00,ZGHA 010100Z AUTO 19006KT 3SM 27/26 A2983 RMK T02700260 IEM_DS3505
ZGHA,2008-08-01 02:00,ZGHA 010200Z AUTO 17004KT 4SM 28/26 A2983 RMK T02800260 IEM_DS3505
ZGHA,2008-08-01 03:00,ZGHA 010300Z AUTO 17006KT 5SM 29/26 A2983 RMK T02900260 IEM_DS3505
ZGHA,2008-08-01 04:00,ZGHA 010400Z AUTO 16004KT 5SM 31/27 A2983 RMK T03100270 IEM_DS3505
ZGHA,2008-08-01 05:00,ZGHA 010500Z AUTO 22006KT 6SM 32/27 A2980 RMK T03200270 IEM_DS3505
ZGHA,2008-08-01 06:00,ZGHA 010600Z AUTO 6SM 33/27 A2977 RMK T03300270 IEM_DS3505
ZGHA,2008-08-01 07:00,ZGHA 010700Z AUTO 21004KT 6SM 34/27 A2977 RMK T03400270 IEM_DS3505
ZGHA,2008-08-01 08:00,ZGHA 010800Z AUTO 00000KT 6SM 33/27 A2974 RMK T03300270 IEM_DS3505
ZGHA,2008-08-01 09:00,ZGHA 010900Z AUTO 6SM 33/27 A2974 RMK T03300270 IEM_DS3505
ZGHA,2008-08-01 10:00,ZGHA 011000Z AUTO 00000KT 6SM 32/27 A2971 RMK T03200270 IEM_DS3505
ZGHA,2008-08-01 11:00,ZGHA 011100Z AUTO 6SM 31/28 A2974 RMK T03100280 IEM_DS3505
ZGHA,2008-08-01 12:00,ZGHA 011200Z AUTO 17004KT 6SM 30/27 A2974 RMK T03000270 IEM_DS3505
ZGHA,2008-08-01 13:00,ZGHA 011300Z AUTO 6SM 29/27 A2977 RMK T02900270 IEM_DS3505
ZGHA,2008-08-01 14:00,ZGHA 011400Z AUTO 6SM 29/26 A2977 RMK T02900260 IEM_DS3505
ZGHA,2008-08-01 15:00,ZGHA 011500Z AUTO 6SM 28/26 A2977 RMK T02800260 IEM_DS3505
ZGHA,2008-08-01 16:00,ZGHA 011600Z AUTO 18004KT 6SM 28/26 A2980 RMK T02800260 IEM_DS3505
ZGHA,2008-08-01 17:00,ZGHA 011700Z AUTO 5SM 28/25 A2977 RMK T02800250 IEM_DS3505
ZGHA,2008-08-01 19:00,ZGHA 011900Z AUTO 00000KT 6SM 27/25 A2974 RMK T02700250 IEM_DS3505
ZGHA,2008-08-01 21:00,ZGHA 012100Z AUTO 18002KT 4SM 27/25 A2974 RMK T02700250 IEM_DS3505
ZGHA,2008-08-01 22:00,ZGHA 012200Z AUTO 4SM 26/25 A2974 RMK T02600250 IEM_DS3505
ZGHA,2008-08-01 23:00,ZGHA 012300Z AUTO 4SM 26/25 A2977 RMK T02600250 IEM_DS3505
ZGHA,2008-08-02 00:00,ZGHA 020000Z AUTO 16004KT 5SM 28/26 A2977 RMK T02800260 IEM_DS3505
ZGHA,2008-08-02 01:00,ZGHA 020100Z AUTO 17006KT 6SM 29/26 A2977 RMK T02900260 IEM_DS3505
ZGHA,2008-08-02 02:00,ZGHA 020200Z AUTO 18008KT 6SM 30/27 A2980 RMK T03000270 IEM_DS3505
ZGHA,2008-08-02 03:00,ZGHA 020300Z AUTO 20008KT 6SM 31/26 A2980 RMK T03100260 IEM_DS3505
ZGHA,2008-08-02 04:00,ZGHA 020400Z AUTO 20006KT 6SM 32/26 A2977 RMK T03200260 IEM_DS3505
ZGHA,2008-08-02 05:00,ZGHA 020500Z AUTO 17008KT 6SM 32/26 A2974 RMK T03200260 IEM_DS3505
ZGHA,2008-08-02 06:00,ZGHA 020600Z AUTO 16006KT 7SM 34/26 A2968 RMK T03400260 IEM_DS3505
ZGHA,2008-08-02 07:00,ZGHA 020700Z AUTO 20008KT 7SM 34/26 A2968 RMK T03400260 IEM_DS3505
ZGHA,2008-08-02 08:00,ZGHA 020800Z AUTO 17006KT 7SM 33/26 A2968 RMK T03300260 IEM_DS3505
ZGHA,2008-08-02 09:00,ZGHA 020900Z AUTO 7SM 33/27 A2968 RMK T03300270 IEM_DS3505
ZGHA,2008-08-02 10:00,ZGHA 021000Z AUTO 32012KT 7SM 30/27 A2971 RMK T03000270 IEM_DS3505
ZGHA,2008-08-02 11:00,ZGHA 021100Z AUTO 35014KT 7SM 25/24 A2974 RMK T02500240 IEM_DS3505
ZGHA,2008-08-02 12:00,ZGHA 021200Z AUTO 08004KT 1 1/2SM 25/24 A2977 RMK T02500240 IEM_DS3505
ZGHA,2008-08-02 13:00,ZGHA 021300Z AUTO 3SM 24/24 A2977 RMK T02400240 IEM_DS3505
ZGHA,2008-08-02 14:00,ZGHA 021400Z AUTO 00000KT 2 1/2SM 24/24 A2977 RMK T02400240 IEM_DS3505
ZGHA,2008-08-02 15:00,ZGHA 021500Z AUTO 1 1/2SM 24/24 A2980 RMK T02400240 IEM_DS3505
ZGHA,2008-08-02 16:00,ZGHA 021600Z AUTO 2SM 24/24 A2977 RMK T02400240 IEM_DS3505
ZGHA,2008-08-02 17:00,ZGHA 021700Z AUTO 12004KT 4SM 24/24 A2977 RMK T02400240 IEM_DS3505
ZGHA,2008-08-02 18:00,ZGHA 021800Z AUTO 4SM 24/23 A2977 RMK T02400230 IEM_DS3505
ZGHA,2008-08-02 19:00,ZGHA 021900Z AUTO 21004KT 4SM 24/23 A2977 RMK T02400230 IEM_DS3505
ZGHA,2008-08-02 20:00,ZGHA 022000Z AUTO 4SM 24/24 A2974 RMK T02400240 IEM_DS3505
ZGHA,2008-08-02 21:00,ZGHA 022100Z AUTO 3SM 24/24 A2974 RMK T02400240 IEM_DS3505
ZGHA,2008-08-02 22:00,ZGHA 022200Z AUTO 00000KT 2SM 24/23 A2974 RMK T02400230 IEM_DS3505
ZGHA,2008-08-02 23:00,ZGHA 022300Z AUTO 00000KT 2SM 24/24 A2977 RMK T02400240 IEM_DS3505
ZGHA,2008-08-03 00:00,ZGHA 030000Z AUTO 2 1/2SM 25/24 A2977 RMK T02500240 IEM_DS3505
ZGHA,2008-08-03 01:00,ZGHA 030100Z AUTO 4SM 26/26 A2977 RMK T02600260 IEM_DS3505
ZGHA,2008-08-03 02:00,ZGHA 030200Z AUTO 4SM 29/26 A2977 RMK T02900260 IEM_DS3505
ZGHA,2008-08-03 03:00,ZGHA 030300Z AUTO 7SM 29/26 A2980 RMK T02900260 IEM_DS3505
ZGHA,2008-08-03 04:00,ZGHA 030400Z AUTO 20004KT 7SM 30/27 A2977 RMK T03000270 IEM_DS3505
ZGHA,2008-08-03 05:00,ZGHA 030500Z AUTO 20004KT 7SM 31/26 A2974 RMK T03100260 IEM_DS3505
ZGHA,2008-08-03 06:00,ZGHA 030600Z AUTO 26008KT 4SM 31/28 A2974 RMK T03100280 IEM_DS3505
ZGHA,2008-08-03 07:00,ZGHA 030700Z AUTO 26004KT 4SM 32/27 A2971 RMK T03200270 IEM_DS3505
ZGHA,2008-08-03 08:00,ZGHA 030800Z AUTO 08008KT 7SM 29/25 A2971 RMK T02900250 IEM_DS3505
ZGHA,2008-08-03 09:00,ZGHA 030900Z AUTO 02004KT 7SM 28/26 A2971 RMK T02800260 IEM_DS3505
ZGHA,2008-08-03 10:00,ZGHA 031000Z AUTO 7SM 27/26 A2971 RMK T02700260 IEM_DS3505
ZGHA,2008-08-03 11:00,ZGHA 031100Z AUTO 7SM 27/25 A2971 RMK T02700250 IEM_DS3505
ZGHA,2008-08-03 12:00,ZGHA 031200Z AUTO 4SM 26/25 A2974 RMK T02600250 IEM_DS3505
ZGHA,2008-08-03 13:00,ZGHA 031300Z AUTO 4SM 26/26 A2977 RMK T02600260 IEM_DS3505
ZGHA,2008-08-03 14:00,ZGHA 031400Z AUTO 5SM 26/25 A2977 RMK T02600250 IEM_DS3505
ZGHA,2008-08-03 15:00,ZGHA 031500Z AUTO 00000KT 4SM 26/25 A2977 RMK T02600250 IEM_DS3505
ZGHA,2008-08-03 16:00,ZGHA 031600Z AUTO 21004KT 4SM 25/25 A2974 RMK T02500250 IEM_DS3505
ZGHA,2008-08-03 21:00,ZGHA 032100Z AUTO 2SM 25/24 A2974 RMK T02500240 IEM_DS3505
ZGHA,2008-08-03 22:00,ZGHA 032200Z AUTO 2 1/2SM 24/24 A2974 RMK T02400240 IEM_DS3505
ZGHA,2008-08-03 23:00,ZGHA 032300Z AUTO 4SM 25/25 A2977 RMK T02500250 IEM_DS3505
ZGHA,2008-08-04 00:00,ZGHA 040000Z AUTO 08004KT 6SM 28/27 A2977 RMK T02800270 IEM_DS3505
ZGHA,2008-08-04 01:00,ZGHA 040100Z AUTO 6SM 30/27 A2977 RMK T03000270 IEM_DS3505
ZGHA,2008-08-04 02:00,ZGHA 040200Z AUTO 26004KT 6SM 30/26 A2977 RMK T03000260 IEM_DS3505
ZGHA,2008-08-04 03:00,ZGHA 040300Z AUTO 6SM 32/25 A2977 RMK T03200250 IEM_DS3505
ZGHA,2008-08-04 05:00,ZGHA 040500Z AUTO 19004KT 6SM 35/25 A2974 RMK T03500250 IEM_DS3505
ZGHA,2008-08-04 06:00,ZGHA 040600Z AUTO 22004KT 7SM 33/25 A2971 RMK T03300250 IEM_DS3505
ZGHA,2008-08-04 07:00,ZGHA 040700Z AUTO 26004KT 7SM 33/26 A2971 RMK T03300260 IEM_DS3505
ZGHA,2008-08-04 08:00,ZGHA 040800Z AUTO 35004KT 7SM 34/26 A2968 RMK T03400260 IEM_DS3505
ZGHA,2008-08-04 09:00,ZGHA 040900Z AUTO 34004KT 6SM 33/26 A2968 RMK T03300260 IEM_DS3505
ZGHA,2008-08-04 10:00,ZGHA 041000Z AUTO 34004KT 6SM 32/26 A2968 RMK T03200260 IEM_DS3505
ZGHA,2008-08-04 11:00,ZGHA 041100Z AUTO 6SM 31/26 A2968 RMK T03100260 IEM_DS3505
ZGHA,2008-08-04 12:00,ZGHA 041200Z AUTO 6SM 30/26 A2971 RMK T03000260 IEM_DS3505
ZGHA,2008-08-04 13:00,ZGHA 041300Z AUTO 4SM 29/26 A2971 RMK T02900260 IEM_DS3505
ZGHA,2008-08-04 14:00,ZGHA 041400Z AUTO 4SM 28/27 A2974 RMK T02800270 IEM_DS3505
ZGHA,2008-08-04 15:00,ZGHA 041500Z AUTO 35004KT 4SM 28/27 A2974 RMK T02800270 IEM_DS3505
ZGHA,2008-08-04 16:00,ZGHA 041600Z AUTO 32004KT 3SM 28/27 A2974 RMK T02800270 IEM_DS3505
ZGHA,2008-08-04 17:00,ZGHA 041700Z AUTO 31004KT 2SM 27/26 A2974 RMK T02700260 IEM_DS3505
ZGHA,2008-08-04 18:00,ZGHA 041800Z AUTO 32004KT 2SM 27/26 A2971 RMK T02700260 IEM_DS3505
ZGHA,2008-08-04 20:00,ZGHA 042000Z AUTO 34002KT 2 1/2SM 26/25 A2974 RMK T02600250 IEM_DS3505
ZGHA,2008-08-04 21:00,ZGHA 042100Z AUTO 33004KT 1 1/2SM 26/25 A2971 RMK T02600250 IEM_DS3505
ZGHA,2008-08-04 22:00,ZGHA 042200Z AUTO 1 1/2SM 26/25 A2974 RMK T02600250 IEM_DS3505
ZGHA,2008-08-04 23:00,ZGHA 042300Z AUTO 1 1/4SM 26/26 A2974 RMK T02600260 IEM_DS3505
ZGHA,2008-08-05 00:00,ZGHA 050000Z AUTO 36004KT 2SM 28/27 A2974 RMK T02800270 IEM_DS3505
ZGHA,2008-08-05 01:00,ZGHA 050100Z AUTO 01004KT 4SM 30/28 A2974 RMK T03000280 IEM_DS3505
ZGHA,2008-08-05 02:00,ZGHA 050200Z AUTO 01004KT 4SM 33/28 A2974 RMK T03300280 IEM_DS3505
ZGHA,2008-08-05 03:00,ZGHA 050300Z AUTO 33006KT 6SM 34/27 A2974 RMK T03400270 IEM_DS3505
ZGHA,2008-08-05 04:00,ZGHA 050400Z AUTO 7SM 35/27 A2971 RMK T03500270 IEM_DS3505
ZGHA,2008-08-05 05:00,ZGHA 050500Z AUTO 7SM 36/28 A2968 RMK T03600280 IEM_DS3505
ZGHA,2008-08-05 06:00,ZGHA 050600Z AUTO 33008KT 7SM 36/26 A2965 RMK T03600260 IEM_DS3505
ZGHA,2008-08-05 07:00,ZGHA 050700Z AUTO 01004KT 7SM 34/26 A2965 RMK T03400260 IEM_DS3505
ZGHA,2008-08-05 08:00,ZGHA 050800Z AUTO 00000KT 7SM 34/28 A2962 RMK T03400280 IEM_DS3505
ZGHA,2008-08-05 09:00,ZGHA 050900Z AUTO 32004KT 7SM 32/27 A2962 RMK T03200270 IEM_DS3505
ZGHA,2008-08-05 10:00,ZGHA 051000Z AUTO 04004KT 7SM 30/25 A2962 RMK T03000250 IEM_DS3505
ZGHA,2008-08-05 11:00,ZGHA 051100Z AUTO 36006KT 6SM 29/25 A2962 RMK T02900250 IEM_DS3505
ZGHA,2008-08-05 12:00,ZGHA 051200Z AUTO 36008KT 6SM 27/23 A2968 RMK T02700230 IEM_DS3505
ZGHA,2008-08-05 13:00,ZGHA 051300Z AUTO 01004KT 6SM 26/24 A2968 RMK T02600240 IEM_DS3505
ZGHA,2008-08-05 14:00,ZGHA 051400Z AUTO 36008KT 6SM 26/25 A2968 RMK T02600250 IEM_DS3505
ZGHA,2008-08-05 15:00,ZGHA 051500Z AUTO 6SM 26/25 A2968 RMK T02600250 IEM_DS3505
ZGHA,2008-08-05 16:00,ZGHA 051600Z AUTO 6SM 25/25 A2968 RMK T02500250 IEM_DS3505
ZGHA,2008-08-05 17:00,ZGHA 051700Z AUTO 6SM 25/24 A2968 RMK T02500240 IEM_DS3505
ZGHA,2008-08-05 21:00,ZGHA 052100Z AUTO 36002KT 2 1/2SM 25/24 A2965 RMK T02500240 IEM_DS3505
ZGHA,2008-08-05 22:00,ZGHA 052200Z AUTO 36002KT 2 1/2SM 25/24 A2965 RMK T02500240 IEM_DS3505
ZGHA,2008-08-05 23:00,ZGHA 052300Z AUTO 32004KT 3SM 25/25 A2968 RMK T02500250 IEM_DS3505
ZGHA,2008-08-06 00:00,ZGHA 060000Z AUTO 36004KT 5SM 27/26 A2968 RMK T02700260 IEM_DS3505
ZGHA,2008-08-06 01:00,ZGHA 060100Z AUTO 35004KT 6SM 31/26 A2968 RMK T03100260 IEM_DS3505
ZGHA,2008-08-06 02:00,ZGHA 060200Z AUTO 36004KT 6SM 32/26 A2968 RMK T03200260 IEM_DS3505
ZGHA,2008-08-06 03:00,ZGHA 060300Z AUTO 06004KT 7SM 35/27 A2968 RMK T03500270 IEM_DS3505
ZGHA,2008-08-06 04:00,ZGHA 060400Z AUTO 7SM 34/26 A2965 RMK T03400260 IEM_DS3505
ZGHA,2008-08-06 05:00,ZGHA 060500Z AUTO 04006KT 7SM 35/25 A2965 RMK T03500250 IEM_DS3505
ZGHA,2008-08-06 06:00,ZGHA 060600Z AUTO 09008KT 7SM 37/26 A2962 RMK T03700260 IEM_DS3505
ZGHA,2008-08-06 07:00,ZGHA 060700Z AUTO 07008KT 7SM 36/25 A2959 RMK T03600250 IEM_DS3505
ZGHA,2008-08-06 08:00,ZGHA 060800Z AUTO 7SM 35/26 A2959 RMK T03500260 IEM_DS3505
ZGHA,2008-08-06 09:00,ZGHA 060900Z AUTO 08004KT 7SM 33/25 A2959 RMK T03300250 IEM_DS3505
ZGHA,2008-08-06 10:00,ZGHA 061000Z AUTO 08004KT 4SM 32/25 A2962 RMK T03200250 IEM_DS3505
ZGHA,2008-08-06 11:00,ZGHA 061100Z AUTO 04004KT 7SM 30/25 A2962 RMK T03000250 IEM_DS3505
ZGHA,2008-08-06 12:00,ZGHA 061200Z AUTO 01004KT 6SM 30/26 A2965 RMK T03000260 IEM_DS3505
ZGHA,2008-08-06 13:00,ZGHA 061300Z AUTO 34004KT 6SM 29/26 A2965 RMK T02900260 IEM_DS3505
ZGHA,2008-08-06 14:00,ZGHA 061400Z AUTO 6SM 28/26 A2965 RMK T02800260 IEM_DS3505
ZGHA,2008-08-06 15:00,ZGHA 061500Z AUTO 04004KT 6SM 28/27 A2965 RMK T02800270 IEM_DS3505
ZGHA,2008-08-06 16:00,ZGHA 061600Z AUTO 01004KT 6SM 28/27 A2965 RMK T02800270 IEM_DS3505
ZGHA,2008-08-06 17:00,ZGHA 061700Z AUTO 35004KT 7SM 28/26 A2965 RMK T02800260 IEM_DS3505
ZGHA,2008-08-06 18:00,ZGHA 061800Z AUTO 30004KT 4SM 27/26 A2965 RMK T02700260 IEM_DS3505
ZGHA,2008-08-06 19:00,ZGHA 061900Z AUTO 34004KT 5SM 27/26 A2965 RMK T02700260 IEM_DS3505
ZGHA,2008-08-06 20:00,ZGHA 062000Z AUTO 36004KT 4SM 27/26 A2965 RMK T02700260 IEM_DS3505
ZGHA,2008-08-06 21:00,ZGHA 062100Z AUTO 5SM 26/25 A2965 RMK T02600250 IEM_DS3505
ZGHA,2008-08-06 22:00,ZGHA 062200Z AUTO 6SM 26/25 A2968 RMK T02600250 IEM_DS3505
ZGHA,2008-08-06 23:00,ZGHA 062300Z AUTO 6SM 27/26 A2968 RMK T02700260 IEM_DS3505
ZGHA,2008-08-07 00:00,ZGHA 070000Z AUTO 07006KT 6SM 31/27 A2968 RMK T03100270 IEM_DS3505
ZGHA,2008-08-07 01:00,ZGHA 070100Z AUTO 08006KT 6SM 31/26 A2971 RMK T03100260 IEM_DS3505
ZGHA,2008-08-07 02:00,ZGHA 070200Z AUTO 09006KT 6SM 31/26 A2971 RMK T03100260 IEM_DS3505
ZGHA,2008-08-07 03:00,ZGHA 070300Z AUTO 09004KT 6SM 32/25 A2971 RMK T03200250 IEM_DS3505
ZGHA,2008-08-07 04:00,ZGHA 070400Z AUTO 08008KT 7SM 34/25 A2971 RMK T03400250 IEM_DS3505
ZGHA,2008-08-07 05:00,ZGHA 070500Z AUTO 10008KT 7SM 34/24 A2971 RMK T03400240 IEM_DS3505
ZGHA,2008-08-07 06:00,ZGHA 070600Z AUTO 09008KT 7SM 35/25 A2968 RMK T03500250 IEM_DS3505
ZGHA,2008-08-07 07:00,ZGHA 070700Z AUTO 09006KT 7SM 34/25 A2965 RMK T03400250 IEM_DS3505
ZGHA,2008-08-07 08:00,ZGHA 070800Z AUTO 09010KT 7SM 35/24 A2965 RMK T03500240 IEM_DS3505
ZGHA,2008-08-07 09:00,ZGHA 070900Z AUTO 10006KT 7SM 35/25 A2962 RMK T03500250 IEM_DS3505
ZGHA,2008-08-07 10:00,ZGHA 071000Z AUTO 08004KT 6SM 35/25 A2962 RMK T03500250 IEM_DS3505
ZGHA,2008-08-07 11:00,ZGHA 071100Z AUTO 6SM 32/25 A2965 RMK T03200250 IEM_DS3505
ZGHA,2008-08-07 12:00,ZGHA 071200Z AUTO 00000KT 6SM 30/25 A2965 RMK T03000250 IEM_DS3505
ZGHA,2008-08-07 13:00,ZGHA 071300Z AUTO 6SM 30/25 A2968 RMK T03000250 IEM_DS3505
ZGHA,2008-08-07 14:00,ZGHA 071400Z AUTO 09004KT 6SM 30/25 A2971 RMK T03000250 IEM_DS3505
ZGHA,2008-08-07 15:00,ZGHA 071500Z AUTO 6SM 29/24 A2971 RMK T02900240 IEM_DS3505
ZGHA,2008-08-07 16:00,ZGHA 071600Z AUTO 00000KT 6SM 28/25 A2971 RMK T02800250 IEM_DS3505
ZGHA,2008-08-07 17:00,ZGHA 071700Z AUTO 08006KT 6SM 28/24 A2968 RMK T02800240 IEM_DS3505
ZGHA,2008-08-07 18:00,ZGHA 071800Z AUTO 6SM 28/24 A2968 RMK T02800240 IEM_DS3505
ZGHA,2008-08-07 19:00,ZGHA 071900Z AUTO 4SM 27/24 A2968 RMK T02700240 IEM_DS3505
ZGHA,2008-08-07 21:00,ZGHA 072100Z AUTO 6SM 26/25 A2971 RMK T02600250 IEM_DS3505
ZGHA,2008-08-07 22:00,ZGHA 072200Z AUTO 6SM 26/24 A2971 RMK T02600240 IEM_DS3505
ZGHA,2008-08-07 23:00,ZGHA 072300Z AUTO 00000KT 6SM 28/25 A2971 RMK T02800250 IEM_DS3505
ZGHA,2008-08-08 00:00,ZGHA 080000Z AUTO 6SM 30/25 A2974 RMK T03000250 IEM_DS3505
ZGHA,2008-08-08 01:00,ZGHA 080100Z AUTO 09004KT 6SM 31/26 A2974 RMK T03100260 IEM_DS3505
ZGHA,2008-08-08 02:00,ZGHA 080200Z AUTO 08006KT 6SM 33/26 A2974 RMK T03300260 IEM_DS3505
ZGHA,2008-08-08 03:00,ZGHA 080300Z AUTO 10004KT 6SM 34/25 A2974 RMK T03400250 IEM_DS3505
ZGHA,2008-08-08 04:00,ZGHA 080400Z AUTO 7SM 35/26 A2974 RMK T03500260 IEM_DS3505
ZGHA,2008-08-08 05:00,ZGHA 080500Z AUTO 7SM 36/26 A2971 RMK T03600260 IEM_DS3505
ZGHA,2008-08-08 06:00,ZGHA 080600Z AUTO 7SM 36/24 A2968 RMK T03600240 IEM_DS3505
ZGHA,2008-08-08 07:00,ZGHA 080700Z AUTO 7SM 36/25 A2965 RMK T03600250 IEM_DS3505
ZGHA,2008-08-08 08:00,ZGHA 080800Z AUTO 7SM 38/27 A2965 RMK T03800270 IEM_DS3505
ZGHA,2008-08-08 09:00,ZGHA 080900Z AUTO 01004KT 7SM 36/25 A2962 RMK T03600250 IEM_DS3505
ZGHA,2008-08-08 10:00,ZGHA 081000Z AUTO 7SM 33/27 A2965 RMK T03300270 IEM_DS3505
ZGHA,2008-08-08 11:00,ZGHA 081100Z AUTO 7SM 32/26 A2965 RMK T03200260 IEM_DS3505
ZGHA,2008-08-08 12:00,ZGHA 081200Z AUTO 6SM 30/26 A2965 RMK T03000260 IEM_DS3505
ZGHA,2008-08-08 13:00,ZGHA 081300Z AUTO 4SM 29/26 A2968 RMK T02900260 IEM_DS3505
ZGHA,2008-08-08 14:00,ZGHA 081400Z AUTO 4SM 29/26 A2968 RMK T02900260 IEM_DS3505
ZGHA,2008-08-08 15:00,ZGHA 081500Z AUTO 00000KT 4SM 28/27 A2971 RMK T02800270 IEM_DS3505
ZGHA,2008-08-08 16:00,ZGHA 081600Z AUTO 4SM 28/27 A2968 RMK T02800270 IEM_DS3505
ZGHA,2008-08-08 17:00,ZGHA 081700Z AUTO 00000KT 3SM 28/26 A2968 RMK T02800260 IEM_DS3505
ZGHA,2008-08-08 18:00,ZGHA 081800Z AUTO 36002KT 3SM 27/26 A2968 RMK T02700260 IEM_DS3505
ZGHA,2008-08-08 19:00,ZGHA 081900Z AUTO 2 1/2SM 27/26 A2968 RMK T02700260 IEM_DS3505
ZGHA,2008-08-08 21:00,ZGHA 082100Z AUTO 00000KT 2 1/2SM 27/26 A2968 RMK T02700260 IEM_DS3505
ZGHA,2008-08-08 22:00,ZGHA 082200Z AUTO 00000KT 3SM 26/26 A2968 RMK T02600260 IEM_DS3505
ZGHA,2008-08-08 23:00,ZGHA 082300Z AUTO 3SM 27/26 A2968 RMK T02700260 IEM_DS3505
ZGHA,2008-08-09 00:00,ZGHA 090000Z AUTO 4SM 30/27 A2968 RMK T03000270 IEM_DS3505
ZGHA,2008-08-09 01:00,ZGHA 090100Z AUTO 5SM 32/27 A2968 RMK T03200270 IEM_DS3505
ZGHA,2008-08-09 02:00,ZGHA 090200Z AUTO 6SM 34/26 A2968 RMK T03400260 IEM_DS3505
ZGHA,2008-08-09 03:00,ZGHA 090300Z AUTO 6SM 33/26 A2968 RMK T03300260 IEM_DS3505
ZGHA,2008-08-09 04:00,ZGHA 090400Z AUTO 36004KT 7SM 35/26 A2968 RMK T03500260 IEM_DS3505
ZGHA,2008-08-09 05:00,ZGHA 090500Z AUTO 7SM 35/25 A2965 RMK T03500250 IEM_DS3505
ZGHA,2008-08-09 06:00,ZGHA 090600Z AUTO 07004KT 7SM 38/26 A2962 RMK T03800260 IEM_DS3505
ZGHA,2008-08-09 07:00,ZGHA 090700Z AUTO 7SM 37/26 A2962 RMK T03700260 IEM_DS3505
ZGHA,2008-08-09 08:00,ZGHA 090800Z AUTO 7SM 37/25 A2959 RMK T03700250 IEM_DS3505
ZGHA,2008-08-09 09:00,ZGHA 090900Z AUTO 28006KT 7SM 31/22 A2959 RMK T03100220 IEM_DS3505
ZGHA,2008-08-09 10:00,ZGHA 091000Z AUTO 34006KT 6SM 33/23 A2959 RMK T03300230 IEM_DS3505
ZGHA,2008-08-09 11:00,ZGHA 091100Z AUTO 6SM 31/26 A2959 RMK T03100260 IEM_DS3505
ZGHA,2008-08-09 12:00,ZGHA 091200Z AUTO 6SM 30/26 A2962 RMK T03000260 IEM_DS3505
ZGHA,2008-08-09 13:00,ZGHA 091300Z AUTO 6SM 30/26 A2965 RMK T03000260 IEM_DS3505
ZGHA,2008-08-09 14:00,ZGHA 091400Z AUTO 01004KT 6SM 29/26 A2965 RMK T02900260 IEM_DS3505
ZGHA,2008-08-09 15:00,ZGHA 091500Z AUTO 09002KT 6SM 28/26 A2968 RMK T02800260 IEM_DS3505
ZGHA,2008-08-09 16:00,ZGHA 091600Z AUTO 00000KT 4SM 28/26 A2965 RMK T02800260 IEM_DS3505
ZGHA,2008-08-09 17:00,ZGHA 091700Z AUTO 2 1/2SM 27/26 A2965 RMK T02700260 IEM_DS3505
ZGHA,2008-08-09 18:00,ZGHA 091800Z AUTO 01002KT 2SM 27/26 A2965 RMK T02700260 IEM_DS3505
ZGHA,2008-08-09 21:00,ZGHA 092100Z AUTO 3SM 26/25 A2965 RMK T02600250 IEM_DS3505
ZGHA,2008-08-09 22:00,ZGHA 092200Z AUTO 01002KT 3SM 25/25 A2965 RMK T02500250 IEM_DS3505
ZGHA,2008-08-09 23:00,ZGHA 092300Z AUTO 00000KT 4SM 26/26 A2968 RMK T02600260 IEM_DS3505
ZGHA,2008-08-10 00:00,ZGHA 100000Z AUTO 4SM 29/26 A2968 RMK T02900260 IEM_DS3505
ZGHA,2008-08-10 01:00,ZGHA 100100Z AUTO 4SM 31/27 A2968 RMK T03100270 IEM_DS3505
ZGHA,2008-08-10 02:00,ZGHA 100200Z AUTO 4SM 33/27 A2968 RMK T03300270 IEM_DS3505
ZGHA,2008-08-10 03:00,ZGHA 100300Z AUTO 05004KT 4SM 34/25 A2968 RMK T03400250 IEM_DS3505
ZGHA,2008-08-10 04:00,ZGHA 100400Z AUTO 35004KT 5SM 35/24 A2968 RMK T03500240 IEM_DS3505
ZGHA,2008-08-10 05:00,ZGHA 100500Z AUTO 36006KT 5SM 36/25 A2965 RMK T03600250 IEM_DS3505
ZGHA,2008-08-10 06:00,ZGHA 100600Z AUTO 33006KT 7SM 37/25 A2962 RMK T03700250 IEM_DS3505
ZGHA,2008-08-10 07:00,ZGHA 100700Z AUTO 34010KT 7SM 37/24 A2959 RMK T03700240 IEM_DS3505
ZGHA,2008-08-10 08:00,ZGHA 100800Z AUTO 36008KT 5SM 37/24 A2959 RMK T03700240 IEM_DS3505
ZGHA,2008-08-10 09:00,ZGHA 100900Z AUTO 02004KT 4SM 33/26 A2959 RMK T03300260 IEM_DS3505
ZGHA,2008-08-10 10:00,ZGHA 101000Z AUTO 4SM 32/26 A2959 RMK T03200260 IEM_DS3505
ZGHA,2008-08-10 11:00,ZGHA 101100Z AUTO 4SM 31/26 A2959 RMK T03100260 IEM_DS3505
ZGHA,2008-08-10 12:00,ZGHA 101200Z AUTO 4SM 30/26 A2962 RMK T03000260 IEM_DS3505
ZGHA,2008-08-10 13:00,ZGHA 101300Z AUTO 36002KT 4SM 30/26 A2965 RMK T03000260 IEM_DS3505
ZGHA,2008-08-10 14:00,ZGHA 101400Z AUTO 36004KT 4SM 29/25 A2968 RMK T02900250 IEM_DS3505
ZGHA,2008-08-10 15:00,ZGHA 101500Z AUTO 3SM 28/25 A2968 RMK T02800250 IEM_DS3505
ZGHA,2008-08-10 16:00,ZGHA 101600Z AUTO 36004KT 3SM 27/26 A2968 RMK T02700260 IEM_DS3505
ZGHA,2008-08-10 17:00,ZGHA 101700Z AUTO 34004KT 2 1/2SM 27/26 A2968 RMK T02700260 IEM_DS3505
ZGHA,2008-08-10 18:00,ZGHA 101800Z AUTO 36002KT 2SM 26/25 A2968 RMK T02600250 IEM_DS3505
ZGHA,2008-08-10 19:00,ZGHA 101900Z AUTO 2SM 26/25 A2965 RMK T02600250 IEM_DS3505
ZGHA,2008-08-10 21:00,ZGHA 102100Z AUTO 01004KT 2SM 26/25 A2968 RMK T02600250 IEM_DS3505
ZGHA,2008-08-10 22:00,ZGHA 102200Z AUTO 3SM 26/25 A2968 RMK T02600250 IEM_DS3505
ZGHA,2008-08-10 23:00,ZGHA 102300Z AUTO 4SM 26/25 A2971 RMK T02600250 IEM_DS3505
ZGHA,2008-08-11 00:00,ZGHA 110000Z AUTO 4SM 28/26 A2971 RMK T02800260 IEM_DS3505
ZGHA,2008-08-11 01:00,ZGHA 110100Z AUTO 4SM 31/26 A2974 RMK T03100260 IEM_DS3505
ZGHA,2008-08-11 02:00,ZGHA 110200Z AUTO 4SM 32/26 A2974 RMK T03200260 IEM_DS3505
ZGHA,2008-08-11 03:00,ZGHA 110300Z AUTO 5SM 33/25 A2974 RMK T03300250 IEM_DS3505
ZGHA,2008-08-11 04:00,ZGHA 110400Z AUTO 30004KT 5SM 34/25 A2974 RMK T03400250 IEM_DS3505
ZGHA,2008-08-11 05:00,ZGHA 110500Z AUTO 5SM 36/26 A2971 RMK T03600260 IEM_DS3505
ZGHA,2008-08-11 06:00,ZGHA 110600Z AUTO 30006KT 5SM 37/27 A2968 RMK T03700270 IEM_DS3505
ZGHA,2008-08-11 07:00,ZGHA 110700Z AUTO 35006KT 5SM 35/24 A2968 RMK T03500240 IEM_DS3505
ZGHA,2008-08-11 08:00,ZGHA 110800Z AUTO 35010KT 5SM 36/25 A2965 RMK T03600250 IEM_DS3505
ZGHA,2008-08-11 09:00,ZGHA 110900Z AUTO 36006KT 4SM 36/27 A2965 RMK T03600270 IEM_DS3505
ZGHA,2008-08-11 10:00,ZGHA 111000Z AUTO 01006KT 4SM 34/25 A2968 RMK T03400250 IEM_DS3505
ZGHA,2008-08-11 11:00,ZGHA 111100Z AUTO 4SM 32/25 A2968 RMK T03200250 IEM_DS3505
ZGHA,2008-08-11 12:00,ZGHA 111200Z AUTO 3SM 30/25 A2971 RMK T03000250 IEM_DS3505
ZGHA,2008-08-11 13:00,ZGHA 111300Z AUTO 3SM 29/26 A2974 RMK T02900260 IEM_DS3505
ZGHA,2008-08-11 14:00,ZGHA 111400Z AUTO 36002KT 3SM 29/26 A2977 RMK T02900260 IEM_DS3505
ZGHA,2008-08-11 15:00,ZGHA 111500Z AUTO 36002KT 3SM 28/26 A2977 RMK T02800260 IEM_DS3505
ZGHA,2008-08-11 16:00,ZGHA 111600Z AUTO 2 1/2SM 28/26 A2977 RMK T02800260 IEM_DS3505
ZGHA,2008-08-11 18:00,ZGHA 111800Z AUTO 1 1/4SM 27/25 A2974 RMK T02700250 IEM_DS3505
ZGHA,2008-08-11 19:00,ZGHA 111900Z AUTO 24004KT 1 1/4SM 26/25 A2974 RMK T02600250 IEM_DS3505
ZGHA,2008-08-11 20:00,ZGHA 112000Z AUTO 1SM 26/25 A2974 RMK T02600250 IEM_DS3505
ZGHA,2008-08-11 21:00,ZGHA 112100Z AUTO 2SM 26/25 A2977 RMK T02600250 IEM_DS3505
ZGHA,2008-08-11 22:00,ZGHA 112200Z AUTO 1 1/2SM 26/25 A2977 RMK T02600250 IEM_DS3505
ZGHA,2008-08-11 23:00,ZGHA 112300Z AUTO 2 1/2SM 26/25 A2980 RMK T02600250 IEM_DS3505
ZGHA,2008-08-12 00:00,ZGHA 120000Z AUTO 16004KT 3SM 28/25 A2980 RMK T02800250 IEM_DS3505
ZGHA,2008-08-12 01:00,ZGHA 120100Z AUTO 20010KT 4SM 30/24 A2983 RMK T03000240 IEM_DS3505
ZGHA,2008-08-12 02:00,ZGHA 120200Z AUTO 20008KT 4SM 31/25 A2983 RMK T03100250 IEM_DS3505
ZGHA,2008-08-12 03:00,ZGHA 120300Z AUTO 20010KT 4SM 33/25 A2983 RMK T03300250 IEM_DS3505
ZGHA,2008-08-12 04:00,ZGHA 120400Z AUTO 16006KT 5SM 33/24 A2980 RMK T03300240 IEM_DS3505
ZGHA,2008-08-12 05:00,ZGHA 120500Z AUTO 6SM 36/24 A2980 RMK T03600240 IEM_DS3505
ZGHA,2008-08-12 06:00,ZGHA 120600Z AUTO 20008KT 7SM 36/25 A2977 RMK T03600250 IEM_DS3505
ZGHA,2008-08-12 07:00,ZGHA 120700Z AUTO 22008KT 7SM 35/24 A2974 RMK T03500240 IEM_DS3505
ZGHA,2008-08-12 08:00,ZGHA 120800Z AUTO 20008KT 7SM 36/25 A2974 RMK T03600250 IEM_DS3505
ZGHA,2008-08-12 09:00,ZGHA 120900Z AUTO 17004KT 7SM 35/25 A2971 RMK T03500250 IEM_DS3505
ZGHA,2008-08-12 10:00,ZGHA 121000Z AUTO 20008KT 6SM 34/24 A2974 RMK T03400240 IEM_DS3505
ZGHA,2008-08-12 11:00,ZGHA 121100Z AUTO 17006KT 6SM 32/25 A2974 RMK T03200250 IEM_DS3505
ZGHA,2008-08-12 12:00,ZGHA 121200Z AUTO 6SM 30/25 A2980 RMK T03000250 IEM_DS3505
ZGHA,2008-08-12 13:00,ZGHA 121300Z AUTO 16004KT 6SM 30/25 A2980 RMK T03000250 IEM_DS3505
ZGHA,2008-08-12 14:00,ZGHA 121400Z AUTO 18004KT 6SM 29/25 A2983 RMK T02900250 IEM_DS3505
ZGHA,2008-08-12 15:00,ZGHA 121500Z AUTO 17004KT 6SM 29/25 A2980 RMK T02900250 IEM_DS3505
ZGHA,2008-08-12 16:00,ZGHA 121600Z AUTO 6SM 28/25 A2980 RMK T02800250 IEM_DS3505
ZGHA,2008-08-12 17:00,ZGHA 121700Z AUTO 6SM 28/24 A2980 RMK T02800240 IEM_DS3505
ZGHA,2008-08-12 19:00,ZGHA 121900Z AUTO 16004KT 4SM 27/24 RMK T02700240 IEM_DS3505
ZGHA,2008-08-12 20:00,ZGHA 122000Z AUTO 4SM 27/24 A2977 RMK T02700240 IEM_DS3505
ZGHA,2008-08-12 21:00,ZGHA 122100Z AUTO 14004KT 5SM 26/24 A2977 RMK T02600240 IEM_DS3505
ZGHA,2008-08-12 22:00,ZGHA 122200Z AUTO 6SM 27/25 A2980 RMK T02700250 IEM_DS3505
ZGHA,2008-08-12 23:00,ZGHA 122300Z AUTO 5SM 27/25 A2980 RMK T02700250 IEM_DS3505
ZGHA,2008-08-13 00:00,ZGHA 130000Z AUTO 17004KT 5SM 28/25 A2983 RMK T02800250 IEM_DS3505
ZGHA,2008-08-13 01:00,ZGHA 130100Z AUTO 17006KT 6SM 29/25 A2983 RMK T02900250 IEM_DS3505
ZGHA,2008-08-13 02:00,ZGHA 130200Z AUTO 17006KT 6SM 31/25 A2983 RMK T03100250 IEM_DS3505
ZGHA,2008-08-13 03:00,ZGHA 130300Z AUTO 20008KT 6SM 31/25 A2983 RMK T03100250 IEM_DS3505
ZGHA,2008-08-13 04:00,ZGHA 130400Z AUTO 17006KT 6SM 33/26 A2980 RMK T03300260 IEM_DS3505
ZGHA,2008-08-13 05:00,ZGHA 130500Z AUTO 19006KT 6SM 34/25 A2980 RMK T03400250 IEM_DS3505
ZGHA,2008-08-13 06:00,ZGHA 130600Z AUTO 18008KT 6SM 35/25 A2977 RMK T03500250 IEM_DS3505
ZGHA,2008-08-13 07:00,ZGHA 130700Z AUTO 18006KT 7SM 35/25 A2974 RMK T03500250 IEM_DS3505
ZGHA,2008-08-13 08:00,ZGHA 130800Z AUTO 21006KT 7SM 35/26 A2971 RMK T03500260 IEM_DS3505
ZGHA,2008-08-13 09:00,ZGHA 130900Z AUTO 17006KT 7SM 34/26 A2971 RMK T03400260 IEM_DS3505
ZGHA,2008-08-13 10:00,ZGHA 131000Z AUTO 11004KT 6SM 33/26 A2971 RMK T03300260 IEM_DS3505
ZGHA,2008-08-13 11:00,ZGHA 131100Z AUTO 6SM 32/26 A2971 RMK T03200260 IEM_DS3505
ZGHA,2008-08-13 12:00,ZGHA 131200Z AUTO 6SM 31/26 A2971 RMK T03100260 IEM_DS3505
ZGHA,2008-08-13 13:00,ZGHA 131300Z AUTO 6SM 30/26 A2974 RMK T03000260 IEM_DS3505
ZGHA,2008-08-13 14:00,ZGHA 131400Z AUTO 6SM 30/26 A2974 RMK T03000260 IEM_DS3505
ZGHA,2008-08-13 15:00,ZGHA 131500Z AUTO 6SM 29/25 A2974 RMK T02900250 IEM_DS3505
ZGHA,2008-08-13 16:00,ZGHA 131600Z AUTO 00000KT 6SM 28/25 A2971 RMK T02800250 IEM_DS3505
ZGHA,2008-08-13 17:00,ZGHA 131700Z AUTO 3SM 28/25 A2971 RMK T02800250 IEM_DS3505
ZGHA,2008-08-13 18:00,ZGHA 131800Z AUTO 4SM 27/25 A2968 RMK T02700250 IEM_DS3505
ZGHA,2008-08-13 21:00,ZGHA 132100Z AUTO 16004KT 4SM 27/25 A2968 RMK T02700250 IEM_DS3505
ZGHA,2008-08-13 22:00,ZGHA 132200Z AUTO 5SM 26/25 A2968 RMK T02600250 IEM_DS3505
ZGHA,2008-08-13 23:00,ZGHA 132300Z AUTO 15004KT 5SM 27/25 A2968 RMK T02700250 IEM_DS3505
ZGHA,2008-08-14 00:00,ZGHA 140000Z AUTO 17006KT 5SM 30/26 A2968 RMK T03000260 IEM_DS3505
ZGHA,2008-08-14 01:00,ZGHA 140100Z AUTO 20006KT 5SM 31/26 A2968 RMK T03100260 IEM_DS3505
ZGHA,2008-08-14 02:00,ZGHA 140200Z AUTO 22006KT 6SM 32/26 A2971 RMK T03200260 IEM_DS3505
ZGHA,2008-08-14 03:00,ZGHA 140300Z AUTO 21008KT 7SM 33/25 A2971 RMK T03300250 IEM_DS3505
ZGHA,2008-08-14 04:00,ZGHA 140400Z AUTO 22008KT 7SM 33/25 A2968 RMK T03300250 IEM_DS3505
ZGHA,2008-08-14 05:00,ZGHA 140500Z AUTO 19008KT 7SM 34/26 A2965 RMK T03400260 IEM_DS3505
ZGHA,2008-08-14 06:00,ZGHA 140600Z AUTO 19010KT 7SM 35/25 A2962 RMK T03500250 IEM_DS3505
ZGHA,2008-08-14 07:00,ZGHA 140700Z AUTO 20012KT 7SM 37/26 A2959 RMK T03700260 IEM_DS3505
ZGHA,2008-08-14 08:00,ZGHA 140800Z AUTO 22010KT 7SM 36/25 A2959 RMK T03600250 IEM_DS3505
ZGHA,2008-08-14 09:00,ZGHA 140900Z AUTO 20010KT 6SM 35/25 A2959 RMK T03500250 IEM_DS3505
ZGHA,2008-08-14 10:00,ZGHA 141000Z AUTO 20006KT 6SM 34/25 A2959 RMK T03400250 IEM_DS3505
ZGHA,2008-08-14 11:00,ZGHA 141100Z AUTO 6SM 32/27 A2959 RMK T03200270 IEM_DS3505
ZGHA,2008-08-14 12:00,ZGHA 141200Z AUTO 6SM 31/27 A2959 RMK T03100270 IEM_DS3505
ZGHA,2008-08-14 13:00,ZGHA 141300Z AUTO 00000KT 6SM 30/26 A2962 RMK T03000260 IEM_DS3505
ZGHA,2008-08-14 14:00,ZGHA 141400Z AUTO 16004KT 4SM 29/26 A2962 RMK T02900260 IEM_DS3505
ZGHA,2008-08-14 15:00,ZGHA 141500Z AUTO 4SM 29/26 A2962 RMK T02900260 IEM_DS3505
ZGHA,2008-08-14 16:00,ZGHA 141600Z AUTO 4SM 29/26 A2962 RMK T02900260 IEM_DS3505
ZGHA,2008-08-14 17:00,ZGHA 141700Z AUTO 5SM 28/26 A2959 RMK T02800260 IEM_DS3505
ZGHA,2008-08-14 18:00,ZGHA 141800Z AUTO 5SM 28/25 A2959 RMK T02800250 IEM_DS3505
ZGHA,2008-08-14 19:00,ZGHA 141900Z AUTO 5SM 27/25 A2956 RMK T02700250 IEM_DS3505
ZGHA,2008-08-14 21:00,ZGHA 142100Z AUTO 4SM 26/25 A2956 RMK T02600250 IEM_DS3505
ZGHA,2008-08-14 22:00,ZGHA 142200Z AUTO 4SM 26/25 A2956 RMK T02600250 IEM_DS3505
ZGHA,2008-08-14 23:00,ZGHA 142300Z AUTO 16004KT 4SM 27/25 A2959 RMK T02700250 IEM_DS3505
ZGHA,2008-08-15 00:00,ZGHA 150000Z AUTO 18006KT 4SM 29/25 A2959 RMK T02900250 IEM_DS3505
ZGHA,2008-08-15 01:00,ZGHA 150100Z AUTO 20010KT 6SM 31/25 A2959 RMK T03100250 IEM_DS3505
ZGHA,2008-08-15 02:00,ZGHA 150200Z AUTO 19008KT 6SM 31/25 A2959 RMK T03100250 IEM_DS3505
ZGHA,2008-08-15 03:00,ZGHA 150300Z AUTO 19008KT 6SM 32/25 A2959 RMK T03200250 IEM_DS3505
ZGHA,2008-08-15 04:00,ZGHA 150400Z AUTO 20006KT 6SM 32/25 A2959 RMK T03200250 IEM_DS3505
ZGHA,2008-08-15 05:00,ZGHA 150500Z AUTO 16006KT 7SM 34/25 A2956 RMK T03400250 IEM_DS3505
ZGHA,2008-08-15 06:00,ZGHA 150600Z AUTO 18004KT 7SM 35/25 A2953 RMK T03500250 IEM_DS3505
ZGHA,2008-08-15 07:00,ZGHA 150700Z AUTO 14004KT 7SM 34/26 A2953 RMK T03400260 IEM_DS3505
ZGHA,2008-08-15 08:00,ZGHA 150800Z AUTO 21008KT 7SM 35/25 A2950 RMK T03500250 IEM_DS3505
ZGHA,2008-08-15 09:00,ZGHA 150900Z AUTO 19008KT 7SM 36/25 A2950 RMK T03600250 IEM_DS3505
ZGHA,2008-08-15 10:00,ZGHA 151000Z AUTO 20006KT 7SM 34/25 A2950 RMK T03400250 IEM_DS3505
ZGHA,2008-08-15 11:00,ZGHA 151100Z AUTO 7SM 32/26 A2953 RMK T03200260 IEM_DS3505
ZGHA,2008-08-15 12:00,ZGHA 151200Z AUTO 00000KT 6SM 32/26 A2953 RMK T03200260 IEM_DS3505
ZGHA,2008-08-15 13:00,ZGHA 151300Z AUTO 08002KT 6SM 31/26 A2956 RMK T03100260 IEM_DS3505
ZGHA,2008-08-15 14:00,ZGHA 151400Z AUTO 00000KT 6SM 30/26 A2956 RMK T03000260 IEM_DS3505
ZGHA,2008-08-15 15:00,ZGHA 151500Z AUTO 00000KT 6SM 29/26 A2956 RMK T02900260 IEM_DS3505
ZGHA,2008-08-15 16:00,ZGHA 151600Z AUTO 00000KT 6SM 29/26 A2953 RMK T02900260 IEM_DS3505
ZGHA,2008-08-15 19:00,ZGHA 151900Z AUTO 19004KT 6SM 28/26 A2953 RMK T02800260 IEM_DS3505
ZGHA,2008-08-15 20:00,ZGHA 152000Z AUTO 17006KT 6SM 28/25 A2953 RMK T02800250 IEM_DS3505
ZGHA,2008-08-15 21:00,ZGHA 152100Z AUTO 19006KT 6SM 28/25 A2953 RMK T02800250 IEM_DS3505
ZGHA,2008-08-15 22:00,ZGHA 152200Z AUTO 18004KT 6SM 28/25 A2953 RMK T02800250 IEM_DS3505
ZGHA,2008-08-15 23:00,ZGHA 152300Z AUTO 17004KT 6SM 28/25 A2953 RMK T02800250 IEM_DS3505
ZGHA,2008-08-16 00:00,ZGHA 160000Z AUTO 18004KT 6SM 29/25 A2956 RMK T02900250 IEM_DS3505
ZGHA,2008-08-16 01:00,ZGHA 160100Z AUTO 18004KT 6SM 30/26 A2956 RMK T03000260 IEM_DS3505
ZGHA,2008-08-16 02:00,ZGHA 160200Z AUTO 19006KT 6SM 31/26 A2956 RMK T03100260 IEM_DS3505
ZGHA,2008-08-16 03:00,ZGHA 160300Z AUTO 19012KT 6SM 33/25 A2956 RMK T03300250 IEM_DS3505
ZGHA,2008-08-16 04:00,ZGHA 160400Z AUTO 19008KT 6SM 33/25 A2956 RMK T03300250 IEM_DS3505
ZGHA,2008-08-16 05:00,ZGHA 160500Z AUTO 21008KT 6SM 34/26 A2953 RMK T03400260 IEM_DS3505
ZGHA,2008-08-16 06:00,ZGHA 160600Z AUTO 19010KT 6SM 34/26 A2953 RMK T03400260 IEM_DS3505
ZGHA,2008-08-16 07:00,ZGHA 160700Z AUTO 20008KT 6SM 34/26 A2953 RMK T03400260 IEM_DS3505
ZGHA,2008-08-16 08:00,ZGHA 160800Z AUTO 20006KT 6SM 34/26 A2950 RMK T03400260 IEM_DS3505
ZGHA,2008-08-16 09:00,ZGHA 160900Z AUTO 25023KT 4SM 27/23 A2956 RMK T02700230 IEM_DS3505
ZGHA,2008-08-16 10:00,ZGHA 161000Z AUTO 22012KT 6SM 25/25 A2956 RMK T02500250 IEM_DS3505
ZGHA,2008-08-16 11:00,ZGHA 161100Z AUTO 00000KT 6SM 25/25 A2959 RMK T02500250 IEM_DS3505
ZGHA,2008-08-16 12:00,ZGHA 161200Z AUTO 6SM 25/25 A2959 RMK T02500250 IEM_DS3505
ZGHA,2008-08-16 13:00,ZGHA 161300Z AUTO 00000KT 5SM 25/25 A2962 RMK T02500250 IEM_DS3505
ZGHA,2008-08-16 14:00,ZGHA 161400Z AUTO 00000KT 4SM 25/25 A2962 RMK T02500250 IEM_DS3505
ZGHA,2008-08-16 15:00,ZGHA 161500Z AUTO 2 1/2SM 25/25 A2962 RMK T02500250 IEM_DS3505
ZGHA,2008-08-16 16:00,ZGHA 161600Z AUTO 00000KT 2 1/2SM 25/25 A2965 RMK T02500250 IEM_DS3505
ZGHA,2008-08-16 17:00,ZGHA 161700Z AUTO 3SM 25/25 A2965 RMK T02500250 IEM_DS3505
ZGHA,2008-08-16 18:00,ZGHA 161800Z AUTO 00000KT 2 1/2SM 25/25 A2962 RMK T02500250 IEM_DS3505
ZGHA,2008-08-16 19:00,ZGHA 161900Z AUTO 10002KT 2 1/2SM 25/25 A2962 RMK T02500250 IEM_DS3505
ZGHA,2008-08-16 20:00,ZGHA 162000Z AUTO 2 1/2SM 25/25 A2962 RMK T02500250 IEM_DS3505
ZGHA,2008-08-16 21:00,ZGHA 162100Z AUTO 30012KT 2SM 23/23 A2965 RMK T02300230 IEM_DS3505
ZGHA,2008-08-16 22:00,ZGHA 162200Z AUTO 30008KT 3SM 23/22 A2965 RMK T02300220 IEM_DS3505
ZGHA,2008-08-16 23:00,ZGHA 162300Z AUTO 31006KT 2 1/2SM 22/22 A2968 RMK T02200220 IEM_DS3505
ZGHA,2008-08-17 00:00,ZGHA 170000Z AUTO 31008KT 2 1/2SM 21/21 A2971 RMK T02100210 IEM_DS3505
ZGHA,2008-08-17 01:00,ZGHA 170100Z AUTO 28008KT 2SM 21/21 A2974 RMK T02100210 IEM_DS3505
ZGHA,2008-08-17 02:00,ZGHA 170200Z AUTO 34004KT 2 1/2SM 21/21 A2974 RMK T02100210 IEM_DS3505
ZGHA,2008-08-17 03:00,ZGHA 170300Z AUTO 30006KT 2 1/2SM 22/22 A2974 RMK T02200220 IEM_DS3505
ZGHA,2008-08-17 04:00,ZGHA 170400Z AUTO 31004KT 2 1/2SM 22/22 A2974 RMK T02200220 IEM_DS3505
ZGHA,2008-08-17 05:00,ZGHA 170500Z AUTO 32006KT 3SM 22/22 A2974 RMK T02200220 IEM_DS3505
ZGHA,2008-08-17 06:00,ZGHA 170600Z AUTO 30006KT 3SM 22/22 A2974 RMK T02200220 IEM_DS3505
ZGHA,2008-08-17 07:00,ZGHA 170700Z AUTO 33006KT 4SM 23/23 A2971 RMK T02300230 IEM_DS3505
ZGHA,2008-08-17 08:00,ZGHA 170800Z AUTO 32006KT 4SM 23/22 A2971 RMK T02300220 IEM_DS3505
ZGHA,2008-08-17 09:00,ZGHA 170900Z AUTO 33006KT 4SM 23/22 A2974 RMK T02300220 IEM_DS3505
ZGHA,2008-08-17 10:00,ZGHA 171000Z AUTO 32006KT 3SM 23/22 A2974 RMK T02300220 IEM_DS3505
ZGHA,2008-08-17 11:00,ZGHA 171100Z AUTO 36004KT 3SM 23/22 A2974 RMK T02300220 IEM_DS3505
ZGHA,2008-08-17 12:00,ZGHA 171200Z AUTO 33006KT 3SM 23/22 A2977 RMK T02300220 IEM_DS3505
ZGHA,2008-08-17 13:00,ZGHA 171300Z AUTO 2 1/2SM 22/22 A2977 RMK T02200220 IEM_DS3505
ZGHA,2008-08-17 14:00,ZGHA 171400Z AUTO 32004KT 2 1/2SM 23/22 A2977 RMK T02300220 IEM_DS3505
ZGHA,2008-08-17 15:00,ZGHA 171500Z AUTO 2SM 22/22 A2980 RMK T02200220 IEM_DS3505
ZGHA,2008-08-17 16:00,ZGHA 171600Z AUTO 2SM 22/22 A2980 RMK T02200220 IEM_DS3505
ZGHA,2008-08-17 17:00,ZGHA 171700Z AUTO 00000KT 2 1/2SM 22/22 A2980 RMK T02200220 IEM_DS3505
ZGHA,2008-08-17 18:00,ZGHA 171800Z AUTO 33004KT 2 1/2SM 22/22 A2980 RMK T02200220 IEM_DS3505
ZGHA,2008-08-17 20:00,ZGHA 172000Z AUTO 00000KT 2 1/2SM 22/22 A2980 RMK T02200220 IEM_DS3505
ZGHA,2008-08-17 21:00,ZGHA 172100Z AUTO 2SM 22/22 A2980 RMK T02200220 IEM_DS3505
ZGHA,2008-08-17 22:00,ZGHA 172200Z AUTO 2SM 22/22 A2980 RMK T02200220 IEM_DS3505
ZGHA,2008-08-17 23:00,ZGHA 172300Z AUTO 00000KT 1 1/2SM 22/22 A2983 RMK T02200220 IEM_DS3505
ZGHA,2008-08-18 00:00,ZGHA 180000Z AUTO 24004KT 1SM 23/23 A2985 RMK T02300230 IEM_DS3505
ZGHA,2008-08-18 01:00,ZGHA 180100Z AUTO 00000KT 1 1/2SM 23/23 A2988 RMK T02300230 IEM_DS3505
ZGHA,2008-08-18 02:00,ZGHA 180200Z AUTO 2SM 24/23 A2985 RMK T02400230 IEM_DS3505
ZGHA,2008-08-18 03:00,ZGHA 180300Z AUTO 2 1/2SM 25/24 A2985 RMK T02500240 IEM_DS3505
ZGHA,2008-08-18 04:00,ZGHA 180400Z AUTO 22006KT 2 1/2SM 26/25 A2985 RMK T02600250 IEM_DS3505
ZGHA,2008-08-18 05:00,ZGHA 180500Z AUTO 11004KT 2SM 26/25 A2983 RMK T02600250 IEM_DS3505
ZGHA,2008-08-18 06:00,ZGHA 180600Z AUTO 23004KT 3SM 28/26 A2983 RMK T02800260 IEM_DS3505
ZGHA,2008-08-18 07:00,ZGHA 180700Z AUTO 4SM 30/27 A2980 RMK T03000270 IEM_DS3505
ZGHA,2008-08-18 08:00,ZGHA 180800Z AUTO 4SM 31/26 A2977 RMK T03100260 IEM_DS3505
ZGHA,2008-08-18 09:00,ZGHA 180900Z AUTO 4SM 32/26 A2977 RMK T03200260 IEM_DS3505
ZGHA,2008-08-18 10:00,ZGHA 181000Z AUTO 29006KT 4SM 32/26 A2977 RMK T03200260 IEM_DS3505
ZGHA,2008-08-18 11:00,ZGHA 181100Z AUTO 4SM 30/26 A2977 RMK T03000260 IEM_DS3505
ZGHA,2008-08-18 12:00,ZGHA 181200Z AUTO 11002KT 2 1/2SM 28/26 A2977 RMK T02800260 IEM_DS3505
ZGHA,2008-08-18 13:00,ZGHA 181300Z AUTO 08002KT 2 1/2SM 27/26 A2980 RMK T02700260 IEM_DS3505
ZGHA,2008-08-18 14:00,ZGHA 181400Z AUTO 09002KT 2SM 27/26 A2983 RMK T02700260 IEM_DS3505
ZGHA,2008-08-18 15:00,ZGHA 181500Z AUTO 1 1/2SM 27/26 A2983 RMK T02700260 IEM_DS3505
ZGHA,2008-08-18 16:00,ZGHA 181600Z AUTO 1 1/4SM 26/26 A2983 RMK T02600260 IEM_DS3505
ZGHA,2008-08-18 17:00,ZGHA 181700Z AUTO 1 1/4SM 26/26 A2983 RMK T02600260 IEM_DS3505
ZGHA,2008-08-18 18:00,ZGHA 181800Z AUTO 1 1/4SM 26/25 A2980 RMK T02600250 IEM_DS3505
ZGHA,2008-08-18 19:00,ZGHA 181900Z AUTO 00000KT 1SM 25/25 A2980 RMK T02500250 IEM_DS3505
ZGHA,2008-08-18 20:00,ZGHA 182000Z AUTO 00000KT 1SM 25/25 A2980 RMK T02500250 IEM_DS3505
ZGHA,2008-08-18 21:00,ZGHA 182100Z AUTO 18002KT 1SM 25/25 A2980 RMK T02500250 IEM_DS3505
ZGHA,2008-08-18 22:00,ZGHA 182200Z AUTO 00000KT 1 1/4SM 25/25 A2983 RMK T02500250 IEM_DS3505
ZGHA,2008-08-18 23:00,ZGHA 182300Z AUTO 00000KT 1 1/2SM 25/25 A2983 RMK T02500250 IEM_DS3505
ZGHA,2008-08-19 00:00,ZGHA 190000Z AUTO 3SM 28/27 A2983 RMK T02800270 IEM_DS3505
ZGHA,2008-08-19 01:00,ZGHA 190100Z AUTO 3SM 31/29 A2985 RMK T03100290 IEM_DS3505
ZGHA,2008-08-19 02:00,ZGHA 190200Z AUTO 6SM 33/28 A2985 RMK T03300280 IEM_DS3505
ZGHA,2008-08-19 03:00,ZGHA 190300Z AUTO 18006KT 6SM 34/27 A2985 RMK T03400270 IEM_DS3505
ZGHA,2008-08-19 04:00,ZGHA 190400Z AUTO 18004KT 6SM 35/28 A2983 RMK T03500280 IEM_DS3505
ZGHA,2008-08-19 05:00,ZGHA 190500Z AUTO 22006KT 7SM 35/27 A2980 RMK T03500270 IEM_DS3505
ZGHA,2008-08-19 06:00,ZGHA 190600Z AUTO 21008KT 7SM 36/26 A2980 RMK T03600260 IEM_DS3505
ZGHA,2008-08-19 07:00,ZGHA 190700Z AUTO 23006KT 7SM 36/27 A2977 RMK T03600270 IEM_DS3505
ZGHA,2008-08-19 08:00,ZGHA 190800Z AUTO 23006KT 7SM 37/26 A2974 RMK T03700260 IEM_DS3505
ZGHA,2008-08-19 09:00,ZGHA 190900Z AUTO 22006KT 6SM 36/26 A2974 RMK T03600260 IEM_DS3505
ZGHA,2008-08-19 10:00,ZGHA 191000Z AUTO 20006KT 6SM 35/26 A2974 RMK T03500260 IEM_DS3505
ZGHA,2008-08-19 11:00,ZGHA 191100Z AUTO 6SM 33/28 A2974 RMK T03300280 IEM_DS3505
ZGHA,2008-08-19 12:00,ZGHA 191200Z AUTO 14004KT 5SM 30/27 A2974 RMK T03000270 IEM_DS3505
ZGHA,2008-08-19 13:00,ZGHA 191300Z AUTO 08002KT 4SM 29/27 A2977 RMK T02900270 IEM_DS3505
ZGHA,2008-08-19 14:00,ZGHA 191400Z AUTO 00000KT 4SM 29/27 A2977 RMK T02900270 IEM_DS3505
ZGHA,2008-08-19 15:00,ZGHA 191500Z AUTO 00000KT 4SM 28/27 A2977 RMK T02800270 IEM_DS3505
ZGHA,2008-08-19 16:00,ZGHA 191600Z AUTO 00000KT 4SM 27/26 A2977 RMK T02700260 IEM_DS3505
ZGHA,2008-08-19 17:00,ZGHA 191700Z AUTO 00000KT 2SM 27/26 A2977 RMK T02700260 IEM_DS3505
ZGHA,2008-08-19 21:00,ZGHA 192100Z AUTO 23002KT 3SM 26/26 A2977 RMK T02600260 IEM_DS3505
ZGHA,2008-08-19 22:00,ZGHA 192200Z AUTO 14004KT 2 1/2SM 26/26 A2977 RMK T02600260 IEM_DS3505
ZGHA,2008-08-19 23:00,ZGHA 192300Z AUTO 3SM 27/26 A2977 RMK T02700260 IEM_DS3505
ZGHA,2008-08-20 00:00,ZGHA 200000Z AUTO 4SM 29/27 A2977 RMK T02900270 IEM_DS3505
ZGHA,2008-08-20 01:00,ZGHA 200100Z AUTO 19006KT 5SM 31/28 A2980 RMK T03100280 IEM_DS3505
ZGHA,2008-08-20 02:00,ZGHA 200200Z AUTO 20006KT 5SM 33/27 A2980 RMK T03300270 IEM_DS3505
ZGHA,2008-08-20 03:00,ZGHA 200300Z AUTO 19006KT 6SM 35/27 A2977 RMK T03500270 IEM_DS3505
ZGHA,2008-08-20 04:00,ZGHA 200400Z AUTO 20008KT 6SM 35/26 A2974 RMK T03500260 IEM_DS3505
ZGHA,2008-08-20 05:00,ZGHA 200500Z AUTO 18010KT 6SM 36/27 A2974 RMK T03600270 IEM_DS3505
ZGHA,2008-08-20 06:00,ZGHA 200600Z AUTO 21010KT 6SM 38/26 A2971 RMK T03800260 IEM_DS3505
ZGHA,2008-08-20 07:00,ZGHA 200700Z AUTO 20008KT 6SM 37/25 A2968 RMK T03700250 IEM_DS3505
ZGHA,2008-08-20 08:00,ZGHA 200800Z AUTO 18006KT 7SM 37/26 A2968 RMK T03700260 IEM_DS3505
ZGHA,2008-08-20 09:00,ZGHA 200900Z AUTO 20008KT 6SM 37/26 A2965 RMK T03700260 IEM_DS3505
ZGHA,2008-08-20 10:00,ZGHA 201000Z AUTO 20006KT 6SM 35/26 A2965 RMK T03500260 IEM_DS3505
ZGHA,2008-08-20 11:00,ZGHA 201100Z AUTO 6SM 33/27 A2965 RMK T03300270 IEM_DS3505
ZGHA,2008-08-20 12:00,ZGHA 201200Z AUTO 6SM 31/27 A2965 RMK T03100270 IEM_DS3505
ZGHA,2008-08-20 13:00,ZGHA 201300Z AUTO 11002KT 5SM 29/27 A2968 RMK T02900270 IEM_DS3505
ZGHA,2008-08-20 14:00,ZGHA 201400Z AUTO 5SM 29/27 A2968 RMK T02900270 IEM_DS3505
ZGHA,2008-08-20 15:00,ZGHA 201500Z AUTO 5SM 29/27 A2968 RMK T02900270 IEM_DS3505
ZGHA,2008-08-20 16:00,ZGHA 201600Z AUTO 00000KT 5SM 29/27 A2968 RMK T02900270 IEM_DS3505
ZGHA,2008-08-20 18:00,ZGHA 201800Z AUTO 00000KT 1 1/2SM 27/26 A2965 RMK T02700260 IEM_DS3505
ZGHA,2008-08-20 21:00,ZGHA 202100Z AUTO 00000KT 4SM 26/26 A2965 RMK T02600260 IEM_DS3505
ZGHA,2008-08-20 22:00,ZGHA 202200Z AUTO 3SM 26/26 A2968 RMK T02600260 IEM_DS3505
ZGHA,2008-08-20 23:00,ZGHA 202300Z AUTO 3SM 26/26 A2968 RMK T02600260 IEM_DS3505
ZGHA,2008-08-21 00:00,ZGHA 210000Z AUTO 3SM 29/28 A2968 RMK T02900280 IEM_DS3505
ZGHA,2008-08-21 01:00,ZGHA 210100Z AUTO 17004KT 4SM 32/28 A2968 RMK T03200280 IEM_DS3505
ZGHA,2008-08-21 02:00,ZGHA 210200Z AUTO 19006KT 6SM 34/28 A2968 RMK T03400280 IEM_DS3505
ZGHA,2008-08-21 03:00,ZGHA 210300Z AUTO 19010KT 6SM 36/28 A2968 RMK T03600280 IEM_DS3505
ZGHA,2008-08-21 04:00,ZGHA 210400Z AUTO 20008KT 6SM 36/26 A2965 RMK T03600260 IEM_DS3505
ZGHA,2008-08-21 05:00,ZGHA 210500Z AUTO 18008KT 7SM 37/25 A2962 RMK T03700250 IEM_DS3505
ZGHA,2008-08-21 06:00,ZGHA 210600Z AUTO 22008KT 7SM 38/26 A2962 RMK T03800260 IEM_DS3505
ZGHA,2008-08-21 07:00,ZGHA 210700Z AUTO 22006KT 7SM 38/26 A2959 RMK T03800260 IEM_DS3505
ZGHA,2008-08-21 08:00,ZGHA 210800Z AUTO 22004KT 7SM 39/26 A2956 RMK T03900260 IEM_DS3505
ZGHA,2008-08-21 09:00,ZGHA 210900Z AUTO 28006KT 7SM 38/25 A2956 RMK T03800250 IEM_DS3505
ZGHA,2008-08-21 10:00,ZGHA 211000Z AUTO 25004KT 7SM 37/26 A2956 RMK T03700260 IEM_DS3505
ZGHA,2008-08-21 11:00,ZGHA 211100Z AUTO 6SM 34/28 A2959 RMK T03400280 IEM_DS3505
ZGHA,2008-08-21 12:00,ZGHA 211200Z AUTO 09002KT 6SM 32/28 A2959 RMK T03200280 IEM_DS3505
ZGHA,2008-08-21 13:00,ZGHA 211300Z AUTO 00000KT 5SM 31/28 A2962 RMK T03100280 IEM_DS3505
ZGHA,2008-08-21 14:00,ZGHA 211400Z AUTO 4SM 30/28 A2965 RMK T03000280 IEM_DS3505
ZGHA,2008-08-21 15:00,ZGHA 211500Z AUTO 00000KT 4SM 29/28 A2965 RMK T02900280 IEM_DS3505
ZGHA,2008-08-21 16:00,ZGHA 211600Z AUTO 00000KT 4SM 28/27 A2965 RMK T02800270 IEM_DS3505
ZGHA,2008-08-21 19:00,ZGHA 211900Z AUTO 2SM 27/27 A2959 RMK T02700270 IEM_DS3505
ZGHA,2008-08-21 21:00,ZGHA 212100Z AUTO 35004KT 3SM 27/26 A2962 RMK T02700260 IEM_DS3505
ZGHA,2008-08-21 22:00,ZGHA 212200Z AUTO 2 1/2SM 27/26 A2962 RMK T02700260 IEM_DS3505
ZGHA,2008-08-21 23:00,ZGHA 212300Z AUTO 33006KT 2 1/2SM 27/27 A2965 RMK T02700270 IEM_DS3505
ZGHA,2008-08-22 00:00,ZGHA 220000Z AUTO 35004KT 2 1/2SM 29/28 A2965 RMK T02900280 IEM_DS3505
ZGHA,2008-08-22 01:00,ZGHA 220100Z AUTO 2 1/2SM 30/28 A2968 RMK T03000280 IEM_DS3505
ZGHA,2008-08-22 02:00,ZGHA 220200Z AUTO 33006KT 4SM 32/28 A2968 RMK T03200280 IEM_DS3505
ZGHA,2008-08-22 03:00,ZGHA 220300Z AUTO 30006KT 5SM 33/27 A2968 RMK T03300270 IEM_DS3505
ZGHA,2008-08-22 04:00,ZGHA 220400Z AUTO 30010KT 7SM 35/28 A2968 RMK T03500280 IEM_DS3505
ZGHA,2008-08-22 05:00,ZGHA 220500Z AUTO 34008KT 7SM 34/27 A2965 RMK T03400270 IEM_DS3505
ZGHA,2008-08-22 06:00,ZGHA 220600Z AUTO 35008KT 7SM 34/27 A2965 RMK T03400270 IEM_DS3505
ZGHA,2008-08-22 07:00,ZGHA 220700Z AUTO 35012KT 7SM 35/27 A2962 RMK T03500270 IEM_DS3505
ZGHA,2008-08-22 08:00,ZGHA 220800Z AUTO 35010KT 7SM 32/26 A2962 RMK T03200260 IEM_DS3505
ZGHA,2008-08-22 09:00,ZGHA 220900Z AUTO 35010KT 5SM 30/25 A2962 RMK T03000250 IEM_DS3505
ZGHA,2008-08-22 10:00,ZGHA 221000Z AUTO 33010KT 5SM 29/25 A2965 RMK T02900250 IEM_DS3505
ZGHA,2008-08-22 11:00,ZGHA 221100Z AUTO 34006KT 4SM 27/24 A2965 RMK T02700240 IEM_DS3505
ZGHA,2008-08-22 12:00,ZGHA 221200Z AUTO 36006KT 2 1/2SM 26/24 A2965 RMK T02600240 IEM_DS3505
ZGHA,2008-08-22 13:00,ZGHA 221300Z AUTO 33008KT 3SM 26/24 A2968 RMK T02600240 IEM_DS3505
ZGHA,2008-08-22 14:00,ZGHA 221400Z AUTO 35006KT 2 1/2SM 26/24 A2968 RMK T02600240 IEM_DS3505
ZGHA,2008-08-22 15:00,ZGHA 221500Z AUTO 34006KT 2 1/2SM 25/24 A2968 RMK T02500240 IEM_DS3505
ZGHA,2008-08-22 16:00,ZGHA 221600Z AUTO 2SM 25/23 A2968 RMK T02500230 IEM_DS3505
ZGHA,2008-08-22 17:00,ZGHA 221700Z AUTO 2SM 25/24 A2968 RMK T02500240 IEM_DS3505
ZGHA,2008-08-22 18:00,ZGHA 221800Z AUTO 36004KT 1 1/2SM 25/24 A2965 RMK T02500240 IEM_DS3505
ZGHA,2008-08-22 19:00,ZGHA 221900Z AUTO 36004KT 2 1/2SM 25/24 A2968 RMK T02500240 IEM_DS3505
ZGHA,2008-08-22 20:00,ZGHA 222000Z AUTO 35004KT 2SM 25/24 A2968 RMK T02500240 IEM_DS3505
ZGHA,2008-08-22 21:00,ZGHA 222100Z AUTO 34006KT 2SM 25/24 A2968 RMK T02500240 IEM_DS3505
ZGHA,2008-08-22 22:00,ZGHA 222200Z AUTO 36006KT 2 1/2SM 25/23 A2968 RMK T02500230 IEM_DS3505
ZGHA,2008-08-22 23:00,ZGHA 222300Z AUTO 01004KT 2 1/2SM 25/23 A2971 RMK T02500230 IEM_DS3505
ZGHA,2008-08-23 00:00,ZGHA 230000Z AUTO 36008KT 3SM 26/24 A2971 RMK T02600240 IEM_DS3505
ZGHA,2008-08-23 01:00,ZGHA 230100Z AUTO 36008KT 4SM 27/23 A2974 RMK T02700230 IEM_DS3505
ZGHA,2008-08-23 02:00,ZGHA 230200Z AUTO 04004KT 4SM 29/24 A2974 RMK T02900240 IEM_DS3505
ZGHA,2008-08-23 03:00,ZGHA 230300Z AUTO 36006KT 4SM 31/25 A2974 RMK T03100250 IEM_DS3505
ZGHA,2008-08-23 04:00,ZGHA 230400Z AUTO 7SM 32/25 A2971 RMK T03200250 IEM_DS3505
ZGHA,2008-08-23 05:00,ZGHA 230500Z AUTO 7SM 32/26 A2971 RMK T03200260 IEM_DS3505
ZGHA,2008-08-23 06:00,ZGHA 230600Z AUTO 7SM 32/26 A2968 RMK T03200260 IEM_DS3505
ZGHA,2008-08-23 07:00,ZGHA 230700Z AUTO 7SM 33/26 A2968 RMK T03300260 IEM_DS3505
ZGHA,2008-08-23 08:00,ZGHA 230800Z AUTO 05004KT 7SM 32/26 A2965 RMK T03200260 IEM_DS3505
ZGHA,2008-08-23 09:00,ZGHA 230900Z AUTO 03004KT 7SM 32/26 A2965 RMK T03200260 IEM_DS3505
ZGHA,2008-08-23 10:00,ZGHA 231000Z AUTO 06004KT 6SM 31/26 A2965 RMK T03100260 IEM_DS3505
ZGHA,2008-08-23 11:00,ZGHA 231100Z AUTO 7SM 29/25 A2968 RMK T02900250 IEM_DS3505
ZGHA,2008-08-23 12:00,ZGHA 231200Z AUTO 07004KT 7SM 29/25 A2968 RMK T02900250 IEM_DS3505
ZGHA,2008-08-23 13:00,ZGHA 231300Z AUTO 7SM 29/25 A2971 RMK T02900250 IEM_DS3505
ZGHA,2008-08-23 14:00,ZGHA 231400Z AUTO 7SM 28/25 A2971 RMK T02800250 IEM_DS3505
ZGHA,2008-08-23 15:00,ZGHA 231500Z AUTO 7SM 28/25 A2971 RMK T02800250 IEM_DS3505
ZGHA,2008-08-23 16:00,ZGHA 231600Z AUTO 6SM 27/25 A2974 RMK T02700250 IEM_DS3505
ZGHA,2008-08-23 17:00,ZGHA 231700Z AUTO 6SM 26/24 A2974 RMK T02600240 IEM_DS3505
ZGHA,2008-08-23 18:00,ZGHA 231800Z AUTO 3SM 26/24 A2971 RMK T02600240 IEM_DS3505
ZGHA,2008-08-23 19:00,ZGHA 231900Z AUTO 00000KT 3SM 26/24 A2971 RMK T02600240 IEM_DS3505
ZGHA,2008-08-23 20:00,ZGHA 232000Z AUTO 3SM 25/24 A2974 RMK T02500240 IEM_DS3505
ZGHA,2008-08-23 21:00,ZGHA 232100Z AUTO 3SM 25/24 A2974 RMK T02500240 IEM_DS3505
ZGHA,2008-08-23 22:00,ZGHA 232200Z AUTO 00000KT 5SM 25/23 A2974 RMK T02500230 IEM_DS3505
ZGHA,2008-08-23 23:00,ZGHA 232300Z AUTO 5SM 25/23 A2977 RMK T02500230 IEM_DS3505
ZGHA,2008-08-24 00:00,ZGHA 240000Z AUTO 00000KT 4SM 27/24 A2977 RMK T02700240 IEM_DS3505
ZGHA,2008-08-24 01:00,ZGHA 240100Z AUTO 4SM 27/24 A2980 RMK T02700240 IEM_DS3505
ZGHA,2008-08-24 02:00,ZGHA 240200Z AUTO 4SM 27/24 A2980 RMK T02700240 IEM_DS3505
ZGHA,2008-08-24 03:00,ZGHA 240300Z AUTO 4SM 29/25 A2980 RMK T02900250 IEM_DS3505
ZGHA,2008-08-24 04:00,ZGHA 240400Z AUTO 00000KT 4SM 30/25 A2977 RMK T03000250 IEM_DS3505
ZGHA,2008-08-24 05:00,ZGHA 240500Z AUTO 5SM 31/25 A2977 RMK T03100250 IEM_DS3505
ZGHA,2008-08-24 06:00,ZGHA 240600Z AUTO 5SM 32/24 A2977 RMK T03200240 IEM_DS3505
ZGHA,2008-08-24 07:00,ZGHA 240700Z AUTO 17004KT 5SM 31/26 A2974 RMK T03100260 IEM_DS3505
ZGHA,2008-08-24 08:00,ZGHA 240800Z AUTO 5SM 31/26 A2974 RMK T03100260 IEM_DS3505
ZGHA,2008-08-24 09:00,ZGHA 240900Z AUTO 14004KT 6SM 31/26 A2974 RMK T03100260 IEM_DS3505
ZGHA,2008-08-24 10:00,ZGHA 241000Z AUTO 20004KT 5SM 30/25 A2974 RMK T03000250 IEM_DS3505
ZGHA,2008-08-24 11:00,ZGHA 241100Z AUTO 27006KT 4SM 27/25 A2977 RMK T02700250 IEM_DS3505
ZGHA,2008-08-24 12:00,ZGHA 241200Z AUTO 00000KT 2 1/2SM 27/25 A2977 RMK T02700250 IEM_DS3505
ZGHA,2008-08-24 13:00,ZGHA 241300Z AUTO 2SM 27/25 A2980 RMK T02700250 IEM_DS3505
ZGHA,2008-08-24 14:00,ZGHA 241400Z AUTO 2 1/2SM 27/25 A2980 RMK T02700250 IEM_DS3505
ZGHA,2008-08-24 15:00,ZGHA 241500Z AUTO 2 1/2SM 27/25 A2980 RMK T02700250 IEM_DS3505
ZGHA,2008-08-24 16:00,ZGHA 241600Z AUTO 18004KT 2 1/2SM 26/25 A2980 RMK T02600250 IEM_DS3505
ZGHA,2008-08-24 17:00,ZGHA 241700Z AUTO 18004KT 3SM 26/25 A2980 RMK T02600250 IEM_DS3505
ZGHA,2008-08-24 18:00,ZGHA 241800Z AUTO 17002KT 2 1/2SM 25/25 A2980 RMK T02500250 IEM_DS3505
ZGHA,2008-08-24 21:00,ZGHA 242100Z AUTO 2 1/2SM 25/25 A2980 RMK T02500250 IEM_DS3505
ZGHA,2008-08-24 22:00,ZGHA 242200Z AUTO 00000KT 2 1/2SM 25/25 A2980 RMK T02500250 IEM_DS3505
ZGHA,2008-08-24 23:00,ZGHA 242300Z AUTO 00000KT 2 1/2SM 25/25 A2983 RMK T02500250 IEM_DS3505
ZGHA,2008-08-25 00:00,ZGHA 250000Z AUTO 00000KT 2 1/2SM 27/26 A2983 RMK T02700260 IEM_DS3505
ZGHA,2008-08-25 01:00,ZGHA 250100Z AUTO 3SM 27/25 A2985 RMK T02700250 IEM_DS3505
ZGHA,2008-08-25 02:00,ZGHA 250200Z AUTO 26004KT 2 1/2SM 29/26 A2985 RMK T02900260 IEM_DS3505
ZGHA,2008-08-25 03:00,ZGHA 250300Z AUTO 2 1/2SM 31/25 A2985 RMK T03100250 IEM_DS3505
ZGHA,2008-08-25 04:00,ZGHA 250400Z AUTO 01004KT 3SM 33/27 A2985 RMK T03300270 IEM_DS3505
ZGHA,2008-08-25 05:00,ZGHA 250500Z AUTO 35004KT 3SM 32/26 A2983 RMK T03200260 IEM_DS3505
ZGHA,2008-08-25 06:00,ZGHA 250600Z AUTO 3SM 28/26 A2983 RMK T02800260 IEM_DS3505
ZGHA,2008-08-25 07:00,ZGHA 250700Z AUTO 35004KT 4SM 31/26 A2980 RMK T03100260 IEM_DS3505
ZGHA,2008-08-25 08:00,ZGHA 250800Z AUTO 35006KT 4SM 31/25 A2980 RMK T03100250 IEM_DS3505
ZGHA,2008-08-25 09:00,ZGHA 250900Z AUTO 36006KT 4SM 31/24 A2980 RMK T03100240 IEM_DS3505
ZGHA,2008-08-25 10:00,ZGHA 251000Z AUTO 5SM 30/22 A2980 RMK T03000220 IEM_DS3505
ZGHA,2008-08-25 11:00,ZGHA 251100Z AUTO 5SM 28/22 A2980 RMK T02800220 IEM_DS3505
ZGHA,2008-08-25 12:00,ZGHA 251200Z AUTO 35004KT 4SM 27/22 A2983 RMK T02700220 IEM_DS3505
ZGHA,2008-08-25 13:00,ZGHA 251300Z AUTO 34004KT 4SM 27/22 A2985 RMK T02700220 IEM_DS3505
ZGHA,2008-08-25 14:00,ZGHA 251400Z AUTO 34004KT 4SM 27/22 A2985 RMK T02700220 IEM_DS3505
ZGHA,2008-08-25 15:00,ZGHA 251500Z AUTO 35002KT 3SM 26/22 A2985 RMK T02600220 IEM_DS3505
ZGHA,2008-08-25 16:00,ZGHA 251600Z AUTO 3SM 25/22 A2983 RMK T02500220 IEM_DS3505
ZGHA,2008-08-25 17:00,ZGHA 251700Z AUTO 2SM 25/23 A2983 RMK T02500230 IEM_DS3505
ZGHA,2008-08-25 18:00,ZGHA 251800Z AUTO 2SM 25/23 A2983 RMK T02500230 IEM_DS3505
ZGHA,2008-08-25 21:00,ZGHA 252100Z AUTO 00000KT 2 1/2SM 24/23 A2983 RMK T02400230 IEM_DS3505
ZGHA,2008-08-25 22:00,ZGHA 252200Z AUTO 2SM 24/23 A2983 RMK T02400230 IEM_DS3505
ZGHA,2008-08-25 23:00,ZGHA 252300Z AUTO 00000KT 2 1/2SM 24/23 A2985 RMK T02400230 IEM_DS3505
ZGHA,2008-08-26 00:00,ZGHA 260000Z AUTO 2 1/2SM 25/23 A2985 RMK T02500230 IEM_DS3505
ZGHA,2008-08-26 01:00,ZGHA 260100Z AUTO 3SM 26/23 A2985 RMK T02600230 IEM_DS3505
ZGHA,2008-08-26 02:00,ZGHA 260200Z AUTO 01002KT 3SM 26/23 A2988 RMK T02600230 IEM_DS3505
ZGHA,2008-08-26 03:00,ZGHA 260300Z AUTO 00000KT 3SM 27/23 A2988 RMK T02700230 IEM_DS3505
ZGHA,2008-08-26 04:00,ZGHA 260400Z AUTO 3SM 28/23 A2985 RMK T02800230 IEM_DS3505
ZGHA,2008-08-26 05:00,ZGHA 260500Z AUTO 4SM 28/23 A2985 RMK T02800230 IEM_DS3505
ZGHA,2008-08-26 06:00,ZGHA 260600Z AUTO 3SM 27/23 A2985 RMK T02700230 IEM_DS3505
ZGHA,2008-08-26 07:00,ZGHA 260700Z AUTO 36006KT 2 1/2SM 27/24 A2983 RMK T02700240 IEM_DS3505
ZGHA,2008-08-26 08:00,ZGHA 260800Z AUTO 2 1/2SM 26/24 A2983 RMK T02600240 IEM_DS3505
ZGHA,2008-08-26 09:00,ZGHA 260900Z AUTO 00000KT 2 1/2SM 26/23 A2983 RMK T02600230 IEM_DS3505
ZGHA,2008-08-26 10:00,ZGHA 261000Z AUTO 2 1/2SM 26/23 A2983 RMK T02600230 IEM_DS3505
ZGHA,2008-08-26 11:00,ZGHA 261100Z AUTO 24004KT 2SM 25/23 A2983 RMK T02500230 IEM_DS3505
ZGHA,2008-08-26 12:00,ZGHA 261200Z AUTO 30004KT 2SM 25/23 A2985 RMK T02500230 IEM_DS3505
ZGHA,2008-08-26 13:00,ZGHA 261300Z AUTO 34004KT 2SM 25/23 A2985 RMK T02500230 IEM_DS3505
ZGHA,2008-08-26 14:00,ZGHA 261400Z AUTO 2SM 25/23 A2988 RMK T02500230 IEM_DS3505
ZGHA,2008-08-26 15:00,ZGHA 261500Z AUTO 32006KT 2SM 24/23 A2988 RMK T02400230 IEM_DS3505
ZGHA,2008-08-26 16:00,ZGHA 261600Z AUTO 30006KT 2SM 23/23 A2988 RMK T02300230 IEM_DS3505
ZGHA,2008-08-26 17:00,ZGHA 261700Z AUTO 31006KT 2SM 23/22 A2988 RMK T02300220 IEM_DS3505
ZGHA,2008-08-26 18:00,ZGHA 261800Z AUTO 00000KT 1 1/2SM 23/22 A2985 RMK T02300220 IEM_DS3505
ZGHA,2008-08-26 19:00,ZGHA 261900Z AUTO 1 1/4SM 23/22 A2985 RMK T02300220 IEM_DS3505
ZGHA,2008-08-26 20:00,ZGHA 262000Z AUTO 1 1/4SM 22/22 A2985 RMK T02200220 IEM_DS3505
ZGHA,2008-08-26 21:00,ZGHA 262100Z AUTO 2 1/2SM 22/22 A2985 RMK T02200220 IEM_DS3505
ZGHA,2008-08-26 22:00,ZGHA 262200Z AUTO 33002KT 2 1/2SM 22/22 A2985 RMK T02200220 IEM_DS3505
ZGHA,2008-08-26 23:00,ZGHA 262300Z AUTO 01002KT 2SM 23/22 A2985 RMK T02300220 IEM_DS3505
ZGHA,2008-08-27 00:00,ZGHA 270000Z AUTO 01002KT 2SM 23/23 A2988 RMK T02300230 IEM_DS3505
ZGHA,2008-08-27 01:00,ZGHA 270100Z AUTO 2 1/2SM 24/24 A2988 RMK T02400240 IEM_DS3505
ZGHA,2008-08-27 02:00,ZGHA 270200Z AUTO 33004KT 4SM 26/24 A2988 RMK T02600240 IEM_DS3505
ZGHA,2008-08-27 03:00,ZGHA 270300Z AUTO 5SM 27/23 A2988 RMK T02700230 IEM_DS3505
ZGHA,2008-08-27 04:00,ZGHA 270400Z AUTO 00000KT 5SM 27/22 A2988 RMK T02700220 IEM_DS3505
ZGHA,2008-08-27 05:00,ZGHA 270500Z AUTO 30006KT 4SM 27/23 A2985 RMK T02700230 IEM_DS3505
ZGHA,2008-08-27 06:00,ZGHA 270600Z AUTO 31008KT 2SM 25/24 A2985 RMK T02500240 IEM_DS3505
ZGHA,2008-08-27 07:00,ZGHA 270700Z AUTO 32006KT 2SM 25/24 A2983 RMK T02500240 IEM_DS3505
ZGHA,2008-08-27 08:00,ZGHA 270800Z AUTO 31004KT 1 1/2SM 24/24 A2983 RMK T02400240 IEM_DS3505
ZGHA,2008-08-27 09:00,ZGHA 270900Z AUTO 31004KT 2SM 25/24 A2983 RMK T02500240 IEM_DS3505
ZGHA,2008-08-27 10:00,ZGHA 271000Z AUTO 33004KT 2 1/2SM 24/24 A2983 RMK T02400240 IEM_DS3505
ZGHA,2008-08-27 11:00,ZGHA 271100Z AUTO 33006KT 1 1/2SM 24/24 A2983 RMK T02400240 IEM_DS3505
ZGHA,2008-08-27 12:00,ZGHA 271200Z AUTO 1 1/2SM 23/23 A2985 RMK T02300230 IEM_DS3505
ZGHA,2008-08-27 13:00,ZGHA 271300Z AUTO 1 1/2SM 23/23 A2985 RMK T02300230 IEM_DS3505
ZGHA,2008-08-27 14:00,ZGHA 271400Z AUTO 2SM 23/23 A2988 RMK T02300230 IEM_DS3505
ZGHA,2008-08-27 15:00,ZGHA 271500Z AUTO 34004KT 1 1/4SM 23/23 A2988 RMK T02300230 IEM_DS3505
ZGHA,2008-08-27 16:00,ZGHA 271600Z AUTO 1 1/4SM 23/23 A2985 RMK T02300230 IEM_DS3505
ZGHA,2008-08-27 17:00,ZGHA 271700Z AUTO 00000KT 1 1/4SM 23/23 A2985 RMK T02300230 IEM_DS3505
ZGHA,2008-08-27 18:00,ZGHA 271800Z AUTO 1SM 23/23 A2985 RMK T02300230 IEM_DS3505
ZGHA,2008-08-27 19:00,ZGHA 271900Z AUTO 35004KT 1SM 23/23 A2983 RMK T02300230 IEM_DS3505
ZGHA,2008-08-27 20:00,ZGHA 272000Z AUTO 1SM 23/23 A2983 RMK T02300230 IEM_DS3505
ZGHA,2008-08-27 21:00,ZGHA 272100Z AUTO 00000KT 1 1/4SM 23/23 A2983 RMK T02300230 IEM_DS3505
ZGHA,2008-08-27 22:00,ZGHA 272200Z AUTO 00000KT 1 1/2SM 23/23 A2983 RMK T02300230 IEM_DS3505
ZGHA,2008-08-27 23:00,ZGHA 272300Z AUTO 00000KT 1 1/4SM 23/23 A2983 RMK T02300230 IEM_DS3505
ZGHA,2008-08-28 00:00,ZGHA 280000Z AUTO 1SM 24/23 A2983 RMK T02400230 IEM_DS3505
ZGHA,2008-08-28 01:00,ZGHA 280100Z AUTO 1SM 24/24 A2983 RMK T02400240 IEM_DS3505
ZGHA,2008-08-28 02:00,ZGHA 280200Z AUTO 00000KT 1SM 25/24 A2985 RMK T02500240 IEM_DS3505
ZGHA,2008-08-28 03:00,ZGHA 280300Z AUTO 00000KT 1 1/2SM 25/25 A2983 RMK T02500250 IEM_DS3505
ZGHA,2008-08-28 04:00,ZGHA 280400Z AUTO 2SM 26/26 A2983 RMK T02600260 IEM_DS3505
ZGHA,2008-08-28 05:00,ZGHA 280500Z AUTO 16004KT 3SM 26/26 A2980 RMK T02600260 IEM_DS3505
ZGHA,2008-08-28 06:00,ZGHA 280600Z AUTO 13004KT 4SM 27/26 A2977 RMK T02700260 IEM_DS3505
ZGHA,2008-08-28 07:00,ZGHA 280700Z AUTO 10004KT 4SM 28/26 A2977 RMK T02800260 IEM_DS3505
ZGHA,2008-08-28 08:00,ZGHA 280800Z AUTO 10004KT 4SM 28/26 A2974 RMK T02800260 IEM_DS3505
ZGHA,2008-08-28 09:00,ZGHA 280900Z AUTO 4SM 29/26 A2974 RMK T02900260 IEM_DS3505
ZGHA,2008-08-28 10:00,ZGHA 281000Z AUTO 3SM 28/26 A2974 RMK T02800260 IEM_DS3505
ZGHA,2008-08-28 11:00,ZGHA 281100Z AUTO 3SM 27/25 A2974 RMK T02700250 IEM_DS3505
ZGHA,2008-08-28 12:00,ZGHA 281200Z AUTO 00000KT 2 1/2SM 26/25 A2974 RMK T02600250 IEM_DS3505
ZGHA,2008-08-28 13:00,ZGHA 281300Z AUTO 00000KT 2 1/2SM 26/25 A2974 RMK T02600250 IEM_DS3505
ZGHA,2008-08-28 14:00,ZGHA 281400Z AUTO 00000KT 2SM 25/25 A2974 RMK T02500250 IEM_DS3505
ZGHA,2008-08-28 15:00,ZGHA 281500Z AUTO 00000KT 2SM 25/25 A2974 RMK T02500250 IEM_DS3505
ZGHA,2008-08-28 16:00,ZGHA 281600Z AUTO 00000KT 2SM 25/25 A2974 RMK T02500250 IEM_DS3505
ZGHA,2008-08-28 18:00,ZGHA 281800Z AUTO 2 1/2SM 25/24 A2971 RMK T02500240 IEM_DS3505
ZGHA,2008-08-28 20:00,ZGHA 282000Z AUTO 00000KT 2SM 25/24 A2968 RMK T02500240 IEM_DS3505
ZGHA,2008-08-28 21:00,ZGHA 282100Z AUTO 20002KT 2SM 25/24 A2968 RMK T02500240 IEM_DS3505
ZGHA,2008-08-28 22:00,ZGHA 282200Z AUTO 19006KT 2 1/2SM 25/24 A2968 RMK T02500240 IEM_DS3505
ZGHA,2008-08-28 23:00,ZGHA 282300Z AUTO 19004KT 2 1/2SM 25/24 A2971 RMK T02500240 IEM_DS3505
ZGHA,2008-08-29 00:00,ZGHA 290000Z AUTO 17006KT 3SM 27/25 A2971 RMK T02700250 IEM_DS3505
ZGHA,2008-08-29 01:00,ZGHA 290100Z AUTO 17008KT 5SM 28/25 A2974 RMK T02800250 IEM_DS3505
ZGHA,2008-08-29 02:00,ZGHA 290200Z AUTO 15006KT 6SM 31/26 A2974 RMK T03100260 IEM_DS3505
ZGHA,2008-08-29 03:00,ZGHA 290300Z AUTO 20012KT 6SM 34/26 A2974 RMK T03400260 IEM_DS3505
ZGHA,2008-08-29 04:00,ZGHA 290400Z AUTO 20012KT 6SM 34/25 A2971 RMK T03400250 IEM_DS3505
ZGHA,2008-08-29 05:00,ZGHA 290500Z AUTO 19012KT 7SM 35/25 A2971 RMK T03500250 IEM_DS3505
ZGHA,2008-08-29 06:00,ZGHA 290600Z AUTO 20010KT 7SM 34/25 A2968 RMK T03400250 IEM_DS3505
ZGHA,2008-08-29 07:00,ZGHA 290700Z AUTO 19012KT 7SM 35/25 A2965 RMK T03500250 IEM_DS3505
ZGHA,2008-08-29 08:00,ZGHA 290800Z AUTO 18008KT 7SM 35/25 A2965 RMK T03500250 IEM_DS3505
ZGHA,2008-08-29 09:00,ZGHA 290900Z AUTO 18006KT 6SM 34/25 A2965 RMK T03400250 IEM_DS3505
ZGHA,2008-08-29 10:00,ZGHA 291000Z AUTO 6SM 32/26 A2965 RMK T03200260 IEM_DS3505
ZGHA,2008-08-29 11:00,ZGHA 291100Z AUTO 6SM 31/26 A2965 RMK T03100260 IEM_DS3505
ZGHA,2008-08-29 12:00,ZGHA 291200Z AUTO 6SM 29/26 A2968 RMK T02900260 IEM_DS3505
ZGHA,2008-08-29 13:00,ZGHA 291300Z AUTO 10002KT 6SM 28/25 A2968 RMK T02800250 IEM_DS3505
ZGHA,2008-08-29 14:00,ZGHA 291400Z AUTO 00000KT 6SM 29/26 A2971 RMK T02900260 IEM_DS3505
ZGHA,2008-08-29 15:00,ZGHA 291500Z AUTO 6SM 29/25 A2971 RMK T02900250 IEM_DS3505
ZGHA,2008-08-29 16:00,ZGHA 291600Z AUTO 00000KT 6SM 28/26 A2968 RMK T02800260 IEM_DS3505
ZGHA,2008-08-29 18:00,ZGHA 291800Z AUTO 22004KT 2SM 27/26 A2968 RMK T02700260 IEM_DS3505
ZGHA,2008-08-29 21:00,ZGHA 292100Z AUTO 2 1/2SM 26/26 A2971 RMK T02600260 IEM_DS3505
ZGHA,2008-08-29 22:00,ZGHA 292200Z AUTO 4SM 26/25 A2971 RMK T02600250 IEM_DS3505
ZGHA,2008-08-29 23:00,ZGHA 292300Z AUTO 4SM 27/25 A2971 RMK T02700250 IEM_DS3505
ZGHA,2008-08-30 00:00,ZGHA 300000Z AUTO 18004KT 5SM 28/26 A2974 RMK T02800260 IEM_DS3505
ZGHA,2008-08-30 01:00,ZGHA 300100Z AUTO 20006KT 6SM 29/25 A2974 RMK T02900250 IEM_DS3505
ZGHA,2008-08-30 02:00,ZGHA 300200Z AUTO 20008KT 6SM 31/26 A2977 RMK T03100260 IEM_DS3505
ZGHA,2008-08-30 03:00,ZGHA 300300Z AUTO 31010KT 2 1/2SM 30/26 A2977 RMK T03000260 IEM_DS3505
ZGHA,2008-08-30 04:00,ZGHA 300400Z AUTO 31014KT 3SM 28/25 A2977 RMK T02800250 IEM_DS3505
ZGHA,2008-08-30 05:00,ZGHA 300500Z AUTO 32012KT 3SM 26/24 A2977 RMK T02600240 IEM_DS3505
ZGHA,2008-08-30 06:00,ZGHA 300600Z AUTO 29010KT 3SM 26/24 A2977 RMK T02600240 IEM_DS3505
ZGHA,2008-08-30 07:00,ZGHA 300700Z AUTO 32008KT 5SM 26/24 A2977 RMK T02600240 IEM_DS3505
ZGHA,2008-08-30 08:00,ZGHA 300800Z AUTO 35008KT 7SM 25/23 A2977 RMK T02500230 IEM_DS3505
ZGHA,2008-08-30 09:00,ZGHA 300900Z AUTO 35008KT 7SM 24/22 A2980 RMK T02400220 IEM_DS3505
ZGHA,2008-08-30 10:00,ZGHA 301000Z AUTO 35008KT 7SM 23/22 A2980 RMK T02300220 IEM_DS3505
ZGHA,2008-08-30 11:00,ZGHA 301100Z AUTO 35006KT 5SM 22/21 A2983 RMK T02200210 IEM_DS3505
ZGHA,2008-08-30 12:00,ZGHA 301200Z AUTO 33008KT 3SM 22/22 A2985 RMK T02200220 IEM_DS3505
ZGHA,2008-08-30 13:00,ZGHA 301300Z AUTO 34008KT 2 1/2SM 22/22 A2988 RMK T02200220 IEM_DS3505
ZGHA,2008-08-30 14:00,ZGHA 301400Z AUTO 33010KT 3SM 22/21 A2988 RMK T02200210 IEM_DS3505
ZGHA,2008-08-30 15:00,ZGHA 301500Z AUTO 33012KT 2SM 22/22 A2988 RMK T02200220 IEM_DS3505
ZGHA,2008-08-30 16:00,ZGHA 301600Z AUTO 32010KT 3SM 22/21 A2988 RMK T02200210 IEM_DS3505
ZGHA,2008-08-30 18:00,ZGHA 301800Z AUTO 34008KT 3SM 21/21 A2988 RMK T02100210 IEM_DS3505
ZGHA,2008-08-30 19:00,ZGHA 301900Z AUTO 35004KT 3SM 21/20 A2988 RMK T02100200 IEM_DS3505
ZGHA,2008-08-30 20:00,ZGHA 302000Z AUTO 32006KT 4SM 21/20 A2985 RMK T02100200 IEM_DS3505
ZGHA,2008-08-30 21:00,ZGHA 302100Z AUTO 34008KT 4SM 21/20 A2988 RMK T02100200 IEM_DS3505
ZGHA,2008-08-30 22:00,ZGHA 302200Z AUTO 34006KT 4SM 21/20 A2988 RMK T02100200 IEM_DS3505
ZGHA,2008-08-30 23:00,ZGHA 302300Z AUTO 33006KT 4SM 22/20 A2991 RMK T02200200 IEM_DS3505
ZGHA,2008-08-31 00:00,ZGHA 310000Z AUTO 32006KT 4SM 22/20 A2991 RMK T02200200 IEM_DS3505
ZGHA,2008-08-31 01:00,ZGHA 310100Z AUTO 35004KT 5SM 23/21 A2994 RMK T02300210 IEM_DS3505
ZGHA,2008-08-31 02:00,ZGHA 310200Z AUTO 35006KT 5SM 25/21 A2994 RMK T02500210 IEM_DS3505
ZGHA,2008-08-31 03:00,ZGHA 310300Z AUTO 33006KT 7SM 26/21 A2994 RMK T02600210 IEM_DS3505
ZGHA,2008-08-31 04:00,ZGHA 310400Z AUTO 36006KT 7SM 27/21 A2994 RMK T02700210 IEM_DS3505
ZGHA,2008-08-31 05:00,ZGHA 310500Z AUTO 34006KT 7SM 28/21 A2991 RMK T02800210 IEM_DS3505
ZGHA,2008-08-31 06:00,ZGHA 310600Z AUTO 31006KT 6SM 29/21 A2991 RMK T02900210 IEM_DS3505
ZGHA,2008-08-31 07:00,ZGHA 310700Z AUTO 32008KT 6SM 28/21 A2988 RMK T02800210 IEM_DS3505
ZGHA,2008-08-31 08:00,ZGHA 310800Z AUTO 34006KT 6SM 29/20 A2985 RMK T02900200 IEM_DS3505
ZGHA,2008-08-31 09:00,ZGHA 310900Z AUTO 30008KT 6SM 28/22 A2985 RMK T02800220 IEM_DS3505
ZGHA,2008-08-31 10:00,ZGHA 311000Z AUTO 30004KT 6SM 27/22 A2985 RMK T02700220 IEM_DS3505
ZGHA,2008-08-31 11:00,ZGHA 311100Z AUTO 30006KT 5SM 26/21 A2985 RMK T02600210 IEM_DS3505
ZGHA,2008-08-31 12:00,ZGHA 311200Z AUTO 30004KT 4SM 25/21 A2988 RMK T02500210 IEM_DS3505
ZGHA,2008-08-31 13:00,ZGHA 311300Z AUTO 4SM 25/21 A2991 RMK T02500210 IEM_DS3505
ZGHA,2008-08-31 14:00,ZGHA 311400Z AUTO 4SM 24/22 A2991 RMK T02400220 IEM_DS3505
ZGHA,2008-08-31 15:00,ZGHA 311500Z AUTO 00000KT 4SM 23/22 A2991 RMK T02300220 IEM_DS3505
ZGHA,2008-08-31 16:00,ZGHA 311600Z AUTO 3SM 23/22 A2991 RMK T02300220 IEM_DS3505
ZGHA,2008-08-31 17:00,ZGHA 311700Z AUTO 2 1/2SM 22/21 A2991 RMK T02200210 IEM_DS3505
ZGHA,2008-08-31 18:00,ZGHA 311800Z AUTO 00000KT 1 1/4SM 21/21 A2988 RMK T02100210 IEM_DS3505
ZGHA,2008-08-31 21:00,ZGHA 312100Z AUTO 00000KT 2SM 21/21 A2988 RMK T02100210 IEM_DS3505
ZGHA,2008-08-31 22:00,ZGHA 312200Z AUTO 1 1/2SM 21/21 A2988 RMK T02100210 IEM_DS3505
ZGHA,2008-08-31 23:00,ZGHA 312300Z AUTO 10002KT 1 1/2SM 22/21 A2991 RMK T02200210 IEM_DS3505
ZGHA,2008-09-01 00:00,ZGHA 010000Z AUTO 09002KT 2SM 24/23 A2991 RMK T02400230 IEM_DS3505
ZGHA,2008-09-01 01:00,ZGHA 010100Z AUTO 2 1/2SM 25/23 A2991 RMK T02500230 IEM_DS3505
ZGHA,2008-09-01 02:00,ZGHA 010200Z AUTO 3SM 28/23 A2994 RMK T02800230 IEM_DS3505
ZGHA,2008-09-01 03:00,ZGHA 010300Z AUTO 08004KT 4SM 30/21 A2994 RMK T03000210 IEM_DS3505
ZGHA,2008-09-01 04:00,ZGHA 010400Z AUTO 09004KT 5SM 31/21 A2991 RMK T03100210 IEM_DS3505
ZGHA,2008-09-01 05:00,ZGHA 010500Z AUTO 6SM 31/20 A2991 RMK T03100200 IEM_DS3505
ZGHA,2008-09-01 06:00,ZGHA 010600Z AUTO 7SM 32/20 A2988 RMK T03200200 IEM_DS3505
ZGHA,2008-09-01 07:00,ZGHA 010700Z AUTO 02004KT 7SM 32/16 A2988 RMK T03200160 IEM_DS3505
ZGHA,2008-09-01 08:00,ZGHA 010800Z AUTO 35004KT 7SM 33/20 A2985 RMK T03300200 IEM_DS3505
ZGHA,2008-09-01 09:00,ZGHA 010900Z AUTO 35006KT 6SM 31/19 A2985 RMK T03100190 IEM_DS3505
ZGHA,2008-09-01 10:00,ZGHA 011000Z AUTO 01004KT 6SM 30/19 A2985 RMK T03000190 IEM_DS3505
ZGHA,2008-09-01 11:00,ZGHA 011100Z AUTO 6SM 28/21 A2985 RMK T02800210 IEM_DS3505
ZGHA,2008-09-01 12:00,ZGHA 011200Z AUTO 6SM 26/22 A2985 RMK T02600220 IEM_DS3505
ZGHA,2008-09-01 13:00,ZGHA 011300Z AUTO 36004KT 6SM 26/22 A2988 RMK T02600220 IEM_DS3505
ZGHA,2008-09-01 14:00,ZGHA 011400Z AUTO 6SM 25/21 A2988 RMK T02500210 IEM_DS3505
ZGHA,2008-09-01 15:00,ZGHA 011500Z AUTO 00000KT 6SM 24/21 A2988 RMK T02400210 IEM_DS3505
ZGHA,2008-09-01 16:00,ZGHA 011600Z AUTO 36002KT 4SM 23/21 A2988 RMK T02300210 IEM_DS3505
ZGHA,2008-09-01 18:00,ZGHA 011800Z AUTO 00000KT 2 1/2SM 22/21 A2985 RMK T02200210 IEM_DS3505
ZGHA,2008-09-01 21:00,ZGHA 012100Z AUTO 5SM 22/20 A2988 RMK T02200200 IEM_DS3505
ZGHA,2008-09-01 22:00,ZGHA 012200Z AUTO 08004KT 5SM 21/20 A2988 RMK T02100200 IEM_DS3505
ZGHA,2008-09-01 23:00,ZGHA 012300Z AUTO 05004KT 5SM 21/19 A2988 RMK T02100190 IEM_DS3505
ZGHA,2008-09-02 00:00,ZGHA 020000Z AUTO 6SM 22/20 A2991 RMK T02200200 IEM_DS3505
ZGHA,2008-09-02 01:00,ZGHA 020100Z AUTO 6SM 25/21 A2991 RMK T02500210 IEM_DS3505
ZGHA,2008-09-02 02:00,ZGHA 020200Z AUTO 6SM 29/21 A2991 RMK T02900210 IEM_DS3505
ZGHA,2008-09-02 03:00,ZGHA 020300Z AUTO 16004KT 6SM 30/22 A2991 RMK T03000220 IEM_DS3505
ZGHA,2008-09-02 04:00,ZGHA 020400Z AUTO 00000KT 7SM 32/21 A2988 RMK T03200210 IEM_DS3505
ZGHA,2008-09-02 05:00,ZGHA 020500Z AUTO 04004KT 7SM 33/21 A2988 RMK T03300210 IEM_DS3505
ZGHA,2008-09-02 06:00,ZGHA 020600Z AUTO 07004KT 7SM 34/20 A2985 RMK T03400200 IEM_DS3505
ZGHA,2008-09-02 07:00,ZGHA 020700Z AUTO 34004KT 7SM 33/19 A2983 RMK T03300190 IEM_DS3505
ZGHA,2008-09-02 08:00,ZGHA 020800Z AUTO 6SM 34/19 A2983 RMK T03400190 IEM_DS3505
ZGHA,2008-09-02 09:00,ZGHA 020900Z AUTO 6SM 32/19 A2983 RMK T03200190 IEM_DS3505
ZGHA,2008-09-02 10:00,ZGHA 021000Z AUTO 01004KT 6SM 31/19 A2983 RMK T03100190 IEM_DS3505
ZGHA,2008-09-02 11:00,ZGHA 021100Z AUTO 6SM 28/20 A2983 RMK T02800200 IEM_DS3505
ZGHA,2008-09-02 12:00,ZGHA 021200Z AUTO 6SM 26/21 A2983 RMK T02600210 IEM_DS3505
ZGHA,2008-09-02 13:00,ZGHA 021300Z AUTO 6SM 26/22 A2985 RMK T02600220 IEM_DS3505
ZGHA,2008-09-02 14:00,ZGHA 021400Z AUTO 6SM 25/22 A2985 RMK T02500220 IEM_DS3505
ZGHA,2008-09-02 15:00,ZGHA 021500Z AUTO 00000KT 6SM 25/22 A2985 RMK T02500220 IEM_DS3505
ZGHA,2008-09-02 16:00,ZGHA 021600Z AUTO 4SM 24/22 A2985 RMK T02400220 IEM_DS3505
ZGHA,2008-09-02 17:00,ZGHA 021700Z AUTO 00000KT 4SM 24/22 A2985 RMK T02400220 IEM_DS3505
ZGHA,2008-09-02 21:00,ZGHA 022100Z AUTO 4SM 23/21 A2983 RMK T02300210 IEM_DS3505
ZGHA,2008-09-02 22:00,ZGHA 022200Z AUTO 4SM 23/21 A2983 RMK T02300210 IEM_DS3505
ZGHA,2008-09-02 23:00,ZGHA 022300Z AUTO 4SM 23/22 A2985 RMK T02300220 IEM_DS3505
ZGHA,2008-09-03 00:00,ZGHA 030000Z AUTO 3SM 24/22 A2985 RMK T02400220 IEM_DS3505
ZGHA,2008-09-03 01:00,ZGHA 030100Z AUTO 2 1/2SM 24/22 A2985 RMK T02400220 IEM_DS3505
ZGHA,2008-09-03 02:00,ZGHA 030200Z AUTO 2 1/2SM 26/23 A2985 RMK T02600230 IEM_DS3505
ZGHA,2008-09-03 03:00,ZGHA 030300Z AUTO 00000KT 4SM 27/22 A2985 RMK T02700220 IEM_DS3505
ZGHA,2008-09-03 04:00,ZGHA 030400Z AUTO 14004KT 4SM 29/22 A2983 RMK T02900220 IEM_DS3505
ZGHA,2008-09-03 05:00,ZGHA 030500Z AUTO 00000KT 4SM 29/22 A2983 RMK T02900220 IEM_DS3505
ZGHA,2008-09-03 06:00,ZGHA 030600Z AUTO 01004KT 4SM 30/22 A2980 RMK T03000220 IEM_DS3505
ZGHA,2008-09-03 07:00,ZGHA 030700Z AUTO 34008KT 4SM 28/23 A2980 RMK T02800230 IEM_DS3505
ZGHA,2008-09-03 08:00,ZGHA 030800Z AUTO 36008KT 4SM 28/23 A2980 RMK T02800230 IEM_DS3505
ZGHA,2008-09-03 09:00,ZGHA 030900Z AUTO 36010KT 4SM 27/22 A2980 RMK T02700220 IEM_DS3505
ZGHA,2008-09-03 10:00,ZGHA 031000Z AUTO 01008KT 2 1/2SM 25/22 A2980 RMK T02500220 IEM_DS3505
ZGHA,2008-09-03 11:00,ZGHA 031100Z AUTO 01004KT 2SM 25/22 A2980 RMK T02500220 IEM_DS3505
ZGHA,2008-09-03 12:00,ZGHA 031200Z AUTO 35006KT 2SM 24/22 A2983 RMK T02400220 IEM_DS3505
ZGHA,2008-09-03 13:00,ZGHA 031300Z AUTO 34008KT 2SM 24/22 A2983 RMK T02400220 IEM_DS3505
ZGHA,2008-09-03 14:00,ZGHA 031400Z AUTO 33008KT 1 1/2SM 24/22 A2985 RMK T02400220 IEM_DS3505
ZGHA,2008-09-03 15:00,ZGHA 031500Z AUTO 31006KT 1SM 23/22 A2985 RMK T02300220 IEM_DS3505
ZGHA,2008-09-03 16:00,ZGHA 031600Z AUTO 29006KT 1SM 22/22 A2985 RMK T02200220 IEM_DS3505
ZGHA,2008-09-03 17:00,ZGHA 031700Z AUTO 34006KT 1SM 22/22 A2985 RMK T02200220 IEM_DS3505
ZGHA,2008-09-03 18:00,ZGHA 031800Z AUTO 36006KT 1SM 22/22 A2985 RMK T02200220 IEM_DS3505
ZGHA,2008-09-03 19:00,ZGHA 031900Z AUTO 1SM 22/22 A2983 RMK T02200220 IEM_DS3505
ZGHA,2008-09-03 20:00,ZGHA 032000Z AUTO 32010KT 1 1/2SM 21/21 A2983 RMK T02100210 IEM_DS3505
ZGHA,2008-09-03 21:00,ZGHA 032100Z AUTO 31006KT 2SM 21/21 A2985 RMK T02100210 IEM_DS3505
ZGHA,2008-09-03 22:00,ZGHA 032200Z AUTO 31006KT 1 1/2SM 20/20 A2985 RMK T02000200 IEM_DS3505
ZGHA,2008-09-03 23:00,ZGHA 032300Z AUTO 32006KT 1 1/2SM 20/20 A2985 RMK T02000200 IEM_DS3505
ZGHA,2008-09-04 00:00,ZGHA 040000Z AUTO 30006KT 2SM 20/20 A2985 RMK T02000200 IEM_DS3505
ZGHA,2008-09-04 01:00,ZGHA 040100Z AUTO 30006KT 2SM 20/20 A2988 RMK T02000200 IEM_DS3505
ZGHA,2008-09-04 02:00,ZGHA 040200Z AUTO 30004KT 2 1/2SM 20/ A2988 RMK IEM_DS3505
ZGHA,2008-09-04 03:00,ZGHA 040300Z AUTO 32006KT 1 1/2SM 21/21 A2988 RMK T02100210 IEM_DS3505
ZGHA,2008-09-04 04:00,ZGHA 040400Z AUTO 32006KT 1 1/2SM 21/21 A2988 RMK T02100210 IEM_DS3505
ZGHA,2008-09-04 05:00,ZGHA 040500Z AUTO 34004KT 2SM 21/20 A2985 RMK T02100200 IEM_DS3505
ZGHA,2008-09-04 06:00,ZGHA 040600Z AUTO 31004KT 3SM 21/21 A2985 RMK T02100210 IEM_DS3505
ZGHA,2008-09-04 07:00,ZGHA 040700Z AUTO 35006KT 4SM 20/20 A2985 RMK T02000200 IEM_DS3505
ZGHA,2008-09-04 08:00,ZGHA 040800Z AUTO 34006KT 4SM 21/20 A2983 RMK T02100200 IEM_DS3505
ZGHA,2008-09-04 09:00,ZGHA 040900Z AUTO 35004KT 2SM 21/21 A2983 RMK T02100210 IEM_DS3505
ZGHA,2008-09-04 10:00,ZGHA 041000Z AUTO 1 1/2SM 20/20 A2983 RMK T02000200 IEM_DS3505
ZGHA,2008-09-04 11:00,ZGHA 041100Z AUTO 00000KT 1 1/2SM 20/20 A2985 RMK T02000200 IEM_DS3505
ZGHA,2008-09-04 12:00,ZGHA 041200Z AUTO 1 1/2SM 21/20 A2985 RMK T02100200 IEM_DS3505
ZGHA,2008-09-04 13:00,ZGHA 041300Z AUTO 1 1/2SM 20/20 A2985 RMK T02000200 IEM_DS3505
ZGHA,2008-09-04 14:00,ZGHA 041400Z AUTO 00000KT 1 1/2SM 21/21 A2988 RMK T02100210 IEM_DS3505
ZGHA,2008-09-04 15:00,ZGHA 041500Z AUTO 00000KT 1 1/2SM 21/20 A2988 RMK T02100200 IEM_DS3505
ZGHA,2008-09-04 16:00,ZGHA 041600Z AUTO 1 1/2SM 21/20 A2985 RMK T02100200 IEM_DS3505
ZGHA,2008-09-04 17:00,ZGHA 041700Z AUTO 1 1/2SM 21/20 A2985 RMK T02100200 IEM_DS3505
ZGHA,2008-09-04 18:00,ZGHA 041800Z AUTO 00000KT 1SM 21/20 A2985 RMK T02100200 IEM_DS3505
ZGHA,2008-09-04 19:00,ZGHA 041900Z AUTO 1SM 21/20 A2985 RMK T02100200 IEM_DS3505
ZGHA,2008-09-04 20:00,ZGHA 042000Z AUTO 1SM 21/20 A2985 RMK T02100200 IEM_DS3505
ZGHA,2008-09-04 21:00,ZGHA 042100Z AUTO 2SM 21/21 A2985 RMK T02100210 IEM_DS3505
ZGHA,2008-09-04 22:00,ZGHA 042200Z AUTO 00000KT 1 1/2SM 21/21 A2985 RMK T02100210 IEM_DS3505
ZGHA,2008-09-04 23:00,ZGHA 042300Z AUTO 1 1/2SM 21/21 A2985 RMK T02100210 IEM_DS3505
ZGHA,2008-09-05 00:00,ZGHA 050000Z AUTO 1 1/2SM 21/21 A2988 RMK T02100210 IEM_DS3505
ZGHA,2008-09-05 01:00,ZGHA 050100Z AUTO 36002KT 1SM 21/21 A2991 RMK T02100210 IEM_DS3505
ZGHA,2008-09-05 02:00,ZGHA 050200Z AUTO 1 1/2SM 22/22 A2991 RMK T02200220 IEM_DS3505
ZGHA,2008-09-05 03:00,ZGHA 050300Z AUTO 31004KT 3SM 23/22 A2991 RMK T02300220 IEM_DS3505
ZGHA,2008-09-05 04:00,ZGHA 050400Z AUTO 28004KT 3SM 23/22 A2991 RMK T02300220 IEM_DS3505
ZGHA,2008-09-05 05:00,ZGHA 050500Z AUTO 23004KT 4SM 24/22 A2991 RMK T02400220 IEM_DS3505
ZGHA,2008-09-05 06:00,ZGHA 050600Z AUTO 4SM 24/22 A2988 RMK T02400220 IEM_DS3505
ZGHA,2008-09-05 07:00,ZGHA 050700Z AUTO 36004KT 4SM 25/22 A2988 RMK T02500220 IEM_DS3505
ZGHA,2008-09-05 08:00,ZGHA 050800Z AUTO 4SM 25/22 A2988 RMK T02500220 IEM_DS3505
ZGHA,2008-09-05 09:00,ZGHA 050900Z AUTO 00000KT 3SM 25/23 A2988 RMK T02500230 IEM_DS3505
ZGHA,2008-09-05 10:00,ZGHA 051000Z AUTO 3SM 24/22 A2988 RMK T02400220 IEM_DS3505
ZGHA,2008-09-05 11:00,ZGHA 051100Z AUTO 05002KT 3SM 24/23 A2988 RMK T02400230 IEM_DS3505
ZGHA,2008-09-05 12:00,ZGHA 051200Z AUTO 2SM 23/23 A2991 RMK T02300230 IEM_DS3505
ZGHA,2008-09-05 13:00,ZGHA 051300Z AUTO 00000KT 2SM 23/23 A2991 RMK T02300230 IEM_DS3505
ZGHA,2008-09-05 14:00,ZGHA 051400Z AUTO 00000KT 1 1/2SM 23/23 A2991 RMK T02300230 IEM_DS3505
ZGHA,2008-09-05 15:00,ZGHA 051500Z AUTO 00000KT 1 1/2SM 23/23 A2991 RMK T02300230 IEM_DS3505
ZGHA,2008-09-05 16:00,ZGHA 051600Z AUTO 00000KT 1 1/2SM 23/23 A2991 RMK T02300230 IEM_DS3505
ZGHA,2008-09-05 17:00,ZGHA 051700Z AUTO 00000KT 1 1/2SM 23/23 A2991 RMK T02300230 IEM_DS3505
ZGHA,2008-09-05 18:00,ZGHA 051800Z AUTO 00000KT 1SM 23/23 A2991 RMK T02300230 IEM_DS3505
ZGHA,2008-09-05 19:00,ZGHA 051900Z AUTO 1SM 23/23 A2991 RMK T02300230 IEM_DS3505
ZGHA,2008-09-05 20:00,ZGHA 052000Z AUTO 1SM 23/22 A2991 RMK T02300220 IEM_DS3505
ZGHA,2008-09-05 21:00,ZGHA 052100Z AUTO 36002KT 1 1/2SM 22/22 A2991 RMK T02200220 IEM_DS3505
ZGHA,2008-09-05 22:00,ZGHA 052200Z AUTO 00000KT 1 1/2SM 22/22 A2991 RMK T02200220 IEM_DS3505
ZGHA,2008-09-05 23:00,ZGHA 052300Z AUTO 00000KT 1 1/2SM 23/22 A2994 RMK T02300220 IEM_DS3505
ZGHA,2008-09-06 00:00,ZGHA 060000Z AUTO 00000KT 1 1/2SM 23/23 A2994 RMK T02300230 IEM_DS3505
ZGHA,2008-09-06 01:00,ZGHA 060100Z AUTO 2 1/2SM 25/25 A2994 RMK T02500250 IEM_DS3505
ZGHA,2008-09-06 02:00,ZGHA 060200Z AUTO 4SM 26/24 A2994 RMK T02600240 IEM_DS3505
ZGHA,2008-09-06 03:00,ZGHA 060300Z AUTO 33004KT 4SM 28/24 A2994 RMK T02800240 IEM_DS3505
ZGHA,2008-09-06 04:00,ZGHA 060400Z AUTO 4SM 27/24 A2994 RMK T02700240 IEM_DS3505
ZGHA,2008-09-06 05:00,ZGHA 060500Z AUTO 00000KT 4SM 28/24 A2994 RMK T02800240 IEM_DS3505
ZGHA,2008-09-06 06:00,ZGHA 060600Z AUTO 33004KT 4SM 28/24 A2991 RMK T02800240 IEM_DS3505
ZGHA,2008-09-06 07:00,ZGHA 060700Z AUTO 28004KT 5SM 28/24 A2991 RMK T02800240 IEM_DS3505
ZGHA,2008-09-06 08:00,ZGHA 060800Z AUTO 21006KT 4SM 28/24 A2988 RMK T02800240 IEM_DS3505
ZGHA,2008-09-06 09:00,ZGHA 060900Z AUTO 21008KT 4SM 27/24 A2988 RMK T02700240 IEM_DS3505
ZGHA,2008-09-06 10:00,ZGHA 061000Z AUTO 20004KT 4SM 27/24 A2988 RMK T02700240 IEM_DS3505
ZGHA,2008-09-06 11:00,ZGHA 061100Z AUTO 00000KT 2 1/2SM 26/24 A2991 RMK T02600240 IEM_DS3505
ZGHA,2008-09-06 12:00,ZGHA 061200Z AUTO 00000KT 2 1/2SM 26/24 A2991 RMK T02600240 IEM_DS3505
ZGHA,2008-09-06 13:00,ZGHA 061300Z AUTO 12002KT 2SM 25/24 A2994 RMK T02500240 IEM_DS3505
ZGHA,2008-09-06 14:00,ZGHA 061400Z AUTO 1 1/2SM 25/24 A2997 RMK T02500240 IEM_DS3505
ZGHA,2008-09-06 15:00,ZGHA 061500Z AUTO 00000KT 1 1/2SM 25/24 A2997 RMK T02500240 IEM_DS3505
ZGHA,2008-09-06 16:00,ZGHA 061600Z AUTO 00000KT 1 1/4SM 24/24 A2997 RMK T02400240 IEM_DS3505
ZGHA,2008-09-06 17:00,ZGHA 061700Z AUTO 00000KT 1SM 24/24 A2997 RMK T02400240 IEM_DS3505
ZGHA,2008-09-06 18:00,ZGHA 061800Z AUTO 1/2SM 24/24 A2994 RMK T02400240 IEM_DS3505
ZGHA,2008-09-06 19:00,ZGHA 061900Z AUTO 1/2SM 24/24 A2994 RMK T02400240 IEM_DS3505
ZGHA,2008-09-06 20:00,ZGHA 062000Z AUTO 00000KT 1SM 24/24 A2994 RMK T02400240 IEM_DS3505
ZGHA,2008-09-06 21:00,ZGHA 062100Z AUTO 1SM 23/23 A2994 RMK T02300230 IEM_DS3505
ZGHA,2008-09-06 22:00,ZGHA 062200Z AUTO 10002KT 1SM 23/23 A2994 RMK T02300230 IEM_DS3505
ZGHA,2008-09-06 23:00,ZGHA 062300Z AUTO 00000KT 1SM 24/23 A2997 RMK T02400230 IEM_DS3505
ZGHA,2008-09-07 00:00,ZGHA 070000Z AUTO 34004KT 1 1/2SM 25/25 A2997 RMK T02500250 IEM_DS3505
ZGHA,2008-09-07 01:00,ZGHA 070100Z AUTO 3SM 27/26 A2997 RMK T02700260 IEM_DS3505
ZGHA,2008-09-07 02:00,ZGHA 070200Z AUTO 4SM 29/25 A2997 RMK T02900250 IEM_DS3505
ZGHA,2008-09-07 03:00,ZGHA 070300Z AUTO 4SM 28/25 A2997 RMK T02800250 IEM_DS3505
ZGHA,2008-09-07 04:00,ZGHA 070400Z AUTO 4SM 29/25 A2997 RMK T02900250 IEM_DS3505
ZGHA,2008-09-07 05:00,ZGHA 070500Z AUTO 4SM 30/25 A2994 RMK T03000250 IEM_DS3505
ZGHA,2008-09-07 06:00,ZGHA 070600Z AUTO 5SM 31/24 A2991 RMK T03100240 IEM_DS3505
ZGHA,2008-09-07 07:00,ZGHA 070700Z AUTO 26006KT 5SM 31/25 A2988 RMK T03100250 IEM_DS3505
ZGHA,2008-09-07 08:00,ZGHA 070800Z AUTO 26004KT 5SM 32/24 A2985 RMK T03200240 IEM_DS3505
ZGHA,2008-09-07 09:00,ZGHA 070900Z AUTO 36004KT 7SM 32/24 A2988 RMK T03200240 IEM_DS3505
ZGHA,2008-09-07 10:00,ZGHA 071000Z AUTO 6SM 31/24 A2988 RMK T03100240 IEM_DS3505
ZGHA,2008-09-07 11:00,ZGHA 071100Z AUTO 30004KT 3SM 29/26 A2988 RMK T02900260 IEM_DS3505
ZGHA,2008-09-07 12:00,ZGHA 071200Z AUTO 12006KT 4SM 25/24 A2991 RMK T02500240 IEM_DS3505
ZGHA,2008-09-07 13:00,ZGHA 071300Z AUTO 00000KT 6SM 25/24 A2994 RMK T02500240 IEM_DS3505
ZGHA,2008-09-07 14:00,ZGHA 071400Z AUTO 00000KT 6SM 24/24 A2994 RMK T02400240 IEM_DS3505
ZGHA,2008-09-07 15:00,ZGHA 071500Z AUTO 6SM 25/24 A2994 RMK T02500240 IEM_DS3505
ZGHA,2008-09-07 16:00,ZGHA 071600Z AUTO 00000KT 5SM 25/24 A2994 RMK T02500240 IEM_DS3505
ZGHA,2008-09-07 17:00,ZGHA 071700Z AUTO 00000KT 5SM 24/24 A2994 RMK T02400240 IEM_DS3505
ZGHA,2008-09-07 18:00,ZGHA 071800Z AUTO 00000KT 5SM 24/24 A2994 RMK T02400240 IEM_DS3505
ZGHA,2008-09-07 19:00,ZGHA 071900Z AUTO 00000KT 2SM 24/24 A2991 RMK T02400240 IEM_DS3505
ZGHA,2008-09-07 20:00,ZGHA 072000Z AUTO 00000KT 2 1/2SM 24/24 A2991 RMK T02400240 IEM_DS3505
ZGHA,2008-09-07 21:00,ZGHA 072100Z AUTO 00000KT 3SM 24/23 A2991 RMK T02400230 IEM_DS3505
ZGHA,2008-09-07 22:00,ZGHA 072200Z AUTO 3SM 24/23 A2994 RMK T02400230 IEM_DS3505
ZGHA,2008-09-07 23:00,ZGHA 072300Z AUTO 00000KT 3SM 24/23 A2994 RMK T02400230 IEM_DS3505
ZGHA,2008-09-08 00:00,ZGHA 080000Z AUTO 09002KT 3SM 25/25 A2994 RMK T02500250 IEM_DS3505
ZGHA,2008-09-08 01:00,ZGHA 080100Z AUTO 4SM 28/27 A2994 RMK T02800270 IEM_DS3505
ZGHA,2008-09-08 02:00,ZGHA 080200Z AUTO 4SM 30/26 A2994 RMK T03000260 IEM_DS3505
ZGHA,2008-09-08 03:00,ZGHA 080300Z AUTO 00000KT 4SM 30/26 A2994 RMK T03000260 IEM_DS3505
ZGHA,2008-09-08 04:00,ZGHA 080400Z AUTO 19004KT 4SM 31/26 A2994 RMK T03100260 IEM_DS3505
ZGHA,2008-09-08 05:00,ZGHA 080500Z AUTO 4SM 30/26 A2991 RMK T03000260 IEM_DS3505
ZGHA,2008-09-08 06:00,ZGHA 080600Z AUTO 4SM 33/26 A2988 RMK T03300260 IEM_DS3505
ZGHA,2008-09-08 07:00,ZGHA 080700Z AUTO 19004KT 5SM 34/26 A2985 RMK T03400260 IEM_DS3505
ZGHA,2008-09-08 08:00,ZGHA 080800Z AUTO 00000KT 3SM 28/25 A2985 RMK T02800250 IEM_DS3505
ZGHA,2008-09-08 09:00,ZGHA 080900Z AUTO 35004KT 4SM 27/25 A2985 RMK T02700250 IEM_DS3505
ZGHA,2008-09-08 10:00,ZGHA 081000Z AUTO 4SM 26/24 A2988 RMK T02600240 IEM_DS3505
ZGHA,2008-09-08 11:00,ZGHA 081100Z AUTO 4SM 26/24 A2988 RMK T02600240 IEM_DS3505
ZGHA,2008-09-08 12:00,ZGHA 081200Z AUTO 32006KT 3SM 26/25 A2985 RMK T02600250 IEM_DS3505
ZGHA,2008-09-08 13:00,ZGHA 081300Z AUTO 3SM 25/25 A2988 RMK T02500250 IEM_DS3505
ZGHA,2008-09-08 14:00,ZGHA 081400Z AUTO 03004KT 2 1/2SM 25/25 A2991 RMK T02500250 IEM_DS3505
ZGHA,2008-09-08 15:00,ZGHA 081500Z AUTO 07004KT 4SM 25/24 A2991 RMK T02500240 IEM_DS3505
ZGHA,2008-09-08 16:00,ZGHA 081600Z AUTO 3SM 25/24 A2991 RMK T02500240 IEM_DS3505
ZGHA,2008-09-08 17:00,ZGHA 081700Z AUTO 00000KT 3SM 24/23 A2988 RMK T02400230 IEM_DS3505
ZGHA,2008-09-08 19:00,ZGHA 081900Z AUTO 00000KT 3SM 24/23 A2988 RMK T02400230 IEM_DS3505
ZGHA,2008-09-08 21:00,ZGHA 082100Z AUTO 2SM 23/23 A2988 RMK T02300230 IEM_DS3505
ZGHA,2008-09-08 22:00,ZGHA 082200Z AUTO 2 1/2SM 23/23 A2991 RMK T02300230 IEM_DS3505
ZGHA,2008-09-08 23:00,ZGHA 082300Z AUTO 4SM 24/24 A2991 RMK T02400240 IEM_DS3505
ZGHA,2008-09-09 00:00,ZGHA 090000Z AUTO 4SM 26/25 A2991 RMK T02600250 IEM_DS3505
ZGHA,2008-09-09 01:00,ZGHA 090100Z AUTO 5SM 28/26 A2991 RMK T02800260 IEM_DS3505
ZGHA,2008-09-09 02:00,ZGHA 090200Z AUTO 34004KT 6SM 30/26 A2994 RMK T03000260 IEM_DS3505
ZGHA,2008-09-09 03:00,ZGHA 090300Z AUTO 7SM 31/26 A2991 RMK T03100260 IEM_DS3505
ZGHA,2008-09-09 04:00,ZGHA 090400Z AUTO 25004KT 7SM 32/26 A2988 RMK T03200260 IEM_DS3505
ZGHA,2008-09-09 05:00,ZGHA 090500Z AUTO 25004KT 7SM 32/26 A2988 RMK T03200260 IEM_DS3505
ZGHA,2008-09-09 06:00,ZGHA 090600Z AUTO 13004KT 7SM 33/27 A2985 RMK T03300270 IEM_DS3505
ZGHA,2008-09-09 07:00,ZGHA 090700Z AUTO 7SM 34/27 A2983 RMK T03400270 IEM_DS3505
ZGHA,2008-09-09 08:00,ZGHA 090800Z AUTO 7SM 35/25 A2980 RMK T03500250 IEM_DS3505
ZGHA,2008-09-09 09:00,ZGHA 090900Z AUTO 00000KT 6SM 35/26 A2980 RMK T03500260 IEM_DS3505
ZGHA,2008-09-09 10:00,ZGHA 091000Z AUTO 00000KT 6SM 33/26 A2980 RMK T03300260 IEM_DS3505
ZGHA,2008-09-09 11:00,ZGHA 091100Z AUTO 01004KT 6SM 30/26 A2980 RMK T03000260 IEM_DS3505
ZGHA,2008-09-09 12:00,ZGHA 091200Z AUTO 01004KT 5SM 29/27 A2983 RMK T02900270 IEM_DS3505
ZGHA,2008-09-09 13:00,ZGHA 091300Z AUTO 01004KT 4SM 28/27 A2985 RMK T02800270 IEM_DS3505
ZGHA,2008-09-09 14:00,ZGHA 091400Z AUTO 01004KT 4SM 28/27 A2985 RMK T02800270 IEM_DS3505
ZGHA,2008-09-09 15:00,ZGHA 091500Z AUTO 2 1/2SM 27/26 A2985 RMK T02700260 IEM_DS3505
ZGHA,2008-09-09 16:00,ZGHA 091600Z AUTO 00000KT 2 1/2SM 27/26 A2985 RMK T02700260 IEM_DS3505
ZGHA,2008-09-09 17:00,ZGHA 091700Z AUTO 02002KT 2 1/2SM 26/25 A2985 RMK T02600250 IEM_DS3505
ZGHA,2008-09-09 21:00,ZGHA 092100Z AUTO 1 1/2SM 25/25 A2985 RMK T02500250 IEM_DS3505
ZGHA,2008-09-09 22:00,ZGHA 092200Z AUTO 00000KT 1 1/4SM 25/25 A2985 RMK T02500250 IEM_DS3505
ZGHA,2008-09-09 23:00,ZGHA 092300Z AUTO 00000KT 1SM 25/25 A2988 RMK T02500250 IEM_DS3505
ZGHA,2008-09-10 00:00,ZGHA 100000Z AUTO 35002KT 2SM 27/26 A2991 RMK T02700260 IEM_DS3505
ZGHA,2008-09-10 01:00,ZGHA 100100Z AUTO 3SM 30/27 A2991 RMK T03000270 IEM_DS3505
ZGHA,2008-09-10 02:00,ZGHA 100200Z AUTO 36004KT 4SM 31/27 A2991 RMK T03100270 IEM_DS3505
ZGHA,2008-09-10 03:00,ZGHA 100300Z AUTO 4SM 32/26 A2988 RMK T03200260 IEM_DS3505
ZGHA,2008-09-10 04:00,ZGHA 100400Z AUTO 32006KT 4SM 33/26 A2988 RMK T03300260 IEM_DS3505
ZGHA,2008-09-10 05:00,ZGHA 100500Z AUTO 35006KT 4SM 34/26 A2985 RMK T03400260 IEM_DS3505
ZGHA,2008-09-10 06:00,ZGHA 100600Z AUTO 36006KT 4SM 34/25 A2983 RMK T03400250 IEM_DS3505
ZGHA,2008-09-10 07:00,ZGHA 100700Z AUTO 01006KT 4SM 34/27 A2983 RMK T03400270 IEM_DS3505
ZGHA,2008-09-10 08:00,ZGHA 100800Z AUTO 35008KT 4SM 34/27 A2980 RMK T03400270 IEM_DS3505
ZGHA,2008-09-10 09:00,ZGHA 100900Z AUTO 01008KT 4SM 33/26 A2980 RMK T03300260 IEM_DS3505
ZGHA,2008-09-10 10:00,ZGHA 101000Z AUTO 36008KT 3SM 32/26 A2983 RMK T03200260 IEM_DS3505
ZGHA,2008-09-10 11:00,ZGHA 101100Z AUTO 01006KT 3SM 30/26 A2983 RMK T03000260 IEM_DS3505
ZGHA,2008-09-10 12:00,ZGHA 101200Z AUTO 36012KT 3SM 27/24 A2985 RMK T02700240 IEM_DS3505
ZGHA,2008-09-10 13:00,ZGHA 101300Z AUTO 34010KT 2 1/2SM 26/24 A2991 RMK T02600240 IEM_DS3505
ZGHA,2008-09-10 14:00,ZGHA 101400Z AUTO 36010KT 2SM 25/24 A2991 RMK T02500240 IEM_DS3505
ZGHA,2008-09-10 15:00,ZGHA 101500Z AUTO 35008KT 2SM 25/23 A2991 RMK T02500230 IEM_DS3505
ZGHA,2008-09-10 16:00,ZGHA 101600Z AUTO 34010KT 2 1/2SM 24/23 A2991 RMK T02400230 IEM_DS3505
ZGHA,2008-09-10 17:00,ZGHA 101700Z AUTO 35012KT 2 1/2SM 24/22 A2994 RMK T02400220 IEM_DS3505
ZGHA,2008-09-10 21:00,ZGHA 102100Z AUTO 34008KT 2SM 23/21 A2994 RMK T02300210 IEM_DS3505
ZGHA,2008-09-10 22:00,ZGHA 102200Z AUTO 34008KT 2 1/2SM 22/21 A2994 RMK T02200210 IEM_DS3505
ZGHA,2008-09-10 23:00,ZGHA 102300Z AUTO 35008KT 2 1/2SM 22/20 A2994 RMK T02200200 IEM_DS3505
ZGHA,2008-09-11 00:00,ZGHA 110000Z AUTO 35008KT 2 1/2SM 22/20 A2997 RMK T02200200 IEM_DS3505
ZGHA,2008-09-11 01:00,ZGHA 110100Z AUTO 35010KT 3SM 23/21 A2997 RMK T02300210 IEM_DS3505
ZGHA,2008-09-11 02:00,ZGHA 110200Z AUTO 32008KT 3SM 23/20 A2997 RMK T02300200 IEM_DS3505
ZGHA,2008-09-11 03:00,ZGHA 110300Z AUTO 33008KT 3SM 25/18 A2997 RMK T02500180 IEM_DS3505
ZGHA,2008-09-11 04:00,ZGHA 110400Z AUTO 34006KT 4SM 25/21 A2994 RMK T02500210 IEM_DS3505
ZGHA,2008-09-11 05:00,ZGHA 110500Z AUTO 34004KT 4SM 26/21 A2994 RMK T02600210 IEM_DS3505
ZGHA,2008-09-11 06:00,ZGHA 110600Z AUTO 34006KT 4SM 26/22 A2991 RMK T02600220 IEM_DS3505
ZGHA,2008-09-11 07:00,ZGHA 110700Z AUTO 36006KT 4SM 26/22 A2988 RMK T02600220 IEM_DS3505
ZGHA,2008-09-11 08:00,ZGHA 110800Z AUTO 01004KT 4SM 26/22 A2985 RMK T02600220 IEM_DS3505
ZGHA,2008-09-11 09:00,ZGHA 110900Z AUTO 34008KT 4SM 27/22 A2985 RMK T02700220 IEM_DS3505
ZGHA,2008-09-11 10:00,ZGHA 111000Z AUTO 36004KT 4SM 25/22 A2985 RMK T02500220 IEM_DS3505
ZGHA,2008-09-11 11:00,ZGHA 111100Z AUTO 34004KT 3SM 25/22 A2988 RMK T02500220 IEM_DS3505
ZGHA,2008-09-11 12:00,ZGHA 111200Z AUTO 32006KT 2 1/2SM 24/22 A2988 RMK T02400220 IEM_DS3505
ZGHA,2008-09-11 13:00,ZGHA 111300Z AUTO 33004KT 2 1/2SM 23/22 A2991 RMK T02300220 IEM_DS3505
ZGHA,2008-09-11 14:00,ZGHA 111400Z AUTO 33008KT 2 1/2SM 23/21 A2991 RMK T02300210 IEM_DS3505
ZGHA,2008-09-11 15:00,ZGHA 111500Z AUTO 34006KT 2 1/2SM 24/21 A2991 RMK T02400210 IEM_DS3505
ZGHA,2008-09-11 16:00,ZGHA 111600Z AUTO 33004KT 3SM 23/20 A2988 RMK T02300200 IEM_DS3505
ZGHA,2008-09-11 18:00,ZGHA 111800Z AUTO 3SM 21/20 A2988 RMK T02100200 IEM_DS3505
ZGHA,2008-09-11 19:00,ZGHA 111900Z AUTO 36002KT 2 1/2SM 21/19 A2988 RMK T02100190 IEM_DS3505
ZGHA,2008-09-11 20:00,ZGHA 112000Z AUTO 00000KT 2 1/2SM 21/19 A2985 RMK T02100190 IEM_DS3505
ZGHA,2008-09-11 21:00,ZGHA 112100Z AUTO 2 1/2SM 20/19 A2988 RMK T02000190 IEM_DS3505
ZGHA,2008-09-11 22:00,ZGHA 112200Z AUTO 3SM 20/20 A2988 RMK T02000200 IEM_DS3505
ZGHA,2008-09-11 23:00,ZGHA 112300Z AUTO 3SM 21/20 A2988 RMK T02100200 IEM_DS3505
ZGHA,2008-09-12 00:00,ZGHA 120000Z AUTO 4SM 23/20 A2991 RMK T02300200 IEM_DS3505
ZGHA,2008-09-12 01:00,ZGHA 120100Z AUTO 36006KT 4SM 25/21 A2991 RMK T02500210 IEM_DS3505
ZGHA,2008-09-12 02:00,ZGHA 120200Z AUTO 35004KT 6SM 27/22 A2991 RMK T02700220 IEM_DS3505
ZGHA,2008-09-12 03:00,ZGHA 120300Z AUTO 34008KT 6SM 29/21 A2991 RMK T02900210 IEM_DS3505
ZGHA,2008-09-12 04:00,ZGHA 120400Z AUTO 35006KT 7SM 31/21 A2988 RMK T03100210 IEM_DS3505
ZGHA,2008-09-12 05:00,ZGHA 120500Z AUTO 35008KT 7SM 31/20 A2988 RMK T03100200 IEM_DS3505
ZGHA,2008-09-12 06:00,ZGHA 120600Z AUTO 35008KT 6SM 32/19 A2985 RMK T03200190 IEM_DS3505
ZGHA,2008-09-12 07:00,ZGHA 120700Z AUTO 36008KT 6SM 31/19 A2983 RMK T03100190 IEM_DS3505
ZGHA,2008-09-12 08:00,ZGHA 120800Z AUTO 01004KT 7SM 32/20 A2983 RMK T03200200 IEM_DS3505
ZGHA,2008-09-12 09:00,ZGHA 120900Z AUTO 34006KT 6SM 31/18 A2983 RMK T03100180 IEM_DS3505
ZGHA,2008-09-12 10:00,ZGHA 121000Z AUTO 32008KT 6SM 28/22 A2983 RMK T02800220 IEM_DS3505
ZGHA,2008-09-12 11:00,ZGHA 121100Z AUTO 33008KT 6SM 27/20 A2983 RMK T02700200 IEM_DS3505
ZGHA,2008-09-12 12:00,ZGHA 121200Z AUTO 34006KT 6SM 26/20 A2985 RMK T02600200 IEM_DS3505
ZGHA,2008-09-12 13:00,ZGHA 121300Z AUTO 6SM 24/20 A2988 RMK T02400200 IEM_DS3505
ZGHA,2008-09-12 14:00,ZGHA 121400Z AUTO 00000KT 6SM 23/20 A2988 RMK T02300200 IEM_DS3505
ZGHA,2008-09-12 15:00,ZGHA 121500Z AUTO 33004KT 6SM 23/20 A2985 RMK T02300200 IEM_DS3505
ZGHA,2008-09-12 16:00,ZGHA 121600Z AUTO 6SM 23/20 A2985 RMK T02300200 IEM_DS3505
ZGHA,2008-09-12 17:00,ZGHA 121700Z AUTO 2SM 21/20 A2985 RMK T02100200 IEM_DS3505
ZGHA,2008-09-12 18:00,ZGHA 121800Z AUTO 2SM 21/20 A2985 RMK T02100200 IEM_DS3505
ZGHA,2008-09-12 21:00,ZGHA 122100Z AUTO 01004KT 4SM 20/18 A2985 RMK T02000180 IEM_DS3505
ZGHA,2008-09-12 22:00,ZGHA 122200Z AUTO 36002KT 4SM 20/18 A2988 RMK T02000180 IEM_DS3505
ZGHA,2008-09-12 23:00,ZGHA 122300Z AUTO 00000KT 4SM 20/19 A2988 RMK T02000190 IEM_DS3505
ZGHA,2008-09-13 00:00,ZGHA 130000Z AUTO 5SM 23/20 A2991 RMK T02300200 IEM_DS3505
ZGHA,2008-09-13 01:00,ZGHA 130100Z AUTO 5SM 26/20 A2991 RMK T02600200 IEM_DS3505
ZGHA,2008-09-13 02:00,ZGHA 130200Z AUTO 36004KT 6SM 28/20 A2991 RMK T02800200 IEM_DS3505
ZGHA,2008-09-13 03:00,ZGHA 130300Z AUTO 36004KT 6SM 29/20 A2991 RMK T02900200 IEM_DS3505
ZGHA,2008-09-13 04:00,ZGHA 130400Z AUTO 33004KT 6SM 31/20 A2991 RMK T03100200 IEM_DS3505
ZGHA,2008-09-13 05:00,ZGHA 130500Z AUTO 36008KT 6SM 32/18 A2988 RMK T03200180 IEM_DS3505
ZGHA,2008-09-13 06:00,ZGHA 130600Z AUTO 32010KT 7SM 33/18 A2985 RMK T03300180 IEM_DS3505
ZGHA,2008-09-13 07:00,ZGHA 130700Z AUTO 33010KT 6SM 32/20 A2985 RMK T03200200 IEM_DS3505
ZGHA,2008-09-13 08:00,ZGHA 130800Z AUTO 35010KT 7SM 32/21 A2983 RMK T03200210 IEM_DS3505
ZGHA,2008-09-13 09:00,ZGHA 130900Z AUTO 33010KT 5SM 30/22 A2985 RMK T03000220 IEM_DS3505
ZGHA,2008-09-13 10:00,ZGHA 131000Z AUTO 33010KT 5SM 28/22 A2985 RMK T02800220 IEM_DS3505
ZGHA,2008-09-13 11:00,ZGHA 131100Z AUTO 33006KT 4SM 27/21 A2985 RMK T02700210 IEM_DS3505
ZGHA,2008-09-13 12:00,ZGHA 131200Z AUTO 33008KT 4SM 26/21 A2988 RMK T02600210 IEM_DS3505
ZGHA,2008-09-13 13:00,ZGHA 131300Z AUTO 4SM 25/21 A2991 RMK T02500210 IEM_DS3505
ZGHA,2008-09-13 14:00,ZGHA 131400Z AUTO 3SM 24/22 A2991 RMK T02400220 IEM_DS3505
ZGHA,2008-09-13 15:00,ZGHA 131500Z AUTO 3SM 23/22 A2991 RMK T02300220 IEM_DS3505
ZGHA,2008-09-13 16:00,ZGHA 131600Z AUTO 3SM 23/22 A2991 RMK T02300220 IEM_DS3505
ZGHA,2008-09-13 21:00,ZGHA 132100Z AUTO 2SM 22/21 A2988 RMK T02200210 IEM_DS3505
ZGHA,2008-09-13 22:00,ZGHA 132200Z AUTO 1 1/4SM 21/21 A2988 RMK T02100210 IEM_DS3505
ZGHA,2008-09-13 23:00,ZGHA 132300Z AUTO 1 1/4SM 22/21 A2991 RMK T02200210 IEM_DS3505
ZGHA,2008-09-14 00:00,ZGHA 140000Z AUTO 2SM 24/23 A2991 RMK T02400230 IEM_DS3505
ZGHA,2008-09-14 01:00,ZGHA 140100Z AUTO 32006KT 2 1/2SM 26/23 A2991 RMK T02600230 IEM_DS3505
ZGHA,2008-09-14 02:00,ZGHA 140200Z AUTO 33006KT 3SM 28/23 A2991 RMK T02800230 IEM_DS3505
ZGHA,2008-09-14 03:00,ZGHA 140300Z AUTO 4SM 30/24 A2991 RMK T03000240 IEM_DS3505
ZGHA,2008-09-14 04:00,ZGHA 140400Z AUTO 33004KT 4SM 31/23 A2988 RMK T03100230 IEM_DS3505
ZGHA,2008-09-14 05:00,ZGHA 140500Z AUTO 36008KT 4SM 33/22 A2985 RMK T03300220 IEM_DS3505
ZGHA,2008-09-14 06:00,ZGHA 140600Z AUTO 33010KT 5SM 33/24 A2985 RMK T03300240 IEM_DS3505
ZGHA,2008-09-14 07:00,ZGHA 140700Z AUTO 29014KT 4SM 32/25 A2983 RMK T03200250 IEM_DS3505
ZGHA,2008-09-14 08:00,ZGHA 140800Z AUTO 32012KT 4SM 31/24 A2983 RMK T03100240 IEM_DS3505
ZGHA,2008-09-14 09:00,ZGHA 140900Z AUTO 33012KT 4SM 30/24 A2983 RMK T03000240 IEM_DS3505
ZGHA,2008-09-14 10:00,ZGHA 141000Z AUTO 34008KT 4SM 29/24 A2983 RMK T02900240 IEM_DS3505
ZGHA,2008-09-14 11:00,ZGHA 141100Z AUTO 32008KT 3SM 28/24 A2983 RMK T02800240 IEM_DS3505
ZGHA,2008-09-14 12:00,ZGHA 141200Z AUTO 33008KT 3SM 28/24 A2985 RMK T02800240 IEM_DS3505
ZGHA,2008-09-14 13:00,ZGHA 141300Z AUTO 35006KT 3SM 27/24 A2985 RMK T02700240 IEM_DS3505
ZGHA,2008-09-14 14:00,ZGHA 141400Z AUTO 36004KT 2 1/2SM 27/24 A2988 RMK T02700240 IEM_DS3505
ZGHA,2008-09-14 15:00,ZGHA 141500Z AUTO 36004KT 2 1/2SM 26/24 A2985 RMK T02600240 IEM_DS3505
ZGHA,2008-09-14 16:00,ZGHA 141600Z AUTO 35006KT 2 1/2SM 26/24 A2985 RMK T02600240 IEM_DS3505
ZGHA,2008-09-14 17:00,ZGHA 141700Z AUTO 34004KT 2SM 25/24 A2985 RMK T02500240 IEM_DS3505
ZGHA,2008-09-14 21:00,ZGHA 142100Z AUTO 34004KT 1 1/2SM 24/23 A2985 RMK T02400230 IEM_DS3505
ZGHA,2008-09-14 22:00,ZGHA 142200Z AUTO 32006KT 2SM 24/23 A2985 RMK T02400230 IEM_DS3505
ZGHA,2008-09-14 23:00,ZGHA 142300Z AUTO 34006KT 2SM 24/23 A2985 RMK T02400230 IEM_DS3505
ZGHA,2008-09-15 00:00,ZGHA 150000Z AUTO 34010KT 2 1/2SM 25/24 A2985 RMK T02500240 IEM_DS3505
ZGHA,2008-09-15 01:00,ZGHA 150100Z AUTO 35006KT 2 1/2SM 26/24 A2988 RMK T02600240 IEM_DS3505
ZGHA,2008-09-15 02:00,ZGHA 150200Z AUTO 35006KT 2 1/2SM 27/24 A2988 RMK T02700240 IEM_DS3505
ZGHA,2008-09-15 03:00,ZGHA 150300Z AUTO 02004KT 3SM 29/25 A2988 RMK T02900250 IEM_DS3505
ZGHA,2008-09-15 04:00,ZGHA 150400Z AUTO 34006KT 4SM 30/23 A2985 RMK T03000230 IEM_DS3505
ZGHA,2008-09-15 05:00,ZGHA 150500Z AUTO 35008KT 4SM 31/24 A2983 RMK T03100240 IEM_DS3505
ZGHA,2008-09-15 06:00,ZGHA 150600Z AUTO 32008KT 4SM 32/23 A2980 RMK T03200230 IEM_DS3505
ZGHA,2008-09-15 07:00,ZGHA 150700Z AUTO 32010KT 4SM 31/25 A2980 RMK T03100250 IEM_DS3505
ZGHA,2008-09-15 08:00,ZGHA 150800Z AUTO 31012KT 5SM 30/24 A2977 RMK T03000240 IEM_DS3505
ZGHA,2008-09-15 09:00,ZGHA 150900Z AUTO 33010KT 5SM 30/24 A2977 RMK T03000240 IEM_DS3505
ZGHA,2008-09-15 10:00,ZGHA 151000Z AUTO 32008KT 4SM 28/23 A2977 RMK T02800230 IEM_DS3505
ZGHA,2008-09-15 11:00,ZGHA 151100Z AUTO 33004KT 4SM 27/23 A2980 RMK T02700230 IEM_DS3505
ZGHA,2008-09-15 12:00,ZGHA 151200Z AUTO 33006KT 4SM 27/23 A2980 RMK T02700230 IEM_DS3505
ZGHA,2008-09-15 13:00,ZGHA 151300Z AUTO 33002KT 4SM 26/23 A2983 RMK T02600230 IEM_DS3505
ZGHA,2008-09-15 14:00,ZGHA 151400Z AUTO 08002KT 3SM 25/23 A2983 RMK T02500230 IEM_DS3505
ZGHA,2008-09-15 15:00,ZGHA 151500Z AUTO 35002KT 3SM 24/23 A2983 RMK T02400230 IEM_DS3505
ZGHA,2008-09-15 16:00,ZGHA 151600Z AUTO 32006KT 3SM 24/23 A2983 RMK T02400230 IEM_DS3505
ZGHA,2008-09-15 17:00,ZGHA 151700Z AUTO 2 1/2SM 24/23 A2983 RMK T02400230 IEM_DS3505
ZGHA,2008-09-15 18:00,ZGHA 151800Z AUTO 36002KT 1 1/4SM 23/23 A2980 RMK T02300230 IEM_DS3505
ZGHA,2008-09-15 19:00,ZGHA 151900Z AUTO 1SM 23/23 A2980 RMK T02300230 IEM_DS3505
ZGHA,2008-09-15 21:00,ZGHA 152100Z AUTO 35002KT 2SM 23/23 A2980 RMK T02300230 IEM_DS3505
ZGHA,2008-09-15 22:00,ZGHA 152200Z AUTO 36004KT 2SM 23/22 A2980 RMK T02300220 IEM_DS3505
ZGHA,2008-09-15 23:00,ZGHA 152300Z AUTO 34004KT 1 1/2SM 23/23 A2983 RMK T02300230 IEM_DS3505
ZGHA,2008-09-16 00:00,ZGHA 160000Z AUTO 35004KT 1 1/2SM 25/24 A2983 RMK T02500240 IEM_DS3505
ZGHA,2008-09-16 01:00,ZGHA 160100Z AUTO 2SM 27/25 A2983 RMK T02700250 IEM_DS3505
ZGHA,2008-09-16 02:00,ZGHA 160200Z AUTO 3SM 29/24 A2985 RMK T02900240 IEM_DS3505
ZGHA,2008-09-16 03:00,ZGHA 160300Z AUTO 33004KT 4SM 30/24 A2985 RMK T03000240 IEM_DS3505
ZGHA,2008-09-16 04:00,ZGHA 160400Z AUTO 4SM 31/24 A2983 RMK T03100240 IEM_DS3505
ZGHA,2008-09-16 05:00,ZGHA 160500Z AUTO 4SM 32/22 A2980 RMK T03200220 IEM_DS3505
ZGHA,2008-09-16 06:00,ZGHA 160600Z AUTO 30006KT 4SM 32/24 A2977 RMK T03200240 IEM_DS3505
ZGHA,2008-09-16 07:00,ZGHA 160700Z AUTO 33008KT 4SM 31/24 A2977 RMK T03100240 IEM_DS3505
ZGHA,2008-09-16 08:00,ZGHA 160800Z AUTO 33008KT 4SM 32/23 A2977 RMK T03200230 IEM_DS3505
ZGHA,2008-09-16 09:00,ZGHA 160900Z AUTO 32008KT 4SM 31/23 A2974 RMK T03100230 IEM_DS3505
ZGHA,2008-09-16 10:00,ZGHA 161000Z AUTO 36006KT 3SM 30/23 A2977 RMK T03000230 IEM_DS3505
ZGHA,2008-09-16 11:00,ZGHA 161100Z AUTO 3SM 28/23 A2977 RMK T02800230 IEM_DS3505
ZGHA,2008-09-16 12:00,ZGHA 161200Z AUTO 36004KT 3SM 27/22 A2980 RMK T02700220 IEM_DS3505
ZGHA,2008-09-16 13:00,ZGHA 161300Z AUTO 02004KT 2 1/2SM 26/21 A2983 RMK T02600210 IEM_DS3505
ZGHA,2008-09-16 14:00,ZGHA 161400Z AUTO 2 1/2SM 25/22 A2983 RMK T02500220 IEM_DS3505
ZGHA,2008-09-16 15:00,ZGHA 161500Z AUTO 34002KT 2 1/2SM 25/22 A2983 RMK T02500220 IEM_DS3505
ZGHA,2008-09-16 16:00,ZGHA 161600Z AUTO 2SM 23/22 A2980 RMK T02300220 IEM_DS3505
ZGHA,2008-09-16 18:00,ZGHA 161800Z AUTO 33002KT 1 1/2SM 23/22 A2980 RMK T02300220 IEM_DS3505
ZGHA,2008-09-16 20:00,ZGHA 162000Z AUTO 08002KT 1 1/4SM 22/21 A2980 RMK T02200210 IEM_DS3505
ZGHA,2008-09-16 21:00,ZGHA 162100Z AUTO 2SM 22/22 A2980 RMK T02200220 IEM_DS3505
ZGHA,2008-09-16 22:00,ZGHA 162200Z AUTO 00000KT 1 1/2SM 22/22 A2983 RMK T02200220 IEM_DS3505
ZGHA,2008-09-16 23:00,ZGHA 162300Z AUTO 00000KT 1 1/2SM 22/22 A2985 RMK T02200220 IEM_DS3505
ZGHA,2008-09-17 00:00,ZGHA 170000Z AUTO 2SM 24/23 A2985 RMK T02400230 IEM_DS3505
ZGHA,2008-09-17 01:00,ZGHA 170100Z AUTO 00000KT 2 1/2SM 26/23 A2985 RMK T02600230 IEM_DS3505
ZGHA,2008-09-17 02:00,ZGHA 170200Z AUTO 3SM 29/24 A2988 RMK T02900240 IEM_DS3505
ZGHA,2008-09-17 03:00,ZGHA 170300Z AUTO 4SM 30/24 A2985 RMK T03000240 IEM_DS3505
ZGHA,2008-09-17 04:00,ZGHA 170400Z AUTO 31004KT 4SM 31/24 A2985 RMK T03100240 IEM_DS3505
ZGHA,2008-09-17 05:00,ZGHA 170500Z AUTO 4SM 33/25 A2983 RMK T03300250 IEM_DS3505
ZGHA,2008-09-17 06:00,ZGHA 170600Z AUTO 5SM 33/24 A2980 RMK T03300240 IEM_DS3505
ZGHA,2008-09-17 07:00,ZGHA 170700Z AUTO 34006KT 5SM 34/22 A2980 RMK T03400220 IEM_DS3505
ZGHA,2008-09-17 08:00,ZGHA 170800Z AUTO 6SM 35/23 A2977 RMK T03500230 IEM_DS3505
ZGHA,2008-09-17 09:00,ZGHA 170900Z AUTO 34004KT 6SM 34/23 A2977 RMK T03400230 IEM_DS3505
ZGHA,2008-09-17 10:00,ZGHA 171000Z AUTO 36004KT 6SM 31/24 A2977 RMK T03100240 IEM_DS3505
ZGHA,2008-09-17 11:00,ZGHA 171100Z AUTO 36004KT 6SM 30/23 A2980 RMK T03000230 IEM_DS3505
ZGHA,2008-09-17 12:00,ZGHA 171200Z AUTO 01004KT 3SM 28/24 A2980 RMK T02800240 IEM_DS3505
ZGHA,2008-09-17 13:00,ZGHA 171300Z AUTO 2 1/2SM 27/24 A2983 RMK T02700240 IEM_DS3505
ZGHA,2008-09-17 14:00,ZGHA 171400Z AUTO 00000KT 2 1/2SM 26/24 A2983 RMK T02600240 IEM_DS3505
ZGHA,2008-09-17 15:00,ZGHA 171500Z AUTO 35002KT 2SM 25/23 A2983 RMK T02500230 IEM_DS3505
ZGHA,2008-09-17 16:00,ZGHA 171600Z AUTO 34002KT 2SM 25/23 A2983 RMK T02500230 IEM_DS3505
ZGHA,2008-09-17 18:00,ZGHA 171800Z AUTO 00000KT 1SM 24/23 A2983 RMK T02400230 IEM_DS3505
ZGHA,2008-09-17 19:00,ZGHA 171900Z AUTO 00000KT 1SM 24/23 A2983 RMK T02400230 IEM_DS3505
ZGHA,2008-09-17 21:00,ZGHA 172100Z AUTO 00000KT 1 1/4SM 23/23 A2983 RMK T02300230 IEM_DS3505
ZGHA,2008-09-17 22:00,ZGHA 172200Z AUTO 00000KT 1 1/4SM 24/23 A2983 RMK T02400230 IEM_DS3505
ZGHA,2008-09-17 23:00,ZGHA 172300Z AUTO 00000KT 1 1/4SM 24/23 A2985 RMK T02400230 IEM_DS3505
ZGHA,2008-09-18 00:00,ZGHA 180000Z AUTO 00000KT 1 1/2SM 26/25 A2985 RMK T02600250 IEM_DS3505
ZGHA,2008-09-18 01:00,ZGHA 180100Z AUTO 00000KT 2SM 29/25 A2988 RMK T02900250 IEM_DS3505
ZGHA,2008-09-18 02:00,ZGHA 180200Z AUTO 3SM 31/25 A2988 RMK T03100250 IEM_DS3505
ZGHA,2008-09-18 03:00,ZGHA 180300Z AUTO 00000KT 4SM 31/24 A2985 RMK T03100240 IEM_DS3505
ZGHA,2008-09-18 04:00,ZGHA 180400Z AUTO 5SM 33/25 A2985 RMK T03300250 IEM_DS3505
ZGHA,2008-09-18 05:00,ZGHA 180500Z AUTO 7SM 35/25 A2983 RMK T03500250 IEM_DS3505
ZGHA,2008-09-18 06:00,ZGHA 180600Z AUTO 22004KT 7SM 35/24 A2980 RMK T03500240 IEM_DS3505
ZGHA,2008-09-18 07:00,ZGHA 180700Z AUTO 7SM 35/25 A2977 RMK T03500250 IEM_DS3505
ZGHA,2008-09-18 08:00,ZGHA 180800Z AUTO 7SM 35/24 A2977 RMK T03500240 IEM_DS3505
ZGHA,2008-09-18 09:00,ZGHA 180900Z AUTO 6SM 34/24 A2977 RMK T03400240 IEM_DS3505
ZGHA,2008-09-18 10:00,ZGHA 181000Z AUTO 6SM 33/25 A2977 RMK T03300250 IEM_DS3505
ZGHA,2008-09-18 11:00,ZGHA 181100Z AUTO 4SM 30/25 A2980 RMK T03000250 IEM_DS3505
ZGHA,2008-09-18 12:00,ZGHA 181200Z AUTO 02002KT 4SM 29/25 A2980 RMK T02900250 IEM_DS3505
ZGHA,2008-09-18 13:00,ZGHA 181300Z AUTO 08002KT 4SM 28/25 A2983 RMK T02800250 IEM_DS3505
ZGHA,2008-09-18 14:00,ZGHA 181400Z AUTO 06002KT 3SM 27/25 A2983 RMK T02700250 IEM_DS3505
ZGHA,2008-09-18 15:00,ZGHA 181500Z AUTO 00000KT 3SM 27/25 A2985 RMK T02700250 IEM_DS3505
ZGHA,2008-09-18 16:00,ZGHA 181600Z AUTO 00000KT 3SM 26/25 A2985 RMK T02600250 IEM_DS3505
ZGHA,2008-09-18 17:00,ZGHA 181700Z AUTO 00000KT 3SM 26/25 A2985 RMK T02600250 IEM_DS3505
ZGHA,2008-09-18 18:00,ZGHA 181800Z AUTO 00000KT 1 1/2SM 25/24 A2983 RMK T02500240 IEM_DS3505
ZGHA,2008-09-18 19:00,ZGHA 181900Z AUTO 00000KT 1SM 25/24 A2983 RMK T02500240 IEM_DS3505
ZGHA,2008-09-18 21:00,ZGHA 182100Z AUTO 00000KT 2SM 24/24 A2983 RMK T02400240 IEM_DS3505
ZGHA,2008-09-18 22:00,ZGHA 182200Z AUTO 00000KT 2 1/2SM 24/24 A2983 RMK T02400240 IEM_DS3505
ZGHA,2008-09-18 23:00,ZGHA 182300Z AUTO 00000KT 2 1/2SM 24/24 A2985 RMK T02400240 IEM_DS3505
ZGHA,2008-09-19 00:00,ZGHA 190000Z AUTO 00000KT 3SM 27/25 A2985 RMK T02700250 IEM_DS3505
ZGHA,2008-09-19 01:00,ZGHA 190100Z AUTO 3SM 29/26 A2988 RMK T02900260 IEM_DS3505
ZGHA,2008-09-19 02:00,ZGHA 190200Z AUTO 3SM 32/26 A2985 RMK T03200260 IEM_DS3505
ZGHA,2008-09-19 03:00,ZGHA 190300Z AUTO 15004KT 4SM 33/26 A2985 RMK T03300260 IEM_DS3505
ZGHA,2008-09-19 04:00,ZGHA 190400Z AUTO 19004KT 5SM 35/26 A2985 RMK T03500260 IEM_DS3505
ZGHA,2008-09-19 05:00,ZGHA 190500Z AUTO 5SM 36/26 A2983 RMK T03600260 IEM_DS3505
ZGHA,2008-09-19 06:00,ZGHA 190600Z AUTO 20004KT 5SM 36/26 A2980 RMK T03600260 IEM_DS3505
ZGHA,2008-09-19 07:00,ZGHA 190700Z AUTO 31004KT 5SM 36/26 A2977 RMK T03600260 IEM_DS3505
ZGHA,2008-09-19 08:00,ZGHA 190800Z AUTO 5SM 36/26 A2977 RMK T03600260 IEM_DS3505
ZGHA,2008-09-19 09:00,ZGHA 190900Z AUTO 4SM 36/27 A2977 RMK T03600270 IEM_DS3505
ZGHA,2008-09-19 10:00,ZGHA 191000Z AUTO 00000KT 4SM 34/26 A2977 RMK T03400260 IEM_DS3505
ZGHA,2008-09-19 11:00,ZGHA 191100Z AUTO 00000KT 4SM 32/27 A2980 RMK T03200270 IEM_DS3505
ZGHA,2008-09-19 12:00,ZGHA 191200Z AUTO 00000KT 3SM 30/27 A2983 RMK T03000270 IEM_DS3505
ZGHA,2008-09-19 13:00,ZGHA 191300Z AUTO 00000KT 3SM 30/27 A2983 RMK T03000270 IEM_DS3505
ZGHA,2008-09-19 14:00,ZGHA 191400Z AUTO 00000KT 3SM 30/26 A2985 RMK T03000260 IEM_DS3505
ZGHA,2008-09-19 15:00,ZGHA 191500Z AUTO 17002KT 3SM 29/26 A2985 RMK T02900260 IEM_DS3505
ZGHA,2008-09-19 16:00,ZGHA 191600Z AUTO 00000KT 3SM 28/25 A2985 RMK T02800250 IEM_DS3505
ZGHA,2008-09-19 18:00,ZGHA 191800Z AUTO 00000KT 1 1/2SM 26/25 A2983 RMK T02600250 IEM_DS3505
ZGHA,2008-09-19 19:00,ZGHA 191900Z AUTO 18002KT 1SM 26/25 A2983 RMK T02600250 IEM_DS3505
ZGHA,2008-09-19 20:00,ZGHA 192000Z AUTO 1 1/4SM 26/25 A2983 RMK T02600250 IEM_DS3505
ZGHA,2008-09-19 21:00,ZGHA 192100Z AUTO 00000KT 2SM 26/25 A2983 RMK T02600250 IEM_DS3505
ZGHA,2008-09-19 22:00,ZGHA 192200Z AUTO 00000KT 2SM 26/25 A2985 RMK T02600250 IEM_DS3505
ZGHA,2008-09-19 23:00,ZGHA 192300Z AUTO 00000KT 1 1/4SM 26/25 A2985 RMK T02600250 IEM_DS3505
ZGHA,2008-09-20 00:00,ZGHA 200000Z AUTO 00000KT 2SM 28/27 A2985 RMK T02800270 IEM_DS3505
ZGHA,2008-09-20 01:00,ZGHA 200100Z AUTO 2 1/2SM 30/26 A2985 RMK T03000260 IEM_DS3505
ZGHA,2008-09-20 02:00,ZGHA 200200Z AUTO 3SM 32/26 A2988 RMK T03200260 IEM_DS3505
ZGHA,2008-09-20 03:00,ZGHA 200300Z AUTO 22004KT 4SM 32/25 A2988 RMK T03200250 IEM_DS3505
ZGHA,2008-09-20 04:00,ZGHA 200400Z AUTO 23004KT 4SM 34/25 A2985 RMK T03400250 IEM_DS3505
ZGHA,2008-09-20 05:00,ZGHA 200500Z AUTO 18004KT 4SM 35/25 A2983 RMK T03500250 IEM_DS3505
ZGHA,2008-09-20 06:00,ZGHA 200600Z AUTO 4SM 36/25 A2980 RMK T03600250 IEM_DS3505
ZGHA,2008-09-20 07:00,ZGHA 200700Z AUTO 29006KT 4SM 35/27 A2977 RMK T03500270 IEM_DS3505
ZGHA,2008-09-20 08:00,ZGHA 200800Z AUTO 21006KT 4SM 34/26 A2974 RMK T03400260 IEM_DS3505
ZGHA,2008-09-20 09:00,ZGHA 200900Z AUTO 3SM 35/27 A2974 RMK T03500270 IEM_DS3505
ZGHA,2008-09-20 10:00,ZGHA 201000Z AUTO 2 1/2SM 33/27 A2974 RMK T03300270 IEM_DS3505
ZGHA,2008-09-20 11:00,ZGHA 201100Z AUTO 2SM 31/27 A2974 RMK T03100270 IEM_DS3505
ZGHA,2008-09-20 12:00,ZGHA 201200Z AUTO 2SM 30/27 A2977 RMK T03000270 IEM_DS3505
ZGHA,2008-09-20 13:00,ZGHA 201300Z AUTO 1 1/2SM 29/27 A2977 RMK T02900270 IEM_DS3505
ZGHA,2008-09-20 14:00,ZGHA 201400Z AUTO 1 1/2SM 28/27 A2980 RMK T02800270 IEM_DS3505
ZGHA,2008-09-20 15:00,ZGHA 201500Z AUTO 00000KT 1 1/2SM A2980 RMK IEM_DS3505
ZGHA,2008-09-20 16:00,ZGHA 201600Z AUTO 00000KT 1 1/4SM 28/27 A2977 RMK T02800270 IEM_DS3505
ZGHA,2008-09-20 17:00,ZGHA 201700Z AUTO 08002KT 1 1/4SM 27/27 A2977 RMK T02700270 IEM_DS3505
ZGHA,2008-09-20 21:00,ZGHA 202100Z AUTO 00000KT 1SM 26/25 A2977 RMK T02600250 IEM_DS3505
ZGHA,2008-09-20 22:00,ZGHA 202200Z AUTO 00000KT 1SM 26/25 A2977 RMK T02600250 IEM_DS3505
ZGHA,2008-09-20 23:00,ZGHA 202300Z AUTO 00000KT 1 1/2SM 26/25 A2977 RMK T02600250 IEM_DS3505
ZGHA,2008-09-21 00:00,ZGHA 210000Z AUTO 2SM 27/27 A2980 RMK T02700270 IEM_DS3505
ZGHA,2008-09-21 01:00,ZGHA 210100Z AUTO 00000KT 2 1/2SM 30/27 A2980 RMK T03000270 IEM_DS3505
ZGHA,2008-09-21 02:00,ZGHA 210200Z AUTO 17004KT 4SM 32/27 A2980 RMK T03200270 IEM_DS3505
ZGHA,2008-09-21 03:00,ZGHA 210300Z AUTO 22006KT 5SM 35/26 A2980 RMK T03500260 IEM_DS3505
ZGHA,2008-09-21 04:00,ZGHA 210400Z AUTO 22004KT 6SM 35/25 A2977 RMK T03500250 IEM_DS3505
ZGHA,2008-09-21 05:00,ZGHA 210500Z AUTO 19006KT 7SM 37/26 A2974 RMK T03700260 IEM_DS3505
ZGHA,2008-09-21 06:00,ZGHA 210600Z AUTO 20006KT 7SM 36/25 A2971 RMK T03600250 IEM_DS3505
ZGHA,2008-09-21 07:00,ZGHA 210700Z AUTO 15004KT 4SM 37/24 A2968 RMK T03700240 IEM_DS3505
ZGHA,2008-09-21 08:00,ZGHA 210800Z AUTO 22006KT 5SM 37/24 A2968 RMK T03700240 IEM_DS3505
ZGHA,2008-09-21 09:00,ZGHA 210900Z AUTO 24004KT 5SM 37/24 A2968 RMK T03700240 IEM_DS3505
ZGHA,2008-09-21 10:00,ZGHA 211000Z AUTO 24004KT 4SM 35/25 A2968 RMK T03500250 IEM_DS3505
ZGHA,2008-09-21 11:00,ZGHA 211100Z AUTO 11002KT 3SM 33/26 A2968 RMK T03300260 IEM_DS3505
ZGHA,2008-09-21 12:00,ZGHA 211200Z AUTO 10002KT 3SM 31/27 A2971 RMK T03100270 IEM_DS3505
ZGHA,2008-09-21 13:00,ZGHA 211300Z AUTO 05002KT 3SM 30/27 A2971 RMK T03000270 IEM_DS3505
ZGHA,2008-09-21 14:00,ZGHA 211400Z AUTO 00000KT 3SM 29/27 A2974 RMK T02900270 IEM_DS3505
ZGHA,2008-09-21 15:00,ZGHA 211500Z AUTO 00000KT 2 1/2SM 28/27 A2971 RMK T02800270 IEM_DS3505
ZGHA,2008-09-21 16:00,ZGHA 211600Z AUTO 2 1/2SM 28/26 A2971 RMK T02800260 IEM_DS3505
ZGHA,2008-09-21 17:00,ZGHA 211700Z AUTO 00000KT 1 1/2SM 27/26 A2971 RMK T02700260 IEM_DS3505
ZGHA,2008-09-21 18:00,ZGHA 211800Z AUTO 00000KT 1 1/2SM 27/26 A2971 RMK T02700260 IEM_DS3505
ZGHA,2008-09-21 19:00,ZGHA 211900Z AUTO 00000KT 1 1/2SM 27/26 A2968 RMK T02700260 IEM_DS3505
ZGHA,2008-09-21 21:00,ZGHA 212100Z AUTO 36002KT 2 1/2SM 26/25 A2971 RMK T02600250 IEM_DS3505
ZGHA,2008-09-21 22:00,ZGHA 212200Z AUTO 00000KT 2 1/2SM 26/25 A2971 RMK T02600250 IEM_DS3505
ZGHA,2008-09-21 23:00,ZGHA 212300Z AUTO 00000KT 3SM 26/26 A2974 RMK T02600260 IEM_DS3505
ZGHA,2008-09-22 00:00,ZGHA 220000Z AUTO 3SM 29/27 A2974 RMK T02900270 IEM_DS3505
ZGHA,2008-09-22 01:00,ZGHA 220100Z AUTO 00000KT 4SM 32/27 A2977 RMK T03200270 IEM_DS3505
ZGHA,2008-09-22 02:00,ZGHA 220200Z AUTO 09004KT 4SM 33/27 A2977 RMK T03300270 IEM_DS3505
ZGHA,2008-09-22 03:00,ZGHA 220300Z AUTO 6SM 35/27 A2974 RMK T03500270 IEM_DS3505
ZGHA,2008-09-22 04:00,ZGHA 220400Z AUTO 34004KT 6SM 36/27 A2971 RMK T03600270 IEM_DS3505
ZGHA,2008-09-22 05:00,ZGHA 220500Z AUTO 32004KT 7SM 37/25 A2971 RMK T03700250 IEM_DS3505
ZGHA,2008-09-22 06:00,ZGHA 220600Z AUTO 7SM 37/26 A2968 RMK T03700260 IEM_DS3505
ZGHA,2008-09-22 07:00,ZGHA 220700Z AUTO 32004KT 7SM 39/26 A2965 RMK T03900260 IEM_DS3505
ZGHA,2008-09-22 08:00,ZGHA 220800Z AUTO 6SM 38/26 A2965 RMK T03800260 IEM_DS3505
ZGHA,2008-09-22 09:00,ZGHA 220900Z AUTO 34004KT 6SM 38/25 A2965 RMK T03800250 IEM_DS3505
ZGHA,2008-09-22 10:00,ZGHA 221000Z AUTO 6SM 36/25 A2965 RMK T03600250 IEM_DS3505
ZGHA,2008-09-22 11:00,ZGHA 221100Z AUTO 6SM 33/26 A2965 RMK T03300260 IEM_DS3505
ZGHA,2008-09-22 12:00,ZGHA 221200Z AUTO 36004KT 6SM 32/26 A2968 RMK T03200260 IEM_DS3505
ZGHA,2008-09-22 13:00,ZGHA 221300Z AUTO 6SM 30/27 A2971 RMK T03000270 IEM_DS3505
ZGHA,2008-09-22 14:00,ZGHA 221400Z AUTO 6SM 30/27 A2974 RMK T03000270 IEM_DS3505
ZGHA,2008-09-22 15:00,ZGHA 221500Z AUTO 36002KT 6SM 30/27 A2971 RMK T03000270 IEM_DS3505
ZGHA,2008-09-22 16:00,ZGHA 221600Z AUTO 01004KT 6SM 29/27 A2971 RMK T02900270 IEM_DS3505
ZGHA,2008-09-22 21:00,ZGHA 222100Z AUTO 00000KT 3SM 27/26 A2974 RMK T02700260 IEM_DS3505
ZGHA,2008-09-22 22:00,ZGHA 222200Z AUTO 34004KT 2SM 27/26 A2974 RMK T02700260 IEM_DS3505
ZGHA,2008-09-22 23:00,ZGHA 222300Z AUTO 36004KT 2 1/2SM 27/26 A2974 RMK T02700260 IEM_DS3505
ZGHA,2008-09-23 00:00,ZGHA 230000Z AUTO 2 1/2SM 29/26 A2977 RMK T02900260 IEM_DS3505
ZGHA,2008-09-23 01:00,ZGHA 230100Z AUTO 4SM 31/27 A2977 RMK T03100270 IEM_DS3505
ZGHA,2008-09-23 02:00,ZGHA 230200Z AUTO 36004KT 4SM 33/27 A2977 RMK T03300270 IEM_DS3505
ZGHA,2008-09-23 03:00,ZGHA 230300Z AUTO 36008KT 4SM 35/27 A2977 RMK T03500270 IEM_DS3505
ZGHA,2008-09-23 04:00,ZGHA 230400Z AUTO 02004KT 6SM 37/28 A2974 RMK T03700280 IEM_DS3505
ZGHA,2008-09-23 05:00,ZGHA 230500Z AUTO 02006KT 6SM 38/26 A2971 RMK T03800260 IEM_DS3505
ZGHA,2008-09-23 06:00,ZGHA 230600Z AUTO 03004KT 6SM 39/27 A2968 RMK T03900270 IEM_DS3505
ZGHA,2008-09-23 07:00,ZGHA 230700Z AUTO 04004KT 6SM 38/25 A2968 RMK T03800250 IEM_DS3505
ZGHA,2008-09-23 08:00,ZGHA 230800Z AUTO 35010KT 2 1/2SM 35/28 A2965 RMK T03500280 IEM_DS3505
ZGHA,2008-09-23 09:00,ZGHA 230900Z AUTO 36014KT 2SM 33/27 A2968 RMK T03300270 IEM_DS3505
ZGHA,2008-09-23 10:00,ZGHA 231000Z AUTO 35012KT 2 1/2SM 28/27 A2971 RMK T02800270 IEM_DS3505
ZGHA,2008-09-23 11:00,ZGHA 231100Z AUTO 35006KT 2SM 29/27 A2971 RMK T02900270 IEM_DS3505
ZGHA,2008-09-23 12:00,ZGHA 231200Z AUTO 34006KT 1 1/2SM 28/27 A2974 RMK T02800270 IEM_DS3505
ZGHA,2008-09-23 13:00,ZGHA 231300Z AUTO 35006KT 1 1/2SM 28/27 A2977 RMK T02800270 IEM_DS3505
ZGHA,2008-09-23 14:00,ZGHA 231400Z AUTO 36006KT 1 1/2SM 27/26 A2977 RMK T02700260 IEM_DS3505
ZGHA,2008-09-23 15:00,ZGHA 231500Z AUTO 01006KT 1 1/2SM 27/25 A2977 RMK T02700250 IEM_DS3505
ZGHA,2008-09-23 16:00,ZGHA 231600Z AUTO 36006KT 1 1/2SM 26/25 A2977 RMK T02600250 IEM_DS3505
ZGHA,2008-09-23 18:00,ZGHA 231800Z AUTO 34008KT 1SM 25/25 A2977 RMK T02500250 IEM_DS3505
ZGHA,2008-09-23 19:00,ZGHA 231900Z AUTO 36008KT 1 1/4SM 25/24 A2977 RMK T02500240 IEM_DS3505
ZGHA,2008-09-23 21:00,ZGHA 232100Z AUTO 33008KT 2 1/2SM 24/24 A2977 RMK T02400240 IEM_DS3505
ZGHA,2008-09-23 22:00,ZGHA 232200Z AUTO 35008KT 2 1/2SM 24/23 A2980 RMK T02400230 IEM_DS3505
ZGHA,2008-09-23 23:00,ZGHA 232300Z AUTO 36006KT 2 1/2SM 24/23 A2980 RMK T02400230 IEM_DS3505
ZGHA,2008-09-24 00:00,ZGHA 240000Z AUTO 35008KT 3SM 24/23 A2983 RMK T02400230 IEM_DS3505
ZGHA,2008-09-24 01:00,ZGHA 240100Z AUTO 34008KT 4SM 24/23 A2985 RMK T02400230 IEM_DS3505
ZGHA,2008-09-24 02:00,ZGHA 240200Z AUTO 33008KT 4SM 26/24 A2988 RMK T02600240 IEM_DS3505
ZGHA,2008-09-24 03:00,ZGHA 240300Z AUTO 34010KT 5SM 27/24 A2985 RMK T02700240 IEM_DS3505
ZGHA,2008-09-24 04:00,ZGHA 240400Z AUTO 31010KT 5SM 29/25 A2983 RMK T02900250 IEM_DS3505
ZGHA,2008-09-24 05:00,ZGHA 240500Z AUTO 31010KT 6SM 30/24 A2980 RMK T03000240 IEM_DS3505
ZGHA,2008-09-24 06:00,ZGHA 240600Z AUTO 29012KT 7SM 29/25 A2980 RMK T02900250 IEM_DS3505
ZGHA,2008-09-24 07:00,ZGHA 240700Z AUTO 29014KT 5SM 28/23 A2977 RMK T02800230 IEM_DS3505
ZGHA,2008-09-24 08:00,ZGHA 240800Z AUTO 30016KT 2SM 25/23 A2977 RMK T02500230 IEM_DS3505
ZGHA,2008-09-24 09:00,ZGHA 240900Z AUTO 31010KT 2SM 24/23 A2980 RMK T02400230 IEM_DS3505
ZGHA,2008-09-24 10:00,ZGHA 241000Z AUTO 32014KT 1 1/2SM 22/22 A2983 RMK T02200220 IEM_DS3505
ZGHA,2008-09-24 11:00,ZGHA 241100Z AUTO 32008KT 1 1/2SM 22/21 A2983 RMK T02200210 IEM_DS3505
ZGHA,2008-09-24 12:00,ZGHA 241200Z AUTO 36004KT 1 1/2SM 22/22 A2985 RMK T02200220 IEM_DS3505
ZGHA,2008-09-24 13:00,ZGHA 241300Z AUTO 03006KT 1 1/2SM 22/22 A2988 RMK T02200220 IEM_DS3505
ZGHA,2008-09-24 14:00,ZGHA 241400Z AUTO 33010KT 1 1/2SM 22/22 A2988 RMK T02200220 IEM_DS3505
ZGHA,2008-09-24 15:00,ZGHA 241500Z AUTO 34008KT 1 1/2SM 22/22 A2991 RMK T02200220 IEM_DS3505
ZGHA,2008-09-24 16:00,ZGHA 241600Z AUTO 36004KT 1 1/2SM 22/22 A2991 RMK T02200220 IEM_DS3505
ZGHA,2008-09-24 17:00,ZGHA 241700Z AUTO 36004KT 1 1/2SM 22/22 A2988 RMK T02200220 IEM_DS3505
ZGHA,2008-09-24 18:00,ZGHA 241800Z AUTO 30006KT 1SM 22/21 A2988 RMK T02200210 IEM_DS3505
ZGHA,2008-09-24 19:00,ZGHA 241900Z AUTO 30008KT 1SM 21/21 A2988 RMK T02100210 IEM_DS3505
ZGHA,2008-09-24 20:00,ZGHA 242000Z AUTO 31006KT 1/4SM 21/20 A2985 RMK T02100200 IEM_DS3505
ZGHA,2008-09-24 21:00,ZGHA 242100Z AUTO 29006KT 1SM 20/20 A2988 RMK T02000200 IEM_DS3505
ZGHA,2008-09-24 22:00,ZGHA 242200Z AUTO 30008KT 1SM 20/20 A2988 RMK T02000200 IEM_DS3505
ZGHA,2008-09-24 23:00,ZGHA 242300Z AUTO 30006KT 1SM 20/20 A2991 RMK T02000200 IEM_DS3505
ZGHA,2008-09-25 00:00,ZGHA 250000Z AUTO 30008KT 1SM 20/20 A2994 RMK T02000200 IEM_DS3505
ZGHA,2008-09-25 01:00,ZGHA 250100Z AUTO 30006KT 1SM 20/20 A2994 RMK T02000200 IEM_DS3505
ZGHA,2008-09-25 02:00,ZGHA 250200Z AUTO 29006KT 1SM 21/21 A2994 RMK T02100210 IEM_DS3505
ZGHA,2008-09-25 03:00,ZGHA 250300Z AUTO 30004KT 1 1/2SM 22/22 A2994 RMK T02200220 IEM_DS3505
ZGHA,2008-09-25 04:00,ZGHA 250400Z AUTO 31004KT 2SM 23/23 A2991 RMK T02300230 IEM_DS3505
ZGHA,2008-09-25 05:00,ZGHA 250500Z AUTO 28008KT 2SM 24/23 A2991 RMK T02400230 IEM_DS3505
ZGHA,2008-09-25 06:00,ZGHA 250600Z AUTO 29008KT 2SM 23/22 A2988 RMK T02300220 IEM_DS3505
ZGHA,2008-09-25 07:00,ZGHA 250700Z AUTO 30008KT 2SM 23/22 A2985 RMK T02300220 IEM_DS3505
ZGHA,2008-09-25 08:00,ZGHA 250800Z AUTO 29008KT 2SM 23/22 A2985 RMK T02300220 IEM_DS3505
ZGHA,2008-09-25 09:00,ZGHA 250900Z AUTO 31010KT 2SM 23/22 A2985 RMK T02300220 IEM_DS3505
ZGHA,2008-09-25 10:00,ZGHA 251000Z AUTO 34006KT 2SM 23/22 A2988 RMK T02300220 IEM_DS3505
ZGHA,2008-09-25 11:00,ZGHA 251100Z AUTO 36008KT 2 1/2SM 23/21 A2988 RMK T02300210 IEM_DS3505
ZGHA,2008-09-25 12:00,ZGHA 251200Z AUTO 36006KT 2SM 23/21 A2991 RMK T02300210 IEM_DS3505
ZGHA,2008-09-25 13:00,ZGHA 251300Z AUTO 35006KT 2SM 23/22 A2994 RMK T02300220 IEM_DS3505
ZGHA,2008-09-25 14:00,ZGHA 251400Z AUTO 36010KT 2SM 22/22 A2994 RMK T02200220 IEM_DS3505
ZGHA,2008-09-25 15:00,ZGHA 251500Z AUTO 36006KT 2SM 22/22 A2994 RMK T02200220 IEM_DS3505
ZGHA,2008-09-25 16:00,ZGHA 251600Z AUTO 34006KT 2SM 23/22 A2994 RMK T02300220 IEM_DS3505
ZGHA,2008-09-25 17:00,ZGHA 251700Z AUTO 34008KT 1 1/4SM 23/22 A2994 RMK T02300220 IEM_DS3505
ZGHA,2008-09-25 18:00,ZGHA 251800Z AUTO 35006KT 1 1/4SM 23/22 A2994 RMK T02300220 IEM_DS3505
ZGHA,2008-09-25 19:00,ZGHA 251900Z AUTO 34006KT 1SM 23/22 A2994 RMK T02300220 IEM_DS3505
ZGHA,2008-09-25 20:00,ZGHA 252000Z AUTO 34006KT 1SM 22/22 A2994 RMK T02200220 IEM_DS3505
ZGHA,2008-09-25 21:00,ZGHA 252100Z AUTO 36006KT 1 1/4SM 22/21 A2994 RMK T02200210 IEM_DS3505
ZGHA,2008-09-25 22:00,ZGHA 252200Z AUTO 34008KT 1 1/4SM 21/21 A2994 RMK T02100210 IEM_DS3505
ZGHA,2008-09-25 23:00,ZGHA 252300Z AUTO 36008KT 1 1/4SM 21/20 A2997 RMK T02100200 IEM_DS3505
ZGHA,2008-09-26 00:00,ZGHA 260000Z AUTO 35010KT 1 1/4SM 21/20 A3000 RMK T02100200 IEM_DS3505
ZGHA,2008-09-26 01:00,ZGHA 260100Z AUTO 34010KT 2 1/2SM 20/20 A3000 RMK T02000200 IEM_DS3505
ZGHA,2008-09-26 02:00,ZGHA 260200Z AUTO 34008KT 2 1/2SM 20/20 A3003 RMK T02000200 IEM_DS3505
ZGHA,2008-09-26 03:00,ZGHA 260300Z AUTO 34010KT 2SM 20/19 A3003 RMK T02000190 IEM_DS3505
ZGHA,2008-09-26 04:00,ZGHA 260400Z AUTO 33012KT 2SM 20/19 A3000 RMK T02000190 IEM_DS3505
ZGHA,2008-09-26 05:00,ZGHA 260500Z AUTO 35008KT 1 1/4SM 19/18 A3003 RMK T01900180 IEM_DS3505
ZGHA,2008-09-26 06:00,ZGHA 260600Z AUTO 34008KT 1 1/2SM 19/19 A3000 RMK T01900190 IEM_DS3505
ZGHA,2008-09-26 07:00,ZGHA 260700Z AUTO 33016KT 2 1/2SM 19/19 A3000 RMK T01900190 IEM_DS3505
ZGHA,2008-09-26 08:00,ZGHA 260800Z AUTO 34010KT 2 1/2SM 20/19 A3000 RMK T02000190 IEM_DS3505
ZGHA,2008-09-26 09:00,ZGHA 260900Z AUTO 34012KT 2 1/2SM 19/19 A3000 RMK T01900190 IEM_DS3505
ZGHA,2008-09-26 10:00,ZGHA 261000Z AUTO 34010KT 2 1/2SM 19/18 A3000 RMK T01900180 IEM_DS3505
ZGHA,2008-09-26 11:00,ZGHA 261100Z AUTO 34008KT 2 1/2SM 19/18 A3003 RMK T01900180 IEM_DS3505
ZGHA,2008-09-26 12:00,ZGHA 261200Z AUTO 34010KT 2 1/2SM 19/18 A3003 RMK T01900180 IEM_DS3505
ZGHA,2008-09-26 13:00,ZGHA 261300Z AUTO 34010KT 2 1/2SM 19/18 A3006 RMK T01900180 IEM_DS3505
ZGHA,2008-09-26 14:00,ZGHA 261400Z AUTO 34008KT 3SM 19/18 A3006 RMK T01900180 IEM_DS3505
ZGHA,2008-09-26 15:00,ZGHA 261500Z AUTO 34008KT 3SM 18/18 A3009 RMK T01800180 IEM_DS3505
ZGHA,2008-09-26 16:00,ZGHA 261600Z AUTO 34010KT 2 1/2SM 18/18 A3009 RMK T01800180 IEM_DS3505
ZGHA,2008-09-26 17:00,ZGHA 261700Z AUTO 34008KT 2 1/2SM 18/18 A3009 RMK T01800180 IEM_DS3505
ZGHA,2008-09-26 18:00,ZGHA 261800Z AUTO 34006KT 2SM 18/18 A3009 RMK T01800180 IEM_DS3505
ZGHA,2008-09-26 19:00,ZGHA 261900Z AUTO 35006KT 1 1/2SM 18/18 A3006 RMK T01800180 IEM_DS3505
ZGHA,2008-09-26 20:00,ZGHA 262000Z AUTO 33008KT 2 1/2SM 18/18 A3006 RMK T01800180 IEM_DS3505
ZGHA,2008-09-26 21:00,ZGHA 262100Z AUTO 34008KT 2SM 18/18 A3006 RMK T01800180 IEM_DS3505
ZGHA,2008-09-26 22:00,ZGHA 262200Z AUTO 30008KT 1SM 17/17 A3009 RMK T01700170 IEM_DS3505
ZGHA,2008-09-26 23:00,ZGHA 262300Z AUTO 32006KT 1SM 17/17 A3009 RMK T01700170 IEM_DS3505
ZGHA,2008-09-27 00:00,ZGHA 270000Z AUTO 32008KT 1SM 17/17 A3009 RMK T01700170 IEM_DS3505
ZGHA,2008-09-27 01:00,ZGHA 270100Z AUTO 33006KT 1 1/2SM 18/18 A3009 RMK T01800180 IEM_DS3505
ZGHA,2008-09-27 02:00,ZGHA 270200Z AUTO 34006KT 1 1/2SM 18/18 A3009 RMK T01800180 IEM_DS3505
ZGHA,2008-09-27 03:00,ZGHA 270300Z AUTO 35004KT 2 1/2SM 19/19 A3009 RMK T01900190 IEM_DS3505
ZGHA,2008-09-27 04:00,ZGHA 270400Z AUTO 34006KT 3SM 20/19 A3006 RMK T02000190 IEM_DS3505
ZGHA,2008-09-27 05:00,ZGHA 270500Z AUTO 29006KT 1 1/2SM 19/18 A3006 RMK T01900180 IEM_DS3505
ZGHA,2008-09-27 06:00,ZGHA 270600Z AUTO 30010KT 1 1/2SM 18/18 A3006 RMK T01800180 IEM_DS3505
ZGHA,2008-09-27 07:00,ZGHA 270700Z AUTO 30008KT 1SM 18/18 A3006 RMK T01800180 IEM_DS3505
ZGHA,2008-09-27 08:00,ZGHA 270800Z AUTO 31008KT 1 1/2SM 18/18 A3006 RMK T01800180 IEM_DS3505
ZGHA,2008-09-27 09:00,ZGHA 270900Z AUTO 32006KT 1 1/2SM 18/18 A3006 RMK T01800180 IEM_DS3505
ZGHA,2008-09-27 10:00,ZGHA 271000Z AUTO 31006KT 1 1/2SM 18/18 A3006 RMK T01800180 IEM_DS3505
ZGHA,2008-09-27 11:00,ZGHA 271100Z AUTO 33008KT 1 1/2SM 18/18 A3006 RMK T01800180 IEM_DS3505
ZGHA,2008-09-27 12:00,ZGHA 271200Z AUTO 33008KT 1 1/2SM 18/18 A3009 RMK T01800180 IEM_DS3505
ZGHA,2008-09-27 13:00,ZGHA 271300Z AUTO 34006KT 1 1/2SM 18/18 A3009 RMK T01800180 IEM_DS3505
ZGHA,2008-09-27 14:00,ZGHA 271400Z AUTO 33006KT 1 1/2SM 19/18 A3012 RMK T01900180 IEM_DS3505
ZGHA,2008-09-27 15:00,ZGHA 271500Z AUTO 33008KT 1 1/2SM 18/18 A3009 RMK T01800180 IEM_DS3505
ZGHA,2008-09-27 16:00,ZGHA 271600Z AUTO 34008KT 2SM 18/18 A3009 RMK T01800180 IEM_DS3505
ZGHA,2008-09-27 17:00,ZGHA 271700Z AUTO 33006KT 2SM 18/18 A3009 RMK T01800180 IEM_DS3505
ZGHA,2008-09-27 18:00,ZGHA 271800Z AUTO 34006KT 1SM 18/18 A3006 RMK T01800180 IEM_DS3505
ZGHA,2008-09-27 19:00,ZGHA 271900Z AUTO 34008KT 1 1/2SM 18/17 A3006 RMK T01800170 IEM_DS3505
ZGHA,2008-09-27 20:00,ZGHA 272000Z AUTO 34006KT 1 1/2SM 18/17 A3006 RMK T01800170 IEM_DS3505
ZGHA,2008-09-27 21:00,ZGHA 272100Z AUTO 34006KT 2 1/2SM 18/17 A3006 RMK T01800170 IEM_DS3505
ZGHA,2008-09-27 22:00,ZGHA 272200Z AUTO 34006KT 3SM 18/17 A3006 RMK T01800170 IEM_DS3505
ZGHA,2008-09-27 23:00,ZGHA 272300Z AUTO 34006KT 3SM 17/17 A3006 RMK T01700170 IEM_DS3505
ZGHA,2008-09-28 05:00,ZGHA 280500Z AUTO 34008KT 4SM 20/18 A3006 RMK T02000180 IEM_DS3505
ZGHA,2008-09-28 06:00,ZGHA 280600Z AUTO 34010KT 4SM 20/17 A3003 RMK T02000170 IEM_DS3505
ZGHA,2008-09-28 07:00,ZGHA 280700Z AUTO 35010KT 2 1/2SM 19/17 A3000 RMK T01900170 IEM_DS3505
ZGHA,2008-09-28 08:00,ZGHA 280800Z AUTO 35012KT 1 1/2SM 19/16 A3003 RMK T01900160 IEM_DS3505
ZGHA,2008-09-28 09:00,ZGHA 280900Z AUTO 34012G21KT 1SM 18/16 A3003 RMK T01800160 IEM_DS3505
ZGHA,2008-09-28 10:00,ZGHA 281000Z AUTO 34010KT 1SM 18/16 A3003 RMK T01800160 IEM_DS3505
ZGHA,2008-09-28 11:00,ZGHA 281100Z AUTO 35008KT 1SM 17/16 A3006 RMK T01700160 IEM_DS3505
ZGHA,2008-09-28 12:00,ZGHA 281200Z AUTO 35008KT 1SM 17/16 A3006 RMK T01700160 IEM_DS3505
ZGHA,2008-09-28 13:00,ZGHA 281300Z AUTO 35006KT 1SM 17/16 A3009 RMK T01700160 IEM_DS3505
ZGHA,2008-09-28 14:00,ZGHA 281400Z AUTO 35008KT 1SM 17/16 A3009 RMK T01700160 IEM_DS3505
ZGHA,2008-09-28 15:00,ZGHA 281500Z AUTO 34008KT 1 1/4SM 17/16 A3009 RMK T01700160 IEM_DS3505
ZGHA,2008-09-28 16:00,ZGHA 281600Z AUTO 35008KT 1 1/4SM 17/16 A3009 RMK T01700160 IEM_DS3505
ZGHA,2008-09-28 17:00,ZGHA 281700Z AUTO 34008KT 1 1/2SM 17/15 A3006 RMK T01700150 IEM_DS3505
ZGHA,2008-09-28 18:00,ZGHA 281800Z AUTO 35008KT 1 1/2SM 17/15 A3006 RMK T01700150 IEM_DS3505
ZGHA,2008-09-28 19:00,ZGHA 281900Z AUTO 35008KT 2SM 17/15 A3006 RMK T01700150 IEM_DS3505
ZGHA,2008-09-28 20:00,ZGHA 282000Z AUTO 34008KT 2SM 16/15 A3006 RMK T01600150 IEM_DS3505
ZGHA,2008-09-28 21:00,ZGHA 282100Z AUTO 35006KT 2SM 16/15 A3006 RMK T01600150 IEM_DS3505
ZGHA,2008-09-28 22:00,ZGHA 282200Z AUTO 34006KT 2SM 16/15 A3006 RMK T01600150 IEM_DS3505
ZGHA,2008-09-28 23:00,ZGHA 282300Z AUTO 35006KT 2SM 16/15 A3009 RMK T01600150 IEM_DS3505
ZGHA,2008-09-29 00:00,ZGHA 290000Z AUTO 34008KT 2 1/2SM 16/15 A3009 RMK T01600150 IEM_DS3505
ZGHA,2008-09-29 01:00,ZGHA 290100Z AUTO 35006KT 2 1/2SM 17/15 A3009 RMK T01700150 IEM_DS3505
ZGHA,2008-09-29 02:00,ZGHA 290200Z AUTO 33008KT 3SM 18/16 A3009 RMK T01800160 IEM_DS3505
ZGHA,2008-09-29 03:00,ZGHA 290300Z AUTO 34008KT 3SM 19/16 A3009 RMK T01900160 IEM_DS3505
ZGHA,2008-09-29 04:00,ZGHA 290400Z AUTO 32010KT 3SM 20/16 A3006 RMK T02000160 IEM_DS3505
ZGHA,2008-09-29 05:00,ZGHA 290500Z AUTO 33010KT 4SM 20/17 A3003 RMK T02000170 IEM_DS3505
ZGHA,2008-09-29 06:00,ZGHA 290600Z AUTO 29010KT 4SM 20/17 A3000 RMK T02000170 IEM_DS3505
ZGHA,2008-09-29 07:00,ZGHA 290700Z AUTO 32010KT 4SM 19/16 A3000 RMK T01900160 IEM_DS3505
ZGHA,2008-09-29 08:00,ZGHA 290800Z AUTO 32008KT 4SM 19/17 A3000 RMK T01900170 IEM_DS3505
ZGHA,2008-09-29 09:00,ZGHA 290900Z AUTO 36008KT 3SM 19/16 A3003 RMK T01900160 IEM_DS3505
ZGHA,2008-09-29 10:00,ZGHA 291000Z AUTO 35008KT 3SM 18/16 A3003 RMK T01800160 IEM_DS3505
ZGHA,2008-09-29 11:00,ZGHA 291100Z AUTO 35006KT 3SM 18/16 A3006 RMK T01800160 IEM_DS3505
ZGHA,2008-09-29 12:00,ZGHA 291200Z AUTO 31004KT 2 1/2SM 18/16 A3006 RMK T01800160 IEM_DS3505
ZGHA,2008-09-29 13:00,ZGHA 291300Z AUTO 32006KT 2 1/2SM 18/16 A3009 RMK T01800160 IEM_DS3505
ZGHA,2008-09-29 14:00,ZGHA 291400Z AUTO 34006KT 3SM 18/16 A3009 RMK T01800160 IEM_DS3505
ZGHA,2008-09-29 15:00,ZGHA 291500Z AUTO 34004KT 3SM 18/16 A3009 RMK T01800160 IEM_DS3505
ZGHA,2008-09-29 16:00,ZGHA 291600Z AUTO 33004KT 3SM 18/17 A3009 RMK T01800170 IEM_DS3505
ZGHA,2008-09-29 17:00,ZGHA 291700Z AUTO 34002KT 2 1/2SM 18/17 A3009 RMK T01800170 IEM_DS3505
ZGHA,2008-09-29 18:00,ZGHA 291800Z AUTO 1SM 18/16 A3006 RMK T01800160 IEM_DS3505
ZGHA,2008-09-29 20:00,ZGHA 292000Z AUTO 02004KT 1SM 17/16 A3006 RMK T01700160 IEM_DS3505
ZGHA,2008-09-29 21:00,ZGHA 292100Z AUTO 2 1/2SM 17/16 A3006 RMK T01700160 IEM_DS3505
ZGHA,2008-09-29 22:00,ZGHA 292200Z AUTO 36004KT 2SM 18/16 A3006 RMK T01800160 IEM_DS3505
ZGHA,2008-09-29 23:00,ZGHA 292300Z AUTO 35004KT 1 1/2SM 18/17 A3009 RMK T01800170 IEM_DS3505
ZGHA,2008-09-30 00:00,ZGHA 300000Z AUTO 35004KT 1 1/2SM 18/17 A3009 RMK T01800170 IEM_DS3505
ZGHA,2008-09-30 01:00,ZGHA 300100Z AUTO 33006KT 1 1/2SM 19/17 A3012 RMK T01900170 IEM_DS3505
ZGHA,2008-09-30 02:00,ZGHA 300200Z AUTO 30004KT 1 1/2SM 19/17 A3012 RMK T01900170 IEM_DS3505
ZGHA,2008-09-30 03:00,ZGHA 300300Z AUTO 30004KT 2SM 20/17 A3012 RMK T02000170 IEM_DS3505
ZGHA,2008-09-30 04:00,ZGHA 300400Z AUTO 33004KT 3SM 21/17 A3009 RMK T02100170 IEM_DS3505
ZGHA,2008-09-30 05:00,ZGHA 300500Z AUTO 33004KT 3SM 22/18 A3009 RMK T02200180 IEM_DS3505
ZGHA,2008-09-30 06:00,ZGHA 300600Z AUTO 4SM 23/19 A3006 RMK T02300190 IEM_DS3505
ZGHA,2008-09-30 07:00,ZGHA 300700Z AUTO 34006KT 4SM 24/18 A3006 RMK T02400180 IEM_DS3505
ZGHA,2008-09-30 08:00,ZGHA 300800Z AUTO 4SM 24/18 A3006 RMK T02400180 IEM_DS3505
ZGHA,2008-09-30 09:00,ZGHA 300900Z AUTO 33006KT 4SM 23/18 A3006 RMK T02300180 IEM_DS3505
ZGHA,2008-09-30 10:00,ZGHA 301000Z AUTO 34004KT 3SM 22/18 A3006 RMK T02200180 IEM_DS3505
ZGHA,2008-09-30 11:00,ZGHA 301100Z AUTO 3SM 21/18 A3009 RMK T02100180 IEM_DS3505
ZGHA,2008-09-30 12:00,ZGHA 301200Z AUTO 00000KT 2 1/2SM 21/18 A3009 RMK T02100180 IEM_DS3505
ZGHA,2008-09-30 13:00,ZGHA 301300Z AUTO 00000KT 2 1/2SM 21/18 A3009 RMK T02100180 IEM_DS3505
ZGHA,2008-09-30 14:00,ZGHA 301400Z AUTO 36002KT 2 1/2SM 20/18 A3012 RMK T02000180 IEM_DS3505
ZGHA,2008-09-30 15:00,ZGHA 301500Z AUTO 00000KT 2SM 19/18 A3012 RMK T01900180 IEM_DS3505
ZGHA,2008-09-30 16:00,ZGHA 301600Z AUTO 1 1/2SM 19/18 A3012 RMK T01900180 IEM_DS3505
ZGHA,2008-09-30 17:00,ZGHA 301700Z AUTO 00000KT 1 1/4SM 19/18 A3009 RMK T01900180 IEM_DS3505
ZGHA,2008-09-30 18:00,ZGHA 301800Z AUTO 00000KT 1 1/4SM 19/18 A3009 RMK T01900180 IEM_DS3505
ZGHA,2008-09-30 19:00,ZGHA 301900Z AUTO 00000KT 1 1/4SM 19/18 A3009 RMK T01900180 IEM_DS3505
ZGHA,2008-09-30 20:00,ZGHA 302000Z AUTO 00000KT 1SM 19/18 A3009 RMK T01900180 IEM_DS3505
ZGHA,2008-09-30 21:00,ZGHA 302100Z AUTO 1 1/4SM 19/18 A3009 RMK T01900180 IEM_DS3505
ZGHA,2008-09-30 22:00,ZGHA 302200Z AUTO 00000KT 1SM 18/18 A3009 RMK T01800180 IEM_DS3505
ZGHA,2008-09-30 23:00,ZGHA 302300Z AUTO 00000KT 1SM 18/18 A3009 RMK T01800180 IEM_DS3505
ZGHA,2008-10-01 00:00,ZGHA 010000Z AUTO 35002KT 1 1/2SM 19/19 A3012 RMK T01900190 IEM_DS3505
ZGHA,2008-10-01 01:00,ZGHA 010100Z AUTO 34004KT 2 1/2SM 22/19 A3012 RMK T02200190 IEM_DS3505
ZGHA,2008-10-01 02:00,ZGHA 010200Z AUTO 2 1/2SM 23/18 A3012 RMK T02300180 IEM_DS3505
ZGHA,2008-10-01 03:00,ZGHA 010300Z AUTO 00000KT 4SM 25/19 A3012 RMK T02500190 IEM_DS3505
ZGHA,2008-10-01 04:00,ZGHA 010400Z AUTO 00000KT 7SM 26/19 A3009 RMK T02600190 IEM_DS3505
ZGHA,2008-10-01 05:00,ZGHA 010500Z AUTO 7SM 26/18 A3006 RMK T02600180 IEM_DS3505
ZGHA,2008-10-01 06:00,ZGHA 010600Z AUTO 29006KT 7SM 28/19 A3003 RMK T02800190 IEM_DS3505
ZGHA,2008-10-01 07:00,ZGHA 010700Z AUTO 35004KT 7SM 26/19 A3000 RMK T02600190 IEM_DS3505
ZGHA,2008-10-01 08:00,ZGHA 010800Z AUTO 36006KT 7SM 27/19 A3000 RMK T02700190 IEM_DS3505
ZGHA,2008-10-01 09:00,ZGHA 010900Z AUTO 36004KT 6SM 27/19 A3000 RMK T02700190 IEM_DS3505
ZGHA,2008-10-01 10:00,ZGHA 011000Z AUTO 6SM 25/19 A3000 RMK T02500190 IEM_DS3505
ZGHA,2008-10-01 11:00,ZGHA 011100Z AUTO 00000KT 6SM 24/19 A3000 RMK T02400190 IEM_DS3505
ZGHA,2008-10-01 12:00,ZGHA 011200Z AUTO 34004KT 6SM 23/19 A3003 RMK T02300190 IEM_DS3505
ZGHA,2008-10-01 13:00,ZGHA 011300Z AUTO 4SM 22/19 A3003 RMK T02200190 IEM_DS3505
ZGHA,2008-10-01 14:00,ZGHA 011400Z AUTO 00000KT 4SM 20/19 A3003 RMK T02000190 IEM_DS3505
ZGHA,2008-10-01 15:00,ZGHA 011500Z AUTO 00000KT 3SM 20/19 A3003 RMK T02000190 IEM_DS3505
ZGHA,2008-10-01 16:00,ZGHA 011600Z AUTO 36002KT 3SM 20/19 A3003 RMK T02000190 IEM_DS3505
ZGHA,2008-10-01 17:00,ZGHA 011700Z AUTO 2 1/2SM 19/18 A3003 RMK T01900180 IEM_DS3505
ZGHA,2008-10-01 18:00,ZGHA 011800Z AUTO 00000KT 1SM 19/18 A3000 RMK T01900180 IEM_DS3505
ZGHA,2008-10-01 19:00,ZGHA 011900Z AUTO 1SM 19/18 A3000 RMK T01900180 IEM_DS3505
ZGHA,2008-10-01 21:00,ZGHA 012100Z AUTO 00000KT 2SM 19/18 A3000 RMK T01900180 IEM_DS3505
ZGHA,2008-10-01 22:00,ZGHA 012200Z AUTO 00000KT 1 1/4SM 18/18 A3003 RMK T01800180 IEM_DS3505
ZGHA,2008-10-01 23:00,ZGHA 012300Z AUTO 34002KT 2SM 19/18 A3003 RMK T01900180 IEM_DS3505
ZGHA,2008-10-02 00:00,ZGHA 020000Z AUTO 1 1/2SM 21/20 A3003 RMK T02100200 IEM_DS3505
ZGHA,2008-10-02 01:00,ZGHA 020100Z AUTO 00000KT 2 1/2SM 22/20 A3003 RMK T02200200 IEM_DS3505
ZGHA,2008-10-02 02:00,ZGHA 020200Z AUTO 00000KT 4SM 24/20 A3003 RMK T02400200 IEM_DS3505
ZGHA,2008-10-02 03:00,ZGHA 020300Z AUTO 5SM 27/21 A3003 RMK T02700210 IEM_DS3505
ZGHA,2008-10-02 04:00,ZGHA 020400Z AUTO 7SM 27/20 A3000 RMK T02700200 IEM_DS3505
ZGHA,2008-10-02 05:00,ZGHA 020500Z AUTO 7SM 28/19 A2997 RMK T02800190 IEM_DS3505
ZGHA,2008-10-02 06:00,ZGHA 020600Z AUTO 10002KT 7SM 28/20 A2997 RMK T02800200 IEM_DS3505
ZGHA,2008-10-02 07:00,ZGHA 020700Z AUTO 00000KT 7SM 28/20 A2994 RMK T02800200 IEM_DS3505
ZGHA,2008-10-02 08:00,ZGHA 020800Z AUTO 00000KT 7SM 28/19 A2994 RMK T02800190 IEM_DS3505
ZGHA,2008-10-02 09:00,ZGHA 020900Z AUTO 00000KT 7SM 28/20 A2994 RMK T02800200 IEM_DS3505
ZGHA,2008-10-02 10:00,ZGHA 021000Z AUTO 02002KT 4SM 26/21 A2994 RMK T02600210 IEM_DS3505
ZGHA,2008-10-02 11:00,ZGHA 021100Z AUTO 4SM 25/21 A2997 RMK T02500210 IEM_DS3505
ZGHA,2008-10-02 12:00,ZGHA 021200Z AUTO 4SM 24/22 A2997 RMK T02400220 IEM_DS3505
ZGHA,2008-10-02 13:00,ZGHA 021300Z AUTO 2 1/2SM 24/21 A2997 RMK T02400210 IEM_DS3505
ZGHA,2008-10-02 14:00,ZGHA 021400Z AUTO 01004KT 2 1/2SM 23/21 A2997 RMK T02300210 IEM_DS3505
ZGHA,2008-10-02 15:00,ZGHA 021500Z AUTO 03002KT 2SM 21/20 A2997 RMK T02100200 IEM_DS3505
ZGHA,2008-10-02 16:00,ZGHA 021600Z AUTO 00000KT 2SM 21/20 A2997 RMK T02100200 IEM_DS3505
ZGHA,2008-10-02 18:00,ZGHA 021800Z AUTO 00000KT 1/2SM 20/20 A2997 RMK T02000200 IEM_DS3505
ZGHA,2008-10-02 21:00,ZGHA 022100Z AUTO 00000KT 1 1/4SM 19/19 A2994 RMK T01900190 IEM_DS3505
ZGHA,2008-10-02 22:00,ZGHA 022200Z AUTO 1SM 19/19 A2997 RMK T01900190 IEM_DS3505
ZGHA,2008-10-02 23:00,ZGHA 022300Z AUTO 2SM 19/19 A2997 RMK T01900190 IEM_DS3505
ZGHA,2008-10-03 00:00,ZGHA 030000Z AUTO 2 1/2SM 21/21 A2997 RMK T02100210 IEM_DS3505
ZGHA,2008-10-03 01:00,ZGHA 030100Z AUTO 3SM 25/22 A3000 RMK T02500220 IEM_DS3505
ZGHA,2008-10-03 02:00,ZGHA 030200Z AUTO 3SM 25/21 A3000 RMK T02500210 IEM_DS3505
ZGHA,2008-10-03 03:00,ZGHA 030300Z AUTO 3SM 27/22 A2997 RMK T02700220 IEM_DS3505
ZGHA,2008-10-03 04:00,ZGHA 030400Z AUTO 22002KT 4SM 28/22 A2994 RMK T02800220 IEM_DS3505
ZGHA,2008-10-03 05:00,ZGHA 030500Z AUTO 00000KT 4SM 29/20 A2991 RMK T02900200 IEM_DS3505
ZGHA,2008-10-03 06:00,ZGHA 030600Z AUTO 10004KT 4SM 31/22 A2988 RMK T03100220 IEM_DS3505
ZGHA,2008-10-03 07:00,ZGHA 030700Z AUTO 4SM 30/19 A2988 RMK T03000190 IEM_DS3505
ZGHA,2008-10-03 08:00,ZGHA 030800Z AUTO 00000KT 4SM 29/19 A2988 RMK T02900190 IEM_DS3505
ZGHA,2008-10-03 09:00,ZGHA 030900Z AUTO 35006KT 4SM 28/21 A2988 RMK T02800210 IEM_DS3505
ZGHA,2008-10-03 10:00,ZGHA 031000Z AUTO 36004KT 3SM 26/22 A2988 RMK T02600220 IEM_DS3505
ZGHA,2008-10-03 11:00,ZGHA 031100Z AUTO 01006KT 2SM 25/21 A2991 RMK T02500210 IEM_DS3505
ZGHA,2008-10-03 12:00,ZGHA 031200Z AUTO 2SM 24/21 A2991 RMK T02400210 IEM_DS3505
ZGHA,2008-10-03 13:00,ZGHA 031300Z AUTO 00000KT 2 1/2SM 24/21 A2991 RMK T02400210 IEM_DS3505
ZGHA,2008-10-03 14:00,ZGHA 031400Z AUTO 1 1/2SM 23/21 A2991 RMK T02300210 IEM_DS3505
ZGHA,2008-10-03 15:00,ZGHA 031500Z AUTO 32006KT 1 1/2SM 23/21 A2991 RMK T02300210 IEM_DS3505
ZGHA,2008-10-03 16:00,ZGHA 031600Z AUTO 32004KT 1 1/2SM 22/20 A2991 RMK T02200200 IEM_DS3505
ZGHA,2008-10-03 17:00,ZGHA 031700Z AUTO 33004KT 2SM 22/20 A2991 RMK T02200200 IEM_DS3505
ZGHA,2008-10-03 18:00,ZGHA 031800Z AUTO 33006KT 1SM 22/20 A2988 RMK T02200200 IEM_DS3505
ZGHA,2008-10-03 19:00,ZGHA 031900Z AUTO 00000KT 1SM 21/20 A2988 RMK T02100200 IEM_DS3505
ZGHA,2008-10-03 20:00,ZGHA 032000Z AUTO 32006KT 1SM 21/20 A2988 RMK T02100200 IEM_DS3505
ZGHA,2008-10-03 21:00,ZGHA 032100Z AUTO 30004KT 1SM 21/20 A2988 RMK T02100200 IEM_DS3505
ZGHA,2008-10-03 22:00,ZGHA 032200Z AUTO 30006KT 1SM 21/20 A2988 RMK T02100200 IEM_DS3505
ZGHA,2008-10-03 23:00,ZGHA 032300Z AUTO 30006KT 1SM 21/20 A2991 RMK T02100200 IEM_DS3505
ZGHA,2008-10-04 00:00,ZGHA 040000Z AUTO 30006KT 1 1/4SM 22/20 A2991 RMK T02200200 IEM_DS3505
ZGHA,2008-10-04 01:00,ZGHA 040100Z AUTO 31008KT 1 1/4SM 22/21 A2994 RMK T02200210 IEM_DS3505
ZGHA,2008-10-04 02:00,ZGHA 040200Z AUTO 30006KT 1 1/4SM 22/20 A2994 RMK T02200200 IEM_DS3505
ZGHA,2008-10-04 03:00,ZGHA 040300Z AUTO 32008KT 1 1/2SM 23/21 A2994 RMK T02300210 IEM_DS3505
ZGHA,2008-10-04 04:00,ZGHA 040400Z AUTO 30008KT 2SM 24/20 A2991 RMK T02400200 IEM_DS3505
ZGHA,2008-10-04 05:00,ZGHA 040500Z AUTO 30014KT 3SM 23/20 A2991 RMK T02300200 IEM_DS3505
ZGHA,2008-10-04 06:00,ZGHA 040600Z AUTO 30012KT 4SM 21/19 A2988 RMK T02100190 IEM_DS3505
ZGHA,2008-10-04 07:00,ZGHA 040700Z AUTO 30010KT 5SM 20/19 A2988 RMK T02000190 IEM_DS3505
ZGHA,2008-10-04 08:00,ZGHA 040800Z AUTO 31010KT 5SM 20/19 A2988 RMK T02000190 IEM_DS3505
ZGHA,2008-10-04 09:00,ZGHA 040900Z AUTO 35008KT 7SM 20/19 A2991 RMK T02000190 IEM_DS3505
ZGHA,2008-10-04 10:00,ZGHA 041000Z AUTO 34008KT 5SM 20/18 A2991 RMK T02000180 IEM_DS3505
ZGHA,2008-10-04 11:00,ZGHA 041100Z AUTO 35006KT 4SM 20/18 A2994 RMK T02000180 IEM_DS3505
ZGHA,2008-10-04 12:00,ZGHA 041200Z AUTO 34008KT 3SM 20/18 A2994 RMK T02000180 IEM_DS3505
ZGHA,2008-10-04 13:00,ZGHA 041300Z AUTO 34008KT 2 1/2SM 20/18 A2997 RMK T02000180 IEM_DS3505
ZGHA,2008-10-04 14:00,ZGHA 041400Z AUTO 34008KT 2 1/2SM 20/18 A2997 RMK T02000180 IEM_DS3505
ZGHA,2008-10-04 15:00,ZGHA 041500Z AUTO 35006KT 2SM 20/18 A2997 RMK T02000180 IEM_DS3505
ZGHA,2008-10-04 16:00,ZGHA 041600Z AUTO 34006KT 2SM 19/18 A2997 RMK T01900180 IEM_DS3505
ZGHA,2008-10-04 17:00,ZGHA 041700Z AUTO 34008KT 2SM 19/18 A2997 RMK T01900180 IEM_DS3505
ZGHA,2008-10-04 18:00,ZGHA 041800Z AUTO 34008KT 1 1/2SM 19/18 A2997 RMK T01900180 IEM_DS3505
ZGHA,2008-10-04 19:00,ZGHA 041900Z AUTO 35006KT 1 1/2SM 19/18 A2997 RMK T01900180 IEM_DS3505
ZGHA,2008-10-04 21:00,ZGHA 042100Z AUTO 35006KT 1 1/2SM 19/18 A2994 RMK T01900180 IEM_DS3505
ZGHA,2008-10-04 22:00,ZGHA 042200Z AUTO 34006KT 1 1/2SM 18/18 A2997 RMK T01800180 IEM_DS3505
ZGHA,2008-10-04 23:00,ZGHA 042300Z AUTO 33008KT 1SM 18/18 A2997 RMK T01800180 IEM_DS3505
ZGHA,2008-10-05 00:00,ZGHA 050000Z AUTO 34008KT 1 1/4SM 20/18 A3000 RMK T02000180 IEM_DS3505
ZGHA,2008-10-05 01:00,ZGHA 050100Z AUTO 35008KT 2 1/2SM 21/18 A3000 RMK T02100180 IEM_DS3505
ZGHA,2008-10-05 02:00,ZGHA 050200Z AUTO 35006KT 3SM 22/18 A3000 RMK T02200180 IEM_DS3505
ZGHA,2008-10-05 03:00,ZGHA 050300Z AUTO 07004KT 3SM 23/18 A3000 RMK T02300180 IEM_DS3505
ZGHA,2008-10-05 04:00,ZGHA 050400Z AUTO 33006KT 3SM 25/18 A2997 RMK T02500180 IEM_DS3505
ZGHA,2008-10-05 05:00,ZGHA 050500Z AUTO 36006KT 4SM 26/18 A2994 RMK T02600180 IEM_DS3505
ZGHA,2008-10-05 06:00,ZGHA 050600Z AUTO 35008KT 4SM 26/19 A2994 RMK T02600190 IEM_DS3505
ZGHA,2008-10-05 07:00,ZGHA 050700Z AUTO 32010KT 4SM 26/19 A2991 RMK T02600190 IEM_DS3505
ZGHA,2008-10-05 08:00,ZGHA 050800Z AUTO 34008KT 4SM 27/18 A2991 RMK T02700180 IEM_DS3505
ZGHA,2008-10-05 09:00,ZGHA 050900Z AUTO 33010KT 4SM 25/18 A2991 RMK T02500180 IEM_DS3505
ZGHA,2008-10-05 10:00,ZGHA 051000Z AUTO 34004KT 3SM 24/18 A2994 RMK T02400180 IEM_DS3505
ZGHA,2008-10-05 11:00,ZGHA 051100Z AUTO 33008KT 2 1/2SM 22/18 A2994 RMK T02200180 IEM_DS3505
ZGHA,2008-10-05 12:00,ZGHA 051200Z AUTO 36004KT 2 1/2SM 21/17 A2994 RMK T02100170 IEM_DS3505
ZGHA,2008-10-05 13:00,ZGHA 051300Z AUTO 2 1/2SM 21/17 A2997 RMK T02100170 IEM_DS3505
ZGHA,2008-10-05 14:00,ZGHA 051400Z AUTO 2 1/2SM 19/17 A3000 RMK T01900170 IEM_DS3505
ZGHA,2008-10-05 15:00,ZGHA 051500Z AUTO 00000KT 2 1/2SM 19/17 A3000 RMK T01900170 IEM_DS3505
ZGHA,2008-10-05 16:00,ZGHA 051600Z AUTO 36004KT 2SM 19/17 A3000 RMK T01900170 IEM_DS3505
ZGHA,2008-10-05 17:00,ZGHA 051700Z AUTO 2SM 19/17 A3000 RMK T01900170 IEM_DS3505
ZGHA,2008-10-05 18:00,ZGHA 051800Z AUTO 36002KT 2SM 19/17 A3000 RMK T01900170 IEM_DS3505
ZGHA,2008-10-05 21:00,ZGHA 052100Z AUTO 00000KT 1 1/2SM 18/17 A3000 RMK T01800170 IEM_DS3505
ZGHA,2008-10-05 22:00,ZGHA 052200Z AUTO 36004KT 1 1/2SM 18/17 A3000 RMK T01800170 IEM_DS3505
ZGHA,2008-10-05 23:00,ZGHA 052300Z AUTO 36004KT 2SM 18/17 A3003 RMK T01800170 IEM_DS3505
ZGHA,2008-10-06 00:00,ZGHA 060000Z AUTO 36004KT 2SM 19/18 A3006 RMK T01900180 IEM_DS3505
ZGHA,2008-10-06 01:00,ZGHA 060100Z AUTO 2SM 20/18 A3006 RMK T02000180 IEM_DS3505
ZGHA,2008-10-06 02:00,ZGHA 060200Z AUTO 07004KT 3SM 23/18 A3006 RMK T02300180 IEM_DS3505
ZGHA,2008-10-06 03:00,ZGHA 060300Z AUTO 4SM 25/18 A3006 RMK T02500180 IEM_DS3505
ZGHA,2008-10-06 04:00,ZGHA 060400Z AUTO 05004KT 7SM 27/17 A3003 RMK T02700170 IEM_DS3505
ZGHA,2008-10-06 05:00,ZGHA 060500Z AUTO 02006KT 7SM 28/16 A3000 RMK T02800160 IEM_DS3505
ZGHA,2008-10-06 06:00,ZGHA 060600Z AUTO 35006KT 7SM 29/17 A2997 RMK T02900170 IEM_DS3505
ZGHA,2008-10-06 07:00,ZGHA 060700Z AUTO 01006KT 7SM 27/16 A2997 RMK T02700160 IEM_DS3505
ZGHA,2008-10-06 08:00,ZGHA 060800Z AUTO 36010KT 6SM 27/13 A2997 RMK T02700130 IEM_DS3505
ZGHA,2008-10-06 09:00,ZGHA 060900Z AUTO 35010KT 6SM 26/15 A2997 RMK T02600150 IEM_DS3505
ZGHA,2008-10-06 10:00,ZGHA 061000Z AUTO 36008KT 6SM 24/15 A3000 RMK T02400150 IEM_DS3505
ZGHA,2008-10-06 11:00,ZGHA 061100Z AUTO 01006KT 6SM 22/14 A3000 RMK T02200140 IEM_DS3505
ZGHA,2008-10-06 12:00,ZGHA 061200Z AUTO 36006KT 6SM 21/13 A3003 RMK T02100130 IEM_DS3505
ZGHA,2008-10-06 13:00,ZGHA 061300Z AUTO 36006KT 6SM 20/14 A3006 RMK T02000140 IEM_DS3505
ZGHA,2008-10-06 14:00,ZGHA 061400Z AUTO 01004KT 6SM 18/13 A3006 RMK T01800130 IEM_DS3505
ZGHA,2008-10-06 15:00,ZGHA 061500Z AUTO 4SM 17/13 A3006 RMK T01700130 IEM_DS3505
ZGHA,2008-10-06 16:00,ZGHA 061600Z AUTO 02004KT 4SM 16/13 A3006 RMK T01600130 IEM_DS3505
ZGHA,2008-10-06 17:00,ZGHA 061700Z AUTO 4SM 16/13 A3006 RMK T01600130 IEM_DS3505
ZGHA,2008-10-06 18:00,ZGHA 061800Z AUTO 2 1/2SM 15/13 A3006 RMK T01500130 IEM_DS3505
ZGHA,2008-10-06 21:00,ZGHA 062100Z AUTO 00000KT 3SM 13/12 A3009 RMK T01300120 IEM_DS3505
ZGHA,2008-10-06 22:00,ZGHA 062200Z AUTO 4SM 12/12 A3009 RMK T01200120 IEM_DS3505
ZGHA,2008-10-06 23:00,ZGHA 062300Z AUTO 4SM 13/13 A3012 RMK T01300130 IEM_DS3505
ZGHA,2008-10-07 00:00,ZGHA 070000Z AUTO 05004KT 6SM 16/13 A3015 RMK T01600130 IEM_DS3505
ZGHA,2008-10-07 01:00,ZGHA 070100Z AUTO 6SM 19/14 A3015 RMK T01900140 IEM_DS3505
ZGHA,2008-10-07 02:00,ZGHA 070200Z AUTO 00000KT 6SM 21/14 A3015 RMK T02100140 IEM_DS3505
ZGHA,2008-10-07 03:00,ZGHA 070300Z AUTO 34004KT 6SM 22/12 A3012 RMK T02200120 IEM_DS3505
ZGHA,2008-10-07 04:00,ZGHA 070400Z AUTO 25006KT 6SM 23/11 A3009 RMK T02300110 IEM_DS3505
ZGHA,2008-10-07 05:00,ZGHA 070500Z AUTO 29006KT 6SM 25/09 A3006 RMK T02500090 IEM_DS3505
ZGHA,2008-10-07 06:00,ZGHA 070600Z AUTO 27004KT 6SM 25/09 A3003 RMK T02500090 IEM_DS3505
ZGHA,2008-10-07 07:00,ZGHA 070700Z AUTO 6SM 26/09 A3000 RMK T02600090 IEM_DS3505
ZGHA,2008-10-07 08:00,ZGHA 070800Z AUTO 29004KT 6SM 27/10 A2997 RMK T02700100 IEM_DS3505
ZGHA,2008-10-07 09:00,ZGHA 070900Z AUTO 33006KT 6SM 25/11 A2997 RMK T02500110 IEM_DS3505
ZGHA,2008-10-07 10:00,ZGHA 071000Z AUTO 6SM 23/12 A2997 RMK T02300120 IEM_DS3505
ZGHA,2008-10-07 11:00,ZGHA 071100Z AUTO 31006KT 6SM 21/14 A2997 RMK T02100140 IEM_DS3505
ZGHA,2008-10-07 12:00,ZGHA 071200Z AUTO 34004KT 6SM 20/14 A3000 RMK T02000140 IEM_DS3505
ZGHA,2008-10-07 13:00,ZGHA 071300Z AUTO 00000KT 3SM 18/14 A3003 RMK T01800140 IEM_DS3505
ZGHA,2008-10-07 14:00,ZGHA 071400Z AUTO 35002KT 3SM 16/14 A3003 RMK T01600140 IEM_DS3505
ZGHA,2008-10-07 15:00,ZGHA 071500Z AUTO 2 1/2SM 16/14 A3003 RMK T01600140 IEM_DS3505
ZGHA,2008-10-07 16:00,ZGHA 071600Z AUTO 00000KT 2 1/2SM 15/14 A3003 RMK T01500140 IEM_DS3505
ZGHA,2008-10-07 17:00,ZGHA 071700Z AUTO 04002KT 2SM 15/14 A3003 RMK T01500140 IEM_DS3505
ZGHA,2008-10-07 18:00,ZGHA 071800Z AUTO 00000KT 1 1/2SM 15/14 A3003 RMK T01500140 IEM_DS3505
ZGHA,2008-10-07 19:00,ZGHA 071900Z AUTO 36002KT 1 1/2SM 14/13 A3003 RMK T01400130 IEM_DS3505
ZGHA,2008-10-07 20:00,ZGHA 072000Z AUTO 1 1/2SM 14/13 A3003 RMK T01400130 IEM_DS3505
ZGHA,2008-10-07 21:00,ZGHA 072100Z AUTO 2SM 14/14 A3003 RMK T01400140 IEM_DS3505
ZGHA,2008-10-07 22:00,ZGHA 072200Z AUTO 2SM 13/13 A3006 RMK T01300130 IEM_DS3505
ZGHA,2008-10-07 23:00,ZGHA 072300Z AUTO 2SM 14/14 A3006 RMK T01400140 IEM_DS3505
ZGHA,2008-10-08 00:00,ZGHA 080000Z AUTO 2 1/2SM 17/16 A3006 RMK T01700160 IEM_DS3505
ZGHA,2008-10-08 01:00,ZGHA 080100Z AUTO 3SM 20/16 A3006 RMK T02000160 IEM_DS3505
ZGHA,2008-10-08 02:00,ZGHA 080200Z AUTO 23004KT 4SM 22/16 A3009 RMK T02200160 IEM_DS3505
ZGHA,2008-10-08 03:00,ZGHA 080300Z AUTO 32006KT 4SM 24/16 A3009 RMK T02400160 IEM_DS3505
ZGHA,2008-10-08 04:00,ZGHA 080400Z AUTO 30004KT 4SM 25/16 A3006 RMK T02500160 IEM_DS3505
ZGHA,2008-10-08 05:00,ZGHA 080500Z AUTO 34006KT 4SM 27/16 A3003 RMK T02700160 IEM_DS3505
ZGHA,2008-10-08 06:00,ZGHA 080600Z AUTO 33008KT 5SM 26/16 A3000 RMK T02600160 IEM_DS3505
ZGHA,2008-10-08 07:00,ZGHA 080700Z AUTO 36008KT 4SM 25/18 A2997 RMK T02500180 IEM_DS3505
ZGHA,2008-10-08 08:00,ZGHA 080800Z AUTO 34010KT 2 1/2SM 24/17 A3000 RMK T02400170 IEM_DS3505
ZGHA,2008-10-08 09:00,ZGHA 080900Z AUTO 35008KT 2 1/2SM 23/17 A3000 RMK T02300170 IEM_DS3505
ZGHA,2008-10-08 10:00,ZGHA 081000Z AUTO 36004KT 2SM 22/17 A3000 RMK T02200170 IEM_DS3505
ZGHA,2008-10-08 11:00,ZGHA 081100Z AUTO 36006KT 2SM 21/16 A3003 RMK T02100160 IEM_DS3505
ZGHA,2008-10-08 12:00,ZGHA 081200Z AUTO 36006KT 2SM 20/16 A3006 RMK T02000160 IEM_DS3505
ZGHA,2008-10-08 13:00,ZGHA 081300Z AUTO 34004KT 2SM 19/16 A3006 RMK T01900160 IEM_DS3505
ZGHA,2008-10-08 14:00,ZGHA 081400Z AUTO 33004KT 2SM 19/16 A3006 RMK T01900160 IEM_DS3505
ZGHA,2008-10-08 15:00,ZGHA 081500Z AUTO 34004KT 2SM 19/16 A3006 RMK T01900160 IEM_DS3505
ZGHA,2008-10-08 16:00,ZGHA 081600Z AUTO 34002KT 1 1/2SM 18/16 A3006 RMK T01800160 IEM_DS3505
ZGHA,2008-10-08 17:00,ZGHA 081700Z AUTO 33004KT 1SM 18/17 A3006 RMK T01800170 IEM_DS3505
ZGHA,2008-10-08 21:00,ZGHA 082100Z AUTO 1 1/4SM 18/17 A3009 RMK T01800170 IEM_DS3505
ZGHA,2008-10-08 22:00,ZGHA 082200Z AUTO 35004KT 1 1/4SM 18/17 A3009 RMK T01800170 IEM_DS3505
ZGHA,2008-10-08 23:00,ZGHA 082300Z AUTO 1 1/4SM 18/17 A3012 RMK T01800170 IEM_DS3505
ZGHA,2008-10-09 00:00,ZGHA 090000Z AUTO 01004KT 1SM 19/18 A3012 RMK T01900180 IEM_DS3505
ZGHA,2008-10-09 01:00,ZGHA 090100Z AUTO 35004KT 1SM 20/19 A3015 RMK T02000190 IEM_DS3505
ZGHA,2008-10-09 02:00,ZGHA 090200Z AUTO 36004KT 1 1/2SM 22/18 A3015 RMK T02200180 IEM_DS3505
ZGHA,2008-10-09 03:00,ZGHA 090300Z AUTO 01004KT 2SM 24/19 A3012 RMK T02400190 IEM_DS3505
ZGHA,2008-10-09 04:00,ZGHA 090400Z AUTO 33006KT 2SM 24/19 A3012 RMK T02400190 IEM_DS3505
ZGHA,2008-10-09 05:00,ZGHA 090500Z AUTO 31004KT 2SM 25/20 A3009 RMK T02500200 IEM_DS3505
ZGHA,2008-10-09 06:00,ZGHA 090600Z AUTO 27006KT 2SM 26/19 A3006 RMK T02600190 IEM_DS3505
ZGHA,2008-10-09 07:00,ZGHA 090700Z AUTO 29006KT 2SM 27/20 A3006 RMK T02700200 IEM_DS3505
ZGHA,2008-10-09 08:00,ZGHA 090800Z AUTO 29006KT 2SM 26/20 A3006 RMK T02600200 IEM_DS3505
ZGHA,2008-10-09 09:00,ZGHA 090900Z AUTO 34006KT 2SM 26/21 A3006 RMK T02600210 IEM_DS3505
ZGHA,2008-10-09 10:00,ZGHA 091000Z AUTO 35006KT 1 1/2SM 24/19 A3006 RMK T02400190 IEM_DS3505
ZGHA,2008-10-09 11:00,ZGHA 091100Z AUTO 35006KT 1 1/4SM 23/19 A3009 RMK T02300190 IEM_DS3505
ZGHA,2008-10-09 12:00,ZGHA 091200Z AUTO 33006KT 1SM 22/19 A3012 RMK T02200190 IEM_DS3505
ZGHA,2008-10-09 13:00,ZGHA 091300Z AUTO 32006KT 1 1/4SM 21/19 A3012 RMK T02100190 IEM_DS3505
ZGHA,2008-10-09 14:00,ZGHA 091400Z AUTO 34006KT 1 1/2SM 20/19 A3015 RMK T02000190 IEM_DS3505
ZGHA,2008-10-09 15:00,ZGHA 091500Z AUTO 33006KT 1 1/2SM 20/18 A3015 RMK T02000180 IEM_DS3505
ZGHA,2008-10-09 16:00,ZGHA 091600Z AUTO 34006KT 1 1/4SM 20/18 A3012 RMK T02000180 IEM_DS3505
ZGHA,2008-10-09 17:00,ZGHA 091700Z AUTO 35004KT 3/8SM 19/18 A3012 RMK T01900180 IEM_DS3505
ZGHA,2008-10-09 18:00,ZGHA 091800Z AUTO 34006KT 3/8SM 19/18 A3012 RMK T01900180 IEM_DS3505
ZGHA,2008-10-09 19:00,ZGHA 091900Z AUTO 34006KT 3/8SM 19/18 A3012 RMK T01900180 IEM_DS3505
ZGHA,2008-10-09 20:00,ZGHA 092000Z AUTO 34006KT 1/2SM 19/18 A3012 RMK T01900180 IEM_DS3505
ZGHA,2008-10-09 21:00,ZGHA 092100Z AUTO 34006KT 1SM 19/18 A3015 RMK T01900180 IEM_DS3505
ZGHA,2008-10-09 22:00,ZGHA 092200Z AUTO 34004KT 1SM 19/18 A3015 RMK T01900180 IEM_DS3505
ZGHA,2008-10-09 23:00,ZGHA 092300Z AUTO 34006KT 1SM 19/18 A3018 RMK T01900180 IEM_DS3505
ZGHA,2008-10-10 00:00,ZGHA 100000Z AUTO 36004KT 1SM 19/18 A3018 RMK T01900180 IEM_DS3505
ZGHA,2008-10-10 01:00,ZGHA 100100Z AUTO 36006KT 1SM 20/18 A3021 RMK T02000180 IEM_DS3505
ZGHA,2008-10-10 02:00,ZGHA 100200Z AUTO 35006KT 1SM 21/18 A3021 RMK T02100180 IEM_DS3505
ZGHA,2008-10-10 03:00,ZGHA 100300Z AUTO 35008KT 1SM 21/18 A3021 RMK T02100180 IEM_DS3505
ZGHA,2008-10-10 04:00,ZGHA 100400Z AUTO 34010KT 1SM 21/18 A3021 RMK T02100180 IEM_DS3505
ZGHA,2008-10-10 05:00,ZGHA 100500Z AUTO 34010KT 1SM 22/18 A3018 RMK T02200180 IEM_DS3505
ZGHA,2008-10-10 06:00,ZGHA 100600Z AUTO 36008KT 1SM 21/18 A3015 RMK T02100180 IEM_DS3505
ZGHA,2008-10-10 07:00,ZGHA 100700Z AUTO 32012KT 1SM 21/18 A3015 RMK T02100180 IEM_DS3505
ZGHA,2008-10-10 08:00,ZGHA 100800Z AUTO 33010KT 1SM 20/18 A3015 RMK T02000180 IEM_DS3505
ZGHA,2008-10-10 09:00,ZGHA 100900Z AUTO 33008KT 1SM 20/18 A3018 RMK T02000180 IEM_DS3505
ZGHA,2008-10-10 10:00,ZGHA 101000Z AUTO 32006KT 1 1/4SM 20/18 A3018 RMK T02000180 IEM_DS3505
ZGHA,2008-10-10 11:00,ZGHA 101100Z AUTO 32006KT 1SM 19/18 A3018 RMK T01900180 IEM_DS3505
ZGHA,2008-10-10 12:00,ZGHA 101200Z AUTO 32006KT 1SM 19/18 A3021 RMK T01900180 IEM_DS3505
ZGHA,2008-10-10 13:00,ZGHA 101300Z AUTO 33010KT 1 1/4SM 19/17 A3024 RMK T01900170 IEM_DS3505
ZGHA,2008-10-10 14:00,ZGHA 101400Z AUTO 34008KT 1 1/4SM 19/17 A3024 RMK T01900170 IEM_DS3505
ZGHA,2008-10-10 15:00,ZGHA 101500Z AUTO 34008KT 1SM 19/17 A3024 RMK T01900170 IEM_DS3505
ZGHA,2008-10-10 16:00,ZGHA 101600Z AUTO 33006KT 1 1/4SM 19/17 A3024 RMK T01900170 IEM_DS3505
ZGHA,2008-10-10 17:00,ZGHA 101700Z AUTO 32006KT 1SM 19/17 A3024 RMK T01900170 IEM_DS3505
ZGHA,2008-10-10 18:00,ZGHA 101800Z AUTO 33010KT 1SM 19/17 A3021 RMK T01900170 IEM_DS3505
ZGHA,2008-10-10 21:00,ZGHA 102100Z AUTO 32006KT 1SM 18/18 A3021 RMK T01800180 IEM_DS3505
ZGHA,2008-10-10 22:00,ZGHA 102200Z AUTO 34006KT 1SM 18/18 A3021 RMK T01800180 IEM_DS3505
ZGHA,2008-10-10 23:00,ZGHA 102300Z AUTO 33010KT 1 1/2SM 18/18 A3024 RMK T01800180 IEM_DS3505
ZGHA,2008-10-11 00:00,ZGHA 110000Z AUTO 34010KT 1 1/2SM 18/18 A3024 RMK T01800180 IEM_DS3505
ZGHA,2008-10-11 01:00,ZGHA 110100Z AUTO 34006KT 2SM 19/18 A3024 RMK T01900180 IEM_DS3505
ZGHA,2008-10-11 02:00,ZGHA 110200Z AUTO 31006KT 2SM 19/18 A3024 RMK T01900180 IEM_DS3505
ZGHA,2008-10-11 03:00,ZGHA 110300Z AUTO 30008KT 1SM 19/18 A3024 RMK T01900180 IEM_DS3505
ZGHA,2008-10-11 04:00,ZGHA 110400Z AUTO 32006KT 1SM 19/18 A3021 RMK T01900180 IEM_DS3505
ZGHA,2008-10-11 05:00,ZGHA 110500Z AUTO 32008KT 1 1/2SM 19/18 A3021 RMK T01900180 IEM_DS3505
ZGHA,2008-10-11 06:00,ZGHA 110600Z AUTO 30008KT 1 1/4SM 19/18 A3018 RMK T01900180 IEM_DS3505
ZGHA,2008-10-11 07:00,ZGHA 110700Z AUTO 31008KT 1 1/4SM 19/18 A3018 RMK T01900180 IEM_DS3505
ZGHA,2008-10-11 08:00,ZGHA 110800Z AUTO 31008KT 1 1/2SM 19/18 A3018 RMK T01900180 IEM_DS3505
ZGHA,2008-10-11 09:00,ZGHA 110900Z AUTO 30006KT 1 1/2SM 19/18 A3018 RMK T01900180 IEM_DS3505
ZGHA,2008-10-11 10:00,ZGHA 111000Z AUTO 35006KT 1 1/2SM 19/18 A3018 RMK T01900180 IEM_DS3505
ZGHA,2008-10-11 11:00,ZGHA 111100Z AUTO 32004KT 2SM 18/17 A3018 RMK T01800170 IEM_DS3505
ZGHA,2008-10-11 12:00,ZGHA 111200Z AUTO 31006KT 2SM 18/17 A3021 RMK T01800170 IEM_DS3505
ZGHA,2008-10-11 13:00,ZGHA 111300Z AUTO 33010KT 3SM 18/17 A3021 RMK T01800170 IEM_DS3505
ZGHA,2008-10-11 14:00,ZGHA 111400Z AUTO 34006KT 3SM 18/17 A3024 RMK T01800170 IEM_DS3505
ZGHA,2008-10-11 15:00,ZGHA 111500Z AUTO 34006KT 3SM 18/17 A3021 RMK T01800170 IEM_DS3505
ZGHA,2008-10-11 16:00,ZGHA 111600Z AUTO 34006KT 4SM 18/17 A3021 RMK T01800170 IEM_DS3505
ZGHA,2008-10-11 17:00,ZGHA 111700Z AUTO 35008KT 4SM 17/16 A3021 RMK T01700160 IEM_DS3505
ZGHA,2008-10-11 18:00,ZGHA 111800Z AUTO 35006KT 3SM 17/16 A3021 RMK T01700160 IEM_DS3505
ZGHA,2008-10-11 21:00,ZGHA 112100Z AUTO 36006KT 3SM 16/15 A3018 RMK T01600150 IEM_DS3505
ZGHA,2008-10-11 22:00,ZGHA 112200Z AUTO 36008KT 3SM 16/15 A3018 RMK T01600150 IEM_DS3505
ZGHA,2008-10-11 23:00,ZGHA 112300Z AUTO 35006KT 2 1/2SM 16/15 A3018 RMK T01600150 IEM_DS3505
ZGHA,2008-10-12 00:00,ZGHA 120000Z AUTO 01004KT 4SM 16/15 A3021 RMK T01600150 IEM_DS3505
ZGHA,2008-10-12 01:00,ZGHA 120100Z AUTO 36004KT 4SM 17/15 A3021 RMK T01700150 IEM_DS3505
ZGHA,2008-10-12 02:00,ZGHA 120200Z AUTO 35004KT 4SM 17/15 A3024 RMK T01700150 IEM_DS3505
ZGHA,2008-10-12 03:00,ZGHA 120300Z AUTO 33004KT 4SM 17/15 A3024 RMK T01700150 IEM_DS3505
ZGHA,2008-10-12 04:00,ZGHA 120400Z AUTO 33004KT 4SM 18/15 A3021 RMK T01800150 IEM_DS3505
ZGHA,2008-10-12 05:00,ZGHA 120500Z AUTO 36006KT 5SM 19/16 A3018 RMK T01900160 IEM_DS3505
ZGHA,2008-10-12 06:00,ZGHA 120600Z AUTO 34006KT 5SM 19/16 A3015 RMK T01900160 IEM_DS3505
ZGHA,2008-10-12 07:00,ZGHA 120700Z AUTO 34006KT 5SM 19/15 A3012 RMK T01900150 IEM_DS3505
ZGHA,2008-10-12 08:00,ZGHA 120800Z AUTO 5SM 19/16 A3012 RMK T01900160 IEM_DS3505
ZGHA,2008-10-12 09:00,ZGHA 120900Z AUTO 00000KT 5SM 19/16 A3012 RMK T01900160 IEM_DS3505
ZGHA,2008-10-12 10:00,ZGHA 121000Z AUTO 5SM 19/16 A3012 RMK T01900160 IEM_DS3505
ZGHA,2008-10-12 11:00,ZGHA 121100Z AUTO 4SM 18/16 A3012 RMK T01800160 IEM_DS3505
ZGHA,2008-10-12 12:00,ZGHA 121200Z AUTO 00000KT 4SM 18/16 A3015 RMK T01800160 IEM_DS3505
ZGHA,2008-10-12 13:00,ZGHA 121300Z AUTO 2 1/2SM 17/16 A3015 RMK T01700160 IEM_DS3505
ZGHA,2008-10-12 14:00,ZGHA 121400Z AUTO 2 1/2SM 17/16 A3018 RMK T01700160 IEM_DS3505
ZGHA,2008-10-12 15:00,ZGHA 121500Z AUTO 18002KT 2 1/2SM 17/16 A3018 RMK T01700160 IEM_DS3505
ZGHA,2008-10-12 16:00,ZGHA 121600Z AUTO 00000KT 2SM 17/16 A3015 RMK T01700160 IEM_DS3505
ZGHA,2008-10-12 17:00,ZGHA 121700Z AUTO 00000KT 2SM 17/16 A3015 RMK T01700160 IEM_DS3505
ZGHA,2008-10-12 18:00,ZGHA 121800Z AUTO 32004KT 2SM 17/17 A3012 RMK T01700170 IEM_DS3505
ZGHA,2008-10-12 20:00,ZGHA 122000Z AUTO 1SM 17/16 A3012 RMK T01700160 IEM_DS3505
ZGHA,2008-10-12 21:00,ZGHA 122100Z AUTO 01002KT 1 1/2SM 17/16 A3012 RMK T01700160 IEM_DS3505
ZGHA,2008-10-12 22:00,ZGHA 122200Z AUTO 33004KT 1 1/2SM 17/16 A3012 RMK T01700160 IEM_DS3505
ZGHA,2008-10-12 23:00,ZGHA 122300Z AUTO 32002KT 2SM 17/16 A3015 RMK T01700160 IEM_DS3505
ZGHA,2008-10-13 00:00,ZGHA 130000Z AUTO 35002KT 2 1/2SM 17/16 A3015 RMK T01700160 IEM_DS3505
ZGHA,2008-10-13 01:00,ZGHA 130100Z AUTO 36004KT 3SM 19/16 A3015 RMK T01900160 IEM_DS3505
ZGHA,2008-10-13 02:00,ZGHA 130200Z AUTO 36004KT 4SM 19/16 A3018 RMK T01900160 IEM_DS3505
ZGHA,2008-10-13 03:00,ZGHA 130300Z AUTO 4SM 21/16 A3015 RMK T02100160 IEM_DS3505
ZGHA,2008-10-13 04:00,ZGHA 130400Z AUTO 5SM 22/16 A3015 RMK T02200160 IEM_DS3505
ZGHA,2008-10-13 05:00,ZGHA 130500Z AUTO 6SM 23/16 A3012 RMK T02300160 IEM_DS3505
ZGHA,2008-10-13 06:00,ZGHA 130600Z AUTO 6SM 25/16 A3009 RMK T02500160 IEM_DS3505
ZGHA,2008-10-13 07:00,ZGHA 130700Z AUTO 33004KT 6SM 25/16 A3006 RMK T02500160 IEM_DS3505
ZGHA,2008-10-13 08:00,ZGHA 130800Z AUTO 00000KT 6SM 24/15 A3006 RMK T02400150 IEM_DS3505
ZGHA,2008-10-13 09:00,ZGHA 130900Z AUTO 28004KT 6SM 24/15 A3006 RMK T02400150 IEM_DS3505
ZGHA,2008-10-13 10:00,ZGHA 131000Z AUTO 24004KT 6SM 22/15 A3009 RMK T02200150 IEM_DS3505
ZGHA,2008-10-13 11:00,ZGHA 131100Z AUTO 31004KT 6SM 22/15 A3009 RMK T02200150 IEM_DS3505
ZGHA,2008-10-13 12:00,ZGHA 131200Z AUTO 30002KT 4SM 19/16 A3012 RMK T01900160 IEM_DS3505
ZGHA,2008-10-13 13:00,ZGHA 131300Z AUTO 4SM 18/16 A3012 RMK T01800160 IEM_DS3505
ZGHA,2008-10-13 14:00,ZGHA 131400Z AUTO 2 1/2SM 17/16 A3012 RMK T01700160 IEM_DS3505
ZGHA,2008-10-13 15:00,ZGHA 131500Z AUTO 00000KT 2 1/2SM 16/16 A3015 RMK T01600160 IEM_DS3505
ZGHA,2008-10-13 16:00,ZGHA 131600Z AUTO 00000KT 2SM 16/15 A3015 RMK T01600150 IEM_DS3505
ZGHA,2008-10-13 17:00,ZGHA 131700Z AUTO 00000KT 1 1/2SM 15/15 A3015 RMK T01500150 IEM_DS3505
ZGHA,2008-10-13 18:00,ZGHA 131800Z AUTO 1/2SM 15/15 A3012 RMK T01500150 IEM_DS3505
ZGHA,2008-10-13 19:00,ZGHA 131900Z AUTO 00000KT 1/2SM 14/14 A3012 RMK T01400140 IEM_DS3505
ZGHA,2008-10-13 21:00,ZGHA 132100Z AUTO 00000KT 1SM 13/13 A3012 RMK T01300130 IEM_DS3505
ZGHA,2008-10-13 22:00,ZGHA 132200Z AUTO 1SM 14/13 A3012 RMK T01400130 IEM_DS3505
ZGHA,2008-10-13 23:00,ZGHA 132300Z AUTO 00000KT 1SM 13/13 A3015 RMK T01300130 IEM_DS3505
ZGHA,2008-10-14 00:00,ZGHA 140000Z AUTO 1 1/2SM 15/15 A3018 RMK T01500150 IEM_DS3505
ZGHA,2008-10-14 01:00,ZGHA 140100Z AUTO 2 1/2SM 19/18 A3018 RMK T01900180 IEM_DS3505
ZGHA,2008-10-14 02:00,ZGHA 140200Z AUTO 3SM 22/17 A3021 RMK T02200170 IEM_DS3505
ZGHA,2008-10-14 03:00,ZGHA 140300Z AUTO 4SM 25/18 A3018 RMK T02500180 IEM_DS3505
ZGHA,2008-10-14 04:00,ZGHA 140400Z AUTO 09004KT 4SM 26/17 A3015 RMK T02600170 IEM_DS3505
ZGHA,2008-10-14 05:00,ZGHA 140500Z AUTO 4SM 27/17 A3012 RMK T02700170 IEM_DS3505
ZGHA,2008-10-14 06:00,ZGHA 140600Z AUTO 6SM 28/16 A3009 RMK T02800160 IEM_DS3505
ZGHA,2008-10-14 07:00,ZGHA 140700Z AUTO 6SM 28/15 A3009 RMK T02800150 IEM_DS3505
ZGHA,2008-10-14 08:00,ZGHA 140800Z AUTO 6SM 29/15 A3009 RMK T02900150 IEM_DS3505
ZGHA,2008-10-14 09:00,ZGHA 140900Z AUTO 6SM 28/14 A3009 RMK T02800140 IEM_DS3505
ZGHA,2008-10-14 10:00,ZGHA 141000Z AUTO 33006KT 4SM 25/16 A3009 RMK T02500160 IEM_DS3505
ZGHA,2008-10-14 11:00,ZGHA 141100Z AUTO 32006KT 3SM 23/17 A3009 RMK T02300170 IEM_DS3505
ZGHA,2008-10-14 12:00,ZGHA 141200Z AUTO 00000KT 3SM 21/17 A3012 RMK T02100170 IEM_DS3505
ZGHA,2008-10-14 13:00,ZGHA 141300Z AUTO 00000KT 2 1/2SM 20/17 A3015 RMK T02000170 IEM_DS3505
ZGHA,2008-10-14 14:00,ZGHA 141400Z AUTO 00000KT 2 1/2SM 18/16 A3015 RMK T01800160 IEM_DS3505
ZGHA,2008-10-14 15:00,ZGHA 141500Z AUTO 2SM 17/16 A3015 RMK T01700160 IEM_DS3505
ZGHA,2008-10-14 16:00,ZGHA 141600Z AUTO 1 1/2SM 17/16 A3015 RMK T01700160 IEM_DS3505
ZGHA,2008-10-14 17:00,ZGHA 141700Z AUTO 00000KT 1 1/2SM 16/15 A3015 RMK T01600150 IEM_DS3505
ZGHA,2008-10-14 18:00,ZGHA 141800Z AUTO 00000KT 1 1/2SM 16/15 A3015 RMK T01600150 IEM_DS3505
ZGHA,2008-10-14 19:00,ZGHA 141900Z AUTO 1 1/2SM 15/14 A3012 RMK T01500140 IEM_DS3505
ZGHA,2008-10-14 20:00,ZGHA 142000Z AUTO 1 1/2SM 17/15 A3012 RMK T01700150 IEM_DS3505
ZGHA,2008-10-14 21:00,ZGHA 142100Z AUTO 1 1/2SM 17/15 A3012 RMK T01700150 IEM_DS3505
ZGHA,2008-10-14 22:00,ZGHA 142200Z AUTO 03002KT 1 1/2SM 15/14 A3015 RMK T01500140 IEM_DS3505
ZGHA,2008-10-14 23:00,ZGHA 142300Z AUTO 01002KT 2SM 15/15 A3015 RMK T01500150 IEM_DS3505
ZGHA,2008-10-15 00:00,ZGHA 150000Z AUTO 00000KT 2 1/2SM 17/17 A3015 RMK T01700170 IEM_DS3505
ZGHA,2008-10-15 01:00,ZGHA 150100Z AUTO 5SM 21/17 A3018 RMK T02100170 IEM_DS3505
ZGHA,2008-10-15 02:00,ZGHA 150200Z AUTO 6SM 24/18 A3018 RMK T02400180 IEM_DS3505
ZGHA,2008-10-15 03:00,ZGHA 150300Z AUTO 6SM 26/17 A3015 RMK T02600170 IEM_DS3505
ZGHA,2008-10-15 04:00,ZGHA 150400Z AUTO 01004KT 6SM 28/15 A3012 RMK T02800150 IEM_DS3505
ZGHA,2008-10-15 05:00,ZGHA 150500Z AUTO 6SM 29/16 A3012 RMK T02900160 IEM_DS3505
ZGHA,2008-10-15 06:00,ZGHA 150600Z AUTO 6SM 29/14 A3009 RMK T02900140 IEM_DS3505
ZGHA,2008-10-15 07:00,ZGHA 150700Z AUTO 32004KT 6SM 30/14 A3006 RMK T03000140 IEM_DS3505
ZGHA,2008-10-15 08:00,ZGHA 150800Z AUTO 6SM 29/14 A3006 RMK T02900140 IEM_DS3505
ZGHA,2008-10-15 09:00,ZGHA 150900Z AUTO 31008KT 5SM 27/17 A3006 RMK T02700170 IEM_DS3505
ZGHA,2008-10-15 10:00,ZGHA 151000Z AUTO 32006KT 3SM 25/18 A3006 RMK T02500180 IEM_DS3505
ZGHA,2008-10-15 11:00,ZGHA 151100Z AUTO 33006KT 3SM 24/17 A3006 RMK T02400170 IEM_DS3505
ZGHA,2008-10-15 12:00,ZGHA 151200Z AUTO 00000KT 3SM 21/17 A3009 RMK T02100170 IEM_DS3505
ZGHA,2008-10-15 13:00,ZGHA 151300Z AUTO 00000KT 3SM 20/17 A3012 RMK T02000170 IEM_DS3505
ZGHA,2008-10-15 14:00,ZGHA 151400Z AUTO 01002KT 2 1/2SM 19/17 A3012 RMK T01900170 IEM_DS3505
ZGHA,2008-10-15 15:00,ZGHA 151500Z AUTO 00000KT 2 1/2SM 19/17 A3012 RMK T01900170 IEM_DS3505
ZGHA,2008-10-15 16:00,ZGHA 151600Z AUTO 01002KT 2SM 18/17 A3012 RMK T01800170 IEM_DS3505
ZGHA,2008-10-15 17:00,ZGHA 151700Z AUTO 36002KT 2SM 17/16 A3012 RMK T01700160 IEM_DS3505
ZGHA,2008-10-15 18:00,ZGHA 151800Z AUTO 1SM 17/16 A3009 RMK T01700160 IEM_DS3505
ZGHA,2008-10-15 19:00,ZGHA 151900Z AUTO 00000KT 1SM 16/16 A3009 RMK T01600160 IEM_DS3505
ZGHA,2008-10-15 21:00,ZGHA 152100Z AUTO 1 1/4SM 16/15 A3006 RMK T01600150 IEM_DS3505
ZGHA,2008-10-15 22:00,ZGHA 152200Z AUTO 00000KT 1 1/4SM 16/15 A3009 RMK T01600150 IEM_DS3505
ZGHA,2008-10-15 23:00,ZGHA 152300Z AUTO 36002KT 1 1/4SM 15/15 A3009 RMK T01500150 IEM_DS3505
ZGHA,2008-10-16 00:00,ZGHA 160000Z AUTO 09002KT 1 1/2SM 18/18 A3012 RMK T01800180 IEM_DS3505
ZGHA,2008-10-16 01:00,ZGHA 160100Z AUTO 2SM 20/18 A3012 RMK T02000180 IEM_DS3505
ZGHA,2008-10-16 02:00,ZGHA 160200Z AUTO 32002KT 2 1/2SM 24/18 A3012 RMK T02400180 IEM_DS3505
ZGHA,2008-10-16 03:00,ZGHA 160300Z AUTO 4SM 26/17 A3012 RMK T02600170 IEM_DS3505
ZGHA,2008-10-16 04:00,ZGHA 160400Z AUTO 34006KT 5SM 27/17 A3009 RMK T02700170 IEM_DS3505
ZGHA,2008-10-16 05:00,ZGHA 160500Z AUTO 34004KT 6SM 28/17 A3006 RMK T02800170 IEM_DS3505
ZGHA,2008-10-16 06:00,ZGHA 160600Z AUTO 6SM 29/16 A3003 RMK T02900160 IEM_DS3505
ZGHA,2008-10-16 07:00,ZGHA 160700Z AUTO 6SM 29/16 A3000 RMK T02900160 IEM_DS3505
ZGHA,2008-10-16 08:00,ZGHA 160800Z AUTO 32010KT 6SM 29/16 A3000 RMK T02900160 IEM_DS3505
ZGHA,2008-10-16 09:00,ZGHA 160900Z AUTO 35006KT 6SM 28/16 A3000 RMK T02800160 IEM_DS3505
ZGHA,2008-10-16 10:00,ZGHA 161000Z AUTO 34006KT 3SM 25/17 A3000 RMK T02500170 IEM_DS3505
ZGHA,2008-10-16 11:00,ZGHA 161100Z AUTO 32006KT 3SM 24/17 A3003 RMK T02400170 IEM_DS3505
ZGHA,2008-10-16 12:00,ZGHA 161200Z AUTO 33004KT 3SM 23/16 A3006 RMK T02300160 IEM_DS3505
ZGHA,2008-10-16 13:00,ZGHA 161300Z AUTO 02002KT 3SM 20/17 A3006 RMK T02000170 IEM_DS3505
ZGHA,2008-10-16 14:00,ZGHA 161400Z AUTO 36002KT 2SM 19/17 A3006 RMK T01900170 IEM_DS3505
ZGHA,2008-10-16 15:00,ZGHA 161500Z AUTO 34004KT 2SM 20/17 A3006 RMK T02000170 IEM_DS3505
ZGHA,2008-10-16 16:00,ZGHA 161600Z AUTO 36004KT 2SM 20/17 A3006 RMK T02000170 IEM_DS3505
ZGHA,2008-10-16 17:00,ZGHA 161700Z AUTO 36002KT 2SM 18/16 A3006 RMK T01800160 IEM_DS3505
ZGHA,2008-10-16 18:00,ZGHA 161800Z AUTO 01002KT 1 1/2SM 17/16 A3006 RMK T01700160 IEM_DS3505
ZGHA,2008-10-16 19:00,ZGHA 161900Z AUTO 00000KT 1 1/4SM 17/16 A3006 RMK T01700160 IEM_DS3505
ZGHA,2008-10-16 20:00,ZGHA 162000Z AUTO 1 1/4SM 17/16 A3006 RMK T01700160 IEM_DS3505
ZGHA,2008-10-16 21:00,ZGHA 162100Z AUTO 00000KT 1 1/4SM 16/15 A3006 RMK T01600150 IEM_DS3505
ZGHA,2008-10-16 22:00,ZGHA 162200Z AUTO 00000KT 1SM 16/15 A3006 RMK T01600150 IEM_DS3505
ZGHA,2008-10-16 23:00,ZGHA 162300Z AUTO 00000KT 1SM 15/15 A3009 RMK T01500150 IEM_DS3505
ZGHA,2008-10-17 00:00,ZGHA 170000Z AUTO 00000KT 1SM 18/18 A3009 RMK T01800180 IEM_DS3505
ZGHA,2008-10-17 01:00,ZGHA 170100Z AUTO 1 1/2SM 21/18 A3012 RMK T02100180 IEM_DS3505
ZGHA,2008-10-17 02:00,ZGHA 170200Z AUTO 34004KT 4SM 24/18 A3012 RMK T02400180 IEM_DS3505
ZGHA,2008-10-17 03:00,ZGHA 170300Z AUTO 34004KT 4SM 25/16 A3009 RMK T02500160 IEM_DS3505
ZGHA,2008-10-17 04:00,ZGHA 170400Z AUTO 35004KT 6SM 28/17 A3006 RMK T02800170 IEM_DS3505
ZGHA,2008-10-17 05:00,ZGHA 170500Z AUTO 6SM 29/17 A3003 RMK T02900170 IEM_DS3505
ZGHA,2008-10-17 06:00,ZGHA 170600Z AUTO 34004KT 6SM 30/15 A3003 RMK T03000150 IEM_DS3505
ZGHA,2008-10-17 07:00,ZGHA 170700Z AUTO 02004KT 6SM 29/16 A3000 RMK T02900160 IEM_DS3505
ZGHA,2008-10-17 08:00,ZGHA 170800Z AUTO 30010KT 4SM 28/19 A3000 RMK T02800190 IEM_DS3505
ZGHA,2008-10-17 09:00,ZGHA 170900Z AUTO 33008KT 3SM 27/19 A3000 RMK T02700190 IEM_DS3505
ZGHA,2008-10-17 10:00,ZGHA 171000Z AUTO 35004KT 2SM 26/18 A3003 RMK T02600180 IEM_DS3505
ZGHA,2008-10-17 11:00,ZGHA 171100Z AUTO 34010KT 1 1/2SM 24/18 A3003 RMK T02400180 IEM_DS3505
ZGHA,2008-10-17 12:00,ZGHA 171200Z AUTO 00000KT 1 1/2SM 22/17 A3006 RMK T02200170 IEM_DS3505
ZGHA,2008-10-17 13:00,ZGHA 171300Z AUTO 1 1/2SM 21/18 A3006 RMK T02100180 IEM_DS3505
ZGHA,2008-10-17 14:00,ZGHA 171400Z AUTO 34004KT 2SM 21/17 A3006 RMK T02100170 IEM_DS3505
ZGHA,2008-10-17 15:00,ZGHA 171500Z AUTO 35004KT 2SM 21/17 A3006 RMK T02100170 IEM_DS3505
ZGHA,2008-10-17 16:00,ZGHA 171600Z AUTO 1 1/2SM 20/17 A3009 RMK T02000170 IEM_DS3505
ZGHA,2008-10-17 17:00,ZGHA 171700Z AUTO 33002KT 1 1/2SM 18/17 A3009 RMK T01800170 IEM_DS3505
ZGHA,2008-10-17 18:00,ZGHA 171800Z AUTO 1 1/4SM 19/17 A3006 RMK T01900170 IEM_DS3505
ZGHA,2008-10-17 21:00,ZGHA 172100Z AUTO 34002KT 1SM 17/16 A3009 RMK T01700160 IEM_DS3505
ZGHA,2008-10-17 22:00,ZGHA 172200Z AUTO 34004KT 1SM 18/18 A3009 RMK T01800180 IEM_DS3505
ZGHA,2008-10-17 23:00,ZGHA 172300Z AUTO 36004KT 1SM 18/17 A3012 RMK T01800170 IEM_DS3505
ZGHA,2008-10-18 00:00,ZGHA 180000Z AUTO 32004KT 1 1/2SM 19/18 A3015 RMK T01900180 IEM_DS3505
ZGHA,2008-10-18 01:00,ZGHA 180100Z AUTO 36004KT 2SM 21/18 A3015 RMK T02100180 IEM_DS3505
ZGHA,2008-10-18 02:00,ZGHA 180200Z AUTO 01004KT 2 1/2SM 23/18 A3015 RMK T02300180 IEM_DS3505
ZGHA,2008-10-18 03:00,ZGHA 180300Z AUTO 36004KT 2 1/2SM 26/18 A3012 RMK T02600180 IEM_DS3505
ZGHA,2008-10-18 04:00,ZGHA 180400Z AUTO 31006KT 3SM 27/19 A3012 RMK T02700190 IEM_DS3505
ZGHA,2008-10-18 05:00,ZGHA 180500Z AUTO 4SM 28/20 A3009 RMK T02800200 IEM_DS3505
ZGHA,2008-10-18 06:00,ZGHA 180600Z AUTO 36004KT 5SM 29/17 A3006 RMK T02900170 IEM_DS3505
ZGHA,2008-10-18 07:00,ZGHA 180700Z AUTO 34008KT 6SM 30/16 A3003 RMK T03000160 IEM_DS3505
ZGHA,2008-10-18 08:00,ZGHA 180800Z AUTO 35008KT 6SM 29/18 A3003 RMK T02900180 IEM_DS3505
ZGHA,2008-10-18 09:00,ZGHA 180900Z AUTO 35008KT 4SM 28/19 A3006 RMK T02800190 IEM_DS3505
ZGHA,2008-10-18 10:00,ZGHA 181000Z AUTO 35006KT 1 1/2SM 25/19 A3006 RMK T02500190 IEM_DS3505
ZGHA,2008-10-18 11:00,ZGHA 181100Z AUTO 35008KT 2SM 24/18 A3009 RMK T02400180 IEM_DS3505
ZGHA,2008-10-18 12:00,ZGHA 181200Z AUTO 01004KT 2SM 24/18 A3009 RMK T02400180 IEM_DS3505
ZGHA,2008-10-18 13:00,ZGHA 181300Z AUTO 2SM 22/18 A3012 RMK T02200180 IEM_DS3505
ZGHA,2008-10-18 14:00,ZGHA 181400Z AUTO 36004KT 2SM 22/18 A3012 RMK T02200180 IEM_DS3505
ZGHA,2008-10-18 15:00,ZGHA 181500Z AUTO 35002KT 2 1/2SM 20/18 A3012 RMK T02000180 IEM_DS3505
ZGHA,2008-10-18 16:00,ZGHA 181600Z AUTO 2 1/2SM 20/17 A3012 RMK T02000170 IEM_DS3505
ZGHA,2008-10-18 17:00,ZGHA 181700Z AUTO 35002KT 2SM 19/17 A3012 RMK T01900170 IEM_DS3505
ZGHA,2008-10-18 18:00,ZGHA 181800Z AUTO 35002KT 1 1/2SM 18/17 A3009 RMK T01800170 IEM_DS3505
ZGHA,2008-10-18 20:00,ZGHA 182000Z AUTO 32004KT 1SM 18/17 A3009 RMK T01800170 IEM_DS3505
ZGHA,2008-10-18 21:00,ZGHA 182100Z AUTO 1 1/2SM 18/17 A3009 RMK T01800170 IEM_DS3505
ZGHA,2008-10-18 22:00,ZGHA 182200Z AUTO 33004KT 1SM 18/17 A3009 RMK T01800170 IEM_DS3505
ZGHA,2008-10-18 23:00,ZGHA 182300Z AUTO 1SM 17/17 A3009 RMK T01700170 IEM_DS3505
ZGHA,2008-10-19 00:00,ZGHA 190000Z AUTO 32004KT 1SM 19/18 A3012 RMK T01900180 IEM_DS3505
ZGHA,2008-10-19 01:00,ZGHA 190100Z AUTO 34006KT 1 1/2SM 21/18 A3012 RMK T02100180 IEM_DS3505
ZGHA,2008-10-19 02:00,ZGHA 190200Z AUTO 33004KT 1 1/2SM 22/19 A3012 RMK T02200190 IEM_DS3505
ZGHA,2008-10-19 03:00,ZGHA 190300Z AUTO 34004KT 2 1/2SM 25/19 A3012 RMK T02500190 IEM_DS3505
ZGHA,2008-10-19 04:00,ZGHA 190400Z AUTO 30006KT 4SM 27/20 A3009 RMK T02700200 IEM_DS3505
ZGHA,2008-10-19 05:00,ZGHA 190500Z AUTO 33006KT 3SM 28/19 A3003 RMK T02800190 IEM_DS3505
ZGHA,2008-10-19 06:00,ZGHA 190600Z AUTO 27006KT 4SM 29/20 A3000 RMK T02900200 IEM_DS3505
ZGHA,2008-10-19 07:00,ZGHA 190700Z AUTO 31006KT 4SM 29/20 A3000 RMK T02900200 IEM_DS3505
ZGHA,2008-10-19 08:00,ZGHA 190800Z AUTO 32008KT 4SM 28/20 A3000 RMK T02800200 IEM_DS3505
ZGHA,2008-10-19 09:00,ZGHA 190900Z AUTO 30008KT 3SM 27/21 A3000 RMK T02700210 IEM_DS3505
ZGHA,2008-10-19 10:00,ZGHA 191000Z AUTO 32006KT 1 1/2SM 25/20 A3000 RMK T02500200 IEM_DS3505
ZGHA,2008-10-19 11:00,ZGHA 191100Z AUTO 34006KT 1 1/2SM 24/20 A3000 RMK T02400200 IEM_DS3505
ZGHA,2008-10-19 12:00,ZGHA 191200Z AUTO 36004KT 2SM 23/19 A3003 RMK T02300190 IEM_DS3505
ZGHA,2008-10-19 13:00,ZGHA 191300Z AUTO 1 1/2SM 22/19 A3003 RMK T02200190 IEM_DS3505
ZGHA,2008-10-19 14:00,ZGHA 191400Z AUTO 35002KT 2SM 21/18 A3003 RMK T02100180 IEM_DS3505
ZGHA,2008-10-19 15:00,ZGHA 191500Z AUTO 34002KT 2SM 21/18 A3003 RMK T02100180 IEM_DS3505
ZGHA,2008-10-19 16:00,ZGHA 191600Z AUTO 2SM 20/18 A3003 RMK T02000180 IEM_DS3505
ZGHA,2008-10-19 17:00,ZGHA 191700Z AUTO 34004KT 2SM 20/18 A3003 RMK T02000180 IEM_DS3505
ZGHA,2008-10-19 18:00,ZGHA 191800Z AUTO 35002KT 1SM 19/18 A3003 RMK T01900180 IEM_DS3505
ZGHA,2008-10-19 19:00,ZGHA 191900Z AUTO 35002KT 1SM 20/18 A3003 RMK T02000180 IEM_DS3505
ZGHA,2008-10-19 20:00,ZGHA 192000Z AUTO 32004KT 1SM 20/19 A3000 RMK T02000190 IEM_DS3505
ZGHA,2008-10-19 21:00,ZGHA 192100Z AUTO 34004KT 1 1/2SM 19/18 A3000 RMK T01900180 IEM_DS3505
ZGHA,2008-10-19 22:00,ZGHA 192200Z AUTO 00000KT 1 1/4SM 18/18 A3000 RMK T01800180 IEM_DS3505
ZGHA,2008-10-19 23:00,ZGHA 192300Z AUTO 34002KT 1SM 18/18 A3003 RMK T01800180 IEM_DS3505
ZGHA,2008-10-20 00:00,ZGHA 200000Z AUTO 00000KT 1SM 20/19 A3003 RMK T02000190 IEM_DS3505
ZGHA,2008-10-20 01:00,ZGHA 200100Z AUTO 1SM 23/21 A3003 RMK T02300210 IEM_DS3505
ZGHA,2008-10-20 02:00,ZGHA 200200Z AUTO 2SM 26/20 A3003 RMK T02600200 IEM_DS3505
ZGHA,2008-10-20 03:00,ZGHA 200300Z AUTO 3SM 27/21 A3003 RMK T02700210 IEM_DS3505
ZGHA,2008-10-20 04:00,ZGHA 200400Z AUTO 4SM 28/20 A3000 RMK T02800200 IEM_DS3505
ZGHA,2008-10-20 05:00,ZGHA 200500Z AUTO 18006KT 4SM 29/22 A2997 RMK T02900220 IEM_DS3505
ZGHA,2008-10-20 06:00,ZGHA 200600Z AUTO 5SM 30/21 A2994 RMK T03000210 IEM_DS3505
ZGHA,2008-10-20 07:00,ZGHA 200700Z AUTO 13004KT 5SM 30/21 A2991 RMK T03000210 IEM_DS3505
ZGHA,2008-10-20 08:00,ZGHA 200800Z AUTO 4SM 30/21 A2991 RMK T03000210 IEM_DS3505
ZGHA,2008-10-20 09:00,ZGHA 200900Z AUTO 00000KT 4SM 30/21 A2988 RMK T03000210 IEM_DS3505
ZGHA,2008-10-20 10:00,ZGHA 201000Z AUTO 00000KT 2 1/2SM 28/21 A2988 RMK T02800210 IEM_DS3505
ZGHA,2008-10-20 11:00,ZGHA 201100Z AUTO 00000KT 1 1/2SM 25/21 A2991 RMK T02500210 IEM_DS3505
ZGHA,2008-10-20 12:00,ZGHA 201200Z AUTO 00000KT 1 1/2SM 24/21 A2991 RMK T02400210 IEM_DS3505
ZGHA,2008-10-20 13:00,ZGHA 201300Z AUTO 00000KT 1SM 23/21 A2991 RMK T02300210 IEM_DS3505
ZGHA,2008-10-20 14:00,ZGHA 201400Z AUTO 00000KT 1SM 23/21 A2991 RMK T02300210 IEM_DS3505
ZGHA,2008-10-20 15:00,ZGHA 201500Z AUTO 00000KT 1SM 23/21 A2991 RMK T02300210 IEM_DS3505
ZGHA,2008-10-20 16:00,ZGHA 201600Z AUTO 00000KT 1SM 22/21 A2991 RMK T02200210 IEM_DS3505
ZGHA,2008-10-20 17:00,ZGHA 201700Z AUTO 00000KT 1SM 22/21 A2991 RMK T02200210 IEM_DS3505
ZGHA,2008-10-20 18:00,ZGHA 201800Z AUTO 00000KT 1/2SM 21/21 A2991 RMK T02100210 IEM_DS3505
ZGHA,2008-10-20 21:00,ZGHA 202100Z AUTO 00000KT 1SM 21/21 A2988 RMK T02100210 IEM_DS3505
ZGHA,2008-10-20 22:00,ZGHA 202200Z AUTO 28004KT 1 1/4SM 22/21 A2991 RMK T02200210 IEM_DS3505
ZGHA,2008-10-20 23:00,ZGHA 202300Z AUTO 1 1/2SM 22/21 A2991 RMK T02200210 IEM_DS3505
ZGHA,2008-10-21 00:00,ZGHA 210000Z AUTO 2SM 23/22 A2994 RMK T02300220 IEM_DS3505
ZGHA,2008-10-21 01:00,ZGHA 210100Z AUTO 19004KT 2 1/2SM 24/22 A2994 RMK T02400220 IEM_DS3505
ZGHA,2008-10-21 02:00,ZGHA 210200Z AUTO 19006KT 4SM 27/22 A2994 RMK T02700220 IEM_DS3505
ZGHA,2008-10-21 03:00,ZGHA 210300Z AUTO 20008KT 5SM 29/22 A2994 RMK T02900220 IEM_DS3505
ZGHA,2008-10-21 04:00,ZGHA 210400Z AUTO 30010KT 1SM 27/22 A2991 RMK T02700220 IEM_DS3505
ZGHA,2008-10-21 05:00,ZGHA 210500Z AUTO 29010KT 1SM 25/22 A2991 RMK T02500220 IEM_DS3505
ZGHA,2008-10-21 06:00,ZGHA 210600Z AUTO 30008KT 1SM 24/21 A2988 RMK T02400210 IEM_DS3505
ZGHA,2008-10-21 07:00,ZGHA 210700Z AUTO 33008KT 1SM 25/22 A2988 RMK T02500220 IEM_DS3505
ZGHA,2008-10-21 08:00,ZGHA 210800Z AUTO 02004KT 1SM 24/22 A2988 RMK T02400220 IEM_DS3505
ZGHA,2008-10-21 09:00,ZGHA 210900Z AUTO 36006KT 1SM 25/22 A2988 RMK T02500220 IEM_DS3505
ZGHA,2008-10-21 10:00,ZGHA 211000Z AUTO 36008KT 1SM 24/22 A2988 RMK T02400220 IEM_DS3505
ZGHA,2008-10-21 11:00,ZGHA 211100Z AUTO 35006KT 1SM 23/22 A2988 RMK T02300220 IEM_DS3505
ZGHA,2008-10-21 12:00,ZGHA 211200Z AUTO 35006KT 1SM 23/21 A2988 RMK T02300210 IEM_DS3505
ZGHA,2008-10-21 13:00,ZGHA 211300Z AUTO 33008KT 1 1/4SM 22/21 A2991 RMK T02200210 IEM_DS3505
ZGHA,2008-10-21 14:00,ZGHA 211400Z AUTO 35004KT 1 1/2SM 22/21 A2991 RMK T02200210 IEM_DS3505
ZGHA,2008-10-21 15:00,ZGHA 211500Z AUTO 34006KT 1 1/2SM 22/21 A2991 RMK T02200210 IEM_DS3505
ZGHA,2008-10-21 16:00,ZGHA 211600Z AUTO 32006KT 1 1/2SM 21/21 A2991 RMK T02100210 IEM_DS3505
ZGHA,2008-10-21 17:00,ZGHA 211700Z AUTO 32006KT 1 1/2SM 21/20 A2991 RMK T02100200 IEM_DS3505
ZGHA,2008-10-21 18:00,ZGHA 211800Z AUTO 30006KT 1SM 21/20 A2991 RMK T02100200 IEM_DS3505
ZGHA,2008-10-21 19:00,ZGHA 211900Z AUTO 32006KT 1SM 21/20 A2991 RMK T02100200 IEM_DS3505
ZGHA,2008-10-21 20:00,ZGHA 212000Z AUTO 30006KT 1SM 20/20 A2988 RMK T02000200 IEM_DS3505
ZGHA,2008-10-21 21:00,ZGHA 212100Z AUTO 30006KT 1 1/2SM 20/20 A2991 RMK T02000200 IEM_DS3505
ZGHA,2008-10-21 22:00,ZGHA 212200Z AUTO 30004KT 1 1/4SM 20/20 A2991 RMK T02000200 IEM_DS3505
ZGHA,2008-10-21 23:00,ZGHA 212300Z AUTO 32004KT 1SM 21/20 A2991 RMK T02100200 IEM_DS3505
ZGHA,2008-10-22 00:00,ZGHA 220000Z AUTO 00000KT 1SM 21/21 A2994 RMK T02100210 IEM_DS3505
ZGHA,2008-10-22 01:00,ZGHA 220100Z AUTO 28004KT 1SM 21/20 A2994 RMK T02100200 IEM_DS3505
ZGHA,2008-10-22 02:00,ZGHA 220200Z AUTO 27004KT 1SM 21/20 A2997 RMK T02100200 IEM_DS3505
ZGHA,2008-10-22 03:00,ZGHA 220300Z AUTO 28004KT 1 1/4SM 22/21 A2994 RMK T02200210 IEM_DS3505
ZGHA,2008-10-22 04:00,ZGHA 220400Z AUTO 30004KT 1 1/4SM 22/21 A2991 RMK T02200210 IEM_DS3505
ZGHA,2008-10-22 05:00,ZGHA 220500Z AUTO 29004KT 1 1/4SM 22/21 A2988 RMK T02200210 IEM_DS3505
ZGHA,2008-10-22 06:00,ZGHA 220600Z AUTO 27004KT 1 1/4SM 22/21 A2988 RMK T02200210 IEM_DS3505
ZGHA,2008-10-22 07:00,ZGHA 220700Z AUTO 30006KT 1 1/2SM 22/21 A2988 RMK T02200210 IEM_DS3505
ZGHA,2008-10-22 08:00,ZGHA 220800Z AUTO 33004KT 1 1/4SM 22/21 A2988 RMK T02200210 IEM_DS3505
ZGHA,2008-10-22 09:00,ZGHA 220900Z AUTO 33006KT 1SM 21/21 A2988 RMK T02100210 IEM_DS3505
ZGHA,2008-10-22 10:00,ZGHA 221000Z AUTO 32006KT 1 1/4SM 21/21 A2991 RMK T02100210 IEM_DS3505
ZGHA,2008-10-22 11:00,ZGHA 221100Z AUTO 32004KT 1SM 21/20 A2991 RMK T02100200 IEM_DS3505
ZGHA,2008-10-22 12:00,ZGHA 221200Z AUTO 33006KT 1SM 20/20 A2997 RMK T02000200 IEM_DS3505
ZGHA,2008-10-22 13:00,ZGHA 221300Z AUTO 35010KT 2SM 20/19 A3000 RMK T02000190 IEM_DS3505
ZGHA,2008-10-22 15:00,ZGHA 221500Z AUTO 35010KT 5SM 20/20 A3003 RMK T02000200 IEM_DS3505
ZGHA,2008-10-22 16:00,ZGHA 221600Z AUTO 34014KT 5SM 19/19 A3003 RMK T01900190 IEM_DS3505
ZGHA,2008-10-22 17:00,ZGHA 221700Z AUTO 34010KT 4SM 19/18 A3003 RMK T01900180 IEM_DS3505
ZGHA,2008-10-22 18:00,ZGHA 221800Z AUTO 34012KT 5SM 18/18 A3003 RMK T01800180 IEM_DS3505
ZGHA,2008-10-22 19:00,ZGHA 221900Z AUTO 34014G23KT 5SM 18/17 A3006 RMK T01800170 IEM_DS3505
ZGHA,2008-10-22 20:00,ZGHA 222000Z AUTO 34012KT 5SM 17/17 A3006 RMK T01700170 IEM_DS3505
ZGHA,2008-10-22 21:00,ZGHA 222100Z AUTO 35010KT 5SM 17/16 A3006 RMK T01700160 IEM_DS3505
ZGHA,2008-10-22 22:00,ZGHA 222200Z AUTO 36014KT 5SM 17/15 A3009 RMK T01700150 IEM_DS3505
ZGHA,2008-10-22 23:00,ZGHA 222300Z AUTO 35010KT 7SM 17/15 A3012 RMK T01700150 IEM_DS3505
ZGHA,2008-10-23 00:00,ZGHA 230000Z AUTO 35010KT 6SM 17/14 A3015 RMK T01700140 IEM_DS3505
ZGHA,2008-10-23 01:00,ZGHA 230100Z AUTO 36010KT 6SM 18/14 A3018 RMK T01800140 IEM_DS3505
ZGHA,2008-10-23 02:00,ZGHA 230200Z AUTO 35010KT 6SM 19/14 A3018 RMK T01900140 IEM_DS3505
ZGHA,2008-10-23 03:00,ZGHA 230300Z AUTO 01010KT 6SM 21/12 A3021 RMK T02100120 IEM_DS3505
ZGHA,2008-10-23 04:00,ZGHA 230400Z AUTO 03008KT 6SM 21/14 A3018 RMK T02100140 IEM_DS3505
ZGHA,2008-10-23 05:00,ZGHA 230500Z AUTO 33008KT 6SM 23/13 A3015 RMK T02300130 IEM_DS3505
ZGHA,2008-10-23 06:00,ZGHA 230600Z AUTO 36008KT 6SM 23/11 A3015 RMK T02300110 IEM_DS3505
ZGHA,2008-10-23 07:00,ZGHA 230700Z AUTO 31010KT 6SM 24/13 A3012 RMK T02400130 IEM_DS3505
ZGHA,2008-10-23 08:00,ZGHA 230800Z AUTO 34008KT 6SM 23/13 A3012 RMK T02300130 IEM_DS3505
ZGHA,2008-10-23 09:00,ZGHA 230900Z AUTO 34008KT 6SM 22/11 A3015 RMK T02200110 IEM_DS3505
ZGHA,2008-10-23 10:00,ZGHA 231000Z AUTO 36006KT 6SM 20/12 A3015 RMK T02000120 IEM_DS3505
ZGHA,2008-10-23 11:00,ZGHA 231100Z AUTO 35006KT 6SM 19/11 A3015 RMK T01900110 IEM_DS3505
ZGHA,2008-10-23 12:00,ZGHA 231200Z AUTO 34004KT 6SM 18/11 A3018 RMK T01800110 IEM_DS3505
ZGHA,2008-10-23 13:00,ZGHA 231300Z AUTO 02004KT 6SM 17/11 A3018 RMK T01700110 IEM_DS3505
ZGHA,2008-10-23 14:00,ZGHA 231400Z AUTO 01004KT 6SM 16/11 A3021 RMK T01600110 IEM_DS3505
ZGHA,2008-10-23 15:00,ZGHA 231500Z AUTO 01004KT 6SM 16/12 A3021 RMK T01600120 IEM_DS3505
ZGHA,2008-10-23 16:00,ZGHA 231600Z AUTO 7SM 16/12 A3024 RMK T01600120 IEM_DS3505
ZGHA,2008-10-23 17:00,ZGHA 231700Z AUTO 36004KT 7SM 16/11 A3021 RMK T01600110 IEM_DS3505
ZGHA,2008-10-23 18:00,ZGHA 231800Z AUTO 01004KT 6SM 15/11 A3024 RMK T01500110 IEM_DS3505
ZGHA,2008-10-23 19:00,ZGHA 231900Z AUTO 01004KT 7SM 15/11 A3021 RMK T01500110 IEM_DS3505
ZGHA,2008-10-23 20:00,ZGHA 232000Z AUTO 36004KT 6SM 15/10 A3024 RMK T01500100 IEM_DS3505
ZGHA,2008-10-23 21:00,ZGHA 232100Z AUTO 7SM 14/10 A3024 RMK T01400100 IEM_DS3505
ZGHA,2008-10-23 22:00,ZGHA 232200Z AUTO 02004KT 6SM 15/10 A3024 RMK T01500100 IEM_DS3505
ZGHA,2008-10-23 23:00,ZGHA 232300Z AUTO 01004KT 7SM 15/10 A3027 RMK T01500100 IEM_DS3505
ZGHA,2008-10-24 00:00,ZGHA 240000Z AUTO 36002KT 7SM 15/10 A3030 RMK T01500100 IEM_DS3505
ZGHA,2008-10-24 01:00,ZGHA 240100Z AUTO 34006KT 6SM 17/09 A3033 RMK T01700090 IEM_DS3505
ZGHA,2008-10-24 02:00,ZGHA 240200Z AUTO 02004KT 6SM 18/08 A3030 RMK T01800080 IEM_DS3505
ZGHA,2008-10-24 03:00,ZGHA 240300Z AUTO 6SM 18/09 A3030 RMK T01800090 IEM_DS3505
ZGHA,2008-10-24 04:00,ZGHA 240400Z AUTO 33004KT 6SM 19/10 A3030 RMK T01900100 IEM_DS3505
ZGHA,2008-10-24 05:00,ZGHA 240500Z AUTO 33004KT 6SM 19/10 A3027 RMK T01900100 IEM_DS3505
ZGHA,2008-10-24 06:00,ZGHA 240600Z AUTO 34008KT 6SM 18/10 A3027 RMK T01800100 IEM_DS3505
ZGHA,2008-10-24 07:00,ZGHA 240700Z AUTO 36004KT 7SM 18/10 A3027 RMK T01800100 IEM_DS3505
ZGHA,2008-10-24 08:00,ZGHA 240800Z AUTO 34004KT 6SM 17/09 A3024 RMK T01700090 IEM_DS3505
ZGHA,2008-10-24 09:00,ZGHA 240900Z AUTO 7SM 17/10 A3024 RMK T01700100 IEM_DS3505
ZGHA,2008-10-24 10:00,ZGHA 241000Z AUTO 30004KT 7SM 16/12 A3027 RMK T01600120 IEM_DS3505
ZGHA,2008-10-24 11:00,ZGHA 241100Z AUTO 7SM 15/13 A3027 RMK T01500130 IEM_DS3505
ZGHA,2008-10-24 12:00,ZGHA 241200Z AUTO 27004KT 3SM 14/12 A3030 RMK T01400120 IEM_DS3505
ZGHA,2008-10-24 13:00,ZGHA 241300Z AUTO 32004KT 2 1/2SM 14/13 A3030 RMK T01400130 IEM_DS3505
ZGHA,2008-10-24 14:00,ZGHA 241400Z AUTO 3SM 14/13 A3030 RMK T01400130 IEM_DS3505
ZGHA,2008-10-24 15:00,ZGHA 241500Z AUTO 2 1/2SM 14/13 A3030 RMK T01400130 IEM_DS3505
ZGHA,2008-10-24 16:00,ZGHA 241600Z AUTO 00000KT 1 1/2SM 14/14 A3027 RMK T01400140 IEM_DS3505
ZGHA,2008-10-24 17:00,ZGHA 241700Z AUTO 00000KT 1SM 14/13 A3024 RMK T01400130 IEM_DS3505
ZGHA,2008-10-24 18:00,ZGHA 241800Z AUTO 24004KT 1SM 14/14 A3027 RMK T01400140 IEM_DS3505
ZGHA,2008-10-24 19:00,ZGHA 241900Z AUTO 00000KT 1SM RMK IEM_DS3505
ZGHA,2008-10-24 20:00,ZGHA 242000Z AUTO 30002KT 1SM 14/13 A3024 RMK T01400130 IEM_DS3505
ZGHA,2008-10-24 21:00,ZGHA 242100Z AUTO 34004KT 1 1/2SM 13/13 A3024 RMK T01300130 IEM_DS3505
ZGHA,2008-10-24 22:00,ZGHA 242200Z AUTO 30004KT 1 1/2SM 13/12 A3024 RMK T01300120 IEM_DS3505
ZGHA,2008-10-24 23:00,ZGHA 242300Z AUTO 1SM 13/13 A3024 RMK T01300130 IEM_DS3505
ZGHA,2008-10-25 00:00,ZGHA 250000Z AUTO 1 1/2SM 13/12 A3027 RMK T01300120 IEM_DS3505
ZGHA,2008-10-25 01:00,ZGHA 250100Z AUTO 35004KT 2SM 13/13 A3027 RMK T01300130 IEM_DS3505
ZGHA,2008-10-25 02:00,ZGHA 250200Z AUTO 34004KT 2SM 13/13 A3027 RMK T01300130 IEM_DS3505
ZGHA,2008-10-25 03:00,ZGHA 250300Z AUTO 34006KT 1 1/2SM 13/12 A3027 RMK T01300120 IEM_DS3505
ZGHA,2008-10-25 04:00,ZGHA 250400Z AUTO 34004KT 2SM 13/12 A3027 RMK T01300120 IEM_DS3505
ZGHA,2008-10-25 05:00,ZGHA 250500Z AUTO 2 1/2SM 13/13 A3021 RMK T01300130 IEM_DS3505
ZGHA,2008-10-25 06:00,ZGHA 250600Z AUTO 2SM 13/13 A3018 RMK T01300130 IEM_DS3505
ZGHA,2008-10-25 07:00,ZGHA 250700Z AUTO 00000KT 1 1/2SM 13/13 A3018 RMK T01300130 IEM_DS3505
ZGHA,2008-10-25 08:00,ZGHA 250800Z AUTO 00000KT 2SM 13/13 A3018 RMK T01300130 IEM_DS3505
ZGHA,2008-10-25 09:00,ZGHA 250900Z AUTO 32006KT 3SM 13/13 A3018 RMK T01300130 IEM_DS3505
ZGHA,2008-10-25 10:00,ZGHA 251000Z AUTO 33006KT 2SM 13/13 A3021 RMK T01300130 IEM_DS3505
ZGHA,2008-10-25 11:00,ZGHA 251100Z AUTO 32006KT 2SM 13/13 A3021 RMK T01300130 IEM_DS3505
ZGHA,2008-10-25 12:00,ZGHA 251200Z AUTO 2 1/2SM 14/13 A3024 RMK T01400130 IEM_DS3505
ZGHA,2008-10-25 13:00,ZGHA 251300Z AUTO 32004KT 3SM 13/13 A3024 RMK T01300130 IEM_DS3505
ZGHA,2008-10-25 14:00,ZGHA 251400Z AUTO 29004KT 2 1/2SM 13/13 A3024 RMK T01300130 IEM_DS3505
ZGHA,2008-10-25 15:00,ZGHA 251500Z AUTO 00000KT 2 1/2SM 13/13 A3024 RMK T01300130 IEM_DS3505
ZGHA,2008-10-25 16:00,ZGHA 251600Z AUTO 30006KT 1 1/4SM 13/13 A3024 RMK T01300130 IEM_DS3505
ZGHA,2008-10-25 17:00,ZGHA 251700Z AUTO 30006KT 1 1/2SM 13/13 A3024 RMK T01300130 IEM_DS3505
ZGHA,2008-10-25 18:00,ZGHA 251800Z AUTO 32004KT 1 1/4SM 13/13 A3024 RMK T01300130 IEM_DS3505
ZGHA,2008-10-25 19:00,ZGHA 251900Z AUTO 32002KT 1 1/2SM 13/13 A3024 RMK T01300130 IEM_DS3505
ZGHA,2008-10-25 20:00,ZGHA 252000Z AUTO 30004KT 4SM 13/13 A3021 RMK T01300130 IEM_DS3505
ZGHA,2008-10-25 21:00,ZGHA 252100Z AUTO 30004KT 2 1/2SM 13/13 A3021 RMK T01300130 IEM_DS3505
ZGHA,2008-10-25 22:00,ZGHA 252200Z AUTO 32002KT 1 1/4SM 13/13 A3024 RMK T01300130 IEM_DS3505
ZGHA,2008-10-25 23:00,ZGHA 252300Z AUTO 33004KT 1 1/2SM 13/13 A3027 RMK T01300130 IEM_DS3505
ZGHA,2008-10-26 00:00,ZGHA 260000Z AUTO 32004KT 4SM 13/13 A3027 RMK T01300130 IEM_DS3505
ZGHA,2008-10-26 01:00,ZGHA 260100Z AUTO 35004KT 5SM 14/14 A3030 RMK T01400140 IEM_DS3505
ZGHA,2008-10-26 02:00,ZGHA 260200Z AUTO 35004KT 7SM 14/14 A3030 RMK T01400140 IEM_DS3505
ZGHA,2008-10-26 03:00,ZGHA 260300Z AUTO 36004KT 7SM 15/15 A3027 RMK T01500150 IEM_DS3505
ZGHA,2008-10-26 04:00,ZGHA 260400Z AUTO 32004KT 7SM 16/15 A3027 RMK T01600150 IEM_DS3505
ZGHA,2008-10-26 05:00,ZGHA 260500Z AUTO 30006KT 7SM 16/15 A3024 RMK T01600150 IEM_DS3505
ZGHA,2008-10-26 06:00,ZGHA 260600Z AUTO 30004KT 7SM 16/15 A3021 RMK T01600150 IEM_DS3505
ZGHA,2008-10-26 07:00,ZGHA 260700Z AUTO 30008KT 7SM 16/15 A3021 RMK T01600150 IEM_DS3505
ZGHA,2008-10-26 08:00,ZGHA 260800Z AUTO 36006KT 4SM 16/15 A3021 RMK T01600150 IEM_DS3505
ZGHA,2008-10-26 09:00,ZGHA 260900Z AUTO 34004KT 5SM 16/14 A3021 RMK T01600140 IEM_DS3505
ZGHA,2008-10-26 10:00,ZGHA 261000Z AUTO 34006KT 5SM 16/14 A3024 RMK T01600140 IEM_DS3505
ZGHA,2008-10-26 11:00,ZGHA 261100Z AUTO 33004KT 4SM 15/15 A3024 RMK T01500150 IEM_DS3505
ZGHA,2008-10-26 12:00,ZGHA 261200Z AUTO 32006KT 3SM 15/15 A3027 RMK T01500150 IEM_DS3505
ZGHA,2008-10-26 13:00,ZGHA 261300Z AUTO 33006KT 3SM 15/14 A3027 RMK T01500140 IEM_DS3505
ZGHA,2008-10-26 14:00,ZGHA 261400Z AUTO 33004KT 4SM 15/15 A3027 RMK T01500150 IEM_DS3505
ZGHA,2008-10-26 15:00,ZGHA 261500Z AUTO 33004KT 4SM 15/14 A3030 RMK T01500140 IEM_DS3505
ZGHA,2008-10-26 16:00,ZGHA 261600Z AUTO 4SM 15/15 A3027 RMK T01500150 IEM_DS3505
ZGHA,2008-10-26 17:00,ZGHA 261700Z AUTO 29002KT 1 1/2SM 15/14 A3027 RMK T01500140 IEM_DS3505
ZGHA,2008-10-26 18:00,ZGHA 261800Z AUTO 34004KT 2 1/2SM 15/15 A3030 RMK T01500150 IEM_DS3505
ZGHA,2008-10-26 20:00,ZGHA 262000Z AUTO 33002KT 2 1/2SM 15/14 A3027 RMK T01500140 IEM_DS3505
ZGHA,2008-10-26 21:00,ZGHA 262100Z AUTO 2 1/2SM 15/14 A3027 RMK T01500140 IEM_DS3505
ZGHA,2008-10-26 22:00,ZGHA 262200Z AUTO 00000KT 2SM 15/14 A3027 RMK T01500140 IEM_DS3505
ZGHA,2008-10-26 23:00,ZGHA 262300Z AUTO 3SM 15/14 A3030 RMK T01500140 IEM_DS3505
ZGHA,2008-10-27 00:00,ZGHA 270000Z AUTO 35004KT 4SM 16/15 A3030 RMK T01600150 IEM_DS3505
ZGHA,2008-10-27 01:00,ZGHA 270100Z AUTO 5SM 17/16 A3033 RMK T01700160 IEM_DS3505
ZGHA,2008-10-27 02:00,ZGHA 270200Z AUTO 00000KT 5SM 17/16 A3033 RMK T01700160 IEM_DS3505
ZGHA,2008-10-27 03:00,ZGHA 270300Z AUTO 7SM 19/16 A3030 RMK T01900160 IEM_DS3505
ZGHA,2008-10-27 04:00,ZGHA 270400Z AUTO 7SM 21/15 A3027 RMK T02100150 IEM_DS3505
ZGHA,2008-10-27 05:00,ZGHA 270500Z AUTO 35004KT 6SM 23/16 A3024 RMK T02300160 IEM_DS3505
ZGHA,2008-10-27 06:00,ZGHA 270600Z AUTO 35004KT 6SM 23/14 A3021 RMK T02300140 IEM_DS3505
ZGHA,2008-10-27 07:00,ZGHA 270700Z AUTO 00000KT 6SM 24/14 A3018 RMK T02400140 IEM_DS3505
ZGHA,2008-10-27 08:00,ZGHA 270800Z AUTO 6SM 24/14 A3018 RMK T02400140 IEM_DS3505
ZGHA,2008-10-27 09:00,ZGHA 270900Z AUTO 6SM 23/13 A3018 RMK T02300130 IEM_DS3505
ZGHA,2008-10-27 10:00,ZGHA 271000Z AUTO 30006KT 6SM 21/14 A3018 RMK T02100140 IEM_DS3505
ZGHA,2008-10-27 11:00,ZGHA 271100Z AUTO 31006KT 6SM 20/16 A3018 RMK T02000160 IEM_DS3505
ZGHA,2008-10-27 12:00,ZGHA 271200Z AUTO 29004KT 6SM 19/16 A3021 RMK T01900160 IEM_DS3505
ZGHA,2008-10-27 13:00,ZGHA 271300Z AUTO 00000KT 5SM 18/16 A3021 RMK T01800160 IEM_DS3505
ZGHA,2008-10-27 14:00,ZGHA 271400Z AUTO 00000KT 4SM 18/16 A3021 RMK T01800160 IEM_DS3505
ZGHA,2008-10-27 15:00,ZGHA 271500Z AUTO 4SM 18/17 A3018 RMK T01800170 IEM_DS3505
ZGHA,2008-10-27 16:00,ZGHA 271600Z AUTO 4SM 18/17 A3018 RMK T01800170 IEM_DS3505
ZGHA,2008-10-27 17:00,ZGHA 271700Z AUTO 00000KT 2 1/2SM 18/17 A3015 RMK T01800170 IEM_DS3505
ZGHA,2008-10-27 18:00,ZGHA 271800Z AUTO 00000KT 2SM 17/17 A3015 RMK T01700170 IEM_DS3505
ZGHA,2008-10-27 19:00,ZGHA 271900Z AUTO 19004KT 2SM 17/17 A3012 RMK T01700170 IEM_DS3505
ZGHA,2008-10-27 20:00,ZGHA 272000Z AUTO 18004KT 3SM 17/16 A3012 RMK T01700160 IEM_DS3505
ZGHA,2008-10-27 21:00,ZGHA 272100Z AUTO 18004KT 4SM 16/15 A3009 RMK T01600150 IEM_DS3505
ZGHA,2008-10-27 22:00,ZGHA 272200Z AUTO 16004KT 4SM 16/15 A3009 RMK T01600150 IEM_DS3505
ZGHA,2008-10-27 23:00,ZGHA 272300Z AUTO 17004KT 3SM 15/15 A3012 RMK T01500150 IEM_DS3505
ZGHA,2008-10-28 00:00,ZGHA 280000Z AUTO 19004KT 4SM 17/16 A3012 RMK T01700160 IEM_DS3505
ZGHA,2008-10-28 01:00,ZGHA 280100Z AUTO 5SM 21/15 A3012 RMK T02100150 IEM_DS3505
ZGHA,2008-10-28 02:00,ZGHA 280200Z AUTO 6SM 22/14 A3012 RMK T02200140 IEM_DS3505
ZGHA,2008-10-28 03:00,ZGHA 280300Z AUTO 18004KT 5SM 23/15 A3009 RMK T02300150 IEM_DS3505
ZGHA,2008-10-28 04:00,ZGHA 280400Z AUTO 21008KT 5SM 24/16 A3006 RMK T02400160 IEM_DS3505
ZGHA,2008-10-28 05:00,ZGHA 280500Z AUTO 21004KT 5SM 25/18 A3003 RMK T02500180 IEM_DS3505
ZGHA,2008-10-28 06:00,ZGHA 280600Z AUTO 00000KT 6SM 26/16 A3000 RMK T02600160 IEM_DS3505
ZGHA,2008-10-28 07:00,ZGHA 280700Z AUTO 6SM 26/17 A2997 RMK T02600170 IEM_DS3505
ZGHA,2008-10-28 08:00,ZGHA 280800Z AUTO 6SM 26/18 A2994 RMK T02600180 IEM_DS3505
ZGHA,2008-10-28 09:00,ZGHA 280900Z AUTO 6SM 26/18 A2994 RMK T02600180 IEM_DS3505
ZGHA,2008-10-28 10:00,ZGHA 281000Z AUTO 00000KT 6SM 23/18 A2994 RMK T02300180 IEM_DS3505
ZGHA,2008-10-28 11:00,ZGHA 281100Z AUTO 00000KT 3SM 21/18 A2997 RMK T02100180 IEM_DS3505
ZGHA,2008-10-28 12:00,ZGHA 281200Z AUTO 36002KT 2 1/2SM 20/18 A2997 RMK T02000180 IEM_DS3505
ZGHA,2008-10-28 13:00,ZGHA 281300Z AUTO 00000KT 2SM 19/18 A3000 RMK T01900180 IEM_DS3505
ZGHA,2008-10-28 14:00,ZGHA 281400Z AUTO 2 1/2SM 19/18 A3000 RMK T01900180 IEM_DS3505
ZGHA,2008-10-28 15:00,ZGHA 281500Z AUTO 00000KT 2 1/2SM 18/17 A3000 RMK T01800170 IEM_DS3505
ZGHA,2008-10-28 16:00,ZGHA 281600Z AUTO 2 1/2SM 19/18 A3000 RMK T01900180 IEM_DS3505
ZGHA,2008-10-28 17:00,ZGHA 281700Z AUTO 05002KT 4SM 19/17 A2997 RMK T01900170 IEM_DS3505
ZGHA,2008-10-28 18:00,ZGHA 281800Z AUTO 00000KT 6SM 18/16 A2997 RMK T01800160 IEM_DS3505
ZGHA,2008-10-28 21:00,ZGHA 282100Z AUTO 33006KT 3SM 17/16 A2994 RMK T01700160 IEM_DS3505
ZGHA,2008-10-28 22:00,ZGHA 282200Z AUTO 2SM 17/16 A2997 RMK T01700160 IEM_DS3505
ZGHA,2008-10-28 23:00,ZGHA 282300Z AUTO 00000KT 2 1/2SM 17/16 A3000 RMK T01700160 IEM_DS3505
ZGHA,2008-10-29 00:00,ZGHA 290000Z AUTO 00000KT 3SM 18/17 A3003 RMK T01800170 IEM_DS3505
ZGHA,2008-10-29 01:00,ZGHA 290100Z AUTO 34004KT 4SM 18/16 A3003 RMK T01800160 IEM_DS3505
ZGHA,2008-10-29 02:00,ZGHA 290200Z AUTO 30006KT 2 1/2SM 19/17 A3006 RMK T01900170 IEM_DS3505
ZGHA,2008-10-29 03:00,ZGHA 290300Z AUTO 29008KT 2SM 19/17 A3006 RMK T01900170 IEM_DS3505
ZGHA,2008-10-29 04:00,ZGHA 290400Z AUTO 29010KT 1 1/2SM 19/16 A3003 RMK T01900160 IEM_DS3505
ZGHA,2008-10-29 05:00,ZGHA 290500Z AUTO 30008KT 1 1/2SM 19/17 A3003 RMK T01900170 IEM_DS3505
ZGHA,2008-10-29 06:00,ZGHA 290600Z AUTO 34008KT 2SM 20/17 A3000 RMK T02000170 IEM_DS3505
ZGHA,2008-10-29 07:00,ZGHA 290700Z AUTO 34006KT 2 1/2SM 20/17 A3003 RMK T02000170 IEM_DS3505
ZGHA,2008-10-29 08:00,ZGHA 290800Z AUTO 34010KT 2SM 19/17 A3003 RMK T01900170 IEM_DS3505
ZGHA,2008-10-29 09:00,ZGHA 290900Z AUTO 33010KT 1 1/2SM 18/16 A3006 RMK T01800160 IEM_DS3505
ZGHA,2008-10-29 10:00,ZGHA 291000Z AUTO 35006KT 1 1/2SM 17/16 A3006 RMK T01700160 IEM_DS3505
ZGHA,2008-10-29 11:00,ZGHA 291100Z AUTO 34008KT 2SM 17/16 A3006 RMK T01700160 IEM_DS3505
ZGHA,2008-10-29 12:00,ZGHA 291200Z AUTO 34008KT 2SM 17/16 A3009 RMK T01700160 IEM_DS3505
ZGHA,2008-10-29 13:00,ZGHA 291300Z AUTO 33006KT 3SM 17/16 A3012 RMK T01700160 IEM_DS3505
ZGHA,2008-10-29 14:00,ZGHA 291400Z AUTO 33012KT 3SM 17/16 A3012 RMK T01700160 IEM_DS3505
ZGHA,2008-10-29 15:00,ZGHA 291500Z AUTO 34008KT 3SM 17/16 A3012 RMK T01700160 IEM_DS3505
ZGHA,2008-10-29 16:00,ZGHA 291600Z AUTO 34008KT 3SM 17/16 A3012 RMK T01700160 IEM_DS3505
ZGHA,2008-10-29 17:00,ZGHA 291700Z AUTO 33006KT 3SM 17/16 A3009 RMK T01700160 IEM_DS3505
ZGHA,2008-10-29 18:00,ZGHA 291800Z AUTO 34006KT 3SM 17/16 A3009 RMK T01700160 IEM_DS3505
ZGHA,2008-10-29 19:00,ZGHA 291900Z AUTO 34004KT 1 1/2SM 16/16 A3009 RMK T01600160 IEM_DS3505
ZGHA,2008-10-29 20:00,ZGHA 292000Z AUTO 34004KT 1 1/2SM 16/16 A3009 RMK T01600160 IEM_DS3505
ZGHA,2008-10-29 22:00,ZGHA 292200Z AUTO 34008KT 1 1/4SM 16/16 A3012 RMK T01600160 IEM_DS3505
ZGHA,2008-10-29 23:00,ZGHA 292300Z AUTO 1SM 16/16 A3012 RMK T01600160 IEM_DS3505
ZGHA,2008-10-30 00:00,ZGHA 300000Z AUTO 31004KT 1SM 16/16 A3015 RMK T01600160 IEM_DS3505
ZGHA,2008-10-30 01:00,ZGHA 300100Z AUTO 35004KT 2SM 17/16 A3018 RMK T01700160 IEM_DS3505
ZGHA,2008-10-30 02:00,ZGHA 300200Z AUTO 33006KT 1 1/2SM 17/16 A3018 RMK T01700160 IEM_DS3505
ZGHA,2008-10-30 03:00,ZGHA 300300Z AUTO 36004KT 1 1/2SM 17/16 A3015 RMK T01700160 IEM_DS3505
ZGHA,2008-10-30 04:00,ZGHA 300400Z AUTO 3SM 17/17 A3012 RMK T01700170 IEM_DS3505
ZGHA,2008-10-30 05:00,ZGHA 300500Z AUTO 34006KT 4SM 18/16 A3012 RMK T01800160 IEM_DS3505
ZGHA,2008-10-30 06:00,ZGHA 300600Z AUTO 34006KT 4SM 18/16 A3009 RMK T01800160 IEM_DS3505
ZGHA,2008-10-30 07:00,ZGHA 300700Z AUTO 36004KT 5SM 18/16 A3009 RMK T01800160 IEM_DS3505
ZGHA,2008-10-30 08:00,ZGHA 300800Z AUTO 34006KT 1 1/2SM 17/16 A3009 RMK T01700160 IEM_DS3505
ZGHA,2008-10-30 09:00,ZGHA 300900Z AUTO 01004KT 1 1/2SM 17/16 A3009 RMK T01700160 IEM_DS3505
ZGHA,2008-10-30 10:00,ZGHA 301000Z AUTO 35006KT 1 1/2SM 17/16 A3012 RMK T01700160 IEM_DS3505
ZGHA,2008-10-30 11:00,ZGHA 301100Z AUTO 32004KT 2SM 17/17 A3012 RMK T01700170 IEM_DS3505
ZGHA,2008-10-30 12:00,ZGHA 301200Z AUTO 35006KT 1 1/2SM 17/16 A3015 RMK T01700160 IEM_DS3505
ZGHA,2008-10-30 14:00,ZGHA 301400Z AUTO 33004KT 1 1/2SM 17/16 A3015 RMK T01700160 IEM_DS3505
ZGHA,2008-10-30 15:00,ZGHA 301500Z AUTO 34006KT 2SM 17/16 A3018 RMK T01700160 IEM_DS3505
ZGHA,2008-10-30 16:00,ZGHA 301600Z AUTO 36004KT 1 1/2SM 17/16 A3015 RMK T01700160 IEM_DS3505
ZGHA,2008-10-30 17:00,ZGHA 301700Z AUTO 36002KT 1 1/2SM 17/16 A3015 RMK T01700160 IEM_DS3505
ZGHA,2008-10-30 18:00,ZGHA 301800Z AUTO 36004KT 1 1/2SM 17/16 A3015 RMK T01700160 IEM_DS3505
ZGHA,2008-10-30 19:00,ZGHA 301900Z AUTO 3SM 16/16 A3012 RMK T01600160 IEM_DS3505
ZGHA,2008-10-30 20:00,ZGHA 302000Z AUTO 2 1/2SM 16/16 A3012 RMK T01600160 IEM_DS3505
ZGHA,2008-10-30 21:00,ZGHA 302100Z AUTO 34006KT 2SM 16/16 A3015 RMK T01600160 IEM_DS3505
ZGHA,2008-10-30 22:00,ZGHA 302200Z AUTO 36004KT 2SM 16/16 A3015 RMK T01600160 IEM_DS3505
ZGHA,2008-10-30 23:00,ZGHA 302300Z AUTO 36004KT 2 1/2SM 16/16 A3015 RMK T01600160 IEM_DS3505
ZGHA,2008-10-31 00:00,ZGHA 310000Z AUTO 00000KT 3SM 16/16 A3018 RMK T01600160 IEM_DS3505
ZGHA,2008-10-31 01:00,ZGHA 310100Z AUTO 4SM 16/16 A3018 RMK T01600160 IEM_DS3505
ZGHA,2008-10-31 02:00,ZGHA 310200Z AUTO 36004KT 5SM 17/17 A3018 RMK T01700170 IEM_DS3505
ZGHA,2008-10-31 03:00,ZGHA 310300Z AUTO 32006KT 7SM 17/17 A3021 RMK T01700170 IEM_DS3505
ZGHA,2008-10-31 04:00,ZGHA 310400Z AUTO 35004KT 4SM 17/17 A3021 RMK T01700170 IEM_DS3505
ZGHA,2008-10-31 05:00,ZGHA 310500Z AUTO 36004KT 5SM 17/17 A3018 RMK T01700170 IEM_DS3505
ZGHA,2008-10-31 06:00,ZGHA 310600Z AUTO 36006KT 5SM 17/17 A3018 RMK T01700170 IEM_DS3505
ZGHA,2008-10-31 07:00,ZGHA 310700Z AUTO 4SM 17/17 A3015 RMK T01700170 IEM_DS3505
ZGHA,2008-10-31 08:00,ZGHA 310800Z AUTO 34004KT 4SM 18/17 A3015 RMK T01800170 IEM_DS3505
ZGHA,2008-10-31 09:00,ZGHA 310900Z AUTO 35004KT 4SM 17/17 A3018 RMK T01700170 IEM_DS3505
ZGHA,2008-10-31 10:00,ZGHA 311000Z AUTO 3SM 17/17 A3015 RMK T01700170 IEM_DS3505
ZGHA,2008-10-31 11:00,ZGHA 311100Z AUTO 2 1/2SM 17/17 A3018 RMK T01700170 IEM_DS3505
ZGHA,2008-10-31 12:00,ZGHA 311200Z AUTO 36004KT 1 1/2SM 17/17 A3018 RMK T01700170 IEM_DS3505
ZGHA,2008-10-31 13:00,ZGHA 311300Z AUTO 1 1/2SM 17/17 A3018 RMK T01700170 IEM_DS3505
ZGHA,2008-10-31 14:00,ZGHA 311400Z AUTO 00000KT 1 1/4SM 17/17 A3018 RMK T01700170 IEM_DS3505
ZGHA,2008-10-31 15:00,ZGHA 311500Z AUTO 33006KT 1 1/2SM 17/17 A3018 RMK T01700170 IEM_DS3505
ZGHA,2008-10-31 16:00,ZGHA 311600Z AUTO 1SM 17/17 A3018 RMK T01700170 IEM_DS3505
ZGHA,2008-10-31 17:00,ZGHA 311700Z AUTO 00000KT 1SM 17/17 A3015 RMK T01700170 IEM_DS3505
ZGHA,2008-10-31 18:00,ZGHA 311800Z AUTO 36002KT 1SM 17/17 A3015 RMK T01700170 IEM_DS3505
ZGHA,2008-10-31 19:00,ZGHA 311900Z AUTO 1SM 17/17 A3012 RMK T01700170 IEM_DS3505
ZGHA,2008-10-31 20:00,ZGHA 312000Z AUTO 1 1/2SM 17/17 A3012 RMK T01700170 IEM_DS3505
ZGHA,2008-10-31 21:00,ZGHA 312100Z AUTO 1SM 17/17 A3012 RMK T01700170 IEM_DS3505
ZGHA,2008-10-31 22:00,ZGHA 312200Z AUTO 36002KT 1 1/4SM 17/17 A3015 RMK T01700170 IEM_DS3505
ZGHA,2008-10-31 23:00,ZGHA 312300Z AUTO 00000KT 1 1/2SM 16/16 A3015 RMK T01600160 IEM_DS3505
ZGHA,2008-11-01 00:00,ZGHA 010000Z AUTO 35002KT 1 1/2SM 16/16 A3018 RMK T01600160 IEM_DS3505
ZGHA,2008-11-01 01:00,ZGHA 010100Z AUTO 00000KT 2 1/2SM 17/17 A3018 RMK T01700170 IEM_DS3505
ZGHA,2008-11-01 02:00,ZGHA 010200Z AUTO 3SM 17/17 A3018 RMK T01700170 IEM_DS3505
ZGHA,2008-11-01 03:00,ZGHA 010300Z AUTO 03004KT 3SM 17/17 A3015 RMK T01700170 IEM_DS3505
ZGHA,2008-11-01 04:00,ZGHA 010400Z AUTO 06004KT 3SM 17/17 A3012 RMK T01700170 IEM_DS3505
ZGHA,2008-11-01 05:00,ZGHA 010500Z AUTO 4SM 17/17 A3012 RMK T01700170 IEM_DS3505
ZGHA,2008-11-01 06:00,ZGHA 010600Z AUTO 4SM 17/ A3009 RMK IEM_DS3505
ZGHA,2008-11-01 07:00,ZGHA 010700Z AUTO 00000KT 4SM 17/17 A3009 RMK T01700170 IEM_DS3505
ZGHA,2008-11-01 08:00,ZGHA 010800Z AUTO 36004KT 3SM 17/17 A3009 RMK T01700170 IEM_DS3505
ZGHA,2008-11-01 09:00,ZGHA 010900Z AUTO 02004KT 4SM 17/17 A3009 RMK T01700170 IEM_DS3505
ZGHA,2008-11-01 10:00,ZGHA 011000Z AUTO 01004KT 3SM 17/17 A3009 RMK T01700170 IEM_DS3505
ZGHA,2008-11-01 11:00,ZGHA 011100Z AUTO 36006KT 3SM 17/17 A3012 RMK T01700170 IEM_DS3505
ZGHA,2008-11-01 12:00,ZGHA 011200Z AUTO 36004KT 3SM 17/17 A3012 RMK T01700170 IEM_DS3505
ZGHA,2008-11-01 13:00,ZGHA 011300Z AUTO 36004KT 3SM 17/17 A3012 RMK T01700170 IEM_DS3505
ZGHA,2008-11-01 14:00,ZGHA 011400Z AUTO 3SM 17/17 A3009 RMK T01700170 IEM_DS3505
ZGHA,2008-11-01 15:00,ZGHA 011500Z AUTO 3SM 17/17 A3009 RMK T01700170 IEM_DS3505
ZGHA,2008-11-01 16:00,ZGHA 011600Z AUTO 31004KT 2 1/2SM 17/17 A3012 RMK T01700170 IEM_DS3505
ZGHA,2008-11-01 17:00,ZGHA 011700Z AUTO 00000KT 2SM 17/17 A3012 RMK T01700170 IEM_DS3505
ZGHA,2008-11-01 18:00,ZGHA 011800Z AUTO 32004KT 2SM 16/16 A3009 RMK T01600160 IEM_DS3505
ZGHA,2008-11-01 19:00,ZGHA 011900Z AUTO 5SM 16/16 A3006 RMK T01600160 IEM_DS3505
ZGHA,2008-11-01 20:00,ZGHA 012000Z AUTO 3SM 16/16 A3006 RMK T01600160 IEM_DS3505
ZGHA,2008-11-01 21:00,ZGHA 012100Z AUTO 00000KT 4SM 16/15 A3006 RMK T01600150 IEM_DS3505
ZGHA,2008-11-01 22:00,ZGHA 012200Z AUTO 36004KT 4SM 16/16 A3006 RMK T01600160 IEM_DS3505
ZGHA,2008-11-01 23:00,ZGHA 012300Z AUTO 4SM 16/16 A3009 RMK T01600160 IEM_DS3505
ZGHA,2008-11-02 00:00,ZGHA 020000Z AUTO 33004KT 3SM 16/16 A3012 RMK T01600160 IEM_DS3505
ZGHA,2008-11-02 01:00,ZGHA 020100Z AUTO 34004KT 1 1/2SM 17/17 A3012 RMK T01700170 IEM_DS3505
ZGHA,2008-11-02 02:00,ZGHA 020200Z AUTO 00000KT 2 1/2SM 16/16 A3012 RMK T01600160 IEM_DS3505
ZGHA,2008-11-02 03:00,ZGHA 020300Z AUTO 00000KT 2 1/2SM 17/17 A3009 RMK T01700170 IEM_DS3505
ZGHA,2008-11-02 04:00,ZGHA 020400Z AUTO 32006KT 2 1/2SM 18/18 A3009 RMK T01800180 IEM_DS3505
ZGHA,2008-11-02 05:00,ZGHA 020500Z AUTO 28004KT 2 1/2SM 17/17 A3009 RMK T01700170 IEM_DS3505
ZGHA,2008-11-02 06:00,ZGHA 020600Z AUTO 31006KT 3SM 17/17 A3009 RMK T01700170 IEM_DS3505
ZGHA,2008-11-02 07:00,ZGHA 020700Z AUTO 4SM 17/17 A3006 RMK T01700170 IEM_DS3505
ZGHA,2008-11-02 08:00,ZGHA 020800Z AUTO 00000KT 4SM 17/17 A3006 RMK T01700170 IEM_DS3505
ZGHA,2008-11-02 09:00,ZGHA 020900Z AUTO 28004KT 1 1/2SM 17/17 A3009 RMK T01700170 IEM_DS3505
ZGHA,2008-11-02 10:00,ZGHA 021000Z AUTO 00000KT 1 1/2SM 17/17 A3009 RMK T01700170 IEM_DS3505
ZGHA,2008-11-02 11:00,ZGHA 021100Z AUTO 00000KT 1 1/2SM 17/17 A3009 RMK T01700170 IEM_DS3505
ZGHA,2008-11-02 12:00,ZGHA 021200Z AUTO 32004KT 1 1/2SM 17/17 A3012 RMK T01700170 IEM_DS3505
ZGHA,2008-11-02 13:00,ZGHA 021300Z AUTO 00000KT 2SM 17/16 A3012 RMK T01700160 IEM_DS3505
ZGHA,2008-11-02 14:00,ZGHA 021400Z AUTO 23002KT 1SM 17/16 A3015 RMK T01700160 IEM_DS3505
ZGHA,2008-11-02 15:00,ZGHA 021500Z AUTO 1 1/2SM 17/17 A3015 RMK T01700170 IEM_DS3505
ZGHA,2008-11-02 16:00,ZGHA 021600Z AUTO 2SM 16/16 A3015 RMK T01600160 IEM_DS3505
ZGHA,2008-11-02 17:00,ZGHA 021700Z AUTO 1SM 16/16 A3012 RMK T01600160 IEM_DS3505
ZGHA,2008-11-02 18:00,ZGHA 021800Z AUTO 00000KT 1SM 16/16 A3012 RMK T01600160 IEM_DS3505
ZGHA,2008-11-02 19:00,ZGHA 021900Z AUTO 22002KT 1 1/2SM 16/16 A3012 RMK T01600160 IEM_DS3505
ZGHA,2008-11-02 20:00,ZGHA 022000Z AUTO 00000KT 1SM 17/17 A3012 RMK T01700170 IEM_DS3505
ZGHA,2008-11-02 21:00,ZGHA 022100Z AUTO 00000KT 1 1/2SM 16/16 A3012 RMK T01600160 IEM_DS3505
ZGHA,2008-11-02 22:00,ZGHA 022200Z AUTO 1 1/2SM 17/17 A3015 RMK T01700170 IEM_DS3505
ZGHA,2008-11-02 23:00,ZGHA 022300Z AUTO 00000KT 1 1/2SM 17/17 A3015 RMK T01700170 IEM_DS3505
ZGHA,2008-11-03 00:00,ZGHA 030000Z AUTO 1 1/2SM 17/17 A3018 RMK T01700170 IEM_DS3505
ZGHA,2008-11-03 01:00,ZGHA 030100Z AUTO 2SM 17/17 A3021 RMK T01700170 IEM_DS3505
ZGHA,2008-11-03 02:00,ZGHA 030200Z AUTO 2 1/2SM 18/18 A3021 RMK T01800180 IEM_DS3505
ZGHA,2008-11-03 03:00,ZGHA 030300Z AUTO 00000KT 4SM 19/19 A3018 RMK T01900190 IEM_DS3505
ZGHA,2008-11-03 04:00,ZGHA 030400Z AUTO 4SM 19/19 A3015 RMK T01900190 IEM_DS3505
ZGHA,2008-11-03 05:00,ZGHA 030500Z AUTO 19004KT 7SM 21/20 A3015 RMK T02100200 IEM_DS3505
ZGHA,2008-11-03 06:00,ZGHA 030600Z AUTO 21004KT 7SM 23/20 A3012 RMK T02300200 IEM_DS3505
ZGHA,2008-11-03 07:00,ZGHA 030700Z AUTO 00000KT 7SM 23/19 A3009 RMK T02300190 IEM_DS3505
ZGHA,2008-11-03 08:00,ZGHA 030800Z AUTO 00000KT 7SM 23/19 A3009 RMK T02300190 IEM_DS3505
ZGHA,2008-11-03 09:00,ZGHA 030900Z AUTO 7SM 22/19 A3009 RMK T02200190 IEM_DS3505
ZGHA,2008-11-03 10:00,ZGHA 031000Z AUTO 6SM 20/18 A3009 RMK T02000180 IEM_DS3505
ZGHA,2008-11-03 11:00,ZGHA 031100Z AUTO 35004KT 4SM 19/18 A3012 RMK T01900180 IEM_DS3505
ZGHA,2008-11-03 12:00,ZGHA 031200Z AUTO 3SM 19/18 A3012 RMK T01900180 IEM_DS3505
ZGHA,2008-11-03 13:00,ZGHA 031300Z AUTO 00000KT 2SM 18/17 A3015 RMK T01800170 IEM_DS3505
ZGHA,2008-11-03 14:00,ZGHA 031400Z AUTO 09002KT 2SM 17/17 A3015 RMK T01700170 IEM_DS3505
ZGHA,2008-11-03 15:00,ZGHA 031500Z AUTO 36002KT 2SM 17/17 A3015 RMK T01700170 IEM_DS3505
ZGHA,2008-11-03 16:00,ZGHA 031600Z AUTO 00000KT 1 1/2SM 17/16 A3012 RMK T01700160 IEM_DS3505
ZGHA,2008-11-03 17:00,ZGHA 031700Z AUTO 36002KT 1 1/2SM 17/17 A3012 RMK T01700170 IEM_DS3505
ZGHA,2008-11-03 18:00,ZGHA 031800Z AUTO 00000KT 1 1/2SM 17/17 A3012 RMK T01700170 IEM_DS3505
ZGHA,2008-11-03 19:00,ZGHA 031900Z AUTO 00000KT 1 1/4SM 16/16 A3012 RMK T01600160 IEM_DS3505
ZGHA,2008-11-03 20:00,ZGHA 032000Z AUTO 00000KT 2SM 17/17 A3012 RMK T01700170 IEM_DS3505
ZGHA,2008-11-03 21:00,ZGHA 032100Z AUTO 00000KT 1SM 16/15 A3012 RMK T01600150 IEM_DS3505
ZGHA,2008-11-03 22:00,ZGHA 032200Z AUTO 00000KT 1SM 16/16 A3012 RMK T01600160 IEM_DS3505
ZGHA,2008-11-03 23:00,ZGHA 032300Z AUTO 00000KT 1SM 16/15 A3012 RMK T01600150 IEM_DS3505
ZGHA,2008-11-04 00:00,ZGHA 040000Z AUTO 00000KT 1SM 16/16 A3012 RMK T01600160 IEM_DS3505
ZGHA,2008-11-04 01:00,ZGHA 040100Z AUTO 2 1/2SM 17/17 A3012 RMK T01700170 IEM_DS3505
ZGHA,2008-11-04 02:00,ZGHA 040200Z AUTO 4SM 21/20 A3012 RMK T02100200 IEM_DS3505
ZGHA,2008-11-04 03:00,ZGHA 040300Z AUTO 5SM 22/19 A3012 RMK T02200190 IEM_DS3505
ZGHA,2008-11-04 04:00,ZGHA 040400Z AUTO 7SM 23/18 A3009 RMK T02300180 IEM_DS3505
ZGHA,2008-11-04 05:00,ZGHA 040500Z AUTO 24004KT 7SM 24/18 A3009 RMK T02400180 IEM_DS3505
ZGHA,2008-11-04 06:00,ZGHA 040600Z AUTO 7SM 25/19 A3006 RMK T02500190 IEM_DS3505
ZGHA,2008-11-04 07:00,ZGHA 040700Z AUTO 00000KT 7SM 25/19 A3003 RMK T02500190 IEM_DS3505
ZGHA,2008-11-04 08:00,ZGHA 040800Z AUTO 7SM 24/19 A3003 RMK T02400190 IEM_DS3505
ZGHA,2008-11-04 09:00,ZGHA 040900Z AUTO 00000KT 7SM 23/19 A3006 RMK T02300190 IEM_DS3505
ZGHA,2008-11-04 10:00,ZGHA 041000Z AUTO 00000KT 7SM 22/19 A3006 RMK T02200190 IEM_DS3505
ZGHA,2008-11-04 11:00,ZGHA 041100Z AUTO 00000KT 4SM 22/20 A3006 RMK T02200200 IEM_DS3505
ZGHA,2008-11-04 12:00,ZGHA 041200Z AUTO 00000KT 3SM 21/20 A3009 RMK T02100200 IEM_DS3505
ZGHA,2008-11-04 13:00,ZGHA 041300Z AUTO 00000KT 3SM 21/20 A3009 RMK T02100200 IEM_DS3505
ZGHA,2008-11-04 14:00,ZGHA 041400Z AUTO 00000KT 3SM 21/19 A3006 RMK T02100190 IEM_DS3505
ZGHA,2008-11-04 15:00,ZGHA 041500Z AUTO 2 1/2SM 20/19 A3006 RMK T02000190 IEM_DS3505
ZGHA,2008-11-04 16:00,ZGHA 041600Z AUTO 36004KT 2 1/2SM 20/19 A3006 RMK T02000190 IEM_DS3505
ZGHA,2008-11-04 17:00,ZGHA 041700Z AUTO 01006KT 2 1/2SM 18/18 A3006 RMK T01800180 IEM_DS3505
ZGHA,2008-11-04 18:00,ZGHA 041800Z AUTO 04004KT 2SM 19/18 A3006 RMK T01900180 IEM_DS3505
ZGHA,2008-11-04 19:00,ZGHA 041900Z AUTO 09006KT 2SM 19/18 A3003 RMK T01900180 IEM_DS3505
ZGHA,2008-11-04 20:00,ZGHA 042000Z AUTO 00000KT 2 1/2SM 18/18 A3003 RMK T01800180 IEM_DS3505
ZGHA,2008-11-04 21:00,ZGHA 042100Z AUTO 2SM 18/18 A3003 RMK T01800180 IEM_DS3505
ZGHA,2008-11-04 22:00,ZGHA 042200Z AUTO 2SM 18/18 A3003 RMK T01800180 IEM_DS3505
ZGHA,2008-11-04 23:00,ZGHA 042300Z AUTO 2 1/2SM 18/18 A3006 RMK T01800180 IEM_DS3505
ZGHA,2008-11-05 00:00,ZGHA 050000Z AUTO 3SM 18/18 A3006 RMK T01800180 IEM_DS3505
ZGHA,2008-11-05 01:00,ZGHA 050100Z AUTO 00000KT 4SM 18/18 A3009 RMK T01800180 IEM_DS3505
ZGHA,2008-11-05 02:00,ZGHA 050200Z AUTO 4SM 19/19 A3009 RMK T01900190 IEM_DS3505
ZGHA,2008-11-05 03:00,ZGHA 050300Z AUTO 00000KT 4SM 19/19 A3009 RMK T01900190 IEM_DS3505
ZGHA,2008-11-05 04:00,ZGHA 050400Z AUTO 00000KT 4SM 19/19 A3006 RMK T01900190 IEM_DS3505
ZGHA,2008-11-05 05:00,ZGHA 050500Z AUTO 00000KT 5SM 19/19 A3003 RMK T01900190 IEM_DS3505
ZGHA,2008-11-05 07:00,ZGHA 050700Z AUTO 4SM 20/19 A3000 RMK T02000190 IEM_DS3505
ZGHA,2008-11-05 08:00,ZGHA 050800Z AUTO 7SM 19/19 A3000 RMK T01900190 IEM_DS3505
ZGHA,2008-11-05 09:00,ZGHA 050900Z AUTO 00000KT 7SM 19/19 A3000 RMK T01900190 IEM_DS3505
ZGHA,2008-11-05 10:00,ZGHA 051000Z AUTO 00000KT 7SM 19/19 A3000 RMK T01900190 IEM_DS3505
ZGHA,2008-11-05 11:00,ZGHA 051100Z AUTO 00000KT 7SM 19/19 A3000 RMK T01900190 IEM_DS3505
ZGHA,2008-11-05 12:00,ZGHA 051200Z AUTO 01002KT 7SM 19/19 A3000 RMK T01900190 IEM_DS3505
ZGHA,2008-11-05 13:00,ZGHA 051300Z AUTO 7SM 19/19 A3003 RMK T01900190 IEM_DS3505
ZGHA,2008-11-05 14:00,ZGHA 051400Z AUTO 34006KT 4SM 19/19 A3003 RMK T01900190 IEM_DS3505
ZGHA,2008-11-05 15:00,ZGHA 051500Z AUTO 4SM 19/19 A3000 RMK T01900190 IEM_DS3505
ZGHA,2008-11-05 16:00,ZGHA 051600Z AUTO 00000KT 3SM 19/19 A3000 RMK T01900190 IEM_DS3505
ZGHA,2008-11-05 17:00,ZGHA 051700Z AUTO 00000KT 4SM 19/19 RMK T01900190 IEM_DS3505
ZGHA,2008-11-05 18:00,ZGHA 051800Z AUTO 3SM 19/19 RMK T01900190 IEM_DS3505
ZGHA,2008-11-05 19:00,ZGHA 051900Z AUTO 4SM 19/19 RMK T01900190 IEM_DS3505
ZGHA,2008-11-05 20:00,ZGHA 052000Z AUTO 00000KT 2 1/2SM 19/19 RMK T01900190 IEM_DS3505
ZGHA,2008-11-05 21:00,ZGHA 052100Z AUTO 00000KT 2SM 19/19 A2991 RMK T01900190 IEM_DS3505
ZGHA,2008-11-05 22:00,ZGHA 052200Z AUTO 00000KT 2 1/2SM 19/19 A2991 RMK T01900190 IEM_DS3505
ZGHA,2008-11-05 23:00,ZGHA 052300Z AUTO 28004KT 5SM 19/19 A2994 RMK T01900190 IEM_DS3505
ZGHA,2008-11-06 00:00,ZGHA 060000Z AUTO 22004KT 7SM 19/19 A2997 RMK T01900190 IEM_DS3505
ZGHA,2008-11-06 01:00,ZGHA 060100Z AUTO 20004KT 1 1/2SM 19/19 A3000 RMK T01900190 IEM_DS3505
ZGHA,2008-11-06 02:00,ZGHA 060200Z AUTO 26004KT 1 1/4SM 19/19 A3000 RMK T01900190 IEM_DS3505
ZGHA,2008-11-06 03:00,ZGHA 060300Z AUTO 30006KT 4SM 19/19 A3000 RMK T01900190 IEM_DS3505
ZGHA,2008-11-06 04:00,ZGHA 060400Z AUTO 36004KT 7SM 19/19 A3000 RMK T01900190 IEM_DS3505
ZGHA,2008-11-06 05:00,ZGHA 060500Z AUTO 7SM 19/19 A2997 RMK T01900190 IEM_DS3505
ZGHA,2008-11-06 06:00,ZGHA 060600Z AUTO 35004KT 7SM 19/19 A2994 RMK T01900190 IEM_DS3505
ZGHA,2008-11-06 07:00,ZGHA 060700Z AUTO 32004KT 7SM 19/19 A2994 RMK T01900190 IEM_DS3505
ZGHA,2008-11-06 08:00,ZGHA 060800Z AUTO 31006KT 1 1/2SM 19/19 A2994 RMK T01900190 IEM_DS3505
ZGHA,2008-11-06 09:00,ZGHA 060900Z AUTO 30008KT 3SM 17/17 A2997 RMK T01700170 IEM_DS3505
ZGHA,2008-11-06 10:00,ZGHA 061000Z AUTO 29010KT 4SM 17/17 A3000 RMK T01700170 IEM_DS3505
ZGHA,2008-11-06 11:00,ZGHA 061100Z AUTO 30010G19KT 5SM 17/17 A3000 RMK T01700170 IEM_DS3505
ZGHA,2008-11-06 12:00,ZGHA 061200Z AUTO 31008KT 3SM 16/16 A3003 RMK T01600160 IEM_DS3505
ZGHA,2008-11-06 13:00,ZGHA 061300Z AUTO 35008KT 4SM 16/16 A3003 RMK T01600160 IEM_DS3505
ZGHA,2008-11-06 14:00,ZGHA 061400Z AUTO 34008KT 1 1/2SM 15/15 A3006 RMK T01500150 IEM_DS3505
ZGHA,2008-11-06 15:00,ZGHA 061500Z AUTO 35008KT 1 1/2SM 15/15 A3006 RMK T01500150 IEM_DS3505
ZGHA,2008-11-06 16:00,ZGHA 061600Z AUTO 32006KT 1 1/2SM 15/15 A3009 RMK T01500150 IEM_DS3505
ZGHA,2008-11-06 17:00,ZGHA 061700Z AUTO 35008KT 2SM 15/14 A3006 RMK T01500140 IEM_DS3505
ZGHA,2008-11-06 18:00,ZGHA 061800Z AUTO 36008KT 3SM 14/14 A3006 RMK T01400140 IEM_DS3505
ZGHA,2008-11-06 19:00,ZGHA 061900Z AUTO 34008KT 2 1/2SM 14/14 A3003 RMK T01400140 IEM_DS3505
ZGHA,2008-11-06 20:00,ZGHA 062000Z AUTO 34010KT 4SM 14/14 A3003 RMK T01400140 IEM_DS3505
ZGHA,2008-11-06 21:00,ZGHA 062100Z AUTO 34012KT 2 1/2SM 14/14 A3006 RMK T01400140 IEM_DS3505
ZGHA,2008-11-06 22:00,ZGHA 062200Z AUTO 33010KT 4SM 14/14 A3009 RMK T01400140 IEM_DS3505
ZGHA,2008-11-06 23:00,ZGHA 062300Z AUTO 34014KT 3SM 14/14 A3012 RMK T01400140 IEM_DS3505
ZGHA,2008-11-07 00:00,ZGHA 070000Z AUTO 34008KT 4SM 14/13 A3015 RMK T01400130 IEM_DS3505
ZGHA,2008-11-07 01:00,ZGHA 070100Z AUTO 35006KT 4SM 14/13 A3015 RMK T01400130 IEM_DS3505
ZGHA,2008-11-07 02:00,ZGHA 070200Z AUTO 35008KT 4SM 14/14 A3018 RMK T01400140 IEM_DS3505
ZGHA,2008-11-07 03:00,ZGHA 070300Z AUTO 34010KT 5SM 14/14 A3018 RMK T01400140 IEM_DS3505
ZGHA,2008-11-07 04:00,ZGHA 070400Z AUTO 34012KT 7SM 15/14 A3015 RMK T01500140 IEM_DS3505
ZGHA,2008-11-07 05:00,ZGHA 070500Z AUTO 30008KT 7SM 15/14 A3015 RMK T01500140 IEM_DS3505
ZGHA,2008-11-07 06:00,ZGHA 070600Z AUTO 32008KT 7SM 15/14 A3012 RMK T01500140 IEM_DS3505
ZGHA,2008-11-07 07:00,ZGHA 070700Z AUTO 34012KT 7SM 15/14 A3015 RMK T01500140 IEM_DS3505
ZGHA,2008-11-07 08:00,ZGHA 070800Z AUTO 34010KT 7SM 15/13 A3015 RMK T01500130 IEM_DS3505
ZGHA,2008-11-07 09:00,ZGHA 070900Z AUTO 35008KT 7SM 15/13 A3015 RMK T01500130 IEM_DS3505
ZGHA,2008-11-07 10:00,ZGHA 071000Z AUTO 35008KT 7SM 15/13 A3018 RMK T01500130 IEM_DS3505
ZGHA,2008-11-07 11:00,ZGHA 071100Z AUTO 34008KT 7SM 14/13 A3021 RMK T01400130 IEM_DS3505
ZGHA,2008-11-07 12:00,ZGHA 071200Z AUTO 34010KT 6SM 14/13 A3021 RMK T01400130 IEM_DS3505
ZGHA,2008-11-07 13:00,ZGHA 071300Z AUTO 34010KT 6SM 14/12 A3021 RMK T01400120 IEM_DS3505
ZGHA,2008-11-07 14:00,ZGHA 071400Z AUTO 34008KT 4SM 13/12 A3024 RMK T01300120 IEM_DS3505
ZGHA,2008-11-07 15:00,ZGHA 071500Z AUTO 34008KT 4SM 13/12 A3024 RMK T01300120 IEM_DS3505
ZGHA,2008-11-07 16:00,ZGHA 071600Z AUTO 3SM 13/12 A3024 RMK T01300120 IEM_DS3505
ZGHA,2008-11-07 17:00,ZGHA 071700Z AUTO 35004KT 3SM 12/12 A3024 RMK T01200120 IEM_DS3505
ZGHA,2008-11-07 18:00,ZGHA 071800Z AUTO 36004KT 3SM 12/12 A3024 RMK T01200120 IEM_DS3505
ZGHA,2008-11-07 21:00,ZGHA 072100Z AUTO 35006KT 2 1/2SM 12/11 A3024 RMK T01200110 IEM_DS3505
ZGHA,2008-11-07 22:00,ZGHA 072200Z AUTO 33006KT 2 1/2SM 12/11 A3024 RMK T01200110 IEM_DS3505
ZGHA,2008-11-07 23:00,ZGHA 072300Z AUTO 35004KT 2SM 12/11 A3027 RMK T01200110 IEM_DS3505
ZGHA,2008-11-08 00:00,ZGHA 080000Z AUTO 34004KT 2 1/2SM 13/12 A3027 RMK T01300120 IEM_DS3505
ZGHA,2008-11-08 01:00,ZGHA 080100Z AUTO 33008KT 3SM 14/12 A3030 RMK T01400120 IEM_DS3505
ZGHA,2008-11-08 02:00,ZGHA 080200Z AUTO 35006KT 4SM 14/12 A3030 RMK T01400120 IEM_DS3505
ZGHA,2008-11-08 03:00,ZGHA 080300Z AUTO 35006KT 4SM 15/12 A3030 RMK T01500120 IEM_DS3505
ZGHA,2008-11-08 04:00,ZGHA 080400Z AUTO 35006KT 4SM 15/13 A3027 RMK T01500130 IEM_DS3505
ZGHA,2008-11-08 05:00,ZGHA 080500Z AUTO 35008KT 5SM 16/12 A3027 RMK T01600120 IEM_DS3505
ZGHA,2008-11-08 06:00,ZGHA 080600Z AUTO 35008KT 7SM 16/13 A3024 RMK T01600130 IEM_DS3505
ZGHA,2008-11-08 07:00,ZGHA 080700Z AUTO 35008KT 7SM 16/12 A3024 RMK T01600120 IEM_DS3505
ZGHA,2008-11-08 08:00,ZGHA 080800Z AUTO 35008KT 7SM 16/13 A3024 RMK T01600130 IEM_DS3505
ZGHA,2008-11-08 09:00,ZGHA 080900Z AUTO 01006KT 7SM 15/12 A3024 RMK T01500120 IEM_DS3505
ZGHA,2008-11-08 10:00,ZGHA 081000Z AUTO 36006KT 7SM 15/12 A3024 RMK T01500120 IEM_DS3505
ZGHA,2008-11-08 11:00,ZGHA 081100Z AUTO 36006KT 7SM 14/12 A3027 RMK T01400120 IEM_DS3505
ZGHA,2008-11-08 12:00,ZGHA 081200Z AUTO 36006KT 7SM 14/12 A3030 RMK T01400120 IEM_DS3505
ZGHA,2008-11-08 13:00,ZGHA 081300Z AUTO 35006KT 7SM 14/13 A3030 RMK T01400130 IEM_DS3505
ZGHA,2008-11-08 14:00,ZGHA 081400Z AUTO 36006KT 5SM 13/12 A3030 RMK T01300120 IEM_DS3505
ZGHA,2008-11-08 15:00,ZGHA 081500Z AUTO 36004KT 5SM 13/12 A3030 RMK T01300120 IEM_DS3505
ZGHA,2008-11-08 16:00,ZGHA 081600Z AUTO 36004KT 2 1/2SM 12/12 A3030 RMK T01200120 IEM_DS3505
ZGHA,2008-11-08 17:00,ZGHA 081700Z AUTO 00000KT 1 1/4SM 11/11 A3030 RMK T01100110 IEM_DS3505
ZGHA,2008-11-08 18:00,ZGHA 081800Z AUTO 32002KT 1 1/2SM 10/10 A3030 RMK T01000100 IEM_DS3505
ZGHA,2008-11-08 19:00,ZGHA 081900Z AUTO 00000KT 1SM 10/10 A3030 RMK T01000100 IEM_DS3505
ZGHA,2008-11-08 20:00,ZGHA 082000Z AUTO 1SM 10/10 A3030 RMK T01000100 IEM_DS3505
ZGHA,2008-11-08 21:00,ZGHA 082100Z AUTO 36004KT 2SM 10/10 A3030 RMK T01000100 IEM_DS3505
ZGHA,2008-11-08 22:00,ZGHA 082200Z AUTO 1 1/2SM 10/10 A3030 RMK T01000100 IEM_DS3505
ZGHA,2008-11-08 23:00,ZGHA 082300Z AUTO 1SM 10/10 A3033 RMK T01000100 IEM_DS3505
ZGHA,2008-11-09 00:00,ZGHA 090000Z AUTO 1/2SM 10/10 A3036 RMK T01000100 IEM_DS3505
ZGHA,2008-11-09 01:00,ZGHA 090100Z AUTO 2 1/2SM 11/11 A3039 RMK T01100110 IEM_DS3505
ZGHA,2008-11-09 02:00,ZGHA 090200Z AUTO 35004KT 3SM 14/14 A3039 RMK T01400140 IEM_DS3505
ZGHA,2008-11-09 03:00,ZGHA 090300Z AUTO 6SM 16/12 A3036 RMK T01600120 IEM_DS3505
ZGHA,2008-11-09 04:00,ZGHA 090400Z AUTO 01006KT 6SM 18/11 A3036 RMK T01800110 IEM_DS3505
ZGHA,2008-11-09 05:00,ZGHA 090500Z AUTO 07004KT 6SM 19/11 A3030 RMK T01900110 IEM_DS3505
ZGHA,2008-11-09 06:00,ZGHA 090600Z AUTO 6SM 20/09 A3030 RMK T02000090 IEM_DS3505
ZGHA,2008-11-09 07:00,ZGHA 090700Z AUTO 06006KT 6SM 20/10 A3027 RMK T02000100 IEM_DS3505
ZGHA,2008-11-09 08:00,ZGHA 090800Z AUTO 35004KT 6SM 20/09 A3027 RMK T02000090 IEM_DS3505
ZGHA,2008-11-09 09:00,ZGHA 090900Z AUTO 34006KT 6SM 19/10 A3027 RMK T01900100 IEM_DS3505
ZGHA,2008-11-09 10:00,ZGHA 091000Z AUTO 36006KT 6SM 17/12 A3030 RMK T01700120 IEM_DS3505
ZGHA,2008-11-09 11:00,ZGHA 091100Z AUTO 35006KT 6SM 15/12 A3030 RMK T01500120 IEM_DS3505
ZGHA,2008-11-09 12:00,ZGHA 091200Z AUTO 34006KT 6SM 14/12 A3033 RMK T01400120 IEM_DS3505
ZGHA,2008-11-09 13:00,ZGHA 091300Z AUTO 36004KT 3SM 13/12 A3036 RMK T01300120 IEM_DS3505
ZGHA,2008-11-09 14:00,ZGHA 091400Z AUTO 2 1/2SM 12/11 A3036 RMK T01200110 IEM_DS3505
ZGHA,2008-11-09 15:00,ZGHA 091500Z AUTO 2 1/2SM 12/11 A3036 RMK T01200110 IEM_DS3505
ZGHA,2008-11-09 16:00,ZGHA 091600Z AUTO 36002KT 2SM 11/10 A3036 RMK T01100100 IEM_DS3505
ZGHA,2008-11-09 18:00,ZGHA 091800Z AUTO 36002KT 2 1/2SM 10/09 A3036 RMK T01000090 IEM_DS3505
ZGHA,2008-11-09 19:00,ZGHA 091900Z AUTO 6SM 10/10 A3033 RMK T01000100 IEM_DS3505
ZGHA,2008-11-09 20:00,ZGHA 092000Z AUTO 03002KT 6SM 10/09 A3036 RMK T01000090 IEM_DS3505
ZGHA,2008-11-09 21:00,ZGHA 092100Z AUTO 34002KT 2SM 09/08 A3036 RMK T00900080 IEM_DS3505
ZGHA,2008-11-09 22:00,ZGHA 092200Z AUTO 36002KT 2 1/2SM 08/07 A3036 RMK T00800070 IEM_DS3505
ZGHA,2008-11-09 23:00,ZGHA 092300Z AUTO 3SM 08/08 A3036 RMK T00800080 IEM_DS3505
ZGHA,2008-11-10 00:00,ZGHA 100000Z AUTO 4SM 10/09 A3039 RMK T01000090 IEM_DS3505
ZGHA,2008-11-10 01:00,ZGHA 100100Z AUTO 07004KT 5SM 12/09 A3039 RMK T01200090 IEM_DS3505
ZGHA,2008-11-10 02:00,ZGHA 100200Z AUTO 07004KT 6SM 14/09 A3042 RMK T01400090 IEM_DS3505
ZGHA,2008-11-10 03:00,ZGHA 100300Z AUTO 6SM 15/08 A3039 RMK T01500080 IEM_DS3505
ZGHA,2008-11-10 04:00,ZGHA 100400Z AUTO 6SM 17/09 A3036 RMK T01700090 IEM_DS3505
ZGHA,2008-11-10 05:00,ZGHA 100500Z AUTO 6SM 18/08 A3033 RMK T01800080 IEM_DS3505
ZGHA,2008-11-10 06:00,ZGHA 100600Z AUTO 32004KT 6SM 18/09 A3030 RMK T01800090 IEM_DS3505
ZGHA,2008-11-10 07:00,ZGHA 100700Z AUTO 30008KT 7SM 18/09 A3027 RMK T01800090 IEM_DS3505
ZGHA,2008-11-10 08:00,ZGHA 100800Z AUTO 28006KT 6SM 18/12 A3027 RMK T01800120 IEM_DS3505
ZGHA,2008-11-10 09:00,ZGHA 100900Z AUTO 28006KT 6SM 17/11 A3027 RMK T01700110 IEM_DS3505
ZGHA,2008-11-10 10:00,ZGHA 101000Z AUTO 32008KT 6SM 15/11 A3027 RMK T01500110 IEM_DS3505
ZGHA,2008-11-10 11:00,ZGHA 101100Z AUTO 32008KT 6SM 14/11 A3030 RMK T01400110 IEM_DS3505
ZGHA,2008-11-10 12:00,ZGHA 101200Z AUTO 6SM 13/10 A3030 RMK T01300100 IEM_DS3505
ZGHA,2008-11-10 13:00,ZGHA 101300Z AUTO 35002KT 4SM 12/10 A3033 RMK T01200100 IEM_DS3505
ZGHA,2008-11-10 14:00,ZGHA 101400Z AUTO 34002KT 4SM 11/10 A3033 RMK T01100100 IEM_DS3505
ZGHA,2008-11-10 15:00,ZGHA 101500Z AUTO 35004KT 3SM 11/09 A3033 RMK T01100090 IEM_DS3505
ZGHA,2008-11-10 16:00,ZGHA 101600Z AUTO 36004KT 3SM 11/10 A3033 RMK T01100100 IEM_DS3505
ZGHA,2008-11-10 18:00,ZGHA 101800Z AUTO 02004KT 2SM 10/09 A3033 RMK T01000090 IEM_DS3505
ZGHA,2008-11-10 21:00,ZGHA 102100Z AUTO 2 1/2SM 09/09 A3033 RMK T00900090 IEM_DS3505
ZGHA,2008-11-10 22:00,ZGHA 102200Z AUTO 01002KT 3SM 08/08 A3033 RMK T00800080 IEM_DS3505
ZGHA,2008-11-10 23:00,ZGHA 102300Z AUTO 4SM 08/07 A3033 RMK T00800070 IEM_DS3505
ZGHA,2008-11-11 00:00,ZGHA 110000Z AUTO 00000KT 4SM 10/09 A3036 RMK T01000090 IEM_DS3505
ZGHA,2008-11-11 01:00,ZGHA 110100Z AUTO 06004KT 6SM 11/09 A3039 RMK T01100090 IEM_DS3505
ZGHA,2008-11-11 02:00,ZGHA 110200Z AUTO 6SM 12/09 A3039 RMK T01200090 IEM_DS3505
ZGHA,2008-11-11 03:00,ZGHA 110300Z AUTO 6SM 14/09 A3036 RMK T01400090 IEM_DS3505
ZGHA,2008-11-11 04:00,ZGHA 110400Z AUTO 36004KT 6SM 16/10 A3033 RMK T01600100 IEM_DS3505
ZGHA,2008-11-11 05:00,ZGHA 110500Z AUTO 32004KT 6SM 17/10 A3030 RMK T01700100 IEM_DS3505
ZGHA,2008-11-11 06:00,ZGHA 110600Z AUTO 6SM 17/09 A3027 RMK T01700090 IEM_DS3505
ZGHA,2008-11-11 07:00,ZGHA 110700Z AUTO 33004KT 6SM 18/10 A3024 RMK T01800100 IEM_DS3505
ZGHA,2008-11-11 08:00,ZGHA 110800Z AUTO 6SM 18/10 A3021 RMK T01800100 IEM_DS3505
ZGHA,2008-11-11 09:00,ZGHA 110900Z AUTO 33004KT 6SM 17/10 A3021 RMK T01700100 IEM_DS3505
ZGHA,2008-11-11 10:00,ZGHA 111000Z AUTO 30006KT 6SM 15/11 A3024 RMK T01500110 IEM_DS3505
ZGHA,2008-11-11 11:00,ZGHA 111100Z AUTO 30006KT 6SM 14/10 A3024 RMK T01400100 IEM_DS3505
ZGHA,2008-11-11 12:00,ZGHA 111200Z AUTO 33004KT 4SM 13/10 A3024 RMK T01300100 IEM_DS3505
ZGHA,2008-11-11 13:00,ZGHA 111300Z AUTO 3SM 12/09 A3027 RMK T01200090 IEM_DS3505
ZGHA,2008-11-11 14:00,ZGHA 111400Z AUTO 00000KT 2 1/2SM 11/10 A3027 RMK T01100100 IEM_DS3505
ZGHA,2008-11-11 15:00,ZGHA 111500Z AUTO 36002KT 1 1/2SM 10/10 A3027 RMK T01000100 IEM_DS3505
ZGHA,2008-11-11 16:00,ZGHA 111600Z AUTO 1SM 10/09 A3027 RMK T01000090 IEM_DS3505
ZGHA,2008-11-11 21:00,ZGHA 112100Z AUTO 1 1/2SM 08/08 A3021 RMK T00800080 IEM_DS3505
ZGHA,2008-11-11 22:00,ZGHA 112200Z AUTO 00000KT 1SM 07/07 A3021 RMK T00700070 IEM_DS3505
ZGHA,2008-11-11 23:00,ZGHA 112300Z AUTO 00000KT 1 1/2SM 07/07 A3024 RMK T00700070 IEM_DS3505
ZGHA,2008-11-12 00:00,ZGHA 120000Z AUTO 2 1/2SM 09/09 A3024 RMK T00900090 IEM_DS3505
ZGHA,2008-11-12 01:00,ZGHA 120100Z AUTO 4SM 11/11 A3024 RMK T01100110 IEM_DS3505
ZGHA,2008-11-12 02:00,ZGHA 120200Z AUTO 00000KT 6SM 14/10 A3024 RMK T01400100 IEM_DS3505
ZGHA,2008-11-12 03:00,ZGHA 120300Z AUTO 25004KT 6SM 15/08 A3024 RMK T01500080 IEM_DS3505
ZGHA,2008-11-12 04:00,ZGHA 120400Z AUTO 6SM 17/08 A3021 RMK T01700080 IEM_DS3505
ZGHA,2008-11-12 05:00,ZGHA 120500Z AUTO 33004KT 6SM 18/09 A3018 RMK T01800090 IEM_DS3505
ZGHA,2008-11-12 06:00,ZGHA 120600Z AUTO 6SM 19/09 A3015 RMK T01900090 IEM_DS3505
ZGHA,2008-11-12 07:00,ZGHA 120700Z AUTO 6SM 20/09 A3012 RMK T02000090 IEM_DS3505
ZGHA,2008-11-12 08:00,ZGHA 120800Z AUTO 35004KT 6SM 20/08 A3009 RMK T02000080 IEM_DS3505
ZGHA,2008-11-12 09:00,ZGHA 120900Z AUTO 00000KT 6SM 19/09 A3009 RMK T01900090 IEM_DS3505
ZGHA,2008-11-12 10:00,ZGHA 121000Z AUTO 34002KT 6SM 16/10 A3009 RMK T01600100 IEM_DS3505
ZGHA,2008-11-12 11:00,ZGHA 121100Z AUTO 00000KT 6SM 13/11 A3012 RMK T01300110 IEM_DS3505
ZGHA,2008-11-12 12:00,ZGHA 121200Z AUTO 00000KT 6SM 12/11 A3015 RMK T01200110 IEM_DS3505
ZGHA,2008-11-12 13:00,ZGHA 121300Z AUTO 00000KT 5SM 11/10 A3015 RMK T01100100 IEM_DS3505
ZGHA,2008-11-12 14:00,ZGHA 121400Z AUTO 5SM 10/09 A3018 RMK T01000090 IEM_DS3505
ZGHA,2008-11-12 15:00,ZGHA 121500Z AUTO 5SM 10/09 A3018 RMK T01000090 IEM_DS3505
ZGHA,2008-11-12 16:00,ZGHA 121600Z AUTO 00000KT 5SM 09/08 A3018 RMK T00900080 IEM_DS3505
ZGHA,2008-11-12 17:00,ZGHA 121700Z AUTO 00000KT 4SM 08/08 A3018 RMK T00800080 IEM_DS3505
ZGHA,2008-11-12 18:00,ZGHA 121800Z AUTO 00000KT 4SM 08/08 A3021 RMK T00800080 IEM_DS3505
ZGHA,2008-11-12 19:00,ZGHA 121900Z AUTO 09002KT 1 1/4SM 07/07 A3021 RMK T00700070 IEM_DS3505
ZGHA,2008-11-12 20:00,ZGHA 122000Z AUTO 00000KT 3SM 07/07 A3021 RMK T00700070 IEM_DS3505
ZGHA,2008-11-12 21:00,ZGHA 122100Z AUTO 01002KT 5SM 07/07 A3021 RMK T00700070 IEM_DS3505
ZGHA,2008-11-12 22:00,ZGHA 122200Z AUTO 5SM 07/07 A3021 RMK T00700070 IEM_DS3505
ZGHA,2008-11-12 23:00,ZGHA 122300Z AUTO 5SM 07/07 A3024 RMK T00700070 IEM_DS3505
ZGHA,2008-11-13 00:00,ZGHA 130000Z AUTO 5SM 10/10 A3024 RMK T01000100 IEM_DS3505
ZGHA,2008-11-13 01:00,ZGHA 130100Z AUTO 6SM 12/10 A3027 RMK T01200100 IEM_DS3505
ZGHA,2008-11-13 02:00,ZGHA 130200Z AUTO 00000KT 6SM 14/09 A3027 RMK T01400090 IEM_DS3505
ZGHA,2008-11-13 03:00,ZGHA 130300Z AUTO 6SM 16/10 A3027 RMK T01600100 IEM_DS3505
ZGHA,2008-11-13 04:00,ZGHA 130400Z AUTO 6SM 19/09 A3024 RMK T01900090 IEM_DS3505
ZGHA,2008-11-13 05:00,ZGHA 130500Z AUTO 6SM 20/08 A3018 RMK T02000080 IEM_DS3505
ZGHA,2008-11-13 06:00,ZGHA 130600Z AUTO 35004KT 6SM 21/09 A3015 RMK T02100090 IEM_DS3505
ZGHA,2008-11-13 07:00,ZGHA 130700Z AUTO 00000KT 6SM 21/09 A3012 RMK T02100090 IEM_DS3505
ZGHA,2008-11-13 08:00,ZGHA 130800Z AUTO 33004KT 6SM 20/09 A3012 RMK T02000090 IEM_DS3505
ZGHA,2008-11-13 09:00,ZGHA 130900Z AUTO 33004KT 6SM 19/10 A3015 RMK T01900100 IEM_DS3505
ZGHA,2008-11-13 10:00,ZGHA 131000Z AUTO 32006KT 6SM 17/12 A3015 RMK T01700120 IEM_DS3505
ZGHA,2008-11-13 11:00,ZGHA 131100Z AUTO 36004KT 6SM 16/12 A3015 RMK T01600120 IEM_DS3505
ZGHA,2008-11-13 12:00,ZGHA 131200Z AUTO 36004KT 6SM 15/12 A3015 RMK T01500120 IEM_DS3505
ZGHA,2008-11-13 13:00,ZGHA 131300Z AUTO 5SM 13/11 A3018 RMK T01300110 IEM_DS3505
ZGHA,2008-11-13 14:00,ZGHA 131400Z AUTO 35002KT 4SM 12/10 A3018 RMK T01200100 IEM_DS3505
ZGHA,2008-11-13 15:00,ZGHA 131500Z AUTO 00000KT 2 1/2SM 11/10 A3018 RMK T01100100 IEM_DS3505
ZGHA,2008-11-13 16:00,ZGHA 131600Z AUTO 33002KT 3SM 11/10 A3018 RMK T01100100 IEM_DS3505
ZGHA,2008-11-13 17:00,ZGHA 131700Z AUTO 36002KT 2SM 10/10 A3018 RMK T01000100 IEM_DS3505
ZGHA,2008-11-13 18:00,ZGHA 131800Z AUTO 07002KT 1 1/4SM 10/09 A3018 RMK T01000090 IEM_DS3505
ZGHA,2008-11-13 19:00,ZGHA 131900Z AUTO 00000KT 1 1/4SM 09/09 A3018 RMK T00900090 IEM_DS3505
ZGHA,2008-11-13 20:00,ZGHA 132000Z AUTO 00000KT 1 1/4SM 09/08 A3018 RMK T00900080 IEM_DS3505
ZGHA,2008-11-13 21:00,ZGHA 132100Z AUTO 00000KT 1 1/4SM 08/08 A3015 RMK T00800080 IEM_DS3505
ZGHA,2008-11-13 22:00,ZGHA 132200Z AUTO 00000KT 1SM 08/08 A3018 RMK T00800080 IEM_DS3505
ZGHA,2008-11-13 23:00,ZGHA 132300Z AUTO 00000KT 1SM 08/08 A3018 RMK T00800080 IEM_DS3505
ZGHA,2008-11-14 00:00,ZGHA 140000Z AUTO 00000KT 3/8SM 09/09 A3021 RMK T00900090 IEM_DS3505
ZGHA,2008-11-14 01:00,ZGHA 140100Z AUTO 3/8SM 11/11 A3024 RMK T01100110 IEM_DS3505
ZGHA,2008-11-14 02:00,ZGHA 140200Z AUTO 2 1/2SM 14/14 A3021 RMK T01400140 IEM_DS3505
ZGHA,2008-11-14 03:00,ZGHA 140300Z AUTO 00000KT 4SM 17/12 A3021 RMK T01700120 IEM_DS3505
ZGHA,2008-11-14 04:00,ZGHA 140400Z AUTO 6SM 19/13 A3015 RMK T01900130 IEM_DS3505
ZGHA,2008-11-14 05:00,ZGHA 140500Z AUTO 22004KT 6SM 20/12 A3012 RMK T02000120 IEM_DS3505
ZGHA,2008-11-14 06:00,ZGHA 140600Z AUTO 6SM 21/12 A3009 RMK T02100120 IEM_DS3505
ZGHA,2008-11-14 07:00,ZGHA 140700Z AUTO 6SM 21/11 A3006 RMK T02100110 IEM_DS3505
ZGHA,2008-11-14 08:00,ZGHA 140800Z AUTO 6SM 21/12 A3003 RMK T02100120 IEM_DS3505
ZGHA,2008-11-14 09:00,ZGHA 140900Z AUTO 6SM 21/12 A3003 RMK T02100120 IEM_DS3505
ZGHA,2008-11-14 10:00,ZGHA 141000Z AUTO 4SM 17/13 A3003 RMK T01700130 IEM_DS3505
ZGHA,2008-11-14 11:00,ZGHA 141100Z AUTO 04004KT 4SM 16/14 A3006 RMK T01600140 IEM_DS3505
ZGHA,2008-11-14 12:00,ZGHA 141200Z AUTO 3SM 15/13 A3006 RMK T01500130 IEM_DS3505
ZGHA,2008-11-14 13:00,ZGHA 141300Z AUTO 2SM 14/13 A3006 RMK T01400130 IEM_DS3505
ZGHA,2008-11-14 14:00,ZGHA 141400Z AUTO 01004KT 2SM 13/12 A3009 RMK T01300120 IEM_DS3505
ZGHA,2008-11-14 15:00,ZGHA 141500Z AUTO 2SM 12/12 A3009 RMK T01200120 IEM_DS3505
ZGHA,2008-11-14 16:00,ZGHA 141600Z AUTO 00000KT 1 1/2SM 12/11 A3009 RMK T01200110 IEM_DS3505
ZGHA,2008-11-14 17:00,ZGHA 141700Z AUTO 00000KT 1 1/4SM 11/11 A3009 RMK T01100110 IEM_DS3505
ZGHA,2008-11-14 21:00,ZGHA 142100Z AUTO 00000KT 1 1/2SM 10/10 A3009 RMK T01000100 IEM_DS3505
ZGHA,2008-11-14 22:00,ZGHA 142200Z AUTO 00000KT 1SM 10/10 A3012 RMK T01000100 IEM_DS3505
ZGHA,2008-11-14 23:00,ZGHA 142300Z AUTO 34006KT 1/2SM 11/11 A3012 RMK T01100110 IEM_DS3505
ZGHA,2008-11-15 00:00,ZGHA 150000Z AUTO 00000KT 1/8SM 11/11 A3015 RMK T01100110 IEM_DS3505
ZGHA,2008-11-15 01:00,ZGHA 150100Z AUTO 1/8SM 12/12 A3018 RMK T01200120 IEM_DS3505
ZGHA,2008-11-15 02:00,ZGHA 150200Z AUTO 1 1/2SM 13/12 A3015 RMK T01300120 IEM_DS3505
ZGHA,2008-11-15 03:00,ZGHA 150300Z AUTO 28004KT 1 1/2SM 15/15 A3015 RMK T01500150 IEM_DS3505
ZGHA,2008-11-15 04:00,ZGHA 150400Z AUTO 28006KT 2SM 18/14 A3012 RMK T01800140 IEM_DS3505
ZGHA,2008-11-15 05:00,ZGHA 150500Z AUTO 29004KT 2 1/2SM 19/13 A3009 RMK T01900130 IEM_DS3505
ZGHA,2008-11-15 06:00,ZGHA 150600Z AUTO 32006KT 3SM 20/13 A3006 RMK T02000130 IEM_DS3505
ZGHA,2008-11-15 07:00,ZGHA 150700Z AUTO 30006KT 2 1/2SM 20/15 A3003 RMK T02000150 IEM_DS3505
ZGHA,2008-11-15 08:00,ZGHA 150800Z AUTO 31008KT 2 1/2SM 20/15 A3003 RMK T02000150 IEM_DS3505
ZGHA,2008-11-15 09:00,ZGHA 150900Z AUTO 35006KT 2SM 18/14 A3003 RMK T01800140 IEM_DS3505
ZGHA,2008-11-15 10:00,ZGHA 151000Z AUTO 34004KT 1 1/2SM 17/14 A3003 RMK T01700140 IEM_DS3505
ZGHA,2008-11-15 11:00,ZGHA 151100Z AUTO 34006KT 1 1/2SM 16/14 A3006 RMK T01600140 IEM_DS3505
ZGHA,2008-11-15 12:00,ZGHA 151200Z AUTO 30004KT 1 1/2SM 15/13 A3009 RMK T01500130 IEM_DS3505
ZGHA,2008-11-15 13:00,ZGHA 151300Z AUTO 33004KT 1SM 14/13 A3009 RMK T01400130 IEM_DS3505
ZGHA,2008-11-15 14:00,ZGHA 151400Z AUTO 1SM 14/13 A3012 RMK T01400130 IEM_DS3505
ZGHA,2008-11-15 15:00,ZGHA 151500Z AUTO 1SM 14/13 A3009 RMK T01400130 IEM_DS3505
ZGHA,2008-11-15 16:00,ZGHA 151600Z AUTO 36004KT 1SM 14/13 A3012 RMK T01400130 IEM_DS3505
ZGHA,2008-11-15 17:00,ZGHA 151700Z AUTO 32004KT 1SM 14/13 A3012 RMK T01400130 IEM_DS3505
ZGHA,2008-11-15 18:00,ZGHA 151800Z AUTO 34002KT 1SM 14/13 A3012 RMK T01400130 IEM_DS3505
ZGHA,2008-11-15 19:00,ZGHA 151900Z AUTO 1SM 14/13 A3012 RMK T01400130 IEM_DS3505
ZGHA,2008-11-15 20:00,ZGHA 152000Z AUTO 34004KT 1/2SM 14/13 A3012 RMK T01400130 IEM_DS3505
ZGHA,2008-11-15 21:00,ZGHA 152100Z AUTO 35002KT 3/8SM 14/13 A3012 RMK T01400130 IEM_DS3505
ZGHA,2008-11-15 22:00,ZGHA 152200Z AUTO 35002KT 1/2SM 14/13 A3012 RMK T01400130 IEM_DS3505
ZGHA,2008-11-15 23:00,ZGHA 152300Z AUTO 36004KT 1/2SM 14/13 A3012 RMK T01400130 IEM_DS3505
ZGHA,2008-11-16 00:00,ZGHA 160000Z AUTO 36004KT 1SM 14/12 A3015 RMK T01400120 IEM_DS3505
ZGHA,2008-11-16 01:00,ZGHA 160100Z AUTO 36004KT 1SM 14/12 A3015 RMK T01400120 IEM_DS3505
ZGHA,2008-11-16 02:00,ZGHA 160200Z AUTO 32006KT 1SM 14/12 A3015 RMK T01400120 IEM_DS3505
ZGHA,2008-11-16 03:00,ZGHA 160300Z AUTO 31004KT 1SM 16/13 A3015 RMK T01600130 IEM_DS3505
ZGHA,2008-11-16 04:00,ZGHA 160400Z AUTO 30006KT 1 1/4SM 16/13 A3012 RMK T01600130 IEM_DS3505
ZGHA,2008-11-16 05:00,ZGHA 160500Z AUTO 32004KT 1 1/2SM 17/13 A3009 RMK T01700130 IEM_DS3505
ZGHA,2008-11-16 06:00,ZGHA 160600Z AUTO 29006KT 1 1/2SM 17/13 A3006 RMK T01700130 IEM_DS3505
ZGHA,2008-11-16 07:00,ZGHA 160700Z AUTO 30006KT 1 1/2SM 18/13 A3003 RMK T01800130 IEM_DS3505
ZGHA,2008-11-16 08:00,ZGHA 160800Z AUTO 31008KT 1 1/2SM 17/13 A3003 RMK T01700130 IEM_DS3505
ZGHA,2008-11-16 09:00,ZGHA 160900Z AUTO 36004KT 1 1/2SM 16/13 A3003 RMK T01600130 IEM_DS3505
ZGHA,2008-11-16 10:00,ZGHA 161000Z AUTO 36004KT 1 1/2SM 16/13 A3003 RMK T01600130 IEM_DS3505
ZGHA,2008-11-16 11:00,ZGHA 161100Z AUTO 36004KT 1 1/2SM 15/13 A3006 RMK T01500130 IEM_DS3505
ZGHA,2008-11-16 12:00,ZGHA 161200Z AUTO 34006KT 1 1/2SM 15/13 A3009 RMK T01500130 IEM_DS3505
ZGHA,2008-11-16 13:00,ZGHA 161300Z AUTO 1 1/2SM 15/13 A3009 RMK T01500130 IEM_DS3505
ZGHA,2008-11-16 14:00,ZGHA 161400Z AUTO 36006KT 1 1/2SM 15/13 A3009 RMK T01500130 IEM_DS3505
ZGHA,2008-11-16 15:00,ZGHA 161500Z AUTO 34006KT 1 1/2SM 14/13 A3012 RMK T01400130 IEM_DS3505
ZGHA,2008-11-16 16:00,ZGHA 161600Z AUTO 36004KT 1SM 14/13 A3012 RMK T01400130 IEM_DS3505
ZGHA,2008-11-16 18:00,ZGHA 161800Z AUTO 35006KT 1SM 14/13 A3015 RMK T01400130 IEM_DS3505
ZGHA,2008-11-16 20:00,ZGHA 162000Z AUTO 34008KT 1SM 13/13 A3015 RMK T01300130 IEM_DS3505
ZGHA,2008-11-16 21:00,ZGHA 162100Z AUTO 33006KT 1SM 13/13 A3015 RMK T01300130 IEM_DS3505
ZGHA,2008-11-16 22:00,ZGHA 162200Z AUTO 34006KT 1SM 13/13 A3015 RMK T01300130 IEM_DS3505
ZGHA,2008-11-16 23:00,ZGHA 162300Z AUTO 33008KT 1SM 13/12 A3018 RMK T01300120 IEM_DS3505
ZGHA,2008-11-17 00:00,ZGHA 170000Z AUTO 34008KT 1SM 13/12 A3021 RMK T01300120 IEM_DS3505
ZGHA,2008-11-17 01:00,ZGHA 170100Z AUTO 36006KT 1SM 12/12 A3021 RMK T01200120 IEM_DS3505
ZGHA,2008-11-17 02:00,ZGHA 170200Z AUTO 34008KT 1SM 12/12 A3021 RMK T01200120 IEM_DS3505
ZGHA,2008-11-17 03:00,ZGHA 170300Z AUTO 34010KT 1SM 13/12 A3021 RMK T01300120 IEM_DS3505
ZGHA,2008-11-17 04:00,ZGHA 170400Z AUTO 34008KT 1SM 12/12 A3021 RMK T01200120 IEM_DS3505
ZGHA,2008-11-17 05:00,ZGHA 170500Z AUTO 34010KT 1SM 12/11 A3018 RMK T01200110 IEM_DS3505
ZGHA,2008-11-17 06:00,ZGHA 170600Z AUTO 34008KT 1SM 11/11 A3018 RMK T01100110 IEM_DS3505
ZGHA,2008-11-17 07:00,ZGHA 170700Z AUTO 35010KT 1SM 11/10 A3018 RMK T01100100 IEM_DS3505
ZGHA,2008-11-17 08:00,ZGHA 170800Z AUTO 36010KT 1 1/4SM 11/10 A3021 RMK T01100100 IEM_DS3505
ZGHA,2008-11-17 09:00,ZGHA 170900Z AUTO 36010KT 2 1/2SM 11/10 A3021 RMK T01100100 IEM_DS3505
ZGHA,2008-11-17 10:00,ZGHA 171000Z AUTO 35010KT 2SM 11/10 A3024 RMK T01100100 IEM_DS3505
ZGHA,2008-11-17 11:00,ZGHA 171100Z AUTO 35010KT 1 1/2SM 10/10 A3027 RMK T01000100 IEM_DS3505
ZGHA,2008-11-17 12:00,ZGHA 171200Z AUTO 36008KT 1 1/2SM 10/10 A3030 RMK T01000100 IEM_DS3505
ZGHA,2008-11-17 13:00,ZGHA 171300Z AUTO 36006KT 2SM 10/10 A3030 RMK T01000100 IEM_DS3505
ZGHA,2008-11-17 14:00,ZGHA 171400Z AUTO 36006KT 2 1/2SM 11/09 A3033 RMK T01100090 IEM_DS3505
ZGHA,2008-11-17 15:00,ZGHA 171500Z AUTO 34006KT 2SM 10/09 A3033 RMK T01000090 IEM_DS3505
ZGHA,2008-11-17 16:00,ZGHA 171600Z AUTO 36006KT 2SM 10/09 A3033 RMK T01000090 IEM_DS3505
ZGHA,2008-11-17 17:00,ZGHA 171700Z AUTO 33004KT 1 1/2SM 10/10 A3033 RMK T01000100 IEM_DS3505
ZGHA,2008-11-17 18:00,ZGHA 171800Z AUTO 35006KT 1 1/2SM 10/10 A3033 RMK T01000100 IEM_DS3505
ZGHA,2008-11-17 19:00,ZGHA 171900Z AUTO 36004KT 1 1/2SM 10/10 A3036 RMK T01000100 IEM_DS3505
ZGHA,2008-11-17 20:00,ZGHA 172000Z AUTO 36006KT 1 1/2SM 10/10 A3036 RMK T01000100 IEM_DS3505
ZGHA,2008-11-17 21:00,ZGHA 172100Z AUTO 35006KT 1 1/2SM 10/10 A3036 RMK T01000100 IEM_DS3505
ZGHA,2008-11-17 22:00,ZGHA 172200Z AUTO 36004KT 1 1/2SM 10/09 A3036 RMK T01000090 IEM_DS3505
ZGHA,2008-11-17 23:00,ZGHA 172300Z AUTO 34006KT 2SM 10/09 A3039 RMK T01000090 IEM_DS3505
ZGHA,2008-11-18 00:00,ZGHA 180000Z AUTO 36006KT 2 1/2SM 10/10 A3042 RMK T01000100 IEM_DS3505
ZGHA,2008-11-18 01:00,ZGHA 180100Z AUTO 3SM 10/10 A3042 RMK T01000100 IEM_DS3505
ZGHA,2008-11-18 02:00,ZGHA 180200Z AUTO 03004KT 4SM 12/11 A3042 RMK T01200110 IEM_DS3505
ZGHA,2008-11-18 03:00,ZGHA 180300Z AUTO 02004KT 6SM 13/11 A3042 RMK T01300110 IEM_DS3505
ZGHA,2008-11-18 04:00,ZGHA 180400Z AUTO 01006KT 6SM 15/11 A3039 RMK T01500110 IEM_DS3505
ZGHA,2008-11-18 05:00,ZGHA 180500Z AUTO 36008KT 6SM 16/07 A3036 RMK T01600070 IEM_DS3505
ZGHA,2008-11-18 06:00,ZGHA 180600Z AUTO 36010KT 6SM 17/08 A3033 RMK T01700080 IEM_DS3505
ZGHA,2008-11-18 07:00,ZGHA 180700Z AUTO 36006KT 6SM 17/06 A3033 RMK T01700060 IEM_DS3505
ZGHA,2008-11-18 08:00,ZGHA 180800Z AUTO 34010KT 6SM 16/08 A3033 RMK T01600080 IEM_DS3505
ZGHA,2008-11-18 09:00,ZGHA 180900Z AUTO 35006KT 6SM 15/08 A3033 RMK T01500080 IEM_DS3505
ZGHA,2008-11-18 10:00,ZGHA 181000Z AUTO 32008KT 6SM 14/08 A3036 RMK T01400080 IEM_DS3505
ZGHA,2008-11-18 11:00,ZGHA 181100Z AUTO 35006KT 6SM 14/08 A3039 RMK T01400080 IEM_DS3505
ZGHA,2008-11-18 12:00,ZGHA 181200Z AUTO 01004KT 6SM 13/07 A3039 RMK T01300070 IEM_DS3505
ZGHA,2008-11-18 13:00,ZGHA 181300Z AUTO 02004KT 6SM 12/07 A3042 RMK T01200070 IEM_DS3505
ZGHA,2008-11-18 14:00,ZGHA 181400Z AUTO 36008KT 6SM 12/06 A3045 RMK T01200060 IEM_DS3505
ZGHA,2008-11-18 15:00,ZGHA 181500Z AUTO 01004KT 6SM 12/06 A3045 RMK T01200060 IEM_DS3505
ZGHA,2008-11-18 16:00,ZGHA 181600Z AUTO 6SM 12/06 A3047 RMK T01200060 IEM_DS3505
ZGHA,2008-11-18 17:00,ZGHA 181700Z AUTO 36004KT 6SM 11/07 A3047 RMK T01100070 IEM_DS3505
ZGHA,2008-11-18 18:00,ZGHA 181800Z AUTO 7SM 11/06 A3047 RMK T01100060 IEM_DS3505
ZGHA,2008-11-18 19:00,ZGHA 181900Z AUTO 36006KT 7SM 11/06 A3047 RMK T01100060 IEM_DS3505
ZGHA,2008-11-18 20:00,ZGHA 182000Z AUTO 7SM 11/06 A3047 RMK T01100060 IEM_DS3505
ZGHA,2008-11-18 21:00,ZGHA 182100Z AUTO 02004KT 6SM 10/05 A3050 RMK T01000050 IEM_DS3505
ZGHA,2008-11-18 22:00,ZGHA 182200Z AUTO 02004KT 6SM 09/05 A3050 RMK T00900050 IEM_DS3505
ZGHA,2008-11-18 23:00,ZGHA 182300Z AUTO 02004KT 6SM 09/04 A3050 RMK T00900040 IEM_DS3505
ZGHA,2008-11-19 00:00,ZGHA 190000Z AUTO 02004KT 6SM 09/03 A3053 RMK T00900030 IEM_DS3505
ZGHA,2008-11-19 01:00,ZGHA 190100Z AUTO 01006KT 6SM 11/02 A3056 RMK T01100020 IEM_DS3505
ZGHA,2008-11-19 02:00,ZGHA 190200Z AUTO 01004KT 6SM 13/M01 A3056 RMK T01301010 IEM_DS3505
ZGHA,2008-11-19 03:00,ZGHA 190300Z AUTO 36006KT 6SM 14/00 A3056 RMK T01400000 IEM_DS3505
ZGHA,2008-11-19 04:00,ZGHA 190400Z AUTO 36006KT 6SM 16/M02 A3053 RMK T01601020 IEM_DS3505
ZGHA,2008-11-19 05:00,ZGHA 190500Z AUTO 01008KT 6SM 15/M03 A3050 RMK T01501030 IEM_DS3505
ZGHA,2008-11-19 06:00,ZGHA 190600Z AUTO 6SM 16/M02 A3047 RMK T01601020 IEM_DS3505
ZGHA,2008-11-19 07:00,ZGHA 190700Z AUTO 02006KT 6SM 16/M02 A3045 RMK T01601020 IEM_DS3505
ZGHA,2008-11-19 08:00,ZGHA 190800Z AUTO 01006KT 6SM 16/M03 A3045 RMK T01601030 IEM_DS3505
ZGHA,2008-11-19 09:00,ZGHA 190900Z AUTO 36006KT 6SM 14/M02 A3045 RMK T01401020 IEM_DS3505
ZGHA,2008-11-19 10:00,ZGHA 191000Z AUTO 33004KT 6SM 12/01 A3047 RMK T01200010 IEM_DS3505
ZGHA,2008-11-19 11:00,ZGHA 191100Z AUTO 34002KT 6SM 11/02 A3047 RMK T01100020 IEM_DS3505
ZGHA,2008-11-19 12:00,ZGHA 191200Z AUTO 6SM 09/03 A3047 RMK T00900030 IEM_DS3505
ZGHA,2008-11-19 13:00,ZGHA 191300Z AUTO 06002KT 6SM 08/05 A3047 RMK T00800050 IEM_DS3505
ZGHA,2008-11-19 14:00,ZGHA 191400Z AUTO 32004KT 6SM 06/04 A3047 RMK T00600040 IEM_DS3505
ZGHA,2008-11-19 15:00,ZGHA 191500Z AUTO 6SM 06/04 A3050 RMK T00600040 IEM_DS3505
ZGHA,2008-11-19 16:00,ZGHA 191600Z AUTO 6SM 05/04 A3050 RMK T00500040 IEM_DS3505
ZGHA,2008-11-19 17:00,ZGHA 191700Z AUTO 00000KT 6SM 05/04 A3047 RMK T00500040 IEM_DS3505
ZGHA,2008-11-19 18:00,ZGHA 191800Z AUTO 6SM 05/04 A3047 RMK T00500040 IEM_DS3505
ZGHA,2008-11-19 19:00,ZGHA 191900Z AUTO 6SM 04/03 A3045 RMK T00400030 IEM_DS3505
ZGHA,2008-11-19 20:00,ZGHA 192000Z AUTO 00000KT 6SM 03/02 A3045 RMK T00300020 IEM_DS3505
ZGHA,2008-11-19 21:00,ZGHA 192100Z AUTO 6SM 03/02 A3045 RMK T00300020 IEM_DS3505
ZGHA,2008-11-19 22:00,ZGHA 192200Z AUTO 00000KT 4SM 03/02 A3045 RMK T00300020 IEM_DS3505
ZGHA,2008-11-19 23:00,ZGHA 192300Z AUTO 00000KT 3SM 02/02 A3045 RMK T00200020 IEM_DS3505
ZGHA,2008-11-20 00:00,ZGHA 200000Z AUTO 4SM 04/04 A3047 RMK T00400040 IEM_DS3505
ZGHA,2008-11-20 01:00,ZGHA 200100Z AUTO 6SM 08/06 A3047 RMK T00800060 IEM_DS3505
ZGHA,2008-11-20 02:00,ZGHA 200200Z AUTO 35004KT 6SM 11/04 A3045 RMK T01100040 IEM_DS3505
ZGHA,2008-11-20 03:00,ZGHA 200300Z AUTO 6SM 12/01 A3045 RMK T01200010 IEM_DS3505
ZGHA,2008-11-20 04:00,ZGHA 200400Z AUTO 31006KT 6SM 14/00 A3039 RMK T01400000 IEM_DS3505
ZGHA,2008-11-20 05:00,ZGHA 200500Z AUTO 6SM 14/M01 A3036 RMK T01401010 IEM_DS3505
ZGHA,2008-11-20 06:00,ZGHA 200600Z AUTO 25004KT 6SM 15/M01 A3030 RMK T01501010 IEM_DS3505
ZGHA,2008-11-20 07:00,ZGHA 200700Z AUTO 6SM 14/M01 A3030 RMK T01401010 IEM_DS3505
ZGHA,2008-11-20 08:00,ZGHA 200800Z AUTO 6SM 14/00 A3030 RMK T01400000 IEM_DS3505
ZGHA,2008-11-20 09:00,ZGHA 200900Z AUTO 33004KT 6SM 14/01 A3027 RMK T01400010 IEM_DS3505
ZGHA,2008-11-20 10:00,ZGHA 201000Z AUTO 6SM 13/02 A3027 RMK T01300020 IEM_DS3505
ZGHA,2008-11-20 11:00,ZGHA 201100Z AUTO 00000KT 6SM 12/05 A3030 RMK T01200050 IEM_DS3505
ZGHA,2008-11-20 12:00,ZGHA 201200Z AUTO 00000KT 6SM 11/07 A3030 RMK T01100070 IEM_DS3505
ZGHA,2008-11-20 13:00,ZGHA 201300Z AUTO 00000KT 6SM 11/07 A3030 RMK T01100070 IEM_DS3505
ZGHA,2008-11-20 14:00,ZGHA 201400Z AUTO 7SM 11/08 A3033 RMK T01100080 IEM_DS3505
ZGHA,2008-11-20 15:00,ZGHA 201500Z AUTO 00000KT 6SM 12/05 A3033 RMK T01200050 IEM_DS3505
ZGHA,2008-11-20 16:00,ZGHA 201600Z AUTO 29004KT 6SM 11/06 A3033 RMK T01100060 IEM_DS3505
ZGHA,2008-11-20 17:00,ZGHA 201700Z AUTO 5SM 11/06 A3033 RMK T01100060 IEM_DS3505
ZGHA,2008-11-20 18:00,ZGHA 201800Z AUTO 36002KT 5SM 11/06 A3030 RMK T01100060 IEM_DS3505
ZGHA,2008-11-20 19:00,ZGHA 201900Z AUTO 32002KT 7SM 11/06 A3033 RMK T01100060 IEM_DS3505
ZGHA,2008-11-20 20:00,ZGHA 202000Z AUTO 00000KT 7SM 11/07 A3033 RMK T01100070 IEM_DS3505
ZGHA,2008-11-20 21:00,ZGHA 202100Z AUTO 00000KT 4SM 10/08 A3030 RMK T01000080 IEM_DS3505
ZGHA,2008-11-20 22:00,ZGHA 202200Z AUTO 00000KT 4SM 10/08 A3033 RMK T01000080 IEM_DS3505
ZGHA,2008-11-20 23:00,ZGHA 202300Z AUTO 00000KT 5SM 10/08 A3036 RMK T01000080 IEM_DS3505
ZGHA,2008-11-21 00:00,ZGHA 210000Z AUTO 00000KT 4SM 11/09 A3036 RMK T01100090 IEM_DS3505
ZGHA,2008-11-21 01:00,ZGHA 210100Z AUTO 00000KT 4SM 12/09 A3036 RMK T01200090 IEM_DS3505
ZGHA,2008-11-21 02:00,ZGHA 210200Z AUTO 5SM 13/07 A3036 RMK T01300070 IEM_DS3505
ZGHA,2008-11-21 03:00,ZGHA 210300Z AUTO 6SM 13/04 A3036 RMK T01300040 IEM_DS3505
ZGHA,2008-11-21 04:00,ZGHA 210400Z AUTO 6SM 16/03 A3033 RMK T01600030 IEM_DS3505
ZGHA,2008-11-21 05:00,ZGHA 210500Z AUTO 6SM 17/05 A3027 RMK T01700050 IEM_DS3505
ZGHA,2008-11-21 06:00,ZGHA 210600Z AUTO 6SM 16/03 A3027 RMK T01600030 IEM_DS3505
ZGHA,2008-11-21 07:00,ZGHA 210700Z AUTO 6SM 16/02 A3024 RMK T01600020 IEM_DS3505
ZGHA,2008-11-21 08:00,ZGHA 210800Z AUTO 6SM 15/04 A3024 RMK T01500040 IEM_DS3505
ZGHA,2008-11-21 09:00,ZGHA 210900Z AUTO 6SM 14/05 A3024 RMK T01400050 IEM_DS3505
ZGHA,2008-11-21 10:00,ZGHA 211000Z AUTO 6SM 14/06 A3024 RMK T01400060 IEM_DS3505
ZGHA,2008-11-21 11:00,ZGHA 211100Z AUTO 6SM 13/06 A3024 RMK T01300060 IEM_DS3505
ZGHA,2008-11-21 12:00,ZGHA 211200Z AUTO 6SM 13/07 A3027 RMK T01300070 IEM_DS3505
ZGHA,2008-11-21 13:00,ZGHA 211300Z AUTO 00000KT 7SM 12/07 A3027 RMK T01200070 IEM_DS3505
ZGHA,2008-11-21 14:00,ZGHA 211400Z AUTO 36002KT 5SM 12/08 A3027 RMK T01200080 IEM_DS3505
ZGHA,2008-11-21 15:00,ZGHA 211500Z AUTO 34002KT 5SM 12/08 A3027 RMK T01200080 IEM_DS3505
ZGHA,2008-11-21 16:00,ZGHA 211600Z AUTO 00000KT 5SM 12/07 A3027 RMK T01200070 IEM_DS3505
ZGHA,2008-11-21 17:00,ZGHA 211700Z AUTO 35002KT 4SM 12/08 A3027 RMK T01200080 IEM_DS3505
ZGHA,2008-11-21 18:00,ZGHA 211800Z AUTO 4SM 12/08 A3024 RMK T01200080 IEM_DS3505
ZGHA,2008-11-21 19:00,ZGHA 211900Z AUTO 7SM 12/08 A3024 RMK T01200080 IEM_DS3505
ZGHA,2008-11-21 20:00,ZGHA 212000Z AUTO 34002KT 4SM 12/08 A3024 RMK T01200080 IEM_DS3505
ZGHA,2008-11-21 21:00,ZGHA 212100Z AUTO 5SM 12/08 A3024 RMK T01200080 IEM_DS3505
ZGHA,2008-11-21 22:00,ZGHA 212200Z AUTO 4SM 11/08 A3024 RMK T01100080 IEM_DS3505
ZGHA,2008-11-21 23:00,ZGHA 212300Z AUTO 36002KT 3SM 11/08 A3027 RMK T01100080 IEM_DS3505
ZGHA,2008-11-22 00:00,ZGHA 220000Z AUTO 34004KT 4SM 12/08 A3027 RMK T01200080 IEM_DS3505
ZGHA,2008-11-22 01:00,ZGHA 220100Z AUTO 00000KT 5SM 12/09 A3030 RMK T01200090 IEM_DS3505
ZGHA,2008-11-22 02:00,ZGHA 220200Z AUTO 33004KT 7SM 12/08 A3030 RMK T01200080 IEM_DS3505
ZGHA,2008-11-22 03:00,ZGHA 220300Z AUTO 31004KT 7SM 12/08 A3030 RMK T01200080 IEM_DS3505
ZGHA,2008-11-22 04:00,ZGHA 220400Z AUTO 34008KT 7SM 12/07 A3027 RMK T01200070 IEM_DS3505
ZGHA,2008-11-22 05:00,ZGHA 220500Z AUTO 34006KT 7SM 12/08 A3027 RMK T01200080 IEM_DS3505
ZGHA,2008-11-22 06:00,ZGHA 220600Z AUTO 36006KT 7SM 11/08 A3027 RMK T01100080 IEM_DS3505
ZGHA,2008-11-22 07:00,ZGHA 220700Z AUTO 02004KT 7SM 11/07 A3024 RMK T01100070 IEM_DS3505
ZGHA,2008-11-22 08:00,ZGHA 220800Z AUTO 7SM 11/07 A3024 RMK T01100070 IEM_DS3505
ZGHA,2008-11-22 09:00,ZGHA 220900Z AUTO 7SM 11/08 A3024 RMK T01100080 IEM_DS3505
ZGHA,2008-11-22 10:00,ZGHA 221000Z AUTO 7SM 11/08 A3027 RMK T01100080 IEM_DS3505
ZGHA,2008-11-22 11:00,ZGHA 221100Z AUTO 33006KT 7SM 11/08 A3027 RMK T01100080 IEM_DS3505
ZGHA,2008-11-22 12:00,ZGHA 221200Z AUTO 5SM 11/08 A3030 RMK T01100080 IEM_DS3505
ZGHA,2008-11-22 13:00,ZGHA 221300Z AUTO 5SM 11/09 A3030 RMK T01100090 IEM_DS3505
ZGHA,2008-11-22 14:00,ZGHA 221400Z AUTO 34004KT 4SM 10/09 A3033 RMK T01000090 IEM_DS3505
ZGHA,2008-11-22 15:00,ZGHA 221500Z AUTO 33004KT 2SM 10/09 A3033 RMK T01000090 IEM_DS3505
ZGHA,2008-11-22 16:00,ZGHA 221600Z AUTO 1 1/2SM 10/09 A3030 RMK T01000090 IEM_DS3505
ZGHA,2008-11-22 18:00,ZGHA 221800Z AUTO 01004KT 1SM 10/09 A3027 RMK T01000090 IEM_DS3505
ZGHA,2008-11-22 19:00,ZGHA 221900Z AUTO 34002KT 1 1/4SM 10/10 A3027 RMK T01000100 IEM_DS3505
ZGHA,2008-11-22 20:00,ZGHA 222000Z AUTO 00000KT 1SM 10/10 A3027 RMK T01000100 IEM_DS3505
ZGHA,2008-11-22 21:00,ZGHA 222100Z AUTO 33004KT 1 1/4SM 10/10 A3027 RMK T01000100 IEM_DS3505
ZGHA,2008-11-22 22:00,ZGHA 222200Z AUTO 29004KT 1SM 10/10 A3030 RMK T01000100 IEM_DS3505
ZGHA,2008-11-22 23:00,ZGHA 222300Z AUTO 32004KT 1SM 10/10 A3030 RMK T01000100 IEM_DS3505
ZGHA,2008-11-23 00:00,ZGHA 230000Z AUTO 30004KT 1SM 10/10 A3033 RMK T01000100 IEM_DS3505
ZGHA,2008-11-23 01:00,ZGHA 230100Z AUTO 36006KT 1 1/2SM 10/10 A3036 RMK T01000100 IEM_DS3505
ZGHA,2008-11-23 02:00,ZGHA 230200Z AUTO 30006KT 1 1/2SM 10/10 A3036 RMK T01000100 IEM_DS3505
ZGHA,2008-11-23 03:00,ZGHA 230300Z AUTO 32004KT 2SM 11/10 A3036 RMK T01100100 IEM_DS3505
ZGHA,2008-11-23 04:00,ZGHA 230400Z AUTO 2 1/2SM 11/10 A3033 RMK T01100100 IEM_DS3505
ZGHA,2008-11-23 05:00,ZGHA 230500Z AUTO 3SM 11/08 A3030 RMK T01100080 IEM_DS3505
ZGHA,2008-11-23 06:00,ZGHA 230600Z AUTO 32006KT 4SM 12/08 A3030 RMK T01200080 IEM_DS3505
ZGHA,2008-11-23 07:00,ZGHA 230700Z AUTO 4SM 13/08 A3027 RMK T01300080 IEM_DS3505
ZGHA,2008-11-23 08:00,ZGHA 230800Z AUTO 36004KT 4SM 13/07 A3027 RMK T01300070 IEM_DS3505
ZGHA,2008-11-23 09:00,ZGHA 230900Z AUTO 00000KT 5SM 12/07 A3030 RMK T01200070 IEM_DS3505
ZGHA,2008-11-23 10:00,ZGHA 231000Z AUTO 00000KT 4SM 10/07 A3030 RMK T01000070 IEM_DS3505
ZGHA,2008-11-23 11:00,ZGHA 231100Z AUTO 00000KT 2 1/2SM 08/07 A3033 RMK T00800070 IEM_DS3505
ZGHA,2008-11-23 12:00,ZGHA 231200Z AUTO 00000KT 2 1/2SM 08/07 A3036 RMK T00800070 IEM_DS3505
ZGHA,2008-11-23 13:00,ZGHA 231300Z AUTO 1 1/2SM 07/07 A3036 RMK T00700070 IEM_DS3505
ZGHA,2008-11-23 14:00,ZGHA 231400Z AUTO 11002KT 1 1/2SM 07/06 A3039 RMK T00700060 IEM_DS3505
ZGHA,2008-11-23 15:00,ZGHA 231500Z AUTO 00000KT 1 1/2SM 06/06 A3039 RMK T00600060 IEM_DS3505
ZGHA,2008-11-23 16:00,ZGHA 231600Z AUTO 00000KT 1 1/2SM 06/06 A3039 RMK T00600060 IEM_DS3505
ZGHA,2008-11-23 17:00,ZGHA 231700Z AUTO 08002KT 1 1/4SM 05/05 A3039 RMK T00500050 IEM_DS3505
ZGHA,2008-11-23 18:00,ZGHA 231800Z AUTO 3/8SM 05/05 A3039 RMK T00500050 IEM_DS3505
ZGHA,2008-11-23 19:00,ZGHA 231900Z AUTO 00000KT 1/8SM 05/05 A3039 RMK T00500050 IEM_DS3505
ZGHA,2008-11-23 20:00,ZGHA 232000Z AUTO 1/8SM 04/04 A3039 RMK T00400040 IEM_DS3505
ZGHA,2008-11-23 21:00,ZGHA 232100Z AUTO 1/8SM 04/04 A3036 RMK T00400040 IEM_DS3505
ZGHA,2008-11-23 22:00,ZGHA 232200Z AUTO 1/8SM 03/03 A3039 RMK T00300030 IEM_DS3505
ZGHA,2008-11-23 23:00,ZGHA 232300Z AUTO 1/8SM 03/03 A3039 RMK T00300030 IEM_DS3505
ZGHA,2008-11-24 00:00,ZGHA 240000Z AUTO 1/8SM 03/03 A3039 RMK T00300030 IEM_DS3505
ZGHA,2008-11-24 01:00,ZGHA 240100Z AUTO 1/8SM 05/05 A3042 RMK T00500050 IEM_DS3505
ZGHA,2008-11-24 02:00,ZGHA 240200Z AUTO 00000KT 1/8SM 06/06 A3042 RMK T00600060 IEM_DS3505
ZGHA,2008-11-24 03:00,ZGHA 240300Z AUTO 14004KT 3/8SM 07/07 A3042 RMK T00700070 IEM_DS3505
ZGHA,2008-11-24 04:00,ZGHA 240400Z AUTO 1 1/2SM 10/10 A3039 RMK T01000100 IEM_DS3505
ZGHA,2008-11-24 05:00,ZGHA 240500Z AUTO 36002KT 2 1/2SM 13/12 A3036 RMK T01300120 IEM_DS3505
ZGHA,2008-11-24 06:00,ZGHA 240600Z AUTO 4SM 15/11 A3030 RMK T01500110 IEM_DS3505
ZGHA,2008-11-24 07:00,ZGHA 240700Z AUTO 34004KT 5SM 16/10 A3027 RMK T01600100 IEM_DS3505
ZGHA,2008-11-24 08:00,ZGHA 240800Z AUTO 33004KT 5SM 16/09 A3027 RMK T01600090 IEM_DS3505
ZGHA,2008-11-24 09:00,ZGHA 240900Z AUTO 5SM 16/09 A3030 RMK T01600090 IEM_DS3505
ZGHA,2008-11-24 10:00,ZGHA 241000Z AUTO 4SM 12/09 A3030 RMK T01200090 IEM_DS3505
ZGHA,2008-11-24 11:00,ZGHA 241100Z AUTO 36004KT 3SM 10/08 A3033 RMK T01000080 IEM_DS3505
ZGHA,2008-11-24 12:00,ZGHA 241200Z AUTO 3SM 09/07 A3036 RMK T00900070 IEM_DS3505
ZGHA,2008-11-24 13:00,ZGHA 241300Z AUTO 11002KT 3SM 08/07 A3036 RMK T00800070 IEM_DS3505
ZGHA,2008-11-24 14:00,ZGHA 241400Z AUTO 2 1/2SM 08/07 A3039 RMK T00800070 IEM_DS3505
ZGHA,2008-11-24 15:00,ZGHA 241500Z AUTO 00000KT 2SM 07/07 A3039 RMK T00700070 IEM_DS3505
ZGHA,2008-11-24 16:00,ZGHA 241600Z AUTO 00000KT 1 1/2SM 07/07 A3042 RMK T00700070 IEM_DS3505
ZGHA,2008-11-24 17:00,ZGHA 241700Z AUTO 36004KT 1 1/2SM 07/07 A3042 RMK T00700070 IEM_DS3505
ZGHA,2008-11-24 18:00,ZGHA 241800Z AUTO 1 1/2SM 07/06 A3042 RMK T00700060 IEM_DS3505
ZGHA,2008-11-24 19:00,ZGHA 241900Z AUTO 2SM 06/06 A3039 RMK T00600060 IEM_DS3505
ZGHA,2008-11-24 20:00,ZGHA 242000Z AUTO 1 1/2SM 06/06 A3039 RMK T00600060 IEM_DS3505
ZGHA,2008-11-24 21:00,ZGHA 242100Z AUTO 00000KT 1 1/2SM 06/06 A3039 RMK T00600060 IEM_DS3505
ZGHA,2008-11-24 22:00,ZGHA 242200Z AUTO 00000KT 1 1/2SM 06/05 A3039 RMK T00600050 IEM_DS3505
ZGHA,2008-11-24 23:00,ZGHA 242300Z AUTO 32004KT 1 1/2SM 06/05 A3042 RMK T00600050 IEM_DS3505
ZGHA,2008-11-25 00:00,ZGHA 250000Z AUTO 09002KT 1 1/2SM 07/07 A3045 RMK T00700070 IEM_DS3505
ZGHA,2008-11-25 01:00,ZGHA 250100Z AUTO 36002KT 2SM 10/09 A3045 RMK T01000090 IEM_DS3505
ZGHA,2008-11-25 02:00,ZGHA 250200Z AUTO 3SM 11/09 A3047 RMK T01100090 IEM_DS3505
ZGHA,2008-11-25 03:00,ZGHA 250300Z AUTO 4SM 14/09 A3045 RMK T01400090 IEM_DS3505
ZGHA,2008-11-25 04:00,ZGHA 250400Z AUTO 32008KT 4SM 16/08 A3042 RMK T01600080 IEM_DS3505
ZGHA,2008-11-25 05:00,ZGHA 250500Z AUTO 34006KT 4SM 17/08 A3039 RMK T01700080 IEM_DS3505
ZGHA,2008-11-25 06:00,ZGHA 250600Z AUTO 5SM 18/08 A3033 RMK T01800080 IEM_DS3505
ZGHA,2008-11-25 07:00,ZGHA 250700Z AUTO 32006KT 6SM 18/06 A3030 RMK T01800060 IEM_DS3505
ZGHA,2008-11-25 08:00,ZGHA 250800Z AUTO 35004KT 6SM 18/06 A3030 RMK T01800060 IEM_DS3505
ZGHA,2008-11-25 09:00,ZGHA 250900Z AUTO 34004KT 6SM 16/07 A3030 RMK T01600070 IEM_DS3505
ZGHA,2008-11-25 10:00,ZGHA 251000Z AUTO 35002KT 5SM 14/08 A3030 RMK T01400080 IEM_DS3505
ZGHA,2008-11-25 11:00,ZGHA 251100Z AUTO 3SM 11/09 A3033 RMK T01100090 IEM_DS3505
ZGHA,2008-11-25 12:00,ZGHA 251200Z AUTO 00000KT 3SM 10/09 A3033 RMK T01000090 IEM_DS3505
ZGHA,2008-11-25 13:00,ZGHA 251300Z AUTO 00000KT 2 1/2SM 09/08 A3036 RMK T00900080 IEM_DS3505
ZGHA,2008-11-25 14:00,ZGHA 251400Z AUTO 31002KT 2 1/2SM 10/09 A3036 RMK T01000090 IEM_DS3505
ZGHA,2008-11-25 15:00,ZGHA 251500Z AUTO 04002KT 1 1/2SM 08/07 A3036 RMK T00800070 IEM_DS3505
ZGHA,2008-11-25 16:00,ZGHA 251600Z AUTO 09002KT 1 1/2SM 08/07 A3036 RMK T00800070 IEM_DS3505
ZGHA,2008-11-25 17:00,ZGHA 251700Z AUTO 1 1/2SM 08/07 A3036 RMK T00800070 IEM_DS3505
ZGHA,2008-11-25 18:00,ZGHA 251800Z AUTO 09004KT 1 1/2SM 08/08 A3036 RMK T00800080 IEM_DS3505
ZGHA,2008-11-25 21:00,ZGHA 252100Z AUTO 1 1/2SM 08/08 A3030 RMK T00800080 IEM_DS3505
ZGHA,2008-11-25 22:00,ZGHA 252200Z AUTO 00000KT 1 1/4SM 07/07 A3030 RMK T00700070 IEM_DS3505
ZGHA,2008-11-25 23:00,ZGHA 252300Z AUTO 00000KT 1 1/4SM 08/08 A3033 RMK T00800080 IEM_DS3505
ZGHA,2008-11-26 00:00,ZGHA 260000Z AUTO 00000KT 1 1/2SM 08/08 A3033 RMK T00800080 IEM_DS3505
ZGHA,2008-11-26 01:00,ZGHA 260100Z AUTO 1 1/2SM 09/09 A3036 RMK T00900090 IEM_DS3505
ZGHA,2008-11-26 02:00,ZGHA 260200Z AUTO 00000KT 2SM 10/10 A3036 RMK T01000100 IEM_DS3505
ZGHA,2008-11-26 03:00,ZGHA 260300Z AUTO 00000KT 2SM 11/11 A3036 RMK T01100110 IEM_DS3505
ZGHA,2008-11-26 04:00,ZGHA 260400Z AUTO 2 1/2SM 14/12 A3033 RMK T01400120 IEM_DS3505
ZGHA,2008-11-26 05:00,ZGHA 260500Z AUTO 3SM 16/10 A3027 RMK T01600100 IEM_DS3505
ZGHA,2008-11-26 06:00,ZGHA 260600Z AUTO 26004KT 3SM 16/09 A3027 RMK T01600090 IEM_DS3505
ZGHA,2008-11-26 07:00,ZGHA 260700Z AUTO 22004KT 3SM 16/09 A3027 RMK T01600090 IEM_DS3505
ZGHA,2008-11-26 08:00,ZGHA 260800Z AUTO 4SM 17/09 A3027 RMK T01700090 IEM_DS3505
ZGHA,2008-11-26 09:00,ZGHA 260900Z AUTO 3SM 15/10 A3030 RMK T01500100 IEM_DS3505
ZGHA,2008-11-26 10:00,ZGHA 261000Z AUTO 08002KT 2SM 12/09 A3033 RMK T01200090 IEM_DS3505
ZGHA,2008-11-26 11:00,ZGHA 261100Z AUTO 00000KT 1 1/2SM 11/10 A3036 RMK T01100100 IEM_DS3505
ZGHA,2008-11-26 12:00,ZGHA 261200Z AUTO 1SM 10/09 A3039 RMK T01000090 IEM_DS3505
ZGHA,2008-11-26 13:00,ZGHA 261300Z AUTO 36004KT 1 1/2SM 09/09 A3042 RMK T00900090 IEM_DS3505
ZGHA,2008-11-26 14:00,ZGHA 261400Z AUTO 35010KT 2 1/2SM 12/11 A3045 RMK T01200110 IEM_DS3505
ZGHA,2008-11-26 15:00,ZGHA 261500Z AUTO 02006KT 6SM 12/05 A3045 RMK T01200050 IEM_DS3505
ZGHA,2008-11-26 16:00,ZGHA 261600Z AUTO 02004KT 6SM 10/05 A3047 RMK T01000050 IEM_DS3505
ZGHA,2008-11-26 17:00,ZGHA 261700Z AUTO 33004KT 6SM 09/05 A3047 RMK T00900050 IEM_DS3505
ZGHA,2008-11-26 18:00,ZGHA 261800Z AUTO 32006KT 6SM 08/06 A3050 RMK T00800060 IEM_DS3505
ZGHA,2008-11-26 19:00,ZGHA 261900Z AUTO 33010KT 6SM 10/05 A3050 RMK T01000050 IEM_DS3505
ZGHA,2008-11-26 20:00,ZGHA 262000Z AUTO 35012KT 7SM 10/04 A3050 RMK T01000040 IEM_DS3505
ZGHA,2008-11-26 21:00,ZGHA 262100Z AUTO 36006KT 6SM 09/00 A3053 RMK T00900000 IEM_DS3505
ZGHA,2008-11-26 22:00,ZGHA 262200Z AUTO 02004KT 6SM 08/M02 A3053 RMK T00801020 IEM_DS3505
ZGHA,2008-11-26 23:00,ZGHA 262300Z AUTO 6SM 05/M01 A3053 RMK T00501010 IEM_DS3505
ZGHA,2008-11-27 00:00,ZGHA 270000Z AUTO 33004KT 6SM 07/00 A3056 RMK T00700000 IEM_DS3505
ZGHA,2008-11-27 01:00,ZGHA 270100Z AUTO 36006KT 6SM 10/M04 A3059 RMK T01001040 IEM_DS3505
ZGHA,2008-11-27 02:00,ZGHA 270200Z AUTO 36010KT 6SM 10/M08 A3059 RMK T01001080 IEM_DS3505
ZGHA,2008-11-27 03:00,ZGHA 270300Z AUTO 02006KT 6SM 12/M07 A3056 RMK T01201070 IEM_DS3505
ZGHA,2008-11-27 04:00,ZGHA 270400Z AUTO 36010KT 6SM 13/M05 A3053 RMK T01301050 IEM_DS3505
ZGHA,2008-11-27 05:00,ZGHA 270500Z AUTO 35010KT 6SM 13/M06 A3047 RMK T01301060 IEM_DS3505
ZGHA,2008-11-27 06:00,ZGHA 270600Z AUTO 01008KT 6SM 13/M06 A3045 RMK T01301060 IEM_DS3505
ZGHA,2008-11-27 07:00,ZGHA 270700Z AUTO 36008KT 6SM 13/M05 A3042 RMK T01301050 IEM_DS3505
ZGHA,2008-11-27 08:00,ZGHA 270800Z AUTO 36008KT 6SM 13/M05 A3042 RMK T01301050 IEM_DS3505
ZGHA,2008-11-27 09:00,ZGHA 270900Z AUTO 01006KT 6SM 11/M06 A3042 RMK T01101060 IEM_DS3505
ZGHA,2008-11-27 10:00,ZGHA 271000Z AUTO 33004KT 6SM 09/M04 A3042 RMK T00901040 IEM_DS3505
ZGHA,2008-11-27 11:00,ZGHA 271100Z AUTO 33006KT 6SM 09/M04 A3042 RMK T00901040 IEM_DS3505
ZGHA,2008-11-27 12:00,ZGHA 271200Z AUTO 34004KT 6SM 07/M04 A3045 RMK T00701040 IEM_DS3505
ZGHA,2008-11-27 13:00,ZGHA 271300Z AUTO 6SM 05/M02 A3045 RMK T00501020 IEM_DS3505
ZGHA,2008-11-27 14:00,ZGHA 271400Z AUTO 04004KT 6SM 03/M01 A3045 RMK T00301010 IEM_DS3505
ZGHA,2008-11-27 15:00,ZGHA 271500Z AUTO 00000KT 6SM 02/00 A3047 RMK T00200000 IEM_DS3505
ZGHA,2008-11-27 16:00,ZGHA 271600Z AUTO 6SM 01/00 A3045 RMK T00100000 IEM_DS3505
ZGHA,2008-11-27 17:00,ZGHA 271700Z AUTO 00000KT 6SM 01/00 A3045 RMK T00100000 IEM_DS3505
ZGHA,2008-11-27 18:00,ZGHA 271800Z AUTO 00000KT 6SM 00/00 A3045 RMK T00000000 IEM_DS3505
ZGHA,2008-11-27 21:00,ZGHA 272100Z AUTO 2 1/2SM 00/M01 A3042 RMK T00001010 IEM_DS3505
ZGHA,2008-11-27 22:00,ZGHA 272200Z AUTO 00000KT 4SM M01/M02 A3042 RMK T10101020 IEM_DS3505
ZGHA,2008-11-27 23:00,ZGHA 272300Z AUTO 3SM M01/M02 A3042 RMK T10101020 IEM_DS3505
ZGHA,2008-11-28 00:00,ZGHA 280000Z AUTO 20004KT 3SM 00/00 A3045 RMK T00000000 IEM_DS3505
ZGHA,2008-11-28 01:00,ZGHA 280100Z AUTO 6SM 03/02 A3045 RMK T00300020 IEM_DS3505
ZGHA,2008-11-28 02:00,ZGHA 280200Z AUTO 17004KT 6SM 08/02 A3045 RMK T00800020 IEM_DS3505
ZGHA,2008-11-28 03:00,ZGHA 280300Z AUTO 6SM 11/M01 A3045 RMK T01101010 IEM_DS3505
ZGHA,2008-11-28 04:00,ZGHA 280400Z AUTO 28004KT 6SM 13/M03 A3039 RMK T01301030 IEM_DS3505
ZGHA,2008-11-28 05:00,ZGHA 280500Z AUTO 13004KT 6SM 14/M03 A3036 RMK T01401030 IEM_DS3505
ZGHA,2008-11-28 06:00,ZGHA 280600Z AUTO 10004KT 6SM 15/M05 A3033 RMK T01501050 IEM_DS3505
ZGHA,2008-11-28 07:00,ZGHA 280700Z AUTO 21004KT 6SM 16/M04 A3030 RMK T01601040 IEM_DS3505
ZGHA,2008-11-28 08:00,ZGHA 280800Z AUTO 23004KT 6SM 16/M03 A3030 RMK T01601030 IEM_DS3505
ZGHA,2008-11-28 09:00,ZGHA 280900Z AUTO 6SM 15/M03 A3033 RMK T01501030 IEM_DS3505
ZGHA,2008-11-28 10:00,ZGHA 281000Z AUTO 6SM 10/02 A3033 RMK T01000020 IEM_DS3505
ZGHA,2008-11-28 11:00,ZGHA 281100Z AUTO 00000KT 6SM 08/04 A3036 RMK T00800040 IEM_DS3505
ZGHA,2008-11-28 12:00,ZGHA 281200Z AUTO 00000KT 6SM 06/04 A3036 RMK T00600040 IEM_DS3505
ZGHA,2008-11-28 13:00,ZGHA 281300Z AUTO 36002KT 5SM 05/04 A3039 RMK T00500040 IEM_DS3505
ZGHA,2008-11-28 14:00,ZGHA 281400Z AUTO 09002KT 5SM 05/04 A3039 RMK T00500040 IEM_DS3505
ZGHA,2008-11-28 15:00,ZGHA 281500Z AUTO 4SM 05/04 A3039 RMK T00500040 IEM_DS3505
ZGHA,2008-11-28 16:00,ZGHA 281600Z AUTO 00000KT 4SM 04/03 A3039 RMK T00400030 IEM_DS3505
ZGHA,2008-11-28 17:00,ZGHA 281700Z AUTO 00000KT 4SM 04/03 A3042 RMK T00400030 IEM_DS3505
ZGHA,2008-11-28 18:00,ZGHA 281800Z AUTO 00000KT 3SM 04/04 A3042 RMK T00400040 IEM_DS3505
ZGHA,2008-11-28 21:00,ZGHA 282100Z AUTO 00000KT 3SM 03/02 A3042 RMK T00300020 IEM_DS3505
ZGHA,2008-11-28 22:00,ZGHA 282200Z AUTO 3SM 02/02 A3042 RMK T00200020 IEM_DS3505
ZGHA,2008-11-28 23:00,ZGHA 282300Z AUTO 18002KT 3SM 02/01 A3045 RMK T00200010 IEM_DS3505
ZGHA,2008-11-29 00:00,ZGHA 290000Z AUTO 00000KT 4SM 03/03 A3047 RMK T00300030 IEM_DS3505
ZGHA,2008-11-29 01:00,ZGHA 290100Z AUTO 5SM 07/06 A3047 RMK T00700060 IEM_DS3505
ZGHA,2008-11-29 02:00,ZGHA 290200Z AUTO 6SM 10/05 A3047 RMK T01000050 IEM_DS3505
ZGHA,2008-11-29 03:00,ZGHA 290300Z AUTO 33004KT 6SM 13/03 A3045 RMK T01300030 IEM_DS3505
ZGHA,2008-11-29 04:00,ZGHA 290400Z AUTO 35006KT 6SM 16/03 A3042 RMK T01600030 IEM_DS3505
ZGHA,2008-11-29 05:00,ZGHA 290500Z AUTO 33004G14KT 6SM 17/02 A3039 RMK T01700020 IEM_DS3505
ZGHA,2008-11-29 06:00,ZGHA 290600Z AUTO 34008KT 6SM 18/01 A3039 RMK T01800010 IEM_DS3505
ZGHA,2008-11-29 07:00,ZGHA 290700Z AUTO 35006KT 6SM 18/00 A3036 RMK T01800000 IEM_DS3505
ZGHA,2008-11-29 08:00,ZGHA 290800Z AUTO 33008KT 6SM 18/00 A3036 RMK T01800000 IEM_DS3505
ZGHA,2008-11-29 09:00,ZGHA 290900Z AUTO 34006KT 6SM 16/03 A3036 RMK T01600030 IEM_DS3505
ZGHA,2008-11-29 10:00,ZGHA 291000Z AUTO 31004KT 6SM 14/05 A3039 RMK T01400050 IEM_DS3505
ZGHA,2008-11-29 11:00,ZGHA 291100Z AUTO 6SM 12/05 A3039 RMK T01200050 IEM_DS3505
ZGHA,2008-11-29 12:00,ZGHA 291200Z AUTO 00000KT 4SM 10/06 A3042 RMK T01000060 IEM_DS3505
ZGHA,2008-11-29 13:00,ZGHA 291300Z AUTO 04002KT 2 1/2SM 09/07 A3042 RMK T00900070 IEM_DS3505
ZGHA,2008-11-29 14:00,ZGHA 291400Z AUTO 34002KT 2 1/2SM 08/06 A3042 RMK T00800060 IEM_DS3505
ZGHA,2008-11-29 15:00,ZGHA 291500Z AUTO 34004KT 2 1/2SM 08/05 A3042 RMK T00800050 IEM_DS3505
ZGHA,2008-11-29 16:00,ZGHA 291600Z AUTO 08002KT 2SM 06/05 A3042 RMK T00600050 IEM_DS3505
ZGHA,2008-11-29 17:00,ZGHA 291700Z AUTO 35002KT 2SM 05/04 A3039 RMK T00500040 IEM_DS3505
ZGHA,2008-11-29 18:00,ZGHA 291800Z AUTO 00000KT 1 1/2SM 04/03 A3039 RMK T00400030 IEM_DS3505
ZGHA,2008-11-29 20:00,ZGHA 292000Z AUTO 00000KT 1SM 03/03 A3039 RMK T00300030 IEM_DS3505
ZGHA,2008-11-29 21:00,ZGHA 292100Z AUTO 00000KT 1 1/2SM 03/03 A3039 RMK T00300030 IEM_DS3505
ZGHA,2008-11-29 22:00,ZGHA 292200Z AUTO 1 1/2SM 02/02 A3039 RMK T00200020 IEM_DS3505
ZGHA,2008-11-29 23:00,ZGHA 292300Z AUTO 00000KT 2SM 02/02 A3042 RMK T00200020 IEM_DS3505
ZGHA,2008-11-30 00:00,ZGHA 300000Z AUTO 2 1/2SM 04/03 A3042 RMK T00400030 IEM_DS3505
ZGHA,2008-11-30 01:00,ZGHA 300100Z AUTO 3SM 07/07 A3042 RMK T00700070 IEM_DS3505
ZGHA,2008-11-30 02:00,ZGHA 300200Z AUTO 4SM 11/07 A3042 RMK T01100070 IEM_DS3505
ZGHA,2008-11-30 03:00,ZGHA 300300Z AUTO 07004KT 5SM 14/07 A3042 RMK T01400070 IEM_DS3505
ZGHA,2008-11-30 04:00,ZGHA 300400Z AUTO 20004KT 6SM 16/06 A3039 RMK T01600060 IEM_DS3505
ZGHA,2008-11-30 05:00,ZGHA 300500Z AUTO 6SM 18/05 A3033 RMK T01800050 IEM_DS3505
ZGHA,2008-11-30 06:00,ZGHA 300600Z AUTO 6SM 19/03 A3030 RMK T01900030 IEM_DS3505
ZGHA,2008-11-30 07:00,ZGHA 300700Z AUTO 23004KT 6SM 20/02 A3027 RMK T02000020 IEM_DS3505
ZGHA,2008-11-30 08:00,ZGHA 300800Z AUTO 6SM 20/02 A3027 RMK T02000020 IEM_DS3505
ZGHA,2008-11-30 09:00,ZGHA 300900Z AUTO 6SM 18/03 A3027 RMK T01800030 IEM_DS3505
ZGHA,2008-11-30 10:00,ZGHA 301000Z AUTO 00000KT 4SM 12/06 A3027 RMK T01200060 IEM_DS3505
ZGHA,2008-11-30 11:00,ZGHA 301100Z AUTO 00000KT 4SM 10/07 A3027 RMK T01000070 IEM_DS3505
ZGHA,2008-11-30 12:00,ZGHA 301200Z AUTO 00000KT 4SM 08/06 A3030 RMK T00800060 IEM_DS3505
ZGHA,2008-11-30 13:00,ZGHA 301300Z AUTO 08002KT 3SM 07/06 A3030 RMK T00700060 IEM_DS3505
ZGHA,2008-11-30 14:00,ZGHA 301400Z AUTO 08002KT 4SM 07/06 A3030 RMK T00700060 IEM_DS3505
ZGHA,2008-11-30 15:00,ZGHA 301500Z AUTO 00000KT 3SM 06/05 A3030 RMK T00600050 IEM_DS3505
ZGHA,2008-11-30 16:00,ZGHA 301600Z AUTO 10002KT 3SM 05/05 A3030 RMK T00500050 IEM_DS3505
ZGHA,2008-11-30 17:00,ZGHA 301700Z AUTO 00000KT 2 1/2SM 05/04 A3030 RMK T00500040 IEM_DS3505
ZGHA,2008-11-30 18:00,ZGHA 301800Z AUTO 34002KT 2 1/2SM 05/04 A3027 RMK T00500040 IEM_DS3505
ZGHA,2008-11-30 19:00,ZGHA 301900Z AUTO 00000KT 1 1/4SM 04/04 A3027 RMK T00400040 IEM_DS3505
ZGHA,2008-11-30 21:00,ZGHA 302100Z AUTO 00000KT 2SM 03/03 A3027 RMK T00300030 IEM_DS3505
ZGHA,2008-11-30 22:00,ZGHA 302200Z AUTO 00000KT 2SM 03/02 A3030 RMK T00300020 IEM_DS3505
ZGHA,2008-11-30 23:00,ZGHA 302300Z AUTO 00000KT 2 1/2SM 03/02 A3030 RMK T00300020 IEM_DS3505
ZGHA,2008-12-01 00:00,ZGHA 010000Z AUTO 2 1/2SM 04/04 A3033 RMK T00400040 IEM_DS3505
ZGHA,2008-12-01 01:00,ZGHA 010100Z AUTO 2 1/2SM 07/07 A3033 RMK T00700070 IEM_DS3505
ZGHA,2008-12-01 02:00,ZGHA 010200Z AUTO 00000KT 5SM 11/07 A3033 RMK T01100070 IEM_DS3505
ZGHA,2008-12-01 03:00,ZGHA 010300Z AUTO 16004KT 6SM 15/07 A3033 RMK T01500070 IEM_DS3505
ZGHA,2008-12-01 04:00,ZGHA 010400Z AUTO 20006KT 6SM 17/06 A3030 RMK T01700060 IEM_DS3505
ZGHA,2008-12-01 05:00,ZGHA 010500Z AUTO 21004KT 6SM 19/05 A3024 RMK T01900050 IEM_DS3505
ZGHA,2008-12-01 06:00,ZGHA 010600Z AUTO 16004KT 6SM 20/05 A3021 RMK T02000050 IEM_DS3505
ZGHA,2008-12-01 07:00,ZGHA 010700Z AUTO 6SM 21/05 A3018 RMK T02100050 IEM_DS3505
ZGHA,2008-12-01 08:00,ZGHA 010800Z AUTO 6SM 20/05 A3018 RMK T02000050 IEM_DS3505
ZGHA,2008-12-01 09:00,ZGHA 010900Z AUTO 28004KT 6SM 18/06 A3018 RMK T01800060 IEM_DS3505
ZGHA,2008-12-01 10:00,ZGHA 011000Z AUTO 00000KT 4SM 14/09 A3018 RMK T01400090 IEM_DS3505
ZGHA,2008-12-01 11:00,ZGHA 011100Z AUTO 00000KT 2 1/2SM 12/09 A3021 RMK T01200090 IEM_DS3505
ZGHA,2008-12-01 12:00,ZGHA 011200Z AUTO 07002KT 2 1/2SM 12/09 A3021 RMK T01200090 IEM_DS3505
ZGHA,2008-12-01 13:00,ZGHA 011300Z AUTO 00000KT 2 1/2SM 11/09 A3021 RMK T01100090 IEM_DS3505
ZGHA,2008-12-01 14:00,ZGHA 011400Z AUTO 00000KT 2SM 10/08 A3024 RMK T01000080 IEM_DS3505
ZGHA,2008-12-01 15:00,ZGHA 011500Z AUTO 1 1/2SM 10/09 A3021 RMK T01000090 IEM_DS3505
ZGHA,2008-12-01 16:00,ZGHA 011600Z AUTO 34002KT 1 1/2SM 09/08 A3021 RMK T00900080 IEM_DS3505
ZGHA,2008-12-01 17:00,ZGHA 011700Z AUTO 1 1/2SM 09/08 A3021 RMK T00900080 IEM_DS3505
ZGHA,2008-12-01 21:00,ZGHA 012100Z AUTO 00000KT 1SM 06/05 A3018 RMK T00600050 IEM_DS3505
ZGHA,2008-12-01 22:00,ZGHA 012200Z AUTO 08002KT 1SM 05/05 A3015 RMK T00500050 IEM_DS3505
ZGHA,2008-12-01 23:00,ZGHA 012300Z AUTO 00000KT 2SM 05/05 A3018 RMK T00500050 IEM_DS3505
ZGHA,2008-12-02 00:00,ZGHA 020000Z AUTO 00000KT 2 1/2SM 07/06 A3018 RMK T00700060 IEM_DS3505
ZGHA,2008-12-02 01:00,ZGHA 020100Z AUTO 4SM 09/08 A3018 RMK T00900080 IEM_DS3505
ZGHA,2008-12-02 02:00,ZGHA 020200Z AUTO 4SM 13/09 A3018 RMK T01300090 IEM_DS3505
ZGHA,2008-12-02 03:00,ZGHA 020300Z AUTO 21006KT 6SM 18/08 A3015 RMK T01800080 IEM_DS3505
ZGHA,2008-12-02 04:00,ZGHA 020400Z AUTO 19006KT 6SM 19/06 A3012 RMK T01900060 IEM_DS3505
ZGHA,2008-12-02 05:00,ZGHA 020500Z AUTO 16004KT 6SM 20/06 A3009 RMK T02000060 IEM_DS3505
ZGHA,2008-12-02 06:00,ZGHA 020600Z AUTO 6SM 21/08 A3006 RMK T02100080 IEM_DS3505
ZGHA,2008-12-02 07:00,ZGHA 020700Z AUTO 18006KT 6SM 22/07 A3003 RMK T02200070 IEM_DS3505
ZGHA,2008-12-02 08:00,ZGHA 020800Z AUTO 20004KT 6SM 22/06 A3000 RMK T02200060 IEM_DS3505
ZGHA,2008-12-02 09:00,ZGHA 020900Z AUTO 6SM 20/08 A3000 RMK T02000080 IEM_DS3505
ZGHA,2008-12-02 10:00,ZGHA 021000Z AUTO 14002KT 5SM 15/09 A3000 RMK T01500090 IEM_DS3505
ZGHA,2008-12-02 11:00,ZGHA 021100Z AUTO 12002KT 4SM 13/09 A3000 RMK T01300090 IEM_DS3505
ZGHA,2008-12-02 12:00,ZGHA 021200Z AUTO 3SM 12/09 A3000 RMK T01200090 IEM_DS3505
ZGHA,2008-12-02 13:00,ZGHA 021300Z AUTO 08002KT 2 1/2SM 10/09 A2997 RMK T01000090 IEM_DS3505
ZGHA,2008-12-02 14:00,ZGHA 021400Z AUTO 06002KT 2SM 10/09 A2997 RMK T01000090 IEM_DS3505
ZGHA,2008-12-02 15:00,ZGHA 021500Z AUTO 00000KT 2 1/2SM 10/09 A2997 RMK T01000090 IEM_DS3505
ZGHA,2008-12-02 16:00,ZGHA 021600Z AUTO 2 1/2SM 10/09 A2997 RMK T01000090 IEM_DS3505
ZGHA,2008-12-02 17:00,ZGHA 021700Z AUTO 30002KT 2SM 10/09 A2997 RMK T01000090 IEM_DS3505
ZGHA,2008-12-02 18:00,ZGHA 021800Z AUTO 29004KT 1 1/2SM 10/09 A2997 RMK T01000090 IEM_DS3505
ZGHA,2008-12-02 19:00,ZGHA 021900Z AUTO 2SM 10/08 A2997 RMK T01000080 IEM_DS3505
ZGHA,2008-12-02 20:00,ZGHA 022000Z AUTO 29002KT 2SM 09/08 A2994 RMK T00900080 IEM_DS3505
ZGHA,2008-12-02 21:00,ZGHA 022100Z AUTO 33002KT 2SM 09/08 A2994 RMK T00900080 IEM_DS3505
ZGHA,2008-12-02 22:00,ZGHA 022200Z AUTO 2SM 10/09 A2997 RMK T01000090 IEM_DS3505
ZGHA,2008-12-02 23:00,ZGHA 022300Z AUTO 20004KT 2SM 09/08 A2997 RMK T00900080 IEM_DS3505
ZGHA,2008-12-03 00:00,ZGHA 030000Z AUTO 34004KT 3SM 11/09 A2997 RMK T01100090 IEM_DS3505
ZGHA,2008-12-03 01:00,ZGHA 030100Z AUTO 3SM 12/09 A3000 RMK T01200090 IEM_DS3505
ZGHA,2008-12-03 02:00,ZGHA 030200Z AUTO 18006KT 4SM 14/10 A3000 RMK T01400100 IEM_DS3505
ZGHA,2008-12-03 03:00,ZGHA 030300Z AUTO 18006KT 4SM 17/09 A3000 RMK T01700090 IEM_DS3505
ZGHA,2008-12-03 04:00,ZGHA 030400Z AUTO 18008KT 5SM 18/08 A2997 RMK T01800080 IEM_DS3505
ZGHA,2008-12-03 05:00,ZGHA 030500Z AUTO 14004KT 6SM 20/09 A2994 RMK T02000090 IEM_DS3505
ZGHA,2008-12-03 06:00,ZGHA 030600Z AUTO 17006KT 6SM 23/08 A2991 RMK T02300080 IEM_DS3505
ZGHA,2008-12-03 07:00,ZGHA 030700Z AUTO 17006KT 6SM 23/07 A2991 RMK T02300070 IEM_DS3505
ZGHA,2008-12-03 08:00,ZGHA 030800Z AUTO 20010KT 6SM 23/08 A2991 RMK T02300080 IEM_DS3505
ZGHA,2008-12-03 09:00,ZGHA 030900Z AUTO 16004KT 6SM 20/09 A2991 RMK T02000090 IEM_DS3505
ZGHA,2008-12-03 10:00,ZGHA 031000Z AUTO 08002KT 3SM 16/09 A2994 RMK T01600090 IEM_DS3505
ZGHA,2008-12-03 11:00,ZGHA 031100Z AUTO 00000KT 2 1/2SM 14/10 A2997 RMK T01400100 IEM_DS3505
ZGHA,2008-12-03 12:00,ZGHA 031200Z AUTO 2 1/2SM 13/09 A3000 RMK T01300090 IEM_DS3505
ZGHA,2008-12-03 13:00,ZGHA 031300Z AUTO 07002KT 2 1/2SM 11/09 A3003 RMK T01100090 IEM_DS3505
ZGHA,2008-12-03 14:00,ZGHA 031400Z AUTO 05002KT 2 1/2SM 11/09 A3006 RMK T01100090 IEM_DS3505
ZGHA,2008-12-03 15:00,ZGHA 031500Z AUTO 04002KT 2SM 10/08 A3006 RMK T01000080 IEM_DS3505
ZGHA,2008-12-03 16:00,ZGHA 031600Z AUTO 35008KT 2SM 10/07 A3009 RMK T01000070 IEM_DS3505
ZGHA,2008-12-03 18:00,ZGHA 031800Z AUTO 35004KT 3SM 10/08 A3015 RMK T01000080 IEM_DS3505
ZGHA,2008-12-03 19:00,ZGHA 031900Z AUTO 29004KT 2SM 11/09 A3015 RMK T01100090 IEM_DS3505
ZGHA,2008-12-03 20:00,ZGHA 032000Z AUTO 35004KT 2 1/2SM 12/10 A3018 RMK T01200100 IEM_DS3505
ZGHA,2008-12-03 21:00,ZGHA 032100Z AUTO 35008KT 2SM 13/09 A3018 RMK T01300090 IEM_DS3505
ZGHA,2008-12-03 22:00,ZGHA 032200Z AUTO 36012KT 2SM 14/05 A3024 RMK T01400050 IEM_DS3505
ZGHA,2008-12-03 23:00,ZGHA 032300Z AUTO 36008KT 2 1/2SM 14/04 A3027 RMK T01400040 IEM_DS3505
ZGHA,2008-12-04 00:00,ZGHA 040000Z AUTO 34010KT 3SM 13/05 A3030 RMK T01300050 IEM_DS3505
ZGHA,2008-12-04 01:00,ZGHA 040100Z AUTO 34012KT 4SM 13/04 A3033 RMK T01300040 IEM_DS3505
ZGHA,2008-12-04 02:00,ZGHA 040200Z AUTO 35012KT 4SM 13/04 A3036 RMK T01300040 IEM_DS3505
ZGHA,2008-12-04 03:00,ZGHA 040300Z AUTO 35010KT 4SM 13/03 A3036 RMK T01300030 IEM_DS3505
ZGHA,2008-12-04 04:00,ZGHA 040400Z AUTO 36010KT 4SM 14/04 A3036 RMK T01400040 IEM_DS3505
ZGHA,2008-12-04 05:00,ZGHA 040500Z AUTO 35010KT 5SM 13/03 A3036 RMK T01300030 IEM_DS3505
ZGHA,2008-12-04 06:00,ZGHA 040600Z AUTO 35010KT 5SM 13/01 A3036 RMK T01300010 IEM_DS3505
ZGHA,2008-12-04 07:00,ZGHA 040700Z AUTO 35012KT 5SM 13/00 A3036 RMK T01300000 IEM_DS3505
ZGHA,2008-12-04 08:00,ZGHA 040800Z AUTO 35014G27KT 5SM 10/01 A3042 RMK T01000010 IEM_DS3505
ZGHA,2008-12-04 09:00,ZGHA 040900Z AUTO 35016KT 4SM 09/04 A3045 RMK T00900040 IEM_DS3505
ZGHA,2008-12-04 10:00,ZGHA 041000Z AUTO 35010KT 4SM 07/05 A3050 RMK T00700050 IEM_DS3505
ZGHA,2008-12-04 11:00,ZGHA 041100Z AUTO 36008KT 4SM 07/06 A3056 RMK T00700060 IEM_DS3505
ZGHA,2008-12-04 12:00,ZGHA 041200Z AUTO 36006KT 4SM 07/05 A3062 RMK T00700050 IEM_DS3505
ZGHA,2008-12-04 13:00,ZGHA 041300Z AUTO 02004KT 4SM 07/05 A3062 RMK T00700050 IEM_DS3505
ZGHA,2008-12-04 14:00,ZGHA 041400Z AUTO 4SM 07/04 A3062 RMK T00700040 IEM_DS3505
ZGHA,2008-12-04 15:00,ZGHA 041500Z AUTO 35006KT 5SM 07/04 A3065 RMK T00700040 IEM_DS3505
ZGHA,2008-12-04 16:00,ZGHA 041600Z AUTO 36006KT 4SM 07/04 A3065 RMK T00700040 IEM_DS3505
ZGHA,2008-12-04 17:00,ZGHA 041700Z AUTO 36004KT 3SM 06/03 A3062 RMK T00600030 IEM_DS3505
ZGHA,2008-12-04 18:00,ZGHA 041800Z AUTO 34008KT 3SM 07/04 A3062 RMK T00700040 IEM_DS3505
ZGHA,2008-12-04 21:00,ZGHA 042100Z AUTO 4SM 03/02 A3062 RMK T00300020 IEM_DS3505
ZGHA,2008-12-04 22:00,ZGHA 042200Z AUTO 01004KT 5SM 03/M01 A3062 RMK T00301010 IEM_DS3505
ZGHA,2008-12-04 23:00,ZGHA 042300Z AUTO 36004KT 6SM 02/M01 A3062 RMK T00201010 IEM_DS3505
ZGHA,2008-12-05 00:00,ZGHA 050000Z AUTO 6SM 03/00 A3065 RMK T00300000 IEM_DS3505
ZGHA,2008-12-05 01:00,ZGHA 050100Z AUTO 01006KT 6SM 06/M02 A3065 RMK T00601020 IEM_DS3505
ZGHA,2008-12-05 02:00,ZGHA 050200Z AUTO 02004KT 6SM 08/M04 A3065 RMK T00801040 IEM_DS3505
ZGHA,2008-12-05 03:00,ZGHA 050300Z AUTO 6SM 10/M06 A3065 RMK T01001060 IEM_DS3505
ZGHA,2008-12-05 04:00,ZGHA 050400Z AUTO 36008KT 6SM 12/M05 A3059 RMK T01201050 IEM_DS3505
ZGHA,2008-12-05 05:00,ZGHA 050500Z AUTO 36010KT 6SM 12/M07 A3056 RMK T01201070 IEM_DS3505
ZGHA,2008-12-05 06:00,ZGHA 050600Z AUTO 02006KT 6SM 13/M06 A3053 RMK T01301060 IEM_DS3505
ZGHA,2008-12-05 07:00,ZGHA 050700Z AUTO 36008KT 6SM 13/M08 A3050 RMK T01301080 IEM_DS3505
ZGHA,2008-12-05 08:00,ZGHA 050800Z AUTO 02006KT 6SM 12/M09 A3047 RMK T01201090 IEM_DS3505
ZGHA,2008-12-05 09:00,ZGHA 050900Z AUTO 36006KT 6SM 11/M09 A3047 RMK T01101090 IEM_DS3505
ZGHA,2008-12-05 10:00,ZGHA 051000Z AUTO 35004KT 6SM 09/M06 A3050 RMK T00901060 IEM_DS3505
ZGHA,2008-12-05 11:00,ZGHA 051100Z AUTO 34004KT 6SM 09/M05 A3050 RMK T00901050 IEM_DS3505
ZGHA,2008-12-05 12:00,ZGHA 051200Z AUTO 31006KT 6SM 08/M02 A3053 RMK T00801020 IEM_DS3505
ZGHA,2008-12-05 13:00,ZGHA 051300Z AUTO 32004KT 6SM 08/M02 A3056 RMK T00801020 IEM_DS3505
ZGHA,2008-12-05 14:00,ZGHA 051400Z AUTO 6SM 08/M02 A3056 RMK T00801020 IEM_DS3505
ZGHA,2008-12-05 15:00,ZGHA 051500Z AUTO 36006KT 6SM 07/M03 A3056 RMK T00701030 IEM_DS3505
ZGHA,2008-12-05 16:00,ZGHA 051600Z AUTO 6SM 06/M02 A3056 RMK T00601020 IEM_DS3505
ZGHA,2008-12-05 17:00,ZGHA 051700Z AUTO 00000KT 6SM 06/M02 A3053 RMK T00601020 IEM_DS3505
ZGHA,2008-12-05 18:00,ZGHA 051800Z AUTO 34004KT 7SM 06/00 A3056 RMK T00600000 IEM_DS3505
ZGHA,2008-12-05 19:00,ZGHA 051900Z AUTO 36002KT 7SM 05/00 A3056 RMK T00500000 IEM_DS3505
ZGHA,2008-12-05 20:00,ZGHA 052000Z AUTO 7SM 05/M01 A3053 RMK T00501010 IEM_DS3505
ZGHA,2008-12-05 21:00,ZGHA 052100Z AUTO 4SM 03/M01 A3053 RMK T00301010 IEM_DS3505
ZGHA,2008-12-05 22:00,ZGHA 052200Z AUTO 00000KT 4SM 02/00 A3053 RMK T00200000 IEM_DS3505
ZGHA,2008-12-05 23:00,ZGHA 052300Z AUTO 00000KT 4SM 01/00 A3056 RMK T00100000 IEM_DS3505
ZGHA,2008-12-06 00:00,ZGHA 060000Z AUTO 4SM 03/02 A3056 RMK T00300020 IEM_DS3505
ZGHA,2008-12-06 01:00,ZGHA 060100Z AUTO 5SM 06/03 A3056 RMK T00600030 IEM_DS3505
ZGHA,2008-12-06 02:00,ZGHA 060200Z AUTO 6SM 07/01 A3056 RMK T00700010 IEM_DS3505
ZGHA,2008-12-06 03:00,ZGHA 060300Z AUTO 30004KT 6SM 10/M02 A3053 RMK T01001020 IEM_DS3505
ZGHA,2008-12-06 04:00,ZGHA 060400Z AUTO 6SM 11/M03 A3050 RMK T01101030 IEM_DS3505
ZGHA,2008-12-06 05:00,ZGHA 060500Z AUTO 02006KT 6SM 12/M03 A3047 RMK T01201030 IEM_DS3505
ZGHA,2008-12-06 06:00,ZGHA 060600Z AUTO 01004KT 6SM 12/M04 A3042 RMK T01201040 IEM_DS3505
ZGHA,2008-12-06 07:00,ZGHA 060700Z AUTO 02004KT 6SM 13/M05 A3042 RMK T01301050 IEM_DS3505
ZGHA,2008-12-06 08:00,ZGHA 060800Z AUTO 6SM 12/M04 A3039 RMK T01201040 IEM_DS3505
ZGHA,2008-12-06 09:00,ZGHA 060900Z AUTO 6SM 12/M03 A3039 RMK T01201030 IEM_DS3505
ZGHA,2008-12-06 10:00,ZGHA 061000Z AUTO 6SM 11/01 A3039 RMK T01100010 IEM_DS3505
ZGHA,2008-12-06 11:00,ZGHA 061100Z AUTO 00000KT 6SM 11/M01 A3042 RMK T01101010 IEM_DS3505
ZGHA,2008-12-06 12:00,ZGHA 061200Z AUTO 02002KT 6SM 10/01 A3042 RMK T01000010 IEM_DS3505
ZGHA,2008-12-06 13:00,ZGHA 061300Z AUTO 00000KT 6SM 10/01 A3042 RMK T01000010 IEM_DS3505
ZGHA,2008-12-06 14:00,ZGHA 061400Z AUTO 6SM 09/M01 A3042 RMK T00901010 IEM_DS3505
ZGHA,2008-12-06 15:00,ZGHA 061500Z AUTO 6SM 09/M02 A3042 RMK T00901020 IEM_DS3505
ZGHA,2008-12-06 16:00,ZGHA 061600Z AUTO 00000KT 6SM 08/M02 A3039 RMK T00801020 IEM_DS3505
ZGHA,2008-12-06 17:00,ZGHA 061700Z AUTO 6SM 06/M01 A3039 RMK T00601010 IEM_DS3505
ZGHA,2008-12-06 18:00,ZGHA 061800Z AUTO 00000KT 6SM 05/01 A3039 RMK T00500010 IEM_DS3505
ZGHA,2008-12-06 19:00,ZGHA 061900Z AUTO 7SM 06/01 A3039 RMK T00600010 IEM_DS3505
ZGHA,2008-12-06 20:00,ZGHA 062000Z AUTO 6SM 05/00 A3036 RMK T00500000 IEM_DS3505
ZGHA,2008-12-06 21:00,ZGHA 062100Z AUTO 00000KT 6SM 05/02 A3036 RMK T00500020 IEM_DS3505
ZGHA,2008-12-06 22:00,ZGHA 062200Z AUTO 21002KT 6SM 05/03 A3036 RMK T00500030 IEM_DS3505
ZGHA,2008-12-06 23:00,ZGHA 062300Z AUTO 24002KT 6SM 05/02 A3036 RMK T00500020 IEM_DS3505
ZGHA,2008-12-07 00:00,ZGHA 070000Z AUTO 00000KT 6SM 06/01 A3036 RMK T00600010 IEM_DS3505
ZGHA,2008-12-07 01:00,ZGHA 070100Z AUTO 00000KT 6SM 07/00 A3039 RMK T00700000 IEM_DS3505
ZGHA,2008-12-07 02:00,ZGHA 070200Z AUTO 22004KT 6SM 09/M03 A3042 RMK T00901030 IEM_DS3505
ZGHA,2008-12-07 03:00,ZGHA 070300Z AUTO 7SM 09/M02 A3039 RMK T00901020 IEM_DS3505
ZGHA,2008-12-07 04:00,ZGHA 070400Z AUTO 28004KT 7SM 10/M03 A3036 RMK T01001030 IEM_DS3505
ZGHA,2008-12-07 05:00,ZGHA 070500Z AUTO 21004KT 7SM 10/M03 A3033 RMK T01001030 IEM_DS3505
ZGHA,2008-12-07 06:00,ZGHA 070600Z AUTO 7SM 11/M02 A3030 RMK T01101020 IEM_DS3505
ZGHA,2008-12-07 07:00,ZGHA 070700Z AUTO 6SM 12/M02 A3027 RMK T01201020 IEM_DS3505
ZGHA,2008-12-07 08:00,ZGHA 070800Z AUTO 00000KT 6SM 11/M02 A3027 RMK T01101020 IEM_DS3505
ZGHA,2008-12-07 09:00,ZGHA 070900Z AUTO 6SM 11/00 A3030 RMK T01100000 IEM_DS3505
ZGHA,2008-12-07 10:00,ZGHA 071000Z AUTO 4SM 10/01 A3030 RMK T01000010 IEM_DS3505
ZGHA,2008-12-07 11:00,ZGHA 071100Z AUTO 03002KT 4SM 09/03 A3033 RMK T00900030 IEM_DS3505
ZGHA,2008-12-07 12:00,ZGHA 071200Z AUTO 4SM 10/03 A3036 RMK T01000030 IEM_DS3505
ZGHA,2008-12-07 13:00,ZGHA 071300Z AUTO 36002KT 3SM 08/04 A3039 RMK T00800040 IEM_DS3505
ZGHA,2008-12-07 14:00,ZGHA 071400Z AUTO 2 1/2SM 08/05 A3042 RMK T00800050 IEM_DS3505
ZGHA,2008-12-07 15:00,ZGHA 071500Z AUTO 34002KT 2 1/2SM 07/06 A3042 RMK T00700060 IEM_DS3505
ZGHA,2008-12-07 16:00,ZGHA 071600Z AUTO 00000KT 2SM 07/06 A3042 RMK T00700060 IEM_DS3505
ZGHA,2008-12-07 17:00,ZGHA 071700Z AUTO 27004KT 2SM 07/06 A3042 RMK T00700060 IEM_DS3505
ZGHA,2008-12-07 18:00,ZGHA 071800Z AUTO 00000KT 2SM 07/06 A3042 RMK T00700060 IEM_DS3505
ZGHA,2008-12-07 21:00,ZGHA 072100Z AUTO 1SM 05/05 A3036 RMK T00500050 IEM_DS3505
ZGHA,2008-12-07 22:00,ZGHA 072200Z AUTO 16002KT 1SM 05/05 A3039 RMK T00500050 IEM_DS3505
ZGHA,2008-12-07 23:00,ZGHA 072300Z AUTO 00000KT 1SM 04/04 A3039 RMK T00400040 IEM_DS3505
ZGHA,2008-12-08 00:00,ZGHA 080000Z AUTO 1SM 04/04 A3039 RMK T00400040 IEM_DS3505
ZGHA,2008-12-08 01:00,ZGHA 080100Z AUTO 1 1/2SM 07/07 A3042 RMK T00700070 IEM_DS3505
ZGHA,2008-12-08 02:00,ZGHA 080200Z AUTO 20006KT 3SM 08/07 A3039 RMK T00800070 IEM_DS3505
ZGHA,2008-12-08 03:00,ZGHA 080300Z AUTO 21006KT 2 1/2SM 11/07 A3039 RMK T01100070 IEM_DS3505
ZGHA,2008-12-08 04:00,ZGHA 080400Z AUTO 21004KT 3SM 13/07 A3036 RMK T01300070 IEM_DS3505
ZGHA,2008-12-08 05:00,ZGHA 080500Z AUTO 5SM 14/06 A3030 RMK T01400060 IEM_DS3505
ZGHA,2008-12-08 06:00,ZGHA 080600Z AUTO 23004KT 5SM 15/07 A3024 RMK T01500070 IEM_DS3505
ZGHA,2008-12-08 07:00,ZGHA 080700Z AUTO 21004KT 6SM 16/07 A3021 RMK T01600070 IEM_DS3505
ZGHA,2008-12-08 08:00,ZGHA 080800Z AUTO 21004KT 6SM 16/07 A3021 RMK T01600070 IEM_DS3505
ZGHA,2008-12-08 09:00,ZGHA 080900Z AUTO 5SM 14/08 A3021 RMK T01400080 IEM_DS3505
ZGHA,2008-12-08 10:00,ZGHA 081000Z AUTO 4SM 13/08 A3018 RMK T01300080 IEM_DS3505
ZGHA,2008-12-08 11:00,ZGHA 081100Z AUTO 00000KT 3SM 09/07 A3018 RMK T00900070 IEM_DS3505
ZGHA,2008-12-08 12:00,ZGHA 081200Z AUTO 11004KT 3SM 08/07 A3021 RMK T00800070 IEM_DS3505
ZGHA,2008-12-08 13:00,ZGHA 081300Z AUTO 2 1/2SM 07/06 A3021 RMK T00700060 IEM_DS3505
ZGHA,2008-12-08 14:00,ZGHA 081400Z AUTO 11002KT 2SM 06/06 A3021 RMK T00600060 IEM_DS3505
ZGHA,2008-12-08 15:00,ZGHA 081500Z AUTO 11002KT 1 1/2SM 06/05 A3021 RMK T00600050 IEM_DS3505
ZGHA,2008-12-08 16:00,ZGHA 081600Z AUTO 12002KT 1 1/2SM 05/05 A3021 RMK T00500050 IEM_DS3505
ZGHA,2008-12-08 18:00,ZGHA 081800Z AUTO 12002KT 1SM 04/04 A3015 RMK T00400040 IEM_DS3505
ZGHA,2008-12-08 21:00,ZGHA 082100Z AUTO 19004KT 1 1/2SM 03/02 A3012 RMK T00300020 IEM_DS3505
ZGHA,2008-12-08 22:00,ZGHA 082200Z AUTO 21002KT 2SM 04/04 A3015 RMK T00400040 IEM_DS3505
ZGHA,2008-12-08 23:00,ZGHA 082300Z AUTO 18002KT 2 1/2SM 04/04 A3015 RMK T00400040 IEM_DS3505
ZGHA,2008-12-09 00:00,ZGHA 090000Z AUTO 18004KT 3SM 05/05 A3018 RMK T00500050 IEM_DS3505
ZGHA,2008-12-09 01:00,ZGHA 090100Z AUTO 3SM 09/08 A3018 RMK T00900080 IEM_DS3505
ZGHA,2008-12-09 02:00,ZGHA 090200Z AUTO 16004KT 4SM 12/08 A3018 RMK T01200080 IEM_DS3505
ZGHA,2008-12-09 03:00,ZGHA 090300Z AUTO 17006KT 4SM 14/08 A3015 RMK T01400080 IEM_DS3505
ZGHA,2008-12-09 04:00,ZGHA 090400Z AUTO 18006KT 4SM 17/09 A3012 RMK T01700090 IEM_DS3505
ZGHA,2008-12-09 05:00,ZGHA 090500Z AUTO 17006KT 5SM 18/09 A3009 RMK T01800090 IEM_DS3505
ZGHA,2008-12-09 06:00,ZGHA 090600Z AUTO 16004KT 6SM 19/08 A3006 RMK T01900080 IEM_DS3505
ZGHA,2008-12-09 07:00,ZGHA 090700Z AUTO 19008KT 6SM 20/07 A3003 RMK T02000070 IEM_DS3505
ZGHA,2008-12-09 08:00,ZGHA 090800Z AUTO 17004KT 6SM 20/07 A3003 RMK T02000070 IEM_DS3505
ZGHA,2008-12-09 09:00,ZGHA 090900Z AUTO 6SM 18/08 A3003 RMK T01800080 IEM_DS3505
ZGHA,2008-12-09 10:00,ZGHA 091000Z AUTO 09002KT 6SM 14/08 A3003 RMK T01400080 IEM_DS3505
ZGHA,2008-12-09 11:00,ZGHA 091100Z AUTO 09002KT 6SM 11/08 A3006 RMK T01100080 IEM_DS3505
ZGHA,2008-12-09 12:00,ZGHA 091200Z AUTO 10002KT 3SM 09/08 A3006 RMK T00900080 IEM_DS3505
ZGHA,2008-12-09 13:00,ZGHA 091300Z AUTO 00000KT 3SM 08/07 A3006 RMK T00800070 IEM_DS3505
ZGHA,2008-12-09 14:00,ZGHA 091400Z AUTO 12002KT 2 1/2SM 07/07 A3009 RMK T00700070 IEM_DS3505
ZGHA,2008-12-09 15:00,ZGHA 091500Z AUTO 3SM 07/06 A3009 RMK T00700060 IEM_DS3505
ZGHA,2008-12-09 16:00,ZGHA 091600Z AUTO 00000KT 2 1/2SM 06/06 A3009 RMK T00600060 IEM_DS3505
ZGHA,2008-12-09 18:00,ZGHA 091800Z AUTO 2SM 05/05 A3009 RMK T00500050 IEM_DS3505
ZGHA,2008-12-09 21:00,ZGHA 092100Z AUTO 23002KT 3SM 04/04 A3006 RMK T00400040 IEM_DS3505
ZGHA,2008-12-09 22:00,ZGHA 092200Z AUTO 00000KT 2 1/2SM 04/04 A3009 RMK T00400040 IEM_DS3505
ZGHA,2008-12-09 23:00,ZGHA 092300Z AUTO 00000KT 2SM 03/03 A3009 RMK T00300030 IEM_DS3505
ZGHA,2008-12-10 00:00,ZGHA 100000Z AUTO 00000KT 2 1/2SM 05/05 A3012 RMK T00500050 IEM_DS3505
ZGHA,2008-12-10 01:00,ZGHA 100100Z AUTO 00000KT 6SM 09/09 A3015 RMK T00900090 IEM_DS3505
ZGHA,2008-12-10 02:00,ZGHA 100200Z AUTO 6SM 12/07 A3015 RMK T01200070 IEM_DS3505
ZGHA,2008-12-10 03:00,ZGHA 100300Z AUTO 26004KT 6SM 16/08 A3015 RMK T01600080 IEM_DS3505
ZGHA,2008-12-10 04:00,ZGHA 100400Z AUTO 18004KT 6SM 20/05 A3012 RMK T02000050 IEM_DS3505
ZGHA,2008-12-10 05:00,ZGHA 100500Z AUTO 21008KT 6SM 20/04 A3009 RMK T02000040 IEM_DS3505
ZGHA,2008-12-10 06:00,ZGHA 100600Z AUTO 19004KT 6SM 21/05 A3006 RMK T02100050 IEM_DS3505
ZGHA,2008-12-10 07:00,ZGHA 100700Z AUTO 6SM 23/06 A3006 RMK T02300060 IEM_DS3505
ZGHA,2008-12-10 08:00,ZGHA 100800Z AUTO 6SM 22/05 A3006 RMK T02200050 IEM_DS3505
ZGHA,2008-12-10 09:00,ZGHA 100900Z AUTO 6SM 21/05 A3006 RMK T02100050 IEM_DS3505
ZGHA,2008-12-10 10:00,ZGHA 101000Z AUTO 00000KT 6SM 16/07 A3009 RMK T01600070 IEM_DS3505
ZGHA,2008-12-10 11:00,ZGHA 101100Z AUTO 00000KT 6SM 12/09 A3012 RMK T01200090 IEM_DS3505
ZGHA,2008-12-10 12:00,ZGHA 101200Z AUTO 08004KT 4SM 10/08 A3012 RMK T01000080 IEM_DS3505
ZGHA,2008-12-10 13:00,ZGHA 101300Z AUTO 01004KT 4SM 11/08 A3018 RMK T01100080 IEM_DS3505
ZGHA,2008-12-10 14:00,ZGHA 101400Z AUTO 03004KT 3SM 09/06 A3021 RMK T00900060 IEM_DS3505
ZGHA,2008-12-10 15:00,ZGHA 101500Z AUTO 2 1/2SM 08/07 A3021 RMK T00800070 IEM_DS3505
ZGHA,2008-12-10 16:00,ZGHA 101600Z AUTO 36002KT 2SM 08/06 A3021 RMK T00800060 IEM_DS3505
ZGHA,2008-12-10 18:00,ZGHA 101800Z AUTO 34004KT 2 1/2SM 07/06 A3024 RMK T00700060 IEM_DS3505
ZGHA,2008-12-10 21:00,ZGHA 102100Z AUTO 32004KT 1 1/2SM 05/05 A3021 RMK T00500050 IEM_DS3505
ZGHA,2008-12-10 22:00,ZGHA 102200Z AUTO 00000KT 1 1/4SM 05/04 A3021 RMK T00500040 IEM_DS3505
ZGHA,2008-12-10 23:00,ZGHA 102300Z AUTO 00000KT 1SM 04/04 A3024 RMK T00400040 IEM_DS3505
ZGHA,2008-12-11 00:00,ZGHA 110000Z AUTO 00000KT 1 1/4SM 05/04 A3024 RMK T00500040 IEM_DS3505
ZGHA,2008-12-11 01:00,ZGHA 110100Z AUTO 00000KT 1 1/4SM 08/07 A3024 RMK T00800070 IEM_DS3505
ZGHA,2008-12-11 02:00,ZGHA 110200Z AUTO 33004KT 2SM 12/11 A3024 RMK T01200110 IEM_DS3505
ZGHA,2008-12-11 03:00,ZGHA 110300Z AUTO 27004KT 2 1/2SM 14/10 A3024 RMK T01400100 IEM_DS3505
ZGHA,2008-12-11 04:00,ZGHA 110400Z AUTO 30004KT 4SM 16/08 A3021 RMK T01600080 IEM_DS3505
ZGHA,2008-12-11 05:00,ZGHA 110500Z AUTO 33004KT 4SM 17/08 A3015 RMK T01700080 IEM_DS3505
ZGHA,2008-12-11 06:00,ZGHA 110600Z AUTO 29006KT 4SM 17/09 A3012 RMK T01700090 IEM_DS3505
ZGHA,2008-12-11 07:00,ZGHA 110700Z AUTO 30006KT 4SM 18/08 A3009 RMK T01800080 IEM_DS3505
ZGHA,2008-12-11 08:00,ZGHA 110800Z AUTO 29006KT 3SM 17/08 A3006 RMK T01700080 IEM_DS3505
ZGHA,2008-12-11 09:00,ZGHA 110900Z AUTO 29006KT 2 1/2SM 16/08 A3006 RMK T01600080 IEM_DS3505
ZGHA,2008-12-11 10:00,ZGHA 111000Z AUTO 32004KT 2 1/2SM 14/09 A3006 RMK T01400090 IEM_DS3505
ZGHA,2008-12-11 11:00,ZGHA 111100Z AUTO 00000KT 2SM 11/08 A3006 RMK T01100080 IEM_DS3505
ZGHA,2008-12-11 12:00,ZGHA 111200Z AUTO 2SM 10/07 A3006 RMK T01000070 IEM_DS3505
ZGHA,2008-12-11 13:00,ZGHA 111300Z AUTO 1 1/2SM 08/06 A3006 RMK T00800060 IEM_DS3505
ZGHA,2008-12-11 14:00,ZGHA 111400Z AUTO 00000KT 1 1/2SM 08/07 A3006 RMK T00800070 IEM_DS3505
ZGHA,2008-12-11 15:00,ZGHA 111500Z AUTO 00000KT 1 1/2SM 07/06 A3006 RMK T00700060 IEM_DS3505
ZGHA,2008-12-11 16:00,ZGHA 111600Z AUTO 00000KT 1 1/4SM 06/06 A3006 RMK T00600060 IEM_DS3505
ZGHA,2008-12-11 18:00,ZGHA 111800Z AUTO 3/8SM 05/05 A3006 RMK T00500050 IEM_DS3505
ZGHA,2008-12-11 19:00,ZGHA 111900Z AUTO 00000KT 1/2SM 05/05 A3006 RMK T00500050 IEM_DS3505
ZGHA,2008-12-11 20:00,ZGHA 112000Z AUTO 35002KT 1/2SM 04/04 A3003 RMK T00400040 IEM_DS3505
ZGHA,2008-12-11 21:00,ZGHA 112100Z AUTO 00000KT 1 1/4SM 04/04 A3003 RMK T00400040 IEM_DS3505
ZGHA,2008-12-11 22:00,ZGHA 112200Z AUTO 00000KT 1 1/4SM 04/04 A3003 RMK T00400040 IEM_DS3505
ZGHA,2008-12-11 23:00,ZGHA 112300Z AUTO 00000KT 1 1/4SM 04/04 A3003 RMK T00400040 IEM_DS3505
ZGHA,2008-12-12 00:00,ZGHA 120000Z AUTO 00000KT 2SM 05/05 A3006 RMK T00500050 IEM_DS3505
ZGHA,2008-12-12 01:00,ZGHA 120100Z AUTO 2 1/2SM 08/07 A3009 RMK T00800070 IEM_DS3505
ZGHA,2008-12-12 02:00,ZGHA 120200Z AUTO 3SM 11/08 A3009 RMK T01100080 IEM_DS3505
ZGHA,2008-12-12 03:00,ZGHA 120300Z AUTO 4SM 14/08 A3009 RMK T01400080 IEM_DS3505
ZGHA,2008-12-12 04:00,ZGHA 120400Z AUTO 4SM 16/07 A3006 RMK T01600070 IEM_DS3505
ZGHA,2008-12-12 05:00,ZGHA 120500Z AUTO 6SM 17/07 A3000 RMK T01700070 IEM_DS3505
ZGHA,2008-12-12 06:00,ZGHA 120600Z AUTO 00000KT 6SM 18/07 A3000 RMK T01800070 IEM_DS3505
ZGHA,2008-12-12 07:00,ZGHA 120700Z AUTO 6SM 19/07 A2997 RMK T01900070 IEM_DS3505
ZGHA,2008-12-12 08:00,ZGHA 120800Z AUTO 5SM 18/08 A2997 RMK T01800080 IEM_DS3505
ZGHA,2008-12-12 09:00,ZGHA 120900Z AUTO 5SM 17/08 A3000 RMK T01700080 IEM_DS3505
ZGHA,2008-12-12 10:00,ZGHA 121000Z AUTO 4SM 16/08 A3000 RMK T01600080 IEM_DS3505
ZGHA,2008-12-12 11:00,ZGHA 121100Z AUTO 4SM 15/08 A3003 RMK T01500080 IEM_DS3505
ZGHA,2008-12-12 12:00,ZGHA 121200Z AUTO 35004KT 4SM 15/08 A3003 RMK T01500080 IEM_DS3505
ZGHA,2008-12-12 13:00,ZGHA 121300Z AUTO 34004KT 2 1/2SM 15/08 A3006 RMK T01500080 IEM_DS3505
ZGHA,2008-12-12 14:00,ZGHA 121400Z AUTO 32004KT 2 1/2SM 13/09 A3009 RMK T01300090 IEM_DS3505
ZGHA,2008-12-12 15:00,ZGHA 121500Z AUTO 31004KT 1 1/2SM 13/10 A3012 RMK T01300100 IEM_DS3505
ZGHA,2008-12-12 16:00,ZGHA 121600Z AUTO 33004KT 1 1/2SM 12/10 A3012 RMK T01200100 IEM_DS3505
ZGHA,2008-12-12 17:00,ZGHA 121700Z AUTO 32004KT 1SM 12/10 A3015 RMK T01200100 IEM_DS3505
ZGHA,2008-12-12 18:00,ZGHA 121800Z AUTO 34002KT 1SM 12/10 A3015 RMK T01200100 IEM_DS3505
ZGHA,2008-12-12 19:00,ZGHA 121900Z AUTO 31006KT 1SM 12/10 A3015 RMK T01200100 IEM_DS3505
ZGHA,2008-12-12 21:00,ZGHA 122100Z AUTO 30008KT 1 1/2SM 11/09 A3018 RMK T01100090 IEM_DS3505
ZGHA,2008-12-12 22:00,ZGHA 122200Z AUTO 31006KT 1 1/4SM 10/09 A3021 RMK T01000090 IEM_DS3505
ZGHA,2008-12-12 23:00,ZGHA 122300Z AUTO 34008KT 1SM 10/09 A3024 RMK T01000090 IEM_DS3505
ZGHA,2008-12-13 00:00,ZGHA 130000Z AUTO 34008KT 1 1/4SM 11/09 A3027 RMK T01100090 IEM_DS3505
ZGHA,2008-12-13 01:00,ZGHA 130100Z AUTO 34012KT 1SM 11/08 A3030 RMK T01100080 IEM_DS3505
ZGHA,2008-12-13 02:00,ZGHA 130200Z AUTO 34010KT 1SM 11/08 A3033 RMK T01100080 IEM_DS3505
ZGHA,2008-12-13 03:00,ZGHA 130300Z AUTO 34012KT 1SM 11/08 A3036 RMK T01100080 IEM_DS3505
ZGHA,2008-12-13 04:00,ZGHA 130400Z AUTO 34010KT 1SM 10/07 A3036 RMK T01000070 IEM_DS3505
ZGHA,2008-12-13 05:00,ZGHA 130500Z AUTO 34010KT 1SM 10/07 A3033 RMK T01000070 IEM_DS3505
ZGHA,2008-12-13 06:00,ZGHA 130600Z AUTO 34008KT 1SM 09/06 A3033 RMK T00900060 IEM_DS3505
ZGHA,2008-12-13 07:00,ZGHA 130700Z AUTO 34010KT 1SM 09/06 A3033 RMK T00900060 IEM_DS3505
ZGHA,2008-12-13 08:00,ZGHA 130800Z AUTO 35010KT 1SM 09/06 A3033 RMK T00900060 IEM_DS3505
ZGHA,2008-12-13 09:00,ZGHA 130900Z AUTO 34010KT 1 1/4SM 09/05 A3036 RMK T00900050 IEM_DS3505
ZGHA,2008-12-13 10:00,ZGHA 131000Z AUTO 34008KT 1 1/2SM 08/05 A3039 RMK T00800050 IEM_DS3505
ZGHA,2008-12-13 11:00,ZGHA 131100Z AUTO 36008KT 1 1/2SM 08/05 A3039 RMK T00800050 IEM_DS3505
ZGHA,2008-12-13 12:00,ZGHA 131200Z AUTO 34008KT 1 1/2SM 08/05 A3039 RMK T00800050 IEM_DS3505
ZGHA,2008-12-13 13:00,ZGHA 131300Z AUTO 34008KT 1 1/2SM 08/05 A3042 RMK T00800050 IEM_DS3505
ZGHA,2008-12-13 14:00,ZGHA 131400Z AUTO 35010KT 1 1/2SM 08/05 A3045 RMK T00800050 IEM_DS3505
ZGHA,2008-12-13 15:00,ZGHA 131500Z AUTO 36006KT 1 1/2SM 07/04 A3045 RMK T00700040 IEM_DS3505
ZGHA,2008-12-13 16:00,ZGHA 131600Z AUTO 36010KT 1 1/2SM 07/04 A3045 RMK T00700040 IEM_DS3505
ZGHA,2008-12-13 17:00,ZGHA 131700Z AUTO 35008KT 1 1/2SM 07/04 A3045 RMK T00700040 IEM_DS3505
ZGHA,2008-12-13 18:00,ZGHA 131800Z AUTO 35006KT 1 1/2SM 06/04 A3045 RMK T00600040 IEM_DS3505
ZGHA,2008-12-13 21:00,ZGHA 132100Z AUTO 33006KT 2SM 06/04 A3045 RMK T00600040 IEM_DS3505
ZGHA,2008-12-13 22:00,ZGHA 132200Z AUTO 34008KT 2SM 06/04 A3045 RMK T00600040 IEM_DS3505
ZGHA,2008-12-13 23:00,ZGHA 132300Z AUTO 35006KT 1 1/2SM 06/04 A3045 RMK T00600040 IEM_DS3505
ZGHA,2008-12-14 00:00,ZGHA 140000Z AUTO 33010KT 1 1/2SM 06/04 A3047 RMK T00600040 IEM_DS3505
ZGHA,2008-12-14 01:00,ZGHA 140100Z AUTO 34006KT 1 1/2SM 06/04 A3047 RMK T00600040 IEM_DS3505
ZGHA,2008-12-14 02:00,ZGHA 140200Z AUTO 36006KT 1 1/2SM 06/04 A3047 RMK T00600040 IEM_DS3505
ZGHA,2008-12-14 03:00,ZGHA 140300Z AUTO 33006KT 2SM 06/04 A3047 RMK T00600040 IEM_DS3505
ZGHA,2008-12-14 04:00,ZGHA 140400Z AUTO 35004KT 2SM 07/04 A3045 RMK T00700040 IEM_DS3505
ZGHA,2008-12-14 05:00,ZGHA 140500Z AUTO 34004KT 2SM 07/04 A3042 RMK T00700040 IEM_DS3505
ZGHA,2008-12-14 06:00,ZGHA 140600Z AUTO 35004KT 2 1/2SM 08/04 A3039 RMK T00800040 IEM_DS3505
ZGHA,2008-12-14 07:00,ZGHA 140700Z AUTO 2 1/2SM 08/05 A3036 RMK T00800050 IEM_DS3505
ZGHA,2008-12-14 08:00,ZGHA 140800Z AUTO 3SM 09/05 A3036 RMK T00900050 IEM_DS3505
ZGHA,2008-12-14 09:00,ZGHA 140900Z AUTO 2 1/2SM 08/05 A3036 RMK T00800050 IEM_DS3505
ZGHA,2008-12-14 10:00,ZGHA 141000Z AUTO 2SM 06/04 A3036 RMK T00600040 IEM_DS3505
ZGHA,2008-12-14 11:00,ZGHA 141100Z AUTO 1 1/2SM 05/04 A3039 RMK T00500040 IEM_DS3505
ZGHA,2008-12-14 12:00,ZGHA 141200Z AUTO 1 1/2SM 04/04 A3039 RMK T00400040 IEM_DS3505
ZGHA,2008-12-14 13:00,ZGHA 141300Z AUTO 13002KT 1 1/2SM 03/02 A3039 RMK T00300020 IEM_DS3505
ZGHA,2008-12-14 14:00,ZGHA 141400Z AUTO 09002KT 1SM 03/03 A3039 RMK T00300030 IEM_DS3505
ZGHA,2008-12-14 15:00,ZGHA 141500Z AUTO 10002KT 1SM 02/02 A3039 RMK T00200020 IEM_DS3505
ZGHA,2008-12-14 16:00,ZGHA 141600Z AUTO 00000KT 1SM 02/01 A3039 RMK T00200010 IEM_DS3505
ZGHA,2008-12-14 17:00,ZGHA 141700Z AUTO 09002KT 3/8SM 01/01 A3039 RMK T00100010 IEM_DS3505
ZGHA,2008-12-14 18:00,ZGHA 141800Z AUTO 3/8SM 01/01 A3036 RMK T00100010 IEM_DS3505
ZGHA,2008-12-14 19:00,ZGHA 141900Z AUTO 00000KT 1/8SM 00/00 A3036 RMK T00000000 IEM_DS3505
ZGHA,2008-12-14 20:00,ZGHA 142000Z AUTO 00000KT 0SM 00/00 A3036 RMK T00000000 IEM_DS3505
ZGHA,2008-12-14 21:00,ZGHA 142100Z AUTO 1/8SM 01/00 A3036 RMK T00100000 IEM_DS3505
ZGHA,2008-12-14 22:00,ZGHA 142200Z AUTO 00000KT 1/8SM 01/00 A3036 RMK T00100000 IEM_DS3505
ZGHA,2008-12-14 23:00,ZGHA 142300Z AUTO 1/8SM 01/01 A3036 RMK T00100010 IEM_DS3505
ZGHA,2008-12-15 00:00,ZGHA 150000Z AUTO 1/8SM 01/01 A3036 RMK T00100010 IEM_DS3505
ZGHA,2008-12-15 01:00,ZGHA 150100Z AUTO 1/8SM 02/02 A3039 RMK T00200020 IEM_DS3505
ZGHA,2008-12-15 02:00,ZGHA 150200Z AUTO 18004KT 1/8SM 03/03 A3039 RMK T00300030 IEM_DS3505
ZGHA,2008-12-15 03:00,ZGHA 150300Z AUTO 16004KT 1SM 05/04 A3036 RMK T00500040 IEM_DS3505
ZGHA,2008-12-15 04:00,ZGHA 150400Z AUTO 19006KT 1SM 06/06 A3033 RMK T00600060 IEM_DS3505
ZGHA,2008-12-15 05:00,ZGHA 150500Z AUTO 19008KT 1 1/2SM 07/07 A3030 RMK T00700070 IEM_DS3505
ZGHA,2008-12-15 06:00,ZGHA 150600Z AUTO 21004KT 2SM 09/07 A3027 RMK T00900070 IEM_DS3505
ZGHA,2008-12-15 07:00,ZGHA 150700Z AUTO 2SM 10/07 A3024 RMK T01000070 IEM_DS3505
ZGHA,2008-12-15 08:00,ZGHA 150800Z AUTO 2 1/2SM 11/07 A3024 RMK T01100070 IEM_DS3505
ZGHA,2008-12-15 09:00,ZGHA 150900Z AUTO 00000KT 2 1/2SM 10/06 A3021 RMK T01000060 IEM_DS3505
ZGHA,2008-12-15 10:00,ZGHA 151000Z AUTO 1 1/2SM 09/07 A3021 RMK T00900070 IEM_DS3505
ZGHA,2008-12-15 11:00,ZGHA 151100Z AUTO 00000KT 1 1/2SM 06/05 A3024 RMK T00600050 IEM_DS3505
ZGHA,2008-12-15 12:00,ZGHA 151200Z AUTO 00000KT 1SM 05/04 A3024 RMK T00500040 IEM_DS3505
ZGHA,2008-12-15 13:00,ZGHA 151300Z AUTO 00000KT 1SM 04/04 A3024 RMK T00400040 IEM_DS3505
ZGHA,2008-12-15 14:00,ZGHA 151400Z AUTO 1SM 04/04 A3027 RMK T00400040 IEM_DS3505
ZGHA,2008-12-15 15:00,ZGHA 151500Z AUTO 00000KT 1SM 05/05 A3027 RMK T00500050 IEM_DS3505
ZGHA,2008-12-15 16:00,ZGHA 151600Z AUTO 1SM 06/05 A3024 RMK T00600050 IEM_DS3505
ZGHA,2008-12-15 17:00,ZGHA 151700Z AUTO 1SM 06/05 A3024 RMK T00600050 IEM_DS3505
ZGHA,2008-12-15 19:00,ZGHA 151900Z AUTO 1/2SM 04/04 A3021 RMK T00400040 IEM_DS3505
ZGHA,2008-12-15 20:00,ZGHA 152000Z AUTO 00000KT 3/8SM 03/03 A3021 RMK T00300030 IEM_DS3505
ZGHA,2008-12-15 21:00,ZGHA 152100Z AUTO 1SM 02/02 A3021 RMK T00200020 IEM_DS3505
ZGHA,2008-12-15 22:00,ZGHA 152200Z AUTO 00000KT 1SM 01/01 A3021 RMK T00100010 IEM_DS3505
ZGHA,2008-12-15 23:00,ZGHA 152300Z AUTO 1SM 01/01 A3021 RMK T00100010 IEM_DS3505
ZGHA,2008-12-16 00:00,ZGHA 160000Z AUTO 1SM 01/01 A3024 RMK T00100010 IEM_DS3505
ZGHA,2008-12-16 01:00,ZGHA 160100Z AUTO 10002KT 1SM 05/05 A3024 RMK T00500050 IEM_DS3505
ZGHA,2008-12-16 02:00,ZGHA 160200Z AUTO 1 1/2SM 09/09 A3027 RMK T00900090 IEM_DS3505
ZGHA,2008-12-16 03:00,ZGHA 160300Z AUTO 2 1/2SM 12/08 A3024 RMK T01200080 IEM_DS3505
ZGHA,2008-12-16 04:00,ZGHA 160400Z AUTO 20008KT 4SM 14/05 A3021 RMK T01400050 IEM_DS3505
ZGHA,2008-12-16 05:00,ZGHA 160500Z AUTO 20006KT 4SM 15/06 A3018 RMK T01500060 IEM_DS3505
ZGHA,2008-12-16 06:00,ZGHA 160600Z AUTO 21006KT 4SM 17/05 A3015 RMK T01700050 IEM_DS3505
ZGHA,2008-12-16 07:00,ZGHA 160700Z AUTO 22006KT 4SM 17/05 A3012 RMK T01700050 IEM_DS3505
ZGHA,2008-12-16 08:00,ZGHA 160800Z AUTO 16004KT 4SM 17/05 A3012 RMK T01700050 IEM_DS3505
ZGHA,2008-12-16 09:00,ZGHA 160900Z AUTO 4SM 16/06 A3012 RMK T01600060 IEM_DS3505
ZGHA,2008-12-16 10:00,ZGHA 161000Z AUTO 00000KT 3SM 12/06 A3012 RMK T01200060 IEM_DS3505
ZGHA,2008-12-16 11:00,ZGHA 161100Z AUTO 00000KT 2 1/2SM 09/06 A3015 RMK T00900060 IEM_DS3505
ZGHA,2008-12-16 12:00,ZGHA 161200Z AUTO 10004KT 1 1/2SM 08/06 A3015 RMK T00800060 IEM_DS3505
ZGHA,2008-12-16 13:00,ZGHA 161300Z AUTO 07002KT 1 1/2SM 07/06 A3018 RMK T00700060 IEM_DS3505
ZGHA,2008-12-16 14:00,ZGHA 161400Z AUTO 08002KT 1 1/2SM 06/05 A3018 RMK T00600050 IEM_DS3505
ZGHA,2008-12-16 15:00,ZGHA 161500Z AUTO 08002KT 1 1/2SM 05/05 A3021 RMK T00500050 IEM_DS3505
ZGHA,2008-12-16 16:00,ZGHA 161600Z AUTO 00000KT 1SM 05/05 A3021 RMK T00500050 IEM_DS3505
ZGHA,2008-12-16 18:00,ZGHA 161800Z AUTO 00000KT 1SM 04/04 A3024 RMK T00400040 IEM_DS3505
ZGHA,2008-12-16 21:00,ZGHA 162100Z AUTO 00000KT 1SM 03/03 A3021 RMK T00300030 IEM_DS3505
ZGHA,2008-12-16 22:00,ZGHA 162200Z AUTO 00000KT 1SM 03/03 A3021 RMK T00300030 IEM_DS3505
ZGHA,2008-12-16 23:00,ZGHA 162300Z AUTO 00000KT 1 1/2SM 02/02 A3024 RMK T00200020 IEM_DS3505
ZGHA,2008-12-17 00:00,ZGHA 170000Z AUTO 08002KT 2SM 03/03 A3024 RMK T00300030 IEM_DS3505
ZGHA,2008-12-17 01:00,ZGHA 170100Z AUTO 00000KT 2 1/2SM 06/06 A3027 RMK T00600060 IEM_DS3505
ZGHA,2008-12-17 02:00,ZGHA 170200Z AUTO 3SM 09/07 A3030 RMK T00900070 IEM_DS3505
ZGHA,2008-12-17 03:00,ZGHA 170300Z AUTO 5SM 13/08 A3027 RMK T01300080 IEM_DS3505
ZGHA,2008-12-17 04:00,ZGHA 170400Z AUTO 25004KT 5SM 16/06 A3024 RMK T01600060 IEM_DS3505
ZGHA,2008-12-17 05:00,ZGHA 170500Z AUTO 6SM 18/07 A3021 RMK T01800070 IEM_DS3505
ZGHA,2008-12-17 06:00,ZGHA 170600Z AUTO 32002KT 6SM 19/06 A3018 RMK T01900060 IEM_DS3505
ZGHA,2008-12-17 07:00,ZGHA 170700Z AUTO 36004KT 6SM 19/07 A3018 RMK T01900070 IEM_DS3505
ZGHA,2008-12-17 08:00,ZGHA 170800Z AUTO 34004KT 6SM 19/06 A3018 RMK T01900060 IEM_DS3505
ZGHA,2008-12-17 09:00,ZGHA 170900Z AUTO 6SM 18/07 A3018 RMK T01800070 IEM_DS3505
ZGHA,2008-12-17 10:00,ZGHA 171000Z AUTO 34002KT 4SM 14/08 A3021 RMK T01400080 IEM_DS3505
ZGHA,2008-12-17 11:00,ZGHA 171100Z AUTO 2 1/2SM 11/08 A3021 RMK T01100080 IEM_DS3505
ZGHA,2008-12-17 12:00,ZGHA 171200Z AUTO 36004KT 2SM 10/08 A3024 RMK T01000080 IEM_DS3505
ZGHA,2008-12-17 13:00,ZGHA 171300Z AUTO 01004KT 2SM 10/08 A3024 RMK T01000080 IEM_DS3505
ZGHA,2008-12-17 14:00,ZGHA 171400Z AUTO 01004KT 1 1/2SM 09/07 A3024 RMK T00900070 IEM_DS3505
ZGHA,2008-12-17 15:00,ZGHA 171500Z AUTO 19002KT 1 1/2SM 08/06 A3024 RMK T00800060 IEM_DS3505
ZGHA,2008-12-17 16:00,ZGHA 171600Z AUTO 00000KT 1 1/4SM 07/07 A3024 RMK T00700070 IEM_DS3505
ZGHA,2008-12-17 21:00,ZGHA 172100Z AUTO 00000KT 1SM 05/05 A3024 RMK T00500050 IEM_DS3505
ZGHA,2008-12-17 22:00,ZGHA 172200Z AUTO 00000KT 1/2SM 04/04 A3027 RMK T00400040 IEM_DS3505
ZGHA,2008-12-17 23:00,ZGHA 172300Z AUTO 00000KT 3/8SM 04/04 A3030 RMK T00400040 IEM_DS3505
ZGHA,2008-12-18 00:00,ZGHA 180000Z AUTO 35002KT 1/2SM 05/04 A3030 RMK T00500040 IEM_DS3505
ZGHA,2008-12-18 01:00,ZGHA 180100Z AUTO 36004KT 1/2SM 07/07 A3033 RMK T00700070 IEM_DS3505
ZGHA,2008-12-18 02:00,ZGHA 180200Z AUTO 08004KT 1SM 09/09 A3033 RMK T00900090 IEM_DS3505
ZGHA,2008-12-18 03:00,ZGHA 180300Z AUTO 2SM 11/10 A3033 RMK T01100100 IEM_DS3505
ZGHA,2008-12-18 04:00,ZGHA 180400Z AUTO 4SM 14/09 A3027 RMK T01400090 IEM_DS3505
ZGHA,2008-12-18 05:00,ZGHA 180500Z AUTO 30004KT 4SM 16/09 A3024 RMK T01600090 IEM_DS3505
ZGHA,2008-12-18 06:00,ZGHA 180600Z AUTO 29004KT 2 1/2SM 17/09 A3021 RMK T01700090 IEM_DS3505
ZGHA,2008-12-18 07:00,ZGHA 180700Z AUTO 30004KT 3SM 17/08 A3018 RMK T01700080 IEM_DS3505
ZGHA,2008-12-18 08:00,ZGHA 180800Z AUTO 34004KT 3SM 18/08 A3018 RMK T01800080 IEM_DS3505
ZGHA,2008-12-18 09:00,ZGHA 180900Z AUTO 2 1/2SM 16/08 A3018 RMK T01600080 IEM_DS3505
ZGHA,2008-12-18 10:00,ZGHA 181000Z AUTO 32004KT 2SM 13/08 A3018 RMK T01300080 IEM_DS3505
ZGHA,2008-12-18 11:00,ZGHA 181100Z AUTO 32004KT 1 1/2SM 12/08 A3021 RMK T01200080 IEM_DS3505
ZGHA,2008-12-18 12:00,ZGHA 181200Z AUTO 04004KT 1 1/2SM 11/08 A3021 RMK T01100080 IEM_DS3505
ZGHA,2008-12-18 13:00,ZGHA 181300Z AUTO 01004KT 1 1/2SM 10/08 A3021 RMK T01000080 IEM_DS3505
ZGHA,2008-12-18 14:00,ZGHA 181400Z AUTO 36004KT 1 1/4SM 09/08 A3024 RMK T00900080 IEM_DS3505
ZGHA,2008-12-18 15:00,ZGHA 181500Z AUTO 00000KT 1SM 08/07 A3024 RMK T00800070 IEM_DS3505
ZGHA,2008-12-18 16:00,ZGHA 181600Z AUTO 00000KT 1SM 07/06 A3021 RMK T00700060 IEM_DS3505
ZGHA,2008-12-18 17:00,ZGHA 181700Z AUTO 10002KT 3/8SM 07/06 A3021 RMK T00700060 IEM_DS3505
ZGHA,2008-12-18 18:00,ZGHA 181800Z AUTO 00000KT 3/8SM 07/06 A3018 RMK T00700060 IEM_DS3505
ZGHA,2008-12-18 19:00,ZGHA 181900Z AUTO 1/4SM 06/06 A3018 RMK T00600060 IEM_DS3505
ZGHA,2008-12-18 20:00,ZGHA 182000Z AUTO 00000KT 3/8SM 06/05 A3015 RMK T00600050 IEM_DS3505
ZGHA,2008-12-18 21:00,ZGHA 182100Z AUTO 15004KT 1SM 05/05 A3015 RMK T00500050 IEM_DS3505
ZGHA,2008-12-18 22:00,ZGHA 182200Z AUTO 11002KT 1SM 05/05 A3015 RMK T00500050 IEM_DS3505
ZGHA,2008-12-18 23:00,ZGHA 182300Z AUTO 00000KT 1SM 06/05 A3015 RMK T00600050 IEM_DS3505
ZGHA,2008-12-19 00:00,ZGHA 190000Z AUTO 12002KT 1SM 05/05 A3018 RMK T00500050 IEM_DS3505
ZGHA,2008-12-19 01:00,ZGHA 190100Z AUTO 1 1/4SM 08/07 A3018 RMK T00800070 IEM_DS3505
ZGHA,2008-12-19 02:00,ZGHA 190200Z AUTO 1 1/2SM 11/09 A3018 RMK T01100090 IEM_DS3505
ZGHA,2008-12-19 03:00,ZGHA 190300Z AUTO 18004KT 2 1/2SM 15/10 A3015 RMK T01500100 IEM_DS3505
ZGHA,2008-12-19 04:00,ZGHA 190400Z AUTO 17006KT 3SM 17/10 A3015 RMK T01700100 IEM_DS3505
ZGHA,2008-12-19 05:00,ZGHA 190500Z AUTO 18008KT 4SM 18/09 A3009 RMK T01800090 IEM_DS3505
ZGHA,2008-12-19 06:00,ZGHA 190600Z AUTO 15006KT 4SM 19/10 A3006 RMK T01900100 IEM_DS3505
ZGHA,2008-12-19 07:00,ZGHA 190700Z AUTO 18010KT 4SM 20/09 A3003 RMK T02000090 IEM_DS3505
ZGHA,2008-12-19 08:00,ZGHA 190800Z AUTO 18006KT 4SM 20/10 A3003 RMK T02000100 IEM_DS3505
ZGHA,2008-12-19 09:00,ZGHA 190900Z AUTO 17004KT 4SM 18/10 A3006 RMK T01800100 IEM_DS3505
ZGHA,2008-12-19 10:00,ZGHA 191000Z AUTO 4SM 14/09 A3006 RMK T01400090 IEM_DS3505
ZGHA,2008-12-19 11:00,ZGHA 191100Z AUTO 2 1/2SM 12/10 A3009 RMK T01200100 IEM_DS3505
ZGHA,2008-12-19 12:00,ZGHA 191200Z AUTO 00000KT 2SM 11/09 A3009 RMK T01100090 IEM_DS3505
ZGHA,2008-12-19 13:00,ZGHA 191300Z AUTO 2SM 10/09 A3009 RMK T01000090 IEM_DS3505
ZGHA,2008-12-19 14:00,ZGHA 191400Z AUTO 00000KT 1 1/2SM 09/09 A3009 RMK T00900090 IEM_DS3505
ZGHA,2008-12-19 15:00,ZGHA 191500Z AUTO 1 1/2SM 09/08 A3009 RMK T00900080 IEM_DS3505
ZGHA,2008-12-19 16:00,ZGHA 191600Z AUTO 1 1/2SM 08/07 A3009 RMK T00800070 IEM_DS3505
ZGHA,2008-12-19 17:00,ZGHA 191700Z AUTO 30002KT 1SM 08/08 A3009 RMK T00800080 IEM_DS3505
ZGHA,2008-12-19 18:00,ZGHA 191800Z AUTO 00000KT 1/2SM 07/07 A3006 RMK T00700070 IEM_DS3505
ZGHA,2008-12-19 19:00,ZGHA 191900Z AUTO 23002KT 1SM 07/07 A3006 RMK T00700070 IEM_DS3505
ZGHA,2008-12-19 21:00,ZGHA 192100Z AUTO 00000KT 1SM 07/07 A3006 RMK T00700070 IEM_DS3505
ZGHA,2008-12-19 22:00,ZGHA 192200Z AUTO 10002KT 1SM 07/06 A3009 RMK T00700060 IEM_DS3505
ZGHA,2008-12-19 23:00,ZGHA 192300Z AUTO 00000KT 1SM 05/05 A3009 RMK T00500050 IEM_DS3505
ZGHA,2008-12-20 00:00,ZGHA 200000Z AUTO 1SM 06/06 A3009 RMK T00600060 IEM_DS3505
ZGHA,2008-12-20 01:00,ZGHA 200100Z AUTO 00000KT 1 1/2SM 10/10 A3009 RMK T01000100 IEM_DS3505
ZGHA,2008-12-20 02:00,ZGHA 200200Z AUTO 2SM 14/12 A3012 RMK T01400120 IEM_DS3505
ZGHA,2008-12-20 03:00,ZGHA 200300Z AUTO 18006KT 4SM 19/12 A3009 RMK T01900120 IEM_DS3505
ZGHA,2008-12-20 04:00,ZGHA 200400Z AUTO 20008KT 4SM 21/11 A3006 RMK T02100110 IEM_DS3505
ZGHA,2008-12-20 05:00,ZGHA 200500Z AUTO 23006KT 4SM 22/10 A3000 RMK T02200100 IEM_DS3505
ZGHA,2008-12-20 06:00,ZGHA 200600Z AUTO 19004KT 4SM 22/11 A2997 RMK T02200110 IEM_DS3505
ZGHA,2008-12-20 07:00,ZGHA 200700Z AUTO 24006KT 4SM 23/11 A2994 RMK T02300110 IEM_DS3505
ZGHA,2008-12-20 08:00,ZGHA 200800Z AUTO 26004KT 4SM 22/11 A2997 RMK T02200110 IEM_DS3505
ZGHA,2008-12-20 09:00,ZGHA 200900Z AUTO 30008KT 2SM 19/12 A2997 RMK T01900120 IEM_DS3505
ZGHA,2008-12-20 10:00,ZGHA 201000Z AUTO 30008G17KT 1 1/2SM 16/12 A3000 RMK T01600120 IEM_DS3505
ZGHA,2008-12-20 11:00,ZGHA 201100Z AUTO 30012KT 1 1/2SM 14/11 A3003 RMK T01400110 IEM_DS3505
ZGHA,2008-12-20 12:00,ZGHA 201200Z AUTO 29014KT 1 1/2SM 12/09 A3006 RMK T01200090 IEM_DS3505
ZGHA,2008-12-20 13:00,ZGHA 201300Z AUTO 31012KT 1 1/2SM 10/07 A3012 RMK T01000070 IEM_DS3505
ZGHA,2008-12-20 14:00,ZGHA 201400Z AUTO 33006KT 1 1/2SM 10/07 A3012 RMK T01000070 IEM_DS3505
ZGHA,2008-12-20 15:00,ZGHA 201500Z AUTO 34008KT 1SM 10/07 A3015 RMK T01000070 IEM_DS3505
ZGHA,2008-12-20 16:00,ZGHA 201600Z AUTO 30006KT 1 1/4SM 09/06 A3018 RMK T00900060 IEM_DS3505
ZGHA,2008-12-20 21:00,ZGHA 202100Z AUTO 35010KT 1 1/2SM 08/04 A3024 RMK T00800040 IEM_DS3505
ZGHA,2008-12-20 22:00,ZGHA 202200Z AUTO 35012KT 1 1/2SM 07/04 A3027 RMK T00700040 IEM_DS3505
ZGHA,2008-12-20 23:00,ZGHA 202300Z AUTO 34010KT 2SM 07/03 A3030 RMK T00700030 IEM_DS3505
ZGHA,2008-12-21 00:00,ZGHA 210000Z AUTO 34008KT 2SM 08/04 A3033 RMK T00800040 IEM_DS3505
ZGHA,2008-12-21 01:00,ZGHA 210100Z AUTO 33010KT 2SM 09/04 A3036 RMK T00900040 IEM_DS3505
ZGHA,2008-12-21 02:00,ZGHA 210200Z AUTO 33012KT 3SM 10/04 A3036 RMK T01000040 IEM_DS3505
ZGHA,2008-12-21 03:00,ZGHA 210300Z AUTO 35014KT 4SM 10/03 A3036 RMK T01000030 IEM_DS3505
ZGHA,2008-12-21 04:00,ZGHA 210400Z AUTO 36014KT 4SM 10/03 A3039 RMK T01000030 IEM_DS3505
ZGHA,2008-12-21 05:00,ZGHA 210500Z AUTO 01012KT 4SM 09/03 A3036 RMK T00900030 IEM_DS3505
ZGHA,2008-12-21 06:00,ZGHA 210600Z AUTO 36012KT 4SM 09/02 A3039 RMK T00900020 IEM_DS3505
ZGHA,2008-12-21 07:00,ZGHA 210700Z AUTO 36014G29KT 4SM 09/00 A3042 RMK T00900000 IEM_DS3505
ZGHA,2008-12-21 08:00,ZGHA 210800Z AUTO 01012KT 4SM 08/M03 A3045 RMK T00801030 IEM_DS3505
ZGHA,2008-12-21 09:00,ZGHA 210900Z AUTO 01016KT 4SM 07/M08 A3050 RMK T00701080 IEM_DS3505
ZGHA,2008-12-21 10:00,ZGHA 211000Z AUTO 01016KT 4SM 06/M09 A3053 RMK T00601090 IEM_DS3505
ZGHA,2008-12-21 11:00,ZGHA 211100Z AUTO 01014KT 5SM 06/M11 A3056 RMK T00601110 IEM_DS3505
ZGHA,2008-12-21 12:00,ZGHA 211200Z AUTO 36014KT 4SM 05/M10 A3059 RMK T00501100 IEM_DS3505
ZGHA,2008-12-21 13:00,ZGHA 211300Z AUTO 36014KT 4SM 04/M08 A3062 RMK T00401080 IEM_DS3505
ZGHA,2008-12-21 14:00,ZGHA 211400Z AUTO 35016KT 4SM 03/M06 A3065 RMK T00301060 IEM_DS3505
ZGHA,2008-12-21 15:00,ZGHA 211500Z AUTO 35016KT 4SM 02/M05 A3068 RMK T00201050 IEM_DS3505
ZGHA,2008-12-21 16:00,ZGHA 211600Z AUTO 36016KT 4SM 01/M04 A3071 RMK T00101040 IEM_DS3505
ZGHA,2008-12-21 17:00,ZGHA 211700Z AUTO 35012KT 4SM 00/M04 A3071 RMK T00001040 IEM_DS3505
ZGHA,2008-12-21 20:00,ZGHA 212000Z AUTO 36012KT 3SM M01/M05 A3074 RMK T10101050 IEM_DS3505
ZGHA,2008-12-21 21:00,ZGHA 212100Z AUTO 01012KT 3SM M02/M06 A3074 RMK T10201060 IEM_DS3505
ZGHA,2008-12-21 22:00,ZGHA 212200Z AUTO 36008KT 3SM M02/M06 A3074 RMK T10201060 IEM_DS3505
ZGHA,2008-12-21 23:00,ZGHA 212300Z AUTO 01004KT 3SM M02/M07 A3074 RMK T10201070 IEM_DS3505
ZGHA,2008-12-22 00:00,ZGHA 220000Z AUTO 01010KT 4SM M01/M12 A3074 RMK T10101120 IEM_DS3505
ZGHA,2008-12-22 01:00,ZGHA 220100Z AUTO 01008KT 5SM M01/M15 A3077 RMK T10101150 IEM_DS3505
ZGHA,2008-12-22 02:00,ZGHA 220200Z AUTO 01006KT 7SM M01/M15 A3077 RMK T10101150 IEM_DS3505
ZGHA,2008-12-22 03:00,ZGHA 220300Z AUTO 02006KT 7SM 00/M16 A3074 RMK T00001160 IEM_DS3505
ZGHA,2008-12-22 04:00,ZGHA 220400Z AUTO 36008KT 6SM 01/M15 A3071 RMK T00101150 IEM_DS3505
ZGHA,2008-12-22 05:00,ZGHA 220500Z AUTO 32006KT 6SM 01/M16 A3065 RMK T00101160 IEM_DS3505
ZGHA,2008-12-22 06:00,ZGHA 220600Z AUTO 34008KT 6SM 01/M14 A3062 RMK T00101140 IEM_DS3505
ZGHA,2008-12-22 07:00,ZGHA 220700Z AUTO 36008KT 6SM 01/M14 A3062 RMK T00101140 IEM_DS3505
ZGHA,2008-12-22 08:00,ZGHA 220800Z AUTO 35008KT 6SM 01/M15 A3062 RMK T00101150 IEM_DS3505
ZGHA,2008-12-22 09:00,ZGHA 220900Z AUTO 34010KT 6SM 01/M14 A3062 RMK T00101140 IEM_DS3505
ZGHA,2008-12-22 10:00,ZGHA 221000Z AUTO 35006KT 7SM 00/M11 A3062 RMK T00001110 IEM_DS3505
ZGHA,2008-12-22 11:00,ZGHA 221100Z AUTO 34008KT 7SM 00/M12 A3062 RMK T00001120 IEM_DS3505
ZGHA,2008-12-22 12:00,ZGHA 221200Z AUTO 35006KT 7SM 00/M12 A3062 RMK T00001120 IEM_DS3505
ZGHA,2008-12-22 13:00,ZGHA 221300Z AUTO 31004KT 4SM 00/M11 A3062 RMK T00001110 IEM_DS3505
ZGHA,2008-12-22 14:00,ZGHA 221400Z AUTO 34006KT 4SM 00/M11 A3062 RMK T00001110 IEM_DS3505
ZGHA,2008-12-22 15:00,ZGHA 221500Z AUTO 36006KT 4SM 00/M12 A3062 RMK T00001120 IEM_DS3505
ZGHA,2008-12-22 16:00,ZGHA 221600Z AUTO 34004KT 4SM M01/M10 A3062 RMK T10101100 IEM_DS3505
ZGHA,2008-12-22 17:00,ZGHA 221700Z AUTO 34004KT 5SM M01/M09 A3059 RMK T10101090 IEM_DS3505
ZGHA,2008-12-22 19:00,ZGHA 221900Z AUTO 33004KT 4SM M01/M07 A3059 RMK T10101070 IEM_DS3505
ZGHA,2008-12-22 20:00,ZGHA 222000Z AUTO 35004KT 5SM M01/M06 A3056 RMK T10101060 IEM_DS3505
ZGHA,2008-12-22 21:00,ZGHA 222100Z AUTO 35004KT 4SM M01/M07 A3053 RMK T10101070 IEM_DS3505
ZGHA,2008-12-22 22:00,ZGHA 222200Z AUTO 33004KT 4SM M01/M07 A3053 RMK T10101070 IEM_DS3505
ZGHA,2008-12-22 23:00,ZGHA 222300Z AUTO 7SM M02/M05 A3053 RMK T10201050 IEM_DS3505
ZGHA,2008-12-23 00:00,ZGHA 230000Z AUTO 34004KT 7SM M01/M05 A3053 RMK T10101050 IEM_DS3505
ZGHA,2008-12-23 01:00,ZGHA 230100Z AUTO 7SM M01/M06 A3053 RMK T10101060 IEM_DS3505
ZGHA,2008-12-23 02:00,ZGHA 230200Z AUTO 7SM M01/M06 A3053 RMK T10101060 IEM_DS3505
ZGHA,2008-12-23 03:00,ZGHA 230300Z AUTO 22004KT 7SM 00/M05 A3053 RMK T00001050 IEM_DS3505
ZGHA,2008-12-23 04:00,ZGHA 230400Z AUTO 23004KT 7SM 00/M07 A3050 RMK T00001070 IEM_DS3505
ZGHA,2008-12-23 05:00,ZGHA 230500Z AUTO 7SM 00/M06 A3047 RMK T00001060 IEM_DS3505
ZGHA,2008-12-23 06:00,ZGHA 230600Z AUTO 7SM 00/M06 A3042 RMK T00001060 IEM_DS3505
ZGHA,2008-12-23 07:00,ZGHA 230700Z AUTO 22004KT 7SM 00/M05 A3042 RMK T00001050 IEM_DS3505
ZGHA,2008-12-23 08:00,ZGHA 230800Z AUTO 5SM 00/M05 A3039 RMK T00001050 IEM_DS3505
ZGHA,2008-12-23 09:00,ZGHA 230900Z AUTO 00000KT 4SM 00/M05 A3039 RMK T00001050 IEM_DS3505
ZGHA,2008-12-23 10:00,ZGHA 231000Z AUTO 4SM 00/M05 A3039 RMK T00001050 IEM_DS3505
ZGHA,2008-12-23 11:00,ZGHA 231100Z AUTO 00000KT 4SM 00/M05 A3039 RMK T00001050 IEM_DS3505
ZGHA,2008-12-23 12:00,ZGHA 231200Z AUTO 4SM 01/M04 A3039 RMK T00101040 IEM_DS3505
ZGHA,2008-12-23 13:00,ZGHA 231300Z AUTO 22002KT 4SM 01/M04 A3039 RMK T00101040 IEM_DS3505
ZGHA,2008-12-23 14:00,ZGHA 231400Z AUTO 22004KT 3SM 01/M04 A3042 RMK T00101040 IEM_DS3505
ZGHA,2008-12-23 15:00,ZGHA 231500Z AUTO 20004KT 2SM 00/M02 A3039 RMK T00001020 IEM_DS3505
ZGHA,2008-12-23 16:00,ZGHA 231600Z AUTO 20004KT 1 1/4SM 00/M02 A3042 RMK T00001020 IEM_DS3505
ZGHA,2008-12-23 18:00,ZGHA 231800Z AUTO 1SM 00/M01 A3039 RMK T00001010 IEM_DS3505
ZGHA,2008-12-23 19:00,ZGHA 231900Z AUTO 1SM 00/M01 A3039 RMK T00001010 IEM_DS3505
ZGHA,2008-12-23 20:00,ZGHA 232000Z AUTO 1SM 00/M01 A3036 RMK T00001010 IEM_DS3505
ZGHA,2008-12-23 21:00,ZGHA 232100Z AUTO 19004KT 1 1/4SM 00/00 A3036 RMK T00000000 IEM_DS3505
ZGHA,2008-12-23 22:00,ZGHA 232200Z AUTO 19004KT 1SM 00/00 A3036 RMK T00000000 IEM_DS3505
ZGHA,2008-12-23 23:00,ZGHA 232300Z AUTO 1 1/4SM 01/00 A3036 RMK T00100000 IEM_DS3505
ZGHA,2008-12-24 00:00,ZGHA 240000Z AUTO 1 1/4SM 01/00 A3036 RMK T00100000 IEM_DS3505
ZGHA,2008-12-24 01:00,ZGHA 240100Z AUTO 17004KT 1 1/4SM 01/01 A3036 RMK T00100010 IEM_DS3505
ZGHA,2008-12-24 02:00,ZGHA 240200Z AUTO 19006KT 1 1/2SM 02/01 A3036 RMK T00200010 IEM_DS3505
ZGHA,2008-12-24 03:00,ZGHA 240300Z AUTO 2SM 02/01 A3036 RMK T00200010 IEM_DS3505
ZGHA,2008-12-24 04:00,ZGHA 240400Z AUTO 17004KT 2SM 03/02 A3033 RMK T00300020 IEM_DS3505
ZGHA,2008-12-24 05:00,ZGHA 240500Z AUTO 17004KT 2 1/2SM 04/02 A3030 RMK T00400020 IEM_DS3505
ZGHA,2008-12-24 06:00,ZGHA 240600Z AUTO 14004KT 2 1/2SM 05/03 A3027 RMK T00500030 IEM_DS3505
ZGHA,2008-12-24 07:00,ZGHA 240700Z AUTO 2 1/2SM 07/02 A3024 RMK T00700020 IEM_DS3505
ZGHA,2008-12-24 08:00,ZGHA 240800Z AUTO 4SM 06/02 A3024 RMK T00600020 IEM_DS3505
ZGHA,2008-12-24 09:00,ZGHA 240900Z AUTO 4SM 06/03 A3024 RMK T00600030 IEM_DS3505
ZGHA,2008-12-24 10:00,ZGHA 241000Z AUTO 08002KT 3SM 06/03 A3027 RMK T00600030 IEM_DS3505
ZGHA,2008-12-24 11:00,ZGHA 241100Z AUTO 3SM 06/03 A3027 RMK T00600030 IEM_DS3505
ZGHA,2008-12-24 12:00,ZGHA 241200Z AUTO 3SM 06/03 A3030 RMK T00600030 IEM_DS3505
ZGHA,2008-12-24 13:00,ZGHA 241300Z AUTO 17004KT 2 1/2SM 05/03 A3030 RMK T00500030 IEM_DS3505
ZGHA,2008-12-24 14:00,ZGHA 241400Z AUTO 2 1/2SM 05/03 A3033 RMK T00500030 IEM_DS3505
ZGHA,2008-12-24 15:00,ZGHA 241500Z AUTO 22002KT 2 1/2SM 05/03 A3033 RMK T00500030 IEM_DS3505
ZGHA,2008-12-24 16:00,ZGHA 241600Z AUTO 22004KT 2 1/2SM 05/03 A3033 RMK T00500030 IEM_DS3505
ZGHA,2008-12-24 17:00,ZGHA 241700Z AUTO 00000KT 2SM 05/03 A3033 RMK T00500030 IEM_DS3505
ZGHA,2008-12-24 18:00,ZGHA 241800Z AUTO 00000KT 1 1/4SM 03/02 A3036 RMK T00300020 IEM_DS3505
ZGHA,2008-12-24 21:00,ZGHA 242100Z AUTO 00000KT 1 1/4SM 01/01 A3036 RMK T00100010 IEM_DS3505
ZGHA,2008-12-24 22:00,ZGHA 242200Z AUTO 36002KT 1 1/4SM 01/00 A3036 RMK T00100000 IEM_DS3505
ZGHA,2008-12-24 23:00,ZGHA 242300Z AUTO 35002KT 1 1/4SM 00/00 A3039 RMK T00000000 IEM_DS3505
ZGHA,2008-12-25 00:00,ZGHA 250000Z AUTO 00000KT 1 1/2SM 01/01 A3039 RMK T00100010 IEM_DS3505
ZGHA,2008-12-25 01:00,ZGHA 250100Z AUTO 33002KT 1 1/2SM 03/03 A3039 RMK T00300030 IEM_DS3505
ZGHA,2008-12-25 02:00,ZGHA 250200Z AUTO 34004KT 2 1/2SM 07/06 A3042 RMK T00700060 IEM_DS3505
ZGHA,2008-12-25 03:00,ZGHA 250300Z AUTO 4SM 09/02 A3042 RMK T00900020 IEM_DS3505
ZGHA,2008-12-25 04:00,ZGHA 250400Z AUTO 34004KT 4SM 10/02 A3039 RMK T01000020 IEM_DS3505
ZGHA,2008-12-25 05:00,ZGHA 250500Z AUTO 33004KT 6SM 12/03 A3036 RMK T01200030 IEM_DS3505
ZGHA,2008-12-25 06:00,ZGHA 250600Z AUTO 6SM 13/04 A3033 RMK T01300040 IEM_DS3505
ZGHA,2008-12-25 07:00,ZGHA 250700Z AUTO 28004KT 6SM 13/02 A3030 RMK T01300020 IEM_DS3505
ZGHA,2008-12-25 08:00,ZGHA 250800Z AUTO 5SM 13/02 A3030 RMK T01300020 IEM_DS3505
ZGHA,2008-12-25 09:00,ZGHA 250900Z AUTO 00000KT 5SM 12/02 A3030 RMK T01200020 IEM_DS3505
ZGHA,2008-12-25 10:00,ZGHA 251000Z AUTO 4SM 11/02 A3030 RMK T01100020 IEM_DS3505
ZGHA,2008-12-25 11:00,ZGHA 251100Z AUTO 31004KT 4SM 11/03 A3033 RMK T01100030 IEM_DS3505
ZGHA,2008-12-25 12:00,ZGHA 251200Z AUTO 4SM 10/04 A3033 RMK T01000040 IEM_DS3505
ZGHA,2008-12-25 13:00,ZGHA 251300Z AUTO 3SM 10/03 A3036 RMK T01000030 IEM_DS3505
ZGHA,2008-12-25 14:00,ZGHA 251400Z AUTO 3SM 09/03 A3036 RMK T00900030 IEM_DS3505
ZGHA,2008-12-25 15:00,ZGHA 251500Z AUTO 00000KT 3SM 09/03 A3036 RMK T00900030 IEM_DS3505
ZGHA,2008-12-25 16:00,ZGHA 251600Z AUTO 2 1/2SM 09/03 A3036 RMK T00900030 IEM_DS3505
ZGHA,2008-12-25 18:00,ZGHA 251800Z AUTO 33002KT 2SM 08/04 A3033 RMK T00800040 IEM_DS3505
ZGHA,2008-12-25 19:00,ZGHA 251900Z AUTO 34004KT 2SM 08/04 A3033 RMK T00800040 IEM_DS3505
ZGHA,2008-12-25 20:00,ZGHA 252000Z AUTO 34002KT 1 1/2SM 08/04 A3030 RMK T00800040 IEM_DS3505
ZGHA,2008-12-25 21:00,ZGHA 252100Z AUTO 1 1/2SM 07/04 A3030 RMK T00700040 IEM_DS3505
ZGHA,2008-12-25 22:00,ZGHA 252200Z AUTO 32004KT 1 1/2SM 07/04 A3030 RMK T00700040 IEM_DS3505
ZGHA,2008-12-25 23:00,ZGHA 252300Z AUTO 1 1/2SM 07/03 A3033 RMK T00700030 IEM_DS3505
ZGHA,2008-12-26 00:00,ZGHA 260000Z AUTO 30004KT 1 1/2SM 07/03 A3033 RMK T00700030 IEM_DS3505
ZGHA,2008-12-26 01:00,ZGHA 260100Z AUTO 30004KT 1 1/2SM 07/03 A3036 RMK T00700030 IEM_DS3505
ZGHA,2008-12-26 02:00,ZGHA 260200Z AUTO 30004KT 1 1/2SM 07/03 A3036 RMK T00700030 IEM_DS3505
ZGHA,2008-12-26 03:00,ZGHA 260300Z AUTO 30006KT 1 1/2SM 08/03 A3036 RMK T00800030 IEM_DS3505
ZGHA,2008-12-26 04:00,ZGHA 260400Z AUTO 34004KT 2SM 08/03 A3033 RMK T00800030 IEM_DS3505
ZGHA,2008-12-26 05:00,ZGHA 260500Z AUTO 31006KT 2 1/2SM 09/02 A3030 RMK T00900020 IEM_DS3505
ZGHA,2008-12-26 06:00,ZGHA 260600Z AUTO 30008KT 2 1/2SM 08/02 A3030 RMK T00800020 IEM_DS3505
ZGHA,2008-12-26 07:00,ZGHA 260700Z AUTO 32006KT 2 1/2SM 08/01 A3027 RMK T00800010 IEM_DS3505
ZGHA,2008-12-26 08:00,ZGHA 260800Z AUTO 30004KT 2 1/2SM 08/02 A3027 RMK T00800020 IEM_DS3505
ZGHA,2008-12-26 09:00,ZGHA 260900Z AUTO 32004KT 2 1/2SM 08/02 A3027 RMK T00800020 IEM_DS3505
ZGHA,2008-12-26 10:00,ZGHA 261000Z AUTO 32006KT 2SM 08/02 A3027 RMK T00800020 IEM_DS3505
ZGHA,2008-12-26 11:00,ZGHA 261100Z AUTO 2 1/2SM 08/02 A3027 RMK T00800020 IEM_DS3505
ZGHA,2008-12-26 12:00,ZGHA 261200Z AUTO 32004KT 2 1/2SM 07/03 A3027 RMK T00700030 IEM_DS3505
ZGHA,2008-12-26 13:00,ZGHA 261300Z AUTO 2 1/2SM 07/03 A3030 RMK T00700030 IEM_DS3505
ZGHA,2008-12-26 14:00,ZGHA 261400Z AUTO 32004KT 2 1/2SM 07/03 A3030 RMK T00700030 IEM_DS3505
ZGHA,2008-12-26 15:00,ZGHA 261500Z AUTO 2SM 07/03 A3027 RMK T00700030 IEM_DS3505
ZGHA,2008-12-26 16:00,ZGHA 261600Z AUTO 00000KT 2SM 07/03 A3027 RMK T00700030 IEM_DS3505
ZGHA,2008-12-26 17:00,ZGHA 261700Z AUTO 00000KT 1 1/2SM 07/03 A3024 RMK T00700030 IEM_DS3505
ZGHA,2008-12-26 19:00,ZGHA 261900Z AUTO 34002KT 1 1/2SM 07/04 A3024 RMK T00700040 IEM_DS3505
ZGHA,2008-12-26 20:00,ZGHA 262000Z AUTO 01002KT 1 1/2SM 07/04 A3021 RMK T00700040 IEM_DS3505
ZGHA,2008-12-26 21:00,ZGHA 262100Z AUTO 31004KT 2SM 07/04 A3021 RMK T00700040 IEM_DS3505
ZGHA,2008-12-26 22:00,ZGHA 262200Z AUTO 33002KT 2SM 07/04 A3018 RMK T00700040 IEM_DS3505
ZGHA,2008-12-26 23:00,ZGHA 262300Z AUTO 00000KT 2SM 07/04 A3021 RMK T00700040 IEM_DS3505
ZGHA,2008-12-27 00:00,ZGHA 270000Z AUTO 00000KT 2SM 07/04 A3021 RMK T00700040 IEM_DS3505
ZGHA,2008-12-27 01:00,ZGHA 270100Z AUTO 2SM 07/04 A3021 RMK T00700040 IEM_DS3505
ZGHA,2008-12-27 02:00,ZGHA 270200Z AUTO 00000KT 2SM 08/04 A3024 RMK T00800040 IEM_DS3505
ZGHA,2008-12-27 03:00,ZGHA 270300Z AUTO 2SM 08/04 A3021 RMK T00800040 IEM_DS3505
ZGHA,2008-12-27 04:00,ZGHA 270400Z AUTO 19004KT 2 1/2SM 09/04 A3018 RMK T00900040 IEM_DS3505
ZGHA,2008-12-27 05:00,ZGHA 270500Z AUTO 17004KT 3SM 09/05 A3015 RMK T00900050 IEM_DS3505
ZGHA,2008-12-27 06:00,ZGHA 270600Z AUTO 3SM 09/04 A3012 RMK T00900040 IEM_DS3505
ZGHA,2008-12-27 07:00,ZGHA 270700Z AUTO 4SM 09/05 A3009 RMK T00900050 IEM_DS3505
ZGHA,2008-12-27 08:00,ZGHA 270800Z AUTO 4SM 09/05 A3009 RMK T00900050 IEM_DS3505
ZGHA,2008-12-27 09:00,ZGHA 270900Z AUTO 2 1/2SM 09/05 A3009 RMK T00900050 IEM_DS3505
ZGHA,2008-12-27 10:00,ZGHA 271000Z AUTO 1 1/2SM 09/05 A3009 RMK T00900050 IEM_DS3505
ZGHA,2008-12-27 11:00,ZGHA 271100Z AUTO 35002KT 2SM 09/05 A3009 RMK T00900050 IEM_DS3505
ZGHA,2008-12-27 12:00,ZGHA 271200Z AUTO 36004KT 1 1/2SM 09/05 A3012 RMK T00900050 IEM_DS3505
ZGHA,2008-12-27 13:00,ZGHA 271300Z AUTO 36004KT 1 1/2SM 08/05 A3012 RMK T00800050 IEM_DS3505
ZGHA,2008-12-27 14:00,ZGHA 271400Z AUTO 1 1/2SM 08/04 A3012 RMK T00800040 IEM_DS3505
ZGHA,2008-12-27 15:00,ZGHA 271500Z AUTO 35004KT 2SM 08/05 A3015 RMK T00800050 IEM_DS3505
ZGHA,2008-12-27 16:00,ZGHA 271600Z AUTO 33004KT 2SM 08/05 A3015 RMK T00800050 IEM_DS3505
ZGHA,2008-12-27 17:00,ZGHA 271700Z AUTO 34006KT 1SM 07/06 A3012 RMK T00700060 IEM_DS3505
ZGHA,2008-12-27 18:00,ZGHA 271800Z AUTO 36006KT 1/2SM 07/06 A3012 RMK T00700060 IEM_DS3505
ZGHA,2008-12-27 19:00,ZGHA 271900Z AUTO 35006KT 1/2SM 06/06 A3015 RMK T00600060 IEM_DS3505
ZGHA,2008-12-27 21:00,ZGHA 272100Z AUTO 35008KT 1 1/4SM 06/06 A3015 RMK T00600060 IEM_DS3505
ZGHA,2008-12-27 22:00,ZGHA 272200Z AUTO 35006KT 1 1/4SM 06/06 A3015 RMK T00600060 IEM_DS3505
ZGHA,2008-12-27 23:00,ZGHA 272300Z AUTO 34008KT 1SM 06/06 A3018 RMK T00600060 IEM_DS3505
ZGHA,2008-12-28 00:00,ZGHA 280000Z AUTO 35006KT 1SM 06/06 A3021 RMK T00600060 IEM_DS3505
ZGHA,2008-12-28 01:00,ZGHA 280100Z AUTO 33008KT 2SM 05/05 A3024 RMK T00500050 IEM_DS3505
ZGHA,2008-12-28 02:00,ZGHA 280200Z AUTO 34008KT 2SM 06/05 A3027 RMK T00600050 IEM_DS3505
ZGHA,2008-12-28 03:00,ZGHA 280300Z AUTO 34008KT 2SM 06/05 A3027 RMK T00600050 IEM_DS3505
ZGHA,2008-12-28 04:00,ZGHA 280400Z AUTO 33010KT 2 1/2SM 06/05 A3027 RMK T00600050 IEM_DS3505
ZGHA,2008-12-28 05:00,ZGHA 280500Z AUTO 34010KT 1 1/2SM 05/05 A3024 RMK T00500050 IEM_DS3505
ZGHA,2008-12-28 06:00,ZGHA 280600Z AUTO 34012KT 1SM 05/05 A3021 RMK T00500050 IEM_DS3505
ZGHA,2008-12-28 07:00,ZGHA 280700Z AUTO 34008KT 1SM 05/05 A3024 RMK T00500050 IEM_DS3505
ZGHA,2008-12-28 08:00,ZGHA 280800Z AUTO 33006KT 1SM 05/05 A3024 RMK T00500050 IEM_DS3505
ZGHA,2008-12-28 09:00,ZGHA 280900Z AUTO 34010KT 1SM 05/05 A3024 RMK T00500050 IEM_DS3505
ZGHA,2008-12-28 10:00,ZGHA 281000Z AUTO 34010KT 1SM 05/04 A3027 RMK T00500040 IEM_DS3505
ZGHA,2008-12-28 11:00,ZGHA 281100Z AUTO 35008KT 1 1/4SM 05/04 A3030 RMK T00500040 IEM_DS3505
ZGHA,2008-12-28 12:00,ZGHA 281200Z AUTO 34010KT 1 1/4SM 05/05 A3030 RMK T00500050 IEM_DS3505
ZGHA,2008-12-28 13:00,ZGHA 281300Z AUTO 34008KT 1SM 05/05 A3033 RMK T00500050 IEM_DS3505
ZGHA,2008-12-28 14:00,ZGHA 281400Z AUTO 34008KT 1 1/4SM 05/05 A3036 RMK T00500050 IEM_DS3505
ZGHA,2008-12-28 15:00,ZGHA 281500Z AUTO 33006KT 1 1/4SM 05/05 A3036 RMK T00500050 IEM_DS3505
ZGHA,2008-12-28 16:00,ZGHA 281600Z AUTO 33006KT 1SM 05/05 A3036 RMK T00500050 IEM_DS3505
ZGHA,2008-12-28 17:00,ZGHA 281700Z AUTO 34008KT 1 1/4SM 06/05 A3036 RMK T00600050 IEM_DS3505
ZGHA,2008-12-28 18:00,ZGHA 281800Z AUTO 34006KT 1SM 05/05 A3036 RMK T00500050 IEM_DS3505
ZGHA,2008-12-28 19:00,ZGHA 281900Z AUTO 32006KT 1SM 05/05 A3036 RMK T00500050 IEM_DS3505
ZGHA,2008-12-28 21:00,ZGHA 282100Z AUTO 35008KT 1SM 05/05 A3033 RMK T00500050 IEM_DS3505
ZGHA,2008-12-28 22:00,ZGHA 282200Z AUTO 02004KT 1SM 05/05 A3033 RMK T00500050 IEM_DS3505
ZGHA,2008-12-28 23:00,ZGHA 282300Z AUTO 34006KT 1SM 05/05 A3036 RMK T00500050 IEM_DS3505
ZGHA,2008-12-29 00:00,ZGHA 290000Z AUTO 34010KT 1SM 05/04 A3036 RMK T00500040 IEM_DS3505
ZGHA,2008-12-29 01:00,ZGHA 290100Z AUTO 35006KT 1SM 05/05 A3039 RMK T00500050 IEM_DS3505
ZGHA,2008-12-29 02:00,ZGHA 290200Z AUTO 36006KT 1SM 06/05 A3039 RMK T00600050 IEM_DS3505
ZGHA,2008-12-29 03:00,ZGHA 290300Z AUTO 01004KT 1 1/2SM 08/05 A3039 RMK T00800050 IEM_DS3505
ZGHA,2008-12-29 04:00,ZGHA 290400Z AUTO 2 1/2SM 09/05 A3036 RMK T00900050 IEM_DS3505
ZGHA,2008-12-29 05:00,ZGHA 290500Z AUTO 35004KT 3SM 09/05 A3033 RMK T00900050 IEM_DS3505
ZGHA,2008-12-29 06:00,ZGHA 290600Z AUTO 36004KT 3SM 09/05 A3030 RMK T00900050 IEM_DS3505
ZGHA,2008-12-29 07:00,ZGHA 290700Z AUTO 36008KT 3SM 09/05 A3027 RMK T00900050 IEM_DS3505
ZGHA,2008-12-29 08:00,ZGHA 290800Z AUTO 35008KT 3SM 09/04 A3030 RMK T00900040 IEM_DS3505
ZGHA,2008-12-29 09:00,ZGHA 290900Z AUTO 34006KT 4SM 09/03 A3030 RMK T00900030 IEM_DS3505
ZGHA,2008-12-29 10:00,ZGHA 291000Z AUTO 35004KT 2 1/2SM 08/03 A3030 RMK T00800030 IEM_DS3505
ZGHA,2008-12-29 11:00,ZGHA 291100Z AUTO 32006KT 2 1/2SM 08/03 A3033 RMK T00800030 IEM_DS3505
ZGHA,2008-12-29 12:00,ZGHA 291200Z AUTO 32008KT 2SM 08/04 A3036 RMK T00800040 IEM_DS3505
ZGHA,2008-12-29 13:00,ZGHA 291300Z AUTO 34006KT 2SM 07/04 A3039 RMK T00700040 IEM_DS3505
ZGHA,2008-12-29 14:00,ZGHA 291400Z AUTO 35006KT 2SM 07/03 A3039 RMK T00700030 IEM_DS3505
ZGHA,2008-12-29 15:00,ZGHA 291500Z AUTO 35006KT 2 1/2SM 07/02 A3042 RMK T00700020 IEM_DS3505
ZGHA,2008-12-29 16:00,ZGHA 291600Z AUTO 34006KT 2 1/2SM 07/02 A3042 RMK T00700020 IEM_DS3505
ZGHA,2008-12-29 17:00,ZGHA 291700Z AUTO 35004KT 2 1/2SM 06/02 A3042 RMK T00600020 IEM_DS3505
ZGHA,2008-12-29 18:00,ZGHA 291800Z AUTO 01006KT 2 1/2SM 06/02 A3039 RMK T00600020 IEM_DS3505
ZGHA,2008-12-29 21:00,ZGHA 292100Z AUTO 36006KT 1 1/2SM 06/02 A3039 RMK T00600020 IEM_DS3505
ZGHA,2008-12-29 22:00,ZGHA 292200Z AUTO 33008KT 1 1/2SM 06/02 A3042 RMK T00600020 IEM_DS3505
ZGHA,2008-12-29 23:00,ZGHA 292300Z AUTO 33008KT 1 1/2SM 05/02 A3045 RMK T00500020 IEM_DS3505
ZGHA,2008-12-30 00:00,ZGHA 300000Z AUTO 33008KT 1 1/4SM 05/03 A3045 RMK T00500030 IEM_DS3505
ZGHA,2008-12-30 01:00,ZGHA 300100Z AUTO 34006KT 1 1/4SM 05/03 A3047 RMK T00500030 IEM_DS3505
ZGHA,2008-12-30 02:00,ZGHA 300200Z AUTO 32008KT 1 1/4SM 05/04 A3050 RMK T00500040 IEM_DS3505
ZGHA,2008-12-30 03:00,ZGHA 300300Z AUTO 31006KT 1SM 05/04 A3047 RMK T00500040 IEM_DS3505
ZGHA,2008-12-30 04:00,ZGHA 300400Z AUTO 33008KT 1 1/4SM 06/04 A3047 RMK T00600040 IEM_DS3505
ZGHA,2008-12-30 05:00,ZGHA 300500Z AUTO 34008KT 1 1/4SM 05/04 A3042 RMK T00500040 IEM_DS3505
ZGHA,2008-12-30 06:00,ZGHA 300600Z AUTO 34010KT 1 1/4SM 05/03 A3042 RMK T00500030 IEM_DS3505
ZGHA,2008-12-30 07:00,ZGHA 300700Z AUTO 35008KT 1 1/2SM 05/03 A3042 RMK T00500030 IEM_DS3505
ZGHA,2008-12-30 08:00,ZGHA 300800Z AUTO 35008KT 1 1/2SM 05/02 A3042 RMK T00500020 IEM_DS3505
ZGHA,2008-12-30 09:00,ZGHA 300900Z AUTO 34008KT 1 1/2SM 05/03 A3045 RMK T00500030 IEM_DS3505
ZGHA,2008-12-30 10:00,ZGHA 301000Z AUTO 34008KT 1 1/2SM 05/03 A3047 RMK T00500030 IEM_DS3505
ZGHA,2008-12-30 11:00,ZGHA 301100Z AUTO 36006KT 1 1/4SM 04/03 A3047 RMK T00400030 IEM_DS3505
ZGHA,2008-12-30 12:00,ZGHA 301200Z AUTO 34006KT 1SM 04/04 A3050 RMK T00400040 IEM_DS3505
ZGHA,2008-12-30 13:00,ZGHA 301300Z AUTO 36004KT 1 1/4SM 04/04 A3050 RMK T00400040 IEM_DS3505
ZGHA,2008-12-30 14:00,ZGHA 301400Z AUTO 35006KT 1 1/2SM 05/04 A3050 RMK T00500040 IEM_DS3505
ZGHA,2008-12-30 15:00,ZGHA 301500Z AUTO 01004KT 2SM 05/04 A3053 RMK T00500040 IEM_DS3505
ZGHA,2008-12-30 16:00,ZGHA 301600Z AUTO 2 1/2SM 04/03 A3050 RMK T00400030 IEM_DS3505
ZGHA,2008-12-30 17:00,ZGHA 301700Z AUTO 4SM 04/03 A3050 RMK T00400030 IEM_DS3505
ZGHA,2008-12-30 18:00,ZGHA 301800Z AUTO 4SM 04/03 A3050 RMK T00400030 IEM_DS3505
ZGHA,2008-12-30 19:00,ZGHA 301900Z AUTO 34004KT 2SM 04/03 A3050 RMK T00400030 IEM_DS3505
ZGHA,2008-12-30 20:00,ZGHA 302000Z AUTO 34004KT 2 1/2SM 04/04 A3050 RMK T00400040 IEM_DS3505
ZGHA,2008-12-30 21:00,ZGHA 302100Z AUTO 34002KT 2SM 04/03 A3050 RMK T00400030 IEM_DS3505
ZGHA,2008-12-30 22:00,ZGHA 302200Z AUTO 1 1/2SM 03/03 A3050 RMK T00300030 IEM_DS3505
ZGHA,2008-12-30 23:00,ZGHA 302300Z AUTO 36002KT 2SM 03/02 A3053 RMK T00300020 IEM_DS3505
