station,valid,metar
ZGHA,2018-01-01 00:00,ZGHA 010000Z 29002MPS 260V330 5000 -RA BR NSC 08/04 Q1024 NOSIG
ZGHA,2018-01-01 01:00,ZGHA 010100Z 28002MPS 240V350 5000 -RA BR SCT050 08/03 Q1024 NOSIG
ZGHA,2018-01-01 02:00,ZGHA 010200Z 00000MPS 6000 BKN050 09/03 Q1024 NOSIG
ZGHA,2018-01-01 03:00,ZGHA 010300Z VRB01MPS 6000 -RA BKN050 10/02 Q1024 NOSIG
ZGHA,2018-01-01 04:00,ZGHA 010400Z 15001MPS 7000 BKN050 10/02 Q1023 NOSIG
ZGHA,2018-01-01 05:00,ZGHA 010500Z VRB01MPS 7000 BKN040 10/02 Q1022 NOSIG
ZGHA,2018-01-01 06:00,ZGHA 010600Z VRB01MPS 7000 BKN040 10/02 Q1021 NOSIG
ZGHA,2018-01-01 07:00,ZGHA 010700Z VRB01MPS 7000 BKN040 11/02 Q1020 NOSIG
ZGHA,2018-01-01 08:00,ZGHA 010800Z VRB01MPS 7000 BKN040 10/02 Q1021 NOSIG
ZGHA,2018-01-01 09:00,ZGHA 010900Z 04002MPS 6000 BKN040 10/04 Q1021 NOSIG
ZGHA,2018-01-01 10:00,ZGHA 011000Z 02002MPS 6000 BKN033 10/04 Q1021 NOSIG
ZGHA,2018-01-01 11:00,ZGHA 011100Z 36002MPS 6000 BKN033 09/04 Q1021 NOSIG
ZGHA,2018-01-01 12:00,ZGHA 011200Z 01002MPS 6000 BKN040 09/05 Q1022 NOSIG
ZGHA,2018-01-01 13:00,ZGHA 011300Z 36002MPS 5000 BR BKN033 09/04 Q1022 NOSIG
ZGHA,2018-01-01 14:00,ZGHA 011400Z 02001MPS 5000 BR BKN040 09/05 Q1022 NOSIG
ZGHA,2018-01-01 15:00,ZGHA 011500Z 01002MPS 6000 BKN040 09/04 Q1022 NOSIG
ZGHA,2018-01-01 16:00,ZGHA 011600Z 36002MPS 6000 BKN040 09/05 Q1023 NOSIG
ZGHA,2018-01-01 17:00,ZGHA 011700Z 36003MPS 5000 BR BKN040 09/05 Q1023 NOSIG
ZGHA,2018-01-01 18:00,ZGHA 011800Z 00000MPS 5000 BR BKN040 09/05 Q1022 NOSIG
ZGHA,2018-01-01 19:00,ZGHA 011900Z VRB01MPS 6000 BKN040 09/06 Q1022 NOSIG
ZGHA,2018-01-01 20:00,ZGHA 012000Z 36002MPS 7000 BKN040 09/06 Q1021 NOSIG
ZGHA,2018-01-01 21:00,ZGHA 012100Z 35002MPS 7000 BKN040 09/05 Q1021 NOSIG
ZGHA,2018-01-01 22:00,ZGHA 012200Z VRB01MPS 7000 BKN040 09/05 Q1021 NOSIG
ZGHA,2018-01-01 23:00,ZGHA 012300Z 33003MPS 7000 BKN033 09/06 Q1022 NOSIG
ZGHA,2018-01-02 00:00,ZGHA 020000Z 36002MPS 5000 BR BKN033 09/06 Q1022 NOSIG
ZGHA,2018-01-02 01:00,ZGHA 020100Z 01001MPS 4500 BR BKN050 09/06 Q1023 NOSIG
ZGHA,2018-01-02 02:00,ZGHA 020200Z 03002MPS 360V070 5000 BR SCT050 11/06 Q1023 NOSIG
ZGHA,2018-01-02 03:00,ZGHA 020300Z 35003MPS 320V040 6000 NSC 12/05 Q1023 NOSIG
ZGHA,2018-01-02 04:00,ZGHA 020400Z 36003MPS 310V030 7000 NSC 13/05 Q1022 NOSIG
ZGHA,2018-01-02 05:00,ZGHA 020500Z 35004MPS 7000 NSC 13/05 Q1021 NOSIG
ZGHA,2018-01-02 06:00,ZGHA 020600Z 01005MPS 7000 NSC 13/05 Q1020 NOSIG
ZGHA,2018-01-02 07:00,ZGHA 020700Z 36006MPS 6000 NSC 12/06 Q1020 NOSIG
ZGHA,2018-01-02 08:00,ZGHA 020800Z 35005MPS 5000 HZ NSC 12/06 Q1020 NOSIG
ZGHA,2018-01-02 09:00,ZGHA 020900Z 34005MPS 4500 BR NSC 11/06 Q1020 NOSIG
ZGHA,2018-01-02 10:00,ZGHA 021000Z 35005MPS 320V020 4000 BR NSC 10/06 Q1021 NOSIG
ZGHA,2018-01-02 11:00,ZGHA 021100Z 35004MPS 4000 BR NSC 10/06 Q1022 NOSIG
ZGHA,2018-01-02 12:00,ZGHA 021200Z 34004MPS 4000 -DZ BR SCT010 09/06 Q1023 BECMG TL1300 BKN009 OVC050
ZGHA,2018-01-02 13:00,ZGHA 021300Z 36004MPS 5000 -RA BR BKN009 OVC050 09/07 Q1023 BECMG TL1400 BKN011 OVC050
ZGHA,2018-01-02 14:00,ZGHA 021400Z 35004MPS 5000 -RA BR SCT006 BKN011 OVC050 08/07 Q1024 BECMG TL1500 BKN008 OVC050
ZGHA,2018-01-02 15:00,ZGHA 021500Z 36005MPS 5000 -RA BR SCT005 BKN009 OVC050 08/07 Q1024 NOSIG
ZGHA,2018-01-02 16:00,ZGHA 021600Z 35005MPS 5000 -RA BR SCT005 BKN008 OVC050 08/07 Q1025 NOSIG
ZGHA,2018-01-02 17:00,ZGHA 021700Z 34005MPS 5000 -RA BR SCT005 BKN008 OVC050 08/07 Q1025 NOSIG
ZGHA,2018-01-02 18:00,ZGHA 021800Z 34006MPS 3500 -RA BR SCT005 BKN012 OVC050 07/06 Q1025 NOSIG
ZGHA,2018-01-02 19:00,ZGHA 021900Z 35006MPS 3000 -RA BR SCT006 BKN010 OVC050 07/06 Q1025 NOSIG
ZGHA,2018-01-02 20:00,ZGHA 022000Z 34005MPS 2500 -RA BR SCT005 BKN008 OVC050 06/05 Q1025 NOSIG
ZGHA,2018-01-02 21:00,ZGHA 022100Z 34005MPS 2400 -RA BR SCT005 BKN008 OVC050 06/05 Q1025 NOSIG
ZGHA,2018-01-02 22:00,ZGHA 022200Z 34006MPS 2500 -RA BR SCT005 BKN008 OVC050 06/05 Q1025 NOSIG
ZGHA,2018-01-02 23:00,ZGHA 022300Z 34005MPS 2400 -RA BR SCT005 BKN007 OVC050 06/05 Q1026 BECMG TL0040 3200
ZGHA,2018-01-03 00:00,ZGHA 030000Z 34006MPS 1600 -RA BR SCT004 BKN006 OVC050 06/05 Q1026 BECMG TL0140 3200
ZGHA,2018-01-03 01:00,ZGHA 030100Z 34004MPS 1600 -RA BR SCT004 BKN006 OVC050 05/04 Q1027 BECMG TL0200 SCT006 OVC050
ZGHA,2018-01-03 02:00,ZGHA 030200Z 35005MPS 1600 -RA BR FEW004 SCT006 OVC050 05/04 Q1028 BECMG TL0300 BKN006 OVC050
ZGHA,2018-01-03 03:00,ZGHA 030300Z 36005MPS 1600 -RA BR FEW004 BKN006 OVC050 05/04 Q1028 BECMG TL0400 SCT006 OVC050
ZGHA,2018-01-03 04:00,ZGHA 030400Z 35005MPS 2200 -RA BR FEW005 BKN007 OVC050 05/04 Q1027 BECMG TL0500 3000
ZGHA,2018-01-03 05:00,ZGHA 030500Z 35005MPS 2000 -RA BR FEW005 BKN007 OVC050 05/04 Q1026 NOSIG
ZGHA,2018-01-03 06:00,ZGHA 030600Z 35006MPS 2600 -RA BR FEW006 BKN009 OVC050 05/04 Q1025 BECMG TL0700 3000 BKN010 OVC050
ZGHA,2018-01-03 07:00,ZGHA 030700Z 35005MPS 3000 -RA BR SCT006 BKN010 OVC050 05/04 Q1025 BECMG TL0800 BKN009 OVC050
ZGHA,2018-01-03 08:00,ZGHA 030800Z 35005MPS 4000 -RA BR SCT006 BKN009 OVC050 05/04 Q1025 BECMG TL0900 BKN010 OVC050
ZGHA,2018-01-03 09:00,ZGHA 030900Z 34006MPS 4000 -RA BR SCT006 BKN008 OVC050 05/04 Q1025 BECMG TL1050 BKN011 OVC050
ZGHA,2018-01-03 10:00,ZGHA 031000Z 35004MPS 6000 -RA SCT006 BKN009 OVC050 05/04 Q1025 BECMG TL1100 BKN011 OVC050
ZGHA,2018-01-03 11:00,ZGHA 031100Z 35005MPS 8000 -RA SCT006 BKN011 OVC050 05/03 Q1025 NOSIG
ZGHA,2018-01-03 12:00,ZGHA 031200Z 33004MPS 9999 -RA SCT006 BKN011 OVC050 05/04 Q1026 BECMG TL1300 BKN009 OVC050
ZGHA,2018-01-03 13:00,ZGHA 031300Z 32004MPS 5000 -RA BR SCT003 BKN005 OVC040 05/04 Q1027 NOSIG
ZGHA,2018-01-03 14:00,ZGHA 031400Z 34003MPS 310V010 5000 -RA BR SCT003 BKN005 OVC030 04/03 Q1027 NOSIG
ZGHA,2018-01-03 15:00,ZGHA 031500Z 33004MPS 300V360 8000 -RA SCT003 BKN005 OVC030 04/03 Q1026 NOSIG
ZGHA,2018-01-03 16:00,ZGHA 031600Z 33004MPS 8000 -RA SCT003 BKN005 OVC030 04/03 Q1026 NOSIG
ZGHA,2018-01-03 17:00,ZGHA 031700Z 33004MPS 8000 -RA SCT003 BKN005 OVC030 04/03 Q1026 NOSIG
ZGHA,2018-01-03 18:00,ZGHA 031800Z 32004MPS 9999 -RA SCT005 BKN007 OVC040 03/02 Q1025 NOSIG
ZGHA,2018-01-03 19:00,ZGHA 031900Z 31003MPS 8000 -RA SCT005 BKN007 OVC040 03/02 Q1025 NOSIG
ZGHA,2018-01-03 20:00,ZGHA 032000Z 31003MPS 8000 -RA SCT004 BKN007 OVC040 03/02 Q1024 NOSIG
ZGHA,2018-01-03 21:00,ZGHA 032100Z 31004MPS 8000 -RA SCT004 BKN007 OVC040 03/02 Q1024 NOSIG
ZGHA,2018-01-03 22:00,ZGHA 032200Z 33003MPS 6000 -RA SCT004 BKN007 OVC040 02/01 Q1024 NOSIG
ZGHA,2018-01-03 23:00,ZGHA 032300Z 34005MPS 7000 -RA SCT005 BKN008 OVC040 02/01 Q1024 BECMG TL0050 BKN011 OVC050
ZGHA,2018-01-04 00:00,ZGHA 040000Z 34005MPS 7000 -RA SCT006 BKN009 OVC050 02/01 Q1024 BECMG TL0100 BKN011 OVC050
ZGHA,2018-01-04 01:00,ZGHA 040100Z 31004MPS 7000 -RA SCT005 BKN010 OVC050 02/01 Q1026 BECMG TL0200 BKN008 OVC050
ZGHA,2018-01-04 02:00,ZGHA 040200Z 32004MPS 7000 -RA FEW004 BKN006 OVC050 02/01 Q1025 NOSIG
ZGHA,2018-01-04 03:00,ZGHA 040300Z 31004MPS 8000 -RA SCT005 BKN007 OVC050 02/01 Q1025 BECMG TL0440 BKN011 OVC050
ZGHA,2018-01-04 04:00,ZGHA 040400Z 31004MPS 280V340 6000 -RA SCT004 BKN006 OVC050 02/01 Q1025 NOSIG
ZGHA,2018-01-04 05:00,ZGHA 040500Z 31003MPS 7000 -RA SCT004 BKN006 OVC050 02/01 Q1024 NOSIG
ZGHA,2018-01-04 06:00,ZGHA 040600Z 01003MPS 5000 -RA BR SCT004 BKN006 OVC050 02/01 Q1023 NOSIG
ZGHA,2018-01-04 07:00,ZGHA 040700Z 31006MPS 6000 -RA SCT006 BKN009 OVC050 02/01 Q1023 BECMG TL0800 BKN011 OVC050
ZGHA,2018-01-04 08:00,ZGHA 040800Z 33007MPS 6000 -RA SCT007 BKN011 OVC050 02/01 Q1023 BECMG TL0940 BKN008 OVC050
ZGHA,2018-01-04 09:00,ZGHA 040900Z 36007MPS 3400 -RA BR SCT007 BKN013 OVC050 01/00 Q1024 NOSIG
ZGHA,2018-01-04 10:00,ZGHA 041000Z 35006MPS 9000 -RA SCT007 BKN026 OVC040 01/M00 Q1025 NOSIG
ZGHA,2018-01-04 11:00,ZGHA 041100Z 34005MPS 9000 -RA BKN006 OVC040 01/00 Q1026 NOSIG
ZGHA,2018-01-04 12:00,ZGHA 041200Z 33005MPS 9000 -RA BKN007 OVC040 01/00 Q1026 NOSIG
ZGHA,2018-01-04 13:00,ZGHA 041300Z 35005MPS 9999 -RA FEW007 BKN011 OVC040 01/00 Q1027 BECMG TL1400 BKN016 OVC050
ZGHA,2018-01-04 14:00,ZGHA 041400Z 34006MPS 8000 -RA FEW008 BKN015 OVC040 01/M00 Q1027 BECMG TL1500 BKN012 OVC050
ZGHA,2018-01-04 15:00,ZGHA 041500Z 35006MPS 320V020 5000 BR SCT007 BKN010 OVC040 01/M00 Q1028 BECMG TL1600 BKN009 OVC050
ZGHA,2018-01-04 16:00,ZGHA 041600Z 32004MPS 4000 BR SCT005 BKN008 OVC040 01/M00 Q1028 NOSIG
ZGHA,2018-01-04 17:00,ZGHA 041700Z 36005MPS 3500 BR BKN006 OVC040 01/M00 Q1027 NOSIG
ZGHA,2018-01-04 18:00,ZGHA 041800Z 35006MPS 3200 BR BKN006 OVC040 01/M00 Q1027 NOSIG
ZGHA,2018-01-04 19:00,ZGHA 041900Z 36006MPS 2900 BR BKN006 OVC040 01/M00 Q1027 NOSIG
ZGHA,2018-01-04 20:00,ZGHA 042000Z 35005MPS 2900 BR BKN006 OVC040 00/M01 Q1027 NOSIG
ZGHA,2018-01-04 21:00,ZGHA 042100Z 35005MPS 2600 BR BKN005 OVC040 00/M01 Q1027 NOSIG
ZGHA,2018-01-04 22:00,ZGHA 042200Z 36006MPS 2900 BR BKN005 OVC040 00/M01 Q1027 BECMG TL2340 3200
ZGHA,2018-01-04 23:00,ZGHA 042300Z 35005MPS 3100 BR BKN005 OVC040 00/M01 Q1027 NOSIG
ZGHA,2018-01-05 00:00,ZGHA 050000Z 36005MPS 1800 BR BKN006 OVC040 00/M01 Q1027 BECMG TL0140 3200
ZGHA,2018-01-05 01:00,ZGHA 050100Z 36005MPS 1800 BR BKN005 OVC040 00/M01 Q1028 BECMG TL0240 3200
ZGHA,2018-01-05 02:00,ZGHA 050200Z 36004MPS 2100 BR BKN006 OVC040 00/M01 Q1028 BECMG TL0300 3200
ZGHA,2018-01-05 03:00,ZGHA 050300Z 01004MPS 2300 BR BKN007 OVC040 01/M01 Q1028 BECMG TL0400 3200
ZGHA,2018-01-05 04:00,ZGHA 050400Z 36003MPS 320V020 2300 BR BKN007 OVC040 01/M01 Q1026 BECMG TL0500 3200 BKN010 OVC040
ZGHA,2018-01-05 05:00,ZGHA 050500Z 36003MPS 3000 BR SCT008 BKN010 OVC040 02/M01 Q1025 BECMG TL0600 BKN009 OVC040
ZGHA,2018-01-05 06:00,ZGHA 050600Z 33004MPS 3500 BR BKN011 OVC040 02/M00 Q1024 NOSIG
ZGHA,2018-01-05 07:00,ZGHA 050700Z 31004MPS 2500 BR BKN008 OVC040 02/M01 Q1023 BECMG TL0740 3000 BKN011 OVC040
ZGHA,2018-01-05 08:00,ZGHA 050800Z 31004MPS 2500 BR BKN010 OVC040 02/M00 Q1023 BECMG TL0900 3000 BKN009 OVC040
ZGHA,2018-01-05 09:00,ZGHA 050900Z 35003MPS 2500 BR BKN009 OVC040 02/M00 Q1023 BECMG TL1000 BKN010 OVC040
ZGHA,2018-01-05 10:00,ZGHA 051000Z 02004MPS 3500 BR BKN010 OVC040 02/M00 Q1023 BECMG TL1100 BKN009 OVC040
ZGHA,2018-01-05 11:00,ZGHA 051100Z 02004MPS 4000 BR BKN007 OVC040 01/M00 Q1023 NOSIG
ZGHA,2018-01-05 12:00,ZGHA 051200Z 36005MPS 3200 BR BKN006 OVC040 01/M00 Q1023 BECMG TL1300 2900
ZGHA,2018-01-05 13:00,ZGHA 051300Z 36004MPS 2800 BR BKN006 OVC040 01/00 Q1023 BECMG TL1400 3000
ZGHA,2018-01-05 14:00,ZGHA 051400Z 36004MPS 3000 BR BKN006 OVC040 01/00 Q1023 BECMG TL1500 2900
ZGHA,2018-01-05 15:00,ZGHA 051500Z 35004MPS 2500 BR BKN005 OVC040 01/00 Q1023 NOSIG
ZGHA,2018-01-05 16:00,ZGHA 051600Z 36004MPS 2200 BR SCT003 BKN005 OVC040 01/00 Q1023 NOSIG
ZGHA,2018-01-05 17:00,ZGHA 051700Z 01005MPS 2200 BR SCT003 BKN005 OVC040 01/00 Q1023 NOSIG
ZGHA,2018-01-05 18:00,ZGHA 051800Z 36004MPS 2200 BR SCT003 BKN005 OVC040 01/01 Q1022 NOSIG
ZGHA,2018-01-05 19:00,ZGHA 051900Z 35004MPS 2000 -DZ BR SCT003 BKN005 OVC040 01/01 Q1021 NOSIG
ZGHA,2018-01-05 20:00,ZGHA 052000Z 36003MPS 1500 -DZ BR SCT002 BKN005 OVC040 01/01 Q1021 NOSIG
ZGHA,2018-01-05 21:00,ZGHA 052100Z 34003MPS 1800 -DZ BR SCT002 BKN005 OVC040 02/01 Q1020 NOSIG
ZGHA,2018-01-05 22:00,ZGHA 052200Z 35004MPS 2300 -RA BR SCT003 BKN005 OVC040 02/01 Q1020 NOSIG
ZGHA,2018-01-05 23:00,ZGHA 052300Z 32002MPS 290V360 2800 -RA BR FEW003 BKN005 OVC040 02/01 Q1021 BECMG TL2400 3000
ZGHA,2018-01-06 00:00,ZGHA 060000Z 35003MPS 320V020 2000 -RA BR SCT003 BKN005 OVC040 02/01 Q1021 NOSIG
ZGHA,2018-01-06 01:00,ZGHA 060100Z 01003MPS 1800 -RA BR SCT003 BKN005 OVC040 02/01 Q1022 NOSIG
ZGHA,2018-01-06 02:00,ZGHA 060200Z 36002MPS 2000 -RA BR SCT003 BKN005 OVC040 02/02 Q1022 BECMG TL0340 3200
ZGHA,2018-01-06 03:00,ZGHA 060300Z 35004MPS 2500 -RA BR SCT003 BKN006 OVC040 02/02 Q1022 BECMG TL0400 3200
ZGHA,2018-01-06 04:00,ZGHA 060400Z 34005MPS 1700 -RA BR SCT003 BKN006 OVC040 02/02 Q1020 BECMG TL0540 3200
ZGHA,2018-01-06 05:00,ZGHA 060500Z 33005MPS 1600 -RA BR SCT003 BKN005 OVC040 02/02 Q1020 BECMG TL0600 1400 BKN004 OVC040
ZGHA,2018-01-06 06:00,ZGHA 060600Z 32003MPS 300V010 2000 -RA BR SCT003 BKN005 OVC040 03/02 Q1019 NOSIG
ZGHA,2018-01-06 07:00,ZGHA 060700Z 35005MPS 2500 -RA BR SCT004 BKN009 OVC040 02/02 Q1018 BECMG TL0800 3200 BKN011 OVC050
ZGHA,2018-01-06 08:00,ZGHA 060800Z 35004MPS 320V020 3000 -RA BR SCT004 BKN010 OVC040 03/02 Q1018 BECMG TL0900 2800 BKN008 OVC050
ZGHA,2018-01-06 09:00,ZGHA 060900Z 31004MPS 280V350 2700 -DZ BR SCT003 BKN008 OVC040 03/02 Q1019 NOSIG
ZGHA,2018-01-06 10:00,ZGHA 061000Z 36004MPS 3200 -RA BR SCT003 BKN007 OVC040 02/02 Q1018 NOSIG
ZGHA,2018-01-06 11:00,ZGHA 061100Z 34004MPS 4200 -RA BR SCT004 BKN008 OVC040 02/02 Q1020 NOSIG
ZGHA,2018-01-06 12:00,ZGHA 061200Z 36003MPS 3500 -RA BR SCT003 BKN006 OVC040 03/02 Q1019 NOSIG
ZGHA,2018-01-06 13:00,ZGHA 061300Z 34004MPS 3500 -RA BR SCT003 BKN006 OVC040 02/02 Q1020 NOSIG
ZGHA,2018-01-06 14:00,ZGHA 061400Z 36005MPS 5000 -RA BR SCT004 BKN007 OVC040 02/02 Q1021 NOSIG
ZGHA,2018-01-06 15:00,ZGHA 061500Z 33005MPS 290V360 4000 -RA BR SCT004 BKN007 OVC040 02/01 Q1021 NOSIG
ZGHA,2018-01-06 16:00,ZGHA 061600Z 33004MPS 300V360 4000 -RA BR SCT004 BKN007 OVC040 02/01 Q1020 NOSIG
ZGHA,2018-01-06 17:00,ZGHA 061700Z 33004MPS 4000 -RA BR SCT005 BKN008 OVC040 02/02 Q1021 NOSIG
ZGHA,2018-01-06 18:00,ZGHA 061800Z 34005MPS 6000 -RA SCT006 BKN009 OVC040 02/01 Q1020 NOSIG
ZGHA,2018-01-06 19:00,ZGHA 061900Z 34005MPS 6000 -RA SCT007 BKN011 OVC040 02/01 Q1020 NOSIG
ZGHA,2018-01-06 20:00,ZGHA 062000Z 34006MPS 5000 -RA BR SCT007 BKN010 OVC040 02/01 Q1020 NOSIG
ZGHA,2018-01-06 21:00,ZGHA 062100Z 34004MPS 6000 -DZ SCT007 BKN010 OVC040 02/01 Q1020 NOSIG
ZGHA,2018-01-06 22:00,ZGHA 062200Z 35005MPS 4000 -RA BR SCT003 BKN005 OVC040 02/01 Q1020 NOSIG
ZGHA,2018-01-06 23:00,ZGHA 062300Z 35005MPS 4000 -RA BR SCT004 BKN007 OVC040 01/01 Q1021 NOSIG
ZGHA,2018-01-07 00:00,ZGHA 070000Z 36005MPS 3500 -RA BR SCT004 BKN007 OVC040 01/00 Q1022 NOSIG
ZGHA,2018-01-07 01:00,ZGHA 070100Z 35005MPS 2800 -RA BR SCT004 BKN007 OVC040 01/00 Q1023 NOSIG
ZGHA,2018-01-07 02:00,ZGHA 070200Z 35005MPS 2800 -RA BR SCT006 BKN009 OVC040 01/00 Q1024 BECMG TL0300 3200
ZGHA,2018-01-07 03:00,ZGHA 070300Z 36005MPS 3200 BR SCT008 BKN013 OVC040 01/00 Q1023 BECMG TL0450 BKN016 OVC050
ZGHA,2018-01-07 04:00,ZGHA 070400Z 35005MPS 3800 BR SCT009 BKN015 OVC040 02/00 Q1022 NOSIG
ZGHA,2018-01-07 05:00,ZGHA 070500Z 35006MPS 2800 BR SCT009 BKN015 OVC040 02/M00 Q1022 BECMG TL0600 3200
ZGHA,2018-01-07 06:00,ZGHA 070600Z 36005MPS 3000 BR SCT009 BKN015 OVC040 02/M00 Q1021 BECMG TL0700 2800
ZGHA,2018-01-07 07:00,ZGHA 070700Z 34004MPS 2800 BR SCT009 BKN015 OVC040 02/M00 Q1020 BECMG TL0800 BKN011 OVC040
ZGHA,2018-01-07 08:00,ZGHA 070800Z 36005MPS 2800 BR BKN012 OVC040 02/M00 Q1020 NOSIG
ZGHA,2018-01-07 09:00,ZGHA 070900Z 36005MPS 2500 BR BKN012 OVC040 02/M00 Q1021 BECMG TL1040 3000 BKN016 OVC040
ZGHA,2018-01-07 10:00,ZGHA 071000Z 36006MPS 2700 BR BKN012 OVC040 02/M01 Q1020 BECMG TL1140 3000 BKN016 OVC040
ZGHA,2018-01-07 11:00,ZGHA 071100Z 35006MPS 3000 -RA BR BKN010 OVC040 02/M01 Q1022 BECMG TL1200 2800
ZGHA,2018-01-07 12:00,ZGHA 071200Z 34005MPS 300V020 2600 -RA BR SCT008 BKN010 OVC040 01/M00 Q1022 BECMG TL1300 BKN007 OVC040
ZGHA,2018-01-07 13:00,ZGHA 071300Z 34005MPS 2200 -RA BR SCT007 BKN011 OVC040 01/00 Q1023 BECMG TL1400 BKN009 OVC040
ZGHA,2018-01-07 14:00,ZGHA 071400Z 35005MPS 2200 -RA BR SCT006 BKN009 OVC040 01/00 Q1024 BECMG TL1540 BKN010 OVC040
ZGHA,2018-01-07 15:00,ZGHA 071500Z 35004MPS 320V020 2600 -RA BR SCT006 BKN011 OVC040 01/00 Q1024 BECMG TL1600 BKN009 OVC040
ZGHA,2018-01-07 16:00,ZGHA 071600Z 34004MPS 2300 -RA BR SCT005 BKN009 OVC040 01/00 Q1024 NOSIG
ZGHA,2018-01-07 17:00,ZGHA 071700Z 34005MPS 2300 -RA BR SCT004 BKN009 OVC040 01/00 Q1024 NOSIG
ZGHA,2018-01-07 18:00,ZGHA 071800Z 35005MPS 2600 -RA BR SCT006 BKN009 OVC040 01/00 Q1025 NOSIG
ZGHA,2018-01-07 19:00,ZGHA 071900Z 35006MPS 2600 BR SCT006 BKN009 OVC040 01/00 Q1025 NOSIG
ZGHA,2018-01-07 20:00,ZGHA 072000Z 35005MPS 2600 BR FEW006 BKN008 OVC040 01/M00 Q1025 NOSIG
ZGHA,2018-01-07 21:00,ZGHA 072100Z 35007MPS 2800 BR BKN009 OVC050 01/M00 Q1025 NOSIG
ZGHA,2018-01-07 22:00,ZGHA 072200Z 35005MPS 2800 BR SCT008 OVC050 01/M00 Q1026 BECMG TL2340 3000
ZGHA,2018-01-07 23:00,ZGHA 072300Z 34005MPS 3000 BR SCT008 OVC050 01/M00 Q1027 BECMG TL2340 2800
ZGHA,2018-01-08 00:00,ZGHA 080000Z 34006MPS 2000 BR FEW008 02/M00 Q1028 BECMG TL0100 3000
ZGHA,2018-01-08 01:00,ZGHA 080100Z 35005MPS 2500 BR NSC 02/M00 Q1029 BECMG TL0200 3000
ZGHA,2018-01-08 02:00,ZGHA 080200Z 01004MPS 3100 BR NSC 03/00 Q1029 NOSIG
ZGHA,2018-01-08 03:00,ZGHA 080300Z 36004MPS 4000 BR NSC 04/M00 Q1030 NOSIG
ZGHA,2018-01-08 04:00,ZGHA 080400Z 35006MPS 5000 HZ NSC 05/M01 Q1029 NOSIG
ZGHA,2018-01-08 05:00,ZGHA 080500Z 36007MPS 7000 SCT030 07/M01 Q1028 NOSIG
ZGHA,2018-01-08 06:00,ZGHA 080600Z 36008MPS 8000 SCT040 08/M01 Q1027 NOSIG
ZGHA,2018-01-08 07:00,ZGHA 080700Z 36008MPS 9000 FEW040 08/M04 Q1027 NOSIG
ZGHA,2018-01-08 08:00,ZGHA 080800Z 36008MPS CAVOK 08/M09 Q1027 NOSIG
ZGHA,2018-01-08 09:00,ZGHA 080900Z 36006MPS CAVOK 07/M06 Q1027 NOSIG
ZGHA,2018-01-08 10:00,ZGHA 081000Z 36005MPS CAVOK 06/M04 Q1028 NOSIG
ZGHA,2018-01-08 11:00,ZGHA 081100Z 36004MPS CAVOK 04/M04 Q1029 NOSIG
ZGHA,2018-01-08 12:00,ZGHA 081200Z 35004MPS CAVOK 04/M05 Q1030 NOSIG
ZGHA,2018-01-08 13:00,ZGHA 081300Z 02002MPS CAVOK 02/M04 Q1031 NOSIG
ZGHA,2018-01-08 14:00,ZGHA 081400Z 34003MPS 8000 NSC 02/M04 Q1031 NOSIG
ZGHA,2018-01-08 15:00,ZGHA 081500Z 08002MPS 8000 NSC 00/M03 Q1031 NOSIG
ZGHA,2018-01-08 16:00,ZGHA 081600Z 01002MPS 8000 NSC M00/M03 Q1030 NOSIG
ZGHA,2018-01-08 17:00,ZGHA 081700Z 02002MPS 8000 NSC M00/M03 Q1031 NOSIG
ZGHA,2018-01-08 18:00,ZGHA 081800Z 04002MPS 7000 NSC M01/M03 Q1030 NOSIG
ZGHA,2018-01-08 19:00,ZGHA 081900Z VRB01MPS 6000 NSC M02/M03 Q1030 NOSIG
ZGHA,2018-01-08 20:00,ZGHA 082000Z 15001MPS 4000 BR NSC M02/M03 Q1030 NOSIG
ZGHA,2018-01-08 21:00,ZGHA 082100Z 08001MPS 3500 BR NSC M02/M03 Q1030 NOSIG
ZGHA,2018-01-08 22:00,ZGHA 082200Z 04001MPS 4000 BR NSC M03/M04 Q1030 NOSIG
ZGHA,2018-01-08 23:00,ZGHA 082300Z 00000MPS 4500 BR NSC M03/M03 Q1030 NOSIG
ZGHA,2018-01-09 00:00,ZGHA 090000Z 18001MPS 4500 BR NSC M03/M04 Q1031 NOSIG
ZGHA,2018-01-09 01:00,ZGHA 090100Z 14001MPS 5000 BR NSC M01/M02 Q1032 NOSIG
ZGHA,2018-01-09 02:00,ZGHA 090200Z VRB01MPS 7000 NSC 03/M00 Q1033 NOSIG
ZGHA,2018-01-09 03:00,ZGHA 090300Z VRB01MPS 8000 NSC 05/M02 Q1032 NOSIG
ZGHA,2018-01-09 04:00,ZGHA 090400Z VRB01MPS CAVOK 07/M04 Q1031 NOSIG
ZGHA,2018-01-09 05:00,ZGHA 090500Z 05002MPS 360V080 CAVOK 09/M04 Q1029 NOSIG
ZGHA,2018-01-09 06:00,ZGHA 090600Z VRB01MPS CAVOK 10/M04 Q1028 NOSIG
ZGHA,2018-01-09 07:00,ZGHA 090700Z 02002MPS 300V060 CAVOK 10/M04 Q1028 NOSIG
ZGHA,2018-01-09 08:00,ZGHA 090800Z 36002MPS 300V050 CAVOK 10/M04 Q1027 NOSIG
ZGHA,2018-01-09 09:00,ZGHA 090900Z 33003MPS 310V010 CAVOK 10/M05 Q1028 NOSIG
ZGHA,2018-01-09 10:00,ZGHA 091000Z 34002MPS 280V360 CAVOK 08/M04 Q1028 NOSIG
ZGHA,2018-01-09 11:00,ZGHA 091100Z 30001MPS CAVOK 06/M01 Q1029 NOSIG
ZGHA,2018-01-09 12:00,ZGHA 091200Z VRB01MPS 9000 NSC 05/M01 Q1029 NOSIG
ZGHA,2018-01-09 13:00,ZGHA 091300Z 14001MPS 9000 NSC 03/M00 Q1030 NOSIG
ZGHA,2018-01-09 14:00,ZGHA 091400Z 06001MPS 9000 NSC 02/00 Q1031 NOSIG
ZGHA,2018-01-09 15:00,ZGHA 091500Z 07001MPS 8000 NSC 02/M00 Q1031 NOSIG
ZGHA,2018-01-09 16:00,ZGHA 091600Z 05001MPS 8000 NSC 01/M01 Q1031 NOSIG
ZGHA,2018-01-09 17:00,ZGHA 091700Z 07001MPS 7000 NSC 00/M01 Q1031 NOSIG
ZGHA,2018-01-09 18:00,ZGHA 091800Z 04001MPS 7000 NSC M01/M02 Q1031 NOSIG
ZGHA,2018-01-09 19:00,ZGHA 091900Z VRB01MPS 7000 NSC M01/M02 Q1031 NOSIG
ZGHA,2018-01-09 20:00,ZGHA 092000Z 15001MPS 5000 BR NSC M02/M02 Q1031 NOSIG
ZGHA,2018-01-09 21:00,ZGHA 092100Z VRB01MPS 5000 BR NSC M02/M02 Q1031 NOSIG
ZGHA,2018-01-09 22:00,ZGHA 092200Z VRB01MPS 6000 NSC M02/M02 Q1031 NOSIG
ZGHA,2018-01-09 23:00,ZGHA 092300Z VRB01MPS 6000 NSC M02/M03 Q1032 NOSIG
ZGHA,2018-01-10 00:00,ZGHA 100000Z VRB01MPS 6000 NSC M02/M02 Q1032 NOSIG
ZGHA,2018-01-10 01:00,ZGHA 100100Z 04001MPS 5000 BR NSC M00/M01 Q1033 NOSIG
ZGHA,2018-01-10 02:00,ZGHA 100200Z 08001MPS 6000 NSC 03/01 Q1034 NOSIG
ZGHA,2018-01-10 03:00,ZGHA 100300Z VRB01MPS 7000 NSC 07/00 Q1033 NOSIG
ZGHA,2018-01-10 04:00,ZGHA 100400Z VRB01MPS 8000 NSC 10/00 Q1032 NOSIG
ZGHA,2018-01-10 05:00,ZGHA 100500Z 30002MPS 250V340 CAVOK 12/M01 Q1031 NOSIG
ZGHA,2018-01-10 06:00,ZGHA 100600Z 04002MPS 350V110 CAVOK 12/M03 Q1030 NOSIG
ZGHA,2018-01-10 07:00,ZGHA 100700Z 34002MPS 240V040 CAVOK 13/M03 Q1029 NOSIG
ZGHA,2018-01-10 08:00,ZGHA 100800Z 04002MPS 330V080 CAVOK 13/M03 Q1029 NOSIG
ZGHA,2018-01-10 09:00,ZGHA 100900Z 35003MPS 310V020 CAVOK 12/M03 Q1029 NOSIG
ZGHA,2018-01-10 10:00,ZGHA 101000Z 01002MPS CAVOK 10/M01 Q1029 NOSIG
ZGHA,2018-01-10 11:00,ZGHA 101100Z 03002MPS CAVOK 07/01 Q1030 NOSIG
ZGHA,2018-01-10 12:00,ZGHA 101200Z 30002MPS CAVOK 07/00 Q1030 NOSIG
ZGHA,2018-01-10 13:00,ZGHA 101300Z 08002MPS CAVOK 04/01 Q1031 NOSIG
ZGHA,2018-01-10 14:00,ZGHA 101400Z 01002MPS 8000 NSC 04/01 Q1031 NOSIG
ZGHA,2018-01-10 15:00,ZGHA 101500Z 02001MPS 8000 NSC 03/01 Q1032 NOSIG
ZGHA,2018-01-10 16:00,ZGHA 101600Z 07001MPS 8000 NSC 02/M00 Q1031 NOSIG
ZGHA,2018-01-10 17:00,ZGHA 101700Z 08002MPS 7000 NSC 01/M00 Q1031 NOSIG
ZGHA,2018-01-10 18:00,ZGHA 101800Z 05002MPS 7000 NSC 01/M00 Q1031 NOSIG
ZGHA,2018-01-10 19:00,ZGHA 101900Z 03002MPS 7000 NSC 00/M01 Q1031 NOSIG
ZGHA,2018-01-10 20:00,ZGHA 102000Z 36001MPS 7000 NSC M00/M02 Q1031 NOSIG
ZGHA,2018-01-10 21:00,ZGHA 102100Z 04002MPS 7000 NSC M00/M01 Q1031 NOSIG
ZGHA,2018-01-10 22:00,ZGHA 102200Z 04002MPS 8000 NSC M00/M02 Q1031 NOSIG
ZGHA,2018-01-10 23:00,ZGHA 102300Z 03001MPS 8000 NSC M00/M02 Q1031 NOSIG
ZGHA,2018-01-11 00:00,ZGHA 110000Z 00000MPS 8000 NSC M00/M02 Q1032 NOSIG
ZGHA,2018-01-11 01:00,ZGHA 110100Z 00000MPS CAVOK 01/M01 Q1033 NOSIG
ZGHA,2018-01-11 02:00,ZGHA 110200Z VRB01MPS CAVOK 03/M01 Q1034 NOSIG
ZGHA,2018-01-11 03:00,ZGHA 110300Z VRB01MPS CAVOK 06/M01 Q1033 NOSIG
ZGHA,2018-01-11 04:00,ZGHA 110400Z 04002MPS CAVOK 08/M02 Q1033 NOSIG
ZGHA,2018-01-11 05:00,ZGHA 110500Z 03002MPS 360V070 CAVOK 10/M06 Q1032 NOSIG
ZGHA,2018-01-11 06:00,ZGHA 110600Z 36002MPS 320V060 CAVOK 12/M08 Q1031 NOSIG
ZGHA,2018-01-11 07:00,ZGHA 110700Z 01002MPS 330V140 CAVOK 13/M09 Q1030 NOSIG
ZGHA,2018-01-11 08:00,ZGHA 110800Z 35002MPS 290V060 CAVOK 13/M07 Q1030 NOSIG
ZGHA,2018-01-11 09:00,ZGHA 110900Z 29003MPS CAVOK 12/M05 Q1031 NOSIG
ZGHA,2018-01-11 10:00,ZGHA 111000Z 30003MPS CAVOK 10/M02 Q1031 NOSIG
ZGHA,2018-01-11 11:00,ZGHA 111100Z 31002MPS CAVOK 08/M03 Q1032 NOSIG
ZGHA,2018-01-11 12:00,ZGHA 111200Z 34004MPS CAVOK 08/M04 Q1033 NOSIG
ZGHA,2018-01-11 13:00,ZGHA 111300Z 01003MPS CAVOK 06/M02 Q1034 NOSIG
ZGHA,2018-01-11 14:00,ZGHA 111400Z 05002MPS 010V110 9000 NSC 05/M02 Q1034 NOSIG
ZGHA,2018-01-11 15:00,ZGHA 111500Z 36004MPS 9000 NSC 04/M02 Q1034 NOSIG
ZGHA,2018-01-11 16:00,ZGHA 111600Z 08001MPS 8000 NSC 02/M02 Q1034 NOSIG
ZGHA,2018-01-11 17:00,ZGHA 111700Z VRB01MPS 8000 NSC 02/M01 Q1033 NOSIG
ZGHA,2018-01-11 18:00,ZGHA 111800Z 03002MPS 8000 NSC 01/M02 Q1033 NOSIG
ZGHA,2018-01-11 19:00,ZGHA 111900Z VRB01MPS 8000 NSC 01/M02 Q1033 NOSIG
ZGHA,2018-01-11 20:00,ZGHA 112000Z 02002MPS 9000 NSC 00/M03 Q1033 NOSIG
ZGHA,2018-01-11 21:00,ZGHA 112100Z 36001MPS CAVOK 00/M03 Q1033 NOSIG
ZGHA,2018-01-11 22:00,ZGHA 112200Z 02001MPS CAVOK M00/M03 Q1034 NOSIG
ZGHA,2018-01-11 23:00,ZGHA 112300Z 01002MPS CAVOK M01/M03 Q1034 NOSIG
ZGHA,2018-01-12 00:00,ZGHA 120000Z VRB01MPS CAVOK M01/M03 Q1034 NOSIG
ZGHA,2018-01-12 01:00,ZGHA 120100Z VRB01MPS CAVOK 02/M01 Q1035 NOSIG
ZGHA,2018-01-12 02:00,ZGHA 120200Z VRB01MPS CAVOK 05/M02 Q1035 NOSIG
ZGHA,2018-01-12 03:00,ZGHA 120300Z VRB01MPS CAVOK 07/M04 Q1035 NOSIG
ZGHA,2018-01-12 04:00,ZGHA 120400Z 02002MPS 340V070 CAVOK 09/M05 Q1034 NOSIG
ZGHA,2018-01-12 05:00,ZGHA 120500Z 36002MPS 330V040 CAVOK 10/M06 Q1032 NOSIG
ZGHA,2018-01-12 06:00,ZGHA 120600Z VRB01MPS CAVOK 11/M07 Q1031 NOSIG
ZGHA,2018-01-12 07:00,ZGHA 120700Z VRB01MPS CAVOK 11/M07 Q1030 NOSIG
ZGHA,2018-01-12 08:00,ZGHA 120800Z 05002MPS 350V130 CAVOK 12/M07 Q1029 NOSIG
ZGHA,2018-01-12 09:00,ZGHA 120900Z VRB01MPS CAVOK 12/M07 Q1029 NOSIG
ZGHA,2018-01-12 10:00,ZGHA 121000Z 09001MPS CAVOK 09/M06 Q1029 NOSIG
ZGHA,2018-01-12 11:00,ZGHA 121100Z 13001MPS CAVOK 08/M06 Q1030 NOSIG
ZGHA,2018-01-12 12:00,ZGHA 121200Z 08002MPS CAVOK 05/M00 Q1030 NOSIG
ZGHA,2018-01-12 13:00,ZGHA 121300Z 11002MPS CAVOK 04/M02 Q1031 NOSIG
ZGHA,2018-01-12 14:00,ZGHA 121400Z VRB01MPS 8000 NSC 03/M02 Q1031 NOSIG
ZGHA,2018-01-12 15:00,ZGHA 121500Z VRB01MPS 9000 NSC 03/M02 Q1032 NOSIG
ZGHA,2018-01-12 16:00,ZGHA 121600Z VRB01MPS 9000 NSC 02/M03 Q1031 NOSIG
ZGHA,2018-01-12 17:00,ZGHA 121700Z 00000MPS 9000 NSC 01/M02 Q1030 NOSIG
ZGHA,2018-01-12 18:00,ZGHA 121800Z VRB01MPS 9000 NSC 01/M02 Q1030 NOSIG
ZGHA,2018-01-12 19:00,ZGHA 121900Z VRB01MPS 8000 NSC M00/M02 Q1030 NOSIG
ZGHA,2018-01-12 20:00,ZGHA 122000Z 36002MPS 8000 NSC 01/M01 Q1030 NOSIG
ZGHA,2018-01-12 21:00,ZGHA 122100Z 08001MPS 8000 NSC 00/M02 Q1030 NOSIG
ZGHA,2018-01-12 22:00,ZGHA 122200Z VRB01MPS 8000 NSC 00/M02 Q1029 NOSIG
ZGHA,2018-01-12 23:00,ZGHA 122300Z VRB01MPS 8000 NSC 00/M02 Q1029 NOSIG
ZGHA,2018-01-13 00:00,ZGHA 130000Z 35002MPS CAVOK 02/M02 Q1030 NOSIG
ZGHA,2018-01-13 01:00,ZGHA 130100Z VRB01MPS CAVOK 04/M03 Q1031 NOSIG
ZGHA,2018-01-13 02:00,ZGHA 130200Z 29002MPS 250V330 CAVOK 06/M04 Q1031 NOSIG
ZGHA,2018-01-13 03:00,ZGHA 130300Z VRB01MPS CAVOK 07/M05 Q1030 NOSIG
ZGHA,2018-01-13 04:00,ZGHA 130400Z 00000MPS CAVOK 09/M06 Q1029 NOSIG
ZGHA,2018-01-13 05:00,ZGHA 130500Z VRB01MPS CAVOK 09/M07 Q1028 NOSIG
ZGHA,2018-01-13 06:00,ZGHA 130600Z 18002MPS CAVOK 10/M07 Q1027 NOSIG
ZGHA,2018-01-13 07:00,ZGHA 130700Z 08001MPS CAVOK 10/M07 Q1026 NOSIG
ZGHA,2018-01-13 08:00,ZGHA 130800Z VRB01MPS CAVOK 10/M07 Q1026 NOSIG
ZGHA,2018-01-13 09:00,ZGHA 130900Z VRB01MPS 8000 NSC 09/M03 Q1026 NOSIG
ZGHA,2018-01-13 10:00,ZGHA 131000Z 27002MPS 240V330 7000 NSC 08/M03 Q1027 NOSIG
ZGHA,2018-01-13 11:00,ZGHA 131100Z VRB01MPS 8000 NSC 07/M02 Q1027 NOSIG
ZGHA,2018-01-13 12:00,ZGHA 131200Z VRB01MPS 8000 NSC 07/M02 Q1027 NOSIG
ZGHA,2018-01-13 13:00,ZGHA 131300Z 32001MPS 7000 NSC 07/M02 Q1027 NOSIG
ZGHA,2018-01-13 14:00,ZGHA 131400Z VRB01MPS 7000 NSC 06/M00 Q1027 NOSIG
ZGHA,2018-01-13 15:00,ZGHA 131500Z 27002MPS 6000 NSC 06/M01 Q1027 NOSIG
ZGHA,2018-01-13 16:00,ZGHA 131600Z VRB01MPS 6000 NSC 06/M01 Q1026 NOSIG
ZGHA,2018-01-13 17:00,ZGHA 131700Z 29002MPS 7000 NSC 06/M01 Q1027 NOSIG
ZGHA,2018-01-13 18:00,ZGHA 131800Z VRB01MPS 7000 NSC 07/M02 Q1027 NOSIG
ZGHA,2018-01-13 19:00,ZGHA 131900Z 06001MPS 6000 NSC 05/00 Q1026 NOSIG
ZGHA,2018-01-13 20:00,ZGHA 132000Z VRB01MPS 6000 NSC 05/01 Q1026 NOSIG
ZGHA,2018-01-13 21:00,ZGHA 132100Z 12002MPS 6000 NSC 05/01 Q1024 NOSIG
ZGHA,2018-01-13 22:00,ZGHA 132200Z VRB01MPS 7000 NSC 05/00 Q1025 NOSIG
ZGHA,2018-01-13 23:00,ZGHA 132300Z 26002MPS 8000 NSC 06/M01 Q1025 NOSIG
ZGHA,2018-01-14 00:00,ZGHA 140000Z 21002MPS 170V260 9000 NSC 07/M02 Q1026 NOSIG
ZGHA,2018-01-14 01:00,ZGHA 140100Z 19002MPS 8000 NSC 07/M? ?01 Q1026 NOSIG
ZGHA,2018-01-14 02:00,ZGHA 140200Z 17003MPS 9000 NSC 08/M02 Q1027 NOSIG
ZGHA,2018-01-14 03:00,ZGHA 140300Z 17003MPS 9000 NSC 09/M03 Q1026 NOSIG
ZGHA,2018-01-14 04:00,ZGHA 140400Z 17003MPS 9000 NSC 10/M04 Q1025 NOSIG
ZGHA,2018-01-14 05:00,ZGHA 140500Z 17003MPS 9000 NSC 11/M04 Q1024 NOSIG
ZGHA,2018-01-14 06:00,ZGHA 140600Z 19002MPS 140V260 9000 NSC 11/M03 Q1023 NOSIG
ZGHA,2018-01-14 07:00,ZGHA 140700Z 17003MPS 140V200 CAVOK 12/M03 Q1022 NOSIG
ZGHA,2018-01-14 08:00,ZGHA 140800Z 16004MPS CAVOK 12/M04 Q1021 NOSIG
ZGHA,2018-01-14 09:00,ZGHA 140900Z 18003MPS CAVOK 12/M03 Q1021 NOSIG
ZGHA,2018-01-14 10:00,ZGHA 141000Z 20002MPS CAVOK 10/M02 Q1021 NOSIG
ZGHA,2018-01-14 11:00,ZGHA 141100Z VRB01MPS CAVOK 09/M02 Q1022 NOSIG
ZGHA,2018-01-14 12:00,ZGHA 141200Z VRB01MPS 9000 NSC 08/M01 Q1022 NOSIG
ZGHA,2018-01-14 13:00,ZGHA 141300Z VRB01MPS 8000 NSC 07/M00 Q1022 NOSIG
ZGHA,2018-01-14 14:00,ZGHA 141400Z 19002MPS 7000 NSC 06/01 Q1023 NOSIG
ZGHA,2018-01-14 15:00,ZGHA 141500Z 00000MPS 7000 NSC 07/01 Q1023 NOSIG
ZGHA,2018-01-14 16:00,ZGHA 141600Z 29001MPS 7000 NSC 08/01 Q1022 NOSIG
ZGHA,2018-01-14 17:00,ZGHA 141700Z VRB01MPS 7000 NSC 08/02 Q1022 NOSIG
ZGHA,2018-01-14 18:00,ZGHA 141800Z 00000MPS 7000 NSC 07/03 Q1022 NOSIG
ZGHA,2018-01-14 19:00,ZGHA 141900Z 07001MPS 7000 NSC 07/03 Q1021 NOSIG
ZGHA,2018-01-14 20:00,ZGHA 142000Z 00000MPS 7000 NSC 07/03 Q1021 NOSIG
ZGHA,2018-01-14 21:00,ZGHA 142100Z 05001MPS 7000 NSC 07/03 Q1021 NOSIG
ZGHA,2018-01-14 22:00,ZGHA 142200Z 03001MPS 7000 NSC 07/03 Q1021 NOSIG
ZGHA,2018-01-14 23:00,ZGHA 142300Z VRB01MPS 7000 NSC 07/03 Q1021 NOSIG
ZGHA,2018-01-15 00:00,ZGHA 150000Z 03002MPS 7000 NSC 08/02 Q1021 NOSIG
ZGHA,2018-01-15 01:00,ZGHA 150100Z VRB02MPS 6000 NSC 09/02 Q1022 NOSIG
ZGHA,2018-01-15 02:00,ZGHA 150200Z VRB01MPS 6000 SCT050 10/01 Q1022 NOSIG
ZGHA,2018-01-15 03:00,ZGHA 150300Z VRB01MPS 7000 NSC 12/02 Q1021 NOSIG
ZGHA,2018-01-15 04:00,ZGHA 150400Z 06002MPS 030V090 8000 SCT050 13/02 Q1020 NOSIG
ZGHA,2018-01-15 05:00,ZGHA 150500Z VRB01MPS 8000 BKN050 15/01 Q1018 NOSIG
ZGHA,2018-01-15 06:00,ZGHA 150600Z 16003MPS 140V200 CAVOK 15/00 Q1017 NOSIG
ZGHA,2018-01-15 07:00,ZGHA 150700Z 15002MPS 9999 OVC050 14/03 Q1017 NOSIG
ZGHA,2018-01-15 08:00,ZGHA 150800Z VRB01MPS 9999 OVC050 14/04 Q1017 NOSIG
ZGHA,2018-01-15 09:00,ZGHA 150900Z VRB01MPS 8000 OVC050 14/02 Q1016 NOSIG
ZGHA,2018-01-15 10:00,ZGHA 151000Z 00000MPS 7000 NSC 13/02 Q1016 NOSIG
ZGHA,2018-01-15 11:00,ZGHA 151100Z 35002MPS 280V020 7000 NSC 13/03 Q1017 NOSIG
ZGHA,2018-01-15 12:00,ZGHA 151200Z 02003MPS 7000 NSC 12/03 Q1017 NOSIG
ZGHA,2018-01-15 13:00,ZGHA 151300Z 03002MPS 8000 NSC 11/03 Q1017 NOSIG
ZGHA,2018-01-15 14:00,ZGHA 151400Z 03002MPS 9000 NSC 11/03 Q1018 NOSIG
ZGHA,2018-01-15 15:00,ZGHA 151500Z 35002MPS 9000 NSC 11/02 Q1018 NOSIG
ZGHA,2018-01-15 16:00,ZGHA 151600Z 32003MPS 8000 NSC 12/03 Q1018 NOSIG
ZGHA,2018-01-15 17:00,ZGHA 151700Z 01002MPS 7000 NSC 11/05 Q1018 NOSIG
ZGHA,2018-01-15 18:00,ZGHA 151800Z 35002MPS 6000 NSC 10/05 Q1018 NOSIG
ZGHA,2018-01-15 19:00,ZGHA 151900Z VRB01MPS 6000 NSC 09/05 Q1018 NOSIG
ZGHA,2018-01-15 20:00,ZGHA 152000Z 33002MPS 5000 -DZ BR NSC 09/05 Q1018 NOSIG
ZGHA,2018-01-15 21:00,ZGHA 152100Z 32003MPS 280V340 5000 BR NSC 08/05 Q1017 NOSIG
ZGHA,2018-01-15 22:00,ZGHA 152200Z 32003MPS 4000 BR NSC 08/05 Q1017 NOSIG
ZGHA,2018-01-15 23:00,ZGHA 152300Z 30004MPS 4000 -RA BR OVC040 08/05 Q1018 NOSIG
ZGHA,2018-01-16 00:00,ZGHA 160000Z 32004MPS 2000 -RA BR SCT016 OVC030 08/06 Q1019 NOSIG
ZGHA,2018-01-16 01:00,ZGHA 160100Z 35004MPS 1400 R36L/1200V1400D R36R/1700N -RA BR SCT005 BKN007 OVC040 08/06 Q1020 BECMG TL0200 2500
ZGHA,2018-01-16 02:00,ZGHA 160200Z 35003MPS 1600 R36L/1400N R36R/1800N -DZ BR BKN006 OVC040 08/06 Q1021 BECMG TL0300 3100 SCT007 BKN011 OVC050
ZGHA,2018-01-16 03:00,ZGHA 160300Z 32003MPS 290V350 1800 BR SCT007 BKN020 OVC040 08/06 Q1021 NOSIG
ZGHA,2018-01-16 04:00,ZGHA 160400Z 30004MPS 1400 R36L/1200V1400N R36R/1600N -DZ BR BKN005 OVC040 08/06 Q1020 BECMG TL0500 1700
ZGHA,2018-01-16 05:00,ZGHA 160500Z 33004MPS 1300 R36L/1500U R36R/1800D -RA BR BKN005 OVC040 07/06 Q1019 BECMG TL0600 1700 BKN004 OVC040
ZGHA,2018-01-16 06:00,ZGHA 160600Z 30003MPS 280V340 2000 -RA BR BKN007 OVC040 08/06 Q1018 BECMG TL0700 3100 BKN011 OVC040
ZGHA,2018-01-16 07:00,ZGHA 160700Z 31003MPS 3200 BR BKN008 OVC040 08/06 Q1018 BECMG TL0800 2700 BKN011 OVC040
ZGHA,2018-01-16 08:00,ZGHA 160800Z 28003MPS 2900 BR BKN008 OVC040 08/06 Q1018 BECMG TL0900 3500
ZGHA,2018-01-16 09:00,ZGHA 160900Z 32002MPS 280V350 2500 BR BKN008 OVC040 08/06 Q1018 NOSIG
ZGHA,2018-01-16 10:00,ZGHA 161000Z 30003MPS 1600 BR SCT003 BKN005 OVC040 08/06 Q1018 NOSIG
ZGHA,2018-01-16 11:00,ZGHA 161100Z 32003MPS 2400 BR SCT006 BKN010 OVC040 07/06 Q1019 BECMG TL1200 3000
ZGHA,2018-01-16 12:00,ZGHA 161200Z VRB01MPS 3000 BR SCT011 07/05 Q1019 NOSIG
ZGHA,2018-01-16 13:00,ZGHA 161300Z VRB01MPS 2200 BR SCT013 08/06 Q1019 NOSIG
ZGHA,2018-01-16 14:00,ZGHA 161400Z 28002MPS 240V320 2500 BR SCT011 07/05 Q1020 BECMG TL1500 3000
ZGHA,2018-01-16 15:00,ZGHA 161500Z 01002MPS 320V050 3000 BR SCT012 08/05 Q1020 NOSIG
ZGHA,2018-01-16 16:00,ZGHA 161600Z 36003MPS 2100 BR SCT012 07/05 Q1021 NOSIG
ZGHA,2018-01-16 17:00,ZGHA 161700Z VRB01MPS 2200 BR FEW007 BKN011 07/05 Q1020 NOSIG
ZGHA,2018-01-16 18:00,ZGHA 161800Z 15002MPS 110V170 3500 BR BKN011 07/05 Q1020 NOSIG
ZGHA,2018-01-16 19:00,ZGHA 161900Z VRB01MPS 4000 BR BKN010 07/05 Q1020 NOSIG
ZGHA,2018-01-16 20:00,ZGHA 162000Z 19001MPS 4000 BR BKN011 07/05 Q1020 NOSIG
ZGHA,2018-01-16 21:00,ZGHA 162100Z 13002MPS 100V160 3500 BR BKN011 07/05 Q1019 NOSIG
ZGHA,2018-01-16 22:00,ZGHA 162200Z 20002MPS 170V230 4500 BR BKN011 07/05 Q1019 NOSIG
ZGHA,2018-01-16 23:00,ZGHA 162300Z 16003MPS 130V190 4500 BR BKN010 07/05 Q1019 NOSIG
ZGHA,2018-01-17 00:00,ZGHA 170000Z 19002MPS 2800 BR BKN009 07/05 Q1020 NOSIG
ZGHA,2018-01-17 01:00,ZGHA 170100Z 19002MPS 160V250 2500 BR BKN009 OVC040 07/04 Q1020 BECMG TL0200 3300 BKN011 OVC050
ZGHA,2018-01-17 02:00,ZGHA 170200Z 21002MPS 160V280 3000 BR BKN011 OVC040 08/05 Q1021 NOSIG
ZGHA,2018-01-17 03:00,ZGHA 170300Z 14002MPS 110V200 350BR0 BR BKN011 OVC040 08/05 Q1020 NOSIG
ZGHA,2018-01-17 04:00,ZGHA 170400Z 16002MPS 110V280 5000 BR SCT016 BKN050 10/05 Q1020 NOSIG
ZGHA,2018-01-17 05:00,ZGHA 170500Z 18002MPS 110V270 6000 SCT020 12/05 Q1018 NOSIG
ZGHA,2018-01-17 06:00,ZGHA 170600Z 17003MPS 130V290 7000 NSC 14/05 Q1017 NOSIG
ZGHA,2018-01-17 07:00,ZGHA 170700Z 21002MPS 160V310 8000 NSC 15/05 Q1016 NOSIG
ZGHA,2018-01-17 08:00,ZGHA 170800Z VRB03MPS 7000 NSC 15/05 Q1016 NOSIG
ZGHA,2018-01-17 09:00,ZGHA 170900Z 30002MPS 210V360 6000 NSC 14/06 Q1016 NOSIG
ZGHA,2018-01-17 10:00,ZGHA 171000Z 01002MPS 4500 HZ NSC 12/06 Q1016 NOSIG
ZGHA,2018-01-17 11:00,ZGHA 171100Z 30003MPS 4500 BR NSC 11/06 Q1016 NOSIG
ZGHA,2018-01-17 12:00,ZGHA 171200Z VRB01MPS 4000 BR NSC 10/06 Q1017 NOSIG
ZGHA,2018-01-17 13:00,ZGHA 171300Z VRB01MPS 4000 BR NSC 09/05 Q1018 NOSIG
ZGHA,2018-01-17 14:00,ZGHA 171400Z 35004MPS 3500 BR NSC 09/06 Q1019 NOSIG
ZGHA,2018-01-17 15:00,ZGHA 171500Z 35003MPS 3100 BR NSC 08/06 Q1019 BECMG TL1600 2900
ZGHA,2018-01-17 16:00,ZGHA 171600Z 35003MPS 2800 BR NSC 08/06 Q1019 NOSIG
ZGHA,2018-01-17 17:00,ZGHA 171700Z 01002MPS 2600 BR NSC 08/06 Q1020 NOSIG
ZGHA,2018-01-17 18:00,ZGHA 171800Z 36004MPS 2600 BR NSC 08/06 Q1020 NOSIG
ZGHA,2018-01-17 19:00,ZGHA 171900Z 31002MPS 2600 BR NSC 08/06 Q1020 NOSIG
ZGHA,2018-01-17 20:00,ZGHA 172000Z 30004MPS 2400 BR SCT011 08/06 Q1020 NOSIG
ZGHA,2018-01-17 21:00,ZGHA 172100Z 32002MPS 290V360 2200 BR SCT006 08/06 Q1020 NOSIG
ZGHA,2018-01-17 22:00,ZGHA 172200Z 34003MPS 2200 BR SCT006 08/06 Q1021 NOSIG
ZGHA,2018-01-17 23:00,ZGHA 172300Z 35002MPS 2200 BR SCT006 07/06 Q1021 NOSIG
ZGHA,2018-01-18 00:00,ZGHA 180000Z 36003MPS 310V010 1500 BR SCT005 07/06 Q1022 NOSIG
ZGHA,2018-01-18 01:00,ZGHA 180100Z 35003MPS 1300 R36L/1300V1400D R36R/1600N BR BKN007 OVC050 08/06 Q1022 BECMG TL0200 1600 BKN011 OVC050
ZGHA,2018-01-18 02:00,ZGHA 180200Z 34003MPS 1600 R36L/1400N R36R/1600N BR BKN008 OVC050 08/06 Q1023 BECMG TL0340 3000 BKN011 OVC050
ZGHA,2018-01-18 03:00,ZGHA 180300Z 30003MPS 280V340 1800 R36L/1400U R36R/1600N BR BKN010 OVC050 09/06 Q1023 BECMG TL0440 3000 BKN016 OVC050
ZGHA,2018-01-18 04:00,ZGHA 180400Z 33002MPS 290V010 1800 BR BKN011 OVC050 10/06 Q1022 NOSIG
ZGHA,2018-01-18 05:00,ZGHA 180500Z 32003MPS 290V360 2000 BR BKN013 OVC050 10/06 Q1021 BECMG TL0600 3000 BKN016 OVC050
ZGHA,2018-01-18 06:00,ZGHA 180600Z 33003MPS 300V360 2100 BR BKN015 OVC050 10/06 Q1020 BECMG TL0700 3000
ZGHA,2018-01-18 07:00,ZGHA 180700Z 33003MPS 290V020 3000 HZ SCT020 12/06 Q1020 BECMG TL0840 2500
ZGHA,2018-01-18 08:00,ZGHA 180800Z 33004MPS 3000 HZ SCT020 12/06 Q1020 BECMG TL0900 2500
ZGHA,2018-01-18 09:00,ZGHA 180900Z 31005MPS 2500 BR SCT020 11/06 Q1020 NOSIG
ZGHA,2018-01-18 10:00,ZGHA 181000Z 31005MPS 2500 BR FEW020 10/06 Q1021 NOSIG
ZGHA,2018-01-18 11:00,ZGHA 181100Z 33004MPS 3200 BR NSC 09/05 Q1021 BECMG TL1200 2500
ZGHA,2018-01-18 12:00,ZGHA 181200Z 32004MPS 3200 BR NSC 09/05 Q1022 BECMG TL1300 2500
ZGHA,2018-01-18 13:00,ZGHA 181300Z 33005MPS 3000 BR BKN016 09/05 Q1024 BECMG TL1400 2500
ZGHA,2018-01-18 14:00,ZGHA 181400Z 36004MPS 2700 BR BKN016 08/05 Q1024 BECMG TL1500 3100
ZGHA,2018-01-18 15:00,ZGHA 181500Z 35004MPS 3000 BR BKN016 08/05 Q1024 NOSIG
ZGHA,2018-01-18 16:00,ZGHA 181600Z 35005MPS 3000 BR BKN016 08/05 Q1024 BECMG TL1700 2700
ZGHA,2018-01-18 17:00,ZGHA 181700Z 33004MPS 2600 BR SCT011 08/05 Q1025 NOSIG
ZGHA,2018-01-18 18:00,ZGHA 181800Z 33004MPS 2600 BR SCT011 07/04 Q1025 NOSIG
ZGHA,2018-01-18 19:00,ZGHA 181900Z 34003MPS 2500 BR SCT010 07/04 Q1025 NOSIG
ZGHA,2018-01-18 20:00,ZGHA 182000Z 33004MPS 2500 BR SCT010 07/04 Q1025 NOSIG
ZGHA,2018-01-18 21:00,ZGHA 182100Z 33004MPS 2200 BR SCT010 07/04 Q1025 NOSIG
ZGHA,2018-01-18 22:00,ZGHA 182200Z 36004MPS 2000 BR SCT010 07/04 Q1025 NOSIG
ZGHA,2018-01-18 23:00,ZGHA 182300Z 35003MPS 2000 BR SCT010 06/03 Q1025 NOSIG
ZGHA,2018-01-19 00:00,ZGHA 190000Z 34004MPS 1400 R36L/1800N R36R/P2000 BR SCT010 07/03 Q1026 BECMG TL0100 1700
ZGHA,2018-01-19 01:00,ZGHA 190100Z 36004MPS 1300 R36L/1400N R36R/1600N BR BKN011 07/03 Q1027 BECMG TL0200 1600
ZGHA,2018-01-19 02:00,ZGHA 190200Z 35004MPS 1500 BR BKN012 07/03 Q1027 BECMG TL0350 3200 BKN016
ZGHA,2018-01-19 03:00,ZGHA 190300Z 34004MPS 1600 R36L/1400N R36R/1600N BR BKN012 08/03 Q1027 BECMG TL0450 3200
ZGHA,2018-01-19 04:00,ZGHA 190400Z 31003MPS 1500 R36L/1300N R36R/1400D BR BKN012 08/03 Q1026 BECMG TL0550 BKN016
ZGHA,2018-01-19 05:00,ZGHA 190500Z 30003MPS 250V320 1800 BR BKN016 08/03 Q1025 BECMG TL0650 3200
ZGHA,2018-01-19 06:00,ZGHA 190600Z 29003MPS 2000 R36L/1400U R36R/1600N BR BKN016 08/03 Q1023 NOSIG
ZGHA,2018-01-19 07:00,ZGHA 190700Z 30003MPS 280V340 1500 R36L/1300V1400U R36R/1500N BR BKN016 08/03 Q1023 BECMG TL0800 1400
ZGHA,2018-01-19 08:00,ZGHA 190800Z 31003MPS 1400 R36L/1500U R36R/1600D BR BKN017 08/03 Q1023 BECMG TL0900 1600
ZGHA,2018-01-19 09:00,ZGHA 190900Z 31004MPS 1200 R36L/1500N R36R/1700N BR BKN015 08/04 Q1023 BECMG TL1050 1600
ZGHA,2018-01-19 10:00,ZGHA 191000Z 31004MPS 1400 R36L/P2000 R36R/P2000 BR BKN011 07/03 Q1023 BECMG TL1100 1800
ZGHA,2018-01-19 11:00,ZGHA 191100Z 02003MPS 1800 BR BKN010 07/04 Q1023 NOSIG
ZGHA,2018-01-19 12:00,ZGHA 191200Z 05002MPS 2000 BR BKN010 07/04 Q1023 NOSIG
ZGHA,2018-01-19 13:00,ZGHA 191300Z VRB01MPS 2000 BR BKN009 07/04 Q1024 BECMG TL1400 BKN011 OVC050
ZGHA,2018-01-19 14:00,ZGHA 191400Z VRB01MPS 2000 BR BKN010 07/04 Q1024 NOSIG
ZGHA,2018-01-19 15:00,ZGHA 191500Z 33002MPS 290V010 1800 BR BKN008 07/04 Q1024 BECMG TL1650 BKN011 OVC050
ZGHA,2018-01-19 16:00,ZGHA 191600Z 31002MPS 290V360 1800 BR BKN009 07/04 Q1024 BECMG TL1700 BKN011 OVC050
ZGHA,2018-01-19 17:00,ZGHA 191700Z 34002MPS 310V030 2000 BR BKN016 07/04 Q1024 NOSIG
ZGHA,2018-01-19 18:00,ZGHA 191800Z 33002MPS 290V010 2400 BR BKN016 07/04 Q1024 NOSIG
ZGHA,2018-01-19 19:00,ZGHA 191900Z 02002MPS 1800 BR SCT007 BKN016 06/04 Q1023 NOSIG
ZGHA,2018-01-19 20:00,ZGHA 192000Z 02001MPS 1600 BR SCT005 BKN015 06/04 Q1022 NOSIG
ZGHA,2018-01-19 21:00,ZGHA 192100Z 01003MPS 1600 BR BKN011 06/04 Q1022 NOSIG
ZGHA,2018-01-19 22:00,ZGHA 192200Z 36002MPS 330V040 2400 BR BKN013 06/03 Q1022 BECMG 3000
ZGHA,2018-01-19 23:00,ZGHA 192300Z 02002MPS 2400 BR BKN030 OVC050 06/03 Q1023 BECMG TL2350 3200
ZGHA,2018-01-20 00:00,ZGHA 200000Z 02002MPS 1600 BR BKN020 OVC050 06/03 Q1022 BECMG TL0150 3200
ZGHA,2018-01-20 01:00,ZGHA 200100Z VRB01MPS 1600 R36L/1400D R36R/1600N BR BKN016 BKN050 07/04 Q1023 BECMG TL0140 1400
ZGHA,2018-01-20 02:00,ZGHA 200200Z 03002MPS 360V060 1700 R36L/1200V1300N R36R/1500N BR SCT016 08/05 Q1023 NOSIG
ZGHA,2018-01-20 03:00,ZGHA 200300Z VRB01MPS 2000 R36L/1400N R36R/1700N BR SCT016 10/04 Q1023 NOSIG
ZGHA,2018-01-20 04:00,ZGHA 200400Z 32003MPS 1800 BR SCT016 09/04 Q1022 NOSIG
ZGHA,2018-01-20 05:00,ZGHA 200500Z 32003MPS 290V350 1800 R36L/1400D R36R/1800U HZ SCT016 10/04 Q1021 NOSIG
ZGHA,2018-01-20 06:00,ZGHA 200600Z 33004MPS 300V360 1600 R36L/1300V1400N R36R/1600N BR SCT016 09/05 Q1020 NOSIG
ZGHA,2018-01-20 07:00,ZGHA 200700Z 34003MPS 1700 R36L/1400D R36R/1800N BR SCT023 09/04 Q1020 NOSIG
ZGHA,2018-01-20 08:00,ZGHA 200800Z 34003MPS 300V010 1700 BR SCT010 OVC050 08/04 Q1020 BECMG TL0900 BKN010 OVC050
ZGHA,2018-01-20 09:00,ZGHA 200900Z 36004MPS 1700 BR BKN010 OVC050 08/05 Q1020 BECMG TL1000 SCT010 OVC050
ZGHA,2018-01-20 10:00,ZGHA 201000Z 01003MPS 2000 BR BKN009 OVC050 08/05 Q1020 BECMG TL1140 BKN010 OVC050
ZGHA,2018-01-20 11:00,ZGHA 201100Z 36004MPS 2300 -DZ BR BKN006 OVC040 07/05 Q1021 BECMG TL1240 3000 BKN010 OVC050
ZGHA,2018-01-20 12:00,ZGHA 201200Z 36003MPS 2400 BR BKN005 OVC040 07/05 Q1021 BECMG TL1300 3000 BKN004 OVC050
ZGHA,2018-01-20 13:00,ZGHA 201300Z 36003MPS 2500 BR FEW005 BKN007 OVC040 07/05 Q1022 BECMG TL1440 3000 BKN010 OVC050
ZGHA,2018-01-20 14:00,ZGHA 201400Z 32003MPS 290V350 2500 -RA BR FEW005 BKN007 OVC040 07/05 Q1022 NOSIG
ZGHA,2018-01-20 15:00,ZGHA 201500Z 35003MPS 2300 -RA BR SCT005 BKN006 OVC040 07/05 Q1022 NOSIG
ZGHA,2018-01-20 16:00,ZGHA 201600Z 35003MPS 2000 BR SCT005 BKN006 OVC040 07/05 Q1021 NOSIG
ZGHA,2018-01-20 17:00,ZGHA 201700Z 36004MPS 2000 BR SCT004 BKN006 OVC040 07/05 Q1021 NOSIG
ZGHA,2018-01-20 18:00,ZGHA 201800Z 32003MPS 1800 BR SCT004 BKN006 OVC040 07/06 Q1022 NOSIG
ZGHA,2018-01-20 19:00,ZGHA 201900Z 35004MPS 1800 -RA BR SCT003 BKN005 OVC040 07/05 Q1021 NOSIG
ZGHA,2018-01-20 20:00,ZGHA 202000Z 35002MPS 1800 -RA BR SCT003 BKN005 OVC040 07/05 Q1020 NOSIG
ZGHA,2018-01-20 21:00,ZGHA 202100Z 36003MPS 1500 R36L/1100V1300D R36R/1600D -RA BR SCT002 BKN005 OVC040 07/06 Q1019 NOSIG
ZGHA,2018-01-20 22:00,ZGHA 202200Z 35003MPS 1800 -SHRA BR SCT002 BKN005 OVC040 07/06 Q1019 NOSIG
ZGHA,2018-01-20 23:00,ZGHA 202300Z 32003MPS 2000 -RA BR SCT003 BKN005 OVC040 07/06 Q1020 RESHRA NOSIG
ZGHA,2018-01-21 00:00,ZGHA 210000Z 35003MPS 1800 -RA BR SCT003 BKN005 OVC040 07/06 Q1020 NOSIG
ZGHA,2018-01-21 01:00,ZGHA 210100Z 31004MPS 280V350 1600 -SHRA BR SCT003 BKN005 OVC040 07/06 Q1021 NOSIG
ZGHA,2018-01-21 02:00,ZGHA 210200Z 33003MPS 300V020 1800 -RA BR SCT003 BKN006 OVC040 07/06 Q1021 BECMG TL0300 3100
ZGHA,2018-01-21 03:00,ZGHA 210300Z 31004MPS 2000 -RA BR SCT004 BKN006 OVC040 07/06 Q1021 BECMG TL0400 3100
ZGHA,2018-01-21 04:00,ZGHA 210400Z 30004MPS 1700 R36L/1400D R36R/P2000 -RA BR SCT004 BKN006 OVC040 06/06 Q1021 NOSIG
ZGHA,2018-01-21 05:00,ZGHA 210500Z 30004MPS 1800 R36L/1400D R36R/P2000 -RA BR SCT004 BKN006 OVC040 06/06 Q1020 NOSIG
ZGHA,2018-01-21 06:00,ZGHA 210600Z 31006MPS 2700 -RA BR SCT004 BKN007 OVC040 06/05 Q1020 BECMG TL0700 3100
ZGHA,2018-01-21 07:00,ZGHA 210700Z 31004MPS 3700 -RA BR SCT004 BKN007 OVC040 06/05 Q1019 NOSIG
ZGHA,2018-01-21 08:00,ZGHA 210800Z 31004MPS 3000 BR SCT006 BKN009 OVC050 06/05 Q1019 BECMG TL0900 2700 SCT004 BKN011 OVC040
ZGHA,2018-01-21 09:00,ZGHA 210900Z 31004MPS 2900 BR SCT007 BKN011 OVC050 06/05 Q1020 BECMG TL1000 3200
ZGHA,2018-01-21 10:00,ZGHA 211000Z 30003MPS 3500 BR SCT005 BKN008 OVC040 06/05 Q1020 BECMG TL1150 SCT006 BKN011 OVC050
ZGHA,2018-01-21 11:00,ZGHA 211100Z 29003MPS 270V340 4500 BR SCT004 BKN006 OVC040 06/05 Q1021 NOSIG
ZGHA,2018-01-21 12:00,ZGHA 211200Z 30002MPS 270V350 5000 BR SCT006 BKN010 OVC040 06/05 Q1022 BECMG TL1350 SCT006 BKN009 OVC050
ZGHA,2018-01-21 13:00,ZGHA 211300Z 30002MPS 240V340 4000 BR SCT006 BKN009 OVC040 06/05 Q1022 NOSIG
ZGHA,2018-01-21 14:00,ZGHA 211400Z VRB01MPS 4000 BR SCT005 BKN008 OVC040 07/05 Q1022 BECMG TL1550 SCT006 BKN011 OVC050
ZGHA,2018-01-21 15:00,ZGHA 211500Z 20002MPS 3500 BR SCT006 BKN009 OVC050 06/05 Q1022 BECMG TL1600 SCT006 BKN011 OVC050
ZGHA,2018-01-21 16:00,ZGHA 211600Z 19003MPS 4000 BR SCT006 BKN011 OVC050 06/05 Q1022 BECMG TL1750 SCT006 BKN009 OVC050
ZGHA,2018-01-21 17:00,ZGHA 211700Z 26002MPS 230V320 4000 BR SCT006 BKN010 OVC050 06/04 Q1022 NOSIG
ZGHA,2018-01-21 18:00,ZGHA 211800Z 18002MPS 150V220 4500 BR SCT006 BKN009 OVC050 06/05 Q1021 NOSIG
ZGHA,2018-01-21 19:00,ZGHA 211900Z 00000MPS 5000 BR FEW005 BKN008 OVC050 06/04 Q1021 NOSIG
ZGHA,2018-01-21 20:00,ZGHA 212000Z VRB01MPS 6000 BKN008 OVC050 06/04 Q1021 NOSIG
ZGHA,2018-01-21 21:00,ZGHA 212100Z 06002MPS 5000 BR BKN008 OVC050 06/04 Q1021 NOSIG
ZGHA,2018-01-21 22:00,ZGHA 212200Z VRB01MPS 5000 BR BKN009 OVC050 06/04 Q1021 BECMG TL2350 BKN011 OVC050
ZGHA,2018-01-21 23:00,ZGHA 212300Z 06002MPS 6000 BKN008 OVC050 06/04 Q1021 BECMG TL0050 BKN011 OVC050
ZGHA,2018-01-22 00:00,ZGHA 220000Z 10001MPS 4500 BR BKN008 OVC050 06/04 Q1021 BECMG TL0150 BKN011 OVC050
ZGHA,2018-01-22 01:00,ZGHA 220100Z 10002MPS 4000 BR BKN007 OVC050 06/05 Q1022 NOSIG
ZGHA,2018-01-22 02:00,ZGHA 220200Z 11002MPS 3500 BR BKN007 OVC050 07/05 Q1021 NOSIG
ZGHA,2018-01-22 03:00,ZGHA 220300Z 12002MPS 100V170 4500 BR BKN009 OVC050 07/05 Q1021 NOSIG
ZGHA,2018-01-22 04:00,ZGHA 220400Z 16003MPS 9000 BKN011 OVC050 07/05 Q1020 BECMG TL0500 BKN009 OVC050
ZGHA,2018-01-22 05:00,ZGHA 220500Z 17005MPS 9000 BKN009 OVC050 08/05 Q1018 BECMG TL0600 BKN011 OVC050
ZGHA,2018-01-22 06:00,ZGHA 220600Z 18002MPS 140V230 9999 BKN014 OVC050 09/06 Q1017 BECMG TL0700 BKN015 OVC050
ZGHA,2018-01-22 07:00,ZGHA 220700Z 15002MPS 130V190 9999 BKN016 OVC050 10/06 Q1017 NOSIG
ZGHA,2018-01-22 08:00,ZGHA 220800Z 13003MPS 100V220 9999 BKN016 OVC050 10/06 Q1017 NOSIG
ZGHA,2018-01-22 09:00,ZGHA 220900Z 14002MPS 110V180 9999 BKN020 OVC050 10/06 Q1017 NOSIG
ZGHA,2018-01-22 10:00,ZGHA 221000Z 10002MPS 050V140 8000 BKN020 OVC050 10/06 Q1018 NOSIG
ZGHA,2018-01-22 11:00,ZGHA 221100Z VRB01MPS 9000 BKN020 OVC050 10/06 Q1019 NOSIG
ZGHA,2018-01-22 12:00,ZGHA 221200Z 09002MPS 060V220 9000 BKN020 OVC050 10/06 Q1019 NOSIG
ZGHA,2018-01-22 13:00,ZGHA 221300Z 08002MPS 8000 BKN026 OVC050 09/06 Q1019 NOSIG
ZGHA,2018-01-22 14:00,ZGHA 221400Z 00000MPS 8000 BKN026 OVC050 09/06 Q1020 NOSIG
ZGHA,2018-01-22 15:00,ZGHA 221500Z 06002MPS 8000 BKN026 OVC050 09/07 Q1020 NOSIG
ZGHA,2018-01-22 16:00,ZGHA 221600Z 05002MPS 8000 BKN026 OVC050 09/06 Q1019 NOSIG
ZGHA,2018-01-22 17:00,ZGHA 221700Z VRB01MPS 8000 NSC 08/06 Q1019 NOSIG
ZGHA,2018-01-22 18:00,ZGHA 221800Z 17001MPS 8000 NSC 08/06 Q1019 NOSIG
ZGHA,2018-01-22 19:00,ZGHA 221900Z 00000MPS 8000 NSC 08/06 Q1019 NOSIG
ZGHA,2018-01-22 20:00,ZGHA 222000Z 01002MPS 7000 BKN026 08/06 Q1019 NOSIG
ZGHA,2018-01-22 21:00,ZGHA 222100Z 03002MPS 7000 BKN026 08/06 Q1020 NOSIG
ZGHA,2018-01-22 22:00,ZGHA 222200Z 06002MPS 7000 BKN026 OVC050 08/06 Q1020 NOSIG
ZGHA,2018-01-22 23:00,ZGHA 222300Z 04002MPS 7000 BKN030 OVC050 08/06 Q1020 NOSIG
ZGHA,2018-01-23 00:00,ZGHA 230000Z 03003MPS 6000 BKN030 08/06 Q1020 NOSIG
ZGHA,2018-01-23 01:00,ZGHA 230100Z 03002MPS 7000 BKN030 08/07 Q1021 NOSIG
ZGHA,2018-01-23 02:00,ZGHA 230200Z 04002MPS 350V080 6000 BKN026 09/07 Q1022 NOSIG
ZGHA,2018-01-23 03:00,ZGHA 230300Z 03002MPS 9000 BKN030 10/07 Q1022 NOSIG
ZGHA,2018-01-23 04:00,ZGHA 230400Z 01004MPS 9999 FEW013 BKN030 11/07 Q1021 NOSIG
ZGHA,2018-01-23 05:00,ZGHA 230500Z 02002MPS 340V080 9999 BKN020 11/06 Q1020 NOSIG
ZGHA,2018-01-23 06:00,ZGHA 230600Z 03002MPS 320V060 9999 BKN020 11/06 Q1019 NOSIG
ZGHA,2018-01-23 07:00,ZGHA 230700Z 02004MPS 8000 BKN016 OVC050 11/06 Q1019 NOSIG
ZGHA,2018-01-23 08:00,ZGHA 230800Z 36004MPS 6000 BKN016 OVC050 11/07 Q1019 BECMG TL0940 BKN014 OVC050
ZGHA,2018-01-23 09:00,ZGHA 230900Z 33004MPS 2500 BR BKN013 OVC050 10/07 Q1019 BECMG TL1000 BKN015 OVC050
ZGHA,2018-01-23 10:00,ZGHA 231000Z 31004MPS 2200 BR BKN013 OVC050 09/06 Q1019 NOSIG
ZGHA,2018-01-23 11:00,ZGHA 231100Z 30003MPS 2500 BR BKN010 OVC050 09/06 Q1020 BECMG TL1200 BKN008 OVC050
ZGHA,2018-01-23 12:00,ZGHA 231200Z 32004MPS 2500 BR FEW006 BKN008 OVC050 08/06 Q1020 NOSIG
ZGHA,2018-01-23 13:00,ZGHA 231300Z 33004MPS 2300 BR BKN006 OVC040 08/06 Q1020 NOSIG
ZGHA,2018-01-23 14:00,ZGHA 231400Z 32005MPS 2000 BR FEW003 BKN005 OVC040 07/06 Q1021 NOSIG
ZGHA,2018-01-23 15:00,ZGHA 231500Z 33004MPS 1800 -RA BR FEW003 BKN005 OVC040 07/05 Q1021 NOSIG
ZGHA,2018-01-23 16:00,ZGHA 231600Z 34003MPS 2600 BR FEW003 BKN006 OVC040 07/05 Q1021 NOSIG
ZGHA,2018-01-23 17:00,ZGHA 231700Z 33004MPS 2800 BR BKN006 OVC040 06/05 Q1021 NOSIG
ZGHA,2018-01-23 18:00,ZGHA 231800Z 32004MPS 2500 -RA BR BKN005 OVC040 06/04 Q1021 NOSIG
ZGHA,2018-01-23 19:00,ZGHA 231900Z 31004MPS 1800 -RA BR SCT003 BKN005 OVC040 05/04 Q1021 NOSIG
ZGHA,2018-01-23 20:00,ZGHA 232000Z 32003MPS 2200 -RA BR SCT003 BKN005 OVC040 05/04 Q1020 NOSIG
ZGHA,2018-01-23 21:00,ZGHA 232100Z 32005MPS 2200 -RA BR SCT003 BKN005 OVC040 05/04 Q1021 NOSIG
ZGHA,2018-01-23 22:00,ZGHA 232200Z 30004MPS 2200 -RA BR SCT003 BKN005 OVC040 04/03 Q1021 NOSIG
ZGHA,2018-01-23 23:00,ZGHA 232300Z 31005MPS 2900 -RA BR SCT003 BKN006 OVC040 03/02 Q1022 BECMG TL2400 3000
ZGHA,2018-01-24 00:00,ZGHA 240000Z 31004MPS 2200 -RA BR SCT003 BKN006 OVC040 03/02 Q1022 NOSIG
ZGHA,2018-01-24 01:00,ZGHA 240100Z 31003MPS 1700 -RA BR SCT003 BKN005 OVC040 04/03 Q1022 BECMG TL0200 1400
ZGHA,2018-01-24 02:00,ZGHA 240200Z 31003MPS 1600 -RA BR SCT003 BKN005 OVC040 04/03 Q1022 BECMG TL0300 1400
ZGHA,2018-01-24 03:00,ZGHA 240300Z 32004MPS 1400 R36L/1800D R36R/P2000 -RA BR SCT003 BKN005 OVC040 04/03 Q1021 NOSIG
ZGHA,2018-01-24 04:00,ZGHA 240400Z 32004MPS 290V350 1800 -RA BR SCT003 BKN004 OVC040 04/03 Q1021 NOSIG
ZGHA,2018-01-24 05:00,ZGHA 240500Z 32005MPS 2000 -RA BR BKN004 OVC040 03/03 Q1019 BECMG TL0650 3200
ZGHA,2018-01-24 06:00,ZGHA 240600Z 31005MPS 280V340 2500 -RA BR BKN004 OVC040 03/02 Q1018 NOSIG
ZGHA,2018-01-24 07:00,ZGHA 240700Z 32004MPS 2500 -RA BR BKN004 OVC040 03/02 Q1018 BECMG TL0800 3200
ZGHA,2018-01-24 08:00,ZGHA 240800Z 31004MPS 2000 -RA BR BKN004 OVC040 03/03 Q1018 NOSIG
ZGHA,2018-01-24 09:00,ZGHA 240900Z 32004MPS 2000 -RA BR BKN004 OVC040 03/03 Q1018 NOSIG
ZGHA,2018-01-24 10:00,ZGHA 241000Z 31004MPS 280V340 2200 -RA BR SCT003 BKN004 OVC040 03/02 Q1018 NOSIG
ZGHA,2018-01-24 11:00,ZGHA 241100Z 32004MPS 2500 -RA BR SCT003 BKN004 OVC040 03/02 Q1018 BECMG TL1200 3200
ZGHA,2018-01-24 12:00,ZGHA 241200Z 32004MPS 290V360 3000 -RA BR BKN004 OVC040 03/02 Q1018 BECMG TL1300 2700
ZGHA,2018-01-24 13:00,ZGHA 241300Z 33003MPS 3000 -RA BR BKN003 OVC040 03/03 Q1019 BECMG TL1400 2700
ZGHA,2018-01-24 14:00,ZGHA 241400Z 34004MPS 290V010 5000 -RA BR SCT003 BKN005 OVC040 03/03 Q1019 NOSIG
ZGHA,2018-01-24 15:00,ZGHA 241500Z 33005MPS 5000 -RA BR SCT003 BKN005 OVC040 03/03 Q1019 NOSIG
ZGHA,2018-01-24 16:00,ZGHA 241600Z 34004MPS 6000 -RA FEW003 BKN005 OVC040 03/03 Q1019 NOSIG
ZGHA,2018-01-24 17:00,ZGHA 241700Z 34005MPS 6000 -RA FEW004 BKN006 OVC040 03/03 Q1019 NOSIG
ZGHA,2018-01-24 18:00,ZGHA 241800Z 35005MPS 9000 -RA FEW005 BKN007 OVC040 03/03 Q1019 NOSIG
ZGHA,2018-01-24 19:00,ZGHA 241900Z 33004MPS 8000 -RA BKN005 OVC040 03/03 Q1019 NOSIG
ZGHA,2018-01-24 20:00,ZGHA 242000Z 33004MPS 9999 -RA BKN005 OVC040 03/03 Q1019 NOSIG
ZGHA,2018-01-24 21:00,ZGHA 242100Z 34003MPS 9999 -RA BKN005 OVC040 03/03 Q1019 NOSIG
ZGHA,2018-01-24 22:00,ZGHA 242200Z 34005MPS 9999 -RA BKN005 OVC040 03/02 Q1020 NOSIG
ZGHA,2018-01-24 23:00,ZGHA 242300Z 35005MPS 8000 -RA SCT005 BKN014 OVC040 03/02 Q1020 NOSIG
ZGHA,2018-01-25 00:00,ZGHA 250000Z 36005MPS 6000 -RA SCT005 BKN014 OVC040 03/02 Q1021 NOSIG
ZGHA,2018-01-25 01:00,ZGHA 250100Z 33005MPS 4500 -RA BR BKN005 OVC040 02/02 Q1022 NOSIG
ZGHA,2018-01-25 02:00,ZGHA 250200Z 32005MPS 7000 -RA BKN005 OVC040 02/01 Q1023 NOSIG
ZGHA,2018-01-25 03:00,ZGHA 250300Z 34006MPS 5000 -RA BR SCT005 BKN007 OVC040 02/01 Q1024 BECMG TL0450 BKN011 OVC050
ZGHA,2018-01-25 04:00,ZGHA 250400Z 34006MPS 5000 -RA BR SCT005 BKN007 OVC040 02/01 Q1024 NOSIG
ZGHA,2018-01-25 05:00,ZGHA 250500Z 33005MPS 310V010 4000 -RA BR SCT005 BKN007 OVC040 01/01 Q1023 NOSIG
ZGHA,2018-01-25 06:00,ZGHA 250600Z 33005MPS 310V010 6000 -RA SCT006 BKN007 OVC040 01/00 Q1023 NOSIG
ZGHA,2018-01-25 07:00,ZGHA 250700Z 34007MPS 5000 -RA BR SCT006 BKN008 OVC040 01/M00 Q1023 BECMG TL0850 BKN011 OVC050
ZGHA,2018-01-25 08:00,ZGHA 250800Z 34008MPS 4000 -RA BR SCT006 BKN008 OVC040 00/M01 Q1024 BECMG TL0950 BKN011 OVC050
ZGHA,2018-01-25 09:00,ZGHA 250900Z 34007MPS 3400 -RA BR SCT006 BKN008 OVC040 00/M01 Q1025 BECMG TL1050 BKN011 OVC050
ZGHA,2018-01-25 10:00,ZGHA 251000Z 34006MPS 5000 -RA BR SCT006 BKN010 OVC040 00/M01 Q1026 BECMG TL1100 BKN009 OVC050
ZGHA,2018-01-25 11:00,ZGHA 251100Z 34007MPS 6000 -RA SCT006 BKN008 OVC040 00/M01 Q1027 BECMG TL1200 BKN011 OVC050
ZGHA,2018-01-25 12:00,ZGHA 251200Z 34007MPS 8000 -FZRA SCT006 BKN011 OVC040 00/M01 Q1028 NOSIG
ZGHA,2018-01-25 13:00,ZGHA 251300Z 34008MPS 9000 -FZRA FEW006 BKN011 OVC040 00/M02 Q1029 NOSIG
ZGHA,2018-01-25 14:00,ZGHA 251400Z 35007MPS 7000 -FZRA SCT006 BKN010 OVC040 M00/M02 Q1029 BECMG TL1500 BKN009 OVC050
ZGHA,2018-01-25 15:00,ZGHA 251500Z 35006MPS 6000 -FZRA SCT006 BKN009 OVC040 M00/M02 Q1030 BECMG TL1650 BKN011 OVC050
ZGHA,2018-01-25 16:00,ZGHA 251600Z 35007MPS 5000 -FZRA BR SCT006 BKN010 OVC040 M01/M02 Q1030 BECMG TL1700 BKN009 OVC050
ZGHA,2018-01-25 17:00,ZGHA 251700Z 35006MPS 4500 BR SCT006 BKN007 OVC040 M01/M02 Q1030 REFZRA NOSIG
ZGHA,2018-01-25 18:00,ZGHA 251800Z 34007MPS 4000 BR SCT006 BKN007 OVC040 M01/M02 Q1030 NOSIG
ZGHA,2018-01-25 19:00,ZGHA 251900Z 35006MPS 3400 -FZRA BR BKN005 OVC040 M01/M02 Q1030 NOSIG
ZGHA,2018-01-25 20:00,ZGHA 252000Z 34006MPS 3000 -FZRA BR BKN005 OVC040 M01/M02 Q1030 NOSIG
ZGHA,2018-01-25 21:00,ZGHA 252100Z 34006MPS 2200 -FZRA BR BKN005 OVC040 M01/M02 Q1029 NOSIG
ZGHA,2018-01-25 22:00,ZGHA 252200Z 35005MPS 2300 SHGS BR BKN005 OVC040 M01/M02 Q1029 REFZRA NOSIG
ZGHA,2018-01-25 23:00,ZGHA 252300Z 33004MPS 4000 -SHRAGS BR BKN008 OVC040 M01/M02 Q1030 RESHGS BECMG TL0020 -FZRA
ZGHA,2018-01-26 00:00,ZGHA 260000Z 34004MPS 2400 -SHGSRA BR BKN008 OVC040 M01/M02 Q1031 BECMG TL0100 3000 -FZRA
ZGHA,2018-01-26 01:00,ZGHA 260100Z 35005MPS 3000 -PL BR BKN008 OVC040 M01/M02 Q1031 BECMG TL0200 2900
ZGHA,2018-01-26 02:00,ZGHA 260200Z 35005MPS 2800 -RA BR BKN007 OVC040 M01/M02 Q1031 BECMG TL0300 3000
ZGHA,2018-01-26 03:00,ZGHA 260300Z 34005MPS 3500 -RA BR BKN007 OVC040 M01/M02 Q1031 BECMG TL0400 2900
ZGHA,2018-01-26 04:00,ZGHA 260400Z 34005MPS 4000 BR BKN008 OVC040 M01/M02 Q1030 NOSIG
ZGHA,2018-01-26 05:00,ZGHA 260500Z 35005MPS 320V020 4500 BR BKN008 OVC040 M01/M02 Q1029 BECMG TL0640 BKN010 OVC040
ZGHA,2018-01-26 06:00,ZGHA 260600Z 34006MPS 4000 BR BKN008 OVC040 M01/M02 Q1028 BECMG TL0700 2900
ZGHA,2018-01-26 07:00,ZGHA 260700Z 35004MPS 2700 BR BKN007 OVC040 M01/M02 Q1027 NOSIG
ZGHA,2018-01-26 08:00,ZGHA 260800Z 35004MPS 2700 BR BKN007 OVC040 M01/M02 Q1027 NOSIG
ZGHA,2018-01-26 09:00,ZGHA 260900Z 35005MPS 2500 BR BKN007 OVC040 M01/M02 Q1027 NOSIG
ZGHA,2018-01-26 10:00,ZGHA 261000Z 35004MPS 2900 -RA BR BKN008 OVC040 M01/M02 Q1027 BECMG TL1100 3200
ZGHA,2018-01-26 11:00,ZGHA 261100Z 34004MPS 3700 -RA BR BKN009 OVC040 M01/M02 Q1027 NOSIG
ZGHA,2018-01-26 12:00,ZGHA 261200Z 35004MPS 3700 -FZDZ BR BKN008 OVC040 M01/M02 Q1027 NOSIG
ZGHA,2018-01-26 13:00,ZGHA 261300Z 34004MPS 3500 -FZRA BR FEW005 BKN008 OVC040 M00/M01 Q1027 REFZDZ NOSIG
ZGHA,2018-01-26 14:00,ZGHA 261400Z 34004MPS 3700 -RA BR FEW005 BKN008 OVC040 M00/M01 Q1027 REFZRA NOSIG
ZGHA,2018-01-26 15:00,ZGHA 261500Z 35004MPS 2700 -RA BR FEW004 BKN008 OVC040 M01/M01 Q1027 BECMG TL1645 3200
ZGHA,2018-01-26 16:00,ZGHA 261600Z 34004MPS 3200 -RA BR FEW004 BKN008 OVC040 M00/M01 Q1027 NOSIG
ZGHA,2018-01-26 17:00,ZGHA 261700Z 34004MPS 3500 -RA BR FEW004 BKN008 OVC040 M00/M01 Q1026 NOSIG
ZGHA,2018-01-26 18:00,ZGHA 261800Z 34004MPS 4000 -RA BR FEW004 BKN008 OVC040 M00/M01 Q1025 NOSIG
ZGHA,2018-01-26 19:00,ZGHA 261900Z 33004MPS 3500 -RA BR SCT004 BKN006 OVC040 00/M01 Q1025 NOSIG
ZGHA,2018-01-26 20:00,ZGHA 262000Z 34004MPS 4200 -RA BR SCT004 BKN006 OVC040 M00/M01 Q1025 NOSIG
ZGHA,2018-01-26 21:00,ZGHA 262100Z 34004MPS 4200 -RA BR SCT004 BKN007 OVC040 00/M01 Q1025 NOSIG
ZGHA,2018-01-26 22:00,ZGHA 262200Z 35004MPS 4500 -RA BR SCT004 BKN007 OVC040 M00/M01 Q1025 NOSIG
ZGHA,2018-01-26 23:00,ZGHA 262300Z 34004MPS 4200 -RA BR SCT005 BKN008 OVC040 M00/M01 Q1025 NOSIG
ZGHA,2018-01-27 00:00,ZGHA 270000Z 32003MPS 1600 -RA BR SCT003 BKN005 OVC040 M00/M01 Q1025 BECMG TL0100 1400
ZGHA,2018-01-27 01:00,ZGHA 270100Z 34004MPS 1200 R36L/1400N R36R/1700N -RA BR SCT003 BKN005 OVC040 M00/M01 Q1025 BECMG TL0200 SCT003 BKN004 OVC050
ZGHA,2018-01-27 02:00,ZGHA 270200Z 33003MPS 300V360 1400 R36L/1500N R36R/1800U -RA BR FEW003 BKN004 OVC050 M00/M01 Q1026 BECMG TL0300 1600 SCT003 BKN005 OVC050
ZGHA,2018-01-27 03:00,ZGHA 270300Z 33003MPS 290V360 1400 R36L/1400N R36R/1700N -SN BR SCT004 BKN006 OVC050 M00/M01 Q1026 BECMG TL0400 1600
ZGHA,2018-01-27 04:00,ZGHA 270400Z 31004MPS 1600 -RAPL BR SCT004 BKN006 OVC050 M00/M01 Q1026 NOSIG
ZGHA,2018-01-27 05:00,ZGHA 270500Z 31005MPS 2200 -RA BR SCT004 BKN008 OVC050 M00/M01 Q1025 NOSIG
ZGHA,2018-01-27 06:00,ZGHA 270600Z 32005MPS 2200 -DZ BR SCT004 BKN008 OVC050 M00/M01 Q1024 NOSIG
ZGHA,2018-01-27 07:00,ZGHA 270700Z 32004MPS 2000 -RA BR SCT004 BKN008 OVC050 M01/M01 Q1023 NOSIG
ZGHA,2018-01-27 08:00,ZGHA 270800Z 30004MPS 1500 -PLSN BR SCT004 BKN008 OVC050 M01/M01 Q1023 NOSIG
ZGHA,2018-01-27 09:00,ZGHA 270900Z 33004MPS 2400 BR SCT004 BKN008 OVC050 M01/M01 Q1023 BECMG TL1000 3200
ZGHA,2018-01-27 10:00,ZGHA 271000Z 33004MPS 2000 -RA BR SCT005 BKN008 OVC050 M01/M02 Q1024 NOSIG
ZGHA,2018-01-27 11:00,ZGHA 271100Z 34004MPS 3000 -RAPL BR SCT005 BKN008 OVC050 M01/M02 Q1025 BECMG TL1200 2800
ZGHA,2018-01-27 12:00,ZGHA 271200Z 34005MPS 2800 -FZRA BR SCT004 BKN007 OVC050 M01/M02 Q1025 BECMG TL1300 3500
ZGHA,2018-01-27 13:00,ZGHA 271300Z 34005MPS 3200 -FZRA BR SCT005 BKN009 OVC050 M01/M02 Q1026 BECMG TL1400 2800
ZGHA,2018-01-27 14:00,ZGHA 271400Z 35006MPS 7000 -FZDZ SCT006 BKN014 OVC050 M01/M02 Q1026 REFZRA BECMG TL1550 BKN009 OVC050
ZGHA,2018-01-27 15:00,ZGHA 271500Z 35005MPS 7000 -FZDZ SCT006 BKN012 OVC050 M01/M03 Q1026 BECMG TL1650 BKN009 OVC050
ZGHA,2018-01-27 16:00,ZGHA 271600Z 34006MPS 6000 -FZDZ SCT005 BKN009 OVC050 M01/M03 Q1027 NOSIG
ZGHA,2018-01-27 17:00,ZGHA 271700Z 35005MPS 320V040 3800 PLSN BR BKN014 OVC050 M02/M03 Q1027 REFZDZ NOSIG
ZGHA,2018-01-27 18:00,ZGHA 271800Z 34006MPS 5000 -RASN BR SCT009 BKN014 OVC050 M02/M03 Q1027 REPL NOSIG
ZGHA,2018-01-27 19:00,ZGHA 271900Z 34006MPS 4000 -PL BR SCT007 BKN012 OVC050 M02/M03 Q1027 BECMG TL2050 BKN009 OVC050
ZGHA,2018-01-27 20:00,ZGHA 272000Z 34005MPS 4500 -FZRA BR SCT007 BKN009 OVC050 M02/M03 Q1026 NOSIG
ZGHA,2018-01-27 21:00,ZGHA 272100Z 35007MPS 300V010 4000 -FZRA BR SCT007 BKN009 OVC050 M02/M03 Q1026 NOSIG
ZGHA,2018-01-27 22:00,ZGHA 272200Z 35006MPS 4500 -FZRA BR FEW007 BKN009 OVC050 M02/M03 Q1027 NOSIG
ZGHA,2018-01-27 23:00,ZGHA 272300Z 35006MPS 4500 -FZRA BR BKN009 OVC050 M02/M03 Q1027 BECMG TL0050 BKN011 OVC050
ZGHA,2018-01-28 00:00,ZGHA 280000Z 34005MPS 3500 BR FEW007 BKN016 OVC050 M02/M04 Q1028 REFZRA NOSIG
ZGHA,2018-01-28 01:00,ZGHA 280100Z 34006MPS 3000 R36L/1400N R36R/P2000 -PL BR FEW007 BKN016 OVC050 M02/M03 Q1029 NOSIG
ZGHA,2018-01-28 02:00,ZGHA 280200Z 35007MPS 3000 R36L/0325V1100D R36R/P2000 -PL BR FEW008 BKN016 OVC050 M02/M03 Q1030 BECMG TL0300 2700
ZGHA,2018-01-28 03:00,ZGHA 280300Z 35007MPS 3200 BR FEW012 BKN016 OVC050 M02/M03 Q1031 NOSIG
ZGHA,2018-01-28 04:00,ZGHA 280400Z 35006MPS 3200 BR SCT012 OVC050 M01/M03 Q1030 NOSIG
ZGHA,2018-01-28 05:00,ZGHA 280500Z 35005MPS 3500 BR SCT012 OVC050 M01/M03 Q1029 NOSIG
ZGHA,2018-01-28 06:00,ZGHA 280600Z 34006MPS 3800 BR SCT012 OVC050 M01/M03 Q1028 NOSIG
ZGHA,2018-01-28 07:00,ZGHA 280700Z 36006MPS 3500 BR SCT013 OVC050 M01/M03 Q1028 NOSIG
ZGHA,2018-01-28 08:00,ZGHA 280800Z 35006MPS 3500 BR SCT014 OVC050 M01/M03 Q1028 NOSIG
ZGHA,2018-01-28 09:00,ZGHA 280900Z 36006MPS 3200 BR BKN016 OVC050 M01/M03 Q1029 NOSIG
ZGHA,2018-01-28 10:00,ZGHA 281000Z 36007MPS 3200 BR BKN016 OVC050 M01/M03 Q1029 NOSIG
ZGHA,2018-01-28 11:00,ZGHA 281100Z 34005MPS 4000 BR BKN016 OVC050 M01/M03 Q1030 NOSIG
ZGHA,2018-01-28 12:00,ZGHA 281200Z 36007MPS 4000 BR BKN016 OVC050 M01/M03 Q1030 NOSIG
ZGHA,2018-01-28 13:00,ZGHA 281300Z 34005MPS 4000 BR BKN015 OVC050 M01/M03 Q1032 NOSIG
ZGHA,2018-01-28 14:00,ZGHA 281400Z 34006MPS 4000 BR BKN026 OVC050 M02/M03 Q1032 NOSIG
ZGHA,2018-01-28 15:00,ZGHA 281500Z 35006MPS 4000 BR BKN020 OVC050 M02/M03 Q1033 NOSIG
ZGHA,2018-01-28 16:00,ZGHA 281600Z 36004MPS 4000 BR BKN020 OVC050 M02/M03 Q1033 NOSIG
ZGHA,2018-01-28 17:00,ZGHA 281700Z 35005MPS 4000 BR BKN020 OVC050 M02/M03 Q1032 NOSIG
ZGHA,2018-01-28 18:00,ZGHA 281800Z 35004MPS 4000 BR BKN026 OVC050 M02/M03 Q1032 NOSIG
ZGHA,2018-01-28 19:00,ZGHA 281900Z 36003MPS 3500 BR BKN020 OVC050 M02/M03 Q1032 NOSIG
ZGHA,2018-01-28 20:00,ZGHA 282000Z 35003MPS 3500 BR FEW011 BKN026 M02/M04 Q1031 NOSIG
ZGHA,2018-01-28 21:00,ZGHA 282100Z 33004MPS 3200 BR SCT014 M03/M04 Q1031 NOSIG
ZGHA,2018-01-28 22:00,ZGHA 282200Z 32003MPS 3200 BR FEW016 M03/M04 Q1031 NOSIG
ZGHA,2018-01-28 23:00,ZGHA 282300Z 36002MPS 320V030 3000 BR FEW020 M03/M05 Q1032 BECMG TL2400 2800
ZGHA,2018-01-29 00:00,ZGHA 290000Z 01003MPS 2200 R36L/1400D R36R/P2000 BR SCT020 M03/M04 Q1033 BECMG TL0150 3000
ZGHA,2018-01-29 01:00,ZGHA 290100Z 36005MPS 2000 R36L/1100V1200N R36R/1500N BR SCT020 M02/M04 Q1033 BECMG TL0200 1400
ZGHA,2018-01-29 02:00,ZGHA 290200Z 35003MPS 2300 R36L/1200V1300N R36R/1900U BR SCT020 M01/M02 Q1034 BECMG TL0340 3200
ZGHA,2018-01-29 03:00,ZGHA 290300Z 35004MPS 320V020 2600 R36L/1100V1300D R36R/P2000 BR SCT010 M00/M02 Q1034 BECMG TL0400 3200 BR BKN009 OVC050
ZGHA,2018-01-29 04:00,ZGHA 290400Z 36003MPS 320V030 3200 BR BKN013 00/M02 Q1033 BECMG TL0500 SCT020 BKN060
ZGHA,2018-01-29 05:00,ZGHA 290500Z 35002MPS 260V040 3500 BR BKN013 01/M01 Q1031 BECMG TL0600 BKN016 BKN070
ZGHA,2018-01-29 06:00,ZGHA 290600Z 35003MPS 320V020 4000 BR BKN016 01/M02 Q1030 NOSIG
ZGHA,2018-01-29 07:00,ZGHA 290700Z 36004MPS 4000 BR BKN016 BKN050 01/M02 Q1029 NOSIG
ZGHA,2018-01-29 08:00,ZGHA 290800Z 31004MPS 2600 BR BKN015 OVC050 01/M02 Q1030 NOSIG
ZGHA,2018-01-29 09:00,ZGHA 290900Z 31004MPS 2600 BR FEW010 BKN020 OVC050 01/M02 Q1029 NOSIG
ZGHA,2018-01-29 10:00,ZGHA 291000Z 35004MPS 3500 BR BKN016 OVC050 01/M02 Q1029 NOSIG
ZGHA,2018-01-29 11:00,ZGHA 291100Z 33003MPS 290V350 5000 BR BKN023 OVC050 00/M02 Q1030 NOSIG
ZGHA,2018-01-29 12:00,ZGHA 291200Z 36004MPS 5000 BR BKN026 OVC050 00/M02 Q1030 NOSIG
ZGHA,2018-01-29 13:00,ZGHA 291300Z 32002MPS 280V360 5000 BR SCT027 00/M02 Q1031 NOSIG
ZGHA,2018-01-29 14:00,ZGHA 291400Z 35003MPS 5000 BR NSC 00/M02 Q1032 NOSIG
ZGHA,2018-01-29 15:00,ZGHA 291500Z 02002MPS 4500 BR NSC 00/M02 Q1032 NOSIG
ZGHA,2018-01-29 16:00,ZGHA 291600Z 02003MPS 4500 BR NSC M00/M02 Q1031 NOSIG
ZGHA,2018-01-29 17:00,ZGHA 291700Z 34004MPS 4500 BR NSC M01/M03 Q1031 NOSIG
ZGHA,2018-01-29 18:00,ZGHA 291800Z 35003MPS 4500 BR NSC M01/M03 Q1031 NOSIG
ZGHA,2018-01-29 19:00,ZGHA 291900Z 02002MPS 4000 BR NSC M02/M03 Q1030 NOSIG
ZGHA,2018-01-29 20:00,ZGHA 292000Z VRB01MPS 4000 BR NSC M02/M04 Q1029 NOSIG
ZGHA,2018-01-29 21:00,ZGHA 292100Z 32002MPS 280V350 4000 BR FEW026 M03/M04 Q1028 NOSIG
ZGHA,2018-01-29 22:00,ZGHA 292200Z 36002MPS 4000 BR SCT026 M03/M04 Q1028 NOSIG
ZGHA,2018-01-29 23:00,ZGHA 292300Z 01002MPS 4000 BR SCT010 OVC050 M02/M04 Q1029 BECMG TL2400 BKN008 OVC050
ZGHA,2018-01-30 00:00,ZGHA 300000Z 01003MPS 2000 R36L/1100V1200D R36R/1600N BR BKN008 OVC050 M02/M03 Q1029 NOSIG
ZGHA,2018-01-30 01:00,ZGHA 300100Z 02003MPS 1600 R36L/1400N R36R/1900N BR BKN007 OVC050 M01/M02 Q1030 BECMG TL0200 3000 BKN010 OVC050
ZGHA,2018-01-30 02:00,ZGHA 300200Z 05003MPS 2100 R36L/1300V1400D R36R/1900D BR BKN009 OVC050 M01/M02 Q1030 BECMG TL0300 3000 BKN011 OVC050
ZGHA,2018-01-30 03:00,ZGHA 300300Z 05002MPS 030V090 3000 R36L/1300V1400N R36R/P2000 BR SCT008 BKN010 OVC050 00/M02 Q1030 NOSIG
ZGHA,2018-01-30 04:00,ZGHA 300400Z VRB01MPS 4000 BR BKN011 OVC050 02/M01 Q1029 NOSIG
ZGHA,2018-01-30 05:00,ZGHA 300500Z VRB01MPS 5000 BR BKN016 03/M01 Q1027 NOSIG
ZGHA,2018-01-30 06:00,ZGHA 300600Z VRB01MPS 5000 BR BKN023 03/M02 Q1026 NOSIG
ZGHA,2018-01-30 07:00,ZGHA 300700Z VRB01MPS 5000 HZ BKN023 03/M02 Q1025 NOSIG
ZGHA,2018-01-30 08:00,ZGHA 300800Z 30002MPS 260V330 4500 BR BKN023 03/M02 Q1025 NOSIG
ZGHA,2018-01-30 09:00,ZGHA 300900Z 29003MPS 4000 BR BKN030 03/M02 Q1025 NOSIG
ZGHA,2018-01-30 10:00,ZGHA 301000Z 31003MPS 280V340 3500 BR BKN030 02/M02 Q1025 NOSIG
ZGHA,2018-01-30 11:00,ZGHA 301100Z 31004MPS 4000 BR BKN030 02/M02 Q1026 NOSIG
ZGHA,2018-01-30 12:00,ZGHA 301200Z 30002MPS 270V330 4000 BR BKN040 02/M02 Q1027 NOSIG
ZGHA,2018-01-30 13:00,ZGHA 301300Z 34002MPS 4000 BR BKN030 02/M02 Q1028 NOSIG
ZGHA,2018-01-30 14:00,ZGHA 301400Z 32002MPS 4000 BR BKN030 02/M02 Q1029 NOSIG
ZGHA,2018-01-30 15:00,ZGHA 301500Z 35002MPS 4000 BR BKN030 02/M01 Q1029 NOSIG
ZGHA,2018-01-30 16:00,ZGHA 301600Z VRB01MPS 4000 BR BKN033 02/M01 Q1029 NOSIG
ZGHA,2018-01-30 17:00,ZGHA 301700Z 30002MPS 4000 BR BKN040 02/M01 Q1030 NOSIG
ZGHA,2018-01-30 18:00,ZGHA 301800Z 33003MPS 4500 BR NSC 02/M02 Q1030 NOSIG
ZGHA,2018-01-30 19:00,ZGHA 301900Z 32004MPS 5000 BR NSC 02/M02 Q1030 NOSIG
ZGHA,2018-01-30 20:00,ZGHA 302000Z 34004MPS 5000 BR NSC 02/M03 Q1030 NOSIG
ZGHA,2018-01-30 21:00,ZGHA 302100Z 33005MPS 5000 HZ NSC 02/M04 Q1030 NOSIG
ZGHA,2018-01-30 22:00,ZGHA 302200Z 34006MPS 6000 NSC 02/M05 Q1031 NOSIG
ZGHA,2018-01-30 23:00,ZGHA 302300Z 35006MPS 6000 NSC 02/M05 Q1032 NOSIG
ZGHA,2018-01-31 00:00,ZGHA 310000Z 36005MPS 4500 HZ NSC 01/M05 Q1032 NOSIG
ZGHA,2018-01-31 01:00,ZGHA 310100Z 35004MPS 5000 HZ NSC 02/M04 Q1032 NOSIG
ZGHA,2018-01-31 02:00,ZGHA 310200Z 33005MPS 5000 HZ NSC 02/M05 Q1034 NOSIG
ZGHA,2018-01-31 03:00,ZGHA 310300Z 34004MPS 5000 HZ NSC 03/M03 Q1032 NOSIG
ZGHA,2018-01-31 04:00,ZGHA 310400Z 01004MPS 7000 NSC 05/M07 Q1032 NOSIG
ZGHA,2018-01-31 05:00,ZGHA 310500Z 35005MPS 320V030 CAVOK 06/M07 Q1031 NOSIG
ZGHA,2018-01-31 06:00,ZGHA 310600Z 01005MPS 330V040 CAVOK 08/M08 Q1030 NOSIG
ZGHA,2018-01-31 07:00,ZGHA 310700Z 34005MPS 310V010 CAVOK 08/M08 Q1030 NOSIG
ZGHA,2018-01-31 08:00,ZGHA 310800Z 02006MPS CAVOK 07/M09 Q1030 NOSIG
ZGHA,2018-01-31 09:00,ZGHA 310900Z 35004MPS 320V020 CAVOK 07/M09 Q1030 NOSIG
ZGHA,2018-01-31 10:00,ZGHA 311000Z 34004MPS CAVOK 06/M08 Q1030 NOSIG
ZGHA,2018-01-31 11:00,ZGHA 311100Z 33004MPS CAVOK 05/M08 Q1031 NOSIG
ZGHA,2018-01-31 12:00,ZGHA 311200Z 33004MPS CAVOK 04/M07 Q1031 NOSIG
ZGHA,2018-01-31 13:00,ZGHA 311300Z 04002MPS 340V110 CAVOK 02/M06 Q1032 NOSIG
ZGHA,2018-01-31 14:00,ZGHA 311400Z 05002MPS 010V080 8000 NSC 01/M05 Q1032 NOSIG
ZGHA,2018-01-31 15:00,ZGHA 311500Z 35002MPS 8000 NSC 00/M05 Q1032 NOSIG
ZGHA,2018-01-31 16:00,ZGHA 311600Z 02002MPS 7000 NSC M01/M04 Q1032 NOSIG
ZGHA,2018-01-31 17:00,ZGHA 311700Z 01002MPS 6000 NSC M02/M04 Q1031 NOSIG
ZGHA,2018-01-31 18:00,ZGHA 311800Z 09002MPS 6000 NSC M02/M04 Q1031 NOSIG
ZGHA,2018-01-31 19:00,ZGHA 311900Z 02001MPS 8000 NSC M02/M04 Q1030 NOSIG
ZGHA,2018-01-31 20:00,ZGHA 312000Z 01002MPS 8000 NSC M02/M04 Q1029 NOSIG
ZGHA,2018-01-31 21:00,ZGHA 312100Z 16001MPS 8000 NSC M03/M04 Q1029 NOSIG
ZGHA,2018-01-31 22:00,ZGHA 312200Z 08001MPS 8000 NSC M03/M04 Q1029 NOSIG
ZGHA,2018-01-31 23:00,ZGHA 312300Z VRB01MPS 8000 NSC M03/M04 Q1029 NOSIG
ZGHA,2018-02-01 00:00,ZGHA 010000Z 00000MPS 6000 NSC M03/M04 Q1030 NOSIG
ZGHA,2018-02-01 01:00,ZGHA 010100Z VRB01MPS 5000 BR NSC M01/M02 Q1030 NOSIG
ZGHA,2018-02-01 02:00,ZGHA 010200Z VRB01MPS 6000 NSC 01/M01 Q1030 NOSIG
ZGHA,2018-02-01 03:00,ZGHA 010300Z 31002MPS 260V010 8000 NSC 04/M02 Q1031 NOSIG
ZGHA,2018-02-01 04:00,ZGHA 010400Z VRB01MPS 7000 NSC 06/M03 Q1030 NOSIG
ZGHA,2018-02-01 05:00,ZGHA 010500Z VRB01MPS 8000 NSC 08/M04 Q1028 NOSIG
ZGHA,2018-02-01 06:00,ZGHA 010600Z VRB01MPS 8000 NSC 09/M04 Q1027 NOSIG
ZGHA,2018-02-01 07:00,ZGHA 010700Z 04003MPS 340V100 8000 NSC 08/M05 Q1026 NOSIG
ZGHA,2018-02-01 08:00,ZGHA 010800Z 05003MPS 020V080 CAVOK 08/M06 Q1025 NOSIG
ZGHA,2018-02-01 09:00,ZGHA 010900Z 04002MPS CAVOK 09/M06 Q1026 NOSIG
ZGHA,2018-02-01 10:00,ZGHA 011000Z 36002MPS CAVOK 07/M05 Q1026 NOSIG
ZGHA,2018-02-01 11:00,ZGHA 011100Z 34004MPS 320V020 CAVOK 06/M04 Q1027 NOSIG
ZGHA,2018-02-01 12:00,ZGHA 011200Z 01003MPS CAVOK 05/M04 Q1028 NOSIG
ZGHA,2018-02-01 13:00,ZGHA 011300Z 03002MPS CAVOK 05/M04 Q1028 NOSIG
ZGHA,2018-02-01 14:00,ZGHA 011400Z 02003MPS CAVOK 05/M03 Q1029 NOSIG
ZGHA,2018-02-01 15:00,ZGHA 011500Z 03002MPS CAVOK 05/M03 Q1029 NOSIG
ZGHA,2018-02-01 16:00,ZGHA 011600Z 01002MPS CAVOK 04/M02 Q1030 NOSIG
ZGHA,2018-02-01 17:00,ZGHA 011700Z 36003MPS 8000 NSC 04/M02 Q1030 NOSIG
ZGHA,2018-02-01 18:00,ZGHA 011800Z 01003MPS 8000 NSC 04/M02 Q1030 NOSIG
ZGHA,2018-02-01 19:00,ZGHA 011900Z 29002MPS 260V330 8000 NSC 04/M02 Q1030 NOSIG
ZGHA,2018-02-01 20:00,ZGHA 012000Z 36003MPS 7000 NSC 04/M02 Q1030 NOSIG
ZGHA,2018-02-01 21:00,ZGHA 012100Z 01002MPS 7000 NSC 03/M02 Q1031 NOSIG
ZGHA,2018-02-01 22:00,ZGHA 012200Z 36003MPS 7000 NSC 03/M02 Q1032 NOSIG
ZGHA,2018-02-01 23:00,ZGHA 012300Z 01002MPS 7000 NSC 03/M02 Q1033 NOSIG
ZGHA,2018-02-02 00:00,ZGHA 020000Z 01002MPS 6000 NSC 03/M02 Q1034 NOSIG
ZGHA,2018-02-02 01:00,ZGHA 020100Z 01003MPS 6000 NSC 04/M02 Q1034 NOSIG
ZGHA,2018-02-02 02:00,ZGHA 020200Z 36004MPS 7000 NSC 05/M02 Q1035 NOSIG
ZGHA,2018-02-02 03:00,ZGHA 020300Z 36005MPS 7000 NSC 07/M03 Q1035 NOSIG
ZGHA,2018-02-02 04:00,ZGHA 020400Z 01006MPS 8000 NSC 08/M05 Q1035 NOSIG
ZGHA,2018-02-02 05:00,ZGHA 020500Z 01006MPS 9000 NSC 08/M06 Q1034 NOSIG
ZGHA,2018-02-02 06:00,ZGHA 020600Z 35006MPS 9000 NSC 09/M05 Q1033 NOSIG
ZGHA,2018-02-02 07:00,ZGHA 020700Z 36007MPS 9000 NSC 09/M06 Q1032 NOSIG
ZGHA,2018-02-02 08:00,ZGHA 020800Z 36006MPS CAVOK 10/M08 Q1032 NOSIG
ZGHA,2018-02-02 09:00,ZGHA 020900Z 36006MPS CAVOK 09/M09 Q1032 NOSIG
ZGHA,2018-02-02 10:00,ZGHA 021000Z 35007MPS CAVOK 07/M08 Q1033 NOSIG
ZGHA,2018-02-02 11:00,ZGHA 021100Z 36006MPS CAVOK 07/M07 Q1034 NOSIG
ZGHA,2018-02-02 12:00,ZGHA 021200Z 01006MPS CAVOK 06/M08 Q1034 NOSIG
ZGHA,2018-02-02 13:00,ZGHA 021300Z 02006MPS CAVOK 05/M09 Q1034 NOSIG
ZGHA,2018-02-02 14:00,ZGHA 021400Z 36005MPS CAVOK 04/M07 Q1035 NOSIG
ZGHA,2018-02-02 15:00,ZGHA 021500Z 36005MPS CAVOK 03/M07 Q1036 NOSIG
ZGHA,2018-02-02 16:00,ZGHA 021600Z 36005MPS CAVOK 03/M06 Q1036 NOSIG
ZGHA,2018-02-02 17:00,ZGHA 021700Z 36005MPS CAVOK 02/M08 Q1035 NOSIG
ZGHA,2018-02-02 18:00,ZGHA 021800Z 36005MPS CAVOK 01/M09 Q1035 NOSIG
ZGHA,2018-02-02 19:00,ZGHA 021900Z 36005MPS CAVOK 01/M09 Q1035 NOSIG
ZGHA,2018-02-02 20:00,ZGHA 022000Z 36005MPS CAVOK 00/M08 Q1035 NOSIG
ZGHA,2018-02-02 21:00,ZGHA 022100Z 36005MPS CAVOK M00/M07 Q1034 NOSIG
ZGHA,2018-02-02 22:00,ZGHA 022200Z 02004MPS CAVOK M01/M07 Q1035 NOSIG
ZGHA,2018-02-02 23:00,ZGHA 022300Z 36003MPS CAVOK M01/M07 Q1036 NOSIG
ZGHA,2018-02-03 00:00,ZGHA 030000Z 36004MPS CAVOK M01/M08 Q1036 NOSIG
ZGHA,2018-02-03 01:00,ZGHA 030100Z 01006MPS CAVOK 01/M10 Q1037 NOSIG
ZGHA,2018-02-03 02:00,ZGHA 030200Z 01006MPS CAVOK 03/M10 Q1036 NOSIG
ZGHA,2018-02-03 03:00,ZGHA 030300Z 35005MPS 320V030 CAVOK 05/M10 Q1037 NOSIG
ZGHA,2018-02-03 04:00,ZGHA 030400Z 36005MPS 320V040 CAVOK 05/M10 Q1036 NOSIG
ZGHA,2018-02-03 05:00,ZGHA 030500Z 01004MPS 340V040 CAVOK 06/M12 Q1034 NOSIG
ZGHA,2018-02-03 06:00,ZGHA 030600Z 35006MPS CAVOK 07/M12 Q1033 NOSIG
ZGHA,2018-02-03 07:00,ZGHA 030700Z 34006MPS 310V020 CAVOK 07/M12 Q1032 NOSIG
ZGHA,2018-02-03 08:00,ZGHA 030800Z 34007MPS CAVOK 07/M12 Q1032 NOSIG
ZGHA,2018-02-03 09:00,ZGHA 030900Z 34007MPS CAVOK 06/M11 Q1031 NOSIG
ZGHA,2018-02-03 10:00,ZGHA 031000Z 33006MPS CAVOK 05/M10 Q1032 NOSIG
ZGHA,2018-02-03 11:00,ZGHA 031100Z 32004MPS CAVOK 04/M10 Q1033 NOSIG
ZGHA,2018-02-03 12:00,ZGHA 031200Z 35005MPS CAVOK 04/M11 Q1033 NOSIG
ZGHA,2018-02-03 13:00,ZGHA 031300Z 35005MPS CAVOK 03/M11 Q1033 NOSIG
ZGHA,2018-02-03 14:00,ZGHA 031400Z 34005MPS CAVOK 03/M10 Q1034 NOSIG
ZGHA,2018-02-03 15:00,ZGHA 031500Z 36005MPS CAVOK 02/M10 Q1034 NOSIG
ZGHA,2018-02-03 16:00,ZGHA 031600Z 36004MPS CAVOK 02/M10 Q1034 NOSIG
ZGHA,2018-02-03 17:00,ZGHA 031700Z 36004MPS CAVOK 01/M09 Q1034 NOSIG
ZGHA,2018-02-03 18:00,ZGHA 031800Z 01003MPS CAVOK 01/M09 Q1034 NOSIG
ZGHA,2018-02-03 19:00,ZGHA 031900Z 36004MPS CAVOK 00/M08 Q1034 NOSIG
ZGHA,2018-02-03 20:00,ZGHA 032000Z 36004MPS CAVOK 00/M09 Q1033 NOSIG
ZGHA,2018-02-03 21:00,ZGHA 032100Z 35004MPS CAVOK M00/M08 Q1033 NOSIG
ZGHA,2018-02-03 22:00,ZGHA 032200Z 36004MPS CAVOK M01/M08 Q1033 NOSIG
ZGHA,2018-02-03 23:00,ZGHA 032300Z 36004MPS CAVOK M01/M08 Q1033 NOSIG
ZGHA,2018-02-04 00:00,ZGHA 040000Z 36003MPS CAVOK M00/M09 Q1034 NOSIG
ZGHA,2018-02-04 01:00,ZGHA 040100Z 35004MPS CAVOK 01/M10 Q1035 NOSIG
ZGHA,2018-02-04 02:00,ZGHA 040200Z 36005MPS CAVOK 03/M11 Q1035 NOSIG
ZGHA,2018-02-04 03:00,ZGHA 040300Z 03004MPS 350V060 CAVOK 04/M10 Q1035 NOSIG
ZGHA,2018-02-04 04:00,ZGHA 040400Z 01002MPS 320V130 CAVOK 06/M11 Q1034 NOSIG
ZGHA,2018-02-04 05:00,ZGHA 040500Z VRB01MPS CAVOK 05/M12 Q1033 NOSIG
ZGHA,2018-02-04 06:00,ZGHA 040600Z 32002MPS 260V030 CAVOK 06/M12 Q1033 NOSIG
ZGHA,2018-02-04 07:00,ZGHA 040700Z 36003MPS 320V020 CAVOK 06/M13 Q1032 NOSIG
ZGHA,2018-02-04 08:00,ZGHA 040800Z 35003MPS 310V020 CAVOK 06/M14 Q1032 NOSIG
ZGHA,2018-02-04 09:00,ZGHA 040900Z 31005MPS CAVOK 05/M11 Q1032 NOSIG
ZGHA,2018-02-04 10:00,ZGHA 041000Z 30005MPS 280V340 CAVOK 05/M11 Q1033 NOSIG
ZGHA,2018-02-04 11:00,ZGHA 041100Z 32004MPS CAVOK 04/M12 Q1033 NOSIG
ZGHA,2018-02-04 12:00,ZGHA 041200Z 35004MPS CAVOK 03/M11 Q1034 NOSIG
ZGHA,2018-02-04 13:00,ZGHA 041300Z 36003MPS CAVOK 03/M10 Q1034 NOSIG
ZGHA,2018-02-04 14:00,ZGHA 041400Z 34003MPS CAVOK 02/M10 Q1034 NOSIG
ZGHA,2018-02-04 15:00,ZGHA 041500Z 35004MPS CAVOK 02/M09 Q1035 NOSIG
ZGHA,2018-02-04 16:00,ZGHA 041600Z 35003MPS CAVOK 01/M09 Q1035 NOSIG
ZGHA,2018-02-04 17:00,ZGHA 041700Z 34003MPS CAVOK 01/M09 Q1034 NOSIG
ZGHA,2018-02-04 18:00,ZGHA 041800Z 36002MPS CAVOK M00/M07 Q1034 NOSIG
ZGHA,2018-02-04 19:00,ZGHA 041900Z VRB01MPS CAVOK M02/M06 Q1034 NOSIG
ZGHA,2018-02-04 20:00,ZGHA 042000Z 34003MPS CAVOK M02/M06 Q1034 NOSIG
ZGHA,2018-02-04 21:00,ZGHA 042100Z 01003MPS CAVOK M02/M06 Q1034 NOSIG
ZGHA,2018-02-04 22:00,ZGHA 042200Z 36003MPS CAVOK M02/M06 Q1034 NOSIG
ZGHA,2018-02-04 23:00,ZGHA 042300Z 02002MPS CAVOK M02/M06 Q1035 NOSIG
ZGHA,2018-02-05 00:00,ZGHA 050000Z 03002MPS CAVOK M02/M05 Q1036 NOSIG
ZGHA,2018-02-05 01:00,ZGHA 050100Z 02002MPS CAVOK 00/M06 Q1036 NOSIG
ZGHA,2018-02-05 02:00,ZGHA 050200Z 02002MPS CAVOK 03/M07 Q1036 NOSIG
ZGHA,2018-02-05 03:00,ZGHA 050300Z 02002MPS 290V070 CAVOK 05/M08 Q1036 NOSIG
ZGHA,2018-02-05 04:00,ZGHA 050400Z VRB01MPS CAVOK 07/M11 Q1034 NOSIG
ZGHA,2018-02-05 05:00,ZGHA 050500Z VRB02MPS CAVOK 08/M13 Q1033 NOSIG
ZGHA,2018-02-05 06:00,ZGHA 050600Z VRB02MPS CAVOK 09/M13 Q1032 NOSIG
ZGHA,2018-02-05 07:00,ZGHA 050700Z 32004MPS 250V050 CAVOK 10/M14 Q1030 NOSIG
ZGHA,2018-02-05 08:00,ZGHA 050800Z VRB03MPS CAVOK 09/M13 Q1030 NOSIG
ZGHA,2018-02-05 09:00,ZGHA 050900Z 31004MPS CAVOK 09/M10 Q1030 NOSIG
ZGHA,2018-02-05 10:00,ZGHA 051000Z 29003MPS 260V330 CAVOK 07/M10 Q1030 NOSIG
ZGHA,2018-02-05 11:00,ZGHA 051100Z 30004MPS 280V340 CAVOK 06/M10 Q1030 NOSIG
ZGHA,2018-02-05 12:00,ZGHA 051200Z 32004MPS CAVOK 05/M10 Q1031 NOSIG
ZGHA,2018-02-05 13:00,ZGHA 051300Z 36002MPS 320V040 CAVOK 04/M09 Q1032 NOSIG
ZGHA,2018-02-05 14:00,ZGHA 051400Z 06002MPS CAVOK 02/M05 Q1032 NOSIG
ZGHA,2018-02-05 15:00,ZGHA 051500Z 05001MPS 8000 NSC 01/M05 Q1032 NOSIG
ZGHA,2018-02-05 16:00,ZGHA 051600Z 03001MPS 7000 NSC M00/M04 Q1031 NOSIG
ZGHA,2018-02-05 17:00,ZGHA 051700Z VRB01MPS 6000 NSC M01/M04 Q1031 NOSIG
ZGHA,2018-02-05 18:00,ZGHA 051800Z 03001MPS 6000 NSC M01/M04 Q1-031 NOSIG
ZGHA,2018-02-05 19:00,ZGHA 051900Z 04002MPS 7000 NSC M02/M05 Q1030 NOSIG
ZGHA,2018-02-05 20:00,ZGHA 052000Z 02002MPS 8000 NSC M03/M05 Q1030 NOSIG
ZGHA,2018-02-05 21:00,ZGHA 052100Z VRB01MPS 8000 NSC M03/M05 Q1030 NOSIG
ZGHA,2018-02-05 22:00,ZGHA 052200Z VRB01MPS 8000 NSC M03/M05 Q1030 NOSIG
ZGHA,2018-02-05 23:00,ZGHA 052300Z VRB01MPS CAVOK M04/M05 Q1030 NOSIG
ZGHA,2018-02-06 00:00,ZGHA 060000Z 16001MPS 7000 NSC M03/M05 Q1030 NOSIG
ZGHA,2018-02-06 01:00,ZGHA 060100Z 00000MPS 8000 NSC 00/M03 Q1031 NOSIG
ZGHA,2018-02-06 02:00,ZGHA 060200Z VRB01MPS 9000 NSC 03/M04 Q1031 NOSIG
ZGHA,2018-02-06 03:00,ZGHA 060300Z VRB01MPS CAVOK 06/M07 Q1031 NOSIG
ZGHA,2018-02-06 04:00,ZGHA 060400Z VRB01MPS CAVOK 09/M08 Q1030 NOSIG
ZGHA,2018-02-06 05:00,ZGHA 060500Z VRB01MPS CAVOK 10/M10 Q1028 NOSIG
ZGHA,2018-02-06 06:00,ZGHA 060600Z 13002MPS 050V220 CAVOK 11/M09 Q1026 NOSIG
ZGHA,2018-02-06 07:00,ZGHA 060700Z 02002MPS 340V060 CAVOK 10/M11 Q1025 NOSIG
ZGHA,2018-02-06 08:00,ZGHA 060800Z 06002MPS 020V090 CAVOK 10/M12 Q1024 NOSIG
ZGHA,2018-02-06 09:00,ZGHA 060900Z VRB01MPS CAVOK 10/M11 Q1023 NOSIG
ZGHA,2018-02-06 10:00,ZGHA 061000Z 00000MPS CAVOK 09/M11 Q1024 NOSIG
ZGHA,2018-02-06 11:00,ZGHA 061100Z 26002MPS 230V300 CAVOK 08/M08 Q1025 NOSIG
ZGHA,2018-02-06 12:00,ZGHA 061200Z 28002MPS 250V320 CAVOK 08/M09 Q1026 NOSIG
ZGHA,2018-02-06 13:00,ZGHA 061300Z 05002MPS CAVOK 07/M02 Q1026 NOSIG
ZGHA,2018-02-06 14:00,ZGHA 061400Z 09002MPS CAVOK 06/M05 Q1024 NOSIG
ZGHA,2018-02-06 15:00,ZGHA 061500Z 04002MPS CAVOK 06/M05 Q1025 NOSIG
ZGHA,2018-02-06 16:00,ZGHA 061600Z 04002MPS CAVOK 06/M03 Q1025 NOSIG
ZGHA,2018-02-06 17:00,ZGHA 061700Z VRB01MPS CAVOK 05/M04 Q1025 NOSIG
ZGHA,2018-02-06 18:00,ZGHA 061800Z 15001MPS CAVOK 04/M03 Q1025 NOSIG
ZGHA,2018-02-06 19:00,ZGHA 061900Z 00000MPS CAVOK 04/M01 Q1025 NOSIG
ZGHA,2018-02-06 20:00,ZGHA 062000Z VRB01MPS CAVOK 04/M02 Q1024 NOSIG
ZGHA,2018-02-06 21:00,ZGHA 062100Z 06001MPS CAVOK 04/M02 Q1024 NOSIG
ZGHA,2018-02-06 22:00,ZGHA 062200Z 07001MPS CAVOK 04/M03 Q1024 NOSIG
ZGHA,2018-02-06 23:00,ZGHA 062300Z 05001MPS CAVOK 04/M03 Q1025 NOSIG
ZGHA,2018-02-07 00:00,ZGHA 070000Z 04002MPS CAVOK 04/M03 Q1025 NOSIG
ZGHA,2018-02-07 01:00,ZGHA 070100Z 04003MPS CAVOK 05/M04 Q1026 NOSIG
ZGHA,2018-02-07 02:00,ZGHA 070200Z VRB01MPS CAVOK 08/M05 Q1026 NOSIG
ZGHA,2018-02-07 03:00,ZGHA 070300Z 18001MPS CAVOK 11/M06 Q1025 NOSIG
ZGHA,2018-02-07 04:00,ZGHA 070400Z VRB01MPS CAVOK 13/M08 Q1025 NOSIG
ZGHA,2018-02-07 05:00,ZGHA 070500Z 02003MPS 330V060 CAVOK 13/M09 Q1024 NOSIG
ZGHA,2018-02-07 06:00,ZGHA 070600Z 01003MPS 300V060 CAVOK 14/M09 Q1023 NOSIG
ZGHA,2018-02-07 07:00,ZGHA 070700Z 34004MPS 300V040 CAVOK 14/M09 Q1022 NOSIG
ZGHA,2018-02-07 08:00,ZGHA 070800Z 33004MPS 300V010 CAVOK 14/M09 Q1022 NOSIG
ZGHA,2018-02-07 09:00,ZGHA 070900Z 29004MPS CAVOK 13/M06 Q1022 NOSIG
ZGHA,2018-02-07 10:00,ZGHA 071000Z 31003MPS CAVOK 12/M06 Q1023 NOSIG
ZGHA,2018-02-07 11:00,ZGHA 071100Z 32003MPS 270V360 CAVOK 11/M05 Q1024 NOSIG
ZGHA,2018-02-07 12:00,ZGHA 071200Z 33003MPS CAVOK 10/M05 Q1024 NOSIG
ZGHA,2018-02-07 13:00,ZGHA 071300Z 36003MPS CAVOK 09/M04 Q1025 NOSIG
ZGHA,2018-02-07 14:00,ZGHA 071400Z 03003MPS CAVOK 08/M03 Q1025 NOSIG
ZGHA,2018-02-07 15:00,ZGHA 071500Z 35003MPS CAVOK 06/M04 Q1026 NOSIG
ZGHA,2018-02-07 16:00,ZGHA 071600Z 35003MPS CAVOK 06/M05 Q1025 NOSIG
ZGHA,2018-02-07 17:00,ZGHA 071700Z 02002MPS 8000 NSC 04/M03 Q1025 NOSIG
ZGHA,2018-02-07 18:00,ZGHA 071800Z 03002MPS 8000 NSC 03/M02 Q1025 NOSIG
ZGHA,2018-02-07 19:00,ZGHA 071900Z VRB01MPS 6000 NSC 02/M02 Q1024 NOSIG
ZGHA,2018-02-07 20:00,ZGHA 072000Z 01001MPS 6000 NSC 01/M02 Q1024 NOSIG
ZGHA,2018-02-07 21:00,ZGHA 072100Z 07001MPS 5000 BR NSC 01/M02 Q1023 NOSIG
ZGHA,2018-02-07 22:00,ZGHA 072200Z 00000MPS 4500 BR NSC 01/M02 Q1023 NOSIG
ZGHA,2018-02-07 23:00,ZGHA 072300Z 06001MPS 4500 BR NSC M00/M02 Q1024 NOSIG
ZGHA,2018-02-08 00:00,ZGHA 080000Z 03001MPS 5000 BR NSC 01/M01 Q1024 NOSIG
ZGHA,2018-02-08 01:00,ZGHA 080100Z 06002MPS 8000 NSC 03/M00 Q1024 NOSIG
ZGHA,2018-02-08 02:00,ZGHA 080200Z VRB01MPS 8000 NSC 07/M02 Q1024 NOSIG
ZGHA,2018-02-08 03:00,ZGHA 080300Z VRB01MPS CAVOK 10/M03 Q1023 NOSIG
ZGHA,2018-02-08 04:00,ZGHA 080400Z VRB02MPS CAVOK 13/M06 Q1021 NOSIG
ZGHA,2018-02-08 05:00,ZGHA 080500Z 14004MPS 090V170 CAVOK 14/M09 Q1019 NOSIG
ZGHA,2018-02-08 06:00,ZGHA 080600Z 12004MPS 090V160 CAVOK 14/M10 Q1018 NOSIG
ZGHA,2018-02-08 07:00,ZGHA 080700Z VRB01MPS CAVOK 16/M10 Q1017 NOSIG
ZGHA,2018-02-08 08:00,ZGHA 080800Z 16003MPS 130V190 CAVOK 15/M08 Q1016 NOSIG
ZGHA,2018-02-08 09:00,ZGHA 080900Z 12002MPS CAVOK 15/M07 Q1016 NOSIG
ZGHA,2018-02-08 10:00,ZGHA 081000Z 16002MPS CAVOK 14/M06 Q1016 NOSIG
ZGHA,2018-02-08 11:00,ZGHA 081100Z 15002MPS CAVOK 13/M05 Q1017 NOSIG
ZGHA,2018-02-08 12:00,ZGHA 081200Z 11002MPS CAVOK 12/M05 Q1017 NOSIG
ZGHA,2018-02-08 13:00,ZGHA 081300Z 11002MPS CAVOK 11/M05 Q1017 NOSIG
ZGHA,2018-02-08 14:00,ZGHA 081400Z 12002MPS CAVOK 12/M06 Q1017 NOSIG
ZGHA,2018-02-08 15:00,ZGHA 081500Z 15003MPS CAVOK 11/M06 Q1017 NOSIG
ZGHA,2018-02-08 16:00,ZGHA 081600Z 15001MPS CAVOK 11/M06 Q1017 NOSIG
ZGHA,2018-02-08 17:00,ZGHA 081700Z VRB01MPS CAVOK 11/M06 Q1017 NOSIG
ZGHA,2018-02-08 18:00,ZGHA 081800Z VRB01MPS CAVOK 11/M05 Q1016 NOSIG
ZGHA,2018-02-08 19:00,ZGHA 081900Z 32002MPS 260V350 CAVOK 09/M02 Q1016 NOSIG
ZGHA,2018-02-08 20:00,ZGHA 082000Z 00000MPS CAVOK 09/M01 Q1016 NOSIG
ZGHA,2018-02-08 21:00,ZGHA 082100Z 00000MPS CAVOK 09/00 Q1016 NOSIG
ZGHA,2018-02-08 22:00,ZGHA 082200Z 02001MPS CAVOK 09/M02 Q1016 NOSIG
ZGHA,2018-02-08 23:00,ZGHA 082300Z 02002MPS CAVOK 08/M01 Q1017 NOSIG
ZGHA,2018-02-09 00:00,ZGHA 090000Z 36001MPS CAVOK 08/M01 Q1018 NOSIG
ZGHA,2018-02-09 01:00,ZGHA 090100Z 04002MPS CAVOK 09/M02 Q1018 NOSIG
ZGHA,2018-02-09 02:00,ZGHA 090200Z 00000MPS CAVOK 10/M01 Q1019 NOSIG
ZGHA,2018-02-09 03:00,ZGHA 090300Z 00000MPS 8000 NSC 10/M01 Q1019 NOSIG
ZGHA,2018-02-09 04:00,ZGHA 090400Z 05002MPS 8000 NSC 10/M01 Q1019 NOSIG
ZGHA,2018-02-09 05:00,ZGHA 090500Z 14002MPS 7000 NSC 11/M01 Q1017 NOSIG
ZGHA,2018-02-09 06:00,ZGHA 090600Z VRB01MPS 9000 NSC 12/M02 Q1016 NOSIG
ZGHA,2018-02-09 07:00,ZGHA 090700Z 17003MPS 9000 NSC 13/M05 Q1016 NOSIG
ZGHA,2018-02-09 08:00,ZGHA 090800Z 20002MPS 180V240 8000 NSC 12/M03 Q1016 NOSIG
ZGHA,2018-02-09 09:00,ZGHA 090900Z 19002MPS 160V230 7000 NSC 12/M02 Q1016 NOSIG
ZGHA,2018-02-09 10:00,ZGHA 091000Z VRB01MPS 6000 NSC 12/M01 Q1017 NOSIG
ZGHA,2018-02-09 11:00,ZGHA 091100Z VRB01MPS 7000 NSC 11/M02 Q1017 NOSIG
ZGHA,2018-02-09 12:00,ZGHA 091200Z VRB01MPS 7000 NSC 11/M01 Q1018 NOSIG
ZGHA,2018-02-09 13:00,ZGHA 091300Z 01002MPS 7000 NSC 10/01 Q1019 NOSIG
ZGHA,2018-02-09 14:00,ZGHA 091400Z VRB01MPS 6000 NSC 10/02 Q1020 NOSIG
ZGHA,2018-02-09 15:00,ZGHA 091500Z 05002MPS 020V080 6000 NSC 10/02 Q1020 NOSIG
ZGHA,2018-02-09 16:00,ZGHA 091600Z 36001MPS 6000 NSC 10/01 Q1020 NOSIG
ZGHA,2018-02-09 17:00,ZGHA 091700Z VRB01MPS 6000 NSC 09/03 Q1020 NOSIG
ZGHA,2018-02-09 18:00,ZGHA 091800Z 35002MPS 6000 NSC 09/03 Q1021 NOSIG
ZGHA,2018-02-09 19:00,ZGHA 091900Z 34003MPS 6000 NSC 09/02 Q1021 NOSIG
ZGHA,2018-02-09 20:00,ZGHA 092000Z 01002MPS 6000 NSC 09/02 Q1021 NOSIG
ZGHA,2018-02-09 21:00,ZGHA 092100Z 01002MPS 6000 NSC 08/02 Q1021 NOSIG
ZGHA,2018-02-09 22:00,ZGHA 092200Z 36005MPS 6000 NSC 09/01 Q1022 NOSIG
ZGHA,2018-02-09 23:00,ZGHA 092300Z 01005MPS 6000 NSC 08/01 Q1023 NOSIG
ZGHA,2018-02-10 00:00,ZGHA 100000Z 35007MPS 5000 HZ NSC 09/00 Q1025 NOSIG
ZGHA,2018-02-10 01:00,ZGHA 100100Z 35007MPS 6000 SCT033 OVC050 09/01 Q1026 NOSIG
ZGHA,2018-02-10 02:00,ZGHA 100200Z 35007MPS 7000 OVC050 09/02 Q1027 NOSIG
ZGHA,2018-02-10 03:00,ZGHA 100300Z 36007MPS 6000 BKN040 09/01 Q1027 NOSIG
ZGHA,2018-02-10 04:00,ZGHA 100400Z 36007MPS 6000 BKN040 09/01 Q1027 NOSIG
ZGHA,2018-02-10 05:00,ZGHA 100500Z 36006MPS 5000 HZ BKN040 09/01 Q1026 NOSIG
ZGHA,2018-02-10 06:00,ZGHA 100600Z 36007MPS 5000 HZ BKN030 09/02 Q1026 NOSIG
ZGHA,2018-02-10 07:00,ZGHA 100700Z 36006MPS 5000 HZ SCT030 09/01 Q1026 NOSIG
ZGHA,2018-02-10 08:00,ZGHA 100800Z 35006MPS 4000 HZ FEW030 08/01 Q1026 NOSIG
ZGHA,2018-02-10 09:00,ZGHA 100900Z 36005MPS 3700 HZ NSC 08/01 Q1026 NOSIG
ZGHA,2018-02-10 10:00,ZGHA 101000Z 36004MPS 3700 HZ NSC 08/01 Q1027 NOSIG
ZGHA,2018-02-10 11:00,ZGHA 101100Z 01004MPS 4000 HZ NSC 08/02 Q1027 NOSIG
ZGHA,2018-02-10 12:00,ZGHA 101200Z 01003MPS 4000 BR FEW033 07/01 Q1028 NOSIG
ZGHA,2018-02-10 13:00,ZGHA 101300Z 36004MPS 3500 BR SCT033 06/01 Q1029 NOSIG
ZGHA,2018-02-10 14:00,ZGHA 101400Z 35004MPS 3500 BR SCT033 05/01 Q1030 NOSIG
ZGHA,2018-02-10 15:00,ZGHA 101500Z 01004MPS 3500 BR FEW033 05/01 Q1031 NOSIG
ZGHA,2018-02-10 16:00,ZGHA 101600Z 03002MPS 360V060 3200 BR FEW033 04/01 Q1030 NOSIG
ZGHA,2018-02-10 17:00,ZGHA 101700Z 36001MPS 3200 BR FEW030 04/00 Q1030 BECMG TL1850 2800
ZGHA,2018-02-10 18:00,ZGHA 101800Z 32002MPS 3200 BR FEW033 03/00 Q1030 NOSIG
ZGHA,2018-02-10 19:00,ZGHA 101900Z VRB01MPS 3500 BR NSC 02/00 Q1030 NOSIG
ZGHA,2018-02-10 20:00,ZGHA 102000Z VRB01MPS 3500 BR NSC 02/00 Q1029 NOSIG
ZGHA,2018-02-10 21:00,ZGHA 102100Z 01002MPS 3000 BR NSC 02/00 Q1029 NOSIG
ZGHA,2018-02-10 22:00,ZGHA 102200Z VRB01MPS 3200 BR NSC 03/01 Q1030 BECMG TL2300 2800
ZGHA,2018-02-10 23:00,ZGHA 102300Z VRB01MPS 2700 BR NSC 03/01 Q1030 BECMG TL2400 3200
ZGHA,2018-02-11 00:00,ZGHA 110000Z 02002MPS 2500 BR NSC 03/01 Q1031 BECMG TL0100 3200
ZGHA,2018-02-11 01:00,ZGHA 110100Z 01003MPS 2000 BR NSC 04/02 Q1032 NOSIG
ZGHA,2018-02-11 02:00,ZGHA 110200Z 01002MPS 2500 BR NSC 05/02 Q1032 BECMG TL0300 3200
ZGHA,2018-02-11 03:00,ZGHA 110300Z VRB01MPS 3000 HZ NSC 08/02 Q1032 NOSIG
ZGHA,2018-02-11 04:00,ZGHA 110400Z VRB01MPS 3500 HZ NSC 09/02 Q1031 NOSIG
ZGHA,2018-02-11 05:00,ZGHA 110500Z 36002MPS 290V040 4000 HZ NSC 10/01 Q1030 NOSIG
ZGHA,2018-02-11 06:00,ZGHA 110600Z 32002MPS 270V350 5000 HZ SCT033 12/M00 Q1029 NOSIG
ZGHA,2018-02-11 07:00,ZGHA 110700Z 30003MPS 260V340 5000 HZ FEW026 12/00 Q1029 NOSIG
ZGHA,2018-02-11 08:00,ZGHA 110800Z 29004MPS 260V330 4500 HZ FEW033 11/01 Q1028 NOSIG
ZGHA,2018-02-11 09:00,ZGHA 110900Z 29004MPS 4500 HZ NSC 10/01 Q1028 NOSIG
ZGHA,2018-02-11 10:00,ZGHA 111000Z 30004MPS 260V340 4000 HZ NSC 10/01 Q1029 NOSIG
ZGHA,2018-02-11 11:00,ZGHA 111100Z 30004MPS 4500 HZ NSC 09/01 Q1029 NOSIG
ZGHA,2018-02-11 12:00,ZGHA 111200Z 33004MPS 5000 HZ FEW033 08/M00 Q1030 NOSIG
ZGHA,2018-02-11 13:00,ZGHA 111300Z 34003MPS 6000 FEW033 07/M00 Q1031 NOSIG
ZGHA,2018-02-11 14:00,ZGHA 111400Z 07001MPS 5000 BR FEW033 05/00 Q1032 NOSIG
ZGHA,2018-02-11 15:00,ZGHA 111500Z 36003MPS 7000 FEW033 06/M02 Q1032 NOSIG
ZGHA,2018-02-11 16:00,ZGHA 111600Z 32002MPS 8000 SCT033 06/M02 Q1032 NOSIG
ZGHA,2018-02-11 17:00,ZGHA 111700Z 35003MPS 330V030 8000 SCT033 05/M03 Q1032 NOSIG
ZGHA,2018-02-11 18:00,ZGHA 111800Z 05001MPS 8000 SCT033 03/M00 Q1032 NOSIG
ZGHA,2018-02-11 19:00,ZGHA 111900Z 05002MPS 4500 BR FEW033 02/M00 Q1032 NOSIG
ZGHA,2018-02-11 20:00,ZGHA 112000Z 36001MPS 4000 BR NSC 01/M01 Q1032 NOSIG
ZGHA,2018-02-11 21:00,ZGHA 112100Z 20001MPS 4000 BR NSC 01/M01 Q1032 NOSIG
ZGHA,2018-02-11 22:00,ZGHA 112200Z 02001MPS 4000 BR NSC 01/M01 Q1033 NOSIG
ZGHA,2018-02-11 23:00,ZGHA 112300Z 12001MPS 1700 BR NSC M00/M02 Q1033 NOSIG
ZGHA,2018-02-12 00:00,ZGHA 120000Z 05001MPS 1500 R36L/1100V1200N R36R/1100V1300N BR NSC 00/M01 Q1034 BECMG TL0100 3500
ZGHA,2018-02-12 01:00,ZGHA 120100Z 17001MPS 2500 BR NSC 03/02 Q1034 BECMG TL0200 3500
ZGHA,2018-02-12 02:00,ZGHA 120200Z VRB01MPS 3500 BR NSC 07/03 Q1035 NOSIG
ZGHA,2018-02-12 03:00,ZGHA 120300Z VRB01MPS 6000 NSC 10/M01 Q1034 NOSIG
ZGHA,2018-02-12 04:00,ZGHA 120400Z VRB01MPS 8000 NSC 12/M02 Q1033 NOSIG
ZGHA,2018-02-12 05:00,ZGHA 120500Z VRB01MPS CAVOK 14/M06 Q1031 NOSIG
ZGHA,2018-02-12 06:00,ZGHA 120600Z 32003MPS 280V360 CAVOK 15/M09 Q1030 NOSIG
ZGHA,2018-02-12 07:00,ZGHA 120700Z 03002MPS 350V090 CAVOK 15/M07 Q1029 NOSIG
ZGHA,2018-02-12 08:00,ZGHA 120800Z VRB01MPS CAVOK 15/M06 Q1029 NOSIG
ZGHA,2018-02-12 09:00,ZGHA 120900Z VRB01MPS CAVOK 16/M05 Q1028 NOSIG
ZGHA,2018-02-12 10:00,ZGHA 121000Z 31002MPS 270V340 CAVOK 14/M05 Q1029 NOSIG
ZGHA,2018-02-12 11:00,ZGHA 121100Z 30002MPS 8000 NSC 13/M04 Q1029 NOSIG
ZGHA,2018-02-12 12:00,ZGHA 121200Z 32003MPS 7000 NSC 12/M03 Q1029 NOSIG
ZGHA,2018-02-12 13:00,ZGHA 121300Z 31002MPS 7000 NSC 11/M04 Q1029 NOSIG
ZGHA,2018-02-12 14:00,ZGHA 121400Z 02002MPS 7000 NSC 08/M01 Q1029 NOSIG
ZGHA,2018-02-12 15:00,ZGHA 121500Z 03001MPS 7000 NSC 08/M00 Q1029 NOSIG
ZGHA,2018-02-12 16:00,ZGHA 121600Z 04002MPS 6000 NSC 06/01 Q1029 NOSIG
ZGHA,2018-02-12 17:00,ZGHA 121700Z 05001MPS 6000 NSC 05/01 Q1029 NOSIG
ZGHA,2018-02-12 18:00,ZGHA 121800Z VRB01MPS 5000 BR NSC 04/01 Q1028 NOSIG
ZGHA,2018-02-12 19:00,ZGHA 121900Z 00000MPS 4000 BR NSC 04/01 Q1027 NOSIG
ZGHA,2018-02-12 20:00,ZGHA 122000Z 20001MPS 4000 BR NSC 02/00 Q1027 NOSIG
ZGHA,2018-02-12 21:00,ZGHA 122100Z 07001MPS 3500 BR NSC 02/00 Q1027 NOSIG
ZGHA,2018-02-12 22:00,ZGHA 122200Z VRB01MPS 3500 BR NSC 02/M00 Q1026 BECMG TL2340 2800
ZGHA,2018-02-12 23:00,ZGHA 122300Z 00000MPS 3200 BR NSC 01/M00 Q1026 NOSIG
ZGHA,2018-02-13 00:00,ZGHA 130000Z VRB01MPS 5000 BR NSC 03/01 Q1026 NOSIG
ZGHA,2018-02-13 01:00,ZGHA 130100Z VRB01MPS 6000 NSC 05/01 Q1026 NOSIG
ZGHA,2018-02-13 02:00,ZGHA 130200Z 14002MPS 100V200 8000 NSC 09/00 Q1026 NOSIG
ZGHA,2018-02-13 03:00,ZGHA 130300Z 19005MPS 160V230 9000 NSC 13/M02 Q1025 NOSIG
ZGHA,2018-02-13 04:00,ZGHA 130400Z 19003MPS 150V230 CAVOK 15/M02 Q1024 NOSIG
ZGHA,2018-02-13 05:00,ZGHA 130500Z 19004MPS 140V250 CAVOK 17/M02 Q1022 NOSIG
ZGHA,2018-02-13 06:00,ZGHA 130600Z 18005MPS CAVOK 18/M03 Q1020 NOSIG
ZGHA,2018-02-13 07:00,ZGHA 130700Z 21006MPS CAVOK 18/M03 Q1020 NOSIG
ZGHA,2018-02-13 08:00,ZGHA 130800Z 20004MPS CAVOK 17/M02 Q1019 NOSIG
ZGHA,2018-02-13 09:00,ZGHA 130900Z 20003MPS CAVOK 17/M01 Q1019 NOSIG
ZGHA,2018-02-13 10:00,ZGHA 131000Z 21002MPS 190V250 9000 NSC 16/M01 Q1019 NOSIG
ZGHA,2018-02-13 11:00,ZGHA 131100Z 21002MPS 9000 NSC 15/M00 Q1019 NOSIG
ZGHA,2018-02-13 12:00,ZGHA 131200Z 21002MPS 190V260 9000 NSC 14/00 Q1019 NOSIG
ZGHA,2018-02-13 13:00,ZGHA 131300Z VRB01MPS 9000 NSC 13/01 Q1019 NOSIG
ZGHA,2018-02-13 14:00,ZGHA 131400Z 17002MPS 150V220 9000 NSC 13/01 Q1019 NOSIG
ZGHA,2018-02-13 15:00,ZGHA 131500Z 16002MPS 140V200 9000 NSC 13/02 Q1019 NOSIG
ZGHA,2018-02-13 16:00,ZGHA 131600Z VRB01MPS 9000 NSC 13/03 Q1019 NOSIG
ZGHA,2018-02-13 17:00,ZGHA 131700Z 16001MPS 9000 NSC 12/03 Q1018 NOSIG
ZGHA,2018-02-13 18:00,ZGHA 131800Z 18002MPS 170V230 9000 NSC 12/03 Q1017 NOSIG
ZGHA,2018-02-13 19:00,ZGHA 131900Z 18003MPS 9000 NSC 12/02 Q1017 NOSIG
ZGHA,2018-02-13 20:00,ZGHA 132000Z 17003MPS 9000 NSC 12/02 Q1016 NOSIG
ZGHA,2018-02-13 21:00,ZGHA 132100Z 19003MPS CAVOK 12/01 Q1015 NOSIG
ZGHA,2018-02-13 22:00,ZGHA 132200Z 21003MPS CAVOK 12/01 Q1015 NOSIG
ZGHA,2018-02-13 23:00,ZGHA 132300Z 21003MPS CAVOK 12/01 Q1015 NOSIG
ZGHA,2018-02-14 00:00,ZGHA 140000Z 23002MPS CAVOK 12/02 Q1015 NOSIG
ZGHA,2018-02-14 01:00,ZGHA 140100Z 22002MPS CAVOK 13/02 Q1015 NOSIG
ZGHA,2018-02-14 02:00,ZGHA 140200Z 18004MPS 160V220 CAVOK 15/01 Q1015 NOSIG
ZGHA,2018-02-14 03:00,ZGHA 140300Z 18002MPS CAVOK 15/02 Q1014 NOSIG
ZGHA,2018-02-14 04:00,ZGHA 140400Z 22002MPS 170V280 CAVOK 16/03 Q1014 NOSIG
ZGHA,2018-02-14 05:00,ZGHA 140500Z 17003MPS 140V210 CAVOK 19/03 Q1012 NOSIG
ZGHA,2018-02-14 06:00,ZGHA 140600Z 20006MPS 170V230 CAVOK 21/03 Q1011 NOSIG
ZGHA,2018-02-14 07:00,ZGHA 140700Z 19004MPS CAVOK 21/03 Q1010 NOSIG
ZGHA,2018-02-14 08:00,ZGHA 140800Z 13003MPS 110V170 CAVOK 20/04 Q1010 NOSIG
ZGHA,2018-02-14 09:00,ZGHA 140900Z 15003MPS 110V190 CAVOK 20/04 Q1010 NOSIG
ZGHA,2018-02-14 10:00,ZGHA 141000Z VRB01MPS CAVOK 19/04 Q1011 NOSIG
ZGHA,2018-02-14 11:00,ZGHA 141100Z 02002MPS 360V060 CAVOK 17/06 Q1011 NOSIG
ZGHA,2018-02-14 12:00,ZGHA 141200Z 01002MPS 8000 NSC 16/07 Q1012 NOSIG
ZGHA,2018-02-14 13:00,ZGHA 141300Z 36002MPS 8000 NSC 16/06 Q1013 NOSIG
ZGHA,2018-02-14 14:00,ZGHA 141400Z 36003MPS 8000 NSC 15/06 Q1014 NOSIG
ZGHA,2018-02-14 15:00,ZGHA 141500Z 34003MPS 8000 NSC 15/06 Q1015 NOSIG
ZGHA,2018-02-14 16:00,ZGHA 141600Z 02002MPS 8000 NSC 14/06 Q1015 NOSIG
ZGHA,2018-02-14 17:00,ZGHA 141700Z 36001MPS 8000 OVC050 14/06 Q1015 NOSIG
ZGHA,2018-02-14 18:00,ZGHA 141800Z 04002MPS 8000 OVC050 14/07 Q1015 NOSIG
ZGHA,2018-02-14 19:00,ZGHA 141900Z 02001MPS 8000 OVC050 13/07 Q1015 NOSIG
ZGHA,2018-02-14 20:00,ZGHA 142000Z 34002MPS 6000 OVC050 13/07 Q1015 NOSIG
ZGHA,2018-02-14 21:00,ZGHA 142100Z 32002MPS 6000 OVC050 13/06 Q1016 NOSIG
ZGHA,2018-02-14 22:00,ZGHA 142200Z 35003MPS 6000 OVC050 13/06 Q1016 NOSIG
ZGHA,2018-02-14 23:00,ZGHA 142300Z 33003MPS 5000 HZ OVC050 13/06 Q1017 NOSIG
ZGHA,2018-02-15 00:00,ZGHA 150000Z 31003MPS 3500 HZ OVC050 13/06 Q1017 NOSIG
ZGHA,2018-02-15 01:00,ZGHA 150100Z 32003MPS 3200 HZ OVC050 13/06 Q1018 NOSIG
ZGHA,2018-02-15 02:00,ZGHA 150200Z 32005MPS 3200 HZ OVC050 12/06 Q1019 BECMG TL0300 2800
ZGHA,2018-02-15 03:00,ZGHA 150300Z 31005MPS 2600 HZ OVC050 12/06 Q1019 NOSIG
ZGHA,2018-02-15 04:00,ZGHA 150400Z 31004MPS 2500 HZ OVC050 13/07 Q1019 NOSIG
ZGHA,2018-02-15 05:00,ZGHA 150500Z 32004MPS 270V340 2600 HZ OVC050 13/07 Q1017 NOSIG
ZGHA,2018-02-15 06:00,ZGHA 150600Z 32004MPS 2800 HZ OVC050 14/08 Q1017 BECMG TL0700 3000
ZGHA,2018-02-15 07:00,ZGHA 150700Z 34004MPS 300V010 3000 BR BKN016 OVC050 13/08 Q1016 BECMG TL0800 2600
ZGHA,2018-02-15 08:00,ZGHA 150800Z 31005MPS 2500 BR BKN012 OVC050 12/08 Q1016 NOSIG
ZGHA,2018-02-15 09:00,ZGHA 150900Z 31004MPS 2100 BR BKN009 OVC050 11/07 Q1016 BECMG TL1000 BKN010 OVC050
ZGHA,2018-02-15 10:00,ZGHA 151000Z 32004MPS 2500 BR BKN008 OVC050 10/07 Q1017 NOSIG
ZGHA,2018-02-15 11:00,ZGHA 151100Z 33005MPS 3500 BR BKN008 OVC050 10/07 Q1017 NOSIG
ZGHA,2018-02-15 12:00,ZGHA 151200Z 31004MPS 3200 BR BKN007 OVC050 10/07 Q1018 BECMG TL1300 2800
ZGHA,2018-02-15 13:00,ZGHA 151300Z 32004MPS 2600 BR BKN007 OVC050 09/07 Q1019 NOSIG
ZGHA,2018-02-15 14:00,ZGHA 151400Z 32005MPS 2800 BR BKN007 OVC050 09/06 Q1020 BECMG TL1500 3000
ZGHA,2018-02-15 15:00,ZGHA 151500Z 35004MPS 3000 BR BKN009 OVC050 09/06 Q1020 BECMG TL1600 2800 SCT009 OVC050
ZGHA,2018-02-15 16:00,ZGHA 151600Z 30003MPS 280V340 2800 BR BKN009 OVC050 09/06 Q1020 BECMG TL1700 3000
ZGHA,2018-02-15 17:00,ZGHA 151700Z 31004MPS 3000 BR BKN009 OVC050 08/05 Q1020 NOSIG
ZGHA,2018-02-15 18:00,ZGHA 151800Z 33003MPS 290V350 2600 BR BKN008 OVC050 08/05 Q1019 NOSIG
ZGHA,2018-02-15 19:00,ZGHA 151900Z 31004MPS 2000 BR BKN006 OVC050 08/05 Q1019 NOSIG
ZGHA,2018-02-15 21:00,ZGHA 152100Z 32003MPS 2500 BR BKN006 OVC050 08/05 Q1019 NOSIG
ZGHA,2018-02-15 22:00,ZGHA 152200Z 32003MPS 2500 BR BKN006 OVC050 07/05 Q1019 NOSIG
ZGHA,2018-02-15 23:00,ZGHA 152300Z 32004MPS 2200 -RA BR BKN006 OVC050 08/05 Q1020 NOSIG
ZGHA,2018-02-16 00:00,ZGHA 160000Z 33004MPS 1600 R36L/1300V1400N R36R/1700N -RA BR BKN006 OVC050 07/05 Q1021 BECMG TL0030 1400
ZGHA,2018-02-16 01:00,ZGHA 160100Z 02002MPS 1600 R36L/1200V1300N R36R/1500N BR FEW005 BKN007 OVC050 07/06 Q1021 BECMG TL0240 3000 BKN011 OVC050
ZGHA,2018-02-16 02:00,ZGHA 160200Z 04002MPS 010V080 1800 R36L/1200V1300D R36R/1600N BR FEW006 BKN008 OVC050 08/06 Q1022 BECMG TL0340 3000 BKN011 OVC050
ZGHA,2018-02-16 03:00,ZGHA 160300Z 28002MPS 240V310 1700 R36L/1100N R36R/1300V1400N BR FEW006 BKN009 08/06 Q1022 BECMG TL0400 3000 BKN011 OVC050
ZGHA,2018-02-16 04:00,ZGHA 160400Z VRB01MPS 2000 R36L/1100V1200N R36R/1500N BR BKN011 10/06 Q1022 BECMG TL0500 3500 BKN016
ZGHA,2018-02-16 05:00,ZGHA 160500Z VRB01MPS 3500 R36L/1400U R36R/1900U HZ SCT015 13/06 Q1021 NOSIG
ZGHA,2018-02-16 06:00,ZGHA 160600Z VRB01MPS 4000 HZ FEW020 15/06 Q1020 NOSIG
ZGHA,2018-02-16 07:00,ZGHA 160700Z VRB01MPS 4000 HZ FEW023 15/06 Q1019 NOSIG
ZGHA,2018-02-16 08:00,ZGHA 160800Z VRB01MPS 5000 HZ FEW026 15/06 Q1019 NOSIG
ZGHA,2018-02-16 09:00,ZGHA 160900Z VRB01MPS 6000 FEW030 16/06 Q1019 NOSIG
ZGHA,2018-02-16 10:00,ZGHA 161000Z 15002MPS 6000 NSC 15/06 Q1018 NOSIG
ZGHA,2018-02-16 11:00,ZGHA 161100Z 16001MPS 6000 NSC 13/06 Q1018 NOSIG
ZGHA,2018-02-16 12:00,ZGHA 161200Z 00000MPS 5000 BR NSC 11/07 Q1019 NOSIG
ZGHA,2018-02-16 13:00,ZGHA 161300Z 11001MPS 4000 BR NSC 10/07 Q1019 NOSIG
ZGHA,2018-02-16 14:00,ZGHA 161400Z VRB01MPS 3500 BR NSC 09/06 Q1019 BECMG TL1540 2800
ZGHA,2018-02-16 15:00,ZGHA 161500Z VRB01MPS 3500 BR NSC 09/06 Q1020 BECMG TL1600 2800
ZGHA,2018-02-16 16:00,ZGHA 161600Z 05001MPS 2800 BR NSC 08/06 Q1020 NOSIG
ZGHA,2018-02-16 17:00,ZGHA 161700Z 05001MPS 2500 BR NSC 08/06 Q1020 NOSIG
ZGHA,2018-02-16 18:00,ZGHA 161800Z VRB01MPS 2500 BR NSC 07/05 Q1019 NOSIG
ZGHA,2018-02-16 19:00,ZGHA 161900Z 03002MPS 250V050 2400 BR NSC 07/06 Q1019 NOSIG
ZGHA,2018-02-16 20:00,ZGHA 162000Z VRB01MPS 2400 BR NSC 07/05 Q1019 NOSIG
ZGHA,2018-02-16 21:00,ZGHA 162100Z VRB01MPS 2400 BR NSC 06/04 Q1018 NOSIG
ZGHA,2018-02-16 22:00,ZGHA 162200Z VRB01MPS 2400 BR NSC 05/04 Q1018 BECMG TL2340 3200
ZGHA,2018-02-16 23:00,ZGHA 162300Z VRB01MPS 2000 R36L/P2000 R36R/0175V0600D BR PRFG NSC 05/03 Q1018 NOSIG
ZGHA,2018-02-17 00:00,ZGHA 170000Z 28001MPS 1800 BR NSC 06/05 Q1019 BECMG TL0140 3200
ZGHA,2018-02-17 01:00,ZGHA 170100Z 00000MPS 2800 BR NSC 10/09 Q1019 BECMG TL0200 3200
ZGHA,2018-02-17 02:00,ZGHA 170200Z 15003MPS 100V230 4000 BR FEW030 13/08 Q1019 NOSIG
ZGHA,2018-02-17 03:00,ZGHA 170300Z 14005MPS 090V200 5000 BR FEW030 15/07 Q1019 NOSIG
ZGHA,2018-02-17 04:00,ZGHA 170400Z 13006MPS 100V180 6000 SCT030 15/07 Q1018 NOSIG
ZGHA,2018-02-17 05:00,ZGHA 170500Z 10006MPS 080V170 8000 NSC 17/07 Q1015 NOSIG
ZGHA,2018-02-17 06:00,ZGHA 170600Z 12005MPS 080V150 8000 NSC 18/08 Q1014 NOSIG
ZGHA,2018-02-17 07:00,ZGHA 170700Z 15004MPS 120V190 8000 NSC 19/08 Q1012 NOSIG
ZGHA,2018-02-17 08:00,ZGHA 170800Z 14004MPS 100V170 9000 NSC 20/08 Q1011 NOSIG
ZGHA,2018-02-17 09:00,ZGHA 170900Z 08003MPS 060V120 9000 NSC 19/09 Q1011 NOSIG
ZGHA,2018-02-17 10:00,ZGHA 171000Z 07002MPS 030V100 9000 NSC 19/09 Q1011 NOSIG
ZGHA,2018-02-17 11:00,ZGHA 171100Z 07002MPS 9000 NSC 17/09 Q1011 NOSIG
ZGHA,2018-02-17 12:00,ZGHA 171200Z 00000MPS 9000 NSC 15/09 Q1012 NOSIG
ZGHA,2018-02-17 13:00,ZGHA 171300Z 29003MPS 240V300 9000 SCT026 15/09 Q1013 NOSIG
ZGHA,2018-02-17 14:00,ZGHA 171400Z 31004MPS 9000 NSC 15/09 Q1013 NOSIG
ZGHA,2018-02-17 15:00,ZGHA 171500Z 35004MPS 7000 SCT050 15/09 Q1014 NOSIG
ZGHA,2018-02-17 16:00,ZGHA 171600Z 34004MPS 7000 SCT050 14/09 Q1015 NOSIG
ZGHA,2018-02-17 17:00,ZGHA 171700Z 33004MPS 5000 BR SCT050 14/09 Q1016 NOSIG
ZGHA,2018-02-17 18:00,ZGHA 171800Z 30002MPS 5000 BR OVC050 14/09 Q1016 NOSIG
ZGHA,2018-02-17 19:00,ZGHA 171900Z 31003MPS 6000 OVC050 13/09 Q1016 NOSIG
ZGHA,2018-02-17 20:00,ZGHA 172000Z 30002MPS 280V350 6000 OVC050 13/09 Q1016 NOSIG
ZGHA,2018-02-17 21:00,ZGHA 172100Z 30003MPS 5000 BR OVC040 12/08 Q1016 NOSIG
ZGHA,2018-02-17 22:00,ZGHA 172200Z 30004MPS 5000 BR BKN020 OVC040 12/08 Q1017 NOSIG
ZGHA,2018-02-17 23:00,ZGHA 172300Z 31004MPS 4000 BR BKN015 OVC040 11/07 Q1017 NOSIG
ZGHA,2018-02-18 00:00,ZGHA 180000Z 31004MPS 4000 BR BKN015 OVC040 11/07 Q1018 NOSIG
ZGHA,2018-02-18 01:00,ZGHA 180100Z 32004MPS 290V360 4000 BR BKN015 OVC040 11/07 Q1019 NOSIG
ZGHA,2018-02-18 02:00,ZGHA 180200Z 32004MPS 3800 BR BKN015 OVC040 11/07 Q1019 NOSIG
ZGHA,2018-02-18 03:00,ZGHA 180300Z 31004MPS 3500 BR BKN013 OVC040 11/07 Q1020 BECMG TL0440 2800
ZGHA,2018-02-18 04:00,ZGHA 180400Z 32004MPS 3200 -RA BR BKN011 OVC040 10/07 Q1019 BECMG TL0500 2700
ZGHA,2018-02-18 05:00,ZGHA 180500Z 30003MPS 2000 -RA BR BKN006 OVC040 09/07 Q1019 NOSIG
ZGHA,2018-02-18 06:00,ZGHA 180600Z 32004MPS 2400 -RA BR BKN006 OVC040 09/07 Q1018 NOSIG
ZGHA,2018-02-18 07:00,ZGHA 180700Z 32004MPS 2200 -RA BR SCT005 BKN007 OVC040 09/08 Q1018 NOSIG
ZGHA,2018-02-18 08:00,ZGHA 180800Z 33004MPS 2200 -RA BR SCT004 BKN007 OVC040 09/08 Q1018 NOSIG
ZGHA,2018-02-18 09:00,ZGHA 180900Z 32004MPS 2900 -RA BR SCT005 BKN008 OVC040 09/07 Q1018 BECMG TL1000 3500 BKN011 OVC050
ZGHA,2018-02-18 10:00,ZGHA 181000Z 35005MPS 3500 BR SCT006 BKN011 OVC040 09/06 Q1019 BECMG TL1140 2500 BKN009 OVC050
ZGHA,2018-02-18 11:00,ZGHA 181100Z 35006MPS 4000 BR SCT006 BKN010 OVC050 09/06 Q1019 BECMG TL1200 BKN009 OVC050
ZGHA,2018-02-18 12:00,ZGHA 181200Z 36006MPS 4500 BR BKN009 OVC050 09/06 Q1020 BECMG TL1300 BKN011 OVC050
ZGHA,2018-02-18 13:00,ZGHA 181300Z 35004MPS 4500 BR BKN011 OVC050 08/06 Q1020 BECMG TL1400 BKN009 OVC050
ZGHA,2018-02-18 14:00,ZGHA 181400Z 34004MPS 4500 BR BKN008 OVC050 08/06 Q1020 NOSIG
ZGHA,2018-02-18 15:00,ZGHA 181500Z 35005MPS 4000 BR BKN008 OVC050 08/06 Q1020 NOSIG
ZGHA,2018-02-18 16:00,ZGHA 181600Z 35004MPS 3500 BR BKN007 OVC050 08/06 Q1020 BECMG TL1700 2500
ZGHA,2018-02-18 17:00,ZGHA 181700Z 34005MPS 3500 BR BKN007 OVC050 08/06 Q1020 NOSIG
ZGHA,2018-02-18 18:00,ZGHA 181800Z 35004MPS 3500 BR BKN007 OVC050 08/05 Q1020 NOSIG
ZGHA,2018-02-18 19:00,ZGHA 181900Z 35004MPS 3000 BR FEW005 BKN007 OVC050 08/06 Q1020 NOSIG
ZGHA,2018-02-18 20:00,ZGHA 182000Z 36003MPS 2800 BR FEW005 BKN007 OVC050 07/05 Q1020 NOSIG
ZGHA,2018-02-18 21:00,ZGHA 182100Z 35002MPS 2500 BR SCT005 BKN007 OVC050 07/06 Q1020 NOSIG
ZGHA,2018-02-18 22:00,ZGHA 182200Z 33002MPS 300V010 2700 -RA BR SCT006 BKN008 OVC050 08/06 Q1020 BECMG TL2340 3000
ZGHA,2018-02-18 23:00,ZGHA 182300Z 30003MPS 2700 -RA BR SCT006 BKN009 OVC050 07/05 Q1021 BECMG TL0040 3000 BKN011 OVC050
ZGHA,2018-02-19 00:00,ZGHA 190000Z 32004MPS 1600 -RA BR SCT004 BKN007 OVC040 07/06 Q1022 BECMG TL0140 3000 BKN011 OVC050
ZGHA,2018-02-19 01:00,ZGHA 190100Z 34005MPS 1600 -RA BR SCT003 BKN004 OVC040 07/05 Q1023 BECMG TL0200 1400
ZGHA,2018-02-19 02:00,ZGHA 190200Z 34006MPS 1600 -RA BR SCT004 BKN006 OVC040 07/05 Q1023 NOSIG
ZGHA,2018-02-19 03:00,ZGHA 190300Z 34005MPS 2000 BR SCT005 BKN007 OVC040 07/05 Q1023 NOSIG
ZGHA,2018-02-19 04:00,ZGHA 190400Z 35006MPS 2500 BR SCT006 BKN011 OVC040 07/05 Q1023 BECMG TL0500 3200
ZGHA,2018-02-19 05:00,ZGHA 190500Z 35007MPS 3500 BR FEW007 BKN011 OVC050 07/04 Q1022 NOSIG
ZGHA,2018-02-19 06:00,ZGHA 190600Z 34004MPS 3500 BR FEW007 BKN011 OVC050 07/04 Q1021 NOSIG
ZGHA,2018-02-19 07:00,ZGHA 190700Z 33004MPS 3500 BR BKN012 OVC050 07/04 Q1020 NOSIG
ZGHA,2018-02-19 08:00,ZGHA 190800Z 33004MPS 3500 BR BKN012 OVC050 07/04 Q1020 BECMG TL0950 BKN015 OVC050
ZGHA,2018-02-19 09:00,ZGHA 190900Z 36003MPS 4000 BR BKN014 OVC050 07/04 Q1021 BECMG TL1000 BKN015 OVC050
ZGHA,2018-02-19 10:00,ZGHA 191000Z 01003MPS 4000 BR SCT011 BKN015 OVC050 07/04 Q1021 BECMG TL1100 BKN012 OVC050
ZGHA,2018-02-19 11:00,ZGHA 191100Z 36003MPS 6000 SCT011 BKN014 OVC050 07/04 Q1021 BECMG TL1200 BKN015 OVC050
ZGHA,2018-02-19 12:00,ZGHA 191200Z 02003MPS 6000 BKN016 OVC050 07/04 Q1021 NOSIG
ZGHA,2018-02-19 13:00,ZGHA 191300Z 36003MPS 6000 BKN021 OVC050 07/04 Q1022 BECMG TL1450 BKN014 OVC050
ZGHA,2018-02-19 14:00,ZGHA 191400Z 01003MPS 6000 BKN023 OVC050 07/04 Q1022 NOSIG
ZGHA,2018-02-19 15:00,ZGHA 191500Z 01003MPS 6000 SCT023 OVC050 07/04 Q1022 NOSIG
ZGHA,2018-02-19 16:00,ZGHA 191600Z 03002MPS 5000 -RA BR FEW010 BKN030 OVC050 07/05 Q1022 NOSIG
ZGHA,2018-02-19 17:00,ZGHA 191700Z 01003MPS 5000 BR SCT010 BKN030 OVC050 07/05 Q1021 NOSIG
ZGHA,2018-02-19 18:00,ZGHA 191800Z 02002MPS 5000 BR BKN030 07/05 Q1021 NOSIG
ZGHA,2018-02-19 19:00,ZGHA 191900Z 01003MPS 6000 BKN015 OVC050 07/04 Q1021 NOSIG
ZGHA,2018-02-19 20:00,ZGHA 192000Z 01003MPS 6000 BKN014 OVC050 07/04 Q1020 NOSIG
ZGHA,2018-02-19 21:00,ZGHA 192100Z 01002MPS 5000 BR BKN012 OVC050 07/05 Q1019 NOSIG
ZGHA,2018-02-19 22:00,ZGHA 192200Z 36002MPS 5000 BR BKN008 OVC050 07/05 Q1019 NOSIG
ZGHA,2018-02-19 23:00,ZGHA 192300Z 34003MPS 4500 BR BKN008 OVC050 07/05 Q1020 NOSIG
ZGHA,2018-02-20 00:00,ZGHA 200000Z 33003MPS 300V360 3500 BR BKN009 OVC050 07/05 Q1021 BECMG TL0100 BKN010 OVC050
ZGHA,2018-02-20 01:00,ZGHA 200100Z 33003MPS 300V360 2500 -RA BR SCT007 BKN010 OVC050 07/05 Q1021 BECMG TL0200 BKN009 OVC050
ZGHA,2018-02-20 02:00,ZGHA 200200Z 33003MPS 1500 -RA BR SCT005 BKN007 OVC050 07/05 Q1021 TEMPO 1400 BKN004 OVC050
ZGHA,2018-02-20 03:00,ZGHA 200300Z 35003MPS 1800 -RA BR SCT006 BKN008 OVC050 07/05 Q1021 BECMG TL0440 3000 BKN011 OVC050
ZGHA,2018-02-20 04:00,ZGHA 200400Z 35004MPS 3000 -RA BR SCT006 BKN010 OVC050 07/06 Q1021 NOSIG
ZGHA,2018-02-20 05:00,ZGHA 200500Z 35003MPS 3500 -DZ BR SCT007 BKN011 OVC050 07/06 Q1020 NOSIG
ZGHA,2018-02-20 06:00,ZGHA 200600Z 36004MPS 3200 -RA BR SCT007 BKN011 OVC050 07/06 Q1019 NOSIG
ZGHA,2018-02-20 07:00,ZGHA 200700Z 02002MPS 6000 -RA FEW005 BKN014 OVC040 07/06 Q1019 BECMG TL0800 BKN016 OVC050
ZGHA,2018-02-20 08:00,ZGHA 200800Z 35005MPS 6000 -RA FEW007 BKN016 OVC050 07/06 Q1019 NOSIG
ZGHA,2018-02-20 09:00,ZGHA 200900Z 36005MPS 6000 -RA SCT007 BKN016 OVC050 07/06 Q1019 NOSIG
ZGHA,2018-02-20 10:00,ZGHA 201000Z 36004MPS 7000 SCT008 BKN020 OVC050 06/05 Q1020 NOSIG
ZGHA,2018-02-20 11:00,ZGHA 201100Z 34004MPS 9999 SCT011 BKN020 OVC050 06/05 Q1021 NOSIG
ZGHA,2018-02-20 12:00,ZGHA 201200Z 35004MPS 9999 SCT011 BKN020 OVC050 07/05 Q1022 NOSIG
ZGHA,2018-02-20 13:00,ZGHA 201300Z 36003MPS 9999 SCT009 BKN020 07/05 Q1022 NOSIG
ZGHA,2018-02-20 14:00,ZGHA 201400Z 36003MPS 9999 FEW008 BKN010 OVC050 07/05 Q1023 NOSIG
ZGHA,2018-02-20 15:00,ZGHA 201500Z 36004MPS 9999 SCT008 BKN010 OVC050 07/05 Q1023 BECMG TL1600 BKN008 OVC050
ZGHA,2018-02-20 16:00,ZGHA 201600Z 34003MPS 9999 BKN008 OVC050 07/05 Q1023 NOSIG
ZGHA,2018-02-20 17:00,ZGHA 201700Z 35004MPS 9999 BKN007 OVC050 07/05 Q1023 NOSIG
ZGHA,2018-02-20 18:00,ZGHA 201800Z 34004MPS 9999 BKN008 OVC050 07/05 Q1023 NOSIG
ZGHA,2018-02-20 19:00,ZGHA 201900Z 36004MPS 9999 BKN008 OVC050 07/05 Q1023 NOSIG
ZGHA,2018-02-20 20:00,ZGHA 202000Z 36004MPS 9999 BKN008 OVC050 07/05 Q1023 NOSIG
ZGHA,2018-02-20 21:00,ZGHA 202100Z 36004MPS 8000 BKN008 OVC050 07/05 Q1022 NOSIG
ZGHA,2018-02-20 22:00,ZGHA 202200Z 01003MPS 8000 BKN013 OVC050 07/05 Q1022 BECMG TL2340 BKN016 OVC050
ZGHA,2018-02-20 23:00,ZGHA 202300Z 33003MPS 290V350 8000 BKN014 OVC050 07/05 Q1023 BECMG TL2400 BKN016 OVC050
ZGHA,2018-02-21 00:00,ZGHA 210000Z 34004MPS 5000 BR SCT008 BKN015 OVC050 07/05 Q1024 BECMG TL0100 BKN011 OVC050
ZGHA,2018-02-21 01:00,ZGHA 210100Z 35006MPS 5000 -RA BR BKN009 OVC050 07/05 Q1025 NOSIG
ZGHA,2018-02-21 02:00,ZGHA 210200Z 02006MPS 3500 -RA BR BKN008 OVC033 07/05 Q1025 NOSIG
ZGHA,2018-02-21 03:00,ZGHA 210300Z 36005MPS 4000 -RA BR BKN006 OVC033 07/05 Q1025 NOSIG
ZGHA,2018-02-21 04:00,ZGHA 210400Z 36005MPS 4000 -RA BR BKN006 OVC050 07/05 Q1024 NOSIG
ZGHA,2018-02-21 05:00,ZGHA 210500Z 36005MPS 6000 -RA BKN005 OVC050 07/06 Q1024 NOSIG
ZGHA,2018-02-21 06:00,ZGHA 210600Z 34004MPS 7000 -RA BKN006 OVC033 07/06 Q1023 NOSIG
ZGHA,2018-02-21 07:00,ZGHA 210700Z 34004MPS 4000 -RA BR FEW005 BKN008 OVC050 07/06 Q1023 BECMG TL0800 BKN010 OVC050
ZGHA,2018-02-21 08:00,ZGHA 210800Z 35005MPS 8000 -RA FEW009 BKN014 OVC050 07/06 Q1022 BECMG TL0900 BKN015 OVC050
ZGHA,2018-02-21 09:00,ZGHA 210900Z 35005MPS 5000 -RA BR SCT009 BKN015 OVC050 07/05 Q1023 NOSIG
ZGHA,2018-02-21 10:00,ZGHA 211000Z 36005MPS 5000 -RA BR SCT009 BKN015 OVC050 07/05 Q1023 NOSIG
ZGHA,2018-02-21 11:00,ZGHA 211100Z 36005MPS 7000 FEW010 BKN025 OVC050 07/05 Q1023 NOSIG
ZGHA,2018-02-21 12:00,ZGHA 211200Z 36005MPS 6000 FEW008 BKN023 OVC050 07/05 Q1024 NOSIG
ZGHA,2018-02-21 13:00,ZGHA 211300Z 35004MPS 5000 BR FEW007 BKN020 OVC050 06/05 Q1025 NOSIG
ZGHA,2018-02-21 14:00,ZGHA 211400Z 35004MPS 5000 BR FEW006 BKN015 OVC050 07/05 Q1025 NOSIG
ZGHA,2018-02-21 15:00,ZGHA 211500Z 34004MPS 4500 BR BKN006 OVC050 07/05 Q1026 BECMG TL1640 BKN011 OVC040
ZGHA,2018-02-21 16:00,ZGHA 211600Z 02003MPS 4500 BR BKN006 OVC050 06/05 Q1025 NOSIG
ZGHA,2018-02-21 17:00,ZGHA 211700Z 35004MPS 4000 -RA BR BKN006 OVC050 06/05 Q1025 NOSIG
ZGHA,2018-02-21 18:00,ZGHA 211800Z 36004MPS 3200 -RA BR SCT005 BKN011 OVC050 06/05 Q1025 NOSIG
ZGHA,2018-02-21 19:00,ZGHA 211900Z 36004MPS 3500 -RA BR SCT005 BKN013 OVC050 06/05 Q1024 NOSIG
ZGHA,2018-02-21 20:00,ZGHA 212000Z 35004MPS 3000 -SHRA BR SCT004 BKN010 OVC040 06/05 Q1024 NOSIG
ZGHA,2018-02-21 21:00,ZGHA 212100Z 35005MPS 2700 -SHRA BR BKN004 FEW040CB BKN040 06/05 Q1024 NOSIG
ZGHA,2018-02-21 22:00,ZGHA 212200Z 35003MPS 3000 -SHRA BR BKN004 FEW040CB BKN040 06/05 Q1025 BECMG TL2345 BKN006 OVC050
ZGHA,2018-02-21 23:00,ZGHA 212300Z 33004MPS 3200 -SHRA BR FEW004 BKN006 OVC040 06/05 Q1027 BECMG TL0045 BKN011 OVC050
ZGHA,2018-02-22 00:00,ZGHA 220000Z 36004MPS 2100 -RA BR FEW006 BKN011 OVC040 06/05 Q1027 NOSIG
ZGHA,2018-02-22 01:00,ZGHA 220100Z 35003MPS 2000 -RA BR SCT007 BKN010 OVC040 06/05 Q1028 BECMG TL0200 BKN008 OVC050
ZGHA,2018-02-22 02:00,ZGHA 220200Z 01003MPS 2100 BR BKN008 OVC040 06/05 Q1029 BECMG TL0300 3500 BKN011 OVC050
ZGHA,2018-02-22 03:00,ZGHA 220300Z VRB01MPS 2500 BR BKN010 OVC040 07/06 Q1028 BECMG TL0400 3500 BKN016 OVC050
ZGHA,2018-02-22 04:00,ZGHA 220400Z 29002MPS 260V330 3000 BR BKN011 OVC040 08/05 Q1027 BECMG TL0500 BKN016 OVC050
ZGHA,2018-02-22 05:00,ZGHA 220500Z 29003MPS 260V320 3500 BR BKN012 OVC050 08/05 Q1026 BECMG TL0600 BKN016 OVC050
ZGHA,2018-02-22 06:00,ZGHA 220600Z 26002MPS 170V290 4000 BR BKN015 OVC050 08/05 Q1025 NOSIG
ZGHA,2018-02-22 07:00,ZGHA 220700Z VRB01MPS 4000 BR BKN016 BKN050 10/05 Q1024 NOSIG
ZGHA,2018-02-22 08:00,ZGHA 220800Z 27002MPS 220V340 5000 BR BKN016 OVC050 09/05 Q1024 NOSIG
ZGHA,2018-02-22 09:00,ZGHA 220900Z 26002MPS 240V320 6000 BKN020 BKN050 09/04 Q1024 NOSIG
ZGHA,2018-02-22 10:00,ZGHA 221000Z 33003MPS 7000 SCT026 09/03 Q1024 NOSIG
ZGHA,2018-02-22 11:00,ZGHA 221100Z 26002MPS 240V300 8000 NSC 08/03 Q1024 NOSIG
ZGHA,2018-02-22 12:00,ZGHA 221200Z VRB01MPS 7000 NSC 07/04 Q1025 BECMG TL1350 2700
ZGHA,2018-02-22 13:00,ZGHA 221300Z 11001MPS 4500 BR NSC 05/04 Q1025 BECMG TL1450 2700
ZGHA,2018-02-22 14:00,ZGHA 221400Z 14002MPS 4000 BR NSC 05/04 Q1026 BECMG TL1500 2700
ZGHA,2018-02-22 15:00,ZGHA 221500Z 00000MPS 3500 BR NSC 05/03 Q1026 BECMG TL1600 2700
ZGHA,2018-02-22 16:00,ZGHA 221600Z VRB01MPS 2700 BR NSC 04/02 Q1025 NOSIG
ZGHA,2018-02-22 17:00,ZGHA 221700Z VRB01MPS 2000 BR PRFG NSC 03/02 Q1025 BECMG TL1850 1300
ZGHA,2018-02-22 18:00,ZGHA 221800Z 00000MPS 2000 R18R/P2000 R18L/0450V0900D BR PRFG NSC 03/01 Q1025 BECMG 1300
ZGHA,2018-02-22 19:00,ZGHA 221900Z 21001MPS 2500 BR PRFG NSC 02/01 Q1024 NOSIG
ZGHA,2018-02-22 20:00,ZGHA 222000Z 15001MPS 2800 BR NSC 02/01 Q1023 NOSIG
ZGHA,2018-02-22 21:00,ZGHA 222100Z 05002MPS 1400 R18R/0375V0450N R18L/0350N BR PRFG SCT003 02/01 Q1023 NOSIG
ZGHA,2018-02-22 22:00,ZGHA 222200Z 07002MPS 0700 R18R/0375N R18L/0325N FG BKN002 01/01 Q1022 BECMG TL2300 0400
ZGHA,2018-02-22 23:00,ZGHA 222300Z 16001MPS 0450 R18R/0325V0450N R18L/0350N FG BKN002 01/M00 Q1023 NOSIG
ZGHA,2018-02-23 00:00,ZGHA 230000Z VRB01MPS 0200 R18R/0300N R18L/0225N FG BKN002 01/01 Q1023 BECMG TL0150 0600
ZGHA,2018-02-23 01:00,ZGHA 230100Z VRB01MPS 0250 R18R/0250N R18L/0250N FG BKN002 03/03 Q1023 BECMG TL0200 0600
ZGHA,2018-02-23 02:00,ZGHA 230200Z 17003MPS 6000 PRFG SCT003 07/07 Q1023 NOSIG
ZGHA,2018-02-23 03:00,ZGHA 230300Z 18004MPS 140V230 9999 SCT020 10/06 Q1023 NOSIG
ZGHA,2018-02-23 04:00,ZGHA 230400Z 17003MPS 120V220 9999 SCT030 12/06 Q1021 NOSIG
ZGHA,2018-02-23 05:00,ZGHA 230500Z 20004MPS 160V230 9999 SCT040 13/05 Q1020 NOSIG
ZGHA,2018-02-23 06:00,ZGHA 230600Z 17005MPS 100V200 9999 FEW030 14/06 Q1018 NOSIG
ZGHA,2018-02-23 07:00,ZGHA 230700Z 17004MPS 110V230 9999 FEW040 16/06 Q1017 NOSIG
ZGHA,2018-02-23 08:00,ZGHA 230800Z 19004MPS 130V220 CAVOK 16/06 Q1016 NOSIG
ZGHA,2018-02-23 09:00,ZGHA 230900Z 18004MPS CAVOK 16/06 Q1016 NOSIG
ZGHA,2018-02-23 10:00,ZGHA 231000Z 19003MPS CAVOK 15/06 Q1016 NOSIG
ZGHA,2018-02-23 11:00,ZGHA 231100Z 19003MPS CAVOK 14/07 Q1016 NOSIG
ZGHA,2018-02-23 12:00,ZGHA 231200Z 17003MPS 150V220 9999 BKN050 14/07 Q1017 NOSIG
ZGHA,2018-02-23 13:00,ZGHA 231300Z 16005MPS 140V210 9999 OVC050 14/06 Q1018 NOSIG
ZGHA,2018-02-23 14:00,ZGHA 231400Z 16005MPS CAVOK 13/07 Q1018 NOSIG
ZGHA,2018-02-23 15:00,ZGHA 231500Z 17003MPS 9999 OVC040 12/07 Q1018 NOSIG
ZGHA,2018-02-23 16:00,ZGHA 231600Z 17002MPS 160V220 9999 BKN040 12/07 Q1018 NOSIG
ZGHA,2018-02-23 17:00,ZGHA 231700Z 20003MPS 9999 OVC040 12/07 Q1018 NOSIG
ZGHA,2018-02-23 18:00,ZGHA 231800Z 19003MPS 9999 -RA OVC040 12/07 Q1018 NOSIG
ZGHA,2018-02-23 19:00,ZGHA 231900Z 20002MPS 180V240 9999 -RA OVC050 11/08 Q1018 NOSIG
ZGHA,2018-02-23 20:00,ZGHA 232000Z 19001MPS 7000 TSRA SCT033CB BKN033 11/08 Q1018 BECMG TL2100 -TSRA
ZGHA,2018-02-23 21:00,ZGHA 232100Z VRB01MPS 8000 -SHRA FEW033CB BKN033 11/08 Q1018 RETSRA NOSIG
ZGHA,2018-02-23 22:00,ZGHA 232200Z 34002MPS 4000 RA BR SCT005 OVC033 10/09 Q1019 BECMG TL2300 2900 -RA BR
ZGHA,2018-02-23 23:00,ZGHA 232300Z 02001MPS 2900 RA BR FEW005 BKN011 OVC033 10/09 Q1020 BECMG TL2400 3200 -RA BR
ZGHA,2018-02-24 00:00,ZGHA 240000Z 01002MPS 2200 -RA BR BKN004 OVC033 10/09 Q1020 RERA NOSIG
ZGHA,2018-02-24 01:00,ZGHA 240100Z 04002MPS 2800 -RA BR FEW003 BKN004 OVC033 10/09 Q1021 NOSIG
ZGHA,2018-02-24 02:00,ZGHA 240200Z 04002MPS 010V080 4000 -RA BR BKN004 OVC040 10/09 Q1022 BECMG TL0300 BKN005 OVC050
ZGHA,2018-02-24 03:00,ZGHA 240300Z 09001MPS 4500 -RA BR BKN004 OVC040 10/10 Q1022 BECMG TL0400 BKN005 OVC050
ZGHA,2018-02-24 04:00,ZGHA 240400Z 04002MPS 5000 BR BKN005 OVC040 11/10 Q1022 NOSIG
ZGHA,2018-02-24 05:00,ZGHA 240500Z VRB01MPS 7000 FEW006 BKN009 OVC050 12/11 Q1021 BECMG TL0600 BKN011 OVC050
ZGHA,2018-02-24 06:00,ZGHA 240600Z 00000MPS 9999 BKN011 OVC050 12/10 Q1020 BECMG TL0750 BKN015 OVC050
ZGHA,2018-02-24 07:00,ZGHA 240700Z 04002MPS 9999 BKN012 OVC050 13/10 Q1020 BECMG TL0800 BKN015 OVC050
ZGHA,2018-02-24 08:00,ZGHA 240800Z 33003MPS 9999 BKN015 OVC050 13/10 Q1020 NOSIG
ZGHA,2018-02-24 09:00,ZGHA 240900Z 33003MPS 280V360 8000 FEW011 BKN020 OVC050 13/10 Q1021 NOSIG
ZGHA,2018-02-24 10:00,ZGHA 241000Z 34003MPS 7000 FEW011 BKN020 OVC050 13/10 Q1022 NOSIG
ZGHA,2018-02-24 11:00,ZGHA 241100Z 34004MPS 7000 BKN030 12/10 Q1022 NOSIG
ZGHA,2018-02-24 12:00,ZGHA 241200Z 36004MPS 6000 SCT033 12/10 Q1023 NOSIG
ZGHA,2018-02-24 13:00,ZGHA 241300Z 02002MPS 6000 SCT040 12/10 Q1023 NOSIG
ZGHA,2018-02-24 14:00,ZGHA 241400Z 36004MPS 6000 OVC040 12/10 Q1024 NOSIG
ZGHA,2018-02-24 15:00,ZGHA 241500Z 36002MPS 6000 OVC050 12/09 Q1024 NOSIG
ZGHA,2018-02-24 16:00,ZGHA 241600Z 36004MPS 6000 OVC050 11/09 Q1024 NOSIG
ZGHA,2018-02-24 17:00,ZGHA 241700Z 36004MPS 5000 BR NSC 11/09 Q1025 NOSIG
ZGHA,2018-02-24 18:00,ZGHA 241800Z 01002MPS 4000 BR NSC 10/09 Q1024 NOSIG
ZGHA,2018-02-24 19:00,ZGHA 241900Z 36002MPS 4000 BR NSC 10/08 Q1024 NOSIG
ZGHA,2018-02-24 20:00,ZGHA 242000Z 35004MPS 3500 BR FEW008 09/07 Q1024 NOSIG
ZGHA,2018-02-24 21:00,ZGHA 242100Z 35003MPS 2700 BR NSC 08/07 Q1024 NOSIG
ZGHA,2018-02-24 22:00,ZGHA 242200Z 33004MPS 3200 BR SCT012 08/07 Q1025 NOSIG
ZGHA,2018-02-24 23:00,ZGHA 242300Z 32003MPS 2700 BR BKN013 08/06 Q1026 BECMG TL0050 3500 BKN020
ZGHA,2018-02-25 00:00,ZGHA 250000Z 33004MPS 2700 BR BKN013 08/06 Q1027 BECMG TL0050 3500 BKN020
ZGHA,2018-02-25 01:00,ZGHA 250100Z 33003MPS 280V360 3200 BR SCT008 BKN010 08/06 Q1027 BECMG TL0200 2900 BKN015
ZGHA,2018-02-25 02:00,ZGHA 250200Z 32004MPS 290V360 2900 BR SCT009 BKN016 09/06 Q1028 BECMG TL0300 3500
ZGHA,2018-02-25 03:00,ZGHA 250300Z 32004MPS 4000 BR SCT014 BKN018 10/05 Q1028 NOSIG
ZGHA,2018-02-25 04:00,ZGHA 250400Z 31004MPS 280V340 4200 BR BKN023 11/06 Q1027 NOSIG
ZGHA,2018-02-25 05:00,ZGHA 250500Z 30003MPS 210V010 4500 HZ BKN021 13/07 Q1026 NOSIG
ZGHA,2018-02-25 06:00,ZGHA 250600Z 35003MPS 310V030 4500 HZ BKN028 14/06 Q1025 NOSIG
ZGHA,2018-02-25 07:00,ZGHA 250700Z 07002MPS 030V110 4500 HZ BKN028 14/06 Q1024 NOSIG
ZGHA,2018-02-25 08:00,ZGHA 250800Z 35002MPS 290V030 6000 FEW026 15/06 Q1023 NOSIG
ZGHA,2018-02-25 09:00,ZGHA 250900Z 02002MPS 330V100 6000 FEW030 15/06 Q1023 NOSIG
ZGHA,2018-02-25 10:00,ZGHA 251000Z 31003MPS 5000 HZ NSC 14/06 Q1023 NOSIG
ZGHA,2018-02-25 11:00,ZGHA 251100Z 29003MPS 6000 NSC 12/06 Q1023 NOSIG
ZGHA,2018-02-25 12:00,ZGHA 251200Z 30002MPS 5000 HZ FEW030 11/06 Q1024 NOSIG
ZGHA,2018-02-25 13:00,ZGHA 251300Z 00000MPS 5000 BR NSC 11/06 Q1024 NOSIG
ZGHA,2018-02-25 14:00,ZGHA 251400Z 04001MPS 4500 BR NSC 09/07 Q1025 NOSIG
ZGHA,2018-02-25 15:00,ZGHA 251500Z 08001MPS 4500 BR NSC 09/06 Q1024 NOSIG
ZGHA,2018-02-25 16:00,ZGHA 251600Z VRB01MPS 4200 BR NSC 08/06 Q1024 NOSIG
ZGHA,2018-02-25 17:00,ZGHA 251700Z VRB01MPS 4200 BR NSC 07/06 Q1024 NOSIG
ZGHA,2018-02-25 18:00,ZGHA 251800Z VRB01MPS 4000 BR NSC 07/05 Q1023 NOSIG
ZGHA,2018-02-25 19:00,ZGHA 251900Z 22001MPS 2700 R36L/1400U R36R/P2000 BR NSC 06/05 Q1023 BECMG TL2050 1200
ZGHA,2018-02-25 20:00,ZGHA 252000Z 00000MPS 2000 R36L/1100U R36R/0650U BR PRFG NSC 05/04 Q1023 NOSIG
ZGHA,2018-02-25 21:00,ZGHA 252100Z 01001MPS 2200 R36L/0175N R36R/0175N BR PRFG NSC 05/04 Q1023 BECMG TL2200 0600 FG
ZGHA,2018-02-25 22:00,ZGHA 252200Z VRB01MPS 2800 R18R/P2000 R18L/1200U BR PRFG NSC 04/03 Q1024 BECMG TL2350 3200
ZGHA,2018-02-25 23:00,ZGHA 252300Z 00000MPS 1800 R18R/P2000 R18L/1300U BR PRFG NSC 04/03 Q1024 BECMG TL0050 3200
ZGHA,2018-02-26 00:00,ZGHA 260000Z 00000MPS 2500 BR PRFG NSC 04/04 Q1024 BECMG TL0100 3200
ZGHA,2018-02-26 01:00,ZGHA 260100Z VRB01MPS 3500 BR NSC 08/07 Q1025 NOSIG
ZGHA,2018-02-26 02:00,ZGHA 260200Z VRB01MPS 6000 NSC 11/09 Q1025 NOSIG
ZGHA,2018-02-26 03:00,ZGHA 260300Z VRB02MPS 8000 NSC 15/06 Q1024 NOSIG
ZGHA,2018-02-26 04:00,ZGHA 260400Z 15004MPS 080V190 CAVOK 16/05 Q1023 NOSIG
ZGHA,2018-02-26 05:00,ZGHA 260500Z 14003MPS 080V190 CAVOK 18/05 Q1021 NOSIG
ZGHA,2018-02-26 06:00,ZGHA 260600Z 13003MPS 100V210 CAVOK 19/05 Q1020 NOSIG
ZGHA,2018-02-26 07:00,ZGHA 260700Z 17004MPS 130V220 CAVOK 19/04 Q1018 NOSIG
ZGHA,2018-02-26 08:00,ZGHA 260800Z VRB03MPS CAVOK 19/05 Q1018 NOSIG
ZGHA,2018-02-26 09:00,ZGHA 260900Z 14003MPS 110V190 CAVOK 19/05 Q1017 NOSIG
ZGHA,2018-02-26 10:00,ZGHA 261000Z 15003MPS 130V200 CAVOK 18/04 Q1017 NOSIG
ZGHA,2018-02-26 11:00,ZGHA 261100Z 12003MPS 090V150 CAVOK 16/06 Q1018 NOSIG
ZGHA,2018-02-26 12:00,ZGHA 261200Z 12002MPS 050V190 CAVOK 15/06 Q1018 NOSIG
ZGHA,2018-02-26 13:00,ZGHA 261300Z 10002MPS 060V130 CAVOK 13/07 Q1019 NOSIG
ZGHA,2018-02-26 14:00,ZGHA 261400Z 00000MPS CAVOK 12/07 Q1019 NOSIG
ZGHA,2018-02-26 15:00,ZGHA 261500Z VRB01MPS CAVOK 13/07 Q1018 NOSIG
ZGHA,2018-02-26 16:00,ZGHA 261600Z 16002MPS 130V190 CAVOK 13/07 Q1018 NOSIG
ZGHA,2018-02-26 17:00,ZGHA 261700Z 14002MPS 110V200 CAVOK 13/08 Q1018 NOSIG
ZGHA,2018-02-26 18:00,ZGHA 261800Z 20002MPS CAVOK 13/08 Q1017 NOSIG
ZGHA,2018-02-26 19:00,ZGHA 261900Z 17002MPS CAVOK 13/08 Q1017 NOSIG
ZGHA,2018-02-26 20:00,ZGHA 262000Z 18004MPS CAVOK 13/08 Q1016 NOSIG
ZGHA,2018-02-26 21:00,ZGHA 262100Z 15003MPS CAVOK 13/07 Q1016 NOSIG
ZGHA,2018-02-26 22:00,ZGHA 262200Z VRB01MPS 9999 OVC050 12/08 Q1016 NOSIG
ZGHA,2018-02-26 23:00,ZGHA 262300Z VRB01MPS CAVOK 12/08 Q1015 NOSIG
ZGHA,2018-02-27 00:00,ZGHA 270000Z 19002MPS CAVOK 13/08 Q1015 NOSIG
ZGHA,2018-02-27 01:00,ZGHA 270100Z VRB01MPS 9999 BKN050 14/08 Q1015 NOSIG
ZGHA,2018-02-27 02:00,ZGHA 270200Z 17002MPS 9999 BKN050 15/08 Q1015 NOSIG
ZGHA,2018-02-27 03:00,ZGHA 270300Z 17004MPS 9999 SCT050 16/09 Q1014 NOSIG
ZGHA,2018-02-27 04:00,ZGHA 270400Z 16003MPS 130V210 CAVOK 18/09 Q1013 NOSIG
ZGHA,2018-02-27 05:00,ZGHA 270500Z 18004MPS CAVOK 20/11 Q1012 NOSIG
ZGHA,2018-02-27 06:00,ZGHA 270600Z 20004MPS CAVOK 20/11 Q1010 NOSIG
ZGHA,2018-02-27 07:00,ZGHA 270700Z 20004MPS 170V240 CAVOK 20/11 Q1010 NOSIG
ZGHA,2018-02-27 08:00,ZGHA 270800Z 16002MPS 140V220 CAVOK 20/12 Q1009 NOSIG
ZGHA,2018-02-27 09:00,ZGHA 270900Z 21002MPS CAVOK 20/13 Q1008 NOSIG
ZGHA,2018-02-27 10:00,ZGHA 271000Z 21002MPS 180V260 9000 -RA BKN040 20/13 Q1009 NOSIG
ZGHA,2018-02-27 11:00,ZGHA 271100Z VRB02MPS 9000 -SHRA BKN050 18/15 Q1009 BECMG TL1130 TSRA
ZGHA,2018-02-27 12:00,ZGHA 271200Z 07002MPS 8000 BKN050 17/15 Q1009 NOSIG
ZGHA,2018-02-27 13:00,ZGHA 271300Z 36002MPS 6000 FEW050CB BKN050 17/15 Q1009 RETS NOSIG
ZGHA,2018-02-27 14:00,ZGHA 271400Z 32004MPS 5000 -RA BR OVC050 16/14 Q1009 NOSIG
ZGHA,2018-02-27 15:00,ZGHA 271500Z 30005MPS 5000 BR FEW007 OVC040 15/13 Q1011 NOSIG
ZGHA,2018-02-27 16:00,ZGHA 271600Z 35006MPS 8000 SHRA BKN007 SCT040CB BKN040 14/13 Q1012 BECMG TL1700 -SHRA
ZGHA,2018-02-27 17:00,ZGHA 271700Z 36004MPS 320V020 8000 SHRA BKN007 SCT040CB BKN040 13/12 Q1013 BECMG TL1800 -SHRA
ZGHA,2018-02-27 18:00,ZGHA 271800Z 36005MPS 9999 FEW007 OVC040 12/11 Q1012 RESHRA NOSIG
ZGHA,2018-02-27 19:00,ZGHA 271900Z 35006MPS 9999 FEW007 BKN050 12/11 Q1013 NOSIG
ZGHA,2018-02-27 20:00,ZGHA 272000Z 34006MPS 9999 BKN016 12/11 Q1014 NOSIG
ZGHA,2018-02-27 21:00,ZGHA 272100Z 34004MPS 9999 BKN022 12/10 Q1015 NOSIG
ZGHA,2018-02-27 22:00,ZGHA 272200Z 33004MPS 9999 BKN020 12/10 Q1016 NOSIG
ZGHA,2018-02-27 23:00,ZGHA 272300Z 34003MPS CAVOK 11/09 Q1017 NOSIG
ZGHA,2018-02-28 00:00,ZGHA 280000Z 33004MPS CAVOK 12/10 Q1017 NOSIG
ZGHA,2018-02-28 01:00,ZGHA 280100Z 35005MPS 9999 SCT015 14/09 Q1018 NOSIG
ZGHA,2018-02-28 02:00,ZGHA 280200Z 36006MPS 9999 SCT020 14/08 Q1019 NOSIG
ZGHA,2018-02-28 03:00,ZGHA 280300Z 36003MPS 310V030 9999 SCT023 16/09 Q1019 NOSIG
ZGHA,2018-02-28 04:00,ZGHA 280400Z 34002MPS 290V020 9999 SCT026 17/09 Q1018 NOSIG
ZGHA,2018-02-28 05:00,ZGHA 280500Z 33003MPS 260V030 9999 FEW030 19/09 Q1017 NOSIG
ZGHA,2018-02-28 06:00,ZGHA 280600Z 02003MPS 320V060 CAVOK 19/09 Q1016 NOSIG
ZGHA,2018-02-28 07:00,ZGHA 280700Z VRB02MPS CAVOK 20/08 Q1015 NOSIG
ZGHA,2018-02-28 08:00,ZGHA 280800Z VRB02MPS CAVOK 20/08 Q1015 NOSIG
ZGHA,2018-02-28 09:00,ZGHA 280900Z 31002MPS 260V030 CAVOK 20/08 Q1014 NOSIG
ZGHA,2018-02-28 10:00,ZGHA 281000Z VRB01MPS CAVOK 20/07 Q1013 NOSIG
ZGHA,2018-02-28 11:00,ZGHA 281100Z VRB01MPS CAVOK 18/09 Q1014 NOSIG
ZGHA,2018-02-28 12:00,ZGHA 281200Z VRB01MPS CAVOK 17/09 Q1014 NOSIG
ZGHA,2018-02-28 13:00,ZGHA 281300Z 21002MPS 190V260 CAVOK 15/10 Q1014 NOSIG
ZGHA,2018-02-28 14:00,ZGHA 281400Z VRB01MPS CAVOK 14/10 Q1014 NOSIG
ZGHA,2018-02-28 15:00,ZGHA 281500Z 15002MPS 130V210 8000 NSC 13/10 Q1013 NOSIG
ZGHA,2018-02-28 16:00,ZGHA 281600Z VRB01MPS 8000 NSC 13/10 Q1013 NOSIG
ZGHA,2018-02-28 17:00,ZGHA 281700Z VRB01MPS 7000 NSC 12/10 Q1013 NOSIG
ZGHA,2018-02-28 18:00,ZGHA 281800Z VRB01MPS 7000 NSC 12/10 Q1013 NOSIG
ZGHA,2018-02-28 19:00,ZGHA 281900Z VRB01MPS 7000 NSC 12/10 Q1012 NOSIG
ZGHA,2018-02-28 20:00,ZGHA 282000Z 11001MPS 7000 NSC 12/10 Q1012 NOSIG
ZGHA,2018-02-28 21:00,ZGHA 282100Z VRB01MPS 9000 NSC 13/10 Q1012 NOSIG
ZGHA,2018-02-28 22:00,ZGHA 282200Z 07002MPS 9000 NSC 13/10 Q1012 NOSIG
ZGHA,2018-02-28 23:00,ZGHA 282300Z 36002MPS CAVOK 13/10 Q1012 NOSIG
ZGHA,2018-03-01 00:00,ZGHA 010000Z 02002MPS CAVOK 14/10 Q1012 NOSIG
ZGHA,2018-03-01 01:00,ZGHA 010100Z 05002MPS 020V090 9999 SCT040 15/10 Q1013 NOSIG
ZGHA,2018-03-01 02:00,ZGHA 010200Z VRB01MPS CAVOK 17/11 Q1013 NOSIG
ZGHA,2018-03-01 03:00,ZGHA 010300Z VRB01MPS CAVOK 21/11 Q1012 NOSIG
ZGHA,2018-03-01 04:00,ZGHA 010400Z 28002MPS 230V350 CAVOK 22/12 Q1011 NOSIG
ZGHA,2018-03-01 05:00,ZGHA 010500Z 16004MPS CAVOK 23/12 Q1009 NOSIG
ZGHA,2018-03-01 06:00,ZGHA 010600Z 19003MPS 160V220 CAVOK 23/12 Q1008 NOSIG
ZGHA,2018-03-01 07:00,ZGHA 010700Z 19002MPS 170V240 CAVOK 23/12 Q1008 NOSIG
ZGHA,2018-03-01 08:00,ZGHA 010800Z VRB01MPS CAVOK 23/13 Q1007 NOSIG
ZGHA,2018-03-01 09:00,ZGHA 010900Z 17002MPS 130V220 CAVOK 24/13 Q1007 NOSIG
ZGHA,2018-03-01 10:00,ZGHA 011000Z VRB01MPS CAVOK 23/13 Q1007 NOSIG
ZGHA,2018-03-01 11:00,ZGHA 011100Z 36005MPS CAVOK 20/14 Q1008 NOSIG
ZGHA,2018-03-01 12:00,ZGHA 011200Z 33006MPS 9999 -SHRA FEW050CB BKN050 18/14 Q1010 NOSIG
ZGHA,2018-03-01 13:00,ZGHA 011300Z 32005MPS 6000 BKN017 OVC050 16/12 Q1011 NOSIG
ZGHA,2018-03-01 14:00,ZGHA 011400Z 33006MPS 5000 BR BKN011 OVC050 14/11 Q1013 BECMG TL1550 BKN009 OVC050
ZGHA,2018-03-01 15:00,ZGHA 011500Z 32004MPS 4500 BR BKN008 OVC050 13/11 Q1013 BECMG TL1650 BKN011 OVC050
ZGHA,2018-03-01 16:00,ZGHA 011600Z 33005MPS 300V360 5000 -SHRA BR BKN010 OVC050 12/10 Q1014 BECMG TL1700 BKN009 OVC050
ZGHA,2018-03-01 17:00,ZGHA 011700Z 32004MPS 5000 -SHRA BR BKN008 OVC050 12/10 Q1014 NOSIG
ZGHA,2018-03-01 18:00,ZGHA 011800Z 33005MPS 5000 -SHRA BR BKN006 OVC050 12/10 Q1014 NOSIG
ZGHA,2018-03-01 19:00,ZGHA 011900Z 33005MPS 5000 BR BKN006 OVC050 11/10 Q1014 NOSIG
ZGHA,2018-03-01 20:00,ZGHA 012000Z 32004MPS 4000 BR BKN006 OVC050 11/10 Q1014 NOSIG
ZGHA,2018-03-01 21:00,ZGHA 012100Z 33004MPS 300V360 4000 -RA BR BKN006 OVC050 11/09 Q1014 NOSIG
ZGHA,2018-03-01 22:00,ZGHA 012200Z 35003MPS 5000 BR BKN008 OVC050 11/09 Q1014 BECMG TL2350 BKN011 OVC050
ZGHA,2018-03-01 23:00,ZGHA 012300Z 36004MPS 3000 BR BKN006 OVC050 10/09 Q1014 BECMG TL0050 BKN011 OVC050
ZGHA,2018-03-02 00:00,ZGHA 020000Z 35003MPS 320V020 2500 BR BKN007 OVC050 11/09 Q1015 BECMG TL0100 3200
ZGHA,2018-03-02 01:00,ZGHA 020100Z 02003MPS 2700 BR BKN007 OVC050 11/09 Q1015 BECMG TL0200 3200
ZGHA,2018-03-02 02:00,ZGHA 020200Z 03002MPS 350V060 3200 BR BKN008 OVC050 11/09 Q1015 BECMG TL0340 BKN011 OVC050
ZGHA,2018-03-02 03:00,ZGHA 020300Z 28002MPS 3500 BR BKN008 OVC050 12/09 Q1014 BECMG TL0400 BKN011 OVC050
ZGHA,2018-03-02 04:00,ZGHA 020400Z 04002MPS 350V070 3800 BR BKN010 OVC050 12/09 Q1013 BECMG TL0540 BKN016 OVC050
ZGHA,2018-03-02 05:00,ZGHA 020500Z 24002MPS 180V300 4000 BR BKN011 OVC050 13/09 Q1012 NOSIG
ZGHA,2018-03-02 06:00,ZGHA 020600Z 31001MPS 4500 BR BKN015 OVC050 15/10 Q1011 NOSIG
ZGHA,2018-03-02 07:00,ZGHA 020700Z 34002MPS 290V030 4000 BR BKN015 OVC050 14/10 Q1010 NOSIG
ZGHA,2018-03-02 08:00,ZGHA 020800Z 02002MPS 340V060 4000 BR BKN015 OVC050 14/10 Q1009 NOSIG
ZGHA,2018-03-02 09:00,ZGHA 020900Z 36002MPS 4000 BR BKN013 OVC050 14/10 Q1009 BECMG TL1040 BKN016 OVC050
ZGHA,2018-03-02 10:00,ZGHA 021000Z 32004MPS 3500 BR BKN011 OVC050 13/10 Q1009 BECMG TL1100 2800 BKN009 OVC050
ZGHA,2018-03-02 11:00,ZGHA 021100Z 34004MPS 310V010 3500 BR FEW006 BKN009 OVC050 12/10 Q1010 BECMG TL1240 BKN011 OVC050
ZGHA,2018-03-02 12:00,ZGHA 021200Z 02004MPS 3500 BR FEW005 BKN008 OVC050 12/10 Q1010 BECMG TL1340 BKN011 OVC050
ZGHA,2018-03-02 13:00,ZGHA 021300Z 35004MPS 4000 BR FEW005 BKN008 OVC050 12/10 Q1010 BECMG TL1440 BKN011 OVC050
ZGHA,2018-03-02 14:00,ZGHA 021400Z 35004MPS 4000 BR FEW005 BKN010 OVC050 12/10 Q1011 BECMG TL1500 BKN009 OVC050
ZGHA,2018-03-02 15:00,ZGHA 021500Z 34004MPS 4000 BR BKN010 OVC050 12/10 Q1011 BECMG TL1600 BKN009 OVC050
ZGHA,2018-03-02 16:00,ZGHA 021600Z 33003MPS 280V360 3500 BR FEW005 BKN008 OVC050 12/10 Q1010 NOSIG
ZGHA,2018-03-02 17:00,ZGHA 021700Z 34003MPS 3300 BR FEW004 BKN008 OVC050 12/10 Q1011 NOSIG
ZGHA,2018-03-02 18:00,ZGHA 021800Z VRB01MPS 3000 BR BKN006 OVC050 12/10 Q1010 NOSIG
ZGHA,2018-03-02 19:00,ZGHA 021900Z 28001MPS 2800 BR FEW005 BKN007 OVC050 12/10 Q1009 NOSIG
ZGHA,2018-03-02 20:00,ZGHA 022000Z VRB01MPS 2500 BR FEW005 BKN007 OVC050 12/10 Q1009 NOSIG
ZGHA,2018-03-02 21:00,ZGHA 022100Z 19001MPS 2500 BR FEW004 BKN007 OVC050 12/10 Q1009 NOSIG
ZGHA,2018-03-02 22:00,ZGHA 022200Z 22002MPS 2500 BR FEW005 BKN009 12/10 Q1009 NOSIG
ZGHA,2018-03-02 23:00,ZGHA 022300Z 21003MPS 2000 BR FEW006 BKN011 12/10 Q1009 BECMG TL0040 3000 BKN016 OVC050
ZGHA,2018-03-03 00:00,ZGHA 030000Z 19002MPS 160V280 1800 BR FEW006 BKN011 12/11 Q1010 BECMG TL0100 3000 BKN016 OVC050
ZGHA,2018-03-03 01:00,ZGHA 030100Z 16002MPS 140V210 2400 BR FEW007 BKN020 13/11 Q1010 BECMG TL0200 3000
ZGHA,2018-03-03 02:00,ZGHA 030200Z 19002MPS 140V240 3500 BR SCT020 17/12 Q1010 NOSIG
ZGHA,2018-03-03 03:00,ZGHA 030300Z 19002MPS 170V230 5000 HZ NSC 19/13 Q1010 NOSIG
ZGHA,2018-03-03 04:00,ZGHA 030400Z 17003MPS 120V210 6000 NSC 21/13 Q1008 NOSIG
ZGHA,2018-03-03 05:00,ZGHA 030500Z 21004MPS 170V240 7000 NSC 23/14 Q1007 NOSIG
ZGHA,2018-03-03 06:00,ZGHA 030600Z 18003MPS 130V230 8000 NSC 25/15 Q1005 NOSIG
ZGHA,2018-03-03 07:00,ZGHA 030700Z 20004MPS 170V250 8000 FEW040 26/16 Q1004 NOSIG
ZGHA,2018-03-03 08:00,ZGHA 030800Z 20004MPS 170V230 9000 NSC 27/16 Q1003 NOSIG
ZGHA,2018-03-03 09:00,ZGHA 030900Z 16004MPS 130V200 9000 FEW040 27/16 Q1003 NOSIG
ZGHA,2018-03-03 10:00,ZGHA 031000Z 14002MPS 100V190 9999 FEW040 27/16 Q1002 NOSIG
ZGHA,2018-03-03 11:00,ZGHA 031100Z 14002MPS 120V180 CAVOK 24/17 Q1002 NOSIG
ZGHA,2018-03-03 12:00,ZGHA 031200Z 13003MPS CAVOK 23/16 Q1003 NOSIG
ZGHA,2018-03-03 13:00,ZGHA 031300Z 14003MPS 100V180 CAVOK 23/15 Q1003 NOSIG
ZGHA,2018-03-03 14:00,ZGHA 031400Z 15004MPS 120V180 CAVOK 23/15 Q1004 NOSIG
ZGHA,2018-03-03 15:00,ZGHA 031500Z 15005MPS CAVOK 23/15 Q1004 NOSIG
ZGHA,2018-03-03 16:00,ZGHA 031600Z 15006MPS CAVOK 22/16 Q1003 NOSIG
ZGHA,2018-03-03 17:00,ZGHA 031700Z 15006MPS CAVOK 22/16 Q1003 NOSIG
ZGHA,2018-03-03 18:00,ZGHA 031800Z 15004MPS CAVOK 22/16 Q1003 NOSIG
ZGHA,2018-03-03 19:00,ZGHA 031900Z 15004MPS CAVOK 22/16 Q1003 NOSIG
ZGHA,2018-03-03 20:00,ZGHA 032000Z 15003MPS CAVOK 21/16 Q1002 NOSIG
ZGHA,2018-03-03 21:00,ZGHA 032100Z 16002MPS CAVOK 21/16 Q1002 NOSIG
ZGHA,2018-03-03 22:00,ZGHA 032200Z 16005MPS CAVOK 22/16 Q1003 NOSIG
ZGHA,2018-03-03 23:00,ZGHA 032300Z 16006MPS CAVOK 22/16 Q1003 NOSIG
ZGHA,2018-03-04 00:00,ZGHA 040000Z 17006MPS CAVOK 23/16 Q1003 NOSIG
ZGHA,2018-03-04 01:00,ZGHA 040100Z 16007MPS CAVOK 25/17 Q1003 NOSIG
ZGHA,2018-03-04 02:00,ZGHA 040200Z 18006MPS 150V210 CAVOK 27/17 Q1004 NOSIG
ZGHA,2018-03-04 03:00,ZGHA 040300Z 19008MPS CAVOK 28/17 Q1004 NOSIG
ZGHA,2018-03-04 04:00,ZGHA 040400Z 20008MPS 160V220 CAVOK 28/17 Q1004 NOSIG
ZGHA,2018-03-04 05:00,ZGHA 040500Z 21010G16MPS 9999 SCT040 27/15 Q1004 BECMG TL0650 BKN014 OVC050
ZGHA,2018-03-04 06:00,ZGHA 040600Z 18006MPS 9999 -RA FEW040 21/17 Q1003 NOSIG
ZGHA,2018-03-04 07:00,ZGHA 040700Z 20005MPS 9999 -RA SCT050 21/17 Q1003 NOSIG
ZGHA,2018-03-04 08:00,ZGHA 040800Z 16004MPS 140V200 CAVOK 21/17 Q1002 NOSIG
ZGHA,2018-03-04 09:00,ZGHA 040900Z 31003MPS 9999 -RA NSC 21/17 Q1004 NOSIG
ZGHA,2018-03-04 10:00,ZGHA 041000Z 25002MPS 140V290 CAVOK 22/16 Q1004 NOSIG
ZGHA,2018-03-04 11:00,ZGHA 041100Z 30006MPS 6000 BKN026 18/14 Q1006 NOSIG
ZGHA,2018-03-04 12:00,ZGHA 041200Z 32006MPS 5000 -TSRA BR BKN011 FEW040CB BKN040 16/14 Q1007 BECMG TL1300 BKN008 FEW040CB OVC050
ZGHA,2018-03-04 13:00,ZGHA 041300Z 32007MPS 7000 -SHRA BKN008 FEW050CB BKN050 16/14 Q1009 RETS NOSIG
ZGHA,2018-03-04 14:00,ZGHA 041400Z 32004MPS 290V350 9000 -SHRA BKN010 FEW050CB BKN050 14/12 Q1011 NOSIG
ZGHA,2018-03-04 15:00,ZGHA 041500Z 34008MPS 9000 BKN010 OVC050 13/11 Q1012 NOSIG
ZGHA,2018-03-04 16:00,ZGHA 041600Z 34010MPS 9999 BKN015 OVC050 12/09 Q1014 NOSIG
ZGHA,2018-03-04 17:00,ZGHA 041700Z 34009MPS 8000 BKN013 OVC050 12/09 Q1015 NOSIG
ZGHA,2018-03-04 18:00,ZGHA 041800Z 34011G16MPS 9999 BKN016 OVC050 11/07 Q1016 NOSIG
ZGHA,2018-03-04 19:00,ZGHA 041900Z 35009MPS 9999 BKN016 OVC050 11/07 Q1017 NOSIG
ZGHA,2018-03-04 20:00,ZGHA 042000Z 35009MPS 9999 BKN016 OVC050 10/07 Q1017 NOSIG
ZGHA,2018-03-04 21:00,ZGHA 042100Z 36009MPS 9999 BKN016 OVC050 10/06 Q1017 NOSIG
ZGHA,2018-03-04 22:00,ZGHA 042200Z 36009MPS 9999 BKN017 OVC050 10/06 Q1019 NOSIG
ZGHA,2018-03-04 23:00,ZGHA 042300Z 36008MPS 9999 BKN018 OVC050 10/06 Q1020 NOSIG
ZGHA,2018-03-05 00:00,ZGHA 050000Z 36007MPS 9999 BKN016 OVC050 10/06 Q1021 NOSIG
ZGHA,2018-03-05 01:00,ZGHA 050100Z 36006MPS 9999 BKN015 OVC040 10/06 Q1022 NOSIG
ZGHA,2018-03-05 02:00,ZGHA 050200Z 36008MPS 8000 BKN015 OVC040 10/06 Q1022 NOSIG
ZGHA,2018-03-05 03:00,ZGHA 050300Z 35006MPS 9999 BKN016 OVC050 11/06 Q1023 NOSIG
ZGHA,2018-03-05 04:00,ZGHA 050400Z 36007MPS 9999 BKN020 OVC050 12/06 Q1022 NOSIG
ZGHA,2018-03-05 05:00,ZGHA 050500Z 35008MPS 9999 BKN016 OVC050 11/06 Q1022 NOSIG
ZGHA,2018-03-05 06:00,ZGHA 050600Z 36004MPS 9999 BKN020 OVC050 12/06 Q1021 NOSIG
ZGHA,2018-03-05 07:00,ZGHA 050700Z 34004MPS 9999 BKN020 OVC050 12/06 Q1021 NOSIG
ZGHA,2018-03-05 08:00,ZGHA 050800Z 36007MPS 9999 BKN020 OVC050 11/06 Q1021 NOSIG
ZGHA,2018-03-05 09:00,ZGHA 050900Z 01006MPS 9999 BKN020 OVC050 11/06 Q1021 BECMG TL0920 SHRA
ZGHA,2018-03-05 10:00,ZGHA 051000Z 34004MPS 6000 -RA BKN016 OVC050 10/08 Q1022 NOSIG
ZGHA,2018-03-05 11:00,ZGHA 051100Z 34005MPS 6000 BKN016 OVC050 10/08 Q1022 NOSIG
ZGHA,2018-03-05 12:00,ZGHA 051200Z 35004MPS 6000 BKN016 OVC050 10/08 Q1023 NOSIG
ZGHA,2018-03-05 13:00,ZGHA 051300Z 35004MPS 5000 -RA BR FEW008 BKN020 OVC050 10/08 Q1023 NOSIG
ZGHA,2018-03-05 14:00,ZGHA 051400Z 35004MPS 4500 BR FEW007 BKN016 OVC050 09/08 Q1023 BECMG TL1540 FEW007 BKN014 OVC050
ZGHA,2018-03-05 15:00,ZGHA 051500Z 36003MPS 4000 -SHRA BR SCT008 FEW050CB BKN050 10/08 Q1023 BECMG TL1600 SCT007 BKN014 OVC050
ZGHA,2018-03-05 16:00,ZGHA 051600Z 36003MPS 4000 -RA BR SCT007 BKN014 OVC050 10/08 Q1023 NOSIG
ZGHA,2018-03-05 17:00,ZGHA 051700Z 36003MPS 320V040 3500 -SHRA BR SCT007 BKN014 OVC050 10/08 Q1024 NOSIG
ZGHA,2018-03-05 18:00,ZGHA 051800Z 35003MPS 4000 -RA BR SCT004 BKN013 OVC050 09/08 Q1023 NOSIG
ZGHA,2018-03-05 19:00,ZGHA 051900Z 36002MPS 4000 BR FEW005 BKN013 OVC050 10/08 Q1023 NOSIG
ZGHA,2018-03-05 20:00,ZGHA 052000Z 01002MPS 4000 BR FEW005 BKN013 OVC050 10/08 Q1023 NOSIG
ZGHA,2018-03-05 21:00,ZGHA 052100Z 04003MPS 4000 BR SCT005 BKN010 OVC050 10/08 Q1022 NOSIG
ZGHA,2018-03-05 22:00,ZGHA 052200Z 03003MPS 360V060 3500 BR SCT005 BKN011 OVC050 10/08 Q1021 NOSIG
ZGHA,2018-03-05 23:00,ZGHA 052300Z 07002MPS 6000 FEW006 BKN014 OVC050 09/07 Q1022 BECMG TL2400 BKN015 OVC050
ZGHA,2018-03-06 00:00,ZGHA 060000Z 02002MPS 320V050 7000 SCT008 BKN016 OVC050 09/07 Q1022 NOSIG
ZGHA,2018-03-06 01:00,ZGHA 060100Z 03002MPS 8000 BKN015 OVC050 10/07 Q1023 BECMG TL0200 BKN014 OVC050
ZGHA,2018-03-06 02:00,ZGHA 060200Z 01002MPS 8000 -RA BKN026 OVC050 10/08 Q1023 NOSIG
ZGHA,2018-03-06 03:00,ZGHA 060300Z 01002MPS 4000 -RA BR FEW007 BKN016 OVC050 10/08 Q1024 BECMG TL0400 SCT008 BKN014 OVC050
ZGHA,2018-03-06 04:00,ZGHA 060400Z 01003MPS 3000 -RA BR FEW005 BKN012 OVC050 11/09 Q1023 BECMG TL0500 2800 BKN009 OVC050
ZGHA,2018-03-06 05:00,ZGHA 060500Z 01003MPS 2400 -RA BR FEW005 BKN009 OVC050 10/09 Q1022 BECMG TL0650 3000
ZGHA,2018-03-06 06:00,ZGHA 060600Z VRB01MPS 2500 -RA BR FEW005 BKN008 OVC050 10/08 Q1021 BECMG TL0700 3000
ZGHA,2018-03-06 07:00,ZGHA 060700Z 03002MPS 6000 BKN008 OVC050 10/09 Q1021 BECMG TL0800 BKN010 OVC050
ZGHA,2018-03-06 08:00,ZGHA 060800Z 01003MPS 340V040 2600 -RA BR SCT003 BKN008 OVC050 10/09 Q1020 BECMG TL0900 3000
ZGHA,2018-03-06 09:00,ZGHA 060900Z 02003MPS 3000 -RA BR SCT003 BKN008 OVC050 10/09 Q1021 BECMG TL1000 2900
ZGHA,2018-03-06 10:00,ZGHA 061000Z 36005MPS 4000 -RA BR SCT005 BKN008 OVC050 09/08 Q1021 NOSIG
ZGHA,2018-03-06 11:00,ZGHA 061100Z 36004MPS 4000 -RA BR BKN004 OVC050 09/08 Q1022 BECMG TL1200 BKN005 OVC050
ZGHA,2018-03-06 12:00,ZGHA 061200Z 02004MPS 4000 -RA BR FEW003 BKN005 OVC050 09/08 Q1022 NOSIG
ZGHA,2018-03-06 13:00,ZGHA 061300Z 35004MPS 3500 -RA BR FEW003 BKN005 OVC050 08/07 Q1023 BECMG TL1400 BKN004 OVC050
ZGHA,2018-03-06 14:00,ZGHA 061400Z 35005MPS 3800 -RA BR BKN004 OVC050 08/07 Q1024 BECMG TL1500 BKN005 OVC050
ZGHA,2018-03-06 15:00,ZGHA 061500Z 36005MPS 3800 -RA BR FEW003 BKN007 OVC050 08/07 Q1024 NOSIG
ZGHA,2018-03-06 16:00,ZGHA 061600Z 36003MPS 3800 -RA BR BKN005 OVC050 08/07 Q1023 BECMG TL1700 BKN004 OVC050
ZGHA,2018-03-06 17:00,ZGHA 061700Z 35003MPS 3500 -RA BR FEW003 BKN004 OVC050 08/07 Q1023 BECMG TL1800 BKN005 OVC050
ZGHA,2018-03-06 18:00,ZGHA 061800Z 36003MPS 5000 -RA BR FEW004 BKN006 OVC050 07/06 Q1022 NOSIG
ZGHA,2018-03-06 19:00,ZGHA 061900Z 36003MPS 320V030 4000 -RA BR BKN003 OVC050 07/06 Q1021 NOSIG
ZGHA,2018-03-06 20:00,ZGHA 062000Z 33006MPS 4000 SHRA BR BKN004 FEW050CB BKN050 07/06 Q1023 NOSIG
ZGHA,2018-03-06 21:00,ZGHA 062100Z 36005MPS 7000 TSRA BKN008 SCT050CB BKN050 06/05 Q1023 BECMG TL2200 -SHRA BR
ZGHA,2018-03-06 22:00,ZGHA 062200Z 01003MPS 330V040 9999 -SHRA BKN007 FEW050CB BKN050 06/05 Q1022 RETSRA BECMG TL2300 BKN010 OVC050
ZGHA,2018-03-06 23:00,ZGHA 062300Z 32006MPS 9999 -RA BKN007 OVC050 06/05 Q1024 NOSIG
ZGHA,2018-03-07 00:00,ZGHA 070000Z 34006MPS 9999 -RA BKN009 OVC050 06/04 Q1025 BECMG TL0130 BKN010 OVC050
ZGHA,2018-03-07 01:00,ZGHA 070100Z 33004MPS 9999 BKN009 OVC050 06/04 Q1025 BECMG BKN011 OVC050
ZGHA,2018-03-07 02:00,ZGHA 070200Z 35005MPS 9999 BKN011 OVC050 06/04 Q1025 NOSIG
ZGHA,2018-03-07 03:00,ZGHA 070300Z 33005MPS 9999 BKN011 OVC050 07/04 Q1026 BECMG TL0440 BKN015 OVC050
ZGHA,2018-03-07 04:00,ZGHA 070400Z 33006MPS 5000 -RA BR BKN010 OVC040 06/04 Q1025 BECMG TL0540 BKN015 OVC050
ZGHA,2018-03-07 05:00,ZGHA 070500Z 34004MPS 4500 -RA BR FEW007 BKN011 OVC040 06/05 Q1025 NOSIG
ZGHA,2018-03-07 06:00,ZGHA 070600Z 33005MPS 5000 BR BKN010 OVC040 06/05 Q1025 BECMG TL0740 BKN015 OVC040
ZGHA,2018-03-07 07:00,ZGHA 070700Z 34005MPS 310V010 6000 BKN010 OVC040 07/04 Q1025 BECMG TL0840 BKN015 OVC040
ZGHA,2018-03-07 08:00,ZGHA 070800Z 34005MPS 8000 BKN012 OVC050 07/04 Q1025 NOSIG
ZGHA,2018-03-07 09:00,ZGHA 070900Z 35004MPS 9000 BKN015 OVC050 07/04 Q1025 NOSIG
ZGHA,2018-03-07 10:00,ZGHA 071000Z 34005MPS 9999 BKN020 OVC050 07/04 Q1026 NOSIG
ZGHA,2018-03-07 11:00,ZGHA 071100Z 36004MPS 8000 BKN016 OVC050 07/04 Q1026 BECMG TL1250 BKN013 OVC040
ZGHA,2018-03-07 12:00,ZGHA 071200Z 36004MPS 8000 BKN015 OVC050 07/04 Q1027 BECMG TL1300 BKN013 OVC050
ZGHA,2018-03-07 13:00,ZGHA 071300Z 36004MPS 7000 BKN020 07/04 Q1028 NOSIG
ZGHA,2018-03-07 14:00,ZGHA 071400Z 36004MPS 7000 BKN030 07/04 Q1028 NOSIG
ZGHA,2018-03-07 15:00,ZGHA 071500Z 35003MPS 7000 BKN030 07/04 Q1028 NOSIG
ZGHA,2018-03-07 16:00,ZGHA 071600Z 35004MPS 6000 BKN030 06/04 Q1028 NOSIG
ZGHA,2018-03-07 17:00,ZGHA 071700Z 35003MPS 5000 BR NSC 05/03 Q1027 NOSIG
ZGHA,2018-03-07 18:00,ZGHA 071800Z 33004MPS 6000 NSC 05/03 Q1028 NOSIG
ZGHA,2018-03-07 19:00,ZGHA 071900Z 33004MPS 6000 NSC 05/03 Q1027 NOSIG
ZGHA,2018-03-07 20:00,ZGHA 072000Z 34004MPS 6000 NSC 05/03 Q1027 NOSIG
ZGHA,2018-03-07 21:00,ZGHA 072100Z 04001MPS 5000 BR NSC 04/02 Q1027 NOSIG
ZGHA,2018-03-07 22:00,ZGHA 072200Z VRB01MPS 4000 BR NSC 04/02 Q1028 NOSIG
ZGHA,2018-03-07 23:00,ZGHA 072300Z 07002MPS 1700 BR PRFG NSC 03/02 Q1029 BECMG TL0050 3500
ZGHA,2018-03-08 00:00,ZGHA 080000Z 04002MPS 0200 R36L/0200N R36R/0225V0275N FG BKN005 03/02 Q1029 BECMG TL0100 0800 BKN011
ZGHA,2018-03-08 01:00,ZGHA 080100Z 02002MPS 350V050 1200 R36L/1400U R36R/1400U BR BKN005 04/04 Q1030 BECMG TL0150 2000 BR BKN011
ZGHA,2018-03-08 02:00,ZGHA 080200Z 01003MPS 330V030 4000 BR SCT008 07/06 Q1031 NOSIG
ZGHA,2018-03-08 03:00,ZGHA 080300Z 03003MPS 350V070 6000 SCT016 09/05 Q1030 NOSIG
ZGHA,2018-03-08 04:00,ZGHA 080400Z 02006MPS 330V050 9999 BKN033 12/04 Q1030 NOSIG
ZGHA,2018-03-08 05:00,ZGHA 080500Z VRB04MPS 9999 BKN033 12/03 Q1029 NOSIG
ZGHA,2018-03-08 06:00,ZGHA 080600Z 01004MPS 9999 SCT033 14/04 Q1028 NOSIG
ZGHA,2018-03-08 07:00,ZGHA 080700Z 35003MPS 280V040 9999 SCT040 14/03 Q1028 NOSIG
ZGHA,2018-03-08 08:00,ZGHA 080800Z 34004MPS 310V020 9999 SCT040 16/04 Q1027 NOSIG
ZGHA,2018-03-08 09:00,ZGHA 080900Z 36004MPS 9999 FEW050 15/04 Q1027 NOSIG
ZGHA,2018-03-08 10:00,ZGHA 081000Z 33004MPS CAVOK 14/04 Q1028 NOSIG
ZGHA,2018-03-08 11:00,ZGHA 081100Z 34004MPS CAVOK 12/04 Q1028 NOSIG
ZGHA,2018-03-08 12:00,ZGHA 081200Z 35004MPS CAVOK 11/04 Q1028 NOSIG
ZGHA,2018-03-08 13:00,ZGHA 081300Z 35003MPS CAVOK 10/05 Q1029 NOSIG
ZGHA,2018-03-08 14:00,ZGHA 081400Z 05002MPS 9000 NSC 09/05 Q1030 NOSIG
ZGHA,2018-03-08 15:00,ZGHA 081500Z VRB01MPS 7000 NSC 08/05 Q1030 NOSIG
ZGHA,2018-03-08 16:00,ZGHA 081600Z 35003MPS 6000 NSC 08/05 Q1030 NOSIG
ZGHA,2018-03-08 17:00,ZGHA 081700Z 36003MPS 5000 BR NSC 07/05 Q1029 NOSIG
ZGHA,2018-03-08 18:00,ZGHA 081800Z VRB01MPS 4500 BR NSC 06/05 Q1029 NOSIG
ZGHA,2018-03-08 19:00,ZGHA 081900Z VRB01MPS 3500 BR NSC 06/04 Q1029 BECMG TL2000 2000
ZGHA,2018-03-08 20:00,ZGHA 082000Z 01001MPS 2800 BR NSC 05/04 Q1028 NOSIG
ZGHA,2018-03-08 21:00,ZGHA 082100Z 03001MPS 2200 R36L/0200N R36R/0175N BR PRFG NSC 04/03 Q1028 BECMG TL2130 0300 FG
ZGHA,2018-03-08 22:00,ZGHA 082200Z VRB01MPS 4000 R36L/P2000 R36R/0300V0400N BR PRFG NSC 04/03 Q1029 NOSIG
ZGHA,2018-03-08 23:00,ZGHA 082300Z 00000MPS 3200 BR PRFG NSC 03/02 Q1029 NOSIG
ZGHA,2018-03-09 00:00,ZGHA 090000Z 00000MPS 3200 BR PRFG NSC 04/03 Q1030 NOSIG
ZGHA,2018-03-09 01:00,ZGHA 090100Z VRB01MPS 6000 NSC 07/06 Q1030 NOSIG
ZGHA,2018-03-09 02:00,ZGHA 090200Z VRB01MPS CAVOK 10/05 Q1030 NOSIG
ZGHA,2018-03-09 03:00,ZGHA 090300Z VRB01MPS 9999 SCT030 12/05 Q1029 NOSIG
ZGHA,2018-03-09 04:00,ZGHA 090400Z VRB02MPS 9999 FEW033 13/03 Q1029 NOSIG
ZGHA,2018-03-09 05:00,ZGHA 090500Z VRB02MPS CAVOK 16/03 Q1027 NOSIG
ZGHA,2018-03-09 06:00,ZGHA 090600Z 35003MPS 240V040 CAVOK 17/M00 Q1026 NOSIG
ZGHA,2018-03-09 07:00,ZGHA 090700Z 09003MPS 020V130 CAVOK 16/01 Q1025 NOSIG
ZGHA,2018-03-09 08:00,ZGHA 090800Z 05002MPS 010V110 CAVOK 17/01 Q1024 NOSIG
ZGHA,2018-03-09 09:00,ZGHA 090900Z VRB01MPS CAVOK 18/02 Q1024 NOSIG
ZGHA,2018-03-09 10:00,ZGHA 091000Z VRB02MPS CAVOK 16/02 Q1023 NOSIG
ZGHA,2018-03-09 11:00,ZGHA 091100Z VRB01MPS CAVOK 15/02 Q1023 NOSIG
ZGHA,2018-03-09 12:00,ZGHA 091200Z VRB01MPS CAVOK 14/05 Q1023 NOSIG
ZGHA,2018-03-09 13:00,ZGHA 091300Z 16002MPS 140V210 CAVOK 11/07 Q1024 NOSIG
ZGHA,2018-03-09 14:00,ZGHA 091400Z VRB01MPS CAVOK 10/06 Q1024 NOSIG
ZGHA,2018-03-09 15:00,ZGHA 091500Z VRB01MPS CAVOK 10/05 Q1024 NOSIG
ZGHA,2018-03-09 16:00,ZGHA 091600Z VRB01MPS CAVOK 09/05 Q1024 NOSIG
ZGHA,2018-03-09 17:00,ZGHA 091700Z 07002MPS 8000 NSC 08/05 Q1024 NOSIG
ZGHA,2018-03-09 18:00,ZGHA 091800Z 00000MPS 8000 NSC 07/05 Q1023 NOSIG
ZGHA,2018-03-09 19:00,ZGHA 091900Z 00000MPS 8000 NSC 06/05 Q1023 NOSIG
ZGHA,2018-03-09 20:00,ZGHA 092000Z 29002MPS 8000 NSC 05/04 Q1023 NOSIG
ZGHA,2018-03-09 21:00,ZGHA 092100Z 24001MPS 8000 NSC 06/04 Q1023 NOSIG
ZGHA,2018-03-09 22:00,ZGHA 092200Z 00000MPS 8000 NSC 05/03 Q1023 NOSIG
ZGHA,2018-03-09 23:00,ZGHA 092300Z VRB01MPS 8000 NSC 05/04 Q1023 NOSIG
ZGHA,2018-03-10 00:00,ZGHA 100000Z VRB01MPS 8000 NSC 07/05 Q1024 NOSIG
ZGHA,2018-03-10 01:00,ZGHA 100100Z VRB01MPS CAVOK 10/05 Q1025 NOSIG
ZGHA,2018-03-10 02:00,ZGHA 100200Z 16003MPS 100V200 CAVOK 15/04 Q1024 NOSIG
ZGHA,2018-03-10 03:00,ZGHA 100300Z 15004MPS 100V190 CAVOK 17/03 Q1024 NOSIG
ZGHA,2018-03-10 04:00,ZGHA 100400Z 17003MPS 130V220 CAVOK 18/03 Q1023 NOSIG
ZGHA,2018-03-10 05:00,ZGHA 100500Z 18003MPS 150V240 CAVOK 19/03 Q1022 NOSIG
ZGHA,2018-03-10 06:00,ZGHA 100600Z 12003MPS 050V190 CAVOK 21/02 Q1020 NOSIG
ZGHA,2018-03-10 07:00,ZGHA 100700Z 19003MPS 150V220 CAVOK 22/00 Q1019 NOSIG
ZGHA,2018-03-10 08:00,ZGHA 100800Z 16002MPS 110V210 CAVOK 23/00 Q1019 NOSIG
ZGHA,2018-03-10 09:00,ZGHA 100900Z 16003MPS 130V220 CAVOK 22/02 Q1018 NOSIG
ZGHA,2018-03-10 10:00,ZGHA 101000Z 19003MPS 180V240 CAVOK 21/M01 Q1018 NOSIG
ZGHA,2018-03-10 11:00,ZGHA 101100Z 14002MPS 130V200 CAVOK 19/04 Q1018 NOSIG
ZGHA,2018-03-10 12:00,ZGHA 101200Z 12003MPS 100V160 CAVOK 18/03 Q1019 NOSIG
ZGHA,2018-03-10 13:00,ZGHA 101300Z 13002MPS 070V200 CAVOK 18/01 Q1020 NOSIG
ZGHA,2018-03-10 14:00,ZGHA 101400Z 12003MPS 080V170 CAVOK 17/02 Q1020 NOSIG
ZGHA,2018-03-10 15:00,ZGHA 101500Z 11003MPS CAVOK 17/03 Q1020 NOSIG
ZGHA,2018-03-10 16:00,ZGHA 101600Z 05001MPS CAVOK 16/03 Q1020 NOSIG
ZGHA,2018-03-10 17:00,ZGHA 101700Z VRB01MPS CAVOK 13/07 Q1020 NOSIG
ZGHA,2018-03-10 18:00,ZGHA 101800Z 35002MPS 320V030 CAVOK 13/06 Q1019 NOSIG
ZGHA,2018-03-10 19:00,ZGHA 101900Z 30002MPS CAVOK 14/06 Q1019 NOSIG
ZGHA,2018-03-10 20:00,ZGHA 102000Z 12001MPS CAVOK 13/07 Q1019 NOSIG
ZGHA,2018-03-10 21:00,ZGHA 102100Z 18002MPS 150V220 CAVOK 12/07 Q1019 NOSIG
ZGHA,2018-03-10 22:00,ZGHA 102200Z 31001MPS CAVOK 13/06 Q1019 NOSIG
ZGHA,2018-03-10 23:00,ZGHA 102300Z 34002MPS 300V360 CAVOK 13/05 Q1020 NOSIG
ZGHA,2018-03-11 00:00,ZGHA 110000Z 27002MPS 240V310 CAVOK 14/05 Q1021 NOSIG
ZGHA,2018-03-11 01:00,ZGHA 110100Z 24002MPS 190V260 CAVOK 15/04 Q1022 NOSIG
ZGHA,2018-03-11 02:00,ZGHA 110200Z 22004MPS 190V250 CAVOK 14/04 Q1022 NOSIG
ZGHA,2018-03-11 03:00,ZGHA 110300Z 20004MPS 9999 SCT050 15/04 Q1023 NOSIG
ZGHA,2018-03-11 04:00,ZGHA 110400Z 16005MPS 9999 -RA NSC 15/06 Q1022 NOSIG
ZGHA,2018-03-11 05:00,ZGHA 110500Z 19003MPS 160V240 CAVOK 17/06 Q1021 NOSIG
ZGHA,2018-03-11 06:00,ZGHA 110600Z 19003MPS CAVOK 16/07 Q1020 NOSIG
ZGHA,2018-03-11 07:00,ZGHA 110700Z 18003MPS 160V240 CAVOK 17/07 Q1020 NOSIG
ZGHA,2018-03-11 08:00,ZGHA 110800Z 19003MPS CAVOK 17/07 Q1020 NOSIG
ZGHA,2018-03-11 09:00,ZGHA 110900Z 12002MPS CAVOK 17/07 Q1019 NOSIG
ZGHA,2018-03-11 10:00,ZGHA 111000Z VRB01MPS CAVOK 17/07 Q1019 NOSIG
ZGHA,2018-03-11 11:00,ZGHA 111100Z VRB01MPS CAVOK 16/08 Q1020 NOSIG
ZGHA,2018-03-11 12:00,ZGHA 111200Z 21002MPS 180V260 CAVOK 15/09 Q1020 RETS NOSIG
ZGHA,2018-03-11 13:00,ZGHA 111300Z VRB01MPS CAVOK 15/08 Q1020 NOSIG
ZGHA,2018-03-11 14:00,ZGHA 111400Z 28002MPS 250V330 CAVOK 15/09 Q1021 NOSIG
ZGHA,2018-03-11 15:00,ZGHA 111500Z VRB01MPS CAVOK 14/09 Q1021 NOSIG
ZGHA,2018-03-11 16:00,ZGHA 111600Z 02003MPS 8000 NSC 14/10 Q1020 NOSIG
ZGHA,2018-03-11 17:00,ZGHA 111700Z 16002MPS 110V180 8000 NSC 13/10 Q1019 NOSIG
ZGHA,2018-03-11 18:00,ZGHA 111800Z 25001MPS 8000 NSC 13/10 Q1019 NOSIG
ZGHA,2018-03-11 19:00,ZGHA 111900Z 00000MPS 7000 NSC 12/10 Q1018 NOSIG
ZGHA,2018-03-11 20:00,ZGHA 112000Z 32001MPS 7000 NSC 11/09 Q1018 NOSIG
ZGHA,2018-03-11 21:00,ZGHA 112100Z VRB01MPS 6000 NSC 10/08 Q1018 NOSIG
ZGHA,2018-03-11 22:00,ZGHA 112200Z 00000MPS 6000 NSC 10/08 Q1018 NOSIG
ZGHA,2018-03-11 23:00,ZGHA 112300Z VRB01MPS 6000 NSC 09/08 Q1019 NOSIG
ZGHA,2018-03-12 00:00,ZGHA 120000Z 14001MPS 7000 NSC 11/09 Q1019 NOSIG
ZGHA,2018-03-12 01:00,ZGHA 120100Z 19002MPS 8000 NSC 14/09 Q1020 NOSIG
ZGHA,2018-03-12 02:00,ZGHA 120200Z 20003MPS 160V240 CAVOK 17/07 Q1020 NOSIG
ZGHA,2018-03-12 03:00,ZGHA 120300Z 18004MPS 160V220 CAVOK 19/07 Q1019 NOSIG
ZGHA,2018-03-12 04:00,ZGHA 120400Z 21004MPS 180V240 CAVOK 21/06 Q1018 NOSIG
ZGHA,2018-03-12 05:00,ZGHA 120500Z 23003MPS 150V270 CAVOK 23/07 Q1017 NOSIG
ZGHA,2018-03-12 06:00,ZGHA 120600Z 19002MPS 130V240 CAVOK 24/06 Q1016 NOSIG
ZGHA,2018-03-12 07:00,ZGHA 120700Z 19003MPS 160V240 CAVOK 24/07 Q1015 NOSIG
ZGHA,2018-03-12 08:00,ZGHA 120800Z 17004MPS 140V200 CAVOK 24/07 Q1014 NOSIG
ZGHA,2018-03-12 09:00,ZGHA 120900Z 18003MPS 150V230 CAVOK 24/07 Q1014 NOSIG
ZGHA,2018-03-12 10:00,ZGHA 121000Z 20003MPS 180V240 CAVOK 23/08 Q1014 NOSIG
ZGHA,2018-03-12 11:00,ZGHA 121100Z 19002MPS 180V250 CAVOK 21/09 Q1015 NOSIG
ZGHA,2018-03-12 12:00,ZGHA 121200Z 17003MPS CAVOK 19/10 Q1015 NOSIG
ZGHA,2018-03-12 13:00,ZGHA 121300Z 16002MPS 130V210 CAVOK 18/09 Q1016 NOSIG
ZGHA,2018-03-12 14:00,ZGHA 121400Z 16001MPS CAVOK 17/10 Q1016 NOSIG
ZGHA,2018-03-12 15:00,ZGHA 121500Z VRB01MPS CAVOK 17/10 Q1016 NOSIG
ZGHA,2018-03-12 16:00,ZGHA 121600Z 17002MPS 120V200 CAVOK 17/10 Q1016 NOSIG
ZGHA,2018-03-12 17:00,ZGHA 121700Z 20002MPS CAVOK 16/10 Q1015 NOSIG
ZGHA,2018-03-12 18:00,ZGHA 121800Z 23002MPS CAVOK 16/11 Q1015 NOSIG
ZGHA,2018-03-12 19:00,ZGHA 121900Z 15001MPS CAVOK 16/12 Q1014 NOSIG
ZGHA,2018-03-12 20:00,ZGHA 122000Z 00000MPS CAVOK 16/12 Q1014 NOSIG
ZGHA,2018-03-12 21:00,ZGHA 122100Z 18001MPS CAVOK 16/11 Q1014 NOSIG
ZGHA,2018-03-12 22:00,ZGHA 122200Z VRB01MPS 8000 NSC 16/11 Q1014 NOSIG
ZGHA,2018-03-12 23:00,ZGHA 122300Z 08001MPS 5000 BR NSC 15/12 Q1014 NOSIG
ZGHA,2018-03-13 00:00,ZGHA 130000Z 10001MPS 6000 NSC 16/12 Q1015 NOSIG
ZGHA,2018-03-13 01:00,ZGHA 130100Z VRB01MPS 8000 SCT050 17/12 Q1016 NOSIG
ZGHA,2018-03-13 02:00,ZGHA 130200Z 18002MPS 160V230 9000 NSC 18/12 Q1016 NOSIG
ZGHA,2018-03-13 03:00,ZGHA 130300Z 16004MPS 130V210 CAVOK 21/11 Q1015 NOSIG
ZGHA,2018-03-13 04:00,ZGHA 130400Z 18004MPS 150V220 CAVOK 23/11 Q1015 NOSIG
ZGHA,2018-03-13 05:00,ZGHA 130500Z 18005MPS 160V220 CAVOK 24/12 Q1014 NOSIG
ZGHA,2018-03-13 06:00,ZGHA 130600Z 20004MPS 9999 -RA NSC 24/12 Q1013 NOSIG
ZGHA,2018-03-13 07:00,ZGHA 130700Z 26003G08MPS 220V300 9999 -RA NSC 23/12 Q1012 NOSIG
ZGHA,2018-03-13 08:00,ZGHA 130800Z 32005MPS 7000 -RA OVC050 20/14 Q1012 NOSIG
ZGHA,2018-03-13 09:00,ZGHA 130900Z 33004MPS 3500 -RA BR OVC050 18/15 Q1012 NOSIG
ZGHA,2018-03-13 10:00,ZGHA 131000Z 07003MPS 2400 -SHRA BR OVC050 18/16 Q1012 BECMG TL1100 3000
ZGHA,2018-03-13 11:00,ZGHA 131100Z 08004MPS 5000 BR BKN050 18/16 Q1012 NOSIG
ZGHA,2018-03-13 12:00,ZGHA 131200Z 05002MPS 5000 BR BKN050 18/16 Q1013 NOSIG
ZGHA,2018-03-13 13:00,ZGHA 131300Z VRB01MPS 6000 NSC 17/16 Q1013 NOSIG
ZGHA,2018-03-13 14:00,ZGHA 131400Z VRB01MPS 6000 NSC 17/16 Q1013 NOSIG
ZGHA,2018-03-13 15:00,ZGHA 131500Z 23002MPS 5000 -RA BR NSC 17/16 Q1013 BECMG TL1600 2700
ZGHA,2018-03-13 16:00,ZGHA 131600Z 16005MPS 6000 -RA FEW040 17/16 Q1014 RETS NOSIG
ZGHA,2018-03-13 17:00,ZGHA 131700Z 13003MPS 110V170 6000 SCT040 17/16 Q1013 NOSIG
ZGHA,2018-03-13 18:00,ZGHA 131800Z VRB01MPS 5000 BR NSC 17/16 Q1012 NOSIG
ZGHA,2018-03-13 19:00,ZGHA 131900Z 26001MPS 3000 BR NSC 17/16 Q1012 BECMG TL2000 2500
ZGHA,2018-03-13 20:00,ZGHA 132000Z VRB01MPS 2400 BR SCT040 16/15 Q1011 NOSIG
ZGHA,2018-03-13 21:00,ZGHA 132100Z 17003MPS 4000 TS BR FEW040CB 17/16 Q1011 NOSIG
ZGHA,2018-03-13 22:00,ZGHA 132200Z 21002MPS 120V270 6000 -TSRA FEW005 FEW040CB 17/16 Q1012 BECMG TL2300 -RA
ZGHA,2018-03-13 23:00,ZGHA 132300Z 16003MPS 4500 RA BR BKN015 17/16 Q1012 RETS BECMG TL2330 -RA
ZGHA,2018-03-14 00:00,ZGHA 140000Z 18003MPS 5000 BR NSC 17/16 Q1013 RERA NOSIG
ZGHA,2018-03-14 01:00,ZGHA 140100Z 17003MPS 140V240 CAVOK 19/17 Q1013 NOSIG
ZGHA,2018-03-14 02:00,ZGHA 140200Z 18003MPS 160V220 CAVOK 21/16 Q1013 NOSIG
ZGHA,2018-03-14 03:00,ZGHA 140300Z 18006MPS 9999 FEW030 21/16 Q1013 NOSIG
ZGHA,2018-03-14 04:00,ZGHA 140400Z 17005MPS 9999 FEW016 20/16 Q1012 NOSIG
ZGHA,2018-03-14 05:00,ZGHA 140500Z 17003MPS 150V220 8000 -RA SCT050 20/16 Q1012 NOSIG
ZGHA,2018-03-14 06:00,ZGHA 140600Z 16004MPS 150V220 9999 SCT030 20/16 Q1010 NOSIG
ZGHA,2018-03-14 07:00,ZGHA 140700Z 17004MPS 140V210 9999 SCT030 21/16 Q1010 NOSIG
ZGHA,2018-03-14 08:00,ZGHA 140800Z 17004MPS 8000 -RA SCT023 20/17 Q1010 NOSIG
ZGHA,2018-03-14 09:00,ZGHA 140900Z 16002MPS 100V200 6000 BKN020 20/17 Q1010 NOSIG
ZGHA,2018-03-14 10:00,ZGHA 141000Z 16004MPS 140V250 6000 SCT020 20/17 Q1010 NOSIG
ZGHA,2018-03-14 11:00,ZGHA 141100Z 16004MPS 6000 NSC 19/16 Q1010 NOSIG
ZGHA,2018-03-14 12:00,ZGHA 141200Z 18002MPS 160V230 6000 FEW026 18/16 Q1011 NOSIG
ZGHA,2018-03-14 13:00,ZGHA 141300Z 16002MPS 110V230 5000 BR FEW011 18/16 Q1011 NOSIG
ZGHA,2018-03-14 14:00,ZGHA 141400Z 16003MPS 4500 BR NSC 18/16 Q1012 NOSIG
ZGHA,2018-03-14 15:00,ZGHA 141500Z 16002MPS 140V220 4500 BR NSC 17/15 Q1012 BECMG TL1640 2000
ZGHA,2018-03-14 16:00,ZGHA 141600Z VRB01MPS 4500 BR NSC 17/15 Q1012 NOSIG
ZGHA,2018-03-14 17:00,ZGHA 141700Z 18001MPS 6000 NSC 17/15 Q1011 NOSIG
ZGHA,2018-03-14 18:00,ZGHA 141800Z 20002MPS 4500 BR NSC 16/14 Q1011 NOSIG
ZGHA,2018-03-14 19:00,ZGHA 141900Z 19002MPS 4000 BR NSC 15/14 Q1010 NOSIG
ZGHA,2018-03-14 20:00,ZGHA 142000Z 20003MPS 4000 BR NSC 15/14 Q1010 NOSIG
ZGHA,2018-03-14 21:00,ZGHA 142100Z VRB01MPS 4000 BR NSC 15/14 Q1010 NOSIG
ZGHA,2018-03-14 22:00,ZGHA 142200Z 18002MPS 4000 BR NSC 15/14 Q1011 BECMG TL2340 2000
ZGHA,2018-03-14 23:00,ZGHA 142300Z 20002MPS 2800 BR NSC 15/14 Q1011 BECMG TL0040 3000
ZGHA,2018-03-15 00:00,ZGHA 150000Z 18002MPS 3500 BR NSC 16/15 Q1012 NOSIG
ZGHA,2018-03-15 01:00,ZGHA 150100Z 18004MPS 7000 NSC 18/16 Q1013 NOSIG
ZGHA,2018-03-15 02:00,ZGHA 150200Z 19005MPS 170V230 CAVOK 21/16 Q1013 NOSIG
ZGHA,2018-03-15 03:00,ZGHA 150300Z 20004MPS 170V240 9999 FEW030 23/16 Q1012 NOSIG
ZGHA,2018-03-15 04:00,ZGHA 150400Z 22004MPS 180V280 9999 SCT030 25/15 Q1012 NOSIG
ZGHA,2018-03-15 05:00,ZGHA 150500Z VRB03MPS 9999 SCT030 26/15 Q1011 NOSIG
ZGHA,2018-03-15 06:00,ZGHA 150600Z VRB01MPS 9999 SCT040 27/15 Q1010 NOSIG
ZGHA,2018-03-15 07:00,ZGHA 150700Z VRB01MPS 9999 FEW040 28/15 Q1009 NOSIG
ZGHA,2018-03-15 08:00,ZGHA 150800Z VRB01MPS 9999 FEW040 28/15 Q1009 NOSIG
ZGHA,2018-03-15 09:00,ZGHA 150900Z VRB01MPS CAVOK 28/14 Q1008 NOSIG
ZGHA,2018-03-15 10:00,ZGHA 151000Z 20002MPS 180V240 CAVOK 26/15 Q1008 NOSIG
ZGHA,2018-03-15 11:00,ZGHA 151100Z VRB02MPS CAVOK 25/15 Q1009 NOSIG
ZGHA,2018-03-15 12:00,ZGHA 151200Z 06001MPS CAVOK 22/18 Q1010 NOSIG
ZGHA,2018-03-15 13:00,ZGHA 151300Z 03002MPS 360V060 CAVOK 22/16 Q1011 NOSIG
ZGHA,2018-03-15 14:00,ZGHA 151400Z 04003MPS 8000 NSC 21/17 Q1012 NOSIG
ZGHA,2018-03-15 15:00,ZGHA 151500Z 03003MPS 8000 NSC 20/16 Q1013 NOSIG
ZGHA,2018-03-15 16:00,ZGHA 151600Z 01003MPS 8000 NSC 19/15 Q1013 NOSIG
ZGHA,2018-03-15 17:00,ZGHA 151700Z 02003MPS 8000 NSC 18/16 Q1013 NOSIG
ZGHA,2018-03-15 18:00,ZGHA 151800Z 03003MPS CAVOK 18/15 Q1014 NOSIG
ZGHA,2018-03-15 19:00,ZGHA 151900Z VRB01MPS 9999 FEW050 18/14 Q1014 NOSIG
ZGHA,2018-03-15 20:00,ZGHA 152000Z 35005MPS 9999 FEW050 17/14 Q1015 NOSIG
ZGHA,2018-03-15 21:00,ZGHA 152100Z 34006MPS 6000 BKN010 16/13 Q1016 NOSIG
ZGHA,2018-03-15 22:00,ZGHA 152200Z 34006MPS 6000 BKN014 15/12 Q1018 NOSIG
ZGHA,2018-03-15 23:00,ZGHA 152300Z 36005MPS 4000 -RA BR BKN013 14/12 Q1019 BECMG TL0050 BKN015 OVC050
ZGHA,2018-03-16 00:00,ZGHA 160000Z 35005MPS 2400 -RA BR FEW007 BKN011 13/11 Q1020 BECMG TL0140 3000 BKN015 OVC050
ZGHA,2018-03-16 01:00,ZGHA 160100Z 35005MPS 2000 -RA BR FEW005 BKN007 13/11 Q1021 BECMG TL0250 3200
ZGHA,2018-03-16 02:00,ZGHA 160200Z 36005MPS 3200 BR BKN009 OVC050 13/11 Q1021 BECMG TL0300 BKN011 OVC050
ZGHA,2018-03-16 03:00,ZGHA 160300Z 36008MPS 4500 BR BKN011 OVC050 13/11 Q1021 BECMG TL0450 BKN016 OVC050
ZGHA,2018-03-16 04:00,ZGHA 160400Z 34006MPS 4500 BR BKN011 OVC050 13/10 Q1021 BECMG TL0550 BKN016 OVC050
ZGHA,2018-03-16 05:00,ZGHA 160500Z 35006MPS 5000 BR BKN014 OVC050 13/10 Q1021 BECMG TL0600 BKN016 OVC050
ZGHA,2018-03-16 06:00,ZGHA 160600Z 31004MPS 280V340 5000 BR BKN015 OVC050 13/10 Q1020 NOSIG
ZGHA,2018-03-16 07:00,ZGHA 160700Z 31005MPS 4500 BR BKN015 OVC050 13/10 Q1020 NOSIG
ZGHA,2018-03-16 08:00,ZGHA 160800Z 31005MPS 5000 BR BKN016 OVC050 13/08 Q1019 NOSIG
ZGHA,2018-03-16 09:00,ZGHA 160900Z 31005MPS 5000 BR BKN016 OVC050 13/08 Q1019 NOSIG
ZGHA,2018-03-16 10:00,ZGHA 161000Z 32005MPS 4500 BR BKN016 OVC050 12/08 Q1019 NOSIG
ZGHA,2018-03-16 11:00,ZGHA 161100Z 33004MPS 5000 -DZ BR BKN016 OVC050 12/08 Q1020 NOSIG
ZGHA,2018-03-16 12:00,ZGHA 161200Z 31003MPS 280V360 5000 -RA BR BKN015 OVC050 12/09 Q1021 BECMG TL1300 BKN013 OVC040
ZGHA,2018-03-16 13:00,ZGHA 161300Z 31003MPS 290V350 5000 BR BKN016 OVC050 12/09 Q1021 BECMG TL1440 BKN013 OVC040
ZGHA,2018-03-16 14:00,ZGHA 161400Z 33003MPS 300V360 5000 BR BKN016 OVC050 12/09 Q1021 BECMG TL1500 BKN013 OVC040
ZGHA,2018-03-16 15:00,ZGHA 161500Z 36003MPS 5000 BR BKN013 OVC050 12/09 Q1020 BECMG TL1600 BKN016 OVC040
ZGHA,2018-03-16 16:00,ZGHA 161600Z 30003MPS 5000 BR BKN013 OVC050 12/09 Q1021 BECMG TL1700 BKN016 OVC040
ZGHA,2018-03-16 17:00,ZGHA 161700Z 34002MPS 310V010 5000 BR BKN016 OVC050 12/09 Q1020 NOSIG
ZGHA,2018-03-16 18:00,ZGHA 161800Z 34002MPS 4000 BR BKN011 OVC040 11/09 Q1020 NOSIG
ZGHA,2018-03-16 19:00,ZGHA 161900Z 33002MPS 4000 BR BKN011 OVC033 11/09 Q1019 NOSIG
ZGHA,2018-03-16 20:00,ZGHA 162000Z 34002MPS 3800 BR BKN014 OVC033 11/09 Q1018 NOSIG
ZGHA,2018-03-16 21:00,ZGHA 162100Z 35002MPS 3200 BR FEW006 BKN012 OVC033 11/09 Q1018 NOSIG
ZGHA,2018-03-16 22:00,ZGHA 162200Z 36004MPS 3000 BR SCT004 BKN010 OVC040 11/09 Q1017 BECMG TL2300 2800
ZGHA,2018-03-16 23:00,ZGHA 162300Z VRB01MPS 2800 BR FEW004 BKN012 OVC040 11/09 Q1018 BECMG TL2345 3300
ZGHA,2018-03-17 00:00,ZGHA 170000Z 29002MPS 260V340 3000 BR FEW008 BKN013 OVC040 11/10 Q1018 BECMG TL0100 2800
ZGHA,2018-03-17 01:00,ZGHA 170100Z VRB01MPS 4500 BR BKN014 OVC050 12/09 Q1018 BECMG TL0200 BKN016 OVC050
ZGHA,2018-03-17 02:00,ZGHA 170200Z 00000MPS 5000 BR OVC040 13/09 Q1018 NOSIG
ZGHA,2018-03-17 03:00,ZGHA 170300Z VRB01MPS 4500 -RA BR OVC040 13/10 Q1018 NOSIG
ZGHA,2018-03-17 04:00,ZGHA 170400Z VRB01MPS 4000 -RA BR SCT008 OVC040 13/11 Q1017 BECMG TL0500 BKN008 OVC050
ZGHA,2018-03-17 05:00,ZGHA 170500Z 02002MPS 330V040 2800 -RA BR FEW006 BKN017 OVC040 13/11 Q1016 BECMG TL0600 3000
ZGHA,2018-03-17 06:00,ZGHA 170600Z 32003MPS 300V010 2100 BR FEW004 BKN011 OVC040 13/11 Q1015 BECMG TL0700 BKN009 OVC050
ZGHA,2018-03-17 07:00,ZGHA 170700Z 36002MPS 330V040 2200 -RA BR BKN011 OVC040 13/11 Q1014 BECMG TL0800 3000
ZGHA,2018-03-17 08:00,ZGHA 170800Z 29002MPS 2200 BR BKN013 OVC040 13/11 Q1014 TEMPO SHRA
ZGHA,2018-03-17 09:00,ZGHA 170900Z 32003MPS 1800 -SHRA BR SCT004 BKN013 FEW040CB BKN040 12/11 Q1013 RETSRA BECMG TL1050 3000
ZGHA,2018-03-17 10:00,ZGHA 171000Z 31003MPS 2300 BR FEW008 BKN011 OVC040 12/11 Q1013 BECMG TL1100 3000
ZGHA,2018-03-17 11:00,ZGHA 171100Z 34003MPS 4000 BR FEW005 BKN008 OVC040 11/10 Q1013 NOSIG
ZGHA,2018-03-17 12:00,ZGHA 171200Z 31002MPS 280V340 6000 BKN009 OVC040 11/10 Q1014 BECMG TL1300 BKN010 OVC040
ZGHA,2018-03-17 13:00,ZGHA 171300Z 31003MPS 280V350 7000 BKN010 OVC040 11/10 Q1015 BECMG TL1400 BKN008 OVC040
ZGHA,2018-03-17 14:00,ZGHA 171400Z 31003MPS 6000 BKN007 OVC040 11/10 Q1015 NOSIG
ZGHA,2018-03-17 15:00,ZGHA 171500Z 32004MPS 4500 BR BKN004 OVC040 11/10 Q1015 NOSIG
ZGHA,2018-03-17 16:00,ZGHA 171600Z 32004MPS 4500 BR BKN003 OVC040 11/10 Q1015 NOSIG
ZGHA,2018-03-17 17:00,ZGHA 171700Z 34003MPS 5000 BR BKN004 OVC040 11/10 Q1015 NOSIG
ZGHA,2018-03-17 18:00,ZGHA 171800Z 35002MPS 4400 BR BKN004 OVC040 11/10 Q1014 NOSIG
ZGHA,2018-03-17 19:00,ZGHA 171900Z 01003MPS 8000 BKN006 OVC040 11/10 Q1014 NOSIG
ZGHA,2018-03-17 20:00,ZGHA 172000Z 34004MPS 7000 BKN005 OVC040 11/10 Q1013 NOSIG
ZGHA,2018-03-17 21:00,ZGHA 172100Z 34004MPS 6000 -DZ BKN004 OVC040 11/10 Q1013 BECMG TL2250 2500
ZGHA,2018-03-17 22:00,ZGHA 172200Z 32004MPS 6000 -SHRA BKN004 OVC040 11/10 Q1014 BECMG TL2300 BKN005 OVC040
ZGHA,2018-03-17 23:00,ZGHA 172300Z 32004MPS 6000 -RA BKN005 OVC040 11/10 Q1015 NOSIG
ZGHA,2018-03-18 00:00,ZGHA 180000Z 35005MPS 8000 -RA BKN005 OVC040 10/09 Q1016 BECMG TL0150 BKN011 OVC040
ZGHA,2018-03-18 01:00,ZGHA 180100Z 33005MPS 8000 -RA BKN006 OVC040 10/09 Q1016 NOSIG
ZGHA,2018-03-18 02:00,ZGHA 180200Z 33004MPS 290V360 7000 -RA BKN006 OVC040 10/09 Q1017 BECMG TL0220 SHRA
ZGHA,2018-03-18 03:00,ZGHA 180300Z 30003MPS 6000 -RA BKN005 OVC040 10/09 Q1017 NOSIG
ZGHA,2018-03-18 04:00,ZGHA 180400Z 32004MPS 6000 -RA BKN005 OVC040 10/09 Q1017 NOSIG
ZGHA,2018-03-18 05:00,ZGHA 180500Z 36005MPS 3500 -RA BR BKN005 OVC040 10/09 Q1016 NOSIG
ZGHA,2018-03-18 06:00,ZGHA 180600Z 36006MPS 3500 -RA BR BKN007 OVC040 10/09 Q1016 BECMG TL0620 2800 SHRA BR
ZGHA,2018-03-18 07:00,ZGHA 180700Z 35005MPS 6000 -RA FEW005 BKN007 OVC040 10/09 Q1015 BECMG TL0850 BKN010 OVC050
ZGHA,2018-03-18 08:00,ZGHA 180800Z 33005MPS 6000 -RA FEW006 BKN008 OVC040 10/09 Q1015 BECMG TL0950 BKN010 OVC050
ZGHA,2018-03-18 09:00,ZGHA 180900Z 33004MPS 4000 -RA BR FEW005 BKN009 OVC040 10/09 Q1015 BECMG TL1000 BKN010 OVC050
ZGHA,2018-03-18 10:00,ZGHA 181000Z 33004MPS 5000 -RA BR SCT005 BKN010 OVC050 09/08 Q1016 BECMG TL1100 BKN009 OVC050
ZGHA,2018-03-18 11:00,ZGHA 181100Z 35005MPS 7000 FEW005 BKN009 OVC050 09/08 Q1016 BECMG TL1200 BKN010 OVC050
ZGHA,2018-03-18 12:00,ZGHA 181200Z 35006MPS 7000 FEW006 BKN011 OVC050 09/08 Q1017 NOSIG
ZGHA,2018-03-18 13:00,ZGHA 181300Z 35005MPS 5000 BR FEW006 BKN011 OVC050 09/08 Q1018 NOSIG
ZGHA,2018-03-18 14:00,ZGHA 181400Z 35005MPS 7000 BKN011 OVC050 09/08 Q1019 NOSIG
ZGHA,2018-03-18 15:00,ZGHA 181500Z 35006MPS 7000 -RA BKN011 OVC050 09/07 Q1019 NOSIG
ZGHA,2018-03-18 16:00,ZGHA 181600Z 35006MPS 8000 BKN011 OVC050 09/07 Q1018 NOSIG
ZGHA,2018-03-18 17:00,ZGHA 181700Z 36005MPS 8000 BKN011 OVC050 09/07 Q1018 NOSIG
ZGHA,2018-03-18 18:00,ZGHA 181800Z 34004MPS 8000 -RA BKN011 OVC050 09/07 Q1018 NOSIG
ZGHA,2018-03-18 19:00,ZGHA 181900Z 34006MPS 8000 BKN011 OVC050 08/07 Q1017 NOSIG
ZGHA,2018-03-18 20:00,ZGHA 182000Z 36005MPS 5000 -SHRA BR BKN010 FEW050CB BKN050 08/07 Q1016 RESHRA NOSIG
ZGHA,2018-03-18 21:00,ZGHA 182100Z 35005MPS 4000 -RA BR BKN008 OVC050 08/07 Q1017 NOSIG
ZGHA,2018-03-18 22:00,ZGHA 182200Z 36007MPS 3500 BR BKN007 OVC050 08/07 Q1016 NOSIG
ZGHA,2018-03-18 23:00,ZGHA 182300Z 33005MPS 2500 -RA BR BKN006 OVC040 08/07 Q1018 BECMG TL2400 SHRA
ZGHA,2018-03-19 00:00,ZGHA 190000Z 33004MPS 2500 -SHRA BR BKN008 OVC040 08/07 Q1019 BECMG TL0130 3000 SHRA
ZGHA,2018-03-19 01:00,ZGHA 190100Z 01007MPS 2500 -SHRA BR FEW005 BKN007 OVC040 08/07 Q1018 BECMG TL0200 3200
ZGHA,2018-03-19 02:00,ZGHA 190200Z 36005MPS 4000 -RA BR BKN009 OVC040 09/07 Q1019 BECMG TL0300 BKN011 OVC040
ZGHA,2018-03-19 03:00,ZGHA 190300Z 35006MPS 4500 -DZ BR SCT007 BKN010 OVC050 09/07 Q1018 NOSIG
ZGHA,2018-03-19 04:00,ZGHA 190400Z 36005MPS 5000 BR BKN010 OVC050 09/07 Q1018 NOSIG
ZGHA,2018-03-19 05:00,ZGHA 190500Z 35006MPS 6000 BKN011 OVC040 09/07 Q1018 NOSIG
ZGHA,2018-03-19 06:00,ZGHA 190600Z 36006MPS 7000 BKN013 OVC040 09/07 Q1018 BECMG TL0700 BKN016 OVC040
ZGHA,2018-03-19 07:00,ZGHA 190700Z 36006MPS 5000 BR BKN015 OVC050 09/07 Q1017 BECMG TL0800 BKN013 OVC040
ZGHA,2018-03-19 08:00,ZGHA 190800Z 35006MPS 7000 SCT011 BKN023 OVC050 09/06 Q1017 BECMG TL0900 BKN011 OVC040
ZGHA,2018-03-19 09:00,ZGHA 190900Z 36007MPS 5000 -RA BR BKN014 OVC050 09/06 Q1017 NOSIG
ZGHA,2018-03-19 10:00,ZGHA 191000Z 35005MPS 4500 -RA BR BKN016 OVC050 09/06 Q1018 NOSIG
ZGHA,2018-03-19 11:00,ZGHA 191100Z 35005MPS 7000 BKN015 OVC050 09/06 Q1019 BECMG TL1200 BKN014 OVC040
ZGHA,2018-03-19 12:00,ZGHA 191200Z 35006MPS 5000 -RA BR FEW008 BKN023 OVC050 08/07 Q1019 NOSIG
ZGHA,2018-03-19 13:00,ZGHA 191300Z 34005MPS 5000 -RA BR BKN033 08/07 Q1020 NOSIG
ZGHA,2018-03-19 14:00,ZGHA 191400Z 34005MPS 4500 -RA BR BKN033 08/07 Q1020 NOSIG
ZGHA,2018-03-19 15:00,ZGHA 191500Z 35005MPS 5000 BR BKN011 08/06 Q1021 BECMG TL1650 BKN016 OVC040
ZGHA,2018-03-19 16:00,ZGHA 191600Z 36006MPS 5000 -DZ BR BKN010 08/06 Q1021 NOSIG
ZGHA,2018-03-19 17:00,ZGHA 191700Z 33005MPS 5000 BR BKN009 OVC050 08/06 Q1021 BECMG TL1850 BKN011 OVC050
ZGHA,2018-03-19 18:00,ZGHA 191800Z 35007MPS 5000 BR FEW009 BKN013 08/06 Q1021 NOSIG
ZGHA,2018-03-19 19:00,ZGHA 191900Z 35006MPS 6000 BKN010 08/06 Q1020 BECMG TL2000 BKN009 OVC050
ZGHA,2018-03-19 20:00,ZGHA 192000Z 34007MPS 5000 BR BKN009 OVC050 08/06 Q1020 NOSIG
ZGHA,2018-03-19 21:00,ZGHA 192100Z 35008MPS 8000 BKN009 OVC050 08/06 Q1020 NOSIG
ZGHA,2018-03-19 22:00,ZGHA 192200Z 34005MPS 6000 BKN009 OVC050 08/06 Q1021 BECMG TL2350 BKN011 OVC050
ZGHA,2018-03-19 23:00,ZGHA 192300Z 35008MPS 6000 BKN012 OVC050 08/05 Q1022 BECMG TL0050 BKN016 OVC050
ZGHA,2018-03-20 00:00,ZGHA 200000Z 35008MPS 7000 BKN010 OVC050 08/06 Q1023 BECMG TL0150 BKN016 OVC050
ZGHA,2018-03-20 01:00,ZGHA 200100Z 35007MPS 9999 BKN013 OVC050 08/05 Q1024 BECMG TL0240 BKN016 BKN050
ZGHA,2018-03-20 02:00,ZGHA 200200Z 36008MPS 9999 BKN014 OVC050 09/06 Q1025 BECMG TL0300 BKN016 OVC050
ZGHA,2018-03-20 03:00,ZGHA 200300Z 34007MPS 9999 BKN016 BKN050 10/05 Q1025 NOSIG
ZGHA,2018-03-20 04:00,ZGHA 200400Z 34007MPS 8000 SCT013 OVC050 09/05 Q1025 NOSIG
ZGHA,2018-03-20 05:00,ZGHA 200500Z 34006MPS 7000 BKN016 OVC050 10/05 Q1025 NOSIG
ZGHA,2018-03-20 06:00,ZGHA 200600Z 34004MPS 320V020 8000 BKN020 OVC050 10/05 Q1025 NOSIG
ZGHA,2018-03-20 07:00,ZGHA 200700Z 33005MPS 8000 BKN020 OVC050 10/05 Q1024 NOSIG
ZGHA,2018-03-20 08:00,ZGHA 200800Z 34006MPS 8000 SCT026 BKN050 12/04 Q1024 NOSIG
ZGHA,2018-03-20 09:00,ZGHA 200900Z 35005MPS 320V020 7000 FEW026 OVC050 11/04 Q1024 NOSIG
ZGHA,2018-03-20 10:00,ZGHA 201000Z 01004MPS 6000 FEW026 OVC050 10/04 Q1024 NOSIG
ZGHA,2018-03-20 11:00,ZGHA 201100Z 01003MPS 6000 OVC040 09/04 Q1024 NOSIG
ZGHA,2018-03-20 12:00,ZGHA 201200Z 36003MPS 6000 NSC 08/04 Q1025 NOSIG
ZGHA,2018-03-20 13:00,ZGHA 201300Z 01002MPS 6000 NSC 08/04 Q1026 NOSIG
ZGHA,2018-03-20 14:00,ZGHA 201400Z VRB01MPS 6000 NSC 07/04 Q1026 NOSIG
ZGHA,2018-03-20 15:00,ZGHA 201500Z 00000MPS 6000 NSC 06/04 Q1026 NOSIG
ZGHA,2018-03-20 16:00,ZGHA 201600Z 00000MPS 5000 BR NSC 06/04 Q1026 NOSIG
ZGHA,2018-03-20 17:00,ZGHA 201700Z 00000MPS 6000 NSC 05/04 Q1025 NOSIG
ZGHA,2018-03-20 18:00,ZGHA 201800Z 00000MPS 4000 BR NSC 05/04 Q1025 NOSIG
ZGHA,2018-03-20 19:00,ZGHA 201900Z VRB01MPS 2200 PRFG BR NSC 04/03 Q1024 BECMG TL2040 0400 FG
ZGHA,2018-03-20 20:00,ZGHA 202000Z 04001MPS 0200 R36L/0175N R36R/0200N FG SCT002 03/02 Q1024 NOSIG
ZGHA,2018-03-20 21:00,ZGHA 202100Z 00000MPS 0200 R36L/0250N R36R/0225N FG SCT002 03/02 Q1024 NOSIG
ZGHA,2018-03-20 22:00,ZGHA 202200Z 07001MPS 0300 R36L/0550V0750N R36R/0800V1100U FG SCT002 03/03 Q1025 NOSIG
ZGHA,2018-03-20 23:00,ZGHA 202300Z 00000MPS 1100 R36L/1500U R36R/1900U PRFG BR SCT002 04/03 Q1026 BECMG TL0050 1600
ZGHA,2018-03-21 00:00,ZGHA 210000Z 09001MPS 1100 R36L/1400D R36R/1500U PRFG BR SCT002 05/04 Q1026 BECMG TL0100 1600
ZGHA,2018-03-21 01:00,ZGHA 210100Z 14002MPS 1800 BR SCT003 06/05 Q1026 BECMG TL0240 3000
ZGHA,2018-03-21 02:00,ZGHA 210200Z VRB01MPS 3500 BR NSC 08/07 Q1027 NOSIG
ZGHA,2018-03-21 03:00,ZGHA 210300Z 01002MPS 290V070 4000 BR NSC 10/06 Q1026 NOSIG
ZGHA,2018-03-21 04:00,ZGHA 210400Z 02003MPS 6000 NSC 12/04 Q1025 NOSIG
ZGHA,2018-03-21 05:00,ZGHA 210500Z 33002MPS 270V040 8000 NSC 13/03 Q1025 NOSIG
ZGHA,2018-03-21 06:00,ZGHA 210600Z VRB01MPS CAVOK 14/01 Q1023 NOSIG
ZGHA,2018-03-21 07:00,ZGHA 210700Z VRB01MPS CAVOK 15/02 Q1022 NOSIG
ZGHA,2018-03-21 08:00,ZGHA 210800Z 02002MPS 330V060 CAVOK 15/01 Q1022 NOSIG
ZGHA,2018-03-21 09:00,ZGHA 210900Z VRB01MPS CAVOK 14/00 Q1021 NOSIG
ZGHA,2018-03-21 10:00,ZGHA 211000Z 22003MPS 160V260 8000 NSC 13/04 Q1021 NOSIG
ZGHA,2018-03-21 11:00,ZGHA 211100Z 21002MPS 180V250 8000 NSC 12/05 Q1021 NOSIG
ZGHA,2018-03-21 12:00,ZGHA 211200Z VRB01MPS 8000 NSC 12/04 Q1021 NOSIG
ZGHA,2018-03-21 13:00,ZGHA 211300Z VRB01MPS 6000 NSC 10/06 Q1021 NOSIG
ZGHA,2018-03-21 14:00,ZGHA 211400Z VRB01MPS 5000 BR NSC 08/06 Q1022 NOSIG
ZGHA,2018-03-21 15:00,ZGHA 211500Z VRB01MPS 5000 BR NSC 08/06 Q1022 NOSIG
ZGHA,2018-03-21 16:00,ZGHA 211600Z 09001MPS 5000 BR NSC 08/05 Q1021 NOSIG
ZGHA,2018-03-21 17:00,ZGHA 211700Z 22002MPS 5000 BR NSC 07/05 Q1021 NOSIG
ZGHA,2018-03-21 18:00,ZGHA 211800Z VRB01MPS 5000 BR NSC 07/05 Q1021 NOSIG
ZGHA,2018-03-21 19:00,ZGHA 211900Z 18001MPS 6000 NSC 06/05 Q1020 NOSIG
ZGHA,2018-03-21 20:00,ZGHA 212000Z 11002MPS 6000 NSC 05/04 Q1020 NOSIG
ZGHA,2018-03-21 21:00,ZGHA 212100Z 12002MPS 080V150 6000 NSC 05/04 Q1019 NOSIG
ZGHA,2018-03-21 22:00,ZGHA 212200Z VRB01MPS 5000 BR NSC 05/04 Q1020 NOSIG
ZGHA,2018-03-21 23:00,ZGHA 212300Z 24001MPS 3200 BR NSC 05/03 Q1020 NOSIG
ZGHA,2018-03-22 00:00,ZGHA 220000Z VRB01MPS 3700 BR NSC 06/05 Q1020 NOSIG
ZGHA,2018-03-22 01:00,ZGHA 220100Z 20003MPS 180V240 6000 NSC 10/07 Q1020 NOSIG
ZGHA,2018-03-22 02:00,ZGHA 220200Z 20005MPS 7000 NSC 13/05 Q1020 NOSIG
ZGHA,2018-03-22 03:00,ZGHA 220300Z 20005MPS 8000 NSC 15/02 Q1020 NOSIG
ZGHA,2018-03-22 04:00,ZGHA 220400Z 20004MPS 170V240 CAVOK 17/M01 Q1018 NOSIG
ZGHA,2018-03-22 05:00,ZGHA 220500Z 19004MPS 160V240 CAVOK 19/00 Q1018 NOSIG
ZGHA,2018-03-22 06:00,ZGHA 220600Z 20003MPS 170V230 CAVOK 21/01 Q1016 NOSIG
ZGHA,2018-03-22 07:00,ZGHA 220700Z 21002MPS 130V250 CAVOK 22/00 Q1015 NOSIG
ZGHA,2018-03-22 08:00,ZGHA 220800Z 19003MPS 170V240 CAVOK 22/00 Q1015 NOSIG
ZGHA,2018-03-22 09:00,ZGHA 220900Z 19002MPS 120V280 CAVOK 22/01 Q1015 NOSIG
ZGHA,2018-03-22 10:00,ZGHA 221000Z 16002MPS 120V210 CAVOK 21/02 Q1015 NOSIG
ZGHA,2018-03-22 11:00,ZGHA 221100Z 14002MPS 120V190 CAVOK 18/06 Q1015 NOSIG
ZGHA,2018-03-22 12:00,ZGHA 221200Z VRB01MPS CAVOK 16/07 Q1015 NOSIG
ZGHA,2018-03-22 13:00,ZGHA 221300Z VRB01MPS 8000 NSC 15/07 Q1016 NOSIG
ZGHA,2018-03-22 14:00,ZGHA 221400Z VRB01MPS 8000 NSC 13/08 Q1017 NOSIG
ZGHA,2018-03-22 15:00,ZGHA 221500Z VRB01MPS 8000 NSC 12/08 Q1017 NOSIG
ZGHA,2018-03-22 16:00,ZGHA 221600Z VRB01MPS 7000 NSC 11/09 Q1017 NOSIG
ZGHA,2018-03-22 17:00,ZGHA 221700Z 00000MPS 8000 NSC 11/07 Q1016 NOSIG
ZGHA,2018-03-22 18:00,ZGHA 221800Z 21002MPS 7000 NSC 09/07 Q1017 NOSIG
ZGHA,2018-03-22 19:00,ZGHA 221900Z 18001MPS 7000 NSC 09/07 Q1017 NOSIG
ZGHA,2018-03-22 20:00,ZGHA 222000Z 04001MPS 7000 NSC 09/07 Q1016 NOSIG
ZGHA,2018-03-22 21:00,ZGHA 222100Z 03001MPS 7000 NSC 09/07 Q1016 NOSIG
ZGHA,2018-03-22 22:00,ZGHA 222200Z 21001MPS 8000 NSC 08/06 Q1017 NOSIG
ZGHA,2018-03-22 23:00,ZGHA 222300Z 00000MPS 8000 NSC 08/06 Q1018 NOSIG
ZGHA,2018-03-23 00:00,ZGHA 230000Z 00000MPS 9000 NSC 10/08 Q1018 NOSIG
ZGHA,2018-03-23 01:00,ZGHA 230100Z VRB01MPS CAVOK 14/08 Q1019 NOSIG
ZGHA,2018-03-23 02:00,ZGHA 230200Z VRB01MPS CAVOK 18/07 Q1019 NOSIG
ZGHA,2018-03-23 03:00,ZGHA 230300Z VRB02MPS CAVOK 22/07 Q1019 NOSIG
ZGHA,2018-03-23 04:00,ZGHA 230400Z 19003MPS 160V240 CAVOK 23/04 Q1018 NOSIG
ZGHA,2018-03-23 05:00,ZGHA 230500Z 19003MPS 100V260 CAVOK 26/02 Q1017 NOSIG
ZGHA,2018-03-23 06:00,ZGHA 230600Z 21005MPS 180V240 CAVOK 26/02 Q1016 NOSIG
ZGHA,2018-03-23 07:00,ZGHA 230700Z 20003MPS 140V230 CAVOK 26/01 Q1015 NOSIG
ZGHA,2018-03-23 08:00,ZGHA 230800Z 21002MPS 160V260 CAVOK 26/02 Q1014 NOSIG
ZGHA,2018-03-23 09:00,ZGHA 230900Z 17003MPS 130V200 CAVOK 27/M00 Q1014 NOSIG
ZGHA,2018-03-23 10:00,ZGHA 231000Z 13002MPS 070V180 CAVOK 25/02 Q1014 NOSIG
ZGHA,2018-03-23 11:00,ZGHA 231100Z 08002MPS 060V130 8000 NSC 20/10 Q1014 NOSIG
ZGHA,2018-03-23 12:00,ZGHA 231200Z 10002MPS 070V150 9000 NSC 20/09 Q1015 NOSIG
ZGHA,2018-03-23 13:00,ZGHA 231300Z 12001MPS CAVOK 19/07 Q1016 NOSIG
ZGHA,2018-03-23 14:00,ZGHA 231400Z 13002MPS 100V160 CAVOK 19/08 Q1016 NOSIG
ZGHA,2018-03-23 15:00,ZGHA 231500Z VRB01MPS CAVOK 19/07 Q1017 NOSIG
ZGHA,2018-03-23 16:00,ZGHA 231600Z VRB01MPS CAVOK 18/09 Q1017 NOSIG
ZGHA,2018-03-23 17:00,ZGHA 231700Z VRB02MPS CAVOK 18/08 Q1017 NOSIG
ZGHA,2018-03-23 18:00,ZGHA 231800Z VRB01MPS 9999 -RA NSC 16/12 Q1017 NOSIG
ZGHA,2018-03-23 19:00,ZGHA 231900Z 19003MPS 150V230 CAVOK 15/13 Q1017 NOSIG
ZGHA,2018-03-23 20:00,ZGHA 232000Z 13002MPS 9999 -RA NSC 15/12 Q1016 NOSIG
ZGHA,2018-03-23 21:00,ZGHA 232100Z VRB01MPS CAVOK 15/12 Q1016 NOSIG
ZGHA,2018-03-23 22:00,ZGHA 232200Z 04002MPS 330V130 CAVOK 16/12 Q1017 NOSIG
ZGHA,2018-03-23 23:00,ZGHA 232300Z VRB01MPS 9999 -RA NSC 15/12 Q1017 NOSIG
ZGHA,2018-03-24 00:00,ZGHA 240000Z 21001MPS CAVOK 15/12 Q1018 NOSIG
ZGHA,2018-03-24 01:00,ZGHA 240100Z 00000MPS CAVOK 17/12 Q1018 NOSIG
ZGHA,2018-03-24 02:00,ZGHA 240200Z 29002MPS 250V320 CAVOK 17/12 Q1019 NOSIG
ZGHA,2018-03-24 03:00,ZGHA 240300Z 23004MPS 7000 -RA NSC 17/11 Q1021 NOSIG
ZGHA,2018-03-24 04:00,ZGHA 240400Z 19001MPS 6000 -RA SCT050 16/13 Q1020 NOSIG
ZGHA,2018-03-24 05:00,ZGHA 240500Z 14002MPS 100V190 5000 RA BR BKN050 15/13 Q1020 BECMG TL0600 -RA
ZGHA,2018-03-24 06:00,ZGHA 240600Z 12002MPS 080V190 5000 -RA BR SCT050 15/13 Q1019 RERA BECMG TL0700 RA
ZGHA,2018-03-24 07:00,ZGHA 240700Z 13002MPS 090V180 5000 -RA BR SCT050 15/13 Q1019 NOSIG
ZGHA,2018-03-24 08:00,ZGHA 240800Z VRB01MPS 5000 -RA BR SCT040 15/14 Q1019 NOSIG
ZGHA,2018-03-24 09:00,ZGHA 240900Z 19002MPS 170V230 5000 -RA BR SCT009 BKN033 15/13 Q1019 NOSIG
ZGHA,2018-03-24 10:00,ZGHA 241000Z 03002MPS 340V050 4500 BR NSC 15/13 Q1019 NOSIG
ZGHA,2018-03-24 11:00,ZGHA 241100Z VRB01MPS 7000 NSC 15/13 Q1019 NOSIG
ZGHA,2018-03-24 12:00,ZGHA 241200Z VRB01MPS 6000 NSC 15/13 Q1020 NOSIG
ZGHA,2018-03-24 13:00,ZGHA 241300Z 25002MPS 200V270 6000 -RA NSC 14/13 Q1021 NOSIG
ZGHA,2018-03-24 14:00,ZGHA 241400Z VRB01MPS 6000 -RA NSC 14/13 Q1021 NOSIG
ZGHA,2018-03-24 15:00,ZGHA 241500Z 05002MPS 6000 -RA NSC 14/13 Q1021 NOSIG
ZGHA,2018-03-24 16:00,ZGHA 241600Z VRB01MPS 6000 -RA OVC050 14/13 Q1021 BECMG TL1630 RA
ZGHA,2018-03-24 17:00,ZGHA 241700Z 00000MPS 5000 -RA BR BKN040 14/12 Q1021 RERA NOSIG
ZGHA,2018-03-24 18:00,ZGHA 241800Z 03001MPS 6000 -RA NSC 13/12 Q1021 NOSIG
ZGHA,2018-03-24 19:00,ZGHA 241900Z VRB01MPS 6000 -RA NSC 13/12 Q1020 NOSIG
ZGHA,2018-03-24 20:00,ZGHA 242000Z VRB01MPS 6000 -RA NSC 13/12 Q1020 NOSIG
ZGHA,2018-03-24 21:00,ZGHA 242100Z VRB01MPS 5000 BR OVC050 13/12 Q1020 NOSIG
ZGHA,2018-03-24 22:00,ZGHA 242200Z 03001MPS 4500 BR NSC 13/13 Q1020 NOSIG
ZGHA,2018-03-24 23:00,ZGHA 242300Z 36001MPS 3700 BR NSC 13/12 Q1021 NOSIG
ZGHA,2018-03-25 00:00,ZGHA 250000Z 36002MPS 4500 BR OVC050 14/13 Q1022 NOSIG
ZGHA,2018-03-25 01:00,ZGHA 250100Z 36001MPS 5000 BR OVC050 14/13 Q1023 NOSIG
ZGHA,2018-03-25 02:00,ZGHA 250200Z 02001MPS 5000 BR OVC050 14/13 Q1023 NOSIG
ZGHA,2018-03-25 03:00,ZGHA 250300Z VRB01MPS 6000 OVC050 15/13 Q1023 NOSIG
ZGHA,2018-03-25 04:00,ZGHA 250400Z VRB01MPS 7000 OVC050 16/13 Q1023 NOSIG
ZGHA,2018-03-25 05:00,ZGHA 250500Z VRB01MPS 4500 -RA BR FEW020 OVC050 16/13 Q1022 NOSIG
ZGHA,2018-03-25 06:00,ZGHA 250600Z 00000MPS 6000 -RA FEW010 SCT020 OVC050 16/14 Q1021 NOSIG
ZGHA,2018-03-25 07:00,ZGHA 250700Z VRB01MPS 9000 -RA SCT010 OVC040 16/13 Q1021 NOSIG
ZGHA,2018-03-25 08:00,ZGHA 250800Z VRB01MPS 7000 BKN017 OVC040 16/14 Q1021 NOSIG
ZGHA,2018-03-25 09:00,ZGHA 250900Z VRB01MPS 7000 FEW012 BKN023 OVC040 16/14 Q1021 NOSIG
ZGHA,2018-03-25 10:00,ZGHA 251000Z 18001MPS 8000 BKN033 16/13 Q1021 NOSIG
ZGHA,2018-03-25 11:00,ZGHA 251100Z VRB01MPS 8000 BKN026 OVC050 15/13 Q1021 NOSIG
ZGHA,2018-03-25 12:00,ZGHA 251200Z 25002MPS 230V310 8000 BKN026 OVC050 15/13 Q1022 NOSIG
ZGHA,2018-03-25 13:00,ZGHA 251300Z 27002MPS 250V320 8000 OVC033 15/13 Q1022 NOSIG
ZGHA,2018-03-25 14:00,ZGHA 251400Z 28002MPS 250V330 8000 OVC033 15/13 Q1023 NOSIG
ZGHA,2018-03-25 15:00,ZGHA 251500Z VRB01MPS 8000 OVC033 15/13 Q1023 NOSIG
ZGHA,2018-03-25 16:00,ZGHA 251600Z VRB01MPS 6000 OVC033 15/13 Q1023 NOSIG
ZGHA,2018-03-25 17:00,ZGHA 251700Z 16001MPS 6000 OVC050 14/13 Q1022 NOSIG
ZGHA,2018-03-25 18:00,ZGHA 251800Z 16001MPS 5000 BR OVC050 14/13 Q1022 NOSIG
ZGHA,2018-03-25 19:00,ZGHA 251900Z VRB01MPS 3200 BR OVC033 14/13 Q1021 BECMG TL2000 2500
ZGHA,2018-03-25 20:00,ZGHA 252000Z 18001MPS 1200 R36L/1200D R36R/1800D BR BKN003 OVC033 14/12 Q1021 NOSIG
ZGHA,2018-03-25 21:00,ZGHA 252100Z 21001MPS 0350 R36L/0325N R36R/0350N FG BKN002 13/12 Q1021 BECMG TL2200 0300
ZGHA,2018-03-25 22:00,ZGHA 252200Z 15001MPS 0600 R36L/0400N R36R/0375V0600N FG BKN002 13/12 Q1022 BECMG TL2300 0500
ZGHA,2018-03-25 23:00,ZGHA 252300Z 18001MPS 0500 R18R/1000D R18L/0750V0900N FG BKN002 13/12 Q1022 BECMG TL2400 0800
ZGHA,2018-03-26 00:00,ZGHA 260000Z 19002MPS 0650 R18R/1400U R18L/0900V1400U FG BKN004 14/13 Q1023 BECMG TL0100 1600 BKN009
ZGHA,2018-03-26 01:00,ZGHA 260100Z VRB01MPS 1600 BR BKN003 14/14 Q1023 BECMG TL0200 3000 BKN006
ZGHA,2018-03-26 02:00,ZGHA 260200Z VRB01MPS 4000 BR BKN009 16/15 Q1023 BECMG TL0300 BKN013
ZGHA,2018-03-26 03:00,ZGHA 260300Z VRB01MPS 6000 BKN020 20/13 Q1023 NOSIG
ZGHA,2018-03-26 04:00,ZGHA 260400Z VRB01MPS 9999 BKN033 20/12 Q1022 NOSIG
ZGHA,2018-03-26 05:00,ZGHA 260500Z 15002MPS 110V230 9999 BKN033 22/12 Q1021 NOSIG
ZGHA,2018-03-26 06:00,ZGHA 260600Z VRB01MPS 9999 BKN040 22/11 Q1020 NOSIG
ZGHA,2018-03-26 07:00,ZGHA 260700Z 24002MPS 160V300 9999 BKN040 23/12 Q1019 NOSIG
ZGHA,2018-03-26 08:00,ZGHA 260800Z VRB02MPS 9999 SCT040 23/11 Q1019 NOSIG
ZGHA,2018-03-26 09:00,ZGHA 260900Z 22002MPS 180V270 9999 SCT050 22/11 Q1018 NOSIG
ZGHA,2018-03-26 12:00,ZGHA 261200Z 22002MPS 8000 NSC 18/12 Q1019 NOSIG
ZGHA,2018-03-26 13:00,ZGHA 261300Z 21002MPS 190V260 8000 NSC 17/12 Q1020 NOSIG
ZGHA,2018-03-26 14:00,ZGHA 261400Z 16002MPS 140V220 6000 NSC 16/12 Q1020 NOSIG
ZGHA,2018-03-26 15:00,ZGHA 261500Z 16002MPS 140V210 6000 NSC 15/12 Q1019 NOSIG
ZGHA,2018-03-26 16:00,ZGHA 261600Z 16002MPS 150V220 6000 NSC 15/12 Q1019 NOSIG
ZGHA,2018-03-26 17:00,ZGHA 261700Z 17002MPS 6000 NSC 14/12 Q1019 NOSIG
ZGHA,2018-03-26 18:00,ZGHA 261800Z 17001MPS 6000 NSC 14/12 Q1018 NOSIG
ZGHA,2018-03-26 19:00,ZGHA 261900Z 17002MPS 6000 NSC 13/11 Q1018 NOSIG
ZGHA,2018-03-26 20:00,ZGHA 262000Z 18002MPS 6000 NSC 12/11 Q1018 NOSIG
ZGHA,2018-03-26 21:00,ZGHA 262100Z 18001MPS 5000 BR NSC 12/11 Q1018 NOSIG
ZGHA,2018-03-26 22:00,ZGHA 262200Z 10001MPS 5000 BR NSC 12/10 Q1018 NOSIG
ZGHA,2018-03-26 23:00,ZGHA 262300Z VRB01MPS 2600 BR NSC 12/11 Q1019 BECMG TL0020 3000
ZGHA,2018-03-27 00:00,ZGHA 270000Z VRB01MPS 3000 BR NSC 13/12 Q1019 NOSIG
ZGHA,2018-03-27 01:00,ZGHA 270100Z 19003MPS 150V220 7000 NSC 16/13 Q1020 NOSIG
ZGHA,2018-03-27 02:00,ZGHA 270200Z 18003MPS 150V220 CAVOK 19/13 Q1020 NOSIG
ZGHA,2018-03-27 03:00,ZGHA 270300Z 18003MPS 150V220 CAVOK 21/12 Q1019 NOSIG
ZGHA,2018-03-27 04:00,ZGHA 270400Z 18004MPS CAVOK 23/12 Q1018 NOSIG
ZGHA,2018-03-27 05:00,ZGHA 270500Z 22004MPS 180V260 CAVOK 25/11 Q1017 NOSIG
ZGHA,2018-03-27 06:00,ZGHA 270600Z 22003MPS 190V280 CAVOK 25/09 Q1016 NOSIG
ZGHA,2018-03-27 07:00,ZGHA 270700Z 20003MPS 130V240 CAVOK 26/07 Q1015 NOSIG
ZGHA,2018-03-27 08:00,ZGHA 270800Z VRB01MPS CAVOK 27/05 Q1014 NOSIG
ZGHA,2018-03-27 09:00,ZGHA 270900Z 19002MPS 140V260 CAVOK 27/05 Q1014 NOSIG
ZGHA,2018-03-27 10:00,ZGHA 271000Z 22002MPS 200V270 CAVOK 26/06 Q1014 NOSIG
ZGHA,2018-03-27 11:00,ZGHA 271100Z 22002MPS 160V250 CAVOK 24/06 Q1014 NOSIG
ZGHA,2018-03-27 12:00,ZGHA 271200Z 20002MPS 160V230 CAVOK 20/12 Q1014 NOSIG
ZGHA,2018-03-27 13:00,ZGHA 271300Z VRB01MPS CAVOK 20/11 Q1015 NOSIG
ZGHA,2018-03-27 14:00,ZGHA 271400Z VRB01MPS CAVOK 18/11 Q1015 NOSIG
ZGHA,2018-03-27 15:00,ZGHA 271500Z VRB01MPS CAVOK 17/12 Q1015 NOSIG
ZGHA,2018-03-27 16:00,ZGHA 271600Z VRB01MPS CAVOK 16/11 Q1015 NOSIG
ZGHA,2018-03-27 17:00,ZGHA 271700Z VRB01MPS CAVOK 16/11 Q1014 NOSIG
ZGHA,2018-03-27 18:00,ZGHA 271800Z 12001MPS CAVOK 14/11 Q1014 NOSIG
ZGHA,2018-03-27 19:00,ZGHA 271900Z VRB01MPS CAVOK 14/11 Q1014 NOSIG
ZGHA,2018-03-27 20:00,ZGHA 272000Z 23001MPS CAVOK 13/11 Q1013 NOSIG
ZGHA,2018-03-27 21:00,ZGHA 272100Z VRB01MPS CAVOK 13/11 Q1014 NOSIG
ZGHA,2018-03-27 22:00,ZGHA 272200Z VRB01MPS CAVOK 13/10 Q1014 NOSIG
ZGHA,2018-03-27 23:00,ZGHA 272300Z 10001MPS CAVOK 13/11 Q1014 NOSIG
ZGHA,2018-03-28 00:00,ZGHA 280000Z VRB01MPS CAVOK 15/12 Q1015 NOSIG
ZGHA,2018-03-28 01:00,ZGHA 280100Z VRB01MPS CAVOK 18/12 Q1015 NOSIG
ZGHA,2018-03-28 02:00,ZGHA 280200Z 16002MPS 120V230 CAVOK 23/11 Q1015 NOSIG
ZGHA,2018-03-28 03:00,ZGHA 280300Z 16003MPS 110V260 CAVOK 25/09 Q1015 NOSIG
ZGHA,2018-03-28 04:00,ZGHA 280400Z 18004MPS 160V220 CAVOK 26/08 Q1014 NOSIG
ZGHA,2018-03-28 05:00,ZGHA 280500Z 15003MPS 100V220 CAVOK 27/09 Q1013 NOSIG
ZGHA,2018-03-28 06:00,ZGHA 280600Z 22004MPS 190V280 CAVOK 28/08 Q1012 NOSIG
ZGHA,2018-03-28 07:00,ZGHA 280700Z 28002MPS 210V340 CAVOK 28/08 Q1011 NOSIG
ZGHA,2018-03-28 08:00,ZGHA 280800Z VRB02MPS CAVOK 28/07 Q1011 NOSIG
ZGHA,2018-03-28 09:00,ZGHA 280900Z 21002MPS 170V250 CAVOK 27/07 Q1011 NOSIG
ZGHA,2018-03-28 10:00,ZGHA 281000Z 23002MPS CAVOK 26/08 Q1011 NOSIG
ZGHA,2018-03-28 11:00,ZGHA 281100Z VRB01MPS CAVOK 25/09 Q1011 NOSIG
ZGHA,2018-03-28 12:00,ZGHA 281200Z VRB01MPS CAVOK 25/09 Q1011 NOSIG
ZGHA,2018-03-28 13:00,ZGHA 281300Z VRB01MPS 8000 NSC 22/13 Q1012 NOSIG
ZGHA,2018-03-28 14:00,ZGHA 281400Z 17002MPS 140V250 9000 NSC 21/14 Q1013 NOSIG
ZGHA,2018-03-28 15:00,ZGHA 281500Z VRB01MPS 9000 NSC 21/13 Q1013 NOSIG
ZGHA,2018-03-28 16:00,ZGHA 281600Z VRB01MPS 9000 NSC 20/14 Q1013 NOSIG
ZGHA,2018-03-28 17:00,ZGHA 281700Z 16003MPS 140V220 9000 NSC 20/13 Q1012 NOSIG
ZGHA,2018-03-28 18:00,ZGHA 281800Z VRB01MPS 9000 -RA NSC 20/13 Q1012 NOSIG
ZGHA,2018-03-28 19:00,ZGHA 281900Z VRB01MPS 9000 -RA NSC 19/14 Q1012 NOSIG
ZGHA,2018-03-28 20:00,ZGHA 282000Z 23002MPS 9000 NSC 18/14 Q1012 NOSIG
ZGHA,2018-03-28 21:00,ZGHA 282100Z 14002MPS 9000 NSC 18/14 Q1012 NOSIG
ZGHA,2018-03-28 22:00,ZGHA 282200Z 14002MPS 9000 NSC 18/13 Q1013 NOSIG
ZGHA,2018-03-28 23:00,ZGHA 282300Z VRB01MPS 7000 NSC 18/14 Q1014 NOSIG
ZGHA,2018-03-29 00:00,ZGHA 290000Z VRB01MPS 7000 NSC 18/13 Q1015 NOSIG
ZGHA,2018-03-29 01:00,ZGHA 290100Z VRB01MPS 6000 -RA NSC 19/14 Q1015 NOSIG
ZGHA,2018-03-29 02:00,ZGHA 290200Z 11002MPS 070V160 6000 NSC 20/14 Q1016 NOSIG
ZGHA,2018-03-29 03:00,ZGHA 290300Z 05003MPS 360V110 8000 NSC 21/14 Q1016 NOSIG
ZGHA,2018-03-29 04:00,ZGHA 290400Z VRB01MPS 9000 NSC 23/13 Q1015 NOSIG
ZGHA,2018-03-29 05:00,ZGHA 290500Z VRB01MPS CAVOK 24/13 Q1015 NOSIG
ZGHA,2018-03-29 06:00,ZGHA 290600Z 04002MPS 010V080 CAVOK 24/13 Q1014 NOSIG
ZGHA,2018-03-29 07:00,ZGHA 290700Z VRB01MPS 9000 NSC 24/13 Q1014 NOSIG
ZGHA,2018-03-29 08:00,ZGHA 290800Z 16003MPS 130V200 CAVOK 22/14 Q1014 NOSIG
ZGHA,2018-03-29 09:00,ZGHA 290900Z VRB01MPS 6000 -RA BKN050 21/15 Q1014 NOSIG
ZGHA,2018-03-29 10:00,ZGHA 291000Z 04003MPS 7000 -RA NSC 19/16 Q1014 NOSIG
ZGHA,2018-03-29 11:00,ZGHA 291100Z 06003MPS 8000 NSC 19/16 Q1014 NOSIG
ZGHA,2018-03-29 12:00,ZGHA 291200Z 04003MPS 9000 NSC 18/16 Q1015 NOSIG
ZGHA,2018-03-29 13:00,ZGHA 291300Z 05002MPS 020V090 8000 NSC 18/16 Q1015 NOSIG
ZGHA,2018-03-29 14:00,ZGHA 291400Z 02003MPS 360V060 8000 NSC 18/16 Q1016 NOSIG
ZGHA,2018-03-29 15:00,ZGHA 291500Z 34002MPS 300V020 8000 NSC 18/16 Q1016 NOSIG
ZGHA,2018-03-29 16:00,ZGHA 291600Z 06002MPS 8000 NSC 18/15 Q1016 NOSIG
ZGHA,2018-03-29 17:00,ZGHA 291700Z 00000MPS 8000 NSC 17/15 Q1016 NOSIG
ZGHA,2018-03-29 18:00,ZGHA 291800Z VRB01MPS 7000 NSC 17/16 Q1016 NOSIG
ZGHA,2018-03-29 19:00,ZGHA 291900Z VRB01MPS 7000 NSC 17/16 Q1015 NOSIG
ZGHA,2018-03-29 20:00,ZGHA 292000Z 03002MPS 6000 NSC 17/16 Q1015 NOSIG
ZGHA,2018-03-29 21:00,ZGHA 292100Z 03004MPS 6000 NSC 17/16 Q1015 NOSIG
ZGHA,2018-03-29 22:00,ZGHA 292200Z 36003MPS 6000 NSC 17/16 Q1016 NOSIG
ZGHA,2018-03-29 23:00,ZGHA 292300Z 01003MPS 3000 BR NSC 17/16 Q1017 NOSIG
ZGHA,2018-03-30 00:00,ZGHA 300000Z 36003MPS 3000 BR NSC 18/16 Q1018 NOSIG
ZGHA,2018-03-30 01:00,ZGHA 300100Z 04002MPS 3500 BR NSC 19/16 Q1018 NOSIG
ZGHA,2018-03-30 02:00,ZGHA 300200Z 01002MPS 3500 BR NSC 19/16 Q1019 NOSIG
ZGHA,2018-03-30 03:00,ZGHA 300300Z 31002MPS 270V040 4500 BR NSC 21/16 Q1019 NOSIG
ZGHA,2018-03-30 04:00,ZGHA 300400Z 30002MPS 260V010 5000 BR NSC 22/16 Q1018 NOSIG
ZGHA,2018-03-30 05:00,ZGHA 300500Z 28003MPS 250V320 6000 NSC 22/16 Q1017 NOSIG
ZGHA,2018-03-30 06:00,ZGHA 300600Z 34003MPS 300V020 8000 NSC 24/16 Q1016 NOSIG
ZGHA,2018-03-30 07:00,ZGHA 300700Z 32003MPS 280V360 7000 NSC 24/15 Q1016 NOSIG
ZGHA,2018-03-30 08:00,ZGHA 300800Z 30003MPS 270V330 9000 NSC 25/14 Q1015 NOSIG
ZGHA,2018-03-30 09:00,ZGHA 300900Z 32004MPS 9000 NSC 25/14 Q1015 NOSIG
ZGHA,2018-03-30 10:00,ZGHA 301000Z 29004MPS 6000 NSC 23/16 Q1015 NOSIG
ZGHA,2018-03-30 11:00,ZGHA 301100Z 01005MPS 6000 NSC 22/16 Q1015 NOSIG
ZGHA,2018-03-30 12:00,ZGHA 301200Z 36005MPS 6000 NSC 21/16 Q1016 NOSIG
ZGHA,2018-03-30 13:00,ZGHA 301300Z 36004MPS 5000 BR NSC 21/16 Q1017 NOSIG
ZGHA,2018-03-30 14:00,ZGHA 301400Z 36004MPS 4500 BR NSC 20/17 Q1017 NOSIG
ZGHA,2018-03-30 15:00,ZGHA 301500Z 36003MPS 4500 BR NSC 20/16 Q1017 NOSIG
ZGHA,2018-03-30 16:00,ZGHA 301600Z 03002MPS 4000 BR NSC 20/17 Q1017 NOSIG
ZGHA,2018-03-30 17:00,ZGHA 301700Z 33003MPS 3500 -RA BR SCT011 19/17 Q1017 NOSIG
ZGHA,2018-03-30 18:00,ZGHA 301800Z 33002MPS 3000 BR SCT013 19/16 Q1017 NOSIG
ZGHA,2018-03-30 19:00,ZGHA 301900Z 02001MPS 2400 BR SCT013 19/17 Q1016 BECMG TL2050 BKN011
ZGHA,2018-03-30 20:00,ZGHA 302000Z 34002MPS 2000 BR BKN012 18/17 Q1016 NOSIG
ZGHA,2018-03-30 21:00,ZGHA 302100Z 34002MPS 2000 BR BKN012 18/16 Q1016 NOSIG
ZGHA,2018-03-30 22:00,ZGHA 302200Z 32002MPS 2000 BR BKN009 18/16 Q1016 NOSIG
ZGHA,2018-03-30 23:00,ZGHA 302300Z 36001MPS 1500 BR SCT014 18/16 Q1017 BECMG TL0050 3200
ZGHA,2018-03-31 00:00,ZGHA 310000Z 02002MPS 360V060 1500 BR SCT014 18/16 Q1017 BECMG TL0100 3200
ZGHA,2018-03-31 01:00,ZGHA 310100Z 36002MPS 330V030 1700 BR SCT014 19/15 Q1018 BECMG TL0200 3200
ZGHA,2018-03-31 02:00,ZGHA 310200Z 27002MPS 230V320 2300 BR SCT012 20/16 Q1018 BECMG TL0300 3200
ZGHA,2018-03-31 03:00,ZGHA 310300Z VRB01MPS 2400 BR SCT014 21/16 Q1018 BECMG TL0400 3200
ZGHA,2018-03-31 04:00,ZGHA 310400Z VRB01MPS 3000 HZ BKN015 24/16 Q1017 NOSIG
ZGHA,2018-03-31 05:00,ZGHA 310500Z VRB01MPS 4000 HZ SCT020 25/16 Q1016 NOSIG
ZGHA,2018-03-31 06:00,ZGHA 310600Z VRB02MPS 4500 HZ NSC 26/16 Q1015 NOSIG
ZGHA,2018-03-31 07:00,ZGHA 310700Z VRB02MPS 4500 HZ FEW030 27/15 Q1014 NOSIG
ZGHA,2018-03-31 08:00,ZGHA 310800Z VRB02MPS 4500 HZ FEW030 28/15 Q1013 NOSIG
ZGHA,2018-03-31 09:00,ZGHA 310900Z 29003MPS 250V340 4500 HZ FEW030 27/15 Q1013 NOSIG
ZGHA,2018-03-31 10:00,ZGHA 311000Z VRB01MPS 4500 HZ NSC 26/15 Q1013 NOSIG
ZGHA,2018-03-31 11:00,ZGHA 311100Z 03002MPS 4500 HZ NSC 25/15 Q1013 NOSIG
ZGHA,2018-03-31 12:00,ZGHA 311200Z 04001MPS 6000 NSC 23/17 Q1014 NOSIG
ZGHA,2018-03-31 13:00,ZGHA 311300Z 05002MPS 5000 BR NSC 22/17 Q1014 NOSIG
ZGHA,2018-03-31 14:00,ZGHA 311400Z 02002MPS 5000 BR NSC 21/17 Q1014 NOSIG
ZGHA,2018-03-31 15:00,ZGHA 311500Z 04001MPS 4000 BR NSC 21/17 Q1015 BECMG TL1640 2000
ZGHA,2018-03-31 16:00,ZGHA 311600Z 28001MPS 3200 BR NSC 19/17 Q1015 BECMG TL1700 2000
ZGHA,2018-03-31 17:00,ZGHA 311700Z 11001MPS 2500 BR NSC 19/17 Q1014 NOSIG
ZGHA,2018-03-31 18:00,ZGHA 311800Z 18001MPS 2500 BR NSC 18/16 Q1014 NOSIG
ZGHA,2018-03-31 19:00,ZGHA 311900Z VRB01MPS 2200 BR NSC 18/16 Q1013 NOSIG
ZGHA,2018-03-31 20:00,ZGHA 312000Z VRB01MPS 2000 BR NSC 17/16 Q1013 NOSIG
ZGHA,2018-03-31 21:00,ZGHA 312100Z 00000MPS 2000 BR NSC 17/16 Q1013 NOSIG
ZGHA,2018-03-31 22:00,ZGHA 312200Z VRB01MPS 2200 BR NSC 17/15 Q1013 NOSIG
ZGHA,2018-03-31 23:00,ZGHA 312300Z 15002MPS 2000 R36L/1500D R36R/1400U BR NSC 17/15 Q1014 BECMG TL0040 3000
ZGHA,2018-04-01 00:00,ZGHA 010000Z VRB01MPS 2000 BR NSC 18/16 Q1015 BECMG TL0100 3000
ZGHA,2018-04-01 01:00,ZGHA 010100Z VRB01MPS 3000 BR NSC 21/17 Q1015 NOSIG
ZGHA,2018-04-01 02:00,ZGHA 010200Z 16002MPS 120V210 4500 HZ NSC 24/17 Q1015 NOSIG
ZGHA,2018-04-01 03:00,ZGHA 010300Z VRB01MPS 5000 NSC 27/16 Q1015 NOSIG
ZGHA,2018-04-01 04:00,ZGHA 010400Z VRB02MPS 7000 NSC 28/15 Q1014 NOSIG
ZGHA,2018-04-01 05:00,ZGHA 010500Z 24003MPS 130V290 7000 FEW050 28/15 Q1013 NOSIG
ZGHA,2018-04-01 06:00,ZGHA 010600Z 20002MPS 170V240 7000 FEW040 28/16 Q1012 NOSIG
ZGHA,2018-04-01 07:00,ZGHA 010700Z VRB03MPS 8000 FEW040 29/14 Q1011 NOSIG
ZGHA,2018-04-01 08:00,ZGHA 010800Z 26003MPS 170V300 9000 FEW040 29/14 Q1010 NOSIG
ZGHA,2018-04-01 09:00,ZGHA 010900Z VRB02MPS CAVOK 29/14 Q1010 NOSIG
ZGHA,2018-04-01 10:00,ZGHA 011000Z 25002MPS 220V330 CAVOK 28/15 Q1010 NOSIG
ZGHA,2018-04-01 11:00,ZGHA 011100Z VRB01MPS 8000 NSC 26/16 Q1010 NOSIG
ZGHA,2018-04-01 12:00,ZGHA 011200Z VRB01MPS 8000 NSC 25/16 Q1011 NOSIG
ZGHA,2018-04-01 13:00,ZGHA 011300Z VRB01MPS 8000 NSC 24/18 Q1012 NOSIG
ZGHA,2018-04-01 14:00,ZGHA 011400Z VRB01MPS 7000 NSC 24/17 Q1012 NOSIG
ZGHA,2018-04-01 15:00,ZGHA 011500Z 00000MPS 7000 NSC 23/18 Q1012 NOSIG
ZGHA,2018-04-01 16:00,ZGHA 011600Z VRB01MPS 7000 NSC 22/17 Q1011 NOSIG
ZGHA,2018-04-01 17:00,ZGHA 011700Z VRB01MPS 7000 NSC 22/17 Q1011 NOSIG
ZGHA,2018-04-01 18:00,ZGHA 011800Z VRB01MPS 7000 NSC 21/17 Q1011 NOSIG
ZGHA,2018-04-01 19:00,ZGHA 011900Z VRB01MPS 7000 NSC 21/17 Q1010 NOSIG
ZGHA,2018-04-01 20:00,ZGHA 012000Z 18002MPS 7000 NSC 20/17 Q1010 NOSIG
ZGHA,2018-04-01 21:00,ZGHA 012100Z 17002MPS 7000 NSC 20/17 Q1010 NOSIG
ZGHA,2018-04-01 22:00,ZGHA 012200Z 20002MPS 6000 NSC 19/16 Q1010 NOSIG
ZGHA,2018-04-01 23:00,ZGHA 012300Z 18002MPS 3500 BR NSC 19/17 Q1010 NOSIG
ZGHA,2018-04-02 00:00,ZGHA 020000Z 19003MPS 5000 BR NSC 21/17 Q1011 NOSIG
ZGHA,2018-04-02 01:00,ZGHA 020100Z 19003MPS 170V250 6000 NSC 23/17 Q1012 NOSIG
ZGHA,2018-04-02 02:00,ZGHA 020200Z 19003MPS 160V260 6000 NSC 25/18 Q1012 NOSIG
ZGHA,2018-04-02 03:00,ZGHA 020300Z 21002MPS 170V250 6000 NSC 26/18 Q1012 NOSIG
ZGHA,2018-04-02 04:00,ZGHA 020400Z VRB02MPS 8000 NSC 28/18 Q1011 NOSIG
ZGHA,2018-04-02 05:00,ZGHA 020500Z 26003MPS 170V310 9000 SCT040 29/17 Q1010 NOSIG
ZGHA,2018-04-02 06:00,ZGHA 020600Z 18002MPS 130V240 9999 SCT040 29/17 Q1009 NOSIG
ZGHA,2018-04-02 07:00,ZGHA 020700Z 20003MPS 150V270 9999 BKN050 30/16 Q1008 NOSIG
ZGHA,2018-04-02 08:00,ZGHA 020800Z 21004MPS 180V240 CAVOK 30/14 Q1007 NOSIG
ZGHA,2018-04-02 09:00,ZGHA 020900Z 18003MPS CAVOK 30/15 Q1007 NOSIG
ZGHA,2018-04-02 10:00,ZGHA 021000Z 17003MPS 150V220 CAVOK 29/16 Q1007 NOSIG
ZGHA,2018-04-02 11:00,ZGHA 021100Z 16002MPS 140V220 CAVOK 28/17 Q1008 NOSIG
ZGHA,2018-04-02 12:00,ZGHA 021200Z 17002MPS 150V210 CAVOK 26/18 Q1008 NOSIG
ZGHA,2018-04-02 13:00,ZGHA 021300Z VRB01MPS 8000 NSC 25/17 Q1009 NOSIG
ZGHA,2018-04-02 14:00,ZGHA 021400Z VRB01MPS 8000 NSC 24/17 Q1009 NOSIG
ZGHA,2018-04-02 15:00,ZGHA 021500Z VRB01MPS 8000 NSC 24/17 Q1009 NOSIG
ZGHA,2018-04-02 16:00,ZGHA 021600Z VRB01MPS 8000 NSC 23/18 Q1009 NOSIG
ZGHA,2018-04-02 17:00,ZGHA 021700Z 28001MPS 8000 NSC 22/17 Q1009 NOSIG
ZGHA,2018-04-02 18:00,ZGHA 021800Z 20001MPS 8000 NSC 21/17 Q1009 NOSIG
ZGHA,2018-04-02 19:00,ZGHA 021900Z VRB01MPS 8000 NSC 20/17 Q1008 NOSIG
ZGHA,2018-04-02 20:00,ZGHA 022000Z 03001MPS 6000 NSC 20/18 Q1008 NOSIG
ZGHA,2018-04-02 21:00,ZGHA 022100Z VRB01MPS 6000 NSC 20/17 Q1008 NOSIG
ZGHA,2018-04-02 22:00,ZGHA 022200Z VRB01MPS 5000 BR NSC 20/17 Q1009 NOSIG
ZGHA,2018-04-02 23:00,ZGHA 022300Z VRB01MPS 5000 BR FEW050 20/18 Q1009 NOSIG
ZGHA,2018-04-03 00:00,ZGHA 030000Z 20003MPS 150V240 3000 RA BR OVC033 21/19 Q1010 BECMG -RA
ZGHA,2018-04-03 01:00,ZGHA 030100Z VRB01MPS 4000 BR NSC 22/20 Q1011 RERA NOSIG
ZGHA,2018-04-03 02:00,ZGHA 030200Z VRB01MPS 4000 BR NSC 23/21 Q1011 NOSIG
ZGHA,2018-04-03 03:00,ZGHA 030300Z 10002MPS 5000 BR NSC 25/21 Q1011 NOSIG
ZGHA,2018-04-03 04:00,ZGHA 030400Z 10003MPS 6000 NSC 27/19 Q1010 NOSIG
ZGHA,2018-04-03 05:00,ZGHA 030500Z 12004MPS 7000 NSC 28/19 Q1009 NOSIG
ZGHA,2018-04-03 06:00,ZGHA 030600Z 13003MPS 100V170 7000 NSC 30/19 Q1008 NOSIG
ZGHA,2018-04-03 07:00,ZGHA 030700Z 14002MPS 090V220 8000 SCT050 30/18 Q1007 NOSIG
ZGHA,2018-04-03 08:00,ZGHA 030800Z 14003MPS 100V170 8000 FEW050TCU SCT050 30/19 Q1007 BECMG AT0920 TSRA
ZGHA,2018-04-03 09:00,ZGHA 030900Z 03003MPS 7000 -TSRA FEW060CB 28/20 Q1007 BECMG AT0920 TSRA
ZGHA,2018-04-03 10:00,ZGHA 031000Z 19005MPS 7000 FEW060CB 24/21 Q1007 RETS BECMG TL1140 -TSRA
ZGHA,2018-04-03 11:00,ZGHA 031100Z 05002MPS 010V090 7000 TS FEW060CB 25/21 Q1008 BECMG TL1140 TSRA
ZGHA,2018-04-03 12:00,ZGHA 031200Z 04004MPS 010V080 7000 -TSRA SCT021 FEW050CB BKN050 21/19 Q1009 RESHRA BECMG TL1240 -RA
ZGHA,2018-04-03 13:00,ZGHA 031300Z 10003MPS 060V120 CAVOK 21/18 Q1009 RETS NOSIG
ZGHA,2018-04-03 14:00,ZGHA 031400Z VRB01MPS CAVOK 21/18 Q1010 NOSIG
ZGHA,2018-04-03 15:00,ZGHA 031500Z 02002MPS CAVOK 21/18 Q1010 NOSIG
ZGHA,2018-04-03 16:00,ZGHA 031600Z 03002MPS CAVOK 21/18 Q1010 NOSIG
ZGHA,2018-04-03 17:00,ZGHA 031700Z 01001MPS 9999 TS FEW060TCU 21/18 Q1010 NOSIG
ZGHA,2018-04-03 18:00,ZGHA 031800Z VRB02MPS 3000 +TSRA BR FEW060CB 21/19 Q1010 BECMG TL1900 -TSRA
ZGHA,2018-04-03 19:00,ZGHA 031900Z 08003MPS 7000 -TSRA SCT023 FEW060CB 20/19 Q1010 RESHRA BECMG TL1930 NSW
ZGHA,2018-04-03 20:00,ZGHA 032000Z 17001MPS 8000 NSC 20/19 Q1009 RETS NOSIG
ZGHA,2018-04-03 21:00,ZGHA 032100Z VRB01MPS 7000 TS FEW060CB 20/19 Q1010 BECMG TL2140 NSW
ZGHA,2018-04-03 22:00,ZGHA 032200Z 33002MPS 7000 NSC 20/19 Q1010 RETS NOSIG
ZGHA,2018-04-03 23:00,ZGHA 032300Z 01002MPS 6000 NSC 20/19 Q1011 NOSIG
ZGHA,2018-04-04 00:00,ZGHA 040000Z 01002MPS 5000 BR NSC 21/19 Q1012 NOSIG
ZGHA,2018-04-04 01:00,ZGHA 040100Z 02003MPS 7000 OVC050 22/19 Q1013 NOSIG
ZGHA,2018-04-04 02:00,ZGHA 040200Z VRB01MPS 8000 BKN050 23/20 Q1013 NOSIG
ZGHA,2018-04-04 03:00,ZGHA 040300Z 34002MPS 8000 OVC050 24/20 Q1012 NOSIG
ZGHA,2018-04-04 04:00,ZGHA 040400Z 34004MPS 6000 NSC 24/19 Q1012 NOSIG
ZGHA,2018-04-04 05:00,ZGHA 040500Z 30005MPS 6000 NSC 23/17 Q1011 NOSIG
ZGHA,2018-04-04 06:00,ZGHA 040600Z 32006MPS 6000 NSC 22/15 Q1011 NOSIG
ZGHA,2018-04-04 07:00,ZGHA 040700Z 30005MPS 270V330 6000 OVC050 20/14 Q1010 NOSIG
ZGHA,2018-04-04 08:00,ZGHA 040800Z 30006MPS 6000 OVC050 20/13 Q1010 NOSIG
ZGHA,2018-04-04 09:00,ZGHA 040900Z 31005MPS 6000 BKN050 19/12 Q1010 NOSIG
ZGHA,2018-04-04 10:00,ZGHA 041000Z 31006MPS 5000 HZ BKN050 18/11 Q1010 NOSIG
ZGHA,2018-04-04 11:00,ZGHA 041100Z 32004MPS 6000 BKN050 17/11 Q1010 NOSIG
ZGHA,2018-04-04 12:00,ZGHA 041200Z 34003MPS 320V020 8000 BKN050 17/12 Q1011 NOSIG
ZGHA,2018-04-04 13:00,ZGHA 041300Z 36005MPS 7000 BKN026 OVC050 17/11 Q1011 NOSIG
ZGHA,2018-04-04 14:00,ZGHA 041400Z 34004MPS 7000 BKN026 OVC050 16/11 Q1012 NOSIG
ZGHA,2018-04-04 15:00,ZGHA 041500Z 33003MPS 300V360 7000 BKN023 OVC050 16/11 Q1012 NOSIG
ZGHA,2018-04-04 16:00,ZGHA 041600Z 36004MPS 7000 BKN023 OVC050 16/11 Q1011 NOSIG
ZGHA,2018-04-04 17:00,ZGHA 041700Z 33004MPS 7000 -RA BKN023 OVC050 16/11 Q1011 NOSIG
ZGHA,2018-04-04 18:00,ZGHA 041800Z 31005MPS 7000 -RA BKN023 OVC050 15/10 Q1011 NOSIG
ZGHA,2018-04-04 19:00,ZGHA 041900Z 32005MPS 7000 -RA BKN023 OVC050 14/10 Q1011 NOSIG
ZGHA,2018-04-04 20:00,ZGHA 042000Z 33005MPS 7000 -RA BKN022 OVC050 13/10 Q1011 NOSIG
ZGHA,2018-04-04 21:00,ZGHA 042100Z 35007MPS 5000 BR SCT013 OVC050 13/10 Q1012 NOSIG
ZGHA,2018-04-04 22:00,ZGHA 042200Z 01006MPS 4500 BR SCT010 OVC040 12/10 Q1012 NOSIG
ZGHA,2018-04-04 23:00,ZGHA 042300Z 34006MPS 3500 BR BKN007 OVC040 12/10 Q1013 NOSIG
ZGHA,2018-04-05 00:00,ZGHA 050000Z 34007MPS 3500 BR BKN007 OVC040 11/10 Q1014 NOSIG
ZGHA,2018-04-05 01:00,ZGHA 050100Z 32006MPS 3500 -RA BR BKN006 OVC040 12/10 Q1015 NOSIG
ZGHA,2018-04-05 02:00,ZGHA 050200Z 33007MPS 8000 -RA BKN007 OVC040 11/09 Q1015 BECMG TL0350 BKN010 OVC040
ZGHA,2018-04-05 03:00,ZGHA 050300Z 36008MPS 8000 -RA BKN011 BKN020 OVC040 10/08 Q1016 NOSIG
ZGHA,2018-04-05 04:00,ZGHA 050400Z 34008MPS 9999 -RA BKN011 BKN020 OVC040 09/07 Q1016 NOSIG
ZGHA,2018-04-05 05:00,ZGHA 050500Z 34008MPS 9999 BKN011 OVC040 10/07 Q1016 NOSIG
ZGHA,2018-04-05 06:00,ZGHA 050600Z 34007MPS 9999 BKN011 OVC040 10/07 Q1016 NOSIG
ZGHA,2018-04-05 07:00,ZGHA 050700Z 35008MPS 7000 BKN011 OVC040 09/07 Q1016 NOSIG
ZGHA,2018-04-05 08:00,ZGHA 050800Z 35009MPS 6000 -RA BKN011 OVC040 09/07 Q1016 NOSIG
ZGHA,2018-04-05 09:00,ZGHA 050900Z 34009MPS 9999 BKN013 OVC040 09/06 Q1017 BECMG TL1050 BKN016 OVC040
ZGHA,2018-04-05 10:00,ZGHA 051000Z 34009MPS 9999 BKN015 OVC040 09/06 Q1018 BECMG TL1150 BKN013 OVC040
ZGHA,2018-04-05 11:00,ZGHA 051100Z 35008MPS 9999 BKN013 OVC040 09/06 Q1018 NOSIG
ZGHA,2018-04-05 12:00,ZGHA 051200Z 36008MPS 9999 BKN014 09/05 Q1019 BECMG TL1350 BKN009 OVC040
ZGHA,2018-04-05 13:00,ZGHA 051300Z 35006MPS 9999 BKN014 09/05 Q1021 BECMG TL1400 BKN009 OVC040
ZGHA,2018-04-05 14:00,ZGHA 051400Z 34007MPS 9999 -RA BKN009 08/06 Q1021 BECMG TL1550 BKN011 OVC050
ZGHA,2018-04-05 15:00,ZGHA 051500Z 34006MPS 9999 -RA BKN013 08/06 Q1021 BECMG TL1600 BKN016 OVC050
ZGHA,2018-04-05 16:00,ZGHA 051600Z 34005MPS 9999 BKN020 08/06 Q1022 NOSIG
ZGHA,2018-04-05 17:00,ZGHA 051700Z 34004MPS 9999 BKN020 OVC050 08/06 Q1022 NOSIG
ZGHA,2018-04-05 18:00,ZGHA 051800Z 35004MPS 9999 SCT009 OVC040 08/07 Q1022 NOSIG
ZGHA,2018-04-05 19:00,ZGHA 051900Z 35004MPS 9999 FEW011 BKN026 09/07 Q1023 NOSIG
ZGHA,2018-04-05 20:00,ZGHA 052000Z 01006MPS 9999 SCT010 OVC040 09/07 Q1023 NOSIG
ZGHA,2018-04-05 21:00,ZGHA 052100Z 01007MPS 9999 SCT010 OVC040 09/07 Q1024 NOSIG
ZGHA,2018-04-05 22:00,ZGHA 052200Z 02005MPS 9999 SCT010 09/07 Q1025 BECMG TL2300 BKN011 OVC050
ZGHA,2018-04-05 23:00,ZGHA 052300Z 02004MPS 8000 SCT010 09/07 Q1026 NOSIG
ZGHA,2018-04-06 00:00,ZGHA 060000Z 36003MPS 8000 NSC 10/07 Q1028 NOSIG
ZGHA,2018-04-06 01:00,ZGHA 060100Z 01004MPS CAVOK 10/08 Q1028 NOSIG
ZGHA,2018-04-06 02:00,ZGHA 060200Z 02003MPS CAVOK 12/08 Q1028 NOSIG
ZGHA,2018-04-06 03:00,ZGHA 060300Z 34004MPS 9999 SCT040 13/08 Q1028 NOSIG
ZGHA,2018-04-06 04:00,ZGHA 060400Z 36004MPS 9999 SCT040 13/07 Q1028 NOSIG
ZGHA,2018-04-06 05:00,ZGHA 060500Z 34004MPS 310V020 9999 FEW033 15/08 Q1028 NOSIG
ZGHA,2018-04-06 06:00,ZGHA 060600Z 36004MPS 320V050 9999 FEW033 16/08 Q1027 NOSIG
ZGHA,2018-04-06 07:00,ZGHA 060700Z 01003MPS 320V050 9999 FEW040 18/06 Q1026 NOSIG
ZGHA,2018-04-06 08:00,ZGHA 060800Z 34005MPS CAVOK 18/06 Q1026 NOSIG
ZGHA,2018-04-06 09:00,ZGHA 060900Z 35004MPS 320V020 CAVOK 19/05 Q1026 NOSIG
ZGHA,2018-04-06 10:00,ZGHA 061000Z 36004MPS CAVOK 18/05 Q1026 NOSIG
ZGHA,2018-04-06 11:00,ZGHA 061100Z 35005MPS CAVOK 17/06 Q1026 NOSIG
ZGHA,2018-04-06 12:00,ZGHA 061200Z 35004MPS CAVOK 16/06 Q1027 NOSIG
ZGHA,2018-04-06 13:00,ZGHA 061300Z 33004MPS CAVOK 15/07 Q1029 NOSIG
ZGHA,2018-04-06 14:00,ZGHA 061400Z 01003MPS 9999 FEW040 14/07 Q1030 NOSIG
ZGHA,2018-04-06 15:00,ZGHA 061500Z 36004MPS CAVOK 13/08 Q1030 NOSIG
ZGHA,2018-04-06 16:00,ZGHA 061600Z 35003MPS CAVOK 12/07 Q1030 NOSIG
ZGHA,2018-04-06 17:00,ZGHA 061700Z 02002MPS 350V060 CAVOK 12/07 Q1030 NOSIG
ZGHA,2018-04-06 18:00,ZGHA 061800Z 08002MPS CAVOK 11/07 Q1030 NOSIG
ZGHA,2018-04-06 19:00,ZGHA 061900Z 34003MPS CAVOK 10/07 Q1030 NOSIG
ZGHA,2018-04-06 20:00,ZGHA 062000Z VRB01MPS CAVOK 10/06 Q1029 NOSIG
ZGHA,2018-04-06 21:00,ZGHA 062100Z 03001MPS CAVOK 10/06 Q1030 NOSIG
ZGHA,2018-04-06 22:00,ZGHA 062200Z 05002MPS CAVOK 09/06 Q1030 NOSIG
ZGHA,2018-04-06 23:00,ZGHA 062300Z 02002MPS 8000 NSC 09/06 Q1031 NOSIG
ZGHA,2018-04-07 00:00,ZGHA 070000Z 03002MPS 9000 NSC 11/07 Q1031 NOSIG
ZGHA,2018-04-07 01:00,ZGHA 070100Z 04003MPS 360V080 CAVOK 13/04 Q1031 NOSIG
ZGHA,2018-04-07 02:00,ZGHA 070200Z 05002MPS 350V160 CAVOK 16/02 Q1032 NOSIG
ZGHA,2018-04-07 03:00,ZGHA 070300Z 08003MPS 010V110 CAVOK 17/M05 Q1031 NOSIG
ZGHA,2018-04-07 04:00,ZGHA 070400Z 36004MPS 260V040 CAVOK 19/M06 Q1030 NOSIG
ZGHA,2018-04-07 05:00,ZGHA 070500Z 33004MPS 310V010 CAVOK 20/M07 Q1029 NOSIG
ZGHA,2018-04-07 06:00,ZGHA 070600Z 01005MPS CAVOK 20/M07 Q1028 NOSIG
ZGHA,2018-04-07 07:00,ZGHA 070700Z 35004MPS 300V030 CAVOK 20/M07 Q1026 NOSIG
ZGHA,2018-04-07 08:00,ZGHA 070800Z 35004G09MPS 320V040 CAVOK 21/M09 Q1025 NOSIG
ZGHA,2018-04-07 09:00,ZGHA 070900Z 33004MPS 300V360 CAVOK 20/M07 Q1025 NOSIG
ZGHA,2018-04-07 10:00,ZGHA 071000Z 33003MPS CAVOK 19/M06 Q1024 NOSIG
ZGHA,2018-04-07 11:00,ZGHA 071100Z 29002MPS CAVOK 17/M05 Q1024 NOSIG
ZGHA,2018-04-07 12:00,ZGHA 071200Z VRB01MPS CAVOK 14/03 Q1024 NOSIG
ZGHA,2018-04-07 13:00,ZGHA 071300Z 16002MPS CAVOK 12/05 Q1024 NOSIG
ZGHA,2018-04-07 14:00,ZGHA 071400Z VRB01MPS CAVOK 12/04 Q1025 NOSIG
ZGHA,2018-04-07 15:00,ZGHA 071500Z VRB01MPS CAVOK 10/03 Q1024 NOSIG
ZGHA,2018-04-07 16:00,ZGHA 071600Z VRB01MPS CAVOK 09/04 Q1024 NOSIG
ZGHA,2018-04-07 17:00,ZGHA 071700Z VRB01MPS CAVOK 08/05 Q1023 NOSIG
ZGHA,2018-04-07 18:00,ZGHA 071800Z 15001MPS CAVOK 08/03 Q1022 NOSIG
ZGHA,2018-04-07 19:00,ZGHA 071900Z VRB01MPS CAVOK 07/03 Q1022 NOSIG
ZGHA,2018-04-07 20:00,ZGHA 072000Z 19002MPS CAVOK 07/03 Q1021 NOSIG
ZGHA,2018-04-07 21:00,ZGHA 072100Z 21002MPS CAVOK 07/03 Q1021 NOSIG
ZGHA,2018-04-07 22:00,ZGHA 072200Z 22001MPS CAVOK 06/03 Q1021 NOSIG
ZGHA,2018-04-07 23:00,ZGHA 072300Z 18002MPS CAVOK 07/03 Q1021 NOSIG
ZGHA,2018-04-08 00:00,ZGHA 080000Z 19002MPS CAVOK 10/03 Q1022 NOSIG
ZGHA,2018-04-08 01:00,ZGHA 080100Z 18005MPS CAVOK 14/01 Q1022 NOSIG
ZGHA,2018-04-08 02:00,ZGHA 080200Z 20005MPS 170V230 CAVOK 17/00 Q1022 NOSIG
ZGHA,2018-04-08 03:00,ZGHA 080300Z 21005MPS CAVOK 19/00 Q1022 NOSIG
ZGHA,2018-04-08 04:00,ZGHA 080400Z 20005MPS 170V240 CAVOK 21/01 Q1021 NOSIG
ZGHA,2018-04-08 05:00,ZGHA 080500Z 21005MPS 180V240 CAVOK 22/01 Q1019 NOSIG
ZGHA,2018-04-08 06:00,ZGHA 080600Z 20005MPS CAVOK 23/00 Q1018 NOSIG
ZGHA,2018-04-08 07:00,ZGHA 080700Z 22004MPS 190V260 CAVOK 24/M00 Q1017 NOSIG
ZGHA,2018-04-08 08:00,ZGHA 080800Z 19005MPS CAVOK 24/M00 Q1016 NOSIG
ZGHA,2018-04-08 09:00,ZGHA 080900Z 18003MPS CAVOK 23/M01 Q1016 NOSIG
ZGHA,2018-04-08 10:00,ZGHA 081000Z 18003MPS CAVOK 22/00 Q1016 NOSIG
ZGHA,2018-04-08 11:00,ZGHA 081100Z 17003MPS 160V220 CAVOK 21/02 Q1016 NOSIG
ZGHA,2018-04-08 12:00,ZGHA 081200Z 15002MPS 140V200 CAVOK 19/02 Q1017 NOSIG
ZGHA,2018-04-08 13:00,ZGHA 081300Z VRB01MPS CAVOK 18/01 Q1017 NOSIG
ZGHA,2018-04-08 14:00,ZGHA 081400Z 19002MPS 170V230 CAVOK 16/02 Q1018 NOSIG
ZGHA,2018-04-08 15:00,ZGHA 081500Z 17002MPS 110V240 CAVOK 15/04 Q1017 NOSIG
ZGHA,2018-04-08 16:00,ZGHA 081600Z VRB01MPS CAVOK 14/04 Q1017 NOSIG
ZGHA,2018-04-08 17:00,ZGHA 081700Z 13002MPS 120V180 CAVOK 14/04 Q1016 NOSIG
ZGHA,2018-04-08 18:00,ZGHA 081800Z 19002MPS 170V240 CAVOK 13/05 Q1016 NOSIG
ZGHA,2018-04-08 19:00,ZGHA 081900Z VRB01MPS CAVOK 11/05 Q1015 NOSIG
ZGHA,2018-04-08 20:00,ZGHA 082000Z 00000MPS CAVOK 11/06 Q1015 NOSIG
ZGHA,2018-04-08 21:00,ZGHA 082100Z VRB01MPS CAVOK 11/07 Q1015 NOSIG
ZGHA,2018-04-08 22:00,ZGHA 082200Z 00000MPS CAVOK 10/07 Q1015 NOSIG
ZGHA,2018-04-08 23:00,ZGHA 082300Z 00000MPS CAVOK 11/08 Q1016 NOSIG
ZGHA,2018-04-09 00:00,ZGHA 090000Z VRB01MPS CAVOK 13/07 Q1016 NOSIG
ZGHA,2018-04-09 01:00,ZGHA 090100Z 17003MPS 140V240 CAVOK 19/06 Q1016 NOSIG
ZGHA,2018-04-09 02:00,ZGHA 090200Z 17006MPS CAVOK 21/05 Q1016 NOSIG
ZGHA,2018-04-09 03:00,ZGHA 090300Z 19005MPS 160V250 CAVOK 25/05 Q1015 NOSIG
ZGHA,2018-04-09 04:00,ZGHA 090400Z 20005MPS 170V230 CAVOK 26/04 Q1014 NOSIG
ZGHA,2018-04-09 05:00,ZGHA 090500Z 21006MPS 170V240 CAVOK 27/04 Q1013 NOSIG
ZGHA,2018-04-09 06:00,ZGHA 090600Z 20007MPS CAVOK 28/02 Q1012 NOSIG
ZGHA,2018-04-09 07:00,ZGHA 090700Z 21006MPS 170V250 CAVOK 29/02 Q1011 NOSIG
ZGHA,2018-04-09 08:00,ZGHA 090800Z 21005MPS 180V250 CAVOK 29/03 Q1010 NOSIG
ZGHA,2018-04-09 09:00,ZGHA 090900Z 21004MPS 170V250 CAVOK 29/04 Q1009 NOSIG
ZGHA,2018-04-09 10:00,ZGHA 091000Z 21004MPS CAVOK 28/05 Q1009 NOSIG
ZGHA,2018-04-09 11:00,ZGHA 091100Z 22003MPS CAVOK 25/07 Q1010 NOSIG
ZGHA,2018-04-09 12:00,ZGHA 091200Z 19002MPS CAVOK 23/08 Q1010 NOSIG
ZGHA,2018-04-09 13:00,ZGHA 091300Z 15002MPS 110V190 CAVOK 21/09 Q1011 NOSIG
ZGHA,2018-04-09 14:00,ZGHA 091400Z 16002MPS 140V220 CAVOK 20/10 Q1011 NOSIG
ZGHA,2018-04-09 15:00,ZGHA 091500Z VRB01MPS CAVOK 18/09 Q1011 NOSIG
ZGHA,2018-04-09 16:00,ZGHA 091600Z 20002MPS 180V240 CAVOK 17/09 Q1011 NOSIG
ZGHA,2018-04-09 17:00,ZGHA 091700Z 20002MPS CAVOK 17/08 Q1011 NOSIG
ZGHA,2018-04-09 18:00,ZGHA 091800Z 21003MPS CAVOK 17/08 Q1010 NOSIG
ZGHA,2018-04-09 19:00,ZGHA 091900Z 16004MPS CAVOK 18/08 Q1010 NOSIG
ZGHA,2018-04-09 20:00,ZGHA 092000Z 18006MPS CAVOK 19/07 Q1009 NOSIG
ZGHA,2018-04-09 21:00,ZGHA 092100Z 18004MPS CAVOK 18/08 Q1010 NOSIG
ZGHA,2018-04-09 22:00,ZGHA 092200Z VRB01MPS CAVOK 17/08 Q1010 NOSIG
ZGHA,2018-04-09 23:00,ZGHA 092300Z 19002MPS 170V230 CAVOK 17/09 Q1011 NOSIG
ZGHA,2018-04-10 00:00,ZGHA 100000Z 18003MPS CAVOK 20/10 Q1011 NOSIG
ZGHA,2018-04-10 01:00,ZGHA 100100Z 18005MPS CAVOK 22/10 Q1012 NOSIG
ZGHA,2018-04-10 02:00,ZGHA 100200Z 20007MPS 170V230 CAVOK 25/11 Q1011 NOSIG
ZGHA,2018-04-10 03:00,ZGHA 100300Z 20006MPS CAVOK 26/12 Q1011 NOSIG
ZGHA,2018-04-10 04:00,ZGHA 100400Z 18006MPS 160V220 CAVOK 28/11 Q1010 NOSIG
ZGHA,2018-04-10 05:00,ZGHA 100500Z 19007MPS 160V220 CAVOK 29/12 Q1009 NOSIG
ZGHA,2018-04-10 06:00,ZGHA 100600Z 18007G12MPS 160V240 9999 FEW030 29/11 Q1008 NOSIG
ZGHA,2018-04-10 07:00,ZGHA 100700Z 18008MPS CAVOK 29/13 Q1007 NOSIG
ZGHA,2018-04-10 08:00,ZGHA 100800Z 18006MPS CAVOK 29/13 Q1007 NOSIG
ZGHA,2018-04-10 09:00,ZGHA 100900Z 20006MPS CAVOK 28/13 Q1007 NOSIG
ZGHA,2018-04-10 10:00,ZGHA 101000Z 19006MPS CAVOK 27/14 Q1007 NOSIG
ZGHA,2018-04-10 11:00,ZGHA 101100Z 20004MPS CAVOK 26/14 Q1008 NOSIG
ZGHA,2018-04-10 12:00,ZGHA 101200Z 16003MPS 140V200 CAVOK 25/14 Q1009 NOSIG
ZGHA,2018-04-10 13:00,ZGHA 101300Z 15003MPS CAVOK 25/15 Q1009 NOSIG
ZGHA,2018-04-10 14:00,ZGHA 101400Z 15003MPS 130V240 CAVOK 24/15 Q1010 NOSIG
ZGHA,2018-04-10 15:00,ZGHA 101500Z 17003MPS 150V220 CAVOK 24/15 Q1010 NOSIG
ZGHA,2018-04-10 16:00,ZGHA 101600Z 17004MPS CAVOK 24/15 Q1010 NOSIG
ZGHA,2018-04-10 17:00,ZGHA 101700Z 17004MPS CAVOK 23/15 Q1010 NOSIG
ZGHA,2018-04-10 18:00,ZGHA 101800Z 16003MPS CAVOK 23/15 Q1010 NOSIG
ZGHA,2018-04-10 19:00,ZGHA 101900Z 16003MPS CAVOK 23/15 Q1009 NOSIG
ZGHA,2018-04-10 20:00,ZGHA 102000Z 16003MPS CAVOK 22/16 Q1009 NOSIG
ZGHA,2018-04-10 21:00,ZGHA 102100Z 18002MPS CAVOK 22/15 Q1009 NOSIG
ZGHA,2018-04-10 22:00,ZGHA 102200Z 17002MPS CAVOK 22/16 Q1010 NOSIG
ZGHA,2018-04-10 23:00,ZGHA 102300Z 17002MPS CAVOK 22/16 Q1010 NOSIG
ZGHA,2018-04-11 00:00,ZGHA 110000Z 17002MPS 150V210 CAVOK 23/16 Q1011 NOSIG
ZGHA,2018-04-11 01:00,ZGHA 110100Z 17004MPS 150V220 CAVOK 24/16 Q1011 NOSIG
ZGHA,2018-04-11 02:00,ZGHA 110200Z 17004MPS 150V210 9999 SCT040 25/16 Q1011 NOSIG
ZGHA,2018-04-11 03:00,ZGHA 110300Z 19005MPS CAVOK 25/16 Q1011 NOSIG
ZGHA,2018-04-11 04:00,ZGHA 110400Z 17004MPS 140V220 CAVOK 27/17 Q1010 NOSIG
ZGHA,2018-04-11 05:00,ZGHA 110500Z 21005MPS 160V240 9999 SCT040 28/16 Q1009 NOSIG
ZGHA,2018-04-11 06:00,ZGHA 110600Z 20004MPS 160V240 9999 BKN040 29/17 Q1007 NOSIG
ZGHA,2018-04-11 07:00,ZGHA 110700Z 19005MPS 160V220 9999 FEW040TCU BKN040 29/16 Q1007 NOSIG
ZGHA,2018-04-11 08:00,ZGHA 110800Z 20004MPS 9999 SCT050 27/17 Q1006 NOSIG
ZGHA,2018-04-11 09:00,ZGHA 110900Z 18005MPS CAVOK 27/17 Q1006 NOSIG
ZGHA,2018-04-11 10:00,ZGHA 111000Z 18004MPS 170V230 9999 OVC050 26/17 Q1006 NOSIG
ZGHA,2018-04-11 11:00,ZGHA 111100Z 16004MPS 150V210 9999 OVC050 25/17 Q1007 NOSIG
ZGHA,2018-04-11 12:00,ZGHA 111200Z 17004MPS 9999 OVC050 25/17 Q1008 NOSIG
ZGHA,2018-04-11 13:00,ZGHA 111300Z 17003MPS 140V260 9999 BKN050 24/17 Q1008 NOSIG
ZGHA,2018-04-11 14:00,ZGHA 111400Z 17002MPS 160V230 9999 BKN050 24/17 Q1008 NOSIG
ZGHA,2018-04-11 15:00,ZGHA 111500Z 16002MPS 130V200 9999 FEW050 24/17 Q1008 NOSIG
ZGHA,2018-04-11 16:00,ZGHA 111600Z 17002MPS 150V230 CAVOK 23/17 Q1008 NOSIG
ZGHA,2018-04-11 17:00,ZGHA 111700Z 17002MPS CAVOK 23/17 Q1007 NOSIG
ZGHA,2018-04-11 18:00,ZGHA 111800Z 00000MPS CAVOK 22/17 Q1007 NOSIG
ZGHA,2018-04-11 19:00,ZGHA 111900Z 26001MPS CAVOK 22/17 Q1006 NOSIG
ZGHA,2018-04-11 20:00,ZGHA 112000Z 19001MPS CAVOK 21/18 Q1006 NOSIG
ZGHA,2018-04-11 21:00,ZGHA 112100Z VRB01MPS CAVOK 21/18 Q1006 NOSIG
ZGHA,2018-04-11 22:00,ZGHA 112200Z VRB01MPS 9000 NSC 21/18 Q1006 NOSIG
ZGHA,2018-04-11 23:00,ZGHA 112300Z VRB01MPS 8000 NSC 21/18 Q1007 NOSIG
ZGHA,2018-04-12 00:00,ZGHA 120000Z 19002MPS 170V230 8000 NSC 22/18 Q1007 NOSIG
ZGHA,2018-04-12 01:00,ZGHA 120100Z VRB01MPS 9000 BKN050 23/18 Q1008 NOSIG
ZGHA,2018-04-12 02:00,ZGHA 120200Z 19003MPS 180V270 9000 BKN040 24/19 Q1008 BECMG TL0310 SHRA
ZGHA,2018-04-12 03:00,ZGHA 120300Z 15003MPS 130V210 6000 -RA BKN050 22/20 Q1008 BECMG TL0350 TSRA
ZGHA,2018-04-12 04:00,ZGHA 120400Z 17004MPS 150V230 4000 TSRA BR FEW050CB BKN050 22/20 Q1008 BECMG TL0520 -SHRA
ZGHA,2018-04-12 05:00,ZGHA 120500Z 15003MPS 4000 TSRA BR BKN009 FEW050CB BKN050 21/20 Q1008 BECMG TL0600 -SHRA SCT009 FEW050CB BKN050
ZGHA,2018-04-12 06:00,ZGHA 120600Z 09004MPS 6000 -TSRA BKN009 FEW050CB BKN050 21/19 Q1007 RESHRA BECMG TL0630 -SHRA SCT009 FEW050CB BKN050
ZGHA,2018-04-12 07:00,ZGHA 120700Z 04004MPS 9999 OVC033 21/19 Q1006 RETS NOSIG
ZGHA,2018-04-12 08:00,ZGHA 120800Z 08004MPS 9999 OVC050 21/19 Q1005 NOSIG
ZGHA,2018-04-12 09:00,ZGHA 120900Z 09004MPS 9999 OVC050 22/19 Q1005 NOSIG
ZGHA,2018-04-12 10:00,ZGHA 121000Z VRB01MPS 9999 OVC050 22/19 Q1005 NOSIG
ZGHA,2018-04-12 11:00,ZGHA 121100Z VRB01MPS 9999 OVC050 22/19 Q1006 NOSIG
ZGHA,2018-04-12 12:00,ZGHA 121200Z VRB01MPS CAVOK 21/19 Q1007 NOSIG
ZGHA,2018-04-12 13:00,ZGHA 121300Z 35001MPS CAVOK 21/19 Q1007 NOSIG
ZGHA,2018-04-12 14:00,ZGHA 121400Z 01003MPS CAVOK 21/18 Q1007 NOSIG
ZGHA,2018-04-12 15:00,ZGHA 121500Z 01003MPS CAVOK 20/19 Q1007 NOSIG
ZGHA,2018-04-12 16:00,ZGHA 121600Z 02002MPS CAVOK 20/19 Q1008 NOSIG
ZGHA,2018-04-12 17:00,ZGHA 121700Z 32002MPS 280V040 9999 OVC040 20/19 Q1007 NOSIG
ZGHA,2018-04-12 18:00,ZGHA 121800Z 31003MPS 8000 FEW004 OVC040 20/19 Q1007 NOSIG
ZGHA,2018-04-12 19:00,ZGHA 121900Z 32004MPS 8000 -RA BKN012 OVC040 21/19 Q1007 NOSIG
ZGHA,2018-04-12 20:00,ZGHA 122000Z 30005MPS 6000 -RA BKN004 OVC040 19/17 Q1007 NOSIG
ZGHA,2018-04-12 21:00,ZGHA 122100Z 29003MPS 8000 -RA BKN005 OVC040 18/16 Q1007 NOSIG
ZGHA,2018-04-12 22:00,ZGHA 122200Z 30003MPS 280V340 8000 -RA BKN005 OVC040 17/16 Q1008 NOSIG
ZGHA,2018-04-12 23:00,ZGHA 122300Z 30004MPS 8000 -RA BKN005 OVC040 17/16 Q1008 NOSIG
ZGHA,2018-04-13 00:00,ZGHA 130000Z 31003MPS 9999 BKN005 OVC040 17/16 Q1009 NOSIG
ZGHA,2018-04-13 01:00,ZGHA 130100Z 32004MPS 8000 BKN005 OVC040 17/16 Q1010 NOSIG
ZGHA,2018-04-13 02:00,ZGHA 130200Z 31004MPS 6000 -RA BKN005 OVC040 17/15 Q1010 BECMG TL0350 2500 SHRA BR BKN005 FEW040CB BKN040
ZGHA,2018-04-13 03:00,ZGHA 130300Z 32004MPS 7000 -RA BKN006 OVC040 17/15 Q1010 NOSIG
ZGHA,2018-04-13 04:00,ZGHA 130400Z 31006MPS 6000 -RA BKN007 OVC040 16/14 Q1011 NOSIG
ZGHA,2018-04-13 05:00,ZGHA 130500Z 32006MPS 6000 -RA FEW005 BKN007 OVC040 16/14 Q1010 NOSIG
ZGHA,2018-04-13 06:00,ZGHA 130600Z 35006MPS 8000 -RA FEW005 BKN007 OVC040 15/14 Q1010 NOSIG
ZGHA,2018-04-13 07:00,ZGHA 130700Z 35006MPS 9999 SCT011 BKN023 15/13 Q1010 NOSIG
ZGHA,2018-04-13 08:00,ZGHA 130800Z 33005MPS 4000 -RA BR SCT005 BKN007 OVC040 15/13 Q1010 BECMG TL0900 BKN011 OVC050
ZGHA,2018-04-13 09:00,ZGHA 130900Z 33004MPS 7000 -RA SCT004 BKN007 OVC040 15/13 Q1010 BECMG TL1000 BKN011 OVC050
ZGHA,2018-04-13 10:00,ZGHA 131000Z 35008MPS 9999 -RA SCT009 BKN015 OVC050 14/12 Q1011 BECMG TL1115 BKN011 OVC050
ZGHA,2018-04-13 11:00,ZGHA 131100Z 34007MPS 9999 -RA SCT009 BKN011 OVC050 14/12 Q1012 BECMG TL1200 BKN016 OVC050
ZGHA,2018-04-13 12:00,ZGHA 131200Z 34007MPS 9999 FEW009 BKN011 OVC050 14/12 Q1013 BECMG TL1300 BKN016 OVC050
ZGHA,2018-04-13 13:00,ZGHA 131300Z 34008MPS 9999 BKN013 OVC050 13/11 Q1014 BECMG TL1400 BKN016 OVC050
ZGHA,2018-04-13 14:00,ZGHA 131400Z 34007MPS 9999 BKN013 OVC050 13/11 Q1015 BECMG TL1500 BKN016 OVC050
ZGHA,2018-04-13 15:00,ZGHA 131500Z 34008MPS 9999 BKN013 OVC050 13/11 Q1015 NOSIG
ZGHA,2018-04-13 16:00,ZGHA 131600Z 35007MPS 9999 BKN014 OVC050 13/10 Q1015 BECMG TL1700 BKN016 OVC050
ZGHA,2018-04-13 17:00,ZGHA 131700Z 34008MPS 9999 BKN020 13/10 Q1015 NOSIG
ZGHA,2018-04-13 18:00,ZGHA 131800Z 34007MPS 9999 BKN020 13/09 Q1016 NOSIG
ZGHA,2018-04-13 19:00,ZGHA 131900Z 34006MPS 9999 BKN020 13/09 Q1015 NOSIG
ZGHA,2018-04-13 20:00,ZGHA 132000Z 35007MPS 9999 BKN024 13/09 Q1015 NOSIG
ZGHA,2018-04-13 21:00,ZGHA 132100Z 35007MPS CAVOK 13/09 Q1015 NOSIG
ZGHA,2018-04-13 22:00,ZGHA 132200Z 35006MPS CAVOK 13/09 Q1016 NOSIG
ZGHA,2018-04-13 23:00,ZGHA 132300Z 35007MPS CAVOK 13/09 Q1016 NOSIG
ZGHA,2018-04-14 00:00,ZGHA 140000Z 34008MPS CAVOK 13/08 Q1018 NOSIG
ZGHA,2018-04-14 01:00,ZGHA 140100Z 35007MPS 9999 -RA NSC 13/09 Q1019 NOSIG
ZGHA,2018-04-14 02:00,ZGHA 140200Z 35007MPS 9999 -RA NSC 13/09 Q1020 NOSIG
ZGHA,2018-04-14 03:00,ZGHA 140300Z 36007MPS CAVOK 14/09 Q1020 NOSIG
ZGHA,2018-04-14 04:00,ZGHA 140400Z 36009MPS 9999 -RA SCT040 14/09 Q1020 NOSIG
ZGHA,2018-04-14 05:00,ZGHA 140500Z 36007MPS 8000 -SHRA FEW040CB SCT040 13/11 Q1020 RESHRA NOSIG
ZGHA,2018-04-14 06:00,ZGHA 140600Z 36007MPS 9999 FEW013 14/11 Q1019 NOSIG
ZGHA,2018-04-14 07:00,ZGHA 140700Z 36008MPS 9999 BKN026 15/09 Q1018 NOSIG
ZGHA,2018-04-14 08:00,ZGHA 140800Z 36008MPS 9999 BKN033 15/09 Q1018 NOSIG
ZGHA,2018-04-14 09:00,ZGHA 140900Z 36006MPS 9999 BKN040 16/09 Q1018 NOSIG
ZGHA,2018-04-14 10:00,ZGHA 141000Z 02005MPS CAVOK 16/09 Q1019 NOSIG
ZGHA,2018-04-14 11:00,ZGHA 141100Z 36003MPS CAVOK 15/09 Q1019 NOSIG
ZGHA,2018-04-14 12:00,ZGHA 141200Z 36003MPS CAVOK 14/09 Q1020 NOSIG
ZGHA,2018-04-14 13:00,ZGHA 141300Z 36004MPS CAVOK 15/08 Q1021 NOSIG
ZGHA,2018-04-14 14:00,ZGHA 141400Z 02003MPS 360V060 CAVOK 13/09 Q1021 NOSIG
ZGHA,2018-04-14 15:00,ZGHA 141500Z 04002MPS CAVOK 13/10 Q1021 NOSIG
ZGHA,2018-04-14 16:00,ZGHA 141600Z 01002MPS CAVOK 12/09 Q1021 NOSIG
ZGHA,2018-04-14 17:00,ZGHA 141700Z 04001MPS 9000 NSC 12/09 Q1021 NOSIG
ZGHA,2018-04-14 18:00,ZGHA 141800Z 02002MPS 8000 NSC 11/09 Q1021 NOSIG
ZGHA,2018-04-14 19:00,ZGHA 141900Z 04001MPS 8000 NSC 10/08 Q1020 NOSIG
ZGHA,2018-04-14 20:00,ZGHA 142000Z VRB01MPS 7000 NSC 10/08 Q1020 NOSIG
ZGHA,2018-04-14 21:00,ZGHA 142100Z VRB01MPS 7000 NSC 11/09 Q1021 NOSIG
ZGHA,2018-04-14 22:00,ZGHA 142200Z 03002MPS 5000 BR NSC 11/09 Q1021 NOSIG
ZGHA,2018-04-14 23:00,ZGHA 142300Z 04002MPS 010V070 5000 BR FEW040 11/10 Q1021 NOSIG
ZGHA,2018-04-15 00:00,ZGHA 150000Z 04002MPS 7000 FEW040 12/10 Q1022 NOSIG
ZGHA,2018-04-15 01:00,ZGHA 150100Z 02003MPS 8000 SCT033 13/10 Q1022 NOSIG
ZGHA,2018-04-15 02:00,ZGHA 150200Z VRB01MPS 8000 -RA OVC040 14/10 Q1023 NOSIG
ZGHA,2018-04-15 03:00,ZGHA 150300Z 02002MPS 340V080 8000 BKN033 16/09 Q1022 NOSIG
ZGHA,2018-04-15 04:00,ZGHA 150400Z 06002MPS 340V110 9000 BKN033 18/08 Q1021 NOSIG
ZGHA,2018-04-15 05:00,ZGHA 150500Z 06002MPS 360V110 8000 BKN033 20/07 Q1021 NOSIG
ZGHA,2018-04-15 06:00,ZGHA 150600Z 32003MPS 290V350 8000 BKN033 20/06 Q1020 NOSIG
ZGHA,2018-04-15 07:00,ZGHA 150700Z 34004MPS 8000 BKN033 20/06 Q1019 NOSIG
ZGHA,2018-04-15 08:00,ZGHA 150800Z 31005MPS 7000 BKN033 19/08 Q1018 NOSIG
ZGHA,2018-04-15 09:00,ZGHA 150900Z 30004MPS 7000 BKN033 19/08 Q1018 NOSIG
ZGHA,2018-04-15 10:00,ZGHA 151000Z 29003MPS 270V330 7000 SCT030 19/09 Q1018 NOSIG
ZGHA,2018-04-15 11:00,ZGHA 151100Z 29003MPS 7000 NSC 18/08 Q1019 NOSIG
ZGHA,2018-04-15 12:00,ZGHA 151200Z 32003MPS 8000 NSC 18/08 Q1019 NOSIG
ZGHA,2018-04-15 13:00,ZGHA 151300Z 32003MPS 8000 NSC 18/07 Q1019 NOSIG
ZGHA,2018-04-15 14:00,ZGHA 151400Z 30002MPS 280V340 8000 SCT040 17/07 Q1020 NOSIG
ZGHA,2018-04-15 15:00,ZGHA 151500Z 34002MPS 8000 FEW040 17/06 Q1020 NOSIG
ZGHA,2018-04-15 16:00,ZGHA 151600Z 03001MPS 8000 NSC 15/09 Q1020 NOSIG
ZGHA,2018-04-15 17:00,ZGHA 151700Z VRB01MPS 8000 NSC 15/10 Q1020 NOSIG
ZGHA,2018-04-15 18:00,ZGHA 151800Z VRB01MPS 8000 NSC 15/11 Q1019 NOSIG
ZGHA,2018-04-15 19:00,ZGHA 151900Z 17001MPS 8000 FEW040 14/11 Q1019 NOSIG
ZGHA,2018-04-15 20:00,ZGHA 152000Z 18001MPS 8000 NSC 14/11 Q1019 NOSIG
ZGHA,2018-04-15 21:00,ZGHA 152100Z 00000MPS 8000 NSC 14/11 Q1019 NOSIG
ZGHA,2018-04-15 22:00,ZGHA 152200Z 13001MPS 5000 BR NSC 14/12 Q1018 NOSIG
ZGHA,2018-04-15 23:00,ZGHA 152300Z VRB01MPS 5000 BR SCT033 14/12 Q1019 NOSIG
ZGHA,2018-04-16 00:00,ZGHA 160000Z VRB01MPS 5000 BR BKN033 15/11 Q1019 NOSIG
ZGHA,2018-04-16 01:00,ZGHA 160100Z 16001MPS 6000 BKN040 16/10 Q1020 NOSIG
ZGHA,2018-04-16 02:00,ZGHA 160200Z VRB01MPS 7000 FEW026 BKN050 17/10 Q1021 NOSIG
ZGHA,2018-04-16 03:00,ZGHA 160300Z VRB01MPS 7000 SCT030 18/09 Q1020 NOSIG
ZGHA,2018-04-16 04:00,ZGHA 160400Z VRB01MPS 8000 NSC 20/08 Q1020 NOSIG
ZGHA,2018-04-16 05:00,ZGHA 160500Z VRB01MPS 8000 FEW030 21/08 Q1019 NOSIG
ZGHA,2018-04-16 06:00,ZGHA 160600Z 31001MPS 8000 FEW030 23/05 Q1018 NOSIG
ZGHA,2018-04-16 07:00,ZGHA 160700Z VRB01MPS 8000 FEW030 23/05 Q1017 NOSIG
ZGHA,2018-04-16 08:00,ZGHA 160800Z 35003MPS 300V040 8000 FEW033 23/05 Q1017 NOSIG
ZGHA,2018-04-16 09:00,ZGHA 160900Z 35003MPS 320V040 8000 NSC 23/06 Q1016 NOSIG
ZGHA,2018-04-16 10:00,ZGHA 161000Z 31002MPS 280V360 8000 NSC 22/05 Q1017 NOSIG
ZGHA,2018-04-16 11:00,ZGHA 161100Z VRB01MPS 8000 NSC 21/07 Q1017 NOSIG
ZGHA,2018-04-16 12:00,ZGHA 161200Z VRB01MPS 8000 NSC 19/10 Q1018 NOSIG
ZGHA,2018-04-16 13:00,ZGHA 161300Z VRB01MPS 8000 NSC 17/11 Q1018 NOSIG
ZGHA,2018-04-16 14:00,ZGHA 161400Z 16002MPS 140V210 8000 NSC 16/10 Q1019 NOSIG
ZGHA,2018-04-16 15:00,ZGHA 161500Z 18002MPS 150V240 8000 NSC 15/10 Q1019 NOSIG
ZGHA,2018-04-16 16:00,ZGHA 161600Z VRB01MPS 8000 NSC 14/10 Q1019 NOSIG
ZGHA,2018-04-16 17:00,ZGHA 161700Z VRB01MPS 8000 NSC 14/10 Q1019 NOSIG
ZGHA,2018-04-16 18:00,ZGHA 161800Z 16002MPS 8000 NSC 14/10 Q1018 NOSIG
ZGHA,2018-04-16 19:00,ZGHA 161900Z 15002MPS 8000 NSC 13/09 Q1018 NOSIG
ZGHA,2018-04-16 20:00,ZGHA 162000Z 17002MPS 8000 NSC 12/09 Q1018 NOSIG
ZGHA,2018-04-16 21:00,ZGHA 162100Z 17002MPS 8000 NSC 12/09 Q1018 NOSIG
ZGHA,2018-04-16 22:00,ZGHA 162200Z 18002MPS 8000 NSC 11/09 Q1019 NOSIG
ZGHA,2018-04-16 23:00,ZGHA 162300Z VRB01MPS 8000 NSC 12/09 Q1019 NOSIG
ZGHA,2018-04-17 00:00,ZGHA 170000Z 16003MPS 7000 NSC 15/09 Q1020 NOSIG
ZGHA,2018-04-17 01:00,ZGHA 170100Z 17003MPS 140V210 CAVOK 18/10 Q1020 NOSIG
ZGHA,2018-04-17 02:00,ZGHA 170200Z 19004MPS 150V220 CAVOK 20/09 Q1021 NOSIG
ZGHA,2018-04-17 03:00,ZGHA 170300Z 20003MPS 150V280 CAVOK 22/09 Q1021 NOSIG
ZGHA,2018-04-17 04:00,ZGHA 170400Z VRB03MPS CAVOK 23/07 Q1020 NOSIG
ZGHA,2018-04-17 05:00,ZGHA 170500Z VRB02MPS CAVOK 24/07 Q1018 NOSIG
ZGHA,2018-04-17 06:00,ZGHA 170600Z VRB02MPS CAVOK 25/07 Q1017 NOSIG
ZGHA,2018-04-17 07:00,ZGHA 170700Z 05002MPS 320V090 CAVOK 25/08 Q1016 NOSIG
ZGHA,2018-04-17 08:00,ZGHA 170800Z VRB01MPS CAVOK 27/07 Q1015 NOSIG
ZGHA,2018-04-17 09:00,ZGHA 170900Z VRB02MPS CAVOK 27/05 Q1015 NOSIG
ZGHA,2018-04-17 10:00,ZGHA 171000Z 21002MPS CAVOK 26/06 Q1015 NOSIG
ZGHA,2018-04-17 11:00,ZGHA 171100Z 21002MPS CAVOK 23/08 Q1015 NOSIG
ZGHA,2018-04-17 12:00,ZGHA 171200Z 21002MPS 180V250 CAVOK 22/09 Q1015 NOSIG
ZGHA,2018-04-17 13:00,ZGHA 171300Z 14002MPS CAVOK 20/10 Q1016 NOSIG
ZGHA,2018-04-17 14:00,ZGHA 171400Z 16002MPS 130V190 CAVOK 18/11 Q1016 NOSIG
ZGHA,2018-04-17 15:00,ZGHA 171500Z VRB01MPS CAVOK 17/11 Q1016 NOSIG
ZGHA,2018-04-17 16:00,ZGHA 171600Z VRB01MPS CAVOK 17/10 Q1016 NOSIG
ZGHA,2018-04-17 17:00,ZGHA 171700Z VRB01MPS CAVOK 16/10 Q1016 NOSIG
ZGHA,2018-04-17 18:00,ZGHA 171800Z 00000MPS CAVOK 14/11 Q1015 NOSIG
ZGHA,2018-04-17 19:00,ZGHA 171900Z 26002MPS 200V280 CAVOK 14/10 Q1015 NOSIG
ZGHA,2018-04-17 20:00,ZGHA 172000Z VRB01MPS CAVOK 14/09 Q1015 NOSIG
ZGHA,2018-04-17 21:00,ZGHA 172100Z VRB01MPS CAVOK 13/09 Q1015 NOSIG
ZGHA,2018-04-17 22:00,ZGHA 172200Z VRB01MPS CAVOK 13/10 Q1015 NOSIG
ZGHA,2018-04-17 23:00,ZGHA 172300Z VRB01MPS CAVOK 14/10 Q1016 NOSIG
ZGHA,2018-04-18 00:00,ZGHA 180000Z VRB01MPS CAVOK 17/10 Q1016 NOSIG
ZGHA,2018-04-18 01:00,ZGHA 180100Z VRB01MPS CAVOK 21/11 Q1016 NOSIG
ZGHA,2018-04-18 02:00,ZGHA 180200Z 18004MPS 160V230 CAVOK 24/08 Q1017 NOSIG
ZGHA,2018-04-18 03:00,ZGHA 180300Z 18004MPS 130V230 CAVOK 25/07 Q1016 NOSIG
ZGHA,2018-04-18 04:00,ZGHA 180400Z 17003MPS 130V250 CAVOK 27/07 Q1015 NOSIG
ZGHA,2018-04-18 05:00,ZGHA 180500Z 19003MPS 150V250 CAVOK 28/06 Q1014 NOSIG
ZGHA,2018-04-18 06:00,ZGHA 180600Z 21004MPS 170V240 CAVOK 29/03 Q1013 NOSIG
ZGHA,2018-04-18 07:00,ZGHA 180700Z 16003MPS 060V200 CAVOK 29/04 Q1012 NOSIG
ZGHA,2018-04-18 08:00,ZGHA 180800Z 18004MPS 140V200 CAVOK 30/02 Q1011 NOSIG
ZGHA,2018-04-18 09:00,ZGHA 180900Z 16004MPS 130V190 CAVOK 30/01 Q1011 NOSIG
ZGHA,2018-04-18 10:00,ZGHA 181000Z 20003MPS CAVOK 29/04 Q1011 NOSIG
ZGHA,2018-04-18 11:00,ZGHA 181100Z 17002MPS CAVOK 26/07 Q1011 NOSIG
ZGHA,2018-04-18 12:00,ZGHA 181200Z VRB01MPS CAVOK 23/10 Q1011 NOSIG
ZGHA,2018-04-18 13:00,ZGHA 181300Z 16002MPS 140V210 CAVOK 21/10 Q1012 NOSIG
ZGHA,2018-04-18 14:00,ZGHA 181400Z 17002MPS 150V220 CAVOK 20/09 Q1012 NOSIG
ZGHA,2018-04-18 15:00,ZGHA 181500Z VRB01MPS CAVOK 19/09 Q1012 NOSIG
ZGHA,2018-04-18 16:00,ZGHA 181600Z VRB01MPS CAVOK 18/07 Q1012 NOSIG
ZGHA,2018-04-18 17:00,ZGHA 181700Z VRB01MPS CAVOK 17/11 Q1012 NOSIG
ZGHA,2018-04-18 18:00,ZGHA 181800Z 20001MPS CAVOK 16/10 Q1011 NOSIG
ZGHA,2018-04-18 19:00,ZGHA 181900Z 00000MPS CAVOK 16/11 Q1011 NOSIG
ZGHA,2018-04-18 20:00,ZGHA 182000Z VRB01MPS CAVOK 15/12 Q1011 NOSIG
ZGHA,2018-04-18 21:00,ZGHA 182100Z 33001MPS CAVOK 15/11 Q1012 NOSIG
ZGHA,2018-04-18 22:00,ZGHA 182200Z VRB01MPS CAVOK 14/11 Q1012 NOSIG
ZGHA,2018-04-18 23:00,ZGHA 182300Z VRB01MPS CAVOK 15/12 Q1013 NOSIG
ZGHA,2018-04-19 00:00,ZGHA 190000Z VRB01MPS CAVOK 19/11 Q1014 NOSIG
ZGHA,2018-04-19 01:00,ZGHA 190100Z 21002MPS 180V240 CAVOK 22/12 Q1014 NOSIG
ZGHA,2018-04-19 02:00,ZGHA 190200Z 18005MPS CAVOK 26/09 Q1014 NOSIG
ZGHA,2018-04-19 03:00,ZGHA 190300Z 18004MPS 140V210 CAVOK 28/10 Q1014 NOSIG
ZGHA,2018-04-19 04:00,ZGHA 190400Z 18005MPS 140V210 CAVOK 29/10 Q1013 NOSIG
ZGHA,2018-04-19 05:00,ZGHA 190500Z 20004MPS 110V270 CAVOK 30/10 Q1012 NOSIG
ZGHA,2018-04-19 06:00,ZGHA 190600Z 19005MPS 160V240 CAVOK 31/09 Q1011 NOSIG
ZGHA,2018-04-19 07:00,ZGHA 190700Z 20004MPS 150V240 CAVOK 31/10 Q1010 NOSIG
ZGHA,2018-04-19 08:00,ZGHA 190800Z 17006MPS 140V200 CAVOK 31/07 Q1009 NOSIG
ZGHA,2018-04-19 09:00,ZGHA 190900Z 18005MPS 150V220 CAVOK 31/08 Q1009 NOSIG
ZGHA,2018-04-19 10:00,ZGHA 191000Z 18004MPS CAVOK 30/08 Q1009 NOSIG
ZGHA,2018-04-19 11:00,ZGHA 191100Z 17002MPS CAVOK 28/10 Q1009 NOSIG
ZGHA,2018-04-19 12:00,ZGHA 191200Z 20002MPS 140V240 CAVOK 25/11 Q1010 NOSIG
ZGHA,2018-04-19 13:00,ZGHA 191300Z 16002MPS 140V200 CAVOK 25/11 Q1010 NOSIG
ZGHA,2018-04-19 14:00,ZGHA 191400Z 15002MPS 130V220 CAVOK 24/12 Q1010 NOSIG
ZGHA,2018-04-19 15:00,ZGHA 191500Z VRB01MPS CAVOK 22/13 Q1011 NOSIG
ZGHA,2018-04-19 16:00,ZGHA 191600Z VRB01MPS CAVOK 22/13 Q1011 NOSIG
ZGHA,2018-04-19 17:00,ZGHA 191700Z VRB01MPS CAVOK 22/12 Q1010 NOSIG
ZGHA,2018-04-19 18:00,ZGHA 191800Z 19002MPS 160V220 CAVOK 21/13 Q1010 NOSIG
ZGHA,2018-04-19 19:00,ZGHA 191900Z 15003MPS CAVOK 22/12 Q1009 NOSIG
ZGHA,2018-04-19 20:00,ZGHA 192000Z 18002MPS CAVOK 22/12 Q1009 NOSIG
ZGHA,2018-04-19 21:00,ZGHA 192100Z 16002MPS CAVOK 21/14 Q1009 NOSIG
ZGHA,2018-04-19 22:00,ZGHA 192200Z 18002MPS CAVOK 21/13 Q1010 NOSIG
ZGHA,2018-04-19 23:00,ZGHA 192300Z 16002MPS CAVOK 22/13 Q1010 NOSIG
ZGHA,2018-04-20 00:00,ZGHA 200000Z 17003MPS CAVOK 24/13 Q1011 NOSIG
ZGHA,2018-04-20 01:00,ZGHA 200100Z 19003MPS 150V240 CAVOK 24/15 Q1011 NOSIG
ZGHA,2018-04-20 02:00,ZGHA 200200Z 17006MPS 130V200 CAVOK 26/14 Q1011 NOSIG
ZGHA,2018-04-20 03:00,ZGHA 200300Z 18006MPS CAVOK 27/15 Q1011 NOSIG
ZGHA,2018-04-20 04:00,ZGHA 200400Z 18006MPS 160V220 CAVOK 28/16 Q1010 NOSIG
ZGHA,2018-04-20 05:00,ZGHA 200500Z 16006MPS 140V200 CAVOK 28/16 Q1010 NOSIG
ZGHA,2018-04-20 06:00,ZGHA 200600Z 17006MPS 9999 -RA NSC 27/16 Q1010 NOSIG
ZGHA,2018-04-20 07:00,ZGHA 200700Z 16008MPS 8000 -RA BKN040 25/18 Q1009 BECMG TL0740 SHRA BKN011 FEW040CB BKN040
ZGHA,2018-04-20 08:00,ZGHA 200800Z 14004MPS 120V200 8000 BKN050 24/18 Q1009 NOSIG
ZGHA,2018-04-20 09:00,ZGHA 200900Z 15005MPS 120V190 CAVOK 26/18 Q1009 NOSIG
ZGHA,2018-04-20 10:00,ZGHA 201000Z 17006MPS CAVOK 26/17 Q1009 NOSIG
ZGHA,2018-04-20 11:00,ZGHA 201100Z 17005MPS 150V210 CAVOK 25/17 Q1010 NOSIG
ZGHA,2018-04-20 12:00,ZGHA 201200Z 17004MPS CAVOK 24/17 Q1010 NOSIG
ZGHA,2018-04-20 13:00,ZGHA 201300Z 14004MPS 110V200 CAVOK 23/18 Q1010 NOSIG
ZGHA,2018-04-20 14:00,ZGHA 201400Z 17004MPS 9000 NSC 23/18 Q1010 NOSIG
ZGHA,2018-04-20 15:00,ZGHA 201500Z 21002MPS 180V250 9000 NSC 22/18 Q1010 NOSIG
ZGHA,2018-04-20 16:00,ZGHA 201600Z 21002MPS 150V260 7000 SHRA SCT050CB BKN050 22/18 Q1010 BECMG TL1620 TSRA
ZGHA,2018-04-20 17:00,ZGHA 201700Z 15003MPS 130V190 4000 TSRA BR SCT040CB 21/19 Q1010 BECMG TL1800 -RA
ZGHA,2018-04-20 18:00,ZGHA 201800Z 15003MPS 7000 TS FEW050CB 21/19 Q1009 RESHRA NOSIG
ZGHA,2018-04-20 19:00,ZGHA 201900Z 16005MPS 6000 -RA NSC 21/19 Q1008 RETS NOSIG
ZGHA,2018-04-20 20:00,ZGHA 202000Z 16005MPS 6000 -RA FEW030 21/19 Q1007 NOSIG
ZGHA,2018-04-20 21:00,ZGHA 202100Z 16004MPS 8000 FEW030 21/19 Q1007 NOSIG
ZGHA,2018-04-20 22:00,ZGHA 202200Z 20003MPS 5000 BR NSC 21/19 Q1008 NOSIG
ZGHA,2018-04-20 23:00,ZGHA 202300Z 19003MPS 5000 BR NSC 21/19 Q1008 NOSIG
ZGHA,2018-04-21 00:00,ZGHA 210000Z 19003MPS 160V220 5000 BR NSC 22/20 Q1009 NOSIG
ZGHA,2018-04-21 01:00,ZGHA 210100Z 17004MPS 7000 NSC 23/20 Q1009 NOSIG
ZGHA,2018-04-21 02:00,ZGHA 210200Z 18005MPS CAVOK 25/20 Q1009 NOSIG
ZGHA,2018-04-21 03:00,ZGHA 210300Z 19007MPS 9999 FEW029 27/19 Q1008 NOSIG
ZGHA,2018-04-21 04:00,ZGHA 210400Z 19007MPS 9999 FEW033 27/18 Q1008 NOSIG
ZGHA,2018-04-21 05:00,ZGHA 210500Z 19006MPS 160V220 CAVOK 28/19 Q1007 NOSIG
ZGHA,2018-04-21 06:00,ZGHA 210600Z 19006MPS 9999 FEW040 29/19 Q1006 NOSIG
ZGHA,2018-04-21 07:00,ZGHA 210700Z 18006MPS 9999 SCT040 29/19 Q1006 NOSIG
ZGHA,2018-04-21 08:00,ZGHA 210800Z 18006MPS 9999 FEW040 29/18 Q1005 NOSIG
ZGHA,2018-04-21 09:00,ZGHA 210900Z 17004MPS CAVOK 29/19 Q1005 NOSIG
ZGHA,2018-04-21 10:00,ZGHA 211000Z 18005MPS CAVOK 29/19 Q1005 NOSIG
ZGHA,2018-04-21 11:00,ZGHA 211100Z 18005MPS CAVOK 28/18 Q1006 NOSIG
ZGHA,2018-04-21 12:00,ZGHA 211200Z 18005MPS CAVOK 27/18 Q1006 NOSIG
ZGHA,2018-04-21 13:00,ZGHA 211300Z 17003MPS CAVOK 25/19 Q1007 NOSIG
ZGHA,2018-04-21 14:00,ZGHA 211400Z 15003MPS CAVOK 24/19 Q1008 NOSIG
ZGHA,2018-04-21 15:00,ZGHA 211500Z 18004MPS 170V230 CAVOK 24/19 Q1008 NOSIG
ZGHA,2018-04-21 16:00,ZGHA 211600Z 18004MPS CAVOK 25/19 Q1008 NOSIG
ZGHA,2018-04-21 17:00,ZGHA 211700Z 18004MPS CAVOK 24/19 Q1007 NOSIG
ZGHA,2018-04-21 18:00,ZGHA 211800Z 18003MPS CAVOK 24/19 Q1007 NOSIG
ZGHA,2018-04-21 19:00,ZGHA 211900Z 18002MPS 160V220 CAVOK 23/19 Q1007 NOSIG
ZGHA,2018-04-21 20:00,ZGHA 212000Z VRB01MPS CAVOK 23/18 Q1007 NOSIG
ZGHA,2018-04-21 21:00,ZGHA 212100Z 15003MPS CAVOK 23/18 Q1007 NOSIG
ZGHA,2018-04-21 22:00,ZGHA 212200Z 19002MPS CAVOK 23/19 Q1007 NOSIG
ZGHA,2018-04-21 23:00,ZGHA 212300Z 17004MPS CAVOK 23/19 Q1007 NOSIG
ZGHA,2018-04-22 00:00,ZGHA 220000Z 16004MPS CAVOK 24/19 Q1008 NOSIG
ZGHA,2018-04-22 01:00,ZGHA 220100Z 17005MPS CAVOK 25/19 Q1008 NOSIG
ZGHA,2018-04-22 02:00,ZGHA 220200Z 18005MPS CAVOK 27/19 Q1008 NOSIG
ZGHA,2018-04-22 03:00,ZGHA 220300Z 19006MPS 160V220 CAVOK 28/19 Q1007 NOSIG
ZGHA,2018-04-22 04:00,ZGHA 220400Z 17005MPS 140V200 CAVOK 28/20 Q1007 NOSIG
ZGHA,2018-04-22 05:00,ZGHA 220500Z 16006MPS 9999 SCT033 OVC050 28/20 Q1006 NOSIG
ZGHA,2018-04-22 06:00,ZGHA 220600Z 17004MPS 160V220 9999 -SHRA BKN033 OVC050 28/20 Q1006 BECMG TL0700 SHRA
ZGHA,2018-04-22 07:00,ZGHA 220700Z 23002MPS 5000 TSRA BR SCT050CB BKN050 24/22 Q1005 BECMG TL0800 -SHRA
ZGHA,2018-04-22 08:00,ZGHA 220800Z 14005MPS 5000 TSRA BR SCT050CB BKN050 23/22 Q1004 BECMG TL0830 -SHRA
ZGHA,2018-04-22 09:00,ZGHA 220900Z 10004MPS 8000 -RA NSC 24/22 Q1004 RETSRA NOSIG
ZGHA,2018-04-22 10:00,ZGHA 221000Z 10002MPS 7000 NSC 24/22 Q1003 NOSIG
ZGHA,2018-04-22 11:00,ZGHA 221100Z VRB01MPS 7000 OVC050 24/22 Q1004 NOSIG
ZGHA,2018-04-22 12:00,ZGHA 221200Z 15003MPS 140V220 CAVOK 24/21 Q1004 BECMG TL1340 TSRA
ZGHA,2018-04-22 13:00,ZGHA 221300Z 17002MPS 150V230 CAVOK 23/21 Q1005 BECMG TL1410 TSRA
ZGHA,2018-04-22 14:00,ZGHA 221400Z 24002MPS 210V270 7000 SHRA BKN018 FEW040CB BKN040 23/21 Q1006 RETS BECMG TL1500 TSRA
ZGHA,2018-04-22 15:00,ZGHA 221500Z 16004MPS 5000 RA BR SCT005 BKN018 OVC040 23/21 Q1005 NOSIG
ZGHA,2018-04-22 16:00,ZGHA 221600Z 16004MPS 8000 -RA SCT008 OVC040 22/21 Q1005 RERA NOSIG
ZGHA,2018-04-22 17:00,ZGHA 221700Z VRB03MPS 6000 -RA FEW007 BKN017 OVC040 22/21 Q1005 NOSIG
ZGHA,2018-04-22 18:00,ZGHA 221800Z 29004MPS 9999 BKN007 OVC040 22/20 Q1005 NOSIG
ZGHA,2018-04-22 19:00,ZGHA 221900Z 30006MPS 280V340 9999 -RA BKN004 OVC040 18/17 Q1005 NOSIG
ZGHA,2018-04-22 20:00,ZGHA 222000Z 31007MPS 9999 BKN008 OVC040 18/16 Q1006 NOSIG
ZGHA,2018-04-22 21:00,ZGHA 222100Z 31006MPS 9999 BKN010 OVC040 17/15 Q1007 NOSIG
ZGHA,2018-04-22 22:00,ZGHA 222200Z 31005MPS 9999 BKN010 OVC040 17/14 Q1008 NOSIG
ZGHA,2018-04-22 23:00,ZGHA 222300Z 31005MPS 9999 BKN010 OVC040 17/14 Q1009 NOSIG
ZGHA,2018-04-23 00:00,ZGHA 230000Z 32005MPS 9999 BKN011 OVC040 16/14 Q1010 NOSIG
ZGHA,2018-04-23 01:00,ZGHA 230100Z 35007MPS 9999 -DZ BKN010 OVC040 16/14 Q1011 BECMG TL0200 BKN009 OVC050
ZGHA,2018-04-23 02:00,ZGHA 230200Z 34006MPS 9999 -DZ BKN009 OVC040 16/14 Q1012 BECMG TL0300 BKN011 OVC050
ZGHA,2018-04-23 03:00,ZGHA 230300Z 36007MPS 9999 BKN010 OVC040 16/14 Q1012 BECMG TL0450 BKN016 OVC050
ZGHA,2018-04-23 04:00,ZGHA 230400Z 36008MPS 9999 BKN011 OVC040 16/13 Q1012 BECMG TL0550 BKN016 OVC050
ZGHA,2018-04-23 05:00,ZGHA 230500Z 35007MPS 9999 BKN011 OVC050 17/13 Q1012 BECMG TL0650 BKN016 OVC050
ZGHA,2018-04-23 06:00,ZGHA 230600Z 34007MPS 8000 SCT011 BKN015 OVC050 16/13 Q1012 NOSIG
ZGHA,2018-04-23 07:00,ZGHA 230700Z 36008MPS 8000 BKN013 OVC050 16/13 Q1012 BECMG TL0800 BKN016 OVC050
ZGHA,2018-04-23 08:00,ZGHA 230800Z 36008MPS 8000 BKN015 BKN050 17/12 Q1012 NOSIG
ZGHA,2018-04-23 09:00,ZGHA 230900Z 35008MPS 7000 SCT016 OVC050 16/12 Q1012 NOSIG
ZGHA,2018-04-23 10:00,ZGHA 231000Z 35008MPS 7000 SCT016 OVC050 16/12 Q1012 BECMG TL1150 BKN014 OVC050
ZGHA,2018-04-23 11:00,ZGHA 231100Z 35007MPS 5000 BR BKN014 OVC050 16/12 Q1013 BECMG TL1200 BKN015 OVC050
ZGHA,2018-04-23 12:00,ZGHA 231200Z 35007MPS 6000 BKN015 OVC050 15/12 Q1014 BECMG TL1300 BKN013 OVC050
ZGHA,2018-04-23 13:00,ZGHA 231300Z 36007MPS 6000 BKN012 OVC050 15/12 Q1015 NOSIG
ZGHA,2018-04-23 14:00,ZGHA 231400Z 36007MPS 6000 BKN012 OVC050 15/12 Q1016 NOSIG
ZGHA,2018-04-23 15:00,ZGHA 231500Z 36006MPS 5000 BR BKN013 OVC050 15/12 Q1016 BECMG TL1600 BKN015 OVC050
ZGHA,2018-04-23 16:00,ZGHA 231600Z 34005MPS 5000 BR BKN020 15/12 Q1016 NOSIG
ZGHA,2018-04-23 17:00,ZGHA 231700Z 34005MPS 5000 BR BKN020 15/12 Q1016 NOSIG
ZGHA,2018-04-23 18:00,ZGHA 231800Z 34005MPS 5000 BR BKN020 15/12 Q1016 NOSIG
ZGHA,2018-04-23 19:00,ZGHA 231900Z 35005MPS 5000 BR BKN023 15/12 Q1016 NOSIG
ZGHA,2018-04-23 20:00,ZGHA 232000Z 35005MPS 5000 BR BKN023 15/12 Q1016 NOSIG
ZGHA,2018-04-23 21:00,ZGHA 232100Z 35004MPS 5000 BR BKN014 15/12 Q1016 NOSIG
ZGHA,2018-04-23 22:00,ZGHA 232200Z 36006MPS 3500 BR BKN014 15/12 Q1016 BECMG TL2300 2700
ZGHA,2018-04-23 23:00,ZGHA 232300Z 34005MPS 2000 -RA BR BKN020 14/13 Q1017 BECMG TL0050 3500
ZGHA,2018-04-24 00:00,ZGHA 240000Z 35004MPS 3500 BR BKN021 15/13 Q1018 NOSIG
ZGHA,2018-04-24 01:00,ZGHA 240100Z 35005MPS 3500 BR BKN016 15/12 Q1019 NOSIG
ZGHA,2018-04-24 02:00,ZGHA 240200Z 36005MPS 3200 -RA BR BKN016 OVC050 15/13 Q1019 BECMG TL0300 BKN011 OVC050
ZGHA,2018-04-24 03:00,ZGHA 240300Z 01005MPS 4000 BR BKN013 OVC050 16/13 Q1019 BECMG TL0400 BKN016 OVC050
ZGHA,2018-04-24 04:00,ZGHA 240400Z 36004MPS 7000 BKN016 OVC050 17/13 Q1018 NOSIG
ZGHA,2018-04-24 05:00,ZGHA 240500Z 36005MPS 8000 BKN016 OVC050 17/13 Q1018 NOSIG
ZGHA,2018-04-24 06:00,ZGHA 240600Z 35004MPS 9000 BKN020 OVC050 18/13 Q1017 NOSIG
ZGHA,2018-04-24 07:00,ZGHA 240700Z 36004MPS 9000 BKN020 OVC050 18/13 Q1016 NOSIG
ZGHA,2018-04-24 08:00,ZGHA 240800Z 36005MPS 9000 BKN020 OVC050 18/13 Q1016 NOSIG
ZGHA,2018-04-24 09:00,ZGHA 240900Z 35005MPS 3800 BR BKN020 OVC050 18/13 Q1017 NOSIG
ZGHA,2018-04-24 10:00,ZGHA 241000Z 36005MPS 3500 BR BKN020 OVC050 17/14 Q1017 NOSIG
ZGHA,2018-04-24 11:00,ZGHA 241100Z 01004MPS 3500 BR BKN026 OVC050 17/13 Q1017 NOSIG
ZGHA,2018-04-24 12:00,ZGHA 241200Z 02003MPS 5000 BR BKN026 OVC050 17/14 Q1017 NOSIG
ZGHA,2018-04-24 13:00,ZGHA 241300Z 36004MPS 5000 BR BKN026 OVC050 17/14 Q1018 NOSIG
ZGHA,2018-04-24 14:00,ZGHA 241400Z 36003MPS 5000 BR BKN026 OVC050 17/14 Q1018 NOSIG
ZGHA,2018-04-24 15:00,ZGHA 241500Z 01003MPS 5000 BR BKN033 OVC050 17/14 Q1018 NOSIG
ZGHA,2018-04-24 16:00,ZGHA 241600Z 01003MPS 5000 BR OVC033 17/14 Q1018 NOSIG
ZGHA,2018-04-24 17:00,ZGHA 241700Z 36004MPS 5000 BR OVC033 17/14 Q1017 NOSIG
ZGHA,2018-04-24 18:00,ZGHA 241800Z 03002MPS 5000 BR OVC040 17/14 Q1017 NOSIG
ZGHA,2018-04-24 19:00,ZGHA 241900Z 04002MPS 5000 BR OVC040 16/14 Q1016 NOSIG
ZGHA,2018-04-24 20:00,ZGHA 242000Z 02003MPS 4800 BR OVC050 16/14 Q1016 NOSIG
ZGHA,2018-04-24 21:00,ZGHA 242100Z 36003MPS 4000 BR OVC050 16/14 Q1017 NOSIG
ZGHA,2018-04-24 22:00,ZGHA 242200Z 36003MPS 2400 BR OVC050 16/14 Q1017 NOSIG
ZGHA,2018-04-24 23:00,ZGHA 242300Z 02002MPS 2400 BR BKN026 OVC050 16/14 Q1017 NOSIG
ZGHA,2018-04-25 00:00,ZGHA 250000Z 36001MPS 3000 BR BKN026 OVC050 17/14 Q1018 NOSIG
ZGHA,2018-04-25 01:00,ZGHA 250100Z VRB01MPS 4000 BR BKN033 18/14 Q1018 NOSIG
ZGHA,2018-04-25 02:00,ZGHA 250200Z VRB01MPS 6000 FEW016 BKN040 21/15 Q1018 NOSIG
ZGHA,2018-04-25 03:00,ZGHA 250300Z VRB01MPS 8000 SCT023 21/14 Q1017 NOSIG
ZGHA,2018-04-25 04:00,ZGHA 250400Z VRB02MPS 9999 SCT030 22/14 Q1017 NOSIG
ZGHA,2018-04-25 05:00,ZGHA 250500Z 04002MPS 350V080 9999 SCT040 22/14 Q1016 NOSIG
ZGHA,2018-04-25 06:00,ZGHA 250600Z 36002MPS 320V050 9999 SCT050 23/14 Q1015 NOSIG
ZGHA,2018-04-25 07:00,ZGHA 250700Z 35002MPS 310V030 9999 SCT040 24/14 Q1014 NOSIG
ZGHA,2018-04-25 08:00,ZGHA 250800Z 33005MPS 6000 OVC050 21/15 Q1014 NOSIG
ZGHA,2018-04-25 09:00,ZGHA 250900Z 32004MPS 3500 -RA BR BKN040 19/16 Q1014 BECMG TL1000 2900
ZGHA,2018-04-25 10:00,ZGHA 251000Z 31004MPS 2800 -RA BR BKN040 19/16 Q1014 BECMG TL1100 3000
ZGHA,2018-04-25 11:00,ZGHA 251100Z 32004MPS 2500 -RA BR BKN040 18/16 Q1014 NOSIG
ZGHA,2018-04-25 12:00,ZGHA 251200Z 32003MPS 3000 -RA BR SCT026 18/16 Q1015 NOSIG
ZGHA,2018-04-25 13:00,ZGHA 251300Z 34003MPS 3000 BR BKN007 BKN026 18/16 Q1016 BECMG TL1400 SCT007
ZGHA,2018-04-25 14:00,ZGHA 251400Z 36004MPS 4000 -RA BR BKN014 OVC033 18/16 Q1016 BECMG TL1500 BKN016
ZGHA,2018-04-25 15:00,ZGHA 251500Z 36003MPS 320V020 4000 BR FEW020 OVC033 18/16 Q1016 NOSIG
ZGHA,2018-04-25 16:00,ZGHA 251600Z VRB01MPS 3500 -RA BR FEW008 OVC033 18/16 Q1016 NOSIG
ZGHA,2018-04-25 17:00,ZGHA 251700Z 01003MPS 3500 BR FEW008 OVC033 17/15 Q1015 NOSIG
ZGHA,2018-04-25 18:00,ZGHA 251800Z 36004MPS 3000 BR FEW008 OVC033 17/15 Q1015 NOSIG
ZGHA,2018-04-25 19:00,ZGHA 251900Z 02001MPS 3000 BR BKN026 17/15 Q1014 NOSIG
ZGHA,2018-04-25 20:00,ZGHA 252000Z 33003MPS 3000 BR FEW006 BKN026 17/15 Q1014 NOSIG
ZGHA,2018-04-25 21:00,ZGHA 252100Z 04002MPS 2500 -RA BR FEW006 BKN026 17/15 Q1014 NOSIG
ZGHA,2018-04-25 22:00,ZGHA 252200Z 36002MPS 1800 -RA BR BKN010 17/15 Q1014 BECMG TL2300 BKN009 OVC050
ZGHA,2018-04-25 23:00,ZGHA 252300Z 36002MPS 1200 R36L/1400D R36R/1700D -RA BR BKN007 17/16 Q1015 BECMG TL2400 1800
ZGHA,2018-04-26 00:00,ZGHA 260000Z 30002MPS 280V340 1200 R36L/1400U R36R/1600U -RA BR BKN007 17/16 Q1016 BECMG TL0150 1600
ZGHA,2018-04-26 01:00,ZGHA 260100Z 36003MPS 1600 R36L/1400N R36R/1700N -RA BR FEW005 BKN007 OVC050 17/16 Q1017 BECMG TL0250 BKN010 OVC050
ZGHA,2018-04-26 02:00,ZGHA 260200Z 31003MPS 1800 -RA BR FEW005 BKN008 OVC050 17/16 Q1017 BECMG TL0350 BKN010 OVC050
ZGHA,2018-04-26 03:00,ZGHA 260300Z 31002MPS 270V340 1800 BR BKN008 OVC050 18/16 Q1017 BECMG TL0400 BKN010 OVC050
ZGHA,2018-04-26 04:00,ZGHA 260400Z 29003MPS 260V340 1800 R36L/1200V1400N R36R/1900N -RA BR FEW007 BKN011 OVC050 18/16 Q1017 BECMG TL0500 BKN008 OVC050
ZGHA,2018-04-26 05:00,ZGHA 260500Z 29002MPS 250V340 1800 R36L/1400U R36R/1800U -RA BR BKN009 OVC050 18/16 Q1017 BECMG TL0600 BKN010 OVC050
ZGHA,2018-04-26 06:00,ZGHA 260600Z 27001MPS 2000 -RA BR FEW007 BKN010 OVC050 18/16 Q1016 BECMG TL0750 3000
ZGHA,2018-04-26 07:00,ZGHA 260700Z 28002MPS 250V330 2500 BR FEW007 BKN011 OVC050 18/16 Q1016 BECMG TL0850 3000 BKN015 OVC050
ZGHA,2018-04-26 08:00,ZGHA 260800Z 28002MPS 240V320 3000 -RA BR FEW007 BKN011 OVC050 19/16 Q1015 BECMG TL0900 2800
ZGHA,2018-04-26 09:00,ZGHA 260900Z 31002MPS 280V360 2800 BR FEW007 BKN013 OVC050 19/16 Q1015 BECMG TL1000 3200 BKN016 OVC050
ZGHA,2018-04-26 10:00,ZGHA 261000Z 31002MPS 2400 BR FEW007 BKN016 OVC050 18/16 Q1016 BECMG TL1150 3200
ZGHA,2018-04-26 11:00,ZGHA 261100Z VRB01MPS 2500 -RA BR FEW007 BKN016 OVC050 18/16 Q1016 BECMG TL1200 3200
ZGHA,2018-04-26 12:00,ZGHA 261200Z VRB01MPS 3000 -RA BR FEW007 BKN016 OVC050 17/15 Q1016 NOSIG
ZGHA,2018-04-26 13:00,ZGHA 261300Z VRB01MPS 2700 BR FEW009 BKN016 OVC050 17/16 Q1017 BECMG TL1400 3200
ZGHA,2018-04-26 14:00,ZGHA 261400Z 29002MPS 3000 BR FEW010 BKN016 OVC050 17/16 Q1017 BECMG TL1500 2800
ZGHA,2018-04-26 15:00,ZGHA 261500Z VRB01MPS 2900 BR NSC 17/16 Q1017 BECMG TL1600 3200
ZGHA,2018-04-26 16:00,ZGHA 261600Z VRB01MPS 3100 R36L/1400D R36R/1200U BR SCT009 17/16 Q1017 BECMG TL1700 2000
ZGHA,2018-04-26 17:00,ZGHA 261700Z 03001MPS 1800 BR SCT005 17/16 Q1017 NOSIG
ZGHA,2018-04-26 18:00,ZGHA 261800Z 00000MPS 1200 R36L/1500N R36R/1700N BR SCT002 BKN005 17/16 Q1017 NOSIG
ZGHA,2018-04-26 19:00,ZGHA 261900Z 00000MPS 1200 R36L/1700U R36R/P2000 BR SCT002 BKN005 17/16 Q1017 NOSIG
ZGHA,2018-04-26 20:00,ZGHA 262000Z 07001MPS 1600 BR SCT003 BKN007 16/15 Q1017 NOSIG
ZGHA,2018-04-26 21:00,ZGHA 262100Z 01002MPS 1500 BR SCT003 BKN007 16/15 Q1017 NOSIG
ZGHA,2018-04-26 22:00,ZGHA 262200Z 36001MPS 1200 R36L/1600N R36R/1500N BR SCT002 OVC007 16/15 Q1018 BECMG TL2350 1600
ZGHA,2018-04-26 23:00,ZGHA 262300Z 06002MPS 0700 R36L/0450V0800D R36R/0500V0800N FG SCT002 OVC005 16/15 Q1019 BECMG TL0040 1000
ZGHA,2018-04-27 00:00,ZGHA 270000Z VRB01MPS 1000 R36L/1000V1200U R36R/1400U BR SCT002 BKN007 16/16 Q1019 BECMG TL0100 2500 BKN011
ZGHA,2018-04-27 01:00,ZGHA 270100Z VRB01MPS 2000 R36L/1400N R36R/P2000 BR FEW003 BKN006 17/16 Q1019 BECMG TL0250 3200 BR BKN011
ZGHA,2018-04-27 02:00,ZGHA 270200Z 02002MPS 330V070 3000 BR BKN007 18/16 Q1020 BECMG TL0350 BKN011
ZGHA,2018-04-27 03:00,ZGHA 270300Z 08002MPS 050V140 5000 BR BKN013 20/16 Q1020 BECMG TL0400 BKN016
ZGHA,2018-04-27 04:00,ZGHA 270400Z 01002MPS 320V060 8000 SCT016 22/16 Q1019 NOSIG
ZGHA,2018-04-27 05:00,ZGHA 270500Z 01002MPS 320V110 9999 SCT020 24/15 Q1018 NOSIG
ZGHA,2018-04-27 06:00,ZGHA 270600Z VRB01MPS 9999 BKN026 24/16 Q1018 NOSIG
ZGHA,2018-04-27 07:00,ZGHA 270700Z VRB02MPS 9999 BKN033 25/15 Q1017 NOSIG
ZGHA,2018-04-27 08:00,ZGHA 270800Z 05002MPS 020V100 9999 BKN033 25/14 Q1016 NOSIG
ZGHA,2018-04-27 09:00,ZGHA 270900Z VRB01MPS 9999 FEW040 25/15 Q1016 NOSIG
ZGHA,2018-04-27 10:00,ZGHA 271000Z VRB01MPS CAVOK 25/14 Q1016 NOSIG
ZGHA,2018-04-27 11:00,ZGHA 271100Z 12001MPS CAVOK 24/15 Q1017 NOSIG
ZGHA,2018-04-27 12:00,ZGHA 271200Z 18002MPS 160V250 CAVOK 23/15 Q1017 NOSIG
ZGHA,2018-04-27 13:00,ZGHA 271300Z 32002MPS 280V010 CAVOK 22/16 Q1018 NOSIG
ZGHA,2018-04-27 14:00,ZGHA 271400Z VRB01MPS CAVOK 21/17 Q1018 NOSIG
ZGHA,2018-04-27 15:00,ZGHA 271500Z VRB01MPS CAVOK 21/17 Q1018 NOSIG
ZGHA,2018-04-27 16:00,ZGHA 271600Z VRB01MPS CAVOK 20/17 Q1017 NOSIG
ZGHA,2018-04-27 17:00,ZGHA 271700Z 18001MPS 8000 NSC 20/17 Q1017 NOSIG
ZGHA,2018-04-27 18:00,ZGHA 271800Z VRB01MPS 7000 NSC 19/16 Q1016 NOSIG
ZGHA,2018-04-27 19:00,ZGHA 271900Z VRB01MPS 6000 NSC 19/17 Q1016 NOSIG
ZGHA,2018-04-27 20:00,ZGHA 272000Z 21001MPS 6000 NSC 18/16 Q1016 NOSIG
ZGHA,2018-04-27 21:00,ZGHA 272100Z 00000MPS 6000 NSC 18/16 Q1016 NOSIG
ZGHA,2018-04-27 22:00,ZGHA 272200Z 12001MPS 4000 BR NSC 18/16 Q1016 NOSIG
ZGHA,2018-04-27 23:00,ZGHA 272300Z 10001MPS 3500 BR NSC 18/17 Q1016 NOSIG
ZGHA,2018-04-28 00:00,ZGHA 280000Z VRB01MPS 5000 BR NSC 19/18 Q1017 NOSIG
ZGHA,2018-04-28 01:00,ZGHA 280100Z VRB01MPS 5000 BR NSC 22/18 Q1017 NOSIG
ZGHA,2018-04-28 02:00,ZGHA 280200Z 17003MPS 130V200 7000 NSC 23/17 Q1017 NOSIG
ZGHA,2018-04-28 03:00,ZGHA 280300Z 17003MPS 140V200 8000 FEW026 24/17 Q1016 NOSIG
ZGHA,2018-04-28 04:00,ZGHA 280400Z 20003MPS 170V270 9000 SCT030 26/17 Q1015 NOSIG
ZGHA,2018-04-28 05:00,ZGHA 280500Z 15002MPS 110V180 9999 SCT040 27/16 Q1014 NOSIG
ZGHA,2018-04-28 06:00,ZGHA 280600Z 16001MPS 9999 FEW040 27/15 Q1013 NOSIG
ZGHA,2018-04-28 07:00,ZGHA 280700Z VRB02MPS 9999 FEW050 28/15 Q1012 NOSIG
ZGHA,2018-04-28 08:00,ZGHA 280800Z 20003MPS 160V260 CAVOK 28/16 Q1011 NOSIG
ZGHA,2018-04-28 09:00,ZGHA 280900Z 21002MPS 160V240 CAVOK 28/15 Q1011 NOSIG
ZGHA,2018-04-28 10:00,ZGHA 281000Z 18003MPS 150V240 CAVOK 28/15 Q1011 NOSIG
ZGHA,2018-04-28 11:00,ZGHA 281100Z 16002MPS 110V230 CAVOK 27/16 Q1011 NOSIG
ZGHA,2018-04-28 12:00,ZGHA 281200Z 12002MPS 100V170 CAVOK 25/17 Q1012 NOSIG
ZGHA,2018-04-28 13:00,ZGHA 281300Z 14002MPS 120V190 CAVOK 24/17 Q1012 NOSIG
ZGHA,2018-04-28 14:00,ZGHA 281400Z 15002MPS 100V170 CAVOK 23/17 Q1013 NOSIG
ZGHA,2018-04-28 15:00,ZGHA 281500Z VRB01MPS CAVOK 23/17 Q1013 NOSIG
ZGHA,2018-04-28 16:00,ZGHA 281600Z VRB01MPS CAVOK 22/17 Q1012 NOSIG
ZGHA,2018-04-28 17:00,ZGHA 281700Z VRB01MPS 8000 NSC 21/18 Q1011 NOSIG
ZGHA,2018-04-28 18:00,ZGHA 281800Z 24001MPS 8000 NSC 21/18 Q1011 NOSIG
ZGHA,2018-04-28 19:00,ZGHA 281900Z 25002MPS 8000 NSC 21/18 Q1011 NOSIG
ZGHA,2018-04-28 20:00,ZGHA 282000Z VRB01MPS 8000 SCT050 21/18 Q1010 NOSIG
ZGHA,2018-04-28 21:00,ZGHA 282100Z 18002MPS 8000 NSC 21/18 Q1010 NOSIG
ZGHA,2018-04-28 22:00,ZGHA 282200Z 16001MPS 7000 NSC 21/18 Q1010 NOSIG
ZGHA,2018-04-28 23:00,ZGHA 282300Z VRB01MPS 6000 NSC 22/18 Q1011 NOSIG
ZGHA,2018-04-29 00:00,ZGHA 290000Z 18004MPS 160V230 7000 NSC 24/19 Q1011 NOSIG
ZGHA,2018-04-29 01:00,ZGHA 290100Z 17004MPS 8000 NSC 25/19 Q1011 NOSIG
ZGHA,2018-04-29 02:00,ZGHA 290200Z 20004MPS CAVOK 25/20 Q1011 NOSIG
ZGHA,2018-04-29 03:00,ZGHA 290300Z 19003MPS 170V230 CAVOK 26/19 Q1011 NOSIG
ZGHA,2018-04-29 04:00,ZGHA 290400Z 18004MPS 160V220 CAVOK 25/20 Q1010 NOSIG
ZGHA,2018-04-29 05:00,ZGHA 290500Z 20005MPS 9999 -RA SCT033 25/21 Q1010 NOSIG
ZGHA,2018-04-29 06:00,ZGHA 290600Z 22002MPS 190V260 2500 SHRA BR SCT020 FEW050CB BKN050 23/21 Q1009 BECMG TL0630 3500 -RA
ZGHA,2018-04-29 07:00,ZGHA 290700Z 28002MPS 240V320 5000 BR SCT023 OVC040 24/22 Q1008 RESHRA NOSIG
ZGHA,2018-04-29 08:00,ZGHA 290800Z 20002MPS 160V250 8000 BKN023 OVC040 25/22 Q1008 NOSIG
ZGHA,2018-04-29 09:00,ZGHA 290900Z 18003MPS 160V240 9000 SCT026 BKN040 25/22 Q1007 NOSIG
ZGHA,2018-04-29 10:00,ZGHA 291000Z 19003MPS 170V230 9000 BKN020 OVC040 25/22 Q1007 NOSIG
ZGHA,2018-04-29 11:00,ZGHA 291100Z 17002MPS 130V220 9999 OVC040 25/21 Q1008 NOSIG
ZGHA,2018-04-29 12:00,ZGHA 291200Z 17003MPS 150V220 CAVOK 24/21 Q1008 NOSIG
ZGHA,2018-04-29 13:00,ZGHA 291300Z 18002MPS 160V220 CAVOK 24/21 Q1009 NOSIG
ZGHA,2018-04-29 14:00,ZGHA 291400Z 18002MPS 160V240 CAVOK 23/21 Q1009 NOSIG
ZGHA,2018-04-29 15:00,ZGHA 291500Z 14002MPS 090V190 CAVOK 23/21 Q1009 NOSIG
ZGHA,2018-04-29 16:00,ZGHA 291600Z 16002MPS 130V210 CAVOK 23/21 Q1009 NOSIG
ZGHA,2018-04-29 17:00,ZGHA 291700Z VRB01MPS CAVOK 22/20 Q1009 NOSIG
ZGHA,2018-04-29 18:00,ZGHA 291800Z 12001MPS CAVOK 22/20 Q1009 NOSIG
ZGHA,2018-04-29 19:00,ZGHA 291900Z VRB01MPS CAVOK 22/20 Q1009 NOSIG
ZGHA,2018-04-29 20:00,ZGHA 292000Z 18003MPS CAVOK 22/20 Q1009 NOSIG
ZGHA,2018-04-29 21:00,ZGHA 292100Z 17002MPS CAVOK 22/20 Q1009 NOSIG
ZGHA,2018-04-29 22:00,ZGHA 292200Z 18001MPS 9999 OVC050 22/20 Q1010 NOSIG
ZGHA,2018-04-29 23:00,ZGHA 292300Z 16002MPS 9999 SCT050 22/21 Q1010 NOSIG
ZGHA,2018-04-30 00:00,ZGHA 300000Z 16003MPS CAVOK 23/21 Q1011 NOSIG
ZGHA,2018-04-30 01:00,ZGHA 300100Z 19003MPS 170V230 CAVOK 25/21 Q1011 NOSIG
ZGHA,2018-04-30 02:00,ZGHA 300200Z 19003MPS 160V260 CAVOK 27/21 Q1012 NOSIG
ZGHA,2018-04-30 03:00,ZGHA 300300Z 21003MPS 180V250 9999 SCT023 28/21 Q1011 NOSIG
ZGHA,2018-04-30 04:00,ZGHA 300400Z 22003MPS 170V280 9999 BKN030 29/20 Q1011 NOSIG
ZGHA,2018-04-30 05:00,ZGHA 300500Z 17003MPS 140V210 9999 BKN033 30/21 Q1010 NOSIG
ZGHA,2018-04-30 06:00,ZGHA 300600Z 18003MPS 140V230 9999 BKN040 31/20 Q1009 NOSIG
ZGHA,2018-04-30 07:00,ZGHA 300700Z 20004MPS 160V230 9999 BKN040 31/19 Q1008 NOSIG
ZGHA,2018-04-30 08:00,ZGHA 300800Z 22002MPS 170V280 9999 FEW040TCU BKN040 32/19 Q1007 NOSIG
ZGHA,2018-04-30 09:00,ZGHA 300900Z 19004MPS 150V230 9999 FEW040TCU FEW040 31/20 Q1007 NOSIG
ZGHA,2018-04-30 10:00,ZGHA 301000Z 19003MPS 170V230 9999 FEW040TCU 30/20 Q1007 NOSIG
ZGHA,2018-04-30 11:00,ZGHA 301100Z 19002MPS CAVOK 29/20 Q1007 NOSIG
ZGHA,2018-04-30 12:00,ZGHA 301200Z 15003MPS CAVOK 28/21 Q1008 NOSIG
ZGHA,2018-04-30 13:00,ZGHA 301300Z 16003MPS 140V200 CAVOK 27/21 Q1009 NOSIG
ZGHA,2018-04-30 14:00,ZGHA 301400Z 15003MPS 130V200 CAVOK 26/21 Q1009 NOSIG
ZGHA,2018-04-30 15:00,ZGHA 301500Z 16004MPS CAVOK 25/20 Q1009 NOSIG
ZGHA,2018-04-30 16:00,ZGHA 301600Z 16004MPS CAVOK 25/20 Q1009 NOSIG
ZGHA,2018-04-30 17:00,ZGHA 301700Z 15003MPS CAVOK 24/20 Q1009 NOSIG
ZGHA,2018-04-30 18:00,ZGHA 301800Z VRB01MPS 9999 BKN050 24/19 Q1009 NOSIG
ZGHA,2018-04-30 19:00,ZGHA 301900Z 20002MPS 9999 BKN050 23/20 Q1009 NOSIG
ZGHA,2018-04-30 20:00,ZGHA 302000Z 16003MPS 9999 BKN040 23/20 Q1009 NOSIG
ZGHA,2018-04-30 21:00,ZGHA 302100Z 17003MPS 9999 BKN040 23/20 Q1009 NOSIG
ZGHA,2018-04-30 22:00,ZGHA 302200Z 17002MPS CAVOK 23/20 Q1009 NOSIG
ZGHA,2018-04-30 23:00,ZGHA 302300Z VRB01MPS CAVOK 24/20 Q1009 NOSIG
ZGHA,2018-05-01 00:00,ZGHA 010000Z 20002MPS CAVOK 24/21 Q1010 NOSIG
ZGHA,2018-05-01 01:00,ZGHA 010100Z 18003MPS 150V220 CAVOK 26/20 Q1010 NOSIG
ZGHA,2018-05-01 02:00,ZGHA 010200Z 21004MPS 9999 FEW023 27/20 Q1010 NOSIG
ZGHA,2018-05-01 03:00,ZGHA 010300Z 22004MPS 190V260 9999 SCT030 28/20 Q1010 NOSIG
ZGHA,2018-05-01 04:00,ZGHA 010400Z 25005MPS 9999 -RA BKN033 29/20 Q1010 NOSIG
ZGHA,2018-05-01 05:00,ZGHA 010500Z 32003MPS 270V020 9999 SCT033 30/21 Q1009 BECMG TL0620 23005MPS
ZGHA,2018-05-01 06:00,ZGHA 010600Z 01005MPS 9999 FEW033TCU SCT033 28/22 Q1009 NOSIG
ZGHA,2018-05-01 07:00,ZGHA 010700Z 34005MPS 310V020 9999 FEW033TCU SCT033 29/21 Q1008 BECMG TL0800 SHRA
ZGHA,2018-05-01 08:00,ZGHA 010800Z 32004MPS 8000 BKN040 26/22 Q1008 NOSIG
ZGHA,2018-05-01 09:00,ZGHA 010900Z 33003MPS 300V360 9999 SCT040 29/21 Q1007 NOSIG
ZGHA,2018-05-01 10:00,ZGHA 011000Z 33005MPS 9999 FEW040 28/20 Q1008 NOSIG
ZGHA,2018-05-01 11:00,ZGHA 011100Z 06003MPS 9999 FEW030 26/22 Q1009 NOSIG
ZGHA,2018-05-01 12:00,ZGHA 011200Z 04003MPS 9999 FEW033 25/21 Q1010 NOSIG
ZGHA,2018-05-01 13:00,ZGHA 011300Z 02003MPS CAVOK 25/21 Q1011 NOSIG
ZGHA,2018-05-01 14:00,ZGHA 011400Z 03002MPS CAVOK 25/21 Q1011 NOSIG
ZGHA,2018-05-01 15:00,ZGHA 011500Z 02004MPS CAVOK 24/21 Q1011 NOSIG
ZGHA,2018-05-01 16:00,ZGHA 011600Z 36003MPS CAVOK 24/21 Q1011 NOSIG
ZGHA,2018-05-01 17:00,ZGHA 011700Z 01004MPS CAVOK 23/21 Q1011 NOSIG
ZGHA,2018-05-01 18:00,ZGHA 011800Z 36003MPS 8000 NSC 23/21 Q1012 NOSIG
ZGHA,2018-05-01 19:00,ZGHA 011900Z 36004MPS 5000 BR NSC 22/21 Q1011 NOSIG
ZGHA,2018-05-01 20:00,ZGHA 012000Z 03002MPS 5000 BR FEW005 22/21 Q1011 NOSIG
ZGHA,2018-05-01 21:00,ZGHA 012100Z 32002MPS 4500 BR FEW005 22/20 Q1012 NOSIG
ZGHA,2018-05-01 22:00,ZGHA 012200Z 02002MPS 350V060 4500 BR NSC 22/21 Q1013 NOSIG
ZGHA,2018-05-01 23:00,ZGHA 012300Z VRB01MPS 5000 -RA BR NSC 22/21 Q1014 NOSIG
ZGHA,2018-05-02 00:00,ZGHA 020000Z 01004MPS 5000 BR FEW010 23/21 Q1015 NOSIG
ZGHA,2018-05-02 01:00,ZGHA 020100Z 02004MPS 4000 BR SCT007 24/21 Q1015 NOSIG
ZGHA,2018-05-02 02:00,ZGHA 020200Z 02005MPS 6000 SCT013 26/21 Q1015 NOSIG
ZGHA,2018-05-02 03:00,ZGHA 020300Z 02005MPS 6000 SCT016 26/21 Q1015 NOSIG
ZGHA,2018-05-02 04:00,ZGHA 020400Z 01004MPS 6000 SCT016 26/21 Q1016 NOSIG
ZGHA,2018-05-02 05:00,ZGHA 020500Z 02003MPS 6000 NSC 27/21 Q1015 NOSIG
ZGHA,2018-05-02 06:00,ZGHA 020600Z 02005MPS 8000 NSC 28/20 Q1014 NOSIG
ZGHA,2018-05-02 07:00,ZGHA 020700Z 03005MPS 360V060 9000 NSC 29/18 Q1014 NOSIG
ZGHA,2018-05-02 08:00,ZGHA 020800Z 34004MPS 310V010 9000 FEW040 29/20 Q1014 NOSIG
ZGHA,2018-05-02 09:00,ZGHA 020900Z 01005MPS 9000 FEW040 29/19 Q1013 NOSIG
ZGHA,2018-05-02 10:00,ZGHA 021000Z 36007MPS 8000 SCT040 27/18 Q1014 NOSIG
ZGHA,2018-05-02 11:00,ZGHA 021100Z 36005MPS 6000 NSC 26/19 Q1014 NOSIG
ZGHA,2018-05-02 12:00,ZGHA 021200Z 36005MPS 6000 NSC 25/19 Q1015 NOSIG
ZGHA,2018-05-02 13:00,ZGHA 021300Z 02004MPS 8000 NSC 25/18 Q1016 NOSIG
ZGHA,2018-05-02 14:00,ZGHA 021400Z 01004MPS 8000 NSC 24/18 Q1016 NOSIG
ZGHA,2018-05-02 15:00,ZGHA 021500Z 01003MPS 8000 NSC 23/18 Q1017 NOSIG
ZGHA,2018-05-02 16:00,ZGHA 021600Z 02004MPS 6000 NSC 23/18 Q1018 NOSIG
ZGHA,2018-05-02 17:00,ZGHA 021700Z 04003MPS 6000 NSC 23/17 Q1018 NOSIG
ZGHA,2018-05-02 18:00,ZGHA 021800Z 02003MPS 6000 NSC 22/17 Q1018 NOSIG
ZGHA,2018-05-02 19:00,ZGHA 021900Z 02003MPS 6000 NSC 21/17 Q1018 NOSIG
ZGHA,2018-05-02 20:00,ZGHA 022000Z 02003MPS 6000 NSC 21/17 Q1018 NOSIG
ZGHA,2018-05-02 21:00,ZGHA 022100Z 36003MPS 6000 NSC 21/16 Q1018 NOSIG
ZGHA,2018-05-02 22:00,ZGHA 022200Z 01003MPS 6000 NSC 20/16 Q1019 NOSIG
ZGHA,2018-05-02 23:00,ZGHA 022300Z 36003MPS 6000 NSC 21/16 Q1019 NOSIG
ZGHA,2018-05-03 00:00,ZGHA 030000Z 01003MPS 6000 NSC 21/16 Q1020 NOSIG
ZGHA,2018-05-03 01:00,ZGHA 030100Z 04002MPS 010V080 8000 NSC 22/16 Q1020 NOSIG
ZGHA,2018-05-03 02:00,ZGHA 030200Z VRB02MPS 8000 NSC 25/17 Q1021 NOSIG
ZGHA,2018-05-03 03:00,ZGHA 030300Z VRB01MPS 8000 NSC 26/15 Q1020 NOSIG
ZGHA,2018-05-03 04:00,ZGHA 030400Z VRB01MPS CAVOK 27/15 Q1020 NOSIG
ZGHA,2018-05-03 05:00,ZGHA 030500Z 01002MPS 330V040 CAVOK 27/13 Q1019 NOSIG
ZGHA,2018-05-03 06:00,ZGHA 030600Z 03002MPS 350V080 CAVOK 27/11 Q1018 NOSIG
ZGHA,2018-05-03 07:00,ZGHA 030700Z 34002MPS 240V040 CAVOK 28/11 Q1018 NOSIG
ZGHA,2018-05-03 08:00,ZGHA 030800Z VRB01MPS CAVOK 27/12 Q1017 NOSIG
ZGHA,2018-05-03 09:00,ZGHA 030900Z 04002MPS CAVOK 27/12 Q1016 NOSIG
ZGHA,2018-05-03 10:00,ZGHA 031000Z 32003MPS CAVOK 26/15 Q1017 NOSIG
ZGHA,2018-05-03 11:00,ZGHA 031100Z 28002MPS 230V340 CAVOK 25/15 Q1017 NOSIG
ZGHA,2018-05-03 12:00,ZGHA 031200Z 00000MPS CAVOK 24/16 Q1017 NOSIG
ZGHA,2018-05-03 13:00,ZGHA 031300Z VRB02MPS CAVOK 24/17 Q1018 NOSIG
ZGHA,2018-05-03 14:00,ZGHA 031400Z 16002MPS CAVOK 23/16 Q1018 NOSIG
ZGHA,2018-05-03 15:00,ZGHA 031500Z 16002MPS CAVOK 22/15 Q1018 NOSIG
ZGHA,2018-05-03 16:00,ZGHA 031600Z 17003MPS CAVOK 22/12 Q1017 NOSIG
ZGHA,2018-05-03 17:00,ZGHA 031700Z 17003MPS CAVOK 22/11 Q1017 NOSIG
ZGHA,2018-05-03 18:00,ZGHA 031800Z VRB01MPS CAVOK 21/12 Q1016 NOSIG
ZGHA,2018-05-03 19:00,ZGHA 031900Z 03002MPS CAVOK 20/14 Q1016 NOSIG
ZGHA,2018-05-03 20:00,ZGHA 032000Z 18001MPS CAVOK 19/15 Q1015 NOSIG
ZGHA,2018-05-03 21:00,ZGHA 032100Z VRB01MPS CAVOK 19/15 Q1015 NOSIG
ZGHA,2018-05-03 22:00,ZGHA 032200Z 25002MPS CAVOK 18/13 Q1015 NOSIG
ZGHA,2018-05-03 23:00,ZGHA 032300Z 00000MPS CAVOK 19/13 Q1016 NOSIG
ZGHA,2018-05-04 00:00,ZGHA 040000Z VRB01MPS CAVOK 21/13 Q1016 NOSIG
ZGHA,2018-05-04 01:00,ZGHA 040100Z VRB01MPS CAVOK 23/10 Q1016 NOSIG
ZGHA,2018-05-04 02:00,ZGHA 040200Z 15004MPS 120V180 CAVOK 24/07 Q1016 NOSIG
ZGHA,2018-05-04 03:00,ZGHA 040300Z 16003MPS 130V190 CAVOK 24/09 Q1016 NOSIG
ZGHA,2018-05-04 04:00,ZGHA 040400Z 17005MPS CAVOK 24/09 Q1016 NOSIG
ZGHA,2018-05-04 05:00,ZGHA 040500Z 18006MPS CAVOK 25/10 Q1015 NOSIG
ZGHA,2018-05-04 06:00,ZGHA 040600Z 18005MPS CAVOK 25/12 Q1014 NOSIG
ZGHA,2018-05-04 07:00,ZGHA 040700Z 17005MPS 150V210 9999 -RA BKN040 24/13 Q1014 NOSIG
ZGHA,2018-05-04 08:00,ZGHA 040800Z 18004MPS 9999 -RA OVC040 20/16 Q1013 NOSIG
ZGHA,2018-05-04 09:00,ZGHA 040900Z 17003MPS 150V220 8000 BKN026 OVC050 20/16 Q1013 NOSIG
ZGHA,2018-05-04 10:00,ZGHA 041000Z 16002MPS 130V210 8000 OVC050 20/17 Q1012 NOSIG
ZGHA,2018-05-04 11:00,ZGHA 041100Z 17002MPS 8000 OVC050 21/17 Q1012 NOSIG
ZGHA,2018-05-04 12:00,ZGHA 041200Z 18003MPS 160V220 9000 OVC050 21/16 Q1012 NOSIG
ZGHA,2018-05-04 13:00,ZGHA 041300Z 20002MPS 160V240 9999 OVC050 21/16 Q1013 NOSIG
ZGHA,2018-05-04 14:00,ZGHA 041400Z 20003MPS 9999 OVC050 21/16 Q1013 NOSIG
ZGHA,2018-05-04 15:00,ZGHA 041500Z 18003MPS 9999 FEW050 21/16 Q1013 NOSIG
ZGHA,2018-05-04 16:00,ZGHA 041600Z 20002MPS 160V270 9999 FEW050 21/17 Q1012 NOSIG
ZGHA,2018-05-04 17:00,ZGHA 041700Z 21002MPS 180V250 8000 -RA FEW040 20/17 Q1012 NOSIG
ZGHA,2018-05-04 18:00,ZGHA 041800Z 22002MPS 7000 NSC 20/18 Q1012 NOSIG
ZGHA,2018-05-04 19:00,ZGHA 041900Z 23001MPS 5000 BR NSC 20/18 Q1011 NOSIG
ZGHA,2018-05-04 20:00,ZGHA 042000Z 19002MPS 5000 BR NSC 20/18 Q1011 NOSIG
ZGHA,2018-05-04 21:00,ZGHA 042100Z 17002MPS 7000 NSC 20/18 Q1010 NOSIG
ZGHA,2018-05-04 22:00,ZGHA 042200Z 17003MPS 7000 NSC 21/19 Q1011 NOSIG
ZGHA,2018-05-04 23:00,ZGHA 042300Z 18002MPS 160V220 7000 NSC 21/19 Q1011 NOSIG
ZGHA,2018-05-05 00:00,ZGHA 050000Z 18003MPS 9000 NSC 22/19 Q1011 NOSIG
ZGHA,2018-05-05 01:00,ZGHA 050100Z 18005MPS 140V200 CAVOK 24/20 Q1011 NOSIG
ZGHA,2018-05-05 02:00,ZGHA 050200Z 18004MPS 160V240 9999 -RA SCT030 24/21 Q1011 NOSIG
ZGHA,2018-05-05 03:00,ZGHA 050300Z 18005MPS CAVOK 25/21 Q1010 NOSIG
ZGHA,2018-05-05 04:00,ZGHA 050400Z 18004MPS CAVOK 26/22 Q1010 NOSIG
ZGHA,2018-05-05 05:00,ZGHA 050500Z 18004MPS 150V210 CAVOK 28/21 Q1009 NOSIG
ZGHA,2018-05-05 06:00,ZGHA 050600Z VRB05MPS CAVOK 30/21 Q1008 NOSIG
ZGHA,2018-05-05 07:00,ZGHA 050700Z 19008MPS CAVOK 31/19 Q1007 NOSIG
ZGHA,2018-05-05 08:00,ZGHA 050800Z 19006MPS CAVOK 31/20 Q1007 NOSIG
ZGHA,2018-05-05 09:00,ZGHA 050900Z 18003MPS 160V230 CAVOK 30/21 Q1006 NOSIG
ZGHA,2018-05-05 10:00,ZGHA 051000Z 19003MPS 160V240 CAVOK 29/21 Q1007 NOSIG
ZGHA,2018-05-05 11:00,ZGHA 051100Z 19004MPS CAVOK 29/19 Q1007 NOSIG
ZGHA,2018-05-05 12:00,ZGHA 051200Z 19004MPS CAVOK 28/20 Q1007 NOSIG
ZGHA,2018-05-05 13:00,ZGHA 051300Z 18003MPS 160V220 CAVOK 28/19 Q1007 NOSIG
ZGHA,2018-05-05 14:00,ZGHA 051400Z 17003MPS 140V210 9999 -RA NSC 26/21 Q1007 NOSIG
ZGHA,2018-05-05 15:00,ZGHA 051500Z 16005MPS 9999 -RA NSC 25/21 Q1007 NOSIG
ZGHA,2018-05-05 16:00,ZGHA 051600Z 18004MPS 9999 -RA NSC 25/20 Q1007 NOSIG
ZGHA,2018-05-05 17:00,ZGHA 051700Z 18004MPS 9999 -RA FEW033 25/21 Q1007 NOSIG
ZGHA,2018-05-05 18:00,ZGHA 051800Z 19003MPS 9999 -RA NSC 24/21 Q1006 NOSIG
ZGHA,2018-05-05 19:00,ZGHA 051900Z 17003MPS CAVOK 24/21 Q1006 NOSIG
ZGHA,2018-05-05 20:00,ZGHA 052000Z 18002MPS CAVOK 23/21 Q1006 NOSIG
ZGHA,2018-05-05 21:00,ZGHA 052100Z 18002MPS CAVOK 23/21 Q1006 NOSIG
ZGHA,2018-05-05 22:00,ZGHA 052200Z 17004MPS 9999 BKN050 23/21 Q1006 NOSIG
ZGHA,2018-05-05 23:00,ZGHA 052300Z 17006MPS CAVOK 23/21 Q1006 NOSIG
ZGHA,2018-05-06 00:00,ZGHA 060000Z 18006MPS CAVOK 25/21 Q1006 NOSIG
ZGHA,2018-05-06 01:00,ZGHA 060100Z 19007MPS CAVOK 28/21 Q1006 NOSIG
ZGHA,2018-05-06 02:00,ZGHA 060200Z 20006MPS CAVOK 30/21 Q1005 NOSIG
ZGHA,2018-05-06 03:00,ZGHA 060300Z 21010MPS 180V240 9999 SCT040 31/20 Q1005 NOSIG
ZGHA,2018-05-06 04:00,ZGHA 060400Z 22007MPS 9999 BKN040 BKN050 32/20 Q1004 NOSIG
ZGHA,2018-05-06 05:00,ZGHA 060500Z 34009MPS 9999 SCT040 FEW050CB BKN050 26/18 Q1004 NOSIG
ZGHA,2018-05-06 06:00,ZGHA 060600Z 02005MPS 9999 -TSRA SCT033 FEW050CB BKN050 25/19 Q1004 BECMG TL0630 TSRA
ZGHA,2018-05-06 07:00,ZGHA 060700Z 05004MPS 9999 -RA SCT007 SCT020 23/22 Q1004 RETS NOSIG
ZGHA,2018-05-06 08:00,ZGHA 060800Z 03006MPS 9999 FEW010 SCT026 24/21 Q1003 NOSIG
ZGHA,2018-05-06 09:00,ZGHA 060900Z 05005MPS 9999 SCT014 SCT026 24/20 Q1003 NOSIG
ZGHA,2018-05-06 10:00,ZGHA 061000Z 04006MPS 9999 -SHRA SCT020 FEW040CB BKN040 22/20 Q1004 RETSRA BECMG TL1030 TSRA
ZGHA,2018-05-06 11:00,ZGHA 061100Z 34005MPS 6000 -SHRA SCT009 SCT020 FEW040CB BKN040 21/20 Q1005 RETSRA NOSIG
ZGHA,2018-05-06 12:00,ZGHA 061200Z 03004MPS 9999 -RA SCT006 SCT020 BKN050 22/20 Q1005 RETS NOSIG
ZGHA,2018-05-06 13:00,ZGHA 061300Z 33004MPS 9999 -SHRA BKN006 FEW050CB BKN050 22/20 Q1007 RETS BECMG TL1400 BKN010 OVC050
ZGHA,2018-05-06 14:00,ZGHA 061400Z 31006MPS 9999 -RA SCT006 BKN016 OVC050 21/20 Q1008 NOSIG
ZGHA,2018-05-06 15:00,ZGHA 061500Z 35006MPS 9999 -RA FEW007 BKN016 OVC050 20/19 Q1007 NOSIG
ZGHA,2018-05-06 16:00,ZGHA 061600Z 34005MPS 9999 SCT007 BKN016 OVC050 20/19 Q1007 NOSIG
ZGHA,2018-05-06 17:00,ZGHA 061700Z 35007MPS 8000 SCT010 BKN016 OVC050 20/18 Q1006 NOSIG
ZGHA,2018-05-06 18:00,ZGHA 061800Z 33007MPS 9000 SCT009 BKN014 OVC050 20/17 Q1007 NOSIG
ZGHA,2018-05-06 19:00,ZGHA 061900Z 34006MPS 9000 SCT008 BKN013 OVC050 20/17 Q1007 NOSIG
ZGHA,2018-05-06 20:00,ZGHA 062000Z 35006MPS 9000 SCT009 BKN014 OVC050 19/16 Q1007 NOSIG
ZGHA,2018-05-06 21:00,ZGHA 062100Z 35005MPS 9000 BKN014 19/17 Q1007 NOSIG
ZGHA,2018-05-06 22:00,ZGHA 062200Z 34005MPS 7000 BKN013 OVC050 19/17 Q1008 NOSIG
ZGHA,2018-05-06 23:00,ZGHA 062300Z 35004MPS 8000 BKN014 OVC050 19/16 Q1009 BECMG TL2400 BKN015 OVC050
ZGHA,2018-05-07 00:00,ZGHA 070000Z 36004MPS 8000 BKN015 OVC050 19/17 Q1009 BECMG TL0100 BKN014 OVC050
ZGHA,2018-05-07 01:00,ZGHA 070100Z 33004MPS 8000 BKN014 OVC050 20/17 Q1010 BECMG TL0200 BKN016 OVC050
ZGHA,2018-05-07 02:00,ZGHA 070200Z 34005MPS 300V360 8000 -RA BKN013 OVC050 20/17 Q1010 BECMG TL0350 BKN016 OVC050
ZGHA,2018-05-07 03:00,ZGHA 070300Z 35005MPS 8000 BKN015 OVC050 20/16 Q1009 NOSIG
ZGHA,2018-05-07 04:00,ZGHA 070400Z 36005MPS 8000 BKN020 OVC050 21/17 Q1009 NOSIG
ZGHA,2018-05-07 05:00,ZGHA 070500Z 36004MPS 9999 BKN020 OVC050 22/17 Q1009 NOSIG
ZGHA,2018-05-07 06:00,ZGHA 070600Z 36004MPS 9999 BKN020 OVC050 23/17 Q1008 NOSIG
ZGHA,2018-05-07 07:00,ZGHA 070700Z 01005MPS 9999 OVC030 22/16 Q1008 NOSIG
ZGHA,2018-05-07 08:00,ZGHA 070800Z 36006MPS 9999 OVC030 22/16 Q1008 NOSIG
ZGHA,2018-05-07 09:00,ZGHA 070900Z 36005MPS 9999 OVC040 22/16 Q1008 NOSIG
ZGHA,2018-05-07 10:00,ZGHA 071000Z 01006MPS 9999 OVC040 22/15 Q1008 NOSIG
ZGHA,2018-05-07 11:00,ZGHA 071100Z 36005MPS 9999 OVC050 21/15 Q1009 NOSIG
ZGHA,2018-05-07 12:00,ZGHA 071200Z 34004MPS 9999 OVC050 21/16 Q1009 NOSIG
ZGHA,2018-05-07 13:00,ZGHA 071300Z 36004MPS CAVOK 20/16 Q1010 NOSIG
ZGHA,2018-05-07 14:00,ZGHA 071400Z 36004MPS CAVOK 19/16 Q1011 NOSIG
ZGHA,2018-05-07 15:00,ZGHA 071500Z 01003MPS CAVOK 19/16 Q1011 NOSIG
ZGHA,2018-05-07 16:00,ZGHA 071600Z 03002MPS CAVOK 18/16 Q1011 NOSIG
ZGHA,2018-05-07 17:00,ZGHA 071700Z 34003MPS 8000 NSC 18/16 Q1010 NOSIG
ZGHA,2018-05-07 18:00,ZGHA 071800Z 34003MPS 8000 NSC 17/15 Q1011 NOSIG
ZGHA,2018-05-07 19:00,ZGHA 071900Z 03002MPS 6000 NSC 17/15 Q1010 NOSIG
ZGHA,2018-05-07 20:00,ZGHA 072000Z 02002MPS 5000 BR NSC 17/15 Q1011 NOSIG
ZGHA,2018-05-07 21:00,ZGHA 072100Z 36002MPS 5000 BR NSC 16/15 Q1011 NOSIG
ZGHA,2018-05-07 22:00,ZGHA 072200Z 01002MPS 5000 BR NSC 16/15 Q1012 NOSIG
ZGHA,2018-05-07 23:00,ZGHA 072300Z 04002MPS 6000 NSC 17/15 Q1013 NOSIG
ZGHA,2018-05-08 00:00,ZGHA 080000Z 03002MPS 7000 NSC 19/16 Q1013 NOSIG
ZGHA,2018-05-08 01:00,ZGHA 080100Z 01004MPS 9000 FEW016 22/17 Q1014 NOSIG
ZGHA,2018-05-08 02:00,ZGHA 080200Z 36004MPS 320V020 9999 BKN026 23/16 Q1014 NOSIG
ZGHA,2018-05-08 03:00,ZGHA 080300Z 36005MPS 9999 BKN050 25/15 Q1014 NOSIG
ZGHA,2018-05-08 04:00,ZGHA 080400Z 02004MPS 340V040 9999 SCT033 BKN050 25/16 Q1014 NOSIG
ZGHA,2018-05-08 05:00,ZGHA 080500Z 34004MPS 310V010 9999 BKN040 26/14 Q1013 NOSIG
ZGHA,2018-05-08 06:00,ZGHA 080600Z 02003MPS 310V070 9999 BKN050 26/15 Q1013 NOSIG
ZGHA,2018-05-08 07:00,ZGHA 080700Z 02004MPS 340V070 9999 SCT050 26/14 Q1012 NOSIG
ZGHA,2018-05-08 08:00,ZGHA 080800Z 02004MPS 330V050 9999 SCT050 26/14 Q1012 NOSIG
ZGHA,2018-05-08 09:00,ZGHA 080900Z 35004MPS 310V010 9999 FEW050 27/14 Q1012 NOSIG
ZGHA,2018-05-08 10:00,ZGHA 081000Z 36005MPS 9999 FEW050 25/14 Q1012 NOSIG
ZGHA,2018-05-08 11:00,ZGHA 081100Z 34004MPS CAVOK 24/15 Q1013 NOSIG
ZGHA,2018-05-08 12:00,ZGHA 081200Z 35004MPS CAVOK 23/15 Q1013 NOSIG
ZGHA,2018-05-08 13:00,ZGHA 081300Z 31003MPS CAVOK 22/16 Q1014 NOSIG
ZGHA,2018-05-08 14:00,ZGHA 081400Z 36004MPS CAVOK 22/16 Q1015 NOSIG
ZGHA,2018-05-08 15:00,ZGHA 081500Z 02003MPS CAVOK 21/16 Q1016 NOSIG
ZGHA,2018-05-08 16:00,ZGHA 081600Z 04003MPS CAVOK 20/16 Q1016 NOSIG
ZGHA,2018-05-08 17:00,ZGHA 081700Z 05002MPS CAVOK 20/15 Q1015 NOSIG
ZGHA,2018-05-08 18:00,ZGHA 081800Z 05004MPS CAVOK 20/15 Q1015 NOSIG
ZGHA,2018-05-08 19:00,ZGHA 081900Z 06004MPS CAVOK 19/15 Q1015 NOSIG
ZGHA,2018-05-08 20:00,ZGHA 082000Z 05004MPS CAVOK 18/15 Q1015 NOSIG
ZGHA,2018-05-08 21:00,ZGHA 082100Z 01001MPS CAVOK 18/15 Q1016 NOSIG
ZGHA,2018-05-08 22:00,ZGHA 082200Z 03002MPS CAVOK 18/15 Q1016 NOSIG
ZGHA,2018-05-08 23:00,ZGHA 082300Z 04003MPS CAVOK 19/15 Q1016 NOSIG
ZGHA,2018-05-09 00:00,ZGHA 090000Z 05003MPS CAVOK 20/15 Q1017 NOSIG
ZGHA,2018-05-09 01:00,ZGHA 090100Z VRB01MPS CAVOK 23/15 Q1017 NOSIG
ZGHA,2018-05-09 02:00,ZGHA 090200Z 06002MPS 360V140 9999 FEW030 24/15 Q1017 NOSIG
ZGHA,2018-05-09 03:00,ZGHA 090300Z 05002MPS 280V090 9999 BKN030 25/15 Q1017 NOSIG
ZGHA,2018-05-09 04:00,ZGHA 090400Z 06004MPS 9999 BKN040 26/14 Q1016 NOSIG
ZGHA,2018-05-09 05:00,ZGHA 090500Z 08005MPS 050V110 9999 BKN050 27/14 Q1016 NOSIG
ZGHA,2018-05-09 06:00,ZGHA 090600Z 08004MPS 040V100 9999 BKN050 27/14 Q1015 NOSIG
ZGHA,2018-05-09 07:00,ZGHA 090700Z 12002MPS 080V140 9999 FEW050 27/14 Q1015 NOSIG
ZGHA,2018-05-09 08:00,ZGHA 090800Z 15003MPS 9999 FEW050 26/15 Q1015 NOSIG
ZGHA,2018-05-09 09:00,ZGHA 090900Z 14002MPS 9999 SCT050 26/15 Q1015 NOSIG
ZGHA,2018-05-09 10:00,ZGHA 091000Z VRB01MPS 9999 BKN050 26/15 Q1015 NOSIG
ZGHA,2018-05-09 11:00,ZGHA 091100Z 33004MPS 9999 BKN050 24/16 Q1015 NOSIG
ZGHA,2018-05-09 12:00,ZGHA 091200Z 33003MPS 9999 BKN050 24/16 Q1016 NOSIG
ZGHA,2018-05-09 13:00,ZGHA 091300Z 01003MPS 9999 -RA OVC050 23/17 Q1016 NOSIG
ZGHA,2018-05-09 14:00,ZGHA 091400Z 36003MPS CAVOK 23/17 Q1016 NOSIG
ZGHA,2018-05-09 15:00,ZGHA 091500Z 36002MPS CAVOK 22/17 Q1017 NOSIG
ZGHA,2018-05-09 16:00,ZGHA 091600Z 34002MPS 310V010 CAVOK 22/17 Q1016 NOSIG
ZGHA,2018-05-09 17:00,ZGHA 091700Z VRB01MPS 7000 NSC 22/17 Q1016 NOSIG
ZGHA,2018-05-09 18:00,ZGHA 091800Z VRB01MPS 7000 NSC 22/17 Q1015 NOSIG
ZGHA,2018-05-09 19:00,ZGHA 091900Z 34003MPS 310V010 7000 OVC050 21/17 Q1016 NOSIG
ZGHA,2018-05-09 20:00,ZGHA 092000Z 36003MPS 7000 OVC040 21/18 Q1015 NOSIG
ZGHA,2018-05-09 22:00,ZGHA 092200Z 05002MPS 020V080 8000 OVC040 21/16 Q1015 NOSIG
ZGHA,2018-05-09 23:00,ZGHA 092300Z VRB01MPS 6000 -RA OVC040 20/17 Q1016 NOSIG
ZGHA,2018-05-10 00:00,ZGHA 100000Z VRB01MPS 3000 -RA BR BKN033 20/18 Q1016 NOSIG
ZGHA,2018-05-10 01:00,ZGHA 100100Z VRB01MPS 4000 -RA BR FEW005 OVC040 20/18 Q1017 NOSIG
ZGHA,2018-05-10 02:00,ZGHA 100200Z 02003MPS 5000 -RA BR SCT006 OVC040 20/18 Q1017 NOSIG
ZGHA,2018-05-10 03:00,ZGHA 100300Z 02003MPS 6000 SCT009 OVC040 20/18 Q1016 NOSIG
ZGHA,2018-05-10 04:00,ZGHA 100400Z VRB01MPS 3500 -RA BR BKN007 OVC040 20/18 Q1016 BECMG TL0500 SCT007 OVC040
ZGHA,2018-05-10 05:00,ZGHA 100500Z 06002MPS 020V100 5000 BR BKN009 BKN050 20/18 Q1015 BECMG TL0600 BKN011 OVC050
ZGHA,2018-05-10 06:00,ZGHA 100600Z 08002MPS 360V140 7000 SCT012 OVC050 22/18 Q1014 NOSIG
ZGHA,2018-05-10 07:00,ZGHA 100700Z VRB01MPS 6000 BKN016 OVC050 22/18 Q1014 NOSIG
ZGHA,2018-05-10 08:00,ZGHA 100800Z 11002MPS 070V160 7000 BKN016 OVC050 22/18 Q1013 NOSIG
ZGHA,2018-05-10 09:00,ZGHA 100900Z 16003MPS 8000 BKN016 OVC050 22/18 Q1013 NOSIG
ZGHA,2018-05-10 10:00,ZGHA 101000Z 14003MPS 120V190 8000 BKN016 OVC050 22/17 Q1012 NOSIG
ZGHA,2018-05-10 11:00,ZGHA 101100Z 16002MPS 140V230 8000 BKN016 OVC050 22/18 Q1012 NOSIG
ZGHA,2018-05-10 12:00,ZGHA 101200Z 15002MPS 8000 BKN023 OVC050 21/18 Q1013 NOSIG
ZGHA,2018-05-10 13:00,ZGHA 101300Z VRB01MPS 8000 OVC033 21/17 Q1013 NOSIG
ZGHA,2018-05-10 14:00,ZGHA 101400Z VRB01MPS 8000 OVC033 21/18 Q1014 NOSIG
ZGHA,2018-05-10 15:00,ZGHA 101500Z VRB01MPS 8000 OVC033 21/18 Q1013 NOSIG
ZGHA,2018-05-10 16:00,ZGHA 101600Z VRB02MPS 8000 OVC040 21/18 Q1014 NOSIG
ZGHA,2018-05-10 17:00,ZGHA 101700Z VRB01MPS 8000 OVC040 21/18 Q1013 NOSIG
ZGHA,2018-05-10 18:00,ZGHA 101800Z VRB01MPS 8000 OVC050 21/18 Q1012 NOSIG
ZGHA,2018-05-10 19:00,ZGHA 101900Z VRB01MPS 6000 OVC040 20/18 Q1012 NOSIG
ZGHA,2018-05-10 20:00,ZGHA 102000Z 21001MPS 6000 NSC 20/18 Q1011 NOSIG
ZGHA,2018-05-10 21:00,ZGHA 102100Z 23002MPS 6000 OVC040 20/18 Q1011 NOSIG
ZGHA,2018-05-10 22:00,ZGHA 102200Z VRB01MPS 4000 BR BKN040 20/18 Q1012 NOSIG
ZGHA,2018-05-10 23:00,ZGHA 102300Z VRB01MPS 4000 BR OVC040 21/19 Q1012 NOSIG
ZGHA,2018-05-11 00:00,ZGHA 110000Z VRB01MPS 4000 BR OVC040 21/19 Q1013 NOSIG
ZGHA,2018-05-11 01:00,ZGHA 110100Z VRB02MPS 5000 BR SCT040 22/19 Q1013 NOSIG
ZGHA,2018-05-11 02:00,ZGHA 110200Z 16004MPS 130V200 CAVOK 25/20 Q1012 NOSIG
ZGHA,2018-05-11 03:00,ZGHA 110300Z 17005MPS 140V250 9999 FEW030 27/20 Q1011 NOSIG
ZGHA,2018-05-11 04:00,ZGHA 110400Z 19005MPS 170V230 9999 BKN030 29/20 Q1011 NOSIG
ZGHA,2018-05-11 05:00,ZGHA 110500Z 19004MPS 160V220 9999 OVC030 28/20 Q1010 NOSIG
ZGHA,2018-05-11 06:00,ZGHA 110600Z 18003MPS 9999 BKN040 29/21 Q1010 NOSIG
ZGHA,2018-05-11 07:00,ZGHA 110700Z 18003MPS 9999 BKN050 29/21 Q1009 NOSIG
ZGHA,2018-05-11 08:00,ZGHA 110800Z 18003MPS 9999 BKN040 29/21 Q1008 NOSIG
ZGHA,2018-05-11 09:00,ZGHA 110900Z VRB01MPS 9999 OVC040 29/21 Q1008 NOSIG
ZGHA,2018-05-11 10:00,ZGHA 111000Z VRB01MPS 9999 OVC040 29/21 Q1008 NOSIG
ZGHA,2018-05-11 11:00,ZGHA 111100Z VRB01MPS 5000 SHRA BR FEW030TCU BKN040 28/23 Q1007 NOSIG
ZGHA,2018-05-11 12:00,ZGHA 111200Z 02002MPS 340V050 6000 -TSRA SCT013 FEW030CB BKN040 25/23 Q1009 RESHRA BECMG TL1330 -RA
ZGHA,2018-05-11 13:00,ZGHA 111300Z 13003MPS 7000 -TSRA FEW006 BKN011 FEW033CB BKN033 24/23 Q1009 RESHRA BECMG TL1330 TSRA
ZGHA,2018-05-11 14:00,ZGHA 111400Z VRB01MPS 9999 FEW003 BKN016 FEW060CB 23/22 Q1010 RETSRA NOSIG
ZGHA,2018-05-11 15:00,ZGHA 111500Z VRB01MPS 8000 -RA SCT003 BKN011 OVC050 23/22 Q1010 BECMG TL1600 BKN009 OVC050
ZGHA,2018-05-11 16:00,ZGHA 111600Z 27002MPS 170V310 5000 -SHRA BR SCT004 BKN009 OVC050 24/23 Q1010 BECMG TL1740 BKN011 OVC050
ZGHA,2018-05-11 17:00,ZGHA 111700Z 28003MPS 260V340 3500 -RA BR SCT003 BKN009 OVC050 24/23 Q1009 NOSIG
ZGHA,2018-05-11 18:00,ZGHA 111800Z 35004MPS 4500 -SHRA BR SCT005 BKN010 FEW050CB BKN050 23/22 Q1009 BECMG TL1830 TSRA BKN009 FEW050CB BKN050
ZGHA,2018-05-11 19:00,ZGHA 111900Z 36004MPS 3000 TSRA BR SCT005 BKN008 FEW050CB BKN050 22/22 Q1009 NOSIG
ZGHA,2018-05-11 20:00,ZGHA 112000Z 35002MPS 310V050 5000 -RA BR SCT004 BKN007 OVC050 22/22 Q1009 RETSRA NOSIG
ZGHA,2018-05-11 21:00,ZGHA 112100Z 02001MPS 5000 -RA BR SCT004 BKN007 OVC050 22/22 Q1009 NOSIG
ZGHA,2018-05-11 22:00,ZGHA 112200Z 33004MPS 3000 BR SCT005 BKN008 OVC050 22/21 Q1010 NOSIG
ZGHA,2018-05-11 23:00,ZGHA 112300Z VRB01MPS 3200 BR SCT005 BKN008 OVC050 22/21 Q1010 BECMG TL0040 BKN011 OVC050
ZGHA,2018-05-12 00:00,ZGHA 120000Z 32005MPS 3500 BR SCT005 BKN008 OVC050 22/21 Q1011 BECMG TL0140 BKN011 OVC050
ZGHA,2018-05-12 01:00,ZGHA 120100Z 33002MPS 300V360 5000 BR SCT005 BKN008 OVC050 22/21 Q1012 BECMG TL0240 BKN010 OVC050
ZGHA,2018-05-12 02:00,ZGHA 120200Z 01003MPS 5000 BR SCT006 BKN010 OVC050 22/21 Q1012 BECMG TL0300 BKN009 OVC050
ZGHA,2018-05-12 03:00,ZGHA 120300Z 31002MPS 250V050 5000 BR BKN007 OVC050 22/21 Q1012 BECMG TL0440 BKN010 OVC050
ZGHA,2018-05-12 04:00,ZGHA 120400Z 31003MPS 270V350 2600 -RA BR BKN007 OVC050 23/21 Q1012 BECMG TL0500 3000
ZGHA,2018-05-12 05:00,ZGHA 120500Z 34003MPS 3200 BR SCT006 BKN011 OVC050 23/21 Q1012 BECMG TL0600 BKN009 OVC050
ZGHA,2018-05-12 06:00,ZGHA 120600Z 32002MPS 290V010 4000 BR FEW009 BKN020 OVC050 23/21 Q1011 NOSIG
ZGHA,2018-05-12 07:00,ZGHA 120700Z 34003MPS 4000 BR FEW011 BKN020 OVC033 24/21 Q1010 NOSIG
ZGHA,2018-05-12 08:00,ZGHA 120800Z 32004MPS 3500 -RA BR FEW011 BKN015 OVC033 23/21 Q1010 BECMG TL0900 SHRA BKN011 OVC050
ZGHA,2018-05-12 09:00,ZGHA 120900Z VRB01MPS 3000 SHRA BR FEW060CB 22/20 Q1009 BECMG TL0920 2500 -RA
ZGHA,2018-05-12 10:00,ZGHA 121000Z VRB01MPS 2800 BR SCT008 OVC050 23/21 Q1009 RESHRA BECMG TL1140 3200
ZGHA,2018-05-12 11:00,ZGHA 121100Z 29003MPS 270V330 2800 BR BKN012 OVC050 22/21 Q1009 BECMG TL1200 3200
ZGHA,2018-05-12 12:00,ZGHA 121200Z 31002MPS 280V340 5000 BR BKN020 OVC050 22/21 Q1010 NOSIG
ZGHA,2018-05-12 13:00,ZGHA 121300Z 33003MPS 3800 BR OVC050 22/20 Q1010 NOSIG
ZGHA,2018-05-12 14:00,ZGHA 121400Z VRB01MPS 3400 BR NSC 21/20 Q1011 NOSIG
ZGHA,2018-05-12 15:00,ZGHA 121500Z VRB01MPS 3700 BR NSC 21/20 Q1011 NOSIG
ZGHA,2018-05-12 16:00,ZGHA 121600Z VRB01MPS 3700 BR NSC 21/20 Q1011 BECMG TL1740 2500
ZGHA,2018-05-12 17:00,ZGHA 121700Z 00000MPS 2800 BR NSC 20/20 Q1011 NOSIG
ZGHA,2018-05-12 18:00,ZGHA 121800Z 09001MPS 1600 BR NSC 20/20 Q1010 NOSIG
ZGHA,2018-05-12 19:00,ZGHA 121900Z 00000MPS 0700 R36L/0350V0550D R36R/1300U FG NSC 20/20 Q1010 NOSIG
ZGHA,2018-05-12 20:00,ZGHA 122000Z 06001MPS 0500 R36L/0400V0650N R36R/0750V0900N FG VV007 20/20 Q1010 BECMG TL2100 0300
ZGHA,2018-05-12 21:00,ZGHA 122100Z VRB01MPS 0300 R36L/0800V1200U R36R/0600V0750D FG VV004 20/20 Q1010 BECMG TL2240 0600
ZGHA,2018-05-12 22:00,ZGHA 122200Z VRB01MPS 0900 R36L/1000V1300D R36R/1000V1200D FG VV004 20/20 Q1010 BECMG TL2300 1600 BR
ZGHA,2018-05-12 23:00,ZGHA 122300Z 06001MPS 1300 R36L/1200V1400U R36R/1100V1200N BR BKN004 21/20 Q1010 BECMG TL0020 1600
ZGHA,2018-05-13 00:00,ZGHA 130000Z VRB01MPS 1800 BR BKN005 22/21 Q1011 BECMG TL0100 3200
ZGHA,2018-05-13 01:00,ZGHA 130100Z 19002MPS 130V230 3000 BR BKN010 23/21 Q1011 BECMG TL0200 SCT020
ZGHA,2018-05-13 02:00,ZGHA 130200Z 19002MPS 070V230 5000 BR SCT016 25/21 Q1011 NOSIG
ZGHA,2018-05-13 03:00,ZGHA 130300Z 23002MPS 190V290 8000 SCT040 26/20 Q1011 NOSIG
ZGHA,2018-05-13 04:00,ZGHA 130400Z VRB02MPS 9999 BKN030 28/19 Q1011 NOSIG
ZGHA,2018-05-13 05:00,ZGHA 130500Z VRB02MPS 9999 BKN030 29/20 Q1010 NOSIG
ZGHA,2018-05-13 06:00,ZGHA 130600Z 22004MPS 180V250 9999 SCT030 30/20 Q1009 NOSIG
ZGHA,2018-05-13 07:00,ZGHA 130700Z 22004MPS 9999 SCT040 30/19 Q1008 NOSIG
ZGHA,2018-05-13 08:00,ZGHA 130800Z 21003MPS 170V250 CAVOK 30/20 Q1007 NOSIG
ZGHA,2018-05-13 09:00,ZGHA 130900Z 18003MPS 160V220 CAVOK 30/20 Q1007 NOSIG
ZGHA,2018-05-13 10:00,ZGHA 131000Z 16002MPS CAVOK 29/20 Q1007 NOSIG
ZGHA,2018-05-13 11:00,ZGHA 131100Z 09002MPS 060V160 CAVOK 28/21 Q1007 NOSIG
ZGHA,2018-05-13 12:00,ZGHA 131200Z VRB01MPS CAVOK 27/22 Q1007 NOSIG
ZGHA,2018-05-13 13:00,ZGHA 131300Z 11001MPS CAVOK 26/21 Q1007 NOSIG
ZGHA,2018-05-13 14:00,ZGHA 131400Z VRB01MPS CAVOK 26/22 Q1008 NOSIG
ZGHA,2018-05-13 15:00,ZGHA 131500Z 19002MPS 170V230 CAVOK 25/22 Q1008 NOSIG
ZGHA,2018-05-13 16:00,ZGHA 131600Z VRB01MPS CAVOK 24/22 Q1008 NOSIG
ZGHA,2018-05-13 17:00,ZGHA 131700Z VRB01MPS CAVOK 24/22 Q1007 NOSIG
ZGHA,2018-05-13 18:00,ZGHA 131800Z 19002MPS CAVOK 24/22 Q1007 NOSIG
ZGHA,2018-05-13 19:00,ZGHA 131900Z 18001MPS CAVOK 23/21 Q1006 NOSIG
ZGHA,2018-05-13 20:00,ZGHA 132000Z 19001MPS CAVOK 23/21 Q1006 NOSIG
ZGHA,2018-05-13 21:00,ZGHA 132100Z 20001MPS 8000 NSC 23/21 Q1006 NOSIG
ZGHA,2018-05-13 22:00,ZGHA 132200Z 16002MPS 6000 NSC 23/21 Q1007 NOSIG
ZGHA,2018-05-13 23:00,ZGHA 132300Z 16004MPS 7000 NSC 24/22 Q1007 NOSIG
ZGHA,2018-05-14 00:00,ZGHA 140000Z 17005MPS CAVOK 26/22 Q1007 NOSIG
ZGHA,2018-05-14 01:00,ZGHA 140100Z 20006MPS CAVOK 28/22 Q1007 NOSIG
ZGHA,2018-05-14 02:00,ZGHA 140200Z 19006MPS 9999 SCT030 30/21 Q1007 NOSIG
ZGHA,2018-05-14 03:00,ZGHA 140300Z 23006MPS 200V260 9999 SCT033 31/21 Q1007 NOSIG
ZGHA,2018-05-14 04:00,ZGHA 140400Z 21005MPS 180V240 9999 BKN040 31/20 Q1006 NOSIG
ZGHA,2018-05-14 05:00,ZGHA 140500Z 19006MPS 9999 SCT040 32/21 Q1005 NOSIG
ZGHA,2018-05-14 06:00,ZGHA 140600Z 18006MPS 160V230 9999 SCT040 32/21 Q1004 NOSIG
ZGHA,2018-05-14 07:00,ZGHA 140700Z 20006MPS 170V230 9999 SCT040 33/20 Q1004 NOSIG
ZGHA,2018-05-14 08:00,ZGHA 140800Z 19006MPS 9999 SCT040 33/20 Q1003 NOSIG
ZGHA,2018-05-14 09:00,ZGHA 140900Z 18006MPS 9999 FEW040 32/20 Q1002 NOSIG
ZGHA,2018-05-14 10:00,ZGHA 141000Z 18005MPS CAVOK 32/20 Q1002 NOSIG
ZGHA,2018-05-14 11:00,ZGHA 141100Z 18004MPS CAVOK 30/21 Q1002 NOSIG
ZGHA,2018-05-14 12:00,ZGHA 141200Z 18004MPS CAVOK 30/21 Q1002 NOSIG
ZGHA,2018-05-14 13:00,ZGHA 141300Z 16004MPS CAVOK 29/21 Q1003 NOSIG
ZGHA,2018-05-14 14:00,ZGHA 141400Z 15003MPS 120V200 CAVOK 28/21 Q1003 NOSIG
ZGHA,2018-05-14 15:00,ZGHA 141500Z 16003MPS CAVOK 28/21 Q1002 NOSIG
ZGHA,2018-05-14 16:00,ZGHA 141600Z 17006MPS CAVOK 28/21 Q1002 NOSIG
ZGHA,2018-05-14 17:00,ZGHA 141700Z 18002MPS 140V210 CAVOK 27/20 Q1002 NOSIG
ZGHA,2018-05-14 18:00,ZGHA 141800Z 18002MPS CAVOK 26/21 Q1002 NOSIG
ZGHA,2018-05-14 19:00,ZGHA 141900Z 18003MPS CAVOK 25/20 Q1002 NOSIG
ZGHA,2018-05-14 20:00,ZGHA 142000Z 18003MPS CAVOK 25/20 Q1002 NOSIG
ZGHA,2018-05-14 21:00,ZGHA 142100Z 18003MPS CAVOK 26/20 Q1002 NOSIG
ZGHA,2018-05-14 22:00,ZGHA 142200Z 17006MPS CAVOK 26/20 Q1002 NOSIG
ZGHA,2018-05-14 23:00,ZGHA 142300Z 16005MPS CAVOK 27/20 Q1002 NOSIG
ZGHA,2018-05-15 00:00,ZGHA 150000Z 18004MPS CAVOK 28/21 Q1003 NOSIG
ZGHA,2018-05-15 01:00,ZGHA 150100Z 20008G13MPS CAVOK 31/20 Q1003 NOSIG
ZGHA,2018-05-15 02:00,ZGHA 150200Z 18008MPS CAVOK 32/21 Q1003 NOSIG
ZGHA,2018-05-15 03:00,ZGHA 150300Z 19008MPS 9999 FEW050 33/20 Q1003 NOSIG
ZGHA,2018-05-15 04:00,ZGHA 150400Z 20008MPS 9999 SCT050 34/19 Q1003 NOSIG
ZGHA,2018-05-15 05:00,ZGHA 150500Z 19008MPS 9999 SCT050 33/19 Q1003 NOSIG
ZGHA,2018-05-15 06:00,ZGHA 150600Z 20006MPS 9999 -RA SCT050 33/20 Q1002 NOSIG
ZGHA,2018-05-15 07:00,ZGHA 150700Z 22006MPS 9999 FEW050 32/19 Q1002 NOSIG
ZGHA,2018-05-15 08:00,ZGHA 150800Z 20006MPS CAVOK 32/19 Q1002 NOSIG
ZGHA,2018-05-15 09:00,ZGHA 150900Z 20006MPS CAVOK 32/19 Q1001 NOSIG
ZGHA,2018-05-15 10:00,ZGHA 151000Z 17007MPS CAVOK 32/20 Q1000 NOSIG
ZGHA,2018-05-15 11:00,ZGHA 151100Z 17004MPS CAVOK 31/21 Q1000 NOSIG
ZGHA,2018-05-15 12:00,ZGHA 151200Z 16004MPS 140V200 CAVOK 30/21 Q1001 NOSIG
ZGHA,2018-05-15 13:00,ZGHA 151300Z 18004MPS CAVOK 29/21 Q1001 NOSIG
ZGHA,2018-05-15 14:00,ZGHA 151400Z 18003MPS 170V240 CAVOK 29/21 Q1002 NOSIG
ZGHA,2018-05-15 15:00,ZGHA 151500Z 18004MPS 160V220 CAVOK 28/20 Q1002 NOSIG
ZGHA,2018-05-15 16:00,ZGHA 151600Z 19004MPS CAVOK 28/20 Q1001 NOSIG
ZGHA,2018-05-15 17:00,ZGHA 151700Z 17006MPS CAVOK 28/20 Q1000 NOSIG
ZGHA,2018-05-15 18:00,ZGHA 151800Z 17003MPS CAVOK 28/20 Q1000 NOSIG
ZGHA,2018-05-15 19:00,ZGHA 151900Z 16003MPS CAVOK 27/20 Q1001 NOSIG
ZGHA,2018-05-15 20:00,ZGHA 152000Z 14003MPS CAVOK 27/20 Q1001 NOSIG
ZGHA,2018-05-15 21:00,ZGHA 152100Z 17004MPS CAVOK 27/20 Q1001 NOSIG
ZGHA,2018-05-15 22:00,ZGHA 152200Z 17004MPS CAVOK 26/20 Q1001 NOSIG
ZGHA,2018-05-15 23:00,ZGHA 152300Z 16005MPS CAVOK 28/21 Q1002 NOSIG
ZGHA,2018-05-16 00:00,ZGHA 160000Z 18005MPS CAVOK 29/21 Q1002 NOSIG
ZGHA,2018-05-16 01:00,ZGHA 160100Z 19007MPS 9999 FEW050 31/21 Q1003 NOSIG
ZGHA,2018-05-16 02:00,ZGHA 160200Z 20008G13MPS 170V230 CAVOK 32/20 Q1003 NOSIG
ZGHA,2018-05-16 03:00,ZGHA 160300Z 19008MPS 9999 FEW050 33/20 Q1003 NOSIG
ZGHA,2018-05-16 04:00,ZGHA 160400Z 20008MPS 170V240 9999 SCT050 34/19 Q1003 NOSIG
ZGHA,2018-05-16 05:00,ZGHA 160500Z 20008MPS 9999 BKN050 34/20 Q1002 NOSIG
ZGHA,2018-05-16 06:00,ZGHA 160600Z 19007MPS 9999 BKN050 34/20 Q1002 NOSIG
ZGHA,2018-05-16 07:00,ZGHA 160700Z 19007MPS CAVOK 34/20 Q1001 NOSIG
ZGHA,2018-05-16 08:00,ZGHA 160800Z 19007MPS 160V220 CAVOK 35/20 Q1001 NOSIG
ZGHA,2018-05-16 09:00,ZGHA 160900Z 19008MPS CAVOK 34/19 Q1000 NOSIG
ZGHA,2018-05-16 10:00,ZGHA 161000Z 19005MPS CAVOK 33/20 Q1000 NOSIG
ZGHA,2018-05-16 11:00,ZGHA 161100Z 18006MPS CAVOK 33/19 Q1000 NOSIG
ZGHA,2018-05-16 12:00,ZGHA 161200Z 17005MPS CAVOK 32/20 Q1001 NOSIG
ZGHA,2018-05-16 13:00,ZGHA 161300Z 18004MPS CAVOK 30/19 Q1001 NOSIG
ZGHA,2018-05-16 14:00,ZGHA 161400Z 17003MPS CAVOK 29/20 Q1002 NOSIG
ZGHA,2018-05-16 15:00,ZGHA 161500Z 17003MPS 160V220 CAVOK 29/20 Q1002 NOSIG
ZGHA,2018-05-16 16:00,ZGHA 161600Z 18003MPS 150V220 CAVOK 28/20 Q1002 NOSIG
ZGHA,2018-05-16 17:00,ZGHA 161700Z 18004MPS CAVOK 27/19 Q1002 NOSIG
ZGHA,2018-05-16 18:00,ZGHA 161800Z 18003MPS CAVOK 27/19 Q1002 NOSIG
ZGHA,2018-05-16 19:00,ZGHA 161900Z 19003MPS CAVOK 27/19 Q1002 NOSIG
ZGHA,2018-05-16 20:00,ZGHA 162000Z 19002MPS CAVOK 26/19 Q1002 NOSIG
ZGHA,2018-05-16 21:00,ZGHA 162100Z 16003MPS CAVOK 26/20 Q1003 NOSIG
ZGHA,2018-05-16 22:00,ZGHA 162200Z 17002MPS CAVOK 26/20 Q1003 NOSIG
ZGHA,2018-05-16 23:00,ZGHA 162300Z 18003MPS CAVOK 27/20 Q1003 NOSIG
ZGHA,2018-05-17 00:00,ZGHA 170000Z 19004MPS CAVOK 29/20 Q1004 NOSIG
ZGHA,2018-05-17 01:00,ZGHA 170100Z 19004MPS CAVOK 30/21 Q1004 NOSIG
ZGHA,2018-05-17 02:00,ZGHA 170200Z 18005MPS CAVOK 31/21 Q1004 NOSIG
ZGHA,2018-05-17 03:00,ZGHA 170300Z 18005MPS 150V210 9999 FEW040 33/22 Q1004 NOSIG
ZGHA,2018-05-17 04:00,ZGHA 170400Z 21006MPS 9999 SCT040 34/21 Q1004 NOSIG
ZGHA,2018-05-17 05:00,ZGHA 170500Z 19006MPS 9999 BKN050 34/21 Q1003 NOSIG
ZGHA,2018-05-17 07:00,ZGHA 170700Z 19006MPS 9999 BKN050 34/20 Q1002 NOSIG
ZGHA,2018-05-17 08:00,ZGHA 170800Z 19006MPS 9999 BKN050 35/21 Q1002 NOSIG
ZGHA,2018-05-17 09:00,ZGHA 170900Z 19004MPS 9999 FEW050 35/21 Q1001 NOSIG
ZGHA,2018-05-17 10:00,ZGHA 171000Z 19004MPS 150V230 CAVOK 34/21 Q1001 NOSIG
ZGHA,2018-05-17 11:00,ZGHA 171100Z 17003MPS 150V210 CAVOK 33/21 Q1001 NOSIG
ZGHA,2018-05-17 12:00,ZGHA 171200Z 17002MPS 140V240 CAVOK 32/22 Q1002 NOSIG
ZGHA,2018-05-17 13:00,ZGHA 171300Z 16003MPS CAVOK 31/22 Q1003 NOSIG
ZGHA,2018-05-17 14:00,ZGHA 171400Z 17002MPS 140V270 CAVOK 30/22 Q1003 NOSIG
ZGHA,2018-05-17 15:00,ZGHA 171500Z 17002MPS 140V260 CAVOK 29/22 Q1003 NOSIG
ZGHA,2018-05-17 16:00,ZGHA 171600Z 16002MPS 120V220 CAVOK 29/21 Q1003 NOSIG
ZGHA,2018-05-17 17:00,ZGHA 171700Z 19002MPS CAVOK 28/22 Q1003 NOSIG
ZGHA,2018-05-17 18:00,ZGHA 171800Z 18002MPS CAVOK 28/21 Q1003 NOSIG
ZGHA,2018-05-17 19:00,ZGHA 171900Z 18003MPS CAVOK 28/21 Q1003 NOSIG
ZGHA,2018-05-17 20:00,ZGHA 172000Z 18003MPS CAVOK 28/21 Q1003 NOSIG
ZGHA,2018-05-17 21:00,ZGHA 172100Z 18003MPS CAVOK 28/21 Q1003 NOSIG
ZGHA,2018-05-17 22:00,ZGHA 172200Z 19002MPS CAVOK 27/21 Q1004 NOSIG
ZGHA,2018-05-17 23:00,ZGHA 172300Z 19002MPS CAVOK 28/22 Q1004 NOSIG
ZGHA,2018-05-18 00:00,ZGHA 180000Z 19004MPS 170V240 CAVOK 29/22 Q1005 NOSIG
ZGHA,2018-05-18 01:00,ZGHA 180100Z 18005MPS CAVOK 30/22 Q1005 NOSIG
ZGHA,2018-05-18 02:00,ZGHA 180200Z 19004MPS 160V220 CAVOK 32/22 Q1005 NOSIG
ZGHA,2018-05-18 03:00,ZGHA 180300Z 18005MPS 9999 FEW040 33/22 Q1005 NOSIG
ZGHA,2018-05-18 04:00,ZGHA 180400Z 19005MPS 9999 SCT040 34/22 Q1004 NOSIG
ZGHA,2018-05-18 05:00,ZGHA 180500Z 22004MPS 140V250 9999 SCT040 34/21 Q1003 NOSIG
ZGHA,2018-05-18 06:00,ZGHA 180600Z 20004MPS 160V230 9999 SCT040 35/22 Q1002 NOSIG
ZGHA,2018-05-18 07:00,ZGHA 180700Z 21005MPS 180V240 9999 FEW050TCU SCT050 34/21 Q1002 NOSIG
ZGHA,2018-05-18 08:00,ZGHA 180800Z 30008G13MPS 270V330 2000 +TSRA BR SCT008 SCT040CB BKN040 25/21 Q1005 BECMG TL0900 3000 -TSRA
ZGHA,2018-05-18 09:00,ZGHA 180900Z 01005MPS 9999 -RA NSC 24/22 Q1003 RETSRA NOSIG
ZGHA,2018-05-18 10:00,ZGHA 181000Z 08004MPS CAVOK 24/22 Q1003 NOSIG
ZGHA,2018-05-18 11:00,ZGHA 181100Z VRB01MPS CAVOK 25/22 Q1004 NOSIG
ZGHA,2018-05-18 12:00,ZGHA 181200Z 02002MPS CAVOK 24/22 Q1005 NOSIG
ZGHA,2018-05-18 13:00,ZGHA 181300Z 36004MPS CAVOK 24/22 Q1005 NOSIG
ZGHA,2018-05-18 14:00,ZGHA 181400Z 02004MPS CAVOK 23/21 Q1005 NOSIG
ZGHA,2018-05-18 15:00,ZGHA 181500Z 03002MPS CAVOK 23/21 Q1005 NOSIG
ZGHA,2018-05-18 16:00,ZGHA 181600Z 03002MPS CAVOK 23/21 Q1005 NOSIG
ZGHA,2018-05-18 17:00,ZGHA 181700Z 36003MPS CAVOK 23/21 Q1006 NOSIG
ZGHA,2018-05-18 18:00,ZGHA 181800Z 36003MPS CAVOK 23/21 Q1005 NOSIG
ZGHA,2018-05-18 19:00,ZGHA 181900Z 03002MPS 9999 TS FEW060CB 23/21 Q1005 NOSIG
ZGHA,2018-05-18 20:00,ZGHA 182000Z 04002MPS 360V070 9999 -SHRA FEW060CB 23/21 Q1006 RETS NOSIG
ZGHA,2018-05-18 21:00,ZGHA 182100Z 01002MPS 320V040 9999 TS FEW050CB SCT050 23/21 Q1006 BECMG TL2230 -RA
ZGHA,2018-05-18 22:00,ZGHA 182200Z 04003MPS 9999 -TSRA FEW006 FEW050CB BKN050 23/21 Q1006 NOSIG
ZGHA,2018-05-18 23:00,ZGHA 182300Z 03002MPS CAVOK 23/22 Q1007 RETS NOSIG
ZGHA,2018-05-19 00:00,ZGHA 190000Z VRB01MPS 9999 FEW005 24/23 Q1007 NOSIG
ZGHA,2018-05-19 01:00,ZGHA 190100Z VRB01MPS 9999 FEW006 26/23 Q1007 NOSIG
ZGHA,2018-05-19 02:00,ZGHA 190200Z VRB01MPS 9999 FEW007 29/23 Q1007 NOSIG
ZGHA,2018-05-19 03:00,ZGHA 190300Z 17004MPS 9999 FEW009 30/23 Q1007 NOSIG
ZGHA,2018-05-19 04:00,ZGHA 190400Z 17004MPS 9999 FEW013 31/23 Q1006 NOSIG
ZGHA,2018-05-19 05:00,ZGHA 190500Z 17003MPS 140V240 9999 BKN033 32/23 Q1005 NOSIG
ZGHA,2018-05-19 06:00,ZGHA 190600Z 21003MPS 150V270 9999 BKN040 34/23 Q1005 NOSIG
ZGHA,2018-05-19 07:00,ZGHA 190700Z VRB03MPS 9999 FEW040TCU SCT040 34/22 Q1004 NOSIG
ZGHA,2018-05-19 08:00,ZGHA 190800Z 20002MPS 170V250 9999 FEW040TCU SCT040 34/22 Q1003 NOSIG
ZGHA,2018-05-19 09:00,ZGHA 190900Z 17002MPS 120V270 9999 FEW040TCU SCT040 35/22 Q1003 NOSIG
ZGHA,2018-05-19 10:00,ZGHA 191000Z 08002MPS 040V180 9999 TS FEW040CB FEW040 34/22 Q1003 BECMG TL1030 NSW
ZGHA,2018-05-19 11:00,ZGHA 191100Z 08006MPS 050V120 6000 TSRA SCT010 FEW040CB BKN050 28/21 Q1004 BECMG TL1140 -SHRA
ZGHA,2018-05-19 12:00,ZGHA 191200Z VRB01MPS 9999 -RA SCT050 27/23 Q1004 RETSRA NOSIG
ZGHA,2018-05-19 13:00,ZGHA 191300Z 02002MPS 360V060 CAVOK 26/24 Q1004 NOSIG
ZGHA,2018-05-19 14:00,ZGHA 191400Z 02003MPS CAVOK 26/24 Q1005 NOSIG
ZGHA,2018-05-19 15:00,ZGHA 191500Z 00000MPS CAVOK 26/24 Q1005 NOSIG
ZGHA,2018-05-19 16:00,ZGHA 191600Z 36002MPS CAVOK 26/24 Q1005 NOSIG
ZGHA,2018-05-19 17:00,ZGHA 191700Z 35002MPS CAVOK 26/24 Q1005 NOSIG
ZGHA,2018-05-19 18:00,ZGHA 191800Z 35001MPS CAVOK 26/23 Q1004 NOSIG
ZGHA,2018-05-19 19:00,ZGHA 191900Z 26001MPS CAVOK 26/24 Q1004 NOSIG
ZGHA,2018-05-19 20:00,ZGHA 192000Z 00000MPS CAVOK 25/24 Q1004 NOSIG
ZGHA,2018-05-19 21:00,ZGHA 192100Z 28001MPS 8000 NSC 26/24 Q1005 NOSIG
ZGHA,2018-05-19 22:00,ZGHA 192200Z 27002MPS 6000 NSC 26/24 Q1005 NOSIG
ZGHA,2018-05-19 23:00,ZGHA 192300Z VRB01MPS 6000 NSC 26/24 Q1006 NOSIG
ZGHA,2018-05-20 00:00,ZGHA 200000Z VRB01MPS 8000 NSC 28/24 Q1007 NOSIG
ZGHA,2018-05-20 01:00,ZGHA 200100Z 16002MPS 120V200 CAVOK 30/24 Q1007 NOSIG
ZGHA,2018-05-20 02:00,ZGHA 200200Z 19003MPS 160V220 CAVOK 31/24 Q1007 NOSIG
ZGHA,2018-05-20 03:00,ZGHA 200300Z 21004MPS 150V260 9999 SCT033 33/23 Q1007 NOSIG
ZGHA,2018-05-20 04:00,ZGHA 200400Z 20003MPS 160V280 9999 SCT040 34/23 Q1007 NOSIG
ZGHA,2018-05-20 05:00,ZGHA 200500Z 21004MPS 160V260 9999 SCT040 34/22 Q1006 NOSIG
ZGHA,2018-05-20 06:00,ZGHA 200600Z 20003MPS 170V230 9999 BKN040 34/23 Q1005 NOSIG
ZGHA,2018-05-20 07:00,ZGHA 200700Z 20003MPS 170V250 9999 BKN050 35/22 Q1004 NOSIG
ZGHA,2018-05-20 08:00,ZGHA 200800Z 21003MPS 160V250 9999 FEW050TCU SCT050 35/22 Q1004 NOSIG
ZGHA,2018-05-20 09:00,ZGHA 200900Z 19003MPS 160V240 9999 TS FEW050TCU SCT050 35/22 Q1003 BECMG TL1020 TSRA
ZGHA,2018-05-20 10:00,ZGHA 201000Z 04005MPS 9999 -TSRA FEW050CB SCT050 29/22 Q1004 BECMG TL1150 -RA
ZGHA,2018-05-20 11:00,ZGHA 201100Z VRB02MPS 9999 -TSRA FEW012 FEW050CB BKN050 28/20 Q1005 BECMG TL1130 -RA
ZGHA,2018-05-20 12:00,ZGHA 201200Z 35004MPS CAVOK 27/22 Q1005 RETS NOSIG
ZGHA,2018-05-20 13:00,ZGHA 201300Z 03003MPS CAVOK 26/22 Q1006 NOSIG
ZGHA,2018-05-20 14:00,ZGHA 201400Z 36005MPS CAVOK 26/23 Q1007 NOSIG
ZGHA,2018-05-20 15:00,ZGHA 201500Z 35004MPS CAVOK 25/22 Q1007 NOSIG
ZGHA,2018-05-20 16:00,ZGHA 201600Z 36004MPS CAVOK 26/22 Q1007 NOSIG
ZGHA,2018-05-20 17:00,ZGHA 201700Z 35004MPS CAVOK 26/23 Q1007 NOSIG
ZGHA,2018-05-20 18:00,ZGHA 201800Z 34002MPS CAVOK 26/23 Q1007 NOSIG
ZGHA,2018-05-20 19:00,ZGHA 201900Z 33003MPS 8000 NSC 25/23 Q1007 NOSIG
ZGHA,2018-05-20 20:00,ZGHA 202000Z 29002MPS 260V320 5000 BR BKN016 25/23 Q1007 NOSIG
ZGHA,2018-05-20 21:00,ZGHA 202100Z 30004MPS 5000 BR BKN006 24/22 Q1008 NOSIG
ZGHA,2018-05-20 22:00,ZGHA 202200Z 30003MPS 8000 BKN007 23/21 Q1008 NOSIG
ZGHA,2018-05-20 23:00,ZGHA 202300Z 29003MPS 260V330 9999 BKN012 23/21 Q1009 BECMG TL2400 BKN020
ZGHA,2018-05-21 00:00,ZGHA 210000Z 31004MPS 9999 BKN012 24/21 Q1009 BECMG TL0100 BKN020
ZGHA,2018-05-21 01:00,ZGHA 210100Z 33004MPS 9999 BKN013 24/21 Q1010 BECMG TL0220 BKN016
ZGHA,2018-05-21 02:00,ZGHA 210200Z 34003MPS 310V010 9999 SCT009 25/21 Q1010 NOSIG
ZGHA,2018-05-21 03:00,ZGHA 210300Z 34002MPS 290V040 9999 SCT011 27/22 Q1010 NOSIG
ZGHA,2018-05-21 04:00,ZGHA 210400Z VRB02MPS 9999 SCT015 29/22 Q1009 NOSIG
ZGHA,2018-05-21 05:00,ZGHA 210500Z VRB02MPS 9999 SCT020 31/23 Q1008 NOSIG
ZGHA,2018-05-21 06:00,ZGHA 210600Z 02003MPS 350V050 9999 SCT023 30/23 Q1007 NOSIG
ZGHA,2018-05-21 07:00,ZGHA 210700Z VRB01MPS 8000 FEW026 32/22 Q1007 NOSIG
ZGHA,2018-05-21 08:00,ZGHA 210800Z 01003MPS 340V060 8000 FEW026 31/23 Q1006 NOSIG
ZGHA,2018-05-21 09:00,ZGHA 210900Z 34004MPS 9000 NSC 31/23 Q1005 NOSIG
ZGHA,2018-05-21 10:00,ZGHA 211000Z 34005MPS 320V020 9000 NSC 30/23 Q1006 NOSIG
ZGHA,2018-05-21 11:00,ZGHA 211100Z 36004MPS 7000 NSC 27/23 Q1006 NOSIG
ZGHA,2018-05-21 12:00,ZGHA 211200Z 36005MPS 7000 NSC 26/22 Q1007 NOSIG
ZGHA,2018-05-21 13:00,ZGHA 211300Z 36006MPS 7000 NSC 25/22 Q1007 NOSIG
ZGHA,2018-05-21 14:00,ZGHA 211400Z 35004MPS 7000 NSC 25/22 Q1008 NOSIG
ZGHA,2018-05-21 15:00,ZGHA 211500Z 33004MPS 6000 FEW009 24/22 Q1008 NOSIG
ZGHA,2018-05-21 16:00,ZGHA 211600Z 34004MPS 6000 BKN008 24/22 Q1008 NOSIG
ZGHA,2018-05-21 17:00,ZGHA 211700Z 33005MPS 5000 BR BKN008 24/22 Q1008 NOSIG
ZGHA,2018-05-21 18:00,ZGHA 211800Z 36004MPS 4700 BR BKN007 24/22 Q1008 NOSIG
ZGHA,2018-05-21 19:00,ZGHA 211900Z 33003MPS 300V360 4500 BR BKN007 OVC050 24/22 Q1008 NOSIG
ZGHA,2018-05-21 20:00,ZGHA 212000Z 30004MPS 4000 BR BKN006 OVC050 23/22 Q1009 NOSIG
ZGHA,2018-05-21 21:00,ZGHA 212100Z 32005MPS 3500 -RA BR BKN006 OVC050 22/21 Q1010 NOSIG
ZGHA,2018-05-21 22:00,ZGHA 212200Z 36005MPS 3200 -RA BR BKN005 OVC050 21/20 Q1011 BECMG TL2300 BKN004 OVC050
ZGHA,2018-05-21 23:00,ZGHA 212300Z 36006MPS 9999 BKN009 21/20 Q1012 BECMG TL2400 BKN011 OVC050
ZGHA,2018-05-22 00:00,ZGHA 220000Z 35007MPS 9999 BKN014 21/19 Q1013 BECMG TL0100 BKN016
ZGHA,2018-05-22 01:00,ZGHA 220100Z 34008MPS 9999 BKN015 OVC050 21/18 Q1014 BECMG TL0200 BKN014 OVC050
ZGHA,2018-05-22 02:00,ZGHA 220200Z 34008MPS 9999 BKN014 OVC050 21/17 Q1014 BECMG TL0300 BKN015 OVC050
ZGHA,2018-05-22 03:00,ZGHA 220300Z 34007MPS 9999 BKN015 22/17 Q1014 BECMG TL0400 BKN014 OVC050
ZGHA,2018-05-22 04:00,ZGHA 220400Z 34007MPS 9999 BKN016 23/17 Q1014 NOSIG
ZGHA,2018-05-22 05:00,ZGHA 220500Z 34008MPS 9999 BKN020 22/17 Q1014 NOSIG
ZGHA,2018-05-22 06:00,ZGHA 220600Z 35009MPS 9999 BKN026 23/16 Q1013 NOSIG
ZGHA,2018-05-22 07:00,ZGHA 220700Z 35007MPS 9999 OVC026 23/16 Q1013 NOSIG
ZGHA,2018-05-22 08:00,ZGHA 220800Z 35008MPS 9999 BKN026 23/16 Q1013 NOSIG
ZGHA,2018-05-22 09:00,ZGHA 220900Z 35008MPS 9999 OVC026 22/16 Q1013 NOSIG
ZGHA,2018-05-22 10:00,ZGHA 221000Z 35008MPS 9999 OVC026 21/15 Q1014 NOSIG
ZGHA,2018-05-22 11:00,ZGHA 221100Z 36008MPS 9999 OVC030 21/15 Q1014 NOSIG
ZGHA,2018-05-22 12:00,ZGHA 221200Z 35007MPS 9999 OVC033 21/15 Q1014 NOSIG
ZGHA,2018-05-22 13:00,ZGHA 221300Z 36006MPS 9999 OVC029 20/16 Q1015 NOSIG
ZGHA,2018-05-22 14:00,ZGHA 221400Z 34006MPS 9999 OVC029 20/16 Q1015 NOSIG
ZGHA,2018-05-22 15:00,ZGHA 221500Z 33007MPS 9999 OVC040 20/16 Q1015 NOSIG
ZGHA,2018-05-22 16:00,ZGHA 221600Z 34006MPS 9999 BKN016 OVC040 20/16 Q1016 NOSIG
ZGHA,2018-05-22 17:00,ZGHA 221700Z 34005MPS 9999 OVC040 19/15 Q1015 NOSIG
ZGHA,2018-05-22 18:00,ZGHA 221800Z 36004MPS CAVOK 19/15 Q1015 NOSIG
ZGHA,2018-05-22 19:00,ZGHA 221900Z 35004MPS CAVOK 19/15 Q1015 NOSIG
ZGHA,2018-05-22 20:00,ZGHA 222000Z 34004MPS 9999 SCT020 19/14 Q1015 NOSIG
ZGHA,2018-05-22 21:00,ZGHA 222100Z 34004MPS 9999 SCT020 19/13 Q1015 NOSIG
ZGHA,2018-05-22 22:00,ZGHA 222200Z 34003MPS 8000 -RA SCT020 OVC050 18/15 Q1015 NOSIG
ZGHA,2018-05-22 23:00,ZGHA 222300Z 30002MPS 250V040 8000 -RA SCT020 OVC033 18/15 Q1016 NOSIG
ZGHA,2018-05-23 00:00,ZGHA 230000Z 33002MPS 290V360 6000 -RA SCT040 18/16 Q1016 NOSIG
ZGHA,2018-05-23 01:00,ZGHA 230100Z 34002MPS 300V010 7000 -RA SCT020 18/16 Q1016 NOSIG
ZGHA,2018-05-23 02:00,ZGHA 230200Z 36002MPS 320V040 8000 SCT020 19/16 Q1016 NOSIG
ZGHA,2018-05-23 03:00,ZGHA 230300Z 01002MPS 310V070 8000 SCT014 BKN026 20/16 Q1016 NOSIG
ZGHA,2018-05-23 04:00,ZGHA 230400Z 26002MPS 210V330 8000 SCT014 21/17 Q1015 NOSIG
ZGHA,2018-05-23 05:00,ZGHA 230500Z VRB01MPS 8000 SCT014 22/17 Q1014 NOSIG
ZGHA,2018-05-23 06:00,ZGHA 230600Z VRB01MPS 9000 BKN026 23/17 Q1014 NOSIG
ZGHA,2018-05-23 07:00,ZGHA 230700Z VRB01MPS 8000 BKN029 23/16 Q1013 NOSIG
ZGHA,2018-05-23 08:00,ZGHA 230800Z 17002MPS 130V200 9000 BKN023 22/16 Q1012 NOSIG
ZGHA,2018-05-23 09:00,ZGHA 230900Z 20002MPS 160V250 9000 BKN023 22/17 Q1012 NOSIG
ZGHA,2018-05-23 10:00,ZGHA 231000Z 17002MPS 130V230 9000 SCT028 23/17 Q1011 NOSIG
ZGHA,2018-05-23 11:00,ZGHA 231100Z 18002MPS 9000 SCT028 22/17 Q1011 NOSIG
ZGHA,2018-05-23 12:00,ZGHA 231200Z 13002MPS 9000 BKN028 22/18 Q1011 NOSIG
ZGHA,2018-05-23 13:00,ZGHA 231300Z 15003MPS 130V190 9999 BKN028 21/18 Q1011 NOSIG
ZGHA,2018-05-23 14:00,ZGHA 231400Z 16002MPS 130V190 9999 BKN026 21/18 Q1011 NOSIG
ZGHA,2018-05-23 15:00,ZGHA 231500Z 14002MPS 110V200 9000 BKN026 21/18 Q1011 NOSIG
ZGHA,2018-05-23 16:00,ZGHA 231600Z 14003MPS 120V180 9000 BKN023 21/18 Q1011 NOSIG
ZGHA,2018-05-23 17:00,ZGHA 231700Z VRB01MPS 8000 BKN023 21/18 Q1010 NOSIG
ZGHA,2018-05-23 18:00,ZGHA 231800Z VRB01MPS 8000 SCT023 21/18 Q1010 NOSIG
ZGHA,2018-05-23 19:00,ZGHA 231900Z VRB01MPS 8000 NSC 20/18 Q1010 NOSIG
ZGHA,2018-05-23 20:00,ZGHA 232000Z 22001MPS 7000 NSC 20/18 Q1010 NOSIG
ZGHA,2018-05-23 21:00,ZGHA 232100Z VRB01MPS 6000 NSC 20/18 Q1009 NOSIG
ZGHA,2018-05-23 22:00,ZGHA 232200Z 17001MPS 5000 BR NSC 20/18 Q1009 NOSIG
ZGHA,2018-05-23 23:00,ZGHA 232300Z VRB01MPS 6000 NSC 21/18 Q1010 NOSIG
ZGHA,2018-05-24 00:00,ZGHA 240000Z 15003MPS 6000 NSC 23/19 Q1010 NOSIG
ZGHA,2018-05-24 01:00,ZGHA 240100Z 16005MPS CAVOK 24/19 Q1009 NOSIG
ZGHA,2018-05-24 02:00,ZGHA 240200Z 16005MPS 140V200 9999 FEW040 26/18 Q1009 NOSIG
ZGHA,2018-05-24 03:00,ZGHA 240300Z 18004MPS 150V210 9999 FEW023 27/20 Q1008 NOSIG
ZGHA,2018-05-24 04:00,ZGHA 240400Z 17005MPS 130V220 9999 FEW030 29/20 Q1007 NOSIG
ZGHA,2018-05-24 05:00,ZGHA 240500Z 19005MPS 9999 FEW030 31/21 Q1006 NOSIG
ZGHA,2018-05-24 06:00,ZGHA 240600Z 18005MPS 9999 FEW040 32/21 Q1005 NOSIG
ZGHA,2018-05-24 07:00,ZGHA 240700Z 19005MPS 160V220 9999 FEW040 33/21 Q1004 NOSIG
ZGHA,2018-05-24 08:00,ZGHA 240800Z 19007MPS 9999 FEW040 33/20 Q1003 NOSIG
ZGHA,2018-05-24 09:00,ZGHA 240900Z 20006MPS 9999 FEW040 33/20 Q1002 NOSIG
ZGHA,2018-05-24 10:00,ZGHA 241000Z 20005MPS CAVOK 33/20 Q1002 NOSIG
ZGHA,2018-05-24 11:00,ZGHA 241100Z 16002MPS 140V220 CAVOK 32/21 Q1002 NOSIG
ZGHA,2018-05-24 12:00,ZGHA 241200Z 13002MPS 090V160 CAVOK 30/22 Q1002 NOSIG
ZGHA,2018-05-24 13:00,ZGHA 241300Z 14002MPS 120V180 CAVOK 30/22 Q1002 NOSIG
ZGHA,2018-05-24 14:00,ZGHA 241400Z 14002MPS 110V180 CAVOK 29/22 Q1003 NOSIG
ZGHA,2018-05-24 15:00,ZGHA 241500Z 15003MPS CAVOK 29/22 Q1003 NOSIG
ZGHA,2018-05-24 16:00,ZGHA 241600Z 17003MPS 150V220 CAVOK 29/22 Q1003 NOSIG
ZGHA,2018-05-24 17:00,ZGHA 241700Z 18002MPS CAVOK 27/22 Q1002 NOSIG
ZGHA,2018-05-24 18:00,ZGHA 241800Z 18002MPS CAVOK 27/22 Q1002 NOSIG
ZGHA,2018-05-24 19:00,ZGHA 241900Z 18002MPS CAVOK 27/21 Q1003 NOSIG
ZGHA,2018-05-24 20:00,ZGHA 242000Z 18002MPS CAVOK 26/21 Q1003 NOSIG
ZGHA,2018-05-24 21:00,ZGHA 242100Z 17004MPS CAVOK 26/21 Q1003 NOSIG
ZGHA,2018-05-24 22:00,ZGHA 242200Z 17003MPS CAVOK 27/20 Q1003 NOSIG
ZGHA,2018-05-24 23:00,ZGHA 242300Z 18004MPS CAVOK 28/20 Q1004 NOSIG
ZGHA,2018-05-25 00:00,ZGHA 250000Z 19004MPS CAVOK 30/20 Q1004 NOSIG
ZGHA,2018-05-25 01:00,ZGHA 250100Z 19007MPS CAVOK 31/20 Q1003 NOSIG
ZGHA,2018-05-25 02:00,ZGHA 250200Z 19009MPS CAVOK 32/20 Q1003 NOSIG
ZGHA,2018-05-25 03:00,ZGHA 250300Z 20007MPS 9999 FEW040 34/20 Q1002 NOSIG
ZGHA,2018-05-25 04:00,ZGHA 250400Z 21008MPS 180V240 9999 SCT050 34/19 Q1002 NOSIG
ZGHA,2018-05-25 05:00,ZGHA 250500Z 20008MPS 9999 SCT050 35/20 Q1001 NOSIG
ZGHA,2018-05-25 06:00,ZGHA 250600Z 20008MPS 9999 BKN050 34/20 Q1001 NOSIG
ZGHA,2018-05-25 07:00,ZGHA 250700Z 20007MPS 9999 SCT050 35/20 Q1000 NOSIG
ZGHA,2018-05-25 08:00,ZGHA 250800Z 21007MPS 190V250 CAVOK 36/19 Q1000 NOSIG
ZGHA,2018-05-25 09:00,ZGHA 250900Z 21007MPS CAVOK 36/19 Q1000 NOSIG
ZGHA,2018-05-25 10:00,ZGHA 251000Z 19004MPS CAVOK 34/20 Q1000 NOSIG
ZGHA,2018-05-25 11:00,ZGHA 251100Z 18003MPS CAVOK 33/20 Q1000 NOSIG
ZGHA,2018-05-25 12:00,ZGHA 251200Z 17002MPS 150V240 CAVOK 32/21 Q1001 NOSIG
ZGHA,2018-05-25 13:00,ZGHA 251300Z 19002MPS 180V240 CAVOK 31/21 Q1001 NOSIG
ZGHA,2018-05-25 14:00,ZGHA 251400Z 21002MPS 190V250 CAVOK 30/22 Q1002 NOSIG
ZGHA,2018-05-25 15:00,ZGHA 251500Z 28002MPS CAVOK 30/22 Q1003 NOSIG
ZGHA,2018-05-25 16:00,ZGHA 251600Z 34005MPS CAVOK 29/22 Q1003 NOSIG
ZGHA,2018-05-25 17:00,ZGHA 251700Z 01004MPS CAVOK 27/23 Q1003 NOSIG
ZGHA,2018-05-25 18:00,ZGHA 251800Z 36004MPS CAVOK 27/23 Q1003 NOSIG
ZGHA,2018-05-25 19:00,ZGHA 251900Z 34003MPS 9999 BKN015 27/23 Q1003 NOSIG
ZGHA,2018-05-25 20:00,ZGHA 252000Z 01002MPS 9999 BKN015 26/23 Q1004 NOSIG
ZGHA,2018-05-25 21:00,ZGHA 252100Z 33003MPS 6000 BKN013 26/23 Q1004 NOSIG
ZGHA,2018-05-25 22:00,ZGHA 252200Z 32003MPS 6000 BKN011 26/23 Q1005 BECMG TL2300 BKN009 OVC050
ZGHA,2018-05-25 23:00,ZGHA 252300Z 31003MPS 6000 BKN009 OVC050 26/23 Q1006 BECMG TL2400 BKN010 OVC050
ZGHA,2018-05-26 00:00,ZGHA 260000Z 34003MPS 6000 BKN010 OVC050 27/23 Q1007 BECMG TL0100 BKN009 OVC050
ZGHA,2018-05-26 01:00,ZGHA 260100Z 34004MPS 5000 BR BKN010 OVC050 26/23 Q1007 BECMG TL0200 BKN009 OVC050
ZGHA,2018-05-26 02:00,ZGHA 260200Z 32004MPS 4500 BR BKN010 OVC050 26/23 Q1008 BECMG TL0300 BKN009 OVC050
ZGHA,2018-05-26 03:00,ZGHA 260300Z 35005MPS 320V020 6000 BKN009 OVC050 26/22 Q1008 BECMG TL0400 BKN011 OVC050
ZGHA,2018-05-26 04:00,ZGHA 260400Z VRB02MPS 9000 BKN012 OVC050 27/22 Q1007 BECMG TL0500 BKN016 OVC050
ZGHA,2018-05-26 05:00,ZGHA 260500Z 27002MPS 240V320 9999 BKN020 28/22 Q1007 NOSIG
ZGHA,2018-05-26 06:00,ZGHA 260600Z 36006MPS 9999 BKN016 27/22 Q1006 BECMG TL0700 BKN014 OVC050
ZGHA,2018-05-26 07:00,ZGHA 260700Z 35006MPS 320V020 9999 BKN012 OVC050 26/22 Q1006 BECMG TL0800 BKN009 OVC050
ZGHA,2018-05-26 08:00,ZGHA 260800Z 34006MPS 9999 FEW012 BKN020 OVC050 26/21 Q1007 NOSIG
ZGHA,2018-05-26 09:00,ZGHA 260900Z 35006MPS 9999 SCT012 OVC033 26/21 Q1007 NOSIG
ZGHA,2018-05-26 10:00,ZGHA 261000Z 35006MPS 9999 SCT012 OVC050 25/21 Q1007 NOSIG
ZGHA,2018-05-26 11:00,ZGHA 261100Z 35006MPS 8000 BKN016 25/21 Q1008 NOSIG
ZGHA,2018-05-26 12:00,ZGHA 261200Z 35005MPS 8000 BKN016 25/21 Q1008 NOSIG
ZGHA,2018-05-26 13:00,ZGHA 261300Z 34005MPS 8000 BKN026 25/21 Q1009 NOSIG
ZGHA,2018-05-26 14:00,ZGHA 261400Z 34005MPS 9000 BKN026 25/21 Q1010 NOSIG
ZGHA,2018-05-26 15:00,ZGHA 261500Z 33004MPS 9000 BKN030 25/21 Q1010 NOSIG
ZGHA,2018-05-26 16:00,ZGHA 261600Z 36004MPS 9000 BKN030 24/21 Q1009 NOSIG
ZGHA,2018-05-26 17:00,ZGHA 261700Z 32004MPS 8000 -RA BKN016 25/21 Q1010 NOSIG
ZGHA,2018-05-26 18:00,ZGHA 261800Z 34005MPS 8000 OVC050 24/21 Q1010 NOSIG
ZGHA,2018-05-26 19:00,ZGHA 261900Z 34004MPS 8000 -RA NSC 24/21 Q1009 NOSIG
ZGHA,2018-05-26 20:00,ZGHA 262000Z 34005MPS 8000 FEW040 24/21 Q1009 NOSIG
ZGHA,2018-05-26 21:00,ZGHA 262100Z 34005MPS 8000 OVC033 23/19 Q1010 NOSIG
ZGHA,2018-05-26 22:00,ZGHA 262200Z 34005MPS 5000 BR OVC033 23/18 Q1010 NOSIG
ZGHA,2018-05-26 23:00,ZGHA 262300Z 34005MPS 5000 HZ OVC033 23/17 Q1011 NOSIG
ZGHA,2018-05-27 00:00,ZGHA 270000Z 34005MPS 5000 BR OVC033 23/17 Q1012 NOSIG
ZGHA,2018-05-27 01:00,ZGHA 270100Z 35005MPS 5000 BR OVC033 23/18 Q1013 BECMG TL0200 BKN012 OVC040
ZGHA,2018-05-27 02:00,ZGHA 270200Z 35005MPS 4000 -RA BR SCT010 OVC040 22/19 Q1013 BECMG TL0300 BKN011 OVC040
ZGHA,2018-05-27 03:00,ZGHA 270300Z 34005MPS 5000 -RA BR FEW010 OVC040 22/20 Q1013 NOSIG
ZGHA,2018-05-27 04:00,ZGHA 270400Z 36005MPS 8000 NSC 23/19 Q1013 NOSIG
ZGHA,2018-05-27 05:00,ZGHA 270500Z 34006MPS 8000 NSC 23/18 Q1013 NOSIG
ZGHA,2018-05-27 06:00,ZGHA 270600Z 33005MPS 5000 -RA BR FEW012 23/19 Q1012 NOSIG
ZGHA,2018-05-27 07:00,ZGHA 270700Z 35004MPS 6000 NSC 25/21 Q1011 NOSIG
ZGHA,2018-05-27 08:00,ZGHA 270800Z 35005MPS 320V020 6000 FEW016 BKN020 26/20 Q1010 NOSIG
ZGHA,2018-05-27 09:00,ZGHA 270900Z 01007MPS 7000 SCT033 26/18 Q1009 NOSIG
ZGHA,2018-05-27 10:00,ZGHA 271000Z 36005MPS 8000 SCT033 25/17 Q1009 NOSIG
ZGHA,2018-05-27 11:00,ZGHA 271100Z 36003MPS 8000 SCT040 25/17 Q1010 NOSIG
ZGHA,2018-05-27 12:00,ZGHA 271200Z 32004MPS 9999 SCT040 25/17 Q1011 NOSIG
ZGHA,2018-05-27 13:00,ZGHA 271300Z 32003MPS CAVOK 24/16 Q1012 NOSIG
ZGHA,2018-05-27 14:00,ZGHA 271400Z 33004MPS CAVOK 24/15 Q1012 NOSIG
ZGHA,2018-05-27 15:00,ZGHA 271500Z 30003MPS 280V350 CAVOK 24/17 Q1013 NOSIG
ZGHA,2018-05-27 16:00,ZGHA 271600Z VRB01MPS CAVOK 23/17 Q1012 NOSIG
ZGHA,2018-05-27 17:00,ZGHA 271700Z 05002MPS CAVOK 23/18 Q1011 NOSIG
ZGHA,2018-05-27 18:00,ZGHA 271800Z 36002MPS CAVOK 22/18 Q1010 NOSIG
ZGHA,2018-05-27 19:00,ZGHA 271900Z 02002MPS 9000 NSC 22/18 Q1010 NOSIG
ZGHA,2018-05-27 20:00,ZGHA 272000Z 26002MPS CAVOK 21/18 Q1010 NOSIG
ZGHA,2018-05-27 21:00,ZGHA 272100Z 27002MPS CAVOK 21/18 Q1011 NOSIG
ZGHA,2018-05-27 22:00,ZGHA 272200Z 08001MPS 8000 NSC 21/19 Q1011 NOSIG
ZGHA,2018-05-27 23:00,ZGHA 272300Z VRB01MPS 7000 NSC 22/19 Q1011 NOSIG
ZGHA,2018-05-28 00:00,ZGHA 280000Z 15002MPS 8000 NSC 24/19 Q1011 NOSIG
ZGHA,2018-05-28 01:00,ZGHA 280100Z VRB01MPS 8000 NSC 26/18 Q1012 NOSIG
ZGHA,2018-05-28 02:00,ZGHA 280200Z VRB01MPS CAVOK 28/17 Q1011 NOSIG
ZGHA,2018-05-28 03:00,ZGHA 280300Z 05002MPS 010V080 CAVOK 28/16 Q1011 NOSIG
ZGHA,2018-05-28 04:00,ZGHA 280400Z VRB02MPS 9999 FEW030 29/17 Q1011 NOSIG
ZGHA,2018-05-28 05:00,ZGHA 280500Z VRB02MPS 9999 FEW030 30/16 Q1010 NOSIG
ZGHA,2018-05-28 06:00,ZGHA 280600Z VRB02MPS 9999 FEW030 31/16 Q1009 NOSIG
ZGHA,2018-05-28 07:00,ZGHA 280700Z 06002MPS 360V140 CAVOK 30/15 Q1009 NOSIG
ZGHA,2018-05-28 08:00,ZGHA 280800Z 34002MPS 260V040 CAVOK 31/15 Q1008 NOSIG
ZGHA,2018-05-28 09:00,ZGHA 280900Z VRB02MPS CAVOK 30/15 Q1008 NOSIG
ZGHA,2018-05-28 10:00,ZGHA 281000Z 36003MPS CAVOK 29/15 Q1008 NOSIG
ZGHA,2018-05-28 11:00,ZGHA 281100Z 34003MPS CAVOK 28/17 Q1008 NOSIG
ZGHA,2018-05-28 12:00,ZGHA 281200Z 32003MPS CAVOK 28/17 Q1009 NOSIG
ZGHA,2018-05-28 13:00,ZGHA 281300Z 02003MPS CAVOK 27/19 Q1010 NOSIG
ZGHA,2018-05-28 14:00,ZGHA 281400Z 05002MPS 020V080 CAVOK 26/19 Q1010 NOSIG
ZGHA,2018-05-28 15:00,ZGHA 281500Z 04002MPS CAVOK 26/18 Q1010 NOSIG
ZGHA,2018-05-28 16:00,ZGHA 281600Z 03002MPS CAVOK 26/19 Q1010 NOSIG
ZGHA,2018-05-28 17:00,ZGHA 281700Z 03002MPS CAVOK 25/19 Q1009 NOSIG
ZGHA,2018-05-28 18:00,ZGHA 281800Z 04002MPS CAVOK 24/19 Q1009 NOSIG
ZGHA,2018-05-28 19:00,ZGHA 281900Z 04002MPS CAVOK 24/20 Q1009 NOSIG
ZGHA,2018-05-28 20:00,ZGHA 282000Z 11001MPS CAVOK 24/20 Q1009 NOSIG
ZGHA,2018-05-28 21:00,ZGHA 282100Z VRB01MPS CAVOK 24/20 Q1009 NOSIG
ZGHA,2018-05-28 22:00,ZGHA 282200Z 19002MPS 7000 NSC 23/21 Q1009 NOSIG
ZGHA,2018-05-28 23:00,ZGHA 282300Z VRB01MPS 8000 NSC 24/21 Q1010 NOSIG
ZGHA,2018-05-29 00:00,ZGHA 290000Z VRB01MPS 8000 NSC 25/20 Q1010 NOSIG
ZGHA,2018-05-29 01:00,ZGHA 290100Z 03002MPS 360V060 8000 NSC 26/21 Q1010 NOSIG
ZGHA,2018-05-29 02:00,ZGHA 290200Z VRB01MPS 8000 NSC 26/21 Q1010 NOSIG
ZGHA,2018-05-29 03:00,ZGHA 290300Z VRB01MPS 8000 FEW030 28/21 Q1011 NOSIG
ZGHA,2018-05-29 04:00,ZGHA 290400Z 02002MPS 320V120 8000 FEW030 29/21 Q1010 NOSIG
ZGHA,2018-05-29 05:00,ZGHA 290500Z VRB01MPS 8000 FEW026 29/21 Q1009 NOSIG
ZGHA,2018-05-29 06:00,ZGHA 290600Z VRB01MPS 8000 FEW026 29/21 Q1008 NOSIG
ZGHA,2018-05-29 07:00,ZGHA 290700Z VRB01MPS 8000 SCT026 31/21 Q1007 NOSIG
ZGHA,2018-05-29 08:00,ZGHA 290800Z 23003MPS 9000 SCT040 31/20 Q1007 NOSIG
ZGHA,2018-05-29 09:00,ZGHA 290900Z 10003MPS 9000 SCT040 31/21 Q1006 NOSIG
ZGHA,2018-05-29 10:00,ZGHA 291000Z 05003MPS 010V080 8000 SCT040 31/21 Q1007 NOSIG
ZGHA,2018-05-29 11:00,ZGHA 291100Z 06002MPS 8000 NSC 30/21 Q1007 NOSIG
ZGHA,2018-05-29 12:00,ZGHA 291200Z 06002MPS 9000 NSC 29/21 Q1008 NOSIG
ZGHA,2018-05-29 13:00,ZGHA 291300Z 04002MPS 9000 NSC 29/21 Q1008 NOSIG
ZGHA,2018-05-29 14:00,ZGHA 291400Z 02003MPS 9000 NSC 28/21 Q1009 NOSIG
ZGHA,2018-05-29 15:00,ZGHA 291500Z 06002MPS 9000 NSC 28/22 Q1010 NOSIG
ZGHA,2018-05-29 16:00,ZGHA 291600Z 03002MPS 9000 NSC 27/22 Q1009 NOSIG
ZGHA,2018-05-29 17:00,ZGHA 291700Z 04002MPS 9000 NSC 27/22 Q1009 NOSIG
ZGHA,2018-05-29 18:00,ZGHA 291800Z 02003MPS 9000 NSC 26/22 Q1008 NOSIG
ZGHA,2018-05-29 19:00,ZGHA 291900Z 03002MPS 9000 NSC 26/22 Q1008 NOSIG
ZGHA,2018-05-29 20:00,ZGHA 292000Z 03001MPS 7000 -RA BKN040 26/22 Q1008 NOSIG
ZGHA,2018-05-29 21:00,ZGHA 292100Z 06001MPS 7000 BKN040 26/23 Q1008 NOSIG
ZGHA,2018-05-29 22:00,ZGHA 292200Z 06001MPS 6000 BKN040 26/22 Q1009 NOSIG
ZGHA,2018-05-29 23:00,ZGHA 292300Z 08001MPS 6000 -RA BKN030 26/22 Q1009 NOSIG
ZGHA,2018-05-30 00:00,ZGHA 300000Z 06001MPS 6000 -RA BKN030 26/22 Q1009 BECMG TL0140 BKN014 OVC050
ZGHA,2018-05-30 01:00,ZGHA 300100Z 05002MPS 4000 -SHRA BR FEW026CB BKN026 25/23 Q1009 BECMG TL0240 2900 BKN014 OVC050
ZGHA,2018-05-30 02:00,ZGHA 300200Z 05003MPS 2900 -SHRA BR FEW026CB BKN026 25/23 Q1010 NOSIG
ZGHA,2018-05-30 03:00,ZGHA 300300Z 06003MPS 1900 SHRA BR FEW026CB BKN026 25/23 Q1009 BECMG TL0400 1400 -TSRA
ZGHA,2018-05-30 04:00,ZGHA 300400Z 29004MPS 270V350 1100 R36L/1900D R36R/P2000 +TSRA BR SCT004 SCT026CB BKN026 23/23 Q1010 BECMG TL0500 1500 -SHRA BR
ZGHA,2018-05-30 05:00,ZGHA 300500Z 29003MPS 9999 -RA SCT005 OVC050 23/23 Q1009 RETSRA BECMG TL0600 BKN005 OVC050
ZGHA,2018-05-30 06:00,ZGHA 300600Z 30004MPS 7000 -RA BKN005 OVC050 23/22 Q1008 NOSIG
ZGHA,2018-05-30 07:00,ZGHA 300700Z 29006MPS 5000 -RA BR BKN008 OVC050 22/21 Q1008 NOSIG
ZGHA,2018-05-30 08:00,ZGHA 300800Z 31004MPS 2200 -SHRA BR BKN008 OVC050 22/21 Q1008 BECMG TL0900 3500 BKN011 OVC050
ZGHA,2018-05-30 09:00,ZGHA 300900Z 28003MPS 250V320 5000 BR BKN007 OVC050 22/21 Q1008 BECMG TL1040 BKN011 OVC050
ZGHA,2018-05-30 10:00,ZGHA 301000Z 28003MPS 4200 BR BKN006 OVC050 22/21 Q1008 BECMG TL1140 BKN004 OVC040
ZGHA,2018-05-30 11:00,ZGHA 301100Z 30003MPS 5000 BR BKN004 OVC050 21/20 Q1008 BECMG TL1200 BKN006 OVC050
ZGHA,2018-05-30 12:00,ZGHA 301200Z 29005MPS 5000 -SHRA BR SCT004 BKN008 OVC050 20/19 Q1009 BECMG TL1340 BKN011 OVC050
ZGHA,2018-05-30 13:00,ZGHA 301300Z 30006MPS 9999 SCT005 BKN008 OVC050 20/19 Q1010 BECMG TL1400 BKN011 OVC050
ZGHA,2018-05-30 14:00,ZGHA 301400Z 30006MPS 9999 SCT005 BKN011 OVC050 20/18 Q1011 BECMG TL1500 BKN009 OVC050
ZGHA,2018-05-30 15:00,ZGHA 301500Z 31006MPS 280V350 9999 -RA SCT004 BKN008 OVC040 19/18 Q1012 NOSIG
ZGHA,2018-05-30 16:00,ZGHA 301600Z 31006MPS 9999 -RA SCT004 BKN008 OVC040 19/18 Q1012 NOSIG
ZGHA,2018-05-30 17:00,ZGHA 301700Z 30005MPS 9999 FEW005 BKN012 OVC050 19/18 Q1012 BECMG TL1800 BKN016 OVC050
ZGHA,2018-05-30 18:00,ZGHA 301800Z 31007MPS 9999 SCT006 BKN011 OVC050 18/17 Q1011 NOSIG
ZGHA,2018-05-30 19:00,ZGHA 301900Z 31005MPS 9999 BKN007 OVC050 18/17 Q1011 NOSIG
ZGHA,2018-05-30 20:00,ZGHA 302000Z 31005MPS 9999 BKN009 OVC050 18/17 Q1011 NOSIG
ZGHA,2018-05-30 21:00,ZGHA 302100Z 31005MPS 9999 BKN009 OVC050 19/17 Q1012 NOSIG
ZGHA,2018-05-30 22:00,ZGHA 302200Z 32003MPS 9999 SCT008 BKN014 OVC050 19/17 Q1012 NOSIG
ZGHA,2018-05-30 23:00,ZGHA 302300Z 32004MPS 9999 BKN011 OVC050 19/17 Q1012 BECMG TL2400 BKN009 OVC050
ZGHA,2018-05-31 00:00,ZGHA 310000Z 30003MPS 260V320 9999 BKN009 OVC050 19/17 Q1013 BECMG TL0100 BKN011 OVC050
ZGHA,2018-05-31 01:00,ZGHA 310100Z 28004MPS 9999 BKN011 OVC050 19/17 Q1014 BECMG TL0200 BKN009 OVC050
ZGHA,2018-05-31 02:00,ZGHA 310200Z 29003MPS 260V320 9999 -RA BKN009 OVC050 19/18 Q1014 BECMG TL0300 BKN011 OVC050
ZGHA,2018-05-31 03:00,ZGHA 310300Z 29004MPS 260V330 9999 -RA BKN010 OVC050 20/18 Q1015 BECMG TL0400 BKN009 OVC050
ZGHA,2018-05-31 04:00,ZGHA 310400Z 30004MPS 5000 SHRA BR BKN007 FEW040CB BKN040 19/18 Q1015 BECMG TL0500 -RA BKN010 OVC050
ZGHA,2018-05-31 05:00,ZGHA 310500Z 30004MPS 270V330 6000 SHRA BKN008 FEW040CB BKN040 20/18 Q1015 BECMG TL0600 -RA BKN010 OVC050
ZGHA,2018-05-31 06:00,ZGHA 310600Z 30003MPS 250V330 8000 -SHRA BKN008 OVC040 20/19 Q1014 RESHRA BECMG TL0640 SHRA
ZGHA,2018-05-31 07:00,ZGHA 310700Z 28002MPS 260V330 8000 -RA BKN009 OVC040 20/19 Q1014 BECMG TL0800 BKN012 OVC050
ZGHA,2018-05-31 08:00,ZGHA 310800Z 29002MPS 260V320 9000 -RA BKN010 OVC040 21/19 Q1013 BECMG TL0900 BKN009 OVC050
ZGHA,2018-05-31 09:00,ZGHA 310900Z 32003MPS 290V360 9000 -RA SCT009 BKN014 OVC050 21/19 Q1013 BECMG TL1000 BKN015 OVC050
ZGHA,2018-05-31 10:00,ZGHA 311000Z 34003MPS 9000 -RA SCT008 BKN015 OVC050 21/19 Q1013 BECMG TL1100 BKN014 OVC050
ZGHA,2018-05-31 11:00,ZGHA 311100Z 29002MPS 250V340 7000 -RA SCT008 BKN014 OVC050 21/19 Q1013 BECMG TL1200 BKN015 OVC050
ZGHA,2018-05-31 12:00,ZGHA 311200Z 30003MPS 270V330 6000 -RA SCT006 BKN015 OVC050 21/19 Q1014 BECMG TL1300 BKN014 OVC050
ZGHA,2018-05-31 13:00,ZGHA 311300Z 31002MPS 280V340 6000 FEW006 BKN013 OVC050 21/19 Q1014 BECMG TL1450 BKN015 OVC050
ZGHA,2018-05-31 14:00,ZGHA 311400Z 32002MPS 290V350 6000 -RA FEW008 BKN016 OVC050 21/19 Q1014 BECMG TL1500 BKN014 OVC050
ZGHA,2018-05-31 15:00,ZGHA 311500Z 33002MPS 5000 BR FEW006 BKN016 OVC050 21/19 Q1015 NOSIG
ZGHA,2018-05-31 16:00,ZGHA 311600Z 36002MPS 5000 -RA BR FEW005 BKN011 OVC050 20/19 Q1015 BECMG TL1750 BKN015 OVC050
ZGHA,2018-05-31 17:00,ZGHA 311700Z 36003MPS 4500 -RA BR SCT003 BKN008 OVC050 20/19 Q1014 NOSIG
ZGHA,2018-05-31 18:00,ZGHA 311800Z 03002MPS 360V060 3500 -RA BR SCT003 BKN006 OVC040 20/19 Q1014 NOSIG
ZGHA,2018-05-31 19:00,ZGHA 311900Z 07003MPS 3000 -RA BR SCT003 BKN005 OVC040 20/19 Q1014 NOSIG
ZGHA,2018-05-31 20:00,ZGHA 312000Z 03002MPS 6000 -RA SCT004 BKN009 OVC040 20/19 Q1014 NOSIG
ZGHA,2018-05-31 21:00,ZGHA 312100Z 04002MPS 6000 -RA SCT004 BKN014 OVC040 20/19 Q1014 BECMG TL2200 BKN015 OVC050
ZGHA,2018-05-31 22:00,ZGHA 312200Z 02002MPS 4500 -RA BR SCT004 BKN015 OVC040 20/19 Q1014 BECMG TL2300 BKN014 OVC050
ZGHA,2018-05-31 23:00,ZGHA 312300Z 01002MPS 4000 -RA BR SCT005 BKN014 OVC040 20/19 Q1015 BECMG TL2400 BKN015 OVC050
ZGHA,2018-06-01 00:00,ZGHA 010000Z 01003MPS 5000 -RA BR FEW005 BKN020 OVC050 20/19 Q1015 NOSIG
ZGHA,2018-06-01 01:00,ZGHA 010100Z 04002MPS 6000 SCT005 OVC040 20/20 Q1015 NOSIG
ZGHA,2018-06-01 02:00,ZGHA 010200Z VRB01MPS 9999 SCT007 OVC040 22/20 Q1015 NOSIG
ZGHA,2018-06-01 03:00,ZGHA 010300Z VRB01MPS 9999 BKN015 24/20 Q1015 NOSIG
ZGHA,2018-06-01 04:00,ZGHA 010400Z VRB01MPS 9999 BKN020 25/19 Q1015 NOSIG
ZGHA,2018-06-01 05:00,ZGHA 010500Z 04002MPS 360V060 9999 BKN026 25/19 Q1014 NOSIG
ZGHA,2018-06-01 06:00,ZGHA 010600Z 05002MPS 020V090 9999 BKN030 24/19 Q1013 NOSIG
ZGHA,2018-06-01 07:00,ZGHA 010700Z 27003MPS 6000 RA BKN015 OVC040 22/20 Q1013 BECMG TL0800 -RA BKN009 OVC050
ZGHA,2018-06-01 08:00,ZGHA 010800Z 28002MPS 5000 -RA BR BKN005 OVC033 22/21 Q1013 RERA BECMG TL0900 BKN011 OVC040
ZGHA,2018-06-01 09:00,ZGHA 010900Z 31003MPS 280V340 6000 -RA BKN007 OVC033 22/21 Q1012 NOSIG
ZGHA,2018-06-01 10:00,ZGHA 011000Z 31003MPS 6000 -RA SCT007 BKN020 OVC033 22/20 Q1013 NOSIG
ZGHA,2018-06-01 11:00,ZGHA 011100Z 31003MPS 6000 -RA BKN005 OVC030 21/20 Q1013 NOSIG
ZGHA,2018-06-01 12:00,ZGHA 011200Z 36002MPS 5000 -RA BR BKN005 OVC030 21/20 Q1013 BECMG TL1300 BKN011 OVC040
ZGHA,2018-06-01 13:00,ZGHA 011300Z 01002MPS 5000 -RA BR FEW005 BKN013 OVC040 21/20 Q1014 BECMG TL1400 BKN015 OVC040
ZGHA,2018-06-01 14:00,ZGHA 011400Z 36003MPS 4500 -RA BR FEW005 BKN015 OVC040 21/20 Q1014 BECMG TL1500 BKN013 OVC040
ZGHA,2018-06-01 15:00,ZGHA 011500Z 01003MPS 2000 -SHRA BR FEW003 BKN012 OVC030 21/21 Q1015 BECMG TL1600 BKN016 OVC040
ZGHA,2018-06-01 16:00,ZGHA 011600Z 36003MPS 4500 -RA BR BKN016 OVC040 21/20 Q1014 NOSIG
ZGHA,2018-06-01 17:00,ZGHA 011700Z 33003MPS 4500 BR FEW004 BKN016 OVC040 21/20 Q1014 NOSIG
ZGHA,2018-06-01 18:00,ZGHA 011800Z 33003MPS 5000 BR FEW004 BKN016 OVC050 21/20 Q1013 NOSIG
ZGHA,2018-06-01 19:00,ZGHA 011900Z VRB01MPS 5000 BR SCT004 OVC050 21/20 Q1013 NOSIG
ZGHA,2018-06-01 20:00,ZGHA 012000Z 35002MPS 5000 BR FEW005 OVC050 21/20 Q1013 NOSIG
ZGHA,2018-06-01 21:00,ZGHA 012100Z 01002MPS 5000 BR FEW005 OVC050 21/20 Q1013 NOSIG
ZGHA,2018-06-01 22:00,ZGHA 012200Z 33001MPS 6000 SCT006 OVC050 21/20 Q1013 NOSIG
ZGHA,2018-06-01 23:00,ZGHA 012300Z 02002MPS 5000 BR SCT006 OVC026 21/20 Q1013 NOSIG
ZGHA,2018-06-02 00:00,ZGHA 020000Z 34003MPS 8000 BKN015 OVC026 21/20 Q1014 NOSIG
ZGHA,2018-06-02 01:00,ZGHA 020100Z 36003MPS 3000 -RA BR BKN005 OVC026 21/20 Q1014 BECMG TL0250 BKN010 OVC040
ZGHA,2018-06-02 02:00,ZGHA 020200Z 36003MPS 8000 FEW008 BKN014 OVC050 21/20 Q1014 BECMG TL0300 BKN015 OVC040
ZGHA,2018-06-02 03:00,ZGHA 020300Z 02003MPS 8000 FEW007 BKN026 OVC050 22/20 Q1014 NOSIG
ZGHA,2018-06-02 04:00,ZGHA 020400Z 28003MPS 8000 BKN020 OVC050 21/20 Q1014 NOSIG
ZGHA,2018-06-02 05:00,ZGHA 020500Z 29003MPS 260V330 3500 BR BKN007 OVC050 22/20 Q1014 BECMG TL0650 BKN011 OVC040
ZGHA,2018-06-02 06:00,ZGHA 020600Z 34003MPS 300V010 4000 BR BKN007 OVC050 22/20 Q1013 NOSIG
ZGHA,2018-06-02 07:00,ZGHA 020700Z 32003MPS 3500 BR BKN007 OVC050 22/20 Q1012 BECMG TL0800 BKN010 OVC050
ZGHA,2018-06-02 08:00,ZGHA 020800Z 32003MPS 4500 BR BKN010 OVC050 22/19 Q1012 BECMG TL0950 BKN015 OVC050
ZGHA,2018-06-02 09:00,ZGHA 020900Z 28003MPS 4500 BR BKN011 OVC050 22/19 Q1012 BECMG TL1000 BKN015 OVC050
ZGHA,2018-06-02 10:00,ZGHA 021000Z 30003MPS 260V320 4000 BR BKN015 OVC050 22/19 Q1012 BECMG TL1100 BKN014 OVC050
ZGHA,2018-06-02 11:00,ZGHA 021100Z 30003MPS 270V340 4000 BR BKN014 OVC050 22/19 Q1012 BECMG TL1200 BKN015 OVC050
ZGHA,2018-06-02 12:00,ZGHA 021200Z 33002MPS 290V020 7000 SCT013 OVC050 22/19 Q1012 NOSIG
ZGHA,2018-06-02 13:00,ZGHA 021300Z 01002MPS 7000 SCT012 OVC050 21/19 Q1012 NOSIG
ZGHA,2018-06-02 14:00,ZGHA 021400Z 06001MPS 5000 BR BKN016 OVC033 21/19 Q1013 BECMG TL1500 BKN014 OVC050
ZGHA,2018-06-02 15:00,ZGHA 021500Z VRB01MPS 5000 BR BKN020 OVC040 21/19 Q1013 NOSIG
ZGHA,2018-06-02 16:00,ZGHA 021600Z VRB01MPS 5000 BR BKN026 OVC050 21/19 Q1013 NOSIG
ZGHA,2018-06-02 17:00,ZGHA 021700Z VRB01MPS 5000 BR BKN026 OVC050 21/19 Q1012 NOSIG
ZGHA,2018-06-02 18:00,ZGHA 021800Z 04001MPS 3400 BR BKN026 OVC050 21/19 Q1012 NOSIG
ZGHA,2018-06-02 19:00,ZGHA 021900Z 02002MPS 3500 BR SCT016 OVC050 21/20 Q1011 NOSIG
ZGHA,2018-06-02 20:00,ZGHA 022000Z 34002MPS 4200 BR BKN020 OVC050 21/19 Q1011 NOSIG
ZGHA,2018-06-02 21:00,ZGHA 022100Z 36002MPS 3000 BR NSC 21/19 Q1011 NOSIG
ZGHA,2018-06-02 22:00,ZGHA 022200Z 34002MPS 2500 BR BKN020 OVC050 21/19 Q1011 NOSIG
ZGHA,2018-06-02 23:00,ZGHA 022300Z 05001MPS 2000 BR BKN020 BKN050 21/20 Q1011 BECMG TL0050 3000
ZGHA,2018-06-03 00:00,ZGHA 030000Z VRB01MPS 3200 BR BKN020 BKN050 22/20 Q1011 NOSIG
ZGHA,2018-06-03 01:00,ZGHA 030100Z 03002MPS 6000 FEW012 BKN020 OVC050 22/18 Q1012 NOSIG
ZGHA,2018-06-03 02:00,ZGHA 030200Z 01002MPS 340V040 8000 BKN020 OVC050 24/18 Q1012 NOSIG
ZGHA,2018-06-03 03:00,ZGHA 030300Z VRB02MPS 8000 BKN020 BKN050 24/19 Q1011 NOSIG
ZGHA,2018-06-03 04:00,ZGHA 030400Z VRB01MPS 8000 BKN020 25/18 Q1011 NOSIG
ZGHA,2018-06-03 05:00,ZGHA 030500Z VRB02MPS 9999 SCT026 27/18 Q1010 NOSIG
ZGHA,2018-06-03 06:00,ZGHA 030600Z VRB01MPS 9999 SCT040 27/17 Q1010 NOSIG
ZGHA,2018-06-03 07:00,ZGHA 030700Z 26002MPS 210V310 9999 FEW040 28/17 Q1009 NOSIG
ZGHA,2018-06-03 08:00,ZGHA 030800Z VRB01MPS 9999 FEW040 28/18 Q1009 NOSIG
ZGHA,2018-06-03 09:00,ZGHA 030900Z 26002MPS 190V320 CAVOK 28/17 Q1008 NOSIG
ZGHA,2018-06-03 10:00,ZGHA 031000Z VRB01MPS CAVOK 27/17 Q1008 NOSIG
ZGHA,2018-06-03 11:00,ZGHA 031100Z VRB02MPS CAVOK 26/18 Q1009 NOSIG
ZGHA,2018-06-03 12:00,ZGHA 031200Z 02002MPS CAVOK 26/18 Q1009 NOSIG
ZGHA,2018-06-03 13:00,ZGHA 031300Z 35003MPS CAVOK 25/19 Q1009 NOSIG
ZGHA,2018-06-03 14:00,ZGHA 031400Z 35003MPS CAVOK 24/19 Q1010 NOSIG
ZGHA,2018-06-03 15:00,ZGHA 031500Z VRB01MPS CAVOK 24/20 Q1011 NOSIG
ZGHA,2018-06-03 16:00,ZGHA 031600Z VRB01MPS CAVOK 24/20 Q1011 NOSIG
ZGHA,2018-06-03 17:00,ZGHA 031700Z VRB01MPS CAVOK 24/20 Q1010 NOSIG
ZGHA,2018-06-03 18:00,ZGHA 031800Z 02001MPS CAVOK 24/19 Q1010 NOSIG
ZGHA,2018-06-03 19:00,ZGHA 031900Z 04001MPS CAVOK 23/20 Q1010 NOSIG
ZGHA,2018-06-03 20:00,ZGHA 032000Z VRB01MPS 8000 NSC 23/20 Q1010 NOSIG
ZGHA,2018-06-03 21:00,ZGHA 032100Z VRB01MPS 7000 -RA NSC 23/20 Q1010 NOSIG
ZGHA,2018-06-03 22:00,ZGHA 032200Z 02001MPS 5000 BR NSC 23/21 Q1010 NOSIG
ZGHA,2018-06-03 23:00,ZGHA 032300Z VRB01MPS 4200 BR NSC 23/21 Q1011 NOSIG
ZGHA,2018-06-04 00:00,ZGHA 040000Z 02001MPS 4200 -RA BR NSC 23/21 Q1011 NOSIG
ZGHA,2018-06-04 01:00,ZGHA 040100Z 05002MPS 020V080 4000 -RA BR SCT040 23/21 Q1011 NOSIG
ZGHA,2018-06-04 02:00,ZGHA 040200Z 36002MPS 320V080 6000 SCT040 24/21 Q1012 NOSIG
ZGHA,2018-06-04 03:00,ZGHA 040300Z 36002MPS 330V040 6000 NSC 25/20 Q1012 NOSIG
ZGHA,2018-06-04 04:00,ZGHA 040400Z 36002MPS 320V020 6000 FEW040 26/20 Q1011 NOSIG
ZGHA,2018-06-04 05:00,ZGHA 040500Z 33004MPS 8000 SCT026 27/20 Q1011 NOSIG
ZGHA,2018-06-04 06:00,ZGHA 040600Z 33005MPS 8000 FEW030 26/19 Q1011 NOSIG
ZGHA,2018-06-04 07:00,ZGHA 040700Z 34004MPS 8000 FEW030 26/19 Q1010 NOSIG
ZGHA,2018-06-04 08:00,ZGHA 040800Z 33005MPS 8000 -RA SCT023 25/20 Q1010 NOSIG
ZGHA,2018-06-04 09:00,ZGHA 040900Z 35006MPS 9999 -RA SCT023 22/17 Q1011 NOSIG
ZGHA,2018-06-04 10:00,ZGHA 041000Z 04002MPS CAVOK 22/18 Q1011 NOSIG
ZGHA,2018-06-04 11:00,ZGHA 041100Z 02002MPS 8000 NSC 22/19 Q1011 NOSIG
ZGHA,2018-06-04 12:00,ZGHA 041200Z 05002MPS 010V100 9000 NSC 21/18 Q1011 NOSIG
ZGHA,2018-06-04 13:00,ZGHA 041300Z 05001MPS CAVOK 21/18 Q1012 NOSIG
ZGHA,2018-06-04 14:00,ZGHA 041400Z 02002MPS CAVOK 21/18 Q1012 NOSIG
ZGHA,2018-06-04 15:00,ZGHA 041500Z VRB01MPS 9000 -RA NSC 21/18 Q1012 NOSIG
ZGHA,2018-06-04 16:00,ZGHA 041600Z 05001MPS 9000 -RA NSC 21/19 Q1012 NOSIG
ZGHA,2018-06-04 17:00,ZGHA 041700Z 02002MPS 9000 -RA NSC 20/19 Q1012 NOSIG
ZGHA,2018-06-04 18:00,ZGHA 041800Z 03001MPS 9000 -RA NSC 20/19 Q1011 NOSIG
ZGHA,2018-06-04 19:00,ZGHA 041900Z 10001MPS 7000 -RA NSC 20/19 Q1011 NOSIG
ZGHA,2018-06-04 20:00,ZGHA 042000Z 05002MPS 5000 -RA BR SCT005 20/19 Q1011 NOSIG
ZGHA,2018-06-04 21:00,ZGHA 042100Z 04002MPS 6000 -RA SCT005 20/19 Q1011 NOSIG
ZGHA,2018-06-04 22:00,ZGHA 042200Z 07001MPS 6000 -RA SCT009 20/19 Q1011 NOSIG
ZGHA,2018-06-04 23:00,ZGHA 042300Z VRB01MPS 6000 -RA SCT009 20/19 Q1012 NOSIG
ZGHA,2018-06-05 00:00,ZGHA 050000Z 01002MPS 4000 -RA BR FEW005 BKN023 20/19 Q1012 NOSIG
ZGHA,2018-06-05 01:00,ZGHA 050100Z VRB01MPS 9999 -RA SCT005 BKN030 20/20 Q1012 NOSIG
ZGHA,2018-06-05 02:00,ZGHA 050200Z 19002MPS 150V280 3500 SHRA BR SCT005 FEW050CB BKN050 21/20 Q1012 BECMG TL0300 -RA
ZGHA,2018-06-05 03:00,ZGHA 050300Z VRB01MPS 8000 -SHRA FEW005 BKN008 OVC050 21/20 Q1012 RESHRA BECMG TL0440 BKN011 OVC040
ZGHA,2018-06-05 04:00,ZGHA 050400Z VRB01MPS 9999 -RA BKN008 OVC050 22/20 Q1012 BECMG TL0500 BKN011 OVC050
ZGHA,2018-06-05 05:00,ZGHA 050500Z 17002MPS 130V200 9999 -RA FEW006 BKN011 OVC050 22/20 Q1011 NOSIG
ZGHA,2018-06-05 06:00,ZGHA 050600Z 20002MPS 150V240 9999 BKN011 OVC050 23/20 Q1011 BECMG TL0740 BKN015 OVC050
ZGHA,2018-06-05 07:00,ZGHA 050700Z 21002MPS 190V290 9999 -RA BKN015 OVC050 23/20 Q1011 NOSIG
ZGHA,2018-06-05 08:00,ZGHA 050800Z VRB01MPS 9999 -RA FEW011 BKN016 OVC050 23/20 Q1010 NOSIG
ZGHA,2018-06-05 09:00,ZGHA 050900Z 19002MPS 160V230 9999 FEW010 BKN033 23/21 Q1010 NOSIG
ZGHA,2018-06-05 10:00,ZGHA 051000Z 17002MPS 160V230 9999 FEW010 BKN040 23/20 Q1010 NOSIG
ZGHA,2018-06-05 11:00,ZGHA 051100Z VRB01MPS 9999 FEW010 BKN050 23/20 Q1009 NOSIG
ZGHA,2018-06-05 12:00,ZGHA 051200Z VRB01MPS 9999 FEW010 22/20 Q1010 NOSIG
ZGHA,2018-06-05 13:00,ZGHA 051300Z 25002G07MPS 210V270 9999 OVC050 22/21 Q1011 NOSIG
ZGHA,2018-06-05 14:00,ZGHA 051400Z VRB01MPS CAVOK 22/21 Q1010 NOSIG
ZGHA,2018-06-05 15:00,ZGHA 051500Z VRB01MPS CAVOK 22/21 Q1011 NOSIG
ZGHA,2018-06-05 16:00,ZGHA 051600Z VRB01MPS CAVOK 22/20 Q1010 NOSIG
ZGHA,2018-06-05 17:00,ZGHA 051700Z 22001MPS CAVOK 21/20 Q1010 NOSIG
ZGHA,2018-06-05 18:00,ZGHA 051800Z 20001MPS CAVOK 21/20 Q1010 NOSIG
ZGHA,2018-06-05 19:00,ZGHA 051900Z 17001MPS CAVOK 21/20 Q1010 NOSIG
ZGHA,2018-06-05 20:00,ZGHA 052000Z 00000MPS 8000 NSC 20/20 Q1010 NOSIG
ZGHA,2018-06-05 21:00,ZGHA 052100Z VRB01MPS 0900 R18R/0325N R18L/0375V0550N FG NSC 20/20 Q1010 BECMG TL2250 1500 BR
ZGHA,2018-06-05 22:00,ZGHA 052200Z 03002MPS 0800 R36L/1500U R36R/P2000 FG NSC 21/20 Q1010 NOSIG
ZGHA,2018-06-05 23:00,ZGHA 052300Z VRB01MPS 1700 BR BKN005 21/20 Q1010 BECMG TL2400 3000
ZGHA,2018-06-06 00:00,ZGHA 060000Z 04003MPS 5000 BR OVC005 21/21 Q1010 NOSIG
ZGHA,2018-06-06 01:00,ZGHA 060100Z 06002MPS 020V080 9999 BKN007 23/20 Q1010 BECMG TL0200 BKN014
ZGHA,2018-06-06 02:00,ZGHA 060200Z 09002MPS 020V150 9999 BKN014 25/20 Q1010 BECMG TL0300 BKN020
ZGHA,2018-06-06 03:00,ZGHA 060300Z VRB02MPS 9999 SCT020 26/20 Q1010 NOSIG
ZGHA,2018-06-06 04:00,ZGHA 060400Z VRB01MPS 9999 BKN026 28/20 Q1009 NOSIG
ZGHA,2018-06-06 05:00,ZGHA 060500Z VRB01MPS 9999 BKN030 30/20 Q1008 NOSIG
ZGHA,2018-06-06 06:00,ZGHA 060600Z VRB01MPS 9999 SCT040 29/20 Q1008 NOSIG
ZGHA,2018-06-06 07:00,ZGHA 060700Z VRB01MPS 9999 BKN033 30/20 Q1007 NOSIG
ZGHA,2018-06-06 08:00,ZGHA 060800Z VRB01MPS 9999 BKN040 30/20 Q1006 NOSIG
ZGHA,2018-06-06 09:00,ZGHA 060900Z 17004MPS 9999 BKN040 30/20 Q1006 NOSIG
ZGHA,2018-06-06 10:00,ZGHA 061000Z 15002MPS 9999 SCT040 31/19 Q1006 NOSIG
ZGHA,2018-06-06 11:00,ZGHA 061100Z 16004MPS 9999 FEW040 29/20 Q1007 NOSIG
ZGHA,2018-06-06 12:00,ZGHA 061200Z 14004MPS CAVOK 28/20 Q1007 NOSIG
ZGHA,2018-06-06 13:00,ZGHA 061300Z 14003MPS CAVOK 27/20 Q1008 NOSIG
ZGHA,2018-06-06 14:00,ZGHA 061400Z 16002MPS 100V270 CAVOK 26/20 Q1008 NOSIG
ZGHA,2018-06-06 15:00,ZGHA 061500Z 14002MPS 100V200 CAVOK 26/20 Q1008 NOSIG
ZGHA,2018-06-06 16:00,ZGHA 061600Z 17002MPS 120V250 CAVOK 25/20 Q1008 NOSIG
ZGHA,2018-06-06 17:00,ZGHA 061700Z 17002MPS 8000 NSC 24/21 Q1008 NOSIG
ZGHA,2018-06-06 18:00,ZGHA 061800Z 05001MPS 8000 NSC 24/21 Q1008 NOSIG
ZGHA,2018-06-06 19:00,ZGHA 061900Z 04001MPS 8000 NSC 24/21 Q1007 NOSIG
ZGHA,2018-06-06 20:00,ZGHA 062000Z 02002MPS 8000 NSC 24/21 Q1008 NOSIG
ZGHA,2018-06-06 21:00,ZGHA 062100Z 02003MPS 8000 NSC 23/21 Q1008 NOSIG
ZGHA,2018-06-06 22:00,ZGHA 062200Z 03002MPS 8000 NSC 23/21 Q1008 NOSIG
ZGHA,2018-06-06 23:00,ZGHA 062300Z 06003MPS 8000 BKN040 24/21 Q1008 NOSIG
ZGHA,2018-06-07 00:00,ZGHA 070000Z 04003MPS 9000 OVC040 25/21 Q1008 NOSIG
ZGHA,2018-06-07 01:00,ZGHA 070100Z 06002MPS 9999 BKN040 26/22 Q1009 NOSIG
ZGHA,2018-06-07 02:00,ZGHA 070200Z 11001MPS 9999 BKN040 26/21 Q1009 NOSIG
ZGHA,2018-06-07 03:00,ZGHA 070300Z 24002MPS 200V300 9999 BKN040 26/21 Q1008 NOSIG
ZGHA,2018-06-07 04:00,ZGHA 070400Z 19003MPS 160V240 9999 -SHRA SCT020 FEW040CB BKN040 25/22 Q1008 NOSIG
ZGHA,2018-06-07 05:00,ZGHA 070500Z 22002MPS 8000 -SHRA SCT023 FEW040CB BKN040 25/22 Q1008 NOSIG
ZGHA,2018-06-07 06:00,ZGHA 070600Z 31002MPS 270V060 8000 -RA BKN020 25/23 Q1007 NOSIG
ZGHA,2018-06-07 07:00,ZGHA 070700Z VRB01MPS 8000 -RA BKN040 25/23 Q1007 NOSIG
ZGHA,2018-06-07 08:00,ZGHA 070800Z VRB01MPS 8000 BKN040 26/24 Q1007 NOSIG
ZGHA,2018-06-07 09:00,ZGHA 070900Z VRB01MPS 9000 NSC 26/23 Q1006 NOSIG
ZGHA,2018-06-07 10:00,ZGHA 071000Z 10002MPS 050V160 CAVOK 27/23 Q1007 NOSIG
ZGHA,2018-06-07 11:00,ZGHA 071100Z VRB01MPS 9999 SCT050 26/23 Q1007 NOSIG
ZGHA,2018-06-07 12:00,ZGHA 071200Z VRB01MPS CAVOK 26/23 Q1007 NOSIG
ZGHA,2018-06-07 13:00,ZGHA 071300Z VRB01MPS 8000 NSC 25/23 Q1007 NOSIG
ZGHA,2018-06-07 14:00,ZGHA 071400Z 04002MPS 010V080 8000 NSC 25/23 Q1008 NOSIG
ZGHA,2018-06-07 15:00,ZGHA 071500Z 01002MPS 340V040 8000 NSC 25/24 Q1008 NOSIG
ZGHA,2018-06-07 16:00,ZGHA 071600Z VRB01MPS 7000 NSC 24/23 Q1007 NOSIG
ZGHA,2018-06-07 17:00,ZGHA 071700Z VRB01MPS 6000 SCT007 24/23 Q1006 NOSIG
ZGHA,2018-06-07 18:00,ZGHA 071800Z 11002MPS 6000 NSC 24/23 Q1006 NOSIG
ZGHA,2018-06-07 19:00,ZGHA 071900Z 32003MPS 5000 BR NSC 24/23 Q1005 NOSIG
ZGHA,2018-06-07 20:00,ZGHA 072000Z 36002MPS 5000 BR NSC 24/23 Q1005 NOSIG
ZGHA,2018-06-07 21:00,ZGHA 072100Z 02001MPS 7000 BKN033 24/23 Q1006 NOSIG
ZGHA,2018-06-07 22:00,ZGHA 072200Z 02002MPS 7000 SCT033 23/23 Q1006 NOSIG
ZGHA,2018-06-07 23:00,ZGHA 072300Z 08001MPS 7000 SCT033 24/23 Q1006 NOSIG
ZGHA,2018-06-08 00:00,ZGHA 080000Z 06002MPS 020V090 9000 SCT033 26/23 Q1006 NOSIG
ZGHA,2018-06-08 01:00,ZGHA 080100Z 03002MPS 340V090 9999 FEW015 SCT050 27/22 Q1006 NOSIG
ZGHA,2018-06-08 02:00,ZGHA 080200Z VRB01MPS 9999 -RA SCT016 BKN040 26/22 Q1006 NOSIG
ZGHA,2018-06-08 03:00,ZGHA 080300Z 16002MPS 110V230 9999 BKN023 28/21 Q1006 NOSIG
ZGHA,2018-06-08 04:00,ZGHA 080400Z 16003MPS 120V220 9999 BKN026 28/22 Q1005 NOSIG
ZGHA,2018-06-08 05:00,ZGHA 080500Z 14006MPS 9999 SCT033 27/22 Q1005 NOSIG
ZGHA,2018-06-08 06:00,ZGHA 080600Z 12004MPS 080V200 9999 BKN040 28/21 Q1004 NOSIG
ZGHA,2018-06-08 07:00,ZGHA 080700Z 11003MPS 050V180 9999 SCT040 29/22 Q1004 NOSIG
ZGHA,2018-06-08 08:00,ZGHA 080800Z 11004MPS 040V160 9999 SCT033 29/22 Q1003 NOSIG
ZGHA,2018-06-08 09:00,ZGHA 080900Z 10003MPS 080V150 9999 FEW033 28/22 Q1003 NOSIG
ZGHA,2018-06-08 10:00,ZGHA 081000Z 15003MPS 9999 FEW033 28/22 Q1003 NOSIG
ZGHA,2018-06-08 11:00,ZGHA 081100Z 10002MPS 060V180 9999 FEW033 28/22 Q1003 NOSIG
ZGHA,2018-06-08 12:00,ZGHA 081200Z 08002MPS CAVOK 27/22 Q1003 NOSIG
ZGHA,2018-06-08 13:00,ZGHA 081300Z VRB01MPS CAVOK 26/22 Q1004 NOSIG
ZGHA,2018-06-08 14:00,ZGHA 081400Z VRB01MPS CAVOK 26/22 Q1004 NOSIG
ZGHA,2018-06-08 15:00,ZGHA 081500Z VRB01MPS CAVOK 26/22 Q1004 NOSIG
ZGHA,2018-06-08 16:00,ZGHA 081600Z VRB01MPS CAVOK 26/23 Q1004 NOSIG
ZGHA,2018-06-08 17:00,ZGHA 081700Z VRB01MPS 9999 SCT050 25/23 Q1003 NOSIG
ZGHA,2018-06-08 18:00,ZGHA 081800Z 04002MPS CAVOK 25/23 Q1003 NOSIG
ZGHA,2018-06-08 19:00,ZGHA 081900Z 01002MPS CAVOK 25/23 Q1002 NOSIG
ZGHA,2018-06-08 20:00,ZGHA 082000Z 36002MPS CAVOK 24/23 Q1002 NOSIG
ZGHA,2018-06-08 21:00,ZGHA 082100Z 05001MPS 9999 SCT040 25/23 Q1002 NOSIG
ZGHA,2018-06-08 22:00,ZGHA 082200Z 03002MPS CAVOK 24/23 Q1002 NOSIG
ZGHA,2018-06-08 23:00,ZGHA 082300Z 35003MPS 9999 FEW014 SCT050 25/23 Q1003 NOSIG
ZGHA,2018-06-09 00:00,ZGHA 090000Z 01003MPS 9999 FEW008 SCT023 25/23 Q1003 NOSIG
ZGHA,2018-06-09 01:00,ZGHA 090100Z 35003MPS 310V010 9999 FEW008 SCT023 26/23 Q1004 NOSIG
ZGHA,2018-06-09 02:00,ZGHA 090200Z 35003MPS 310V010 9999 FEW009 BKN025 28/24 Q1003 NOSIG
ZGHA,2018-06-09 03:00,ZGHA 090300Z 32004MPS 290V360 8000 FEW010 BKN025 27/24 Q1003 NOSIG
ZGHA,2018-06-09 04:00,ZGHA 090400Z 33005MPS 300V360 9999 SCT020 28/23 Q1003 NOSIG
ZGHA,2018-06-09 05:00,ZGHA 090500Z 34006MPS 310V010 9999 SCT023 30/22 Q1002 NOSIG
ZGHA,2018-06-09 06:00,ZGHA 090600Z 35007MPS 9999 FEW033 31/22 Q1002 NOSIG
ZGHA,2018-06-09 07:00,ZGHA 090700Z 34008MPS 9999 FEW030 30/20 Q1001 NOSIG
ZGHA,2018-06-09 08:00,ZGHA 090800Z 34007MPS CAVOK 30/21 Q1001 NOSIG
ZGHA,2018-06-09 09:00,ZGHA 090900Z 36008MPS CAVOK 30/20 Q1001 NOSIG
ZGHA,2018-06-09 10:00,ZGHA 091000Z 36007MPS CAVOK 29/20 Q1001 NOSIG
ZGHA,2018-06-09 11:00,ZGHA 091100Z 36005MPS CAVOK 28/20 Q1001 NOSIG
ZGHA,2018-06-09 12:00,ZGHA 091200Z 36005MPS CAVOK 26/20 Q1002 NOSIG
ZGHA,2018-06-09 13:00,ZGHA 091300Z 36005MPS 9000 NSC 26/20 Q1003 NOSIG
ZGHA,2018-06-09 14:00,ZGHA 091400Z 36005MPS 9000 NSC 25/20 Q1004 NOSIG
ZGHA,2018-06-09 15:00,ZGHA 091500Z 36004MPS 8000 NSC 24/20 Q1005 NOSIG
ZGHA,2018-06-09 16:00,ZGHA 091600Z 35003MPS 7000 NSC 24/20 Q1004 NOSIG
ZGHA,2018-06-09 17:00,ZGHA 091700Z 36004MPS 6000 NSC 23/20 Q1004 NOSIG
ZGHA,2018-06-09 18:00,ZGHA 091800Z 36004MPS 4500 BR NSC 22/20 Q1004 NOSIG
ZGHA,2018-06-09 19:00,ZGHA 091900Z 35005MPS 4500 BR NSC 22/20 Q1004 NOSIG
ZGHA,2018-06-09 20:00,ZGHA 092000Z 33004MPS 4000 BR NSC 22/20 Q1004 NOSIG
ZGHA,2018-06-09 21:00,ZGHA 092100Z 35004MPS 3000 BR NSC 21/19 Q1004 NOSIG
ZGHA,2018-06-09 22:00,ZGHA 092200Z 36003MPS 2200 BR NSC 21/19 Q1004 NOSIG
ZGHA,2018-06-09 23:00,ZGHA 092300Z 33003MPS 3500 BR NSC 23/20 Q1005 NOSIG
ZGHA,2018-06-10 00:00,ZGHA 100000Z 36005MPS 6000 NSC 24/18 Q1005 NOSIG
ZGHA,2018-06-10 01:00,ZGHA 100100Z 34003MPS 290V010 CAVOK 26/17 Q1006 NOSIG
ZGHA,2018-06-10 02:00,ZGHA 100200Z 35004MPS 320V020 CAVOK 26/17 Q1006 NOSIG
ZGHA,2018-06-10 03:00,ZGHA 100300Z 34004MPS 310V040 CAVOK 29/16 Q1006 NOSIG
ZGHA,2018-06-10 04:00,ZGHA 100400Z 03006MPS 360V060 CAVOK 29/15 Q1005 NOSIG
ZGHA,2018-06-10 05:00,ZGHA 100500Z 01006MPS CAVOK 30/14 Q1004 NOSIG
ZGHA,2018-06-10 06:00,ZGHA 100600Z 01006MPS CAVOK 30/14 Q1004 NOSIG
ZGHA,2018-06-10 07:00,ZGHA 100700Z 02004MPS 340V050 CAVOK 31/15 Q1003 NOSIG
ZGHA,2018-06-10 08:00,ZGHA 100800Z 34004MPS 310V020 CAVOK 31/16 Q1003 NOSIG
ZGHA,2018-06-10 09:00,ZGHA 100900Z 34004MPS CAVOK 31/15 Q1003 NOSIG
ZGHA,2018-06-10 10:00,ZGHA 101000Z 34005MPS CAVOK 30/15 Q1003 NOSIG
ZGHA,2018-06-10 11:00,ZGHA 101100Z 35005MPS CAVOK 29/14 Q1003 NOSIG
ZGHA,2018-06-10 12:00,ZGHA 101200Z 32004MPS CAVOK 27/17 Q1004 NOSIG
ZGHA,2018-06-10 13:00,ZGHA 101300Z 32003MPS CAVOK 26/17 Q1004 NOSIG
ZGHA,2018-06-10 14:00,ZGHA 101400Z VRB01MPS CAVOK 25/18 Q1005 NOSIG
ZGHA,2018-06-10 15:00,ZGHA 101500Z 01002MPS CAVOK 24/18 Q1005 NOSIG
ZGHA,2018-06-10 16:00,ZGHA 101600Z VRB01MPS CAVOK 23/19 Q1005 NOSIG
ZGHA,2018-06-10 17:00,ZGHA 101700Z VRB01MPS CAVOK 22/19 Q1004 NOSIG
ZGHA,2018-06-10 18:00,ZGHA 101800Z 04002MPS 8000 NSC 22/20 Q1004 NOSIG
ZGHA,2018-06-10 19:00,ZGHA 101900Z 06002MPS 7000 NSC 22/20 Q1004 NOSIG
ZGHA,2018-06-10 20:00,ZGHA 102000Z 03001MPS 7000 NSC 21/19 Q1004 NOSIG
ZGHA,2018-06-10 21:00,ZGHA 102100Z 00000MPS 7000 NSC 20/19 Q1004 NOSIG
ZGHA,2018-06-10 22:00,ZGHA 102200Z 01002MPS 5000 BR NSC 20/19 Q1004 NOSIG
ZGHA,2018-06-10 23:00,ZGHA 102300Z VRB01MPS 7000 NSC 22/19 Q1005 NOSIG
ZGHA,2018-06-11 00:00,ZGHA 110000Z VRB01MPS 7000 NSC 24/19 Q1005 NOSIG
ZGHA,2018-06-11 01:00,ZGHA 110100Z 18002MPS 150V240 8000 NSC 26/19 Q1005 NOSIG
ZGHA,2018-06-11 02:00,ZGHA 110200Z 17002MPS 130V210 CAVOK 28/18 Q1005 NOSIG
ZGHA,2018-06-11 03:00,ZGHA 110300Z VRB01MPS CAVOK 30/16 Q1005 NOSIG
ZGHA,2018-06-11 04:00,ZGHA 110400Z VRB01MPS CAVOK 31/13 Q1005 NOSIG
ZGHA,2018-06-11 05:00,ZGHA 110500Z 12002MPS 040V180 CAVOK 33/12 Q1004 NOSIG
ZGHA,2018-06-11 06:00,ZGHA 110600Z VRB02MPS CAVOK 33/12 Q1003 NOSIG
ZGHA,2018-06-11 07:00,ZGHA 110700Z 18003MPS 140V260 CAVOK 34/11 Q1002 NOSIG
ZGHA,2018-06-11 08:00,ZGHA 110800Z VRB02MPS CAVOK 34/11 Q1002 NOSIG
ZGHA,2018-06-11 09:00,ZGHA 110900Z 15002MPS 100V210 CAVOK 33/10 Q1001 NOSIG
ZGHA,2018-06-11 10:00,ZGHA 111000Z 08002MPS 060V120 CAVOK 33/11 Q1001 NOSIG
ZGHA,2018-06-11 11:00,ZGHA 111100Z 12001MPS CAVOK 31/16 Q1002 NOSIG
ZGHA,2018-06-11 12:00,ZGHA 111200Z 15002MPS 130V200 CAVOK 30/18 Q1002 NOSIG
ZGHA,2018-06-11 13:00,ZGHA 111300Z 19002MPS 160V220 CAVOK 29/17 Q1003 NOSIG
ZGHA,2018-06-11 14:00,ZGHA 111400Z 17002MPS 140V220 CAVOK 28/19 Q1004 NOSIG
ZGHA,2018-06-11 15:00,ZGHA 111500Z 17002MPS CAVOK 27/18 Q1004 NOSIG
ZGHA,2018-06-11 16:00,ZGHA 111600Z 17002MPS 140V220 CAVOK 27/16 Q1003 NOSIG
ZGHA,2018-06-11 17:00,ZGHA 111700Z VRB01MPS CAVOK 25/17 Q1003 NOSIG
ZGHA,2018-06-11 18:00,ZGHA 111800Z 09001MPS CAVOK 25/18 Q1003 NOSIG
ZGHA,2018-06-11 19:00,ZGHA 111900Z VRB01MPS CAVOK 25/18 Q1002 NOSIG
ZGHA,2018-06-11 20:00,ZGHA 112000Z VRB01MPS CAVOK 24/19 Q1002 NOSIG
ZGHA,2018-06-11 21:00,ZGHA 112100Z VRB01MPS CAVOK 24/19 Q1002 NOSIG
ZGHA,2018-06-11 22:00,ZGHA 112200Z 19001MPS CAVOK 23/18 Q1003 NOSIG
ZGHA,2018-06-11 23:00,ZGHA 112300Z 19002MPS CAVOK 24/18 Q1003 NOSIG
ZGHA,2018-06-12 00:00,ZGHA 120000Z 16003MPS CAVOK 25/17 Q1004 NOSIG
ZGHA,2018-06-12 01:00,ZGHA 120100Z 12002MPS 080V170 CAVOK 25/18 Q1004 NOSIG
ZGHA,2018-06-12 02:00,ZGHA 120200Z 13002MPS 080V160 9999 -RA FEW033 25/18 Q1004 NOSIG
ZGHA,2018-06-12 03:00,ZGHA 120300Z 18003MPS CAVOK 27/19 Q1005 NOSIG
ZGHA,2018-06-12 04:00,ZGHA 120400Z 19002MPS 170V260 CAVOK 28/18 Q1004 NOSIG
ZGHA,2018-06-12 05:00,ZGHA 120500Z 20003MPS 160V240 CAVOK 28/18 Q1004 NOSIG
ZGHA,2018-06-12 06:00,ZGHA 120600Z 22002MPS 180V260 CAVOK 28/19 Q1003 NOSIG
ZGHA,2018-06-12 07:00,ZGHA 120700Z VRB03G08MPS 9999 FEW040 28/17 Q1002 NOSIG
ZGHA,2018-06-12 08:00,ZGHA 120800Z 22004MPS 200V260 CAVOK 28/17 Q1002 NOSIG
ZGHA,2018-06-12 09:00,ZGHA 120900Z 20004MPS CAVOK 27/17 Q1002 NOSIG
ZGHA,2018-06-12 10:00,ZGHA 121000Z VRB04MPS CAVOK 27/15 Q1001 NOSIG
ZGHA,2018-06-12 11:00,ZGHA 121100Z 19004MPS CAVOK 26/15 Q1001 NOSIG
ZGHA,2018-06-12 12:00,ZGHA 121200Z VRB03MPS CAVOK 24/17 Q1002 NOSIG
ZGHA,2018-06-12 13:00,ZGHA 121300Z 24002MPS 190V310 CAVOK 24/17 Q1002 NOSIG
ZGHA,2018-06-12 14:00,ZGHA 121400Z VRB01MPS CAVOK 23/18 Q1002 NOSIG
ZGHA,2018-06-12 15:00,ZGHA 121500Z 20002MPS 130V250 CAVOK 22/18 Q1002 NOSIG
ZGHA,2018-06-12 16:00,ZGHA 121600Z 18002MPS 160V240 CAVOK 22/18 Q1002 NOSIG
ZGHA,2018-06-12 17:00,ZGHA 121700Z VRB01MPS CAVOK 22/18 Q1002 NOSIG
ZGHA,2018-06-12 18:00,ZGHA 121800Z VRB01MPS CAVOK 22/18 Q1001 NOSIG
ZGHA,2018-06-12 19:00,ZGHA 121900Z VRB01MPS 9999 OVC050 22/18 Q1001 NOSIG
ZGHA,2018-06-12 20:00,ZGHA 122000Z 17002MPS 9999 OVC040 22/19 Q1000 NOSIG
ZGHA,2018-06-12 21:00,ZGHA 122100Z 17001MPS 9999 OVC040 22/18 Q1000 NOSIG
ZGHA,2018-06-12 22:00,ZGHA 122200Z 18001MPS 9999 OVC040 22/19 Q1001 NOSIG
ZGHA,2018-06-12 23:00,ZGHA 122300Z 18001MPS 9999 OVC040 22/18 Q1001 NOSIG
ZGHA,2018-06-13 00:00,ZGHA 130000Z 17002MPS 130V200 9999 OVC040 23/19 Q1001 NOSIG
ZGHA,2018-06-13 01:00,ZGHA 130100Z 17002MPS 130V260 9999 OVC040 23/18 Q1001 NOSIG
ZGHA,2018-06-13 02:00,ZGHA 130200Z 08003MPS 050V110 8000 SCT026 OVC050 23/19 Q1001 NOSIG
ZGHA,2018-06-13 03:00,ZGHA 130300Z 08004MPS 9999 BKN020 OVC050 23/18 Q1001 NOSIG
ZGHA,2018-06-13 04:00,ZGHA 130400Z 07003MPS 050V120 9999 BKN020 OVC050 24/19 Q1001 NOSIG
ZGHA,2018-06-13 05:00,ZGHA 130500Z 11004MPS 9999 BKN023 OVC050 24/18 Q1001 NOSIG
ZGHA,2018-06-13 06:00,ZGHA 130600Z 09002MPS 010V140 9999 BKN020 OVC050 24/18 Q1000 NOSIG
ZGHA,2018-06-13 07:00,ZGHA 130700Z 11003MPS 080V140 9999 BKN026 OVC050 24/19 Q1000 NOSIG
ZGHA,2018-06-13 08:00,ZGHA 130800Z VRB01MPS 9999 BKN026 OVC050 25/19 Q1000 NOSIG
ZGHA,2018-06-13 09:00,ZGHA 130900Z VRB01MPS 9999 BKN033 OVC050 25/19 Q0999 NOSIG
ZGHA,2018-06-13 10:00,ZGHA 131000Z 20002MPS 150V240 9999 BKN033 OVC050 25/19 Q0999 NOSIG
ZGHA,2018-06-13 11:00,ZGHA 131100Z 21002MPS 170V340 9999 BKN033 OVC050 24/19 Q1000 NOSIG
ZGHA,2018-06-13 12:00,ZGHA 131200Z VRB01MPS 9999 BKN033 OVC050 24/19 Q1000 NOSIG
ZGHA,2018-06-13 13:00,ZGHA 131300Z VRB01MPS 9999 BKN030 OVC050 24/19 Q1001 NOSIG
ZGHA,2018-06-13 14:00,ZGHA 131400Z VRB01MPS 9999 BKN030 OVC050 24/19 Q1001 NOSIG
ZGHA,2018-06-13 15:00,ZGHA 131500Z 17002MPS 150V220 9999 BKN033 OVC050 24/19 Q1001 NOSIG
ZGHA,2018-06-13 16:00,ZGHA 131600Z VRB01MPS 9999 SCT033 23/19 Q1001 NOSIG
ZGHA,2018-06-13 17:00,ZGHA 131700Z VRB01MPS 9999 FEW033 23/19 Q1001 NOSIG
ZGHA,2018-06-13 18:00,ZGHA 131800Z VRB01MPS CAVOK 22/19 Q1001 NOSIG
ZGHA,2018-06-13 19:00,ZGHA 131900Z 03002MPS 9999 SCT026 22/20 Q1001 NOSIG
ZGHA,2018-06-13 20:00,ZGHA 132000Z VRB01MPS 9999 SCT026 OVC050 22/19 Q1001 NOSIG
ZGHA,2018-06-13 21:00,ZGHA 132100Z 05001MPS 9999 BKN026 OVC050 22/20 Q1001 NOSIG
ZGHA,2018-06-13 22:00,ZGHA 132200Z VRB01MPS 9999 BKN026 OVC050 22/20 Q1001 NOSIG
ZGHA,2018-06-13 23:00,ZGHA 132300Z 04002MPS 9999 SCT040 22/20 Q1001 NOSIG
ZGHA,2018-06-14 00:00,ZGHA 140000Z 05002MPS 9999 SCT040 23/20 Q1002 NOSIG
ZGHA,2018-06-14 01:00,ZGHA 140100Z 04003MPS 010V080 9999 FEW040 26/19 Q1002 NOSIG
ZGHA,2018-06-14 02:00,ZGHA 140200Z 02003MPS 350V050 9999 BKN023 27/19 Q1002 NOSIG
ZGHA,2018-06-14 03:00,ZGHA 140300Z 04002MPS 350V080 9999 SCT023 BKN040 28/20 Q1002 NOSIG
ZGHA,2018-06-14 04:00,ZGHA 140400Z VRB01MPS 9999 BKN050 28/19 Q1002 NOSIG
ZGHA,2018-06-14 05:00,ZGHA 140500Z 35003MPS 300V040 9999 BKN050 29/19 Q1002 NOSIG
ZGHA,2018-06-14 06:00,ZGHA 140600Z 02003MPS 310V040 9999 BKN050 30/20 Q1001 NOSIG
ZGHA,2018-06-14 07:00,ZGHA 140700Z 36003MPS 320V030 9999 BKN040 30/20 Q1001 NOSIG
ZGHA,2018-06-14 08:00,ZGHA 140800Z 36005MPS 330V030 9999 SCT040 30/20 Q1001 NOSIG
ZGHA,2018-06-14 09:00,ZGHA 140900Z 36005MPS 9999 SCT050 29/20 Q1001 NOSIG
ZGHA,2018-06-14 10:00,ZGHA 141000Z 33004MPS 9999 SCT050 28/21 Q1001 NOSIG
ZGHA,2018-06-14 11:00,ZGHA 141100Z 35005MPS 9000 NSC 28/21 Q1002 NOSIG
ZGHA,2018-06-14 12:00,ZGHA 141200Z 35004MPS 9000 NSC 27/21 Q1002 NOSIG
ZGHA,2018-06-14 13:00,ZGHA 141300Z 34004MPS 9000 NSC 27/21 Q1003 NOSIG
ZGHA,2018-06-14 14:00,ZGHA 141400Z VRB01MPS 8000 NSC 26/21 Q1003 NOSIG
ZGHA,2018-06-14 15:00,ZGHA 141500Z 33002MPS 290V020 8000 NSC 26/21 Q1004 NOSIG
ZGHA,2018-06-14 16:00,ZGHA 141600Z 36001MPS 7000 NSC 26/21 Q1004 NOSIG
ZGHA,2018-06-14 17:00,ZGHA 141700Z 33002MPS 7000 NSC 25/21 Q1004 NOSIG
ZGHA,2018-06-14 18:00,ZGHA 141800Z 02002MPS 6000 NSC 24/21 Q1003 NOSIG
ZGHA,2018-06-14 19:00,ZGHA 141900Z 35002MPS 4500 BR NSC 24/21 Q1003 NOSIG
ZGHA,2018-06-14 20:00,ZGHA 142000Z 35003MPS 4000 BR NSC 24/21 Q1003 NOSIG
ZGHA,2018-06-14 21:00,ZGHA 142100Z 35003MPS 3500 BR NSC 24/21 Q1004 NOSIG
ZGHA,2018-06-14 22:00,ZGHA 142200Z 36002MPS 2000 R36L/1300U R36R/P2000 BR NSC 23/22 Q1004 NOSIG
ZGHA,2018-06-14 23:00,ZGHA 142300Z 02003MPS 2000 R36L/1200V1300D R36R/P2000 BR NSC 24/22 Q1004 NOSIG
ZGHA,2018-06-15 00:00,ZGHA 150000Z 02003MPS 2200 R36L/1200V1400N R36R/P2000 BR NSC 26/22 Q1005 BECMG TL0100 3500
ZGHA,2018-06-15 01:00,ZGHA 150100Z 36003MPS 330V030 4000 BR NSC 29/23 Q1005 NOSIG
ZGHA,2018-06-15 02:00,ZGHA 150200Z 03002MPS 340V080 8000 NSC 30/22 Q1005 NOSIG
ZGHA,2018-06-15 03:00,ZGHA 150300Z 04003MPS 350V070 CAVOK 31/21 Q1005 NOSIG
ZGHA,2018-06-15 04:00,ZGHA 150400Z VRB02MPS 9999 FEW030 33/20 Q1004 NOSIG
ZGHA,2018-06-15 05:00,ZGHA 150500Z 36003MPS 300V070 9999 SCT040 34/19 Q1004 NOSIG
ZGHA,2018-06-15 06:00,ZGHA 150600Z VRB01MPS 9999 SCT050 34/19 Q1003 NOSIG
ZGHA,2018-06-15 07:00,ZGHA 150700Z VRB02MPS 9999 SCT050 35/18 Q1003 NOSIG
ZGHA,2018-06-15 08:00,ZGHA 150800Z 04003MPS 320V090 CAVOK 35/17 Q1002 NOSIG
ZGHA,2018-06-15 09:00,ZGHA 150900Z 36005MPS CAVOK 34/18 Q1002 NOSIG
ZGHA,2018-06-15 10:00,ZGHA 151000Z 36005MPS CAVOK 33/17 Q1002 NOSIG
ZGHA,2018-06-15 11:00,ZGHA 151100Z 34005MPS CAVOK 32/19 Q1003 NOSIG
ZGHA,2018-06-15 12:00,ZGHA 151200Z 34003MPS CAVOK 31/20 Q1003 NOSIG
ZGHA,2018-06-15 13:00,ZGHA 151300Z 05002MPS CAVOK 29/21 Q1004 NOSIG
ZGHA,2018-06-15 14:00,ZGHA 151400Z 04003MPS CAVOK 29/21 Q1004 NOSIG
ZGHA,2018-06-15 15:00,ZGHA 151500Z 14002MPS CAVOK 29/18 Q1004 NOSIG
ZGHA,2018-06-15 16:00,ZGHA 151600Z VRB01MPS CAVOK 28/20 Q1005 NOSIG
ZGHA,2018-06-15 17:00,ZGHA 151700Z 06002MPS CAVOK 28/20 Q1004 NOSIG
ZGHA,2018-06-15 18:00,ZGHA 151800Z 05003MPS CAVOK 27/18 Q1004 NOSIG
ZGHA,2018-06-15 19:00,ZGHA 151900Z 07002MPS CAVOK 26/18 Q1004 NOSIG
ZGHA,2018-06-15 20:00,ZGHA 152000Z VRB01MPS CAVOK 25/18 Q1004 NOSIG
ZGHA,2018-06-15 21:00,ZGHA 152100Z VRB01MPS CAVOK 25/19 Q1004 NOSIG
ZGHA,2018-06-15 22:00,ZGHA 152200Z 08002MPS CAVOK 24/18 Q1005 NOSIG
ZGHA,2018-06-15 23:00,ZGHA 152300Z VRB01MPS CAVOK 25/18 Q1005 NOSIG
ZGHA,2018-06-16 00:00,ZGHA 160000Z 04002MPS 010V070 CAVOK 27/17 Q1006 NOSIG
ZGHA,2018-06-16 01:00,ZGHA 160100Z VRB01MPS CAVOK 30/17 Q1006 NOSIG
ZGHA,2018-06-16 02:00,ZGHA 160200Z 06002MPS 020V110 CAVOK 31/16 Q1006 NOSIG
ZGHA,2018-06-16 03:00,ZGHA 160300Z VRB01MPS CAVOK 32/18 Q1005 NOSIG
ZGHA,2018-06-16 04:00,ZGHA 160400Z 08003MPS 030V120 CAVOK 34/17 Q1005 NOSIG
ZGHA,2018-06-16 05:00,ZGHA 160500Z 17003MPS 130V240 CAVOK 34/15 Q1004 NOSIG
ZGHA,2018-06-16 06:00,ZGHA 160600Z VRB01MPS CAVOK 35/16 Q1004 NOSIG
ZGHA,2018-06-16 07:00,ZGHA 160700Z 11002MPS 070V210 CAVOK 35/13 Q1003 NOSIG
ZGHA,2018-06-16 08:00,ZGHA 160800Z 05002MPS 020V090 CAVOK 35/15 Q1002 NOSIG
ZGHA,2018-06-16 09:00,ZGHA 160900Z 09002MPS 320V120 CAVOK 35/15 Q1002 NOSIG
ZGHA,2018-06-16 10:00,ZGHA 161000Z 11002MPS CAVOK 35/15 Q1002 NOSIG
ZGHA,2018-06-16 11:00,ZGHA 161100Z 11002MPS 080V140 CAVOK 33/17 Q1002 NOSIG
ZGHA,2018-06-16 12:00,ZGHA 161200Z 04002MPS CAVOK 31/19 Q1002 NOSIG
ZGHA,2018-06-16 13:00,ZGHA 161300Z 08002MPS CAVOK 31/18 Q1003 NOSIG
ZGHA,2018-06-16 14:00,ZGHA 161400Z 07001MPS CAVOK 30/18 Q1004 NOSIG
ZGHA,2018-06-16 15:00,ZGHA 161500Z VRB01MPS CAVOK 29/18 Q1004 NOSIG
ZGHA,2018-06-16 16:00,ZGHA 161600Z 03001MPS CAVOK 28/20 Q1003 NOSIG
ZGHA,2018-06-16 17:00,ZGHA 161700Z VRB01MPS CAVOK 27/20 Q1004 NOSIG
ZGHA,2018-06-16 18:00,ZGHA 161800Z 03001MPS CAVOK 27/20 Q1003 NOSIG
ZGHA,2018-06-16 19:00,ZGHA 161900Z VRB01MPS CAVOK 25/20 Q1003 NOSIG
ZGHA,2018-06-16 20:00,ZGHA 162000Z 02001MPS CAVOK 25/20 Q1003 NOSIG
ZGHA,2018-06-16 21:00,ZGHA 162100Z 02002MPS CAVOK 24/20 Q1003 NOSIG
ZGHA,2018-06-16 22:00,ZGHA 162200Z 03002MPS CAVOK 24/20 Q1003 NOSIG
ZGHA,2018-06-16 23:00,ZGHA 162300Z VRB01MPS CAVOK 26/20 Q1004 NOSIG
ZGHA,2018-06-17 00:00,ZGHA 170000Z VRB01MPS CAVOK 28/20 Q1004 NOSIG
ZGHA,2018-06-17 01:00,ZGHA 170100Z VRB01MPS CAVOK 31/20 Q1004 NOSIG
ZGHA,2018-06-17 02:00,ZGHA 170200Z VRB02MPS CAVOK 32/19 Q1004 NOSIG
ZGHA,2018-06-17 03:00,ZGHA 170300Z 19002MPS 130V270 CAVOK 34/17 Q1004 NOSIG
ZGHA,2018-06-17 04:00,ZGHA 170400Z VRB02MPS CAVOK 34/17 Q1003 NOSIG
ZGHA,2018-06-17 05:00,ZGHA 170500Z 12002MPS 030V200 CAVOK 35/16 Q1003 NOSIG
ZGHA,2018-06-17 06:00,ZGHA 170600Z 08002MPS 360V170 CAVOK 35/17 Q1002 NOSIG
ZGHA,2018-06-17 07:00,ZGHA 170700Z 15003MPS 080V210 CAVOK 36/16 Q1001 NOSIG
ZGHA,2018-06-17 08:00,ZGHA 170800Z VRB01MPS CAVOK 36/15 Q1001 NOSIG
ZGHA,2018-06-17 09:00,ZGHA 170900Z 06003MPS 010V100 CAVOK 35/16 Q1000 NOSIG
ZGHA,2018-06-17 10:00,ZGHA 171000Z 03003MPS 350V050 CAVOK 35/16 Q1000 NOSIG
ZGHA,2018-06-17 11:00,ZGHA 171100Z 09002MPS CAVOK 34/17 Q1000 NOSIG
ZGHA,2018-06-17 12:00,ZGHA 171200Z 11002MPS 090V160 CAVOK 32/18 Q1000 NOSIG
ZGHA,2018-06-17 13:00,ZGHA 171300Z 08002MPS 040V110 CAVOK 31/19 Q1001 NOSIG
ZGHA,2018-06-17 14:00,ZGHA 171400Z 11002MPS 060V150 CAVOK 30/19 Q1001 NOSIG
ZGHA,2018-06-17 15:00,ZGHA 171500Z 09002MPS 060V160 CAVOK 30/19 Q1002 NOSIG
ZGHA,2018-06-17 16:00,ZGHA 171600Z VRB01MPS CAVOK 29/19 Q1001 NOSIG
ZGHA,2018-06-17 17:00,ZGHA 171700Z 19002MPS 140V230 CAVOK 28/20 Q1001 NOSIG
ZGHA,2018-06-17 18:00,ZGHA 171800Z 07001MPS CAVOK 28/21 Q1001 NOSIG
ZGHA,2018-06-17 19:00,ZGHA 171900Z VRB01MPS CAVOK 27/21 Q1000 NOSIG
ZGHA,2018-06-17 20:00,ZGHA 172000Z VRB01MPS CAVOK 26/21 Q1000 NOSIG
ZGHA,2018-06-17 21:00,ZGHA 172100Z 00000MPS CAVOK 26/21 Q1000 NOSIG
ZGHA,2018-06-17 22:00,ZGHA 172200Z VRB01MPS 8000 NSC 26/20 Q1001 NOSIG
ZGHA,2018-06-17 23:00,ZGHA 172300Z VRB01MPS 8000 NSC 28/21 Q1001 NOSIG
ZGHA,2018-06-18 00:00,ZGHA 180000Z VRB01MPS 9000 NSC 30/21 Q1001 NOSIG
ZGHA,2018-06-18 01:00,ZGHA 180100Z 10002MPS 050V170 9000 NSC 32/21 Q1001 NOSIG
ZGHA,2018-06-18 02:00,ZGHA 180200Z 15003MPS 090V200 CAVOK 33/20 Q1001 NOSIG
ZGHA,2018-06-18 03:00,ZGHA 180300Z 17003MPS 090V220 CAVOK 34/20 Q1001 NOSIG
ZGHA,2018-06-18 04:00,ZGHA 180400Z 18003MPS 140V220 CAVOK 35/20 Q1000 NOSIG
ZGHA,2018-06-18 05:00,ZGHA 180500Z 18003MPS 110V230 9999 SCT033 36/20 Q0999 NOSIG
ZGHA,2018-06-18 06:00,ZGHA 180600Z VRB02MPS 9999 SCT050 37/20 Q0999 NOSIG
ZGHA,2018-06-18 07:00,ZGHA 180700Z 14003G08MPS 100V190 CAVOK 37/19 Q0998 NOSIG
ZGHA,2018-06-18 08:00,ZGHA 180800Z 15003MPS 100V200 CAVOK 37/19 Q0998 NOSIG
ZGHA,2018-06-18 09:00,ZGHA 180900Z 15003MPS 130V220 CAVOK 37/19 Q0997 NOSIG
ZGHA,2018-06-18 10:00,ZGHA 181000Z 14003MPS 110V190 CAVOK 36/19 Q0997 NOSIG
ZGHA,2018-06-18 11:00,ZGHA 181100Z 13002MPS CAVOK 35/21 Q0997 NOSIG
ZGHA,2018-06-18 12:00,ZGHA 181200Z 13002MPS 100V160 CAVOK 33/22 Q0998 NOSIG
ZGHA,2018-06-18 13:00,ZGHA 181300Z 12003MPS CAVOK 32/23 Q0998 NOSIG
ZGHA,2018-06-18 14:00,ZGHA 181400Z 13003MPS CAVOK 32/22 Q0999 NOSIG
ZGHA,2018-06-18 15:00,ZGHA 181500Z 17003MPS 150V210 CAVOK 31/22 Q0999 NOSIG
ZGHA,2018-06-18 16:00,ZGHA 181600Z 16003MPS 140V200 CAVOK 30/22 Q0998 NOSIG
ZGHA,2018-06-18 17:00,ZGHA 181700Z 20002MPS 180V250 CAVOK 29/22 Q0998 NOSIG
ZGHA,2018-06-18 18:00,ZGHA 181800Z 23001MPS CAVOK 28/22 Q0998 NOSIG
ZGHA,2018-06-18 19:00,ZGHA 181900Z 20002MPS CAVOK 29/22 Q0998 NOSIG
ZGHA,2018-06-18 20:00,ZGHA 182000Z 19001MPS CAVOK 28/22 Q0998 NOSIG
ZGHA,2018-06-18 21:00,ZGHA 182100Z 20002MPS CAVOK 28/22 Q0998 NOSIG
ZGHA,2018-06-18 22:00,ZGHA 182200Z 18003MPS CAVOK 28/22 Q0998 NOSIG
ZGHA,2018-06-18 23:00,ZGHA 182300Z 19003MPS CAVOK 28/22 Q0999 NOSIG
ZGHA,2018-06-19 00:00,ZGHA 190000Z 18003MPS 160V240 9000 NSC 30/23 Q1000 NOSIG
ZGHA,2018-06-19 01:00,ZGHA 190100Z 20005MPS 170V230 CAVOK 33/23 Q1000 NOSIG
ZGHA,2018-06-19 02:00,ZGHA 190200Z 21005MPS CAVOK 34/22 Q1000 NOSIG
ZGHA,2018-06-19 03:00,ZGHA 190300Z 24006MPS 200V280 CAVOK 36/22 Q0999 NOSIG
ZGHA,2018-06-19 04:00,ZGHA 190400Z 22006MPS 9999 FEW050 36/21 Q0999 NOSIG
ZGHA,2018-06-19 05:00,ZGHA 190500Z 24007MPS CAVOK 36/21 Q0999 NOSIG
ZGHA,2018-06-19 06:00,ZGHA 190600Z 26004MPS 9999 SCT050 36/22 Q0999 NOSIG
ZGHA,2018-06-19 07:00,ZGHA 190700Z 30004MPS 260V360 9999 SCT050 35/23 Q0998 NOSIG
ZGHA,2018-06-19 08:00,ZGHA 190800Z 32006MPS 8000 SCT050 33/25 Q0999 NOSIG
ZGHA,2018-06-19 09:00,ZGHA 190900Z 30004G09MPS 250V010 9000 TS SCT033 FEW040CB 31/24 Q0999 BECMG TL1000 NSW
ZGHA,2018-06-19 10:00,ZGHA 191000Z 32006MPS 8000 BKN020 29/23 Q1000 RETS NOSIG
ZGHA,2018-06-19 11:00,ZGHA 191100Z 33005MPS 7000 BKN016 27/22 Q1001 NOSIG
ZGHA,2018-06-19 12:00,ZGHA 191200Z 01005MPS 9000 BKN015 27/22 Q1002 BECMG TL1300 BKN012
ZGHA,2018-06-19 13:00,ZGHA 191300Z 34004MPS 9999 BKN013 26/22 Q1002 BECMG TL1400 BKN015
ZGHA,2018-06-19 14:00,ZGHA 191400Z 36004MPS 9999 BKN013 26/22 Q1003 NOSIG
ZGHA,2018-06-19 15:00,ZGHA 191500Z 34005MPS 9999 BKN013 26/22 Q1003 NOSIG
ZGHA,2018-06-19 16:00,ZGHA 191600Z 35004MPS 9999 BKN012 26/22 Q1003 BECMG TL1700 BKN009
ZGHA,2018-06-19 17:00,ZGHA 191700Z 34002MPS 300V010 8000 -RA BKN012 OVC050 25/23 Q1003 NOSIG
ZGHA,2018-06-19 18:00,ZGHA 191800Z 35004MPS 5000 SHRA BR BKN011 SCT033CB BKN033 24/23 Q1003 NOSIG
ZGHA,2018-06-19 19:00,ZGHA 191900Z 36003MPS 5000 SHRA BR BKN010 SCT033CB BKN033 24/23 Q1003 BECMG TL2000 -RA BKN009
ZGHA,2018-06-19 20:00,ZGHA 192000Z 34003MPS 6000 -SHRA BKN008 OVC050 24/23 Q1003 RESHRA NOSIG
ZGHA,2018-06-19 21:00,ZGHA 192100Z 34003MPS 7000 SCT013 BKN020 OVC050 24/23 Q1003 NOSIG
ZGHA,2018-06-19 22:00,ZGHA 192200Z 33003MPS 5000 BR SCT013 BKN019 OVC050 24/23 Q1004 NOSIG
ZGHA,2018-06-19 23:00,ZGHA 192300Z 33003MPS 4000 SHRA BR SCT008 BKN016 SCT050CB BKN050 24/23 Q1004 BECMG TL2400 -RA
ZGHA,2018-06-20 00:00,ZGHA 200000Z 33003MPS 5000 BR SCT008 BKN016 OVC040 24/23 Q1005 RESHRA NOSIG
ZGHA,2018-06-20 01:00,ZGHA 200100Z 35003MPS 300V010 8000 SCT011 BKN023 OVC040 25/23 Q1005 NOSIG
ZGHA,2018-06-20 02:00,ZGHA 200200Z 33004MPS 300V360 9000 FEW013 BKN026 OVC050 27/23 Q1005 NOSIG
ZGHA,2018-06-20 03:00,ZGHA 200300Z 01003MPS 9999 FEW015 SCT026 BKN050 27/22 Q1005 NOSIG
ZGHA,2018-06-20 04:00,ZGHA 200400Z 36003MPS 320V030 9999 BKN030 OVC050 27/22 Q1005 NOSIG
ZGHA,2018-06-20 05:00,ZGHA 200500Z 02005MPS 9999 BKN033 OVC050 27/22 Q1005 NOSIG
ZGHA,2018-06-20 06:00,ZGHA 200600Z 01005MPS 9999 BKN033 OVC050 27/22 Q1004 NOSIG
ZGHA,2018-06-20 07:00,ZGHA 200700Z 36004MPS 9999 SCT026 OVC040 27/23 Q1004 NOSIG
ZGHA,2018-06-20 08:00,ZGHA 200800Z 34002MPS 300V040 9999 -RA SCT033 OVC050 27/22 Q1004 NOSIG
ZGHA,2018-06-20 09:00,ZGHA 200900Z 31004MPS 7000 -RA BKN030 OVC050 27/23 Q1004 NOSIG
ZGHA,2018-06-20 10:00,ZGHA 201000Z 31002MPS 280V360 9000 -RA BKN020 OVC033 26/23 Q1005 NOSIG
ZGHA,2018-06-20 11:00,ZGHA 201100Z 11001MPS 9000 SCT033 26/23 Q1004 NOSIG
ZGHA,2018-06-20 12:00,ZGHA 201200Z 34002MPS 310V020 8000 -RA SCT015 26/23 Q1004 NOSIG
ZGHA,2018-06-20 13:00,ZGHA 201300Z 28002MPS 8000 NSC 26/23 Q1006 NOSIG
ZGHA,2018-06-20 14:00,ZGHA 201400Z 33003MPS 9000 NSC 26/22 Q1006 NOSIG
ZGHA,2018-06-20 15:00,ZGHA 201500Z 32003MPS 9000 NSC 25/23 Q1006 NOSIG
ZGHA,2018-06-20 16:00,ZGHA 201600Z 32002MPS 270V340 6000 NSC 25/22 Q1006 NOSIG
ZGHA,2018-06-20 17:00,ZGHA 201700Z 34002MPS 290V360 5000 BR SCT011 OVC050 25/22 Q1006 NOSIG
ZGHA,2018-06-20 18:00,ZGHA 201800Z 03002MPS 5000 BR BKN010 OVC050 24/23 Q1005 NOSIG
ZGHA,2018-06-20 19:00,ZGHA 201900Z 36002MPS 5000 BR BKN010 OVC050 24/23 Q1005 NOSIG
ZGHA,2018-06-20 20:00,ZGHA 202000Z 01003MPS 4500 BR BKN014 24/23 Q1005 NOSIG
ZGHA,2018-06-20 21:00,ZGHA 202100Z 00000MPS 4500 BR BKN014 24/23 Q1005 NOSIG
ZGHA,2018-06-20 22:00,ZGHA 202200Z 36002MPS 2700 BR SCT026 24/23 Q1006 NOSIG
ZGHA,2018-06-20 23:00,ZGHA 202300Z VRB01MPS 2700 BR SCT016 OVC040 25/23 Q1006 BECMG TL2345 3300
ZGHA,2018-06-21 00:00,ZGHA 210000Z 03002MPS 350V060 3500 BR SCT010 OVC040 25/23 Q1006 NOSIG
ZGHA,2018-06-21 01:00,ZGHA 210100Z VRB01MPS 4500 BR FEW009 BKN013 OVC040 26/23 Q1006 BECMG TL0240 BKN009 OVC040
ZGHA,2018-06-21 02:00,ZGHA 210200Z VRB01MPS 5000 BR SCT013 BKN023 OVC050 27/23 Q1006 BECMG TL0300 BKN014 OVC040
ZGHA,2018-06-21 03:00,ZGHA 210300Z 20003MPS 180V240 1800 RA BR FEW005 BKN013 OVC040 25/24 Q1007 BECMG TL0400 -RA BR BKN016 OVC040
ZGHA,2018-06-21 04:00,ZGHA 210400Z 24002MPS 200V310 4000 RA BR SCT007 BKN025 OVC050 24/23 Q1006 BECMG TL0440 -RA
ZGHA,2018-06-21 05:00,ZGHA 210500Z 13002MPS 110V180 5000 -RA BR FEW012 BKN040 25/24 Q1006 RERA NOSIG
ZGHA,2018-06-21 06:00,ZGHA 210600Z 18003MPS 160V220 9999 BKN011 OVC050 26/24 Q1006 BECMG TL0700 BKN016 OVC050
ZGHA,2018-06-21 07:00,ZGHA 210700Z 17003MPS 150V210 9999 FEW011 OVC050 27/24 Q1005 NOSIG
ZGHA,2018-06-21 08:00,ZGHA 210800Z VRB01MPS 9999 FEW011 BKN050 28/24 Q1004 NOSIG
ZGHA,2018-06-21 09:00,ZGHA 210900Z VRB01MPS 9999 FEW050 29/24 Q1003 NOSIG
ZGHA,2018-06-21 10:00,ZGHA 211000Z 03002MPS 360V080 9999 FEW020 28/23 Q1003 NOSIG
ZGHA,2018-06-21 11:00,ZGHA 211100Z 04002MPS 9999 SCT020 BKN033 28/24 Q1004 NOSIG
ZGHA,2018-06-21 12:00,ZGHA 211200Z 04002MPS 9999 BKN026 27/24 Q1004 NOSIG
ZGHA,2018-06-21 13:00,ZGHA 211300Z 15002MPS 8000 -RA BKN033 26/25 Q1005 NOSIG
ZGHA,2018-06-21 14:00,ZGHA 211400Z 00000MPS 9999 BKN040 26/24 Q1006 NOSIG
ZGHA,2018-06-21 15:00,ZGHA 211500Z 18001MPS 9999 BKN040 26/24 Q1006 NOSIG
ZGHA,2018-06-21 16:00,ZGHA 211600Z VRB01MPS CAVOK 26/24 Q1005 NOSIG
ZGHA,2018-06-21 17:00,ZGHA 211700Z 23002MPS 8000 BKN033 OVC050 25/24 Q1005 NOSIG
ZGHA,2018-06-21 18:00,ZGHA 211800Z VRB01MPS 8000 BKN033 OVC050 25/24 Q1004 NOSIG
ZGHA,2018-06-21 19:00,ZGHA 211900Z 00000MPS 8000 OVC050 25/24 Q1004 NOSIG
ZGHA,2018-06-21 20:00,ZGHA 212000Z 26001MPS 8000 OVC050 25/24 Q1004 NOSIG
ZGHA,2018-06-21 21:00,ZGHA 212100Z 22002MPS 6000 NSC 25/24 Q1004 NOSIG
ZGHA,2018-06-21 22:00,ZGHA 212200Z VRB01MPS 5000 BR OVC050 25/24 Q1004 NOSIG
ZGHA,2018-06-21 23:00,ZGHA 212300Z 24002MPS 4000 BR OVC033 25/24 Q1005 NOSIG
ZGHA,2018-06-22 00:00,ZGHA 220000Z VRB01MPS 4000 BR OVC030 26/24 Q1005 NOSIG
ZGHA,2018-06-22 01:00,ZGHA 220100Z 05002MPS 010V090 4500 BR SCT023 OVC030 27/24 Q1005 NOSIG
ZGHA,2018-06-22 02:00,ZGHA 220200Z VRB01MPS 5000 BR NSC 28/24 Q1005 NOSIG
ZGHA,2018-06-22 03:00,ZGHA 220300Z VRB01MPS 6000 SCT023 30/24 Q1005 NOSIG
ZGHA,2018-06-22 04:00,ZGHA 220400Z 18003MPS 150V220 9000 BKN022 31/24 Q1004 NOSIG
ZGHA,2018-06-22 05:00,ZGHA 220500Z 20003MPS 180V240 9999 BKN025 OVC050 30/24 Q1003 NOSIG
ZGHA,2018-06-22 06:00,ZGHA 220600Z 21002MPS 130V270 9999 BKN025 OVC050 31/24 Q1003 NOSIG
ZGHA,2018-06-22 07:00,ZGHA 220700Z VRB01MPS 9999 BKN026 OVC050 31/24 Q1002 NOSIG
ZGHA,2018-06-22 08:00,ZGHA 220800Z 36003MPS 9999 BKN033 OVC050 30/25 Q1002 NOSIG
ZGHA,2018-06-22 09:00,ZGHA 220900Z VRB02MPS 9999 BKN050 30/24 Q1002 NOSIG
ZGHA,2018-06-22 10:00,ZGHA 221000Z 36003MPS 9999 BKN026 30/24 Q1002 NOSIG
ZGHA,2018-06-22 11:00,ZGHA 221100Z 36005MPS 7000 BKN020 BKN050 29/25 Q1002 NOSIG
ZGHA,2018-06-22 12:00,ZGHA 221200Z 17003MPS 150V210 9000 TS SCT013 BKN020 FEW050CB BKN050 28/25 Q1003 NOSIG
ZGHA,2018-06-22 13:00,ZGHA 221300Z VRB01MPS 9999 TS SCT013 BKN020 FEW050CB BKN050 27/25 Q1004 BECMG TL1320 NSW
ZGHA,2018-06-22 14:00,ZGHA 221400Z VRB01MPS 6000 SCT015 BKN033 27/25 Q1004 RETS NOSIG
ZGHA,2018-06-22 15:00,ZGHA 221500Z 35003MPS 300V010 5000 BR SCT033 27/25 Q1004 NOSIG
ZGHA,2018-06-22 16:00,ZGHA 221600Z 35002MPS 320V020 4500 BR FEW013 SCT025 27/25 Q1004 NOSIG
ZGHA,2018-06-22 17:00,ZGHA 221700Z 36004MPS 4000 BR FEW013 SCT025 26/25 Q1003 NOSIG
ZGHA,2018-06-22 18:00,ZGHA 221800Z 04002MPS 3800 BR SCT025 26/25 Q1003 NOSIG
ZGHA,2018-06-22 19:00,ZGHA 221900Z VRB01MPS 3800 BR BKN013 OVC050 26/25 Q1003 NOSIG
ZGHA,2018-06-22 20:00,ZGHA 222000Z 35002MPS 3500 BR BKN011 OVC050 26/25 Q1003 NOSIG
ZGHA,2018-06-22 21:00,ZGHA 222100Z 03001MPS 3000 BR BKN008 OVC050 26/25 Q1004 NOSIG
ZGHA,2018-06-22 22:00,ZGHA 222200Z 01001MPS 1800 R36L/1400D R36R/P2000 BR BKN006 OVC050 26/25 Q1004 BECMG TL2350 3200 BKN011 OVC050
ZGHA,2018-06-22 23:00,ZGHA 222300Z VRB01MPS 1500 SHRA BR BKN008 OVC050 26/25 Q1004 BECMG TL2400 -RA BKN011 OVC050
ZGHA,2018-06-23 00:00,ZGHA 230000Z VRB01MPS 3500 -SHRA BR FEW004 BKN011 OVC050 26/25 Q1005 RESHRA BECMG TL0150 BKN016 OVC050
ZGHA,2018-06-23 01:00,ZGHA 230100Z 12001MPS 3200 R36L/1400U R36R/P2000 BR FEW005 BKN016 OVC050 26/26 Q1005 NOSIG
ZGHA,2018-06-23 02:00,ZGHA 230200Z VRB01MPS 5000 BR SCT013 BKN040 28/25 Q1005 NOSIG
ZGHA,2018-06-23 03:00,ZGHA 230300Z 11002MPS 070V150 8000 SCT016 BKN050 30/25 Q1005 NOSIG
ZGHA,2018-06-23 04:00,ZGHA 230400Z 22003MPS 090V250 2000 +SHRA BR BKN011 FEW040CB BKN040 26/25 Q1005 BECMG TL0550 3500 -SHRA
ZGHA,2018-06-23 05:00,ZGHA 230500Z 04003MPS 360V060 9000 -SHRA FEW020 27/26 Q1004 RESHRA NOSIG
ZGHA,2018-06-23 06:00,ZGHA 230600Z 07002MPS 030V100 9000 SCT033 30/26 Q1003 NOSIG
ZGHA,2018-06-23 07:00,ZGHA 230700Z 08003MPS 9999 SCT033 31/27 Q1003 NOSIG
ZGHA,2018-06-23 08:00,ZGHA 230800Z 05003MPS 010V080 9999 FEW033TCU FEW033 30/26 Q1002 NOSIG
ZGHA,2018-06-23 09:00,ZGHA 230900Z 07003MPS 9999 FEW033TCU 31/25 Q1002 NOSIG
ZGHA,2018-06-23 10:00,ZGHA 231000Z 08003MPS 060V120 9999 FEW050TCU 31/26 Q1002 NOSIG
ZGHA,2018-06-23 11:00,ZGHA 231100Z 13002MPS 090V170 9999 FEW050TCU 31/26 Q1002 NOSIG
ZGHA,2018-06-23 12:00,ZGHA 231200Z VRB01MPS CAVOK 30/27 Q1003 NOSIG
ZGHA,2018-06-23 13:00,ZGHA 231300Z 03002MPS CAVOK 29/26 Q1004 NOSIG
ZGHA,2018-06-23 14:00,ZGHA 231400Z 03002MPS 360V070 CAVOK 28/26 Q1004 BECMG TL1430 TSRA
ZGHA,2018-06-23 15:00,ZGHA 231500Z 23002MPS 180V260 6000 TSRA SCT014 FEW040CB BKN040 25/24 Q1005 BECMG TL1530 -SHRA
ZGHA,2018-06-23 16:00,ZGHA 231600Z VRB01MPS 9999 FEW040 25/25 Q1004 RETSRA NOSIG
ZGHA,2018-06-23 17:00,ZGHA 231700Z VRB01MPS CAVOK 26/25 Q1004 NOSIG
ZGHA,2018-06-23 18:00,ZGHA 231800Z VRB01MPS 9999 SCT030 26/25 Q1004 NOSIG
ZGHA,2018-06-23 19:00,ZGHA 231900Z 15002MPS 120V180 9999 BKN024 26/25 Q1004 NOSIG
ZGHA,2018-06-23 20:00,ZGHA 232000Z 15002MPS 9000 SCT050 26/25 Q1004 NOSIG
ZGHA,2018-06-23 21:00,ZGHA 232100Z 17002MPS CAVOK 26/25 Q1005 NOSIG
ZGHA,2018-06-23 22:00,ZGHA 232200Z 17002MPS CAVOK 26/25 Q1005 NOSIG
ZGHA,2018-06-23 23:00,ZGHA 232300Z 16002MPS CAVOK 27/25 Q1005 NOSIG
ZGHA,2018-06-24 00:00,ZGHA 240000Z 19002MPS CAVOK 28/25 Q1006 NOSIG
ZGHA,2018-06-24 01:00,ZGHA 240100Z 18004MPS 150V210 CAVOK 29/25 Q1006 NOSIG
ZGHA,2018-06-24 02:00,ZGHA 240200Z 18004MPS 150V230 9999 FEW023 31/25 Q1007 NOSIG
ZGHA,2018-06-24 03:00,ZGHA 240300Z 17006MPS 9999 BKN030 33/24 Q1006 NOSIG
ZGHA,2018-06-24 04:00,ZGHA 240400Z 19005MPS 160V220 9999 BKN033 33/23 Q1006 NOSIG
ZGHA,2018-06-24 05:00,ZGHA 240500Z 19005MPS 160V220 9999 BKN040 34/24 Q1006 NOSIG
ZGHA,2018-06-24 06:00,ZGHA 240600Z 20006MPS 9999 BKN040 34/23 Q1005 NOSIG
ZGHA,2018-06-24 07:00,ZGHA 240700Z 20005MPS 9999 BKN040 34/23 Q1004 NOSIG
ZGHA,2018-06-24 08:00,ZGHA 240800Z 17005MPS 9999 SCT040 34/23 Q1003 NOSIG
ZGHA,2018-06-24 09:00,ZGHA 240900Z 22003MPS 180V240 9999 SCT040 34/23 Q1003 NOSIG
ZGHA,2018-06-24 10:00,ZGHA 241000Z 18004MPS 9999 SCT040 33/23 Q1003 NOSIG
ZGHA,2018-06-24 11:00,ZGHA 241100Z 18002MPS CAVOK 32/24 Q1004 NOSIG
ZGHA,2018-06-24 12:00,ZGHA 241200Z 21002MPS 160V250 CAVOK 31/24 Q1005 NOSIG
ZGHA,2018-06-24 13:00,ZGHA 241300Z VRB02MPS CAVOK 31/24 Q1006 NOSIG
ZGHA,2018-06-24 14:00,ZGHA 241400Z 15003MPS 120V200 CAVOK 30/24 Q1007 NOSIG
ZGHA,2018-06-24 15:00,ZGHA 241500Z 21003MPS 180V240 CAVOK 29/24 Q1007 NOSIG
ZGHA,2018-06-24 16:00,ZGHA 241600Z 19003MPS 170V280 CAVOK 28/24 Q1006 NOSIG
ZGHA,2018-06-24 17:00,ZGHA 241700Z 17003MPS CAVOK 28/24 Q1006 NOSIG
ZGHA,2018-06-24 18:00,ZGHA 241800Z 18003MPS 160V240 CAVOK 27/24 Q1006 NOSIG
ZGHA,2018-06-24 19:00,ZGHA 241900Z 18002MPS CAVOK 27/24 Q1006 NOSIG
ZGHA,2018-06-24 20:00,ZGHA 242000Z 21002MPS CAVOK 26/24 Q1006 NOSIG
ZGHA,2018-06-24 21:00,ZGHA 242100Z 24001MPS CAVOK 26/24 Q1006 NOSIG
ZGHA,2018-06-24 22:00,ZGHA 242200Z 21002MPS CAVOK 26/25 Q1006 NOSIG
ZGHA,2018-06-24 23:00,ZGHA 242300Z 20002MPS CAVOK 27/25 Q1007 NOSIG
ZGHA,2018-06-25 00:00,ZGHA 250000Z 18004MPS CAVOK 29/23 Q1007 NOSIG
ZGHA,2018-06-25 01:00,ZGHA 250100Z 19004MPS 160V230 9999 FEW050 31/23 Q1007 NOSIG
ZGHA,2018-06-25 02:00,ZGHA 250200Z 20005MPS 160V220 9999 FEW050 32/22 Q1007 NOSIG
ZGHA,2018-06-25 03:00,ZGHA 250300Z 20005MPS 160V240 9999 SCT040 34/21 Q1007 NOSIG
ZGHA,2018-06-25 04:00,ZGHA 250400Z 18007MPS 9999 SCT040 34/22 Q1007 NOSIG
ZGHA,2018-06-25 05:00,ZGHA 250500Z 20007MPS 9999 SCT040 35/22 Q1006 NOSIG
ZGHA,2018-06-25 06:00,ZGHA 250600Z 20007MPS 9999 SCT040 35/20 Q1005 NOSIG
ZGHA,2018-06-25 07:00,ZGHA 250700Z 20006MPS 9999 SCT050 35/21 Q1005 NOSIG
ZGHA,2018-06-25 08:00,ZGHA 250800Z 19006MPS 160V220 9999 SCT050 35/21 Q1004 NOSIG
ZGHA,2018-06-25 09:00,ZGHA 250900Z 19005MPS 160V230 9999 SCT050 35/20 Q1004 NOSIG
ZGHA,2018-06-25 10:00,ZGHA 251000Z 19004MPS 170V230 9999 FEW050 35/22 Q1004 NOSIG
ZGHA,2018-06-25 11:00,ZGHA 251100Z 18004MPS CAVOK 33/22 Q1004 NOSIG
ZGHA,2018-06-25 12:00,ZGHA 251200Z 16003MPS CAVOK 32/23 Q1005 NOSIG
ZGHA,2018-06-25 13:00,ZGHA 251300Z 16004MPS CAVOK 31/22 Q1005 NOSIG
ZGHA,2018-06-25 14:00,ZGHA 251400Z 14003MPS 130V200 CAVOK 30/23 Q1006 NOSIG
ZGHA,2018-06-25 15:00,ZGHA 251500Z 17003MPS 140V250 CAVOK 30/23 Q1006 NOSIG
ZGHA,2018-06-25 16:00,ZGHA 251600Z 16003MPS CAVOK 29/23 Q1006 NOSIG
ZGHA,2018-06-25 17:00,ZGHA 251700Z 19003MPS CAVOK 28/24 Q1006 NOSIG
ZGHA,2018-06-25 18:00,ZGHA 251800Z 16004MPS CAVOK 29/24 Q1006 NOSIG
ZGHA,2018-06-25 19:00,ZGHA 251900Z 16004MPS CAVOK 28/24 Q1006 NOSIG
ZGHA,2018-06-25 20:00,ZGHA 252000Z 16004MPS CAVOK 28/23 Q1006 NOSIG
ZGHA,2018-06-25 21:00,ZGHA 252100Z 18003MPS CAVOK 27/22 Q1006 NOSIG
ZGHA,2018-06-25 22:00,ZGHA 252200Z 21002MPS 170V270 CAVOK 27/22 Q1006 NOSIG
ZGHA,2018-06-25 23:00,ZGHA 252300Z 18003MPS CAVOK 28/22 Q1007 NOSIG
ZGHA,2018-06-26 00:00,ZGHA 260000Z 19006MPS CAVOK 30/22 Q1007 NOSIG
ZGHA,2018-06-26 01:00,ZGHA 260100Z 18007MPS CAVOK 31/22 Q1008 NOSIG
ZGHA,2018-06-26 02:00,ZGHA 260200Z 19005MPS 160V230 CAVOK 33/22 Q1008 NOSIG
ZGHA,2018-06-26 03:00,ZGHA 260300Z 19006MPS 9999 FEW030 33/21 Q1008 NOSIG
ZGHA,2018-06-26 04:00,ZGHA 260400Z 19006MPS 9999 SCT040 34/21 Q1008 NOSIG
ZGHA,2018-06-26 05:00,ZGHA 260500Z 20006G11MPS 170V230 9999 BKN050 35/21 Q1008 NOSIG
ZGHA,2018-06-26 06:00,ZGHA 260600Z 22006MPS 9999 SCT050 35/21 Q1007 NOSIG
ZGHA,2018-06-26 07:00,ZGHA 260700Z 20006MPS 170V230 9999 BKN050 35/21 Q1007 NOSIG
ZGHA,2018-06-26 08:00,ZGHA 260800Z 20005MPS 9999 BKN050 36/21 Q1006 NOSIG
ZGHA,2018-06-26 09:00,ZGHA 260900Z 20005MPS 170V240 9999 BKN050 36/21 Q1006 NOSIG
ZGHA,2018-06-26 10:00,ZGHA 261000Z 19005MPS 160V220 9999 SCT050 35/21 Q1005 NOSIG
ZGHA,2018-06-26 11:00,ZGHA 261100Z 19002MPS 180V240 CAVOK 34/22 Q1005 NOSIG
ZGHA,2018-06-26 12:00,ZGHA 261200Z 19002MPS 160V220 CAVOK 32/23 Q1006 NOSIG
ZGHA,2018-06-26 13:00,ZGHA 261300Z 18002MPS 140V240 CAVOK 31/23 Q1007 NOSIG
ZGHA,2018-06-26 14:00,ZGHA 261400Z 16003MPS CAVOK 31/23 Q1008 NOSIG
ZGHA,2018-06-26 15:00,ZGHA 261500Z 17003MPS 150V210 CAVOK 30/23 Q1008 NOSIG
ZGHA,2018-06-26 16:00,ZGHA 261600Z 19002MPS 160V280 CAVOK 29/23 Q1007 NOSIG
ZGHA,2018-06-26 17:00,ZGHA 261700Z 16002MPS CAVOK 29/23 Q1007 NOSIG
ZGHA,2018-06-26 18:00,ZGHA 261800Z 17003MPS 160V230 CAVOK 28/23 Q1007 NOSIG
ZGHA,2018-06-26 19:00,ZGHA 261900Z 19002MPS CAVOK 28/23 Q1007 NOSIG
ZGHA,2018-06-26 20:00,ZGHA 262000Z 18003MPS CAVOK 28/22 Q1007 NOSIG
ZGHA,2018-06-26 21:00,ZGHA 262100Z 17003MPS CAVOK 28/22 Q1007 NOSIG
ZGHA,2018-06-26 22:00,ZGHA 262200Z 17005MPS CAVOK 27/22 Q1007 NOSIG
ZGHA,2018-06-26 23:00,ZGHA 262300Z 19004MPS CAVOK 28/23 Q1007 NOSIG
ZGHA,2018-06-27 00:00,ZGHA 270000Z 18004MPS CAVOK 29/23 Q1008 NOSIG
ZGHA,2018-06-27 01:00,ZGHA 270100Z 21004MPS 180V250 CAVOK 31/22 Q1008 NOSIG
ZGHA,2018-06-27 02:00,ZGHA 270200Z 21005MPS CAVOK 32/22 Q1008 NOSIG
ZGHA,2018-06-27 03:00,ZGHA 270300Z 20005MPS CAVOK 33/21 Q1008 NOSIG
ZGHA,2018-06-27 04:00,ZGHA 270400Z 22006MPS 180V240 9999 FEW040 34/22 Q1007 NOSIG
ZGHA,2018-06-27 05:00,ZGHA 270500Z 21005MPS 9999 FEW040 34/21 Q1007 NOSIG
ZGHA,2018-06-27 06:00,ZGHA 270600Z 19006MPS 9999 SCT050 34/22 Q1006 NOSIG
ZGHA,2018-06-27 07:00,ZGHA 270700Z 20005MPS 180V240 9999 SCT050 35/21 Q1005 NOSIG
ZGHA,2018-06-27 08:00,ZGHA 270800Z 21006MPS 9999 SCT050 35/21 Q1005 NOSIG
ZGHA,2018-06-27 09:00,ZGHA 270900Z 19005MPS 160V220 9999 SCT050 35/21 Q1004 NOSIG
ZGHA,2018-06-27 10:00,ZGHA 271000Z 22005MPS 9999 FEW050 34/21 Q1004 NOSIG
ZGHA,2018-06-27 11:00,ZGHA 271100Z 21003MPS 180V240 CAVOK 33/21 Q1004 NOSIG
ZGHA,2018-06-27 12:00,ZGHA 271200Z 20003MPS 170V230 CAVOK 31/21 Q1005 NOSIG
ZGHA,2018-06-27 13:00,ZGHA 271300Z 20002MPS 170V230 CAVOK 31/22 Q1005 NOSIG
ZGHA,2018-06-27 14:00,ZGHA 271400Z 17002MPS CAVOK 30/23 Q1006 NOSIG
ZGHA,2018-06-27 15:00,ZGHA 271500Z 17002MPS 150V260 CAVOK 29/23 Q1006 NOSIG
ZGHA,2018-06-27 16:00,ZGHA 271600Z 17002MPS 140V200 CAVOK 29/23 Q1006 NOSIG
ZGHA,2018-06-27 17:00,ZGHA 271700Z 18002MPS CAVOK 28/23 Q1005 NOSIG
ZGHA,2018-06-27 18:00,ZGHA 271800Z 16003MPS CAVOK 28/23 Q1005 NOSIG
ZGHA,2018-06-27 19:00,ZGHA 271900Z 17003MPS CAVOK 27/22 Q1004 NOSIG
ZGHA,2018-06-27 20:00,ZGHA 272000Z 18003MPS CAVOK 27/22 Q1004 NOSIG
ZGHA,2018-06-27 21:00,ZGHA 272100Z 18003MPS CAVOK 27/22 Q1004 NOSIG
ZGHA,2018-06-27 22:00,ZGHA 272200Z 18003MPS CAVOK 27/22 Q1004 NOSIG
ZGHA,2018-06-27 23:00,ZGHA 272300Z 19004MPS CAVOK 28/22 Q1005 NOSIG
ZGHA,2018-06-28 00:00,ZGHA 280000Z 20004MPS CAVOK 30/22 Q1005 NOSIG
ZGHA,2018-06-28 01:00,ZGHA 280100Z 21005MPS 180V240 CAVOK 32/21 Q1005 NOSIG
ZGHA,2018-06-28 02:00,ZGHA 280200Z 22005MPS CAVOK 33/21 Q1005 NOSIG
ZGHA,2018-06-28 03:00,ZGHA 280300Z 22006MPS 190V260 CAVOK 34/21 Q1004 NOSIG
ZGHA,2018-06-28 04:00,ZGHA 280400Z 22006MPS 190V260 CAVOK 35/20 Q1003 NOSIG
ZGHA,2018-06-28 05:00,ZGHA 280500Z 21007MPS 9999 FEW050 35/20 Q1003 NOSIG
ZGHA,2018-06-28 06:00,ZGHA 280600Z 22006MPS 9999 FEW050 36/20 Q1002 NOSIG
ZGHA,2018-06-28 07:00,ZGHA 280700Z 23005MPS 200V260 9999 FEW050 36/20 Q1001 NOSIG
ZGHA,2018-06-28 08:00,ZGHA 280800Z 23006MPS CAVOK 36/19 Q1001 NOSIG
ZGHA,2018-06-28 09:00,ZGHA 280900Z 22005MPS 190V250 CAVOK 34/20 Q1001 NOSIG
ZGHA,2018-06-28 10:00,ZGHA 281000Z 23004MPS CAVOK 34/21 Q1001 NOSIG
ZGHA,2018-06-28 11:00,ZGHA 281100Z 22002MPS CAVOK 32/22 Q1001 NOSIG
ZGHA,2018-06-28 12:00,ZGHA 281200Z 18002MPS 160V230 CAVOK 32/22 Q1002 NOSIG
ZGHA,2018-06-28 13:00,ZGHA 281300Z 18003MPS 160V220 CAVOK 31/23 Q1002 NOSIG
ZGHA,2018-06-28 14:00,ZGHA 281400Z 19002MPS CAVOK 30/23 Q1002 NOSIG
ZGHA,2018-06-28 15:00,ZGHA 281500Z 17002MPS 150V230 CAVOK 30/23 Q1002 NOSIG
ZGHA,2018-06-28 16:00,ZGHA 281600Z 15002MPS 130V200 CAVOK 29/22 Q1002 NOSIG
ZGHA,2018-06-28 17:00,ZGHA 281700Z 16002MPS 120V240 CAVOK 29/22 Q1001 NOSIG
ZGHA,2018-06-28 18:00,ZGHA 281800Z 15002MPS CAVOK 28/22 Q1001 NOSIG
ZGHA,2018-06-28 19:00,ZGHA 281900Z 17002MPS 130V270 CAVOK 27/22 Q1001 NOSIG
ZGHA,2018-06-28 20:00,ZGHA 282000Z 16002MPS CAVOK 27/21 Q1001 NOSIG
ZGHA,2018-06-28 21:00,ZGHA 282100Z 18002MPS CAVOK 27/21 Q1002 NOSIG
ZGHA,2018-06-28 22:00,ZGHA 282200Z 17003MPS CAVOK 28/21 Q1002 NOSIG
ZGHA,2018-06-28 23:00,ZGHA 282300Z 17003MPS CAVOK 28/21 Q1002 NOSIG
ZGHA,2018-06-29 00:00,ZGHA 290000Z 18004MPS CAVOK 29/22 Q1002 NOSIG
ZGHA,2018-06-29 01:00,ZGHA 290100Z 19005MPS 160V240 CAVOK 31/21 Q1002 NOSIG
ZGHA,2018-06-29 02:00,ZGHA 290200Z 20005MPS 170V230 CAVOK 33/20 Q1002 NOSIG
ZGHA,2018-06-29 03:00,ZGHA 290300Z 22004MPS 160V260 9999 SCT040 34/20 Q1002 NOSIG
ZGHA,2018-06-29 04:00,ZGHA 290400Z 19004MPS 150V240 9999 SCT050 34/21 Q1002 NOSIG
ZGHA,2018-06-29 05:00,ZGHA 290500Z 20004MPS 160V250 9999 SCT050 35/20 Q1001 NOSIG
ZGHA,2018-06-29 06:00,ZGHA 290600Z 19004MPS 9999 SCT050 35/20 Q1000 NOSIG
ZGHA,2018-06-29 07:00,ZGHA 290700Z 19005MPS 150V220 9999 SCT050 35/21 Q0999 NOSIG
ZGHA,2018-06-29 08:00,ZGHA 290800Z 18004MPS 9999 SCT050 35/21 Q0999 NOSIG
ZGHA,2018-06-29 09:00,ZGHA 290900Z 19003MPS 9999 SCT050 34/22 Q0998 NOSIG
ZGHA,2018-06-29 10:00,ZGHA 291000Z 16004MPS 150V210 9999 SCT050 34/22 Q0998 NOSIG
ZGHA,2018-06-29 11:00,ZGHA 291100Z 17003MPS 160V230 9999 FEW050 33/23 Q0998 NOSIG
ZGHA,2018-06-29 12:00,ZGHA 291200Z 16002MPS 120V220 CAVOK 32/23 Q0999 NOSIG
ZGHA,2018-06-29 13:00,ZGHA 291300Z 15003MPS CAVOK 31/23 Q0999 NOSIG
ZGHA,2018-06-29 14:00,ZGHA 291400Z 17002MPS 150V220 CAVOK 30/24 Q1000 NOSIG
ZGHA,2018-06-29 15:00,ZGHA 291500Z VRB01MPS CAVOK 30/23 Q1001 NOSIG
ZGHA,2018-06-29 16:00,ZGHA 291600Z 17002MPS 140V260 CAVOK 29/24 Q1000 NOSIG
ZGHA,2018-06-29 17:00,ZGHA 291700Z 06002MPS 030V090 CAVOK 29/24 Q1000 NOSIG
ZGHA,2018-06-29 18:00,ZGHA 291800Z VRB01MPS CAVOK 28/24 Q1000 NOSIG
ZGHA,2018-06-29 19:00,ZGHA 291900Z 19002MPS 170V230 CAVOK 27/24 Q0999 NOSIG
ZGHA,2018-06-29 20:00,ZGHA 292000Z VRB01MPS CAVOK 28/24 Q1000 NOSIG
ZGHA,2018-06-29 21:00,ZGHA 292100Z 09002MPS CAVOK 28/24 Q1000 NOSIG
ZGHA,2018-06-29 22:00,ZGHA 292200Z 14002MPS CAVOK 28/23 Q1000 NOSIG
ZGHA,2018-06-29 23:00,ZGHA 292300Z 16004MPS CAVOK 29/23 Q1001 NOSIG
ZGHA,2018-06-30 00:00,ZGHA 300000Z 17004MPS CAVOK 30/23 Q1001 NOSIG
ZGHA,2018-06-30 01:00,ZGHA 300100Z 17005MPS CAVOK 31/24 Q1001 NOSIG
ZGHA,2018-06-30 02:00,ZGHA 300200Z 19004MPS CAVOK 32/23 Q1001 NOSIG
ZGHA,2018-06-30 03:00,ZGHA 300300Z 21006MPS CAVOK 34/23 Q1001 NOSIG
ZGHA,2018-06-30 04:00,ZGHA 300400Z 20004MPS 180V260 CAVOK 34/24 Q1001 NOSIG
ZGHA,2018-06-30 05:00,ZGHA 300500Z 19003MPS 140V220 CAVOK 33/24 Q1001 NOSIG
ZGHA,2018-06-30 06:00,ZGHA 300600Z 23002MPS 180V270 CAVOK 34/24 Q1000 NOSIG
ZGHA,2018-06-30 07:00,ZGHA 300700Z 18003MPS 150V230 CAVOK 34/24 Q1000 NOSIG
ZGHA,2018-06-30 08:00,ZGHA 300800Z 17003MPS 130V230 9999 SCT050 33/24 Q1000 NOSIG
ZGHA,2018-06-30 09:00,ZGHA 300900Z 04005MPS 9999 TS FEW040CB SCT040 31/24 Q1000 NOSIG
ZGHA,2018-06-30 10:00,ZGHA 301000Z 04002MPS 340V070 CAVOK 30/24 Q0999 RETS NOSIG
ZGHA,2018-06-30 11:00,ZGHA 301100Z 05002MPS CAVOK 30/25 Q1000 NOSIG
ZGHA,2018-06-30 12:00,ZGHA 301200Z 05003MPS CAVOK 29/25 Q1000 NOSIG
ZGHA,2018-06-30 13:00,ZGHA 301300Z 05003MPS CAVOK 29/25 Q1001 NOSIG
ZGHA,2018-06-30 14:00,ZGHA 301400Z 03001MPS CAVOK 29/25 Q1002 NOSIG
ZGHA,2018-06-30 15:00,ZGHA 301500Z 02003MPS CAVOK 28/25 Q1002 NOSIG
ZGHA,2018-06-30 16:00,ZGHA 301600Z 02002MPS CAVOK 28/25 Q1001 NOSIG
ZGHA,2018-06-30 17:00,ZGHA 301700Z 35003MPS CAVOK 28/25 Q1001 NOSIG
ZGHA,2018-06-30 18:00,ZGHA 301800Z 35003MPS 9999 -RA SCT050 28/26 Q1000 NOSIG
ZGHA,2018-06-30 19:00,ZGHA 301900Z 29003MPS 9000 SCT016 OVC050 28/26 Q1001 BECMG TL1930 -TSRA
ZGHA,2018-06-30 20:00,ZGHA 302000Z 31002MPS 280V340 9999 BKN050 26/24 Q1001 NOSIG
ZGHA,2018-06-30 21:00,ZGHA 302100Z VRB01MPS 9999 -RA SCT008 BKN040 26/24 Q1001 NOSIG
ZGHA,2018-06-30 22:00,ZGHA 302200Z VRB01MPS 5000 TSRA BR BKN006 FEW033CB BKN033 25/25 Q1001 BECMG TL2230 -SHRA
ZGHA,2018-06-30 23:00,ZGHA 302300Z VRB01MPS 9000 BKN010 25/25 Q1002 RETSRA BECMG TL0040 BKN016 OVC050
ZGHA,2018-07-01 00:00,ZGHA 010000Z 29002MPS 230V340 9999 BKN010 25/25 Q1002 BECMG TL0140 BKN016 OVC050
ZGHA,2018-07-01 01:00,ZGHA 010100Z 31002MPS 240V360 1800 SHRA BR BKN008 OVC050 26/25 Q1002 NOSIG
ZGHA,2018-07-01 02:00,ZGHA 010200Z 35002MPS 290V020 7000 -SHRA FEW004 BKN009 OVC050 25/25 Q1002 RETSRA BECMG TL0300 BKN010 OVC050
ZGHA,2018-07-01 03:00,ZGHA 010300Z 08004MPS 9999 -SHRA BKN006 OVC050 25/25 Q1003 BECMG TL0400 2500 TSRA
ZGHA,2018-07-01 04:00,ZGHA 010400Z 04006MPS 1500 R36L/1400D R36R/1700D +SHRA BR FEW004 BKN012 OVC050 25/25 Q1003 BECMG TL0430 3000 -TSRA
ZGHA,2018-07-01 05:00,ZGHA 010500Z 11003MPS 2400 SHRA BR BKN010 OVC050 24/24 Q1003 RETS BECMG TL0540 3000 -SHRA
ZGHA,2018-07-01 06:00,ZGHA 010600Z 13002MPS 100V180 6000 SHRA SCT010 BKN023 OVC050 25/24 Q1002 BECMG TL0630 -SHRA
ZGHA,2018-07-01 07:00,ZGHA 010700Z 24002MPS 210V300 9999 SCT010 BKN023 BKN050 25/25 Q1002 RESHRA NOSIG
ZGHA,2018-07-01 08:00,ZGHA 010800Z 29002MPS 250V320 9999 -SHRA SCT007 BKN016 26/26 Q1001 NOSIG
ZGHA,2018-07-01 09:00,ZGHA 010900Z VRB02MPS 9999 SCT010 BKN016 27/25 Q1000 NOSIG
ZGHA,2018-07-01 10:00,ZGHA 011000Z 33004MPS 5000 BR BKN011 OVC050 26/25 Q1001 BECMG TL1100 BKN016 OVC050
ZGHA,2018-07-01 11:00,ZGHA 011100Z 34004MPS 3500 -DZ BR BKN015 OVC050 26/25 Q1001 BECMG TL1200 2800
ZGHA,2018-07-01 12:00,ZGHA 011200Z 36002MPS 310V020 5000 -DZ BR BKN016 OVC050 26/25 Q1001 NOSIG
ZGHA,2018-07-01 13:00,ZGHA 011300Z VRB01MPS 5000 BR BKN016 OVC050 26/25 Q1002 NOSIG
ZGHA,2018-07-01 14:00,ZGHA 011400Z 30002MPS 5000 BR BKN026 OVC050 26/25 Q1003 NOSIG
ZGHA,2018-07-01 15:00,ZGHA 011500Z 02002MPS 5000 BR FEW013 26/25 Q1002 NOSIG
ZGHA,2018-07-01 16:00,ZGHA 011600Z VRB01MPS 4400 BR NSC 25/25 Q1002 NOSIG
ZGHA,2018-07-01 17:00,ZGHA 011700Z 10002MPS 3500 BR BKN011 25/25 Q1002 NOSIG
ZGHA,2018-07-01 18:00,ZGHA 011800Z 00000MPS 3800 BR BKN010 25/25 Q1002 NOSIG
ZGHA,2018-07-01 19:00,ZGHA 011900Z 02001MPS 3500 BR BKN010 25/25 Q1001 NOSIG
ZGHA,2018-07-01 20:00,ZGHA 012000Z 05002MPS 3200 BR BKN007 OVC050 25/25 Q1001 NOSIG
ZGHA,2018-07-01 21:00,ZGHA 012100Z 15001MPS 3500 BR BKN006 OVC050 25/25 Q1001 NOSIG
ZGHA,2018-07-01 22:00,ZGHA 012200Z 12001MPS 2500 BR BKN006 OVC050 26/25 Q1001 NOSIG
ZGHA,2018-07-01 23:00,ZGHA 012300Z VRB01MPS 1700 -SHRA BR BKN005 OVC040 25/25 Q1001 RESHRA BECMG TL2400 3200
ZGHA,2018-07-02 00:00,ZGHA 020000Z VRB01MPS 1800 -SHRA BR BKN008 OVC040 25/25 Q1001 RESHRA BECMG TL0100 3200 BR BKN011 OVC050
ZGHA,2018-07-02 01:00,ZGHA 020100Z 06002MPS 030V090 2800 BR FEW003 BKN008 26/25 Q1002 BECMG TL0200 3200 BKN011 OVC050
ZGHA,2018-07-02 02:00,ZGHA 020200Z 13002MPS 4000 BR FEW005 BKN010 OVC050 27/26 Q1002 BECMG TL0300 BKN016 OVC050
ZGHA,2018-07-02 03:00,ZGHA 020300Z VRB01MPS 5000 BR FEW009 BKN015 OVC050 29/26 Q1001 BECMG TL0400 BKN014 OVC050
ZGHA,2018-07-02 04:00,ZGHA 020400Z VRB01MPS 7000 SCT014 31/26 Q1001 NOSIG
ZGHA,2018-07-02 05:00,ZGHA 020500Z 22002MPS 180V300 8000 BKN024 31/25 Q1000 NOSIG
ZGHA,2018-07-02 06:00,ZGHA 020600Z VRB01MPS 8000 BKN033 32/26 Q0999 NOSIG
ZGHA,2018-07-02 07:00,ZGHA 020700Z VRB02MPS 8000 BKN040 33/25 Q0999 NOSIG
ZGHA,2018-07-02 08:00,ZGHA 020800Z 22002MPS 140V300 8000 BKN050 33/24 Q0998 NOSIG
ZGHA,2018-07-02 09:00,ZGHA 020900Z 06002MPS 040V120 8000 BKN050 33/25 Q0998 NOSIG
ZGHA,2018-07-02 10:00,ZGHA 021000Z 06002MPS 8000 FEW050 32/25 Q0998 NOSIG
ZGHA,2018-07-02 11:00,ZGHA 021100Z 08002MPS 290V100 8000 NSC 32/26 Q0998 NOSIG
ZGHA,2018-07-02 12:00,ZGHA 021200Z 06002MPS 8000 NSC 31/26 Q0999 NOSIG
ZGHA,2018-07-02 13:00,ZGHA 021300Z 05002MPS 010V090 7000 FEW050CB 30/26 Q0999 BECMG TL1400 2800 TSRA BR
ZGHA,2018-07-02 14:00,ZGHA 021400Z 19007MPS 9000 TS FEW021 FEW050CB BKN050 29/24 Q1000 BECMG TL1430 2800 TSRA BR
ZGHA,2018-07-02 15:00,ZGHA 021500Z 22003MPS 190V250 6000 TSRA FEW011 SCT040CB BKN040 25/25 Q1001 BECMG TL1610 -SHRA
ZGHA,2018-07-02 16:00,ZGHA 021600Z VRB01MPS CAVOK 26/25 Q1000 RETSRA NOSIG
ZGHA,2018-07-02 17:00,ZGHA 021700Z VRB01MPS CAVOK 26/25 Q0999 NOSIG
ZGHA,2018-07-02 18:00,ZGHA 021800Z VRB01MPS 9999 SCT050 26/26 Q0999 NOSIG
ZGHA,2018-07-02 19:00,ZGHA 021900Z VRB01MPS CAVOK 26/25 Q0998 NOSIG
ZGHA,2018-07-02 20:00,ZGHA 022000Z VRB01MPS CAVOK 26/26 Q0998 NOSIG
ZGHA,2018-07-02 21:00,ZGHA 022100Z 22001MPS 9999 FEW004 26/26 Q0998 NOSIG
ZGHA,2018-07-02 22:00,ZGHA 022200Z VRB01MPS 8000 NSC 26/26 Q0999 NOSIG
ZGHA,2018-07-02 23:00,ZGHA 022300Z 23002MPS 200V280 9000 NSC 26/26 Q0999 NOSIG
ZGHA,2018-07-03 00:00,ZGHA 030000Z 16002MPS CAVOK 28/26 Q1000 NOSIG
ZGHA,2018-07-03 01:00,ZGHA 030100Z 17004MPS CAVOK 31/26 Q0999 NOSIG
ZGHA,2018-07-03 02:00,ZGHA 030200Z 18005MPS 150V220 CAVOK 31/26 Q0999 NOSIG
ZGHA,2018-07-03 03:00,ZGHA 030300Z 20004MPS 9999 FEW030 32/25 Q0999 NOSIG
ZGHA,2018-07-03 04:00,ZGHA 030400Z 19004MPS 170V230 CAVOK 32/25 Q0999 NOSIG
ZGHA,2018-07-03 05:00,ZGHA 030500Z 22004MPS 180V260 9999 FEW040 34/25 Q0998 NOSIG
ZGHA,2018-07-03 06:00,ZGHA 030600Z 19004MPS 170V230 9999 SCT040 34/24 Q0997 NOSIG
ZGHA,2018-07-03 07:00,ZGHA 030700Z 20004MPS 170V250 9999 SCT040 35/25 Q0997 NOSIG
ZGHA,2018-07-03 08:00,ZGHA 030800Z 19004MPS 160V220 9999 SCT040 35/24 Q0996 NOSIG
ZGHA,2018-07-03 09:00,ZGHA 030900Z 20003MPS 180V250 9999 FEW040 34/24 Q0996 NOSIG
ZGHA,2018-07-03 10:00,ZGHA 031000Z 19002MPS 160V220 9999 FEW040 34/25 Q0996 NOSIG
ZGHA,2018-07-03 11:00,ZGHA 031100Z 19002MPS CAVOK 33/25 Q0996 NOSIG
ZGHA,2018-07-03 12:00,ZGHA 031200Z VRB01MPS CAVOK 33/25 Q0997 NOSIG
ZGHA,2018-07-03 13:00,ZGHA 031300Z 12002MPS 080V160 CAVOK 31/26 Q0997 NOSIG
ZGHA,2018-07-03 14:00,ZGHA 031400Z VRB01MPS CAVOK 30/26 Q0997 NOSIG
ZGHA,2018-07-03 15:00,ZGHA 031500Z VRB01MPS CAVOK 30/26 Q0997 NOSIG
ZGHA,2018-07-03 16:00,ZGHA 031600Z VRB01MPS CAVOK 30/25 Q0997 NOSIG
ZGHA,2018-07-03 17:00,ZGHA 031700Z VRB01MPS CAVOK 30/26 Q0997 NOSIG
ZGHA,2018-07-03 18:00,ZGHA 031800Z 25001MPS CAVOK 29/26 Q0997 NOSIG
ZGHA,2018-07-03 19:00,ZGHA 031900Z 18002MPS CAVOK 29/27 Q0996 NOSIG
ZGHA,2018-07-03 20:00,ZGHA 032000Z 15003MPS CAVOK 29/25 Q0997 NOSIG
ZGHA,2018-07-03 21:00,ZGHA 032100Z 16004MPS CAVOK 30/24 Q0997 NOSIG
ZGHA,2018-07-03 22:00,ZGHA 032200Z 18003MPS CAVOK 29/24 Q0997 NOSIG
ZGHA,2018-07-03 23:00,ZGHA 032300Z 18003MPS CAVOK 29/25 Q0997 NOSIG
ZGHA,2018-07-04 00:00,ZGHA 040000Z 18002MPS 160V220 CAVOK 31/25 Q0998 NOSIG
ZGHA,2018-07-04 01:00,ZGHA 040100Z 18005MPS CAVOK 33/25 Q0998 NOSIG
ZGHA,2018-07-04 02:00,ZGHA 040200Z 19007MPS 160V220 CAVOK 34/24 Q0998 NOSIG
ZGHA,2018-07-04 03:00,ZGHA 040300Z 19006MPS CAVOK 34/24 Q0997 NOSIG
ZGHA,2018-07-04 04:00,ZGHA 040400Z 20007MPS 160V230 9999 SCT050 36/23 Q0997 NOSIG
ZGHA,2018-07-04 05:00,ZGHA 040500Z 19005MPS 9999 SCT050 36/24 Q0997 NOSIG
ZGHA,2018-07-04 06:00,ZGHA 040600Z 20005MPS 170V240 9999 BKN050 36/24 Q0996 NOSIG
ZGHA,2018-07-04 07:00,ZGHA 040700Z 19005MPS 170V230 9999 SCT050 37/24 Q0996 NOSIG
ZGHA,2018-07-04 08:00,ZGHA 040800Z 20005MPS 9999 FEW050 36/24 Q0995 NOSIG
ZGHA,2018-07-04 09:00,ZGHA 040900Z 19004MPS 170V230 CAVOK 36/24 Q0995 NOSIG
ZGHA,2018-07-04 10:00,ZGHA 041000Z 19004MPS CAVOK 35/24 Q0995 NOSIG
ZGHA,2018-07-04 11:00,ZGHA 041100Z 17003MPS CAVOK 34/25 Q0995 NOSIG
ZGHA,2018-07-04 12:00,ZGHA 041200Z 16003MPS 150V210 CAVOK 33/25 Q0996 NOSIG
ZGHA,2018-07-04 13:00,ZGHA 041300Z 15002MPS 120V190 CAVOK 32/25 Q0997 NOSIG
ZGHA,2018-07-04 14:00,ZGHA 041400Z 17003MPS 160V230 CAVOK 31/25 Q0997 NOSIG
ZGHA,2018-07-04 15:00,ZGHA 041500Z 18003MPS 160V230 CAVOK 31/25 Q0997 NOSIG
ZGHA,2018-07-04 16:00,ZGHA 041600Z 16003MPS 130V240 CAVOK 31/24 Q0997 NOSIG
ZGHA,2018-07-04 17:00,ZGHA 041700Z 19002MPS 170V230 CAVOK 30/24 Q0996 NOSIG
ZGHA,2018-07-04 18:00,ZGHA 041800Z 18002MPS CAVOK 29/24 Q0996 NOSIG
ZGHA,2018-07-04 19:00,ZGHA 041900Z 16004MPS 140V210 CAVOK 30/24 Q0996 NOSIG
ZGHA,2018-07-04 20:00,ZGHA 042000Z 18002MPS CAVOK 29/24 Q0996 NOSIG
ZGHA,2018-07-04 21:00,ZGHA 042100Z 18003MPS CAVOK 29/24 Q0997 NOSIG
ZGHA,2018-07-04 22:00,ZGHA 042200Z 19002MPS CAVOK 29/24 Q0997 NOSIG
ZGHA,2018-07-04 23:00,ZGHA 042300Z 18003MPS 160V230 CAVOK 29/24 Q0997 NOSIG
ZGHA,2018-07-05 00:00,ZGHA 050000Z 18003MPS CAVOK 30/24 Q0998 NOSIG
ZGHA,2018-07-05 01:00,ZGHA 050100Z 17003MPS 160V220 CAVOK 31/25 Q0998 NOSIG
ZGHA,2018-07-05 02:00,ZGHA 050200Z 19004MPS CAVOK 32/25 Q0998 NOSIG
ZGHA,2018-07-05 03:00,ZGHA 050300Z 19004MPS CAVOK 33/25 Q0998 NOSIG
ZGHA,2018-07-05 04:00,ZGHA 050400Z 21005MPS CAVOK 34/24 Q0998 NOSIG
ZGHA,2018-07-05 05:00,ZGHA 050500Z 21005MPS 9999 FEW040 35/24 Q0998 NOSIG
ZGHA,2018-07-05 06:00,ZGHA 050600Z 20005MPS 9999 SCT040 35/24 Q0997 NOSIG
ZGHA,2018-07-05 07:00,ZGHA 050700Z 20004MPS 9999 SCT040 34/25 Q0997 BECMG TL0800 2500 TSRA BR BKN009 FEW040CB BKN040
ZGHA,2018-07-05 08:00,ZGHA 050800Z 20004MPS 9999 SCT040 34/25 Q0997 BECMG TL0840 VRB07G12MPS 2500 TSRA BR BKN009 FEW040CB BKN040
ZGHA,2018-07-05 09:00,ZGHA 050900Z 32005MPS 9000 TS BKN020 FEW040CB BKN040 30/24 Q0998 BECMG TL1040 -SHRA
ZGHA,2018-07-05 10:00,ZGHA 051000Z 34002MPS 310V020 7000 -RA BKN030 28/27 Q0998 RETSRA NOSIG
ZGHA,2018-07-05 11:00,ZGHA 051100Z 05002MPS 010V100 7000 NSC 28/27 Q0999 NOSIG
ZGHA,2018-07-05 12:00,ZGHA 051200Z 35003MPS 320V030 6000 BKN008 OVC050 28/27 Q0999 BECMG TL1340 BKN011 OVC040
ZGHA,2018-07-05 13:00,ZGHA 051300Z 33004MPS 5000 BR BKN008 OVC050 28/27 Q0999 NOSIG
ZGHA,2018-07-05 14:00,ZGHA 051400Z 33004MPS 4500 BR BKN008 OVC050 28/27 Q1000 NOSIG
ZGHA,2018-07-05 15:00,ZGHA 051500Z 01004MPS 4500 BR BKN007 OVC050 27/26 Q1000 NOSIG
ZGHA,2018-07-05 16:00,ZGHA 051600Z 36004MPS 5000 BR BKN009 OVC050 26/26 Q1000 BECMG TL1700 BKN011 OVC050
ZGHA,2018-07-05 17:00,ZGHA 051700Z 34004MPS 6000 BKN008 OVC050 26/26 Q1000 NOSIG
ZGHA,2018-07-05 18:00,ZGHA 051800Z 34004MPS 310V010 6000 BKN007 OVC050 26/26 Q1000 NOSIG
ZGHA,2018-07-05 19:00,ZGHA 051900Z 35003MPS 300V010 5000 BR BKN007 OVC050 26/26 Q1000 NOSIG
ZGHA,2018-07-05 20:00,ZGHA 052000Z 34003MPS 7000 BKN011 OVC050 26/25 Q1000 NOSIG
ZGHA,2018-07-05 21:00,ZGHA 052100Z 34003MPS 7000 BKN011 OVC050 26/25 Q1000 NOSIG
ZGHA,2018-07-05 22:00,ZGHA 052200Z 04003MPS 7000 -RA BKN014 OVC050 26/25 Q1001 NOSIG
ZGHA,2018-07-05 23:00,ZGHA 052300Z 04002MPS 350V060 7000 -RA BKN014 OVC050 26/25 Q1001 NOSIG
ZGHA,2018-07-06 00:00,ZGHA 060000Z 35004MPS 7000 -RA BKN016 OVC050 26/25 Q1001 NOSIG
ZGHA,2018-07-06 01:00,ZGHA 060100Z 36003MPS 9999 BKN016 OVC050 27/25 Q1001 BECMG TL0200 BKN014 OVC050
ZGHA,2018-07-06 02:00,ZGHA 060200Z 01003MPS 330V030 9999 BKN014 OVC050 28/25 Q1002 BECMG TL0300 BKN015 OVC050
ZGHA,2018-07-06 03:00,ZGHA 060300Z 34004MPS 310V010 7000 -RA BKN015 OVC050 28/25 Q1002 NOSIG
ZGHA,2018-07-06 04:00,ZGHA 060400Z 36004MPS 7000 BKN015 OVC050 29/24 Q1001 NOSIG
ZGHA,2018-07-06 05:00,ZGHA 060500Z 30003MPS 250V350 9000 BKN017 OVC050 29/24 Q1001 NOSIG
ZGHA,2018-07-06 06:00,ZGHA 060600Z 32002MPS 280V030 9000 BKN020 OVC040 30/24 Q1000 NOSIG
ZGHA,2018-07-06 07:00,ZGHA 060700Z 35003MPS 310V020 4000 BR BKN021 28/24 Q1000 NOSIG
ZGHA,2018-07-06 08:00,ZGHA 060800Z 32003MPS 290V350 5000 BR FEW020 BKN050 30/24 Q1000 NOSIG
ZGHA,2018-07-06 09:00,ZGHA 060900Z 30004MPS 6000 NSC 29/24 Q0999 NOSIG
ZGHA,2018-07-06 10:00,ZGHA 061000Z 36003MPS 7000 NSC 29/24 Q1000 NOSIG
ZGHA,2018-07-06 11:00,ZGHA 061100Z 31003MPS 290V350 9000 NSC 29/23 Q1000 NOSIG
ZGHA,2018-07-06 12:00,ZGHA 061200Z 31003MPS 9000 NSC 29/23 Q1001 NOSIG
ZGHA,2018-07-06 13:00,ZGHA 061300Z 31003MPS 7000 NSC 28/24 Q1001 NOSIG
ZGHA,2018-07-06 14:00,ZGHA 061400Z 30003MPS 5000 BR NSC 28/24 Q1002 NOSIG
ZGHA,2018-07-06 15:00,ZGHA 061500Z 30004MPS 5000 BR NSC 28/25 Q1002 NOSIG
ZGHA,2018-07-06 16:00,ZGHA 061600Z 32003MPS 5000 BR NSC 28/25 Q1002 NOSIG
ZGHA,2018-07-06 17:00,ZGHA 061700Z 31003MPS 280V350 6000 NSC 28/25 Q1002 NOSIG
ZGHA,2018-07-06 18:00,ZGHA 061800Z 33004MPS 6000 FEW023 27/25 Q1001 NOSIG
ZGHA,2018-07-06 19:00,ZGHA 061900Z 34004MPS 5000 BR SCT015 26/25 Q1001 NOSIG
ZGHA,2018-07-06 20:00,ZGHA 062000Z 35003MPS 5000 BR SCT014 26/25 Q1001 NOSIG
ZGHA,2018-07-06 21:00,ZGHA 062100Z 34003MPS 320V020 6000 BKN050 26/25 Q1001 NOSIG
ZGHA,2018-07-06 22:00,ZGHA 062200Z 34003MPS 300V360 4000 BR SCT050 26/25 Q1002 NOSIG
ZGHA,2018-07-06 23:00,ZGHA 062300Z 34003MPS 8000 NSC 27/24 Q1002 NOSIG
ZGHA,2018-07-07 00:00,ZGHA 070000Z 01004MPS 9999 FEW015 OVC040 27/24 Q1002 NOSIG
ZGHA,2018-07-07 01:00,ZGHA 070100Z 01003MPS 340V050 9999 BKN017 OVC050 28/24 Q1002 NOSIG
ZGHA,2018-07-07 02:00,ZGHA 070200Z 36004MPS 9999 BKN026 OVC050 29/24 Q1002 NOSIG
ZGHA,2018-07-07 03:00,ZGHA 070300Z 34003MPS 290V360 9999 SCT018 OVC050 29/24 Q1003 NOSIG
ZGHA,2018-07-07 04:00,ZGHA 070400Z 34004MPS 9999 SCT022 OVC050 30/23 Q1002 NOSIG
ZGHA,2018-07-07 05:00,ZGHA 070500Z 32005MPS 9999 BKN030 OVC050 29/24 Q1002 NOSIG
ZGHA,2018-07-07 06:00,ZGHA 070600Z 32005MPS 9999 SCT030 OVC050 29/24 Q1002 NOSIG
ZGHA,2018-07-07 07:00,ZGHA 070700Z 33005MPS 300V360 9999 FEW014 SCT030 OVC050 29/24 Q1001 NOSIG
ZGHA,2018-07-07 08:00,ZGHA 070800Z 32005MPS 9999 BKN016 OVC050 28/24 Q1001 NOSIG
ZGHA,2018-07-07 09:00,ZGHA 070900Z 33005MPS 9999 SCT013 BKN026 OVC050 28/24 Q1001 NOSIG
ZGHA,2018-07-07 10:00,ZGHA 071000Z 33004MPS 9999 -RA BKN015 OVC050 27/24 Q1001 BECMG TL1100 BKN014 OVC050
ZGHA,2018-07-07 11:00,ZGHA 071100Z 32003MPS 9999 BKN013 OVC050 27/25 Q1001 BECMG TL1240 BKN015 OVC050
ZGHA,2018-07-07 12:00,ZGHA 071200Z 36003MPS 9999 BKN011 OVC050 27/25 Q1002 BECMG TL1340 BKN015 OVC050
ZGHA,2018-07-07 13:00,ZGHA 071300Z 33003MPS 9999 BKN015 OVC050 27/25 Q1003 BECMG TL1400 BKN014 OVC050
ZGHA,2018-07-07 14:00,ZGHA 071400Z 35003MPS 9999 BKN011 OVC050 27/25 Q1003 BECMG TL1500 BKN015 OVC050
ZGHA,2018-07-07 15:00,ZGHA 071500Z 33003MPS 280V360 9999 BKN011 OVC050 27/25 Q1003 BECMG TL1600 BKN009 OVC050
ZGHA,2018-07-07 16:00,ZGHA 071600Z 32003MPS 9999 FEW004 BKN009 OVC050 26/25 Q1003 NOSIG
ZGHA,2018-07-07 17:00,ZGHA 071700Z 34003MPS 8000 FEW008 BKN013 OVC050 26/25 Q1003 NOSIG
ZGHA,2018-07-07 18:00,ZGHA 071800Z 35002MPS 7000 BKN013 OVC050 26/25 Q1002 NOSIG
ZGHA,2018-07-07 19:00,ZGHA 071900Z 31002MPS 5000 BR BKN010 OVC050 26/25 Q1002 NOSIG
ZGHA,2018-07-07 20:00,ZGHA 072000Z VRB01MPS 5000 BR BKN008 OVC050 26/25 Q1002 NOSIG
ZGHA,2018-07-07 21:00,ZGHA 072100Z VRB01MPS 5000 BR BKN007 OVC050 26/25 Q1002 NOSIG
ZGHA,2018-07-07 22:00,ZGHA 072200Z VRB01MPS 1600 -RA BR BKN006 OVC050 26/26 Q1002 BECMG TL2340 3000 BKN011 OVC050
ZGHA,2018-07-07 23:00,ZGHA 072300Z VRB01MPS 2000 -RA BR BKN007 OVC050 26/26 Q1003 BECMG TL0040 3000 BKN011 OVC050
ZGHA,2018-07-08 00:00,ZGHA 080000Z VRB01MPS 1600 -RA BR BKN006 OVC050 26/26 Q1003 BECMG TL0140 3000 BKN011 OVC050
ZGHA,2018-07-08 01:00,ZGHA 080100Z 24002MPS 180V310 3500 -RA BR FEW005 BKN008 OVC050 26/26 Q1003 BECMG TL0200 BKN011 OVC050
ZGHA,2018-07-08 02:00,ZGHA 080200Z 22003MPS 180V240 8000 SCT011 BKN027 BKN050 28/26 Q1004 BECMG TL0300 BKN011 OVC050
ZGHA,2018-07-08 03:00,ZGHA 080300Z 22004MPS 200V260 9999 FEW011 SCT014 OVC040 28/26 Q1004 NOSIG
ZGHA,2018-07-08 04:00,ZGHA 080400Z 23003MPS 9999 FEW011 BKN014 OVC040 28/26 Q1004 BECMG TL0500 BKN015 OVC050
ZGHA,2018-07-08 05:00,ZGHA 080500Z 25004MPS 200V270 9999 -RA FEW012 BKN024 BKN050 28/27 Q1004 NOSIG
ZGHA,2018-07-08 06:00,ZGHA 080600Z 26004MPS 230V290 9999 BKN016 30/26 Q1003 BECMG TL0700 BKN014 OVC050
ZGHA,2018-07-08 07:00,ZGHA 080700Z 27004MPS 210V290 9999 SCT020 30/25 Q1003 BECMG TL0800 2500 SHRA BR
ZGHA,2018-07-08 08:00,ZGHA 080800Z 17005MPS 5000 -SHRA BR BKN005 FEW020CB BKN020 27/26 Q1003 BECMG TL0820 2500 SHRA
ZGHA,2018-07-08 09:00,ZGHA 080900Z 20003MPS 7000 -RA OVC020 26/26 Q1003 RESHRA NOSIG
ZGHA,2018-07-08 10:00,ZGHA 081000Z 22001MPS 9999 OVC050 26/25 Q1003 NOSIG
ZGHA,2018-07-08 11:00,ZGHA 081100Z VRB01MPS 9999 BKN030 OVC040 26/25 Q1004 NOSIG
ZGHA,2018-07-08 12:00,ZGHA 081200Z 15004MPS 7000 SHRA FEW015 FEW040CB BKN040 26/26 Q1005 BECMG TL1300 -SHRA
ZGHA,2018-07-08 13:00,ZGHA 081300Z 20002MPS 170V250 6000 -RA FEW005 BKN014 OVC040 26/26 Q1005 RESHRA BECMG TL1400 BKN020 OVC050
ZGHA,2018-07-08 14:00,ZGHA 081400Z VRB01MPS 9000 FEW005 SCT033 OVC050 26/26 Q1006 NOSIG
ZGHA,2018-07-08 15:00,ZGHA 081500Z 16002MPS 120V200 9999 FEW005 SCT040 26/26 Q1006 NOSIG
ZGHA,2018-07-08 16:00,ZGHA 081600Z VRB01MPS 9999 SCT050 26/25 Q1005 NOSIG
ZGHA,2018-07-08 17:00,ZGHA 081700Z VRB01MPS CAVOK 26/25 Q1005 NOSIG
ZGHA,2018-07-08 18:00,ZGHA 081800Z 18001MPS CAVOK 25/25 Q1005 NOSIG
ZGHA,2018-07-08 19:00,ZGHA 081900Z 16001MPS CAVOK 25/25 Q1005 NOSIG
ZGHA,2018-07-08 20:00,ZGHA 082000Z 19002MPS CAVOK 25/25 Q1005 NOSIG
ZGHA,2018-07-08 21:00,ZGHA 082100Z 18002MPS 7000 NSC 25/25 Q1005 NOSIG
ZGHA,2018-07-08 22:00,ZGHA 082200Z 15002MPS 7000 NSC 25/25 Q1006 NOSIG
ZGHA,2018-07-08 23:00,ZGHA 082300Z 16002MPS CAVOK 26/26 Q1006 NOSIG
ZGHA,2018-07-09 00:00,ZGHA 090000Z 17004MPS CAVOK 28/25 Q1007 NOSIG
ZGHA,2018-07-09 01:00,ZGHA 090100Z 18005MPS 150V210 CAVOK 30/25 Q1007 NOSIG
ZGHA,2018-07-09 02:00,ZGHA 090200Z 19004MPS 160V230 9999 SCT020 31/25 Q1007 NOSIG
ZGHA,2018-07-09 03:00,ZGHA 090300Z 21005MPS 9999 SCT026 31/24 Q1007 NOSIG
ZGHA,2018-07-09 04:00,ZGHA 090400Z 22004MPS 170V260 9999 SCT033 32/24 Q1006 NOSIG
ZGHA,2018-07-09 05:00,ZGHA 090500Z 20003MPS 150V250 9999 SCT040 33/23 Q1006 NOSIG
ZGHA,2018-07-09 06:00,ZGHA 090600Z 22003MPS 170V260 CAVOK 34/23 Q1005 NOSIG
ZGHA,2018-07-09 07:00,ZGHA 090700Z 18003MPS 160V220 9999 SCT050 34/22 Q1005 NOSIG
ZGHA,2018-07-09 08:00,ZGHA 090800Z VRB02MPS 9999 FEW050TCU FEW050 35/22 Q1004 NOSIG
ZGHA,2018-07-09 09:00,ZGHA 090900Z 15002MPS 110V220 9999 FEW050TCU FEW050 34/22 Q1004 NOSIG
ZGHA,2018-07-09 10:00,ZGHA 091000Z 16002MPS 130V200 9999 FEW050TCU FEW050 34/23 Q1004 NOSIG
ZGHA,2018-07-09 11:00,ZGHA 091100Z 13002MPS 060V220 9999 FEW050TCU FEW050 33/23 Q1004 NOSIG
ZGHA,2018-07-09 12:00,ZGHA 091200Z VRB01MPS CAVOK 32/25 Q1005 NOSIG
ZGHA,2018-07-09 13:00,ZGHA 091300Z VRB01MPS CAVOK 30/25 Q1006 NOSIG
ZGHA,2018-07-09 14:00,ZGHA 091400Z VRB01MPS CAVOK 30/24 Q1007 NOSIG
ZGHA,2018-07-09 15:00,ZGHA 091500Z VRB01MPS CAVOK 30/25 Q1007 NOSIG
ZGHA,2018-07-09 16:00,ZGHA 091600Z VRB01MPS CAVOK 29/25 Q1006 NOSIG
ZGHA,2018-07-09 17:00,ZGHA 091700Z VRB01MPS CAVOK 28/25 Q1006 NOSIG
ZGHA,2018-07-09 18:00,ZGHA 091800Z 28002MPS CAVOK 28/26 Q1006 NOSIG
ZGHA,2018-07-09 19:00,ZGHA 091900Z VRB01MPS CAVOK 27/26 Q1006 NOSIG
ZGHA,2018-07-09 20:00,ZGHA 092000Z VRB01MPS CAVOK 28/26 Q1006 NOSIG
ZGHA,2018-07-09 21:00,ZGHA 092100Z 19001MPS CAVOK 27/26 Q1006 NOSIG
ZGHA,2018-07-09 22:00,ZGHA 092200Z 20001MPS CAVOK 27/26 Q1006 NOSIG
ZGHA,2018-07-09 23:00,ZGHA 092300Z VRB01MPS CAVOK 27/26 Q1006 NOSIG
ZGHA,2018-07-10 00:00,ZGHA 100000Z VRB01MPS CAVOK 29/26 Q1007 NOSIG
ZGHA,2018-07-10 01:00,ZGHA 100100Z VRB01MPS CAVOK 32/25 Q1007 NOSIG
ZGHA,2018-07-10 02:00,ZGHA 100200Z 17003MPS 110V200 CAVOK 33/23 Q1007 NOSIG
ZGHA,2018-07-10 03:00,ZGHA 100300Z 18003MPS 120V240 CAVOK 33/24 Q1007 NOSIG
ZGHA,2018-07-10 04:00,ZGHA 100400Z 14003MPS 100V190 9999 FEW050 35/24 Q1006 NOSIG
ZGHA,2018-07-10 05:00,ZGHA 100500Z VRB02MPS 9999 FEW050 35/23 Q1006 NOSIG
ZGHA,2018-07-10 06:00,ZGHA 100600Z 26002G07MPS 140V300 9999 SCT050 37/23 Q1005 NOSIG
ZGHA,2018-07-10 07:00,ZGHA 100700Z 22002MPS 150V290 9999 FEW050 37/22 Q1004 NOSIG
ZGHA,2018-07-10 08:00,ZGHA 100800Z VRB02MPS 9999 FEW050 37/22 Q1004 NOSIG
ZGHA,2018-07-10 09:00,ZGHA 100900Z 09002MPS 040V120 9999 FEW050 36/22 Q1003 NOSIG
ZGHA,2018-07-10 10:00,ZGHA 101000Z 06002MPS 010V100 CAVOK 36/22 Q1003 NOSIG
ZGHA,2018-07-10 11:00,ZGHA 101100Z 04002MPS CAVOK 34/24 Q1003 NOSIG
ZGHA,2018-07-10 12:00,ZGHA 101200Z 04002MPS CAVOK 33/24 Q1004 NOSIG
ZGHA,2018-07-10 13:00,ZGHA 101300Z 03004MPS CAVOK 32/25 Q1005 NOSIG
ZGHA,2018-07-10 14:00,ZGHA 101400Z 04003MPS CAVOK 31/25 Q1005 NOSIG
ZGHA,2018-07-10 15:00,ZGHA 101500Z 03003MPS CAVOK 30/25 Q1005 NOSIG
ZGHA,2018-07-10 16:00,ZGHA 101600Z 04003MPS CAVOK 30/24 Q1005 NOSIG
ZGHA,2018-07-10 17:00,ZGHA 101700Z 04002MPS 020V100 CAVOK 29/24 Q1004 NOSIG
ZGHA,2018-07-10 18:00,ZGHA 101800Z 02003MPS CAVOK 28/24 Q1004 NOSIG
ZGHA,2018-07-10 19:00,ZGHA 101900Z 01002MPS CAVOK 28/24 Q1003 NOSIG
ZGHA,2018-07-10 20:00,ZGHA 102000Z 36002MPS CAVOK 28/25 Q1003 NOSIG
ZGHA,2018-07-10 21:00,ZGHA 102100Z 35002MPS CAVOK 27/26 Q1003 NOSIG
ZGHA,2018-07-10 22:00,ZGHA 102200Z 01002MPS CAVOK 27/26 Q1003 NOSIG
ZGHA,2018-07-10 23:00,ZGHA 102300Z 03002MPS 360V060 CAVOK 29/25 Q1004 NOSIG
ZGHA,2018-07-11 00:00,ZGHA 110000Z 01002MPS CAVOK 30/25 Q1004 NOSIG
ZGHA,2018-07-11 01:00,ZGHA 110100Z 02003MPS CAVOK 32/25 Q1004 NOSIG
ZGHA,2018-07-11 02:00,ZGHA 110200Z 34003MPS 300V020 CAVOK 34/25 Q1004 NOSIG
ZGHA,2018-07-11 03:00,ZGHA 110300Z 33004MPS 310V010 9999 FEW033 36/25 Q1003 NOSIG
ZGHA,2018-07-11 04:00,ZGHA 110400Z 31005MPS 280V350 9999 BKN030 34/26 Q1003 NOSIG
ZGHA,2018-07-11 05:00,ZGHA 110500Z 35006MPS 310V020 9999 BKN033 36/25 Q1001 NOSIG
ZGHA,2018-07-11 06:00,ZGHA 110600Z 36007MPS 9999 SCT033 36/24 Q1001 NOSIG
ZGHA,2018-07-11 07:00,ZGHA 110700Z 34007MPS CAVOK 37/23 Q0999 NOSIG
ZGHA,2018-07-11 08:00,ZGHA 110800Z 35007MPS 310V010 CAVOK 37/24 Q0999 NOSIG
ZGHA,2018-07-11 09:00,ZGHA 110900Z 32006MPS 8000 BKN040 35/25 Q0998 NOSIG
ZGHA,2018-07-11 10:00,ZGHA 111000Z 32006MPS 8000 BKN040 35/26 Q0998 NOSIG
ZGHA,2018-07-11 11:00,ZGHA 111100Z 32006MPS 7000 NSC 34/25 Q0998 NOSIG
ZGHA,2018-07-11 12:00,ZGHA 111200Z 34006MPS 8000 NSC 33/25 Q0998 NOSIG
ZGHA,2018-07-11 13:00,ZGHA 111300Z 34006MPS CAVOK 32/25 Q0999 NOSIG
ZGHA,2018-07-11 14:00,ZGHA 111400Z VRB02MPS 7000 -TSRA FEW012 FEW050CB BKN050 28/25 Q1000 NOSIG
ZGHA,2018-07-11 15:00,ZGHA 111500Z 02011MPS 4000 TSRA BR BKN012 SCT040CB BKN040 25/25 Q1001 NOSIG
ZGHA,2018-07-11 16:00,ZGHA 111600Z VRB02MPS CAVOK 26/25 Q1000 RETSRA NOSIG
ZGHA,2018-07-11 17:00,ZGHA 111700Z 24003MPS 190V270 9999 -SHRA FEW009 26/25 Q1000 NOSIG
ZGHA,2018-07-11 18:00,ZGHA 111800Z 20002MPS 170V240 CAVOK 26/26 Q0999 NOSIG
ZGHA,2018-07-11 19:00,ZGHA 111900Z 20002MPS 170V270 9999 SCT050 26/26 Q0999 NOSIG
ZGHA,2018-07-11 20:00,ZGHA 112000Z 17002MPS 7000 BKN004 OVC050 26/26 Q0999 NOSIG
ZGHA,2018-07-11 21:00,ZGHA 112100Z 14002MPS 5000 BR BKN004 OVC050 26/26 Q0999 NOSIG
ZGHA,2018-07-11 22:00,ZGHA 112200Z 17003MPS 2500 -RA BR BKN004 OVC050 26/26 Q1000 NOSIG
ZGHA,2018-07-11 23:00,ZGHA 112300Z 14003MPS 100V160 4500 BR BKN006 OVC050 26/26 Q1000 NOSIG
ZGHA,2018-07-12 00:00,ZGHA 120000Z 15003MPS 6000 BKN007 OVC050 26/26 Q1001 NOSIG
ZGHA,2018-07-12 01:00,ZGHA 120100Z 16004MPS 140V200 6000 BKN006 OVC050 26/26 Q1001 NOSIG
ZGHA,2018-07-12 02:00,ZGHA 120200Z 17004MPS 7000 -RA BKN008 OVC033 26/25 Q1002 BECMG TL0300 BKN011 OVC050
ZGHA,2018-07-12 03:00,ZGHA 120300Z 17003MPS 9999 BKN010 OVC040 27/25 Q1002 BECMG TL0440 BKN016 OVC050
ZGHA,2018-07-12 04:00,ZGHA 120400Z 17003MPS 150V230 9999 BKN013 OVC040 27/26 Q1002 BECMG TL0500 BKN016 OVC050
ZGHA,2018-07-12 05:00,ZGHA 120500Z 28005MPS 7000 RA FEW013 BKN020 OVC040 26/26 Q1002 BECMG TL0540 -RA
ZGHA,2018-07-12 06:00,ZGHA 120600Z 24003MPS 9999 -RA BKN020 OVC050 27/25 Q1001 RERA NOSIG
ZGHA,2018-07-12 07:00,ZGHA 120700Z 19003MPS 140V240 9999 -RA BKN020 OVC050 27/25 Q1001 NOSIG
ZGHA,2018-07-12 08:00,ZGHA 120800Z 19003MPS 9999 BKN020 27/26 Q1001 NOSIG
ZGHA,2018-07-12 09:00,ZGHA 120900Z 18004MPS 9999 BKN020 OVC040 28/25 Q1001 NOSIG
ZGHA,2018-07-12 10:00,ZGHA 121000Z 16005MPS 9999 -RA FEW014 BKN020 OVC040 26/25 Q1001 NOSIG
ZGHA,2018-07-12 11:00,ZGHA 121100Z 17004MPS 160V220 9999 -RA FEW012 BKN020 OVC040 25/24 Q1002 NOSIG
ZGHA,2018-07-12 12:00,ZGHA 121200Z 18002MPS 150V220 9999 -RA BKN023 OVC050 25/24 Q1003 NOSIG
ZGHA,2018-07-12 13:00,ZGHA 121300Z 18003MPS 160V220 9999 -RA SCT020 OVC040 25/24 Q1004 NOSIG
ZGHA,2018-07-12 14:00,ZGHA 121400Z 20003MPS 9999 SCT010 OVC040 25/24 Q1005 NOSIG
ZGHA,2018-07-12 15:00,ZGHA 121500Z 16003MPS 140V200 9999 SCT015 OVC050 25/25 Q1005 NOSIG
ZGHA,2018-07-12 16:00,ZGHA 121600Z 15004MPS CAVOK 25/24 Q1005 NOSIG
ZGHA,2018-07-12 17:00,ZGHA 121700Z 17005MPS CAVOK 25/24 Q1005 NOSIG
ZGHA,2018-07-12 18:00,ZGHA 121800Z 20002MPS CAVOK 24/24 Q1005 NOSIG
ZGHA,2018-07-12 19:00,ZGHA 121900Z 21002MPS CAVOK 24/24 Q1004 NOSIG
ZGHA,2018-07-12 20:00,ZGHA 122000Z 21003MPS CAVOK 24/24 Q1004 NOSIG
ZGHA,2018-07-12 21:00,ZGHA 122100Z 20002MPS CAVOK 24/24 Q1004 NOSIG
ZGHA,2018-07-12 22:00,ZGHA 122200Z 21002MPS CAVOK 24/24 Q1005 NOSIG
ZGHA,2018-07-12 23:00,ZGHA 122300Z 16002MPS 130V220 CAVOK 25/24 Q1005 NOSIG
ZGHA,2018-07-13 00:00,ZGHA 130000Z VRB01MPS CAVOK 27/24 Q1006 NOSIG
ZGHA,2018-07-13 01:00,ZGHA 130100Z 14002MPS 100V200 CAVOK 29/23 Q1006 NOSIG
ZGHA,2018-07-13 02:00,ZGHA 130200Z 16003MPS 130V200 CAVOK 30/23 Q1006 NOSIG
ZGHA,2018-07-13 03:00,ZGHA 130300Z 15002MPS 120V180 CAVOK 30/23 Q1006 NOSIG
ZGHA,2018-07-13 04:00,ZGHA 130400Z 06002MPS CAVOK 31/24 Q1005 NOSIG
ZGHA,2018-07-13 05:00,ZGHA 130500Z 22003G08MPS 160V260 CAVOK 34/23 Q1005 NOSIG
ZGHA,2018-07-13 06:00,ZGHA 130600Z 22003MPS 150V260 9999 FEW040 35/23 Q1004 NOSIG
ZGHA,2018-07-13 07:00,ZGHA 130700Z 23003MPS 180V270 9999 SCT040 35/22 Q1003 NOSIG
ZGHA,2018-07-13 08:00,ZGHA 130800Z 25004MPS 200V270 9999 SCT040 35/23 Q1003 NOSIG
ZGHA,2018-07-13 09:00,ZGHA 130900Z 08004MPS 9999 TS FEW050CB SCT050 32/24 Q1003 BECMG TL1000 NSW
ZGHA,2018-07-13 10:00,ZGHA 131000Z 09005MPS CAVOK 32/24 Q1003 RETS NOSIG
ZGHA,2018-07-13 11:00,ZGHA 131100Z 07003MPS CAVOK 31/24 Q1003 NOSIG
ZGHA,2018-07-13 12:00,ZGHA 131200Z 07003MPS CAVOK 30/24 Q1003 NOSIG
ZGHA,2018-07-13 13:00,ZGHA 131300Z 08003MPS CAVOK 29/25 Q1004 NOSIG
ZGHA,2018-07-13 14:00,ZGHA 131400Z 13002MPS 100V170 CAVOK 28/25 Q1005 NOSIG
ZGHA,2018-07-13 15:00,ZGHA 131500Z VRB01MPS CAVOK 29/25 Q1005 NOSIG
ZGHA,2018-07-13 16:00,ZGHA 131600Z VRB02MPS CAVOK 28/24 Q1005 NOSIG
ZGHA,2018-07-13 17:00,ZGHA 131700Z VRB01MPS CAVOK 28/24 Q1005 NOSIG
ZGHA,2018-07-13 18:00,ZGHA 131800Z VRB01MPS CAVOK 28/25 Q1004 NOSIG
ZGHA,2018-07-13 19:00,ZGHA 131900Z 22002MPS CAVOK 27/26 Q1004 NOSIG
ZGHA,2018-07-13 20:00,ZGHA 132000Z 22002MPS 190V250 CAVOK 27/26 Q1004 NOSIG
ZGHA,2018-07-13 21:00,ZGHA 132100Z 18002MPS CAVOK 27/25 Q1004 NOSIG
ZGHA,2018-07-13 22:00,ZGHA 132200Z 20001MPS CAVOK 26/25 Q1004 NOSIG
ZGHA,2018-07-13 23:00,ZGHA 132300Z 20002MPS 180V240 CAVOK 27/25 Q1004 NOSIG
ZGHA,2018-07-14 00:00,ZGHA 140000Z 15003MPS CAVOK 28/24 Q1005 NOSIG
ZGHA,2018-07-14 01:00,ZGHA 140100Z 15004MPS CAVOK 30/23 Q1005 NOSIG
ZGHA,2018-07-14 02:00,ZGHA 140200Z 16003MPS CAVOK 31/24 Q1006 NOSIG
ZGHA,2018-07-14 03:00,ZGHA 140300Z 15004MPS 100V180 9999 FEW033 33/23 Q1006 NOSIG
ZGHA,2018-07-14 04:00,ZGHA 140400Z 16003MPS 130V210 9999 SCT033 33/23 Q1006 NOSIG
ZGHA,2018-07-14 05:00,ZGHA 140500Z 14004MPS 100V170 9999 SCT040 33/23 Q1005 NOSIG
ZGHA,2018-07-14 06:00,ZGHA 140600Z 16004MPS 140V220 9999 SCT040 34/23 Q1005 NOSIG
ZGHA,2018-07-14 07:00,ZGHA 140700Z 22003MPS 120V270 9999 SCT050 34/23 Q1004 NOSIG
ZGHA,2018-07-14 08:00,ZGHA 140800Z 17004MPS 150V230 9999 SCT050 35/22 Q1003 NOSIG
ZGHA,2018-07-14 09:00,ZGHA 140900Z 18003MPS 150V230 9999 SCT050 35/21 Q1003 NOSIG
ZGHA,2018-07-14 10:00,ZGHA 141000Z VRB02MPS 9999 FEW050 34/23 Q1003 NOSIG
ZGHA,2018-07-14 11:00,ZGHA 141100Z 11003MPS 100V170 9999 FEW050 32/24 Q1003 NOSIG
ZGHA,2018-07-14 12:00,ZGHA 141200Z 12002MPS 080V160 CAVOK 31/25 Q1003 NOSIG
ZGHA,2018-07-14 13:00,ZGHA 141300Z 13002MPS 080V170 CAVOK 31/23 Q1004 NOSIG
ZGHA,2018-07-14 14:00,ZGHA 141400Z 19002MPS 170V240 CAVOK 30/25 Q1005 NOSIG
ZGHA,2018-07-14 15:00,ZGHA 141500Z 14004MPS 090V200 CAVOK 31/23 Q1006 NOSIG
ZGHA,2018-07-14 16:00,ZGHA 141600Z 14002MPS 120V200 CAVOK 30/23 Q1005 NOSIG
ZGHA,2018-07-14 17:00,ZGHA 141700Z VRB01MPS CAVOK 29/23 Q1005 NOSIG
ZGHA,2018-07-14 18:00,ZGHA 141800Z 08001MPS CAVOK 28/23 Q1005 NOSIG
ZGHA,2018-07-14 19:00,ZGHA 141900Z VRB01MPS CAVOK 28/24 Q1004 NOSIG
ZGHA,2018-07-14 20:00,ZGHA 142000Z 00000MPS CAVOK 28/23 Q1004 NOSIG
ZGHA,2018-07-14 21:00,ZGHA 142100Z 26001MPS CAVOK 27/24 Q1005 NOSIG
ZGHA,2018-07-14 22:00,ZGHA 142200Z VRB01MPS CAVOK 27/24 Q1005 NOSIG
ZGHA,2018-07-14 23:00,ZGHA 142300Z VRB01MPS CAVOK 28/23 Q1006 NOSIG
ZGHA,2018-07-15 00:00,ZGHA 150000Z VRB01MPS CAVOK 32/24 Q1006 NOSIG
ZGHA,2018-07-15 01:00,ZGHA 150100Z VRB02MPS CAVOK 33/24 Q1007 NOSIG
ZGHA,2018-07-15 02:00,ZGHA 150200Z 14004MPS 100V190 CAVOK 34/23 Q1007 NOSIG
ZGHA,2018-07-15 03:00,ZGHA 150300Z VRB02MPS 9999 FEW050 35/23 Q1006 NOSIG
ZGHA,2018-07-15 04:00,ZGHA 150400Z 14003MPS 060V180 9999 SCT040 35/22 Q1006 NOSIG
ZGHA,2018-07-15 05:00,ZGHA 150500Z VRB03MPS 9999 FEW040TCU SCT040 36/22 Q1005 NOSIG
ZGHA,2018-07-15 06:00,ZGHA 150600Z VRB02MPS 9999 FEW050TCU SCT050 37/23 Q1005 NOSIG
ZGHA,2018-07-15 07:00,ZGHA 150700Z 13002MPS 070V200 9999 FEW050TCU SCT050 36/21 Q1004 NOSIG
ZGHA,2018-07-15 08:00,ZGHA 150800Z VRB02MPS 9999 FEW050TCU SCT050 36/22 Q1003 NOSIG
ZGHA,2018-07-15 09:00,ZGHA 150900Z VRB01MPS 9999 FEW050TCU FEW050 35/22 Q1003 NOSIG
ZGHA,2018-07-15 10:00,ZGHA 151000Z 18002MPS 130V250 9999 FEW050TCU FEW050 34/24 Q1002 NOSIG
ZGHA,2018-07-15 11:00,ZGHA 151100Z 15003MPS 110V220 9999 SCT050 32/24 Q1004 NOSIG
ZGHA,2018-07-15 12:00,ZGHA 151200Z 13002MPS 080V180 9999 SCT050 31/23 Q1004 NOSIG
ZGHA,2018-07-15 13:00,ZGHA 151300Z 14002MPS 110V180 CAVOK 30/23 Q1005 NOSIG
ZGHA,2018-07-15 14:00,ZGHA 151400Z VRB01MPS CAVOK 30/24 Q1005 NOSIG
ZGHA,2018-07-15 15:00,ZGHA 151500Z VRB01MPS CAVOK 29/24 Q1006 NOSIG
ZGHA,2018-07-15 16:00,ZGHA 151600Z VRB01MPS CAVOK 29/24 Q1005 NOSIG
ZGHA,2018-07-15 17:00,ZGHA 151700Z VRB01MPS CAVOK 28/24 Q1005 NOSIG
ZGHA,2018-07-15 18:00,ZGHA 151800Z 20002MPS 170V230 CAVOK 28/24 Q1005 NOSIG
ZGHA,2018-07-15 19:00,ZGHA 151900Z 00000MPS CAVOK 28/23 Q1005 NOSIG
ZGHA,2018-07-15 20:00,ZGHA 152000Z 04002MPS CAVOK 28/25 Q1005 NOSIG
ZGHA,2018-07-15 21:00,ZGHA 152100Z VRB01MPS CAVOK 27/25 Q1005 NOSIG
ZGHA,2018-07-15 22:00,ZGHA 152200Z 02001MPS CAVOK 27/25 Q1005 NOSIG
ZGHA,2018-07-15 23:00,ZGHA 152300Z VRB01MPS CAVOK 28/25 Q1006 NOSIG
ZGHA,2018-07-16 00:00,ZGHA 160000Z VRB01MPS CAVOK 31/24 Q1006 NOSIG
ZGHA,2018-07-16 01:00,ZGHA 160100Z VRB01MPS CAVOK 33/24 Q1006 NOSIG
ZGHA,2018-07-16 02:00,ZGHA 160200Z VRB02MPS CAVOK 34/23 Q1006 NOSIG
ZGHA,2018-07-16 03:00,ZGHA 160300Z 16003MPS 100V200 9999 FEW050 35/21 Q1006 NOSIG
ZGHA,2018-07-16 04:00,ZGHA 160400Z 23003MPS 160V280 9999 SCT050 36/22 Q1006 NOSIG
ZGHA,2018-07-16 05:00,ZGHA 160500Z VRB01MPS 9999 BKN050 36/22 Q1005 NOSIG
ZGHA,2018-07-16 06:00,ZGHA 160600Z VRB02MPS 9999 SCT050 37/23 Q1005 NOSIG
ZGHA,2018-07-16 07:00,ZGHA 160700Z 10002MPS 030V170 CAVOK 37/22 Q1004 NOSIG
ZGHA,2018-07-16 08:00,ZGHA 160800Z 17003MPS 130V210 CAVOK 37/21 Q1003 NOSIG
ZGHA,2018-07-16 09:00,ZGHA 160900Z 12003MPS 090V160 CAVOK 37/22 Q1003 NOSIG
ZGHA,2018-07-16 10:00,ZGHA 161000Z 10003MPS 070V130 CAVOK 36/22 Q1003 NOSIG
ZGHA,2018-07-16 11:00,ZGHA 161100Z 14002MPS 110V180 CAVOK 35/22 Q1003 NOSIG
ZGHA,2018-07-16 12:00,ZGHA 161200Z 15004MPS 140V200 CAVOK 33/23 Q1004 NOSIG
ZGHA,2018-07-16 13:00,ZGHA 161300Z 11002MPS 080V170 CAVOK 32/23 Q1004 NOSIG
ZGHA,2018-07-16 14:00,ZGHA 161400Z 11003MPS 080V150 CAVOK 31/23 Q1005 NOSIG
ZGHA,2018-07-16 15:00,ZGHA 161500Z 12002MPS 050V170 CAVOK 31/23 Q1005 NOSIG
ZGHA,2018-07-16 16:00,ZGHA 161600Z VRB01MPS CAVOK 30/23 Q1005 NOSIG
ZGHA,2018-07-16 17:00,ZGHA 161700Z 15003MPS 130V200 CAVOK 30/22 Q1005 NOSIG
ZGHA,2018-07-16 18:00,ZGHA 161800Z 14002MPS CAVOK 29/21 Q1004 NOSIG
ZGHA,2018-07-16 19:00,ZGHA 161900Z 20002MPS CAVOK 28/21 Q1005 NOSIG
ZGHA,2018-07-16 20:00,ZGHA 162000Z 16003MPS CAVOK 28/22 Q1005 NOSIG
ZGHA,2018-07-16 21:00,ZGHA 162100Z VRB01MPS CAVOK 27/22 Q1005 NOSIG
ZGHA,2018-07-16 22:00,ZGHA 162200Z VRB01MPS CAVOK 27/22 Q1005 NOSIG
ZGHA,2018-07-16 23:00,ZGHA 162300Z 11002MPS CAVOK 29/22 Q1005 NOSIG
ZGHA,2018-07-17 00:00,ZGHA 170000Z 12002MPS 090V150 CAVOK 31/23 Q1005 NOSIG
ZGHA,2018-07-17 01:00,ZGHA 170100Z VRB02MPS CAVOK 32/23 Q1005 NOSIG
ZGHA,2018-07-17 02:00,ZGHA 170200Z 12003MPS 020V170 CAVOK 34/22 Q1006 NOSIG
ZGHA,2018-07-17 03:00,ZGHA 170300Z 16003MPS 130V220 CAVOK 35/22 Q1005 NOSIG
ZGHA,2018-07-17 04:00,ZGHA 170400Z 16002MPS 100V260 CAVOK 35/22 Q1005 NOSIG
ZGHA,2018-07-17 05:00,ZGHA 170500Z 11003MPS 060V190 9999 SCT050 36/22 Q1004 NOSIG
ZGHA,2018-07-17 06:00,ZGHA 170600Z VRB01MPS 9999 SCT050 36/22 Q1004 NOSIG
ZGHA,2018-07-17 07:00,ZGHA 170700Z 10003MPS 050V160 9999 SCT050 36/21 Q1003 NOSIG
ZGHA,2018-07-17 08:00,ZGHA 170800Z VRB03MPS 9999 SCT050 37/21 Q1003 NOSIG
ZGHA,2018-07-17 09:00,ZGHA 170900Z 13003MPS 070V180 9999 SCT050 37/21 Q1003 NOSIG
ZGHA,2018-07-17 10:00,ZGHA 171000Z 13003MPS 080V180 CAVOK 36/21 Q1003 NOSIG
ZGHA,2018-07-17 11:00,ZGHA 171100Z 13003MPS 100V190 CAVOK 34/22 Q1003 NOSIG
ZGHA,2018-07-17 12:00,ZGHA 171200Z 12002MPS 050V170 CAVOK 33/23 Q1003 NOSIG
ZGHA,2018-07-17 13:00,ZGHA 171300Z 12002MPS 080V180 CAVOK 32/23 Q1004 NOSIG
ZGHA,2018-07-17 14:00,ZGHA 171400Z 11002MPS 060V160 CAVOK 31/22 Q1004 NOSIG
ZGHA,2018-07-17 15:00,ZGHA 171500Z VRB01MPS CAVOK 31/23 Q1004 NOSIG
ZGHA,2018-07-17 16:00,ZGHA 171600Z VRB01MPS CAVOK 30/23 Q1004 NOSIG
ZGHA,2018-07-17 17:00,ZGHA 171700Z VRB01MPS CAVOK 29/23 Q1004 NOSIG
ZGHA,2018-07-17 18:00,ZGHA 171800Z VRB01MPS CAVOK 29/23 Q1004 NOSIG
ZGHA,2018-07-17 19:00,ZGHA 171900Z 14001MPS CAVOK 28/24 Q1004 NOSIG
ZGHA,2018-07-17 20:00,ZGHA 172000Z VRB01MPS CAVOK 29/23 Q1004 NOSIG
ZGHA,2018-07-17 21:00,ZGHA 172100Z 04002MPS CAVOK 29/23 Q1004 NOSIG
ZGHA,2018-07-17 22:00,ZGHA 172200Z 00000MPS CAVOK 28/24 Q1004 NOSIG
ZGHA,2018-07-17 23:00,ZGHA 172300Z VRB01MPS CAVOK 29/24 Q1005 NOSIG
ZGHA,2018-07-18 00:00,ZGHA 180000Z VRB01MPS CAVOK 33/24 Q1005 NOSIG
ZGHA,2018-07-18 01:00,ZGHA 180100Z 14003MPS 100V170 CAVOK 34/23 Q1005 NOSIG
ZGHA,2018-07-18 02:00,ZGHA 180200Z 15004MPS 120V200 CAVOK 34/23 Q1005 NOSIG
ZGHA,2018-07-18 03:00,ZGHA 180300Z 14004MPS 9999 FEW040 35/22 Q1005 NOSIG
ZGHA,2018-07-18 04:00,ZGHA 180400Z 15003MPS 100V270 9999 BKN050 36/23 Q1004 NOSIG
ZGHA,2018-07-18 05:00,ZGHA 180500Z VRB02MPS 9999 BKN050 36/22 Q1004 NOSIG
ZGHA,2018-07-18 06:00,ZGHA 180600Z VRB03MPS 9999 BKN050 37/22 Q1003 NOSIG
ZGHA,2018-07-18 07:00,ZGHA 180700Z VRB03MPS 9999 BKN050 37/22 Q1002 NOSIG
ZGHA,2018-07-18 08:00,ZGHA 180800Z VRB01MPS CAVOK 36/22 Q1002 NOSIG
ZGHA,2018-07-18 09:00,ZGHA 180900Z 11003MPS 060V170 9999 SCT050 37/22 Q1002 NOSIG
ZGHA,2018-07-18 10:00,ZGHA 181000Z 12003MPS 090V160 CAVOK 36/23 Q1002 NOSIG
ZGHA,2018-07-18 11:00,ZGHA 181100Z 10003MPS 070V160 CAVOK 35/23 Q1002 NOSIG
ZGHA,2018-07-18 12:00,ZGHA 181200Z 12002MPS 070V180 CAVOK 33/24 Q1003 NOSIG
ZGHA,2018-07-18 13:00,ZGHA 181300Z 09002MPS 040V150 CAVOK 33/23 Q1003 NOSIG
ZGHA,2018-07-18 14:00,ZGHA 181400Z 10002MPS 050V180 CAVOK 32/22 Q1004 NOSIG
ZGHA,2018-07-18 15:00,ZGHA 181500Z VRB02MPS CAVOK 33/22 Q1004 NOSIG
ZGHA,2018-07-18 16:00,ZGHA 181600Z 12002MPS 080V160 CAVOK 32/22 Q1004 NOSIG
ZGHA,2018-07-18 17:00,ZGHA 181700Z VRB01MPS CAVOK 31/22 Q1004 NOSIG
ZGHA,2018-07-18 18:00,ZGHA 181800Z VRB01MPS CAVOK 31/22 Q1004 NOSIG
ZGHA,2018-07-18 19:00,ZGHA 181900Z VRB01MPS CAVOK 30/23 Q1004 NOSIG
ZGHA,2018-07-18 20:00,ZGHA 182000Z 00000MPS CAVOK 30/23 Q1004 NOSIG
ZGHA,2018-07-18 21:00,ZGHA 182100Z VRB01MPS CAVOK 29/24 Q1005 NOSIG
ZGHA,2018-07-18 22:00,ZGHA 182200Z 22001MPS CAVOK 28/24 Q1005 NOSIG
ZGHA,2018-07-18 23:00,ZGHA 182300Z VRB01MPS CAVOK 29/23 Q1005 NOSIG
ZGHA,2018-07-19 00:00,ZGHA 190000Z VRB01MPS CAVOK 32/24 Q1005 NOSIG
ZGHA,2018-07-19 01:00,ZGHA 190100Z 15002MPS 120V210 CAVOK 34/23 Q1005 NOSIG
ZGHA,2018-07-19 02:00,ZGHA 190200Z 16003MPS 130V210 CAVOK 35/22 Q1005 NOSIG
ZGHA,2018-07-19 03:00,ZGHA 190300Z 17003MPS 140V210 9999 FEW050 35/23 Q1005 NOSIG
ZGHA,2018-07-19 04:00,ZGHA 190400Z 18003MPS 130V240 9999 SCT050 36/22 Q1005 NOSIG
ZGHA,2018-07-19 05:00,ZGHA 190500Z 18003MPS 130V250 9999 FEW050TCU SCT050 36/22 Q1004 NOSIG
ZGHA,2018-07-19 06:00,ZGHA 190600Z 20003MPS 160V240 9999 FEW050TCU SCT050 37/22 Q1003 NOSIG
ZGHA,2018-07-19 07:00,ZGHA 190700Z 13002MPS 010V170 9999 FEW050TCU SCT050 38/22 Q1003 NOSIG
ZGHA,2018-07-19 08:00,ZGHA 190800Z 09003MPS 040V150 9999 FEW050TCU SCT050 38/22 Q1002 NOSIG
ZGHA,2018-07-19 09:00,ZGHA 190900Z 14004MPS 120V180 9999 FEW050TCU FEW050 37/22 Q1002 NOSIG
ZGHA,2018-07-19 10:00,ZGHA 191000Z 15003MPS 110V190 9999 FEW050TCU FEW050 37/23 Q1002 NOSIG
ZGHA,2018-07-19 11:00,ZGHA 191100Z 13003MPS 100V160 9999 FEW050TCU 36/22 Q1002 NOSIG
ZGHA,2018-07-19 12:00,ZGHA 191200Z 14002MPS CAVOK 34/23 Q1002 NOSIG
ZGHA,2018-07-19 13:00,ZGHA 191300Z 14002MPS 100V220 CAVOK 33/23 Q1003 NOSIG
ZGHA,2018-07-19 14:00,ZGHA 191400Z 16002MPS 140V220 CAVOK 32/23 Q1004 NOSIG
ZGHA,2018-07-19 15:00,ZGHA 191500Z 10002MPS 060V140 CAVOK 32/22 Q1004 NOSIG
ZGHA,2018-07-19 16:00,ZGHA 191600Z VRB01MPS CAVOK 32/23 Q1004 NOSIG
ZGHA,2018-07-19 17:00,ZGHA 191700Z 13002MPS 090V160 CAVOK 31/23 Q1004 NOSIG
ZGHA,2018-07-19 18:00,ZGHA 191800Z 15002MPS CAVOK 30/23 Q1003 NOSIG
ZGHA,2018-07-19 19:00,ZGHA 191900Z VRB01MPS CAVOK 30/23 Q1003 NOSIG
ZGHA,2018-07-19 20:00,ZGHA 192000Z 00000MPS CAVOK 29/24 Q1003 NOSIG
ZGHA,2018-07-19 21:00,ZGHA 192100Z VRB01MPS CAVOK 29/23 Q1003 NOSIG
ZGHA,2018-07-19 22:00,ZGHA 192200Z VRB01MPS CAVOK 28/24 Q1004 NOSIG
ZGHA,2018-07-19 23:00,ZGHA 192300Z VRB01MPS CAVOK 29/23 Q1004 NOSIG
ZGHA,2018-07-20 00:00,ZGHA 200000Z VRB01MPS CAVOK 32/24 Q1004 NOSIG
ZGHA,2018-07-20 01:00,ZGHA 200100Z VRB01MPS CAVOK 33/24 Q1004 NOSIG
ZGHA,2018-07-20 02:00,ZGHA 200200Z VRB02MPS CAVOK 34/24 Q1004 NOSIG
ZGHA,2018-07-20 03:00,ZGHA 200300Z 17002MPS 100V220 CAVOK 35/23 Q1004 NOSIG
ZGHA,2018-07-20 04:00,ZGHA 200400Z VRB02MPS 9999 FEW050 37/23 Q1004 NOSIG
ZGHA,2018-07-20 05:00,ZGHA 200500Z 17003MPS 130V220 9999 FEW050 37/22 Q1003 NOSIG
ZGHA,2018-07-20 06:00,ZGHA 200600Z 10003MPS 070V170 9999 FEW050 38/23 Q1002 NOSIG
ZGHA,2018-07-20 07:00,ZGHA 200700Z VRB02G07MPS 9999 SCT050 38/22 Q1002 NOSIG
ZGHA,2018-07-20 08:00,ZGHA 200800Z 09002MPS 020V180 9999 FEW050 38/21 Q1001 NOSIG
ZGHA,2018-07-20 09:00,ZGHA 200900Z 07002MPS 040V110 9999 SCT050 38/21 Q1001 NOSIG
ZGHA,2018-07-20 10:00,ZGHA 201000Z 13003MPS 100V180 9999 FEW050 37/22 Q1001 NOSIG
ZGHA,2018-07-20 11:00,ZGHA 201100Z 12002MPS 080V190 CAVOK 36/23 Q1001 NOSIG
ZGHA,2018-07-20 12:00,ZGHA 201200Z 15003MPS 120V180 CAVOK 35/24 Q1001 NOSIG
ZGHA,2018-07-20 13:00,ZGHA 201300Z 15002MPS 130V190 CAVOK 33/23 Q1002 NOSIG
ZGHA,2018-07-20 14:00,ZGHA 201400Z 14002MPS 120V200 CAVOK 32/23 Q1002 NOSIG
ZGHA,2018-07-20 15:00,ZGHA 201500Z VRB01MPS CAVOK 32/24 Q1003 NOSIG
ZGHA,2018-07-20 16:00,ZGHA 201600Z 22002MPS 190V270 CAVOK 30/24 Q1003 NOSIG
ZGHA,2018-07-20 17:00,ZGHA 201700Z 19002MPS 150V270 CAVOK 30/24 Q1003 NOSIG
ZGHA,2018-07-20 18:00,ZGHA 201800Z VRB01MPS CAVOK 30/24 Q1003 NOSIG
ZGHA,2018-07-20 19:00,ZGHA 201900Z 16002MPS CAVOK 30/24 Q1002 NOSIG
ZGHA,2018-07-20 20:00,ZGHA 202000Z 22001MPS CAVOK 29/24 Q1002 NOSIG
ZGHA,2018-07-20 21:00,ZGHA 202100Z 06002MPS CAVOK 28/25 Q1003 NOSIG
ZGHA,2018-07-20 22:00,ZGHA 202200Z VRB01MPS CAVOK 29/25 Q1003 NOSIG
ZGHA,2018-07-20 23:00,ZGHA 202300Z VRB01MPS CAVOK 30/24 Q1003 NOSIG
ZGHA,2018-07-21 00:00,ZGHA 210000Z VRB01MPS CAVOK 32/25 Q1003 NOSIG
ZGHA,2018-07-21 01:00,ZGHA 210100Z 15002MPS 110V200 CAVOK 33/25 Q1003 NOSIG
ZGHA,2018-07-21 02:00,ZGHA 210200Z 15002MPS 110V280 CAVOK 35/23 Q1003 NOSIG
ZGHA,2018-07-21 03:00,ZGHA 210300Z VRB01MPS 9999 FEW050 36/24 Q1003 NOSIG
ZGHA,2018-07-21 04:00,ZGHA 210400Z VRB02MPS 9999 SCT050 37/22 Q1002 NOSIG
ZGHA,2018-07-21 05:00,ZGHA 210500Z VRB04MPS 9999 SCT050 38/21 Q1002 NOSIG
ZGHA,2018-07-21 06:00,ZGHA 210600Z 03004MPS 330V090 9999 SCT050 38/21 Q1001 NOSIG
ZGHA,2018-07-21 07:00,ZGHA 210700Z 03002MPS 320V120 9999 BKN050 39/20 Q1001 NOSIG
ZGHA,2018-07-21 08:00,ZGHA 210800Z 04005MPS 010V140 9999 BKN050 39/18 Q1000 NOSIG
ZGHA,2018-07-21 09:00,ZGHA 210900Z 02004MPS 9999 FEW050 38/19 Q0999 NOSIG
ZGHA,2018-07-21 10:00,ZGHA 211000Z 36005MPS 9999 FEW050 37/22 Q0999 NOSIG
ZGHA,2018-07-21 11:00,ZGHA 211100Z 36005MPS CAVOK 35/23 Q1000 NOSIG
ZGHA,2018-07-21 12:00,ZGHA 211200Z 35004MPS CAVOK 35/23 Q1000 NOSIG
ZGHA,2018-07-21 13:00,ZGHA 211300Z 36004MPS 330V030 CAVOK 34/24 Q1001 NOSIG
ZGHA,2018-07-21 14:00,ZGHA 211400Z 05002MPS CAVOK 32/25 Q1002 NOSIG
ZGHA,2018-07-21 15:00,ZGHA 211500Z 01002MPS CAVOK 33/24 Q1002 NOSIG
ZGHA,2018-07-21 16:00,ZGHA 211600Z 36001MPS CAVOK 32/25 Q1002 NOSIG
ZGHA,2018-07-21 17:00,ZGHA 211700Z 11002MPS 070V130 CAVOK 31/26 Q1001 NOSIG
ZGHA,2018-07-21 18:00,ZGHA 211800Z VRB01MPS CAVOK 30/26 Q1001 NOSIG
ZGHA,2018-07-21 19:00,ZGHA 211900Z VRB01MPS CAVOK 29/26 Q1001 NOSIG
ZGHA,2018-07-21 20:00,ZGHA 212000Z 10002MPS CAVOK 29/25 Q1000 NOSIG
ZGHA,2018-07-21 21:00,ZGHA 212100Z VRB01MPS CAVOK 29/25 Q1001 NOSIG
ZGHA,2018-07-21 22:00,ZGHA 212200Z 02002MPS CAVOK 29/25 Q1001 NOSIG
ZGHA,2018-07-21 23:00,ZGHA 212300Z 03002MPS CAVOK 30/25 Q1002 NOSIG
ZGHA,2018-07-22 00:00,ZGHA 220000Z 02003MPS CAVOK 31/24 Q1002 NOSIG
ZGHA,2018-07-22 01:00,ZGHA 220100Z 03002MPS 330V070 CAVOK 33/25 Q1002 NOSIG
ZGHA,2018-07-22 02:00,ZGHA 220200Z 09002MPS 010V130 CAVOK 34/24 Q1002 NOSIG
ZGHA,2018-07-22 03:00,ZGHA 220300Z VRB02MPS CAVOK 36/23 Q1002 NOSIG
ZGHA,2018-07-22 04:00,ZGHA 220400Z VRB02MPS 9999 SCT043 36/23 Q1001 NOSIG
ZGHA,2018-07-22 05:00,ZGHA 220500Z 34007G16MPS 300V030 CAVOK 36/21 Q1000 BECMG TL0540 TSRA
ZGHA,2018-07-22 06:00,ZGHA 220600Z 28004MPS 230V300 1500 TSRA BR FEW012 FEW050CB BKN050 25/24 Q1002 BECMG TL0640 NSW
ZGHA,2018-07-22 07:00,ZGHA 220700Z VRB02MPS CAVOK 28/23 Q1000 RETSRA BECMG TL0800 TSRA
ZGHA,2018-07-22 08:00,ZGHA 220800Z 19002MPS 160V240 9999 -RA NSC 27/25 Q1000 NOSIG
ZGHA,2018-07-22 09:00,ZGHA 220900Z 21004MPS CAVOK 27/24 Q1000 NOSIG
ZGHA,2018-07-22 10:00,ZGHA 221000Z 18003MPS CAVOK 28/25 Q1001 NOSIG
ZGHA,2018-07-22 11:00,ZGHA 221100Z 16004MPS CAVOK 27/24 Q1001 NOSIG
ZGHA,2018-07-22 12:00,ZGHA 221200Z 15004MPS 130V190 CAVOK 27/24 Q1002 NOSIG
ZGHA,2018-07-22 13:00,ZGHA 221300Z 20002MPS 170V240 CAVOK 27/24 Q1002 NOSIG
ZGHA,2018-07-22 14:00,ZGHA 221400Z 24002MPS 180V280 CAVOK 27/25 Q1002 NOSIG
ZGHA,2018-07-22 15:00,ZGHA 221500Z 22002MPS 200V260 CAVOK 27/25 Q1003 NOSIG
ZGHA,2018-07-22 16:00,ZGHA 221600Z 22003MPS 190V250 CAVOK 26/25 Q1003 NOSIG
ZGHA,2018-07-22 17:00,ZGHA 221700Z 18002MPS 9999 SCT050 26/25 Q1002 NOSIG
ZGHA,2018-07-22 18:00,ZGHA 221800Z 13002MPS 9000 NSC 26/25 Q1001 NOSIG
ZGHA,2018-07-22 19:00,ZGHA 221900Z 15002MPS 9000 NSC 26/25 Q1001 NOSIG
ZGHA,2018-07-22 20:00,ZGHA 222000Z VRB01MPS 9000 NSC 26/25 Q1001 NOSIG
ZGHA,2018-07-22 21:00,ZGHA 222100Z 17002MPS 9000 NSC 26/25 Q1001 NOSIG
ZGHA,2018-07-22 22:00,ZGHA 222200Z 18002MPS 5000 BR NSC 26/25 Q1002 NOSIG
ZGHA,2018-07-22 23:00,ZGHA 222300Z 17003MPS 6000 NSC 26/25 Q1002 NOSIG
ZGHA,2018-07-23 00:00,ZGHA 230000Z 19003MPS 160V220 8000 NSC 27/25 Q1002 NOSIG
ZGHA,2018-07-23 01:00,ZGHA 230100Z 18003MPS 140V240 9000 FEW050 28/24 Q1003 NOSIG
ZGHA,2018-07-23 02:00,ZGHA 230200Z 18003MPS 150V220 9999 FEW050 30/23 Q1003 NOSIG
ZGHA,2018-07-23 03:00,ZGHA 230300Z 19002MPS 130V260 9999 FEW050 33/24 Q1002 NOSIG
ZGHA,2018-07-23 04:00,ZGHA 230400Z 24003MPS 180V270 9999 SCT030 34/24 Q1002 NOSIG
ZGHA,2018-07-23 05:00,ZGHA 230500Z 24003MPS 190V290 9999 FEW040TCU SCT040 35/24 Q1001 NOSIG
ZGHA,2018-07-23 06:00,ZGHA 230600Z VRB02G07MPS 9999 FEW040TCU SCT040 35/24 Q1001 NOSIG
ZGHA,2018-07-23 07:00,ZGHA 230700Z 32004MPS 9999 FEW040CB SCT040 34/25 Q1000 NOSIG
ZGHA,2018-07-23 08:00,ZGHA 230800Z 33005MPS 9999 FEW050CB 33/25 Q1001 RETS BECMG TL0820 TSRA BKN011 FEW040CB OVC050
ZGHA,2018-07-23 09:00,ZGHA 230900Z 04009MPS 9999 -TSRA FEW050CB FEW050 26/25 Q1001 BECMG TL0930 -SHRA
ZGHA,2018-07-23 10:00,ZGHA 231000Z 07006MPS 9999 FEW050TCU 29/23 Q1001 RETS NOSIG
ZGHA,2018-07-23 11:00,ZGHA 231100Z 36001MPS CAVOK 29/24 Q1001 NOSIG
ZGHA,2018-07-23 12:00,ZGHA 231200Z 03003MPS 350V060 CAVOK 27/24 Q1001 NOSIG
ZGHA,2018-07-23 13:00,ZGHA 231300Z 03002MPS 360V060 CAVOK 27/25 Q1002 NOSIG
ZGHA,2018-07-23 14:00,ZGHA 231400Z 04002MPS 350V070 CAVOK 26/25 Q1002 NOSIG
ZGHA,2018-07-23 15:00,ZGHA 231500Z 03002MPS 300V080 CAVOK 26/26 Q1003 NOSIG
ZGHA,2018-07-23 16:00,ZGHA 231600Z 04002MPS 020V080 CAVOK 26/25 Q1003 NOSIG
ZGHA,2018-07-23 17:00,ZGHA 231700Z 05002MPS 010V090 CAVOK 26/25 Q1003 NOSIG
ZGHA,2018-07-23 18:00,ZGHA 231800Z 04002MPS CAVOK 26/26 Q1002 NOSIG
ZGHA,2018-07-23 19:00,ZGHA 231900Z 06002MPS 020V080 CAVOK 26/25 Q1002 NOSIG
ZGHA,2018-07-23 20:00,ZGHA 232000Z VRB01MPS CAVOK 26/25 Q1002 NOSIG
ZGHA,2018-07-23 21:00,ZGHA 232100Z VRB01MPS CAVOK 26/25 Q1003 NOSIG
ZGHA,2018-07-23 22:00,ZGHA 232200Z 04002MPS 8000 NSC 26/25 Q1003 NOSIG
ZGHA,2018-07-23 23:00,ZGHA 232300Z VRB01MPS 8000 NSC 27/26 Q1004 NOSIG
ZGHA,2018-07-24 00:00,ZGHA 240000Z VRB01MPS CAVOK 29/26 Q1004 NOSIG
ZGHA,2018-07-24 01:00,ZGHA 240100Z VRB02MPS CAVOK 30/24 Q1004 NOSIG
ZGHA,2018-07-24 02:00,ZGHA 240200Z VRB01MPS CAVOK 32/24 Q1004 NOSIG
ZGHA,2018-07-24 03:00,ZGHA 240300Z 09002MPS 050V130 CAVOK 34/25 Q1004 NOSIG
ZGHA,2018-07-24 04:00,ZGHA 240400Z VRB02MPS 9999 SCT033 35/24 Q1003 NOSIG
ZGHA,2018-07-24 05:00,ZGHA 240500Z VRB01MPS 9999 SCT040 37/22 Q1003 NOSIG
ZGHA,2018-07-24 06:00,ZGHA 240600Z VRB02MPS 9999 FEW050TCU SCT050 37/22 Q1002 NOSIG
ZGHA,2018-07-24 07:00,ZGHA 240700Z 08003MPS 040V180 9999 FEW050TCU SCT050 35/23 Q1001 NOSIG
ZGHA,2018-07-24 08:00,ZGHA 240800Z 16002MPS 130V250 9999 FEW050TCU 37/23 Q1001 NOSIG
ZGHA,2018-07-24 09:00,ZGHA 240900Z 12004MPS 080V170 9999 FEW050 36/24 Q1001 RETS NOSIG
ZGHA,2018-07-24 10:00,ZGHA 241000Z 13002MPS 050V190 9999 FEW050CB FEW050 33/23 Q1001 NOSIG
ZGHA,2018-07-24 11:00,ZGHA 241100Z 26003MPS 230V290 CAVOK 32/24 Q1001 NOSIG
ZGHA,2018-07-24 12:00,ZGHA 241200Z 18002MPS 140V240 CAVOK 32/24 Q1002 NOSIG
ZGHA,2018-07-24 13:00,ZGHA 241300Z VRB01MPS CAVOK 31/24 Q1003 NOSIG
ZGHA,2018-07-24 14:00,ZGHA 241400Z 05002MPS 020V100 CAVOK 30/25 Q1003 NOSIG
ZGHA,2018-07-24 15:00,ZGHA 241500Z 16003MPS 110V200 CAVOK 30/25 Q1004 NOSIG
ZGHA,2018-07-24 16:00,ZGHA 241600Z 18003MPS 160V220 CAVOK 29/25 Q1004 NOSIG
ZGHA,2018-07-24 17:00,ZGHA 241700Z 17003MPS 150V240 CAVOK 29/23 Q1004 NOSIG
ZGHA,2018-07-24 18:00,ZGHA 241800Z 18002MPS 160V220 CAVOK 28/23 Q1003 NOSIG
ZGHA,2018-07-24 19:00,ZGHA 241900Z 17002MPS CAVOK 28/23 Q1003 NOSIG
ZGHA,2018-07-24 20:00,ZGHA 242000Z 18002MPS CAVOK 27/23 Q1003 NOSIG
ZGHA,2018-07-24 21:00,ZGHA 242100Z 19003MPS CAVOK 27/24 Q1003 NOSIG
ZGHA,2018-07-24 22:00,ZGHA 242200Z 18002MPS CAVOK 27/25 Q1004 NOSIG
ZGHA,2018-07-24 23:00,ZGHA 242300Z 16003MPS 140V210 CAVOK 28/24 Q1004 NOSIG
ZGHA,2018-07-25 00:00,ZGHA 250000Z 16003MPS 130V200 CAVOK 31/23 Q1005 NOSIG
ZGHA,2018-07-25 01:00,ZGHA 250100Z 18004MPS 160V220 CAVOK 32/23 Q1005 NOSIG
ZGHA,2018-07-25 02:00,ZGHA 250200Z 17004MPS 130V210 CAVOK 33/23 Q1005 NOSIG
ZGHA,2018-07-25 03:00,ZGHA 250300Z 21005MPS CAVOK 34/23 Q1005 NOSIG
ZGHA,2018-07-25 04:00,ZGHA 250400Z 19004MPS 160V240 9999 FEW050 36/22 Q1005 NOSIG
ZGHA,2018-07-25 05:00,ZGHA 250500Z 21006MPS 180V240 9999 SCT050 36/21 Q1004 NOSIG
ZGHA,2018-07-25 06:00,ZGHA 250600Z 20005MPS 9999 BKN050 35/22 Q1004 NOSIG
ZGHA,2018-07-25 07:00,ZGHA 250700Z 20005MPS 170V230 9999 BKN050 36/22 Q1003 NOSIG
ZGHA,2018-07-25 08:00,ZGHA 250800Z 18006MPS 9999 SCT050 36/22 Q1002 NOSIG
ZGHA,2018-07-25 09:00,ZGHA 250900Z 17006MPS 140V210 9999 FEW050 36/22 Q1002 NOSIG
ZGHA,2018-07-25 10:00,ZGHA 251000Z 14006MPS CAVOK 35/23 Q1002 NOSIG
ZGHA,2018-07-25 11:00,ZGHA 251100Z 15004MPS CAVOK 33/23 Q1003 NOSIG
ZGHA,2018-07-25 12:00,ZGHA 251200Z 16003MPS 120V210 CAVOK 32/23 Q1004 NOSIG
ZGHA,2018-07-25 13:00,ZGHA 251300Z 14002MPS 120V190 CAVOK 32/23 Q1005 NOSIG
ZGHA,2018-07-25 14:00,ZGHA 251400Z 14002MPS 120V200 CAVOK 31/23 Q1005 NOSIG
ZGHA,2018-07-25 15:00,ZGHA 251500Z VRB01MPS CAVOK 30/23 Q1005 NOSIG
ZGHA,2018-07-25 16:00,ZGHA 251600Z VRB01MPS CAVOK 30/24 Q1004 NOSIG
ZGHA,2018-07-25 17:00,ZGHA 251700Z VRB01MPS CAVOK 29/23 Q1004 NOSIG
ZGHA,2018-07-25 18:00,ZGHA 251800Z 20002MPS 160V220 CAVOK 28/24 Q1004 NOSIG
ZGHA,2018-07-25 19:00,ZGHA 251900Z 15004MPS CAVOK 29/24 Q1004 NOSIG
ZGHA,2018-07-25 20:00,ZGHA 252000Z 16003MPS CAVOK 29/24 Q1004 NOSIG
ZGHA,2018-07-25 21:00,ZGHA 252100Z 17002MPS CAVOK 28/24 Q1005 NOSIG
ZGHA,2018-07-25 22:00,ZGHA 252200Z 18003MPS CAVOK 28/24 Q1005 NOSIG
ZGHA,2018-07-25 23:00,ZGHA 252300Z 16004MPS CAVOK 29/24 Q1006 NOSIG
ZGHA,2018-07-26 00:00,ZGHA 260000Z 17004MPS CAVOK 30/23 Q1006 NOSIG
ZGHA,2018-07-26 01:00,ZGHA 260100Z 19005MPS CAVOK 32/23 Q1007 NOSIG
ZGHA,2018-07-26 02:00,ZGHA 260200Z 19004MPS 160V220 CAVOK 33/23 Q1007 NOSIG
ZGHA,2018-07-26 03:00,ZGHA 260300Z 20006MPS 9999 SCT050 34/21 Q1007 NOSIG
ZGHA,2018-07-26 04:00,ZGHA 260400Z 21004MPS 160V270 9999 SCT050 35/22 Q1006 NOSIG
ZGHA,2018-07-26 05:00,ZGHA 260500Z 22004G10MPS 160V240 9999 SCT050 36/22 Q1006 NOSIG
ZGHA,2018-07-26 06:00,ZGHA 260600Z 19004MPS 150V240 9999 SCT050 36/22 Q1005 NOSIG
ZGHA,2018-07-26 07:00,ZGHA 260700Z 17005MPS 130V200 9999 SCT050 37/22 Q1003 NOSIG
ZGHA,2018-07-26 08:00,ZGHA 260800Z 19005MPS 160V220 9999 FEW050 36/20 Q1003 NOSIG
ZGHA,2018-07-26 09:00,ZGHA 260900Z 18005MPS 150V220 9999 SCT050 37/22 Q1002 NOSIG
ZGHA,2018-07-26 10:00,ZGHA 261000Z 16005MPS 9999 FEW050 36/20 Q1002 NOSIG
ZGHA,2018-07-26 11:00,ZGHA 261100Z 15003MPS 130V200 CAVOK 35/21 Q1003 NOSIG
ZGHA,2018-07-26 12:00,ZGHA 261200Z 15003MPS 120V200 CAVOK 34/23 Q1004 NOSIG
ZGHA,2018-07-26 13:00,ZGHA 261300Z 13003MPS CAVOK 33/24 Q1004 NOSIG
ZGHA,2018-07-26 14:00,ZGHA 261400Z 14002MPS 110V180 CAVOK 32/24 Q1004 NOSIG
ZGHA,2018-07-26 15:00,ZGHA 261500Z 17002MPS 150V240 CAVOK 31/24 Q1004 NOSIG
ZGHA,2018-07-26 16:00,ZGHA 261600Z 19002MPS CAVOK 30/24 Q1004 NOSIG
ZGHA,2018-07-26 17:00,ZGHA 261700Z VRB01MPS CAVOK 30/24 Q1004 NOSIG
ZGHA,2018-07-26 18:00,ZGHA 261800Z 20002MPS 170V270 CAVOK 29/24 Q1004 NOSIG
ZGHA,2018-07-26 19:00,ZGHA 261900Z 19002MPS CAVOK 29/24 Q1004 NOSIG
ZGHA,2018-07-26 20:00,ZGHA 262000Z VRB01MPS CAVOK 29/24 Q1003 NOSIG
ZGHA,2018-07-26 21:00,ZGHA 262100Z 21002MPS 170V240 CAVOK 28/24 Q1004 NOSIG
ZGHA,2018-07-26 22:00,ZGHA 262200Z 19003MPS CAVOK 28/24 Q1004 NOSIG
ZGHA,2018-07-26 23:00,ZGHA 262300Z 16004MPS CAVOK 30/23 Q1005 NOSIG
ZGHA,2018-07-27 00:00,ZGHA 270000Z 17004MPS CAVOK 31/23 Q1006 NOSIG
ZGHA,2018-07-27 01:00,ZGHA 270100Z 19004MPS CAVOK 32/23 Q1006 NOSIG
ZGHA,2018-07-27 02:00,ZGHA 270200Z 16004MPS CAVOK 33/23 Q1006 NOSIG
ZGHA,2018-07-27 03:00,ZGHA 270300Z 20004MPS 160V240 CAVOK 34/22 Q1006 NOSIG
ZGHA,2018-07-27 04:00,ZGHA 270400Z 18004MPS 140V230 9999 FEW040 36/22 Q1006 NOSIG
ZGHA,2018-07-27 05:00,ZGHA 270500Z 18004MPS 140V270 9999 SCT050 36/21 Q1005 NOSIG
ZGHA,2018-07-27 06:00,ZGHA 270600Z 18004MPS 130V240 9999 BKN050 36/21 Q1004 NOSIG
ZGHA,2018-07-27 07:00,ZGHA 270700Z 20006MPS 170V230 9999 SCT050 38/21 Q1003 NOSIG
ZGHA,2018-07-27 08:00,ZGHA 270800Z 20004MPS 160V230 9999 SCT050 38/20 Q1003 NOSIG
ZGHA,2018-07-27 09:00,ZGHA 270900Z 21004MPS 180V240 9999 SCT050 37/19 Q1002 NOSIG
ZGHA,2018-07-27 10:00,ZGHA 271000Z 22003MPS 190V250 9999 FEW050 36/20 Q1002 NOSIG
ZGHA,2018-07-27 11:00,ZGHA 271100Z 16003MPS 120V200 CAVOK 35/22 Q1003 NOSIG
ZGHA,2018-07-27 12:00,ZGHA 271200Z 15002MPS CAVOK 34/23 Q1004 NOSIG
ZGHA,2018-07-27 13:00,ZGHA 271300Z VRB03MPS CAVOK 33/24 Q1005 NOSIG
ZGHA,2018-07-27 14:00,ZGHA 271400Z 15003MPS 140V200 CAVOK 32/24 Q1006 NOSIG
ZGHA,2018-07-27 15:00,ZGHA 271500Z 18002MPS 160V240 CAVOK 31/23 Q1006 NOSIG
ZGHA,2018-07-27 16:00,ZGHA 271600Z 23003MPS 210V270 CAVOK 30/24 Q1006 NOSIG
ZGHA,2018-07-27 17:00,ZGHA 271700Z 18002MPS 160V240 CAVOK 30/23 Q1005 NOSIG
ZGHA,2018-07-27 18:00,ZGHA 271800Z 15003MPS CAVOK 30/23 Q1005 NOSIG
ZGHA,2018-07-27 19:00,ZGHA 271900Z 18002MPS CAVOK 29/24 Q1005 NOSIG
ZGHA,2018-07-27 20:00,ZGHA 272000Z VRB01MPS CAVOK 29/24 Q1004 NOSIG
ZGHA,2018-07-27 21:00,ZGHA 272100Z 16002MPS CAVOK 29/24 Q1005 NOSIG
ZGHA,2018-07-27 22:00,ZGHA 272200Z 19002MPS CAVOK 28/24 Q1005 NOSIG
ZGHA,2018-07-27 23:00,ZGHA 272300Z 19002MPS 160V230 CAVOK 29/24 Q1006 NOSIG
ZGHA,2018-07-28 00:00,ZGHA 280000Z 16004MPS CAVOK 31/23 Q1006 NOSIG
ZGHA,2018-07-28 01:00,ZGHA 280100Z 20004MPS 170V240 CAVOK 32/23 Q1006 NOSIG
ZGHA,2018-07-28 02:00,ZGHA 280200Z 19004MPS 150V220 CAVOK 34/23 Q1006 NOSIG
ZGHA,2018-07-28 03:00,ZGHA 280300Z 20004MPS 130V280 9999 FEW050 36/23 Q1006 NOSIG
ZGHA,2018-07-28 04:00,ZGHA 280400Z 20003MPS 150V260 9999 FEW050 36/22 Q1005 NOSIG
ZGHA,2018-07-28 05:00,ZGHA 280500Z 25003MPS 180V300 9999 SCT050 37/21 Q1005 NOSIG
ZGHA,2018-07-28 06:00,ZGHA 280600Z 19003MPS 150V240 9999 SCT050 37/21 Q1004 NOSIG
ZGHA,2018-07-28 07:00,ZGHA 280700Z 23003MPS 150V290 CAVOK 38/20 Q1003 NOSIG
ZGHA,2018-07-28 08:00,ZGHA 280800Z 20004MPS 150V240 CAVOK 38/20 Q1003 NOSIG
ZGHA,2018-07-28 09:00,ZGHA 280900Z 15004MPS 120V200 CAVOK 37/20 Q1003 NOSIG
ZGHA,2018-07-28 10:00,ZGHA 281000Z 14004MPS 130V190 CAVOK 35/22 Q1003 NOSIG
ZGHA,2018-07-28 11:00,ZGHA 281100Z 16002MPS 140V260 CAVOK 35/22 Q1003 NOSIG
ZGHA,2018-07-28 12:00,ZGHA 281200Z VRB01MPS CAVOK 33/24 Q1003 NOSIG
ZGHA,2018-07-28 13:00,ZGHA 281300Z 10002MPS 050V220 CAVOK 33/23 Q1004 NOSIG
ZGHA,2018-07-28 14:00,ZGHA 281400Z VRB02MPS CAVOK 32/23 Q1005 NOSIG
ZGHA,2018-07-28 15:00,ZGHA 281500Z 05002MPS CAVOK 30/24 Q1005 NOSIG
ZGHA,2018-07-28 16:00,ZGHA 281600Z 04003MPS 010V090 CAVOK 29/23 Q1005 NOSIG
ZGHA,2018-07-28 17:00,ZGHA 281700Z 04001MPS CAVOK 28/23 Q1005 NOSIG
ZGHA,2018-07-28 18:00,ZGHA 281800Z VRB01MPS CAVOK 28/23 Q1004 NOSIG
ZGHA,2018-07-28 19:00,ZGHA 281900Z VRB01MPS CAVOK 28/23 Q1004 NOSIG
ZGHA,2018-07-28 20:00,ZGHA 282000Z 24001MPS CAVOK 27/24 Q1004 NOSIG
ZGHA,2018-07-28 21:00,ZGHA 282100Z 08001MPS CAVOK 28/24 Q1004 NOSIG
ZGHA,2018-07-28 22:00,ZGHA 282200Z VRB01MPS CAVOK 27/24 Q1005 NOSIG
ZGHA,2018-07-28 23:00,ZGHA 282300Z 00000MPS CAVOK 29/24 Q1005 NOSIG
ZGHA,2018-07-29 00:00,ZGHA 290000Z 12002MPS 080V170 CAVOK 31/23 Q1005 NOSIG
ZGHA,2018-07-29 01:00,ZGHA 290100Z 16004MPS 140V220 CAVOK 33/22 Q1005 NOSIG
ZGHA,2018-07-29 02:00,ZGHA 290200Z 18003MPS 150V210 CAVOK 34/22 Q1006 NOSIG
ZGHA,2018-07-29 03:00,ZGHA 290300Z 17003MPS 120V200 CAVOK 36/22 Q1005 NOSIG
ZGHA,2018-07-29 04:00,ZGHA 290400Z 20003MPS 150V280 9999 FEW050 37/21 Q1005 NOSIG
ZGHA,2018-07-29 05:00,ZGHA 290500Z VRB02MPS 9999 SCT050 38/21 Q1004 NOSIG
ZGHA,2018-07-29 06:00,ZGHA 290600Z 16004MPS 140V240 9999 SCT050 39/19 Q1003 NOSIG
ZGHA,2018-07-29 07:00,ZGHA 290700Z 20003MPS 150V260 9999 FEW050TCU SCT050 38/19 Q1002 NOSIG
ZGHA,2018-07-29 08:00,ZGHA 290800Z 22004MPS 160V250 9999 FEW050TCU FEW050 38/18 Q1002 NOSIG
ZGHA,2018-07-29 09:00,ZGHA 290900Z 32006MPS 9999 FEW050TCU SCT050 36/23 Q1002 BECMG TL1040 18004MPS
ZGHA,2018-07-29 10:00,ZGHA 291000Z 34004MPS 310V010 9999 FEW050TCU SCT050 34/22 Q1002 NOSIG
ZGHA,2018-07-29 11:00,ZGHA 291100Z 03003MPS 9999 FEW050 32/23 Q1003 NOSIG
ZGHA,2018-07-29 12:00,ZGHA 291200Z 36004MPS 9999 FEW050 31/24 Q1003 BECMG TL1320 -TSRA
ZGHA,2018-07-29 13:00,ZGHA 291300Z 04004MPS 9999 FEW050 30/24 Q1005 BECMG TL1340 15005MPS TSRA
ZGHA,2018-07-29 14:00,ZGHA 291400Z 18003MPS 120V250 9999 FEW050 29/21 Q1005 NOSIG
ZGHA,2018-07-29 15:00,ZGHA 291500Z VRB01MPS CAVOK 28/20 Q1005 NOSIG
ZGHA,2018-07-29 16:00,ZGHA 291600Z VRB01MPS CAVOK 28/21 Q1004 NOSIG
ZGHA,2018-07-29 17:00,ZGHA 291700Z VRB01MPS CAVOK 27/22 Q1004 NOSIG
ZGHA,2018-07-29 18:00,ZGHA 291800Z VRB01MPS CAVOK 27/23 Q1004 NOSIG
ZGHA,2018-07-29 19:00,ZGHA 291900Z 29001MPS CAVOK 27/23 Q1004 NOSIG
ZGHA,2018-07-29 20:00,ZGHA 292000Z 24002MPS 200V280 CAVOK 27/23 Q1004 NOSIG
ZGHA,2018-07-29 21:00,ZGHA 292100Z 19001MPS CAVOK 26/22 Q1003 NOSIG
ZGHA,2018-07-29 22:00,ZGHA 292200Z 12001MPS CAVOK 26/23 Q1004 NOSIG
ZGHA,2018-07-29 23:00,ZGHA 292300Z VRB01MPS CAVOK 27/23 Q1004 NOSIG
ZGHA,2018-07-30 00:00,ZGHA 300000Z VRB01MPS CAVOK 28/24 Q1004 NOSIG
ZGHA,2018-07-30 01:00,ZGHA 300100Z 18002MPS 140V230 CAVOK 29/22 Q1005 NOSIG
ZGHA,2018-07-30 02:00,ZGHA 300200Z 16003MPS 140V200 CAVOK 32/23 Q1005 NOSIG
ZGHA,2018-07-30 03:00,ZGHA 300300Z 19003MPS 140V230 CAVOK 32/22 Q1005 NOSIG
ZGHA,2018-07-30 04:00,ZGHA 300400Z VRB02MPS CAVOK 34/23 Q1005 NOSIG
ZGHA,2018-07-30 05:00,ZGHA 300500Z VRB03MPS 9999 SCT050 37/21 Q1004 NOSIG
ZGHA,2018-07-30 06:00,ZGHA 300600Z 21003MPS 150V270 9999 SCT050 38/20 Q1003 NOSIG
ZGHA,2018-07-30 07:00,ZGHA 300700Z 20002MPS 140V310 9999 FEW050TCU SCT050 37/19 Q1002 NOSIG
ZGHA,2018-07-30 08:00,ZGHA 300800Z 15003MPS 110V200 9999 FEW050TCU SCT050 38/20 Q1001 NOSIG
ZGHA,2018-07-30 09:00,ZGHA 300900Z 17002MPS 150V240 9999 FEW050TCU SCT050 36/19 Q1001 NOSIG
ZGHA,2018-07-30 10:00,ZGHA 301000Z 22002MPS 180V260 9999 FEW050TCU 36/20 Q1001 NOSIG
ZGHA,2018-07-30 11:00,ZGHA 301100Z VRB01MPS 9999 FEW050TCU 34/22 Q1001 NOSIG
ZGHA,2018-07-30 12:00,ZGHA 301200Z 08002MPS CAVOK 33/23 Q1002 NOSIG
ZGHA,2018-07-30 13:00,ZGHA 301300Z 10003MPS CAVOK 32/23 Q1002 NOSIG
ZGHA,2018-07-30 14:00,ZGHA 301400Z 05002MPS CAVOK 31/24 Q1003 NOSIG
ZGHA,2018-07-30 15:00,ZGHA 301500Z 05002MPS 020V080 CAVOK 30/23 Q1004 NOSIG
ZGHA,2018-07-30 16:00,ZGHA 301600Z 03002MPS 360V060 CAVOK 29/23 Q1004 NOSIG
ZGHA,2018-07-30 17:00,ZGHA 301700Z VRB01MPS CAVOK 29/23 Q1003 NOSIG
ZGHA,2018-07-30 18:00,ZGHA 301800Z 06001MPS CAVOK 29/23 Q1003 NOSIG
ZGHA,2018-07-30 19:00,ZGHA 301900Z VRB01MPS CAVOK 28/23 Q1003 NOSIG
ZGHA,2018-07-30 20:00,ZGHA 302000Z 22002MPS 180V260 CAVOK 28/23 Q1003 NOSIG
ZGHA,2018-07-30 21:00,ZGHA 302100Z 14002MPS CAVOK 28/23 Q1003 NOSIG
ZGHA,2018-07-30 22:00,ZGHA 302200Z VRB01MPS CAVOK 27/23 Q1004 NOSIG
ZGHA,2018-07-30 23:00,ZGHA 302300Z 00000MPS CAVOK 29/23 Q1004 NOSIG
ZGHA,2018-07-31 00:00,ZGHA 310000Z 16003MPS CAVOK 31/24 Q1005 NOSIG
ZGHA,2018-07-31 01:00,ZGHA 310100Z 17004MPS 140V200 CAVOK 33/23 Q1005 NOSIG
ZGHA,2018-07-31 02:00,ZGHA 310200Z 16004MPS 100V210 CAVOK 34/22 Q1005 NOSIG
ZGHA,2018-07-31 03:00,ZGHA 310300Z 13003MPS 100V170 9999 FEW016 35/22 Q1005 NOSIG
ZGHA,2018-07-31 04:00,ZGHA 310400Z VRB02MPS 9999 SCT050 35/21 Q1005 NOSIG
ZGHA,2018-07-31 05:00,ZGHA 310500Z 19003MPS 140V310 9999 SCT050 37/21 Q1004 NOSIG
ZGHA,2018-07-31 06:00,ZGHA 310600Z 16003MPS 040V210 9999 FEW050TCU SCT050 37/21 Q1003 NOSIG
ZGHA,2018-07-31 07:00,ZGHA 310700Z 20003MPS 150V240 9999 BKN050 37/20 Q1002 NOSIG
ZGHA,2018-07-31 08:00,ZGHA 310800Z 19003MPS 160V260 9999 TS FEW050CB BKN050 36/20 Q1001 BECMG TL0900 NSW
ZGHA,2018-07-31 09:00,ZGHA 310900Z 01002MPS 320V070 9999 BKN050 36/23 Q1001 RETS NOSIG
ZGHA,2018-07-31 10:00,ZGHA 311000Z 08003MPS 9999 BKN050 35/23 Q1001 NOSIG
ZGHA,2018-07-31 11:00,ZGHA 311100Z 10003MPS 080V140 9999 TS FEW050CB SCT050 34/23 Q1002 BECMG TL1200 NSW
ZGHA,2018-07-31 12:00,ZGHA 311200Z 07003MPS 040V100 CAVOK 32/23 Q1003 RETS NOSIG
ZGHA,2018-07-31 13:00,ZGHA 311300Z 04003MPS CAVOK 31/23 Q1004 NOSIG
ZGHA,2018-07-31 14:00,ZGHA 311400Z 04004MPS CAVOK 30/23 Q1004 NOSIG
ZGHA,2018-07-31 15:00,ZGHA 311500Z 04003MPS 010V070 CAVOK 29/23 Q1004 NOSIG
ZGHA,2018-07-31 16:00,ZGHA 311600Z 05002MPS CAVOK 29/23 Q1004 NOSIG
ZGHA,2018-07-31 17:00,ZGHA 311700Z 03002MPS 350V060 CAVOK 28/23 Q1003 NOSIG
ZGHA,2018-07-31 18:00,ZGHA 311800Z 03002MPS 350V060 CAVOK 28/23 Q1003 NOSIG
ZGHA,2018-07-31 19:00,ZGHA 311900Z VRB01MPS CAVOK 28/23 Q1003 NOSIG
ZGHA,2018-07-31 20:00,ZGHA 312000Z 06002MPS CAVOK 28/23 Q1003 NOSIG
ZGHA,2018-07-31 21:00,ZGHA 312100Z VRB01MPS CAVOK 28/24 Q1004 NOSIG
ZGHA,2018-07-31 22:00,ZGHA 312200Z VRB01MPS CAVOK 28/24 Q1004 NOSIG
ZGHA,2018-07-31 23:00,ZGHA 312300Z 19001MPS CAVOK 28/24 Q1004 NOSIG
ZGHA,2018-08-01 00:00,ZGHA 010000Z VRB02MPS CAVOK 28/24 Q1005 NOSIG
ZGHA,2018-08-01 01:00,ZGHA 010100Z 24002MPS 150V290 CAVOK 30/23 Q1005 NOSIG
ZGHA,2018-08-01 02:00,ZGHA 010200Z VRB02MPS CAVOK 32/24 Q1005 NOSIG
ZGHA,2018-08-01 03:00,ZGHA 010300Z 16002MPS 100V200 CAVOK 33/24 Q1004 NOSIG
ZGHA,2018-08-01 04:00,ZGHA 010400Z 16002MPS 100V210 CAVOK 35/23 Q1004 NOSIG
ZGHA,2018-08-01 05:00,ZGHA 010500Z 12001MPS 9999 FEW050 36/22 Q1003 NOSIG
ZGHA,2018-08-01 06:00,ZGHA 010600Z VRB02MPS 9999 SCT050 37/21 Q1002 NOSIG
ZGHA,2018-08-01 07:00,ZGHA 010700Z 11006MPS 9999 TS FEW050CB BKN050 35/22 Q1001 BECMG TL0800 02005MPS TSRA
ZGHA,2018-08-01 08:00,ZGHA 010800Z 10005MPS 9999 -TSRA FEW050CB BKN050 34/24 Q1002 BECMG TL0830 02005MPS TSRA
ZGHA,2018-08-01 09:00,ZGHA 010900Z 31004MPS 270V360 9999 -TSRA FEW050CB BKN050 28/21 Q1002 BECMG TL1010 NSW
ZGHA,2018-08-01 10:00,ZGHA 011000Z 27003MPS 250V310 9999 -SHRA FEW050TCU SCT050 27/25 Q1003 RETS NOSIG
ZGHA,2018-08-01 11:00,ZGHA 011100Z 01002MPS 340V060 9999 -TSRA FEW011 FEW050CB 26/26 Q1003 BECMG TL1130 NSW
ZGHA,2018-08-01 12:00,ZGHA 011200Z VRB01MPS 9999 -RA FEW011 SCT050 26/26 Q1004 RETS NOSIG
ZGHA,2018-08-01 13:00,ZGHA 011300Z VRB01MPS CAVOK 26/26 Q1004 NOSIG
ZGHA,2018-08-01 14:00,ZGHA 011400Z VRB01MPS CAVOK 26/26 Q1004 NOSIG
ZGHA,2018-08-01 15:00,ZGHA 011500Z VRB01MPS CAVOK 26/26 Q1004 NOSIG
ZGHA,2018-08-01 16:00,ZGHA 011600Z VRB01MPS CAVOK 26/26 Q1004 NOSIG
ZGHA,2018-08-01 17:00,ZGHA 011700Z 04003MPS 9000 SCT003 26/26 Q1004 NOSIG
ZGHA,2018-08-01 18:00,ZGHA 011800Z 07002MPS CAVOK 26/25 Q1003 NOSIG
ZGHA,2018-08-01 19:00,ZGHA 011900Z 05002MPS CAVOK 25/25 Q1003 NOSIG
ZGHA,2018-08-01 20:00,ZGHA 012000Z 04002MPS 360V060 CAVOK 25/25 Q1004 NOSIG
ZGHA,2018-08-01 21:00,ZGHA 012100Z VRB01MPS CAVOK 25/25 Q1004 NOSIG
ZGHA,2018-08-01 22:00,ZGHA 012200Z 03003MPS CAVOK 25/25 Q1004 NOSIG
ZGHA,2018-08-01 23:00,ZGHA 012300Z 05002MPS CAVOK 26/24 Q1004 NOSIG
ZGHA,2018-08-02 00:00,ZGHA 020000Z 05003MPS 020V080 9999 FEW030 28/25 Q1005 NOSIG
ZGHA,2018-08-02 01:00,ZGHA 020100Z VRB01MPS 9999 FEW050 30/24 Q1005 NOSIG
ZGHA,2018-08-02 02:00,ZGHA 020200Z 05002MPS 360V120 9999 FEW040 31/23 Q1005 NOSIG
ZGHA,2018-08-02 03:00,ZGHA 020300Z VRB01MPS 9999 FEW040 33/23 Q1004 NOSIG
ZGHA,2018-08-02 04:00,ZGHA 020400Z VRB02MPS 9999 BKN040 34/23 Q1004 NOSIG
ZGHA,2018-08-02 05:00,ZGHA 020500Z VRB02MPS 9999 BKN040 35/23 Q1003 NOSIG
ZGHA,2018-08-02 06:00,ZGHA 020600Z 01003MPS 320V060 9999 SCT040 35/23 Q1002 NOSIG
ZGHA,2018-08-02 07:00,ZGHA 020700Z VRB02MPS 9999 SCT040 35/20 Q1001 NOSIG
ZGHA,2018-08-02 08:00,ZGHA 020800Z 07002MPS 010V110 9999 SCT040 35/22 Q1000 NOSIG
ZGHA,2018-08-02 09:00,ZGHA 020900Z 11002MPS 080V150 9999 FEW040TCU SCT040 34/24 Q1000 NOSIG
ZGHA,2018-08-02 10:00,ZGHA 021000Z 07003MPS 030V110 9999 FEW040TCU SCT040 31/24 Q1001 NOSIG
ZGHA,2018-08-02 11:00,ZGHA 021100Z VRB01MPS 9999 SCT040 30/22 Q1002 NOSIG
ZGHA,2018-08-02 12:00,ZGHA 021200Z 18002MPS 150V240 CAVOK 30/23 Q1002 NOSIG
ZGHA,2018-08-02 13:00,ZGHA 021300Z VRB01MPS CAVOK 29/27 Q1003 NOSIG
ZGHA,2018-08-02 14:00,ZGHA 021400Z 24003MPS 160V300 CAVOK 29/25 Q1004 NOSIG
ZGHA,2018-08-02 15:00,ZGHA 021500Z 23002MPS 180V290 CAVOK 28/25 Q1003 NOSIG
ZGHA,2018-08-02 16:00,ZGHA 021600Z VRB01MPS CAVOK 27/25 Q1003 NOSIG
ZGHA,2018-08-02 17:00,ZGHA 021700Z 10002MPS CAVOK 27/26 Q1002 NOSIG
ZGHA,2018-08-02 18:00,ZGHA 021800Z 19002MPS CAVOK 27/25 Q1002 NOSIG
ZGHA,2018-08-02 19:00,ZGHA 021900Z 20002MPS CAVOK 27/25 Q1001 NOSIG
ZGHA,2018-08-02 20:00,ZGHA 022000Z 21002MPS 9999 SCT050 26/25 Q1002 NOSIG
ZGHA,2018-08-02 21:00,ZGHA 022100Z 18002MPS CAVOK 26/25 Q1003 NOSIG
ZGHA,2018-08-02 22:00,ZGHA 022200Z 18002MPS 6000 NSC 26/25 Q1003 NOSIG
ZGHA,2018-08-02 23:00,ZGHA 022300Z 16002MPS 140V240 8000 FEW008 26/25 Q1003 NOSIG
ZGHA,2018-08-03 00:00,ZGHA 030000Z 18002MPS 150V220 8000 SCT009 27/25 Q1003 NOSIG
ZGHA,2018-08-03 01:00,ZGHA 030100Z 14002MPS 070V180 9999 FEW011 29/24 Q1003 NOSIG
ZGHA,2018-08-03 02:00,ZGHA 030200Z 15002MPS 110V190 CAVOK 32/24 Q1004 NOSIG
ZGHA,2018-08-03 03:00,ZGHA 030300Z VRB01MPS CAVOK 33/24 Q1003 NOSIG
ZGHA,2018-08-03 04:00,ZGHA 030400Z VRB01MPS CAVOK 34/24 Q1003 NOSIG
ZGHA,2018-08-03 05:00,ZGHA 030500Z 15002MPS 060V200 9999 SCT040 36/24 Q1002 NOSIG
ZGHA,2018-08-03 06:00,ZGHA 030600Z VRB01MPS 9999 BKN050 36/23 Q1001 NOSIG
ZGHA,2018-08-03 07:00,ZGHA 030700Z VRB01MPS 9999 BKN050 36/22 Q1000 NOSIG
ZGHA,2018-08-03 08:00,ZGHA 030800Z VRB03MPS 9999 BKN050 38/21 Q1000 BECMG TL0900 2000 TSRA BR
ZGHA,2018-08-03 09:00,ZGHA 030900Z 02005MPS 340V040 9999 TS FEW050CB BKN050 28/21 Q1001 BECMG TL0950 NSW
ZGHA,2018-08-03 10:00,ZGHA 031000Z 20002MPS 170V240 CAVOK 29/22 Q1002 RETS NOSIG
ZGHA,2018-08-03 11:00,ZGHA 031100Z 20003MPS CAVOK 28/22 Q1002 NOSIG
ZGHA,2018-08-03 12:00,ZGHA 031200Z 28003MPS CAVOK 27/22 Q1002 NOSIG
ZGHA,2018-08-03 13:00,ZGHA 031300Z 22002MPS 140V260 CAVOK 27/22 Q1003 NOSIG
ZGHA,2018-08-03 14:00,ZGHA 031400Z 16002MPS 140V240 CAVOK 27/23 Q1004 NOSIG
ZGHA,2018-08-03 15:00,ZGHA 031500Z 18002MPS 150V230 CAVOK 26/23 Q1004 NOSIG
ZGHA,2018-08-03 16:00,ZGHA 031600Z 20002MPS 150V240 CAVOK 26/23 Q1003 NOSIG
ZGHA,2018-08-03 17:00,ZGHA 031700Z 18002MPS 150V240 CAVOK 26/24 Q1003 NOSIG
ZGHA,2018-08-03 18:00,ZGHA 031800Z 17003MPS 150V210 9999 SCT026 26/23 Q1003 NOSIG
ZGHA,2018-08-03 19:00,ZGHA 031900Z 16002MPS 130V190 9999 BKN027 26/23 Q1003 NOSIG
ZGHA,2018-08-03 20:00,ZGHA 032000Z 14002MPS 9999 BKN027 26/25 Q1003 NOSIG
ZGHA,2018-08-03 21:00,ZGHA 032100Z 15002MPS 9999 BKN027 26/25 Q1004 NOSIG
ZGHA,2018-08-03 22:00,ZGHA 032200Z 18002MPS CAVOK 26/25 Q1004 NOSIG
ZGHA,2018-08-03 23:00,ZGHA 032300Z 19001MPS 9999 BKN026 26/25 Q1005 NOSIG
ZGHA,2018-08-04 00:00,ZGHA 040000Z 19003MPS 9999 BKN026 27/25 Q1005 NOSIG
ZGHA,2018-08-04 01:00,ZGHA 040100Z 21004MPS 180V250 9999 FEW012 BKN027 29/24 Q1005 NOSIG
ZGHA,2018-08-04 02:00,ZGHA 040200Z 24002MPS 200V270 9999 FEW016 BKN026 31/24 Q1005 NOSIG
ZGHA,2018-08-04 03:00,ZGHA 040300Z 19002MPS 120V230 9999 BKN029 33/24 Q1005 NOSIG
ZGHA,2018-08-04 04:00,ZGHA 040400Z 20002MPS 130V280 9999 SCT030 34/24 Q1004 NOSIG
ZGHA,2018-08-04 05:00,ZGHA 040500Z VRB03MPS 9999 SCT040 35/23 Q1003 NOSIG
ZGHA,2018-08-04 06:00,ZGHA 040600Z 02005MPS CAVOK 33/24 Q1003 BECMG TL0700 -TSRA
ZGHA,2018-08-04 07:00,ZGHA 040700Z 34004MPS 300V010 9999 FEW050CB SCT050 36/23 Q1002 NOSIG
ZGHA,2018-08-04 08:00,ZGHA 040800Z 36006MPS 9999 FEW050TCU 33/24 Q1002 NOSIG
ZGHA,2018-08-04 09:00,ZGHA 040900Z 36005MPS 330V030 9999 FEW050TCU 33/24 Q1002 NOSIG
ZGHA,2018-08-04 10:00,ZGHA 041000Z 01004MPS 340V040 9999 FEW050TCU 33/24 Q1002 NOSIG
ZGHA,2018-08-04 11:00,ZGHA 041100Z 01005MPS 350V050 CAVOK 31/24 Q1003 NOSIG
ZGHA,2018-08-04 12:00,ZGHA 041200Z 02002MPS CAVOK 30/24 Q1004 NOSIG
ZGHA,2018-08-04 13:00,ZGHA 041300Z VRB01MPS CAVOK 29/25 Q1004 NOSIG
ZGHA,2018-08-04 14:00,ZGHA 041400Z 14002MPS CAVOK 28/24 Q1005 NOSIG
ZGHA,2018-08-04 15:00,ZGHA 041500Z VRB01MPS CAVOK 28/24 Q1005 NOSIG
ZGHA,2018-08-04 16:00,ZGHA 041600Z VRB01MPS 9000 NSC 27/25 Q1004 NOSIG
ZGHA,2018-08-04 17:00,ZGHA 041700Z 14002MPS 110V180 8000 NSC 27/26 Q1004 NOSIG
ZGHA,2018-08-04 18:00,ZGHA 041800Z 20002MPS 7000 FEW016 27/26 Q1004 NOSIG
ZGHA,2018-08-04 19:00,ZGHA 041900Z 15002MPS 7000 NSC 27/26 Q1004 NOSIG
ZGHA,2018-08-04 20:00,ZGHA 042000Z 14002MPS 8000 NSC 26/25 Q1004 NOSIG
ZGHA,2018-08-04 21:00,ZGHA 042100Z 16002MPS 8000 NSC 26/25 Q1005 NOSIG
ZGHA,2018-08-04 22:00,ZGHA 042200Z 19002MPS 7000 NSC 26/25 Q1005 NOSIG
ZGHA,2018-08-04 23:00,ZGHA 042300Z 17002MPS 140V210 7000 NSC 27/25 Q1006 NOSIG
ZGHA,2018-08-05 00:00,ZGHA 050000Z 18003MPS 150V220 7000 NSC 28/26 Q1006 NOSIG
ZGHA,2018-08-05 01:00,ZGHA 050100Z 20002MPS 160V260 9000 FEW015 30/24 Q1006 NOSIG
ZGHA,2018-08-05 02:00,ZGHA 050200Z VRB02MPS 9000 SCT020 32/24 Q1006 NOSIG
ZGHA,2018-08-05 03:00,ZGHA 050300Z 18002MPS 110V250 9999 BKN026 33/24 Q1006 NOSIG
ZGHA,2018-08-05 04:00,ZGHA 050400Z VRB02MPS 9999 FEW030TCU BKN030 34/24 Q1005 NOSIG
ZGHA,2018-08-05 05:00,ZGHA 050500Z 18002MPS 120V220 9999 FEW033TCU BKN033 34/24 Q1004 NOSIG
ZGHA,2018-08-05 06:00,ZGHA 050600Z 20003MPS 150V260 9999 FEW040TCU BKN040 34/23 Q1003 NOSIG
ZGHA,2018-08-05 07:00,ZGHA 050700Z VRB03MPS 9999 FEW040TCU SCT040 34/25 Q1003 NOSIG
ZGHA,2018-08-05 08:00,ZGHA 050800Z 11002MPS 040V200 9999 FEW050TCU FEW050 35/22 Q1003 NOSIG
ZGHA,2018-08-05 09:00,ZGHA 050900Z 07003MPS 050V110 9999 FEW050 35/23 Q1002 NOSIG
ZGHA,2018-08-05 10:00,ZGHA 051000Z 06003MPS 9999 FEW050 33/25 Q1002 NOSIG
ZGHA,2018-08-05 11:00,ZGHA 051100Z 20005MPS 9999 FEW050TCU SCT050 32/23 Q1003 NOSIG
ZGHA,2018-08-05 12:00,ZGHA 051200Z 18005MPS 9999 FEW050TCU SCT050 30/23 Q1004 NOSIG
ZGHA,2018-08-05 13:00,ZGHA 051300Z 23004MPS 180V250 9999 SCT050 29/24 Q1005 NOSIG
ZGHA,2018-08-05 14:00,ZGHA 051400Z 20003MPS CAVOK 28/24 Q1006 NOSIG
ZGHA,2018-08-05 15:00,ZGHA 051500Z 18004MPS 9999 FEW023 28/22 Q1006 NOSIG
ZGHA,2018-08-05 16:00,ZGHA 051600Z 19003MPS 160V230 CAVOK 27/22 Q1006 NOSIG
ZGHA,2018-08-05 17:00,ZGHA 051700Z 18002MPS 150V220 CAVOK 27/23 Q1006 NOSIG
ZGHA,2018-08-05 18:00,ZGHA 051800Z 16004MPS 140V200 CAVOK 27/23 Q1005 NOSIG
ZGHA,2018-08-05 19:00,ZGHA 051900Z 16004MPS CAVOK 27/23 Q1005 NOSIG
ZGHA,2018-08-05 20:00,ZGHA 052000Z 18003MPS CAVOK 27/23 Q1005 NOSIG
ZGHA,2018-08-05 21:00,ZGHA 052100Z 19003MPS CAVOK 26/23 Q1005 NOSIG
ZGHA,2018-08-05 22:00,ZGHA 052200Z 19003MPS CAVOK 26/23 Q1005 NOSIG
ZGHA,2018-08-05 23:00,ZGHA 052300Z 17004MPS CAVOK 27/23 Q1006 NOSIG
ZGHA,2018-08-06 00:00,ZGHA 060000Z 18004MPS 9999 FEW050 27/23 Q1006 NOSIG
ZGHA,2018-08-06 01:00,ZGHA 060100Z 18004MPS 160V220 9999 FEW020 29/23 Q1006 NOSIG
ZGHA,2018-08-06 02:00,ZGHA 060200Z 20004MPS 130V250 9999 SCT020 30/23 Q1007 NOSIG
ZGHA,2018-08-06 03:00,ZGHA 060300Z 21004MPS 180V250 9999 SCT026 32/22 Q1006 NOSIG
ZGHA,2018-08-06 04:00,ZGHA 060400Z 22004MPS 180V280 9999 BKN030 34/23 Q1006 NOSIG
ZGHA,2018-08-06 05:00,ZGHA 060500Z 24005MPS 190V280 9999 BKN033 35/22 Q1005 NOSIG
ZGHA,2018-08-06 06:00,ZGHA 060600Z VRB05MPS 9999 BKN033 34/23 Q1004 NOSIG
ZGHA,2018-08-06 07:00,ZGHA 060700Z 24003MPS 180V340 9999 BKN040 35/22 Q1003 NOSIG
ZGHA,2018-08-06 08:00,ZGHA 060800Z 22003MPS 180V270 9999 SCT040 34/23 Q1003 NOSIG
ZGHA,2018-08-06 09:00,ZGHA 060900Z VRB02MPS 9999 FEW040TCU SCT040 35/22 Q1002 NOSIG
ZGHA,2018-08-06 10:00,ZGHA 061000Z 23002MPS 180V300 CAVOK 34/21 Q1003 NOSIG
ZGHA,2018-08-06 11:00,ZGHA 061100Z 22003MPS 110V250 CAVOK 33/22 Q1002 NOSIG
ZGHA,2018-08-06 12:00,ZGHA 061200Z 25002MPS 210V280 CAVOK 31/23 Q1004 NOSIG
ZGHA,2018-08-06 13:00,ZGHA 061300Z 16003MPS CAVOK 31/24 Q1005 NOSIG
ZGHA,2018-08-06 14:00,ZGHA 061400Z 20002MPS 170V240 CAVOK 30/23 Q1005 NOSIG
ZGHA,2018-08-06 15:00,ZGHA 061500Z 22003MPS 190V260 CAVOK 29/23 Q1006 NOSIG
ZGHA,2018-08-06 16:00,ZGHA 061600Z 18003MPS 160V230 CAVOK 28/23 Q1006 NOSIG
ZGHA,2018-08-06 17:00,ZGHA 061700Z 17003MPS CAVOK 28/23 Q1005 NOSIG
ZGHA,2018-08-06 18:00,ZGHA 061800Z 15003MPS CAVOK 27/24 Q1005 NOSIG
ZGHA,2018-08-06 19:00,ZGHA 061900Z 17003MPS 150V210 CAVOK 27/24 Q1005 NOSIG
ZGHA,2018-08-06 20:00,ZGHA 062000Z 19002MPS CAVOK 26/25 Q1005 NOSIG
ZGHA,2018-08-06 21:00,ZGHA 062100Z 19002MPS CAVOK 26/25 Q1005 NOSIG
ZGHA,2018-08-06 22:00,ZGHA 062200Z VRB01MPS CAVOK 26/24 Q1005 NOSIG
ZGHA,2018-08-06 23:00,ZGHA 062300Z 20002MPS CAVOK 27/24 Q1006 NOSIG
ZGHA,2018-08-07 00:00,ZGHA 070000Z 18004MPS CAVOK 29/23 Q1006 NOSIG
ZGHA,2018-08-07 01:00,ZGHA 070100Z 18003MPS 130V220 9999 SCT020 30/23 Q1006 NOSIG
ZGHA,2018-08-07 02:00,ZGHA 070200Z VRB02MPS 9999 SCT030 32/23 Q1006 NOSIG
ZGHA,2018-08-07 03:00,ZGHA 070300Z 18004MPS 130V230 9999 SCT030 33/22 Q1006 NOSIG
ZGHA,2018-08-07 04:00,ZGHA 070400Z VRB03MPS 9999 BKN040 34/21 Q1005 NOSIG
ZGHA,2018-08-07 05:00,ZGHA 070500Z 19003MPS 100V250 9999 BKN050 36/20 Q1005 NOSIG
ZGHA,2018-08-07 06:00,ZGHA 070600Z 14004MPS 100V180 9999 BKN050 36/20 Q1004 NOSIG
ZGHA,2018-08-07 07:00,ZGHA 070700Z 13003MPS 080V200 9999 SCT050 37/20 Q1003 NOSIG
ZGHA,2018-08-07 08:00,ZGHA 070800Z 16004MPS 9999 SCT050 37/19 Q1002 NOSIG
ZGHA,2018-08-07 09:00,ZGHA 070900Z 21004MPS 170V250 9999 SCT050 37/20 Q1002 NOSIG
ZGHA,2018-08-07 10:00,ZGHA 071000Z 23003MPS 170V270 9999 SCT050 36/20 Q1002 NOSIG
ZGHA,2018-08-07 11:00,ZGHA 071100Z 20003MPS 180V240 9999 SCT050 34/21 Q1003 NOSIG
ZGHA,2018-08-07 12:00,ZGHA 071200Z 23003MPS 200V280 CAVOK 33/22 Q1003 NOSIG
ZGHA,2018-08-07 13:00,ZGHA 071300Z 24004MPS CAVOK 32/22 Q1004 NOSIG
ZGHA,2018-08-07 14:00,ZGHA 071400Z 19002MPS 180V240 CAVOK 31/23 Q1005 NOSIG
ZGHA,2018-08-07 15:00,ZGHA 071500Z 18002MPS 150V210 CAVOK 30/23 Q1005 NOSIG
ZGHA,2018-08-07 16:00,ZGHA 071600Z 16002MPS 120V210 CAVOK 29/23 Q1005 NOSIG
ZGHA,2018-08-07 17:00,ZGHA 071700Z 23002MPS CAVOK 28/23 Q1005 NOSIG
ZGHA,2018-08-07 18:00,ZGHA 071800Z VRB01MPS CAVOK 28/23 Q1005 NOSIG
ZGHA,2018-08-07 19:00,ZGHA 071900Z VRB01MPS CAVOK 28/24 Q1005 NOSIG
ZGHA,2018-08-07 20:00,ZGHA 072000Z 17002MPS CAVOK 28/24 Q1005 NOSIG
ZGHA,2018-08-07 21:00,ZGHA 072100Z VRB01MPS CAVOK 27/24 Q1005 NOSIG
ZGHA,2018-08-07 22:00,ZGHA 072200Z 00000MPS CAVOK 27/25 Q1005 NOSIG
ZGHA,2018-08-07 23:00,ZGHA 072300Z 14002MPS 110V180 CAVOK 28/24 Q1006 NOSIG
ZGHA,2018-08-08 00:00,ZGHA 080000Z VRB01MPS CAVOK 29/24 Q1006 NOSIG
ZGHA,2018-08-08 01:00,ZGHA 080100Z VRB02MPS CAVOK 31/24 Q1007 NOSIG
ZGHA,2018-08-08 02:00,ZGHA 080200Z VRB01G06MPS CAVOK 33/24 Q1007 NOSIG
ZGHA,2018-08-08 03:00,ZGHA 080300Z VRB02MPS CAVOK 36/22 Q1007 NOSIG
ZGHA,2018-08-08 04:00,ZGHA 080400Z 08002MPS 9999 FEW050 36/23 Q1006 NOSIG
ZGHA,2018-08-08 05:00,ZGHA 080500Z 03002MPS 310V110 9999 SCT050 36/23 Q1005 NOSIG
ZGHA,2018-08-08 06:00,ZGHA 080600Z 03002MPS 320V060 9999 SCT050 36/21 Q1004 NOSIG
ZGHA,2018-08-08 07:00,ZGHA 080700Z VRB02MPS 9999 SCT050 38/21 Q1004 NOSIG
ZGHA,2018-08-08 08:00,ZGHA 080800Z 35003MPS 290V060 9999 SCT050 38/21 Q1003 NOSIG
ZGHA,2018-08-08 09:00,ZGHA 080900Z 01003MPS 330V080 9999 FEW050TCU FEW050 37/20 Q1003 NOSIG
ZGHA,2018-08-08 10:00,ZGHA 081000Z 01004MPS 350V060 9999 FEW050 36/22 Q1003 NOSIG
ZGHA,2018-08-08 11:00,ZGHA 081100Z 01004MPS 9999 FEW050TCU 35/21 Q1004 NOSIG
ZGHA,2018-08-08 12:00,ZGHA 081200Z 36005MPS 9999 FEW050TCU 34/21 Q1004 NOSIG
ZGHA,2018-08-08 13:00,ZGHA 081300Z 07006MPS 020V100 9999 TS FEW060CB 33/22 Q1005 NOSIG
ZGHA,2018-08-08 14:00,ZGHA 081400Z 19002MPS 120V240 9999 -SHRA FEW060CB 26/22 Q1006 RETS NOSIG
ZGHA,2018-08-08 15:00,ZGHA 081500Z VRB03MPS 9999 -RA NSC 26/22 Q1006 NOSIG
ZGHA,2018-08-08 16:00,ZGHA 081600Z 20002MPS 160V260 CAVOK 25/24 Q1006 NOSIG
ZGHA,2018-08-08 17:00,ZGHA 081700Z 13002MPS 090V170 CAVOK 25/24 Q1006 NOSIG
ZGHA,2018-08-08 18:00,ZGHA 081800Z 17002MPS 140V220 9999 FEW060CB 26/24 Q1006 NOSIG
ZGHA,2018-08-08 19:00,ZGHA 081900Z VRB02MPS 9999 TS FEW050CB FEW050 26/25 Q1005 BECMG TL1945 -RA BKN040
ZGHA,2018-08-08 20:00,ZGHA 082000Z 27002MPS 230V010 9999 TS FEW050CB FEW050 27/24 Q1005 BECMG TL2030 -RA BKN040
ZGHA,2018-08-08 21:00,ZGHA 082100Z 19002MPS CAVOK 26/25 Q1005 RETS NOSIG
ZGHA,2018-08-08 22:00,ZGHA 082200Z VRB01MPS CAVOK 26/25 Q1005 NOSIG
ZGHA,2018-08-08 23:00,ZGHA 082300Z 18002MPS CAVOK 26/25 Q1006 NOSIG
ZGHA,2018-08-09 00:00,ZGHA 090000Z 21002MPS 180V240 CAVOK 27/25 Q1006 NOSIG
ZGHA,2018-08-09 01:00,ZGHA 090100Z VRB01MPS CAVOK 31/23 Q1006 NOSIG
ZGHA,2018-08-09 02:00,ZGHA 090200Z VRB01MPS CAVOK 32/22 Q1006 NOSIG
ZGHA,2018-08-09 03:00,ZGHA 090300Z 23002MPS 200V290 CAVOK 34/23 Q1006 NOSIG
ZGHA,2018-08-09 04:00,ZGHA 090400Z VRB02MPS CAVOK 36/23 Q1005 NOSIG
ZGHA,2018-08-09 05:00,ZGHA 090500Z VRB02G07MPS 9999 SCT050 38/23 Q1005 NOSIG
ZGHA,2018-08-09 06:00,ZGHA 090600Z 34003MPS 270V050 9999 SCT050 36/23 Q1004 NOSIG
ZGHA,2018-08-09 07:00,ZGHA 090700Z VRB03MPS 9999 SCT050 38/21 Q1002 NOSIG
ZGHA,2018-08-09 08:00,ZGHA 090800Z 12007MPS 080V150 9999 TS FEW050CB BKN050 33/21 Q1003 BECMG TL0830 2000 TSRA BR
ZGHA,2018-08-09 09:00,ZGHA 090900Z 33007G12MPS 9999 -TSRA FEW040CB SCT040 25/24 Q1003 RESHRA BECMG TL0930 -SHRA
ZGHA,2018-08-09 10:00,ZGHA 091000Z 07002MPS 040V110 9999 SCT040 26/24 Q1003 RETS NOSIG
ZGHA,2018-08-09 11:00,ZGHA 091100Z 02002MPS 350V090 CAVOK 27/24 Q1003 NOSIG
ZGHA,2018-08-09 12:00,ZGHA 091200Z 36003MPS CAVOK 27/25 Q1004 NOSIG
ZGHA,2018-08-09 13:00,ZGHA 091300Z VRB01MPS CAVOK 27/26 Q1004 NOSIG
ZGHA,2018-08-09 14:00,ZGHA 091400Z VRB01MPS CAVOK 27/25 Q1005 NOSIG
ZGHA,2018-08-09 15:00,ZGHA 091500Z 02003MPS CAVOK 26/25 Q1005 NOSIG
ZGHA,2018-08-09 16:00,ZGHA 091600Z 35003MPS CAVOK 26/25 Q1005 NOSIG
ZGHA,2018-08-09 17:00,ZGHA 091700Z 04002MPS 360V070 CAVOK 26/25 Q1005 NOSIG
ZGHA,2018-08-09 18:00,ZGHA 091800Z 08002MPS CAVOK 26/26 Q1004 NOSIG
ZGHA,2018-08-09 19:00,ZGHA 091900Z 03002MPS 8000 NSC 26/26 Q1004 NOSIG
ZGHA,2018-08-09 20:00,ZGHA 092000Z 04001MPS 8000 NSC 26/26 Q1004 NOSIG
ZGHA,2018-08-09 21:00,ZGHA 092100Z 04001MPS 6000 NSC 26/26 Q1003 NOSIG
ZGHA,2018-08-09 22:00,ZGHA 092200Z 02002MPS 5000 BR NSC 26/26 Q1004 NOSIG
ZGHA,2018-08-09 23:00,ZGHA 092300Z 02002MPS 5000 BR NSC 26/26 Q1004 NOSIG
ZGHA,2018-08-10 00:00,ZGHA 100000Z 03002MPS 350V060 7000 NSC 28/26 Q1004 NOSIG
ZGHA,2018-08-10 01:00,ZGHA 100100Z 03002MPS 320V110 8000 NSC 30/24 Q1005 NOSIG
ZGHA,2018-08-10 02:00,ZGHA 100200Z 04002MPS 350V080 CAVOK 32/25 Q1005 NOSIG
ZGHA,2018-08-10 03:00,ZGHA 100300Z 01002MPS 320V120 CAVOK 34/25 Q1005 NOSIG
ZGHA,2018-08-10 04:00,ZGHA 100400Z 01002MPS 300V070 9999 FEW050 35/25 Q1004 NOSIG
ZGHA,2018-08-10 05:00,ZGHA 100500Z 03002MPS 340V080 9999 BKN050 36/23 Q1003 NOSIG
ZGHA,2018-08-10 06:00,ZGHA 100600Z 36004MPS 320V060 9999 BKN050 37/24 Q1002 NOSIG
ZGHA,2018-08-10 07:00,ZGHA 100700Z 01005MPS 9999 BKN050 37/23 Q1002 NOSIG
ZGHA,2018-08-10 08:00,ZGHA 100800Z 35006MPS 320V020 9999 BKN050 37/23 Q1001 NOSIG
ZGHA,2018-08-10 09:00,ZGHA 100900Z 01006MPS 340V040 9999 TS FEW050CB BKN050 36/23 Q1000 NOSIG
ZGHA,2018-08-10 10:00,ZGHA 101000Z 09005MPS 9999 TS SCT050CB SCT050 32/23 Q1000 BECMG TL1020 16005MPS TSRA
ZGHA,2018-08-10 11:00,ZGHA 101100Z VRB02MPS 9999 -TSRA FEW050CB 30/24 Q1001 BECMG TL1140 NSW
ZGHA,2018-08-10 12:00,ZGHA 101200Z 31003MPS 290V350 CAVOK 30/22 Q1002 RETS NOSIG
ZGHA,2018-08-10 13:00,ZGHA 101300Z 05003MPS 010V080 CAVOK 30/23 Q1002 NOSIG
ZGHA,2018-08-10 14:00,ZGHA 101400Z 07002MPS 040V110 CAVOK 29/24 Q1003 NOSIG
ZGHA,2018-08-10 15:00,ZGHA 101500Z 10001MPS CAVOK 29/24 Q1003 NOSIG
ZGHA,2018-08-10 16:00,ZGHA 101600Z VRB01MPS CAVOK 29/24 Q1003 NOSIG
ZGHA,2018-08-10 17:00,ZGHA 101700Z 04002MPS CAVOK 28/25 Q1002 NOSIG
ZGHA,2018-08-10 18:00,ZGHA 101800Z 03003MPS CAVOK 28/24 Q1002 NOSIG
ZGHA,2018-08-10 19:00,ZGHA 101900Z 03003MPS CAVOK 28/26 Q1002 NOSIG
ZGHA,2018-08-10 20:00,ZGHA 102000Z 03002MPS CAVOK 27/27 Q1002 NOSIG
ZGHA,2018-08-10 21:00,ZGHA 102100Z 06001MPS CAVOK 27/27 Q1001 NOSIG
ZGHA,2018-08-10 22:00,ZGHA 102200Z VRB01MPS CAVOK 28/26 Q1001 NOSIG
ZGHA,2018-08-10 23:00,ZGHA 102300Z 02003MPS CAVOK 28/26 Q1002 NOSIG
ZGHA,2018-08-11 00:00,ZGHA 110000Z 05002MPS CAVOK 29/24 Q1002 NOSIG
ZGHA,2018-08-11 01:00,ZGHA 110100Z 01002MPS 320V050 CAVOK 32/25 Q1002 NOSIG
ZGHA,2018-08-11 02:00,ZGHA 110200Z VRB01MPS CAVOK 35/25 Q1003 NOSIG
ZGHA,2018-08-11 03:00,ZGHA 110300Z VRB01MPS CAVOK 36/23 Q1002 NOSIG
ZGHA,2018-08-11 04:00,ZGHA 110400Z VRB02MPS 9999 FEW050 35/23 Q1002 NOSIG
ZGHA,2018-08-11 05:00,ZGHA 110500Z VRB02MPS 9999 FEW050 36/23 Q1001 NOSIG
ZGHA,2018-08-11 06:00,ZGHA 110600Z 03002MPS 010V080 CAVOK 37/22 Q1000 NOSIG
ZGHA,2018-08-11 07:00,ZGHA 110700Z 04002MPS 300V100 9999 FEW060TCU 37/21 Q0999 NOSIG
ZGHA,2018-08-11 08:00,ZGHA 110800Z 02003MPS 340V050 9999 FEW060CB 36/23 Q0998 BECMG TL0920 -TSRA
ZGHA,2018-08-11 09:00,ZGHA 110900Z 02006MPS 9999 FEW060TCU 35/24 Q0998 NOSIG
ZGHA,2018-08-11 10:00,ZGHA 111000Z 02005MPS CAVOK 34/22 Q0998 NOSIG
ZGHA,2018-08-11 11:00,ZGHA 111100Z 07004MPS 9999 FEW060TCU 32/23 Q0998 NOSIG
ZGHA,2018-08-11 12:00,ZGHA 111200Z 03004MPS CAVOK 31/23 Q0999 NOSIG
ZGHA,2018-08-11 13:00,ZGHA 111300Z 06002MPS CAVOK 31/23 Q1000 NOSIG
ZGHA,2018-08-11 14:00,ZGHA 111400Z 02002MPS CAVOK 30/23 Q1001 NOSIG
ZGHA,2018-08-11 15:00,ZGHA 111500Z 03002MPS CAVOK 29/24 Q1001 NOSIG
ZGHA,2018-08-11 16:00,ZGHA 111600Z 07002MPS 040V100 CAVOK 30/23 Q1000 NOSIG
ZGHA,2018-08-11 17:00,ZGHA 111700Z 02002MPS CAVOK 29/23 Q1000 NOSIG
ZGHA,2018-08-11 18:00,ZGHA 111800Z 02003MPS CAVOK 29/23 Q1000 NOSIG
ZGHA,2018-08-11 19:00,ZGHA 111900Z 04002MPS 020V080 CAVOK 28/23 Q0999 NOSIG
ZGHA,2018-08-11 20:00,ZGHA 112000Z 04002MPS CAVOK 28/23 Q0999 NOSIG
ZGHA,2018-08-11 21:00,ZGHA 112100Z 04003MPS CAVOK 27/23 Q0999 NOSIG
ZGHA,2018-08-11 22:00,ZGHA 112200Z 04003MPS CAVOK 27/23 Q1000 NOSIG
ZGHA,2018-08-11 23:00,ZGHA 112300Z 03003MPS CAVOK 27/23 Q1000 NOSIG
ZGHA,2018-08-12 00:00,ZGHA 120000Z 04002MPS 010V070 CAVOK 29/23 Q1000 NOSIG
ZGHA,2018-08-12 01:00,ZGHA 120100Z 01002MPS CAVOK 31/23 Q1000 NOSIG
ZGHA,2018-08-12 02:00,ZGHA 120200Z 05003MPS 020V080 CAVOK 33/24 Q1000 NOSIG
ZGHA,2018-08-12 03:00,ZGHA 120300Z 03002MPS 340V060 CAVOK 35/23 Q1000 NOSIG
ZGHA,2018-08-12 04:00,ZGHA 120400Z VRB02MPS 9999 FEW050 37/23 Q0999 NOSIG
ZGHA,2018-08-12 05:00,ZGHA 120500Z 33002G07MPS 250V030 9999 FEW050 38/22 Q0999 NOSIG
ZGHA,2018-08-12 06:00,ZGHA 120600Z 02004MPS 340V050 9999 FEW050 37/22 Q0998 NOSIG
ZGHA,2018-08-12 07:00,ZGHA 120700Z 35004MPS 320V020 9999 FEW050TCU SCT050 36/22 Q0997 NOSIG
ZGHA,2018-08-12 08:00,ZGHA 120800Z 36005MPS 9999 FEW050TCU FEW050 37/20 Q0996 NOSIG
ZGHA,2018-08-12 09:00,ZGHA 120900Z 36006MPS 9999 FEW050TCU 36/19 Q0996 NOSIG
ZGHA,2018-08-12 10:00,ZGHA 121000Z 36003MPS CAVOK 36/21 Q0996 NOSIG
ZGHA,2018-08-12 11:00,ZGHA 121100Z 35005MPS CAVOK 34/24 Q0996 NOSIG
ZGHA,2018-08-12 12:00,ZGHA 121200Z 34005MPS CAVOK 34/24 Q0997 NOSIG
ZGHA,2018-08-12 13:00,ZGHA 121300Z 36006MPS CAVOK 33/25 Q0997 NOSIG
ZGHA,2018-08-12 14:00,ZGHA 121400Z 03003MPS CAVOK 31/25 Q0998 NOSIG
ZGHA,2018-08-12 15:00,ZGHA 121500Z 36004MPS CAVOK 31/25 Q0998 NOSIG
ZGHA,2018-08-12 16:00,ZGHA 121600Z 01004MPS CAVOK 31/26 Q0998 NOSIG
ZGHA,2018-08-12 17:00,ZGHA 121700Z VRB01MPS 7000 NSC 30/26 Q0998 NOSIG
ZGHA,2018-08-12 18:00,ZGHA 121800Z 12001MPS 9000 NSC 29/25 Q0998 NOSIG
ZGHA,2018-08-12 19:00,ZGHA 121900Z VRB01MPS 7000 NSC 29/25 Q0997 NOSIG
ZGHA,2018-08-12 20:00,ZGHA 122000Z VRB01MPS 7000 NSC 29/25 Q0997 NOSIG
ZGHA,2018-08-12 21:00,ZGHA 122100Z 11002MPS 7000 NSC 28/25 Q0998 NOSIG
ZGHA,2018-08-12 22:00,ZGHA 122200Z VRB01MPS 8000 NSC 28/26 Q0998 NOSIG
ZGHA,2018-08-12 23:00,ZGHA 122300Z 07002MPS 9999 FEW016 29/23 Q0999 NOSIG
ZGHA,2018-08-13 00:00,ZGHA 130000Z 06002MPS 9999 FEW020 30/23 Q0999 NOSIG
ZGHA,2018-08-13 01:00,ZGHA 130100Z 04003MPS 010V080 9999 FEW040 31/23 Q0999 NOSIG
ZGHA,2018-08-13 02:00,ZGHA 130200Z 05003MPS 020V080 9999 FEW026 32/24 Q0999 NOSIG
ZGHA,2018-08-13 03:00,ZGHA 130300Z 01006MPS 9999 FEW033 35/22 Q0999 NOSIG
ZGHA,2018-08-13 04:00,ZGHA 130400Z 35007MPS 9999 SCT040 36/20 Q0998 NOSIG
ZGHA,2018-08-13 05:00,ZGHA 130500Z 36007MPS 9999 SCT050 36/20 Q0998 NOSIG
ZGHA,2018-08-13 06:00,ZGHA 130600Z 36006MPS 9999 SCT050 35/21 Q0998 NOSIG
ZGHA,2018-08-13 07:00,ZGHA 130700Z 36008MPS 9999 SCT050 34/22 Q0997 NOSIG
ZGHA,2018-08-13 08:00,ZGHA 130800Z 04005MPS 9999 -RA BKN040 32/25 Q0997 NOSIG
ZGHA,2018-08-13 09:00,ZGHA 130900Z 02007MPS 9999 FEW050 32/24 Q0997 NOSIG
ZGHA,2018-08-13 10:00,ZGHA 131000Z 03004MPS CAVOK 32/24 Q0997 NOSIG
ZGHA,2018-08-13 11:00,ZGHA 131100Z 36006MPS CAVOK 30/23 Q0998 NOSIG
ZGHA,2018-08-13 12:00,ZGHA 131200Z 36004MPS CAVOK 29/23 Q0998 NOSIG
ZGHA,2018-08-13 13:00,ZGHA 131300Z 03003MPS CAVOK 29/23 Q0999 NOSIG
ZGHA,2018-08-13 14:00,ZGHA 131400Z 36003MPS CAVOK 29/24 Q0999 NOSIG
ZGHA,2018-08-13 15:00,ZGHA 131500Z 01003MPS CAVOK 29/24 Q1000 NOSIG
ZGHA,2018-08-13 16:00,ZGHA 131600Z 02002MPS CAVOK 29/24 Q1000 NOSIG
ZGHA,2018-08-13 17:00,ZGHA 131700Z 02002MPS CAVOK 29/24 Q1000 NOSIG
ZGHA,2018-08-13 18:00,ZGHA 131800Z 03002MPS CAVOK 29/24 Q1000 NOSIG
ZGHA,2018-08-13 19:00,ZGHA 131900Z 03001MPS CAVOK 29/25 Q1000 NOSIG
ZGHA,2018-08-13 20:00,ZGHA 132000Z 20001MPS CAVOK 28/24 Q1000 NOSIG
ZGHA,2018-08-13 21:00,ZGHA 132100Z VRB01MPS CAVOK 28/24 Q0999 NOSIG
ZGHA,2018-08-13 22:00,ZGHA 132200Z 04002MPS CAVOK 28/24 Q1000 NOSIG
ZGHA,2018-08-13 23:00,ZGHA 132300Z VRB01MPS CAVOK 28/24 Q1000 NOSIG
ZGHA,2018-08-14 00:00,ZGHA 140000Z 06002MPS 9999 BKN050 29/24 Q1001 NOSIG
ZGHA,2018-08-14 01:00,ZGHA 140100Z 03002MPS 340V080 CAVOK 30/24 Q1001 NOSIG
ZGHA,2018-08-14 02:00,ZGHA 140200Z 05002MPS 350V100 9999 SCT020 32/24 Q1001 NOSIG
ZGHA,2018-08-14 03:00,ZGHA 140300Z 04003MPS 340V070 9999 SCT030 33/24 Q1001 NOSIG
ZGHA,2018-08-14 04:00,ZGHA 140400Z 02004MPS 340V070 9999 SCT030 33/24 Q1001 NOSIG
ZGHA,2018-08-14 05:00,ZGHA 140500Z 01005MPS 350V050 9999 SCT030 35/23 Q1000 NOSIG
ZGHA,2018-08-14 06:00,ZGHA 140600Z 01004MPS 310V040 9999 SCT040 36/23 Q1000 NOSIG
ZGHA,2018-08-14 07:00,ZGHA 140700Z 35005MPS 310V030 9999 SCT040 35/23 Q0999 NOSIG
ZGHA,2018-08-14 08:00,ZGHA 140800Z 35009MPS 9999 SCT040 34/22 Q0999 NOSIG
ZGHA,2018-08-14 09:00,ZGHA 140900Z 01008MPS CAVOK 32/24 Q0999 NOSIG
ZGHA,2018-08-14 10:00,ZGHA 141000Z 02007MPS CAVOK 32/24 Q0999 NOSIG
ZGHA,2018-08-14 11:00,ZGHA 141100Z 01006MPS CAVOK 31/24 Q0999 NOSIG
ZGHA,2018-08-14 12:00,ZGHA 141200Z 02005MPS CAVOK 31/24 Q1000 NOSIG
ZGHA,2018-08-14 13:00,ZGHA 141300Z 36005MPS CAVOK 30/24 Q1001 NOSIG
ZGHA,2018-08-14 14:00,ZGHA 141400Z 36004MPS CAVOK 29/23 Q1001 NOSIG
ZGHA,2018-08-14 15:00,ZGHA 141500Z 01004MPS CAVOK 29/23 Q1001 NOSIG
ZGHA,2018-08-14 16:00,ZGHA 141600Z 01004MPS CAVOK 28/23 Q1002 NOSIG
ZGHA,2018-08-14 17:00,ZGHA 141700Z 36003MPS CAVOK 28/24 Q1002 NOSIG
ZGHA,2018-08-14 18:00,ZGHA 141800Z 02003MPS CAVOK 28/24 Q1002 NOSIG
ZGHA,2018-08-14 19:00,ZGHA 141900Z 35003MPS CAVOK 27/24 Q1002 NOSIG
ZGHA,2018-08-14 20:00,ZGHA 142000Z 01003MPS CAVOK 27/25 Q1001 NOSIG
ZGHA,2018-08-14 21:00,ZGHA 142100Z 03002MPS CAVOK 27/26 Q1001 NOSIG
ZGHA,2018-08-14 22:00,ZGHA 142200Z 02002MPS CAVOK 27/26 Q1002 NOSIG
ZGHA,2018-08-14 23:00,ZGHA 142300Z 03003MPS CAVOK 28/26 Q1002 NOSIG
ZGHA,2018-08-15 00:00,ZGHA 150000Z 03002MPS CAVOK 29/25 Q1002 NOSIG
ZGHA,2018-08-15 01:00,ZGHA 150100Z 36003MPS 320V040 CAVOK 30/25 Q1003 NOSIG
ZGHA,2018-08-15 02:00,ZGHA 150200Z 02004MPS CAVOK 31/25 Q1003 NOSIG
ZGHA,2018-08-15 03:00,ZGHA 150300Z 02003MPS 340V070 CAVOK 32/25 Q1003 NOSIG
ZGHA,2018-08-15 04:00,ZGHA 150400Z 03006MPS 3000 SHRA BR OVC033 30/26 Q1003 NOSIG
ZGHA,2018-08-15 05:00,ZGHA 150500Z 02002MPS 340V070 9999 FEW033TCU SCT033 33/27 Q1002 RESHRA NOSIG
ZGHA,2018-08-15 06:00,ZGHA 150600Z 14005MPS 9999 TS FEW033CB SCT033 30/24 Q1001 BECMG TL0630 VRB07G12MPS 2500 TSRA BR
ZGHA,2018-08-15 07:00,ZGHA 150700Z VRB01MPS 9999 -TSRA FEW050CB 26/26 Q1001 RESHRA BECMG TL0750 NSW
ZGHA,2018-08-15 08:00,ZGHA 150800Z 30004MPS 9999 TS FEW050CB 27/27 Q1001 BECMG TL0820 VRB07G12MPS TSRA
ZGHA,2018-08-15 09:00,ZGHA 150900Z 36004MPS 9999 FEW050TCU FEW050 27/26 Q1001 RETS NOSIG
ZGHA,2018-08-15 10:00,ZGHA 151000Z 02002MPS 9999 FEW050TCU FEW050 27/27 Q1000 NOSIG
ZGHA,2018-08-15 11:00,ZGHA 151100Z 01002MPS 330V050 9999 FEW050TCU FEW050 28/27 Q1001 NOSIG
ZGHA,2018-08-15 12:00,ZGHA 151200Z 11003MPS 9999 TS FEW040CB SCT040 27/27 Q1002 BECMG TL1340 NSW
ZGHA,2018-08-15 13:00,ZGHA 151300Z 17005MPS 150V240 9999 TS SCT018 FEW040CB BKN040 26/25 Q1003 BECMG TL1410 NSW
ZGHA,2018-08-15 14:00,ZGHA 151400Z 32003MPS 260V350 9999 SCT050 27/25 Q1002 RETS NOSIG
ZGHA,2018-08-15 15:00,ZGHA 151500Z 32002MPS 300V360 9999 SCT050 27/24 Q1003 NOSIG
ZGHA,2018-08-15 16:00,ZGHA 151600Z 07002MPS CAVOK 27/26 Q1002 NOSIG
ZGHA,2018-08-15 17:00,ZGHA 151700Z 03002MPS CAVOK 27/26 Q1002 NOSIG
ZGHA,2018-08-15 18:00,ZGHA 151800Z 05001MPS CAVOK 27/27 Q1002 NOSIG
ZGHA,2018-08-15 19:00,ZGHA 151900Z 03002MPS 8000 NSC 27/27 Q1002 NOSIG
ZGHA,2018-08-15 20:00,ZGHA 152000Z 36004MPS 8000 NSC 27/27 Q1002 NOSIG
ZGHA,2018-08-15 21:00,ZGHA 152100Z 36004MPS 6000 NSC 27/27 Q1002 NOSIG
ZGHA,2018-08-15 22:00,ZGHA 152200Z 01004MPS 4500 BR NSC 27/27 Q1002 NOSIG
ZGHA,2018-08-15 23:00,ZGHA 152300Z 36004MPS 6000 FEW008 28/27 Q1003 NOSIG
ZGHA,2018-08-16 00:00,ZGHA 160000Z 01005MPS 9000 SCT011 29/28 Q1003 NOSIG
ZGHA,2018-08-16 01:00,ZGHA 160100Z 36005MPS 9000 SCT011 30/25 Q1003 NOSIG
ZGHA,2018-08-16 02:00,ZGHA 160200Z 01007MPS 9000 BKN026 31/25 Q1003 NOSIG
ZGHA,2018-08-16 03:00,ZGHA 160300Z 36007MPS 9000 FEW020 33/26 Q1004 NOSIG
ZGHA,2018-08-16 04:00,ZGHA 160400Z 34007MPS 320V020 9000 SCT020 33/26 Q1003 NOSIG
ZGHA,2018-08-16 05:00,ZGHA 160500Z 36009MPS 9000 TS SCT016 FEW060CB 31/25 Q1003 NOSIG
ZGHA,2018-08-16 06:00,ZGHA 160600Z 36009MPS 8000 SCT016 31/24 Q1003 RETS NOSIG
ZGHA,2018-08-16 07:00,ZGHA 160700Z 36008MPS 9000 BKN020 31/24 Q1002 NOSIG
ZGHA,2018-08-16 08:00,ZGHA 160800Z 36009MPS 9000 SCT030 31/23 Q1002 NOSIG
ZGHA,2018-08-16 09:00,ZGHA 160900Z 01009MPS 9999 SCT026 BKN050 31/23 Q1002 NOSIG
ZGHA,2018-08-16 10:00,ZGHA 161000Z 01007MPS 9999 SCT050 31/22 Q1003 NOSIG
ZGHA,2018-08-16 11:00,ZGHA 161100Z 36005MPS CAVOK 30/22 Q1003 NOSIG
ZGHA,2018-08-16 12:00,ZGHA 161200Z 36006MPS CAVOK 29/22 Q1003 NOSIG
ZGHA,2018-08-16 13:00,ZGHA 161300Z 36005MPS CAVOK 29/22 Q1004 NOSIG
ZGHA,2018-08-16 14:00,ZGHA 161400Z 36006MPS CAVOK 28/22 Q1004 NOSIG
ZGHA,2018-08-16 15:00,ZGHA 161500Z 36006MPS CAVOK 28/22 Q1004 NOSIG
ZGHA,2018-08-16 16:00,ZGHA 161600Z 34005MPS CAVOK 28/22 Q1004 NOSIG
ZGHA,2018-08-16 17:00,ZGHA 161700Z 35004MPS CAVOK 27/22 Q1003 NOSIG
ZGHA,2018-08-16 18:00,ZGHA 161800Z 33004MPS CAVOK 27/22 Q1003 NOSIG
ZGHA,2018-08-16 19:00,ZGHA 161900Z 34006MPS CAVOK 26/22 Q1003 NOSIG
ZGHA,2018-08-16 20:00,ZGHA 162000Z 36005MPS CAVOK 26/22 Q1003 NOSIG
ZGHA,2018-08-16 21:00,ZGHA 162100Z 34004MPS CAVOK 26/22 Q1003 NOSIG
ZGHA,2018-08-16 22:00,ZGHA 162200Z 34005MPS CAVOK 26/22 Q1003 NOSIG
ZGHA,2018-08-16 23:00,ZGHA 162300Z 34006MPS 8000 NSC 26/22 Q1003 NOSIG
ZGHA,2018-08-17 00:00,ZGHA 170000Z 35006MPS 8000 SCT013 26/22 Q1004 NOSIG
ZGHA,2018-08-17 01:00,ZGHA 170100Z 36006MPS 9000 FEW050 28/22 Q1004 NOSIG
ZGHA,2018-08-17 02:00,ZGHA 170200Z 35006MPS 9999 SCT022 29/22 Q1003 NOSIG
ZGHA,2018-08-17 03:00,ZGHA 170300Z 34006MPS 320V020 9999 SCT024 30/22 Q1003 NOSIG
ZGHA,2018-08-17 04:00,ZGHA 170400Z 34006MPS 9999 SCT040 32/23 Q1003 NOSIG
ZGHA,2018-08-17 05:00,ZGHA 170500Z 34006MPS 9999 SCT040 31/23 Q1002 NOSIG
ZGHA,2018-08-17 06:00,ZGHA 170600Z 34008MPS 9999 SCT025 BKN050 31/22 Q1002 NOSIG
ZGHA,2018-08-17 07:00,ZGHA 170700Z 35006MPS 9999 SCT023 OVC050 30/23 Q1001 BECMG TL0840 -TSRA SCT011 FEW040CB OVC050
ZGHA,2018-08-17 08:00,ZGHA 170800Z 34006G11MPS 8000 SHRA FEW050CB BKN050 28/24 Q1001 BECMG TL0840 -RA
ZGHA,2018-08-17 09:00,ZGHA 170900Z 35006MPS 8000 SCT023 BKN040 28/25 Q1000 RESHRA NOSIG
ZGHA,2018-08-17 10:00,ZGHA 171000Z 35005MPS CAVOK 28/24 Q1000 NOSIG
ZGHA,2018-08-17 11:00,ZGHA 171100Z 35006MPS 320V020 CAVOK 28/24 Q1001 NOSIG
ZGHA,2018-08-17 12:00,ZGHA 171200Z 35008MPS 9999 SCT050 27/23 Q1001 NOSIG
ZGHA,2018-08-17 13:00,ZGHA 171300Z 36007MPS 9999 SCT050 27/22 Q1002 NOSIG
ZGHA,2018-08-17 14:00,ZGHA 171400Z 35006MPS 9999 SCT050 27/23 Q1002 NOSIG
ZGHA,2018-08-17 15:00,ZGHA 171500Z 33005MPS 9999 SCT021 BKN050 27/23 Q1002 NOSIG
ZGHA,2018-08-17 16:00,ZGHA 171600Z 33006MPS 9999 BKN022 OVC040 26/22 Q1002 NOSIG
ZGHA,2018-08-17 17:00,ZGHA 171700Z 32006MPS 9999 SCT016 25/22 Q1002 NOSIG
ZGHA,2018-08-17 18:00,ZGHA 171800Z 31005MPS 9999 SCT010 BKN020 OVC040 25/23 Q1002 NOSIG
ZGHA,2018-08-17 19:00,ZGHA 171900Z 30004MPS 9999 -RA SCT010 BKN020 OVC040 24/23 Q1002 NOSIG
ZGHA,2018-08-17 20:00,ZGHA 172000Z 29003MPS 9999 BKN020 OVC040 24/23 Q1002 NOSIG
ZGHA,2018-08-17 21:00,ZGHA 172100Z 29003MPS 9999 -RA OVC040 24/23 Q1002 NOSIG
ZGHA,2018-08-17 22:00,ZGHA 172200Z 28002MPS 9999 OVC030 24/23 Q1002 NOSIG
ZGHA,2018-08-17 23:00,ZGHA 172300Z 28003MPS 260V330 9999 OVC026 24/23 Q1002 NOSIG
ZGHA,2018-08-18 00:00,ZGHA 180000Z 28003MPS 260V320 9999 -RA OVC026 24/23 Q1003 NOSIG
ZGHA,2018-08-18 01:00,ZGHA 180100Z 26002MPS 230V340 9000 -RA SCT015 OVC040 24/24 Q1003 NOSIG
ZGHA,2018-08-18 02:00,ZGHA 180200Z 29003MPS 250V320 9999 BKN011 OVC040 25/24 Q1003 BECMG TL0300 BKN009 OVC050
ZGHA,2018-08-18 03:00,ZGHA 180300Z 32004MPS 290V360 9999 BKN014 OVC040 25/22 Q1003 BECMG TL0400 BKN015 OVC050
ZGHA,2018-08-18 04:00,ZGHA 180400Z 34003MPS 8000 -RA FEW008 BKN020 OVC040 24/24 Q1003 NOSIG
ZGHA,2018-08-18 05:00,ZGHA 180500Z 30004MPS 9000 FEW010 BKN020 OVC040 25/24 Q1003 NOSIG
ZGHA,2018-08-18 06:00,ZGHA 180600Z 34005MPS 9999 FEW012 BKN020 OVC050 26/21 Q1002 NOSIG
ZGHA,2018-08-18 07:00,ZGHA 180700Z 33005MPS 300V010 9999 BKN030 OVC050 28/21 Q1002 NOSIG
ZGHA,2018-08-18 08:00,ZGHA 180800Z 35003MPS 320V020 9999 FEW020 BKN030 OVC050 28/21 Q1001 NOSIG
ZGHA,2018-08-18 09:00,ZGHA 180900Z 06003MPS 9999 OVC040 27/21 Q1001 NOSIG
ZGHA,2018-08-18 10:00,ZGHA 181000Z 08002MPS CAVOK 27/22 Q1001 NOSIG
ZGHA,2018-08-18 11:00,ZGHA 181100Z 12002MPS CAVOK 26/22 Q1002 NOSIG
ZGHA,2018-08-18 12:00,ZGHA 181200Z 16003MPS CAVOK 26/22 Q1002 NOSIG
ZGHA,2018-08-18 13:00,ZGHA 181300Z 15002MPS 100V210 CAVOK 25/23 Q1003 NOSIG
ZGHA,2018-08-18 14:00,ZGHA 181400Z VRB01MPS CAVOK 25/24 Q1003 NOSIG
ZGHA,2018-08-18 15:00,ZGHA 181500Z 17002MPS 070V240 CAVOK 25/24 Q1003 NOSIG
ZGHA,2018-08-18 16:00,ZGHA 181600Z 16002MPS 150V210 8000 NSC 24/24 Q1003 NOSIG
ZGHA,2018-08-18 17:00,ZGHA 181700Z 16002MPS 140V210 8000 NSC 24/24 Q1002 NOSIG
ZGHA,2018-08-18 18:00,ZGHA 181800Z 16003MPS 8000 NSC 24/24 Q1002 NOSIG
ZGHA,2018-08-18 19:00,ZGHA 181900Z 15002MPS 8000 NSC 24/24 Q1002 NOSIG
ZGHA,2018-08-18 20:00,ZGHA 182000Z 15003MPS 8000 NSC 24/23 Q1002 NOSIG
ZGHA,2018-08-18 21:00,ZGHA 182100Z 16002MPS 9000 NSC 24/23 Q1002 NOSIG
ZGHA,2018-08-18 22:00,ZGHA 182200Z 17001MPS 7000 NSC 24/23 Q1003 NOSIG
ZGHA,2018-08-18 23:00,ZGHA 182300Z 16003MPS 140V200 7000 NSC 25/24 Q1003 NOSIG
ZGHA,2018-08-19 00:00,ZGHA 190000Z 17004MPS 9000 NSC 27/22 Q1004 NOSIG
ZGHA,2018-08-19 01:00,ZGHA 190100Z 18003MPS 160V230 CAVOK 28/23 Q1004 NOSIG
ZGHA,2018-08-19 02:00,ZGHA 190200Z 20003MPS 160V230 CAVOK 30/23 Q1004 NOSIG
ZGHA,2018-08-19 03:00,ZGHA 190300Z 16002MPS 080V210 CAVOK 32/23 Q1003 NOSIG
ZGHA,2018-08-19 04:00,ZGHA 190400Z 22002MPS 160V270 CAVOK 34/23 Q1003 NOSIG
ZGHA,2018-08-19 05:00,ZGHA 190500Z VRB02MPS 9999 FEW040 34/22 Q1002 NOSIG
ZGHA,2018-08-19 06:00,ZGHA 190600Z VRB01MPS 9999 FEW040 35/21 Q1001 NOSIG
ZGHA,2018-08-19 07:00,ZGHA 190700Z VRB02MPS 9999 SCT040 36/21 Q1001 NOSIG
ZGHA,2018-08-19 08:00,ZGHA 190800Z VRB02MPS 9999 SCT050 36/20 Q1001 NOSIG
ZGHA,2018-08-19 09:00,ZGHA 190900Z 15002MPS 100V260 9999 FEW050 36/20 Q1000 NOSIG
ZGHA,2018-08-19 10:00,ZGHA 191000Z VRB02MPS CAVOK 35/20 Q1000 NOSIG
ZGHA,2018-08-19 11:00,ZGHA 191100Z 15002MPS 140V210 CAVOK 34/21 Q1001 NOSIG
ZGHA,2018-08-19 12:00,ZGHA 191200Z VRB01MPS CAVOK 32/23 Q1001 NOSIG
ZGHA,2018-08-19 13:00,ZGHA 191300Z VRB01MPS CAVOK 31/23 Q1002 NOSIG
ZGHA,2018-08-19 14:00,ZGHA 191400Z VRB01MPS CAVOK 30/24 Q1003 NOSIG
ZGHA,2018-08-19 15:00,ZGHA 191500Z VRB01MPS CAVOK 30/23 Q1003 NOSIG
ZGHA,2018-08-19 16:00,ZGHA 191600Z 02002MPS 360V070 CAVOK 28/24 Q1003 NOSIG
ZGHA,2018-08-19 17:00,ZGHA 191700Z VRB01MPS CAVOK 28/24 Q1002 NOSIG
ZGHA,2018-08-19 18:00,ZGHA 191800Z 03001MPS CAVOK 27/24 Q1002 NOSIG
ZGHA,2018-08-19 19:00,ZGHA 191900Z VRB01MPS CAVOK 27/26 Q1002 NOSIG
ZGHA,2018-08-19 20:00,ZGHA 192000Z 04001MPS CAVOK 27/26 Q1002 NOSIG
ZGHA,2018-08-19 21:00,ZGHA 192100Z 03001MPS CAVOK 26/26 Q1003 NOSIG
ZGHA,2018-08-19 22:00,ZGHA 192200Z 01003MPS CAVOK 26/25 Q1003 NOSIG
ZGHA,2018-08-19 23:00,ZGHA 192300Z VRB01MPS CAVOK 26/25 Q1003 NOSIG
ZGHA,2018-08-20 00:00,ZGHA 200000Z 03002MPS CAVOK 28/23 Q1004 NOSIG
ZGHA,2018-08-20 01:00,ZGHA 200100Z 04002MPS 010V070 CAVOK 31/24 Q1004 NOSIG
ZGHA,2018-08-20 02:00,ZGHA 200200Z VRB01MPS CAVOK 33/24 Q1004 NOSIG
ZGHA,2018-08-20 03:00,ZGHA 200300Z 02002MPS 340V100 CAVOK 35/23 Q1004 NOSIG
ZGHA,2018-08-20 04:00,ZGHA 200400Z 06004MPS 9999 SCT040 35/22 Q1003 NOSIG
ZGHA,2018-08-20 05:00,ZGHA 200500Z 36004MPS 320V080 9999 SCT040 37/22 Q1003 NOSIG
ZGHA,2018-08-20 06:00,ZGHA 200600Z 01005MPS 320V060 9999 SCT040 37/20 Q1002 NOSIG
ZGHA,2018-08-20 07:00,ZGHA 200700Z 36005MPS 320V060 9999 SCT040 37/20 Q1001 NOSIG
ZGHA,2018-08-20 08:00,ZGHA 200800Z 36005MPS 320V040 9999 FEW040 36/21 Q1001 NOSIG
ZGHA,2018-08-20 09:00,ZGHA 200900Z 36006MPS 310V030 9999 FEW040 36/21 Q1000 NOSIG
ZGHA,2018-08-20 10:00,ZGHA 201000Z 35006MPS 9999 FEW040 35/22 Q1000 NOSIG
ZGHA,2018-08-20 11:00,ZGHA 201100Z 34005MPS CAVOK 33/23 Q1001 NOSIG
ZGHA,2018-08-20 12:00,ZGHA 201200Z 34005MPS CAVOK 32/24 Q1001 NOSIG
ZGHA,2018-08-20 13:00,ZGHA 201300Z 33004MPS CAVOK 31/24 Q1002 NOSIG
ZGHA,2018-08-20 14:00,ZGHA 201400Z 35004MPS CAVOK 31/24 Q1002 NOSIG
ZGHA,2018-08-20 15:00,ZGHA 201500Z 36004MPS CAVOK 30/24 Q1002 NOSIG
ZGHA,2018-08-20 16:00,ZGHA 201600Z 36003MPS CAVOK 29/23 Q1002 NOSIG
ZGHA,2018-08-20 17:00,ZGHA 201700Z 36004MPS CAVOK 28/23 Q1002 NOSIG
ZGHA,2018-08-20 18:00,ZGHA 201800Z 01003MPS CAVOK 28/23 Q1002 NOSIG
ZGHA,2018-08-20 19:00,ZGHA 201900Z 01002MPS CAVOK 27/23 Q1002 NOSIG
ZGHA,2018-08-20 20:00,ZGHA 202000Z 01003MPS CAVOK 26/23 Q1002 NOSIG
ZGHA,2018-08-20 21:00,ZGHA 202100Z 03002MPS CAVOK 26/22 Q1002 NOSIG
ZGHA,2018-08-20 22:00,ZGHA 202200Z 06002MPS CAVOK 26/23 Q1002 NOSIG
ZGHA,2018-08-20 23:00,ZGHA 202300Z 02002MPS CAVOK 27/23 Q1002 NOSIG
ZGHA,2018-08-21 00:00,ZGHA 210000Z 04003MPS CAVOK 28/22 Q1003 NOSIG
ZGHA,2018-08-21 01:00,ZGHA 210100Z VRB01MPS CAVOK 30/23 Q1003 NOSIG
ZGHA,2018-08-21 02:00,ZGHA 210200Z 02004MPS CAVOK 32/21 Q1003 NOSIG
ZGHA,2018-08-21 03:00,ZGHA 210300Z VRB02MPS 9999 FEW050 34/22 Q1003 NOSIG
ZGHA,2018-08-21 04:00,ZGHA 210400Z VRB02MPS 9999 FEW050 34/21 Q1002 NOSIG
ZGHA,2018-08-21 05:00,ZGHA 210500Z VRB02MPS 9999 FEW050 35/20 Q1001 NOSIG
ZGHA,2018-08-21 06:00,ZGHA 210600Z 03004MPS 350V060 9999 SCT050 36/20 Q1001 NOSIG
ZGHA,2018-08-21 07:00,ZGHA 210700Z 35003MPS 310V060 9999 SCT050 37/20 Q1000 NOSIG
ZGHA,2018-08-21 09:00,ZGHA 210900Z 35005MPS 310V010 9999 FEW050 35/20 Q0999 NOSIG
ZGHA,2018-08-21 10:00,ZGHA 211000Z 35005MPS CAVOK 34/21 Q0999 NOSIG
ZGHA,2018-08-21 11:00,ZGHA 211100Z 35006MPS CAVOK 32/22 Q0999 NOSIG
ZGHA,2018-08-21 12:00,ZGHA 211200Z 36005MPS CAVOK 31/22 Q1000 NOSIG
ZGHA,2018-08-21 13:00,ZGHA 211300Z 35005MPS CAVOK 30/22 Q1001 NOSIG
ZGHA,2018-08-21 14:00,ZGHA 211400Z 36004MPS CAVOK 29/22 Q1002 NOSIG
ZGHA,2018-08-21 15:00,ZGHA 211500Z 02003MPS CAVOK 28/22 Q1002 NOSIG
ZGHA,2018-08-21 16:00,ZGHA 211600Z 01004MPS CAVOK 28/22 Q1002 NOSIG
ZGHA,2018-08-21 17:00,ZGHA 211700Z 01003MPS CAVOK 27/22 Q1002 NOSIG
ZGHA,2018-08-21 18:00,ZGHA 211800Z 02003MPS CAVOK 27/22 Q1001 NOSIG
ZGHA,2018-08-21 19:00,ZGHA 211900Z 01002MPS CAVOK 26/22 Q1001 NOSIG
ZGHA,2018-08-21 20:00,ZGHA 212000Z 36003MPS CAVOK 26/22 Q1001 NOSIG
ZGHA,2018-08-21 21:00,ZGHA 212100Z 36003MPS CAVOK 26/21 Q1001 NOSIG
ZGHA,2018-08-21 22:00,ZGHA 212200Z 02002MPS 9999 SCT050 26/22 Q1001 NOSIG
ZGHA,2018-08-21 23:00,ZGHA 212300Z 04002MPS 9999 BKN050 26/22 Q1002 NOSIG
ZGHA,2018-08-22 00:00,ZGHA 220000Z 03002MPS 360V070 9999 SCT050 28/22 Q1003 NOSIG
ZGHA,2018-08-22 01:00,ZGHA 220100Z 05002MPS 360V080 CAVOK 30/21 Q1004 NOSIG
ZGHA,2018-08-22 02:00,ZGHA 220200Z 04003MPS 340V090 CAVOK 32/22 Q1004 NOSIG
ZGHA,2018-08-22 03:00,ZGHA 220300Z VRB03MPS 9999 SCT040 34/20 Q1003 NOSIG
ZGHA,2018-08-22 04:00,ZGHA 220400Z 33004MPS 280V360 9999 SCT040 35/20 Q1003 NOSIG
ZGHA,2018-08-22 05:00,ZGHA 220500Z 03003MPS 340V070 9999 SCT050 34/20 Q1002 NOSIG
ZGHA,2018-08-22 06:00,ZGHA 220600Z 03004G09MPS 330V060 9999 SCT050 36/19 Q1002 NOSIG
ZGHA,2018-08-22 07:00,ZGHA 220700Z 36004MPS 320V040 9999 SCT050 36/19 Q1001 NOSIG
ZGHA,2018-08-22 08:00,ZGHA 220800Z 36006MPS 9999 BKN050 34/21 Q1000 NOSIG
ZGHA,2018-08-22 09:00,ZGHA 220900Z 01008MPS 9999 SCT050 33/21 Q1000 NOSIG
ZGHA,2018-08-22 10:00,ZGHA 221000Z 36007MPS CAVOK 32/22 Q1001 NOSIG
ZGHA,2018-08-22 11:00,ZGHA 221100Z 34006MPS CAVOK 31/22 Q1001 NOSIG
ZGHA,2018-08-22 12:00,ZGHA 221200Z 34005MPS CAVOK 31/22 Q1002 NOSIG
ZGHA,2018-08-22 13:00,ZGHA 221300Z 33005MPS CAVOK 30/21 Q1003 NOSIG
ZGHA,2018-08-22 14:00,ZGHA 221400Z 34005MPS CAVOK 30/21 Q1003 NOSIG
ZGHA,2018-08-22 15:00,ZGHA 221500Z 34005MPS CAVOK 29/22 Q1003 NOSIG
ZGHA,2018-08-22 16:00,ZGHA 221600Z 01004MPS CAVOK 28/22 Q1003 NOSIG
ZGHA,2018-08-22 17:00,ZGHA 221700Z 36004MPS CAVOK 28/22 Q1003 NOSIG
ZGHA,2018-08-22 18:00,ZGHA 221800Z 36003MPS CAVOK 27/22 Q1003 NOSIG
ZGHA,2018-08-22 19:00,ZGHA 221900Z 36004MPS CAVOK 27/22 Q1002 NOSIG
ZGHA,2018-08-22 20:00,ZGHA 222000Z 01004MPS CAVOK 27/23 Q1002 NOSIG
ZGHA,2018-08-22 21:00,ZGHA 222100Z 35004MPS CAVOK 27/22 Q1003 NOSIG
ZGHA,2018-08-22 22:00,ZGHA 222200Z 01003MPS 340V060 6000 NSC 26/22 Q1003 NOSIG
ZGHA,2018-08-22 23:00,ZGHA 222300Z 36003MPS 6000 NSC 27/23 Q1004 NOSIG
ZGHA,2018-08-23 00:00,ZGHA 230000Z 35006MPS 8000 NSC 28/22 Q1004 NOSIG
ZGHA,2018-08-23 01:00,ZGHA 230100Z 36005MPS 9000 NSC 30/23 Q1005 NOSIG
ZGHA,2018-08-23 02:00,ZGHA 230200Z 33004MPS 9000 FEW040 32/23 Q1005 NOSIG
ZGHA,2018-08-23 03:00,ZGHA 230300Z 34005MPS 290V020 9000 FEW028 SCT040 33/22 Q1005 NOSIG
ZGHA,2018-08-23 04:00,ZGHA 230400Z 33005MPS 280V020 9000 BKN040 33/22 Q1004 NOSIG
ZGHA,2018-08-23 05:00,ZGHA 230500Z 32005MPS 290V350 9999 SCT040 35/21 Q1004 NOSIG
ZGHA,2018-08-23 06:00,ZGHA 230600Z 33006MPS 9999 FEW040 32/22 Q1004 NOSIG
ZGHA,2018-08-23 07:00,ZGHA 230700Z 33005MPS 280V360 9999 SCT040 35/20 Q1003 NOSIG
ZGHA,2018-08-23 08:00,ZGHA 230800Z 34006MPS 9999 SCT040 34/21 Q1002 NOSIG
ZGHA,2018-08-23 09:00,ZGHA 230900Z 04004MPS 9999 SCT050 31/22 Q1002 NOSIG
ZGHA,2018-08-23 10:00,ZGHA 231000Z 36007MPS 9000 FEW050 30/22 Q1002 NOSIG
ZGHA,2018-08-23 11:00,ZGHA 231100Z 36006MPS 8000 NSC 30/23 Q1003 NOSIG
ZGHA,2018-08-23 12:00,ZGHA 231200Z 36006MPS 8000 NSC 29/22 Q1003 NOSIG
ZGHA,2018-08-23 13:00,ZGHA 231300Z 34005MPS 8000 NSC 29/22 Q1004 NOSIG
ZGHA,2018-08-23 14:00,ZGHA 231400Z 35005MPS 7000 NSC 29/23 Q1004 NOSIG
ZGHA,2018-08-23 15:00,ZGHA 231500Z 36005MPS 6000 NSC 28/22 Q1005 NOSIG
ZGHA,2018-08-23 16:00,ZGHA 231600Z 36004MPS 6000 NSC 28/23 Q1005 NOSIG
ZGHA,2018-08-23 17:00,ZGHA 231700Z 36003MPS 5000 BR BKN050 28/23 Q1005 NOSIG
ZGHA,2018-08-23 18:00,ZGHA 231800Z 03003MPS 5000 BR NSC 27/23 Q1004 NOSIG
ZGHA,2018-08-23 19:00,ZGHA 231900Z 36003MPS 5000 BR NSC 27/23 Q1004 NOSIG
ZGHA,2018-08-23 20:00,ZGHA 232000Z 34003MPS 5000 BR NSC 27/23 Q1004 NOSIG
ZGHA,2018-08-23 21:00,ZGHA 232100Z 34002MPS 5000 BR NSC 27/22 Q1004 NOSIG
ZGHA,2018-08-23 22:00,ZGHA 232200Z 36002MPS 4200 BR NSC 27/22 Q1004 NOSIG
ZGHA,2018-08-23 23:00,ZGHA 232300Z 36004MPS 3500 BR NSC 27/23 Q1005 NOSIG
ZGHA,2018-08-24 00:00,ZGHA 240000Z 01004MPS 3200 BR NSC 27/23 Q1005 NOSIG
ZGHA,2018-08-24 01:00,ZGHA 240100Z 02002MPS 350V050 4000 BR NSC 27/23 Q1006 NOSIG
ZGHA,2018-08-24 02:00,ZGHA 240200Z 02003MPS 350V060 4700 HZ NSC 29/23 Q1006 NOSIG
ZGHA,2018-08-24 03:00,ZGHA 240300Z 35002MPS 280V020 6000 NSC 30/22 Q1006 NOSIG
ZGHA,2018-08-24 04:00,ZGHA 240400Z VRB03MPS 7000 NSC 32/22 Q1005 NOSIG
ZGHA,2018-08-24 05:00,ZGHA 240500Z 33003MPS 250V040 9000 SCT040 34/21 Q1004 NOSIG
ZGHA,2018-08-24 06:00,ZGHA 240600Z 36004MPS 290V040 9999 BKN050 34/20 Q1004 NOSIG
ZGHA,2018-08-24 07:00,ZGHA 240700Z 02004MPS 340V040 9999 FEW050 34/19 Q1003 NOSIG
ZGHA,2018-08-24 08:00,ZGHA 240800Z 36005MPS CAVOK 34/20 Q1003 NOSIG
ZGHA,2018-08-24 09:00,ZGHA 240900Z 35007MPS CAVOK 33/20 Q1002 NOSIG
ZGHA,2018-08-24 10:00,ZGHA 241000Z 36006MPS CAVOK 31/20 Q1002 NOSIG
ZGHA,2018-08-24 11:00,ZGHA 241100Z 35004MPS CAVOK 30/21 Q1003 NOSIG
ZGHA,2018-08-24 12:00,ZGHA 241200Z 34004MPS CAVOK 29/20 Q1003 NOSIG
ZGHA,2018-08-24 13:00,ZGHA 241300Z 36003MPS CAVOK 28/20 Q1004 NOSIG
ZGHA,2018-08-24 14:00,ZGHA 241400Z 01002MPS CAVOK 27/21 Q1005 NOSIG
ZGHA,2018-08-24 15:00,ZGHA 241500Z 36003MPS CAVOK 27/21 Q1005 NOSIG
ZGHA,2018-08-24 16:00,ZGHA 241600Z 03002MPS CAVOK 27/21 Q1005 NOSIG
ZGHA,2018-08-24 17:00,ZGHA 241700Z 36003MPS CAVOK 26/21 Q1005 NOSIG
ZGHA,2018-08-24 18:00,ZGHA 241800Z 02002MPS CAVOK 26/21 Q1004 NOSIG
ZGHA,2018-08-24 19:00,ZGHA 241900Z 01003MPS CAVOK 25/21 Q1004 NOSIG
ZGHA,2018-08-24 20:00,ZGHA 242000Z 01003MPS CAVOK 25/21 Q1004 NOSIG
ZGHA,2018-08-24 21:00,ZGHA 242100Z 02002MPS CAVOK 24/20 Q1004 NOSIG
ZGHA,2018-08-24 22:00,ZGHA 242200Z 02002MPS CAVOK 24/20 Q1004 NOSIG
ZGHA,2018-08-24 23:00,ZGHA 242300Z 04003MPS CAVOK 25/20 Q1005 NOSIG
ZGHA,2018-08-25 00:00,ZGHA 250000Z 05002MPS CAVOK 27/19 Q1005 NOSIG
ZGHA,2018-08-25 01:00,ZGHA 250100Z 02002MPS 320V080 CAVOK 29/19 Q1005 NOSIG
ZGHA,2018-08-25 02:00,ZGHA 250200Z 02004MPS 360V060 CAVOK 31/19 Q1005 NOSIG
ZGHA,2018-08-25 03:00,ZGHA 250300Z 03004MPS 340V070 CAVOK 33/19 Q1005 NOSIG
ZGHA,2018-08-25 04:00,ZGHA 250400Z 03004MPS 340V070 9999 FEW050 34/17 Q1004 NOSIG
ZGHA,2018-08-25 05:00,ZGHA 250500Z 36007MPS 9999 SCT050 35/17 Q1003 NOSIG
ZGHA,2018-08-25 06:00,ZGHA 250600Z 04005MPS 360V060 9999 SCT050 35/16 Q1003 NOSIG
ZGHA,2018-08-25 07:00,ZGHA 250700Z 35006MPS 320V020 9999 SCT050 35/17 Q1002 NOSIG
ZGHA,2018-08-25 08:00,ZGHA 250800Z 36006MPS 9999 SCT050 35/17 Q1002 NOSIG
ZGHA,2018-08-25 09:00,ZGHA 250900Z 35007MPS CAVOK 34/19 Q1002 NOSIG
ZGHA,2018-08-25 10:00,ZGHA 251000Z 34006MPS CAVOK 33/20 Q1002 NOSIG
ZGHA,2018-08-25 11:00,ZGHA 251100Z 34007MPS CAVOK 31/20 Q1002 NOSIG
ZGHA,2018-08-25 12:00,ZGHA 251200Z 36006MPS CAVOK 30/20 Q1003 NOSIG
ZGHA,2018-08-25 13:00,ZGHA 251300Z VRB01MPS CAVOK 30/20 Q1004 NOSIG
ZGHA,2018-08-25 14:00,ZGHA 251400Z 18002MPS CAVOK 28/20 Q1004 NOSIG
ZGHA,2018-08-25 15:00,ZGHA 251500Z 29002MPS 230V010 CAVOK 29/20 Q1004 NOSIG
ZGHA,2018-08-25 16:00,ZGHA 251600Z VRB01MPS CAVOK 28/20 Q1004 NOSIG
ZGHA,2018-08-25 17:00,ZGHA 251700Z 03004MPS CAVOK 28/19 Q1004 NOSIG
ZGHA,2018-08-25 18:00,ZGHA 251800Z 04003MPS CAVOK 27/20 Q1003 NOSIG
ZGHA,2018-08-25 19:00,ZGHA 251900Z 04005MPS 9999 BKN050 27/20 Q1003 NOSIG
ZGHA,2018-08-25 20:00,ZGHA 252000Z 03004MPS 3700 -SHRA BR NSC 23/23 Q1004 NOSIG
ZGHA,2018-08-25 21:00,ZGHA 252100Z 36004MPS 5000 -SHRA BR SCT025 OVC040 24/24 Q1004 NOSIG
ZGHA,2018-08-25 22:00,ZGHA 252200Z 36004MPS 3000 SHRA BR SCT025 FEW033CB BKN033 23/23 Q1004 BECMG TL2300 2500 -SHRA BR
ZGHA,2018-08-25 23:00,ZGHA 252300Z 36005MPS 3000 -RA BR SCT007 OVC023 23/23 Q1004 RESHRA BECMG TL0030 2500 RA BR
ZGHA,2018-08-26 00:00,ZGHA 260000Z 02004MPS 2500 -RA BR SCT007 OVC020 24/24 Q1005 BECMG TL0050 3000 RA BR
ZGHA,2018-08-26 01:00,ZGHA 260100Z 01005MPS 2500 RA BR BKN006 OVC026 24/24 Q1005 BECMG TL0200 3000 -RA BR
ZGHA,2018-08-26 02:00,ZGHA 260200Z 01005MPS 3200 -RA BR BKN007 OVC033 24/24 Q1005 RERA BECMG TL0350 BKN010 OVC050
ZGHA,2018-08-26 03:00,ZGHA 260300Z 01005MPS 3000 RA BR BKN006 OVC033 24/24 Q1005 BECMG TL0400 -RA BKN010 OVC050
ZGHA,2018-08-26 04:00,ZGHA 260400Z 36005MPS 6000 -RA BKN008 OVC033 25/25 Q1005 RERA BECMG TL0550 BKN010 OVC050
ZGHA,2018-08-26 05:00,ZGHA 260500Z 01005MPS 7000 -RA SCT007 BKN011 OVC033 26/26 Q1004 BECMG TL0650 BKN015 OVC050
ZGHA,2018-08-26 06:00,ZGHA 260600Z 36007MPS 8000 -RA SCT009 BKN013 OVC050 26/25 Q1004 NOSIG
ZGHA,2018-08-26 07:00,ZGHA 260700Z 36006MPS 8000 FEW009 BKN013 OVC050 26/25 Q1003 BECMG TL0800 BKN015 OVC050
ZGHA,2018-08-26 08:00,ZGHA 260800Z 35006MPS 9000 SCT013 26/26 Q1003 NOSIG
ZGHA,2018-08-26 09:00,ZGHA 260900Z 36006MPS 9000 SCT013 27/25 Q1003 NOSIG
ZGHA,2018-08-26 10:00,ZGHA 261000Z 35005MPS 9000 SCT013 27/25 Q1003 NOSIG
ZGHA,2018-08-26 11:00,ZGHA 261100Z 35005MPS 8000 SCT013 26/25 Q1003 NOSIG
ZGHA,2018-08-26 12:00,ZGHA 261200Z 36006MPS 8000 SCT025 26/25 Q1004 NOSIG
ZGHA,2018-08-26 13:00,ZGHA 261300Z 36005MPS 7000 NSC 26/25 Q1004 NOSIG
ZGHA,2018-08-26 14:00,ZGHA 261400Z 01005MPS 7000 NSC 25/25 Q1004 NOSIG
ZGHA,2018-08-26 15:00,ZGHA 261500Z 36005MPS 6000 NSC 25/25 Q1004 NOSIG
ZGHA,2018-08-26 16:00,ZGHA 261600Z 36005MPS 6000 BKN050 25/25 Q1004 NOSIG
ZGHA,2018-08-26 17:00,ZGHA 261700Z 36005MPS 5000 BR FEW007 BKN050 25/25 Q1004 NOSIG
ZGHA,2018-08-26 18:00,ZGHA 261800Z 36004MPS 5000 BR BKN040 25/25 Q1004 NOSIG
ZGHA,2018-08-26 19:00,ZGHA 261900Z 36003MPS 5000 BR BKN050 25/25 Q1004 NOSIG
ZGHA,2018-08-26 20:00,ZGHA 262000Z 36003MPS 5000 BR BKN050 25/25 Q1003 NOSIG
ZGHA,2018-08-26 21:00,ZGHA 262100Z 36004MPS 6000 BKN050 25/24 Q1004 NOSIG
ZGHA,2018-08-26 22:00,ZGHA 262200Z 35004MPS 6000 BKN050 25/24 Q1004 NOSIG
ZGHA,2018-08-26 23:00,ZGHA 262300Z 36004MPS 6000 NSC 26/24 Q1004 NOSIG
ZGHA,2018-08-27 00:00,ZGHA 270000Z 34004MPS 7000 NSC 27/24 Q1004 NOSIG
ZGHA,2018-08-27 01:00,ZGHA 270100Z 36004MPS 8000 NSC 27/25 Q1005 NOSIG
ZGHA,2018-08-27 02:00,ZGHA 270200Z 35004MPS 9999 FEW026 30/23 Q1005 NOSIG
ZGHA,2018-08-27 03:00,ZGHA 270300Z VRB02MPS 9999 BKN026 32/24 Q1005 NOSIG
ZGHA,2018-08-27 04:00,ZGHA 270400Z 02003MPS 340V060 9999 SCT030 BKN050 32/23 Q1004 NOSIG
ZGHA,2018-08-27 05:00,ZGHA 270500Z 01004MPS 9999 SCT050 32/23 Q1003 NOSIG
ZGHA,2018-08-27 06:00,ZGHA 270600Z 06004MPS 9999 SCT050 33/23 Q1003 NOSIG
ZGHA,2018-08-27 07:00,ZGHA 270700Z 35005MPS 320V020 9999 FEW050TCU FEW050 33/24 Q1002 NOSIG
ZGHA,2018-08-27 08:00,ZGHA 270800Z 30004MPS 280V340 8000 SCT040TCU 31/25 Q1001 NOSIG
ZGHA,2018-08-27 09:00,ZGHA 270900Z VRB02MPS 9999 TS FEW015 FEW040CB BKN040 29/25 Q1002 RESHRA BECMG TL0940 NSW
ZGHA,2018-08-27 10:00,ZGHA 271000Z 27002MPS 160V330 9999 FEW040TCU FEW040 28/25 Q1001 RETS NOSIG
ZGHA,2018-08-27 11:00,ZGHA 271100Z 30003MPS 270V330 9999 SCT040 28/25 Q1002 NOSIG
ZGHA,2018-08-27 12:00,ZGHA 271200Z 34003MPS 9999 SCT050 29/25 Q1002 NOSIG
ZGHA,2018-08-27 13:00,ZGHA 271300Z 36003MPS 300V030 CAVOK 28/25 Q1003 NOSIG
ZGHA,2018-08-27 14:00,ZGHA 271400Z 04003MPS 9999 FEW050 28/24 Q1003 NOSIG
ZGHA,2018-08-27 15:00,ZGHA 271500Z 01002MPS CAVOK 27/24 Q1003 NOSIG
ZGHA,2018-08-27 16:00,ZGHA 271600Z 36004MPS CAVOK 27/23 Q1003 NOSIG
ZGHA,2018-08-27 17:00,ZGHA 271700Z 01003MPS CAVOK 27/24 Q1003 NOSIG
ZGHA,2018-08-27 18:00,ZGHA 271800Z 01003MPS 9999 SCT050 27/23 Q1003 NOSIG
ZGHA,2018-08-27 19:00,ZGHA 271900Z 02003MPS CAVOK 27/24 Q1003 NOSIG
ZGHA,2018-08-27 20:00,ZGHA 272000Z 03003MPS CAVOK 27/24 Q1002 NOSIG
ZGHA,2018-08-27 21:00,ZGHA 272100Z 01003MPS CAVOK 27/24 Q1003 NOSIG
ZGHA,2018-08-27 22:00,ZGHA 272200Z 36004MPS 8000 SCT040 27/24 Q1003 NOSIG
ZGHA,2018-08-27 23:00,ZGHA 272300Z 02001MPS 7000 -RA BKN040 27/24 Q1003 NOSIG
ZGHA,2018-08-28 00:00,ZGHA 280000Z 01002MPS 8000 -RA FEW016 SCT030 BKN050 27/24 Q1004 NOSIG
ZGHA,2018-08-28 01:00,ZGHA 280100Z 36003MPS 7000 -RA FEW016 SCT030 BKN040 27/24 Q1004 NOSIG
ZGHA,2018-08-28 02:00,ZGHA 280200Z 35002MPS 320V020 7000 -RA BKN040 27/25 Q1004 NOSIG
ZGHA,2018-08-28 03:00,ZGHA 280300Z 34004MPS 9000 NSC 29/25 Q1004 NOSIG
ZGHA,2018-08-28 04:00,ZGHA 280400Z 34004MPS 310V010 9999 FEW013 30/25 Q1004 NOSIG
ZGHA,2018-08-28 05:00,ZGHA 280500Z 34003MPS 290V020 9999 FEW016 33/25 Q1003 NOSIG
ZGHA,2018-08-28 06:00,ZGHA 280600Z VRB01MPS 8000 -RA FEW050 29/26 Q1002 NOSIG
ZGHA,2018-08-28 07:00,ZGHA 280700Z 35004MPS 330V030 9999 SCT050 33/24 Q1002 NOSIG
ZGHA,2018-08-28 08:00,ZGHA 280800Z 35003MPS 320V020 9999 BKN050 33/24 Q1001 NOSIG
ZGHA,2018-08-28 09:00,ZGHA 280900Z 03002MPS 360V060 9999 SCT050 30/25 Q1001 NOSIG
ZGHA,2018-08-28 10:00,ZGHA 281000Z 01005MPS 9999 SCT050 30/25 Q1001 NOSIG
ZGHA,2018-08-28 11:00,ZGHA 281100Z 03003MPS 9999 -RA SCT050 27/25 Q1001 NOSIG
ZGHA,2018-08-28 12:00,ZGHA 281200Z VRB01MPS CAVOK 28/25 Q1002 NOSIG
ZGHA,2018-08-28 13:00,ZGHA 281300Z 36003MPS CAVOK 27/25 Q1003 NOSIG
ZGHA,2018-08-28 14:00,ZGHA 281400Z 01002MPS CAVOK 27/25 Q1003 NOSIG
ZGHA,2018-08-28 15:00,ZGHA 281500Z 03003MPS CAVOK 27/25 Q1003 NOSIG
ZGHA,2018-08-28 16:00,ZGHA 281600Z 05002MPS 030V090 CAVOK 27/25 Q1003 NOSIG
ZGHA,2018-08-28 17:00,ZGHA 281700Z 02003MPS CAVOK 27/25 Q1003 NOSIG
ZGHA,2018-08-28 18:00,ZGHA 281800Z VRB01MPS 8000 NSC 27/25 Q1002 NOSIG
ZGHA,2018-08-28 19:00,ZGHA 281900Z 02001MPS 6000 NSC 26/25 Q1002 NOSIG
ZGHA,2018-08-28 20:00,ZGHA 282000Z 03003MPS 4000 BR SCT004 26/25 Q1002 NOSIG
ZGHA,2018-08-28 21:00,ZGHA 282100Z 34001MPS 4500 BR BKN050 26/25 Q1002 NOSIG
ZGHA,2018-08-28 22:00,ZGHA 282200Z 03001MPS 4000 BR NSC 26/25 Q1002 NOSIG
ZGHA,2018-08-28 23:00,ZGHA 282300Z 02002MPS 3000 BR NSC 27/26 Q1003 NOSIG
ZGHA,2018-08-29 00:00,ZGHA 290000Z 01003MPS 3200 BR NSC 28/26 Q1003 NOSIG
ZGHA,2018-08-29 01:00,ZGHA 290100Z 04002MPS 6000 NSC 28/25 Q1003 NOSIG
ZGHA,2018-08-29 02:00,ZGHA 290200Z VRB01MPS 9000 NSC 30/25 Q1003 NOSIG
ZGHA,2018-08-29 03:00,ZGHA 290300Z VRB01MPS 9999 SCT050 33/24 Q1003 NOSIG
ZGHA,2018-08-29 04:00,ZGHA 290400Z 03002MPS 340V060 9999 SCT040 33/24 Q1003 NOSIG
ZGHA,2018-08-29 05:00,ZGHA 290500Z 04002MPS 360V090 9999 SCT040 FEW050TCU 33/23 Q1002 NOSIG
ZGHA,2018-08-29 06:00,ZGHA 290600Z 13003MPS 9999 FEW040TCU SCT040 30/25 Q1001 NOSIG
ZGHA,2018-08-29 07:00,ZGHA 290700Z 13003MPS 080V160 9999 FEW040TCU FEW040 34/23 Q1001 NOSIG
ZGHA,2018-08-29 08:00,ZGHA 290800Z VRB01MPS 9999 FEW040TCU SCT040 36/23 Q1000 NOSIG
ZGHA,2018-08-29 09:00,ZGHA 290900Z 31006MPS 9999 BKN040 32/24 Q1000 NOSIG
ZGHA,2018-08-29 10:00,ZGHA 291000Z 36003MPS 9999 SCT040 31/23 Q1000 NOSIG
ZGHA,2018-08-29 11:00,ZGHA 291100Z 05003MPS 020V080 9999 FEW040TCU FEW040 30/24 Q1001 NOSIG
ZGHA,2018-08-29 12:00,ZGHA 291200Z 01003MPS CAVOK 29/24 Q1002 NOSIG
ZGHA,2018-08-29 13:00,ZGHA 291300Z 36002MPS 330V060 CAVOK 29/23 Q1003 NOSIG
ZGHA,2018-08-29 14:00,ZGHA 291400Z 02002MPS CAVOK 29/24 Q1003 NOSIG
ZGHA,2018-08-29 15:00,ZGHA 291500Z 03002MPS CAVOK 28/24 Q1002 NOSIG
ZGHA,2018-08-29 16:00,ZGHA 291600Z 01004MPS CAVOK 27/25 Q1002 NOSIG
ZGHA,2018-08-29 17:00,ZGHA 291700Z 36003MPS CAVOK 27/24 Q1003 NOSIG
ZGHA,2018-08-29 18:00,ZGHA 291800Z VRB01MPS CAVOK 27/24 Q1003 NOSIG
ZGHA,2018-08-29 19:00,ZGHA 291900Z VRB01MPS CAVOK 27/24 Q1002 NOSIG
ZGHA,2018-08-29 20:00,ZGHA 292000Z 02003MPS CAVOK 27/24 Q1002 NOSIG
ZGHA,2018-08-29 21:00,ZGHA 292100Z 05002MPS CAVOK 27/25 Q1002 NOSIG
ZGHA,2018-08-29 22:00,ZGHA 292200Z 13002MPS 110V170 9999 -RA NSC 27/24 Q1003 NOSIG
ZGHA,2018-08-29 23:00,ZGHA 292300Z 16002MPS CAVOK 26/24 Q1003 NOSIG
ZGHA,2018-08-30 00:00,ZGHA 300000Z VRB01MPS CAVOK 26/24 Q1004 NOSIG
ZGHA,2018-08-30 01:00,ZGHA 300100Z 18002MPS 150V220 CAVOK 28/24 Q1004 NOSIG
ZGHA,2018-08-30 02:00,ZGHA 300200Z VRB01MPS CAVOK 29/24 Q1005 NOSIG
ZGHA,2018-08-30 03:00,ZGHA 300300Z 17002MPS 110V210 9999 FEW020 31/24 Q1005 NOSIG
ZGHA,2018-08-30 04:00,ZGHA 300400Z VRB02MPS 9999 BKN026 31/23 Q1004 NOSIG
ZGHA,2018-08-30 05:00,ZGHA 300500Z 18002MPS 130V250 9999 SCT040 33/23 Q1003 NOSIG
ZGHA,2018-08-30 06:00,ZGHA 300600Z 15002MPS 130V220 9999 SCT040 33/22 Q1002 NOSIG
ZGHA,2018-08-30 07:00,ZGHA 300700Z 14002MPS 100V180 9999 SCT040 33/23 Q1002 BECMG TL0800 TSRA
ZGHA,2018-08-30 08:00,ZGHA 300800Z 13007MPS 4000 SHRA BR FEW040CB BKN040 30/25 Q1002 BECMG TL0830 2500 +SHRA BR
ZGHA,2018-08-30 09:00,ZGHA 300900Z 16002MPS 110V220 CAVOK 28/25 Q1003 RETSRA NOSIG
ZGHA,2018-08-30 10:00,ZGHA 301000Z VRB01MPS CAVOK 28/25 Q1003 NOSIG
ZGHA,2018-08-30 11:00,ZGHA 301100Z 24002MPS 200V280 CAVOK 28/25 Q1004 NOSIG
ZGHA,2018-08-30 12:00,ZGHA 301200Z 15002MPS 120V210 CAVOK 28/25 Q1004 NOSIG
ZGHA,2018-08-30 13:00,ZGHA 301300Z 19002MPS 130V230 CAVOK 28/25 Q1005 NOSIG
ZGHA,2018-08-30 14:00,ZGHA 301400Z 22002MPS CAVOK 27/25 Q1006 NOSIG
ZGHA,2018-08-30 15:00,ZGHA 301500Z VRB01MPS CAVOK 27/25 Q1006 NOSIG
ZGHA,2018-08-30 16:00,ZGHA 301600Z VRB01MPS CAVOK 27/25 Q1006 NOSIG
ZGHA,2018-08-30 17:00,ZGHA 301700Z VRB01MPS CAVOK 27/25 Q1006 NOSIG
ZGHA,2018-08-30 18:00,ZGHA 301800Z 17002MPS 9999 SCT033 27/24 Q1006 NOSIG
ZGHA,2018-08-30 19:00,ZGHA 301900Z 15004MPS 9999 BKN040 27/24 Q1006 NOSIG
ZGHA,2018-08-30 20:00,ZGHA 302000Z 15003MPS 9999 BKN040 26/23 Q1006 NOSIG
ZGHA,2018-08-30 21:00,ZGHA 302100Z VRB01MPS 9999 BKN050 26/23 Q1006 NOSIG
ZGHA,2018-08-30 22:00,ZGHA 302200Z 18002MPS 140V210 CAVOK 26/23 Q1007 NOSIG
ZGHA,2018-08-30 23:00,ZGHA 302300Z 18002MPS 9999 SCT030 26/23 Q1007 NOSIG
ZGHA,2018-08-31 00:00,ZGHA 310000Z 16003MPS 140V200 CAVOK 28/24 Q1008 NOSIG
ZGHA,2018-08-31 01:00,ZGHA 310100Z 18004MPS 160V220 9999 FEW015 SCT033 28/23 Q1008 NOSIG
ZGHA,2018-08-31 02:00,ZGHA 310200Z 18004MPS 140V200 9999 FEW020 SCT040 29/23 Q1008 NOSIG
ZGHA,2018-08-31 03:00,ZGHA 310300Z 16004MPS 140V210 9999 SCT020 BKN040 30/22 Q1008 NOSIG
ZGHA,2018-08-31 04:00,ZGHA 310400Z 14004MPS 100V180 9999 BKN030 32/23 Q1008 NOSIG
ZGHA,2018-08-31 05:00,ZGHA 310500Z 17005MPS 9999 BKN040 31/23 Q1007 NOSIG
ZGHA,2018-08-31 06:00,ZGHA 310600Z 15004MPS 120V180 9999 BKN040 32/22 Q1006 NOSIG
ZGHA,2018-08-31 07:00,ZGHA 310700Z 18003MPS 120V230 9999 SCT040 33/22 Q1005 NOSIG
ZGHA,2018-08-31 08:00,ZGHA 310800Z 18004MPS 130V220 9999 SCT040 33/21 Q1005 NOSIG
ZGHA,2018-08-31 09:00,ZGHA 310900Z 18006MPS 9999 SCT040 31/22 Q1005 NOSIG
ZGHA,2018-08-31 10:00,ZGHA 311000Z 21004MPS 9999 BKN040 29/23 Q1006 NOSIG
ZGHA,2018-08-31 11:00,ZGHA 311100Z 16003MPS 9999 BKN050 28/23 Q1006 NOSIG
ZGHA,2018-08-31 12:00,ZGHA 311200Z 17005MPS 9999 BKN040 28/23 Q1007 NOSIG
ZGHA,2018-08-31 13:00,ZGHA 311300Z 16005MPS 9999 FEW030 27/22 Q1008 NOSIG
ZGHA,2018-08-31 14:00,ZGHA 311400Z 16004MPS CAVOK 26/23 Q1008 NOSIG
ZGHA,2018-08-31 15:00,ZGHA 311500Z 18003MPS 160V220 9999 SCT050 26/23 Q1009 NOSIG
ZGHA,2018-08-31 16:00,ZGHA 311600Z 19002MPS 150V260 CAVOK 26/23 Q1009 NOSIG
ZGHA,2018-08-31 17:00,ZGHA 311700Z 19002MPS 150V220 CAVOK 26/23 Q1008 NOSIG
ZGHA,2018-08-31 18:00,ZGHA 311800Z 17003MPS 9999 FEW050 26/23 Q1008 NOSIG
ZGHA,2018-08-31 19:00,ZGHA 311900Z 19002MPS 9999 FEW050 26/23 Q1008 NOSIG
ZGHA,2018-08-31 20:00,ZGHA 312000Z 17002MPS 9999 FEW050 26/23 Q1007 NOSIG
ZGHA,2018-08-31 21:00,ZGHA 312100Z 19002MPS 9999 SCT050 26/23 Q1008 NOSIG
ZGHA,2018-08-31 22:00,ZGHA 312200Z 17002MPS CAVOK 26/23 Q1008 NOSIG
ZGHA,2018-08-31 23:00,ZGHA 312300Z 19002MPS 160V240 CAVOK 26/23 Q1008 NOSIG
ZGHA,2018-09-01 00:00,ZGHA 010000Z 16004MPS CAVOK 28/22 Q1008 NOSIG
ZGHA,2018-09-01 01:00,ZGHA 010100Z 19004MPS 160V220 9999 SCT020 29/22 Q1008 NOSIG
ZGHA,2018-09-01 02:00,ZGHA 010200Z 19003MPS 150V240 9999 BKN026 30/22 Q1009 NOSIG
ZGHA,2018-09-01 03:00,ZGHA 010300Z 20004MPS 160V240 9999 BKN030 31/22 Q1008 NOSIG
ZGHA,2018-09-01 04:00,ZGHA 010400Z 22004MPS 190V260 9999 BKN030 32/22 Q1008 NOSIG
ZGHA,2018-09-01 05:00,ZGHA 010500Z 22003MPS 180V280 9999 SCT040 32/22 Q1007 NOSIG
ZGHA,2018-09-01 06:00,ZGHA 010600Z 18004MPS 9999 SCT040 32/22 Q1006 NOSIG
ZGHA,2018-09-01 07:00,ZGHA 010700Z 16005MPS 9999 SCT040 33/23 Q1005 NOSIG
ZGHA,2018-09-01 08:00,ZGHA 010800Z 18004MPS 090V240 9999 FEW040TCU SCT040 34/23 Q1005 NOSIG
ZGHA,2018-09-01 09:00,ZGHA 010900Z 17002MPS 140V200 9999 FEW040TCU FEW040 32/23 Q1005 NOSIG
ZGHA,2018-09-01 10:00,ZGHA 011000Z 13003MPS 100V170 9999 FEW040TCU 31/23 Q1005 NOSIG
ZGHA,2018-09-01 11:00,ZGHA 011100Z 17002MPS 140V230 9999 FEW040TCU 31/23 Q1005 NOSIG
ZGHA,2018-09-01 12:00,ZGHA 011200Z 14002MPS 100V180 9999 FEW040TCU 29/23 Q1006 NOSIG
ZGHA,2018-09-01 13:00,ZGHA 011300Z 16002MPS 140V210 CAVOK 29/23 Q1007 NOSIG
ZGHA,2018-09-01 14:00,ZGHA 011400Z 17002MPS 120V220 CAVOK 28/23 Q1007 NOSIG
ZGHA,2018-09-01 15:00,ZGHA 011500Z 16002MPS CAVOK 28/24 Q1007 NOSIG
ZGHA,2018-09-01 16:00,ZGHA 011600Z 17004MPS CAVOK 27/24 Q1007 NOSIG
ZGHA,2018-09-01 17:00,ZGHA 011700Z 16003MPS 140V200 CAVOK 27/24 Q1007 NOSIG
ZGHA,2018-09-01 18:00,ZGHA 011800Z 17003MPS CAVOK 27/24 Q1006 NOSIG
ZGHA,2018-09-01 19:00,ZGHA 011900Z 18003MPS CAVOK 26/23 Q1006 NOSIG
ZGHA,2018-09-01 20:00,ZGHA 012000Z 19002MPS CAVOK 26/23 Q1006 NOSIG
ZGHA,2018-09-01 21:00,ZGHA 012100Z 17002MPS CAVOK 26/23 Q1006 NOSIG
ZGHA,2018-09-01 22:00,ZGHA 012200Z 15002MPS CAVOK 26/24 Q1006 NOSIG
ZGHA,2018-09-01 23:00,ZGHA 012300Z 19002MPS 150V280 CAVOK 26/23 Q1006 NOSIG
ZGHA,2018-09-02 00:00,ZGHA 020000Z 18004MPS CAVOK 28/23 Q1007 NOSIG
ZGHA,2018-09-02 01:00,ZGHA 020100Z 19003MPS 9999 FEW033 29/22 Q1007 NOSIG
ZGHA,2018-09-02 02:00,ZGHA 020200Z 21003MPS 160V250 9999 SCT033 31/23 Q1007 NOSIG
ZGHA,2018-09-02 03:00,ZGHA 020300Z 23004MPS 200V260 9999 SCT033 31/21 Q1007 NOSIG
ZGHA,2018-09-02 04:00,ZGHA 020400Z 22003MPS 180V280 9999 SCT033 32/22 Q1006 NOSIG
ZGHA,2018-09-02 05:00,ZGHA 020500Z 21004MPS 170V240 9999 SCT033 33/22 Q1005 NOSIG
ZGHA,2018-09-02 06:00,ZGHA 020600Z 18003MPS 110V210 9999 SCT033 34/21 Q1005 NOSIG
ZGHA,2018-09-02 07:00,ZGHA 020700Z 23003MPS 140V270 9999 BKN040 35/21 Q1004 NOSIG
ZGHA,2018-09-02 08:00,ZGHA 020800Z 21002MPS 160V250 9999 BKN040 35/21 Q1003 NOSIG
ZGHA,2018-09-02 09:00,ZGHA 020900Z 19002MPS 160V230 9999 SCT040 34/22 Q1003 NOSIG
ZGHA,2018-09-02 10:00,ZGHA 021000Z 16003MPS 120V220 CAVOK 33/22 Q1003 NOSIG
ZGHA,2018-09-02 11:00,ZGHA 021100Z 14002MPS CAVOK 32/23 Q1003 NOSIG
ZGHA,2018-09-02 12:00,ZGHA 021200Z 19002MPS 170V230 CAVOK 31/23 Q1004 NOSIG
ZGHA,2018-09-02 13:00,ZGHA 021300Z 16002MPS 110V210 CAVOK 30/23 Q1005 NOSIG
ZGHA,2018-09-02 14:00,ZGHA 021400Z 20002MPS 140V280 CAVOK 30/23 Q1005 NOSIG
ZGHA,2018-09-02 15:00,ZGHA 021500Z VRB01MPS CAVOK 29/23 Q1005 NOSIG
ZGHA,2018-09-02 16:00,ZGHA 021600Z VRB01MPS CAVOK 29/23 Q1005 NOSIG
ZGHA,2018-09-02 17:00,ZGHA 021700Z 16002MPS CAVOK 28/24 Q1005 NOSIG
ZGHA,2018-09-02 18:00,ZGHA 021800Z 19001MPS CAVOK 27/24 Q1005 NOSIG
ZGHA,2018-09-02 19:00,ZGHA 021900Z VRB01MPS CAVOK 27/24 Q1005 NOSIG
ZGHA,2018-09-02 20:00,ZGHA 022000Z VRB01MPS CAVOK 27/24 Q1005 NOSIG
ZGHA,2018-09-02 21:00,ZGHA 022100Z VRB01MPS CAVOK 27/24 Q1005 NOSIG
ZGHA,2018-09-02 22:00,ZGHA 022200Z VRB01MPS CAVOK 27/24 Q1005 NOSIG
ZGHA,2018-09-02 23:00,ZGHA 022300Z VRB01MPS CAVOK 27/24 Q1005 NOSIG
ZGHA,2018-09-03 00:00,ZGHA 030000Z VRB01MPS CAVOK 29/24 Q1006 NOSIG
ZGHA,2018-09-03 01:00,ZGHA 030100Z 19002MPS 160V240 CAVOK 31/23 Q1006 NOSIG
ZGHA,2018-09-03 02:00,ZGHA 030200Z VRB02MPS CAVOK 33/23 Q1006 NOSIG
ZGHA,2018-09-03 03:00,ZGHA 030300Z 26003MPS 160V320 9999 BKN030 34/22 Q1006 NOSIG
ZGHA,2018-09-03 04:00,ZGHA 030400Z 29003MPS 230V350 9999 -SHRA BKN050 33/23 Q1005 NOSIG
ZGHA,2018-09-03 05:00,ZGHA 030500Z 08002MPS CAVOK 32/23 Q1005 NOSIG
ZGHA,2018-09-03 06:00,ZGHA 030600Z 22003MPS 180V260 9999 SCT040 35/22 Q1004 NOSIG
ZGHA,2018-09-03 07:00,ZGHA 030700Z 28002MPS 220V320 9999 FEW050TCU SCT050 36/22 Q1003 NOSIG
ZGHA,2018-09-03 08:00,ZGHA 030800Z 30006MPS 9999 SHRA FEW050CB SCT050 32/22 Q1003 BECMG TL0830 -RA
ZGHA,2018-09-03 09:00,ZGHA 030900Z VRB02MPS 9999 FEW050TCU FEW050 31/24 Q1003 RESHRA NOSIG
ZGHA,2018-09-03 10:00,ZGHA 031000Z 02003MPS 360V060 9999 FEW050TCU 33/23 Q1003 NOSIG
ZGHA,2018-09-03 11:00,ZGHA 031100Z 04003MPS 9999 FEW050 31/24 Q1003 NOSIG
ZGHA,2018-09-03 12:00,ZGHA 031200Z 06002MPS 020V100 CAVOK 30/25 Q1003 NOSIG
ZGHA,2018-09-03 13:00,ZGHA 031300Z 03002MPS 360V070 CAVOK 30/24 Q1004 NOSIG
ZGHA,2018-09-03 14:00,ZGHA 031400Z 04002MPS 020V080 CAVOK 29/25 Q1004 NOSIG
ZGHA,2018-09-03 15:00,ZGHA 031500Z VRB01MPS CAVOK 29/25 Q1004 NOSIG
ZGHA,2018-09-03 16:00,ZGHA 031600Z 03002MPS 340V060 CAVOK 29/25 Q1004 NOSIG
ZGHA,2018-09-03 17:00,ZGHA 031700Z 05001MPS CAVOK 28/25 Q1004 NOSIG
ZGHA,2018-09-03 18:00,ZGHA 031800Z VRB01MPS 8000 NSC 28/25 Q1004 NOSIG
ZGHA,2018-09-03 19:00,ZGHA 031900Z VRB01MPS 8000 NSC 28/25 Q1004 NOSIG
ZGHA,2018-09-03 20:00,ZGHA 032000Z 06001MPS 6000 NSC 27/25 Q1004 NOSIG
ZGHA,2018-09-03 21:00,ZGHA 032100Z VRB01MPS 7000 NSC 27/25 Q1004 NOSIG
ZGHA,2018-09-03 22:00,ZGHA 032200Z VRB01MPS 5000 BR NSC 27/25 Q1004 NOSIG
ZGHA,2018-09-03 23:00,ZGHA 032300Z VRB01MPS 7000 NSC 28/25 Q1005 NOSIG
ZGHA,2018-09-04 00:00,ZGHA 040000Z VRB01MPS 9000 NSC 30/25 Q1006 NOSIG
ZGHA,2018-09-04 01:00,ZGHA 040100Z 07002MPS 030V120 9000 NSC 31/25 Q1006 NOSIG
ZGHA,2018-09-04 02:00,ZGHA 040200Z VRB02MPS CAVOK 33/24 Q1006 NOSIG
ZGHA,2018-09-04 03:00,ZGHA 040300Z 02002MPS 300V080 9999 FEW050 34/24 Q1005 NOSIG
ZGHA,2018-09-04 04:00,ZGHA 040400Z 01002MPS 310V070 9999 FEW050 36/23 Q1004 NOSIG
ZGHA,2018-09-04 05:00,ZGHA 040500Z 01003MPS 340V060 CAVOK 35/22 Q1004 NOSIG
ZGHA,2018-09-04 06:00,ZGHA 040600Z VRB01MPS 9999 FEW050 36/20 Q1003 NOSIG
ZGHA,2018-09-04 07:00,ZGHA 040700Z 07002MPS 360V150 9999 SCT050 36/21 Q1002 NOSIG
ZGHA,2018-09-04 08:00,ZGHA 040800Z 02003MPS 330V060 9999 SCT050 36/21 Q1002 NOSIG
ZGHA,2018-09-04 09:00,ZGHA 040900Z 04003MPS 9999 FEW050 36/19 Q1002 NOSIG
ZGHA,2018-09-04 10:00,ZGHA 041000Z 04002MPS 9999 FEW050 35/18 Q1003 NOSIG
ZGHA,2018-09-04 11:00,ZGHA 041100Z 05002MPS 020V080 CAVOK 34/20 Q1003 NOSIG
ZGHA,2018-09-04 12:00,ZGHA 041200Z 18002MPS CAVOK 31/23 Q1004 NOSIG
ZGHA,2018-09-04 13:00,ZGHA 041300Z 23002MPS 130V280 CAVOK 30/24 Q1004 NOSIG
ZGHA,2018-09-04 14:00,ZGHA 041400Z VRB01MPS 9000 NSC 29/25 Q1004 NOSIG
ZGHA,2018-09-04 15:00,ZGHA 041500Z 14002MPS 100V200 9000 NSC 29/25 Q1004 NOSIG
ZGHA,2018-09-04 16:00,ZGHA 041600Z VRB01MPS 9000 NSC 28/24 Q1004 NOSIG
ZGHA,2018-09-04 17:00,ZGHA 041700Z VRB01MPS 9000 NSC 28/24 Q1004 NOSIG
ZGHA,2018-09-04 18:00,ZGHA 041800Z VRB01MPS CAVOK 28/24 Q1004 NOSIG
ZGHA,2018-09-04 19:00,ZGHA 041900Z 17001MPS CAVOK 28/23 Q1004 NOSIG
ZGHA,2018-09-04 20:00,ZGHA 042000Z VRB01MPS CAVOK 28/24 Q1004 NOSIG
ZGHA,2018-09-04 21:00,ZGHA 042100Z 05002MPS CAVOK 27/22 Q1005 NOSIG
ZGHA,2018-09-04 22:00,ZGHA 042200Z 04002MPS CAVOK 27/21 Q1005 NOSIG
ZGHA,2018-09-04 23:00,ZGHA 042300Z VRB01MPS CAVOK 27/21 Q1005 NOSIG
ZGHA,2018-09-05 00:00,ZGHA 050000Z VRB01MPS CAVOK 29/21 Q1006 NOSIG
ZGHA,2018-09-05 01:00,ZGHA 050100Z VRB01MPS CAVOK 32/21 Q1006 NOSIG
ZGHA,2018-09-05 02:00,ZGHA 050200Z 15002MPS 100V210 CAVOK 33/22 Q1006 NOSIG
ZGHA,2018-09-05 03:00,ZGHA 050300Z 18004MPS 120V220 CAVOK 34/22 Q1005 NOSIG
ZGHA,2018-09-05 04:00,ZGHA 050400Z VRB02MPS 9999 SCT040 35/23 Q1005 NOSIG
ZGHA,2018-09-05 05:00,ZGHA 050500Z 07001MPS 9999 BKN040 35/23 Q1004 NOSIG
ZGHA,2018-09-05 06:00,ZGHA 050600Z 19007MPS 9999 FEW050TCU BKN050 32/23 Q1003 NOSIG
ZGHA,2018-09-05 07:00,ZGHA 050700Z 16003MPS 130V240 9999 FEW050TCU 30/24 Q1003 NOSIG
ZGHA,2018-09-05 08:00,ZGHA 050800Z 17002MPS 150V240 9999 FEW050 34/22 Q1002 NOSIG
ZGHA,2018-09-05 09:00,ZGHA 050900Z 16002MPS 130V190 9999 FEW050TCU 35/23 Q1002 NOSIG
ZGHA,2018-09-05 10:00,ZGHA 051000Z 21003MPS 190V260 9999 FEW050TCU 32/24 Q1003 NOSIG
ZGHA,2018-09-05 11:00,ZGHA 051100Z 17003MPS 8000 NSC 31/24 Q1003 NOSIG
ZGHA,2018-09-05 12:00,ZGHA 051200Z VRB01MPS 8000 NSC 31/24 Q1004 NOSIG
ZGHA,2018-09-05 13:00,ZGHA 051300Z 18002MPS 8000 NSC 30/24 Q1005 NOSIG
ZGHA,2018-09-05 14:00,ZGHA 051400Z 06002MPS 8000 NSC 30/25 Q1005 NOSIG
ZGHA,2018-09-05 15:00,ZGHA 051500Z 01003MPS CAVOK 29/24 Q1005 NOSIG
ZGHA,2018-09-05 16:00,ZGHA 051600Z 02003MPS 360V060 CAVOK 28/24 Q1005 NOSIG
ZGHA,2018-09-05 17:00,ZGHA 051700Z 02002MPS CAVOK 28/24 Q1005 NOSIG
ZGHA,2018-09-05 18:00,ZGHA 051800Z 36003MPS CAVOK 28/24 Q1004 NOSIG
ZGHA,2018-09-05 19:00,ZGHA 051900Z 03002MPS CAVOK 27/25 Q1004 NOSIG
ZGHA,2018-09-05 20:00,ZGHA 052000Z 33004MPS CAVOK 27/24 Q1004 NOSIG
ZGHA,2018-09-05 21:00,ZGHA 052100Z 33004MPS CAVOK 28/24 Q1005 NOSIG
ZGHA,2018-09-05 22:00,ZGHA 052200Z 04003MPS 8000 NSC 27/24 Q1005 NOSIG
ZGHA,2018-09-05 23:00,ZGHA 052300Z 33004MPS 8000 BKN011 27/23 Q1006 BECMG TL0050 BKN015 OVC050
ZGHA,2018-09-06 00:00,ZGHA 060000Z 30004MPS 280V340 9999 BKN011 27/22 Q1007 NOSIG
ZGHA,2018-09-06 01:00,ZGHA 060100Z 33005MPS 300V010 9999 BKN020 28/22 Q1007 NOSIG
ZGHA,2018-09-06 02:00,ZGHA 060200Z 34003MPS 290V020 9999 BKN020 30/22 Q1007 NOSIG
ZGHA,2018-09-06 03:00,ZGHA 060300Z 33004MPS 300V010 9999 BKN023 31/22 Q1007 NOSIG
ZGHA,2018-09-06 04:00,ZGHA 060400Z 35003MPS 290V040 9999 BKN023 31/22 Q1007 NOSIG
ZGHA,2018-09-06 05:00,ZGHA 060500Z 31006MPS 280V350 9999 FEW023 32/22 Q1006 NOSIG
ZGHA,2018-09-06 06:00,ZGHA 060600Z 32006MPS 290V350 8000 FEW023 32/22 Q1006 NOSIG
ZGHA,2018-09-06 07:00,ZGHA 060700Z 32005MPS 290V350 6000 BKN023 31/22 Q1006 NOSIG
ZGHA,2018-09-06 08:00,ZGHA 060800Z 01008MPS 8000 SCT023 29/22 Q1005 NOSIG
ZGHA,2018-09-06 09:00,ZGHA 060900Z 36007MPS 8000 NSC 28/20 Q1006 NOSIG
ZGHA,2018-09-06 10:00,ZGHA 061000Z 34006MPS CAVOK 28/20 Q1006 NOSIG
ZGHA,2018-09-06 11:00,ZGHA 061100Z 34006MPS CAVOK 27/22 Q1007 NOSIG
ZGHA,2018-09-06 12:00,ZGHA 061200Z 35006MPS CAVOK 26/20 Q1007 NOSIG
ZGHA,2018-09-06 13:00,ZGHA 061300Z 36005MPS 9999 SCT030 26/20 Q1008 NOSIG
ZGHA,2018-09-06 14:00,ZGHA 061400Z 34005MPS 9999 BKN030 26/20 Q1009 NOSIG
ZGHA,2018-09-06 15:00,ZGHA 061500Z 35006MPS CAVOK 25/20 Q1009 NOSIG
ZGHA,2018-09-06 16:00,ZGHA 061600Z 34005MPS 9999 SCT024 25/20 Q1009 NOSIG
ZGHA,2018-09-06 17:00,ZGHA 061700Z 36004MPS 9999 SCT024 24/21 Q1009 NOSIG
ZGHA,2018-09-06 18:00,ZGHA 061800Z 35005MPS CAVOK 24/21 Q1009 NOSIG
ZGHA,2018-09-06 19:00,ZGHA 061900Z 34005MPS CAVOK 25/19 Q1009 NOSIG
ZGHA,2018-09-06 20:00,ZGHA 062000Z 34006MPS 9999 SCT026 24/20 Q1009 NOSIG
ZGHA,2018-09-06 21:00,ZGHA 062100Z 33006MPS 8000 -SHRA SCT040 23/20 Q1009 NOSIG
ZGHA,2018-09-06 22:00,ZGHA 062200Z 13002MPS 100V160 8000 -SHRA NSC 23/21 Q1010 NOSIG
ZGHA,2018-09-06 23:00,ZGHA 062300Z VRB01MPS 8000 NSC 23/21 Q1010 NOSIG
ZGHA,2018-09-07 00:00,ZGHA 070000Z 04002MPS 8000 NSC 24/21 Q1011 NOSIG
ZGHA,2018-09-07 01:00,ZGHA 070100Z 36004MPS 8000 NSC 25/21 Q1011 NOSIG
ZGHA,2018-09-07 02:00,ZGHA 070200Z 36007MPS CAVOK 26/19 Q1012 NOSIG
ZGHA,2018-09-07 03:00,ZGHA 070300Z 36008MPS CAVOK 27/19 Q1012 NOSIG
ZGHA,2018-09-07 04:00,ZGHA 070400Z 02008MPS CAVOK 28/16 Q1012 NOSIG
ZGHA,2018-09-07 05:00,ZGHA 070500Z 02008MPS 340V040 CAVOK 28/15 Q1011 NOSIG
ZGHA,2018-09-07 06:00,ZGHA 070600Z 02008MPS CAVOK 28/11 Q1011 NOSIG
ZGHA,2018-09-07 07:00,ZGHA 070700Z 34008MPS CAVOK 28/14 Q1011 NOSIG
ZGHA,2018-09-07 08:00,ZGHA 070800Z 35009MPS CAVOK 27/13 Q1011 NOSIG
ZGHA,2018-09-07 09:00,ZGHA 070900Z 34008MPS CAVOK 26/13 Q1011 NOSIG
ZGHA,2018-09-07 10:00,ZGHA 071000Z 34008MPS CAVOK 25/14 Q1012 NOSIG
ZGHA,2018-09-07 11:00,ZGHA 071100Z 36005MPS CAVOK 24/14 Q1012 NOSIG
ZGHA,2018-09-07 12:00,ZGHA 071200Z 36004MPS CAVOK 24/15 Q1013 NOSIG
ZGHA,2018-09-07 13:00,ZGHA 071300Z 36006MPS CAVOK 24/14 Q1014 NOSIG
ZGHA,2018-09-07 14:00,ZGHA 071400Z 02003MPS CAVOK 23/14 Q1014 NOSIG
ZGHA,2018-09-07 15:00,ZGHA 071500Z 36005MPS CAVOK 23/13 Q1015 NOSIG
ZGHA,2018-09-07 16:00,ZGHA 071600Z 36005MPS CAVOK 23/14 Q1014 NOSIG
ZGHA,2018-09-07 17:00,ZGHA 071700Z 36005MPS CAVOK 22/14 Q1014 NOSIG
ZGHA,2018-09-07 18:00,ZGHA 071800Z 36005MPS CAVOK 22/13 Q1014 NOSIG
ZGHA,2018-09-07 19:00,ZGHA 071900Z 36004MPS CAVOK 22/14 Q1014 NOSIG
ZGHA,2018-09-07 20:00,ZGHA 072000Z 36004MPS CAVOK 21/14 Q1013 NOSIG
ZGHA,2018-09-07 21:00,ZGHA 072100Z 36005MPS CAVOK 21/14 Q1013 NOSIG
ZGHA,2018-09-07 22:00,ZGHA 072200Z 36004MPS CAVOK 21/15 Q1014 NOSIG
ZGHA,2018-09-07 23:00,ZGHA 072300Z 35004MPS CAVOK 21/15 Q1014 NOSIG
ZGHA,2018-09-08 00:00,ZGHA 080000Z 01005MPS CAVOK 22/15 Q1015 NOSIG
ZGHA,2018-09-08 01:00,ZGHA 080100Z 01005MPS CAVOK 22/15 Q1015 NOSIG
ZGHA,2018-09-08 02:00,ZGHA 080200Z 02004MPS CAVOK 25/15 Q1015 NOSIG
ZGHA,2018-09-08 03:00,ZGHA 080300Z 05004MPS 350V080 CAVOK 27/14 Q1015 NOSIG
ZGHA,2018-09-08 04:00,ZGHA 080400Z 01003MPS 9999 FEW040 28/13 Q1015 NOSIG
ZGHA,2018-09-08 05:00,ZGHA 080500Z 04003MPS 340V080 9999 FEW040 30/13 Q1014 NOSIG
ZGHA,2018-09-08 06:00,ZGHA 080600Z 01003MPS 340V050 9999 SCT050 30/11 Q1013 NOSIG
ZGHA,2018-09-08 07:00,ZGHA 080700Z 06004MPS 020V100 CAVOK 30/11 Q1013 NOSIG
ZGHA,2018-09-08 08:00,ZGHA 080800Z 34004MPS 290V020 CAVOK 30/12 Q1012 NOSIG
ZGHA,2018-09-08 09:00,ZGHA 080900Z 34003MPS 280V030 CAVOK 30/12 Q1012 NOSIG
ZGHA,2018-09-08 10:00,ZGHA 081000Z 34007MPS CAVOK 28/13 Q1013 NOSIG
ZGHA,2018-09-08 11:00,ZGHA 081100Z 33006MPS CAVOK 26/12 Q1013 NOSIG
ZGHA,2018-09-08 12:00,ZGHA 081200Z 33005MPS CAVOK 25/12 Q1014 NOSIG
ZGHA,2018-09-08 13:00,ZGHA 081300Z VRB02MPS CAVOK 25/13 Q1015 NOSIG
ZGHA,2018-09-08 14:00,ZGHA 081400Z VRB01MPS CAVOK 23/14 Q1015 NOSIG
ZGHA,2018-09-08 15:00,ZGHA 081500Z 36003MPS CAVOK 23/13 Q1015 NOSIG
ZGHA,2018-09-08 16:00,ZGHA 081600Z 02002MPS CAVOK 22/15 Q1015 NOSIG
ZGHA,2018-09-08 17:00,ZGHA 081700Z 04002MPS CAVOK 21/15 Q1015 NOSIG
ZGHA,2018-09-08 18:00,ZGHA 081800Z 04002MPS CAVOK 21/16 Q1015 NOSIG
ZGHA,2018-09-08 19:00,ZGHA 081900Z 04001MPS CAVOK 20/16 Q1015 NOSIG
ZGHA,2018-09-08 20:00,ZGHA 082000Z 36002MPS CAVOK 20/16 Q1015 NOSIG
ZGHA,2018-09-08 21:00,ZGHA 082100Z 03002MPS CAVOK 20/16 Q1015 NOSIG
ZGHA,2018-09-08 22:00,ZGHA 082200Z 03001MPS CAVOK 20/16 Q1016 NOSIG
ZGHA,2018-09-08 23:00,ZGHA 082300Z 02001MPS CAVOK 20/16 Q1016 NOSIG
ZGHA,2018-09-09 00:00,ZGHA 090000Z 04004MPS CAVOK 22/15 Q1017 NOSIG
ZGHA,2018-09-09 01:00,ZGHA 090100Z VRB01MPS CAVOK 25/16 Q1017 NOSIG
ZGHA,2018-09-09 02:00,ZGHA 090200Z 06002MPS 350V120 CAVOK 27/17 Q1017 NOSIG
ZGHA,2018-09-09 03:00,ZGHA 090300Z VRB03MPS 9999 FEW033 29/14 Q1017 NOSIG
ZGHA,2018-09-09 04:00,ZGHA 090400Z 02004MPS 340V080 9999 SCT040 30/10 Q1016 NOSIG
ZGHA,2018-09-09 05:00,ZGHA 090500Z 02002MPS 9999 SCT040 32/10 Q1016 NOSIG
ZGHA,2018-09-09 06:00,ZGHA 090600Z 22002MPS 160V290 9999 SCT040 31/10 Q1015 NOSIG
ZGHA,2018-09-09 07:00,ZGHA 090700Z 36003MPS 300V040 9999 SCT040 30/10 Q1014 NOSIG
ZGHA,2018-09-09 08:00,ZGHA 090800Z 36003MPS 320V040 9999 SCT040 32/09 Q1014 NOSIG
ZGHA,2018-09-09 09:00,ZGHA 090900Z 04003MPS 360V070 9999 FEW050 30/09 Q1013 NOSIG
ZGHA,2018-09-09 10:00,ZGHA 091000Z 01003MPS CAVOK 29/10 Q1014 NOSIG
ZGHA,2018-09-09 11:00,ZGHA 091100Z 33004MPS 300V010 CAVOK 27/14 Q1014 NOSIG
ZGHA,2018-09-09 12:00,ZGHA 091200Z 33002MPS 300V010 CAVOK 26/14 Q1015 NOSIG
ZGHA,2018-09-09 13:00,ZGHA 091300Z 36003MPS CAVOK 26/14 Q1016 NOSIG
ZGHA,2018-09-09 14:00,ZGHA 091400Z 04002MPS CAVOK 25/16 Q1017 NOSIG
ZGHA,2018-09-09 15:00,ZGHA 091500Z 04002MPS CAVOK 24/16 Q1017 NOSIG
ZGHA,2018-09-09 16:00,ZGHA 091600Z 03002MPS CAVOK 24/16 Q1017 NOSIG
ZGHA,2018-09-09 17:00,ZGHA 091700Z 04002MPS CAVOK 23/17 Q1017 NOSIG
ZGHA,2018-09-09 18:00,ZGHA 091800Z 04001MPS CAVOK 22/17 Q1016 NOSIG
ZGHA,2018-09-09 19:00,ZGHA 091900Z 05002MPS CAVOK 21/16 Q1016 NOSIG
ZGHA,2018-09-09 20:00,ZGHA 092000Z 03002MPS CAVOK 21/15 Q1016 NOSIG
ZGHA,2018-09-09 21:00,ZGHA 092100Z 06002MPS CAVOK 21/15 Q1016 NOSIG
ZGHA,2018-09-09 22:00,ZGHA 092200Z 12001MPS CAVOK 21/14 Q1016 NOSIG
ZGHA,2018-09-09 23:00,ZGHA 092300Z 04002MPS CAVOK 21/14 Q1016 NOSIG
ZGHA,2018-09-10 00:00,ZGHA 100000Z 05003MPS CAVOK 23/13 Q1017 NOSIG
ZGHA,2018-09-10 01:00,ZGHA 100100Z 06003MPS CAVOK 24/13 Q1017 NOSIG
ZGHA,2018-09-10 02:00,ZGHA 100200Z 05002MPS 360V100 CAVOK 28/13 Q1018 NOSIG
ZGHA,2018-09-10 03:00,ZGHA 100300Z 06003MPS 010V100 CAVOK 29/11 Q1017 NOSIG
ZGHA,2018-09-10 04:00,ZGHA 100400Z 08002MPS 320V120 9999 FEW040 30/12 Q1016 NOSIG
ZGHA,2018-09-10 05:00,ZGHA 100500Z VRB02MPS 9999 FEW040 31/11 Q1015 NOSIG
ZGHA,2018-09-10 06:00,ZGHA 100600Z 02004MPS CAVOK 32/11 Q1015 NOSIG
ZGHA,2018-09-10 07:00,ZGHA 100700Z 01005MPS 340V040 CAVOK 31/12 Q1014 NOSIG
ZGHA,2018-09-10 08:00,ZGHA 100800Z 35005MPS CAVOK 30/12 Q1014 NOSIG
ZGHA,2018-09-10 09:00,ZGHA 100900Z 36007MPS CAVOK 28/12 Q1014 NOSIG
ZGHA,2018-09-10 10:00,ZGHA 101000Z 36006MPS CAVOK 27/14 Q1014 NOSIG
ZGHA,2018-09-10 11:00,ZGHA 101100Z 36006MPS CAVOK 25/14 Q1014 NOSIG
ZGHA,2018-09-10 12:00,ZGHA 101200Z 36005MPS CAVOK 25/15 Q1015 NOSIG
ZGHA,2018-09-10 13:00,ZGHA 101300Z 36003MPS CAVOK 24/16 Q1015 NOSIG
ZGHA,2018-09-10 14:00,ZGHA 101400Z 01003MPS CAVOK 24/16 Q1016 NOSIG
ZGHA,2018-09-10 15:00,ZGHA 101500Z 04002MPS CAVOK 24/17 Q1016 NOSIG
ZGHA,2018-09-10 16:00,ZGHA 101600Z 01004MPS CAVOK 23/17 Q1015 NOSIG
ZGHA,2018-09-10 17:00,ZGHA 101700Z 36004MPS CAVOK 23/17 Q1015 NOSIG
ZGHA,2018-09-10 18:00,ZGHA 101800Z 34003MPS CAVOK 23/17 Q1014 NOSIG
ZGHA,2018-09-10 19:00,ZGHA 101900Z 36003MPS CAVOK 23/17 Q1014 NOSIG
ZGHA,2018-09-10 20:00,ZGHA 102000Z 34003MPS CAVOK 23/17 Q1014 NOSIG
ZGHA,2018-09-10 21:00,ZGHA 102100Z 03002MPS CAVOK 22/18 Q1014 NOSIG
ZGHA,2018-09-10 22:00,ZGHA 102200Z 02002MPS 5000 BR NSC 21/19 Q1014 NOSIG
ZGHA,2018-09-10 23:00,ZGHA 102300Z 34002MPS 4000 BR NSC 23/19 Q1015 NOSIG
ZGHA,2018-09-11 00:00,ZGHA 110000Z 04003MPS 6000 NSC 23/19 Q1015 NOSIG
ZGHA,2018-09-11 01:00,ZGHA 110100Z 01002MPS 340V080 CAVOK 26/17 Q1016 NOSIG
ZGHA,2018-09-11 02:00,ZGHA 110200Z 02002MPS 330V060 CAVOK 26/17 Q1016 NOSIG
ZGHA,2018-09-11 03:00,ZGHA 110300Z 32002MPS 280V360 CAVOK 29/16 Q1015 NOSIG
ZGHA,2018-09-11 04:00,ZGHA 110400Z 27003MPS 240V320 CAVOK 28/15 Q1015 NOSIG
ZGHA,2018-09-11 05:00,ZGHA 110500Z 01004MPS 330V060 CAVOK 29/15 Q1014 NOSIG
ZGHA,2018-09-11 06:00,ZGHA 110600Z VRB01MPS CAVOK 29/14 Q1013 NOSIG
ZGHA,2018-09-11 07:00,ZGHA 110700Z 32004MPS 290V350 9999 FEW050 29/16 Q1012 NOSIG
ZGHA,2018-09-11 08:00,ZGHA 110800Z 33005MPS CAVOK 29/16 Q1012 NOSIG
ZGHA,2018-09-11 09:00,ZGHA 110900Z 33006MPS CAVOK 28/14 Q1012 NOSIG
ZGHA,2018-09-11 10:00,ZGHA 111000Z 34005MPS CAVOK 27/16 Q1012 NOSIG
ZGHA,2018-09-11 11:00,ZGHA 111100Z 35003MPS CAVOK 26/17 Q1012 NOSIG
ZGHA,2018-09-11 12:00,ZGHA 111200Z 32003MPS CAVOK 25/17 Q1012 NOSIG
ZGHA,2018-09-11 13:00,ZGHA 111300Z 34003MPS CAVOK 26/17 Q1013 NOSIG
ZGHA,2018-09-11 14:00,ZGHA 111400Z 05002MPS CAVOK 25/18 Q1013 NOSIG
ZGHA,2018-09-11 15:00,ZGHA 111500Z 04002MPS CAVOK 24/18 Q1013 NOSIG
ZGHA,2018-09-11 16:00,ZGHA 111600Z 05002MPS 8000 NSC 23/19 Q1013 NOSIG
ZGHA,2018-09-11 17:00,ZGHA 111700Z 03002MPS 8000 NSC 23/17 Q1013 NOSIG
ZGHA,2018-09-11 18:00,ZGHA 111800Z 35003MPS 9000 NSC 24/17 Q1013 NOSIG
ZGHA,2018-09-11 19:00,ZGHA 111900Z 02002MPS 350V050 CAVOK 23/17 Q1013 NOSIG
ZGHA,2018-09-11 20:00,ZGHA 112000Z 01003MPS CAVOK 23/18 Q1013 NOSIG
ZGHA,2018-09-11 21:00,ZGHA 112100Z 34003MPS CAVOK 22/19 Q1013 NOSIG
ZGHA,2018-09-11 22:00,ZGHA 112200Z 36003MPS 7000 NSC 22/20 Q1013 NOSIG
ZGHA,2018-09-11 23:00,ZGHA 112300Z 01003MPS 3000 BR NSC 22/20 Q1013 NOSIG
ZGHA,2018-09-12 00:00,ZGHA 120000Z 03002MPS 3000 BR NSC 22/20 Q1013 NOSIG
ZGHA,2018-09-12 01:00,ZGHA 120100Z 02003MPS 5000 BR NSC 23/18 Q1014 NOSIG
ZGHA,2018-09-12 02:00,ZGHA 120200Z 01003MPS 8000 NSC 24/18 Q1014 NOSIG
ZGHA,2018-09-12 03:00,ZGHA 120300Z 02003MPS 340V070 CAVOK 27/17 Q1014 NOSIG
ZGHA,2018-09-12 04:00,ZGHA 120400Z 03004MPS 340V060 CAVOK 29/16 Q1013 NOSIG
ZGHA,2018-09-12 05:00,ZGHA 120500Z 36004MPS CAVOK 29/15 Q1012 NOSIG
ZGHA,2018-09-12 06:00,ZGHA 120600Z 36005MPS 310V020 CAVOK 29/15 Q1012 NOSIG
ZGHA,2018-09-12 07:00,ZGHA 120700Z 36006MPS 330V030 CAVOK 29/15 Q1011 NOSIG
ZGHA,2018-09-12 08:00,ZGHA 120800Z 36005MPS CAVOK 28/17 Q1011 NOSIG
ZGHA,2018-09-12 09:00,ZGHA 120900Z 36006MPS CAVOK 27/18 Q1011 NOSIG
ZGHA,2018-09-12 10:00,ZGHA 121000Z 36006MPS 8000 NSC 26/19 Q1011 NOSIG
ZGHA,2018-09-12 11:00,ZGHA 121100Z 36005MPS CAVOK 25/18 Q1011 NOSIG
ZGHA,2018-09-12 12:00,ZGHA 121200Z 36004MPS CAVOK 25/18 Q1012 NOSIG
ZGHA,2018-09-12 13:00,ZGHA 121300Z 35004MPS 310V020 CAVOK 25/18 Q1012 NOSIG
ZGHA,2018-09-12 14:00,ZGHA 121400Z 35003MPS 8000 NSC 24/19 Q1013 NOSIG
ZGHA,2018-09-12 15:00,ZGHA 121500Z 33004MPS 7000 NSC 24/19 Q1013 NOSIG
ZGHA,2018-09-12 16:00,ZGHA 121600Z 33002MPS 6000 NSC 24/19 Q1012 NOSIG
ZGHA,2018-09-12 17:00,ZGHA 121700Z 33004MPS 6000 BKN040 24/19 Q1012 NOSIG
ZGHA,2018-09-12 18:00,ZGHA 121800Z 33002MPS 300V360 6000 BKN040 23/19 Q1012 NOSIG
ZGHA,2018-09-12 19:00,ZGHA 121900Z 34003MPS 5000 BR NSC 23/19 Q1012 NOSIG
ZGHA,2018-09-12 20:00,ZGHA 122000Z 34003MPS 5000 BR NSC 22/19 Q1012 NOSIG
ZGHA,2018-09-12 21:00,ZGHA 122100Z 36002MPS 5000 BR NSC 22/19 Q1012 NOSIG
ZGHA,2018-09-12 22:00,ZGHA 122200Z 01002MPS 5000 BR SCT050 22/19 Q1012 NOSIG
ZGHA,2018-09-12 23:00,ZGHA 122300Z 01003MPS 4000 BR NSC 23/19 Q1013 NOSIG
ZGHA,2018-09-13 00:00,ZGHA 130000Z 01005MPS 5000 BR NSC 24/19 Q1013 NOSIG
ZGHA,2018-09-13 01:00,ZGHA 130100Z 36003MPS 330V040 5000 BR NSC 24/19 Q1014 NOSIG
ZGHA,2018-09-13 02:00,ZGHA 130200Z 02003MPS 340V060 8000 NSC 27/19 Q1014 NOSIG
ZGHA,2018-09-13 03:00,ZGHA 130300Z 01003MPS 340V070 CAVOK 29/18 Q1014 NOSIG
ZGHA,2018-09-13 04:00,ZGHA 130400Z VRB02MPS 9999 BKN050 31/19 Q1013 NOSIG
ZGHA,2018-09-13 05:00,ZGHA 130500Z 34001MPS CAVOK 32/19 Q1012 NOSIG
ZGHA,2018-09-13 06:00,ZGHA 130600Z VRB01MPS CAVOK 32/19 Q1012 NOSIG
ZGHA,2018-09-13 07:00,ZGHA 130700Z 19002MPS 120V260 9999 BKN050 32/18 Q1011 NOSIG
ZGHA,2018-09-13 08:00,ZGHA 130800Z 34002MPS 300V040 9999 BKN050 31/19 Q1011 NOSIG
ZGHA,2018-09-13 09:00,ZGHA 130900Z 32003MPS 280V340 CAVOK 30/20 Q1011 NOSIG
ZGHA,2018-09-13 10:00,ZGHA 131000Z 33005MPS CAVOK 29/20 Q1011 NOSIG
ZGHA,2018-09-13 11:00,ZGHA 131100Z 34004MPS CAVOK 28/20 Q1011 NOSIG
ZGHA,2018-09-13 12:00,ZGHA 131200Z 36004MPS CAVOK 28/20 Q1012 NOSIG
ZGHA,2018-09-13 13:00,ZGHA 131300Z 02003MPS 350V050 CAVOK 27/20 Q1013 NOSIG
ZGHA,2018-09-13 14:00,ZGHA 131400Z 03003MPS CAVOK 27/20 Q1013 NOSIG
ZGHA,2018-09-13 15:00,ZGHA 131500Z 03002MPS CAVOK 27/20 Q1013 NOSIG
ZGHA,2018-09-13 16:00,ZGHA 131600Z 01003MPS CAVOK 26/19 Q1013 NOSIG
ZGHA,2018-09-13 17:00,ZGHA 131700Z 36003MPS CAVOK 26/19 Q1013 NOSIG
ZGHA,2018-09-13 18:00,ZGHA 131800Z 32003MPS 8000 NSC 26/19 Q1013 NOSIG
ZGHA,2018-09-13 19:00,ZGHA 131900Z 03001MPS 7000 NSC 25/20 Q1013 NOSIG
ZGHA,2018-09-13 20:00,ZGHA 132000Z 01002MPS 7000 NSC 25/20 Q1013 NOSIG
ZGHA,2018-09-13 21:00,ZGHA 132100Z 03002MPS 5000 BR SCT040 24/21 Q1013 NOSIG
ZGHA,2018-09-13 22:00,ZGHA 132200Z 34002MPS 5000 BR SCT040 24/21 Q1013 NOSIG
ZGHA,2018-09-13 23:00,ZGHA 132300Z 36003MPS 3000 BR SCT040 24/21 Q1014 NOSIG
ZGHA,2018-09-14 00:00,ZGHA 140000Z 02004MPS 3500 BR FEW040 26/21 Q1014 NOSIG
ZGHA,2018-09-14 01:00,ZGHA 140100Z 04002MPS 360V070 6000 NSC 28/21 Q1014 NOSIG
ZGHA,2018-09-14 02:00,ZGHA 140200Z 03002MPS 340V060 8000 NSC 30/21 Q1014 NOSIG
ZGHA,2018-09-14 03:00,ZGHA 140300Z 03002MPS 320V130 9000 FEW030 32/21 Q1014 NOSIG
ZGHA,2018-09-14 04:00,ZGHA 140400Z VRB01MPS 9999 SCT040 34/20 Q1013 NOSIG
ZGHA,2018-09-14 05:00,ZGHA 140500Z VRB02MPS 9999 BKN050 34/20 Q1012 NOSIG
ZGHA,2018-09-14 06:00,ZGHA 140600Z 33003MPS 230V040 9999 BKN050 34/20 Q1012 NOSIG
ZGHA,2018-09-14 07:00,ZGHA 140700Z 35005MPS 320V020 9999 BKN050 34/21 Q1011 NOSIG
ZGHA,2018-09-14 08:00,ZGHA 140800Z 32004MPS 290V350 9999 SCT050 35/21 Q1011 NOSIG
ZGHA,2018-09-14 09:00,ZGHA 140900Z 33005MPS 300V010 9999 FEW050 33/22 Q1010 NOSIG
ZGHA,2018-09-14 10:00,ZGHA 141000Z 36006MPS CAVOK 31/21 Q1011 NOSIG
ZGHA,2018-09-14 11:00,ZGHA 141100Z 35005MPS CAVOK 30/21 Q1011 NOSIG
ZGHA,2018-09-14 12:00,ZGHA 141200Z 35006MPS CAVOK 29/21 Q1012 NOSIG
ZGHA,2018-09-14 13:00,ZGHA 141300Z 01005MPS CAVOK 29/21 Q1013 NOSIG
ZGHA,2018-09-14 14:00,ZGHA 141400Z 36004MPS CAVOK 28/21 Q1013 NOSIG
ZGHA,2018-09-14 15:00,ZGHA 141500Z 01003MPS CAVOK 28/20 Q1012 NOSIG
ZGHA,2018-09-14 16:00,ZGHA 141600Z 03002MPS 360V060 CAVOK 28/21 Q1013 NOSIG
ZGHA,2018-09-14 17:00,ZGHA 141700Z 36003MPS CAVOK 28/21 Q1012 NOSIG
ZGHA,2018-09-14 18:00,ZGHA 141800Z 36003MPS 9999 SCT050 27/21 Q1012 NOSIG
ZGHA,2018-09-14 19:00,ZGHA 141900Z 36004MPS 9000 FEW050 27/21 Q1012 NOSIG
ZGHA,2018-09-14 20:00,ZGHA 142000Z 36003MPS 9000 NSC 27/21 Q1011 NOSIG
ZGHA,2018-09-14 21:00,ZGHA 142100Z 36004MPS 9000 NSC 26/21 Q1011 NOSIG
ZGHA,2018-09-14 22:00,ZGHA 142200Z 36004MPS 7000 NSC 26/21 Q1012 NOSIG
ZGHA,2018-09-14 23:00,ZGHA 142300Z 35005MPS 6000 NSC 26/20 Q1012 NOSIG
ZGHA,2018-09-15 00:00,ZGHA 150000Z 36005MPS 7000 NSC 28/20 Q1013 NOSIG
ZGHA,2018-09-15 01:00,ZGHA 150100Z 36004MPS 320V030 9000 NSC 30/20 Q1013 NOSIG
ZGHA,2018-09-15 02:00,ZGHA 150200Z 01004MPS 350V050 9000 NSC 31/21 Q1013 NOSIG
ZGHA,2018-09-15 03:00,ZGHA 150300Z 36002MPS 290V090 9000 NSC 34/21 Q1012 NOSIG
ZGHA,2018-09-15 04:00,ZGHA 150400Z 32006MPS 9999 FEW050 35/20 Q1012 NOSIG
ZGHA,2018-09-15 05:00,ZGHA 150500Z 32006MPS 9999 SCT050 35/21 Q1011 NOSIG
ZGHA,2018-09-15 06:00,ZGHA 150600Z 31007MPS 280V340 CAVOK 35/22 Q1010 NOSIG
ZGHA,2018-09-15 07:00,ZGHA 150700Z 35006G12MPS 310V020 9999 FEW050 35/21 Q1009 NOSIG
ZGHA,2018-09-15 08:00,ZGHA 150800Z 36007MPS CAVOK 34/21 Q1009 NOSIG
ZGHA,2018-09-15 09:00,ZGHA 150900Z 35008MPS CAVOK 33/21 Q1009 NOSIG
ZGHA,2018-09-15 10:00,ZGHA 151000Z 35007MPS CAVOK 32/21 Q1009 NOSIG
ZGHA,2018-09-15 11:00,ZGHA 151100Z 34008MPS CAVOK 30/20 Q1008 NOSIG
ZGHA,2018-09-15 12:00,ZGHA 151200Z 36005MPS CAVOK 29/20 Q1009 NOSIG
ZGHA,2018-09-15 13:00,ZGHA 151300Z 01005MPS CAVOK 29/20 Q1010 NOSIG
ZGHA,2018-09-15 14:00,ZGHA 151400Z 36005MPS CAVOK 28/20 Q1011 NOSIG
ZGHA,2018-09-15 15:00,ZGHA 151500Z 35006MPS CAVOK 28/20 Q1010 NOSIG
ZGHA,2018-09-15 16:00,ZGHA 151600Z 35005MPS CAVOK 27/20 Q1010 NOSIG
ZGHA,2018-09-15 17:00,ZGHA 151700Z 36006MPS CAVOK 27/19 Q1010 NOSIG
ZGHA,2018-09-15 18:00,ZGHA 151800Z 36006MPS CAVOK 26/20 Q1010 NOSIG
ZGHA,2018-09-15 19:00,ZGHA 151900Z 36006MPS CAVOK 26/20 Q1009 NOSIG
ZGHA,2018-09-15 20:00,ZGHA 152000Z 35005MPS CAVOK 25/20 Q1009 NOSIG
ZGHA,2018-09-15 21:00,ZGHA 152100Z 35006MPS CAVOK 25/20 Q1010 NOSIG
ZGHA,2018-09-15 22:00,ZGHA 152200Z 34004MPS 8000 NSC 25/20 Q1010 NOSIG
ZGHA,2018-09-15 23:00,ZGHA 152300Z 36005MPS 7000 NSC 25/20 Q1011 NOSIG
ZGHA,2018-09-16 00:00,ZGHA 160000Z 36007MPS 8000 NSC 26/20 Q1011 NOSIG
ZGHA,2018-09-16 01:00,ZGHA 160100Z 36006MPS 9000 NSC 28/20 Q1011 NOSIG
ZGHA,2018-09-16 02:00,ZGHA 160200Z 35006MPS 9000 NSC 30/21 Q1011 NOSIG
ZGHA,2018-09-16 03:00,ZGHA 160300Z 36006MPS 330V030 9000 SCT040 32/21 Q1010 NOSIG
ZGHA,2018-09-16 04:00,ZGHA 160400Z 02006MPS 340V040 9999 SCT040 33/20 Q1009 NOSIG
ZGHA,2018-09-16 05:00,ZGHA 160500Z 36007MPS 9999 BKN040 33/21 Q1008 NOSIG
ZGHA,2018-09-16 06:00,ZGHA 160600Z 34007MPS 9999 BKN050 33/21 Q1008 NOSIG
ZGHA,2018-09-16 07:00,ZGHA 160700Z 35007MPS 9999 -RA OVC050 31/21 Q1008 NOSIG
ZGHA,2018-09-16 08:00,ZGHA 160800Z 36007MPS CAVOK 32/21 Q1008 NOSIG
ZGHA,2018-09-16 09:00,ZGHA 160900Z 36007MPS CAVOK 31/21 Q1008 NOSIG
ZGHA,2018-09-16 10:00,ZGHA 161000Z 36007MPS CAVOK 30/21 Q1008 NOSIG
ZGHA,2018-09-16 11:00,ZGHA 161100Z 36007MPS CAVOK 29/21 Q1009 NOSIG
ZGHA,2018-09-16 12:00,ZGHA 161200Z 36006MPS CAVOK 28/21 Q1009 NOSIG
ZGHA,2018-09-16 13:00,ZGHA 161300Z 36006MPS 9000 NSC 28/21 Q1010 NOSIG
ZGHA,2018-09-16 14:00,ZGHA 161400Z 36005MPS 8000 NSC 28/21 Q1011 NOSIG
ZGHA,2018-09-16 15:00,ZGHA 161500Z 36006MPS 8000 NSC 27/20 Q1010 NOSIG
ZGHA,2018-09-16 16:00,ZGHA 161600Z 36006MPS 7000 FEW040 27/20 Q1010 NOSIG
ZGHA,2018-09-16 17:00,ZGHA 161700Z 01004MPS 7000 NSC 26/20 Q1010 NOSIG
ZGHA,2018-09-16 18:00,ZGHA 161800Z 01006MPS 7000 FEW040 26/20 Q1010 NOSIG
ZGHA,2018-09-16 19:00,ZGHA 161900Z 02005MPS 7000 NSC 25/20 Q1009 NOSIG
ZGHA,2018-09-16 20:00,ZGHA 162000Z 01003MPS 7000 NSC 25/20 Q1009 NOSIG
ZGHA,2018-09-16 21:00,ZGHA 162100Z 36003MPS 7000 NSC 25/20 Q1010 NOSIG
ZGHA,2018-09-16 22:00,ZGHA 162200Z 01004MPS 7000 NSC 25/20 Q1010 NOSIG
ZGHA,2018-09-16 23:00,ZGHA 162300Z 36004MPS 5000 -RA BR NSC 24/21 Q1011 NOSIG
ZGHA,2018-09-17 00:00,ZGHA 170000Z 36004MPS 5000 BR NSC 26/21 Q1011 NOSIG
ZGHA,2018-09-17 01:00,ZGHA 170100Z 36004MPS 5000 HZ NSC 27/21 Q1011 NOSIG
ZGHA,2018-09-17 02:00,ZGHA 170200Z 01002MPS 330V080 7000 NSC 30/21 Q1011 NOSIG
ZGHA,2018-09-17 03:00,ZGHA 170300Z VRB02MPS 9999 FEW040 34/20 Q1011 NOSIG
ZGHA,2018-09-17 04:00,ZGHA 170400Z 13005MPS 090V170 9999 SCT040 34/19 Q1011 NOSIG
ZGHA,2018-09-17 05:00,ZGHA 170500Z 14005MPS 080V190 9999 SCT040 35/19 Q1010 NOSIG
ZGHA,2018-09-17 06:00,ZGHA 170600Z 12004MPS 070V180 CAVOK 36/18 Q1010 NOSIG
ZGHA,2018-09-17 07:00,ZGHA 170700Z 30006MPS 9999 SCT050 34/22 Q1009 NOSIG
ZGHA,2018-09-17 08:00,ZGHA 170800Z 31007MPS 8000 SCT050 33/22 Q1009 NOSIG
ZGHA,2018-09-17 09:00,ZGHA 170900Z 30006MPS 8000 SCT050 30/22 Q1010 NOSIG
ZGHA,2018-09-17 10:00,ZGHA 171000Z 24003MPS 220V290 4000 -RA BR SCT020 OVC050 27/23 Q1011 NOSIG
ZGHA,2018-09-17 11:00,ZGHA 171100Z 35003MPS 6000 SCT016 26/23 Q1012 NOSIG
ZGHA,2018-09-17 12:00,ZGHA 171200Z 32004MPS 4500 BR SCT007 25/23 Q1013 NOSIG
ZGHA,2018-09-17 13:00,ZGHA 171300Z 36002MPS 310V030 4000 BR SCT007 25/22 Q1014 NOSIG
ZGHA,2018-09-17 14:00,ZGHA 171400Z 33003MPS 4000 BR SCT008 25/22 Q1014 NOSIG
ZGHA,2018-09-17 15:00,ZGHA 171500Z 33003MPS 4000 BR SCT008 25/22 Q1014 NOSIG
ZGHA,2018-09-17 16:00,ZGHA 171600Z 33003MPS 4000 BR SCT008 25/22 Q1014 NOSIG
ZGHA,2018-09-17 17:00,ZGHA 171700Z 02003MPS 4000 BR SCT008 25/22 Q1014 NOSIG
ZGHA,2018-09-17 18:00,ZGHA 171800Z 36001MPS 4000 BR SCT006 BKN016 24/23 Q1014 NOSIG
ZGHA,2018-09-17 19:00,ZGHA 171900Z 32002MPS 280V340 4000 BR BKN007 24/22 Q1014 NOSIG
ZGHA,2018-09-17 20:00,ZGHA 172000Z 30003MPS 4000 BR BKN009 24/21 Q1014 NOSIG
ZGHA,2018-09-17 21:00,ZGHA 172100Z 34002MPS 4000 BR BKN015 23/21 Q1014 NOSIG
ZGHA,2018-09-17 22:00,ZGHA 172200Z 02001MPS 3500 BR FEW015 23/21 Q1014 NOSIG
ZGHA,2018-09-17 23:00,ZGHA 172300Z 33002MPS 2100 BR NSC 23/21 Q1014 BECMG TL0050 3500
ZGHA,2018-09-18 00:00,ZGHA 180000Z 34002MPS 300V010 2800 BR NSC 26/21 Q1015 BECMG TL0100 3500
ZGHA,2018-09-18 01:00,ZGHA 180100Z VRB01MPS 5000 HZ NSC 28/21 Q1015 NOSIG
ZGHA,2018-09-18 02:00,ZGHA 180200Z VRB01MPS 9999 SCT020 29/21 Q1016 NOSIG
ZGHA,2018-09-18 03:00,ZGHA 180300Z VRB01MPS 9999 SCT029 31/22 Q1015 NOSIG
ZGHA,2018-09-18 04:00,ZGHA 180400Z 28002MPS 250V340 9999 SCT033 32/22 Q1015 NOSIG
ZGHA,2018-09-18 05:00,ZGHA 180500Z VRB02MPS 9999 BKN040 33/21 Q1014 NOSIG
ZGHA,2018-09-18 06:00,ZGHA 180600Z 26002MPS 200V320 9999 FEW040TCU SCT040 34/21 Q1013 NOSIG
ZGHA,2018-09-18 07:00,ZGHA 180700Z 33003MPS 280V360 9999 FEW040TCU FEW040 36/21 Q1012 NOSIG
ZGHA,2018-09-18 08:00,ZGHA 180800Z 33004MPS 300V360 8000 SCT040 35/22 Q1012 NOSIG
ZGHA,2018-09-18 09:00,ZGHA 180900Z 13004MPS 100V170 9999 SCT040 31/23 Q1012 NOSIG
ZGHA,2018-09-18 10:00,ZGHA 181000Z 35002MPS 280V040 7000 SCT040 31/23 Q1012 NOSIG
ZGHA,2018-09-18 11:00,ZGHA 181100Z 25003MPS 5000 -RA BR BKN050 28/24 Q1013 NOSIG
ZGHA,2018-09-18 12:00,ZGHA 181200Z 23003MPS 210V270 5000 -RA BR SCT050 27/25 Q1014 NOSIG
ZGHA,2018-09-18 13:00,ZGHA 181300Z 31002MPS 260V030 8000 -RA SCT050 26/24 Q1014 NOSIG
ZGHA,2018-09-18 14:00,ZGHA 181400Z VRB01MPS 6000 NSC 27/25 Q1015 NOSIG
ZGHA,2018-09-18 15:00,ZGHA 181500Z VRB01MPS 5000 BR NSC 27/25 Q1014 NOSIG
ZGHA,2018-09-18 16:00,ZGHA 181600Z 36002MPS 4500 BR NSC 27/25 Q1014 NOSIG
ZGHA,2018-09-18 17:00,ZGHA 181700Z 35002MPS 4500 BR NSC 26/24 Q1014 NOSIG
ZGHA,2018-09-18 18:00,ZGHA 181800Z 05001MPS 4000 BR NSC 26/25 Q1013 NOSIG
ZGHA,2018-09-18 19:00,ZGHA 181900Z VRB01MPS 4000 BR NSC 26/25 Q1013 NOSIG
ZGHA,2018-09-18 20:00,ZGHA 182000Z VRB01MPS 3600 BR NSC 26/25 Q1013 NOSIG
ZGHA,2018-09-18 21:00,ZGHA 182100Z 18001MPS 3600 BR NSC 26/25 Q1013 NOSIG
ZGHA,2018-09-18 22:00,ZGHA 182200Z 18001MPS 2400 BR NSC 25/25 Q1013 NOSIG
ZGHA,2018-09-18 23:00,ZGHA 182300Z 20002MPS 3000 BR NSC 26/25 Q1013 NOSIG
ZGHA,2018-09-19 00:00,ZGHA 190000Z 18003MPS 8000 NSC 28/25 Q1014 NOSIG
ZGHA,2018-09-19 01:00,ZGHA 190100Z 19003MPS 170V240 8000 NSC 30/25 Q1014 NOSIG
ZGHA,2018-09-19 02:00,ZGHA 190200Z 20004MPS 170V230 9000 SCT020 32/23 Q1014 NOSIG
ZGHA,2018-09-19 03:00,ZGHA 190300Z 21005MPS 9999 SCT030 33/23 Q1014 NOSIG
ZGHA,2018-09-19 04:00,ZGHA 190400Z 23004MPS 200V290 9999 SCT033 34/21 Q1013 NOSIG
ZGHA,2018-09-19 05:00,ZGHA 190500Z 22006MPS 180V260 9999 FEW040 36/20 Q1012 NOSIG
ZGHA,2018-09-19 06:00,ZGHA 190600Z 21005MPS 160V240 9999 FEW040 36/19 Q1011 NOSIG
ZGHA,2018-09-19 07:00,ZGHA 190700Z VRB04MPS 9999 SCT050 37/20 Q1010 NOSIG
ZGHA,2018-09-19 08:00,ZGHA 190800Z 23004MPS 190V280 9999 SCT050 37/19 Q1009 NOSIG
ZGHA,2018-09-19 09:00,ZGHA 190900Z 22004MPS 130V260 9999 SCT050 36/19 Q1009 NOSIG
ZGHA,2018-09-19 10:00,ZGHA 191000Z 22003MPS 190V250 CAVOK 35/20 Q1009 NOSIG
ZGHA,2018-09-19 11:00,ZGHA 191100Z 20003MPS 150V250 CAVOK 33/21 Q1010 NOSIG
ZGHA,2018-09-19 12:00,ZGHA 191200Z 16002MPS CAVOK 32/22 Q1010 NOSIG
ZGHA,2018-09-19 13:00,ZGHA 191300Z 17002MPS 100V210 CAVOK 31/22 Q1010 NOSIG
ZGHA,2018-09-19 14:00,ZGHA 191400Z 16002MPS 120V220 CAVOK 30/22 Q1011 NOSIG
ZGHA,2018-09-19 15:00,ZGHA 191500Z 19002MPS 160V240 CAVOK 29/22 Q1010 NOSIG
ZGHA,2018-09-19 16:00,ZGHA 191600Z VRB01MPS CAVOK 29/22 Q1010 NOSIG
ZGHA,2018-09-19 17:00,ZGHA 191700Z 18002MPS 170V230 CAVOK 28/22 Q1010 NOSIG
ZGHA,2018-09-19 18:00,ZGHA 191800Z 19002MPS CAVOK 28/22 Q1009 NOSIG
ZGHA,2018-09-19 19:00,ZGHA 191900Z 18002MPS CAVOK 27/22 Q1009 NOSIG
ZGHA,2018-09-19 20:00,ZGHA 192000Z 19001MPS CAVOK 27/22 Q1009 NOSIG
ZGHA,2018-09-19 21:00,ZGHA 192100Z 21002MPS CAVOK 26/22 Q1009 NOSIG
ZGHA,2018-09-19 22:00,ZGHA 192200Z 23001MPS CAVOK 26/23 Q1010 NOSIG
ZGHA,2018-09-19 23:00,ZGHA 192300Z 20002MPS 180V240 CAVOK 26/23 Q1010 NOSIG
ZGHA,2018-09-20 00:00,ZGHA 200000Z 18002MPS CAVOK 29/22 Q1011 NOSIG
ZGHA,2018-09-20 01:00,ZGHA 200100Z 18003MPS 150V250 CAVOK 31/22 Q1011 NOSIG
ZGHA,2018-09-20 02:00,ZGHA 200200Z 20003MPS 150V250 CAVOK 33/21 Q1011 NOSIG
ZGHA,2018-09-20 03:00,ZGHA 200300Z 21003MPS 170V250 CAVOK 35/21 Q1011 NOSIG
ZGHA,2018-09-20 04:00,ZGHA 200400Z 22004MPS 160V280 9999 FEW040 37/19 Q1010 NOSIG
ZGHA,2018-09-20 05:00,ZGHA 200500Z VRB03MPS CAVOK 38/19 Q1009 NOSIG
ZGHA,2018-09-20 06:00,ZGHA 200600Z 23004G09MPS 170V280 CAVOK 39/18 Q1008 NOSIG
ZGHA,2018-09-20 07:00,ZGHA 200700Z 24004MPS 190V270 CAVOK 37/18 Q1007 NOSIG
ZGHA,2018-09-20 08:00,ZGHA 200800Z 20004MPS 170V240 CAVOK 38/18 Q1007 NOSIG
ZGHA,2018-09-20 09:00,ZGHA 200900Z 20003MPS 170V250 CAVOK 37/18 Q1007 NOSIG
ZGHA,2018-09-20 10:00,ZGHA 201000Z 36002MPS 340V040 CAVOK 35/20 Q1007 NOSIG
ZGHA,2018-09-20 11:00,ZGHA 201100Z 01002MPS 280V030 CAVOK 34/21 Q1007 NOSIG
ZGHA,2018-09-20 12:00,ZGHA 201200Z 36005MPS CAVOK 31/23 Q1008 NOSIG
ZGHA,2018-09-20 13:00,ZGHA 201300Z 36006MPS CAVOK 30/23 Q1010 NOSIG
ZGHA,2018-09-20 14:00,ZGHA 201400Z 34006MPS CAVOK 29/22 Q1011 NOSIG
ZGHA,2018-09-20 15:00,ZGHA 201500Z 32005MPS CAVOK 28/22 Q1011 NOSIG
ZGHA,2018-09-20 16:00,ZGHA 201600Z 32006MPS 9999 BKN020 26/21 Q1011 NOSIG
ZGHA,2018-09-20 17:00,ZGHA 201700Z 32005MPS 9999 OVC020 25/20 Q1011 NOSIG
ZGHA,2018-09-20 18:00,ZGHA 201800Z 34005MPS 9999 OVC020 25/20 Q1011 NOSIG
ZGHA,2018-09-20 19:00,ZGHA 201900Z 35007MPS 9999 OVC020 25/19 Q1011 NOSIG
ZGHA,2018-09-20 20:00,ZGHA 202000Z 36005MPS 9999 OVC016 24/19 Q1012 NOSIG
ZGHA,2018-09-20 21:00,ZGHA 202100Z 36005MPS 9999 OVC016 24/19 Q1012 NOSIG
ZGHA,2018-09-20 22:00,ZGHA 202200Z 34004MPS 9999 OVC016 24/19 Q1013 NOSIG
ZGHA,2018-09-20 23:00,ZGHA 202300Z 36004MPS 8000 OVC016 23/19 Q1013 NOSIG
ZGHA,2018-09-21 00:00,ZGHA 210000Z 33004MPS 300V360 9000 OVC016 24/18 Q1014 NOSIG
ZGHA,2018-09-21 01:00,ZGHA 210100Z 33004MPS 9000 BKN016 OVC050 24/19 Q1015 NOSIG
ZGHA,2018-09-21 02:00,ZGHA 210200Z 34004MPS 290V020 9000 BKN016 24/19 Q1015 NOSIG
ZGHA,2018-09-21 03:00,ZGHA 210300Z 01004MPS 9999 BKN020 25/19 Q1015 NOSIG
ZGHA,2018-09-21 04:00,ZGHA 210400Z 35004MPS 310V030 9999 BKN023 28/18 Q1015 NOSIG
ZGHA,2018-09-21 05:00,ZGHA 210500Z 01005MPS 340V040 9999 BKN026 29/19 Q1014 NOSIG
ZGHA,2018-09-21 06:00,ZGHA 210600Z 36004MPS 310V030 9999 BKN026 28/19 Q1013 NOSIG
ZGHA,2018-09-21 07:00,ZGHA 210700Z 01004MPS 330V040 9999 BKN030 28/19 Q1013 NOSIG
ZGHA,2018-09-21 08:00,ZGHA 210800Z 34005MPS 310V010 9999 BKN030 27/18 Q1013 NOSIG
ZGHA,2018-09-21 09:00,ZGHA 210900Z 33006MPS 9999 SCT030 26/18 Q1013 NOSIG
ZGHA,2018-09-21 10:00,ZGHA 211000Z 36005MPS 9999 FEW030 26/18 Q1014 NOSIG
ZGHA,2018-09-21 11:00,ZGHA 211100Z 34005MPS 9999 SCT030 25/18 Q1014 NOSIG
ZGHA,2018-09-21 12:00,ZGHA 211200Z 34004MPS 9999 BKN027 25/18 Q1015 NOSIG
ZGHA,2018-09-21 13:00,ZGHA 211300Z 33004MPS 9999 BKN026 25/18 Q1015 NOSIG
ZGHA,2018-09-21 14:00,ZGHA 211400Z 34005MPS 300V360 9999 BKN026 25/18 Q1016 NOSIG
ZGHA,2018-09-21 15:00,ZGHA 211500Z 33005MPS 9999 BKN026 25/18 Q1016 NOSIG
ZGHA,2018-09-21 16:00,ZGHA 211600Z 34005MPS 9999 BKN023 24/18 Q1016 NOSIG
ZGHA,2018-09-21 17:00,ZGHA 211700Z 34004MPS 9999 BKN026 24/18 Q1016 NOSIG
ZGHA,2018-09-21 18:00,ZGHA 211800Z 34003MPS 9999 BKN026 24/18 Q1016 NOSIG
ZGHA,2018-09-21 19:00,ZGHA 211900Z 34004MPS 9999 BKN026 24/18 Q1016 NOSIG
ZGHA,2018-09-21 20:00,ZGHA 212000Z 34003MPS 310V010 9999 BKN026 24/18 Q1016 NOSIG
ZGHA,2018-09-21 21:00,ZGHA 212100Z 35003MPS 9999 BKN026 24/18 Q1016 NOSIG
ZGHA,2018-09-21 22:00,ZGHA 212200Z 36004MPS 9999 BKN026 23/18 Q1016 NOSIG
ZGHA,2018-09-21 23:00,ZGHA 212300Z 36003MPS 9999 BKN025 23/18 Q1016 NOSIG
ZGHA,2018-09-22 00:00,ZGHA 220000Z 36003MPS 9000 BKN023 23/18 Q1017 NOSIG
ZGHA,2018-09-22 01:00,ZGHA 220100Z 36002MPS 330V030 9000 BKN023 24/18 Q1018 NOSIG
ZGHA,2018-09-22 02:00,ZGHA 220200Z 33004MPS 300V360 9000 BKN018 OVC050 25/18 Q1018 NOSIG
ZGHA,2018-09-22 03:00,ZGHA 220300Z 32004MPS 290V350 9000 BKN018 OVC050 25/18 Q1018 NOSIG
ZGHA,2018-09-22 04:00,ZGHA 220400Z 34003MPS 320V020 9000 BKN018 OVC050 25/18 Q1017 NOSIG
ZGHA,2018-09-22 05:00,ZGHA 220500Z 34003MPS 320V020 9000 BKN018 OVC050 25/19 Q1016 NOSIG
ZGHA,2018-09-22 06:00,ZGHA 220600Z 32003MPS 260V020 9000 BKN023 OVC050 26/18 Q1016 NOSIG
ZGHA,2018-09-22 07:00,ZGHA 220700Z 34004MPS 8000 BKN020 OVC050 25/18 Q1015 NOSIG
ZGHA,2018-09-22 08:00,ZGHA 220800Z 33005MPS 290V360 9000 BKN020 OVC050 24/18 Q1016 NOSIG
ZGHA,2018-09-22 09:00,ZGHA 220900Z 32004MPS 9000 BKN020 OVC050 23/18 Q1016 NOSIG
ZGHA,2018-09-22 10:00,ZGHA 221000Z 34004MPS 8000 SCT015 BKN020 OVC050 23/18 Q1016 NOSIG
ZGHA,2018-09-22 11:00,ZGHA 221100Z 36003MPS 9000 BKN020 OVC050 22/18 Q1016 NOSIG
ZGHA,2018-09-22 12:00,ZGHA 221200Z 36004MPS 9999 BKN020 OVC050 22/18 Q1017 NOSIG
ZGHA,2018-09-22 13:00,ZGHA 221300Z 01003MPS 340V040 9999 BKN020 OVC050 22/18 Q1017 NOSIG
ZGHA,2018-09-22 14:00,ZGHA 221400Z 33002MPS 290V010 9999 BKN018 OVC050 22/18 Q1017 NOSIG
ZGHA,2018-09-22 15:00,ZGHA 221500Z VRB01MPS 9999 BKN030 22/18 Q1017 NOSIG
ZGHA,2018-09-22 16:00,ZGHA 221600Z 36002MPS 9999 BKN030 22/18 Q1017 NOSIG
ZGHA,2018-09-22 17:00,ZGHA 221700Z 01004MPS 9999 BKN017 OVC050 22/19 Q1017 NOSIG
ZGHA,2018-09-22 18:00,ZGHA 221800Z 32002MPS 290V350 9999 BKN012 OVC050 22/18 Q1017 NOSIG
ZGHA,2018-09-22 19:00,ZGHA 221900Z 02003MPS 9999 SCT008 BKN012 OVC050 22/19 Q1016 NOSIG
ZGHA,2018-09-22 20:00,ZGHA 222000Z 36004MPS 9999 SCT008 BKN011 OVC050 22/18 Q1016 NOSIG
ZGHA,2018-09-22 21:00,ZGHA 222100Z 36003MPS 9999 SCT008 BKN013 OVC050 22/19 Q1016 NOSIG
ZGHA,2018-09-22 22:00,ZGHA 222200Z 34003MPS 9999 SCT007 BKN010 OVC050 22/18 Q1017 NOSIG
ZGHA,2018-09-22 23:00,ZGHA 222300Z 32004MPS 7000 SCT008 BKN010 OVC050 22/19 Q1017 BECMG TL2400 BKN009 OVC050
ZGHA,2018-09-23 00:00,ZGHA 230000Z 35006MPS 5000 -SHRA BR SCT005 BKN016 FEW050CB BKN050 21/20 Q1018 RESHRA NOSIG
ZGHA,2018-09-23 01:00,ZGHA 230100Z 04004MPS 010V070 4000 -SHRA BR SCT005 BKN016 FEW050CB BKN050 21/20 Q1017 NOSIG
ZGHA,2018-09-23 02:00,ZGHA 230200Z 03002MPS 350V050 2500 SHRA BR SCT005 BKN026 BKN050 21/20 Q1018 BECMG TL0240 3500 -SHRA
ZGHA,2018-09-23 03:00,ZGHA 230300Z 03002MPS 7000 -SHRA SCT005 BKN026 21/20 Q1018 RESHRA NOSIG
ZGHA,2018-09-23 04:00,ZGHA 230400Z 04002MPS 8000 -SHRA SCT013 BKN026 21/20 Q1018 NOSIG
ZGHA,2018-09-23 05:00,ZGHA 230500Z VRB01MPS 8000 -RA SCT004 BKN026 21/20 Q1017 NOSIG
ZGHA,2018-09-23 06:00,ZGHA 230600Z VRB01MPS 9999 -RA SCT007 BKN030 22/21 Q1016 NOSIG
ZGHA,2018-09-23 07:00,ZGHA 230700Z 03002MPS 8000 SHRA SCT007 FEW060CB 22/20 Q1016 BECMG TL0715 -SHRA
ZGHA,2018-09-23 08:00,ZGHA 230800Z 02002MPS 9999 -RA BKN008 OVC050 22/21 Q1015 RESHRA NOSIG
ZGHA,2018-09-23 09:00,ZGHA 230900Z 36003MPS 9999 SCT008 BKN020 OVC050 22/21 Q1015 NOSIG
ZGHA,2018-09-23 10:00,ZGHA 231000Z 01003MPS 9999 FEW008 BKN020 OVC050 22/20 Q1016 NOSIG
ZGHA,2018-09-23 11:00,ZGHA 231100Z 03002MPS 9999 OVC033 22/21 Q1016 NOSIG
ZGHA,2018-09-23 12:00,ZGHA 231200Z 03002MPS CAVOK 22/21 Q1016 NOSIG
ZGHA,2018-09-23 13:00,ZGHA 231300Z VRB01MPS CAVOK 22/21 Q1017 NOSIG
ZGHA,2018-09-23 14:00,ZGHA 231400Z VRB01MPS 9999 SCT005 22/20 Q1017 NOSIG
ZGHA,2018-09-23 15:00,ZGHA 231500Z VRB01MPS 9999 SCT005 22/21 Q1017 NOSIG
ZGHA,2018-09-23 16:00,ZGHA 231600Z 01003MPS CAVOK 22/20 Q1016 NOSIG
ZGHA,2018-09-23 17:00,ZGHA 231700Z 04002MPS 8000 NSC 22/21 Q1016 NOSIG
ZGHA,2018-09-23 18:00,ZGHA 231800Z 02002MPS 9999 SCT050 21/20 Q1015 NOSIG
ZGHA,2018-09-23 19:00,ZGHA 231900Z 36003MPS 9999 FEW050 21/20 Q1015 NOSIG
ZGHA,2018-09-23 20:00,ZGHA 232000Z 36003MPS CAVOK 21/20 Q1015 NOSIG
ZGHA,2018-09-23 21:00,ZGHA 232100Z 36004MPS 6000 NSC 21/20 Q1015 NOSIG
ZGHA,2018-09-23 22:00,ZGHA 232200Z 04003MPS 6000 SCT005 21/20 Q1015 NOSIG
ZGHA,2018-09-23 23:00,ZGHA 232300Z 03003MPS 4000 BR NSC 21/20 Q1015 NOSIG
ZGHA,2018-09-24 00:00,ZGHA 240000Z 04003MPS 3000 BR SCT005 22/20 Q1016 NOSIG
ZGHA,2018-09-24 01:00,ZGHA 240100Z 02002MPS 340V050 5000 BR SCT007 23/21 Q1016 BECMG TL0200 BKN009
ZGHA,2018-09-24 02:00,ZGHA 240200Z 04003MPS 360V070 8000 BKN010 24/20 Q1016 NOSIG
ZGHA,2018-09-24 03:00,ZGHA 240300Z VRB01MPS 9999 SCT015 25/19 Q1016 NOSIG
ZGHA,2018-09-24 04:00,ZGHA 240400Z 03002MPS 320V070 9999 SCT022 26/19 Q1015 NOSIG
ZGHA,2018-09-24 05:00,ZGHA 240500Z 02002MPS 310V060 9999 SCT033 27/19 Q1014 NOSIG
ZGHA,2018-09-24 06:00,ZGHA 240600Z 26003MPS 230V320 9999 SCT028 OVC050 27/20 Q1014 NOSIG
ZGHA,2018-09-24 07:00,ZGHA 240700Z 29003MPS 260V340 9999 SCT026 OVC050 27/20 Q1013 NOSIG
ZGHA,2018-09-24 08:00,ZGHA 240800Z 31004MPS 9000 SCT023 OVC050 27/20 Q1013 NOSIG
ZGHA,2018-09-24 09:00,ZGHA 240900Z 31005MPS 280V340 7000 -RA SCT026 OVC040 25/20 Q1013 NOSIG
ZGHA,2018-09-24 10:00,ZGHA 241000Z 32003MPS 290V360 2300 RA BR SCT026 OVC040 23/22 Q1013 BECMG TL1040 -RA
ZGHA,2018-09-24 11:00,ZGHA 241100Z 03004MPS 5000 -RA BR FEW007 OVC040 23/22 Q1013 RERA NOSIG
ZGHA,2018-09-24 12:00,ZGHA 241200Z 36003MPS 5000 BR SCT040 23/21 Q1013 NOSIG
ZGHA,2018-09-24 13:00,ZGHA 241300Z VRB01MPS 4500 BR SCT050 23/21 Q1014 NOSIG
ZGHA,2018-09-24 14:00,ZGHA 241400Z 02002MPS 4300 BR NSC 23/21 Q1014 NOSIG
ZGHA,2018-09-24 15:00,ZGHA 241500Z 36004MPS 4100 BR NSC 23/21 Q1014 NOSIG
ZGHA,2018-09-24 16:00,ZGHA 241600Z 35003MPS 3000 BR NSC 22/21 Q1013 BECMG TL1700 2500
ZGHA,2018-09-24 17:00,ZGHA 241700Z 34003MPS 3300 BR NSC 22/21 Q1013 NOSIG
ZGHA,2018-09-24 18:00,ZGHA 241800Z 34002MPS 3300 BR NSC 22/20 Q1012 NOSIG
ZGHA,2018-09-24 19:00,ZGHA 241900Z 36003MPS 4000 BR NSC 22/21 Q1012 NOSIG
ZGHA,2018-09-24 20:00,ZGHA 242000Z 30002MPS 270V330 3500 BR NSC 22/20 Q1012 NOSIG
ZGHA,2018-09-24 21:00,ZGHA 242100Z 36002MPS 3200 BR NSC 22/20 Q1011 NOSIG
ZGHA,2018-09-24 22:00,ZGHA 242200Z 34003MPS 2500 BR FEW003 22/21 Q1012 NOSIG
ZGHA,2018-09-24 23:00,ZGHA 242300Z 01003MPS 350V050 1700 BR SCT003 OVC050 22/21 Q1012 BECMG TL0050 3500
ZGHA,2018-09-25 00:00,ZGHA 250000Z 36002MPS 2100 BR SCT004 BKN050 22/21 Q1012 BECMG TL0050 3500
ZGHA,2018-09-25 01:00,ZGHA 250100Z 36002MPS 330V040 2500 BR SCT008 BKN050 23/21 Q1013 BECMG TL0200 4000
ZGHA,2018-09-25 02:00,ZGHA 250200Z 04002MPS 360V090 5000 BR SCT010 24/21 Q1012 NOSIG
ZGHA,2018-09-25 03:00,ZGHA 250300Z VRB01MPS 7000 NSC 27/20 Q1012 NOSIG
ZGHA,2018-09-25 04:00,ZGHA 250400Z 00000MPS 9000 SCT050 27/19 Q1011 NOSIG
ZGHA,2018-09-25 05:00,ZGHA 250500Z 29003MPS 6000 SCT050 26/20 Q1011 NOSIG
ZGHA,2018-09-25 06:00,ZGHA 250600Z 35002MPS 310V090 6000 NSC 27/20 Q1010 NOSIG
ZGHA,2018-09-25 07:00,ZGHA 250700Z 34004MPS 5000 BR NSC 26/21 Q1010 NOSIG
ZGHA,2018-09-25 08:00,ZGHA 250800Z 33004MPS 5000 BR NSC 25/21 Q1010 NOSIG
ZGHA,2018-09-25 09:00,ZGHA 250900Z 01003MPS 320V040 5000 BR NSC 25/21 Q1009 NOSIG
ZGHA,2018-09-25 10:00,ZGHA 251000Z 03003MPS 4000 BR NSC 24/21 Q1009 NOSIG
ZGHA,2018-09-25 11:00,ZGHA 251100Z 34003MPS 4400 BR NSC 24/21 Q1009 NOSIG
ZGHA,2018-09-25 12:00,ZGHA 251200Z 01003MPS 4400 -RA BR NSC 23/21 Q1010 NOSIG
ZGHA,2018-09-25 13:00,ZGHA 251300Z 04002MPS 5000 -RA BR NSC 23/21 Q1010 NOSIG
ZGHA,2018-09-25 14:00,ZGHA 251400Z 06003MPS 9000 NSC 23/19 Q1010 NOSIG
ZGHA,2018-09-25 15:00,ZGHA 251500Z 04003MPS CAVOK 23/19 Q1010 NOSIG
ZGHA,2018-09-25 16:00,ZGHA 251600Z 35002MPS CAVOK 22/19 Q1010 NOSIG
ZGHA,2018-09-25 17:00,ZGHA 251700Z 35002MPS CAVOK 22/19 Q1011 NOSIG
ZGHA,2018-09-25 18:00,ZGHA 251800Z 36002MPS 8000 NSC 23/19 Q1010 NOSIG
ZGHA,2018-09-25 19:00,ZGHA 251900Z 36004MPS 8000 NSC 22/20 Q1011 NOSIG
ZGHA,2018-09-25 20:00,ZGHA 252000Z 02003MPS CAVOK 22/19 Q1011 NOSIG
ZGHA,2018-09-25 21:00,ZGHA 252100Z 04002MPS CAVOK 21/19 Q1011 NOSIG
ZGHA,2018-09-25 22:00,ZGHA 252200Z 02003MPS 9999 SCT011 21/19 Q1011 NOSIG
ZGHA,2018-09-25 23:00,ZGHA 252300Z 02004MPS 6000 SCT007 OVC050 21/19 Q1012 NOSIG
ZGHA,2018-09-26 00:00,ZGHA 260000Z 01005MPS 6000 OVC050 21/19 Q1013 NOSIG
ZGHA,2018-09-26 01:00,ZGHA 260100Z 36005MPS 5000 -RA BR FEW007 BKN020 OVC050 20/19 Q1014 NOSIG
ZGHA,2018-09-26 02:00,ZGHA 260200Z 02005MPS 6000 -RA BKN020 OVC050 20/18 Q1015 NOSIG
ZGHA,2018-09-26 03:00,ZGHA 260300Z 02005MPS 6000 BKN026 OVC050 20/18 Q1015 NOSIG
ZGHA,2018-09-26 04:00,ZGHA 260400Z 36005MPS 6000 BKN026 OVC050 20/18 Q1015 NOSIG
ZGHA,2018-09-26 05:00,ZGHA 260500Z 01003MPS 6000 FEW012 BKN026 OVC050 20/18 Q1014 NOSIG
ZGHA,2018-09-26 06:00,ZGHA 260600Z 04004MPS 5000 -RA BR FEW011 BKN026 OVC050 20/18 Q1014 NOSIG
ZGHA,2018-09-26 07:00,ZGHA 260700Z 04003MPS 7000 -RA SCT008 OVC033 19/18 Q1014 BECMG TL0800 BKN008 OVC033
ZGHA,2018-09-26 08:00,ZGHA 260800Z 03004MPS 6000 -RA BKN008 OVC033 19/18 Q1014 BECMG TL0900 SCT008 OVC033
ZGHA,2018-09-26 09:00,ZGHA 260900Z 03004MPS 7000 -RA SCT007 OVC033 19/18 Q1014 NOSIG
ZGHA,2018-09-26 10:00,ZGHA 261000Z 02004MPS 5000 -RA BR FEW006 SCT010 OVC040 19/18 Q1015 NOSIG
ZGHA,2018-09-26 11:00,ZGHA 261100Z 04003MPS 7000 -RA FEW005 SCT007 OVC040 19/18 Q1015 BECMG TL1200 BKN008 OVC040
ZGHA,2018-09-26 12:00,ZGHA 261200Z 04004MPS 8000 -RA BKN011 OVC050 19/17 Q1015 BECMG TL1350 SCT016 OVC050
ZGHA,2018-09-26 13:00,ZGHA 261300Z 04003MPS 9999 -RA BKN010 OVC050 18/17 Q1016 BECMG TL1400 SCT016 OVC050
ZGHA,2018-09-26 14:00,ZGHA 261400Z 36004MPS 9999 FEW010 OVC050 18/17 Q1016 NOSIG
ZGHA,2018-09-26 15:00,ZGHA 261500Z 36004MPS 9999 BKN008 OVC050 18/17 Q1017 BECMG TL1600 SCT010 OVC050
ZGHA,2018-09-26 16:00,ZGHA 261600Z 01004MPS 8000 -RA BKN008 OVC050 18/17 Q1017 BECMG TL1750 SCT010 OVC050
ZGHA,2018-09-26 17:00,ZGHA 261700Z 36003MPS 8000 -RA FEW008 OVC050 18/17 Q1016 NOSIG
ZGHA,2018-09-26 18:00,ZGHA 261800Z 36003MPS 9000 FEW008 OVC050 18/17 Q1016 NOSIG
ZGHA,2018-09-26 19:00,ZGHA 261900Z 34003MPS 7000 FEW008 OVC050 18/17 Q1016 NOSIG
ZGHA,2018-09-26 20:00,ZGHA 262000Z 36004MPS 6000 FEW006 OVC050 18/17 Q1015 NOSIG
ZGHA,2018-09-26 21:00,ZGHA 262100Z 01005MPS 6000 SCT005 OVC050 17/16 Q1015 NOSIG
ZGHA,2018-09-26 22:00,ZGHA 262200Z 36003MPS 6000 SCT005 17/16 Q1016 NOSIG
ZGHA,2018-09-26 23:00,ZGHA 262300Z 36005MPS 5000 -RA BR SCT007 OVC050 17/16 Q1016 BECMG TL2400 BKN009 OVC050
ZGHA,2018-09-27 00:00,ZGHA 270000Z 36004MPS 4500 -RA BR FEW007 OVC050 17/16 Q1017 NOSIG
ZGHA,2018-09-27 01:00,ZGHA 270100Z 36004MPS 4500 -RA BR SCT007 OVC050 18/16 Q1017 NOSIG
ZGHA,2018-09-27 02:00,ZGHA 270200Z 36004MPS 4500 -RA BR SCT008 OVC050 18/17 Q1017 NOSIG
ZGHA,2018-09-27 03:00,ZGHA 270300Z 36003MPS 5000 -RA BR SCT009 OVC050 19/17 Q1017 NOSIG
ZGHA,2018-09-27 04:00,ZGHA 270400Z 35003MPS 5000 -RA BR SCT009 OVC050 19/17 Q1017 NOSIG
ZGHA,2018-09-27 05:00,ZGHA 270500Z 35002MPS 310V040 5000 -RA BR SCT011 OVC050 20/16 Q1016 NOSIG
ZGHA,2018-09-27 06:00,ZGHA 270600Z 02002MPS 350V060 6000 SCT013 OVC050 20/17 Q1015 NOSIG
ZGHA,2018-09-27 07:00,ZGHA 270700Z 36002MPS 310V030 9000 SCT015 OVC050 21/17 Q1015 NOSIG
ZGHA,2018-09-27 08:00,ZGHA 270800Z 02002MPS 340V050 9999 SCT020 OVC050 22/16 Q1014 NOSIG
ZGHA,2018-09-27 09:00,ZGHA 270900Z 36002MPS CAVOK 22/16 Q1015 NOSIG
ZGHA,2018-09-27 10:00,ZGHA 271000Z 05001MPS 9999 OVC046 21/16 Q1015 NOSIG
ZGHA,2018-09-27 11:00,ZGHA 271100Z 31003MPS 8000 NSC 21/17 Q1016 NOSIG
ZGHA,2018-09-27 12:00,ZGHA 271200Z 32003MPS 8000 NSC 21/17 Q1016 NOSIG
ZGHA,2018-09-27 13:00,ZGHA 271300Z 33003MPS 7000 NSC 21/17 Q1017 NOSIG
ZGHA,2018-09-27 14:00,ZGHA 271400Z 35003MPS 6000 NSC 21/17 Q1017 NOSIG
ZGHA,2018-09-27 15:00,ZGHA 271500Z 34003MPS 6000 NSC 21/17 Q1017 NOSIG
ZGHA,2018-09-27 16:00,ZGHA 271600Z 02002MPS 5000 BR NSC 20/18 Q1017 NOSIG
ZGHA,2018-09-27 17:00,ZGHA 271700Z 34003MPS 5000 BR NSC 20/18 Q1017 NOSIG
ZGHA,2018-09-27 18:00,ZGHA 271800Z 33003MPS 5000 BR NSC 20/18 Q1016 NOSIG
ZGHA,2018-09-27 19:00,ZGHA 271900Z 36002MPS 5000 BR NSC 20/18 Q1016 NOSIG
ZGHA,2018-09-27 20:00,ZGHA 272000Z 36003MPS 4800 BR NSC 20/18 Q1016 NOSIG
ZGHA,2018-09-27 21:00,ZGHA 272100Z 36003MPS 4500 BR NSC 20/18 Q1016 NOSIG
ZGHA,2018-09-27 22:00,ZGHA 272200Z 35003MPS 4000 BR NSC 20/18 Q1016 NOSIG
ZGHA,2018-09-27 23:00,ZGHA 272300Z 33004MPS 3300 BR SCT040 20/18 Q1016 NOSIG
ZGHA,2018-09-28 00:00,ZGHA 280000Z 35004MPS 6000 NSC 21/17 Q1017 NOSIG
ZGHA,2018-09-28 01:00,ZGHA 280100Z 36004MPS 320V020 9000 NSC 23/17 Q1017 NOSIG
ZGHA,2018-09-28 02:00,ZGHA 280200Z 35005MPS 320V020 CAVOK 23/16 Q1017 NOSIG
ZGHA,2018-09-28 03:00,ZGHA 280300Z 35005MPS 320V030 CAVOK 25/15 Q1017 NOSIG
ZGHA,2018-09-28 04:00,ZGHA 280400Z 01004MPS 330V060 9999 FEW050 26/15 Q1016 NOSIG
ZGHA,2018-09-28 05:00,ZGHA 280500Z 35005MPS 320V040 9999 FEW050 27/15 Q1015 NOSIG
ZGHA,2018-09-28 06:00,ZGHA 280600Z 32005MPS CAVOK 25/16 Q1015 NOSIG
ZGHA,2018-09-28 07:00,ZGHA 280700Z 36005MPS CAVOK 25/15 Q1015 NOSIG
ZGHA,2018-09-28 08:00,ZGHA 280800Z 35006MPS CAVOK 25/15 Q1015 NOSIG
ZGHA,2018-09-28 09:00,ZGHA 280900Z 35005MPS CAVOK 25/15 Q1015 NOSIG
ZGHA,2018-09-28 10:00,ZGHA 281000Z 35005MPS CAVOK 24/16 Q1015 NOSIG
ZGHA,2018-09-28 11:00,ZGHA 281100Z 36004MPS CAVOK 23/15 Q1015 NOSIG
ZGHA,2018-09-28 12:00,ZGHA 281200Z 01003MPS CAVOK 23/15 Q1016 NOSIG
ZGHA,2018-09-28 13:00,ZGHA 281300Z 01003MPS CAVOK 23/15 Q1016 NOSIG
ZGHA,2018-09-28 14:00,ZGHA 281400Z 34004MPS CAVOK 23/15 Q1016 NOSIG
ZGHA,2018-09-28 15:00,ZGHA 281500Z 36004MPS CAVOK 22/15 Q1016 NOSIG
ZGHA,2018-09-28 16:00,ZGHA 281600Z 03003MPS 360V060 CAVOK 21/16 Q1016 NOSIG
ZGHA,2018-09-28 17:00,ZGHA 281700Z 01003MPS CAVOK 20/15 Q1016 NOSIG
ZGHA,2018-09-28 18:00,ZGHA 281800Z 01002MPS 8000 NSC 19/16 Q1015 NOSIG
ZGHA,2018-09-28 19:00,ZGHA 281900Z 35003MPS 8000 NSC 19/15 Q1015 NOSIG
ZGHA,2018-09-28 20:00,ZGHA 282000Z 36004MPS 6000 NSC 18/16 Q1015 NOSIG
ZGHA,2018-09-28 21:00,ZGHA 282100Z 36003MPS 5000 BR NSC 18/16 Q1015 NOSIG
ZGHA,2018-09-28 22:00,ZGHA 282200Z 01001MPS 6000 NSC 18/16 Q1015 NOSIG
ZGHA,2018-09-28 23:00,ZGHA 282300Z 36002MPS 6000 NSC 19/16 Q1015 NOSIG
ZGHA,2018-09-29 00:00,ZGHA 290000Z 36003MPS 6000 NSC 21/16 Q1016 NOSIG
ZGHA,2018-09-29 01:00,ZGHA 290100Z 01003MPS 340V040 8000 NSC 23/15 Q1016 NOSIG
ZGHA,2018-09-29 02:00,ZGHA 290200Z 03003MPS 9000 NSC 24/15 Q1016 NOSIG
ZGHA,2018-09-29 03:00,ZGHA 290300Z 02003MPS 350V050 CAVOK 26/15 Q1016 NOSIG
ZGHA,2018-09-29 04:00,ZGHA 290400Z 02006MPS 9999 SCT050 28/12 Q1015 NOSIG
ZGHA,2018-09-29 05:00,ZGHA 290500Z 35006MPS 9999 SCT050 29/11 Q1014 NOSIG
ZGHA,2018-09-29 06:00,ZGHA 290600Z 01004MPS 9999 SCT050 29/12 Q1013 NOSIG
ZGHA,2018-09-29 07:00,ZGHA 290700Z 36006MPS 320V030 9999 FEW050 29/12 Q1012 NOSIG
ZGHA,2018-09-29 08:00,ZGHA 290800Z 34006MPS 310V010 CAVOK 29/11 Q1012 NOSIG
ZGHA,2018-09-29 09:00,ZGHA 290900Z 34005MPS CAVOK 29/09 Q1012 NOSIG
ZGHA,2018-09-29 10:00,ZGHA 291000Z 34006MPS CAVOK 26/12 Q1012 NOSIG
ZGHA,2018-09-29 11:00,ZGHA 291100Z 33005MPS CAVOK 25/12 Q1012 NOSIG
ZGHA,2018-09-29 12:00,ZGHA 291200Z 33004MPS CAVOK 24/11 Q1013 NOSIG
ZGHA,2018-09-29 13:00,ZGHA 291300Z 35003MPS CAVOK 23/11 Q1014 NOSIG
ZGHA,2018-09-29 14:00,ZGHA 291400Z 04002MPS CAVOK 21/14 Q1014 NOSIG
ZGHA,2018-09-29 15:00,ZGHA 291500Z 35003MPS CAVOK 21/12 Q1014 NOSIG
ZGHA,2018-09-29 16:00,ZGHA 291600Z 04002MPS 010V070 CAVOK 20/13 Q1014 NOSIG
ZGHA,2018-09-29 17:00,ZGHA 291700Z 36002MPS CAVOK 19/13 Q1014 NOSIG
ZGHA,2018-09-29 18:00,ZGHA 291800Z 07002MPS CAVOK 18/15 Q1014 NOSIG
ZGHA,2018-09-29 19:00,ZGHA 291900Z 03002MPS CAVOK 18/14 Q1014 NOSIG
ZGHA,2018-09-29 20:00,ZGHA 292000Z 36001MPS CAVOK 18/15 Q1014 NOSIG
ZGHA,2018-09-29 21:00,ZGHA 292100Z VRB01MPS CAVOK 18/14 Q1015 NOSIG
ZGHA,2018-09-29 22:00,ZGHA 292200Z 04001MPS CAVOK 18/14 Q1015 NOSIG
ZGHA,2018-09-29 23:00,ZGHA 292300Z 03002MPS CAVOK 18/14 Q1016 NOSIG
ZGHA,2018-09-30 00:00,ZGHA 300000Z 04002MPS CAVOK 19/14 Q1016 NOSIG
ZGHA,2018-09-30 01:00,ZGHA 300100Z 05002MPS 020V090 CAVOK 22/14 Q1017 NOSIG
ZGHA,2018-09-30 02:00,ZGHA 300200Z 01003MPS 340V040 CAVOK 25/13 Q1017 NOSIG
ZGHA,2018-09-30 03:00,ZGHA 300300Z 03004MPS 360V060 CAVOK 27/13 Q1016 NOSIG
ZGHA,2018-09-30 04:00,ZGHA 300400Z 02004MPS 340V050 CAVOK 29/11 Q1016 NOSIG
ZGHA,2018-09-30 05:00,ZGHA 300500Z 07004MPS 010V160 CAVOK 30/09 Q1014 NOSIG
ZGHA,2018-09-30 06:00,ZGHA 300600Z 06005MPS 030V090 CAVOK 31/03 Q1013 NOSIG
ZGHA,2018-09-30 07:00,ZGHA 300700Z 06004MPS 020V090 CAVOK 31/05 Q1013 NOSIG
ZGHA,2018-09-30 08:00,ZGHA 300800Z 05004MPS 020V080 CAVOK 31/07 Q1013 NOSIG
ZGHA,2018-09-30 09:00,ZGHA 300900Z 36005MPS CAVOK 29/09 Q1013 NOSIG
ZGHA,2018-09-30 10:00,ZGHA 301000Z 35006MPS CAVOK 28/10 Q1014 NOSIG
ZGHA,2018-09-30 11:00,ZGHA 301100Z 34005MPS CAVOK 26/13 Q1014 NOSIG
ZGHA,2018-09-30 12:00,ZGHA 301200Z 34004MPS CAVOK 25/13 Q1015 NOSIG
ZGHA,2018-09-30 13:00,ZGHA 301300Z 03002MPS CAVOK 23/15 Q1016 NOSIG
ZGHA,2018-09-30 14:00,ZGHA 301400Z 02002MPS CAVOK 22/14 Q1016 NOSIG
ZGHA,2018-09-30 15:00,ZGHA 301500Z 02002MPS 360V060 CAVOK 22/14 Q1016 NOSIG
ZGHA,2018-09-30 16:00,ZGHA 301600Z VRB01MPS CAVOK 21/14 Q1017 NOSIG
ZGHA,2018-09-30 17:00,ZGHA 301700Z 36003MPS CAVOK 21/13 Q1017 NOSIG
ZGHA,2018-09-30 18:00,ZGHA 301800Z 36003MPS CAVOK 21/14 Q1017 NOSIG
ZGHA,2018-09-30 19:00,ZGHA 301900Z 02002MPS CAVOK 20/15 Q1017 NOSIG
ZGHA,2018-09-30 20:00,ZGHA 302000Z VRB01MPS CAVOK 20/15 Q1017 NOSIG
ZGHA,2018-09-30 21:00,ZGHA 302100Z 34002MPS CAVOK 20/15 Q1017 NOSIG
ZGHA,2018-09-30 22:00,ZGHA 302200Z 36004MPS CAVOK 20/14 Q1018 NOSIG
ZGHA,2018-09-30 23:00,ZGHA 302300Z 05002MPS CAVOK 21/14 Q1019 NOSIG
ZGHA,2018-10-01 00:00,ZGHA 010000Z 36004MPS CAVOK 21/13 Q1020 NOSIG
ZGHA,2018-10-01 01:00,ZGHA 010100Z 01006MPS CAVOK 25/09 Q1021 NOSIG
ZGHA,2018-10-01 02:00,ZGHA 010200Z 02005MPS CAVOK 25/08 Q1021 NOSIG
ZGHA,2018-10-01 03:00,ZGHA 010300Z 36006MPS CAVOK 26/08 Q1021 NOSIG
ZGHA,2018-10-01 04:00,ZGHA 010400Z 36005MPS CAVOK 26/06 Q1020 NOSIG
ZGHA,2018-10-01 05:00,ZGHA 010500Z 01006MPS CAVOK 26/06 Q1019 NOSIG
ZGHA,2018-10-01 06:00,ZGHA 010600Z 35007MPS CAVOK 26/05 Q1019 NOSIG
ZGHA,2018-10-01 07:00,ZGHA 010700Z 35007MPS CAVOK 28/00 Q1019 NOSIG
ZGHA,2018-10-01 08:00,ZGHA 010800Z 36006MPS CAVOK 26/01 Q1019 NOSIG
ZGHA,2018-10-01 09:00,ZGHA 010900Z 36005MPS CAVOK 25/04 Q1019 NOSIG
ZGHA,2018-10-01 10:00,ZGHA 011000Z 36004MPS CAVOK 24/05 Q1019 NOSIG
ZGHA,2018-10-01 11:00,ZGHA 011100Z 33005MPS CAVOK 23/08 Q1019 NOSIG
ZGHA,2018-10-01 12:00,ZGHA 011200Z 33004MPS CAVOK 22/09 Q1019 NOSIG
ZGHA,2018-10-01 13:00,ZGHA 011300Z 05002MPS 010V080 CAVOK 21/11 Q1020 NOSIG
ZGHA,2018-10-01 14:00,ZGHA 011400Z 04002MPS 360V070 CAVOK 21/11 Q1020 NOSIG
ZGHA,2018-10-01 15:00,ZGHA 011500Z 03002MPS CAVOK 20/11 Q1020 NOSIG
ZGHA,2018-10-01 16:00,ZGHA 011600Z 36002MPS CAVOK 19/10 Q1020 NOSIG
ZGHA,2018-10-01 17:00,ZGHA 011700Z 29002MPS 220V360 CAVOK 18/11 Q1020 NOSIG
ZGHA,2018-10-01 18:00,ZGHA 011800Z VRB01MPS CAVOK 18/13 Q1020 NOSIG
ZGHA,2018-10-01 19:00,ZGHA 011900Z 04002MPS 360V080 CAVOK 18/11 Q1019 NOSIG
ZGHA,2018-10-01 20:00,ZGHA 012000Z VRB01MPS CAVOK 18/11 Q1019 NOSIG
ZGHA,2018-10-01 21:00,ZGHA 012100Z 03001MPS CAVOK 17/11 Q1020 NOSIG
ZGHA,2018-10-01 22:00,ZGHA 012200Z VRB01MPS CAVOK 17/11 Q1020 NOSIG
ZGHA,2018-10-01 23:00,ZGHA 012300Z 04002MPS 020V080 CAVOK 17/13 Q1020 NOSIG
ZGHA,2018-10-02 00:00,ZGHA 020000Z 03002MPS CAVOK 19/11 Q1021 NOSIG
ZGHA,2018-10-02 01:00,ZGHA 020100Z VRB01MPS CAVOK 21/11 Q1021 NOSIG
ZGHA,2018-10-02 02:00,ZGHA 020200Z 04002MPS 360V090 CAVOK 23/10 Q1021 NOSIG
ZGHA,2018-10-02 03:00,ZGHA 020300Z 01003MPS 340V050 CAVOK 26/07 Q1021 NOSIG
ZGHA,2018-10-02 04:00,ZGHA 020400Z 02003MPS 330V060 CAVOK 27/07 Q1020 NOSIG
ZGHA,2018-10-02 05:00,ZGHA 020500Z 36005MPS 330V030 CAVOK 28/05 Q1019 NOSIG
ZGHA,2018-10-02 06:00,ZGHA 020600Z VRB02MPS CAVOK 29/05 Q1018 NOSIG
ZGHA,2018-10-02 07:00,ZGHA 020700Z 36004MPS 330V030 CAVOK 28/04 Q1018 NOSIG
ZGHA,2018-10-02 08:00,ZGHA 020800Z 34006MPS CAVOK 27/04 Q1018 NOSIG
ZGHA,2018-10-02 09:00,ZGHA 020900Z 33007MPS CAVOK 26/06 Q1018 NOSIG
ZGHA,2018-10-02 10:00,ZGHA 021000Z 33005MPS CAVOK 24/07 Q1018 NOSIG
ZGHA,2018-10-02 11:00,ZGHA 021100Z 33004MPS CAVOK 24/08 Q1018 NOSIG
ZGHA,2018-10-02 12:00,ZGHA 021200Z 36004MPS CAVOK 22/09 Q1019 NOSIG
ZGHA,2018-10-02 13:00,ZGHA 021300Z 01003MPS CAVOK 22/09 Q1019 NOSIG
ZGHA,2018-10-02 14:00,ZGHA 021400Z 01004MPS CAVOK 21/10 Q1019 NOSIG
ZGHA,2018-10-02 15:00,ZGHA 021500Z 04001MPS CAVOK 20/11 Q1019 NOSIG
ZGHA,2018-10-02 16:00,ZGHA 021600Z 36004MPS CAVOK 19/11 Q1019 NOSIG
ZGHA,2018-10-02 17:00,ZGHA 021700Z 04002MPS CAVOK 19/12 Q1019 NOSIG
ZGHA,2018-10-02 18:00,ZGHA 021800Z 36003MPS CAVOK 18/11 Q1019 NOSIG
ZGHA,2018-10-02 19:00,ZGHA 021900Z 02003MPS CAVOK 18/12 Q1019 NOSIG
ZGHA,2018-10-02 20:00,ZGHA 022000Z 02001MPS CAVOK 17/12 Q1019 NOSIG
ZGHA,2018-10-02 21:00,ZGHA 022100Z 03002MPS CAVOK 17/12 Q1020 NOSIG
ZGHA,2018-10-02 22:00,ZGHA 022200Z 05002MPS CAVOK 17/12 Q1020 NOSIG
ZGHA,2018-10-02 23:00,ZGHA 022300Z 05002MPS CAVOK 17/11 Q1021 NOSIG
ZGHA,2018-10-03 00:00,ZGHA 030000Z 01002MPS 340V040 CAVOK 19/11 Q1022 NOSIG
ZGHA,2018-10-03 01:00,ZGHA 030100Z 05004MPS CAVOK 21/09 Q1022 NOSIG
ZGHA,2018-10-03 02:00,ZGHA 030200Z 01003MPS 340V050 CAVOK 24/10 Q1022 NOSIG
ZGHA,2018-10-03 03:00,ZGHA 030300Z 36003MPS 320V040 CAVOK 26/06 Q1021 NOSIG
ZGHA,2018-10-03 04:00,ZGHA 030400Z VRB02MPS CAVOK 27/07 Q1020 NOSIG
ZGHA,2018-10-03 05:00,ZGHA 030500Z VRB03MPS CAVOK 28/04 Q1019 NOSIG
ZGHA,2018-10-03 06:00,ZGHA 030600Z VRB03MPS CAVOK 28/04 Q1018 NOSIG
ZGHA,2018-10-03 07:00,ZGHA 030700Z 34003MPS 290V040 CAVOK 29/03 Q1018 NOSIG
ZGHA,2018-10-03 08:00,ZGHA 030800Z 01005MPS 340V040 CAVOK 28/04 Q1018 NOSIG
ZGHA,2018-10-03 09:00,ZGHA 030900Z 34005MPS CAVOK 28/04 Q1018 NOSIG
ZGHA,2018-10-03 10:00,ZGHA 031000Z 34006MPS CAVOK 25/07 Q1018 NOSIG
ZGHA,2018-10-03 11:00,ZGHA 031100Z 34005MPS CAVOK 24/07 Q1019 NOSIG
ZGHA,2018-10-03 12:00,ZGHA 031200Z 35004MPS CAVOK 23/06 Q1019 NOSIG
ZGHA,2018-10-03 13:00,ZGHA 031300Z 05002MPS 020V080 CAVOK 21/08 Q1020 NOSIG
ZGHA,2018-10-03 14:00,ZGHA 031400Z 02002MPS CAVOK 20/09 Q1020 NOSIG
ZGHA,2018-10-03 15:00,ZGHA 031500Z 02002MPS CAVOK 19/10 Q1020 NOSIG
ZGHA,2018-10-03 16:00,ZGHA 031600Z 03002MPS CAVOK 19/10 Q1020 NOSIG
ZGHA,2018-10-03 17:00,ZGHA 031700Z 04002MPS CAVOK 19/09 Q1020 NOSIG
ZGHA,2018-10-03 18:00,ZGHA 031800Z 36003MPS CAVOK 18/10 Q1020 NOSIG
ZGHA,2018-10-03 19:00,ZGHA 031900Z 36002MPS CAVOK 17/11 Q1019 NOSIG
ZGHA,2018-10-03 20:00,ZGHA 032000Z 04002MPS CAVOK 16/11 Q1019 NOSIG
ZGHA,2018-10-03 21:00,ZGHA 032100Z 01003MPS CAVOK 16/11 Q1020 NOSIG
ZGHA,2018-10-03 22:00,ZGHA 032200Z 02002MPS CAVOK 16/11 Q1020 NOSIG
ZGHA,2018-10-03 23:00,ZGHA 032300Z 02002MPS CAVOK 17/11 Q1020 NOSIG
ZGHA,2018-10-04 00:00,ZGHA 040000Z 04002MPS CAVOK 18/11 Q1021 NOSIG
ZGHA,2018-10-04 01:00,ZGHA 040100Z 02002MPS 350V050 CAVOK 21/11 Q1021 NOSIG
ZGHA,2018-10-04 02:00,ZGHA 040200Z 02002MPS 350V060 CAVOK 24/10 Q1021 NOSIG
ZGHA,2018-10-04 03:00,ZGHA 040300Z VRB02MPS CAVOK 25/10 Q1021 NOSIG
ZGHA,2018-10-04 04:00,ZGHA 040400Z 36003MPS 260V040 CAVOK 27/08 Q1020 NOSIG
ZGHA,2018-10-04 05:00,ZGHA 040500Z VRB04MPS CAVOK 29/07 Q1018 NOSIG
ZGHA,2018-10-04 06:00,ZGHA 040600Z 36006MPS CAVOK 29/05 Q1018 NOSIG
ZGHA,2018-10-04 07:00,ZGHA 040700Z 36007MPS 340V040 CAVOK 29/07 Q1017 NOSIG
ZGHA,2018-10-04 08:00,ZGHA 040800Z 34006MPS 310V010 CAVOK 28/08 Q1017 NOSIG
ZGHA,2018-10-04 09:00,ZGHA 040900Z 34007MPS CAVOK 27/08 Q1017 NOSIG
ZGHA,2018-10-04 10:00,ZGHA 041000Z 34006MPS CAVOK 25/08 Q1017 NOSIG
ZGHA,2018-10-04 11:00,ZGHA 041100Z 34005MPS CAVOK 24/09 Q1017 NOSIG
ZGHA,2018-10-04 12:00,ZGHA 041200Z 34005MPS CAVOK 23/09 Q1018 NOSIG
ZGHA,2018-10-04 13:00,ZGHA 041300Z 36005MPS CAVOK 22/10 Q1018 NOSIG
ZGHA,2018-10-04 14:00,ZGHA 041400Z 05001MPS CAVOK 20/11 Q1018 NOSIG
ZGHA,2018-10-04 15:00,ZGHA 041500Z 36004MPS CAVOK 19/09 Q1018 NOSIG
ZGHA,2018-10-04 16:00,ZGHA 041600Z 36003MPS CAVOK 18/10 Q1018 NOSIG
ZGHA,2018-10-04 17:00,ZGHA 041700Z 36003MPS CAVOK 18/10 Q1018 NOSIG
ZGHA,2018-10-04 18:00,ZGHA 041800Z 36003MPS CAVOK 17/10 Q1018 NOSIG
ZGHA,2018-10-04 19:00,ZGHA 041900Z 02002MPS CAVOK 17/10 Q1018 NOSIG
ZGHA,2018-10-04 20:00,ZGHA 042000Z 05002MPS CAVOK 16/11 Q1018 NOSIG
ZGHA,2018-10-04 21:00,ZGHA 042100Z 36001MPS CAVOK 15/11 Q1018 NOSIG
ZGHA,2018-10-04 22:00,ZGHA 042200Z 28001MPS CAVOK 15/11 Q1018 NOSIG
ZGHA,2018-10-04 23:00,ZGHA 042300Z 08001MPS CAVOK 15/12 Q1019 NOSIG
ZGHA,2018-10-05 00:00,ZGHA 050000Z 05001MPS CAVOK 18/11 Q1019 NOSIG
ZGHA,2018-10-05 01:00,ZGHA 050100Z VRB01MPS CAVOK 21/11 Q1020 NOSIG
ZGHA,2018-10-05 02:00,ZGHA 050200Z 01002MPS 330V080 CAVOK 24/11 Q1019 NOSIG
ZGHA,2018-10-05 03:00,ZGHA 050300Z 01003MPS 320V050 CAVOK 25/10 Q1019 NOSIG
ZGHA,2018-10-05 04:00,ZGHA 050400Z 02003MPS 350V060 CAVOK 26/07 Q1018 NOSIG
ZGHA,2018-10-05 05:00,ZGHA 050500Z 35006MPS 320V020 9999 FEW050 27/07 Q1017 NOSIG
ZGHA,2018-10-05 06:00,ZGHA 050600Z 01006MPS 340V040 9999 FEW050 28/07 Q1016 NOSIG
ZGHA,2018-10-05 07:00,ZGHA 050700Z 36006MPS 310V020 9999 FEW050 27/08 Q1015 NOSIG
ZGHA,2018-10-05 08:00,ZGHA 050800Z 34005MPS 9999 FEW050 27/09 Q1015 NOSIG
ZGHA,2018-10-05 09:00,ZGHA 050900Z 34005MPS CAVOK 26/09 Q1015 NOSIG
ZGHA,2018-10-05 10:00,ZGHA 051000Z 32006MPS CAVOK 24/10 Q1015 NOSIG
ZGHA,2018-10-05 11:00,ZGHA 051100Z 32004MPS CAVOK 23/10 Q1016 NOSIG
ZGHA,2018-10-05 12:00,ZGHA 051200Z 32005MPS CAVOK 22/09 Q1016 NOSIG
ZGHA,2018-10-05 13:00,ZGHA 051300Z 35004MPS CAVOK 21/08 Q1017 NOSIG
ZGHA,2018-10-05 14:00,ZGHA 051400Z 03002MPS CAVOK 19/11 Q1017 NOSIG
ZGHA,2018-10-05 15:00,ZGHA 051500Z 05002MPS CAVOK 19/11 Q1017 NOSIG
ZGHA,2018-10-05 16:00,ZGHA 051600Z 03002MPS 010V070 CAVOK 18/10 Q1017 NOSIG
ZGHA,2018-10-05 17:00,ZGHA 051700Z 02002MPS CAVOK 17/10 Q1017 NOSIG
ZGHA,2018-10-05 18:00,ZGHA 051800Z VRB01MPS CAVOK 17/11 Q1017 NOSIG
ZGHA,2018-10-05 19:00,ZGHA 051900Z 35003MPS 9000 NSC 16/11 Q1017 NOSIG
ZGHA,2018-10-05 20:00,ZGHA 052000Z VRB01MPS 8000 NSC 15/11 Q1017 NOSIG
ZGHA,2018-10-05 21:00,ZGHA 052100Z 05002MPS 7000 NSC 15/12 Q1017 NOSIG
ZGHA,2018-10-05 22:00,ZGHA 052200Z 36001MPS 7000 NSC 14/12 Q1018 NOSIG
ZGHA,2018-10-05 23:00,ZGHA 052300Z 02001MPS 6000 NSC 15/12 Q1018 NOSIG
ZGHA,2018-10-06 00:00,ZGHA 060000Z 05002MPS 8000 NSC 17/11 Q1019 NOSIG
ZGHA,2018-10-06 01:00,ZGHA 060100Z VRB01MPS CAVOK 20/11 Q1019 NOSIG
ZGHA,2018-10-06 02:00,ZGHA 060200Z 04002MPS 320V080 CAVOK 23/10 Q1019 NOSIG
ZGHA,2018-10-06 03:00,ZGHA 060300Z VRB01MPS CAVOK 25/09 Q1019 NOSIG
ZGHA,2018-10-06 04:00,ZGHA 060400Z VRB01MPS CAVOK 27/08 Q1018 NOSIG
ZGHA,2018-10-06 05:00,ZGHA 060500Z VRB02MPS CAVOK 27/04 Q1017 NOSIG
ZGHA,2018-10-06 06:00,ZGHA 060600Z 36002MPS 300V090 CAVOK 28/03 Q1016 NOSIG
ZGHA,2018-10-06 07:00,ZGHA 060700Z VRB01MPS CAVOK 28/05 Q1016 NOSIG
ZGHA,2018-10-06 08:00,ZGHA 060800Z 35003MPS 320V030 CAVOK 28/05 Q1015 NOSIG
ZGHA,2018-10-06 09:00,ZGHA 060900Z 01002MPS 320V060 CAVOK 27/06 Q1015 NOSIG
ZGHA,2018-10-06 10:00,ZGHA 061000Z 33003MPS CAVOK 26/06 Q1015 NOSIG
ZGHA,2018-10-06 11:00,ZGHA 061100Z 31004MPS CAVOK 24/10 Q1016 NOSIG
ZGHA,2018-10-06 12:00,ZGHA 061200Z 34004MPS CAVOK 23/10 Q1017 NOSIG
ZGHA,2018-10-06 13:00,ZGHA 061300Z VRB01MPS CAVOK 22/11 Q1017 NOSIG
ZGHA,2018-10-06 14:00,ZGHA 061400Z 07001MPS 8000 NSC 20/12 Q1018 NOSIG
ZGHA,2018-10-06 15:00,ZGHA 061500Z 00000MPS 7000 NSC 19/13 Q1018 NOSIG
ZGHA,2018-10-06 16:00,ZGHA 061600Z 10002MPS 6000 NSC 18/13 Q1018 NOSIG
ZGHA,2018-10-06 17:00,ZGHA 061700Z VRB01MPS 5000 BR NSC 17/14 Q1018 NOSIG
ZGHA,2018-10-06 18:00,ZGHA 061800Z 01002MPS 5000 BR NSC 17/13 Q1018 NOSIG
ZGHA,2018-10-06 19:00,ZGHA 061900Z 05001MPS 6000 NSC 17/13 Q1018 NOSIG
ZGHA,2018-10-06 20:00,ZGHA 062000Z 04001MPS 6000 NSC 16/12 Q1017 NOSIG
ZGHA,2018-10-06 21:00,ZGHA 062100Z 07001MPS 6000 NSC 16/13 Q1018 NOSIG
ZGHA,2018-10-06 22:00,ZGHA 062200Z VRB01MPS 5000 BR NSC 16/13 Q1018 NOSIG
ZGHA,2018-10-06 23:00,ZGHA 062300Z 19001MPS 4200 BR NSC 15/13 Q1019 NOSIG
ZGHA,2018-10-07 00:00,ZGHA 070000Z VRB01MPS 7000 NSC 18/13 Q1019 NOSIG
ZGHA,2018-10-07 01:00,ZGHA 070100Z VRB01MPS 7000 NSC 20/12 Q1019 NOSIG
ZGHA,2018-10-07 02:00,ZGHA 070200Z 36002MPS 320V040 9000 NSC 23/11 Q1019 NOSIG
ZGHA,2018-10-07 03:00,ZGHA 070300Z VRB01MPS CAVOK 26/09 Q1019 NOSIG
ZGHA,2018-10-07 04:00,ZGHA 070400Z 18002MPS 110V260 CAVOK 27/08 Q1018 NOSIG
ZGHA,2018-10-07 05:00,ZGHA 070500Z VRB01MPS CAVOK 28/07 Q1017 NOSIG
ZGHA,2018-10-07 06:00,ZGHA 070600Z 04002MPS 360V120 CAVOK 29/06 Q1016 NOSIG
ZGHA,2018-10-07 07:00,ZGHA 070700Z 36003MPS 300V100 CAVOK 29/07 Q1015 NOSIG
ZGHA,2018-10-07 08:00,ZGHA 070800Z 01003MPS 310V080 CAVOK 29/08 Q1015 NOSIG
ZGHA,2018-10-07 09:00,ZGHA 070900Z 36003MPS CAVOK 28/07 Q1015 NOSIG
ZGHA,2018-10-07 10:00,ZGHA 071000Z 34004MPS CAVOK 27/08 Q1015 NOSIG
ZGHA,2018-10-07 11:00,ZGHA 071100Z 33005MPS CAVOK 26/10 Q1015 NOSIG
ZGHA,2018-10-07 12:00,ZGHA 071200Z 34005MPS CAVOK 25/11 Q1016 NOSIG
ZGHA,2018-10-07 13:00,ZGHA 071300Z 07002MPS 9000 NSC 23/13 Q1017 NOSIG
ZGHA,2018-10-07 14:00,ZGHA 071400Z 04002MPS 9000 NSC 22/12 Q1017 NOSIG
ZGHA,2018-10-07 15:00,ZGHA 071500Z 04001MPS 8000 NSC 22/13 Q1017 NOSIG
ZGHA,2018-10-07 16:00,ZGHA 071600Z 02001MPS 8000 NSC 22/12 Q1017 NOSIG
ZGHA,2018-10-07 17:00,ZGHA 071700Z VRB01MPS 8000 NSC 22/13 Q1017 NOSIG
ZGHA,2018-10-07 18:00,ZGHA 071800Z 34002MPS 290V030 7000 NSC 21/13 Q1016 NOSIG
ZGHA,2018-10-07 19:00,ZGHA 071900Z 01002MPS 7000 NSC 21/13 Q1016 NOSIG
ZGHA,2018-10-07 20:00,ZGHA 072000Z 01003MPS 7000 NSC 21/13 Q1016 NOSIG
ZGHA,2018-10-07 21:00,ZGHA 072100Z 35002MPS 7000 NSC 21/13 Q1016 NOSIG
ZGHA,2018-10-07 22:00,ZGHA 072200Z 36002MPS 7000 NSC 20/13 Q1016 NOSIG
ZGHA,2018-10-07 23:00,ZGHA 072300Z 36001MPS 7000 NSC 20/13 Q1017 NOSIG
ZGHA,2018-10-08 00:00,ZGHA 080000Z 04002MPS 7000 NSC 21/13 Q1017 NOSIG
ZGHA,2018-10-08 01:00,ZGHA 080100Z 05002MPS 7000 NSC 22/13 Q1017 NOSIG
ZGHA,2018-10-08 02:00,ZGHA 080200Z 02002MPS 360V060 7000 NSC 23/12 Q1018 NOSIG
ZGHA,2018-10-08 03:00,ZGHA 080300Z 34003MPS 300V360 7000 NSC 25/11 Q1018 NOSIG
ZGHA,2018-10-08 04:00,ZGHA 080400Z 36003MPS 320V020 6000 NSC 25/14 Q1017 NOSIG
ZGHA,2018-10-08 05:00,ZGHA 080500Z 31004MPS 5000 HZ NSC 25/15 Q1016 NOSIG
ZGHA,2018-10-08 06:00,ZGHA 080600Z 33006MPS 4000 HZ SCT030 23/15 Q1015 NOSIG
ZGHA,2018-10-08 07:00,ZGHA 080700Z 01006MPS 4000 HZ SCT030 22/14 Q1015 NOSIG
ZGHA,2018-10-08 08:00,ZGHA 080800Z 36006MPS 6000 SCT030 22/13 Q1015 NOSIG
ZGHA,2018-10-08 09:00,ZGHA 080900Z 02005MPS 6000 NSC 21/14 Q1015 NOSIG
ZGHA,2018-10-08 10:00,ZGHA 081000Z 36006MPS 4700 HZ NSC 20/14 Q1016 NOSIG
ZGHA,2018-10-08 11:00,ZGHA 081100Z 36006MPS 4700 BR NSC 20/15 Q1016 NOSIG
ZGHA,2018-10-08 12:00,ZGHA 081200Z 34007MPS 4500 -RA BR NSC 19/15 Q1017 NOSIG
ZGHA,2018-10-08 13:00,ZGHA 081300Z 36006MPS 4500 -RA BR NSC 19/15 Q1017 NOSIG
ZGHA,2018-10-08 14:00,ZGHA 081400Z 02006MPS 4500 -RA BR SCT040 18/15 Q1018 NOSIG
ZGHA,2018-10-08 15:00,ZGHA 081500Z 01005MPS 5000 -RA BR SCT050 18/15 Q1017 NOSIG
ZGHA,2018-10-08 16:00,ZGHA 081600Z 36005MPS 5000 -RA BR SCT040 18/16 Q1017 NOSIG
ZGHA,2018-10-08 17:00,ZGHA 081700Z 36004MPS 4500 -RA BR SCT040 17/16 Q1017 NOSIG
ZGHA,2018-10-08 18:00,ZGHA 081800Z 36004MPS 4500 -RA BR SCT040 17/16 Q1017 NOSIG
ZGHA,2018-10-08 19:00,ZGHA 081900Z 36004MPS 4500 -RA BR SCT040 17/16 Q1017 NOSIG
ZGHA,2018-10-08 20:00,ZGHA 082000Z 02003MPS 3800 -RA BR SCT040 17/16 Q1016 NOSIG
ZGHA,2018-10-08 21:00,ZGHA 082100Z 01002MPS 3000 -RA BR BKN005 17/16 Q1016 NOSIG
ZGHA,2018-10-08 22:00,ZGHA 082200Z 34002MPS 3000 BR SCT006 17/16 Q1017 BECMG TL2300 2800
ZGHA,2018-10-08 23:00,ZGHA 082300Z 34004MPS 2800 BR NSC 17/16 Q1017 BECMG TL2400 3200
ZGHA,2018-10-09 00:00,ZGHA 090000Z 01004MPS 2800 BR NSC 18/16 Q1018 BECMG TL0120 3200
ZGHA,2018-10-09 01:00,ZGHA 090100Z 34005MPS 1500 BR SCT007 18/16 Q1019 BECMG TL0200 BKN007 OVC050
ZGHA,2018-10-09 02:00,ZGHA 090200Z 34005MPS 1500 -RA BR BKN007 18/16 Q1019 BECMG TL0300 SCT007 OVC050
ZGHA,2018-10-09 03:00,ZGHA 090300Z 36004MPS 1200 R36L/1000V1200N R36R/1800D -RA BR FEW004 BKN007 OVC040 18/17 Q1019 BECMG TL0400 1600 SCT007 OVC050
ZGHA,2018-10-09 04:00,ZGHA 090400Z 01005MPS 2500 R36L/1100V1300U R36R/P2000 -RA BR BKN010 OVC040 18/17 Q1018 BECMG TL0500 3200 BKN009 OVC050
ZGHA,2018-10-09 05:00,ZGHA 090500Z 34005MPS 1800 R36L/1200V1400N R36R/P2000 -RA BR BKN009 OVC040 18/17 Q1019 BECMG TL0600 BKN010 OVC050
ZGHA,2018-10-09 06:00,ZGHA 090600Z 01003MPS 1800 R36L/1100V1300N R36R/P2000 -RA BR FEW006 BKN012 OVC040 18/17 Q1018 BECMG TL0700 BKN015 OVC050
ZGHA,2018-10-09 07:00,ZGHA 090700Z 36004MPS 2000 R36L/1200V1400N R36R/P2000 -RA BR SCT005 BKN012 OVC040 18/17 Q1017 BECMG TL0840 3000 BKN015 OVC050
ZGHA,2018-10-09 08:00,ZGHA 090800Z 35003MPS 2000 R36L/1300V1400D R36R/P2000 -RA BR SCT004 BKN010 OVC040 18/17 Q1018 NOSIG
ZGHA,2018-10-09 09:00,ZGHA 090900Z 36003MPS 2200 -RA BR SCT005 BKN010 OVC040 18/17 Q1018 BECMG TL1050 3000 BKN015 OVC050
ZGHA,2018-10-09 10:00,ZGHA 091000Z 34004MPS 2400 -RA BR SCT005 BKN010 OVC040 18/17 Q1018 BECMG TL1150 3000 BKN015 OVC050
ZGHA,2018-10-09 11:00,ZGHA 091100Z 35004MPS 3200 BR FEW015 OVC050 18/17 Q1019 NOSIG
ZGHA,2018-10-09 12:00,ZGHA 091200Z 34004MPS 3200 BR FEW008 18/16 Q1020 NOSIG
ZGHA,2018-10-09 13:00,ZGHA 091300Z 01003MPS 3200 BR SCT009 18/16 Q1020 BECMG TL1400 2800 BKN009 OVC050
ZGHA,2018-10-09 14:00,ZGHA 091400Z 36004MPS 2600 BR BKN008 18/16 Q1021 BECMG TL1550 3000 BKN010 OVC050
ZGHA,2018-10-09 15:00,ZGHA 091500Z 01002MPS 350V060 2600 BR FEW007 BKN014 17/16 Q1021 BECMG TL1600 3000 BKN015 OVC050
ZGHA,2018-10-09 16:00,ZGHA 091600Z 36003MPS 3000 BR FEW007 BKN026 OVC050 17/16 Q1021 BECMG TL1700 2800
ZGHA,2018-10-09 17:00,ZGHA 091700Z 01003MPS 2500 BR BKN026 OVC050 17/16 Q1020 NOSIG
ZGHA,2018-10-09 18:00,ZGHA 091800Z VRB01MPS 2500 BR BKN020 OVC050 17/16 Q1021 NOSIG
ZGHA,2018-10-09 19:00,ZGHA 091900Z VRB01MPS 2500 R36L/1400D R36R/1900N BR FEW006 BKN016 OVC050 17/17 Q1020 NOSIG
ZGHA,2018-10-09 20:00,ZGHA 092000Z 04002MPS 2200 R36L/1300V1400D R36R/P2000 BR FEW005 BKN015 OVC050 17/16 Q1020 NOSIG
ZGHA,2018-10-09 21:00,ZGHA 092100Z 05002MPS 2000 R36L/1300V1400N R36R/P2000 BR FEW003 BKN015 OVC050 17/16 Q1020 NOSIG
ZGHA,2018-10-09 22:00,ZGHA 092200Z 01001MPS 2000 BR FEW003 BKN010 17/16 Q1021 BECMG TL2340 SCT010 OVC050
ZGHA,2018-10-09 23:00,ZGHA 092300Z 03002MPS 1600 R36L/1100V1200D R36R/1700N BR FEW003 BKN009 OVC050 17/17 Q1021 BECMG TL2400 1400 BKN010 OVC050
ZGHA,2018-10-10 00:00,ZGHA 100000Z 02003MPS 1600 R36L/1000N R36R/1500N BR FEW004 BKN010 OVC050 18/17 Q1022 BECMG TL0100 1400 BKN009 OVC050
ZGHA,2018-10-10 01:00,ZGHA 100100Z 03002MPS 1300 R36L/1100V1200N R36R/1900N BR FEW004 BKN010 OVC030 18/17 Q1023 BECMG TL0200 1800 BKN016 OVC050
ZGHA,2018-10-10 02:00,ZGHA 100200Z 36002MPS 320V020 2000 R36L/1200V1300N R36R/P2000 BR FEW008 BKN020 OVC050 18/16 Q1023 BECMG TL0350 3500
ZGHA,2018-10-10 03:00,ZGHA 100300Z 01002MPS 340V050 2500 R36L/1200V1300U R36R/P2000 BR FEW012 BKN020 OVC050 19/16 Q1023 BECMG TL0350 3500
ZGHA,2018-10-10 04:00,ZGHA 100400Z 01002MPS 3000 R36L/1300V1400U R36R/P2000 BR FEW012 BKN020 20/15 Q1022 NOSIG
ZGHA,2018-10-10 05:00,ZGHA 100500Z 36002MPS 320V030 3500 R36L/1400D R36R/P2000 BR BKN020 20/16 Q1022 NOSIG
ZGHA,2018-10-10 06:00,ZGHA 100600Z 01002MPS 330V050 4000 HZ BKN020 21/14 Q1021 NOSIG
ZGHA,2018-10-10 07:00,ZGHA 100700Z 04002MPS 340V070 4500 HZ BKN030 21/14 Q1021 NOSIG
ZGHA,2018-10-10 08:00,ZGHA 100800Z 34003MPS 5000 HZ BKN026 22/14 Q1020 NOSIG
ZGHA,2018-10-10 09:00,ZGHA 100900Z VRB01MPS 5000 HZ SCT026 21/14 Q1021 NOSIG
ZGHA,2018-10-10 10:00,ZGHA 101000Z VRB01MPS 5000 HZ SCT026 20/15 Q1021 NOSIG
ZGHA,2018-10-10 11:00,ZGHA 101100Z 13002MPS 100V170 6000 SCT026 20/15 Q1021 NOSIG
ZGHA,2018-10-10 12:00,ZGHA 101200Z 18002MPS 5000 BR SCT030 19/15 Q1021 NOSIG
ZGHA,2018-10-10 13:00,ZGHA 101300Z 17002MPS 4000 BR SCT040 18/15 Q1022 NOSIG
ZGHA,2018-10-10 14:00,ZGHA 101400Z 20002MPS 4000 BR SCT040 18/15 Q1022 NOSIG
ZGHA,2018-10-10 15:00,ZGHA 101500Z 16002MPS 120V220 3500 BR FEW050 17/16 Q1023 BECMG TL1640 2700
ZGHA,2018-10-10 16:00,ZGHA 101600Z VRB01MPS 3200 BR SCT050 17/16 Q1023 BECMG TL1700 2700
ZGHA,2018-10-10 17:00,ZGHA 101700Z VRB01MPS 2800 BR SCT040 16/15 Q1023 NOSIG
ZGHA,2018-10-10 18:00,ZGHA 101800Z 03001MPS 3500 BR SCT040 16/15 Q1023 NOSIG
ZGHA,2018-10-10 19:00,ZGHA 101900Z 08001MPS 4000 BR SCT040 15/15 Q1023 BECMG TL2040 2500
ZGHA,2018-10-10 20:00,ZGHA 102000Z 00000MPS 4500 BR NSC 15/14 Q1022 NOSIG
ZGHA,2018-10-10 21:00,ZGHA 102100Z 07002MPS 4500 BR NSC 14/13 Q1023 BECMG TL2200 2500
ZGHA,2018-10-10 22:00,ZGHA 102200Z 04003MPS 6000 NSC 14/12 Q1024 NOSIG
ZGHA,2018-10-10 23:00,ZGHA 102300Z 06003MPS 5000 BR NSC 14/11 Q1024 NOSIG
ZGHA,2018-10-11 00:00,ZGHA 110000Z 07003MPS 7000 NSC 15/11 Q1025 NOSIG
ZGHA,2018-10-11 01:00,ZGHA 110100Z 06003MPS 020V090 8000 NSC 16/10 Q1025 NOSIG
ZGHA,2018-10-11 02:00,ZGHA 110200Z VRB01MPS 8000 NSC 19/11 Q1026 NOSIG
ZGHA,2018-10-11 03:00,ZGHA 110300Z VRB01MPS CAVOK 22/09 Q1025 NOSIG
ZGHA,2018-10-11 04:00,ZGHA 110400Z VRB02MPS 9999 SCT050 23/07 Q1025 NOSIG
ZGHA,2018-10-11 05:00,ZGHA 110500Z 04003MPS 350V070 9999 SCT050 23/05 Q1024 NOSIG
ZGHA,2018-10-11 06:00,ZGHA 110600Z 02003MPS 350V060 9999 FEW050 24/04 Q1023 NOSIG
ZGHA,2018-10-11 07:00,ZGHA 110700Z 36002MPS 320V030 CAVOK 24/04 Q1022 NOSIG
ZGHA,2018-10-11 08:00,ZGHA 110800Z 36002MPS 310V050 CAVOK 24/01 Q1022 NOSIG
ZGHA,2018-10-11 09:00,ZGHA 110900Z 03004MPS CAVOK 24/00 Q1022 NOSIG
ZGHA,2018-10-11 10:00,ZGHA 111000Z 07002MPS CAVOK 22/03 Q1021 NOSIG
ZGHA,2018-10-11 11:00,ZGHA 111100Z 01001MPS CAVOK 20/08 Q1022 NOSIG
ZGHA,2018-10-11 12:00,ZGHA 111200Z 33004MPS CAVOK 19/07 Q1023 NOSIG
ZGHA,2018-10-11 13:00,ZGHA 111300Z 06002MPS 010V120 CAVOK 17/09 Q1023 NOSIG
ZGHA,2018-10-11 14:00,ZGHA 111400Z 06001MPS CAVOK 16/10 Q1024 NOSIG
ZGHA,2018-10-11 15:00,ZGHA 111500Z VRB01MPS CAVOK 15/10 Q1024 NOSIG
ZGHA,2018-10-11 16:00,ZGHA 111600Z VRB01MPS CAVOK 14/09 Q1024 NOSIG
ZGHA,2018-10-11 17:00,ZGHA 111700Z VRB01MPS CAVOK 13/09 Q1024 NOSIG
ZGHA,2018-10-11 18:00,ZGHA 111800Z VRB01MPS CAVOK 13/08 Q1024 NOSIG
ZGHA,2018-10-11 19:00,ZGHA 111900Z VRB01MPS CAVOK 12/08 Q1024 NOSIG
ZGHA,2018-10-11 20:00,ZGHA 112000Z VRB01MPS CAVOK 12/08 Q1024 NOSIG
ZGHA,2018-10-11 21:00,ZGHA 112100Z 00000MPS CAVOK 12/09 Q1024 NOSIG
ZGHA,2018-10-11 22:00,ZGHA 112200Z VRB01MPS CAVOK 11/08 Q1024 NOSIG
ZGHA,2018-10-11 23:00,ZGHA 112300Z VRB01MPS CAVOK 12/07 Q1024 NOSIG
ZGHA,2018-10-12 00:00,ZGHA 120000Z 05003MPS CAVOK 14/07 Q1025 NOSIG
ZGHA,2018-10-12 01:00,ZGHA 120100Z 05003MPS CAVOK 17/07 Q1025 NOSIG
ZGHA,2018-10-12 02:00,ZGHA 120200Z 05002MPS 020V100 CAVOK 20/06 Q1025 NOSIG
ZGHA,2018-10-12 03:00,ZGHA 120300Z VRB02MPS CAVOK 22/06 Q1024 NOSIG
ZGHA,2018-10-12 04:00,ZGHA 120400Z 11003MPS 060V150 CAVOK 23/04 Q1023 NOSIG
ZGHA,2018-10-12 05:00,ZGHA 120500Z VRB02MPS CAVOK 24/04 Q1022 NOSIG
ZGHA,2018-10-12 06:00,ZGHA 120600Z 04003MPS 350V090 CAVOK 24/04 Q1021 NOSIG
ZGHA,2018-10-12 07:00,ZGHA 120700Z 01003MPS 340V040 CAVOK 25/05 Q1021 NOSIG
ZGHA,2018-10-12 08:00,ZGHA 120800Z 06004MPS 020V090 CAVOK 24/04 Q1020 NOSIG
ZGHA,2018-10-12 09:00,ZGHA 120900Z 05003MPS CAVOK 24/04 Q1020 NOSIG
ZGHA,2018-10-12 10:00,ZGHA 121000Z 01003MPS CAVOK 22/05 Q1020 NOSIG
ZGHA,2018-10-12 11:00,ZGHA 121100Z 15002MPS CAVOK 20/09 Q1020 NOSIG
ZGHA,2018-10-12 12:00,ZGHA 121200Z 01004MPS CAVOK 19/09 Q1021 NOSIG
ZGHA,2018-10-12 13:00,ZGHA 121300Z 03002MPS CAVOK 19/08 Q1022 NOSIG
ZGHA,2018-10-12 14:00,ZGHA 121400Z 02002MPS CAVOK 18/08 Q1022 NOSIG
ZGHA,2018-10-12 15:00,ZGHA 121500Z VRB01MPS CAVOK 17/10 Q1022 NOSIG
ZGHA,2018-10-12 16:00,ZGHA 121600Z VRB01MPS CAVOK 17/10 Q1022 NOSIG
ZGHA,2018-10-12 17:00,ZGHA 121700Z 03002MPS CAVOK 16/10 Q1021 NOSIG
ZGHA,2018-10-12 18:00,ZGHA 121800Z 05002MPS CAVOK 16/10 Q1021 NOSIG
ZGHA,2018-10-12 19:00,ZGHA 121900Z 06003MPS CAVOK 16/09 Q1020 NOSIG
ZGHA,2018-10-12 20:00,ZGHA 122000Z 05004MPS CAVOK 15/08 Q1020 NOSIG
ZGHA,2018-10-12 21:00,ZGHA 122100Z 04003MPS CAVOK 15/08 Q1021 NOSIG
ZGHA,2018-10-12 22:00,ZGHA 122200Z 05002MPS CAVOK 15/08 Q1021 NOSIG
ZGHA,2018-10-12 23:00,ZGHA 122300Z 05003MPS CAVOK 15/07 Q1021 NOSIG
ZGHA,2018-10-13 00:00,ZGHA 130000Z 04002MPS CAVOK 15/07 Q1021 NOSIG
ZGHA,2018-10-13 01:00,ZGHA 130100Z 04003MPS CAVOK 16/08 Q1022 NOSIG
ZGHA,2018-10-13 02:00,ZGHA 130200Z 07001MPS CAVOK 17/08 Q1022 NOSIG
ZGHA,2018-10-13 03:00,ZGHA 130300Z VRB01MPS 9999 -RA NSC 18/08 Q1022 NOSIG
ZGHA,2018-10-13 04:00,ZGHA 130400Z 33002MPS 280V010 9999 -RA FEW050 19/10 Q1022 NOSIG
ZGHA,2018-10-13 05:00,ZGHA 130500Z 02002MPS 9999 -RA FEW050 17/10 Q1021 NOSIG
ZGHA,2018-10-13 06:00,ZGHA 130600Z 03003MPS 010V070 9999 -RA SCT050 17/12 Q1020 NOSIG
ZGHA,2018-10-13 07:00,ZGHA 130700Z 06002MPS 9999 -RA FEW033 18/12 Q1019 NOSIG
ZGHA,2018-10-13 08:00,ZGHA 130800Z VRB01MPS 9999 -RA NSC 18/12 Q1019 NOSIG
ZGHA,2018-10-13 09:00,ZGHA 130900Z 36003MPS 6000 -RA FEW050 17/14 Q1020 NOSIG
ZGHA,2018-10-13 10:00,ZGHA 131000Z 35004MPS 9999 -RA SCT050 15/11 Q1020 NOSIG
ZGHA,2018-10-13 11:00,ZGHA 131100Z 02004MPS 9999 -RA NSC 15/12 Q1020 NOSIG
ZGHA,2018-10-13 12:00,ZGHA 131200Z 36004MPS 6000 -RA FEW050 15/13 Q1020 NOSIG
ZGHA,2018-10-13 13:00,ZGHA 131300Z 03002MPS 350V060 5000 -RA BR FEW004 OVC050 15/13 Q1020 NOSIG
ZGHA,2018-10-13 14:00,ZGHA 131400Z 01003MPS 3300 -RA BR SCT004 OVC050 14/14 Q1020 NOSIG
ZGHA,2018-10-13 15:00,ZGHA 131500Z 01004MPS 2400 -SHRA BR SCT003 BKN013 OVC050 14/14 Q1020 BECMG TL1600 BKN009 OVC050
ZGHA,2018-10-13 16:00,ZGHA 131600Z 02003MPS 2300 -SHRA BR BKN003 OVC050 15/14 Q1019 BECMG TL1750 BKN005 OVC050
ZGHA,2018-10-13 17:00,ZGHA 131700Z 36004MPS 2700 -SHRA BR BKN004 OVC050 14/14 Q1019 BECMG TL1800 3500 BKN005 OVC050
ZGHA,2018-10-13 18:00,ZGHA 131800Z 01005MPS 2500 -RA BR BKN004 OVC050 14/14 Q1018 NOSIG
ZGHA,2018-10-13 19:00,ZGHA 131900Z 36004MPS 2000 -RA BR BKN004 OVC033 14/13 Q1018 NOSIG
ZGHA,2018-10-13 20:00,ZGHA 132000Z 36005MPS 2500 -RA BR BKN005 OVC033 14/13 Q1017 NOSIG
ZGHA,2018-10-13 21:00,ZGHA 132100Z 36004MPS 2800 -SHRA BR BKN005 OVC033 14/13 Q1018 NOSIG
ZGHA,2018-10-13 22:00,ZGHA 132200Z 36003MPS 3500 SHRA BR BKN005 OVC033 14/13 Q1018 BECMG TL2340 -RA
ZGHA,2018-10-13 23:00,ZGHA 132300Z 36004MPS 3000 -SHRA BR BKN005 OVC033 14/13 Q1018 RESHRA NOSIG
ZGHA,2018-10-14 00:00,ZGHA 140000Z 34004MPS 3000 -RA BR BKN006 OVC033 14/14 Q1019 NOSIG
ZGHA,2018-10-14 01:00,ZGHA 140100Z 33004MPS 2800 -RA BR BKN006 OVC033 14/14 Q1019 BECMG TL0200 3200
ZGHA,2018-10-14 02:00,ZGHA 140200Z 34004MPS 4500 -RA BR BKN008 OVC040 15/14 Q1020 BECMG TL0350 BKN010 OVC040
ZGHA,2018-10-14 03:00,ZGHA 140300Z 35004MPS 7000 SCT006 BKN013 OVC040 15/14 Q1020 BECMG TL0400 BKN015 OVC040
ZGHA,2018-10-14 04:00,ZGHA 140400Z 36004MPS 8000 SCT006 BKN015 OVC040 15/14 Q1019 NOSIG
ZGHA,2018-10-14 05:00,ZGHA 140500Z 36003MPS 5000 -DZ BR BKN008 OVC040 15/14 Q1019 BECMG TL0600 BKN010 OVC040
ZGHA,2018-10-14 06:00,ZGHA 140600Z 35003MPS 3000 -DZ BR SCT005 BKN010 OVC040 16/15 Q1018 BECMG TL0700 BKN015 OVC040
ZGHA,2018-10-14 07:00,ZGHA 140700Z 34003MPS 300V010 4000 -DZ BR SCT005 BKN010 OVC040 16/15 Q1018 BECMG TL0800 BKN015 OVC040
ZGHA,2018-10-14 08:00,ZGHA 140800Z 33004MPS 4000 -DZ BR SCT004 BKN010 OVC040 15/15 Q1018 BECMG TL0900 BKN015 OVC040
ZGHA,2018-10-14 09:00,ZGHA 140900Z 36004MPS 5000 -DZ BR SCT005 BKN012 OVC040 15/14 Q1018 BECMG TL1000 BKN015 OVC050
ZGHA,2018-10-14 10:00,ZGHA 141000Z 31002MPS 5000 -DZ BR SCT005 BKN010 OVC040 15/14 Q1018 NOSIG
ZGHA,2018-10-14 11:00,ZGHA 141100Z 33003MPS 300V360 7000 FEW006 BKN010 OVC040 15/14 Q1019 NOSIG
ZGHA,2018-10-14 12:00,ZGHA 141200Z 33004MPS 7000 FEW006 BKN012 OVC040 15/14 Q1020 NOSIG
ZGHA,2018-10-14 13:00,ZGHA 141300Z 35005MPS 5000 BR BKN007 OVC040 15/14 Q1020 NOSIG
ZGHA,2018-10-14 14:00,ZGHA 141400Z 34003MPS 310V010 5000 BR BKN007 OVC040 15/14 Q1020 BECMG TL1500 BKN011 OVC050
ZGHA,2018-10-14 15:00,ZGHA 141500Z 34003MPS 5000 BR SCT007 BKN014 OVC040 15/14 Q1020 BECMG TL1600 BKN016 OVC050
ZGHA,2018-10-14 16:00,ZGHA 141600Z 35004MPS 4800 BR BKN008 OVC040 15/14 Q1020 BECMG TL1700 BKN011 OVC050
ZGHA,2018-10-14 17:00,ZGHA 141700Z 36005MPS 4200 BR BKN012 OVC040 15/14 Q1020 NOSIG
ZGHA,2018-10-14 18:00,ZGHA 141800Z 36004MPS 4200 BR BKN010 OVC040 15/14 Q1020 NOSIG
ZGHA,2018-10-14 19:00,ZGHA 141900Z 36005MPS 5000 BR FEW005 BKN010 OVC040 15/14 Q1019 NOSIG
ZGHA,2018-10-14 20:00,ZGHA 142000Z 36004MPS 5000 BR FEW005 BKN010 OVC040 15/14 Q1019 NOSIG
ZGHA,2018-10-14 21:00,ZGHA 142100Z 36003MPS 5000 BR SCT006 BKN010 OVC040 15/14 Q1018 NOSIG
ZGHA,2018-10-14 22:00,ZGHA 142200Z 35003MPS 4500 BR BKN010 OVC040 15/14 Q1019 BECMG TL2300 BKN008 OVC050
ZGHA,2018-10-14 23:00,ZGHA 142300Z 35004MPS 4000 BR BKN010 OVC033 15/14 Q1019 BECMG TL2350 BKN008 OVC050
ZGHA,2018-10-15 00:00,ZGHA 150000Z 34004MPS 2500 -RA BR BKN009 OVC033 15/14 Q1020 BECMG TL0100 SHRA BKN008 FEW040CB OVC050
ZGHA,2018-10-15 01:00,ZGHA 150100Z 35003MPS 2000 -SHRA BR FEW005 BKN008 OVC033 15/15 Q1021 NOSIG
ZGHA,2018-10-15 02:00,ZGHA 150200Z 02003MPS 2000 -SHRA BR FEW005 BKN008 OVC040 15/15 Q1020 BECMG TL0340 3000 FEW005 BKN011 OVC040
ZGHA,2018-10-15 03:00,ZGHA 150300Z 32003MPS 290V360 3000 -RA BR BKN008 OVC040 16/15 Q1020 BECMG TL0400 BKN011 OVC040
ZGHA,2018-10-15 04:00,ZGHA 150400Z 32004MPS 3500 -RA BR BKN008 OVC040 15/15 Q1020 BECMG TL0500 BKN011 OVC040
ZGHA,2018-10-15 05:00,ZGHA 150500Z 34004MPS 4000 -RA BR BKN011 OVC040 16/14 Q1019 BECMG TL0600 BKN009 OVC040
ZGHA,2018-10-15 06:00,ZGHA 150600Z 36004MPS 5000 BR BKN011 OVC040 16/14 Q1018 NOSIG
ZGHA,2018-10-15 07:00,ZGHA 150700Z 33003MPS 8000 BKN012 OVC040 17/14 Q1018 BECMG TL0840 BKN016 OVC040
ZGHA,2018-10-15 08:00,ZGHA 150800Z 31002MPS 8000 SCT012 BKN020 17/14 Q1018 NOSIG
ZGHA,2018-10-15 09:00,ZGHA 150900Z 35002MPS 320V020 7000 SCT012 BKN020 17/14 Q1018 NOSIG
ZGHA,2018-10-15 10:00,ZGHA 151000Z 04002MPS 6000 FEW012 BKN030 16/14 Q1018 NOSIG
ZGHA,2018-10-15 11:00,ZGHA 151100Z VRB01MPS 7000 FEW012 OVC040 17/14 Q1019 NOSIG
ZGHA,2018-10-15 12:00,ZGHA 151200Z 00000MPS 7000 FEW012 BKN030 OVC050 16/15 Q1019 NOSIG
ZGHA,2018-10-15 13:00,ZGHA 151300Z 08002MPS 5000 BR FEW012 16/15 Q1020 NOSIG
ZGHA,2018-10-15 14:00,ZGHA 151400Z 32003MPS 5000 BR SCT020 16/15 Q1020 NOSIG
ZGHA,2018-10-15 15:00,ZGHA 151500Z 32002MPS 5000 BR BKN033 16/14 Q1020 NOSIG
ZGHA,2018-10-15 16:00,ZGHA 151600Z 32002MPS 5000 BR SCT020 16/14 Q1020 NOSIG
ZGHA,2018-10-15 17:00,ZGHA 151700Z VRB01MPS 5000 BR NSC 16/14 Q1019 NOSIG
ZGHA,2018-10-15 18:00,ZGHA 151800Z 32003MPS 4000 BR NSC 15/14 Q1019 NOSIG
ZGHA,2018-10-15 19:00,ZGHA 151900Z 33003MPS 3000 BR NSC 15/14 Q1019 BECMG TL2000 2500
ZGHA,2018-10-15 20:00,ZGHA 152000Z VRB01MPS 2700 BR SCT040 15/14 Q1019 NOSIG
ZGHA,2018-10-15 21:00,ZGHA 152100Z 01002MPS 2100 BR FEW002 SCT040 14/13 Q1018 NOSIG
ZGHA,2018-10-15 22:00,ZGHA 152200Z 36003MPS 2000 BR SCT002 BKN030 14/14 Q1019 BECMG TL2350 3500
ZGHA,2018-10-15 23:00,ZGHA 152300Z 02002MPS 1500 R36L/1300U R36R/1200V1400U BR SCT002 BKN030 14/14 Q1019 BECMG TL0050 3500
ZGHA,2018-10-16 00:00,ZGHA 160000Z 07002MPS 1900 BR SCT004 BKN030 15/14 Q1019 BECMG TL0100 3500
ZGHA,2018-10-16 01:00,ZGHA 160100Z 36002MPS 2200 BR SCT006 BKN030 16/15 Q1020 BECMG TL0200 3500
ZGHA,2018-10-16 02:00,ZGHA 160200Z 02003MPS 3500 BR SCT013 BKN030 17/15 Q1020 NOSIG
ZGHA,2018-10-16 03:00,ZGHA 160300Z 01003MPS 4000 BR BKN016 19/14 Q1019 NOSIG
ZGHA,2018-10-16 04:00,ZGHA 160400Z 02002MPS 330V080 5000 HZ BKN030 BKN040 20/14 Q1018 NOSIG
ZGHA,2018-10-16 05:00,ZGHA 160500Z 34003MPS 310V030 5000 HZ BKN030 BKN040 19/14 Q1018 NOSIG
ZGHA,2018-10-16 06:00,ZGHA 160600Z 03002MPS 6000 BKN030 OVC040 19/13 Q1017 NOSIG
ZGHA,2018-10-16 07:00,ZGHA 160700Z 04002MPS 360V060 8000 BKN030 OVC040 19/13 Q1016 NOSIG
ZGHA,2018-10-16 08:00,ZGHA 160800Z 02003MPS 7000 BKN030 OVC040 19/14 Q1016 NOSIG
ZGHA,2018-10-16 09:00,ZGHA 160900Z 03002MPS 5000 BR BKN030 OVC040 19/14 Q1016 NOSIG
ZGHA,2018-10-16 10:00,ZGHA 161000Z 06002MPS 5000 BR BKN030 OVC040 18/15 Q1016 NOSIG
ZGHA,2018-10-16 11:00,ZGHA 161100Z 03002MPS 8000 BKN030 OVC040 18/14 Q1017 NOSIG
ZGHA,2018-10-16 12:00,ZGHA 161200Z 01002MPS 8000 BKN023 OVC040 18/14 Q1018 NOSIG
ZGHA,2018-10-16 13:00,ZGHA 161300Z 35003MPS 6000 BKN023 OVC040 18/14 Q1018 NOSIG
ZGHA,2018-10-16 14:00,ZGHA 161400Z 03003MPS 360V070 6000 BKN016 OVC040 18/15 Q1019 NOSIG
ZGHA,2018-10-16 15:00,ZGHA 161500Z 02003MPS 5000 BR BKN020 OVC040 17/15 Q1019 NOSIG
ZGHA,2018-10-16 16:00,ZGHA 161600Z 03002MPS 4000 -RA BR SCT011 BKN016 OVC040 17/15 Q1018 BECMG TL1700 2500
ZGHA,2018-10-16 17:00,ZGHA 161700Z 36001MPS 2500 -RA BR SCT006 BKN015 OVC040 17/16 Q1018 NOSIG
ZGHA,2018-10-16 18:00,ZGHA 161800Z 34002MPS 2800 -RA BR SCT006 BKN015 OVC040 17/16 Q1018 NOSIG
ZGHA,2018-10-16 19:00,ZGHA 161900Z 35003MPS 2200 -RA BR SCT004 BKN013 OVC040 17/16 Q1017 NOSIG
ZGHA,2018-10-16 20:00,ZGHA 162000Z 03003MPS 3200 -RA BR SCT004 BKN013 OVC040 17/16 Q1017 NOSIG
ZGHA,2018-10-16 21:00,ZGHA 162100Z 03003MPS 4200 -RA BR SCT004 BKN013 OVC040 16/16 Q1017 NOSIG
ZGHA,2018-10-16 22:00,ZGHA 162200Z 01001MPS 8000 -RA OVC040 16/15 Q1017 NOSIG
ZGHA,2018-10-16 23:00,ZGHA 162300Z 35004MPS 3500 BR BKN016 OVC040 16/16 Q1018 NOSIG
ZGHA,2018-10-17 00:00,ZGHA 170000Z VRB01MPS 4500 BR OVC040 17/16 Q1018 NOSIG
ZGHA,2018-10-17 01:00,ZGHA 170100Z 36003MPS 4500 BR NSC 17/16 Q1019 NOSIG
ZGHA,2018-10-17 02:00,ZGHA 170200Z 01003MPS 4000 BR SCT007 18/16 Q1019 NOSIG
ZGHA,2018-10-17 03:00,ZGHA 170300Z 02002MPS 5000 BR SCT013 19/15 Q1019 NOSIG
ZGHA,2018-10-17 04:00,ZGHA 170400Z 08002MPS 8000 BKN023 20/15 Q1018 NOSIG
ZGHA,2018-10-17 05:00,ZGHA 170500Z VRB01MPS CAVOK 21/14 Q1017 NOSIG
ZGHA,2018-10-17 06:00,ZGHA 170600Z VRB02MPS 9999 BKN050 22/14 Q1017 NOSIG
ZGHA,2018-10-17 07:00,ZGHA 170700Z 23002MPS 180V310 9999 SCT033 22/14 Q1016 NOSIG
ZGHA,2018-10-17 08:00,ZGHA 170800Z VRB01MPS CAVOK 21/13 Q1016 NOSIG
ZGHA,2018-10-17 09:00,ZGHA 170900Z VRB01MPS CAVOK 21/14 Q1016 NOSIG
ZGHA,2018-10-17 10:00,ZGHA 171000Z VRB01MPS 7000 NSC 20/15 Q1016 NOSIG
ZGHA,2018-10-17 11:00,ZGHA 171100Z 19002MPS 7000 NSC 19/15 Q1017 NOSIG
ZGHA,2018-10-17 12:00,ZGHA 171200Z 16002MPS 8000 FEW050 19/15 Q1017 NOSIG
ZGHA,2018-10-17 13:00,ZGHA 171300Z 16002MPS 9000 NSC 18/15 Q1018 NOSIG
ZGHA,2018-10-17 14:00,ZGHA 171400Z 27002MPS 240V330 9000 NSC 18/15 Q1018 NOSIG
ZGHA,2018-10-17 15:00,ZGHA 171500Z 30002MPS 6000 NSC 18/15 Q1018 NOSIG
ZGHA,2018-10-17 16:00,ZGHA 171600Z VRB01MPS 5000 BR NSC 17/16 Q1018 NOSIG
ZGHA,2018-10-17 17:00,ZGHA 171700Z 04002MPS 4000 BR NSC 16/16 Q1018 NOSIG
ZGHA,2018-10-17 18:00,ZGHA 171800Z 02001MPS 4000 BR NSC 16/15 Q1018 NOSIG
ZGHA,2018-10-17 19:00,ZGHA 171900Z 05002MPS 3000 BR NSC 16/15 Q1018 NOSIG
ZGHA,2018-10-17 20:00,ZGHA 172000Z 03001MPS 2800 BR NSC 16/15 Q1018 NOSIG
ZGHA,2018-10-17 21:00,ZGHA 172100Z 04002MPS 6000 NSC 16/15 Q1018 NOSIG
ZGHA,2018-10-17 22:00,ZGHA 172200Z 04003MPS 8000 NSC 15/14 Q1019 NOSIG
ZGHA,2018-10-17 23:00,ZGHA 172300Z 02003MPS 6000 NSC 15/13 Q1019 NOSIG
ZGHA,2018-10-18 00:00,ZGHA 180000Z 06003MPS 6000 NSC 16/13 Q1020 NOSIG
ZGHA,2018-10-18 01:00,ZGHA 180100Z 06003MPS 7000 NSC 17/13 Q1021 NOSIG
ZGHA,2018-10-18 02:00,ZGHA 180200Z VRB01MPS 7000 NSC 19/13 Q1021 NOSIG
ZGHA,2018-10-18 03:00,ZGHA 180300Z VRB01MPS CAVOK 21/13 Q1020 NOSIG
ZGHA,2018-10-18 04:00,ZGHA 180400Z 11002MPS 060V160 CAVOK 22/12 Q1019 NOSIG
ZGHA,2018-10-18 05:00,ZGHA 180500Z 06004MPS 030V090 9999 SCT040 23/11 Q1018 NOSIG
ZGHA,2018-10-18 06:00,ZGHA 180600Z 04002MPS 360V100 9999 BKN050 24/11 Q1017 NOSIG
ZGHA,2018-10-18 07:00,ZGHA 180700Z 16002MPS 120V290 9999 SCT050 24/12 Q1017 NOSIG
ZGHA,2018-10-18 08:00,ZGHA 180800Z 07002MPS 9999 BKN050 23/13 Q1017 NOSIG
ZGHA,2018-10-18 09:00,ZGHA 180900Z 36003MPS CAVOK 22/12 Q1018 NOSIG
ZGHA,2018-10-18 10:00,ZGHA 181000Z 04004MPS CAVOK 21/13 Q1018 NOSIG
ZGHA,2018-10-18 11:00,ZGHA 181100Z 04004MPS CAVOK 20/12 Q1019 NOSIG
ZGHA,2018-10-18 12:00,ZGHA 181200Z 04002MPS 020V080 CAVOK 20/11 Q1019 NOSIG
ZGHA,2018-10-18 13:00,ZGHA 181300Z 08002MPS CAVOK 20/13 Q1019 NOSIG
ZGHA,2018-10-18 14:00,ZGHA 181400Z 05002MPS CAVOK 19/13 Q1020 NOSIG
ZGHA,2018-10-18 15:00,ZGHA 181500Z 03003MPS CAVOK 19/14 Q1020 NOSIG
ZGHA,2018-10-18 16:00,ZGHA 181600Z 06002MPS 9000 NSC 18/14 Q1020 NOSIG
ZGHA,2018-10-18 17:00,ZGHA 181700Z 04002MPS 9000 NSC 18/14 Q1020 NOSIG
ZGHA,2018-10-18 18:00,ZGHA 181800Z 04004MPS 9000 NSC 18/14 Q1019 NOSIG
ZGHA,2018-10-18 19:00,ZGHA 181900Z 01002MPS 9000 NSC 18/13 Q1020 NOSIG
ZGHA,2018-10-18 20:00,ZGHA 182000Z 02003MPS 9000 NSC 17/14 Q1020 NOSIG
ZGHA,2018-10-18 21:00,ZGHA 182100Z 06001MPS 9000 NSC 17/13 Q1020 NOSIG
ZGHA,2018-10-18 22:00,ZGHA 182200Z 06005MPS 9000 NSC 17/11 Q1020 NOSIG
ZGHA,2018-10-18 23:00,ZGHA 182300Z 05003MPS 8000 NSC 17/11 Q1021 NOSIG
ZGHA,2018-10-19 00:00,ZGHA 190000Z 04004MPS 8000 NSC 17/11 Q1022 NOSIG
ZGHA,2018-10-19 01:00,ZGHA 190100Z 03002MPS 8000 NSC 17/11 Q1023 NOSIG
ZGHA,2018-10-19 02:00,ZGHA 190200Z 02002MPS 340V110 8000 NSC 19/12 Q1023 NOSIG
ZGHA,2018-10-19 03:00,ZGHA 190300Z 02003MPS 8000 NSC 20/12 Q1022 NOSIG
ZGHA,2018-10-19 04:00,ZGHA 190400Z 01002MPS 340V060 8000 NSC 21/12 Q1022 NOSIG
ZGHA,2018-10-19 05:00,ZGHA 190500Z VRB01MPS 8000 NSC 21/12 Q1021 NOSIG
ZGHA,2018-10-19 06:00,ZGHA 190600Z 33003MPS 8000 OVC040 21/12 Q1020 NOSIG
ZGHA,2018-10-19 07:00,ZGHA 190700Z 33004MPS 300V360 9000 OVC040 21/13 Q1020 NOSIG
ZGHA,2018-10-19 08:00,ZGHA 190800Z 30004MPS 6000 -RA OVC040 19/14 Q1020 NOSIG
ZGHA,2018-10-19 09:00,ZGHA 190900Z 30003MPS 270V330 4000 -RA BR FEW020 OVC040 18/15 Q1020 NOSIG
ZGHA,2018-10-19 10:00,ZGHA 191000Z VRB01MPS 3000 -RA BR SCT010 OVC040 17/16 Q1021 BECMG TL1100 2500
ZGHA,2018-10-19 11:00,ZGHA 191100Z 03002MPS 350V120 3000 -RA BR SCT020 OVC040 17/15 Q1022 BECMG TL1200 2500
ZGHA,2018-10-19 12:00,ZGHA 191200Z 02002MPS 3500 -RA BR BKN019 OVC040 16/15 Q1022 NOSIG
ZGHA,2018-10-19 13:00,ZGHA 191300Z 34004MPS 5000 BR BKN019 OVC040 16/14 Q1023 BECMG TL1400 BKN012 OVC050
ZGHA,2018-10-19 14:00,ZGHA 191400Z 35002MPS 3800 BR SCT006 BKN012 OVC040 16/14 Q1023 NOSIG
ZGHA,2018-10-19 15:00,ZGHA 191500Z 36003MPS 2500 -SHRA BR SCT005 BKN011 OVC040 15/14 Q1023 BECMG TL1600 3100 BKN009 OVC050
ZGHA,2018-10-19 16:00,ZGHA 191600Z 35003MPS 2500 -SHRA BR SCT005 BKN009 OVC040 15/14 Q1023 BECMG TL1700 3100 BKN011 OVC050
ZGHA,2018-10-19 17:00,ZGHA 191700Z 34003MPS 3500 -SHRA BR SCT007 BKN013 OVC040 15/14 Q1023 NOSIG
ZGHA,2018-10-19 18:00,ZGHA 191800Z 36003MPS 3500 -SHRA BR SCT004 BKN010 OVC040 15/14 Q1022 NOSIG
ZGHA,2018-10-19 19:00,ZGHA 191900Z 36003MPS 4000 BR SCT004 BKN010 OVC040 15/14 Q1022 NOSIG
ZGHA,2018-10-19 20:00,ZGHA 192000Z 35003MPS 4000 -SHRA BR SCT004 BKN010 OVC040 15/14 Q1022 NOSIG
ZGHA,2018-10-19 21:00,ZGHA 192100Z 34003MPS 3800 -RA BR SCT004 BKN010 OVC030 15/14 Q1022 NOSIG
ZGHA,2018-10-19 22:00,ZGHA 192200Z 34003MPS 3300 -RA BR SCT004 BKN010 15/14 Q1022 BECMG TL2300 BKN016
ZGHA,2018-10-19 23:00,ZGHA 192300Z 36002MPS 2500 -RA BR SCT004 BKN015 15/14 Q1023 BECMG TL0050 3500
ZGHA,2018-10-20 00:00,ZGHA 200000Z 01003MPS 2300 -RA BR SCT004 BKN015 15/14 Q1023 BECMG TL0100 3500
ZGHA,2018-10-20 01:00,ZGHA 200100Z VRB01MPS 2600 BR FEW006 BKN011 OVC033 15/14 Q1023 BECMG TL0200 3500 BKN009 OVC050
ZGHA,2018-10-20 02:00,ZGHA 200200Z 36002MPS 2200 -RA BR SCT006 BKN011 OVC033 15/14 Q1024 BECMG TL0300 3500 BKN009 OVC050
ZGHA,2018-10-20 03:00,ZGHA 200300Z 01002MPS 3000 -RA BR SCT009 BKN020 OVC040 16/15 Q1023 NOSIG
ZGHA,2018-10-20 04:00,ZGHA 200400Z 02002MPS 5000 -RA BR BKN007 OVC033 16/15 Q1022 BECMG TL0540 BKN011 OVC050
ZGHA,2018-10-20 05:00,ZGHA 200500Z 36001MPS 4000 BR BKN007 OVC033 16/15 Q1021 BECMG TL0640 BKN011 OVC050
ZGHA,2018-10-20 06:00,ZGHA 200600Z 02002MPS 3000 -RA BR SCT004 BKN007 OVC033 16/15 Q1020 BECMG TL0700 2500
ZGHA,2018-10-20 07:00,ZGHA 200700Z 35003MPS 1800 -RA BR SCT003 BKN006 OVC030 16/15 Q1020 NOSIG
ZGHA,2018-10-20 08:00,ZGHA 200800Z 36004MPS 2100 -SHRA BR SCT003 BKN009 OVC050 15/15 Q1020 BECMG TL0940 3500 BKN011 OVC050
ZGHA,2018-10-20 09:00,ZGHA 200900Z 05003MPS 2300 -SHRA BR SCT003 BKN008 OVC050 16/15 Q1020 NOSIG
ZGHA,2018-10-20 10:00,ZGHA 201000Z 04002MPS 010V080 4500 -RA BR SCT003 BKN008 OVC050 16/15 Q1020 NOSIG
ZGHA,2018-10-20 11:00,ZGHA 201100Z 06001MPS 5000 BR SCT004 BKN006 OVC050 15/15 Q1021 BECMG TL1200 BKN004 OVC050
ZGHA,2018-10-20 12:00,ZGHA 201200Z VRB01MPS 5000 BR SCT005 BKN007 OVC050 16/15 Q1021 BECMG TL1340 BKN011 OVC050
ZGHA,2018-10-20 13:00,ZGHA 201300Z VRB01MPS 7000 BKN006 OVC050 16/15 Q1022 NOSIG
ZGHA,2018-10-20 14:00,ZGHA 201400Z 32003MPS 5000 BR BKN006 OVC050 15/15 Q1022 NOSIG
ZGHA,2018-10-20 15:00,ZGHA 201500Z 34002MPS 300V360 3000 -RA BR BKN005 OVC050 15/15 Q1022 NOSIG
ZGHA,2018-10-20 16:00,ZGHA 201600Z 31003MPS 4000 -RA BR BKN005 OVC050 15/14 Q1021 BECMG TL1700 BKN004 OVC050
ZGHA,2018-10-20 17:00,ZGHA 201700Z 28003MPS 3000 -RA BR BKN004 OVC050 14/14 Q1021 BECMG TL1800 2800
ZGHA,2018-10-20 18:00,ZGHA 201800Z 34004MPS 2900 -RA BR BKN004 OVC050 14/14 Q1020 NOSIG
ZGHA,2018-10-20 19:00,ZGHA 201900Z 33002MPS 290V360 4000 BR BKN003 OVC040 14/14 Q1020 NOSIG
ZGHA,2018-10-20 20:00,ZGHA 202000Z 34002MPS 4500 BR BKN003 OVC040 14/14 Q1019 NOSIG
ZGHA,2018-10-20 21:00,ZGHA 202100Z 35003MPS 4500 -RA BR BKN004 OVC040 14/14 Q1019 NOSIG
ZGHA,2018-10-20 22:00,ZGHA 202200Z 32002MPS 280V350 5000 BR BKN004 OVC040 14/14 Q1020 BECMG TL2340 BKN006 OVC050
ZGHA,2018-10-20 23:00,ZGHA 202300Z 03002MPS 350V060 2600 -RA BR BKN005 OVC050 14/14 Q1019 BECMG TL2350 3000
ZGHA,2018-10-21 00:00,ZGHA 210000Z 30003MPS 4000 -RA BR BKN005 OVC050 15/14 Q1021 NOSIG
ZGHA,2018-10-21 01:00,ZGHA 210100Z 31004MPS 3500 -RA BR BKN006 OVC050 15/14 Q1021 NOSIG
ZGHA,2018-10-21 02:00,ZGHA 210200Z 32004MPS 6000 -RA BKN006 OVC050 15/14 Q1022 NOSIG
ZGHA,2018-10-21 03:00,ZGHA 210300Z 31004MPS 7000 -RA BKN007 OVC050 15/14 Q1021 NOSIG
ZGHA,2018-10-21 04:00,ZGHA 210400Z 30004MPS 8000 -RA BKN007 OVC050 15/14 Q1021 NOSIG
ZGHA,2018-10-21 05:00,ZGHA 210500Z 30004MPS 280V340 9000 -RA BKN008 OVC050 15/14 Q1020 BECMG TL0600 BKN010 OVC050
ZGHA,2018-10-21 06:00,ZGHA 210600Z 32004MPS 9000 -RA BKN008 OVC050 15/14 Q1019 NOSIG
ZGHA,2018-10-21 07:00,ZGHA 210700Z 32003MPS 9000 -RA BKN008 OVC050 15/14 Q1019 NOSIG
ZGHA,2018-10-21 08:00,ZGHA 210800Z 31004MPS 8000 BKN007 OVC050 15/14 Q1019 NOSIG
ZGHA,2018-10-21 09:00,ZGHA 210900Z 32004MPS 4500 -DZ BR BKN007 OVC050 15/14 Q1019 NOSIG
ZGHA,2018-10-21 10:00,ZGHA 211000Z 32004MPS 3300 -DZ BR BKN006 OVC050 15/14 Q1020 NOSIG
ZGHA,2018-10-21 11:00,ZGHA 211100Z 34004MPS 3800 -RA BR BKN006 OVC050 15/14 Q1020 NOSIG
ZGHA,2018-10-21 12:00,ZGHA 211200Z 31003MPS 5000 BR BKN008 OVC050 15/14 Q1021 BECMG TL1300 BKN010 OVC050
ZGHA,2018-10-21 13:00,ZGHA 211300Z 31003MPS 290V350 5000 BR BKN009 OVC050 15/14 Q1021 BECMG TL1400 BKN010 OVC050
ZGHA,2018-10-21 14:00,ZGHA 211400Z 32003MPS 4500 BR FEW007 BKN010 OVC050 15/14 Q1021 BECMG TL1550 BKN015 OVC050
ZGHA,2018-10-21 15:00,ZGHA 211500Z 32004MPS 3200 -RA BR SCT005 BKN010 OVC050 15/14 Q1021 BECMG TL1600 2800
ZGHA,2018-10-21 16:00,ZGHA 211600Z 32003MPS 2800 -RA BR BKN007 OVC050 15/14 Q1021 BECMG TL1700 3000
ZGHA,2018-10-21 17:00,ZGHA 211700Z 32004MPS 3000 -RA BR BKN007 OVC050 15/14 Q1021 NOSIG
ZGHA,2018-10-21 18:00,ZGHA 211800Z 33004MPS 3000 BR BKN007 OVC050 15/14 Q1021 NOSIG
ZGHA,2018-10-21 19:00,ZGHA 211900Z 33003MPS 3500 BR BKN007 OVC050 15/14 Q1020 NOSIG
ZGHA,2018-10-21 20:00,ZGHA 212000Z 33004MPS 3500 BR BKN007 OVC050 14/14 Q1020 NOSIG
ZGHA,2018-10-21 21:00,ZGHA 212100Z 33004MPS 3500 BR BKN007 OVC050 15/14 Q1021 NOSIG
ZGHA,2018-10-21 22:00,ZGHA 212200Z 31003MPS 3500 BR BKN006 OVC050 15/14 Q1021 NOSIG
ZGHA,2018-10-21 23:00,ZGHA 212300Z 29002MPS 260V330 2400 BR BKN006 OVC050 15/14 Q1022 NOSIG
ZGHA,2018-10-22 00:00,ZGHA 220000Z 33003MPS 1800 BR BKN006 OVC050 15/14 Q1022 BECMG TL0150 3000
ZGHA,2018-10-22 01:00,ZGHA 220100Z 32004MPS 2300 BR BKN006 OVC050 15/14 Q1023 BECMG TL0200 3500
ZGHA,2018-10-22 02:00,ZGHA 220200Z 29003MPS 260V330 2700 BR BKN009 OVC050 16/14 Q1023 BECMG TL0300 3500 BKN011 OVC050
ZGHA,2018-10-22 03:00,ZGHA 220300Z 28002MPS 3000 BR BKN011 OVC050 16/13 Q1023 NOSIG
ZGHA,2018-10-22 04:00,ZGHA 220400Z 29003MPS 260V330 3000 BR SCT010 OVC050 16/13 Q1022 NOSIG
ZGHA,2018-10-22 05:00,ZGHA 220500Z 33003MPS 290V350 3500 BR SCT015 OVC050 18/14 Q1021 NOSIG
ZGHA,2018-10-22 06:00,ZGHA 220600Z 32004MPS 280V350 5000 BR SCT020 OVC050 19/13 Q1020 NOSIG
ZGHA,2018-10-22 07:00,ZGHA 220700Z 31004MPS 5000 BR OVC030 18/13 Q1020 NOSIG
ZGHA,2018-10-22 08:00,ZGHA 220800Z 33003MPS 5000 BR OVC030 18/13 Q1020 NOSIG
ZGHA,2018-10-22 09:00,ZGHA 220900Z 33004MPS 5000 BR OVC030 18/13 Q1020 NOSIG
ZGHA,2018-10-22 10:00,ZGHA 221000Z 33002MPS 300V010 5000 BR OVC033 17/13 Q1020 NOSIG
ZGHA,2018-10-22 11:00,ZGHA 221100Z 35003MPS 6000 OVC033 17/13 Q1021 NOSIG
ZGHA,2018-10-22 12:00,ZGHA 221200Z 05002MPS 360V100 6000 OVC033 17/14 Q1021 NOSIG
ZGHA,2018-10-22 13:00,ZGHA 221300Z 06001MPS 6000 OVC040 17/14 Q1021 NOSIG
ZGHA,2018-10-22 14:00,ZGHA 221400Z 02002MPS 5000 OVC040 17/14 Q1022 NOSIG
ZGHA,2018-10-22 15:00,ZGHA 221500Z 01001MPS 5000 OVC040 17/14 Q1022 NOSIG
ZGHA,2018-10-22 16:00,ZGHA 221600Z VRB01MPS 5000 OVC040 17/14 Q1022 NOSIG
ZGHA,2018-10-22 17:00,ZGHA 221700Z VRB01MPS 5000 OVC040 16/14 Q1021 NOSIG
ZGHA,2018-10-22 18:00,ZGHA 221800Z 02002MPS 5000 BR OVC040 16/14 Q1022 NOSIG
ZGHA,2018-10-22 19:00,ZGHA 221900Z 01002MPS 4000 BR BKN040 15/14 Q1021 BECMG TL2050 2500
ZGHA,2018-10-22 20:00,ZGHA 222000Z 03002MPS 3000 BR BKN040 15/14 Q1021 NOSIG
ZGHA,2018-10-22 21:00,ZGHA 222100Z 06002MPS 010V080 2600 BR SCT040 14/14 Q1021 NOSIG
ZGHA,2018-10-22 22:00,ZGHA 222200Z 04003MPS 0200 R36L/0300N R36R/0350N FG VV003 14/14 Q1021 NOSIG
ZGHA,2018-10-22 23:00,ZGHA 222300Z 04003MPS 0200 R36L/0275N R36R/0375N FG VV003 14/14 Q1022 BECMG TL2400 0400
ZGHA,2018-10-23 00:00,ZGHA 230000Z 01002MPS 0200 R36L/0300N R36R/0375V0550N FG VV003 14/14 Q1023 BECMG TL0120 0600
ZGHA,2018-10-23 01:00,ZGHA 230100Z 04003MPS 2000 R36L/1400U R36R/1900N BR BKN005 OVC020 15/15 Q1023 BECMG TL0200 3500 BKN011 OVC040
ZGHA,2018-10-23 02:00,ZGHA 230200Z 07002MPS 040V100 3500 BR BKN010 BKN040 16/14 Q1023 BECMG TL0300 BKN016 OVC040
ZGHA,2018-10-23 03:00,ZGHA 230300Z 01002MPS 340V040 5000 BR BKN010 BKN040 18/14 Q1023 NOSIG
ZGHA,2018-10-23 04:00,ZGHA 230400Z VRB01MPS 6000 NSC 18/14 Q1022 NOSIG
ZGHA,2018-10-23 05:00,ZGHA 230500Z VRB01MPS CAVOK 20/13 Q1021 NOSIG
ZGHA,2018-10-23 06:00,ZGHA 230600Z VRB01MPS CAVOK 21/13 Q1020 NOSIG
ZGHA,2018-10-23 07:00,ZGHA 230700Z VRB01MPS CAVOK 23/13 Q1020 NOSIG
ZGHA,2018-10-23 08:00,ZGHA 230800Z 18002MPS 120V230 CAVOK 21/13 Q1019 NOSIG
ZGHA,2018-10-23 09:00,ZGHA 230900Z 16003MPS CAVOK 21/13 Q1019 NOSIG
ZGHA,2018-10-23 10:00,ZGHA 231000Z 19002MPS 170V230 CAVOK 20/14 Q1019 NOSIG
ZGHA,2018-10-23 11:00,ZGHA 231100Z VRB01MPS CAVOK 19/15 Q1020 NOSIG
ZGHA,2018-10-23 12:00,ZGHA 231200Z VRB01MPS CAVOK 19/15 Q1020 NOSIG
ZGHA,2018-10-23 13:00,ZGHA 231300Z 19002MPS 160V240 8000 -DZ NSC 18/16 Q1020 NOSIG
ZGHA,2018-10-23 14:00,ZGHA 231400Z VRB01MPS 7000 NSC 18/16 Q1021 NOSIG
ZGHA,2018-10-23 15:00,ZGHA 231500Z VRB01MPS 6000 NSC 18/16 Q1021 NOSIG
ZGHA,2018-10-23 16:00,ZGHA 231600Z VRB01MPS 6000 NSC 18/16 Q1020 NOSIG
ZGHA,2018-10-23 17:00,ZGHA 231700Z 23002MPS 4000 -RA BR NSC 17/16 Q1020 NOSIG
ZGHA,2018-10-23 18:00,ZGHA 231800Z VRB01MPS 9000 -RA SCT040 17/15 Q1020 NOSIG
ZGHA,2018-10-23 19:00,ZGHA 231900Z 08002MPS CAVOK 17/15 Q1019 NOSIG
ZGHA,2018-10-23 20:00,ZGHA 232000Z 13001MPS 8000 NSC 17/16 Q1019 NOSIG
ZGHA,2018-10-23 21:00,ZGHA 232100Z 18001MPS 6000 -RA NSC 17/16 Q1019 NOSIG
ZGHA,2018-10-23 22:00,ZGHA 232200Z VRB01MPS 5000 -RA BR NSC 17/16 Q1019 NOSIG
ZGHA,2018-10-23 23:00,ZGHA 232300Z 20001MPS 5000 BR NSC 17/16 Q1020 NOSIG
ZGHA,2018-10-24 00:00,ZGHA 240000Z VRB01MPS 7000 NSC 17/16 Q1020 NOSIG
ZGHA,2018-10-24 01:00,ZGHA 240100Z VRB01MPS 7000 NSC 18/16 Q1020 NOSIG
ZGHA,2018-10-24 02:00,ZGHA 240200Z VRB01MPS CAVOK 19/16 Q1020 NOSIG
ZGHA,2018-10-24 03:00,ZGHA 240300Z 18002MPS 130V240 CAVOK 20/15 Q1020 NOSIG
ZGHA,2018-10-24 04:00,ZGHA 240400Z 14002MPS 100V180 9999 SCT023 22/14 Q1019 NOSIG
ZGHA,2018-10-24 05:00,ZGHA 240500Z 20003MPS 160V250 9999 BKN023 21/15 Q1018 NOSIG
ZGHA,2018-10-24 06:00,ZGHA 240600Z 20002MPS 160V260 9999 BKN023 21/15 Q1017 NOSIG
ZGHA,2018-10-24 07:00,ZGHA 240700Z 20003MPS 180V240 9999 BKN023 21/15 Q1016 NOSIG
ZGHA,2018-10-24 08:00,ZGHA 240800Z 22003MPS 9999 OVC040 21/15 Q1016 NOSIG
ZGHA,2018-10-24 09:00,ZGHA 240900Z 22002MPS 190V250 8000 OVC040 20/16 Q1016 NOSIG
ZGHA,2018-10-24 10:00,ZGHA 241000Z 21003MPS 6000 -RA BKN030 OVC040 19/17 Q1017 NOSIG
ZGHA,2018-10-24 11:00,ZGHA 241100Z 20002MPS 6000 -RA OVC040 18/17 Q1017 NOSIG
ZGHA,2018-10-24 12:00,ZGHA 241200Z VRB01MPS 4500 -RA BR SCT026 OVC040 18/17 Q1017 NOSIG
ZGHA,2018-10-24 13:00,ZGHA 241300Z VRB01MPS 3500 -RA BR BKN026 OVC040 18/18 Q1017 NOSIG
ZGHA,2018-10-24 14:00,ZGHA 241400Z 18002MPS 160V230 3200 -RA BR BKN023 OVC040 18/18 Q1017 BECMG TL1500 2900
ZGHA,2018-10-24 15:00,ZGHA 241500Z 16002MPS 130V240 2800 -RA BR FEW005 BKN023 OVC040 18/18 Q1017 NOSIG
ZGHA,2018-10-24 16:00,ZGHA 241600Z VRB01MPS 3300 -RA BR FEW005 BKN020 OVC040 18/18 Q1017 NOSIG
ZGHA,2018-10-24 17:00,ZGHA 241700Z 21002MPS 170V260 3800 -RA BR FEW005 BKN020 OVC040 18/17 Q1016 NOSIG
ZGHA,2018-10-24 18:00,ZGHA 241800Z 20001MPS 4000 -RA BR BKN016 OVC040 18/17 Q1016 NOSIG
ZGHA,2018-10-24 19:00,ZGHA 241900Z 00000MPS 4000 -RA BR BKN016 OVC040 18/17 Q1016 NOSIG
ZGHA,2018-10-24 20:00,ZGHA 242000Z 00000MPS 3500 -RA BR FEW004 BKN016 OVC040 18/17 Q1016 NOSIG
ZGHA,2018-10-24 21:00,ZGHA 242100Z 00000MPS 3000 BR FEW003 BKN016 OVC040 18/17 Q1016 NOSIG
ZGHA,2018-10-24 22:00,ZGHA 242200Z 20001MPS 2800 -RA BR FEW003 BKN016 OVC040 18/18 Q1016 NOSIG
ZGHA,2018-10-24 23:00,ZGHA 242300Z 19001MPS 1800 -RA BR SCT003 OVC026 18/18 Q1016 NOSIG
ZGHA,2018-10-25 00:00,ZGHA 250000Z 19002MPS 1800 -SHRA BR SCT003 OVC026 18/18 Q1017 NOSIG
ZGHA,2018-10-25 01:00,ZGHA 250100Z 18002MPS 160V230 2200 -SHRA BR SCT004 OVC026 18/18 Q1017 BECMG TL0240 3200
ZGHA,2018-10-25 02:00,ZGHA 250200Z 18002MPS 150V230 2200 -SHRA BR SCT004 OVC026 19/18 Q1017 NOSIG
ZGHA,2018-10-25 03:00,ZGHA 250300Z 18002MPS 160V220 6000 -RA SCT006 OVC026 19/18 Q1017 NOSIG
ZGHA,2018-10-25 04:00,ZGHA 250400Z 19002MPS 150V290 4000 -RA BR SCT006 OVC026 19/19 Q1016 NOSIG
ZGHA,2018-10-25 05:00,ZGHA 250500Z 17002MPS 150V260 5000 -RA BR BKN007 OVC026 20/19 Q1016 BECMG TL0640 BKN011 OVC050
ZGHA,2018-10-25 06:00,ZGHA 250600Z VRB01MPS 5000 BR BKN007 OVC026 20/19 Q1015 BECMG TL0700 BKN011 OVC050
ZGHA,2018-10-25 07:00,ZGHA 250700Z VRB01MPS 5000 BR FEW006 BKN011 OVC040 20/19 Q1015 NOSIG
ZGHA,2018-10-25 08:00,ZGHA 250800Z VRB01MPS 4700 BR FEW006 BKN011 OVC040 21/19 Q1015 NOSIG
ZGHA,2018-10-25 09:00,ZGHA 250900Z 01003MPS 3700 BR FEW005 BKN009 OVC033 20/19 Q1016 BECMG TL1040 BKN011 OVC040
ZGHA,2018-10-25 10:00,ZGHA 251000Z 36002MPS 5000 BR FEW007 BKN016 OVC040 20/19 Q1016 NOSIG
ZGHA,2018-10-25 11:00,ZGHA 251100Z 36003MPS 3500 -RA BR FEW008 BKN016 OVC033 20/19 Q1017 NOSIG
ZGHA,2018-10-25 12:00,ZGHA 251200Z 34003MPS 3200 -RA BR FEW004 BKN010 OVC033 19/19 Q1018 BECMG TL1300 2700 BKN009 OVC040
ZGHA,2018-10-25 13:00,ZGHA 251300Z 02003MPS 3200 -RA BR SCT010 OVC050 19/19 Q1018 BECMG TL1400 2800
ZGHA,2018-10-25 14:00,ZGHA 251400Z 36004MPS 5000 BR NSC 19/18 Q1018 NOSIG
ZGHA,2018-10-25 15:00,ZGHA 251500Z 35004MPS 5000 BR NSC 19/18 Q1019 NOSIG
ZGHA,2018-10-25 16:00,ZGHA 251600Z 35004MPS 5000 BR NSC 18/18 Q1019 NOSIG
ZGHA,2018-10-25 17:00,ZGHA 251700Z 35003MPS 4000 BR NSC 18/17 Q1019 NOSIG
ZGHA,2018-10-25 18:00,ZGHA 251800Z 34003MPS 3200 BR NSC 18/17 Q1020 NOSIG
ZGHA,2018-10-25 19:00,ZGHA 251900Z 36003MPS 4000 BR SCT011 17/17 Q1020 NOSIG
ZGHA,2018-10-25 20:00,ZGHA 252000Z 01002MPS 4000 BR SCT011 17/17 Q1020 NOSIG
ZGHA,2018-10-25 21:00,ZGHA 252100Z 35003MPS 4000 BR SCT011 17/17 Q1021 NOSIG
ZGHA,2018-10-25 22:00,ZGHA 252200Z 01003MPS 3500 BR SCT007 17/16 Q1021 BECMG TL2300 2500
ZGHA,2018-10-25 23:00,ZGHA 252300Z 03002MPS 1800 BR BKN005 17/17 Q1022 BECMG TL0050 3000 BKN010
ZGHA,2018-10-26 00:00,ZGHA 260000Z 02004MPS 1600 BR BKN003 17/17 Q1023 BECMG TL0100 3000 BKN008
ZGHA,2018-10-26 01:00,ZGHA 260100Z 35003MPS 3000 BR BKN007 18/17 Q1024 BECMG TL0200 BKN014
ZGHA,2018-10-26 02:00,ZGHA 260200Z 36003MPS 4500 BR FEW013 21/17 Q1024 NOSIG
ZGHA,2018-10-26 03:00,ZGHA 260300Z 36003MPS 340V040 6000 SCT020 23/15 Q1024 NOSIG
ZGHA,2018-10-26 04:00,ZGHA 260400Z 36004MPS 330V030 9999 SCT026 24/14 Q1023 NOSIG
ZGHA,2018-10-26 05:00,ZGHA 260500Z 02007MPS CAVOK 25/08 Q1022 NOSIG
ZGHA,2018-10-26 06:00,ZGHA 260600Z 36007MPS CAVOK 25/10 Q1022 NOSIG
ZGHA,2018-10-26 07:00,ZGHA 260700Z 35007MPS CAVOK 25/08 Q1021 NOSIG
ZGHA,2018-10-26 08:00,ZGHA 260800Z 35006MPS CAVOK 25/05 Q1021 NOSIG
ZGHA,2018-10-26 09:00,ZGHA 260900Z 36005MPS CAVOK 23/05 Q1021 NOSIG
ZGHA,2018-10-26 10:00,ZGHA 261000Z 33004MPS CAVOK 21/06 Q1022 NOSIG
ZGHA,2018-10-26 11:00,ZGHA 261100Z 33005MPS CAVOK 20/06 Q1022 NOSIG
ZGHA,2018-10-26 12:00,ZGHA 261200Z 34004MPS CAVOK 20/06 Q1023 NOSIG
ZGHA,2018-10-26 13:00,ZGHA 261300Z 05003MPS CAVOK 16/10 Q1023 NOSIG
ZGHA,2018-10-26 14:00,ZGHA 261400Z 02002MPS CAVOK 16/10 Q1024 NOSIG
ZGHA,2018-10-26 15:00,ZGHA 261500Z 03002MPS CAVOK 15/10 Q1024 NOSIG
ZGHA,2018-10-26 16:00,ZGHA 261600Z VRB01MPS CAVOK 14/11 Q1024 NOSIG
ZGHA,2018-10-26 17:00,ZGHA 261700Z 01002MPS CAVOK 14/10 Q1024 NOSIG
ZGHA,2018-10-26 18:00,ZGHA 261800Z 35003MPS CAVOK 14/10 Q1023 NOSIG
ZGHA,2018-10-26 19:00,ZGHA 261900Z 06001MPS CAVOK 13/11 Q1024 NOSIG
ZGHA,2018-10-26 20:00,ZGHA 262000Z VRB01MPS CAVOK 12/11 Q1023 NOSIG
ZGHA,2018-10-26 21:00,ZGHA 262100Z 01002MPS CAVOK 12/11 Q1024 NOSIG
ZGHA,2018-10-26 22:00,ZGHA 262200Z 01002MPS CAVOK 11/10 Q1024 NOSIG
ZGHA,2018-10-26 23:00,ZGHA 262300Z 01003MPS CAVOK 11/10 Q1025 NOSIG
ZGHA,2018-10-27 00:00,ZGHA 270000Z 03002MPS 350V060 CAVOK 13/11 Q1026 NOSIG
ZGHA,2018-10-27 01:00,ZGHA 270100Z 05004MPS CAVOK 16/10 Q1026 NOSIG
ZGHA,2018-10-27 02:00,ZGHA 270200Z 36002MPS 320V100 CAVOK 19/11 Q1026 NOSIG
ZGHA,2018-10-27 03:00,ZGHA 270300Z 02003MPS 340V060 CAVOK 22/10 Q1026 NOSIG
ZGHA,2018-10-27 04:00,ZGHA 270400Z 02002MPS 310V110 CAVOK 24/06 Q1025 NOSIG
ZGHA,2018-10-27 05:00,ZGHA 270500Z 36003MPS 240V030 CAVOK 25/07 Q1024 NOSIG
ZGHA,2018-10-27 06:00,ZGHA 270600Z 04003MPS 350V110 CAVOK 26/04 Q1023 NOSIG
ZGHA,2018-10-27 07:00,ZGHA 270700Z VRB03MPS CAVOK 26/05 Q1022 NOSIG
ZGHA,2018-10-27 08:00,ZGHA 270800Z 36004MPS CAVOK 25/03 Q1021 NOSIG
ZGHA,2018-10-27 09:00,ZGHA 270900Z 36005MPS CAVOK 24/04 Q1022 NOSIG
ZGHA,2018-10-27 10:00,ZGHA 271000Z 35004MPS CAVOK 22/04 Q1022 NOSIG
ZGHA,2018-10-27 11:00,ZGHA 271100Z 35004MPS CAVOK 20/07 Q1022 NOSIG
ZGHA,2018-10-27 12:00,ZGHA 271200Z 35004MPS CAVOK 19/08 Q1022 NOSIG
ZGHA,2018-10-27 13:00,ZGHA 271300Z 07002MPS CAVOK 17/09 Q1023 NOSIG
ZGHA,2018-10-27 14:00,ZGHA 271400Z VRB01MPS CAVOK 16/10 Q1023 NOSIG
ZGHA,2018-10-27 15:00,ZGHA 271500Z 33002MPS 290V360 CAVOK 15/09 Q1023 NOSIG
ZGHA,2018-10-27 16:00,ZGHA 271600Z 02002MPS CAVOK 15/10 Q1023 NOSIG
ZGHA,2018-10-27 17:00,ZGHA 271700Z 06001MPS CAVOK 14/10 Q1023 NOSIG
ZGHA,2018-10-27 18:00,ZGHA 271800Z 04002MPS 020V120 CAVOK 14/10 Q1023 NOSIG
ZGHA,2018-10-27 19:00,ZGHA 271900Z VRB01MPS CAVOK 13/11 Q1022 NOSIG
ZGHA,2018-10-27 20:00,ZGHA 272000Z 08001MPS CAVOK 13/11 Q1022 NOSIG
ZGHA,2018-10-27 21:00,ZGHA 272100Z 18001MPS CAVOK 12/11 Q1022 NOSIG
ZGHA,2018-10-27 22:00,ZGHA 272200Z VRB01MPS 8000 NSC 12/10 Q1022 NOSIG
ZGHA,2018-10-27 23:00,ZGHA 272300Z 04001MPS CAVOK 12/11 Q1023 NOSIG
ZGHA,2018-10-28 00:00,ZGHA 280000Z VRB01MPS CAVOK 13/11 Q1023 NOSIG
ZGHA,2018-10-28 01:00,ZGHA 280100Z 00000MPS CAVOK 17/10 Q1024 NOSIG
ZGHA,2018-10-28 02:00,ZGHA 280200Z VRB01MPS CAVOK 20/08 Q1023 NOSIG
ZGHA,2018-10-28 03:00,ZGHA 280300Z 23002MPS 160V280 CAVOK 21/08 Q1023 NOSIG
ZGHA,2018-10-28 04:00,ZGHA 280400Z VRB01MPS CAVOK 25/06 Q1022 NOSIG
ZGHA,2018-10-28 05:00,ZGHA 280500Z VRB02MPS CAVOK 25/06 Q1020 NOSIG
ZGHA,2018-10-28 06:00,ZGHA 280600Z 26002MPS 210V320 CAVOK 26/05 Q1019 NOSIG
ZGHA,2018-10-28 07:00,ZGHA 280700Z 30002MPS 260V340 CAVOK 27/03 Q1018 NOSIG
ZGHA,2018-10-28 08:00,ZGHA 280800Z 33004MPS 290V350 CAVOK 27/01 Q1018 NOSIG
ZGHA,2018-10-28 09:00,ZGHA 280900Z 29003MPS CAVOK 25/02 Q1018 NOSIG
ZGHA,2018-10-28 10:00,ZGHA 281000Z 32003MPS CAVOK 23/00 Q1018 NOSIG
ZGHA,2018-10-28 11:00,ZGHA 281100Z VRB01MPS CAVOK 20/07 Q1019 NOSIG
ZGHA,2018-10-28 12:00,ZGHA 281200Z 04001MPS CAVOK 18/11 Q1019 NOSIG
ZGHA,2018-10-28 13:00,ZGHA 281300Z 13001MPS CAVOK 17/11 Q1019 NOSIG
ZGHA,2018-10-28 14:00,ZGHA 281400Z 17001MPS CAVOK 16/09 Q1019 NOSIG
ZGHA,2018-10-28 15:00,ZGHA 281500Z VRB01MPS CAVOK 15/10 Q1019 NOSIG
ZGHA,2018-10-28 16:00,ZGHA 281600Z 07001MPS CAVOK 14/11 Q1019 NOSIG
ZGHA,2018-10-28 17:00,ZGHA 281700Z 05001MPS 9000 NSC 13/12 Q1019 NOSIG
ZGHA,2018-10-28 18:00,ZGHA 281800Z 17001MPS 9000 NSC 13/11 Q1019 NOSIG
ZGHA,2018-10-28 19:00,ZGHA 281900Z VRB01MPS 9000 NSC 12/10 Q1018 NOSIG
ZGHA,2018-10-28 20:00,ZGHA 282000Z 12001MPS 9000 NSC 12/10 Q1018 NOSIG
ZGHA,2018-10-28 21:00,ZGHA 282100Z VRB01MPS 7000 NSC 12/10 Q1019 NOSIG
ZGHA,2018-10-28 22:00,ZGHA 282200Z 00000MPS 7000 NSC 11/10 Q1019 NOSIG
ZGHA,2018-10-28 23:00,ZGHA 282300Z 20001MPS CAVOK 11/10 Q1020 NOSIG
ZGHA,2018-10-29 00:00,ZGHA 290000Z VRB01MPS CAVOK 13/11 Q1020 NOSIG
ZGHA,2018-10-29 01:00,ZGHA 290100Z VRB01MPS CAVOK 17/11 Q1021 NOSIG
ZGHA,2018-10-29 02:00,ZGHA 290200Z VRB01MPS CAVOK 20/10 Q1021 NOSIG
ZGHA,2018-10-29 03:00,ZGHA 290300Z 16002MPS 090V260 CAVOK 23/09 Q1021 NOSIG
ZGHA,2018-10-29 04:00,ZGHA 290400Z VRB01MPS CAVOK 25/08 Q1020 NOSIG
ZGHA,2018-10-29 05:00,ZGHA 290500Z 36002MPS 280V060 CAVOK 26/08 Q1019 NOSIG
ZGHA,2018-10-29 06:00,ZGHA 290600Z 36003MPS 320V060 CAVOK 27/08 Q1018 NOSIG
ZGHA,2018-10-29 07:00,ZGHA 290700Z 01003MPS 310V040 CAVOK 27/07 Q1018 NOSIG
ZGHA,2018-10-29 08:00,ZGHA 290800Z 01003MPS 340V040 CAVOK 27/05 Q1017 NOSIG
ZGHA,2018-10-29 09:00,ZGHA 290900Z 34004MPS CAVOK 26/01 Q1018 NOSIG
ZGHA,2018-10-29 10:00,ZGHA 291000Z 34005MPS CAVOK 24/03 Q1018 NOSIG
ZGHA,2018-10-29 11:00,ZGHA 291100Z 32004MPS CAVOK 22/05 Q1019 NOSIG
ZGHA,2018-10-29 12:00,ZGHA 291200Z VRB01MPS CAVOK 19/09 Q1019 NOSIG
ZGHA,2018-10-29 13:00,ZGHA 291300Z 07002MPS CAVOK 16/10 Q1020 NOSIG
ZGHA,2018-10-29 14:00,ZGHA 291400Z 01002MPS CAVOK 16/09 Q1020 NOSIG
ZGHA,2018-10-29 15:00,ZGHA 291500Z VRB01MPS CAVOK 15/10 Q1020 NOSIG
ZGHA,2018-10-29 17:00,ZGHA 291700Z 03002MPS CAVOK 14/10 Q1020 NOSIG
ZGHA,2018-10-29 18:00,ZGHA 291800Z 02003MPS CAVOK 13/10 Q1020 NOSIG
ZGHA,2018-10-29 19:00,ZGHA 291900Z 03002MPS CAVOK 12/10 Q1019 NOSIG
ZGHA,2018-10-29 20:00,ZGHA 292000Z 01003MPS CAVOK 12/09 Q1020 NOSIG
ZGHA,2018-10-29 21:00,ZGHA 292100Z 08001MPS CAVOK 12/10 Q1021 NOSIG
ZGHA,2018-10-29 22:00,ZGHA 292200Z VRB01MPS CAVOK 11/09 Q1021 NOSIG
ZGHA,2018-10-29 23:00,ZGHA 292300Z 03002MPS CAVOK 12/09 Q1022 NOSIG
ZGHA,2018-10-30 00:00,ZGHA 300000Z 02003MPS CAVOK 14/09 Q1022 NOSIG
ZGHA,2018-10-30 01:00,ZGHA 300100Z VRB01MPS CAVOK 16/09 Q1023 NOSIG
ZGHA,2018-10-30 02:00,ZGHA 300200Z VRB01MPS CAVOK 21/09 Q1023 NOSIG
ZGHA,2018-10-30 03:00,ZGHA 300300Z 01002MPS 310V050 CAVOK 24/08 Q1023 NOSIG
ZGHA,2018-10-30 04:00,ZGHA 300400Z 36003MPS 320V040 CAVOK 26/05 Q1022 NOSIG
ZGHA,2018-10-30 05:00,ZGHA 300500Z 36003MPS 340V050 CAVOK 27/03 Q1021 NOSIG
ZGHA,2018-10-30 06:00,ZGHA 300600Z 36004MPS 300V030 CAVOK 28/02 Q1020 NOSIG
ZGHA,2018-10-30 07:00,ZGHA 300700Z 36004MPS 330V030 CAVOK 28/00 Q1020 NOSIG
ZGHA,2018-10-30 08:00,ZGHA 300800Z 36004MPS CAVOK 27/02 Q1020 NOSIG
ZGHA,2018-10-30 09:00,ZGHA 300900Z 35004MPS CAVOK 26/02 Q1021 NOSIG
ZGHA,2018-10-30 10:00,ZGHA 301000Z 36004MPS CAVOK 23/06 Q1021 NOSIG
ZGHA,2018-10-30 11:00,ZGHA 301100Z 35004MPS CAVOK 21/06 Q1021 NOSIG
ZGHA,2018-10-30 12:00,ZGHA 301200Z 36003MPS CAVOK 20/08 Q1022 NOSIG
ZGHA,2018-10-30 13:00,ZGHA 301300Z 02002MPS CAVOK 17/10 Q1023 NOSIG
ZGHA,2018-10-30 14:00,ZGHA 301400Z VRB01MPS CAVOK 16/09 Q1023 NOSIG
ZGHA,2018-10-30 15:00,ZGHA 301500Z 03002MPS CAVOK 14/11 Q1023 NOSIG
ZGHA,2018-10-30 16:00,ZGHA 301600Z 03003MPS CAVOK 14/10 Q1022 NOSIG
ZGHA,2018-10-30 17:00,ZGHA 301700Z 01003MPS CAVOK 14/10 Q1022 NOSIG
ZGHA,2018-10-30 18:00,ZGHA 301800Z 35003MPS CAVOK 14/09 Q1022 NOSIG
ZGHA,2018-10-30 19:00,ZGHA 301900Z 04002MPS 9000 NSC 13/09 Q1022 NOSIG
ZGHA,2018-10-30 20:00,ZGHA 302000Z 07001MPS 9000 NSC 12/09 Q1022 NOSIG
ZGHA,2018-10-30 21:00,ZGHA 302100Z 00000MPS 9000 NSC 12/09 Q1022 NOSIG
ZGHA,2018-10-30 22:00,ZGHA 302200Z VRB01MPS 9000 NSC 11/10 Q1023 NOSIG
ZGHA,2018-10-30 23:00,ZGHA 302300Z 06002MPS CAVOK 12/08 Q1023 NOSIG
ZGHA,2018-10-31 00:00,ZGHA 310000Z 09002MPS CAVOK 14/08 Q1024 NOSIG
ZGHA,2018-10-31 01:00,ZGHA 310100Z 06002MPS CAVOK 17/07 Q1025 NOSIG
ZGHA,2018-10-31 02:00,ZGHA 310200Z 02002MPS 340V060 CAVOK 20/07 Q1025 NOSIG
ZGHA,2018-10-31 03:00,ZGHA 310300Z VRB01MPS CAVOK 23/05 Q1024 NOSIG
ZGHA,2018-10-31 04:00,ZGHA 310400Z 05002MPS 340V080 CAVOK 25/03 Q1023 NOSIG
ZGHA,2018-10-31 05:00,ZGHA 310500Z VRB01MPS CAVOK 27/00 Q1022 NOSIG
ZGHA,2018-10-31 06:00,ZGHA 310600Z 04002MPS 360V100 CAVOK 27/01 Q1021 NOSIG
ZGHA,2018-10-31 07:00,ZGHA 310700Z 36003MPS 320V050 CAVOK 28/02 Q1021 NOSIG
ZGHA,2018-10-31 08:00,ZGHA 310800Z 35005MPS CAVOK 27/02 Q1020 NOSIG
ZGHA,2018-10-31 09:00,ZGHA 310900Z 36003MPS 320V020 CAVOK 25/02 Q1021 NOSIG
ZGHA,2018-10-31 10:00,ZGHA 311000Z 35004MPS CAVOK 23/04 Q1021 NOSIG
ZGHA,2018-10-31 11:00,ZGHA 311100Z 35003MPS CAVOK 21/06 Q1021 NOSIG
ZGHA,2018-10-31 12:00,ZGHA 311200Z VRB01MPS CAVOK 19/08 Q1022 NOSIG
ZGHA,2018-10-31 13:00,ZGHA 311300Z 00000MPS CAVOK 17/09 Q1022 NOSIG
ZGHA,2018-10-31 14:00,ZGHA 311400Z VRB01MPS CAVOK 16/10 Q1022 NOSIG
ZGHA,2018-10-31 15:00,ZGHA 311500Z 04001MPS CAVOK 15/11 Q1022 NOSIG
ZGHA,2018-10-31 16:00,ZGHA 311600Z 02002MPS CAVOK 14/09 Q1022 NOSIG
ZGHA,2018-10-31 17:00,ZGHA 311700Z 07001MPS 9000 NSC 13/10 Q1022 NOSIG
ZGHA,2018-10-31 18:00,ZGHA 311800Z 03002MPS 9000 NSC 13/08 Q1022 NOSIG
ZGHA,2018-10-31 19:00,ZGHA 311900Z 01003MPS CAVOK 12/08 Q1022 NOSIG
ZGHA,2018-10-31 20:00,ZGHA 312000Z 03002MPS CAVOK 11/08 Q1021 NOSIG
ZGHA,2018-10-31 21:00,ZGHA 312100Z VRB01MPS CAVOK 11/07 Q1022 NOSIG
ZGHA,2018-10-31 22:00,ZGHA 312200Z VRB01MPS CAVOK 11/08 Q1022 NOSIG
ZGHA,2018-10-31 23:00,ZGHA 312300Z 01002MPS CAVOK 11/07 Q1022 NOSIG
ZGHA,2018-11-01 00:00,ZGHA 010000Z 02003MPS CAVOK 13/07 Q1023 NOSIG
ZGHA,2018-11-01 01:00,ZGHA 010100Z 05002MPS CAVOK 16/07 Q1024 NOSIG
ZGHA,2018-11-01 02:00,ZGHA 010200Z 08002MPS 040V110 CAVOK 19/05 Q1024 NOSIG
ZGHA,2018-11-01 03:00,ZGHA 010300Z VRB01MPS CAVOK 22/05 Q1023 NOSIG
ZGHA,2018-11-01 04:00,ZGHA 010400Z VRB01MPS CAVOK 24/03 Q1023 NOSIG
ZGHA,2018-11-01 05:00,ZGHA 010500Z 04003MPS 360V090 CAVOK 25/M01 Q1022 NOSIG
ZGHA,2018-11-01 06:00,ZGHA 010600Z 01003MPS 310V070 CAVOK 25/00 Q1021 NOSIG
ZGHA,2018-11-01 07:00,ZGHA 010700Z 01004MPS 340V050 CAVOK 26/01 Q1020 NOSIG
ZGHA,2018-11-01 08:00,ZGHA 010800Z 03003MPS CAVOK 24/00 Q1020 NOSIG
ZGHA,2018-11-01 09:00,ZGHA 010900Z 02003MPS CAVOK 23/02 Q1020 NOSIG
ZGHA,2018-11-01 10:00,ZGHA 011000Z 02003MPS CAVOK 21/04 Q1021 NOSIG
ZGHA,2018-11-01 11:00,ZGHA 011100Z 09002MPS 020V130 CAVOK 19/07 Q1021 NOSIG
ZGHA,2018-11-01 12:00,ZGHA 011200Z 11002MPS CAVOK 19/07 Q1022 NOSIG
ZGHA,2018-11-01 13:00,ZGHA 011300Z 36001MPS CAVOK 18/10 Q1022 NOSIG
ZGHA,2018-11-01 14:00,ZGHA 011400Z 07001MPS CAVOK 18/09 Q1022 NOSIG
ZGHA,2018-11-01 15:00,ZGHA 011500Z 09001MPS CAVOK 16/10 Q1022 NOSIG
ZGHA,2018-11-01 16:00,ZGHA 011600Z 35002MPS CAVOK 15/09 Q1022 NOSIG
ZGHA,2018-11-01 17:00,ZGHA 011700Z 02002MPS CAVOK 15/08 Q1022 NOSIG
ZGHA,2018-11-01 18:00,ZGHA 011800Z 03002MPS CAVOK 15/07 Q1022 NOSIG
ZGHA,2018-11-01 19:00,ZGHA 011900Z 04003MPS CAVOK 15/07 Q1021 NOSIG
ZGHA,2018-11-01 20:00,ZGHA 012000Z 02003MPS CAVOK 15/06 Q1021 NOSIG
ZGHA,2018-11-01 21:00,ZGHA 012100Z VRB01MPS CAVOK 14/06 Q1021 NOSIG
ZGHA,2018-11-01 22:00,ZGHA 012200Z VRB01MPS CAVOK 14/06 Q1021 NOSIG
ZGHA,2018-11-01 23:00,ZGHA 012300Z 04002MPS CAVOK 14/07 Q1022 NOSIG
ZGHA,2018-11-02 00:00,ZGHA 020000Z 05002MPS CAVOK 15/07 Q1022 NOSIG
ZGHA,2018-11-02 01:00,ZGHA 020100Z 05002MPS CAVOK 16/06 Q1023 NOSIG
ZGHA,2018-11-02 02:00,ZGHA 020200Z 05002MPS CAVOK 17/07 Q1023 NOSIG
ZGHA,2018-11-02 03:00,ZGHA 020300Z 06002MPS CAVOK 19/06 Q1023 NOSIG
ZGHA,2018-11-02 04:00,ZGHA 020400Z 09002MPS 350V160 CAVOK 20/04 Q1022 NOSIG
ZGHA,2018-11-02 05:00,ZGHA 020500Z 03002MPS 320V110 CAVOK 22/04 Q1021 NOSIG
ZGHA,2018-11-02 06:00,ZGHA 020600Z VRB02MPS CAVOK 23/04 Q1020 NOSIG
ZGHA,2018-11-02 07:00,ZGHA 020700Z VRB01MPS CAVOK 23/03 Q1019 NOSIG
ZGHA,2018-11-02 08:00,ZGHA 020800Z 12002MPS 080V180 CAVOK 22/05 Q1019 NOSIG
ZGHA,2018-11-02 09:00,ZGHA 020900Z VRB01MPS CAVOK 21/07 Q1019 NOSIG
ZGHA,2018-11-02 10:00,ZGHA 021000Z 15003MPS CAVOK 20/05 Q1020 NOSIG
ZGHA,2018-11-02 11:00,ZGHA 021100Z 18003MPS 160V220 CAVOK 18/06 Q1020 NOSIG
ZGHA,2018-11-02 12:00,ZGHA 021200Z 12001MPS CAVOK 18/06 Q1021 NOSIG
ZGHA,2018-11-02 13:00,ZGHA 021300Z 13002MPS 100V160 CAVOK 17/06 Q1021 NOSIG
ZGHA,2018-11-02 14:00,ZGHA 021400Z 15004MPS CAVOK 17/06 Q1021 NOSIG
ZGHA,2018-11-02 15:00,ZGHA 021500Z 11002MPS 070V150 9999 FEW043 16/06 Q1021 NOSIG
ZGHA,2018-11-02 16:00,ZGHA 021600Z VRB01MPS 9999 SCT043 16/06 Q1021 NOSIG
ZGHA,2018-11-02 17:00,ZGHA 021700Z VRB01MPS CAVOK 15/07 Q1021 NOSIG
ZGHA,2018-11-02 18:00,ZGHA 021800Z 00000MPS CAVOK 15/07 Q1020 NOSIG
ZGHA,2018-11-02 19:00,ZGHA 021900Z VRB01MPS CAVOK 14/09 Q1020 NOSIG
ZGHA,2018-11-02 20:00,ZGHA 022000Z 00000MPS CAVOK 14/09 Q1020 NOSIG
ZGHA,2018-11-02 21:00,ZGHA 022100Z 00000MPS CAVOK 14/09 Q1020 NOSIG
ZGHA,2018-11-02 22:00,ZGHA 022200Z 00000MPS CAVOK 13/09 Q1020 NOSIG
ZGHA,2018-11-02 23:00,ZGHA 022300Z VRB01MPS CAVOK 13/10 Q1020 NOSIG
ZGHA,2018-11-03 00:00,ZGHA 030000Z VRB01MPS 9999 BKN050 15/09 Q1021 NOSIG
ZGHA,2018-11-03 01:00,ZGHA 030100Z 28002MPS 240V310 9999 BKN050 17/09 Q1021 NOSIG
ZGHA,2018-11-03 02:00,ZGHA 030200Z VRB01MPS 9999 BKN050 19/10 Q1022 NOSIG
ZGHA,2018-11-03 03:00,ZGHA 030300Z 12002MPS 040V210 9999 BKN050 20/10 Q1021 NOSIG
ZGHA,2018-11-03 04:00,ZGHA 030400Z 15002MPS 070V230 9999 BKN050 22/11 Q1020 NOSIG
ZGHA,2018-11-03 05:00,ZGHA 030500Z VRB01MPS 9999 SCT050 23/11 Q1019 NOSIG
ZGHA,2018-11-03 06:00,ZGHA 030600Z VRB02MPS 9999 SCT050 23/11 Q1018 NOSIG
ZGHA,2018-11-03 07:00,ZGHA 030700Z VRB01MPS 9999 FEW050 23/11 Q1017 NOSIG
ZGHA,2018-11-03 08:00,ZGHA 030800Z 16002MPS 130V200 9999 SCT040 23/11 Q1017 NOSIG
ZGHA,2018-11-03 09:00,ZGHA 030900Z 14003MPS 050V190 9999 BKN050 22/12 Q1017 NOSIG
ZGHA,2018-11-03 10:00,ZGHA 031000Z 13002MPS 040V200 9999 SCT050 21/12 Q1017 NOSIG
ZGHA,2018-11-03 11:00,ZGHA 031100Z 12002MPS 080V160 9999 SCT050 20/12 Q1018 NOSIG
ZGHA,2018-11-03 12:00,ZGHA 031200Z 10003MPS 060V130 9999 SCT050 20/12 Q1019 NOSIG
ZGHA,2018-11-03 13:00,ZGHA 031300Z VRB01MPS 9999 SCT040 19/12 Q1019 NOSIG
ZGHA,2018-11-03 14:00,ZGHA 031400Z 07002MPS CAVOK 17/14 Q1019 NOSIG
ZGHA,2018-11-03 15:00,ZGHA 031500Z 07002MPS CAVOK 17/13 Q1019 NOSIG
ZGHA,2018-11-03 16:00,ZGHA 031600Z VRB01MPS CAVOK 17/13 Q1019 NOSIG
ZGHA,2018-11-03 17:00,ZGHA 031700Z VRB01MPS CAVOK 15/12 Q1019 NOSIG
ZGHA,2018-11-03 18:00,ZGHA 031800Z VRB01MPS 8000 NSC 15/13 Q1018 NOSIG
ZGHA,2018-11-03 19:00,ZGHA 031900Z VRB01MPS 8000 NSC 14/12 Q1018 NOSIG
ZGHA,2018-11-03 20:00,ZGHA 032000Z 00000MPS 8000 NSC 14/12 Q1018 NOSIG
ZGHA,2018-11-03 21:00,ZGHA 032100Z 00000MPS 8000 NSC 14/12 Q1018 NOSIG
ZGHA,2018-11-03 22:00,ZGHA 032200Z 31001MPS 8000 NSC 14/13 Q1018 NOSIG
ZGHA,2018-11-03 23:00,ZGHA 032300Z VRB02MPS 6000 NSC 15/13 Q1019 NOSIG
ZGHA,2018-11-04 00:00,ZGHA 040000Z VRB01MPS 6000 NSC 16/14 Q1020 NOSIG
ZGHA,2018-11-04 01:00,ZGHA 040100Z VRB01MPS 6000 NSC 18/14 Q1020 NOSIG
ZGHA,2018-11-04 02:00,ZGHA 040200Z VRB01MPS CAVOK 21/14 Q1020 NOSIG
ZGHA,2018-11-04 03:00,ZGHA 040300Z VRB01MPS 9999 FEW050 22/13 Q1019 NOSIG
ZGHA,2018-11-04 04:00,ZGHA 040400Z VRB01MPS 9999 SCT050 24/12 Q1018 NOSIG
ZGHA,2018-11-04 05:00,ZGHA 040500Z VRB01MPS 9999 SCT050 25/12 Q1017 NOSIG
ZGHA,2018-11-04 06:00,ZGHA 040600Z 35002MPS 300V030 9999 FEW050 25/12 Q1016 NOSIG
ZGHA,2018-11-04 07:00,ZGHA 040700Z 34002MPS 270V080 9999 FEW050 25/11 Q1016 NOSIG
ZGHA,2018-11-04 08:00,ZGHA 040800Z 07002MPS 360V150 9999 FEW050 25/12 Q1016 NOSIG
ZGHA,2018-11-04 09:00,ZGHA 040900Z 35004MPS CAVOK 23/12 Q1016 NOSIG
ZGHA,2018-11-04 10:00,ZGHA 041000Z 36005MPS CAVOK 22/13 Q1017 NOSIG
ZGHA,2018-11-04 11:00,ZGHA 041100Z 36005MPS CAVOK 20/13 Q1018 NOSIG
ZGHA,2018-11-04 12:00,ZGHA 041200Z 36004MPS CAVOK 20/13 Q1018 NOSIG
ZGHA,2018-11-04 13:00,ZGHA 041300Z 07002MPS 010V090 CAVOK 19/13 Q1019 NOSIG
ZGHA,2018-11-04 14:00,ZGHA 041400Z 03002MPS 7000 NSC 18/13 Q1020 NOSIG
ZGHA,2018-11-04 15:00,ZGHA 041500Z 01002MPS 7000 NSC 18/13 Q1020 NOSIG
ZGHA,2018-11-04 16:00,ZGHA 041600Z 00000MPS 5000 BR NSC 17/13 Q1020 NOSIG
ZGHA,2018-11-04 17:00,ZGHA 041700Z 00000MPS 5000 BR NSC 16/13 Q1019 NOSIG
ZGHA,2018-11-04 18:00,ZGHA 041800Z VRB01MPS 5000 BR NSC 16/14 Q1019 NOSIG
ZGHA,2018-11-04 19:00,ZGHA 041900Z 30002MPS 5000 BR NSC 15/14 Q1019 NOSIG
ZGHA,2018-11-04 20:00,ZGHA 042000Z 33003MPS 5000 BR NSC 16/13 Q1019 NOSIG
ZGHA,2018-11-04 21:00,ZGHA 042100Z 07003MPS 4500 BR NSC 15/13 Q1018 NOSIG
ZGHA,2018-11-04 22:00,ZGHA 042200Z 35002MPS 330V030 4000 BR NSC 15/13 Q1019 NOSIG
ZGHA,2018-11-04 23:00,ZGHA 042300Z 04003MPS 1700 BR NSC 15/14 Q1019 BECMG TL0050 3500
ZGHA,2018-11-05 00:00,ZGHA 050000Z 32003MPS 300V010 2000 BR NSC 16/13 Q1020 BECMG TL0100 3500
ZGHA,2018-11-05 01:00,ZGHA 050100Z 30002MPS 250V350 3500 BR NSC 18/13 Q1021 NOSIG
ZGHA,2018-11-05 02:00,ZGHA 050200Z 35002MPS 300V040 3500 HZ NSC 20/12 Q1021 NOSIG
ZGHA,2018-11-05 03:00,ZGHA 050300Z 32003MPS 280V020 5000 HZ NSC 21/12 Q1021 NOSIG
ZGHA,2018-11-05 04:00,ZGHA 050400Z 30003MPS 270V340 5000 HZ NSC 22/13 Q1020 NOSIG
ZGHA,2018-11-05 05:00,ZGHA 050500Z 28004MPS 5000 HZ NSC 22/13 Q1019 NOSIG
ZGHA,2018-11-05 06:00,ZGHA 050600Z 29004MPS 5000 HZ NSC 22/12 Q1018 NOSIG
ZGHA,2018-11-05 07:00,ZGHA 050700Z 32005MPS 270V340 5000 HZ NSC 23/13 Q1018 NOSIG
ZGHA,2018-11-05 08:00,ZGHA 050800Z 31005MPS 280V340 5000 HZ NSC 21/12 Q1018 NOSIG
ZGHA,2018-11-05 09:00,ZGHA 050900Z 31005MPS 5000 HZ NSC 19/12 Q1018 NOSIG
ZGHA,2018-11-05 10:00,ZGHA 051000Z 33005MPS 5000 HZ NSC 18/12 Q1018 NOSIG
ZGHA,2018-11-05 11:00,ZGHA 051100Z 34004MPS 4600 BR NSC 17/12 Q1019 NOSIG
ZGHA,2018-11-05 12:00,ZGHA 051200Z 34004MPS 4300 BR NSC 17/12 Q1020 NOSIG
ZGHA,2018-11-05 13:00,ZGHA 051300Z 33004MPS 4000 BR SCT030 16/12 Q1020 NOSIG
ZGHA,2018-11-05 14:00,ZGHA 051400Z 32005MPS 4000 BR SCT020 16/11 Q1021 NOSIG
ZGHA,2018-11-05 15:00,ZGHA 051500Z 32006MPS 4000 BR SCT020 16/11 Q1022 NOSIG
ZGHA,2018-11-05 16:00,ZGHA 051600Z 32005MPS 4000 BR BKN015 OVC030 15/11 Q1021 NOSIG
ZGHA,2018-11-05 17:00,ZGHA 051700Z 33004MPS 3500 BR BKN012 OVC030 15/11 Q1021 NOSIG
ZGHA,2018-11-05 18:00,ZGHA 051800Z 32006MPS 3500 BR BKN009 OVC030 14/11 Q1021 NOSIG
ZGHA,2018-11-05 19:00,ZGHA 051900Z 32005MPS 9000 BKN009 OVC030 13/11 Q1021 NOSIG
ZGHA,2018-11-05 20:00,ZGHA 052000Z 32004MPS 9000 BKN009 OVC030 13/11 Q1021 NOSIG
ZGHA,2018-11-05 21:00,ZGHA 052100Z 34004MPS 8000 BKN008 OVC030 13/12 Q1021 NOSIG
ZGHA,2018-11-05 22:00,ZGHA 052200Z 35005MPS 7000 BKN009 OVC030 13/11 Q1021 BECMG TL2300 BKN010 OVC040
ZGHA,2018-11-05 23:00,ZGHA 052300Z 34006MPS 6000 BKN009 OVC030 12/11 Q1022 NOSIG
ZGHA,2018-11-06 00:00,ZGHA 060000Z 36005MPS 3000 -RA BR BKN008 OVC030 12/11 Q1023 NOSIG
ZGHA,2018-11-06 01:00,ZGHA 060100Z 35006MPS 3000 -RA BR BKN007 OVC030 12/11 Q1024 NOSIG
ZGHA,2018-11-06 02:00,ZGHA 060200Z 35005MPS 6000 -RA BKN009 OVC030 12/11 Q1025 BECMG TL0300 BKN011 OVC040
ZGHA,2018-11-06 03:00,ZGHA 060300Z 35007MPS 7000 -RA BKN011 OVC030 11/10 Q1025 BECMG TL0400 BKN016 OVC040
ZGHA,2018-11-06 04:00,ZGHA 060400Z 34006MPS 9999 BKN012 OVC030 11/10 Q1024 BECMG TL0500 BKN009 OVC040
ZGHA,2018-11-06 05:00,ZGHA 060500Z 34007MPS 9999 -RA BKN012 OVC030 11/09 Q1024 BECMG TL0600 BKN009 OVC040
ZGHA,2018-11-06 06:00,ZGHA 060600Z 34005MPS 4000 -RA BR BKN007 OVC030 11/10 Q1023 NOSIG
ZGHA,2018-11-06 07:00,ZGHA 060700Z 33005MPS 6000 -RA BKN007 OVC030 11/10 Q1023 NOSIG
ZGHA,2018-11-06 08:00,ZGHA 060800Z 33006MPS 5000 -RA BR SCT006 BKN011 OVC040 11/10 Q1024 BECMG TL0900 BKN009 OVC040
ZGHA,2018-11-06 09:00,ZGHA 060900Z 35006MPS 4400 -RA BR FEW006 BKN009 OVC040 10/09 Q1024 BECMG TL1040 BKN011 OVC040
ZGHA,2018-11-06 10:00,ZGHA 061000Z 33006MPS 7000 -SHRA SCT007 BKN020 OVC040 10/09 Q1025 RESHRA BECMG TL1140 BKN014 OVC040
ZGHA,2018-11-06 11:00,ZGHA 061100Z 33006MPS 9999 -SHRA FEW008 BKN020 OVC040 10/09 Q1025 BECMG TL1240 BKN014 OVC040
ZGHA,2018-11-06 12:00,ZGHA 061200Z 34006MPS 9999 -SHRA SCT008 BKN020 OVC040 10/09 Q1026 NOSIG
ZGHA,2018-11-06 13:00,ZGHA 061300Z 34006MPS 9999 -RA SCT010 BKN020 OVC040 10/09 Q1026 NOSIG
ZGHA,2018-11-06 14:00,ZGHA 061400Z 34006MPS 9999 -RA FEW012 BKN020 OVC040 10/09 Q1027 NOSIG
ZGHA,2018-11-06 15:00,ZGHA 061500Z 34006MPS 9999 SCT015 BKN021 OVC050 10/08 Q1027 NOSIG
ZGHA,2018-11-06 16:00,ZGHA 061600Z 34006MPS 9999 -RA BKN013 OVC050 10/08 Q1028 NOSIG
ZGHA,2018-11-06 17:00,ZGHA 061700Z 35006MPS 9999 SCT013 BKN020 OVC050 10/08 Q1027 NOSIG
ZGHA,2018-11-06 18:00,ZGHA 061800Z 35006MPS 9999 SCT011 BKN030 09/08 Q1027 NOSIG
ZGHA,2018-11-06 19:00,ZGHA 061900Z 34005MPS 9999 SCT011 BKN030 09/08 Q1027 NOSIG
ZGHA,2018-11-06 20:00,ZGHA 062000Z 34005MPS 9999 BKN008 OVC050 09/08 Q1026 NOSIG
ZGHA,2018-11-06 21:00,ZGHA 062100Z 35005MPS 7000 BKN008 OVC050 09/08 Q1026 NOSIG
ZGHA,2018-11-06 22:00,ZGHA 062200Z 33005MPS 6000 BKN006 OVC050 09/08 Q1026 BECMG TL2340 BKN011 OVC040
ZGHA,2018-11-06 23:00,ZGHA 062300Z 36006MPS 4500 BR BKN006 OVC050 09/07 Q1027 BECMG TL0040 BKN011 OVC040
ZGHA,2018-11-07 00:00,ZGHA 070000Z 35006MPS 4800 BR BKN007 OVC050 09/07 Q1027 NOSIG
ZGHA,2018-11-07 01:00,ZGHA 070100Z 34005MPS 4800 BR BKN007 OVC050 09/08 Q1027 BECMG TL0240 BKN011 OVC050
ZGHA,2018-11-07 02:00,ZGHA 070200Z 34005MPS 5000 BR BKN008 OVC050 09/07 Q1028 BECMG TL0300 BKN011 OVC050
ZGHA,2018-11-07 03:00,ZGHA 070300Z 34005MPS 5000 BR BKN011 OVC050 10/07 Q1027 NOSIG
ZGHA,2018-11-07 04:00,ZGHA 070400Z 36005MPS 4000 -RA BR BKN008 OVC050 09/08 Q1027 BECMG TL0540 BKN011 OVC050
ZGHA,2018-11-07 05:00,ZGHA 070500Z 36005MPS 3200 -RA BR BKN008 OVC050 09/08 Q1026 BECMG TL0640 BKN011 OVC050
ZGHA,2018-11-07 06:00,ZGHA 070600Z 35005MPS 4000 -RA BR BKN008 OVC050 09/08 Q1025 BECMG TL0740 BKN011 OVC050
ZGHA,2018-11-07 07:00,ZGHA 070700Z 35005MPS 6000 -RA BKN008 BKN016 OVC050 09/08 Q1025 BECMG TL0800 BKN011 OVC050
ZGHA,2018-11-07 08:00,ZGHA 070800Z 35005MPS 8000 -RA BKN010 BKN020 OVC050 09/07 Q1025 NOSIG
ZGHA,2018-11-07 09:00,ZGHA 070900Z 34005MPS 8000 -RA BKN009 BKN020 OVC050 09/07 Q1026 BECMG TL1040 BKN010 OVC040
ZGHA,2018-11-07 10:00,ZGHA 071000Z 35004MPS 9000 -RA BKN007 BKN020 OVC050 09/08 Q1026 BECMG TL1100 BKN010 OVC040
ZGHA,2018-11-07 11:00,ZGHA 071100Z 35004MPS 9999 BKN008 BKN020 OVC050 08/08 Q1026 BECMG TL1200 BKN010 OVC050
ZGHA,2018-11-07 12:00,ZGHA 071200Z 35004MPS 9999 BKN011 OVC050 08/07 Q1026 NOSIG
ZGHA,2018-11-07 13:00,ZGHA 071300Z 33003MPS 300V360 9999 FEW007 BKN010 OVC050 09/07 Q1027 BECMG TL1400 BKN009 OVC050
ZGHA,2018-11-07 14:00,ZGHA 071400Z 36004MPS 8000 BKN008 OVC050 08/07 Q1027 BECMG TL1500 BKN011 OVC050
ZGHA,2018-11-07 15:00,ZGHA 071500Z 35003MPS 8000 SCT007 BKN010 OVC050 08/07 Q1027 BECMG TL1600 BKN008 OVC050
ZGHA,2018-11-07 16:00,ZGHA 071600Z 31003MPS 9000 BKN009 OVC050 09/07 Q1027 BECMG TL1700 BKN012 OVC050
ZGHA,2018-11-07 17:00,ZGHA 071700Z 30003MPS 9000 -RA FEW008 BKN011 OVC050 09/07 Q1027 NOSIG
ZGHA,2018-11-07 18:00,ZGHA 071800Z 32003MPS 9000 -RA FEW008 OVC050 08/07 Q1027 NOSIG
ZGHA,2018-11-07 19:00,ZGHA 071900Z 31003MPS 6000 -RA FEW008 OVC050 08/07 Q1026 NOSIG
ZGHA,2018-11-07 20:00,ZGHA 072000Z 29002MPS 6000 -RA FEW008 OVC050 08/07 Q1026 NOSIG
ZGHA,2018-11-07 21:00,ZGHA 072100Z VRB01MPS 6000 -RA SCT008 OVC050 08/07 Q1026 NOSIG
ZGHA,2018-11-07 22:00,ZGHA 072200Z VRB01MPS 6000 -RA SCT008 BKN011 OVC050 08/07 Q1026 NOSIG
ZGHA,2018-11-07 23:00,ZGHA 072300Z VRB01MPS 6000 -RA SCT007 BKN011 OVC050 08/07 Q1026 BECMG TL0040 BKN015 OVC050
ZGHA,2018-11-08 00:00,ZGHA 080000Z 23002MPS 190V270 9000 FEW007 BKN020 08/07 Q1027 NOSIG
ZGHA,2018-11-08 01:00,ZGHA 080100Z 23002MPS 200V260 9999 FEW010 BKN026 09/08 Q1027 NOSIG
ZGHA,2018-11-08 02:00,ZGHA 080200Z VRB01MPS 9999 FEW014 BKN026 10/06 Q1028 NOSIG
ZGHA,2018-11-08 03:00,ZGHA 080300Z VRB01MPS 9999 FEW014 BKN033 10/07 Q1027 NOSIG
ZGHA,2018-11-08 04:00,ZGHA 080400Z 18002MPS 160V220 9999 FEW014 OVC033 10/07 Q1026 NOSIG
ZGHA,2018-11-08 05:00,ZGHA 080500Z VRB01MPS 9999 FEW014 OVC033 11/07 Q1025 NOSIG
ZGHA,2018-11-08 06:00,ZGHA 080600Z VRB01MPS 9999 BKN020 OVC040 12/07 Q1024 NOSIG
ZGHA,2018-11-08 07:00,ZGHA 080700Z VRB01MPS 9999 BKN020 OVC040 13/07 Q1023 NOSIG
ZGHA,2018-11-08 08:00,ZGHA 080800Z VRB01MPS 9999 BKN020 OVC040 12/07 Q1023 NOSIG
ZGHA,2018-11-08 09:00,ZGHA 080900Z 09002MPS 050V140 9999 BKN020 OVC040 12/07 Q1023 NOSIG
ZGHA,2018-11-08 10:00,ZGHA 081000Z 09002MPS 9999 BKN020 OVC040 12/07 Q1023 NOSIG
ZGHA,2018-11-08 11:00,ZGHA 081100Z 12002MPS 080V170 9999 BKN020 OVC040 12/07 Q1023 NOSIG
ZGHA,2018-11-08 12:00,ZGHA 081200Z VRB01MPS 9999 BKN020 OVC040 11/07 Q1023 NOSIG
ZGHA,2018-11-08 13:00,ZGHA 081300Z 15002MPS 090V190 9000 FEW020 OVC040 10/07 Q1024 NOSIG
ZGHA,2018-11-08 14:00,ZGHA 081400Z 16002MPS 110V210 9000 NSC 09/07 Q1024 NOSIG
ZGHA,2018-11-08 15:00,ZGHA 081500Z 18002MPS 160V240 9000 NSC 09/07 Q1024 NOSIG
ZGHA,2018-11-08 16:00,ZGHA 081600Z VRB01MPS 9000 NSC 08/07 Q1023 NOSIG
ZGHA,2018-11-08 17:00,ZGHA 081700Z 19002MPS 7000 NSC 07/07 Q1023 NOSIG
ZGHA,2018-11-08 18:00,ZGHA 081800Z 16001MPS 8000 NSC 07/07 Q1023 NOSIG
ZGHA,2018-11-08 19:00,ZGHA 081900Z 07002MPS 5000 BR NSC 07/06 Q1023 NOSIG
ZGHA,2018-11-08 20:00,ZGHA 082000Z 04002MPS 0600 R18R/0250N R18L/0250N FG NSC 06/05 Q1022 BECMG TL2100 0400
ZGHA,2018-11-08 21:00,ZGHA 082100Z 06001MPS 0400 R18R/0350N R18L/0350N FG NSC 06/06 Q1022 NOSIG
ZGHA,2018-11-08 22:00,ZGHA 082200Z 14002MPS 0400 R18R/0500N R18L/0375V0500N FG NSC 06/06 Q1022 BECMG TL2350 0600
ZGHA,2018-11-08 23:00,ZGHA 082300Z VRB01MPS 0400 R18R/0350N R18L/0325N FG NSC 06/06 Q1022 BECMG TL0050 0800
ZGHA,2018-11-09 00:00,ZGHA 090000Z 06002MPS 0350 R18R/0275V0400N R18L/0325N FG VV003 07/06 Q1023 BECMG TL0120 0800
ZGHA,2018-11-09 01:00,ZGHA 090100Z 12002MPS 0500 R36L/1400U R36R/1500N FG VV003 08/08 Q1024 BECMG TL0130 1000 BR
ZGHA,2018-11-09 02:00,ZGHA 090200Z 10002MPS 060V150 2400 BR BKN003 OVC016 09/09 Q1023 BECMG TL0300 3000 BKN005
ZGHA,2018-11-09 03:00,ZGHA 090300Z 03003MPS 360V060 3500 BR BKN005 11/10 Q1023 BECMG TL0450 BKN010 OVC050
ZGHA,2018-11-09 04:00,ZGHA 090400Z VRB01MPS CAVOK 15/09 Q1022 NOSIG
ZGHA,2018-11-09 05:00,ZGHA 090500Z 22004MPS CAVOK 17/09 Q1021 NOSIG
ZGHA,2018-11-09 06:00,ZGHA 090600Z 18002MPS 140V230 CAVOK 17/09 Q1020 NOSIG
ZGHA,2018-11-09 07:00,ZGHA 090700Z 23003MPS 200V270 CAVOK 17/08 Q1019 NOSIG
ZGHA,2018-11-09 08:00,ZGHA 090800Z 17001MPS CAVOK 18/09 Q1019 NOSIG
ZGHA,2018-11-09 09:00,ZGHA 090900Z VRB01MPS CAVOK 17/09 Q1019 NOSIG
ZGHA,2018-11-09 10:00,ZGHA 091000Z 05002MPS 010V100 CAVOK 16/10 Q1019 NOSIG
ZGHA,2018-11-09 11:00,ZGHA 091100Z 36003MPS CAVOK 14/10 Q1019 NOSIG
ZGHA,2018-11-09 12:00,ZGHA 091200Z 35002MPS 9000 NSC 14/10 Q1020 NOSIG
ZGHA,2018-11-09 13:00,ZGHA 091300Z VRB01MPS 9000 NSC 14/10 Q1020 NOSIG
ZGHA,2018-11-09 14:00,ZGHA 091400Z 05002MPS 8000 NSC 13/11 Q1020 NOSIG
ZGHA,2018-11-09 15:00,ZGHA 091500Z VRB01MPS 7000 NSC 13/11 Q1020 NOSIG
ZGHA,2018-11-09 16:00,ZGHA 091600Z 32002MPS 250V350 CAVOK 13/11 Q1020 NOSIG
ZGHA,2018-11-09 17:00,ZGHA 091700Z 21002MPS 140V260 9999 -RA NSC 13/11 Q1020 NOSIG
ZGHA,2018-11-09 18:00,ZGHA 091800Z 03002MPS 350V070 6000 -RA SCT033 13/12 Q1020 NOSIG
ZGHA,2018-11-09 19:00,ZGHA 091900Z 06002MPS 6000 NSC 12/12 Q1019 NOSIG
ZGHA,2018-11-09 20:00,ZGHA 092000Z 34002MPS 8000 NSC 12/11 Q1019 NOSIG
ZGHA,2018-11-09 21:00,ZGHA 092100Z 02002MPS 8000 NSC 12/11 Q1019 NOSIG
ZGHA,2018-11-09 22:00,ZGHA 092200Z VRB01MPS 9000 NSC 12/11 Q1020 NOSIG
ZGHA,2018-11-09 23:00,ZGHA 092300Z 31002MPS 270V360 4000 -SHRA BR SCT050 12/11 Q1021 NOSIG
ZGHA,2018-11-10 00:00,ZGHA 100000Z 08003MPS 4500 -RA BR SCT050 12/12 Q1021 NOSIG
ZGHA,2018-11-10 01:00,ZGHA 100100Z 07003MPS 040V100 7000 SHRA SCT033 13/12 Q1022 BECMG TL0110 -RA
ZGHA,2018-11-10 02:00,ZGHA 100200Z 01002MPS 280V090 5000 TSRA BR FEW033CB BKN033 13/12 Q1022 BECMG TL0210 SHRA
ZGHA,2018-11-10 03:00,ZGHA 100300Z 25002MPS 190V320 9999 SCT011 BKN020 OVC050 13/12 Q1022 RETSRA BECMG TL0440 BKN014 OVC050
ZGHA,2018-11-10 04:00,ZGHA 100400Z 29002MPS 240V020 9999 BKN011 OVC050 14/12 Q1021 BECMG TL0540 BKN009 OVC050
ZGHA,2018-11-10 05:00,ZGHA 100500Z VRB01MPS 6000 -RA BKN011 OVC040 14/13 Q1020 RETSRA BECMG TL0640 SCT014 OVC050
ZGHA,2018-11-10 06:00,ZGHA 100600Z 01002MPS 6000 -RA BKN008 OVC040 14/13 Q1019 BECMG TL0740 BKN011 OVC050
ZGHA,2018-11-10 07:00,ZGHA 100700Z 02003MPS 6000 BKN008 BKN040 15/13 Q1019 BECMG TL0840 BKN011 OVC050
ZGHA,2018-11-10 08:00,ZGHA 100800Z 36002MPS 7000 BKN008 OVC040 14/13 Q1019 BECMG TL0940 BKN011 OVC050
ZGHA,2018-11-10 09:00,ZGHA 100900Z 02002MPS 6000 BKN012 14/13 Q1019 BECMG TL1050 BKN016 OVC050
ZGHA,2018-11-10 10:00,ZGHA 101000Z VRB01MPS 8000 SCT016 BKN040 14/13 Q1019 NOSIG
ZGHA,2018-11-10 11:00,ZGHA 101100Z 35002MPS 8000 BKN040 14/13 Q1020 NOSIG
ZGHA,2018-11-10 12:00,ZGHA 101200Z 35003MPS 7000 SCT011 OVC040 14/13 Q1020 BECMG TL1350 BKN011 OVC040
ZGHA,2018-11-10 13:00,ZGHA 101300Z 35002MPS 7000 BKN016 OVC040 14/13 Q1020 NOSIG
ZGHA,2018-11-10 14:00,ZGHA 101400Z 34003MPS 7000 BKN016 OVC040 14/13 Q1021 NOSIG
ZGHA,2018-11-10 15:00,ZGHA 101500Z 34003MPS 5000 BR BKN016 OVC040 14/13 Q1021 NOSIG
ZGHA,2018-11-10 16:00,ZGHA 101600Z 35003MPS 5000 BR BKN008 OVC033 14/13 Q1021 BECMG TL1750 BKN011 OVC040
ZGHA,2018-11-10 17:00,ZGHA 101700Z 36004MPS 3000 -RA BR BKN004 OVC033 14/13 Q1021 BECMG TL1800 2500
ZGHA,2018-11-10 18:00,ZGHA 101800Z 36004MPS 2600 -RA BR BKN004 OVC033 13/13 Q1021 NOSIG
ZGHA,2018-11-10 19:00,ZGHA 101900Z 34004MPS 6000 BKN006 OVC033 13/12 Q1021 NOSIG
ZGHA,2018-11-10 20:00,ZGHA 102000Z 34004MPS 5000 -RA BR BKN006 OVC040 13/12 Q1021 NOSIG
ZGHA,2018-11-10 21:00,ZGHA 102100Z 35004MPS 5000 BR BKN014 13/12 Q1021 NOSIG
ZGHA,2018-11-10 22:00,ZGHA 102200Z 32003MPS 5000 BR BKN010 OVC050 13/12 Q1021 BECMG TL2350 BKN016 OVC050
ZGHA,2018-11-10 23:00,ZGHA 102300Z 34004MPS 3600 BR FEW004 BKN010 OVC040 13/12 Q1022 BECMG TL2400 BKN008 OVC050
ZGHA,2018-11-11 00:00,ZGHA 110000Z 33003MPS 5000 -SHRA BR BKN008 OVC040 13/12 Q1022 NOSIG
ZGHA,2018-11-11 01:00,ZGHA 110100Z 34004MPS 6000 -RA FEW007 BKN011 OVC050 13/12 Q1023 BECMG TL0200 BKN016 OVC050
ZGHA,2018-11-11 02:00,ZGHA 110200Z 34004MPS 5000 -RA BR SCT007 BKN010 OVC050 13/12 Q1023 BECMG TL0300 BKN009 OVC050
ZGHA,2018-11-11 03:00,ZGHA 110300Z 35004MPS 6000 FEW007 BKN009 OVC050 15/13 Q1022 BECMG TL0400 BKN011 OVC050
ZGHA,2018-11-11 04:00,ZGHA 110400Z 36005MPS 6000 -RA FEW008 BKN011 OVC050 15/12 Q1022 BECMG TL0500 BKN009 OVC050
ZGHA,2018-11-11 05:00,ZGHA 110500Z 34005MPS 7000 FEW008 BKN011 OVC050 14/12 Q1021 BECMG TL0600 BKN016 OVC050
ZGHA,2018-11-11 06:00,ZGHA 110600Z 35006MPS 5000 -RA BR FEW009 BKN015 OVC050 14/12 Q1020 BECMG TL0700 BKN013 OVC050
ZGHA,2018-11-11 07:00,ZGHA 110700Z 35005MPS 4200 -RA BR SCT009 BKN020 OVC050 14/12 Q1020 BECMG TL0800 BKN013 OVC050
ZGHA,2018-11-11 08:00,ZGHA 110800Z 35005MPS 2600 -RA BR BKN013 OVC050 13/12 Q1020 BECMG TL0900 3500 BKN016 OVC050
ZGHA,2018-11-11 09:00,ZGHA 110900Z 34004MPS 2200 -SHRA BR BKN014 OVC050 13/12 Q1020 RESHRA BECMG TL1000 3000 BKN015 OVC050
ZGHA,2018-11-11 10:00,ZGHA 111000Z 34004MPS 3800 -SHRA BR FEW007 BKN013 OVC050 13/12 Q1021 BECMG TL1100 BKN015 OVC050
ZGHA,2018-11-11 11:00,ZGHA 111100Z 34004MPS 4500 -SHRA BR SCT009 BKN020 OVC050 13/12 Q1021 NOSIG
ZGHA,2018-11-11 12:00,ZGHA 111200Z 36004MPS 4200 BR SCT012 BKN020 OVC050 13/12 Q1021 NOSIG
ZGHA,2018-11-11 13:00,ZGHA 111300Z 34004MPS 4000 BR SCT007 BKN012 OVC040 13/12 Q1022 BECMG TL1350 BKN015 OVC050
ZGHA,2018-11-11 14:00,ZGHA 111400Z 36004MPS 3500 -DZ BR SCT006 BKN012 OVC033 13/12 Q1022 BECMG TL1500 2800 BKN009 OVC050
ZGHA,2018-11-11 15:00,ZGHA 111500Z 33004MPS 3000 -RA BR SCT005 BKN007 OVC033 13/12 Q1022 BECMG TL1530 2500 RA BR
ZGHA,2018-11-11 16:00,ZGHA 111600Z 33005MPS 3000 -RA BR SCT004 BKN007 OVC033 13/12 Q1022 BECMG TL1700 2500
ZGHA,2018-11-11 17:00,ZGHA 111700Z 01006MPS 2500 -RA BR FEW005 BKN011 OVC033 13/12 Q1021 NOSIG
ZGHA,2018-11-11 18:00,ZGHA 111800Z 01004MPS 3000 BR SCT005 BKN011 OVC033 12/12 Q1020 NOSIG
ZGHA,2018-11-11 19:00,ZGHA 111900Z 32004MPS 3200 BR SCT005 BKN011 OVC033 13/12 Q1021 NOSIG
ZGHA,2018-11-11 20:00,ZGHA 112000Z 33004MPS 3200 BR BKN012 OVC033 12/12 Q1021 NOSIG
ZGHA,2018-11-11 21:00,ZGHA 112100Z 34004MPS 3200 BR BKN012 OVC033 13/12 Q1021 NOSIG
ZGHA,2018-11-11 22:00,ZGHA 112200Z 31003MPS 3200 BR BKN014 OVC033 13/12 Q1021 BECMG TL2300 2800
ZGHA,2018-11-11 23:00,ZGHA 112300Z 03003MPS 1800 -RA BR SCT007 BKN014 OVC033 13/12 Q1021 BECMG TL0050 BKN009 OVC050
ZGHA,2018-11-12 00:00,ZGHA 120000Z 01004MPS 1600 -RA BR SCT005 BKN009 OVC033 12/12 Q1021 BECMG TL0100 BKN010 OVC050
ZGHA,2018-11-12 01:00,ZGHA 120100Z 35005MPS 1600 -RA BR SCT005 BKN012 OVC033 13/12 Q1022 BECMG TL0240 3000
ZGHA,2018-11-12 02:00,ZGHA 120200Z 34003MPS 1600 -RA BR SCT005 BKN012 OVC033 13/12 Q1022 BECMG TL0340 3200
ZGHA,2018-11-12 03:00,ZGHA 120300Z 35004MPS 1600 BR SCT005 BKN012 OVC033 13/12 Q1022 BECMG TL0440 3200
ZGHA,2018-11-12 04:00,ZGHA 120400Z 35005MPS 1600 BR FEW007 BKN012 OVC033 13/12 Q1022 BECMG TL0540 3200
ZGHA,2018-11-12 05:00,ZGHA 120500Z 34005MPS 1200 R36L/1200V1400N R36R/1200V1400N -RA BR FEW005 BKN012 OVC033 13/12 Q1021 BECMG TL0600 1600
ZGHA,2018-11-12 06:00,ZGHA 120600Z 01004MPS 1200 R36L/1000V1300N R36R/1000V1300U -RA BR FEW005 BKN012 OVC033 13/13 Q1020 BECMG TL0700 1600
ZGHA,2018-11-12 07:00,ZGHA 120700Z 36004MPS 1400 R36L/1600U R36R/1700U BR SCT007 BKN012 OVC033 13/13 Q1020 BECMG TL0800 1600
ZGHA,2018-11-12 08:00,ZGHA 120800Z 34004MPS 1600 BR SCT007 BKN012 OVC033 14/12 Q1020 BECMG TL0940 3200
ZGHA,2018-11-12 09:00,ZGHA 120900Z 36004MPS 1600 BR SCT007 OVC033 13/12 Q1020 BECMG TL1040 BKN011 OVC050
ZGHA,2018-11-12 10:00,ZGHA 121000Z 36004MPS 2800 BR BKN020 OVC040 13/12 Q1020 NOSIG
ZGHA,2018-11-12 11:00,ZGHA 121100Z 36003MPS 3000 BR BKN020 OVC040 13/12 Q1021 NOSIG
ZGHA,2018-11-12 12:00,ZGHA 121200Z 36002MPS 3000 BR BKN020 OVC040 13/12 Q1021 NOSIG
ZGHA,2018-11-12 13:00,ZGHA 121300Z 34002MPS 3000 BR BKN016 OVC040 13/12 Q1021 BECMG TL1400 2800
ZGHA,2018-11-12 14:00,ZGHA 121400Z 06001MPS 2500 BR BKN016 OVC040 13/12 Q1021 BECMG TL1540 BKN011 OVC040
ZGHA,2018-11-12 15:00,ZGHA 121500Z 35002MPS 2500 BR BKN016 OVC040 13/12 Q1021 BECMG TL1600 3000
ZGHA,2018-11-12 16:00,ZGHA 121600Z 35002MPS 3000 BR BKN014 OVC040 13/12 Q1021 BECMG TL1700 2500
ZGHA,2018-11-12 17:00,ZGHA 121700Z 30002MPS 2500 BR BKN014 OVC040 14/12 Q1021 NOSIG
ZGHA,2018-11-12 18:00,ZGHA 121800Z 03003MPS 2500 BR BKN014 OVC040 13/12 Q1021 NOSIG
ZGHA,2018-11-12 19:00,ZGHA 121900Z 03002MPS 2500 BR BKN014 OVC040 13/13 Q1020 NOSIG
ZGHA,2018-11-12 20:00,ZGHA 122000Z 02001MPS 2500 BR BKN008 OVC040 13/12 Q1020 NOSIG
ZGHA,2018-11-12 21:00,ZGHA 122100Z 05001MPS 2500 BR BKN008 OVC040 13/12 Q1019 NOSIG
ZGHA,2018-11-12 22:00,ZGHA 122200Z 34002MPS 2500 BR BKN006 OVC040 13/13 Q1019 BECMG TL2340 3000 BKN011 OVC050
ZGHA,2018-11-12 23:00,ZGHA 122300Z 35002MPS 2500 BR BKN006 OVC040 13/12 Q1020 BECMG TL0040 3000 BKN011 OVC050
ZGHA,2018-11-13 00:00,ZGHA 130000Z 05002MPS 1300 R36L/1500U R36R/1600U BR BKN008 OVC040 13/13 Q1020 BECMG TL0100 3000 BKN011 OVC050
ZGHA,2018-11-13 01:00,ZGHA 130100Z VRB01MPS 2000 BR BKN006 OVC040 14/13 Q1020 BECMG TL0200 3000
ZGHA,2018-11-13 02:00,ZGHA 130200Z VRB01MPS 3000 BR BKN007 OVC040 14/13 Q1020 BECMG TL0300 BKN010 OVC040
ZGHA,2018-11-13 03:00,ZGHA 130300Z VRB01MPS 3000 -RA BR BKN010 OVC040 14/13 Q1020 BECMG TL0400 2800 BKN009 OVC040
ZGHA,2018-11-13 04:00,ZGHA 130400Z VRB01MPS 3000 -RA BR BKN008 OVC040 15/13 Q1019 BECMG TL0500 2800
ZGHA,2018-11-13 05:00,ZGHA 130500Z 02002MPS 350V050 2600 -RA BR BKN008 OVC040 14/14 Q1018 BECMG TL0650 3000 BKN010 OVC040
ZGHA,2018-11-13 06:00,ZGHA 130600Z 01002MPS 2600 -RA BR FEW005 BKN008 OVC033 14/14 Q1018 BECMG TL0700 3000 BKN010 OVC040
ZGHA,2018-11-13 07:00,ZGHA 130700Z 01003MPS 2800 -RA BR FEW004 BKN007 OVC033 14/13 Q1017 BECMG TL0800 3000
ZGHA,2018-11-13 08:00,ZGHA 130800Z 03002MPS 3000 -RA BR FEW005 BKN007 OVC033 14/14 Q1017 BECMG TL0900 2800
ZGHA,2018-11-13 09:00,ZGHA 130900Z 02003MPS 2900 -RA BR FEW004 BKN008 OVC033 14/14 Q1017 BECMG TL1000 3000
ZGHA,2018-11-13 10:00,ZGHA 131000Z 01003MPS 4500 -RA BR SCT009 BKN020 OVC050 14/14 Q1017 NOSIG
ZGHA,2018-11-13 11:00,ZGHA 131100Z 03002MPS 4200 -RA BR FEW009 BKN026 OVC050 14/13 Q1017 NOSIG
ZGHA,2018-11-13 12:00,ZGHA 131200Z 01003MPS 4200 -RA BR FEW008 BKN027 OVC050 14/14 Q1018 NOSIG
ZGHA,2018-11-13 13:00,ZGHA 131300Z 01003MPS 4500 BR SCT027 OVC050 14/14 Q1018 NOSIG
ZGHA,2018-11-13 14:00,ZGHA 131400Z 35003MPS 4000 BR SCT028 OVC050 14/13 Q1018 NOSIG
ZGHA,2018-11-13 15:00,ZGHA 131500Z 02003MPS 3200 BR SCT025 OVC040 14/13 Q1018 NOSIG
ZGHA,2018-11-13 16:00,ZGHA 131600Z 34002MPS 3200 BR FEW004 BKN012 OVC033 14/13 Q1018 BECMG TL1700 2900
ZGHA,2018-11-13 17:00,ZGHA 131700Z 04002MPS 2600 -RA BR FEW004 BKN014 OVC050 14/13 Q1018 NOSIG
ZGHA,2018-11-13 18:00,ZGHA 131800Z 01003MPS 2800 BR FEW003 BKN020 OVC050 14/14 Q1018 NOSIG
ZGHA,2018-11-13 19:00,ZGHA 131900Z 35002MPS 3000 BR SCT003 BKN020 OVC033 14/14 Q1018 NOSIG
ZGHA,2018-11-13 20:00,ZGHA 132000Z 36003MPS 2800 BR SCT002 BKN004 OVC033 14/13 Q1017 NOSIG
ZGHA,2018-11-13 21:00,ZGHA 132100Z 06002MPS 020V080 3100 -RA BR FEW005 BKN014 OVC033 14/14 Q1016 NOSIG
ZGHA,2018-11-13 22:00,ZGHA 132200Z 31001MPS 3500 BR FEW003 BKN008 OVC033 14/14 Q1017 BECMG TL2350 BKN011 OVC040
ZGHA,2018-11-13 23:00,ZGHA 132300Z 04002MPS 2100 -RA BR FEW003 BKN008 OVC033 14/13 Q1017 BECMG TL0040 3000 BKN011 OVC040
ZGHA,2018-11-14 00:00,ZGHA 140000Z 01002MPS 3000 -RA BR FEW006 BKN011 OVC033 14/14 Q1018 BECMG TL0100 2900
ZGHA,2018-11-14 01:00,ZGHA 140100Z 35003MPS 2000 -RA BR FEW004 BKN011 OVC033 14/14 Q1019 BECMG TL0200 BKN009 OVC050
ZGHA,2018-11-14 02:00,ZGHA 140200Z 34002MPS 1800 -RA BR FEW004 BKN008 OVC033 14/14 Q1019 BECMG TL0300 BKN011 OVC050
ZGHA,2018-11-14 03:00,ZGHA 140300Z 36003MPS 3500 -RA BR FEW004 BKN008 OVC033 14/14 Q1019 BECMG TL0450 BKN011 OVC050
ZGHA,2018-11-14 04:00,ZGHA 140400Z 01003MPS 3500 -RA BR FEW004 BKN008 OVC033 15/14 Q1018 BECMG TL0550 BKN011 OVC050
ZGHA,2018-11-14 05:00,ZGHA 140500Z 03002MPS 5000 -RA BR FEW004 BKN012 OVC040 15/14 Q1017 BECMG TL0650 BKN009 OVC040
ZGHA,2018-11-14 06:00,ZGHA 140600Z 02003MPS 6000 -RA FEW004 BKN012 OVC040 15/14 Q1016 BECMG TL0750 BKN009 OVC040
ZGHA,2018-11-14 07:00,ZGHA 140700Z 02002MPS 7000 -RA FEW005 BKN009 OVC040 15/14 Q1016 BECMG TL0800 BKN011 OVC040
ZGHA,2018-11-14 08:00,ZGHA 140800Z 01003MPS 7000 -RA FEW005 BKN011 OVC040 15/14 Q1016 BECMG TL0900 BKN009 OVC040
ZGHA,2018-11-14 09:00,ZGHA 140900Z 36003MPS 4500 -RA BR SCT006 BKN009 OVC040 15/14 Q1017 BECMG TL1000 BKN011 OVC040
ZGHA,2018-11-14 10:00,ZGHA 141000Z 02003MPS 8000 -RA FEW007 BKN014 OVC040 15/14 Q1017 BECMG TL1100 BKN015 OVC040
ZGHA,2018-11-14 11:00,ZGHA 141100Z 01003MPS 6000 -RA SCT006 BKN015 OVC040 15/14 Q1017 BECMG TL1200 BKN013 OVC040
ZGHA,2018-11-14 12:00,ZGHA 141200Z 36004MPS 6000 -RA SCT005 BKN010 OVC040 15/14 Q1018 BECMG TL1300 BKN009 OVC040
ZGHA,2018-11-14 13:00,ZGHA 141300Z 36003MPS 5000 -RA BR SCT004 BKN009 OVC040 14/14 Q1018 BECMG TL1400 BKN011 OVC040
ZGHA,2018-11-14 14:00,ZGHA 141400Z 36003MPS 4500 -SHRA BR SCT004 BKN009 OVC040 14/14 Q1019 BECMG TL1500 BKN011 OVC040
ZGHA,2018-11-14 15:00,ZGHA 141500Z 35005MPS 4000 -SHRA BR SCT004 BKN013 OVC040 14/14 Q1019 BECMG TL1600 BKN009 OVC040
ZGHA,2018-11-14 16:00,ZGHA 141600Z 34004MPS 4500 -SHRA BR SCT004 BKN013 OVC040 14/14 Q1019 RERA BECMG TL1700 BKN009 OVC040
ZGHA,2018-11-14 17:00,ZGHA 141700Z 33003MPS 300V010 5000 -RA BR SCT004 BKN012 OVC040 14/14 Q1019 NOSIG
ZGHA,2018-11-14 18:00,ZGHA 141800Z 03002MPS 350V060 5000 -RA BR BKN004 OVC040 14/14 Q1018 NOSIG
ZGHA,2018-11-14 19:00,ZGHA 141900Z 36003MPS 6000 BKN006 OVC040 14/14 Q1018 NOSIG
ZGHA,2018-11-14 20:00,ZGHA 142000Z 36004MPS 4500 -RA BR BKN005 OVC040 14/14 Q1018 NOSIG
ZGHA,2018-11-14 21:00,ZGHA 142100Z 35005MPS 4000 -RA BR BKN006 OVC040 14/14 Q1018 NOSIG
ZGHA,2018-11-14 22:00,ZGHA 142200Z 01004MPS 5000 -RA BR BKN006 OVC040 14/14 Q1018 NOSIG
ZGHA,2018-11-14 23:00,ZGHA 142300Z 36004MPS 3200 -RA BR BKN006 OVC040 14/13 Q1019 BECMG TL0050 BKN011 OVC040
ZGHA,2018-11-15 00:00,ZGHA 150000Z 01004MPS 3000 BR BKN008 BKN050 14/14 Q1020 BECMG TL0050 BKN011 OVC040
ZGHA,2018-11-15 01:00,ZGHA 150100Z 34005MPS 3000 BR BKN008 OVC050 14/14 Q1020 NOSIG
ZGHA,2018-11-15 02:00,ZGHA 150200Z 34004MPS 3000 -RA BR FEW004 BKN011 OVC050 14/14 Q1021 NOSIG
ZGHA,2018-11-15 03:00,ZGHA 150300Z 36005MPS 6000 FEW006 BKN011 OVC050 14/13 Q1020 BECMG TL0450 BKN015 OVC050
ZGHA,2018-11-15 04:00,ZGHA 150400Z 35005MPS 4500 -RA BR FEW006 BKN011 OVC050 14/14 Q1020 BECMG TL0500 BKN009 OVC050
ZGHA,2018-11-15 05:00,ZGHA 150500Z 35005MPS 4500 -RA BR BKN008 OVC050 14/14 Q1019 BECMG TL0600 BKN011 OVC050
ZGHA,2018-11-15 06:00,ZGHA 150600Z 34005MPS 4500 BR BKN008 OVC050 14/13 Q1019 BECMG TL0750 BKN011 OVC050
ZGHA,2018-11-15 07:00,ZGHA 150700Z 34004MPS 4200 -DZ BR BKN007 OVC050 14/13 Q1019 BECMG TL0800 2900
ZGHA,2018-11-15 08:00,ZGHA 150800Z 34004MPS 3200 -DZ BR BKN006 OVC040 14/13 Q1019 BECMG TL0900 2900
ZGHA,2018-11-15 09:00,ZGHA 150900Z 34004MPS 2900 BR BKN006 OVC040 14/13 Q1020 BECMG TL1040 3200
ZGHA,2018-11-15 10:00,ZGHA 151000Z 34004MPS 4500 BR BKN006 OVC040 14/13 Q1020 NOSIG
ZGHA,2018-11-15 11:00,ZGHA 151100Z 33005MPS 3800 BR BKN006 OVC040 14/13 Q1020 NOSIG
ZGHA,2018-11-15 12:00,ZGHA 151200Z 34005MPS 4000 BR BKN006 OVC040 14/13 Q1021 NOSIG
ZGHA,2018-11-15 13:00,ZGHA 151300Z 35005MPS 3000 BR BKN004 OVC040 13/13 Q1021 BECMG TL1400 2500
ZGHA,2018-11-15 14:00,ZGHA 151400Z 34004MPS 2600 BR BKN004 OVC040 13/13 Q1022 NOSIG
ZGHA,2018-11-15 15:00,ZGHA 151500Z 33004MPS 2600 BR BKN005 OVC040 13/13 Q1022 BECMG TL1600 3200
ZGHA,2018-11-15 16:00,ZGHA 151600Z 34005MPS 2600 -RA BR BKN005 OVC040 13/13 Q1022 BECMG BKN004 OVC050
ZGHA,2018-11-15 17:00,ZGHA 151700Z 02003MPS 2600 BR BKN004 OVC040 13/13 Q1021 NOSIG
ZGHA,2018-11-15 18:00,ZGHA 151800Z 34004MPS 2600 BR BKN004 OVC040 13/13 Q1021 NOSIG
ZGHA,2018-11-15 19:00,ZGHA 151900Z 35004MPS 2600 -DZ BR BKN005 OVC040 13/13 Q1020 NOSIG
ZGHA,2018-11-15 20:00,ZGHA 152000Z 35003MPS 2000 BR BKN004 OVC040 13/13 Q1020 NOSIG
ZGHA,2018-11-15 21:00,ZGHA 152100Z 36004MPS 1800 -RA BR FEW003 BKN004 OVC040 13/13 Q1020 NOSIG
ZGHA,2018-11-15 22:00,ZGHA 152200Z 34004MPS 2800 -RA BR BKN004 OVC040 13/13 Q1022 NOSIG
ZGHA,2018-11-15 23:00,ZGHA 152300Z 36004MPS 2400 -RA BR BKN004 OVC040 13/13 Q1022 BECMG TL0040 3000 BKN006 OVC050
ZGHA,2018-11-16 00:00,ZGHA 160000Z 36004MPS 2400 -RA BR BKN004 OVC040 13/13 Q1022 BECMG TL0100 3000 BKN006 OVC050
ZGHA,2018-11-16 01:00,ZGHA 160100Z 34004MPS 2500 -RA BR BKN008 OVC040 14/13 Q1023 BECMG TL0200 3000 BKN011 OVC050
ZGHA,2018-11-16 02:00,ZGHA 160200Z 33003MPS 3000 -RA BR BKN008 OVC040 14/13 Q1024 BECMG TL0340 BKN011 OVC050
ZGHA,2018-11-16 03:00,ZGHA 160300Z 34004MPS 3000 -RA BR BKN008 OVC040 14/13 Q1023 BECMG TL0440 BKN011 OVC050
ZGHA,2018-11-16 04:00,ZGHA 160400Z 36004MPS 3300 -RA BR BKN008 OVC040 14/14 Q1022 BECMG TL0540 BKN011 OVC050
ZGHA,2018-11-16 05:00,ZGHA 160500Z 01005MPS 6000 BKN010 OVC040 14/13 Q1021 BECMG TL0640 BKN009 OVC050
ZGHA,2018-11-16 06:00,ZGHA 160600Z 36004MPS 7000 BKN010 OVC040 14/13 Q1020 BECMG TL0700 BKN009 OVC050
ZGHA,2018-11-16 07:00,ZGHA 160700Z 34004MPS 8000 BKN009 OVC040 14/13 Q1020 BECMG TL0850 BKN014 OVC050
ZGHA,2018-11-16 08:00,ZGHA 160800Z 34003MPS 300V360 5000 -RA BR BKN009 OVC040 14/13 Q1020 BECMG TL0950 BKN014 OVC050
ZGHA,2018-11-16 09:00,ZGHA 160900Z 36004MPS 3500 -RA BR BKN005 OVC040 14/13 Q1020 BECMG TL1050 2800
ZGHA,2018-11-16 10:00,ZGHA 161000Z 36004MPS 3000 -RA BR BKN005 OVC040 13/13 Q1020 BECMG TL1100 2800
ZGHA,2018-11-16 11:00,ZGHA 161100Z 04002MPS 2400 -RA BR SCT003 BKN004 OVC040 13/13 Q1021 BECMG TL1250 3200 BKN006 OVC040
ZGHA,2018-11-16 12:00,ZGHA 161200Z 05003MPS 020V080 5000 -RA BR BKN009 OVC040 13/13 Q1021 BECMG TL1300 BKN011 OVC040
ZGHA,2018-11-16 13:00,ZGHA 161300Z 34003MPS 310V010 5000 -DZ BR FEW006 BKN016 OVC040 13/13 Q1022 NOSIG
ZGHA,2018-11-16 14:00,ZGHA 161400Z 36003MPS 4500 -DZ BR FEW008 BKN018 OVC040 13/13 Q1022 NOSIG
ZGHA,2018-11-16 15:00,ZGHA 161500Z 33002MPS 290V360 5000 BR FEW008 BKN016 OVC040 13/13 Q1022 BECMG TL1650 BKN014 OVC040
ZGHA,2018-11-16 16:00,ZGHA 161600Z 34003MPS 5000 -RA BR FEW008 BKN012 OVC040 13/12 Q1023 BECMG TL1700 BKN009 OVC040
ZGHA,2018-11-16 17:00,ZGHA 161700Z 36004MPS 5000 -RA BR FEW004 BKN008 OVC040 13/12 Q1022 NOSIG
ZGHA,2018-11-16 18:00,ZGHA 161800Z 36003MPS 4000 -RA BR FEW003 BKN008 OVC040 12/12 Q1022 NOSIG
ZGHA,2018-11-16 19:00,ZGHA 161900Z 03002MPS 3200 -RA BR SCT003 BKN005 OVC040 12/12 Q1021 BECMG TL2000 2500
ZGHA,2018-11-16 20:00,ZGHA 162000Z 36004MPS 4000 BR SCT003 BKN007 OVC040 12/12 Q1021 NOSIG
ZGHA,2018-11-16 21:00,ZGHA 162100Z 36002MPS 4000 -RA BR SCT003 BKN007 OVC040 12/12 Q1021 NOSIG
ZGHA,2018-11-16 22:00,ZGHA 162200Z 35003MPS 4000 -RA BR FEW005 BKN011 OVC040 12/12 Q1021 BECMG TL2300 BKN009 OVC040
ZGHA,2018-11-16 23:00,ZGHA 162300Z 01003MPS 2700 -RA BR FEW004 BKN011 OVC040 12/12 Q1021 BECMG TL0050 3200
ZGHA,2018-11-17 00:00,ZGHA 170000Z 34004MPS 3000 -RA BR SCT005 BKN012 OVC040 12/12 Q1022 BECMG TL0150 BKN016 OVC050
ZGHA,2018-11-17 01:00,ZGHA 170100Z 36003MPS 2000 -RA BR SCT005 BKN010 OVC040 12/12 Q1022 BECMG TL0200 3500 BKN009 OVC050
ZGHA,2018-11-17 02:00,ZGHA 170200Z 33003MPS 2000 -RA BR SCT005 BKN008 OVC040 13/12 Q1023 BECMG TL0300 3500 BKN011 OVC050
ZGHA,2018-11-17 03:00,ZGHA 170300Z 36003MPS 2500 -RA BR SCT005 BKN010 OVC040 13/12 Q1022 NOSIG
ZGHA,2018-11-17 04:00,ZGHA 170400Z 34003MPS 300V020 3000 -RA BR SCT006 BKN010 OVC040 13/12 Q1022 BECMG TL0500 BKN016 OVC050
ZGHA,2018-11-17 05:00,ZGHA 170500Z 02002MPS 1800 -RA BR SCT004 BKN008 OVC040 13/12 Q1020 BECMG TL0600 BKN011 OVC050
ZGHA,2018-11-17 06:00,ZGHA 170600Z 34003MPS 1800 -RA BR SCT004 BKN008 OVC040 13/12 Q1020 BECMG TL0700 BKN011 OVC050
ZGHA,2018-11-17 07:00,ZGHA 170700Z 35004MPS 2600 -RA BR SCT004 BKN008 OVC040 12/12 Q1020 BECMG TL0800 3500 BKN011 OVC050
ZGHA,2018-11-17 08:00,ZGHA 170800Z 36003MPS 2600 -RA BR BKN004 OVC040 12/12 Q1020 BECMG TL0900 BKN006 OVC050
ZGHA,2018-11-17 09:00,ZGHA 170900Z 34003MPS 5000 BR BKN005 OVC040 12/12 Q1020 BECMG TL1050 BKN010 OVC050
ZGHA,2018-11-17 10:00,ZGHA 171000Z 34004MPS 9999 BKN009 OVC050 12/11 Q1020 BECMG TL1100 BKN010 OVC050
ZGHA,2018-11-17 11:00,ZGHA 171100Z 31004MPS 7000 BKN006 OVC050 12/11 Q1021 BECMG TL1250 BKN010 OVC050
ZGHA,2018-11-17 12:00,ZGHA 171200Z 33004MPS 4000 -RA BR BKN004 OVC050 11/11 Q1021 BECMG TL1300 BKN005 OVC040
ZGHA,2018-11-17 13:00,ZGHA 171300Z 34006MPS 4000 -RA BR BKN005 OVC040 11/11 Q1022 BECMG TL1450 BKN010 OVC040
ZGHA,2018-11-17 14:00,ZGHA 171400Z 31004MPS 290V350 4000 -RA BR BKN005 OVC040 11/10 Q1022 BECMG TL1500 BKN004 OVC040
ZGHA,2018-11-17 15:00,ZGHA 171500Z 34007MPS 5000 -RA BR BKN004 OVC040 10/10 Q1022 BECMG TL1600 BKN005 OVC040
ZGHA,2018-11-17 16:00,ZGHA 171600Z 33005MPS 6000 -RA BKN007 OVC040 10/09 Q1023 BECMG TL1750 BKN010 OVC040
ZGHA,2018-11-17 17:00,ZGHA 171700Z 35005MPS 7000 -RA BKN008 OVC040 10/09 Q1022 NOSIG
ZGHA,2018-11-17 18:00,ZGHA 171800Z 34004MPS 8000 BKN008 OVC040 09/09 Q1021 NOSIG
ZGHA,2018-11-17 19:00,ZGHA 171900Z 33004MPS 9999 BKN012 OVC040 09/09 Q1021 NOSIG
ZGHA,2018-11-17 20:00,ZGHA 172000Z 32004MPS 6000 -RA BKN005 OVC040 09/09 Q1021 NOSIG
ZGHA,2018-11-17 21:00,ZGHA 172100Z 35007MPS 8000 -RA BKN007 BKN020 OVC050 09/08 Q1021 NOSIG
ZGHA,2018-11-17 22:00,ZGHA 172200Z 34007MPS 8000 -RA BKN007 BKN020 OVC050 09/08 Q1022 NOSIG
ZGHA,2018-11-17 23:00,ZGHA 172300Z 35006MPS 8000 -RA BKN007 BKN030 09/08 Q1023 BECMG TL2400 BKN010 OVC040
ZGHA,2018-11-18 00:00,ZGHA 180000Z 34006MPS 9999 BKN011 OVC033 09/08 Q1024 BECMG TL0100 BKN015 OVC050
ZGHA,2018-11-18 01:00,ZGHA 180100Z 34006MPS 9999 BKN011 OVC033 09/07 Q1025 BECMG TL0240 BKN015 OVC050
ZGHA,2018-11-18 02:00,ZGHA 180200Z 36006MPS 9999 BKN011 OVC040 09/07 Q1026 BECMG TL0340 BKN015 OVC050
ZGHA,2018-11-18 03:00,ZGHA 180300Z 34006MPS 9999 -RA BKN011 BKN027 OVC050 09/07 Q1026 BECMG TL0400 BKN015 OVC050
ZGHA,2018-11-18 04:00,ZGHA 180400Z 35007MPS 9999 BKN015 BKN030 OVC050 10/07 Q1025 NOSIG
ZGHA,2018-11-18 05:00,ZGHA 180500Z 33005MPS 300V360 9999 BKN015 BKN030 OVC050 10/07 Q1024 NOSIG
ZGHA,2018-11-18 06:00,ZGHA 180600Z 35005MPS 9999 BKN014 BKN030 OVC050 10/07 Q1024 NOSIG
ZGHA,2018-11-18 07:00,ZGHA 180700Z 33004MPS 9000 FEW013 BKN018 OVC050 10/07 Q1024 NOSIG
ZGHA,2018-11-18 08:00,ZGHA 180800Z 35005MPS 6000 FEW013 BKN017 OVC050 10/07 Q1024 NOSIG
ZGHA,2018-11-18 09:00,ZGHA 180900Z 36005MPS 6000 FEW015 BKN022 OVC050 10/07 Q1024 NOSIG
ZGHA,2018-11-18 10:00,ZGHA 181000Z 36004MPS 7000 FEW022 BKN050 09/06 Q1025 NOSIG
ZGHA,2018-11-18 11:00,ZGHA 181100Z 35004MPS 7000 NSC 09/06 Q1025 NOSIG
ZGHA,2018-11-18 12:00,ZGHA 181200Z 32003MPS 7000 SCT033 09/06 Q1026 NOSIG
ZGHA,2018-11-18 13:00,ZGHA 181300Z 36004MPS 7000 SCT027 09/06 Q1026 NOSIG
ZGHA,2018-11-18 14:00,ZGHA 181400Z 36003MPS 7000 FEW050 09/06 Q1027 NOSIG
ZGHA,2018-11-18 15:00,ZGHA 181500Z 36002MPS 7000 FEW033 09/06 Q1027 NOSIG
ZGHA,2018-11-18 16:00,ZGHA 181600Z 36003MPS 7000 NSC 09/06 Q1026 NOSIG
ZGHA,2018-11-18 17:00,ZGHA 181700Z 34003MPS 7000 NSC 08/06 Q1026 NOSIG
ZGHA,2018-11-18 18:00,ZGHA 181800Z 01002MPS 6000 NSC 07/06 Q1026 NOSIG
ZGHA,2018-11-18 19:00,ZGHA 181900Z 36002MPS 6000 NSC 07/06 Q1025 NOSIG
ZGHA,2018-11-18 20:00,ZGHA 182000Z VRB01MPS 5000 BR NSC 07/06 Q1025 NOSIG
ZGHA,2018-11-18 21:00,ZGHA 182100Z 14001MPS 4500 BR NSC 06/06 Q1025 NOSIG
ZGHA,2018-11-18 22:00,ZGHA 182200Z 00000MPS 3500 R36L/0900U R36R/0350N BR PRFG NSC 06/05 Q1025 BECMG TL2240 1600
ZGHA,2018-11-18 23:00,ZGHA 182300Z VRB01MPS 2900 BR FEW012 05/05 Q1026 BECMG TL0040 3200
ZGHA,2018-11-19 00:00,ZGHA 190000Z 19001MPS 2500 R18R/P2000 R18L/1300U BR BKN022 06/06 Q1026 BECMG TL0100 3200
ZGHA,2018-11-19 01:00,ZGHA 190100Z VRB01MPS 2600 BR BKN022 08/08 Q1026 BECMG TL0200 3200
ZGHA,2018-11-19 02:00,ZGHA 190200Z VRB01MPS 4000 BR BKN020 09/08 Q1027 NOSIG
ZGHA,2018-11-19 03:00,ZGHA 190300Z 33002MPS 220V360 6000 FEW012 OVC020 11/07 Q1027 NOSIG
ZGHA,2018-11-19 04:00,ZGHA 190400Z VRB01MPS 8000 FEW015 OVC020 11/07 Q1026 NOSIG
ZGHA,2018-11-19 05:00,ZGHA 190500Z VRB02MPS 8000 BKN016 OVC040 11/07 Q1025 NOSIG
ZGHA,2018-11-19 06:00,ZGHA 190600Z 29002MPS 260V340 8000 BKN023 OVC050 12/07 Q1023 NOSIG
ZGHA,2018-11-19 07:00,ZGHA 190700Z VRB01MPS 9999 BKN020 OVC050 12/07 Q1023 NOSIG
ZGHA,2018-11-19 08:00,ZGHA 190800Z 04002MPS 360V060 9999 BKN020 OVC050 11/07 Q1023 NOSIG
ZGHA,2018-11-19 09:00,ZGHA 190900Z 03002MPS 360V060 9999 BKN020 OVC050 11/07 Q1023 NOSIG
ZGHA,2018-11-19 10:00,ZGHA 191000Z 01002MPS 9999 BKN030 11/08 Q1023 NOSIG
ZGHA,2018-11-19 11:00,ZGHA 191100Z 01003MPS 9999 BKN030 11/08 Q1023 NOSIG
ZGHA,2018-11-19 12:00,ZGHA 191200Z 02002MPS 350V050 9999 -RA OVC030 11/09 Q1023 NOSIG
ZGHA,2018-11-19 13:00,ZGHA 191300Z 35002MPS 9999 -RA OVC030 11/09 Q1024 NOSIG
ZGHA,2018-11-19 14:00,ZGHA 191400Z 01003MPS 8000 SHRA OVC030 10/09 Q1024 NOSIG
ZGHA,2018-11-19 15:00,ZGHA 191500Z 02003MPS 8000 -SHRA NSC 10/09 Q1023 RESHRA NOSIG
ZGHA,2018-11-19 16:00,ZGHA 191600Z 02002MPS 340V050 8000 NSC 10/09 Q1022 NOSIG
ZGHA,2018-11-19 17:00,ZGHA 191700Z 06001MPS 8000 -RA BKN040 10/09 Q1022 NOSIG
ZGHA,2018-11-19 18:00,ZGHA 191800Z 34002MPS 8000 -RA OVC050 10/09 Q1022 NOSIG
ZGHA,2018-11-19 19:00,ZGHA 191900Z 01002MPS 6000 -RA SCT030 OVC050 10/10 Q1022 NOSIG
ZGHA,2018-11-19 20:00,ZGHA 192000Z VRB01MPS 6000 OVC050 10/10 Q1021 NOSIG
ZGHA,2018-11-19 21:00,ZGHA 192100Z 01002MPS 340V050 5000 -RA BR OVC050 10/10 Q1021 NOSIG
ZGHA,2018-11-19 22:00,ZGHA 192200Z 34002MPS 5000 -RA BR SCT030 OVC050 10/10 Q1021 NOSIG
ZGHA,2018-11-19 23:00,ZGHA 192300Z VRB01MPS 4500 -RA BR SCT030 OVC050 10/10 Q1021 NOSIG
ZGHA,2018-11-20 00:00,ZGHA 200000Z VRB01MPS 4000 -RA BR FEW006 OVC050 11/10 Q1021 NOSIG
ZGHA,2018-11-20 01:00,ZGHA 200100Z VRB01MPS 4500 BR SCT006 OVC050 11/10 Q1022 NOSIG
ZGHA,2018-11-20 02:00,ZGHA 200200Z 24002MPS 200V290 5000 BR SCT008 OVC050 11/10 Q1022 NOSIG
ZGHA,2018-11-20 03:00,ZGHA 200300Z VRB01MPS 5000 BR BKN010 OVC040 12/10 Q1022 BECMG TL0400 SCT010 OVC040
ZGHA,2018-11-20 04:00,ZGHA 200400Z VRB01MPS 5000 BR SCT012 OVC040 12/10 Q1022 BECMG TL0500 BKN012 OVC040
ZGHA,2018-11-20 05:00,ZGHA 200500Z 01002MPS 3000 -RA BR BKN012 OVC033 12/11 Q1020 BECMG TL0600 2900 SCT012 OVC033
ZGHA,2018-11-20 06:00,ZGHA 200600Z 01002MPS 3200 -RA BR BKN012 OVC033 12/11 Q1019 NOSIG
ZGHA,2018-11-20 07:00,ZGHA 200700Z VRB01MPS 3700 -RA BR BKN007 OVC033 12/11 Q1019 NOSIG
ZGHA,2018-11-20 08:00,ZGHA 200800Z 01003MPS 4500 -RA BR BKN007 OVC050 12/11 Q1018 NOSIG
ZGHA,2018-11-20 09:00,ZGHA 200900Z 04002MPS 350V090 4800 -RA BR BKN016 12/11 Q1018 BECMG TL1000 BKN012 OVC050
ZGHA,2018-11-20 10:00,ZGHA 201000Z 03002MPS 5000 -RA BKN020 12/11 Q1018 NOSIG
ZGHA,2018-11-20 11:00,ZGHA 201100Z 01002MPS 340V050 5000 -RA BR BKN020 11/11 Q1019 NOSIG
ZGHA,2018-11-20 12:00,ZGHA 201200Z 32002MPS 290V010 4200 -RA BR BKN023 11/11 Q1019 NOSIG
ZGHA,2018-11-20 13:00,ZGHA 201300Z 36003MPS 4000 -RA BR FEW005 BKN029 11/11 Q1020 NOSIG
ZGHA,2018-11-20 14:00,ZGHA 201400Z 34003MPS 4500 -RA BR SCT005 BKN033 11/11 Q1021 NOSIG
ZGHA,2018-11-20 15:00,ZGHA 201500Z 34004MPS 4200 -RA BR BKN012 11/11 Q1021 BECMG TL1600 BKN016 OVC050
ZGHA,2018-11-20 16:00,ZGHA 201600Z 36003MPS 4200 BR FEW015 BKN040 11/11 Q1021 NOSIG
ZGHA,2018-11-20 17:00,ZGHA 201700Z 36004MPS 4000 BR FEW005 BKN030 11/11 Q1021 NOSIG
ZGHA,2018-11-20 18:00,ZGHA 201800Z 34003MPS 4000 BR SCT007 BKN033 11/11 Q1021 NOSIG
ZGHA,2018-11-20 19:00,ZGHA 201900Z 35003MPS 4000 BR BKN040 11/11 Q1021 NOSIG
ZGHA,2018-11-20 20:00,ZGHA 202000Z 34002MPS 4000 BR BKN040 11/10 Q1021 NOSIG
ZGHA,2018-11-20 21:00,ZGHA 202100Z 34005MPS 4000 BR NSC 11/10 Q1021 NOSIG
ZGHA,2018-11-20 22:00,ZGHA 202200Z 35004MPS 4000 BR NSC 11/10 Q1022 NOSIG
ZGHA,2018-11-20 23:00,ZGHA 202300Z 34005MPS 3000 -RA BR SCT040 11/10 Q1023 BECMG TL2400 2700
ZGHA,2018-11-21 00:00,ZGHA 210000Z 31004MPS 2000 -RA BR SCT030 11/10 Q1024 BECMG TL0100 3500
ZGHA,2018-11-21 01:00,ZGHA 210100Z 32005MPS 2000 -RA BR SCT007 OVC040 11/10 Q1026 BECMG TL0250 3000
ZGHA,2018-11-21 02:00,ZGHA 210200Z 32003MPS 300V360 2000 -RA BR SCT007 BKN030 OVC050 11/11 Q1026 BECMG TL0350 3000
ZGHA,2018-11-21 03:00,ZGHA 210300Z 34003MPS 2400 -DZ BR SCT009 OVC050 12/11 Q1027 BECMG TL0400 3000
ZGHA,2018-11-21 04:00,ZGHA 210400Z 35004MPS 2600 BR SCT010 OVC050 12/11 Q1026 BECMG TL0500 3000
ZGHA,2018-11-21 05:00,ZGHA 210500Z 35007MPS 3000 BR SCT012 OVC050 13/11 Q1025 BECMG TL0600 2800
ZGHA,2018-11-21 06:00,ZGHA 210600Z 35006MPS 3200 -RA BR SCT014 OVC050 14/10 Q1025 NOSIG
ZGHA,2018-11-21 07:00,ZGHA 210700Z 34005MPS 4000 BR NSC 14/10 Q1024 NOSIG
ZGHA,2018-11-21 08:00,ZGHA 210800Z 35005MPS 5000 BR NSC 14/09 Q1024 NOSIG
ZGHA,2018-11-21 09:00,ZGHA 210900Z 35006MPS 4000 BR NSC 13/09 Q1025 BECMG TL1040 2800
ZGHA,2018-11-21 10:00,ZGHA 211000Z 36006MPS 5000 BR NSC 13/09 Q1025 NOSIG
ZGHA,2018-11-21 11:00,ZGHA 211100Z 35005MPS 5000 BR NSC 12/08 Q1026 NOSIG
ZGHA,2018-11-21 12:00,ZGHA 211200Z 36005MPS 5000 BR NSC 12/08 Q1027 NOSIG
ZGHA,2018-11-21 13:00,ZGHA 211300Z 36003MPS 5000 BR NSC 11/08 Q1028 NOSIG
ZGHA,2018-11-21 14:00,ZGHA 211400Z 36002MPS 5000 BR NSC 11/08 Q1028 NOSIG
ZGHA,2018-11-21 15:00,ZGHA 211500Z 36004MPS 4000 BR NSC 10/08 Q1029 BECMG TL1640 2800
ZGHA,2018-11-21 16:00,ZGHA 211600Z 36003MPS 3500 BR NSC 10/08 Q1029 NOSIG
ZGHA,2018-11-21 17:00,ZGHA 211700Z 36004MPS 3500 BR NSC 09/08 Q1029 BECMG TL1840 2800
ZGHA,2018-11-21 18:00,ZGHA 211800Z 01003MPS 2700 BR NSC 09/08 Q1029 NOSIG
ZGHA,2018-11-21 19:00,ZGHA 211900Z 35003MPS 2500 BR NSC 08/07 Q1028 BECMG TL2040 1300
ZGHA,2018-11-21 20:00,ZGHA 212000Z VRB01MPS 1800 R36L/1700N R36R/1100V1300N BR NSC 08/07 Q1028 BECMG TL2140 0700 FG
ZGHA,2018-11-21 21:00,ZGHA 212100Z VRB01MPS 1600 R36L/1400U R36R/0500V1300U BR BCFG NSC 07/07 Q1028 BECMG TL2200 0700 FG
ZGHA,2018-11-21 22:00,ZGHA 212200Z 33003MPS 2600 BR NSC 07/06 Q1028 NOSIG
ZGHA,2018-11-21 23:00,ZGHA 212300Z VRB01MPS 1600 R36L/0800V1200D R36R/0450V0700U BR NSC 06/06 Q1029 BECMG TL0040 3000
ZGHA,2018-11-22 00:00,ZGHA 220000Z 02002MPS 2000 R36L/0750V1100N R36R/0800V1100N BR PRFG NSC 07/07 Q1029 BECMG TL0100 3200
ZGHA,2018-11-22 01:00,ZGHA 220100Z VRB01MPS 2500 BR NSC 09/08 Q1030 BECMG TL0200 4000
ZGHA,2018-11-22 02:00,ZGHA 220200Z 02002MPS 3500 BR NSC 11/08 Q1031 NOSIG
ZGHA,2018-11-22 03:00,ZGHA 220300Z 36002MPS 310V030 4000 HZ NSC 14/06 Q1030 NOSIG
ZGHA,2018-11-22 04:00,ZGHA 220400Z 36003MPS 330V040 4000 HZ NSC 15/07 Q1029 NOSIG
ZGHA,2018-11-22 05:00,ZGHA 220500Z 35004MPS 320V030 5000 HZ NSC 16/04 Q1027 NOSIG
ZGHA,2018-11-22 06:00,ZGHA 220600Z 35004MPS 320V030 8000 NSC 17/01 Q1026 NOSIG
ZGHA,2018-11-22 07:00,ZGHA 220700Z 35005MPS 330V030 CAVOK 17/M00 Q1025 NOSIG
ZGHA,2018-11-22 08:00,ZGHA 220800Z 32005MPS 9000 NSC 17/00 Q1026 NOSIG
ZGHA,2018-11-22 09:00,ZGHA 220900Z 34002MPS 300V020 CAVOK 15/M01 Q1026 NOSIG
ZGHA,2018-11-22 10:00,ZGHA 221000Z 30003MPS CAVOK 13/01 Q1027 NOSIG
ZGHA,2018-11-22 11:00,ZGHA 221100Z 33004MPS CAVOK 12/01 Q1027 NOSIG
ZGHA,2018-11-22 12:00,ZGHA 221200Z 02002MPS CAVOK 11/03 Q1027 NOSIG
ZGHA,2018-11-22 13:00,ZGHA 221300Z VRB01MPS CAVOK 10/02 Q1028 NOSIG
ZGHA,2018-11-22 14:00,ZGHA 221400Z 11002MPS 080V140 CAVOK 09/04 Q1027 NOSIG
ZGHA,2018-11-22 15:00,ZGHA 221500Z VRB01MPS 8000 NSC 09/04 Q1028 NOSIG
ZGHA,2018-11-22 16:00,ZGHA 221600Z 14001MPS 7000 NSC 08/05 Q1028 NOSIG
ZGHA,2018-11-22 17:00,ZGHA 221700Z VRB01MPS 7000 NSC 07/04 Q1027 NOSIG
ZGHA,2018-11-22 18:00,ZGHA 221800Z 29001MPS 6000 NSC 06/05 Q1027 NOSIG
ZGHA,2018-11-22 19:00,ZGHA 221900Z 29001MPS 6000 NSC 06/04 Q1026 NOSIG
ZGHA,2018-11-22 20:00,ZGHA 222000Z 09001MPS 5000 BR NSC 05/05 Q1025 NOSIG
ZGHA,2018-11-22 21:00,ZGHA 222100Z VRB01MPS 5000 BR NSC 05/05 Q1025 NOSIG
ZGHA,2018-11-22 22:00,ZGHA 222200Z 18002MPS 5000 BR NSC 04/04 Q1025 BECMG TL2300 2900
ZGHA,2018-11-22 23:00,ZGHA 222300Z 17002MPS 2900 BR NSC 04/04 Q1025 BECMG TL0040 3500
ZGHA,2018-11-23 00:00,ZGHA 230000Z 22002MPS 180V270 3200 BR NSC 06/05 Q1026 NOSIG
ZGHA,2018-11-23 01:00,ZGHA 230100Z 19002MPS 160V230 4500 BR NSC 09/06 Q1027 NOSIG
ZGHA,2018-11-23 02:00,ZGHA 230200Z 17003MPS 130V240 5000 HZ NSC 11/05 Q1027 NOSIG
ZGHA,2018-11-23 03:00,ZGHA 230300Z 19003MPS 5000 HZ NSC 14/06 Q1026 NOSIG
ZGHA,2018-11-23 04:00,ZGHA 230400Z 18004MPS 140V220 6000 NSC 16/04 Q1024 NOSIG
ZGHA,2018-11-23 05:00,ZGHA 230500Z 20003MPS 150V230 9000 NSC 17/M00 Q1022 NOSIG
ZGHA,2018-11-23 06:00,ZGHA 230600Z VRB02MPS CAVOK 18/M01 Q1021 NOSIG
ZGHA,2018-11-23 07:00,ZGHA 230700Z 17003MPS 130V210 CAVOK 18/01 Q1020 NOSIG
ZGHA,2018-11-23 08:00,ZGHA 230800Z 18003MPS 130V230 CAVOK 18/02 Q1020 NOSIG
ZGHA,2018-11-23 09:00,ZGHA 230900Z 16003MPS CAVOK 17/02 Q1020 NOSIG
ZGHA,2018-11-23 10:00,ZGHA 231000Z VRB01MPS CAVOK 15/03 Q1020 NOSIG
ZGHA,2018-11-23 11:00,ZGHA 231100Z 12002MPS 090V170 9000 NSC 13/06 Q1020 NOSIG
ZGHA,2018-11-23 12:00,ZGHA 231200Z VRB01MPS 8000 NSC 12/07 Q1021 NOSIG
ZGHA,2018-11-23 13:00,ZGHA 231300Z 00000MPS 6000 NSC 10/07 Q1021 NOSIG
ZGHA,2018-11-23 18:00,ZGHA 231800Z 35002MPS 5000 BR NSC 07/07 Q1021 NOSIG
ZGHA,2018-11-23 19:00,ZGHA 231900Z VRB01MPS 5000 BR NSC 08/07 Q1022 NOSIG
ZGHA,2018-11-23 20:00,ZGHA 232000Z 00000MPS 4500 BR NSC 06/05 Q1021 NOSIG
ZGHA,2018-11-23 21:00,ZGHA 232100Z 05002MPS 4500 BR NSC 06/06 Q1022 NOSIG
ZGHA,2018-11-23 22:00,ZGHA 232200Z 02003MPS 4500 BR NSC 06/05 Q1022 NOSIG
ZGHA,2018-11-23 23:00,ZGHA 232300Z VRB01MPS 4000 BR NSC 07/06 Q1023 NOSIG
ZGHA,2018-11-24 00:00,ZGHA 240000Z 25002MPS 230V300 4000 BR NSC 08/07 Q1024 NOSIG
ZGHA,2018-11-24 01:00,ZGHA 240100Z VRB01MPS 6000 NSC 10/08 Q1024 NOSIG
ZGHA,2018-11-24 02:00,ZGHA 240200Z VRB01MPS 6000 NSC 13/07 Q1025 NOSIG
ZGHA,2018-11-24 03:00,ZGHA 240300Z 01002MPS 330V040 8000 NSC 16/07 Q1024 NOSIG
ZGHA,2018-11-24 04:00,ZGHA 240400Z VRB01MPS 8000 NSC 18/08 Q1023 NOSIG
ZGHA,2018-11-24 05:00,ZGHA 240500Z 36002MPS 280V060 CAVOK 20/07 Q1022 NOSIG
ZGHA,2018-11-24 06:00,ZGHA 240600Z 31003MPS 270V360 CAVOK 21/06 Q1022 NOSIG
ZGHA,2018-11-24 07:00,ZGHA 240700Z 36003MPS 310V040 CAVOK 21/05 Q1021 NOSIG
ZGHA,2018-11-24 08:00,ZGHA 240800Z 31003MPS 280V340 CAVOK 21/06 Q1021 NOSIG
ZGHA,2018-11-24 09:00,ZGHA 240900Z 30004MPS CAVOK 18/07 Q1021 NOSIG
ZGHA,2018-11-24 10:00,ZGHA 241000Z 30002MPS CAVOK 16/07 Q1022 NOSIG
ZGHA,2018-11-24 11:00,ZGHA 241100Z 35004MPS CAVOK 16/06 Q1023 NOSIG
ZGHA,2018-11-24 12:00,ZGHA 241200Z VRB01MPS CAVOK 14/07 Q1023 NOSIG
ZGHA,2018-11-24 13:00,ZGHA 241300Z 02002MPS CAVOK 12/08 Q1024 NOSIG
ZGHA,2018-11-24 14:00,ZGHA 241400Z VRB01MPS 8000 NSC 13/07 Q1024 NOSIG
ZGHA,2018-11-24 15:00,ZGHA 241500Z 32003MPS 290V350 8000 NSC 13/08 Q1024 NOSIG
ZGHA,2018-11-24 16:00,ZGHA 241600Z 05002MPS 8000 NSC 12/08 Q1024 NOSIG
ZGHA,2018-11-24 17:00,ZGHA 241700Z VRB01MPS 6000 NSC 12/09 Q1024 NOSIG
ZGHA,2018-11-24 18:00,ZGHA 241800Z 04002MPS 5000 BR NSC 12/10 Q1024 NOSIG
ZGHA,2018-11-24 19:00,ZGHA 241900Z 02002MPS 5000 BR NSC 12/10 Q1023 NOSIG
ZGHA,2018-11-24 20:00,ZGHA 242000Z 01003MPS 4400 BR NSC 12/10 Q1023 NOSIG
ZGHA,2018-11-24 21:00,ZGHA 242100Z 36003MPS 3200 BR NSC 12/11 Q1023 NOSIG
ZGHA,2018-11-24 22:00,ZGHA 242200Z 36002MPS 3800 BR NSC 12/11 Q1023 NOSIG
ZGHA,2018-11-24 23:00,ZGHA 242300Z 01001MPS 2200 BR BKN050 12/10 Q1023 BECMG TL2400 3500
ZGHA,2018-11-25 00:00,ZGHA 250000Z 36003MPS 2200 BR BKN050 12/11 Q1023 BECMG TL0150 3500
ZGHA,2018-11-25 01:00,ZGHA 250100Z 35003MPS 2500 BR BKN050 14/10 Q1024 BECMG TL0200 3200
ZGHA,2018-11-25 02:00,ZGHA 250200Z 01003MPS 3100 BR FEW040 14/10 Q1024 NOSIG
ZGHA,2018-11-25 03:00,ZGHA 250300Z 01002MPS 340V050 4200 BR SCT040 15/09 Q1024 NOSIG
ZGHA,2018-11-25 04:00,ZGHA 250400Z 03002MPS 350V070 4500 HZ SCT040 17/09 Q1023 NOSIG
ZGHA,2018-11-25 05:00,ZGHA 250500Z 02003MPS 350V060 5000 HZ NSC 18/07 Q1022 NOSIG
ZGHA,2018-11-25 06:00,ZGHA 250600Z 05003MPS 010V090 7000 NSC 18/07 Q1021 NOSIG
ZGHA,2018-11-25 07:00,ZGHA 250700Z 34003MPS 290V030 8000 NSC 19/08 Q1020 NOSIG
ZGHA,2018-11-25 08:00,ZGHA 250800Z 36002MPS 330V050 8000 NSC 18/08 Q1020 NOSIG
ZGHA,2018-11-25 09:00,ZGHA 250900Z 36002MPS 8000 NSC 17/08 Q1020 NOSIG
ZGHA,2018-11-25 10:00,ZGHA 251000Z 03002MPS 8000 NSC 16/09 Q1021 NOSIG
ZGHA,2018-11-25 11:00,ZGHA 251100Z 04001MPS 7000 NSC 13/10 Q1021 NOSIG
ZGHA,2018-11-25 12:00,ZGHA 251200Z VRB01MPS 6000 NSC 12/10 Q1022 NOSIG
ZGHA,2018-11-25 13:00,ZGHA 251300Z VRB01MPS 6000 NSC 12/10 Q1022 NOSIG
ZGHA,2018-11-25 14:00,ZGHA 251400Z 04002MPS 6000 NSC 11/10 Q1022 NOSIG
ZGHA,2018-11-25 15:00,ZGHA 251500Z 06002MPS 5000 BR NSC 11/10 Q1022 BECMG TL1640 2000
ZGHA,2018-11-25 16:00,ZGHA 251600Z 08001MPS 4500 BR NSC 10/09 Q1022 BECMG TL1700 2000
ZGHA,2018-11-25 17:00,ZGHA 251700Z 07001MPS 2900 BR NSC 10/09 Q1022 NOSIG
ZGHA,2018-11-25 18:00,ZGHA 251800Z 02002MPS 4000 BR NSC 09/08 Q1022 NOSIG
ZGHA,2018-11-25 19:00,ZGHA 251900Z 02001MPS 4000 BR NSC 09/08 Q1022 NOSIG
ZGHA,2018-11-25 20:00,ZGHA 252000Z VRB01MPS 4000 BR NSC 08/08 Q1021 NOSIG
ZGHA,2018-11-25 21:00,ZGHA 252100Z 03002MPS 4000 BR NSC 08/07 Q1022 NOSIG
ZGHA,2018-11-25 22:00,ZGHA 252200Z 02002MPS 4500 BR NSC 08/07 Q1022 BECMG TL2300 2000
ZGHA,2018-11-25 23:00,ZGHA 252300Z 07001MPS 2400 R36L/P2000 R36R/1300D BR NSC 07/07 Q1023 BECMG TL0040 4000
ZGHA,2018-11-26 00:00,ZGHA 260000Z VRB01MPS 3200 BR NSC 09/08 Q1023 NOSIG
ZGHA,2018-11-26 01:00,ZGHA 260100Z VRB01MPS 4000 BR NSC 11/09 Q1024 NOSIG
ZGHA,2018-11-26 02:00,ZGHA 260200Z VRB01MPS 4000 BR NSC 14/09 Q1025 NOSIG
ZGHA,2018-11-26 03:00,ZGHA 260300Z VRB01MPS 6000 NSC 18/10 Q1025 NOSIG
ZGHA,2018-11-26 04:00,ZGHA 260400Z VRB01MPS 6000 NSC 19/09 Q1024 NOSIG
ZGHA,2018-11-26 05:00,ZGHA 260500Z VRB01MPS 8000 NSC 20/09 Q1022 NOSIG
ZGHA,2018-11-26 06:00,ZGHA 260600Z VRB01MPS 8000 NSC 20/08 Q1021 NOSIG
ZGHA,2018-11-26 07:00,ZGHA 260700Z 22002MPS 180V300 CAVOK 21/08 Q1021 NOSIG
ZGHA,2018-11-26 08:00,ZGHA 260800Z 30002MPS 220V360 CAVOK 22/07 Q1020 NOSIG
ZGHA,2018-11-26 09:00,ZGHA 260900Z VRB02MPS CAVOK 20/08 Q1021 NOSIG
ZGHA,2018-11-26 10:00,ZGHA 261000Z VRB01MPS CAVOK 17/09 Q1021 NOSIG
ZGHA,2018-11-26 11:00,ZGHA 261100Z VRB01MPS 8000 NSC 14/10 Q1022 NOSIG
ZGHA,2018-11-26 12:00,ZGHA 261200Z 10001MPS 6000 NSC 13/09 Q1022 NOSIG
ZGHA,2018-11-26 13:00,ZGHA 261300Z 00000MPS 6000 NSC 12/10 Q1023 NOSIG
ZGHA,2018-11-26 14:00,ZGHA 261400Z VRB01MPS 5000 BR NSC 12/11 Q1023 NOSIG
ZGHA,2018-11-26 15:00,ZGHA 261500Z 00000MPS 5000 BR NSC 12/10 Q1024 NOSIG
ZGHA,2018-11-26 16:00,ZGHA 261600Z 00000MPS 4000 BR NSC 11/10 Q1023 BECMG TL1740 2800
ZGHA,2018-11-26 17:00,ZGHA 261700Z VRB01MPS 3500 BR NSC 10/09 Q1023 NOSIG
ZGHA,2018-11-26 18:00,ZGHA 261800Z 07001MPS 3500 BR NSC 10/09 Q1022 BECMG TL1900 2800
ZGHA,2018-11-26 19:00,ZGHA 261900Z 05001MPS 3500 BR NSC 09/09 Q1022 NOSIG
ZGHA,2018-11-26 20:00,ZGHA 262000Z VRB01MPS 5000 BR NSC 09/09 Q1022 NOSIG
ZGHA,2018-11-26 21:00,ZGHA 262100Z 02002MPS 5000 BR NSC 09/08 Q1023 NOSIG
ZGHA,2018-11-26 22:00,ZGHA 262200Z 06002MPS 5000 BR NSC 09/08 Q1023 NOSIG
ZGHA,2018-11-26 23:00,ZGHA 262300Z 02002MPS 5000 BR NSC 08/08 Q1023 NOSIG
ZGHA,2018-11-27 00:00,ZGHA 270000Z 18001MPS 5000 BR NSC 10/09 Q1024 NOSIG
ZGHA,2018-11-27 01:00,ZGHA 270100Z VRB01MPS 6000 NSC 13/10 Q1024 NOSIG
ZGHA,2018-11-27 02:00,ZGHA 270200Z VRB01MPS 6000 NSC 16/10 Q1025 NOSIG
ZGHA,2018-11-27 03:00,ZGHA 270300Z VRB01MPS 6000 NSC 19/10 Q1024 NOSIG
ZGHA,2018-11-27 04:00,ZGHA 270400Z VRB01MPS 8000 NSC 21/10 Q1023 NOSIG
ZGHA,2018-11-27 05:00,ZGHA 270500Z VRB01MPS CAVOK 21/09 Q1022 NOSIG
ZGHA,2018-11-27 06:00,ZGHA 270600Z VRB01MPS CAVOK 22/08 Q1020 NOSIG
ZGHA,2018-11-27 07:00,ZGHA 270700Z 36002MPS 280V060 CAVOK 22/07 Q1020 NOSIG
ZGHA,2018-11-27 08:00,ZGHA 270800Z 02002MPS 300V060 CAVOK 22/07 Q1020 NOSIG
ZGHA,2018-11-27 09:00,ZGHA 270900Z 34002MPS 310V020 CAVOK 21/08 Q1020 NOSIG
ZGHA,2018-11-27 10:00,ZGHA 271000Z 34003MPS CAVOK 19/08 Q1021 NOSIG
ZGHA,2018-11-27 11:00,ZGHA 271100Z 33003MPS 8000 NSC 17/11 Q1021 NOSIG
ZGHA,2018-11-27 12:00,ZGHA 271200Z 36002MPS 7000 NSC 15/10 Q1022 NOSIG
ZGHA,2018-11-27 13:00,ZGHA 271300Z 02002MPS 6000 NSC 15/11 Q1022 NOSIG
ZGHA,2018-11-27 14:00,ZGHA 271400Z 04001MPS 5000 BR NSC 14/11 Q1022 NOSIG
ZGHA,2018-11-27 15:00,ZGHA 271500Z VRB01MPS 5000 BR NSC 12/10 Q1022 NOSIG
ZGHA,2018-11-27 16:00,ZGHA 271600Z 03001MPS 5000 BR NSC 12/11 Q1022 NOSIG
ZGHA,2018-11-27 17:00,ZGHA 271700Z VRB01MPS 4500 BR NSC 11/10 Q1022 NOSIG
ZGHA,2018-11-27 18:00,ZGHA 271800Z 03001MPS 4500 BR NSC 10/10 Q1022 NOSIG
ZGHA,2018-11-27 19:00,ZGHA 271900Z 10001MPS 4200 BR NSC 09/09 Q1022 NOSIG
ZGHA,2018-11-27 20:00,ZGHA 272000Z VRB01MPS 4000 BR NSC 09/09 Q1022 NOSIG
ZGHA,2018-11-27 21:00,ZGHA 272100Z VRB01MPS 3500 R36L/1200N R36R/0300V0450N BR PRFG NSC 08/08 Q1022 NOSIG
ZGHA,2018-11-27 22:00,ZGHA 272200Z 10001MPS 3200 BR NSC 07/07 Q1022 BECMG TL2300 1800
ZGHA,2018-11-27 23:00,ZGHA 272300Z 20002MPS 2900 BR NSC 07/07 Q1022 BECMG TL2400 3500
ZGHA,2018-11-28 00:00,ZGHA 280000Z VRB01MPS 3100 BR NSC 08/08 Q1023 NOSIG
ZGHA,2018-11-28 01:00,ZGHA 280100Z VRB01MPS 3300 BR NSC 11/10 Q1023 NOSIG
ZGHA,2018-11-28 02:00,ZGHA 280200Z VRB01MPS 4000 BR NSC 14/11 Q1024 NOSIG
ZGHA,2018-11-28 03:00,ZGHA 280300Z VRB01MPS 5000 HZ NSC 18/10 Q1023 NOSIG
ZGHA,2018-11-28 04:00,ZGHA 280400Z VRB01MPS 8000 NSC 20/09 Q1022 NOSIG
ZGHA,2018-11-28 05:00,ZGHA 280500Z VRB01MPS CAVOK 22/08 Q1021 NOSIG
ZGHA,2018-11-28 06:00,ZGHA 280600Z VRB02MPS CAVOK 22/07 Q1021 NOSIG
ZGHA,2018-11-28 07:00,ZGHA 280700Z VRB01MPS CAVOK 22/07 Q1020 NOSIG
ZGHA,2018-11-28 08:00,ZGHA 280800Z VRB01MPS CAVOK 22/06 Q1020 NOSIG
ZGHA,2018-11-28 09:00,ZGHA 280900Z VRB01MPS CAVOK 21/07 Q1020 NOSIG
ZGHA,2018-11-28 10:00,ZGHA 281000Z 01002MPS 9000 NSC 18/09 Q1021 NOSIG
ZGHA,2018-11-28 11:00,ZGHA 281100Z 07001MPS 8000 NSC 15/10 Q1022 NOSIG
ZGHA,2018-11-28 12:00,ZGHA 281200Z 13001MPS 7000 NSC 14/09 Q1022 NOSIG
ZGHA,2018-11-28 13:00,ZGHA 281300Z 15001MPS 6000 NSC 12/10 Q1022 NOSIG
ZGHA,2018-11-28 14:00,ZGHA 281400Z 04001MPS 6000 NSC 12/09 Q1023 NOSIG
ZGHA,2018-11-28 15:00,ZGHA 281500Z 05002MPS 5000 BR NSC 12/11 Q1023 NOSIG
ZGHA,2018-11-28 16:00,ZGHA 281600Z 08001MPS 5000 BR NSC 11/10 Q1022 NOSIG
ZGHA,2018-11-28 17:00,ZGHA 281700Z VRB01MPS 5000 BR NSC 10/10 Q1022 NOSIG
ZGHA,2018-11-28 18:00,ZGHA 281800Z VRB01MPS 6000 NSC 10/09 Q1022 NOSIG
ZGHA,2018-11-28 19:00,ZGHA 281900Z 17001MPS 4500 BR NSC 09/08 Q1022 NOSIG
ZGHA,2018-11-28 20:00,ZGHA 282000Z VRB01MPS 4500 BR NSC 09/08 Q1022 NOSIG
ZGHA,2018-11-28 21:00,ZGHA 282100Z 06001MPS 4000 BR NSC 08/08 Q1023 NOSIG
ZGHA,2018-11-28 22:00,ZGHA 282200Z 00000MPS 4000 BR NSC 08/07 Q1023 BECMG TL2300 2500
ZGHA,2018-11-28 23:00,ZGHA 282300Z 00000MPS 2900 BR NSC 07/06 Q1024 BECMG TL2400 4000
ZGHA,2018-11-29 00:00,ZGHA 290000Z VRB01MPS 3500 BR NSC 10/09 Q1025 NOSIG
ZGHA,2018-11-29 01:00,ZGHA 290100Z 21002MPS 5000 BR NSC 12/09 Q1025 NOSIG
ZGHA,2018-11-29 02:00,ZGHA 290200Z VRB01MPS 6000 NSC 15/09 Q1026 NOSIG
ZGHA,2018-11-29 03:00,ZGHA 290300Z VRB01MPS 8000 NSC 19/09 Q1025 NOSIG
ZGHA,2018-11-29 04:00,ZGHA 290400Z VRB01MPS 8000 NSC 21/09 Q1024 NOSIG
ZGHA,2018-11-29 05:00,ZGHA 290500Z VRB01MPS CAVOK 23/08 Q1023 NOSIG
ZGHA,2018-11-29 06:00,ZGHA 290600Z VRB01MPS CAVOK 23/06 Q1022 NOSIG
ZGHA,2018-11-29 07:00,ZGHA 290700Z VRB01MPS CAVOK 24/06 Q1020 NOSIG
ZGHA,2018-11-29 08:00,ZGHA 290800Z VRB01MPS CAVOK 23/02 Q1020 NOSIG
ZGHA,2018-11-29 09:00,ZGHA 290900Z 00000MPS CAVOK 23/02 Q1020 NOSIG
ZGHA,2018-11-29 10:00,ZGHA 291000Z VRB01MPS CAVOK 18/09 Q1021 NOSIG
ZGHA,2018-11-29 11:00,ZGHA 291100Z 05002MPS CAVOK 15/10 Q1021 NOSIG
ZGHA,2018-11-29 12:00,ZGHA 291200Z 00000MPS 8000 NSC 15/08 Q1021 NOSIG
ZGHA,2018-11-29 13:00,ZGHA 291300Z 05002MPS 8000 NSC 14/09 Q1021 NOSIG
ZGHA,2018-11-29 14:00,ZGHA 291400Z 00000MPS 8000 NSC 13/09 Q1022 NOSIG
ZGHA,2018-11-29 15:00,ZGHA 291500Z VRB01MPS 8000 NSC 12/08 Q1022 NOSIG
ZGHA,2018-11-29 16:00,ZGHA 291600Z VRB01MPS 6000 NSC 11/08 Q1022 NOSIG
ZGHA,2018-11-29 17:00,ZGHA 291700Z 36002MPS 8000 NSC 11/07 Q1022 NOSIG
ZGHA,2018-11-29 18:00,ZGHA 291800Z 06001MPS 8000 NSC 11/08 Q1022 NOSIG
ZGHA,2018-11-29 19:00,ZGHA 291900Z 04001MPS 7000 NSC 10/08 Q1022 NOSIG
ZGHA,2018-11-29 20:00,ZGHA 292000Z 35003MPS 8000 NSC 10/07 Q1021 NOSIG
ZGHA,2018-11-29 21:00,ZGHA 292100Z 36002MPS CAVOK 10/07 Q1021 NOSIG
ZGHA,2018-11-29 22:00,ZGHA 292200Z 12001MPS 8000 NSC 09/07 Q1022 NOSIG
ZGHA,2018-11-29 23:00,ZGHA 292300Z 05001MPS 7000 NSC 09/07 Q1022 NOSIG
ZGHA,2018-11-30 00:00,ZGHA 300000Z VRB01MPS 6000 NSC 10/08 Q1022 NOSIG
ZGHA,2018-11-30 01:00,ZGHA 300100Z VRB01MPS 4500 PRFG BR NSC 13/09 Q1023 NOSIG
ZGHA,2018-11-30 02:00,ZGHA 300200Z 02002MPS 350V050 2400 BR NSC 14/11 Q1023 BECMG TL0340 3000
ZGHA,2018-11-30 03:00,ZGHA 300300Z 02003MPS 320V040 2600 HZ NSC 17/11 Q1023 BECMG TL0400 3000
ZGHA,2018-11-30 04:00,ZGHA 300400Z 32003MPS 270V360 3200 HZ NSC 20/10 Q1022 NOSIG
ZGHA,2018-11-30 05:00,ZGHA 300500Z 32003MPS 290V010 3500 HZ NSC 21/10 Q1020 NOSIG
ZGHA,2018-11-30 06:00,ZGHA 300600Z 29003MPS 260V340 5000 HZ NSC 20/10 Q1020 NOSIG
ZGHA,2018-11-30 07:00,ZGHA 300700Z 33003MPS 300V360 4500 HZ NSC 20/10 Q1019 NOSIG
ZGHA,2018-11-30 08:00,ZGHA 300800Z 32003MPS 4000 HZ NSC 19/10 Q1019 NOSIG
ZGHA,2018-11-30 09:00,ZGHA 300900Z 32004MPS 3500 HZ NSC 19/10 Q1019 BECMG TL1000 2800
ZGHA,2018-11-30 10:00,ZGHA 301000Z 31004MPS 2800 HZ NSC 18/11 Q1019 BECMG TL1100 3500
ZGHA,2018-11-30 11:00,ZGHA 301100Z 30004MPS 3500 BR NSC 16/11 Q1021 NOSIG
ZGHA,2018-11-30 12:00,ZGHA 301200Z 34003MPS 3200 BR NSC 15/11 Q1021 BECMG TL1300 2800
ZGHA,2018-11-30 13:00,ZGHA 301300Z 36003MPS 2900 BR NSC 15/11 Q1021 BECMG TL1400 3200
ZGHA,2018-11-30 14:00,ZGHA 301400Z 36003MPS 3100 BR NSC 15/11 Q1022 BECMG TL1500 2800
ZGHA,2018-11-30 15:00,ZGHA 301500Z 36003MPS 2700 BR NSC 14/11 Q1022 NOSIG
ZGHA,2018-11-30 16:00,ZGHA 301600Z 34004MPS 2500 BR NSC 14/11 Q1022 NOSIG
ZGHA,2018-11-30 17:00,ZGHA 301700Z 36002MPS 2100 BR NSC 14/12 Q1022 NOSIG
ZGHA,2018-11-30 18:00,ZGHA 301800Z 34003MPS 310V010 1800 BR NSC 14/12 Q1022 NOSIG
ZGHA,2018-11-30 19:00,ZGHA 301900Z 33003MPS 1800 BR SCT007 14/12 Q1022 NOSIG
ZGHA,2018-11-30 20:00,ZGHA 302000Z 35004MPS 1700 BR SCT007 13/11 Q1022 NOSIG
ZGHA,2018-11-30 21:00,ZGHA 302100Z 02003MPS 1600 BR SCT007 13/11 Q1022 NOSIG
ZGHA,2018-11-30 22:00,ZGHA 302200Z 01002MPS 1600 BR SCT005 13/11 Q1022 NOSIG
ZGHA,2018-11-30 23:00,ZGHA 302300Z 01004MPS 1500 BR SCT005 12/10 Q1022 BECMG TL0040 3000
ZGHA,2018-12-01 00:00,ZGHA 010000Z 36003MPS 1000 R36L/1200V1300D R36R/1200V1300N BR SCT006 12/10 Q1022 BECMG TL0100 1600
ZGHA,2018-12-01 01:00,ZGHA 010100Z 35003MPS 1000 R36L/1200N R36R/1200V1300N BR SCT006 13/10 Q1023 BECMG TL0240 1600
ZGHA,2018-12-01 02:00,ZGHA 010200Z 33003MPS 290V360 1000 R36L/1100V1200N R36R/1100V1200D BR SCT006 14/10 Q1023 BECMG TL0340 1600
ZGHA,2018-12-01 03:00,ZGHA 010300Z 29002MPS 210V330 1200 R36L/1200V1300N R36R/1200V1300N BR SCT006 14/10 Q1023 BECMG TL0400 1600
ZGHA,2018-12-01 04:00,ZGHA 010400Z VRB01MPS 1400 R36L/1200V1300U R36R/1200V1300N BR SCT007 15/10 Q1021 BECMG TL0500 1700
ZGHA,2018-12-01 05:00,ZGHA 010500Z 34002MPS 290V100 1500 R36L/1300V1400U R36R/1200V1300N HZ FEW011 17/10 Q1020 NOSIG
ZGHA,2018-12-01 06:00,ZGHA 010600Z 03002MPS 330V060 1500 R36L/1400N R36R/1400N HZ NSC 16/10 Q1019 NOSIG
ZGHA,2018-12-01 07:00,ZGHA 010700Z 35002MPS 310V050 1500 HZ NSC 17/10 Q1018 NOSIG
ZGHA,2018-12-01 08:00,ZGHA 010800Z 02003MPS 1500 HZ NSC 16/10 Q1018 NOSIG
ZGHA,2018-12-01 09:00,ZGHA 010900Z 02002MPS 1500 BR NSC 16/11 Q1017 BECMG TL1000 1400
ZGHA,2018-12-01 10:00,ZGHA 011000Z VRB01MPS 2800 BR NSC 15/11 Q1018 BECMG TL1100 3000
ZGHA,2018-12-01 11:00,ZGHA 011100Z VRB01MPS 3000 BR NSC 15/11 Q1018 BECMG TL1200 2000
ZGHA,2018-12-01 12:00,ZGHA 011200Z 00000MPS 2600 BR NSC 15/11 Q1018 BECMG TL1340 3000
ZGHA,2018-12-01 13:00,ZGHA 011300Z 04001MPS 2200 BR NSC 14/12 Q1018 NOSIG
ZGHA,2018-12-01 14:00,ZGHA 011400Z VRB01MPS 2200 BR NSC 15/11 Q1018 NOSIG
ZGHA,2018-12-01 15:00,ZGHA 011500Z 28002MPS 2200 BR NSC 14/11 Q1018 NOSIG
ZGHA,2018-12-01 16:00,ZGHA 011600Z 07002MPS 2000 BR NSC 14/11 Q1017 NOSIG
ZGHA,2018-12-01 17:00,ZGHA 011700Z 35002MPS 2000 BR NSC 14/11 Q1017 NOSIG
ZGHA,2018-12-01 18:00,ZGHA 011800Z VRB01MPS 2000 BR FEW030 14/11 Q1016 NOSIG
ZGHA,2018-12-01 19:00,ZGHA 011900Z 29002MPS 250V310 2000 BR FEW030 14/12 Q1016 NOSIG
ZGHA,2018-12-01 20:00,ZGHA 012000Z 08002MPS 1800 BR SCT030 14/12 Q1014 NOSIG
ZGHA,2018-12-01 21:00,ZGHA 012100Z 36003MPS 1500 R36L/1300U R36R/1500N -SHRA BR BKN030 OVC050 13/12 Q1013 NOSIG
ZGHA,2018-12-01 22:00,ZGHA 012200Z 34004MPS 1200 R36L/1400N R36R/1600U -SHRA BR BKN014 OVC040 13/13 Q1014 NOSIG
ZGHA,2018-12-01 23:00,ZGHA 012300Z 05002MPS 020V080 1000 R36L/1100V1400N R36R/1100V1300U -SHRA BR BKN012 OVC040 13/13 Q1015 BECMG TL0050 1500 SCT016 OVC050
ZGHA,2018-12-02 00:00,ZGHA 020000Z 10003MPS 070V130 0600 R36L/0800V0900N R36R/0800V0900N -SHRA FG BKN010 OVC040 13/13 Q1015 RESHRA BECMG TL0050 1000 SCT016 OVC050
ZGHA,2018-12-02 01:00,ZGHA 020100Z 35001MPS 0800 R36L/0900V1000N R36R/0900V1000N -RA FG FEW003 BKN012 OVC050 14/13 Q1015 BECMG TL0250 1600
ZGHA,2018-12-02 02:00,ZGHA 020200Z 30003MPS 0900 R36L/0900V1200U R36R/1100V1300U FG SCT003 BKN011 OVC050 14/14 Q1016 BECMG TL0300 FEW003 BKN009 OVC050
ZGHA,2018-12-02 03:00,ZGHA 020300Z VRB01MPS 1000 R36L/1000V1100N R36R/1100V1300N BR SCT004 BKN009 OVC050 14/14 Q1016 BECMG TL0400 BKN011 OVC050
ZGHA,2018-12-02 04:00,ZGHA 020400Z VRB01MPS 1000 R36L/1000V1100N R36R/1000V1200N BR SCT005 BKN010 OVC050 15/14 Q1015 BECMG TL0500 BKN009 OVC050
ZGHA,2018-12-02 05:00,ZGHA 020500Z 04002MPS 1100 R36L/1000V1100N R36R/1100V1200N BR SCT005 BKN009 OVC050 15/14 Q1014 BECMG TL0600 BKN011 OVC050
ZGHA,2018-12-02 06:00,ZGHA 020600Z VRB01MPS 1300 R36L/1000V1100N R36R/1100V1300N BR SCT006 BKN012 OVC050 16/15 Q1013 NOSIG
ZGHA,2018-12-02 07:00,ZGHA 020700Z VRB01MPS 1600 R36L/1300V1400N R36R/1600D BR BKN010 OVC050 17/15 Q1013 BECMG TL0800 BKN009 OVC050
ZGHA,2018-12-02 08:00,ZGHA 020800Z 03002MPS 360V080 1700 BR BKN009 OVC050 17/15 Q1013 BECMG TL0900 BKN011 OVC050
ZGHA,2018-12-02 09:00,ZGHA 020900Z 02003MPS 1600 BR BKN010 OVC050 16/15 Q1014 BECMG TL1000 1400
ZGHA,2018-12-02 10:00,ZGHA 021000Z 02002MPS 2000 BR BKN010 OVC050 16/15 Q1014 NOSIG
ZGHA,2018-12-02 11:00,ZGHA 021100Z 01003MPS 2000 BR SCT008 OVC050 16/15 Q1014 NOSIG
ZGHA,2018-12-02 12:00,ZGHA 021200Z 36003MPS 2000 BR BKN007 OVC050 16/15 Q1014 NOSIG
ZGHA,2018-12-02 13:00,ZGHA 021300Z 36002MPS 320V020 1900 BR FEW004 BKN008 15/15 Q1015 BECMG TL1440 1400
ZGHA,2018-12-02 14:00,ZGHA 021400Z 33003MPS 1600 BR FEW004 BKN009 15/15 Q1015 BECMG TL1500 1400
ZGHA,2018-12-02 15:00,ZGHA 021500Z 33003MPS 1700 BR SCT004 BKN009 15/15 Q1015 NOSIG
ZGHA,2018-12-02 16:00,ZGHA 021600Z 30002MPS 1600 BR SCT004 BKN009 15/14 Q1015 NOSIG
ZGHA,2018-12-02 17:00,ZGHA 021700Z 30003MPS 280V340 1600 BR SCT004 BKN009 15/14 Q1016 NOSIG
ZGHA,2018-12-02 18:00,ZGHA 021800Z 30002MPS 280V340 2300 BR SCT005 BKN009 15/14 Q1015 NOSIG
ZGHA,2018-12-02 19:00,ZGHA 021900Z 31003MPS 270V330 2000 BR BKN004 OVC050 14/14 Q1015 NOSIG
ZGHA,2018-12-02 20:00,ZGHA 022000Z 32002MPS 1200 R36L/1100V1300N R36R/1400D BR BKN002 OVC050 14/14 Q1015 NOSIG
ZGHA,2018-12-02 21:00,ZGHA 022100Z 30003MPS 1200 R36L/1100V1200U R36R/1400N BR BKN002 OVC050 14/13 Q1015 NOSIG
ZGHA,2018-12-02 22:00,ZGHA 022200Z 29002MPS 2000 BR BKN003 OVC050 14/13 Q1015 NOSIG
ZGHA,2018-12-02 23:00,ZGHA 022300Z 30003MPS 280V340 2500 BR BKN003 OVC050 13/13 Q1016 BECMG TL0040 3200 BKN005 OVC050
ZGHA,2018-12-03 00:00,ZGHA 030000Z 30002MPS 280V340 1400 R36L/P2000 R36R/P2000 BR BKN003 OVC050 13/13 Q1016 BECMG TL0100 1600
ZGHA,2018-12-03 01:00,ZGHA 030100Z 31002MPS 280V340 1400 R36L/1600D R36R/P2000 BR BKN003 OVC050 14/13 Q1017 BECMG TL0200 1600 BKN005 OVC050
ZGHA,2018-12-03 02:00,ZGHA 030200Z 31003MPS 1300 R36L/1700N R36R/P2000 -DZ BR BKN003 OVC050 14/13 Q1017 NOSIG
ZGHA,2018-12-03 03:00,ZGHA 030300Z 32003MPS 1500 -DZ BR BKN003 OVC050 14/14 Q1017 NOSIG
ZGHA,2018-12-03 04:00,ZGHA 030400Z 30003MPS 4000 BR BKN004 OVC050 14/13 Q1016 BECMG TL0500 BKN005 OVC050
ZGHA,2018-12-03 05:00,ZGHA 030500Z 32004MPS 3300 BR BKN007 OVC050 14/13 Q1016 NOSIG
ZGHA,2018-12-03 06:00,ZGHA 030600Z 32004MPS 3300 BR BKN006 OVC050 14/13 Q1015 NOSIG
ZGHA,2018-12-03 07:00,ZGHA 030700Z 32004MPS 3300 -DZ BR FEW003 BKN005 OVC050 14/13 Q1015 BECMG TL0800 BKN004 OVC050
ZGHA,2018-12-03 08:00,ZGHA 030800Z 32003MPS 2200 -DZ BR FEW002 BKN004 OVC050 14/13 Q1015 BECMG TL0900 3000
ZGHA,2018-12-03 09:00,ZGHA 030900Z 35003MPS 320V020 3000 -RA BR FEW002 BKN004 OVC040 14/13 Q1015 BECMG TL1000 2800
ZGHA,2018-12-03 10:00,ZGHA 031000Z 36004MPS 3700 -DZ BR FEW002 BKN004 OVC040 13/13 Q1016 BECMG TL1150 BKN005 OVC040
ZGHA,2018-12-03 11:00,ZGHA 031100Z 35005MPS 5000 BR FEW003 BKN006 OVC050 13/12 Q1017 BECMG TL1250 BKN010 OVC040
ZGHA,2018-12-03 12:00,ZGHA 031200Z 35004MPS 4500 BR FEW003 BKN005 OVC050 13/12 Q1018 BECMG TL1300 BKN004 OVC040
ZGHA,2018-12-03 13:00,ZGHA 031300Z 35005MPS 5000 BR BKN005 OVC050 13/12 Q1018 NOSIG
ZGHA,2018-12-03 14:00,ZGHA 031400Z 34004MPS 4700 BR BKN006 OVC050 13/12 Q1019 NOSIG
ZGHA,2018-12-03 15:00,ZGHA 031500Z 33005MPS 4000 BR BKN006 OVC050 12/11 Q1020 NOSIG
ZGHA,2018-12-03 16:00,ZGHA 031600Z 33006MPS 3000 -DZ BR FEW003 BKN005 OVC050 12/11 Q1021 BECMG TL1700 2600 BKN004 OVC040
ZGHA,2018-12-03 17:00,ZGHA 031700Z 35007MPS 2800 -DZ BR BKN007 OVC050 11/10 Q1021 NOSIG
ZGHA,2018-12-03 18:00,ZGHA 031800Z 34006MPS 4800 BR BKN009 OVC050 11/10 Q1021 NOSIG
ZGHA,2018-12-03 19:00,ZGHA 031900Z 33006MPS 7000 BKN009 OVC050 10/10 Q1021 NOSIG
ZGHA,2018-12-03 20:00,ZGHA 032000Z 34008MPS 5000 -RA BR BKN008 OVC050 10/09 Q1022 NOSIG
ZGHA,2018-12-03 21:00,ZGHA 032100Z 35007MPS 5000 -RA BR BKN008 OVC050 10/09 Q1022 NOSIG
ZGHA,2018-12-03 22:00,ZGHA 032200Z 35006MPS 6000 -RA BKN009 OVC050 10/09 Q1022 BECMG TL2300 BKN010 OVC040
ZGHA,2018-12-03 23:00,ZGHA 032300Z 34007MPS 4500 BR FEW007 BKN011 OVC050 10/09 Q1023 NOSIG
ZGHA,2018-12-04 00:00,ZGHA 040000Z 33007MPS 4500 BR FEW008 BKN011 OVC050 10/09 Q1024 NOSIG
ZGHA,2018-12-04 01:00,ZGHA 040100Z 34007MPS 4000 BR FEW008 BKN011 OVC050 10/09 Q1025 NOSIG
ZGHA,2018-12-04 02:00,ZGHA 040200Z 34007MPS 4500 BR BKN011 OVC050 10/08 Q1025 NOSIG
ZGHA,2018-12-04 03:00,ZGHA 040300Z 34008MPS 4000 BR BKN011 OVC050 10/08 Q1025 BECMG TL0400 BKN009 OVC050
ZGHA,2018-12-04 04:00,ZGHA 040400Z 34007MPS 4500 -RA BR BKN009 OVC050 09/08 Q1025 BECMG TL0500 BKN011 OVC050
ZGHA,2018-12-04 05:00,ZGHA 040500Z 34006MPS 3200 -RA BR BKN007 OVC050 09/08 Q1024 NOSIG
ZGHA,2018-12-04 06:00,ZGHA 040600Z 35006MPS 3500 -RA BR BKN007 OVC050 09/08 Q1024 NOSIG
ZGHA,2018-12-04 07:00,ZGHA 040700Z 36007MPS 4300 -RA BR BKN007 OVC050 08/08 Q1023 NOSIG
ZGHA,2018-12-04 08:00,ZGHA 040800Z 35005MPS 4500 BR BKN008 OVC050 08/08 Q1024 BECMG TL0900 BKN011 OVC050
ZGHA,2018-12-04 09:00,ZGHA 040900Z 35004MPS 4000 BR BKN010 OVC050 08/07 Q1023 BECMG TL1000 BKN009 OVC050
ZGHA,2018-12-04 10:00,ZGHA 041000Z 33005MPS 5000 BR BKN013 OVC050 08/07 Q1024 BECMG TL1150 BKN016 OVC050
ZGHA,2018-12-04 11:00,ZGHA 041100Z 34003MPS 5000 BR BKN012 OVC050 08/07 Q1025 BECMG TL1250 BKN016 OVC050
ZGHA,2018-12-04 12:00,ZGHA 041200Z 33004MPS 5000 BR BKN010 OVC050 08/07 Q1025 BECMG TL1300 BKN009 OVC050
ZGHA,2018-12-04 13:00,ZGHA 041300Z 35004MPS 5000 BR BKN009 OVC050 08/07 Q1025 BECMG TL1450 BKN011 OVC050
ZGHA,2018-12-04 14:00,ZGHA 041400Z 35004MPS 4000 -DZ BR FEW005 BKN009 OVC050 08/07 Q1025 BECMG TL1550 BKN011 OVC050
ZGHA,2018-12-04 15:00,ZGHA 041500Z 33003MPS 3700 -DZ BR FEW004 BKN008 OVC050 08/07 Q1025 NOSIG
ZGHA,2018-12-04 16:00,ZGHA 041600Z 32002MPS 3700 -DZ BR SCT004 BKN008 OVC050 08/08 Q1025 NOSIG
ZGHA,2018-12-04 17:00,ZGHA 041700Z 28002MPS 250V320 3500 -DZ BR FEW003 BKN007 OVC050 08/08 Q1025 NOSIG
ZGHA,2018-12-04 18:00,ZGHA 041800Z 30002MPS 270V330 3500 BR FEW003 BKN007 OVC050 08/07 Q1024 NOSIG
ZGHA,2018-12-04 19:00,ZGHA 041900Z VRB01MPS 4000 BR BKN004 OVC050 08/08 Q1023 BECMG TL2050 BKN006 OVC050
ZGHA,2018-12-04 20:00,ZGHA 042000Z VRB01MPS 3000 BR FEW002 BKN004 OVC040 08/08 Q1023 NOSIG
ZGHA,2018-12-04 21:00,ZGHA 042100Z VRB01MPS 3000 BR SCT003 BKN004 OVC040 08/08 Q1023 NOSIG
ZGHA,2018-12-04 22:00,ZGHA 042200Z VRB01MPS 3000 BR SCT003 BKN004 OVC040 08/08 Q1022 BECMG TL2300 2500
ZGHA,2018-12-04 23:00,ZGHA 042300Z 10001MPS 2900 BR SCT003 BKN004 OVC040 08/08 Q1022 BECMG TL2400 3200
ZGHA,2018-12-05 00:00,ZGHA 050000Z VRB01MPS 2500 BR FEW002 BKN004 OVC040 08/08 Q1022 BECMG TL0100 3200
ZGHA,2018-12-05 01:00,ZGHA 050100Z VRB01MPS 1600 BR FEW003 BKN004 OVC040 08/08 Q1021 BECMG TL0250 3200 BKN005 OVC040
ZGHA,2018-12-05 02:00,ZGHA 050200Z 23002MPS 190V290 3000 BR FEW004 BKN006 OVC040 09/08 Q1022 BECMG TL0350 BKN011 OVC040
ZGHA,2018-12-05 03:00,ZGHA 050300Z 26003MPS 230V300 3500 -RA BR FEW005 BKN008 OVC040 09/08 Q1022 BECMG TL0450 BKN011 OVC040
ZGHA,2018-12-05 04:00,ZGHA 050400Z 25003MPS 220V290 1600 -RA BR SCT003 BKN005 OVC040 09/08 Q1021 BECMG TL0550 3000 BKN011 OVC040
ZGHA,2018-12-05 05:00,ZGHA 050500Z 32004MPS 1700 -DZ BR FEW003 BKN005 OVC040 09/08 Q1020 BECMG TL0650 3000 BKN011 OVC040
ZGHA,2018-12-05 06:00,ZGHA 050600Z 34003MPS 2000 -RA BR FEW004 BKN006 OVC040 08/08 Q1019 BECMG TL0750 3000 BKN011 OVC040
ZGHA,2018-12-05 07:00,ZGHA 050700Z 33003MPS 2700 -DZ BR FEW003 BKN006 OVC040 09/08 Q1019 BECMG TL0850 3000 BKN011 OVC040
ZGHA,2018-12-05 08:00,ZGHA 050800Z 32002MPS 3000 -DZ BR FEW003 BKN006 OVC040 09/08 Q1019 BECMG TL0950 BKN011 OVC040
ZGHA,2018-12-05 09:00,ZGHA 050900Z 02003MPS 2500 -RA BR FEW002 BKN005 OVC040 09/08 Q1018 BECMG TL1000 3200 BKN004 OVC040
ZGHA,2018-12-05 10:00,ZGHA 051000Z 36003MPS 8000 -DZ FEW004 BKN016 OVC050 09/08 Q1019 NOSIG
ZGHA,2018-12-05 11:00,ZGHA 051100Z 34004MPS 9000 FEW004 BKN016 OVC050 09/09 Q1020 NOSIG
ZGHA,2018-12-05 12:00,ZGHA 051200Z 33004MPS 8000 SCT006 BKN015 OVC050 09/08 Q1020 BECMG TL1300 BKN011 OVC050
ZGHA,2018-12-05 13:00,ZGHA 051300Z 33004MPS 5000 BR SCT004 BKN007 OVC050 09/08 Q1021 NOSIG
ZGHA,2018-12-05 14:00,ZGHA 051400Z 34005MPS 6000 SCT005 BKN008 OVC050 09/09 Q1021 NOSIG
ZGHA,2018-12-05 15:00,ZGHA 051500Z 34005MPS 6000 SCT005 BKN007 OVC050 09/08 Q1022 NOSIG
ZGHA,2018-12-05 16:00,ZGHA 051600Z 34006MPS 8000 FEW006 BKN008 OVC050 08/08 Q1022 NOSIG
ZGHA,2018-12-05 17:00,ZGHA 051700Z 34007MPS 6000 FEW005 BKN008 OVC050 08/08 Q1022 NOSIG
ZGHA,2018-12-05 18:00,ZGHA 051800Z 34006MPS 9000 FEW005 BKN008 OVC050 08/07 Q1022 NOSIG
ZGHA,2018-12-05 19:00,ZGHA 051900Z 34006MPS 9999 FEW005 BKN008 OVC050 08/07 Q1022 NOSIG
ZGHA,2018-12-05 20:00,ZGHA 052000Z 34007MPS 7000 -RA FEW005 BKN008 OVC050 08/07 Q1022 NOSIG
ZGHA,2018-12-05 21:00,ZGHA 052100Z 34006MPS 7000 -RA FEW005 BKN009 OVC050 07/06 Q1023 NOSIG
ZGHA,2018-12-05 22:00,ZGHA 052200Z 34007MPS 7000 -RA FEW005 BKN009 OVC050 07/06 Q1023 NOSIG
ZGHA,2018-12-05 23:00,ZGHA 052300Z 34006MPS 7000 -RA BKN009 OVC050 06/06 Q1024 NOSIG
ZGHA,2018-12-06 00:00,ZGHA 060000Z 35007MPS 8000 -RA BKN009 OVC050 06/05 Q1025 NOSIG
ZGHA,2018-12-06 01:00,ZGHA 060100Z 34006MPS 9000 -RA BKN009 OVC050 06/05 Q1026 BECMG TL0250 BKN011 OVC050
ZGHA,2018-12-06 02:00,ZGHA 060200Z 34007MPS 9999 -RA BKN010 OVC050 06/05 Q1027 BECMG TL0300 BKN009 OVC050
ZGHA,2018-12-06 03:00,ZGHA 060300Z 34007MPS 8000 -RA BKN008 OVC050 06/05 Q1027 BECMG TL0400 BKN011 OVC050
ZGHA,2018-12-06 04:00,ZGHA 060400Z 35007MPS 6000 -RA BKN011 OVC050 06/05 Q1027 BECMG TL0500 BKN009 OVC050
ZGHA,2018-12-06 05:00,ZGHA 060500Z 34007MPS 9999 -RA BKN011 OVC050 06/05 Q1026 BECMG TL0650 BKN016 OVC050
ZGHA,2018-12-06 06:00,ZGHA 060600Z 34007MPS 9999 -RA BKN011 OVC050 06/05 Q1026 BECMG TL0750 BKN016 OVC050
ZGHA,2018-12-06 07:00,ZGHA 060700Z 34006MPS 8000 -RA SCT007 BKN013 OVC050 06/05 Q1026 BECMG TL0850 BKN016 OVC050
ZGHA,2018-12-06 08:00,ZGHA 060800Z 35006MPS 9999 SCT008 BKN016 OVC050 06/05 Q1026 NOSIG
ZGHA,2018-12-06 09:00,ZGHA 060900Z 34005MPS 9999 SCT008 BKN026 OVC050 06/05 Q1027 NOSIG
ZGHA,2018-12-06 10:00,ZGHA 061000Z 35006MPS 9999 BKN009 OVC040 06/05 Q1027 BECMG TL1140 BKN011 OVC050
ZGHA,2018-12-06 11:00,ZGHA 061100Z 35005MPS 9999 BKN010 OVC040 06/05 Q1028 BECMG TL1200 BKN009 OVC040
ZGHA,2018-12-06 12:00,ZGHA 061200Z 34005MPS 310V010 9999 -RA BKN008 OVC040 06/05 Q1028 BECMG TL1350 BKN011 OVC050
ZGHA,2018-12-06 13:00,ZGHA 061300Z 34005MPS 9999 SCT008 BKN016 OVC040 06/05 Q1029 NOSIG
ZGHA,2018-12-06 14:00,ZGHA 061400Z 35006MPS 8000 -RA FEW008 BKN016 OVC040 06/05 Q1029 NOSIG
ZGHA,2018-12-06 15:00,ZGHA 061500Z 35005MPS 9999 SCT007 BKN016 OVC040 06/05 Q1029 NOSIG
ZGHA,2018-12-06 16:00,ZGHA 061600Z 35005MPS 9999 -RA SCT007 BKN016 OVC040 06/05 Q1029 NOSIG
ZGHA,2018-12-06 17:00,ZGHA 061700Z 35005MPS 7000 -RA SCT007 BKN016 OVC040 06/05 Q1029 NOSIG
ZGHA,2018-12-06 18:00,ZGHA 061800Z 35005MPS 8000 -RA SCT007 BKN016 OVC040 06/06 Q1029 NOSIG
ZGHA,2018-12-06 19:00,ZGHA 061900Z 36005MPS 8000 SCT007 BKN016 OVC040 06/06 Q1029 NOSIG
ZGHA,2018-12-06 20:00,ZGHA 062000Z 35004MPS 9000 -RA SCT007 BKN016 OVC040 06/06 Q1028 NOSIG
ZGHA,2018-12-06 21:00,ZGHA 062100Z 36004MPS 9000 -RA SCT007 BKN016 OVC040 06/06 Q1028 NOSIG
ZGHA,2018-12-06 22:00,ZGHA 062200Z 36005MPS 9000 -RA SCT007 BKN016 OVC040 06/06 Q1028 BECMG TL2300 BKN009 OVC050
ZGHA,2018-12-06 23:00,ZGHA 062300Z 36004MPS 8000 -RA BKN008 OVC040 06/06 Q1029 BECMG TL0050 BKN011 OVC050
ZGHA,2018-12-07 00:00,ZGHA 070000Z 36006MPS 4500 -RA BR BKN007 OVC040 06/06 Q1030 BECMG TL0140 BKN011 OVC050
ZGHA,2018-12-07 01:00,ZGHA 070100Z 36005MPS 4500 -RA BR BKN007 OVC040 06/06 Q1031 BECMG TL0240 BKN004 OVC050
ZGHA,2018-12-07 02:00,ZGHA 070200Z 36005MPS 6000 -RA BKN007 OVC040 07/06 Q1031 BECMG TL0340 BKN011 OVC050
ZGHA,2018-12-07 03:00,ZGHA 070300Z 35005MPS 4000 -RA BR BKN007 OVC040 07/06 Q1031 NOSIG
ZGHA,2018-12-07 04:00,ZGHA 070400Z 35005MPS 5000 -RA BR BKN008 OVC040 06/06 Q1031 BECMG TL0500 BKN011 OVC050
ZGHA,2018-12-07 05:00,ZGHA 070500Z 36005MPS 3200 -RA BR BKN007 OVC040 06/05 Q1030 NOSIG
ZGHA,2018-12-07 06:00,ZGHA 070600Z 34005MPS 3000 -RA BR BKN006 OVC040 06/05 Q1030 BECMG TL0700 BKN004 OVC050
ZGHA,2018-12-07 07:00,ZGHA 070700Z 34005MPS 3000 -RA BR BKN004 OVC040 06/05 Q1030 BECMG TL0800 BKN006 OVC050
ZGHA,2018-12-07 08:00,ZGHA 070800Z 34005MPS 3000 -RA BR FEW004 BKN007 OVC040 05/05 Q1030 BECMG TL0900 2800
ZGHA,2018-12-07 09:00,ZGHA 070900Z 36006MPS 2900 -RA BR FEW004 BKN007 OVC040 05/05 Q1030 BECMG TL1000 3500
ZGHA,2018-12-07 10:00,ZGHA 071000Z 36006MPS 4000 -RA BR FEW005 BKN009 OVC040 05/04 Q1031 BECMG TL1100 BKN011 OVC040
ZGHA,2018-12-07 11:00,ZGHA 071100Z 34005MPS 5000 -RA BR FEW005 BKN010 OVC040 05/04 Q1032 BECMG TL1200 BKN007 OVC040
ZGHA,2018-12-07 12:00,ZGHA 071200Z 35005MPS 5000 -RA BR FEW004 BKN009 OVC040 05/04 Q1032 NOSIG
ZGHA,2018-12-07 13:00,ZGHA 071300Z 35006MPS 5000 BR FEW004 BKN009 OVC040 05/04 Q1033 NOSIG
ZGHA,2018-12-07 14:00,ZGHA 071400Z 35006MPS 5000 BR FEW004 BKN008 OVC040 04/04 Q1033 NOSIG
ZGHA,2018-12-07 15:00,ZGHA 071500Z 36005MPS 6000 -RA FEW005 BKN007 OVC040 04/04 Q1033 BECMG TL1600 BKN010 OVC040
ZGHA,2018-12-07 16:00,ZGHA 071600Z 36006MPS 7000 -RA FEW005 BKN007 OVC040 04/04 Q1033 NOSIG
ZGHA,2018-12-07 17:00,ZGHA 071700Z 35005MPS 8000 FEW007 BKN020 OVC050 04/04 Q1033 NOSIG
ZGHA,2018-12-07 18:00,ZGHA 071800Z 35005MPS 9000 FEW007 BKN020 OVC050 04/03 Q1033 NOSIG
ZGHA,2018-12-07 19:00,ZGHA 071900Z 34005MPS 9000 -RA FEW007 BKN020 OVC050 04/03 Q1033 NOSIG
ZGHA,2018-12-07 20:00,ZGHA 072000Z 35005MPS 9000 -RA FEW007 BKN020 OVC050 03/03 Q1032 NOSIG
ZGHA,2018-12-07 21:00,ZGHA 072100Z 35005MPS 6000 -RA FEW005 BKN015 OVC050 03/02 Q1032 NOSIG
ZGHA,2018-12-07 22:00,ZGHA 072200Z 34005MPS 5000 -RA BR FEW004 BKN012 OVC050 03/02 Q1032 NOSIG
ZGHA,2018-12-07 23:00,ZGHA 072300Z 33005MPS 5000 -RA BR FEW004 BKN010 OVC050 02/02 Q1034 BECMG TL2350 BKN007 OVC040
ZGHA,2018-12-08 00:00,ZGHA 080000Z 35005MPS 3100 -RA BR FEW004 BKN008 OVC050 02/02 Q1034 BECMG TL0100 BKN011 OVC040
ZGHA,2018-12-08 01:00,ZGHA 080100Z 35005MPS 3200 -RA BR SCT005 BKN010 OVC050 02/02 Q1034 BECMG TL0200 BKN009 OVC050
ZGHA,2018-12-08 02:00,ZGHA 080200Z 35005MPS 2700 -RA BR SCT005 BKN009 OVC050 02/02 Q1034 BECMG TL0300 3200 BKN011 OVC050
ZGHA,2018-12-08 03:00,ZGHA 080300Z 35005MPS 3500 -RA BR SCT005 BKN010 OVC050 03/02 Q1035 BECMG TL0400 BKN009 OVC050
ZGHA,2018-12-08 04:00,ZGHA 080400Z 34004MPS 3500 -RA BR SCT005 BKN009 OVC050 03/03 Q1034 NOSIG
ZGHA,2018-12-08 05:00,ZGHA 080500Z 34005MPS 4000 -RA BR BKN007 OVC050 03/02 Q1033 BECMG TL0650 BKN011 OVC050
ZGHA,2018-12-08 06:00,ZGHA 080600Z 34005MPS 5000 -RA BR BKN007 OVC050 03/02 Q1033 BECMG TL0750 BKN011 OVC050
ZGHA,2018-12-08 07:00,ZGHA 080700Z 35005MPS 3500 -RA BR BKN007 OVC050 03/02 Q1032 BECMG TL0850 BKN011 OVC050
ZGHA,2018-12-08 08:00,ZGHA 080800Z 35005MPS 4500 -RA BR BKN007 OVC050 03/02 Q1032 NOSIG
ZGHA,2018-12-08 09:00,ZGHA 080900Z 34006MPS 5000 -RA BR SCT006 BKN009 OVC050 03/02 Q1032 BECMG TL1000 BKN010 OVC050
ZGHA,2018-12-08 10:00,ZGHA 081000Z 36004MPS 5000 -RA BR SCT006 BKN008 OVC050 02/02 Q1033 BECMG TL1100 BKN010 OVC050
ZGHA,2018-12-08 11:00,ZGHA 081100Z 35005MPS 6000 -RA SCT006 BKN008 OVC050 02/02 Q1033 BECMG TL1200 BKN010 OVC050
ZGHA,2018-12-08 12:00,ZGHA 081200Z 36005MPS 7000 SCT006 BKN010 OVC050 02/02 Q1034 BECMG TL1300 BKN009 OVC050
ZGHA,2018-12-08 13:00,ZGHA 081300Z 34006MPS 4500 -RA BR SCT005 BKN008 OVC050 02/02 Q1034 NOSIG
ZGHA,2018-12-08 14:00,ZGHA 081400Z 35005MPS 5000 -RA BR SCT005 BKN008 OVC050 02/01 Q1033 NOSIG
ZGHA,2018-12-08 15:00,ZGHA 081500Z 34003MPS 5000 -RA BR SCT004 BKN008 OVC050 02/01 Q1033 NOSIG
ZGHA,2018-12-08 16:00,ZGHA 081600Z 35004MPS 6000 -RA SCT005 BKN008 OVC050 01/01 Q1033 RETS BECMG TL1700 BKN010 OVC050
ZGHA,2018-12-08 17:00,ZGHA 081700Z 36004MPS 6000 -RA SCT005 BKN008 OVC050 02/01 Q1034 NOSIG
ZGHA,2018-12-08 18:00,ZGHA 081800Z 01005MPS 8000 BKN007 OVC050 02/01 Q1033 NOSIG
ZGHA,2018-12-08 19:00,ZGHA 081900Z 35004MPS 6000 -RA BKN009 OVC050 02/01 Q1033 NOSIG
ZGHA,2018-12-08 20:00,ZGHA 082000Z 33004MPS 6000 -RA BKN007 OVC050 02/01 Q1033 NOSIG
ZGHA,2018-12-08 21:00,ZGHA 082100Z 34004MPS 5000 -RA BR FEW006 BKN009 OVC050 01/01 Q1033 NOSIG
ZGHA,2018-12-08 22:00,ZGHA 082200Z 35004MPS 6000 -RA BKN007 OVC050 01/01 Q1033 NOSIG
ZGHA,2018-12-08 23:00,ZGHA 082300Z 35004MPS 330V030 5000 -RA BR BKN006 OVC050 01/01 Q1033 NOSIG
ZGHA,2018-12-09 00:00,ZGHA 090000Z 36004MPS 5000 -RA BR BKN009 OVC050 01/01 Q1033 BECMG TL0100 BKN010 OVC050
ZGHA,2018-12-09 01:00,ZGHA 090100Z 34003MPS 7000 -RA BKN012 OVC050 01/01 Q1034 BECMG TL0200 BKN015 OVC050
ZGHA,2018-12-09 02:00,ZGHA 090200Z 35003MPS 6000 -RA BKN007 OVC050 02/01 Q1034 NOSIG
ZGHA,2018-12-09 03:00,ZGHA 090300Z 35004MPS 320V020 6000 -RA BKN009 OVC050 02/01 Q1034 BECMG TL0400 BKN011 OVC050
ZGHA,2018-12-09 04:00,ZGHA 090400Z 35004MPS 9000 FEW011 OVC023 02/M00 Q1033 NOSIG
ZGHA,2018-12-09 05:00,ZGHA 090500Z 36004MPS 7000 -RA FEW011 OVC030 02/01 Q1032 NOSIG
ZGHA,2018-12-09 06:00,ZGHA 090600Z 35004MPS 9000 -RA FEW009 OVC030 02/01 Q1031 NOSIG
ZGHA,2018-12-09 07:00,ZGHA 090700Z 35003MPS 8000 SCT008 OVC030 02/01 Q1030 BECMG TL0800 BKN008 OVC030
ZGHA,2018-12-09 08:00,ZGHA 090800Z 02004MPS 7000 -RA SCT009 OVC030 02/01 Q1030 NOSIG
ZGHA,2018-12-09 09:00,ZGHA 090900Z 36004MPS 7000 SCT008 OVC030 02/01 Q1030 NOSIG
ZGHA,2018-12-09 10:00,ZGHA 091000Z 36004MPS 6000 -RA FEW007 BKN015 OVC030 02/01 Q1030 BECMG TL1100 BKN012 OVC030
ZGHA,2018-12-09 11:00,ZGHA 091100Z 36003MPS 5000 -RA BR FEW005 BKN011 OVC030 02/01 Q1031 NOSIG
ZGHA,2018-12-09 12:00,ZGHA 091200Z 36004MPS 5000 -RA BR FEW005 BKN010 OVC030 02/01 Q1031 BECMG TL1300 BKN009 OVC030
ZGHA,2018-12-09 13:00,ZGHA 091300Z 36004MPS 5000 -RA BR BKN010 OVC030 02/01 Q1031 NOSIG
ZGHA,2018-12-09 14:00,ZGHA 091400Z 36003MPS 4000 -RA BR SCT005 BKN009 OVC030 02/02 Q1031 BECMG TL1500 BKN011 OVC030
ZGHA,2018-12-09 15:00,ZGHA 091500Z 35003MPS 4000 BR SCT005 BKN007 OVC030 02/02 Q1031 NOSIG
ZGHA,2018-12-09 16:00,ZGHA 091600Z 35004MPS 4000 BR SCT005 BKN007 OVC030 02/02 Q1031 NOSIG
ZGHA,2018-12-09 17:00,ZGHA 091700Z 01004MPS 5000 BR SCT005 BKN011 OVC030 02/01 Q1030 NOSIG
ZGHA,2018-12-09 18:00,ZGHA 091800Z 35003MPS 5000 BR SCT005 BKN011 OVC030 02/02 Q1030 NOSIG
ZGHA,2018-12-09 19:00,ZGHA 091900Z 35003MPS 4000 -RA BR SCT004 BKN007 OVC030 02/02 Q1030 NOSIG
ZGHA,2018-12-09 20:00,ZGHA 092000Z 34003MPS 4000 -RA BR SCT004 BKN007 OVC030 02/02 Q1030 NOSIG
ZGHA,2018-12-09 21:00,ZGHA 092100Z 35003MPS 4200 -DZ BR SCT005 BKN009 OVC030 02/02 Q1029 NOSIG
ZGHA,2018-12-09 22:00,ZGHA 092200Z 35002MPS 4200 -RA BR SCT005 BKN010 OVC030 02/01 Q1030 NOSIG
ZGHA,2018-12-09 23:00,ZGHA 092300Z 01004MPS 4000 BR SCT005 BKN010 OVC030 02/01 Q1030 BECMG TL2400 BKN016 OVC030
ZGHA,2018-12-10 00:00,ZGHA 100000Z 35004MPS 2500 -RA BR SCT005 BKN015 OVC030 02/02 Q1030 BECMG TL0100 3500
ZGHA,2018-12-10 01:00,ZGHA 100100Z 36003MPS 2000 -RA BR BKN005 OVC040 02/02 Q1030 BECMG TL0200 3100
ZGHA,2018-12-10 02:00,ZGHA 100200Z 36003MPS 3200 -RA BR BKN008 OVC040 02/02 Q1031 BECMG TL0340 BKN011 OVC050
ZGHA,2018-12-10 03:00,ZGHA 100300Z 33004MPS 3500 -RA BR SCT007 BKN013 OVC040 03/02 Q1030 BECMG TL0450 BKN015 OVC050
ZGHA,2018-12-10 04:00,ZGHA 100400Z 34003MPS 5000 BR SCT008 BKN020 OVC040 03/02 Q1030 BECMG TL0500 BKN014 OVC050
ZGHA,2018-12-10 05:00,ZGHA 100500Z 34004MPS 3000 -RA BR FEW005 BKN010 OVC040 03/02 Q1028 BECMG TL0600 BKN009 OVC050
ZGHA,2018-12-10 06:00,ZGHA 100600Z 34004MPS 5000 -RA BR FEW005 BKN009 OVC040 03/02 Q1028 BECMG TL0700 BKN010 OVC050
ZGHA,2018-12-10 07:00,ZGHA 100700Z 36004MPS 3500 -RA BR FEW006 BKN010 OVC040 03/02 Q1027 BECMG TL0800 BKN016 OVC050
ZGHA,2018-12-10 08:00,ZGHA 100800Z 36004MPS 3500 -RA BR FEW005 BKN010 OVC040 03/03 Q1028 BECMG TL0900 BKN009 OVC040
ZGHA,2018-12-10 09:00,ZGHA 100900Z 34005MPS 5000 -DZ BR FEW004 BKN009 OVC040 03/02 Q1028 BECMG TL1040 BKN011 OVC050
ZGHA,2018-12-10 10:00,ZGHA 101000Z 35005MPS 5000 -DZ BR FEW008 BKN012 OVC040 02/02 Q1029 NOSIG
ZGHA,2018-12-10 11:00,ZGHA 101100Z 34006MPS 4500 -RA BR FEW008 BKN012 OVC040 02/02 Q1030 NOSIG
ZGHA,2018-12-10 12:00,ZGHA 101200Z 34005MPS 3500 -RA BR FEW006 BKN011 OVC040 02/02 Q1030 NOSIG
ZGHA,2018-12-10 13:00,ZGHA 101300Z 35006MPS 3500 -RA BR SCT006 BKN011 OVC040 02/02 Q1031 NOSIG
ZGHA,2018-12-10 14:00,ZGHA 101400Z 35006MPS 3800 -RA BR SCT006 BKN011 OVC040 02/01 Q1032 NOSIG
ZGHA,2018-12-10 15:00,ZGHA 101500Z 35006MPS 3600 -RA BR SCT007 BKN012 OVC040 02/01 Q1032 NOSIG
ZGHA,2018-12-10 16:00,ZGHA 101600Z 34006MPS 4000 BR SCT007 BKN012 OVC040 02/01 Q1032 NOSIG
ZGHA,2018-12-10 17:00,ZGHA 101700Z 35005MPS 4000 BR BKN007 OVC040 02/01 Q1032 NOSIG
ZGHA,2018-12-10 18:00,ZGHA 101800Z 35005MPS 5000 BR BKN013 OVC040 02/01 Q1032 NOSIG
ZGHA,2018-12-10 19:00,ZGHA 101900Z 35006MPS 4000 BR FEW008 BKN013 OVC040 02/01 Q1032 NOSIG
ZGHA,2018-12-10 20:00,ZGHA 102000Z 34005MPS 4000 BR FEW008 BKN013 OVC040 02/01 Q1032 NOSIG
ZGHA,2018-12-10 21:00,ZGHA 102100Z 36006MPS 4000 BR BKN011 OVC040 02/01 Q1032 NOSIG
ZGHA,2018-12-10 22:00,ZGHA 102200Z 35005MPS 4000 BR BKN011 OVC040 02/00 Q1032 NOSIG
ZGHA,2018-12-10 23:00,ZGHA 102300Z 34005MPS 4000 BR BKN010 OVC040 02/01 Q1033 NOSIG
ZGHA,2018-12-11 00:00,ZGHA 110000Z 35006MPS 3000 BR BKN010 OVC040 02/01 Q1034 NOSIG
ZGHA,2018-12-11 01:00,ZGHA 110100Z 34006MPS 1800 BR BKN007 OVC040 02/01 Q1035 BECMG TL0250 3000 BKN010 OVC050
ZGHA,2018-12-11 02:00,ZGHA 110200Z 35006MPS 2000 BR BKN008 OVC040 02/01 Q1035 BECMG TL0350 3000 BKN010 OVC050
ZGHA,2018-12-11 03:00,ZGHA 110300Z 34005MPS 2500 BR BKN010 OVC040 03/01 Q1035 BECMG TL0400 3000
ZGHA,2018-12-11 04:00,ZGHA 110400Z 34006MPS 3500 BR BKN015 OVC050 03/00 Q1035 NOSIG
ZGHA,2018-12-11 05:00,ZGHA 110500Z 36007MPS 3700 BR BKN018 OVC050 03/00 Q1033 NOSIG
ZGHA,2018-12-11 06:00,ZGHA 110600Z 36006MPS 3500 BR BKN016 OVC050 03/00 Q1033 NOSIG
ZGHA,2018-12-11 07:00,ZGHA 110700Z 34006MPS 3500 BR BKN016 OVC050 04/00 Q1033 NOSIG
ZGHA,2018-12-11 08:00,ZGHA 110800Z 35005MPS 3200 BR BKN016 OVC050 04/00 Q1033 NOSIG
ZGHA,2018-12-11 09:00,ZGHA 110900Z 36006MPS 3500 BR BKN020 OVC050 04/00 Q1033 NOSIG
ZGHA,2018-12-11 10:00,ZGHA 111000Z 36006MPS 5000 BR BKN020 OVC050 03/00 Q1033 NOSIG
ZGHA,2018-12-11 11:00,ZGHA 111100Z 35004MPS 5000 BR BKN020 OVC050 03/00 Q1034 NOSIG
ZGHA,2018-12-11 12:00,ZGHA 111200Z 34005MPS 5000 BR BKN020 OVC050 03/01 Q1035 NOSIG
ZGHA,2018-12-11 13:00,ZGHA 111300Z 34005MPS 5000 BR BKN020 OVC050 03/01 Q1035 NOSIG
ZGHA,2018-12-11 14:00,ZGHA 111400Z 34004MPS 5000 BR BKN024 03/01 Q1036 NOSIG
ZGHA,2018-12-11 15:00,ZGHA 111500Z 35004MPS 5000 BR BKN026 03/01 Q1036 NOSIG
ZGHA,2018-12-11 16:00,ZGHA 111600Z 35004MPS 5000 BR NSC 03/01 Q1036 NOSIG
ZGHA,2018-12-11 17:00,ZGHA 111700Z 35004MPS 5000 BR NSC 03/01 Q1035 NOSIG
ZGHA,2018-12-11 18:00,ZGHA 111800Z 34005MPS 5000 BR NSC 03/M00 Q1035 NOSIG
ZGHA,2018-12-11 19:00,ZGHA 111900Z 36004MPS 5000 BR BKN050 03/M00 Q1035 NOSIG
ZGHA,2018-12-11 20:00,ZGHA 112000Z 34004MPS 4500 BR BKN050 03/M00 Q1035 NOSIG
ZGHA,2018-12-11 21:00,ZGHA 112100Z 34005MPS 4500 BR BKN050 03/M00 Q1034 NOSIG
ZGHA,2018-12-11 22:00,ZGHA 112200Z 34004MPS 4500 BR BKN050 02/M01 Q1035 NOSIG
ZGHA,2018-12-11 23:00,ZGHA 112300Z 36003MPS 3500 BR SCT030 01/M01 Q1036 NOSIG
ZGHA,2018-12-12 00:00,ZGHA 120000Z 02003MPS 2000 BR NSC 01/M01 Q1036 BECMG TL0100 3200
ZGHA,2018-12-12 01:00,ZGHA 120100Z 34002MPS 2500 BR NSC 03/M01 Q1037 BECMG TL0200 3200
ZGHA,2018-12-12 02:00,ZGHA 120200Z 36003MPS 3300 BR NSC 04/M01 Q1036 NOSIG
ZGHA,2018-12-12 03:00,ZGHA 120300Z 34003MPS 310V030 3700 HZ BKN021 06/M01 Q1036 NOSIG
ZGHA,2018-12-12 04:00,ZGHA 120400Z 36003MPS 320V050 4000 HZ FEW023 06/M01 Q1035 NOSIG
ZGHA,2018-12-12 05:00,ZGHA 120500Z 33003MPS 270V040 4000 HZ FEW027 07/M01 Q1034 NOSIG
ZGHA,2018-12-12 06:00,ZGHA 120600Z 34002MPS 290V030 4000 HZ FEW027 07/M01 Q1034 NOSIG
ZGHA,2018-12-12 07:00,ZGHA 120700Z 33004MPS 290V350 4000 HZ FEW027 07/M01 Q1033 NOSIG
ZGHA,2018-12-12 08:00,ZGHA 120800Z 04003MPS 010V070 4000 HZ SCT026 06/M01 Q1033 BECMG TL0950 2200
ZGHA,2018-12-12 09:00,ZGHA 120900Z 36004MPS 2600 HZ SCT030 OVC050 06/M00 Q1033 BECMG TL1000 3000
ZGHA,2018-12-12 10:00,ZGHA 121000Z 36004MPS 4000 HZ SCT030 OVC050 05/M01 Q1033 NOSIG
ZGHA,2018-12-12 11:00,ZGHA 121100Z 36004MPS 4000 HZ SCT030 05/M01 Q1033 NOSIG
ZGHA,2018-12-12 12:00,ZGHA 121200Z 35003MPS 4000 HZ SCT030 05/M01 Q1034 NOSIG
ZGHA,2018-12-12 13:00,ZGHA 121300Z 35002MPS 310V020 4000 HZ SCT030 05/M01 Q1034 NOSIG
ZGHA,2018-12-12 14:00,ZGHA 121400Z 36004MPS 4000 HZ SCT030 05/M01 Q1034 NOSIG
ZGHA,2018-12-12 15:00,ZGHA 121500Z 33002MPS 300V360 4000 HZ SCT030 04/M01 Q1034 NOSIG
ZGHA,2018-12-12 16:00,ZGHA 121600Z 35002MPS 300V010 4000 -RA BR SCT030 04/01 Q1034 NOSIG
ZGHA,2018-12-12 17:00,ZGHA 121700Z 35002MPS 3000 -RA BR SCT030 04/01 Q1033 NOSIG
ZGHA,2018-12-12 18:00,ZGHA 121800Z 36001MPS 3000 -RA BR SCT028 04/02 Q1033 NOSIG
ZGHA,2018-12-12 19:00,ZGHA 121900Z 33003MPS 3000 -RA BR SCT026 03/02 Q1033 NOSIG
ZGHA,2018-12-12 20:00,ZGHA 122000Z 32002MPS 280V350 3000 -RA BR SCT026 03/02 Q1033 NOSIG
ZGHA,2018-12-12 21:00,ZGHA 122100Z 31001MPS 2500 -RA BR SCT026 04/02 Q1033 NOSIG
ZGHA,2018-12-12 22:00,ZGHA 122200Z VRB01MPS 2700 -RA BR SCT026 04/02 Q1033 NOSIG
ZGHA,2018-12-12 23:00,ZGHA 122300Z 00000MPS 1800 -RA BR SCT008 OVC050 04/02 Q1033 BECMG TL0050 3000
ZGHA,2018-12-13 00:00,ZGHA 130000Z VRB01MPS 1500 -RA BR SCT008 OVC050 04/02 Q1034 BECMG TL0150 3000
ZGHA,2018-12-13 01:00,ZGHA 130100Z VRB01MPS 1800 BR SCT008 OVC050 04/02 Q1035 BECMG TL0250 3100
ZGHA,2018-12-13 02:00,ZGHA 130200Z 30002MPS 280V360 2400 BR SCT009 OVC050 05/01 Q1035 BECMG TL0300 3100
ZGHA,2018-12-13 03:00,ZGHA 130300Z 03002MPS 350V070 3000 BR SCT012 OVC050 06/02 Q1035 BECMG TL0400 2700
ZGHA,2018-12-13 04:00,ZGHA 130400Z 02002MPS 350V060 2700 HZ FEW020 OVC050 07/02 Q1034 BECMG TL0500 3100
ZGHA,2018-12-13 05:00,ZGHA 130500Z 02003MPS 330V050 3000 BR FEW015 OVC050 07/02 Q1033 BECMG TL0600 2700
ZGHA,2018-12-13 06:00,ZGHA 130600Z 02002MPS 340V040 2700 BR FEW015 OVC050 07/02 Q1032 BECMG TL0700 3100
ZGHA,2018-12-13 07:00,ZGHA 130700Z 02002MPS 330V060 3000 HZ SCT020 BKN050 07/02 Q1031 BECMG TL0800 2700
ZGHA,2018-12-13 08:00,ZGHA 130800Z 04002MPS 010V070 2400 HZ SCT020 OVC050 07/02 Q1031 BECMG TL0900 3100
ZGHA,2018-12-13 09:00,ZGHA 130900Z 04002MPS 2200 HZ BKN023 OVC050 07/02 Q1032 NOSIG
ZGHA,2018-12-13 10:00,ZGHA 131000Z 04002MPS 4200 BR BKN023 OVC050 07/02 Q1032 NOSIG
ZGHA,2018-12-13 11:00,ZGHA 131100Z 03002MPS 4200 BR SCT023 OVC050 07/03 Q1032 BECMG TL1200 2900
ZGHA,2018-12-13 12:00,ZGHA 131200Z 02003MPS 4500 BR NSC 06/02 Q1033 NOSIG
ZGHA,2018-12-13 13:00,ZGHA 131300Z 02003MPS 4000 BR NSC 06/01 Q1033 NOSIG
ZGHA,2018-12-13 14:00,ZGHA 131400Z 36003MPS 4000 BR FEW020 OVC050 06/01 Q1033 NOSIG
ZGHA,2018-12-13 15:00,ZGHA 131500Z 36003MPS 3500 BR FEW020 OVC050 06/02 Q1034 NOSIG
ZGHA,2018-12-13 16:00,ZGHA 131600Z 01003MPS 3500 BR FEW020 OVC050 06/02 Q1034 NOSIG
ZGHA,2018-12-13 17:00,ZGHA 131700Z 03002MPS 3500 BR FEW030 06/02 Q1033 NOSIG
ZGHA,2018-12-13 18:00,ZGHA 131800Z 36003MPS 3500 BR OVC040 06/02 Q1033 NOSIG
ZGHA,2018-12-13 19:00,ZGHA 131900Z 36002MPS 3500 BR OVC050 06/02 Q1033 NOSIG
ZGHA,2018-12-13 20:00,ZGHA 132000Z 35002MPS 3500 BR OVC050 05/02 Q1033 NOSIG
ZGHA,2018-12-13 21:00,ZGHA 132100Z 01001MPS 3200 BR SCT026 OVC050 05/02 Q1033 NOSIG
ZGHA,2018-12-13 22:00,ZGHA 132200Z 34002MPS 3200 BR FEW026 OVC050 04/02 Q1033 BECMG TL2300 2500
ZGHA,2018-12-13 23:00,ZGHA 132300Z VRB01MPS 2000 BR BKN020 OVC050 04/02 Q1033 BECMG TL0050 3200
ZGHA,2018-12-14 00:00,ZGHA 140000Z 36001MPS 1500 R36L/1300U R36R/1200N BR SCT020 04/03 Q1034 BECMG TL0100 3200
ZGHA,2018-12-14 01:00,ZGHA 140100Z 33002MPS 300V360 2000 BR FEW020 06/02 Q1034 BECMG TL0240 3200
ZGHA,2018-12-14 02:00,ZGHA 140200Z 02002MPS 3000 HZ NSC 07/02 Q1035 NOSIG
ZGHA,2018-12-14 03:00,ZGHA 140300Z 01002MPS 340V040 3500 HZ NSC 09/02 Q1034 NOSIG
ZGHA,2018-12-14 04:00,ZGHA 140400Z VRB01MPS 4500 HZ SCT023 09/02 Q1033 NOSIG
ZGHA,2018-12-14 05:00,ZGHA 140500Z VRB02MPS 6000 SCT026 10/01 Q1032 NOSIG
ZGHA,2018-12-14 06:00,ZGHA 140600Z 06003MPS 360V110 7000 SCT033 10/01 Q1031 NOSIG
ZGHA,2018-12-14 07:00,ZGHA 140700Z 07002MPS 030V100 7000 SCT033 10/01 Q1030 NOSIG
ZGHA,2018-12-14 08:00,ZGHA 140800Z 35002MPS 310V020 7000 SCT033 10/01 Q1030 NOSIG
ZGHA,2018-12-14 09:00,ZGHA 140900Z 31004MPS 4500 HZ SCT033 09/01 Q1030 NOSIG
ZGHA,2018-12-14 10:00,ZGHA 141000Z 31003MPS 5000 HZ SCT033 09/01 Q1031 NOSIG
ZGHA,2018-12-14 11:00,ZGHA 141100Z 34003MPS 5000 HZ NSC 08/01 Q1031 NOSIG
ZGHA,2018-12-14 12:00,ZGHA 141200Z 36003MPS 5000 HZ NSC 08/01 Q1031 NOSIG
ZGHA,2018-12-14 13:00,ZGHA 141300Z 33003MPS 300V360 5000 HZ BKN050 08/01 Q1032 NOSIG
ZGHA,2018-12-14 14:00,ZGHA 141400Z 36002MPS 320V020 5000 HZ OVC040 08/01 Q1032 NOSIG
ZGHA,2018-12-14 15:00,ZGHA 141500Z 34004MPS 5000 HZ OVC033 08/01 Q1032 NOSIG
ZGHA,2018-12-14 16:00,ZGHA 141600Z 34002MPS 320V020 5000 HZ OVC030 07/01 Q1031 NOSIG
ZGHA,2018-12-14 17:00,ZGHA 141700Z 33002MPS 300V010 4500 BR OVC030 07/02 Q1031 NOSIG
ZGHA,2018-12-14 18:00,ZGHA 141800Z 31002MPS 4500 BR OVC030 07/02 Q1031 NOSIG
ZGHA,2018-12-14 19:00,ZGHA 141900Z 03001MPS 4500 BR SCT022 OVC040 07/02 Q1031 NOSIG
ZGHA,2018-12-14 20:00,ZGHA 142000Z 35003MPS 3000 -DZ BR BKN018 OVC040 06/04 Q1030 NOSIG
ZGHA,2018-12-14 21:00,ZGHA 142100Z VRB01MPS 2200 R36L/1300V1400N R36R/1600N -DZ BR FEW003 BKN014 OVC040 05/05 Q1030 NOSIG
ZGHA,2018-12-14 22:00,ZGHA 142200Z VRB01MPS 2200 -RA BR BKN014 OVC040 05/05 Q1030 BECMG TL2300 3000 BKN015 OVC050
ZGHA,2018-12-14 23:00,ZGHA 142300Z 29002MPS 1800 -RA BR FEW004 BKN011 OVC040 05/05 Q1031 BECMG TL0050 3000 BKN015 OVC050
ZGHA,2018-12-15 00:00,ZGHA 150000Z 30002MPS 260V350 2000 -RA BR BKN011 OVC040 05/04 Q1031 NOSIG
ZGHA,2018-12-15 01:00,ZGHA 150100Z 32003MPS 1100 R36L/1000V1300N R36R/1500N -RA BR SCT004 BKN008 OVC040 05/05 Q1032 NOSIG
ZGHA,2018-12-15 02:00,ZGHA 150200Z 31003MPS 1100 R36L/1100V1200N R36R/1500N -RA BR SCT004 BKN008 OVC040 05/05 Q1032 NOSIG
ZGHA,2018-12-15 03:00,ZGHA 150300Z 30003MPS 1300 R36L/0900V1100U R36R/1000V1300U -RA BR SCT004 BKN008 OVC040 05/05 Q1032 NOSIG
ZGHA,2018-12-15 04:00,ZGHA 150400Z 31003MPS 1600 R36L/1000V1200D R36R/1700D -RA BR SCT005 BKN008 OVC040 05/05 Q1031 NOSIG
ZGHA,2018-12-15 05:00,ZGHA 150500Z 32003MPS 1300 R36L/1000V1100D R36R/1500D -RA BR SCT005 BKN008 OVC040 05/05 Q1030 BECMG TL0650 1600
ZGHA,2018-12-15 06:00,ZGHA 150600Z 33003MPS 1300 R36L/1000V1100N R36R/1600D -RA BR SCT005 BKN008 OVC040 05/04 Q1029 NOSIG
ZGHA,2018-12-15 07:00,ZGHA 150700Z 30003MPS 280V340 1200 R36L/1100V1200N R36R/1500D -DZ BR SCT003 BKN007 OVC040 05/04 Q1029 NOSIG
ZGHA,2018-12-15 08:00,ZGHA 150800Z 29003MPS 1200 R36L/1100V1200N R36R/1500N -DZ BR SCT003 BKN006 OVC040 05/04 Q1029 NOSIG
ZGHA,2018-12-15 09:00,ZGHA 150900Z 32005MPS 1500 -DZ BR SCT003 BKN006 OVC040 05/04 Q1029 BECMG TL1000 1400
ZGHA,2018-12-15 10:00,ZGHA 151000Z 36002MPS 320V040 2500 -DZ BR SCT003 BKN006 OVC040 05/04 Q1030 NOSIG
ZGHA,2018-12-15 11:00,ZGHA 151100Z 01003MPS 2500 BR SCT004 BKN009 OVC040 05/04 Q1031 BECMG TL1250 3000 BKN011 OVC050
ZGHA,2018-12-15 12:00,ZGHA 151200Z 33003MPS 2200 BR SCT005 BKN011 OVC040 05/04 Q1031 BECMG TL1350 3000
ZGHA,2018-12-15 13:00,ZGHA 151300Z 31003MPS 2600 BR SCT011 BKN026 OVC050 05/04 Q1032 BECMG TL1450 3000
ZGHA,2018-12-15 14:00,ZGHA 151400Z 32003MPS 300V360 3000 BR FEW011 BKN030 05/03 Q1032 BECMG TL1500 2800
ZGHA,2018-12-15 15:00,ZGHA 151500Z 30002MPS 270V330 2700 BR BKN020 05/03 Q1032 BECMG TL1600 3000
ZGHA,2018-12-15 16:00,ZGHA 151600Z 28002MPS 3000 BR BKN020 05/03 Q1032 BECMG TL1700 2000
ZGHA,2018-12-15 17:00,ZGHA 151700Z VRB01MPS 2900 BR SCT020 05/03 Q1032 NOSIG
ZGHA,2018-12-15 18:00,ZGHA 151800Z 29002MPS 250V310 3000 BR SCT016 05/03 Q1032 NOSIG
ZGHA,2018-12-15 19:00,ZGHA 151900Z VRB01MPS 3000 BR SCT022 05/03 Q1031 NOSIG
ZGHA,2018-12-15 20:00,ZGHA 152000Z 30001MPS 3000 BR SCT022 05/03 Q1032 NOSIG
ZGHA,2018-12-15 21:00,ZGHA 152100Z 00000MPS 3500 BR NSC 04/03 Q1031 NOSIG
ZGHA,2018-12-15 22:00,ZGHA 152200Z 08001MPS 3500 R36R/1300U BR PRFG NSC 03/03 Q1031 BECMG TL2300 1100
ZGHA,2018-12-15 23:00,ZGHA 152300Z VRB01MPS 2400 BR NSC 04/03 Q1032 BECMG TL0050 3000
ZGHA,2018-12-16 00:00,ZGHA 160000Z 07001MPS 1400 R36R/0900V1000N BR NSC 04/04 Q1032 BECMG TL0100 2000
ZGHA,2018-12-16 01:00,ZGHA 160100Z 00000MPS 1600 R36L/1200N R36R/1500N BR NSC 05/04 Q1032 BECMG TL0200 3000
ZGHA,2018-12-16 02:00,ZGHA 160200Z VRB01MPS 2200 R36L/1400D R36R/1600N BR NSC 06/03 Q1033 BECMG TL0300 3000
ZGHA,2018-12-16 03:00,ZGHA 160300Z VRB01MPS 3000 HZ NSC 09/01 Q1032 NOSIG
ZGHA,2018-12-16 04:00,ZGHA 160400Z VRB01MPS 3500 HZ NSC 10/01 Q1031 NOSIG
ZGHA,2018-12-16 05:00,ZGHA 160500Z 02002MPS 310V080 4200 HZ NSC 11/01 Q1029 NOSIG
ZGHA,2018-12-16 06:00,ZGHA 160600Z VRB02MPS 5000 HZ NSC 12/M00 Q1028 NOSIG
ZGHA,2018-12-16 07:00,ZGHA 160700Z 01002MPS 320V050 5000 HZ NSC 12/M00 Q1027 NOSIG
ZGHA,2018-12-16 08:00,ZGHA 160800Z VRB02MPS 5000 HZ NSC 12/M00 Q1027 NOSIG
ZGHA,2018-12-16 09:00,ZGHA 160900Z VRB01MPS 5000 HZ NSC 11/00 Q1027 NOSIG
ZGHA,2018-12-16 10:00,ZGHA 161000Z 16001MPS 5000 HZ NSC 09/02 Q1027 NOSIG
ZGHA,2018-12-16 11:00,ZGHA 161100Z VRB01MPS 5000 BR NSC 07/03 Q1027 NOSIG
ZGHA,2018-12-16 12:00,ZGHA 161200Z 13001MPS 4000 BR NSC 06/03 Q1028 NOSIG
ZGHA,2018-12-16 13:00,ZGHA 161300Z VRB01MPS 5000 BR NSC 05/04 Q1028 NOSIG
ZGHA,2018-12-16 14:00,ZGHA 161400Z 08001MPS 5000 BR NSC 04/03 Q1029 NOSIG
ZGHA,2018-12-16 15:00,ZGHA 161500Z 10001MPS 5000 BR NSC 04/02 Q1029 NOSIG
ZGHA,2018-12-16 16:00,ZGHA 161600Z VRB01MPS 5000 BR NSC 03/02 Q1029 NOSIG
ZGHA,2018-12-16 17:00,ZGHA 161700Z VRB01MPS 5000 BR NSC 03/02 Q1028 NOSIG
ZGHA,2018-12-16 18:00,ZGHA 161800Z 10001MPS 5000 BR NSC 02/01 Q1028 NOSIG
ZGHA,2018-12-16 19:00,ZGHA 161900Z VRB01MPS 3000 PRFG BR NSC 01/01 Q1028 BECMG TL2000 2500
ZGHA,2018-12-16 20:00,ZGHA 162000Z 20001MPS 2800 BR NSC 01/01 Q1028 NOSIG
ZGHA,2018-12-16 21:00,ZGHA 162100Z 08001MPS 2800 R36L/0450V0700N R36R/0300V0550D PRFG BR NSC M00/M01 Q1028 NOSIG
ZGHA,2018-12-16 22:00,ZGHA 162200Z 00000MPS 2500 R36L/P2000 R36R/0375V0600D PRFG BR NSC 00/00 Q1028 NOSIG
ZGHA,2018-12-16 23:00,ZGHA 162300Z VRB01MPS 2200 PRFG BR NSC M00/M00 Q1029 BECMG TL0050 3500
ZGHA,2018-12-17 00:00,ZGHA 170000Z VRB01MPS 2000 R36L/0350V1100D R36R/0800V1400U PRFG BR NSC M00/M01 Q1029 BECMG TL0150 3500
ZGHA,2018-12-17 01:00,ZGHA 170100Z VRB01MPS 1000 R18R/1100V1300N R18L/1500U PRFG BR NSC 01/01 Q1030 BECMG TL0200 1600
ZGHA,2018-12-17 02:00,ZGHA 170200Z VRB01MPS 1800 R18R/1400U R18L/1300U PRFG BR NSC 03/03 Q1030 BECMG TL0300 4000
ZGHA,2018-12-17 03:00,ZGHA 170300Z 17002MPS 3000 BR NSC 08/04 Q1030 NOSIG
ZGHA,2018-12-17 04:00,ZGHA 170400Z 17002MPS 120V210 5000 HZ NSC 12/03 Q1029 NOSIG
ZGHA,2018-12-17 05:00,ZGHA 170500Z VRB01MPS 7000 NSC 14/01 Q1027 NOSIG
ZGHA,2018-12-17 06:00,ZGHA 170600Z VRB01MPS 9000 NSC 16/M01 Q1026 NOSIG
ZGHA,2018-12-17 07:00,ZGHA 170700Z VRB01MPS 9000 NSC 16/M02 Q1025 NOSIG
ZGHA,2018-12-17 08:00,ZGHA 170800Z 14002MPS 060V200 CAVOK 16/M02 Q1025 NOSIG
ZGHA,2018-12-17 09:00,ZGHA 170900Z VRB01MPS CAVOK 15/M03 Q1025 NOSIG
ZGHA,2018-12-17 10:00,ZGHA 171000Z VRB01MPS CAVOK 13/02 Q1026 NOSIG
ZGHA,2018-12-17 11:00,ZGHA 171100Z 00000MPS CAVOK 09/03 Q1026 NOSIG
ZGHA,2018-12-17 12:00,ZGHA 171200Z VRB01MPS 8000 NSC 07/03 Q1026 NOSIG
ZGHA,2018-12-17 13:00,ZGHA 171300Z VRB01MPS 7000 NSC 06/04 Q1026 NOSIG
ZGHA,2018-12-17 14:00,ZGHA 171400Z VRB01MPS 6000 NSC 06/04 Q1026 NOSIG
ZGHA,2018-12-17 15:00,ZGHA 171500Z 18001MPS 7000 NSC 06/03 Q1026 NOSIG
ZGHA,2018-12-17 16:00,ZGHA 171600Z 20002MPS 170V250 8000 NSC 06/02 Q1026 NOSIG
ZGHA,2018-12-17 17:00,ZGHA 171700Z 05002MPS 6000 NSC 04/02 Q1026 NOSIG
ZGHA,2018-12-17 18:00,ZGHA 171800Z VRB01MPS 4200 BR NSC 03/03 Q1026 NOSIG
ZGHA,2018-12-17 19:00,ZGHA 171900Z 05001MPS 4000 BR NSC 03/02 Q1025 NOSIG
ZGHA,2018-12-17 20:00,ZGHA 172000Z VRB01MPS 4000 BR PRFG NSC 02/02 Q1025 NOSIG
ZGHA,2018-12-17 21:00,ZGHA 172100Z 00000MPS 4000 BR PRFG NSC 02/01 Q1024 NOSIG
ZGHA,2018-12-17 22:00,ZGHA 172200Z 00000MPS 5000 BR NSC 02/02 Q1025 NOSIG
ZGHA,2018-12-17 23:00,ZGHA 172300Z 00000MPS 4000 BR NSC 01/01 Q1025 NOSIG
ZGHA,2018-12-18 00:00,ZGHA 180000Z 17001MPS 5000 BR NSC 02/02 Q1026 NOSIG
ZGHA,2018-12-18 01:00,ZGHA 180100Z VRB01MPS 7000 NSC 05/03 Q1026 NOSIG
ZGHA,2018-12-18 02:00,ZGHA 180200Z 17002MPS 130V200 9000 NSC 10/04 Q1025 NOSIG
ZGHA,2018-12-18 03:00,ZGHA 180300Z 19003MPS 160V230 CAVOK 13/02 Q1024 NOSIG
ZGHA,2018-12-18 04:00,ZGHA 180400Z 22004MPS 180V250 CAVOK 15/01 Q1024 NOSIG
ZGHA,2018-12-18 05:00,ZGHA 180500Z 21003MPS 160V280 CAVOK 17/01 Q1022 NOSIG
ZGHA,2018-12-18 06:00,ZGHA 180600Z 23003MPS 190V270 CAVOK 19/01 Q1020 NOSIG
ZGHA,2018-12-18 07:00,ZGHA 180700Z 17003MPS 080V250 CAVOK 19/M01 Q1019 NOSIG
ZGHA,2018-12-18 08:00,ZGHA 180800Z VRB04MPS CAVOK 20/M04 Q1019 NOSIG
ZGHA,2018-12-18 09:00,ZGHA 180900Z 19002MPS 170V250 CAVOK 18/02 Q1019 NOSIG
ZGHA,2018-12-18 10:00,ZGHA 181000Z VRB01MPS 8000 NSC 15/04 Q1019 NOSIG
ZGHA,2018-12-18 11:00,ZGHA 181100Z VRB01MPS 8000 NSC 13/06 Q1019 NOSIG
ZGHA,2018-12-18 12:00,ZGHA 181200Z 19002MPS 8000 NSC 13/04 Q1019 NOSIG
ZGHA,2018-12-18 13:00,ZGHA 181300Z VRB01MPS CAVOK 13/04 Q1019 NOSIG
ZGHA,2018-12-18 14:00,ZGHA 181400Z VRB01MPS CAVOK 12/04 Q1019 NOSIG
ZGHA,2018-12-18 15:00,ZGHA 181500Z VRB01MPS CAVOK 11/06 Q1019 NOSIG
ZGHA,2018-12-18 16:00,ZGHA 181600Z VRB01MPS CAVOK 12/05 Q1019 NOSIG
ZGHA,2018-12-18 17:00,ZGHA 181700Z 29002MPS CAVOK 13/04 Q1019 NOSIG
ZGHA,2018-12-18 18:00,ZGHA 181800Z VRB01MPS CAVOK 11/05 Q1019 NOSIG
ZGHA,2018-12-18 19:00,ZGHA 181900Z VRB01MPS CAVOK 11/06 Q1018 NOSIG
ZGHA,2018-12-18 20:00,ZGHA 182000Z VRB01MPS CAVOK 11/06 Q1017 NOSIG
ZGHA,2018-12-18 21:00,ZGHA 182100Z VRB01MPS CAVOK 11/05 Q1017 NOSIG
ZGHA,2018-12-18 22:00,ZGHA 182200Z VRB01MPS CAVOK 12/04 Q1017 NOSIG
ZGHA,2018-12-18 23:00,ZGHA 182300Z 25001MPS CAVOK 11/04 Q1018 NOSIG
ZGHA,2018-12-19 00:00,ZGHA 190000Z 23002MPS CAVOK 12/05 Q1018 NOSIG
ZGHA,2018-12-19 01:00,ZGHA 190100Z VRB01MPS CAVOK 12/05 Q1018 NOSIG
ZGHA,2018-12-19 02:00,ZGHA 190200Z 26002MPS 220V290 CAVOK 13/05 Q1019 NOSIG
ZGHA,2018-12-19 03:00,ZGHA 190300Z 27002MPS 180V290 CAVOK 14/05 Q1019 NOSIG
ZGHA,2018-12-19 04:00,ZGHA 190400Z 23002MPS 210V270 8000 NSC 14/05 Q1018 NOSIG
ZGHA,2018-12-19 05:00,ZGHA 190500Z VRB01MPS 8000 NSC 14/06 Q1016 NOSIG
ZGHA,2018-12-19 06:00,ZGHA 190600Z VRB01MPS 7000 NSC 15/06 Q1016 NOSIG
ZGHA,2018-12-19 07:00,ZGHA 190700Z 04002MPS 020V080 6000 OVC050 14/07 Q1016 NOSIG
ZGHA,2018-12-19 08:00,ZGHA 190800Z VRB01MPS 6000 OVC050 14/06 Q1016 NOSIG
ZGHA,2018-12-19 09:00,ZGHA 190900Z 08002MPS 050V140 5000 -RA HZ OVC040 14/07 Q1016 NOSIG
ZGHA,2018-12-19 10:00,ZGHA 191000Z VRB01MPS 7000 -RA OVC040 13/07 Q1016 NOSIG
ZGHA,2018-12-19 11:00,ZGHA 191100Z VRB02MPS 7000 OVC040 13/08 Q1016 NOSIG
ZGHA,2018-12-19 12:00,ZGHA 191200Z 02003MPS 5000 -RA BR OVC040 11/10 Q1017 NOSIG
ZGHA,2018-12-19 13:00,ZGHA 191300Z 01004MPS 4500 -RA BR FEW020 OVC040 11/10 Q1017 NOSIG
ZGHA,2018-12-19 14:00,ZGHA 191400Z 34002MPS 3500 -RA BR SCT005 OVC040 11/11 Q1018 NOSIG
ZGHA,2018-12-19 15:00,ZGHA 191500Z 35002MPS 3100 -RA BR FEW003 BKN006 OVC040 11/11 Q1017 BECMG TL1600 2500
ZGHA,2018-12-19 16:00,ZGHA 191600Z 34003MPS 2800 -RA BR FEW004 BKN007 OVC040 11/10 Q1018 BECMG TL1700 3100
ZGHA,2018-12-19 17:00,ZGHA 191700Z 35003MPS 320V020 3000 -SHRA BR FEW003 BKN006 OVC040 10/10 Q1018 NOSIG
ZGHA,2018-12-19 18:00,ZGHA 191800Z 34005MPS 2800 -RA BR FEW003 BKN006 OVC040 10/10 Q1018 NOSIG
ZGHA,2018-12-19 19:00,ZGHA 191900Z 33003MPS 3200 -RA BR FEW004 BKN007 OVC040 10/10 Q1018 NOSIG
ZGHA,2018-12-19 20:00,ZGHA 192000Z 36003MPS 2400 -RA BR BKN005 OVC040 10/10 Q1018 NOSIG
ZGHA,2018-12-19 21:00,ZGHA 192100Z 32002MPS 2000 -RA BR BKN005 OVC040 10/10 Q1018 NOSIG
ZGHA,2018-12-19 22:00,ZGHA 192200Z 30003MPS 2000 -RA BR SCT003 BKN005 OVC040 10/09 Q1019 NOSIG
ZGHA,2018-12-19 23:00,ZGHA 192300Z 31004MPS 2500 -RA BR SCT004 BKN009 OVC040 09/09 Q1020 BECMG TL2400 3100
ZGHA,2018-12-20 00:00,ZGHA 200000Z 31002MPS 260V360 2200 -RA BR SCT004 BKN009 OVC040 10/09 Q1020 NOSIG
ZGHA,2018-12-20 01:00,ZGHA 200100Z 31003MPS 2400 -RA BR SCT005 BKN009 OVC040 10/09 Q1021 NOSIG
ZGHA,2018-12-20 02:00,ZGHA 200200Z 30003MPS 2000 -RA BR FEW005 BKN008 OVC040 10/09 Q1021 NOSIG
ZGHA,2018-12-20 03:00,ZGHA 200300Z 34003MPS 2000 R36L/1400N R36R/P2000 -RA BR FEW004 BKN007 OVC040 10/10 Q1020 NOSIG
ZGHA,2018-12-20 04:00,ZGHA 200400Z 33003MPS 280V360 2000 R36L/1400D R36R/1900U BR FEW004 BKN007 OVC040 10/10 Q1020 NOSIG
ZGHA,2018-12-20 05:00,ZGHA 200500Z 33002MPS 270V360 1700 R36L/1400D R36R/P2000 BR FEW004 BKN007 OVC040 11/10 Q1019 NOSIG
ZGHA,2018-12-20 06:00,ZGHA 200600Z 34002MPS 320V030 2000 BR FEW005 BKN008 OVC040 11/10 Q1018 NOSIG
ZGHA,2018-12-20 07:00,ZGHA 200700Z 02002MPS 2100 BR FEW005 BKN008 OVC040 11/10 Q1017 NOSIG
ZGHA,2018-12-20 08:00,ZGHA 200800Z 36002MPS 2000 BR FEW005 BKN009 OVC040 11/10 Q1017 NOSIG
ZGHA,2018-12-20 09:00,ZGHA 200900Z 01001MPS 2400 BR BKN007 OVC040 11/10 Q1017 BECMG TL1040 3200
ZGHA,2018-12-20 10:00,ZGHA 201000Z 06001MPS 3600 BR BKN008 OVC040 11/10 Q1018 BECMG TL1140 BKN011 OVC050
ZGHA,2018-12-20 11:00,ZGHA 201100Z 05001MPS 3000 BR BKN006 OVC040 11/10 Q1018 BECMG TL1200 2700
ZGHA,2018-12-20 12:00,ZGHA 201200Z 01002MPS 2700 BR FEW003 BKN004 OVC040 11/10 Q1018 BECMG TL1340 3000 BKN006 OVC050
ZGHA,2018-12-20 13:00,ZGHA 201300Z 01003MPS 1400 R36L/1000V1200N R36R/1600D BR SCT002 BKN004 OVC040 11/10 Q1019 BECMG TL1400 1600
ZGHA,2018-12-20 14:00,ZGHA 201400Z 04002MPS 2100 BR SCT002 BKN004 OVC040 11/11 Q1019 NOSIG
ZGHA,2018-12-20 15:00,ZGHA 201500Z 02003MPS 2400 BR BKN004 OVC040 11/11 Q1019 BECMG TL1640 BKN006 OVC050
ZGHA,2018-12-20 16:00,ZGHA 201600Z 36002MPS 2700 BR BKN009 OVC040 11/11 Q1019 BECMG TL1700 3200 BKN011 OVC050
ZGHA,2018-12-20 17:00,ZGHA 201700Z 36003MPS 2400 BR BKN007 OVC040 11/10 Q1019 NOSIG
ZGHA,2018-12-20 18:00,ZGHA 201800Z 01002MPS 1800 R36L/1300V1400U R36R/1800N -RA BR FEW003 BKN010 OVC040 11/10 Q1019 NOSIG
ZGHA,2018-12-20 19:00,ZGHA 201900Z 36003MPS 1800 R36L/1400D R36R/1900N BR FEW003 BKN010 OVC040 11/11 Q1020 NOSIG
ZGHA,2018-12-20 20:00,ZGHA 202000Z 36003MPS 1500 R36L/1000V1100N R36R/1400N BR FEW003 BKN010 OVC040 11/11 Q1019 NOSIG
ZGHA,2018-12-20 21:00,ZGHA 202100Z 01002MPS 1700 R36L/1200V1400N R36R/P2000 BR FEW003 BKN009 OVC040 11/11 Q1019 NOSIG
ZGHA,2018-12-20 22:00,ZGHA 202200Z 01003MPS 2300 R36L/1200V1400D R36R/P2000 BR FEW003 BKN008 OVC040 11/11 Q1019 BECMG TL2340 3200
ZGHA,2018-12-20 23:00,ZGHA 202300Z 35002MPS 2300 -RA BR FEW003 BKN006 OVC040 11/11 Q1020 NOSIG
ZGHA,2018-12-21 00:00,ZGHA 210000Z 36003MPS 1400 R36L/1400D R36R/1800D -RA BR FEW003 BKN009 OVC040 11/11 Q1020 BECMG TL0100 1600
ZGHA,2018-12-21 01:00,ZGHA 210100Z 03002MPS 1600 R36L/1200V1400U R36R/P2000 BR SCT005 BKN009 OVC040 11/11 Q1021 BECMG TL0200 SCT006 BKN010 OVC040
ZGHA,2018-12-21 02:00,ZGHA 210200Z 00000MPS 2000 BR SCT005 BKN008 OVC040 12/11 Q1021 BECMG TL0300 SCT006 BKN010 OVC040
ZGHA,2018-12-21 03:00,ZGHA 210300Z 30002MPS 250V340 2400 BR SCT006 BKN008 OVC040 12/11 Q1021 NOSIG
ZGHA,2018-12-21 04:00,ZGHA 210400Z 35003MPS 2400 R36L/1400U R36R/P2000 BR SCT006 BKN010 OVC040 12/11 Q1020 BECMG TL0500 SCT006 BKN009 OVC040
ZGHA,2018-12-21 05:00,ZGHA 210500Z 03002MPS 350V050 2500 R36L/1400U R36R/P2000 BR SCT007 BKN009 OVC040 12/11 Q1019 BECMG TL0600 SCT006 BKN010 OVC040
ZGHA,2018-12-21 06:00,ZGHA 210600Z 34003MPS 300V010 2500 BR SCT007 BKN010 OVC040 13/11 Q1018 BECMG TL0700 SCT007 BKN009 OVC040
ZGHA,2018-12-21 07:00,ZGHA 210700Z 35003MPS 2300 -DZ BR SCT006 BKN008 OVC040 13/11 Q1017 NOSIG
ZGHA,2018-12-21 08:00,ZGHA 210800Z 31003MPS 1400 R36L/1200V1400N R36R/1900D -RA BR SCT004 BKN008 OVC040 12/11 Q1018 NOSIG
ZGHA,2018-12-21 09:00,ZGHA 210900Z 34002MPS 0900 R36L/1300D R36R/1600N -RA FG SCT003 BKN005 OVC033 12/12 Q1018 BECMG TL1050 1600 BR
ZGHA,2018-12-21 10:00,ZGHA 211000Z 36004MPS 1800 -RA BR SCT003 BKN005 OVC033 12/12 Q1018 BECMG TL1150 3000
ZGHA,2018-12-21 11:00,ZGHA 211100Z 36003MPS 2100 -RA BR SCT003 BKN006 OVC033 12/12 Q1018 BECMG TL1250 3000
ZGHA,2018-12-21 12:00,ZGHA 211200Z 35003MPS 2700 -RA BR SCT004 BKN012 OVC033 12/12 Q1019 BECMG TL1300 3000 BKN015 OVC050
ZGHA,2018-12-21 13:00,ZGHA 211300Z 34004MPS 3000 -RA BR SCT004 BKN010 OVC033 12/12 Q1020 BECMG TL1400 2500
ZGHA,2018-12-21 14:00,ZGHA 211400Z 32004MPS 300V360 2500 BR BKN006 OVC033 12/12 Q1020 BECMG TL1550 BKN010 OVC050
ZGHA,2018-12-21 15:00,ZGHA 211500Z 33004MPS 2000 -SHRA BR BKN005 OVC033 12/11 Q1020 NOSIG
ZGHA,2018-12-21 16:00,ZGHA 211600Z 34003MPS 2800 -SHRA BR BKN006 OVC033 12/11 Q1021 BECMG TL1700 3000 BKN010 OVC050
ZGHA,2018-12-21 17:00,ZGHA 211700Z 34003MPS 3000 BR SCT005 BKN010 OVC033 12/11 Q1021 NOSIG
ZGHA,2018-12-21 18:00,ZGHA 211800Z 34003MPS 310V010 3000 BR BKN006 OVC033 12/11 Q1021 NOSIG
ZGHA,2018-12-21 19:00,ZGHA 211900Z 33003MPS 2700 BR SCT004 BKN009 OVC033 11/11 Q1021 NOSIG
ZGHA,2018-12-21 20:00,ZGHA 212000Z 35002MPS 1800 -RA BR SCT003 BKN005 OVC033 11/11 Q1021 NOSIG
ZGHA,2018-12-21 21:00,ZGHA 212100Z 34003MPS 1800 -DZ BR SCT003 BKN005 OVC033 11/11 Q1020 NOSIG
ZGHA,2018-12-21 22:00,ZGHA 212200Z 33003MPS 2400 BR SCT003 BKN005 OVC033 11/11 Q1021 BECMG TL2350 3000
ZGHA,2018-12-21 23:00,ZGHA 212300Z 34003MPS 2700 BR SCT003 BKN005 OVC033 11/11 Q1021 BECMG TL0050 3000
ZGHA,2018-12-22 00:00,ZGHA 220000Z 31003MPS 1000 R36L/1000V1100D R36R/1500N -RA BR SCT002 BKN004 OVC033 11/11 Q1022 BECMG TL0100 1600 BKN005 OVC050
ZGHA,2018-12-22 01:00,ZGHA 220100Z 30003MPS 0800 R36L/1000V1100N R36R/1600N -RA FG BKN003 OVC033 11/11 Q1023 NOSIG
ZGHA,2018-12-22 02:00,ZGHA 220200Z 30004MPS 270V330 0800 R36L/0900V1000N R36R/1400N FG BKN003 OVC033 11/11 Q1023 NOSIG
ZGHA,2018-12-22 03:00,ZGHA 220300Z 31004MPS 1200 R36L/1000V1200N R36R/1600D -DZ BR BKN003 OVC033 11/11 Q1023 NOSIG
ZGHA,2018-12-22 04:00,ZGHA 220400Z 31004MPS 1200 R36L/0900V1100D R36R/1500N -DZ BR BKN004 OVC033 11/11 Q1023 BECMG TL0550 BKN006 OVC050
ZGHA,2018-12-22 05:00,ZGHA 220500Z 31004MPS 1000 R36L/0900V1100N R36R/1400N -DZ BR BKN004 OVC033 11/10 Q1022 NOSIG
ZGHA,2018-12-22 06:00,ZGHA 220600Z 31004MPS 0900 R36L/1000V1100D R36R/1500D -DZ FG BKN004 OVC033 10/10 Q1022 NOSIG
ZGHA,2018-12-22 07:00,ZGHA 220700Z 31004MPS 1000 R36L/1000V1100N R36R/1500U -DZ BR BKN004 OVC033 10/10 Q1022 NOSIG
ZGHA,2018-12-22 08:00,ZGHA 220800Z 32005MPS 1000 R36L/1000V1100U R36R/1500N -DZ BR BKN003 OVC033 10/10 Q1022 NOSIG
ZGHA,2018-12-22 09:00,ZGHA 220900Z 32004MPS 1100 R36L/1100V1300N R36R/1800N -DZ BR BKN003 OVC033 10/09 Q1023 BECMG TL1050 1500 BKN006 OVC050
ZGHA,2018-12-22 10:00,ZGHA 221000Z 31003MPS 1700 -DZ BR BKN003 OVC033 10/09 Q1024 NOSIG
ZGHA,2018-12-22 11:00,ZGHA 221100Z 34004MPS 2000 BR BKN004 OVC033 10/09 Q1025 BECMG TL1250 3000 BKN006 OVC050
ZGHA,2018-12-22 12:00,ZGHA 221200Z 34004MPS 2500 BR FEW004 BKN007 OVC040 10/09 Q1026 BECMG TL1350 3000 BKN011 OVC050
ZGHA,2018-12-22 13:00,ZGHA 221300Z 35005MPS 2500 BR BKN007 OVC040 10/09 Q1026 BECMG TL1450 3000 BKN011 OVC050
ZGHA,2018-12-22 14:00,ZGHA 221400Z 33004MPS 2500 -RA BR BKN007 OVC040 10/09 Q1027 BECMG TL1550 3000 BKN011 OVC050
ZGHA,2018-12-22 15:00,ZGHA 221500Z 33005MPS 2500 -RA BR BKN006 OVC040 10/09 Q1027 BECMG TL1650 3000 BKN011 OVC050
ZGHA,2018-12-22 16:00,ZGHA 221600Z 35006MPS 2000 -RA BR BKN006 OVC040 09/09 Q1028 NOSIG
ZGHA,2018-12-22 17:00,ZGHA 221700Z 35006MPS 1800 R36L/1200V1300N R36R/1700N -RA BR BKN004 OVC040 09/09 Q1027 NOSIG
ZGHA,2018-12-22 18:00,ZGHA 221800Z 35006MPS 1600 R36L/1300V1400N R36R/1800N -RA BR BKN004 OVC040 09/09 Q1028 NOSIG
ZGHA,2018-12-22 19:00,ZGHA 221900Z 34005MPS 1600 R36L/1400N R36R/1900N BR FEW003 BKN005 OVC040 09/09 Q1028 NOSIG
ZGHA,2018-12-22 20:00,ZGHA 222000Z 34005MPS 1600 BR FEW003 BKN005 OVC040 09/09 Q1028 NOSIG
ZGHA,2018-12-22 21:00,ZGHA 222100Z 34006MPS 2000 BR BKN006 OVC040 09/09 Q1028 NOSIG
ZGHA,2018-12-22 22:00,ZGHA 222200Z 35005MPS 2200 BR BKN007 OVC040 09/08 Q1028 NOSIG
ZGHA,2018-12-22 23:00,ZGHA 222300Z 35005MPS 2200 BR BKN008 OVC040 09/08 Q1028 BECMG TL0050 3000 BKN011 OVC050
ZGHA,2018-12-23 00:00,ZGHA 230000Z 34004MPS 1500 R36L/1300V1400N R36R/1800N BR BKN007 OVC040 09/08 Q1029 BECMG TL0150 3000 BKN011 OVC050
ZGHA,2018-12-23 01:00,ZGHA 230100Z 34005MPS 1500 R36L/1200V1400N R36R/1700N BR BKN008 OVC040 09/07 Q1029 BECMG TL0240 3000 BKN011 OVC050
ZGHA,2018-12-23 02:00,ZGHA 230200Z 34005MPS 2000 R36L/1200V1300N R36R/1500N BR BKN026 OVC040 09/07 Q1029 BECMG TL0340 3200
ZGHA,2018-12-23 03:00,ZGHA 230300Z 35005MPS 2200 R36L/1200V1300N R36R/1600U BR OVC040 10/07 Q1029 BECMG TL0400 3000
ZGHA,2018-12-23 04:00,ZGHA 230400Z 34005MPS 2200 BR OVC040 10/07 Q1029 BECMG TL0500 3200
ZGHA,2018-12-23 05:00,ZGHA 230500Z 34004MPS 2200 BR OVC033 11/07 Q1028 NOSIG
ZGHA,2018-12-23 06:00,ZGHA 230600Z 36004MPS 2400 BR OVC033 10/06 Q1027 BECMG TL0700 3200
ZGHA,2018-12-23 07:00,ZGHA 230700Z 36004MPS 2500 BR BKN023 10/06 Q1027 BECMG TL0840 3200
ZGHA,2018-12-23 08:00,ZGHA 230800Z 35004MPS 3000 BR BKN023 11/06 Q1027 BECMG TL0900 2800
ZGHA,2018-12-23 09:00,ZGHA 230900Z 35004MPS 2300 BR BKN023 10/06 Q1027 NOSIG
ZGHA,2018-12-23 10:00,ZGHA 231000Z 35002MPS 3500 BR BKN023 10/07 Q1028 NOSIG
ZGHA,2018-12-23 11:00,ZGHA 231100Z 30003MPS 280V340 3500 BR BKN020 10/06 Q1028 NOSIG
ZGHA,2018-12-23 12:00,ZGHA 231200Z 33003MPS 3200 BR BKN020 10/06 Q1028 BECMG TL1300 2800
ZGHA,2018-12-23 13:00,ZGHA 231300Z 33003MPS 2800 BR BKN020 10/06 Q1028 BECMG TL1400 3100
ZGHA,2018-12-23 14:00,ZGHA 231400Z 36003MPS 3000 BR BKN020 09/07 Q1028 BECMG TL1500 2800
ZGHA,2018-12-23 15:00,ZGHA 231500Z 33003MPS 2400 BR BKN020 09/07 Q1029 NOSIG
ZGHA,2018-12-23 16:00,ZGHA 231600Z 33004MPS 2800 BR SCT020 09/06 Q1028 BECMG TL1700 3100
ZGHA,2018-12-23 17:00,ZGHA 231700Z 34004MPS 3500 BR SCT016 OVC050 09/06 Q1027 NOSIG
ZGHA,2018-12-23 18:00,ZGHA 231800Z 32003MPS 3500 BR OVC033 09/06 Q1027 NOSIG
ZGHA,2018-12-23 19:00,ZGHA 231900Z 33003MPS 3000 BR SCT016 OVC040 09/07 Q1027 NOSIG
ZGHA,2018-12-23 20:00,ZGHA 232000Z 33003MPS 3000 BR SCT016 OVC040 09/06 Q1027 NOSIG
ZGHA,2018-12-23 21:00,ZGHA 232100Z 36001MPS 2800 BR SCT015 OVC040 08/06 Q1026 NOSIG
ZGHA,2018-12-23 22:00,ZGHA 232200Z 29002MPS 2800 BR SCT016 OVC040 08/06 Q1026 NOSIG
ZGHA,2018-12-23 23:00,ZGHA 232300Z 34002MPS 3000 BR SCT012 OVC040 09/06 Q1026 NOSIG
ZGHA,2018-12-24 00:00,ZGHA 240000Z 02002MPS 2000 R36L/1200N R36R/1900N BR SCT011 OVC040 09/06 Q1026 BECMG TL0150 3100
ZGHA,2018-12-24 01:00,ZGHA 240100Z 31002MPS 280V340 2000 R36L/1300N R36R/1700N BR SCT013 OVC040 09/06 Q1026 NOSIG
ZGHA,2018-12-24 02:00,ZGHA 240200Z VRB01MPS 2000 R36L/1200V1400N R36R/1700N BR SCT012 OVC040 10/06 Q1026 NOSIG
ZGHA,2018-12-24 03:00,ZGHA 240300Z VRB01MPS 2000 R36L/1300V1400N R36R/1800N BR SCT014 OVC040 11/06 Q1025 NOSIG
ZGHA,2018-12-24 04:00,ZGHA 240400Z 33002MPS 280V010 2300 R36L/1300V1400N R36R/1900D BR SCT015 OVC040 12/07 Q1023 BECMG TL0500 3100
ZGHA,2018-12-24 05:00,ZGHA 240500Z 32002MPS 280V350 2500 HZ SCT018 OVC050 12/06 Q1022 BECMG TL0600 3100
ZGHA,2018-12-24 06:00,ZGHA 240600Z 35003MPS 2800 BR SCT019 BKN050 11/06 Q1021 BECMG TL0700 3100
ZGHA,2018-12-24 07:00,ZGHA 240700Z 33004MPS 2600 BR BKN016 OVC050 11/06 Q1021 NOSIG
ZGHA,2018-12-24 08:00,ZGHA 240800Z 32003MPS 1800 BR BKN011 OVC050 10/07 Q1021 BECMG TL0900 BKN009 OVC050
ZGHA,2018-12-24 09:00,ZGHA 240900Z 35003MPS 1200 R36L/1600D R36R/1600N BR SCT004 BKN008 OVC050 09/08 Q1021 BECMG TL1040 1500
ZGHA,2018-12-24 10:00,ZGHA 241000Z 36003MPS 1800 BR FEW005 BKN008 OVC050 09/08 Q1020 NOSIG
ZGHA,2018-12-24 11:00,ZGHA 241100Z 35003MPS 2200 BR FEW007 BKN009 OVC050 09/08 Q1020 BECMG TL1200 BKN011 OVC050
ZGHA,2018-12-24 12:00,ZGHA 241200Z 36002MPS 2800 BR SCT008 BKN026 OVC050 09/08 Q1020 BECMG TL1340 3100
ZGHA,2018-12-24 13:00,ZGHA 241300Z 02002MPS 360V060 2700 BR BKN026 OVC050 09/07 Q1020 NOSIG
ZGHA,2018-12-24 14:00,ZGHA 241400Z 36002MPS 300V030 2800 BR BKN030 09/07 Q1020 BECMG TL1540 3100
ZGHA,2018-12-24 15:00,ZGHA 241500Z 32003MPS 3000 BR SCT012 BKN050 09/07 Q1020 BECMG TL1600 2800
ZGHA,2018-12-24 16:00,ZGHA 241600Z 33003MPS 2800 BR SCT012 BKN022 09/06 Q1021 BECMG TL1700 3100
ZGHA,2018-12-24 17:00,ZGHA 241700Z 31003MPS 2600 BR SCT010 BKN022 08/06 Q1021 NOSIG
ZGHA,2018-12-24 18:00,ZGHA 241800Z 33003MPS 1600 R36L/1300V1400D R36R/1500D BR SCT003 BKN016 08/06 Q1020 NOSIG
ZGHA,2018-12-24 19:00,ZGHA 241900Z 30003MPS 1100 R36L/1000V1100N R36R/1100V1200N BR SCT003 BKN004 OVC050 08/07 Q1021 NOSIG
ZGHA,2018-12-24 20:00,ZGHA 242000Z 36002MPS 1000 R36L/1000V1200N R36R/0800V0900N BR BKN003 OVC050 08/07 Q1020 NOSIG
ZGHA,2018-12-24 21:00,ZGHA 242100Z 36002MPS 1400 R36L/1600U R36R/1300V1400N BR BKN003 OVC050 08/07 Q1020 BECMG TL2200 1600
ZGHA,2018-12-24 22:00,ZGHA 242200Z 35004MPS 1500 BR BKN004 OVC050 08/07 Q1019 NOSIG
ZGHA,2018-12-24 23:00,ZGHA 242300Z 33003MPS 1600 BR BKN004 OVC050 08/07 Q1020 BECMG TL0040 BKN006 OVC050
ZGHA,2018-12-25 00:00,ZGHA 250000Z 33003MPS 290V360 1000 R36L/1100V1300N R36R/1200V1300U BR BKN003 OVC050 08/07 Q1020 BECMG TL0140 1600
ZGHA,2018-12-25 01:00,ZGHA 250100Z 33003MPS 0800 R36L/1100V1200N R36R/1100V1300N FG BKN003 OVC040 08/07 Q1021 BECMG TL0240 BKN005 OVC050
ZGHA,2018-12-25 02:00,ZGHA 250200Z 35002MPS 1000 R36L/1100N R36R/1200N BR BKN004 OVC040 08/07 Q1021 BECMG TL0300 BKN005 OVC050
ZGHA,2018-12-25 03:00,ZGHA 250300Z 31003MPS 290V360 1000 R36L/1100V1200D R36R/1200V1300N BR FEW003 BKN005 OVC040 08/07 Q1021 BECMG TL0400 BKN004 OVC050
ZGHA,2018-12-25 04:00,ZGHA 250400Z 33004MPS 0800 R36L/1100N R36R/1200V1300N FG BKN003 OVC040 08/07 Q1020 BECMG TL0550 BKN005 OVC050
ZGHA,2018-12-25 05:00,ZGHA 250500Z 33003MPS 0700 R36L/0900V1000N R36R/1000V1100N -RA FG BKN003 OVC040 08/07 Q1019 BECMG TL0600 0800
ZGHA,2018-12-25 06:00,ZGHA 250600Z 33003MPS 0700 R36L/0900V1100D R36R/1000V1200N -RA FG BKN003 OVC040 08/07 Q1018 BECMG TL0750 0800
ZGHA,2018-12-25 07:00,ZGHA 250700Z 31003MPS 280V340 0700 R36L/1000V1200N R36R/1200V1300N -RA FG BKN003 OVC040 08/08 Q1019 BECMG TL0730 0800
ZGHA,2018-12-25 08:00,ZGHA 250800Z 36004MPS 1000 R36L/1100V1300U R36R/1200V1400N -RA BR BKN004 OVC040 08/08 Q1019 BECMG TL0900 BKN005 OVC040
ZGHA,2018-12-25 09:00,ZGHA 250900Z 35003MPS 1000 R36L/1200V1400N R36R/1600U -RA BR SCT003 BKN004 OVC040 08/08 Q1019 NOSIG
ZGHA,2018-12-25 10:00,ZGHA 251000Z 34004MPS 300V010 1600 -RA BR SCT003 BKN004 OVC040 08/07 Q1019 BECMG TL1140 BKN005 OVC050
ZGHA,2018-12-25 11:00,ZGHA 251100Z 33004MPS 1800 -RA BR SCT003 BKN004 OVC040 07/07 Q1020 NOSIG
ZGHA,2018-12-25 12:00,ZGHA 251200Z 33004MPS 2200 -RA BR SCT003 BKN004 OVC040 07/07 Q1020 NOSIG
ZGHA,2018-12-25 13:00,ZGHA 251300Z 33004MPS 2400 -RA BR SCT003 BKN004 OVC040 07/07 Q1020 NOSIG
ZGHA,2018-12-25 14:00,ZGHA 251400Z 32004MPS 2400 -RA BR SCT003 BKN004 OVC040 07/07 Q1021 NOSIG
ZGHA,2018-12-25 15:00,ZGHA 251500Z 33004MPS 2700 -RA BR SCT003 BKN004 OVC040 07/07 Q1021 NOSIG
ZGHA,2018-12-25 16:00,ZGHA 251600Z 33004MPS 3000 -RA BR SCT003 BKN004 OVC040 07/07 Q1021 BECMG TL1700 BKN005 OVC040
ZGHA,2018-12-25 17:00,ZGHA 251700Z 35005MPS 3500 BR SCT005 BKN007 OVC040 07/06 Q1021 NOSIG
ZGHA,2018-12-25 18:00,ZGHA 251800Z 34005MPS 3500 -RA BR SCT005 BKN007 OVC040 07/07 Q1022 NOSIG
ZGHA,2018-12-25 19:00,ZGHA 251900Z 34006MPS 2800 -RA BR SCT005 BKN007 OVC040 07/06 Q1021 BECMG TL2000 3000
ZGHA,2018-12-25 20:00,ZGHA 252000Z 34005MPS 3000 -RA BR SCT005 BKN007 OVC040 07/06 Q1021 NOSIG
ZGHA,2018-12-25 21:00,ZGHA 252100Z 35003MPS 3000 -RA BR SCT005 BKN007 OVC040 07/06 Q1021 NOSIG
ZGHA,2018-12-25 22:00,ZGHA 252200Z 34005MPS 3000 BR SCT005 BKN007 OVC040 07/06 Q1021 BECMG TL2300 2700
ZGHA,2018-12-25 23:00,ZGHA 252300Z 33004MPS 2800 BR SCT005 BKN007 OVC040 07/06 Q1021 BECMG TL0040 3500
ZGHA,2018-12-26 00:00,ZGHA 260000Z 35005MPS 310V010 1800 BR SCT005 BKN007 OVC040 07/06 Q1022 BECMG TL0100 3000
ZGHA,2018-12-26 01:00,ZGHA 260100Z 35005MPS 1100 R36L/1200V1300D R36R/1400N -DZ BR SCT004 BKN007 OVC040 06/06 Q1023 BECMG TL0250 1500
ZGHA,2018-12-26 02:00,ZGHA 260200Z 32003MPS 300V360 1000 R36L/1100V1200N R36R/1400N -DZ BR SCT004 BKN007 OVC040 07/06 Q1023 BECMG TL0350 1500
ZGHA,2018-12-26 03:00,ZGHA 260300Z 34004MPS 1000 R36L/1000V1200N R36R/1200V1300U -DZ BR FEW003 BKN007 OVC040 07/06 Q1023 NOSIG
ZGHA,2018-12-26 04:00,ZGHA 260400Z 33004MPS 300V360 1200 R36L/1200V1300U R36R/1500U -DZ BR FEW003 BKN007 OVC040 07/06 Q1022 BECMG TL0550 1500
ZGHA,2018-12-26 05:00,ZGHA 260500Z 35004MPS 1200 R36L/1100V1300N R36R/1500N -RA BR FEW003 BKN007 OVC040 07/06 Q1022 NOSIG
ZGHA,2018-12-26 06:00,ZGHA 260600Z 36006MPS 2500 -DZ BR FEW005 BKN008 OVC040 07/06 Q1021 BECMG TL0750 BKN011 OVC050
ZGHA,2018-12-26 07:00,ZGHA 260700Z 34006MPS 2600 BR FEW007 BKN012 OVC040 07/06 Q1021 BECMG TL0850 BKN009 OVC050
ZGHA,2018-12-26 08:00,ZGHA 260800Z 34006MPS 2600 BR BKN007 OVC040 06/06 Q1022 BECMG TL0950 BKN010 OVC050
ZGHA,2018-12-26 09:00,ZGHA 260900Z 35006MPS 2800 BR BKN008 OVC040 07/06 Q1023 BECMG TL1000 3200
ZGHA,2018-12-26 10:00,ZGHA 261000Z 34006MPS 4500 BR BKN008 OVC040 07/06 Q1023 BECMG TL1150 BKN011 OVC050
ZGHA,2018-12-26 11:00,ZGHA 261100Z 34006MPS 4500 BR BKN010 OVC040 07/06 Q1024 BECMG TL1200 BKN008 OVC040
ZGHA,2018-12-26 12:00,ZGHA 261200Z 34006MPS 4500 BR BKN007 OVC040 07/06 Q1024 NOSIG
ZGHA,2018-12-26 13:00,ZGHA 261300Z 35006MPS 3500 BR BKN007 OVC040 07/06 Q1025 BECMG TL1450 2800
ZGHA,2018-12-26 14:00,ZGHA 261400Z 35006MPS 3200 BR FEW005 BKN007 OVC040 06/06 Q1025 BECMG TL1500 2800
ZGHA,2018-12-26 15:00,ZGHA 261500Z 34006MPS 2200 -DZ BR SCT005 BKN007 OVC040 06/05 Q1026 NOSIG
ZGHA,2018-12-26 16:00,ZGHA 261600Z 34006MPS 2000 BR FEW004 BKN007 OVC040 06/05 Q1026 NOSIG
ZGHA,2018-12-26 17:00,ZGHA 261700Z 35006MPS 2000 BR FEW004 BKN007 OVC040 06/05 Q1026 NOSIG
ZGHA,2018-12-26 18:00,ZGHA 261800Z 34005MPS 2200 BR FEW004 BKN007 OVC040 06/05 Q1026 NOSIG
ZGHA,2018-12-26 19:00,ZGHA 261900Z 35005MPS 2200 BR FEW004 BKN007 OVC040 06/05 Q1026 NOSIG
ZGHA,2018-12-26 20:00,ZGHA 262000Z 34005MPS 2800 BR FEW004 BKN007 OVC040 05/04 Q1026 NOSIG
ZGHA,2018-12-26 21:00,ZGHA 262100Z 35004MPS 2800 BR FEW004 BKN007 OVC040 05/04 Q1026 NOSIG
ZGHA,2018-12-26 22:00,ZGHA 262200Z 36005MPS 2500 BR FEW004 BKN007 OVC040 05/04 Q1026 NOSIG
ZGHA,2018-12-26 23:00,ZGHA 262300Z 36005MPS 2500 BR FEW004 BKN007 OVC040 05/04 Q1026 BECMG TL0050 3200
ZGHA,2018-12-27 00:00,ZGHA 270000Z 34004MPS 2000 BR FEW004 BKN007 OVC040 05/04 Q1027 NOSIG
ZGHA,2018-12-27 01:00,ZGHA 270100Z 35004MPS 1800 BR FEW005 BKN007 OVC040 05/04 Q1027 NOSIG
ZGHA,2018-12-27 02:00,ZGHA 270200Z 35004MPS 1800 BR FEW005 BKN007 OVC040 05/04 Q1028 NOSIG
ZGHA,2018-12-27 03:00,ZGHA 270300Z 34005MPS 1800 R36L/1400U R36R/1700N BR BKN006 OVC040 05/04 Q1027 NOSIG
ZGHA,2018-12-27 04:00,ZGHA 270400Z 35004MPS 1800 R36L/1400N R36R/1700N BR BKN006 OVC040 06/04 Q1026 NOSIG
ZGHA,2018-12-27 05:00,ZGHA 270500Z 35004MPS 1800 R36L/1400N R36R/1700N BR BKN006 OVC040 06/05 Q1025 NOSIG
ZGHA,2018-12-27 06:00,ZGHA 270600Z 36005MPS 2300 BR BKN006 OVC040 05/04 Q1025 BECMG TL0700 3200
ZGHA,2018-12-27 07:00,ZGHA 270700Z 36005MPS 2000 BR BKN006 OVC040 05/05 Q1025 NOSIG
ZGHA,2018-12-27 08:00,ZGHA 270800Z 34006MPS 1800 BR BKN005 OVC040 05/04 Q1025 NOSIG
ZGHA,2018-12-27 09:00,ZGHA 270900Z 36005MPS 2300 BR BKN005 OVC040 05/05 Q1026 BECMG TL1050 3200
ZGHA,2018-12-27 10:00,ZGHA 271000Z 35005MPS 3000 BR BKN004 OVC040 05/05 Q1026 BECMG TL1100 BKN005 OVC040
ZGHA,2018-12-27 11:00,ZGHA 271100Z 34004MPS 3000 -RA BR BKN004 OVC040 05/05 Q1027 BECMG TL1250 2800 BKN005 OVC040
ZGHA,2018-12-27 12:00,ZGHA 271200Z 34005MPS 3000 -RA BR BKN004 OVC040 05/05 Q1028 BECMG TL1300 BKN005 OVC040
ZGHA,2018-12-27 13:00,ZGHA 271300Z 35005MPS 3500 -RA BR BKN005 OVC040 05/05 Q1028 BECMG TL1400 BKN004 OVC040
ZGHA,2018-12-27 14:00,ZGHA 271400Z 35005MPS 3500 -RA BR BKN004 OVC040 05/05 Q1029 BECMG TL1500 BKN005 OVC040
ZGHA,2018-12-27 15:00,ZGHA 271500Z 34006MPS 4000 -RA BR BKN005 OVC040 05/05 Q1029 NOSIG
ZGHA,2018-12-27 16:00,ZGHA 271600Z 34006MPS 3500 -RA BR BKN005 OVC040 05/05 Q1030 BECMG TL1700 BKN004 OVC040
ZGHA,2018-12-27 17:00,ZGHA 271700Z 34006MPS 4000 -RA BR BKN005 OVC040 05/04 Q1030 NOSIG
ZGHA,2018-12-27 18:00,ZGHA 271800Z 34006MPS 4000 -RA BR BKN006 OVC040 04/04 Q1030 NOSIG
ZGHA,2018-12-27 19:00,ZGHA 271900Z 34005MPS 7000 -RA BKN005 OVC040 04/04 Q1030 NOSIG
ZGHA,2018-12-27 20:00,ZGHA 272000Z 34006MPS 7000 -RA BKN006 OVC040 04/03 Q1031 NOSIG
ZGHA,2018-12-27 21:00,ZGHA 272100Z 34006MPS 9000 -RA BKN007 OVC040 04/03 Q1031 NOSIG
ZGHA,2018-12-27 22:00,ZGHA 272200Z 35007MPS 9000 -RA BKN006 OVC040 03/03 Q1032 NOSIG
ZGHA,2018-12-27 23:00,ZGHA 272300Z 34006MPS 9000 -RA BKN007 OVC040 03/03 Q1033 NOSIG
ZGHA,2018-12-28 00:00,ZGHA 280000Z 34006MPS 4700 -RA BR BKN007 OVC040 03/03 Q1034 NOSIG
ZGHA,2018-12-28 01:00,ZGHA 280100Z 34006MPS 5000 -RA BR FEW006 BKN008 OVC040 03/03 Q1035 NOSIG
ZGHA,2018-12-28 02:00,ZGHA 280200Z 34006MPS 3200 -RA BR FEW006 BKN008 OVC040 03/03 Q1036 BECMG TL0300 2800
ZGHA,2018-12-28 03:00,ZGHA 280300Z 35006MPS 2900 -RA BR SCT006 BKN007 OVC040 03/02 Q1036 BECMG TL0400 3100
ZGHA,2018-12-28 04:00,ZGHA 280400Z 34006MPS 4000 -RA BR FEW006 BKN007 OVC040 03/02 Q1035 NOSIG
ZGHA,2018-12-28 05:00,ZGHA 280500Z 35008MPS 6000 -RA FEW006 BKN009 OVC040 03/02 Q1034 BECMG TL0600 BKN011 OVC050
ZGHA,2018-12-28 06:00,ZGHA 280600Z 34007MPS 6000 SCT007 BKN010 OVC040 02/01 Q1034 NOSIG
ZGHA,2018-12-28 07:00,ZGHA 280700Z 34007MPS 6000 SCT007 BKN010 OVC040 02/01 Q1034 NOSIG
ZGHA,2018-12-28 08:00,ZGHA 280800Z 35008MPS 5000 -RA BR SCT007 BKN010 OVC040 02/01 Q1035 BECMG TL0900 BKN008 OVC050
ZGHA,2018-12-28 09:00,ZGHA 280900Z 35006MPS 4500 BR SCT007 BKN010 OVC040 02/00 Q1035 BECMG TL1000 BKN009 OVC050
ZGHA,2018-12-28 10:00,ZGHA 281000Z 34006MPS 5000 SG BR SCT007 BKN009 OVC040 01/00 Q1036 BECMG TL1100 BKN010 OVC050
ZGHA,2018-12-28 11:00,ZGHA 281100Z 35005MPS 4200 -SN BR SCT007 BKN009 OVC040 01/00 Q1037 RESG BECMG TL1200 BKN010 OVC050
ZGHA,2018-12-28 12:00,ZGHA 281200Z 35006MPS 4500 BR SCT007 BKN010 OVC040 01/00 Q1037 BECMG TL1300 BKN009 OVC050
ZGHA,2018-12-28 13:00,ZGHA 281300Z 34006MPS 4500 BR FEW007 BKN009 OVC040 01/M00 Q1038 BECMG TL1400 BKN010 OVC050
ZGHA,2018-12-28 14:00,ZGHA 281400Z 35006MPS 4500 BR FEW007 BKN010 OVC040 01/M00 Q1038 BECMG TL1500 BKN009 OVC050
ZGHA,2018-12-28 15:00,ZGHA 281500Z 34006MPS 5000 BR FEW007 BKN009 OVC040 01/M01 Q1039 BECMG TL1600 BKN011 OVC050
ZGHA,2018-12-28 16:00,ZGHA 281600Z 34006MPS 6000 FEW007 BKN013 OVC040 01/M01 Q1039 BECMG TL1700 BKN015 OVC050
ZGHA,2018-12-28 17:00,ZGHA 281700Z 35005MPS 6000 FEW007 BKN013 OVC040 01/M01 Q1038 NOSIG
ZGHA,2018-12-28 18:00,ZGHA 281800Z 34005MPS 7000 BKN015 OVC040 01/M03 Q1038 NOSIG
ZGHA,2018-12-28 19:00,ZGHA 281900Z 34005MPS 8000 BKN015 OVC050 00/M03 Q1038 NOSIG
ZGHA,2018-12-28 20:00,ZGHA 282000Z 34004MPS 8000 BKN018 OVC050 00/M03 Q1038 NOSIG
ZGHA,2018-12-28 21:00,ZGHA 282100Z 34005MPS 8000 BKN021 OVC050 00/M03 Q1038 NOSIG
ZGHA,2018-12-28 22:00,ZGHA 282200Z 34005MPS 9000 BKN022 M00/M04 Q1039 NOSIG
ZGHA,2018-12-28 23:00,ZGHA 282300Z 35005MPS 9000 BKN022 M00/M04 Q1039 NOSIG
ZGHA,2018-12-29 00:00,ZGHA 290000Z 34006MPS 8000 BKN022 M00/M05 Q1039 NOSIG
ZGHA,2018-12-29 01:00,ZGHA 290100Z 34006MPS 8000 OVC026 M00/M05 Q1041 NOSIG
ZGHA,2018-12-29 02:00,ZGHA 290200Z 34006MPS 8000 OVC026 00/M05 Q1041 NOSIG
ZGHA,2018-12-29 03:00,ZGHA 290300Z 35006MPS 8000 -RA OVC026 00/M05 Q1041 NOSIG
ZGHA,2018-12-29 04:00,ZGHA 290400Z 34006MPS 8000 -RA OVC026 00/M06 Q1040 NOSIG
ZGHA,2018-12-29 05:00,ZGHA 290500Z 36006MPS 8000 -RA OVC026 M00/M04 Q1039 NOSIG
ZGHA,2018-12-29 06:00,ZGHA 290600Z 36005MPS 8000 OVC026 00/M05 Q1038 NOSIG
ZGHA,2018-12-29 07:00,ZGHA 290700Z 01005MPS 8000 OVC026 00/M06 Q1038 NOSIG
ZGHA,2018-12-29 08:00,ZGHA 290800Z 34005MPS 8000 OVC026 01/M06 Q1038 NOSIG
ZGHA,2018-12-29 09:00,ZGHA 290900Z 36005MPS 8000 OVC026 00/M07 Q1039 NOSIG
ZGHA,2018-12-29 10:00,ZGHA 291000Z 34005MPS 8000 OVC026 00/M07 Q1039 NOSIG
ZGHA,2018-12-29 11:00,ZGHA 291100Z 35006MPS 8000 OVC026 M00/M06 Q1039 NOSIG
ZGHA,2018-12-29 12:00,ZGHA 291200Z 36005MPS 8000 OVC026 M00/M06 Q1039 NOSIG
ZGHA,2018-12-29 13:00,ZGHA 291300Z 34006MPS 9999 OVC030 M00/M06 Q1040 NOSIG
ZGHA,2018-12-29 14:00,ZGHA 291400Z 34006MPS 9999 -RAPL OVC030 M01/M05 Q1040 NOSIG
ZGHA,2018-12-29 15:00,ZGHA 291500Z 35006MPS 9999 -RAPL OVC030 M01/M05 Q1040 NOSIG
ZGHA,2018-12-29 16:00,ZGHA 291600Z 34006MPS 9999 OVC033 M01/M06 Q1040 NOSIG
ZGHA,2018-12-29 17:00,ZGHA 291700Z 36006MPS 9999 -SN OVC033 M01/M06 Q1040 NOSIG
ZGHA,2018-12-29 18:00,ZGHA 291800Z 36005MPS 6000 -SN SCT014 OVC033 M02/M04 Q1039 NOSIG
ZGHA,2018-12-29 19:00,ZGHA 291900Z 34004MPS 3500 -SN BR SCT006 OVC033 M02/M03 Q1039 NOSIG
ZGHA,2018-12-29 20:00,ZGHA 292000Z 35005MPS 3500 -SN BR BKN006 OVC033 M03/M03 Q1039 NOSIG
ZGHA,2018-12-29 21:00,ZGHA 292100Z 35006MPS 3500 -SN BR BKN006 OVC033 M03/M03 Q1038 NOSIG
ZGHA,2018-12-29 22:00,ZGHA 292200Z 33005MPS 3000 -SN BR BKN006 OVC033 M02/M03 Q1039 BECMG TL2300 2500
ZGHA,2018-12-29 23:00,ZGHA 292300Z 35004MPS 2000 R36L/1300U R36R/1600U -SN BR BKN006 OVC033 M03/M03 Q1039 BECMG TL0050 3100
ZGHA,2018-12-30 00:00,ZGHA 300000Z 36004MPS 0900 R36L/0325V1000U R36R/0800V0900N SN FEW004 BKN006 OVC033 M03/M03 Q1040 BECMG TL0100 1600 -SN BR
ZGHA,2018-12-30 01:00,ZGHA 300100Z 36004MPS 0900 R36L/1000V1100U R36R/0900V1100U SN FEW004 BKN006 OVC033 M02/M03 Q1040 BECMG TL0250 1600 -SN BR
ZGHA,2018-12-30 02:00,ZGHA 300200Z 35003MPS 1200 R36L/1000V1100N R36R/1000V1400U -SN BR FEW005 BKN007 OVC033 M02/M02 Q1041 RESN BECMG TL0300 1600
ZGHA,2018-12-30 03:00,ZGHA 300300Z 35004MPS 0800 R36L/0650N R36R/0550N SN FEW004 BKN007 OVC033 M02/M02 Q1040 NOSIG
ZGHA,2018-12-30 04:00,ZGHA 300400Z 32003MPS 290V360 1600 R36L/1200V1300N R36R/1700N -SN BR FEW004 BKN007 OVC033 M02/M02 Q1039 RESN BECMG TL0500 1400
ZGHA,2018-12-30 05:00,ZGHA 300500Z 35003MPS 1200 R36L/0800V0900U R36R/0750V1000U -SN BR FEW004 BKN007 OVC033 M01/M02 Q1037 BECMG TL0650 1600
ZGHA,2018-12-30 06:00,ZGHA 300600Z 33004MPS 3200 -SN BR SCT007 BKN012 OVC033 M01/M01 Q1037 BECMG TL0700 2800
ZGHA,2018-12-30 07:00,ZGHA 300700Z 36003MPS 4000 -SN BR BKN010 OVC040 M01/M02 Q1037 NOSIG
ZGHA,2018-12-30 08:00,ZGHA 300800Z 36003MPS 3000 -SN BR FEW007 BKN013 OVC040 M01/M02 Q1038 BECMG TL0900 BKN016 OVC050
ZGHA,2018-12-30 09:00,ZGHA 300900Z 35004MPS 310V010 4000 -SN BR SCT007 BKN015 OVC050 M01/M02 Q1038 BECMG TL1000 BKN012 OVC050
ZGHA,2018-12-30 10:00,ZGHA 301000Z 01003MPS 4000 -SN BR SCT007 BKN023 OVC050 M02/M02 Q1039 NOSIG
ZGHA,2018-12-30 11:00,ZGHA 301100Z 36003MPS 5000 -SN BR BKN020 OVC050 M02/M02 Q1039 NOSIG
ZGHA,2018-12-30 12:00,ZGHA 301200Z 34004MPS 5000 BR BKN020 M01/M02 Q1039 NOSIG
ZGHA,2018-12-30 13:00,ZGHA 301300Z 34004MPS 5000 BR SCT010 BKN020 OVC050 M01/M02 Q1039 NOSIG
ZGHA,2018-12-30 14:00,ZGHA 301400Z 36004MPS 5000 BR SCT010 BKN020 OVC050 M01/M02 Q1040 NOSIG
ZGHA,2018-12-30 15:00,ZGHA 301500Z 34004MPS 5000 BR BKN008 OVC050 M01/M02 Q1040 NOSIG
ZGHA,2018-12-30 16:00,ZGHA 301600Z 36004MPS 5000 BR FEW007 BKN020 OVC050 M01/M02 Q1040 NOSIG
ZGHA,2018-12-30 17:00,ZGHA 301700Z 34003MPS 320V020 5000 BR FEW007 BKN020 OVC050 M01/M02 Q1040 NOSIG
ZGHA,2018-12-30 18:00,ZGHA 301800Z 36003MPS 5000 BR FEW007 BKN020 OVC050 M02/M02 Q1039 NOSIG
ZGHA,2018-12-30 19:00,ZGHA 301900Z 34003MPS 5000 BR FEW007 BKN020 OVC050 M01/M02 Q1039 NOSIG
ZGHA,2018-12-30 20:00,ZGHA 302000Z 35003MPS 4000 BR FEW005 BKN007 OVC050 M02/M02 Q1039 NOSIG
ZGHA,2018-12-30 21:00,ZGHA 302100Z 01004MPS 4500 BR FEW005 BKN007 OVC050 M02/M02 Q1039 NOSIG
ZGHA,2018-12-30 22:00,ZGHA 302200Z 36003MPS 6000 BKN009 OVC050 M02/M03 Q1039 NOSIG
ZGHA,2018-12-30 23:00,ZGHA 302300Z 01005MPS 6000 BKN009 OVC050 M02/M03 Q1039 BECMG TL0040 BKN011 OVC050
