station,valid,metar
ZGHA,2012-01-01 07:00,ZGHA 010700Z 33002MPS 240V020 2200 BR BKN009 OVC050 08/05 Q1026 NOSIG
ZGHA,2012-01-01 08:00,ZGHA 010800Z 29003MPS 270V330 1400 R36/1200N BR BKN009 OVC050 08/05 Q1027 NOSIG
ZGHA,2012-01-01 09:00,ZGHA 010900Z 30003MPS 1600 R36/1400N BR SCT011 07/05 Q1026 NOSIG
ZGHA,2012-01-01 10:00,ZGHA 011000Z 29002MPS 260V330 1600 BR FEW011 06/05 Q1027 NOSIG
ZGHA,2012-01-01 11:00,ZGHA 011100Z 32004MPS 1400 R36/P2000 BR FEW009 07/05 Q1027 NOSIG
ZGHA,2012-01-01 12:00,ZGHA 011200Z 35002MPS 310V010 1400 R36/P2000 BR FEW009 06/05 Q1027 NOSIG
ZGHA,2012-01-01 13:00,ZGHA 011300Z 30003MPS 280V340 1400 R36/1900N BR SCT007 06/05 Q1028 NOSIG
ZGHA,2012-01-01 14:00,ZGHA 011400Z 31003MPS 1400 R36/1900N BR BKN008 OVC050 07/05 Q1028 NOSIG
ZGHA,2012-01-01 15:00,ZGHA 011500Z 31003MPS 280V340 1400 R36/1800N BR BKN008 OVC050 06/04 Q1027 NOSIG
ZGHA,2012-01-01 16:00,ZGHA 011600Z 35002MPS 1200 R36/1800N BR BKN008 OVC050 06/05 Q1027 NOSIG
ZGHA,2012-01-01 17:00,ZGHA 011700Z 36002MPS 1000 R36/1600N BR BKN006 OVC050 06/05 Q1027 NOSIG
ZGHA,2012-01-01 18:00,ZGHA 011800Z 35002MPS 1000 R36/1600N BR BKN006 OVC050 06/05 Q1027 NOSIG
ZGHA,2012-01-01 19:00,ZGHA 011900Z AUTO 34003MPS 0700 R36/1600N FG NCD 06/05 Q1026
ZGHA,2012-01-01 21:00,ZGHA 012100Z 31001MPS 0900 R36/1400N FG BKN006 OVC050 06/05 Q1026 NOSIG
ZGHA,2012-01-01 22:00,ZGHA 012200Z 31002MPS 0900 R36/1400N FG BKN004 OVC050 06/05 Q1026 NOSIG
ZGHA,2012-01-01 23:00,ZGHA 012300Z 31002MPS 0700 R36/1200V1400N FG BKN004 OVC050 06/05 Q1026 NOSIG
ZGHA,2012-01-02 00:00,ZGHA 020000Z 35002MPS 0700 R36/1100N FG BKN004 OVC040 06/05 Q1026 BECMG AT0140 1100 BR
ZGHA,2012-01-02 01:00,ZGHA 020100Z 02002MPS 350V050 0700 R36/0800N FG BKN004 OVC040 07/05 Q1027 BECMG 1100 BR
ZGHA,2012-01-02 02:00,ZGHA 020200Z 30003MPS 0900 R36/0900V1000N FG BKN004 OVC040 07/05 Q1028 NOSIG
ZGHA,2012-01-02 03:00,ZGHA 020300Z 33003MPS 0900 R36/0900V1000N FG BKN004 OVC040 08/05 Q1027 NOSIG
ZGHA,2012-01-02 04:00,ZGHA 020400Z 32003MPS 0900 R36/0900N FG BKN004 OVC040 07/05 Q1026 NOSIG
ZGHA,2012-01-02 05:00,ZGHA 020500Z 31004MPS 280V340 0900 R36/0900V1000N FG BKN005 OVC040 06/04 Q1025 NOSIG
ZGHA,2012-01-02 06:00,ZGHA 020600Z 31004MPS 0900 R36/1000V1100N -RA FG BKN006 OVC040 06/04 Q1024 NOSIG
ZGHA,2012-01-02 07:00,ZGHA 020700Z 31004MPS 0600 R36/0800N -RA FG BKN006 OVC040 05/04 Q1024 NOSIG
ZGHA,2012-01-02 08:00,ZGHA 020800Z 30004MPS 0600 R36/0750N DZ FG BKN003 OVC040 05/04 Q1024 NOSIG
ZGHA,2012-01-02 09:00,ZGHA 020900Z 31003MPS 0550 R36/0900V1000N DZ FG SCT002 BKN003 OVC040 05/04 Q1025 NOSIG
ZGHA,2012-01-02 10:00,ZGHA 021000Z 33003MPS 0550 R36/1100V1300N -RA FG SCT002 BKN003 OVC040 05/04 Q1025 NOSIG
ZGHA,2012-01-02 11:00,ZGHA 021100Z 35003MPS 310V010 0900 R36/1100V1400N -RA FG FEW002 BKN003 OVC040 05/05 Q1026 NOSIG
ZGHA,2012-01-02 12:00,ZGHA 021200Z 33004MPS 1000 R36/1300V1400N -DZ BR BKN003 OVC040 05/04 Q1026 NOSIG
ZGHA,2012-01-02 13:00,ZGHA 021300Z 33003MPS 290V360 1000 R36/1400N -DZ BR BKN003 OVC040 05/04 Q1026 NOSIG
ZGHA,2012-01-02 14:00,ZGHA 021400Z 34004MPS 1000 R36/1400N -RA BR BKN003 OVC040 05/04 Q1027 NOSIG
ZGHA,2012-01-02 15:00,ZGHA 021500Z 35004MPS 1000 R36/1400N -RA BR BKN003 OVC040 05/04 Q1027 NOSIG
ZGHA,2012-01-02 16:00,ZGHA 021600Z 33004MPS 1000 R36/1200V1300N -RA BR BKN003 OVC040 05/04 Q1027 NOSIG
ZGHA,2012-01-02 17:00,ZGHA 021700Z 34004MPS 0700 R36/1100V1200N -RA FG BKN003 OVC040 05/04 Q1026 NOSIG
ZGHA,2012-01-02 18:00,ZGHA 021800Z 34005MPS 0700 R36/1100V1200N -RA FG BKN003 OVC040 05/04 Q1026 NOSIG
ZGHA,2012-01-02 19:00,ZGHA 021900Z AUTO 36005MPS 0400 R36/0800V0900N DZ FG OVC003 /// 05/04 Q1026
ZGHA,2012-01-02 20:00,ZGHA 022000Z AUTO 35006MPS 0450 R36/0900V1000N DZ FG OVC004 /// 05/04 Q1026
ZGHA,2012-01-02 21:00,ZGHA 022100Z 35006MPS 0700 R36/1000V1100N -RA FG BKN003 OVC040 05/04 Q1026 NOSIG
ZGHA,2012-01-02 22:00,ZGHA 022200Z 36006MPS 0700 R36/1000V1200N -RA FG BKN003 OVC040 05/04 Q1027 NOSIG
ZGHA,2012-01-02 23:00,ZGHA 022300Z 36006MPS 1000 R36/1500N -RA BR BKN004 OVC040 04/03 Q1028 NOSIG
ZGHA,2012-01-03 00:00,ZGHA 030000Z 36005MPS 0700 R36/1100V1200N -RA FG BKN004 OVC040 04/03 Q1029 NOSIG
ZGHA,2012-01-03 01:00,ZGHA 030100Z 36005MPS 1000 R36/1300V1400N -RA BR SCT003 BKN007 OVC040 04/03 Q1030 NOSIG
ZGHA,2012-01-03 02:00,ZGHA 030200Z 36006MPS 320V030 1600 -RA BR SCT005 BKN008 OVC050 04/02 Q1031 NOSIG
ZGHA,2012-01-03 03:00,ZGHA 030300Z 01006MPS 1100 R36/0900V1100N -RA BR SCT004 BKN008 OVC050 03/02 Q1031 NOSIG
ZGHA,2012-01-03 04:00,ZGHA 030400Z 01005MPS 1600 R36/1200V1400N -DZ BR SCT005 BKN008 OVC050 04/02 Q1030 NOSIG
ZGHA,2012-01-03 05:00,ZGHA 030500Z 36004MPS 1600 R36/1100V1300N -RA BR SCT005 BKN008 OVC050 04/02 Q1030 NOSIG
ZGHA,2012-01-03 06:00,ZGHA 030600Z 35007MPS 1200 R36/1100V1200N -RA BR SCT005 BKN008 OVC050 04/02 Q1030 NOSIG
ZGHA,2012-01-03 07:00,ZGHA 030700Z 36005MPS 1200 R36/1000V1100N -RA BR SCT005 BKN008 OVC050 04/02 Q1029 NOSIG
ZGHA,2012-01-03 08:00,ZGHA 030800Z 35007MPS 1200 R36/1300V1400N -PL BR SCT005 BKN009 OVC040 03/02 Q1030 NOSIG
ZGHA,2012-01-03 09:00,ZGHA 030900Z 36006MPS 1200 R36/1300V1400N -RA BR SCT005 BKN009 OVC040 03/02 Q1032 NOSIG
ZGHA,2012-01-03 10:00,ZGHA 031000Z 36005MPS 1200 R36/P2000 -RA BR SCT005 BKN009 OVC040 02/01 Q1032 NOSIG
ZGHA,2012-01-03 11:00,ZGHA 031100Z 36006MPS 1400 R36/P2000 -DZ BR SCT006 BKN012 OVC040 03/02 Q1033 NOSIG
ZGHA,2012-01-03 12:00,ZGHA 031200Z 35005MPS 1400 R36/1800N BR SCT006 BKN012 OVC040 03/02 Q1033 NOSIG
ZGHA,2012-01-03 13:00,ZGHA 031300Z 36003MPS 1200 R36/1900N BR SCT006 BKN011 OVC050 03/02 Q1034 NOSIG
ZGHA,2012-01-03 14:00,ZGHA 031400Z 35004MPS 1400 R36/P2000 BR SCT012 OVC050 03/02 Q1035 NOSIG
ZGHA,2012-01-03 15:00,ZGHA 031500Z 36005MPS 1400 R36/P2000 BR FEW033 03/01 Q1034 NOSIG
ZGHA,2012-01-03 16:00,ZGHA 031600Z 02002MPS 1600 BR FEW040 02/01 Q1034 NOSIG
ZGHA,2012-01-03 17:00,ZGHA 031700Z 01002MPS 340V040 1600 BR FEW040 02/01 Q1034 NOSIG
ZGHA,2012-01-03 18:00,ZGHA 031800Z 36003MPS 1600 BR FEW040 02/01 Q1034 NOSIG
ZGHA,2012-01-03 19:00,ZGHA 031900Z AUTO 36003MPS 1700 BR FEW052 /// BKN110/// 02/01 Q1034
ZGHA,2012-01-03 20:00,ZGHA 032000Z AUTO 01002MPS 1800 BR OVC120 /// 02/00 Q1034
ZGHA,2012-01-03 21:00,ZGHA 032100Z 01003MPS 2500 BR FEW050 02/M00 Q1034 NOSIG
ZGHA,2012-01-03 22:00,ZGHA 032200Z 36003MPS 2200 BR FEW050 02/00 Q1034 NOSIG
ZGHA,2012-01-03 23:00,ZGHA 032300Z 35002MPS 2000 BR SCT050 02/00 Q1035 NOSIG
ZGHA,2012-01-04 00:00,ZGHA 040000Z 36003MPS 2000 BR NSC 02/M00 Q1036 BECMG 3000
ZGHA,2012-01-04 01:00,ZGHA 040100Z VRB01MPS 3000 BR NSC 02/M00 Q1036 NOSIG
ZGHA,2012-01-04 02:00,ZGHA 040200Z 02002MPS 350V090 4000 BR NSC 03/M01 Q1037 NOSIG
ZGHA,2012-01-04 03:00,ZGHA 040300Z 04002MPS 350V100 5000 HZ NSC 04/M02 Q1036 NOSIG
ZGHA,2012-01-04 04:00,ZGHA 040400Z 04003MPS 340V080 7000 NSC 06/M03 Q1034 NOSIG
ZGHA,2012-01-04 05:00,ZGHA 040500Z 11002MPS 040V160 8000 NSC 06/M05 Q1033 NOSIG
ZGHA,2012-01-04 06:00,ZGHA 040600Z 34002MPS 280V040 8000 NSC 07/M06 Q1032 NOSIG
ZGHA,2012-01-04 07:00,ZGHA 040700Z 02002MPS 330V100 CAVOK 07/M05 Q1031 NOSIG
ZGHA,2012-01-04 08:00,ZGHA 040800Z 04002MPS 350V090 CAVOK 07/M09 Q1031 NOSIG
ZGHA,2012-01-04 09:00,ZGHA 040900Z 36004MPS 340V040 CAVOK 07/M07 Q1031 NOSIG
ZGHA,2012-01-04 10:00,ZGHA 041000Z 36002MPS CAVOK 06/M05 Q1031 NOSIG
ZGHA,2012-01-04 11:00,ZGHA 041100Z 31002MPS 280V360 CAVOK 06/M06 Q1032 NOSIG
ZGHA,2012-01-04 12:00,ZGHA 041200Z VRB01MPS CAVOK 05/M02 Q1032 NOSIG
ZGHA,2012-01-04 13:00,ZGHA 041300Z 02002MPS 8000 NSC 05/M05 Q1032 NOSIG
ZGHA,2012-01-04 14:00,ZGHA 041400Z VRB01MPS 8000 SCT050 05/M04 Q1032 BECMG 1700 -SN BR BKN011 OVC050
ZGHA,2012-01-04 15:00,ZGHA 041500Z VRB01MPS 8000 SCT040 05/M04 Q1033 BECMG 2500 -SN BR BKN011 OVC050
ZGHA,2012-01-04 16:00,ZGHA 041600Z VRB01MPS 6000 SCT030 OVC050 04/M01 Q1032 NOSIG
ZGHA,2012-01-04 17:00,ZGHA 041700Z 16003MPS 5000 -RA BR SCT011 OVC050 03/01 Q1032 NOSIG
ZGHA,2012-01-04 18:00,ZGHA 041800Z 19003MPS 5000 BR SCT011 OVC050 02/00 Q1032 NOSIG
ZGHA,2012-01-04 21:00,ZGHA 042100Z 14003MPS 2500 BR SCT011 OVC050 02/01 Q1031 NOSIG
ZGHA,2012-01-04 22:00,ZGHA 042200Z 16002MPS 5000 BR SCT020 02/M00 Q1031 NOSIG
ZGHA,2012-01-04 23:00,ZGHA 042300Z 18002MPS 6000 SCT040 02/M01 Q1031 NOSIG
ZGHA,2012-01-05 00:00,ZGHA 050000Z VRB01MPS 6000 SCT020 02/M01 Q1030 NOSIG
ZGHA,2012-01-05 01:00,ZGHA 050100Z 21002MPS 180V240 6000 OVC050 02/M01 Q1031 NOSIG
ZGHA,2012-01-05 02:00,ZGHA 050200Z VRB01MPS 6000 NSC 03/M01 Q1031 NOSIG
ZGHA,2012-01-05 03:00,ZGHA 050300Z VRB01MPS 7000 NSC 04/M02 Q1030 NOSIG
ZGHA,2012-01-05 04:00,ZGHA 050400Z VRB01MPS 7000 OVC050 05/M03 Q1029 NOSIG
ZGHA,2012-01-05 05:00,ZGHA 050500Z 01003MPS 340V050 9999 FEW040 05/M03 Q1028 NOSIG
ZGHA,2012-01-05 06:00,ZGHA 050600Z VRB01MPS 9999 SCT033 05/M03 Q1026 NOSIG
ZGHA,2012-01-05 07:00,ZGHA 050700Z 03002MPS 320V080 8000 BKN033 05/M02 Q1026 NOSIG
ZGHA,2012-01-05 08:00,ZGHA 050800Z 02002MPS 330V050 8000 BKN033 05/M02 Q1026 NOSIG
ZGHA,2012-01-05 09:00,ZGHA 050900Z VRB01MPS 7000 SCT033 05/M02 Q1026 NOSIG
ZGHA,2012-01-05 10:00,ZGHA 051000Z 36001MPS 6000 FEW033 05/M01 Q1026 NOSIG
ZGHA,2012-01-05 11:00,ZGHA 051100Z 03001MPS 6000 FEW033 04/M01 Q1027 NOSIG
ZGHA,2012-01-05 12:00,ZGHA 051200Z 17001MPS 6000 BKN030 04/M00 Q1027 NOSIG
ZGHA,2012-01-05 13:00,ZGHA 051300Z 20002MPS 6000 FEW030 04/M00 Q1028 NOSIG
ZGHA,2012-01-05 14:00,ZGHA 051400Z 21002MPS 180V260 6000 FEW030 OVC050 04/00 Q1028 NOSIG
ZGHA,2012-01-05 15:00,ZGHA 051500Z 21002MPS 180V250 6000 OVC033 04/01 Q1028 NOSIG
ZGHA,2012-01-05 16:00,ZGHA 051600Z VRB01MPS 5000 BR OVC050 04/01 Q1028 NOSIG
ZGHA,2012-01-05 17:00,ZGHA 051700Z VRB01MPS 5000 BR OVC050 04/01 Q1028 NOSIG
ZGHA,2012-01-05 18:00,ZGHA 051800Z VRB01MPS 5000 BR OVC050 04/01 Q1028 NOSIG
ZGHA,2012-01-05 19:00,ZGHA 051900Z AUTO VRB01MPS 3300 BR BKN029 /// OVC063/// 04/01 Q1028
ZGHA,2012-01-05 20:00,ZGHA 052000Z AUTO 00000MPS 3100 BR OVC063 /// 04/01 Q1028
ZGHA,2012-01-05 21:00,ZGHA 052100Z 04001MPS 5000 BR OVC050 04/02 Q1028 NOSIG
ZGHA,2012-01-05 22:00,ZGHA 052200Z 00000MPS 5000 BR OVC050 04/02 Q1028 NOSIG
ZGHA,2012-01-05 23:00,ZGHA 052300Z 00000MPS 4000 BR OVC050 04/02 Q1029 NOSIG
ZGHA,2012-01-06 00:00,ZGHA 060000Z 00000MPS 4000 BR OVC050 04/02 Q1029 NOSIG
ZGHA,2012-01-06 01:00,ZGHA 060100Z 36002MPS 4000 BR OVC050 04/M00 Q1030 NOSIG
ZGHA,2012-01-06 02:00,ZGHA 060200Z 36002MPS 320V030 5000 HZ OVC050 05/M00 Q1031 NOSIG
ZGHA,2012-01-06 03:00,ZGHA 060300Z 35003MPS 5000 HZ OVC050 05/M01 Q1031 NOSIG
ZGHA,2012-01-06 04:00,ZGHA 060400Z 03002MPS 340V080 5000 HZ OVC050 06/M01 Q1030 NOSIG
ZGHA,2012-01-06 05:00,ZGHA 060500Z 36002MPS 320V030 6000 OVC050 06/M02 Q1029 NOSIG
ZGHA,2012-01-06 06:00,ZGHA 060600Z VRB01MPS 6000 OVC050 07/M02 Q1029 NOSIG
ZGHA,2012-01-06 07:00,ZGHA 060700Z VRB01MPS 6000 OVC050 07/M02 Q1029 NOSIG
ZGHA,2012-01-06 08:00,ZGHA 060800Z VRB01MPS 6000 OVC050 07/M03 Q1029 NOSIG
ZGHA,2012-01-06 09:00,ZGHA 060900Z 17002MPS 5000 HZ OVC050 07/M01 Q1029 NOSIG
ZGHA,2012-01-06 10:00,ZGHA 061000Z 17002MPS 4000 HZ OVC050 06/00 Q1030 NOSIG
ZGHA,2012-01-06 11:00,ZGHA 061100Z 17001MPS 3500 HZ OVC050 06/00 Q1030 NOSIG
ZGHA,2012-01-06 12:00,ZGHA 061200Z 20002MPS 150V250 3000 HZ OVC050 06/M00 Q1031 NOSIG
ZGHA,2012-01-06 13:00,ZGHA 061300Z 21002MPS 3000 HZ OVC050 06/00 Q1031 NOSIG
ZGHA,2012-01-06 14:00,ZGHA 061400Z 17001MPS 3000 BR OVC050 05/01 Q1031 NOSIG
ZGHA,2012-01-06 15:00,ZGHA 061500Z VRB01MPS 2800 BR OVC050 05/01 Q1031 NOSIG
ZGHA,2012-01-06 16:00,ZGHA 061600Z 19002MPS 160V230 3500 HZ OVC050 06/M00 Q1031 NOSIG
ZGHA,2012-01-06 17:00,ZGHA 061700Z 21001MPS 3000 BR OVC050 05/01 Q1032 NOSIG
ZGHA,2012-01-06 18:00,ZGHA 061800Z VRB01MPS 3000 BR OVC050 05/01 Q1031 NOSIG
ZGHA,2012-01-06 19:00,ZGHA 061900Z AUTO 06001MPS 2300 BR FEW053 /// OVC068/// 05/02 Q1031
ZGHA,2012-01-06 20:00,ZGHA 062000Z AUTO 06001MPS 2100 BR OVC050 /// 05/02 Q1031
ZGHA,2012-01-06 21:00,ZGHA 062100Z VRB01MPS 2400 BR OVC050 05/02 Q1031 NOSIG
ZGHA,2012-01-06 22:00,ZGHA 062200Z 36001MPS 2400 BR OVC050 05/03 Q1031 NOSIG
ZGHA,2012-01-06 23:00,ZGHA 062300Z 27002MPS 2500 BR OVC050 05/03 Q1032 NOSIG
ZGHA,2012-01-07 00:00,ZGHA 070000Z 33002MPS 2700 BR OVC050 05/02 Q1032 NOSIG
ZGHA,2012-01-07 01:00,ZGHA 070100Z 32002MPS 3500 BR OVC050 06/02 Q1033 NOSIG
ZGHA,2012-01-07 02:00,ZGHA 070200Z 33003MPS 4000 BR OVC050 06/01 Q1034 NOSIG
ZGHA,2012-01-07 03:00,ZGHA 070300Z 32002MPS 280V360 4000 BR OVC050 06/01 Q1033 NOSIG
ZGHA,2012-01-07 04:00,ZGHA 070400Z 31003MPS 280V350 3000 HZ OVC050 06/01 Q1033 NOSIG
ZGHA,2012-01-07 05:00,ZGHA 070500Z 31003MPS 280V350 3500 HZ OVC050 06/01 Q1031 NOSIG
ZGHA,2012-01-07 06:00,ZGHA 070600Z 29003MPS 260V320 3500 HZ OVC050 06/00 Q1031 NOSIG
ZGHA,2012-01-07 07:00,ZGHA 070700Z 31004MPS 3500 HZ OVC050 06/M00 Q1031 NOSIG
ZGHA,2012-01-07 08:00,ZGHA 070800Z 31004MPS 4000 HZ OVC050 05/M01 Q1031 NOSIG
ZGHA,2012-01-07 09:00,ZGHA 070900Z 31004MPS 270V350 3500 HZ OVC050 05/M01 Q1031 NOSIG
ZGHA,2012-01-07 10:00,ZGHA 071000Z 31003MPS 3000 HZ OVC050 05/M01 Q1031 NOSIG
ZGHA,2012-01-07 11:00,ZGHA 071100Z 31003MPS 280V340 3000 HZ OVC050 05/M01 Q1031 NOSIG
ZGHA,2012-01-07 12:00,ZGHA 071200Z 33003MPS 3000 HZ OVC050 05/M01 Q1031 NOSIG
ZGHA,2012-01-07 13:00,ZGHA 071300Z 32003MPS 290V360 3000 HZ SCT050 05/M00 Q1032 NOSIG
ZGHA,2012-01-07 14:00,ZGHA 071400Z 31003MPS 280V340 3000 HZ SCT050 05/M01 Q1032 NOSIG
ZGHA,2012-01-07 15:00,ZGHA 071500Z 32003MPS 290V350 4000 HZ SCT050 05/M01 Q1032 NOSIG
ZGHA,2012-01-07 16:00,ZGHA 071600Z 31003MPS 4000 HZ SCT050 04/M01 Q1032 NOSIG
ZGHA,2012-01-07 17:00,ZGHA 071700Z 33003MPS 4000 HZ NSC 04/M01 Q1032 NOSIG
ZGHA,2012-01-07 18:00,ZGHA 071800Z VRB01MPS 3000 BR NSC 04/M00 Q1031 NOSIG
ZGHA,2012-01-07 19:00,ZGHA 071900Z 33003MPS 3000 BR NSC 04/M01 Q1031 NOSIG
ZGHA,2012-01-07 21:00,ZGHA 072100Z 34003MPS 3000 BR SCT050 04/M00 Q1031 NOSIG
ZGHA,2012-01-07 22:00,ZGHA 072200Z 30003MPS 3000 BR SCT050 04/M01 Q1032 NOSIG
ZGHA,2012-01-07 23:00,ZGHA 072300Z 31002MPS 3000 BR SCT050 04/M01 Q1032 NOSIG
ZGHA,2012-01-08 00:00,ZGHA 080000Z 30002MPS 280V340 3500 BR SCT050 04/M01 Q1032 NOSIG
ZGHA,2012-01-08 01:00,ZGHA 080100Z 28002MPS 250V340 3000 BR SCT050 04/M01 Q1033 TEMPO 2500
ZGHA,2012-01-08 02:00,ZGHA 080200Z 31003MPS 3000 HZ SCT050 04/M01 Q1034 NOSIG
ZGHA,2012-01-08 03:00,ZGHA 080300Z 28002MPS 2700 HZ BKN050 05/M01 Q1033 NOSIG
ZGHA,2012-01-08 04:00,ZGHA 080400Z 31002MPS 280V340 2700 HZ BKN050 05/M01 Q1032 BECMG 3000
ZGHA,2012-01-08 05:00,ZGHA 080500Z 33002MPS 280V350 2500 HZ SCT040 05/M01 Q1031 TEMPO 3000
ZGHA,2012-01-08 06:00,ZGHA 080600Z 32002MPS 290V350 2500 HZ SCT040 06/M00 Q1030 TEMPO 3000
ZGHA,2012-01-08 07:00,ZGHA 080700Z 36002MPS 330V030 2500 HZ SCT040 06/M00 Q1030 NOSIG
ZGHA,2012-01-08 08:00,ZGHA 080800Z 34002MPS 280V030 2500 HZ BKN040 06/M00 Q1030 NOSIG
ZGHA,2012-01-08 09:00,ZGHA 080900Z VRB01MPS 2500 HZ SCT020 OVC050 06/00 Q1029 NOSIG
ZGHA,2012-01-08 10:00,ZGHA 081000Z VRB01MPS 2200 HZ FEW020 OVC050 05/00 Q1030 NOSIG
ZGHA,2012-01-08 11:00,ZGHA 081100Z 01002MPS 2200 BR BKN040 05/00 Q1030 NOSIG
ZGHA,2012-01-08 12:00,ZGHA 081200Z 36003MPS 2000 BR BKN040 05/01 Q1031 NOSIG
ZGHA,2012-01-08 13:00,ZGHA 081300Z VRB01MPS 2000 BR BKN040 05/00 Q1031 NOSIG
ZGHA,2012-01-08 14:00,ZGHA 081400Z 36003MPS 2200 BR BKN040 05/M00 Q1032 NOSIG
ZGHA,2012-01-08 15:00,ZGHA 081500Z 36002MPS 2200 BR SCT040 05/00 Q1032 NOSIG
ZGHA,2012-01-08 16:00,ZGHA 081600Z 35002MPS 320V030 2200 BR SCT025 OVC050 05/00 Q1032 NOSIG
ZGHA,2012-01-08 17:00,ZGHA 081700Z VRB01MPS 2200 BR BKN040 05/M00 Q1031 NOSIG
ZGHA,2012-01-08 18:00,ZGHA 081800Z 01001MPS 2200 BR SCT040 04/00 Q1031 NOSIG
ZGHA,2012-01-08 19:00,ZGHA 081900Z 35003MPS 2400 BR FEW040 05/00 Q1031 NOSIG
ZGHA,2012-01-08 20:00,ZGHA 082000Z AUTO 36002MPS 1600 BR BKN041 /// BKN075/// 04/01 Q1030
ZGHA,2012-01-08 21:00,ZGHA 082100Z 01002MPS 2400 BR FEW040 04/00 Q1030 NOSIG
ZGHA,2012-01-08 22:00,ZGHA 082200Z 36002MPS 2400 BR NSC 04/00 Q1030 NOSIG
ZGHA,2012-01-08 23:00,ZGHA 082300Z 34003MPS 2500 BR NSC 04/00 Q1030 NOSIG
ZGHA,2012-01-09 00:00,ZGHA 090000Z 36002MPS 2500 BR NSC 04/00 Q1030 NOSIG
ZGHA,2012-01-09 01:00,ZGHA 090100Z 02002MPS 350V060 2700 BR NSC 05/00 Q1031 BECMG 3500
ZGHA,2012-01-09 02:00,ZGHA 090200Z 36002MPS 340V040 2700 HZ SCT040 06/M00 Q1032 BECMG 3200
ZGHA,2012-01-09 03:00,ZGHA 090300Z 33003MPS 3000 HZ NSC 06/00 Q1031 BECMG 3500
ZGHA,2012-01-09 04:00,ZGHA 090400Z 34003MPS 310V010 3000 HZ FEW040 07/M00 Q1031 BECMG 3500
ZGHA,2012-01-09 05:00,ZGHA 090500Z 31003MPS 280V340 3000 HZ FEW040 07/00 Q1029 TEMPO 2500
ZGHA,2012-01-09 06:00,ZGHA 090600Z 30003MPS 280V340 3000 HZ FEW040 07/00 Q1029 NOSIG
ZGHA,2012-01-09 07:00,ZGHA 090700Z 31002MPS 280V350 3000 HZ FEW040 07/00 Q1028 NOSIG
ZGHA,2012-01-09 08:00,ZGHA 090800Z 32003MPS 280V350 3000 HZ FEW040 07/00 Q1028 TEMPO 2500
ZGHA,2012-01-09 09:00,ZGHA 090900Z 31004MPS 3000 HZ OVC050 07/01 Q1028 TEMPO 2500
ZGHA,2012-01-09 10:00,ZGHA 091000Z 31003MPS 280V340 3000 HZ NSC 07/00 Q1028 NOSIG
ZGHA,2012-01-09 11:00,ZGHA 091100Z 33003MPS 3000 HZ NSC 07/M00 Q1029 NOSIG
ZGHA,2012-01-09 12:00,ZGHA 091200Z 32002MPS 2700 HZ SCT050 06/00 Q1029 NOSIG
ZGHA,2012-01-09 13:00,ZGHA 091300Z 32003MPS 2700 HZ SCT050 06/00 Q1030 NOSIG
ZGHA,2012-01-09 14:00,ZGHA 091400Z 32003MPS 290V350 2700 HZ FEW050 06/00 Q1030 NOSIG
ZGHA,2012-01-09 15:00,ZGHA 091500Z 34002MPS 300V010 2500 HZ FEW050 06/01 Q1030 NOSIG
ZGHA,2012-01-09 16:00,ZGHA 091600Z 01001MPS 2300 HZ FEW050 06/01 Q1030 NOSIG
ZGHA,2012-01-09 17:00,ZGHA 091700Z 35002MPS 2200 HZ FEW050 06/01 Q1029 NOSIG
ZGHA,2012-01-09 18:00,ZGHA 091800Z 35002MPS 2200 HZ NSC 06/01 Q1030 NOSIG
ZGHA,2012-01-09 19:00,ZGHA 091900Z 31002MPS 2100 BR NSC 05/01 Q1029 NOSIG
ZGHA,2012-01-09 20:00,ZGHA 092000Z 31002MPS 2200 BR SCT040 05/01 Q1029 NOSIG
ZGHA,2012-01-09 21:00,ZGHA 092100Z 31002MPS 2300 BR SCT040 05/01 Q1029 NOSIG
ZGHA,2012-01-09 22:00,ZGHA 092200Z 32003MPS 2200 BR SCT040 05/01 Q1029 NOSIG
ZGHA,2012-01-09 23:00,ZGHA 092300Z 35002MPS 2100 BR SCT040 05/01 Q1029 BECMG 3000
ZGHA,2012-01-10 00:00,ZGHA 100000Z 01001MPS 2100 BR SCT040 05/01 Q1029 BECMG 3000
ZGHA,2012-01-10 01:00,ZGHA 100100Z 36002MPS 320V020 1600 R36/1400N BR SCT030 06/01 Q1029 NOSIG
ZGHA,2012-01-10 02:00,ZGHA 100200Z 35003MPS 1600 R36/1300N BR SCT030 06/01 Q1030 NOSIG
ZGHA,2012-01-10 03:00,ZGHA 100300Z 36003MPS 1700 R36/1200V1300N HZ SCT030 07/01 Q1030 NOSIG
ZGHA,2012-01-10 04:00,ZGHA 100400Z 33003MPS 280V350 1600 R36/1300N HZ SCT030 07/01 Q1029 NOSIG
ZGHA,2012-01-10 05:00,ZGHA 100500Z 34003MPS 300V010 1600 R36/1200V1300N HZ SCT030 08/01 Q1028 NOSIG
ZGHA,2012-01-10 06:00,ZGHA 100600Z 33003MPS 1800 R36/1200V1300N HZ SCT030 08/01 Q1027 NOSIG
ZGHA,2012-01-10 07:00,ZGHA 100700Z 36003MPS 340V040 2000 HZ OVC050 08/01 Q1027 NOSIG
ZGHA,2012-01-10 08:00,ZGHA 100800Z 36003MPS 2300 HZ OVC050 08/01 Q1027 NOSIG
ZGHA,2012-01-10 09:00,ZGHA 100900Z 01002MPS 2300 HZ OVC050 08/01 Q1027 NOSIG
ZGHA,2012-01-10 10:00,ZGHA 101000Z 35003MPS 2000 HZ OVC050 08/02 Q1028 NOSIG
ZGHA,2012-01-10 11:00,ZGHA 101100Z 35004MPS 1800 HZ OVC050 08/02 Q1029 NOSIG
ZGHA,2012-01-10 12:00,ZGHA 101200Z 36004MPS 1600 BR SCT026 07/02 Q1029 NOSIG
ZGHA,2012-01-10 13:00,ZGHA 101300Z 01002MPS 1600 BR SCT026 07/02 Q1030 NOSIG
ZGHA,2012-01-10 14:00,ZGHA 101400Z 36003MPS 1600 BR SCT030 07/02 Q1031 NOSIG
ZGHA,2012-01-10 15:00,ZGHA 101500Z 36002MPS 1700 BR SCT033 07/01 Q1031 NOSIG
ZGHA,2012-01-10 16:00,ZGHA 101600Z 36003MPS 1800 HZ SCT030 07/01 Q1031 NOSIG
ZGHA,2012-01-10 17:00,ZGHA 101700Z 36003MPS 1800 BR SCT030 07/02 Q1031 NOSIG
ZGHA,2012-01-10 18:00,ZGHA 101800Z 34003MPS 1600 BR SCT030 07/02 Q1031 NOSIG
ZGHA,2012-01-10 19:00,ZGHA 101900Z 31002MPS 1600 BR SCT030 07/02 Q1031 NOSIG
ZGHA,2012-01-10 20:00,ZGHA 102000Z AUTO 34002MPS 1300 R36/P2000 BR OVC050 /// 07/02 Q1031
ZGHA,2012-01-10 21:00,ZGHA 102100Z 34003MPS 1800 BR SCT030 07/02 Q1031 NOSIG
ZGHA,2012-01-10 22:00,ZGHA 102200Z 33003MPS 1600 BR SCT030 06/03 Q1031 NOSIG
ZGHA,2012-01-10 23:00,ZGHA 102300Z 35003MPS 1700 BR SCT033 06/02 Q1032 NOSIG
ZGHA,2012-01-11 00:00,ZGHA 110000Z 36004MPS 1600 R36/1400N BR SCT020 06/01 Q1032 NOSIG
ZGHA,2012-01-11 01:00,ZGHA 110100Z 36003MPS 1600 HZ SCT030 07/01 Q1033 NOSIG
ZGHA,2012-01-11 02:00,ZGHA 110200Z 35003MPS 320V020 1800 HZ SCT030 07/01 Q1034 NOSIG
ZGHA,2012-01-11 03:00,ZGHA 110300Z 33003MPS 2100 HZ SCT030 08/01 Q1034 NOSIG
ZGHA,2012-01-11 04:00,ZGHA 110400Z 33003MPS 300V360 2100 HZ SCT020 08/01 Q1033 NOSIG
ZGHA,2012-01-11 05:00,ZGHA 110500Z 31003MPS 2100 R36/1300N HZ SCT020 08/02 Q1032 NOSIG
ZGHA,2012-01-11 06:00,ZGHA 110600Z 31004MPS 1800 R36/1300V1400N HZ SCT020 08/01 Q1031 NOSIG
ZGHA,2012-01-11 07:00,ZGHA 110700Z 31004MPS 280V350 1800 R36/1300V1400N HZ SCT020 09/02 Q1030 NOSIG
ZGHA,2012-01-11 08:00,ZGHA 110800Z 34004MPS 310V010 2100 HZ SCT020 09/01 Q1031 NOSIG
ZGHA,2012-01-11 09:00,ZGHA 110900Z 36004MPS 2100 HZ SCT020 08/01 Q1031 NOSIG
ZGHA,2012-01-11 10:00,ZGHA 111000Z 33003MPS 2100 HZ SCT020 OVC050 08/02 Q1031 NOSIG
ZGHA,2012-01-11 11:00,ZGHA 111100Z 32004MPS 1800 BR SCT020 OVC050 07/02 Q1031 NOSIG
ZGHA,2012-01-11 12:00,ZGHA 111200Z 30002MPS 280V340 1800 BR SCT020 OVC050 07/02 Q1031 NOSIG
ZGHA,2012-01-11 13:00,ZGHA 111300Z 28002MPS 250V310 1400 R36/P2000 BR SCT020 OVC050 06/03 Q1031 NOSIG
ZGHA,2012-01-11 14:00,ZGHA 111400Z 31003MPS 1400 R36/P2000 BR SCT030 OVC050 06/03 Q1031 NOSIG
ZGHA,2012-01-11 15:00,ZGHA 111500Z 31003MPS 1400 R36/P2000 BR SCT030 06/03 Q1031 NOSIG
ZGHA,2012-01-11 16:00,ZGHA 111600Z 31003MPS 1400 R36/P2000 BR SCT030 06/02 Q1031 NOSIG
ZGHA,2012-01-11 17:00,ZGHA 111700Z 28002MPS 260V330 1400 R36/P2000 BR SCT030 05/03 Q1031 NOSIG
ZGHA,2012-01-11 18:00,ZGHA 111800Z 32002MPS 1400 R36/P2000 BR SCT020 05/03 Q1030 NOSIG
ZGHA,2012-01-11 19:00,ZGHA 111900Z 32002MPS 1400 R36/P2000 BR SCT020 05/02 Q1029 NOSIG
ZGHA,2012-01-11 21:00,ZGHA 112100Z 33003MPS 1400 R36/1800N BR SCT040 05/02 Q1029 NOSIG
ZGHA,2012-01-11 22:00,ZGHA 112200Z 33002MPS 1400 R36/1800N BR SCT050 04/02 Q1028 NOSIG
ZGHA,2012-01-11 23:00,ZGHA 112300Z 34002MPS 1400 R36/P2000 BR NSC 04/02 Q1029 NOSIG
ZGHA,2012-01-12 00:00,ZGHA 120000Z VRB01MPS 1200 R36/1200N BR NSC 05/02 Q1028 NOSIG
ZGHA,2012-01-12 01:00,ZGHA 120100Z 30003MPS 270V340 1400 R36/1100V1200N BR OVC050 05/02 Q1029 BECMG 1700
ZGHA,2012-01-12 02:00,ZGHA 120200Z 36003MPS 1400 R36/1100V1200N BR NSC 05/02 Q1029 BECMG 1700
ZGHA,2012-01-12 03:00,ZGHA 120300Z 35002MPS 310V020 1600 R36/1200N BR OVC050 06/02 Q1029 NOSIG
ZGHA,2012-01-12 04:00,ZGHA 120400Z 33002MPS 280V360 1600 R36/1100V1200N BR OVC050 07/02 Q1028 NOSIG
ZGHA,2012-01-12 05:00,ZGHA 120500Z 30003MPS 1600 R36/1200N BR OVC050 07/02 Q1027 NOSIG
ZGHA,2012-01-12 06:00,ZGHA 120600Z 32002MPS 280V360 1600 R36/1200V1300N HZ OVC050 07/02 Q1025 NOSIG
ZGHA,2012-01-12 07:00,ZGHA 120700Z 31002MPS 270V360 1600 R36/1300N BR SCT020 OVC050 07/02 Q1024 NOSIG
ZGHA,2012-01-12 08:00,ZGHA 120800Z 28002MPS 250V310 1600 R36/1400N BR SCT025 OVC050 07/02 Q1024 NOSIG
ZGHA,2012-01-12 09:00,ZGHA 120900Z VRB01MPS 1600 BR SCT025 OVC050 07/02 Q1024 NOSIG
ZGHA,2012-01-12 10:00,ZGHA 121000Z 28002MPS 250V330 1600 BR SCT025 OVC050 07/02 Q1024 NOSIG
ZGHA,2012-01-12 11:00,ZGHA 121100Z 32003MPS 1600 BR SCT025 OVC050 07/03 Q1025 NOSIG
ZGHA,2012-01-12 12:00,ZGHA 121200Z 32002MPS 1600 BR SCT030 OVC050 07/03 Q1025 NOSIG
ZGHA,2012-01-12 13:00,ZGHA 121300Z 35003MPS 320V020 1600 BR BKN025 OVC050 07/03 Q1026 NOSIG
ZGHA,2012-01-12 14:00,ZGHA 121400Z 34003MPS 300V360 1600 BR BKN025 OVC050 07/03 Q1026 NOSIG
ZGHA,2012-01-12 15:00,ZGHA 121500Z 36003MPS 1400 R36/1700N -RA BR OVC050 06/04 Q1026 NOSIG
ZGHA,2012-01-12 16:00,ZGHA 121600Z 36002MPS 1400 R36/1800N BR BKN016 OVC050 06/03 Q1025 NOSIG
ZGHA,2012-01-12 17:00,ZGHA 121700Z 34003MPS 1400 R36/1600N BR OVC050 06/04 Q1025 NOSIG
ZGHA,2012-01-12 18:00,ZGHA 121800Z 34003MPS 1400 R36/1800N BR OVC050 06/03 Q1025 NOSIG
ZGHA,2012-01-12 19:00,ZGHA 121900Z 32002MPS 1400 R36/1700N BR OVC050 06/03 Q1025 NOSIG
ZGHA,2012-01-12 21:00,ZGHA 122100Z 31002MPS 1200 R36/1600N BR OVC050 06/04 Q1024 NOSIG
ZGHA,2012-01-12 22:00,ZGHA 122200Z 33002MPS 1200 R36/1600N BR OVC050 05/03 Q1025 NOSIG
ZGHA,2012-01-12 23:00,ZGHA 122300Z 33002MPS 1200 R36/1500N BR OVC050 05/04 Q1025 NOSIG
ZGHA,2012-01-13 00:00,ZGHA 130000Z 36003MPS 0700 R36/1100V1200N -RA FG OVC033 05/04 Q1025 NOSIG
ZGHA,2012-01-13 01:00,ZGHA 130100Z 32002MPS 290V350 0600 R36/1100N -RA FG SCT006 OVC050 06/04 Q1026 BECMG AT0220 1000 BR
ZGHA,2012-01-13 02:00,ZGHA 130200Z 35003MPS 0600 R36/0900V1000N -RA FG SCT006 OVC050 06/04 Q1026 BECMG AT0300 1000 BR
ZGHA,2012-01-13 03:00,ZGHA 130300Z 32003MPS 290V360 0600 R36/0900N -RA FG SCT005 OVC050 06/04 Q1026 BECMG AT0430 1000 BR
ZGHA,2012-01-13 04:00,ZGHA 130400Z 34003MPS 300V360 0700 R36/1000N -RA FG SCT005 OVC050 06/04 Q1025 BECMG AT0530 1000 BR
ZGHA,2012-01-13 05:00,ZGHA 130500Z 36003MPS 0600 R36/0700N -RA FG SCT003 BKN005 OVC040 06/04 Q1024 BECMG AT0630 1000 BR
ZGHA,2012-01-13 06:00,ZGHA 130600Z 35004MPS 0600 R36/0800V0900N -RA FG SCT003 BKN005 OVC040 05/04 Q1024 NOSIG
ZGHA,2012-01-13 07:00,ZGHA 130700Z 36003MPS 0600 R36/0750N -RA FG SCT003 BKN004 OVC040 05/05 Q1023 NOSIG
ZGHA,2012-01-13 08:00,ZGHA 130800Z 01002MPS 0700 R36/0800V0900N -RA FG SCT003 BKN005 OVC040 05/05 Q1022 NOSIG
ZGHA,2012-01-13 09:00,ZGHA 130900Z 01002MPS 0900 R36/1000V1100N -RA FG FEW003 BKN005 OVC040 05/05 Q1022 BECMG BKN004 OVC040
ZGHA,2012-01-13 10:00,ZGHA 131000Z 35003MPS 0900 R36/1800N FG FEW003 BKN005 OVC040 06/05 Q1023 BECMG 0700
ZGHA,2012-01-13 11:00,ZGHA 131100Z 35003MPS 0900 R36/1200V1400N -RA FG SCT003 BKN005 OVC040 06/05 Q1023 BECMG 0700
ZGHA,2012-01-13 12:00,ZGHA 131200Z 35003MPS 0900 R36/1500N -RA FG SCT003 BKN005 OVC040 05/05 Q1023 NOSIG
ZGHA,2012-01-13 13:00,ZGHA 131300Z 01002MPS 0900 R36/1100V1300N -RA FG SCT003 BKN005 OVC040 05/05 Q1023 NOSIG
ZGHA,2012-01-13 14:00,ZGHA 131400Z 35003MPS 0900 R36/1400D -RA FG SCT003 BKN005 OVC040 05/05 Q1023 NOSIG
ZGHA,2012-01-13 15:00,ZGHA 131500Z 34003MPS 310V010 0700 R36/1400N -RA FG SCT003 BKN005 OVC040 05/05 Q1023 NOSIG
ZGHA,2012-01-13 16:00,ZGHA 131600Z 36003MPS 0700 R36/1500D -RA FG SCT003 BKN005 OVC040 05/05 Q1022 NOSIG
ZGHA,2012-01-13 17:00,ZGHA 131700Z 35003MPS 0700 R36/1500N -RA FG BKN005 OVC040 05/05 Q1022 NOSIG
ZGHA,2012-01-13 18:00,ZGHA 131800Z 35003MPS 0500 R36/1200V1400N -RA FG BKN005 OVC040 05/05 Q1022 NOSIG
ZGHA,2012-01-13 19:00,ZGHA 131900Z 35004MPS 0500 R36/1500N -RA FG BKN005 OVC040 05/04 Q1022 NOSIG
ZGHA,2012-01-13 20:00,ZGHA 132000Z 35003MPS 0500 R36/1000V1200U -RA FG BKN005 OVC040 05/04 Q1021 NOSIG
ZGHA,2012-01-13 21:00,ZGHA 132100Z 35003MPS 0500 R36/1200V1400N FG BKN005 OVC040 05/04 Q1021 NOSIG
ZGHA,2012-01-13 22:00,ZGHA 132200Z 36003MPS 0600 R36/1200N FG BKN005 OVC040 05/04 Q1021 NOSIG
ZGHA,2012-01-13 23:00,ZGHA 132300Z 33003MPS 290V360 0600 R36/1400N -RA FG BKN005 OVC040 05/04 Q1021 BECMG 0900
ZGHA,2012-01-14 00:00,ZGHA 140000Z 33004MPS 0900 R36/1900D -RA FG FEW003 BKN005 OVC040 05/04 Q1022 NOSIG
ZGHA,2012-01-14 01:00,ZGHA 140100Z 34004MPS 1000 R36/1400U -RA BR FEW003 BKN005 OVC040 05/04 Q1022 BECMG 1600
ZGHA,2012-01-14 02:00,ZGHA 140200Z 35003MPS 320V020 1200 R36/1400U -RA BR FEW003 BKN005 OVC040 05/04 Q1022 NOSIG
ZGHA,2012-01-14 03:00,ZGHA 140300Z 32004MPS 290V350 1700 -RA BR BKN005 OVC040 05/04 Q1023 NOSIG
ZGHA,2012-01-14 04:00,ZGHA 140400Z 32004MPS 2200 -RA BR BKN005 OVC040 05/05 Q1022 NOSIG
ZGHA,2012-01-14 05:00,ZGHA 140500Z 33004MPS 1700 -RA BR BKN005 OVC040 05/04 Q1021 NOSIG
ZGHA,2012-01-14 06:00,ZGHA 140600Z 31005MPS 1600 R36/1400N -RA BR BKN005 OVC040 05/04 Q1021 NOSIG
ZGHA,2012-01-14 07:00,ZGHA 140700Z 31004MPS 290V350 1600 -RA BR BKN005 OVC040 05/04 Q1020 NOSIG
ZGHA,2012-01-14 08:00,ZGHA 140800Z 31005MPS 1700 BR BKN006 OVC040 05/04 Q1020 NOSIG
ZGHA,2012-01-14 09:00,ZGHA 140900Z 33004MPS 1700 -RA BR BKN007 OVC040 05/03 Q1020 NOSIG
ZGHA,2012-01-14 10:00,ZGHA 141000Z 33003MPS 290V360 1600 -RA BR BKN005 OVC040 04/03 Q1021 NOSIG
ZGHA,2012-01-14 11:00,ZGHA 141100Z 35002MPS 310V030 1400 R36/P2000 -RA BR FEW003 BKN005 OVC040 04/03 Q1021 NOSIG
ZGHA,2012-01-14 12:00,ZGHA 141200Z 31004MPS 1200 R36/1800U -RA BR FEW003 BKN005 OVC040 04/03 Q1022 NOSIG
ZGHA,2012-01-14 13:00,ZGHA 141300Z 32003MPS 1600 -RA BR BKN005 OVC040 04/03 Q1022 NOSIG
ZGHA,2012-01-14 14:00,ZGHA 141400Z 35004MPS 1700 -RA BR FEW003 BKN005 OVC040 04/03 Q1022 NOSIG
ZGHA,2012-01-14 15:00,ZGHA 141500Z 34005MPS 1700 -RA BR FEW003 BKN005 OVC040 04/03 Q1021 NOSIG
ZGHA,2012-01-14 16:00,ZGHA 141600Z 35004MPS 1600 -RA BR FEW003 BKN005 OVC040 04/03 Q1021 NOSIG
ZGHA,2012-01-14 17:00,ZGHA 141700Z 34005MPS 1700 -RA BR FEW003 BKN005 OVC040 04/03 Q1021 NOSIG
ZGHA,2012-01-14 18:00,ZGHA 141800Z 35004MPS 1800 -RA BR BKN005 OVC040 04/03 Q1020 NOSIG
ZGHA,2012-01-14 19:00,ZGHA 141900Z 34005MPS 1800 -RA BR BKN005 OVC040 04/03 Q1020 NOSIG
ZGHA,2012-01-14 20:00,ZGHA 142000Z 33004MPS 1700 -RA BR BKN005 OVC040 04/03 Q1020 NOSIG
ZGHA,2012-01-14 21:00,ZGHA 142100Z 32003MPS 1700 -RA BR BKN005 OVC040 04/03 Q1020 NOSIG
ZGHA,2012-01-14 22:00,ZGHA 142200Z 33003MPS 1600 -RA BR BKN005 OVC040 04/03 Q1020 NOSIG
ZGHA,2012-01-14 23:00,ZGHA 142300Z 35004MPS 1700 -RA BR BKN005 OVC040 04/03 Q1019 NOSIG
ZGHA,2012-01-15 00:00,ZGHA 150000Z 34004MPS 1700 -RA BR BKN005 OVC040 03/03 Q1020 NOSIG
ZGHA,2012-01-15 01:00,ZGHA 150100Z 33004MPS 2000 -RA BR BKN005 OVC040 03/02 Q1020 TEMPO 1400
ZGHA,2012-01-15 02:00,ZGHA 150200Z 34005MPS 1800 -RA BR BKN005 OVC040 03/02 Q1020 TEMPO 1400
ZGHA,2012-01-15 03:00,ZGHA 150300Z 34004MPS 2000 -RA BR BKN005 OVC040 02/02 Q1020 BECMG FM0400 1400 SN
ZGHA,2012-01-15 04:00,ZGHA 150400Z 34003MPS 1800 -RA BR BKN005 OVC040 02/02 Q1019 BECMG 1400 -SN BR
ZGHA,2012-01-15 05:00,ZGHA 150500Z 32004MPS 1700 -RASN BR BKN004 OVC040 02/01 Q1018 TEMPO 1400 SN BR
ZGHA,2012-01-15 06:00,ZGHA 150600Z 34003MPS 290V360 0900 R36/1500N SN FG BKN003 OVC040 01/00 Q1017 BECMG FM0750 1600 BR
ZGHA,2012-01-15 07:00,ZGHA 150700Z 31004MPS 1700 -RA BR BKN003 OVC040 01/01 Q1017 TEMPO 1400
ZGHA,2012-01-15 08:00,ZGHA 150800Z 34003MPS 320V020 1800 -RA BR BKN003 OVC040 01/01 Q1017 TEMPO 1400
ZGHA,2012-01-15 09:00,ZGHA 150900Z 34003MPS 1600 BR BKN003 OVC040 01/00 Q1016 NOSIG
ZGHA,2012-01-15 10:00,ZGHA 151000Z 33003MPS 1700 -RA BR BKN003 OVC040 01/01 Q1017 NOSIG
ZGHA,2012-01-15 11:00,ZGHA 151100Z 31003MPS 1600 -RA BR BKN003 OVC040 01/01 Q1018 NOSIG
ZGHA,2012-01-15 12:00,ZGHA 151200Z 31004MPS 1400 R36/P2000 -DZ BR BKN003 OVC040 01/01 Q1019 BECMG 1700
ZGHA,2012-01-15 13:00,ZGHA 151300Z 33002MPS 1400 R36/P2000 -DZ BR BKN003 OVC040 01/01 Q1019 BECMG 1700
ZGHA,2012-01-15 14:00,ZGHA 151400Z 31003MPS 1000 R36/1700N -DZ BR BKN003 OVC030 02/01 Q1019 NOSIG
ZGHA,2012-01-15 15:00,ZGHA 151500Z 30003MPS 270V340 1000 R36/1700N -DZ BR BKN003 OVC030 01/01 Q1019 NOSIG
ZGHA,2012-01-15 16:00,ZGHA 151600Z 31003MPS 280V340 0800 R36/1400N DZ FG BKN003 OVC030 02/01 Q1019 NOSIG
ZGHA,2012-01-15 17:00,ZGHA 151700Z 33002MPS 0800 R36/1600U DZ FG BKN003 OVC030 02/01 Q1019 NOSIG
ZGHA,2012-01-15 18:00,ZGHA 151800Z 31002MPS 0800 R36/1500D DZ FG BKN003 OVC030 02/02 Q1019 NOSIG
ZGHA,2012-01-15 19:00,ZGHA 151900Z 33003MPS 0800 R36/1600N DZ FG BKN003 OVC030 02/02 Q1018 NOSIG
ZGHA,2012-01-15 20:00,ZGHA 152000Z 31002MPS 0700 R36/1400N DZ FG SCT002 BKN003 OVC030 02/02 Q1018 NOSIG
ZGHA,2012-01-15 21:00,ZGHA 152100Z 30002MPS 0700 R36/1400N FG SCT002 BKN003 OVC030 02/02 Q1018 REDZ NOSIG
ZGHA,2012-01-15 22:00,ZGHA 152200Z 30003MPS 0700 R36/1300N DZ FG SCT002 BKN003 OVC030 02/02 Q1019 NOSIG
ZGHA,2012-01-15 23:00,ZGHA 152300Z 31003MPS 0700 R36/1300V1400N FG SCT002 BKN003 OVC030 02/02 Q1019 REDZ BECMG 0900
ZGHA,2012-01-16 00:00,ZGHA 160000Z 01001MPS 0800 R36/1000V1200N FG SCT002 BKN003 OVC030 02/02 Q1019 BECMG 1000 BR
ZGHA,2012-01-16 01:00,ZGHA 160100Z 00000MPS 0600 R36/0800V0900N FG SCT002 BKN003 OVC030 02/02 Q1020 BECMG AT0225 0900
ZGHA,2012-01-16 02:00,ZGHA 160200Z VRB01MPS 0700 R36/1000V1100N FG SCT002 BKN004 OVC033 03/02 Q1020 NOSIG
ZGHA,2012-01-16 03:00,ZGHA 160300Z VRB01MPS 0900 R36/0900V1200U FG FEW002 BKN004 OVC040 03/02 Q1020 NOSIG
ZGHA,2012-01-16 04:00,ZGHA 160400Z VRB01MPS 1400 R36/1500N BR BKN005 OVC040 04/03 Q1019 NOSIG
ZGHA,2012-01-16 05:00,ZGHA 160500Z VRB01MPS 2500 BR BKN008 OVC040 05/03 Q1018 NOSIG
ZGHA,2012-01-16 06:00,ZGHA 160600Z VRB01MPS 2800 BR BKN008 OVC040 05/02 Q1017 NOSIG
ZGHA,2012-01-16 07:00,ZGHA 160700Z 25002MPS 210V290 2400 BR BKN008 OVC040 05/03 Q1017 NOSIG
ZGHA,2012-01-16 08:00,ZGHA 160800Z 32003MPS 290V350 0700 R36/1200N DZ FG SCT003 BKN006 OVC040 04/03 Q1018 TEMPO 0900
ZGHA,2012-01-16 09:00,ZGHA 160900Z 36002MPS 0700 R36/1100V1200N FG SCT003 BKN008 OVC033 04/03 Q1017 TEMPO 0900 FG
ZGHA,2012-01-16 10:00,ZGHA 161000Z 01002MPS 0700 R36/1700U FG SCT003 BKN006 OVC033 04/03 Q1018 BECMG 0900 FG
ZGHA,2012-01-16 11:00,ZGHA 161100Z 36003MPS 0900 R36/P2000 FG SCT003 BKN006 OVC033 04/03 Q1019 TEMPO 0700 FG
ZGHA,2012-01-16 12:00,ZGHA 161200Z 36003MPS 1200 R36/P2000 BR SCT003 BKN006 OVC033 04/03 Q1020 TEMPO 0700 FG
ZGHA,2012-01-16 13:00,ZGHA 161300Z 01002MPS 1200 R36/1900N BR SCT003 BKN006 OVC040 04/03 Q1020 NOSIG
ZGHA,2012-01-16 14:00,ZGHA 161400Z 36002MPS 1200 R36/1900N BR FEW003 BKN006 OVC040 04/03 Q1020 NOSIG
ZGHA,2012-01-16 15:00,ZGHA 161500Z 36002MPS 1300 R36/P2000 BR FEW004 BKN008 OVC040 04/03 Q1020 NOSIG
ZGHA,2012-01-16 16:00,ZGHA 161600Z 01003MPS 1200 R36/1700N BR BKN008 OVC040 04/03 Q1019 NOSIG
ZGHA,2012-01-16 17:00,ZGHA 161700Z 01001MPS 1100 R36/1700N BR BKN009 OVC050 04/03 Q1019 NOSIG
ZGHA,2012-01-16 18:00,ZGHA 161800Z 35001MPS 1100 R36/1700N BR BKN009 OVC050 04/03 Q1018 NOSIG
ZGHA,2012-01-16 19:00,ZGHA 161900Z 35001MPS 1200 R36/1800N BR BKN011 OVC050 04/03 Q1018 NOSIG
ZGHA,2012-01-16 20:00,ZGHA 162000Z 30002MPS 1200 R36/1700N BR BKN011 OVC050 04/03 Q1018 NOSIG
ZGHA,2012-01-16 21:00,ZGHA 162100Z 36002MPS 1300 R36/P2000 BR BKN012 OVC050 04/03 Q1019 NOSIG
ZGHA,2012-01-16 22:00,ZGHA 162200Z VRB01MPS 1300 R36/P2000 BR SCT012 OVC050 04/03 Q1019 NOSIG
ZGHA,2012-01-16 23:00,ZGHA 162300Z 01001MPS 1400 R36/P2000 BR SCT014 OVC050 04/03 Q1019 BECMG 1700
ZGHA,2012-01-17 00:00,ZGHA 170000Z 30002MPS 1100 R36/1400U BR SCT015 OVC050 04/03 Q1020 TEMPO 1700
ZGHA,2012-01-17 01:00,ZGHA 170100Z VRB01MPS 1100 R36/1200V1300N -RA BR FEW004 BKN009 OVC050 04/03 Q1020 NOSIG
ZGHA,2012-01-17 02:00,ZGHA 170200Z 26002MPS 240V310 1100 R36/1100V1300N -RA BR FEW004 BKN009 OVC050 04/04 Q1021 NOSIG
ZGHA,2012-01-17 03:00,ZGHA 170300Z 31002MPS 280V350 0700 R36/0800V1100N DZ FG SCT003 BKN007 OVC050 05/04 Q1020 NOSIG
ZGHA,2012-01-17 04:00,ZGHA 170400Z 28002MPS 0700 R36/0800V1100N DZ FG SCT003 BKN007 OVC050 05/04 Q1019 NOSIG
ZGHA,2012-01-17 05:00,ZGHA 170500Z 30002MPS 1000 R36/1200V1400U -DZ BR SCT003 BKN007 OVC050 05/04 Q1018 REDZ NOSIG
ZGHA,2012-01-17 06:00,ZGHA 170600Z VRB01MPS 1200 R36/1600N -DZ BR FEW003 BKN007 OVC050 05/04 Q1017 TEMPO 1700
ZGHA,2012-01-17 07:00,ZGHA 170700Z 32002MPS 290V010 1400 R36/1800D -DZ BR BKN007 OVC050 06/05 Q1017 NOSIG
ZGHA,2012-01-17 08:00,ZGHA 170800Z 30002MPS 270V340 1400 R36/1800N -DZ BR FEW005 BKN007 OVC050 05/04 Q1017 NOSIG
ZGHA,2012-01-17 09:00,ZGHA 170900Z 33002MPS 290V360 1700 -DZ BR BKN007 OVC050 06/04 Q1017 NOSIG
ZGHA,2012-01-17 10:00,ZGHA 171000Z 01002MPS 1600 -DZ BR BKN007 OVC050 05/05 Q1017 NOSIG
ZGHA,2012-01-17 11:00,ZGHA 171100Z 36002MPS 1600 -DZ BR BKN007 OVC050 05/05 Q1018 NOSIG
ZGHA,2012-01-17 12:00,ZGHA 171200Z 01002MPS 1400 R36/P2000 -RA BR SCT003 BKN007 OVC050 06/05 Q1018 NOSIG
ZGHA,2012-01-17 13:00,ZGHA 171300Z 36003MPS 1400 R36/P2000 -RA BR SCT003 BKN007 OVC050 05/05 Q1018 NOSIG
ZGHA,2012-01-17 14:00,ZGHA 171400Z 33003MPS 290V350 1700 -RA BR FEW004 BKN007 OVC050 06/05 Q1019 NOSIG
ZGHA,2012-01-17 15:00,ZGHA 171500Z 01003MPS 1400 R36/P2000 -RA BR FEW004 BKN007 OVC050 05/05 Q1018 NOSIG
ZGHA,2012-01-17 16:00,ZGHA 171600Z 36003MPS 1400 R36/P2000 -RA BR FEW004 BKN007 OVC050 05/05 Q1018 NOSIG
ZGHA,2012-01-17 17:00,ZGHA 171700Z 01002MPS 1400 R36/P2000 -RA BR FEW004 BKN007 OVC050 05/05 Q1018 NOSIG
ZGHA,2012-01-17 18:00,ZGHA 171800Z 01002MPS 1400 R36/P2000 -RA BR BKN008 OVC050 05/04 Q1017 NOSIG
ZGHA,2012-01-17 19:00,ZGHA 171900Z 36003MPS 1400 R36/P2000 -RA BR FEW003 BKN007 OVC050 05/04 Q1016 NOSIG
ZGHA,2012-01-17 20:00,ZGHA 172000Z 35003MPS 1600 -RA BR FEW003 BKN007 OVC050 05/05 Q1016 NOSIG
ZGHA,2012-01-17 21:00,ZGHA 172100Z 34004MPS 2000 -RA BR FEW003 BKN007 OVC050 05/05 Q1016 NOSIG
ZGHA,2012-01-17 22:00,ZGHA 172200Z 32004MPS 2200 -RA BR FEW003 BKN007 OVC050 05/04 Q1017 NOSIG
ZGHA,2012-01-17 23:00,ZGHA 172300Z 32003MPS 3000 -RA BR FEW004 BKN007 OVC050 05/04 Q1018 NOSIG
ZGHA,2012-01-18 00:00,ZGHA 180000Z 35004MPS 5000 BR BKN008 OVC050 05/04 Q1019 NOSIG
ZGHA,2012-01-18 01:00,ZGHA 180100Z 36003MPS 5000 BR BKN008 OVC050 05/04 Q1019 NOSIG
ZGHA,2012-01-18 02:00,ZGHA 180200Z 01003MPS 7000 BKN011 OVC050 05/04 Q1020 NOSIG
ZGHA,2012-01-18 03:00,ZGHA 180300Z 36004MPS 6000 -RA BKN011 OVC050 05/04 Q1019 NOSIG
ZGHA,2012-01-18 04:00,ZGHA 180400Z 34004MPS 6000 -RA FEW007 BKN011 OVC050 06/04 Q1019 NOSIG
ZGHA,2012-01-18 05:00,ZGHA 180500Z 34004MPS 7000 -RA BKN010 OVC050 06/04 Q1018 NOSIG
ZGHA,2012-01-18 06:00,ZGHA 180600Z 34004MPS 7000 -RA BKN012 OVC050 06/04 Q1018 NOSIG
ZGHA,2012-01-18 07:00,ZGHA 180700Z 34004MPS 7000 -RA FEW008 BKN012 OVC050 06/05 Q1018 BECMG BKN009 OVC040
ZGHA,2012-01-18 08:00,ZGHA 180800Z 34005MPS 3500 -RA BR FEW008 BKN012 OVC050 06/04 Q1018 BECMG 2500
ZGHA,2012-01-18 09:00,ZGHA 180900Z 36004MPS 3500 -RA BR BKN012 OVC050 06/05 Q1018 NOSIG
ZGHA,2012-01-18 10:00,ZGHA 181000Z 35003MPS 320V020 2100 -RA BR BKN010 OVC050 06/05 Q1019 BECMG BKN009 OVC050
ZGHA,2012-01-18 11:00,ZGHA 181100Z 32003MPS 280V360 2400 -RA BR BKN010 OVC050 06/05 Q1019 BECMG BKN008 OVC050
ZGHA,2012-01-18 12:00,ZGHA 181200Z 34002MPS 310V010 2400 -RA BR FEW005 BKN010 OVC050 06/05 Q1020 NOSIG
ZGHA,2012-01-18 13:00,ZGHA 181300Z 32003MPS 290V350 2100 -RA BR FEW005 BKN010 OVC050 06/05 Q1020 NOSIG
ZGHA,2012-01-18 14:00,ZGHA 181400Z 35003MPS 2100 -RA BR FEW005 BKN010 OVC050 06/05 Q1021 NOSIG
ZGHA,2012-01-18 15:00,ZGHA 181500Z 33003MPS 290V360 2500 -RA BR FEW005 BKN010 OVC050 06/05 Q1021 NOSIG
ZGHA,2012-01-18 16:00,ZGHA 181600Z 36004MPS 2500 -RA BR FEW005 BKN010 OVC050 06/05 Q1021 NOSIG
ZGHA,2012-01-18 17:00,ZGHA 181700Z 36003MPS 2500 -RA BR FEW005 BKN010 OVC050 05/05 Q1021 NOSIG
ZGHA,2012-01-18 18:00,ZGHA 181800Z 01003MPS 330V040 2500 BR BKN010 OVC050 06/05 Q1021 NOSIG
ZGHA,2012-01-18 19:00,ZGHA 181900Z 01002MPS 2500 BR FEW006 BKN010 OVC050 05/05 Q1020 NOSIG
ZGHA,2012-01-18 20:00,ZGHA 182000Z 36003MPS 2100 -DZ BR FEW006 BKN010 OVC050 05/05 Q1020 NOSIG
ZGHA,2012-01-18 21:00,ZGHA 182100Z 35004MPS 2100 -DZ BR FEW006 BKN010 OVC050 05/05 Q1020 NOSIG
ZGHA,2012-01-18 22:00,ZGHA 182200Z 33004MPS 2100 -RA BR FEW006 BKN010 OVC050 05/05 Q1021 NOSIG
ZGHA,2012-01-18 23:00,ZGHA 182300Z 36004MPS 3000 -RA BR FEW006 BKN010 OVC050 05/04 Q1021 BECMG 3300
ZGHA,2012-01-19 00:00,ZGHA 190000Z 36004MPS 2700 -RA BR FEW006 BKN009 OVC050 05/04 Q1022 NOSIG
ZGHA,2012-01-19 01:00,ZGHA 190100Z 35004MPS 2700 -RA BR FEW006 BKN009 OVC050 05/04 Q1023 TEMPO 3000
ZGHA,2012-01-19 02:00,ZGHA 190200Z 34004MPS 3000 -RA BR FEW006 BKN009 OVC050 05/04 Q1024 BECMG 3500 BR BKN011 OVC050
ZGHA,2012-01-19 03:00,ZGHA 190300Z 33004MPS 3000 -RA BR FEW006 BKN009 OVC050 05/04 Q1023 NOSIG
ZGHA,2012-01-19 04:00,ZGHA 190400Z 34004MPS 3500 -RA BR FEW006 BKN009 OVC050 05/04 Q1023 NOSIG
ZGHA,2012-01-19 05:00,ZGHA 190500Z 35004MPS 4000 -RA BR FEW006 BKN009 OVC050 06/04 Q1022 BECMG BKN011
ZGHA,2012-01-19 06:00,ZGHA 190600Z 35004MPS 4000 -RA BR FEW006 BKN009 OVC050 05/04 Q1021 NOSIG
ZGHA,2012-01-19 07:00,ZGHA 190700Z 34004MPS 3500 BR FEW006 BKN009 OVC050 05/04 Q1021 BECMG BKN011
ZGHA,2012-01-19 08:00,ZGHA 190800Z 34005MPS 3000 BR FEW006 BKN009 OVC050 05/04 Q1021 BECMG 2500
ZGHA,2012-01-19 09:00,ZGHA 190900Z 35004MPS 2700 BR FEW006 BKN009 OVC050 05/04 Q1021 NOSIG
ZGHA,2012-01-19 10:00,ZGHA 191000Z 34004MPS 2700 BR FEW006 BKN009 OVC050 05/04 Q1021 NOSIG
ZGHA,2012-01-19 11:00,ZGHA 191100Z 35004MPS 2500 BR FEW006 BKN009 OVC050 05/04 Q1021 NOSIG
ZGHA,2012-01-19 12:00,ZGHA 191200Z 34004MPS 2500 -RA BR FEW004 BKN007 OVC050 05/04 Q1022 NOSIG
ZGHA,2012-01-19 13:00,ZGHA 191300Z 34004MPS 3000 BR BKN006 OVC050 05/04 Q1022 BECMG 2500 BKN004 OVC050
ZGHA,2012-01-19 14:00,ZGHA 191400Z 34004MPS 3000 BR BKN006 OVC050 05/04 Q1022 BECMG 2500
ZGHA,2012-01-19 15:00,ZGHA 191500Z 34004MPS 3500 BR BKN006 OVC050 05/04 Q1023 NOSIG
ZGHA,2012-01-19 16:00,ZGHA 191600Z 35004MPS 3000 BR BKN006 OVC050 05/04 Q1023 BECMG 2500
ZGHA,2012-01-19 17:00,ZGHA 191700Z 36004MPS 3000 BR BKN006 OVC050 05/04 Q1022 NOSIG
ZGHA,2012-01-19 18:00,ZGHA 191800Z 35005MPS 3000 BR BKN007 OVC050 05/04 Q1022 NOSIG
ZGHA,2012-01-19 19:00,ZGHA 191900Z 03002MPS 360V100 2700 BR BKN007 OVC050 05/04 Q1021 NOSIG
ZGHA,2012-01-19 20:00,ZGHA 192000Z 35002MPS 2500 -DZ BR BKN007 OVC050 05/04 Q1021 NOSIG
ZGHA,2012-01-19 21:00,ZGHA 192100Z 34002MPS 2300 -RA BR BKN006 OVC050 05/04 Q1021 NOSIG
ZGHA,2012-01-19 22:00,ZGHA 192200Z 34003MPS 2100 -RA BR BKN006 OVC050 05/04 Q1021 NOSIG
ZGHA,2012-01-19 23:00,ZGHA 192300Z 33003MPS 2100 -RA BR FEW003 BKN006 OVC050 05/04 Q1022 NOSIG
ZGHA,2012-01-20 00:00,ZGHA 200000Z 35003MPS 1800 -RA BR SCT003 BKN006 OVC050 05/04 Q1022 BECMG 1400
ZGHA,2012-01-20 01:00,ZGHA 200100Z 35003MPS 1800 -RA BR BKN004 OVC050 05/05 Q1022 NOSIG
ZGHA,2012-01-20 02:00,ZGHA 200200Z 34004MPS 2000 -RA BR BKN004 OVC050 05/05 Q1023 NOSIG
ZGHA,2012-01-20 03:00,ZGHA 200300Z 36003MPS 2700 BR SCT004 BKN005 OVC050 06/05 Q1022 NOSIG
ZGHA,2012-01-20 04:00,ZGHA 200400Z 35004MPS 3000 BR BKN005 OVC050 06/05 Q1022 BECMG 2000 -RA BR
ZGHA,2012-01-20 05:00,ZGHA 200500Z 36004MPS 2800 -RA BR BKN005 OVC050 06/05 Q1021 TEMPO BKN004 OVC050
ZGHA,2012-01-20 06:00,ZGHA 200600Z 36004MPS 3000 -RA BR BKN005 OVC050 06/05 Q1020 TEMPO 2500
ZGHA,2012-01-20 07:00,ZGHA 200700Z 36004MPS 4000 -RA BR BKN006 OVC050 06/05 Q1020 NOSIG
ZGHA,2012-01-20 08:00,ZGHA 200800Z 35004MPS 3000 -RA BR BKN006 OVC050 06/05 Q1020 NOSIG
ZGHA,2012-01-20 09:00,ZGHA 200900Z 35004MPS 2000 -RA BR BKN005 OVC050 06/05 Q1020 NOSIG
ZGHA,2012-01-20 10:00,ZGHA 201000Z 35003MPS 2500 -RA BR BKN005 OVC050 06/05 Q1020 NOSIG
ZGHA,2012-01-20 11:00,ZGHA 201100Z 33004MPS 300V360 2500 -RA BR BKN005 OVC050 06/05 Q1021 NOSIG
ZGHA,2012-01-20 12:00,ZGHA 201200Z 34003MPS 2300 -RA BR BKN005 OVC050 06/05 Q1021 NOSIG
ZGHA,2012-01-20 13:00,ZGHA 201300Z 35004MPS 2500 -RA BR BKN005 OVC050 06/05 Q1022 NOSIG
ZGHA,2012-01-20 14:00,ZGHA 201400Z 34004MPS 2200 -RA BR BKN005 OVC050 06/05 Q1022 NOSIG
ZGHA,2012-01-20 15:00,ZGHA 201500Z 36003MPS 2200 -RA BR BKN005 OVC050 06/05 Q1022 NOSIG
ZGHA,2012-01-20 16:00,ZGHA 201600Z 36004MPS 2500 -RA BR BKN005 OVC050 06/05 Q1022 NOSIG
ZGHA,2012-01-20 17:00,ZGHA 201700Z 35003MPS 2200 -RA BR BKN005 OVC050 05/05 Q1023 NOSIG
ZGHA,2012-01-20 18:00,ZGHA 201800Z 36004MPS 2300 -RA BR BKN005 OVC050 05/04 Q1022 NOSIG
ZGHA,2012-01-20 19:00,ZGHA 201900Z 36004MPS 2200 -RA BR BKN005 OVC050 05/04 Q1022 NOSIG
ZGHA,2012-01-20 20:00,ZGHA 202000Z 36004MPS 2200 -RA BR BKN005 OVC050 04/04 Q1021 NOSIG
ZGHA,2012-01-20 21:00,ZGHA 202100Z 01002MPS 2100 -RA BR BKN005 OVC050 04/04 Q1021 NOSIG
ZGHA,2012-01-20 22:00,ZGHA 202200Z 36004MPS 2200 -RA BR BKN005 OVC050 04/04 Q1022 NOSIG
ZGHA,2012-01-20 23:00,ZGHA 202300Z 01004MPS 340V040 2500 -RA BR BKN005 OVC050 04/03 Q1022 NOSIG
ZGHA,2012-01-21 00:00,ZGHA 210000Z 02002MPS 2200 -RA BR BKN005 OVC050 03/03 Q1023 NOSIG
ZGHA,2012-01-21 01:00,ZGHA 210100Z 02002MPS 1600 -RA BR BKN005 OVC050 04/03 Q1023 BECMG 1300
ZGHA,2012-01-21 02:00,ZGHA 210200Z 36003MPS 1400 R36/1700U -RA BR BKN005 OVC040 04/03 Q1024 NOSIG
ZGHA,2012-01-21 03:00,ZGHA 210300Z 36005MPS 2000 -RA BR BKN005 OVC040 04/03 Q1024 NOSIG
ZGHA,2012-01-21 04:00,ZGHA 210400Z 36005MPS 2200 -RA BR BKN005 OVC040 04/03 Q1023 BECMG -SNRA
ZGHA,2012-01-21 05:00,ZGHA 210500Z 35005MPS 2500 -RA BR BKN005 OVC040 03/02 Q1022 BECMG -RASN
ZGHA,2012-01-21 06:00,ZGHA 210600Z 34005MPS 1400 R36/1600D -RASN BR BKN005 OVC040 03/02 Q1021 NOSIG
ZGHA,2012-01-21 07:00,ZGHA 210700Z 34005MPS 1400 R36/1800U -SN BR BKN005 OVC040 02/01 Q1022 NOSIG
ZGHA,2012-01-21 08:00,ZGHA 210800Z 35004MPS 0900 R36/1100D SN FG BKN004 OVC040 01/00 Q1022 BECMG 0700
ZGHA,2012-01-21 09:00,ZGHA 210900Z 35005MPS 1200 R36/1500N -SN BR BKN004 OVC040 02/01 Q1023 NOSIG
ZGHA,2012-01-21 10:00,ZGHA 211000Z 34006MPS 1000 R36/P2000 -SN BR BKN004 OVC040 01/01 Q1024 NOSIG
ZGHA,2012-01-21 11:00,ZGHA 211100Z 34006MPS 1400 R36/P2000 -SN BR BKN004 OVC040 01/01 Q1025 NOSIG
ZGHA,2012-01-21 12:00,ZGHA 211200Z 35006MPS 2000 -SN BR BKN005 OVC040 01/00 Q1026 NOSIG
ZGHA,2012-01-21 13:00,ZGHA 211300Z 35007MPS 3000 -RA BR BKN007 OVC040 01/00 Q1026 NOSIG
ZGHA,2012-01-21 14:00,ZGHA 211400Z 34006MPS 3000 -RA BR BKN007 OVC040 01/00 Q1027 NOSIG
ZGHA,2012-01-21 15:00,ZGHA 211500Z 35006MPS 2500 BR BKN008 OVC040 01/M00 Q1028 NOSIG
ZGHA,2012-01-21 16:00,ZGHA 211600Z 34006MPS 3000 BR BKN008 OVC040 01/M00 Q1028 NOSIG
ZGHA,2012-01-21 17:00,ZGHA 211700Z 35006MPS 3000 -RA BR BKN007 OVC040 01/M00 Q1028 NOSIG
ZGHA,2012-01-21 18:00,ZGHA 211800Z 34005MPS 1400 R36/1200N -SN BR BKN004 OVC040 00/M00 Q1028 NOSIG
ZGHA,2012-01-21 19:00,ZGHA 211900Z 34006MPS 2000 -SN BR BKN005 OVC040 00/M00 Q1028 NOSIG
ZGHA,2012-01-21 20:00,ZGHA 212000Z 34005MPS 1400 R36/P2000 -SN BR BKN005 OVC040 M00/M01 Q1028 NOSIG
ZGHA,2012-01-21 21:00,ZGHA 212100Z 35005MPS 1800 -SN BR BKN005 OVC040 M00/M00 Q1028 NOSIG
ZGHA,2012-01-21 22:00,ZGHA 212200Z 34005MPS 1800 -SN BR BKN005 OVC040 M00/M00 Q1029 NOSIG
ZGHA,2012-01-21 23:00,ZGHA 212300Z 34005MPS 2000 -SN BR BKN006 OVC040 M00/M01 Q1030 NOSIG
ZGHA,2012-01-22 00:00,ZGHA 220000Z 35006MPS 3000 -SN BR BKN007 OVC040 M00/M01 Q1030 NOSIG
ZGHA,2012-01-22 01:00,ZGHA 220100Z 34006MPS 1400 R36/1400N -SN BR BKN007 OVC040 M00/M01 Q1031 NOSIG
ZGHA,2012-01-22 02:00,ZGHA 220200Z 34005MPS 1400 R36/1400N -SN BR BKN007 OVC040 M00/M01 Q1031 NOSIG
ZGHA,2012-01-22 03:00,ZGHA 220300Z 34006MPS 2500 -SN BR BKN008 OVC040 M00/M01 Q1031 NOSIG
ZGHA,2012-01-22 04:00,ZGHA 220400Z 34006MPS 2800 -SN BR BKN008 OVC040 M00/M01 Q1030 NOSIG
ZGHA,2012-01-22 05:00,ZGHA 220500Z 34006MPS 2800 -SN BR BKN008 OVC040 M00/M01 Q1029 NOSIG
ZGHA,2012-01-22 06:00,ZGHA 220600Z 34005MPS 2000 -SN BR FEW006 BKN009 OVC040 00/M01 Q1029 NOSIG
ZGHA,2012-01-22 07:00,ZGHA 220700Z 34006MPS 2500 -SN BR FEW006 BKN009 OVC040 00/M01 Q1028 NOSIG
ZGHA,2012-01-22 08:00,ZGHA 220800Z 34005MPS 2500 -SN BR FEW006 BKN009 OVC040 00/M01 Q1029 NOSIG
ZGHA,2012-01-22 09:00,ZGHA 220900Z 34005MPS 2300 -SN BR FEW006 BKN009 OVC040 00/M01 Q1029 NOSIG
ZGHA,2012-01-22 10:00,ZGHA 221000Z 34005MPS 2000 -SN BR FEW006 BKN009 OVC040 00/M01 Q1030 NOSIG
ZGHA,2012-01-22 11:00,ZGHA 221100Z 34005MPS 1800 -SN BR FEW006 BKN009 OVC040 M00/M01 Q1030 NOSIG
ZGHA,2012-01-22 12:00,ZGHA 221200Z 34005MPS 1800 -SN BR FEW006 BKN009 OVC040 M00/M01 Q1031 NOSIG
ZGHA,2012-01-22 13:00,ZGHA 221300Z 34006MPS 2500 -SN BR FEW006 BKN009 OVC040 M00/M01 Q1032 NOSIG
ZGHA,2012-01-22 14:00,ZGHA 221400Z 34005MPS 2500 BR BKN009 OVC040 M00/M02 Q1032 NOSIG
ZGHA,2012-01-22 15:00,ZGHA 221500Z 34004MPS 2500 BR BKN009 OVC040 M00/M02 Q1032 NOSIG
ZGHA,2012-01-22 16:00,ZGHA 221600Z 34004MPS 2500 BR BKN009 OVC040 M00/M02 Q1032 NOSIG
ZGHA,2012-01-22 17:00,ZGHA 221700Z AUTO 34004MPS 1400 R36/P2000 BR BKN010 /// OVC014/// M00/M02 Q1031
ZGHA,2012-01-22 18:00,ZGHA 221800Z AUTO 34005MPS 1600 BR OVC011 /// M00/M02 Q1031
ZGHA,2012-01-22 19:00,ZGHA 221900Z AUTO 35005MPS 2000 BR OVC013 /// M00/M02 Q1031
ZGHA,2012-01-22 21:00,ZGHA 222100Z 35004MPS 1700 BR BKN009 OVC050 M00/M02 Q1030 NOSIG
ZGHA,2012-01-22 22:00,ZGHA 222200Z 34004MPS 2100 BR BKN011 OVC050 M00/M02 Q1030 NOSIG
ZGHA,2012-01-22 23:00,ZGHA 222300Z 34004MPS 2500 BR BKN011 OVC050 M00/M03 Q1030 NOSIG
ZGHA,2012-01-23 00:00,ZGHA 230000Z 35003MPS 2500 BR BKN011 OVC040 M00/M02 Q1030 NOSIG
ZGHA,2012-01-23 01:00,ZGHA 230100Z 34003MPS 2700 BR BKN011 OVC040 M00/M02 Q1030 NOSIG
ZGHA,2012-01-23 02:00,ZGHA 230200Z 36004MPS 2800 BR BKN012 OVC040 M00/M03 Q1031 BECMG 3200
ZGHA,2012-01-23 03:00,ZGHA 230300Z 32003MPS 290V350 2400 BR BKN012 OVC040 00/M02 Q1030 BECMG 3200
ZGHA,2012-01-23 04:00,ZGHA 230400Z 33002MPS 300V030 2500 BR BKN012 OVC040 00/M02 Q1029 NOSIG
ZGHA,2012-01-23 05:00,ZGHA 230500Z 34002MPS 290V020 3500 BR SCT012 BKN020 OVC040 01/M02 Q1028 NOSIG
ZGHA,2012-01-23 06:00,ZGHA 230600Z 29003MPS 260V330 3000 BR SCT012 BKN020 OVC050 01/M02 Q1027 NOSIG
ZGHA,2012-01-23 07:00,ZGHA 230700Z 28002MPS 240V340 3500 BR FEW012 BKN020 OVC050 01/M02 Q1026 TEMPO 2800
ZGHA,2012-01-23 08:00,ZGHA 230800Z 32002MPS 270V350 3500 BR FEW012 BKN020 OVC050 01/M02 Q1026 NOSIG
ZGHA,2012-01-23 09:00,ZGHA 230900Z 31002MPS 270V340 3000 BR FEW012 BKN020 OVC050 01/M02 Q1026 NOSIG
ZGHA,2012-01-23 10:00,ZGHA 231000Z 01001MPS 2800 BR FEW012 BKN020 OVC040 01/M01 Q1026 NOSIG
ZGHA,2012-01-23 11:00,ZGHA 231100Z 02002MPS 3000 BR FEW012 BKN020 OVC040 01/M01 Q1026 NOSIG
ZGHA,2012-01-23 12:00,ZGHA 231200Z 01002MPS 2500 BR FEW012 BKN020 OVC050 01/M01 Q1026 NOSIG
ZGHA,2012-01-23 13:00,ZGHA 231300Z 36002MPS 2500 BR BKN020 OVC050 01/M01 Q1027 NOSIG
ZGHA,2012-01-23 14:00,ZGHA 231400Z 36001MPS 2700 BR BKN020 OVC050 01/M01 Q1027 NOSIG
ZGHA,2012-01-23 15:00,ZGHA 231500Z 36003MPS 2500 BR BKN020 OVC050 01/M01 Q1027 NOSIG
ZGHA,2012-01-23 16:00,ZGHA 231600Z 02002MPS 2200 -DZ BR FEW010 BKN020 OVC050 01/M01 Q1027 NOSIG
ZGHA,2012-01-23 17:00,ZGHA 231700Z 36003MPS 1800 -RA BR FEW010 BKN020 OVC050 01/M01 Q1027 NOSIG
ZGHA,2012-01-23 18:00,ZGHA 231800Z 35003MPS 1700 -RA BR FEW010 BKN020 OVC050 01/M00 Q1027 NOSIG
ZGHA,2012-01-23 19:00,ZGHA 231900Z 34003MPS 1800 BR SCT009 BKN020 OVC050 01/M01 Q1027 NOSIG
ZGHA,2012-01-23 20:00,ZGHA 232000Z 34003MPS 1600 -RA BR SCT008 BKN020 OVC050 01/M00 Q1027 NOSIG
ZGHA,2012-01-23 21:00,ZGHA 232100Z 34003MPS 1400 R36/1600N -RA BR FEW005 BKN008 OVC040 00/M00 Q1027 NOSIG
ZGHA,2012-01-23 22:00,ZGHA 232200Z 34004MPS 1000 R36/1100V1300N -RA BR SCT004 BKN008 OVC040 00/M00 Q1027 NOSIG
ZGHA,2012-01-23 23:00,ZGHA 232300Z 34004MPS 1100 R36/1500N -RASN BR SCT003 BKN008 OVC040 00/M00 Q1028 BECMG 1700
ZGHA,2012-01-24 00:00,ZGHA 240000Z 34005MPS 1200 R36/1700N -SN BR SCT003 BKN008 OVC040 00/M01 Q1028 BECMG 1700
ZGHA,2012-01-24 01:00,ZGHA 240100Z 34005MPS 1100 R36/1200V1300N -SN BR SCT005 BKN008 OVC040 00/M01 Q1029 NOSIG
ZGHA,2012-01-24 02:00,ZGHA 240200Z 34005MPS 1400 R36/1200V1400N -SN BR SCT005 BKN008 OVC040 00/M01 Q1030 BECMG 1700
ZGHA,2012-01-24 03:00,ZGHA 240300Z 35005MPS 1800 -SN BR SCT005 BKN009 OVC040 01/M01 Q1030 BECMG BKN011
ZGHA,2012-01-24 04:00,ZGHA 240400Z 36006MPS 2700 -SN BR BKN009 OVC040 01/M01 Q1029 BECMG 3100 BKN011
ZGHA,2012-01-24 05:00,ZGHA 240500Z 36006MPS 3000 -SN BR BKN009 OVC040 01/M01 Q1028 BECMG 3500 BKN011
ZGHA,2012-01-24 06:00,ZGHA 240600Z 34005MPS 3000 BR BKN009 OVC040 02/M01 Q1028 BECMG 3500 BR BKN011
ZGHA,2012-01-24 07:00,ZGHA 240700Z 36006MPS 3300 BR BKN009 OVC040 02/M01 Q1027 BECMG BKN011 OVC040
ZGHA,2012-01-24 08:00,ZGHA 240800Z 02003MPS 360V060 4000 BR SCT011 SCT020 OVC050 02/M01 Q1027 NOSIG
ZGHA,2012-01-24 09:00,ZGHA 240900Z 36004MPS 4500 BR FEW023 OVC050 03/M02 Q1028 NOSIG
ZGHA,2012-01-24 10:00,ZGHA 241000Z 01003MPS 4500 BR NSC 02/M02 Q1028 NOSIG
ZGHA,2012-01-24 11:00,ZGHA 241100Z 02001MPS 3500 BR NSC 01/M02 Q1029 NOSIG
ZGHA,2012-01-24 12:00,ZGHA 241200Z 36002MPS 3000 BR NSC M01/M02 Q1029 NOSIG
ZGHA,2012-01-24 13:00,ZGHA 241300Z 04001MPS 2400 BR NSC M01/M02 Q1030 NOSIG
ZGHA,2012-01-24 14:00,ZGHA 241400Z 01002MPS 2200 BR NSC M01/M02 Q1030 NOSIG
ZGHA,2012-01-24 15:00,ZGHA 241500Z 00000MPS 1600 BR NSC M02/M02 Q1030 NOSIG
ZGHA,2012-01-24 16:00,ZGHA 241600Z 36002MPS 1800 BR NSC M02/M03 Q1030 NOSIG
ZGHA,2012-01-24 17:00,ZGHA 241700Z 10001MPS 1400 R36/1500U BR NSC M03/M03 Q1030 NOSIG
ZGHA,2012-01-24 18:00,ZGHA 241800Z 04001MPS 1400 R36/P2000 BR NSC M03/M03 Q1030 NOSIG
ZGHA,2012-01-24 19:00,ZGHA 241900Z 00000MPS 1200 R36/1700N BR NSC M03/M04 Q1030 NOSIG
ZGHA,2012-01-24 20:00,ZGHA 242000Z 00000MPS 1200 R36/1700N BR NSC M03/M04 Q1029 NOSIG
ZGHA,2012-01-24 21:00,ZGHA 242100Z VRB01MPS 1200 R36/1900N BR NSC M04/M04 Q1029 NOSIG
ZGHA,2012-01-24 22:00,ZGHA 242200Z 00000MPS 1000 R36/1900N BR NSC M04/M04 Q1030 NOSIG
ZGHA,2012-01-24 23:00,ZGHA 242300Z VRB01MPS 0600 R36/0200N FZFG SKC M04/M04 Q1030 NOSIG
ZGHA,2012-01-25 00:00,ZGHA 250000Z VRB01MPS 0200 R36/0125N FZFG VV006 M04/M04 Q1030 NOSIG
ZGHA,2012-01-25 01:00,ZGHA 250100Z VRB01MPS 0200 R36/0175N FZFG VV006 M04/M04 Q1031 BECMG AT0240 0900
ZGHA,2012-01-25 02:00,ZGHA 250200Z VRB01MPS 0200 R36/0175N FZFG VV006 M03/M03 Q1031 BECMG AT0240 0700
ZGHA,2012-01-25 03:00,ZGHA 250300Z VRB01MPS 0400 R36/0275N FZFG VV006 M02/M02 Q1031 BECMG AT0320 0700
ZGHA,2012-01-25 04:00,ZGHA 250400Z VRB01MPS 1800 R36/1400N BR SCT012 01/00 Q1029 NOSIG
ZGHA,2012-01-25 05:00,ZGHA 250500Z VRB01MPS 5000 HZ NSC 04/M03 Q1028 NOSIG
ZGHA,2012-01-25 06:00,ZGHA 250600Z VRB01MPS 8000 NSC 05/M07 Q1027 NOSIG
ZGHA,2012-01-25 07:00,ZGHA 250700Z VRB01MPS CAVOK 06/M09 Q1026 NOSIG
ZGHA,2012-01-25 08:00,ZGHA 250800Z VRB01MPS CAVOK 06/M07 Q1026 NOSIG
ZGHA,2012-01-25 09:00,ZGHA 250900Z VRB01MPS CAVOK 06/M06 Q1025 NOSIG
ZGHA,2012-01-25 10:00,ZGHA 251000Z 15001MPS CAVOK 04/M03 Q1025 NOSIG
ZGHA,2012-01-25 11:00,ZGHA 251100Z 14001MPS CAVOK 02/M01 Q1025 NOSIG
ZGHA,2012-01-25 12:00,ZGHA 251200Z 16001MPS CAVOK 02/M02 Q1025 NOSIG
ZGHA,2012-01-25 13:00,ZGHA 251300Z 18002MPS 8000 SKC 01/M01 Q1026 NOSIG
ZGHA,2012-01-25 14:00,ZGHA 251400Z 14001MPS 5000 BR SKC M00/M01 Q1026 BECMG 3000
ZGHA,2012-01-25 15:00,ZGHA 251500Z 17001MPS 4000 BR NSC 00/M01 Q1026 BECMG 3000
ZGHA,2012-01-25 16:00,ZGHA 251600Z VRB01MPS 4000 BR NSC M01/M02 Q1026 BECMG 3000
ZGHA,2012-01-25 17:00,ZGHA 251700Z 13001MPS 3000 BR SKC M01/M02 Q1026 BECMG 2500
ZGHA,2012-01-25 18:00,ZGHA 251800Z 00000MPS 3000 BR SKC M02/M03 Q1026 BECMG 2500
ZGHA,2012-01-25 19:00,ZGHA 251900Z VRB01MPS 2500 BR SKC M02/M03 Q1026 NOSIG
ZGHA,2012-01-25 20:00,ZGHA 252000Z 03001MPS 2000 BR SKC M02/M03 Q1025 NOSIG
ZGHA,2012-01-25 21:00,ZGHA 252100Z VRB01MPS 2000 BR NSC M02/M02 Q1024 NOSIG
ZGHA,2012-01-25 22:00,ZGHA 252200Z VRB01MPS 1800 BR NSC M01/M02 Q1025 NOSIG
ZGHA,2012-01-25 23:00,ZGHA 252300Z 00000MPS 2000 BR NSC M01/M01 Q1025 BECMG 3000
ZGHA,2012-01-26 00:00,ZGHA 260000Z VRB01MPS 2200 BR NSC M00/M01 Q1025 BECMG 3000
ZGHA,2012-01-26 01:00,ZGHA 260100Z VRB01MPS 2200 BR NSC 00/M00 Q1025 BECMG 3500
ZGHA,2012-01-26 02:00,ZGHA 260200Z VRB01MPS 3000 BR NSC 02/00 Q1025 NOSIG
ZGHA,2012-01-26 03:00,ZGHA 260300Z VRB01MPS 3700 BR NSC 03/00 Q1025 NOSIG
ZGHA,2012-01-26 04:00,ZGHA 260400Z 15002MPS 090V210 5000 HZ NSC 05/M01 Q1024 NOSIG
ZGHA,2012-01-26 05:00,ZGHA 260500Z 16002MPS 100V230 6000 NSC 06/M04 Q1022 NOSIG
ZGHA,2012-01-26 06:00,ZGHA 260600Z 17002MPS 130V250 7000 NSC 06/M02 Q1021 NOSIG
ZGHA,2012-01-26 07:00,ZGHA 260700Z 18003MPS 130V210 7000 NSC 05/M02 Q1021 NOSIG
ZGHA,2012-01-26 08:00,ZGHA 260800Z 21004MPS 6000 NSC 05/M01 Q1021 NOSIG
ZGHA,2012-01-26 09:00,ZGHA 260900Z 22004MPS 5000 HZ NSC 04/M01 Q1021 NOSIG
ZGHA,2012-01-26 10:00,ZGHA 261000Z 21003MPS 4000 BR FEW033 OVC050 04/M01 Q1021 NOSIG
ZGHA,2012-01-26 11:00,ZGHA 261100Z 19003MPS 4000 -RA BR SCT033 OVC050 04/M00 Q1022 NOSIG
ZGHA,2012-01-26 12:00,ZGHA 261200Z 17002MPS 4000 -RA BR SCT033 OVC050 03/M00 Q1022 NOSIG
ZGHA,2012-01-26 13:00,ZGHA 261300Z 16002MPS 130V190 3500 BR SCT033 OVC050 03/00 Q1022 NOSIG
ZGHA,2012-01-26 14:00,ZGHA 261400Z 18002MPS 140V210 3500 BR SCT033 OVC050 03/00 Q1022 NOSIG
ZGHA,2012-01-26 15:00,ZGHA 261500Z 23002MPS 200V260 3000 BR SCT033 OVC050 03/01 Q1023 NOSIG
ZGHA,2012-01-26 16:00,ZGHA 261600Z VRB01MPS 3000 BR SCT033 OVC050 03/01 Q1022 NOSIG
ZGHA,2012-01-26 17:00,ZGHA 261700Z VRB01MPS 2700 BR SCT033 OVC050 03/01 Q1022 NOSIG
ZGHA,2012-01-26 18:00,ZGHA 261800Z AUTO 10001MPS 2000 BR OVC031 /// 03/01 Q1022
ZGHA,2012-01-26 19:00,ZGHA 261900Z AUTO VRB01MPS 2100 BR OVC029 /// 03/01 Q1022
ZGHA,2012-01-26 20:00,ZGHA 262000Z AUTO 00000MPS 2100 BR OVC028 /// 03/01 Q1021
ZGHA,2012-01-26 21:00,ZGHA 262100Z 18001MPS 2500 BR SCT020 OVC050 03/01 Q1021 NOSIG
ZGHA,2012-01-26 22:00,ZGHA 262200Z 00000MPS 2700 BR SCT020 OVC050 03/01 Q1021 NOSIG
ZGHA,2012-01-26 23:00,ZGHA 262300Z VRB01MPS 2300 BR SCT020 OVC050 03/01 Q1021 NOSIG
ZGHA,2012-01-27 00:00,ZGHA 270000Z 00000MPS 2500 BR SCT020 OVC050 03/01 Q1021 NOSIG
ZGHA,2012-01-27 01:00,ZGHA 270100Z 00000MPS 2800 BR SCT026 OVC050 03/01 Q1021 BECMG 3100
ZGHA,2012-01-27 02:00,ZGHA 270200Z VRB01MPS 2800 BR SCT030 OVC050 04/01 Q1022
ZGHA,2012-01-27 03:00,ZGHA 270300Z VRB01MPS 2800 BR OVC033 04/02 Q1021 NOSIG
ZGHA,2012-01-27 04:00,ZGHA 270400Z VRB01MPS 2800 -RA BR BKN016 OVC033 04/01 Q1021 NOSIG
ZGHA,2012-01-27 05:00,ZGHA 270500Z 01002MPS 2800 BR BKN009 OVC033 04/02 Q1020 NOSIG
ZGHA,2012-01-27 06:00,ZGHA 270600Z 35002MPS 320V020 1800 R36/1400N -DZ BR BKN007 OVC033 04/02 Q1019 NOSIG
ZGHA,2012-01-27 07:00,ZGHA 270700Z 01002MPS 1600 R36/1200V1400N -RA BR BKN005 OVC033 03/03 Q1018 NOSIG
ZGHA,2012-01-27 08:00,ZGHA 270800Z 01002MPS 1100 R36/1000V1200N -RA BR BKN003 OVC033 03/03 Q1019 NOSIG
ZGHA,2012-01-27 09:00,ZGHA 270900Z 01002MPS 0900 R36/1100V1400N -RA FG BKN003 OVC033 03/03 Q1019 NOSIG
ZGHA,2012-01-27 10:00,ZGHA 271000Z 36002MPS 330V030 0900 R36/1700N DZ FG BKN003 OVC033 03/03 Q1019 NOSIG
ZGHA,2012-01-27 11:00,ZGHA 271100Z 35003MPS 1000 R36/P2000 -DZ BR BKN003 OVC033 03/03 Q1020 REDZ NOSIG
ZGHA,2012-01-27 12:00,ZGHA 271200Z 35004MPS 1000 R36/P2000 -RA BR BKN003 OVC033 04/03 Q1021 NOSIG
ZGHA,2012-01-27 13:00,ZGHA 271300Z 35003MPS 1000 R36/P2000 -DZ BR BKN003 OVC033 04/03 Q1021 NOSIG
ZGHA,2012-01-27 14:00,ZGHA 271400Z 35003MPS 1300 R36/P2000 -DZ BR BKN006 OVC033 04/03 Q1022 NOSIG
ZGHA,2012-01-27 15:00,ZGHA 271500Z 33002MPS 290V360 1300 R36/P2000 -DZ BR BKN006 OVC033 04/03 Q1022 NOSIG
ZGHA,2012-01-27 16:00,ZGHA 271600Z 31002MPS 270V350 1100 R36/P2000 -RA BR BKN006 OVC033 04/03 Q1022 NOSIG
ZGHA,2012-01-27 17:00,ZGHA 271700Z 29001MPS 1100 R36/P2000 BR BKN006 OVC033 04/03 Q1022 NOSIG
ZGHA,2012-01-27 18:00,ZGHA 271800Z VRB01MPS 1000 R36/1900N BR BKN006 OVC033 04/03 Q1022 NOSIG
ZGHA,2012-01-27 19:00,ZGHA 271900Z AUTO 30001MPS 0900 R36/1700D FG FEW006 /// BKN018/// 04/03 Q1022
ZGHA,2012-01-27 20:00,ZGHA 272000Z AUTO 32002MPS 0800 R36/1600N FG OVC020 /// 04/03 Q1022
ZGHA,2012-01-27 21:00,ZGHA 272100Z 32002MPS 1000 R36/1600N BR BKN008 OVC033 04/03 Q1022 NOSIG
ZGHA,2012-01-27 22:00,ZGHA 272200Z 34002MPS 1000 R36/1600N BR BKN008 OVC033 04/03 Q1022 NOSIG
ZGHA,2012-01-27 23:00,ZGHA 272300Z 33002MPS 1000 R36/P2000 BR BKN008 OVC033 04/03 Q1023 NOSIG
ZGHA,2012-01-28 00:00,ZGHA 280000Z 32003MPS 1000 R36/1700N BR FEW005 BKN008 OVC033 04/03 Q1024 NOSIG
ZGHA,2012-01-28 01:00,ZGHA 280100Z 31002MPS 290V350 1200 R36/1500N BR BKN008 OVC033 04/03 Q1024 NOSIG
ZGHA,2012-01-28 02:00,ZGHA 280200Z 31003MPS 1600 BR BKN008 OVC040 05/03 Q1025 NOSIG
ZGHA,2012-01-28 03:00,ZGHA 280300Z 31002MPS 1600 BR SCT012 BKN020 OVC050 05/03 Q1025 NOSIG
ZGHA,2012-01-28 04:00,ZGHA 280400Z 33004MPS 290V360 2500 BR SCT012 BKN020 05/03 Q1024 NOSIG
ZGHA,2012-01-28 05:00,ZGHA 280500Z 34004MPS 2500 BR SCT012 BKN020 05/03 Q1024 NOSIG
ZGHA,2012-01-28 06:00,ZGHA 280600Z 30004MPS 270V330 1600 R36/1400N BR SCT012 BKN020 OVC050 05/03 Q1023 NOSIG
ZGHA,2012-01-28 07:00,ZGHA 280700Z 30003MPS 280V340 2000 BR SCT012 BKN020 OVC050 05/03 Q1023 NOSIG
ZGHA,2012-01-28 08:00,ZGHA 280800Z 30002MPS 270V340 2500 BR SCT012 BKN020 OVC050 05/02 Q1022 NOSIG
ZGHA,2012-01-28 09:00,ZGHA 280900Z 30002MPS 270V340 3000 BR SCT020 OVC050 05/02 Q1022 NOSIG
ZGHA,2012-01-28 10:00,ZGHA 281000Z 30002MPS 260V340 3000 BR SCT020 OVC050 05/02 Q1022 NOSIG
ZGHA,2012-01-28 11:00,ZGHA 281100Z 29002MPS 2500 BR SCT020 OVC050 05/02 Q1023 NOSIG
ZGHA,2012-01-28 12:00,ZGHA 281200Z 30002MPS 260V340 2600 BR NSC 05/02 Q1023 NOSIG
ZGHA,2012-01-28 13:00,ZGHA 281300Z 32002MPS 300V360 2600 BR NSC 05/02 Q1024 NOSIG
ZGHA,2012-01-28 14:00,ZGHA 281400Z 35002MPS 2600 BR NSC 05/02 Q1024 NOSIG
ZGHA,2012-01-28 15:00,ZGHA 281500Z 01001MPS 2600 BR NSC 05/02 Q1024 NOSIG
ZGHA,2012-01-28 16:00,ZGHA 281600Z 36002MPS 2000 BR NSC 04/02 Q1025 NOSIG
ZGHA,2012-01-28 17:00,ZGHA 281700Z 01002MPS 2000 BR NSC 04/01 Q1025 NOSIG
ZGHA,2012-01-28 18:00,ZGHA 281800Z 35003MPS 2000 BR NSC 02/00 Q1024 NOSIG
ZGHA,2012-01-28 19:00,ZGHA 281900Z 31001MPS 2000 BR NSC 03/01 Q1025 NOSIG
ZGHA,2012-01-28 20:00,ZGHA 282000Z 32001MPS 2000 BR NSC 03/01 Q1025 NOSIG
ZGHA,2012-01-28 21:00,ZGHA 282100Z 34003MPS 2000 BR NSC 03/01 Q1025 NOSIG
ZGHA,2012-01-28 22:00,ZGHA 282200Z 01001MPS 2000 BR NSC 02/01 Q1025 NOSIG
ZGHA,2012-01-28 23:00,ZGHA 282300Z VRB01MPS 1800 BR BKN050 02/01 Q1026 NOSIG
ZGHA,2012-01-29 00:00,ZGHA 290000Z 36001MPS 1400 R36/1300V1400N BR OVC050 02/01 Q1027 NOSIG
ZGHA,2012-01-29 01:00,ZGHA 290100Z 03002MPS 340V080 1700 BR SCT010 03/02 Q1027 NOSIG
ZGHA,2012-01-29 02:00,ZGHA 290200Z 36003MPS 2500 BR NSC 04/02 Q1027 NOSIG
ZGHA,2012-01-29 03:00,ZGHA 290300Z 36004MPS 330V030 2800 BR NSC 07/02 Q1027 NOSIG
ZGHA,2012-01-29 04:00,ZGHA 290400Z VRB02MPS 3000 HZ NSC 08/02 Q1026 NOSIG
ZGHA,2012-01-29 05:00,ZGHA 290500Z VRB02MPS 5000 HZ FEW033 09/00 Q1025 NOSIG
ZGHA,2012-01-29 06:00,ZGHA 290600Z 28002MPS 230V340 6000 FEW033 09/01 Q1024 NOSIG
ZGHA,2012-01-29 07:00,ZGHA 290700Z 31005MPS 6000 FEW033 09/02 Q1024 NOSIG
ZGHA,2012-01-29 08:00,ZGHA 290800Z 30005MPS 5000 HZ FEW033 08/02 Q1024 NOSIG
ZGHA,2012-01-29 09:00,ZGHA 290900Z 30004MPS 5000 BR SCT033 08/03 Q1024 NOSIG
ZGHA,2012-01-29 10:00,ZGHA 291000Z 34005MPS 2500 BR SCT033 07/03 Q1025 NOSIG
ZGHA,2012-01-29 11:00,ZGHA 291100Z 32003MPS 290V350 2500 BR SCT033 06/03 Q1025 NOSIG
ZGHA,2012-01-29 12:00,ZGHA 291200Z 31003MPS 2100 BR SCT033 05/03 Q1026 NOSIG
ZGHA,2012-01-29 13:00,ZGHA 291300Z 34004MPS 2400 BR SCT033 05/03 Q1027 NOSIG
ZGHA,2012-01-29 14:00,ZGHA 291400Z 34004MPS 2300 BR SCT033 05/03 Q1027 NOSIG
ZGHA,2012-01-29 15:00,ZGHA 291500Z 35004MPS 2300 BR SCT033 05/03 Q1028 NOSIG
ZGHA,2012-01-29 16:00,ZGHA 291600Z 34003MPS 310V010 2300 BR SCT033 05/03 Q1028 NOSIG
ZGHA,2012-01-29 17:00,ZGHA 291700Z 34004MPS 2000 BR SCT033 05/04 Q1028 NOSIG
ZGHA,2012-01-29 18:00,ZGHA 291800Z 36004MPS 1600 BR BKN020 OVC050 05/03 Q1028 NOSIG
ZGHA,2012-01-29 19:00,ZGHA 291900Z 35005MPS 1400 R36/P2000 BR BKN020 OVC050 05/04 Q1028 NOSIG
ZGHA,2012-01-29 20:00,ZGHA 292000Z 34004MPS 1400 R36/P2000 BR BKN020 OVC050 05/03 Q1028 NOSIG
ZGHA,2012-01-29 21:00,ZGHA 292100Z 33004MPS 1600 BR BKN020 OVC040 05/03 Q1027 NOSIG
ZGHA,2012-01-29 22:00,ZGHA 292200Z 33005MPS 1800 BR BKN020 OVC050 05/03 Q1028 NOSIG
ZGHA,2012-01-29 23:00,ZGHA 292300Z 33005MPS 2500 BR BKN020 OVC050 05/03 Q1028 NOSIG
ZGHA,2012-01-30 00:00,ZGHA 300000Z 32004MPS 1600 BR SCT012 BKN020 OVC040 05/03 Q1029 NOSIG
ZGHA,2012-01-30 01:00,ZGHA 300100Z 32005MPS 1600 BR SCT006 BKN020 OVC040 04/03 Q1030 BECMG 3000
ZGHA,2012-01-30 02:00,ZGHA 300200Z 34004MPS 1600 -DZ BR SCT006 BKN020 OVC040 05/03 Q1030 TEMPO 1400
ZGHA,2012-01-30 03:00,ZGHA 300300Z 33004MPS 2200 -DZ BR BKN006 OVC040 05/03 Q1031 BECMG 3000
ZGHA,2012-01-30 04:00,ZGHA 300400Z 36005MPS 3500 -DZ BR BKN009 OVC050 05/03 Q1030 NOSIG
ZGHA,2012-01-30 05:00,ZGHA 300500Z 34004MPS 300V360 4000 BR BKN009 OVC050 05/03 Q1029 NOSIG
ZGHA,2012-01-30 06:00,ZGHA 300600Z 34003MPS 310V010 5000 BR BKN011 OVC050 06/02 Q1028 NOSIG
ZGHA,2012-01-30 07:00,ZGHA 300700Z 33002MPS 280V010 5000 BR BKN011 OVC050 06/02 Q1028 NOSIG
ZGHA,2012-01-30 08:00,ZGHA 300800Z 34002MPS 290V020 5000 BR BKN014 OVC050 06/03 Q1028 NOSIG
ZGHA,2012-01-30 09:00,ZGHA 300900Z 32004MPS 4000 BR BKN014 OVC050 06/02 Q1028 NOSIG
ZGHA,2012-01-30 10:00,ZGHA 301000Z 33003MPS 290V350 4000 BR BKN014 OVC050 06/02 Q1028 NOSIG
ZGHA,2012-01-30 11:00,ZGHA 301100Z 31004MPS 4000 BR SCT014 BKN050 05/02 Q1028 NOSIG
ZGHA,2012-01-30 12:00,ZGHA 301200Z 33003MPS 4000 BR SCT050 05/02 Q1029 NOSIG
ZGHA,2012-01-30 13:00,ZGHA 301300Z VRB01MPS 2500 BR SCT050 04/02 Q1030 NOSIG
ZGHA,2012-01-30 14:00,ZGHA 301400Z 01002MPS 330V060 3000 BR SCT050 04/02 Q1030 NOSIG
ZGHA,2012-01-30 15:00,ZGHA 301500Z 35002MPS 3000 BR NSC 03/01 Q1030 NOSIG
ZGHA,2012-01-30 16:00,ZGHA 301600Z 33002MPS 300V010 2500 BR NSC 02/01 Q1029 NOSIG
ZGHA,2012-01-30 17:00,ZGHA 301700Z 00000MPS 1800 BR NSC 00/M00 Q1029 NOSIG
ZGHA,2012-01-30 18:00,ZGHA 301800Z VRB01MPS 1400 R36/1700D BR NSC M00/M01 Q1029 NOSIG
ZGHA,2012-01-30 19:00,ZGHA 301900Z 00000MPS 1200 R36/1600U BR NSC M01/M01 Q1028 NOSIG
ZGHA,2012-01-30 20:00,ZGHA 302000Z VRB01MPS 1100 R36/1700N BR NSC M01/M01 Q1028 NOSIG
ZGHA,2012-01-30 21:00,ZGHA 302100Z 12001MPS 0700 R36/0250D FZFG SCT007 M01/M01 Q1028 NOSIG
ZGHA,2012-01-30 22:00,ZGHA 302200Z VRB01MPS 0100 R36/0125N FZFG VV006 M01/M02 Q1028 NOSIG
ZGHA,2012-01-30 23:00,ZGHA 302300Z VRB01MPS 0100 R36/0175V0225N FZFG VV006 M01/M02 Q1028 NOSIG
ZGHA,2012-01-31 00:00,ZGHA 310000Z VRB01MPS 0100 R36/0150N FZFG VV007 M01/M01 Q1028 NOSIG
ZGHA,2012-01-31 01:00,ZGHA 310100Z VRB01MPS 0100 R36/0125N FZFG VV007 M00/M01 Q1028 BECMG FM0250 0600 FG
ZGHA,2012-01-31 02:00,ZGHA 310200Z VRB01MPS 0200 R36/0150N FG VV007 01/01 Q1028 BECMG FM0250 0600 FG
ZGHA,2012-01-31 03:00,ZGHA 310300Z 18002MPS 140V210 0600 R36/0600V0800N FG VV010 03/03 Q1027 BECMG 1000 BR
ZGHA,2012-01-31 04:00,ZGHA 310400Z 20002MPS 150V260 1800 BR SCT007 05/04 Q1026 BECMG 3000
ZGHA,2012-01-31 05:00,ZGHA 310500Z 21003MPS 170V280 4000 HZ NSC 08/02 Q1025 NOSIG
ZGHA,2012-01-31 06:00,ZGHA 310600Z 21005MPS 180V240 7000 SKC 10/01 Q1023 NOSIG
ZGHA,2012-01-31 07:00,ZGHA 310700Z 19004MPS 130V230 CAVOK 10/M00 Q1022 NOSIG
ZGHA,2012-01-31 08:00,ZGHA 310800Z 20004MPS 160V240 CAVOK 11/M00 Q1022 NOSIG
ZGHA,2012-01-31 09:00,ZGHA 310900Z 20004MPS CAVOK 11/00 Q1021 NOSIG
ZGHA,2012-01-31 10:00,ZGHA 311000Z 18002MPS CAVOK 09/01 Q1021 NOSIG
ZGHA,2012-01-31 11:00,ZGHA 311100Z 13001MPS 6000 SKC 06/03 Q1021 NOSIG
ZGHA,2012-01-31 12:00,ZGHA 311200Z 11002MPS 5000 BR SKC 05/03 Q1021 BECMG 3000
ZGHA,2012-01-31 13:00,ZGHA 311300Z VRB01MPS 4000 BR SKC 04/02 Q1022 BECMG 3000
ZGHA,2012-01-31 14:00,ZGHA 311400Z 15002MPS 3000 BR SKC 03/01 Q1022 BECMG 2500
ZGHA,2012-01-31 15:00,ZGHA 311500Z VRB01MPS 3000 BR SKC 03/02 Q1022 BECMG 2500
ZGHA,2012-01-31 16:00,ZGHA 311600Z 18002MPS 2000 BR SKC 02/01 Q1022 BECMG 1400
ZGHA,2012-01-31 17:00,ZGHA 311700Z 00000MPS 2000 BR SKC 01/01 Q1022 NOSIG
ZGHA,2012-01-31 18:00,ZGHA 311800Z 00000MPS 2000 BR SKC 01/00 Q1021 NOSIG
ZGHA,2012-01-31 19:00,ZGHA 311900Z 00000MPS 1700 BR SKC 01/00 Q1021 NOSIG
ZGHA,2012-01-31 20:00,ZGHA 312000Z 01001MPS 1400 R18/1800N BR SKC 01/01 Q1021 NOSIG
ZGHA,2012-01-31 21:00,ZGHA 312100Z 33001MPS 1400 R18/1100N BR SKC 00/M00 Q1021 NOSIG
ZGHA,2012-01-31 22:00,ZGHA 312200Z 02001MPS 1400 R18/P2000 BR SKC M00/M01 Q1022 NOSIG
ZGHA,2012-01-31 23:00,ZGHA 312300Z 03001MPS 1700 BR SKC 00/M00 Q1023 BECMG 3000
ZGHA,2012-02-01 00:00,ZGHA 010000Z VRB01MPS 3000 BR SKC 01/00 Q1023 BECMG 4000
ZGHA,2012-02-01 01:00,ZGHA 010100Z 04002MPS 360V090 5000 BR SKC 04/03 Q1024 NOSIG
ZGHA,2012-02-01 02:00,ZGHA 010200Z 07003MPS 020V100 7000 SKC 07/04 Q1024 NOSIG
ZGHA,2012-02-01 03:00,ZGHA 010300Z VRB01MPS CAVOK 10/03 Q1024 NOSIG
ZGHA,2012-02-01 04:00,ZGHA 010400Z VRB01MPS CAVOK 11/03 Q1023 NOSIG
ZGHA,2012-02-01 05:00,ZGHA 010500Z 01002MPS 320V110 CAVOK 13/03 Q1022 NOSIG
ZGHA,2012-02-01 06:00,ZGHA 010600Z 34003MPS 280V050 CAVOK 13/03 Q1021 NOSIG
ZGHA,2012-02-01 07:00,ZGHA 010700Z 31005MPS CAVOK 12/04 Q1021 NOSIG
ZGHA,2012-02-01 08:00,ZGHA 010800Z 30004MPS 8000 NSC 12/04 Q1021 NOSIG
ZGHA,2012-02-01 09:00,ZGHA 010900Z 31005MPS 8000 NSC 11/03 Q1021 NOSIG
ZGHA,2012-02-01 10:00,ZGHA 011000Z 33005MPS 7000 NSC 11/04 Q1022 NOSIG
ZGHA,2012-02-01 11:00,ZGHA 011100Z 34005MPS 5000 HZ NSC 10/04 Q1023 NOSIG
ZGHA,2012-02-01 12:00,ZGHA 011200Z 34007MPS 4000 BR OVC050 08/04 Q1024 NOSIG
ZGHA,2012-02-01 13:00,ZGHA 011300Z 34007MPS 3000 BR OVC050 07/04 Q1025 NOSIG
ZGHA,2012-02-01 14:00,ZGHA 011400Z 34007MPS 2700 BR OVC050 07/03 Q1026 NOSIG
ZGHA,2012-02-01 15:00,ZGHA 011500Z 34006MPS 2300 -RA BR SCT011 OVC050 06/03 Q1027 NOSIG
ZGHA,2012-02-01 16:00,ZGHA 011600Z 34005MPS 1800 -RA BR SCT011 OVC050 05/03 Q1028 NOSIG
ZGHA,2012-02-01 17:00,ZGHA 011700Z 33007MPS 1800 BR SCT011 OVC050 05/02 Q1029 NOSIG
ZGHA,2012-02-01 18:00,ZGHA 011800Z 35006MPS 1700 BR SCT007 OVC050 04/03 Q1028 NOSIG
ZGHA,2012-02-01 19:00,ZGHA 011900Z 35004MPS 320V020 1700 BR SCT007 OVC050 04/02 Q1028 NOSIG
ZGHA,2012-02-01 20:00,ZGHA 012000Z 34006MPS 2200 -RA BR SCT007 OVC050 03/02 Q1029 NOSIG
ZGHA,2012-02-01 21:00,ZGHA 012100Z 34006MPS 2500 -RA BR SCT007 OVC050 03/02 Q1029 NOSIG
ZGHA,2012-02-01 22:00,ZGHA 012200Z 35006MPS 2300 BR SCT007 OVC050 03/02 Q1029 NOSIG
ZGHA,2012-02-01 23:00,ZGHA 012300Z 35005MPS 2300 BR SCT007 OVC050 03/01 Q1030 NOSIG
ZGHA,2012-02-02 00:00,ZGHA 020000Z 35005MPS 1800 -RA BR SCT007 OVC050 02/01 Q1031 NOSIG
ZGHA,2012-02-02 01:00,ZGHA 020100Z 34005MPS 1800 -RA BR SCT007 OVC050 02/01 Q1032 NOSIG
ZGHA,2012-02-02 02:00,ZGHA 020200Z 34004MPS 2100 -RA BR SCT007 OVC050 02/01 Q1032 BECMG 3000
ZGHA,2012-02-02 03:00,ZGHA 020300Z 34004MPS 300V360 3500 -DZ BR SCT009 OVC050 03/01 Q1033 NOSIG
ZGHA,2012-02-02 04:00,ZGHA 020400Z 34005MPS 4000 -DZ BR SCT009 OVC050 03/01 Q1032 NOSIG
ZGHA,2012-02-02 05:00,ZGHA 020500Z 34006MPS 4500 -DZ BR SCT009 OVC050 03/00 Q1031 NOSIG
ZGHA,2012-02-02 06:00,ZGHA 020600Z 34005MPS 4500 -DZ BR SCT009 OVC050 03/01 Q1030 NOSIG
ZGHA,2012-02-02 07:00,ZGHA 020700Z 33005MPS 2500 -DZ BR BKN009 OVC040 03/01 Q1030 TEMPO 3000
ZGHA,2012-02-02 08:00,ZGHA 020800Z 34005MPS 2700 -DZ BR BKN009 OVC040 02/01 Q1030 NOSIG
ZGHA,2012-02-02 09:00,ZGHA 020900Z 31004MPS 2300 -DZ BR BKN009 OVC040 02/01 Q1030 NOSIG
ZGHA,2012-02-02 10:00,ZGHA 021000Z 33004MPS 290V350 2700 -DZ BR BKN009 OVC040 02/01 Q1030 NOSIG
ZGHA,2012-02-02 11:00,ZGHA 021100Z 34004MPS 300V010 3000 BR BKN009 OVC040 03/01 Q1030 NOSIG
ZGHA,2012-02-02 12:00,ZGHA 021200Z 34004MPS 3000 BR BKN009 OVC040 03/00 Q1031 NOSIG
ZGHA,2012-02-02 13:00,ZGHA 021300Z 34003MPS 4000 BR BKN009 OVC040 03/00 Q1032 NOSIG
ZGHA,2012-02-02 14:00,ZGHA 021400Z 32003MPS 4000 BR SCT011 OVC050 03/00 Q1032 NOSIG
ZGHA,2012-02-02 15:00,ZGHA 021500Z 31003MPS 280V340 3500 -RASN BR BKN009 OVC050 03/00 Q1032 NOSIG
ZGHA,2012-02-02 16:00,ZGHA 021600Z 30002MPS 270V340 3500 -RASN BR BKN009 OVC050 02/00 Q1032 NOSIG
ZGHA,2012-02-02 17:00,ZGHA 021700Z 30002MPS 260V340 3500 -RASN BR BKN009 OVC050 02/00 Q1031 NOSIG
ZGHA,2012-02-02 18:00,ZGHA 021800Z 32002MPS 4000 BR BKN009 OVC050 02/00 Q1031 NOSIG
ZGHA,2012-02-02 19:00,ZGHA 021900Z 32004MPS 4000 -RA BR BKN009 OVC050 02/M01 Q1031 NOSIG
ZGHA,2012-02-02 20:00,ZGHA 022000Z AUTO 32003MPS 2400 -RASN BR OVC037 /// 01/M00 Q1031
ZGHA,2012-02-02 21:00,ZGHA 022100Z 28002MPS 3000 -RASN BR BKN007 OVC050 01/M00 Q1030 NOSIG
ZGHA,2012-02-02 22:00,ZGHA 022200Z 25002MPS 3000 BR BKN007 OVC050 01/00 Q1030 NOSIG
ZGHA,2012-02-02 23:00,ZGHA 022300Z VRB01MPS 3000 BR SCT010 OVC050 01/M00 Q1030 TEMPO BKN009 OVC050
ZGHA,2012-02-03 00:00,ZGHA 030000Z VRB01MPS 3500 BR SCT023 OVC050 01/M00 Q1030 NOSIG
ZGHA,2012-02-03 01:00,ZGHA 030100Z VRB01MPS 3500 BR SCT030 OVC050 02/M01 Q1031 NOSIG
ZGHA,2012-02-03 02:00,ZGHA 030200Z VRB01MPS 4000 BR SCT030 OVC050 02/M00 Q1031 NOSIG
ZGHA,2012-02-03 03:00,ZGHA 030300Z 00000MPS 4700 BR SCT030 OVC050 04/M00 Q1031 NOSIG
ZGHA,2012-02-03 04:00,ZGHA 030400Z VRB01MPS 5000 HZ FEW030 BKN050 05/M00 Q1029 NOSIG
ZGHA,2012-02-03 05:00,ZGHA 030500Z 20002MPS 150V280 5000 HZ SCT020 06/01 Q1028 NOSIG
ZGHA,2012-02-03 06:00,ZGHA 030600Z 20004MPS 160V220 6000 SCT020 07/01 Q1026 NOSIG
ZGHA,2012-02-03 07:00,ZGHA 030700Z 17004MPS 120V200 6000 SCT020 07/01 Q1025 NOSIG
ZGHA,2012-02-03 08:00,ZGHA 030800Z 17003MPS 130V210 6000 FEW023 07/02 Q1024 NOSIG
ZGHA,2012-02-03 09:00,ZGHA 030900Z 17004MPS 110V200 6000 FEW023 06/01 Q1023 NOSIG
ZGHA,2012-02-03 10:00,ZGHA 031000Z 17004MPS 140V200 5000 BR FEW020 05/01 Q1023 NOSIG
ZGHA,2012-02-03 11:00,ZGHA 031100Z 19005MPS 5000 BR SCT020 04/02 Q1023 NOSIG
ZGHA,2012-02-03 12:00,ZGHA 031200Z 21004MPS 4500 BR NSC 03/01 Q1024 NOSIG
ZGHA,2012-02-03 13:00,ZGHA 031300Z 15001MPS 4000 BR NSC 03/01 Q1023 BECMG 2500
ZGHA,2012-02-03 14:00,ZGHA 031400Z 20002MPS 3500 BR NSC 02/01 Q1024 BECMG 2500
ZGHA,2012-02-03 15:00,ZGHA 031500Z 18003MPS 3200 BR NSC 01/00 Q1024 BECMG 1700
ZGHA,2012-02-03 16:00,ZGHA 031600Z 18002MPS 2700 BR FEW033 01/00 Q1023 NOSIG
ZGHA,2012-02-03 17:00,ZGHA 031700Z VRB01MPS 3000 BR NSC 02/01 Q1024 NOSIG
ZGHA,2012-02-03 18:00,ZGHA 031800Z 09002MPS 2700 BR FEW050 03/02 Q1023 NOSIG
ZGHA,2012-02-03 19:00,ZGHA 031900Z AUTO VRB01MPS 2400 BR BKN051 /// OVC100/// 03/02 Q1022
ZGHA,2012-02-03 21:00,ZGHA 032100Z VRB01MPS 3500 BR OVC050 03/02 Q1020 NOSIG
ZGHA,2012-02-03 22:00,ZGHA 032200Z VRB01MPS 3500 BR OVC050 03/02 Q1020 NOSIG
ZGHA,2012-02-03 23:00,ZGHA 032300Z 31001MPS 3200 -RA BR OVC040 04/02 Q1021 TEMPO 2500
ZGHA,2012-02-04 00:00,ZGHA 040000Z VRB01MPS 1800 -RA BR SCT011 OVC040 03/02 Q1021 BECMG 3500
ZGHA,2012-02-04 01:00,ZGHA 040100Z VRB01MPS 1600 BR SCT005 OVC040 04/03 Q1022 NOSIG
ZGHA,2012-02-04 02:00,ZGHA 040200Z 18002MPS 1200 R36/1100V1200N -RA BR SCT005 OVC040 04/03 Q1022 NOSIG
ZGHA,2012-02-04 03:00,ZGHA 040300Z 19003MPS 170V230 1600 R36/1400N BR SCT005 OVC040 04/03 Q1022 NOSIG
ZGHA,2012-02-04 04:00,ZGHA 040400Z 21002MPS 1600 -RA BR SCT005 OVC040 05/04 Q1022 TEMPO 1400 BKN005 OVC040
ZGHA,2012-02-04 05:00,ZGHA 040500Z VRB01MPS 1400 R36/1400N -RA BR BKN005 OVC040 05/04 Q1021 NOSIG
ZGHA,2012-02-04 06:00,ZGHA 040600Z VRB01MPS 1400 R36/1500U -RA BR BKN005 OVC040 05/04 Q1020 NOSIG
ZGHA,2012-02-04 07:00,ZGHA 040700Z 02001MPS 2000 BR BKN006 OVC040 05/04 Q1020 NOSIG
ZGHA,2012-02-04 08:00,ZGHA 040800Z VRB01MPS 1600 -DZ BR FEW003 BKN006 OVC040 05/04 Q1020 NOSIG
ZGHA,2012-02-04 09:00,ZGHA 040900Z VRB01MPS 1800 BR BKN006 OVC040 05/04 Q1020 NOSIG
ZGHA,2012-02-04 10:00,ZGHA 041000Z 02001MPS 1600 -DZ BR BKN005 OVC040 05/05 Q1020 NOSIG
ZGHA,2012-02-04 11:00,ZGHA 041100Z 02001MPS 1600 BR BKN005 OVC040 05/05 Q1021 NOSIG
ZGHA,2012-02-04 12:00,ZGHA 041200Z 01002MPS 1600 BR BKN006 OVC040 05/05 Q1021 NOSIG
ZGHA,2012-02-04 13:00,ZGHA 041300Z 01002MPS 1600 BR BKN008 OVC050 05/05 Q1022 NOSIG
ZGHA,2012-02-04 14:00,ZGHA 041400Z 01002MPS 1800 BR BKN007 OVC050 05/05 Q1022 NOSIG
ZGHA,2012-02-04 15:00,ZGHA 041500Z 36003MPS 2000 BR BKN006 OVC040 06/05 Q1022 NOSIG
ZGHA,2012-02-04 16:00,ZGHA 041600Z 01002MPS 2000 BR FEW007 BKN020 OVC040 05/05 Q1022 NOSIG
ZGHA,2012-02-04 17:00,ZGHA 041700Z 35002MPS 2000 BR OVC050 05/05 Q1022 NOSIG
ZGHA,2012-02-04 18:00,ZGHA 041800Z 36002MPS 2000 BR OVC033 06/05 Q1022 NOSIG
ZGHA,2012-02-04 19:00,ZGHA 041900Z AUTO VRB01MPS 1400 R36/P2000 BR BKN024 /// 05/05 Q1021
ZGHA,2012-02-04 21:00,ZGHA 042100Z 34002MPS 310V010 2000 BR BKN004 OVC033 05/05 Q1021 NOSIG
ZGHA,2012-02-04 22:00,ZGHA 042200Z 01002MPS 3000 BR BKN004 OVC033 05/04 Q1020 NOSIG
ZGHA,2012-02-04 23:00,ZGHA 042300Z 01002MPS 3000 BR SCT005 OVC033 05/04 Q1020 NOSIG
ZGHA,2012-02-05 00:00,ZGHA 050000Z 01002MPS 1800 BR SCT007 OVC033 05/04 Q1021 BECMG 3300
ZGHA,2012-02-05 01:00,ZGHA 050100Z VRB01MPS 1800 BR SCT007 OVC033 06/05 Q1021 BECMG 3000
ZGHA,2012-02-05 02:00,ZGHA 050200Z VRB01MPS 2000 BR SCT007 OVC050 06/05 Q1020 BECMG 3000
ZGHA,2012-02-05 03:00,ZGHA 050300Z VRB01MPS 4000 BR FEW009 BKN020 07/05 Q1020 NOSIG
ZGHA,2012-02-05 04:00,ZGHA 050400Z 33002MPS 290V020 4500 BR FEW009 BKN020 08/05 Q1018 NOSIG
ZGHA,2012-02-05 05:00,ZGHA 050500Z 31003MPS 3500 BR SCT009 BKN020 07/05 Q1017 BECMG 3000
ZGHA,2012-02-05 06:00,ZGHA 050600Z 32004MPS 2700 BR SCT009 BKN020 07/05 Q1016 BECMG 1700 -RA BR BKN007 OVC040
ZGHA,2012-02-05 07:00,ZGHA 050700Z 33003MPS 280V050 1200 R36/1200D -TSRA BR BKN007 FEW040CB BKN040 06/05 Q1015 BECMG 1700
ZGHA,2012-02-05 08:00,ZGHA 050800Z 32002MPS 280V010 0900 R36/0900V1400D -RA FG BKN007 OVC040 06/05 Q1014 RETS BECMG 1600 BR
ZGHA,2012-02-05 09:00,ZGHA 050900Z 32004MPS 0900 R36/1400N FG BKN007 OVC040 05/05 Q1014 NOSIG
ZGHA,2012-02-05 10:00,ZGHA 051000Z 30003MPS 0700 R36/1500N -RA FG FEW003 BKN007 OVC040 05/05 Q1014 NOSIG
ZGHA,2012-02-05 11:00,ZGHA 051100Z 31004MPS 280V340 0700 R36/1700D -RA FG FEW003 BKN007 OVC040 05/04 Q1014 NOSIG
ZGHA,2012-02-05 12:00,ZGHA 051200Z 32003MPS 0700 R36/1600N -RA FG FEW003 BKN007 OVC040 05/05 Q1015 TEMPO SHRA BKN005 FEW033CB BKN050
ZGHA,2012-02-05 13:00,ZGHA 051300Z 32003MPS 0900 R36/P2000 -RA FG SCT003 BKN007 OVC033 05/05 Q1015 NOSIG
ZGHA,2012-02-05 14:00,ZGHA 051400Z 36002MPS 340V040 1000 R36/P2000 -RA BR SCT003 BKN007 OVC033 05/05 Q1015 NOSIG
ZGHA,2012-02-05 15:00,ZGHA 051500Z 36004MPS 330V030 1600 -RA BR SCT003 BKN009 OVC033 05/04 Q1015 TEMPO 1400 -SHRA BR BKN004 FEW033CB BKN050
ZGHA,2012-02-05 16:00,ZGHA 051600Z 35003MPS 320V020 1600 -RA BR SCT003 BKN009 OVC033 05/04 Q1015 NOSIG
ZGHA,2012-02-05 17:00,ZGHA 051700Z 34004MPS 1800 -RA BR SCT003 BKN009 OVC033 05/04 Q1015 NOSIG
ZGHA,2012-02-05 18:00,ZGHA 051800Z 32004MPS 1600 -RA BR SCT003 BKN009 OVC033 05/04 Q1014 NOSIG
ZGHA,2012-02-05 19:00,ZGHA 051900Z 31003MPS 1200 R36/P2000 -RA BR SCT003 BKN009 OVC033 05/04 Q1014 NOSIG
ZGHA,2012-02-05 20:00,ZGHA 052000Z 34004MPS 1400 R36/P2000 -RA BR SCT003 BKN009 OVC033 05/04 Q1013 NOSIG
ZGHA,2012-02-05 21:00,ZGHA 052100Z 33004MPS 280V020 1400 R36/P2000 -SHRA BR SCT003 BKN009 OVC033 05/04 Q1013 NOSIG
ZGHA,2012-02-05 22:00,ZGHA 052200Z 31004MPS 280V350 1200 R36/P2000 -TSRA BR BKN007 FEW033CB BKN033 05/04 Q1013 NOSIG
ZGHA,2012-02-05 23:00,ZGHA 052300Z 31004MPS 1200 R36/P2000 RA BR BKN007 OVC033 04/04 Q1014 RETS NOSIG
ZGHA,2012-02-06 00:00,ZGHA 060000Z 02002MPS 320V090 2500 -RA BR BKN009 OVC040 04/04 Q1015 RERA NOSIG
ZGHA,2012-02-06 01:00,ZGHA 060100Z 33004MPS 2100 -RA BR SCT004 BKN008 OVC040 05/04 Q1016 NOSIG
ZGHA,2012-02-06 02:00,ZGHA 060200Z 33004MPS 2800 -RA BR SCT005 BKN008 OVC040 05/05 Q1017 NOSIG
ZGHA,2012-02-06 03:00,ZGHA 060300Z 33004MPS 4500 BR SCT006 BKN009 OVC050 06/05 Q1017 NOSIG
ZGHA,2012-02-06 04:00,ZGHA 060400Z 35006MPS 3000 BR SCT006 BKN009 OVC050 06/05 Q1017 NOSIG
ZGHA,2012-02-06 05:00,ZGHA 060500Z 34007MPS 3000 BR BKN009 OVC050 06/05 Q1016 NOSIG
ZGHA,2012-02-06 06:00,ZGHA 060600Z 34006MPS 2500 BR BKN007 OVC050 06/05 Q1016 NOSIG
ZGHA,2012-02-06 07:00,ZGHA 060700Z 35005MPS 2100 BR BKN007 OVC050 07/05 Q1016 NOSIG
ZGHA,2012-02-06 08:00,ZGHA 060800Z 34005MPS 2200 BR BKN007 OVC050 07/05 Q1016 BECMG 1400
ZGHA,2012-02-06 09:00,ZGHA 060900Z 35006MPS 2000 -DZ BR BKN007 OVC050 07/05 Q1016 BECMG 1400
ZGHA,2012-02-06 10:00,ZGHA 061000Z 34006MPS 2000 BR BKN008 OVC050 07/05 Q1017 BECMG 1400
ZGHA,2012-02-06 11:00,ZGHA 061100Z 36006MPS 1800 BR BKN008 OVC050 07/05 Q1018 BECMG 1400 BR BKN011 OVC050
ZGHA,2012-02-06 12:00,ZGHA 061200Z 34007MPS 1800 BR BKN008 OVC050 07/05 Q1019 BECMG 1400
ZGHA,2012-02-06 13:00,ZGHA 061300Z 34005MPS 1800 BR BKN009 OVC050 07/05 Q1020 BECMG 1400 BR BKN011 OVC050
ZGHA,2012-02-06 14:00,ZGHA 061400Z 35005MPS 1700 BR BKN012 OVC050 07/05 Q1021 NOSIG
ZGHA,2012-02-06 15:00,ZGHA 061500Z 35005MPS 1600 -RA BR FEW006 BKN012 OVC050 07/05 Q1022 BECMG 1400
ZGHA,2012-02-06 16:00,ZGHA 061600Z 35005MPS 1800 BR FEW007 BKN013 OVC050 07/05 Q1023 NOSIG
ZGHA,2012-02-06 17:00,ZGHA 061700Z 36005MPS 1600 -DZ BR FEW006 BKN012 OVC050 07/05 Q1023 NOSIG
ZGHA,2012-02-06 18:00,ZGHA 061800Z 33004MPS 1700 BR FEW006 BKN012 OVC050 07/05 Q1024 NOSIG
ZGHA,2012-02-06 19:00,ZGHA 061900Z 36003MPS 1700 BR BKN012 OVC050 07/05 Q1023 NOSIG
ZGHA,2012-02-06 20:00,ZGHA 062000Z 35005MPS 1700 BR BKN012 OVC050 07/05 Q1023 NOSIG
ZGHA,2012-02-06 21:00,ZGHA 062100Z 36004MPS 1600 BR BKN013 OVC050 07/05 Q1024 NOSIG
ZGHA,2012-02-06 22:00,ZGHA 062200Z 36005MPS 1600 BR BKN013 OVC040 07/04 Q1024 NOSIG
ZGHA,2012-02-06 23:00,ZGHA 062300Z 36004MPS 1400 R36/P2000 BR BKN012 OVC040 07/03 Q1025 NOSIG
ZGHA,2012-02-07 00:00,ZGHA 070000Z 36006MPS 1400 R36/1500N BR SCT012 OVC040 06/03 Q1025 BECMG 1700
ZGHA,2012-02-07 01:00,ZGHA 070100Z 36006MPS 1600 R36/1300V1400N BR SCT012 OVC050 06/02 Q1026 NOSIG
ZGHA,2012-02-07 02:00,ZGHA 070200Z 34006MPS 1600 R36/1100V1200N BR SCT012 OVC050 07/02 Q1027 NOSIG
ZGHA,2012-02-07 03:00,ZGHA 070300Z 34006MPS 1600 R36/1200V1300N BR SCT012 OVC050 06/01 Q1027 NOSIG
ZGHA,2012-02-07 04:00,ZGHA 070400Z 34006MPS 2200 HZ SCT012 OVC050 06/00 Q1027 NOSIG
ZGHA,2012-02-07 05:00,ZGHA 070500Z 33006MPS 3000 HZ SCT030 OVC050 07/M01 Q1026 BECMG TL0530 3300
ZGHA,2012-02-07 06:00,ZGHA 070600Z 35006MPS 3500 HZ SCT030 OVC050 07/M00 Q1026 NOSIG
ZGHA,2012-02-07 07:00,ZGHA 070700Z 35006MPS 4000 HZ SCT030 OVC050 07/M01 Q1025 NOSIG
ZGHA,2012-02-07 08:00,ZGHA 070800Z 35005MPS 4000 HZ SCT033 OVC050 08/M01 Q1025 NOSIG
ZGHA,2012-02-07 09:00,ZGHA 070900Z VRB01MPS 4500 HZ SCT033 OVC050 07/00 Q1025 NOSIG
ZGHA,2012-02-07 10:00,ZGHA 071000Z 01003MPS 5000 HZ SCT033 07/M01 Q1026 NOSIG
ZGHA,2012-02-07 11:00,ZGHA 071100Z 36004MPS 5000 HZ SCT033 06/M02 Q1026 NOSIG
ZGHA,2012-02-07 12:00,ZGHA 071200Z 36005MPS 6000 SCT033 05/M03 Q1027 NOSIG
ZGHA,2012-02-07 13:00,ZGHA 071300Z 36005MPS 6000 SCT033 05/M03 Q1028 NOSIG
ZGHA,2012-02-07 14:00,ZGHA 071400Z 36005MPS 6000 FEW040 03/M02 Q1029 NOSIG
ZGHA,2012-02-07 15:00,ZGHA 071500Z 36003MPS 6000 NSC 02/M03 Q1030 NOSIG
ZGHA,2012-02-07 16:00,ZGHA 071600Z VRB01MPS 6000 NSC 02/M03 Q1029 NOSIG
ZGHA,2012-02-07 17:00,ZGHA 071700Z 01001MPS 6000 NSC 02/M03 Q1030 NOSIG
ZGHA,2012-02-07 18:00,ZGHA 071800Z AUTO 35003MPS 7000 OVC100 /// 02/M03 Q1030
ZGHA,2012-02-07 19:00,ZGHA 071900Z AUTO 35002MPS 7000 OVC100 /// 02/M03 Q1030
ZGHA,2012-02-07 20:00,ZGHA 072000Z AUTO 02002MPS 8000 OVC100 /// 03/M03 Q1029
ZGHA,2012-02-07 21:00,ZGHA 072100Z 01002MPS CAVOK 02/M04 Q1029 NOSIG
ZGHA,2012-02-07 22:00,ZGHA 072200Z 35003MPS CAVOK 02/M04 Q1029 NOSIG
ZGHA,2012-02-07 23:00,ZGHA 072300Z 36002MPS CAVOK 02/M04 Q1029 NOSIG
ZGHA,2012-02-08 00:00,ZGHA 080000Z 35003MPS CAVOK 02/M05 Q1030 NOSIG
ZGHA,2012-02-08 01:00,ZGHA 080100Z 36003MPS 9999 SCT040 03/M05 Q1030 NOSIG
ZGHA,2012-02-08 02:00,ZGHA 080200Z 35002MPS CAVOK 03/M05 Q1031 NOSIG
ZGHA,2012-02-08 03:00,ZGHA 080300Z 36004MPS 9999 SCT040 04/M04 Q1031 NOSIG
ZGHA,2012-02-08 04:00,ZGHA 080400Z 35004MPS 9999 SCT040 05/M04 Q1031 NOSIG
ZGHA,2012-02-08 05:00,ZGHA 080500Z 32004MPS 300V360 9999 SCT040 06/M06 Q1030 NOSIG
ZGHA,2012-02-08 06:00,ZGHA 080600Z 36003MPS CAVOK 06/M07 Q1029 NOSIG
ZGHA,2012-02-08 07:00,ZGHA 080700Z 35003MPS 310V020 CAVOK 06/M06 Q1028 NOSIG
ZGHA,2012-02-08 08:00,ZGHA 080800Z 35003MPS 300V020 CAVOK 06/M07 Q1027 NOSIG
ZGHA,2012-02-08 09:00,ZGHA 080900Z 31003MPS CAVOK 06/M08 Q1027 NOSIG
ZGHA,2012-02-08 10:00,ZGHA 081000Z 30002MPS 270V340 CAVOK 06/M07 Q1027 NOSIG
ZGHA,2012-02-08 11:00,ZGHA 081100Z 26002MPS 230V320 CAVOK 05/M04 Q1027 NOSIG
ZGHA,2012-02-08 12:00,ZGHA 081200Z 29002MPS 270V340 CAVOK 05/M05 Q1028 NOSIG
ZGHA,2012-02-08 13:00,ZGHA 081300Z VRB01MPS CAVOK 05/M05 Q1028 NOSIG
ZGHA,2012-02-08 14:00,ZGHA 081400Z 23002MPS 200V270 CAVOK 05/M06 Q1028 NOSIG
ZGHA,2012-02-08 15:00,ZGHA 081500Z 15002MPS CAVOK 04/M01 Q1028 NOSIG
ZGHA,2012-02-08 16:00,ZGHA 081600Z 16002MPS CAVOK 04/M02 Q1028 NOSIG
ZGHA,2012-02-08 17:00,ZGHA 081700Z 14002MPS 100V160 CAVOK 04/M01 Q1027 NOSIG
ZGHA,2012-02-08 18:00,ZGHA 081800Z 16001MPS CAVOK 04/M02 Q1026 NOSIG
ZGHA,2012-02-08 19:00,ZGHA 081900Z VRB01MPS CAVOK 04/M03 Q1025 NOSIG
ZGHA,2012-02-08 20:00,ZGHA 082000Z 14002MPS 110V170 CAVOK 04/M03 Q1024 NOSIG
ZGHA,2012-02-08 21:00,ZGHA 082100Z 16002MPS CAVOK 04/M04 Q1023 NOSIG
ZGHA,2012-02-08 22:00,ZGHA 082200Z 14001MPS CAVOK 03/M04 Q1022 NOSIG
ZGHA,2012-02-08 23:00,ZGHA 082300Z VRB01MPS CAVOK 03/M04 Q1022 NOSIG
ZGHA,2012-02-09 00:00,ZGHA 090000Z 04001MPS CAVOK 03/M03 Q1022 NOSIG
ZGHA,2012-02-09 01:00,ZGHA 090100Z VRB01MPS CAVOK 04/M03 Q1023 NOSIG
ZGHA,2012-02-09 02:00,ZGHA 090200Z 02002MPS CAVOK 04/M01 Q1024 NOSIG
ZGHA,2012-02-09 03:00,ZGHA 090300Z 02002MPS 360V060 CAVOK 04/M01 Q1024 NOSIG
ZGHA,2012-02-09 04:00,ZGHA 090400Z 01002MPS 340V040 CAVOK 05/M01 Q1023 NOSIG
ZGHA,2012-02-09 05:00,ZGHA 090500Z 01002MPS 320V050 CAVOK 05/M02 Q1022 NOSIG
ZGHA,2012-02-09 06:00,ZGHA 090600Z 12002MPS 090V160 9999 FEW020 05/M05 Q1021 NOSIG
ZGHA,2012-02-09 07:00,ZGHA 090700Z VRB02MPS 9999 SCT050 05/M05 Q1021 NOSIG
ZGHA,2012-02-09 08:00,ZGHA 090800Z 15003MPS 9999 SCT040 04/M04 Q1021 NOSIG
ZGHA,2012-02-09 09:00,ZGHA 090900Z 16002MPS 9999 SCT040 03/M02 Q1022 NOSIG
ZGHA,2012-02-09 10:00,ZGHA 091000Z VRB01MPS 9999 SCT030 03/M01 Q1022 NOSIG
ZGHA,2012-02-09 11:00,ZGHA 091100Z VRB01MPS 6000 -RA SCT009 BKN020 OVC050 02/00 Q1023 NOSIG
ZGHA,2012-02-09 12:00,ZGHA 091200Z VRB01MPS 4000 -RA BR SCT009 BKN020 OVC050 02/01 Q1024 BECMG 2500
ZGHA,2012-02-09 13:00,ZGHA 091300Z VRB01MPS 3500 -RA BR SCT009 BKN020 OVC050 02/01 Q1024 BECMG 2500
ZGHA,2012-02-09 14:00,ZGHA 091400Z 34002MPS 2700 -RA BR SCT009 BKN020 OVC050 02/01 Q1025 NOSIG
ZGHA,2012-02-09 15:00,ZGHA 091500Z 36002MPS 3000 -RA BR SCT009 BKN020 OVC050 02/01 Q1026 NOSIG
ZGHA,2012-02-09 16:00,ZGHA 091600Z 33003MPS 300V360 3000 -RA BR SCT007 BKN020 OVC050 03/02 Q1026 BECMG 2500
ZGHA,2012-02-09 17:00,ZGHA 091700Z 33003MPS 3500 -RA BR SCT007 BKN020 OVC050 02/01 Q1026 NOSIG
ZGHA,2012-02-09 18:00,ZGHA 091800Z 34003MPS 2700 -RA BR SCT007 BKN020 OVC050 02/01 Q1026 NOSIG
ZGHA,2012-02-09 19:00,ZGHA 091900Z 33004MPS 2700 -RA BR SCT007 OVC050 02/01 Q1026 NOSIG
ZGHA,2012-02-09 20:00,ZGHA 092000Z 33004MPS 3000 -RA BR SCT007 OVC050 02/00 Q1026 NOSIG
ZGHA,2012-02-09 21:00,ZGHA 092100Z 33004MPS 3000 -RA BR SCT007 OVC050 01/M00 Q1027 NOSIG
ZGHA,2012-02-09 22:00,ZGHA 092200Z 33004MPS 4000 -RA BR SCT007 OVC050 01/M01 Q1028 NOSIG
ZGHA,2012-02-09 23:00,ZGHA 092300Z 32003MPS 5000 BR SCT033 01/M01 Q1028 NOSIG
ZGHA,2012-02-10 00:00,ZGHA 100000Z 33004MPS 7000 SCT050 02/M01 Q1029 NOSIG
ZGHA,2012-02-10 01:00,ZGHA 100100Z 34005MPS 8000 SCT050 02/M02 Q1030 NOSIG
ZGHA,2012-02-10 02:00,ZGHA 100200Z 34005MPS 9999 SCT050 03/M02 Q1030 NOSIG
ZGHA,2012-02-10 03:00,ZGHA 100300Z 34005MPS 9999 SCT050 03/M02 Q1031 NOSIG
ZGHA,2012-02-10 04:00,ZGHA 100400Z 34005MPS 300V360 9999 SCT050 04/M02 Q1030 NOSIG
ZGHA,2012-02-10 05:00,ZGHA 100500Z 30003MPS 270V330 9999 SCT050 04/M02 Q1029 NOSIG
ZGHA,2012-02-10 06:00,ZGHA 100600Z 31004MPS 280V340 9999 SCT033 05/M02 Q1028 NOSIG
ZGHA,2012-02-10 07:00,ZGHA 100700Z 30003MPS 270V350 9999 SCT033 05/M03 Q1028 NOSIG
ZGHA,2012-02-10 08:00,ZGHA 100800Z 32003MPS 280V360 9999 SCT040 06/M03 Q1027 NOSIG
ZGHA,2012-02-10 09:00,ZGHA 100900Z VRB01MPS 9999 FEW050 06/M03 Q1027 NOSIG
ZGHA,2012-02-10 10:00,ZGHA 101000Z VRB01MPS CAVOK 05/M03 Q1028 NOSIG
ZGHA,2012-02-10 11:00,ZGHA 101100Z 23002MPS 200V280 CAVOK 04/M03 Q1028 NOSIG
ZGHA,2012-02-10 12:00,ZGHA 101200Z 00000MPS 7000 NSC 01/M01 Q1028 NOSIG
ZGHA,2012-02-10 13:00,ZGHA 101300Z 00000MPS 6000 NSC 02/M01 Q1029 NOSIG
ZGHA,2012-02-10 14:00,ZGHA 101400Z VRB01MPS 6000 NSC 01/M00 Q1029 NOSIG
ZGHA,2012-02-10 15:00,ZGHA 101500Z 05001MPS 4000 BR NSC 01/M01 Q1029 NOSIG
ZGHA,2012-02-10 16:00,ZGHA 101600Z 15001MPS 4000 BR NSC 01/M00 Q1029 NOSIG
ZGHA,2012-02-10 17:00,ZGHA 101700Z 01001MPS 5000 BR NSC 02/M00 Q1029 NOSIG
ZGHA,2012-02-10 18:00,ZGHA 101800Z VRB01MPS 5000 BR NSC 02/M01 Q1028 NOSIG
ZGHA,2012-02-10 19:00,ZGHA 101900Z 00000MPS 5000 BR NSC 02/M00 Q1028 NOSIG
ZGHA,2012-02-10 20:00,ZGHA 102000Z AUTO 35002MPS 3500 BR OVC098 /// 02/00 Q1028
ZGHA,2012-02-10 21:00,ZGHA 102100Z VRB01MPS 4000 BR NSC 02/00 Q1028 NOSIG
ZGHA,2012-02-10 22:00,ZGHA 102200Z VRB01MPS 4000 BR NSC 02/00 Q1028 NOSIG
ZGHA,2012-02-10 23:00,ZGHA 102300Z 01001MPS 5000 BR NSC 02/01 Q1028 NOSIG
ZGHA,2012-02-11 00:00,ZGHA 110000Z VRB01MPS 6000 NSC 02/00 Q1029 NOSIG
ZGHA,2012-02-11 01:00,ZGHA 110100Z VRB01MPS 6000 OVC050 03/00 Q1029 NOSIG
ZGHA,2012-02-11 02:00,ZGHA 110200Z VRB01MPS 7000 SCT050 04/00 Q1029 NOSIG
ZGHA,2012-02-11 03:00,ZGHA 110300Z VRB01MPS 7000 SCT050 04/00 Q1029 NOSIG
ZGHA,2012-02-11 04:00,ZGHA 110400Z VRB01MPS 9000 SCT050 05/00 Q1028 NOSIG
ZGHA,2012-02-11 05:00,ZGHA 110500Z VRB01MPS 8000 FEW050 07/00 Q1027 NOSIG
ZGHA,2012-02-11 06:00,ZGHA 110600Z VRB01MPS 9999 SCT050 07/M00 Q1025 NOSIG
ZGHA,2012-02-11 07:00,ZGHA 110700Z VRB01MPS 9999 SCT030 07/00 Q1025 NOSIG
ZGHA,2012-02-11 08:00,ZGHA 110800Z VRB01MPS 9999 SCT030 07/01 Q1024 NOSIG
ZGHA,2012-02-11 09:00,ZGHA 110900Z 02002MPS 350V060 9999 OVC050 07/M00 Q1024 NOSIG
ZGHA,2012-02-11 10:00,ZGHA 111000Z VRB01MPS 9999 SCT030 OVC050 07/01 Q1024 NOSIG
ZGHA,2012-02-11 11:00,ZGHA 111100Z 14001MPS 9999 OVC050 06/02 Q1024 NOSIG
ZGHA,2012-02-11 12:00,ZGHA 111200Z 11004MPS 9999 OVC050 06/M01 Q1024 NOSIG
ZGHA,2012-02-11 13:00,ZGHA 111300Z 14003MPS 100V160 9999 OVC050 06/M00 Q1024 NOSIG
ZGHA,2012-02-11 14:00,ZGHA 111400Z 12003MPS 9999 OVC050 06/M01 Q1024 NOSIG
ZGHA,2012-02-11 15:00,ZGHA 111500Z 11002MPS 9999 OVC040 06/M01 Q1024 NOSIG
ZGHA,2012-02-11 16:00,ZGHA 111600Z VRB01MPS 9999 OVC040 06/M00 Q1024 NOSIG
ZGHA,2012-02-11 17:00,ZGHA 111700Z 09002MPS 060V130 9999 OVC040 06/M01 Q1024 NOSIG
ZGHA,2012-02-11 18:00,ZGHA 111800Z VRB01MPS 9999 OVC040 05/M00 Q1023 NOSIG
ZGHA,2012-02-11 19:00,ZGHA 111900Z AUTO 12002MPS 8000 OVC032 /// 05/M01 Q1022
ZGHA,2012-02-11 20:00,ZGHA 112000Z AUTO 13002MPS 7000 DZ OVC028 /// 05/00 Q1021
ZGHA,2012-02-11 21:00,ZGHA 112100Z VRB01MPS 8000 OVC033 05/M00 Q1021 NOSIG
ZGHA,2012-02-11 22:00,ZGHA 112200Z 00000MPS 7000 OVC033 05/00 Q1022 NOSIG
ZGHA,2012-02-11 23:00,ZGHA 112300Z 34001MPS 4000 -DZ BR OVC033 04/02 Q1022 NOSIG
ZGHA,2012-02-12 00:00,ZGHA 120000Z VRB01MPS 3000 BR OVC030 04/02 Q1023 NOSIG
ZGHA,2012-02-12 01:00,ZGHA 120100Z VRB01MPS 3500 BR OVC030 04/02 Q1023 NOSIG
ZGHA,2012-02-12 02:00,ZGHA 120200Z VRB01MPS 4000 BR OVC030 04/02 Q1024 NOSIG
ZGHA,2012-02-12 03:00,ZGHA 120300Z 00000MPS 5000 BR OVC040 05/02 Q1024 NOSIG
ZGHA,2012-02-12 04:00,ZGHA 120400Z VRB01MPS 5000 BR SCT020 OVC050 05/02 Q1023 NOSIG
ZGHA,2012-02-12 05:00,ZGHA 120500Z VRB01MPS 5000 BR SCT020 OVC050 05/02 Q1022 NOSIG
ZGHA,2012-02-12 06:00,ZGHA 120600Z VRB01MPS 5000 BR SCT020 OVC050 05/02 Q1020 NOSIG
ZGHA,2012-02-12 07:00,ZGHA 120700Z VRB01MPS 4500 -RA BR SCT009 SCT020 OVC050 05/03 Q1020 NOSIG
ZGHA,2012-02-12 08:00,ZGHA 120800Z VRB01MPS 1200 R36/1500N -RA BR FEW004 BKN009 OVC050 05/03 Q1020 TEMPO 1600
ZGHA,2012-02-12 09:00,ZGHA 120900Z 01002MPS 1000 R36/1400N -RA BR FEW003 BKN009 OVC050 05/04 Q1019 TEMPO 0700 FG
ZGHA,2012-02-12 10:00,ZGHA 121000Z 02001MPS 0700 R36/1400N -RA FG FEW003 BKN009 OVC050 04/04 Q1019 BECMG 0900 FG
ZGHA,2012-02-12 11:00,ZGHA 121100Z 36002MPS 0700 R36/1900U -RA FG FEW003 BKN009 OVC050 05/04 Q1020 BECMG 1000 -RA BR
ZGHA,2012-02-12 12:00,ZGHA 121200Z 35004MPS 1200 R36/P2000 -RA BR FEW003 BKN009 OVC040 05/04 Q1021 BECMG 1500 BR
ZGHA,2012-02-12 13:00,ZGHA 121300Z 36002MPS 1600 -RA BR FEW003 BKN009 OVC040 05/04 Q1022 NOSIG
ZGHA,2012-02-12 14:00,ZGHA 121400Z 36002MPS 1800 -RA BR FEW003 BKN009 OVC040 05/04 Q1022 NOSIG
ZGHA,2012-02-12 15:00,ZGHA 121500Z 36004MPS 2300 -RA BR FEW003 BKN009 OVC040 05/04 Q1023 BECMG 3000
ZGHA,2012-02-12 16:00,ZGHA 121600Z 36003MPS 2000 -RA BR FEW003 BKN009 OVC040 05/04 Q1023 NOSIG
ZGHA,2012-02-12 17:00,ZGHA 121700Z 35003MPS 2000 -RA BR FEW003 BKN009 OVC040 05/04 Q1023 NOSIG
ZGHA,2012-02-12 18:00,ZGHA 121800Z 34003MPS 1800 -RA BR FEW003 BKN009 OVC040 05/04 Q1023 NOSIG
ZGHA,2012-02-12 19:00,ZGHA 121900Z AUTO 34004MPS 1600 DZ BR BKN004 /// OVC017/// 05/04 Q1022
ZGHA,2012-02-12 20:00,ZGHA 122000Z AUTO 34004MPS 1700 DZ BR OVC004 /// 05/04 Q1022
ZGHA,2012-02-12 21:00,ZGHA 122100Z 34003MPS 1600 -RA BR SCT003 BKN009 OVC040 05/04 Q1022 NOSIG
ZGHA,2012-02-12 22:00,ZGHA 122200Z 33003MPS 1600 -RA BR SCT003 BKN009 OVC040 05/04 Q1022 NOSIG
ZGHA,2012-02-12 23:00,ZGHA 122300Z 36002MPS 1800 -RA BR FEW003 BKN012 OVC040 05/04 Q1022 BECMG 3000
ZGHA,2012-02-13 00:00,ZGHA 130000Z 30002MPS 1800 -RA BR FEW003 BKN012 OVC040 05/04 Q1023 BECMG 3000
ZGHA,2012-02-13 01:00,ZGHA 130100Z 33002MPS 1800 -DZ BR FEW004 BKN008 OVC040 05/04 Q1023 NOSIG
ZGHA,2012-02-13 02:00,ZGHA 130200Z 31002MPS 290V350 1600 -DZ BR SCT004 BKN008 OVC040 05/05 Q1023 NOSIG
ZGHA,2012-02-13 03:00,ZGHA 130300Z 32002MPS 290V350 1400 R36/1500N -DZ BR SCT003 BKN007 OVC040 05/05 Q1023 NOSIG
ZGHA,2012-02-13 04:00,ZGHA 130400Z 32002MPS 1400 R36/1600N -DZ BR SCT003 BKN007 OVC040 06/05 Q1022 NOSIG
ZGHA,2012-02-13 05:00,ZGHA 130500Z 35002MPS 290V030 2000 -DZ BR SCT003 BKN007 OVC040 06/05 Q1021 NOSIG
ZGHA,2012-02-13 06:00,ZGHA 130600Z 01002MPS 2200 BR SCT003 BKN007 OVC040 06/05 Q1019 NOSIG
ZGHA,2012-02-13 07:00,ZGHA 130700Z 02002MPS 1800 -RA BR SCT003 BKN007 OVC040 06/05 Q1019 NOSIG
ZGHA,2012-02-13 08:00,ZGHA 130800Z 01003MPS 1400 R36/1500U -DZ BR SCT003 BKN006 OVC040 06/05 Q1019 NOSIG
ZGHA,2012-02-13 09:00,ZGHA 130900Z 36004MPS 1200 R36/1800D -DZ BR SCT003 BKN006 OVC030 06/05 Q1019 NOSIG
ZGHA,2012-02-13 10:00,ZGHA 131000Z 36004MPS 1800 -DZ BR SCT003 BKN006 OVC030 06/05 Q1019 NOSIG
ZGHA,2012-02-13 11:00,ZGHA 131100Z 35003MPS 1600 -RA BR SCT003 BKN006 OVC030 06/05 Q1019 NOSIG
ZGHA,2012-02-13 12:00,ZGHA 131200Z 34004MPS 1800 -RA BR SCT003 BKN006 OVC030 06/05 Q1020 NOSIG
ZGHA,2012-02-13 13:00,ZGHA 131300Z 34005MPS 2700 -DZ BR SCT003 BKN006 OVC030 06/05 Q1021 NOSIG
ZGHA,2012-02-13 14:00,ZGHA 131400Z 34004MPS 2000 -DZ BR SCT003 BKN006 OVC030 06/05 Q1022 NOSIG
ZGHA,2012-02-13 15:00,ZGHA 131500Z 34004MPS 2100 -DZ BR SCT003 BKN007 OVC033 06/05 Q1022 NOSIG
ZGHA,2012-02-13 16:00,ZGHA 131600Z 34004MPS 1800 -DZ BR SCT003 BKN007 OVC033 05/04 Q1022 NOSIG
ZGHA,2012-02-13 17:00,ZGHA 131700Z 36003MPS 1700 -DZ BR SCT003 BKN007 OVC033 05/04 Q1022 NOSIG
ZGHA,2012-02-13 18:00,ZGHA 131800Z 34004MPS 1800 -RA BR SCT003 BKN007 OVC033 05/04 Q1022 NOSIG
ZGHA,2012-02-13 19:00,ZGHA 131900Z 34004MPS 1600 -DZ BR SCT003 BKN007 OVC033 05/04 Q1022 NOSIG
ZGHA,2012-02-13 20:00,ZGHA 132000Z 34003MPS 1800 -DZ BR SCT003 BKN007 OVC033 05/04 Q1021 NOSIG
ZGHA,2012-02-13 21:00,ZGHA 132100Z 33002MPS 1700 -DZ BR SCT003 BKN007 OVC040 05/04 Q1021 NOSIG
ZGHA,2012-02-13 22:00,ZGHA 132200Z 31002MPS 1600 -RA BR SCT003 BKN007 OVC040 05/04 Q1021 NOSIG
ZGHA,2012-02-13 23:00,ZGHA 132300Z 30002MPS 1200 R36/P2000 -RA BR SCT003 BKN007 OVC040 05/04 Q1021 BECMG 1600
ZGHA,2012-02-14 00:00,ZGHA 140000Z 30002MPS 280V340 1100 R36/1500N -RA BR SCT003 BKN006 OVC040 05/04 Q1021 NOSIG
ZGHA,2012-02-14 01:00,ZGHA 140100Z 27002MPS 1100 R36/1000V1400D -RA BR SCT003 BKN006 OVC040 05/04 Q1022 BECMG 1700
ZGHA,2012-02-14 02:00,ZGHA 140200Z 29002MPS 270V340 0900 R36/1000V1100N -RA FG SCT003 BKN006 OVC040 05/04 Q1022 BECMG 1700 -RA BR
ZGHA,2012-02-14 03:00,ZGHA 140300Z 32003MPS 0900 R36/1000V1200N -RA FG SCT003 BKN006 OVC040 05/04 Q1021 BECMG 1700 -RA BR
ZGHA,2012-02-14 04:00,ZGHA 140400Z 32003MPS 1000 R36/0900V1200D -RA BR SCT003 BKN006 OVC040 05/04 Q1021 NOSIG
ZGHA,2012-02-14 05:00,ZGHA 140500Z 31003MPS 0900 R36/0800V1000N -RA FG SCT003 BKN006 OVC040 05/04 Q1020 NOSIG
ZGHA,2012-02-14 06:00,ZGHA 140600Z 01002MPS 340V040 0900 R36/1000V1100N -RA FG SCT003 BKN006 OVC040 05/04 Q1019 TEMPO 0700
ZGHA,2012-02-14 07:00,ZGHA 140700Z 01003MPS 1000 R36/1100V1400N -RA BR SCT003 BKN006 OVC040 05/04 Q1018 NOSIG
ZGHA,2012-02-14 08:00,ZGHA 140800Z 36004MPS 1200 R36/1300N -RA BR SCT003 BKN007 OVC040 05/04 Q1018 TEMPO 1700
ZGHA,2012-02-14 09:00,ZGHA 140900Z 35004MPS 1400 R36/1500N -DZ BR BKN007 OVC040 05/04 Q1018 NOSIG
ZGHA,2012-02-14 10:00,ZGHA 141000Z 33005MPS 1400 R36/1900N -DZ BR BKN007 OVC040 05/04 Q1018 NOSIG
ZGHA,2012-02-14 11:00,ZGHA 141100Z 35005MPS 1400 R36/P2000 BR BKN007 OVC040 05/04 Q1018 NOSIG
ZGHA,2012-02-14 12:00,ZGHA 141200Z 32004MPS 1400 R36/P2000 BR FEW004 BKN007 OVC040 05/04 Q1020 NOSIG
ZGHA,2012-02-14 13:00,ZGHA 141300Z 33004MPS 1200 R36/P2000 -RA BR FEW004 BKN007 OVC040 05/04 Q1021 NOSIG
ZGHA,2012-02-14 14:00,ZGHA 141400Z 35004MPS 1400 R36/P2000 BR FEW004 BKN007 OVC040 04/04 Q1021 NOSIG
ZGHA,2012-02-14 15:00,ZGHA 141500Z 34006MPS 2000 BR BKN007 OVC050 05/03 Q1022 NOSIG
ZGHA,2012-02-14 16:00,ZGHA 141600Z 34006MPS 2000 BR BKN007 OVC050 04/03 Q1022 NOSIG
ZGHA,2012-02-14 17:00,ZGHA 141700Z 33005MPS 2000 BR BKN007 OVC050 04/03 Q1022 NOSIG
ZGHA,2012-02-14 18:00,ZGHA 141800Z 35005MPS 1600 BR BKN007 OVC050 04/03 Q1022 NOSIG
ZGHA,2012-02-14 19:00,ZGHA 141900Z 32004MPS 1700 BR BKN007 OVC050 04/03 Q1022 NOSIG
ZGHA,2012-02-14 20:00,ZGHA 142000Z 33003MPS 1400 R36/P2000 -RA BR FEW004 BKN007 OVC040 04/03 Q1021 NOSIG
ZGHA,2012-02-14 21:00,ZGHA 142100Z 35004MPS 1400 R36/P2000 -RA BR FEW004 BKN007 OVC040 04/03 Q1021 NOSIG
ZGHA,2012-02-14 22:00,ZGHA 142200Z 34004MPS 1200 R36/1900N -RA BR FEW004 BKN007 OVC040 04/03 Q1021 NOSIG
ZGHA,2012-02-14 23:00,ZGHA 142300Z 31003MPS 1200 R36/1700N -RA BR FEW004 BKN007 OVC040 04/04 Q1022 NOSIG
ZGHA,2012-02-15 00:00,ZGHA 150000Z 31003MPS 0900 R36/1100V1300D -RA FG FEW003 BKN006 OVC040 04/04 Q1022 BECMG 1500 -RA BR
ZGHA,2012-02-15 01:00,ZGHA 150100Z 32003MPS 1100 R36/1200V1400N -DZ BR SCT003 BKN006 OVC040 04/04 Q1022 NOSIG
ZGHA,2012-02-15 02:00,ZGHA 150200Z 30003MPS 1000 R36/1100V1300N -DZ BR SCT003 BKN006 OVC040 04/04 Q1022 NOSIG
ZGHA,2012-02-15 03:00,ZGHA 150300Z 30003MPS 270V330 1100 R36/1200V1300N -DZ BR SCT003 BKN006 OVC040 05/04 Q1022 NOSIG
ZGHA,2012-02-15 04:00,ZGHA 150400Z 31003MPS 1100 R36/1000V1200N -DZ BR SCT003 BKN006 OVC040 05/04 Q1021 NOSIG
ZGHA,2012-02-15 05:00,ZGHA 150500Z 31003MPS 280V340 1400 R36/1200V1400N -RA BR SCT003 BKN006 OVC040 05/04 Q1020 BECMG 1700
ZGHA,2012-02-15 06:00,ZGHA 150600Z 33004MPS 1600 -RA BR SCT003 BKN009 OVC040 05/04 Q1020 NOSIG
ZGHA,2012-02-15 07:00,ZGHA 150700Z 34003MPS 2300 -RA BR SCT003 BKN009 OVC040 05/04 Q1019 NOSIG
ZGHA,2012-02-15 08:00,ZGHA 150800Z 35004MPS 2600 -RA BR SCT003 BKN009 OVC040 05/04 Q1019 BECMG 3000
ZGHA,2012-02-15 09:00,ZGHA 150900Z 35004MPS 3500 -RA BR SCT003 BKN009 OVC040 05/04 Q1020 NOSIG
ZGHA,2012-02-15 10:00,ZGHA 151000Z 34005MPS 6000 SCT003 BKN012 OVC040 05/04 Q1020 NOSIG
ZGHA,2012-02-15 11:00,ZGHA 151100Z 35005MPS 6000 SCT006 BKN012 OVC040 05/04 Q1021 NOSIG
ZGHA,2012-02-15 12:00,ZGHA 151200Z 34005MPS 9999 FEW006 BKN012 OVC050 05/04 Q1022 NOSIG
ZGHA,2012-02-15 13:00,ZGHA 151300Z 33006MPS 9999 FEW006 BKN012 OVC050 05/04 Q1023 NOSIG
ZGHA,2012-02-15 14:00,ZGHA 151400Z 34005MPS 9999 BKN009 OVC050 05/04 Q1024 NOSIG
ZGHA,2012-02-15 15:00,ZGHA 151500Z 34005MPS 9999 BKN009 OVC050 05/04 Q1025 NOSIG
ZGHA,2012-02-15 16:00,ZGHA 151600Z 35005MPS 8000 BKN008 OVC050 05/04 Q1025 NOSIG
ZGHA,2012-02-15 17:00,ZGHA 151700Z 34004MPS 7000 BKN008 OVC050 05/04 Q1025 NOSIG
ZGHA,2012-02-15 18:00,ZGHA 151800Z 34005MPS 7000 BKN007 OVC050 05/03 Q1024 NOSIG
ZGHA,2012-02-15 19:00,ZGHA 151900Z 33005MPS 6000 BKN007 OVC050 05/03 Q1024 NOSIG
ZGHA,2012-02-15 20:00,ZGHA 152000Z 34005MPS 5000 BR BKN007 OVC050 04/03 Q1024 NOSIG
ZGHA,2012-02-15 21:00,ZGHA 152100Z 34005MPS 5000 BR BKN007 OVC050 04/03 Q1025 NOSIG
ZGHA,2012-02-15 22:00,ZGHA 152200Z 35006MPS 3500 BR BKN006 OVC050 04/03 Q1025 NOSIG
ZGHA,2012-02-15 23:00,ZGHA 152300Z 36005MPS 3300 BR FEW003 BKN006 OVC040 04/03 Q1026 NOSIG
ZGHA,2012-02-16 00:00,ZGHA 160000Z 35006MPS 3700 BR FEW003 BKN006 OVC040 04/03 Q1026 NOSIG
ZGHA,2012-02-16 01:00,ZGHA 160100Z 35005MPS 4500 BR FEW003 BKN006 OVC040 04/03 Q1027 NOSIG
ZGHA,2012-02-16 02:00,ZGHA 160200Z 34005MPS 4500 -RA BR FEW003 BKN006 OVC040 05/03 Q1028 NOSIG
ZGHA,2012-02-16 03:00,ZGHA 160300Z 34005MPS 5000 -RA BR BKN007 OVC040 05/03 Q1027 NOSIG
ZGHA,2012-02-16 04:00,ZGHA 160400Z 33005MPS 5000 -RA BR BKN007 OVC040 05/04 Q1027 NOSIG
ZGHA,2012-02-16 05:00,ZGHA 160500Z 32004MPS 300V360 4000 -RA BR BKN007 OVC040 05/04 Q1026 NOSIG
ZGHA,2012-02-16 06:00,ZGHA 160600Z 31004MPS 290V350 3500 -RA BR FEW006 BKN008 OVC040 05/04 Q1025 NOSIG
ZGHA,2012-02-16 07:00,ZGHA 160700Z 33004MPS 3000 -RA BR FEW006 BKN008 OVC040 05/04 Q1025 BECMG FM0433 TL0522 TSRA
ZGHA,2012-02-16 08:00,ZGHA 160800Z 34004MPS 2700 -DZ BR SCT005 BKN008 OVC040 05/04 Q1025 NOSIG
ZGHA,2012-02-16 09:00,ZGHA 160900Z 35005MPS 4000 BR BKN008 OVC040 05/03 Q1025 BECMG 2700
ZGHA,2012-02-16 10:00,ZGHA 161000Z 35004MPS 3500 BR FEW007 BKN009 OVC050 05/03 Q1025 BECMG 2700
ZGHA,2012-02-16 11:00,ZGHA 161100Z 34004MPS 3200 BR FEW007 BKN009 OVC050 05/03 Q1025 NOSIG
ZGHA,2012-02-16 12:00,ZGHA 161200Z 34003MPS 3000 BR BKN009 OVC050 05/03 Q1026 BECMG 2500
ZGHA,2012-02-16 13:00,ZGHA 161300Z 35004MPS 3500 BR BKN007 OVC050 05/03 Q1026 NOSIG
ZGHA,2012-02-16 14:00,ZGHA 161400Z 34004MPS 3500 BR BKN007 OVC050 05/03 Q1027 NOSIG
ZGHA,2012-02-16 15:00,ZGHA 161500Z 35004MPS 4000 BR FEW009 SCT020 OVC050 05/03 Q1027 NOSIG
ZGHA,2012-02-16 16:00,ZGHA 161600Z 35003MPS 4000 BR SCT020 OVC050 04/03 Q1027 NOSIG
ZGHA,2012-02-16 17:00,ZGHA 161700Z 35003MPS 4000 BR SCT020 OVC050 04/03 Q1027 NOSIG
ZGHA,2012-02-16 18:00,ZGHA 161800Z 36003MPS 3000 BR SCT033 OVC050 04/03 Q1027 NOSIG
ZGHA,2012-02-16 19:00,ZGHA 161900Z 34003MPS 2200 -DZ BR SCT007 SCT033 OVC050 03/02 Q1028 NOSIG
ZGHA,2012-02-16 20:00,ZGHA 162000Z AUTO 35003MPS 1100 R36/P2000 FG OVC002 /// 03/03 Q1027
ZGHA,2012-02-16 21:00,ZGHA 162100Z 36003MPS 2100 BR SCT033 OVC050 03/03 Q1027 NOSIG
ZGHA,2012-02-16 22:00,ZGHA 162200Z 36003MPS 2400 BR SCT033 OVC050 03/03 Q1028 NOSIG
ZGHA,2012-02-16 23:00,ZGHA 162300Z 33003MPS 2100 BR SCT006 SCT033 OVC050 03/02 Q1028 BECMG 3500
ZGHA,2012-02-17 00:00,ZGHA 170000Z 36003MPS 2100 BR SCT006 OVC050 03/03 Q1029 NOSIG
ZGHA,2012-02-17 01:00,ZGHA 170100Z 36003MPS 3000 BR SCT006 OVC050 04/03 Q1030 BECMG 3500
ZGHA,2012-02-17 02:00,ZGHA 170200Z 36003MPS 340V040 5000 BR FEW010 06/03 Q1030 NOSIG
ZGHA,2012-02-17 03:00,ZGHA 170300Z 02003MPS 350V090 9999 FEW015 07/03 Q1030 NOSIG
ZGHA,2012-02-17 04:00,ZGHA 170400Z 36004MPS 330V040 9999 SCT020 09/03 Q1030 NOSIG
ZGHA,2012-02-17 05:00,ZGHA 170500Z 35003MPS 290V080 9999 SCT030 10/02 Q1029 NOSIG
ZGHA,2012-02-17 06:00,ZGHA 170600Z 35004MPS 9999 SCT040 10/02 Q1028 NOSIG
ZGHA,2012-02-17 07:00,ZGHA 170700Z 35004MPS 310V020 9999 BKN040 10/02 Q1027 NOSIG
ZGHA,2012-02-17 08:00,ZGHA 170800Z 35004MPS 9999 BKN040 10/01 Q1027 NOSIG
ZGHA,2012-02-17 09:00,ZGHA 170900Z 36005MPS 9999 SCT050 10/01 Q1027 NOSIG
ZGHA,2012-02-17 10:00,ZGHA 171000Z 33004MPS 9999 FEW050 10/01 Q1027 NOSIG
ZGHA,2012-02-17 11:00,ZGHA 171100Z 34004MPS CAVOK 09/01 Q1027 NOSIG
ZGHA,2012-02-17 12:00,ZGHA 171200Z 31002MPS 9999 FEW050 08/02 Q1028 NOSIG
ZGHA,2012-02-17 13:00,ZGHA 171300Z 36003MPS CAVOK 07/01 Q1029 NOSIG
ZGHA,2012-02-17 14:00,ZGHA 171400Z 36004MPS CAVOK 05/M00 Q1030 NOSIG
ZGHA,2012-02-17 15:00,ZGHA 171500Z 02003MPS 9999 SCT050 05/M00 Q1030 NOSIG
ZGHA,2012-02-17 16:00,ZGHA 171600Z 02002MPS 9999 FEW050 04/M01 Q1030 NOSIG
ZGHA,2012-02-17 17:00,ZGHA 171700Z 02002MPS 9999 FEW050 04/M01 Q1031 NOSIG
ZGHA,2012-02-17 18:00,ZGHA 171800Z 03002MPS 8000 FEW050 03/M01 Q1031 NOSIG
ZGHA,2012-02-17 19:00,ZGHA 171900Z 02002MPS 8000 NSC 03/M01 Q1030 NOSIG
ZGHA,2012-02-17 20:00,ZGHA 172000Z AUTO 02002MPS 360V070 6000 OVC120 /// 04/M01 Q1030
ZGHA,2012-02-17 21:00,ZGHA 172100Z 02002MPS 340V050 8000 NSC 04/M01 Q1030 NOSIG
ZGHA,2012-02-17 22:00,ZGHA 172200Z 02002MPS 350V050 6000 NSC 04/M01 Q1030 NOSIG
ZGHA,2012-02-17 23:00,ZGHA 172300Z 02003MPS 6000 NSC 04/M01 Q1030 NOSIG
ZGHA,2012-02-18 00:00,ZGHA 180000Z 02003MPS 350V060 5000 BR NSC 04/M01 Q1031 NOSIG
ZGHA,2012-02-18 01:00,ZGHA 180100Z 02002MPS 350V060 5000 BR NSC 05/M01 Q1032 NOSIG
ZGHA,2012-02-18 02:00,ZGHA 180200Z 05002MPS 010V110 6000 NSC 06/M01 Q1032 NOSIG
ZGHA,2012-02-18 03:00,ZGHA 180300Z 07003MPS 020V090 5000 HZ NSC 06/M02 Q1031 NOSIG
ZGHA,2012-02-18 04:00,ZGHA 180400Z VRB01MPS 4500 HZ NSC 07/M01 Q1031 NOSIG
ZGHA,2012-02-18 05:00,ZGHA 180500Z 30002MPS 270V330 4000 HZ SCT033 07/M01 Q1030 BECMG 2800
ZGHA,2012-02-18 06:00,ZGHA 180600Z 32003MPS 270V350 4000 HZ SCT033 07/M01 Q1029 BECMG 2800
ZGHA,2012-02-18 07:00,ZGHA 180700Z 35003MPS 270V030 5000 HZ SCT033 08/M01 Q1028 NOSIG
ZGHA,2012-02-18 08:00,ZGHA 180800Z 35002MPS 310V030 5000 HZ SCT033 08/M01 Q1028 NOSIG
ZGHA,2012-02-18 09:00,ZGHA 180900Z 30002MPS 270V350 4000 HZ SCT033 08/M01 Q1028 NOSIG
ZGHA,2012-02-18 10:00,ZGHA 181000Z 28002MPS 2700 HZ SCT033 07/01 Q1028 NOSIG
ZGHA,2012-02-18 11:00,ZGHA 181100Z 28002MPS 2500 HZ SCT033 07/01 Q1029 NOSIG
ZGHA,2012-02-18 12:00,ZGHA 181200Z 30002MPS 2200 HZ SCT040 07/01 Q1029 NOSIG
ZGHA,2012-02-18 13:00,ZGHA 181300Z 30003MPS 280V340 2300 BR SCT050 06/01 Q1030 NOSIG
ZGHA,2012-02-18 14:00,ZGHA 181400Z 29003MPS 250V340 2000 BR SCT050 06/02 Q1030 NOSIG
ZGHA,2012-02-18 15:00,ZGHA 181500Z VRB01MPS 2000 BR SCT050 06/02 Q1031 NOSIG
ZGHA,2012-02-18 16:00,ZGHA 181600Z VRB01MPS 1800 BR SCT050 05/02 Q1031 NOSIG
ZGHA,2012-02-18 17:00,ZGHA 181700Z 00000MPS 1600 BR SCT050 05/02 Q1030 NOSIG
ZGHA,2012-02-18 18:00,ZGHA 181800Z 14001MPS 1400 R36/P2000 BR SCT050 05/03 Q1029 NOSIG
ZGHA,2012-02-18 19:00,ZGHA 181900Z AUTO 04001MPS 1200 R36/P2000 BR OVC100 /// 05/03 Q1029
ZGHA,2012-02-18 21:00,ZGHA 182100Z VRB01MPS 0700 R36/0800V1300N FG SCT040 02/01 Q1028 NOSIG
ZGHA,2012-02-18 22:00,ZGHA 182200Z VRB01MPS 1400 R36/P2000 BR NSC 01/01 Q1028 NOSIG
ZGHA,2012-02-18 23:00,ZGHA 182300Z 03001MPS 3500 BR SKC 01/M00 Q1028 NOSIG
ZGHA,2012-02-19 00:00,ZGHA 190000Z VRB01MPS 3500 BR SKC 01/00 Q1029 NOSIG
ZGHA,2012-02-19 01:00,ZGHA 190100Z 07002MPS 030V110 5000 BR SKC 04/00 Q1029 NOSIG
ZGHA,2012-02-19 02:00,ZGHA 190200Z 05001MPS 7000 SKC 07/M02 Q1029 NOSIG
ZGHA,2012-02-19 03:00,ZGHA 190300Z VRB01MPS 8000 SKC 10/M03 Q1029 NOSIG
ZGHA,2012-02-19 04:00,ZGHA 190400Z VRB01MPS CAVOK 10/M07 Q1027 NOSIG
ZGHA,2012-02-19 05:00,ZGHA 190500Z VRB01MPS CAVOK 12/M07 Q1026 NOSIG
ZGHA,2012-02-19 06:00,ZGHA 190600Z VRB02MPS CAVOK 12/M05 Q1024 NOSIG
ZGHA,2012-02-19 07:00,ZGHA 190700Z VRB01MPS CAVOK 13/M05 Q1023 NOSIG
ZGHA,2012-02-19 08:00,ZGHA 190800Z VRB01MPS CAVOK 13/M05 Q1022 NOSIG
ZGHA,2012-02-19 09:00,ZGHA 190900Z VRB01MPS CAVOK 13/M05 Q1021 NOSIG
ZGHA,2012-02-19 10:00,ZGHA 191000Z VRB01MPS CAVOK 12/M05 Q1021 NOSIG
ZGHA,2012-02-19 11:00,ZGHA 191100Z 00000MPS CAVOK 09/01 Q1021 NOSIG
ZGHA,2012-02-19 12:00,ZGHA 191200Z VRB01MPS 8000 SKC 07/02 Q1021 NOSIG
ZGHA,2012-02-19 13:00,ZGHA 191300Z VRB01MPS 8000 SKC 06/02 Q1022 NOSIG
ZGHA,2012-02-19 14:00,ZGHA 191400Z VRB01MPS 8000 SKC 06/00 Q1022 NOSIG
ZGHA,2012-02-19 15:00,ZGHA 191500Z VRB01MPS 7000 NSC 05/02 Q1022 NOSIG
ZGHA,2012-02-19 16:00,ZGHA 191600Z VRB01MPS 8000 NSC 07/03 Q1022 NOSIG
ZGHA,2012-02-19 17:00,ZGHA 191700Z 00000MPS 6000 NSC 07/04 Q1022 NOSIG
ZGHA,2012-02-19 18:00,ZGHA 191800Z VRB01MPS 6000 NSC 07/03 Q1021 NOSIG
ZGHA,2012-02-19 19:00,ZGHA 191900Z 32001MPS 9999 FEW050 08/01 Q1021 NOSIG
ZGHA,2012-02-19 20:00,ZGHA 192000Z AUTO 00000MPS 7000 OVC054 /// 07/02 Q1020
ZGHA,2012-02-19 21:00,ZGHA 192100Z 23001MPS 9999 FEW050 07/02 Q1019 NOSIG
ZGHA,2012-02-19 22:00,ZGHA 192200Z VRB01MPS 9999 -RA SCT040 07/02 Q1019 NOSIG
ZGHA,2012-02-19 23:00,ZGHA 192300Z 31002MPS 6000 -RA SCT030 07/04 Q1020 TEMPO -TSRA FEW040CB
ZGHA,2012-02-20 00:00,ZGHA 200000Z 18002MPS 140V210 5000 BR SCT030 06/05 Q1020 NOSIG
ZGHA,2012-02-20 01:00,ZGHA 200100Z VRB01MPS 4000 BR SCT030 OVC050 07/05 Q1021 NOSIG
ZGHA,2012-02-20 02:00,ZGHA 200200Z VRB01MPS 4000 BR SCT030 OVC050 07/05 Q1021 NOSIG
ZGHA,2012-02-20 03:00,ZGHA 200300Z 16001MPS 5000 BR SCT030 OVC050 08/04 Q1020 NOSIG
ZGHA,2012-02-20 04:00,ZGHA 200400Z VRB01MPS 6000 SCT030 OVC050 08/03 Q1019 NOSIG
ZGHA,2012-02-20 05:00,ZGHA 200500Z VRB01MPS 7000 SCT040 OVC050 09/03 Q1018 NOSIG
ZGHA,2012-02-20 06:00,ZGHA 200600Z VRB01MPS 7000 SCT040 OVC050 09/04 Q1017 NOSIG
ZGHA,2012-02-20 07:00,ZGHA 200700Z 02002MPS 340V050 8000 FEW040 09/05 Q1016 NOSIG
ZGHA,2012-02-20 08:00,ZGHA 200800Z 02002MPS 360V080 8000 FEW040 08/05 Q1016 NOSIG
ZGHA,2012-02-20 09:00,ZGHA 200900Z 03002MPS 320V080 8000 SCT040 08/05 Q1016 NOSIG
ZGHA,2012-02-20 10:00,ZGHA 201000Z 03002MPS 340V080 6000 SCT040 OVC050 08/05 Q1017 NOSIG
ZGHA,2012-02-20 11:00,ZGHA 201100Z 05003MPS 360V090 6000 SCT040 OVC050 08/05 Q1016 NOSIG
ZGHA,2012-02-20 12:00,ZGHA 201200Z VRB01MPS 6000 NSC 08/05 Q1017 NOSIG
ZGHA,2012-02-20 13:00,ZGHA 201300Z 02003MPS 350V050 5000 BR SCT040 08/05 Q1017 NOSIG
ZGHA,2012-02-20 14:00,ZGHA 201400Z 36002MPS 5000 BR SCT040 08/05 Q1018 NOSIG
ZGHA,2012-02-20 15:00,ZGHA 201500Z 36002MPS 4000 BR SCT040 08/05 Q1018 NOSIG
ZGHA,2012-02-20 16:00,ZGHA 201600Z 02002MPS 340V080 4000 BR SCT040 08/05 Q1018 NOSIG
ZGHA,2012-02-20 17:00,ZGHA 201700Z VRB01MPS 5000 BR SCT040 08/05 Q1017 NOSIG
ZGHA,2012-02-20 18:00,ZGHA 201800Z 36002MPS 4000 -RA BR SCT030 08/06 Q1017 NOSIG
ZGHA,2012-02-20 21:00,ZGHA 202100Z 35001MPS 3000 BR SCT040 08/06 Q1016 NOSIG
ZGHA,2012-02-20 22:00,ZGHA 202200Z VRB01MPS 3000 BR SCT040 08/06 Q1016 NOSIG
ZGHA,2012-02-20 23:00,ZGHA 202300Z 36001MPS 3000 BR SCT040 08/06 Q1017 NOSIG
ZGHA,2012-02-21 00:00,ZGHA 210000Z VRB01MPS 2500 BR SCT030 OVC050 08/06 Q1017 NOSIG
ZGHA,2012-02-21 01:00,ZGHA 210100Z 01002MPS 2500 -RA BR BKN030 OVC050 08/06 Q1017 NOSIG
ZGHA,2012-02-21 02:00,ZGHA 210200Z 36002MPS 2200 -RA BR BKN030 OVC050 08/07 Q1017 NOSIG
ZGHA,2012-02-21 03:00,ZGHA 210300Z 01002MPS 340V050 1800 -RA BR BKN030 OVC050 09/07 Q1017 BECMG 1500
ZGHA,2012-02-21 04:00,ZGHA 210400Z 02001MPS 2200 BR SCT007 OVC040 09/07 Q1016 NOSIG
ZGHA,2012-02-21 05:00,ZGHA 210500Z VRB01MPS 2000 R36/1400N -RA BR SCT007 OVC033 09/07 Q1015 NOSIG
ZGHA,2012-02-21 06:00,ZGHA 210600Z 32002MPS 290V350 1300 R36/1600D BR BKN006 OVC033 09/08 Q1014 NOSIG
ZGHA,2012-02-21 07:00,ZGHA 210700Z 03002MPS 350V080 1100 R36/1100V1300N BR BKN005 OVC033 09/08 Q1013 NOSIG
ZGHA,2012-02-21 08:00,ZGHA 210800Z VRB01MPS 1200 R36/1700N BR BKN005 OVC033 09/08 Q1013 BECMG -TSRA
ZGHA,2012-02-21 09:00,ZGHA 210900Z 33003MPS 0800 R36/1700N FG BKN004 OVC033 09/08 Q1013 NOSIG
ZGHA,2012-02-21 10:00,ZGHA 211000Z 01001MPS 0800 R36/1700D FG BKN004 OVC033 09/08 Q1014 NOSIG
ZGHA,2012-02-21 11:00,ZGHA 211100Z 36003MPS 0900 R36/P2000 -RA FG BKN004 OVC033 09/08 Q1014 NOSIG
ZGHA,2012-02-21 12:00,ZGHA 211200Z VRB01MPS 1000 R36/P2000 BR BKN004 OVC033 09/08 Q1014 NOSIG
ZGHA,2012-02-21 13:00,ZGHA 211300Z 36002MPS 340V040 1200 R36/P2000 BR BKN004 OVC033 09/08 Q1015 NOSIG
ZGHA,2012-02-21 14:00,ZGHA 211400Z 35002MPS 1400 R36/P2000 BR BKN004 OVC033 09/08 Q1014 NOSIG
ZGHA,2012-02-21 15:00,ZGHA 211500Z 34003MPS 310V010 1700 BR BKN004 OVC033 09/08 Q1014 NOSIG
ZGHA,2012-02-21 16:00,ZGHA 211600Z 30003MPS 1600 BR BKN004 OVC033 08/08 Q1014 NOSIG
ZGHA,2012-02-21 17:00,ZGHA 211700Z 34002MPS 1600 BR BKN004 OVC033 08/07 Q1014 NOSIG
ZGHA,2012-02-21 18:00,ZGHA 211800Z 35002MPS 1600 BR BKN004 OVC033 08/07 Q1013 NOSIG
ZGHA,2012-02-21 19:00,ZGHA 211900Z AUTO 32002MPS 0800 R36/1800N FG OVC002 /// 08/07 Q1012
ZGHA,2012-02-21 20:00,ZGHA 212000Z AUTO 31002MPS 0800 R36/1700D FG OVC003 /// 08/07 Q1012
ZGHA,2012-02-21 21:00,ZGHA 212100Z 29002MPS 0700 R36/1400N FG FEW003 BKN004 OVC033 08/07 Q1011 NOSIG
ZGHA,2012-02-21 22:00,ZGHA 212200Z 34002MPS 0600 R36/0800V0900N FG FEW003 BKN004 OVC033 08/07 Q1010 BECMG 1000 BR
ZGHA,2012-02-21 23:00,ZGHA 212300Z 29003MPS 0400 R36/0800V0900N FG FEW003 BKN004 OVC033 08/07 Q1011 BECMG 0900
ZGHA,2012-02-22 00:00,ZGHA 220000Z 30003MPS 0400 R36/0900V1300U -RA FG FEW003 BKN004 OVC033 08/07 Q1012 BECMG TL0100 0900
ZGHA,2012-02-22 01:00,ZGHA 220100Z 30002MPS 270V350 1200 R36/1700N -RA BR FEW003 BKN004 OVC033 08/07 Q1012 BECMG TL0200 1600 -RA BR BKN006 OVC040
ZGHA,2012-02-22 02:00,ZGHA 220200Z 32003MPS 2400 BR FEW003 BKN004 OVC033 08/07 Q1012 BECMG 3100 BR BKN006 OVC040
ZGHA,2012-02-22 03:00,ZGHA 220300Z 34002MPS 1900 -RA BR FEW003 BKN004 OVC033 08/07 Q1012 NOSIG
ZGHA,2012-02-22 04:00,ZGHA 220400Z 01002MPS 340V050 1600 -RA BR FEW003 BKN004 OVC033 09/07 Q1012 BECMG 1400
ZGHA,2012-02-22 05:00,ZGHA 220500Z 35003MPS 310V020 1000 R36/1200D -RA BR FEW003 BKN006 OVC033 08/07 Q1011 BECMG 0700 FG
ZGHA,2012-02-22 06:00,ZGHA 220600Z 36004MPS 2500 -RA BR FEW003 BKN009 OVC033 08/08 Q1011 BECMG 3200 BKN011
ZGHA,2012-02-22 07:00,ZGHA 220700Z 36003MPS 3200 -RA BR FEW003 BKN009 OVC040 08/07 Q1010 BECMG BKN011
ZGHA,2012-02-22 08:00,ZGHA 220800Z 35003MPS 3500 -RA BR FEW006 BKN012 OVC040 08/07 Q1010 NOSIG
ZGHA,2012-02-22 09:00,ZGHA 220900Z 36002MPS 3500 -RA BR FEW006 BKN012 OVC040 08/08 Q1010 NOSIG
ZGHA,2012-02-22 10:00,ZGHA 221000Z 33003MPS 2500 -RA BR FEW006 BKN012 OVC040 09/08 Q1010 NOSIG
ZGHA,2012-02-22 11:00,ZGHA 221100Z 34003MPS 2800 -RA BR FEW006 BKN012 OVC040 09/08 Q1010 NOSIG
ZGHA,2012-02-22 12:00,ZGHA 221200Z 32003MPS 2500 BR SCT005 BKN012 OVC040 09/08 Q1011 NOSIG
ZGHA,2012-02-22 13:00,ZGHA 221300Z 31002MPS 290V350 1600 BR SCT004 BKN007 OVC033 09/08 Q1012 NOSIG
ZGHA,2012-02-22 14:00,ZGHA 221400Z 32003MPS 1400 R36/P2000 BR SCT003 BKN006 OVC033 09/08 Q1013 NOSIG
ZGHA,2012-02-22 15:00,ZGHA 221500Z 32002MPS 280V340 1000 R36/1600D BR SCT003 BKN004 OVC033 09/08 Q1013 NOSIG
ZGHA,2012-02-22 16:00,ZGHA 221600Z 36004MPS 1100 R36/1800N BR SCT003 BKN004 OVC033 08/08 Q1012 NOSIG
ZGHA,2012-02-22 17:00,ZGHA 221700Z 34003MPS 1100 R36/1800U BR SCT003 BKN004 OVC033 09/07 Q1012 NOSIG
ZGHA,2012-02-22 18:00,ZGHA 221800Z 31002MPS 1000 R36/1600D -RA BR SCT003 BKN004 OVC033 09/08 Q1013 NOSIG
ZGHA,2012-02-22 19:00,ZGHA 221900Z 33002MPS 0900 R36/1400N -RA FG SCT002 BKN004 OVC033 08/08 Q1012 NOSIG
ZGHA,2012-02-22 20:00,ZGHA 222000Z 33004MPS 0800 R36/1300V1400N -RA FG SCT002 BKN004 OVC033 08/07 Q1011 NOSIG
ZGHA,2012-02-22 21:00,ZGHA 222100Z 32002MPS 270V340 0800 R36/1500U -RA FG SCT002 BKN004 OVC033 08/08 Q1012 NOSIG
ZGHA,2012-02-22 22:00,ZGHA 222200Z 30002MPS 0800 R36/1400N -RA FG SCT002 BKN004 OVC033 08/08 Q1012 BECMG 1100
ZGHA,2012-02-22 23:00,ZGHA 222300Z 35004MPS 1400 R36/P2000 -RA BR FEW003 BKN004 OVC033 08/08 Q1012 NOSIG
ZGHA,2012-02-23 00:00,ZGHA 230000Z 36003MPS 1600 -RA BR SCT003 BKN006 OVC033 09/08 Q1013 BECMG TL0130 1400 -SHRA BR BKN005 FEW033CB BKN050
ZGHA,2012-02-23 01:00,ZGHA 230100Z VRB01MPS 1400 R36/1600U -RA BR SCT003 BKN006 OVC033 09/08 Q1013 BECMG TL0130 SHRA BR BKN005 FEW033CB BKN050
ZGHA,2012-02-23 02:00,ZGHA 230200Z 31003MPS 0900 R36/1200V1400N -RA FG SCT003 BKN006 OVC033 09/08 Q1014 TEMPO BKN004 FEW033CB BKN050
ZGHA,2012-02-23 03:00,ZGHA 230300Z 34004MPS 1000 R36/1400N -RA BR SCT003 BKN006 OVC033 09/08 Q1014 BECMG 1600
ZGHA,2012-02-23 04:00,ZGHA 230400Z 01002MPS 1200 R36/1100V1400D -RA BR SCT003 BKN006 OVC033 09/08 Q1014 BECMG TL0500 1700
ZGHA,2012-02-23 05:00,ZGHA 230500Z 35004MPS 1400 R36/1700N -RA BR SCT003 BKN006 OVC040 10/08 Q1013 BECMG 1700
ZGHA,2012-02-23 06:00,ZGHA 230600Z 33004MPS 1600 -DZ BR SCT003 BKN006 OVC040 10/08 Q1013 TEMPO 1400
ZGHA,2012-02-23 07:00,ZGHA 230700Z 34004MPS 1200 R36/1200V1400N -DZ BR SCT003 BKN005 OVC040 10/09 Q1012 BECMG 1700
ZGHA,2012-02-23 08:00,ZGHA 230800Z 34004MPS 1300 R36/1200V1400N -DZ BR SCT003 BKN005 OVC040 10/09 Q1012 BECMG 1600
ZGHA,2012-02-23 09:00,ZGHA 230900Z 35004MPS 1400 R36/1700N -DZ BR SCT003 BKN005 OVC040 10/09 Q1013 BECMG 1600
ZGHA,2012-02-23 10:00,ZGHA 231000Z 33004MPS 1400 R36/P2000 -DZ BR SCT003 BKN005 OVC040 09/09 Q1013 BECMG 1600
ZGHA,2012-02-23 11:00,ZGHA 231100Z 34004MPS 1600 -DZ BR SCT003 BKN005 OVC040 09/08 Q1013 NOSIG
ZGHA,2012-02-23 12:00,ZGHA 231200Z 36004MPS 1800 -DZ BR SCT003 BKN005 OVC040 09/08 Q1014 NOSIG
ZGHA,2012-02-23 13:00,ZGHA 231300Z 36004MPS 1800 -DZ BR SCT003 BKN004 OVC033 09/08 Q1015 NOSIG
ZGHA,2012-02-23 14:00,ZGHA 231400Z 34004MPS 1600 -DZ BR SCT003 BKN004 OVC033 09/08 Q1015 BECMG 1300
ZGHA,2012-02-23 15:00,ZGHA 231500Z 33005MPS 1600 -DZ BR SCT003 BKN004 OVC033 08/07 Q1016 NOSIG
ZGHA,2012-02-23 16:00,ZGHA 231600Z 34005MPS 1600 -DZ BR SCT003 BKN004 OVC033 08/07 Q1016 NOSIG
ZGHA,2012-02-23 17:00,ZGHA 231700Z 34005MPS 1600 -RA BR BKN004 OVC033 08/07 Q1016 NOSIG
ZGHA,2012-02-23 18:00,ZGHA 231800Z 34006MPS 1600 -RA BR BKN004 OVC033 07/06 Q1016 NOSIG
ZGHA,2012-02-23 19:00,ZGHA 231900Z 34007MPS 2100 -RA BR BKN004 OVC033 07/05 Q1016 NOSIG
ZGHA,2012-02-23 20:00,ZGHA 232000Z 33005MPS 2700 BR SCT004 BKN007 OVC040 06/05 Q1016 NOSIG
ZGHA,2012-02-23 21:00,ZGHA 232100Z 33005MPS 2100 BR SCT004 BKN007 OVC040 06/05 Q1016 NOSIG
ZGHA,2012-02-23 22:00,ZGHA 232200Z 32005MPS 1200 R36/1500N -DZ BR SCT004 BKN007 OVC040 06/05 Q1017 NOSIG
ZGHA,2012-02-23 23:00,ZGHA 232300Z 33005MPS 0700 R36/1500D -RA FG SCT003 BKN006 OVC040 06/05 Q1017 BECMG 0900
ZGHA,2012-02-24 00:00,ZGHA 240000Z 32004MPS 0700 R36/1300N -RA FG SCT003 BKN006 OVC040 06/05 Q1017 BECMG FM0130 0900
ZGHA,2012-02-24 01:00,ZGHA 240100Z 32004MPS 270V350 0800 R36/1100V1400D FG SCT003 BKN004 OVC040 06/05 Q1018 NOSIG
ZGHA,2012-02-24 02:00,ZGHA 240200Z 30004MPS 1000 R36/1200V1300N BR BKN004 OVC040 06/05 Q1018 BECMG BKN006 OVC040
ZGHA,2012-02-24 03:00,ZGHA 240300Z 31004MPS 0900 R36/1100V1300N FG BKN004 OVC040 06/05 Q1018 BECMG BKN005 OVC040
ZGHA,2012-02-24 04:00,ZGHA 240400Z 31005MPS 0800 R36/1000V1100N FG BKN004 OVC040 06/05 Q1018 NOSIG
ZGHA,2012-02-24 05:00,ZGHA 240500Z 32004MPS 1000 R36/1200V1300N BR BKN005 OVC040 06/04 Q1018 NOSIG
ZGHA,2012-02-24 06:00,ZGHA 240600Z 34005MPS 300V360 1400 R36/1400N BR BKN006 OVC050 06/04 Q1017 BECMG 1700
ZGHA,2012-02-24 07:00,ZGHA 240700Z 34005MPS 1200 R36/1400N -RA BR BKN006 OVC050 05/04 Q1016 NOSIG
ZGHA,2012-02-24 08:00,ZGHA 240800Z 35006MPS 1200 R36/1400N -RA BR BKN007 OVC050 05/04 Q1016 NOSIG
ZGHA,2012-02-24 09:00,ZGHA 240900Z 34006MPS 1400 R36/1700N BR BKN007 OVC050 05/03 Q1016 BECMG 1700
ZGHA,2012-02-24 10:00,ZGHA 241000Z 35006MPS 1600 BR BKN008 OVC050 05/03 Q1017 NOSIG
ZGHA,2012-02-24 11:00,ZGHA 241100Z 34004MPS 1600 BR BKN007 OVC050 05/04 Q1018 NOSIG
ZGHA,2012-02-24 12:00,ZGHA 241200Z 34005MPS 1200 R36/P2000 BR BKN005 OVC040 05/04 Q1018 BECMG 1700
ZGHA,2012-02-24 13:00,ZGHA 241300Z 35005MPS 1400 R36/P2000 -DZ BR BKN005 OVC040 05/04 Q1019 BECMG 1700 BR
ZGHA,2012-02-24 14:00,ZGHA 241400Z 34006MPS 1400 R36/1900N -RA BR BKN004 OVC040 05/04 Q1020 BECMG 1700 BKN005 OVC040
ZGHA,2012-02-24 15:00,ZGHA 241500Z 35006MPS 1400 R36/1900N -RA BR BKN004 OVC040 05/04 Q1020 NOSIG
ZGHA,2012-02-24 16:00,ZGHA 241600Z 33006MPS 1400 R36/P2000 -RA BR BKN004 OVC040 04/03 Q1021 NOSIG
ZGHA,2012-02-24 17:00,ZGHA 241700Z 33007MPS 1500 -RA BR BKN007 OVC040 04/03 Q1021 NOSIG
ZGHA,2012-02-24 18:00,ZGHA 241800Z 34006MPS 1600 -RA BR BKN017 OVC040 04/03 Q1021 NOSIG
ZGHA,2012-02-24 19:00,ZGHA 241900Z AUTO 34005MPS 1700 BR OVC018/// 04/02 Q1020
ZGHA,2012-02-24 20:00,ZGHA 242000Z AUTO 34004MPS 1700 BR OVC015/// 04/02 Q1020
ZGHA,2012-02-24 21:00,ZGHA 242100Z 33004MPS 3000 BR BKN015 OVC040 04/02 Q1020 NOSIG
ZGHA,2012-02-24 22:00,ZGHA 242200Z 34005MPS 3000 BR BKN013 OVC040 04/02 Q1020 NOSIG
ZGHA,2012-02-24 23:00,ZGHA 242300Z 35005MPS 3000 BR SCT009 BKN013 OVC040 04/02 Q1021 NOSIG
ZGHA,2012-02-25 00:00,ZGHA 250000Z 34004MPS 3000 BR BKN015 OVC040 04/03 Q1021 NOSIG
ZGHA,2012-02-25 01:00,ZGHA 250100Z 34005MPS 2500 BR BKN012 OVC040 04/03 Q1022 NOSIG
ZGHA,2012-02-25 02:00,ZGHA 250200Z 35005MPS 2500 BR BKN011 OVC050 04/03 Q1022 NOSIG
ZGHA,2012-02-25 03:00,ZGHA 250300Z 34005MPS 2200 BR BKN011 OVC050 04/03 Q1022 BECMG TL0400 BKN009 OVC040
ZGHA,2012-02-25 04:00,ZGHA 250400Z 34005MPS 1700 -DZ BR BKN009 OVC050 04/03 Q1022 BECMG TL0500 1400
ZGHA,2012-02-25 05:00,ZGHA 250500Z 33005MPS 1200 R36/1100V1300N -RA BR FEW003 BKN009 OVC050 04/03 Q1022 NOSIG
ZGHA,2012-02-25 06:00,ZGHA 250600Z 34006MPS 1200 R36/1000V1300N -RA BR FEW003 BKN009 OVC050 04/03 Q1021 NOSIG
ZGHA,2012-02-25 07:00,ZGHA 250700Z 35006MPS 1400 R36/1400N -RA BR FEW003 BKN009 OVC050 04/03 Q1020 NOSIG
ZGHA,2012-02-25 08:00,ZGHA 250800Z 35005MPS 1700 -RA BR FEW004 BKN009 OVC050 04/03 Q1020 NOSIG
ZGHA,2012-02-25 09:00,ZGHA 250900Z 35005MPS 2200 -RA BR BKN009 OVC050 04/03 Q1021 NOSIG
ZGHA,2012-02-25 10:00,ZGHA 251000Z 34005MPS 2100 BR BKN009 OVC050 04/02 Q1021 NOSIG
ZGHA,2012-02-25 11:00,ZGHA 251100Z 35005MPS 2100 BR BKN009 OVC050 04/03 Q1022 NOSIG
ZGHA,2012-02-25 12:00,ZGHA 251200Z 35005MPS 1700 BR BKN008 OVC050 04/03 Q1023 BECMG TL1300 1400
ZGHA,2012-02-25 13:00,ZGHA 251300Z 34005MPS 1700 BR BKN008 OVC050 04/03 Q1024 BECMG TL1400 1400
ZGHA,2012-02-25 14:00,ZGHA 251400Z 35005MPS 1700 BR FEW006 BKN009 OVC050 04/03 Q1025 NOSIG
ZGHA,2012-02-25 15:00,ZGHA 251500Z 34005MPS 1800 BR BKN009 OVC050 03/02 Q1026 NOSIG
ZGHA,2012-02-25 16:00,ZGHA 251600Z 34005MPS 2200 BR BKN009 OVC050 03/01 Q1026 NOSIG
ZGHA,2012-02-25 17:00,ZGHA 251700Z 36005MPS 2500 BR BKN009 OVC050 03/01 Q1026 NOSIG
ZGHA,2012-02-25 18:00,ZGHA 251800Z 36005MPS 2700 BR BKN009 OVC050 03/01 Q1026 NOSIG
ZGHA,2012-02-25 19:00,ZGHA 251900Z AUTO 36005MPS 1700 BR BKN008/// OVC017/// 03/02 Q1026
ZGHA,2012-02-25 20:00,ZGHA 252000Z AUTO 35005MPS 1600 -SHRA BR SCT008/// BKN018/// BKN031/// 03/01 Q1025
ZGHA,2012-02-25 21:00,ZGHA 252100Z 36004MPS 2100 BR BKN009 OVC050 03/01 Q1025 NOSIG
ZGHA,2012-02-25 22:00,ZGHA 252200Z 34003MPS 2300 BR BKN009 OVC050 03/01 Q1025 NOSIG
ZGHA,2012-02-25 23:00,ZGHA 252300Z 35004MPS 2200 BR BKN009 OVC050 03/01 Q1026 NOSIG
ZGHA,2012-02-26 00:00,ZGHA 260000Z 34005MPS 2500 BR BKN009 OVC050 03/01 Q1026 NOSIG
ZGHA,2012-02-26 01:00,ZGHA 260100Z 35005MPS 4000 BR BKN009 OVC050 03/01 Q1027 NOSIG
ZGHA,2012-02-26 02:00,ZGHA 260200Z 36005MPS 4500 BR BKN012 OVC050 04/01 Q1027 NOSIG
ZGHA,2012-02-26 03:00,ZGHA 260300Z 36004MPS 5000 BR BKN020 OVC050 04/01 Q1027 NOSIG
ZGHA,2012-02-26 04:00,ZGHA 260400Z 35004MPS 6000 BKN020 05/01 Q1026 NOSIG
ZGHA,2012-02-26 05:00,ZGHA 260500Z 33005MPS 6000 SCT015 BKN020 04/01 Q1026 NOSIG
ZGHA,2012-02-26 06:00,ZGHA 260600Z 32005MPS 6000 SCT015 BKN020 04/01 Q1025 NOSIG
ZGHA,2012-02-26 07:00,ZGHA 260700Z 34004MPS 6000 FEW015 BKN020 OVC050 04/01 Q1024 NOSIG
ZGHA,2012-02-26 08:00,ZGHA 260800Z 35004MPS 6000 FEW015 BKN020 OVC050 04/01 Q1024 NOSIG
ZGHA,2012-02-26 09:00,ZGHA 260900Z 35004MPS 5000 BR BKN020 OVC050 04/01 Q1024 NOSIG
ZGHA,2012-02-26 10:00,ZGHA 261000Z 36003MPS 4200 BR BKN020 OVC050 04/01 Q1025 NOSIG
ZGHA,2012-02-26 11:00,ZGHA 261100Z 36003MPS 4000 BR BKN026 OVC050 04/01 Q1025 NOSIG
ZGHA,2012-02-26 12:00,ZGHA 261200Z 01002MPS 4000 BR BKN022 OVC050 04/02 Q1026 NOSIG
ZGHA,2012-02-26 13:00,ZGHA 261300Z 01002MPS 4000 BR BKN020 OVC050 04/02 Q1027 NOSIG
ZGHA,2012-02-26 14:00,ZGHA 261400Z 01003MPS 4000 BR BKN020 04/01 Q1027 NOSIG
ZGHA,2012-02-26 15:00,ZGHA 261500Z 36003MPS 3500 BR SCT030 04/01 Q1027 NOSIG
ZGHA,2012-02-26 16:00,ZGHA 261600Z 36004MPS 4000 BR SCT030 04/01 Q1028 NOSIG
ZGHA,2012-02-26 17:00,ZGHA 261700Z 36002MPS 3000 BR SCT030 03/02 Q1027 NOSIG
ZGHA,2012-02-26 18:00,ZGHA 261800Z 36003MPS 2800 BR SCT030 03/01 Q1027 NOSIG
ZGHA,2012-02-26 19:00,ZGHA 261900Z AUTO 02001MPS 2800 BR BKN120/// 03/01 Q1026
ZGHA,2012-02-26 20:00,ZGHA 262000Z AUTO 02001MPS 2600 BR BKN130/// 03/01 Q1026
ZGHA,2012-02-26 21:00,ZGHA 262100Z 36002MPS 2400 BR NSC 03/01 Q1025 NOSIG
ZGHA,2012-02-26 22:00,ZGHA 262200Z 36002MPS 2400 BR SCT040 03/01 Q1025 NOSIG
ZGHA,2012-02-26 23:00,ZGHA 262300Z 36002MPS 2700 BR FEW040 03/01 Q1025 BECMG TL0000 3500 BR
ZGHA,2012-02-27 00:00,ZGHA 270000Z 36003MPS 2800 BR NSC 03/02 Q1026 BECMG 0100 3500 BR
ZGHA,2012-02-27 01:00,ZGHA 270100Z 01002MPS 340V050 4000 BR NSC 04/02 Q1026 NOSIG
ZGHA,2012-02-27 02:00,ZGHA 270200Z 03002MPS 350V080 6000 NSC 05/01 Q1026 NOSIG
ZGHA,2012-02-27 03:00,ZGHA 270300Z 04002MPS 320V110 8000 FEW015 06/00 Q1025 NOSIG
ZGHA,2012-02-27 04:00,ZGHA 270400Z 03002MPS 330V080 9000 SCT015 07/M00 Q1024 NOSIG
ZGHA,2012-02-27 05:00,ZGHA 270500Z 31002MPS 280V010 9999 SCT030 07/00 Q1023 NOSIG
ZGHA,2012-02-27 06:00,ZGHA 270600Z 34002MPS 280V030 9999 SCT030 07/M00 Q1021 NOSIG
ZGHA,2012-02-27 07:00,ZGHA 270700Z 35003MPS 300V010 9999 SCT033 07/M00 Q1020 NOSIG
ZGHA,2012-02-27 08:00,ZGHA 270800Z 36002MPS 330V030 9999 SCT033 07/M00 Q1020 NOSIG
ZGHA,2012-02-27 09:00,ZGHA 270900Z 36003MPS 9999 SCT033 06/00 Q1020 NOSIG
ZGHA,2012-02-27 10:00,ZGHA 271000Z 36003MPS 9999 SCT033 06/01 Q1020 NOSIG
ZGHA,2012-02-27 11:00,ZGHA 271100Z 30003MPS 9999 SCT033 06/02 Q1020 NOSIG
ZGHA,2012-02-27 12:00,ZGHA 271200Z 35004MPS 6000 FEW040 05/01 Q1020 NOSIG
ZGHA,2012-02-27 13:00,ZGHA 271300Z 33004MPS 6000 FEW040 05/01 Q1021 NOSIG
ZGHA,2012-02-27 14:00,ZGHA 271400Z 33004MPS 5000 BR SCT040 05/01 Q1020 NOSIG
ZGHA,2012-02-27 15:00,ZGHA 271500Z 30002MPS 280V340 4000 BR SCT030 05/01 Q1020 NOSIG
ZGHA,2012-02-27 16:00,ZGHA 271600Z 32003MPS 290V350 4000 BR SCT030 04/01 Q1020 NOSIG
ZGHA,2012-02-27 17:00,ZGHA 271700Z 29002MPS 260V360 4000 BR SCT030 04/01 Q1021 NOSIG
ZGHA,2012-02-27 18:00,ZGHA 271800Z 31003MPS 4000 BR SCT030 04/01 Q1020 NOSIG
ZGHA,2012-02-27 19:00,ZGHA 271900Z 32003MPS 4000 BR SCT030 04/01 Q1020 NOSIG
ZGHA,2012-02-27 20:00,ZGHA 272000Z 30002MPS 4000 BR SCT030 04/01 Q1019 NOSIG
ZGHA,2012-02-27 21:00,ZGHA 272100Z VRB01MPS 4000 BR SCT030 04/01 Q1019 NOSIG
ZGHA,2012-02-27 22:00,ZGHA 272200Z VRB01MPS 3000 BR SCT030 04/01 Q1020 NOSIG
ZGHA,2012-02-27 23:00,ZGHA 272300Z 31001MPS 3000 BR SCT040 04/02 Q1020 NOSIG
ZGHA,2012-02-28 00:00,ZGHA 280000Z 32002MPS 300V360 2500 BR NSC 04/02 Q1020 NOSIG
ZGHA,2012-02-28 01:00,ZGHA 280100Z VRB01MPS 3000 BR NSC 05/01 Q1020 NOSIG
ZGHA,2012-02-28 02:00,ZGHA 280200Z VRB01MPS 4500 BR NSC 06/01 Q1020 NOSIG
ZGHA,2012-02-28 03:00,ZGHA 280300Z VRB01MPS 6000 NSC 08/00 Q1020 NOSIG
ZGHA,2012-02-28 04:00,ZGHA 280400Z 33002MPS 250V020 7000 NSC 10/01 Q1019 NOSIG
ZGHA,2012-02-28 05:00,ZGHA 280500Z VRB01MPS 9000 FEW040 10/01 Q1018 NOSIG
ZGHA,2012-02-28 06:00,ZGHA 280600Z 06002MPS 020V100 8000 BKN040 10/01 Q1016 NOSIG
ZGHA,2012-02-28 07:00,ZGHA 280700Z VRB02MPS 8000 BKN040 10/02 Q1016 NOSIG
ZGHA,2012-02-28 08:00,ZGHA 280800Z 08002MPS 020V120 8000 SCT030 OVC040 10/02 Q1015 NOSIG
ZGHA,2012-02-28 09:00,ZGHA 280900Z 08002MPS 050V130 9999 OVC040 10/01 Q1015 NOSIG
ZGHA,2012-02-28 10:00,ZGHA 281000Z 11003MPS 070V150 9999 OVC040 10/02 Q1015 NOSIG
ZGHA,2012-02-28 11:00,ZGHA 281100Z 14003MPS 9999 OVC040 09/02 Q1016 NOSIG
ZGHA,2012-02-28 12:00,ZGHA 281200Z 12003MPS 090V150 9000 OVC050 09/02 Q1017 NOSIG
ZGHA,2012-02-28 13:00,ZGHA 281300Z 08003MPS 050V120 8000 NSC 08/02 Q1016 NOSIG
ZGHA,2012-02-28 14:00,ZGHA 281400Z 11002MPS 080V140 7000 SCT050 09/02 Q1018 NOSIG
ZGHA,2012-02-28 15:00,ZGHA 281500Z 09003MPS 4500 -SHRA BR BKN007 FEW040CB BKN040 07/04 Q1017 NOSIG
ZGHA,2012-02-28 16:00,ZGHA 281600Z 27002MPS 250V320 4000 BR BKN007 OVC040 07/05 Q1018 NOSIG
ZGHA,2012-02-28 17:00,ZGHA 281700Z VRB01MPS 3000 -RA BR BKN007 OVC040 07/05 Q1018 NOSIG
ZGHA,2012-02-28 18:00,ZGHA 281800Z 24001MPS 2700 BR BKN007 OVC040 06/05 Q1018 NOSIG
ZGHA,2012-02-28 19:00,ZGHA 281900Z AUTO 00000MPS 1600 BR FEW012/// OVC016/// 06/05 Q1017
ZGHA,2012-02-28 20:00,ZGHA 282000Z AUTO VRB01MPS 1200 R36/P2000 DZ BR VV021 06/05 Q1017
ZGHA,2012-02-28 21:00,ZGHA 282100Z 16001MPS 1800 -RA BR FEW003 BKN007 OVC040 06/05 Q1017 NOSIG
ZGHA,2012-02-28 22:00,ZGHA 282200Z VRB01MPS 2200 -RA BR BKN007 OVC040 05/05 Q1017 NOSIG
ZGHA,2012-02-28 23:00,ZGHA 282300Z 00000MPS 1200 R36/P2000 -RA BR BKN007 OVC040 05/05 Q1017 BECMG TL0030 1600
ZGHA,2012-02-29 00:00,ZGHA 290000Z VRB01MPS 1200 R36/1600N -RA BR BKN007 OVC040 05/05 Q1017 BECMG TL0130 1600
ZGHA,2012-02-29 01:00,ZGHA 290100Z 26002MPS 240V320 0900 R36/1300U -RA FG SCT003 BKN007 OVC040 06/05 Q1018 BECMG 1600
ZGHA,2012-02-29 02:00,ZGHA 290200Z 26002MPS 240V300 0900 R36/1300V1400N -RA FG SCT003 BKN007 OVC040 06/05 Q1019 NOSIG
ZGHA,2012-02-29 03:00,ZGHA 290300Z 28002MPS 1200 R36/1500N -RA BR SCT003 BKN007 OVC040 06/05 Q1019 BECMG 1600
ZGHA,2012-02-29 04:00,ZGHA 290400Z 30003MPS 270V340 0900 R36/1200V1400N -RA FG SCT003 BKN006 OVC040 06/05 Q1019 NOSIG
ZGHA,2012-02-29 05:00,ZGHA 290500Z 29002MPS 270V330 1200 R36/1100V1300N BR SCT003 BKN007 OVC040 06/05 Q1018 NOSIG
ZGHA,2012-02-29 06:00,ZGHA 290600Z 30003MPS 1300 R36/1200V1400N BR SCT003 BKN007 OVC040 06/05 Q1017 NOSIG
ZGHA,2012-02-29 07:00,ZGHA 290700Z 28002MPS 220V340 1700 BR SCT005 BKN008 OVC040 07/05 Q1017 NOSIG
ZGHA,2012-02-29 08:00,ZGHA 290800Z VRB01MPS 2100 BR FEW005 BKN009 OVC050 07/04 Q1016 NOSIG
ZGHA,2012-02-29 09:00,ZGHA 290900Z 28002MPS 1700 BR FEW006 BKN009 OVC050 07/05 Q1017 BECMG 1400
ZGHA,2012-02-29 10:00,ZGHA 291000Z 28002MPS 250V330 1800 BR FEW006 BKN009 OVC050 07/05 Q1017 NOSIG
ZGHA,2012-02-29 11:00,ZGHA 291100Z VRB01MPS 2100 BR BKN011 OVC050 07/05 Q1017 NOSIG
ZGHA,2012-02-29 12:00,ZGHA 291200Z VRB01MPS 2500 BR BKN011 OVC050 07/05 Q1018 NOSIG
ZGHA,2012-02-29 13:00,ZGHA 291300Z VRB01MPS 2500 BR NSC 06/04 Q1019 NOSIG
ZGHA,2012-02-29 14:00,ZGHA 291400Z VRB01MPS 2500 BR SCT023 06/04 Q1019 NOSIG
ZGHA,2012-02-29 15:00,ZGHA 291500Z VRB01MPS 2100 BR SCT023 06/04 Q1020 NOSIG
ZGHA,2012-02-29 16:00,ZGHA 291600Z VRB01MPS 1800 BR SCT023 06/05 Q1020 BECMG 1400
ZGHA,2012-02-29 17:00,ZGHA 291700Z 34002MPS 310V020 1800 BR SCT020 06/05 Q1019 NOSIG
ZGHA,2012-02-29 18:00,ZGHA 291800Z VRB01MPS 1800 BR SCT020 06/05 Q1019 NOSIG
ZGHA,2012-02-29 19:00,ZGHA 291900Z AUTO 00000MPS 1100 R36/P2000 BR OVC008/// 06/05 Q1019
ZGHA,2012-02-29 20:00,ZGHA 292000Z AUTO 00000MPS 1000 R36/P2000 FG BKN021/// 06/05 Q1018
ZGHA,2012-02-29 21:00,ZGHA 292100Z VRB01MPS 1600 BR SCT020 06/05 Q1018 NOSIG
ZGHA,2012-02-29 22:00,ZGHA 292200Z 34002MPS 1600 BR SCT020 06/05 Q1018 NOSIG
ZGHA,2012-02-29 23:00,ZGHA 292300Z VRB01MPS 1400 R36/P2000 BR SCT030 06/05 Q1018 BECMG 1700
ZGHA,2012-03-01 00:00,ZGHA 010000Z 34002MPS 1200 R36/1800N BR FEW004 SCT030 06/05 Q1019 NOSIG
ZGHA,2012-03-01 01:00,ZGHA 010100Z VRB01MPS 1600 BR BKN017 OVC050 06/05 Q1019 NOSIG
ZGHA,2012-03-01 02:00,ZGHA 010200Z 36002MPS 1900 BR SCT015 OVC050 06/05 Q1019 NOSIG
ZGHA,2012-03-01 03:00,ZGHA 010300Z 34003MPS 1800 -RA BR FEW007 BKN020 OVC050 07/05 Q1019 NOSIG
ZGHA,2012-03-01 04:00,ZGHA 010400Z 32003MPS 1300 R36/1400N -RA BR BKN004 OVC040 07/05 Q1018 BECMG TL0430 1600 -RA BR
ZGHA,2012-03-01 05:00,ZGHA 010500Z 33003MPS 1600 -RA BR BKN004 OVC040 07/06 Q1017 NOSIG
ZGHA,2012-03-01 06:00,ZGHA 010600Z 34002MPS 280V020 2200 -RA BR BKN006 OVC040 07/05 Q1016 NOSIG
ZGHA,2012-03-01 07:00,ZGHA 010700Z 01002MPS 350V060 3500 BR BKN007 OVC050 07/05 Q1016 NOSIG
ZGHA,2012-03-01 08:00,ZGHA 010800Z VRB01MPS 3500 BR BKN011 OVC050 07/05 Q1015 NOSIG
ZGHA,2012-03-01 09:00,ZGHA 010900Z 00000MPS 4200 BR BKN015 OVC050 07/05 Q1015 NOSIG
ZGHA,2012-03-01 10:00,ZGHA 011000Z 30002MPS 2000 -RA BR BKN009 OVC050 07/06 Q1016 NOSIG
ZGHA,2012-03-01 11:00,ZGHA 011100Z VRB01MPS 2000 -DZ BR SCT009 BKN020 OVC050 07/06 Q1016 NOSIG
ZGHA,2012-03-01 12:00,ZGHA 011200Z 31002MPS 270V340 1800 -RA BR SCT012 BKN020 OVC050 07/06 Q1017 BECMG BKN011 OVC050
ZGHA,2012-03-01 13:00,ZGHA 011300Z 34003MPS 300V360 1800 -RA BR SCT007 BKN020 OVC050 07/06 Q1018 BECMG BKN007 OVC050
ZGHA,2012-03-01 14:00,ZGHA 011400Z 02002MPS 2400 -RA BR OVC040 07/05 Q1018 NOSIG
ZGHA,2012-03-01 15:00,ZGHA 011500Z 34003MPS 2600 -RA BR OVC040 07/05 Q1019 NOSIG
ZGHA,2012-03-01 16:00,ZGHA 011600Z 33002MPS 290V360 3000 -RA BR OVC040 07/05 Q1019 NOSIG
ZGHA,2012-03-01 17:00,ZGHA 011700Z 35003MPS 3000 BR OVC040 07/05 Q1018 BECMG TL1830 1700 -RA BR BKN011 OVC040
ZGHA,2012-03-01 18:00,ZGHA 011800Z 35004MPS 3000 BR OVC033 07/05 Q1019 BECMG TL1900 2000 -RA BR BKN011 OVC033
ZGHA,2012-03-01 19:00,ZGHA 011900Z AUTO 35004MPS 2400 BR BKN033/// OVC055/// 06/04 Q1019
ZGHA,2012-03-01 20:00,ZGHA 012000Z AUTO 35004MPS 2200 -RA BR FEW009/// BKN036/// BKN058/// 06/04 Q1019
ZGHA,2012-03-01 21:00,ZGHA 012100Z 33004MPS 2600 BR SCT004 OVC033 06/05 Q1019 BECMG TL2130 -TSRA BKN006 FEW033CB BKN050
ZGHA,2012-03-01 22:00,ZGHA 012200Z 34004MPS 2000 -RA BR SCT004 OVC033 06/05 Q1020 BECMG TL2300 BKN005 OVC033
ZGHA,2012-03-01 23:00,ZGHA 012300Z 01003MPS 340V050 1400 R36/P2000 -RA BR BKN005 OVC040 06/05 Q1019 BECMG TL2330 -TSRA BKN004 FEW033CB BKN040
ZGHA,2012-03-02 00:00,ZGHA 020000Z 32005MPS 0900 R36/1800U -TSRA FG BKN004 FEW040CB BKN040 06/05 Q1022 BECMG TL0040 -RA BR BKN004 OVC040
ZGHA,2012-03-02 01:00,ZGHA 020100Z 35004MPS 0900 R36/1100V1400N -TSRA FG BKN004 FEW040CB BKN040 06/05 Q1022 BECMG FM0130 -SHRA
ZGHA,2012-03-02 02:00,ZGHA 020200Z 06002MPS 340V100 1200 R36/1100V1200N -SHRA BR BKN004 FEW040CB BKN040 06/05 Q1021 RETS NOSIG
ZGHA,2012-03-02 03:00,ZGHA 020300Z 33005MPS 1400 R36/1500N -SHRA BR BKN004 BKN020 OVC040 06/05 Q1021 BECMG TL0330 1700
ZGHA,2012-03-02 04:00,ZGHA 020400Z 36004MPS 1400 R36/1200V1400N -RA BR BKN004 BKN020 OVC040 06/05 Q1021 BECMG -TSRA BR BKN004 FEW040CB BKN040
ZGHA,2012-03-02 05:00,ZGHA 020500Z 35003MPS 1700 BR BKN004 OVC040 06/05 Q1020 NOSIG
ZGHA,2012-03-02 06:00,ZGHA 020600Z 35003MPS 320V020 1200 R36/1400N -RA BR BKN004 OVC040 06/05 Q1020 NOSIG
ZGHA,2012-03-02 07:00,ZGHA 020700Z 35004MPS 1200 R36/1000V1300N -RA BR BKN004 OVC040 06/05 Q1019 NOSIG
ZGHA,2012-03-02 08:00,ZGHA 020800Z 34004MPS 1400 R36/1500D -RA BR BKN004 OVC040 06/05 Q1019 NOSIG
ZGHA,2012-03-02 09:00,ZGHA 020900Z 34004MPS 1200 R36/1400N -RA BR BKN004 OVC040 06/05 Q1019 NOSIG
ZGHA,2012-03-02 10:00,ZGHA 021000Z 36003MPS 1600 BR SCT004 BKN020 OVC040 06/05 Q1019 NOSIG
ZGHA,2012-03-02 11:00,ZGHA 021100Z 01002MPS 1700 BR SCT006 BKN020 OVC040 06/05 Q1019 BECMG TL1200 BKN007 OVC040
ZGHA,2012-03-02 12:00,ZGHA 021200Z 02002MPS 340V060 1600 -RA BR SCT006 BKN020 OVC040 06/05 Q1019 BECMG TL1300 BKN011 OVC040
ZGHA,2012-03-02 13:00,ZGHA 021300Z 36003MPS 340V040 1600 BR SCT006 BKN020 OVC040 06/05 Q1020 BECMG TL1400 1300 -RA BR BKN011 OVC040
ZGHA,2012-03-02 14:00,ZGHA 021400Z 33002MPS 300V100 1300 R36/P2000 -TSRA BR SCT006 FEW040CB BKN040 06/05 Q1020 BECMG TL1430 -SHRA BR
ZGHA,2012-03-02 15:00,ZGHA 021500Z 30004MPS 1200 R36/P2000 -TSRA BR SCT006 FEW040CB BKN040 06/05 Q1019 NOSIG
ZGHA,2012-03-02 16:00,ZGHA 021600Z 35003MPS 310V050 1200 R36/P2000 -TSRA BR BKN006 FEW040CB BKN040 06/05 Q1019 NOSIG
ZGHA,2012-03-02 17:00,ZGHA 021700Z 33002MPS 280V090 1000 R36/P2000 TSRA BR BKN006 FEW033CB BKN033 06/05 Q1020 BECMG TL1730 -TSRA BR
ZGHA,2012-03-02 18:00,ZGHA 021800Z 34003MPS 1000 R36/P2000 -TSRA BR BKN006 FEW033CB BKN033 06/05 Q1019 RESHRA NOSIG
ZGHA,2012-03-02 19:00,ZGHA 021900Z AUTO 01002MPS 1200 R36/P2000 BR FEW003/// OVC023/// 06/05 Q1018
ZGHA,2012-03-02 20:00,ZGHA 022000Z AUTO 36003MPS 1100 R36/1900U +RA BR BKN003/// OVC008/// 06/05 Q1018
ZGHA,2012-03-02 21:00,ZGHA 022100Z 02002MPS 1400 R36/P2000 -RA BR BKN006 BKN020 OVC040 06/05 Q1018 RETS NOSIG
ZGHA,2012-03-02 22:00,ZGHA 022200Z 34003MPS 1400 R36/P2000 BR BKN006 BKN020 OVC040 06/05 Q1018 NOSIG
ZGHA,2012-03-02 23:00,ZGHA 022300Z 34003MPS 1600 BR BKN006 BKN020 OVC040 06/05 Q1019 NOSIG
ZGHA,2012-03-03 00:00,ZGHA 030000Z VRB01MPS 2400 BR BKN006 BKN020 OVC040 06/05 Q1019 NOSIG
ZGHA,2012-03-03 01:00,ZGHA 030100Z 32002MPS 290V020 1400 R36/P2000 -TSRA BR BKN005 FEW040CB BKN040 06/05 Q1021 BECMG -SHRA
ZGHA,2012-03-03 02:00,ZGHA 030200Z 31003MPS 280V340 2200 -SHRA BR BKN005 FEW040CB BKN040 06/05 Q1020 RETS NOSIG
ZGHA,2012-03-03 03:00,ZGHA 030300Z 30003MPS 280V340 2200 -SHRA BR BKN005 FEW040CB BKN040 06/06 Q1021 RETS NOSIG
ZGHA,2012-03-03 04:00,ZGHA 030400Z 35003MPS 3200 BR BKN006 OVC040 07/05 Q1020 NOSIG
ZGHA,2012-03-03 05:00,ZGHA 030500Z 30003MPS 2500 -RA BR BKN005 OVC040 07/05 Q1019 NOSIG
ZGHA,2012-03-03 06:00,ZGHA 030600Z 29003MPS 250V330 1800 -SHRA BR BKN005 FEW040CB BKN040 06/05 Q1019 BECMG AT0630 -TSRA
ZGHA,2012-03-03 07:00,ZGHA 030700Z VRB02MPS 2500 -TSRA BR BKN005 FEW040CB BKN040 06/05 Q1016 NOSIG
ZGHA,2012-03-03 08:00,ZGHA 030800Z 30003MPS 3500 -RA BR BKN005 OVC040 06/05 Q1017 RETS NOSIG
ZGHA,2012-03-03 09:00,ZGHA 030900Z 31004MPS 4000 -RA BR BKN005 OVC040 06/05 Q1017 NOSIG
ZGHA,2012-03-03 10:00,ZGHA 031000Z 33003MPS 6000 -RA BKN005 OVC040 06/05 Q1018 NOSIG
ZGHA,2012-03-03 11:00,ZGHA 031100Z 33002MPS 290V020 5000 -RA BR BKN005 OVC040 06/05 Q1018 BECMG TL1330 2500 -TSRA BR BKN004 FEW040CB BKN040
ZGHA,2012-03-03 12:00,ZGHA 031200Z 30003MPS 280V350 2600 -TSRA BR FEW003 BKN006 FEW040CB BKN040 06/05 Q1018 BECMG TL1300 -SHRA BR
ZGHA,2012-03-03 13:00,ZGHA 031300Z 32003MPS 290V360 4000 -RA BR FEW003 BKN006 OVC040 06/05 Q1019 RETS NOSIG
ZGHA,2012-03-03 14:00,ZGHA 031400Z 34003MPS 2500 -RA BR SCT003 BKN006 OVC040 06/05 Q1019 NOSIG
ZGHA,2012-03-03 15:00,ZGHA 031500Z 33003MPS 2200 -RA BR SCT003 BKN006 OVC040 06/05 Q1019 BECMG TL1630 1400
ZGHA,2012-03-03 16:00,ZGHA 031600Z 02002MPS 290V060 2300 -RA BR SCT003 BKN005 OVC040 06/05 Q1018 BECMG TL1700 1400
ZGHA,2012-03-03 17:00,ZGHA 031700Z 03002MPS 340V070 4000 -RA BR SCT003 BKN005 OVC040 06/05 Q1017 BECMG TL1830 1400 TSRA BR BKN004 SCT040CB BKN040
ZGHA,2012-03-03 18:00,ZGHA 031800Z 31003MPS 290V360 4000 -RA BR SCT003 BKN006 OVC040 06/05 Q1018 NOSIG
ZGHA,2012-03-03 19:00,ZGHA 031900Z 31002MPS 4500 -RA BR SCT004 BKN007 OVC040 06/05 Q1018 NOSIG
ZGHA,2012-03-03 20:00,ZGHA 032000Z 33004MPS 300V360 5000 -RA BR SCT004 BKN007 OVC040 06/05 Q1017 NOSIG
ZGHA,2012-03-03 21:00,ZGHA 032100Z 32003MPS 290V010 2500 -SHRA BR SCT004 BKN007 FEW040CB BKN040 06/05 Q1016 NOSIG
ZGHA,2012-03-03 22:00,ZGHA 032200Z 31003MPS 2000 -SHRA BR SCT004 BKN007 FEW040CB BKN040 06/05 Q1017 NOSIG
ZGHA,2012-03-03 23:00,ZGHA 032300Z 01003MPS 3000 -RA BR SCT003 BKN007 OVC040 05/05 Q1017 NOSIG
ZGHA,2012-03-04 00:00,ZGHA 040000Z 36003MPS 330V030 5000 -RA BR SCT003 BKN006 OVC040 05/05 Q1017 NOSIG
ZGHA,2012-03-04 01:00,ZGHA 040100Z 32002MPS 270V350 5000 -SHRA BR BKN005 FEW040CB BKN040 06/05 Q1019 BECMG BKN006 OVC040
ZGHA,2012-03-04 02:00,ZGHA 040200Z 31002MPS 270V350 5000 -RA BR BKN005 OVC040 06/05 Q1019 NOSIG
ZGHA,2012-03-04 03:00,ZGHA 040300Z 35003MPS 310V030 7000 -RA BKN005 OVC040 06/05 Q1018 NOSIG
ZGHA,2012-03-04 04:00,ZGHA 040400Z 31004MPS 7000 -RA BKN005 OVC040 06/05 Q1017 NOSIG
ZGHA,2012-03-04 05:00,ZGHA 040500Z 31004MPS 5000 -SHRA BR BKN005 OVC040 06/05 Q1017 BECMG 2500 -SHRA BR
ZGHA,2012-03-04 06:00,ZGHA 040600Z 32004MPS 2700 -RA BR FEW003 BKN005 OVC040 06/05 Q1015 NOSIG
ZGHA,2012-03-04 07:00,ZGHA 040700Z 30004MPS 2100 -RA BR FEW003 BKN005 OVC040 06/05 Q1015 NOSIG
ZGHA,2012-03-04 08:00,ZGHA 040800Z 33003MPS 280V360 3000 -RA BR BKN004 OVC040 05/05 Q1014 BECMG 2500 -RA BR
ZGHA,2012-03-04 09:00,ZGHA 040900Z 31002MPS 260V020 4000 -SHRA BR BKN004 OVC040 05/04 Q1013 NOSIG
ZGHA,2012-03-04 10:00,ZGHA 041000Z 04002MPS 320V100 5000 -RA BR BKN004 OVC040 05/04 Q1013 NOSIG
ZGHA,2012-03-04 11:00,ZGHA 041100Z 30003MPS 6000 -RA BKN006 OVC040 05/04 Q1014 NOSIG
ZGHA,2012-03-04 12:00,ZGHA 041200Z 30004MPS 5000 -RA BR BKN006 OVC040 05/04 Q1015 NOSIG
ZGHA,2012-03-04 13:00,ZGHA 041300Z 30004MPS 270V330 3000 -SHRA BR BKN005 FEW040CB BKN040 05/04 Q1016 NOSIG
ZGHA,2012-03-04 14:00,ZGHA 041400Z 02002MPS 4000 -RA BR BKN005 OVC040 04/04 Q1014 NOSIG
ZGHA,2012-03-04 15:00,ZGHA 041500Z 29004MPS 4000 -RA BR BKN004 OVC040 05/04 Q1016 NOSIG
ZGHA,2012-03-04 16:00,ZGHA 041600Z 34004MPS 300V010 6000 -RA BKN004 OVC040 05/04 Q1015 NOSIG
ZGHA,2012-03-04 17:00,ZGHA 041700Z 33003MPS 290V360 4000 -TSRA BR BKN004 FEW040CB BKN040 05/04 Q1014 NOSIG
ZGHA,2012-03-04 18:00,ZGHA 041800Z AUTO 34003MPS 4100 -RA BKN005/// OVC011/// 04/04 Q1014
ZGHA,2012-03-04 19:00,ZGHA 041900Z AUTO 36004MPS 2500 -RA BR OVC004/// 04/04 Q1013
ZGHA,2012-03-04 20:00,ZGHA 042000Z AUTO 34003MPS 2000 SHRA BR OVC004/// 04/04 Q1013
ZGHA,2012-03-04 21:00,ZGHA 042100Z 33004MPS 1700 -RA BR BKN005 OVC040 04/04 Q1012 NOSIG
ZGHA,2012-03-04 22:00,ZGHA 042200Z 31004MPS 1200 R36/1500N BR BKN006 OVC050 04/04 Q1014 NOSIG
ZGHA,2012-03-04 23:00,ZGHA 042300Z 33004MPS 0900 R36/1800N -RA FG FEW003 BKN006 OVC050 04/03 Q1014 NOSIG
ZGHA,2012-03-05 00:00,ZGHA 050000Z 32004MPS 0900 R36/1600N -RA FG FEW003 BKN006 OVC050 04/04 Q1015 BECMG 1700 BR -RA
ZGHA,2012-03-05 01:00,ZGHA 050100Z 32004MPS 1000 R36/1400N -RA BR FEW003 BKN006 OVC050 04/03 Q1016 NOSIG
ZGHA,2012-03-05 02:00,ZGHA 050200Z 34004MPS 1400 R36/1400N BR FEW003 BKN006 OVC050 04/03 Q1016 BECMG 1700
ZGHA,2012-03-05 03:00,ZGHA 050300Z 33003MPS 1600 R36/1200V1400N BR BKN006 OVC050 05/04 Q1016 NOSIG
ZGHA,2012-03-05 04:00,ZGHA 050400Z 34003MPS 300V360 2100 BR BKN007 OVC050 06/04 Q1015 NOSIG
ZGHA,2012-03-05 05:00,ZGHA 050500Z 30003MPS 1900 BR BKN007 OVC050 06/04 Q1014 NOSIG
ZGHA,2012-03-05 06:00,ZGHA 050600Z 32003MPS 290V350 2900 BR BKN009 OVC050 07/04 Q1014 BECMG 3500 BKN011 OVC050
ZGHA,2012-03-05 07:00,ZGHA 050700Z 30002MPS 280V340 2900 BR SCT009 BKN011 OVC050 06/04 Q1014 BECMG TL0800 3500
ZGHA,2012-03-05 08:00,ZGHA 050800Z VRB01MPS 3000 BR BKN011 OVC050 07/04 Q1013 NOSIG
ZGHA,2012-03-05 09:00,ZGHA 050900Z 30002MPS 270V330 4000 BR SCT013 BKN020 OVC050 07/04 Q1013 NOSIG
ZGHA,2012-03-05 10:00,ZGHA 051000Z 01002MPS 4000 BR BKN015 OVC050 07/04 Q1013 NOSIG
ZGHA,2012-03-05 11:00,ZGHA 051100Z 03002MPS 340V080 4000 BR BKN013 OVC050 07/04 Q1013 NOSIG
ZGHA,2012-03-05 12:00,ZGHA 051200Z 33003MPS 4000 BR BKN013 OVC050 07/04 Q1014 NOSIG
ZGHA,2012-03-05 13:00,ZGHA 051300Z 31003MPS 4000 BR BKN013 OVC050 07/04 Q1016 NOSIG
ZGHA,2012-03-05 14:00,ZGHA 051400Z 01003MPS 4500 BR BKN013 OVC050 07/04 Q1016 NOSIG
ZGHA,2012-03-05 15:00,ZGHA 051500Z 02002MPS 4000 BR BKN013 OVC050 07/04 Q1017 NOSIG
ZGHA,2012-03-05 16:00,ZGHA 051600Z VRB01MPS 3000 BR BKN013 OVC050 06/05 Q1016 NOSIG
ZGHA,2012-03-05 17:00,ZGHA 051700Z 01002MPS 3000 BR BKN013 OVC050 06/05 Q1015 BECMG 2500
ZGHA,2012-03-05 18:00,ZGHA 051800Z 35001MPS 3500 BR BKN013 OVC050 07/05 Q1015 NOSIG
ZGHA,2012-03-05 19:00,ZGHA 051900Z VRB01MPS 3500 BR BKN013 OVC050 06/05 Q1015 NOSIG
ZGHA,2012-03-05 20:00,ZGHA 052000Z 33002MPS 3000 BR BKN013 OVC050 06/05 Q1015 NOSIG
ZGHA,2012-03-05 21:00,ZGHA 052100Z 36002MPS 3000 BR BKN013 OVC050 06/05 Q1015 BECMG 2500
ZGHA,2012-03-05 22:00,ZGHA 052200Z 02003MPS 360V060 2500 BR BKN013 OVC050 06/05 Q1014 NOSIG
ZGHA,2012-03-05 23:00,ZGHA 052300Z 36002MPS 2500 BR BKN013 OVC050 06/05 Q1016 NOSIG
ZGHA,2012-03-06 00:00,ZGHA 060000Z 01002MPS 330V040 3000 BR BKN013 OVC050 07/05 Q1017 NOSIG
ZGHA,2012-03-06 01:00,ZGHA 060100Z 01003MPS 3500 BR FEW013 BKN017 OVC050 07/05 Q1016 BECMG TL0230 2500 BR BKN011 OVC050
ZGHA,2012-03-06 02:00,ZGHA 060200Z 36002MPS 330V030 4000 BR BKN030 OVC050 08/05 Q1016 BECMG TL0300 2500 -RA BR BKN008 OVC050
ZGHA,2012-03-06 03:00,ZGHA 060300Z VRB01MPS 4200 BR BKN040 08/05 Q1016 NOSIG
ZGHA,2012-03-06 04:00,ZGHA 060400Z 34004MPS 4500 -RA BR FEW013 BKN030 OVC050 08/05 Q1015 BECMG TL0500 2500
ZGHA,2012-03-06 05:00,ZGHA 060500Z 32004MPS 3000 -RA BR SCT009 BKN020 OVC050 08/06 Q1015 BECMG TL0600 2500 BKN009 OVC050
ZGHA,2012-03-06 06:00,ZGHA 060600Z 34002MPS 320V040 2300 -RA BR SCT009 BKN020 OVC050 07/06 Q1014 BECMG TL0700 3500 BR BKN015 OVC050
ZGHA,2012-03-06 07:00,ZGHA 060700Z 28002MPS 240V310 180IG
ZGHA,2012-03-06 08:00,ZGHA 060800Z 01002MPS 4000 BR FEW012 BKN020 OVC050 08/06 Q1013 NOSIG
ZGHA,2012-03-06 09:00,ZGHA 060900Z 36003MPS 330V050 3500 -RA BR FEW012 BKN020 OVC050 07/06 Q1013 BECMG TL1000 2500
ZGHA,2012-03-06 10:00,ZGHA 061000Z 01003MPS 2600 BR FEW012 BKN020 OVC040 07/06 Q1013 NOSIG
ZGHA,2012-03-06 11:00,ZGHA 061100Z 35003MPS 300V020 2300 -RA BR FEW012 BKN020 OVC040 07/05 Q1013 NOSIG
ZGHA,2012-03-06 12:00,ZGHA 061200Z 33003MPS 290V360 2000 -RA BR FEW012 BKN020 OVC040 07/06 Q1014 NOSIG
ZGHA,2012-03-06 13:00,ZGHA 061300Z 33004MPS 2200 BR FEW013 SCT020 OVC040 07/06 Q1015 NOSIG
ZGHA,2012-03-06 14:00,ZGHA 061400Z 01002MPS 330V040 1800 -DZ BR FEW013 BKN020 OVC040 07/06 Q1015 BECMG 1400
ZGHA,2012-03-06 15:00,ZGHA 061500Z 32003MPS 290V350 1800 -RA BR SCT007 OVC040 07/06 Q1016 BECMG 1400
ZGHA,2012-03-06 16:00,ZGHA 061600Z 33003MPS 1600 -RA BR BKN006 OVC040 07/06 Q1016 BECMG TL1700 1400
ZGHA,2012-03-06 17:00,ZGHA 061700Z 34003MPS 1200 R36/1700N -DZ BR FEW003 BKN006 OVC040 07/06 Q1016 NOSIG
ZGHA,2012-03-06 18:00,ZGHA 061800Z 35005MPS 1600 BR FEW003 BKN006 OVC040 07/06 Q1015 NOSIG
ZGHA,2012-03-06 19:00,ZGHA 061900Z 36003MPS 1600 BR BKN006 OVC040 07/06 Q1015 NOSIG
ZGHA,2012-03-06 20:00,ZGHA 062000Z 36004MPS 1600 BR BKN006 OVC040 07/06 Q1014 NOSIG
ZGHA,2012-03-06 21:00,ZGHA 062100Z 35004MPS 1600 BR BKN006 OVC040 07/06 Q1014 NOSIG
ZGHA,2012-03-06 22:00,ZGHA 062200Z 33004MPS 1400 R36/1700N -RA BR BKN006 OVC040 07/06 Q1015 NOSIG
ZGHA,2012-03-06 23:00,ZGHA 062300Z 33003MPS 310V010 1000 R36/1600N -RA BR SCT003 BKN006 OVC040 07/06 Q1015 NOSIG
ZGHA,2012-03-07 00:00,ZGHA 070000Z 34003MPS 0700 R36/1000V1300D -RA FG SCT002 BKN004 OVC033 07/06 Q1016 BECMG TL0030 1000 -RA BR SCT003 BKN005 OVC0 40
ZGHA,2012-03-07 01:00,ZGHA 070100Z 33003MPS 0700 R36/1300N -RA FG SCT002 BKN004 OVC033 07/06 Q1017 BECMG TL0230 1000 -RA BR SCT003 BKN005 OVC050
ZGHA,2012-03-07 02:00,ZGHA 070200Z 32003MPS 290V350 0700 R36/1000V1200N -RA FG SCT002 BKN004 OVC033 07/06 Q1017 BECMG TL0330 1000 -RA BR SCT003 BKN005 OVC050
ZGHA,2012-03-07 03:00,ZGHA 070300Z 34002MPS 0700 R36/0900V1000N -RA FG SCT002 BKN004 OVC033 07/06 Q1017 BECMG TL0430 1000 -RA BR SCT003 BKN005 OVC040
ZGHA,2012-03-07 04:00,ZGHA 070400Z 35003MPS 0700 R36/1000V1200N -RA FG SCT002 BKN004 OVC033 07/06 Q1016 BECMG TL0500 1000 -RA BR SCT003 BKN005 OVC040
ZGHA,2012-03-07 05:00,ZGHA 070500Z 34003MPS 1300 R36/1400U -RA BR FEW004 BKN006 OVC033 08/07 Q1016 NOSIG
ZGHA,2012-03-07 06:00,ZGHA 070600Z 34002MPS 300V360 1100 R36/1300U -DZ BR SCT003 BKN006 OVC033 08/07 Q1015 NOSIG
ZGHA,2012-03-07 07:00,ZGHA 070700Z 31003MPS 280V350 1300 R36/1700N -DZ BR SCT003 BKN006 OVC033 08/07 Q1014 NOSIG
ZGHA,2012-03-07 08:00,ZGHA 070800Z 31004MPS 0700 R36/1100V1400N -RA FG SCT002 BKN005 OVC033 07/06 Q1014 BECMG TL0930 0900
ZGHA,2012-03-07 09:00,ZGHA 070900Z 31003MPS 0700 R36/0900V1200N -RA FG SCT002 BKN005 OVC033 07/06 Q1014 BECMG TL1030 0900
ZGHA,2012-03-07 10:00,ZGHA 071000Z 32003MPS 0700 R36/1500N -RA FG SCT002 BKN004 OVC033 08/07 Q1014 BECMG TL1130 0900 BKN005 OVC040
ZGHA,2012-03-07 11:00,ZGHA 071100Z 32003MPS 0700 R36/1600U -RA FG SCT002 BKN004 OVC033 07/07 Q1014 BECMG TL1200 0900 BKN005 OVC033
ZGHA,2012-03-07 12:00,ZGHA 071200Z 32003MPS 0700 R36/1700U FG SCT002 BKN004 OVC033 07/07 Q1015 NOSIG
ZGHA,2012-03-07 13:00,ZGHA 071300Z 33003MPS 0700 R36/1700N FG SCT002 BKN004 OVC033 08/07 Q1016 BECMG TL1430 0900
ZGHA,2012-03-07 14:00,ZGHA 071400Z 32003MPS 0900 R36/1600D FG BKN004 OVC033 08/07 Q1016 NOSIG
ZGHA,2012-03-07 15:00,ZGHA 071500Z 35004MPS 1400 R36/P2000 BR BKN004 OVC040 08/07 Q1016 BECMG TL1530 1600
ZGHA,2012-03-07 16:00,ZGHA 071600Z 33004MPS 1400 R36/P2000 BR BKN004 OVC040 07/06 Q1017 BECMG 1600
ZGHA,2012-03-07 17:00,ZGHA 071700Z 34003MPS 1200 R36/P2000 -RA BR BKN004 OVC040 07/06 Q1017 NOSIG
ZGHA,2012-03-07 18:00,ZGHA 071800Z 35003MPS 1200 R36/P2000 -RA BR BKN004 OVC040 07/06 Q1017 NOSIG
ZGHA,2012-03-07 19:00,ZGHA 071900Z AUTO 36004MPS 1100 R36/P2000 BR SCT005/// BKN020/// 07/06 Q1016
ZGHA,2012-03-07 20:00,ZGHA 072000Z AUTO 36004MPS 1800 BR SCT006/// OVC020/// 07/06 Q1016
ZGHA,2012-03-07 21:00,ZGHA 072100Z 35004MPS 2100 -RA BR BKN006 OVC040 07/06 Q1016 NOSIG
ZGHA,2012-03-07 22:00,ZGHA 072200Z 35003MPS 2100 -DZ BR BKN006 OVC040 07/06 Q1017 NOSIG
ZGHA,2012-03-07 23:00,ZGHA 072300Z 35004MPS 1800 BR BKN007 OVC040 07/06 Q1017 NOSIG
ZGHA,2012-03-08 00:00,ZGHA 080000Z 36004MPS 1600 -RA BR BKN007 OVC040 07/06 Q1018 BECMG TL0100 1300
ZGHA,2012-03-08 01:00,ZGHA 080100Z 33003MPS 1500 -RA BR FEW003 BKN004 OVC040 07/06 Q1019 BECMG 1300
ZGHA,2012-03-08 02:00,ZGHA 080200Z 34004MPS 2800 -RA BR BKN004 OVC040 07/06 Q1019 BECMG TL0300 3200
ZGHA,2012-03-08 03:00,ZGHA 080300Z 36004MPS 5000 -RA BR BKN004 OVC040 07/06 Q1019 NOSIG
ZGHA,2012-03-08 04:00,ZGHA 080400Z 35004MPS 6000 -DZ BKN004 OVC040 07/05 Q1019 BECMG TL0530 BKN007 OVC050
ZGHA,2012-03-08 05:00,ZGHA 080500Z 34005MPS 310V010 6000 -RA BKN005 OVC040 07/06 Q1018 NOSIG
ZGHA,2012-03-08 06:00,ZGHA 080600Z 36004MPS 6000 -RA BKN006 OVC040 06/05 Q1017 NOSIG
ZGHA,2012-03-08 07:00,ZGHA 080700Z 34004MPS 310V010 8000 -RA BKN007 OVC040 07/05 Q1017 BECMG BKN011 OVC050
ZGHA,2012-03-08 08:00,ZGHA 080800Z 35004MPS 7000 BKN008 OVC040 07/05 Q1017 BECMG BKN011 OVC040
ZGHA,2012-03-08 09:00,ZGHA 080900Z 34005MPS 8000 BKN009 OVC040 07/05 Q1018 BECMG TL1000 BKN011 OVC040
ZGHA,2012-03-08 10:00,ZGHA 081000Z 34004MPS 8000 BKN009 OVC050 07/05 Q1019 BECMG BKN011 OVC040
ZGHA,2012-03-08 11:00,ZGHA 081100Z 35004MPS 5000 BR FEW005 BKN008 OVC050 06/05 Q1019 NOSIG
ZGHA,2012-03-08 12:00,ZGHA 081200Z 35004MPS 5000 BR BKN008 OVC050 06/05 Q1020 NOSIG
ZGHA,2012-03-08 13:00,ZGHA 081300Z 35005MPS 6000 BKN008 OVC050 06/05 Q1021 NOSIG
ZGHA,2012-03-08 14:00,ZGHA 081400Z 36004MPS 6000 FEW008 BKN009 OVC033 06/04 Q1021 BECMG BKN011 OVC040
ZGHA,2012-03-08 15:00,ZGHA 081500Z 35004MPS 6000 SCT008 BKN020 OVC040 06/04 Q1022 NOSIG
ZGHA,2012-03-08 16:00,ZGHA 081600Z 34004MPS 6000 FEW008 BKN020 OVC050 06/04 Q1022 NOSIG
ZGHA,2012-03-08 17:00,ZGHA 081700Z 34004MPS 5000 -RA BR FEW009 BKN020 OVC040 06/04 Q1023 NOSIG
ZGHA,2012-03-08 18:00,ZGHA 081800Z AUTO 35004MPS 5000 -SHRA BR SCT024/// BKN034/// OVC050/// 05/04 Q1022
ZGHA,2012-03-08 19:00,ZGHA 081900Z AUTO 36005MPS 3100 -DZ BR FEW005/// BKN020/// OVC029/// 05/04 Q1021
ZGHA,2012-03-08 20:00,ZGHA 082000Z AUTO 36003MPS 2900 RA BR SCT007/// SCT034/// OVC044/// 05/04 Q1021
ZGHA,2012-03-08 21:00,ZGHA 082100Z 34003MPS 310V010 3600 -RA BR SCT005 BKN020 OVC040 05/04 Q1021 NOSIG
ZGHA,2012-03-08 22:00,ZGHA 082200Z 35004MPS 3200 -RA BR SCT003 BKN005 OVC033 05/04 Q1021 NOSIG
ZGHA,2012-03-08 23:00,ZGHA 082300Z 01003MPS 340V040 3200 -RA BR SCT003 BKN005 OVC033 05/04 Q1021 BECMG TL0000 2500 -RA BR
ZGHA,2012-03-09 00:00,ZGHA 090000Z 35004MPS 3000 -RA BR SCT004 BKN005 OVC030 05/04 Q1023 BECMG 2500 -RA BR
ZGHA,2012-03-09 01:00,ZGHA 090100Z 35004MPS 4000 -RA BR SCT004 BKN009 OVC033 05/04 Q1024 BECMG TL0200 SCT004 BKN011 OVC050
ZGHA,2012-03-09 02:00,ZGHA 090200Z 36004MPS 5000 BR SCT004 BKN009 OVC040 05/04 Q1024 BECMG TL0300 SCTOO4 BKN011 OVC050
ZGHA,2012-03-09 03:00,ZGHA 090300Z 35004MPS 6000 SCT004 BKN009 OVC040 06/05 Q1024 BECMG TL0400 SCT005 BKN011 OVC050
ZGHA,2012-03-09 04:00,ZGHA 090400Z 36004MPS 8000 SCT012 BKN020 OVC050 06/04 Q1024 NOSIG
ZGHA,2012-03-09 05:00,ZGHA 090500Z 34004MPS 7000 SCT010 BKN020 OVC050 07/04 Q1024 NOSIG
ZGHA,2012-03-09 06:00,ZGHA 090600Z 36004MPS 330V030 7000 SCT011 BKN023 OVC050 06/04 Q1023 NOSIG
ZGHA,2012-03-09 07:00,ZGHA 090700Z 34004MPS 5000 -RA BR BKN011 OVC050 06/04 Q1023 NOSIG
ZGHA,2012-03-09 08:00,ZGHA 090800Z 34004MPS 3500 BR BKN011 OVC050 06/04 Q1023 NOSIG
ZGHA,2012-03-09 09:00,ZGHA 090900Z 36004MPS 5000 BR FEW012 SCT020 OVC050 06/04 Q1023 NOSIG
ZGHA,2012-03-09 10:00,ZGHA 091000Z 36004MPS 5000 BR BKN020 OVC050 06/04 Q1023 NOSIG
ZGHA,2012-03-09 11:00,ZGHA 091100Z 36003MPS 4500 BR BKN020 OVC050 06/04 Q1024 BECMG TL1300 2500
ZGHA,2012-03-09 12:00,ZGHA 091200Z 36004MPS 4000 BR BKN020 OVC050 06/04 Q1025 BECMG TL1300 2500
ZGHA,2012-03-09 13:00,ZGHA 091300Z 36003MPS 3500 BR BKN020 OVC050 06/04 Q1025 BECMG TL1400 2500
ZGHA,2012-03-09 14:00,ZGHA 091400Z 35004MPS 3500 BR BKN020 OVC050 06/04 Q1026 BECMG TL1500 2500
ZGHA,2012-03-09 15:00,ZGHA 091500Z 35003MPS 3000 BR BKN020 OVC050 05/03 Q1026 BECMG TL1600 2500
ZGHA,2012-03-09 16:00,ZGHA 091600Z 34003MPS 3000 BR BKN020 OVC050 05/03 Q1026 BECMG 2500
ZGHA,2012-03-09 17:00,ZGHA 091700Z 33002MPS 3000 BR BKN020 OVC050 05/03 Q1026 BECMG 2500
ZGHA,2012-03-09 18:00,ZGHA 091800Z 34003MPS 3000 BR BKN020 OVC050 05/03 Q1026 NOSIG
ZGHA,2012-03-09 19:00,ZGHA 091900Z 36004MPS 2400 BR BKN020 OVC050 05/03 Q1025 NOSIG
ZGHA,2012-03-09 20:00,ZGHA 092000Z VRB01MPS 2300 BR BKN020 OVC050 04/03 Q1025 NOSIG
ZGHA,2012-03-09 21:00,ZGHA 092100Z 32001MPS 2500 BR OVC050 05/03 Q1025 NOSIG
ZGHA,2012-03-09 22:00,ZGHA 092200Z 35002MPS 2300 BR OVC050 05/03 Q1025 NOSIG
ZGHA,2012-03-09 23:00,ZGHA 092300Z 36001MPS 3000 BR SCT040 05/03 Q1026 NOSIG
ZGHA,2012-03-10 00:00,ZGHA 100000Z 32002MPS 3000 BR SCT050 05/03 Q1026 NOSIG
ZGHA,2012-03-10 01:00,ZGHA 100100Z 33003MPS 290V360 4200 BR NSC 06/03 Q1026 NOSIG
ZGHA,2012-03-10 02:00,ZGHA 100200Z 34002MPS 300V020 5000 BR NSC 07/03 Q1027 NOSIG
ZGHA,2012-03-10 03:00,ZGHA 100300Z 01002MPS 340V040 8000 NSC 07/01 Q1027 NOSIG
ZGHA,2012-03-10 04:00,ZGHA 100400Z 34003MPS 310V010 8000 NSC 09/01 Q1026 NOSIG
ZGHA,2012-03-10 05:00,ZGHA 100500Z VRB02MPS CAVOK 10/01 Q1025 NOSIG
ZGHA,2012-03-10 06:00,ZGHA 100600Z VRB02MPS 9999 FEW033 10/01 Q1024 NOSIG
ZGHA,2012-03-10 07:00,ZGHA 100700Z 01002MPS 310V120 9999 SCT040 11/02 Q1023 NOSIG
ZGHA,2012-03-10 08:00,ZGHA 100800Z 08002MPS 020V130 9999 SCT040 11/02 Q1022 NOSIG
ZGHA,2012-03-10 09:00,ZGHA 100900Z VRB01MPS 9999 FEW040 11/01 Q1022 NOSIG
ZGHA,2012-03-10 10:00,ZGHA 101000Z 15001MPS CAVOK 10/01 Q1022 NOSIG
ZGHA,2012-03-10 11:00,ZGHA 101100Z 18003MPS CAVOK 08/03 Q1022 NOSIG
ZGHA,2012-03-10 12:00,ZGHA 101200Z 16002MPS CAVOK 07/04 Q1023 NOSIG
ZGHA,2012-03-10 13:00,ZGHA 101300Z 16002MPS 7000 SKC 06/04 Q1024 NOSIG
ZGHA,2012-03-10 14:00,ZGHA 101400Z 20001MPS 6000 SKC 06/04 Q1025 NOSIG
ZGHA,2012-03-10 15:00,ZGHA 101500Z 00000MPS 4500 BR SKC 04/03 Q1025 NOSIG
ZGHA,2012-03-10 16:00,ZGHA 101600Z 02001MPS 4000 BR SKC 04/03 Q1025 BECMG TL1700 2500
ZGHA,2012-03-10 17:00,ZGHA 101700Z 04001MPS 3000 BR SKC 04/03 Q1025 BECMG TL1800 2500
ZGHA,2012-03-10 18:00,ZGHA 101800Z 03002MPS 2700 BR NSC 04/03 Q1024 NOSIG
ZGHA,2012-03-10 19:00,ZGHA 101900Z AUTO VRB01MPS 2900 BR OVC120/// 05/04 Q1024
ZGHA,2012-03-10 20:00,ZGHA 102000Z VRB01MPS 3000 BR NSC 05/04 Q1024 NOSIG
ZGHA,2012-03-10 21:00,ZGHA 102100Z 00000MPS 3000 BR NSC 05/04 Q1024 NOSIG
ZGHA,2012-03-10 22:00,ZGHA 102200Z 01001MPS 3500 BR NSC 05/04 Q1025 NOSIG
ZGHA,2012-03-10 23:00,ZGHA 102300Z VRB01MPS 4000 BR NSC 05/04 Q1026 NOSIG
ZGHA,2012-03-11 00:00,ZGHA 110000Z 36001MPS 4000 BR NSC 06/05 Q1026 NOSIG
ZGHA,2012-03-11 01:00,ZGHA 110100Z VRB01MPS 6000 NSC 07/05 Q1027 NOSIG
ZGHA,2012-03-11 02:00,ZGHA 110200Z 06002MPS 020V110 8000 NSC 09/04 Q1027 NOSIG
ZGHA,2012-03-11 03:00,ZGHA 110300Z 01002MPS 330V080 CAVOK 11/04 Q1027 NOSIG
ZGHA,2012-03-11 04:00,ZGHA 110400Z VRB02MPS CAVOK 13/02 Q1026 NOSIG
ZGHA,2012-03-11 05:00,ZGHA 110500Z 35002MPS 300V050 CAVOK 14/01 Q1025 NOSIG
ZGHA,2012-03-11 06:00,ZGHA 110600Z 03002MPS 330V110 9999 FEW030 15/01 Q1025 NOSIG
ZGHA,2012-03-11 07:00,ZGHA 110700Z 04002MPS 350V130 9999 SCT040 15/01 Q1024 NOSIG
ZGHA,2012-03-11 08:00,ZGHA 110800Z VRB01MPS 9999 SCT050 15/01 Q1023 NOSIG
ZGHA,2012-03-11 09:00,ZGHA 110900Z 28003MPS 250V330 8000 SCT050 14/04 Q1023 NOSIG
ZGHA,2012-03-11 10:00,ZGHA 111000Z 27002MPS 250V330 6000 SCT050 13/05 Q1024 NOSIG
ZGHA,2012-03-11 11:00,ZGHA 111100Z 34004MPS 300V010 6000 SCT050 13/05 Q1024 NOSIG
ZGHA,2012-03-11 12:00,ZGHA 111200Z 34005MPS 6000 NSC 12/04 Q1025 NOSIG
ZGHA,2012-03-11 13:00,ZGHA 111300Z 36002MPS 6000 NSC 11/04 Q1026 NOSIG
ZGHA,2012-03-11 14:00,ZGHA 111400Z 33003MPS 5000 HZ NSC 11/05 Q1027 NOSIG
ZGHA,2012-03-11 15:00,ZGHA 111500Z 31002MPS 280V340 3000 BR NSC 09/06 Q1027 NOSIG
ZGHA,2012-03-11 16:00,ZGHA 111600Z 30002MPS 2500 BR NSC 08/06 Q1026 NOSIG
ZGHA,2012-03-11 17:00,ZGHA 111700Z VRB01MPS 1600 BR NSC 07/06 Q1026 BECMG TL1830 1300
ZGHA,2012-03-11 18:00,ZGHA 111800Z VRB01MPS 1200 R36/1400N BR SKC 06/05 Q1026 BECMG TL1940 0700 FG
ZGHA,2012-03-11 19:00,ZGHA 111900Z 36002MPS 1200 R36/1700U BR SKC 06/05 Q1026 NOSIG
ZGHA,2012-03-11 20:00,ZGHA 112000Z 36002MPS 1400 R36/P2000 BR SKC 06/04 Q1026 NOSIG
ZGHA,2012-03-11 21:00,ZGHA 112100Z VRB01MPS 1200 R36/1300D BR SKC 05/04 Q1026 NOSIG
ZGHA,2012-03-11 22:00,ZGHA 112200Z 01002MPS 0900 R36/1100V1200N FG NSC 05/04 Q1026 NOSIG
ZGHA,2012-03-11 23:00,ZGHA 112300Z 36002MPS 0600 R36/0700N FG NSC 06/06 Q1026 BECMG TL0040 0800
ZGHA,2012-03-12 00:00,ZGHA 120000Z VRB01MPS 0700 R36/0900V1000N FG NSC 07/06 Q1027 BECMG TL0130 0900
ZGHA,2012-03-12 01:00,ZGHA 120100Z 33002MPS 280V360 0900 R36/1000N -RA FG SCT004 OVC050 08/06 Q1027 NOSIG
ZGHA,2012-03-12 02:00,ZGHA 120200Z 32003MPS 280V350 1600 R36/1100V1200N BR SCT009 09/06 Q1028 BECMG TL0300 3500
ZGHA,2012-03-12 03:00,ZGHA 120300Z 32003MPS 2200 BR SCT020 09/05 Q1027 BECMG TL0400 3500
ZGHA,2012-03-12 04:00,ZGHA 120400Z 32004MPS 300V360 2700 BR SCT020 09/05 Q1027 BECMG TL0500 3500
ZGHA,2012-03-12 05:00,ZGHA 120500Z 34004MPS 3000 HZ SCT020 10/05 Q1026 NOSIG
ZGHA,2012-03-12 06:00,ZGHA 120600Z VRB03MPS 3500 HZ NSC 12/05 Q1024 NOSIG
ZGHA,2012-03-12 07:00,ZGHA 120700Z 34003MPS 300V020 4000 HZ NSC 12/05 Q1023 NOSIG
ZGHA,2012-03-12 08:00,ZGHA 120800Z 32003MPS 290V350 4000 HZ NSC 12/05 Q1023 NOSIG
ZGHA,2012-03-12 09:00,ZGHA 120900Z 31004MPS 4500 HZ NSC 12/05 Q1023 NOSIG
ZGHA,2012-03-12 10:00,ZGHA 121000Z 32003MPS 4000 HZ NSC 10/05 Q1023 NOSIG
ZGHA,2012-03-12 11:00,ZGHA 121100Z 32003MPS 3500 HZ NSC 10/05 Q1024 BECMG 2500
ZGHA,2012-03-12 12:00,ZGHA 121200Z 34003MPS 4000 BR NSC 10/05 Q1024 NOSIG
ZGHA,2012-03-12 13:00,ZGHA 121300Z 35003MPS 4000 BR NSC 09/05 Q1025 NOSIG
ZGHA,2012-03-12 14:00,ZGHA 121400Z 01002MPS 350V060 3500 BR NSC 09/05 Q1025 NOSIG
ZGHA,2012-03-12 15:00,ZGHA 121500Z 36002MPS 3000 BR NSC 08/05 Q1025 NOSIG
ZGHA,2012-03-12 16:00,ZGHA 121600Z 36002MPS 3000 BR NSC 07/05 Q1026 NOSIG
ZGHA,2012-03-12 17:00,ZGHA 121700Z 34002MPS 2200 BR NSC 06/04 Q1026 NOSIG
ZGHA,2012-03-12 18:00,ZGHA 121800Z 36003MPS 2000 BR NSC 06/04 Q1025 NOSIG
ZGHA,2012-03-12 19:00,ZGHA 121900Z 36003MPS 1800 BR NSC 05/04 Q1025 NOSIG
ZGHA,2012-03-12 20:00,ZGHA 122000Z 35003MPS 1700 BR NSC 05/04 Q1025 NOSIG
ZGHA,2012-03-12 21:00,ZGHA 122100Z 35002MPS 1200 R36/P2000 BR SKC 05/04 Q1025 NOSIG
ZGHA,2012-03-12 22:00,ZGHA 122200Z 29001MPS 1100 R36/P2000 BR SKC 04/03 Q1025 NOSIG
ZGHA,2012-03-12 23:00,ZGHA 122300Z VRB01MPS 1100 R36/0900V1100D BR SKC 04/03 Q1025 BECMG AT0045 1600
ZGHA,2012-03-13 00:00,ZGHA 130000Z VRB01MPS 1200 R36/0750N BR SKC 05/04 Q1025 BECMG 1700
ZGHA,2012-03-13 01:00,ZGHA 130100Z 04002MPS 350V100 1600 R36/1200V1400N BR NSC 07/05 Q1026 BECMG TL0300 3000
ZGHA,2012-03-13 02:00,ZGHA 130200Z VRB01MPS 3000 BR NSC 09/05 Q1026 NOSIG
ZGHA,2012-03-13 03:00,ZGHA 130300Z 24001MPS 3000 BR NSC 11/06 Q1025 NOSIG
ZGHA,2012-03-13 04:00,ZGHA 130400Z VRB01MPS 4000 HZ NSC 14/05 Q1024 NOSIG
ZGHA,2012-03-13 05:00,ZGHA 130500Z 20002MPS 160V260 5000 HZ NSC 15/04 Q1023 NOSIG
ZGHA,2012-03-13 06:00,ZGHA 130600Z VRB02MPS 6000 NSC 16/03 Q1022 NOSIG
ZGHA,2012-03-13 07:00,ZGHA 130700Z VRB01MPS CAVOK 17/02 Q1021 NOSIG
ZGHA,2012-03-13 08:00,ZGHA 130800Z 23002MPS 160V290 CAVOK 17/04 Q1021 NOSIG
ZGHA,2012-03-13 09:00,ZGHA 130900Z 21002MPS 140V250 7000 NSC 16/04 Q1020 NOSIG
ZGHA,2012-03-13 10:00,ZGHA 131000Z 20002MPS 6000 NSC 15/06 Q1020 NOSIG
ZGHA,2012-03-13 11:00,ZGHA 131100Z 21001MPS 4000 HZ NSC 13/06 Q1020 NOSIG
ZGHA,2012-03-13 12:00,ZGHA 131200Z 21002MPS 3000 BR NSC 12/07 Q1021 BECMG TL1300 2200
ZGHA,2012-03-13 13:00,ZGHA 131300Z 16001MPS 2500 BR NSC 09/07 Q1021 NOSIG
ZGHA,2012-03-13 14:00,ZGHA 131400Z 00000MPS 2300 BR NSC 09/07 Q1021 NOSIG
ZGHA,2012-03-13 15:00,ZGHA 131500Z VRB01MPS 1800 BR NSC 08/06 Q1021 BECMG TL1600 1400
ZGHA,2012-03-13 16:00,ZGHA 131600Z 10001MPS 1400 R18/1600N BR NSC 07/06 Q1021 NOSIG
ZGHA,2012-03-13 17:00,ZGHA 131700Z 17002MPS 150V210 1600 BR NSC 07/06 Q1020 NOSIG
ZGHA,2012-03-13 18:00,ZGHA 131800Z 20002MPS 1600 BR NSC 07/06 Q1020 NOSIG
ZGHA,2012-03-13 19:00,ZGHA 131900Z AUTO 07001MPS 1300 R18/P2000 BR NCD 07/05 Q1020
ZGHA,2012-03-13 20:00,ZGHA 132000Z 08001MPS 1200 R18/1800U BR NSC 06/05 Q1019 NOSIG
ZGHA,2012-03-13 21:00,ZGHA 132100Z 07002MPS 1000 R18/1500U BR NSC 06/05 Q1019 NOSIG
ZGHA,2012-03-13 22:00,ZGHA 132200Z 04001MPS 1000 R18/P2000 BR SKC 06/05 Q1019 NOSIG
ZGHA,2012-03-13 23:00,ZGHA 132300Z 06001MPS 1400 R18/1200D BR SCT050 06/05 Q1019 BECMG TL0000 1700
ZGHA,2012-03-14 00:00,ZGHA 140000Z VRB01MPS 1600 R18/1100V1400D BR SCT050 07/06 Q1020 NOSIG
ZGHA,2012-03-14 01:00,ZGHA 140100Z VRB01MPS 2000 BR SCT040 08/06 Q1020 NOSIG
ZGHA,2012-03-14 02:00,ZGHA 140200Z 23002MPS 200V260 2000 -RA BR SCT040 09/06 Q1021 NOSIG
ZGHA,2012-03-14 03:00,ZGHA 140300Z VRB01MPS 2200 BR BKN050 10/07 Q1020 NOSIG
ZGHA,2012-03-14 04:00,ZGHA 140400Z VRB01MPS 2700 BR OVC050 12/07 Q1020 BECMG TL050 0 3000
ZGHA,2012-03-14 05:00,ZGHA 140500Z 18001MPS 3000 BR OVC040 13/08 Q1019 NOSIG
ZGHA,2012-03-14 06:00,ZGHA 140600Z VRB01MPS 3500 HZ OVC030 14/08 Q1018 NOSIG
ZGHA,2012-03-14 07:00,ZGHA 140700Z 00000MPS 3000 -RA BR OVC026 14/08 Q1017 NOSIG
ZGHA,2012-03-14 08:00,ZGHA 140800Z 17002MPS 140V200 2700 BR OVC026 13/08 Q1017 NOSIG
ZGHA,2012-03-14 09:00,ZGHA 140900Z 17003MPS 1800 -RA BR OVC023 12/09 Q1017 BECMG TL1000 1400
ZGHA,2012-03-14 10:00,ZGHA 141000Z 19002MPS 1700 BR OVC023 11/09 Q1017 BECMG TL1100 1300 -RA BR
ZGHA,2012-03-14 11:00,ZGHA 141100Z 18002MPS 1800 -RA BR OVC023 11/09 Q1016 BECMG TL1200 1300
ZGHA,2012-03-14 12:00,ZGHA 141200Z VRB01MPS 1800 -RA BR OVC023 11/09 Q1017 NOSIG
ZGHA,2012-03-14 13:00,ZGHA 141300Z 33002MPS 300V020 1700 -RA BR OVC026 12/09 Q1018 BECMG TL1400 1300
ZGHA,2012-03-14 14:00,ZGHA 141400Z VRB01MPS 1700 BR OVC026 12/09 Q1018 BECMG TL1500 1300
ZGHA,2012-03-14 15:00,ZGHA 141500Z 35002MPS 1700 BR OVC026 11/09 Q1018 BECMG TL1600 1300
ZGHA,2012-03-14 16:00,ZGHA 141600Z VRB01MPS 1800 BR OVC026 12/09 Q1018 NOSIG
ZGHA,2012-03-14 17:00,ZGHA 141700Z VRB01MPS 1800 BR OVC026 11/09 Q1017 NOSIG
ZGHA,2012-03-14 18:00,ZGHA 141800Z 20001MPS 1600 BR OVC026 11/09 Q1017 NOSIG
ZGHA,2012-03-14 19:00,ZGHA 141900Z AUTO 25002MPS 1000 R36/P2000 BR OVC026/// 11/09 Q1016
ZGHA,2012-03-14 20:00,ZGHA 142000Z 29003MPS 1100 R36/1400N -RA BR SCT013 BKN020 OVC050 11/09 Q1015 NOSIG
ZGHA,2012-03-14 21:00,ZGHA 142100Z 31003MPS 1000 R36/1000V1200N -RA BR SCT006 BKN020 OVC050 11/09 Q1015 NOSIG
ZGHA,2012-03-14 22:00,ZGHA 142200Z 33003MPS 1000 R36/1200V1400N -RA BR SCT006 BKN020 OVC050 10/09 Q1016 NOSIG
ZGHA,2012-03-14 23:00,ZGHA 142300Z VRB01MPS 0400 R36/0800V0900U -RA FG FEW003 BKN007 OVC050 10/09 Q1016 TEMPO 0700
ZGHA,2012-03-15 00:00,ZGHA 150000Z VRB01MPS 0700 R36/0750V1200N -RA FG FEW003 BKN007 OVC050 11/10 Q1016 BECMG TL0030 0900
ZGHA,2012-03-15 01:00,ZGHA 150100Z 29001MPS 0700 R36/0900V1400N -RA FG FEW003 BKN007 OVC040 11/10 Q1017 BECMG 0900
ZGHA,2012-03-15 02:00,ZGHA 150200Z 29002MPS 260V340 0700 R36/0900V1000N -RA FG FEW003 BKN007 OVC040 11/10 Q1017 BECMG 0900
ZGHA,2012-03-15 03:00,ZGHA 150300Z 32002MPS 0500 R36/0750N -RA FG FEW003 BKN007 OVC030 11/10 Q1016 BECMG 0700
ZGHA,2012-03-15 04:00,ZGHA 150400Z VRB01MPS 0700 R36/0800V0900N -RA FG FEW003 BKN007 OVC030 12/11 Q1015 BECMG 0900
ZGHA,2012-03-15 05:00,ZGHA 150500Z VRB01MPS 1000 R36/1000N BR FEW003 BKN007 OVC033 12/11 Q1014 NOSIG
ZGHA,2012-03-15 06:00,ZGHA 150600Z 24002MPS 170V280 1200 R18/0900V1100N BR FEW004 BKN009 OVC033 13/11 Q1013 BECMG TL0745 1600
ZGHA,2012-03-15 07:00,ZGHA 150700Z VRB01MPS 2000 BR SCT012 BKN020 OVC050 13/12 Q1012 NOSIG
ZGHA,2012-03-15 08:00,ZGHA 150800Z 34002MPS 300V360 2500 BR SCT012 BKN020 OVC050 14/11 Q1012 BECMG 3100
ZGHA,2012-03-15 09:00,ZGHA 150900Z 36003MPS 2300 BR SCT012 BKN020 OVC050 13/11 Q1012 NOSIG
ZGHA,2012-03-15 10:00,ZGHA 151000Z 01002MPS 1600 BR SCT012 BKN020 OVC040 13/11 Q1013 BECMG 1400
ZGHA,2012-03-15 11:00,ZGHA 151100Z 02002MPS 350V050 1600 BR SCT012 BKN020 OVC040 13/11 Q1013 NOSIG
ZGHA,2012-03-15 12:00,ZGHA 151200Z 02002MPS 1400 R36/P2000 BR SCT006 SCT020 OVC040 12/11 Q1014 NOSIG
ZGHA,2012-03-15 13:00,ZGHA 151300Z 35002MPS 1200 R36/1300N -RA BR FEW003 BKN006 OVC040 12/11 Q1014 NOSIG
ZGHA,2012-03-15 14:00,ZGHA 151400Z 36004MPS 1200 R36/1100V1400D BR FEW003 BKN006 OVC040 12/11 Q1015 NOSIG
ZGHA,2012-03-15 15:00,ZGHA 151500Z 35004MPS 1400 R36/P2000 -RA BR BKN006 OVC040 12/10 Q1015 NOSIG
ZGHA,2012-03-15 16:00,ZGHA 151600Z 34003MPS 1400 R36/1900N -RA BR BKN006 OVC040 11/10 Q1015 NOSIG
ZGHA,2012-03-15 17:00,ZGHA 151700Z 35003MPS 1200 R36/1800N BR BKN006 OVC040 11/10 Q1015 NOSIG
ZGHA,2012-03-15 18:00,ZGHA 151800Z 34003MPS 1200 R36/1800N BR SCT007 OVC050 11/10 Q1015 NOSIG
ZGHA,2012-03-15 19:00,ZGHA 151900Z AUTO 34004MPS 0600 R36/1700N FG NCD 11/10 Q1014
ZGHA,2012-03-15 20:00,ZGHA 152000Z AUTO 34003MPS 0600 R36/1600N FG NCD 11/10 Q1014
ZGHA,2012-03-15 21:00,ZGHA 152100Z 35004MPS 1200 R36/1700N BR SCT006 OVC050 11/10 Q1014 NOSIG
ZGHA,2012-03-15 22:00,ZGHA 152200Z 35003MPS 0900 R36/1600N FG FEW003 BKN006 OVC050 11/10 Q1014 NOSIG
ZGHA,2012-03-15 23:00,ZGHA 152300Z 33004MPS 1200 R36/P2000 BR BKN006 OVC050 11/10 Q1015 BECMG 1700
ZGHA,2012-03-16 00:00,ZGHA 160000Z 32003MPS 0900 R36/1500N FG FEW003 BKN006 OVC050 11/09 Q1015 BECMG 1700
ZGHA,2012-03-16 01:00,ZGHA 160100Z 32004MPS 0700 R36/1000V1100N FG FEW003 BKN006 OVC050 10/09 Q1016 BECMG 0200 0900
ZGHA,2012-03-16 02:00,ZGHA 160200Z 31004MPS 0700 R36/0900V1200N FG FEW003 BKN006 OVC050 10/09 Q1016 BECMG TL0300 0900
ZGHA,2012-03-16 03:00,ZGHA 160300Z 31004MPS 0700 R36/0900V1000N FG FEW003 BKN006 OVC050 10/09 Q1016 BECMG TL0400 0900
ZGHA,2012-03-16 04:00,ZGHA 160400Z 31004MPS 0700 R36/0900V1100N -RA FG FEW003 BKN006 OVC050 10/09 Q1016 NOSIG
ZGHA,2012-03-16 05:00,ZGHA 160500Z 30003MPS 0700 R36/0900V1100N FG FEW003 BKN006 OVC050 10/09 Q1015 BECMG TL0600 0900
ZGHA,2012-03-16 06:00,ZGHA 160600Z 31003MPS 270V340 0900 R36/1000V1100N FG FEW003 BKN006 OVC050 10/09 Q1014 NOSIG
ZGHA,2012-03-16 07:00,ZGHA 160700Z 31004MPS 0900 R36/1000V1100N -RA FG BKN006 OVC050 10/09 Q1014 NOSIG
ZGHA,2012-03-16 08:00,ZGHA 160800Z 32003MPS 1200 R36/1100V1200N BR BKN006 OVC050 11/09 Q1013 NOSIG
ZGHA,2012-03-16 09:00,ZGHA 160900Z 31003MPS 1700 BR BKN007 OVC050 11/09 Q1013 NOSIG
ZGHA,2012-03-16 10:00,ZGHA 161000Z 31003MPS 280V340 1800 BR BKN007 OVC050 11/09 Q1013 NOSIG
ZGHA,2012-03-16 11:00,ZGHA 161100Z 31002MPS 280V340 1800 BR BKN007 OVC050 11/09 Q1013 NOSIG
ZGHA,2012-03-16 12:00,ZGHA 161200Z 31002MPS 1800 BR SCT007 BKN020 OVC033 11/09 Q1014 NOSIG
ZGHA,2012-03-16 13:00,ZGHA 161300Z 32002MPS 280V350 2000 BR SCT007 OVC033 11/09 Q1014 NOSIG
ZGHA,2012-03-16 14:00,ZGHA 161400Z 30002MPS 250V340 2000 BR SCT007 OVC033 11/09 Q1014 NOSIG
ZGHA,2012-03-16 15:00,ZGHA 161500Z VRB01MPS 2000 BR BKN015 OVC030 11/09 Q1014 NOSIG
ZGHA,2012-03-16 16:00,ZGHA 161600Z VRB01MPS 1800 BR BKN015 OVC030 11/09 Q1014 NOSIG
ZGHA,2012-03-16 17:00,ZGHA 161700Z VRB01MPS 1800 BR BKN015 OVC030 11/09 Q1014 NOSIG
ZGHA,2012-03-16 18:00,ZGHA 161800Z VRB01MPS 1800 BR BKN015 OVC030 11/09 Q1013 NOSIG
ZGHA,2012-03-16 19:00,ZGHA 161900Z VRB01MPS 1800 BR BKN015 OVC030 11/08 Q1012 NOSIG
ZGHA,2012-03-16 20:00,ZGHA 162000Z VRB01MPS 2000 BR BKN015 OVC030 11/08 Q1012 NOSIG
ZGHA,2012-03-16 21:00,ZGHA 162100Z 00000MPS 1600 -RA BR BKN015 OVC030 11/09 Q1012 NOSIG
ZGHA,2012-03-16 22:00,ZGHA 162200Z 26001MPS 1600 BR BKN015 OVC030 11/09 Q1012 NOSIG
ZGHA,2012-03-16 23:00,ZGHA 162300Z VRB01MPS 1400 R36/1900N BR BKN011 OVC033 11/09 Q1013 BECMG BKN008 OVC040
ZGHA,2012-03-17 00:00,ZGHA 170000Z VRB01MPS 1700 BR BKN009 OVC033 11/09 Q1013 NOSIG
ZGHA,2012-03-17 01:00,ZGHA 170100Z 34002MPS 1200 R36/1300V1400N -DZ BR FEW004 BKN008 OVC040 10/09 Q1014 NOSIG
ZGHA,2012-03-17 02:00,ZGHA 170200Z 00000MPS 0900 R36/0900V1000N -RA FG SCT003 BKN007 OVC040 10/09 Q1014 NOSIG
ZGHA,2012-03-17 03:00,ZGHA 170300Z VRB01MPS 0900 R36/0800V1000N FG SCT003 BKN007 OVC040 10/09 Q1013 NOSIG
ZGHA,2012-03-17 04:00,ZGHA 170400Z VRB01MPS 1200 R36/1000V1100N BR SCT004 BKN008 OVC040 11/10 Q1012 BECMG 1600
ZGHA,2012-03-17 05:00,ZGHA 170500Z VRB01MPS 1200 R36/1000V1100N BR FEW004 BKN008 OVC040 11/10 Q1012 BECMG TL0600 1600
ZGHA,2012-03-17 06:00,ZGHA 170600Z VRB01MPS 1600 R36/1300V1400N BR BKN008 OVC040 12/10 Q1011 NOSIG
ZGHA,2012-03-17 07:00,ZGHA 170700Z 20002MPS 170V230 1600 R36/1200V1400N BR BKN009 OVC050 13/10 Q1010 BECMG TL0800 BKN011 OVC050
ZGHA,2012-03-17 08:00,ZGHA 170800Z VRB01G06MPS 1600 R36/1300V1400N BR BKN011 OVC050 14/11 Q1010 BECMG TL0900 BKN016 OVC050
ZGHA,2012-03-17 09:00,ZGHA 170900Z 23002MPS 090V260 1400 R36/1200V1300N BR BKN011 OVC050 14/10 Q1010 BECMG TL1030 BKN015 OVC050
ZGHA,2012-03-17 10:00,ZGHA 171000Z VRB01MPS 1400 R36/1500N BR BKN013 OVC050 14/11 Q1010 BECMG TL1100 BKN016 OVC050
ZGHA,2012-03-17 11:00,ZGHA 171100Z 11001MPS 1200 R36/1800N BR BKN014 OVC050 13/11 Q1010 BECMG TL1200 BKN016 OVC050
ZGHA,2012-03-17 12:00,ZGHA 171200Z VRB01MPS 1200 R18/P2000 BR SCT014 13/11 Q1011 NOSIG
ZGHA,2012-03-17 13:00,ZGHA 171300Z 00000MPS 1400 R18/P2000 BR SCT030 13/11 Q1012 NOSIG
ZGHA,2012-03-17 14:00,ZGHA 171400Z VRB01MPS 1400 R36/P2000 BR SCT030 13/11 Q1013 NOSIG
ZGHA,2012-03-17 15:00,ZGHA 171500Z VRB01MPS 1200 R18/1900N -SHRA BR SCT014 FEW050CB BKN050 13/11 Q1013 BECMG TL1600 -RA BR
ZGHA,2012-03-17 16:00,ZGHA 171600Z VRB01MPS 1200 R36/1700N BR SCT011 OVC050 13/11 Q1013 NOSIG
ZGHA,2012-03-17 17:00,ZGHA 171700Z 35003MPS 1200 R36/1800N BR SCT011 OVC050 13/11 Q1013 NOSIG
ZGHA,2012-03-17 18:00,ZGHA 171800Z VRB01MPS 1000 R36/1700N BR SCT011 OVC050 13/11 Q1013 NOSIG
ZGHA,2012-03-17 19:00,ZGHA 171900Z VRB01MPS 1000 R36/1900N BR SCT011 OVC050 13/11 Q1013 NOSIG
ZGHA,2012-03-17 20:00,ZGHA 172000Z 34001MPS 1000 R36/1800D BR SCT011 OVC050 12/11 Q1013 NOSIG
ZGHA,2012-03-17 21:00,ZGHA 172100Z VRB01MPS 1000 R36/1800N BR SCT011 OVC050 13/12 Q1013 NOSIG
ZGHA,2012-03-17 22:00,ZGHA 172200Z 32002MPS 1200 R36/P2000 BR SCT011 OVC050 13/11 Q1014 NOSIG
ZGHA,2012-03-17 23:00,ZGHA 172300Z VRB01MPS 1400 R36/1500N BR SCT011 OVC050 13/11 Q1015 BECMG TL0000 1700
ZGHA,2012-03-18 00:00,ZGHA 180000Z 29002MPS 270V340 1600 BR SCT020 OVC050 13/11 Q1015 NOSIG
ZGHA,2012-03-18 01:00,ZGHA 180100Z VRB01MPS 1700 BR SCT020 OVC050 14/11 Q1016 NOSIG
ZGHA,2012-03-18 02:00,ZGHA 180200Z 32003MPS 290V350 2000 BR OVC050 15/12 Q1016 BECMG FM0400 3000
ZGHA,2012-03-18 03:00,ZGHA 180300Z 36003MPS 320V050 2600 BR BKN050 16/13 Q1016 BECMG TL0400 3000
ZGHA,2012-03-18 04:00,ZGHA 180400Z 35003MPS 320V020 3200 BR BKN050 17/13 Q1016 NOSIG
ZGHA,2012-03-18 05:00,ZGHA 180500Z 36003MPS 300V040 3500 BR BKN050 18/13 Q1015 NOSIG
ZGHA,2012-03-18 06:00,ZGHA 180600Z 29004MPS 2700 BR BKN020 OVC050 18/13 Q1015 NOSIG
ZGHA,2012-03-18 07:00,ZGHA 180700Z 29005MPS 250V310 2600 BR BKN020 OVC050 16/11 Q1014 NOSIG
ZGHA,2012-03-18 08:00,ZGHA 180800Z 01002MPS 340V060 2600 BR BKN020 OVC050 15/12 Q1013 NOSIG
ZGHA,2012-03-18 09:00,ZGHA 180900Z VRB01MPS 2200 BR OVC030 15/12 Q1012 NOSIG
ZGHA,2012-03-18 10:00,ZGHA 181000Z 00000MPS 2200 BR OVC030 16/13 Q1012 NOSIG
ZGHA,2012-03-18 11:00,ZGHA 181100Z 30004MPS 1800 -RA BR OVC033 15/13 Q1013 BECMG TL1200 1400
ZGHA,2012-03-18 12:00,ZGHA 181200Z 34003MPS 1400 R36/1900D BR SCT004 OVC030 15/13 Q1014 NOSIG
ZGHA,2012-03-18 13:00,ZGHA 181300Z 34003MPS 1600 BR OVC040 14/12 Q1014 NOSIG
ZGHA,2012-03-18 14:00,ZGHA 181400Z 28003MPS 250V340 1600 BR SCT007 OVC040 14/12 Q1014 BECMG TL1500 1400
ZGHA,2012-03-18 15:00,ZGHA 181500Z 28002MPS 250V340 1600 -RA BR BKN006 OVC040 14/12 Q1015 NOSIG
ZGHA,2012-03-18 16:00,ZGHA 181600Z VRB01MPS 1600 BR BKN007 OVC040 14/12 Q1014 NOSIG
ZGHA,2012-03-18 17:00,ZGHA 181700Z 34002MPS 1600 BR BKN006 OVC040 14/12 Q1014 NOSIG
ZGHA,2012-03-18 18:00,ZGHA 181800Z 32002MPS 290V350 1200 R36/1400U BR SCT004 BKN008 OVC040 13/12 Q1014 NOSIG
ZGHA,2012-03-18 19:00,ZGHA 181900Z VRB01MPS 0900 R36/1100V1200N FG SCT003 BKN006 OVC040 13/12 Q1014 NOSIG
ZGHA,2012-03-18 20:00,ZGHA 182000Z 32003MPS 0800 R36/0900V1000N FG SCT002 BKN006 OVC030 13/12 Q1014 NOSIG
ZGHA,2012-03-18 21:00,ZGHA 182100Z 33002MPS 0700 R36/0800V1000N -RA FG SCT002 BKN004 OVC030 13/12 Q1014 NOSIG
ZGHA,2012-03-18 22:00,ZGHA 182200Z 35001MPS 0700 R36/0900V1000N -RA FG SCT002 BKN004 OVC030 13/12 Q1014 BECMG TL2300 0900
ZGHA,2012-03-18 23:00,ZGHA 182300Z 30002MPS 0400 R36/0550V0800U -RA FG SCT002 BKN004 OVC030 13/12 Q1015 BECMG TL2330 0700 -RA FG
ZGHA,2012-03-19 00:00,ZGHA 190000Z 30002MPS 0600 R36/0800N FG SCT002 BKN004 OVC030 14/13 Q1015 BECMG TL0100 1000 BR
ZGHA,2012-03-19 01:00,ZGHA 190100Z 30003MPS 0900 R36/1000V1100N FG SCT002 BKN004 OVC030 14/13 Q1016 BECMG AT0255 1500 BR -RA
ZGHA,2012-03-19 02:00,ZGHA 190200Z 31004MPS 0500 R36/0650N FG SCT002 BKN004 OVC030 13/12 Q1016 BECMG AT0245 0800
ZGHA,2012-03-19 03:00,ZGHA 190300Z 30002MPS 260V340 0900 R36/0800V0900N FG SCT002 BKN004 OVC040 12/12 Q1016 NOSIG
ZGHA,2012-03-19 04:00,ZGHA 190400Z 30004MPS 1100 R36/0900V1100N BR SCT003 BKN005 OVC040 13/11 Q1015 BECMG 1700
ZGHA,2012-03-19 05:00,ZGHA 190500Z 31003MPS 1000 R36/0900V1000N BR SCT003 BKN005 OVC040 13/11 Q1014 NOSIG
ZGHA,2012-03-19 06:00,ZGHA 190600Z 31005MPS 0900 R36/1000V1100N FG SCT003 BKN005 OVC040 12/10 Q1014 BECMG 0700
ZGHA,2012-03-19 07:00,ZGHA 190700Z 31004MPS 280V340 0700 R36/0900V1100N -RA FG SCT002 BKN004 OVC033 11/10 Q1014 NOSIG
ZGHA,2012-03-19 08:00,ZGHA 190800Z 32004MPS 0900 R36/1100V1300N -RA FG SCT002 BKN004 OVC033 11/10 Q1013 NOSIG
ZGHA,2012-03-19 09:00,ZGHA 190900Z 35003MPS 1100 R36/1400U -RA BR SCT002 BKN004 OVC033 11/10 Q1013 BECMG TL1000 1600 BKN005 OVC040
ZGHA,2012-03-19 10:00,ZGHA 191000Z 34005MPS 2100 -RA BR SCT003 BKN005 OVC040 11/10 Q1014 BECMG TL1200 3000
ZGHA,2012-03-19 11:00,ZGHA 191100Z 33005MPS 1800 -RA BR SCT003 BKN005 OVC040 10/09 Q1015 BECMG TL1200 1400
ZGHA,2012-03-19 12:00,ZGHA 191200Z 34006MPS 2000 -DZ BR SCT003 BKN005 OVC040 10/09 Q1015 NOSIG
ZGHA,2012-03-19 13:00,ZGHA 191300Z 34006MPS 2500 -DZ BR SCT004 BKN007 OVC040 09/08 Q1016 BECMG FM1400 3000
ZGHA,2012-03-19 14:00,ZGHA 191400Z 34005MPS 3000 BR SCT004 BKN008 OVC040 09/08 Q1017 BECMG TL1500 BKN011
ZGHA,2012-03-19 15:00,ZGHA 191500Z 32006MPS 2800 BR SCT003 BKN008 OVC040 08/07 Q1018 BECMG FM1600 BKN011
ZGHA,2012-03-19 16:00,ZGHA 191600Z 31004MPS 1800 -DZ BR SCT003 BKN007 OVC040 08/07 Q1018 BECMG TL1700 1400 BKN004 OVC040
ZGHA,2012-03-19 17:00,ZGHA 191700Z 34005MPS 2000 -DZ BR SCT003 BKN007 OVC040 08/07 Q1018 NOSIG
ZGHA,2012-03-19 18:00,ZGHA 191800Z 31005MPS 2000 -RA BR SCT003 BKN007 OVC040 07/06 Q1018 NOSIG
ZGHA,2012-03-19 19:00,ZGHA 191900Z AUTO 30005MPS 1700 -RA BR OVC003/// 06/06 Q1018
ZGHA,2012-03-19 20:00,ZGHA 192000Z AUTO 31004MPS 1800 -DZ BR OVC003/// 06/05 Q1018
ZGHA,2012-03-19 21:00,ZGHA 192100Z 30004MPS 2500 -DZ BR SCT003 BKN007 OVC040 06/05 Q1018 NOSIG
ZGHA,2012-03-19 22:00,ZGHA 192200Z 34005MPS 2800 -DZ BR SCT003 BKN007 OVC040 06/05 Q1018 NOSIG
ZGHA,2012-03-19 23:00,ZGHA 192300Z 35005MPS 6000 SCT004 BKN008 OVC040 06/05 Q1019 BECMG TL0000 BKN011 OVC050
ZGHA,2012-03-20 00:00,ZGHA 200000Z 34005MPS 9000 FEW005 BKN008 OVC050 06/04 Q1020 BECMG TL0100 BKN011
ZGHA,2012-03-20 01:00,ZGHA 200100Z 35005MPS 5000 -RA BR BKN006 OVC040 06/05 Q1021 NOSIG
ZGHA,2012-03-20 02:00,ZGHA 200200Z 33004MPS 3500 -RA BR FEW004 BKN007 OVC040 06/05 Q1021 NOSIG
ZGHA,2012-03-20 03:00,ZGHA 200300Z 34005MPS 4000 BR FEW004 BKN007 OVC040 07/05 Q1021 NOSIG
ZGHA,2012-03-20 04:00,ZGHA 200400Z 31004MPS 3000 -DZ BR FEW004 BKN007 OVC040 07/05 Q1021 BECMG TL0500 2400
ZGHA,2012-03-20 05:00,ZGHA 200500Z 32002MPS 290V350 2700 BR FEW004 BKN007 OVC040 07/06 Q1021 NOSIG
ZGHA,2012-03-20 06:00,ZGHA 200600Z 32003MPS 3000 BR BKN006 OVC040 07/06 Q1020 BECMG TL0700 2600
ZGHA,2012-03-20 07:00,ZGHA 200700Z 31004MPS 3000 BR BKN006 OVC040 07/05 Q1019 BECMG TL0800 2500
ZGHA,2012-03-20 08:00,ZGHA 200800Z 36003MPS 320V020 2500 BR BKN006 OVC040 07/05 Q1019 NOSIG
ZGHA,2012-03-20 09:00,ZGHA 200900Z 01005MPS 1900 BR FEW003 BKN006 OVC040 06/05 Q1019 NOSIG
ZGHA,2012-03-20 10:00,ZGHA 201000Z 36005MPS 2000 BR FEW003 BKN006 OVC040 06/05 Q1019 NOSIG
ZGHA,2012-03-20 11:00,ZGHA 201100Z 34005MPS 1800 BR FEW003 BKN006 OVC040 06/05 Q1020 NOSIG
ZGHA,2012-03-20 12:00,ZGHA 201200Z 35005MPS 2200 BR FEW004 BKN007 OVC040 06/05 Q1021 NOSIG
ZGHA,2012-03-20 13:00,ZGHA 201300Z 31003MPS 2200 BR BKN006 OVC040 07/05 Q1022 NOSIG
ZGHA,2012-03-20 14:00,ZGHA 201400Z 33003MPS 1800 BR BKN004 OVC040 06/05 Q1023 BECMG TL1500 1400
ZGHA,2012-03-20 15:00,ZGHA 201500Z 35003MPS 1600 -RA BR BKN004 OVC040 07/06 Q1023 BECMG TL1600 1400 -RA BR
ZGHA,2012-03-20 16:00,ZGHA 201600Z 36004MPS 4000 BR BKN005 OVC040 07/06 Q1023 NOSIG
ZGHA,2012-03-20 17:00,ZGHA 201700Z 35004MPS 5000 BR SCT005 BKN007 OVC033 07/06 Q1022 NOSIG
ZGHA,2012-03-20 18:00,ZGHA 201800Z 32002MPS 4000 BR BKN004 OVC033 07/06 Q1022 NOSIG
ZGHA,2012-03-20 19:00,ZGHA 201900Z 31004MPS 2000 BR BKN004 OVC033 07/06 Q1021 NOSIG
ZGHA,2012-03-20 20:00,ZGHA 202000Z AUTO 35003MPS 1000 R36/P2000 DZ BR OVC003/// 07/06 Q1021
ZGHA,2012-03-20 21:00,ZGHA 202100Z 34002MPS 1600 -RA BR BKN004 OVC033 07/06 Q1021 NOSIG
ZGHA,2012-03-20 22:00,ZGHA 202200Z 36002MPS 2200 BR BKN004 OVC033 07/06 Q1020 NOSIG
ZGHA,2012-03-20 23:00,ZGHA 202300Z 31002MPS 1200 R36/1800N BR BKN003 OVC033 07/06 Q1020 BECMG TL0000 1600 BR
ZGHA,2012-03-21 00:00,ZGHA 210000Z 30002MPS 1000 R36/1900N BR FEW002 BKN003 OVC033 07/06 Q1020 BECMG TL0100 1600 BR
ZGHA,2012-03-21 01:00,ZGHA 210100Z 30002MPS 280V340 1800 -DZ BR FEW003 BKN006 OVC033 07/06 Q1020 NOSIG
ZGHA,2012-03-21 02:00,ZGHA 210200Z 29003MPS 1700 BR SCT003 BKN006 OVC040 07/07 Q1020 NOSIG
ZGHA,2012-03-21 03:00,ZGHA 210300Z 26002MPS 190V320 1400 R36/1200V1400N BR SCT003 BKN006 OVC040 07/07 Q1019 BECMG TL0400 1600
ZGHA,2012-03-21 04:00,ZGHA 210400Z VRB01MPS 1400 R36/1200V1300N BR SCT003 BKN006 OVC040 08/07 Q1018 BECMG TL0500 1600
ZGHA,2012-03-21 05:00,ZGHA 210500Z 23002MPS 190V260 1600 R36/1200V1300N BR SCT003 BKN006 OVC040 08/07 Q1016 NOSIG
ZGHA,2012-03-21 06:00,ZGHA 210600Z 27003MPS 1600 BR SCT003 BKN006 OVC040 09/07 Q1015 NOSIG
ZGHA,2012-03-21 07:00,ZGHA 210700Z 28003MPS 240V330 1600 BR SCT003 BKN006 OVC050 09/07 Q1014 NOSIG
ZGHA,2012-03-21 08:00,ZGHA 210800Z VRB01MPS 1800 BR FEW004 BKN007 OVC050 09/07 Q1013 NOSIG
ZGHA,2012-03-21 09:00,ZGHA 210900Z VRB01MPS 1800 BR FEW005 BKN008 OVC050 09/08 Q1012 NOSIG
ZGHA,2012-03-21 10:00,ZGHA 211000Z 26003MPS 1600 BR FEW005 BKN008 OVC050 09/08 Q1011 NOSIG
ZGHA,2012-03-21 11:00,ZGHA 211100Z 27002MPS 180V320 1600 BR FEW005 BKN008 OVC050 09/08 Q1012 BECMG TL1200 1400
ZGHA,2012-03-21 12:00,ZGHA 211200Z 34002MPS 290V030 1600 BR FEW005 BKN008 OVC050 09/08 Q1013 BECMG TL1300 1400
ZGHA,2012-03-21 13:00,ZGHA 211300Z 01003MPS 1400 R18/P2000 BR FEW004 BKN007 OVC050 09/08 Q1014 NOSIG
ZGHA,2012-03-21 14:00,ZGHA 211400Z 34002MPS 310V020 1700 BR FEW005 BKN008 OVC050 09/08 Q1014 NOSIG
ZGHA,2012-03-21 15:00,ZGHA 211500Z VRB01MPS 1600 BR FEW005 BKN008 OVC050 09/08 Q1014 BECMG 1400 -RA BR
ZGHA,2012-03-21 16:00,ZGHA 211600Z 34002MPS 310V010 1600 BR FEW005 BKN008 OVC050 09/08 Q1014 BECMG 1400 -RA BR
ZGHA,2012-03-21 17:00,ZGHA 211700Z 32003MPS 1600 BR FEW004 BKN008 OVC050 09/08 Q1014 BECMG TL1800 1400
ZGHA,2012-03-21 18:00,ZGHA 211800Z 34002MPS 1600 BR FEW004 BKN008 OVC050 09/08 Q1014 NOSIG
ZGHA,2012-03-21 19:00,ZGHA 211900Z 34002MPS 1600 BR FEW004 BKN008 OVC050 09/08 Q1013 NOSIG
ZGHA,2012-03-21 20:00,ZGHA 212000Z AUTO 34002MPS 1400 R36/P2000 BR OVC005/// 09/08 Q1012
ZGHA,2012-03-21 21:00,ZGHA 212100Z 34003MPS 1600 BR FEW005 BKN008 OVC050 09/08 Q1012 NOSIG
ZGHA,2012-03-21 22:00,ZGHA 212200Z 32002MPS 1600 BR FEW005 BKN008 OVC050 09/08 Q1012 NOSIG
ZGHA,2012-03-21 23:00,ZGHA 212300Z 32002MPS 1400 R36/1900U BR FEW005 BKN008 OVC050 09/08 Q1013 NOSIG
ZGHA,2012-03-22 00:00,ZGHA 220000Z 31002MPS 1600 BR FEW004 BKN007 OVC040 09/08 Q1014 BECMG TL0100 1400
ZGHA,2012-03-22 01:00,ZGHA 220100Z 31002MPS 1200 R36/1500N BR BKN004 OVC033 09/08 Q1015 NOSIG
ZGHA,2012-03-22 02:00,ZGHA 220200Z 31005MPS 1800 -RA BR BKN003 OVC033 08/07 Q1016 NOSIG
ZGHA,2012-03-22 03:00,ZGHA 220300Z 32005MPS 2000 -RA BR BKN003 OVC033 08/07 Q1016 NOSIG
ZGHA,2012-03-22 04:00,ZGHA 220400Z 34005MPS 2500 -RA BR BKN003 OVC033 08/07 Q1016 BECMG TL0500 3000 -RA BR
ZGHA,2012-03-22 05:00,ZGHA 220500Z 33006MPS 6000 -RA BKN003 OVC033 07/06 Q1016 NOSIG
ZGHA,2012-03-22 06:00,ZGHA 220600Z 33006MPS 3000 -RA BR BKN004 OVC033 07/06 Q1016 BECMG TL0700 BKN005 OVC033
ZGHA,2012-03-22 07:00,ZGHA 220700Z 33006MPS 6000 -RA BKN004 OVC033 07/06 Q1016 BECMG TL0800 BKN005 OVC040
ZGHA,2012-03-22 08:00,ZGHA 220800Z 33006MPS 8000 -RA BKN004 OVC033 07/06 Q1016 NOSIG
ZGHA,2012-03-22 09:00,ZGHA 220900Z 34006MPS 8000 -RA BKN004 OVC033 07/06 Q1016 NOSIG
ZGHA,2012-03-22 10:00,ZGHA 221000Z 34007MPS 8000 -RA BKN004 OVC033 07/06 Q1016 NOSIG
ZGHA,2012-03-22 11:00,ZGHA 221100Z 34007MPS 8000 -RA BKN007 OVC033 07/06 Q1017 NOSIG
ZGHA,2012-03-22 12:00,ZGHA 221200Z 34007MPS 9999 -RA BKN009 OVC040 07/06 Q1018 BECMG TL1300 BKN011 OVC050
ZGHA,2012-03-22 13:00,ZGHA 221300Z 33008MPS 9999 -RA FEW010 OVC040 07/06 Q1019 NOSIG
ZGHA,2012-03-22 14:00,ZGHA 221400Z 34007MPS 9999 -RA FEW010 OVC040 07/06 Q1020 NOSIG
ZGHA,2012-03-22 15:00,ZGHA 221500Z 35008MPS 6000 -RA SCT008 OVC040 07/06 Q1021 NOSIG
ZGHA,2012-03-22 16:00,ZGHA 221600Z 34006MPS 5000 -RA BR BKN008 OVC040 07/06 Q1021 NOSIG
ZGHA,2012-03-22 17:00,ZGHA 221700Z 35005MPS 4500 -RA BR BKN007 OVC050 07/06 Q1021 NOSIG
ZGHA,2012-03-22 18:00,ZGHA 221800Z 34006MPS 4000 -RA BR BKN007 OVC050 07/06 Q1021 NOSIG
ZGHA,2012-03-22 19:00,ZGHA 221900Z AUTO 35008MPS 3700 SHRA BKN054/// OVC064/// 07/06 Q1022
ZGHA,2012-03-22 20:00,ZGHA 222000Z AUTO 34007MPS 2400 -RASN VV038 07/06 Q1023
ZGHA,2012-03-22 21:00,ZGHA 222100Z 33007MPS 4000 -RA BR BKN006 OVC040 07/06 Q1025 NOSIG
ZGHA,2012-03-22 22:00,ZGHA 222200Z 33006MPS 3500 -RA BR BKN006 OVC040 07/06 Q1026 NOSIG
ZGHA,2012-03-22 23:00,ZGHA 222300Z 33005MPS 7000 -RA FEW008 07/06 Q1026 NOSIG
ZGHA,2012-03-23 00:00,ZGHA 230000Z 34005MPS 7000 SCT050 07/06 Q1027 NOSIG
ZGHA,2012-03-23 01:00,ZGHA 230100Z 34005MPS 7000 SCT008 08/06 Q1028 NOSIG
ZGHA,2012-03-23 02:00,ZGHA 230200Z 35005MPS 9000 FEW010 10/07 Q1028 NOSIG
ZGHA,2012-03-23 03:00,ZGHA 230300Z 34004MPS 320V020 9999 FEW014 12/07 Q1028 NOSIG
ZGHA,2012-03-23 04:00,ZGHA 230400Z 36005MPS 320V030 9999 FEW015 12/07 Q1027 NOSIG
ZGHA,2012-03-23 05:00,ZGHA 230500Z 32004MPS 300V360 9999 FEW020 14/07 Q1026 NOSIG
ZGHA,2012-03-23 06:00,ZGHA 230600Z 32003MPS 270V360 9999 FEW020 14/08 Q1024 NOSIG
ZGHA,2012-03-23 07:00,ZGHA 230700Z 32005MPS 9999 FEW030 15/07 Q1024 NOSIG
ZGHA,2012-03-23 08:00,ZGHA 230800Z 30005MPS 9999 FEW040 15/08 Q1024 NOSIG
ZGHA,2012-03-23 09:00,ZGHA 230900Z 35007MPS 9999 FEW040 14/06 Q1024 NOSIG
ZGHA,2012-03-23 10:00,ZGHA 231000Z 34005MPS 9999 FEW040 14/06 Q1024 NOSIG
ZGHA,2012-03-23 11:00,ZGHA 231100Z 32004MPS 9999 FEW040 13/06 Q1025 NOSIG
ZGHA,2012-03-23 12:00,ZGHA 231200Z 31003MPS CAVOK 13/07 Q1026 NOSIG
ZGHA,2012-03-23 13:00,ZGHA 231300Z 27002MPS 250V310 CAVOK 11/07 Q1027 NOSIG
ZGHA,2012-03-23 14:00,ZGHA 231400Z 29002MPS 270V340 7000 NSC 11/07 Q1027 NOSIG
ZGHA,2012-03-23 15:00,ZGHA 231500Z VRB01MPS 7000 NSC 11/07 Q1027 NOSIG
ZGHA,2012-03-23 16:00,ZGHA 231600Z 11001MPS 6000 NSC 09/07 Q1027 NOSIG
ZGHA,2012-03-23 17:00,ZGHA 231700Z 10002MPS 5000 BR NSC 09/07 Q1027 NOSIG
ZGHA,2012-03-23 18:00,ZGHA 231800Z 02001MPS 5000 BR NSC 09/08 Q1026 NOSIG
ZGHA,2012-03-23 19:00,ZGHA 231900Z AUTO 04002MPS 360V060 2900 BR FEW190/// 09/07 Q1026
ZGHA,2012-03-23 20:00,ZGHA 232000Z AUTO VRB01MPS 1200 R36/P2000 BR NCD 07/06 Q1025
ZGHA,2012-03-23 21:00,ZGHA 232100Z VRB01MPS 1600 BR NSC 06/06 Q1025 NOSIG
ZGHA,2012-03-23 22:00,ZGHA 232200Z VRB01MPS 1200 R36/0225N BR NSC 05/04 Q1026 BECMG TL2330 1600 BR
ZGHA,2012-03-23 23:00,ZGHA 232300Z VRB01MPS 1400 R36/0175V0250N BR SKC 05/04 Q1026 BECMG TL2330 1600 BR
ZGHA,2012-03-24 00:00,ZGHA 240000Z VRB01MPS 0500 R36/0175N FG SCT007 06/06 Q1027 BECMG TL0030 0900 FG
ZGHA,2012-03-24 01:00,ZGHA 240100Z VRB01MPS 1200 R36/0900V1100U BR SKC 08/08 Q1027 BECMG AT0135 1700
ZGHA,2012-03-24 02:00,ZGHA 240200Z VRB01MPS 9000 SKC 13/07 Q1027 NOSIG
ZGHA,2012-03-24 03:00,ZGHA 240300Z 18001MPS CAVOK 17/M01 Q1026 NOSIG
ZGHA,2012-03-24 04:00,ZGHA 240400Z VRB02MPS CAVOK 17/M05 Q1025 NOSIG
ZGHA,2012-03-24 05:00,ZGHA 240500Z VRB01MPS CAVOK 19/M01 Q1024 NOSIG
ZGHA,2012-03-24 06:00,ZGHA 240600Z VRB02MPS CAVOK 20/M00 Q1023 NOSIG
ZGHA,2012-03-24 07:00,ZGHA 240700Z 33004MPS 280V020 CAVOK 21/M02 Q1021 NOSIG
ZGHA,2012-03-24 08:00,ZGHA 240800Z 29003MPS 230V350 CAVOK 20/M02 Q1020 NOSIG
ZGHA,2012-03-24 09:00,ZGHA 240900Z 29003MPS 230V320 CAVOK 20/M01 Q1020 NOSIG
ZGHA,2012-03-24 10:00,ZGHA 241000Z 31004MPS CAVOK 18/M00 Q1020 NOSIG
ZGHA,2012-03-24 11:00,ZGHA 241100Z 31004MPS CAVOK 16/01 Q1020 NOSIG
ZGHA,2012-03-24 12:00,ZGHA 241200Z 30002MPS 270V340 CAVOK 14/02 Q1021 NOSIG
ZGHA,2012-03-24 13:00,ZGHA 241300Z VRB01MPS CAVOK 12/05 Q1022 NOSIG
ZGHA,2012-03-24 14:00,ZGHA 241400Z VRB01MPS CAVOK 10/07 Q1022 NOSIG
ZGHA,2012-03-24 15:00,ZGHA 241500Z 00000MPS CAVOK 09/07 Q1023 NOSIG
ZGHA,2012-03-24 16:00,ZGHA 241600Z 07001MPS CAVOK 08/06 Q1023 NOSIG
ZGHA,2012-03-24 17:00,ZGHA 241700Z 07002MPS 7000 SKC 08/06 Q1023 NOSIG
ZGHA,2012-03-24 18:00,ZGHA 241800Z VRB01MPS 7000 SKC 08/07 Q1024 NOSIG
ZGHA,2012-03-24 19:00,ZGHA 241900Z 00000MPS 6000 SKC 07/06 Q1023 NOSIG
ZGHA,2012-03-24 20:00,ZGHA 242000Z VRB01MPS 5000 BR SKC 06/05 Q1022 NOSIG
ZGHA,2012-03-24 21:00,ZGHA 242100Z VRB01MPS 3000 BR SKC 06/05 Q1022 NOSIG
ZGHA,2012-03-24 22:00,ZGHA 242200Z 03001MPS 5000 BR SKC 06/05 Q1022 NOSIG
ZGHA,2012-03-24 23:00,ZGHA 242300Z 00000MPS 6000 SKC 05/05 Q1023 NOSIG
ZGHA,2012-03-25 00:00,ZGHA 250000Z 00000MPS CAVOK 08/06 Q1024 NOSIG
ZGHA,2012-03-25 01:00,ZGHA 250100Z VRB01MPS CAVOK 11/06 Q1024 NOSIG
ZGHA,2012-03-25 02:00,ZGHA 250200Z VRB01MPS CAVOK 14/05 Q1024 NOSIG
ZGHA,2012-03-25 03:00,ZGHA 250300Z VRB02MPS CAVOK 18/06 Q1024 NOSIG
ZGHA,2012-03-25 04:00,ZGHA 250400Z 30002MPS 230V360 CAVOK 20/M01 Q1023 NOSIG
ZGHA,2012-03-25 05:00,ZGHA 250500Z VRB02MPS CAVOK 21/00 Q1022 NOSIG
ZGHA,2012-03-25 06:00,ZGHA 250600Z 02001MPS CAVOK 23/M06 Q1021 NOSIG
ZGHA,2012-03-25 07:00,ZGHA 250700Z VRB02MPS CAVOK 24/M07 Q1020 NOSIG
ZGHA,2012-03-25 08:00,ZGHA 250800Z VRB01MPS CAVOK 24/M05 Q1019 NOSIG
ZGHA,2012-03-25 09:00,ZGHA 250900Z VRB01MPS CAVOK 24/M03 Q1018 NOSIG
ZGHA,2012-03-25 10:00,ZGHA 251000Z 28002MPS 250V320 CAVOK 23/M01 Q1019 NOSIG
ZGHA,2012-03-25 11:00,ZGHA 251100Z 32002MPS 280V340 CAVOK 21/M03 Q1019 NOSIG
ZGHA,2012-03-25 12:00,ZGHA 251200Z 00000MPS CAVOK 15/09 Q1019 NOSIG
ZGHA,2012-03-25 13:00,ZGHA 251300Z 10002MPS CAVOK 13/08 Q1021 NOSIG
ZGHA,2012-03-25 14:00,ZGHA 251400Z VRB01MPS CAVOK 14/08 Q1021 NOSIG
ZGHA,2012-03-25 15:00,ZGHA 251500Z 06002MPS 8000 SKC 11/09 Q1022 NOSIG
ZGHA,2012-03-25 16:00,ZGHA 251600Z VRB01MPS 7000 SKC 11/08 Q1022 NOSIG
ZGHA,2012-03-25 17:00,ZGHA 251700Z 12002MPS 8000 SKC 11/07 Q1022 NOSIG
ZGHA,2012-03-25 18:00,ZGHA 251800Z 09002MPS 8000 SKC 10/07 Q1022 NOSIG
ZGHA,2012-03-25 19:00,ZGHA 251900Z 07002MPS 050V120 8000 SKC 10/05 Q1022 NOSIG
ZGHA,2012-03-25 20:00,ZGHA 252000Z 10001MPS 8000 SKC 09/05 Q1021 NOSIG
ZGHA,2012-03-25 21:00,ZGHA 252100Z VRB01MPS 8000 SKC 09/06 Q1021 NOSIG
ZGHA,2012-03-25 22:00,ZGHA 252200Z 01002MPS 8000 SKC 08/05 Q1021 NOSIG
ZGHA,2012-03-25 23:00,ZGHA 252300Z VRB01MPS CAVOK 07/05 Q1022 NOSIG
ZGHA,2012-03-26 00:00,ZGHA 260000Z 27002MPS 240V320 CAVOK 12/06 Q1022 NOSIG
ZGHA,2012-03-26 01:00,ZGHA 260100Z VRB01MPS CAVOK 15/05 Q1023 NOSIG
ZGHA,2012-03-26 02:00,ZGHA 260200Z VRB01MPS CAVOK 19/04 Q1023 NOSIG
ZGHA,2012-03-26 03:00,ZGHA 260300Z 08001MPS CAVOK 22/02 Q1023 NOSIG
ZGHA,2012-03-26 04:00,ZGHA 260400Z VRB01MPS CAVOK 23/01 Q1021 NOSIG
ZGHA,2012-03-26 05:00,ZGHA 260500Z VRB02MPS CAVOK 25/03 Q1020 NOSIG
ZGHA,2012-03-26 06:00,ZGHA 260600Z 36002MPS 320V060 CAVOK 25/02 Q1019 NOSIG
ZGHA,2012-03-26 07:00,ZGHA 260700Z VRB01MPS CAVOK 26/00 Q1018 NOSIG
ZGHA,2012-03-26 08:00,ZGHA 260800Z 35002MPS 290V060 CAVOK 27/M02 Q1017 NOSIG
ZGHA,2012-03-26 09:00,ZGHA 260900Z 07002MPS 040V110 CAVOK 26/M01 Q1017 NOSIG
ZGHA,2012-03-26 10:00,ZGHA 261000Z VRB01MPS CAVOK 26/M00 Q1017 NOSIG
ZGHA,2012-03-26 11:00,ZGHA 261100Z 16002MPS CAVOK 21/05 Q1017 NOSIG
ZGHA,2012-03-26 12:00,ZGHA 261200Z VRB01MPS CAVOK 20/04 Q1017 NOSIG
ZGHA,2012-03-26 13:00,ZGHA 261300Z VRB01MPS CAVOK 18/08 Q1018 NOSIG
ZGHA,2012-03-26 14:00,ZGHA 261400Z VRB01MPS CAVOK 15/08 Q1019 NOSIG
ZGHA,2012-03-26 15:00,ZGHA 261500Z 05002MPS CAVOK 14/10 Q1019 NOSIG
ZGHA,2012-03-26 16:00,ZGHA 261600Z VRB01MPS CAVOK 13/09 Q1020 NOSIG
ZGHA,2012-03-26 17:00,ZGHA 261700Z VRB01MPS CAVOK 12/08 Q1020 NOSIG
ZGHA,2012-03-26 18:00,ZGHA 261800Z 00000MPS CAVOK 11/09 Q1020 NOSIG
ZGHA,2012-03-26 19:00,ZGHA 261900Z 00000MPS CAVOK 11/08 Q1019 NOSIG
ZGHA,2012-03-26 20:00,ZGHA 262000Z VRB01MPS CAVOK 10/08 Q1019 NOSIG
ZGHA,2012-03-26 21:00,ZGHA 262100Z VRB01MPS CAVOK 10/08 Q1019 NOSIG
ZGHA,2012-03-26 22:00,ZGHA 262200Z 03002MPS CAVOK 10/07 Q1020 NOSIG
ZGHA,2012-03-26 23:00,ZGHA 262300Z 35001MPS CAVOK 11/06 Q1020 NOSIG
ZGHA,2012-03-27 00:00,ZGHA 270000Z 00000MPS CAVOK 13/08 Q1021 NOSIG
ZGHA,2012-03-27 01:00,ZGHA 270100Z VRB01MPS CAVOK 16/07 Q1021 NOSIG
ZGHA,2012-03-27 02:00,ZGHA 270200Z VRB01MPS CAVOK 21/08 Q1022 NOSIG
ZGHA,2012-03-27 03:00,ZGHA 270300Z 17004MPS 140V200 CAVOK 23/04 Q1021 NOSIG
ZGHA,2012-03-27 04:00,ZGHA 270400Z 16003MPS 070V220 CAVOK 24/05 Q1021 NOSIG
ZGHA,2012-03-27 05:00,ZGHA 270500Z 16003MPS 120V200 CAVOK 26/04 Q1019 NOSIG
ZGHA,2012-03-27 06:00,ZGHA 270600Z 24003MPS 170V280 CAVOK 27/03 Q1019 NOSIG
ZGHA,2012-03-27 07:00,ZGHA 270700Z 23002MPS 110V270 CAVOK 27/04 Q1018 NOSIG
ZGHA,2012-03-27 08:00,ZGHA 270800Z VRB01MPS CAVOK 27/04 Q1017 NOSIG
ZGHA,2012-03-27 09:00,ZGHA 270900Z 20002MPS 160V220 CAVOK 26/04 Q1017 NOSIG
ZGHA,2012-03-27 10:00,ZGHA 271000Z VRB01MPS 7000 NSC 24/10 Q1017 NOSIG
ZGHA,2012-03-27 11:00,ZGHA 271100Z 07001MPS 6000 NSC 22/14 Q1018 NOSIG
ZGHA,2012-03-27 12:00,ZGHA 271200Z 03001MPS 3500 BR NSC 19/14 Q1018 NOSIG
ZGHA,2012-03-27 13:00,ZGHA 271300Z 06002MPS 4000 BR NSC 18/14 Q1019 NOSIG
ZGHA,2012-03-27 14:00,ZGHA 271400Z 07002MPS 040V110 4000 BR NSC 17/13 Q1020 NOSIG
ZGHA,2012-03-27 15:00,ZGHA 271500Z 09001MPS 4000 BR NSC 16/13 Q1020 NOSIG
ZGHA,2012-03-27 16:00,ZGHA 271600Z VRB01MPS 4500 BR NSC 16/12 Q1020 NOSIG
ZGHA,2012-03-27 17:00,ZGHA 271700Z VRB01MPS 4500 BR NSC 16/13 Q1020 NOSIG
ZGHA,2012-03-27 18:00,ZGHA 271800Z 06002MPS 4500 BR NSC 15/12 Q1019 NOSIG
ZGHA,2012-03-27 19:00,ZGHA 271900Z AUTO 06003MPS 6000 BKN110/// 16/11 Q1019
ZGHA,2012-03-27 20:00,ZGHA 272000Z 08002MPS 040V100 6000 NSC 15/12 Q1018 NOSIG
ZGHA,2012-03-27 21:00,ZGHA 272100Z VRB01MPS 5000 BR NSC 15/13 Q1019 NOSIG
ZGHA,2012-03-27 22:00,ZGHA 272200Z VRB01MPS 5000 BR NSC 15/12 Q1019 NOSIG
ZGHA,2012-03-27 23:00,ZGHA 272300Z VRB01MPS 8000 NSC 15/12 Q1020 NOSIG
ZGHA,2012-03-28 00:00,ZGHA 280000Z 00000MPS 6000 NSC 16/13 Q1020 NOSIG
ZGHA,2012-03-28 01:00,ZGHA 280100Z VRB01MPS 7000 NSC 18/12 Q1021 NOSIG
ZGHA,2012-03-28 02:00,ZGHA 280200Z VRB01MPS 8000 NSC 20/11 Q1021 NOSIG
ZGHA,2012-03-28 03:00,ZGHA 280300Z 00000MPS 8000 NSC 23/10 Q1020 NOSIG
ZGHA,2012-03-28 04:00,ZGHA 280400Z VRB01MPS 8000 NSC 25/10 Q1019 NOSIG
ZGHA,2012-03-28 05:00,ZGHA 280500Z 14003MPS 110V200 CAVOK 27/07 Q1018 NOSIG
ZGHA,2012-03-28 06:00,ZGHA 280600Z 19002MPS 140V240 CAVOK 27/07 Q1017 NOSIG
ZGHA,2012-03-28 07:00,ZGHA 280700Z 20003MPS 170V240 9999 FEW050 25/10 Q1016 NOSIG
ZGHA,2012-03-28 08:00,ZGHA 280800Z 28002MPS 240V330 8000 SCT050 25/11 Q1015 NOSIG
ZGHA,2012-03-28 09:00,ZGHA 280900Z VRB01MPS 6000 SCT050 24/11 Q1015 NOSIG
ZGHA,2012-03-28 10:00,ZGHA 281000Z 34002MPS 300V360 5000 HZ SCT050 23/12 Q1016 NOSIG
ZGHA,2012-03-28 11:00,ZGHA 281100Z 29003MPS 250V330 5000 HZ SCT050 21/11 Q1016 NOSIG
ZGHA,2012-03-28 12:00,ZGHA 281200Z 34003MPS 4500 HZ SCT050 21/11 Q1017 NOSIG
ZGHA,2012-03-28 13:00,ZGHA 281300Z VRB02MPS 4000 HZ SCT050 20/13 Q1017 NOSIG
ZGHA,2012-03-28 14:00,ZGHA 281400Z 30004MPS 220V330 4000 -RA HZ SCT050 19/13 Q1018 NOSIG
ZGHA,2012-03-28 15:00,ZGHA 281500Z 21002MPS 180V250 3000 -RA BR SCT050 19/14 Q1019 BECMG TL1600 2500
ZGHA,2012-03-28 16:00,ZGHA 281600Z 28003MPS 3000 -RA BR SCT050 17/14 Q1019 BECMG TL1700 2500
ZGHA,2012-03-28 17:00,ZGHA 281700Z 19003MPS 170V230 2500 BR SCT050 17/14 Q1019 NOSIG
ZGHA,2012-03-28 18:00,ZGHA 281800Z 14001MPS 2300 -RA BR SCT050 16/14 Q1018 NOSIG
ZGHA,2012-03-28 19:00,ZGHA 281900Z VRB01MPS 2200 BR SCT050 16/14 Q1017 NOSIG
ZGHA,2012-03-28 20:00,ZGHA 282000Z 20001MPS 2200 BR SCT050 16/14 Q1017 NOSIG
ZGHA,2012-03-28 21:00,ZGHA 282100Z 18001MPS 2100 BR SCT040 16/14 Q1017 NOSIG
ZGHA,2012-03-28 22:00,ZGHA 282200Z 19002MPS 2200 BR BKN033 16/14 Q1017 BECMG 3000
ZGHA,2012-03-28 23:00,ZGHA 282300Z VRB01MPS 1400 R36/1700U -RA BR BKN033 16/14 Q1018 BECMG TL0030 1700
ZGHA,2012-03-29 00:00,ZGHA 290000Z VRB01MPS 1400 R36/1500N -RA BR BKN026 OVC050 15/14 Q1018 NOSIG
ZGHA,2012-03-29 01:00,ZGHA 290100Z VRB01MPS 1300 R36/1300V1400N -RA BR BKN006 OVC040 15/14 Q1019 BECMG 1600
ZGHA,2012-03-29 02:00,ZGHA 290200Z 16001MPS 0900 R36/1000V1200N -RA FG BKN007 OVC040 16/14 Q1019 BECMG 1700 BR -RA
ZGHA,2012-03-29 03:00,ZGHA 290300Z VRB01MPS 1800 R36/1200N BR FEW004 BKN007 OVC040 16/15 Q1019 NOSIG
ZGHA,2012-03-29 04:00,ZGHA 290400Z VRB01MPS 2400 BR BKN007 OVC040 16/14 Q1018 BECMG TL0500 3000 BR BKN011 OVC040
ZGHA,2012-03-29 05:00,ZGHA 290500Z 13002MPS 090V160 5000 BR FEW009 BKN015 OVC040 17/15 Q1017 NOSIG
ZGHA,2012-03-29 06:00,ZGHA 290600Z 15003MPS 110V190 6000 BKN013 OVC040 18/15 Q1016 NOSIG
ZGHA,2012-03-29 07:00,ZGHA 290700Z 17002MPS 120V210 6000 BKN013 OVC040 18/15 Q1015 NOSIG
ZGHA,2012-03-29 08:00,ZGHA 290800Z 18002MPS 110V200 5000 BR BKN013 OVC040 18/15 Q1014 NOSIG
ZGHA,2012-03-29 09:00,ZGHA 290900Z 16002MPS 130V190 4000 -RA BR BKN011 OVC040 18/15 Q1014 BECMG TL1100 2500
ZGHA,2012-03-29 10:00,ZGHA 291000Z VRB01MPS 4000 BR SCT011 OVC033 17/15 Q1014 NOSIG
ZGHA,2012-03-29 11:00,ZGHA 291100Z 16001MPS 4000 -RA BR SCT011 OVC033 17/15 Q1014 BECMG TL1300 2500
ZGHA,2012-03-29 12:00,ZGHA 291200Z 01002MPS 2700 -RA BR OVC033 17/15 Q1014 NOSIG
ZGHA,2012-03-29 13:00,ZGHA 291300Z 03002MPS 360V090 2100 -RA BR SCT020 OVC040 16/15 Q1015 NOSIG
ZGHA,2012-03-29 14:00,ZGHA 291400Z VRB01MPS 1400 R36/1700N -RA BR BKN008 OVC040 16/15 Q1015 BECMG FM1500 1600
ZGHA,2012-03-29 15:00,ZGHA 291500Z 02002MPS 1600 -RA BR FEW004 BKN009 OVC040 16/15 Q1015 NOSIG
ZGHA,2012-03-29 16:00,ZGHA 291600Z 01001MPS 1200 R18/1200V1400N -RA BR FEW003 BKN007 OVC030 16/15 Q1015 BECMG TL1700 BKN004 OVC040
ZGHA,2012-03-29 17:00,ZGHA 291700Z VRB01MPS 1000 R18/1000V1200N -RA BR SCT003 BKN006 OVC030 16/15 Q1015 BECMG TL1800 BKN004 OVC040
ZGHA,2012-03-29 18:00,ZGHA 291800Z VRB01MPS 1600 -RA BR SCT003 BKN006 OVC030 16/15 Q1015 NOSIG
ZGHA,2012-03-29 19:00,ZGHA 291900Z VRB01MPS 1600 -RA BR SCT003 BKN006 OVC030 16/15 Q1014 NOSIG
ZGHA,2012-03-29 20:00,ZGHA 292000Z VRB01MPS 1600 -RA BR SCT003 BKN006 OVC030 16/15 Q1013 NOSIG
ZGHA,2012-03-29 21:00,ZGHA 292100Z VRB01MPS 1600 -RA BR SCT003 BKN006 OVC030 16/15 Q1013 NOSIG
ZGHA,2012-03-29 22:00,ZGHA 292200Z 34002MPS 1600 -RA BR SCT003 BKN006 OVC030 16/15 Q1013 NOSIG
ZGHA,2012-03-29 23:00,ZGHA 292300Z 34004MPS 1600 -SHRA BR SCT003 BKN006 OVC030 16/15 Q1014 NOSIG
ZGHA,2012-03-30 00:00,ZGHA 300000Z 35005MPS 2000 -RA BR SCT003 BKN006 OVC030 16/15 Q1015 NOSIG
ZGHA,2012-03-30 01:00,ZGHA 300100Z 01004MPS 3500 -RA BR SCT003 BKN006 OVC040 16/15 Q1015 NOSIG
ZGHA,2012-03-30 02:00,ZGHA 300200Z 01004MPS 6000 -RA SCT003 BKN007 OVC040 16/15 Q1016 NOSIG
ZGHA,2012-03-30 03:00,ZGHA 300300Z 34005MPS 6000 -RA SCT004 BKN008 OVC040 16/15 Q1016 NOSIG
ZGHA,2012-03-30 04:00,ZGHA 300400Z 33006MPS 7000 -RA BKN007 OVC040 16/15 Q1017 NOSIG
ZGHA,2012-03-30 05:00,ZGHA 300500Z 34007MPS 7000 -RA BKN008 OVC040 16/14 Q1017 NOSIG
ZGHA,2012-03-30 06:00,ZGHA 300600Z 34006MPS 5000 -RA BR BKN008 OVC040 16/14 Q1017 NOSIG
ZGHA,2012-03-30 07:00,ZGHA 300700Z 34006MPS 5000 -RA BR BKN009 OVC040 16/14 Q1017 BECMG TL0800 BKN011 OVC040
ZGHA,2012-03-30 08:00,ZGHA 300800Z 36004MPS 5000 BR SCT009 OVC050 16/14 Q1017 NOSIG
ZGHA,2012-03-30 09:00,ZGHA 300900Z 01004MPS 5000 BR SCT009 OVC050 16/14 Q1018 NOSIG
ZGHA,2012-03-30 10:00,ZGHA 301000Z 35004MPS 4000 BR FEW020 16/14 Q1019 NOSIG
ZGHA,2012-03-30 11:00,ZGHA 301100Z 36005MPS 4000 BR SCT020 16/13 Q1021 NOSIG
ZGHA,2012-03-30 12:00,ZGHA 301200Z 01004MPS 5000 BR NSC 16/13 Q1022 NOSIG
ZGHA,2012-03-30 13:00,ZGHA 301300Z 01004MPS 3500 BR SCT040 16/13 Q1024 BECMG 2500
ZGHA,2012-03-30 14:00,ZGHA 301400Z 01005MPS 340V040 7000 SCT040 16/11 Q1025 NOSIG
ZGHA,2012-03-30 15:00,ZGHA 301500Z 36004MPS 7000 SCT050 15/11 Q1026 NOSIG
ZGHA,2012-03-30 16:00,ZGHA 301600Z 35003MPS 7000 NSC 14/10 Q1026 NOSIG
ZGHA,2012-03-30 17:00,ZGHA 301700Z 34004MPS 8000 NSC 15/10 Q1026 NOSIG
ZGHA,2012-03-30 18:00,ZGHA 301800Z 33006MPS 9000 NSC 15/09 Q1026 NOSIG
ZGHA,2012-03-30 19:00,ZGHA 301900Z 02002MPS 350V050 8000 NSC 13/09 Q1026 NOSIG
ZGHA,2012-03-30 20:00,ZGHA 302000Z 02002MPS 360V060 5000 BR NSC 13/10 Q1026 NOSIG
ZGHA,2012-03-30 21:00,ZGHA 302100Z 35003MPS 4000 BR NSC 11/09 Q1026 NOSIG
ZGHA,2012-03-30 22:00,ZGHA 302200Z 34003MPS 1600 BR SKC 11/10 Q1027 NOSIG
ZGHA,2012-03-30 23:00,ZGHA 302300Z VRB01MPS 1300 R36/0900V1000N BR SKC 11/10 Q1027 BECMG 1700
ZGHA,2012-03-31 00:00,ZGHA 310000Z 36003MPS 1600 R36/1100V1400N BR SKC 12/11 Q1028 NOSIG
ZGHA,2012-03-31 01:00,ZGHA 310100Z 34003MPS 310V030 3000 BR SKC 15/11 Q1028 NOSIG
ZGHA,2012-03-31 02:00,ZGHA 310200Z 36004MPS 320V020 6000 NSC 17/10 Q1028 NOSIG
ZGHA,2012-03-31 03:00,ZGHA 310300Z 01003MPS 320V090 CAVOK 19/08 Q1028 NOSIG
ZGHA,2012-03-31 04:00,ZGHA 310400Z 36007MPS CAVOK 21/M01 Q1027 NOSIG
ZGHA,2012-03-31 05:00,ZGHA 310500Z 36004MPS 330V050 CAVOK 22/M01 Q1026 NOSIG
ZGHA,2012-03-31 06:00,ZGHA 310600Z VRB02MPS CAVOK 22/M00 Q1024 NOSIG
ZGHA,2012-03-31 07:00,ZGHA 310700Z 01003MPS 340V070 CAVOK 22/00 Q1023 NOSIG
ZGHA,2012-03-31 08:00,ZGHA 310800Z 30003MPS 250V350 CAVOK 22/M00 Q1022 NOSIG
ZGHA,2012-03-31 09:00,ZGHA 310900Z 30003MPS 250V330 CAVOK 22/M01 Q1022 NOSIG
ZGHA,2012-03-31 10:00,ZGHA 311000Z 28004MPS 250V320 CAVOK 20/05 Q1021 NOSIG
ZGHA,2012-03-31 11:00,ZGHA 311100Z 30003MPS CAVOK 18/05 Q1022 NOSIG
ZGHA,2012-03-31 12:00,ZGHA 311200Z 31003MPS CAVOK 17/04 Q1022 NOSIG
ZGHA,2012-03-31 13:00,ZGHA 311300Z 05002MPS CAVOK 14/09 Q1022 NOSIG
ZGHA,2012-03-31 14:00,ZGHA 311400Z 17001MPS 8000 SKC 12/09 Q1023 NOSIG
ZGHA,2012-03-31 15:00,ZGHA 311500Z 16001MPS 6000 SKC 11/09 Q1022 NOSIG
ZGHA,2012-03-31 16:00,ZGHA 311600Z 16001MPS 6000 SKC 11/08 Q1022 NOSIG
ZGHA,2012-03-31 17:00,ZGHA 311700Z VRB01MPS 5000 BR SKC 10/08 Q1021 NOSIG
ZGHA,2012-03-31 18:00,ZGHA 311800Z 12001MPS 5000 BR SKC 09/08 Q1020 NOSIG
ZGHA,2012-03-31 19:00,ZGHA 311900Z AUTO 19002MPS 5000 NCD 09/07 Q1020
ZGHA,2012-03-31 20:00,ZGHA 312000Z AUTO 16001MPS 5000 NCD 09/07 Q1019
ZGHA,2012-03-31 21:00,ZGHA 312100Z 15001MPS 5000 BR SKC 08/07 Q1019 NOSIG
ZGHA,2012-03-31 22:00,ZGHA 312200Z 07001MPS 4500 BR SKC 08/07 Q1019 NOSIG
ZGHA,2012-03-31 23:00,ZGHA 312300Z 08001MPS 5000 BR SKC 08/07 Q1019 NOSIG
ZGHA,2012-04-01 00:00,ZGHA 010000Z 00000MPS 7000 SKC 12/08 Q1020 NOSIG
ZGHA,2012-04-01 01:00,ZGHA 010100Z 21002MPS 180V240 CAVOK 14/08 Q1020 NOSIG
ZGHA,2012-04-01 02:00,ZGHA 010200Z 18005MPS CAVOK 19/06 Q1020 NOSIG
ZGHA,2012-04-01 03:00,ZGHA 010300Z 19005MPS 160V220 CAVOK 21/07 Q1019 NOSIG
ZGHA,2012-04-01 04:00,ZGHA 010400Z 20006MPS CAVOK 23/05 Q1017 NOSIG
ZGHA,2012-04-01 05:00,ZGHA 010500Z 20006MPS CAVOK 24/05 Q1016 NOSIG
ZGHA,2012-04-01 06:00,ZGHA 010600Z 21006MPS 180V240 CAVOK 24/04 Q1014 NOSIG
ZGHA,2012-04-01 07:00,ZGHA 010700Z 19005MPS 160V220 CAVOK 25/03 Q1012 NOSIG
ZGHA,2012-04-01 08:00,ZGHA 010800Z 17004MPS 120V240 CAVOK 26/04 Q1011 NOSIG
ZGHA,2012-04-01 09:00,ZGHA 010900Z 19007MPS CAVOK 25/04 Q1010 NOSIG
ZGHA,2012-04-01 10:00,ZGHA 011000Z 19005MPS CAVOK 24/05 Q1010 NOSIG
ZGHA,2012-04-01 11:00,ZGHA 011100Z 18004MPS CAVOK 22/06 Q1011 NOSIG
ZGHA,2012-04-01 12:00,ZGHA 011200Z 17002MPS CAVOK 19/08 Q1011 NOSIG
ZGHA,2012-04-01 13:00,ZGHA 011300Z 15002MPS CAVOK 18/09 Q1011 NOSIG
ZGHA,2012-04-01 14:00,ZGHA 011400Z 14001MPS CAVOK 18/08 Q1012 NOSIG
ZGHA,2012-04-01 15:00,ZGHA 011500Z VRB01MPS CAVOK 15/11 Q1012 NOSIG
ZGHA,2012-04-01 16:00,ZGHA 011600Z 19003MPS CAVOK 15/10 Q1012 NOSIG
ZGHA,2012-04-01 17:00,ZGHA 011700Z VRB01MPS CAVOK 15/10 Q1011 NOSIG
ZGHA,2012-04-01 18:00,ZGHA 011800Z 19003MPS CAVOK 15/10 Q1011 NOSIG
ZGHA,2012-04-01 19:00,ZGHA 011900Z 16004MPS CAVOK 18/09 Q1010 NOSIG
ZGHA,2012-04-01 20:00,ZGHA 012000Z 17004MPS CAVOK 17/09 Q1010 NOSIG
ZGHA,2012-04-01 21:00,ZGHA 012100Z 17004MPS CAVOK 16/09 Q1009 NOSIG
ZGHA,2012-04-01 22:00,ZGHA 012200Z 18003MPS CAVOK 16/10 Q1009 NOSIG
ZGHA,2012-04-01 23:00,ZGHA 012300Z 18003MPS CAVOK 15/11 Q1009 NOSIG
ZGHA,2012-04-02 00:00,ZGHA 020000Z 17003MPS CAVOK 19/12 Q1009 NOSIG
ZGHA,2012-04-02 01:00,ZGHA 020100Z 18004MPS 140V200 CAVOK 22/13 Q1010 NOSIG
ZGHA,2012-04-02 02:00,ZGHA 020200Z 20010MPS CAVOK 24/14 Q1009 NOSIG
ZGHA,2012-04-02 03:00,ZGHA 020300Z 20008G13MPS 8000 SKC 26/14 Q1009 NOSIG
ZGHA,2012-04-02 04:00,ZGHA 020400Z 20008MPS 8000 SKC 28/15 Q1008 NOSIG
ZGHA,2012-04-02 05:00,ZGHA 020500Z 19008MPS 8000 NSC 28/15 Q1007 NOSIG
ZGHA,2012-04-02 06:00,ZGHA 020600Z 20009MPS 170V230 8000 FEW040 28/15 Q1006 NOSIG
ZGHA,2012-04-02 07:00,ZGHA 020700Z 19008MPS 8000 SCT050 29/16 Q1006 NOSIG
ZGHA,2012-04-02 08:00,ZGHA 020800Z 19006MPS 8000 BKN050 29/15 Q1006 NOSIG
ZGHA,2012-04-02 09:00,ZGHA 020900Z 18005MPS CAVOK 29/15 Q1007 NOSIG
ZGHA,2012-04-02 10:00,ZGHA 021000Z 16002MPS 130V190 8000 NSC 28/16 Q1008 NOSIG
ZGHA,2012-04-02 11:00,ZGHA 021100Z VRB01MPS 7000 NSC 26/17 Q1010 NOSIG
ZGHA,2012-04-02 12:00,ZGHA 021200Z 00000MPS 6000 NSC 24/18 Q1011 NOSIG
ZGHA,2012-04-02 13:00,ZGHA 021300Z 36006MPS 6000 BKN050 24/17 Q1014 NOSIG
ZGHA,2012-04-02 14:00,ZGHA 021400Z 02006G11MPS 340V050 6000 BKN050 24/14 Q1016 NOSIG
ZGHA,2012-04-02 15:00,ZGHA 021500Z 03006G11MPS 350V080 8000 NSC 24/08 Q1017 NOSIG
ZGHA,2012-04-02 16:00,ZGHA 021600Z 01006MPS 8000 NSC 22/06 Q1019 NOSIG
ZGHA,2012-04-02 17:00,ZGHA 021700Z 36005MPS CAVOK 21/05 Q1019 NOSIG
ZGHA,2012-04-02 18:00,ZGHA 021800Z 36005MPS CAVOK 20/04 Q1020 NOSIG
ZGHA,2012-04-02 19:00,ZGHA 021900Z 36008MPS CAVOK 20/03 Q1020 NOSIG
ZGHA,2012-04-02 20:00,ZGHA 022000Z 36006MPS CAVOK 18/04 Q1021 NOSIG
ZGHA,2012-04-02 21:00,ZGHA 022100Z 36005MPS CAVOK 17/05 Q1022 NOSIG
ZGHA,2012-04-02 22:00,ZGHA 022200Z 36006MPS CAVOK 17/03 Q1023 NOSIG
ZGHA,2012-04-02 23:00,ZGHA 022300Z 03003MPS 340V100 CAVOK 17/03 Q1024 NOSIG
ZGHA,2012-04-03 00:00,ZGHA 030000Z 02002MPS 360V070 CAVOK 18/01 Q1025 NOSIG
ZGHA,2012-04-03 01:00,ZGHA 030100Z 06003MPS 360V090 CAVOK 20/00 Q1025 NOSIG
ZGHA,2012-04-03 02:00,ZGHA 030200Z 03003MPS 350V090 CAVOK 21/M01 Q1026 NOSIG
ZGHA,2012-04-03 03:00,ZGHA 030300Z 06003MPS 350V110 CAVOK 22/M01 Q1025 NOSIG
ZGHA,2012-04-03 04:00,ZGHA 030400Z 07004MPS 030V100 CAVOK 23/M04 Q1024 NOSIG
ZGHA,2012-04-03 05:00,ZGHA 030500Z VRB02MPS CAVOK 23/M04 Q1022 NOSIG
ZGHA,2012-04-03 06:00,ZGHA 030600Z VRB02MPS CAVOK 24/M04 Q1021 NOSIG
ZGHA,2012-04-03 07:00,ZGHA 030700Z 01002MPS 290V100 CAVOK 24/M03 Q1020 NOSIG
ZGHA,2012-04-03 08:00,ZGHA 030800Z 01002MPS 320V110 CAVOK 25/M02 Q1019 NOSIG
ZGHA,2012-04-03 09:00,ZGHA 030900Z 32006MPS CAVOK 24/03 Q1018 NOSIG
ZGHA,2012-04-03 10:00,ZGHA 031000Z 32006MPS CAVOK 22/04 Q1018 NOSIG
ZGHA,2012-04-03 11:00,ZGHA 031100Z 31004MPS CAVOK 20/06 Q1018 NOSIG
ZGHA,2012-04-03 12:00,ZGHA 031200Z 02003MPS 360V060 CAVOK 19/05 Q1019 NOSIG
ZGHA,2012-04-03 13:00,ZGHA 031300Z 02003MPS CAVOK 18/02 Q1020 NOSIG
ZGHA,2012-04-03 14:00,ZGHA 031400Z 03002MPS CAVOK 17/04 Q1020 NOSIG
ZGHA,2012-04-03 15:00,ZGHA 031500Z VRB01MPS CAVOK 16/07 Q1020 NOSIG
ZGHA,2012-04-03 16:00,ZGHA 031600Z VRB01MPS CAVOK 15/09 Q1019 NOSIG
ZGHA,2012-04-03 17:00,ZGHA 031700Z VRB01MPS CAVOK 15/07 Q1018 NOSIG
ZGHA,2012-04-03 18:00,ZGHA 031800Z AUTO 28002MPS 7000 BKN120/// 15/08 Q1018
ZGHA,2012-04-03 19:00,ZGHA 031900Z AUTO 31001MPS 6000 FEW130/// BKN240/// 15/08 Q1017
ZGHA,2012-04-03 20:00,ZGHA 032000Z VRB01MPS CAVOK 14/08 Q1016 NOSIG
ZGHA,2012-04-03 21:00,ZGHA 032100Z VRB01MPS CAVOK 13/10 Q1016 NOSIG
ZGHA,2012-04-03 22:00,ZGHA 032200Z VRB01MPS 6000 NSC 13/10 Q1016 NOSIG
ZGHA,2012-04-03 23:00,ZGHA 032300Z 00000MPS 6000 NSC 13/11 Q1015 BECMG TL0020 2500 SHRA BR SCT020 FEW040CB BKN050
ZGHA,2012-04-04 00:00,ZGHA 040000Z VRB01MPS 6000 -RA NSC 14/09 Q1016 NOSIG
ZGHA,2012-04-04 01:00,ZGHA 040100Z VRB01MPS 6000 -RA SCT050 15/10 Q1016 NOSIG
ZGHA,2012-04-04 02:00,ZGHA 040200Z VRB01MPS 7000 NSC 17/09 Q1016 BECMG TL0330 -SHRA SCT011 FEW033CB BKN050
ZGHA,2012-04-04 03:00,ZGHA 040300Z 35005MPS 7000 -RA SCT050 16/09 Q1018 BECMG TL0330 -SHRA SCT011 FEW033CB BKN050
ZGHA,2012-04-04 04:00,ZGHA 040400Z 04003MPS 360V080 6000 -TSRA BKN007 FEW050CB BKN050 13/10 Q1018 BECMG TL0530 -RA BKN009 OVC050
ZGHA,2012-04-04 05:00,ZGHA 040500Z 07003MPS 040V120 4000 -TSRA BR BKN007 FEW050CB BKN050 12/10 Q1017 NOSIG
ZGHA,2012-04-04 06:00,ZGHA 040600Z 01004MPS 4500 -RA BR BKN007 BKN020 OVC050 12/10 Q1016 NOSIG
ZGHA,2012-04-04 07:00,ZGHA 040700Z 02003MPS 360V060 4500 -RA BR BKN007 BKN020 OVC050 12/10 Q1015 NOSIG
ZGHA,2012-04-04 08:00,ZGHA 040800Z VRB01MPS 3000 -TSRA BR BKN007 FEW040CB BKN040 12/11 Q1015 BECMG TL0830 2500 -RA BR BKN007 OVC040
ZGHA,2012-04-04 09:00,ZGHA 040900Z VRB01MPS 2700 TSRA BR BKN007 FEW033CB BKN033 12/11 Q1015 BECMG TL1000 -RA BKN007 OVC050
ZGHA,2012-04-04 10:00,ZGHA 041000Z 32003MPS 270V010 1800 TSRA BR BKN006 FEW033CB BKN033 12/11 Q1016 NOSIG
ZGHA,2012-04-04 11:00,ZGHA 041100Z 35002MPS 2300 -RA BR BKN006 BKN020 OVC040 12/11 Q1016 RETSRA NOSIG
ZGHA,2012-04-04 12:00,ZGHA 041200Z 01002MPS 2500 -RA BR BKN006 OVC050 12/11 Q1017 NOSIG
ZGHA,2012-04-04 13:00,ZGHA 041300Z 36001MPS 2500 -RA BR BKN006 OVC050 12/11 Q1017 NOSIG
ZGHA,2012-04-04 14:00,ZGHA 041400Z 36001MPS 2300 -RA BR BKN006 OVC050 12/11 Q1017 NOSIG
ZGHA,2012-04-04 15:00,ZGHA 041500Z VRB01MPS 2200 BR BKN006 OVC050 12/11 Q1017 NOSIG
ZGHA,2012-04-04 16:00,ZGHA 041600Z 32002MPS 2500 BR BKN006 OVC050 12/11 Q1017 NOSIG
ZGHA,2012-04-04 17:00,ZGHA 041700Z 36003MPS 2200 BR BKN006 OVC050 12/11 Q1017 NOSIG
ZGHA,2012-04-04 18:00,ZGHA 041800Z 01002MPS 350V060 2200 BR BKN006 OVC050 12/11 Q1017 NOSIG
ZGHA,2012-04-04 19:00,ZGHA 041900Z 35002MPS 2500 BR BKN006 OVC050 12/11 Q1017 NOSIG
ZGHA,2012-04-04 20:00,ZGHA 042000Z 01002MPS 350V060 2300 BR BKN006 OVC050 12/11 Q1016 NOSIG
ZGHA,2012-04-04 21:00,ZGHA 042100Z 35003MPS 2200 BR BKN006 OVC050 12/11 Q1016 NOSIG
ZGHA,2012-04-04 22:00,ZGHA 042200Z 02002MPS 340V040 2100 BR BKN006 OVC050 12/11 Q1017 NOSIG
ZGHA,2012-04-04 23:00,ZGHA 042300Z 02002MPS 350V050 1600 BR BKN006 OVC050 12/11 Q1017 NOSIG
ZGHA,2012-04-05 00:00,ZGHA 050000Z 02002MPS 350V050 1800 BR BKN006 OVC050 13/11 Q1018 BECMG 3500 BKN011 OVC050
ZGHA,2012-04-05 01:00,ZGHA 050100Z 36002MPS 330V030 3500 BR BKN008 OVC050 13/11 Q1019 BECMG TL0200 BKN011 OVC050
ZGHA,2012-04-05 02:00,ZGHA 050200Z 02003MPS 340V060 4200 BR BKN011 OVC050 14/11 Q1019 NOSIG
ZGHA,2012-04-05 03:00,ZGHA 050300Z VRB01MPS 5000 BR BKN011 OVC050 15/12 Q1019 NOSIG
ZGHA,2012-04-05 04:00,ZGHA 050400Z 35002MPS 290V080 6000 BKN014 BKN050 16/12 Q1019 BECMG TL0500 BKN016 OVC050
ZGHA,2012-04-05 05:00,ZGHA 050500Z 36004MPS 330V030 6000 BKN014 BKN050 16/12 Q1018 BECMG TL0600 BKN016 OVC050
ZGHA,2012-04-05 06:00,ZGHA 050600Z 32003MPS 290V360 6000 BKN020 18/13 Q1017 NOSIG
ZGHA,2012-04-05 07:00,ZGHA 050700Z 34003MPS 280V010 7000 NSC 19/13 Q1016 NOSIG
ZGHA,2012-04-05 08:00,ZGHA 050800Z 34003MPS 310V020 7000 NSC 20/13 Q1015 NOSIG
ZGHA,2012-04-05 09:00,ZGHA 050900Z 31004MPS 280V340 7000 NSC 20/13 Q1015 NOSIG
ZGHA,2012-04-05 10:00,ZGHA 051000Z 29003MPS 5000 BR NSC 19/13 Q1016 NOSIG
ZGHA,2012-04-05 11:00,ZGHA 051100Z 28003MPS 5000 BR NSC 18/13 Q1016 NOSIG
ZGHA,2012-04-05 12:00,ZGHA 051200Z 28002MPS 3500 BR NSC 17/13 Q1017 BECMG TL1300 2500
ZGHA,2012-04-05 13:00,ZGHA 051300Z 34002MPS 270V010 3500 BR NSC 16/13 Q1017 BECMG TL1400 2500
ZGHA,2012-04-05 14:00,ZGHA 051400Z 34004MPS 300V360 3500 BR NSC 16/13 Q1018 BECMG TL1500 2500
ZGHA,2012-04-05 15:00,ZGHA 051500Z 35002MPS 3200 BR NSC 16/13 Q1018 BECMG TL1600 2500
ZGHA,2012-04-05 16:00,ZGHA 051600Z 33003MPS 2700 BR NSC 16/13 Q1018 NOSIG
ZGHA,2012-04-05 17:00,ZGHA 051700Z 34003MPS 2700 BR NSC 15/13 Q1018 NOSIG
ZGHA,2012-04-05 18:00,ZGHA 051800Z 01002MPS 2100 BR NSC 15/13 Q1018 NOSIG
ZGHA,2012-04-05 19:00,ZGHA 051900Z AUTO 33002MPS 300V360 1400 R36/P2000 BR BKN120/// 15/13 Q1017
ZGHA,2012-04-05 20:00,ZGHA 052000Z 36003MPS 1800 BR NSC 14/13 Q1017 NOSIG
ZGHA,2012-04-05 21:00,ZGHA 052100Z 33003MPS 1800 BR NSC 14/13 Q1017 NOSIG
ZGHA,2012-04-05 22:00,ZGHA 052200Z 34002MPS 1800 BR NSC 14/13 Q1017 NOSIG
ZGHA,2012-04-05 23:00,ZGHA 052300Z 33003MPS 1200 R36/1600N BR SCT011 14/13 Q1018 BECMG FM0030 1700
ZGHA,2012-04-06 00:00,ZGHA 060000Z 30002MPS 280V350 1600 BR SCT011 15/13 Q1019 NOSIG
ZGHA,2012-04-06 01:00,ZGHA 060100Z 36003MPS 2000 BR SCT008 16/13 Q1020 BECMG TL0300 3000
ZGHA,2012-04-06 02:00,ZGHA 060200Z VRB01MPS 2500 BR FEW013 17/13 Q1020 BECMG TL0300 3000
ZGHA,2012-04-06 03:00,ZGHA 060300Z 34003MPS 300V010 2500 BR FEW050 18/14 Q1020 BECMG TL0400 3000
ZGHA,2012-04-06 04:00,ZGHA 060400Z 27002MPS 230V340 2500 BR SCT040 18/14 Q1020 BECMG TL0500 3000
ZGHA,2012-04-06 05:00,ZGHA 060500Z 32002MPS 270V360 2700 BR SCT040 19/14 Q1019 BECMG TL0600 3000
ZGHA,2012-04-06 06:00,ZGHA 060600Z 27002MPS 220V320 2700 HZ SCT050 20/14 Q1018 NOSIG
ZGHA,2012-04-06 07:00,ZGHA 060700Z 27004MPS 240V310 2500 HZ SCT050 20/14 Q1017 NOSIG
ZGHA,2012-04-06 08:00,ZGHA 060800Z 29003MPS 260V360 2500 HZ SCT050 20/14 Q1017 NOSIG
ZGHA,2012-04-06 09:00,ZGHA 060900Z VRB02MPS 2500 HZ SCT020 20/14 Q1017 NOSIG
ZGHA,2012-04-06 10:00,ZGHA 061000Z 30002MPS 260V330 2500 BR SCT020 19/14 Q1017 NOSIG
ZGHA,2012-04-06 11:00,ZGHA 061100Z VRB01MPS 2500 BR SCT020 19/14 Q1018 NOSIG
ZGHA,2012-04-06 12:00,ZGHA 061200Z 14001MPS 1800 BR SCT033 18/15 Q1018 NOSIG
ZGHA,2012-04-06 13:00,ZGHA 061300Z VRB01MPS 1600 BR SCT040 17/15 Q1019 BECMG TL1400 1400
ZGHA,2012-04-06 14:00,ZGHA 061400Z 18001MPS 1600 BR SCT040 17/15 Q1019 BECMG TL1500 1400
ZGHA,2012-04-06 15:00,ZGHA 061500Z 16002MPS 1300 R36/P2000 BR SCT040 17/15 Q1020 NOSIG
ZGHA,2012-04-06 16:00,ZGHA 061600Z 17001MPS 1400 R36/P2000 BR SCT050 17/14 Q1020 BECMG TL1700 1600
ZGHA,2012-04-06 17:00,ZGHA 061700Z VRB01MPS 1300 R18/P2000 BR SCT050 16/14 Q1020 NOSIG
ZGHA,2012-04-06 18:00,ZGHA 061800Z 15002MPS 1100 R18/P2000 BR SCT050 16/14 Q1020 NOSIG
ZGHA,2012-04-06 19:00,ZGHA 061900Z AUTO 13001MPS 0900 R18/1500U BKN110/// 16/14 Q1019
ZGHA,2012-04-06 20:00,ZGHA 062000Z AUTO VRB01MPS 0900 R18/1700N FG BKN110/// 16/14 Q1019
ZGHA,2012-04-06 21:00,ZGHA 062100Z VRB01MPS 1100 R18/1700D BR NSC 15/14 Q1019 NOSIG
ZGHA,2012-04-06 22:00,ZGHA 062200Z VRB01MPS 0900 R18/0900V1000N FG NSC 15/14 Q1019 NOSIG
ZGHA,2012-04-06 23:00,ZGHA 062300Z VRB01MPS 0900 R36/1000V1100N FG NSC 15/14 Q1019 BECMG TL0100 1600 BR
ZGHA,2012-04-07 00:00,ZGHA 070000Z VRB01MPS 1600 R36/1300U BR NSC 17/15 Q1020 BECMG TL0100 3000
ZGHA,2012-04-07 01:00,ZGHA 070100Z VRB01MPS 1800 BR NSC 19/15 Q1021 BECMG TL0200 3500
ZGHA,2012-04-07 02:00,ZGHA 070200Z 36002MPS 320V040 2600 BR NSC 21/15 Q1020 BECMG TL0300 3500
ZGHA,2012-04-07 03:00,ZGHA 070300Z 36002MPS 310V080 4000 HZ NSC 23/14 Q1020 NOSIG
ZGHA,2012-04-07 04:00,ZGHA 070400Z VRB01MPS 8000 NSC 25/12 Q1020 NOSIG
ZGHA,2012-04-07 05:00,ZGHA 070500Z VRB02MPS 8000 NSC 25/10 Q1018 NOSIG
ZGHA,2012-04-07 06:00,ZGHA 070600Z 36002MPS 300V040 CAVOK 25/10 Q1017 NOSIG
ZGHA,2012-04-07 07:00,ZGHA 070700Z 36002MPS 340V050 CAVOK 25/11 Q1016 NOSIG
ZGHA,2012-04-07 08:00,ZGHA 070800Z 32005MPS 280V340 6000 NSC 24/15 Q1016 NOSIG
ZGHA,2012-04-07 09:00,ZGHA 070900Z VRB03MPS 3000 HZ NSC 22/16 Q1016 BECMG 2500
ZGHA,2012-04-07 10:00,ZGHA 071000Z 27002MPS 200V330 2700 HZ NSC 21/16 Q1016 NOSIG
ZGHA,2012-04-07 11:00,ZGHA 071100Z 32003MPS 2700 HZ NSC 21/15 Q1017 NOSIG
ZGHA,2012-04-07 12:00,ZGHA 071200Z 21003MPS 170V300 2500 BR NSC 20/15 Q1017 NOSIG
ZGHA,2012-04-07 13:00,ZGHA 071300Z 22003MPS 2300 BR NSC 19/15 Q1018 NOSIG
ZGHA,2012-04-07 14:00,ZGHA 071400Z 19002MPS 2600 BR NSC 18/15 Q1018 NOSIG
ZGHA,2012-04-07 15:00,ZGHA 071500Z 16002MPS 2500 BR NSC 18/15 Q1019 NOSIG
ZGHA,2012-04-07 16:00,ZGHA 071600Z 14002MPS 1500 -RA BR NSC 18/15 Q1018 NOSIG
ZGHA,2012-04-07 17:00,ZGHA 071700Z 18003MPS 2000 -RA BR NSC 17/15 Q1019 NOSIG
ZGHA,2012-04-07 18:00,ZGHA 071800Z 15002MPS 1600 -RA BR NSC 17/15 Q1018 NOSIG
ZGHA,2012-04-07 19:00,ZGHA 071900Z 15002MPS 120V180 1600 -RA BR NSC 16/15 Q1017 NOSIG
ZGHA,2012-04-07 20:00,ZGHA 072000Z AUTO 15002MPS 0700 R18/1500U -RA FG FEW045/// OVC071/// 16/15 Q1017
ZGHA,2012-04-07 21:00,ZGHA 072100Z 16001MPS 1600 -RA BR OVC050 16/15 Q1017 NOSIG
ZGHA,2012-04-07 22:00,ZGHA 072200Z 22001MPS 1600 -RA BR OVC050 16/15 Q1017 NOSIG
ZGHA,2012-04-07 23:00,ZGHA 072300Z 29002MPS 270V330 0900 R36/1400D FG OVC030 16/15 Q1018 BECMG 1600 BR
ZGHA,2012-04-08 00:00,ZGHA 080000Z VRB01MPS 0700 R36/1000V1200D -RA FG OVC030 16/15 Q1019 BECMG TL0100 0900
ZGHA,2012-04-08 01:00,ZGHA 080100Z VRB01MPS 0800 R36/0800V1000N -RA FG SCT006 OVC033 16/15 Q1019 NOSIG
ZGHA,2012-04-08 02:00,ZGHA 080200Z 06002MPS 350V090 1200 R36/1000V1200U -RA BR SCT006 BKN020 OVC040 17/16 Q1019 BECMG TL0300 1600
ZGHA,2012-04-08 03:00,ZGHA 080300Z 04002MPS 330V090 1600 R36/1400N BR SCT007 BKN020 OVC050 17/16 Q1019 NOSIG
ZGHA,2012-04-08 04:00,ZGHA 080400Z 05002MPS 360V090 2500 BR SCT009 BKN020 OVC050 18/15 Q1018 BECMG TL0500 3000
ZGHA,2012-04-08 05:00,ZGHA 080500Z 06002MPS 350V100 4000 BR SCT011 BKN020 OVC050 18/15 Q1018 NOSIG
ZGHA,2012-04-08 06:00,ZGHA 080600Z 10002MPS 060V150 7000 BKN011 OVC050 18/15 Q1017 NOSIG
ZGHA,2012-04-08 07:00,ZGHA 080700Z 11002MPS 9999 BKN013 OVC050 18/15 Q1016 NOSIG
ZGHA,2012-04-08 08:00,ZGHA 080800Z 13002MPS 090V180 9999 FEW015 BKN030 OVC050 18/15 Q1016 NOSIG
ZGHA,2012-04-08 09:00,ZGHA 080900Z 15003MPS 110V180 9999 FEW015 BKN024 OVC050 18/15 Q1016 NOSIG
ZGHA,2012-04-08 10:00,ZGHA 081000Z 14002MPS 8000 FEW015 BKN023 OVC050 18/15 Q1016 NOSIG
ZGHA,2012-04-08 11:00,ZGHA 081100Z 18002MPS 7000 FEW012 BKN023 OVC050 17/15 Q1016 NOSIG
ZGHA,2012-04-08 12:00,ZGHA 081200Z 16002MPS 7000 BKN020 OVC050 17/14 Q1017 NOSIG
ZGHA,2012-04-08 13:00,ZGHA 081300Z VRB01MPS 7000 BKN020 OVC050 17/14 Q1017 NOSIG
ZGHA,2012-04-08 14:00,ZGHA 081400Z 16002MPS 7000 BKN020 OVC050 17/14 Q1017 NOSIG
ZGHA,2012-04-08 15:00,ZGHA 081500Z VRB01MPS 8000 BKN020 OVC050 17/14 Q1017 NOSIG
ZGHA,2012-04-08 16:00,ZGHA 081600Z 36002MPS 7000 BKN020 OVC050 17/14 Q1016 NOSIG
ZGHA,2012-04-08 17:00,ZGHA 081700Z VRB01MPS 7000 BKN020 OVC050 17/14 Q1016 NOSIG
ZGHA,2012-04-08 18:00,ZGHA 081800Z 00000MPS 7000 BKN020 OVC050 16/14 Q1015 NOSIG
ZGHA,2012-04-08 19:00,ZGHA 081900Z VRB01MPS 7000 BKN020 OVC050 16/14 Q1015 NOSIG
ZGHA,2012-04-08 20:00,ZGHA 082000Z VRB01MPS 6000 -RA BKN020 OVC050 16/14 Q1015 NOSIG
ZGHA,2012-04-08 21:00,ZGHA 082100Z VRB01MPS 5000 -RA BR BKN020 OVC050 16/14 Q1014 NOSIG
ZGHA,2012-04-08 22:00,ZGHA 082200Z VRB01MPS 5000 BR BKN020 OVC050 16/14 Q1015 NOSIG
ZGHA,2012-04-08 23:00,ZGHA 082300Z 00000MPS 5000 BR BKN020 OVC050 16/14 Q1015 NOSIG
ZGHA,2012-04-09 00:00,ZGHA 090000Z VRB01MPS 5000 BR BKN020 OVC050 17/15 Q1015 NOSIG
ZGHA,2012-04-09 01:00,ZGHA 090100Z VRB01MPS 6000 SCT020 OVC050 18/14 Q1016 NOSIG
ZGHA,2012-04-09 02:00,ZGHA 090200Z VRB01MPS 8000 SCT020 OVC050 18/14 Q1016 NOSIG
ZGHA,2012-04-09 03:00,ZGHA 090300Z 18002MPS 6000 -RA BKN020 OVC050 18/15 Q1016 NOSIG
ZGHA,2012-04-09 04:00,ZGHA 090400Z 24002MPS 200V260 6000 -RA SCT020 OVC050 18/16 Q1015 NOSIG
ZGHA,2012-04-09 05:00,ZGHA 090500Z 15002MPS 090V200 7000 SCT020 20/16 Q1014 NOSIG
ZGHA,2012-04-09 06:00,ZGHA 090600Z 16002MPS 100V260 9999 SCT020 21/15 Q1013 NOSIG
ZGHA,2012-04-09 07:00,ZGHA 090700Z 12003MPS 100V160 9999 SCT020 22/16 Q1012 NOSIG
ZGHA,2012-04-09 08:00,ZGHA 090800Z 13002MPS 100V170 9999 SCT023 21/16 Q1012 NOSIG
ZGHA,2012-04-09 09:00,ZGHA 090900Z 12002MPS 080V140 9999 SCT023 21/16 Q1012 NOSIG
ZGHA,2012-04-09 10:00,ZGHA 091000Z VRB01MPS 9999 SCT030 21/16 Q1012 NOSIG
ZGHA,2012-04-09 11:00,ZGHA 091100Z VRB01MPS 7000 NSC 20/16 Q1012 NOSIG
ZGHA,2012-04-09 12:00,ZGHA 091200Z VRB01MPS 6000 NSC 18/16 Q1012 NOSIG
ZGHA,2012-04-09 13:00,ZGHA 091300Z 00000MPS 5000 BR NSC 18/16 Q1013 NOSIG
ZGHA,2012-04-09 14:00,ZGHA 091400Z 04002MPS 4000 BR NSC 18/16 Q1013 NOSIG
ZGHA,2012-04-09 15:00,ZGHA 091500Z 02001MPS 4000 BR NSC 18/16 Q1013 NOSIG
ZGHA,2012-04-09 16:00,ZGHA 091600Z 28002MPS 230V320 4000 BR NSC 17/16 Q1013 NOSIG
ZGHA,2012-04-09 17:00,ZGHA 091700Z VRB01MPS 4000 BR FEW040 18/16 Q1013 NOSIG
ZGHA,2012-04-09 18:00,ZGHA 091800Z 28002MPS 4000 BR SCT040 18/16 Q1012 NOSIG
ZGHA,2012-04-09 19:00,ZGHA 091900Z 00000MPS 3000 BR SCT040 18/16 Q1012 NOSIG
ZGHA,2012-04-09 20:00,ZGHA 092000Z 00000MPS 2700 BR SCT040 17/16 Q1011 NOSIG
ZGHA,2012-04-09 21:00,ZGHA 092100Z 30001MPS 3000 BR FEW033 17/16 Q1011 NOSIG
ZGHA,2012-04-09 22:00,ZGHA 092200Z 06001MPS 2500 BR NSC 17/15 Q1011 NOSIG
ZGHA,2012-04-09 23:00,ZGHA 092300Z 33001MPS 3000 BR SCT050 17/16 Q1012 NOSIG
ZGHA,2012-04-10 00:00,ZGHA 100000Z VRB01MPS 4000 BR SCT050 18/16 Q1012 NOSIG
ZGHA,2012-04-10 01:00,ZGHA 100100Z VRB01MPS 5000 BR SCT050 21/17 Q1012 NOSIG
ZGHA,2012-04-10 02:00,ZGHA 100200Z 23002MPS 160V280 5000 -RA BR SCT050 21/17 Q1012 NOSIG
ZGHA,2012-04-10 03:00,ZGHA 100300Z 18003MPS 140V220 2700 -TSRA BR BKN010 FEW050CB BKN050 20/18 Q1011 BECMG TL0400 3500 BR BKN016 OVC050
ZGHA,2012-04-10 04:00,ZGHA 100400Z VRB01MPS 4500 -RA BR SCT012 OVC050 21/19 Q1010 RETS NOSIG
ZGHA,2012-04-10 05:00,ZGHA 100500Z 15002MPS 100V180 7000 SCT050 23/19 Q1009 NOSIG
ZGHA,2012-04-10 06:00,ZGHA 100600Z VRB01MPS 8000 SCT050 25/19 Q1007 NOSIG
ZGHA,2012-04-10 07:00,ZGHA 100700Z VRB01MPS 8000 NSC 26/19 Q1007 NOSIG
ZGHA,2012-04-10 08:00,ZGHA 100800Z 26002MPS 200V320 8000 NSC 27/19 Q1006 NOSIG
ZGHA,2012-04-10 09:00,ZGHA 100900Z 34009MPS 300V010 3200 -TSRA BR BKN012 FEW040CB BKN040 20/18 Q1008 RESHRA BECMG TL0930 34003MPS -SHRA BR
ZGHA,2012-04-10 10:00,ZGHA 101000Z 02003MPS 350V070 8000 FEW012 20/17 Q1008 NOSIG
ZGHA,2012-04-10 11:00,ZGHA 101100Z VRB01MPS 9999 BKN020 19/17 Q1008 NOSIG
ZGHA,2012-04-10 12:00,ZGHA 101200Z 35003MPS 9999 BKN020 19/17 Q1008 NOSIG
ZGHA,2012-04-10 13:00,ZGHA 101300Z 35004MPS 9999 SCT050 19/17 Q1009 NOSIG
ZGHA,2012-04-10 14:00,ZGHA 101400Z 29002MPS 230V340 9999 SCT050 18/17 Q1010 NOSIG
ZGHA,2012-04-10 15:00,ZGHA 101500Z 35002MPS 9999 SCT050 18/16 Q1010 NOSIG
ZGHA,2012-04-10 16:00,ZGHA 101600Z 34004MPS 310V010 6000 SCT050 18/16 Q1011 NOSIG
ZGHA,2012-04-10 17:00,ZGHA 101700Z VRB01MPS 3000 -TSRA BR BKN010 FEW050CB BKN050 18/16 Q1011 BECMG TL1730 -SHRA BR BKN016 OVC050
ZGHA,2012-04-10 18:00,ZGHA 101800Z 34004MPS 3500 BR SCT012 OVC050 18/16 Q1011 RETS NOSIG
ZGHA,2012-04-10 19:00,ZGHA 101900Z 35007MPS 2700 BR SCT012 OVC050 17/16 Q1010 NOSIG
ZGHA,2012-04-10 20:00,ZGHA 102000Z 34003MPS 2500 BR SCT012 OVC050 17/16 Q1010 NOSIG
ZGHA,2012-04-10 21:00,ZGHA 102100Z 01002MPS 2300 BR SCT006 OVC050 17/16 Q1010 NOSIG
ZGHA,2012-04-10 22:00,ZGHA 102200Z VRB01MPS 2200 BR SCT006 OVC050 17/16 Q1010 NOSIG
ZGHA,2012-04-10 23:00,ZGHA 102300Z 36003MPS 320V020 3000 -TSRA BR BKN009 FEW050CB BKN050 17/16 Q1011 BECMG TL2400 -RA
ZGHA,2012-04-11 00:00,ZGHA 110000Z 36003MPS 3000 TS BR BKN009 FEW050CB BKN050 18/17 Q1012 NOSIG
ZGHA,2012-04-11 01:00,ZGHA 110100Z 07004MPS 020V090 9999 SCT007 BKN050 19/16 Q1011 BECMG AT0220 -TSRA BKN008 SCT040CB OVC050
ZGHA,2012-04-11 02:00,ZGHA 110200Z 04002MPS 360V110 9999 FEW007 BKN020 OVC050 19/17 Q1012 BECMG AT0300 -TSRA BKN007 SCT040CB OVC050
ZGHA,2012-04-11 03:00,ZGHA 110300Z 32005MPS 9999 SCT007 BKN020 FEW050CB BKN050 19/17 Q1012 BECMG AT0330 -TSRA BKN007 SCT040CB OVC050
ZGHA,2012-04-11 04:00,ZGHA 110400Z 32005MPS 280V350 4000 -TSRA BR BKN006 FEW040CB BKN040 18/16 Q1012 NOSIG
ZGHA,2012-04-11 05:00,ZGHA 110500Z 35005MPS 320V020 3000 -TSRA BR BKN007 FEW040CB BKN040 17/16 Q1012 RESHRA NOSIG
ZGHA,2012-04-11 06:00,ZGHA 110600Z 02003MPS 350V080 4000 -RA BR BKN005 OVC040 17/16 Q1011 RETS NOSIG
ZGHA,2012-04-11 07:00,ZGHA 110700Z VRB01MPS 3000 -TSRA BR BKN005 SCT040CB BKN040 18/17 Q1011 NOSIG
ZGHA,2012-04-11 08:00,ZGHA 110800Z 08003MPS 050V160 4500 -RA BR FEW005 18/17 Q1009 NOSIG
ZGHA,2012-04-11 09:00,ZGHA 110900Z 29004MPS 260V320 6000 BKN004 OVC050 18/17 Q1009 NOSIG
ZGHA,2012-04-11 10:00,ZGHA 111000Z 29002MPS 260V330 3000 BR BKN006 OVC050 18/17 Q1009 NOSIG
ZGHA,2012-04-11 11:00,ZGHA 111100Z 32003MPS 280V340 4000 BR BKN009 OVC050 18/17 Q1009 NOSIG
ZGHA,2012-04-11 12:00,ZGHA 111200Z 32003MPS 290V350 2700 BR FEW005 BKN009 OVC050 18/17 Q1010 NOSIG
ZGHA,2012-04-11 13:00,ZGHA 111300Z VRB01MPS 2700 BR SCT009 BKN020 OVC050 18/17 Q1010 NOSIG
ZGHA,2012-04-11 14:00,ZGHA 111400Z VRB01MPS 1800 BR SCT005 BKN020 OVC050 18/17 Q1011 NOSIG
ZGHA,2012-04-11 15:00,ZGHA 111500Z 00000MPS 1800 BR SCT007 BKN020 18/17 Q1011 BECMG 1100
ZGHA,2012-04-11 16:00,ZGHA 111600Z VRB01MPS 1800 BR FEW016 18/17 Q1010 BECMG 1200
ZGHA,2012-04-11 17:00,ZGHA 111700Z 27002MPS 250V340 1200 R36/0650V0800D BR BKN004 17/16 Q1010 NOSIG
ZGHA,2012-04-11 18:00,ZGHA 111800Z 29002MPS 0100 R36/0250N FG VV003 17/16 Q1009 NOSIG
ZGHA,2012-04-11 19:00,ZGHA 111900Z 35002MPS 0200 R36/0250N FG VV003 17/16 Q1009 NOSIG
ZGHA,2012-04-11 20:00,ZGHA 112000Z VRB01MPS 0400 R36/0375N FG VV003 17/16 Q1009 NOSIG
ZGHA,2012-04-11 21:00,ZGHA 112100Z 01001MPS 0400 R36/0450N FG VV003 17/16 Q1008 NOSIG
ZGHA,2012-04-11 22:00,ZGHA 112200Z 00000MPS 0200 R36/0325N FG VV003 17/16 Q1008 NOSIG
ZGHA,2012-04-11 23:00,ZGHA 112300Z 27001MPS 0100 R36/0225N FG VV003 17/16 Q1009 BECMG TL0100 0400
ZGHA,2012-04-12 00:00,ZGHA 120000Z 01002MPS 340V060 0400 R36/0450V0550D FG VV003 18/17 Q1009 BECMG TL0120 0700
ZGHA,2012-04-12 01:00,ZGHA 120100Z VRB01MPS 1400 R36/1900U BR SCT005 18/17 Q1009 BECMG TL0130 1600
ZGHA,2012-04-12 02:00,ZGHA 120200Z VRB01MPS 2500 BR SCT007 19/18 Q1009 NOSIG
ZGHA,2012-04-12 03:00,ZGHA 120300Z VRB01MPS 6000 SCT030 21/17 Q1008 NOSIG
ZGHA,2012-04-12 04:00,ZGHA 120400Z 16002MPS 110V200 6000 SCT030 22/17 Q1007 NOSIG
ZGHA,2012-04-12 05:00,ZGHA 120500Z 16003MPS 120V190 7000 SCT020 23/18 Q1006 NOSIG
ZGHA,2012-04-12 06:00,ZGHA 120600Z 17002MPS 130V200 7000 BKN012 23/18 Q1005 NOSIG
ZGHA,2012-04-12 07:00,ZGHA 120700Z 30004MPS 260V330 7000 BKN012 OVC050 23/18 Q1006 BECMG -SHRA BKN007 OVC050
ZGHA,2012-04-12 08:00,ZGHA 120800Z 34005MPS 3000 -SHRA BR BKN007 FEW050CB BKN050 20/18 Q1006 RETS NOSIG
ZGHA,2012-04-12 09:00,ZGHA 120900Z 35005MPS 8000 BKN008 OVC050 19/18 Q1006 NOSIG
ZGHA,2012-04-12 10:00,ZGHA 121000Z 36005MPS 7000 -RA BKN008 OVC050 18/17 Q1007 BECMG FM1130 2500 SHRA BR BKN007 FEW040CB BKN050
ZGHA,2012-04-12 11:00,ZGHA 121100Z 34009MPS 3000 -SHRA BR BKN007 FEW040CB BKN040 17/16 Q1007 NOSIG
ZGHA,2012-04-12 12:00,ZGHA 121200Z 34010MPS 4000 -SHRA BR BKN007 FEW040CB BKN040 16/14 Q1009 NOSIG
ZGHA,2012-04-12 13:00,ZGHA 121300Z 33008MPS 5000 -SHRA BR BKN007 FEW040CB BKN040 14/13 Q1010 BECMG TL1400 34008G14MPS 1700 TSRA
ZGHA,2012-04-12 14:00,ZGHA 121400Z 35009MPS 6000 TSRA BKN007 SCT050CB BKN050 13/11 Q1011 BECMG TL1530 -SHRA
ZGHA,2012-04-12 15:00,ZGHA 121500Z 33006MPS 9000 BKN008 OVC050 13/11 Q1012 NOSIG
ZGHA,2012-04-12 16:00,ZGHA 121600Z 33008MPS 9000 BKN009 OVC050 13/10 Q1012 NOSIG
ZGHA,2012-04-12 17:00,ZGHA 121700Z 34008MPS 9000 BKN009 OVC050 13/10 Q1013 BECMG BKN012 OVC050
ZGHA,2012-04-12 18:00,ZGHA 121800Z 35007MPS 9000 BKN011 OVC050 12/10 Q1012 NOSIG
ZGHA,2012-04-12 19:00,ZGHA 121900Z 34006MPS 7000 BKN012 OVC050 12/10 Q1013 BECMG SCT020 OVC050
ZGHA,2012-04-12 20:00,ZGHA 122000Z 34006MPS 9000 SCT020 OVC050 12/09 Q1013 NOSIG
ZGHA,2012-04-12 21:00,ZGHA 122100Z 34005MPS 9000 SCT023 OVC050 12/10 Q1013 NOSIG
ZGHA,2012-04-12 22:00,ZGHA 122200Z 34006MPS 9999 SCT023 OVC050 12/10 Q1014 NOSIG
ZGHA,2012-04-12 23:00,ZGHA 122300Z 35005MPS 9999 SCT023 12/10 Q1014 NOSIG
ZGHA,2012-04-13 00:00,ZGHA 130000Z 36004MPS 9999 SCT040 13/10 Q1015 NOSIG
ZGHA,2012-04-13 01:00,ZGHA 130100Z 36004MPS 9999 SCT040 14/10 Q1016 NOSIG
ZGHA,2012-04-13 02:00,ZGHA 130200Z 01004MPS 340V070 CAVOK 16/09 Q1016 NOSIG
ZGHA,2012-04-13 03:00,ZGHA 130300Z 33005MPS 300V010 CAVOK 18/10 Q1016 NOSIG
ZGHA,2012-04-13 04:00,ZGHA 130400Z 34006MPS 310V010 CAVOK 19/08 Q1016 NOSIG
ZGHA,2012-04-13 05:00,ZGHA 130500Z 35005MPS 310V030 CAVOK 20/07 Q1015 NOSIG
ZGHA,2012-04-13 06:00,ZGHA 130600Z VRB02MPS CAVOK 21/08 Q1014 NOSIG
ZGHA,2012-04-13 07:00,ZGHA 130700Z 25002MPS 200V310 CAVOK 21/09 Q1013 NOSIG
ZGHA,2012-04-13 08:00,ZGHA 130800Z 29004MPS 250V320 CAVOK 20/09 Q1013 NOSIG
ZGHA,2012-04-13 09:00,ZGHA 130900Z 28003MPS 260V320 CAVOK 19/09 Q1013 NOSIG
ZGHA,2012-04-13 10:00,ZGHA 131000Z 28003MPS 260V320 CAVOK 19/09 Q1013 NOSIG
ZGHA,2012-04-13 11:00,ZGHA 131100Z 29003MPS CAVOK 19/10 Q1014 NOSIG
ZGHA,2012-04-13 12:00,ZGHA 131200Z 31003MPS CAVOK 18/10 Q1014 NOSIG
ZGHA,2012-04-13 13:00,ZGHA 131300Z 06001MPS CAVOK 18/11 Q1014 NOSIG
ZGHA,2012-04-13 14:00,ZGHA 131400Z 30002MPS 270V330 CAVOK 17/10 Q1015 NOSIG
ZGHA,2012-04-13 15:00,ZGHA 131500Z VRB01MPS CAVOK 17/12 Q1015 NOSIG
ZGHA,2012-04-13 16:00,ZGHA 131600Z VRB01MPS CAVOK 16/13 Q1015 NOSIG
ZGHA,2012-04-13 17:00,ZGHA 131700Z 08001MPS 8000 NSC 16/13 Q1015 NOSIG
ZGHA,2012-04-13 18:00,ZGHA 131800Z 00000MPS 6000 NSC 15/13 Q1014 NOSIG
ZGHA,2012-04-13 19:00,ZGHA 131900Z 16001MPS 4500 BR NSC 14/12 Q1014 NOSIG
ZGHA,2012-04-13 20:00,ZGHA 132000Z 18001MPS 5000 BR NSC 14/12 Q1013 NOSIG
ZGHA,2012-04-13 21:00,ZGHA 132100Z VRB01MPS 3500 BR NSC 14/12 Q1012 NOSIG
ZGHA,2012-04-13 22:00,ZGHA 132200Z 00000MPS 5000 BR NSC 14/12 Q1013 NOSIG
ZGHA,2012-04-13 23:00,ZGHA 132300Z 29003MPS 260V320 4000 -RA BR SCT020 OVC050 14/13 Q1013 NOSIG
ZGHA,2012-04-14 00:00,ZGHA 140000Z 31002MPS 270V030 2300 SHRA BR BKN012 FEW040CB BKN040 15/13 Q1015 BECMG TL0030 3000 -SHRA BR
ZGHA,2012-04-14 01:00,ZGHA 140100Z 36003MPS 4000 SHRA BR SCT012 FEW040CB BKN040 12/11 Q1015 BECMG -SHRA BR
ZGHA,2012-04-14 02:00,ZGHA 140200Z 01002MPS 330V080 3000 SHRA BR BKN005 SCT040CB BKN040 12/11 Q1015 BECMG TL0300 2500 -SHRA BR BKN011
ZGHA,2012-04-14 03:00,ZGHA 140300Z 01002MPS 340V050 3000 SHRA BR BKN004 SCT040CB BKN040 12/11 Q1015 BECMG 2500 -SHRA BR
ZGHA,2012-04-14 04:00,ZGHA 140400Z 01002MPS 340V060 3000 -SHRA BR BKN004 FEW040CB BKN040 13/11 Q1014 RESHRA BECMG TL0500 BKN007
ZGHA,2012-04-14 05:00,ZGHA 140500Z 36003MPS 3000 -SHRA BR BKN004 FEW040CB BKN040 13/12 Q1014 BECMG TL0600 BKN006
ZGHA,2012-04-14 06:00,ZGHA 140600Z 01003MPS 3500 -RA BR BKN004 OVC040 13/12 Q1013 NOSIG
ZGHA,2012-04-14 07:00,ZGHA 140700Z 01002MPS 340V070 3500 -SHRA BR BKN004 FEW040CB BKN040 13/12 Q1012 NOSIG
ZGHA,2012-04-14 08:00,ZGHA 140800Z 01002MPS 3000 -SHRA BR BKN004 FEW040CB BKN040 13/12 Q1012 NOSIG
ZGHA,2012-04-14 09:00,ZGHA 140900Z 01002MPS 330V040 3000 -SHRA BR BKN004 FEW040CB BKN040 14/12 Q1012 BECMG TL1100 2500
ZGHA,2012-04-14 10:00,ZGHA 141000Z 36002MPS 3000 -SHRA BR BKN004 FEW040CB BKN040 14/12 Q1012 BECMG TL1100 2500 -SHRA BR BKN006 FEW040CB BKN040
ZGHA,2012-04-14 11:00,ZGHA 141100Z VRB01MPS 2500 -RA BR BKN004 OVC040 14/13 Q1012 BECMG BKN006 OVC040
ZGHA,2012-04-14 12:00,ZGHA 141200Z 36002MPS 320V020 3000 BR BKN004 BKN026 OVC050 14/12 Q1013 BECMG TL1400 2500
ZGHA,2012-04-14 13:00,ZGHA 141300Z 01001MPS 3000 BR OVC050 14/12 Q1013 BECMG TL1400 2500
ZGHA,2012-04-14 14:00,ZGHA 141400Z 36002MPS 3000 BR SCT005 OVC050 14/12 Q1013 BECMG TL1600 2500 BR
ZGHA,2012-04-14 15:00,ZGHA 141500Z 33002MPS 2500 BR SCT005 OVC050 14/13 Q1013 NOSIG
ZGHA,2012-04-14 16:00,ZGHA 141600Z 33002MPS 290V360 2500 BR SCT005 OVC050 14/13 Q1013 NOSIG
ZGHA,2012-04-14 17:00,ZGHA 141700Z 33002MPS 290V020 2500 BR SCT005 OVC050 14/13 Q1013 NOSIG
ZGHA,2012-04-14 18:00,ZGHA 141800Z 36001MPS 2500 BR SCT005 OVC050 14/12 Q1012 NOSIG
ZGHA,2012-04-14 19:00,ZGHA 141900Z AUTO 02001MPS 1000 R36/P2000 FG BKN006/// BKN010/// 13/12 Q1011
ZGHA,2012-04-14 20:00,ZGHA 142000Z VRB01MPS 2000 BR BKN011 OVC050 13/12 Q1010 NOSIG
ZGHA,2012-04-14 21:00,ZGHA 142100Z VRB01MPS 1700 BR BKN011 OVC050 13/12 Q1010 NOSIG
ZGHA,2012-04-14 22:00,ZGHA 142200Z VRB01MPS 1600 BR BKN008 OVC050 14/12 Q1010 BECMG TL2300 -TSRA BKN007 SCT040CB BKN040
ZGHA,2012-04-14 23:00,ZGHA 142300Z VRB02MPS 0900 R36/1000V1200U TSRA FG BKN004 SCT040CB BKN040 13/12 Q1011 BECMG TL2400 1600 -TSRA BR BKN006 SCT040 BKN040
ZGHA,2012-04-15 00:00,ZGHA 150000Z 03002MPS 320V080 0900 R36/0900V1400D -SHRA FG BKN003 FEW040CB BKN040 13/12 Q1011 RETSRA BECMG FM0030 TL0130 TSRA BK N006 BKN040CB BKN040
ZGHA,2012-04-15 01:00,ZGHA 150100Z 32004MPS 290V350 1000 R36/1800D TSRA BR BKN003 SCT040CB BKN040 13/12 Q1013 RESHRA BECMG AT0130 -TSRA BKN003 FEW040CB OVC050
ZGHA,2012-04-15 02:00,ZGHA 150200Z 06002MPS 360V120 1700 -TSRA BR BKN004 FEW040CB BKN040 13/12 Q1012 RESHRA BECMG -SHRA BKN005 FEW040CB OVC050
ZGHA,2012-04-15 03:00,ZGHA 150300Z 36003MPS 320V060 2200 TSRA BR BKN004 SCT040CB BKN040 13/13 Q1013 BECMG -SHRA BKN004 FEW040CB OVC050
ZGHA,2012-04-15 04:00,ZGHA 150400Z 36002MPS 310V070 2200 -TSRA BR BKN005 FEW040CB BKN040 14/13 Q1013 RESHRA BECMG TL0500 -RA BKN005 FEW040CB OVC050
ZGHA,2012-04-15 05:00,ZGHA 150500Z 32003MPS 290V360 4000 -RA BR FEW003 BKN006 OVC040 14/13 Q1012 NOSIG
ZGHA,2012-04-15 06:00,ZGHA 150600Z 30004MPS 4200 -RA BR FEW004 BKN007 OVC040 14/13 Q1012 NOSIG
ZGHA,2012-04-15 07:00,ZGHA 150700Z 32003MPS 290V360 4200 BR FEW004 BKN007 OVC040 14/13 Q1012 NOSIG
ZGHA,2012-04-15 08:00,ZGHA 150800Z 35004MPS 4500 BR FEW008 BKN011 OVC040 14/12 Q1012 NOSIG
ZGHA,2012-04-15 09:00,ZGHA 150900Z 35005MPS 3500 BR FEW007 BKN011 OVC040 14/12 Q1012 NOSIG
ZGHA,2012-04-15 10:00,ZGHA 151000Z 34004MPS 5000 BR BKN011 OVC040 14/12 Q1012 NOSIG
ZGHA,2012-04-15 11:00,ZGHA 151100Z 03001MPS 4000 BR SCT030 OVC040 13/12 Q1012 NOSIG
ZGHA,2012-04-15 12:00,ZGHA 151200Z VRB01MPS 4000 BR BKN009 14/12 Q1013 NOSIG
ZGHA,2012-04-15 13:00,ZGHA 151300Z 30002MPS 280V340 4000 BR BKN009 14/12 Q1013 BECMG BKN012 OVC050
ZGHA,2012-04-15 14:00,ZGHA 151400Z VRB01MPS 3000 BR BKN009 14/12 Q1014 NOSIG
ZGHA,2012-04-15 15:00,ZGHA 151500Z 00000MPS 3000 BR SCT009 BKN020 14/12 Q1014 NOSIG
ZGHA,2012-04-15 16:00,ZGHA 151600Z 02001MPS 2200 BR SCT009 BKN020 13/12 Q1014 NOSIG
ZGHA,2012-04-15 17:00,ZGHA 151700Z VRB01MPS 2200 BR BKN020 13/12 Q1013 NOSIG
ZGHA,2012-04-15 18:00,ZGHA 151800Z VRB01MPS 2000 BR BKN020 13/12 Q1013 NOSIG
ZGHA,2012-04-15 19:00,ZGHA 151900Z 35001MPS 2000 BR SCT009 BKN020 13/12 Q1012 NOSIG
ZGHA,2012-04-15 20:00,ZGHA 152000Z 00000MPS 1800 BR SCT009 BKN020 13/12 Q1012 NOSIG
ZGHA,2012-04-15 21:00,ZGHA 152100Z 34002MPS 2000 BR FEW006 BKN020 13/12 Q1013 NOSIG
ZGHA,2012-04-15 22:00,ZGHA 152200Z 01001MPS 1700 BR FEW006 BKN020 13/12 Q1013 NOSIG
ZGHA,2012-04-15 23:00,ZGHA 152300Z VRB01MPS 1700 BR FEW006 SCT020 13/12 Q1014 NOSIG
ZGHA,2012-04-16 00:00,ZGHA 160000Z 04002MPS 350V080 2200 BR FEW006 SCT020 14/13 Q1014 BECMG TL0100 3500
ZGHA,2012-04-16 01:00,ZGHA 160100Z VRB01MPS 3000 BR SCT006 15/13 Q1015 NOSIG
ZGHA,2012-04-16 02:00,ZGHA 160200Z VRB01MPS 4000 BR BKN009 16/13 Q1015 NOSIG
ZGHA,2012-04-16 03:00,ZGHA 160300Z VRB01MPS 5000 -RA BR BKN009 17/13 Q1015 BECMG TL0400 BKN011
ZGHA,2012-04-16 04:00,ZGHA 160400Z 26002MPS 220V320 5000 BR BKN011 17/14 Q1015 NOSIG
ZGHA,2012-04-16 05:00,ZGHA 160500Z VRB01MPS 6000 SCT020 19/14 Q1014 NOSIG
ZGHA,2012-04-16 06:00,ZGHA 160600Z 28002MPS 180V320 7000 SCT023 20/14 Q1013 NOSIG
ZGHA,2012-04-16 07:00,ZGHA 160700Z 29003MPS 220V340 6000 NSC 20/14 Q1012 NOSIG
ZGHA,2012-04-16 08:00,ZGHA 160800Z 25002MPS 190V330 6000 FEW023 20/14 Q1011 NOSIG
ZGHA,2012-04-16 09:00,ZGHA 160900Z 27002MPS 240V330 6000 NSC 21/14 Q1011 NOSIG
ZGHA,2012-04-16 10:00,ZGHA 161000Z 32002MPS 280V350 5000 HZ NSC 20/14 Q1011 NOSIG
ZGHA,2012-04-16 11:00,ZGHA 161100Z 30002MPS 270V330 4500 BR FEW040 20/14 Q1011 NOSIG
ZGHA,2012-04-16 12:00,ZGHA 161200Z 32003MPS 280V340 4500 BR SCT030 19/15 Q1012 NOSIG
ZGHA,2012-04-16 13:00,ZGHA 161300Z 01003MPS 4500 BR SCT030 18/15 Q1013 NOSIG
ZGHA,2012-04-16 14:00,ZGHA 161400Z VRB01MPS 4000 BR SCT030 17/14 Q1013 NOSIG
ZGHA,2012-04-16 15:00,ZGHA 161500Z 02002MPS 4000 BR NSC 17/14 Q1013 NOSIG
ZGHA,2012-04-16 16:00,ZGHA 161600Z 36003MPS 3000 BR NSC 16/14 Q1013 NOSIG
ZGHA,2012-04-16 17:00,ZGHA 161700Z 35004MPS 3000 BR NSC 16/14 Q1013 NOSIG
ZGHA,2012-04-16 18:00,ZGHA 161800Z VRB01MPS 3000 BR NSC 16/14 Q1012 NOSIG
ZGHA,2012-04-16 19:00,ZGHA 161900Z 34001MPS 2500 BR NSC 15/14 Q1011 NOSIG
ZGHA,2012-04-16 20:00,ZGHA 162000Z 27001MPS 1800 BR NSC 15/14 Q1011 NOSIG
ZGHA,2012-04-16 21:00,ZGHA 162100Z 32002MPS 300V360 2500 BR NSC 15/14 Q1011 NOSIG
ZGHA,2012-04-16 22:00,ZGHA 162200Z 02002MPS 360V080 1600 BR SCT033 15/14 Q1011 NOSIG
ZGHA,2012-04-16 23:00,ZGHA 162300Z 33003MPS 1400 R36/1400N -RA BR SCT040 16/14 Q1012 BECMG BKN011 OVC050
ZGHA,2012-04-17 00:00,ZGHA 170000Z 05002MPS 360V090 0900 R36/0800V1000N -RA FG SCT006 OVC050 15/14 Q1012 TEMPO 0700 FG
ZGHA,2012-04-17 01:00,ZGHA 170100Z 30003MPS 270V330 0900 R36/0900V1100N -RA FG SCT006 OVC040 16/15 Q1013 TEMPO 0700
ZGHA,2012-04-17 02:00,ZGHA 170200Z VRB01MPS 0700 R36/0800V0900N -RA FG FEW003 BKN006 OVC040 16/15 Q1013 BECMG 0900 FG
ZGHA,2012-04-17 03:00,ZGHA 170300Z 36003MPS 1200 R36/1000V1200N -RA BR SCT004 BKN009 OVC040 17/15 Q1013 BECMG TL0400 1600 SCT004 BKN011 OVC040
ZGHA,2012-04-17 04:00,ZGHA 170400Z 33002MPS 290V360 1400 R36/1300N -RA BR SCT004 BKN009 OVC040 17/15 Q1012 BECMG 1700
ZGHA,2012-04-17 05:00,ZGHA 170500Z 33004MPS 1600 R36/1200V1400U -RA BR SCT004 BKN009 OVC040 17/15 Q1012 BECMG TL0600 SCT005 BKN011 OVC050
ZGHA,2012-04-17 06:00,ZGHA 170600Z 35003MPS 310V010 2000 BR SCT009 BKN020 OVC050 18/16 Q1011 NOSIG
ZGHA,2012-04-17 07:00,ZGHA 170700Z 34003MPS 310V040 1600 R36/1000V1300U -RA BR SCT009 BKN020 OVC040 17/16 Q1010 NOSIG
ZGHA,2012-04-17 08:00,ZGHA 170800Z 31002MPS 280V350 1600 R36/1300N -RA BR SCT009 BKN020 OVC040 17/16 Q1009 NOSIG
ZGHA,2012-04-17 09:00,ZGHA 170900Z 33003MPS 300V360 1800 BR SCT009 BKN020 OVC040 18/16 Q1009 NOSIG
ZGHA,2012-04-17 10:00,ZGHA 171000Z 30002MPS 270V330 2000 BR SCT009 BKN020 OVC040 17/16 Q1009 NOSIG
ZGHA,2012-04-17 11:00,ZGHA 171100Z 30002MPS 270V340 1600 BR SCT009 BKN020 OVC040 17/16 Q1009 NOSIG
ZGHA,2012-04-17 12:00,ZGHA 171200Z 30003MPS 1700 -RA BR SCT009 BKN020 OVC040 17/15 Q1010 BECMG TL1400 1400
ZGHA,2012-04-17 13:00,ZGHA 171300Z 35003MPS 1600 -RA BR SCT006 BKN020 OVC040 17/15 Q1010 BECMG TL1400 1400
ZGHA,2012-04-17 14:00,ZGHA 171400Z 29003MPS 1200 R36/1900D BR SCT003 BKN004 OVC040 16/15 Q1011 BECMG TL1600 BKN006 OVC040
ZGHA,2012-04-17 15:00,ZGHA 171500Z VRB01MPS 1400 R36/P2000 BR BKN006 OVC040 16/15 Q1011 BECMG TL1600 1600 BKN011 OVC050
ZGHA,2012-04-17 16:00,ZGHA 171600Z 02002MPS 1400 R36/P2000 BR BKN006 OVC040 16/15 Q1011 BECMG TL1700 1600 BKN011 OVC050
ZGHA,2012-04-17 17:00,ZGHA 171700Z VRB01MPS 1400 R36/1900D BR BKN006 OVC040 16/15 Q1010 NOSIG
ZGHA,2012-04-17 18:00,ZGHA 171800Z 30002MPS 1200 R36/1800N BR BKN006 OVC040 16/15 Q1009 NOSIG
ZGHA,2012-04-17 19:00,ZGHA 171900Z AUTO 28002MPS 0450 R36/1200V1300N FG FEW003/// 16/15 Q1010
ZGHA,2012-04-17 20:00,ZGHA 172000Z 34003MPS 1200 R36/1600N BR FEW003 BKN006 OVC040 16/15 Q1009 NOSIG
ZGHA,2012-04-17 21:00,ZGHA 172100Z 33002MPS 1000 R36/1600N BR FEW003 BKN006 OVC040 16/15 Q1010 NOSIG
ZGHA,2012-04-17 22:00,ZGHA 172200Z 01002MPS 0600 R36/0900V1100D -RA FG FEW003 BKN006 OVC040 16/15 Q1009 NOSIG
ZGHA,2012-04-17 23:00,ZGHA 172300Z 36002MPS 330V030 0700 R36/0900V1000N FG FEW003 BKN006 OVC040 16/15 Q1009 BECMG TL2400 0900 FG
ZGHA,2012-04-18 00:00,ZGHA 180000Z 23002MPS 200V280 0900 R36/0900V1200N FG FEW003 BKN006 OVC040 16/15 Q1010 BECMG TL0200 1700 BR
ZGHA,2012-04-18 01:00,ZGHA 180100Z VRB01MPS 1000 R36/0800V0900N BR FEW003 BKN006 OVC040 17/16 Q1011 BECMG 1700
ZGHA,2012-04-18 02:00,ZGHA 180200Z 32002MPS 270V020 1800 BR FEW005 BKN008 OVC040 18/16 Q1011 NOSIG
ZGHA,2012-04-18 03:00,ZGHA 180300Z 33003MPS 300V360 1400 R36/1000V1200N -RA BR FEW003 BKN006 OVC040 18/16 Q1011 BECMG 1700
ZGHA,2012-04-18 04:00,ZGHA 180400Z 36003MPS 1700 R36/1400N BR FEW005 BKN007 OVC040 18/16 Q1010 NOSIG
ZGHA,2012-04-18 05:00,ZGHA 180500Z 34002MPS 280V020 2000 BR BKN008 OVC050 19/15 Q1010 NOSIG
ZGHA,2012-04-18 06:00,ZGHA 180600Z 32002MPS 270V010 3500 BR FEW009 SCT050 20/16 Q1009 NOSIG
ZGHA,2012-04-18 07:00,ZGHA 180700Z VRB01MPS 5000 BR SCT015 21/16 Q1008 NOSIG
ZGHA,2012-04-18 08:00,ZGHA 180800Z VRB01MPS 5000 HZ SCT015 22/15 Q1008 NOSIG
ZGHA,2012-04-18 09:00,ZGHA 180900Z VRB01MPS 5000 BR BKN020 21/16 Q1008 NOSIG
ZGHA,2012-04-18 10:00,ZGHA 181000Z VRB01MPS 4000 BR BKN020 20/16 Q1008 NOSIG
ZGHA,2012-04-18 11:00,ZGHA 181100Z 02002MPS 4000 BR BKN020 20/16 Q1009 NOSIG
ZGHA,2012-04-18 12:00,ZGHA 181200Z 02001MPS 3500 BR SCT030 19/16 Q1009 NOSIG
ZGHA,2012-04-18 13:00,ZGHA 181300Z 36001MPS 2700 BR NSC 19/16 Q1010 NOSIG
ZGHA,2012-04-18 14:00,ZGHA 181400Z 01001MPS 3000 BR NSC 19/16 Q1011 BECMG 2000
ZGHA,2012-04-18 15:00,ZGHA 181500Z VRB01MPS 2500 BR NSC 18/16 Q1010 NOSIG
ZGHA,2012-04-18 16:00,ZGHA 181600Z VRB01MPS 2000 BR NSC 17/16 Q1011 BECMG 1300
ZGHA,2012-04-18 17:00,ZGHA 181700Z 00000MPS 1800 BR FEW006 17/15 Q1010 BECMG 1300
ZGHA,2012-04-18 18:00,ZGHA 181800Z 02001MPS 1400 R36/1100V1200N BR SKC 16/15 Q1010 NOSIG
ZGHA,2012-04-18 19:00,ZGHA 181900Z 00000MPS 0700 R36/0200N FG SCT006 16/15 Q1010 NOSIG
ZGHA,2012-04-18 20:00,ZGHA 182000Z 36002MPS 1000 R36/1600N BR FEW006 16/15 Q1010 NOSIG
ZGHA,2012-04-18 21:00,ZGHA 182100Z VRB01MPS 1000 R36/1500D BR NSC 16/16 Q1010 NOSIG
ZGHA,2012-04-18 22:00,ZGHA 182200Z VRB01MPS 1100 R36/P2000 BR BKN020 OVC050 17/16 Q1011 NOSIG
ZGHA,2012-04-18 23:00,ZGHA 182300Z 36002MPS 1600 R36/1100V1300U BR SCT023 17/16 Q1011 NOSIG
ZGHA,2012-04-19 00:00,ZGHA 190000Z VRB01MPS 2500 BR NSC 18/16 Q1011 BECMG 3000
ZGHA,2012-04-19 01:00,ZGHA 190100Z 36002MPS 320V050 3500 BR NSC 19/17 Q1012 NOSIG
ZGHA,2012-04-19 02:00,ZGHA 190200Z 35003MPS 310V020 4500 BR NSC 21/17 Q1013 NOSIG
ZGHA,2012-04-19 03:00,ZGHA 190300Z VRB01MPS 5000 BR NSC 22/17 Q1013 NOSIG
ZGHA,2012-04-19 04:00,ZGHA 190400Z VRB01MPS 6000 NSC 24/16 Q1012 NOSIG
ZGHA,2012-04-19 05:00,ZGHA 190500Z VRB02MPS 7000 FEW030 25/16 Q1011 NOSIG
ZGHA,2012-04-19 06:00,ZGHA 190600Z VRB02MPS 8000 NSC 25/16 Q1010 NOSIG
ZGHA,2012-04-19 07:00,ZGHA 190700Z 33003MPS 260V010 6000 FEW030 26/16 Q1009 NOSIG
ZGHA,2012-04-19 08:00,ZGHA 190800Z 36002MPS 330V050 7000 SCT040 26/15 Q1009 NOSIG
ZGHA,2012-04-19 09:00,ZGHA 190900Z VRB01MPS 8000 NSC 26/15 Q1008 NOSIG
ZGHA,2012-04-19 10:00,ZGHA 191000Z 16001MPS 7000 SCT050 25/15 Q1009 NOSIG
ZGHA,2012-04-19 11:00,ZGHA 191100Z 16003MPS 5000 BR SCT050 23/18 Q1009 NOSIG
ZGHA,2012-04-19 12:00,ZGHA 191200Z 18002MPS 120V200 4500 BR SCT040 22/18 Q1009 NOSIG
ZGHA,2012-04-19 13:00,ZGHA 191300Z VRB01MPS 3000 BR SCT033 21/19 Q1010 NOSIG
ZGHA,2012-04-19 14:00,ZGHA 191400Z 00000MPS 3000 BR SCT033 21/19 Q1011 NOSIG
ZGHA,2012-04-19 15:00,ZGHA 191500Z 17001MPS 2800 BR SCT040 21/18 Q1011 NOSIG
ZGHA,2012-04-19 16:00,ZGHA 191600Z VRB01MPS 3000 BR SCT050 21/18 Q1011 NOSIG
ZGHA,2012-04-19 17:00,ZGHA 191700Z VRB01MPS 3000 BR SCT050 21/18 Q1010 NOSIG
ZGHA,2012-04-19 18:00,ZGHA 191800Z 18002MPS 4000 BR NSC 20/17 Q1009 NOSIG
ZGHA,2012-04-19 19:00,ZGHA 191900Z 14002MPS 090V160 4000 BR NSC 20/17 Q1008 NOSIG
ZGHA,2012-04-19 20:00,ZGHA 192000Z 15001MPS 3500 BR NSC 20/17 Q1008 NOSIG
ZGHA,2012-04-19 21:00,ZGHA 192100Z VRB01MPS 2700 BR SCT040 19/17 Q1008 NOSIG
ZGHA,2012-04-19 22:00,ZGHA 192200Z VRB01MPS 2000 BR SCT040 19/18 Q1008 BECMG 1300 BKN011 OVC050
ZGHA,2012-04-19 23:00,ZGHA 192300Z VRB01MPS 2700 BR SCT040 20/18 Q1008 BECMG 1400 -TSRA BKN011 SCT040CB OVC050
ZGHA,2012-04-20 00:00,ZGHA 200000Z 08003MPS 050V120 3500 TS BR FEW040CB SCT040 20/16 Q1008 BECMG TL0030 1700 TSRA BR BKN007 SCT040CB BKN040
ZGHA,2012-04-20 01:00,ZGHA 200100Z 18003MPS 2700 -TSRA BR BKN012 FEW040CB BKN040 19/17 Q1009 TEMPO 24006MPS 1400 TSRA BR BKN008 SCT040CB BKN040
ZGHA,2012-04-20 02:00,ZGHA 200200Z 33003MPS 2300 -SHRA BR SCT012 FEW040CB BKN040 19/18 Q1009 BECMG 3000 -RA BR BKN011 OVC050
ZGHA,2012-04-20 03:00,ZGHA 200300Z 02002MPS 2300 BR SCT012 BKN020 OVC040 19/18 Q1009 BECMG 3000
ZGHA,2012-04-20 04:00,ZGHA 200400Z VRB01MPS 2700 R36/1400N -RA BR SCT012 BKN020 OVC040 19/18 Q1009 BECMG 3000
ZGHA,2012-04-20 05:00,ZGHA 200500Z 34003MPS 2200 -RA BR SCT006 BKN020 OVC040 19/18 Q1008 BECMG 3000
ZGHA,2012-04-20 06:00,ZGHA 200600Z 34003MPS 1700 -RA BR SCT006 BKN020 OVC040 19/18 Q1008 BECMG 3000
ZGHA,2012-04-20 07:00,ZGHA 200700Z 36004MPS 2700 -RA BR SCT006 BKN020 OVC040 19/18 Q1007 BECMG TL0800 3000
ZGHA,2012-04-20 08:00,ZGHA 200800Z 34005MPS 300V010 3000 BR SCT009 BKN020 OVC040 19/17 Q1008 NOSIG
ZGHA,2012-04-20 09:00,ZGHA 200900Z 34008MPS 2100 -RA BR SCT009 BKN020 OVC040 19/16 Q1008 NOSIG
ZGHA,2012-04-20 10:00,ZGHA 201000Z 35008MPS 2700 BR SCT013 BKN020 OVC040 18/16 Q1009 NOSIG
ZGHA,2012-04-20 11:00,ZGHA 201100Z 34006MPS 3500 -RA BR SCT012 BKN020 OVC040 18/16 Q1010 NOSIG
ZGHA,2012-04-20 12:00,ZGHA 201200Z 35006MPS 3000 BR SCT012 BKN020 OVC040 18/16 Q1010 NOSIG
ZGHA,2012-04-20 13:00,ZGHA 201300Z 34005MPS 3500 BR SCT012 BKN020 OVC050 18/15 Q1011 NOSIG
ZGHA,2012-04-20 14:00,ZGHA 201400Z 33006MPS 3500 BR SCT040 17/14 Q1012 NOSIG
ZGHA,2012-04-20 15:00,ZGHA 201500Z 34005MPS 4000 BR SCT040 17/14 Q1012 NOSIG
ZGHA,2012-04-20 16:00,ZGHA 201600Z 34004MPS 3500 BR SCT040 16/13 Q1013 NOSIG
ZGHA,2012-04-20 17:00,ZGHA 201700Z 33004MPS 2500 BR SCT040 16/14 Q1013 NOSIG
ZGHA,2012-04-20 18:00,ZGHA 201800Z 31002MPS 280V340 1800 BR SCT040 15/13 Q1013 NOSIG
ZGHA,2012-04-20 19:00,ZGHA 201900Z 30002MPS 1600 BR SCT040 15/13 Q1012 NOSIG
ZGHA,2012-04-20 20:00,ZGHA 202000Z VRB01MPS 1000 R36/0800V1200U BR SCT040 14/12 Q1011 BECMG 0700 FG
ZGHA,2012-04-20 21:00,ZGHA 202100Z VRB01MPS 0700 R36/1300D FG SCT040 13/12 Q1011 NOSIG
ZGHA,2012-04-20 22:00,ZGHA 202200Z VRB01MPS 0600 R36/0375V0700D FG SCT040 13/12 Q1012 NOSIG
ZGHA,2012-04-20 23:00,ZGHA 202300Z 32002MPS 1400 R36/1500U BR SCT007 BKN020 14/14 Q1013 BECMG TL2330 1700
ZGHA,2012-04-21 00:00,ZGHA 210000Z 34003MPS 310V010 2000 BR SCT007 16/14 Q1014 BECMG TL0100 3000
ZGHA,2012-04-21 01:00,ZGHA 210100Z 02002MPS 350V090 2400 BR NSC 16/14 Q1014 BECMG TL0200 3000
ZGHA,2012-04-21 02:00,ZGHA 210200Z VRB01MPS 4000 BR NSC 19/14 Q1014 NOSIG
ZGHA,2012-04-21 03:00,ZGHA 210300Z 36002MPS 270V070 5000 HZ NSC 21/14 Q1014 NOSIG
ZGHA,2012-04-21 04:00,ZGHA 210400Z VRB02MPS 6000 NSC 22/14 Q1013 NOSIG
ZGHA,2012-04-21 05:00,ZGHA 210500Z VRB02MPS 7000 SCT040 23/14 Q1012 NOSIG
ZGHA,2012-04-21 06:00,ZGHA 210600Z VRB02MPS 7000 SCT040 24/14 Q1011 NOSIG
ZGHA,2012-04-21 07:00,ZGHA 210700Z VRB01MPS 8000 FEW040 24/13 Q1010 NOSIG
ZGHA,2012-04-21 08:00,ZGHA 210800Z VRB02MPS 8000 NSC 25/12 Q1009 NOSIG
ZGHA,2012-04-21 09:00,ZGHA 210900Z VRB01MPS 8000 SKC 25/11 Q1009 NOSIG
ZGHA,2012-04-21 10:00,ZGHA 211000Z VRB01MPS 8000 SKC 24/13 Q1009 NOSIG
ZGHA,2012-04-21 11:00,ZGHA 211100Z 13001MPS 7000 SKC 21/16 Q1009 NOSIG
ZGHA,2012-04-21 12:00,ZGHA 211200Z 17002MPS 130V190 5000 BR SKC 19/16 Q1009 NOSIG
ZGHA,2012-04-21 13:00,ZGHA 211300Z 13002MPS 4000 BR SKC 19/15 Q1010 NOSIG
ZGHA,2012-04-21 14:00,ZGHA 211400Z 16002MPS 4000 BR SKC 17/15 Q1010 NOSIG
ZGHA,2012-04-21 15:00,ZGHA 211500Z 16002MPS 4000 BR SKC 17/14 Q1010 NOSIG
ZGHA,2012-04-21 16:00,ZGHA 211600Z VRB01MPS 3000 BR SKC 16/14 Q1011 BECMG TL1700 2500
ZGHA,2012-04-21 17:00,ZGHA 211700Z 17002MPS 3000 BR SKC 15/13 Q1010 BECMG TL1800 2500
ZGHA,2012-04-21 18:00,ZGHA 211800Z VRB01MPS 1800 BR NSC 15/13 Q1009 NOSIG
ZGHA,2012-04-21 19:00,ZGHA 211900Z AUTO VRB01MPS 1800 BR NCD 14/13 Q1009
ZGHA,2012-04-21 20:00,ZGHA 212000Z 11001MPS 1800 BR NSC 14/13 Q1009 NOSIG
ZGHA,2012-04-21 21:00,ZGHA 212100Z 04001MPS 1600 BR SKC 13/12 Q1009 NOSIG
ZGHA,2012-04-21 22:00,ZGHA 212200Z 21001MPS 1200 R18/1500U BR SKC 13/12 Q1009 BECMG TL2330 1600
ZGHA,2012-04-21 23:00,ZGHA 212300Z VRB01MPS 2100 R18/0900V1100D BR SKC 14/13 Q1009 BECMG TL2400 3500
ZGHA,2012-04-22 00:00,ZGHA 220000Z VRB01MPS 3500 BR SKC 17/14 Q1010 NOSIG
ZGHA,2012-04-22 01:00,ZGHA 220100Z 14002MPS 090V190 6000 SKC 22/15 Q1010 NOSIG
ZGHA,2012-04-22 02:00,ZGHA 220200Z 15004MPS 120V180 CAVOK 24/14 Q1010 NOSIG
ZGHA,2012-04-22 03:00,ZGHA 220300Z 17004MPS 120V200 CAVOK 26/14 Q1009 NOSIG
ZGHA,2012-04-22 04:00,ZGHA 220400Z 20005MPS 170V230 CAVOK 27/12 Q1008 NOSIG
ZGHA,2012-04-22 05:00,ZGHA 220500Z 20005MPS 160V240 CAVOK 28/10 Q1007 NOSIG
ZGHA,2012-04-22 06:00,ZGHA 220600Z 17003MPS 120V240 CAVOK 29/12 Q1006 NOSIG
ZGHA,2012-04-22 07:00,ZGHA 220700Z 16004MPS 110V200 CAVOK 30/11 Q1005 NOSIG
ZGHA,2012-04-22 08:00,ZGHA 220800Z 15004MPS 110V190 CAVOK 30/08 Q1004 NOSIG
ZGHA,2012-04-22 09:00,ZGHA 220900Z 16003MPS 120V210 CAVOK 30/10 Q1004 NOSIG
ZGHA,2012-04-22 10:00,ZGHA 221000Z 16003MPS 110V180 CAVOK 29/12 Q1004 NOSIG
ZGHA,2012-04-22 11:00,ZGHA 221100Z 15002MPS CAVOK 26/14 Q1003 NOSIG
ZGHA,2012-04-22 12:00,ZGHA 221200Z 15002MPS CAVOK 24/14 Q1004 NOSIG
ZGHA,2012-04-22 13:00,ZGHA 221300Z 13003MPS CAVOK 24/13 Q1005 NOSIG
ZGHA,2012-04-22 14:00,ZGHA 221400Z 11002MPS CAVOK 24/12 Q1005 NOSIG
ZGHA,2012-04-22 15:00,ZGHA 221500Z 11001MPS CAVOK 21/14 Q1005 NOSIG
ZGHA,2012-04-22 16:00,ZGHA 221600Z 18001MPS CAVOK 21/13 Q1005 NOSIG
ZGHA,2012-04-22 17:00,ZGHA 221700Z 17001MPS CAVOK 22/12 Q1005 NOSIG
ZGHA,2012-04-22 18:00,ZGHA 221800Z 19002MPS CAVOK 20/12 Q1004 NOSIG
ZGHA,2012-04-22 19:00,ZGHA 221900Z 18002MPS CAVOK 19/13 Q1004 NOSIG
ZGHA,2012-04-22 20:00,ZGHA 222000Z 14001MPS CAVOK 19/13 Q1004 NOSIG
ZGHA,2012-04-22 21:00,ZGHA 222100Z 15002MPS CAVOK 21/13 Q1004 NOSIG
ZGHA,2012-04-22 22:00,ZGHA 222200Z 16003MPS 120V190 CAVOK 22/13 Q1004 NOSIG
ZGHA,2012-04-22 23:00,ZGHA 222300Z 17002MPS 140V200 CAVOK 22/14 Q1004 NOSIG
ZGHA,2012-04-23 00:00,ZGHA 230000Z 16002MPS 120V190 CAVOK 23/14 Q1004 NOSIG
ZGHA,2012-04-23 01:00,ZGHA 230100Z 15004MPS 120V210 CAVOK 26/15 Q1004 NOSIG
ZGHA,2012-04-23 02:00,ZGHA 230200Z 16005MPS 120V180 CAVOK 27/15 Q1004 NOSIG
ZGHA,2012-04-23 03:00,ZGHA 230300Z 17004MPS 130V190 CAVOK 28/16 Q1004 NOSIG
ZGHA,2012-04-23 04:00,ZGHA 230400Z 16005MPS 110V190 CAVOK 28/17 Q1003 NOSIG
ZGHA,2012-04-23 05:00,ZGHA 230500Z 16004MPS 130V200 CAVOK 28/17 Q1002 NOSIG
ZGHA,2012-04-23 06:00,ZGHA 230600Z 18006MPS 9999 -SHRA FEW050CB 26/19 Q1002 TEMPO -TSRA
ZGHA,2012-04-23 07:00,ZGHA 230700Z 16005MPS 8000 -SHRA FEW060CB 23/20 Q1001 RETS NOSIG
ZGHA,2012-04-23 08:00,ZGHA 230800Z 16003MPS 130V190 8000 NSC 23/21 Q1000 NOSIG
ZGHA,2012-04-23 09:00,ZGHA 230900Z 17005G10MPS CAVOK 24/20 Q1000 NOSIG
ZGHA,2012-04-23 10:00,ZGHA 231000Z 16006MPS 120V200 CAVOK 24/20 Q0999 NOSIG
ZGHA,2012-04-23 11:00,ZGHA 231100Z 16003MPS 130V190 9999 OVC050 23/20 Q0999 NOSIG
ZGHA,2012-04-23 12:00,ZGHA 231200Z 16002MPS 7000 SCT040 23/19 Q0999 NOSIG
ZGHA,2012-04-23 13:00,ZGHA 231300Z 16003MPS 130V190 7000 NSC 23/19 Q0999 NOSIG
ZGHA,2012-04-23 14:00,ZGHA 231400Z 16003MPS 130V190 8000 NSC 23/19 Q1000 NOSIG
ZGHA,2012-04-23 15:00,ZGHA 231500Z 17003MPS 130V190 CAVOK 23/19 Q0999 NOSIG
ZGHA,2012-04-23 16:00,ZGHA 231600Z 17004MPS CAVOK 23/19 Q0999 NOSIG
ZGHA,2012-04-23 17:00,ZGHA 231700Z 17003MPS CAVOK 23/19 Q0998 NOSIG
ZGHA,2012-04-23 18:00,ZGHA 231800Z 17003MPS 130V190 CAVOK 23/19 Q0998 NOSIG
ZGHA,2012-04-23 19:00,ZGHA 231900Z 18002MPS CAVOK 23/19 Q0997 NOSIG
ZGHA,2012-04-23 20:00,ZGHA 232000Z 19001MPS 5000 -TSRA BR BKN007 FEW050CB BKN050 22/19 Q0997 NOSIG
ZGHA,2012-04-23 21:00,ZGHA 232100Z VRB01MPS 6000 TS BKN007 FEW050CB BKN050 22/20 Q0996 NOSIG
ZGHA,2012-04-23 22:00,ZGHA 232200Z 34002MPS 7000 SCT012 OVC050 22/20 Q0997 RETS NOSIG
ZGHA,2012-04-23 23:00,ZGHA 232300Z 04002MPS 350V090 7000 SCT012 OVC050 22/20 Q0998 NOSIG
ZGHA,2012-04-24 00:00,ZGHA 240000Z 08004MPS 050V120 8000 SCT012 OVC050 23/20 Q0998 NOSIG
ZGHA,2012-04-24 01:00,ZGHA 240100Z 12002MPS 100V160 9999 BKN050 26/21 Q0998 NOSIG
ZGHA,2012-04-24 02:00,ZGHA 240200Z 16004G09MPS 120V190 CAVOK 27/21 Q0998 NOSIG
ZGHA,2012-04-24 03:00,ZGHA 240300Z 18005MPS CAVOK 27/22 Q0997 NOSIG
ZGHA,2012-04-24 04:00,ZGHA 240400Z 18005MPS CAVOK 29/22 Q0997 NOSIG
ZGHA,2012-04-24 05:00,ZGHA 240500Z 18004MPS 140V220 9999 FEW040 31/23 Q0996 NOSIG
ZGHA,2012-04-24 06:00,ZGHA 240600Z 21007MPS 9999 SCT040 31/22 Q0995 NOSIG
ZGHA,2012-04-24 07:00,ZGHA 240700Z 19008MPS 9999 SCT050 31/22 Q0994 BECMG TL0720 33010G15MPS 1300 +TSRA BR SCT008 SCT040CB BON050
ZGHA,2012-04-24 08:00,ZGHA 240800Z 28010G21MPS 240V310 1400 R18/P2000 TSRA BR BKN006 FEW033CB BKN033 24/20 Q0993 BECMG TL0920 33007MPS 1700 -TSRA B R
ZGHA,2012-04-24 09:00,ZGHA 240900Z 09002MPS 360V130 6000 -TSRA BKN012 FEW040CB BKN040 22/21 Q0996 RESHRA BECMG TL0930 -SHRA
ZGHA,2012-04-24 10:00,ZGHA 241000Z 01002MPS 7000 -RA BKN012 OVC040 22/21 Q0998 BECMG TL1030 2500 -TSRA BR BKN008 FEW040CB OVC050
ZGHA,2012-04-24 11:00,ZGHA 241100Z 35002MPS 320V070 6000 -RA BKN012 OVC040 22/21 Q0999 RERA NOSIG
ZGHA,2012-04-24 12:00,ZGHA 241200Z 30004MPS 4500 -RA BR BKN012 OVC040 23/21 Q1001 BECMG SCT016 OVC050
ZGHA,2012-04-24 13:00,ZGHA 241300Z 34007MPS 6000 -RA BKN011 OVC040 22/20 Q1002 BECMG TL1400 BKN016 OVC050
ZGHA,2012-04-24 14:00,ZGHA 241400Z 35007MPS 9999 BKN026 OVC050 22/20 Q1003 NOSIG
ZGHA,2012-04-24 15:00,ZGHA 241500Z 35008MPS 9999 BKN011 OVC050 20/18 Q1005 NOSIG
ZGHA,2012-04-24 16:00,ZGHA 241600Z 34008MPS 9999 BKN012 OVC050 19/17 Q1006 NOSIG
ZGHA,2012-04-24 17:00,ZGHA 241700Z 35007MPS 9999 FEW011 BKN017 OVC050 19/16 Q1006 NOSIG
ZGHA,2012-04-24 18:00,ZGHA 241800Z 35008MPS 9999 FEW011 BKN017 OVC050 19/15 Q1007 NOSIG
ZGHA,2012-04-24 19:00,ZGHA 241900Z 34007MPS 9999 BKN026 OVC050 18/15 Q1007 NOSIG
ZGHA,2012-04-24 20:00,ZGHA 242000Z 35007MPS 9999 SCT030 OVC050 18/15 Q1008 NOSIG
ZGHA,2012-04-24 21:00,ZGHA 242100Z 36007MPS CAVOK 17/15 Q1008 NOSIG
ZGHA,2012-04-24 22:00,ZGHA 242200Z 35004MPS 320V020 9999 SCT030 17/14 Q1009 NOSIG
ZGHA,2012-04-24 23:00,ZGHA 242300Z 35006MPS 9999 FEW030 18/14 Q1010 NOSIG
ZGHA,2012-04-25 00:00,ZGHA 250000Z 36004MPS 9999 FEW030 19/14 Q1011 NOSIG
ZGHA,2012-04-25 01:00,ZGHA 250100Z 01004MPS 350V050 9999 SCT030 20/13 Q1011 NOSIG
ZGHA,2012-04-25 02:00,ZGHA 250200Z 35006MPS 9999 BKN040 19/12 Q1013 BECMG TL0220 2500 -RA BR SCT005 BKN011 OVC040
ZGHA,2012-04-25 03:00,ZGHA 250300Z 34008MPS 9999 -RA BKN040 19/14 Q1013 NOSIG
ZGHA,2012-04-25 04:00,ZGHA 250400Z 34007MPS 9999 -RA BKN040 18/14 Q1013 NOSIG
ZGHA,2012-04-25 05:00,ZGHA 250500Z 35006MPS 9999 -RA BKN040 18/14 Q1014 NOSIG
ZGHA,2012-04-25 06:00,ZGHA 250600Z 34005MPS 7000 -RA BKN040 19/15 Q1014 NOSIG
ZGHA,2012-04-25 07:00,ZGHA 250700Z 01005MPS 350V060 8000 -RA BKN040 18/14 Q1013 NOSIG
ZGHA,2012-04-25 08:00,ZGHA 250800Z 01005MPS 9999 SCT050 19/12 Q1013 NOSIG
ZGHA,2012-04-25 09:00,ZGHA 250900Z 02005MPS 350V050 CAVOK 20/09 Q1013 NOSIG
ZGHA,2012-04-25 10:00,ZGHA 251000Z 01002MPS CAVOK 19/11 Q1014 NOSIG
ZGHA,2012-04-25 11:00,ZGHA 251100Z 33005MPS CAVOK 18/11 Q1015 NOSIG
ZGHA,2012-04-25 12:00,ZGHA 251200Z 35003MPS CAVOK 17/12 Q1015 NOSIG
ZGHA,2012-04-25 13:00,ZGHA 251300Z VRB01MPS CAVOK 16/13 Q1016 NOSIG
ZGHA,2012-04-25 14:00,ZGHA 251400Z 16001MPS CAVOK 16/13 Q1016 NOSIG
ZGHA,2012-04-25 15:00,ZGHA 251500Z 00000MPS 8000 NSC 15/13 Q1017 NOSIG
ZGHA,2012-04-25 16:00,ZGHA 251600Z VRB01MPS 8000 NSC 15/13 Q1017 NOSIG
ZGHA,2012-04-25 17:00,ZGHA 251700Z 09001MPS 7000 NSC 14/13 Q1016 NOSIG
ZGHA,2012-04-25 18:00,ZGHA 251800Z VRB01MPS 6000 NSC 13/12 Q1016 NOSIG
ZGHA,2012-04-25 19:00,ZGHA 251900Z AUTO VRB01MPS 4200 BR NCD 12/12 Q1015
ZGHA,2012-04-25 20:00,ZGHA 252000Z VRB01MPS 3000 BR NSC 13/12 Q1015
ZGHA,2012-04-25 21:00,ZGHA 252100Z 14001MPS 3000 BR NSC 12/11 Q1015 NOSIG
ZGHA,2012-04-25 22:00,ZGHA 252200Z VRB01MPS 2200 R36/1400U BR NSC 12/11 Q1015 NOSIG
ZGHA,2012-04-25 23:00,ZGHA 252300Z 20002MPS 5000 BR SKC 13/12 Q1016 NOSIG
ZGHA,2012-04-26 00:00,ZGHA 260000Z 17002MPS 140V200 6000 SKC 15/13 Q1016 NOSIG
ZGHA,2012-04-26 01:00,ZGHA 260100Z 20003MPS 180V240 5000 BR SKC 16/13 Q1016 NOSIG
ZGHA,2012-04-26 02:00,ZGHA 260200Z 20003MPS 170V240 7000 NSC 18/14 Q1016 NOSIG
ZGHA,2012-04-26 03:00,ZGHA 260300Z VRB02MPS 7000 NSC 20/13 Q1015 NOSIG
ZGHA,2012-04-26 04:00,ZGHA 260400Z 18003MPS 130V260 CAVOK 22/12 Q1014 NOSIG
ZGHA,2012-04-26 05:00,ZGHA 260500Z 18002MPS 100V230 CAVOK 24/12 Q1013 NOSIG
ZGHA,2012-04-26 06:00,ZGHA 260600Z 22004MPS 190V280 CAVOK 25/13 Q1012 NOSIG
ZGHA,2012-04-26 07:00,ZGHA 260700Z VRB02MPS CAVOK 26/10 Q1010 NOSIG
ZGHA,2012-04-26 08:00,ZGHA 260800Z 19002MPS 100V250 CAVOK 26/10 Q1009 NOSIG
ZGHA,2012-04-26 09:00,ZGHA 260900Z 20003MPS 180V240 CAVOK 26/11 Q1009 NOSIG
ZGHA,2012-04-26 10:00,ZGHA 261000Z 18003MPS 120V210 CAVOK 25/11 Q1009 NOSIG
ZGHA,2012-04-26 11:00,ZGHA 261100Z 23003MPS CAVOK 23/12 Q1008 NOSIG
ZGHA,2012-04-26 12:00,ZGHA 261200Z VRB01MPS CAVOK 21/14 Q1009 NOSIG
ZGHA,2012-04-26 13:00,ZGHA 261300Z 13002MPS CAVOK 20/15 Q1009 NOSIG
ZGHA,2012-04-26 14:00,ZGHA 261400Z 16002MPS CAVOK 20/12 Q1009 NOSIG
ZGHA,2012-04-26 15:00,ZGHA 261500Z 18003MPS CAVOK 20/10 Q1009 NOSIG
ZGHA,2012-04-26 16:00,ZGHA 261600Z 18002MPS CAVOK 19/09 Q1009 NOSIG
ZGHA,2012-04-26 17:00,ZGHA 261700Z 19002MPS CAVOK 18/11 Q1009 NOSIG
ZGHA,2012-04-26 18:00,ZGHA 261800Z 20002MPS CAVOK 17/13 Q1009 NOSIG
ZGHA,2012-04-26 19:00,ZGHA 261900Z 19002MPS CAVOK 17/12 Q1008 NOSIG
ZGHA,2012-04-26 20:00,ZGHA 262000Z VRB01MPS CAVOK 16/12 Q1008 NOSIG
ZGHA,2012-04-26 21:00,ZGHA 262100Z 19002MPS CAVOK 16/11 Q1008 NOSIG
ZGHA,2012-04-26 22:00,ZGHA 262200Z VRB01MPS CAVOK 16/11 Q1008 NOSIG
ZGHA,2012-04-26 23:00,ZGHA 262300Z 00000MPS CAVOK 17/13 Q1008 NOSIG
ZGHA,2012-04-27 00:00,ZGHA 270000Z VRB01MPS CAVOK 19/12 Q1009 NOSIG
ZGHA,2012-04-27 01:00,ZGHA 270100Z VRB01MPS CAVOK 22/14 Q1009 NOSIG
ZGHA,2012-04-27 02:00,ZGHA 270200Z VRB02MPS CAVOK 24/11 Q1009 NOSIG
ZGHA,2012-04-27 03:00,ZGHA 270300Z 18004MPS 150V220 CAVOK 26/13 Q1008 NOSIG
ZGHA,2012-04-27 04:00,ZGHA 270400Z 19004MPS 160V220 CAVOK 26/14 Q1008 NOSIG
ZGHA,2012-04-27 05:00,ZGHA 270500Z 24004MPS 170V300 CAVOK 28/15 Q1007 NOSIG
ZGHA,2012-04-27 06:00,ZGHA 270600Z 22003MPS 160V270 CAVOK 28/15 Q1006 NOSIG
ZGHA,2012-04-27 07:00,ZGHA 270700Z VRB02G07MPS CAVOK 29/14 Q1005 NOSIG
ZGHA,2012-04-27 08:00,ZGHA 270800Z 18003MPS 140V230 CAVOK 28/16 Q1004 NOSIG
ZGHA,2012-04-27 09:00,ZGHA 270900Z 15002MPS 100V180 CAVOK 28/16 Q1004 NOSIG
ZGHA,2012-04-27 10:00,ZGHA 271000Z 15002MPS 120V180 CAVOK 28/16 Q1004 NOSIG
ZGHA,2012-04-27 11:00,ZGHA 271100Z 16002MPS CAVOK 25/17 Q1004 NOSIG
ZGHA,2012-04-27 12:00,ZGHA 271200Z 15002MPS CAVOK 24/17 Q1005 NOSIG
ZGHA,2012-04-27 13:00,ZGHA 271300Z 16002MPS CAVOK 23/17 Q1006 NOSIG
ZGHA,2012-04-27 14:00,ZGHA 271400Z 14003MPS 110V170 CAVOK 23/16 Q1006 NOSIG
ZGHA,2012-04-27 15:00,ZGHA 271500Z 12002MPS CAVOK 22/17 Q1006 NOSIG
ZGHA,2012-04-27 16:00,ZGHA 271600Z 16002MPS CAVOK 20/17 Q1006 NOSIG
ZGHA,2012-04-27 17:00,ZGHA 271700Z 17002MPS CAVOK 20/17 Q1006 NOSIG
ZGHA,2012-04-27 18:00,ZGHA 271800Z 16001MPS CAVOK 19/17 Q1006 NOSIG
ZGHA,2012-04-27 19:00,ZGHA 271900Z 14001MPS 6000 SKC 18/17 Q1005 NOSIG
ZGHA,2012-04-27 20:00,ZGHA 272000Z 12001MPS 6000 SKC 18/17 Q1005 NOSIG
ZGHA,2012-04-27 21:00,ZGHA 272100Z 00000MPS 6000 SKC 18/17 Q1005 NOSIG
ZGHA,2012-04-27 22:00,ZGHA 272200Z 08001MPS 5000 BR NSC 18/17 Q1005 NOSIG
ZGHA,2012-04-27 23:00,ZGHA 272300Z 00000MPS 7000 FEW040 20/18 Q1005 NOSIG
ZGHA,2012-04-28 00:00,ZGHA 280000Z 00000MPS 9999 FEW050 23/18 Q1006 NOSIG
ZGHA,2012-04-28 01:00,ZGHA 280100Z VRB01MPS 9999 FEW050 25/18 Q1006 NOSIG
ZGHA,2012-04-28 02:00,ZGHA 280200Z 14003MPS 100V180 9999 FEW040 25/19 Q1006 NOSIG
ZGHA,2012-04-28 03:00,ZGHA 280300Z 14005MPS 100V190 9999 FEW040 27/18 Q1006 NOSIG
ZGHA,2012-04-28 04:00,ZGHA 280400Z 16003MPS 120V190 9999 BKN050 26/19 Q1005 TEMPO FEW040CB
ZGHA,2012-04-28 05:00,ZGHA 280500Z 13005MPS 100V170 9999 SCT030 28/19 Q1004 NOSIG
ZGHA,2012-04-28 06:00,ZGHA 280600Z 16004MPS 130V190 9999 BKN033 28/19 Q1003 NOSIG
ZGHA,2012-04-28 07:00,ZGHA 280700Z 14003MPS 110V170 9999 -SHRA BKN010 FEW050CB BKN050 27/20 Q1003 NOSIG
ZGHA,2012-04-28 08:00,ZGHA 280800Z 14003MPS 9999 BKN010 OVC050 26/20 Q1003 BECMG BKN015
ZGHA,2012-04-28 09:00,ZGHA 280900Z 15002MPS 110V190 9999 SCT012 OVC050 25/20 Q1003 NOSIG
ZGHA,2012-04-28 10:00,ZGHA 281000Z 15002MPS 120V180 7000 -SHRA SCT012 FEW050CB BKN050 25/20 Q1003 BECMG SCT012 BKN050
ZGHA,2012-04-28 11:00,ZGHA 281100Z 17001MPS 6000 -SHRA SCT012 FEW050CB BKN050 23/21 Q1003 NOSIG
ZGHA,2012-04-28 12:00,ZGHA 281200Z VRB01MPS 5000 -RA BR SCT010 OVC050 23/21 Q1004 NOSIG
ZGHA,2012-04-28 13:00,ZGHA 281300Z VRB01MPS 3000 -RA BR SCT010 OVC040 23/21 Q1004 NOSIG
ZGHA,2012-04-28 14:00,ZGHA 281400Z 35002MPS 320V050 2200 -SHRA BR SCT009 FEW040CB BKN040 22/21 Q1005 NOSIG
ZGHA,2012-04-28 15:00,ZGHA 281500Z VRB01MPS 1700 -SHRA BR SCT009 FEW040CB BKN040 22/21 Q1004 NOSIG
ZGHA,2012-04-28 16:00,ZGHA 281600Z 30003MPS 270V330 1700 -SHRA BR SCT009 FEW040CB BKN040 22/21 Q1005 NOSIG
ZGHA,2012-04-28 17:00,ZGHA 281700Z VRB01MPS 2000 -RA BR SCT008 OVC040 22/21 Q1004 NOSIG
ZGHA,2012-04-28 18:00,ZGHA 281800Z VRB01MPS 2000 BR FEW004 BKN008 OVC040 22/21 Q1004 NOSIG
ZGHA,2012-04-28 19:00,ZGHA 281900Z 34001MPS 1700 BR FEW003 BKN007 OVC040 22/21 Q1004 NOSIG
ZGHA,2012-04-28 20:00,ZGHA 282000Z 33003MPS 2000 BR FEW003 BKN007 OVC040 21/20 Q1004 NOSIG
ZGHA,2012-04-28 21:00,ZGHA 282100Z 30004MPS 2500 -SHRA BR BKN007 FEW040CB BKN040 21/20 Q1005 NOSIG
ZGHA,2012-04-28 22:00,ZGHA 282200Z 33003MPS 5000 BR BKN007 OVC040 21/20 Q1005 NOSIG
ZGHA,2012-04-28 23:00,ZGHA 282300Z 35002MPS 6000 BKN007 OVC040 21/20 Q1005 BECMG SCT011 OVC040
ZGHA,2012-04-29 00:00,ZGHA 290000Z VRB01MPS 7000 BKN007 OVC050 22/20 Q1006 NOSIG
ZGHA,2012-04-29 01:00,ZGHA 290100Z 02002MPS 350V060 9000 BKN008 OVC050 22/20 Q1006 NOSIG
ZGHA,2012-04-29 02:00,ZGHA 290200Z 35003MPS 4000 -SHRA BR BKN008 OVC050 22/20 Q1007 NOSIG
ZGHA,2012-04-29 03:00,ZGHA 290300Z 36003MPS 6000 -RA BKN008 OVC050 23/20 Q1006 NOSIG
ZGHA,2012-04-29 04:00,ZGHA 290400Z 36003MPS 6000 BKN008 OVC050 23/20 Q1006 BECMG SCT008 BKN050
ZGHA,2012-04-29 05:00,ZGHA 290500Z 32002MPS 270V010 6000 BKN011 OVC050 25/21 Q1005 BECMG TL0630 SCT013 BK050
ZGHA,2012-04-29 06:00,ZGHA 290600Z VRB02MPS 9999 SCT020 26/20 Q1005 NOSIG
ZGHA,2012-04-29 07:00,ZGHA 290700Z 03002MPS 340V080 9999 SCT020 26/20 Q1004 NOSIG
ZGHA,2012-04-29 08:00,ZGHA 290800Z 34002MPS 290V010 9999 SCT023 26/20 Q1004 NOSIG
ZGHA,2012-04-29 09:00,ZGHA 290900Z 34004MPS 320V020 8000 FEW030 26/21 Q1004 NOSIG
ZGHA,2012-04-29 10:00,ZGHA 291000Z 34004MPS 300V360 6000 NSC 25/20 Q1004 NOSIG
ZGHA,2012-04-29 11:00,ZGHA 291100Z 30002MPS 280V340 4000 BR FEW023 25/20 Q1004 NOSIG
ZGHA,2012-04-29 12:00,ZGHA 291200Z 33004MPS 4000 BR SCT020 24/20 Q1005 NOSIG
ZGHA,2012-04-29 13:00,ZGHA 291300Z 35003MPS 4000 BR NSC 23/20 Q1005 NOSIG
ZGHA,2012-04-29 14:00,ZGHA 291400Z 02002MPS 350V050 3500 BR NSC 23/20 Q1005 NOSIG
ZGHA,2012-04-29 15:00,ZGHA 291500Z 32001MPS 3000 BR NSC 22/20 Q1005 BECMG TL1600 2200
ZGHA,2012-04-29 16:00,ZGHA 291600Z VRB01MPS 3000 BR NSC 22/20 Q1005 NOSIG
ZGHA,2012-04-29 17:00,ZGHA 291700Z 01002MPS 350V050 3000 BR SCT050 22/20 Q1004 BECMG 2500 -TSRA BR SCT011 FEW033CB OVC050
ZGHA,2012-04-29 18:00,ZGHA 291800Z 00000MPS 2500 BR SCT033 22/20 Q1004 BECMG -TSRA BR SCT011 FEW033CB OVC050
ZGHA,2012-04-29 19:00,ZGHA 291900Z VRB01MPS 2500 TS BR FEW050CB BKN050 22/20 Q1003 BECMG TL2100 NSW
ZGHA,2012-04-29 20:00,ZGHA 292000Z 32003MPS 2100 -TSRA BR SCT010 FEW050CB BKN050 22/20 Q1003 BECMG -RA BR SCT010 BKN050
ZGHA,2012-04-29 21:00,ZGHA 292100Z VRB01MPS 1800 BR SCT010 SCT020 OVC050 21/20 Q1003 RETS NOSIG
ZGHA,2012-04-29 22:00,ZGHA 292200Z VRB01MPS 1400 R36/1000V1200N BR FEW020 21/20 Q1002 BECMG TL2300 1600
ZGHA,2012-04-29 23:00,ZGHA 292300Z VRB01MPS 1200 R36/1300U BR SCT020 21/20 Q1003 BECMG TL2400 1600
ZGHA,2012-04-30 00:00,ZGHA 300000Z 16002MPS 1400 R36/1400N -RA BR SCT007 SCT020 OVC050 22/20 Q1003 BECMG TL0100 1600
ZGHA,2012-04-30 01:00,ZGHA 300100Z VRB01MPS 1800 BR SCT030 OVC050 23/21 Q1002 NOSIG
ZGHA,2012-04-30 02:00,ZGHA 300200Z VRB01MPS 6000 SCT026 OVC050 24/21 Q1002 NOSIG
ZGHA,2012-04-30 03:00,ZGHA 300300Z 32005MPS 7000 -RA SCT011 OVC050 21/19 Q1003 RESHRA NOSIG
ZGHA,2012-04-30 04:00,ZGHA 300400Z 08002MPS 040V120 8000 SCT012 SCT020 OVC050 21/20 Q1002 NOSIG
ZGHA,2012-04-30 05:00,ZGHA 300500Z 07002MPS 030V110 9999 SCT020 OVC050 22/20 Q1001 NOSIG
ZGHA,2012-04-30 06:00,ZGHA 300600Z 34005MPS 9999 -SHRA FEW007 BKN020 OVC050 22/20 Q1001 NOSIG
ZGHA,2012-04-30 07:00,ZGHA 300700Z 01002MPS 9999 OVC033 22/20 Q1000 NOSIG
ZGHA,2012-04-30 08:00,ZGHA 300800Z 04002MPS 340V090 9999 BKN008 OVC033 23/20 Q1000 NOSIG
ZGHA,2012-04-30 09:00,ZGHA 300900Z 02003MPS 350V050 9999 OVC030 23/20 Q0999 NOSIG
ZGHA,2012-04-30 10:00,ZGHA 301000Z 36006MPS 9999 SCT008 OVC030 22/20 Q0999 NOSIG
ZGHA,2012-04-30 11:00,ZGHA 301100Z 02003MPS 9999 -SHRA OVC030 22/20 Q0999 NOSIG
ZGHA,2012-04-30 12:00,ZGHA 301200Z 33006MPS 9999 -RA BKN026 OVC050 22/20 Q1001 NOSIG
ZGHA,2012-04-30 13:00,ZGHA 301300Z 36003MPS 9999 BKN026 OVC050 22/19 Q1002 NOSIG
ZGHA,2012-04-30 14:00,ZGHA 301400Z 08003MPS 030V120 6000 -TSRA BKN007 FEW050CB BKN050 21/19 Q1003 TEMPO TL1500 -SHRA
ZGHA,2012-04-30 15:00,ZGHA 301500Z 31003MPS 6000 -TSRA BKN007 FEW050CB BKN050 21/20 Q1004 BECMG TL1600 -SHRA BKN011 OVC040
ZGHA,2012-04-30 16:00,ZGHA 301600Z 34003MPS 6000 -SHRA BKN007 FEW050CB BKN050 21/19 Q1003 RETS BECMG TL1700 BKN011 OVC050
ZGHA,2012-04-30 17:00,ZGHA 301700Z 34003MPS 6000 -RA FEW004 BKN008 OVC050 21/19 Q1003 NOSIG
ZGHA,2012-04-30 18:00,ZGHA 301800Z 32002MPS 5000 BR FEW003 BKN008 OVC050 21/19 Q1003 NOSIG
ZGHA,2012-04-30 19:00,ZGHA 301900Z 32003MPS 300V360 4000 BR BKN008 OVC050 20/19 Q1003 NOSIG
ZGHA,2012-04-30 20:00,ZGHA 302000Z 34002MPS 3500 BR FEW004 BKN008 OVC050 20/19 Q1004 NOSIG
ZGHA,2012-04-30 21:00,ZGHA 302100Z 33003MPS 2700 BR FEW004 BKN008 OVC050 20/19 Q1005 NOSIG
ZGHA,2012-04-30 22:00,ZGHA 302200Z 36002MPS 1200 R36/1800D BR FEW004 BKN008 OVC050 20/19 Q1005 NOSIG
ZGHA,2012-04-30 23:00,ZGHA 302300Z 02002MPS 350V050 1400 R36/1700N BR FEW005 BKN009 OVC050 20/19 Q1006 BECMG 0000 1700 BR
ZGHA,2012-05-01 00:00,ZGHA 010000Z VRB01MPS 2700 BR FEW005 BKN009 OVC050 21/19 Q1007 BECMG TL0130 TSRA BKN006 FEW040CB OVC050
ZGHA,2012-05-01 01:00,ZGHA 010100Z 34004MPS 3200 BR FEW006 BKN009 OVC050 21/19 Q1008 TEMPO 2500 SHRA BR
ZGHA,2012-05-01 02:00,ZGHA 010200Z 31002MPS 280V350 2700 -RA BR FEW006 BKN009 OVC050 21/19 Q1008 NOSIG
ZGHA,2012-05-01 03:00,ZGHA 010300Z 36003MPS 3500 -RA BR BKN007 OVC050 21/19 Q1008 NOSIG
ZGHA,2012-05-01 04:00,ZGHA 010400Z 01003MPS 340V040 4500 -RA BR BKN007 OVC050 21/19 Q1007 NOSIG
ZGHA,2012-05-01 05:00,ZGHA 010500Z 31003MPS 280V340 4000 -RA BR BKN007 OVC050 21/19 Q1008 NOSIG
ZGHA,2012-05-01 06:00,ZGHA 010600Z 35004MPS 2800 -SHRA BR BKN007 FEW050CB BKN050 21/19 Q1007 RETS BECMG TL0700 3500
ZGHA,2012-05-01 07:00,ZGHA 010700Z 36003MPS 4000 -SHRA BR BKN009 FEW050CB BKN050 21/19 Q1007 NOSIG
ZGHA,2012-05-01 08:00,ZGHA 010800Z 35003MPS 4500 BR BKN009 OVC050 21/19 Q1006 BECMG TL0900 BKN011 OVC050
ZGHA,2012-05-01 09:00,ZGHA 010900Z 36004MPS 4500 -RA BR BKN009 OVC040 21/19 Q1006 BECMG SCT009 OVC040
ZGHA,2012-05-01 10:00,ZGHA 011000Z 35005MPS 4500 BR SCT007 SCT020 OVC040 21/19 Q1006 NOSIG
ZGHA,2012-05-01 11:00,ZGHA 011100Z 35005MPS 4000 -RA BR SCT007 BKN020 OVC040 20/18 Q1007 NOSIG
ZGHA,2012-05-01 12:00,ZGHA 011200Z 34004MPS 4500 BR FEW012 BKN020 OVC040 20/18 Q1008 NOSIG
ZGHA,2012-05-01 13:00,ZGHA 011300Z 34004MPS 4500 BR BKN030 20/18 Q1008 NOSIG
ZGHA,2012-05-01 14:00,ZGHA 011400Z 34003MPS 4500 BR FEW040 20/18 Q1009 NOSIG
ZGHA,2012-05-01 15:00,ZGHA 011500Z 34004MPS 4200 BR OVC050 20/18 Q1009 NOSIG
ZGHA,2012-05-01 16:00,ZGHA 011600Z 32003MPS 4000 BR SCT012 BKN020 OVC050 20/18 Q1009 NOSIG
ZGHA,2012-05-01 17:00,ZGHA 011700Z 34005MPS 4200 BR FEW012 BKN020 OVC050 20/18 Q1009 NOSIG
ZGHA,2012-05-01 18:00,ZGHA 011800Z 35004MPS 4200 BR BKN033 OVC050 20/18 Q1009 NOSIG
ZGHA,2012-05-01 19:00,ZGHA 011900Z 35003MPS 4000 BR SCT033 OVC050 19/18 Q1009 NOSIG
ZGHA,2012-05-01 20:00,ZGHA 012000Z 35002MPS 3500 BR BKN007 OVC050 19/18 Q1009 NOSIG
ZGHA,2012-05-01 21:00,ZGHA 012100Z 35002MPS 3500 BR BKN007 OVC050 19/18 Q1009 NOSIG
ZGHA,2012-05-01 22:00,ZGHA 012200Z 35003MPS 3500 BR FEW007 OVC050 19/18 Q1009 NOSIG
ZGHA,2012-05-01 23:00,ZGHA 012300Z 36002MPS 330V030 4000 BR OVC050 19/18 Q1010 NOSIG
ZGHA,2012-05-02 00:00,ZGHA 020000Z 36004MPS 5000 BR BKN050 20/17 Q1010 NOSIG
ZGHA,2012-05-02 01:00,ZGHA 020100Z 36005MPS 6000 SCT015 22/17 Q1011 NOSIG
ZGHA,2012-05-02 02:00,ZGHA 020200Z 36004MPS 330V030 8000 SCT020 22/17 Q1011 NOSIG
ZGHA,2012-05-02 03:00,ZGHA 020300Z 36006MPS 9999 SCT020 23/17 Q1011 NOSIG
ZGHA,2012-05-02 04:00,ZGHA 020400Z 34003MPS 310V020 9999 SCT023 24/17 Q1010 NOSIG
ZGHA,2012-05-02 05:00,ZGHA 020500Z VRB01MPS 9999 BKN030 23/17 Q1010 NOSIG
ZGHA,2012-05-02 06:00,ZGHA 020600Z 29003MPS 260V330 9999 SCT030 23/18 Q1009 NOSIG
ZGHA,2012-05-02 07:00,ZGHA 020700Z 30005MPS 9999 -RA BKN023 23/17 Q1008 NOSIG
ZGHA,2012-05-02 08:00,ZGHA 020800Z 34003MPS 310V020 CAVOK 24/17 Q1008 NOSIG
ZGHA,2012-05-02 09:00,ZGHA 020900Z 33003MPS CAVOK 24/17 Q1007 NOSIG
ZGHA,2012-05-02 10:00,ZGHA 021000Z VRB01MPS CAVOK 23/17 Q1007 NOSIG
ZGHA,2012-05-02 11:00,ZGHA 021100Z 01002MPS CAVOK 22/17 Q1007 NOSIG
ZGHA,2012-05-02 12:00,ZGHA 021200Z 36002MPS CAVOK 22/17 Q1007 NOSIG
ZGHA,2012-05-02 13:00,ZGHA 021300Z 02001MPS 7000 NSC 21/17 Q1008 NOSIG
ZGHA,2012-05-02 14:00,ZGHA 021400Z 02001MPS 5000 BR NSC 21/18 Q1008 NOSIG
ZGHA,2012-05-02 15:00,ZGHA 021500Z VRB01MPS 4000 BR SCT033 21/18 Q1008 NOSIG
ZGHA,2012-05-02 16:00,ZGHA 021600Z 34002MPS 4500 BR SCT030 21/18 Q1008 NOSIG
ZGHA,2012-05-02 17:00,ZGHA 021700Z 36002MPS 4000 BR SCT023 21/18 Q1008 NOSIG
ZGHA,2012-05-02 18:00,ZGHA 021800Z 36002MPS 330V030 4000 BR SCT023 21/18 Q1007 NOSIG
ZGHA,2012-05-02 19:00,ZGHA 021900Z 36002MPS 3500 BR SCT020 20/18 Q1007 NOSIG
ZGHA,2012-05-02 20:00,ZGHA 022000Z 01001MPS 3500 BR SCT030 20/18 Q1007 NOSIG
ZGHA,2012-05-02 21:00,ZGHA 022100Z VRB01MPS 4000 BR SCT030 20/18 Q1007 NOSIG
ZGHA,2012-05-02 22:00,ZGHA 022200Z 01002MPS 3500 BR SCT030 20/18 Q1007 NOSIG
ZGHA,2012-05-02 23:00,ZGHA 022300Z 35002MPS 4000 BR SCT030 20/18 Q1007 NOSIG
ZGHA,2012-05-03 00:00,ZGHA 030000Z VRB01MPS 4000 BR SCT033 21/18 Q1007 NOSIG
ZGHA,2012-05-03 01:00,ZGHA 030100Z VRB01MPS 5000 BR OVC033 22/18 Q1007 BECMG TL0200 -TSRA BKN008 FEW033CB BKN050
ZGHA,2012-05-03 02:00,ZGHA 030200Z 32004MPS 3000 -SHRA BR FEW033CB BKN033 20/19 Q1007 BECMG TL0230 2500 -TSRA BR
ZGHA,2012-05-03 03:00,ZGHA 030300Z 32003MPS 280V350 1600 R36/1100V1300N -TSRA BR SCT004 SCT033CB BKN033 20/18 Q1008 RESHRA BECMG TL0330 3000 -SHRA BR
ZGHA,2012-05-03 04:00,ZGHA 030400Z VRB01MPS 2400 -RA BR BKN004 OVC033 20/19 Q1008 RETS BECMG TL0500 3000 BKN011 OVC040
ZGHA,2012-05-03 05:00,ZGHA 030500Z 02002MPS 350V060 3000 -RA BR FEW004 BKN007 OVC040 20/19 Q1007 BECMG TL0600 BKN011 OVC040
ZGHA,2012-05-03 06:00,ZGHA 030600Z 36003MPS 5000 BR BKN008 OVC040 21/19 Q1006 BECMG TL0700 BKN011 OVC040
ZGHA,2012-05-03 07:00,ZGHA 030700Z 36004MPS 5000 BR BKN011 OVC050 21/19 Q1006 NOSIG
ZGHA,2012-05-03 08:00,ZGHA 030800Z 01002MPS 340V040 5000 -RA BR BKN009 OVC050 21/19 Q1005 BECMG TL0900 BKN011 OVC050
ZGHA,2012-05-03 09:00,ZGHA 030900Z 36003MPS 5000 BR BKN009 OVC050 21/19 Q1005 BECMG TL1000 BKN011 OVC040
ZGHA,2012-05-03 10:00,ZGHA 031000Z VRB01MPS 6000 BKN009 OVC050 21/19 Q1005 NOSIG
ZGHA,2012-05-03 11:00,ZGHA 031100Z 02002MPS 7000 SCT009 SCT020 OVC050 21/19 Q1005 NOSIG
ZGHA,2012-05-03 12:00,ZGHA 031200Z 35002MPS 6000 SCT007 OVC033 21/19 Q1006 NOSIG
ZGHA,2012-05-03 13:00,ZGHA 031300Z 36003MPS 6000 OVC030 21/19 Q1007 NOSIG
ZGHA,2012-05-03 14:00,ZGHA 031400Z 36002MPS 5000 BR SCT015 OVC030 20/19 Q1008 NOSIG
ZGHA,2012-05-03 15:00,ZGHA 031500Z 02002MPS 5000 -RA BR SCT013 OVC030 20/19 Q1008 NOSIG
ZGHA,2012-05-03 16:00,ZGHA 031600Z 36002MPS 2000 -RA BR SCT004 OVC030 20/19 Q1008 NOSIG
ZGHA,2012-05-03 17:00,ZGHA 031700Z VRB01MPS 3000 BR SCT004 OVC030 20/19 Q1008 NOSIG
ZGHA,2012-05-03 18:00,ZGHA 031800Z 36001MPS 3000 BR SCT004 OVC030 20/19 Q1008 NOSIG
ZGHA,2012-05-03 19:00,ZGHA 031900Z AUTO 33002MPS 1900 BR BKN007/// BKN031/// 20/19 Q1007
ZGHA,2012-05-03 20:00,ZGHA 032000Z 34002MPS 4000 BR SCT004 OVC030 20/19 Q1008 NOSIG
ZGHA,2012-05-03 21:00,ZGHA 032100Z 32002MPS 1300 R36/P2000 -RA BR SCT004 OVC030 20/19 Q1008 NOSIG
ZGHA,2012-05-03 22:00,ZGHA 032200Z 34003MPS 1600 BR SCT007 OVC030 20/19 Q1008 BECMG 3000 BR
ZGHA,2012-05-03 23:00,ZGHA 032300Z 02002MPS 350V050 1200 R36/1500N BR BKN005 OVC030 20/19 Q1009 BECMG TL0000 2000 BR
ZGHA,2012-05-04 00:00,ZGHA 040000Z 01003MPS 2000 BR SCT006 BKN030 21/19 Q1009 BECMG TL0100 3500
ZGHA,2012-05-04 01:00,ZGHA 040100Z 36003MPS 340V040 3000 BR SCT009 BKN040 21/19 Q1010 NOSIG
ZGHA,2012-05-04 02:00,ZGHA 040200Z 32003MPS 290V360 4000 BR SCT012 BKN050 22/19 Q1011 NOSIG
ZGHA,2012-05-04 03:00,ZGHA 040300Z 33002MPS 270V360 6000 SCT020 24/19 Q1011 NOSIG
ZGHA,2012-05-04 04:00,ZGHA 040400Z 31003MPS 260V040 8000 SCT020 25/19 Q1011 NOSIG
ZGHA,2012-05-04 05:00,ZGHA 040500Z 34003MPS 300V040 8000 SCT020 26/19 Q1010 NOSIG
ZGHA,2012-05-04 06:00,ZGHA 040600Z 31002MPS 230V030 8000 NSC 25/19 Q1009 NOSIG
ZGHA,2012-05-04 07:00,ZGHA 040700Z 32003MPS 240V360 8000 NSC 26/20 Q1009 NOSIG
ZGHA,2012-05-04 08:00,ZGHA 040800Z 27003MPS 240V310 7000 NSC 25/19 Q1008 NOSIG
ZGHA,2012-05-04 09:00,ZGHA 040900Z 28003MPS 250V320 6000 NSC 25/19 Q1008 NOSIG
ZGHA,2012-05-04 10:00,ZGHA 041000Z 28003MPS 250V320 6000 NSC 25/19 Q1008 NOSIG
ZGHA,2012-05-04 11:00,ZGHA 041100Z 28003MPS 250V310 6000 NSC 24/20 Q1008 NOSIG
ZGHA,2012-05-04 12:00,ZGHA 041200Z 30002MPS 270V340 4500 BR NSC 24/20 Q1009 NOSIG
ZGHA,2012-05-04 13:00,ZGHA 041300Z VRB01MPS 4000 BR NSC 23/19 Q1010 NOSIG
ZGHA,2012-05-04 14:00,ZGHA 041400Z VRB01MPS 3000 BR NSC 23/20 Q1011 BECMG TL1500 2300
ZGHA,2012-05-04 15:00,ZGHA 041500Z VRB01MPS 3000 BR NSC 23/20 Q1011 BECMG TL1600 2500
ZGHA,2012-05-04 16:00,ZGHA 041600Z 16002MPS 2300 BR NSC 22/20 Q1011 NOSIG
ZGHA,2012-05-04 17:00,ZGHA 041700Z 16002MPS 2200 BR NSC 22/20 Q1011 NOSIG
ZGHA,2012-05-04 18:00,ZGHA 041800Z VRB01MPS 1600 BR NSC 21/20 Q1010 NOSIG
ZGHA,2012-05-04 19:00,ZGHA 041900Z 20001MPS 1200 R36/1900U BR SCT040 21/20 Q1010 NOSIG
ZGHA,2012-05-04 20:00,ZGHA 042000Z 09001MPS 1000 R18/1600D BR SCT040 21/20 Q1010 NOSIG
ZGHA,2012-05-04 21:00,ZGHA 042100Z 05002MPS 1000 R18/1500N BR SCT040 21/20 Q1010 NOSIG
ZGHA,2012-05-04 22:00,ZGHA 042200Z 33001MPS 1000 R18/1300N BR SCT040 21/20 Q1010 BECMG TL2350 1500
ZGHA,2012-05-04 23:00,ZGHA 042300Z 16001MPS 1000 R18/1100V1200N BR SCT040 21/20 Q1011 TEMPO 0700 FG
ZGHA,2012-05-05 00:00,ZGHA 050000Z VRB01MPS 1600 BR SCT040 22/20 Q1012 BECMG TL0150 3000
ZGHA,2012-05-05 01:00,ZGHA 050100Z VRB01MPS 2500 BR SCT040 23/20 Q1012 BECMG TL0200 4000 BR
ZGHA,2012-05-05 02:00,ZGHA 050200Z VRB01MPS 3000 BR SCT040 25/20 Q1012 NOSIG
ZGHA,2012-05-05 03:00,ZGHA 050300Z 14002MPS 060V200 5000 HZ FEW020 27/20 Q1011 NOSIG
ZGHA,2012-05-05 04:00,ZGHA 050400Z VRB01MPS 6000 SCT020 28/20 Q1011 NOSIG
ZGHA,2012-05-05 05:00,ZGHA 050500Z 28001MPS 8000 BKN030 28/20 Q1011 NOSIG
ZGHA,2012-05-05 06:00,ZGHA 050600Z 27002MPS 8000 FEW030 29/20 Q1010 NOSIG
ZGHA,2012-05-05 07:00,ZGHA 050700Z 28002MPS 240V330 8000 SKC 30/19 Q1009 NOSIG
ZGHA,2012-05-05 08:00,ZGHA 050800Z 30003MPS 250V350 7000 SCT040 29/19 Q1008 NOSIG
ZGHA,2012-05-05 09:00,ZGHA 050900Z 35004MPS 290V020 8000 SKC 29/19 Q1008 NOSIG
ZGHA,2012-05-05 10:00,ZGHA 051000Z 34003MPS 300V010 7000 SKC 28/20 Q1008 NOSIG
ZGHA,2012-05-05 11:00,ZGHA 051100Z 02003MPS 6000 SKC 27/20 Q1008 NOSIG
ZGHA,2012-05-05 12:00,ZGHA 051200Z 05001MPS 4500 BR SKC 25/21 Q1009 NOSIG
ZGHA,2012-05-05 13:00,ZGHA 051300Z 05001MPS 2500 BR SKC 24/22 Q1009 NOSIG
ZGHA,2012-05-05 14:00,ZGHA 051400Z 00000MPS 1800 BR SKC 23/22 Q1010 BECMG TL1500 1400
ZGHA,2012-05-05 15:00,ZGHA 051500Z 16001MPS 1600 BR SKC 23/21 Q1010 BECMG 1400
ZGHA,2012-05-05 16:00,ZGHA 051600Z 08001MPS 1000 R36/1400N BR SKC 22/21 Q1010 BECMG 0700 FG
ZGHA,2012-05-05 17:00,ZGHA 051700Z 00000MPS 0700 R36/1400N FG SKC 22/21 Q1010 NOSIG
ZGHA,2012-05-05 18:00,ZGHA 051800Z 06001MPS 0700 R36/1300D FG SKC 22/21 Q1009 NOSIG
ZGHA,2012-05-05 19:00,ZGHA 051900Z 00000MPS 1200 R36/P2000 BR NSC 21/20 Q1009 NOSIG
ZGHA,2012-05-05 20:00,ZGHA 052000Z VRB01MPS 0900 R36/1300D FG NSC 21/20 Q1010 NOSIG
ZGHA,2012-05-05 21:00,ZGHA 052100Z 00000MPS 1200 R36/P2000 BR NSC 21/20 Q1010 NOSIG
ZGHA,2012-05-05 22:00,ZGHA 052200Z 35001MPS 1700 R36/1000V1400D BR NSC 21/20 Q1010 NOSIG
ZGHA,2012-05-05 23:00,ZGHA 052300Z VRB01MPS 2000 R36/1400N BR NSC 22/20 Q1011 BECMG TL2400 3000
ZGHA,2012-05-06 00:00,ZGHA 060000Z VRB01MPS 1700 BR SKC 22/21 Q1011 BECMG 0100 3000
ZGHA,2012-05-06 01:00,ZGHA 060100Z VRB01MPS 3500 BR SKC 25/21 Q1011 NOSIG
ZGHA,2012-05-06 02:00,ZGHA 060200Z VRB01MPS 5000 HZ SKC 27/21 Q1011 NOSIG
ZGHA,2012-05-06 03:00,ZGHA 060300Z VRB01MPS 8000 SKC 29/19 Q1011 NOSIG
ZGHA,2012-05-06 04:00,ZGHA 060400Z 12002MPS 060V150 CAVOK 30/19 Q1010 NOSIG
ZGHA,2012-05-06 05:00,ZGHA 060500Z 12002MPS 070V190 9999 FEW040 31/19 Q1009 NOSIG
ZGHA,2012-05-06 06:00,ZGHA 060600Z 14002MPS 070V240 9999 FEW040 31/19 Q1008 NOSIG
ZGHA,2012-05-06 07:00,ZGHA 060700Z 18003MPS 140V210 9999 FEW040 31/20 Q1008 NOSIG
ZGHA,2012-05-06 08:00,ZGHA 060800Z 21003MPS 160V260 9999 FEW040 32/19 Q1007 NOSIG
ZGHA,2012-05-06 09:00,ZGHA 060900Z 24003MPS 200V270 9999 FEW040 31/20 Q1006 NOSIG
ZGHA,2012-05-06 10:00,ZGHA 061000Z 24002MPS 190V300 8000 SKC 31/19 Q1006 NOSIG
ZGHA,2012-05-06 11:00,ZGHA 061100Z 21002MPS 170V240 6000 SKC 29/22 Q1007 NOSIG
ZGHA,2012-05-06 12:00,ZGHA 061200Z VRB01MPS 5000 BR SKC 27/23 Q1007 NOSIG
ZGHA,2012-05-06 13:00,ZGHA 061300Z 13002MPS 4500 BR SKC 26/22 Q1007 NOSIG
ZGHA,2012-05-06 14:00,ZGHA 061400Z 13003MPS 4000 BR SKC 26/22 Q1007 NOSIG
ZGHA,2012-05-06 15:00,ZGHA 061500Z 14001MPS 4000 BR SKC 25/21 Q1007 NOSIG
ZGHA,2012-05-06 16:00,ZGHA 061600Z 18002MPS 5000 BR SKC 24/20 Q1007 NOSIG
ZGHA,2012-05-06 17:00,ZGHA 061700Z VRB01MPS 6000 SKC 24/20 Q1007 NOSIG
ZGHA,2012-05-06 18:00,ZGHA 061800Z 21001MPS 5000 BR SKC 24/20 Q1006 NOSIG
ZGHA,2012-05-06 19:00,ZGHA 061900Z 20002MPS 5000 BR SKC 23/21 Q1006 NOSIG
ZGHA,2012-05-06 20:00,ZGHA 062000Z VRB01MPS 4500 BR SKC 23/20 Q1006 NOSIG
ZGHA,2012-05-06 21:00,ZGHA 062100Z 16001MPS 4000 BR SCT050 23/20 Q1006 NOSIG
ZGHA,2012-05-06 22:00,ZGHA 062200Z 18002MPS 5000 BR SCT050 23/19 Q1006 NOSIG
ZGHA,2012-05-06 23:00,ZGHA 062300Z 18002MPS 5000 BR SCT050 23/19 Q1007 NOSIG
ZGHA,2012-05-07 00:00,ZGHA 070000Z 16003MPS 130V190 7000 NSC 26/20 Q1007 NOSIG
ZGHA,2012-05-07 01:00,ZGHA 070100Z 17005MPS 140V200 8000 NSC 28/21 Q1007 NOSIG
ZGHA,2012-05-07 02:00,ZGHA 070200Z 19007MPS CAVOK 29/23 Q1007 NOSIG
ZGHA,2012-05-07 03:00,ZGHA 070300Z 19007MPS CAVOK 30/23 Q1006 NOSIG
ZGHA,2012-05-07 04:00,ZGHA 070400Z 20008MPS 9999 FEW033 32/23 Q1005 NOSIG
ZGHA,2012-05-07 05:00,ZGHA 070500Z 19007MPS 9999 SCT030 32/22 Q1004 NOSIG
ZGHA,2012-05-07 06:00,ZGHA 070600Z 20008MPS 9999 SCT030 33/22 Q1004 NOSIG
ZGHA,2012-05-07 07:00,ZGHA 070700Z 19007MPS 9999 SCT033 33/22 Q1003 NOSIG
ZGHA,2012-05-07 08:00,ZGHA 070800Z 20007MPS 9999 SCT033 33/21 Q1002 NOSIG
ZGHA,2012-05-07 09:00,ZGHA 070900Z 20008MPS 9999 SCT040 33/22 Q1002 NOSIG
ZGHA,2012-05-07 10:00,ZGHA 071000Z 19006MPS 9999 FEW050 32/22 Q1002 NOSIG
ZGHA,2012-05-07 11:00,ZGHA 071100Z 18004MPS CAVOK 30/21 Q1002 NOSIG
ZGHA,2012-05-07 12:00,ZGHA 071200Z 18003MPS CAVOK 29/22 Q1002 NOSIG
ZGHA,2012-05-07 13:00,ZGHA 071300Z 18005MPS CAVOK 29/21 Q1002 NOSIG
ZGHA,2012-05-07 14:00,ZGHA 071400Z 19005MPS CAVOK 29/21 Q1003 NOSIG
ZGHA,2012-05-07 15:00,ZGHA 071500Z 18004MPS CAVOK 28/21 Q1003 NOSIG
ZGHA,2012-05-07 16:00,ZGHA 071600Z 18004MPS CAVOK 28/21 Q1003 NOSIG
ZGHA,2012-05-07 17:00,ZGHA 071700Z 18003MPS CAVOK 27/21 Q1003 NOSIG
ZGHA,2012-05-07 18:00,ZGHA 071800Z 19004MPS CAVOK 27/21 Q1003 NOSIG
ZGHA,2012-05-07 19:00,ZGHA 071900Z 19004MPS CAVOK 27/21 Q1002 NOSIG
ZGHA,2012-05-07 20:00,ZGHA 072000Z 18003MPS CAVOK 27/21 Q1003 NOSIG
ZGHA,2012-05-07 21:00,ZGHA 072100Z 18004MPS CAVOK 26/21 Q1003 NOSIG
ZGHA,2012-05-07 22:00,ZGHA 072200Z 19002MPS CAVOK 26/21 Q1004 NOSIG
ZGHA,2012-05-07 23:00,ZGHA 072300Z 18002MPS CAVOK 26/22 Q1004 NOSIG
ZGHA,2012-05-08 00:00,ZGHA 080000Z 18003MPS CAVOK 27/22 Q1005 NOSIG
ZGHA,2012-05-08 01:00,ZGHA 080100Z 19004MPS 160V220 CAVOK 28/22 Q1005 NOSIG
ZGHA,2012-05-08 02:00,ZGHA 080200Z 21005MPS 180V240 CAVOK 29/23 Q1005 NOSIG
ZGHA,2012-05-08 03:00,ZGHA 080300Z 19004MPS 160V230 CAVOK 29/23 Q1005 NOSIG
ZGHA,2012-05-08 04:00,ZGHA 080400Z 24006MPS 200V270 9999 SCT033 32/23 Q1005 NOSIG
ZGHA,2012-05-08 05:00,ZGHA 080500Z 23007MPS 200V260 9999 SCT033 32/22 Q1005 NOSIG
ZGHA,2012-05-08 06:00,ZGHA 080600Z 22006MPS 200V260 9999 FEW040TCU SCT040 32/22 Q1004 TEMPO 27006MPS
ZGHA,2012-05-08 07:00,ZGHA 080700Z 33007MPS 260V360 9999 -TSRA FEW040CB BKN040 28/23 Q1004 WS RWY36 BECMG TL0740 23005MPS -SHRA
ZGHA,2012-05-08 08:00,ZGHA 080800Z 36004MPS 7000 SCT040 27/25 Q1004 RETSRA NOSIG
ZGHA,2012-05-08 09:00,ZGHA 080900Z 04002MPS 340V090 2500 BR FEW008 SCT040 27/25 Q1004 NOSIG
ZGHA,2012-05-08 10:00,ZGHA 081000Z 04002MPS 330V090 4000 BR FEW008 SCT040 27/24 Q1004 BECMG TL1030 2200 -TSRA BR
ZGHA,2012-05-08 11:00,ZGHA 081100Z 04002MPS 2000 -TSRA BR FEW040CB BKN040 27/24 Q1004 NOSIG
ZGHA,2012-05-08 12:00,ZGHA 081200Z 35004MPS 4500 TSRA BR SCT010 SCT050CB BKN050 25/23 Q1006 BECMG TL1300 -SHRA
ZGHA,2012-05-08 13:00,ZGHA 081300Z 36003MPS 320V030 2500 TSRA BR SCT010 SCT050CB BKN050 25/23 Q1007 BECMG TL1400 -SHRA
ZGHA,2012-05-08 14:00,ZGHA 081400Z 05004MPS 020V080 2500 -SHRA BR SCT012 FEW050CB BKN050 24/23 Q1006 NOSIG
ZGHA,2012-05-08 15:00,ZGHA 081500Z 03003MPS 5000 BR OVC050 24/22 Q1007 BECMG TL1600 2200
ZGHA,2012-05-08 16:00,ZGHA 081600Z VRB01MPS 5000 -RA BR SCT020 OVC050 24/22 Q1007 NOSIG
ZGHA,2012-05-08 17:00,ZGHA 081700Z VRB01MPS 5000 -RA BR SCT020 OVC050 23/22 Q1007 NOSIG
ZGHA,2012-05-08 18:00,ZGHA 081800Z 00000MPS 5000 -RA BR SCT020 23/22 Q1006 NOSIG
ZGHA,2012-05-08 19:00,ZGHA 081900Z 31002MPS 4000 BR SCT030 24/22 Q1006 NOSIG
ZGHA,2012-05-08 20:00,ZGHA 082000Z VRB01MPS 5000 -RA BR SCT011 OVC050 23/22 Q1006 NOSIG
ZGHA,2012-05-08 21:00,ZGHA 082100Z VRB01MPS 5000 BR SCT011 OVC050 23/22 Q1007 NOSIG
ZGHA,2012-05-08 22:00,ZGHA 082200Z VRB01MPS 4500 BR SCT012 OVC040 23/22 Q1007 NOSIG
ZGHA,2012-05-08 23:00,ZGHA 082300Z VRB01MPS 5000 BR SCT012 FEW040CB BKN040 24/22 Q1007 BECMG TL2320 -TSRA BR
ZGHA,2012-05-09 00:00,ZGHA 090000Z 07002MPS 020V120 2500 -TSRA BR FEW005 BKN008 FEW040CB BKN040 23/22 Q1007 BECMG TL0020 3000 -SHRA BR
ZGHA,2012-05-09 01:00,ZGHA 090100Z 07003MPS 040V100 7000 -RA SCT007 OVC033 23/22 Q1008 RETS NOSIG
ZGHA,2012-05-09 02:00,ZGHA 090200Z 07003MPS 030V100 9999 -RA SCT004 OVC026 23/21 Q1008 RERA BECMG TL0330 -TSRA BR BKN007 SCT030CB OVC040
ZGHA,2012-05-09 03:00,ZGHA 090300Z 05002MPS 360V090 6000 SHRA SCT004 OVC033 22/21 Q1008 BECMG TL0400 2500 TSRA BR BKN005 SCT040CB BKN040
ZGHA,2012-05-09 04:00,ZGHA 090400Z 06004MPS 030V090 3000 TSRA BR BKN003 SCT033CB BKN033 22/21 Q1007 BECMG TL0600 -TSRA
ZGHA,2012-05-09 05:00,ZGHA 090500Z 36003MPS 4000 TSRA BR BKN004 FEW033CB BKN033 22/21 Q1008 BECMG TL0600 -SHRA
ZGHA,2012-05-09 06:00,ZGHA 090600Z 34002MPS 8000 -RA BKN004 OVC040 23/22 Q1008 RETS BECMG TL0700 BKN007 OVC040
ZGHA,2012-05-09 07:00,ZGHA 090700Z VRB01MPS 9999 -RA FEW004 BKN009 OVC040 23/22 Q1007 BECMG TL0800 BKN011 OVC040
ZGHA,2012-05-09 08:00,ZGHA 090800Z 27002MPS 220V330 9999 -RA FEW004 BKN009 OVC040 24/22 Q1007 NOSIG
ZGHA,2012-05-09 09:00,ZGHA 090900Z 23002MPS 190V300 9999 -RA FEW004 BKN009 OVC040 24/22 Q1008 NOSIG
ZGHA,2012-05-09 10:00,ZGHA 091000Z 16002MPS 9999 -RA SCT012 OVC050 24/22 Q1008 NOSIG
ZGHA,2012-05-09 11:00,ZGHA 091100Z 18001MPS 9999 -RA SCT012 OVC050 23/22 Q1008 NOSIG
ZGHA,2012-05-09 12:00,ZGHA 091200Z 24002MPS 8000 -RA SCT007 OVC033 23/22 Q1009 NOSIG
ZGHA,2012-05-09 13:00,ZGHA 091300Z 23002MPS 150V260 8000 SCT007 OVC033 23/22 Q1009 NOSIG
ZGHA,2012-05-09 14:00,ZGHA 091400Z 28002MPS 260V330 4000 BR SCT005 BKN020 OVC033 23/22 Q1010 NOSIG
ZGHA,2012-05-09 15:00,ZGHA 091500Z 29002MPS 4000 BR SCT005 OVC026 23/22 Q1010 NOSIG
ZGHA,2012-05-09 16:00,ZGHA 091600Z 23002MPS 190V260 3000 -RA BR SCT005 OVC026 23/22 Q1010 BECMG TL1700 2000
ZGHA,2012-05-09 17:00,ZGHA 091700Z 23002MPS 180V270 4000 -RA BR SCT005 OVC030 22/21 Q1010 NOSIG
ZGHA,2012-05-09 18:00,ZGHA 091800Z 31002MPS 3000 -RA BR SCT005 OVC030 22/21 Q1010 NOSIG
ZGHA,2012-05-09 19:00,ZGHA 091900Z 31003MPS 3000 -RA BR SCT005 OVC030 22/21 Q1009 NOSIG
ZGHA,2012-05-09 20:00,ZGHA 092000Z 24001MPS 2000 BR SCT005 OVC030 22/21 Q1009 NOSIG
ZGHA,2012-05-09 21:00,ZGHA 092100Z 28003MPS 4000 BR SCT005 OVC030 21/20 Q1010 NOSIG
ZGHA,2012-05-09 22:00,ZGHA 092200Z 29002MPS 3000 BR SCT005 OVC030 21/20 Q1010 NOSIG
ZGHA,2012-05-09 23:00,ZGHA 092300Z 31003MPS 3000 BR BKN005 OVC030 21/20 Q1011 BECMG TL0050 SCT011 OVC030
ZGHA,2012-05-10 00:00,ZGHA 100000Z 33003MPS 1400 R36/1700U -RA BR BKN004 OVC030 21/20 Q1011 BECMG TL0100 1700 BKN007 OVC040
ZGHA,2012-05-10 01:00,ZGHA 100100Z 31002MPS 4000 -RA BR BKN009 OVC040 22/20 Q1011 BECMG TL0200 BKN011 OVC040
ZGHA,2012-05-10 02:00,ZGHA 100200Z 33002MPS 7000 -RA BKN009 OVC050 22/20 Q1012 BECMG TL0300 BKN011 OVC050
ZGHA,2012-05-10 03:00,ZGHA 100300Z VRB01MPS 6000 BKN009 OVC050 22/20 Q1012 BECMG TL0330 BKN011 OVC050
ZGHA,2012-05-10 04:00,ZGHA 100400Z 30003MPS 260V330 0900 R36/1200N -RA FG FEW003 BKN006 OVC040 21/20 Q1012 BECMG TL0500 1600 BR
ZGHA,2012-05-10 05:00,ZGHA 100500Z 31002MPS 270V350 2700 BR BKN008 OVC040 23/20 Q1011 BECMG TL0600 3500 BKN011 OVC040
ZGHA,2012-05-10 06:00,ZGHA 100600Z VRB01MPS 4000 BR BKN009 OVC040 24/21 Q1010 BECMG TL0700 BKN011 OVC040
ZGHA,2012-05-10 07:00,ZGHA 100700Z VRB01MPS 5000 BR BKN009 OVC040 23/20 Q1010 BECMG TL0800 BKN011 OVC040
ZGHA,2012-05-10 08:00,ZGHA 100800Z 32003MPS 4000 BR BKN009 OVC040 23/20 Q1009 BECMG TL0900 BKN011 OVC040
ZGHA,2012-05-10 09:00,ZGHA 100900Z 30002MPS 230V340 4000 BR BKN009 OVC040 23/20 Q1009 BECMG TL1100 BKN011 OVC050
ZGHA,2012-05-10 10:00,ZGHA 101000Z 30002MPS 260V320 5000 BR BKN020 OVC050 23/20 Q1009 NOSIG
ZGHA,2012-05-10 11:00,ZGHA 101100Z 00000MPS 5000 BR BKN020 OVC050 23/20 Q1009 NOSIG
ZGHA,2012-05-10 12:00,ZGHA 101200Z 00000MPS 3500 BR BKN020 OVC050 23/21 Q1010 BECMG TL1400 2500
ZGHA,2012-05-10 13:00,ZGHA 101300Z VRB01MPS 3000 BR BKN020 OVC050 23/21 Q1010 BECMG TL1400 2500
ZGHA,2012-05-10 14:00,ZGHA 101400Z VRB01MPS 2300 BR FEW040 22/21 Q1010 BECMG TL1600 1400
ZGHA,2012-05-10 15:00,ZGHA 101500Z 07001MPS 1400 R36/P2000 BR SCT020 22/21 Q1010 NOSIG
ZGHA,2012-05-10 16:00,ZGHA 101600Z VRB01MPS 1200 R36/1900U BR SCT020 21/20 Q1010 NOSIG
ZGHA,2012-05-10 17:00,ZGHA 101700Z 00000MPS 1200 R36/1900N BR SCT020 21/20 Q1009 NOSIG
ZGHA,2012-05-10 18:00,ZGHA 101800Z 00000MPS 1400 R36/P2000 BR FEW020 21/20 Q1009 NOSIG
ZGHA,2012-05-10 19:00,ZGHA 101900Z 22001MPS 1200 R36/1800N BR FEW040 21/20 Q1009 NOSIG
ZGHA,2012-05-10 20:00,ZGHA 102000Z 19001MPS 1000 R36/1100U BR FEW040 21/20 Q1008 NOSIG
ZGHA,2012-05-10 21:00,ZGHA 102100Z VRB01MPS 1000 R36/P2000 BR FEW040 21/20 Q1008 NOSIG
ZGHA,2012-05-10 22:00,ZGHA 102200Z 00000MPS 1400 R36/1600N BR FEW040 21/20 Q1008 BECMG TL2300 1700
ZGHA,2012-05-10 23:00,ZGHA 102300Z 00000MPS 2000 BR NSC 22/21 Q1008 BECMG TL2400 3500
ZGHA,2012-05-11 00:00,ZGHA 110000Z VRB01MPS 2700 BR NSC 23/21 Q1009 BECMG TL0100 3500
ZGHA,2012-05-11 01:00,ZGHA 110100Z VRB01MPS 4000 BR SCT050 24/21 Q1009 NOSIG
ZGHA,2012-05-11 02:00,ZGHA 110200Z VRB01MPS 6000 FEW050 26/22 Q1008 NOSIG
ZGHA,2012-05-11 03:00,ZGHA 110300Z VRB01MPS 7000 FEW020 28/21 Q1008 NOSIG
ZGHA,2012-05-11 04:00,ZGHA 110400Z 14003MPS 110V200 8000 SCT030 29/21 Q1007 NOSIG
ZGHA,2012-05-11 05:00,ZGHA 110500Z 14003MPS 100V200 9999 BKN033 30/21 Q1007 NOSIG
ZGHA,2012-05-11 06:00,ZGHA 110600Z 20004MPS 160V240 9999 SCT033 29/21 Q1006 NOSIG
ZGHA,2012-05-11 07:00,ZGHA 110700Z VRB02MPS 9999 FEW033 BKN050 30/22 Q1005 NOSIG
ZGHA,2012-05-11 08:00,ZGHA 110800Z 14002MPS 100V180 9999 FEW033 BKN050 30/22 Q1004 NOSIG
ZGHA,2012-05-11 09:00,ZGHA 110900Z 13003MPS 9999 BKN050 29/21 Q1004 NOSIG
ZGHA,2012-05-11 10:00,ZGHA 111000Z 12002MPS 9999 OVC050 29/21 Q1004 NOSIG
ZGHA,2012-05-11 11:00,ZGHA 111100Z 12001MPS 9999 OVC050 28/22 Q1004 NOSIG
ZGHA,2012-05-11 12:00,ZGHA 111200Z 13002MPS 7000 OVC050 27/21 Q1004 NOSIG
ZGHA,2012-05-11 13:00,ZGHA 111300Z 15002MPS 6000 OVC050 27/21 Q1005 NOSIG
ZGHA,2012-05-11 14:00,ZGHA 111400Z VRB01MPS 5000 -RA BR SCT010 OVC050 26/21 Q1005 NOSIG
ZGHA,2012-05-11 15:00,ZGHA 111500Z 18001MPS 4000 BR SCT010 OVC050 25/22 Q1005 NOSIG
ZGHA,2012-05-11 16:00,ZGHA 111600Z 18002MPS 4000 BR SCT010 OVC050 25/21 Q1005 NOSIG
ZGHA,2012-05-11 17:00,ZGHA 111700Z VRB01MPS 5000 BR SCT010 OVC050 26/21 Q1004 NOSIG
ZGHA,2012-05-11 18:00,ZGHA 111800Z VRB01MPS 5000 BR SCT010 OVC050 25/21 Q1004 NOSIG
ZGHA,2012-05-11 19:00,ZGHA 111900Z VRB01MPS 4000 BR SCT010 OVC050 25/22 Q1003 NOSIG
ZGHA,2012-05-11 20:00,ZGHA 112000Z 03002MPS 2500 -RA BR SCT010 OVC050 24/22 Q1003 NOSIG
ZGHA,2012-05-11 21:00,ZGHA 112100Z 07002MPS 4000 BR SCT010 OVC050 24/21 Q1002 NOSIG
ZGHA,2012-05-11 22:00,ZGHA 112200Z 03001MPS 4000 BR BKN009 OVC050 23/21 Q1002 NOSIG
ZGHA,2012-05-11 23:00,ZGHA 112300Z VRB01MPS 4000 BR BKN009 OVC050 24/22 Q1003 NOSIG
ZGHA,2012-05-12 00:00,ZGHA 120000Z VRB01MPS 4000 -RA BR BKN009 OVC050 24/22 Q1003 NOSIG
ZGHA,2012-05-12 01:00,ZGHA 120100Z 18002MPS 5000 -SHRA BR BKN009 FEW050CB BKN050 25/22 Q1003 BECMG TL0200 -TSRA
ZGHA,2012-05-12 02:00,ZGHA 120200Z 18002MPS 6000 BKN009 FEW050CB BKN050 25/22 Q1003 BECMG TL0230 2500 -TSRA BR
ZGHA,2012-05-12 03:00,ZGHA 120300Z 31002MPS 220V030 2100 SHRA BR BKN006 FEW050CB BKN050 24/23 Q1004 BECMG TL0400 3000 -SHRA BR
ZGHA,2012-05-12 04:00,ZGHA 120400Z 07003MPS 020V120 4000 SHRA BR BKN006 FEW050CB BKN050 23/22 Q1004 BECMG TL0500 2500 -TSRA BR
ZGHA,2012-05-12 05:00,ZGHA 120500Z 08003MPS 020V160 8000 -SHRA BKN006 FEW050CB BKN050 22/21 Q1004 BECMG TL0540 -TSRA
ZGHA,2012-05-12 06:00,ZGHA 120600Z 06002MPS 010V100 7000 -RA BKN006 OVC050 23/21 Q1002 NOSIG
ZGHA,2012-05-12 07:00,ZGHA 120700Z 36004MPS 4000 -SHRA BR FEW004 BKN006 FEW050CB BKN050 22/21 Q1003 NOSIG
ZGHA,2012-05-12 08:00,ZGHA 120800Z VRB01MPS 7000 -TSRA FEW003 BKN006 FEW050CB BKN050 22/21 Q1002 RESHRA BECMG TL0820 -SHRA
ZGHA,2012-05-12 09:00,ZGHA 120900Z VRB01MPS 8000 -SHRA FEW003 BKN006 FEW050CB BKN050 22/21 Q1002 RETS BECMG TL1030 BKN010 OVC050
ZGHA,2012-05-12 10:00,ZGHA 121000Z 35004MPS 8000 -RA FEW003 BKN007 OVC050 22/21 Q1003 BECMG TL1100 BKN011 OVC050
ZGHA,2012-05-12 11:00,ZGHA 121100Z 30002MPS 250V040 8000 SCT010 BKN023 OVC050 22/21 Q1004 NOSIG
ZGHA,2012-05-12 12:00,ZGHA 121200Z VRB01MPS 9000 SCT009 BKN020 OVC050 22/21 Q1005 TEMPO FM1230 TL0130 BKN009 OVC050
ZGHA,2012-05-12 13:00,ZGHA 121300Z 34005MPS 5000 BR SCT007 SCT020 OVC050 22/20 Q1005 NOSIG
ZGHA,2012-05-12 14:00,ZGHA 121400Z 33006MPS 5000 -RA BR SCT007 SCT020 OVC050 20/19 Q1006 NOSIG
ZGHA,2012-05-12 15:00,ZGHA 121500Z 34006MPS 4000 -RA BR BKN008 OVC050 19/18 Q1007 NOSIG
ZGHA,2012-05-12 16:00,ZGHA 121600Z 33006MPS 5000 BR BKN008 OVC050 19/17 Q1007 BECMG TL1700 BKN011 OVC050
ZGHA,2012-05-12 17:00,ZGHA 121700Z 33006MPS 5000 BR SCT010 OVC050 19/17 Q1007 NOSIG
ZGHA,2012-05-12 18:00,ZGHA 121800Z 33005MPS 5000 BR SCT010 OVC050 19/16 Q1007 NOSIG
ZGHA,2012-05-12 19:00,ZGHA 121900Z 32004MPS 5000 BR SCT011 OVC050 18/16 Q1007 NOSIG
ZGHA,2012-05-12 20:00,ZGHA 122000Z 33003MPS 5000 BR SCT011 OVC050 18/16 Q1007 NOSIG
ZGHA,2012-05-12 21:00,ZGHA 122100Z 33003MPS 6000 SCT011 OVC050 18/16 Q1007 NOSIG
ZGHA,2012-05-12 22:00,ZGHA 122200Z 31003MPS 2700 BR SCT011 OVC050 17/16 Q1007 BECMG TL2350 3000
ZGHA,2012-05-12 23:00,ZGHA 122300Z 32003MPS 1800 -DZ BR FEW004 BKN007 OVC050 17/16 Q1007 BECMG TL0030 3000 BR BKN011 OVC050
ZGHA,2012-05-13 00:00,ZGHA 130000Z 01002MPS 4000 -DZ BR FEW004 BKN007 OVC050 18/16 Q1008 NOSIG
ZGHA,2012-05-13 01:00,ZGHA 130100Z 36002MPS 4500 BR BKN007 OVC050 18/16 Q1008 BECMG TL0230 SCT008 BKN012
ZGHA,2012-05-13 02:00,ZGHA 130200Z 29003MPS 260V360 5000 BR BKN007 OVC050 19/17 Q1008 BECMG TL0300 SCT008 BKN012
ZGHA,2012-05-13 03:00,ZGHA 130300Z 27003MPS 250V310 5000 BR BKN007 OVC050 19/17 Q1008 BECMG SCT008 BKN011 OVC050
ZGHA,2012-05-13 04:00,ZGHA 130400Z 28003MPS 270V330 3000 BR BKN007 OVC050 19/17 Q1008 TEMPO 2500
ZGHA,2012-05-13 05:00,ZGHA 130500Z 32003MPS 290V350 4000 BR BKN009 OVC040 20/17 Q1007 BECMG TL0630 BKN011 OVC050
ZGHA,2012-05-13 06:00,ZGHA 130600Z 29002MPS 270V340 4000 BR BKN009 OVC040 20/17 Q1007 NOSIG
ZGHA,2012-05-13 07:00,ZGHA 130700Z 30002MPS 270V340 4000 BR BKN011 OVC040 20/17 Q1006 NOSIG
ZGHA,2012-05-13 08:00,ZGHA 130800Z 28002MPS 250V340 4000 BR BKN011 OVC030 21/17 Q1005 NOSIG
ZGHA,2012-05-13 09:00,ZGHA 130900Z VRB01MPS 4000 BR BKN011 OVC030 21/17 Q1005 NOSIG
ZGHA,2012-05-13 10:00,ZGHA 131000Z VRB01MPS 4000 BR BKN013 OVC030 20/17 Q1005 BECMG TL1100 BKN015 OVC040
ZGHA,2012-05-13 11:00,ZGHA 131100Z VRB01MPS 4000 BR BKN013 OVC030 20/18 Q1006 BECMG TL1200 BKN015 OVC040
ZGHA,2012-05-13 12:00,ZGHA 131200Z 34003MPS 3500 BR BKN013 OVC030 20/18 Q1006 NOSIG
ZGHA,2012-05-13 13:00,ZGHA 131300Z 02002MPS 3000 BR BKN013 OVC050 20/17 Q1006 BECMG TL1400 2500
ZGHA,2012-05-13 14:00,ZGHA 131400Z VRB01MPS 3000 BR BKN013 OVC050 20/18 Q1006 BECMG TL1500 2500
ZGHA,2012-05-13 15:00,ZGHA 131500Z VRB01MPS 2700 BR BKN013 OVC050 20/18 Q1007 NOSIG
ZGHA,2012-05-13 16:00,ZGHA 131600Z 27001MPS 2500 BR BKN013 OVC050 19/18 Q1007 BECMG TL1700 BKN009 OVC040
ZGHA,2012-05-13 17:00,ZGHA 131700Z 29002MPS 2300 -RA BR BKN013 OVC050 19/18 Q1006 NOSIG
ZGHA,2012-05-13 18:00,ZGHA 131800Z 30002MPS 270V330 2200 -RA BR BKN013 OVC050 19/18 Q1006 NOSIG
ZGHA,2012-05-13 19:00,ZGHA 131900Z 30002MPS 2100 -RA BR BKN013 OVC050 19/18 Q1007 NOSIG
ZGHA,2012-05-13 20:00,ZGHA 132000Z 32002MPS 2500 -RA BR FEW003 BKN013 OVC050 19/18 Q1006 NOSIG
ZGHA,2012-05-13 21:00,ZGHA 132100Z 31002MPS 2300 -RA BR FEW003 BKN012 OVC050 19/18 Q1007 NOSIG
ZGHA,2012-05-13 22:00,ZGHA 132200Z 29002MPS 2200 -RA BR FEW003 BKN012 OVC050 19/18 Q1007 NOSIG
ZGHA,2012-05-13 23:00,ZGHA 132300Z VRB01MPS 2700 -RA BR FEW003 BKN012 OVC050 19/18 Q1007 BECMG TL0000 3000
ZGHA,2012-05-14 00:00,ZGHA 140000Z 31002MPS 3500 -RA BR FEW003 BKN012 OVC050 19/18 Q1008 NOSIG
ZGHA,2012-05-14 01:00,ZGHA 140100Z 29002MPS 8000 -RA FEW003 BKN006 OVC050 19/18 Q1008 NOSIG
ZGHA,2012-05-14 02:00,ZGHA 140200Z 29004MPS 8000 -DZ FEW004 BKN006 OVC050 19/18 Q1008 NOSIG
ZGHA,2012-05-14 03:00,ZGHA 140300Z 31005MPS 5000 -RA BR FEW004 BKN006 OVC050 19/17 Q1009 NOSIG
ZGHA,2012-05-14 04:00,ZGHA 140400Z 32004MPS 7000 -RA BKN006 OVC050 19/18 Q1008 NOSIG
ZGHA,2012-05-14 05:00,ZGHA 140500Z 33007MPS 8000 -RA BKN006 OVC050 19/17 Q1009 NOSIG
ZGHA,2012-05-14 06:00,ZGHA 140600Z 34007MPS 8000 -RA BKN009 OVC050 19/17 Q1008 BECMG TL0700 BKN011 OVC050
ZGHA,2012-05-14 07:00,ZGHA 140700Z 31005MPS 8000 -RA BKN009 OVC050 18/17 Q1009 BECMG TL0800 BKN011 OVC050
ZGHA,2012-05-14 08:00,ZGHA 140800Z 30005MPS 8000 -RA BKN009 OVC050 18/16 Q1009 BECMG TL0900 BKN011 OVC050
ZGHA,2012-05-14 09:00,ZGHA 140900Z 32005MPS 6000 -RA BKN009 OVC050 18/17 Q1009 NOSIG
ZGHA,2012-05-14 10:00,ZGHA 141000Z 34005MPS 7000 -RA BKN007 OVC040 18/17 Q1009 NOSIG
ZGHA,2012-05-14 11:00,ZGHA 141100Z 34005MPS 5000 BR BKN007 OVC040 18/16 Q1010 NOSIG
ZGHA,2012-05-14 12:00,ZGHA 141200Z 32004MPS 5000 BR BKN009 OVC040 18/16 Q1011 BECMG TL1340 BKN011 OVC050
ZGHA,2012-05-14 13:00,ZGHA 141300Z 31003MPS 5000 BR BKN011 OVC040 18/16 Q1012 NOSIG
ZGHA,2012-05-14 14:00,ZGHA 141400Z 31002MPS 280V340 4500 BR BKN011 OVC040 18/16 Q1012 BECMG TL1530 SCT012 OVC050
ZGHA,2012-05-14 15:00,ZGHA 141500Z 31003MPS 4500 BR BKN013 OVC040 18/16 Q1013 BECMG TL1600 SCT013 OVC050
ZGHA,2012-05-14 16:00,ZGHA 141600Z 30002MPS 4000 BR SCT013 BKN020 OVC040 18/16 Q1013 NOSIG
ZGHA,2012-05-14 17:00,ZGHA 141700Z 32002MPS 3700 BR SCT011 OVC040 18/16 Q1012 NOSIG
ZGHA,2012-05-14 18:00,ZGHA 141800Z 33003MPS 3700 BR BKN016 OVC040 18/16 Q1011 NOSIG
ZGHA,2012-05-14 19:00,ZGHA 141900Z AUTO VRB01MPS 2700 BR FEW008/// OVC013/// 18/16 Q1011
ZGHA,2012-05-14 20:00,ZGHA 142000Z 28002MPS 4000 BR SCT011 OVC040 18/16 Q1011 NOSIG
ZGHA,2012-05-14 21:00,ZGHA 142100Z 30003MPS 5000 BR BKN017 OVC040 18/16 Q1011 NOSIG
ZGHA,2012-05-14 22:00,ZGHA 142200Z 30002MPS 5000 BR BKN017 OVC040 18/16 Q1012 NOSIG
ZGHA,2012-05-14 23:00,ZGHA 142300Z 31002MPS 290V350 5000 BR BKN019 OVC040 18/16 Q1013 NOSIG
ZGHA,2012-05-15 00:00,ZGHA 150000Z 31002MPS 280V340 6000 FEW009 SCT020 BKN050 18/16 Q1013 NOSIG
ZGHA,2012-05-15 01:00,ZGHA 150100Z 35003MPS 330V030 6000 FEW010 BKN020 20/16 Q1013 NOSIG
ZGHA,2012-05-15 02:00,ZGHA 150200Z 01002MPS 330V090 6000 SCT020 21/16 Q1013 NOSIG
ZGHA,2012-05-15 03:00,ZGHA 150300Z 01002MPS 300V100 7000 SCT023 22/16 Q1013 NOSIG
ZGHA,2012-05-15 04:00,ZGHA 150400Z VRB01MPS 8000 SCT023 22/16 Q1012 NOSIG
ZGHA,2012-05-15 05:00,ZGHA 150500Z VRB01MPS 8000 SCT026 23/17 Q1012 NOSIG
ZGHA,2012-05-15 06:00,ZGHA 150600Z VRB01MPS 9999 SCT030 24/17 Q1011 NOSIG
ZGHA,2012-05-15 07:00,ZGHA 150700Z VRB01MPS 9999 SCT030 24/17 Q1010 NOSIG
ZGHA,2012-05-15 08:00,ZGHA 150800Z VRB01MPS 9999 FEW033TCU SCT033 23/16 Q1010 NOSIG
ZGHA,2012-05-15 09:00,ZGHA 150900Z 18002MPS 9999 SCT040 23/17 Q1010 NOSIG
ZGHA,2012-05-15 10:00,ZGHA 151000Z 19002MPS 150V220 8000 SCT050 22/17 Q1010 NOSIG
ZGHA,2012-05-15 11:00,ZGHA 151100Z 16002MPS 140V200 7000 FEW050 22/18 Q1010 NOSIG
ZGHA,2012-05-15 12:00,ZGHA 151200Z 17002MPS 5000 BR NSC 21/18 Q1011 NOSIG
ZGHA,2012-05-15 13:00,ZGHA 151300Z 17002MPS 4000 BR FEW040 20/18 Q1011 BECMG TL1500 2500
ZGHA,2012-05-15 14:00,ZGHA 151400Z 15002MPS 4000 BR NSC 20/18 Q1011 NOSIG
ZGHA,2012-05-15 15:00,ZGHA 151500Z 16002MPS 3200 BR NSC 19/18 Q1011 BECMG TL1600 2500
ZGHA,2012-05-15 16:00,ZGHA 151600Z VRB01MPS 2500 BR NSC 18/17 Q1010 NOSIG
ZGHA,2012-05-15 17:00,ZGHA 151700Z 17001MPS 2000 BR NSC 18/17 Q1010 BECMG TL1900 1400
ZGHA,2012-05-15 18:00,ZGHA 151800Z 14001MPS 1700 BR NSC 18/17 Q1010 NOSIG
ZGHA,2012-05-15 19:00,ZGHA 151900Z AUTO 14001MPS 0900 R18/1400D FG NCD 17/17 Q1009
ZGHA,2012-05-15 20:00,ZGHA 152000Z VRB01MPS 1600 BR NSC 17/16 Q1009 NOSIG
ZGHA,2012-05-15 21:00,ZGHA 152100Z 09001MPS 1600 R18/1300U BR SKC 17/16 Q1009 NOSIG
ZGHA,2012-05-15 22:00,ZGHA 152200Z VRB01MPS 1100 R18/0200N BR NSC 17/16 Q1009 BECMG TL2400 0700 FG
ZGHA,2012-05-15 23:00,ZGHA 152300Z VRB01MPS 1600 R18/0900V1400D BR NSC 18/17 Q1010 BECMG TL0100 3000
ZGHA,2012-05-16 00:00,ZGHA 160000Z 18002MPS 3000 BR NSC 19/18 Q1010 NOSIG
ZGHA,2012-05-16 01:00,ZGHA 160100Z 18003MPS 110V220 2500 BR SCT009 21/18 Q1010 BECMG TL0200 3000
ZGHA,2012-05-16 02:00,ZGHA 160200Z 19003MPS 160V230 5000 BR FEW013 23/18 Q1010 NOSIG
ZGHA,2012-05-16 03:00,ZGHA 160300Z VRB02MPS 6000 FEW023 25/18 Q1010 NOSIG
ZGHA,2012-05-16 04:00,ZGHA 160400Z 21002MPS 150V310 8000 FEW026 26/18 Q1009 NOSIG
ZGHA,2012-05-16 05:00,ZGHA 160500Z 29001MPS 9999 SCT030 27/17 Q1008 NOSIG
ZGHA,2012-05-16 06:00,ZGHA 160600Z VRB01MPS 9999 SCT033 27/16 Q1007 NOSIG
ZGHA,2012-05-16 07:00,ZGHA 160700Z 28002MPS 240V330 CAVOK 28/16 Q1006 NOSIG
ZGHA,2012-05-16 08:00,ZGHA 160800Z 30002MPS 230V030 CAVOK 28/15 Q1006 NOSIG
ZGHA,2012-05-16 09:00,ZGHA 160900Z VRB02MPS CAVOK 28/16 Q1005 NOSIG
ZGHA,2012-05-16 10:00,ZGHA 161000Z VRB02MPS CAVOK 27/16 Q1005 NOSIG
ZGHA,2012-05-16 11:00,ZGHA 161100Z 03001MPS CAVOK 25/17 Q1006 NOSIG
ZGHA,2012-05-16 12:00,ZGHA 161200Z VRB01MPS 7000 NSC 24/20 Q1006 NOSIG
ZGHA,2012-05-16 13:00,ZGHA 161300Z 00000MPS 6000 NSC 23/20 Q1007 NOSIG
ZGHA,2012-05-16 14:00,ZGHA 161400Z 07001MPS 5000 BR NSC 22/20 Q1008 NOSIG
ZGHA,2012-05-16 15:00,ZGHA 161500Z 16001MPS 5000 BR NSC 22/20 Q1008 BECMG TL1600 2500
ZGHA,2012-05-16 16:00,ZGHA 161600Z 00000MPS 5000 BR NSC 21/20 Q1008 NOSIG
ZGHA,2012-05-16 17:00,ZGHA 161700Z VRB01MPS 4000 BR NSC 21/19 Q1008 NOSIG
ZGHA,2012-05-16 18:00,ZGHA 161800Z 05001MPS 2000 BR NSC 20/19 Q1008 NOSIG
ZGHA,2012-05-16 19:00,ZGHA 161900Z 09001MPS 1800 BR NSC 20/19 Q1008 NOSIG
ZGHA,2012-05-16 20:00,ZGHA 162000Z VRB01MPS 1800 BR NSC 19/18 Q1008 BECMG 3000
ZGHA,2012-05-16 21:00,ZGHA 162100Z VRB01MPS 2000 BR NSC 19/18 Q1008 NOSIG
ZGHA,2012-05-16 22:00,ZGHA 162200Z VRB01MPS 2000 BR NSC 19/18 Q1009 NOSIG
ZGHA,2012-05-16 23:00,ZGHA 162300Z 00000MPS 3000 BR SKC 19/18 Q1009 NOSIG
ZGHA,2012-05-17 00:00,ZGHA 170000Z VRB01MPS 5000 BR SKC 22/18 Q1009 NOSIG
ZGHA,2012-05-17 01:00,ZGHA 170100Z VRB01MPS 7000 NSC 24/18 Q1010 NOSIG
ZGHA,2012-05-17 02:00,ZGHA 170200Z VRB01MPS 8000 NSC 27/20 Q1010 NOSIG
ZGHA,2012-05-17 03:00,ZGHA 170300Z VRB01MPS CAVOK 28/17 Q1009 NOSIG
ZGHA,2012-05-17 04:00,ZGHA 170400Z 35002MPS 290V070 CAVOK 29/18 Q1009 NOSIG
ZGHA,2012-05-17 05:00,ZGHA 170500Z 28003MPS 240V330 CAVOK 31/16 Q1008 NOSIG
ZGHA,2012-05-17 06:00,ZGHA 170600Z 07002MPS 030V100 CAVOK 31/15 Q1007 NOSIG
ZGHA,2012-05-17 07:00,ZGHA 170700Z VRB02MPS CAVOK 32/13 Q1007 NOSIG
ZGHA,2012-05-17 08:00,ZGHA 170800Z 13003MPS 100V180 CAVOK 32/09 Q1007 NOSIG
ZGHA,2012-05-17 09:00,ZGHA 170900Z 12002MPS CAVOK 31/12 Q1006 NOSIG
ZGHA,2012-05-17 10:00,ZGHA 171000Z 12003MPS CAVOK 30/15 Q1006 NOSIG
ZGHA,2012-05-17 11:00,ZGHA 171100Z 12001MPS CAVOK 27/17 Q1006 NOSIG
ZGHA,2012-05-17 12:00,ZGHA 171200Z 04001MPS CAVOK 27/15 Q1007 NOSIG
ZGHA,2012-05-17 13:00,ZGHA 171300Z 09002MPS CAVOK 25/17 Q1007 NOSIG
ZGHA,2012-05-17 14:00,ZGHA 171400Z 07002MPS CAVOK 25/17 Q1008 NOSIG
ZGHA,2012-05-17 15:00,ZGHA 171500Z 36001MPS CAVOK 25/17 Q1008 NOSIG
ZGHA,2012-05-17 16:00,ZGHA 171600Z 16002MPS 130V190 8000 NSC 23/19 Q1008 NOSIG
ZGHA,2012-05-17 17:00,ZGHA 171700Z 12001MPS 7000 NSC 24/17 Q1008 NOSIG
ZGHA,2012-05-17 18:00,ZGHA 171800Z 07002MPS 5000 BR NSC 23/19 Q1007 NOSIG
ZGHA,2012-05-17 19:00,ZGHA 171900Z 05002MPS 4500 -RA BR SCT040 23/19 Q1007 NOSIG
ZGHA,2012-05-17 20:00,ZGHA 172000Z VRB01MPS 4000 BR NSC 22/18 Q1007 NOSIG
ZGHA,2012-05-17 21:00,ZGHA 172100Z 09002MPS 4000 BR NSC 21/19 Q1007 NOSIG
ZGHA,2012-05-17 22:00,ZGHA 172200Z VRB01MPS 5000 BR NSC 21/19 Q1007 NOSIG
ZGHA,2012-05-17 23:00,ZGHA 172300Z VRB01MPS 5000 BR NSC 23/20 Q1008 NOSIG
ZGHA,2012-05-18 00:00,ZGHA 180000Z VRB01MPS 6000 SKC 25/19 Q1008 NOSIG
ZGHA,2012-05-18 01:00,ZGHA 180100Z 13002MPS 110V170 7000 SKC 27/19 Q1008 NOSIG
ZGHA,2012-05-18 02:00,ZGHA 180200Z 12002MPS 050V170 CAVOK 30/18 Q1008 NOSIG
ZGHA,2012-05-18 03:00,ZGHA 180300Z 16003MPS 120V210 CAVOK 30/18 Q1008 NOSIG
ZGHA,2012-05-18 04:00,ZGHA 180400Z 18003MPS 130V210 CAVOK 32/19 Q1007 NOSIG
ZGHA,2012-05-18 05:00,ZGHA 180500Z 12003MPS 080V170 CAVOK 32/20 Q1007 NOSIG
ZGHA,2012-05-18 06:00,ZGHA 180600Z 21005MPS CAVOK 33/18 Q1006 NOSIG
ZGHA,2012-05-18 07:00,ZGHA 180700Z 17002MPS 120V230 CAVOK 33/18 Q1005 NOSIG
ZGHA,2012-05-18 08:00,ZGHA 180800Z 25002MPS 190V300 CAVOK 33/19 Q1005 NOSIG
ZGHA,2012-05-18 09:00,ZGHA 180900Z 12002MPS 070V170 CAVOK 33/19 Q1004 NOSIG
ZGHA,2012-05-18 10:00,ZGHA 181000Z VRB01MPS CAVOK 32/20 Q1004 NOSIG
ZGHA,2012-05-18 11:00,ZGHA 181100Z 04002MPS CAVOK 30/23 Q1005 NOSIG
ZGHA,2012-05-18 12:00,ZGHA 181200Z VRB01MPS 8000 NSC 29/23 Q1005 NOSIG
ZGHA,2012-05-18 13:00,ZGHA 181300Z VRB01MPS 6000 FEW050 28/22 Q1006 NOSIG
ZGHA,2012-05-18 14:00,ZGHA 181400Z VRB01MPS 5000 BR SCT050 27/22 Q1006 NOSIG
ZGHA,2012-05-18 15:00,ZGHA 181500Z 36004MPS 5000 BR SCT050 27/21 Q1006 NOSIG
ZGHA,2012-05-18 16:00,ZGHA 181600Z 32004MPS 5000 BR SCT050 26/21 Q1006 NOSIG
ZGHA,2012-05-18 17:00,ZGHA 181700Z 30004MPS 260V330 3000 BR SCT050 25/20 Q1005 NOSIG
ZGHA,2012-05-18 18:00,ZGHA 181800Z 30002MPS 270V330 2000 BR SCT050 24/20 Q1005 NOSIG
ZGHA,2012-05-18 19:00,ZGHA 181900Z 30003MPS 2000 BR SCT050 23/20 Q1005 NOSIG
ZGHA,2012-05-18 20:00,ZGHA 182000Z 31005MPS 280V010 1000 R36/0900V1100N TSRA BR SCT007 SCT050CB BKN050 21/20 Q1006 NOSIG
ZGHA,2012-05-18 21:00,ZGHA 182100Z 33004MPS 1000 R36/1100V1200N -SHRA BR SCT007 FEW050CB BKN050 21/20 Q1006 RETSRA NOSIG
ZGHA,2012-05-18 22:00,ZGHA 182200Z 33004MPS 0700 R36/0800V0900N -SHRA FG SCT007 FEW050CB BKN050 22/20 Q1006 NOSIG
ZGHA,2012-05-18 23:00,ZGHA 182300Z 33003MPS 0700 R36/0900N -TSRA FG SCT007 FEW040CB BKN040 22/20 Q1007 BECMG TL0000 1000 -SHRA BR
ZGHA,2012-05-19 00:00,ZGHA 190000Z VRB01MPS 0900 R36/1100V1300D -SHRA FG SCT006 FEW040CB BKN040 21/20 Q1008 BECMG TL0100 1500 BR
ZGHA,2012-05-19 01:00,ZGHA 190100Z 04002MPS 340V100 0900 R36/0750V1000D -SHRA FG BKN007 FEW040CB BKN040 21/20 Q1008 BECMG TL0300 1600 BR
ZGHA,2012-05-19 02:00,ZGHA 190200Z 35002MPS 4000 -RA BR BKN007 OVC040 22/20 Q1008 BECMG TL0300 BKN011 OVC040
ZGHA,2012-05-19 03:00,ZGHA 190300Z 33002MPS 290V360 4500 -RA BR FEW004 BKN009 OVC050 22/20 Q1009 BECMG TL0400 2500 RA
ZGHA,2012-05-19 04:00,ZGHA 190400Z 31002MPS 270V360 4000 -RA BR FEW005 BKN009 OVC050 22/20 Q1008 BECMG TL0600 BKN011
ZGHA,2012-05-19 05:00,ZGHA 190500Z 30003MPS 270V330 9999 BKN007 OVC040 23/21 Q1008 BECMG TL0600 BKN011
ZGHA,2012-05-19 06:00,ZGHA 190600Z 32003MPS 9999 BKN011 OVC040 24/21 Q1008 BECMG TL0700 BKN016 OVC040
ZGHA,2012-05-19 07:00,ZGHA 190700Z 34005MPS 6000 BKN012 OVC040 23/20 Q1007 BECMG TL0800 BKN016 OVC050
ZGHA,2012-05-19 08:00,ZGHA 190800Z 33004MPS 5000 BR SCT013 OVC026 24/21 Q1007 NOSIG
ZGHA,2012-05-19 09:00,ZGHA 190900Z 34005MPS 8000 SCT026 25/20 Q1006 NOSIG
ZGHA,2012-05-19 10:00,ZGHA 191000Z 33005MPS 8000 FEW020 25/19 Q1006 NOSIG
ZGHA,2012-05-19 11:00,ZGHA 191100Z 35003MPS 8000 SKC 24/20 Q1007 NOSIG
ZGHA,2012-05-19 12:00,ZGHA 191200Z 33003MPS 6000 SKC 23/20 Q1007 NOSIG
ZGHA,2012-05-19 13:00,ZGHA 191300Z 34003MPS 4000 BR SKC 22/20 Q1008 NOSIG
ZGHA,2012-05-19 14:00,ZGHA 191400Z 34003MPS 4000 BR SKC 22/19 Q1009 NOSIG
ZGHA,2012-05-19 15:00,ZGHA 191500Z 35001MPS 3000 BR SKC 21/19 Q1009 NOSIG
ZGHA,2012-05-19 16:00,ZGHA 191600Z VRB01MPS 3000 BR SKC 20/19 Q1009 NOSIG
ZGHA,2012-05-19 17:00,ZGHA 191700Z 05001MPS 2500 BR SKC 20/19 Q1009 NOSIG
ZGHA,2012-05-19 18:00,ZGHA 191800Z VRB01MPS 2500 BR SKC 20/19 Q1009 NOSIG
ZGHA,2012-05-19 19:00,ZGHA 191900Z 01001MPS 2100 BR SKC 19/18 Q1009 NOSIG
ZGHA,2012-05-19 20:00,ZGHA 192000Z 36002MPS 1800 BR SKC 19/18 Q1008 NOSIG
ZGHA,2012-05-19 21:00,ZGHA 192100Z 00000MPS 1800 BR SKC 19/18 Q1009 NOSIG
ZGHA,2012-05-19 22:00,ZGHA 192200Z 35001MPS 2700 BR SKC 19/18 Q1009 BECMG 3500
ZGHA,2012-05-19 23:00,ZGHA 192300Z VRB01MPS 2500 BR SKC 20/19 Q1010 BECMG TL0050 3500
ZGHA,2012-05-20 00:00,ZGHA 200000Z 02002MPS 350V060 2700 BR SKC 21/19 Q1010 BECMG TL0100 3500
ZGHA,2012-05-20 01:00,ZGHA 200100Z VRB01MPS 3000 BR FEW007 23/20 Q1011 NOSIG
ZGHA,2012-05-20 02:00,ZGHA 200200Z VRB01MPS 4000 BR SCT013 25/19 Q1011 NOSIG
ZGHA,2012-05-20 03:00,ZGHA 200300Z 01002MPS 330V140 5000 HZ SCT020 26/18 Q1010 NOSIG
ZGHA,2012-05-20 04:00,ZGHA 200400Z 31005MPS 7000 SCT030 27/18 Q1010 NOSIG
ZGHA,2012-05-20 05:00,ZGHA 200500Z VRB02MPS 9999 SCT033 28/16 Q1009 NOSIG
ZGHA,2012-05-20 06:00,ZGHA 200600Z 33003MPS 270V030 9999 SCT033 28/17 Q1008 NOSIG
ZGHA,2012-05-20 07:00,ZGHA 200700Z 30004MPS 240V340 9999 SCT030 29/19 Q1008 NOSIG
ZGHA,2012-05-20 08:00,ZGHA 200800Z 31005MPS 270V360 9999 SCT040 28/18 Q1007 NOSIG
ZGHA,2012-05-20 09:00,ZGHA 200900Z 33004MPS 280V010 CAVOK 28/18 Q1007 NOSIG
ZGHA,2012-05-20 10:00,ZGHA 201000Z 31005MPS CAVOK 27/17 Q1007 NOSIG
ZGHA,2012-05-20 11:00,ZGHA 201100Z 31004MPS CAVOK 25/17 Q1007 NOSIG
ZGHA,2012-05-20 12:00,ZGHA 201200Z 01003MPS CAVOK 24/18 Q1007 NOSIG
ZGHA,2012-05-20 13:00,ZGHA 201300Z 06001MPS 6000 SCT040 23/18 Q1008 NOSIG
ZGHA,2012-05-20 14:00,ZGHA 201400Z VRB01MPS 5000 BR SCT040 22/20 Q1009 NOSIG
ZGHA,2012-05-20 15:00,ZGHA 201500Z VRB01MPS 3500 BR SCT040 22/19 Q1009 NOSIG
ZGHA,2012-05-20 16:00,ZGHA 201600Z VRB01MPS 3000 BR NSC 21/19 Q1009 BECMG TL1700 2500
ZGHA,2012-05-20 17:00,ZGHA 201700Z 04001MPS 2700 BR NSC 21/20 Q1009 NOSIG
ZGHA,2012-05-20 18:00,ZGHA 201800Z 00000MPS 2700 BR NSC 21/19 Q1009 NOSIG
ZGHA,2012-05-20 19:00,ZGHA 201900Z AUTO VRB01MPS 1500 BR NCD 21/19 Q1009
ZGHA,2012-05-20 20:00,ZGHA 202000Z 04001MPS 3000 BR NSC 20/19 Q1009 NOSIG
ZGHA,2012-05-20 21:00,ZGHA 202100Z 02002MPS 350V050 4500 BR SCT050 20/18 Q1009 NOSIG
ZGHA,2012-05-20 22:00,ZGHA 202200Z VRB01MPS 5000 BR FEW050 20/17 Q1009 NOSIG
ZGHA,2012-05-20 23:00,ZGHA 202300Z 06002MPS 010V100 6000 NSC 20/17 Q1009 NOSIG
ZGHA,2012-05-21 00:00,ZGHA 210000Z 06002MPS 360V130 6000 NSC 22/18 Q1010 NOSIG
ZGHA,2012-05-21 01:00,ZGHA 210100Z VRB01MPS 9000 SKC 24/17 Q1010 NOSIG
ZGHA,2012-05-21 02:00,ZGHA 210200Z VRB01MPS 9999 SCT026 25/17 Q1010 NOSIG
ZGHA,2012-05-21 03:00,ZGHA 210300Z 07003MPS 030V160 9999 BKN033 27/17 Q1010 NOSIG
ZGHA,2012-05-21 04:00,ZGHA 210400Z VRB02MPS 9999 BKN033 27/18 Q1010 NOSIG
ZGHA,2012-05-21 05:00,ZGHA 210500Z 07003MPS 010V140 9999 BKN033 27/17 Q1009 NOSIG
ZGHA,2012-05-21 06:00,ZGHA 210600Z 10003MPS 050V140 9999 BKN033 28/17 Q1008 NOSIG
ZGHA,2012-05-21 07:00,ZGHA 210700Z 08003MPS 040V120 9999 BKN033 29/16 Q1008 NOSIG
ZGHA,2012-05-21 08:00,ZGHA 210800Z 10003MPS 060V130 9999 BKN033 28/17 Q1007 NOSIG
ZGHA,2012-05-21 09:00,ZGHA 210900Z 10003MPS 070V140 9999 BKN033 28/17 Q1007 NOSIG
ZGHA,2012-05-21 10:00,ZGHA 211000Z 09003MPS 060V120 9999 BKN033 27/17 Q1007 NOSIG
ZGHA,2012-05-21 11:00,ZGHA 211100Z 10003MPS CAVOK 26/17 Q1008 NOSIG
ZGHA,2012-05-21 12:00,ZGHA 211200Z 10001MPS CAVOK 25/18 Q1009 NOSIG
ZGHA,2012-05-21 13:00,ZGHA 211300Z 12002MPS CAVOK 24/17 Q1009 NOSIG
ZGHA,2012-05-21 14:00,ZGHA 211400Z 08001MPS CAVOK 23/17 Q1010 NOSIG
ZGHA,2012-05-21 15:00,ZGHA 211500Z 08002MPS 8000 NSC 22/18 Q1010 NOSIG
ZGHA,2012-05-21 16:00,ZGHA 211600Z 08003MPS 8000 NSC 22/18 Q1010 NOSIG
ZGHA,2012-05-21 17:00,ZGHA 211700Z 07002MPS 8000 NSC 21/19 Q1009 NOSIG
ZGHA,2012-05-21 18:00,ZGHA 211800Z 05002MPS 8000 NSC 22/18 Q1009 NOSIG
ZGHA,2012-05-21 19:00,ZGHA 211900Z AUTO 04002MPS 6000 BKN170/// BKN200/// 22/18 Q1008
ZGHA,2012-05-21 20:00,ZGHA 212000Z 03003MPS 8000 NSC 21/18 Q1008 NOSIG
ZGHA,2012-05-21 21:00,ZGHA 212100Z 05003MPS 8000 NSC 21/18 Q1008 NOSIG
ZGHA,2012-05-21 22:00,ZGHA 212200Z 04003MPS 8000 NSC 21/18 Q1009 NOSIG
ZGHA,2012-05-21 23:00,ZGHA 212300Z 04003MPS 8000 NSC 21/18 Q1009 BECMG TL0050 2800 -RA BR BKN011 OVC050
ZGHA,2012-05-22 00:00,ZGHA 220000Z VRB01MPS 8000 -RA NSC 22/18 Q1009 NOSIG
ZGHA,2012-05-22 01:00,ZGHA 220100Z 01002MPS 340V040 8000 SCT050 22/18 Q1009 NOSIG
ZGHA,2012-05-22 02:00,ZGHA 220200Z 02003MPS 350V070 8000 NSC 23/18 Q1009 NOSIG
ZGHA,2012-05-22 03:00,ZGHA 220300Z 01003MPS 350V060 7000 -RA SCT040 23/19 Q1009 NOSIG
ZGHA,2012-05-22 04:00,ZGHA 220400Z 36002MPS 340V040 6000 -RA SCT040 23/20 Q1009 NOSIG
ZGHA,2012-05-22 05:00,ZGHA 220500Z 34004MPS 5000 -RA BR SCT009 OVC050 23/20 Q1009 NOSIG
ZGHA,2012-05-22 06:00,ZGHA 220600Z 01002MPS 4000 -RA BR SCT009 OVC050 22/20 Q1009 NOSIG
ZGHA,2012-05-22 07:00,ZGHA 220700Z 35004MPS 2500 -RA BR BKN007 OVC040 22/20 Q1009 BECMG 3000
ZGHA,2012-05-22 08:00,ZGHA 220800Z 35004MPS 1700 -SHRA BR BKN006 FEW040CB BKN040 22/20 Q1008 NOSIG
ZGHA,2012-05-22 09:00,ZGHA 220900Z 36003MPS 340V040 1700 -SHRA BR BKN006 FEW040CB BKN040 21/20 Q1008 NOSIG
ZGHA,2012-05-22 10:00,ZGHA 221000Z 36007MPS 2000 RA BR BKN006 OVC033 20/19 Q1008 NOSIG
ZGHA,2012-05-22 11:00,ZGHA 221100Z 36006MPS 3000 -RA BR BKN006 OVC033 20/19 Q1008 RERA NOSIG
ZGHA,2012-05-22 12:00,ZGHA 221200Z 36003MPS 2500 RA BR SCT004 BKN007 OVC040 20/19 Q1009 NOSIG
ZGHA,2012-05-22 13:00,ZGHA 221300Z 01003MPS 340V040 2300 RA BR SCT004 BKN007 OVC040 20/19 Q1009 BECMG TL1400 3000 -RA BR
ZGHA,2012-05-22 14:00,ZGHA 221400Z 34004MPS 2100 RA BR SCT003 BKN007 OVC040 20/19 Q1009 BECMG TL1500 -RA
ZGHA,2012-05-22 15:00,ZGHA 221500Z 34005MPS 1800 RA BR SCT003 BKN007 OVC040 20/19 Q1009 BECMG -RA
ZGHA,2012-05-22 16:00,ZGHA 221600Z 35004MPS 1700 -RA BR SCT003 BKN006 OVC040 20/19 Q1009 RERA NOSIG
ZGHA,2012-05-22 17:00,ZGHA 221700Z 36003MPS 1600 -RA BR SCT003 BKN006 OVC040 20/19 Q1009 NOSIG
ZGHA,2012-05-22 18:00,ZGHA 221800Z 35004MPS 1600 RA BR SCT003 BKN006 OVC040 20/19 Q1008 BECMG TL1900 -RA
ZGHA,2012-05-22 19:00,ZGHA 221900Z AUTO 35004MPS 1200 R36/P2000 RA BR BKN003/// OVC007/// 20/19 Q1008
ZGHA,2012-05-22 20:00,ZGHA 222000Z 35004MPS 1800 RA BR SCT003 BKN006 OVC040 19/18 Q1008 NOSIG
ZGHA,2012-05-22 21:00,ZGHA 222100Z 35003MPS 1700 -RA BR SCT003 BKN007 OVC040 19/18 Q1008 RERA NOSIG
ZGHA,2012-05-22 22:00,ZGHA 222200Z 34003MPS 1700 RA BR SCT003 BKN007 OVC040 19/18 Q1008 NOSIG
ZGHA,2012-05-22 23:00,ZGHA 222300Z 36002MPS 2000 RA BR SCT003 BKN007 OVC040 19/18 Q1009 BECMG -RA
ZGHA,2012-05-23 00:00,ZGHA 230000Z 36003MPS 3000 RA BR SCT003 BKN007 OVC040 19/18 Q1009 BECMG TL0100 -RA
ZGHA,2012-05-23 01:00,ZGHA 230100Z 36002MPS 5000 RA BR SCT003 BKN007 OVC040 20/19 Q1009 BECMG TL0200 -RA
ZGHA,2012-05-23 02:00,ZGHA 230200Z 36002MPS 5000 -RA BR SCT003 BKN009 OVC040 20/19 Q1009 RERA NOSIG
ZGHA,2012-05-23 03:00,ZGHA 230300Z 34003MPS 4500 -RA BR SCT003 BKN009 OVC040 20/19 Q1009 BECMG SCT005 BKN011 OVC040
ZGHA,2012-05-23 04:00,ZGHA 230400Z 34002MPS 5000 -RA BR SCT006 BKN012 OVC040 20/19 Q1009 NOSIG
ZGHA,2012-05-23 05:00,ZGHA 230500Z 35003MPS 3700 -RA BR SCT005 BKN009 OVC040 21/19 Q1009 BECMG TL0600 SCT005 BKN011 OVC050
ZGHA,2012-05-23 06:00,ZGHA 230600Z 33003MPS 300V360 2700 RA BR SCT005 BKN009 OVC040 21/19 Q1008 BECMG TL0700 3000 -RA BR SCT006 BKN011 OVC050
ZGHA,2012-05-23 07:00,ZGHA 230700Z 35004MPS 3500 RA BR SCT005 BKN009 OVC040 20/19 Q1008 BECMG TL0800 -RA SCT006 BKN011 OVC050
ZGHA,2012-05-23 08:00,ZGHA 230800Z 36003MPS 4000 RA BR SCT004 BKN007 OVC040 21/19 Q1008 BECMG TL0900 -RA
ZGHA,2012-05-23 09:00,ZGHA 230900Z 01002MPS 3500 -RA BR SCT004 BKN007 OVC040 20/19 Q1008 RERA NOSIG
ZGHA,2012-05-23 10:00,ZGHA 231000Z 36002MPS 330V030 6000 -RA BKN008 OVC050 20/19 Q1008 BECMG TL1100 BKN011 OVC050
ZGHA,2012-05-23 11:00,ZGHA 231100Z VRB01MPS 4000 -RA BR SCT004 BKN008 OVC050 20/19 Q1008 NOSIG
ZGHA,2012-05-23 12:00,ZGHA 231200Z VRB01MPS 3000 -RA BR SCT004 BKN008 OVC050 20/19 Q1008 NOSIG
ZGHA,2012-05-23 13:00,ZGHA 231300Z 35001MPS 3500 -RA BR SCT004 BKN009 OVC040 20/19 Q1009 NOSIG
ZGHA,2012-05-23 14:00,ZGHA 231400Z 36002MPS 4500 BR SCT006 BKN012 OVC040 20/19 Q1009 NOSIG
ZGHA,2012-05-23 15:00,ZGHA 231500Z 34002MPS 300V360 3000 BR SCT006 BKN012 OVC040 20/19 Q1010 NOSIG
ZGHA,2012-05-23 16:00,ZGHA 231600Z 35002MPS 3000 BR SCT006 BKN012 OVC040 20/19 Q1009 NOSIG
ZGHA,2012-05-23 17:00,ZGHA 231700Z 36002MPS 2000 -RA BR SCT006 BKN012 OVC040 20/19 Q1009 NOSIG
ZGHA,2012-05-23 18:00,ZGHA 231800Z 01003MPS 2300 -RA BR SCT006 BKN012 OVC040 20/18 Q1009 NOSIG
ZGHA,2012-05-23 19:00,ZGHA 231900Z 35004MPS 2300 -RA BR SCT006 BKN012 OVC040 19/18 Q1009 NOSIG
ZGHA,2012-05-23 20:00,ZGHA 232000Z 36003MPS 2300 -RA BR SCT006 BKN012 OVC040 19/18 Q1009 NOSIG
ZGHA,2012-05-23 21:00,ZGHA 232100Z 36003MPS 2400 RA BR SCT006 BKN012 OVC040 19/18 Q1009 NOSIG
ZGHA,2012-05-23 22:00,ZGHA 232200Z 35003MPS 2700 RA BR SCT006 BKN012 OVC040 19/18 Q1009 BECMG 3000 -RA BR
ZGHA,2012-05-23 23:00,ZGHA 232300Z 34003MPS 2800 RA BR SCT006 BKN012 OVC040 19/18 Q1009 BECMG 3000 -RA BR
ZGHA,2012-05-24 00:00,ZGHA 240000Z 34004MPS 4500 -RA BR SCT006 BKN012 OVC040 19/18 Q1009 RERA NOSIG
ZGHA,2012-05-24 01:00,ZGHA 240100Z 36004MPS 6000 -RA SCT004 BKN009 OVC040 20/18 Q1010 NOSIG
ZGHA,2012-05-24 02:00,ZGHA 240200Z 35003MPS 8000 -RA SCT004 BKN009 OVC040 20/19 Q1010 NOSIG
ZGHA,2012-05-24 03:00,ZGHA 240300Z 35002MPS 7000 -RA SCT004 BKN009 OVC040 20/18 Q1010 NOSIG
ZGHA,2012-05-24 04:00,ZGHA 240400Z 34003MPS 8000 -RA SCT004 BKN009 OVC040 21/19 Q1010 NOSIG
ZGHA,2012-05-24 05:00,ZGHA 240500Z 34004MPS 6000 -RA SCT004 BKN009 OVC040 20/19 Q1009 NOSIG
ZGHA,2012-05-24 06:00,ZGHA 240600Z 34005MPS 5000 -RA BR SCT004 BKN009 OVC040 20/19 Q1009 NOSIG
ZGHA,2012-05-24 07:00,ZGHA 240700Z 35004MPS 5000 -RA BR SCT004 BKN009 OVC040 20/19 Q1009 NOSIG
ZGHA,2012-05-24 08:00,ZGHA 240800Z 35006MPS 6000 -RA SCT004 BKN009 OVC040 20/19 Q1009 NOSIG
ZGHA,2012-05-24 09:00,ZGHA 240900Z 34005MPS 6000 -RA SCT004 BKN009 OVC040 20/18 Q1009 NOSIG
ZGHA,2012-05-24 10:00,ZGHA 241000Z 36005MPS 5000 BR SCT004 BKN009 OVC040 19/18 Q1009 BECMG TL1200 BKN011
ZGHA,2012-05-24 11:00,ZGHA 241100Z 34005MPS 4000 -RA BR SCT004 BKN009 OVC040 19/18 Q1010 BECMG TL1300 2500 RA
ZGHA,2012-05-24 12:00,ZGHA 241200Z 35004MPS 3000 -RA BR SCT004 BKN009 OVC040 19/17 Q1010 BECMG TL1300 2500 RA
ZGHA,2012-05-24 13:00,ZGHA 241300Z 35004MPS 3000 -RA BR SCT004 BKN009 OVC040 19/17 Q1011 BECMG TL1400 2500
ZGHA,2012-05-24 14:00,ZGHA 241400Z 36003MPS 3000 -RA BR SCT004 BKN009 OVC040 19/17 Q1011 BECMG TL1500 2500
ZGHA,2012-05-24 15:00,ZGHA 241500Z 01002MPS 2000 -RA BR SCT004 BKN009 OVC040 18/17 Q1011 BECMG TL1700 1400 RA
ZGHA,2012-05-24 16:00,ZGHA 241600Z 34004MPS 1400 R36/P2000 -RA BR SCT004 BKN009 OVC040 18/17 Q1011 NOSIG
ZGHA,2012-05-24 17:00,ZGHA 241700Z 34004MPS 1700 -RA BR SCT004 BKN008 OVC040 18/17 Q1011 RERA TEMPO 1400 RA
ZGHA,2012-05-24 18:00,ZGHA 241800Z 35003MPS 1700 RA BR SCT003 BKN007 OVC040 18/17 Q1011 NOSIG
ZGHA,2012-05-24 19:00,ZGHA 241900Z 36004MPS 3000 -RA BR SCT004 BKN008 OVC040 18/17 Q1010 RERA NOSIG
ZGHA,2012-05-24 20:00,ZGHA 242000Z 36004MPS 4000 -RA BR SCT004 BKN008 OVC040 18/17 Q1010 NOSIG
ZGHA,2012-05-24 21:00,ZGHA 242100Z 01003MPS 3000 RA BR SCT004 BKN008 OVC040 17/16 Q1010 NOSIG
ZGHA,2012-05-24 22:00,ZGHA 242200Z 36003MPS 4000 RA BR SCT004 BKN008 OVC040 17/16 Q1010 NOSIG
ZGHA,2012-05-24 23:00,ZGHA 242300Z 35004MPS 5000 RA BR SCT004 BKN008 OVC040 18/17 Q1011 TEMPO -RA
ZGHA,2012-05-25 00:00,ZGHA 250000Z 35004MPS 5000 RA BR SCT004 BKN008 OVC040 18/17 Q1012 BECMG TL0100 -RA
ZGHA,2012-05-25 01:00,ZGHA 250100Z 35004MPS 6000 RA SCT004 BKN009 OVC040 18/17 Q1012 BECMG TL0200 -RA
ZGHA,2012-05-25 02:00,ZGHA 250200Z 34003MPS 4000 -RA BR SCT004 BKN009 OVC040 18/17 Q1013 RERA NOSIG
ZGHA,2012-05-25 03:00,ZGHA 250300Z 01002MPS 5000 -RA BR SCT003 BKN007 OVC040 18/17 Q1012 NOSIG
ZGHA,2012-05-25 04:00,ZGHA 250400Z 01003MPS 6000 RA SCT003 BKN007 OVC040 19/18 Q1012 BECMG TL0500 -RA
ZGHA,2012-05-25 05:00,ZGHA 250500Z 35002MPS 8000 RA FEW003 BKN007 OVC040 19/18 Q1012 NOSIG
ZGHA,2012-05-25 06:00,ZGHA 250600Z 34003MPS 5000 -RA BR SCT005 BKN007 OVC040 19/18 Q1011 BECMG TL0700 RA
ZGHA,2012-05-25 07:00,ZGHA 250700Z 01002MPS 6000 -RA SCT005 BKN009 OVC050 19/18 Q1011 NOSIG
ZGHA,2012-05-25 08:00,ZGHA 250800Z 33002MPS 290V020 6000 -RA SCT005 BKN009 OVC050 19/18 Q1011 NOSIG
ZGHA,2012-05-25 09:00,ZGHA 250900Z 33003MPS 290V350 6000 -RA SCT005 BKN009 OVC050 19/18 Q1011 NOSIG
ZGHA,2012-05-25 10:00,ZGHA 251000Z 34003MPS 7000 -RA FEW006 BKN011 OVC050 19/18 Q1011 NOSIG
ZGHA,2012-05-25 11:00,ZGHA 251100Z VRB01MPS 3200 -RA BR SCT005 BKN010 OVC050 19/18 Q1012 NOSIG
ZGHA,2012-05-25 12:00,ZGHA 251200Z 32002MPS 290V010 3200 -RA BR SCT005 BKN010 OVC050 19/18 Q1012 NOSIG
ZGHA,2012-05-25 13:00,ZGHA 251300Z 31002MPS 280V340 3000 -RA BR SCT004 BKN010 OVC050 19/18 Q1012 BECMG TL1400 2500
ZGHA,2012-05-25 14:00,ZGHA 251400Z 31002MPS 2500 -RA BR SCT004 BKN008 OVC050 19/18 Q1013 NOSIG
ZGHA,2012-05-25 15:00,ZGHA 251500Z 31003MPS 2500 -RA BR SCT004 BKN008 OVC050 19/18 Q1013 NOSIG
ZGHA,2012-05-25 16:00,ZGHA 251600Z 30002MPS 280V350 2500 -RA BR SCT004 BKN008 OVC050 19/18 Q1012 NOSIG
ZGHA,2012-05-25 17:00,ZGHA 251700Z 31002MPS 2100 -RA BR SCT004 BKN008 OVC050 19/18 Q1012 NOSIG
ZGHA,2012-05-25 18:00,ZGHA 251800Z 31003MPS 2100 -RA BR SCT004 BKN008 OVC050 19/18 Q1011 NOSIG
ZGHA,2012-05-25 19:00,ZGHA 251900Z 32002MPS 1800 -RA BR SCT004 BKN008 OVC050 19/18 Q1011 NOSIG
ZGHA,2012-05-25 20:00,ZGHA 252000Z 28001MPS 1800 RA BR SCT004 BKN007 OVC050 18/18 Q1011 NOSIG
ZGHA,2012-05-25 21:00,ZGHA 252100Z 28002MPS 1800 RA BR FEW003 BKN007 OVC050 18/18 Q1011 NOSIG
ZGHA,2012-05-25 22:00,ZGHA 252200Z 30001MPS 1400 R36/1600N -RA BR SCT003 BKN006 OVC050 18/17 Q1011 RERA NOSIG
ZGHA,2012-05-25 23:00,ZGHA 252300Z 32002MPS 1400 R36/1800N -RA BR SCT003 BKN006 OVC050 18/17 Q1011 BECMG TL2400 2000
ZGHA,2012-05-26 00:00,ZGHA 260000Z 31003MPS 1200 R36/1500D -RA BR SCT003 BKN006 OVC050 18/17 Q1012 BECMG TL0100 2000
ZGHA,2012-05-26 01:00,ZGHA 260100Z 32002MPS 1600 -RA BR SCT003 BKN006 OVC050 19/18 Q1012 NOSIG
ZGHA,2012-05-26 02:00,ZGHA 260200Z 30002MPS 270V330 2200 -RA BR SCT003 BKN006 OVC050 19/18 Q1013 BECMG TL0300 3500
ZGHA,2012-05-26 03:00,ZGHA 260300Z 28002MPS 260V340 3000 -RA BR SCT004 BKN007 OVC050 19/18 Q1012 BECMG TL0450 BKN011 OVC050
ZGHA,2012-05-26 04:00,ZGHA 260400Z VRB01MPS 5000 -RA BR SCT004 BKN007 OVC050 20/18 Q1012 BECMG TL0500 BKN011 OVC050
ZGHA,2012-05-26 05:00,ZGHA 260500Z 00000MPS 9999 BKN010 OVC050 22/18 Q1011 BECMG TL0600 BKN016 OVC050
ZGHA,2012-05-26 06:00,ZGHA 260600Z VRB01MPS 9999 BKN011 OVC050 22/18 Q1011 BECMG TL0700 BKN016 OVC050
ZGHA,2012-05-26 07:00,ZGHA 260700Z 22002MPS 170V280 9999 BKN011 OVC050 22/18 Q1010 BECMG TL0800 BKN016 OVC050
ZGHA,2012-05-26 08:00,ZGHA 260800Z 24002MPS 210V270 9999 BKN012 OVC050 22/18 Q1010 BECMG TL0900 BKN016 OVC050
ZGHA,2012-05-26 09:00,ZGHA 260900Z 23002MPS 190V300 9999 SCT013 22/18 Q1010 NOSIG
ZGHA,2012-05-26 10:00,ZGHA 261000Z VRB02MPS CAVOK 22/18 Q1010 NOSIG
ZGHA,2012-05-26 11:00,ZGHA 261100Z 21002MPS 170V230 9999 FEW033 21/18 Q1010 NOSIG
ZGHA,2012-05-26 12:00,ZGHA 261200Z 19002MPS 7000 FEW033 20/18 Q1010 NOSIG
ZGHA,2012-05-26 13:00,ZGHA 261300Z 16002MPS 6000 SCT033 20/18 Q1010 NOSIG
ZGHA,2012-05-26 14:00,ZGHA 261400Z 16001MPS 4000 BR FEW033 19/18 Q1010 NOSIG
ZGHA,2012-05-26 15:00,ZGHA 261500Z VRB01MPS 1700 BR NSC 19/18 Q1010 NOSIG
ZGHA,2012-05-26 16:00,ZGHA 261600Z 00000MPS 1400 R36/0800V1300D BR NSC 18/18 Q1009 NOSIG
ZGHA,2012-05-26 17:00,ZGHA 261700Z VRB01MPS 1400 R36/P2000 BR NSC 18/18 Q1009 NOSIG
ZGHA,2012-05-26 18:00,ZGHA 261800Z 29001MPS 1400 R36/P2000 BR NSC 18/17 Q1010 NOSIG
ZGHA,2012-05-26 19:00,ZGHA 261900Z 00000MPS 1200 R36/P2000 BR NSC 18/17 Q1009 NOSIG
ZGHA,2012-05-26 20:00,ZGHA 262000Z 00000MPS 1200 R36/0650N BR NSC 18/17 Q1010 NOSIG
ZGHA,2012-05-26 21:00,ZGHA 262100Z VRB01MPS 0400 R36/0350N FG VV006 18/17 Q1010 NOSIG
ZGHA,2012-05-26 22:00,ZGHA 262200Z 07002MPS 030V100 0400 R36/0275N FG VV006 18/18 Q1010 NOSIG
ZGHA,2012-05-26 23:00,ZGHA 262300Z 06002MPS 020V100 0400 R36/0400V0750U FG VV006 19/18 Q1011 BECMG TL0030 0700
ZGHA,2012-05-27 00:00,ZGHA 270000Z 07002MPS 030V120 2100 BR SCT006 19/19 Q1011 BECMG TL0100 3300
ZGHA,2012-05-27 01:00,ZGHA 270100Z VRB01MPS 8000 FEW006 21/19 Q1010 NOSIG
ZGHA,2012-05-27 02:00,ZGHA 270200Z VRB02MPS 9999 SCT013 23/19 Q1011 NOSIG
ZGHA,2012-05-27 03:00,ZGHA 270300Z VRB01MPS 9999 SCT013 25/19 Q1011 NOSIG
ZGHA,2012-05-27 04:00,ZGHA 270400Z VRB02MPS 9999 SCT021 26/19 Q1011 NOSIG
ZGHA,2012-05-27 05:00,ZGHA 270500Z 27001MPS 9999 SCT020 25/19 Q1010 NOSIG
ZGHA,2012-05-27 06:00,ZGHA 270600Z 26002MPS 210V310 9999 -RA SCT020 24/20 Q1009 NOSIG
ZGHA,2012-05-27 07:00,ZGHA 270700Z 28002MPS 260V320 5000 -RA BR SCT020 23/20 Q1010 NOSIG
ZGHA,2012-05-27 08:00,ZGHA 270800Z 31003MPS 270V340 2400 RA BR SCT009 BKN020 22/20 Q1009 BECMG TL0900 3500 -RA
ZGHA,2012-05-27 09:00,ZGHA 270900Z 32002MPS 3000 RA BR SCT012 BKN020 22/20 Q1009 BECMG -RA
ZGHA,2012-05-27 10:00,ZGHA 271000Z VRB01MPS 3500 -RA BR SCT012 BKN020 21/20 Q1009 RERA NOSIG
ZGHA,2012-05-27 11:00,ZGHA 271100Z 36001MPS 3000 -RA BR SCT009 BKN020 21/20 Q1009 NOSIG
ZGHA,2012-05-27 12:00,ZGHA 271200Z 01001MPS 3000 BR SCT009 BKN020 21/20 Q1010 NOSIG
ZGHA,2012-05-27 13:00,ZGHA 271300Z 35002MPS 320V020 3000 BR SCT009 BKN020 OVC050 21/20 Q1010 NOSIG
ZGHA,2012-05-27 14:00,ZGHA 271400Z VRB01MPS 2700 BR SCT009 OVC040 21/20 Q1010 NOSIG
ZGHA,2012-05-27 15:00,ZGHA 271500Z 36002MPS 2700 BR SCT009 OVC040 21/20 Q1011 NOSIG
ZGHA,2012-05-27 16:00,ZGHA 271600Z 31002MPS 2400 BR SCT004 OVC040 21/20 Q1011 NOSIG
ZGHA,2012-05-27 17:00,ZGHA 271700Z 30001MPS 1600 BR SCT003 OVC040 21/20 Q1010 NOSIG
ZGHA,2012-05-27 18:00,ZGHA 271800Z 33003MPS 1800 BR SCT003 OVC040 21/20 Q1010 NOSIG
ZGHA,2012-05-27 19:00,ZGHA 271900Z AUTO VRB01MPS 1300 R36/P2000 BR FEW004/// OVC051/// 21/20 Q1010
ZGHA,2012-05-27 20:00,ZGHA 272000Z 34002MPS 1800 BR BKN003 OVC040 21/20 Q1010 NOSIG
ZGHA,2012-05-27 21:00,ZGHA 272100Z 36002MPS 1400 R36/P2000 -RA BR BKN003 OVC040 21/20 Q1010 NOSIG
ZGHA,2012-05-27 22:00,ZGHA 272200Z VRB01MPS 1500 -RA BR SCT002 BKN006 OVC040 21/20 Q1010 NOSIG
ZGHA,2012-05-27 23:00,ZGHA 272300Z 01001MPS 1500 BR SCT003 BKN006 OVC050 21/20 Q1011 BECMG SCT009 OVC050
ZGHA,2012-05-28 00:00,ZGHA 280000Z VRB01MPS 3200 BR FEW006 OVC050 22/21 Q1011 NOSIG
ZGHA,2012-05-28 01:00,ZGHA 280100Z VRB01MPS 5000 BR SCT005 OVC050 22/20 Q1011 NOSIG
ZGHA,2012-05-28 02:00,ZGHA 280200Z 02002MPS 350V070 8000 FEW020 23/20 Q1011 NOSIG
ZGHA,2012-05-28 03:00,ZGHA 280300Z VRB01MPS 9999 SCT030 23/21 Q1011 NOSIG
ZGHA,2012-05-28 04:00,ZGHA 280400Z 08002MPS 020V140 9999 SCT040 25/20 Q1011 NOSIG
ZGHA,2012-05-28 05:00,ZGHA 280500Z VRB02MPS 9999 SCT020 27/20 Q1010 NOSIG
ZGHA,2012-05-28 06:00,ZGHA 280600Z 08002MPS 040V120 9999 FEW020 SCT040 26/19 Q1010 NOSIG
ZGHA,2012-05-28 07:00,ZGHA 280700Z 08003MPS 050V130 9999 SCT033 26/20 Q1009 NOSIG
ZGHA,2012-05-28 08:00,ZGHA 280800Z 09002MPS 060V130 9999 BKN033 26/20 Q1009 NOSIG
ZGHA,2012-05-28 09:00,ZGHA 280900Z 10002MPS 050V140 9999 SCT033 26/20 Q1009 NOSIG
ZGHA,2012-05-28 10:00,ZGHA 281000Z 00000MPS 9999 SCT040 25/20 Q1009 NOSIG
ZGHA,2012-05-28 11:00,ZGHA 281100Z 07001MPS 9999 BKN040 25/20 Q1009 NOSIG
ZGHA,2012-05-28 12:00,ZGHA 281200Z 12001MPS 9999 SCT040 24/21 Q1010 NOSIG
ZGHA,2012-05-28 13:00,ZGHA 281300Z 07001MPS 9999 SCT040 24/20 Q1010 NOSIG
ZGHA,2012-05-28 14:00,ZGHA 281400Z 30002MPS 270V340 9999 SCT040 24/20 Q1010 NOSIG
ZGHA,2012-05-28 15:00,ZGHA 281500Z 30001MPS 9999 SCT050 23/20 Q1011 NOSIG
ZGHA,2012-05-28 16:00,ZGHA 281600Z VRB01MPS CAVOK 23/19 Q1010 NOSIG
ZGHA,2012-05-28 17:00,ZGHA 281700Z 34002MPS 9999 SCT050 23/20 Q1010 NOSIG
ZGHA,2012-05-28 18:00,ZGHA 281800Z 36002MPS 9999 SCT040 23/19 Q1010 NOSIG
ZGHA,2012-05-28 19:00,ZGHA 281900Z AUTO VRB01MPS 9000 SCT078/// BKN100/// OVC130/// 22/20 Q1009
ZGHA,2012-05-28 20:00,ZGHA 282000Z 00000MPS CAVOK 22/20 Q1009 NOSIG
ZGHA,2012-05-28 21:00,ZGHA 282100Z VRB01MPS 9999 SCT040 22/20 Q1009 NOSIG
ZGHA,2012-05-28 22:00,ZGHA 282200Z 00000MPS 8000 SCT040 22/20 Q1009 NOSIG
ZGHA,2012-05-28 23:00,ZGHA 282300Z 36001MPS 6000 -RA SCT040 22/20 Q1010 NOSIG
ZGHA,2012-05-29 00:00,ZGHA 290000Z VRB01MPS 8000 NSC 23/21 Q1010 NOSIG
ZGHA,2012-05-29 01:00,ZGHA 290100Z VRB01MPS 8000 NSC 24/21 Q1010 NOSIG
ZGHA,2012-05-29 02:00,ZGHA 290200Z 14002MPS 090V160 8000 -RA SCT040 25/22 Q1009 NOSIG
ZGHA,2012-05-29 03:00,ZGHA 290300Z VRB02MPS 8000 SCT020 27/21 Q1009 NOSIG
ZGHA,2012-05-29 04:00,ZGHA 290400Z 19003MPS 160V220 8000 NSC 27/21 Q1009 NOSIG
ZGHA,2012-05-29 05:00,ZGHA 290500Z 19003MPS 140V230 8000 NSC 29/22 Q1008 NOSIG
ZGHA,2012-05-29 06:00,ZGHA 290600Z 15002MPS 100V180 8000 NSC 29/22 Q1007 NOSIG
ZGHA,2012-05-29 07:00,ZGHA 290700Z 23003MPS 180V260 8000 BKN030 29/22 Q1007 NOSIG
ZGHA,2012-05-29 08:00,ZGHA 290800Z 26003MPS 230V290 6000 BKN030 28/22 Q1007 BECMG 2500 -SHRA BR BKN007 FEW033CB BKN040
ZGHA,2012-05-29 09:00,ZGHA 290900Z 32006MPS 5000 -RA BR SCT030 27/21 Q1007 NOSIG
ZGHA,2012-05-29 10:00,ZGHA 291000Z 34007G12MPS 3000 -RA BR SCT004 BKN006 OVC050 23/22 Q1008 RERA NOSIG
ZGHA,2012-05-29 11:00,ZGHA 291100Z 36005MPS 6000 -RA BKN008 OVC050 22/21 Q1008 NOSIG
ZGHA,2012-05-29 12:00,ZGHA 291200Z 36005MPS 6000 RA BKN006 OVC040 22/21 Q1009 NOSIG
ZGHA,2012-05-29 13:00,ZGHA 291300Z 33004MPS 7000 BKN012 OVC050 22/21 Q1009 BECMG SCT012 BKN050
ZGHA,2012-05-29 14:00,ZGHA 291400Z 34006MPS 8000 BKN012 OVC050 22/20 Q1010 NOSIG
ZGHA,2012-05-29 15:00,ZGHA 291500Z 34006MPS 4500 -RA BR BKN012 OVC050 22/20 Q1010 NOSIG
ZGHA,2012-05-29 16:00,ZGHA 291600Z 32005MPS 3000 -RA BR BKN012 OVC050 21/20 Q1010 BECMG 2200
ZGHA,2012-05-29 17:00,ZGHA 291700Z 33004MPS 2600 -RA BR BKN012 OVC050 21/20 Q1009 NOSIG
ZGHA,2012-05-29 18:00,ZGHA 291800Z 34007MPS 1200 R36/1600N -RA BR BKN012 OVC050 20/19 Q1009 NOSIG
ZGHA,2012-05-29 19:00,ZGHA 291900Z 34006MPS 1200 R36/1800N BR SCT006 BKN012 OVC040 20/19 Q1009 NOSIG
ZGHA,2012-05-29 20:00,ZGHA 292000Z 35007MPS 1200 R36/P2000 BR SCT006 BKN012 OVC040 20/19 Q1010 NOSIG
ZGHA,2012-05-29 21:00,ZGHA 292100Z 34006MPS 1200 R36/P2000 BR SCT006 BKN012 OVC040 20/18 Q1010 NOSIG
ZGHA,2012-05-29 22:00,ZGHA 292200Z 34007MPS 1600 BR SCT006 BKN012 OVC040 20/18 Q1010 BECMG TL2400 3500
ZGHA,2012-05-29 23:00,ZGHA 292300Z 35006MPS 2300 BR BKN012 OVC050 20/18 Q1011 BECMG TL2400 3500
ZGHA,2012-05-30 00:00,ZGHA 300000Z 35005MPS 3000 BR BKN012 OVC050 20/18 Q1011 NOSIG
ZGHA,2012-05-30 01:00,ZGHA 300100Z 35005MPS 3000 BR BKN011 OVC050 21/18 Q1012 BECMG TL0250 SCT011 OVC050
ZGHA,2012-05-30 02:00,ZGHA 300200Z 35005MPS 5000 BR SCT015 23/18 Q1012 NOSIG
ZGHA,2012-05-30 03:00,ZGHA 300300Z 35005MPS 6000 BKN020 25/19 Q1012 NOSIG
ZGHA,2012-05-30 04:00,ZGHA 300400Z 34005MPS 320V020 7000 SCT020 25/19 Q1011 NOSIG
ZGHA,2012-05-30 05:00,ZGHA 300500Z 36005MPS 8000 SCT020 26/19 Q1011 NOSIG
ZGHA,2012-05-30 06:00,ZGHA 300600Z 34005MPS 8000 FEW020 27/19 Q1010 NOSIG
ZGHA,2012-05-30 07:00,ZGHA 300700Z 33005MPS 300V020 9999 FEW033 28/20 Q1010 NOSIG
ZGHA,2012-05-30 08:00,ZGHA 300800Z 34005MPS 9999 FEW033 28/19 Q1010 NOSIG
ZGHA,2012-05-30 09:00,ZGHA 300900Z 33007MPS CAVOK 27/19 Q1010 NOSIG
ZGHA,2012-05-30 10:00,ZGHA 301000Z 35006MPS CAVOK 26/19 Q1010 NOSIG
ZGHA,2012-05-30 11:00,ZGHA 301100Z 34005MPS CAVOK 25/19 Q1011 NOSIG
ZGHA,2012-05-30 12:00,ZGHA 301200Z 34005MPS 6000 FEW040 24/19 Q1011 NOSIG
ZGHA,2012-05-30 13:00,ZGHA 301300Z 36002MPS 320V030 5000 BR SKC 23/19 Q1012 BECMG TL1500 2500
ZGHA,2012-05-30 14:00,ZGHA 301400Z 35003MPS 4000 BR SKC 23/19 Q1012 BECMG TL1500 2500
ZGHA,2012-05-30 15:00,ZGHA 301500Z VRB01MPS 3000 BR FEW040 22/19 Q1013 NOSIG
ZGHA,2012-05-30 16:00,ZGHA 301600Z 03002MPS 2500 BR FEW040 21/19 Q1012 BECMG TL1800 1400
ZGHA,2012-05-30 17:00,ZGHA 301700Z 02001MPS 1700 BR NSC 21/19 Q1012 BECMG TL1800 1400
ZGHA,2012-05-30 18:00,ZGHA 301800Z 02001MPS 1400 R36/P2000 BR NSC 20/19 Q1012 NOSIG
ZGHA,2012-05-30 19:00,ZGHA 301900Z 01001MPS 1400 R36/P2000 BR NSC 20/19 Q1012 NOSIG
ZGHA,2012-05-30 20:00,ZGHA 302000Z VRB01MPS 1700 BR NSC 20/19 Q1012 NOSIG
ZGHA,2012-05-30 21:00,ZGHA 302100Z 33001MPS 1700 BR NSC 19/18 Q1012 NOSIG
ZGHA,2012-05-30 22:00,ZGHA 302200Z 02001MPS 4000 BR NSC 19/18 Q1012 NOSIG
ZGHA,2012-05-30 23:00,ZGHA 302300Z 01002MPS 5000 BR NSC 21/19 Q1012 NOSIG
ZGHA,2012-05-31 00:00,ZGHA 310000Z 01003MPS 350V050 7000 NSC 22/19 Q1013 NOSIG
ZGHA,2012-05-31 01:00,ZGHA 310100Z 05003MPS 350V090 8000 NSC 24/19 Q1013 NOSIG
ZGHA,2012-05-31 02:00,ZGHA 310200Z 06002MPS 010V180 CAVOK 26/18 Q1013 NOSIG
ZGHA,2012-05-31 03:00,ZGHA 310300Z VRB01MPS 9999 BKN030 27/18 Q1012 NOSIG
ZGHA,2012-05-31 04:00,ZGHA 310400Z VRB01MPS 9999 FEW040 28/17 Q1012 NOSIG
ZGHA,2012-05-31 05:00,ZGHA 310500Z 01002MPS 320V090 9999 SCT050 29/17 Q1011 NOSIG
ZGHA,2012-05-31 06:00,ZGHA 310600Z VRB01MPS 9999 SCT050 28/16 Q1011 NOSIG
ZGHA,2012-05-31 07:00,ZGHA 310700Z VRB01MPS 9999 SCT050 29/17 Q1010 NOSIG
ZGHA,2012-05-31 08:00,ZGHA 310800Z 25002MPS 200V340 9999 FEW050 28/18 Q1010 NOSIG
ZGHA,2012-05-31 09:00,ZGHA 310900Z VRB01MPS 9999 SCT050 27/18 Q1010 NOSIG
ZGHA,2012-05-31 10:00,ZGHA 311000Z 31004MPS 290V350 8000 -RA SCT050 26/19 Q1010 TEMPO 2800 RA BR BKN011 OVC050
ZGHA,2012-05-31 11:00,ZGHA 311100Z 36004MPS 6000 SCT050 24/20 Q1010 NOSIG
ZGHA,2012-05-31 12:00,ZGHA 311200Z 33003MPS 300V360 4500 -RA BR SCT050 24/20 Q1010 NOSIG
ZGHA,2012-05-31 13:00,ZGHA 311300Z VRB01MPS 4500 -RA BR SCT050 24/20 Q1011 NOSIG
ZGHA,2012-05-31 14:00,ZGHA 311400Z VRB01MPS 3000 -RA BR SCT040 24/20 Q1011 BECMG 2500
ZGHA,2012-05-31 15:00,ZGHA 311500Z 32003MPS 3000 -RA BR SCT040 23/21 Q1011 BECMG 2500
ZGHA,2012-05-31 16:00,ZGHA 311600Z 33002MPS 300V360 3000 -RA BR SCT040 23/21 Q1011 BECMG 2500
ZGHA,2012-05-31 17:00,ZGHA 311700Z 30002MPS 260V320 2500 -RA BR SCT050 22/21 Q1011 NOSIG
ZGHA,2012-05-31 18:00,ZGHA 311800Z VRB01MPS 1800 R36/1300D -RA BR SCT004 SCT050 22/21 Q1011 NOSIG
ZGHA,2012-05-31 19:00,ZGHA 311900Z 25002MPS 220V280 1600 R36/1200V1300N -RA BR SCT004 SCT050 22/21 Q1011 NOSIG
ZGHA,2012-05-31 20:00,ZGHA 312000Z 16003MPS 4500 -RA BR BKN006 OVC050 19/18 Q1011 RERA NOSIG
ZGHA,2012-05-31 21:00,ZGHA 312100Z VRB01MPS 6000 -RA BKN008 OVC050 20/19 Q1011 NOSIG
ZGHA,2012-05-31 22:00,ZGHA 312200Z 36003MPS 4000 -RA BR BKN008 OVC050 20/19 Q1011 NOSIG
ZGHA,2012-05-31 23:00,ZGHA 312300Z 35003MPS 4000 -RA BR FEW004 BKN008 OVC050 20/19 Q1011 NOSIG
ZGHA,2012-06-01 00:00,ZGHA 010000Z 03002MPS 340V070 4000 -RA BR BKN009 OVC050 20/18 Q1011 BECMG BKN011 OVC050
ZGHA,2012-06-01 01:00,ZGHA 010100Z 34003MPS 5000 -RA BR BKN009 OVC040 20/19 Q1012 BECMG TL0200 BKN011 OVC050
ZGHA,2012-06-01 02:00,ZGHA 010200Z 36003MPS 6000 -RA BKN009 OVC030 20/18 Q1012 BECMG TL0300 BKN011
ZGHA,2012-06-01 03:00,ZGHA 010300Z 02003MPS 350V070 9000 BKN009 BKN020 OVC040 21/18 Q1012 NOSIG
ZGHA,2012-06-01 04:00,ZGHA 010400Z 04002MPS 340V090 9000 BKN009 OVC030 20/18 Q1012 NOSIG
ZGHA,2012-06-01 05:00,ZGHA 010500Z 03002MPS 340V070 9999 BKN009 OVC040 20/18 Q1011 NOSIG
ZGHA,2012-06-01 06:00,ZGHA 010600Z 02002MPS 340V080 6000 -RA BKN008 OVC040 20/18 Q1011 NOSIG
ZGHA,2012-06-01 07:00,ZGHA 010700Z VRB01MPS 6000 -RA SCT005 BKN008 OVC040 20/19 Q1010 NOSIG
ZGHA,2012-06-01 08:00,ZGHA 010800Z 35003MPS 8000 -RA SCT005 BKN008 OVC040 20/19 Q1011 NOSIG
ZGHA,2012-06-01 09:00,ZGHA 010900Z 36003MPS 8000 -RA SCT005 BKN008 OVC040 20/19 Q1010 NOSIG
ZGHA,2012-06-01 10:00,ZGHA 011000Z 36003MPS 6000 -RA FEW006 BKN009 OVC040 20/19 Q1010 BECMG BKN011 OVC050
ZGHA,2012-06-01 11:00,ZGHA 011100Z 36002MPS 7000 SCT011 OVC050 20/19 Q1011 NOSIG
ZGHA,2012-06-01 12:00,ZGHA 011200Z 01002MPS 6000 FEW005 BKN020 20/19 Q1011 NOSIG
ZGHA,2012-06-01 13:00,ZGHA 011300Z 36002MPS 6000 FEW005 BKN026 20/19 Q1011 NOSIG
ZGHA,2012-06-01 14:00,ZGHA 011400Z 01002MPS 5000 BR OVC026 20/18 Q1011 NOSIG
ZGHA,2012-06-01 15:00,ZGHA 011500Z 35003MPS 5000 BR FEW006 OVC026 20/18 Q1012 NOSIG
ZGHA,2012-06-01 16:00,ZGHA 011600Z 01002MPS 5000 BR SCT005 OVC026 20/18 Q1011 NOSIG
ZGHA,2012-06-01 17:00,ZGHA 011700Z 36001MPS 4000 BR SCT004 OVC026 20/18 Q1011 NOSIG
ZGHA,2012-06-01 18:00,ZGHA 011800Z 01002MPS 4000 BR SCT004 OVC026 20/18 Q1011 NOSIG
ZGHA,2012-06-01 19:00,ZGHA 011900Z 36001MPS 3000 BR SCT004 OVC026 20/18 Q1010 NOSIG
ZGHA,2012-06-01 20:00,ZGHA 012000Z VRB01MPS 4000 BR SCT004 OVC026 20/18 Q1010 NOSIG
ZGHA,2012-06-01 21:00,ZGHA 012100Z 33001MPS 4000 BR SCT004 OVC026 20/18 Q1010 NOSIG
ZGHA,2012-06-01 22:00,ZGHA 012200Z VRB01MPS 1700 BR OVC033 20/19 Q1010 NOSIG
ZGHA,2012-06-01 23:00,ZGHA 012300Z VRB01MPS 1800 BR SCT007 OVC026 20/19 Q1011 NOSIG
ZGHA,2012-06-02 00:00,ZGHA 020000Z 36002MPS 330V040 2600 BR BKN005 OVC026 21/19 Q1011 BECMG 3500
ZGHA,2012-06-02 01:00,ZGHA 020100Z 01002MPS 340V060 3000 BR BKN006 OVC040 21/19 Q1011 BECMG TL0250 BKN011 0VC040
ZGHA,2012-06-02 02:00,ZGHA 020200Z 36002MPS 320V040 3500 BR BKN006 OVC040 22/19 Q1011 BECMG TL0350 BKN011 OVC040
ZGHA,2012-06-02 03:00,ZGHA 020300Z 33003MPS 270V360 4500 BR BKN009 OVC040 23/19 Q1011 BECMG TL0400 BKN011 OVC040
ZGHA,2012-06-02 04:00,ZGHA 020400Z 02002MPS 340V080 6000 BKN009 OVC040 24/19 Q1011 BECMG TL0500 BKN011 OVC040
ZGHA,2012-06-02 05:00,ZGHA 020500Z VRB01MPS 7000 SCT020 26/19 Q1010 NOSIG
ZGHA,2012-06-02 06:00,ZGHA 020600Z VRB02MPS 9999 BKN020 26/19 Q1009 NOSIG
ZGHA,2012-06-02 07:00,ZGHA 020700Z 04002MPS 360V140 9999 SCT020 26/18 Q1009 NOSIG
ZGHA,2012-06-02 08:00,ZGHA 020800Z 33003MPS 300V360 9999 BKN020 25/19 Q1008 NOSIG
ZGHA,2012-06-02 09:00,ZGHA 020900Z 34002MPS 290V020 9999 SCT033 25/18 Q1008 NOSIG
ZGHA,2012-06-02 10:00,ZGHA 021000Z 34003MPS 300V010 9999 FEW040 25/19 Q1008 NOSIG
ZGHA,2012-06-02 11:00,ZGHA 021100Z 31003MPS 9999 FEW040 24/19 Q1008 NOSIG
ZGHA,2012-06-02 12:00,ZGHA 021200Z 32002MPS 280V340 6000 FEW040 24/19 Q1009 NOSIG
ZGHA,2012-06-02 13:00,ZGHA 021300Z VRB01MPS 5000 BR NSC 22/20 Q1009 NOSIG
ZGHA,2012-06-02 14:00,ZGHA 021400Z 15001MPS 2700 BR NSC 22/20 Q1009 NOSIG
ZGHA,2012-06-02 15:00,ZGHA 021500Z 16001MPS 3000 BR SCT020 22/20 Q1009 BECMG TL1600 2500
ZGHA,2012-06-02 16:00,ZGHA 021600Z VRB01MPS 6000 SCT033 22/19 Q1008 NOSIG
ZGHA,2012-06-02 17:00,ZGHA 021700Z VRB01MPS 6000 SCT040 21/19 Q1008 NOSIG
ZGHA,2012-06-02 18:00,ZGHA 021800Z 00000MPS 5000 BR SCT040 21/19 Q1008 NOSIG
ZGHA,2012-06-02 19:00,ZGHA 021900Z 17001MPS 4000 BR SCT050 21/19 Q1007 NOSIG
ZGHA,2012-06-02 20:00,ZGHA 022000Z VRB01MPS 4000 BR NSC 21/19 Q1007 NOSIG
ZGHA,2012-06-02 21:00,ZGHA 022100Z 07001MPS 4500 BR NSC 20/19 Q1007 NOSIG
ZGHA,2012-06-02 22:00,ZGHA 022200Z VRB01MPS 4000 BR NSC 20/19 Q1007 NOSIG
ZGHA,2012-06-02 23:00,ZGHA 022300Z VRB01MPS 5000 BR NSC 21/19 Q1007 NOSIG
ZGHA,2012-06-03 00:00,ZGHA 030000Z 06002MPS 020V080 6000 NSC 23/20 Q1007 NOSIG
ZGHA,2012-06-03 01:00,ZGHA 030100Z VRB01MPS 7000 NSC 24/20 Q1008 NOSIG
ZGHA,2012-06-03 02:00,ZGHA 030200Z VRB01MPS 8000 NSC 24/19 Q1008 NOSIG
ZGHA,2012-06-03 03:00,ZGHA 030300Z VRB01MPS 8000 -RA FEW040 25/19 Q1008 NOSIG
ZGHA,2012-06-03 04:00,ZGHA 030400Z VRB01MPS 9999 SCT021 25/19 Q1007 NOSIG
ZGHA,2012-06-03 05:00,ZGHA 030500Z VRB01MPS 9999 -RA SCT020 25/19 Q1006 NOSIG
ZGHA,2012-06-03 06:00,ZGHA 030600Z 01002MPS 8000 -RA FEW012 SCT040 24/20 Q1006 NOSIG
ZGHA,2012-06-03 07:00,ZGHA 030700Z 02002MPS 340V050 7000 -RA FEW012 SCT033 24/20 Q1006 NOSIG
ZGHA,2012-06-03 08:00,ZGHA 030800Z 01002MPS 340V050 5000 -RA BR SCT009 OVC050 23/21 Q1006 NOSIG
ZGHA,2012-06-03 09:00,ZGHA 030900Z 01002MPS 4000 RA BR BKN009 OVC050 22/20 Q1005 BECMG -RA
ZGHA,2012-06-03 10:00,ZGHA 031000Z VRB01MPS 4000 -RA BR BKN009 OVC050 22/21 Q1006 RERA TEMPO RA
ZGHA,2012-06-03 11:00,ZGHA 031100Z 01001MPS 4000 -RA BR BKN009 OVC050 22/20 Q1006 NOSIG
ZGHA,2012-06-03 12:00,ZGHA 031200Z VRB01MPS 4000 -RA BR BKN009 OVC050 22/20 Q1006 NOSIG
ZGHA,2012-06-03 13:00,ZGHA 031300Z 01001MPS 3500 -RA BR SCT009 OVC050 22/20 Q1007 NOSIG
ZGHA,2012-06-03 14:00,ZGHA 031400Z 01002MPS 3700 -RA BR FEW008 OVC050 21/20 Q1007 NOSIG
ZGHA,2012-06-03 15:00,ZGHA 031500Z VRB01MPS 5000 -RA BR FEW008 SCT033 OVC050 21/20 Q1007 NOSIG
ZGHA,2012-06-03 16:00,ZGHA 031600Z VRB01MPS 5000 BR FEW022 OVC040 21/19 Q1007 NOSIG
ZGHA,2012-06-03 17:00,ZGHA 031700Z VRB01MPS 4500 -RA BR BKN006 OVC040 20/19 Q1006 NOSIG
ZGHA,2012-06-03 18:00,ZGHA 031800Z VRB01MPS 3000 -RA BR FEW003 BKN006 OVC040 20/19 Q1006 NOSIG
ZGHA,2012-06-03 19:00,ZGHA 031900Z VRB01MPS 3000 -RA BR FEW003 BKN006 OVC040 20/19 Q1006 NOSIG
ZGHA,2012-06-03 20:00,ZGHA 032000Z VRB01MPS 3000 -RA BR BKN007 OVC040 20/19 Q1006 NOSIG
ZGHA,2012-06-03 21:00,ZGHA 032100Z VRB01MPS 2500 -RA BR FEW003 BKN007 OVC040 20/19 Q1006 NOSIG
ZGHA,2012-06-03 22:00,ZGHA 032200Z 00000MPS 2500 -RA BR FEW003 BKN007 OVC040 20/19 Q1006 NOSIG
ZGHA,2012-06-03 23:00,ZGHA 032300Z VRB01MPS 2700 -RA BR FEW003 BKN007 OVC040 21/20 Q1006 BECMG 3000
ZGHA,2012-06-04 00:00,ZGHA 040000Z VRB01MPS 4000 -RA BR BKN007 OVC040 21/19 Q1007 TEMPO RA
ZGHA,2012-06-04 01:00,ZGHA 040100Z 01001MPS 3000 -RA BR FEW004 BKN007 OVC040 21/20 Q1007 TEMPO 2500 RA
ZGHA,2012-06-04 02:00,ZGHA 040200Z 02002MPS 340V080 3000 -RA BR BKN007 OVC040 21/20 Q1007 NOSIG
ZGHA,2012-06-04 03:00,ZGHA 040300Z 02002MPS 350V070 4500 -RA BR FEW004 BKN007 OVC040 21/20 Q1007 NOSIG
ZGHA,2012-06-04 04:00,ZGHA 040400Z 01002MPS 4000 -RA BR BKN008 OVC040 21/20 Q1007 NOSIG
ZGHA,2012-06-04 05:00,ZGHA 040500Z 01002MPS 7000 -DZ FEW004 BKN008 OVC040 22/20 Q1006 NOSIG
ZGHA,2012-06-04 06:00,ZGHA 040600Z 35003MPS 8000 -DZ BKN008 OVC040 22/20 Q1006 NOSIG
ZGHA,2012-06-04 07:00,ZGHA 040700Z 01002MPS 340V040 6000 -RA FEW004 BKN008 OVC040 22/20 Q1006 NOSIG
ZGHA,2012-06-04 08:00,ZGHA 040800Z 36003MPS 6000 -RA FEW004 BKN008 OVC040 22/20 Q1005 NOSIG
ZGHA,2012-06-04 09:00,ZGHA 040900Z 35004MPS 3500 -RA BR FEW004 BKN008 OVC040 21/20 Q1005 NOSIG
ZGHA,2012-06-04 10:00,ZGHA 041000Z 01002MPS 4500 -RA BR FEW004 BKN008 OVC040 21/20 Q1005 NOSIG
ZGHA,2012-06-04 11:00,ZGHA 041100Z 01002MPS 3000 RA BR FEW004 BKN007 OVC040 21/20 Q1006 BECMG TL1300 2500 -RA
ZGHA,2012-06-04 12:00,ZGHA 041200Z 36002MPS 5000 -RA BR FEW003 BKN008 OVC040 21/20 Q1006 RERA NOSIG
ZGHA,2012-06-04 13:00,ZGHA 041300Z VRB01MPS 5000 -RA BR FEW003 BKN008 OVC040 21/20 Q1006 NOSIG
ZGHA,2012-06-04 14:00,ZGHA 041400Z VRB01MPS 4500 BR BKN009 OVC040 21/20 Q1006 BECMG TL1500 BKN011
ZGHA,2012-06-04 15:00,ZGHA 041500Z 35002MPS 3500 -RA BR FEW004 BKN008 OVC040 21/20 Q1006 BECMG TL1600 2500
ZGHA,2012-06-04 16:00,ZGHA 041600Z 33002MPS 300V010 3500 -RA BR FEW004 BKN008 OVC040 21/20 Q1006 BECMG TL1700 2500
ZGHA,2012-06-04 17:00,ZGHA 041700Z 34002MPS 3000 -DZ BR FEW004 BKN008 OVC040 21/20 Q1006 NOSIG
ZGHA,2012-06-04 18:00,ZGHA 041800Z 36001MPS 2700 -DZ BR FEW004 BKN008 OVC040 21/20 Q1006 NOSIG
ZGHA,2012-06-04 19:00,ZGHA 041900Z VRB01MPS 2500 -DZ BR FEW003 BKN008 OVC040 21/20 Q1005 NOSIG
ZGHA,2012-06-04 20:00,ZGHA 042000Z 36001MPS 2000 BR FEW003 BKN008 OVC040 21/20 Q1005 NOSIG
ZGHA,2012-06-04 21:00,ZGHA 042100Z 01002MPS 2000 BR FEW003 BKN008 OVC040 21/20 Q1005 BECMG TL2300 3500
ZGHA,2012-06-04 22:00,ZGHA 042200Z 01002MPS 1200 R36/1000V1100N BR FEW004 BKN008 OVC040 21/20 Q1006 BECMG TL2400 1700
ZGHA,2012-06-04 23:00,ZGHA 042300Z VRB01MPS 1200 R36/1400N BR FEW004 BKN008 OVC040 21/20 Q1006 BECMG TL2400 1700
ZGHA,2012-06-05 00:00,ZGHA 050000Z VRB01MPS 1700 BR FEW005 BKN008 OVC040 21/20 Q1006 BECMG TL0100 3500
ZGHA,2012-06-05 01:00,ZGHA 050100Z 00000MPS 4000 BR FEW005 BKN008 OVC040 22/20 Q1006 NOSIG
ZGHA,2012-06-05 02:00,ZGHA 050200Z VRB01MPS 6000 SCT012 BKN020 24/20 Q1006 NOSIG
ZGHA,2012-06-05 03:00,ZGHA 050300Z VRB01MPS 8000 SCT012 BKN020 24/20 Q1006 NOSIG
ZGHA,2012-06-05 04:00,ZGHA 050400Z VRB01MPS 9999 SCT012 BKN020 25/20 Q1006 NOSIG
ZGHA,2012-06-05 05:00,ZGHA 050500Z VRB01MPS 9999 -RA SCT009 BKN012 OVC040 24/20 Q1005 NOSIG
ZGHA,2012-06-05 06:00,ZGHA 050600Z VRB01MPS 9999 SCT009 BKN040 25/21 Q1005 NOSIG
ZGHA,2012-06-05 07:00,ZGHA 050700Z VRB01MPS 9999 SCT009 OVC050 25/21 Q1004 NOSIG
ZGHA,2012-06-05 08:00,ZGHA 050800Z VRB01MPS 9999 -RA SCT009 OVC040 25/21 Q1004 NOSIG
ZGHA,2012-06-05 09:00,ZGHA 050900Z VRB01MPS 9999 SCT009 OVC033 25/21 Q1003 NOSIG
ZGHA,2012-06-05 10:00,ZGHA 051000Z 05002MPS 020V090 9999 FEW011 BKN026 25/21 Q1002 NOSIG
ZGHA,2012-06-05 11:00,ZGHA 051100Z 00000MPS 9999 FEW011 BKN030 25/22 Q1003 NOSIG
ZGHA,2012-06-05 12:00,ZGHA 051200Z VRB01MPS 8000 FEW012 BKN040 24/22 Q1003 NOSIG
ZGHA,2012-06-05 13:00,ZGHA 051300Z VRB01MPS 8000 FEW012 SCT020 OVC050 24/22 Q1004 NOSIG
ZGHA,2012-06-05 14:00,ZGHA 051400Z 00000MPS 8000 SCT020 OVC050 24/22 Q1004 NOSIG
ZGHA,2012-06-05 15:00,ZGHA 051500Z 00000MPS 7000 SCT020 OVC050 23/22 Q1004 NOSIG
ZGHA,2012-06-05 16:00,ZGHA 051600Z 00000MPS 7000 SCT020 OVC050 23/22 Q1004 NOSIG
ZGHA,2012-06-05 17:00,ZGHA 051700Z 00000MPS 6000 SCT020 OVC050 23/22 Q1003 NOSIG
ZGHA,2012-06-05 18:00,ZGHA 051800Z VRB01MPS 6000 SCT020 OVC050 23/22 Q1003 NOSIG
ZGHA,2012-06-05 19:00,ZGHA 051900Z 32001MPS 5000 BR BKN020 OVC050 23/22 Q1003 NOSIG
ZGHA,2012-06-05 20:00,ZGHA 052000Z 00000MPS 4000 BR BKN020 OVC050 23/22 Q1002 NOSIG
ZGHA,2012-06-05 21:00,ZGHA 052100Z VRB01MPS 3500 BR BKN020 OVC050 23/22 Q1002 NOSIG
ZGHA,2012-06-05 22:00,ZGHA 052200Z VRB01MPS 3500 BR BKN020 OVC050 23/22 Q1003 NOSIG
ZGHA,2012-06-05 23:00,ZGHA 052300Z 21001MPS 2800 BR BKN020 OVC050 23/22 Q1003 BECMG TL2400 3500
ZGHA,2012-06-06 00:00,ZGHA 060000Z VRB01MPS 5000 BR SCT012 BKN020 OVC050 24/21 Q1003 NOSIG
ZGHA,2012-06-06 01:00,ZGHA 060100Z 18003MPS 6000 -RA SCT011 BKN020 OVC050 24/22 Q1004 NOSIG
ZGHA,2012-06-06 02:00,ZGHA 060200Z 17003MPS 7000 -DZ SCT011 BKN020 OVC050 25/22 Q1003 BECMG TL0400 BKN011
ZGHA,2012-06-06 03:00,ZGHA 060300Z 22003MPS 180V270 6000 BKN011 OVC040 25/22 Q1003 NOSIG
ZGHA,2012-06-06 04:00,ZGHA 060400Z 20003MPS 3500 -RA BR BKN011 OVC040 25/23 Q1003 NOSIG
ZGHA,2012-06-06 05:00,ZGHA 060500Z 20002MPS 160V250 4000 -RA BR FEW004 BKN008 OVC040 25/23 Q1002 RERA BECMG TL0600 FEW006 BKN011 OVC040
ZGHA,2012-06-06 06:00,ZGHA 060600Z 24002MPS 4000 -RA BR BKN009 OVC040 25/23 Q1002 BECMG TL0700 BKN011 OVC040
ZGHA,2012-06-06 07:00,ZGHA 060700Z VRB01MPS 4000 BR BKN009 OVC040 25/23 Q1002 BECMG TL0800 BKN011 OVC040
ZGHA,2012-06-06 08:00,ZGHA 060800Z VRB01MPS 4500 BR FEW011 BKN019 OVC050 26/23 Q1001 NOSIG
ZGHA,2012-06-06 09:00,ZGHA 060900Z 02002MPS 4200 BR BKN013 OVC050 26/23 Q1001 BECMG TL1000 BKN016 OVC050
ZGHA,2012-06-06 10:00,ZGHA 061000Z VRB01MPS 3200 BR BKN023 OVC050 26/23 Q1001 BECMG TL1200 2500
ZGHA,2012-06-06 11:00,ZGHA 061100Z VRB01MPS 3000 BR BKN023 OVC050 25/23 Q1002 BECMG TL1200 2500
ZGHA,2012-06-06 12:00,ZGHA 061200Z VRB01MPS 3000 BR BKN020 OVC050 25/23 Q1002 BECMG TL1300 2500
ZGHA,2012-06-06 13:00,ZGHA 061300Z VRB01MPS 2500 -RA BR BKN020 OVC050 25/23 Q1002 BECMG TL1500 BKN011 OVC050
ZGHA,2012-06-06 14:00,ZGHA 061400Z 01002MPS 2500 BR SCT040 24/23 Q1002 NOSIG
ZGHA,2012-06-06 15:00,ZGHA 061500Z 01001MPS 2200 BR NSC 24/23 Q1003 BECMG TL1700 1400
ZGHA,2012-06-06 16:00,ZGHA 061600Z 34001MPS 2500 BR SCT033 24/23 Q1003 NOSIG
ZGHA,2012-06-06 17:00,ZGHA 061700Z VRB01MPS 2500 BR SCT040 24/23 Q1002 NOSIG
ZGHA,2012-06-06 18:00,ZGHA 061800Z 36002MPS 2000 BR SCT040 24/23 Q1002 NOSIG
ZGHA,2012-06-06 19:00,ZGHA 061900Z 03001MPS 1400 R36/0900V1300D BR SCT040 24/23 Q1002 NOSIG
ZGHA,2012-06-06 20:00,ZGHA 062000Z 02002MPS 1700 BR SCT040 24/23 Q1002 NOSIG
ZGHA,2012-06-06 21:00,ZGHA 062100Z 36001MPS 1700 BR SCT040 24/23 Q1002 NOSIG
ZGHA,2012-06-06 22:00,ZGHA 062200Z 01001MPS 1200 R36/1000V1100U -RA BR SCT020 24/23 Q1002 BECMG TL2400 1700
ZGHA,2012-06-06 23:00,ZGHA 062300Z 35002MPS 1400 R36/1500N BR SCT020 OVC050 24/23 Q1002 BECMG TL2400 1700
ZGHA,2012-06-07 00:00,ZGHA 070000Z 36003MPS 2200 -RA BR FEW011 SCT020 OVC050 24/23 Q1003 BECMG TL0100 3000 BKN011 OVC050
ZGHA,2012-06-07 01:00,ZGHA 070100Z 34003MPS 2100 -RA BR SCT006 SCT020 OVC050 24/23 Q1004 BECMG TL0200 3000
ZGHA,2012-06-07 02:00,ZGHA 070200Z 35003MPS 3500 -SHRA BR SCT005 SCT020 OVC050 25/23 Q1004 NOSIG
ZGHA,2012-06-07 03:00,ZGHA 070300Z 36003MPS 340V040 5000 -RA BR SCT008 SCT020 OVC050 26/23 Q1004 NOSIG
ZGHA,2012-06-07 04:00,ZGHA 070400Z 06002MPS 010V130 8000 SCT010 SCT020 OVC050 27/23 Q1003 NOSIG
ZGHA,2012-06-07 05:00,ZGHA 070500Z VRB01MPS 8000 SCT013 OVC050 28/23 Q1003 NOSIG
ZGHA,2012-06-07 06:00,ZGHA 070600Z 31001MPS 9999 SCT020 OVC050 29/23 Q1002 NOSIG
ZGHA,2012-06-07 07:00,ZGHA 070700Z 33003MPS 280V020 9999 SCT020 OVC050 29/23 Q1002 NOSIG
ZGHA,2012-06-07 08:00,ZGHA 070800Z 33004MPS 9999 SCT023 OVC050 28/23 Q1002 NOSIG
ZGHA,2012-06-07 09:00,ZGHA 070900Z 31005MPS 9999 -RA SCT020 OVC050 26/23 Q1002 NOSIG
ZGHA,2012-06-07 10:00,ZGHA 071000Z 36003MPS 330V030 8000 NSC 26/23 Q1002 NOSIG
ZGHA,2012-06-07 11:00,ZGHA 071100Z VRB01MPS 6000 NSC 26/23 Q1002 NOSIG
ZGHA,2012-06-07 12:00,ZGHA 071200Z 01001MPS 5000 -RA BR SCT050 25/23 Q1003 NOSIG
ZGHA,2012-06-07 13:00,ZGHA 071300Z 35003MPS 310V010 5000 BR NSC 25/22 Q1003 NOSIG
ZGHA,2012-06-07 14:00,ZGHA 071400Z 34003MPS 5000 BR NSC 24/22 Q1003 NOSIG
ZGHA,2012-06-07 15:00,ZGHA 071500Z 31003MPS 280V340 4500 BR NSC 24/22 Q1004 NOSIG
ZGHA,2012-06-07 16:00,ZGHA 071600Z 33002MPS 5000 BR SCT020 24/22 Q1004 NOSIG
ZGHA,2012-06-07 17:00,ZGHA 071700Z VRB01MPS 4500 BR SCT020 23/22 Q1004 NOSIG
ZGHA,2012-06-07 18:00,ZGHA 071800Z 31003MPS 4500 BR SCT020 23/22 Q1004 NOSIG
ZGHA,2012-06-07 19:00,ZGHA 071900Z VRB01MPS 2100 -TSRA BR BKN006 FEW050CB BKN050 23/22 Q1004 BECMG TL1930 -RA
ZGHA,2012-06-07 20:00,ZGHA 072000Z 35001MPS 2500 -RA BR BKN006 OVC050 23/22 Q1004 NOSIG
ZGHA,2012-06-07 21:00,ZGHA 072100Z 00000MPS 2500 BR BKN006 OVC050 23/22 Q1004 NOSIG
ZGHA,2012-06-07 22:00,ZGHA 072200Z VRB01MPS 1200 R36/1200U BR SCT050 23/22 Q1003 NOSIG
ZGHA,2012-06-07 23:00,ZGHA 072300Z 35002MPS 2000 BR FEW004 24/22 Q1004 BECMG TL2400 3500
ZGHA,2012-06-08 00:00,ZGHA 080000Z VRB01MPS 3700 BR SCT023 24/22 Q1004 NOSIG
ZGHA,2012-06-08 01:00,ZGHA 080100Z VRB01MPS 4000 BR OVC026 25/22 Q1005 NOSIG
ZGHA,2012-06-08 02:00,ZGHA 080200Z 13001MPS 5000 BR BKN026 26/23 Q1005 NOSIG
ZGHA,2012-06-08 03:00,ZGHA 080300Z VRB01MPS 6000 SCT013 BKN040 28/24 Q1004 NOSIG
ZGHA,2012-06-08 04:00,ZGHA 080400Z VRB02MPS 9000 BKN040 29/23 Q1004 NOSIG
ZGHA,2012-06-08 05:00,ZGHA 080500Z 23002MPS 170V280 CAVOK 30/23 Q1003 NOSIG
ZGHA,2012-06-08 06:00,ZGHA 080600Z VRB02MPS 9999 FEW030 30/23 Q1003 NOSIG
ZGHA,2012-06-08 07:00,ZGHA 080700Z 25002MPS 200V280 9999 SCT030 30/23 Q1002 NOSIG
ZGHA,2012-06-08 08:00,ZGHA 080800Z VRB01MPS 9999 SCT023 30/23 Q1002 NOSIG
ZGHA,2012-06-08 09:00,ZGHA 080900Z VRB01MPS 9999 SCT026 30/24 Q1002 NOSIG
ZGHA,2012-06-08 10:00,ZGHA 081000Z VRB01MPS 9999 SCT026 29/24 Q1002 NOSIG
ZGHA,2012-06-08 11:00,ZGHA 081100Z 02002MPS 9999 FEW026 29/24 Q1002 NOSIG
ZGHA,2012-06-08 12:00,ZGHA 081200Z VRB01MPS CAVOK 28/24 Q1002 NOSIG
ZGHA,2012-06-08 13:00,ZGHA 081300Z 12002MPS 8000 NSC 27/24 Q1002 NOSIG
ZGHA,2012-06-08 14:00,ZGHA 081400Z 00000MPS 7000 NSC 27/24 Q1003 NOSIG
ZGHA,2012-06-08 15:00,ZGHA 081500Z 21002MPS 190V250 6000 NSC 27/24 Q1003 NOSIG
ZGHA,2012-06-08 16:00,ZGHA 081600Z 14001MPS 6000 NSC 26/24 Q1003 NOSIG
ZGHA,2012-06-08 17:00,ZGHA 081700Z VRB01MPS 5000 -RA BR NSC 26/24 Q1002 NOSIG
ZGHA,2012-06-08 18:00,ZGHA 081800Z 00000MPS 5000 BR NSC 26/24 Q1002 NOSIG
ZGHA,2012-06-08 19:00,ZGHA 081900Z 13001MPS 4000 BR NSC 25/24 Q1002 NOSIG
ZGHA,2012-06-08 20:00,ZGHA 082000Z 14001MPS 3000 BR NSC 25/24 Q1002 NOSIG
ZGHA,2012-06-08 21:00,ZGHA 082100Z 00000MPS 3000 BR NSC 25/24 Q1002 NOSIG
ZGHA,2012-06-08 22:00,ZGHA 082200Z VRB01MPS 1600 R36/0900V1100D BR OVC040 25/24 Q1002 TEMPO 0700 FG
ZGHA,2012-06-08 23:00,ZGHA 082300Z VRB01MPS 1600 R36/1000V1100N BR NSC 26/24 Q1002 BECMG 3000
ZGHA,2012-06-09 00:00,ZGHA 090000Z VRB01MPS 1800 R36/1400N BR OVC030 27/25 Q1003 BECMG TL0130 3000
ZGHA,2012-06-09 01:00,ZGHA 090100Z 18002MPS 130V210 2000 BR SCT020 BKN050 28/25 Q1003 BECMG TL0200 3000
ZGHA,2012-06-09 02:00,ZGHA 090200Z 20003MPS 2500 BR FEW009 BKN020 OVC050 28/25 Q1003 BECMG TL0300 3000
ZGHA,2012-06-09 03:00,ZGHA 090300Z 19003MPS 150V230 2700 BR SCT050 29/25 Q1002 BECMG TL0400 3000
ZGHA,2012-06-09 04:00,ZGHA 090400Z 21003MPS 160V250 3700 HZ BKN020 31/25 Q1001 NOSIG
ZGHA,2012-06-09 05:00,ZGHA 090500Z 23002MPS 170V270 7000 BKN020 32/24 Q1000 NOSIG
ZGHA,2012-06-09 06:00,ZGHA 090600Z 29003MPS 180V310 8000 BKN020 33/24 Q1000 NOSIG
ZGHA,2012-06-09 07:00,ZGHA 090700Z 31002MPS 260V050 6000 BKN020 33/23 Q0999 NOSIG
ZGHA,2012-06-09 08:00,ZGHA 090800Z 32004MPS 270V350 8000 BKN020 34/23 Q0998 NOSIG
ZGHA,2012-06-09 09:00,ZGHA 090900Z 32004MPS 290V350 9999 SCT020 34/22 Q0998 NOSIG
ZGHA,2012-06-09 10:00,ZGHA 091000Z 34004MPS 9999 FEW020 33/21 Q0998 NOSIG
ZGHA,2012-06-09 11:00,ZGHA 091100Z VRB01MPS 9999 FEW040 32/20 Q0998 NOSIG
ZGHA,2012-06-09 12:00,ZGHA 091200Z 18002MPS CAVOK 29/25 Q0998 NOSIG
ZGHA,2012-06-09 13:00,ZGHA 091300Z 18003MPS CAVOK 28/25 Q0999 NOSIG
ZGHA,2012-06-09 14:00,ZGHA 091400Z 22002MPS CAVOK 28/24 Q0999 NOSIG
ZGHA,2012-06-09 15:00,ZGHA 091500Z VRB01MPS CAVOK 27/24 Q0999 NOSIG
ZGHA,2012-06-09 16:00,ZGHA 091600Z 08001MPS 8000 NSC 27/25 Q0999 NOSIG
ZGHA,2012-06-09 17:00,ZGHA 091700Z 19002MPS 8000 NSC 26/24 Q0999 NOSIG
ZGHA,2012-06-09 18:00,ZGHA 091800Z 18003MPS 7000 NSC 27/25 Q0998 NOSIG
ZGHA,2012-06-09 19:00,ZGHA 091900Z 19003MPS 7000 NSC 26/25 Q0998 NOSIG
ZGHA,2012-06-09 20:00,ZGHA 092000Z 18002MPS 7000 NSC 26/24 Q0998 NOSIG
ZGHA,2012-06-09 21:00,ZGHA 092100Z 18002MPS 7000 NSC 26/24 Q0998 NOSIG
ZGHA,2012-06-09 22:00,ZGHA 092200Z VRB01MPS 8000 NSC 26/24 Q0998 NOSIG
ZGHA,2012-06-09 23:00,ZGHA 092300Z 16002MPS 8000 NSC 26/24 Q0998 NOSIG
ZGHA,2012-06-10 00:00,ZGHA 100000Z 17004MPS 9999 FEW050 28/24 Q0998 NOSIG
ZGHA,2012-06-10 01:00,ZGHA 100100Z 18003MPS 9999 FEW050 28/25 Q0998 NOSIG
ZGHA,2012-06-10 02:00,ZGHA 100200Z 21003MPS 180V240 9999 SCT020 29/25 Q0998 NOSIG
ZGHA,2012-06-10 03:00,ZGHA 100300Z 22002MPS 160V260 9999 SCT033 30/25 Q0998 NOSIG
ZGHA,2012-06-10 04:00,ZGHA 100400Z VRB01MPS 9999 SCT020 30/24 Q0998 NOSIG
ZGHA,2012-06-10 05:00,ZGHA 100500Z 07003MPS 040V100 8000 -SHRA FEW012 FEW050CB SCT050 27/24 Q0997 NOSIG
ZGHA,2012-06-10 06:00,ZGHA 100600Z 13002MPS 090V160 7000 -TSRA SCT009 FEW050CB BKN050 26/24 Q0997 BECMG TL0630 -SHRA
ZGHA,2012-06-10 07:00,ZGHA 100700Z 06004MPS 010V130 9999 SCT033 27/24 Q0996 RETSRA NOSIG
ZGHA,2012-06-10 08:00,ZGHA 100800Z 06005MPS 020V080 9999 FEW040CB SCT040 27/23 Q0996 TEMPO -TSRA
ZGHA,2012-06-10 09:00,ZGHA 100900Z 03003MPS 360V080 6000 -TSRA FEW011 FEW050CB BKN050 26/24 Q0996 BECMG TL1030 -SHRA
ZGHA,2012-06-10 10:00,ZGHA 101000Z VRB01MPS 7000 -TSRA FEW011 FEW050CB BKN050 25/24 Q0996 BECMG TL1200 -SHRA
ZGHA,2012-06-10 11:00,ZGHA 101100Z VRB01MPS 7000 -SHRA FEW011 FEW050CB BKN050 25/24 Q0996 RETS BECMG TL1200 -TSRA
ZGHA,2012-06-10 12:00,ZGHA 101200Z VRB01MPS 7000 -RA SCT007 OVC050 25/24 Q0997 NOSIG
ZGHA,2012-06-10 13:00,ZGHA 101300Z VRB01MPS 5000 RA BR SCT008 OVC050 25/23 Q0998 BECMG TL1330 -RA
ZGHA,2012-06-10 14:00,ZGHA 101400Z VRB01MPS 6000 SCT012 OVC050 24/23 Q0997 RERA NOSIG
ZGHA,2012-06-10 15:00,ZGHA 101500Z 02002MPS 7000 SCT008 OVC050 24/23 Q0997 NOSIG
ZGHA,2012-06-10 16:00,ZGHA 101600Z 36001MPS 6000 SCT007 OVC050 24/23 Q0997 NOSIG
ZGHA,2012-06-10 17:00,ZGHA 101700Z 35003MPS 5000 BR SCT007 OVC050 24/23 Q0996 NOSIG
ZGHA,2012-06-10 18:00,ZGHA 101800Z 35002MPS 310V030 7000 SCT010 24/23 Q0996 NOSIG
ZGHA,2012-06-10 19:00,ZGHA 101900Z VRB01MPS 6000 SCT020 24/23 Q0996 NOSIG
ZGHA,2012-06-10 20:00,ZGHA 102000Z VRB01MPS 8000 -RA FEW010 SCT020 24/23 Q0996 NOSIG
ZGHA,2012-06-10 21:00,ZGHA 102100Z 02002MPS 7000 SCT023 24/23 Q0996 NOSIG
ZGHA,2012-06-10 22:00,ZGHA 102200Z 36001MPS 7000 -RA FEW009 SCT023 OVC050 24/23 Q0997 NOSIG
ZGHA,2012-06-10 23:00,ZGHA 102300Z 36003MPS 5000 -RA BR SCT008 OVC050 24/23 Q0998 NOSIG
ZGHA,2012-06-11 00:00,ZGHA 110000Z 02002MPS 360V070 4000 -RA BR FEW004 BKN008 OVC050 24/23 Q0998 NOSIG
ZGHA,2012-06-11 01:00,ZGHA 110100Z 36003MPS 5000 -RA BR FEW004 BKN008 OVC050 25/23 Q0999 BECMG TL0240 FEW006 BKN011 OVC050
ZGHA,2012-06-11 02:00,ZGHA 110200Z 35003MPS 7000 BKN008 OVC050 26/23 Q0999 BECMG TL0400 BKN011 OVC050
ZGHA,2012-06-11 03:00,ZGHA 110300Z 35003MPS 8000 -RA BKN008 OVC050 26/24 Q0999 BECMG TL0400 BKN011 OVC050
ZGHA,2012-06-11 04:00,ZGHA 110400Z 01004MPS 6000 -RA BKN008 OVC050 26/23 Q0999 BECMG TL0600 BKN011 OVC050
ZGHA,2012-06-11 05:00,ZGHA 110500Z 36005MPS 4000 -RA BR BKN008 OVC050 25/23 Q0999 NOSIG
ZGHA,2012-06-11 06:00,ZGHA 110600Z 36004MPS 8000 -RA BKN009 OVC050 25/22 Q0999 BECMG TL0700 BKN011 OVC050
ZGHA,2012-06-11 07:00,ZGHA 110700Z 36003MPS 330V030 8000 BKN009 OVC050 26/22 Q0998 BECMG TL0800 BKN011 OVC050
ZGHA,2012-06-11 08:00,ZGHA 110800Z 36003MPS 7000 NSC 26/23 Q0998 NOSIG
ZGHA,2012-06-11 09:00,ZGHA 110900Z 00000MPS 7000 NSC 26/22 Q0998 NOSIG
ZGHA,2012-06-11 10:00,ZGHA 111000Z 27002MPS 240V320 6000 NSC 26/23 Q0998 NOSIG
ZGHA,2012-06-11 11:00,ZGHA 111100Z 28002MPS 240V330 5000 BR NSC 26/22 Q0999 NOSIG
ZGHA,2012-06-11 12:00,ZGHA 111200Z VRB01MPS 5000 BR SCT023 25/22 Q1000 NOSIG
ZGHA,2012-06-11 13:00,ZGHA 111300Z VRB01MPS 3500 BR NSC 25/23 Q1000 BECMG TL1500 2500
ZGHA,2012-06-11 14:00,ZGHA 111400Z 14001MPS 3000 BR NSC 24/23 Q1001 BECMG TL1500 2500
ZGHA,2012-06-11 15:00,ZGHA 111500Z VRB01MPS 2500 BR NSC 24/23 Q1001 NOSIG
ZGHA,2012-06-11 16:00,ZGHA 111600Z VRB01MPS 2300 BR SCT009 24/23 Q1001 BECMG BKN009
ZGHA,2012-06-11 17:00,ZGHA 111700Z VRB01MPS 2500 BR SCT009 24/23 Q1000 NOSIG
ZGHA,2012-06-11 18:00,ZGHA 111800Z VRB01MPS 2200 BR SCT009 24/23 Q1000 NOSIG
ZGHA,2012-06-11 19:00,ZGHA 111900Z 00000MPS 2200 BR SCT009 24/23 Q1000 NOSIG
ZGHA,2012-06-11 20:00,ZGHA 112000Z VRB01MPS 1800 BR SCT009 24/23 Q1001 NOSIG
ZGHA,2012-06-11 21:00,ZGHA 112100Z VRB01MPS 1700 BR SCT006 24/23 Q1001 NOSIG
ZGHA,2012-06-11 22:00,ZGHA 112200Z VRB01MPS 0700 R36/0900V1000N FG SCT006 OVC050 24/23 Q1001 BECMG TL2400 1100 BR
ZGHA,2012-06-11 23:00,ZGHA 112300Z 26001MPS 0600 R36/0750V0900N FG SCT006 OVC050 24/23 Q1001 BECMG TL2400 1100 BR
ZGHA,2012-06-12 00:00,ZGHA 120000Z 36002MPS 340V050 0600 R36/0700N FG SCT006 25/23 Q1001 BECMG TL0100 1200 BR
ZGHA,2012-06-12 01:00,ZGHA 120100Z VRB01MPS 0700 R36/0700N FG SCT005 26/23 Q1001 BECMG TL0200 1300 BR
ZGHA,2012-06-12 02:00,ZGHA 120200Z VRB01MPS 0700 R36/0650N FG SCT005 28/23 Q1001 BECMG TL0300 1100 BR
ZGHA,2012-06-12 03:00,ZGHA 120300Z VRB01MPS 1000 R36/0800V0900N BR NSC 29/23 Q1001 BECMG TL0430 1700
ZGHA,2012-06-12 04:00,ZGHA 120400Z 34002MPS 270V010 1200 R36/1000V1100N HZ NSC 31/22 Q1001 BECMG TL0510 1700
ZGHA,2012-06-12 05:00,ZGHA 120500Z 34003MPS 300V030 2200 HZ NSC 32/20 Q1000 BECMG TL0600 3500
ZGHA,2012-06-12 06:00,ZGHA 120600Z 36003MPS 320V060 2700 HZ NSC 33/18 Q0999 BECMG TL0700 3500
ZGHA,2012-06-12 07:00,ZGHA 120700Z 01004MPS 350V070 4000 HZ NSC 33/16 Q0999 NOSIG
ZGHA,2012-06-12 08:00,ZGHA 120800Z 34003MPS 300V030 4000 HZ NSC 33/17 Q0999 NOSIG
ZGHA,2012-06-12 09:00,ZGHA 120900Z 29004MPS 1400 R36/1400N HZ NSC 32/22 Q0998 NOSIG
ZGHA,2012-06-12 10:00,ZGHA 121000Z 31003MPS 1400 R36/1500N HZ NSC 31/22 Q0998 NOSIG
ZGHA,2012-06-12 11:00,ZGHA 121100Z 33004MPS 1400 R36/1900N HZ NSC 30/23 Q0999 NOSIG
ZGHA,2012-06-12 12:00,ZGHA 121200Z VRB01MPS 1800 BR NSC 29/23 Q1000 NOSIG
ZGHA,2012-06-12 13:00,ZGHA 121300Z 06002MPS 1600 BR NSC 27/24 Q1000 NOSIG
ZGHA,2012-06-12 14:00,ZGHA 121400Z 35001MPS 1800 BR NSC 27/22 Q1001 NOSIG
ZGHA,2012-06-12 15:00,ZGHA 121500Z 36001MPS 2000 BR NSC 26/23 Q1001 NOSIG
ZGHA,2012-06-12 16:00,ZGHA 121600Z VRB01MPS 1600 BR NSC 25/23 Q1001 NOSIG
ZGHA,2012-06-12 17:00,ZGHA 121700Z 04002MPS 1200 R36/1500D BR NSC 25/23 Q1001 BECMG 0700 FG
ZGHA,2012-06-12 18:00,ZGHA 121800Z 00000MPS 1000 R36/0800V1100D BR NSC 24/23 Q1001 NOSIG
ZGHA,2012-06-12 19:00,ZGHA 121900Z 06001MPS 1000 R36/1700N BR NSC 23/22 Q1001 NOSIG
ZGHA,2012-06-12 20:00,ZGHA 122000Z VRB01MPS 2400 BR NSC 23/21 Q1001 NOSIG
ZGHA,2012-06-12 21:00,ZGHA 122100Z 08001MPS 2500 BR NSC 22/20 Q1001 NOSIG
ZGHA,2012-06-12 22:00,ZGHA 122200Z VRB01MPS 2500 BR NSC 22/20 Q1001 NOSIG
ZGHA,2012-06-12 23:00,ZGHA 122300Z 13001MPS 2500 BR NSC 23/20 Q1001 BECMG TL0010 3000
ZGHA,2012-06-13 00:00,ZGHA 130000Z VRB01MPS 2700 BR NSC 24/21 Q1002 BECMG TL0100 3500
ZGHA,2012-06-13 01:00,ZGHA 130100Z VRB01MPS 3000 BR NSC 26/21 Q1002 NOSIG
ZGHA,2012-06-13 02:00,ZGHA 130200Z VRB01MPS 3000 HZ NSC 28/23 Q1002 NOSIG
ZGHA,2012-06-13 03:00,ZGHA 130300Z VRB01MPS 3500 HZ NSC 30/23 Q1002 NOSIG
ZGHA,2012-06-13 04:00,ZGHA 130400Z VRB01MPS 3500 HZ NSC 32/23 Q1001 NOSIG
ZGHA,2012-06-13 05:00,ZGHA 130500Z 17002MPS 120V210 4000 HZ NSC 32/22 Q1000 NOSIG
ZGHA,2012-06-13 06:00,ZGHA 130600Z VRB02MPS 4000 HZ NSC 33/23 Q1000 NOSIG
ZGHA,2012-06-13 07:00,ZGHA 130700Z VRB01MPS 5000 HZ NSC 33/23 Q0999 NOSIG
ZGHA,2012-06-13 08:00,ZGHA 130800Z VRB01MPS 4500 HZ NSC 33/23 Q0999 NOSIG
ZGHA,2012-06-13 09:00,ZGHA 130900Z VRB01MPS 4000 HZ NSC 33/24 Q0998 NOSIG
ZGHA,2012-06-13 10:00,ZGHA 131000Z VRB01MPS 3500 HZ NSC 32/25 Q0999 BECMG TL1200 2500
ZGHA,2012-06-13 11:00,ZGHA 131100Z 10001MPS 3000 HZ NSC 31/24 Q0999 BECMG TL1200 2500
ZGHA,2012-06-13 12:00,ZGHA 131200Z VRB01MPS 3500 BR NSC 30/24 Q0999 NOSIG
ZGHA,2012-06-13 13:00,ZGHA 131300Z 08001MPS 3000 BR NSC 28/25 Q1000 BECMG TL1400 2500
ZGHA,2012-06-13 14:00,ZGHA 131400Z 03001MPS 3000 BR NSC 28/24 Q1000 BECMG TL1500 2500
ZGHA,2012-06-13 15:00,ZGHA 131500Z VRB01MPS 2500 BR NSC 27/24 Q1001 NOSIG
ZGHA,2012-06-13 16:00,ZGHA 131600Z 00000MPS 3000 BR NSC 27/23 Q1000 BECMG TL1700 2500
ZGHA,2012-06-13 17:00,ZGHA 131700Z 01001MPS 3500 BR NSC 26/22 Q1000 NOSIG
ZGHA,2012-06-13 18:00,ZGHA 131800Z 01002MPS 3000 BR NSC 26/23 Q1000 NOSIG
ZGHA,2012-06-13 19:00,ZGHA 131900Z 01002MPS 3000 BR NSC 25/23 Q1000 NOSIG
ZGHA,2012-06-13 20:00,ZGHA 132000Z VRB01MPS 2500 BR NSC 25/23 Q1000 NOSIG
ZGHA,2012-06-13 21:00,ZGHA 132100Z VRB01MPS 3000 BR NSC 25/23 Q1000 NOSIG
ZGHA,2012-06-13 22:00,ZGHA 132200Z 00000MPS 1800 BR NSC 25/23 Q1001 NOSIG
ZGHA,2012-06-13 23:00,ZGHA 132300Z 03002MPS 360V060 2500 BR NSC 26/23 Q1001 BECMG TL2400 3500
ZGHA,2012-06-14 00:00,ZGHA 140000Z VRB01MPS 3000 BR NSC 28/23 Q1001 NOSIG
ZGHA,2012-06-14 01:00,ZGHA 140100Z VRB01MPS 3000 BR NSC 30/24 Q1001 NOSIG
ZGHA,2012-06-14 02:00,ZGHA 140200Z VRB01MPS 3500 HZ NSC 31/24 Q1001 NOSIG
ZGHA,2012-06-14 03:00,ZGHA 140300Z 16002MPS 120V200 5000 HZ NSC 32/23 Q1001 NOSIG
ZGHA,2012-06-14 04:00,ZGHA 140400Z 23002MPS 140V270 5000 HZ NSC 33/24 Q1001 NOSIG
ZGHA,2012-06-14 05:00,ZGHA 140500Z VRB02MPS 6000 NSC 33/24 Q1000 NOSIG
ZGHA,2012-06-14 06:00,ZGHA 140600Z 30003MPS 260V330 6000 NSC 33/24 Q0999 NOSIG
ZGHA,2012-06-14 07:00,ZGHA 140700Z 34006MPS 4000 HZ NSC 33/24 Q0999 NOSIG
ZGHA,2012-06-14 08:00,ZGHA 140800Z 04004MPS 340V080 6000 -TSRA SCT012 FEW040CB BKN040 27/20 Q1000 BECMG TL0900 -SHRA
ZGHA,2012-06-14 09:00,ZGHA 140900Z 08004MPS 040V130 5000 -RA BR SCT012 OVC050 24/22 Q1000 RETSRA NOSIG
ZGHA,2012-06-14 10:00,ZGHA 141000Z 08003MPS 040V140 5000 BR BKN020 OVC050 25/22 Q1002 NOSIG
ZGHA,2012-06-14 11:00,ZGHA 141100Z 04002MPS 290V100 5000 -RA BR FEW013 BKN020 OVC050 24/22 Q1001 NOSIG
ZGHA,2012-06-14 12:00,ZGHA 141200Z 02002MPS 350V060 6000 SCT050 24/22 Q1002 NOSIG
ZGHA,2012-06-14 13:00,ZGHA 141300Z 05004MPS 340V090 7000 NSC 24/21 Q1003 NOSIG
ZGHA,2012-06-14 14:00,ZGHA 141400Z 02002MPS 340V090 7000 NSC 23/21 Q1004 NOSIG
ZGHA,2012-06-14 15:00,ZGHA 141500Z VRB01MPS 6000 NSC 23/21 Q1004 NOSIG
ZGHA,2012-06-14 16:00,ZGHA 141600Z VRB01MPS 6000 NSC 23/21 Q1004 NOSIG
ZGHA,2012-06-14 17:00,ZGHA 141700Z 32003MPS 6000 NSC 23/21 Q1003 NOSIG
ZGHA,2012-06-14 18:00,ZGHA 141800Z VRB01MPS 6000 NSC 23/20 Q1003 NOSIG
ZGHA,2012-06-14 19:00,ZGHA 141900Z 07001MPS 5000 BR NSC 22/21 Q1003 NOSIG
ZGHA,2012-06-14 20:00,ZGHA 142000Z VRB01MPS 4000 BR NSC 22/20 Q1003 NOSIG
ZGHA,2012-06-14 21:00,ZGHA 142100Z VRB01MPS 4000 BR NSC 22/20 Q1003 NOSIG
ZGHA,2012-06-14 22:00,ZGHA 142200Z 36001MPS 4000 BR NSC 21/20 Q1003 NOSIG
ZGHA,2012-06-14 23:00,ZGHA 142300Z 36002MPS 6000 NSC 22/20 Q1004 NOSIG
ZGHA,2012-06-15 00:00,ZGHA 150000Z VRB01MPS 8000 NSC 24/20 Q1004 NOSIG
ZGHA,2012-06-15 01:00,ZGHA 150100Z 36004MPS 8000 NSC 26/20 Q1004 NOSIG
ZGHA,2012-06-15 02:00,ZGHA 150200Z 01004MPS 340V040 6000 NSC 27/21 Q1004 NOSIG
ZGHA,2012-06-15 03:00,ZGHA 150300Z 02003MPS 330V070 7000 NSC 29/21 Q1004 NOSIG
ZGHA,2012-06-15 04:00,ZGHA 150400Z 03003MPS 350V080 7000 NSC 31/20 Q1004 NOSIG
ZGHA,2012-06-15 05:00,ZGHA 150500Z 03002MPS 340V090 8000 NSC 31/20 Q1003 NOSIG
ZGHA,2012-06-15 06:00,ZGHA 150600Z 01003MPS 340V040 8000 NSC 32/20 Q1003 NOSIG
ZGHA,2012-06-15 07:00,ZGHA 150700Z 02003MPS 340V100 8000 NSC 33/19 Q1002 NOSIG
ZGHA,2012-06-15 08:00,ZGHA 150800Z 36003MPS 330V060 8000 NSC 33/19 Q1002 NOSIG
ZGHA,2012-06-15 09:00,ZGHA 150900Z 36003MPS 340V040 3500 HZ NSC 33/21 Q1001 NOSIG
ZGHA,2012-06-15 10:00,ZGHA 151000Z 34006MPS 290V360 3200 HZ FEW033 31/22 Q1002 NOSIG
ZGHA,2012-06-15 11:00,ZGHA 151100Z 33005MPS 2700 HZ NSC 30/22 Q1002 NOSIG
ZGHA,2012-06-15 12:00,ZGHA 151200Z 35004MPS 3500 HZ NSC 29/20 Q1002 NOSIG
ZGHA,2012-06-15 13:00,ZGHA 151300Z 03002MPS 350V070 4000 HZ NSC 28/21 Q1003 NOSIG
ZGHA,2012-06-15 14:00,ZGHA 151400Z 35003MPS 3500 BR NSC 26/21 Q1004 NOSIG
ZGHA,2012-06-15 15:00,ZGHA 151500Z 33003MPS 3000 BR NSC 27/21 Q1004 BECMG TL1600 2500
ZGHA,2012-06-15 16:00,ZGHA 151600Z 04002MPS 3000 BR NSC 25/22 Q1004 NOSIG
ZGHA,2012-06-15 17:00,ZGHA 151700Z 01002MPS 3000 BR NSC 25/22 Q1004 NOSIG
ZGHA,2012-06-15 18:00,ZGHA 151800Z 01002MPS 3000 BR NSC 25/21 Q1004 NOSIG
ZGHA,2012-06-15 19:00,ZGHA 151900Z VRB01MPS 2200 BR NSC 25/21 Q1004 NOSIG
ZGHA,2012-06-15 20:00,ZGHA 152000Z VRB01MPS 2000 BR NSC 24/22 Q1004 NOSIG
ZGHA,2012-06-15 21:00,ZGHA 152100Z VRB01MPS 1600 BR NSC 24/22 Q1004 NOSIG
ZGHA,2012-06-15 22:00,ZGHA 152200Z 36001MPS 1600 R36/0800V0900N BR NSC 23/22 Q1004 NOSIG
ZGHA,2012-06-15 23:00,ZGHA 152300Z VRB01MPS 1600 R36/1000V1100N BR NSC 24/22 Q1004 NOSIG
ZGHA,2012-06-16 00:00,ZGHA 160000Z VRB01MPS 1800 R36/1300U BR NSC 26/22 Q1005 BECMG TL0130 3000
ZGHA,2012-06-16 01:00,ZGHA 160100Z 04002MPS 320V090 2200 BR NSC 27/22 Q1005 BECMG TL0200 3000
ZGHA,2012-06-16 02:00,ZGHA 160200Z 02002MPS 320V080 3500 HZ NSC 29/22 Q1005 NOSIG
ZGHA,2012-06-16 03:00,ZGHA 160300Z 01002MPS 330V080 4500 HZ NSC 30/21 Q1005 NOSIG
ZGHA,2012-06-16 04:00,ZGHA 160400Z 02002MPS 340V080 4500 HZ NSC 31/21 Q1005 NOSIG
ZGHA,2012-06-16 05:00,ZGHA 160500Z 04002MPS 340V080 5000 HZ NSC 32/21 Q1004 NOSIG
ZGHA,2012-06-16 06:00,ZGHA 160600Z 06002MPS 350V100 5000 HZ NSC 32/21 Q1003 NOSIG
ZGHA,2012-06-16 07:00,ZGHA 160700Z 02002MPS 340V070 5000 HZ NSC 32/21 Q1003 NOSIG
ZGHA,2012-06-16 08:00,ZGHA 160800Z 02002MPS 340V050 5000 HZ NSC 32/21 Q1002 NOSIG
ZGHA,2012-06-16 09:00,ZGHA 160900Z 01004MPS 6000 NSC 31/21 Q1002 NOSIG
ZGHA,2012-06-16 10:00,ZGHA 161000Z 01002MPS 340V050 6000 NSC 30/23 Q1002 NOSIG
ZGHA,2012-06-16 11:00,ZGHA 161100Z VRB01MPS 5000 HZ NSC 29/23 Q1003 BECMG TL1130 - TSRA FEW033CB
ZGHA,2012-06-16 12:00,ZGHA 161200Z VRB02MPS 4000 -TSRA BR BKN007 FEW050CB BKN050 27/22 Q1004 BECMG TL1245 NSW SCT020
ZGHA,2012-06-16 13:00,ZGHA 161300Z VRB01MPS 4000 BR SCT012 OVC050 26/22 Q1005 RETS NOSIG
ZGHA,2012-06-16 14:00,ZGHA 161400Z 06002MPS 3500 BR FEW012 26/22 Q1005 BECMG TL1600 2500
ZGHA,2012-06-16 15:00,ZGHA 161500Z 06002MPS 020V090 3000 BR SCT020 25/22 Q1005 BECMG TL1600 2200
ZGHA,2012-06-16 16:00,ZGHA 161600Z 02002MPS 3500 BR SCT020 25/21 Q1005 NOSIG
ZGHA,2012-06-16 17:00,ZGHA 161700Z 05002MPS 010V080 4000 BR NSC 24/19 Q1005 NOSIG
ZGHA,2012-06-16 18:00,ZGHA 161800Z VRB01MPS 4500 BR NSC 24/18 Q1004 NOSIG
ZGHA,2012-06-16 19:00,ZGHA 161900Z 02001MPS 4500 BR NSC 23/18 Q1004 NOSIG
ZGHA,2012-06-16 20:00,ZGHA 162000Z 01002MPS 5000 BR NSC 23/18 Q1004 NOSIG
ZGHA,2012-06-16 21:00,ZGHA 162100Z 02002MPS 350V050 5000 BR NSC 23/18 Q1004 NOSIG
ZGHA,2012-06-16 22:00,ZGHA 162200Z 01002MPS 6000 NSC 23/17 Q1004 NOSIG
ZGHA,2012-06-16 23:00,ZGHA 162300Z 07002MPS 040V100 6000 NSC 23/18 Q1005 NOSIG
ZGHA,2012-06-17 00:00,ZGHA 170000Z 05002MPS 350V090 6000 SCT050 24/18 Q1005 NOSIG
ZGHA,2012-06-17 01:00,ZGHA 170100Z 07002MPS 020V130 6000 OVC050 26/18 Q1005 NOSIG
ZGHA,2012-06-17 02:00,ZGHA 170200Z 13002MPS 090V150 6000 OVC050 27/19 Q1005 NOSIG
ZGHA,2012-06-17 03:00,ZGHA 170300Z 10003MPS 050V150 7000 NSC 29/20 Q1005 NOSIG
ZGHA,2012-06-17 04:00,ZGHA 170400Z 07002MPS 010V150 8000 NSC 29/21 Q1005 NOSIG
ZGHA,2012-06-17 05:00,ZGHA 170500Z 06002MPS 310V100 8000 FEW040 30/22 Q1004 NOSIG
ZGHA,2012-06-17 06:00,ZGHA 170600Z 07004MPS 030V140 8000 NSC 30/22 Q1003 NOSIG
ZGHA,2012-06-17 07:00,ZGHA 170700Z 13003MPS 100V160 CAVOK 30/21 Q1003 NOSIG
ZGHA,2012-06-17 08:00,ZGHA 170800Z 11003MPS 080V140 CAVOK 30/21 Q1003 NOSIG
ZGHA,2012-06-17 09:00,ZGHA 170900Z 11003MPS 060V130 9999 BKN046 29/20 Q1003 NOSIG
ZGHA,2012-06-17 10:00,ZGHA 171000Z 14003MPS 9999 BKN040 29/21 Q1003 NOSIG
ZGHA,2012-06-17 11:00,ZGHA 171100Z 14002MPS 9999 BKN040 28/21 Q1003 NOSIG
ZGHA,2012-06-17 12:00,ZGHA 171200Z 14002MPS 9999 BKN040 26/21 Q1004 NOSIG
ZGHA,2012-06-17 13:00,ZGHA 171300Z 15002MPS 7000 SCT050 25/21 Q1004 NOSIG
ZGHA,2012-06-17 14:00,ZGHA 171400Z 13003MPS 7000 NSC 25/20 Q1004 NOSIG
ZGHA,2012-06-17 15:00,ZGHA 171500Z 15002MPS 8000 NSC 24/20 Q1004 NOSIG
ZGHA,2012-06-17 16:00,ZGHA 171600Z VRB01MPS 7000 NSC 24/20 Q1004 NOSIG
ZGHA,2012-06-17 17:00,ZGHA 171700Z 27001MPS 6000 NSC 24/20 Q1003 NOSIG
ZGHA,2012-06-17 18:00,ZGHA 171800Z VRB01MPS 7000 NSC 23/20 Q1003 NOSIG
ZGHA,2012-06-17 19:00,ZGHA 171900Z VRB01MPS 6000 NSC 23/21 Q1002 NOSIG
ZGHA,2012-06-17 20:00,ZGHA 172000Z VRB01MPS 5000 BR NSC 23/21 Q1002 NOSIG
ZGHA,2012-06-17 21:00,ZGHA 172100Z VRB01MPS 4500 BR NSC 22/20 Q1003 NOSIG
ZGHA,2012-06-17 22:00,ZGHA 172200Z 00000MPS 6000 NSC 23/21 Q1003 NOSIG
ZGHA,2012-06-17 23:00,ZGHA 172300Z VRB01MPS 6000 NSC 24/20 Q1003 NOSIG
ZGHA,2012-06-18 00:00,ZGHA 180000Z VRB01MPS 8000 NSC 25/20 Q1003 NOSIG
ZGHA,2012-06-18 01:00,ZGHA 180100Z VRB01MPS 8000 NSC 27/21 Q1003 NOSIG
ZGHA,2012-06-18 02:00,ZGHA 180200Z VRB01MPS 8000 NSC 27/21 Q1003 NOSIG
ZGHA,2012-06-18 03:00,ZGHA 180300Z VRB01MPS 9000 NSC 29/22 Q1003 NOSIG
ZGHA,2012-06-18 04:00,ZGHA 180400Z VRB02MPS 9000 FEW033 29/21 Q1002 NOSIG
ZGHA,2012-06-18 05:00,ZGHA 180500Z 36002MPS 310V100 8000 SCT033 31/22 Q1001 NOSIG
ZGHA,2012-06-18 06:00,ZGHA 180600Z 36002MPS 280V060 8000 SCT040 32/21 Q1001 NOSIG
ZGHA,2012-06-18 07:00,ZGHA 180700Z 03002MPS 350V080 9999 SCT040 32/20 Q1000 NOSIG
ZGHA,2012-06-18 08:00,ZGHA 180800Z 35003MPS 290V060 9999 FEW040 33/19 Q0999 NOSIG
ZGHA,2012-06-18 09:00,ZGHA 180900Z 36003MPS 330V030 9999 FEW040 32/19 Q0999 NOSIG
ZGHA,2012-06-18 10:00,ZGHA 181000Z 01002MPS 330V040 CAVOK 31/19 Q0998 NOSIG
ZGHA,2012-06-18 11:00,ZGHA 181100Z 33004MPS CAVOK 30/19 Q0999 NOSIG
ZGHA,2012-06-18 12:00,ZGHA 181200Z 33004MPS 8000 NSC 29/20 Q0999 NOSIG
ZGHA,2012-06-18 13:00,ZGHA 181300Z 36003MPS 6000 NSC 27/21 Q1000 NOSIG
ZGHA,2012-06-18 14:00,ZGHA 181400Z 03002MPS 330V090 6000 NSC 27/21 Q1000 NOSIG
ZGHA,2012-06-18 15:00,ZGHA 181500Z 03001MPS 5000 BR NSC 25/22 Q1000 NOSIG
ZGHA,2012-06-18 16:00,ZGHA 181600Z VRB01MPS 6000 NSC 26/21 Q1000 NOSIG
ZGHA,2012-06-18 17:00,ZGHA 181700Z 04002MPS 5000 BR NSC 25/22 Q0999 NOSIG
ZGHA,2012-06-18 18:00,ZGHA 181800Z 02001MPS 5000 BR NSC 25/21 Q0999 NOSIG
ZGHA,2012-06-18 19:00,ZGHA 181900Z 36001MPS 4700 BR FEW050 24/22 Q0999 NOSIG
ZGHA,2012-06-18 20:00,ZGHA 182000Z 00000MPS 4000 BR NSC 24/22 Q0998 NOSIG
ZGHA,2012-06-18 21:00,ZGHA 182100Z 36002MPS 5000 BR SCT050 24/22 Q0999 NOSIG
ZGHA,2012-06-18 22:00,ZGHA 182200Z 36002MPS 4500 BR NSC 24/21 Q0999 NOSIG
ZGHA,2012-06-18 23:00,ZGHA 182300Z VRB01MPS 4500 BR NSC 25/21 Q0999 NOSIG
ZGHA,2012-06-19 00:00,ZGHA 190000Z VRB01MPS 7000 NSC 26/21 Q0999 NOSIG
ZGHA,2012-06-19 01:00,ZGHA 190100Z 02002MPS 340V090 7000 NSC 27/22 Q0999 NOSIG
ZGHA,2012-06-19 02:00,ZGHA 190200Z VRB01MPS 8000 NSC 30/22 Q0999 NOSIG
ZGHA,2012-06-19 03:00,ZGHA 190300Z 36002MPS 280V090 9000 SCT030 31/21 Q0999 NOSIG
ZGHA,2012-06-19 04:00,ZGHA 190400Z VRB02MPS 9999 SCT030 32/21 Q0999 NOSIG
ZGHA,2012-06-19 05:00,ZGHA 190500Z 36002MPS 330V040 CAVOK 32/21 Q0998 NOSIG
ZGHA,2012-06-19 06:00,ZGHA 190600Z 02003MPS 350V070 CAVOK 32/19 Q0998 NOSIG
ZGHA,2012-06-19 07:00,ZGHA 190700Z VRB01MPS CAVOK 33/20 Q0997 NOSIG
ZGHA,2012-06-19 08:00,ZGHA 190800Z VRB01MPS 9999 FEW033 33/19 Q0997 NOSIG
ZGHA,2012-06-19 09:00,ZGHA 190900Z 01003MPS CAVOK 33/20 Q0996 NOSIG
ZGHA,2012-06-19 10:00,ZGHA 191000Z 36003MPS CAVOK 32/20 Q0996 NOSIG
ZGHA,2012-06-19 11:00,ZGHA 191100Z 01002MPS CAVOK 31/20 Q0997 NOSIG
ZGHA,2012-06-19 12:00,ZGHA 191200Z 33003MPS CAVOK 30/22 Q0997 NOSIG
ZGHA,2012-06-19 13:00,ZGHA 191300Z 04002MPS 7000 NSC 28/23 Q0998 NOSIG
ZGHA,2012-06-19 14:00,ZGHA 191400Z VRB01MPS 6000 NSC 28/23 Q0998 NOSIG
ZGHA,2012-06-19 15:00,ZGHA 191500Z VRB01MPS 6000 NSC 27/24 Q0998 NOSIG
ZGHA,2012-06-19 16:00,ZGHA 191600Z 20001MPS 6000 NSC 26/23 Q0999 NOSIG
ZGHA,2012-06-19 17:00,ZGHA 191700Z VRB01MPS 4500 BR NSC 26/23 Q0998 NOSIG
ZGHA,2012-06-19 18:00,ZGHA 191800Z VRB01MPS 4000 BR NSC 25/23 Q0998 NOSIG
ZGHA,2012-06-19 19:00,ZGHA 191900Z 36002MPS 4000 BR NSC 25/23 Q0998 NOSIG
ZGHA,2012-06-19 20:00,ZGHA 192000Z VRB01MPS 4500 BR NSC 25/23 Q0998 NOSIG
ZGHA,2012-06-19 21:00,ZGHA 192100Z 02002MPS 5000 BR NSC 25/22 Q0998 NOSIG
ZGHA,2012-06-19 22:00,ZGHA 192200Z VRB01MPS 4000 BR NSC 24/22 Q0999 NOSIG
ZGHA,2012-06-19 23:00,ZGHA 192300Z 06002MPS 010V120 4500 BR NSC 25/22 Q0999 NOSIG
ZGHA,2012-06-20 00:00,ZGHA 200000Z 06002MPS 010V110 5000 BR NSC 27/22 Q0999 NOSIG
ZGHA,2012-06-20 01:00,ZGHA 200100Z 05002MPS 340V090 7000 NSC 28/22 Q1000 NOSIG
ZGHA,2012-06-20 02:00,ZGHA 200200Z VRB01MPS 7000 NSC 30/21 Q1000 NOSIG
ZGHA,2012-06-20 03:00,ZGHA 200300Z 13002MPS 080V180 7000 NSC 32/21 Q1000 NOSIG
ZGHA,2012-06-20 04:00,ZGHA 200400Z VRB01MPS 8000 SCT040 32/21 Q0999 NOSIG
ZGHA,2012-06-20 05:00,ZGHA 200500Z 04002MPS 340V090 8000 SCT030 32/21 Q0999 NOSIG
ZGHA,2012-06-20 06:00,ZGHA 200600Z 04002MPS 330V100 8000 SCT030 33/21 Q0999 NOSIG
ZGHA,2012-06-20 07:00,ZGHA 200700Z 02002MPS 340V070 8000 SCT033 33/21 Q0999 NOSIG
ZGHA,2012-06-20 08:00,ZGHA 200800Z 02002MPS 330V110 8000 FEW030 33/21 Q0998 NOSIG
ZGHA,2012-06-20 09:00,ZGHA 200900Z 04002MPS 360V080 8000 NSC 33/21 Q0998 NOSIG
ZGHA,2012-06-20 10:00,ZGHA 201000Z 01003MPS 8000 NSC 32/21 Q0998 NOSIG
ZGHA,2012-06-20 11:00,ZGHA 201100Z 33004MPS 6000 NSC 32/22 Q0999 NOSIG
ZGHA,2012-06-20 12:00,ZGHA 201200Z 32003MPS 6000 NSC 31/22 Q0999 NOSIG
ZGHA,2012-06-20 13:00,ZGHA 201300Z 32002MPS 270V340 6000 NSC 30/22 Q1000 NOSIG
ZGHA,2012-06-20 14:00,ZGHA 201400Z VRB01MPS 5000 BR NSC 28/24 Q1001 NOSIG
ZGHA,2012-06-20 15:00,ZGHA 201500Z 20002MPS 5000 BR NSC 28/23 Q1001 NOSIG
ZGHA,2012-06-20 16:00,ZGHA 201600Z 22002MPS 180V250 6000 NSC 28/23 Q1002 NOSIG
ZGHA,2012-06-20 17:00,ZGHA 201700Z VRB01MPS 6000 NSC 27/22 Q1001 NOSIG
ZGHA,2012-06-20 18:00,ZGHA 201800Z VRB01MPS 5000 BR NSC 26/23 Q1001 NOSIG
ZGHA,2012-06-20 19:00,ZGHA 201900Z 21001MPS 5000 BR NSC 25/23 Q1001 NOSIG
ZGHA,2012-06-20 20:00,ZGHA 202000Z 00000MPS 5000 BR NSC 25/23 Q1001 NOSIG
ZGHA,2012-06-20 21:00,ZGHA 202100Z VRB01MPS 5000 BR NSC 25/23 Q1002 NOSIG
ZGHA,2012-06-20 22:00,ZGHA 202200Z 00000MPS 3000 BR NSC 25/23 Q1002 NOSIG
ZGHA,2012-06-20 23:00,ZGHA 202300Z VRB01MPS 4000 BR NSC 26/23 Q1003 NOSIG
ZGHA,2012-06-21 00:00,ZGHA 210000Z VRB01MPS 5000 BR NSC 27/23 Q1003 NOSIG
ZGHA,2012-06-21 01:00,ZGHA 210100Z VRB01MPS 6000 NSC 28/23 Q1003 NOSIG
ZGHA,2012-06-21 02:00,ZGHA 210200Z VRB01MPS 7000 NSC 30/22 Q1004 NOSIG
ZGHA,2012-06-21 03:00,ZGHA 210300Z 13002MPS 080V160 8000 NSC 31/20 Q1003 NOSIG
ZGHA,2012-06-21 04:00,ZGHA 210400Z 16002MPS 130V210 9000 NSC 32/21 Q1004 NOSIG
ZGHA,2012-06-21 05:00,ZGHA 210500Z VRB01MPS 9000 NSC 32/21 Q1003 NOSIG
ZGHA,2012-06-21 06:00,ZGHA 210600Z VRB01MPS 9000 NSC 32/22 Q1003 NOSIG
ZGHA,2012-06-21 07:00,ZGHA 210700Z VRB01MPS 8000 NSC 31/22 Q1002 NOSIG
ZGHA,2012-06-21 08:00,ZGHA 210800Z 08002MPS 020V110 8000 NSC 31/23 Q1001 NOSIG
ZGHA,2012-06-21 09:00,ZGHA 210900Z VRB01MPS 8000 NSC 31/23 Q1001 NOSIG
ZGHA,2012-06-21 10:00,ZGHA 211000Z VRB01MPS 8000 NSC 31/24 Q1001 NOSIG
ZGHA,2012-06-21 11:00,ZGHA 211100Z VRB01MPS 8000 NSC 30/24 Q1002 NOSIG
ZGHA,2012-06-21 12:00,ZGHA 211200Z 02002MPS 6000 NSC 29/23 Q1002 NOSIG
ZGHA,2012-06-21 13:00,ZGHA 211300Z 00000MPS 4500 BR NSC 28/24 Q1003 NOSIG
ZGHA,2012-06-21 14:00,ZGHA 211400Z VRB01MPS 4000 -RA BR SCT050 28/24 Q1003 NOSIG
ZGHA,2012-06-21 15:00,ZGHA 211500Z VRB01MPS 4000 -RA BR SCT050 28/24 Q1004 NOSIG
ZGHA,2012-06-21 16:00,ZGHA 211600Z 02002MPS 010V090 3500 -RA BR SCT050 27/25 Q1003 NOSIG
ZGHA,2012-06-21 17:00,ZGHA 211700Z VRB01MPS 3000 -RA BR SCT050 26/25 Q1003 NOSIG
ZGHA,2012-06-21 18:00,ZGHA 211800Z 10002MPS 060V150 3000 BR NSC 26/24 Q1003 NOSIG
ZGHA,2012-06-21 19:00,ZGHA 211900Z VRB01MPS 3500 BR NSC 26/23 Q1003 NOSIG
ZGHA,2012-06-21 20:00,ZGHA 212000Z 02001MPS 3500 BR NSC 25/23 Q1002 NOSIG
ZGHA,2012-06-21 21:00,ZGHA 212100Z 36003MPS 2700 BR NSC 25/23 Q1002 NOSIG
ZGHA,2012-06-21 22:00,ZGHA 212200Z 00000MPS 3500 -RA BR SCT050 25/22 Q1003 NOSIG
ZGHA,2012-06-21 23:00,ZGHA 212300Z 00000MPS 2700 -RA BR SCT050 25/23 Q1003 NOSIG
ZGHA,2012-06-22 00:00,ZGHA 220000Z 08002MPS 020V140 3500 -RA BR SCT050 25/23 Q1003 NOSIG
ZGHA,2012-06-22 01:00,ZGHA 220100Z VRB01MPS 4500 BR SCT050 26/23 Q1004 NOSIG
ZGHA,2012-06-22 02:00,ZGHA 220200Z 13003MPS 060V180 7000 NSC 27/23 Q1003 NOSIG
ZGHA,2012-06-22 03:00,ZGHA 220300Z 11002MPS 040V160 CAVOK 28/21 Q1003 NOSIG
ZGHA,2012-06-22 04:00,ZGHA 220400Z 11002MPS 030V180 CAVOK 28/20 Q1003 NOSIG
ZGHA,2012-06-22 05:00,ZGHA 220500Z 11002MPS 040V170 CAVOK 29/21 Q1003 NOSIG
ZGHA,2012-06-22 06:00,ZGHA 220600Z 15004MPS 9999 FEW023 29/22 Q1002 NOSIG
ZGHA,2012-06-22 07:00,ZGHA 220700Z 14005MPS CAVOK 28/21 Q1002 NOSIG
ZGHA,2012-06-22 08:00,ZGHA 220800Z 14006MPS 110V170 CAVOK 28/21 Q1002 NOSIG
ZGHA,2012-06-22 09:00,ZGHA 220900Z 15005MPS CAVOK 28/21 Q1002 NOSIG
ZGHA,2012-06-22 10:00,ZGHA 221000Z 14005MPS CAVOK 27/20 Q1002 NOSIG
ZGHA,2012-06-22 11:00,ZGHA 221100Z 14005MPS 110V170 CAVOK 26/20 Q1002 NOSIG
ZGHA,2012-06-22 12:00,ZGHA 221200Z 15004MPS CAVOK 25/20 Q1002 NOSIG
ZGHA,2012-06-22 13:00,ZGHA 221300Z 16003MPS CAVOK 24/20 Q1003 NOSIG
ZGHA,2012-06-22 14:00,ZGHA 221400Z 16005MPS CAVOK 24/19 Q1003 NOSIG
ZGHA,2012-06-22 15:00,ZGHA 221500Z 17004MPS CAVOK 23/19 Q1003 NOSIG
ZGHA,2012-06-22 16:00,ZGHA 221600Z 15004MPS CAVOK 23/19 Q1002 NOSIG
ZGHA,2012-06-22 17:00,ZGHA 221700Z 18002MPS CAVOK 23/19 Q1002 NOSIG
ZGHA,2012-06-22 18:00,ZGHA 221800Z 20001MPS CAVOK 23/20 Q1002 NOSIG
ZGHA,2012-06-22 19:00,ZGHA 221900Z 00000MPS CAVOK 23/20 Q1001 NOSIG
ZGHA,2012-06-22 20:00,ZGHA 222000Z 28001MPS CAVOK 22/20 Q1001 NOSIG
ZGHA,2012-06-22 21:00,ZGHA 222100Z VRB01MPS 8000 NSC 22/20 Q1001 NOSIG
ZGHA,2012-06-22 22:00,ZGHA 222200Z VRB01MPS 8000 NSC 23/20 Q1001 BECMG TL2400 2500 -RA BR BKN012 OVC050
ZGHA,2012-06-22 23:00,ZGHA 222300Z VRB01MPS 6000 -RA FEW050 23/21 Q1001 NOSIG
ZGHA,2012-06-23 00:00,ZGHA 230000Z 17003MPS 6000 -RA FEW050 23/21 Q1002 NOSIG
ZGHA,2012-06-23 01:00,ZGHA 230100Z VRB01MPS 8000 FEW008 OVC050 24/21 Q1002 NOSIG
ZGHA,2012-06-23 02:00,ZGHA 230200Z VRB01MPS CAVOK 26/21 Q1002 NOSIG
ZGHA,2012-06-23 03:00,ZGHA 230300Z 19003MPS CAVOK 27/22 Q1002 NOSIG
ZGHA,2012-06-23 04:00,ZGHA 230400Z 20003MPS 9999 BKN020 28/22 Q1002 NOSIG
ZGHA,2012-06-23 05:00,ZGHA 230500Z 15004MPS 130V190 9999 BKN020 27/22 Q1001 NOSIG
ZGHA,2012-06-23 06:00,ZGHA 230600Z 17004MPS 130V190 9999 BKN020 28/22 Q1001 NOSIG
ZGHA,2012-06-23 07:00,ZGHA 230700Z 18003MPS 140V210 9999 BKN023 OVC050 29/21 Q1001 NOSIG
ZGHA,2012-06-23 08:00,ZGHA 230800Z 20004MPS 9999 NSC 29/21 Q1000 NOSIG
ZGHA,2012-06-23 09:00,ZGHA 230900Z 19004MPS 9999 OVC033 29/21 Q1000 NOSIG
ZGHA,2012-06-23 10:00,ZGHA 231000Z 19005MPS 9999 BKN033 27/21 Q1001 NOSIG
ZGHA,2012-06-23 11:00,ZGHA 231100Z 18004MPS 9999 OVC033 26/20 Q1001 NOSIG
ZGHA,2012-06-23 12:00,ZGHA 231200Z 19003MPS CAVOK 25/20 Q1001 NOSIG
ZGHA,2012-06-23 13:00,ZGHA 231300Z 18002MPS CAVOK 24/19 Q1002 NOSIG
ZGHA,2012-06-23 14:00,ZGHA 231400Z 19002MPS CAVOK 23/19 Q1002 NOSIG
ZGHA,2012-06-23 15:00,ZGHA 231500Z 19003MPS 8000 NSC 22/19 Q1002 NOSIG
ZGHA,2012-06-23 16:00,ZGHA 231600Z 16001MPS 8000 NSC 22/19 Q1002 NOSIG
ZGHA,2012-06-23 17:00,ZGHA 231700Z 17001MPS 7000 NSC 21/19 Q1001 NOSIG
ZGHA,2012-06-23 18:00,ZGHA 231800Z 21002MPS 7000 NSC 22/20 Q1001 NOSIG
ZGHA,2012-06-23 19:00,ZGHA 231900Z 21002MPS 7000 NSC 22/19 Q1001 NOSIG
ZGHA,2012-06-23 20:00,ZGHA 232000Z 21001MPS 6000 NSC 22/19 Q1001 NOSIG
ZGHA,2012-06-23 21:00,ZGHA 232100Z 19002MPS 7000 NSC 22/20 Q1001 NOSIG
ZGHA,2012-06-23 22:00,ZGHA 232200Z 16001MPS 8000 NSC 22/20 Q1001 NOSIG
ZGHA,2012-06-23 23:00,ZGHA 232300Z VRB01MPS 8000 SCT033 23/20 Q1001 NOSIG
ZGHA,2012-06-24 00:00,ZGHA 240000Z VRB01MPS 8000 SCT033 24/20 Q1002 NOSIG
ZGHA,2012-06-24 01:00,ZGHA 240100Z 18002MPS 130V250 9999 SCT030 27/20 Q1002 NOSIG
ZGHA,2012-06-24 02:00,ZGHA 240200Z 14003MPS 9999 SCT023 28/20 Q1002 NOSIG
ZGHA,2012-06-24 03:00,ZGHA 240300Z 16004MPS 120V190 9999 FEW026 28/20 Q1002 NOSIG
ZGHA,2012-06-24 04:00,ZGHA 240400Z 17003MPS 110V210 9999 FEW033 29/20 Q1001 NOSIG
ZGHA,2012-06-24 05:00,ZGHA 240500Z 17003MPS 120V220 9999 FEW033 30/20 Q1001 NOSIG
ZGHA,2012-06-24 06:00,ZGHA 240600Z VRB02MPS 9999 FEW033 31/21 Q1000 NOSIG
ZGHA,2012-06-24 07:00,ZGHA 240700Z 15003MPS 9999 FEW033 31/21 Q1000 NOSIG
ZGHA,2012-06-24 08:00,ZGHA 240800Z 14003MPS 070V160 9999 FEW033 31/21 Q1000 NOSIG
ZGHA,2012-06-24 09:00,ZGHA 240900Z 18002MPS 110V230 9999 FEW033 32/21 Q0999 NOSIG
ZGHA,2012-06-24 10:00,ZGHA 241000Z 14003MPS 9999 FEW033 31/21 Q0999 NOSIG
ZGHA,2012-06-24 11:00,ZGHA 241100Z 12002MPS 090V150 CAVOK 30/22 Q0999 NOSIG
ZGHA,2012-06-24 12:00,ZGHA 241200Z 12003MPS CAVOK 28/22 Q0999 NOSIG
ZGHA,2012-06-24 13:00,ZGHA 241300Z 13002MPS CAVOK 27/22 Q1000 NOSIG
ZGHA,2012-06-24 14:00,ZGHA 241400Z 14002MPS CAVOK 26/22 Q1001 NOSIG
ZGHA,2012-06-24 15:00,ZGHA 241500Z 20002MPS 9999 SCT050 26/22 Q1001 NOSIG
ZGHA,2012-06-24 16:00,ZGHA 241600Z 14002MPS 100V170 9999 BKN020 26/22 Q1000 NOSIG
ZGHA,2012-06-24 17:00,ZGHA 241700Z 14002MPS 110V170 9999 BKN017 OVC050 26/22 Q1000 NOSIG
ZGHA,2012-06-24 18:00,ZGHA 241800Z 14002MPS 9999 SCT015 OVC050 26/22 Q1000 NOSIG
ZGHA,2012-06-24 19:00,ZGHA 241900Z VRB01MPS 9999 BKN021 OVC050 26/22 Q0999 NOSIG
ZGHA,2012-06-24 20:00,ZGHA 242000Z 01001MPS 9999 BKN050 25/22 Q0999 NOSIG
ZGHA,2012-06-24 21:00,ZGHA 242100Z 20001MPS 8000 BKN050 25/23 Q1000 NOSIG
ZGHA,2012-06-24 22:00,ZGHA 242200Z 00000MPS 8000 OVC050 25/23 Q1000 NOSIG
ZGHA,2012-06-24 23:00,ZGHA 242300Z VRB01MPS 8000 SCT050 26/23 Q1000 NOSIG
ZGHA,2012-06-25 00:00,ZGHA 250000Z VRB01MPS 7000 -RA OVC050 27/23 Q1000 NOSIG
ZGHA,2012-06-25 01:00,ZGHA 250100Z 13002MPS 090V170 8000 NSC 29/23 Q1000 NOSIG
ZGHA,2012-06-25 02:00,ZGHA 250200Z 16004MPS 120V190 9999 SCT050 29/23 Q1000 NOSIG
ZGHA,2012-06-25 03:00,ZGHA 250300Z 16004MPS 9999 -RA SCT023 29/23 Q1000 NOSIG
ZGHA,2012-06-25 04:00,ZGHA 250400Z 12002MPS 9999 -RA SCT033 28/24 Q1000 NOSIG
ZGHA,2012-06-25 05:00,ZGHA 250500Z 11003MPS 080V140 9999 SCT033 29/24 Q0999 NOSIG
ZGHA,2012-06-25 06:00,ZGHA 250600Z 13003MPS 100V160 9999 SCT033 30/24 Q0999 NOSIG
ZGHA,2012-06-25 07:00,ZGHA 250700Z 15003MPS 9999 SCT050 32/23 Q0998 NOSIG
ZGHA,2012-06-25 08:00,ZGHA 250800Z 12003MPS 9999 TS FEW050CB BKN050 30/23 Q0998 BECMG TL0810 NSW
ZGHA,2012-06-25 09:00,ZGHA 250900Z 11002MPS 070V140 8000 SCT030 BKN050 28/25 Q0997 NOSIG
ZGHA,2012-06-25 10:00,ZGHA 251000Z VRB01MPS 8000 SCT050 29/25 Q0998 NOSIG
ZGHA,2012-06-25 11:00,ZGHA 251100Z 07002MPS 040V100 CAVOK 28/24 Q0998 NOSIG
ZGHA,2012-06-25 12:00,ZGHA 251200Z VRB01MPS 9999 FEW050 28/25 Q0998 NOSIG
ZGHA,2012-06-25 13:00,ZGHA 251300Z VRB01MPS 9999 SCT050 28/24 Q0998 NOSIG
ZGHA,2012-06-25 14:00,ZGHA 251400Z VRB01MPS CAVOK 27/25 Q0999 NOSIG
ZGHA,2012-06-25 15:00,ZGHA 251500Z VRB01MPS 9999 FEW050 27/24 Q0999 TEMPO SHRA BKN011 FEW040CB BKN050
ZGHA,2012-06-25 16:00,ZGHA 251600Z 26002MPS 9999 -RA SCT040 26/24 Q0999 NOSIG
ZGHA,2012-06-25 17:00,ZGHA 251700Z 20002MPS 9999 SCT050 26/24 Q0998 NOSIG
ZGHA,2012-06-25 18:00,ZGHA 251800Z 00000MPS CAVOK 26/24 Q0998 NOSIG
ZGHA,2012-06-25 19:00,ZGHA 251900Z 19002MPS 9999 SCT040 26/24 Q0998 NOSIG
ZGHA,2012-06-25 20:00,ZGHA 252000Z 17002MPS 9999 -RA SCT030 26/24 Q0998 NOSIG
ZGHA,2012-06-25 21:00,ZGHA 252100Z 13002MPS 100V160 9999 -RA SCT030 26/24 Q0998 NOSIG
ZGHA,2012-06-25 22:00,ZGHA 252200Z 14001MPS 9999 SCT030 26/24 Q0998 NOSIG
ZGHA,2012-06-25 23:00,ZGHA 252300Z 13002MPS 9999 SCT033 26/24 Q0999 NOSIG
ZGHA,2012-06-26 00:00,ZGHA 260000Z 13003MPS 9999 SCT033 27/24 Q0999 NOSIG
ZGHA,2012-06-26 01:00,ZGHA 260100Z 16003MPS 9999 OVC050 27/24 Q0999 NOSIG
ZGHA,2012-06-26 02:00,ZGHA 260200Z 16002MPS 130V190 9999 OVC050 28/24 Q0999 NOSIG
ZGHA,2012-06-26 03:00,ZGHA 260300Z 15003MPS 7000 -RA OVC040 27/24 Q0999 NOSIG
ZGHA,2012-06-26 04:00,ZGHA 260400Z 13002MPS 100V160 6000 -RA OVC050 26/25 Q0999 BECMG TL0500 BKN011 OVC050
ZGHA,2012-06-26 05:00,ZGHA 260500Z 12003MPS 090V150 7000 -RA SCT020 OVC050 27/25 Q0999 NOSIG
ZGHA,2012-06-26 06:00,ZGHA 260600Z 18002MPS 8000 SCT030 28/24 Q0998 NOSIG
ZGHA,2012-06-26 07:00,ZGHA 260700Z VRB01MPS 9999 SCT040 29/25 Q0998 NOSIG
ZGHA,2012-06-26 08:00,ZGHA 260800Z 13005MPS 110V170 9999 -TSRA SCT009 FEW050CB BKN050 26/23 Q0998 BECMG TL0840 -RA
ZGHA,2012-06-26 09:00,ZGHA 260900Z 14004MPS 6000 TSRA SCT007 FEW050CB BKN050 26/24 Q0998 BECMG TL1050 -RA
ZGHA,2012-06-26 10:00,ZGHA 261000Z 09002MPS 040V140 5000 TSRA BR SCT007 FEW050CB BKN050 25/24 Q0999 NOSIG
ZGHA,2012-06-26 11:00,ZGHA 261100Z 14003MPS 8000 FEW007 SCT020 OVC050 25/24 Q0999 RETSRA NOSIG
ZGHA,2012-06-26 12:00,ZGHA 261200Z 16002MPS 130V190 8000 OVC033 25/24 Q1000 NOSIG
ZGHA,2012-06-26 13:00,ZGHA 261300Z 17004MPS 7000 -RA OVC040 25/24 Q1000 NOSIG
ZGHA,2012-06-26 14:00,ZGHA 261400Z VRB01MPS 6000 -RA SCT004 OVC050 25/24 Q1000 NOSIG
ZGHA,2012-06-26 15:00,ZGHA 261500Z 12003MPS 9999 OVC050 25/24 Q1000 NOSIG
ZGHA,2012-06-26 16:00,ZGHA 261600Z 15002MPS 9999 OVC050 25/23 Q1000 NOSIG
ZGHA,2012-06-26 17:00,ZGHA 261700Z 16002MPS 130V200 9999 OVC050 25/23 Q1000 NOSIG
ZGHA,2012-06-26 18:00,ZGHA 261800Z 21002MPS 8000 -RA OVC050 25/24 Q1000 NOSIG
ZGHA,2012-06-26 19:00,ZGHA 261900Z 09001MPS 6000 -RA OVC050 25/24 Q1000 NOSIG
ZGHA,2012-06-26 20:00,ZGHA 262000Z 11003MPS 7000 -RA OVC050 25/24 Q1000 NOSIG
ZGHA,2012-06-26 21:00,ZGHA 262100Z 13002MPS 090V160 7000 -RA SCT020 25/24 Q1000 NOSIG
ZGHA,2012-06-26 22:00,ZGHA 262200Z 14002MPS 110V170 8000 NSC 25/24 Q1000 NOSIG
ZGHA,2012-06-26 23:00,ZGHA 262300Z 15002MPS 8000 NSC 25/24 Q1001 NOSIG
ZGHA,2012-06-27 00:00,ZGHA 270000Z 15003MPS 110V170 CAVOK 26/24 Q1001 NOSIG
ZGHA,2012-06-27 01:00,ZGHA 270100Z 15003MPS 9999 SCT050 27/24 Q1001 NOSIG
ZGHA,2012-06-27 02:00,ZGHA 270200Z 14003MPS 120V190 9999 SCT050 29/25 Q1001 NOSIG
ZGHA,2012-06-27 03:00,ZGHA 270300Z 15005MPS 9999 FEW033 31/24 Q1001 NOSIG
ZGHA,2012-06-27 04:00,ZGHA 270400Z 16005MPS 9999 SCT033 31/24 Q1001 NOSIG
ZGHA,2012-06-27 05:00,ZGHA 270500Z 19003MPS 9999 FEW030 31/24 Q1001 NOSIG
ZGHA,2012-06-27 06:00,ZGHA 270600Z 23002G08MPS 170V270 9999 FEW030 FEW040CB 32/24 Q1000 NOSIG
ZGHA,2012-06-27 07:00,ZGHA 270700Z 18006MPS 9999 -TSRA FEW020 FEW050CB BKN050 26/23 Q1000 RESHRA BECMG TL0750 -SHRA
ZGHA,2012-06-27 08:00,ZGHA 270800Z 28003MPS 250V340 9999 -SHRA BKN040 26/24 Q1001 NOSIG
ZGHA,2012-06-27 09:00,ZGHA 270900Z 05002MPS 330V100 9999 -RA FEW050 26/24 Q1001 NOSIG
ZGHA,2012-06-27 10:00,ZGHA 271000Z 06002MPS 020V090 9999 -RA NSC 26/24 Q1001 NOSIG
ZGHA,2012-06-27 11:00,ZGHA 271100Z 06002MPS 020V100 9000 -RA BKN050 26/24 Q1002 NOSIG
ZGHA,2012-06-27 12:00,ZGHA 271200Z 08002MPS 050V170 7000 -RA BKN050 26/24 Q1002 NOSIG
ZGHA,2012-06-27 13:00,ZGHA 271300Z 01003MPS 330V060 6000 -SHRA SCT011 FEW050CB BKN050 25/24 Q1003 NOSIG
ZGHA,2012-06-27 14:00,ZGHA 271400Z VRB02MPS 4000 TSRA BR BKN007 SCT050CB BKN050 25/24 Q1004 BECMG TL1500 -SHRA SCT011 FEW040CB BKN050
ZGHA,2012-06-27 15:00,ZGHA 271500Z VRB01MPS 4000 -TSRA BR BKN007 FEW050CB BKN050 25/24 Q1004 RESHRA BECMG TL1520 -SHRA
ZGHA,2012-06-27 16:00,ZGHA 271600Z 05002MPS 340V110 6000 -RA FEW012 SCT050 25/24 Q1003 RETS NOSIG
ZGHA,2012-06-27 17:00,ZGHA 271700Z 05002MPS 010V100 7000 -RA SCT013 SCT050 25/24 Q1003 NOSIG
ZGHA,2012-06-27 18:00,ZGHA 271800Z 06002MPS 020V090 7000 -RA SCT013 SCT050 25/24 Q1003 NOSIG
ZGHA,2012-06-27 19:00,ZGHA 271900Z VRB01MPS 6000 NSC 25/24 Q1003 NOSIG
ZGHA,2012-06-27 20:00,ZGHA 272000Z VRB01MPS 7000 NSC 25/24 Q1003 NOSIG
ZGHA,2012-06-27 21:00,ZGHA 272100Z 36001MPS 9000 NSC 25/24 Q1003 NOSIG
ZGHA,2012-06-27 22:00,ZGHA 272200Z 31001MPS 8000 SCT050 25/24 Q1004 NOSIG
ZGHA,2012-06-27 23:00,ZGHA 272300Z VRB01MPS 6000 -RA SCT050 25/24 Q1004 NOSIG
ZGHA,2012-06-28 00:00,ZGHA 280000Z VRB01MPS 7000 NSC 27/25 Q1004 NOSIG
ZGHA,2012-06-28 01:00,ZGHA 280100Z VRB01MPS CAVOK 29/25 Q1005 NOSIG
ZGHA,2012-06-28 02:00,ZGHA 280200Z 18002MPS 100V250 9999 SCT030 31/25 Q1004 NOSIG
ZGHA,2012-06-28 03:00,ZGHA 280300Z 21004MPS 9999 SCT030 31/24 Q1004 NOSIG
ZGHA,2012-06-28 04:00,ZGHA 280400Z 22004MPS 190V250 9999 SCT033 32/23 Q1004 NOSIG
ZGHA,2012-06-28 05:00,ZGHA 280500Z 22004MPS 190V250 9999 SCT040 33/24 Q1004 NOSIG
ZGHA,2012-06-28 06:00,ZGHA 280600Z 23002MPS 150V300 9999 SCT033 34/23 Q1003 NOSIG
ZGHA,2012-06-28 07:00,ZGHA 280700Z 30002MPS 230V340 9999 SCT040 34/24 Q1003 NOSIG
ZGHA,2012-06-28 08:00,ZGHA 280800Z 28007MPS 9999 SCT040 33/24 Q1003 BECMG TL0830 -TSRA BKN011 SCT040CB OVC040 WS IN ALL RWY
ZGHA,2012-06-28 09:00,ZGHA 280900Z 32004MPS 270V340 9999 FEW050 28/24 Q1003 RETS NOSIG
ZGHA,2012-06-28 10:00,ZGHA 281000Z VRB01MPS CAVOK 28/24 Q1003 NOSIG
ZGHA,2012-06-28 11:00,ZGHA 281100Z VRB01MPS CAVOK 28/25 Q1003 NOSIG
ZGHA,2012-06-28 12:00,ZGHA 281200Z 01002MPS CAVOK 28/25 Q1003 NOSIG
ZGHA,2012-06-28 13:00,ZGHA 281300Z 36002MPS CAVOK 27/25 Q1003 NOSIG
ZGHA,2012-06-28 14:00,ZGHA 281400Z 01002MPS 350V060 6000 NSC 27/25 Q1004 NOSIG
ZGHA,2012-06-28 15:00,ZGHA 281500Z VRB01MPS 4000 BR NSC 27/25 Q1004 BECMG TL1700 2700
ZGHA,2012-06-28 16:00,ZGHA 281600Z 32002MPS 290V010 4000 BR NSC 27/25 Q1004 TL1700 2700
ZGHA,2012-06-28 17:00,ZGHA 281700Z 33002MPS 5000 BR NSC 26/25 Q1004 NOSIG
ZGHA,2012-06-28 18:00,ZGHA 281800Z 34002MPS 4000 BR NSC 26/25 Q1003 NOSIG
ZGHA,2012-06-28 19:00,ZGHA 281900Z 36003MPS 1400 R36/P2000 BR NSC 26/25 Q1003 BECMG TL2100 0700 FG
ZGHA,2012-06-28 20:00,ZGHA 282000Z 32002MPS 1200 R36/1900D BR NSC 26/25 Q1003 NOSIG
ZGHA,2012-06-28 21:00,ZGHA 282100Z 36002MPS 1400 R36/1900U BR NSC 26/25 Q1002 NOSIG
ZGHA,2012-06-28 22:00,ZGHA 282200Z 36003MPS 1200 R36/1100V1300N BR NSC 26/25 Q1002 BECMG TL2400 1700
ZGHA,2012-06-28 23:00,ZGHA 282300Z 00000MPS 1600 BR SCT008 26/25 Q1003 BECMG TL0100 3000
ZGHA,2012-06-29 00:00,ZGHA 290000Z 28002MPS 250V340 3500 BR SCT007 27/25 Q1003 NOSIG
ZGHA,2012-06-29 01:00,ZGHA 290100Z VRB01MPS 5000 BR FEW009 29/25 Q1004 NOSIG
ZGHA,2012-06-29 02:00,ZGHA 290200Z VRB01MPS 7000 SCT020 32/26 Q1003 NOSIG
ZGHA,2012-06-29 03:00,ZGHA 290300Z 16002MPS 120V220 9999 SCT026 33/26 Q1003 NOSIG
ZGHA,2012-06-29 04:00,ZGHA 290400Z VRB02MPS 9999 SCT033 34/25 Q1002 NOSIG
ZGHA,2012-06-29 05:00,ZGHA 290500Z VRB02MPS 9999 SCT020 35/24 Q1002 NOSIG
ZGHA,2012-06-29 06:00,ZGHA 290600Z 21002MPS 150V320 9999 SCT020 35/23 Q1001 NOSIG
ZGHA,2012-06-29 07:00,ZGHA 290700Z 23002G08MPS 160V290 9999 SCT020 35/24 Q1001 NOSIG
ZGHA,2012-06-29 08:00,ZGHA 290800Z 24002MPS 180V280 9999 SCT033 36/24 Q1000 NOSIG
ZGHA,2012-06-29 09:00,ZGHA 290900Z VRB01MPS 9999 FEW040 36/23 Q1000 NOSIG
ZGHA,2012-06-29 10:00,ZGHA 291000Z 01002MPS 270V060 9999 FEW033 35/24 Q1000 NOSIG
ZGHA,2012-06-29 11:00,ZGHA 291100Z 02003MPS CAVOK 34/24 Q1000 NOSIG
ZGHA,2012-06-29 12:00,ZGHA 291200Z 05002MPS 7000 NSC 31/27 Q1001 NOSIG
ZGHA,2012-06-29 13:00,ZGHA 291300Z 05001MPS 6000 NSC 30/26 Q1002 NOSIG
ZGHA,2012-06-29 14:00,ZGHA 291400Z VRB01MPS 6000 NSC 30/27 Q1002 NOSIG
ZGHA,2012-06-29 15:00,ZGHA 291500Z VRB01MPS 5000 BR NSC 29/27 Q1002 NOSIG
ZGHA,2012-06-29 16:00,ZGHA 291600Z 10001MPS 4000 BR NSC 29/26 Q1002 NOSIG
ZGHA,2012-06-29 17:00,ZGHA 291700Z 00000MPS 6000 NSC 28/25 Q1002 NOSIG
ZGHA,2012-06-29 18:00,ZGHA 291800Z 03001MPS 7000 NSC 27/25 Q1001 NOSIG
ZGHA,2012-06-29 19:00,ZGHA 291900Z 30002MPS 6000 NSC 28/25 Q1001 NOSIG
ZGHA,2012-06-29 20:00,ZGHA 292000Z 35002MPS 5000 BR NSC 27/24 Q1001 NOSIG
ZGHA,2012-06-29 21:00,ZGHA 292100Z 08001MPS 4000 BR NSC 26/25 Q1001 NOSIG
ZGHA,2012-06-29 22:00,ZGHA 292200Z VRB01MPS 6000 NSC 26/25 Q1002 NOSIG
ZGHA,2012-06-29 23:00,ZGHA 292300Z VRB01MPS 7000 NSC 29/25 Q1002 NOSIG
ZGHA,2012-06-30 00:00,ZGHA 300000Z 18001MPS 8000 NSC 30/25 Q1003 NOSIG
ZGHA,2012-06-30 01:00,ZGHA 300100Z 14002MPS 090V160 CAVOK 33/24 Q1003 NOSIG
ZGHA,2012-06-30 02:00,ZGHA 300200Z 14004MPS 090V150 CAVOK 33/23 Q1003 NOSIG
ZGHA,2012-06-30 03:00,ZGHA 300300Z 15003MPS 120V180 9999 SCT033 34/24 Q1004 NOSIG
ZGHA,2012-06-30 04:00,ZGHA 300400Z 18003MPS 140V210 9999 SCT040 34/23 Q1004 NOSIG
ZGHA,2012-06-30 05:00,ZGHA 300500Z 21003MPS 160V260 9999 FEW040 35/22 Q1003 NOSIG
ZGHA,2012-06-30 06:00,ZGHA 300600Z 24003MPS 9999 BKN040 34/23 Q1003 NOSIG
ZGHA,2012-06-30 07:00,ZGHA 300700Z 23003MPS 190V250 9999 BKN040 34/23 Q1002 NOSIG
ZGHA,2012-06-30 08:00,ZGHA 300800Z 19003MPS 160V230 9999 BKN040 35/23 Q1002 NOSIG
ZGHA,2012-06-30 09:00,ZGHA 300900Z 22004MPS 9999 BKN040 35/22 Q1002 NOSIG
ZGHA,2012-06-30 10:00,ZGHA 301000Z 23002MPS 100V260 9999 FEW040 34/22 Q1002 NOSIG
ZGHA,2012-06-30 11:00,ZGHA 301100Z 07002MPS 020V130 9999 FEW040 31/25 Q1003 NOSIG
ZGHA,2012-06-30 12:00,ZGHA 301200Z 06002MPS 030V100 9999 FEW050 30/24 Q1004 NOSIG
ZGHA,2012-06-30 13:00,ZGHA 301300Z VRB01MPS CAVOK 29/24 Q1005 NOSIG
ZGHA,2012-06-30 14:00,ZGHA 301400Z VRB01MPS CAVOK 29/25 Q1006 NOSIG
ZGHA,2012-06-30 15:00,ZGHA 301500Z VRB01MPS CAVOK 29/25 Q1006 NOSIG
ZGHA,2012-06-30 16:00,ZGHA 301600Z 19003MPS CAVOK 28/24 Q1006 NOSIG
ZGHA,2012-06-30 17:00,ZGHA 301700Z 18002MPS CAVOK 28/24 Q1006 NOSIG
ZGHA,2012-06-30 18:00,ZGHA 301800Z 17003MPS 9999 SCT050 28/23 Q1005 NOSIG
ZGHA,2012-06-30 19:00,ZGHA 301900Z 17003MPS CAVOK 28/23 Q1005 NOSIG
ZGHA,2012-06-30 20:00,ZGHA 302000Z VRB01MPS CAVOK 27/23 Q1005 NOSIG
ZGHA,2012-06-30 21:00,ZGHA 302100Z 14002MPS CAVOK 27/24 Q1006 NOSIG
ZGHA,2012-06-30 22:00,ZGHA 302200Z 17003MPS CAVOK 27/23 Q1006 NOSIG
ZGHA,2012-06-30 23:00,ZGHA 302300Z 17004MPS CAVOK 28/23 Q1006 NOSIG
ZGHA,2012-07-01 00:00,ZGHA 010000Z 17004MPS 140V200 CAVOK 30/23 Q1007 NOSIG
ZGHA,2012-07-01 01:00,ZGHA 010100Z 20005MPS CAVOK 31/22 Q1007 NOSIG
ZGHA,2012-07-01 02:00,ZGHA 010200Z 18006MPS CAVOK 32/21 Q1007 NOSIG
ZGHA,2012-07-01 03:00,ZGHA 010300Z 19007MPS 170V230 CAVOK 33/21 Q1007 NOSIG
ZGHA,2012-07-01 04:00,ZGHA 010400Z 20006MPS 150V230 9999 SCT040 33/21 Q1007 NOSIG
ZGHA,2012-07-01 05:00,ZGHA 010500Z 20006MPS 160V220 9999 SCT040 33/21 Q1007 NOSIG
ZGHA,2012-07-01 06:00,ZGHA 010600Z 19006MPS 160V220 9999 SCT040 34/21 Q1007 NOSIG
ZGHA,2012-07-01 07:00,ZGHA 010700Z 18005MPS 150V210 9999 FEW040 34/21 Q1006 NOSIG
ZGHA,2012-07-01 08:00,ZGHA 010800Z 20005MPS 9999 FEW040 34/22 Q1005 NOSIG
ZGHA,2012-07-01 09:00,ZGHA 010900Z 20004MPS 9999 FEW040 33/20 Q1005 NOSIG
ZGHA,2012-07-01 10:00,ZGHA 011000Z 19003MPS CAVOK 32/22 Q1005 NOSIG
ZGHA,2012-07-01 11:00,ZGHA 011100Z 18003MPS CAVOK 31/22 Q1005 NOSIG
ZGHA,2012-07-01 12:00,ZGHA 011200Z 17002MPS CAVOK 30/23 Q1005 NOSIG
ZGHA,2012-07-01 13:00,ZGHA 011300Z 14002MPS CAVOK 29/23 Q1006 NOSIG
ZGHA,2012-07-01 14:00,ZGHA 011400Z 16003MPS CAVOK 29/22 Q1006 NOSIG
ZGHA,2012-07-01 15:00,ZGHA 011500Z 16002MPS CAVOK 28/23 Q1006 NOSIG
ZGHA,2012-07-01 16:00,ZGHA 011600Z 18002MPS CAVOK 27/23 Q1006 NOSIG
ZGHA,2012-07-01 17:00,ZGHA 011700Z 17002MPS CAVOK 27/23 Q1006 NOSIG
ZGHA,2012-07-01 18:00,ZGHA 011800Z 17001MPS CAVOK 26/23 Q1006 NOSIG
ZGHA,2012-07-01 19:00,ZGHA 011900Z 18002MPS CAVOK 25/22 Q1005 NOSIG
ZGHA,2012-07-01 20:00,ZGHA 012000Z 18002MPS CAVOK 25/22 Q1006 NOSIG
ZGHA,2012-07-01 21:00,ZGHA 012100Z VRB01MPS CAVOK 25/22 Q1006 NOSIG
ZGHA,2012-07-01 22:00,ZGHA 012200Z 17001MPS CAVOK 25/23 Q1006 NOSIG
ZGHA,2012-07-01 23:00,ZGHA 012300Z 17003MPS CAVOK 27/22 Q1007 NOSIG
ZGHA,2012-07-02 00:00,ZGHA 020000Z 18004MPS CAVOK 29/22 Q1007 NOSIG
ZGHA,2012-07-02 01:00,ZGHA 020100Z 19005MPS CAVOK 30/22 Q1007 NOSIG
ZGHA,2012-07-02 02:00,ZGHA 020200Z 19006MPS CAVOK 32/22 Q1007 NOSIG
ZGHA,2012-07-02 03:00,ZGHA 020300Z 19005MPS 150V220 9999 FEW033 33/21 Q1006 NOSIG
ZGHA,2012-07-02 04:00,ZGHA 020400Z 21007MPS 180V250 9999 SCT020 34/22 Q1005 NOSIG
ZGHA,2012-07-02 05:00,ZGHA 020500Z 20007MPS 170V230 9999 BKN040 33/20 Q1004 NOSIG
ZGHA,2012-07-02 06:00,ZGHA 020600Z 21006MPS 180V240 9999 SCT040 34/21 Q1004 NOSIG
ZGHA,2012-07-02 07:00,ZGHA 020700Z 19007MPS 9999 SCT040 35/21 Q1003 NOSIG
ZGHA,2012-07-02 08:00,ZGHA 020800Z 20006MPS 170V240 9999 SCT040 35/21 Q1003 NOSIG
ZGHA,2012-07-02 09:00,ZGHA 020900Z 20005MPS 9999 FEW040 35/21 Q1002 NOSIG
ZGHA,2012-07-02 10:00,ZGHA 021000Z 19005MPS 9999 FEW033 33/21 Q1002 NOSIG
ZGHA,2012-07-02 11:00,ZGHA 021100Z 19002MPS 9999 FEW033 32/22 Q1002 NOSIG
ZGHA,2012-07-02 12:00,ZGHA 021200Z 16002MPS 9999 FEW033 30/23 Q1003 NOSIG
ZGHA,2012-07-02 13:00,ZGHA 021300Z 17003MPS 9999 FEW040 29/22 Q1003 NOSIG
ZGHA,2012-07-02 14:00,ZGHA 021400Z 15003MPS CAVOK 29/22 Q1003 NOSIG
ZGHA,2012-07-02 15:00,ZGHA 021500Z 17003MPS CAVOK 29/22 Q1003 NOSIG
ZGHA,2012-07-02 16:00,ZGHA 021600Z 16003MPS CAVOK 28/22 Q1003 NOSIG
ZGHA,2012-07-02 17:00,ZGHA 021700Z 17004MPS CAVOK 28/22 Q1003 NOSIG
ZGHA,2012-07-02 18:00,ZGHA 021800Z 16003MPS CAVOK 27/22 Q1002 NOSIG
ZGHA,2012-07-02 19:00,ZGHA 021900Z 17003MPS CAVOK 27/22 Q1002 NOSIG
ZGHA,2012-07-02 20:00,ZGHA 022000Z 17002MPS CAVOK 25/22 Q1002 NOSIG
ZGHA,2012-07-02 21:00,ZGHA 022100Z 18002MPS CAVOK 26/22 Q1002 NOSIG
ZGHA,2012-07-02 22:00,ZGHA 022200Z 15003MPS CAVOK 26/22 Q1002 NOSIG
ZGHA,2012-07-02 23:00,ZGHA 022300Z 17004MPS CAVOK 28/22 Q1003 NOSIG
ZGHA,2012-07-03 00:00,ZGHA 030000Z 18005MPS CAVOK 29/22 Q1003 NOSIG
ZGHA,2012-07-03 01:00,ZGHA 030100Z 18005MPS 150V210 CAVOK 30/22 Q1003 NOSIG
ZGHA,2012-07-03 02:00,ZGHA 030200Z 19006MPS 160V220 CAVOK 32/22 Q1003 NOSIG
ZGHA,2012-07-03 03:00,ZGHA 030300Z 20006MPS 9999 FEW033 33/23 Q1003 NOSIG
ZGHA,2012-07-03 04:00,ZGHA 030400Z 20006MPS 160V230 9999 FEW040 34/22 Q1003 NOSIG
ZGHA,2012-07-03 05:00,ZGHA 030500Z 20006MPS 170V240 9999 SCT040 34/22 Q1002 NOSIG
ZGHA,2012-07-03 06:00,ZGHA 030600Z 21006MPS 180V240 9999 BKN040 35/23 Q1001 NOSIG
ZGHA,2012-07-03 07:00,ZGHA 030700Z 19006MPS 9999 SCT040 35/22 Q1001 NOSIG
ZGHA,2012-07-03 08:00,ZGHA 030800Z 20006MPS 9999 SCT040 34/22 Q1000 NOSIG
ZGHA,2012-07-03 09:00,ZGHA 030900Z 20005MPS 180V240 9999 SCT040 35/22 Q0999 NOSIG
ZGHA,2012-07-03 10:00,ZGHA 031000Z 19005MPS 160V220 9999 FEW040 34/21 Q0999 NOSIG
ZGHA,2012-07-03 11:00,ZGHA 031100Z 18003MPS 9999 FEW040 32/22 Q1000 NOSIG
ZGHA,2012-07-03 12:00,ZGHA 031200Z 16003MPS CAVOK 31/22 Q1000 NOSIG
ZGHA,2012-07-03 13:00,ZGHA 031300Z 15003MPS CAVOK 30/22 Q1000 NOSIG
ZGHA,2012-07-03 14:00,ZGHA 031400Z 15003MPS CAVOK 29/22 Q1001 NOSIG
ZGHA,2012-07-03 15:00,ZGHA 031500Z 17002MPS CAVOK 28/23 Q1001 NOSIG
ZGHA,2012-07-03 16:00,ZGHA 031600Z 16002MPS CAVOK 28/22 Q1001 NOSIG
ZGHA,2012-07-03 17:00,ZGHA 031700Z 15003MPS CAVOK 28/22 Q1001 NOSIG
ZGHA,2012-07-03 18:00,ZGHA 031800Z 17003MPS CAVOK 28/22 Q1001 NOSIG
ZGHA,2012-07-03 19:00,ZGHA 031900Z 16003MPS CAVOK 27/22 Q1001 NOSIG
ZGHA,2012-07-03 20:00,ZGHA 032000Z 17003MPS CAVOK 27/21 Q1001 NOSIG
ZGHA,2012-07-03 21:00,ZGHA 032100Z 16002MPS CAVOK 27/21 Q1001 NOSIG
ZGHA,2012-07-03 22:00,ZGHA 032200Z 16002MPS CAVOK 26/22 Q1002 NOSIG
ZGHA,2012-07-03 23:00,ZGHA 032300Z 19003MPS CAVOK 28/22 Q1002 NOSIG
ZGHA,2012-07-04 00:00,ZGHA 040000Z 19003MPS 160V230 CAVOK 30/22 Q1002 NOSIG
ZGHA,2012-07-04 01:00,ZGHA 040100Z 19006MPS CAVOK 31/22 Q1002 NOSIG
ZGHA,2012-07-04 02:00,ZGHA 040200Z 19006MPS CAVOK 33/22 Q1002 NOSIG
ZGHA,2012-07-04 03:00,ZGHA 040300Z 18007MPS CAVOK 34/22 Q1002 NOSIG
ZGHA,2012-07-04 04:00,ZGHA 040400Z 18007MPS 9999 FEW033 35/23 Q1002 NOSIG
ZGHA,2012-07-04 05:00,ZGHA 040500Z 18007MPS 9999 FEW050 35/21 Q1001 NOSIG
ZGHA,2012-07-04 06:00,ZGHA 040600Z 18006MPS 160V220 9999 SCT050 35/20 Q1001 NOSIG
ZGHA,2012-07-04 07:00,ZGHA 040700Z 19006MPS 170V230 9999 SCT050 35/20 Q1000 NOSIG
ZGHA,2012-07-04 08:00,ZGHA 040800Z 22006MPS 180V240 9999 FEW050 36/21 Q1000 NOSIG
ZGHA,2012-07-04 09:00,ZGHA 040900Z 20005MPS 9999 FEW050 35/21 Q1000 NOSIG
ZGHA,2012-07-04 10:00,ZGHA 041000Z 20005MPS CAVOK 34/21 Q0999 NOSIG
ZGHA,2012-07-04 11:00,ZGHA 041100Z 18002MPS CAVOK 32/22 Q1000 NOSIG
ZGHA,2012-07-04 12:00,ZGHA 041200Z 16002MPS CAVOK 31/22 Q1000 NOSIG
ZGHA,2012-07-04 13:00,ZGHA 041300Z 14002MPS CAVOK 30/22 Q1001 NOSIG
ZGHA,2012-07-04 14:00,ZGHA 041400Z 17002MPS CAVOK 29/23 Q1001 NOSIG
ZGHA,2012-07-04 15:00,ZGHA 041500Z 17001MPS CAVOK 28/23 Q1002 NOSIG
ZGHA,2012-07-04 16:00,ZGHA 041600Z 16003MPS CAVOK 28/23 Q1001 NOSIG
ZGHA,2012-07-04 17:00,ZGHA 041700Z 16003MPS CAVOK 28/22 Q1001 NOSIG
ZGHA,2012-07-04 18:00,ZGHA 041800Z 16004MPS 130V190 CAVOK 28/22 Q1001 NOSIG
ZGHA,2012-07-04 19:00,ZGHA 041900Z 14004MPS CAVOK 27/22 Q1001 NOSIG
ZGHA,2012-07-04 20:00,ZGHA 042000Z 17004MPS CAVOK 28/22 Q1001 NOSIG
ZGHA,2012-07-04 21:00,ZGHA 042100Z 20002MPS CAVOK 27/22 Q1001 NOSIG
ZGHA,2012-07-04 22:00,ZGHA 042200Z VRB01MPS CAVOK 26/22 Q1002 NOSIG
ZGHA,2012-07-04 23:00,ZGHA 042300Z 15002MPS CAVOK 28/23 Q1002 NOSIG
ZGHA,2012-07-05 00:00,ZGHA 050000Z 19004MPS CAVOK 30/22 Q1003 NOSIG
ZGHA,2012-07-05 01:00,ZGHA 050100Z 18004MPS CAVOK 31/22 Q1003 NOSIG
ZGHA,2012-07-05 02:00,ZGHA 050200Z 19007MPS CAVOK 33/21 Q1003 NOSIG
ZGHA,2012-07-05 03:00,ZGHA 050300Z 20005MPS 170V240 CAVOK 34/22 Q1003 NOSIG
ZGHA,2012-07-05 04:00,ZGHA 050400Z 21006MPS 180V240 9999 FEW040 35/21 Q1003 NOSIG
ZGHA,2012-07-05 05:00,ZGHA 050500Z 18006MPS 9999 SCT040 35/22 Q1003 NOSIG
ZGHA,2012-07-05 06:00,ZGHA 050600Z 20005MPS 9999 SCT050 35/21 Q1003 NOSIG
ZGHA,2012-07-05 07:00,ZGHA 050700Z 19005MPS 170V230 9999 SCT050 36/22 Q1002 NOSIG
ZGHA,2012-07-05 08:00,ZGHA 050800Z 21005MPS 9999 SCT050 35/22 Q1002 NOSIG
ZGHA,2012-07-05 09:00,ZGHA 050900Z 20004MPS 170V230 CAVOK 36/22 Q1001 NOSIG
ZGHA,2012-07-05 10:00,ZGHA 051000Z 20004MPS CAVOK 35/21 Q1001 NOSIG
ZGHA,2012-07-05 11:00,ZGHA 051100Z 16003MPS CAVOK 34/21 Q1001 NOSIG
ZGHA,2012-07-05 12:00,ZGHA 051200Z 00000MPS 8000 NSC 32/23 Q1002 NOSIG
ZGHA,2012-07-05 13:00,ZGHA 051300Z 13001MPS 8000 NSC 30/24 Q1002 NOSIG
ZGHA,2012-07-05 14:00,ZGHA 051400Z 16001MPS 8000 NSC 29/25 Q1002 NOSIG
ZGHA,2012-07-05 15:00,ZGHA 051500Z 17002MPS 8000 NSC 29/24 Q1003 NOSIG
ZGHA,2012-07-05 16:00,ZGHA 051600Z 18002MPS 8000 NSC 28/23 Q1003 NOSIG
ZGHA,2012-07-05 17:00,ZGHA 051700Z 17002MPS CAVOK 28/23 Q1003 NOSIG
ZGHA,2012-07-05 18:00,ZGHA 051800Z VRB01MPS CAVOK 28/23 Q1003 NOSIG
ZGHA,2012-07-05 19:00,ZGHA 051900Z 18003MPS CAVOK 28/23 Q1003 NOSIG
ZGHA,2012-07-05 20:00,ZGHA 052000Z 17004MPS CAVOK 28/23 Q1002 NOSIG
ZGHA,2012-07-05 21:00,ZGHA 052100Z 23002MPS 200V260 CAVOK 27/23 Q1003 NOSIG
ZGHA,2012-07-05 22:00,ZGHA 052200Z 18002MPS CAVOK 27/23 Q1003 NOSIG
ZGHA,2012-07-05 23:00,ZGHA 052300Z 16003MPS CAVOK 29/23 Q1003 NOSIG
ZGHA,2012-07-06 00:00,ZGHA 060000Z 17004MPS CAVOK 30/23 Q1004 NOSIG
ZGHA,2012-07-06 01:00,ZGHA 060100Z 19006MPS 160V220 CAVOK 32/22 Q1004 NOSIG
ZGHA,2012-07-06 02:00,ZGHA 060200Z 20006MPS 9999 SCT050 34/22 Q1004 NOSIG
ZGHA,2012-07-06 03:00,ZGHA 060300Z 19006MPS 9999 FEW050 34/23 Q1004 NOSIG
ZGHA,2012-07-06 04:00,ZGHA 060400Z 17005MPS 140V210 9999 SCT040 35/22 Q1003 NOSIG
ZGHA,2012-07-06 05:00,ZGHA 060500Z 19005MPS 160V220 9999 SCT020 36/22 Q1002 NOSIG
ZGHA,2012-07-06 06:00,ZGHA 060600Z 18005MPS 110V210 9999 SCT020 36/22 Q1002 NOSIG
ZGHA,2012-07-06 07:00,ZGHA 060700Z 17004MPS 140V210 9999 SCT020 36/22 Q1002 NOSIG
ZGHA,2012-07-06 08:00,ZGHA 060800Z 16005MPS 130V220 9999 SCT033 37/21 Q1001 NOSIG
ZGHA,2012-07-06 09:00,ZGHA 060900Z 19005MPS 160V230 9999 SCT020 36/21 Q1000 NOSIG
ZGHA,2012-07-06 10:00,ZGHA 061000Z 16004MPS 130V190 9999 FEW020 35/22 Q1000 NOSIG
ZGHA,2012-07-06 11:00,ZGHA 061100Z 15003MPS 9999 FEW040 34/23 Q1000 NOSIG
ZGHA,2012-07-06 12:00,ZGHA 061200Z 14002MPS CAVOK 32/24 Q1001 NOSIG
ZGHA,2012-07-06 13:00,ZGHA 061300Z 15003MPS CAVOK 31/24 Q1001 NOSIG
ZGHA,2012-07-06 14:00,ZGHA 061400Z 15003MPS CAVOK 30/23 Q1002 NOSIG
ZGHA,2012-07-06 15:00,ZGHA 061500Z 17002MPS CAVOK 29/24 Q1002 NOSIG
ZGHA,2012-07-06 16:00,ZGHA 061600Z 17002MPS CAVOK 29/23 Q1002 NOSIG
ZGHA,2012-07-06 17:00,ZGHA 061700Z 16003MPS CAVOK 29/23 Q1002 NOSIG
ZGHA,2012-07-06 18:00,ZGHA 061800Z 17003MPS CAVOK 28/23 Q1002 NOSIG
ZGHA,2012-07-06 19:00,ZGHA 061900Z 17003MPS CAVOK 28/23 Q1002 NOSIG
ZGHA,2012-07-06 20:00,ZGHA 062000Z 17004MPS CAVOK 28/22 Q1002 NOSIG
ZGHA,2012-07-06 21:00,ZGHA 062100Z 17003MPS CAVOK 27/22 Q1003 NOSIG
ZGHA,2012-07-06 22:00,ZGHA 062200Z 16003MPS CAVOK 28/22 Q1003 NOSIG
ZGHA,2012-07-06 23:00,ZGHA 062300Z 17005MPS CAVOK 29/22 Q1002 NOSIG
ZGHA,2012-07-07 00:00,ZGHA 070000Z 18005MPS CAVOK 30/22 Q1003 NOSIG
ZGHA,2012-07-07 01:00,ZGHA 070100Z 19006MPS CAVOK 31/22 Q1003 NOSIG
ZGHA,2012-07-07 02:00,ZGHA 070200Z 19007MPS CAVOK 33/21 Q1002 NOSIG
ZGHA,2012-07-07 03:00,ZGHA 070300Z 20006MPS 170V240 CAVOK 34/21 Q1002 NOSIG
ZGHA,2012-07-07 04:00,ZGHA 070400Z 19005MPS 150V220 9999 SCT040 34/21 Q1002 NOSIG
ZGHA,2012-07-07 05:00,ZGHA 070500Z 20006MPS 160V230 9999 SCT040 36/21 Q1002 NOSIG
ZGHA,2012-07-07 06:00,ZGHA 070600Z 18006MPS 150V230 9999 SCT040 35/21 Q1001 NOSIG
ZGHA,2012-07-07 07:00,ZGHA 070700Z 22006MPS 170V250 9999 SCT040 36/21 Q1001 NOSIG
ZGHA,2012-07-07 08:00,ZGHA 070800Z 22006MPS 9999 SCT040 35/21 Q1000 NOSIG
ZGHA,2012-07-07 09:00,ZGHA 070900Z 19006MPS 9999 FEW050 35/22 Q1000 NOSIG
ZGHA,2012-07-07 10:00,ZGHA 071000Z 18005MPS CAVOK 34/21 Q1000 NOSIG
ZGHA,2012-07-07 11:00,ZGHA 071100Z 15002MPS 7000 NSC 33/22 Q1000 NOSIG
ZGHA,2012-07-07 12:00,ZGHA 071200Z 15002MPS 7000 NSC 31/23 Q1000 NOSIG
ZGHA,2012-07-07 13:00,ZGHA 071300Z 14002MPS 8000 NSC 31/23 Q1001 NOSIG
ZGHA,2012-07-07 14:00,ZGHA 071400Z 16004MPS CAVOK 31/22 Q1001 NOSIG
ZGHA,2012-07-07 15:00,ZGHA 071500Z 16003MPS CAVOK 30/22 Q1002 NOSIG
ZGHA,2012-07-07 16:00,ZGHA 071600Z 15004MPS CAVOK 29/22 Q1002 NOSIG
ZGHA,2012-07-07 17:00,ZGHA 071700Z 16004MPS CAVOK 29/22 Q1001 NOSIG
ZGHA,2012-07-07 18:00,ZGHA 071800Z 15003MPS CAVOK 28/22 Q1001 NOSIG
ZGHA,2012-07-07 19:00,ZGHA 071900Z 16003MPS CAVOK 28/21 Q1001 NOSIG
ZGHA,2012-07-07 20:00,ZGHA 072000Z 18003MPS CAVOK 28/21 Q1002 NOSIG
ZGHA,2012-07-07 21:00,ZGHA 072100Z 17003MPS CAVOK 27/21 Q1002 NOSIG
ZGHA,2012-07-07 22:00,ZGHA 072200Z 18003MPS CAVOK 27/21 Q1002 NOSIG
ZGHA,2012-07-07 23:00,ZGHA 072300Z 17004MPS CAVOK 28/21 Q1003 NOSIG
ZGHA,2012-07-08 00:00,ZGHA 080000Z 18005MPS CAVOK 30/21 Q1003 NOSIG
ZGHA,2012-07-08 01:00,ZGHA 080100Z 18006MPS 150V210 CAVOK 31/22 Q1003 NOSIG
ZGHA,2012-07-08 02:00,ZGHA 080200Z 19007MPS 150V210 CAVOK 33/22 Q1003 NOSIG
ZGHA,2012-07-08 03:00,ZGHA 080300Z 20007MPS CAVOK 34/21 Q1003 NOSIG
ZGHA,2012-07-08 04:00,ZGHA 080400Z 19007MPS 9999 SCT040 35/21 Q1002 NOSIG
ZGHA,2012-07-08 05:00,ZGHA 080500Z 19007MPS 9999 BKN050 36/21 Q1002 NOSIG
ZGHA,2012-07-08 06:00,ZGHA 080600Z 20007MPS 9999 BKN050 36/20 Q1001 NOSIG
ZGHA,2012-07-08 07:00,ZGHA 080700Z 19006MPS 9999 BKN050 36/21 Q1001 NOSIG
ZGHA,2012-07-08 08:00,ZGHA 080800Z 18006MPS 9999 BKN050 35/21 Q1001 NOSIG
ZGHA,2012-07-08 09:00,ZGHA 080900Z 20005MPS 9999 BKN050 35/21 Q1001 NOSIG
ZGHA,2012-07-08 10:00,ZGHA 081000Z 20003MPS CAVOK 34/21 Q1001 NOSIG
ZGHA,2012-07-08 11:00,ZGHA 081100Z 17002MPS CAVOK 33/22 Q1001 NOSIG
ZGHA,2012-07-08 12:00,ZGHA 081200Z 15002MPS CAVOK 31/23 Q1002 NOSIG
ZGHA,2012-07-08 13:00,ZGHA 081300Z 16002MPS CAVOK 30/23 Q1002 NOSIG
ZGHA,2012-07-08 14:00,ZGHA 081400Z 15003MPS CAVOK 30/23 Q1003 NOSIG
ZGHA,2012-07-08 15:00,ZGHA 081500Z 18002MPS CAVOK 29/23 Q1003 NOSIG
ZGHA,2012-07-08 16:00,ZGHA 081600Z 17003MPS CAVOK 29/23 Q1002 NOSIG
ZGHA,2012-07-08 17:00,ZGHA 081700Z 16002MPS CAVOK 28/23 Q1002 NOSIG
ZGHA,2012-07-08 18:00,ZGHA 081800Z 17003MPS CAVOK 28/22 Q1002 NOSIG
ZGHA,2012-07-08 19:00,ZGHA 081900Z 14002MPS CAVOK 28/22 Q1002 NOSIG
ZGHA,2012-07-08 20:00,ZGHA 082000Z 18003MPS CAVOK 28/22 Q1002 NOSIG
ZGHA,2012-07-08 21:00,ZGHA 082100Z 17003MPS CAVOK 28/22 Q1003 NOSIG
ZGHA,2012-07-08 22:00,ZGHA 082200Z 18004MPS CAVOK 28/22 Q1004 NOSIG
ZGHA,2012-07-08 23:00,ZGHA 082300Z 18005MPS CAVOK 29/22 Q1004 NOSIG
ZGHA,2012-07-09 00:00,ZGHA 090000Z 18005MPS CAVOK 30/22 Q1004 NOSIG
ZGHA,2012-07-09 01:00,ZGHA 090100Z 18006MPS CAVOK 32/22 Q1004 NOSIG
ZGHA,2012-07-09 02:00,ZGHA 090200Z 20006MPS 170V230 CAVOK 34/22 Q1004 NOSIG
ZGHA,2012-07-09 03:00,ZGHA 090300Z 18008MPS CAVOK 34/21 Q1004 NOSIG
ZGHA,2012-07-09 04:00,ZGHA 090400Z 18007MPS 9999 FEW040 36/21 Q1003 NOSIG
ZGHA,2012-07-09 05:00,ZGHA 090500Z 21007MPS 9999 BKN040 36/20 Q1003 NOSIG
ZGHA,2012-07-09 06:00,ZGHA 090600Z 20006G11MPS 9999 FEW040TCU SCT040 35/21 Q1002 NOSIG
ZGHA,2012-07-09 07:00,ZGHA 090700Z 21007G12MPS 9999 FEW040TCU SCT040 36/21 Q1002 NOSIG
ZGHA,2012-07-09 08:00,ZGHA 090800Z 20006MPS 170V230 9999 SCT040 37/20 Q1002 NOSIG
ZGHA,2012-07-09 09:00,ZGHA 090900Z 18006MPS 9999 SCT040 36/21 Q1001 NOSIG
ZGHA,2012-07-09 10:00,ZGHA 091000Z 18005MPS 9999 FEW040 35/20 Q1001 NOSIG
ZGHA,2012-07-09 11:00,ZGHA 091100Z 18003MPS CAVOK 33/22 Q1002 NOSIG
ZGHA,2012-07-09 12:00,ZGHA 091200Z 15003MPS CAVOK 32/22 Q1002 NOSIG
ZGHA,2012-07-09 13:00,ZGHA 091300Z 15003MPS CAVOK 31/22 Q1002 NOSIG
ZGHA,2012-07-09 14:00,ZGHA 091400Z 17003MPS CAVOK 31/22 Q1002 NOSIG
ZGHA,2012-07-09 15:00,ZGHA 091500Z 16003MPS CAVOK 30/23 Q1002 NOSIG
ZGHA,2012-07-09 16:00,ZGHA 091600Z 18003MPS CAVOK 29/22 Q1002 NOSIG
ZGHA,2012-07-09 17:00,ZGHA 091700Z 18003MPS CAVOK 28/22 Q1002 NOSIG
ZGHA,2012-07-09 18:00,ZGHA 091800Z 16002MPS CAVOK 28/23 Q1002 NOSIG
ZGHA,2012-07-09 19:00,ZGHA 091900Z 13001MPS CAVOK 28/23 Q1002 NOSIG
ZGHA,2012-07-09 20:00,ZGHA 092000Z 14002MPS CAVOK 27/23 Q1002 NOSIG
ZGHA,2012-07-09 21:00,ZGHA 092100Z 17002MPS CAVOK 27/23 Q1003 NOSIG
ZGHA,2012-07-09 22:00,ZGHA 092200Z 17001MPS CAVOK 27/23 Q1003 NOSIG
ZGHA,2012-07-09 23:00,ZGHA 092300Z 17003MPS CAVOK 29/23 Q1003 NOSIG
ZGHA,2012-07-10 00:00,ZGHA 100000Z 18004MPS CAVOK 30/23 Q1003 NOSIG
ZGHA,2012-07-10 01:00,ZGHA 100100Z 20007MPS CAVOK 33/23 Q1003 NOSIG
ZGHA,2012-07-10 02:00,ZGHA 100200Z 20007MPS CAVOK 34/22 Q1003 NOSIG
ZGHA,2012-07-10 03:00,ZGHA 100300Z 20007MPS CAVOK 34/22 Q1002 NOSIG
ZGHA,2012-07-10 04:00,ZGHA 100400Z 21007MPS 9999 FEW040 36/22 Q1002 NOSIG
ZGHA,2012-07-10 05:00,ZGHA 100500Z 22007MPS 190V250 9999 SCT040 36/21 Q1001 NOSIG
ZGHA,2012-07-10 06:00,ZGHA 100600Z 20007MPS 170V240 9999 BKN040 36/22 Q1001 NOSIG
ZGHA,2012-07-10 07:00,ZGHA 100700Z 22008MPS 190V260 9999 SCT040 37/19 Q1000 NOSIG
ZGHA,2012-07-10 08:00,ZGHA 100800Z 21008MPS 9999 SCT040 37/20 Q1000 NOSIG
ZGHA,2012-07-10 09:00,ZGHA 100900Z 20006MPS 9999 FEW040TCU SCT040 36/21 Q1000 NOSIG
ZGHA,2012-07-10 10:00,ZGHA 101000Z 21006MPS 180V240 9999 FEW040 35/21 Q1000 NOSIG
ZGHA,2012-07-10 11:00,ZGHA 101100Z 21004MPS 9999 FEW040 34/21 Q1000 NOSIG
ZGHA,2012-07-10 12:00,ZGHA 101200Z 21004MPS CAVOK 33/21 Q1000 NOSIG
ZGHA,2012-07-10 13:00,ZGHA 101300Z 20002MPS CAVOK 31/22 Q1000 NOSIG
ZGHA,2012-07-10 14:00,ZGHA 101400Z 16002MPS CAVOK 30/23 Q1001 NOSIG
ZGHA,2012-07-10 15:00,ZGHA 101500Z 17003MPS CAVOK 29/23 Q1001 NOSIG
ZGHA,2012-07-10 16:00,ZGHA 101600Z 18002MPS CAVOK 29/23 Q1000 NOSIG
ZGHA,2012-07-10 17:00,ZGHA 101700Z 18002MPS CAVOK 28/23 Q1000 NOSIG
ZGHA,2012-07-10 18:00,ZGHA 101800Z 16003MPS CAVOK 28/23 Q1000 NOSIG
ZGHA,2012-07-10 19:00,ZGHA 101900Z 17003MPS CAVOK 28/23 Q1000 NOSIG
ZGHA,2012-07-10 20:00,ZGHA 102000Z 18003MPS CAVOK 28/23 Q1001 NOSIG
ZGHA,2012-07-10 21:00,ZGHA 102100Z 18003MPS CAVOK 27/23 Q1001 NOSIG
ZGHA,2012-07-10 22:00,ZGHA 102200Z 17002MPS CAVOK 27/23 Q1001 NOSIG
ZGHA,2012-07-10 23:00,ZGHA 102300Z 17003MPS CAVOK 28/23 Q1002 NOSIG
ZGHA,2012-07-11 00:00,ZGHA 110000Z 19004MPS CAVOK 31/23 Q1002 NOSIG
ZGHA,2012-07-11 01:00,ZGHA 110100Z 20006MPS CAVOK 33/23 Q1002 NOSIG
ZGHA,2012-07-11 02:00,ZGHA 110200Z 20006MPS 160V240 CAVOK 33/23 Q1002 NOSIG
ZGHA,2012-07-11 03:00,ZGHA 110300Z 20005MPS 160V230 9999 FEW040 35/22 Q1002 NOSIG
ZGHA,2012-07-11 04:00,ZGHA 110400Z 21006MPS 180V240 9999 SCT040 36/22 Q1001 NOSIG
ZGHA,2012-07-11 05:00,ZGHA 110500Z 22006MPS 180V250 9999 SCT050 36/21 Q1001 NOSIG
ZGHA,2012-07-11 06:00,ZGHA 110600Z 20006MPS 9999 BKN050 36/21 Q1000 NOSIG
ZGHA,2012-07-11 07:00,ZGHA 110700Z 20006MPS 9999 BKN050 37/21 Q1000 NOSIG
ZGHA,2012-07-11 08:00,ZGHA 110800Z 20007MPS 170V240 9999 FEW050 37/21 Q0999 NOSIG
ZGHA,2012-07-11 09:00,ZGHA 110900Z 21005MPS 9999 FEW050 37/21 Q0999 NOSIG
ZGHA,2012-07-11 10:00,ZGHA 111000Z 19003MPS CAVOK 35/22 Q0999 NOSIG
ZGHA,2012-07-11 11:00,ZGHA 111100Z 18003MPS CAVOK 34/23 Q0999 NOSIG
ZGHA,2012-07-11 12:00,ZGHA 111200Z 16001MPS CAVOK 32/24 Q1000 NOSIG
ZGHA,2012-07-11 13:00,ZGHA 111300Z 16002MPS CAVOK 32/23 Q1000 NOSIG
ZGHA,2012-07-11 14:00,ZGHA 111400Z 16002MPS CAVOK 31/23 Q1001 NOSIG
ZGHA,2012-07-11 15:00,ZGHA 111500Z 16003MPS CAVOK 31/23 Q1001 NOSIG
ZGHA,2012-07-11 16:00,ZGHA 111600Z 18002MPS CAVOK 29/24 Q1001 NOSIG
ZGHA,2012-07-11 17:00,ZGHA 111700Z 16002MPS CAVOK 29/24 Q1001 NOSIG
ZGHA,2012-07-11 18:00,ZGHA 111800Z 18003MPS CAVOK 29/23 Q1000 NOSIG
ZGHA,2012-07-11 19:00,ZGHA 111900Z 18003MPS CAVOK 29/23 Q1001 NOSIG
ZGHA,2012-07-11 20:00,ZGHA 112000Z 17004MPS CAVOK 29/23 Q1001 NOSIG
ZGHA,2012-07-11 21:00,ZGHA 112100Z 18003MPS CAVOK 28/23 Q1001 NOSIG
ZGHA,2012-07-11 22:00,ZGHA 112200Z 18004MPS CAVOK 28/23 Q1001 NOSIG
ZGHA,2012-07-11 23:00,ZGHA 112300Z 18004MPS CAVOK 29/23 Q1002 NOSIG
ZGHA,2012-07-12 00:00,ZGHA 120000Z 18005MPS CAVOK 31/23 Q1002 NOSIG
ZGHA,2012-07-12 01:00,ZGHA 120100Z 21006MPS CAVOK 33/22 Q1002 NOSIG
ZGHA,2012-07-12 02:00,ZGHA 120200Z 20006MPS 9999 FEW040 34/21 Q1002 NOSIG
ZGHA,2012-07-12 03:00,ZGHA 120300Z 19007MPS 160V220 9999 FEW040 35/21 Q1002 NOSIG
ZGHA,2012-07-12 04:00,ZGHA 120400Z 22007MPS 200V260 9999 FEW040 36/20 Q1002 NOSIG
ZGHA,2012-07-12 05:00,ZGHA 120500Z 22007MPS 190V250 9999 SCT050 36/20 Q1001 NOSIG
ZGHA,2012-07-12 06:00,ZGHA 120600Z 22007MPS 9999 SCT050 37/19 Q1001 NOSIG
ZGHA,2012-07-12 07:00,ZGHA 120700Z 20007MPS 170V230 9999 SCT050 36/20 Q1000 NOSIG
ZGHA,2012-07-12 08:00,ZGHA 120800Z 19006MPS 9999 SCT050 36/20 Q0999 NOSIG
ZGHA,2012-07-12 09:00,ZGHA 120900Z 18006MPS 9999 FEW050 36/21 Q0999 NOSIG
ZGHA,2012-07-12 10:00,ZGHA 121000Z 20005MPS CAVOK 36/21 Q0999 NOSIG
ZGHA,2012-07-12 11:00,ZGHA 121100Z 20003MPS CAVOK 34/21 Q1000 NOSIG
ZGHA,2012-07-12 12:00,ZGHA 121200Z 16002MPS 9999 FEW050 32/22 Q1000 NOSIG
ZGHA,2012-07-12 13:00,ZGHA 121300Z 18002MPS CAVOK 31/23 Q1000 NOSIG
ZGHA,2012-07-12 14:00,ZGHA 121400Z 17002MPS CAVOK 31/22 Q1001 NOSIG
ZGHA,2012-07-12 15:00,ZGHA 121500Z 16002MPS CAVOK 30/23 Q1001 NOSIG
ZGHA,2012-07-12 16:00,ZGHA 121600Z 17002MPS CAVOK 29/23 Q1001 NOSIG
ZGHA,2012-07-12 17:00,ZGHA 121700Z 16002MPS CAVOK 29/23 Q1001 NOSIG
ZGHA,2012-07-12 18:00,ZGHA 121800Z 16002MPS CAVOK 28/23 Q1000 NOSIG
ZGHA,2012-07-12 19:00,ZGHA 121900Z 18003MPS CAVOK 28/22 Q1000 NOSIG
ZGHA,2012-07-12 20:00,ZGHA 122000Z 18003MPS CAVOK 28/22 Q1000 NOSIG
ZGHA,2012-07-12 21:00,ZGHA 122100Z 18003MPS CAVOK 28/22 Q1000 NOSIG
ZGHA,2012-07-12 22:00,ZGHA 122200Z 18003MPS CAVOK 28/22 Q1000 NOSIG
ZGHA,2012-07-12 23:00,ZGHA 122300Z 18004MPS CAVOK 29/22 Q1001 NOSIG
ZGHA,2012-07-13 00:00,ZGHA 130000Z 18005MPS CAVOK 31/22 Q1001 NOSIG
ZGHA,2012-07-13 01:00,ZGHA 130100Z 19006MPS CAVOK 33/21 Q1001 NOSIG
ZGHA,2012-07-13 02:00,ZGHA 130200Z 20006MPS 160V240 CAVOK 34/21 Q1002 NOSIG
ZGHA,2012-07-13 03:00,ZGHA 130300Z 20006MPS 160V230 9999 SCT043 35/21 Q1001 NOSIG
ZGHA,2012-07-13 04:00,ZGHA 130400Z 20007MPS 9999 BKN050 35/21 Q1001 NOSIG
ZGHA,2012-07-13 05:00,ZGHA 130500Z 20007MPS 9999 BKN040 35/20 Q1000 NOSIG
ZGHA,2012-07-13 06:00,ZGHA 130600Z 19006MPS 9999 BKN040 35/21 Q0999 NOSIG
ZGHA,2012-07-13 07:00,ZGHA 130700Z 20006MPS 9999 FEW040TCU BKN040 35/21 Q0999 NOSIG
ZGHA,2012-07-13 08:00,ZGHA 130800Z 20005MPS 9999 FEW040 35/21 Q0998 NOSIG
ZGHA,2012-07-13 09:00,ZGHA 130900Z 21003MPS 9999 FEW040 34/21 Q0998 NOSIG
ZGHA,2012-07-13 10:00,ZGHA 131000Z 20003MPS 9999 FEW050 34/21 Q0998 NOSIG
ZGHA,2012-07-13 11:00,ZGHA 131100Z 19002MPS 9999 SCT050 33/22 Q0998 NOSIG
ZGHA,2012-07-13 12:00,ZGHA 131200Z 21002MPS CAVOK 33/21 Q0999 NOSIG
ZGHA,2012-07-13 13:00,ZGHA 131300Z VRB01MPS CAVOK 31/23 Q0999 NOSIG
ZGHA,2012-07-13 14:00,ZGHA 131400Z 17002MPS CAVOK 31/23 Q1000 NOSIG
ZGHA,2012-07-13 15:00,ZGHA 131500Z 19002MPS CAVOK 30/23 Q0999 NOSIG
ZGHA,2012-07-13 16:00,ZGHA 131600Z 19002MPS CAVOK 30/22 Q0999 NOSIG
ZGHA,2012-07-13 17:00,ZGHA 131700Z 20002MPS CAVOK 30/22 Q0999 NOSIG
ZGHA,2012-07-13 18:00,ZGHA 131800Z 18002MPS CAVOK 30/22 Q0998 NOSIG
ZGHA,2012-07-13 19:00,ZGHA 131900Z 34003MPS 300V360 6000 FEW050 28/24 Q0998 NOSIG
ZGHA,2012-07-13 20:00,ZGHA 132000Z VRB01MPS 6000 FEW050 28/24 Q0998 NOSIG
ZGHA,2012-07-13 21:00,ZGHA 132100Z 28002MPS 4200 -RA BR SCT050 27/25 Q0999 NOSIG
ZGHA,2012-07-13 22:00,ZGHA 132200Z 30002MPS 280V340 1600 -RA BR SCT007 OVC050 27/25 Q0999 BECMG TL2300 1300
ZGHA,2012-07-13 23:00,ZGHA 132300Z 25002MPS 2200 -RA BR BKN006 OVC050 27/25 Q1000 BECMG 1400
ZGHA,2012-07-14 00:00,ZGHA 140000Z 28003MPS 2000 -RA BR FEW004 BKN007 OVC050 26/25 Q1001 NOSIG
ZGHA,2012-07-14 01:00,ZGHA 140100Z 31005MPS 7000 BKN007 OVC050 26/24 Q1001 BECMG TL0130 2000 RA BR
ZGHA,2012-07-14 02:00,ZGHA 140200Z 34005MPS 4500 -SHRA BR BKN007 FEW050CB BKN050 25/23 Q1002 BECMG TL0210 1700 SHRA BR
ZGHA,2012-07-14 03:00,ZGHA 140300Z 30003MPS 270V330 3500 RA BR FEW004 BKN007 OVC050 24/23 Q1002 BECMG 0330 -RA BR BKN011 OVC050
ZGHA,2012-07-14 04:00,ZGHA 140400Z 29002MPS 260V330 7000 -RA BKN008 OVC050 25/23 Q1002 RESHRA RERA BECMG TL0500 SCT011 OVC050
ZGHA,2012-07-16 06:00,ZGHA 160600Z VRB01MPS 2000 SHRA BR BKN006 SCT040CB SCT040 24/23 Q1005 BECMG TL0700 -SHRA BR
ZGHA,2012-07-16 07:00,ZGHA 160700Z VRB01MPS 6000 -SHRA BKN006 FEW040CB BKN040 24/23 Q1004 RESHRA NOSIG
ZGHA,2012-07-16 08:00,ZGHA 160800Z 07001MPS 8000 -SHRA BKN006 FEW040CB BKN040 25/24 Q1004 BECMG TL0900 SHRA
ZGHA,2012-07-16 09:00,ZGHA 160900Z 01002MPS 5000 SHRA BR BKN006 SCT040CB SCT040 25/24 Q1004 BECMG TL1000 -SHRA
ZGHA,2012-07-16 10:00,ZGHA 161000Z 15002MPS 6000 -SHRA BKN006 FEW040CB BKN040 25/23 Q1003 RESHRA NOSIG
ZGHA,2012-07-16 11:00,ZGHA 161100Z 14002MPS 8000 -SHRA BKN006 FEW040CB BKN040 25/23 Q1004 NOSIG
ZGHA,2012-07-16 12:00,ZGHA 161200Z 02002MPS 350V070 8000 -RA BKN006 25/23 Q1005 NOSIG
ZGHA,2012-07-16 13:00,ZGHA 161300Z 02001MPS 9999 -RA OVC050 24/23 Q1005 NOSIG
ZGHA,2012-07-16 14:00,ZGHA 161400Z VRB01MPS 8000 SHRA SCT030CB BKN030 24/23 Q1005 NOSIG
ZGHA,2012-07-16 15:00,ZGHA 161500Z VRB01MPS 9999 SCT007 OVC030 24/23 Q1005 NOSIG
ZGHA,2012-07-16 16:00,ZGHA 161600Z 29002MPS 270V340 9999 SCT007 OVC030 25/24 Q1005 NOSIG
ZGHA,2012-07-16 17:00,ZGHA 161700Z VRB01MPS 9000 -RA SCT007 OVC030 24/23 Q1004 NOSIG
ZGHA,2012-07-16 18:00,ZGHA 161800Z 05002MPS 340V090 6000 -RA SCT007 OVC030 24/23 Q1004 NOSIG
ZGHA,2012-07-16 19:00,ZGHA 161900Z VRB01MPS 3000 -RA BR SCT007 OVC030 24/23 Q1003 NOSIG
ZGHA,2012-07-16 20:00,ZGHA 162000Z 02001MPS 5000 -RA BR SCT007 OVC030 24/23 Q1003 NOSIG
ZGHA,2012-07-16 21:00,ZGHA 162100Z 07002MPS 040V110 6000 -RA SCT007 OVC030 24/23 Q1003 NOSIG
ZGHA,2012-07-16 22:00,ZGHA 162200Z VRB01MPS 5000 -RA BR SCT005 OVC030 24/23 Q1004 NOSIG
ZGHA,2012-07-16 23:00,ZGHA 162300Z 34002MPS 310V010 2000 SHRA BR SCT005 SCT033CB BKN033 24/23 Q1005 BECMG TL0100 3500
ZGHA,2012-07-17 00:00,ZGHA 170000Z 09002MPS 040V130 6000 -SHRA SCT004 FEW033CB BKN033 24/24 Q1005 RESHRA BECMG TL0100 SHRA
ZGHA,2012-07-17 01:00,ZGHA 170100Z VRB01MPS 1700 SHRA BR SCT004 FEW040CB BKN040 25/24 Q1005 NOSIG
ZGHA,2012-07-17 02:00,ZGHA 170200Z 03002MPS 350V070 8000 -RA SCT004 BKN007 OVC050 25/24 Q1005 BECMG TL0340 2500 SHRA
ZGHA,2012-07-17 03:00,ZGHA 170300Z 05002MPS 010V090 8000 -RA BKN007 OVC050 26/24 Q1005 NOSIG
ZGHA,2012-07-17 04:00,ZGHA 170400Z 04002MPS 350V080 8000 -RA FEW004 BKN007 OVC050 26/24 Q1005 NOSIG
ZGHA,2012-07-17 05:00,ZGHA 170500Z 07002MPS 030V110 9999 -RA FEW007 SCT020 BKN050 27/25 Q1004 BECMG TL0715 -TSRA BKN006 SCT040CB OVC050
ZGHA,2012-07-17 06:00,ZGHA 170600Z 03002MPS 350V130 9999 -RA FEW007 SCT020 BKN050 28/25 Q1004 NOSIG
ZGHA,2012-07-17 07:00,ZGHA 170700Z VRB02MPS 9999 -RA SCT011 OVC050 28/25 Q1004 NOSIG
ZGHA,2012-07-17 08:00,ZGHA 170800Z VRB01MPS 9999 -RA SCT013 BKN050 29/25 Q1003 NOSIG
ZGHA,2012-07-17 09:00,ZGHA 170900Z VRB01MPS 9999 SCT015 29/24 Q1003 NOSIG
ZGHA,2012-07-17 10:00,ZGHA 171000Z 00000MPS 9999 SCT026 29/25 Q1003 NOSIG
ZGHA,2012-07-17 11:00,ZGHA 171100Z VRB01MPS 9999 SCT023 28/25 Q1004 NOSIG
ZGHA,2012-07-17 12:00,ZGHA 171200Z VRB01MPS 9999 BKN023 28/25 Q1004 NOSIG
ZGHA,2012-07-17 13:00,ZGHA 171300Z VRB01MPS 8000 SCT023 27/25 Q1005 NOSIG
ZGHA,2012-07-17 14:00,ZGHA 171400Z 00000MPS 6000 BKN020 27/25 Q1005 BECMG 2500 -TSRA SCT11 BKN020 FEW033CB OVC050
ZGHA,2012-07-17 15:00,ZGHA 171500Z 19005G10MPS 6000 TS FEW050CB BKN050 26/24 Q1006 BECMG TL1700 -RA
ZGHA,2012-07-17 16:00,ZGHA 171600Z 18003MPS 8000 -SHRA SCT012 FEW050CB BKN050 24/23 Q1006 NOSIG
ZGHA,2012-07-17 17:00,ZGHA 171700Z 16002MPS 9999 -RA SCT012 OVC050 24/22 Q1005 NOSIG
ZGHA,2012-07-17 18:00,ZGHA 171800Z VRB01MPS 9999 SCT050 24/22 Q1005 NOSIG
ZGHA,2012-07-17 19:00,ZGHA 171900Z 22002MPS 9999 SCT050 24/22 Q1005 NOSIG
ZGHA,2012-07-17 20:00,ZGHA 172000Z VRB01MPS 9999 -RA SCT050 24/22 Q1005 NOSIG
ZGHA,2012-07-17 21:00,ZGHA 172100Z 22001MPS 9999 SCT033 24/22 Q1005 NOSIG
ZGHA,2012-07-17 22:00,ZGHA 172200Z 00000MPS 9999 SCT033 24/23 Q1005 NOSIG
ZGHA,2012-07-17 23:00,ZGHA 172300Z VRB01MPS 9999 -SHRA SCT012 SCT030 OVC050 24/23 Q1006 NOSIG
ZGHA,2012-07-18 00:00,ZGHA 180000Z 01002MPS 8000 -SHRA SCT012 SCT030 OVC050 24/23 Q1006 NOSIG
ZGHA,2012-07-18 01:00,ZGHA 180100Z VRB01MPS 7000 -SHRA BKN007 FEW040CB BKN040 24/23 Q1006 BECMG TL0300 SHRA
ZGHA,2012-07-18 02:00,ZGHA 180200Z VRB01MPS 7000 BKN007 OVC040 25/23 Q1006 BECMG TL0230 SHRA BKN007 FEW030CB OVC040
ZGHA,2012-07-18 03:00,ZGHA 180300Z VRB01MPS 6000 -SHRA BKN007 FEW040CB BKN040 25/24 Q1007 RESHRA NOSIG
ZGHA,2012-07-18 04:00,ZGHA 180400Z VRB01MPS 6000 -RA BKN007 OVC050 26/24 Q1006 NOSIG
ZGHA,2012-07-18 05:00,ZGHA 180500Z VRB01MPS 9000 SCT020 27/25 Q1006 BECMG TL0700 SHRA BKN008 FEW030CB OVC040
ZGHA,2012-07-18 06:00,ZGHA 180600Z VRB01MPS 9999 SCT033 27/24 Q1006 NOSIG
ZGHA,2012-07-18 07:00,ZGHA 180700Z 08002MPS 010V130 9999 SCT040 28/24 Q1005 NOSIG
ZGHA,2012-07-18 08:00,ZGHA 180800Z VRB01MPS 9999 SCT050 28/24 Q1004 NOSIG
ZGHA,2012-07-18 09:00,ZGHA 180900Z 01002MPS 330V040 9999 SCT040 28/25 Q1004 NOSIG
ZGHA,2012-07-18 10:00,ZGHA 181000Z VRB01MPS 9999 SCT015 29/25 Q1005 NOSIG
ZGHA,2012-07-18 11:00,ZGHA 181100Z 00000MPS CAVOK 28/25 Q1005 NOSIG
ZGHA,2012-07-18 12:00,ZGHA 181200Z VRB01MPS 8000 SCT050 28/25 Q1006 NOSIG
ZGHA,2012-07-18 13:00,ZGHA 181300Z 18001MPS 7000 SCT050 27/25 Q1006 BECMG TL1340 -TSRA BKN011 FEW040CB OVC050
ZGHA,2012-07-18 14:00,ZGHA 181400Z 14003MPS 8000 SCT050 26/23 Q1006 NOSIG
ZGHA,2012-07-18 15:00,ZGHA 181500Z 16003MPS 9999 SCT050 25/22 Q1007 NOSIG
ZGHA,2012-07-18 16:00,ZGHA 181600Z 19002MPS 9999 SCT050 24/22 Q1007 NOSIG
ZGHA,2012-07-18 17:00,ZGHA 181700Z 17002MPS 9999 SCT050 24/22 Q1007 NOSIG
ZGHA,2012-07-18 18:00,ZGHA 181800Z 20001MPS 9999 SCT050 24/22 Q1006 NOSIG
ZGHA,2012-07-18 19:00,ZGHA 181900Z 19002MPS 9999 FEW015 SCT050 24/23 Q1006 NOSIG
ZGHA,2012-07-18 20:00,ZGHA 182000Z 18002MPS 9999 BKN009 OVC050 24/23 Q1006 NOSIG
ZGHA,2012-07-18 21:00,ZGHA 182100Z 16002MPS 9999 BKN009 OVC050 24/23 Q1006 NOSIG
ZGHA,2012-07-18 22:00,ZGHA 182200Z 16002MPS 9999 BKN009 OVC050 24/23 Q1007 BECMG BKN011 OVC050
ZGHA,2012-07-18 23:00,ZGHA 182300Z 14002MPS 9999 BKN009 OVC050 25/23 Q1007 NOSIG
ZGHA,2012-07-19 00:00,ZGHA 190000Z 15002MPS 9999 BKN009 OVC050 25/23 Q1007 NOSIG
ZGHA,2012-07-19 01:00,ZGHA 190100Z 16001MPS 9999 -RA BKN009 OVC050 26/23 Q1008 NOSIG
ZGHA,2012-07-19 02:00,ZGHA 190200Z 14003MPS 9999 SCT011 27/23 Q1008 NOSIG
ZGHA,2012-07-19 03:00,ZGHA 190300Z 13002MPS 090V180 9999 BKN050 28/23 Q1008 NOSIG
ZGHA,2012-07-19 04:00,ZGHA 190400Z 19002MPS 150V210 CAVOK 28/23 Q1008 NOSIG
ZGHA,2012-07-19 05:00,ZGHA 190500Z VRB01MPS 9999 SCT040 29/24 Q1007 NOSIG
ZGHA,2012-07-19 06:00,ZGHA 190600Z VRB01MPS 9999 SCT050 30/24 Q1006 NOSIG
ZGHA,2012-07-19 07:00,ZGHA 190700Z VRB01MPS 9999 SCT050 30/24 Q1006 NOSIG
ZGHA,2012-07-19 08:00,ZGHA 190800Z VRB01MPS CAVOK 30/24 Q1005 NOSIG
ZGHA,2012-07-19 09:00,ZGHA 190900Z 00000MPS CAVOK 30/24 Q1005 NOSIG
ZGHA,2012-07-19 10:00,ZGHA 191000Z VRB01MPS CAVOK 30/24 Q1004 NOSIG
ZGHA,2012-07-19 11:00,ZGHA 191100Z VRB01MPS CAVOK 29/24 Q1005 NOSIG
ZGHA,2012-07-19 12:00,ZGHA 191200Z VRB01MPS CAVOK 28/25 Q1005 NOSIG
ZGHA,2012-07-19 13:00,ZGHA 191300Z VRB01MPS CAVOK 28/26 Q1006 NOSIG
ZGHA,2012-07-19 14:00,ZGHA 191400Z 01001MPS 8000 NSC 28/25 Q1007 NOSIG
ZGHA,2012-07-19 15:00,ZGHA 191500Z 00000MPS 7000 NSC 27/26 Q1007 NOSIG
ZGHA,2012-07-19 16:00,ZGHA 191600Z VRB01MPS 6000 NSC 27/26 Q1006 NOSIG
ZGHA,2012-07-19 17:00,ZGHA 191700Z 03001MPS 7000 NSC 27/25 Q1006 NOSIG
ZGHA,2012-07-19 18:00,ZGHA 191800Z 29001MPS 8000 NSC 27/25 Q1005 NOSIG
ZGHA,2012-07-19 19:00,ZGHA 191900Z 00000MPS 7000 NSC 27/25 Q1005 NOSIG
ZGHA,2012-07-19 20:00,ZGHA 192000Z 00000MPS 6000 NSC 26/25 Q1005 NOSIG
ZGHA,2012-07-19 21:00,ZGHA 192100Z 36001MPS 8000 NSC 26/25 Q1005 NOSIG
ZGHA,2012-07-19 22:00,ZGHA 192200Z 03001MPS 6000 NSC 26/25 Q1006 NOSIG
ZGHA,2012-07-19 23:00,ZGHA 192300Z VRB01MPS 6000 NSC 26/25 Q1006 NOSIG
ZGHA,2012-07-20 00:00,ZGHA 200000Z 18001MPS 7000 NSC 27/25 Q1006 NOSIG
ZGHA,2012-07-20 01:00,ZGHA 200100Z 16003MPS CAVOK 29/25 Q1006 NOSIG
ZGHA,2012-07-20 02:00,ZGHA 200200Z 14002MPS 110V180 CAVOK 31/25 Q1006 NOSIG
ZGHA,2012-07-20 03:00,ZGHA 200300Z 17003MPS 9999 FEW023 32/26 Q1006 NOSIG
ZGHA,2012-07-20 04:00,ZGHA 200400Z 12002MPS 050V180 9999 FEW040 33/26 Q1006 NOSIG
ZGHA,2012-07-20 05:00,ZGHA 200500Z 17003MPS 130V220 9999 BKN033 34/24 Q1005 NOSIG
ZGHA,2012-07-20 06:00,ZGHA 200600Z 17003MPS 120V240 9999 BKN040 35/24 Q1004 NOSIG
ZGHA,2012-07-20 07:00,ZGHA 200700Z 21002MPS 150V300 9999 SCT040 35/22 Q1003 NOSIG
ZGHA,2012-07-20 08:00,ZGHA 200800Z 21002MPS 170V270 9999 SCT040 35/23 Q1003 NOSIG
ZGHA,2012-07-20 09:00,ZGHA 200900Z 21003MPS 170V250 9999 SCT040 35/23 Q1003 NOSIG
ZGHA,2012-07-20 10:00,ZGHA 201000Z 23002MPS 150V260 9999 SCT040 35/23 Q1003 NOSIG
ZGHA,2012-07-20 11:00,ZGHA 201100Z VRB01MPS 9999 FEW040TCU SCT040 33/26 Q1003 NOSIG
ZGHA,2012-07-20 12:00,COR ZGHA 201200Z 16007G12MPS 9999 -TSRA SCT014 FEW040CB BKN040 26/22 Q1004 BECMG TL1215 -SHRA
ZGHA,2012-07-20 13:00,ZGHA 201300Z 10002MPS 060V140 CAVOK 26/24 Q1004 RETS NOSIG
ZGHA,2012-07-20 14:00,ZGHA 201400Z VRB01MPS CAVOK 26/23 Q1005 NOSIG
ZGHA,2012-07-20 15:00,ZGHA 201500Z VRB01MPS CAVOK 26/24 Q1005 NOSIG
ZGHA,2012-07-20 16:00,ZGHA 201600Z 14001MPS CAVOK 26/23 Q1005 NOSIG
ZGHA,2012-07-20 17:00,ZGHA 201700Z VRB01MPS CAVOK 26/23 Q1004 NOSIG
ZGHA,2012-07-20 18:00,ZGHA 201800Z 14001MPS CAVOK 26/24 Q1004 NOSIG
ZGHA,2012-07-20 19:00,ZGHA 201900Z 21002MPS CAVOK 25/24 Q1003 NOSIG
ZGHA,2012-07-20 20:00,ZGHA 202000Z 20001MPS CAVOK 25/24 Q1003 NOSIG
ZGHA,2012-07-20 21:00,ZGHA 202100Z 18003MPS CAVOK 25/23 Q1003 NOSIG
ZGHA,2012-07-20 22:00,ZGHA 202200Z 17001MPS CAVOK 25/23 Q1003 NOSIG
ZGHA,2012-07-20 23:00,ZGHA 202300Z VRB01MPS CAVOK 27/24 Q1004 NOSIG
ZGHA,2012-07-21 00:00,ZGHA 210000Z 13002MPS 100V170 CAVOK 29/25 Q1004 NOSIG
ZGHA,2012-07-21 01:00,ZGHA 210100Z 12002MPS 090V160 CAVOK 31/25 Q1004 NOSIG
ZGHA,2012-07-21 02:00,ZGHA 210200Z 17003MPS 130V210 CAVOK 32/24 Q1004 NOSIG
ZGHA,2012-07-21 03:00,ZGHA 210300Z 16003MPS 120V190 CAVOK 33/24 Q1004 NOSIG
ZGHA,2012-07-21 04:00,COR ZGHA 210400Z 17003MPS 130V230 9999 FEW040 34/25 Q1003 NOSIG
ZGHA,2012-07-21 05:00,ZGHA 210500Z 17004MPS 110V230 9999 SCT040 35/24 Q1002 NOSIG
ZGHA,2012-07-21 06:00,ZGHA 210600Z 18003MPS 110V240 9999 SCT040 35/23 Q1001 NOSIG
ZGHA,2012-07-21 07:00,ZGHA 210700Z 14003MPS 100V160 9999 SCT040 36/23 Q1001 NOSIG
ZGHA,2012-07-21 08:00,ZGHA 210800Z 20003MPS 170V230 9999 FEW040 36/22 Q1000 NOSIG
ZGHA,2012-07-21 09:00,ZGHA 210900Z 16002MPS 130V210 9999 FEW040 36/21 Q0999 NOSIG
ZGHA,2012-07-21 10:00,ZGHA 211000Z 18002MPS 9999 FEW040 35/23 Q0999 NOSIG
ZGHA,2012-07-21 11:00,ZGHA 211100Z VRB01MPS 9999 FEW040 34/24 Q1000 NOSIG
ZGHA,2012-07-21 12:00,ZGHA 211200Z 12001MPS 9999 FEW040 32/26 Q1000 NOSIG
ZGHA,2012-07-21 13:00,ZGHA 211300Z 13001MPS CAVOK 31/26 Q1001 NOSIG
ZGHA,2012-07-21 14:00,ZGHA 211400Z 11001MPS CAVOK 30/25 Q1001 NOSIG
ZGHA,2012-07-21 15:00,ZGHA 211500Z VRB01MPS CAVOK 30/24 Q1001 NOSIG
ZGHA,2012-07-21 16:00,ZGHA 211600Z 13001MPS CAVOK 29/26 Q1001 NOSIG
ZGHA,2012-07-21 17:00,ZGHA 211700Z 00000MPS CAVOK 29/25 Q1000 NOSIG
ZGHA,2012-07-21 18:00,ZGHA 211800Z VRB01MPS 8000 NSC 28/25 Q1000 NOSIG
ZGHA,2012-07-21 19:00,ZGHA 211900Z 09001MPS 7000 NSC 28/25 Q0999 NOSIG
ZGHA,2012-07-21 20:00,ZGHA 212000Z 00000MPS 6000 NSC 28/25 Q1000 NOSIG
ZGHA,2012-07-21 21:00,ZGHA 212100Z 27001MPS 6000 NSC 27/25 Q1000 NOSIG
ZGHA,2012-07-21 22:00,ZGHA 212200Z VRB01MPS 5000 BR NSC 27/25 Q1000 NOSIG
ZGHA,2012-07-21 23:00,ZGHA 212300Z 00000MPS 5000 BR NSC 29/25 Q1001 NOSIG
ZGHA,2012-07-22 00:00,ZGHA 220000Z VRB01MPS 6000 NSC 31/25 Q1001 NOSIG
ZGHA,2012-07-22 01:00,ZGHA 220100Z VRB01MPS 8000 NSC 32/25 Q1001 NOSIG
ZGHA,2012-07-22 02:00,ZGHA 220200Z 12002MPS 040V160 CAVOK 34/25 Q1000 NOSIG
ZGHA,2012-07-22 03:00,ZGHA 220300Z VRB02MPS CAVOK 35/23 Q1000 NOSIG
ZGHA,2012-07-22 04:00,ZGHA 220400Z VRB01MPS CAVOK 36/23 Q1000 NOSIG
ZGHA,2012-07-22 05:00,ZGHA 220500Z 12001MPS 9999 SCT040 36/23 Q0999 NOSIG
ZGHA,2012-07-22 06:00,ZGHA 220600Z VRB02MPS 9999 SCT040 37/24 Q0999 NOSIG
ZGHA,2012-07-22 07:00,ZGHA 220700Z 06003MPS 020V100 9999 SCT040 36/23 Q0998 NOSIG
ZGHA,2012-07-22 08:00,ZGHA 220800Z 05002MPS 330V080 9999 FEW040TCU SCT040 36/24 Q0998 NOSIG
ZGHA,2012-07-22 09:00,ZGHA 220900Z 04002MPS 330V090 9999 FEW040TCU FEW040 36/24 Q0997 NOSIG
ZGHA,2012-07-22 10:00,ZGHA 221000Z 01004MPS 330V040 9999 FEW040CB SCT040 34/24 Q0998 TL1030 VRB07G12MPS -TSRA BR BKN011 FEW030CB OVC040
ZGHA,2012-07-22 11:00,ZGHA 221100Z 15008MPS 120V190 5000 TSRA BR FEW009 SCT040CB BKN040 26/24 Q0999 BECMG TL1140 NSW
ZGHA,2012-07-22 12:00,ZGHA 221200Z 04002MPS 360V080 9999 SCT050 27/24 Q1000 NOSIG
ZGHA,2012-07-22 13:00,ZGHA 221300Z 02002MPS 360V060 CAVOK 28/24 Q1000 NOSIG
ZGHA,2012-07-22 14:00,ZGHA 221400Z 33002MPS 280V020 CAVOK 28/25 Q1001 NOSIG
ZGHA,2012-07-22 15:00,ZGHA 221500Z 01002MPS 340V090 CAVOK 28/25 Q1001 NOSIG
ZGHA,2012-07-22 16:00,ZGHA 221600Z 05001MPS CAVOK 27/25 Q1001 NOSIG
ZGHA,2012-07-22 17:00,ZGHA 221700Z 32003MPS 300V360 CAVOK 27/25 Q1000 NOSIG
ZGHA,2012-07-22 18:00,ZGHA 221800Z 36002MPS CAVOK 27/25 Q1000 NOSIG
ZGHA,2012-07-22 19:00,ZGHA 221900Z 32003MPS CAVOK 27/24 Q1000 NOSIG
ZGHA,2012-07-22 20:00,ZGHA 222000Z 31002MPS 280V340 CAVOK 27/24 Q1000 NOSIG
ZGHA,2012-07-22 21:00,ZGHA 222100Z 36003MPS CAVOK 27/24 Q1000 NOSIG
ZGHA,2012-07-22 22:00,ZGHA 222200Z 03002MPS CAVOK 26/25 Q1000 NOSIG
ZGHA,2012-07-22 23:00,ZGHA 222300Z 02002MPS 340V070 8000 BKN050 27/25 Q1000 NOSIG
ZGHA,2012-07-23 00:00,ZGHA 230000Z 36003MPS 8000 NSC 28/25 Q1001 NOSIG
ZGHA,2012-07-23 01:00,ZGHA 230100Z 34003MPS 310V020 8000 NSC 30/26 Q1001 NOSIG
ZGHA,2012-07-23 02:00,ZGHA 230200Z VRB01MPS 8000 BKN040 32/25 Q1001 NOSIG
ZGHA,2012-07-23 03:00,ZGHA 230300Z 01002MPS 330V060 9999 SCT040 32/25 Q1001 NOSIG
ZGHA,2012-07-23 04:00,ZGHA 230400Z VRB02MPS 9999 SCT040 34/25 Q1000 NOSIG
ZGHA,2012-07-23 05:00,ZGHA 230500Z 11003MPS 020V150 9999 SCT040 35/23 Q1000 NOSIG
ZGHA,2012-07-23 06:00,ZGHA 230600Z 09003MPS 040V150 9999 FEW040 35/22 Q0999 NOSIG
ZGHA,2012-07-23 07:00,ZGHA 230700Z 10003MPS 050V140 9999 FEW040TCU BKN040 34/23 Q0998 NOSIG
ZGHA,2012-07-23 08:00,ZGHA 230800Z 08003MPS 030V110 9999 FEW050TCU FEW050 34/23 Q0998 NOSIG
ZGHA,2012-07-23 09:00,ZGHA 230900Z 07003MPS 020V120 9999 FEW050TCU SCT050 34/23 Q0998 NOSIG
ZGHA,2012-07-23 10:00,ZGHA 231000Z 11003MPS 9999 FEW050TCU 33/24 Q0999 NOSIG
ZGHA,2012-07-23 11:00,ZGHA 231100Z VRB01MPS 9999 FEW050TCU FEW050 32/24 Q0999 NOSIG
ZGHA,2012-07-23 12:00,ZGHA 231200Z VRB01MPS 9999 SCT050 31/25 Q1001 NOSIG
ZGHA,2012-07-23 13:00,ZGHA 231300Z 01002MPS CAVOK 29/24 Q1001 NOSIG
ZGHA,2012-07-23 14:00,ZGHA 231400Z 34003MPS 300V020 CAVOK 28/24 Q1002 NOSIG
ZGHA,2012-07-23 15:00,ZGHA 231500Z 34002MPS 300V010 CAVOK 28/24 Q1003 NOSIG
ZGHA,2012-07-23 16:00,ZGHA 231600Z 36002MPS CAVOK 28/24 Q1002 NOSIG
ZGHA,2012-07-23 17:00,ZGHA 231700Z 36003MPS CAVOK 27/24 Q1001 NOSIG
ZGHA,2012-07-23 18:00,ZGHA 231800Z 01003MPS CAVOK 27/24 Q1002 NOSIG
ZGHA,2012-07-23 19:00,ZGHA 231900Z 36004MPS CAVOK 27/24 Q1001 NOSIG
ZGHA,2012-07-23 20:00,ZGHA 232000Z 35003MPS CAVOK 26/24 Q1001 NOSIG
ZGHA,2012-07-23 21:00,ZGHA 232100Z 03002MPS 360V070 CAVOK 26/24 Q1002 NOSIG
ZGHA,2012-07-23 22:00,ZGHA 232200Z VRB01MPS CAVOK 26/24 Q1003 NOSIG
ZGHA,2012-07-23 23:00,ZGHA 232300Z 36002MPS CAVOK 27/24 Q1003 NOSIG
ZGHA,2012-07-24 00:00,ZGHA 240000Z 36003MPS CAVOK 28/24 Q1003 NOSIG
ZGHA,2012-07-24 01:00,ZGHA 240100Z 02002MPS 330V090 9999 SCT050 29/23 Q1003 NOSIG
ZGHA,2012-07-24 02:00,ZGHA 240200Z 03002MPS 350V070 9999 SCT050 30/24 Q1003 NOSIG
ZGHA,2012-07-24 03:00,ZGHA 240300Z 03002MPS 350V080 9999 SCT050 30/24 Q1003 NOSIG
ZGHA,2012-07-24 04:00,ZGHA 240400Z 01003MPS 340V050 9999 FEW033 32/25 Q1003 NOSIG
ZGHA,2012-07-24 05:00,ZGHA 240500Z 02003MPS 350V060 9999 SCT040 33/24 Q1002 NOSIG
ZGHA,2012-07-24 06:00,ZGHA 240600Z 02003MPS 360V070 9999 SCT040 33/23 Q1002 NOSIG
ZGHA,2012-07-24 07:00,ZGHA 240700Z VRB02MPS 9999 SCT050 33/24 Q1002 NOSIG
ZGHA,2012-07-24 08:00,ZGHA 240800Z 04002MPS 340V090 9999 SCT050 33/25 Q1002 NOSIG
ZGHA,2012-07-24 09:00,ZGHA 240900Z 09005MPS 050V120 9999 SCT050 33/23 Q1002 BECMG TL1000 12010G15MPS TSRA BKN011 SCT040CB BKN050
ZGHA,2012-07-24 10:00,ZGHA 241000Z VRB01MPS CAVOK 28/25 Q1002 RETSRA NOSIG
ZGHA,2012-07-24 11:00,ZGHA 241100Z 17001MPS CAVOK 28/25 Q1002 NOSIG
ZGHA,2012-07-24 12:00,ZGHA 241200Z 08002MPS 040V130 7000 -SHRA FEW050CB SCT050 29/25 Q1003 NOSIG
ZGHA,2012-07-24 13:00,ZGHA 241300Z 08003MPS 9999 SCT050 28/24 Q1004 NOSIG
ZGHA,2012-07-24 14:00,ZGHA 241400Z 07004MPS 030V090 9999 -RA SCT050 27/24 Q1004 NOSIG
ZGHA,2012-07-24 15:00,ZGHA 241500Z 06002MPS 360V100 9999 SCT050 27/23 Q1005 NOSIG
ZGHA,2012-07-24 16:00,ZGHA 241600Z VRB01MPS 9999 SCT050 27/23 Q1005 NOSIG
ZGHA,2012-07-24 17:00,ZGHA 241700Z 06002MPS 020V100 9999 SCT050 28/23 Q1005 NOSIG
ZGHA,2012-07-24 18:00,ZGHA 241800Z VRB01MPS 9999 SCT050 28/22 Q1005 NOSIG
ZGHA,2012-07-24 19:00,ZGHA 241900Z VRB01MPS 9999 SCT050 27/23 Q1004 NOSIG
ZGHA,2012-07-24 20:00,ZGHA 242000Z 08003MPS 9999 SCT050 26/23 Q1004 NOSIG
ZGHA,2012-07-24 21:00,ZGHA 242100Z 07003MPS 040V100 9999 FEW050 27/23 Q1004 NOSIG
ZGHA,2012-07-24 22:00,ZGHA 242200Z 09003MPS CAVOK 27/22 Q1005 NOSIG
ZGHA,2012-07-24 23:00,ZGHA 242300Z 11002MPS 080V160 CAVOK 29/23 Q1006 NOSIG
ZGHA,2012-07-25 00:00,ZGHA 250000Z 13003MPS 090V160 CAVOK 31/22 Q1006 NOSIG
ZGHA,2012-07-25 01:00,ZGHA 250100Z 11005MPS 080V140 CAVOK 31/22 Q1006 NOSIG
ZGHA,2012-07-25 02:00,ZGHA 250200Z 08003MPS 020V140 CAVOK 32/22 Q1007 NOSIG
ZGHA,2012-07-25 03:00,ZGHA 250300Z 13004MPS 090V160 9999 FEW040 33/22 Q1006 NOSIG
ZGHA,2012-07-25 04:00,ZGHA 250400Z 14005MPS 060V180 9999 FEW040 34/22 Q1006 NOSIG
ZGHA,2012-07-25 05:00,ZGHA 250500Z 11005MPS 9999 SCT030 34/22 Q1006 NOSIG
ZGHA,2012-07-25 06:00,ZGHA 250600Z 13004MPS 100V190 9999 SCT030 35/22 Q1005 NOSIG
ZGHA,2012-07-25 07:00,ZGHA 250700Z 10003MPS 9999 SCT020 35/22 Q1005 NOSIG
ZGHA,2012-07-25 08:00,ZGHA 250800Z 11004MPS 070V150 9999 SCT050 35/21 Q1004 NOSIG
ZGHA,2012-07-25 09:00,ZGHA 250900Z 11004MPS 040V150 9999 FEW040 35/22 Q1004 NOSIG
ZGHA,2012-07-25 10:00,ZGHA 251000Z 11003MPS CAVOK 34/21 Q1004 NOSIG
ZGHA,2012-07-25 11:00,ZGHA 251100Z 11003MPS 080V140 CAVOK 33/22 Q1004 NOSIG
ZGHA,2012-07-25 12:00,ZGHA 251200Z VRB01MPS CAVOK 31/22 Q1005 NOSIG
ZGHA,2012-07-25 13:00,ZGHA 251300Z 13002MPS CAVOK 30/24 Q1005 NOSIG
ZGHA,2012-07-25 14:00,ZGHA 251400Z 11001MPS CAVOK 30/23 Q1006 NOSIG
ZGHA,2012-07-25 15:00,ZGHA 251500Z VRB01MPS CAVOK 30/23 Q1006 NOSIG
ZGHA,2012-07-25 16:00,ZGHA 251600Z VRB01MPS CAVOK 30/23 Q1005 NOSIG
ZGHA,2012-07-25 17:00,ZGHA 251700Z 12004MPS CAVOK 30/22 Q1005 NOSIG
ZGHA,2012-07-25 18:00,ZGHA 251800Z 12004MPS CAVOK 29/21 Q1005 NOSIG
ZGHA,2012-07-25 19:00,ZGHA 251900Z 14002MPS CAVOK 28/22 Q1005 NOSIG
ZGHA,2012-07-25 20:00,ZGHA 252000Z 17002MPS CAVOK 26/22 Q1005 NOSIG
ZGHA,2012-07-25 21:00,ZGHA 252100Z 23002MPS CAVOK 26/22 Q1005 NOSIG
ZGHA,2012-07-25 22:00,ZGHA 252200Z 20002MPS CAVOK 26/22 Q1006 NOSIG
ZGHA,2012-07-25 23:00,ZGHA 252300Z VRB01MPS CAVOK 28/22 Q1006 NOSIG
ZGHA,2012-07-26 00:00,ZGHA 260000Z VRB01MPS CAVOK 30/22 Q1007 NOSIG
ZGHA,2012-07-26 01:00,ZGHA 260100Z 13003MPS 100V160 CAVOK 31/21 Q1007 NOSIG
ZGHA,2012-07-26 02:00,ZGHA 260200Z 13002MPS 070V180 CAVOK 32/21 Q1007 NOSIG
ZGHA,2012-07-26 03:00,ZGHA 260300Z 13002MPS 040V210 9999 FEW040 33/22 Q1006 NOSIG
ZGHA,2012-07-26 04:00,ZGHA 260400Z 13002MPS 070V190 9999 SCT040 33/21 Q1006 NOSIG
ZGHA,2012-07-26 05:00,ZGHA 260500Z 20002MPS 160V230 9999 SCT040 33/21 Q1005 NOSIG
ZGHA,2012-07-26 06:00,ZGHA 260600Z VRB02MPS 9999 SCT040 34/21 Q1005 NOSIG
ZGHA,2012-07-26 07:00,ZGHA 260700Z VRB01MPS 9999 SCT050 35/21 Q1004 NOSIG
ZGHA,2012-07-26 08:00,ZGHA 260800Z VRB02MPS 9999 SCT040 35/21 Q1003 NOSIG
ZGHA,2012-07-26 09:00,ZGHA 260900Z 13002MPS 9999 SCT040 34/22 Q1003 NOSIG
ZGHA,2012-07-26 10:00,ZGHA 261000Z 12002MPS 090V150 9999 SCT050 34/21 Q1003 NOSIG
ZGHA,2012-07-26 11:00,ZGHA 261100Z 14002MPS 9999 SCT050 32/23 Q1003 NOSIG
ZGHA,2012-07-26 12:00,ZGHA 261200Z 12002MPS 9999 TS FEW050CB FEW050 31/23 Q1004 BECMG NSW
ZGHA,2012-07-26 13:00,ZGHA 261300Z 21003MPS CAVOK 30/23 Q1004 RETS NOSIG
ZGHA,2012-07-26 14:00,ZGHA 261400Z 18002MPS CAVOK 29/23 Q1004 NOSIG
ZGHA,2012-07-26 15:00,ZGHA 261500Z VRB01MPS CAVOK 28/24 Q1005 NOSIG
ZGHA,2012-07-26 16:00,ZGHA 261600Z 14002MPS CAVOK 28/24 Q1004 NOSIG
ZGHA,2012-07-26 17:00,ZGHA 261700Z VRB01MPS CAVOK 28/24 Q1004 NOSIG
ZGHA,2012-07-26 18:00,ZGHA 261800Z 00000MPS CAVOK 27/24 Q1004 NOSIG
ZGHA,2012-07-26 19:00,ZGHA 261900Z 19001MPS CAVOK 26/24 Q1003 NOSIG
ZGHA,2012-07-26 20:00,ZGHA 262000Z 20002MPS CAVOK 26/24 Q1004 NOSIG
ZGHA,2012-07-26 21:00,ZGHA 262100Z VRB01MPS CAVOK 26/24 Q1004 NOSIG
ZGHA,2012-07-26 22:00,ZGHA 262200Z 13002MPS 100V160 9999 SCT050 26/24 Q1004 NOSIG
ZGHA,2012-07-26 23:00,ZGHA 262300Z VRB01MPS 9999 FEW050 27/23 Q1004 NOSIG
ZGHA,2012-07-27 00:00,ZGHA 270000Z 12002MPS 080V170 CAVOK 29/23 Q1005 NOSIG
ZGHA,2012-07-27 01:00,ZGHA 270100Z 20002MPS 150V240 CAVOK 30/24 Q1005 NOSIG
ZGHA,2012-07-27 02:00,ZGHA 270200Z VRB01MPS 9999 SCT040 32/23 Q1005 NOSIG
ZGHA,2012-07-27 03:00,ZGHA 270300Z VRB01MPS 9999 SCT050 33/23 Q1005 NOSIG
ZGHA,2012-07-27 04:00,ZGHA 270400Z VRB01MPS 9999 SCT033 33/23 Q1004 NOSIG
ZGHA,2012-07-27 05:00,ZGHA 270500Z 17002MPS 130V200 9999 SCT040TCU SCT040 33/23 Q1003 TEMPO SHRA BKN015 SCT040CB
ZGHA,2012-07-27 06:00,ZGHA 270600Z 14003MPS 100V170 9999 FEW040TCU FEW040 32/24 Q1003 NOSIG
ZGHA,2012-07-27 07:00,ZGHA 270700Z 17002MPS 140V200 9999 FEW040TCU FEW040 32/25 Q1002 BECMG TL0800 13007G12MPS TSRA BKN015 SCT040CB BKN040
ZGHA,2012-07-27 08:00,ZGHA 270800Z 14008MPS 9999 FEW040CB 29/24 Q1002 BECMG TL0830 14003MPS
ZGHA,2012-07-27 09:00,ZGHA 270900Z VRB01MPS 9999 SCT050 28/24 Q1001 NOSIG
ZGHA,2012-07-27 10:00,ZGHA 271000Z VRB01MPS CAVOK 28/24 Q1002 NOSIG
ZGHA,2012-07-27 11:00,ZGHA 271100Z 15001MPS CAVOK 28/25 Q1002 NOSIG
ZGHA,2012-07-27 12:00,ZGHA 271200Z 19002MPS CAVOK 27/25 Q1003 NOSIG
ZGHA,2012-07-27 13:00,ZGHA 271300Z VRB01MPS CAVOK 27/25 Q1004 NOSIG
ZGHA,2012-07-27 14:00,ZGHA 271400Z 17001MPS CAVOK 27/25 Q1004 NOSIG
ZGHA,2012-07-27 15:00,ZGHA 271500Z VRB01MPS CAVOK 27/25 Q1004 NOSIG
ZGHA,2012-07-27 16:00,ZGHA 271600Z VRB01MPS CAVOK 27/25 Q1004 NOSIG
ZGHA,2012-07-27 17:00,ZGHA 271700Z 21002MPS CAVOK 26/24 Q1004 NOSIG
ZGHA,2012-07-27 18:00,ZGHA 271800Z 19002MPS CAVOK 26/23 Q1003 NOSIG
ZGHA,2012-07-27 19:00,ZGHA 271900Z 23003MPS CAVOK 26/23 Q1003 NOSIG
ZGHA,2012-07-27 20:00,ZGHA 272000Z 20002MPS CAVOK 25/24 Q1003 NOSIG
ZGHA,2012-07-27 21:00,ZGHA 272100Z 20002MPS CAVOK 25/23 Q1003 NOSIG
ZGHA,2012-07-27 22:00,ZGHA 272200Z 18002MPS CAVOK 25/23 Q1004 NOSIG
ZGHA,2012-07-27 23:00,ZGHA 272300Z 18002MPS CAVOK 26/23 Q1005 NOSIG
ZGHA,2012-07-28 00:00,ZGHA 280000Z VRB01MPS CAVOK 28/23 Q1005 NOSIG
ZGHA,2012-07-28 01:00,ZGHA 280100Z 15004MPS CAVOK 29/24 Q1006 NOSIG
ZGHA,2012-07-28 02:00,ZGHA 280200Z 15003MPS 110V170 9999 SCT040 29/24 Q1006 NOSIG
ZGHA,2012-07-28 03:00,ZGHA 280300Z 16003MPS 120V200 9999 FEW033 31/23 Q1006 NOSIG
ZGHA,2012-07-28 04:00,ZGHA 280400Z 16004MPS 9999 FEW033 31/22 Q1005 NOSIG
ZGHA,2012-07-28 05:00,ZGHA 280500Z 17003MPS 130V220 9999 SCT040 32/23 Q1005 NOSIG
ZGHA,2012-07-28 06:00,ZGHA 280600Z 14003MPS 110V180 9999 FEW040TCU SCT040 33/23 Q1004 NOSIG
ZGHA,2012-07-28 07:00,ZGHA 280700Z 15004MPS 9999 FEW040TCU FEW040 33/22 Q1003 NOSIG
ZGHA,2012-07-28 08:00,ZGHA 280800Z VRB01MPS 9999 FEW040TCU FEW040 33/24 Q1003 NOSIG
ZGHA,2012-07-28 09:00,ZGHA 280900Z 16004MPS 9999 FEW040TCU FEW040 34/21 Q1002 NOSIG
ZGHA,2012-07-28 10:00,ZGHA 281000Z 12002MPS 070V160 9999 FEW040TCU 33/23 Q1002 NOSIG
ZGHA,2012-07-28 11:00,ZGHA 281100Z 14001MPS 9999 FEW040 32/24 Q1003 NOSIG
ZGHA,2012-07-28 12:00,ZGHA 281200Z 13001MPS CAVOK 31/25 Q1003 NOSIG
ZGHA,2012-07-28 13:00,ZGHA 281300Z 12001MPS CAVOK 29/26 Q1004 NOSIG
ZGHA,2012-07-28 14:00,ZGHA 281400Z 13002MPS CAVOK 30/24 Q1004 NOSIG
ZGHA,2012-07-28 15:00,ZGHA 281500Z VRB01MPS CAVOK 29/25 Q1005 NOSIG
ZGHA,2012-07-28 16:00,ZGHA 281600Z VRB01MPS CAVOK 28/25 Q1005 NOSIG
ZGHA,2012-07-28 17:00,ZGHA 281700Z 04001MPS CAVOK 28/25 Q1004 NOSIG
ZGHA,2012-07-28 18:00,ZGHA 281800Z 11001MPS 8000 NSC 27/25 Q1004 NOSIG
ZGHA,2012-07-28 19:00,ZGHA 281900Z 14001MPS 8000 NSC 27/25 Q1004 NOSIG
ZGHA,2012-07-28 20:00,ZGHA 282000Z 20001MPS 8000 NSC 27/25 Q1004 NOSIG
ZGHA,2012-07-28 21:00,ZGHA 282100Z 24001MPS 8000 NSC 27/25 Q1004 NOSIG
ZGHA,2012-07-28 22:00,ZGHA 282200Z 21001MPS 8000 NSC 26/24 Q1004 NOSIG
ZGHA,2012-07-28 23:00,ZGHA 282300Z 15001MPS 8000 NSC 28/25 Q1005 NOSIG
ZGHA,2012-07-29 00:00,ZGHA 290000Z 14002MPS 100V180 CAVOK 29/24 Q1005 NOSIG
ZGHA,2012-07-29 01:00,ZGHA 290100Z 15003MPS 120V190 CAVOK 31/24 Q1005 NOSIG
ZGHA,2012-07-29 02:00,ZGHA 290200Z 17003MPS 150V210 CAVOK 32/24 Q1005 NOSIG
ZGHA,2012-07-29 03:00,ZGHA 290300Z 23003MPS 150V250 9999 SCT033 32/24 Q1005 NOSIG
ZGHA,2012-07-29 04:00,ZGHA 290400Z 20003MPS 170V250 9999 SCT033 33/24 Q1004 NOSIG
ZGHA,2012-07-29 05:00,ZGHA 290500Z 23004MPS 200V260 9999 SCT040 34/24 Q1003 NOSIG
ZGHA,2012-07-29 06:00,ZGHA 290600Z 19003MPS 170V230 9999 FEW040 35/23 Q1003 NOSIG
ZGHA,2012-07-29 07:00,ZGHA 290700Z 21003MPS 160V270 9999 FEW040TCU FEW040 35/22 Q1002 NOSIG
ZGHA,2012-07-29 08:00,ZGHA 290800Z 23003MPS 180V300 9999 FEW040TCU FEW040 35/22 Q1001 NOSIG
ZGHA,2012-07-29 09:00,ZGHA 290900Z 24003MPS 180V290 9999 FEW040 35/24 Q1000 NOSIG
ZGHA,2012-07-29 10:00,ZGHA 291000Z 22003MPS 130V240 9999 FEW040 34/23 Q1000 NOSIG
ZGHA,2012-07-29 11:00,ZGHA 291100Z 20002MPS 160V220 CAVOK 33/24 Q1000 NOSIG
ZGHA,2012-07-29 12:00,ZGHA 291200Z 20001MPS CAVOK 31/25 Q1000 NOSIG
ZGHA,2012-07-29 13:00,ZGHA 291300Z 20001MPS CAVOK 30/24 Q1001 NOSIG
ZGHA,2012-07-29 14:00,ZGHA 291400Z 14001MPS CAVOK 30/25 Q1002 NOSIG
ZGHA,2012-07-29 15:00,ZGHA 291500Z VRB01MPS CAVOK 29/25 Q1002 NOSIG
ZGHA,2012-07-29 16:00,ZGHA 291600Z 17001MPS CAVOK 29/26 Q1001 NOSIG
ZGHA,2012-07-29 17:00,ZGHA 291700Z 17001MPS CAVOK 28/25 Q1001 NOSIG
ZGHA,2012-07-29 18:00,ZGHA 291800Z 19003MPS CAVOK 27/25 Q1001 NOSIG
ZGHA,2012-07-29 19:00,ZGHA 291900Z 16001MPS CAVOK 28/25 Q1001 NOSIG
ZGHA,2012-07-29 20:00,ZGHA 292000Z 20001MPS CAVOK 27/24 Q1001 NOSIG
ZGHA,2012-07-29 21:00,ZGHA 292100Z VRB01MPS CAVOK 27/24 Q1001 NOSIG
ZGHA,2012-07-29 22:00,ZGHA 292200Z 18002MPS CAVOK 26/24 Q1001 NOSIG
ZGHA,2012-07-29 23:00,ZGHA 292300Z 14002MPS CAVOK 28/25 Q1001 NOSIG
ZGHA,2012-07-30 00:00,ZGHA 300000Z 17002MPS CAVOK 30/24 Q1001 NOSIG
ZGHA,2012-07-30 01:00,ZGHA 300100Z 16004MPS CAVOK 31/24 Q1001 NOSIG
ZGHA,2012-07-30 02:00,ZGHA 300200Z 19002MPS 130V250 CAVOK 33/24 Q1001 NOSIG
ZGHA,2012-07-30 03:00,ZGHA 300300Z VRB02MPS 9999 FEW040 34/24 Q1001 NOSIG
ZGHA,2012-07-30 04:00,ZGHA 300400Z VRB01MPS 9999 SCT040 35/23 Q1001 NOSIG
ZGHA,2012-07-30 05:00,ZGHA 300500Z VRB02MPS 9999 SCT040 36/22 Q1000 NOSIG
ZGHA,2012-07-30 06:00,ZGHA 300600Z 23002MPS 150V280 9999 SCT040 36/23 Q0999 NOSIG
ZGHA,2012-07-30 07:00,ZGHA 300700Z VRB01MPS 9999 FEW050 36/22 Q0999 NOSIG
ZGHA,2012-07-30 08:00,ZGHA 300800Z VRB01MPS 9999 FEW050 37/22 Q0998 NOSIG
ZGHA,2012-07-30 09:00,ZGHA 300900Z 14002MPS 110V180 9999 FEW050TCU FEW050 37/22 Q0998 NOSIG
ZGHA,2012-07-30 10:00,ZGHA 301000Z 14003MPS 9999 -SHRA FEW050CB FEW050 34/25 Q0998 NOSIG
ZGHA,2012-07-30 11:00,COR ZGHA 301100Z 16007MPS 9999 TS FEW050CB FEW050 32/22 Q0999 BE CMG TL1150 -SHRA
ZGHA,2012-07-30 12:00,ZGHA 301200Z 14002MPS 100V190 9999 TS FEW050CB 29/21 Q1000 BECMG TL1210 NSW
ZGHA,2012-07-30 13:00,ZGHA 301300Z VRB01MPS CAVOK 30/22 Q1000 NOSIG
ZGHA,2012-07-30 14:00,ZGHA 301400Z VRB01MPS CAVOK 29/23 Q1001 NOSIG
ZGHA,2012-07-30 15:00,ZGHA 301500Z VRB01MPS CAVOK 28/24 Q1001 NOSIG
ZGHA,2012-07-30 16:00,ZGHA 301600Z 05002MPS 010V090 CAVOK 28/25 Q1001 NOSIG
ZGHA,2012-07-30 17:00,ZGHA 301700Z VRB01MPS CAVOK 28/24 Q1001 NOSIG
ZGHA,2012-07-30 18:00,ZGHA 301800Z 22002MPS 190V250 CAVOK 27/23 Q1000 NOSIG
ZGHA,2012-07-30 19:00,ZGHA 301900Z 11002MPS 080V140 CAVOK 26/23 Q1000 NOSIG
ZGHA,2012-07-30 20:00,ZGHA 302000Z 14002MPS 100V170 CAVOK 27/24 Q1000 NOSIG
ZGHA,2012-07-30 21:00,ZGHA 302100Z VRB01MPS CAVOK 27/24 Q1000 NOSIG
ZGHA,2012-07-30 22:00,ZGHA 302200Z VRB01MPS CAVOK 26/24 Q1000 NOSIG
ZGHA,2012-07-30 23:00,ZGHA 302300Z VRB01MPS CAVOK 28/24 Q1001 NOSIG
ZGHA,2012-07-31 00:00,ZGHA 310000Z 13002MPS 100V170 CAVOK 29/25 Q1001 NOSIG
ZGHA,2012-07-31 01:00,ZGHA 310100Z VRB01MPS CAVOK 31/25 Q1001 NOSIG
ZGHA,2012-07-31 02:00,ZGHA 310200Z 16002MPS CAVOK 33/25 Q1001 NOSIG
ZGHA,2012-07-31 03:00,ZGHA 310300Z VRB02MPS 9999 FEW033 34/24 Q1001 NOSIG
ZGHA,2012-07-31 04:00,ZGHA 310400Z 20002MPS 130V280 9999 SCT040 35/21 Q1000 NOSIG
ZGHA,2012-07-31 05:00,ZGHA 310500Z VRB02MPS 9999 SCT040 35/22 Q1000 NOSIG
ZGHA,2012-07-31 06:00,ZGHA 310600Z VRB01MPS 9999 SCT040 36/23 Q0999 NOSIG
ZGHA,2012-07-31 07:00,ZGHA 310700Z VRB02MPS 9999 SCT050 36/21 Q0998 NOSIG
ZGHA,2012-07-31 08:00,ZGHA 310800Z VRB01MPS 9999 SCT050 37/22 Q0997 NOSIG
ZGHA,2012-07-31 09:00,ZGHA 310900Z 10002MPS 070V150 9999 FEW050 37/21 Q0996 NOSIG
ZGHA,2012-07-31 10:00,ZGHA 311000Z 13002MPS 100V170 CAVOK 36/20 Q0997 NOSIG
ZGHA,2012-07-31 11:00,ZGHA 311100Z 00000MPS CAVOK 35/23 Q0998 NOSIG
ZGHA,2012-07-31 12:00,ZGHA 311200Z 12001MPS CAVOK 32/25 Q0998 NOSIG
ZGHA,2012-07-31 13:00,ZGHA 311300Z VRB01MPS CAVOK 32/23 Q0999 NOSIG
ZGHA,2012-07-31 14:00,ZGHA 311400Z 05001MPS CAVOK 30/24 Q0999 NOSIG
ZGHA,2012-07-31 15:00,ZGHA 311500Z 04002MPS CAVOK 30/25 Q0999 NOSIG
ZGHA,2012-07-31 16:00,ZGHA 311600Z 02001MPS 9999 SCT050 30/24 Q1000 NOSIG
ZGHA,2012-07-31 17:00,ZGHA 311700Z VRB01MPS 8000 SCT050 29/25 Q1000 NOSIG
ZGHA,2012-07-31 18:00,ZGHA 311800Z 00000MPS 8000 NSC 28/25 Q0999 NOSIG
ZGHA,2012-07-31 19:00,ZGHA 311900Z 00000MPS 8000 NSC 28/25 Q0999 NOSIG
ZGHA,2012-07-31 20:00,ZGHA 312000Z 36003MPS 8000 NSC 27/24 Q0999 NOSIG
ZGHA,2012-07-31 21:00,ZGHA 312100Z 01002MPS CAVOK 28/23 Q1000 NOSIG
ZGHA,2012-07-31 22:00,ZGHA 312200Z 06001MPS CAVOK 27/24 Q1000 NOSIG
ZGHA,2012-07-31 23:00,ZGHA 312300Z VRB01MPS CAVOK 28/25 Q1000 NOSIG
ZGHA,2012-08-01 00:00,ZGHA 010000Z VRB01MPS CAVOK 30/25 Q1001 NOSIG
ZGHA,2012-08-01 01:00,ZGHA 010100Z 01002MPS 330V090 CAVOK 31/25 Q1001 NOSIG
ZGHA,2012-08-01 02:00,ZGHA 010200Z VRB02MPS CAVOK 32/26 Q1001 NOSIG
ZGHA,2012-08-01 03:00,ZGHA 010300Z 01002MPS 320V060 9999 FEW030 34/24 Q1001 NOSIG
ZGHA,2012-08-01 04:00,ZGHA 010400Z 01002MPS 330V070 9999 SCT040 35/23 Q1001 NOSIG
ZGHA,2012-08-01 05:00,ZGHA 010500Z 01002MPS 290V100 9999 SCT040 35/22 Q1000 NOSIG
ZGHA,2012-08-01 06:00,ZGHA 010600Z 02003MPS 280V060 9999 FEW040TCU SCT040 34/22 Q0999 NOSIG
ZGHA,2012-08-01 07:00,ZGHA 010700Z 33003MPS 280V020 9999 FEW040TCU SCT040 35/24 Q0999 NOSIG
ZGHA,2012-08-01 08:00,ZGHA 010800Z 35006MPS 9999 SCT040 36/22 Q0998 NOSIG
ZGHA,2012-08-01 09:00,ZGHA 010900Z 33007MPS 9999 FEW050 31/22 Q0998 NOSIG
ZGHA,2012-08-01 10:00,ZGHA 011000Z 30004MPS 270V330 9999 FEW050TCU FEW050 30/22 Q0998 NOSIG
ZGHA,2012-08-01 11:00,ZGHA 011100Z 12003MPS 080V160 9999 FEW050 29/23 Q0999 NOSIG
ZGHA,2012-08-01 12:00,ZGHA 011200Z VRB01MPS 9999 TS FEW050CB FEW050 30/23 Q0999 BECMG TL1230 NSW
ZGHA,2012-08-01 13:00,ZGHA 011300Z VRB01MPS 9999 BKN050 29/23 Q1000 NOSIG
ZGHA,2012-08-01 14:00,ZGHA 011400Z 32002MPS 270V340 9999 SCT050 30/24 Q1000 NOSIG
ZGHA,2012-08-01 15:00,ZGHA 011500Z VRB01MPS CAVOK 29/24 Q1001 NOSIG
ZGHA,2012-08-01 16:00,ZGHA 011600Z VRB01MPS CAVOK 28/25 Q1001 NOSIG
ZGHA,2012-08-01 17:00,ZGHA 011700Z VRB01MPS 7000 NSC 28/25 Q1001 NOSIG
ZGHA,2012-08-01 18:00,ZGHA 011800Z VRB01MPS 7000 NSC 27/25 Q1001 NOSIG
ZGHA,2012-08-01 19:00,ZGHA 011900Z 31002MPS 6000 NSC 27/25 Q1001 NOSIG
ZGHA,2012-08-01 20:00,ZGHA 012000Z 32002MPS 6000 NSC 27/25 Q1000 NOSIG
ZGHA,2012-08-01 21:00,ZGHA 012100Z 03002MPS 010V070 5000 BR NSC 27/25 Q1000 NOSIG
ZGHA,2012-08-01 22:00,ZGHA 012200Z 01002MPS 2200 BR NSC 27/25 Q1001 BECMG 3500
ZGHA,2012-08-01 23:00,ZGHA 012300Z 36002MPS 2700 BR NSC 27/25 Q1001 BECMG TL2400 3500
ZGHA,2012-08-02 00:00,ZGHA 020000Z 02003MPS 340V050 3200 BR NSC 29/25 Q1002 NOSIG
ZGHA,2012-08-02 01:00,ZGHA 020100Z 01003MPS 330V030 7000 NSC 30/24 Q1002 NOSIG
ZGHA,2012-08-02 02:00,ZGHA 020200Z 01004MPS 330V050 9999 FEW033 32/24 Q1002 NOSIG
ZGHA,2012-08-02 03:00,ZGHA 020300Z 02003MPS 340V090 9999 SCT033 33/24 Q1002 NOSIG
ZGHA,2012-08-02 04:00,ZGHA 020400Z 35005MPS 320V040 9999 SCT033 34/22 Q1002 NOSIG
ZGHA,2012-08-02 05:00,ZGHA 020500Z 36006MPS 320V050 9999 SCT040 34/22 Q1001 NOSIG
ZGHA,2012-08-02 06:00,ZGHA 020600Z 34007MPS 9999 SCT050 36/21 Q1000 NOSIG
ZGHA,2012-08-02 07:00,ZGHA 020700Z 36007MPS 9999 SCT050 35/20 Q1000 NOSIG
ZGHA,2012-08-02 08:00,ZGHA 020800Z 34008MPS 9999 SCT040 35/22 Q0999 NOSIG
ZGHA,2012-08-02 09:00,ZGHA 020900Z 35009MPS CAVOK 33/23 Q0999 NOSIG
ZGHA,2012-08-02 10:00,ZGHA 021000Z 34008MPS CAVOK 32/23 Q0999 NOSIG
ZGHA,2012-08-02 12:00,ZGHA 021200Z 35005MPS 9999 NSC 30/22 Q1000 NOSIG
ZGHA,2012-08-02 13:00,ZGHA 021300Z 35005MPS 7000 NSC 29/22 Q1001 NOSIG
ZGHA,2012-08-02 14:00,ZGHA 021400Z 36004MPS 6000 NSC 29/23 Q1001 NOSIG
ZGHA,2012-08-02 15:00,ZGHA 021500Z 01004MPS 6000 NSC 28/23 Q1001 NOSIG
ZGHA,2012-08-02 16:00,ZGHA 021600Z 01002MPS 340V040 6000 NSC 28/23 Q1001 NOSIG
ZGHA,2012-08-02 17:00,ZGHA 021700Z 36003MPS 6000 NSC 27/23 Q1001 NOSIG
ZGHA,2012-08-02 18:00,ZGHA 021800Z 36003MPS 5000 BR NSC 27/23 Q1001 NOSIG
ZGHA,2012-08-02 20:00,ZGHA 022000Z 33003MPS 4500 BR NSC 27/23 Q1000 NOSIG
ZGHA,2012-08-02 21:00,ZGHA 022100Z 35003MPS 320V020 4500 BR NSC 26/23 Q1000 NOSIG
ZGHA,2012-08-02 22:00,ZGHA 022200Z 35006MPS 5000 BR NSC 26/22 Q1001 NOSIG
ZGHA,2012-08-02 23:00,ZGHA 022300Z 34006MPS 6000 NSC 27/22 Q1001 NOSIG
ZGHA,2012-08-03 00:00,ZGHA 030000Z 35007MPS 7000 NSC 28/22 Q1001 NOSIG
ZGHA,2012-08-03 01:00,ZGHA 030100Z 35007MPS CAVOK 29/22 Q1001 NOSIG
ZGHA,2012-08-03 02:00,ZGHA 030200Z 35006MPS 320V020 9999 FEW033 31/22 Q1001 NOSIG
ZGHA,2012-08-03 03:00,ZGHA 030300Z 34007MPS 9999 FEW030 32/22 Q1001 NOSIG
ZGHA,2012-08-03 04:00,ZGHA 030400Z 35008MPS CAVOK 33/21 Q1000 NOSIG
ZGHA,2012-08-03 05:00,ZGHA 030500Z 36009MPS 330V040 9999 SCT040 34/20 Q1000 NOSIG
ZGHA,2012-08-03 06:00,ZGHA 030600Z 34008MPS 9999 SCT040 34/19 Q1000 NOSIG
ZGHA,2012-08-03 07:00,ZGHA 030700Z 34009G14MPS 8000 SCT040 34/20 Q0999 NOSIG
ZGHA,2012-08-03 08:00,ZGHA 030800Z 34009MPS 8000 FEW040 33/21 Q0999 NOSIG
ZGHA,2012-08-03 09:00,ZGHA 030900Z 33009MPS 7000 NSC 32/20 Q0998 BECMG 35004MPS
ZGHA,2012-08-03 10:00,ZGHA 031000Z 33007MPS 7000 NSC 32/19 Q0998 NOSIG
ZGHA,2012-08-03 11:00,ZGHA 031100Z 33007MPS 7000 NSC 30/19 Q0998 NOSIG
ZGHA,2012-08-03 12:00,ZGHA 031200Z 33004MPS 7000 NSC 29/20 Q0999 NOSIG
ZGHA,2012-08-03 13:00,ZGHA 031300Z 33005MPS 6000 NSC 29/20 Q0999 NOSIG
ZGHA,2012-08-03 14:00,ZGHA 031400Z 32003MPS 240V360 6000 NSC 28/21 Q0999 NOSIG
ZGHA,2012-08-03 15:00,ZGHA 031500Z 32005MPS 290V350 6000 NSC 28/21 Q0999 NOSIG
ZGHA,2012-08-03 16:00,ZGHA 031600Z 33007MPS 6000 NSC 28/22 Q0998 NOSIG
ZGHA,2012-08-03 17:00,ZGHA 031700Z 32006MPS 5000 BR NSC 28/23 Q0998 NOSIG
ZGHA,2012-08-03 18:00,ZGHA 031800Z 30003MPS 280V340 5000 BR NSC 27/23 Q0998 NOSIG
ZGHA,2012-08-03 19:00,ZGHA 031900Z 35007MPS 5000 BR NSC 28/22 Q0997 NOSIG
ZGHA,2012-08-03 20:00,ZGHA 032000Z 35008MPS 4500 -RA BR SCT023 28/22 Q0997 NOSIG
ZGHA,2012-08-03 21:00,ZGHA 032100Z 33006MPS 2500 -RA BR BKN011 25/23 Q0998 NOSIG
ZGHA,2012-08-03 22:00,ZGHA 032200Z 34004MPS 2300 BR BKN012 25/24 Q0997 BECMG TL2340 3000 BKN015
ZGHA,2012-08-03 23:00,ZGHA 032300Z 35006MPS 2800 BR BKN013 26/23 Q0998 BECMG TL2400 3000
ZGHA,2012-08-04 00:00,ZGHA 040000Z 34008MPS 4000 BR BKN013 27/23 Q0997 NOSIG
ZGHA,2012-08-04 01:00,ZGHA 040100Z 34007MPS 310V010 5000 BR BKN012 26/23 Q0998 NOSIG
ZGHA,2012-08-04 02:00,ZGHA 040200Z 33008MPS 9999 BKN011 27/23 Q0998 NOSIG
ZGHA,2012-08-04 03:00,ZGHA 040300Z 34008MPS 9999 BKN011 OVC050 27/23 Q0997 NOSIG
ZGHA,2012-08-04 04:00,ZGHA 040400Z 34008MPS 5000 -RA BR BKN011 OVC040 26/24 Q0997 NOSIG
ZGHA,2012-08-04 05:00,ZGHA 040500Z 34008MPS 1800 -RA BR BKN009 OVC040 27/24 Q0997 BECMG TL0700 3000
ZGHA,2012-08-04 06:00,ZGHA 040600Z 34007MPS 2500 -RA BR BKN009 OVC040 27/25 Q0996 BECMG TL0700 3000 -RA BR BKN011 OVC050
ZGHA,2012-08-04 07:00,ZGHA 040700Z 35007MPS 3000 -RA BR BKN009 OVC040 27/25 Q0996 BECMG TL0800 BKN011 OVC050
ZGHA,2012-08-04 08:00,ZGHA 040800Z 36006MPS 3500 -RA BR BKN009 OVC040 27/25 Q0996 BECMG TL1000 2800
ZGHA,2012-08-04 09:00,ZGHA 040900Z 35006MPS 5000 BR BKN011 OVC050 27/25 Q0996 NOSIG
ZGHA,2012-08-04 10:00,ZGHA 041000Z 35007MPS 5000 -RA BR FEW006 BKN011 OVC050 27/25 Q0996 BECMG BKN007 OVC050
ZGHA,2012-08-04 11:00,ZGHA 041100Z 01005MPS 7000 BKN011 OVC050 26/25 Q0996 NOSIG
ZGHA,2012-08-04 12:00,ZGHA 041200Z 36005MPS 7000 SCT008 SCT040 26/25 Q0997 NOSIG
ZGHA,2012-08-04 13:00,ZGHA 041300Z 01005MPS 9999 OVC050 26/24 Q0998 NOSIG
ZGHA,2012-08-04 14:00,ZGHA 041400Z 02003MPS 360V060 8000 OVC040 26/24 Q0998 NOSIG
ZGHA,2012-08-04 15:00,ZGHA 041500Z 02003MPS 330V050 7000 OVC050 26/24 Q0999 NOSIG
ZGHA,2012-08-04 16:00,ZGHA 041600Z 02002MPS 340V040 6000 FEW050 26/24 Q0999 NOSIG
ZGHA,2012-08-04 17:00,ZGHA 041700Z 36004MPS 6000 SCT050 26/24 Q0998 NOSIG
ZGHA,2012-08-04 18:00,ZGHA 041800Z 36003MPS 7000 SCT050 26/24 Q0998 NOSIG
ZGHA,2012-08-04 19:00,ZGHA 041900Z 03002MPS 340V110 6000 SCT050 26/24 Q0998 NOSIG
ZGHA,2012-08-04 20:00,ZGHA 042000Z 02003MPS 360V060 9000 SCT050 26/24 Q0998 NOSIG
ZGHA,2012-08-04 21:00,ZGHA 042100Z 05002MPS 350V120 9999 SCT040 26/23 Q0998 NOSIG
ZGHA,2012-08-04 22:00,ZGHA 042200Z 07003MPS 040V110 9999 OVC040 27/22 Q0999 NOSIG
ZGHA,2012-08-04 23:00,ZGHA 042300Z VRB01MPS 9999 OVC040 27/22 Q0999 NOSIG
ZGHA,2012-08-05 00:00,ZGHA 050000Z VRB01MPS 9999 OVC033 27/21 Q0999 NOSIG
ZGHA,2012-08-05 01:00,ZGHA 050100Z 10003MPS 050V140 9999 OVC040 27/21 Q1000 NOSIG
ZGHA,2012-08-05 02:00,ZGHA 050200Z 09003MPS 040V130 9999 SCT012 OVC050 27/21 Q1000 NOSIG
ZGHA,2012-08-05 03:00,ZGHA 050300Z 09003MPS 050V130 9999 SCT020 OVC040 28/22 Q1001 NOSIG
ZGHA,2012-08-05 04:00,ZGHA 050400Z 12002MPS 040V160 9999 SCT020 OVC040 29/22 Q1001 NOSIG
ZGHA,2012-08-05 05:00,ZGHA 050500Z 11003MPS 9999 SCT033 29/21 Q1001 NOSIG
ZGHA,2012-08-05 06:00,ZGHA 050600Z 12004MPS 080V160 9999 SCT033 29/22 Q1000 NOSIG
ZGHA,2012-08-05 07:00,ZGHA 050700Z 10002MPS 050V140 9999 SCT050 29/22 Q1000 NOSIG
ZGHA,2012-08-05 08:00,ZGHA 050800Z VRB01MPS 9999 SCT050 30/22 Q1000 NOSIG
ZGHA,2012-08-05 09:00,ZGHA 050900Z 11003MPS 080V140 9999 SCT050 30/21 Q1000 NOSIG
ZGHA,2012-08-05 10:00,ZGHA 051000Z 14002MPS CAVOK 30/22 Q1000 NOSIG
ZGHA,2012-08-05 11:00,ZGHA 051100Z 10002MPS 060V140 CAVOK 29/22 Q1001 NOSIG
ZGHA,2012-08-05 12:00,ZGHA 051200Z VRB01MPS CAVOK 27/22 Q1001 NOSIG
ZGHA,2012-08-05 13:00,ZGHA 051300Z VRB01MPS 8000 NSC 27/22 Q1002 NOSIG
ZGHA,2012-08-05 14:00,ZGHA 051400Z VRB01MPS 8000 NSC 27/22 Q1003 NOSIG
ZGHA,2012-08-05 15:00,ZGHA 051500Z VRB01MPS 8000 NSC 25/22 Q1003 NOSIG
ZGHA,2012-08-05 16:00,ZGHA 051600Z VRB01MPS 7000 NSC 25/22 Q1003 NOSIG
ZGHA,2012-08-05 17:00,ZGHA 051700Z VRB01MPS 6000 NSC 25/22 Q1003 NOSIG
ZGHA,2012-08-05 18:00,ZGHA 051800Z 02001MPS 6000 NSC 25/22 Q1003 NOSIG
ZGHA,2012-08-05 19:00,ZGHA 051900Z 04002MPS 6000 NSC 25/22 Q1003 NOSIG
ZGHA,2012-08-05 20:00,ZGHA 052000Z VRB01MPS 6000 NSC 25/22 Q1003 NOSIG
ZGHA,2012-08-05 21:00,ZGHA 052100Z 36003MPS 5000 BR NSC 24/22 Q1003 NOSIG
ZGHA,2012-08-05 22:00,ZGHA 052200Z 03002MPS 4500 BR NSC 24/22 Q1004 NOSIG
ZGHA,2012-08-05 23:00,ZGHA 052300Z VRB01MPS 6000 NSC 25/23 Q1004 NOSIG
ZGHA,2012-08-06 00:00,ZGHA 060000Z 03002MPS 350V070 7000 NSC 27/23 Q1004 NOSIG
ZGHA,2012-08-06 01:00,ZGHA 060100Z 04002MPS 340V080 8000 NSC 29/24 Q1005 NOSIG
ZGHA,2012-08-06 02:00,ZGHA 060200Z 01002MPS 340V040 CAVOK 31/23 Q1005 NOSIG
ZGHA,2012-08-06 03:00,ZGHA 060300Z 01002MPS 320V090 9999 FEW040 33/24 Q1005 NOSIG
ZGHA,2012-08-06 05:00,ZGHA 060500Z 01008MPS 340V040 9999 -SHRA FEW040TCU SCT040 30/22 Q1004 BECMG TL0530 01003MPS
ZGHA,2012-08-06 06:00,ZGHA 060600Z 36002MPS 320V050 9999 SCT050 33/23 Q1003 NOSIG
ZGHA,2012-08-06 07:00,ZGHA 060700Z 32004MPS 290V020 9999 SCT040 35/24 Q1002 NOSIG
ZGHA,2012-08-06 08:00,ZGHA 060800Z 32005MPS 300V360 9999 FEW040TCU SCT040 29/22 Q1003 RETS NOSIG
ZGHA,2012-08-06 09:00,ZGHA 060900Z 10003MPS 060V150 9999 -SHRA FEW040TCU SCT040 27/24 Q1003 NOSIG
ZGHA,2012-08-06 10:00,ZGHA 061000Z 01003MPS CAVOK 27/23 Q1002 NOSIG
ZGHA,2012-08-06 11:00,ZGHA 061100Z 36003MPS CAVOK 27/23 Q1003 NOSIG
ZGHA,2012-08-06 12:00,ZGHA 061200Z VRB01MPS CAVOK 27/24 Q1003 NOSIG
ZGHA,2012-08-06 13:00,ZGHA 061300Z 36003MPS CAVOK 27/24 Q1004 NOSIG
ZGHA,2012-08-06 14:00,ZGHA 061400Z VRB01MPS 6000 NSC 26/25 Q1005 NOSIG
ZGHA,2012-08-06 15:00,ZGHA 061500Z 30002MPS 6000 NSC 26/24 Q1005 NOSIG
ZGHA,2012-08-06 16:00,ZGHA 061600Z VRB01MPS 6000 NSC 26/24 Q1004 NOSIG
ZGHA,2012-08-06 17:00,ZGHA 061700Z VRB01MPS 6000 NSC 26/24 Q1004 NOSIG
ZGHA,2012-08-06 18:00,ZGHA 061800Z 02002MPS 6000 NSC 25/24 Q1004 NOSIG
ZGHA,2012-08-06 19:00,ZGHA 061900Z VRB01MPS 6000 NSC 25/24 Q1004 NOSIG
ZGHA,2012-08-06 20:00,ZGHA 062000Z 01001MPS 5000 BR NSC 25/24 Q1004 NOSIG
ZGHA,2012-08-06 21:00,ZGHA 062100Z 01001MPS 5000 BR NSC 25/24 Q1004 NOSIG
ZGHA,2012-08-06 22:00,ZGHA 062200Z 35001MPS 5000 BR NSC 25/24 Q1004 NOSIG
ZGHA,2012-08-06 23:00,ZGHA 062300Z 36002MPS 6000 NSC 26/24 Q1005 NOSIG
ZGHA,2012-08-07 00:00,ZGHA 070000Z VRB01MPS 8000 NSC 28/24 Q1005 NOSIG
ZGHA,2012-08-07 01:00,ZGHA 070100Z VRB02MPS CAVOK 30/23 Q1005 NOSIG
ZGHA,2012-08-07 02:00,ZGHA 070200Z VRB02MPS CAVOK 31/23 Q1005 NOSIG
ZGHA,2012-08-07 03:00,ZGHA 070300Z 01002MPS 250V060 9999 FEW040 32/23 Q1005 NOSIG
ZGHA,2012-08-07 04:00,ZGHA 070400Z 36003MPS 320V080 9999 SCT040 33/23 Q1005 NOSIG
ZGHA,2012-08-07 05:00,ZGHA 070500Z 36004MPS 330V040 9999 FEW040TCU SCT040 34/22 Q1004 NOSIG
ZGHA,2012-08-07 06:00,ZGHA 070600Z VRB03MPS 9999 -SHRA FEW040TCU SCT040 35/22 Q1003 NOSIG
ZGHA,2012-08-07 07:00,ZGHA 070700Z 35005MPS 9999 FEW040TCU SCT040 33/24 Q1003 NOSIG
ZGHA,2012-08-07 08:00,ZGHA 070800Z 36007MPS 9999 SCT033 34/23 Q1002 NOSIG
ZGHA,2012-08-07 09:00,ZGHA 070900Z 34008MPS 9999 FEW040 32/23 Q1002 NOSIG
ZGHA,2012-08-07 10:00,ZGHA 071000Z 34006MPS 9999 FEW040 31/24 Q1002 NOSIG
ZGHA,2012-08-07 11:00,ZGHA 071100Z 35006MPS 9999 FEW040 31/23 Q1002 NOSIG
ZGHA,2012-08-07 12:00,ZGHA 071200Z 34005MPS 9999 FEW040 30/24 Q1002 NOSIG
ZGHA,2012-08-07 13:00,ZGHA 071300Z 01003MPS 340V040 8000 NSC 29/24 Q1003 NOSIG
ZGHA,2012-08-07 14:00,ZGHA 071400Z 00000MPS 7000 NSC 28/24 Q1004 NOSIG
ZGHA,2012-08-07 15:00,ZGHA 071500Z VRB01MPS 6000 NSC 28/24 Q1004 NOSIG
ZGHA,2012-08-07 16:00,ZGHA 071600Z VRB01MPS 6000 NSC 27/24 Q1003 NOSIG
ZGHA,2012-08-07 17:00,ZGHA 071700Z 01002MPS 5000 BR NSC 27/24 Q1003 NOSIG
ZGHA,2012-08-07 18:00,ZGHA 071800Z 01003MPS 5000 BR NSC 26/24 Q1003 NOSIG
ZGHA,2012-08-07 19:00,ZGHA 071900Z 05002MPS 4000 BR NSC 26/24 Q1002 NOSIG
ZGHA,2012-08-07 20:00,ZGHA 072000Z 36002MPS 3000 BR NSC 26/24 Q1002 NOSIG
ZGHA,2012-08-07 21:00,ZGHA 072100Z 01002MPS 3000 BR NSC 25/24 Q1002 NOSIG
ZGHA,2012-08-07 22:00,ZGHA 072200Z VRB01MPS 1800 BR NSC 25/24 Q1003 NOSIG
ZGHA,2012-08-07 23:00,ZGHA 072300Z 34002MPS 300V020 2500 BR NSC 26/25 Q1003 BECMG TL2400 3500
ZGHA,2012-08-08 00:00,ZGHA 080000Z 34003MPS 310V010 4000 BR FEW011 28/25 Q1003 NOSIG
ZGHA,2012-08-08 01:00,ZGHA 080100Z 32003MPS 280V360 5000 HZ SCT012 30/24 Q1003 NOSIG
ZGHA,2012-08-08 02:00,ZGHA 080200Z 36005MPS 7000 SCT013 31/23 Q1003 NOSIG
ZGHA,2012-08-08 03:00,ZGHA 080300Z 36006MPS 7000 SCT013 32/22 Q1002 NOSIG
ZGHA,2012-08-08 04:00,ZGHA 080400Z 35007MPS 7000 FEW033 33/20 Q1002 NOSIG
ZGHA,2012-08-08 05:00,ZGHA 080500Z 34007MPS 9000 FEW040 34/21 Q1001 NOSIG
ZGHA,2012-08-08 06:00,ZGHA 080600Z 34007MPS 300V010 8000 FEW040 34/21 Q1001 NOSIG
ZGHA,2012-08-08 07:00,ZGHA 080700Z 34007MPS 310V020 8000 FEW040 34/21 Q1001 NOSIG
ZGHA,2012-08-08 08:00,ZGHA 080800Z 33007MPS 6000 SCT040 34/22 Q1000 NOSIG
ZGHA,2012-08-08 09:00,ZGHA 080900Z 33008MPS 6000 FEW033 33/22 Q1000 NOSIG
ZGHA,2012-08-08 10:00,ZGHA 081000Z 34007MPS 6000 NSC 32/21 Q1000 NOSIG
ZGHA,2012-08-08 11:00,ZGHA 081100Z 33005MPS 5000 HZ NSC 30/21 Q1000 NOSIG
ZGHA,2012-08-08 12:00,ZGHA 081200Z 33005MPS 4500 HZ NSC 30/21 Q1001 NOSIG
ZGHA,2012-08-08 13:00,ZGHA 081300Z 30002MPS 270V360 4000 HZ NSC 29/22 Q1001 NOSIG
ZGHA,2012-08-08 14:00,ZGHA 081400Z 33004MPS 4000 HZ NSC 29/23 Q1002 NOSIG
ZGHA,2012-08-08 15:00,ZGHA 081500Z 32004MPS 3500 BR NSC 29/23 Q1002 NOSIG
ZGHA,2012-08-08 16:00,ZGHA 081600Z 33004MPS 3000 BR NSC 28/23 Q1001 NOSIG
ZGHA,2012-08-08 17:00,ZGHA 081700Z 31003MPS 3000 BR NSC 28/23 Q1001 NOSIG
ZGHA,2012-08-08 18:00,ZGHA 081800Z 31004MPS 3500 BR NSC 28/23 Q1001 NOSIG
ZGHA,2012-08-08 19:00,ZGHA 081900Z 31004MPS 3500 BR NSC 28/22 Q1000 NOSIG
ZGHA,2012-08-08 20:00,ZGHA 082000Z 31004MPS 3000 BR NSC 28/23 Q1000 NOSIG
ZGHA,2012-08-08 21:00,ZGHA 082100Z 30003MPS 2700 BR NSC 28/23 Q1000 NOSIG
ZGHA,2012-08-08 22:00,ZGHA 082200Z 31003MPS 2700 BR NSC 27/23 Q1001 NOSIG
ZGHA,2012-08-08 23:00,ZGHA 082300Z 29003MPS 3000 BR NSC 28/23 Q1001 NOSIG
ZGHA,2012-08-09 00:00,ZGHA 090000Z 30004MPS 3000 BR NSC 28/24 Q1001 NOSIG
ZGHA,2012-08-09 01:00,ZGHA 090100Z 31004MPS 3000 BR FEW023 29/24 Q1002 NOSIG
ZGHA,2012-08-09 02:00,ZGHA 090200Z 32005MPS 3500 HZ SCT023 30/23 Q1002 NOSIG
ZGHA,2012-08-09 03:00,ZGHA 090300Z 33005MPS 4000 HZ SCT023 30/23 Q1001 NOSIG
ZGHA,2012-08-09 04:00,ZGHA 090400Z 30005MPS 280V340 3200 HZ SCT023 30/23 Q1001 NOSIG
ZGHA,2012-08-09 05:00,ZGHA 090500Z 30005MPS 280V340 3200 HZ SCT023 30/23 Q1001 NOSIG
ZGHA,2012-08-09 06:00,ZGHA 090600Z 34006MPS 4000 HZ SCT030 31/23 Q1001 NOSIG
ZGHA,2012-08-09 07:00,ZGHA 090700Z 33004MPS 270V360 4500 HZ FEW030 31/23 Q1000 NOSIG
ZGHA,2012-08-09 08:00,ZGHA 090800Z 32003MPS 4500 HZ SCT012 SCT030 31/22 Q1000 NOSIG
ZGHA,2012-08-09 09:00,ZGHA 090900Z 29002MPS 230V340 4000 HZ SCT030 31/24 Q0999 NOSIG
ZGHA,2012-08-09 10:00,ZGHA 091000Z 31004MPS 4500 HZ NSC 31/22 Q0999 NOSIG
ZGHA,2012-08-09 11:00,ZGHA 091100Z 31003MPS 280V340 4000 HZ NSC 31/23 Q1000 NOSIG
ZGHA,2012-08-09 12:00,ZGHA 091200Z 29002MPS 260V330 4500 HZ NSC 30/24 Q1000 NOSIG
ZGHA,2012-08-09 13:00,ZGHA 091300Z 28002MPS 250V320 4500 HZ NSC 30/23 Q1000 NOSIG
ZGHA,2012-08-09 14:00,ZGHA 091400Z 27003MPS 4500 HZ NSC 30/23 Q1001 NOSIG
ZGHA,2012-08-09 15:00,ZGHA 091500Z 26003MPS 4500 BR FEW040 29/23 Q1001 NOSIG
ZGHA,2012-08-09 16:00,ZGHA 091600Z 30002MPS 280V340 4000 -RA BR SCT040 29/24 Q1001 NOSIG
ZGHA,2012-08-09 17:00,ZGHA 091700Z 19002MPS 160V240 3500 -RA BR SCT040 27/25 Q1001 NOSIG
ZGHA,2012-08-09 18:00,ZGHA 091800Z 28004MPS 3000 -RA BR SCT040 26/24 Q1000 NOSIG
ZGHA,2012-08-09 19:00,ZGHA 091900Z VRB01MPS 2500 BR SCT050 26/24 Q1000 NOSIG
ZGHA,2012-08-09 20:00,ZGHA 092000Z VRB01MPS 2200 BR NSC 25/24 Q1000 NOSIG
ZGHA,2012-08-09 21:00,ZGHA 092100Z 21002MPS 2500 BR NSC 26/24 Q1000 NOSIG
ZGHA,2012-08-09 22:00,ZGHA 092200Z 31004MPS 2500 BR NSC 27/23 Q1000 BECMG TL2300 3000
ZGHA,2012-08-09 23:00,ZGHA 092300Z 31004MPS 2300 BR NSC 27/23 Q1001 BECMG TL0030 3000
ZGHA,2012-08-10 00:00,ZGHA 100000Z 31005MPS 2500 BR NSC 28/22 Q1001 BECMG 3000
ZGHA,2012-08-10 01:00,ZGHA 100100Z 31004MPS 280V340 3000 BR NSC 29/22 Q1001 NOSIG
ZGHA,2012-08-10 02:00,ZGHA 100200Z 30006MPS 3500 HZ FEW020 29/23 Q1002 NOSIG
ZGHA,2012-08-10 03:00,ZGHA 100300Z 32006MPS 280V340 4500 HZ SCT023 31/22 Q1002 NOSIG
ZGHA,2012-08-10 04:00,ZGHA 100400Z 31006MPS 4500 HZ SCT023 31/22 Q1001 NOSIG
ZGHA,2012-08-10 05:00,ZGHA 100500Z 28004MPS 250V310 4500 HZ SCT030 31/22 Q1001 NOSIG
ZGHA,2012-08-10 06:00,ZGHA 100600Z 30007MPS 270V340 5000 HZ SCT033 31/22 Q1000 NOSIG
ZGHA,2012-08-10 07:00,ZGHA 100700Z 32007MPS 5000 HZ SCT033 32/23 Q1000 NOSIG
ZGHA,2012-08-10 08:00,ZGHA 100800Z 32007MPS 6000 SCT030 32/22 Q0999 NOSIG
ZGHA,2012-08-10 09:00,ZGHA 100900Z 32006MPS 5000 HZ SCT030 31/22 Q0999 TEMPO -TSRA BKN011 FEW030CB OVC040
ZGHA,2012-08-10 10:00,ZGHA 101000Z 03002MPS 330V090 3500 -SHRA BR SCT012 FEW050CB BKN050 27/25 Q1000 BECMG TL1830 1700 TSRA BR BKN011 SCT030CB OVC040
ZGHA,2012-08-10 11:00,ZGHA 101100Z 36002MPS 330V050 2200 -TSRA BR BKN007 FEW050CB BKN050 26/25 Q1001 RESHRA BECMG TL1200 3000 BR NSW
ZGHA,2012-08-10 12:00,ZGHA 101200Z 23002MPS 3000 BR SCT012 SCT020 OVC050 26/25 Q1001 RETS NOSIG
ZGHA,2012-08-10 13:00,ZGHA 101300Z 01002MPS 340V040 4500 BR SCT020 OVC040 27/24 Q1002 NOSIG
ZGHA,2012-08-10 14:00,ZGHA 101400Z 25002MPS 210V300 4000 BR SCT020 OVC040 27/24 Q1002 NOSIG
ZGHA,2012-08-10 15:00,ZGHA 101500Z 33003MPS 300V360 4000 BR SCT020 OVC040 27/24 Q1002 NOSIG
ZGHA,2012-08-10 16:00,ZGHA 101600Z 30003MPS 4000 BR SCT020 OVC040 27/24 Q1002 NOSIG
ZGHA,2012-08-10 17:00,ZGHA 101700Z 33005MPS 4000 BR SCT020 OVC050 26/23 Q1001 NOSIG
ZGHA,2012-08-10 18:00,ZGHA 101800Z 34005MPS 5000 BR OVC050 26/22 Q1001 NOSIG
ZGHA,2012-08-10 19:00,ZGHA 101900Z 35005MPS 7000 OVC050 25/21 Q1001 NOSIG
ZGHA,2012-08-10 20:00,ZGHA 102000Z 32003MPS 6000 NSC 25/22 Q1002 NOSIG
ZGHA,2012-08-10 21:00,ZGHA 102100Z 31003MPS 7000 SCT030 25/22 Q1002 NOSIG
ZGHA,2012-08-10 22:00,ZGHA 102200Z 29001MPS 6000 SCT050 25/22 Q1002 NOSIG
ZGHA,2012-08-10 23:00,ZGHA 102300Z VRB01MPS 5000 BR SCT033 25/23 Q1003 NOSIG
ZGHA,2012-08-11 00:00,ZGHA 110000Z VRB01MPS 7000 FEW050 27/22 Q1003 NOSIG
ZGHA,2012-08-11 01:00,ZGHA 110100Z 31004MPS 6000 BKN040 28/23 Q1003 NOSIG
ZGHA,2012-08-11 02:00,ZGHA 110200Z 30004MPS 6000 BKN040 29/23 Q1003 NOSIG
ZGHA,2012-08-11 03:00,ZGHA 110300Z 30004MPS 6000 BKN040 29/23 Q1003 NOSIG
ZGHA,2012-08-11 04:00,ZGHA 110400Z 32004MPS 280V360 6000 OVC026 30/23 Q1003 NOSIG
ZGHA,2012-08-11 05:00,ZGHA 110500Z 30003MPS 260V340 5000 HZ BKN020 OVC050 30/23 Q1003 NOSIG
ZGHA,2012-08-11 06:00,ZGHA 110600Z VRB03MPS 6000 BKN026 32/23 Q1002 NOSIG
ZGHA,2012-08-11 07:00,ZGHA 110700Z 32005MPS 6000 BKN033 32/22 Q1001 NOSIG
ZGHA,2012-08-11 08:00,ZGHA 110800Z 32004MPS 5000 -SHRA HZ FEW040CB SCT040 30/23 Q1001 BECMG TL0830 -TSRA BKN008 SCT040CB OVC050
ZGHA,2012-08-11 09:00,ZGHA 110900Z 05003MPS 360V080 4000 -SHRA BR FEW010 FEW040CB BKN040 27/23 Q1001 NOSIG
ZGHA,2012-08-11 10:00,ZGHA 111000Z 06002MPS 4000 BR SCT040 27/24 Q1001 NOSIG
ZGHA,2012-08-11 11:00,ZGHA 111100Z VRB01MPS 3500 BR SCT040 27/24 Q1001 NOSIG
ZGHA,2012-08-11 12:00,ZGHA 111200Z VRB01MPS 5000 BR NSC 27/24 Q1002 NOSIG
ZGHA,2012-08-11 13:00,ZGHA 111300Z VRB01MPS 4000 -RA BR OVC030 26/25 Q1003 NOSIG
ZGHA,2012-08-11 14:00,ZGHA 111400Z VRB01MPS 4000 -RA BR NSC 26/24 Q1003 NOSIG
ZGHA,2012-08-11 15:00,ZGHA 111500Z 14001MPS 4000 BR NSC 26/24 Q1003 NOSIG
ZGHA,2012-08-11 16:00,ZGHA 111600Z VRB01MPS 3500 BR NSC 26/24 Q1003 NOSIG
ZGHA,2012-08-11 17:00,ZGHA 111700Z VRB01MPS 3000 BR NSC 26/24 Q1002 NOSIG
ZGHA,2012-08-11 18:00,ZGHA 111800Z VRB01MPS 3000 BR NSC 25/24 Q1002 NOSIG
ZGHA,2012-08-11 19:00,ZGHA 111900Z VRB01MPS 3000 BR NSC 25/24 Q1001 NOSIG
ZGHA,2012-08-11 20:00,ZGHA 112000Z VRB01MPS 4000 BR NSC 25/24 Q1001 NOSIG
ZGHA,2012-08-11 21:00,ZGHA 112100Z 00000MPS 3000 BR NSC 25/24 Q1001 NOSIG
ZGHA,2012-08-11 22:00,ZGHA 112200Z VRB01MPS 3000 BR NSC 25/24 Q1001 NOSIG
ZGHA,2012-08-11 23:00,ZGHA 112300Z VRB01MPS 2000 BR NSC 26/24 Q1001 BECMG 3000
ZGHA,2012-08-12 00:00,ZGHA 120000Z 17002MPS 2000 BR OVC040 26/25 Q1002 BECMG 3000
ZGHA,2012-08-12 01:00,ZGHA 120100Z VRB01MPS 2000 BR SCT023 OVC040 27/25 Q1002 BECMG TL0230 3000
ZGHA,2012-08-12 02:00,ZGHA 120200Z VRB01MPS 1800 BR SCT023 OVC040 28/25 Q1002 BECMG TL0350 3000
ZGHA,2012-08-12 03:00,ZGHA 120300Z VRB01MPS 1800 -RA BR SCT023 OVC040 29/25 Q1002 BECMG TL0450 3000
ZGHA,2012-08-12 04:00,ZGHA 120400Z 08002MPS 010V130 1800 -RA BR FEW007 SCT023 OVC040 29/26 Q1002 NOSIG
ZGHA,2012-08-12 05:00,ZGHA 120500Z VRB01MPS 2000 -RA BR FEW008 SCT023 OVC050 29/26 Q1001 NOSIG
ZGHA,2012-08-12 06:00,ZGHA 120600Z 06003MPS 010V090 2500 BR FEW009 SCT030 OVC050 29/26 Q1001 NOSIG
ZGHA,2012-08-12 07:00,ZGHA 120700Z 06002MPS 030V100 1800 -RA BR SCT023 OVC050 28/26 Q1001 NOSIG
ZGHA,2012-08-12 08:00,ZGHA 120800Z 06003MPS 030V100 2500 BR SCT023 28/26 Q1000 BECMG TL0930 3000
ZGHA,2012-08-12 09:00,ZGHA 120900Z VRB01MPS 1800 BR SCT033 28/25 Q1000 BECMG TL1030 3000
ZGHA,2012-08-12 10:00,ZGHA 121000Z VRB01MPS 2500 BR NSC 28/26 Q1000 BECMG TL1100 3000
ZGHA,2012-08-12 11:00,ZGHA 121100Z VRB01MPS 2200 BR NSC 28/25 Q1000 BECMG TL1230 3000
ZGHA,2012-08-12 12:00,ZGHA 121200Z VRB01MPS 2200 BR NSC 27/25 Q1001 NOSIG
ZGHA,2012-08-12 13:00,ZGHA 121300Z VRB01MPS 3700 -RA BR SCT040 27/25 Q1002 BECMG TL1400 2500
ZGHA,2012-08-12 14:00,ZGHA 121400Z VRB01MPS 4000 BR NSC 26/25 Q1002 NOSIG
ZGHA,2012-08-12 15:00,ZGHA 121500Z 20001MPS 4000 BR NSC 26/24 Q1002 NOSIG
ZGHA,2012-08-12 16:00,ZGHA 121600Z VRB01MPS 3500 BR NSC 26/25 Q1002 NOSIG
ZGHA,2012-08-12 17:00,ZGHA 121700Z VRB01MPS 4000 -RA BR SCT007 26/24 Q1002 NOSIG
ZGHA,2012-08-12 18:00,ZGHA 121800Z 02001MPS 4000 BR NSC 26/24 Q1001 NOSIG
ZGHA,2012-08-12 19:00,ZGHA 121900Z VRB01MPS 4500 BR NSC 26/24 Q1001 NOSIG
ZGHA,2012-08-12 20:00,ZGHA 122000Z 07001MPS 4000 BR NSC 25/24 Q1001 NOSIG
ZGHA,2012-08-12 21:00,ZGHA 122100Z VRB01MPS 4000 BR NSC 25/24 Q1001 NOSIG
ZGHA,2012-08-12 22:00,ZGHA 122200Z 00000MPS 4000 BR NSC 25/24 Q1001 NOSIG
ZGHA,2012-08-12 23:00,ZGHA 122300Z VRB01MPS 4500 BR NSC 26/24 Q1002 NOSIG
ZGHA,2012-08-13 00:00,ZGHA 130000Z VRB01MPS 4500 BR NSC 27/24 Q1002 NOSIG
ZGHA,2012-08-13 01:00,ZGHA 130100Z VRB01MPS 6000 NSC 28/25 Q1003 NOSIG
ZGHA,2012-08-13 02:00,ZGHA 130200Z 17002MPS 100V210 CAVOK 30/24 Q1003 NOSIG
ZGHA,2012-08-13 03:00,ZGHA 130300Z 20002MPS 150V270 CAVOK 31/23 Q1003 NOSIG
ZGHA,2012-08-13 04:00,ZGHA 130400Z 20002MPS 150V270 9999 FEW040 32/23 Q1003 NOSIG
ZGHA,2012-08-13 05:00,ZGHA 130500Z VRB02MPS 9999 FEW040 33/22 Q1002 NOSIG
ZGHA,2012-08-13 06:00,ZGHA 130600Z VRB01MPS 8000 FEW040TCU 33/22 Q1001 BECMG TL0630 03006MPS 2500 TSRA BR BKN011 FEW040CB BKN040
ZGHA,2012-08-13 07:00,ZGHA 130700Z 02004MPS 350V060 9999 SCT050TCU FEW050 30/23 Q1001 NOSIG
ZGHA,2012-08-13 08:00,ZGHA 130800Z 36004MPS 9999 FEW050TCU 31/23 Q1000 NOSIG
ZGHA,2012-08-13 09:00,ZGHA 130900Z 02003MPS 350V070 CAVOK 30/24 Q1000 NOSIG
ZGHA,2012-08-13 10:00,ZGHA 131000Z VRB01MPS CAVOK 30/25 Q1000 NOSIG
ZGHA,2012-08-13 11:00,ZGHA 131100Z VRB01MPS 8000 NSC 29/25 Q1001 NOSIG
ZGHA,2012-08-13 12:00,ZGHA 131200Z 04001MPS 8000 NSC 29/25 Q1002 NOSIG
ZGHA,2012-08-13 13:00,ZGHA 131300Z VRB01MPS 5000 BR NSC 29/25 Q1003 NOSIG
ZGHA,2012-08-13 14:00,ZGHA 131400Z 36002MPS 5000 BR NSC 29/25 Q1003 NOSIG
ZGHA,2012-08-13 15:00,ZGHA 131500Z 02002MPS 4000 BR NSC 29/25 Q1003 NOSIG
ZGHA,2012-08-13 16:00,ZGHA 131600Z 01002MPS 3000 BR NSC 28/25 Q1003 NOSIG
ZGHA,2012-08-13 17:00,ZGHA 131700Z VRB01MPS 3000 BR SCT050 27/25 Q1003 NOSIG
ZGHA,2012-08-13 18:00,ZGHA 131800Z VRB01MPS 3000 BR NSC 27/26 Q1002 NOSIG
ZGHA,2012-08-13 19:00,ZGHA 131900Z 00000MPS 2500 BR NSC 27/25 Q1003 NOSIG
ZGHA,2012-08-13 20:00,ZGHA 132000Z 31003MPS 2500 BR NSC 27/25 Q1003 NOSIG
ZGHA,2012-08-13 21:00,ZGHA 132100Z 01002MPS 2500 BR NSC 26/25 Q1003 NOSIG
ZGHA,2012-08-13 22:00,ZGHA 132200Z 01002MPS 1800 BR FEW005 26/25 Q1003 NOSIG
ZGHA,2012-08-13 23:00,ZGHA 132300Z 36004MPS 2000 BR FEW005 26/24 Q1004 BECMG TL0050 3100
ZGHA,2012-08-14 00:00,ZGHA 140000Z 36003MPS 320V030 3000 BR SCT006 27/24 Q1004 BECMG 4000
ZGHA,2012-08-14 01:00,ZGHA 140100Z 36003MPS 3500 BR SCT007 28/25 Q1005 NOSIG
ZGHA,2012-08-14 02:00,ZGHA 140200Z 06002MPS 360V130 4000 BR SCT009 29/25 Q1005 NOSIG
ZGHA,2012-08-14 03:00,ZGHA 140300Z 04002MPS 360V100 5000 BR SCT012 30/25 Q1005 BECMG TL0500 18006MPS 2500 TSRA BR BKN007 FEW040CB BKN040
ZGHA,2012-08-14 04:00,ZGHA 140400Z 31002MPS 270V010 6000 TS FEW050CB FEW050 31/25 Q1004 BECMG TL0600 NSW
ZGHA,2012-08-15 06:00,ZGHA 150600Z 30004MPS 7000 BKN026 34/24 Q1005 NOSIG
ZGHA,2012-08-15 07:00,ZGHA 150700Z 31004MPS 270V010 7000 BKN030 35/23 Q1005 NOSIG
ZGHA,2012-08-15 08:00,ZGHA 150800Z 31003MPS 280V350 7000 SCT033 34/23 Q1004 NOSIG
ZGHA,2012-08-15 09:00,ZGHA 150900Z 34005MPS 7000 NSC 33/23 Q1003 NOSIG
ZGHA,2012-08-15 10:00,ZGHA 151000Z 01003MPS 340V040 6000 NSC 32/24 Q1004 NOSIG
ZGHA,2012-08-15 11:00,ZGHA 151100Z 03002MPS 360V060 5000 BR NSC 31/25 Q1004 NOSIG
ZGHA,2012-08-15 12:00,ZGHA 151200Z 02003MPS 350V050 5000 BR NSC 30/24 Q1005 NOSIG
ZGHA,2012-08-15 13:00,ZGHA 151300Z 01002MPS 350V050 5000 BR NSC 29/24 Q1006 NOSIG
ZGHA,2012-08-15 14:00,ZGHA 151400Z 35002MPS 330V030 5000 BR NSC 28/24 Q1006 NOSIG
ZGHA,2012-08-15 15:00,ZGHA 151500Z 36003MPS 4500 BR NSC 28/25 Q1006 BECMG TL1700 2800
ZGHA,2012-08-15 16:00,ZGHA 151600Z 33003MPS 4000 BR NSC 28/25 Q1006 BECMG TL1700 2800
ZGHA,2012-08-15 17:00,ZGHA 151700Z 01002MPS 3500 BR NSC 28/25 Q1005 BECMG TL1800 2800
ZGHA,2012-08-15 18:00,ZGHA 151800Z 32003MPS 3500 BR NSC 28/25 Q1005 NOSIG
ZGHA,2012-08-15 19:00,ZGHA 151900Z 36002MPS 3200 BR NSC 27/25 Q1005 NOSIG
ZGHA,2012-08-15 20:00,ZGHA 152000Z 36003MPS 3000 BR NSC 27/25 Q1005 NOSIG
ZGHA,2012-08-15 21:00,ZGHA 152100Z 01002MPS 3000 BR FEW033 27/25 Q1005 NOSIG
ZGHA,2012-08-15 22:00,ZGHA 152200Z 35003MPS 2200 BR SCT033 27/25 Q1006 BECMG TL240 0 3500
ZGHA,2012-08-15 23:00,ZGHA 152300Z 35003MPS 2300 BR NSC 28/25 Q1006 BECMG TL2400 3500
ZGHA,2012-08-16 00:00,ZGHA 160000Z 01003MPS 3500 BR NSC 29/25 Q1007 NOSIG
ZGHA,2012-08-16 01:00,ZGHA 160100Z 35003MPS 5000 BR FEW016 30/25 Q1007 NOSIG
ZGHA,2012-08-16 02:00,ZGHA 160200Z VRB01MPS 5000 BR FEW015 BKN020 31/25 Q1007 NOSIG
ZGHA,2012-08-16 03:00,ZGHA 160300Z 04002MPS 340V100 6000 SCT020 32/26 Q1007 NOSIG
ZGHA,2012-08-16 04:00,ZGHA 160400Z 34002MPS 290V030 7000 SCT023 33/25 Q1006 NOSIG
ZGHA,2012-08-16 05:00,ZGHA 160500Z 03002MPS 320V110 7000 BKN030 34/26 Q1005 NOSIG
ZGHA,2012-08-16 06:00,ZGHA 160600Z 35003MPS 320V030 7000 SCT040 35/26 Q1005 NOSIG
ZGHA,2012-08-16 07:00,ZGHA 160700Z 35004MPS 310V030 8000 FEW040 35/25 Q1004 NOSIG
ZGHA,2012-08-16 08:00,ZGHA 160800Z 32006MPS 300V360 6000 FEW040 35/25 Q1003 NOSIG
ZGHA,2012-08-16 09:00,ZGHA 160900Z 31006MPS 6000 FEW040TCU 33/25 Q1003 NOSIG
ZGHA,2012-08-16 10:00,ZGHA 161000Z 33005MPS 4000 HZ FEW040 33/26 Q1003 NOSIG
ZGHA,2012-08-16 11:00,ZGHA 161100Z 35004MPS 4000 BR FEW040TCU 32/26 Q1004 NOSIG
ZGHA,2012-08-16 12:00,ZGHA 161200Z 03003MPS 340V090 2700 TSRA BR FEW020 FEW040CB 31/26 Q1004 BECMG TL1230 3000 -SHRA
ZGHA,2012-08-16 13:00,ZGHA 161300Z 36005MPS 2700 TS BR FEW040CB 29/27 Q1005 BECMG TL1400 3000 NSW
ZGHA,2012-08-16 14:00,ZGHA 161400Z 03002MPS 330V090 2500 BR NSC 28/26 Q1006 NOSIG
ZGHA,2012-08-16 15:00,ZGHA 161500Z 02002MPS 2300 BR NSC 28/26 Q1006 NOSIG
ZGHA,2012-08-16 16:00,ZGHA 161600Z 01002MPS 2000 BR NSC 28/26 Q1006 NOSIG
ZGHA,2012-08-16 17:00,ZGHA 161700Z 01003MPS 1700 BR NSC 28/26 Q1006 NOSIG
ZGHA,2012-08-16 18:00,ZGHA 161800Z 02002MPS 340V050 1600 BR NSC 27/26 Q1005 NOSIG
ZGHA,2012-08-16 19:00,ZGHA 161900Z 36003MPS 1200 R36/1200V1400U BR SCT003 27/26 Q1005 NOSIG
ZGHA,2012-08-16 20:00,ZGHA 162000Z 36002MPS 1200 R36/1200V1400N BR BKN003 27/26 Q1005 NOSIG
ZGHA,2012-08-16 21:00,ZGHA 162100Z VRB01MPS 1200 R36/1100V1200N BR BKN003 27/26 Q1005 NOSIG
ZGHA,2012-08-16 22:00,ZGHA 162200Z VRB01MPS 1000 R36/0800V1000N BR BKN003 27/25 Q1005 BECMG TL2300 1600 SCT003
ZGHA,2012-08-16 23:00,ZGHA 162300Z 01003MPS 1800 BR FEW003 27/26 Q1006 BECMG TL2400 3000
ZGHA,2012-08-17 00:00,ZGHA 170000Z 02003MPS 340V060 3000 BR NSC 29/25 Q1006 NOSIG
ZGHA,2012-08-17 01:00,ZGHA 170100Z 03002MPS 340V090 4000 BR NSC 30/26 Q1006 NOSIG
ZGHA,2012-08-17 02:00,ZGHA 170200Z VRB01MPS 5000 BR SCT020 32/26 Q1006 NOSIG
ZGHA,2012-08-17 03:00,ZGHA 170300Z 07002MPS 030V140 6000 SCT020 33/26 Q1006 NOSIG
ZGHA,2012-08-17 04:00,ZGHA 170400Z 13003MPS 050V180 8000 SCT020 35/25 Q1005 NOSIG
ZGHA,2012-08-17 05:00,ZGHA 170500Z VRB02MPS 9999 SCT033 35/25 Q1005 NOSIG
ZGHA,2012-08-17 06:00,ZGHA 170600Z 11003MPS 050V160 9999 FEW040TCU SCT040 36/23 Q1004 NOSIG
ZGHA,2012-08-17 07:00,ZGHA 170700Z 11003MPS 060V140 9999 FEW040TCU SCT040 36/22 Q1004 NOSIG
ZGHA,2012-08-17 08:00,ZGHA 170800Z 18006MPS 150V210 9999 -TSRA SCT011 FEW050CB BKN050 31/24 Q1004 RESHRA BECMG TL0830 NSW
ZGHA,2012-08-17 09:00,ZGHA 170900Z 14002MPS 9999 SCT050 32/24 Q1004 RETS NOSIG
ZGHA,2012-08-17 10:00,ZGHA 171000Z 08002MPS 030V140 9999 FEW050 31/25 Q1003 NOSIG
ZGHA,2012-08-17 11:00,ZGHA 171100Z 35002MPS 300V010 9999 FEW050 30/25 Q1004 NOSIG
ZGHA,2012-08-17 12:00,ZGHA 171200Z 01002MPS 340V040 7000 NSC 29/25 Q1005 NOSIG
ZGHA,2012-08-17 13:00,ZGHA 171300Z 32004MPS 6000 NSC 28/24 Q1006 NOSIG
ZGHA,2012-08-17 14:00,ZGHA 171400Z 36003MPS 330V030 6000 NSC 28/25 Q1007 NOSIG
ZGHA,2012-08-17 15:00,ZGHA 171500Z VRB01MPS 6000 NSC 27/25 Q1008 NOSIG
ZGHA,2012-08-17 16:00,ZGHA 171600Z 15001MPS 5000 BR NSC 27/25 Q1007 NOSIG
ZGHA,2012-08-17 17:00,ZGHA 171700Z VRB01MPS 4500 BR NSC 27/25 Q1007 NOSIG
ZGHA,2012-08-17 18:00,ZGHA 171800Z VRB01MPS 4000 BR NSC 27/25 Q1006 NOSIG
ZGHA,2012-08-17 19:00,ZGHA 171900Z 24001MPS 5000 BR NSC 26/25 Q1006 NOSIG
ZGHA,2012-08-17 20:00,ZGHA 172000Z VRB01MPS 4500 BR NSC 26/25 Q1006 NOSIG
ZGHA,2012-08-17 21:00,ZGHA 172100Z VRB01MPS 4500 BR NSC 26/25 Q1006 NOSIG
ZGHA,2012-08-17 22:00,ZGHA 172200Z 00000MPS 3500 BR NSC 26/25 Q1007 BECMG 2500
ZGHA,2012-08-17 23:00,ZGHA 172300Z VRB01MPS 4000 BR SCT040 27/25 Q1008 NOSIG
ZGHA,2012-08-18 00:00,ZGHA 180000Z 17002MPS 130V200 6000 NSC 29/25 Q1008 NOSIG
ZGHA,2012-08-18 01:00,ZGHA 180100Z VRB01MPS CAVOK 32/24 Q1008 NOSIG
ZGHA,2012-08-18 02:00,ZGHA 180200Z 20003MPS 170V240 CAVOK 33/23 Q1009 NOSIG
ZGHA,2012-08-18 03:00,ZGHA 180300Z VRB02MPS CAVOK 34/23 Q1009 NOSIG
ZGHA,2012-08-18 04:00,ZGHA 180400Z 21002MPS 140V290 9999 SCT040 34/23 Q1008 NOSIG
ZGHA,2012-08-18 05:00,ZGHA 180500Z 24003MPS 190V320 9999 SCT040 35/22 Q1008 NOSIG
ZGHA,2012-08-18 06:00,ZGHA 180600Z VRB02MPS 9999 SCT040 36/22 Q1007 NOSIG
ZGHA,2012-08-18 07:00,ZGHA 180700Z VRB02MPS 9999 SCT050 36/22 Q1006 NOSIG
ZGHA,2012-08-18 08:00,ZGHA 180800Z 24003MPS 200V270 9999 SCT050 37/21 Q1005 NOSIG
ZGHA,2012-08-18 09:00,ZGHA 180900Z 22003MPS 180V260 9999 FEW050 36/21 Q1005 NOSIG
ZGHA,2012-08-18 10:00,ZGHA 181000Z 19003MPS 170V230 CAVOK 35/22 Q1005 NOSIG
ZGHA,2012-08-18 11:00,ZGHA 181100Z 15001MPS CAVOK 33/24 Q1006 NOSIG
ZGHA,2012-08-18 12:00,ZGHA 181200Z 17003MPS CAVOK 31/24 Q1006 NOSIG
ZGHA,2012-08-18 13:00,ZGHA 181300Z 18003MPS CAVOK 29/24 Q1006 NOSIG
ZGHA,2012-08-18 14:00,ZGHA 181400Z VRB01MPS CAVOK 29/24 Q1007 NOSIG
ZGHA,2012-08-18 15:00,ZGHA 181500Z 22002MPS CAVOK 28/24 Q1008 NOSIG
ZGHA,2012-08-18 16:00,ZGHA 181600Z 19002MPS CAVOK 28/24 Q1008 NOSIG
ZGHA,2012-08-18 17:00,ZGHA 181700Z 19002MPS CAVOK 27/24 Q1007 NOSIG
ZGHA,2012-08-18 18:00,ZGHA 181800Z 19002MPS CAVOK 27/24 Q1007 NOSIG
ZGHA,2012-08-18 19:00,ZGHA 181900Z 18002MPS CAVOK 27/24 Q1007 NOSIG
ZGHA,2012-08-18 21:00,ZGHA 182100Z 18002MPS CAVOK 27/24 Q1007 NOSIG
ZGHA,2012-08-18 22:00,ZGHA 182200Z 19002MPS CAVOK 27/24 Q1007 NOSIG
ZGHA,2012-08-18 23:00,ZGHA 182300Z VRB01MPS CAVOK 28/24 Q1007 NOSIG
ZGHA,2012-08-19 00:00,ZGHA 190000Z 16003MPS CAVOK 30/24 Q1007 NOSIG
ZGHA,2012-08-19 01:00,ZGHA 190100Z 16004MPS 130V190 CAVOK 31/24 Q1007 NOSIG
ZGHA,2012-08-19 02:00,ZGHA 190200Z VRB04MPS CAVOK 33/23 Q1007 NOSIG
ZGHA,2012-08-19 03:00,ZGHA 190300Z 20003MPS 150V250 CAVOK 34/23 Q1007 NOSIG
ZGHA,2012-08-19 04:00,ZGHA 190400Z 20003MPS 170V260 9999 FEW040 35/22 Q1007 NOSIG
ZGHA,2012-08-19 05:00,ZGHA 190500Z 20003MPS 160V250 9999 SCT040 36/22 Q1006 NOSIG
ZGHA,2012-08-19 06:00,ZGHA 190600Z 24003MPS 200V280 9999 SCT050 36/22 Q1005 NOSIG
ZGHA,2012-08-19 07:00,ZGHA 190700Z 24003MPS 180V290 9999 SCT050 37/22 Q1004 NOSIG
ZGHA,2012-08-19 08:00,ZGHA 190800Z 23002MPS 190V260 9999 FEW050 36/22 Q1004 NOSIG
ZGHA,2012-08-19 09:00,ZGHA 190900Z 17002MPS 110V210 9999 FEW050 36/22 Q1004 NOSIG
ZGHA,2012-08-19 10:00,ZGHA 191000Z 19002MPS CAVOK 34/23 Q1004 NOSIG
ZGHA,2012-08-19 11:00,ZGHA 191100Z 13002MPS CAVOK 33/25 Q1005 NOSIG
ZGHA,2012-08-19 12:00,ZGHA 191200Z 14003MPS CAVOK 32/24 Q1005 NOSIG
ZGHA,2012-08-19 13:00,ZGHA 191300Z 15003MPS CAVOK 30/24 Q1005 NOSIG
ZGHA,2012-08-19 14:00,ZGHA 191400Z 15003MPS CAVOK 30/23 Q1006 NOSIG
ZGHA,2012-08-19 15:00,ZGHA 191500Z 20002MPS CAVOK 29/22 Q1006 NOSIG
ZGHA,2012-08-19 16:00,ZGHA 191600Z 19002MPS CAVOK 28/23 Q1006 NOSIG
ZGHA,2012-08-19 17:00,ZGHA 191700Z VRB01MPS CAVOK 27/22 Q1006 NOSIG
ZGHA,2012-08-19 18:00,ZGHA 191800Z VRB01MPS CAVOK 27/23 Q1005 NOSIG
ZGHA,2012-08-19 19:00,ZGHA 191900Z 18002MPS CAVOK 26/23 Q1005 NOSIG
ZGHA,2012-08-19 20:00,ZGHA 192000Z VRB01MPS CAVOK 26/22 Q1005 NOSIG
ZGHA,2012-08-19 21:00,ZGHA 192100Z VRB01MPS CAVOK 26/22 Q1005 NOSIG
ZGHA,2012-08-19 22:00,ZGHA 192200Z 27001MPS CAVOK 26/23 Q1005 NOSIG
ZGHA,2012-08-19 23:00,ZGHA 192300Z 27002MPS CAVOK 27/23 Q1005 NOSIG
ZGHA,2012-08-20 00:00,ZGHA 200000Z 20002MPS 140V230 9999 FEW050 28/23 Q1005 NOSIG
ZGHA,2012-08-20 01:00,ZGHA 200100Z 12002MPS 100V160 9999 FEW050 30/23 Q1005 NOSIG
ZGHA,2012-08-20 02:00,ZGHA 200200Z 15003MPS 120V200 9999 FEW050 32/22 Q1006 NOSIG
ZGHA,2012-08-20 03:00,ZGHA 200300Z 18003MPS 150V220 9999 FEW050 33/23 Q1005 NOSIG
ZGHA,2012-08-20 04:00,ZGHA 200400Z VRB02MPS 9999 FEW050 34/23 Q1005 NOSIG
ZGHA,2012-08-20 05:00,ZGHA 200500Z 20002MPS 130V290 9999 SCT040 36/23 Q1004 NOSIG
ZGHA,2012-08-20 06:00,ZGHA 200600Z 14002MPS 090V200 9999 SCT040 36/23 Q1003 NOSIG
ZGHA,2012-08-20 07:00,ZGHA 200700Z 13002MPS 090V190 9999 SCT040 36/23 Q1002 NOSIG
ZGHA,2012-08-20 08:00,ZGHA 200800Z 17002MPS 140V220 9999 SCT040 36/23 Q1002 NOSIG
ZGHA,2012-08-20 09:00,ZGHA 200900Z 20002MPS 120V250 9999 SCT040 35/23 Q1001 NOSIG
ZGHA,2012-08-20 10:00,ZGHA 201000Z 16001MPS 9999 FEW040 34/25 Q1002 NOSIG
ZGHA,2012-08-20 11:00,ZGHA 201100Z 17002MPS 9999 SCT040 32/24 Q1002 NOSIG
ZGHA,2012-08-20 12:00,ZGHA 201200Z 17003MPS 9999 FEW050 31/23 Q1003 NOSIG
ZGHA,2012-08-20 13:00,ZGHA 201300Z 15002MPS CAVOK 30/23 Q1004 NOSIG
ZGHA,2012-08-20 14:00,ZGHA 201400Z 15003MPS CAVOK 29/24 Q1004 NOSIG
ZGHA,2012-08-20 15:00,ZGHA 201500Z VRB01MPS CAVOK 29/24 Q1004 NOSIG
ZGHA,2012-08-20 16:00,ZGHA 201600Z 17003MPS CAVOK 28/24 Q1003 NOSIG
ZGHA,2012-08-20 17:00,ZGHA 201700Z 17002MPS CAVOK 28/24 Q1003 NOSIG
ZGHA,2012-08-20 18:00,ZGHA 201800Z 18003MPS CAVOK 27/23 Q1003 NOSIG
ZGHA,2012-08-20 19:00,ZGHA 201900Z 16003MPS CAVOK 27/23 Q1002 NOSIG
ZGHA,2012-08-20 20:00,ZGHA 202000Z 19002MPS CAVOK 27/23 Q1003 NOSIG
ZGHA,2012-08-20 21:00,ZGHA 202100Z 20002MPS CAVOK 26/23 Q1003 NOSIG
ZGHA,2012-08-20 22:00,ZGHA 202200Z 18002MPS 9999 SCT050 26/23 Q1003 NOSIG
ZGHA,2012-08-20 23:00,ZGHA 202300Z VRB01MPS 9999 FEW050 27/24 Q1004 NOSIG
ZGHA,2012-08-21 00:00,ZGHA 210000Z VRB01MPS 9999 FEW050 28/24 Q1004 NOSIG
ZGHA,2012-08-21 01:00,ZGHA 210100Z 16003MPS 9999 FEW050 30/23 Q1005 NOSIG
ZGHA,2012-08-21 02:00,ZGHA 210200Z 18003MPS 9999 SCT050 30/23 Q1005 NOSIG
ZGHA,2012-08-21 03:00,ZGHA 210300Z 22002MPS 170V320 9999 FEW050 33/24 Q1006 NOSIG
ZGHA,2012-08-21 04:00,ZGHA 210400Z 22004MPS 200V280 9999 SCT033 34/23 Q1005 NOSIG
ZGHA,2012-08-21 05:00,ZGHA 210500Z 30007MPS 9999 BKN030 29/24 Q1005 NOSIG
ZGHA,2012-08-21 06:00,ZGHA 210600Z 30004MPS 270V330 9999 BKN040 29/22 Q1005 NOSIG
ZGHA,2012-08-21 07:00,ZGHA 210700Z 32007MPS 290V350 9999 BKN050 28/23 Q1005 NOSIG
ZGHA,2012-08-21 08:00,ZGHA 210800Z 31005MPS 9999 BKN015 OVC050 28/23 Q1005 NOSIG
ZGHA,2012-08-21 09:00,ZGHA 210900Z 01004MPS 330V060 7000 -RA BKN009 OVC040 26/24 Q1006 BECMG BKN011 OVC040
ZGHA,2012-08-21 10:00,ZGHA 211000Z 01003MPS 5000 -RA BR BKN009 OVC040 26/24 Q1006 NOSIG
ZGHA,2012-08-21 11:00,ZGHA 211100Z 36004MPS 6000 BKN008 OVC050 26/24 Q1007 NOSIG
ZGHA,2012-08-21 12:00,ZGHA 211200Z 35006MPS 5000 BR BKN008 OVC050 25/24 Q1007 BECMG SCT008 OVC050
ZGHA,2012-08-21 13:00,ZGHA 211300Z 36006MPS 6000 BKN009 OVC050 25/23 Q1008 BECMG SCT011 OVC050
ZGHA,2012-08-21 14:00,ZGHA 211400Z 34006MPS 6000 SCT012 OVC050 25/23 Q1008 NOSIG
ZGHA,2012-08-21 15:00,ZGHA 211500Z 35006MPS 8000 SCT012 OVC050 25/21 Q1009 TEMPO BKN009 OVC050
ZGHA,2012-08-21 16:00,ZGHA 211600Z 34006MPS 8000 SCT014 OVC050 25/20 Q1009 BECMG TL1700 2500 -RA BR BKN009 OVC050
ZGHA,2012-08-21 17:00,ZGHA 211700Z 34006MPS 7000 -RA SCT010 OVC050 24/21 Q1009 BECMG BKN009 OVC050
ZGHA,2012-08-21 18:00,ZGHA 211800Z 34005MPS 6000 SCT011 OVC050 23/21 Q1009 NOSIG
ZGHA,2012-08-21 19:00,ZGHA 211900Z 34004MPS 6000 SCT012 OVC050 23/21 Q1009 NOSIG
ZGHA,2012-08-21 20:00,ZGHA 212000Z 34003MPS 6000 SCT013 OVC050 23/21 Q1009 NOSIG
ZGHA,2012-08-21 21:00,ZGHA 212100Z 34004MPS 6000 SCT013 OVC050 23/21 Q1009 NOSIG
ZGHA,2012-08-21 22:00,ZGHA 212200Z 35006MPS 5000 -RA BR BKN011 OVC050 23/21 Q1009 NOSIG
ZGHA,2012-08-21 23:00,ZGHA 212300Z 34005MPS 3500 -RA BR BKN011 OVC050 23/21 Q1010 BECMG TL2350 BKN009 OVC050
ZGHA,2012-08-22 00:00,ZGHA 220000Z 34005MPS 2500 -RA BR BKN009 OVC050 23/21 Q1010 NOSIG
ZGHA,2012-08-22 01:00,ZGHA 220100Z 34006MPS 7000 BKN009 OVC050 23/21 Q1010 NOSIG
ZGHA,2012-08-22 02:00,ZGHA 220200Z 34006MPS 9999 BKN009 OVC050 23/21 Q1010 BECMG BKN011 OVC050
ZGHA,2012-08-22 03:00,ZGHA 220300Z 34006MPS 9999 -RA BKN009 OVC050 23/21 Q1011 BECMG BKN011 OVC050
ZGHA,2012-08-22 04:00,ZGHA 220400Z 35007MPS 9999 FEW009 BKN011 OVC050 23/20 Q1011 NOSIG
ZGHA,2012-08-22 05:00,ZGHA 220500Z 34006MPS 8000 -RA BKN009 OVC050 24/20 Q1010 NOSIG
ZGHA,2012-08-22 06:00,ZGHA 220600Z 35008MPS 8000 BKN009 OVC050 24/20 Q1010 NOSIG
ZGHA,2012-08-22 07:00,ZGHA 220700Z 35007MPS 8000 BKN009 OVC040 23/20 Q1010 NOSIG
ZGHA,2012-08-22 08:00,ZGHA 220800Z 36008MPS 8000 BKN009 OVC040 23/20 Q1010 NOSIG
ZGHA,2012-08-22 09:00,ZGHA 220900Z 35008MPS 8000 -RA BKN009 OVC040 23/20 Q1010 NOSIG
ZGHA,2012-08-22 10:00,ZGHA 221000Z 36008MPS 7000 -RA BKN008 OVC040 22/20 Q1010 NOSIG
ZGHA,2012-08-22 11:00,ZGHA 221100Z 35006MPS 8000 BKN008 OVC040 22/20 Q1010 NOSIG
ZGHA,2012-08-22 12:00,ZGHA 221200Z 34005MPS 8000 BKN023 OVC050 22/20 Q1011 NOSIG
ZGHA,2012-08-22 13:00,ZGHA 221300Z 34005MPS 8000 BKN023 OVC050 22/20 Q1011 NOSIG
ZGHA,2012-08-22 14:00,ZGHA 221400Z 35005MPS 8000 BKN026 OVC050 22/19 Q1012 NOSIG
ZGHA,2012-08-22 15:00,ZGHA 221500Z 01003MPS 7000 -RA BKN033 OVC050 22/19 Q1012 NOSIG
ZGHA,2012-08-22 16:00,ZGHA 221600Z 35004MPS 7000 BKN040 21/19 Q1012 NOSIG
ZGHA,2012-08-22 17:00,ZGHA 221700Z 35004MPS 7000 BKN040 21/19 Q1012 NOSIG
ZGHA,2012-08-22 18:00,ZGHA 221800Z 36004MPS 5000 -RA BR BKN040 21/19 Q1011 NOSIG
ZGHA,2012-08-22 19:00,ZGHA 221900Z 35005MPS 5000 -RA BR BKN020 OVC050 20/19 Q1011 NOSIG
ZGHA,2012-08-22 20:00,ZGHA 222000Z 34004MPS 4500 -RA BR BKN006 OVC040 20/19 Q1011 NOSIG
ZGHA,2012-08-22 21:00,ZGHA 222100Z 35004MPS 3500 -DZ BR BKN006 OVC040 20/19 Q1011 NOSIG
ZGHA,2012-08-22 22:00,ZGHA 222200Z 36004MPS 4000 BR BKN007 OVC040 20/19 Q1011 NOSIG
ZGHA,2012-08-22 23:00,ZGHA 222300Z 36003MPS 3500 BR BKN006 OVC040 21/19 Q1012 NOSIG
ZGHA,2012-08-23 00:00,ZGHA 230000Z 36004MPS 7000 SCT007 SCT020 OVC050 21/19 Q1012 NOSIG
ZGHA,2012-08-23 01:00,ZGHA 230100Z 35005MPS 7000 -RA SCT007 BKN020 OVC050 21/19 Q1012 NOSIG
ZGHA,2012-08-23 02:00,ZGHA 230200Z 36004MPS 8000 SCT007 BKN020 OVC050 22/19 Q1013 NOSIG
ZGHA,2012-08-23 03:00,ZGHA 230300Z 35005MPS 8000 SCT007 BKN020 OVC050 22/19 Q1013 NOSIG
ZGHA,2012-08-23 04:00,ZGHA 230400Z 35004MPS 8000 SCT009 BKN020 OVC040 23/19 Q1012 NOSIG
ZGHA,2012-08-23 05:00,ZGHA 230500Z 36004MPS 9999 SCT013 BKN020 OVC050 23/19 Q1012 NOSIG
ZGHA,2012-08-23 06:00,ZGHA 230600Z 34004MPS 320V020 9999 SCT013 BKN020 OVC050 23/19 Q1011 NOSIG
ZGHA,2012-08-23 07:00,ZGHA 230700Z 34004MPS 5000 -DZ BR SCT007 BKN020 OVC050 22/20 Q1011 NOSIG
ZGHA,2012-08-23 08:00,ZGHA 230800Z 35005MPS 7000 SCT011 BKN020 OVC050 23/19 Q1011 NOSIG
ZGHA,2012-08-23 09:00,ZGHA 230900Z 36004MPS 8000 SCT011 BKN020 OVC050 23/19 Q1011 NOSIG
ZGHA,2012-08-23 10:00,ZGHA 231000Z 01003MPS 8000 FEW011 BKN020 22/19 Q1012 NOSIG
ZGHA,2012-08-23 11:00,ZGHA 231100Z 36003MPS 3000 -DZ BR SCT008 BKN020 21/19 Q1011 BECMG TL1200 2500
ZGHA,2012-08-23 12:00,ZGHA 231200Z 36002MPS 3500 BR SCT009 BKN020 OVC050 21/20 Q1012 NOSIG
ZGHA,2012-08-23 13:00,ZGHA 231300Z 35002MPS 4500 BR FEW012 BKN020 OVC040 21/20 Q1012 NOSIG
ZGHA,2012-08-23 14:00,ZGHA 231400Z 35003MPS 6000 FEW012 BKN020 OVC040 22/20 Q1012 NOSIG
ZGHA,2012-08-23 15:00,ZGHA 231500Z 35003MPS 7000 SCT012 BKN020 OVC050 21/19 Q1012 NOSIG
ZGHA,2012-08-23 16:00,ZGHA 231600Z 35003MPS 7000 SCT012 BKN020 OVC050 21/19 Q1012 NOSIG
ZGHA,2012-08-23 17:00,ZGHA 231700Z 33003MPS 6000 FEW012 BKN020 OVC050 22/20 Q1011 NOSIG
ZGHA,2012-08-23 18:00,ZGHA 231800Z 34003MPS 6000 SCT020 OVC050 21/19 Q1011 NOSIG
ZGHA,2012-08-23 19:00,ZGHA 231900Z 35003MPS 6000 SCT020 OVC050 21/19 Q1011 NOSIG
ZGHA,2012-08-23 20:00,ZGHA 232000Z 34003MPS 5000 BR SCT020 OVC050 22/19 Q1011 NOSIG
ZGHA,2012-08-23 21:00,ZGHA 232100Z 34003MPS 6000 SCT020 OVC050 21/19 Q1011 NOSIG
ZGHA,2012-08-23 22:00,ZGHA 232200Z 35003MPS 6000 OVC040 21/19 Q1011 NOSIG
ZGHA,2012-08-23 23:00,ZGHA 232300Z VRB01MPS 6000 OVC050 21/19 Q1012 NOSIG
ZGHA,2012-08-24 00:00,ZGHA 240000Z 01002MPS 7000 OVC050 22/19 Q1012 NOSIG
ZGHA,2012-08-24 01:00,ZGHA 240100Z 35002MPS 320V030 9999 BKN033 24/19 Q1012 NOSIG
ZGHA,2012-08-24 02:00,ZGHA 240200Z 36003MPS 320V030 9999 OVC033 24/19 Q1012 NOSIG
ZGHA,2012-08-24 03:00,ZGHA 240300Z 36003MPS 330V040 9999 OVC036 25/19 Q1012 NOSIG
ZGHA,2012-08-24 04:00,ZGHA 240400Z 36003MPS 340V050 9999 OVC036 26/19 Q1011 NOSIG
ZGHA,2012-08-24 05:00,ZGHA 240500Z 01003MPS 330V040 9999 BKN040 27/19 Q1011 NOSIG
ZGHA,2012-08-24 06:00,ZGHA 240600Z 35003MPS 9999 SCT026 SCT040 27/19 Q1010 NOSIG
ZGHA,2012-08-24 07:00,ZGHA 240700Z 35004MPS 320V020 CAVOK 29/20 Q1009 NOSIG
ZGHA,2012-08-24 08:00,ZGHA 240800Z 02003MPS 300V070 9999 SCT030 28/20 Q1009 NOSIG
ZGHA,2012-08-24 09:00,ZGHA 240900Z 36003MPS 250V030 9999 FEW030 28/20 Q1009 NOSIG
ZGHA,2012-08-24 10:00,ZGHA 241000Z 35004MPS 310V020 9999 FEW030 28/20 Q1009 NOSIG
ZGHA,2012-08-24 11:00,ZGHA 241100Z 31005MPS 6000 FEW030 26/21 Q1010 NOSIG
ZGHA,2012-08-24 12:00,ZGHA 241200Z 34004MPS 7000 BKN033 26/20 Q1010 NOSIG
ZGHA,2012-08-24 13:00,ZGHA 241300Z 31003MPS 7000 BKN030 25/20 Q1011 NOSIG
ZGHA,2012-08-24 14:00,ZGHA 241400Z 33004MPS 7000 BKN050 25/20 Q1011 NOSIG
ZGHA,2012-08-24 15:00,ZGHA 241500Z 31002MPS 280V340 6000 SCT033 24/20 Q1011 NOSIG
ZGHA,2012-08-24 16:00,ZGHA 241600Z 33002MPS 6000 BKN033 24/20 Q1011 NOSIG
ZGHA,2012-08-24 17:00,ZGHA 241700Z 34003MPS 6000 BKN033 23/20 Q1010 NOSIG
ZGHA,2012-08-24 18:00,ZGHA 241800Z 36002MPS 6000 BKN033 23/20 Q1010 NOSIG
ZGHA,2012-08-24 19:00,ZGHA 241900Z 36002MPS 5000 BR BKN033 22/20 Q1010 NOSIG
ZGHA,2012-08-24 20:00,ZGHA 242000Z VRB01MPS 5000 BR BKN033 22/20 Q1010 NOSIG
ZGHA,2012-08-24 21:00,ZGHA 242100Z 01002MPS 5000 BR BKN033 23/20 Q1010 NOSIG
ZGHA,2012-08-24 22:00,ZGHA 242200Z VRB01MPS 5000 BR OVC040 23/20 Q1010 NOSIG
ZGHA,2012-08-24 23:00,ZGHA 242300Z VRB01MPS 5000 BR OVC050 23/20 Q1010 NOSIG
ZGHA,2012-08-25 00:00,ZGHA 250000Z 36002MPS 330V030 5000 BR NSC 24/20 Q1011 NOSIG
ZGHA,2012-08-25 01:00,ZGHA 250100Z 36003MPS CAVOK 26/20 Q1011 NOSIG
ZGHA,2012-08-25 02:00,ZGHA 250200Z 01003MPS 340V070 9999 SCT050 26/20 Q1011 NOSIG
ZGHA,2012-08-25 03:00,ZGHA 250300Z 34003MPS 320V020 9999 SCT050 27/20 Q1011 NOSIG
ZGHA,2012-08-25 04:00,ZGHA 250400Z 01002MPS 310V070 9999 SCT040 27/21 Q1010 NOSIG
ZGHA,2012-08-25 05:00,ZGHA 250500Z 36003MPS 310V030 9999 SCT040 28/21 Q1010 NOSIG
ZGHA,2012-08-25 06:00,ZGHA 250600Z 36004MPS 300V080 9999 SCT050 30/21 Q1009 NOSIG
ZGHA,2012-08-25 07:00,ZGHA 250700Z 34004MPS 290V010 CAVOK 30/20 Q1009 NOSIG
ZGHA,2012-08-25 08:00,ZGHA 250800Z 36004MPS 9999 FEW040 30/21 Q1008 NOSIG
ZGHA,2012-08-25 09:00,ZGHA 250900Z 34004MPS 310V010 9999 SCT033 30/21 Q1008 NOSIG
ZGHA,2012-08-25 10:00,ZGHA 251000Z 33005MPS CAVOK 30/22 Q1008 NOSIG
ZGHA,2012-08-25 11:00,ZGHA 251100Z 36005MPS 8000 NSC 28/21 Q1008 NOSIG
ZGHA,2012-08-25 12:00,ZGHA 251200Z 34004MPS 6000 NSC 27/21 Q1008 NOSIG
ZGHA,2012-08-25 13:00,ZGHA 251300Z 34003MPS 6000 SCT033 27/21 Q1009 NOSIG
ZGHA,2012-08-25 14:00,ZGHA 251400Z 35004MPS 6000 NSC 26/21 Q1009 NOSIG
ZGHA,2012-08-25 15:00,ZGHA 251500Z 36002MPS 330V030 6000 NSC 25/21 Q1008 NOSIG
ZGHA,2012-08-25 16:00,ZGHA 251600Z 36002MPS 5000 BR SCT050 24/21 Q1008 NOSIG
ZGHA,2012-08-25 17:00,ZGHA 251700Z 29002MPS 270V330 4500 BR SCT050 25/21 Q1008 NOSIG
ZGHA,2012-08-25 18:00,ZGHA 251800Z 36002MPS 4000 BR SCT040 25/21 Q1007 NOSIG
ZGHA,2012-08-25 19:00,ZGHA 251900Z 35003MPS 3500 BR SCT040 25/22 Q1007 NOSIG
ZGHA,2012-08-25 20:00,ZGHA 252000Z 35003MPS 3000 BR SCT040 24/22 Q1007 NOSIG
ZGHA,2012-08-25 21:00,ZGHA 252100Z 35002MPS 2700 BR FEW040 23/22 Q1007 NOSIG
ZGHA,2012-08-25 22:00,ZGHA 252200Z 34003MPS 2700 BR SCT040 24/22 Q1007 NOSIG
ZGHA,2012-08-25 23:00,ZGHA 252300Z 36003MPS 3000 BR SCT050 25/22 Q1008 NOSIG
ZGHA,2012-08-26 00:00,ZGHA 260000Z 02002MPS 3500 BR NSC 26/22 Q1008 NOSIG
ZGHA,2012-08-26 01:00,ZGHA 260100Z 04002MPS 340V090 6000 SCT046 28/22 Q1008 NOSIG
ZGHA,2012-08-26 02:00,ZGHA 260200Z 05002MPS 350V110 7000 SCT020 OVC046 28/22 Q1008 NOSIG
ZGHA,2012-08-26 03:00,ZGHA 260300Z 34003MPS 270V030 8000 BKN040 30/22 Q1007 NOSIG
ZGHA,2012-08-26 04:00,ZGHA 260400Z 30002MPS 230V360 9000 SCT033 32/23 Q1007 NOSIG
ZGHA,2012-08-26 05:00,ZGHA 260500Z 35003MPS 300V040 9999 SCT030 32/22 Q1006 NOSIG
ZGHA,2012-08-26 06:00,ZGHA 260600Z 32006MPS 9999 SCT040 33/22 Q1005 NOSIG
ZGHA,2012-08-26 07:00,ZGHA 260700Z 32006MPS 7000 SCT040 33/23 Q1004 NOSIG
ZGHA,2012-08-26 08:00,ZGHA 260800Z 32006MPS 8000 SCT040 33/23 Q1004 NOSIG
ZGHA,2012-08-26 09:00,ZGHA 260900Z 30005MPS 7000 BKN033 32/22 Q1004 RETS NOSIG
ZGHA,2012-08-26 10:00,ZGHA 261000Z 36004MPS 7000 FEW030TCU 30/23 Q1004 NOSIG
ZGHA,2012-08-26 11:00,ZGHA 261100Z 06004MPS 290V100 7000 SCT026CB BKN026 28/23 Q1004 NOSIG
ZGHA,2012-08-26 12:00,ZGHA 261200Z 36002MPS 6000 SCT030 OVC050 25/23 Q1005 NOSIG
ZGHA,2012-08-26 13:00,ZGHA 261300Z 35004MPS 8000 TS FEW050CB BKN050 25/22 Q1005 BECMG TL1330 TSRA
ZGHA,2012-08-26 14:00,ZGHA 261400Z 36006MPS 6000 BKN050 25/23 Q1006 NOSIG
ZGHA,2012-08-26 15:00,ZGHA 261500Z 01003MPS 5000 BR NSC 25/23 Q1006 NOSIG
ZGHA,2012-08-26 16:00,ZGHA 261600Z VRB01MPS 3500 BR SCT006 25/23 Q1005 NOSIG
ZGHA,2012-08-26 17:00,ZGHA 261700Z 36001MPS 6000 NSC 24/23 Q1005 NOSIG
ZGHA,2012-08-26 18:00,ZGHA 261800Z 32002MPS 8000 NSC 25/23 Q1005 NOSIG
ZGHA,2012-08-26 19:00,ZGHA 261900Z 33003MPS 6000 SCT050 25/23 Q1005 NOSIG
ZGHA,2012-08-26 20:00,ZGHA 262000Z 02002MPS 330V040 4000 -RA BR SCT050 25/23 Q1005 NOSIG
ZGHA,2012-08-26 21:00,ZGHA 262100Z 36003MPS 5000 BR FEW050 24/23 Q1005 NOSIG
ZGHA,2012-08-26 22:00,ZGHA 262200Z 36003MPS 3500 BR SCT020 24/23 Q1005 NOSIG
ZGHA,2012-08-26 23:00,ZGHA 262300Z 35004MPS 4000 BR SCT020 24/23 Q1006 NOSIG
ZGHA,2012-08-27 00:00,ZGHA 270000Z 36004MPS 3500 BR BKN008 25/23 Q1006 NOSIG
ZGHA,2012-08-27 01:00,ZGHA 270100Z 01002MPS 340V040 4000 BR BKN008 OVC050 25/22 Q1006 NOSIG
ZGHA,2012-08-27 02:00,ZGHA 270200Z 01004MPS 5000 BR BKN009 OVC050 26/22 Q1006 BECMG TL0300 BKN011 OVC050
ZGHA,2012-08-27 03:00,ZGHA 270300Z 36005MPS 5000 BR BKN011 OVC050 27/22 Q1006 NOSIG
ZGHA,2012-08-27 04:00,ZGHA 270400Z 34006MPS 6000 BKN011 28/22 Q1006 NOSIG
ZGHA,2012-08-27 05:00,ZGHA 270500Z 31006MPS 8000 SCT020 28/22 Q1006 NOSIG
ZGHA,2012-08-27 06:00,ZGHA 270600Z 33007MPS 9999 BKN023 30/22 Q1005 NOSIG
ZGHA,2012-08-27 07:00,ZGHA 270700Z 33006MPS 300V360 9999 BKN030 29/21 Q1005 NOSIG
ZGHA,2012-08-27 08:00,ZGHA 270800Z 33006MPS 300V010 9999 FEW033TCU BKN033 29/21 Q1004 NOSIG
ZGHA,2012-08-27 09:00,ZGHA 270900Z 33005MPS 300V360 9999 SCT033 30/21 Q1004 NOSIG
ZGHA,2012-08-27 10:00,ZGHA 271000Z 35005MPS 320V020 9999 FEW033 28/21 Q1004 NOSIG
ZGHA,2012-08-27 11:00,ZGHA 271100Z 33004MPS 9999 FEW033 27/20 Q1004 NOSIG
ZGHA,2012-08-27 12:00,ZGHA 271200Z 33003MPS CAVOK 27/20 Q1005 NOSIG
ZGHA,2012-08-27 13:00,ZGHA 271300Z 30003MPS CAVOK 26/21 Q1005 NOSIG
ZGHA,2012-08-27 14:00,ZGHA 271400Z 33004MPS CAVOK 26/21 Q1006 NOSIG
ZGHA,2012-08-27 15:00,ZGHA 271500Z 35004MPS 7000 NSC 25/21 Q1006 NOSIG
ZGHA,2012-08-27 16:00,ZGHA 271600Z 36003MPS 6000 NSC 24/22 Q1006 NOSIG
ZGHA,2012-08-27 17:00,ZGHA 271700Z 35004MPS 5000 BR NSC 24/22 Q1005 NOSIG
ZGHA,2012-08-27 18:00,ZGHA 271800Z 33003MPS 5000 BR NSC 24/22 Q1005 NOSIG
ZGHA,2012-08-27 19:00,ZGHA 271900Z 34003MPS 4500 BR NSC 24/22 Q1005 NOSIG
ZGHA,2012-08-27 20:00,ZGHA 272000Z 34003MPS 4000 BR NSC 23/22 Q1005 NOSIG
ZGHA,2012-08-27 21:00,ZGHA 272100Z 34002MPS 3500 BR FEW023 23/21 Q1005 NOSIG
ZGHA,2012-08-27 22:00,ZGHA 272200Z 00000MPS 2500 BR FEW030 23/21 Q1006 NOSIG
ZGHA,2012-08-27 23:00,ZGHA 272300Z 36002MPS 2200 BR NSC 23/22 Q1006 BECMG TL0030 3500
ZGHA,2012-08-28 00:00,ZGHA 280000Z 01002MPS 350V070 3500 BR FEW020 25/22 Q1007 NOSIG
ZGHA,2012-08-28 01:00,ZGHA 280100Z 04003MPS 340V090 5000 BR SCT011 26/22 Q1007 NOSIG
ZGHA,2012-08-28 02:00,ZGHA 280200Z 01003MPS 330V050 7000 SCT013 27/21 Q1007 NOSIG
ZGHA,2012-08-28 03:00,ZGHA 280300Z 01003MPS 300V080 9999 FEW023 28/21 Q1007 NOSIG
ZGHA,2012-08-28 04:00,ZGHA 280400Z VRB02MPS 9999 SCT033 31/20 Q1007 NOSIG
ZGHA,2012-08-28 05:00,ZGHA 280500Z 28005MPS 250V310 9999 SCT033 30/22 Q1006 NOSIG
ZGHA,2012-08-28 06:00,ZGHA 280600Z 30004MPS 270V330 9999 FEW040 32/21 Q1006 NOSIG
ZGHA,2012-08-28 07:00,ZGHA 280700Z 33004MPS 270V020 9999 FEW040 32/21 Q1005 NOSIG
ZGHA,2012-08-28 08:00,ZGHA 280800Z 33004MPS 280V350 9999 SCT040 32/21 Q1005 NOSIG
ZGHA,2012-08-28 09:00,ZGHA 280900Z 32005MPS 9999 FEW050 31/20 Q1005 NOSIG
ZGHA,2012-08-28 10:00,ZGHA 281000Z 33004MPS 300V360 CAVOK 30/21 Q1005 NOSIG
ZGHA,2012-08-28 11:00,ZGHA 281100Z 34003MPS CAVOK 29/21 Q1005 NOSIG
ZGHA,2012-08-28 12:00,ZGHA 281200Z 36002MPS CAVOK 27/22 Q1006 NOSIG
ZGHA,2012-08-28 13:00,ZGHA 281300Z 05002MPS 7000 NSC 26/22 Q1006 NOSIG
ZGHA,2012-08-28 14:00,ZGHA 281400Z VRB01MPS 7000 NSC 26/22 Q1007 NOSIG
ZGHA,2012-08-28 15:00,ZGHA 281500Z 04002MPS 6000 NSC 25/23 Q1007 NOSIG
ZGHA,2012-08-28 16:00,ZGHA 281600Z VRB01MPS 6000 NSC 24/22 Q1007 NOSIG
ZGHA,2012-08-28 17:00,ZGHA 281700Z VRB01MPS 6000 NSC 24/22 Q1007 NOSIG
ZGHA,2012-08-28 18:00,ZGHA 281800Z 10001MPS 5000 BR NSC 24/22 Q1007 NOSIG
ZGHA,2012-08-28 19:00,ZGHA 281900Z VRB01MPS 4000 BR NSC 23/22 Q1006 NOSIG
ZGHA,2012-08-28 20:00,ZGHA 282000Z 00000MPS 4000 BR NSC 23/22 Q1007 NOSIG
ZGHA,2012-08-28 21:00,ZGHA 282100Z VRB01MPS 4000 BR NSC 23/21 Q1007 NOSIG
ZGHA,2012-08-28 22:00,ZGHA 282200Z 15001MPS 2500 BR NSC 22/21 Q1007 NOSIG
ZGHA,2012-08-28 23:00,ZGHA 282300Z 00000MPS 4000 BR NSC 23/22 Q1008 NOSIG
ZGHA,2012-08-29 00:00,ZGHA 290000Z 00000MPS 6000 NSC 26/22 Q1008 NOSIG
ZGHA,2012-08-29 01:00,ZGHA 290100Z VRB01MPS 8000 NSC 28/23 Q1009 NOSIG
ZGHA,2012-08-29 02:00,ZGHA 290200Z VRB01MPS CAVOK 30/22 Q1009 NOSIG
ZGHA,2012-08-29 03:00,ZGHA 290300Z VRB01MPS 9999 SCT033 32/21 Q1008 NOSIG
ZGHA,2012-08-29 04:00,ZGHA 290400Z VRB02MPS 9999 SCT033 33/20 Q1008 NOSIG
ZGHA,2012-08-29 05:00,ZGHA 290500Z VRB01MPS 9999 SCT040 34/19 Q1007 NOSIG
ZGHA,2012-08-29 06:00,ZGHA 290600Z 06002MPS 030V110 9999 SCT040 33/20 Q1007 NOSIG
ZGHA,2012-08-29 07:00,ZGHA 290700Z 04002MPS 330V100 9999 SCT040 34/18 Q1006 NOSIG
ZGHA,2012-08-29 08:00,ZGHA 290800Z 02002MPS 280V070 9999 FEW040 34/19 Q1006 NOSIG
ZGHA,2012-08-29 09:00,ZGHA 290900Z 02002MPS 320V080 9999 FEW040 33/19 Q1006 NOSIG
ZGHA,2012-08-29 10:00,ZGHA 291000Z 02002MPS CAVOK 32/20 Q1006 NOSIG
ZGHA,2012-08-29 11:00,ZGHA 291100Z 04002MPS CAVOK 30/22 Q1006 NOSIG
ZGHA,2012-08-29 12:00,ZGHA 291200Z 03001MPS 6000 NSC 28/22 Q1007 NOSIG
ZGHA,2012-08-29 13:00,ZGHA 291300Z VRB01MPS 6000 NSC 27/22 Q1007 NOSIG
ZGHA,2012-08-29 14:00,ZGHA 291400Z 04002MPS 010V080 6000 NSC 26/22 Q1008 NOSIG
ZGHA,2012-08-29 15:00,ZGHA 291500Z 04001MPS 5000 BR NSC 26/22 Q1008 NOSIG
ZGHA,2012-08-29 16:00,ZGHA 291600Z VRB01MPS 5000 BR NSC 25/23 Q1008 NOSIG
ZGHA,2012-08-29 17:00,ZGHA 291700Z 16001MPS 4000 BR NSC 24/22 Q1007 NOSIG
ZGHA,2012-08-29 18:00,ZGHA 291800Z 05002MPS 3000 BR NSC 24/22 Q1007 NOSIG
ZGHA,2012-08-29 19:00,ZGHA 291900Z 15001MPS 3000 BR NSC 23/22 Q1007 NOSIG
ZGHA,2012-08-29 20:00,ZGHA 292000Z VRB01MPS 4000 BR NSC 23/22 Q1007 NOSIG
ZGHA,2012-08-29 21:00,ZGHA 292100Z 00000MPS 5000 BR NSC 23/21 Q1007 NOSIG
ZGHA,2012-08-29 22:00,ZGHA 292200Z 19001MPS 2500 BR NSC 22/21 Q1008 NOSIG
ZGHA,2012-08-29 23:00,ZGHA 292300Z 00000MPS 3000 BR NSC 23/22 Q1008 NOSIG
ZGHA,2012-08-30 00:00,ZGHA 300000Z VRB01MPS 5000 BR NSC 26/23 Q1009 NOSIG
ZGHA,2012-08-30 01:00,ZGHA 300100Z VRB01MPS 7000 NSC 28/22 Q1009 NOSIG
ZGHA,2012-08-30 02:00,ZGHA 300200Z VRB01MPS CAVOK 31/22 Q1009 NOSIG
ZGHA,2012-08-30 03:00,ZGHA 300300Z VRB01MPS CAVOK 32/22 Q1009 NOSIG
ZGHA,2012-08-30 04:00,ZGHA 300400Z VRB02MPS 9999 SCT040 34/20 Q1008 NOSIG
ZGHA,2012-08-30 05:00,ZGHA 300500Z 02002MPS 320V130 9999 SCT040 34/21 Q1007 NOSIG
ZGHA,2012-08-30 06:00,ZGHA 300600Z 13002MPS 9999 SCT050 35/18 Q1006 NOSIG
ZGHA,2012-08-30 07:00,ZGHA 300700Z 09002MPS 020V160 9999 FEW050 35/18 Q1006 NOSIG
ZGHA,2012-08-30 08:00,ZGHA 300800Z 08001MPS 9999 FEW050 36/18 Q1005 NOSIG
ZGHA,2012-08-30 09:00,ZGHA 300900Z 01002MPS 310V070 9999 FEW050 35/20 Q1005 NOSIG
ZGHA,2012-08-30 10:00,ZGHA 301000Z VRB01MPS CAVOK 33/21 Q1005 NOSIG
ZGHA,2012-08-30 11:00,ZGHA 301100Z 05001MPS CAVOK 31/22 Q1005 NOSIG
ZGHA,2012-08-30 12:00,ZGHA 301200Z 03002MPS CAVOK 29/23 Q1006 NOSIG
ZGHA,2012-08-30 13:00,ZGHA 301300Z VRB01MPS CAVOK 29/23 Q1007 NOSIG
ZGHA,2012-08-30 14:00,ZGHA 301400Z 04001MPS 6000 NSC 28/23 Q1007 NOSIG
ZGHA,2012-08-30 15:00,ZGHA 301500Z 06001MPS 6000 NSC 27/23 Q1007 NOSIG
ZGHA,2012-08-30 16:00,ZGHA 301600Z VRB01MPS 5000 BR NSC 26/24 Q1007 NOSIG
ZGHA,2012-08-30 17:00,ZGHA 301700Z VRB01MPS 4500 BR NSC 26/23 Q1007 NOSIG
ZGHA,2012-08-30 18:00,ZGHA 301800Z 00000MPS 4000 BR NSC 26/23 Q1007 NOSIG
ZGHA,2012-08-30 19:00,ZGHA 301900Z 02001MPS 4000 BR NSC 25/23 Q1006 NOSIG
ZGHA,2012-08-30 20:00,ZGHA 302000Z 28002MPS 4500 BR NSC 25/23 Q1006 NOSIG
ZGHA,2012-08-30 21:00,ZGHA 302100Z VRB01MPS 4000 BR NSC 25/23 Q1006 NOSIG
ZGHA,2012-08-30 22:00,ZGHA 302200Z 02002MPS 3000 BR NSC 25/23 Q1007 NOSIG
ZGHA,2012-08-30 23:00,ZGHA 302300Z VRB01MPS 3500 BR NSC 25/23 Q1007 NOSIG
ZGHA,2012-08-31 00:00,ZGHA 310000Z 07002MPS 360V110 4500 BR NSC 28/23 Q1008 NOSIG
ZGHA,2012-08-31 01:00,ZGHA 310100Z VRB01MPS 7000 NSC 30/23 Q1008 NOSIG
ZGHA,2012-08-31 02:00,ZGHA 310200Z VRB02MPS CAVOK 33/22 Q1008 NOSIG
ZGHA,2012-08-31 03:00,ZGHA 310300Z 14003MPS 080V200 CAVOK 34/21 Q1007 NOSIG
ZGHA,2012-08-31 04:00,ZGHA 310400Z 16003MPS 130V200 9999 FEW040 34/21 Q1007 NOSIG
ZGHA,2012-08-31 05:00,ZGHA 310500Z VRB01MPS 9999 SCT050 35/21 Q1007 NOSIG
ZGHA,2012-08-31 06:00,ZGHA 310600Z VRB02MPS 9999 SCT050 36/19 Q1006 NOSIG
ZGHA,2012-08-31 07:00,ZGHA 310700Z VRB02MPS 9999 FEW050TCU SCT050 36/20 Q1005 NOSIG
ZGHA,2012-08-31 08:00,ZGHA 310800Z VRB02MPS 9999 SCT050 36/20 Q1005 NOSIG
ZGHA,2012-08-31 09:00,ZGHA 310900Z 08003MPS 050V130 9999 SCT050 35/21 Q1005 NOSIG
ZGHA,2012-08-31 10:00,ZGHA 311000Z 08002MPS CAVOK 34/21 Q1005 NOSIG
ZGHA,2012-08-31 11:00,ZGHA 311100Z 08001MPS CAVOK 32/23 Q1005 NOSIG
ZGHA,2012-08-31 12:00,ZGHA 311200Z VRB01MPS CAVOK 31/22 Q1006 NOSIG
ZGHA,2012-08-31 13:00,ZGHA 311300Z VRB01MPS CAVOK 30/22 Q1007 NOSIG
ZGHA,2012-08-31 14:00,ZGHA 311400Z VRB01MPS 6000 NSC 29/23 Q1008 NOSIG
ZGHA,2012-08-31 15:00,ZGHA 311500Z 03001MPS 5000 BR NSC 28/23 Q1008 NOSIG
ZGHA,2012-08-31 16:00,ZGHA 311600Z VRB01MPS 5000 BR NSC 28/23 Q1007 NOSIG
ZGHA,2012-08-31 17:00,ZGHA 311700Z VRB01MPS 4000 BR NSC 28/23 Q1006 NOSIG
ZGHA,2012-08-31 18:00,ZGHA 311800Z VRB01MPS 4000 BR NSC 27/24 Q1006 NOSIG
ZGHA,2012-08-31 19:00,ZGHA 311900Z VRB01MPS 4500 BR NSC 27/23 Q1006 NOSIG
ZGHA,2012-08-31 20:00,ZGHA 312000Z 00000MPS 4000 BR NSC 26/24 Q1006 NOSIG
ZGHA,2012-08-31 21:00,ZGHA 312100Z 04001MPS 5000 BR NSC 26/24 Q1006 NOSIG
ZGHA,2012-08-31 22:00,ZGHA 312200Z VRB01MPS 3500 BR NSC 26/24 Q1007 NOSIG
ZGHA,2012-08-31 23:00,ZGHA 312300Z 07001MPS 4500 BR NSC 26/24 Q1007 NOSIG
ZGHA,2012-09-01 00:00,ZGHA 010000Z VRB01MPS 5000 BR NSC 29/24 Q1007 NOSIG
ZGHA,2012-09-01 01:00,ZGHA 010100Z 13003MPS 080V150 7000 NSC 32/24 Q1007 NOSIG
ZGHA,2012-09-01 02:00,ZGHA 010200Z 15003MPS 120V210 CAVOK 33/23 Q1008 NOSIG
ZGHA,2012-09-01 03:00,ZGHA 010300Z 18004MPS 140V220 CAVOK 35/22 Q1008 NOSIG
ZGHA,2012-09-01 04:00,ZGHA 010400Z 16004MPS 120V200 9999 SCT046 35/22 Q1007 NOSIG
ZGHA,2012-09-01 05:00,ZGHA 010500Z 21004MPS 180V250 9999 SCT050 36/21 Q1007 NOSIG
ZGHA,2012-09-01 06:00,ZGHA 010600Z 19004MPS 150V220 9999 SCT050 36/22 Q1006 NOSIG
ZGHA,2012-09-01 07:00,ZGHA 010700Z 17004MPS CAVOK 35/21 Q1005 NOSIG
ZGHA,2012-09-01 08:00,ZGHA 010800Z 19003MPS 150V250 CAVOK 36/20 Q1005 NOSIG
ZGHA,2012-09-01 09:00,ZGHA 010900Z VRB02MPS 9999 SCT050 35/20 Q1005 NOSIG
ZGHA,2012-09-01 10:00,ZGHA 011000Z 10002MPS 060V140 9999 BKN050 34/23 Q1005 NOSIG
ZGHA,2012-09-01 11:00,ZGHA 011100Z 09002MPS 060V140 8000 BKN050 32/24 Q1005 NOSIG
ZGHA,2012-09-01 12:00,ZGHA 011200Z 08002MPS 6000 NSC 29/24 Q1006 RESHRA NOSIG
ZGHA,2012-09-01 13:00,ZGHA 011300Z VRB01MPS 6000 NSC 29/25 Q1007 NOSIG
ZGHA,2012-09-01 14:00,ZGHA 011400Z VRB01MPS 7000 NSC 28/25 Q1007 NOSIG
ZGHA,2012-09-01 15:00,ZGHA 011500Z 01001MPS 6000 NSC 28/25 Q1007 NOSIG
ZGHA,2012-09-01 16:00,ZGHA 011600Z 00000MPS 6000 NSC 28/25 Q1007 NOSIG
ZGHA,2012-09-01 17:00,ZGHA 011700Z VRB01MPS 6000 NSC 28/25 Q1007 NOSIG
ZGHA,2012-09-01 18:00,ZGHA 011800Z VRB01MPS 5000 BR NSC 27/25 Q1007 NOSIG
ZGHA,2012-09-01 19:00,ZGHA 011900Z 00000MPS 5000 BR NSC 27/25 Q1007 NOSIG
ZGHA,2012-09-01 20:00,ZGHA 012000Z 27002MPS 6000 NSC 27/24 Q1007 NOSIG
ZGHA,2012-09-01 21:00,ZGHA 012100Z 24001MPS 7000 NSC 27/24 Q1007 NOSIG
ZGHA,2012-09-01 22:00,ZGHA 012200Z VRB01MPS 6000 NSC 27/24 Q1007 NOSIG
ZGHA,2012-09-01 23:00,ZGHA 012300Z 15002MPS 6000 NSC 28/24 Q1008 NOSIG
ZGHA,2012-09-02 00:00,ZGHA 020000Z 16002MPS 130V190 CAVOK 30/24 Q1008 NOSIG
ZGHA,2012-09-02 01:00,ZGHA 020100Z 16003MPS 130V190 CAVOK 32/22 Q1008 NOSIG
ZGHA,2012-09-02 02:00,ZGHA 020200Z 19004MPS 160V220 CAVOK 33/22 Q1008 NOSIG
ZGHA,2012-09-02 03:00,ZGHA 020300Z 16004MPS 110V220 9999 SCT050 34/22 Q1008 NOSIG
ZGHA,2012-09-02 04:00,ZGHA 020400Z 21003MPS 160V240 9999 SCT050 34/22 Q1007 NOSIG
ZGHA,2012-09-02 05:00,ZGHA 020500Z VRB02MPS 9999 FEW040TCU FEW040 35/22 Q1006 NOSIG
ZGHA,2012-09-02 06:00,ZGHA 020600Z 33006MPS 300V010 9999 FEW040TCU SCT040 32/21 Q1005 RETS NOSIG
ZGHA,2012-09-02 07:00,ZGHA 020700Z 33007MPS 9999 SCT050 31/24 Q1005 NOSIG
ZGHA,2012-09-02 08:00,ZGHA 020800Z 31005MPS 280V340 6000 -TSRA BKN007 FEW050CB BKN050 30/23 Q1006 BECMG TL0940 -RA
ZGHA,2012-09-02 09:00,ZGHA 020900Z 15004MPS 6000 -TSRA BKN007 FEW050CB BKN050 24/24 Q1008 BECMG -SHRA
ZGHA,2012-09-02 10:00,ZGHA 021000Z 34005MPS 5000 -TSRA BR BKN007 FEW050CB BKN050 25/23 Q1007 BECMG -SHRA
ZGHA,2012-09-02 11:00,ZGHA 021100Z 33005MPS 300V360 5000 BR BKN007 OVC050 26/22 Q1007 RETS NOSIG
ZGHA,2012-09-02 12:00,ZGHA 021200Z 36005MPS 6000 BKN015 OVC040 25/22 Q1008 NOSIG
ZGHA,2012-09-02 13:00,ZGHA 021300Z 35007MPS 6000 BKN020 OVC040 25/21 Q1009 NOSIG
ZGHA,2012-09-02 14:00,ZGHA 021400Z 35006MPS 6000 BKN016 OVC040 25/21 Q1009 NOSIG
ZGHA,2012-09-02 15:00,ZGHA 021500Z 34003MPS 6000 BKN011 OVC033 25/22 Q1009 NOSIG
ZGHA,2012-09-02 16:00,ZGHA 021600Z 35006MPS 6000 BKN011 OVC033 24/21 Q1010 NOSIG
ZGHA,2012-09-02 17:00,ZGHA 021700Z 34005MPS 5000 -DZ BR FEW006 BKN011 OVC033 23/21 Q1009 NOSIG
ZGHA,2012-09-02 18:00,ZGHA 021800Z 35006MPS 6000 BKN020 OVC033 22/21 Q1009 NOSIG
ZGHA,2012-09-02 19:00,ZGHA 021900Z 34005MPS 6000 BKN020 OVC033 22/20 Q1009 NOSIG
ZGHA,2012-09-02 20:00,ZGHA 022000Z 33005MPS 6000 -RA BKN020 OVC033 22/20 Q1009 NOSIG
ZGHA,2012-09-02 21:00,ZGHA 022100Z 36006MPS 8000 -RA BKN020 OVC033 21/19 Q1010 NOSIG
ZGHA,2012-09-02 22:00,ZGHA 022200Z 36006MPS 6000 BKN020 OVC033 21/19 Q1010 NOSIG
ZGHA,2012-09-02 23:00,ZGHA 022300Z 34006MPS 9000 OVC043 22/19 Q1011 NOSIG
ZGHA,2012-09-03 00:00,ZGHA 030000Z 34006MPS 6000 -RA FEW010 OVC043 22/20 Q1011 NOSIG
ZGHA,2012-09-03 01:00,ZGHA 030100Z 34007MPS 6000 -RA BKN009 OVC050 22/20 Q1011 BECMG TL0200 BKN011 OVC050
ZGHA,2012-09-03 02:00,ZGHA 030200Z 35007MPS 8000 -RA SCT010 SCT020 OVC050 22/20 Q1012 NOSIG
ZGHA,2012-09-03 03:00,ZGHA 030300Z 35006MPS 7000 -RA SCT009 SCT020 OVC050 22/20 Q1012 NOSIG
ZGHA,2012-09-03 04:00,ZGHA 030400Z 36007MPS 6000 -RA SCT009 SCT020 OVC050 22/20 Q1012 NOSIG
ZGHA,2012-09-03 05:00,ZGHA 030500Z 36006MPS 6000 SCT033 OVC050 23/20 Q1011 NOSIG
ZGHA,2012-09-03 06:00,ZGHA 030600Z 36005MPS 6000 SCT011 SCT033 OVC050 24/20 Q1011 NOSIG
ZGHA,2012-09-03 07:00,ZGHA 030700Z 36005MPS 330V030 8000 SCT020 25/20 Q1011 NOSIG
ZGHA,2012-09-03 08:00,ZGHA 030800Z 01003MPS 9999 FEW030 25/20 Q1011 NOSIG
ZGHA,2012-09-03 09:00,ZGHA 030900Z 36003MPS 9999 FEW030 26/20 Q1011 NOSIG
ZGHA,2012-09-03 10:00,ZGHA 031000Z 02002MPS 350V070 CAVOK 25/20 Q1011 NOSIG
ZGHA,2012-09-03 11:00,ZGHA 031100Z 07001MPS CAVOK 24/21 Q1011 NOSIG
ZGHA,2012-09-03 12:00,ZGHA 031200Z VRB01MPS CAVOK 23/20 Q1012 NOSIG
ZGHA,2012-09-03 13:00,ZGHA 031300Z VRB01MPS 5000 BR NSC 22/21 Q1013 NOSIG
ZGHA,2012-09-03 14:00,ZGHA 031400Z VRB01MPS 4000 BR NSC 22/20 Q1013 NOSIG
ZGHA,2012-09-03 15:00,ZGHA 031500Z 07001MPS 3000 BR NSC 21/20 Q1013 NOSIG
ZGHA,2012-09-03 16:00,ZGHA 031600Z VRB01MPS 3000 BR NSC 21/20 Q1013 NOSIG
ZGHA,2012-09-03 17:00,ZGHA 031700Z 05001MPS 2000 BR NSC 22/20 Q1012 NOSIG
ZGHA,2012-09-03 18:00,ZGHA 031800Z VRB01MPS 2000 BR NSC 21/20 Q1012 NOSIG
ZGHA,2012-09-03 19:00,ZGHA 031900Z 00000MPS 1400 R36/1800 BR NSC 21/20 Q1013 NOSIG
ZGHA,2012-09-03 20:00,ZGHA 032000Z VRB01MPS 0700 R18/0250 FG NSC 21/20 Q1013 NOSIG
ZGHA,2012-09-03 21:00,ZGHA 032100Z 00000MPS 0400 R36/0300 FG SCT009 21/20 Q1013 NOSIG
ZGHA,2012-09-03 22:00,ZGHA 032200Z VRB01MPS 0300 R36/0300 FG SCT007 20/19 Q1013 NOSIG
ZGHA,2012-09-03 23:00,ZGHA 032300Z VRB01MPS 0400 R18/0250 FG SCT007 20/19 Q1014
ZGHA,2012-09-04 00:00,ZGHA 040000Z VRB01MPS 1700 R18/1100 BR FEW009 21/20 Q1014 BECMG TL0100 5000
ZGHA,2012-09-04 01:00,ZGHA 040100Z VRB01MPS 4500 BR FEW009 22/21 Q1015 NOSIG
ZGHA,2012-09-04 02:00,ZGHA 040200Z VRB01MPS 8000 FEW012 25/20 Q1015 NOSIG
ZGHA,2012-09-04 03:00,ZGHA 040300Z 07002MPS 350V110 CAVOK 27/18 Q1015 NOSIG
ZGHA,2012-09-04 04:00,ZGHA 040400Z VRB01MPS CAVOK 28/17 Q1014 NOSIG
ZGHA,2012-09-04 05:00,ZGHA 040500Z 04002MPS 360V120 CAVOK 29/16 Q1014 NOSIG
ZGHA,2012-09-04 06:00,ZGHA 040600Z VRB01MPS CAVOK 31/16 Q1014 NOSIG
ZGHA,2012-09-04 07:00,ZGHA 040700Z 02001MPS 9999 FEW050 30/16 Q1014 NOSIG
ZGHA,2012-09-04 08:00,ZGHA 040800Z VRB01MPS CAVOK 30/16 Q1013 NOSIG
ZGHA,2012-09-04 09:00,ZGHA 040900Z VRB01MPS CAVOK 30/15 Q1013 NOSIG
ZGHA,2012-09-04 10:00,ZGHA 041000Z VRB01MPS CAVOK 29/17 Q1014 NOSIG
ZGHA,2012-09-04 11:00,ZGHA 041100Z 11001MPS CAVOK 27/20 Q1014 NOSIG
ZGHA,2012-09-04 12:00,ZGHA 041200Z 13002MPS 9999 SCT050 25/20 Q1014 NOSIG
ZGHA,2012-09-04 13:00,ZGHA 041300Z VRB01MPS CAVOK 25/19 Q1016 NOSIG
ZGHA,2012-09-04 14:00,ZGHA 041400Z VRB01MPS CAVOK 24/20 Q1016 NOSIG
ZGHA,2012-09-04 15:00,ZGHA 041500Z 07001MPS CAVOK 24/18 Q1016 NOSIG
ZGHA,2012-09-04 16:00,ZGHA 041600Z 00000MPS CAVOK 22/20 Q1016 NOSIG
ZGHA,2012-09-04 17:00,ZGHA 041700Z 02001MPS CAVOK 23/20 Q1016 NOSIG
ZGHA,2012-09-04 18:00,ZGHA 041800Z 01001MPS CAVOK 23/19 Q1016 NOSIG
ZGHA,2012-09-04 19:00,ZGHA 041900Z VRB01MPS CAVOK 22/19 Q1016 NOSIG
ZGHA,2012-09-04 20:00,ZGHA 042000Z VRB01MPS CAVOK 22/18 Q1016 NOSIG
ZGHA,2012-09-04 21:00,ZGHA 042100Z VRB01MPS CAVOK 22/18 Q1016 NOSIG
ZGHA,2012-09-04 22:00,ZGHA 042200Z VRB01MPS CAVOK 21/18 Q1016 NOSIG
ZGHA,2012-09-04 23:00,ZGHA 042300Z VRB01MPS CAVOK 21/18 Q1016 NOSIG
ZGHA,2012-09-05 00:00,ZGHA 050000Z VRB01MPS CAVOK 24/19 Q1017 NOSIG
ZGHA,2012-09-05 01:00,ZGHA 050100Z VRB01MPS CAVOK 25/18 Q1017 NOSIG
ZGHA,2012-09-05 02:00,ZGHA 050200Z VRB01MPS CAVOK 27/17 Q1017 NOSIG
ZGHA,2012-09-05 03:00,ZGHA 050300Z VRB01MPS CAVOK 27/17 Q1017 NOSIG
ZGHA,2012-09-05 04:00,ZGHA 050400Z VRB01MPS CAVOK 28/18 Q1017 NOSIG
ZGHA,2012-09-05 05:00,ZGHA 050500Z 05002MPS 360V150 CAVOK 29/14 Q1016 NOSIG
ZGHA,2012-09-05 06:00,ZGHA 050600Z VRB02MPS CAVOK 31/12 Q1015 NOSIG
ZGHA,2012-09-05 07:00,ZGHA 050700Z 36003MPS 340V070 CAVOK 31/11 Q1015 NOSIG
ZGHA,2012-09-05 08:00,ZGHA 050800Z 05002MPS 360V100 CAVOK 30/14 Q1014 NOSIG
ZGHA,2012-09-05 09:00,ZGHA 050900Z 05002MPS 330V100 CAVOK 30/13 Q1014 NOSIG
ZGHA,2012-09-05 10:00,ZGHA 051000Z VRB01MPS CAVOK 28/16 Q1015 NOSIG
ZGHA,2012-09-05 11:00,ZGHA 051100Z 12002MPS CAVOK 26/16 Q1015 NOSIG
ZGHA,2012-09-05 12:00,ZGHA 051200Z 10002MPS 070V130 CAVOK 25/16 Q1015 NOSIG
ZGHA,2012-09-05 13:00,ZGHA 051300Z VRB01MPS CAVOK 24/16 Q1016 NOSIG
ZGHA,2012-09-05 14:00,ZGHA 051400Z 06002MPS CAVOK 24/17 Q1016 NOSIG
ZGHA,2012-09-05 15:00,ZGHA 051500Z 10002MPS 070V140 CAVOK 24/17 Q1016 NOSIG
ZGHA,2012-09-05 16:00,ZGHA 051600Z 06002MPS 010V090 CAVOK 23/18 Q1016 NOSIG
ZGHA,2012-09-05 17:00,ZGHA 051700Z 00000MPS CAVOK 22/18 Q1016 NOSIG
ZGHA,2012-09-05 18:00,ZGHA 051800Z 00000MPS 8000 NSC 21/19 Q1015 NOSIG
ZGHA,2012-09-05 19:00,ZGHA 051900Z 00000MPS 6000 NSC 20/18 Q1015 NOSIG
ZGHA,2012-09-05 20:00,ZGHA 052000Z 00000MPS 7000 NSC 20/18 Q1015 NOSIG
ZGHA,2012-09-05 21:00,ZGHA 052100Z 36001MPS 6000 NSC 20/18 Q1015 NOSIG
ZGHA,2012-09-05 22:00,ZGHA 052200Z 36001MPS 6000 NSC 20/18 Q1015 NOSIG
ZGHA,2012-09-05 23:00,ZGHA 052300Z 01001MPS 7000 NSC 20/18 Q1016 NOSIG
ZGHA,2012-09-06 00:00,ZGHA 060000Z VRB01MPS 9000 NSC 23/19 Q1016 NOSIG
ZGHA,2012-09-06 01:00,ZGHA 060100Z VRB01MPS CAVOK 26/18 Q1016 NOSIG
ZGHA,2012-09-06 02:00,ZGHA 060200Z VRB01MPS CAVOK 28/19 Q1016 NOSIG
ZGHA,2012-09-06 03:00,ZGHA 060300Z 13002MPS 080V220 9999 FEW040 29/18 Q1016 NOSIG
ZGHA,2012-09-06 04:00,ZGHA 060400Z 14003MPS 070V200 9999 SCT040 30/17 Q1015 NOSIG
ZGHA,2012-09-06 05:00,ZGHA 060500Z VRB02MPS 9999 SCT040 30/17 Q1015 NOSIG
ZGHA,2012-09-06 06:00,ZGHA 060600Z VRB02MPS CAVOK 32/16 Q1014 NOSIG
ZGHA,2012-09-06 07:00,ZGHA 060700Z VRB02MPS CAVOK 32/14 Q1013 NOSIG
ZGHA,2012-09-06 08:00,ZGHA 060800Z VRB02MPS CAVOK 32/16 Q1013 NOSIG
ZGHA,2012-09-06 09:00,ZGHA 060900Z VRB01MPS CAVOK 32/16 Q1013 NOSIG
ZGHA,2012-09-06 10:00,ZGHA 061000Z 14002MPS CAVOK 30/17 Q1012 NOSIG
ZGHA,2012-09-06 11:00,ZGHA 061100Z 14001MPS CAVOK 28/19 Q1012 NOSIG
ZGHA,2012-09-06 12:00,ZGHA 061200Z 09001MPS CAVOK 27/20 Q1013 NOSIG
ZGHA,2012-09-06 13:00,ZGHA 061300Z VRB01MPS 8000 NSC 26/21 Q1013 NOSIG
ZGHA,2012-09-06 14:00,ZGHA 061400Z 05002MPS 6000 NSC 25/21 Q1014 NOSIG
ZGHA,2012-09-06 15:00,ZGHA 061500Z VRB01MPS 6000 NSC 25/21 Q1014 NOSIG
ZGHA,2012-09-06 16:00,ZGHA 061600Z VRB01MPS 5000 BR NSC 24/21 Q1014 NOSIG
ZGHA,2012-09-06 17:00,ZGHA 061700Z 05001MPS 5000 BR NSC 24/21 Q1013 NOSIG
ZGHA,2012-09-06 18:00,ZGHA 061800Z 00000MPS 5000 BR NSC 23/21 Q1013 NOSIG
ZGHA,2012-09-06 19:00,ZGHA 061900Z 00000MPS 5000 BR NSC 23/21 Q1012 NOSIG
ZGHA,2012-09-06 20:00,ZGHA 062000Z 36002MPS 350V050 5000 BR NSC 23/21 Q1012 NOSIG
ZGHA,2012-09-06 21:00,ZGHA 062100Z VRB01MPS 5000 BR NSC 23/20 Q1012 NOSIG
ZGHA,2012-09-06 22:00,ZGHA 062200Z VRB01MPS 6000 NSC 23/20 Q1013 NOSIG
ZGHA,2012-09-06 23:00,ZGHA 062300Z 00000MPS 6000 NSC 23/20 Q1013 NOSIG
ZGHA,2012-09-07 00:00,ZGHA 070000Z VRB01MPS 8000 NSC 26/21 Q1014 NOSIG
ZGHA,2012-09-07 01:00,ZGHA 070100Z 19003MPS CAVOK 28/21 Q1014 NOSIG
ZGHA,2012-09-07 02:00,ZGHA 070200Z 18004MPS CAVOK 30/21 Q1014 NOSIG
ZGHA,2012-09-07 03:00,ZGHA 070300Z 16004MPS CAVOK 30/22 Q1014 NOSIG
ZGHA,2012-09-07 04:00,ZGHA 070400Z 20003MPS 120V240 CAVOK 33/21 Q1013 NOSIG
ZGHA,2012-09-07 05:00,ZGHA 070500Z 20003MPS 160V260 9999 SCT040 34/20 Q1013 NOSIG
ZGHA,2012-09-07 06:00,ZGHA 070600Z 19003MPS 130V260 CAVOK 35/21 Q1011 NOSIG
ZGHA,2012-09-07 07:00,ZGHA 070700Z VRB01MPS 9999 SCT040 36/21 Q1010 NOSIG
ZGHA,2012-09-07 08:00,ZGHA 070800Z 16003MPS 080V210 9999 SCT040 35/21 Q1010 NOSIG
ZGHA,2012-09-07 09:00,ZGHA 070900Z 15003MPS 130V190 9999 FEW040 34/21 Q1010 NOSIG
ZGHA,2012-09-07 10:00,ZGHA 071000Z 15003MPS 9999 FEW040 33/22 Q1010 NOSIG
ZGHA,2012-09-07 11:00,ZGHA 071100Z VRB01MPS CAVOK 31/22 Q1010 NOSIG
ZGHA,2012-09-07 12:00,ZGHA 071200Z 14002MPS 9999 FEW050 30/22 Q1011 NOSIG
ZGHA,2012-09-07 13:00,ZGHA 071300Z 14003MPS 9999 TS FEW060CB 29/23 Q1012 BECMG TL1330 NSW
ZGHA,2012-09-07 14:00,ZGHA 071400Z 14003MPS 9999 TS FEW060CB 28/22 Q1012 BECMG TL1430 NSW
ZGHA,2012-09-07 15:00,ZGHA 071500Z 15002MPS CAVOK 28/22 Q1012 RETS NOSIG
ZGHA,2012-09-07 16:00,ZGHA 071600Z 09001MPS CAVOK 27/22 Q1011 NOSIG
ZGHA,2012-09-07 17:00,ZGHA 071700Z 23002MPS CAVOK 26/22 Q1011 NOSIG
ZGHA,2012-09-07 18:00,ZGHA 071800Z 18003MPS CAVOK 26/22 Q1010 NOSIG
ZGHA,2012-09-07 19:00,ZGHA 071900Z 14003MPS CAVOK 25/22 Q1010 NOSIG
ZGHA,2012-09-07 20:00,ZGHA 072000Z 18003MPS CAVOK 24/22 Q1010 NOSIG
ZGHA,2012-09-07 21:00,ZGHA 072100Z 16002MPS CAVOK 24/22 Q1010 NOSIG
ZGHA,2012-09-07 22:00,ZGHA 072200Z 14002MPS CAVOK 24/20 Q1010 NOSIG
ZGHA,2012-09-07 23:00,ZGHA 072300Z 14003MPS CAVOK 25/21 Q1011 NOSIG
ZGHA,2012-09-08 00:00,ZGHA 080000Z 16004MPS CAVOK 27/20 Q1011 NOSIG
ZGHA,2012-09-08 01:00,ZGHA 080100Z 18006MPS CAVOK 30/20 Q1011 NOSIG
ZGHA,2012-09-08 02:00,ZGHA 080200Z 18006MPS CAVOK 31/20 Q1012 NOSIG
ZGHA,2012-09-08 03:00,ZGHA 080300Z 19006MPS 160V220 CAVOK 33/19 Q1012 NOSIG
ZGHA,2012-09-08 04:00,ZGHA 080400Z 21006MPS 160V240 CAVOK 34/20 Q1011 NOSIG
ZGHA,2012-09-08 05:00,ZGHA 080500Z 20005MPS 170V230 CAVOK 34/20 Q1010 NOSIG
ZGHA,2012-09-08 06:00,ZGHA 080600Z 17005MPS 150V210 CAVOK 33/20 Q1010 NOSIG
ZGHA,2012-09-08 07:00,ZGHA 080700Z 21006MPS 170V240 CAVOK 35/18 Q1009 NOSIG
ZGHA,2012-09-08 08:00,ZGHA 080800Z 21004MPS 190V260 CAVOK 35/19 Q1008 NOSIG
ZGHA,2012-09-08 09:00,ZGHA 080900Z 18005MPS CAVOK 34/20 Q1008 NOSIG
ZGHA,2012-09-08 10:00,ZGHA 081000Z 17003MPS CAVOK 32/21 Q1008 NOSIG
ZGHA,2012-09-08 11:00,ZGHA 081100Z 14001MPS CAVOK 31/22 Q1009 NOSIG
ZGHA,2012-09-08 12:00,ZGHA 081200Z 12002MPS CAVOK 30/22 Q1009 NOSIG
ZGHA,2012-09-08 13:00,ZGHA 081300Z 15001MPS CAVOK 29/23 Q1010 NOSIG
ZGHA,2012-09-08 14:00,ZGHA 081400Z 18002MPS CAVOK 28/23 Q1010 NOSIG
ZGHA,2012-09-08 15:00,ZGHA 081500Z VRB01MPS CAVOK 28/23 Q1010 NOSIG
ZGHA,2012-09-08 16:00,ZGHA 081600Z 19002MPS CAVOK 28/23 Q1009 NOSIG
ZGHA,2012-09-08 17:00,ZGHA 081700Z 29002MPS CAVOK 28/23 Q1009 NOSIG
ZGHA,2012-09-08 18:00,ZGHA 081800Z 30006MPS 6000 SCT009 26/23 Q1009 NOSIG
ZGHA,2012-09-08 19:00,ZGHA 081900Z 31004MPS 6000 SCT009 OVC050 26/22 Q1010 NOSIG
ZGHA,2012-09-08 20:00,ZGHA 082000Z 29004MPS 6000 SCT009 OVC050 25/22 Q1010 NOSIG
ZGHA,2012-09-08 21:00,ZGHA 082100Z 30005MPS 5000 BR SCT009 OVC050 24/22 Q1011 NOSIG
ZGHA,2012-09-08 22:00,ZGHA 082200Z 31005MPS 6000 SCT009 OVC050 24/21 Q1011 NOSIG
ZGHA,2012-09-08 23:00,ZGHA 082300Z 32004MPS 8000 BKN020 OVC050 23/20 Q1012 NOSIG
ZGHA,2012-09-09 00:00,ZGHA 090000Z 31004MPS 9999 SCT020 23/20 Q1012 NOSIG
ZGHA,2012-09-09 01:00,ZGHA 090100Z 31004MPS 9999 SCT012 24/20 Q1013 NOSIG
ZGHA,2012-09-09 02:00,ZGHA 090200Z 30004MPS 280V350 9999 SCT013 25/20 Q1013 NOSIG
ZGHA,2012-09-09 03:00,ZGHA 090300Z 36002MPS 300V070 9999 SCT013 25/20 Q1013 NOSIG
ZGHA,2012-09-09 04:00,ZGHA 090400Z 32004MPS 9999 SCT011 24/20 Q1013 NOSIG
ZGHA,2012-09-09 05:00,ZGHA 090500Z 33003MPS 290V350 9999 BKN013 25/20 Q1012 NOSIG
ZGHA,2012-09-09 06:00,ZGHA 090600Z 32004MPS 9999 BKN013 25/20 Q1012 NOSIG
ZGHA,2012-09-09 07:00,ZGHA 090700Z 30004MPS 280V340 9999 BKN012 24/20 Q1012 NOSIG
ZGHA,2012-09-09 08:00,ZGHA 090800Z 35005MPS 9999 BKN013 24/20 Q1012 NOSIG
ZGHA,2012-09-09 09:00,ZGHA 090900Z 36004MPS 8000 BKN013 24/20 Q1011 BECMG TL1000 BKN015
ZGHA,2012-09-09 10:00,ZGHA 091000Z 01004MPS 6000 BKN013 24/20 Q1011 BECMG TL1100 BKN015
ZGHA,2012-09-09 11:00,ZGHA 091100Z 35005MPS 6000 SCT013 23/20 Q1012 NOSIG
ZGHA,2012-09-09 12:00,ZGHA 091200Z 36003MPS 6000 SCT020 23/19 Q1012 NOSIG
ZGHA,2012-09-09 13:00,ZGHA 091300Z 35004MPS 5000 BR SCT023 23/20 Q1013 NOSIG
ZGHA,2012-09-09 14:00,ZGHA 091400Z 36003MPS 5000 BR SCT020 23/20 Q1013 NOSIG
ZGHA,2012-09-09 15:00,ZGHA 091500Z 35004MPS 5000 BR SCT015 23/20 Q1013 NOSIG
ZGHA,2012-09-09 16:00,ZGHA 091600Z 34004MPS 5000 BR SCT015 23/20 Q1013 NOSIG
ZGHA,2012-09-09 17:00,ZGHA 091700Z 35003MPS 5000 BR SCT015 23/20 Q1013 NOSIG
ZGHA,2012-09-09 18:00,ZGHA 091800Z 36003MPS 5000 BR SCT013 23/20 Q1013 NOSIG
ZGHA,2012-09-09 19:00,ZGHA 091900Z 35003MPS 5000 BR SCT012 23/20 Q1012 NOSIG
ZGHA,2012-09-09 20:00,ZGHA 092000Z 01002MPS 340V040 5000 BR SCT011 22/20 Q1012 NOSIG
ZGHA,2012-09-09 21:00,ZGHA 092100Z 35002MPS 330V030 6000 SCT010 23/20 Q1012 NOSIG
ZGHA,2012-09-09 22:00,ZGHA 092200Z 36002MPS 5000 BR SCT010 23/20 Q1012 NOSIG
ZGHA,2012-09-09 23:00,ZGHA 092300Z VRB01MPS 5000 BR SCT010 23/20 Q1013 NOSIG
ZGHA,2012-09-10 00:00,ZGHA 100000Z VRB01MPS 3000 -RA BR SCT008 22/21 Q1013 BECMG TL0120 2800 -RA BR BKN009 OVC050
ZGHA,2012-09-10 01:00,ZGHA 100100Z VRB01MPS 1700 -RA BR FEW003 BKN007 OVC050 22/21 Q1014 TEMPO 1400
ZGHA,2012-09-10 02:00,ZGHA 100200Z 32002MPS 2500 -DZ BR FEW003 BKN006 OVC050 23/21 Q1014 BECMG TL0300 3500
ZGHA,2012-09-10 03:00,ZGHA 100300Z 35002MPS 3000 -DZ BR FEW003 BKN007 OVC050 23/21 Q1014 BECMG TL0500 BKN011 OVC050
ZGHA,2012-09-10 04:00,ZGHA 100400Z 35002MPS 5000 BR BKN008 OVC050 24/21 Q1013 BECMG TL0500 BKN011 OVC050
ZGHA,2012-09-10 05:00,ZGHA 100500Z 02002MPS 350V080 5000 BR BKN011 26/21 Q1012 NOSIG
ZGHA,2012-09-10 06:00,ZGHA 100600Z 03002MPS 320V100 7000 BKN015 27/21 Q1011 NOSIG
ZGHA,2012-09-10 07:00,ZGHA 100700Z VRB01MPS 9999 BKN020 28/22 Q1010 NOSIG
ZGHA,2012-09-10 08:00,ZGHA 100800Z VRB01MPS 9999 BKN030 28/21 Q1010 NOSIG
ZGHA,2012-09-10 09:00,ZGHA 100900Z 34003MPS 300V010 9999 SCT030 28/22 Q1010 NOSIG
ZGHA,2012-09-10 10:00,ZGHA 101000Z 01003MPS 9999 FEW033 27/22 Q1010 NOSIG
ZGHA,2012-09-10 11:00,ZGHA 101100Z 01003MPS CAVOK 26/22 Q1011 NOSIG
ZGHA,2012-09-10 12:00,ZGHA 101200Z 36003MPS 6000 FEW015 26/22 Q1011 NOSIG
ZGHA,2012-09-10 13:00,ZGHA 101300Z 36003MPS 6000 NSC 25/22 Q1012 NOSIG
ZGHA,2012-09-10 14:00,ZGHA 101400Z VRB01MPS 5000 BR SCT033 25/22 Q1012 NOSIG
ZGHA,2012-09-10 15:00,ZGHA 101500Z 01002MPS 5000 BR FEW033 24/22 Q1011 NOSIG
ZGHA,2012-09-10 16:00,ZGHA 101600Z 36003MPS 4000 BR SCT033 24/22 Q1010 NOSIG
ZGHA,2012-09-10 17:00,ZGHA 101700Z 36002MPS 3000 BR FEW033 23/22 Q1010 NOSIG
ZGHA,2012-09-10 18:00,ZGHA 101800Z 35002MPS 3000 BR SCT033 23/22 Q1010 NOSIG
ZGHA,2012-09-10 19:00,ZGHA 101900Z 35002MPS 3000 BR SCT033 24/22 Q1010 NOSIG
ZGHA,2012-09-10 20:00,ZGHA 102000Z VRB01MPS 3000 BR SCT033 23/22 Q1010 NOSIG
ZGHA,2012-09-10 21:00,ZGHA 102100Z 36001MPS 3000 BR SCT030 23/22 Q1010 NOSIG
ZGHA,2012-09-10 22:00,ZGHA 102200Z VRB01MPS 3000 BR SCT040 23/22 Q1010 NOSIG
ZGHA,2012-09-10 23:00,ZGHA 102300Z VRB01MPS 4000 BR NSC 24/22 Q1010 NOSIG
ZGHA,2012-09-11 00:00,ZGHA 110000Z VRB01MPS 6000 NSC 26/23 Q1011 NOSIG
ZGHA,2012-09-11 01:00,ZGHA 110100Z 14002MPS 100V220 7000 NSC 28/23 Q1011 NOSIG
ZGHA,2012-09-11 02:00,ZGHA 110200Z 16004MPS 130V190 7000 FEW030 30/22 Q1011 NOSIG
ZGHA,2012-09-11 03:00,ZGHA 110300Z 19004MPS 160V220 7000 FEW023 31/22 Q1011 NOSIG
ZGHA,2012-09-11 04:00,ZGHA 110400Z 20004MPS 160V250 8000 FEW033 32/23 Q1010 NOSIG
ZGHA,2012-09-11 05:00,ZGHA 110500Z 17004MPS 130V220 9999 FEW033 32/22 Q1009 NOSIG
ZGHA,2012-09-11 06:00,ZGHA 110600Z 22004MPS 170V260 9999 FEW033 33/21 Q1008 NOSIG
ZGHA,2012-09-11 07:00,ZGHA 110700Z 22002MPS 110V270 9999 FEW033 33/21 Q1008 NOSIG
ZGHA,2012-09-11 08:00,ZGHA 110800Z VRB01MPS 9999 FEW033 33/22 Q1007 NOSIG
ZGHA,2012-09-11 09:00,ZGHA 110900Z 12002MPS 090V150 9999 SCT040 32/22 Q1007 NOSIG
ZGHA,2012-09-11 10:00,ZGHA 111000Z 15002MPS 8000 FEW050TCU 31/23 Q1007 NOSIG
ZGHA,2012-09-11 11:00,ZGHA 111100Z 15001MPS 7000 FEW050TCU 30/23 Q1008 NOSIG
ZGHA,2012-09-11 12:00,ZGHA 111200Z 18003MPS 8000 NSC 27/21 Q1009 NOSIG
ZGHA,2012-09-11 13:00,ZGHA 111300Z 17002MPS CAVOK 26/21 Q1009 NOSIG
ZGHA,2012-09-11 14:00,ZGHA 111400Z 18002MPS CAVOK 26/22 Q1010 NOSIG
ZGHA,2012-09-11 15:00,ZGHA 111500Z VRB01MPS CAVOK 26/22 Q1009 NOSIG
ZGHA,2012-09-11 16:00,ZGHA 111600Z 18002MPS 7000 SCT050 26/22 Q1009 NOSIG
ZGHA,2012-09-11 17:00,ZGHA 111700Z 20002MPS 6000 SCT050 25/22 Q1009 BECMG TL1730 2500 -TSRA BR BKN011 FEW040CB BKN040
ZGHA,2012-09-11 18:00,ZGHA 111800Z 02001MPS 4500 BR SCT050 25/22 Q1008 NOSIG
ZGHA,2012-09-11 19:00,ZGHA 111900Z VRB01MPS 4000 BR SCT050 24/22 Q1008 NOSIG
ZGHA,2012-09-11 20:00,ZGHA 112000Z 14002MPS 4000 BR SCT050 25/23 Q1008 NOSIG
ZGHA,2012-09-11 21:00,ZGHA 112100Z VRB01MPS 3500 BR SCT033 25/23 Q1008 NOSIG
ZGHA,2012-09-11 22:00,ZGHA 112200Z VRB01MPS 3500 BR SCT020 25/22 Q1009 NOSIG
ZGHA,2012-09-11 23:00,ZGHA 112300Z 30003MPS 270V340 2200 BR SCT020 25/23 Q1009 NOSIG
ZGHA,2012-09-12 00:00,ZGHA 120000Z 29004MPS 270V330 4500 BR SCT007 SCT020 25/22 Q1010 NOSIG
ZGHA,2012-09-12 01:00,ZGHA 120100Z 29003MPS 6000 SCT008 OVC050 25/22 Q1010 NOSIG
ZGHA,2012-09-12 02:00,ZGHA 120200Z 30004MPS 6000 BKN009 OVC050 25/22 Q1011 NOSIG
ZGHA,2012-09-12 03:00,ZGHA 120300Z 29004MPS 6000 BKN009 OVC050 26/22 Q1010 NOSIG
ZGHA,2012-09-12 04:00,ZGHA 120400Z 30004MPS 6000 BKN009 OVC050 25/21 Q1010 NOSIG
ZGHA,2012-09-12 05:00,ZGHA 120500Z 29005MPS 270V340 5000 BR BKN009 OVC050 25/21 Q1009 NOSIG
ZGHA,2012-09-12 06:00,ZGHA 120600Z 31005MPS 6000 BKN012 OVC050 26/21 Q1009 NOSIG
ZGHA,2012-09-12 07:00,ZGHA 120700Z 34006MPS 7000 BKN012 OVC050 26/21 Q1008 NOSIG
ZGHA,2012-09-12 08:00,ZGHA 120800Z 35007MPS 8000 BKN012 BKN020 OVC050 26/20 Q1009 NOSIG
ZGHA,2012-09-12 09:00,ZGHA 120900Z 35008MPS 8000 SCT012 BKN020 OVC050 25/20 Q1009 NOSIG
ZGHA,2012-09-12 10:00,ZGHA 121000Z 36007MPS 9999 FEW012 BKN020 OVC050 24/19 Q1009 NOSIG
ZGHA,2012-09-12 11:00,ZGHA 121100Z 34008MPS 9999 FEW012 BKN020 OVC050 24/19 Q1010 NOSIG
ZGHA,2012-09-12 12:00,ZGHA 121200Z 35008MPS 9999 BKN023 OVC050 23/19 Q1011 NOSIG
ZGHA,2012-09-12 13:00,ZGHA 121300Z 36007MPS 9999 BKN030 OVC050 23/18 Q1012 NOSIG
ZGHA,2012-09-12 14:00,ZGHA 121400Z 36007MPS 9999 OVC033 23/18 Q1013 NOSIG
ZGHA,2012-09-12 15:00,ZGHA 121500Z 34010MPS 9999 BKN020 OVC040 22/17 Q1013 NOSIG
ZGHA,2012-09-12 16:00,ZGHA 121600Z 34010MPS 9999 SCT020 OVC040 22/14 Q1014 NOSIG
ZGHA,2012-09-12 17:00,ZGHA 121700Z 34011MPS 9999 SCT020 OVC040 21/14 Q1013 NOSIG
ZGHA,2012-09-12 18:00,ZGHA 121800Z 34010MPS 9999 OVC040 20/15 Q1014 NOSIG
ZGHA,2012-09-12 19:00,ZGHA 121900Z 36011MPS 9999 OVC040 18/15 Q1014 NOSIG
ZGHA,2012-09-12 20:00,ZGHA 122000Z 36007MPS 9999 OVC040 18/15 Q1014 NOSIG
ZGHA,2012-09-12 21:00,ZGHA 122100Z 34007MPS 5000 -RA BR SCT007 OVC040 17/15 Q1015 NOSIG
ZGHA,2012-09-12 22:00,ZGHA 122200Z 34007MPS 6000 -RA SCT007 16/15 Q1015 NOSIG
ZGHA,2012-09-12 23:00,ZGHA 122300Z 36005MPS 9999 -RA SCT007 16/15 Q1016 NOSIG
ZGHA,2012-09-13 00:00,ZGHA 130000Z 33005MPS 9999 -RA SCT040 17/15 Q1017 NOSIG
ZGHA,2012-09-13 01:00,ZGHA 130100Z 34006MPS 9999 -RA SCT040 17/15 Q1017 NOSIG
ZGHA,2012-09-13 02:00,ZGHA 130200Z 34006MPS 9999 SCT050 18/15 Q1018 NOSIG
ZGHA,2012-09-13 03:00,ZGHA 130300Z 34006MPS 9999 SCT050 18/14 Q1018 NOSIG
ZGHA,2012-09-13 04:00,ZGHA 130400Z 34005MPS 9999 SCT050 19/14 Q1017 NOSIG
ZGHA,2012-09-13 05:00,ZGHA 130500Z 36004MPS 320V030 9999 SCT040 19/14 Q1017 NOSIG
ZGHA,2012-09-13 06:00,ZGHA 130600Z 01003MPS 340V040 9999 SCT050 19/14 Q1016 NOSIG
ZGHA,2012-09-13 07:00,ZGHA 130700Z 34005MPS 9999 SCT050 19/14 Q1016 NOSIG
ZGHA,2012-09-13 08:00,ZGHA 130800Z 34005MPS 9999 SCT050 20/15 Q1016 NOSIG
ZGHA,2012-09-13 09:00,ZGHA 130900Z 02003MPS 350V060 9999 SCT050 19/16 Q1016 NOSIG
ZGHA,2012-09-13 10:00,ZGHA 131000Z 36002MPS CAVOK 19/16 Q1017 NOSIG
ZGHA,2012-09-13 11:00,ZGHA 131100Z 02002MPS 350V080 8000 NSC 19/16 Q1017 NOSIG
ZGHA,2012-09-13 12:00,ZGHA 131200Z VRB01MPS 7000 NSC 18/17 Q1017 NOSIG
ZGHA,2012-09-13 13:00,ZGHA 131300Z VRB01MPS 6000 NSC 18/17 Q1018 NOSIG
ZGHA,2012-09-13 14:00,ZGHA 131400Z VRB01MPS 5000 BR NSC 18/17 Q1018 NOSIG
ZGHA,2012-09-13 15:00,ZGHA 131500Z 02001MPS 5000 BR NSC 18/17 Q1019 NOSIG
ZGHA,2012-09-13 16:00,ZGHA 131600Z 02001MPS 5000 BR NSC 18/16 Q1018 NOSIG
ZGHA,2012-09-13 17:00,ZGHA 131700Z 35003MPS 330V040 5000 BR NSC 18/16 Q1018 NOSIG
ZGHA,2012-09-13 18:00,ZGHA 131800Z 04001MPS 4000 BR NSC 17/16 Q1018 NOSIG
ZGHA,2012-09-13 19:00,ZGHA 131900Z 36002MPS 4000 BR NSC 16/15 Q1018 NOSIG
ZGHA,2012-09-13 20:00,ZGHA 132000Z 05001MPS 3000 BR NSC 16/15 Q1017 NOSIG
ZGHA,2012-09-13 21:00,ZGHA 132100Z VRB01MPS 3000 BR NSC 15/15 Q1018 NOSIG
ZGHA,2012-09-13 22:00,ZGHA 132200Z 02002MPS 340V070 0600 R36/0500 FG NSC 15/15 Q1018 NOSIG
ZGHA,2012-09-13 23:00,ZGHA 132300Z 02002MPS 340V060 0600 R36/0325 FG SCT006 15/14 Q1018 NOSIG
ZGHA,2012-09-14 00:00,ZGHA 140000Z 36002MPS 1200 R36/0800 BR SCT004 16/15 Q1019 BECMG 2000
ZGHA,2012-09-14 01:00,ZGHA 140100Z 01002MPS 320V060 4200 BR BKN004 17/16 Q1019 NOSIG
ZGHA,2012-09-14 02:00,ZGHA 140200Z 36004MPS 6000 SCT009 19/16 Q1019 NOSIG
ZGHA,2012-09-14 03:00,ZGHA 140300Z 01003MPS 340V040 6000 FEW011 20/15 Q1019 NOSIG
ZGHA,2012-09-14 04:00,ZGHA 140400Z 02004MPS 340V090 CAVOK 23/13 Q1018 NOSIG
ZGHA,2012-09-14 05:00,ZGHA 140500Z VRB02MPS 9999 FEW040 25/11 Q1017 NOSIG
ZGHA,2012-09-14 06:00,ZGHA 140600Z VRB03MPS 9999 FEW050 26/09 Q1016 NOSIG
ZGHA,2012-09-14 07:00,ZGHA 140700Z 06002MPS 350V140 9999 FEW050 26/08 Q1015 NOSIG
ZGHA,2012-09-14 08:00,ZGHA 140800Z 10002MPS 040V160 9999 FEW050 26/08 Q1015 NOSIG
ZGHA,2012-09-14 09:00,ZGHA 140900Z VRB01MPS 9999 FEW050 26/08 Q1015 NOSIG
ZGHA,2012-09-14 10:00,ZGHA 141000Z 35003MPS CAVOK 25/09 Q1015 NOSIG
ZGHA,2012-09-14 11:00,ZGHA 141100Z 36003MPS CAVOK 22/11 Q1015 NOSIG
ZGHA,2012-09-14 12:00,ZGHA 141200Z 36003MPS CAVOK 22/12 Q1016 NOSIG
ZGHA,2012-09-14 13:00,ZGHA 141300Z 11002MPS 090V170 CAVOK 19/13 Q1017 NOSIG
ZGHA,2012-09-14 14:00,ZGHA 141400Z VRB01MPS CAVOK 18/14 Q1017 NOSIG
ZGHA,2012-09-14 15:00,ZGHA 141500Z VRB01MPS CAVOK 17/14 Q1017 NOSIG
ZGHA,2012-09-14 16:00,ZGHA 141600Z 08001MPS CAVOK 17/15 Q1017 NOSIG
ZGHA,2012-09-14 17:00,ZGHA 141700Z 36001MPS 8000 NSC 16/14 Q1017 NOSIG
ZGHA,2012-09-14 18:00,ZGHA 141800Z 36002MPS 7000 NSC 16/14 Q1017 NOSIG
ZGHA,2012-09-14 19:00,ZGHA 141900Z VRB01MPS 8000 NSC 15/13 Q1016 NOSIG
ZGHA,2012-09-14 20:00,ZGHA 142000Z VRB01MPS CAVOK 15/13 Q1016 NOSIG
ZGHA,2012-09-14 21:00,ZGHA 142100Z 21001MPS CAVOK 14/13 Q1017 NOSIG
ZGHA,2012-09-14 22:00,ZGHA 142200Z 00000MPS CAVOK 13/12 Q1017 NOSIG
ZGHA,2012-09-14 23:00,ZGHA 142300Z VRB01MPS CAVOK 15/13 Q1018 NOSIG
ZGHA,2012-09-15 00:00,ZGHA 150000Z 04002MPS 320V110 CAVOK 17/13 Q1018 NOSIG
ZGHA,2012-09-15 01:00,ZGHA 150100Z 03002MPS 340V090 CAVOK 20/13 Q1018 NOSIG
ZGHA,2012-09-15 02:00,ZGHA 150200Z 04003MPS 350V090 CAVOK 23/12 Q1018 NOSIG
ZGHA,2012-09-15 03:00,ZGHA 150300Z 04003MPS 360V090 CAVOK 25/08 Q1018 NOSIG
ZGHA,2012-09-15 04:00,ZGHA 150400Z 07003MPS 360V110 CAVOK 26/08 Q1017 NOSIG
ZGHA,2012-09-15 05:00,ZGHA 150500Z 04003MPS 360V090 CAVOK 27/08 Q1016 NOSIG
ZGHA,2012-09-15 06:00,ZGHA 150600Z 06003MPS 360V140 CAVOK 27/07 Q1015 NOSIG
ZGHA,2012-09-15 07:00,ZGHA 150700Z 03003MPS 330V130 CAVOK 28/08 Q1014 NOSIG
ZGHA,2012-09-15 08:00,ZGHA 150800Z 06001MPS CAVOK 28/08 Q1014 NOSIG
ZGHA,2012-09-15 09:00,ZGHA 150900Z 06002MPS 020V100 CAVOK 27/09 Q1014 NOSIG
ZGHA,2012-09-15 10:00,ZGHA 151000Z 01003MPS CAVOK 26/09 Q1014 NOSIG
ZGHA,2012-09-15 11:00,ZGHA 151100Z 01003MPS CAVOK 24/10 Q1014 NOSIG
ZGHA,2012-09-15 12:00,ZGHA 151200Z 33003MPS CAVOK 22/12 Q1015 NOSIG
ZGHA,2012-09-15 13:00,ZGHA 151300Z 35003MPS CAVOK 21/13 Q1015 NOSIG
ZGHA,2012-09-15 14:00,ZGHA 151400Z VRB01MPS CAVOK 19/13 Q1016 NOSIG
ZGHA,2012-09-15 15:00,ZGHA 151500Z VRB01MPS CAVOK 19/13 Q1016 NOSIG
ZGHA,2012-09-15 16:00,ZGHA 151600Z VRB01MPS CAVOK 18/13 Q1016 NOSIG
ZGHA,2012-09-15 17:00,ZGHA 151700Z VRB01MPS CAVOK 17/13 Q1016 NOSIG
ZGHA,2012-09-15 18:00,ZGHA 151800Z 36002MPS CAVOK 16/13 Q1016 NOSIG
ZGHA,2012-09-15 19:00,ZGHA 151900Z VRB01MPS CAVOK 16/13 Q1016 NOSIG
ZGHA,2012-09-15 20:00,ZGHA 152000Z VRB01MPS CAVOK 15/12 Q1016 NOSIG
ZGHA,2012-09-15 21:00,ZGHA 152100Z VRB01MPS CAVOK 15/12 Q1016 NOSIG
ZGHA,2012-09-15 22:00,ZGHA 152200Z 03001MPS CAVOK 15/12 Q1016 NOSIG
ZGHA,2012-09-15 23:00,ZGHA 152300Z 00000MPS CAVOK 16/13 Q1017 NOSIG
ZGHA,2012-09-16 00:00,ZGHA 160000Z 02002MPS 340V090 CAVOK 18/12 Q1017 NOSIG
ZGHA,2012-09-16 01:00,ZGHA 160100Z 07002MPS 010V110 CAVOK 21/13 Q1018 NOSIG
ZGHA,2012-09-16 02:00,ZGHA 160200Z 03002MPS 350V070 CAVOK 23/12 Q1017 NOSIG
ZGHA,2012-09-16 03:00,ZGHA 160300Z VRB01MPS CAVOK 26/09 Q1017 NOSIG
ZGHA,2012-09-16 04:00,ZGHA 160400Z VRB02MPS CAVOK 26/10 Q1017 NOSIG
ZGHA,2012-09-16 05:00,ZGHA 160500Z VRB02MPS CAVOK 27/09 Q1016 NOSIG
ZGHA,2012-09-16 06:00,ZGHA 160600Z 32003MPS 290V020 CAVOK 27/10 Q1015 NOSIG
ZGHA,2012-09-16 07:00,ZGHA 160700Z 30004MPS 260V340 CAVOK 26/12 Q1015 NOSIG
ZGHA,2012-09-16 08:00,ZGHA 160800Z 31006MPS 9999 SCT050 25/13 Q1015 NOSIG
ZGHA,2012-09-16 09:00,ZGHA 160900Z 34006MPS CAVOK 25/12 Q1014 NOSIG
ZGHA,2012-09-16 10:00,ZGHA 161000Z 31003MPS CAVOK 24/14 Q1015 NOSIG
ZGHA,2012-09-16 11:00,ZGHA 161100Z 33004MPS CAVOK 23/14 Q1015 NOSIG
ZGHA,2012-09-16 12:00,ZGHA 161200Z 33005MPS 9999 SCT040 23/14 Q1016 NOSIG
ZGHA,2012-09-16 13:00,ZGHA 161300Z 33005MPS 9999 SCT040 22/14 Q1016 NOSIG
ZGHA,2012-09-16 14:00,ZGHA 161400Z 34004MPS 9999 SCT040 22/13 Q1017 NOSIG
ZGHA,2012-09-16 15:00,ZGHA 161500Z 36002MPS 9999 SCT040 21/14 Q1017 NOSIG
ZGHA,2012-09-16 16:00,ZGHA 161600Z 36002MPS 9999 SCT050 21/14 Q1016 NOSIG
ZGHA,2012-09-16 17:00,ZGHA 161700Z 36002MPS 9999 SCT050 20/14 Q1016 NOSIG
ZGHA,2012-09-16 18:00,ZGHA 161800Z 35003MPS 9999 SCT050 20/14 Q1016 NOSIG
ZGHA,2012-09-16 19:00,ZGHA 161900Z 36002MPS 9999 SCT050 20/14 Q1016 NOSIG
ZGHA,2012-09-16 20:00,ZGHA 162000Z 01001MPS 9999 SCT050 19/15 Q1016 NOSIG
ZGHA,2012-09-16 21:00,ZGHA 162100Z 35002MPS 8000 SCT050 20/14 Q1016 NOSIG
ZGHA,2012-09-16 22:00,ZGHA 162200Z 35002MPS 9999 SCT050 20/14 Q1016 NOSIG
ZGHA,2012-09-16 23:00,ZGHA 162300Z VRB01MPS 7000 SCT050 19/15 Q1016 NOSIG
ZGHA,2012-09-17 00:00,ZGHA 170000Z 36002MPS 8000 SCT050 20/14 Q1017 NOSIG
ZGHA,2012-09-17 01:00,ZGHA 170100Z VRB01MPS CAVOK 21/14 Q1017 NOSIG
ZGHA,2012-09-17 02:00,ZGHA 170200Z 02002MPS 330V060 CAVOK 22/13 Q1017 NOSIG
ZGHA,2012-09-17 03:00,ZGHA 170300Z 06002MPS 020V090 CAVOK 23/13 Q1016 NOSIG
ZGHA,2012-09-17 04:00,ZGHA 170400Z 31002MPS 270V020 CAVOK 26/12 Q1016 NOSIG
ZGHA,2012-09-17 05:00,ZGHA 170500Z 35002MPS 280V060 CAVOK 25/11 Q1015 NOSIG
ZGHA,2012-09-17 06:00,ZGHA 170600Z 32002MPS 260V030 CAVOK 26/11 Q1014 NOSIG
ZGHA,2012-09-17 07:00,ZGHA 170700Z 36003MPS 310V070 9999 FEW033 27/09 Q1013 NOSIG
ZGHA,2012-09-17 08:00,ZGHA 170800Z VRB01MPS 9999 SCT050 27/10 Q1013 NOSIG
ZGHA,2012-09-17 09:00,ZGHA 170900Z 33005MPS 9999 SCT050 26/13 Q1013 NOSIG
ZGHA,2012-09-17 10:00,ZGHA 171000Z 33004MPS 8000 SCT050 25/13 Q1013 NOSIG
ZGHA,2012-09-17 11:00,ZGHA 171100Z 36002MPS 8000 FEW050 23/14 Q1013 NOSIG
ZGHA,2012-09-17 12:00,ZGHA 171200Z VRB01MPS 6000 NSC 21/15 Q1014 NOSIG
ZGHA,2012-09-17 13:00,ZGHA 171300Z VRB01MPS 5000 BR NSC 19/15 Q1014 NOSIG
ZGHA,2012-09-17 14:00,ZGHA 171400Z 12001MPS 4500 BR NSC 18/15 Q1014 NOSIG
ZGHA,2012-09-17 15:00,ZGHA 171500Z 18001MPS 4000 BR NSC 18/15 Q1014 NOSIG
ZGHA,2012-09-17 16:00,ZGHA 171600Z VRB01MPS 3500 BR NSC 17/15 Q1014 NOSIG
ZGHA,2012-09-17 17:00,ZGHA 171700Z VRB01MPS 3000 BR NSC 17/15 Q1013 NOSIG
ZGHA,2012-09-17 18:00,ZGHA 171800Z 11001MPS 2800 BR NSC 16/15 Q1013 NOSIG
ZGHA,2012-09-17 19:00,ZGHA 171900Z 05001MPS 2500 BR NSC 16/15 Q1012 NOSIG
ZGHA,2012-09-17 20:00,ZGHA 172000Z 03002MPS 2500 BR NSC 16/15 Q1012 NOSIG
ZGHA,2012-09-17 21:00,ZGHA 172100Z 00000MPS 1800 BR NSC 15/14 Q1012 NOSIG
ZGHA,2012-09-17 22:00,ZGHA 172200Z 00000MPS 1700 BR NSC 15/14 Q1013 NOSIG
ZGHA,2012-09-17 23:00,ZGHA 172300Z 12001MPS 1200 R36/1000 BR NSC 15/14 Q1013 BECMG TL2330 2000
ZGHA,2012-09-18 00:00,ZGHA 180000Z 00000MPS 2200 BR NSC 18/16 Q1014 BECMG TL0040 4000
ZGHA,2012-09-18 01:00,ZGHA 180100Z VRB01MPS 4000 BR NSC 21/15 Q1014 NOSIG
ZGHA,2012-09-18 02:00,ZGHA 180200Z VRB01MPS 5000 HZ NSC 24/15 Q1014 NOSIG
ZGHA,2012-09-18 03:00,ZGHA 180300Z VRB01MPS 8000 NSC 26/12 Q1013 NOSIG
ZGHA,2012-09-18 04:00,ZGHA 180400Z VRB02MPS CAVOK 27/09 Q1013 NOSIG
ZGHA,2012-09-18 05:00,ZGHA 180500Z VRB02MPS CAVOK 28/10 Q1012 NOSIG
ZGHA,2012-09-18 06:00,ZGHA 180600Z VRB02MPS CAVOK 28/10 Q1011 NOSIG
ZGHA,2012-09-18 07:00,ZGHA 180700Z VRB01MPS CAVOK 29/09 Q1010 NOSIG
ZGHA,2012-09-18 08:00,ZGHA 180800Z VRB02MPS CAVOK 29/08 Q1010 NOSIG
ZGHA,2012-09-18 09:00,ZGHA 180900Z VRB01MPS CAVOK 28/08 Q1011 NOSIG
ZGHA,2012-09-18 10:00,ZGHA 181000Z 03002MPS CAVOK 26/12 Q1011 NOSIG
ZGHA,2012-09-18 11:00,ZGHA 181100Z 03002MPS CAVOK 24/15 Q1011 NOSIG
ZGHA,2012-09-18 12:00,ZGHA 181200Z VRB01MPS CAVOK 23/15 Q1011 NOSIG
ZGHA,2012-09-18 13:00,ZGHA 181300Z 00000MPS 6000 NSC 22/15 Q1011 NOSIG
ZGHA,2012-09-18 14:00,ZGHA 181400Z 15001MPS 5000 BR NSC 20/16 Q1011 NOSIG
ZGHA,2012-09-18 15:00,ZGHA 181500Z 06001MPS 5000 BR NSC 20/16 Q1012 NOSIG
ZGHA,2012-09-18 16:00,ZGHA 181600Z VRB01MPS 4000 BR NSC 19/16 Q1011 NOSIG
ZGHA,2012-09-18 17:00,ZGHA 181700Z VRB01MPS 4000 BR NSC 18/16 Q1011 NOSIG
ZGHA,2012-09-18 18:00,ZGHA 181800Z 14001MPS 4000 BR NSC 17/16 Q1011 NOSIG
ZGHA,2012-09-18 19:00,ZGHA 181900Z 35001MPS 4000 BR NSC 17/16 Q1011 NOSIG
ZGHA,2012-09-18 20:00,ZGHA 182000Z 00000MPS 3000 BR NSC 17/16 Q1011 NOSIG
ZGHA,2012-09-18 21:00,ZGHA 182100Z 00000MPS 3000 BR NSC 17/16 Q1011 NOSIG
ZGHA,2012-09-18 22:00,ZGHA 182200Z 15001MPS 3000 BR NSC 17/15 Q1011 NOSIG
ZGHA,2012-09-18 23:00,ZGHA 182300Z VRB01MPS 2700 BR NSC 17/16 Q1012 NOSIG
ZGHA,2012-09-19 00:00,ZGHA 190000Z VRB01MPS 3500 BR NSC 19/16 Q1012 NOSIG
ZGHA,2012-09-19 01:00,ZGHA 190100Z VRB01MPS 4500 BR NSC 22/16 Q1013 NOSIG
ZGHA,2012-09-19 02:00,ZGHA 190200Z VRB01MPS 6000 NSC 25/16 Q1013 NOSIG
ZGHA,2012-09-19 03:00,ZGHA 190300Z 16002MPS 120V210 8000 NSC 28/14 Q1013 NOSIG
ZGHA,2012-09-19 04:00,ZGHA 190400Z 18003MPS 090V250 CAVOK 29/13 Q1012 NOSIG
ZGHA,2012-09-19 05:00,ZGHA 190500Z VRB03MPS 9999 FEW040 30/13 Q1011 NOSIG
ZGHA,2012-09-19 06:00,ZGHA 190600Z VRB02MPS 9999 FEW040 31/11 Q1010 NOSIG
ZGHA,2012-09-19 07:00,ZGHA 190700Z VRB02MPS CAVOK 30/11 Q1010 NOSIG
ZGHA,2012-09-19 08:00,ZGHA 190800Z 14002MPS CAVOK 31/11 Q1009 NOSIG
ZGHA,2012-09-19 09:00,ZGHA 190900Z 15002MPS 060V180 CAVOK 30/11 Q1009 NOSIG
ZGHA,2012-09-19 10:00,ZGHA 191000Z 16001MPS CAVOK 28/14 Q1009 NOSIG
ZGHA,2012-09-19 11:00,ZGHA 191100Z 17001MPS CAVOK 25/16 Q1010 NOSIG
ZGHA,2012-09-19 12:00,ZGHA 191200Z VRB01MPS CAVOK 23/17 Q1011 NOSIG
ZGHA,2012-09-19 13:00,ZGHA 191300Z 10001MPS 8000 NSC 22/17 Q1012 NOSIG
ZGHA,2012-09-19 14:00,ZGHA 191400Z 05002MPS 8000 NSC 21/18 Q1012 NOSIG
ZGHA,2012-09-19 15:00,ZGHA 191500Z VRB01MPS 6000 NSC 21/17 Q1012 NOSIG
ZGHA,2012-09-19 16:00,ZGHA 191600Z 00000MPS 6000 NSC 20/17 Q1012 NOSIG
ZGHA,2012-09-19 17:00,ZGHA 191700Z 00000MPS 6000 NSC 19/17 Q1012 NOSIG
ZGHA,2012-09-19 18:00,ZGHA 191800Z 00000MPS 6000 NSC 19/17 Q1012 NOSIG
ZGHA,2012-09-19 19:00,ZGHA 191900Z VRB01MPS 6000 NSC 19/17 Q1012 NOSIG
ZGHA,2012-09-19 20:00,ZGHA 192000Z 00000MPS 5000 BR NSC 19/17 Q1012 NOSIG
ZGHA,2012-09-19 21:00,ZGHA 192100Z 00000MPS 6000 NSC 18/17 Q1012 NOSIG
ZGHA,2012-09-19 22:00,ZGHA 192200Z 00000MPS 6000 NSC 18/17 Q1012 NOSIG
ZGHA,2012-09-19 23:00,ZGHA 192300Z VRB01MPS 4000 BR NSC 18/17 Q1013 NOSIG
ZGHA,2012-09-20 00:00,ZGHA 200000Z VRB01MPS 5000 BR NSC 21/18 Q1013 NOSIG
ZGHA,2012-09-20 01:00,ZGHA 200100Z VRB01MPS 5000 BR NSC 24/18 Q1013 NOSIG
ZGHA,2012-09-20 02:00,ZGHA 200200Z 12002MPS 060V160 7000 NSC 27/16 Q1013 NOSIG
ZGHA,2012-09-20 03:00,ZGHA 200300Z 14003MPS 080V190 7000 NSC 29/15 Q1013 NOSIG
ZGHA,2012-09-20 04:00,ZGHA 200400Z 19003MPS 080V250 9000 NSC 30/14 Q1012 NOSIG
ZGHA,2012-09-20 05:00,ZGHA 200500Z 18003MPS 100V260 CAVOK 30/13 Q1011 NOSIG
ZGHA,2012-09-20 06:00,ZGHA 200600Z 13003MPS 060V190 CAVOK 31/15 Q1011 NOSIG
ZGHA,2012-09-20 07:00,ZGHA 200700Z 17002MPS 100V240 9999 FEW050 30/16 Q1010 NOSIG
ZGHA,2012-09-20 08:00,ZGHA 200800Z 19005MPS 8000 FEW050 29/16 Q1010 NOSIG
ZGHA,2012-09-20 09:00,ZGHA 200900Z 21004MPS 6000 NSC 27/17 Q1010 NOSIG
ZGHA,2012-09-20 10:00,ZGHA 201000Z 20003MPS 5000 HZ NSC 26/18 Q1011 NOSIG
ZGHA,2012-09-20 11:00,ZGHA 201100Z 20003MPS 5000 HZ NSC 25/18 Q1011 NOSIG
ZGHA,2012-09-20 12:00,ZGHA 201200Z 19002MPS 4500 BR NSC 24/19 Q1012 NOSIG
ZGHA,2012-09-20 13:00,ZGHA 201300Z 18003MPS 4000 -RA BR NSC 23/19 Q1012 BECMG TL1400 2500
ZGHA,2012-09-20 14:00,ZGHA 201400Z 19002MPS 3000 -RA BR NSC 23/19 Q1013 BECMG TL1500 2200
ZGHA,2012-09-20 15:00,ZGHA 201500Z 20003MPS 2500 -RA BR SCT050 22/20 Q1013 NOSIG
ZGHA,2012-09-20 16:00,ZGHA 201600Z 14001MPS 1600 -RA BR SCT009 OVC050 22/20 Q1012 BECMG TL1700 1200
ZGHA,2012-09-20 17:00,ZGHA 201700Z 16002MPS 1600 -RA BR SCT009 OVC040 21/20 Q1012 NOSIG
ZGHA,2012-09-20 18:00,ZGHA 201800Z 16002MPS 1700 -RA BR SCT006 SCT020 OVC040 21/20 Q1012 NOSIG
ZGHA,2012-09-20 19:00,ZGHA 201900Z 14002MPS 1700 -RA BR SCT020 OVC040 21/20 Q1011 NOSIG
ZGHA,2012-09-20 20:00,ZGHA 202000Z VRB01MPS 1600 -RA BR SCT007 SCT020 OVC040 21/20 Q1010 NOSIG
ZGHA,2012-09-20 21:00,ZGHA 202100Z 16001MPS 1400 R18/1900 -RA BR BKN007 SCT020 OVC040 21/19 Q1011 NOSIG
ZGHA,2012-09-20 22:00,ZGHA 202200Z 13001MPS 1200 R18/1800 -RA BR FEW003 BKN007 OVC040 21/20 Q1011 NOSIG
ZGHA,2012-09-20 23:00,ZGHA 202300Z 00000MPS 1000 R18/1400 -RA BR FEW003 BKN011 OVC040 21/20 Q1011 BECMG TL2400 1600
ZGHA,2012-09-21 00:00,ZGHA 210000Z 14002MPS 1000 R18/1100 RA BR FEW003 BKN007 OVC040 21/20 Q1011 BECMG TL0130 1600 -RA FEW005 BKN011 OVC050
ZGHA,2012-09-21 01:00,ZGHA 210100Z 14002MPS 1700 RA BR FEW003 BKN007 OVC040 21/20 Q1012 NOSIG
ZGHA,2012-09-21 02:00,ZGHA 210200Z 15002MPS 2500 RA BR SCT003 BKN009 OVC033 21/20 Q1011 BECMG TL0300 3000 -RA
ZGHA,2012-09-21 03:00,ZGHA 210300Z 16002MPS 3500 -SHRA BR SCT003 BKN009 OVC040 21/20 Q1011 RERA NOSIG
ZGHA,2012-09-21 04:00,ZGHA 210400Z 16003MPS 4000 -SHRA BR SCT003 BKN009 OVC040 22/20 Q1010 NOSIG
ZGHA,2012-09-21 05:00,ZGHA 210500Z 16003MPS 5000 -RA BR SCT003 BKN009 OVC040 22/20 Q1010 NOSIG
ZGHA,2012-09-21 06:00,ZGHA 210600Z 16003MPS 6000 -RA SCT003 BKN009 OVC040 22/21 Q1009 NOSIG
ZGHA,2012-09-21 07:00,ZGHA 210700Z 17002MPS 6000 -RA SCT003 BKN009 OVC040 22/21 Q1009 NOSIG
ZGHA,2012-09-21 08:00,ZGHA 210800Z 17001MPS 2500 RA BR SCT003 BKN009 OVC040 22/21 Q1009 BECMG TL0900 -RA
ZGHA,2012-09-21 09:00,ZGHA 210900Z VRB01MPS 2200 RA BR SCT003 BKN008 OVC040 22/21 Q1009 NOSIG
ZGHA,2012-09-21 10:00,ZGHA 211000Z VRB01MPS 2500 -RA BR SCT003 BKN008 OVC040 22/21 Q1009 RERA BECMG TL1100 RA BR
ZGHA,2012-09-21 11:00,ZGHA 211100Z VRB01MPS 3000 RA BR SCT003 BKN008 OVC040 22/21 Q1009 NOSIG
ZGHA,2012-09-21 12:00,ZGHA 211200Z VRB01G06MPS 2500 RA BR SCT003 BKN007 OVC040 22/21 Q1010 NOSIG
ZGHA,2012-09-21 13:00,ZGHA 211300Z 31003MPS 3500 RA BR SCT003 BKN007 OVC040 21/20 Q1010 NOSIG
ZGHA,2012-09-21 14:00,ZGHA 211400Z 31003MPS 4000 RA BR SCT003 BKN009 OVC040 21/20 Q1011 NOSIG
ZGHA,2012-09-21 15:00,ZGHA 211500Z 31002MPS 270V340 3000 RA BR SCT003 BKN009 OVC040 21/20 Q1011 NOSIG
ZGHA,2012-09-21 16:00,ZGHA 211600Z 30003MPS 3500 RA BR SCT003 BKN009 OVC040 21/20 Q1011 BECMG TL1700 -RA BR
ZGHA,2012-09-21 17:00,ZGHA 211700Z 30003MPS 270V330 5000 -RA BR SCT003 BKN009 OVC040 21/20 Q1011 RERA NOSIG
ZGHA,2012-09-21 18:00,ZGHA 211800Z 31004MPS 5000 -RA BR SCT003 BKN009 OVC040 21/20 Q1010 NOSIG
ZGHA,2012-09-21 19:00,ZGHA 211900Z 30003MPS 4500 -RA BR SCT003 BKN009 OVC040 20/19 Q1010 NOSIG
ZGHA,2012-09-21 20:00,ZGHA 212000Z 32003MPS 3000 -RA BR SCT003 BKN009 OVC040 20/19 Q1010 NOSIG
ZGHA,2012-09-21 21:00,ZGHA 212100Z 31002MPS 4000 -RA BR SCT003 BKN009 OVC040 20/19 Q1010 NOSIG
ZGHA,2012-09-21 22:00,ZGHA 212200Z 31003MPS 3500 -RA BR BKN009 BKN020 OVC040 20/19 Q1011 NOSIG
ZGHA,2012-09-21 23:00,ZGHA 212300Z 32002MPS 3500 BR BKN009 BKN020 OVC040 20/19 Q1011 NOSIG
ZGHA,2012-09-22 00:00,ZGHA 220000Z 30002MPS 2800 BR BKN009 BKN020 OVC040 20/19 Q1012 BECMG TL0100 3500 BKN011 OVC040
ZGHA,2012-09-22 01:00,ZGHA 220100Z 30002MPS 2700 BR SCT015 BKN020 OVC040 21/19 Q1012 BECMG TL0200 3500
ZGHA,2012-09-22 02:00,ZGHA 220200Z 31003MPS 280V340 3200 BR FEW007 BKN020 OVC050 21/19 Q1012 NOSIG
ZGHA,2012-09-22 03:00,ZGHA 220300Z 31003MPS 280V340 3200 -RA BR SCT009 BKN020 OVC050 22/19 Q1012 NOSIG
ZGHA,2012-09-22 04:00,ZGHA 220400Z 31002MPS 240V350 4500 BR SCT009 BKN020 OVC050 22/19 Q1012 NOSIG
ZGHA,2012-09-22 05:00,ZGHA 220500Z 31002MPS 280V340 4500 BR BKN011 OVC050 22/19 Q1011 NOSIG
ZGHA,2012-09-22 06:00,ZGHA 220600Z 30003MPS 280V350 4500 BR BKN012 OVC050 22/19 Q1010 NOSIG
ZGHA,2012-09-22 07:00,ZGHA 220700Z 30002MPS 250V350 4200 BR BKN013 OVC050 22/19 Q1010 NOSIG
ZGHA,2012-09-22 08:00,ZGHA 220800Z VRB01MPS 5000 BR SCT020 23/19 Q1010 NOSIG
ZGHA,2012-09-22 09:00,ZGHA 220900Z VRB01MPS 4500 BR SCT015 23/19 Q1010 NOSIG
ZGHA,2012-09-22 10:00,ZGHA 221000Z VRB01MPS 4000 BR SCT020 23/19 Q1010 NOSIG
ZGHA,2012-09-22 11:00,ZGHA 221100Z 20002MPS 170V260 3500 BR SCT020 22/19 Q1010 NOSIG
ZGHA,2012-09-22 12:00,ZGHA 221200Z 15001MPS 3200 BR FEW033 21/20 Q1011 NOSIG
ZGHA,2012-09-22 13:00,ZGHA 221300Z 16001MPS 2500 BR SCT040 21/20 Q1011 NOSIG
ZGHA,2012-09-22 14:00,ZGHA 221400Z 15001MPS 1800 -RA BR FEW040 21/20 Q1011 NOSIG
ZGHA,2012-09-22 15:00,ZGHA 221500Z 17002MPS 2000 -RA BR SCT004 SCT040 21/20 Q1010 NOSIG
ZGHA,2012-09-22 16:00,ZGHA 221600Z VRB01MPS 1600 -RA BR SCT002 SCT033 21/20 Q1010 NOSIG
ZGHA,2012-09-22 17:00,ZGHA 221700Z 16001MPS 1600 -RA BR SCT002 SCT033 21/20 Q1010 NOSIG
ZGHA,2012-09-22 18:00,ZGHA 221800Z 18001MPS 1600 BR SCT002 BKN004 OVC040 21/20 Q1010 NOSIG
ZGHA,2012-09-22 19:00,ZGHA 221900Z VRB01MPS 1200 R36/1400 BR FEW002 BKN004 OVC040 21/20 Q1010 NOSIG
ZGHA,2012-09-22 20:00,ZGHA 222000Z 17001MPS 1400 R36/1900 BR BKN004 OVC040 21/20 Q1010 NOSIG
ZGHA,2012-09-22 21:00,ZGHA 222100Z VRB01MPS 1800 -RA BR BKN004 OVC040 21/20 Q1010 NOSIG
ZGHA,2012-09-22 22:00,ZGHA 222200Z 00000MPS 1600 -RA BR BKN004 OVC040 21/20 Q1010 NOSIG
ZGHA,2012-09-22 23:00,ZGHA 222300Z VRB01MPS 1100 R36/1300 -RA BR BKN004 OVC040 21/20 Q1011 BECMG TL2400 1700
ZGHA,2012-09-23 00:00,ZGHA 230000Z VRB01MPS 0700 R36/1000 RA FG BKN003 OVC040 21/20 Q1011 BECMG TL0030 1400
ZGHA,2012-09-23 01:00,ZGHA 230100Z 01002MPS 1000 R36/1100 RA BR SCT003 BKN006 OVC040 21/20 Q1011 BECMG TL0200 1600 -RA BR
ZGHA,2012-09-23 02:00,ZGHA 230200Z VRB01MPS 1300 R36/1300 -RA BR SCT003 BKN006 OVC040 21/20 Q1012 BECMG TL0230 1600
ZGHA,2012-09-23 03:00,ZGHA 230300Z VRB01MPS 2200 -RA BR SCT003 BKN007 OVC040 22/21 Q1011 BECMG TL0400 3500
ZGHA,2012-09-23 04:00,ZGHA 230400Z 36002MPS 3500 -RA BR FEW004 BKN008 OVC040 22/20 Q1011 BECMG TL0500 SCT005 BKN011 OVC040
ZGHA,2012-09-23 05:00,ZGHA 230500Z VRB01MPS 5000 -RA BR FEW004 BKN008 OVC040 22/20 Q1010 NOSIG
ZGHA,2012-09-23 06:00,ZGHA 230600Z 01001MPS 5000 BR BKN008 OVC040 22/20 Q1010 NOSIG
ZGHA,2012-09-23 07:00,ZGHA 230700Z VRB01MPS 4500 -RA BR FEW004 BKN008 OVC040 22/20 Q1010 NOSIG
ZGHA,2012-09-23 08:00,ZGHA 230800Z 01002MPS 3500 -RA BR FEW004 BKN008 OVC040 22/20 Q1010 NOSIG
ZGHA,2012-09-23 09:00,ZGHA 230900Z 01002MPS 3500 -RA BR FEW004 BKN009 OVC040 22/20 Q1010 NOSIG
ZGHA,2012-09-23 10:00,ZGHA 231000Z 01001MPS 3000 -RA BR BKN009 OVC040 22/20 Q1010 BECMG TL1100 2300
ZGHA,2012-09-23 11:00,ZGHA 231100Z VRB01MPS 3000 -RA BR FEW004 BKN009 OVC040 21/20 Q1010 BECMG TL1200 2500
ZGHA,2012-09-23 12:00,ZGHA 231200Z 00000MPS 3000 -RA BR FEW004 BKN009 OVC040 21/20 Q1011 BECMG 2500
ZGHA,2012-09-23 13:00,ZGHA 231300Z VRB01MPS 3500 -RA BR SCT004 BKN008 OVC040 21/20 Q1011 BECMG 2800
ZGHA,2012-09-23 14:00,ZGHA 231400Z VRB01MPS 2700 BR SCT004 BKN008 OVC040 21/20 Q1011 NOSIG
ZGHA,2012-09-23 15:00,ZGHA 231500Z VRB01MPS 2500 -RA BR FEW003 BKN007 OVC040 21/20 Q1011 NOSIG
ZGHA,2012-09-23 16:00,ZGHA 231600Z VRB01MPS 2200 -RA BR FEW003 BKN007 OVC040 21/20 Q1011 NOSIG
ZGHA,2012-09-23 17:00,ZGHA 231700Z 01001MPS 2000 -RA BR FEW003 BKN007 OVC040 21/20 Q1010 NOSIG
ZGHA,2012-09-23 18:00,ZGHA 231800Z 36002MPS 2200 BR BKN008 OVC040 21/20 Q1011 NOSIG
ZGHA,2012-09-23 19:00,ZGHA 231900Z VRB01MPS 2500 -RA BR BKN009 OVC040 21/20 Q1010 NOSIG
ZGHA,2012-09-23 20:00,ZGHA 232000Z 01001MPS 3000 -RA BR BKN009 OVC040 21/20 Q1010 NOSIG
ZGHA,2012-09-23 21:00,ZGHA 232100Z VRB01MPS 2500 -RA BR BKN009 OVC040 21/20 Q1010 NOSIG
ZGHA,2012-09-23 22:00,ZGHA 232200Z 36002MPS 3000 BR SCT009 OVC050 21/20 Q1011 NOSIG
ZGHA,2012-09-23 23:00,ZGHA 232300Z 02002MPS 350V050 2500 BR SCT009 OVC050 21/19 Q1011 NOSIG
ZGHA,2012-09-24 00:00,ZGHA 240000Z 36001MPS 2000 BR SCT009 OVC050 21/20 Q1012 BECMG TL0150 3500
ZGHA,2012-09-24 01:00,ZGHA 240100Z 35002MPS 320V020 1800 -RA BR SCT009 OVC050 21/20 Q1012 BECMG TL0200 3500
ZGHA,2012-09-24 02:00,ZGHA 240200Z VRB01MPS 2500 -RA BR FEW005 BKN009 OVC050 22/20 Q1013 BECMG TL0300 3000 SCT005 BKN011 OVC050
ZGHA,2012-09-24 03:00,ZGHA 240300Z VRB01MPS 4000 BR BKN008 OVC050 22/20 Q1013 BECMG TL0400 BKN011 OVC050
ZGHA,2012-09-24 04:00,ZGHA 240400Z VRB01MPS 4500 BR BKN011 OVC050 23/20 Q1012 NOSIG
ZGHA,2012-09-24 05:00,ZGHA 240500Z 02002MPS 340V080 5000 BR BKN011 OVC050 23/20 Q1011 NOSIG
ZGHA,2012-09-24 06:00,ZGHA 240600Z VRB01MPS 6000 BKN011 OVC050 24/20 Q1011 NOSIG
ZGHA,2012-09-24 07:00,ZGHA 240700Z 01002MPS 340V060 6000 BKN011 OVC050 24/20 Q1010 NOSIG
ZGHA,2012-09-24 08:00,ZGHA 240800Z 36002MPS 6000 BKN012 OVC050 24/20 Q1010 NOSIG
ZGHA,2012-09-24 09:00,ZGHA 240900Z 36002MPS 5000 BR SCT012 OVC050 24/20 Q1011 NOSIG
ZGHA,2012-09-24 10:00,ZGHA 241000Z VRB01MPS 4500 BR FEW012 OVC050 23/20 Q1011 NOSIG
ZGHA,2012-09-24 11:00,ZGHA 241100Z 33002MPS 290V360 4000 BR SCT020 OVC050 24/20 Q1011 NOSIG
ZGHA,2012-09-24 12:00,ZGHA 241200Z 00000MPS 5000 BR SCT023 OVC050 23/21 Q1011 NOSIG
ZGHA,2012-09-24 13:00,ZGHA 241300Z 02001MPS 5000 BR SCT030 22/20 Q1012 NOSIG
ZGHA,2012-09-24 14:00,ZGHA 241400Z 01001MPS 4000 BR SCT030 22/20 Q1012 NOSIG
ZGHA,2012-09-24 15:00,ZGHA 241500Z VRB01MPS 3500 BR OVC050 22/20 Q1012 NOSIG
ZGHA,2012-09-24 16:00,ZGHA 241600Z 01001MPS 3200 BR NSC 22/20 Q1012 BECMG TL1700 2500
ZGHA,2012-09-24 17:00,ZGHA 241700Z 02001MPS 3000 BR NSC 22/20 Q1011 NOSIG
ZGHA,2012-09-24 18:00,ZGHA 241800Z 36003MPS 2800 BR SCT040 22/20 Q1011 NOSIG
ZGHA,2012-09-24 19:00,ZGHA 241900Z 01001MPS 3000 BR SCT040 22/20 Q1011 NOSIG
ZGHA,2012-09-24 20:00,ZGHA 242000Z 00000MPS 3000 BR SCT040 22/20 Q1011 NOSIG
ZGHA,2012-09-24 21:00,ZGHA 242100Z 31002MPS 3200 BR SCT050 22/20 Q1012 NOSIG
ZGHA,2012-09-24 22:00,ZGHA 242200Z 33001MPS 2500 BR SCT040 22/20 Q1012 NOSIG
ZGHA,2012-09-24 23:00,ZGHA 242300Z 01001MPS 1600 BR SCT040 22/20 Q1012 BECMG TL0100 3500
ZGHA,2012-09-25 00:00,ZGHA 250000Z 04002MPS 360V080 2800 BR SCT050 22/20 Q1013 BECMG TL0100 4000
ZGHA,2012-09-25 01:00,ZGHA 250100Z VRB01MPS 4500 BR NSC 24/20 Q1013 NOSIG
ZGHA,2012-09-25 02:00,ZGHA 250200Z VRB01MPS 6000 NSC 25/19 Q1014 NOSIG
ZGHA,2012-09-25 03:00,ZGHA 250300Z 03002MPS 360V090 8000 SCT020 26/19 Q1013 NOSIG
ZGHA,2012-09-25 04:00,ZGHA 250400Z VRB02MPS 9999 SCT030 27/18 Q1013 NOSIG
ZGHA,2012-09-25 05:00,ZGHA 250500Z VRB02MPS 9999 OVC050 27/18 Q1012 NOSIG
ZGHA,2012-09-25 06:00,ZGHA 250600Z VRB01MPS 9999 FEW040 28/17 Q1012 NOSIG
ZGHA,2012-09-25 07:00,ZGHA 250700Z VRB01MPS CAVOK 28/18 Q1011 NOSIG
ZGHA,2012-09-25 08:00,ZGHA 250800Z VRB01MPS 9999 BKN050 27/18 Q1012 NOSIG
ZGHA,2012-09-25 09:00,ZGHA 250900Z 07002MPS CAVOK 27/18 Q1012 NOSIG
ZGHA,2012-09-25 10:00,ZGHA 251000Z VRB01MPS CAVOK 26/20 Q1012 NOSIG
ZGHA,2012-09-25 11:00,ZGHA 251100Z 00000MPS 9999 OVC040 25/21 Q1013 NOSIG
ZGHA,2012-09-25 12:00,ZGHA 251200Z VRB01MPS 8000 OVC040 25/20 Q1014 NOSIG
ZGHA,2012-09-25 13:00,ZGHA 251300Z VRB01MPS 5000 BR BKN040 25/20 Q1014 NOSIG
ZGHA,2012-09-25 14:00,ZGHA 251400Z VRB01MPS 5000 BR SCT050 24/19 Q1014 NOSIG
ZGHA,2012-09-25 15:00,ZGHA 251500Z 00000MPS 5000 BR SCT050 23/20 Q1014 NOSIG
ZGHA,2012-09-25 16:00,ZGHA 251600Z VRB01MPS 5000 BR NSC 24/20 Q1014 NOSIG
ZGHA,2012-09-25 17:00,ZGHA 251700Z VRB01MPS 6000 SCT040 24/18 Q1014 NOSIG
ZGHA,2012-09-25 18:00,ZGHA 251800Z 00000MPS 5000 BR FEW040 23/20 Q1014 NOSIG
ZGHA,2012-09-25 19:00,ZGHA 251900Z 01001MPS 3500 BR NSC 23/21 Q1014 NOSIG
ZGHA,2012-09-25 20:00,ZGHA 252000Z 02001MPS 3000 BR NSC 23/21 Q1014 NOSIG
ZGHA,2012-09-25 21:00,ZGHA 252100Z 03001MPS 2500 BR NSC 22/21 Q1014 NOSIG
ZGHA,2012-09-25 22:00,ZGHA 252200Z VRB01MPS 2500 BR SCT050 22/21 Q1014 NOSIG
ZGHA,2012-09-25 23:00,ZGHA 252300Z 00000MPS 3000 BR SCT050 22/21 Q1015 NOSIG
ZGHA,2012-09-26 00:00,ZGHA 260000Z 00000MPS 4000 BR SCT050 23/21 Q1015 NOSIG
ZGHA,2012-09-26 01:00,ZGHA 260100Z 33002MPS 300V010 3200 BR NSC 24/21 Q1016 NOSIG
ZGHA,2012-09-26 02:00,ZGHA 260200Z VRB01MPS 4000 BR NSC 25/20 Q1016 NOSIG
ZGHA,2012-09-26 03:00,ZGHA 260300Z VRB01MPS 5000 BR NSC 26/20 Q1016 NOSIG
ZGHA,2012-09-26 04:00,ZGHA 260400Z VRB01MPS 8000 NSC 27/18 Q1015 NOSIG
ZGHA,2012-09-26 05:00,ZGHA 260500Z VRB01MPS CAVOK 28/18 Q1015 NOSIG
ZGHA,2012-09-26 06:00,ZGHA 260600Z 07002MPS 360V110 9999 FEW040 29/18 Q1014 NOSIG
ZGHA,2012-09-26 07:00,ZGHA 260700Z 32008MPS 2400 BR SCT040 27/21 Q1014 BECMG TL0730 33003MPS 3500
ZGHA,2012-09-26 08:00,ZGHA 260800Z 33005MPS 2700 BR SCT040 26/20 Q1014 BECMG 3500
ZGHA,2012-09-26 09:00,ZGHA 260900Z 32004MPS 3500 BR SCT040 26/20 Q1014 NOSIG
ZGHA,2012-09-26 10:00,ZGHA 261000Z 31004MPS 2800 BR SCT040 25/20 Q1014 NOSIG
ZGHA,2012-09-26 11:00,ZGHA 261100Z 32004MPS 2800 BR SCT040 25/20 Q1014 NOSIG
ZGHA,2012-09-26 12:00,ZGHA 261200Z 34003MPS 4000 BR NSC 25/19 Q1015 NOSIG
ZGHA,2012-09-26 13:00,ZGHA 261300Z 01003MPS 5000 BR NSC 25/19 Q1015 NOSIG
ZGHA,2012-09-26 14:00,ZGHA 261400Z 34003MPS 5000 BR OVC050 24/19 Q1016 NOSIG
ZGHA,2012-09-26 15:00,ZGHA 261500Z 33003MPS 5000 BR OVC050 24/19 Q1016 NOSIG
ZGHA,2012-09-26 16:00,ZGHA 261600Z 34003MPS 5000 BR NSC 24/18 Q1016 NOSIG
ZGHA,2012-09-26 17:00,ZGHA 261700Z 36002MPS 5000 BR NSC 23/19 Q1015 NOSIG
ZGHA,2012-09-26 18:00,ZGHA 261800Z 36003MPS 5000 BR NSC 23/19 Q1015 NOSIG
ZGHA,2012-09-26 19:00,ZGHA 261900Z 34003MPS 5000 BR SCT040 23/18 Q1015 NOSIG
ZGHA,2012-09-26 20:00,ZGHA 262000Z 33003MPS 5000 BR OVC040 23/18 Q1015 NOSIG
ZGHA,2012-09-26 21:00,ZGHA 262100Z 35003MPS 5000 BR OVC040 23/19 Q1015 NOSIG
ZGHA,2012-09-26 22:00,ZGHA 262200Z 33003MPS 4000 BR OVC050 22/18 Q1016 NOSIG
ZGHA,2012-09-26 23:00,ZGHA 262300Z 36002MPS 2200 BR OVC050 22/19 Q1016 BECMG TL2400 3500
ZGHA,2012-09-27 00:00,ZGHA 270000Z 35004MPS 2700 BR OVC050 23/19 Q1017 NOSIG
ZGHA,2012-09-27 01:00,ZGHA 270100Z 36005MPS 3500 BR SCT050 24/18 Q1017 NOSIG
ZGHA,2012-09-27 02:00,ZGHA 270200Z 35004MPS 5000 HZ NSC 25/19 Q1017 NOSIG
ZGHA,2012-09-27 03:00,ZGHA 270300Z 34004MPS 310V010 5000 HZ NSC 27/19 Q1016 NOSIG
ZGHA,2012-09-27 04:00,ZGHA 270400Z 33003MPS 280V020 6000 NSC 28/19 Q1016 NOSIG
ZGHA,2012-09-27 05:00,ZGHA 270500Z 30006MPS 6000 SCT030 27/19 Q1015 NOSIG
ZGHA,2012-09-27 06:00,ZGHA 270600Z 30006MPS 6000 SCT030 26/19 Q1015 NOSIG
ZGHA,2012-09-27 07:00,ZGHA 270700Z 34005MPS 300V010 6000 FEW030 26/19 Q1014 NOSIG
ZGHA,2012-09-27 08:00,ZGHA 270800Z 31004MPS 280V340 5000 HZ FEW030 26/19 Q1014 NOSIG
ZGHA,2012-09-27 09:00,ZGHA 270900Z 34005MPS 5000 HZ NSC 26/19 Q1014 NOSIG
ZGHA,2012-09-27 10:00,ZGHA 271000Z 35006MPS 4500 HZ NSC 25/18 Q1014 NOSIG
ZGHA,2012-09-27 11:00,ZGHA 271100Z 32004MPS 3500 BR NSC 24/19 Q1015 NOSIG
ZGHA,2012-09-27 12:00,ZGHA 271200Z 32002MPS 4000 BR NSC 23/19 Q1015 NOSIG
ZGHA,2012-09-27 13:00,ZGHA 271300Z VRB01MPS 4000 BR SCT050 23/19 Q1016 NOSIG
ZGHA,2012-09-27 14:00,ZGHA 271400Z 35001MPS 3500 BR SCT050 23/19 Q1016 NOSIG
ZGHA,2012-09-27 15:00,ZGHA 271500Z 01002MPS 3500 BR SCT050 23/19 Q1016 NOSIG
ZGHA,2012-09-27 16:00,ZGHA 271600Z 33002MPS 300V010 3000 BR NSC 23/19 Q1016 BECMG TL1700 2500
ZGHA,2012-09-27 17:00,ZGHA 271700Z 34004MPS 3000 BR NSC 22/19 Q1016 BECMG 2500
ZGHA,2012-09-27 18:00,ZGHA 271800Z 36003MPS 2700 BR NSC 21/19 Q1015 NOSIG
ZGHA,2012-09-27 19:00,ZGHA 271900Z 01002MPS 2700 BR NSC 21/18 Q1015 NOSIG
ZGHA,2012-09-27 20:00,ZGHA 272000Z 36004MPS 2500 BR NSC 21/18 Q1015 NOSIG
ZGHA,2012-09-27 21:00,ZGHA 272100Z 35003MPS 2200 BR NSC 20/18 Q1016 NOSIG
ZGHA,2012-09-27 22:00,ZGHA 272200Z 35004MPS 2100 BR SCT050 20/18 Q1016 NOSIG
ZGHA,2012-09-27 23:00,ZGHA 272300Z 04002MPS 340V090 2500 BR NSC 20/18 Q1016 BECMG TL0050 4000
ZGHA,2012-09-28 00:00,ZGHA 280000Z 36005MPS 3500 BR NSC 22/18 Q1017 NOSIG
ZGHA,2012-09-28 01:00,ZGHA 280100Z 01005MPS 340V050 6000 NSC 24/17 Q1017 NOSIG
ZGHA,2012-09-28 02:00,ZGHA 280200Z 02006MPS 8000 NSC 26/15 Q1017 NOSIG
ZGHA,2012-09-28 03:00,ZGHA 280300Z 01004MPS 340V060 CAVOK 27/14 Q1017 NOSIG
ZGHA,2012-09-28 04:00,ZGHA 280400Z 35006MPS 330V040 9999 FEW040 28/14 Q1016 NOSIG
ZGHA,2012-09-28 05:00,ZGHA 280500Z 01007MPS 350V050 9999 FEW040 29/13 Q1016 NOSIG
ZGHA,2012-09-28 06:00,ZGHA 280600Z 01008G13MPS CAVOK 29/08 Q1015 NOSIG
ZGHA,2012-09-28 07:00,ZGHA 280700Z 35009MPS CAVOK 29/10 Q1015 NOSIG
ZGHA,2012-09-28 08:00,ZGHA 280800Z 35009MPS CAVOK 28/08 Q1015 NOSIG
ZGHA,2012-09-28 09:00,ZGHA 280900Z 36009MPS CAVOK 26/06 Q1015 NOSIG
ZGHA,2012-09-28 10:00,ZGHA 281000Z 34008MPS CAVOK 25/04 Q1015 NOSIG
ZGHA,2012-09-28 11:00,ZGHA 281100Z 36006MPS CAVOK 22/05 Q1016 NOSIG
ZGHA,2012-09-28 12:00,ZGHA 281200Z 36004MPS CAVOK 20/07 Q1017 NOSIG
ZGHA,2012-09-28 13:00,ZGHA 281300Z 36005MPS CAVOK 20/07 Q1018 NOSIG
ZGHA,2012-09-28 14:00,ZGHA 281400Z 36004MPS CAVOK 19/07 Q1018 NOSIG
ZGHA,2012-09-28 15:00,ZGHA 281500Z 36004MPS CAVOK 18/08 Q1018 NOSIG
ZGHA,2012-09-28 16:00,ZGHA 281600Z 35004MPS CAVOK 17/08 Q1018 NOSIG
ZGHA,2012-09-28 17:00,ZGHA 281700Z 36006MPS CAVOK 17/08 Q1018 NOSIG
ZGHA,2012-09-28 18:00,ZGHA 281800Z 35004MPS CAVOK 15/09 Q1018 NOSIG
ZGHA,2012-09-28 19:00,ZGHA 281900Z 01003MPS CAVOK 16/07 Q1018 NOSIG
ZGHA,2012-09-28 20:00,ZGHA 282000Z 02002MPS CAVOK 16/07 Q1018 NOSIG
ZGHA,2012-09-28 21:00,ZGHA 282100Z 02003MPS CAVOK 15/08 Q1018 NOSIG
ZGHA,2012-09-28 22:00,ZGHA 282200Z 36003MPS CAVOK 14/08 Q1018 NOSIG
ZGHA,2012-09-28 23:00,ZGHA 282300Z 34002MPS CAVOK 14/10 Q1019 NOSIG
ZGHA,2012-09-29 00:00,ZGHA 290000Z 01002MPS 340V080 CAVOK 18/08 Q1020 NOSIG
ZGHA,2012-09-29 01:00,ZGHA 290100Z 01003MPS 340V040 CAVOK 20/07 Q1020 NOSIG
ZGHA,2012-09-29 02:00,ZGHA 290200Z 36005MPS CAVOK 23/07 Q1020 NOSIG
ZGHA,2012-09-29 03:00,ZGHA 290300Z 01003MPS 330V060 CAVOK 24/05 Q1020 NOSIG
ZGHA,2012-09-29 04:00,ZGHA 290400Z 36004MPS 330V040 CAVOK 25/04 Q1019 NOSIG
ZGHA,2012-09-29 05:00,ZGHA 290500Z 36004MPS 320V020 CAVOK 25/03 Q1018 NOSIG
ZGHA,2012-09-29 06:00,ZGHA 290600Z 34005MPS 300V020 CAVOK 26/05 Q1017 NOSIG
ZGHA,2012-09-29 07:00,ZGHA 290700Z 35005MPS 320V050 CAVOK 26/04 Q1016 NOSIG
ZGHA,2012-09-29 08:00,ZGHA 290800Z 33005MPS 300V360 CAVOK 27/04 Q1016 NOSIG
ZGHA,2012-09-29 09:00,ZGHA 290900Z 34006MPS CAVOK 26/03 Q1016 NOSIG
ZGHA,2012-09-29 10:00,ZGHA 291000Z 31005MPS CAVOK 23/07 Q1016 NOSIG
ZGHA,2012-09-29 11:00,ZGHA 291100Z 32004MPS CAVOK 21/08 Q1016 NOSIG
ZGHA,2012-09-29 12:00,ZGHA 291200Z 33004MPS CAVOK 20/08 Q1017 NOSIG
ZGHA,2012-09-29 13:00,ZGHA 291300Z 04002MPS CAVOK 19/09 Q1017 NOSIG
ZGHA,2012-09-29 14:00,ZGHA 291400Z 02003MPS 350V050 CAVOK 18/09 Q1018 NOSIG
ZGHA,2012-09-29 15:00,ZGHA 291500Z 03002MPS 360V070 CAVOK 17/09 Q1018 NOSIG
ZGHA,2012-09-29 16:00,ZGHA 291600Z 02002MPS 360V080 CAVOK 17/10 Q1018 NOSIG
ZGHA,2012-09-29 17:00,ZGHA 291700Z VRB01MPS CAVOK 17/11 Q1018 NOSIG
ZGHA,2012-09-29 18:00,ZGHA 291800Z VRB01MPS CAVOK 17/11 Q1018 NOSIG
ZGHA,2012-09-29 19:00,ZGHA 291900Z 02002MPS CAVOK 17/11 Q1018 NOSIG
ZGHA,2012-09-29 20:00,ZGHA 292000Z 01002MPS CAVOK 16/11 Q1018 NOSIG
ZGHA,2012-09-29 21:00,ZGHA 292100Z 00000MPS CAVOK 16/12 Q1018 NOSIG
ZGHA,2012-09-29 22:00,ZGHA 292200Z 01001MPS CAVOK 16/12 Q1019 NOSIG
ZGHA,2012-09-29 23:00,ZGHA 292300Z VRB01MPS CAVOK 16/12 Q1019 NOSIG
ZGHA,2012-09-30 00:00,ZGHA 300000Z VRB01MPS CAVOK 18/11 Q1020 NOSIG
ZGHA,2012-09-30 01:00,ZGHA 300100Z VRB01MPS CAVOK 21/10 Q1020 NOSIG
ZGHA,2012-09-30 02:00,ZGHA 300200Z VRB01MPS CAVOK 23/08 Q1020 NOSIG
ZGHA,2012-09-30 03:00,ZGHA 300300Z VRB01MPS CAVOK 25/07 Q1020 NOSIG
ZGHA,2012-09-30 04:00,ZGHA 300400Z VRB02MPS CAVOK 25/05 Q1019 NOSIG
ZGHA,2012-09-30 05:00,ZGHA 300500Z 04002MPS 340V130 CAVOK 25/07 Q1018 NOSIG
ZGHA,2012-09-30 06:00,ZGHA 300600Z VRB02MPS CAVOK 26/05 Q1017 NOSIG
ZGHA,2012-09-30 07:00,ZGHA 300700Z VRB02MPS CAVOK 26/06 Q1016 NOSIG
ZGHA,2012-09-30 08:00,ZGHA 300800Z 36002MPS 330V060 CAVOK 26/07 Q1016 NOSIG
ZGHA,2012-09-30 09:00,ZGHA 300900Z 36003MPS 340V050 CAVOK 26/08 Q1016 NOSIG
ZGHA,2012-09-30 10:00,ZGHA 301000Z 35003MPS 320V020 CAVOK 24/08 Q1016 NOSIG
ZGHA,2012-09-30 11:00,ZGHA 301100Z 36002MPS CAVOK 22/08 Q1016 NOSIG
ZGHA,2012-09-30 12:00,ZGHA 301200Z 33004MPS CAVOK 21/11 Q1017 NOSIG
ZGHA,2012-09-30 13:00,ZGHA 301300Z 33003MPS CAVOK 20/11 Q1018 NOSIG
ZGHA,2012-09-30 14:00,ZGHA 301400Z 08001MPS CAVOK 19/13 Q1018 NOSIG
ZGHA,2012-09-30 15:00,ZGHA 301500Z 36002MPS CAVOK 19/13 Q1018 NOSIG
ZGHA,2012-09-30 16:00,ZGHA 301600Z 01001MPS CAVOK 18/12 Q1017 NOSIG
ZGHA,2012-09-30 17:00,ZGHA 301700Z 00000MPS 7000 NSC 18/14 Q1017 NOSIG
ZGHA,2012-09-30 18:00,ZGHA 301800Z 01002MPS 7000 NSC 17/14 Q1017 NOSIG
ZGHA,2012-09-30 19:00,ZGHA 301900Z VRB01MPS 8000 NSC 17/13 Q1017 NOSIG
ZGHA,2012-09-30 20:00,ZGHA 302000Z 36002MPS 7000 NSC 16/13 Q1016 NOSIG
ZGHA,2012-09-30 21:00,ZGHA 302100Z 36002MPS CAVOK 17/13 Q1017 NOSIG
ZGHA,2012-09-30 22:00,ZGHA 302200Z 01002MPS 360V060 CAVOK 16/13 Q1017 NOSIG
ZGHA,2012-09-30 23:00,ZGHA 302300Z 05001MPS CAVOK 16/14 Q1018 NOSIG
ZGHA,2012-10-01 00:00,ZGHA 010000Z VRB01MPS CAVOK 18/14 Q1018 NOSIG
ZGHA,2012-10-01 01:00,ZGHA 010100Z VRB01MPS CAVOK 20/13 Q1019 NOSIG
ZGHA,2012-10-01 02:00,ZGHA 010200Z VRB02MPS CAVOK 23/12 Q1019 NOSIG
ZGHA,2012-10-01 03:00,ZGHA 010300Z VRB02MPS CAVOK 24/10 Q1018 NOSIG
ZGHA,2012-10-01 04:00,ZGHA 010400Z VRB01MPS CAVOK 26/10 Q1018 NOSIG
ZGHA,2012-10-01 05:00,ZGHA 010500Z 06001MPS CAVOK 26/09 Q1017 NOSIG
ZGHA,2012-10-01 06:00,ZGHA 010600Z 06001MPS CAVOK 27/09 Q1016 NOSIG
ZGHA,2012-10-01 07:00,ZGHA 010700Z VRB02MPS CAVOK 27/07 Q1015 NOSIG
ZGHA,2012-10-01 08:00,ZGHA 010800Z VRB02MPS CAVOK 28/08 Q1015 NOSIG
ZGHA,2012-10-01 09:00,ZGHA 010900Z 01002MPS 340V040 CAVOK 27/08 Q1015 NOSIG
ZGHA,2012-10-01 10:00,ZGHA 011000Z 01002MPS 340V040 CAVOK 25/09 Q1015 NOSIG
ZGHA,2012-10-01 11:00,ZGHA 011100Z VRB01MPS CAVOK 21/15 Q1015 NOSIG
ZGHA,2012-10-01 12:00,ZGHA 011200Z VRB01MPS CAVOK 19/14 Q1016 NOSIG
ZGHA,2012-10-01 13:00,ZGHA 011300Z 12001MPS 7000 NSC 19/15 Q1017 NOSIG
ZGHA,2012-10-01 14:00,ZGHA 011400Z VRB01MPS 7000 NSC 19/14 Q1017 NOSIG
ZGHA,2012-10-01 15:00,ZGHA 011500Z 11001MPS 6000 NSC 18/15 Q1017 NOSIG
ZGHA,2012-10-01 16:00,ZGHA 011600Z VRB01MPS 6000 NSC 17/14 Q1017 NOSIG
ZGHA,2012-10-01 17:00,ZGHA 011700Z 04002MPS 5000 BR NSC 17/14 Q1017 NOSIG
ZGHA,2012-10-01 18:00,ZGHA 011800Z VRB01MPS 6000 NSC 16/14 Q1017 NOSIG
ZGHA,2012-10-01 19:00,ZGHA 011900Z VRB01MPS 6000 NSC 16/13 Q1017 NOSIG
ZGHA,2012-10-01 20:00,ZGHA 012000Z 00000MPS 6000 NSC 15/13 Q1017 NOSIG
ZGHA,2012-10-01 21:00,ZGHA 012100Z VRB01MPS 5000 BR NSC 14/13 Q1017 NOSIG
ZGHA,2012-10-01 22:00,ZGHA 012200Z 02001MPS 4500 BR NSC 14/13 Q1017 NOSIG
ZGHA,2012-10-01 23:00,ZGHA 012300Z 00000MPS 5000 BR NSC 14/13 Q1017 NOSIG
ZGHA,2012-10-02 00:00,ZGHA 020000Z 00000MPS 7000 NSC 18/13 Q1017 NOSIG
ZGHA,2012-10-02 01:00,ZGHA 020100Z 05002MPS 350V100 CAVOK 20/13 Q1018 NOSIG
ZGHA,2012-10-02 02:00,ZGHA 020200Z VRB01MPS CAVOK 22/13 Q1018 NOSIG
ZGHA,2012-10-02 03:00,ZGHA 020300Z VRB02MPS CAVOK 25/11 Q1017 NOSIG
ZGHA,2012-10-02 04:00,ZGHA 020400Z 18002MPS 140V240 CAVOK 27/11 Q1016 NOSIG
ZGHA,2012-10-02 05:00,ZGHA 020500Z VRB02MPS CAVOK 27/10 Q1015 NOSIG
ZGHA,2012-10-02 06:00,ZGHA 020600Z 03002MPS 330V070 CAVOK 28/10 Q1013 NOSIG
ZGHA,2012-10-02 07:00,ZGHA 020700Z VRB02MPS CAVOK 28/09 Q1012 NOSIG
ZGHA,2012-10-02 08:00,ZGHA 020800Z VRB01MPS CAVOK 28/09 Q1012 NOSIG
ZGHA,2012-10-02 09:00,ZGHA 020900Z 00000MPS CAVOK 29/09 Q1012 NOSIG
ZGHA,2012-10-02 10:00,ZGHA 021000Z VRB01MPS CAVOK 25/13 Q1012 NOSIG
ZGHA,2012-10-02 11:00,ZGHA 021100Z 00000MPS CAVOK 23/15 Q1013 NOSIG
ZGHA,2012-10-02 12:00,ZGHA 021200Z VRB01MPS CAVOK 21/14 Q1014 NOSIG
ZGHA,2012-10-02 13:00,ZGHA 021300Z VRB01MPS CAVOK 21/14 Q1014 NOSIG
ZGHA,2012-10-02 14:00,ZGHA 021400Z 04002MPS CAVOK 19/15 Q1014 NOSIG
ZGHA,2012-10-02 15:00,ZGHA 021500Z 07001MPS CAVOK 19/14 Q1014 NOSIG
ZGHA,2012-10-02 16:00,ZGHA 021600Z 04002MPS 360V100 CAVOK 19/14 Q1013 NOSIG
ZGHA,2012-10-02 17:00,ZGHA 021700Z VRB01MPS 6000 NSC 18/14 Q1013 NOSIG
ZGHA,2012-10-02 18:00,ZGHA 021800Z 23001MPS 6000 NSC 18/14 Q1013 NOSIG
ZGHA,2012-10-02 19:00,ZGHA 021900Z VRB01MPS 6000 NSC 18/14 Q1013 NOSIG
ZGHA,2012-10-02 20:00,ZGHA 022000Z VRB01MPS 6000 NSC 18/15 Q1013 NOSIG
ZGHA,2012-10-02 21:00,ZGHA 022100Z 02001MPS 8000 NSC 18/14 Q1013 NOSIG
ZGHA,2012-10-02 22:00,ZGHA 022200Z VRB01MPS 8000 NSC 18/15 Q1014 NOSIG
ZGHA,2012-10-02 23:00,ZGHA 022300Z 09001MPS 5000 BR NSC 18/15 Q1014 NOSIG
ZGHA,2012-10-03 00:00,ZGHA 030000Z VRB01MPS 5000 -RA BR FEW050 19/15 Q1014 NOSIG
ZGHA,2012-10-03 01:00,ZGHA 030100Z 18002MPS 150V240 5000 BR FEW050 20/15 Q1014 NOSIG
ZGHA,2012-10-03 02:00,ZGHA 030200Z VRB01MPS 6000 FEW050 22/15 Q1014 NOSIG
ZGHA,2012-10-03 03:00,ZGHA 030300Z VRB01MPS 7000 NSC 23/14 Q1014 NOSIG
ZGHA,2012-10-03 04:00,ZGHA 030400Z 28001MPS 6000 NSC 24/15 Q1013 NOSIG
ZGHA,2012-10-03 05:00,ZGHA 030500Z 25002MPS 170V310 7000 NSC 25/13 Q1012 NOSIG
ZGHA,2012-10-03 06:00,ZGHA 030600Z VRB02MPS 6000 FEW040 25/15 Q1012 NOSIG
ZGHA,2012-10-03 07:00,ZGHA 030700Z 31002MPS 280V010 6000 SCT040 25/13 Q1011 NOSIG
ZGHA,2012-10-03 08:00,ZGHA 030800Z 33004MPS 4500 HZ NSC 24/15 Q1011 NOSIG
ZGHA,2012-10-03 09:00,ZGHA 030900Z 32004MPS 3500 HZ NSC 24/15 Q1012 NOSIG
ZGHA,2012-10-03 10:00,ZGHA 031000Z 32004MPS 3000 HZ SCT050 23/15 Q1012 NOSIG
ZGHA,2012-10-03 11:00,ZGHA 031100Z 32003MPS 3000 HZ SCT050 22/15 Q1012 BECMG TL1200 2500
ZGHA,2012-10-03 12:00,ZGHA 031200Z 32003MPS 3000 BR SCT050 21/16 Q1012 BECMG TL1300 2500
ZGHA,2012-10-03 13:00,ZGHA 031300Z 33003MPS 3000 BR NSC 21/15 Q1013 NOSIG
ZGHA,2012-10-03 14:00,ZGHA 031400Z 35003MPS 3000 BR NSC 20/16 Q1013 NOSIG
ZGHA,2012-10-03 15:00,ZGHA 031500Z 36003MPS 3000 BR NSC 20/16 Q1013 NOSIG
ZGHA,2012-10-03 16:00,ZGHA 031600Z VRB01MPS 3000 BR NSC 19/16 Q1013 NOSIG
ZGHA,2012-10-03 17:00,ZGHA 031700Z 01003MPS 350V060 3000 BR NSC 19/15 Q1013 NOSIG
ZGHA,2012-10-03 18:00,ZGHA 031800Z 36002MPS 3000 BR NSC 19/15 Q1013 NOSIG
ZGHA,2012-10-03 19:00,ZGHA 031900Z 01003MPS 3000 BR NSC 19/15 Q1012 NOSIG
ZGHA,2012-10-03 20:00,ZGHA 032000Z 01002MPS 3000 -SHRA BR NSC 19/15 Q1012 NOSIG
ZGHA,2012-10-03 21:00,ZGHA 032100Z 35002MPS 310V030 4000 BR NSC 19/15 Q1012 NOSIG
ZGHA,2012-10-03 22:00,ZGHA 032200Z 31002MPS 280V340 4000 BR NSC 19/14 Q1013 NOSIG
ZGHA,2012-10-03 23:00,ZGHA 032300Z 01002MPS 2700 BR NSC 19/15 Q1013 BECMG TL2400 3500
ZGHA,2012-10-04 00:00,ZGHA 040000Z 00000MPS 2800 BR NSC 19/16 Q1014 BECMG TL0100 3500
ZGHA,2012-10-04 01:00,ZGHA 040100Z 01002MPS 340V040 2700 BR NSC 20/15 Q1014 BECMG TL0200 3500
ZGHA,2012-10-04 02:00,ZGHA 040200Z 35003MPS 320V030 3000 HZ NSC 21/15 Q1014 NOSIG
ZGHA,2012-10-04 03:00,ZGHA 040300Z 01002MPS 330V060 2500 HZ NSC 22/16 Q1014 BECMG TL0430 3300
ZGHA,2012-10-04 04:00,ZGHA 040400Z 01002MPS 340V050 2700 HZ NSC 22/15 Q1014 BECMG TL0500 3300
ZGHA,2012-10-04 05:00,ZGHA 040500Z VRB01MPS 3000 HZ NSC 23/16 Q1013 NOSIG
ZGHA,2012-10-04 06:00,ZGHA 040600Z 36002MPS 330V060 3000 HZ NSC 23/16 Q1012 NOSIG
ZGHA,2012-10-04 07:00,ZGHA 040700Z 33004MPS 3000 HZ NSC 23/16 Q1012 BECMG 2500
ZGHA,2012-10-04 08:00,ZGHA 040800Z 32004MPS 3500 HZ NSC 22/15 Q1013 NOSIG
ZGHA,2012-10-04 09:00,ZGHA 040900Z 32003MPS 290V350 3200 HZ NSC 21/15 Q1013 NOSIG
ZGHA,2012-10-04 10:00,ZGHA 041000Z 32003MPS 290V350 2700 BR NSC 21/16 Q1013 NOSIG
ZGHA,2012-10-04 11:00,ZGHA 041100Z 33003MPS 2700 BR NSC 20/16 Q1014 NOSIG
ZGHA,2012-10-04 12:00,ZGHA 041200Z 32003MPS 300V360 2500 BR NSC 20/15 Q1015 NOSIG
ZGHA,2012-10-04 13:00,ZGHA 041300Z 33005MPS 2300 BR NSC 20/16 Q1015 NOSIG
ZGHA,2012-10-04 14:00,ZGHA 041400Z 33004MPS 2200 BR NSC 19/16 Q1015 NOSIG
ZGHA,2012-10-04 15:00,ZGHA 041500Z 35003MPS 2200 BR NSC 19/16 Q1015 NOSIG
ZGHA,2012-10-04 16:00,ZGHA 041600Z 32003MPS 2100 BR SCT009 19/16 Q1015 NOSIG
ZGHA,2012-10-04 17:00,ZGHA 041700Z 33003MPS 2100 BR FEW009 19/16 Q1015 NOSIG
ZGHA,2012-10-04 18:00,ZGHA 041800Z 31003MPS 2300 BR SCT009 19/16 Q1015 NOSIG
ZGHA,2012-10-04 19:00,ZGHA 041900Z 32003MPS 2500 BR SCT009 19/16 Q1015 NOSIG
ZGHA,2012-10-04 20:00,ZGHA 042000Z 31003MPS 2200 BR SCT008 18/16 Q1015 NOSIG
ZGHA,2012-10-04 21:00,ZGHA 042100Z 33003MPS 2200 BR NSC 18/16 Q1015 NOSIG
ZGHA,2012-10-04 22:00,ZGHA 042200Z 32003MPS 1800 BR NSC 18/16 Q1016 NOSIG
ZGHA,2012-10-04 23:00,ZGHA 042300Z 31003MPS 2100 BR SCT009 18/15 Q1016 BECMG 3000
ZGHA,2012-10-05 00:00,ZGHA 050000Z 33004MPS 2200 BR SCT015 19/15 Q1017 BECMG TL0130 3000
ZGHA,2012-10-05 01:00,ZGHA 050100Z 32004MPS 2000 BR SCT015 19/15 Q1018 BECMG 3000
ZGHA,2012-10-05 02:00,ZGHA 050200Z 32004MPS 1800 BR SCT010 OVC050 19/16 Q1018 NOSIG
ZGHA,2012-10-05 03:00,ZGHA 050300Z 34004MPS 2000 BR SCT010 OVC050 20/16 Q1018 NOSIG
ZGHA,2012-10-05 04:00,ZGHA 050400Z 35005MPS 2500 BR SCT011 OVC050 21/16 Q1018 NOSIG
ZGHA,2012-10-05 05:00,ZGHA 050500Z 34005MPS 3000 BR SCT011 OVC050 20/15 Q1017 NOSIG
ZGHA,2012-10-05 06:00,ZGHA 050600Z 36004MPS 3500 BR SCT011 OVC050 20/15 Q1017 NOSIG
ZGHA,2012-10-05 07:00,ZGHA 050700Z 01004MPS 330V070 3500 BR SCT011 OVC050 20/15 Q1017 NOSIG
ZGHA,2012-10-05 08:00,ZGHA 050800Z 36005MPS 3000 BR SCT011 OVC050 20/15 Q1017 NOSIG
ZGHA,2012-10-05 09:00,ZGHA 050900Z 36005MPS 2500 BR SCT011 OVC050 19/15 Q1017 NOSIG
ZGHA,2012-10-05 10:00,ZGHA 051000Z 34005MPS 3000 BR SCT011 OVC050 19/15 Q1017 BECMG 2500
ZGHA,2012-10-05 11:00,ZGHA 051100Z 34005MPS 3500 BR SCT020 OVC050 19/15 Q1018 NOSIG
ZGHA,2012-10-05 12:00,ZGHA 051200Z 34005MPS 2800 -RA BR SCT012 BKN020 OVC050 19/15 Q1019 NOSIG
ZGHA,2012-10-05 13:00,ZGHA 051300Z 35004MPS 2500 BR BKN020 OVC050 18/15 Q1020 NOSIG
ZGHA,2012-10-05 14:00,ZGHA 051400Z 35004MPS 2800 BR BKN020 OVC050 18/15 Q1020 NOSIG
ZGHA,2012-10-05 15:00,ZGHA 051500Z 34005MPS 3000 BR BKN020 OVC050 18/15 Q1020 NOSIG
ZGHA,2012-10-05 16:00,ZGHA 051600Z 35005MPS 2800 BR BKN020 OVC050 17/15 Q1020 NOSIG
ZGHA,2012-10-05 17:00,ZGHA 051700Z 36006MPS 2200 -RA BR SCT009 BKN020 OVC040 17/15 Q1020 NOSIG
ZGHA,2012-10-05 18:00,ZGHA 051800Z 36004MPS 2500 -RA BR SCT009 BKN020 OVC040 17/15 Q1021 NOSIG
ZGHA,2012-10-05 19:00,ZGHA 051900Z 35004MPS 2400 -RA BR SCT009 BKN020 OVC040 17/15 Q1021 NOSIG
ZGHA,2012-10-05 20:00,ZGHA 052000Z 35003MPS 2400 -RA BR SCT009 BKN020 OVC040 17/15 Q1020 NOSIG
ZGHA,2012-10-05 21:00,ZGHA 052100Z 36004MPS 2500 -RA BR SCT009 BKN020 OVC040 17/15 Q1021 NOSIG
ZGHA,2012-10-05 22:00,ZGHA 052200Z 36003MPS 2000 -RA BR SCT009 BKN020 OVC040 16/15 Q1021 NOSIG
ZGHA,2012-10-05 23:00,ZGHA 052300Z 36002MPS 1800 -RA BR SCT009 BKN020 OVC040 16/15 Q1021 NOSIG
ZGHA,2012-10-06 00:00,ZGHA 060000Z 01003MPS 2000 BR SCT012 BKN020 OVC050 17/15 Q1022 NOSIG
ZGHA,2012-10-06 01:00,ZGHA 060100Z 36005MPS 2300 BR SCT008 BKN020 OVC050 17/16 Q1022 BECMG 3000
ZGHA,2012-10-06 02:00,ZGHA 060200Z 35004MPS 2500 BR SCT008 BKN023 OVC050 18/16 Q1022 NOSIG
ZGHA,2012-10-06 03:00,ZGHA 060300Z 01003MPS 340V060 3000 BR FEW010 BKN023 19/16 Q1022 NOSIG
ZGHA,2012-10-06 04:00,ZGHA 060400Z VRB02MPS 4500 BR SCT020 20/15 Q1021 NOSIG
ZGHA,2012-10-06 05:00,ZGHA 060500Z VRB01MPS 5000 HZ SCT020 21/15 Q1021 NOSIG
ZGHA,2012-10-06 06:00,ZGHA 060600Z 29003MPS 260V340 5000 HZ SCT023 22/15 Q1020 NOSIG
ZGHA,2012-10-06 07:00,ZGHA 060700Z 32003MPS 5000 HZ SCT030 22/15 Q1020 NOSIG
ZGHA,2012-10-06 08:00,ZGHA 060800Z 27003MPS 220V310 5000 HZ SCT040 22/15 Q1020 NOSIG
ZGHA,2012-10-06 09:00,ZGHA 060900Z 27003MPS 250V320 4500 HZ SCT050 21/15 Q1020 NOSIG
ZGHA,2012-10-06 10:00,ZGHA 061000Z 28002MPS 240V310 4000 BR SCT050 21/16 Q1020 NOSIG
ZGHA,2012-10-06 11:00,ZGHA 061100Z 28002MPS 260V330 4000 BR SCT050 21/16 Q1020 NOSIG
ZGHA,2012-10-06 12:00,ZGHA 061200Z VRB01MPS 3500 BR FEW033 20/16 Q1021 NOSIG
ZGHA,2012-10-06 13:00,ZGHA 061300Z 17001MPS 3200 BR BKN050 20/16 Q1021 NOSIG
ZGHA,2012-10-06 14:00,ZGHA 061400Z VRB01MPS 3000 BR FEW050 20/16 Q1021 BECMG TL1440 2300
ZGHA,2012-10-06 15:00,ZGHA 061500Z 00000MPS 2700 BR FEW050 19/17 Q1021 NOSIG
ZGHA,2012-10-06 16:00,ZGHA 061600Z 00000MPS 2700 BR SCT050 19/17 Q1021 NOSIG
ZGHA,2012-10-06 17:00,ZGHA 061700Z VRB01MPS 2500 BR BKN050 19/17 Q1021 NOSIG
ZGHA,2012-10-06 18:00,ZGHA 061800Z 00000MPS 2500 BR NSC 19/17 Q1020 NOSIG
ZGHA,2012-10-06 19:00,ZGHA 061900Z 36001MPS 2500 BR NSC 19/17 Q1020 NOSIG
ZGHA,2012-10-06 20:00,ZGHA 062000Z 35002MPS 2500 BR NSC 19/17 Q1020 NOSIG
ZGHA,2012-10-06 21:00,ZGHA 062100Z 36002MPS 2200 BR NSC 19/17 Q1020 NOSIG
ZGHA,2012-10-06 22:00,ZGHA 062200Z 36001MPS 2200 BR NSC 18/16 Q1020 NOSIG
ZGHA,2012-10-06 23:00,ZGHA 062300Z 36001MPS 1600 BR NSC 19/17 Q1021 BECMG 3000
ZGHA,2012-10-07 00:00,ZGHA 070000Z 02002MPS 350V050 1700 BR NSC 19/17 Q1021 BECMG 3000
ZGHA,2012-10-07 01:00,ZGHA 070100Z 36002MPS 1700 BR NSC 20/17 Q1021 BECMG TL0200 3100
ZGHA,2012-10-07 02:00,ZGHA 070200Z VRB01MPS 3000 BR NSC 21/16 Q1021 NOSIG
ZGHA,2012-10-07 03:00,ZGHA 070300Z VRB01MPS 4000 HZ NSC 23/17 Q1021 NOSIG
ZGHA,2012-10-07 04:00,ZGHA 070400Z 36002MPS 320V040 4500 HZ NSC 24/16 Q1020 NOSIG
ZGHA,2012-10-07 05:00,ZGHA 070500Z 35003MPS 300V030 5000 HZ NSC 24/16 Q1019 NOSIG
ZGHA,2012-10-07 06:00,ZGHA 070600Z 36003MPS 330V030 5000 HZ NSC 24/16 Q1018 NOSIG
ZGHA,2012-10-07 07:00,ZGHA 070700Z 01005MPS 5000 HZ NSC 24/15 Q1018 NOSIG
ZGHA,2012-10-07 08:00,ZGHA 070800Z 36004MPS 5000 HZ NSC 23/15 Q1018 NOSIG
ZGHA,2012-10-07 09:00,ZGHA 070900Z 01003MPS 4500 HZ NSC 23/16 Q1018 NOSIG
ZGHA,2012-10-07 10:00,ZGHA 071000Z 36004MPS 3000 BR NSC 22/16 Q1018 BECMG TL1100 2500
ZGHA,2012-10-07 11:00,ZGHA 071100Z 36003MPS 3000 BR NSC 21/16 Q1019 BECMG TL1200 2500
ZGHA,2012-10-07 12:00,ZGHA 071200Z 36003MPS 3000 BR NSC 21/16 Q1019 BECMG TL1300 2500
ZGHA,2012-10-07 13:00,ZGHA 071300Z 35004MPS 2700 BR NSC 21/16 Q1019 NOSIG
ZGHA,2012-10-07 14:00,ZGHA 071400Z 35003MPS 2700 BR NSC 21/16 Q1019 NOSIG
ZGHA,2012-10-07 15:00,ZGHA 071500Z 34003MPS 2700 BR NSC 21/16 Q1019 NOSIG
ZGHA,2012-10-07 16:00,ZGHA 071600Z 34002MPS 320V020 2700 BR NSC 20/16 Q1019 NOSIG
ZGHA,2012-10-07 17:00,ZGHA 071700Z 35003MPS 2700 BR NSC 20/16 Q1019 NOSIG
ZGHA,2012-10-07 18:00,ZGHA 071800Z 33003MPS 2500 BR NSC 20/16 Q1019 NOSIG
ZGHA,2012-10-07 19:00,ZGHA 071900Z 31003MPS 1800 BR NSC 20/17 Q1018 NOSIG
ZGHA,2012-10-07 20:00,ZGHA 072000Z 33002MPS 300V010 1800 BR NSC 19/17 Q1018 NOSIG
ZGHA,2012-10-07 21:00,ZGHA 072100Z 33003MPS 1700 -RA BR SCT040 19/17 Q1018 NOSIG
ZGHA,2012-10-07 22:00,ZGHA 072200Z 32002MPS 1400 R36/1400 BR SCT040 19/17 Q1019 NOSIG
ZGHA,2012-10-07 23:00,ZGHA 072300Z VRB01MPS 0900 R36/0900 FG SCT040 19/17 Q1019 NOSIG
ZGHA,2012-10-08 00:00,ZGHA 080000Z 34002MPS 310V010 0900 R36/0900 FG NSC 20/17 Q1019 BECMG TL0200 1600 BR
ZGHA,2012-10-08 01:00,ZGHA 080100Z 36004MPS 0900 R36/0800 FG SCT009 20/17 Q1020 BECMG TL0200 1800 BR
ZGHA,2012-10-08 02:00,ZGHA 080200Z 36004MPS 1200 R36/0800 BR SCT013 21/17 Q1020 BECMG TL0300 1800
ZGHA,2012-10-08 03:00,ZGHA 080300Z 02003MPS 340V060 1600 R36/1100 BR FEW013 22/17 Q1019 BECMG TL0400 3000
ZGHA,2012-10-08 04:00,ZGHA 080400Z 36003MPS 310V070 1800 HZ FEW015 22/16 Q1018 BECMG TL0500 3000
ZGHA,2012-10-08 05:00,ZGHA 080500Z 35004MPS 320V020 2200 HZ NSC 23/16 Q1017 NOSIG
ZGHA,2012-10-08 06:00,ZGHA 080600Z 36005MPS 3000 HZ NSC 23/16 Q1017 NOSIG
ZGHA,2012-10-08 07:00,ZGHA 080700Z 36005MPS 330V050 3500 HZ NSC 23/15 Q1016 NOSIG
ZGHA,2012-10-08 08:00,ZGHA 080800Z 35005MPS 2700 HZ NSC 22/16 Q1016 NOSIG
ZGHA,2012-10-08 09:00,ZGHA 080900Z 35005MPS 1800 R36/1400 HZ SCT050 21/17 Q1016 NOSIG
ZGHA,2012-10-08 10:00,ZGHA 081000Z 35005MPS 1700 BR SCT050 21/17 Q1016 NOSIG
ZGHA,2012-10-08 11:00,ZGHA 081100Z 34004MPS 1600 BR SCT050 21/17 Q1017 BECMG TL1200 1400
ZGHA,2012-10-08 12:00,ZGHA 081200Z 32004MPS 1800 BR NSC 20/16 Q1018 NOSIG
ZGHA,2012-10-08 13:00,ZGHA 081300Z 36002MPS 340V040 1700 BR NSC 20/16 Q1018 NOSIG
ZGHA,2012-10-08 14:00,ZGHA 081400Z 34003MPS 1700 BR NSC 20/16 Q1018 NOSIG
ZGHA,2012-10-08 15:00,ZGHA 081500Z 32003MPS 1600 BR NSC 19/16 Q1018 BECMG TL1700 1400
ZGHA,2012-10-08 16:00,ZGHA 081600Z 34003MPS 1600 BR NSC 19/16 Q1018 BECMG TL1800 1100
ZGHA,2012-10-08 17:00,ZGHA 081700Z 34003MPS 1600 BR NSC 19/16 Q1017 BECMG TL1900 1400
ZGHA,2012-10-08 18:00,ZGHA 081800Z 35004MPS 1600 BR NSC 19/16 Q1017 NOSIG
ZGHA,2012-10-08 19:00,ZGHA 081900Z 35004MPS 1400 R36/P2000 BR NSC 18/16 Q1017 NOSIG
ZGHA,2012-10-08 20:00,ZGHA 082000Z 35004MPS 1600 BR NSC 18/16 Q1017 NOSIG
ZGHA,2012-10-08 21:00,ZGHA 082100Z 34004MPS 1400 R36/1900 BR SCT030 18/16 Q1017 NOSIG
ZGHA,2012-10-08 22:00,ZGHA 082200Z 35004MPS 1600 BR SCT020 18/16 Q1018 NOSIG
ZGHA,2012-10-08 23:00,ZGHA 082300Z 34004MPS 1300 R36/1700 BR SCT011 OVC050 18/16 Q1019 NOSIG
ZGHA,2012-10-09 00:00,ZGHA 090000Z 34005MPS 1400 R36/1300 BR SCT013 OVC050 18/15 Q1019 BECMG TL0200 1600
ZGHA,2012-10-09 01:00,ZGHA 090100Z 30003MPS 1400 R36/1200 BR SCT013 OVC040 18/16 Q1020 BECMG TL0145 1700
ZGHA,2012-10-09 02:00,ZGHA 090200Z 30002MPS 280V360 1800 R36/1200 BR SCT013 OVC040 19/16 Q1020 NOSIG
ZGHA,2012-10-09 03:00,ZGHA 090300Z 30002MPS 260V340 2000 R36/1100 BR SCT013 OVC050 19/16 Q1019 NOSIG
ZGHA,2012-10-09 04:00,ZGHA 090400Z 33002MPS 280V010 2700 R36/1300 BR BKN020 OVC050 20/15 Q1019 BECMG TL0500 3500
ZGHA,2012-10-09 05:00,ZGHA 090500Z 31003MPS 280V360 2800 R36/1300 BR SCT040 20/15 Q1017 BECMG TL0600 3000
ZGHA,2012-10-09 06:00,ZGHA 090600Z 30003MPS 3000 R36/1300 BR SCT040 21/16 Q1017 NOSIG
ZGHA,2012-10-09 07:00,ZGHA 090700Z 31003MPS 3000 R36/1300 BR BKN020 21/16 Q1016 NOSIG
ZGHA,2012-10-09 08:00,ZGHA 090800Z 33003MPS 3200 R36/1400 BR SCT020 21/16 Q1017 NOSIG
ZGHA,2012-10-09 09:00,ZGHA 090900Z 31003MPS 3500 BR SCT020 21/16 Q1017 NOSIG
ZGHA,2012-10-09 10:00,ZGHA 091000Z 29002MPS 270V340 3200 BR SCT040 21/16 Q1017 NOSIG
ZGHA,2012-10-09 11:00,ZGHA 091100Z 28002MPS 270V340 3500 BR SCT040 20/16 Q1018 NOSIG
ZGHA,2012-10-09 13:00,ZGHA 091300Z VRB01MPS 3000 BR SCT040 19/16 Q1018 BECMG TL1400 2500
ZGHA,2012-10-09 14:00,ZGHA 091400Z VRB01MPS 3000 BR SCT040 18/16 Q1018 BECMG TL1500 2200
ZGHA,2012-10-09 15:00,ZGHA 091500Z 04002MPS 2000 BR NSC 17/16 Q1018 BECMG TL1700 1300
ZGHA,2012-10-09 16:00,ZGHA 091600Z 02001MPS 2000 BR NSC 17/16 Q1018 NOSIG
ZGHA,2012-10-09 17:00,ZGHA 091700Z 04002MPS 1800 R36/1200 BR NSC 17/16 Q1018 NOSIG
ZGHA,2012-10-09 18:00,ZGHA 091800Z 03001MPS 1700 R36/1400 BR NSC 16/15 Q1018 NOSIG
ZGHA,2012-10-09 19:00,ZGHA 091900Z 02002MPS 0800 R36/1200 FG VV009 16/15 Q1018 NOSIG
ZGHA,2012-10-09 20:00,ZGHA 092000Z 02001MPS 0600 R36/0225 FG VV009 16/15 Q1018 NOSIG
ZGHA,2012-10-09 21:00,ZGHA 092100Z 00000MPS 0200 R36/0150 FG VV007 16/15 Q1019 NOSIG
ZGHA,2012-10-09 22:00,ZGHA 092200Z 00000MPS 0200 R36/0150 FG VV007 15/15 Q1019 NOSIG
ZGHA,2012-10-09 23:00,ZGHA 092300Z VRB01MPS 0150 R36/0175 FG VV006 16/15 Q1020 BECMG TL2400 0400
ZGHA,2012-10-10 00:00,ZGHA 100000Z VRB01MPS 0100 R36/0125 FG VV004 17/16 Q1020 BECMG TL0100 0400
ZGHA,2012-10-10 01:00,ZGHA 100100Z VRB01MPS 0400 R36/0225 FG BKN007 17/16 Q1020 BECMG TL0130 0700
ZGHA,2012-10-10 02:00,ZGHA 100200Z 08002MPS 040V110 1400 R36/0750 BR SCT010 19/18 Q1020 BECMG TL0300 2700
ZGHA,2012-10-10 03:00,ZGHA 100300Z VRB01MPS 2100 R36/0800 BR FEW010 22/17 Q1020 BECMG TL0400 3000
ZGHA,2012-10-10 04:00,ZGHA 100400Z VRB01MPS 2500 R36/0900 HZ NSC 24/16 Q1019 BECMG TL0500 3500
ZGHA,2012-10-10 05:00,ZGHA 100500Z 04002MPS 330V110 2700 R36/1100 HZ NSC 26/14 Q1017 BECMG TL0600 3500
ZGHA,2012-10-10 06:00,ZGHA 100600Z 06001MPS 3500 R36/1200 HZ FEW040 27/13 Q1016 NOSIG
ZGHA,2012-10-10 07:00,ZGHA 100700Z 34004MPS 300V010 5000 HZ FEW040 28/10 Q1016 NOSIG
ZGHA,2012-10-10 08:00,ZGHA 100800Z 01004MPS 6000 FEW040 27/10 Q1015 NOSIG
ZGHA,2012-10-10 09:00,ZGHA 100900Z 34005MPS 6000 NSC 26/11 Q1015 NOSIG
ZGHA,2012-10-10 10:00,ZGHA 101000Z 34006MPS 6000 NSC 24/11 Q1016 NOSIG
ZGHA,2012-10-10 11:00,ZGHA 101100Z 34005MPS 6000 NSC 23/11 Q1016 NOSIG
ZGHA,2012-10-10 12:00,ZGHA 101200Z 35004MPS 7000 NSC 22/09 Q1017 NOSIG
ZGHA,2012-10-10 13:00,ZGHA 101300Z VRB01MPS 6000 NSC 19/11 Q1017 NOSIG
ZGHA,2012-10-10 14:00,ZGHA 101400Z 01003MPS 7000 NSC 20/10 Q1018 NOSIG
ZGHA,2012-10-10 15:00,ZGHA 101500Z VRB01MPS 7000 NSC 19/12 Q1017 NOSIG
ZGHA,2012-10-10 16:00,ZGHA 101600Z 03002MPS 360V070 6000 NSC 18/12 Q1017 NOSIG
ZGHA,2012-10-10 17:00,ZGHA 101700Z 00000MPS 5000 BR NSC 17/13 Q1017 NOSIG
ZGHA,2012-10-10 18:00,ZGHA 101800Z 36002MPS 4500 BR NSC 17/13 Q1017 NOSIG
ZGHA,2012-10-10 19:00,ZGHA 101900Z 03001MPS 4000 BR NSC 16/14 Q1016 NOSIG
ZGHA,2012-10-10 20:00,ZGHA 102000Z 34002MPS 4000 BR NSC 17/14 Q1017 NOSIG
ZGHA,2012-10-10 21:00,ZGHA 102100Z VRB01MPS 4000 BR NSC 17/14 Q1017 NOSIG
ZGHA,2012-10-10 22:00,ZGHA 102200Z VRB01MPS 3500 BR NSC 17/14 Q1018 NOSIG
ZGHA,2012-10-10 23:00,ZGHA 102300Z 14001MPS 3500 BR NSC 17/15 Q1018 NOSIG
ZGHA,2012-10-11 00:00,ZGHA 110000Z 00000MPS 4000 BR NSC 18/15 Q1018 NOSIG
ZGHA,2012-10-11 01:00,ZGHA 110100Z VRB01MPS 5000 HZ NSC 22/14 Q1018 NOSIG
ZGHA,2012-10-11 02:00,ZGHA 110200Z VRB01MPS 5000 HZ NSC 23/13 Q1019 NOSIG
ZGHA,2012-10-11 03:00,ZGHA 110300Z VRB01MPS 5000 HZ NSC 26/12 Q1018 NOSIG
ZGHA,2012-10-11 04:00,ZGHA 110400Z 08003MPS 010V110 8000 NSC 26/08 Q1017 NOSIG
ZGHA,2012-10-11 05:00,ZGHA 110500Z 10003MPS 030V140 8000 NSC 27/07 Q1016 NOSIG
ZGHA,2012-10-11 06:00,ZGHA 110600Z 05003MPS 010V110 8000 NSC 27/07 Q1015 NOSIG
ZGHA,2012-10-11 07:00,ZGHA 110700Z 01004MPS 340V050 7000 NSC 27/08 Q1015 NOSIG
ZGHA,2012-10-11 08:00,ZGHA 110800Z 02002MPS 320V090 6000 NSC 27/10 Q1014 NOSIG
ZGHA,2012-10-11 09:00,ZGHA 110900Z VRB01MPS 6000 NSC 26/10 Q1014 NOSIG
ZGHA,2012-10-11 10:00,ZGHA 111000Z 32004MPS 4500 HZ NSC 24/14 Q1015 NOSIG
ZGHA,2012-10-11 11:00,ZGHA 111100Z 33003MPS 4000 HZ NSC 23/14 Q1015 NOSIG
ZGHA,2012-10-11 12:00,ZGHA 111200Z VRB02MPS 4200 BR NSC 20/15 Q1016 NOSIG
ZGHA,2012-10-11 13:00,ZGHA 111300Z 16001MPS 3500 BR NSC 19/15 Q1016 NOSIG
ZGHA,2012-10-11 14:00,ZGHA 111400Z 00000MPS 3200 BR NSC 18/15 Q1016 BECMG TL1500 2500
ZGHA,2012-10-11 15:00,ZGHA 111500Z 00000MPS 3000 BR NSC 19/15 Q1016 NOSIG
ZGHA,2012-10-11 16:00,ZGHA 111600Z 28001MPS 3600 BR NSC 19/16 Q1016 NOSIG
ZGHA,2012-10-11 17:00,ZGHA 111700Z 00000MPS 3000 BR NSC 19/16 Q1015 NOSIG
ZGHA,2012-10-11 18:00,ZGHA 111800Z VRB01MPS 2500 BR NSC 19/16 Q1015 NOSIG
ZGHA,2012-10-11 19:00,ZGHA 111900Z 05002MPS 2300 BR NSC 18/16 Q1015 NOSIG
ZGHA,2012-10-11 20:00,ZGHA 112000Z 02001MPS 2100 BR NSC 18/16 Q1015 NOSIG
ZGHA,2012-10-11 21:00,ZGHA 112100Z VRB01MPS 2800 BR NSC 19/14 Q1015 NOSIG
ZGHA,2012-10-11 22:00,ZGHA 112200Z 02001MPS 3500 BR NSC 19/13 Q1015 NOSIG
ZGHA,2012-10-11 23:00,ZGHA 112300Z 03001MPS 5000 BR NSC 18/13 Q1015 NOSIG
ZGHA,2012-10-12 00:00,ZGHA 120000Z VRB01MPS 6000 NSC 19/15 Q1016 NOSIG
ZGHA,2012-10-12 01:00,ZGHA 120100Z VRB01MPS 8000 NSC 20/12 Q1016 NOSIG
ZGHA,2012-10-12 02:00,ZGHA 120200Z VRB01MPS 8000 NSC 22/12 Q1016 NOSIG
ZGHA,2012-10-12 03:00,ZGHA 120300Z 14002MPS 050V210 CAVOK 25/10 Q1016 NOSIG
ZGHA,2012-10-12 04:00,ZGHA 120400Z 11002MPS 030V200 CAVOK 26/09 Q1015 NOSIG
ZGHA,2012-10-12 05:00,ZGHA 120500Z VRB01MPS CAVOK 27/08 Q1014 NOSIG
ZGHA,2012-10-12 06:00,ZGHA 120600Z 11002MPS 050V170 CAVOK 27/10 Q1013 NOSIG
ZGHA,2012-10-12 07:00,ZGHA 120700Z 01002MPS 320V080 CAVOK 27/08 Q1013 NOSIG
ZGHA,2012-10-12 08:00,ZGHA 120800Z 01002MPS 330V040 CAVOK 27/09 Q1013 NOSIG
ZGHA,2012-10-12 09:00,ZGHA 120900Z 36005MPS 7000 NSC 25/13 Q1013 NOSIG
ZGHA,2012-10-12 10:00,ZGHA 121000Z 01004MPS 3500 HZ NSC 23/13 Q1013 NOSIG
ZGHA,2012-10-12 11:00,ZGHA 121100Z 36004MPS 4000 HZ NSC 22/14 Q1014 NOSIG
ZGHA,2012-10-12 12:00,ZGHA 121200Z 36003MPS 3500 HZ NSC 21/14 Q1015 NOSIG
ZGHA,2012-10-12 13:00,ZGHA 121300Z 36002MPS 3000 HZ NSC 21/15 Q1015 NOSIG
ZGHA,2012-10-12 14:00,ZGHA 121400Z 32003MPS 3000 HZ NSC 21/15 Q1015 BECMG 2500
ZGHA,2012-10-12 15:00,ZGHA 121500Z 33003MPS 2700 HZ NSC 21/15 Q1015 NOSIG
ZGHA,2012-10-12 16:00,ZGHA 121600Z 34003MPS 2700 HZ NSC 21/15 Q1015 NOSIG
ZGHA,2012-10-12 17:00,ZGHA 121700Z 32003MPS 2700 BR NSC 20/15 Q1015 NOSIG
ZGHA,2012-10-12 18:00,ZGHA 121800Z 33004MPS 2700 BR NSC 20/15 Q1015 NOSIG
ZGHA,2012-10-12 19:00,ZGHA 121900Z VRB01MPS 2700 BR NSC 19/15 Q1014 NOSIG
ZGHA,2012-10-12 20:00,ZGHA 122000Z 01002MPS 2500 BR NSC 19/14 Q1014 NOSIG
ZGHA,2012-10-12 21:00,ZGHA 122100Z 36004MPS 2200 BR NSC 19/15 Q1014 NOSIG
ZGHA,2012-10-12 22:00,ZGHA 122200Z 33002MPS 2200 BR NSC 19/14 Q1014 NOSIG
ZGHA,2012-10-12 23:00,ZGHA 122300Z 33003MPS 1600 BR NSC 19/15 Q1015 NOSIG
ZGHA,2012-10-13 00:00,ZGHA 130000Z 33003MPS 2000 BR NSC 19/15 Q1015 BECMG TL0200 3500
ZGHA,2012-10-13 01:00,ZGHA 130100Z 33002MPS 310V010 1800 BR NSC 20/15 Q1016 BECMG TL0300 3500
ZGHA,2012-10-13 02:00,ZGHA 130200Z 33003MPS 300V010 2000 HZ NSC 22/15 Q1016 BECMG TL0400 3500
ZGHA,2012-10-13 03:00,ZGHA 130300Z 35003MPS 300V040 2200 HZ SCT015 23/15 Q1015 BECMG TL0400 3100
ZGHA,2012-10-13 04:00,ZGHA 130400Z 31004MPS 270V340 2500 HZ NSC 24/15 Q1015 BECMG TL0600 3500
ZGHA,2012-10-13 05:00,ZGHA 130500Z 31005MPS 270V340 2700 HZ SCT020 24/14 Q1014 BECMG TL0600 3100
ZGHA,2012-10-13 06:00,ZGHA 130600Z 30005MPS 270V330 3000 HZ SCT020 23/14 Q1013 NOSIG
ZGHA,2012-10-13 07:00,ZGHA 130700Z 31006MPS 3000 HZ NSC 22/15 Q1013 NOSIG
ZGHA,2012-10-13 08:00,ZGHA 130800Z 31005MPS 3000 HZ NSC 20/14 Q1013 NOSIG
ZGHA,2012-10-13 09:00,ZGHA 130900Z 31004MPS 2500 BR NSC 20/15 Q1014 NOSIG
ZGHA,2012-10-13 11:00,ZGHA 131100Z 36004MPS 2200 -RA BR SCT020 OVC050 17/15 Q1015 NOSIG
ZGHA,2012-10-13 12:00,ZGHA 131200Z 36005MPS 2000 -RA BR SCT023 OVC050 17/15 Q1015 NOSIG
ZGHA,2012-10-13 13:00,ZGHA 131300Z 35004MPS 2000 BR SCT023 17/15 Q1016 NOSIG
ZGHA,2012-10-13 14:00,ZGHA 131400Z 34004MPS 2200 BR SCT030 17/15 Q1016 NOSIG
ZGHA,2012-10-13 15:00,ZGHA 131500Z 01003MPS 2100 BR SCT030 17/15 Q1016 NOSIG
ZGHA,2012-10-13 16:00,ZGHA 131600Z 35004MPS 1800 -RA BR SCT020 OVC050 17/15 Q1015 BECMG TL1700 1400
ZGHA,2012-10-13 17:00,ZGHA 131700Z 36004MPS 1800 BR SCT030 17/15 Q1015 NOSIG
ZGHA,2012-10-13 18:00,ZGHA 131800Z 33003MPS 2000 BR SCT030 17/15 Q1015 NOSIG
ZGHA,2012-10-13 19:00,ZGHA 131900Z 33003MPS 2200 BR NSC 17/15 Q1015 NOSIG
ZGHA,2012-10-13 20:00,ZGHA 132000Z 32002MPS 2000 BR NSC 17/15 Q1015 NOSIG
ZGHA,2012-10-13 21:00,ZGHA 132100Z 35003MPS 1700 BR SCT030 17/15 Q1015 NOSIG
ZGHA,2012-10-13 22:00,ZGHA 132200Z 01003MPS 1600 BR SCT030 17/15 Q1016 NOSIG
ZGHA,2012-10-13 23:00,ZGHA 132300Z 36003MPS 1200 R36/1500 BR SCT030 17/15 Q1016 BECMG TL0100 1600
ZGHA,2012-10-14 00:00,ZGHA 140000Z 34003MPS 1300 R36/1400 BR SCT030 17/15 Q1016 NOSIG
ZGHA,2012-10-14 01:00,ZGHA 140100Z 36004MPS 1400 R36/1100 BR SCT030 18/16 Q1017 BECMG TL0130 1800
ZGHA,2012-10-14 02:00,ZGHA 140200Z 33003MPS 1600 R36/1100 BR SCT030 19/15 Q1017 NOSIG
ZGHA,2012-10-14 03:00,ZGHA 140300Z 35004MPS 2400 R36/1200 BR FEW040 19/15 Q1017 BECMG TL0400 3500
ZGHA,2012-10-14 04:00,ZGHA 140400Z 36003MPS 2600 R36/1200 BR NSC 19/16 Q1017 BECMG TL0500 3000
ZGHA,2012-10-14 05:00,ZGHA 140500Z 34004MPS 310V010 3000 R36/1300 BR NSC 20/15 Q1016 NOSIG
ZGHA,2012-10-14 06:00,ZGHA 140600Z 35004MPS 3000 R36/1100 BR NSC 20/15 Q1015 NOSIG
ZGHA,2012-10-14 07:00,ZGHA 140700Z 36004MPS 3500 R36/1300 BR NSC 19/15 Q1015 NOSIG
ZGHA,2012-10-14 08:00,ZGHA 140800Z 01004MPS 3500 R36/1300 BR NSC 18/15 Q1015 NOSIG
ZGHA,2012-10-14 09:00,ZGHA 140900Z 01004MPS 3000 BR NSC 18/15 Q1015 BECMG TL1100 2500
ZGHA,2012-10-14 10:00,ZGHA 141000Z 36004MPS 2800 BR NSC 18/15 Q1015 NOSIG
ZGHA,2012-10-14 11:00,ZGHA 141100Z 01004MPS 3200 BR NSC 18/15 Q1015 NOSIG
ZGHA,2012-10-14 12:00,ZGHA 141200Z 36003MPS 3000 BR NSC 18/15 Q1016 BECMG TL1400 2500
ZGHA,2012-10-14 13:00,ZGHA 141300Z 36004MPS 2500 BR NSC 18/16 Q1016 NOSIG
ZGHA,2012-10-14 14:00,ZGHA 141400Z 01003MPS 2000 BR NSC 18/16 Q1016 NOSIG
ZGHA,2012-10-14 15:00,ZGHA 141500Z 36003MPS 2000 BR NSC 18/16 Q1016 NOSIG
ZGHA,2012-10-14 16:00,ZGHA 141600Z 36003MPS 2000 BR NSC 18/16 Q1016 NOSIG
ZGHA,2012-10-14 17:00,ZGHA 141700Z 34002MPS 2500 BR NSC 18/16 Q1016 NOSIG
ZGHA,2012-10-14 18:00,ZGHA 141800Z 34002MPS 3000 BR NSC 18/16 Q1016 NOSIG
ZGHA,2012-10-14 19:00,ZGHA 141900Z 34002MPS 3000 BR NSC 18/16 Q1016 NOSIG
ZGHA,2012-10-14 20:00,ZGHA 142000Z VRB01MPS 3000 BR NSC 18/16 Q1016 NOSIG
ZGHA,2012-10-14 21:00,ZGHA 142100Z 35002MPS 3000 BR NSC 18/16 Q1016 NOSIG
ZGHA,2012-10-14 22:00,ZGHA 142200Z 35003MPS 3000 BR NSC 18/16 Q1016 NOSIG
ZGHA,2012-10-14 23:00,ZGHA 142300Z 02002MPS 350V090 1400 R36/1200 BR OVC050 18/16 Q1017 BECMG TL0100 1700
ZGHA,2012-10-15 00:00,ZGHA 150000Z VRB01MPS 1600 R36/1000 BR OVC050 18/16 Q1017 NOSIG
ZGHA,2012-10-15 01:00,ZGHA 150100Z VRB01MPS 2500 R36/1200 BR FEW009 20/16 Q1018 BECMG TL0230 3200
ZGHA,2012-10-15 02:00,ZGHA 150200Z VRB01MPS 3500 R36/1300 BR FEW011 22/16 Q1018 NOSIG
ZGHA,2012-10-15 03:00,ZGHA 150300Z 33001MPS 4000 HZ FEW020 23/16 Q1017 NOSIG
ZGHA,2012-10-15 04:00,ZGHA 150400Z VRB01MPS 6000 FEW033 25/16 Q1016 NOSIG
ZGHA,2012-10-15 05:00,ZGHA 150500Z VRB01MPS 6000 NSC 25/16 Q1015 NOSIG
ZGHA,2012-10-15 06:00,ZGHA 150600Z VRB01MPS 7000 NSC 26/16 Q1014 NOSIG
ZGHA,2012-10-15 07:00,ZGHA 150700Z VRB01MPS 7000 NSC 26/16 Q1013 NOSIG
ZGHA,2012-10-15 08:00,ZGHA 150800Z VRB01MPS 7000 NSC 27/16 Q1013 NOSIG
ZGHA,2012-10-15 09:00,ZGHA 150900Z 01001MPS 6000 NSC 26/17 Q1013 NOSIG
ZGHA,2012-10-15 10:00,ZGHA 151000Z 33004MPS 3000 BR NSC 24/17 Q1013 BECMG TL1100 2500
ZGHA,2012-10-15 11:00,ZGHA 151100Z 35003MPS 3500 BR NSC 23/18 Q1014 NOSIG
ZGHA,2012-10-15 12:00,ZGHA 151200Z 34003MPS 3500 BR NSC 22/17 Q1014 NOSIG
ZGHA,2012-10-15 13:00,ZGHA 151300Z 32003MPS 3000 BR NSC 21/17 Q1015 NOSIG
ZGHA,2012-10-15 14:00,ZGHA 151400Z 32003MPS 280V360 2700 BR NSC 21/17 Q1015 NOSIG
ZGHA,2012-10-15 15:00,ZGHA 151500Z 33003MPS 2500 BR NSC 20/17 Q1015 NOSIG
ZGHA,2012-10-15 16:00,ZGHA 151600Z 33004MPS 2300 BR NSC 21/17 Q1015 NOSIG
ZGHA,2012-10-15 17:00,ZGHA 151700Z 34002MPS 2200 BR NSC 20/17 Q1015 NOSIG
ZGHA,2012-10-15 18:00,ZGHA 151800Z 34003MPS 2200 BR NSC 20/17 Q1015 NOSIG
ZGHA,2012-10-15 19:00,ZGHA 151900Z 35002MPS 2000 BR NSC 20/17 Q1015 NOSIG
ZGHA,2012-10-15 20:00,ZGHA 152000Z 34003MPS 1700 BR SCT007 19/17 Q1014 NOSIG
ZGHA,2012-10-15 21:00,ZGHA 152100Z 01002MPS 1600 BR SCT007 19/18 Q1014 NOSIG
ZGHA,2012-10-15 22:00,ZGHA 152200Z 01002MPS 1200 R36/1700 BR SCT006 19/18 Q1014 NOSIG
ZGHA,2012-10-15 23:00,ZGHA 152300Z 35004MPS 0900 R36/1300 FG SCT006 OVC050 19/18 Q1015 BECMG TL0030 1600 BR
ZGHA,2012-10-16 00:00,ZGHA 160000Z 35003MPS 1100 R36/1200 BR SCT007 20/18 Q1015 BECMG TL0100 1700
ZGHA,2012-10-16 01:00,ZGHA 160100Z 01002MPS 340V040 1300 R36/1100 BR SCT009 20/18 Q1016 BECMG TL0145 1700
ZGHA,2012-10-16 02:00,ZGHA 160200Z VRB01MPS 1700 R36/1300 BR SCT009 21/18 Q1016 NOSIG
ZGHA,2012-10-16 03:00,ZGHA 160300Z 32003MPS 280V350 2000 HZ SCT011 24/18 Q1016 BECMG TL0449 3000
ZGHA,2012-10-16 04:00,ZGHA 160400Z 31006MPS 1600 R36/1400 BR SCT010 22/17 Q1016 NOSIG
ZGHA,2012-10-16 05:00,ZGHA 160500Z 31005MPS 1400 R36/1800 BR SCT008 OVC050 20/17 Q1016 BECMG -TSRA BKN008 FEW040CB OVC050
ZGHA,2012-10-16 06:00,ZGHA 160600Z 35005MPS 320V020 1300 R36/1300 -RA BR SCT005 BKN008 OVC050 20/18 Q1015 BECMG 1600
ZGHA,2012-10-16 07:00,ZGHA 160700Z 33006MPS 1800 -RA BR SCT005 BKN008 OVC050 19/18 Q1016 NOSIG
ZGHA,2012-10-16 08:00,ZGHA 160800Z 34007MPS 6000 -RA BKN008 OVC050 19/18 Q1016 NOSIG
ZGHA,2012-10-16 09:00,ZGHA 160900Z 34007MPS 6000 BKN009 OVC050 19/17 Q1017 NOSIG
ZGHA,2012-10-16 10:00,ZGHA 161000Z 35006MPS 6000 BKN009 OVC050 19/17 Q1017 NOSIG
ZGHA,2012-10-16 11:00,ZGHA 161100Z 34005MPS 5000 -RA BR BKN009 OVC050 19/16 Q1018 NOSIG
ZGHA,2012-10-16 12:00,ZGHA 161200Z 35007MPS 5000 BR SCT009 BKN020 OVC050 19/16 Q1020 NOSIG
ZGHA,2012-10-16 13:00,ZGHA 161300Z 35006MPS 4000 BR SCT009 BKN020 OVC050 18/15 Q1021 NOSIG
ZGHA,2012-10-16 14:00,ZGHA 161400Z 35007MPS 3500 -RA BR SCT009 BKN020 OVC050 18/16 Q1021 NOSIG
ZGHA,2012-10-16 15:00,ZGHA 161500Z 35007MPS 3000 BR SCT009 BKN020 OVC050 18/15 Q1022 NOSIG
ZGHA,2012-10-16 16:00,ZGHA 161600Z 35006MPS 3000 BR SCT020 OVC050 18/15 Q1022 NOSIG
ZGHA,2012-10-16 17:00,ZGHA 161700Z 35007MPS 3500 BR SCT020 OVC040 17/14 Q1023 NOSIG
ZGHA,2012-10-16 18:00,ZGHA 161800Z 36006MPS 3000 BR SCT020 OVC040 17/15 Q1023 NOSIG
ZGHA,2012-10-16 19:00,ZGHA 161900Z 01003MPS 3200 BR SCT020 OVC040 17/14 Q1023 NOSIG
ZGHA,2012-10-16 20:00,ZGHA 162000Z 35006MPS 4000 BR NSC 15/13 Q1023 NOSIG
ZGHA,2012-10-16 21:00,ZGHA 162100Z 36003MPS 4500 BR NSC 14/11 Q1024 NOSIG
ZGHA,2012-10-16 22:00,ZGHA 162200Z 35005MPS 4500 BR NSC 14/10 Q1024 NOSIG
ZGHA,2012-10-16 23:00,ZGHA 162300Z 34005MPS 5000 BR NSC 14/10 Q1024 NOSIG
ZGHA,2012-10-17 00:00,ZGHA 170000Z 35004MPS 6000 NSC 15/10 Q1025 NOSIG
ZGHA,2012-10-17 01:00,ZGHA 170100Z 35006MPS CAVOK 17/09 Q1026 NOSIG
ZGHA,2012-10-17 02:00,ZGHA 170200Z 36005MPS 340V040 CAVOK 19/07 Q1026 NOSIG
ZGHA,2012-10-17 03:00,ZGHA 170300Z 36006MPS 340V040 CAVOK 21/05 Q1025 NOSIG
ZGHA,2012-10-17 04:00,ZGHA 170400Z 01005G11MPS 320V070 CAVOK 22/05 Q1024 NOSIG
ZGHA,2012-10-17 05:00,ZGHA 170500Z 36006MPS 340V040 CAVOK 23/01 Q1023 NOSIG
ZGHA,2012-10-17 06:00,ZGHA 170600Z 01007MPS 340V050 CAVOK 24/M01 Q1022 NOSIG
ZGHA,2012-10-17 07:00,ZGHA 170700Z 35006MPS 330V030 CAVOK 24/M00 Q1021 NOSIG
ZGHA,2012-10-17 08:00,ZGHA 170800Z 35006MPS CAVOK 24/02 Q1021 NOSIG
ZGHA,2012-10-17 09:00,ZGHA 170900Z 35006MPS CAVOK 22/02 Q1021 NOSIG
ZGHA,2012-10-17 10:00,ZGHA 171000Z 34004MPS CAVOK 20/01 Q1021 NOSIG
ZGHA,2012-10-17 11:00,ZGHA 171100Z 31004MPS CAVOK 19/06 Q1021 NOSIG
ZGHA,2012-10-17 12:00,ZGHA 171200Z 32004MPS CAVOK 17/06 Q1021 NOSIG
ZGHA,2012-10-17 13:00,ZGHA 171300Z 34004MPS CAVOK 17/05 Q1021 NOSIG
ZGHA,2012-10-17 14:00,ZGHA 171400Z 36002MPS 320V020 CAVOK 15/06 Q1022 NOSIG
ZGHA,2012-10-17 15:00,ZGHA 171500Z 06002MPS CAVOK 13/09 Q1021 NOSIG
ZGHA,2012-10-17 16:00,ZGHA 171600Z 02001MPS CAVOK 12/08 Q1021 NOSIG
ZGHA,2012-10-17 17:00,ZGHA 171700Z 00000MPS 8000 NSC 11/09 Q1021 NOSIG
ZGHA,2012-10-17 18:00,ZGHA 171800Z 00000MPS 6000 NSC 10/09 Q1020 NOSIG
ZGHA,2012-10-17 19:00,ZGHA 171900Z 01001MPS 7000 NSC 11/09 Q1020 NOSIG
ZGHA,2012-10-17 20:00,ZGHA 172000Z 06001MPS 7000 NSC 10/08 Q1020 NOSIG
ZGHA,2012-10-17 21:00,ZGHA 172100Z VRB01MPS 6000 NSC 10/09 Q1020 NOSIG
ZGHA,2012-10-17 22:00,ZGHA 172200Z VRB01MPS 7000 NSC 09/08 Q1020 NOSIG
ZGHA,2012-10-17 23:00,ZGHA 172300Z 00000MPS 8000 NSC 10/08 Q1021 NOSIG
ZGHA,2012-10-18 00:00,ZGHA 180000Z VRB01MPS CAVOK 13/09 Q1021 NOSIG
ZGHA,2012-10-18 01:00,ZGHA 180100Z VRB01MPS CAVOK 16/10 Q1021 NOSIG
ZGHA,2012-10-18 02:00,ZGHA 180200Z VRB01MPS CAVOK 19/08 Q1021 NOSIG
ZGHA,2012-10-18 03:00,ZGHA 180300Z 12002MPS 360V170 CAVOK 22/07 Q1020 NOSIG
ZGHA,2012-10-18 04:00,ZGHA 180400Z 17002MPS 110V240 CAVOK 23/06 Q1019 NOSIG
ZGHA,2012-10-18 05:00,ZGHA 180500Z VRB01MPS CAVOK 24/07 Q1018 NOSIG
ZGHA,2012-10-18 06:00,ZGHA 180600Z 18003MPS 110V270 CAVOK 25/06 Q1017 NOSIG
ZGHA,2012-10-18 07:00,ZGHA 180700Z VRB01MPS CAVOK 26/06 Q1016 NOSIG
ZGHA,2012-10-18 08:00,ZGHA 180800Z 15002MPS 130V200 CAVOK 26/07 Q1015 NOSIG
ZGHA,2012-10-18 09:00,ZGHA 180900Z 14002MPS CAVOK 24/08 Q1015 NOSIG
ZGHA,2012-10-18 10:00,ZGHA 181000Z 12002MPS CAVOK 22/08 Q1015 NOSIG
ZGHA,2012-10-18 11:00,ZGHA 181100Z 11002MPS CAVOK 19/10 Q1015 NOSIG
ZGHA,2012-10-18 12:00,ZGHA 181200Z 11003MPS CAVOK 18/09 Q1016 NOSIG
ZGHA,2012-10-18 13:00,ZGHA 181300Z VRB01MPS CAVOK 18/09 Q1016 NOSIG
ZGHA,2012-10-18 14:00,ZGHA 181400Z VRB01MPS CAVOK 18/08 Q1016 NOSIG
ZGHA,2012-10-18 15:00,ZGHA 181500Z 00000MPS CAVOK 16/10 Q1017 NOSIG
ZGHA,2012-10-18 16:00,ZGHA 181600Z VRB01MPS CAVOK 15/11 Q1017 NOSIG
ZGHA,2012-10-18 17:00,ZGHA 181700Z VRB01MPS CAVOK 17/11 Q1017 NOSIG
ZGHA,2012-10-18 18:00,ZGHA 181800Z 26001MPS CAVOK 16/11 Q1016 NOSIG
ZGHA,2012-10-18 19:00,ZGHA 181900Z 00000MPS 8000 NSC 16/12 Q1016 NOSIG
ZGHA,2012-10-18 20:00,ZGHA 182000Z VRB01MPS 8000 NSC 16/12 Q1016 NOSIG
ZGHA,2012-10-18 21:00,ZGHA 182100Z 30002MPS 8000 NSC 15/11 Q1016 NOSIG
ZGHA,2012-10-18 22:00,ZGHA 182200Z VRB01MPS 7000 NSC 16/11 Q1017 NOSIG
ZGHA,2012-10-18 23:00,ZGHA 182300Z 36002MPS 8000 NSC 16/11 Q1017 NOSIG
ZGHA,2012-10-19 00:00,ZGHA 190000Z VRB01MPS 8000 NSC 17/11 Q1017 NOSIG
ZGHA,2012-10-19 01:00,ZGHA 190100Z 29002MPS 270V330 CAVOK 19/10 Q1018 NOSIG
ZGHA,2012-10-19 02:00,ZGHA 190200Z VRB02MPS CAVOK 23/08 Q1018 NOSIG
ZGHA,2012-10-19 03:00,ZGHA 190300Z 15004MPS 120V190 CAVOK 24/07 Q1017 NOSIG
ZGHA,2012-10-19 04:00,ZGHA 190400Z 16004MPS 100V190 CAVOK 24/08 Q1017 NOSIG
ZGHA,2012-10-19 05:00,ZGHA 190500Z 17003MPS 140V230 CAVOK 25/10 Q1015 NOSIG
ZGHA,2012-10-19 06:00,ZGHA 190600Z 22003MPS 150V250 CAVOK 26/11 Q1015 NOSIG
ZGHA,2012-10-19 07:00,ZGHA 190700Z 22002MPS 180V300 CAVOK 26/10 Q1014 NOSIG
ZGHA,2012-10-19 08:00,ZGHA 190800Z 18002MPS 110V250 CAVOK 26/10 Q1014 NOSIG
ZGHA,2012-10-19 09:00,ZGHA 190900Z 10001MPS CAVOK 25/13 Q1014 NOSIG
ZGHA,2012-10-19 10:00,ZGHA 191000Z 06001MPS CAVOK 24/15 Q1014 NOSIG
ZGHA,2012-10-19 11:00,ZGHA 191100Z 07001MPS CAVOK 22/16 Q1015 NOSIG
ZGHA,2012-10-19 12:00,ZGHA 191200Z 05002MPS 6000 NSC 22/16 Q1016 NOSIG
ZGHA,2012-10-19 13:00,ZGHA 191300Z 07001MPS 6000 NSC 21/16 Q1016 NOSIG
ZGHA,2012-10-19 14:00,ZGHA 191400Z VRB01MPS 6000 NSC 20/15 Q1016 NOSIG
ZGHA,2012-10-19 15:00,ZGHA 191500Z VRB01MPS 5000 BR NSC 19/16 Q1016 NOSIG
ZGHA,2012-10-19 16:00,ZGHA 191600Z 03001MPS 5000 BR NSC 18/15 Q1016 NOSIG
ZGHA,2012-10-19 17:00,ZGHA 191700Z VRB01MPS 6000 NSC 20/15 Q1016 NOSIG
ZGHA,2012-10-19 18:00,ZGHA 191800Z 01002MPS 6000 NSC 19/14 Q1016 NOSIG
ZGHA,2012-10-19 19:00,ZGHA 191900Z 08001MPS 5000 BR NSC 18/15 Q1016 NOSIG
ZGHA,2012-10-19 20:00,ZGHA 192000Z 00000MPS 7000 NSC 17/15 Q1015 NOSIG
ZGHA,2012-10-19 21:00,ZGHA 192100Z VRB01MPS 7000 NSC 18/14 Q1016 NOSIG
ZGHA,2012-10-19 22:00,ZGHA 192200Z 02001MPS 6000 NSC 17/14 Q1016 NOSIG
ZGHA,2012-10-19 23:00,ZGHA 192300Z VRB01MPS 6000 NSC 17/14 Q1016 NOSIG
ZGHA,2012-10-20 00:00,ZGHA 200000Z VRB01MPS 7000 NSC 19/14 Q1017 NOSIG
ZGHA,2012-10-20 01:00,ZGHA 200100Z VRB01MPS 8000 NSC 21/14 Q1017 NOSIG
ZGHA,2012-10-20 02:00,ZGHA 200200Z VRB01MPS 8000 NSC 24/14 Q1017 NOSIG
ZGHA,2012-10-20 03:00,ZGHA 200300Z VRB01MPS 9000 NSC 26/14 Q1017 NOSIG
ZGHA,2012-10-20 04:00,ZGHA 200400Z 18003MPS 150V230 9000 NSC 28/15 Q1015 NOSIG
ZGHA,2012-10-20 05:00,ZGHA 200500Z 23003MPS 180V270 CAVOK 29/16 Q1014 NOSIG
ZGHA,2012-10-20 06:00,ZGHA 200600Z VRB01MPS CAVOK 30/16 Q1013 NOSIG
ZGHA,2012-10-20 07:00,ZGHA 200700Z 22003MPS CAVOK 29/16 Q1013 NOSIG
ZGHA,2012-10-20 08:00,ZGHA 200800Z VRB01MPS 7000 NSC 30/16 Q1013 NOSIG
ZGHA,2012-10-20 09:00,ZGHA 200900Z VRB01MPS 6000 NSC 29/17 Q1013 NOSIG
ZGHA,2012-10-20 10:00,ZGHA 201000Z 04002MPS 4500 R18/1000 HZ NSC 27/19 Q1013 NOSIG
ZGHA,2012-10-20 11:00,ZGHA 201100Z 02002MPS 3500 HZ NSC 25/19 Q1014 NOSIG
ZGHA,2012-10-20 12:00,ZGHA 201200Z VRB01MPS 4000 HZ NSC 25/19 Q1014 NOSIG
ZGHA,2012-10-20 13:00,ZGHA 201300Z 33003MPS 3000 HZ NSC 24/17 Q1015 BECMG TL1400 2500 BR
ZGHA,2012-10-20 14:00,ZGHA 201400Z 30002MPS 260V330 3000 BR NSC 23/18 Q1015 NOSIG
ZGHA,2012-10-20 15:00,ZGHA 201500Z 33003MPS 2500 BR NSC 22/18 Q1015 NOSIG
ZGHA,2012-10-20 16:00,ZGHA 201600Z VRB01MPS 2500 BR NSC 21/18 Q1015 NOSIG
ZGHA,2012-10-20 17:00,ZGHA 201700Z 33003MPS 2500 BR NSC 21/18 Q1015 BECMG TL1730 1400 -RA BR BKN011 OVC050
ZGHA,2012-10-20 18:00,ZGHA 201800Z 26004MPS 1800 -RA BR SCT004 OVC050 20/18 Q1016 BECMG TL1810 1400 RA BR BKN005 OVC050
ZGHA,2012-10-20 19:00,ZGHA 201900Z VRB01MPS 1800 BR OVC050 20/19 Q1016 RERA NOSIG
ZGHA,2012-10-20 20:00,ZGHA 202000Z VRB01MPS 1600 R36/1300 BR OVC050 20/19 Q1016 NOSIG
ZGHA,2012-10-20 21:00,ZGHA 202100Z 08002MPS 030V110 1600 R36/1400 BR OVC050 20/19 Q1015 NOSIG
ZGHA,2012-10-20 22:00,ZGHA 202200Z VRB01MPS 2000 BR OVC050 20/18 Q1016 NOSIG
ZGHA,2012-10-20 23:00,ZGHA 202300Z 00000MPS 1400 R36/0750 BR NSC 19/18 Q1016 TEMPO 0700 FG
ZGHA,2012-10-21 00:00,ZGHA 210000Z 32003MPS 0800 R36/1300 FG NSC 21/19 Q1017 BECMG TL0100 1400 BR
ZGHA,2012-10-21 01:00,ZGHA 210100Z VRB01MPS 1600 R36/1100 BR NSC 21/20 Q1018 BECMG TL0200 3500
ZGHA,2012-10-21 02:00,ZGHA 210200Z VRB01MPS 3000 BR NSC 24/20 Q1017 NOSIG
ZGHA,2012-10-21 03:00,ZGHA 210300Z VRB01MPS 3700 HZ NSC 26/19 Q1017 NOSIG
ZGHA,2012-10-21 04:00,ZGHA 210400Z 13001MPS 5000 HZ NSC 29/19 Q1016 NOSIG
ZGHA,2012-10-21 05:00,ZGHA 210500Z 23002MPS 170V280 6000 NSC 30/19 Q1015 NOSIG
ZGHA,2012-10-21 06:00,ZGHA 210600Z 23003MPS 140V270 6000 FEW040 30/19 Q1014 NOSIG
ZGHA,2012-10-21 07:00,ZGHA 210700Z 23002MPS 180V280 5000 HZ FEW040 30/19 Q1014 NOSIG
ZGHA,2012-10-21 08:00,ZGHA 210800Z 26002MPS 120V290 4000 HZ SCT040 29/19 Q1014 NOSIG
ZGHA,2012-10-21 09:00,ZGHA 210900Z 35003MPS 310V010 3500 HZ SCT040 28/21 Q1014 NOSIG
ZGHA,2012-10-21 10:00,ZGHA 211000Z 04002MPS 3000 BR SCT040 26/21 Q1014 BECMG 2500
ZGHA,2012-10-21 11:00,ZGHA 211100Z 09001MPS 2500 -RA BR SCT040 25/22 Q1015 NOSIG
ZGHA,2012-10-21 12:00,ZGHA 211200Z VRB01MPS 2500 BR NSC 25/22 Q1015 NOSIG
ZGHA,2012-10-21 13:00,ZGHA 211300Z VRB01MPS 2200 BR NSC 24/22 Q1016 NOSIG
ZGHA,2012-10-21 14:00,ZGHA 211400Z 27002MPS 200V320 2200 -RA BR NSC 24/22 Q1016 NOSIG
ZGHA,2012-10-21 15:00,ZGHA 211500Z 35002MPS 1700 -RA BR FEW040 24/22 Q1016 RETS NOSIG
ZGHA,2012-10-21 16:00,ZGHA 211600Z VRB01MPS 1600 -TSRA BR FEW040CB 24/22 Q1016 BECMG TL1630 -SHRA SCT011 FEW040CB OVC050
ZGHA,2012-10-21 17:00,ZGHA 211700Z 02001MPS 2000 BR NSC 23/21 Q1015 NOSIG
ZGHA,2012-10-21 18:00,ZGHA 211800Z 02001MPS 1800 BR NSC 23/21 Q1015 NOSIG
ZGHA,2012-10-21 19:00,ZGHA 211900Z 35002MPS 1600 BR FEW050CB BKN050 22/21 Q1015 NOSIG
ZGHA,2012-10-21 20:00,ZGHA 212000Z 33002MPS 290V010 1400 R36/1800 BR FEW003 SCT020 FEW050CB BKN050 23/22 Q1015 NOSIG
ZGHA,2012-10-21 21:00,ZGHA 212100Z 36007MPS 6000 -SHRA BKN009 FEW050CB BKN050 19/17 Q1016 NOSIG
ZGHA,2012-10-21 22:00,ZGHA 212200Z 36007MPS 4000 SHRA BR BKN006 FEW050CB BKN050 18/16 Q1017 BECMG -TSRA
ZGHA,2012-10-21 23:00,ZGHA 212300Z 36007MPS 5000 BR BKN008 FEW050CB BKN050 18/16 Q1018 RESHRA NOSIG
ZGHA,2012-10-22 00:00,ZGHA 220000Z 33007MPS 2500 -SHRA BR BKN009 FEW050CB BKN050 17/16 Q1020 BECMG 3000
ZGHA,2012-10-22 01:00,ZGHA 220100Z 34009MPS 3500 -RA BR BKN009 SCT020 OVC050 17/14 Q1021 NOSIG
ZGHA,2012-10-22 02:00,ZGHA 220200Z 34009MPS 4000 -RA BR BKN009 SCT020 OVC050 16/14 Q1021 NOSIG
ZGHA,2012-10-22 03:00,ZGHA 220300Z 34008MPS 4500 -RA BR BKN009 SCT020 OVC050 17/14 Q1022 NOSIG
ZGHA,2012-10-22 04:00,ZGHA 220400Z 34009MPS 4500 BR BKN009 SCT020 OVC050 16/13 Q1021 NOSIG
ZGHA,2012-10-22 05:00,ZGHA 220500Z 34007MPS 5000 BR BKN011 SCT020 OVC050 16/13 Q1021 NOSIG
ZGHA,2012-10-22 06:00,ZGHA 220600Z 34007MPS 6000 FEW012 BKN023 OVC050 16/12 Q1020 NOSIG
ZGHA,2012-10-22 07:00,ZGHA 220700Z 34007MPS 8000 -RA FEW012 BKN023 OVC050 16/11 Q1020 NOSIG
ZGHA,2012-10-22 08:00,ZGHA 220800Z 35007MPS 9999 BKN023 OVC050 16/11 Q1020 NOSIG
ZGHA,2012-10-22 09:00,ZGHA 220900Z 35005MPS 9999 SCT030 OVC050 16/09 Q1021 NOSIG
ZGHA,2012-10-22 10:00,ZGHA 221000Z 36005MPS 9999 SCT030 OVC050 16/09 Q1022 NOSIG
ZGHA,2012-10-22 11:00,ZGHA 221100Z 35005MPS 9999 SCT033 OVC050 16/09 Q1022 NOSIG
ZGHA,2012-10-22 12:00,ZGHA 221200Z 36005MPS 9999 SCT033 OVC050 15/10 Q1022 NOSIG
ZGHA,2012-10-22 13:00,ZGHA 221300Z 35004MPS 9999 SCT050 14/10 Q1023 NOSIG
ZGHA,2012-10-22 14:00,ZGHA 221400Z 01003MPS 340V040 9999 SCT050 14/10 Q1023 NOSIG
ZGHA,2012-10-22 15:00,ZGHA 221500Z VRB01MPS 9999 FEW050 14/09 Q1022 NOSIG
ZGHA,2012-10-22 16:00,ZGHA 221600Z 34004MPS 9999 FEW050 14/09 Q1022 NOSIG
ZGHA,2012-10-22 17:00,ZGHA 221700Z 01002MPS CAVOK 14/09 Q1022 NOSIG
ZGHA,2012-10-22 18:00,ZGHA 221800Z 01002MPS CAVOK 13/09 Q1021 NOSIG
ZGHA,2012-10-22 19:00,ZGHA 221900Z VRB01MPS CAVOK 12/09 Q1021 NOSIG
ZGHA,2012-10-22 20:00,ZGHA 222000Z 01002MPS 340V040 CAVOK 12/09 Q1021 NOSIG
ZGHA,2012-10-22 21:00,ZGHA 222100Z 35002MPS CAVOK 11/08 Q1021 NOSIG
ZGHA,2012-10-22 22:00,ZGHA 222200Z 36002MPS 7000 NSC 10/08 Q1021 NOSIG
ZGHA,2012-10-22 23:00,ZGHA 222300Z VRB01MPS 7000 NSC 11/09 Q1022 NOSIG
ZGHA,2012-10-23 00:00,ZGHA 230000Z VRB01MPS 8000 NSC 12/10 Q1022 NOSIG
ZGHA,2012-10-23 01:00,ZGHA 230100Z VRB01MPS 8000 NSC 14/10 Q1023 NOSIG
ZGHA,2012-10-23 02:00,ZGHA 230200Z 03002MPS 350V080 CAVOK 17/10 Q1023 NOSIG
ZGHA,2012-10-23 03:00,ZGHA 230300Z VRB01MPS CAVOK 20/12 Q1022 NOSIG
ZGHA,2012-10-23 04:00,ZGHA 230400Z VRB01MPS CAVOK 20/10 Q1021 NOSIG
ZGHA,2012-10-23 05:00,ZGHA 230500Z VRB02MPS CAVOK 22/09 Q1020 NOSIG
ZGHA,2012-10-23 06:00,ZGHA 230600Z 23003MPS 200V290 CAVOK 22/09 Q1019 NOSIG
ZGHA,2012-10-23 07:00,ZGHA 230700Z 31002MPS 260V030 CAVOK 23/09 Q1018 NOSIG
ZGHA,2012-10-23 08:00,ZGHA 230800Z VRB01MPS CAVOK 23/09 Q1017 NOSIG
ZGHA,2012-10-23 09:00,ZGHA 230900Z VRB01MPS CAVOK 22/10 Q1017 NOSIG
ZGHA,2012-10-23 10:00,ZGHA 231000Z 27002MPS 230V310 CAVOK 21/11 Q1017 NOSIG
ZGHA,2012-10-23 11:00,ZGHA 231100Z VRB01MPS CAVOK 20/12 Q1017 NOSIG
ZGHA,2012-10-23 12:00,ZGHA 231200Z VRB01MPS CAVOK 20/11 Q1018 NOSIG
ZGHA,2012-10-23 13:00,ZGHA 231300Z 33003MPS CAVOK 20/10 Q1018 NOSIG
ZGHA,2012-10-23 14:00,ZGHA 231400Z 02002MPS CAVOK 19/09 Q1018 NOSIG
ZGHA,2012-10-23 15:00,ZGHA 231500Z VRB01MPS CAVOK 17/10 Q1018 NOSIG
ZGHA,2012-10-23 16:00,ZGHA 231600Z 00000MPS CAVOK 16/11 Q1017 NOSIG
ZGHA,2012-10-23 17:00,ZGHA 231700Z VRB01MPS CAVOK 16/12 Q1017 NOSIG
ZGHA,2012-10-23 18:00,ZGHA 231800Z VRB01MPS 8000 NSC 16/13 Q1017 NOSIG
ZGHA,2012-10-23 19:00,ZGHA 231900Z VRB01MPS 6000 NSC 16/14 Q1017 NOSIG
ZGHA,2012-10-23 20:00,ZGHA 232000Z 09001MPS 4500 BR NSC 15/14 Q1017 NOSIG
ZGHA,2012-10-23 21:00,ZGHA 232100Z 22001MPS 4000 BR SCT040 15/14 Q1017 NOSIG
ZGHA,2012-10-23 22:00,ZGHA 232200Z VRB01MPS 4000 BR OVC050 16/14 Q1017 NOSIG
ZGHA,2012-10-23 23:00,ZGHA 232300Z 00000MPS 4500 BR NSC 16/14 Q1018 NOSIG
ZGHA,2012-10-24 00:00,ZGHA 240000Z 14003MPS 5000 BR FEW040 16/13 Q1018 NOSIG
ZGHA,2012-10-24 01:00,ZGHA 240100Z VRB01MPS 5000 BR SCT040 18/13 Q1018 NOSIG
ZGHA,2012-10-24 02:00,ZGHA 240200Z 25002MPS 170V280 6000 SCT040 18/11 Q1019 NOSIG
ZGHA,2012-10-24 03:00,ZGHA 240300Z 32002MPS 280V010 6000 SCT040 19/12 Q1018 NOSIG
ZGHA,2012-10-24 04:00,ZGHA 240400Z 34003MPS 310V020 6000 SCT040 19/13 Q1017 NOSIG
ZGHA,2012-10-24 05:00,ZGHA 240500Z 32004MPS 280V350 6000 OVC040 20/13 Q1017 NOSIG
ZGHA,2012-10-24 06:00,ZGHA 240600Z 30004MPS 7000 OVC040 19/13 Q1016 NOSIG
ZGHA,2012-10-24 07:00,ZGHA 240700Z 30004MPS 270V330 6000 SCT016 OVC040 19/13 Q1016 NOSIG
ZGHA,2012-10-24 08:00,ZGHA 240800Z 36005MPS 7000 OVC040 18/12 Q1016 NOSIG
ZGHA,2012-10-24 09:00,ZGHA 240900Z 34005MPS 7000 NSC 18/12 Q1016 NOSIG
ZGHA,2012-10-24 10:00,ZGHA 241000Z 33004MPS 6000 FEW040 16/12 Q1016 NOSIG
ZGHA,2012-10-24 11:00,ZGHA 241100Z 36003MPS 5000 BR BKN040 16/12 Q1017 NOSIG
ZGHA,2012-10-24 12:00,ZGHA 241200Z 01002MPS 340V040 5000 BR SCT040 16/12 Q1017 NOSIG
ZGHA,2012-10-24 13:00,ZGHA 241300Z 36003MPS 5000 BR NSC 15/11 Q1017 NOSIG
ZGHA,2012-10-24 14:00,ZGHA 241400Z 36003MPS 4000 BR NSC 15/12 Q1017 NOSIG
ZGHA,2012-10-24 15:00,ZGHA 241500Z 35003MPS 4000 BR SCT050 15/11 Q1018 NOSIG
ZGHA,2012-10-24 16:00,ZGHA 241600Z 34003MPS 4000 BR SCT050 15/12 Q1018 NOSIG
ZGHA,2012-10-24 17:00,ZGHA 241700Z 01002MPS 4000 BR SCT050 15/12 Q1017 NOSIG
ZGHA,2012-10-24 18:00,ZGHA 241800Z 34003MPS 4000 BR FEW050 15/12 Q1017 NOSIG
ZGHA,2012-10-24 19:00,ZGHA 241900Z 36002MPS 5000 BR NSC 14/11 Q1017 NOSIG
ZGHA,2012-10-24 20:00,ZGHA 242000Z VRB01MPS 5000 BR NSC 14/11 Q1016 NOSIG
ZGHA,2012-10-24 21:00,ZGHA 242100Z 33003MPS 3000 BR SCT040 14/12 Q1016 NOSIG
ZGHA,2012-10-24 22:00,ZGHA 242200Z VRB01MPS 3000 BR SCT040 14/12 Q1017 BECMG 2500
ZGHA,2012-10-24 23:00,ZGHA 242300Z 34002MPS 3000 BR SCT040 14/12 Q1017 BECMG 2500
ZGHA,2012-10-25 00:00,ZGHA 250000Z 34003MPS 3500 BR NSC 15/12 Q1018 NOSIG
ZGHA,2012-10-25 01:00,ZGHA 250100Z VRB01MPS 4500 BR NSC 17/13 Q1018 NOSIG
ZGHA,2012-10-25 02:00,ZGHA 250200Z VRB01MPS 6000 NSC 19/13 Q1018 NOSIG
ZGHA,2012-10-25 03:00,ZGHA 250300Z 35003MPS 310V020 7000 NSC 20/13 Q1018 NOSIG
ZGHA,2012-10-25 04:00,ZGHA 250400Z VRB01MPS 8000 NSC 21/13 Q1017 NOSIG
ZGHA,2012-10-25 05:00,ZGHA 250500Z 34002MPS 270V060 8000 NSC 23/13 Q1016 NOSIG
ZGHA,2012-10-25 06:00,ZGHA 250600Z 34003MPS 300V020 CAVOK 23/13 Q1015 NOSIG
ZGHA,2012-10-25 07:00,ZGHA 250700Z 33003MPS 290V350 CAVOK 23/13 Q1014 NOSIG
ZGHA,2012-10-25 08:00,ZGHA 250800Z 35002MPS 310V020 CAVOK 23/14 Q1014 NOSIG
ZGHA,2012-10-25 09:00,ZGHA 250900Z 35005MPS 8000 NSC 21/13 Q1014 NOSIG
ZGHA,2012-10-25 10:00,ZGHA 251000Z 36005MPS 7000 NSC 19/14 Q1014 NOSIG
ZGHA,2012-10-25 12:00,ZGHA 251200Z 33004MPS 4500 BR NSC 17/13 Q1015 NOSIG
ZGHA,2012-10-25 13:00,ZGHA 251300Z 32004MPS 4500 BR NSC 16/13 Q1016 NOSIG
ZGHA,2012-10-25 14:00,ZGHA 251400Z 36004MPS 4000 BR NSC 16/13 Q1016 NOSIG
ZGHA,2012-10-25 15:00,ZGHA 251500Z 34004MPS 3500 BR NSC 16/13 Q1016 NOSIG
ZGHA,2012-10-25 16:00,ZGHA 251600Z 33003MPS 3000 BR NSC 15/13 Q1016 NOSIG
ZGHA,2012-10-25 17:00,ZGHA 251700Z 33003MPS 300V360 3000 BR NSC 15/13 Q1016 NOSIG
ZGHA,2012-10-25 18:00,ZGHA 251800Z 33003MPS 300V360 3000 BR NSC 15/13 Q1016 NOSIG
ZGHA,2012-10-25 19:00,ZGHA 251900Z 30003MPS 2500 BR NSC 15/14 Q1015 NOSIG
ZGHA,2012-10-25 20:00,ZGHA 252000Z VRB01MPS 2200 BR NSC 15/13 Q1015 NOSIG
ZGHA,2012-10-25 21:00,ZGHA 252100Z VRB01MPS 2000 BR NSC 15/14 Q1015 NOSIG
ZGHA,2012-10-25 22:00,ZGHA 252200Z 20001MPS 1800 BR SCT007 15/14 Q1015 NOSIG
ZGHA,2012-10-25 23:00,ZGHA 252300Z VRB01MPS 1400 R36/1800 BR SCT006 15/14 Q1016 BECMG TL0010 1700
ZGHA,2012-10-26 00:00,ZGHA 260000Z VRB01MPS 1800 BR SCT006 16/14 Q1016 BECMG TL0200 3500
ZGHA,2012-10-26 01:00,ZGHA 260100Z 34003MPS 2000 BR SCT006 17/14 Q1017 BECMG TL0200 3500
ZGHA,2012-10-26 02:00,ZGHA 260200Z VRB01MPS 2700 BR SCT009 18/14 Q1017 BECMG TL0300 3500
ZGHA,2012-10-26 03:00,ZGHA 260300Z VRB01MPS 3500 BR SCT011 19/15 Q1017 NOSIG
ZGHA,2012-10-26 04:00,ZGHA 260400Z 34002MPS 300V030 4500 HZ NSC 22/15 Q1016 NOSIG
ZGHA,2012-10-26 05:00,ZGHA 260500Z 33003MPS 290V010 5000 HZ NSC 23/15 Q1015 NOSIG
ZGHA,2012-10-26 06:00,ZGHA 260600Z 36003MPS 300V030 5000 HZ NSC 23/16 Q1014 NOSIG
ZGHA,2012-10-26 07:00,ZGHA 260700Z 31005MPS 280V350 6000 NSC 24/16 Q1014 NOSIG
ZGHA,2012-10-26 08:00,ZGHA 260800Z 33005MPS 300V360 5000 HZ NSC 22/16 Q1014 NOSIG
ZGHA,2012-10-26 09:00,ZGHA 260900Z 32005MPS 4000 BR NSC 20/15 Q1015 NOSIG
ZGHA,2012-10-26 10:00,ZGHA 261000Z 32005MPS 3000 BR SCT011 19/15 Q1015 BECMG TL1100 2500
ZGHA,2012-10-26 11:00,ZGHA 261100Z 36004MPS 3000 BR NSC 17/15 Q1016 BECMG 2200
ZGHA,2012-10-26 12:00,ZGHA 261200Z 36003MPS 3000 BR NSC 17/14 Q1016 BECMG TL1300 2500
ZGHA,2012-10-26 13:00,ZGHA 261300Z 36004MPS 3000 BR NSC 17/15 Q1017 BECMG TL1400 2500
ZGHA,2012-10-26 14:00,ZGHA 261400Z 35004MPS 3000 BR NSC 17/15 Q1018 BECMG 2500
ZGHA,2012-10-26 15:00,ZGHA 261500Z 33004MPS 3000 BR NSC 17/14 Q1018 BECMG 2500
ZGHA,2012-10-26 16:00,ZGHA 261600Z 36005MPS 3000 BR SCT006 17/15 Q1018 NOSIG
ZGHA,2012-10-26 17:00,ZGHA 261700Z 01003MPS 4000 BR SCT020 16/14 Q1018 NOSIG
ZGHA,2012-10-26 18:00,ZGHA 261800Z 34004MPS 310V010 4000 BR SCT020 16/14 Q1018 NOSIG
ZGHA,2012-10-26 19:00,ZGHA 261900Z 34005MPS 5000 BR SCT020 16/14 Q1018 NOSIG
ZGHA,2012-10-26 20:00,ZGHA 262000Z 36005MPS 4000 -RA BR SCT007 OVC050 16/15 Q1018 NOSIG
ZGHA,2012-10-26 21:00,ZGHA 262100Z 35005MPS 4000 BR SCT007 OVC050 16/15 Q1018 NOSIG
ZGHA,2012-10-26 22:00,ZGHA 262200Z 33004MPS 4000 BR SCT007 OVC050 16/14 Q1019 NOSIG
ZGHA,2012-10-26 23:00,ZGHA 262300Z 33003MPS 2200 BR BKN006 OVC050 16/14 Q1019 NOSIG
ZGHA,2012-10-27 00:00,ZGHA 270000Z 30003MPS 2600 BR BKN006 OVC050 16/14 Q1021 BECMG 3500
ZGHA,2012-10-27 01:00,ZGHA 270100Z 34004MPS 3200 BR BKN007 OVC050 17/15 Q1021 NOSIG
ZGHA,2012-10-27 02:00,ZGHA 270200Z 35004MPS 320V020 4000 BR BKN009 18/14 Q1021 BECMG TL0300 BKN011 OVC050
ZGHA,2012-10-27 03:00,ZGHA 270300Z 35005MPS 9999 BKN017 20/14 Q1021 NOSIG
ZGHA,2012-10-27 04:00,ZGHA 270400Z 34004MPS 290V030 9999 FEW019 20/13 Q1020 NOSIG
ZGHA,2012-10-27 05:00,ZGHA 270500Z 34005MPS 320V020 9999 SCT020 19/14 Q1020 NOSIG
ZGHA,2012-10-27 06:00,ZGHA 270600Z 35004MPS 280V080 7000 NSC 20/14 Q1019 NOSIG
ZGHA,2012-10-27 07:00,ZGHA 270700Z 36004MPS 6000 SCT020 20/14 Q1019 NOSIG
ZGHA,2012-10-27 08:00,ZGHA 270800Z 02003MPS 350V060 5000 BR FEW020 19/15 Q1019 NOSIG
ZGHA,2012-10-27 09:00,ZGHA 270900Z 01004MPS 5000 BR NSC 19/14 Q1019 NOSIG
ZGHA,2012-10-27 10:00,ZGHA 271000Z 01003MPS 4500 BR BKN020 18/14 Q1019 NOSIG
ZGHA,2012-10-27 11:00,ZGHA 271100Z 01002MPS 5000 BR BKN020 18/14 Q1020 NOSIG
ZGHA,2012-10-27 12:00,ZGHA 271200Z 33003MPS 4500 BR BKN020 19/14 Q1020 NOSIG
ZGHA,2012-10-27 13:00,ZGHA 271300Z 31003MPS 4000 BR NSC 18/14 Q1021 NOSIG
ZGHA,2012-10-27 14:00,ZGHA 271400Z 31002MPS 270V340 3700 BR SCT026 18/14 Q1021 NOSIG
ZGHA,2012-10-27 15:00,ZGHA 271500Z 36002MPS 320V040 3500 BR NSC 18/15 Q1021 NOSIG
ZGHA,2012-10-27 16:00,ZGHA 271600Z VRB01MPS 3200 BR NSC 17/15 Q1021 NOSIG
ZGHA,2012-10-27 17:00,ZGHA 271700Z 01003MPS 2500 BR NSC 17/15 Q1021 NOSIG
ZGHA,2012-10-27 18:00,ZGHA 271800Z 29002MPS 230V340 2500 BR SCT033 17/15 Q1021 NOSIG
ZGHA,2012-10-27 19:00,ZGHA 271900Z VRB01MPS 2500 -RA BR BKN017 OVC050 17/15 Q1021 NOSIG
ZGHA,2012-10-27 20:00,ZGHA 272000Z 01003MPS 2000 -RA BR BKN017 OVC050 16/15 Q1020 NOSIG
ZGHA,2012-10-27 21:00,ZGHA 272100Z 36002MPS 320V090 2000 BR BKN021 OVC050 16/15 Q1020 NOSIG
ZGHA,2012-10-27 22:00,ZGHA 272200Z 34002MPS 310V010 2000 BR BKN021 OVC050 16/15 Q1020 NOSIG
ZGHA,2012-10-27 23:00,ZGHA 272300Z 36002MPS 1700 -RA BR FEW004 BKN019 OVC050 17/15 Q1021 BECMG TL0030 3000
ZGHA,2012-10-28 00:00,ZGHA 280000Z 36002MPS 2400 BR BKN017 OVC050 17/15 Q1021 BECMG TL0100 3500
ZGHA,2012-10-28 01:00,ZGHA 280100Z VRB01MPS 2700 BR BKN017 OVC050 17/15 Q1022 BECMG TL0200 3100
ZGHA,2012-10-28 02:00,ZGHA 280200Z VRB01MPS 3000 BR BKN015 OVC050 18/15 Q1022 NOSIG
ZGHA,2012-10-28 03:00,ZGHA 280300Z 30002MPS 270V340 3500 BR SCT011 OVC050 19/15 Q1022 NOSIG
ZGHA,2012-10-28 04:00,ZGHA 280400Z 32002MPS 280V010 3500 BR SCT011 OVC050 19/15 Q1021 NOSIG
ZGHA,2012-10-28 05:00,ZGHA 280500Z VRB01MPS 3000 BR SCT011 OVC050 19/15 Q1020 NOSIG
ZGHA,2012-10-28 06:00,ZGHA 280600Z 29002MPS 260V360 2700 -RA BR SCT011 OVC050 19/16 Q1019 NOSIG
ZGHA,2012-10-28 07:00,ZGHA 280700Z VRB01MPS 3500 BR SCT020 OVC050 20/15 Q1019 NOSIG
ZGHA,2012-10-28 08:00,ZGHA 280800Z VRB01MPS 3700 BR FEW020 20/15 Q1018 NOSIG
ZGHA,2012-10-28 09:00,ZGHA 280900Z VRB01MPS 3700 BR SCT020 20/16 Q1019 NOSIG
ZGHA,2012-10-28 10:00,ZGHA 281000Z 14001MPS 3000 BR SCT020 19/16 Q1019 BECMG TL1100 2500
ZGHA,2012-10-28 11:00,ZGHA 281100Z 09001MPS 2700 BR FEW012 SCT020 19/16 Q1019 NOSIG
ZGHA,2012-10-28 12:00,ZGHA 281200Z VRB01MPS 2500 -RA BR SCT012 SCT020 19/16 Q1019 NOSIG
ZGHA,2012-10-28 13:00,ZGHA 281300Z 30002MPS 270V330 2300 BR SCT012 SCT020 19/16 Q1020 NOSIG
ZGHA,2012-10-28 14:00,ZGHA 281400Z VRB01MPS 2300 BR SCT017 19/16 Q1020 NOSIG
ZGHA,2012-10-28 15:00,ZGHA 281500Z 09001MPS 2000 BR SCT017 19/16 Q1020 NOSIG
ZGHA,2012-10-28 16:00,ZGHA 281600Z VRB01MPS 1800 BR SCT020 19/17 Q1019 BECMG TL1700 1400
ZGHA,2012-10-28 17:00,ZGHA 281700Z 19001MPS 1800 -RA BR SCT020 OVC050 19/17 Q1019 BECMG TL1800 1400
ZGHA,2012-10-28 18:00,ZGHA 281800Z 16001MPS 1600 BR SCT020 OVC050 19/17 Q1018 NOSIG
ZGHA,2012-10-28 19:00,ZGHA 281900Z VRB01MPS 1600 BR SCT033 19/17 Q1018 NOSIG
ZGHA,2012-10-28 20:00,ZGHA 282000Z 21002MPS 1700 -RA BR SCT020 OVC050 18/17 Q1017 NOSIG
ZGHA,2012-10-28 21:00,ZGHA 282100Z 22001MPS 1600 -RA BR SCT007 SCT020 OVC050 18/17 Q1017 NOSIG
ZGHA,2012-10-28 22:00,ZGHA 282200Z 06002MPS 330V110 1200 R36/1400 -RA BR SCT007 SCT020 OVC050 18/17 Q1017 BECMG TL2300 1600
ZGHA,2012-10-28 23:00,ZGHA 282300Z 00000MPS 1000 R36/1400 -RA BR BKN008 OVC050 18/17 Q1018 NOSIG
ZGHA,2012-10-29 00:00,ZGHA 290000Z 00000MPS 0900 R36/1000 -RA FG BKN008 OVC050 18/17 Q1019 NOSIG
ZGHA,2012-10-29 01:00,ZGHA 290100Z 26002MPS 0700 R36/0900 -RA FG SCT003 BKN008 OVC040 18/17 Q1019 NOSIG
ZGHA,2012-10-29 02:00,ZGHA 290200Z 26002MPS 220V320 0700 R36/0900 -RA FG SCT003 BKN008 OVC033 19/18 Q1019 NOSIG
ZGHA,2012-10-29 03:00,ZGHA 290300Z VRB01MPS 0900 R36/0900 -RA FG SCT003 BKN007 OVC033 19/18 Q1018 NOSIG
ZGHA,2012-10-29 04:00,ZGHA 290400Z 31002MPS 270V340 1000 R36/1100 -RA BR SCT003 BKN007 OVC033 19/18 Q1018 NOSIG
ZGHA,2012-10-29 05:00,ZGHA 290500Z 33003MPS 1400 R36/1300 -RA BR SCT003 BKN008 OVC040 19/18 Q1017 NOSIG
ZGHA,2012-10-29 06:00,ZGHA 290600Z VRB01MPS 2000 -RA BR BKN008 OVC040 19/18 Q1016 NOSIG
ZGHA,2012-10-29 07:00,ZGHA 290700Z 30002MPS 270V340 2000 -RA BR FEW004 BKN008 OVC040 19/18 Q1016 NOSIG
ZGHA,2012-10-29 08:00,ZGHA 290800Z 33002MPS 2000 -RA BR BKN008 OVC040 19/18 Q1016 NOSIG
ZGHA,2012-10-29 09:00,ZGHA 290900Z 32003MPS 1700 -RA BR FEW004 BKN008 OVC040 19/18 Q1016 BECMG TL1100 1400
ZGHA,2012-10-29 10:00,ZGHA 291000Z 31003MPS 2200 -RA BR SCT004 BKN008 OVC040 19/17 Q1016 NOSIG
ZGHA,2012-10-29 11:00,ZGHA 291100Z 36004MPS 3000 -RA BR SCT004 BKN008 OVC040 18/17 Q1017 NOSIG
ZGHA,2012-10-29 12:00,ZGHA 291200Z 35007MPS 6000 -RA SCT004 BKN009 OVC040 17/16 Q1018 BECMG TL1400 BKN011
ZGHA,2012-10-29 13:00,ZGHA 291300Z 34007MPS 6000 -RA SCT004 BKN009 OVC040 17/15 Q1018 NOSIG
ZGHA,2012-10-29 14:00,ZGHA 291400Z 33006MPS 4500 -RA BR BKN009 OVC033 16/14 Q1019 NOSIG
ZGHA,2012-10-29 15:00,ZGHA 291500Z 35006MPS 2800 -RA BR FEW004 BKN009 OVC033 15/14 Q1020 NOSIG
ZGHA,2012-10-29 16:00,ZGHA 291600Z 34006MPS 2000 -RA BR FEW004 BKN009 OVC033 15/14 Q1020 NOSIG
ZGHA,2012-10-29 17:00,ZGHA 291700Z 34006MPS 1600 -RA BR SCT004 BKN009 OVC033 15/14 Q1020 BECMG TL1700 1400
ZGHA,2012-10-29 18:00,ZGHA 291800Z 35006MPS 1600 -RA BR SCT004 BKN009 OVC033 15/13 Q1019 NOSIG
ZGHA,2012-10-29 19:00,ZGHA 291900Z 35005MPS 1800 -RA BR SCT004 BKN009 OVC033 15/14 Q1019 NOSIG
ZGHA,2012-10-29 20:00,ZGHA 292000Z 36005MPS 1800 BR SCT004 BKN009 OVC033 15/14 Q1019 NOSIG
ZGHA,2012-10-29 21:00,ZGHA 292100Z 36006MPS 1600 BR BKN009 OVC033 15/13 Q1019 NOSIG
ZGHA,2012-10-29 22:00,ZGHA 292200Z 35005MPS 1200 R36/1800 BR BKN009 OVC033 15/13 Q1019 NOSIG
ZGHA,2012-10-29 23:00,ZGHA 292300Z 35006MPS 1200 R36/1400 BR SCT020 15/13 Q1020 BECMG TL0100 1600
ZGHA,2012-10-30 00:00,ZGHA 300000Z 34006MPS 1200 R36/1100 BR SCT009 BKN020 15/13 Q1021 NOSIG
ZGHA,2012-10-30 01:00,ZGHA 300100Z 34006MPS 1400 R36/1200 -RA BR SCT009 SCT020 15/13 Q1021 BECMG TL0200 2000
ZGHA,2012-10-30 02:00,ZGHA 300200Z 36006MPS 1600 R36/1300 BR SCT023 16/13 Q1022 BECMG TL0400 3000
ZGHA,2012-10-30 03:00,ZGHA 300300Z 35007MPS 2500 BR SCT015 17/12 Q1022 BECMG TL0400 3500
ZGHA,2012-10-30 04:00,ZGHA 300400Z 36006MPS 3000 BR SCT020 17/12 Q1022 NOSIG
ZGHA,2012-10-30 05:00,ZGHA 300500Z 36006MPS 3000 BR BKN020 18/12 Q1021 NOSIG
ZGHA,2012-10-30 06:00,ZGHA 300600Z 36006MPS 4000 HZ BKN020 OVC050 19/12 Q1020 NOSIG
ZGHA,2012-10-30 07:00,ZGHA 300700Z 01005MPS 5000 HZ BKN026 BKN050 19/12 Q1020 NOSIG
ZGHA,2012-10-30 08:00,ZGHA 300800Z 36007MPS 6000 BKN033 19/11 Q1020 NOSIG
ZGHA,2012-10-30 09:00,ZGHA 300900Z 36005MPS 6000 BKN040 19/11 Q1021 NOSIG
ZGHA,2012-10-30 10:00,ZGHA 301000Z 36004MPS 6000 SCT040 17/11 Q1021 NOSIG
ZGHA,2012-10-30 11:00,ZGHA 301100Z 34004MPS 6000 SCT040 17/11 Q1021 NOSIG
ZGHA,2012-10-30 12:00,ZGHA 301200Z 34004MPS 6000 NSC 16/11 Q1022 NOSIG
ZGHA,2012-10-30 13:00,ZGHA 301300Z 35003MPS 3000 BR NSC 15/11 Q1023 BECMG TL1400 2500
ZGHA,2012-10-30 14:00,ZGHA 301400Z 35003MPS 3000 BR NSC 15/12 Q1023 BECMG TL1500 2500
ZGHA,2012-10-30 15:00,ZGHA 301500Z 34003MPS 2200 BR NSC 15/12 Q1023 NOSIG
ZGHA,2012-10-30 16:00,ZGHA 301600Z 34003MPS 1600 BR NSC 14/12 Q1023 BECMG TL1700 1400
ZGHA,2012-10-30 17:00,ZGHA 301700Z 00000MPS 1400 R36/1900 BR NSC 12/11 Q1023 NOSIG
ZGHA,2012-10-30 18:00,ZGHA 301800Z 07001MPS 1000 R36/1200 BR NSC 12/11 Q1023 BECMG TL1830 0600 FG
ZGHA,2012-10-30 19:00,ZGHA 301900Z 35001MPS 0600 R36/0900 FG NSC 11/10 Q1023 BECMG TL2000 0300
ZGHA,2012-10-30 20:00,ZGHA 302000Z 01001MPS 0600 R36/0325 FG NSC 09/09 Q1023 NOSIG
ZGHA,2012-10-30 21:00,ZGHA 302100Z 02002MPS 340V070 0200 R36/0175 FG NSC 12/11 Q1023 NOSIG
ZGHA,2012-10-30 22:00,ZGHA 302200Z 36002MPS 0600 R36/0400 FG NSC 12/11 Q1023 NOSIG
ZGHA,2012-10-30 23:00,ZGHA 302300Z 36002MPS 340V040 0900 R36/1000 FG NSC 12/12 Q1024 BECMG TL0100 1700 BR
ZGHA,2012-10-31 00:00,ZGHA 310000Z 33002MPS 270V020 0900 R36/1000 FG NSC 13/12 Q1024 BECMG TL0130 1700 BR
ZGHA,2012-10-31 01:00,ZGHA 310100Z VRB01MPS 1000 R36/1000 BR FEW007 13/12 Q1025 BECMG TL0200 1700
ZGHA,2012-10-31 02:00,ZGHA 310200Z 05002MPS 360V090 1300 R36/1000 BR FEW008 14/12 Q1025 BECMG TL0230 1600
ZGHA,2012-10-31 03:00,ZGHA 310300Z VRB01MPS 1700 BR NSC 16/12 Q1024 BECMG TL0400 3500
ZGHA,2012-10-31 04:00,ZGHA 310400Z VRB01MPS 2500 HZ NSC 18/11 Q1023 BECMG TL0500 3500
ZGHA,2012-10-31 05:00,ZGHA 310500Z 35002MPS 280V090 5000 HZ NSC 20/07 Q1022 NOSIG
ZGHA,2012-10-31 06:00,ZGHA 310600Z VRB02MPS 8000 FEW050 21/06 Q1021 NOSIG
ZGHA,2012-10-31 07:00,ZGHA 310700Z VRB02MPS 8000 NSC 22/05 Q1021 NOSIG
ZGHA,2012-10-31 08:00,ZGHA 310800Z VRB02MPS 9000 NSC 21/05 Q1020 NOSIG
ZGHA,2012-10-31 09:00,ZGHA 310900Z 02002MPS 340V050 9000 NSC 20/05 Q1020 NOSIG
ZGHA,2012-10-31 10:00,ZGHA 311000Z 02002MPS 8000 NSC 18/09 Q1020 NOSIG
ZGHA,2012-10-31 11:00,ZGHA 311100Z VRB01MPS 7000 NSC 13/11 Q1021 NOSIG
ZGHA,2012-10-31 12:00,ZGHA 311200Z 00000MPS 6000 NSC 13/10 Q1021 NOSIG
ZGHA,2012-10-31 13:00,ZGHA 311300Z VRB01MPS 5000 BR NSC 12/10 Q1021 NOSIG
ZGHA,2012-10-31 14:00,ZGHA 311400Z VRB01MPS 4000 BR NSC 11/10 Q1022 NOSIG
ZGHA,2012-10-31 15:00,ZGHA 311500Z 04001MPS 3000 BR NSC 11/10 Q1022 NOSIG
ZGHA,2012-10-31 16:00,ZGHA 311600Z 07001MPS 3500 BR NSC 11/10 Q1022 NOSIG
ZGHA,2012-10-31 17:00,ZGHA 311700Z 02001MPS 3000 BR NSC 11/10 Q1022 NOSIG
ZGHA,2012-10-31 18:00,ZGHA 311800Z VRB01MPS 1700 BR NSC 10/09 Q1022 NOSIG
ZGHA,2012-10-31 19:00,ZGHA 311900Z 02001MPS 2000 BR NSC 09/09 Q1021 NOSIG
ZGHA,2012-10-31 20:00,ZGHA 312000Z 04001MPS 4000 BR NSC 09/08 Q1021 NOSIG
ZGHA,2012-10-31 21:00,ZGHA 312100Z VRB01MPS 3000 BR NSC 08/07 Q1021 NOSIG
ZGHA,2012-10-31 22:00,ZGHA 312200Z 12001MPS 5000 BR NSC 08/07 Q1021 NOSIG
ZGHA,2012-10-31 23:00,ZGHA 312300Z 11001MPS 7000 NSC 08/07 Q1022 NOSIG
ZGHA,2012-11-01 00:00,ZGHA 010000Z VRB01MPS 6000 NSC 10/07 Q1022 NOSIG
ZGHA,2012-11-01 01:00,ZGHA 010100Z VRB01MPS 8000 NSC 13/08 Q1022 NOSIG
ZGHA,2012-11-01 02:00,ZGHA 010200Z VRB01MPS 9000 NSC 16/08 Q1022 NOSIG
ZGHA,2012-11-01 03:00,ZGHA 010300Z 13003MPS 080V160 CAVOK 20/05 Q1022 NOSIG
ZGHA,2012-11-01 04:00,ZGHA 010400Z 13003MPS 100V170 CAVOK 21/M01 Q1021 NOSIG
ZGHA,2012-11-01 05:00,ZGHA 010500Z VRB03MPS CAVOK 22/M00 Q1019 NOSIG
ZGHA,2012-11-01 06:00,ZGHA 010600Z VRB01MPS CAVOK 22/00 Q1018 NOSIG
ZGHA,2012-11-01 07:00,ZGHA 010700Z 16002MPS 080V220 CAVOK 23/02 Q1018 NOSIG
ZGHA,2012-11-01 08:00,ZGHA 010800Z VRB01MPS CAVOK 23/01 Q1017 NOSIG
ZGHA,2012-11-01 09:00,ZGHA 010900Z VRB01MPS CAVOK 21/03 Q1017 NOSIG
ZGHA,2012-11-01 10:00,ZGHA 011000Z 12001MPS CAVOK 17/09 Q1017 NOSIG
ZGHA,2012-11-01 11:00,ZGHA 011100Z 11002MPS CAVOK 14/10 Q1017 NOSIG
ZGHA,2012-11-01 12:00,ZGHA 011200Z 07002MPS 8000 NSC 14/09 Q1018 NOSIG
ZGHA,2012-11-01 13:00,ZGHA 011300Z VRB01MPS 6000 NSC 12/09 Q1019 NOSIG
ZGHA,2012-11-01 14:00,ZGHA 011400Z 08001MPS 6000 NSC 12/08 Q1019 NOSIG
ZGHA,2012-11-01 15:00,ZGHA 011500Z VRB01MPS 6000 NSC 11/09 Q1019 NOSIG
ZGHA,2012-11-01 16:00,ZGHA 011600Z 04001MPS 6000 NSC 12/08 Q1019 NOSIG
ZGHA,2012-11-01 17:00,ZGHA 011700Z 16004MPS 9000 NSC 13/07 Q1017 NOSIG
ZGHA,2012-11-01 18:00,ZGHA 011800Z 30004MPS CAVOK 14/06 Q1019 NOSIG
ZGHA,2012-11-01 19:00,ZGHA 011900Z 06002MPS 350V130 CAVOK 13/07 Q1017 NOSIG
ZGHA,2012-11-01 20:00,ZGHA 012000Z VRB01MPS CAVOK 12/07 Q1016 NOSIG
ZGHA,2012-11-01 21:00,ZGHA 012100Z 34002MPS CAVOK 11/07 Q1018 NOSIG
ZGHA,2012-11-01 22:00,ZGHA 012200Z VRB01MPS CAVOK 11/08 Q1018 NOSIG
ZGHA,2012-11-01 23:00,ZGHA 012300Z VRB01MPS 8000 NSC 10/08 Q1018 NOSIG
ZGHA,2012-11-02 00:00,ZGHA 020000Z 18002MPS 8000 NSC 13/09 Q1020 NOSIG
ZGHA,2012-11-02 01:00,ZGHA 020100Z 15002MPS 110V190 9000 NSC 16/08 Q1020 NOSIG
ZGHA,2012-11-02 02:00,ZGHA 020200Z 13004MPS 100V160 CAVOK 20/04 Q1019 NOSIG
ZGHA,2012-11-02 03:00,ZGHA 020300Z 14004MPS CAVOK 21/04 Q1019 NOSIG
ZGHA,2012-11-02 04:00,ZGHA 020400Z 16005MPS 130V210 CAVOK 21/05 Q1017 NOSIG
ZGHA,2012-11-02 05:00,ZGHA 020500Z 17004MPS 120V210 CAVOK 22/05 Q1016 NOSIG
ZGHA,2012-11-02 06:00,ZGHA 020600Z 18003MPS 120V280 CAVOK 23/05 Q1015 NOSIG
ZGHA,2012-11-02 07:00,ZGHA 020700Z 15003MPS 100V190 CAVOK 24/04 Q1014 NOSIG
ZGHA,2012-11-02 08:00,ZGHA 020800Z 18003MPS CAVOK 23/06 Q1014 NOSIG
ZGHA,2012-11-02 09:00,ZGHA 020900Z 16002MPS CAVOK 22/07 Q1014 NOSIG
ZGHA,2012-11-02 10:00,ZGHA 021000Z 12001MPS 6000 NSC 19/09 Q1014 NOSIG
ZGHA,2012-11-02 11:00,ZGHA 021100Z 11001MPS 5000 BR NSC 16/11 Q1014 NOSIG
ZGHA,2012-11-02 12:00,ZGHA 021200Z VRB01MPS 5000 BR NSC 15/11 Q1015 NOSIG
ZGHA,2012-11-02 13:00,ZGHA 021300Z 08001MPS 5000 BR NSC 14/11 Q1016 NOSIG
ZGHA,2012-11-02 14:00,ZGHA 021400Z VRB01MPS 5000 BR NSC 13/10 Q1016 NOSIG
ZGHA,2012-11-02 15:00,ZGHA 021500Z VRB01MPS 5000 BR NSC 13/11 Q1015 NOSIG
ZGHA,2012-11-02 16:00,ZGHA 021600Z 04001MPS 5000 BR NSC 12/10 Q1015 NOSIG
ZGHA,2012-11-02 17:00,ZGHA 021700Z VRB01MPS 6000 NSC 13/10 Q1015 NOSIG
ZGHA,2012-11-02 18:00,ZGHA 021800Z 29001MPS 5000 BR NSC 12/10 Q1015 NOSIG
ZGHA,2012-11-02 19:00,ZGHA 021900Z 00000MPS 5000 BR NSC 12/10 Q1015 NOSIG
ZGHA,2012-11-02 20:00,ZGHA 022000Z 35002MPS 6000 NSC 12/10 Q1014 NOSIG
ZGHA,2012-11-02 21:00,ZGHA 022100Z 00000MPS 6000 NSC 13/10 Q1014 NOSIG
ZGHA,2012-11-02 22:00,ZGHA 022200Z 33001MPS 7000 NSC 13/10 Q1015 NOSIG
ZGHA,2012-11-02 23:00,ZGHA 022300Z 36001MPS 5000 BR NSC 14/10 Q1015 NOSIG
ZGHA,2012-11-03 00:00,ZGHA 030000Z VRB01MPS 5000 BR SCT050 14/11 Q1016 NOSIG
ZGHA,2012-11-03 01:00,ZGHA 030100Z 09001MPS 5000 BR BKN050 15/11 Q1017 NOSIG
ZGHA,2012-11-03 02:00,ZGHA 030200Z 31002MPS 5000 -SHRA BR BKN050 17/12 Q1017 NOSIG
ZGHA,2012-11-03 03:00,ZGHA 030300Z 34003MPS 300V010 7000 SCT050 18/11 Q1018 NOSIG
ZGHA,2012-11-03 04:00,ZGHA 030400Z VRB01MPS 8000 SCT050 19/10 Q1018 NOSIG
ZGHA,2012-11-03 05:00,ZGHA 030500Z 32005MPS 4000 -RA BR FEW011 SCT050 17/12 Q1018 BECMG TL0600 2500 RA BR BKN011 OVC050
ZGHA,2012-11-03 06:00,ZGHA 030600Z 36006MPS 3000 -RA BR SCT011 SCT050 16/13 Q1018 BECMG TL0630 2500 BKN011 OVC050
ZGHA,2012-11-03 07:00,ZGHA 030700Z 36005MPS 2400 -RA BR SCT011 SCT030 15/13 Q1019 BECMG TL0800 3000 BR
ZGHA,2012-11-03 08:00,ZGHA 030800Z 36006MPS 3000 -DZ BR SCT011 SCT030 15/12 Q1020 NOSIG
ZGHA,2012-11-03 09:00,ZGHA 030900Z 36007MPS 4000 BR SCT011 14/12 Q1020 NOSIG
ZGHA,2012-11-03 10:00,ZGHA 031000Z 35008MPS 5000 BR SCT011 14/11 Q1021 NOSIG
ZGHA,2012-11-03 11:00,ZGHA 031100Z 35006MPS 5000 BR SCT012 14/11 Q1022 NOSIG
ZGHA,2012-11-03 12:00,ZGHA 031200Z 36004MPS 330V030 5000 BR FEW012 BKN019 13/11 Q1023 NOSIG
ZGHA,2012-11-03 13:00,ZGHA 031300Z 36004MPS 4500 BR SCT026 12/11 Q1024 NOSIG
ZGHA,2012-11-03 14:00,ZGHA 031400Z 34004MPS 4500 BR BKN021 12/11 Q1024 NOSIG
ZGHA,2012-11-03 15:00,ZGHA 031500Z 35003MPS 3500 BR FEW021 12/10 Q1024 BECMG TL1600 2800
ZGHA,2012-11-03 16:00,ZGHA 031600Z 34003MPS 3500 BR SCT021 12/10 Q1024 NOSIG
ZGHA,2012-11-03 17:00,ZGHA 031700Z 33004MPS 4000 BR NSC 11/10 Q1024 NOSIG
ZGHA,2012-11-03 18:00,ZGHA 031800Z 32003MPS 3700 BR NSC 11/10 Q1024 NOSIG
ZGHA,2012-11-03 19:00,ZGHA 031900Z VRB01MPS 2700 BR NSC 10/09 Q1023 NOSIG
ZGHA,2012-11-03 20:00,ZGHA 032000Z 00000MPS 1600 R36/0550 MIFG BR NSC 09/08 Q1023 BECMG TL2100 1100
ZGHA,2012-11-03 21:00,ZGHA 032100Z VRB01MPS 0500 R36/0275 FG NSC 08/08 Q1023 BECMG TL2200 0200 FG
ZGHA,2012-11-03 22:00,ZGHA 032200Z VRB01MPS 0300 R36/0300 FG NSC 09/08 Q1023 NOSIG
ZGHA,2012-11-03 23:00,ZGHA 032300Z 04002MPS 360V090 1800 BR BKN002 10/09 Q1022 BECMG TL2400 3000
ZGHA,2012-11-04 00:00,ZGHA 040000Z 33004MPS 1400 R36/P2000 BR BKN002 OVC040 10/09 Q1023 BECMG TL0100 1700
ZGHA,2012-11-04 01:00,ZGHA 040100Z 02002MPS 320V120 2700 BR SCT003 OVC040 10/09 Q1024 BECMG TL0130 3000
ZGHA,2012-11-04 02:00,ZGHA 040200Z 32002MPS 270V040 3000 BR SCT007 OVC040 10/09 Q1024 NOSIG
ZGHA,2012-11-04 03:00,ZGHA 040300Z VRB01MPS 6000 SCT009 BKN050 12/09 Q1023 NOSIG
ZGHA,2012-11-04 04:00,ZGHA 040400Z VRB02MPS CAVOK 14/08 Q1022 NOSIG
ZGHA,2012-11-04 05:00,ZGHA 040500Z VRB02MPS CAVOK 17/07 Q1021 NOSIG
ZGHA,2012-11-04 07:00,ZGHA 040600Z 35002MPS 270V060 CAVOK 18/03 Q1020 NOSIG
ZGHA,2012-11-04 08:00,ZGHA 040800Z VRB01MPS CAVOK 18/04 Q1018 NOSIG
ZGHA,2012-11-04 09:00,ZGHA 040900Z 01002MPS CAVOK 17/04 Q1018 NOSIG
ZGHA,2012-11-04 10:00,ZGHA 041000Z 01003MPS CAVOK 15/04 Q1019 NOSIG
ZGHA,2012-11-04 11:00,ZGHA 041100Z 03002MPS CAVOK 14/05 Q1019 NOSIG
ZGHA,2012-11-04 12:00,ZGHA 041200Z 00000MPS CAVOK 13/09 Q1019 NOSIG
ZGHA,2012-11-04 13:00,ZGHA 041300Z VRB01MPS CAVOK NSC 13/09 Q1020 NOSIG
ZGHA,2012-11-04 14:00,ZGHA 041400Z 04001MPS 7000 NSC 13/09 Q1020 NOSIG
ZGHA,2012-11-04 15:00,ZGHA 041500Z VRB01MPS 7000 NSC 13/09 Q1020 NOSIG
ZGHA,2012-11-04 16:00,ZGHA 041600Z VRB01MPS 8000 NSC 13/09 Q1019 NOSIG
ZGHA,2012-11-04 17:00,ZGHA 041700Z VRB01MPS 8000 NSC 12/09 Q1019 NOSIG
ZGHA,2012-11-04 18:00,ZGHA 041800Z VRB01MPS 7000 NSC 12/08 Q1019 NOSIG
ZGHA,2012-11-04 19:00,ZGHA 041900Z 04002MPS 360V070 8000 NSC 13/08 Q1019 NOSIG
ZGHA,2012-11-04 20:00,ZGHA 042000Z 04002MPS 360V090 8000 NSC 12/08 Q1018 NOSIG
ZGHA,2012-11-04 21:00,ZGHA 042100Z 00000MPS CAVOK 12/08 Q1019 NOSIG
ZGHA,2012-11-04 22:00,ZGHA 042200Z 00000MPS CAVOK 11/07 Q1019 NOSIG
ZGHA,2012-11-04 23:00,ZGHA 042300Z VRB01MPS CAVOK 10/07 Q1020 NOSIG
ZGHA,2012-11-05 00:00,ZGHA 050000Z VRB01MPS CAVOK 13/09 Q1021 NOSIG
ZGHA,2012-11-05 01:00,ZGHA 050100Z 36002MPS 340V040 CAVOK 14/07 Q1022 NOSIG
ZGHA,2012-11-05 02:00,ZGHA 050200Z 08002MPS 010V120 CAVOK 16/07 Q1021 NOSIG
ZGHA,2012-11-05 03:00,ZGHA 050300Z 34002MPS 300V020 CAVOK 19/07 Q1021 NOSIG
ZGHA,2012-11-05 04:00,ZGHA 050400Z 33003MPS 270V040 CAVOK 21/06 Q1020 NOSIG
ZGHA,2012-11-05 05:00,ZGHA 050500Z 33005MPS 290V020 CAVOK 22/05 Q1019 NOSIG
ZGHA,2012-11-05 06:00,ZGHA 050600Z 35003MPS 320V030 CAVOK 21/03 Q1019 NOSIG
ZGHA,2012-11-05 07:00,ZGHA 050700Z 35005MPS CAVOK 20/04 Q1019 NOSIG
ZGHA,2012-11-05 08:00,ZGHA 050800Z 32005MPS 9999 SCT050 18/09 Q1019 NOSIG
ZGHA,2012-11-05 09:00,ZGHA 050900Z 36005MPS 9999 SCT050 17/08 Q1019 NOSIG
ZGHA,2012-11-05 10:00,ZGHA 051000Z 36003MPS 9999 BKN050 16/07 Q1019 NOSIG
ZGHA,2012-11-05 11:00,ZGHA 051100Z 31002MPS 260V340 8000 -RA BKN050 15/08 Q1020 NOSIG
ZGHA,2012-11-05 12:00,ZGHA 051200Z 33003MPS 7000 -RA BKN050 14/09 Q1021 NOSIG
ZGHA,2012-11-05 13:00,ZGHA 051300Z 36002MPS 6000 -RA BKN050 14/10 Q1021 NOSIG
ZGHA,2012-11-05 14:00,ZGHA 051400Z 35003MPS 6000 SCT050 14/10 Q1022 NOSIG
ZGHA,2012-11-05 15:00,ZGHA 051500Z 27002MPS 240V310 6000 SCT050 14/11 Q1022 NOSIG
ZGHA,2012-11-05 16:00,ZGHA 051600Z 30002MPS 260V340 5000 BR SCT050 14/11 Q1022 NOSIG
ZGHA,2012-11-05 17:00,ZGHA 051700Z 32004MPS 4000 -RA BR BKN050 13/11 Q1022 NOSIG
ZGHA,2012-11-05 18:00,ZGHA 051800Z 34003MPS 4000 -RA BR BKN050 13/11 Q1022 NOSIG
ZGHA,2012-11-05 19:00,ZGHA 051900Z 33002MPS 4200 BR BKN050 13/11 Q1022 NOSIG
ZGHA,2012-11-05 20:00,ZGHA 052000Z 01002MPS 3500 BR BKN050 13/10 Q1022 NOSIG
ZGHA,2012-11-05 21:00,ZGHA 052100Z 36002MPS 3600 BR BKN050 12/09 Q1022 NOSIG
ZGHA,2012-11-05 22:00,ZGHA 052200Z 36003MPS 4500 BR SCT050 12/09 Q1022 NOSIG
ZGHA,2012-11-05 23:00,ZGHA 052300Z 01002MPS 5000 BR NSC 12/09 Q1023 NOSIG
ZGHA,2012-11-06 00:00,ZGHA 060000Z VRB01MPS 6000 NSC 13/09 Q1023 NOSIG
ZGHA,2012-11-06 01:00,ZGHA 060100Z 35003MPS 8000 NSC 15/09 Q1023 NOSIG
ZGHA,2012-11-06 02:00,ZGHA 060200Z 30003MPS 270V340 CAVOK 16/09 Q1024 NOSIG
ZGHA,2012-11-06 03:00,ZGHA 060300Z 30002MPS 250V340 CAVOK 17/08 Q1023 NOSIG
ZGHA,2012-11-06 04:00,ZGHA 060400Z 30002MPS 260V350 CAVOK 18/08 Q1023 NOSIG
ZGHA,2012-11-06 05:00,ZGHA 060500Z 35003MPS 280V080 CAVOK 20/06 Q1021 NOSIG
ZGHA,2012-11-06 06:00,ZGHA 060600Z 02002MPS 320V080 CAVOK 20/06 Q1020 NOSIG
ZGHA,2012-11-06 07:00,ZGHA 060700Z 03002MPS 320V090 CAVOK 20/06 Q1019 NOSIG
ZGHA,2012-11-06 08:00,ZGHA 060800Z 34002MPS 290V020 CAVOK 20/05 Q1019 NOSIG
ZGHA,2012-11-06 09:00,ZGHA 060900Z 28003MPS 250V320 CAVOK 19/09 Q1019 NOSIG
ZGHA,2012-11-06 10:00,ZGHA 061000Z 30003MPS 270V340 8000 NSC 18/09 Q1019 NOSIG
ZGHA,2012-11-06 11:00,ZGHA 061100Z 32003MPS 290V350 9000 NSC 16/07 Q1020 NOSIG
ZGHA,2012-11-06 12:00,ZGHA 061200Z VRB01MPS 8000 NSC 16/07 Q1020 NOSIG
ZGHA,2012-11-06 13:00,ZGHA 061300Z 03002MPS 8000 NSC 14/08 Q1020 NOSIG
ZGHA,2012-11-06 14:00,ZGHA 061400Z 34002MPS 8000 NSC 14/07 Q1021 NOSIG
ZGHA,2012-11-06 15:00,ZGHA 061500Z 06002MPS 6000 NSC 12/09 Q1020 NOSIG
ZGHA,2012-11-06 16:00,ZGHA 061600Z VRB01MPS 6000 NSC 12/09 Q1020 NOSIG
ZGHA,2012-11-06 17:00,ZGHA 061700Z VRB01MPS 5000 BR NSC 12/09 Q1019 NOSIG
ZGHA,2012-11-06 18:00,ZGHA 061800Z VRB01MPS 5000 BR NSC 11/09 Q1019 NOSIG
ZGHA,2012-11-06 19:00,ZGHA 061900Z 00000MPS 5000 BR NSC 12/09 Q1019 NOSIG
ZGHA,2012-11-06 20:00,ZGHA 062000Z 08001MPS 6000 NSC 12/08 Q1018 NOSIG
ZGHA,2012-11-06 21:00,ZGHA 062100Z 05001MPS 8000 -RA NSC 12/08 Q1018 NOSIG
ZGHA,2012-11-06 22:00,ZGHA 062200Z 21001MPS 8000 -RA NSC 12/09 Q1019 NOSIG
ZGHA,2012-11-06 23:00,ZGHA 062300Z 01001MPS 8000 -RA NSC 12/09 Q1019 NOSIG
ZGHA,2012-11-07 00:00,ZGHA 070000Z 00000MPS 6000 -RA SCT050 12/09 Q1019 NOSIG
ZGHA,2012-11-07 01:00,ZGHA 070100Z 18002MPS 6000 SCT040 13/09 Q1020 NOSIG
ZGHA,2012-11-07 02:00,ZGHA 070200Z 15002MPS 7000 -RA SCT030 13/08 Q1020 NOSIG
ZGHA,2012-11-07 03:00,ZGHA 070300Z VRB01MPS 6000 SCT023 13/09 Q1020 NOSIG
ZGHA,2012-11-07 04:00,ZGHA 070400Z 18002MPS 150V210 4500 BR SCT023 14/09 Q1019 NOSIG
ZGHA,2012-11-07 05:00,ZGHA 070500Z VRB01MPS 4800 -RA HZ SCT040 14/08 Q1018 NOSIG
ZGHA,2012-11-07 06:00,ZGHA 070600Z VRB01MPS 5000 -RA HZ BKN040 14/08 Q1017 NOSIG
ZGHA,2012-11-07 07:00,ZGHA 070700Z VRB01MPS 6000 BKN040 15/08 Q1016
ZGHA,2012-11-07 08:00,ZGHA 070800Z VRB01MPS 4500 HZ BKN033 15/08 Q1016 NOSIG
ZGHA,2012-11-07 09:00,ZGHA 070900Z 36003MPS 4000 BR BKN033 14/10 Q1016 NOSIG
ZGHA,2012-11-07 10:00,ZGHA 071000Z 01001MPS 4000 BR BKN030 14/10 Q1017 NOSIG
ZGHA,2012-11-07 11:00,ZGHA 071100Z 01001MPS 4500 -RA BR BKN030 OVC050 14/10 Q1017 NOSIG
ZGHA,2012-11-07 12:00,ZGHA 071200Z 01002MPS 5000 -RA BR BKN020 OVC050 13/10 Q1017 NOSIG
ZGHA,2012-11-07 13:00,ZGHA 071300Z VRB01MPS 4000 -RA BR FEW009 BKN020 OVC050 13/11 Q1018 NOSIG
ZGHA,2012-11-07 14:00,ZGHA 071400Z 00000MPS 2500 -DZ BR FEW009 BKN023 OVC050 13/11 Q1018 NOSIG
ZGHA,2012-11-07 15:00,ZGHA 071500Z VRB01MPS 2000 -DZ BR BKN007 OVC050 12/11 Q1018 NOSIG
ZGHA,2012-11-07 16:00,ZGHA 071600Z 01002MPS 350V050 2000 -DZ BR BKN008 OVC050 12/11 Q1017 NOSIG
ZGHA,2012-11-07 17:00,ZGHA 071700Z 34003MPS 300V040 1800 -RA BR BKN008 OVC050 12/11 Q1017 NOSIG
ZGHA,2012-11-07 18:00,ZGHA 071800Z 36002MPS 340V040 1800 -RA BR FEW004 BKN008 OVC050 12/11 Q1016 NOSIG
ZGHA,2012-11-07 19:00,ZGHA 071900Z 35004MPS 2000 -RA BR BKN008 OVC050 11/10 Q1015 NOSIG
ZGHA,2012-11-07 20:00,ZGHA 072000Z 33004MPS 2000 -RA BR BKN007 OVC050 11/10 Q1016 NOSIG
ZGHA,2012-11-07 21:00,ZGHA 072100Z 35003MPS 330V030 1800 -RA BR BKN006 OVC040 11/10 Q1016 NOSIG
ZGHA,2012-11-07 22:00,ZGHA 072200Z 33004MPS 1600 RA BR BKN006 OVC040 11/10 Q1017 NOSIG
ZGHA,2012-11-07 23:00,ZGHA 072300Z 34003MPS 1200 R36/1700 RA BR SCT003 BKN006 OVC040 11/10 Q1016 BECMG 1700
ZGHA,2012-11-08 00:00,ZGHA 080000Z 35005MPS 1100 R36/1500 -RA BR SCT003 BKN006 OVC040 11/10 Q1017 RERA BECMG TL0200 1700
ZGHA,2012-11-08 01:00,ZGHA 080100Z 34005MPS 1600 -RA BR FEW004 BKN007 OVC040 11/09 Q1017 NOSIG
ZGHA,2012-11-08 02:00,ZGHA 080200Z 34005MPS 300V360 1600 R36/1400 -RA BR FEW004 BKN007 OVC040 11/10 Q1018 NOSIG
ZGHA,2012-11-08 03:00,ZGHA 080300Z 32003MPS 280V340 1600 -RA BR BKN008 OVC040 11/10 Q1017 NOSIG
ZGHA,2012-11-08 04:00,ZGHA 080400Z 31004MPS 1600 -RA BR FEW004 BKN007 OVC040 11/10 Q1017 NOSIG
ZGHA,2012-11-08 05:00,ZGHA 080500Z 33003MPS 1700 R36/1400 -RA BR FEW006 BKN007 OVC040 11/10 Q1016 BECMG TL0630 3000
ZGHA,2012-11-08 06:00,ZGHA 080600Z 32002MPS 280V360 2200 -RA BR BKN007 OVC040 12/10 Q1015 BECMG TL0700 3000
ZGHA,2012-11-08 07:00,ZGHA 080700Z 34003MPS 2700 -RA BR BKN008 OVC040 12/10 Q1015 BECMG TL0800 3000
ZGHA,2012-11-08 08:00,ZGHA 080800Z 34002MPS 2700 BR SCT009 BKN020 OVC050 12/10 Q1015 BECMG TL0900 3000
ZGHA,2012-11-08 09:00,ZGHA 080900Z 02002MPS 3000 BR BKN020 OVC050 12/10 Q1015 NOSIG
ZGHA,2012-11-08 10:00,ZGHA 081000Z 00000MPS 2700 BR SCT009 BKN020 OVC050 12/10 Q1015 BECMG TL1200 3000
ZGHA,2012-11-08 11:00,ZGHA 081100Z VRB01MPS 2500 BR SCT007 BKN020 OVC050 12/10 Q1015 NOSIG
ZGHA,2012-11-08 12:00,ZGHA 081200Z VRB01MPS 2200 BR SCT007 BKN016 OVC050 12/11 Q1016 NOSIG
ZGHA,2012-11-08 13:00,ZGHA 081300Z 01001MPS 2500 BR BKN009 OVC050 12/10 Q1016 NOSIG
ZGHA,2012-11-08 14:00,ZGHA 081400Z 33002MPS 280V360 2200 -RA BR FEW005 BKN009 OVC050 12/11 Q1016 NOSIG
ZGHA,2012-11-08 15:00,ZGHA 081500Z VRB01MPS 1800 RA BR FEW004 BKN008 OVC050 12/11 Q1016 BECMG TL1530 -RA BR
ZGHA,2012-11-08 16:00,ZGHA 081600Z VRB01MPS 1400 R36/1400 -RA BR FEW004 BKN008 OVC050 12/11 Q1015 RERA NOSIG
ZGHA,2012-11-08 17:00,ZGHA 081700Z 36001MPS 1700 -RA BR FEW004 BKN007 OVC050 12/11 Q1015 NOSIG
ZGHA,2012-11-08 18:00,ZGHA 081800Z 30002MPS 270V360 1700 -RA BR FEW004 BKN007 OVC050 12/11 Q1016 NOSIG
ZGHA,2012-11-08 19:00,ZGHA 081900Z 01001MPS 1600 -SHRA BR SCT003 BKN007 OVC050 12/11 Q1015 NOSIG
ZGHA,2012-11-08 20:00,ZGHA 082000Z 01001MPS 1600 -SHRA BR SCT003 BKN007 OVC050 12/11 Q1015 NOSIG
ZGHA,2012-11-08 21:00,ZGHA 082100Z 36002MPS 1600 -RA BR SCT003 BKN007 OVC040 12/11 Q1015 NOSIG
ZGHA,2012-11-08 22:00,ZGHA 082200Z VRB01MPS 1600 -SHRA BR SCT003 BKN007 OVC040 12/11 Q1015 NOSIG
ZGHA,2012-11-08 23:00,ZGHA 082300Z 35002MPS 1600 -RA BR SCT003 BKN007 OVC040 12/11 Q1016 NOSIG
ZGHA,2012-11-09 00:00,ZGHA 090000Z VRB01MPS 1200 R36/1300 -RA BR SCT003 BKN007 OVC040 12/11 Q1016 BECMG TL0130 1500
ZGHA,2012-11-09 01:00,ZGHA 090100Z VRB01MPS 2700 BR SCT020 OVC033 12/11 Q1017 BECMG SCT009 BKN012 OVC040
ZGHA,2012-11-09 02:00,ZGHA 090200Z 05002MPS 350V120 2400 -RA BR BKN020 OVC030 12/11 Q1016 NOSIG
ZGHA,2012-11-09 03:00,ZGHA 090300Z VRB01MPS 1600 -RA BR BKN007 OVC030 13/11 Q1016 NOSIG
ZGHA,2012-11-09 04:00,ZGHA 090400Z 08002MPS 060V120 2000 -RA BR BKN007 OVC030 13/12 Q1015 NOSIG
ZGHA,2012-11-09 05:00,ZGHA 090500Z VRB01MPS 2400 -RA BR BKN007 OVC030 13/11 Q1014 NOSIG
ZGHA,2012-11-09 06:00,ZGHA 090600Z 06002MPS 010V090 2500 -RA BR SCT003 BKN007 OVC033 13/11 Q1014 NOSIG
ZGHA,2012-11-09 07:00,ZGHA 090700Z VRB01MPS 2000 R36/1300 RA BR SCT003 BKN007 OVC033 13/12 Q1014 BECMG TL0730 -RA
ZGHA,2012-11-09 08:00,ZGHA 090800Z 06002MPS 010V100 1800 -RA BR SCT003 BKN007 OVC033 13/12 Q1013 NOSIG
ZGHA,2012-11-09 09:00,ZGHA 090900Z VRB01MPS 1200 R36/1300 -RA BR SCT003 BKN007 OVC033 13/12 Q1014 BECMG TL1000 1600
ZGHA,2012-11-09 10:00,ZGHA 091000Z VRB01MPS 1400 R36/1700 -RA BR SCT003 BKN007 OVC030 12/11 Q1014 BECMG TL1030 1600
ZGHA,2012-11-09 11:00,ZGHA 091100Z 36003MPS 2400 BR SCT003 BKN007 OVC040 12/12 Q1015 NOSIG
ZGHA,2012-11-09 12:00,ZGHA 091200Z 36003MPS 3500 BR FEW005 BKN011 OVC033 12/11 Q1016 NOSIG
ZGHA,2012-11-09 13:00,ZGHA 091300Z 35004MPS 3000 BR FEW005 BKN010 OVC033 13/11 Q1016 BECMG TL1400 2000 FEW003 BKN007 OVC040
ZGHA,2012-11-09 14:00,ZGHA 091400Z 34004MPS 3000 -DZ BR BKN005 OVC033 12/11 Q1017 BECMG TL1500 1600
ZGHA,2012-11-09 15:00,ZGHA 091500Z 33004MPS 300V360 3000 -RA BR BKN005 OVC033 12/11 Q1017 NOSIG
ZGHA,2012-11-09 16:00,ZGHA 091600Z 35004MPS 2200 -RA BR BKN007 OVC033 12/11 Q1017 BECMG TL1730 3000
ZGHA,2012-11-09 17:00,ZGHA 091700Z 35003MPS 3000 BR BKN007 OVC033 12/11 Q1017 NOSIG
ZGHA,2012-11-09 18:00,ZGHA 091800Z 36003MPS 340V040 2200 -RA BR BKN004 OVC033 11/10 Q1016 NOSIG
ZGHA,2012-11-09 19:00,ZGHA 091900Z 34005MPS 2200 -RA BR BKN004 OVC033 11/10 Q1015 NOSIG
ZGHA,2012-11-09 20:00,ZGHA 092000Z 29005MPS 2200 TSRA BR BKN004 OVC033 11/10 Q1018 NOSIG
ZGHA,2012-11-09 21:00,ZGHA 092100Z 32003MPS 2500 -RA BR BKN004 OVC033 11/10 Q1017 RETSRA NOSIG
ZGHA,2012-11-09 22:00,ZGHA 092200Z 31003MPS 2500 BR BKN004 OVC033 11/10 Q1017 NOSIG
ZGHA,2012-11-09 23:00,ZGHA 092300Z 33003MPS 2200 -RA BR BKN004 OVC033 11/10 Q1018 BECMG TL2400 BKN005 OVC040
ZGHA,2012-11-10 00:00,ZGHA 100000Z 34002MPS 310V010 2500 -RA BR SCT005 BKN006 OVC040 11/10 Q1019 NOSIG
ZGHA,2012-11-10 01:00,ZGHA 100100Z 30002MPS 280V340 2500 BR BKN009 OVC040 12/10 Q1020 TEMPO 1400 -RA BR
ZGHA,2012-11-10 02:00,ZGHA 100200Z 32004MPS 1700 -RA BR BKN006 OVC040 12/10 Q1020 BECMG TL0400 3000 BR SCT011 OVC040
ZGHA,2012-11-10 03:00,ZGHA 100300Z 33004MPS 2200 BR BKN007 OVC040 12/10 Q1021 BECMG TL0400 3000 SCT011 OVC040
ZGHA,2012-11-10 04:00,ZGHA 100400Z 34005MPS 1800 BR BKN009 OVC040 13/10 Q1021 BECMG TL0600 3000 SCT011 OVC040
ZGHA,2012-11-10 05:00,ZGHA 100500Z 31004MPS 1800 BR BKN009 OVC040 12/10 Q1020 NOSIG
ZGHA,2012-11-10 06:00,ZGHA 100600Z 34005MPS 2400 BR BKN009 OVC040 13/10 Q1020 NOSIG
ZGHA,2012-11-10 07:00,ZGHA 100700Z 34005MPS 2100 BR BKN009 OVC040 13/10 Q1020 NOSIG
ZGHA,2012-11-10 08:00,ZGHA 100800Z 35006MPS 2700 BR BKN011 OVC040 12/10 Q1020 NOSIG
ZGHA,2012-11-10 09:00,ZGHA 100900Z 35004MPS 2700 BR BKN011 OVC040 12/10 Q1021 BECMG TL1030 3300
ZGHA,2012-11-10 10:00,ZGHA 101000Z 35004MPS 3500 BR BKN013 OVC050 12/10 Q1022 BECMG TL1130 SCT015 OVC050
ZGHA,2012-11-10 11:00,ZGHA 101100Z 33004MPS 3500 BR BKN013 OVC050 13/10 Q1023 BECMG TL1230 SCT013 OVC050
ZGHA,2012-11-10 12:00,ZGHA 101200Z 35002MPS 3000 BR BKN011 OVC050 13/10 Q1024 NOSIG
ZGHA,2012-11-10 13:00,ZGHA 101300Z VRB01MPS 2700 BR SCT011 BKN020 OVC050 12/10 Q1024 NOSIG
ZGHA,2012-11-10 14:00,ZGHA 101400Z 35003MPS 2700 BR BKN023 OVC050 12/10 Q1025 NOSIG
ZGHA,2012-11-10 15:00,ZGHA 101500Z 34004MPS 3000 BR BKN020 OVC050 12/10 Q1025 NOSIG
ZGHA,2012-11-10 16:00,ZGHA 101600Z 35005MPS 2500 BR BKN026 OVC050 12/10 Q1026 NOSIG
ZGHA,2012-11-10 17:00,ZGHA 101700Z 35005MPS 3000 BR BKN050 12/10 Q1025 NOSIG
ZGHA,2012-11-10 18:00,ZGHA 101800Z 34006MPS 3500 BR NSC 12/09 Q1025 NOSIG
ZGHA,2012-11-10 19:00,ZGHA 101900Z 36005MPS 3700 BR NSC 11/08 Q1025 NOSIG
ZGHA,2012-11-10 20:00,ZGHA 102000Z 36004MPS 3700 BR NSC 11/07 Q1025 NOSIG
ZGHA,2012-11-10 21:00,ZGHA 102100Z 36006MPS 4200 HZ NSC 11/05 Q1025 NOSIG
ZGHA,2012-11-10 22:00,ZGHA 102200Z 36006MPS 3700 BR NSC 11/06 Q1026 NOSIG
ZGHA,2012-11-10 23:00,ZGHA 102300Z 36004MPS 3200 BR NSC 09/06 Q1026 NOSIG
ZGHA,2012-11-11 00:00,ZGHA 110000Z 36005MPS 3200 BR NSC 10/07 Q1027 NOSIG
ZGHA,2012-11-11 01:00,ZGHA 110100Z 01004MPS 4000 HZ NSC 12/05 Q1028 NOSIG
ZGHA,2012-11-11 02:00,ZGHA 110200Z 06003MPS 350V110 8000 NSC 14/01 Q1028 NOSIG
ZGHA,2012-11-11 03:00,ZGHA 110300Z 04004MPS 340V100 CAVOK 15/M03 Q1027 NOSIG
ZGHA,2012-11-11 04:00,ZGHA 110400Z 02003MPS 320V130 CAVOK 17/M02 Q1026 NOSIG
ZGHA,2012-11-11 05:00,ZGHA 110500Z 34003MPS 260V050 CAVOK 18/M00 Q1025 NOSIG
ZGHA,2012-11-11 06:00,ZGHA 110600Z 33004MPS 290V010 CAVOK 18/M00 Q1023 NOSIG
ZGHA,2012-11-11 07:00,ZGHA 110700Z 36003MPS 300V040 CAVOK 18/01 Q1023 NOSIG
ZGHA,2012-11-11 08:00,ZGHA 110800Z 01002MPS 300V060 CAVOK 18/02 Q1022 NOSIG
ZGHA,2012-11-11 09:00,ZGHA 110900Z 33003MPS 290V360 CAVOK 16/01 Q1022 NOSIG
ZGHA,2012-11-11 10:00,ZGHA 111000Z 36003MPS CAVOK 14/02 Q1022 NOSIG
ZGHA,2012-11-11 11:00,ZGHA 111100Z 36003MPS CAVOK 13/01 Q1023 NOSIG
ZGHA,2012-11-11 12:00,ZGHA 111200Z VRB01MPS CAVOK 11/03 Q1023 NOSIG
ZGHA,2012-11-11 13:00,ZGHA 111300Z 11001MPS CAVOK 09/05 Q1023 NOSIG
ZGHA,2012-11-11 14:00,ZGHA 111400Z VRB01MPS 7000 NSC 08/06 Q1023 NOSIG
ZGHA,2012-11-11 15:00,ZGHA 111500Z 12002MPS 090V150 6000 NSC 08/06 Q1023 NOSIG
ZGHA,2012-11-11 16:00,ZGHA 111600Z 01001MPS 6000 NSC 08/06 Q1023 NOSIG
ZGHA,2012-11-11 17:00,ZGHA 111700Z 01002MPS 5000 BR NSC 08/06 Q1023 NOSIG
ZGHA,2012-11-11 18:00,ZGHA 111800Z 04001MPS 5000 BR NSC 07/06 Q1022 NOSIG
ZGHA,2012-11-11 19:00,ZGHA 111900Z 36001MPS 6000 NSC 07/05 Q1022 NOSIG
ZGHA,2012-11-11 20:00,ZGHA 112000Z 01001MPS 6000 NSC 06/05 Q1022 NOSIG
ZGHA,2012-11-11 21:00,ZGHA 112100Z 00000MPS 5000 BR NSC 06/05 Q1021 NOSIG
ZGHA,2012-11-11 22:00,ZGHA 112200Z 04001MPS 4500 BR NSC 06/05 Q1022 NOSIG
ZGHA,2012-11-11 23:00,ZGHA 112300Z 35001MPS 5000 BR NSC 06/05 Q1022 NOSIG
ZGHA,2012-11-12 00:00,ZGHA 120000Z 00000MPS 7000 NSC 08/07 Q1023 NOSIG
ZGHA,2012-11-12 01:00,ZGHA 120100Z VRB01MPS CAVOK 10/05 Q1024 NOSIG
ZGHA,2012-11-12 02:00,ZGHA 120200Z 17002MPS 130V210 CAVOK 12/06 Q1023 NOSIG
ZGHA,2012-11-12 03:00,ZGHA 120300Z VRB01MPS CAVOK 15/06 Q1023 NOSIG
ZGHA,2012-11-12 04:00,ZGHA 120400Z VRB01MPS CAVOK 18/05 Q1022 NOSIG
ZGHA,2012-11-12 05:00,ZGHA 120500Z 23002MPS 150V290 CAVOK 18/05 Q1020 NOSIG
ZGHA,2012-11-12 06:00,ZGHA 120600Z 30003MPS 250V340 CAVOK 19/05 Q1019 NOSIG
ZGHA,2012-11-12 07:00,ZGHA 120700Z 29002MPS 210V330 CAVOK 18/05 Q1019 NOSIG
ZGHA,2012-11-12 08:00,ZGHA 120800Z 31002MPS 260V350 CAVOK 18/06 Q1019 NOSIG
ZGHA,2012-11-12 09:00,ZGHA 120900Z 33003MPS CAVOK 17/06 Q1019 NOSIG
ZGHA,2012-11-12 10:00,ZGHA 121000Z VRB01MPS 8000 NSC 16/09 Q1019 NOSIG
ZGHA,2012-11-12 11:00,ZGHA 121100Z VRB01MPS 8000 NSC 14/10 Q1020 NOSIG
ZGHA,2012-11-12 12:00,ZGHA 121200Z 00000MPS 6000 NSC 12/10 Q1021 NOSIG
ZGHA,2012-11-12 13:00,ZGHA 121300Z 17001MPS 5000 BR NSC 11/10 Q1021 NOSIG
ZGHA,2012-11-12 14:00,ZGHA 121400Z 08001MPS 5000 BR NSC 11/09 Q1022 NOSIG
ZGHA,2012-11-12 15:00,ZGHA 121500Z 00000MPS 4000 BR NSC 10/09 Q1022 NOSIG
ZGHA,2012-11-12 16:00,ZGHA 121600Z 00000MPS 2700 BR NSC 10/09 Q1022 BECMG TL1800 1400
ZGHA,2012-11-12 17:00,ZGHA 121700Z 05001MPS 2100 BR NSC 09/08 Q1022 NOSIG
ZGHA,2012-11-12 18:00,ZGHA 121800Z 12001MPS 1800 BR NSC 08/08 Q1021 NOSIG
ZGHA,2012-11-12 19:00,ZGHA 121900Z VRB01MPS 1600 BR NSC 08/07 Q1020 NOSIG
ZGHA,2012-11-12 20:00,ZGHA 122000Z 19002MPS 3000 BR NSC 08/07 Q1020 NOSIG
ZGHA,2012-11-12 21:00,ZGHA 122100Z 00000MPS 3000 BR NSC 08/07 Q1020 NOSIG
ZGHA,2012-11-12 22:00,ZGHA 122200Z 06001MPS 2500 BR NSC 08/07 Q1021 NOSIG
ZGHA,2012-11-12 23:00,ZGHA 122300Z 06001MPS 2100 BR NSC 07/07 Q1021 NOSIG
ZGHA,2012-11-13 00:00,ZGHA 130000Z 07002MPS 040V100 3700 BR NSC 09/08 Q1022 NOSIG
ZGHA,2012-11-13 01:00,ZGHA 130100Z VRB01MPS 5000 BR NSC 12/09 Q1022 NOSIG
ZGHA,2012-11-13 02:00,ZGHA 130200Z VRB01MPS 6000 NSC 15/09 Q1022 NOSIG
ZGHA,2012-11-13 03:00,ZGHA 130300Z VRB01MPS 6000 NSC 18/09 Q1021 NOSIG
ZGHA,2012-11-13 04:00,ZGHA 130400Z VRB02MPS 8000 NSC 19/08 Q1020 NOSIG
ZGHA,2012-11-13 05:00,ZGHA 130500Z VRB01MPS CAVOK 21/07 Q1018 NOSIG
ZGHA,2012-11-13 06:00,ZGHA 130600Z VRB01MPS CAVOK 22/06 Q1017 NOSIG
ZGHA,2012-11-13 07:00,ZGHA 130700Z VRB01MPS CAVOK 22/05 Q1016 NOSIG
ZGHA,2012-11-13 08:00,ZGHA 130800Z VRB01MPS CAVOK 22/06 Q1016 NOSIG
ZGHA,2012-11-13 09:00,ZGHA 130900Z VRB01MPS CAVOK 21/07 Q1016 NOSIG
ZGHA,2012-11-13 10:00,ZGHA 131000Z 00000MPS CAVOK 17/10 Q1015 NOSIG
ZGHA,2012-11-13 11:00,ZGHA 131100Z 12001MPS 7000 NSC 14/10 Q1016 NOSIG
ZGHA,2012-11-13 12:00,ZGHA 131200Z 00000MPS 6000 NSC 12/10 Q1016 NOSIG
ZGHA,2012-11-13 13:00,ZGHA 131300Z VRB01MPS 4000 BR NSC 12/10 Q1016 BECMG TL1500 2800
ZGHA,2012-11-13 14:00,ZGHA 131400Z 04002MPS 4000 BR NSC 12/11 Q1016 BECMG TL1500 2800
ZGHA,2012-11-13 15:00,ZGHA 131500Z 03001MPS 3500 BR NSC 12/10 Q1016 BECMG TL1600 2800
ZGHA,2012-11-13 16:00,ZGHA 131600Z 00000MPS 4000 BR NSC 11/09 Q1016 NOSIG
ZGHA,2012-11-13 17:00,ZGHA 131700Z 30001MPS 4500 BR NSC 10/09 Q1016 NOSIG
ZGHA,2012-11-13 18:00,ZGHA 131800Z VRB01MPS 4000 BR NSC 10/08 Q1016 NOSIG
ZGHA,2012-11-13 19:00,ZGHA 131900Z 03001MPS 4500 BR NSC 09/08 Q1016 NOSIG
ZGHA,2012-11-13 20:00,ZGHA 132000Z 00000MPS 4000 BR NSC 09/08 Q1016 NOSIG
ZGHA,2012-11-13 21:00,ZGHA 132100Z 00000MPS 3000 BR NSC 09/08 Q1016 NOSIG
ZGHA,2012-11-13 22:00,ZGHA 132200Z 36002MPS 5000 BR NSC 10/09 Q1016 NOSIG
ZGHA,2012-11-13 23:00,ZGHA 132300Z VRB01MPS 6000 NSC 11/09 Q1017 NOSIG
ZGHA,2012-11-14 00:00,ZGHA 140000Z VRB01MPS 6000 NSC 11/09 Q1017 NOSIG
ZGHA,2012-11-14 01:00,ZGHA 140100Z VRB01MPS 8000 NSC 13/10 Q1018 NOSIG
ZGHA,2012-11-14 02:00,ZGHA 140200Z 27002MPS 9000 SCT050 15/10 Q1018 NOSIG
ZGHA,2012-11-14 03:00,ZGHA 140300Z 28002MPS 260V330 6000 SCT050 15/10 Q1018 NOSIG
ZGHA,2012-11-14 04:00,ZGHA 140400Z VRB01MPS 7000 SCT050 16/11 Q1017 NOSIG
ZGHA,2012-11-14 05:00,ZGHA 140500Z VRB01MPS 6000 BKN050 16/11 Q1016 NOSIG
ZGHA,2012-11-14 06:00,ZGHA 140600Z VRB01MPS 6000 BKN050 17/11 Q1016 NOSIG
ZGHA,2012-11-14 07:00,ZGHA 140700Z 31003MPS 280V340 6000 SCT050 17/11 Q1016 NOSIG
ZGHA,2012-11-14 08:00,ZGHA 140800Z 29002MPS 6000 BKN050 17/11 Q1016 NOSIG
ZGHA,2012-11-14 09:00,ZGHA 140900Z 33002MPS 300V360 4000 BR BKN050 17/11 Q1016 NOSIG
ZGHA,2012-11-14 10:00,ZGHA 141000Z 02002MPS 3500 BR OVC050 16/11 Q1017 NOSIG
ZGHA,2012-11-14 11:00,ZGHA 141100Z 01002MPS 3500 BR BKN050 16/12 Q1017 NOSIG
ZGHA,2012-11-14 12:00,ZGHA 141200Z 34002MPS 4000 BR OVC050 16/11 Q1018 NOSIG
ZGHA,2012-11-14 13:00,ZGHA 141300Z 36002MPS 4000 BR BKN050 15/12 Q1018 NOSIG
ZGHA,2012-11-14 14:00,ZGHA 141400Z VRB01MPS 4000 BR BKN050 15/11 Q1018 BECMG TL1530 2500
ZGHA,2012-11-14 15:00,ZGHA 141500Z 31002MPS 280V340 3500 BR OVC050 15/12 Q1019 BECMG TL1600 2500
ZGHA,2012-11-14 16:00,ZGHA 141600Z VRB01MPS 3500 BR SCT030 OVC050 15/12 Q1019 BECMG TL1700 2500
ZGHA,2012-11-14 17:00,ZGHA 141700Z 00000MPS 3000 BR SCT030 OVC050 15/12 Q1019 NOSIG
ZGHA,2012-11-14 18:00,ZGHA 141800Z 29002MPS 270V330 2500 -RA BR SCT030 OVC050 15/12 Q1018 NOSIG
ZGHA,2012-11-14 19:00,ZGHA 141900Z VRB01MPS 2000 -RA BR OVC050 14/13 Q1018 NOSIG
ZGHA,2012-11-14 20:00,ZGHA 142000Z VRB01MPS 1700 -RA BR OVC050 14/13 Q1018 NOSIG
ZGHA,2012-11-14 21:00,ZGHA 142100Z 34002MPS 310V010 1700 BR SCT020 OVC050 14/13 Q1018 NOSIG
ZGHA,2012-11-14 22:00,ZGHA 142200Z 31002MPS 1600 BR SCT020 OVC050 14/13 Q1018 NOSIG
ZGHA,2012-11-14 23:00,ZGHA 142300Z 33004MPS 1200 R36/1400 -RA BR SCT007 OVC040 14/13 Q1019 NOSIG
ZGHA,2012-11-15 00:00,ZGHA 150000Z VRB01MPS 0900 R36/1200 -RA FG SCT006 OVC040 14/13 Q1020 NOSIG
ZGHA,2012-11-15 01:00,ZGHA 150100Z 27002MPS 0800 R36/1300 -RA FG SCT003 BKN004 OVC040 13/12 Q1021 RESHRA NOSIG
ZGHA,2012-11-15 02:00,ZGHA 150200Z 32003MPS 1000 R36/1300 -RA BR SCT003 BKN004 OVC040 13/12 Q1022 NOSIG
ZGHA,2012-11-15 03:00,ZGHA 150300Z 31004MPS 280V340 1200 R36/1400 -RA BR SCT003 BKN004 OVC040 12/11 Q1022 BECMG TL0430 1500
ZGHA,2012-11-15 04:00,ZGHA 150400Z 36002MPS 320V020 1700 -DZ BR SCT003 BKN004 OVC040 13/11 Q1021 NOSIG
ZGHA,2012-11-15 05:00,ZGHA 150500Z 36001MPS 2200 -RA BR BKN008 OVC040 13/11 Q1020 NOSIG
ZGHA,2012-11-15 06:00,ZGHA 150600Z 30003MPS 280V340 1100 R36/1600 -RA BR SCT003 BKN004 OVC040 13/11 Q1020 NOSIG
ZGHA,2012-11-15 07:00,ZGHA 150700Z 30003MPS 1800 -RA BR SCT003 BKN004 OVC040 12/10 Q1019 NOSIG
ZGHA,2012-11-15 08:00,ZGHA 150800Z 30003MPS 2500 -RA BR SCT003 BKN004 OVC040 11/10 Q1020 NOSIG
ZGHA,2012-11-15 09:00,ZGHA 150900Z 33003MPS 3000 BR BKN004 OVC040 11/10 Q1020 NOSIG
ZGHA,2012-11-15 10:00,ZGHA 151000Z 30004MPS 3200 BR BKN004 OVC040 11/09 Q1020 BECMG TL1100 2400
ZGHA,2012-11-15 11:00,ZGHA 151100Z 33003MPS 2700 -RA BR BKN004 OVC040 10/09 Q1021 BECMG TL1230 3000 -RA BR BKN005 OVC050
ZGHA,2012-11-15 12:00,ZGHA 151200Z 31005MPS 3000 -RA BR BKN004 OVC040 10/09 Q1022 NOSIG
ZGHA,2012-11-15 13:00,ZGHA 151300Z 32003MPS 3000 -RA BR BKN004 OVC040 10/09 Q1023 BECMG TL1400 2500
ZGHA,2012-11-15 14:00,ZGHA 151400Z 31002MPS 280V360 2500 -RA BR BKN004 OVC040 10/09 Q1023 NOSIG
ZGHA,2012-11-15 15:00,ZGHA 151500Z 31003MPS 2500 RA BR BKN004 OVC040 10/09 Q1024 BECMG -RA BR
ZGHA,2012-11-15 16:00,ZGHA 151600Z 35005MPS 4000 RA BR BKN004 OVC033 10/09 Q1023 NOSIG
ZGHA,2012-11-15 17:00,ZGHA 151700Z 36005MPS 4000 -RA BR BKN004 OVC033 10/08 Q1024 NOSIG
ZGHA,2012-11-15 18:00,ZGHA 151800Z 35006MPS 2500 -RA BR BKN004 OVC033 09/08 Q1023 NOSIG
ZGHA,2012-11-15 19:00,ZGHA 151900Z 34006MPS 2500 -RA BR BKN004 OVC033 09/08 Q1024 NOSIG
ZGHA,2012-11-15 20:00,ZGHA 152000Z 34006MPS 2500 -RA BR BKN004 OVC033 09/08 Q1023 NOSIG
ZGHA,2012-11-15 21:00,ZGHA 152100Z 34005MPS 2500 -DZ BR BKN005 OVC033 09/08 Q1023 NOSIG
ZGHA,2012-11-15 22:00,ZGHA 152200Z 33006MPS 2500 -RA BR BKN006 OVC033 09/07 Q1023 NOSIG
ZGHA,2012-11-15 23:00,ZGHA 152300Z 33006MPS 1000 R36/P2000 BR BKN005 OVC033 08/07 Q1024 NOSIG
ZGHA,2012-11-16 00:00,ZGHA 160000Z 34005MPS 1000 R36/1600 RA BR BKN004 OVC033 09/08 Q1024 BECMG TL0140 -RA
ZGHA,2012-11-16 01:00,ZGHA 160100Z 34006MPS 1400 R36/1600 RA BR BKN004 OVC033 08/07 Q1026 BECMG TL0205 1700
ZGHA,2012-11-16 02:00,ZGHA 160200Z 32005MPS 1300 R36/1400 RA BR BKN004 OVC033 08/07 Q1027 BECMG TL0300 1700 BR -RA
ZGHA,2012-11-16 03:00,ZGHA 160300Z 34005MPS 2000 -RA BR BKN005 OVC033 08/07 Q1026 RERA NOSIG
ZGHA,2012-11-16 04:00,ZGHA 160400Z 34007MPS 2000 BR FEW006 BKN009 OVC033 08/07 Q1026 NOSIG
ZGHA,2012-11-16 05:00,ZGHA 160500Z 34005MPS 1400 R36/1400 -RA BR FEW006 BKN009 OVC033 08/06 Q1025 BECMG TL0530 1700
ZGHA,2012-11-16 06:00,ZGHA 160600Z 34006MPS 1600 -RA BR FEW006 BKN008 OVC033 08/06 Q1024 NOSIG
ZGHA,2012-11-16 07:00,ZGHA 160700Z 33004MPS 1800 -DZ BR FEW006 BKN009 OVC033 08/06 Q1025 NOSIG
ZGHA,2012-11-16 08:00,ZGHA 160800Z 32003MPS 280V340 2700 -DZ BR FEW006 BKN009 OVC033 09/06 Q1025 NOSIG
ZGHA,2012-11-16 09:00,ZGHA 160900Z 33003MPS 2700 BR BKN009 OVC040 09/06 Q1025 NOSIG
ZGHA,2012-11-16 10:00,ZGHA 161000Z 33002MPS 290V020 3000 BR FEW012 09/06 Q1026 BECMG TL1100 2500
ZGHA,2012-11-16 11:00,ZGHA 161100Z 31002MPS 280V340 3500 -RA BR SCT012 OVC050 09/06 Q1026 NOSIG
ZGHA,2012-11-16 12:00,ZGHA 161200Z 30002MPS 260V340 3500 BR NSC 09/07 Q1026 NOSIG
ZGHA,2012-11-16 13:00,ZGHA 161300Z 29002MPS 270V330 3200 BR NSC 09/07 Q1027 BECMG 2500
ZGHA,2012-11-16 14:00,ZGHA 161400Z 32002MPS 280V350 3200 BR NSC 08/07 Q1027 NOSIG
ZGHA,2012-11-16 15:00,ZGHA 161500Z VRB01MPS 2700 BR NSC 08/07 Q1027 BECMG 1400
ZGHA,2012-11-16 16:00,ZGHA 161600Z VRB01MPS 1800 BR FEW008 07/06 Q1026 BECMG 1400
ZGHA,2012-11-16 17:00,ZGHA 161700Z 06001MPS 0600 R36/0200 FG FEW006 06/06 Q1026 BECMG TL1800 0250
ZGHA,2012-11-16 18:00,ZGHA 161800Z 00000MPS 0900 R36/0900 FG BKN008 07/06 Q1025 NOSIG
ZGHA,2012-11-16 19:00,ZGHA 161900Z VRB01MPS 2100 BR BKN009 07/07 Q1025 BECMG 3500 BKN011
ZGHA,2012-11-16 20:00,ZGHA 162000Z 25001MPS 2000 BR BKN011 07/06 Q1025 NOSIG
ZGHA,2012-11-16 21:00,ZGHA 162100Z VRB01MPS 1600 BR BKN011 06/06 Q1025 NOSIG
ZGHA,2012-11-16 22:00,ZGHA 162200Z VRB01MPS 0400 R36/0400 FG NSC 06/05 Q1024 NOSIG
ZGHA,2012-11-16 23:00,ZGHA 162300Z 02001MPS 2100 BR SCT009 05/05 Q1024 BECMG TL2400 3500
ZGHA,2012-11-17 00:00,ZGHA 170000Z 03001MPS 2400 R36/1300 BR SCT011 06/05 Q1025 BECMG TL0100 3500
ZGHA,2012-11-17 01:00,ZGHA 170100Z VRB01MPS 3000 BR SCT011 07/06 Q1025 NOSIG
ZGHA,2012-11-17 02:00,ZGHA 170200Z 17002MPS 140V200 3500 BR SCT011 08/05 Q1026 NOSIG
ZGHA,2012-11-17 03:00,ZGHA 170300Z 18002MPS 140V220 4000 BR SCT011 08/06 Q1026 NOSIG
ZGHA,2012-11-17 04:00,ZGHA 170400Z 25002MPS 160V290 4500 BR SCT013 09/05 Q1025 NOSIG
ZGHA,2012-11-17 05:00,ZGHA 170500Z VRB01MPS 6000 FEW020 11/05 Q1023 NOSIG
ZGHA,2012-11-17 06:00,ZGHA 170600Z VRB01MPS 7000 NSC 13/06 Q1022 NOSIG
ZGHA,2012-11-17 07:00,ZGHA 170700Z 17002MPS 140V210 7000 NSC 14/06 Q1021 NOSIG
ZGHA,2012-11-17 08:00,ZGHA 170800Z 17002MPS 140V210 8000 NSC 14/06 Q1021 NOSIG
ZGHA,2012-11-17 09:00,ZGHA 170900Z 19002MPS 6000 NSC 13/07 Q1020 NOSIG
ZGHA,2012-11-17 10:00,ZGHA 171000Z 22002MPS 5000 BR NSC 11/07 Q1021 NOSIG
ZGHA,2012-11-17 11:00,ZGHA 171100Z 21002MPS 4000 BR NSC 09/07 Q1021 NOSIG
ZGHA,2012-11-17 12:00,ZGHA 171200Z 18001MPS 2700 BR NSC 09/07 Q1021 NOSIG
ZGHA,2012-11-17 13:00,ZGHA 171300Z VRB01MPS 2500 BR NSC 07/06 Q1021 BECMG TL1500 1400
ZGHA,2012-11-17 14:00,ZGHA 171400Z 17002MPS 1700 BR NSC 07/06 Q1021 NOSIG
ZGHA,2012-11-17 15:00,ZGHA 171500Z 17002MPS 1600 BR NSC 07/06 Q1021 NOSIG
ZGHA,2012-11-17 16:00,ZGHA 171600Z 18002MPS 1700 BR NSC 06/06 Q1021 NOSIG
ZGHA,2012-11-17 17:00,ZGHA 171700Z 19002MPS 1600 BR NSC 06/05 Q1021 BECMG TL1820 1400
ZGHA,2012-11-17 18:00,ZGHA 171800Z 20002MPS 1600 BR NSC 06/05 Q1021 NOSIG
ZGHA,2012-11-17 19:00,ZGHA 171900Z 20002MPS 1400 R18/P2000 BR NSC 05/04 Q1020 NOSIG
ZGHA,2012-11-17 20:00,ZGHA 172000Z VRB01MPS 0200 R18/0225 FG VV004 04/04 Q1020 NOSIG
ZGHA,2012-11-17 21:00,ZGHA 172100Z VRB01MPS 0200 R18/0275 FG VV004 04/03 Q1020 NOSIG
ZGHA,2012-11-17 22:00,ZGHA 172200Z VRB01MPS 0200 R18/0275 FG VV004 04/04 Q1020 NOSIG
ZGHA,2012-11-17 23:00,ZGHA 172300Z VRB01MPS 0200 R18/0250 FG VV004 05/05 Q1020 BECMG TL0900 0400
ZGHA,2012-11-18 00:00,ZGHA 180000Z 18003MPS 0200 R18/0250 FG VV004 05/05 Q1021 BECMG TL0030 0400
ZGHA,2012-11-18 01:00,ZGHA 180100Z VRB01MPS 0400 R18/0325 FG VV007 06/06 Q1021 BECMG TL0130 0800
ZGHA,2012-11-18 02:00,ZGHA 180200Z 19003MPS 2100 BR SCT007 OVC050 07/07 Q1022 BECMG TL0300 3500
ZGHA,2012-11-18 03:00,ZGHA 180300Z 18004MPS 2500 BR SCT004 BKN050 08/08 Q1021 BECMG TL0400 3500
ZGHA,2012-11-18 04:00,ZGHA 180400Z 20004MPS 3000 BR SCT006 10/08 Q1020 NOSIG
ZGHA,2012-11-18 05:00,ZGHA 180500Z 22004MPS 180V250 4000 BR FEW010 13/08 Q1019 NOSIG
ZGHA,2012-11-18 06:00,ZGHA 180600Z 22004MPS 7000 NSC 15/06 Q1017 NOSIG
ZGHA,2012-11-18 07:00,ZGHA 180700Z 20003MPS 170V240 8000 NSC 16/08 Q1017 NOSIG
ZGHA,2012-11-18 08:00,ZGHA 180800Z 21003MPS 160V240 7000 NSC 17/08 Q1017 NOSIG
ZGHA,2012-11-18 09:00,ZGHA 180900Z 22002MPS 6000 NSC 15/09 Q1017 NOSIG
ZGHA,2012-11-18 10:00,ZGHA 181000Z 22001MPS 5000 BR NSC 13/09 Q1017 NOSIG
ZGHA,2012-11-18 11:00,ZGHA 181100Z 27001MPS 4000 BR NSC 10/09 Q1018 BECMG TL1300 2800
ZGHA,2012-11-18 12:00,ZGHA 181200Z 00000MPS 3000 BR NSC 10/09 Q1018 BECMG TL1300 2800
ZGHA,2012-11-18 13:00,ZGHA 181300Z VRB01MPS 1800 BR NSC 09/08 Q1019 BECMG TL1400 1400
ZGHA,2012-11-18 14:00,ZGHA 181400Z VRB01MPS 1600 BR NSC 07/06 Q1020 BECMG TL1500 1400
ZGHA,2012-11-18 15:00,ZGHA 181500Z VRB01MPS 1200 R18/1500 BR NSC 07/06 Q1020 NOSIG
ZGHA,2012-11-18 16:00,ZGHA 181600Z VRB01MPS 1400 R18/1800 BR NSC 07/07 Q1020 NOSIG
ZGHA,2012-11-18 17:00,ZGHA 181700Z 00000MPS 1000 R18/1400 BR NSC 07/06 Q1020 NOSIG
ZGHA,2012-11-18 18:00,ZGHA 181800Z VRB01MPS 1000 R18/P2000 BR NSC 06/06 Q1020 NOSIG
ZGHA,2012-11-18 19:00,ZGHA 181900Z 21001MPS 0900 R18/0400 FG NSC 05/05 Q1020 NOSIG
ZGHA,2012-11-18 20:00,ZGHA 182000Z VRB01MPS 0200 R18/0250 FG VV006 05/05 Q1020 NOSIG
ZGHA,2012-11-18 21:00,ZGHA 182100Z 00000MPS 0200 R18/0275 FG VV006 05/05 Q1020 NOSIG
ZGHA,2012-11-18 22:00,ZGHA 182200Z 00000MPS 0100 R18/0300 FG VV006 05/04 Q1021 NOSIG
ZGHA,2012-11-18 23:00,ZGHA 182300Z VRB01MPS 0400 R18/0250 FG NSC 04/04 Q1021 BECMG TL2400 0700 FG
ZGHA,2012-11-19 00:00,ZGHA 190000Z VRB01MPS 0200 R36/0200 FG VV007 05/05 Q1022 TL0130 0700 FG
ZGHA,2012-11-19 01:00,ZGHA 190100Z 01002MPS 330V030 0300 R36/0150 FG VV008 07/07 Q1022 BECMG TL0130 0500
ZGHA,2012-11-19 02:00,ZGHA 190200Z 31002MPS 280V360 0400 R36/0325 FG VV008 08/08 Q1023 BECMG TL0300 0900
ZGHA,2012-11-19 03:00,ZGHA 190300Z 30002MPS 260V010 1200 R36/1100 BR BKN008 OVC050 09/08 Q1022 BECMG TL0400 2000
ZGHA,2012-11-19 04:00,ZGHA 190400Z 28003MPS 250V340 1800 BR FEW005 BKN009 OVC050 10/09 Q1021 BECMG TL0500 3300 BR BKN013 OVC050
ZGHA,2012-11-19 05:00,ZGHA 190500Z 26003MPS 230V290 2500 BR SCT009 BKN050 12/09 Q1020 BECMG TL0600 4000
ZGHA,2012-11-19 06:00,ZGHA 190600Z 30002MPS 210V340 3200 HZ NSC 15/09 Q1019 NOSIG
ZGHA,2012-11-19 07:00,ZGHA 190700Z 33003MPS 300V040 3500 HZ NSC 16/09 Q1018 NOSIG
ZGHA,2012-11-19 08:00,ZGHA 190800Z 01003MPS 350V070 3500 HZ NSC 15/09 Q1018 NOSIG
ZGHA,2012-11-19 09:00,ZGHA 190900Z 01002MPS 340V040 3000 BR NSC 13/09 Q1018 NOSIG
ZGHA,2012-11-19 10:00,ZGHA 191000Z 01002MPS 3000 BR NSC 13/09 Q1018 NOSIG
ZGHA,2012-11-19 11:00,ZGHA 191100Z 36003MPS 3000 BR NSC 12/09 Q1018 BECMG TL1200 2500
ZGHA,2012-11-19 12:00,ZGHA 191200Z VRB01MPS 3000 BR NSC 11/09 Q1019 BECMG TL1300 2500
ZGHA,2012-11-19 13:00,ZGHA 191300Z 31002MPS 3200 BR NSC 12/09 Q1019 NOSIG
ZGHA,2012-11-19 14:00,ZGHA 191400Z 32002MPS 3000 BR NSC 12/09 Q1019 BECMG TL1500 2500
ZGHA,2012-11-19 15:00,ZGHA 191500Z VRB01MPS 2300 BR NSC 11/09 Q1020 NOSIG
ZGHA,2012-11-19 16:00,ZGHA 191600Z 33003MPS 290V360 2500 BR NSC 12/09 Q1020 BECMG TL1700 3000
ZGHA,2012-11-19 17:00,ZGHA 191700Z 34002MPS 2200 BR NSC 12/09 Q1019 NOSIG
ZGHA,2012-11-19 18:00,ZGHA 191800Z VRB01MPS 2100 BR NSC 12/09 Q1019 NOSIG
ZGHA,2012-11-19 19:00,ZGHA 191900Z 35001MPS 2200 BR NSC 11/09 Q1019 NOSIG
ZGHA,2012-11-19 20:00,ZGHA 192000Z 33001MPS 2000 BR SCT050 12/10 Q1019 NOSIG
ZGHA,2012-11-19 21:00,ZGHA 192100Z VRB01MPS 1600 BR SCT050 11/09 Q1019 NOSIG
ZGHA,2012-11-19 22:00,ZGHA 192200Z 06001MPS 1200 R36/1500 BR SCT050 11/10 Q1019 BECMG TL2300 1600
ZGHA,2012-11-19 23:00,ZGHA 192300Z VRB01MPS 1100 R36/1400 BR NSC 10/09 Q1019 BECMG TL2330 1600
ZGHA,2012-11-20 00:00,ZGHA 200000Z VRB01MPS 1200 R36/1200 BR SCT050 11/10 Q1019 BECMG TL0030 1600
ZGHA,2012-11-20 01:00,ZGHA 200100Z VRB01MPS 1600 R36/1300 BR SCT050 12/10 Q1019 BECMG TL0300 3200
ZGHA,2012-11-20 02:00,ZGHA 200200Z VRB01MPS 1800 BR SCT050 13/10 Q1019 BECMG TL0300 3200
ZGHA,2012-11-20 03:00,ZGHA 200300Z VRB01MPS 2200 BR SCT050 13/10 Q1018 BECMG TL0400 3500
ZGHA,2012-11-20 04:00,ZGHA 200400Z 33002MPS 300V050 2700 BR SCT040 14/10 Q1017 BECMG TL0500 3500
ZGHA,2012-11-20 05:00,ZGHA 200500Z 01001MPS 2500 BR SCT040 OVC050 14/10 Q1016 NOSIG
ZGHA,2012-11-20 06:00,ZGHA 200600Z 01002MPS 2700 BR OVC040 14/10 Q1015 BECMG TL0700 3500
ZGHA,2012-11-20 07:00,ZGHA 200700Z 36002MPS 330V030 2200 -DZ BR OVC040 14/10 Q1015 NOSIG
ZGHA,2012-11-20 08:00,ZGHA 200800Z 34002MPS 300V030 2200 -DZ BR OVC040 14/11 Q1015 NOSIG
ZGHA,2012-11-20 09:00,ZGHA 200900Z 36002MPS 1800 BR OVC040 13/11 Q1014 NOSIG
ZGHA,2012-11-20 10:00,ZGHA 201000Z 35004MPS 2200 BR OVC040 13/11 Q1014 NOSIG
ZGHA,2012-11-20 11:00,ZGHA 201100Z 36004MPS 2500 BR OVC040 13/10 Q1015 NOSIG
ZGHA,2012-11-20 12:00,ZGHA 201200Z 35003MPS 2700 BR SCT020 OVC040 13/11 Q1015 NOSIG
ZGHA,2012-11-20 13:00,ZGHA 201300Z 34003MPS 2500 -RA BR SCT011 OVC040 13/11 Q1016 NOSIG
ZGHA,2012-11-20 14:00,ZGHA 201400Z 32003MPS 2200 -RA BR SCT011 OVC040 13/11 Q1016 NOSIG
ZGHA,2012-11-20 15:00,ZGHA 201500Z 33003MPS 2000 -RA BR BKN009 OVC040 12/11 Q1016 NOSIG
ZGHA,2012-11-20 16:00,ZGHA 201600Z 01002MPS 1800 -RA BR BKN008 OVC040 12/11 Q1016 NOSIG
ZGHA,2012-11-20 17:00,ZGHA 201700Z 01002MPS 1700 -RA BR FEW004 BKN007 OVC040 12/11 Q1016 NOSIG
ZGHA,2012-11-20 18:00,ZGHA 201800Z 34003MPS 1600 -RA BR FEW003 BKN007 OVC040 12/11 Q1015 NOSIG
ZGHA,2012-11-20 19:00,ZGHA 201900Z 35003MPS 1400 R36/1400 BR FEW003 BKN007 OVC040 12/11 Q1015 NOSIG
ZGHA,2012-11-20 20:00,ZGHA 202000Z 36002MPS 1200 R36/1200 BR FEW003 BKN007 OVC040 12/11 Q1014 NOSIG
ZGHA,2012-11-20 21:00,ZGHA 202100Z 35003MPS 320V040 1400 R36/1400 -RA BR FEW002 BKN006 OVC040 12/11 Q1014 NOSIG
ZGHA,2012-11-20 22:00,ZGHA 202200Z 34004MPS 1800 -RA BR FEW003 BKN007 OVC040 12/11 Q1015 NOSIG
ZGHA,2012-11-20 23:00,ZGHA 202300Z 34004MPS 2500 -RA BR SCT004 BKN007 OVC040 12/11 Q1015 RETS NOSIG
ZGHA,2012-11-21 00:00,ZGHA 210000Z 33004MPS 1700 -RA BR SCT004 BKN007 OVC040 12/11 Q1016 NOSIG
ZGHA,2012-11-21 01:00,ZGHA 210100Z 33004MPS 2300 -RA BR SCT004 BKN007 OVC040 12/11 Q1017 BECMG TL0200 3000
ZGHA,2012-11-21 02:00,ZGHA 210200Z 32004MPS 1400 R36/1500 -RA BR SCT004 BKN007 OVC040 12/11 Q1017 BECMG TL0230 1800
ZGHA,2012-11-21 03:00,ZGHA 210300Z 34005MPS 2000 -RA BR SCT004 BKN007 OVC040 12/10 Q1017 BECMG TL0400 3000
ZGHA,2012-11-21 04:00,ZGHA 210400Z 32003MPS 1600 R36/1400 BR SCT004 BKN007 OVC040 12/10 Q1016 NOSIG
ZGHA,2012-11-21 05:00,ZGHA 210500Z 34005MPS 1600 R36/1400 -RA BR SCT004 BKN007 OVC040 12/10 Q1015 NOSIG
ZGHA,2012-11-21 06:00,ZGHA 210600Z 35003MPS 1200 R36/1300 -RA BR SCT004 BKN007 OVC040 11/10 Q1015 NOSIG
ZGHA,2012-11-21 07:00,ZGHA 210700Z 30003MPS 1400 R36/1500 -RA BR SCT004 BKN007 OVC040 12/10 Q1014 BECMG TL0730 1600
ZGHA,2012-11-21 08:00,ZGHA 210800Z 36002MPS 1400 R36/1300 -RA BR SCT004 BKN007 OVC040 11/10 Q1014 NOSIG
ZGHA,2012-11-21 09:00,ZGHA 210900Z 31003MPS 1000 R36/1400 -RA BR SCT004 BKN007 OVC040 11/10 Q1014 NOSIG
ZGHA,2012-11-21 10:00,ZGHA 211000Z 31004MPS 280V340 0900 R36/1800 FG SCT004 BKN007 OVC040 11/10 Q1015 NOSIG
ZGHA,2012-11-21 11:00,ZGHA 211100Z 34004MPS 1100 R36/1900 BR SCT004 BKN007 OVC040 11/10 Q1015 NOSIG
ZGHA,2012-11-21 12:00,ZGHA 211200Z 36003MPS 1200 R36/1900 BR SCT004 BKN007 OVC040 11/09 Q1016 NOSIG
ZGHA,2012-11-21 13:00,ZGHA 211300Z 35003MPS 1200 R36/1900 BR SCT004 BKN007 OVC040 11/09 Q1016 NOSIG
ZGHA,2012-11-21 14:00,ZGHA 211400Z 34004MPS 1400 R36/1900 BR SCT004 BKN007 OVC033 11/09 Q1017 NOSIG
ZGHA,2012-11-21 15:00,ZGHA 211500Z 35003MPS 1400 R36/P2000 BR SCT004 BKN009 OVC040 11/09 Q1016 NOSIG
ZGHA,2012-11-21 16:00,ZGHA 211600Z 34002MPS 1400 R36/1900 BR SCT004 BKN009 OVC040 11/09 Q1016 NOSIG
ZGHA,2012-11-21 17:00,ZGHA 211700Z 34002MPS 1200 R36/1900 -RA BR SCT004 BKN009 OVC033 11/09 Q1015 NOSIG
ZGHA,2012-11-21 18:00,ZGHA 211800Z 33003MPS 1200 R36/1700 -RA BR SCT004 BKN009 OVC033 11/09 Q1016 NOSIG
ZGHA,2012-11-21 19:00,ZGHA 211900Z 35003MPS 1000 R36/1500 -RA BR SCT004 BKN009 OVC033 11/10 Q1015 NOSIG
ZGHA,2012-11-21 20:00,ZGHA 212000Z 03002MPS 350V080 1000 R36/1700 -RA BR SCT004 BKN009 OVC033 11/09 Q1013 NOSIG
ZGHA,2012-11-21 21:00,ZGHA 212100Z VRB01MPS 2000 BR SCT004 BKN012 OVC040 11/10 Q1014 NOSIG
ZGHA,2012-11-21 22:00,ZGHA 212200Z 33003MPS 1600 BR SCT004 BKN012 OVC040 11/09 Q1014 NOSIG
ZGHA,2012-11-21 23:00,ZGHA 212300Z VRB01MPS 1600 BR SCT004 BKN012 OVC040 11/10 Q1014 NOSIG
ZGHA,2012-11-22 00:00,ZGHA 220000Z 32003MPS 1000 R36/1400 -RA BR SCT004 BKN012 OVC033 11/10 Q1015 NOSIG
ZGHA,2012-11-22 01:00,ZGHA 220100Z 33002MPS 300V360 0800 R36/1100 -RA FG BKN004 OVC033 11/10 Q1015 NOSIG
ZGHA,2012-11-22 02:00,ZGHA 220200Z 33003MPS 0900 R36/1100 -RA FG SCT003 BKN004 OVC033 11/10 Q1016 BECMG TL0400 1500
ZGHA,2012-11-22 03:00,ZGHA 220300Z 31003MPS 1300 R36/1500 -RA BR SCT003 BKN004 OVC033 11/10 Q1016 BECMG TL0400 1500
ZGHA,2012-11-22 04:00,ZGHA 220400Z 35003MPS 1400 R36/1300 -RA BR SCT003 BKN004 OVC033 11/10 Q1016 NOSIG
ZGHA,2012-11-22 05:00,ZGHA 220500Z 35004MPS 1600 -DZ BR SCT003 BKN004 OVC033 11/10 Q1015 NOSIG
ZGHA,2012-11-22 06:00,ZGHA 220600Z 35005MPS 3000 -DZ BR BKN006 OVC040 12/10 Q1014 NOSIG
ZGHA,2012-11-22 07:00,ZGHA 220700Z 34006MPS 3000 -RA BR BKN007 OVC040 11/10 Q1014 NOSIG
ZGHA,2012-11-22 08:00,ZGHA 220800Z 34005MPS 2200 -RA BR SCT004 BKN007 OVC040 11/10 Q1015 NOSIG
ZGHA,2012-11-22 09:00,ZGHA 220900Z 34006MPS 2400 -RA BR SCT004 BKN007 OVC040 11/10 Q1015 NOSIG
ZGHA,2012-11-22 10:00,ZGHA 221000Z 34005MPS 3000 -RA BR SCT004 BKN007 OVC040 11/10 Q1016 NOSIG
ZGHA,2012-11-22 11:00,ZGHA 221100Z 34005MPS 3000 -RA BR SCT004 BKN007 OVC040 11/10 Q1017 NOSIG
ZGHA,2012-11-22 12:00,ZGHA 221200Z 33007MPS 3500 -RA BR SCT004 BKN007 OVC040 11/10 Q1018 NOSIG
ZGHA,2012-11-22 13:00,ZGHA 221300Z 34007MPS 5000 BR SCT007 BKN010 OVC040 11/10 Q1019 NOSIG
ZGHA,2012-11-22 14:00,ZGHA 221400Z 33006MPS 3000 -RA BR SCT005 BKN007 OVC040 11/10 Q1021 NOSIG
ZGHA,2012-11-22 15:00,ZGHA 221500Z 34006MPS 4500 -RA BR SCT005 BKN007 OVC040 11/10 Q1022 NOSIG
ZGHA,2012-11-22 16:00,ZGHA 221600Z 34006MPS 4000 BR BKN010 OVC040 11/09 Q1022 NOSIG
ZGHA,2012-11-22 17:00,ZGHA 221700Z 34006MPS 4000 BR BKN010 OVC040 11/09 Q1022 NOSIG
ZGHA,2012-11-22 18:00,ZGHA 221800Z 35007MPS 3000 BR BKN010 OVC040 11/09 Q1021 NOSIG
ZGHA,2012-11-22 19:00,ZGHA 221900Z 34007MPS 3000 BR BKN010 OVC040 10/08 Q1022 NOSIG
ZGHA,2012-11-22 20:00,ZGHA 222000Z 36006MPS 2800 BR BKN010 OVC033 10/08 Q1021 NOSIG
ZGHA,2012-11-22 21:00,ZGHA 222100Z 34005MPS 2500 BR BKN010 OVC033 10/08 Q1021 NOSIG
ZGHA,2012-11-22 22:00,ZGHA 222200Z 35005MPS 2500 BR BKN010 OVC033 10/08 Q1022 NOSIG
ZGHA,2012-11-22 23:00,ZGHA 222300Z 35006MPS 2000 BR BKN013 OVC033 10/08 Q1022 BECMG TL2400 3000
ZGHA,2012-11-23 00:00,ZGHA 230000Z 34006MPS 2200 BR BKN011 BKN020 OVC033 11/08 Q1023 BECMG TL0100 3000
ZGHA,2012-11-23 01:00,ZGHA 230100Z 34005MPS 2500 BR BKN013 OVC033 11/08 Q1024 BECMG TL0200 3000
ZGHA,2012-11-23 02:00,ZGHA 230200Z 34005MPS 3300 BR BKN013 OVC033 11/08 Q1025 NOSIG
ZGHA,2012-11-23 03:00,ZGHA 230300Z 34005MPS 4500 BR BKN013 OVC040 11/09 Q1025 NOSIG
ZGHA,2012-11-23 04:00,ZGHA 230400Z 35005MPS 4500 BR BKN020 OVC040 11/08 Q1024 NOSIG
ZGHA,2012-11-23 05:00,ZGHA 230500Z 35006MPS 2500 BR BKN013 OVC040 11/08 Q1023 NOSIG
ZGHA,2012-11-23 06:00,ZGHA 230600Z 36007MPS 1600 R36/1100 -DZ BR BKN010 OVC040 10/08 Q1023 BECMG TL0700 1400
ZGHA,2012-11-23 07:00,ZGHA 230700Z 36006MPS 1600 R36/1200 BR BKN009 OVC040 10/08 Q1022 NOSIG
ZGHA,2012-11-23 08:00,ZGHA 230800Z 35006MPS 1300 R36/1300 BR BKN009 OVC040 10/08 Q1023 NOSIG
ZGHA,2012-11-23 09:00,ZGHA 230900Z 35005MPS 1200 R36/1500 BR BKN009 OVC040 10/07 Q1023 NOSIG
ZGHA,2012-11-23 10:00,ZGHA 231000Z 34005MPS 1600 BR BKN008 OVC040 10/07 Q1023 NOSIG
ZGHA,2012-11-23 11:00,ZGHA 231100Z 35005MPS 1700 BR BKN009 OVC040 09/07 Q1024 NOSIG
ZGHA,2012-11-23 12:00,ZGHA 231200Z 33003MPS 1700 BR BKN009 OVC040 09/07 Q1024 NOSIG
ZGHA,2012-11-23 13:00,ZGHA 231300Z 32004MPS 1700 BR BKN009 OVC033 09/07 Q1025 NOSIG
ZGHA,2012-11-23 16:00,ZGHA 231600Z 34003MPS 1200 R36/1500 -RA BR SCT004 BKN007 OVC033 09/07 Q1025 NOSIG
ZGHA,2012-11-23 17:00,ZGHA 231700Z 34003MPS 0900 R36/1200 -RA FG BKN003 OVC033 08/07 Q1024 NOSIG
ZGHA,2012-11-23 18:00,ZGHA 231800Z 31002MPS 0900 R36/1200 -RA FG FEW002 BKN003 OVC033 08/07 Q1024 NOSIG
ZGHA,2012-11-23 19:00,ZGHA 231900Z 34002MPS 0900 R36/1200 -RA FG SCT002 BKN003 OVC033 08/07 Q1023 NOSIG
ZGHA,2012-11-23 20:00,ZGHA 232000Z 01002MPS 1000 R36/1500 BR FEW002 BKN003 OVC033 08/07 Q1023 NOSIG
ZGHA,2012-11-23 21:00,ZGHA 232100Z 32002MPS 280V340 1000 R36/1500 BR FEW002 BKN003 OVC033 08/07 Q1023 NOSIG
ZGHA,2012-11-23 22:00,ZGHA 232200Z 34002MPS 1200 R36/1700 BR BKN003 OVC033 08/08 Q1023 NOSIG
ZGHA,2012-11-23 23:00,ZGHA 232300Z 33002MPS 1200 R36/1800 BR FEW003 BKN005 OVC033 08/07 Q1023 NOSIG
ZGHA,2012-11-24 00:00,ZGHA 240000Z 28002MPS 260V330 1200 R36/1400 BR SCT003 BKN005 OVC033 08/07 Q1023 BECMG TI0130 1500
ZGHA,2012-11-24 01:00,ZGHA 240100Z VRB01MPS 1200 R36/1000 BR BKN006 OVC040 09/07 Q1024 BECMG TL0200 1500
ZGHA,2012-11-24 02:00,ZGHA 240200Z VRB01MPS 1700 R36/1000 BR SCT006 OVC050 10/08 Q1024 NOSIG
ZGHA,2012-11-24 03:00,ZGHA 240300Z 28002MPS 240V330 1800 R36/1100 BR SCT007 OVC050 10/08 Q1023 NOSIG
ZGHA,2012-11-24 04:00,ZGHA 240400Z VRB01MPS 2700 BR SCT009 OVC050 11/08 Q1022 BECMG TL0500 3500
ZGHA,2012-11-24 05:00,ZGHA 240500Z VRB01MPS 2500 BR BKN009 OVC050 11/08 Q1020 BECMG TL0600 3000 BKN011 OVC050
ZGHA,2012-11-24 06:00,ZGHA 240600Z 21002MPS 170V260 2700 BR BKN009 OVC050 12/08 Q1018 BECMG TL0700 3000 BKN011 OVC050
ZGHA,2012-11-24 07:00,ZGHA 240700Z 23002MPS 200V290 2700 BR BKN011 OVC050 12/08 Q1018 BECMG TL0800 3000
ZGHA,2012-11-24 08:00,ZGHA 240800Z VRB01MPS 3000 BR BKN011 OVC050 12/08 Q1017 NOSIG
ZGHA,2012-11-24 09:00,ZGHA 240900Z 00000MPS 2700 BR BKN011 OVC050 12/09 Q1017 NOSIG
ZGHA,2012-11-24 10:00,ZGHA 241000Z VRB01MPS 3500 BR BKN011 OVC050 11/09 Q1017 BECMG TL1100 2500
ZGHA,2012-11-24 11:00,ZGHA 241100Z 12002MPS 090V150 5000 BR FEW011 BKN020 OVC050 12/08 Q1017 NOSIG
ZGHA,2012-11-24 12:00,ZGHA 241200Z VRB01MPS 4500 BR BKN020 OVC050 12/08 Q1017 NOSIG
ZGHA,2012-11-24 13:00,ZGHA 241300Z VRB01MPS 4500 BR BKN020 OVC050 11/08 Q1017 NOSIG
ZGHA,2012-11-24 14:00,ZGHA 241400Z 29002MPS 4000 BR BKN020 OVC050 12/08 Q1017 NOSIG
ZGHA,2012-11-24 15:00,ZGHA 241500Z 29002MPS 3500 -RA BR BKN020 OVC050 11/09 Q1016 NOSIG
ZGHA,2012-11-24 16:00,ZGHA 241600Z 28001MPS 3000 -RA BR BKN020 OVC050 11/09 Q1016 NOSIG
ZGHA,2012-11-24 17:00,ZGHA 241700Z 32002MPS 2700 -RA BR BKN020 OVC050 11/10 Q1015 NOSIG
ZGHA,2012-11-24 18:00,ZGHA 241800Z 27001MPS 2500 -RA BR BKN020 OVC050 11/10 Q1015 NOSIG
ZGHA,2012-11-24 19:00,ZGHA 241900Z 29002MPS 2100 -RA BR SCT011 BKN020 OVC050 11/10 Q1014 NOSIG
ZGHA,2012-11-24 20:00,ZGHA 242000Z 32002MPS 1700 -RA BR SCT007 BKN020 OVC050 11/09 Q1014 NOSIG
ZGHA,2012-11-24 21:00,ZGHA 242100Z 32003MPS 1400 R18/1700 -RA BR SCT003 BKN007 OVC050 11/09 Q1014 NOSIG
ZGHA,2012-11-24 22:00,ZGHA 242200Z 32003MPS 1200 R18/1700 -RA BR SCT003 BKN007 OVC050 10/10 Q1014 NOSIG
ZGHA,2012-11-24 23:00,ZGHA 242300Z 32003MPS 1000 R36/1800 -RA BR SCT003 BKN007 OVC050 10/09 Q1015 NOSIG
ZGHA,2012-11-25 00:00,ZGHA 250000Z 34002MPS 0900 R36/1400 -RA FG SCT003 BKN007 OVC050 11/10 Q1015 NOSIG
ZGHA,2012-11-25 01:00,ZGHA 250100Z 34003MPS 0900 R36/1200 -RA FG SCT003 BKN007 OVC050 11/10 Q1016 NOSIG
ZGHA,2012-11-25 02:00,ZGHA 250200Z 01002MPS 340V060 1400 R36/1200 -RA BR FEW004 BKN007 OVC050 11/10 Q1017 BECMG TL0230 1600
ZGHA,2012-11-25 03:00,ZGHA 250300Z 36003MPS 1400 R36/1200 -RA BR FEW004 BKN007 OVC050 11/10 Q1017 NOSIG
ZGHA,2012-11-25 04:00,ZGHA 250400Z 36004MPS 1600 R36/1200 -DZ BR FEW003 BKN007 OVC050 11/10 Q1017 NOSIG
ZGHA,2012-11-25 05:00,ZGHA 250500Z 31005MPS 1800 R36/1200 -RA BR FEW003 BKN007 OVC050 11/09 Q1017 NOSIG
ZGHA,2012-11-25 06:00,ZGHA 250600Z 33005MPS 2300 -RA BR FEW004 BKN009 OVC040 10/09 Q1017 BECMG TL0700 BKN011 OVC040
ZGHA,2012-11-25 07:00,ZGHA 250700Z 34006MPS 4000 -RA BR FEW004 BKN009 OVC040 10/09 Q1017 NOSIG
ZGHA,2012-11-25 08:00,ZGHA 250800Z 34008MPS 4000 -RA BR FEW004 BKN009 OVC040 09/08 Q1018 NOSIG
ZGHA,2012-11-25 09:00,ZGHA 250900Z 33007MPS 3000 -RA BR SCT004 BKN009 OVC040 09/08 Q1019 NOSIG
ZGHA,2012-11-25 10:00,ZGHA 251000Z 34007MPS 3500 BR SCT004 BKN009 OVC040 09/07 Q1020 BECMG TL1130 SCT005 BKN011 OVC040
ZGHA,2012-11-25 11:00,ZGHA 251100Z 34008MPS 5000 BR SCT004 BKN009 OVC040 09/07 Q1022 BECMG TL1230 SCT007 BKN011 OVC050
ZGHA,2012-11-25 12:00,ZGHA 251200Z 34007MPS 6000 BKN009 OVC050 09/07 Q1023 BECMG TL1300 BKN011 OVC050
ZGHA,2012-11-25 13:00,ZGHA 251300Z 34009MPS 8000 SCT010 SCT020 OVC050 09/06 Q1024 NOSIG
ZGHA,2012-11-25 14:00,ZGHA 251400Z 36008MPS 8000 BKN020 OVC050 09/05 Q1024 NOSIG
ZGHA,2012-11-25 15:00,ZGHA 251500Z 36008MPS 8000 SCT020 OVC050 09/05 Q1025 NOSIG
ZGHA,2012-11-25 16:00,ZGHA 251600Z 36005MPS 6000 SCT020 09/05 Q1025 NOSIG
ZGHA,2012-11-25 17:00,ZGHA 251700Z 36004MPS 6000 SCT030 09/04 Q1026 NOSIG
ZGHA,2012-11-25 18:00,ZGHA 251800Z 36005MPS 6000 SCT040 09/04 Q1026 NOSIG
ZGHA,2012-11-25 19:00,ZGHA 251900Z 35005MPS 6000 NSC 09/04 Q1026 NOSIG
ZGHA,2012-11-25 20:00,ZGHA 252000Z 34005MPS 5000 BR NSC 08/04 Q1027 NOSIG
ZGHA,2012-11-25 21:00,ZGHA 252100Z 34006MPS 5000 BR NSC 08/04 Q1027 NOSIG
ZGHA,2012-11-25 22:00,ZGHA 252200Z 35007MPS 5000 BR NSC 08/04 Q1027 NOSIG
ZGHA,2012-11-25 23:00,ZGHA 252300Z 35006MPS 5000 BR NSC 08/04 Q1028 NOSIG
ZGHA,2012-11-26 00:00,ZGHA 260000Z 35004MPS 5000 BR NSC 09/04 Q1028 NOSIG
ZGHA,2012-11-26 01:00,ZGHA 260100Z 36003MPS 6000 NSC 09/04 Q1029 NOSIG
ZGHA,2012-11-26 02:00,ZGHA 260200Z 36004MPS 7000 NSC 10/04 Q1029 NOSIG
ZGHA,2012-11-26 03:00,ZGHA 260300Z 36004MPS CAVOK 12/02 Q1028 NOSIG
ZGHA,2012-11-26 04:00,ZGHA 260400Z 36004MPS 330V060 CAVOK 14/01 Q1027 NOSIG
ZGHA,2012-11-26 05:00,ZGHA 260500Z 36004MPS 290V090 CAVOK 14/M02 Q1025 NOSIG
ZGHA,2012-11-26 06:00,ZGHA 260600Z 01004MPS 340V080 CAVOK 15/M02 Q1024 NOSIG
ZGHA,2012-11-26 07:00,ZGHA 260700Z 35004MPS 320V040 CAVOK 15/M03 Q1023 NOSIG
ZGHA,2012-11-26 08:00,ZGHA 260800Z 36003MPS 330V050 CAVOK 15/M05 Q1023 NOSIG
ZGHA,2012-11-26 09:00,ZGHA 260900Z 01003MPS CAVOK 13/M04 Q1023 NOSIG
ZGHA,2012-11-26 10:00,ZGHA 261000Z 33004MPS CAVOK 12/M01 Q1023 NOSIG
ZGHA,2012-11-26 11:00,ZGHA 261100Z 32003MPS CAVOK 11/M00 Q1024 NOSIG
ZGHA,2012-11-26 12:00,ZGHA 261200Z 32002MPS CAVOK 09/00 Q1025 NOSIG
ZGHA,2012-11-26 13:00,ZGHA 261300Z 34002MPS 310V010 CAVOK 09/00 Q1025 NOSIG
ZGHA,2012-11-26 14:00,ZGHA 261400Z 04002MPS CAVOK 06/03 Q1025 NOSIG
ZGHA,2012-11-26 15:00,ZGHA 261500Z VRB01MPS CAVOK 06/03 Q1025 NOSIG
ZGHA,2012-11-26 16:00,ZGHA 261600Z 03001MPS 8000 NSC 05/03 Q1025 NOSIG
ZGHA,2012-11-26 17:00,ZGHA 261700Z VRB01MPS 6000 NSC 04/03 Q1024 NOSIG
ZGHA,2012-11-26 18:00,ZGHA 261800Z 13001MPS 5000 BR NSC 04/03 Q1024 NOSIG
ZGHA,2012-11-26 19:00,ZGHA 261900Z 00000MPS 5000 BR NSC 04/03 Q1024 NOSIG
ZGHA,2012-11-26 20:00,ZGHA 262000Z 18001MPS 4500 BR NSC 03/02 Q1023 BECMG TL2100 2000
ZGHA,2012-11-26 21:00,ZGHA 262100Z 06001MPS 4000 BR NSC 03/03 Q1023 NOSIG
ZGHA,2012-11-26 22:00,ZGHA 262200Z 00000MPS 4000 BR NSC 03/02 Q1022 NOSIG
ZGHA,2012-11-26 23:00,ZGHA 262300Z VRB01MPS 4000 BR NSC 03/02 Q1023 NOSIG
ZGHA,2012-11-27 00:00,ZGHA 270000Z VRB01MPS 6000 NSC 04/04 Q1023 NOSIG
ZGHA,2012-11-27 01:00,ZGHA 270100Z VRB01MPS 7000 NSC 06/05 Q1023 NOSIG
ZGHA,2012-11-27 02:00,ZGHA 270200Z VRB01MPS 9000 NSC 09/04 Q1023 NOSIG
ZGHA,2012-11-27 03:00,ZGHA 270300Z VRB01MPS 8000 NSC 10/05 Q1022 NOSIG
ZGHA,2012-11-27 04:00,ZGHA 270400Z 03002MPS 360V060 8000 NSC 11/04 Q1021 NOSIG
ZGHA,2012-11-27 05:00,ZGHA 270500Z VRB01MPS 8000 NSC 12/04 Q1019 NOSIG
ZGHA,2012-11-27 06:00,ZGHA 270600Z VRB01MPS CAVOK 13/02 Q1018 NOSIG
ZGHA,2012-11-27 07:00,ZGHA 270700Z 14002MPS CAVOK 13/02 Q1017 NOSIG
ZGHA,2012-11-27 08:00,ZGHA 270800Z VRB01MPS CAVOK 13/03 Q1016 NOSIG
ZGHA,2012-11-27 09:00,ZGHA 270900Z 00000MPS CAVOK 12/05 Q1016 NOSIG
ZGHA,2012-11-27 10:00,ZGHA 271000Z 04001MPS 8000 NSC 11/06 Q1016 NOSIG
ZGHA,2012-11-27 11:00,ZGHA 271100Z 00000MPS 7000 NSC 11/07 Q1016 NOSIG
ZGHA,2012-11-27 12:00,ZGHA 271200Z 29002MPS 7000 SCT050 11/06 Q1017 NOSIG
ZGHA,2012-11-27 13:00,ZGHA 271300Z 34003MPS 6000 SCT050 11/05 Q1018 NOSIG
ZGHA,2012-11-27 14:00,ZGHA 271400Z 01002MPS 5000 -RA BR SCT011 OVC050 10/06 Q1018 NOSIG
ZGHA,2012-11-27 15:00,ZGHA 271500Z 01002MPS 5000 -RA BR SCT011 OVC050 10/07 Q1019 NOSIG
ZGHA,2012-11-27 16:00,ZGHA 271600Z 01002MPS 5000 -RA BR SCT011 OVC050 09/07 Q1019 NOSIG
ZGHA,2012-11-27 17:00,ZGHA 271700Z VRB01MPS 4000 -RA BR SCT011 OVC050 09/07 Q1019 NOSIG
ZGHA,2012-11-27 18:00,ZGHA 271800Z VRB01MPS 4000 -RA BR SCT011 OVC050 09/07 Q1019 NOSIG
ZGHA,2012-11-27 19:00,ZGHA 271900Z VRB01MPS 3000 -RA BR FEW004 BKN009 OVC050 09/07 Q1018 NOSIG
ZGHA,2012-11-27 20:00,ZGHA 272000Z VRB01MPS 3000 -SHRA BR BKN009 OVC050 08/07 Q1018 NOSIG
ZGHA,2012-11-27 21:00,ZGHA 272100Z VRB01MPS 3000 -RA BR BKN008 OVC050 08/07 Q1019 NOSIG
ZGHA,2012-11-27 22:00,ZGHA 272200Z VRB01MPS 2500 -RA BR FEW003 BKN007 OVC050 08/07 Q1018 NOSIG
ZGHA,2012-11-27 23:00,ZGHA 272300Z VRB01MPS 2200 -RA BR FEW003 BKN007 OVC050 08/08 Q1019 BECMG TL0100 3200
ZGHA,2012-11-28 00:00,ZGHA 280000Z 00000MPS 2700 BR FEW004 BKN008 OVC050 09/08 Q1019 NOSIG
ZGHA,2012-11-28 01:00,ZGHA 280100Z VRB01MPS 3000 BR SCT004 BKN008 OVC050 09/08 Q1020 NOSIG
ZGHA,2012-11-28 02:00,ZGHA 280200Z 16002MPS 130V190 4000 BR SCT006 BKN008 OVC050 10/08 Q1020 NOSIG
ZGHA,2012-11-28 03:00,ZGHA 280300Z VRB01MPS 4500 BR BKN008 OVC050 10/08 Q1020 BECMG TL0500 BKN011 OVC050
ZGHA,2012-11-28 04:00,ZGHA 280400Z VRB01MPS 5000 BR BKN009 OVC050 11/08 Q1019 BECMG TL0500 BKN011 OVC050
ZGHA,2012-11-28 05:00,ZGHA 280500Z 01002MPS 330V050 6000 SCT013 OVC050 11/07 Q1018 NOSIG
ZGHA,2012-11-28 06:00,ZGHA 280600Z 35002MPS 300V020 7000 BKN020 OVC050 12/07 Q1017 NOSIG
ZGHA,2012-11-28 07:00,ZGHA 280700Z 36002MPS 320V040 8000 BKN020 OVC050 12/07 Q1017 NOSIG
ZGHA,2012-11-28 08:00,ZGHA 280800Z 01002MPS 340V050 8000 BKN020 OVC050 12/06 Q1017 NOSIG
ZGHA,2012-11-28 09:00,ZGHA 280900Z 35002MPS 7000 SCT050 12/07 Q1018 NOSIG
ZGHA,2012-11-28 10:00,ZGHA 281000Z VRB01MPS 6000 SCT050 11/08 Q1018 NOSIG
ZGHA,2012-11-28 11:00,ZGHA 281100Z 32001MPS 6000 NSC 11/08 Q1019 NOSIG
ZGHA,2012-11-28 12:00,ZGHA 281200Z 34003MPS 5000 BR SCT050 11/08 Q1020 NOSIG
ZGHA,2012-11-28 13:00,ZGHA 281300Z VRB01MPS 4000 BR SCT040 11/08 Q1021
ZGHA,2012-11-28 14:00,ZGHA 281400Z 03001MPS 3000 BR SCT040 10/08 Q1021 NOSIG
ZGHA,2012-11-28 15:00,ZGHA 281500Z VRB01MPS 1800 BR NSC 09/08 Q1021 BECMG 1400
ZGHA,2012-11-28 16:00,ZGHA 281600Z 28001MPS 1800 BR NSC 08/07 Q1021 NOSIG
ZGHA,2012-11-28 17:00,ZGHA 281700Z 31002MPS 290V360 2500 BR NSC 08/07 Q1021 NOSIG
ZGHA,2012-11-28 18:00,ZGHA 281800Z VRB01MPS 1600 R36/1400 BR NSC 07/06 Q1021 NOSIG
ZGHA,2012-11-28 19:00,ZGHA 281900Z VRB01MPS 1000 R36/0250 BR NSC 06/05 Q1021 BECMG TL1920 0300 FG
ZGHA,2012-11-28 20:00,ZGHA 282000Z VRB01MPS 0300 R36/0275 FG VV007 06/05 Q1020 NOSIG
ZGHA,2012-11-28 21:00,ZGHA 282100Z 00000MPS 0200 R36/0300 FG VV006 06/05 Q1020 NOSIG
ZGHA,2012-11-28 22:00,ZGHA 282200Z 13001MPS 0200 R36/0325 FG VV006 06/05 Q1020 NOSIG
ZGHA,2012-11-28 23:00,ZGHA 282300Z 29001MPS 0200 R36/0325 FG VV006 06/06 Q1021 BECMG 0400
ZGHA,2012-11-29 00:00,ZGHA 290000Z VRB01MPS 0200 R36/0225 FG VV006 07/06 Q1021 BECMG TL0200 0500
ZGHA,2012-11-29 01:00,ZGHA 290100Z VRB01MPS 0300 R36/0250 FG VV006 07/06 Q1021 BECMG TL0220 0500
ZGHA,2012-11-29 02:00,ZGHA 290200Z VRB01MPS 0500 R36/0750 FG VV007 08/07 Q1021 BECMG TL0300 0700
ZGHA,2012-11-29 03:00,ZGHA 290300Z VRB01MPS 1400 R18/1100 BR FEW003 BKN007 OVC050 08/07 Q1021 BECMG TL0400 2000 BR SCT011 OVC050
ZGHA,2012-11-29 04:00,ZGHA 290400Z VRB02MPS 2800 BR FEW005 BKN008 OVC050 09/08 Q1020 BECMG TL0500 3100 BR BKN011 OVC050
ZGHA,2012-11-29 05:00,ZGHA 290500Z VRB01MPS 5000 BR SCT009 11/09 Q1019 NOSIG
ZGHA,2012-11-29 06:00,ZGHA 290600Z 01003MPS 4500 BR SCT008 11/08 Q1017 NOSIG
ZGHA,2012-11-29 07:00,ZGHA 290700Z 36003MPS 330V050 4500 -RA BR SCT009 11/08 Q1017 NOSIG
ZGHA,2012-11-29 08:00,ZGHA 290800Z 36003MPS 5000 BR SCT026 11/08 Q1017 NOSIG
ZGHA,2012-11-29 09:00,ZGHA 290900Z 35003MPS 5000 BR SCT033 11/08 Q1017 NOSIG
ZGHA,2012-11-29 10:00,ZGHA 291000Z 35004MPS 4500 BR SCT030 11/08 Q1018 NOSIG
ZGHA,2012-11-29 11:00,ZGHA 291100Z 35004MPS 3500 BR SCT030 11/08 Q1018 BECMG TL1300 2800
ZGHA,2012-11-29 12:00,ZGHA 291200Z 36003MPS 3500 BR BKN030 10/08 Q1019 BECMG TL1300 2800
ZGHA,2012-11-29 13:00,ZGHA 291300Z 36004MPS 3500 BR BKN023 10/07 Q1019 BECMG TL1400 2800 -RA BR BKN011 OVC050
ZGHA,2012-11-29 14:00,ZGHA 291400Z 36004MPS 3200 -RA BR FEW011 BKN023 OVC050 10/07 Q1020 NOSIG
ZGHA,2012-11-29 15:00,ZGHA 291500Z 34004MPS 2500 -RA BR BKN008 OVC050 09/08 Q1020 NOSIG
ZGHA,2012-11-29 16:00,ZGHA 291600Z 01002MPS 2000 -DZ BR FEW005 BKN007 OVC050 09/08 Q1020 NOSIG
ZGHA,2012-11-29 17:00,ZGHA 291700Z 36002MPS 2000 BR FEW005 BKN007 OVC050 09/08 Q1020 NOSIG
ZGHA,2012-11-29 18:00,ZGHA 291800Z 35004MPS 1800 BR BKN007 OVC050 09/08 Q1019 NOSIG
ZGHA,2012-11-29 19:00,ZGHA 291900Z 33003MPS 2000 BR BKN006 OVC050 09/08 Q1019 NOSIG
ZGHA,2012-11-29 20:00,ZGHA 292000Z 36002MPS 330V040 1800 BR BKN004 OVC050 09/08 Q1019 NOSIG
ZGHA,2012-11-29 21:00,ZGHA 292100Z 34003MPS 2100 BR BKN006 OVC050 09/08 Q1019 NOSIG
ZGHA,2012-11-29 22:00,ZGHA 292200Z 34003MPS 2100 BR BKN006 OVC050 09/08 Q1019 NOSIG
ZGHA,2012-11-29 23:00,ZGHA 292300Z 34004MPS 1800 BR BKN006 OVC050 09/08 Q1020 NOSIG
ZGHA,2012-11-30 00:00,ZGHA 300000Z 34004MPS 1400 R36/P2000 BR BKN006 OVC040 09/08 Q1021 BECMG TL0100 1600
ZGHA,2012-11-30 01:00,ZGHA 300100Z 34004MPS 1400 R36/1400 BR FEW003 BKN006 OVC040 09/08 Q1021 BECMG TL0200 1700
ZGHA,2012-11-30 02:00,ZGHA 300200Z 36004MPS 1400 R36/1400 BR FEW003 BKN006 OVC040 09/08 Q1022 BECMG TL0300 1700
ZGHA,2012-11-30 03:00,ZGHA 300300Z 35004MPS 1600 R36/1400 BR FEW003 BKN006 OVC040 10/08 Q1022 NOSIG
ZGHA,2012-11-30 04:00,ZGHA 300400Z 35003MPS 330V040 1700 BR FEW004 BKN007 OVC040 10/08 Q1021 NOSIG
ZGHA,2012-11-30 05:00,ZGHA 300500Z 33004MPS 2000 BR FEW004 BKN007 OVC040 10/08 Q1020 NOSIG
ZGHA,2012-11-30 06:00,ZGHA 300600Z 31004MPS 1400 R36/1500 BR FEW003 BKN006 OVC040 09/08 Q1019 BECMG TL0700 1700
ZGHA,2012-11-30 07:00,ZGHA 300700Z 30003MPS 270V340 1400 R36/1400 -RA BR FEW003 BKN006 OVC040 09/08 Q1018 NOSIG
ZGHA,2012-11-30 08:00,ZGHA 300800Z 33003MPS 280V350 1400 R36/1600 BR FEW004 BKN007 OVC040 10/08 Q1018 NOSIG
ZGHA,2012-11-30 09:00,ZGHA 300900Z 35003MPS 1600 -RA BR FEW004 BKN007 OVC040 10/08 Q1018 NOSIG
ZGHA,2012-11-30 10:00,ZGHA 301000Z 33004MPS 1600 BR FEW003 BKN006 OVC040 10/08 Q1018 NOSIG
ZGHA,2012-11-30 11:00,ZGHA 301100Z 32003MPS 1700 BR FEW003 BKN006 OVC040 10/08 Q1019 NOSIG
ZGHA,2012-11-30 12:00,ZGHA 301200Z 36004MPS 1700 BR FEW003 BKN006 OVC040 10/08 Q1019 NOSIG
ZGHA,2012-11-30 13:00,ZGHA 301300Z 34003MPS 1800 BR FEW003 BKN006 OVC040 10/08 Q1020 NOSIG
ZGHA,2012-11-30 14:00,ZGHA 301400Z 35003MPS 1800 BR BKN006 OVC040 10/08 Q1020 NOSIG
ZGHA,2012-11-30 15:00,ZGHA 301500Z 30002MPS 240V020 1700 -RA BR BKN006 OVC040 10/08 Q1020 NOSIG
ZGHA,2012-11-30 16:00,ZGHA 301600Z 30002MPS 1700 -RA BR BKN006 OVC040 10/09 Q1020 NOSIG
ZGHA,2012-11-30 17:00,ZGHA 301700Z 01002MPS 1600 -RA BR FEW003 BKN006 OVC040 10/09 Q1020 NOSIG
ZGHA,2012-11-30 18:00,ZGHA 301800Z 36002MPS 330V030 1600 -RA BR FEW002 BKN006 OVC040 10/09 Q1019 NOSIG
ZGHA,2012-11-30 19:00,ZGHA 301900Z VRB01MPS 1700 BR FEW003 BKN006 OVC040 10/09 Q1019 NOSIG
ZGHA,2012-11-30 20:00,ZGHA 302000Z 35002MPS 320V040 1700 -RA BR FEW003 BKN006 OVC040 10/09 Q1019 NOSIG
ZGHA,2012-11-30 21:00,ZGHA 302100Z 33003MPS 1600 -RA BR FEW003 BKN006 OVC040 10/09 Q1019 NOSIG
ZGHA,2012-11-30 22:00,ZGHA 302200Z 32002MPS 270V010 1600 -RA BR FEW003 BKN006 OVC040 10/09 Q1020 NOSIG
ZGHA,2012-11-30 23:00,ZGHA 302300Z 33003MPS 1200 R36/P2000 -RA BR FEW003 BKN006 OVC040 10/09 Q1020 BECMG TL0050 1500
ZGHA,2012-12-01 00:00,ZGHA 010000Z VRB01MPS 1200 R36/1600 -RA BR FEW003 BKN006 OVC040 10/09 Q1021 BECMG TL0150 1700
ZGHA,2012-12-01 01:00,ZGHA 010100Z 01002MPS 340V050 1400 R36/1300 -RA BR FEW003 BKN006 OVC040 10/09 Q1021 BECMG TL0145 1500
ZGHA,2012-12-01 02:00,ZGHA 010200Z 33003MPS 1600 -RA BR SCT003 BKN009 OVC033 10/09 Q1022 NOSIG
ZGHA,2012-12-01 03:00,ZGHA 010300Z 33003MPS 280V360 1800 -RA BR SCT003 BKN009 OVC033 10/09 Q1022 BECMG BKN011 OVC050
ZGHA,2012-12-01 04:00,ZGHA 010400Z 34003MPS 300V020 2400 -RA BR SCT003 BKN009 OVC033 10/09 Q1021 BECMG 3000 BKN011 OVC050
ZGHA,2012-12-01 05:00,ZGHA 010500Z 35003MPS 1400 R36/1400 -RA BR SCT004 BKN009 OVC033 11/09 Q1020 BECMG TL0600 1600 BKN011 OVC050
ZGHA,2012-12-01 06:00,ZGHA 010600Z 34004MPS 2000 -RA BR SCT004 BKN009 OVC033 10/09 Q1020 NOSIG
ZGHA,2012-12-01 07:00,ZGHA 010700Z 34004MPS 300V360 2500 -RA BR SCT004 BKN009 OVC033 10/09 Q1020 BECMG 3000 BKN011 OVC050
ZGHA,2012-12-01 08:00,ZGHA 010800Z 35006MPS 3500 -RA BR SCT004 BKN009 OVC040 10/09 Q1021 NOSIG
ZGHA,2012-12-01 09:00,ZGHA 010900Z 33006MPS 2200 -RA BR SCT004 BKN009 OVC033 09/08 Q1022 NOSIG
ZGHA,2012-12-01 10:00,ZGHA 011000Z 33005MPS 2500 -RA BR SCT004 BKN009 OVC033 08/07 Q1023 NOSIG
ZGHA,2012-12-01 11:00,ZGHA 011100Z 33006MPS 2700 BR SCT004 BKN009 OVC040 07/06 Q1024 BECMG TL1200 3500
ZGHA,2012-12-01 12:00,ZGHA 011200Z 33006MPS 3000 BR SCT004 BKN008 OVC040 07/06 Q1024 BECMG TL1300 2700
ZGHA,2012-12-01 13:00,ZGHA 011300Z 34006MPS 3000 BR BKN008 OVC040 07/06 Q1025 BECMG TL1400 2500
ZGHA,2012-12-01 14:00,ZGHA 011400Z 31004MPS 2600 BR BKN008 OVC040 07/06 Q1026 NOSIG
ZGHA,2012-12-01 15:00,ZGHA 011500Z 32004MPS 2200 BR BKN007 OVC040 07/06 Q1026 NOSIG
ZGHA,2012-12-01 16:00,ZGHA 011600Z 33005MPS 2100 BR BKN006 OVC040 07/06 Q1026 NOSIG
ZGHA,2012-12-01 17:00,ZGHA 011700Z 36004MPS 2000 BR BKN006 OVC040 07/05 Q1026 NOSIG
ZGHA,2012-12-01 18:00,ZGHA 011800Z 36004MPS 1800 BR BKN006 OVC040 07/05 Q1026 NOSIG
ZGHA,2012-12-01 19:00,ZGHA 011900Z 01003MPS 350V060 2000 BR BKN006 OVC040 06/05 Q1025 NOSIG
ZGHA,2012-12-01 20:00,ZGHA 012000Z 34005MPS 1800 BR SCT004 BKN008 OVC040 06/05 Q1025 NOSIG
ZGHA,2012-12-01 21:00,ZGHA 012100Z 35004MPS 1700 BR SCT004 BKN008 OVC040 06/05 Q1025 NOSIG
ZGHA,2012-12-01 22:00,ZGHA 012200Z 33004MPS 2500 BR BKN009 OVC050 06/04 Q1024 NOSIG
ZGHA,2012-12-01 23:00,ZGHA 012300Z 30004MPS 1700 BR SCT005 BKN009 OVC050 06/04 Q1025 BECMG TL2400 3500
ZGHA,2012-12-02 00:00,ZGHA 020000Z 30003MPS 1400 R36/1700 BR SCT004 BKN008 OVC050 06/04 Q1024 BECMG TL 0100 1700
ZGHA,2012-12-02 01:00,ZGHA 020100Z 31003MPS 280V340 2000 BR BKN007 OVC050 06/04 Q1024 BECMG TL0300 3200 BR BKN011 OVC050
ZGHA,2012-12-02 02:00,ZGHA 020200Z 32004MPS 290V350 2100 BR BKN007 OVC050 06/04 Q1025 BECMG TL0300 3200 BR BKN011 OVC050
ZGHA,2012-12-02 03:00,ZGHA 020300Z 31004MPS 280V340 2400 -DZ BR BKN007 OVC050 06/04 Q1024 BECMG TL0400 3200 BR BKN011 OVC050
ZGHA,2012-12-02 04:00,ZGHA 020400Z 29002MPS 240V340 3500 BR BKN009 OVC050 06/04 Q1023 BECMG TL0500 BKN011 OVC050
ZGHA,2012-12-02 05:00,ZGHA 020500Z 26002MPS 230V320 3700 BR BKN009 OVC050 07/04 Q1022 BECMG TL0600 BKN011 OVC050
ZGHA,2012-12-02 06:00,ZGHA 020600Z VRB01MPS 3700 BR BKN011 OVC050 07/04 Q1021 NOSIG
ZGHA,2012-12-02 07:00,ZGHA 020700Z 30002MPS 230V360 3500 BR BKN011 OVC050 07/04 Q1020 NOSIG
ZGHA,2012-12-02 08:00,ZGHA 020800Z 26002MPS 220V300 3500 BR BKN011 OVC050 07/04 Q1020 NOSIG
ZGHA,2012-12-02 09:00,ZGHA 020900Z VRB01MPS 3700 BR BKN013 OVC050 07/04 Q1020 NOSIG
ZGHA,2012-12-02 10:00,ZGHA 021000Z VRB01MPS 4000 BR BKN013 OVC050 07/03 Q1020 NOSIG
ZGHA,2012-12-02 11:00,ZGHA 021100Z VRB01MPS 3700 BR BKN013 OVC050 07/04 Q1021 NOSIG
ZGHA,2012-12-02 12:00,ZGHA 021200Z 26002MPS 190V310 3800 BR BKN013 OVC040 07/04 Q1021 NOSIG
ZGHA,2012-12-02 13:00,ZGHA 021300Z VRB01MPS 3800 BR BKN013 OVC040 07/04 Q1021 NOSIG
ZGHA,2012-12-02 14:00,ZGHA 021400Z VRB01MPS 4000 BR OVC033 07/04 Q1022 NOSIG
ZGHA,2012-12-02 15:00,ZGHA 021500Z 07001MPS 3000 BR OVC033 07/05 Q1023 NOSIG
ZGHA,2012-12-02 16:00,ZGHA 021600Z 01002MPS 3000 BR OVC033 07/05 Q1023 NOSIG
ZGHA,2012-12-02 17:00,ZGHA 021700Z VRB01MPS 3000 BR OVC033 07/05 Q1023 NOSIG
ZGHA,2012-12-02 18:00,ZGHA 021800Z 36002MPS 3000 BR BKN033 06/04 Q1024 NOSIG
ZGHA,2012-12-02 19:00,ZGHA 021900Z VRB01MPS 2000 BR NSC 05/04 Q1024 NOSIG
ZGHA,2012-12-02 20:00,ZGHA 022000Z 36003MPS 2000 BR FEW007 05/05 Q1025 NOSIG
ZGHA,2012-12-02 21:00,ZGHA 022100Z 01003MPS 1200 R36/1900 BR BKN007 05/05 Q1025 NOSIG
ZGHA,2012-12-02 22:00,ZGHA 022200Z 01002MPS 2500 BR BKN007 06/05 Q1025 NOSIG
ZGHA,2012-12-02 23:00,ZGHA 022300Z 36002MPS 3000 BR BKN007 OVC033 06/05 Q1025 NOSIG
ZGHA,2012-12-03 00:00,ZGHA 030000Z 34004MPS 2500 BR BKN006 OVC033 06/05 Q1026 NOSIG
ZGHA,2012-12-03 01:00,ZGHA 030100Z 34003MPS 300V020 3500 BR SCT007 BKN050 07/05 Q1026 NOSIG
ZGHA,2012-12-03 02:00,ZGHA 030200Z 01003MPS 330V040 5000 BR SCT009 OVC050 08/05 Q1026 NOSIG
ZGHA,2012-12-03 03:00,ZGHA 030300Z VRB01MPS 7000 SCT011 OVC050 09/05 Q1026 NOSIG
ZGHA,2012-12-03 04:00,ZGHA 030400Z 27002MPS 220V320 9999 SCT015 10/04 Q1025 NOSIG
ZGHA,2012-12-03 05:00,ZGHA 030500Z 32002MPS 270V080 9999 SCT020 12/05 Q1024 NOSIG
ZGHA,2012-12-03 06:00,ZGHA 030600Z VRB01MPS 9999 BKN030 12/04 Q1023 NOSIG
ZGHA,2012-12-03 07:00,ZGHA 030700Z 31005MPS 9999 SCT030 12/05 Q1023 NOSIG
ZGHA,2012-12-03 08:00,ZGHA 030800Z 29004MPS 270V330 9999 SCT033 11/05 Q1023 NOSIG
ZGHA,2012-12-03 09:00,ZGHA 030900Z 30004MPS 280V340 9999 SCT033 10/05 Q1023 NOSIG
ZGHA,2012-12-03 10:00,ZGHA 031000Z 30003MPS 270V330 7000 SCT033 10/05 Q1023 NOSIG
ZGHA,2012-12-03 11:00,ZGHA 031100Z 31003MPS 5000 BR SCT033 09/05 Q1023 NOSIG
ZGHA,2012-12-03 12:00,ZGHA 031200Z VRB01MPS 5000 BR NSC 08/05 Q1024 NOSIG
ZGHA,2012-12-03 13:00,ZGHA 031300Z VRB01MPS 4000 BR NSC 07/05 Q1024 BECMG TL1500 2800
ZGHA,2012-12-03 14:00,ZGHA 031400Z 07001MPS 2500 BR SCT033 06/05 Q1025 NOSIG
ZGHA,2012-12-03 15:00,ZGHA 031500Z 04002MPS 2500 BR SCT033 06/05 Q1025 NOSIG
ZGHA,2012-12-03 16:00,ZGHA 031600Z 35003MPS 3000 BR SCT033 07/06 Q1025 BECMG TL1700 2800
ZGHA,2012-12-03 17:00,ZGHA 031700Z 36002MPS 3000 BR SCT033 06/05 Q1024 BECMG TL1800 2800
ZGHA,2012-12-03 18:00,ZGHA 031800Z 35002MPS 2200 BR FEW033 05/04 Q1024 NOSIG
ZGHA,2012-12-03 19:00,ZGHA 031900Z VRB01MPS 1800 BR FEW033 04/04 Q1023 NOSIG
ZGHA,2012-12-03 20:00,ZGHA 032000Z 06002MPS 0900 R36/0225 FG NSC 04/03 Q1022 NOSIG
ZGHA,2012-12-03 21:00,ZGHA 032100Z 01002MPS 0300 R36/0250 FG VV007 05/04 Q1022 NOSIG
ZGHA,2012-12-03 22:00,ZGHA 032200Z VRB01MPS 0500 R36/0450 FG VV007 05/05 Q1021 BECMG TL2400 0700
ZGHA,2012-12-03 23:00,ZGHA 032300Z VRB01MPS 0900 R36/1200 FG SCT007 05/05 Q1021 NOSIG
ZGHA,2012-12-04 00:00,ZGHA 040000Z VRB01MPS 1600 R36/1400 BR SCT007 06/05 Q1022 BECMG TL0200 3000
ZGHA,2012-12-04 01:00,ZGHA 040100Z 08002MPS 040V110 3000 BR SCT007 07/06 Q1022 NOSIG
ZGHA,2012-12-04 02:00,ZGHA 040200Z VRB01MPS 5000 BR NSC 09/06 Q1022 NOSIG
ZGHA,2012-12-04 03:00,ZGHA 040300Z VRB01MPS 7000 FEW040 11/05 Q1021 NOSIG
ZGHA,2012-12-04 04:00,ZGHA 040400Z 36002MPS 300V040 7000 NSC 12/05 Q1020 NOSIG
ZGHA,2012-12-04 05:00,ZGHA 040500Z VRB01MPS 7000 NSC 12/05 Q1019 NOSIG
ZGHA,2012-12-04 06:00,ZGHA 040600Z VRB01MPS 8000 NSC 12/03 Q1018 NOSIG
ZGHA,2012-12-04 07:00,ZGHA 040700Z VRB01MPS 8000 NSC 12/04 Q1017 NOSIG
ZGHA,2012-12-04 08:00,ZGHA 040800Z 30002MPS 270V330 6000 SCT050 12/04 Q1017 NOSIG
ZGHA,2012-12-04 09:00,ZGHA 040900Z 31002MPS 280V340 6000 SCT040 12/05 Q1018 NOSIG
ZGHA,2012-12-04 10:00,ZGHA 041000Z 33004MPS 4500 BR SCT040 11/06 Q1018 NOSIG
ZGHA,2012-12-04 11:00,ZGHA 041100Z 31003MPS 4000 BR SCT040 11/06 Q1020 NOSIG
ZGHA,2012-12-04 12:00,ZGHA 041200Z 30002MPS 4000 BR SCT040 11/06 Q1021 NOSIG
ZGHA,2012-12-04 13:00,ZGHA 041300Z 30002MPS 260V350 4000 BR BKN040 10/06 Q1022 NOSIG
ZGHA,2012-12-04 14:00,ZGHA 041400Z 33002MPS 300V010 4000 BR BKN040 10/06 Q1022 NOSIG
ZGHA,2012-12-04 15:00,ZGHA 041500Z 30002MPS 3500 BR BKN040 10/06 Q1023 NOSIG
ZGHA,2012-12-04 16:00,ZGHA 041600Z 36002MPS 3500 BR BKN040 09/06 Q1023 NOSIG
ZGHA,2012-12-04 17:00,ZGHA 041700Z 01002MPS 3000 BR SCT040 08/06 Q1023 NOSIG
ZGHA,2012-12-04 18:00,ZGHA 041800Z 34003MPS 2600 BR SCT040 07/05 Q1024 NOSIG
ZGHA,2012-12-04 19:00,ZGHA 041900Z 00000MPS 2200 BR SCT040 06/05 Q1024 NOSIG
ZGHA,2012-12-04 20:00,ZGHA 042000Z 04001MPS 1800 BR NSC 06/05 Q1024 NOSIG
ZGHA,2012-12-04 21:00,ZGHA 042100Z 03001MPS 2300 BR NSC 06/05 Q1025 NOSIG
ZGHA,2012-12-04 22:00,ZGHA 042200Z 34004MPS 2500 BR NSC 05/04 Q1025 BECMG TL2330 3500
ZGHA,2012-12-04 23:00,ZGHA 042300Z 28002MPS 1800 BR NSC 05/04 Q1026 BECMG TL2400 3500
ZGHA,2012-12-05 00:00,ZGHA 050000Z 30002MPS 1400 R36/1500 BR NSC 05/04 Q1027 BECMG TL0030 2000
ZGHA,2012-12-05 01:00,ZGHA 050100Z 31002MPS 280V340 1800 BR NSC 07/06 Q1028 BECMG TL0300 3500
ZGHA,2012-12-05 02:00,ZGHA 050200Z 31003MPS 270V360 2500 BR NSC 09/05 Q1028 BECMG TL0300 3500
ZGHA,2012-12-05 03:00,ZGHA 050300Z 30003MPS 270V340 4000 HZ NSC 11/04 Q1027 NOSIG
ZGHA,2012-12-05 04:00,ZGHA 050400Z 34003MPS 310V010 4500 HZ NSC 13/04 Q1026 NOSIG
ZGHA,2012-12-05 05:00,ZGHA 050500Z 33002MPS 250V020 6000 NSC 14/04 Q1025 NOSIG
ZGHA,2012-12-05 06:00,ZGHA 050600Z VRB01MPS 6000 NSC 15/03 Q1024 NOSIG
ZGHA,2012-12-05 07:00,ZGHA 050700Z 21002MPS 120V260 6000 NSC 16/03 Q1023 NOSIG
ZGHA,2012-12-05 08:00,ZGHA 050800Z 32003MPS 290V360 8000 NSC 16/03 Q1022 NOSIG
ZGHA,2012-12-05 09:00,ZGHA 050900Z 30003MPS 7000 NSC 14/04 Q1023 NOSIG
ZGHA,2012-12-05 10:00,ZGHA 051000Z 32003MPS 6000 NSC 12/05 Q1023 NOSIG
ZGHA,2012-12-05 11:00,ZGHA 051100Z 32003MPS 6000 NSC 11/04 Q1023 NOSIG
ZGHA,2012-12-05 12:00,ZGHA 051200Z VRB01MPS 6000 NSC 09/04 Q1024 NOSIG
ZGHA,2012-12-05 13:00,ZGHA 051300Z 06001MPS 3200 BR NSC 07/05 Q1024 NOSIG
ZGHA,2012-12-05 14:00,ZGHA 051400Z 04002MPS 3000 BR NSC 06/05 Q1024 NOSIG
ZGHA,2012-12-05 15:00,ZGHA 051500Z 03002MPS 2500 BR NSC 06/05 Q1024 NOSIG
ZGHA,2012-12-05 16:00,ZGHA 051600Z VRB01MPS 2300 BR NSC 05/04 Q1024 NOSIG
ZGHA,2012-12-05 17:00,ZGHA 051700Z 00000MPS 2500 BR NSC 05/04 Q1023 NOSIG
ZGHA,2012-12-05 18:00,ZGHA 051800Z 04001MPS 1800 BR NSC 05/04 Q1022 NOSIG
ZGHA,2012-12-05 19:00,ZGHA 051900Z 00000MPS 1600 R18/1300 BR NSC 04/03 Q1022 NOSIG
ZGHA,2012-12-05 20:00,ZGHA 052000Z VRB01MPS 1600 R18/1200 BR NSC 03/03 Q1022 NOSIG
ZGHA,2012-12-05 21:00,ZGHA 052100Z 00000MPS 1400 R18/0700 BCFG BR NSC 02/02 Q1021 NOSIG
ZGHA,2012-12-05 22:00,ZGHA 052200Z 00000MPS 0900 R18/0275 FG NSC 02/01 Q1021 BECMG TL2300 0700
ZGHA,2012-12-05 23:00,ZGHA 052300Z 00000MPS 1600 R18/0275 MIFG BR NSC 02/02 Q1022 BECMG TL0030 3500
ZGHA,2012-12-06 00:00,ZGHA 060000Z VRB01MPS 3500 R36/1200 BR NSC 03/03 Q1022 NOSIG
ZGHA,2012-12-06 01:00,ZGHA 060100Z 05002MPS 350V110 4500 BR NSC 06/05 Q1022 NOSIG
ZGHA,2012-12-06 02:00,ZGHA 060200Z VRB02MPS 6000 NSC 10/05 Q1022 NOSIG
ZGHA,2012-12-06 03:00,ZGHA 060300Z 12002MPS 080V150 8000 NSC 14/04 Q1022 NOSIG
ZGHA,2012-12-06 04:00,ZGHA 060400Z 15004MPS 120V180 CAVOK 16/M01 Q1021 NOSIG
ZGHA,2012-12-06 05:00,ZGHA 060500Z 13002MPS 030V200 CAVOK 17/M03 Q1020 NOSIG
ZGHA,2012-12-06 06:00,ZGHA 060600Z 20002MPS 140V240 CAVOK 18/M02 Q1019 NOSIG
ZGHA,2012-12-06 07:00,ZGHA 060700Z VRB01MPS CAVOK 18/M00 Q1018 NOSIG
ZGHA,2012-12-06 08:00,ZGHA 060800Z 23002G07MPS 170V300 CAVOK 17/02 Q1018 NOSIG
ZGHA,2012-12-06 09:00,ZGHA 060900Z 20001MPS CAVOK 16/03 Q1017 NOSIG
ZGHA,2012-12-06 10:00,ZGHA 061000Z VRB01MPS 8000 NSC 13/05 Q1017 NOSIG
ZGHA,2012-12-06 11:00,ZGHA 061100Z 15002MPS 7000 NSC 10/06 Q1017 NOSIG
ZGHA,2012-12-06 12:00,ZGHA 061200Z VRB01MPS 7000 NSC 09/06 Q1018 NOSIG
ZGHA,2012-12-06 13:00,ZGHA 061300Z 20001MPS 7000 NSC 09/05 Q1019 NOSIG
ZGHA,2012-12-06 14:00,ZGHA 061400Z 27001MPS 6000 NSC 08/05 Q1019 NOSIG
ZGHA,2012-12-06 15:00,ZGHA 061500Z VRB01MPS 5000 BR NSC 07/05 Q1019 NOSIG
ZGHA,2012-12-06 16:00,ZGHA 061600Z VRB01MPS 4000 BR NSC 06/05 Q1019 NOSIG
ZGHA,2012-12-06 17:00,ZGHA 061700Z 29002MPS 4000 BR NSC 06/05 Q1019 NOSIG
ZGHA,2012-12-06 18:00,ZGHA 061800Z 01002MPS 3500 BR NSC 06/04 Q1020 NOSIG
ZGHA,2012-12-06 19:00,ZGHA 061900Z 06002MPS 3500 BR NSC 06/04 Q1021 NOSIG
ZGHA,2012-12-06 20:00,ZGHA 062000Z 04002MPS 020V090 3000 BR NSC 06/04 Q1021 NOSIG
ZGHA,2012-12-06 21:00,ZGHA 062100Z VRB01MPS 4500 BR NSC 06/03 Q1021 NOSIG
ZGHA,2012-12-06 22:00,ZGHA 062200Z 02001MPS 4000 BR NSC 05/03 Q1022 NOSIG
ZGHA,2012-12-06 23:00,ZGHA 062300Z 32002MPS 4500 BR NSC 05/04 Q1022 NOSIG
ZGHA,2012-12-07 00:00,ZGHA 070000Z VRB01MPS 5000 BR NSC 06/04 Q1022 NOSIG
ZGHA,2012-12-07 01:00,ZGHA 070100Z VRB01MPS 6000 NSC 10/05 Q1023 NOSIG
ZGHA,2012-12-07 02:00,ZGHA 070200Z VRB01MPS CAVOK 12/04 Q1024 NOSIG
ZGHA,2012-12-07 03:00,ZGHA 070300Z 31002MPS 260V010 CAVOK 14/05 Q1024 NOSIG
ZGHA,2012-12-07 04:00,ZGHA 070400Z 34003MPS CAVOK 16/04 Q1023 NOSIG
ZGHA,2012-12-07 05:00,ZGHA 070500Z 32003MPS 270V360 8000 NSC 15/05 Q1021 NOSIG
ZGHA,2012-12-07 06:00,ZGHA 070600Z 32003MPS 290V350 6000 NSC 16/06 Q1021 NOSIG
ZGHA,2012-12-07 07:00,ZGHA 070700Z 30004G09MPS 280V340 5000 HZ NSC 15/07 Q1020 NOSIG
ZGHA,2012-12-07 08:00,ZGHA 070800Z 32004MPS 5000 HZ NSC 15/07 Q1020 NOSIG
ZGHA,2012-12-07 09:00,ZGHA 070900Z 31004MPS 4000 HZ NSC 14/07 Q1020 NOSIG
ZGHA,2012-12-07 10:00,ZGHA 071000Z 32003MPS 4000 HZ NSC 14/07 Q1020 NOSIG
ZGHA,2012-12-07 11:00,ZGHA 071100Z 33003MPS 4000 HZ NSC 13/07 Q1021 BECMG 2800
ZGHA,2012-12-07 12:00,ZGHA 071200Z 32002MPS 290V350 3500 BR NSC 12/07 Q1021 NOSIG
ZGHA,2012-12-07 13:00,ZGHA 071300Z 35003MPS 3500 BR NSC 12/07 Q1022 BECMG 2800
ZGHA,2012-12-07 14:00,ZGHA 071400Z VRB01MPS 3000 BR NSC 12/07 Q1022 BECMG 2500
ZGHA,2012-12-07 15:00,ZGHA 071500Z 36002MPS 3000 BR NSC 11/07 Q1023 NOSIG
ZGHA,2012-12-07 16:00,ZGHA 071600Z 36002MPS 3000 BR NSC 11/07 Q1022 BECMG 2500
ZGHA,2012-12-07 17:00,ZGHA 071700Z 34003MPS 2800 BR NSC 11/07 Q1022 NOSIG
ZGHA,2012-12-07 18:00,ZGHA 071800Z 34003MPS 2500 BR NSC 11/07 Q1022 NOSIG
ZGHA,2012-12-07 19:00,ZGHA 071900Z 01002MPS 350V060 2200 BR NSC 09/07 Q1022 NOSIG
ZGHA,2012-12-07 20:00,ZGHA 072000Z 34003MPS 1800 BR NSC 07/06 Q1021 NOSIG
ZGHA,2012-12-07 21:00,ZGHA 072100Z 34002MPS 1600 BR NSC 07/06 Q1021 NOSIG
ZGHA,2012-12-07 22:00,ZGHA 072200Z 34002MPS 1400 R36/1800 BR NSC 07/06 Q1021 NOSIG
ZGHA,2012-12-07 23:00,ZGHA 072300Z 02003MPS 0900 R36/1400 FG SCT007 07/06 Q1023 BECMG TI0050 1600 BR
ZGHA,2012-12-08 00:00,ZGHA 080000Z 02002MPS 350V060 1000 R36/1100 BR NSC 07/06 Q1023 BECMG TL0056 1600
ZGHA,2012-12-08 01:00,ZGHA 080100Z 02002MPS 340V090 1300 R36/1100 BR NSC 09/07 Q1023 BECMG TL0200 1700
ZGHA,2012-12-08 02:00,ZGHA 080200Z VRB01MPS 2400 BR NSC 11/06 Q1024 NOSIG
ZGHA,2012-12-08 03:00,ZGHA 080300Z VRB01MPS 2700 BR NSC 12/07 Q1024 BECMG TL0400 3000
ZGHA,2012-12-08 04:00,ZGHA 080400Z VRB01MPS 4000 HZ NSC 13/06 Q1023 NOSIG
ZGHA,2012-12-08 05:00,ZGHA 080500Z 36002MPS 330V060 6000 NSC 14/06 Q1021 NOSIG
ZGHA,2012-12-08 06:00,ZGHA 080600Z 34003MPS 280V010 7000 NSC 16/06 Q1019 NOSIG
ZGHA,2012-12-08 07:00,ZGHA 080700Z 32003MPS 290V360 6000 NSC 16/07 Q1019 NOSIG
ZGHA,2012-12-08 08:00,ZGHA 080800Z 29003MPS 250V320 4500 HZ NSC 15/07 Q1019 NOSIG
ZGHA,2012-12-08 09:00,ZGHA 080900Z 30003MPS 4500 BR NSC 14/07 Q1019 NOSIG
ZGHA,2012-12-08 10:00,ZGHA 081000Z VRB01MPS 4000 BR NSC 13/07 Q1020 NOSIG
ZGHA,2012-12-08 11:00,ZGHA 081100Z VRB01MPS 3500 BR NSC 11/07 Q1020 NOSIG
ZGHA,2012-12-08 12:00,ZGHA 081200Z 32002MPS 280V340 3500 BR NSC 11/07 Q1020 NOSIG
ZGHA,2012-12-08 13:00,ZGHA 081300Z VRB01MPS 2600 BR NSC 10/07 Q1021 NOSIG
ZGHA,2012-12-08 14:00,ZGHA 081400Z 32002MPS 2200 BR NSC 10/06 Q1021 NOSIG
ZGHA,2012-12-08 15:00,ZGHA 081500Z 36002MPS 340V040 2200 BR NSC 09/06 Q1022 NOSIG
ZGHA,2012-12-08 16:00,ZGHA 081600Z 36002MPS 1800 BR NSC 08/06 Q1021 NOSIG
ZGHA,2012-12-08 17:00,ZGHA 081700Z 34002MPS 3500 BR NSC 07/05 Q1021 NOSIG
ZGHA,2012-12-08 18:00,ZGHA 081800Z 33003MPS 4000 BR NSC 07/05 Q1021 NOSIG
ZGHA,2012-12-08 19:00,ZGHA 081900Z VRB01MPS 3500 BR NSC 08/05 Q1020 NOSIG
ZGHA,2012-12-08 20:00,ZGHA 082000Z 33003MPS 4500 BR NSC 08/05 Q1020 NOSIG
ZGHA,2012-12-08 21:00,ZGHA 082100Z 28002MPS 4000 BR NSC 07/05 Q1020 NOSIG
ZGHA,2012-12-08 22:00,ZGHA 082200Z 31003MPS 4500 BR NSC 07/05 Q1021 NOSIG
ZGHA,2012-12-08 23:00,ZGHA 082300Z VRB01MPS 4000 BR NSC 06/03 Q1022 NOSIG
ZGHA,2012-12-09 00:00,ZGHA 090000Z 05002MPS 3000 BR NSC 06/05 Q1022 NOSIG
ZGHA,2012-12-09 01:00,ZGHA 090100Z VRB01MPS 4000 BR NSC 09/05 Q1023 NOSIG
ZGHA,2012-12-09 02:00,ZGHA 090200Z 36002MPS 330V040 6000 NSC 10/03 Q1023 NOSIG
ZGHA,2012-12-09 03:00,ZGHA 090300Z 01002MPS 320V070 6000 NSC 11/03 Q1023 NOSIG
ZGHA,2012-12-09 04:00,ZGHA 090400Z 31003MPS 6000 NSC 12/04 Q1022 NOSIG
ZGHA,2012-12-09 05:00,ZGHA 090500Z 30005MPS 5000 HZ NSC 11/03 Q1021 NOSIG
ZGHA,2012-12-09 06:00,ZGHA 090600Z 31005MPS 5000 HZ NSC 11/03 Q1020 NOSIG
ZGHA,2012-12-09 07:00,ZGHA 090700Z 32006MPS 5000 HZ NSC 10/03 Q1020 NOSIG
ZGHA,2012-12-09 08:00,ZGHA 090800Z 30004MPS 5000 -RA HZ FEW040 10/03 Q1021 NOSIG
ZGHA,2012-12-09 09:00,ZGHA 090900Z 30003MPS 270V340 3500 -RA BR NSC 09/04 Q1021 BECMG TL1000 2500
ZGHA,2012-12-09 10:00,ZGHA 091000Z 32003MPS 4000 -RA BR FEW040 09/05 Q1021 BECMG TL1200 2500
ZGHA,2012-12-09 11:00,ZGHA 091100Z 31003MPS 3700 -RA BR FEW040 08/05 Q1021 BECMG TL1300 2500
ZGHA,2012-12-09 12:00,ZGHA 091200Z 34004MPS 3500 -RA BR SCT040 08/05 Q1021 NOSIG
ZGHA,2012-12-09 13:00,ZGHA 091300Z 30002MPS 280V340 2500 -RA BR SCT033 08/05 Q1022 NOSIG
ZGHA,2012-12-09 14:00,ZGHA 091400Z 31002MPS 290V360 2500 -RA BR SCT011 OVC050 08/06 Q1022 NOSIG
ZGHA,2012-12-09 15:00,ZGHA 091500Z 32003MPS 2500 -RA BR SCT011 OVC050 07/05 Q1022 NOSIG
ZGHA,2012-12-09 16:00,ZGHA 091600Z 32003MPS 2500 -RA BR SCT011 OVC050 07/05 Q1022 NOSIG
ZGHA,2012-12-09 17:00,ZGHA 091700Z 33003MPS 2200 -RA BR SCT011 OVC050 07/05 Q1022 NOSIG
ZGHA,2012-12-09 18:00,ZGHA 091800Z 33002MPS 2200 -RA BR SCT011 OVC050 07/06 Q1021 NOSIG
ZGHA,2012-12-09 19:00,ZGHA 091900Z 32003MPS 2000 -RA BR BKN009 OVC050 07/06 Q1021 NOSIG
ZGHA,2012-12-09 20:00,ZGHA 092000Z 30002MPS 2200 -RA BR BKN009 OVC050 07/06 Q1021 NOSIG
ZGHA,2012-12-09 21:00,ZGHA 092100Z 30003MPS 2000 -RA BR BKN009 OVC050 07/05 Q1021 NOSIG
ZGHA,2012-12-09 22:00,ZGHA 092200Z 34002MPS 2000 -RA BR FEW004 BKN008 OVC050 07/05 Q1021 NOSIG
ZGHA,2012-12-09 23:00,ZGHA 092300Z 36001MPS 2000 -RA BR BKN008 OVC050 07/06 Q1021 NOSIG
ZGHA,2012-12-10 00:00,ZGHA 100000Z VRB01MPS 1600 -RA BR FEW004 BKN007 OVC040 07/06 Q1022 NOSIG
ZGHA,2012-12-10 01:00,ZGHA 100100Z 00000MPS 1600 -RA BR FEW004 BKN007 OVC040 06/04 Q1023 NOSIG
ZGHA,2012-12-10 02:00,ZGHA 100200Z VRB01MPS 1600 -RA BR FEW004 BKN007 OVC040 07/05 Q1023 NOSIG
ZGHA,2012-12-10 03:00,ZGHA 100300Z VRB01MPS 1800 -RA BR SCT004 BKN007 OVC040 06/05 Q1024 NOSIG
ZGHA,2012-12-10 04:00,ZGHA 100400Z VRB01MPS 2700 -RA BR SCT004 BKN008 OVC040 06/04 Q1023 BECMG TL0500 3200
ZGHA,2012-12-10 05:00,ZGHA 100500Z VRB01MPS 2500 -RA BR SCT005 BKN008 OVC040 06/05 Q1022 NOSIG
ZGHA,2012-12-10 06:00,ZGHA 100600Z VRB01MPS 2200 -RA BR SCT005 BKN008 OVC040 06/05 Q1022 NOSIG
ZGHA,2012-12-10 07:00,ZGHA 100700Z VRB01MPS 2300 -RA BR SCT005 BKN008 OVC040 06/05 Q1021 NOSIG
ZGHA,2012-12-10 08:00,ZGHA 100800Z VRB01MPS 2500 -RA BR SCT005 BKN008 OVC040 06/05 Q1022 NOSIG
ZGHA,2012-12-10 09:00,ZGHA 100900Z VRB01MPS 2000 -RA BR SCT005 BKN008 OVC040 06/05 Q1022 NOSIG
ZGHA,2012-12-10 10:00,ZGHA 101000Z 35004MPS 3000 -RA BR SCT006 BKN009 OVC050 06/05 Q1023 NOSIG
ZGHA,2012-12-10 11:00,ZGHA 101100Z 35004MPS 3000 -RA BR SCT007 BKN009 OVC050 06/05 Q1024 NOSIG
ZGHA,2012-12-10 12:00,ZGHA 101200Z 36003MPS 3000 BR SCT007 BKN009 OVC050 06/05 Q1024 NOSIG
ZGHA,2012-12-10 13:00,ZGHA 101300Z 35003MPS 3000 BR BKN009 OVC050 06/05 Q1025 NOSIG
ZGHA,2012-12-10 14:00,ZGHA 101400Z 35003MPS 4000 -RA BR BKN009 OVC050 06/04 Q1025 NOSIG
ZGHA,2012-12-10 15:00,ZGHA 101500Z 32002MPS 280V350 4000 -RA BR BKN009 OVC050 06/05 Q1025 NOSIG
ZGHA,2012-12-10 16:00,ZGHA 101600Z 33003MPS 4000 -RA BR BKN009 OVC050 06/04 Q1025 NOSIG
ZGHA,2012-12-10 17:00,ZGHA 101700Z 33004MPS 2500 BR FEW005 BKN007 OVC050 06/05 Q1025 NOSIG
ZGHA,2012-12-10 18:00,ZGHA 101800Z 31003MPS 2500 BR FEW005 BKN007 OVC050 06/05 Q1025 NOSIG
ZGHA,2012-12-10 19:00,ZGHA 101900Z 34004MPS 3000 BR BKN007 OVC050 06/04 Q1025 NOSIG
ZGHA,2012-12-10 20:00,ZGHA 102000Z 01002MPS 2500 BR BKN007 OVC050 05/04 Q1025 NOSIG
ZGHA,2012-12-10 21:00,ZGHA 102100Z 02002MPS 350V070 2500 BR BKN007 OVC050 05/04 Q1024 NOSIG
ZGHA,2012-12-10 22:00,ZGHA 102200Z 35004MPS 2700 BR BKN007 OVC050 05/04 Q1025 NOSIG
ZGHA,2012-12-10 23:00,ZGHA 102300Z 36004MPS 3000 BR BKN013 OVC050 05/03 Q1026 NOSIG
ZGHA,2012-12-11 00:00,ZGHA 110000Z 01002MPS 3500 BR BKN012 OVC050 05/03 Q1026 NOSIG
ZGHA,2012-12-11 01:00,ZGHA 110100Z 34003MPS 3000 BR BKN012 OVC050 06/03 Q1027 BECMG TL0300 SCT012 OVC050
ZGHA,2012-12-11 02:00,ZGHA 110200Z 01003MPS 4000 BR BKN012 OVC050 06/04 Q1028 BECMG TL0400 SCT012 OVC050
ZGHA,2012-12-11 03:00,ZGHA 110300Z 36004MPS 4000 BR BKN012 OVC050 06/04 Q1028 BECMG TL0500 SCT012 OVC050
ZGHA,2012-12-11 04:00,ZGHA 110400Z 35003MPS 4500 BR BKN012 OVC050 07/04 Q1027 NOSIG
ZGHA,2012-12-11 05:00,ZGHA 110500Z 36003MPS 330V040 4500 BR BKN011 OVC050 07/04 Q1026 NOSIG
ZGHA,2012-12-11 06:00,ZGHA 110600Z 03002MPS 350V070 4500 BR BKN013 OVC050 07/04 Q1025 BECMG TL0800 SCT012 OVC050
ZGHA,2012-12-11 07:00,ZGHA 110700Z 36003MPS 330V030 5000 BR BKN013 OVC050 07/04 Q1025 NOSIG
ZGHA,2012-12-11 08:00,ZGHA 110800Z 34003MPS 5000 BR BKN013 OVC050 07/04 Q1026 BECMG TL0900 BKN016 OVC050
ZGHA,2012-12-11 09:00,ZGHA 110900Z 01003MPS 4000 BR BKN014 OVC050 07/04 Q1026 BECMG TL1000 BKN016 OVC050
ZGHA,2012-12-11 10:00,ZGHA 111000Z 01002MPS 5000 BR BKN015 OVC050 07/04 Q1026 NOSIG
ZGHA,2012-12-11 11:00,ZGHA 111100Z 02001MPS 5000 BR BKN017 OVC050 07/04 Q1026 NOSIG
ZGHA,2012-12-11 12:00,ZGHA 111200Z 01001MPS 5000 BR BKN017 OVC050 07/04 Q1027 NOSIG
ZGHA,2012-12-11 13:00,ZGHA 111300Z VRB01MPS 5000 BR BKN020 OVC050 07/04 Q1027 NOSIG
ZGHA,2012-12-11 14:00,ZGHA 111400Z VRB01MPS 4500 BR BKN020 OVC050 07/05 Q1027 NOSIG
ZGHA,2012-12-11 15:00,ZGHA 111500Z VRB01MPS 4000 BR BKN020 OVC050 07/05 Q1027 NOSIG
ZGHA,2012-12-11 16:00,ZGHA 111600Z VRB01MPS 4000 BR BKN020 OVC050 07/04 Q1027 NOSIG
ZGHA,2012-12-11 17:00,ZGHA 111700Z 31002MPS 3500 BR BKN020 OVC050 07/04 Q1027 NOSIG
ZGHA,2012-12-11 18:00,ZGHA 111800Z 36002MPS 3000 BR BKN020 OVC050 07/04 Q1027 NOSIG
ZGHA,2012-12-11 19:00,ZGHA 111900Z 05002MPS 010V090 3000 BR SCT020 OVC050 07/05 Q1026 NOSIG
ZGHA,2012-12-11 20:00,ZGHA 112000Z VRB01MPS 2500 BR FEW040 06/04 Q1025 NOSIG
ZGHA,2012-12-11 21:00,ZGHA 112100Z 01002MPS 3000 BR SCT040 06/04 Q1025 NOSIG
ZGHA,2012-12-11 22:00,ZGHA 112200Z 04002MPS 360V090 3000 BR SCT040 06/04 Q1025 NOSIG
ZGHA,2012-12-11 23:00,ZGHA 112300Z 01002MPS 4500 BR BKN020 06/03 Q1026 NOSIG
ZGHA,2012-12-12 00:00,ZGHA 120000Z VRB01MPS 6000 SCT050 06/02 Q1026 NOSIG
ZGHA,2012-12-12 01:00,ZGHA 120100Z 06002MPS 020V100 6000 -RA NSC 06/02 Q1026 NOSIG
ZGHA,2012-12-12 02:00,ZGHA 120200Z 01001MPS 6000 NSC 08/04 Q1027 NOSIG
ZGHA,2012-12-12 03:00,ZGHA 120300Z VRB01MPS 7000 NSC 09/02 Q1027 NOSIG
ZGHA,2012-12-12 04:00,ZGHA 120400Z VRB01MPS 7000 NSC 10/02 Q1026 NOSIG
ZGHA,2012-12-12 05:00,ZGHA 120500Z 14004MPS 120V180 7000 -RA SCT030 09/03 Q1024 NOSIG
ZGHA,2012-12-12 06:00,ZGHA 120600Z 14004MPS 110V170 7000 SCT040 09/03 Q1023 NOSIG
ZGHA,2012-12-12 07:00,ZGHA 120700Z 15003MPS 6000 BKN040 09/03 Q1022 NOSIG
ZGHA,2012-12-12 08:00,ZGHA 120800Z 16003MPS 6000 SCT030 OVC050 09/04 Q1022 NOSIG
ZGHA,2012-12-12 09:00,ZGHA 120900Z 16003MPS 120V190 6000 SCT030 OVC050 09/04 Q1022 NOSIG
ZGHA,2012-12-12 10:00,ZGHA 121000Z 15003MPS 5000 -RA BR SCT030 OVC050 08/05 Q1023 NOSIG
ZGHA,2012-12-12 11:00,ZGHA 121100Z 15001MPS 4000 BR SCT030 OVC050 07/05 Q1023 NOSIG
ZGHA,2012-12-12 12:00,ZGHA 121200Z VRB01MPS 4000 BR SCT030 08/05 Q1023 NOSIG
ZGHA,2012-12-12 13:00,ZGHA 121300Z VRB01MPS 4000 BR BKN030 08/05 Q1022 NOSIG
ZGHA,2012-12-12 14:00,ZGHA 121400Z VRB01MPS 4500 BR BKN033 08/05 Q1023 NOSIG
ZGHA,2012-12-12 15:00,ZGHA 121500Z 17003MPS 5000 BR BKN033 08/04 Q1023 NOSIG
ZGHA,2012-12-12 16:00,ZGHA 121600Z 16004MPS 5000 BR SCT040 08/04 Q1022 NOSIG
ZGHA,2012-12-12 17:00,ZGHA 121700Z 14002MPS 110V170 4700 BR BKN040 08/04 Q1021 NOSIG
ZGHA,2012-12-12 18:00,ZGHA 121800Z 16002MPS 120V190 5000 BR BKN033 09/04 Q1020 NOSIG
ZGHA,2012-12-12 19:00,ZGHA 121900Z VRB01MPS 5000 BR BKN033 09/05 Q1020 NOSIG
ZGHA,2012-12-12 20:00,ZGHA 122000Z VRB01MPS 5000 BR BKN033 09/05 Q1019 NOSIG
ZGHA,2012-12-12 21:00,ZGHA 122100Z VRB01MPS 4500 BR SCT033 09/05 Q1018 NOSIG
ZGHA,2012-12-12 22:00,ZGHA 122200Z VRB01MPS 4500 BR NSC 08/05 Q1018 NOSIG
ZGHA,2012-12-12 23:00,ZGHA 122300Z 17004MPS 4200 BR NSC 09/05 Q1018 NOSIG
ZGHA,2012-12-13 00:00,ZGHA 130000Z 17004MPS 4000 BR NSC 09/05 Q1018 NOSIG
ZGHA,2012-12-13 01:00,ZGHA 130100Z 17004MPS 4000 BR NSC 10/06 Q1018 NOSIG
ZGHA,2012-12-13 02:00,ZGHA 130200Z 19003MPS 4000 BR SCT050 10/06 Q1019 NOSIG
ZGHA,2012-12-13 03:00,ZGHA 130300Z 18003MPS 4500 BR NSC 11/07 Q1018 NOSIG
ZGHA,2012-12-13 04:00,ZGHA 130400Z 17004MPS 6000 NSC 13/07 Q1017 NOSIG
ZGHA,2012-12-13 05:00,ZGHA 130500Z 21002MPS 170V240 6000 BKN050 12/07 Q1016 NOSIG
ZGHA,2012-12-13 06:00,ZGHA 130600Z 16003MPS 6000 SCT050 13/08 Q1014 NOSIG
ZGHA,2012-12-13 07:00,ZGHA 130700Z 16003MPS 8000 NSC 13/08 Q1013 NOSIG
ZGHA,2012-12-13 08:00,ZGHA 130800Z 17003MPS 8000 NSC 14/08 Q1013 NOSIG
ZGHA,2012-12-13 09:00,ZGHA 130900Z 22002MPS 190V260 8000 SCT050 14/08 Q1013 NOSIG
ZGHA,2012-12-13 10:00,ZGHA 131000Z 26002MPS 6000 BKN050 13/08 Q1013 NOSIG
ZGHA,2012-12-13 11:00,ZGHA 131100Z VRB01MPS 6000 BKN050 13/09 Q1014 NOSIG
ZGHA,2012-12-13 12:00,ZGHA 131200Z 31002MPS 290V040 5000 BR SCT050 13/09 Q1014 NOSIG
ZGHA,2012-12-13 13:00,ZGHA 131300Z 32002MPS 5000 BR SCT050 13/09 Q1016 NOSIG
ZGHA,2012-12-13 14:00,ZGHA 131400Z 31002MPS 280V340 5000 BR SCT040 13/09 Q1016 NOSIG
ZGHA,2012-12-13 15:00,ZGHA 131500Z 34003MPS 5000 BR SCT040 13/09 Q1017 NOSIG
ZGHA,2012-12-13 16:00,ZGHA 131600Z 31003MPS 4500 BR SCT040 12/09 Q1017 NOSIG
ZGHA,2012-12-13 17:00,ZGHA 131700Z 32003MPS 3000 BR SCT040 11/09 Q1017 NOSIG
ZGHA,2012-12-13 18:00,ZGHA 131800Z 31004MPS 2200 BR NSC 11/08 Q1017 NOSIG
ZGHA,2012-12-13 19:00,ZGHA 131900Z 30005MPS 2000 BR NSC 10/07 Q1017 NOSIG
ZGHA,2012-12-13 20:00,ZGHA 132000Z 31003MPS 1800 BR SCT050 09/07 Q1017 NOSIG
ZGHA,2012-12-13 21:00,ZGHA 132100Z 32003MPS 1700 BR SCT010 SCT040 09/07 Q1017 NOSIG
ZGHA,2012-12-13 22:00,ZGHA 132200Z 31002MPS 1800 BR SCT007 SCT040 09/07 Q1017 NOSIG
ZGHA,2012-12-13 23:00,ZGHA 132300Z 31004MPS 1700 BR SCT007 SCT040 09/07 Q1018 BECMG TL2400 3000
ZGHA,2012-12-14 00:00,ZGHA 140000Z 32004MPS 1300 R36/1700 BR SCT004 BKN008 OVC050 09/07 Q1019 BECMG TL0100 2000
ZGHA,2012-12-14 01:00,ZGHA 140100Z 31004MPS 1200 R36/1500 BR BKN003 OVC050 08/07 Q1019 BECMG TL0230 1500
ZGHA,2012-12-14 02:00,ZGHA 140200Z 32004MPS 1400 R36/1400 BR BKN003 OVC040 08/07 Q1019 BECMG TL0230 1500
ZGHA,2012-12-14 03:00,ZGHA 140300Z 32004MPS 1600 BR BKN005 OVC040 09/07 Q1019 NOSIG
ZGHA,2012-12-14 04:00,ZGHA 140400Z 32004MPS 1800 BR BKN006 OVC040 09/07 Q1019 NOSIG
ZGHA,2012-12-14 05:00,ZGHA 140500Z 32004MPS 2500 BR BKN006 OVC040 09/07 Q1018 NOSIG
ZGHA,2012-12-14 06:00,ZGHA 140600Z 31004MPS 280V340 3000 BR BKN007 OVC040 09/06 Q1017 NOSIG
ZGHA,2012-12-14 07:00,ZGHA 140700Z 31004MPS 4000 BR BKN009 OVC050 08/06 Q1017 NOSIG
ZGHA,2012-12-14 08:00,ZGHA 140800Z 31005MPS 4500 BR BKN009 OVC050 08/06 Q1017 NOSIG
ZGHA,2012-12-14 09:00,ZGHA 140900Z 31004MPS 3000 BR BKN006 OVC050 08/06 Q1017 NOSIG
ZGHA,2012-12-14 10:00,ZGHA 141000Z 33004MPS 3500 BR BKN005 OVC050 07/05 Q1017 NOSIG
ZGHA,2012-12-14 11:00,ZGHA 141100Z 34005MPS 310V010 3500 BR BKN007 OVC050 07/05 Q1018 NOSIG
ZGHA,2012-12-14 12:00,ZGHA 141200Z 36006MPS 3000 BR BKN005 OVC050 07/05 Q1019 BECMG TL1300 2500
ZGHA,2012-12-14 13:00,ZGHA 141300Z 34005MPS 3500 -RA BR BKN005 OVC050 07/05 Q1019 BECMG TL1400 2500
ZGHA,2012-12-14 14:00,ZGHA 141400Z 35005MPS 3500 BR BKN005 OVC050 06/05 Q1020 NOSIG
ZGHA,2012-12-14 15:00,ZGHA 141500Z 35005MPS 3000 BR BKN005 OVC050 06/04 Q1020 NOSIG
ZGHA,2012-12-14 16:00,ZGHA 141600Z 35005MPS 2200 -RA BR BKN005 OVC050 06/05 Q1020 NOSIG
ZGHA,2012-12-14 17:00,ZGHA 141700Z 34004MPS 1800 -RA BR BKN004 OVC050 06/05 Q1020 NOSIG
ZGHA,2012-12-14 18:00,ZGHA 141800Z 34005MPS 4000 -RA BR BKN004 OVC050 05/04 Q1020 NOSIG
ZGHA,2012-12-14 19:00,ZGHA 141900Z 33003MPS 300V360 3000 -RA BR BKN004 OVC050 06/05 Q1019 NOSIG
ZGHA,2012-12-14 20:00,ZGHA 142000Z 33004MPS 3000 -RA BR BKN004 OVC050 05/04 Q1019 NOSIG
ZGHA,2012-12-14 21:00,ZGHA 142100Z 34004MPS 4000 -RA BR BKN004 OVC050 05/04 Q1019 NOSIG
ZGHA,2012-12-14 22:00,ZGHA 142200Z 34003MPS 4000 BR BKN006 OVC050 05/04 Q1019 NOSIG
ZGHA,2012-12-14 23:00,ZGHA 142300Z 35004MPS 2600 -RA BR BKN005 OVC050 05/04 Q1020 BECMG TL2400 3000
ZGHA,2012-12-15 00:00,ZGHA 150000Z 35005MPS 1400 R36/1700 -DZ BR SCT003 BKN004 OVC050 05/04 Q1020 BECMG TL0130 1600 BKN005 OVC050
ZGHA,2012-12-15 01:00,ZGHA 150100Z 36004MPS 1400 R36/1500 BR BKN004 OVC050 06/05 Q1021 BECMG TL0300 1600
ZGHA,2012-12-15 02:00,ZGHA 150200Z 36003MPS 1600 R36/1300 BR FEW004 BKN006 OVC050 06/04 Q1021 TEMPO 1400
ZGHA,2012-12-15 03:00,ZGHA 150300Z 36003MPS 1400 R36/1200 BR FEW004 BKN007 OVC050 06/05 Q1021 BECMG TL0400 1600
ZGHA,2012-12-15 04:00,ZGHA 150400Z 01003MPS 1600 R36/1400 BR BKN007 OVC050 06/04 Q1020 NOSIG
ZGHA,2012-12-15 05:00,ZGHA 150500Z 35003MPS 330V030 1600 R36/1400 -RA BR BKN007 OVC050 07/04 Q1019 NOSIG
ZGHA,2012-12-15 06:00,ZGHA 150600Z 31003MPS 280V350 1600 R36/1300 -RA BR FEW004 BKN007 OVC040 06/05 Q1018 NOSIG
ZGHA,2012-12-15 07:00,ZGHA 150700Z 33003MPS 1400 R36/1400 -RA BR FEW004 BKN007 OVC040 06/05 Q1018 NOSIG
ZGHA,2012-12-15 08:00,ZGHA 150800Z 01002MPS 1200 R36/1200 -RA BR FEW003 BKN006 OVC040 06/05 Q1018 NOSIG
ZGHA,2012-12-15 09:00,ZGHA 150900Z 36003MPS 1200 R36/1300 -DZ BR FEW003 BKN006 OVC040 06/05 Q1018 NOSIG
ZGHA,2012-12-15 10:00,ZGHA 151000Z 01002MPS 340V050 1700 BR FEW004 BKN007 OVC040 06/05 Q1018 NOSIG
ZGHA,2012-12-15 11:00,ZGHA 151100Z 01002MPS 350V050 1700 -DZ BR FEW004 BKN007 OVC040 06/05 Q1019 NOSIG
ZGHA,2012-12-15 12:00,ZGHA 151200Z 33004MPS 1700 BR FEW004 BKN007 OVC040 07/05 Q1019 NOSIG
ZGHA,2012-12-15 13:00,ZGHA 151300Z 35004MPS 1600 -DZ BR FEW004 BKN006 OVC040 07/05 Q1020 BECMG 1400
ZGHA,2012-12-15 14:00,ZGHA 151400Z 35003MPS 1600 -DZ BR SCT003 BKN005 OVC040 06/05 Q1020 BECMG 1400
ZGHA,2012-12-15 15:00,ZGHA 151500Z 34004MPS 1800 -DZ BR FEW004 BKN007 OVC040 06/05 Q1021 NOSIG
ZGHA,2012-12-15 16:00,ZGHA 151600Z 34003MPS 1600 -DZ BR BKN004 OVC040 06/05 Q1021 NOSIG
ZGHA,2012-12-15 17:00,ZGHA 151700Z 35004MPS 1800 -DZ BR BKN004 OVC040 06/05 Q1021 NOSIG
ZGHA,2012-12-15 18:00,ZGHA 151800Z 34003MPS 2500 BR FEW004 BKN007 OVC040 06/05 Q1021 NOSIG
ZGHA,2012-12-15 19:00,ZGHA 151900Z 34003MPS 2200 -DZ BR BKN006 OVC040 06/05 Q1021 NOSIG
ZGHA,2012-12-15 20:00,ZGHA 152000Z 35003MPS 2000 -DZ BR BKN006 OVC040 06/05 Q1022 NOSIG
ZGHA,2012-12-15 21:00,ZGHA 152100Z 33003MPS 2400 BR BKN006 OVC040 07/06 Q1022 NOSIG
ZGHA,2012-12-15 22:00,ZGHA 152200Z 34004MPS 2700 BR BKN006 OVC040 07/05 Q1022 NOSIG
ZGHA,2012-12-15 23:00,ZGHA 152300Z 35004MPS 3000 BR FEW005 BKN007 OVC040 07/05 Q1023 NOSIG
ZGHA,2012-12-16 00:00,ZGHA 160000Z 35004MPS 2500 BR BKN006 OVC040 07/05 Q1023 BECMG TL0130 3000
ZGHA,2012-12-16 01:00,ZGHA 160100Z 34003MPS 2700 BR FEW005 BKN007 OVC040 07/06 Q1024 BECMG TL0200 3500
ZGHA,2012-12-16 02:00,ZGHA 160200Z 35003MPS 2700 BR BKN007 OVC040 07/05 Q1024 BECMG TL0300 3000
ZGHA,2012-12-16 03:00,ZGHA 160300Z 29003MPS 270V330 1200 R36/1200 BR FEW003 BKN006 OVC040 07/06 Q1024 NOSIG
ZGHA,2012-12-16 04:00,ZGHA 160400Z 30003MPS 270V330 1400 R36/1200 BR FEW004 BKN006 OVC040 07/05 Q1023 BECMG TL0500 1600
ZGHA,2012-12-16 05:00,ZGHA 160500Z 31002MPS 270V350 1800 R36/1300 BR BKN007 OVC040 07/05 Q1022 NOSIG
ZGHA,2012-12-16 06:00,ZGHA 160600Z 36002MPS 310V030 2200 BR BKN008 OVC050 08/05 Q1020 BECMG TL0700 3000
ZGHA,2012-12-16 07:00,ZGHA 160700Z 29002MPS 260V320 1700 BR BKN008 OVC050 08/05 Q1020 NOSIG
ZGHA,2012-12-16 08:00,ZGHA 160800Z 31003MPS 280V340 1700 BR FEW006 BKN009 OVC050 08/05 Q1021 NOSIG
ZGHA,2012-12-16 09:00,ZGHA 160900Z 01003MPS 1800 BR BKN009 OVC050 07/05 Q1022 NOSIG
ZGHA,2012-12-16 10:00,ZGHA 161000Z 35004MPS 2200 BR BKN011 OVC050 07/05 Q1022 NOSIG
ZGHA,2012-12-16 11:00,ZGHA 161100Z 35004MPS 2000 BR FEW007 BKN011 OVC050 07/05 Q1023 BECMG TL1200 BKN009 OVC050
ZGHA,2012-12-16 12:00,ZGHA 161200Z 36004MPS 2000 BR FEW007 BKN011 OVC050 07/05 Q1023 BECMG TL1300 BKN009 OVC050
ZGHA,2012-12-16 13:00,ZGHA 161300Z 01003MPS 2000 BR FEW007 BKN011 OVC050 07/05 Q1023 NOSIG
ZGHA,2012-12-16 14:00,ZGHA 161400Z 36004MPS 2200 BR BKN009 OVC050 07/05 Q1023 NOSIG
ZGHA,2012-12-16 15:00,ZGHA 161500Z 34003MPS 300V360 2700 BR BKN008 OVC050 07/05 Q1023 BECMG TL1600 3200
ZGHA,2012-12-16 16:00,ZGHA 161600Z 34003MPS 3000 BR BKN008 OVC050 07/05 Q1024 BECMG TL1800 BKN011 OVC050
ZGHA,2012-12-16 17:00,ZGHA 161700Z 33004MPS 3000 BR BKN011 OVC050 07/05 Q1024 NOSIG
ZGHA,2012-12-16 18:00,ZGHA 161800Z 32003MPS 280V350 2500 BR BKN006 OVC050 07/05 Q1024 NOSIG
ZGHA,2012-12-16 19:00,ZGHA 161900Z 34003MPS 2200 BR FEW004 BKN006 OVC050 07/05 Q1023 NOSIG
ZGHA,2012-12-16 20:00,ZGHA 162000Z 01002MPS 2000 -RA BR FEW004 BKN006 OVC050 06/05 Q1024 NOSIG
ZGHA,2012-12-16 21:00,ZGHA 162100Z 36004MPS 2200 -RA BR FEW004 BKN006 OVC050 06/05 Q1023 NOSIG
ZGHA,2012-12-16 22:00,ZGHA 162200Z 36004MPS 2500 -RA BR BKN006 OVC050 06/05 Q1023 NOSIG
ZGHA,2012-12-16 23:00,ZGHA 162300Z 34003MPS 2000 -DZ BR BKN006 OVC050 07/06 Q1024 NOSIG
ZGHA,2012-12-17 00:00,ZGHA 170000Z 35003MPS 1200 R36/1500 -DZ BR SCT004 BKN006 OVC050 07/06 Q1024 BECMG 1500
ZGHA,2012-12-17 01:00,ZGHA 170100Z 01003MPS 1200 R36/1300 -RA BR SCT004 BKN006 OVC040 07/06 Q1024 NOSIG
ZGHA,2012-12-17 02:00,ZGHA 170200Z 36005MPS 1600 R36/1400 -RA BR SCT004 BKN007 OVC040 07/06 Q1024 RERA NOSIG
ZGHA,2012-12-17 03:00,ZGHA 170300Z 33004MPS 2100 -DZ BR SCT004 BKN009 OVC040 07/06 Q1024 NOSIG
ZGHA,2012-12-17 04:00,ZGHA 170400Z 34005MPS 2000 R36/1400 -RA BR SCT004 BKN009 OVC040 07/06 Q1024 NOSIG
ZGHA,2012-12-17 05:00,ZGHA 170500Z 35005MPS 2000 -DZ BR FEW003 BKN004 OVC040 07/06 Q1023 NOSIG
ZGHA,2012-12-17 06:00,ZGHA 170600Z 34004MPS 3000 -RA BR BKN004 OVC040 07/06 Q1023 NOSIG
ZGHA,2012-12-17 07:00,ZGHA 170700Z 33005MPS 2600 -RA BR BKN004 OVC040 07/06 Q1023 NOSIG
ZGHA,2012-12-17 08:00,ZGHA 170800Z 34005MPS 3000 RA BR BKN004 SCT020 OVC040 07/06 Q1023 NOSIG
ZGHA,2012-12-17 09:00,ZGHA 170900Z 34005MPS 7000 -RA BKN007 OVC033 07/06 Q1023 RERA NOSIG
ZGHA,2012-12-17 10:00,ZGHA 171000Z 34006MPS 7000 -RA BKN007 OVC033 07/06 Q1024 NOSIG
ZGHA,2012-12-17 11:00,ZGHA 171100Z 34006MPS 6000 -RA BKN006 OVC033 07/05 Q1024 NOSIG
ZGHA,2012-12-17 12:00,ZGHA 171200Z 34006MPS 6000 -RA BKN006 OVC033 07/05 Q1025 NOSIG
ZGHA,2012-12-17 13:00,ZGHA 171300Z 34008MPS 6000 -SHRA BKN006 OVC033 06/05 Q1027 NOSIG
ZGHA,2012-12-17 14:00,ZGHA 171400Z 34007MPS 6000 -RASN SCT006 BKN009 OVC033 06/05 Q1028 NOSIG
ZGHA,2012-12-17 15:00,ZGHA 171500Z 34009MPS 7000 -RA SCT006 BKN009 OVC033 05/04 Q1028 NOSIG
ZGHA,2012-12-17 16:00,ZGHA 171600Z 34008MPS 7000 -RA SCT006 BKN009 OVC033 05/04 Q1029 NOSIG
ZGHA,2012-12-17 17:00,ZGHA 171700Z 34007MPS 7000 -RA SCT006 BKN009 OVC033 05/03 Q1030 NOSIG
ZGHA,2012-12-17 18:00,ZGHA 171800Z 34007MPS 6000 -RA SCT006 BKN009 OVC033 05/03 Q1030 NOSIG
ZGHA,2012-12-17 19:00,ZGHA 171900Z 35007MPS 7000 SCT006 BKN009 OVC033 04/03 Q1030 NOSIG
ZGHA,2012-12-17 20:00,ZGHA 172000Z 35008MPS 7000 SCT006 BKN009 OVC033 04/03 Q1030 NOSIG
ZGHA,2012-12-17 21:00,ZGHA 172100Z 35007MPS 7000 BKN009 OVC033 04/03 Q1030 NOSIG
ZGHA,2012-12-17 22:00,ZGHA 172200Z 33004MPS 8000 BKN009 OVC050 04/03 Q1031 NOSIG
ZGHA,2012-12-17 23:00,ZGHA 172300Z 34007MPS 8000 BKN009 OVC050 04/03 Q1032 NOSIG
ZGHA,2012-12-18 00:00,ZGHA 180000Z 35005MPS 9999 BKN009 OVC050 04/03 Q1033 NOSIG
ZGHA,2012-12-18 01:00,ZGHA 180100Z 34006MPS 9999 BKN009 OVC040 04/03 Q1033 NOSIG
ZGHA,2012-12-18 02:00,ZGHA 180200Z 36005MPS 9999 BKN009 OVC040 05/03 Q1034 NOSIG
ZGHA,2012-12-18 03:00,ZGHA 180300Z 35005MPS 9999 BKN009 OVC050 06/04 Q1034 BECMG TL0400 BKN011 OVC050
ZGHA,2012-12-18 04:00,ZGHA 180400Z 34006MPS 9999 BKN011 OVC050 06/03 Q1034 NOSIG
ZGHA,2012-12-18 05:00,ZGHA 180500Z 34006MPS 8000 BKN013 OVC050 06/03 Q1033 NOSIG
ZGHA,2012-12-18 06:00,ZGHA 180600Z 35005MPS 8000 BKN013 OVC050 06/03 Q1032 NOSIG
ZGHA,2012-12-18 07:00,ZGHA 180700Z 35004MPS 7000 BKN015 OVC050 06/02 Q1031 NOSIG
ZGHA,2012-12-18 08:00,ZGHA 180800Z 35004MPS 7000 BKN015 OVC050 06/02 Q1031 NOSIG
ZGHA,2012-12-18 09:00,ZGHA 180900Z 34004MPS 7000 SCT015 BKN017 OVC050 06/02 Q1031 NOSIG
ZGHA,2012-12-18 10:00,ZGHA 181000Z 01003MPS 5000 BR SCT015 BKN017 OVC050 05/02 Q1031 NOSIG
ZGHA,2012-12-18 11:00,ZGHA 181100Z 36003MPS 4500 BR BKN017 OVC050 05/02 Q1031 NOSIG
ZGHA,2012-12-18 12:00,ZGHA 181200Z 36002MPS 4500 BR BKN015 OVC050 05/02 Q1030 NOSIG
ZGHA,2012-12-18 13:00,ZGHA 181300Z 32003MPS 4000 BR BKN020 OVC050 05/02 Q1031 NOSIG
ZGHA,2012-12-18 14:00,ZGHA 181400Z 34003MPS 300V360 4000 BR BKN020 OVC050 05/02 Q1031 NOSIG
ZGHA,2012-12-18 15:00,ZGHA 181500Z 31002MPS 4000 BR BKN020 OVC050 05/02 Q1031 NOSIG
ZGHA,2012-12-18 16:00,ZGHA 181600Z 31003MPS 3500 BR BKN020 OVC050 05/02 Q1030 NOSIG
ZGHA,2012-12-18 17:00,ZGHA 181700Z 34002MPS 3500 BR BKN011 OVC050 05/02 Q1030 NOSIG
ZGHA,2012-12-18 18:00,ZGHA 181800Z 01002MPS 3500 BR BKN011 OVC050 05/03 Q1029 NOSIG
ZGHA,2012-12-18 19:00,ZGHA 181900Z 00000MPS 3000 BR BKN020 OVC050 04/03 Q1028 NOSIG
ZGHA,2012-12-18 20:00,ZGHA 182000Z VRB01MPS 3000 BR BKN020 OVC050 04/03 Q1027 NOSIG
ZGHA,2012-12-18 21:00,ZGHA 182100Z 17003MPS 5000 BR BKN020 OVC050 04/00 Q1026 NOSIG
ZGHA,2012-12-18 22:00,ZGHA 182200Z 16003MPS 6000 FEW050 02/M02 Q1026 NOSIG
ZGHA,2012-12-18 23:00,ZGHA 182300Z 18003MPS 7000 NSC 02/M02 Q1027 NOSIG
ZGHA,2012-12-19 00:00,ZGHA 190000Z 12002MPS 070V150 CAVOK 03/M03 Q1026 NOSIG
ZGHA,2012-12-19 01:00,ZGHA 190100Z 13004MPS 100V160 CAVOK 04/M04 Q1026 NOSIG
ZGHA,2012-12-19 02:00,ZGHA 190200Z 06003MPS 020V090 CAVOK 06/M04 Q1026 NOSIG
ZGHA,2012-12-19 03:00,ZGHA 190300Z 07004MPS 010V120 CAVOK 07/M03 Q1025 NOSIG
ZGHA,2012-12-19 04:00,ZGHA 190400Z 12002MPS 050V170 CAVOK 08/M04 Q1024 NOSIG
ZGHA,2012-12-19 05:00,ZGHA 190500Z 17003MPS 140V200 CAVOK 07/M03 Q1022 NOSIG
ZGHA,2012-12-19 06:00,ZGHA 190600Z 12003MPS 050V160 CAVOK 09/M02 Q1021 NOSIG
ZGHA,2012-12-19 07:00,ZGHA 190700Z 13004MPS 090V160 CAVOK 08/M02 Q1020 NOSIG
ZGHA,2012-12-19 08:00,ZGHA 190800Z 12004MPS CAVOK 07/M01 Q1019 NOSIG
ZGHA,2012-12-19 09:00,ZGHA 190900Z 13003MPS 100V170 CAVOK 07/M01 Q1020 NOSIG
ZGHA,2012-12-19 10:00,ZGHA 191000Z 12002MPS 090V170 9999 -RA NSC 07/M01 Q1020 NOSIG
ZGHA,2012-12-19 11:00,ZGHA 191100Z VRB01MPS 6000 -RA SCT050 05/02 Q1020 NOSIG
ZGHA,2012-12-19 12:00,ZGHA 191200Z 06002MPS 330V090 5000 -RA BR BKN050 05/03 Q1020 NOSIG
ZGHA,2012-12-19 13:00,ZGHA 191300Z 02002MPS 4500 -RA BR SCT020 OVC050 05/03 Q1021 NOSIG
ZGHA,2012-12-19 14:00,ZGHA 191400Z 01003MPS 4000 -RA BR SCT020 OVC050 05/03 Q1022 NOSIG
ZGHA,2012-12-19 15:00,ZGHA 191500Z 02002MPS 360V060 4000 -RA BR SCT009 SCT020 OVC050 05/04 Q1022 NOSIG
ZGHA,2012-12-19 16:00,ZGHA 191600Z 03002MPS 360V060 3000 -RA BR SCT009 SCT020 OVC050 05/04 Q1022 BECMG TL1700 2500
ZGHA,2012-12-19 17:00,ZGHA 191700Z 01001MPS 2700 -RA BR SCT007 SCT020 OVC050 05/04 Q1022 NOSIG
ZGHA,2012-12-19 18:00,ZGHA 191800Z VRB01MPS 2500 -RA BR SCT006 SCT020 OVC050 05/04 Q1021 NOSIG
ZGHA,2012-12-19 19:00,ZGHA 191900Z 01002MPS 2700 -RA BR SCT006 SCT020 OVC050 05/04 Q1021 NOSIG
ZGHA,2012-12-19 20:00,ZGHA 192000Z 03002MPS 350V070 3000 -RA BR SCT008 SCT020 OVC050 05/04 Q1021 NOSIG
ZGHA,2012-12-19 21:00,ZGHA 192100Z 02002MPS 350V050 3500 -RA BR SCT009 SCT020 OVC050 05/04 Q1021 NOSIG
ZGHA,2012-12-19 22:00,ZGHA 192200Z VRB01MPS 2700 -RA BR SCT009 SCT020 OVC050 05/04 Q1021 NOSIG
ZGHA,2012-12-19 23:00,ZGHA 192300Z VRB01MPS 2700 -RA BR SCT008 SCT020 OVC050 05/04 Q1021 BECMG TL0030 3000
ZGHA,2012-12-20 00:00,ZGHA 200000Z VRB01MPS 2200 -RA BR SCT008 SCT020 OVC050 05/04 Q1021 NOSIG
ZGHA,2012-12-20 01:00,ZGHA 200100Z VRB01MPS 2000 -RA BR SCT008 BKN020 OVC050 05/04 Q1021 NOSIG
ZGHA,2012-12-20 02:00,ZGHA 200200Z 02002MPS 2000 -RA BR SCT008 BKN020 OVC040 05/05 Q1022 NOSIG
ZGHA,2012-12-20 03:00,ZGHA 200300Z 02002MPS 2800 -RA BR SCT008 BKN020 OVC040 05/05 Q1021 BECMG 3000
ZGHA,2012-12-20 04:00,ZGHA 200400Z 02002MPS 350V060 2700 -RA BR BKN008 OVC033 06/05 Q1021 BECMG 3000
ZGHA,2012-12-20 05:00,ZGHA 200500Z 01003MPS 3000 -RA BR SCT004 BKN008 OVC033 06/05 Q1020 NOSIG
ZGHA,2012-12-20 06:00,ZGHA 200600Z 01003MPS 5000 -RA BR SCT004 BKN008 OVC033 06/05 Q1019 NOSIG
ZGHA,2012-12-20 07:00,ZGHA 200700Z 01003MPS 6000 -RA BKN009 OVC050 06/05 Q1018 BECMG BKN011 OVC050
ZGHA,2012-12-20 08:00,ZGHA 200800Z 01004MPS 6000 -RA SCT009 BKN020 OVC050 05/04 Q1018 NOSIG
ZGHA,2012-12-20 09:00,ZGHA 200900Z 36004MPS 5000 -DZ BR SCT009 BKN020 OVC050 05/04 Q1019 NOSIG
ZGHA,2012-12-20 10:00,ZGHA 201000Z 35004MPS 4500 -DZ BR SCT009 BKN020 OVC050 05/04 Q1020 NOSIG
ZGHA,2012-12-20 11:00,ZGHA 201100Z 34006MPS 6000 -DZ SCT012 BKN020 OVC050 05/04 Q1020 NOSIG
ZGHA,2012-12-20 12:00,ZGHA 201200Z 34005MPS 6000 -RA BKN008 OVC040 05/04 Q1022 NOSIG
ZGHA,2012-12-20 13:00,ZGHA 201300Z 35006MPS 5000 -RA BR BKN007 OVC040 04/03 Q1022 NOSIG
ZGHA,2012-12-20 14:00,ZGHA 201400Z 35007MPS 5000 -RA BR BKN007 OVC040 04/03 Q1023 NOSIG
ZGHA,2012-12-20 15:00,ZGHA 201500Z 35006MPS 4000 -RA BR BKN007 OVC040 04/03 Q1024 NOSIG
ZGHA,2012-12-20 16:00,ZGHA 201600Z 34005MPS 5000 -RA BR BKN007 OVC040 03/02 Q1024 NOSIG
ZGHA,2012-12-20 17:00,ZGHA 201700Z 34006MPS 4000 -RA BR BKN007 OVC040 03/02 Q1024 NOSIG
ZGHA,2012-12-20 18:00,ZGHA 201800Z 34006MPS 4000 -RA BR BKN007 OVC040 03/02 Q1024 NOSIG
ZGHA,2012-12-20 19:00,ZGHA 201900Z 33004MPS 4000 -RA BR BKN007 OVC040 03/02 Q1024 NOSIG
ZGHA,2012-12-20 20:00,ZGHA 202000Z 32004MPS 290V360 3000 -RA BR FEW004 BKN007 OVC040 03/02 Q1024 NOSIG
ZGHA,2012-12-20 21:00,ZGHA 202100Z 34003MPS 3000 -RA BR FEW004 BKN007 OVC040 03/02 Q1024 NOSIG
ZGHA,2012-12-20 22:00,ZGHA 202200Z 36005MPS 4000 -RA BR BKN007 OVC040 02/01 Q1025 NOSIG
ZGHA,2012-12-20 23:00,ZGHA 202300Z 35005MPS 3000 BR BKN007 OVC040 03/02 Q1025 NOSIG
ZGHA,2012-12-21 00:00,ZGHA 210000Z 35005MPS 2200 BR BKN008 OVC040 03/01 Q1026 BECMG TL0100 3500
ZGHA,2012-12-21 01:00,ZGHA 210100Z 34005MPS 1700 -RA BR BKN007 OVC040 03/01 Q1027 NOSIG
ZGHA,2012-12-21 02:00,ZGHA 210200Z 34005MPS 2000 BR FEW007 BKN009 OVC040 03/01 Q1027 NOSIG
ZGHA,2012-12-21 03:00,ZGHA 210300Z 34006MPS 2000 BR FEW009 BKN011 OVC040 03/01 Q1027 NOSIG
ZGHA,2012-12-21 04:00,ZGHA 210400Z 34006MPS 2500 BR SCT012 OVC050 04/01 Q1026 BECMG TL0500 3500
ZGHA,2012-12-21 05:00,ZGHA 210500Z 32005MPS 290V360 2500 BR SCT011 OVC050 04/01 Q1026 NOSIG
ZGHA,2012-12-21 06:00,ZGHA 210600Z 34006MPS 3300 BR FEW017 05/01 Q1025 NOSIG
ZGHA,2012-12-21 07:00,ZGHA 210700Z 35007MPS 3000 BR NSC 05/M00 Q1025 NOSIG
ZGHA,2012-12-21 08:00,ZGHA 210800Z 34006MPS 2700 BR SCT019 05/M00 Q1025 BECMG TL0900 3500
ZGHA,2012-12-21 09:00,ZGHA 210900Z 34006MPS 2700 BR FEW019 OVC050 04/M00 Q1026 NOSIG
ZGHA,2012-12-21 10:00,ZGHA 211000Z 35005MPS 3000 BR OVC050 04/00 Q1026 NOSIG
ZGHA,2012-12-21 11:00,ZGHA 211100Z 34005MPS 3000 BR OVC050 04/00 Q1027 NOSIG
ZGHA,2012-12-21 12:00,ZGHA 211200Z 35005MPS 3000 BR OVC050 04/M00 Q1028 NOSIG
ZGHA,2012-12-21 13:00,ZGHA 211300Z 34005MPS 3500 BR SCT050 04/M00 Q1028 NOSIG
ZGHA,2012-12-21 14:00,ZGHA 211400Z 35005MPS 4000 BR SCT050 04/M00 Q1029 NOSIG
ZGHA,2012-12-21 15:00,ZGHA 211500Z 35005MPS 4000 BR SCT050 04/00 Q1029 NOSIG
ZGHA,2012-12-21 16:00,ZGHA 211600Z 36005MPS 3000 BR NSC 04/00 Q1029 NOSIG
ZGHA,2012-12-21 17:00,ZGHA 211700Z 35006MPS 3000 BR NSC 04/00 Q1029 NOSIG
ZGHA,2012-12-21 18:00,ZGHA 211800Z 36006MPS 4000 BR NSC 04/M00 Q1029 NOSIG
ZGHA,2012-12-21 19:00,ZGHA 211900Z 35006MPS 4000 BR NSC 04/M00 Q1030 NOSIG
ZGHA,2012-12-21 20:00,ZGHA 212000Z 35005MPS 4000 BR NSC 04/M00 Q1030 NOSIG
ZGHA,2012-12-21 21:00,ZGHA 212100Z 35005MPS 3000 -RA BR BKN050 03/M00 Q1030 NOSIG
ZGHA,2012-12-21 22:00,ZGHA 212200Z 34006MPS 3000 -RA BR BKN050 03/00 Q1030 NOSIG
ZGHA,2012-12-21 23:00,ZGHA 212300Z 35005MPS 2100 -RA BR SCT040 OVC050 03/00 Q1031 NOSIG
ZGHA,2012-12-22 00:00,ZGHA 220000Z 35004MPS 1600 -RA BR SCT030 OVC050 03/01 Q1032 BECMG 3000
ZGHA,2012-12-22 01:00,ZGHA 220100Z 35004MPS 2100 -RA BR SCT033 OVC050 04/01 Q1032 BECMG TL0230 3500
ZGHA,2012-12-22 02:00,ZGHA 220200Z 35005MPS 2700 BR SCT033 04/01 Q1033 BECMG TL0300 3500
ZGHA,2012-12-22 03:00,ZGHA 220300Z 35006MPS 3000 BR NSC 05/00 Q1032 NOSIG
ZGHA,2012-12-22 04:00,ZGHA 220400Z 36006MPS 330V030 3500 HZ SCT033 06/M02 Q1032 NOSIG
ZGHA,2012-12-22 05:00,ZGHA 220500Z 36006MPS 4000 HZ SCT033 06/M02 Q1031 NOSIG
ZGHA,2012-12-22 06:00,ZGHA 220600Z 35006MPS 4000 HZ SCT033 06/M02 Q1030 NOSIG
ZGHA,2012-12-22 07:00,ZGHA 220700Z 36005MPS 4500 HZ SCT033 06/M01 Q1030 NOSIG
ZGHA,2012-12-22 08:00,ZGHA 220800Z 35006MPS 4500 HZ SCT033 06/M02 Q1030 NOSIG
ZGHA,2012-12-22 09:00,ZGHA 220900Z 34005MPS 4000 HZ SCT033 06/M02 Q1030 NOSIG
ZGHA,2012-12-22 10:00,ZGHA 221000Z 35004MPS 3000 HZ SCT033 05/M01 Q1031 BECMG TL1100 2500
ZGHA,2012-12-22 11:00,ZGHA 221100Z 35005MPS 2700 HZ SCT033 05/M00 Q1032 NOSIG
ZGHA,2012-12-22 12:00,ZGHA 221200Z 35005MPS 2700 BR SCT033 04/M00 Q1033 NOSIG
ZGHA,2012-12-22 13:00,ZGHA 221300Z 35006MPS 3000 BR SCT050 04/M00 Q1034 BECMG TL1400 2500
ZGHA,2012-12-22 14:00,ZGHA 221400Z 35005MPS 3000 BR FEW050 03/M00 Q1035 NOSIG
ZGHA,2012-12-22 15:00,ZGHA 221500Z 36004MPS 2700 BR FEW050 03/M01 Q1036 NOSIG
ZGHA,2012-12-22 16:00,ZGHA 221600Z 35006MPS 3000 BR FEW050 03/M02 Q1036 NOSIG
ZGHA,2012-12-22 17:00,ZGHA 221700Z 36003MPS 3000 BR FEW050 01/M02 Q1037 NOSIG
ZGHA,2012-12-22 18:00,ZGHA 221800Z 35004MPS 2800 BR FEW050 00/M02 Q1037 NOSIG
ZGHA,2012-12-22 19:00,ZGHA 221900Z 34003MPS 2700 BR FEW050 M00/M02 Q1037 NOSIG
ZGHA,2012-12-22 20:00,ZGHA 222000Z 36003MPS 2500 BR SCT050 M00/M02 Q1037 NOSIG
ZGHA,2012-12-22 21:00,ZGHA 222100Z 35005MPS 2500 BR SCT050 M00/M02 Q1037 NOSIG
ZGHA,2012-12-22 22:00,ZGHA 222200Z 01005MPS 2400 BR SCT050 00/M03 Q1037 NOSIG
ZGHA,2012-12-22 23:00,ZGHA 222300Z 36005MPS 2600 BR NSC M00/M03 Q1038 BECMG TL0100 3500
ZGHA,2012-12-23 00:00,ZGHA 230000Z 36004MPS 3000 BR NSC 00/M03 Q1038 BECMG 4000
ZGHA,2012-12-23 01:00,ZGHA 230100Z 35006MPS 4000 BR NSC 02/M03 Q1039 NOSIG
ZGHA,2012-12-23 02:00,ZGHA 230200Z 36005MPS 5000 HZ NSC 03/M04 Q1039 NOSIG
ZGHA,2012-12-23 03:00,ZGHA 230300Z 35004MPS 6000 NSC 05/M04 Q1038 NOSIG
ZGHA,2012-12-23 04:00,ZGHA 230400Z 34005MPS 310V030 6000 NSC 07/M05 Q1037 NOSIG
ZGHA,2012-12-23 05:00,ZGHA 230500Z 35003MPS 300V020 7000 NSC 08/M06 Q1035 NOSIG
ZGHA,2012-12-23 06:00,ZGHA 230600Z 36004MPS 320V030 8000 NSC 08/M08 Q1034 NOSIG
ZGHA,2012-12-23 07:00,ZGHA 230700Z 34004MPS 310V010 CAVOK 09/M09 Q1033 NOSIG
ZGHA,2012-12-23 08:00,ZGHA 230800Z 31004MPS 270V360 CAVOK 08/M09 Q1032 NOSIG
ZGHA,2012-12-23 09:00,ZGHA 230900Z 33003MPS CAVOK 07/M09 Q1032 NOSIG
ZGHA,2012-12-23 10:00,ZGHA 231000Z 34003MPS 300V360 CAVOK 06/M08 Q1032 NOSIG
ZGHA,2012-12-23 11:00,ZGHA 231100Z 32003MPS 280V340 CAVOK 04/M05 Q1032 NOSIG
ZGHA,2012-12-23 12:00,ZGHA 231200Z 31002MPS 280V350 8000 NSC 03/M05 Q1032 NOSIG
ZGHA,2012-12-23 13:00,ZGHA 231300Z 11001MPS 6000 NSC 01/M02 Q1032 NOSIG
ZGHA,2012-12-23 14:00,ZGHA 231400Z 00000MPS 6000 NSC M00/M02 Q1031 NOSIG
ZGHA,2012-12-23 15:00,ZGHA 231500Z 00000MPS 5000 BR NSC M01/M02 Q1031 NOSIG
ZGHA,2012-12-23 16:00,ZGHA 231600Z 12001MPS 4500 BR NSC M01/M02 Q1030 NOSIG
ZGHA,2012-12-23 17:00,ZGHA 231700Z 17001MPS 5000 BR NSC M01/M02 Q1030 NOSIG
ZGHA,2012-12-23 18:00,ZGHA 231800Z VRB01MPS 5000 BR NSC M01/M03 Q1029 NOSIG
ZGHA,2012-12-23 19:00,ZGHA 231900Z 06001MPS 4500 BR NSC M02/M03 Q1029 NOSIG
ZGHA,2012-12-23 20:00,ZGHA 232000Z VRB01MPS 3500 BR NSC M02/M03 Q1028 NOSIG
ZGHA,2012-12-23 21:00,ZGHA 232100Z 05001MPS 3500 BR NSC M02/M03 Q1028 NOSIG
ZGHA,2012-12-23 22:00,ZGHA 232200Z 00000MPS 3500 BR NSC M02/M03 Q1028 NOSIG
ZGHA,2012-12-23 23:00,ZGHA 232300Z 00000MPS 2700 BR NSC M03/M03 Q1028 BECMG TL0030 3500
ZGHA,2012-12-24 00:00,ZGHA 240000Z VRB01MPS 3200 BR NSC M02/M02 Q1028 NOSIG
ZGHA,2012-12-24 01:00,ZGHA 240100Z 16002MPS 3700 BR NSC 02/01 Q1028 NOSIG
ZGHA,2012-12-24 02:00,ZGHA 240200Z 15004MPS 4500 HZ NSC 05/M02 Q1028 NOSIG
ZGHA,2012-12-24 03:00,ZGHA 240300Z 16004MPS 110V190 6000 NSC 07/M03 Q1027 NOSIG
ZGHA,2012-12-24 04:00,ZGHA 240400Z 16005MPS 120V190 8000 NSC 08/M03 Q1026 NOSIG
ZGHA,2012-12-24 05:00,ZGHA 240500Z 17003MPS 120V210 8000 NSC 09/M02 Q1024 NOSIG
ZGHA,2012-12-24 06:00,ZGHA 240600Z 17003MPS 140V200 CAVOK 10/M04 Q1022 NOSIG
ZGHA,2012-12-24 07:00,ZGHA 240700Z 18004MPS 130V210 CAVOK 11/M04 Q1021 NOSIG
ZGHA,2012-12-24 08:00,ZGHA 240800Z 18004MPS CAVOK 11/M04 Q1020 NOSIG
ZGHA,2012-12-24 09:00,ZGHA 240900Z 18002MPS CAVOK 10/M02 Q1020 NOSIG
ZGHA,2012-12-24 10:00,ZGHA 241000Z 15001MPS CAVOK 07/M01 Q1020 NOSIG
ZGHA,2012-12-24 11:00,ZGHA 241100Z 15001MPS 6000 NSC 05/00 Q1021 NOSIG
ZGHA,2012-12-24 12:00,ZGHA 241200Z 15002MPS 6000 NSC 05/M00 Q1021 NOSIG
ZGHA,2012-12-24 13:00,ZGHA 241300Z 00000MPS 4500 BR NSC 04/01 Q1021 NOSIG
ZGHA,2012-12-24 14:00,ZGHA 241400Z VRB01MPS 4500 BR NSC 02/M00 Q1022 NOSIG
ZGHA,2012-12-24 15:00,ZGHA 241500Z 36002MPS 320V020 4000 BR NSC 03/00 Q1022 NOSIG
ZGHA,2012-12-24 16:00,ZGHA 241600Z 04001MPS 3500 BR NSC 02/00 Q1023 NOSIG
ZGHA,2012-12-24 17:00,ZGHA 241700Z VRB01MPS 3000 BR NSC 01/M00 Q1023 NOSIG
ZGHA,2012-12-24 18:00,ZGHA 241800Z 03002MPS 3000 BR NSC 02/00 Q1023 NOSIG
ZGHA,2012-12-24 19:00,ZGHA 241900Z 02002MPS 4000 BR NSC 02/M01 Q1023 NOSIG
ZGHA,2012-12-24 20:00,ZGHA 242000Z 02001MPS 4000 BR NSC 03/M00 Q1023 NOSIG
ZGHA,2012-12-24 21:00,ZGHA 242100Z VRB01MPS 4000 BR NSC 02/M01 Q1024 NOSIG
ZGHA,2012-12-24 22:00,ZGHA 242200Z VRB01MPS 3500 BR NSC 03/00 Q1024 NOSIG
ZGHA,2012-12-24 23:00,ZGHA 242300Z 32002MPS 3500 BR NSC 03/01 Q1025 NOSIG
ZGHA,2012-12-25 00:00,ZGHA 250000Z 36002MPS 3500 BR NSC 03/01 Q1026 NOSIG
ZGHA,2012-12-25 01:00,ZGHA 250100Z 34003MPS 310V010 4000 BR NSC 05/00 Q1027 NOSIG
ZGHA,2012-12-25 02:00,ZGHA 250200Z 34002MPS 290V030 3000 BR SCT040 05/01 Q1028 BECMG TL0300 2500
ZGHA,2012-12-25 03:00,ZGHA 250300Z 32003MPS 290V350 2600 BR SCT040 05/02 Q1028 NOSIG
ZGHA,2012-12-25 04:00,ZGHA 250400Z 33003MPS 300V010 2500 BR SCT020 OVC050 05/02 Q1027 NOSIG
ZGHA,2012-12-25 05:00,ZGHA 250500Z 01003MPS 3000 BR SCT020 OVC050 05/01 Q1026 NOSIG
ZGHA,2012-12-25 06:00,ZGHA 250600Z 35004MPS 3000 BR SCT020 OVC050 06/02 Q1025 NOSIG
ZGHA,2012-12-25 07:00,ZGHA 250700Z 31004MPS 280V350 2800 HZ SCT020 OVC050 08/01 Q1026 BECMG 3000
ZGHA,2012-12-25 08:00,ZGHA 250800Z 32004MPS 2500 -RA BR BKN020 OVC050 05/01 Q1026 NOSIG
ZGHA,2012-12-25 09:00,ZGHA 250900Z 36005MPS 2300 -RA BR BKN020 OVC050 04/02 Q1026 NOSIG
ZGHA,2012-12-25 10:00,ZGHA 251000Z 35005MPS 2800 BR BKN020 OVC050 04/01 Q1027 NOSIG
ZGHA,2012-12-25 11:00,ZGHA 251100Z 35006MPS 3000 BR BKN020 OVC050 04/01 Q1027 NOSIG
ZGHA,2012-12-25 12:00,ZGHA 251200Z 34006MPS 3500 BR SCT020 OVC050 04/00 Q1028 NOSIG
ZGHA,2012-12-25 13:00,ZGHA 251300Z 35006MPS 2700 BR BKN020 OVC050 04/00 Q1029 NOSIG
ZGHA,2012-12-25 14:00,ZGHA 251400Z 35006MPS 2700 BR BKN020 OVC050 03/00 Q1029 BECMG TL1440 -SN BR BKN011 OVC050
ZGHA,2012-12-25 15:00,ZGHA 251500Z 35006MPS 2500 -RA BR BKN008 OVC040 03/01 Q1029 NOSIG
ZGHA,2012-12-25 16:00,ZGHA 251600Z 34006MPS 2200 -RA BR BKN007 OVC040 02/01 Q1030 NOSIG
ZGHA,2012-12-25 17:00,ZGHA 251700Z 34005MPS 2000 BR BKN007 OVC040 02/01 Q1030 NOSIG
ZGHA,2012-12-25 18:00,ZGHA 251800Z 35005MPS 2000 BR BKN007 OVC040 02/00 Q1030 NOSIG
ZGHA,2012-12-25 19:00,ZGHA 251900Z 35004MPS 1800 BR BKN006 OVC040 02/00 Q1029 NOSIG
ZGHA,2012-12-25 20:00,ZGHA 252000Z 36005MPS 1800 BR BKN006 OVC040 02/00 Q1028 NOSIG
ZGHA,2012-12-25 21:00,ZGHA 252100Z 34005MPS 1800 BR BKN006 OVC040 02/00 Q1028 NOSIG
ZGHA,2012-12-25 22:00,ZGHA 252200Z 33004MPS 1800 BR BKN006 OVC040 02/00 Q1028 NOSIG
ZGHA,2012-12-25 23:00,ZGHA 252300Z 34005MPS 1800 BR BKN006 OVC040 02/00 Q1029 NOSIG
ZGHA,2012-12-26 00:00,ZGHA 260000Z 35005MPS 1300 R36/1800 -RA BR BKN006 OVC040 01/M00 Q1029 NOSIG
ZGHA,2012-12-26 01:00,ZGHA 260100Z 36005MPS 0900 R36/1100 -RA FG BKN004 OVC030 01/00 Q1029 NOSIG
ZGHA,2012-12-26 02:00,ZGHA 260200Z 34004MPS 300V360 0900 R36/1100 -RA FG BKN004 OVC030 01/00 Q1030 NOSIG
ZGHA,2012-12-26 03:00,ZGHA 260300Z 36004MPS 1200 R36/1200 -RA BR BKN004 OVC030 02/00 Q1030 BECMG TL0500 BKN006 OVC030
ZGHA,2012-12-26 04:00,ZGHA 260400Z 35004MPS 2500 BR BKN005 OVC040 02/00 Q1029 BECMG TL0500 3500
ZGHA,2012-12-26 05:00,ZGHA 260500Z 35003MPS 1600 -RA BR BKN005 OVC040 02/01 Q1028 NOSIG
ZGHA,2012-12-26 06:00,ZGHA 260600Z 35004MPS 310V010 1600 -RA BR BKN005 OVC040 02/00 Q1027 NOSIG
ZGHA,2012-12-26 07:00,ZGHA 260700Z 34004MPS 1600 -RA BR FEW004 BKN006 OVC040 02/00 Q1027 NOSIG
ZGHA,2012-12-26 08:00,ZGHA 260800Z 34004MPS 1300 R36/1600 -RA BR BKN005 OVC030 01/00 Q1026 BECMG TL0900 BKN004 OVC030
ZGHA,2012-12-26 09:00,ZGHA 260900Z 34004MPS 1100 R36/1900 -RA BR BKN005 OVC030 01/M00 Q1027 BECMG TL1000 BKN004 OVC033
ZGHA,2012-12-26 10:00,ZGHA 261000Z 33003MPS 1800 -RA BR FEW004 BKN006 OVC030 01/M00 Q1027 NOSIG
ZGHA,2012-12-26 11:00,ZGHA 261100Z 34004MPS 1600 -RA BR SCT003 BKN005 OVC030 01/M00 Q1028 NOSIG
ZGHA,2012-12-26 12:00,ZGHA 261200Z 35004MPS 1600 -RASN BR SCT003 BKN005 OVC030 01/M00 Q1028 NOSIG
ZGHA,2012-12-26 13:00,ZGHA 261300Z 35005MPS 1800 -RASN BR SCT003 BKN005 OVC030 01/M00 Q1028 NOSIG
ZGHA,2012-12-26 14:00,ZGHA 261400Z 36003MPS 2500 -RASN BR SCT003 BKN005 OVC030 01/M00 Q1028 NOSIG
ZGHA,2012-12-26 15:00,ZGHA 261500Z 01003MPS 2700 -RASN BR BKN005 OVC030 01/M00 Q1028 NOSIG
ZGHA,2012-12-26 16:00,ZGHA 261600Z 34004MPS 3500 -RASN BR BKN007 OVC033 01/M00 Q1027 NOSIG
ZGHA,2012-12-26 17:00,ZGHA 261700Z 29004MPS 260V320 2200 -TSRA BR BKN006 FEW033CB BKN033 01/M00 Q1028 NOSIG
ZGHA,2012-12-26 18:00,ZGHA 261800Z 31003MPS 280V340 2500 -RA BR BKN006 OVC033 01/M00 Q1027 NOSIG
ZGHA,2012-12-26 19:00,ZGHA 261900Z 32003MPS 2500 -RA BR FEW004 BKN006 OVC033 01/M00 Q1026 NOSIG
ZGHA,2012-12-26 20:00,ZGHA 262000Z 02002MPS 360V060 2500 -RA BR FEW004 BKN006 OVC033 01/M00 Q1025 NOSIG
ZGHA,2012-12-26 21:00,ZGHA 262100Z 29004MPS 4000 -RA BR FEW004 BKN006 OVC033 01/M00 Q1027 NOSIG
ZGHA,2012-12-26 22:00,ZGHA 262200Z 36004MPS 4000 -RA BR BKN006 OVC033 01/M00 Q1026 NOSIG
ZGHA,2012-12-26 23:00,ZGHA 262300Z 35003MPS 3500 -RA BR BKN006 OVC033 01/M00 Q1026 NOSIG
ZGHA,2012-12-27 00:00,ZGHA 270000Z 34003MPS 300V010 3000 -RA BR FEW004 BKN006 OVC033 01/M00 Q1026 BECMG TL0100 2200
ZGHA,2012-12-27 01:00,ZGHA 270100Z 34003MPS 3000 -RA BR FEW004 BKN006 OVC033 01/M00 Q1027 BECMG TL0200 2500
ZGHA,2012-12-27 02:00,ZGHA 270200Z 32003MPS 3500 -RA BR FEW004 BKN006 OVC040 01/00 Q1027 NOSIG
ZGHA,2012-12-27 03:00,ZGHA 270300Z 31004MPS 270V340 3500 -RA BR BKN006 OVC040 01/M00 Q1027 NOSIG
ZGHA,2012-12-27 04:00,ZGHA 270400Z 32003MPS 280V350 3000 -RA BR BKN006 OVC040 01/M00 Q1026 NOSIG
ZGHA,2012-12-27 05:00,ZGHA 270500Z 31004MPS 280V340 2200 -RA BR FEW004 BKN006 OVC040 01/M00 Q1025 BECMG TL0630 3000
ZGHA,2012-12-27 06:00,ZGHA 270600Z 32002MPS 290V360 1200 R36/1400 BR FEW004 BKN006 OVC040 01/M00 Q1023 BECMG TL0730 2000
ZGHA,2012-12-27 07:00,ZGHA 270700Z 30003MPS 280V350 0900 R36/1200 FG SCT004 BKN006 OVC040 01/M00 Q1024 BECMG TL0900 1600 BR
ZGHA,2012-12-27 08:00,ZGHA 270800Z 29004MPS 0900 R36/1300 FG SCT004 BKN006 OVC040 01/M00 Q1024 NOSIG
ZGHA,2012-12-27 09:00,ZGHA 270900Z 31004MPS 0900 R36/1500 FG SCT004 BKN006 OVC040 01/M00 Q1024 NOSIG
ZGHA,2012-12-27 10:00,ZGHA 271000Z 33003MPS 290V360 1400 R36/P2000 BR SCT004 BKN006 OVC040 01/M00 Q1024 BECMG TL1100 1700
ZGHA,2012-12-27 11:00,ZGHA 271100Z VRB01MPS 1400 R36/P2000 BR SCT004 BKN006 OVC040 01/M00 Q1024 BECMG TL1200 1700
ZGHA,2012-12-27 12:00,ZGHA 271200Z 00000MPS 1400 R36/P2000 BR SCT004 BKN006 OVC033 01/M00 Q1024 NOSIG
ZGHA,2012-12-27 13:00,ZGHA 271300Z 28002MPS 260V320 1600 BR SCT004 BKN007 OVC033 01/M00 Q1026 BECMG TL1400 1400
ZGHA,2012-12-27 14:00,ZGHA 271400Z VRB01MPS 1400 R36/P2000 BR SCT004 BKN007 OVC033 01/M00 Q1026 BECMG TL1500 1700
ZGHA,2012-12-27 15:00,ZGHA 271500Z 32002MPS 290V350 1400 R36/P2000 BR SCT004 BKN007 OVC033 01/M00 Q1026 NOSIG
ZGHA,2012-12-27 16:00,ZGHA 271600Z 33002MPS 1400 R36/P2000 BR SCT004 BKN007 OVC033 01/M00 Q1025 NOSIG
ZGHA,2012-12-27 17:00,ZGHA 271700Z 01001MPS 1600 BR SCT004 BKN007 OVC033 01/M00 Q1025 NOSIG
ZGHA,2012-12-27 18:00,ZGHA 271800Z VRB01MPS 1700 BR SCT004 BKN007 OVC033 01/M00 Q1025 NOSIG
ZGHA,2012-12-27 19:00,ZGHA 271900Z VRB01MPS 1600 BR SCT004 BKN007 OVC033 01/M00 Q1025 NOSIG
ZGHA,2012-12-27 20:00,ZGHA 272000Z 36003MPS 1600 BR SCT004 BKN007 OVC033 01/M00 Q1024 NOSIG
ZGHA,2012-12-27 21:00,ZGHA 272100Z VRB01MPS 1800 BR SCT004 BKN007 OVC033 01/M01 Q1023 NOSIG
ZGHA,2012-12-27 22:00,ZGHA 272200Z 00000MPS 2000 BR BKN007 OVC033 01/M00 Q1023 NOSIG
ZGHA,2012-12-27 23:00,ZGHA 272300Z VRB01MPS 1800 BR BKN009 OVC050 01/M00 Q1023 NOSIG
ZGHA,2012-12-28 00:00,ZGHA 280000Z 00000MPS 2300 BR BKN009 OVC040 01/M00 Q1023 BECMG TL0100 3500
ZGHA,2012-12-28 01:00,ZGHA 280100Z VRB01MPS 2500 BR FEW005 BKN008 OVC050 02/00 Q1024 BECMG TL0300 3200 BR BKK011 OVC050
ZGHA,2012-12-28 02:00,ZGHA 280200Z 02002MPS 350V090 2200 BR FEW005 BKN008 OVC050 02/01 Q1024 BECMG TL0300 3200 BR BKN011 OVC050
ZGHA,2012-12-28 03:00,ZGHA 280300Z VRB01MPS 2200 BR FEW005 BKN008 OVC050 03/01 Q1022 NOSIG
ZGHA,2012-12-28 04:00,ZGHA 280400Z 30003MPS 270V340 2200 BR FEW004 BKN007 OVC050 03/01 Q1022 NOSIG
ZGHA,2012-12-28 05:00,ZGHA 280500Z 32004MPS 280V340 2500 BR FEW005 BKN008 OVC050 03/01 Q1022 BECMG TL0600 3200
ZGHA,2012-12-28 06:00,ZGHA 280600Z 35002MPS 310V020 3500 BR FEW005 BKN008 OVC050 03/01 Q1021 NOSIG
ZGHA,2012-12-28 07:00,ZGHA 280700Z 36002MPS 320V030 2200 BR FEW005 BKN008 OVC050 04/01 Q1020 NOSIG
ZGHA,2012-12-28 08:00,ZGHA 280800Z 28002MPS 270V330 1800 -RA BR FEW004 BKN007 OVC040 03/02 Q1020 BECMG TL0900 1400
ZGHA,2012-12-28 09:00,ZGHA 280900Z 30003MPS 270V340 1800 -RA BR FEW003 BKN006 OVC040 03/02 Q1020 BECMG TL1030 1400
ZGHA,2012-12-28 10:00,ZGHA 281000Z 30003MPS 1800 -RA BR FEW003 BKN006 OVC040 03/02 Q1020 BECMG TL1100 1400
ZGHA,2012-12-28 11:00,ZGHA 281100Z 33003MPS 300V360 2000 -RA BR FEW003 BKN006 OVC040 03/02 Q1020 BECMG TL1230 1400
ZGHA,2012-12-28 12:00,ZGHA 281200Z 33004MPS 2000 -RA BR FEW003 BKN004 OVC040 03/02 Q1021 NOSIG
ZGHA,2012-12-28 13:00,ZGHA 281300Z 34004MPS 2000 -RA BR SCT003 BKN004 OVC030 03/02 Q1021 NOSIG
ZGHA,2012-12-28 14:00,ZGHA 281400Z 36003MPS 1800 -RA BR BKN003 OVC030 03/02 Q1022 BECMG TL1500 1400
ZGHA,2012-12-28 15:00,ZGHA 281500Z 36005MPS 2200 -RA BR FEW003 BKN004 OVC030 03/02 Q1023 NOSIG
ZGHA,2012-12-28 16:00,ZGHA 281600Z 34004MPS 2000 -RA BR BKN003 OVC030 03/02 Q1023 NOSIG
ZGHA,2012-12-28 17:00,ZGHA 281700Z 36005MPS 3000 -RA BR BKN004 OVC030 03/02 Q1023 NOSIG
ZGHA,2012-12-28 18:00,ZGHA 281800Z 35005MPS 4000 -RA BR FEW003 BKN005 OVC030 03/02 Q1023 NOSIG
ZGHA,2012-12-28 19:00,ZGHA 281900Z 34008MPS 8000 -DZ BKN009 OVC040 02/01 Q1023 NOSIG
ZGHA,2012-12-28 20:00,ZGHA 282000Z 34008MPS 4000 -RA BR BKN009 OVC040 02/01 Q1025 NOSIG
ZGHA,2012-12-28 21:00,ZGHA 282100Z 35007MPS 8000 -RA BKN009 OVC040 02/01 Q1024 NOSIG
ZGHA,2012-12-28 22:00,ZGHA 282200Z 34006MPS 9000 -RA BKN009 OVC040 02/01 Q1025 NOSIG
ZGHA,2012-12-28 23:00,ZGHA 282300Z 35008MPS 6000 -RA BKN009 OVC040 02/01 Q1026 NOSIG
ZGHA,2012-12-29 00:00,ZGHA 290000Z 34008MPS 3000 -RA BR BKN007 OVC040 02/01 Q1027 BECMG TL0100 2800
ZGHA,2012-12-29 01:00,ZGHA 290100Z 34008MPS 2700 -RA BR BKN007 OVC040 02/01 Q1028 NOSIG
ZGHA,2012-12-29 02:00,ZGHA 290200Z 34009MPS 2700 -RA BR BKN009 OVC040 02/01 Q1029 NOSIG
ZGHA,2012-12-29 03:00,ZGHA 290300Z 34008MPS 3000 -RASN BR FEW004 BKN009 OVC040 02/00 Q1030 NOSIG
ZGHA,2012-12-29 04:00,ZGHA 290400Z 34009MPS 3500 -RASN BR SCT004 BKN009 OVC040 02/00 Q1030 NOSIG
ZGHA,2012-12-29 05:00,ZGHA 290500Z 35009MPS 4000 -SN BR BKN009 OVC040 02/00 Q1030 NOSIG
ZGHA,2012-12-29 06:00,ZGHA 290600Z 36011G16MPS 6000 -SN BKN012 OVC040 01/M01 Q1030 NOSIG
ZGHA,2012-12-29 07:00,ZGHA 290700Z 36010MPS 8000 -SN SCT030 OVC050 01/M01 Q1032 NOSIG
ZGHA,2012-12-29 08:00,ZGHA 290800Z 01006MPS 8000 -SN SCT033 OVC050 01/M01 Q1032 BECMG TL1000 01003MPS
ZGHA,2012-12-29 09:00,ZGHA 290900Z 01006MPS 350V050 9000 -SN SCT040 01/M02 Q1033 BECMG TL1000 01003MPS
ZGHA,2012-12-29 10:00,ZGHA 291000Z 36005MPS 9999 SCT050 01/M03 Q1034 BECMG TL1100 01003MPS
ZGHA,2012-12-29 11:00,ZGHA 291100Z 36004MPS CAVOK 01/M03 Q1035 NOSIG
ZGHA,2012-12-29 12:00,ZGHA 291200Z 35004MPS CAVOK 01/M02 Q1036 NOSIG
ZGHA,2012-12-29 13:00,ZGHA 291300Z 35005MPS CAVOK 01/M02 Q1036 NOSIG
ZGHA,2012-12-29 14:00,ZGHA 291400Z 01003MPS CAVOK 01/M03 Q1037 NOSIG
ZGHA,2012-12-29 15:00,ZGHA 291500Z 02003MPS CAVOK M00/M03 Q1036 NOSIG
ZGHA,2012-12-29 16:00,ZGHA 291600Z 35005MPS CAVOK M00/M04 Q1036 NOSIG
ZGHA,2012-12-29 17:00,ZGHA 291700Z 02004MPS CAVOK M00/M04 Q1036 NOSIG
ZGHA,2012-12-29 18:00,ZGHA 291800Z VRB01MPS CAVOK M01/M04 Q1035 NOSIG
ZGHA,2012-12-29 19:00,ZGHA 291900Z 35004MPS 8000 NSC M02/M04 Q1035 NOSIG
ZGHA,2012-12-29 20:00,ZGHA 292000Z 33004MPS 8000 NSC M02/M04 Q1035 NOSIG
ZGHA,2012-12-29 21:00,ZGHA 292100Z 36004MPS 8000 NSC M03/M05 Q1034 NOSIG
ZGHA,2012-12-29 22:00,ZGHA 292200Z 35003MPS 8000 NSC M03/M06 Q1034 NOSIG
ZGHA,2012-12-29 23:00,ZGHA 292300Z 35003MPS 8000 NSC M03/M06 Q1035 NOSIG
ZGHA,2012-12-30 00:00,ZGHA 300000Z 34002MPS CAVOK M02/M06 Q1036 NOSIG
ZGHA,2012-12-30 01:00,ZGHA 300100Z 36003MPS CAVOK M00/M08 Q1036 NOSIG
ZGHA,2012-12-30 02:00,ZGHA 300200Z 34004MPS CAVOK 01/M09 Q1036 NOSIG
ZGHA,2012-12-30 03:00,ZGHA 300300Z 02003MPS 340V070 CAVOK 02/M10 Q1036 NOSIG
ZGHA,2012-12-30 04:00,ZGHA 300400Z 02004MPS 340V090 CAVOK 03/M11 Q1035 NOSIG
ZGHA,2012-12-30 05:00,ZGHA 300500Z 01005G10MPS 340V040 CAVOK 04/M13 Q1034 NOSIG
ZGHA,2012-12-30 06:00,ZGHA 300600Z 01003MPS 340V070 CAVOK 05/M12 Q1033 NOSIG
ZGHA,2012-12-30 07:00,ZGHA 300700Z 36004MPS 330V040 CAVOK 06/M12 Q1032 NOSIG
ZGHA,2012-12-30 08:00,ZGHA 300800Z 35005MPS 330V030 CAVOK 06/M12 Q1031 NOSIG
ZGHA,2012-12-30 09:00,ZGHA 300900Z 32004MPS CAVOK 05/M11 Q1031 NOSIG
ZGHA,2012-12-30 10:00,ZGHA 301000Z 31003MPS CAVOK 03/M10 Q1031 NOSIG
ZGHA,2012-12-30 11:00,ZGHA 301100Z 30003MPS CAVOK 02/M08 Q1031 NOSIG
ZGHA,2012-12-30 12:00,ZGHA 301200Z 31002MPS CAVOK 01/M07 Q1031 NOSIG
ZGHA,2012-12-30 13:00,ZGHA 301300Z VRB01MPS CAVOK M00/M06 Q1032 NOSIG
ZGHA,2012-12-30 14:00,ZGHA 301400Z 05002MPS CAVOK M01/M04 Q1032 NOSIG
ZGHA,2012-12-30 15:00,ZGHA 301500Z 14001MPS 8000 NSC M03/M04 Q1032 NOSIG
ZGHA,2012-12-30 16:00,ZGHA 301600Z VRB01MPS 8000 NSC M03/M04 Q1031 NOSIG
ZGHA,2012-12-30 17:00,ZGHA 301700Z 10001MPS 7000 NSC M03/M04 Q1030 NOSIG
ZGHA,2012-12-30 18:00,ZGHA 301800Z 10002MPS 5000 BR NSC M04/M05 Q1030 NOSIG
ZGHA,2012-12-30 19:00,ZGHA 301900Z 10001MPS 5000 BR NSC M04/M05 Q1029 NOSIG
ZGHA,2012-12-30 20:00,ZGHA 302000Z VRB01MPS 5000 BR NSC M05/M06 Q1029 NOSIG
ZGHA,2012-12-30 21:00,ZGHA 302100Z VRB01MPS 5000 BR NSC M05/M06 Q1029 NOSIG
ZGHA,2012-12-30 22:00,ZGHA 302200Z 18002MPS 6000 NSC M05/M06 Q1029 NOSIG
ZGHA,2012-12-30 23:00,ZGHA 302300Z 14001MPS 6000 NSC M05/M06 Q1029 NOSIG
