station,valid,metar
ZBDS,2025-07-12 03:00,ZBDS 120300Z 15003MPS 130V210 9000 NSC 25/18 Q1020 NOSIG
