station,valid,metar
ZBDS,2017-08-24 15:00,ZBDS 241500Z 36003MPS CAVOK 17/M02 Q1021 NOSIG
ZBDS,2017-08-24 16:00,ZBDS 241600Z 34002MPS CAVOK 15/01 Q1021 NOSIG
ZBDS,2017-08-24 17:00,ZBDS 241700Z 30003MPS CAVOK 14/01 Q1021 NOSIG
ZBDS,2017-08-24 18:00,ZBDS 241800Z 29002MPS CAVOK 13/01 Q1021 NOSIG
ZBDS,2017-08-24 19:00,ZBDS 241900Z 32003MPS CAVOK 12/01 Q1021 NOSIG
ZBDS,2017-08-24 20:00,ZBDS 242000Z 32004MPS CAVOK 11/02 Q1021 NOSIG
ZBDS,2017-08-24 21:00,ZBDS 242100Z 31004MPS CAVOK 09/02 Q1021 NOSIG
ZBDS,2017-08-24 22:00,ZBDS 242200Z 32003MPS CAVOK 09/02 Q1022 NOSIG
ZBDS,2017-08-24 23:00,ZBDS 242300Z 35003MPS CAVOK 14/M01 Q1022 NOSIG
ZBDS,2017-08-25 00:00,ZBDS 250000Z 35002MPS CAVOK 16/01 Q1022 NOSIG
ZBDS,2017-08-25 01:00,ZBDS 250100Z 01002MPS 330V040 CAVOK 20/M01 Q1023 NOSIG
ZBDS,2017-08-25 02:00,ZBDS 250200Z 36003MPS CAVOK 21/M01 Q1023 NOSIG
ZBDS,2017-08-25 03:00,ZBDS 250300Z 34004MPS 300V040 CAVOK 22/01 Q1023 NOSIG
ZBDS,2017-08-25 04:00,ZBDS 250400Z 36004MPS 310V050 CAVOK 23/M03 Q1023 NOSIG
ZBDS,2017-08-25 05:00,ZBDS 250500Z VRB04MPS CAVOK 24/M04 Q1022 NOSIG
ZBDS,2017-08-25 06:00,ZBDS 250600Z 35004MPS 320V030 CAVOK 23/M05 Q1022 NOSIG
ZBDS,2017-08-25 07:00,ZBDS 250700Z 36004MPS 330V030 9999 FEW040 23/M03 Q1022 NOSIG
ZBDS,2017-08-25 08:00,ZBDS 250800Z 02004MPS 340V060 9999 SCT040 23/M02 Q1022 NOSIG
ZBDS,2017-08-25 09:00,ZBDS 250900Z 04003MPS 9999 SCT040 22/M01 Q1021 NOSIG
ZBDS,2017-08-25 10:00,ZBDS 251000Z 04002MPS 9999 SCT040 21/01 Q1021 NOSIG
ZBDS,2017-08-25 11:00,ZBDS 251100Z 03002MPS 360V060 9999 SCT040 20/04 Q1021 NOSIG
ZBDS,2017-08-25 12:00,ZBDS 251200Z 08003MPS 040V100 9999 SCT040 19/05 Q1021 NOSIG
ZBDS,2017-08-25 13:00,ZBDS 251300Z 11002MPS 9999 SCT040 18/06 Q1022 NOSIG
ZBDS,2017-08-25 14:00,ZBDS 251400Z 15002MPS 9999 SCT040 18/03 Q1022 NOSIG
ZBDS,2017-08-25 15:00,ZBDS 251500Z 13002MPS 9999 FEW040 17/05 Q1022 NOSIG
ZBDS,2017-08-25 16:00,ZBDS 251600Z 16002MPS 9999 FEW040 16/05 Q1022 NOSIG
ZBDS,2017-08-25 17:00,ZBDS 251700Z 14002MPS CAVOK 15/04 Q1022 NOSIG
ZBDS,2017-08-25 18:00,ZBDS 251800Z 16002MPS CAVOK 16/06 Q1021 NOSIG
ZBDS,2017-08-25 19:00,ZBDS 251900Z VRB01MPS CAVOK 14/06 Q1021 NOSIG
ZBDS,2017-08-25 20:00,ZBDS 252000Z 10002MPS CAVOK 13/08 Q1021 NOSIG
ZBDS,2017-08-25 21:00,ZBDS 252100Z 23002MPS 170V250 CAVOK 13/07 Q1021 NOSIG
ZBDS,2017-08-25 22:00,ZBDS 252200Z VRB01MPS CAVOK 13/08 Q1021 NOSIG
ZBDS,2017-08-25 23:00,ZBDS 252300Z 29001MPS 9999 FEW040 14/09 Q1020 NOSIG
ZBDS,2017-08-26 00:00,ZBDS 260000Z 30002MPS 9999 FEW040 16/09 Q1021 NOSIG
ZBDS,2017-08-26 01:00,ZBDS 260100Z 21001MPS 9999 FEW040 17/10 Q1021 NOSIG
ZBDS,2017-08-26 02:00,ZBDS 260200Z 21004MPS 9999 FEW030 17/08 Q1022 NOSIG
ZBDS,2017-08-26 03:00,ZBDS 260300Z 21004MPS 170V230 9999 FEW030 17/08 Q1021 NOSIG
ZBDS,2017-08-26 04:00,ZBDS 260400Z 19005MPS 9999 FEW030 15/09 Q1021 NOSIG
ZBDS,2017-08-26 05:00,ZBDS 260500Z 19006MPS 9999 -RA FEW020 15/10 Q1020 NOSIG
ZBDS,2017-08-26 06:00,ZBDS 260600Z 17006MPS 9999 -RA FEW020 14/10 Q1020 NOSIG
ZBDS,2017-08-26 07:00,ZBDS 260700Z 17007MPS 9999 -RA FEW010 SCT030 12/10 Q1020 NOSIG
ZBDS,2017-08-26 08:00,ZBDS 260800Z 15005MPS 8000 -RA FEW010 SCT030 12/12 Q1019 NOSIG
ZBDS,2017-08-26 09:00,ZBDS 260900Z 14004MPS 6000 -RA FEW006 SCT030 11/11 Q1019 NOSIG
ZBDS,2017-08-26 10:00,ZBDS 261000Z 13003MPS 4000 -RA BR SCT005 SCT030 11/11 Q1018
ZBDS,2017-08-26 11:00,ZBDS 261100Z 11005MPS 3000 -RA BR FEW004 SCT030 11/11 Q1017 NOSIG
ZBDS,2017-08-26 12:00,ZBDS 261200Z 12005MPS 4000 -RA BR FEW003 SCT030 11/11 Q1017 NOSIG
ZBDS,2017-08-26 13:00,ZBDS 261300Z 13005MPS 3500 -RA BR FEW003 SCT030 11/11 Q1017 NOSIG
ZBDS,2017-08-26 14:00,ZBDS 261400Z 14005MPS 3500 -RA BR FEW003 SCT030 11/11 Q1017 NOSIG
ZBDS,2017-08-26 15:00,ZBDS 261500Z 15005MPS 2500 -RA BR FEW003 SCT030 11/11 Q1016 NOSIG
ZBDS,2017-08-26 16:00,ZBDS 261600Z 15004MPS 2500 -RA BR FEW002 SCT030 11/11 Q1016
ZBDS,2017-08-26 17:00,ZBDS 261700Z 15003MPS 2500 -RA BR FEW002 SCT030 12/12 Q1015 NOSIG
ZBDS,2017-08-26 18:00,ZBDS 261800Z AUTO VRB01MPS 2500 // ////// 12/12 Q1015
ZBDS,2017-08-26 19:00,ZBDS 261900Z 18003MPS 3500 -RA BR FEW002 SCT030 12/12 Q1014 NOSIG
ZBDS,2017-08-26 20:00,ZBDS 262000Z VRB01MPS 3500 -RA BR FEW002 SCT030 12/12 Q1014 NOSIG
ZBDS,2017-08-26 21:00,ZBDS 262100Z 22002MPS 5000 -RA BR FEW002 SCT030 12/12 Q1015 NOSIG
ZBDS,2017-08-26 22:00,ZBDS 262200Z 21001MPS 3500 -RA BR FEW002 SCT030 12/12 Q1014 NOSIG
ZBDS,2017-08-26 23:00,ZBDS 262300Z 29001MPS 5000 -RA BR FEW002 SCT030 13/13 Q1015 NOSIG
ZBDS,2017-08-27 00:00,ZBDS 270000Z 28003MPS 9999 FEW003 SCT030 13/13 Q1015 NOSIG
ZBDS,2017-08-27 01:00,ZBDS 270100Z 30004MPS 9999 FEW003 SCT030 13/13 Q1015 NOSIG
ZBDS,2017-08-27 02:00,ZBDS 270200Z 32004MPS 9999 FEW003 SCT030 14/13 Q1015 NOSIG
ZBDS,2017-08-27 03:00,ZBDS 270300Z 33003MPS 9999 FEW005 SCT020 15/13 Q1015 NOSIG
ZBDS,2017-08-27 04:00,ZBDS 270400Z 35003MPS 9999 FEW005 SCT020 15/13 Q1015 NOSIG
ZBDS,2017-08-27 05:00,ZBDS 270500Z 34004MPS 9999 FEW005 SCT020 15/13 Q1015 NOSIG
ZBDS,2017-08-27 06:00,ZBDS 270600Z 34004MPS 9999 FEW007 SCT020 15/13 Q1015 NOSIG
ZBDS,2017-08-27 07:00,ZBDS 270700Z 34004MPS 9999 FEW010 SCT020 16/13 Q1015 NOSIG
ZBDS,2017-08-27 08:00,ZBDS 270800Z 36003MPS 320V070 9999 FEW010 SCT020 16/13 Q1015 NOSIG
ZBDS,2017-08-27 09:00,ZBDS 270900Z 34003MPS 9999 FEW010 SCT020 16/12 Q1016 NOSIG
ZBDS,2017-08-27 10:00,ZBDS 271000Z 36003MPS 9999 FEW015 SCT030 16/12 Q1016 NOSIG
ZBDS,2017-08-27 11:00,ZBDS 271100Z 36003MPS 9999 SCT020 16/12 Q1017 NOSIG
ZBDS,2017-08-27 12:00,ZBDS 271200Z 01002MPS 9999 FEW040 15/13 Q1018 NOSIG
ZBDS,2017-08-27 13:00,ZBDS 271300Z 01001MPS 9999 FEW040 15/13 Q1018 NOSIG
ZBDS,2017-08-27 14:00,ZBDS 271400Z 00000MPS 9999 FEW040 15/13 Q1018 NOSIG
ZBDS,2017-08-27 15:00,ZBDS 271500Z VRB01MPS 9999 FEW040 15/12 Q1019 NOSIG
ZBDS,2017-08-27 16:00,ZBDS 271600Z 02002MPS 350V070 9999 FEW040 14/13 Q1019 NOSIG
ZBDS,2017-08-27 17:00,ZBDS 271700Z 36002MPS 9999 FEW040 14/13 Q1019 NOSIG
ZBDS,2017-08-27 18:00,ZBDS 271800Z 35003MPS 7000 FEW040 13/13 Q1019 NOSIG
ZBDS,2017-08-27 19:00,ZBDS 271900Z 33003MPS 5000 BR FEW040 12/12 Q1020 NOSIG
ZBDS,2017-08-27 20:00,ZBDS 272000Z 36004MPS 9999 FEW040 13/12 Q1020 NOSIG
ZBDS,2017-08-27 21:00,ZBDS 272100Z 35003MPS CAVOK 12/11 Q1020 NOSIG
ZBDS,2017-08-27 22:00,ZBDS 272200Z 36004MPS CAVOK 13/11 Q1020 NOSIG
ZBDS,2017-08-27 23:00,ZBDS 272300Z 01004MPS CAVOK 13/11 Q1021 NOSIG
ZBDS,2017-08-28 00:00,ZBDS 280000Z 04004MPS CAVOK 15/11 Q1022 NOSIG
ZBDS,2017-08-28 01:00,ZBDS 280100Z 04006MPS CAVOK 17/11 Q1022 NOSIG
ZBDS,2017-08-28 02:00,ZBDS 280200Z 07005MPS CAVOK 19/10 Q1023 NOSIG
ZBDS,2017-08-28 03:00,ZBDS 280300Z 07004MPS 020V100 CAVOK 19/10 Q1023 NOSIG
ZBDS,2017-08-28 04:00,ZBDS 280400Z 08004MPS CAVOK 20/09 Q1023 NOSIG
ZBDS,2017-08-28 05:00,ZBDS 280500Z 07004MPS 040V100 CAVOK 21/08 Q1023 NOSIG
ZBDS,2017-08-28 06:00,ZBDS 280600Z 10003MPS 010V140 CAVOK 22/08 Q1023 NOSIG
ZBDS,2017-08-28 07:00,ZBDS 280700Z 06003MPS 020V120 CAVOK 21/07 Q1023 NOSIG
ZBDS,2017-08-28 08:00,ZBDS 280800Z 07004MPS 040V110 CAVOK 21/07 Q1022 NOSIG
ZBDS,2017-08-28 09:00,ZBDS 280900Z 05002MPS 9999 FEW040 20/08 Q1023 NOSIG
ZBDS,2017-08-28 10:00,ZBDS 281000Z VRB01MPS 9999 FEW040 19/09 Q1023 NOSIG
ZBDS,2017-08-28 11:00,ZBDS 281100Z 19002MPS 9999 FEW040 18/13 Q1023 NOSIG
ZBDS,2017-08-28 12:00,ZBDS 281200Z 22002MPS 9999 FEW040 16/12 Q1023 NOSIG
ZBDS,2017-08-28 13:00,ZBDS 281300Z VRB01MPS 9999 FEW040 15/11 Q1024 NOSIG
ZBDS,2017-08-28 14:00,ZBDS 281400Z 20002MPS 170V230 9999 FEW040 16/11 Q1024 NOSIG
ZBDS,2017-08-28 15:00,ZBDS 281500Z VRB01MPS CAVOK 15/10 Q1024 NOSIG
ZBDS,2017-08-28 16:00,ZBDS 281600Z 22002MPS CAVOK 15/10 Q1025 NOSIG
ZBDS,2017-08-28 17:00,ZBDS 281700Z 28002MPS CAVOK 14/11 Q1025 NOSIG
ZBDS,2017-08-28 18:00,ZBDS 281800Z 29003MPS CAVOK 14/12 Q1024 NOSIG
ZBDS,2017-08-28 19:00,ZBDS 281900Z 29003MPS 7000 NSC 14/13 Q1024 NOSIG
ZBDS,2017-08-28 20:00,ZBDS 282000Z 30003MPS 5000 BR NSC 13/13 Q1024 NOSIG
ZBDS,2017-08-28 21:00,ZBDS 282100Z 30003MPS 5000 BR NSC 13/13 Q1024 NOSIG
ZBDS,2017-08-28 22:00,ZBDS 282200Z 30003MPS 5000 BR NSC 12/12 Q1024 NOSIG
ZBDS,2017-08-28 23:00,ZBDS 282300Z 31003MPS 8000 NSC 13/12 Q1025 NOSIG
ZBDS,2017-08-29 00:00,ZBDS 290000Z 30001MPS CAVOK 14/12 Q1025 NOSIG
ZBDS,2017-08-29 01:00,ZBDS 290100Z 32003MPS CAVOK 15/11 Q1025 NOSIG
ZBDS,2017-08-29 02:00,ZBDS 290200Z 28002MPS 240V330 CAVOK 16/11 Q1025 NOSIG
ZBDS,2017-08-29 03:00,ZBDS 290300Z VRB01MPS 9999 FEW040 19/11 Q1025 NOSIG
ZBDS,2017-08-29 04:00,ZBDS 290400Z VRB03MPS 9999 FEW040 21/11 Q1024 NOSIG
ZBDS,2017-08-29 05:00,ZBDS 290500Z 18004MPS 150V210 9999 FEW030TCU 21/11 Q1023 NOSIG
ZBDS,2017-08-29 06:00,ZBDS 290600Z 20003MPS 160V230 9999 FEW030TCU SCT040 21/08 Q1023 NOSIG
ZBDS,2017-08-29 07:00,ZBDS 290700Z 22004MPS 9999 FEW030TCU SCT040 20/10 Q1022 NOSIG
ZBDS,2017-08-29 08:00,ZBDS 290800Z 22006MPS 9999 FEW030TCU SCT040 19/11 Q1022 NOSIG
ZBDS,2017-08-29 09:00,ZBDS 290900Z 21006MPS 9999 FEW046 19/10 Q1022 NOSIG
ZBDS,2017-08-29 10:00,ZBDS 291000Z 22005MPS 9999 FEW046 18/09 Q1022 NOSIG
ZBDS,2017-08-29 11:00,ZBDS 291100Z 22004MPS 9999 FEW046 16/10 Q1022 NOSIG
ZBDS,2017-08-29 12:00,ZBDS 291200Z 23004MPS CAVOK 15/10 Q1022 NOSIG
ZBDS,2017-08-29 13:00,ZBDS 291300Z 24004MPS CAVOK 13/11 Q1023 NOSIG
ZBDS,2017-08-29 14:00,ZBDS 291400Z 24005MPS CAVOK 13/10 Q1023 NOSIG
ZBDS,2017-08-29 15:00,ZBDS 291500Z 25004MPS CAVOK 12/10 Q1023 NOSIG
ZBDS,2017-08-29 16:00,ZBDS 291600Z 26004MPS CAVOK 12/10 Q1022 NOSIG
ZBDS,2017-08-29 17:00,ZBDS 291700Z 26004MPS CAVOK 11/11 Q1022 NOSIG
ZBDS,2017-08-29 18:00,ZBDS 291800Z AUTO 25002MPS 9999 // ////// 10/10 Q1022
ZBDS,2017-08-29 19:00,ZBDS 291900Z 27002MPS CAVOK 10/10 Q1022 NOSIG
ZBDS,2017-08-29 20:00,ZBDS 292000Z 21002MPS 7000 NSC 10/10 Q1022 NOSIG
ZBDS,2017-08-29 21:00,ZBDS 292100Z 23002MPS 6000 NSC 10/10 Q1022 BECMG 3000 BR
ZBDS,2017-08-29 22:00,ZBDS 292200Z 21002MPS 2000 BR NSC 09/09 Q1022 NOSIG
ZBDS,2017-08-29 23:00,ZBDS 292300Z VRB01MPS 0200 R31/0300 FG VV001 09/09 Q1022 BECMG TL2350 0800
ZBDS,2017-08-30 00:00,ZBDS 300000Z 00000MPS 0200 R31/0250 FG VV001 10/10 Q1022 BECMG TL0050 0800
ZBDS,2017-08-30 01:00,ZBDS 300100Z 18002MPS 140V210 0500 R31/0300 FG VV001 11/11 Q1023 NOSIG
ZBDS,2017-08-30 02:00,ZBDS 300200Z VRB01G06MPS CAVOK 14/12 Q1022 NOSIG
ZBDS,2017-08-30 03:00,ZBDS 300300Z VRB01MPS CAVOK 18/11 Q1022 NOSIG
ZBDS,2017-08-30 04:00,ZBDS 300400Z 22002MPS 160V330 CAVOK 20/12 Q1021 NOSIG
ZBDS,2017-08-30 05:00,ZBDS 300500Z VRB02MPS CAVOK 22/09 Q1021 NOSIG
ZBDS,2017-08-30 06:00,ZBDS 300600Z 21002MPS CAVOK 23/08 Q1021 NOSIG
ZBDS,2017-08-30 07:00,ZBDS 300700Z VRB03MPS 9999 FEW040 24/09 Q1020 NOSIG
ZBDS,2017-08-30 08:00,ZBDS 300800Z VRB02MPS 9999 FEW040 24/08 Q1020 NOSIG
ZBDS,2017-08-30 09:00,ZBDS 300900Z 16003MPS 110V220 9999 FEW040 24/08 Q1019 NOSIG
ZBDS,2017-08-30 10:00,ZBDS 301000Z 18002MPS 150V210 CAVOK 23/10 Q1019 NOSIG
ZBDS,2017-08-30 11:00,ZBDS 301100Z 21003MPS CAVOK 20/10 Q1019 NOSIG
ZBDS,2017-08-30 12:00,ZBDS 301200Z 21002MPS CAVOK 18/09 Q1020 NOSIG
ZBDS,2017-08-30 13:00,ZBDS 301300Z 24003MPS CAVOK 18/08 Q1020 NOSIG
ZBDS,2017-08-30 14:00,ZBDS 301400Z 24002MPS CAVOK 17/08 Q1020 NOSIG
ZBDS,2017-08-30 15:00,ZBDS 301500Z 27002MPS CAVOK 16/09 Q1020 NOSIG
ZBDS,2017-08-30 16:00,ZBDS 301600Z 30004MPS CAVOK 14/10 Q1020 NOSIG
ZBDS,2017-08-30 17:00,ZBDS 301700Z 30004MPS CAVOK 14/09 Q1020 NOSIG
ZBDS,2017-08-30 18:00,ZBDS 301800Z 29003MPS CAVOK 13/09 Q1020 NOSIG
ZBDS,2017-08-30 19:00,ZBDS 301900Z 32002MPS CAVOK 14/10 Q1020 NOSIG
ZBDS,2017-08-30 20:00,ZBDS 302000Z 31002MPS CAVOK 13/10 Q1020 NOSIG
ZBDS,2017-08-30 21:00,ZBDS 302100Z 29004MPS CAVOK 12/09 Q1020 NOSIG
ZBDS,2017-08-30 22:00,ZBDS 302200Z 31002MPS CAVOK 12/09 Q1019 NOSIG
ZBDS,2017-08-30 23:00,ZBDS 302300Z 28002MPS 9999 FEW040 14/10 Q1020 NOSIG
ZBDS,2017-08-31 00:00,ZBDS 310000Z 04002MPS 360V060 9999 FEW040 16/11 Q1020 NOSIG
ZBDS,2017-08-31 01:00,ZBDS 310100Z 05002MPS 010V080 CAVOK 18/10 Q1020 NOSIG
ZBDS,2017-08-31 02:00,ZBDS 310200Z VRB01MPS CAVOK 22/08 Q1020 NOSIG
ZBDS,2017-08-31 03:00,ZBDS 310300Z 09002MPS 030V150 CAVOK 22/08 Q1020 NOSIG
ZBDS,2017-08-31 04:00,ZBDS 310400Z 18004MPS 120V230 CAVOK 23/05 Q1019 NOSIG
ZBDS,2017-08-31 05:00,ZBDS 310500Z VRB02MPS CAVOK 24/06 Q1018 NOSIG
ZBDS,2017-08-31 06:00,ZBDS 310600Z 22003MPS 140V290 CAVOK 25/06 Q1018 NOSIG
ZBDS,2017-08-31 07:00,ZBDS 310700Z 19004MPS 140V260 CAVOK 26/06 Q1017 NOSIG
ZBDS,2017-08-31 08:00,ZBDS 310800Z 19005MPS 150V240 CAVOK 25/07 Q1016 NOSIG
ZBDS,2017-08-31 09:00,ZBDS 310900Z 20005MPS 160V230 CAVOK 24/07 Q1016 NOSIG
ZBDS,2017-08-31 10:00,ZBDS 311000Z 20004MPS 160V230 CAVOK 24/05 Q1016 NOSIG
ZBDS,2017-08-31 11:00,ZBDS 311100Z 19002MPS CAVOK 21/08 Q1016 NOSIG
ZBDS,2017-08-31 12:00,ZBDS 311200Z 19002MPS CAVOK 19/08 Q1017 NOSIG
ZBDS,2017-08-31 13:00,ZBDS 311300Z 20002MPS 150V220 CAVOK 18/08 Q1017 NOSIG
ZBDS,2017-08-31 14:00,ZBDS 311400Z 22003MPS CAVOK 18/08 Q1017 NOSIG
ZBDS,2017-08-31 15:00,ZBDS 311500Z 21003MPS CAVOK 17/08 Q1017 NOSIG
ZBDS,2017-08-31 16:00,ZBDS 311600Z 21003MPS CAVOK 17/09 Q1017 NOSIG
ZBDS,2017-08-31 17:00,ZBDS 311700Z 22003MPS CAVOK 16/09 Q1017 NOSIG
ZBDS,2017-08-31 18:00,ZBDS 311800Z 22002MPS CAVOK 16/09 Q1016 NOSIG
ZBDS,2017-08-31 19:00,ZBDS 311900Z 22003MPS CAVOK 16/10 Q1016 NOSIG
ZBDS,2017-08-31 20:00,ZBDS 312000Z 22003MPS CAVOK 16/10 Q1016 NOSIG
ZBDS,2017-08-31 21:00,ZBDS 312100Z 25002MPS CAVOK 16/09 Q1016 NOSIG
ZBDS,2017-08-31 22:00,ZBDS 312200Z 24002MPS CAVOK 15/09 Q1016 NOSIG
ZBDS,2017-08-31 23:00,ZBDS 312300Z 19002MPS CAVOK 15/10 Q1017 NOSIG
ZBDS,2017-09-01 00:00,ZBDS 010000Z 19002MPS CAVOK 17/10 Q1017 NOSIG
ZBDS,2017-09-01 01:00,ZBDS 010100Z 18002MPS CAVOK 18/11 Q1017 NOSIG
ZBDS,2017-09-01 02:00,ZBDS 010200Z 18003MPS 150V220 CAVOK 19/11 Q1018 NOSIG
ZBDS,2017-09-01 03:00,ZBDS 010300Z 20003MPS 9999 FEW040 20/10 Q1018 NOSIG
ZBDS,2017-09-01 04:00,ZBDS 010400Z 20004MPS 170V230 9999 FEW040 20/10 Q1017 NOSIG
ZBDS,2017-09-01 05:00,ZBDS 010500Z 21004MPS 180V240 9999 FEW040 20/11 Q1017 NOSIG
ZBDS,2017-09-01 06:00,ZBDS 010600Z 17004MPS 150V210 9999 FEW040 21/11 Q1016 NOSIG
ZBDS,2017-09-01 07:00,ZBDS 010700Z 20004MPS 9999 SCT040 22/09 Q1015 NOSIG
ZBDS,2017-09-01 08:00,ZBDS 010800Z 18003MPS 110V240 9999 SCT040 21/10 Q1015 NOSIG
ZBDS,2017-09-01 09:00,ZBDS 010900Z 22004MPS 180V240 9999 SCT040 21/10 Q1015 800??1500
ZBDS,2017-09-01 10:00,ZBDS 011000Z 17004MPS 9999 SCT040 21/10 Q1015 NOSIG
ZBDS,2017-09-01 11:00,ZBDS 011100Z 16002MPS 9999 FEW040 20/09 Q1015 NOSIG
ZBDS,2017-09-01 12:00,ZBDS 011200Z 16003MPS CAVOK 18/10 Q1015 NOSIG
ZBDS,2017-09-01 13:00,ZBDS 011300Z 17002MPS CAVOK 17/09 Q1016 NOSIG
ZBDS,2017-09-01 14:00,ZBDS 011400Z 17002MPS CAVOK 15/09 Q1016 NOSIG
ZBDS,2017-09-01 15:00,ZBDS 011500Z 20001MPS CAVOK 15/09 Q1016 NOSIG
ZBDS,2017-09-01 16:00,ZBDS 011600Z 20002MPS CAVOK 13/09 Q1016 NOSIG
ZBDS,2017-09-01 17:00,ZBDS 011700Z 17003MPS CAVOK 13/09 Q1015 NOSIG
ZBDS,2017-09-01 18:00,ZBDS 011800Z 15002MPS CAVOK 11/09 Q1015 NOSIG
ZBDS,2017-09-01 19:00,ZBDS 011900Z 17001MPS CAVOK 11/10 Q1015 NOSIG
ZBDS,2017-09-01 20:00,ZBDS 012000Z 18002MPS CAVOK 11/10 Q1015 NOSIG
ZBDS,2017-09-01 21:00,ZBDS 012100Z 17003MPS CAVOK 12/10 Q1014 NOSIG
ZBDS,2017-09-01 22:00,ZBDS 012200Z 18003MPS CAVOK 12/09 Q1015 NOSIG
ZBDS,2017-09-01 23:00,ZBDS 012300Z 16003MPS 7000 NSC 12/09 Q1015 NOSIG
ZBDS,2017-09-02 00:00,ZBDS 020000Z 17003MPS 7000 NSC 15/11 Q1015 NOSIG
ZBDS,2017-09-02 01:00,ZBDS 020100Z 19004MPS CAVOK 17/13 Q1016 NOSIG
ZBDS,2017-09-02 02:00,ZBDS 020200Z 19006MPS CAVOK 19/11 Q1016 NOSIG
ZBDS,2017-09-02 03:00,ZBDS 020300Z 19005MPS 160V230 CAVOK 21/10 Q1016 NOSIG
ZBDS,2017-09-02 04:00,ZBDS 020400Z 19004MPS 140V240 CAVOK 22/06 Q1015 NOSIG
ZBDS,2017-09-02 05:00,ZBDS 020500Z 18005MPS 110V240 CAVOK 23/08 Q1014 NOSIG
ZBDS,2017-09-02 06:00,ZBDS 020600Z 18004MPS 130V240 9999 FEW040 24/10 Q1013 NOSIG
ZBDS,2017-09-02 07:00,ZBDS 020700Z 16006MPS 9999 TS FEW030CB 24/11 Q1012 TEMPO TSRA
ZBDS,2017-09-02 08:00,ZBDS 020800Z 36010MPS 2000 R13/0800VP2000 +TSRA BR SCT030CB SCT040 13/13 Q1014 TEMPO TL0930 3100 -TSRA
ZBDS,2017-09-02 09:00,ZBDS 020900Z 19007MPS 5000 TSRA BR SCT030CB SCT040 15/13 Q1014 NOSIG
ZBDS,2017-09-02 10:00,ZBDS 021000Z 21003MPS 8000 -TSRA FEW030CB SCT040 15/13 Q1013 NOSIG
ZBDS,2017-09-02 11:00,ZBDS 021100Z 20004MPS 9999 FEW040 15/12 Q1013 RETS NOSIG
ZBDS,2017-09-02 12:00,ZBDS 021200Z 21003MPS 170V240 9999 FEW040 15/12 Q1014 NOSIG
ZBDS,2017-09-02 13:00,ZBDS 021300Z 19004MPS CAVOK 15/11 Q1014 NOSIG
ZBDS,2017-09-02 14:00,ZBDS 021400Z 19002MPS 150V240 9999 FEW040 15/10 Q1014 NOSIG
ZBDS,2017-09-02 15:00,ZBDS 021500Z 16004MPS 9999 FEW040 14/11 Q1014 NOSIG
ZBDS,2017-09-02 16:00,ZBDS 021600Z 15002MPS 130V190 9999 FEW040 13/11 Q1014 NOSIG
ZBDS,2017-09-02 17:00,ZBDS 021700Z 16003MPS 9999 FEW040 13/11 Q1015 NOSIG
ZBDS,2017-09-02 18:00,ZBDS 021800Z 19003MPS 9999 FEW040 13/11 Q1014 NOSIG
ZBDS,2017-09-02 19:00,ZBDS 021900Z 20004MPS 9999 FEW040 14/12 Q1014 NOSIG
ZBDS,2017-09-02 20:00,ZBDS 022000Z 17003MPS 9999 FEW040 14/13 Q1014 NOSIG
ZBDS,2017-09-02 21:00,ZBDS 022100Z 17004MPS 9999 FEW040 13/13 Q1014 NOSIG
ZBDS,2017-09-02 22:00,ZBDS 022200Z 18004MPS 1300 R31/1200 BR FEW002 SCT030 14/14 Q1015 NOSIG
ZBDS,2017-09-02 23:00,ZBDS 022300Z 19003MPS 170V230 0400 R31/0500V0750 FG VV002 14/14 Q1015 NOSIG
ZBDS,2017-09-03 00:00,ZBDS 030000Z 08002MPS 040V140 0500 R31/0650 FG VV002 14/14 Q1016 NOSIG
ZBDS,2017-09-03 01:00,ZBDS 030100Z 18004MPS 150V210 4000 BR SCT005 SCT020 15/15 Q1016 NOSIG
ZBDS,2017-09-03 02:00,ZBDS 030200Z 17005MPS 5000 BR FEW009 SCT020 17/15 Q1016 NOSIG
ZBDS,2017-09-03 03:00,ZBDS 030300Z 15003MPS 5000 BR FEW015 SCT030 FEW030TCU 17/15 Q1016 NOSIG
ZBDS,2017-09-03 04:00,ZBDS 030400Z 16006MPS 6000 SCT030 19/15 Q1016 NOSIG
ZBDS,2017-09-03 05:00,ZBDS 030500Z 18006MPS 7000 FEW030 21/15 Q1015 NOSIG
ZBDS,2017-09-03 06:00,ZBDS 030600Z 18006MPS 8000 NSC 22/15 Q1014 NOSIG
ZBDS,2017-09-03 07:00,ZBDS 030700Z 19006MPS 150V220 CAVOK 23/15 Q1013 NOSIG
ZBDS,2017-09-03 08:00,ZBDS 030800Z 19005MPS 9999 FEW030CB SCT030 21/15 Q1013 BECMG TL0840 VRB08MPS -TSRA
ZBDS,2017-09-03 09:00,ZBDS 030900Z 19007MPS 160V220 9999 TS FEW030CB SCT030 17/10 Q1013 BECMG TL0930 NSW
ZBDS,2017-09-03 10:00,ZBDS 031000Z 17006MPS 9999 FEW040 17/12 Q1013 RETS NOSIG
ZBDS,2017-09-03 11:00,ZBDS 031100Z 17005MPS 9999 FEW040 16/11 Q1013 NOSIG
ZBDS,2017-09-03 12:00,ZBDS 031200Z 17005MPS CAVOK 15/12 Q1014 NOSIG
ZBDS,2017-09-03 13:00,ZBDS 031300Z 17005MPS CAVOK 15/11 Q1014 NOSIG
ZBDS,2017-09-03 14:00,ZBDS 031400Z 19004MPS CAVOK 15/12 Q1014 NOSIG
ZBDS,2017-09-03 15:00,ZBDS 031500Z 17003MPS CAVOK 15/13 Q1015 NOSIG
ZBDS,2017-09-03 16:00,ZBDS 031600Z 20003MPS 170V230 CAVOK 15/13 Q1015 NOSIG
ZBDS,2017-09-03 17:00,ZBDS 031700Z 18003MPS CAVOK 15/14 Q1015 NOSIG
ZBDS,2017-09-03 18:00,ZBDS 031800Z 20003MPS 7000 NSC 15/15 Q1015 NOSIG
ZBDS,2017-09-03 19:00,ZBDS 031900Z 19004MPS 7000 NSC 15/15 Q1015 NOSIG
ZBDS,2017-09-03 20:00,ZBDS 032000Z 19004MPS 5000 BR NSC 15/15 Q1014 NOSIG
ZBDS,2017-09-03 21:00,ZBDS 032100Z 19002MPS 4000 BR SCT004 SCT020 15/15 Q1015 NOSIG
ZBDS,2017-09-03 22:00,ZBDS 032200Z 16003MPS 2000 BR SCT002 SCT020 15/15 Q1015 NOSIG
ZBDS,2017-09-03 23:00,ZBDS 032300Z 18004MPS 1300 R13/1600 BR SCT002 SCT020 15/15 Q1015 NOSIG
ZBDS,2017-09-04 00:00,ZBDS 040000Z 20005MPS 2000 BR SCT002 SCT020 15/15 Q1016 NOSIG
ZBDS,2017-09-04 01:00,ZBDS 040100Z 21004MPS 3000 BR FEW003 SCT030 16/16 Q1016 NOSIG
ZBDS,2017-09-04 02:00,ZBDS 040200Z 21003MPS 4500 BR FEW005 SCT030 17/15 Q1016 NOSIG
ZBDS,2017-09-04 03:00,ZBDS 040300Z 21004MPS 170V260 5000 BR FEW015 SCT030 19/16 Q1016 NOSIG
ZBDS,2017-09-04 04:00,ZBDS 040400Z 22003MPS 180V260 8000 FEW020 SCT040 21/16 Q1016 NOSIG
ZBDS,2017-09-04 05:00,ZBDS 040500Z 23004MPS 190V280 9000 FEW020 SCT040 23/16 Q1015 NOSIG
ZBDS,2017-09-04 06:00,ZBDS 040600Z 23004MPS 200V260 9000 FEW020 SCT040 23/16 Q1015 NOSIG
ZBDS,2017-09-04 07:00,ZBDS 040700Z 25005MPS 9999 FEW030CB SCT040 22/15 Q1015 TEMPO -TSRA
ZBDS,2017-09-04 08:00,ZBDS 040800Z 33007MPS 9999 -TSRA FEW030CB SCT040 16/10 Q1017 BECMG TL0930 NSW
ZBDS,2017-09-04 09:00,ZBDS 040900Z 34005MPS 9999 FEW030CB FEW030 SCT040 16/12 Q1016 RETS NOSIG
ZBDS,2017-09-04 10:00,ZBDS 041000Z 36005MPS 9999 -SHRA FEW030CB FEW030 SCT040 15/12 Q1016 NOSIG
ZBDS,2017-09-04 11:00,ZBDS 041100Z 36005MPS 9999 -SHRA FEW030CB FEW030 SCT040 16/11 Q1017 NOSIG
ZBDS,2017-09-04 12:00,ZBDS 041200Z 13002MPS 9999 FEW030 SCT040 15/12 Q1018 NOSIG
ZBDS,2017-09-04 13:00,ZBDS 041300Z 28001MPS 9999 FEW030 SCT040 15/12 Q1018 NOSIG
ZBDS,2017-09-04 14:00,ZBDS 041400Z 17001MPS 9999 FEW030 SCT040 15/12 Q1019 NOSIG
ZBDS,2017-09-04 15:00,ZBDS 041500Z 16003MPS 9999 FEW030 SCT040 14/11 Q1018 NOSIG
ZBDS,2017-09-04 16:00,ZBDS 041600Z VRB01MPS 9999 FEW030 SCT040 14/12 Q1019 NOSIG
ZBDS,2017-09-04 17:00,ZBDS 041700Z 30003MPS 9999 FEW030 SCT040 13/12 Q1019 NOSIG
ZBDS,2017-09-04 18:00,ZBDS 041800Z VRB01MPS 9999 FEW030 SCT040 14/11 Q1019 NOSIG
ZBDS,2017-09-04 19:00,ZBDS 041900Z 29003MPS 9999 FEW030 SCT040 13/12 Q1018 NOSIG
ZBDS,2017-09-04 20:00,ZBDS 042000Z 33003MPS 9999 FEW030 SCT040 14/12 Q1018 NOSIG
ZBDS,2017-09-04 21:00,ZBDS 042100Z 35002MPS 9999 SCT040 14/11 Q1018 NOSIG
ZBDS,2017-09-04 22:00,ZBDS 042200Z 35002MPS 300V010 9999 SCT040 14/12 Q1018 NOSIG
ZBDS,2017-09-04 23:00,ZBDS 042300Z 35004MPS 9999 SCT040 14/11 Q1019 NOSIG
ZBDS,2017-09-05 00:00,ZBDS 050000Z 01003MPS 9999 SCT040 15/10 Q1019 NOSIG
ZBDS,2017-09-05 01:00,ZBDS 050100Z 01003MPS 9999 FEW040 16/08 Q1019 NOSIG
ZBDS,2017-09-05 02:00,ZBDS 050200Z 36002MPS 310V060 CAVOK 19/08 Q1020 NOSIG
ZBDS,2017-09-05 03:00,ZBDS 050300Z VRB01MPS CAVOK 20/08 Q1020 NOSIG
ZBDS,2017-09-05 04:00,ZBDS 050400Z 34004MPS 310V010 9999 FEW040 21/07 Q1019 NOSIG
ZBDS,2017-09-05 05:00,ZBDS 050500Z 35004MPS 310V040 9999 FEW040 21/07 Q1019 NOSIG
ZBDS,2017-09-05 06:00,ZBDS 050600Z 32003MPS 250V050 9999 FEW040 22/07 Q1018 NOSIG
ZBDS,2017-09-05 07:00,ZBDS 050700Z 35003MPS 270V060 9999 FEW040 22/06 Q1018 NOSIG
ZBDS,2017-09-05 08:00,ZBDS 050800Z 35003MPS 300V030 9999 FEW040 22/06 Q1017 NOSIG
ZBDS,2017-09-05 09:00,ZBDS 050900Z VRB01MPS 9999 FEW040 21/06 Q1017 NOSIG
ZBDS,2017-09-05 10:00,ZBDS 051000Z VRB01MPS 9999 FEW040 20/09 Q1017 NOSIG
ZBDS,2017-09-05 11:00,ZBDS 051100Z 00000MPS 9999 FEW040 20/10 Q1017 NOSIG
ZBDS,2017-09-05 12:00,ZBDS 051200Z 18001MPS 9999 FEW040 18/11 Q1017 NOSIG
ZBDS,2017-09-05 13:00,ZBDS 051300Z 18001MPS CAVOK 17/10 Q1018 NOSIG
ZBDS,2017-09-05 14:00,ZBDS 051400Z 24001MPS CAVOK 17/08 Q1018 NOSIG
ZBDS,2017-09-05 15:00,ZBDS 051500Z 27002MPS CAVOK 16/06 Q1018 NOSIG
ZBDS,2017-09-05 16:00,ZBDS 051600Z 28003MPS CAVOK 14/08 Q1018 NOSIG
ZBDS,2017-09-05 17:00,ZBDS 051700Z 29003MPS CAVOK 13/08 Q1018 NOSIG
ZBDS,2017-09-05 18:00,ZBDS 051800Z 28004MPS CAVOK 13/09 Q1017 NOSIG
ZBDS,2017-09-05 19:00,ZBDS 051900Z 28004MPS CAVOK 13/08 Q1017 NOSIG
ZBDS,2017-09-05 20:00,ZBDS 052000Z 28004MPS CAVOK 13/08 Q1017 NOSIG
ZBDS,2017-09-05 21:00,ZBDS 052100Z 28004MPS CAVOK 13/08 Q1016 NOSIG
ZBDS,2017-09-05 22:00,ZBDS 052200Z 28005MPS CAVOK 12/08 Q1017 NOSIG
ZBDS,2017-09-05 23:00,ZBDS 052300Z 28004MPS CAVOK 13/08 Q1017 NOSIG
ZBDS,2017-09-06 00:00,ZBDS 060000Z 28004MPS CAVOK 16/08 Q1017 NOSIG
ZBDS,2017-09-06 01:00,ZBDS 060100Z 29005MPS CAVOK 19/10 Q1017 NOSIG
ZBDS,2017-09-06 02:00,ZBDS 060200Z 29005MPS CAVOK 21/09 Q1017 NOSIG
ZBDS,2017-09-06 03:00,ZBDS 060300Z 30006MPS CAVOK 22/08 Q1017 NOSIG
ZBDS,2017-09-06 04:00,ZBDS 060400Z 29005MPS 250V330 CAVOK 24/07 Q1016 NOSIG
ZBDS,2017-09-06 05:00,ZBDS 060500Z 28006MPS 250V330 CAVOK 25/05 Q1016 NOSIG
ZBDS,2017-09-06 06:00,ZBDS 060600Z 30006MPS CAVOK 25/03 Q1015 NOSIG
ZBDS,2017-09-06 07:00,ZBDS 060700Z 29005MPS 240V330 CAVOK 26/02 Q1015 NOSIG
ZBDS,2017-09-06 08:00,ZBDS 060800Z 32004MPS 280V360 CAVOK 26/04 Q1014 NOSIG
ZBDS,2017-09-06 09:00,ZBDS 060900Z 33005MPS 290V360 CAVOK 26/M00 Q1014 NOSIG
ZBDS,2017-09-06 10:00,ZBDS 061000Z 32004MPS CAVOK 25/01 Q1014 NOSIG
ZBDS,2017-09-06 11:00,ZBDS 061100Z 03002MPS 350V050 CAVOK 23/03 Q1014 NOSIG
ZBDS,2017-09-06 12:00,ZBDS 061200Z 09002MPS 060V130 CAVOK 21/04 Q1014 NOSIG
ZBDS,2017-09-06 13:00,ZBDS 061300Z 12001MPS CAVOK 20/04 Q1015 NOSIG
ZBDS,2017-09-06 14:00,ZBDS 061400Z 20002MPS CAVOK 19/01 Q1015 NOSIG
ZBDS,2017-09-06 15:00,ZBDS 061500Z 20002MPS CAVOK 19/03 Q1015 NOSIG
ZBDS,2017-09-06 16:00,ZBDS 061600Z 18002MPS CAVOK 16/03 Q1015 NOSIG
ZBDS,2017-09-06 17:00,ZBDS 061700Z VRB01MPS CAVOK 18/01 Q1015 NOSIG
ZBDS,2017-09-06 19:00,ZBDS 061900Z 19001MPS CAVOK 13/02 Q1015 NOSIG
ZBDS,2017-09-06 20:00,ZBDS 062000Z 33001MPS CAVOK 13/04 Q1015 NOSIG
ZBDS,2017-09-06 21:00,ZBDS 062100Z 32002MPS CAVOK 13/05 Q1015 NOSIG
ZBDS,2017-09-06 22:00,ZBDS 062200Z 33002MPS 290V360 CAVOK 11/08 Q1015 NOSIG
ZBDS,2017-09-06 23:00,ZBDS 062300Z 29004MPS CAVOK 13/05 Q1015 NOSIG
ZBDS,2017-09-07 00:00,ZBDS 070000Z 29003MPS CAVOK 17/05 Q1016 NOSIG
ZBDS,2017-09-07 01:00,ZBDS 070100Z 27003MPS CAVOK 20/07 Q1016 NOSIG
ZBDS,2017-09-07 02:00,ZBDS 070200Z 29005MPS CAVOK 22/07 Q1016 NOSIG
ZBDS,2017-09-07 03:00,ZBDS 070300Z 28003MPS 230V310 CAVOK 24/07 Q1016 NOSIG
ZBDS,2017-09-07 04:00,ZBDS 070400Z 27004MPS 240V300 CAVOK 25/07 Q1015 NOSIG
ZBDS,2017-09-07 05:00,ZBDS 070500Z 23004MPS 190V270 9999 FEW046 25/M02 Q1015 NOSIG
ZBDS,2017-09-07 06:00,ZBDS 070600Z 21004MPS 120V290 9999 FEW046 26/02 Q1014 NOSIG
ZBDS,2017-09-07 07:00,ZBDS 070700Z 22004MPS 170V260 9999 SCT046 27/02 Q1014 NOSIG
ZBDS,2017-09-07 08:00,ZBDS 070800Z 19004MPS 160V220 9999 SCT040 26/04 Q1014 NOSIG
ZBDS,2017-09-07 09:00,ZBDS 070900Z 20004MPS 170V230 9999 SCT040 25/04 Q1013 NOSIG
ZBDS,2017-09-07 10:00,ZBDS 071000Z 21004MPS 9999 FEW046 24/05 Q1014 NOSIG
ZBDS,2017-09-07 11:00,ZBDS 071100Z 21003MPS CAVOK 21/07 Q1014 NOSIG
ZBDS,2017-09-07 12:00,ZBDS 071200Z 21003MPS CAVOK 20/06 Q1014 NOSIG
ZBDS,2017-09-07 13:00,ZBDS 071300Z 21004MPS 170V230 CAVOK 19/07 Q1015 NOSIG
ZBDS,2017-09-07 14:00,ZBDS 071400Z 20004MPS CAVOK 18/07 Q1015 NOSIG
ZBDS,2017-09-07 15:00,ZBDS 071500Z 20004MPS CAVOK 18/07 Q1015 NOSIG
ZBDS,2017-09-07 16:00,ZBDS 071600Z 20003MPS CAVOK 18/07 Q1015 NOSIG
ZBDS,2017-09-07 17:00,ZBDS 071700Z 21003MPS CAVOK 17/07 Q1016 NOSIG
ZBDS,2017-09-07 18:00,ZBDS 071800Z 22004MPS CAVOK 18/07 Q1015 NOSIG
ZBDS,2017-09-07 19:00,ZBDS 071900Z 21003MPS CAVOK 16/07 Q1015 NOSIG
ZBDS,2017-09-07 20:00,ZBDS 072000Z 19004MPS 9999 FEW040 16/07 Q1015 NOSIG
ZBDS,2017-09-07 21:00,ZBDS 072100Z 16004MPS 9999 FEW040 14/08 Q1015 NOSIG
ZBDS,2017-09-07 22:00,ZBDS 072200Z 15004MPS CAVOK 14/08 Q1015 NOSIG
ZBDS,2017-09-07 23:00,ZBDS 072300Z 16004MPS CAVOK 15/08 Q1015 NOSIG
ZBDS,2017-09-08 00:00,ZBDS 080000Z 17004MPS CAVOK 17/09 Q1015 NOSIG
ZBDS,2017-09-08 01:00,ZBDS 080100Z 19003MPS 160V220 CAVOK 19/09 Q1015 NOSIG
ZBDS,2017-09-08 02:00,ZBDS 080200Z 19004MPS CAVOK 22/11 Q1015 NOSIG
ZBDS,2017-09-08 03:00,ZBDS 080300Z 21005MPS CAVOK 23/10 Q1015 NOSIG
ZBDS,2017-09-08 05:00,ZBDS 080500Z 21004MPS 180V250 CAVOK 26/09 Q1014 NOSIG
ZBDS,2017-09-08 06:00,ZBDS 080600Z 20005MPS 170V230 CAVOK 27/09 Q1013 NOSIG
ZBDS,2017-09-08 07:00,ZBDS 080700Z 19006MPS 160V220 9999 FEW040 27/11 Q1012 NOSIG
ZBDS,2017-09-08 08:00,ZBDS 080800Z 20005MPS 160V230 9999 FEW030CB SCT040 26/11 Q1012 TEMPO -TSRA
ZBDS,2017-09-08 09:00,ZBDS 080900Z 27003MPS 9999 -TSRA FEW030CB SCT040 21/10 Q1013 NOSIG
ZBDS,2017-09-08 10:00,ZBDS 081000Z 13006MPS 9999 FEW030CB 20/10 Q1013 RETS NOSIG
ZBDS,2017-09-08 11:00,ZBDS 081100Z 16006MPS 9999 SCT040 17/13 Q1013 NOSIG
ZBDS,2017-09-08 12:00,ZBDS 081200Z 16006MPS 9999 FEW040 17/13 Q1014 NOSIG
ZBDS,2017-09-08 13:00,ZBDS 081300Z 19006MPS 9999 FEW040 17/11 Q1015 NOSIG
ZBDS,2017-09-08 14:00,ZBDS 081400Z 20007MPS 9999 FEW040 17/13 Q1015 NOSIG
ZBDS,2017-09-08 15:00,ZBDS 081500Z 20005MPS 9999 FEW040 16/12 Q1015 NOSIG
ZBDS,2017-09-08 16:00,ZBDS 081600Z 21004MPS CAVOK 18/10 Q1014 NOSIG
ZBDS,2017-09-08 17:00,ZBDS 081700Z 26002MPS 240V300 CAVOK 18/10 Q1014 NOSIG
ZBDS,2017-09-08 18:00,ZBDS 081800Z 00000MPS CAVOK 17/10 Q1014 NOSIG
ZBDS,2017-09-08 19:00,ZBDS 081900Z 14003MPS 130V190 CAVOK 16/10 Q1015 NOSIG
ZBDS,2017-09-08 20:00,ZBDS 082000Z 15003MPS CAVOK 14/11 Q1014 NOSIG
ZBDS,2017-09-08 21:00,ZBDS 082100Z 16003MPS CAVOK 15/11 Q1015 NOSIG
ZBDS,2017-09-08 22:00,ZBDS 082200Z 17003MPS CAVOK 14/11 Q1015 NOSIG
ZBDS,2017-09-08 23:00,ZBDS 082300Z 17003MPS CAVOK 15/11 Q1015 NOSIG
ZBDS,2017-09-09 00:00,ZBDS 090000Z 18003MPS CAVOK 17/12 Q1016 NOSIG
ZBDS,2017-09-09 01:00,ZBDS 090100Z 21003MPS CAVOK 19/13 Q1016 NOSIG
ZBDS,2017-09-09 02:00,ZBDS 090200Z 21003MPS 170V230 CAVOK 21/13 Q1016 NOSIG
ZBDS,2017-09-09 03:00,ZBDS 090300Z 20004MPS 150V250 CAVOK 23/14 Q1016 NOSIG
ZBDS,2017-09-09 04:00,ZBDS 090400Z 21003MPS 180V270 CAVOK 25/13 Q1015 NOSIG
ZBDS,2017-09-09 05:00,ZBDS 090500Z 20004MPS 160V240 CAVOK 26/13 Q1015 NOSIG
ZBDS,2017-09-09 06:00,ZBDS 090600Z 21005MPS CAVOK 26/09 Q1014 NOSIG
ZBDS,2017-09-09 07:00,ZBDS 090700Z 20005MPS 9999 SCT040 25/12 Q1014 NOSIG
ZBDS,2017-09-09 08:00,ZBDS 090800Z 21005MPS 9999 SCT040 24/13 Q1014 NOSIG
ZBDS,2017-09-09 09:00,ZBDS 090900Z 22004MPS 9999 SCT040 23/14 Q1014 NOSIG
ZBDS,2017-09-09 10:00,ZBDS 091000Z 22004MPS 9999 SCT040 23/13 Q1014 NOSIG
ZBDS,2017-09-09 11:00,ZBDS 091100Z 31007MPS 9999 SCT040CB SCT040 20/09 Q1015 NOSIG
ZBDS,2017-09-09 12:00,ZBDS 091200Z 33006MPS 9999 -TSRA SCT040CB SCT040 18/12 Q1016 BECMG TL1240 NSW
ZBDS,2017-09-09 13:00,ZBDS 091300Z 34006MPS 9999 FEW040CB SCT040 18/10 Q1018 RETS NOSIG
ZBDS,2017-09-09 14:00,ZBDS 091400Z 31009G14MPS 9999 FEW040CB SCT040 17/09 Q1018 NOSIG
ZBDS,2017-09-09 15:00,ZBDS 091500Z 32006MPS 9999 FEW040CB SCT040 16/09 Q1018 NOSIG
ZBDS,2017-09-09 16:00,ZBDS 091600Z 31006MPS 9999 FEW040CB SCT040 14/11 Q1019 NOSIG
ZBDS,2017-09-09 17:00,ZBDS 091700Z 34006MPS 9999 -SHRA FEW040CB SCT040 13/12 Q1019 NOSIG
ZBDS,2017-09-09 18:00,ZBDS 091800Z 00000MPS 9999 -SHRA FEW040CB SCT040 13/12 Q1018 NOSIG
ZBDS,2017-09-09 19:00,ZBDS 091900Z 19001MPS 9999 FEW040 13/13 Q1018 NOSIG
ZBDS,2017-09-09 20:00,ZBDS 092000Z 26002MPS CAVOK 12/11 Q1018 NOSIG
ZBDS,2017-09-09 21:00,ZBDS 092100Z 28003MPS 240V310 CAVOK 11/10 Q1018 NOSIG
ZBDS,2017-09-09 22:00,ZBDS 092200Z 27003MPS CAVOK 11/10 Q1018 NOSIG
ZBDS,2017-09-09 23:00,ZBDS 092300Z 28004MPS CAVOK 11/10 Q1018 NOSIG
ZBDS,2017-09-10 00:00,ZBDS 100000Z 29004MPS CAVOK 13/11 Q1019 NOSIG
ZBDS,2017-09-10 01:00,ZBDS 100100Z 30004MPS 270V330 CAVOK 16/11 Q1019 NOSIG
ZBDS,2017-09-10 02:00,ZBDS 100200Z 30004MPS 270V330 CAVOK 19/10 Q1019 NOSIG
ZBDS,2017-09-10 03:00,ZBDS 100300Z 33005MPS CAVOK 21/06 Q1019 NOSIG
ZBDS,2017-09-10 04:00,ZBDS 100400Z 35005MPS 330V030 CAVOK 22/02 Q1019 NOSIG
ZBDS,2017-09-10 05:00,ZBDS 100500Z 31004MPS 280V340 9999 FEW046 23/03 Q1019 NOSIG
ZBDS,2017-09-10 06:00,ZBDS 100600Z 34005MPS 290V020 CAVOK 24/02 Q1018 NOSIG
ZBDS,2017-09-10 07:00,ZBDS 100700Z 01005G10MPS 330V100 CAVOK 24/00 Q1018 NOSIG
ZBDS,2017-09-10 08:00,ZBDS 100800Z 35004G09MPS 310V050 CAVOK 24/02 Q1017 NOSIG
ZBDS,2017-09-10 09:00,ZBDS 100900Z 01005MPS 340V040 CAVOK 23/01 Q1018 NOSIG
ZBDS,2017-09-10 10:00,ZBDS 101000Z 01004MPS 340V040 CAVOK 22/00 Q1018 NOSIG
ZBDS,2017-09-10 11:00,ZBDS 101100Z 03002MPS CAVOK 19/02 Q1018 NOSIG
ZBDS,2017-09-10 12:00,ZBDS 101200Z 04002MPS CAVOK 17/02 Q1018 NOSIG
ZBDS,2017-09-10 13:00,ZBDS 101300Z 04002MPS CAVOK 17/02 Q1019 NOSIG
ZBDS,2017-09-10 14:00,ZBDS 101400Z 36002MPS 340V040 CAVOK 16/03 Q1019 NOSIG
ZBDS,2017-09-10 15:00,ZBDS 101500Z 33002MPS CAVOK 16/03 Q1019 NOSIG
ZBDS,2017-09-10 16:00,ZBDS 101600Z 01003MPS CAVOK 16/03 Q1019 NOSIG
ZBDS,2017-09-10 17:00,ZBDS 101700Z 01002MPS CAVOK 14/03 Q1019 NOSIG
ZBDS,2017-09-10 18:00,ZBDS 101800Z 04003MPS CAVOK 13/04 Q1019 NOSIG
ZBDS,2017-09-10 19:00,ZBDS 101900Z VRB01MPS CAVOK 13/04 Q1019 NOSIG
ZBDS,2017-09-10 20:00,ZBDS 102000Z 36001MPS CAVOK 12/04 Q1019 NOSIG
ZBDS,2017-09-10 21:00,ZBDS 102100Z 35001MPS CAVOK 10/04 Q1019 NOSIG
ZBDS,2017-09-10 22:00,ZBDS 102200Z 30001MPS CAVOK 10/05 Q1019 NOSIG
ZBDS,2017-09-10 23:00,ZBDS 102300Z 03002MPS CAVOK 11/06 Q1019 NOSIG
ZBDS,2017-09-11 00:00,ZBDS 110000Z 07002MPS CAVOK 16/07 Q1019 NOSIG
ZBDS,2017-09-11 01:00,ZBDS 110100Z VRB01MPS CAVOK 19/07 Q1019 NOSIG
ZBDS,2017-09-11 02:00,ZBDS 110200Z 18002MPS 140V230 CAVOK 21/05 Q1019 NOSIG
ZBDS,2017-09-11 03:00,ZBDS 110300Z VRB02MPS CAVOK 22/03 Q1019 NOSIG
ZBDS,2017-09-11 04:00,ZBDS 110400Z 33002MPS 220V030 CAVOK 23/03 Q1019 NOSIG
ZBDS,2017-09-11 05:00,ZBDS 110500Z 29002MPS 250V350 CAVOK 24/01 Q1018 NOSIG
ZBDS,2017-09-11 06:00,ZBDS 110600Z VRB02MPS CAVOK 24/01 Q1018 NOSIG
ZBDS,2017-09-11 07:00,ZBDS 110700Z VRB01MPS CAVOK 24/02 Q1017 NOSIG
ZBDS,2017-09-11 08:00,ZBDS 110800Z 17003MPS 130V240 CAVOK 25/03 Q1017 NOSIG
ZBDS,2017-09-11 09:00,ZBDS 110900Z 22003MPS CAVOK 24/03 Q1017 NOSIG
ZBDS,2017-09-11 10:00,ZBDS 111000Z 22003MPS CAVOK 23/03 Q1017 NOSIG
ZBDS,2017-09-11 11:00,ZBDS 111100Z VRB01MPS CAVOK 20/04 Q1018 NOSIG
ZBDS,2017-09-11 12:00,ZBDS 111200Z 20002MPS CAVOK 18/05 Q1018 NOSIG
ZBDS,2017-09-11 13:00,ZBDS 111300Z 18002MPS CAVOK 17/05 Q1019 NOSIG
ZBDS,2017-09-11 14:00,ZBDS 111400Z 19004MPS CAVOK 17/06 Q1019 NOSIG
ZBDS,2017-09-11 15:00,ZBDS 111500Z 19004MPS CAVOK 16/06 Q1019 NOSIG
ZBDS,2017-09-11 16:00,ZBDS 111600Z 19004MPS CAVOK 16/06 Q1019 NOSIG
ZBDS,2017-09-11 17:00,ZBDS 111700Z 21004MPS CAVOK 16/06 Q1020 NOSIG
ZBDS,2017-09-11 18:00,ZBDS 111800Z 21004MPS CAVOK 16/05 Q1020 NOSIG
ZBDS,2017-09-11 19:00,ZBDS 111900Z 21003MPS CAVOK 15/05 Q1020 NOSIG
ZBDS,2017-09-11 20:00,ZBDS 112000Z 21002MPS CAVOK 15/05 Q1020 NOSIG
ZBDS,2017-09-11 21:00,ZBDS 112100Z 17002MPS CAVOK 14/06 Q1020 NOSIG
ZBDS,2017-09-11 22:00,ZBDS 112200Z 16004MPS CAVOK 13/06 Q1020 NOSIG
ZBDS,2017-09-11 23:00,ZBDS 112300Z 17003MPS CAVOK 13/06 Q1021 NOSIG
ZBDS,2017-09-12 00:00,ZBDS 120000Z 16004MPS CAVOK 16/07 Q1021 NOSIG
ZBDS,2017-09-12 01:00,ZBDS 120100Z 17003MPS 120V200 CAVOK 18/08 Q1022 NOSIG
ZBDS,2017-09-12 02:00,ZBDS 120200Z 17003MPS 140V210 CAVOK 20/10 Q1022 NOSIG
ZBDS,2017-09-12 03:00,ZBDS 120300Z 16004MPS 140V200 CAVOK 23/10 Q1022 NOSIG
ZBDS,2017-09-12 04:00,ZBDS 120400Z 19005MPS 150V230 CAVOK 24/10 Q1021 NOSIG
ZBDS,2017-09-12 06:00,ZBDS 120600Z 16005MPS 130V200 CAVOK 26/07 Q1020 NOSIG
ZBDS,2017-09-12 07:00,ZBDS 120700Z 17005MPS 140V210 CAVOK 26/05 Q1019 NOSIG
ZBDS,2017-09-12 08:00,ZBDS 120800Z 18005MPS 150V220 CAVOK 26/06 Q1019 NOSIG
ZBDS,2017-09-12 09:00,ZBDS 120900Z 18006MPS CAVOK 25/05 Q1019 NOSIG
ZBDS,2017-09-12 10:00,ZBDS 121000Z 18005MPS CAVOK 23/05 Q1020 NOSIG
ZBDS,2017-09-12 11:00,ZBDS 121100Z 17003MPS 9999 FEW046 21/06 Q1020 NOSIG
ZBDS,2017-09-12 12:00,ZBDS 121200Z 17003MPS CAVOK 20/07 Q1020 NOSIG
ZBDS,2017-09-12 13:00,ZBDS 121300Z 17004MPS CAVOK 19/07 Q1021 NOSIG
ZBDS,2017-09-12 14:00,ZBDS 121400Z 16004MPS CAVOK 18/08 Q1021 NOSIG
ZBDS,2017-09-12 15:00,ZBDS 121500Z 16004MPS CAVOK 17/08 Q1021 NOSIG
ZBDS,2017-09-12 16:00,ZBDS 121600Z 18003MPS CAVOK 16/09 Q1021 NOSIG
ZBDS,2017-09-12 17:00,ZBDS 121700Z 17003MPS CAVOK 16/09 Q1022 NOSIG
ZBDS,2017-09-12 19:00,ZBDS 121900Z 16004MPS CAVOK 15/10 Q1022 NOSIG
ZBDS,2017-09-12 20:00,ZBDS 122000Z 16003MPS CAVOK 15/10 Q1022 NOSIG
ZBDS,2017-09-12 21:00,ZBDS 122100Z 16003MPS CAVOK 14/10 Q1022 NOSIG
ZBDS,2017-09-12 22:00,ZBDS 122200Z 17003MPS CAVOK 14/10 Q1023 NOSIG
ZBDS,2017-09-12 23:00,ZBDS 122300Z 16003MPS CAVOK 14/10 Q1023 NOSIG
ZBDS,2017-09-13 00:00,ZBDS 130000Z 17005MPS CAVOK 16/10 Q1023 NOSIG
ZBDS,2017-09-13 01:00,ZBDS 130100Z 17006MPS 150V210 CAVOK 19/10 Q1023 NOSIG
ZBDS,2017-09-13 02:00,ZBDS 130200Z 18007MPS CAVOK 20/10 Q1023 NOSIG
ZBDS,2017-09-13 03:00,ZBDS 130300Z 19006MPS CAVOK 22/08 Q1023 NOSIG
ZBDS,2017-09-13 04:00,ZBDS 130400Z 18007MPS 150V220 CAVOK 23/09 Q1022 NOSIG
ZBDS,2017-09-13 05:00,ZBDS 130500Z 19007G12MPS 150V220 CAVOK 23/07 Q1022 NOSIG
ZBDS,2017-09-13 06:00,ZBDS 130600Z 17007G12MPS 140V200 CAVOK 25/06 Q1021 NOSIG
ZBDS,2017-09-13 07:00,ZBDS 130700Z 18008MPS CAVOK 24/06 Q1020 NOSIG
ZBDS,2017-09-13 08:00,ZBDS 130800Z 18007MPS CAVOK 23/06 Q1020 NOSIG
ZBDS,2017-09-13 09:00,ZBDS 130900Z 18007MPS CAVOK 22/06 Q1020 NOSIG
ZBDS,2017-09-13 10:00,ZBDS 131000Z 17006MPS CAVOK 21/06 Q1020 NOSIG
ZBDS,2017-09-13 11:00,ZBDS 131100Z 16004MPS CAVOK 20/07 Q1020 NOSIG
ZBDS,2017-09-13 12:00,ZBDS 131200Z 17003MPS CAVOK 18/08 Q1021 NOSIG
ZBDS,2017-09-13 13:00,ZBDS 131300Z 16004MPS 9999 FEW040 18/09 Q1021 NOSIG
ZBDS,2017-09-13 14:00,ZBDS 131400Z 18003MPS 9999 FEW040 18/09 Q1022 NOSIG
ZBDS,2017-09-13 15:00,ZBDS 131500Z 21004MPS 9999 SCT040 19/08 Q1022 NOSIG
ZBDS,2017-09-13 16:00,ZBDS 131600Z 17003MPS 9999 SCT040 16/11 Q1021 NOSIG
ZBDS,2017-09-13 17:00,ZBDS 131700Z 17004MPS 9999 SCT040 17/10 Q1021 NOSIG
ZBDS,2017-09-13 18:00,ZBDS 131800Z 19003MPS 9999 SCT040 17/09 Q1021 NOSIG
ZBDS,2017-09-13 19:00,ZBDS 131900Z 18004MPS 9999 SCT040 17/09 Q1021 NOSIG
ZBDS,2017-09-13 20:00,ZBDS 132000Z 19004MPS 9999 SCT040 17/09 Q1020 NOSIG
ZBDS,2017-09-13 21:00,ZBDS 132100Z 19004MPS 9999 SCT040 17/09 Q1020 NOSIG
ZBDS,2017-09-13 22:00,ZBDS 132200Z 17005MPS 9999 SCT040 16/10 Q1021 NOSIG
ZBDS,2017-09-13 23:00,ZBDS 132300Z 17005MPS 9999 FEW040 15/10 Q1021 NOSIG
ZBDS,2017-09-14 00:00,ZBDS 140000Z 16005MPS 9999 FEW040 16/10 Q1021 NOSIG
ZBDS,2017-09-14 01:00,ZBDS 140100Z 18005MPS 9999 FEW040 16/11 Q1021 NOSIG
ZBDS,2017-09-14 02:00,ZBDS 140200Z 20005MPS 170V230 9999 FEW040 18/11 Q1021 NOSIG
ZBDS,2017-09-14 03:00,ZBDS 140300Z 21005MPS 160V240 9999 FEW040 18/11 Q1021 NOSIG
ZBDS,2017-09-14 05:00,ZBDS 140500Z 20004MPS 9999 FEW040 21/13 Q1020 NOSIG
ZBDS,2017-09-14 06:00,ZBDS 140600Z 21004MPS 180V240 9999 SCT040 19/12 Q1020 NOSIG
ZBDS,2017-09-14 07:00,ZBDS 140700Z 20005MPS 9999 FEW040 19/13 Q1019 NOSIG
ZBDS,2017-09-14 09:00,ZBDS 140900Z 22002MPS 200V260 9999 SCT040 19/13 Q1020 NOSIG
ZBDS,2017-09-14 10:00,ZBDS 141000Z 16003MPS 8000 SCT040 18/15 Q1020 NOSIG
ZBDS,2017-09-14 11:00,ZBDS 141100Z 12003MPS 5000 -SHRA BR SCT040 17/15 Q1020 NOSIG
ZBDS,2017-09-14 12:00,ZBDS 141200Z 12002MPS 4500 -SHRA BR FEW030CB SCT040 16/16 Q1021 NOSIG
ZBDS,2017-09-14 13:00,ZBDS 141300Z 02004MPS 5000 SHRA BR FEW005 FEW030CB SCT040 15/13 Q1021 NOSIG
ZBDS,2017-09-14 14:00,ZBDS 141400Z 17003MPS 9999 -SHRA FEW030CB SCT040 15/15 Q1021 RESHRA NOSIG
ZBDS,2017-09-14 15:00,ZBDS 141500Z 15003MPS 9999 FEW030 SCT040 15/14 Q1021 NOSIG
ZBDS,2017-09-14 16:00,ZBDS 141600Z 14003MPS 4000 BR FEW030 SCT040 15/15 Q1021 NOSIG
ZBDS,2017-09-14 17:00,ZBDS 141700Z 15004MPS 1000 R31/1200 BR FEW003 SCT030 15/15 Q1021 NOSIG
ZBDS,2017-09-14 19:00,ZBDS 141900Z 16003MPS 1700 R13/P2000 BR FEW003 SCT030 15/15 Q1021 NOSIG
ZBDS,2017-09-14 21:00,ZBDS 142100Z 14003MPS 2300 BR FEW003 SCT030 15/15 Q1020 NOSIG
ZBDS,2017-09-14 22:00,ZBDS 142200Z 15003MPS 2200 BR SCT002 SCT020 15/15 Q1021 NOSIG
ZBDS,2017-09-14 23:00,ZBDS 142300Z 18003MPS 1000 R13/1500 BR SCT002 SCT020 14/14 Q1021 NOSIG
ZBDS,2017-09-15 00:00,ZBDS 150000Z 15003MPS 1700 BR SCT003 SCT020 15/15 Q1021 NOSIG
ZBDS,2017-09-15 01:00,ZBDS 150100Z 17003MPS 1600 BR SCT003 SCT020 15/15 Q1021 NOSIG
ZBDS,2017-09-15 02:00,ZBDS 150200Z 16003MPS 1700 BR FEW005 SCT030 16/15 Q1022 NOSIG
ZBDS,2017-09-15 03:00,ZBDS 150300Z 17004MPS 2500 BR FEW007 SCT030 16/15 Q1022 NOSIG
ZBDS,2017-09-15 04:00,ZBDS 150400Z 14003MPS 110V170 3000 BR FEW010 SCT030 17/14 Q1021 NOSIG
ZBDS,2017-09-15 05:00,ZBDS 150500Z 15003MPS 110V210 4500 BR FEW010 SCT030 19/14 Q1021 NOSIG
ZBDS,2017-09-15 06:00,ZBDS 150600Z VRB03MPS 6000 SCT030 20/13 Q1020 NOSIG
ZBDS,2017-09-15 07:00,ZBDS 150700Z 16004MPS 130V190 6000 FEW030 20/14 Q1019 NOSIG
ZBDS,2017-09-15 08:00,ZBDS 150800Z 16004MPS 6000 FEW030 20/14 Q1019 NOSIG
ZBDS,2017-09-15 09:00,ZBDS 150900Z 17004MPS 4500 BR SCT030 19/14 Q1019 NOSIG
ZBDS,2017-09-15 10:00,ZBDS 151000Z 15004MPS 3000 BR SCT030 18/15 Q1019 NOSIG
ZBDS,2017-09-15 11:00,ZBDS 151100Z 16003MPS 2500 BR SCT030 17/16 Q1020 NOSIG
ZBDS,2017-09-15 12:00,ZBDS 151200Z 16004MPS 4000 BR SCT040 17/16 Q1020 NOSIG
ZBDS,2017-09-15 13:00,ZBDS 151300Z 17003MPS 5000 BR FEW040 16/16 Q1021 NOSIG
ZBDS,2017-09-15 14:00,ZBDS 151400Z 17003MPS 4000 BR NSC 15/15 Q1020 NOSIG
ZBDS,2017-09-15 15:00,ZBDS 151500Z 18002MPS 3000 BR NSC 15/15 Q1021 NOSIG
ZBDS,2017-09-15 16:00,ZBDS 151600Z 17002MPS 130V200 2500 BR NSC 15/15 Q1021 NOSIG
ZBDS,2017-09-15 17:00,ZBDS 151700Z VRB01MPS 3000 BR FEW040 15/15 Q1021 NOSIG
ZBDS,2017-09-15 18:00,ZBDS 151800Z 06001MPS 3000 BR NSC 14/14 Q1021 NOSIG
ZBDS,2017-09-15 19:00,ZBDS 151900Z 03001MPS 2000 BR NSC 14/14 Q1021 NOSIG
ZBDS,2017-09-15 20:00,ZBDS 152000Z 36003MPS 320V060 2000 BR FEW003 SCT030 15/15 Q1021 NOSIG
ZBDS,2017-09-15 21:00,ZBDS 152100Z 04004MPS 8000 SCT030 14/13 Q1020 NOSIG
ZBDS,2017-09-15 22:00,ZBDS 152200Z 02003MPS CAVOK 14/11 Q1021 NOSIG
ZBDS,2017-09-15 23:00,ZBDS 152300Z 35004MPS CAVOK 14/11 Q1022 NOSIG
ZBDS,2017-09-16 00:00,ZBDS 160000Z 03003MPS 360V060 CAVOK 15/11 Q1022 NOSIG
ZBDS,2017-09-16 01:00,ZBDS 160100Z 10003MPS CAVOK 16/11 Q1022 NOSIG
ZBDS,2017-09-16 02:00,ZBDS 160200Z 09003MPS 060V150 CAVOK 17/12 Q1022 NOSIG
ZBDS,2017-09-16 03:00,ZBDS 160300Z 12003MPS 080V170 CAVOK 19/12 Q1022 NOSIG
ZBDS,2017-09-16 04:00,ZBDS 160400Z 09004MPS 360V130 CAVOK 20/09 Q1022 NOSIG
ZBDS,2017-09-16 05:00,ZBDS 160500Z VRB02MPS CAVOK 22/10 Q1021 NOSIG
ZBDS,2017-09-16 06:00,ZBDS 160600Z VRB02MPS CAVOK 23/09 Q1021 NOSIG
ZBDS,2017-09-16 07:00,ZBDS 160700Z VRB02MPS 9999 SCT046 23/09 Q1020 NOSIG
ZBDS,2017-09-16 08:00,ZBDS 160800Z VRB01MPS 9999 SCT046 24/07 Q1019 NOSIG
ZBDS,2017-09-16 09:00,ZBDS 160900Z 07003MPS 030V120 9999 FEW040TCU SCT040 23/07 Q1019 NOSIG
ZBDS,2017-09-16 10:00,ZBDS 161000Z 03004MPS 9999 FEW040 21/06 Q1019 NOSIG
ZBDS,2017-09-16 11:00,ZBDS 161100Z 02004MPS 9999 FEW040 20/05 Q1020 NOSIG
ZBDS,2017-09-16 12:00,ZBDS 161200Z 05004MPS 9999 FEW040 18/05 Q1020 NOSIG
ZBDS,2017-09-16 13:00,ZBDS 161300Z 06004MPS 9999 FEW040 16/05 Q1021 NOSIG
ZBDS,2017-09-16 14:00,ZBDS 161400Z 05004MPS 9999 FEW040 16/04 Q1021 NOSIG
ZBDS,2017-09-16 15:00,ZBDS 161500Z 06003MPS CAVOK 15/03 Q1021 NOSIG
ZBDS,2017-09-16 16:00,ZBDS 161600Z 09002MPS 060V170 CAVOK 13/04 Q1021 NOSIG
ZBDS,2017-09-16 17:00,ZBDS 161700Z 12003MPS CAVOK 14/02 Q1020 NOSIG
ZBDS,2017-09-16 18:00,ZBDS 161800Z 11002MPS CAVOK 12/02 Q1020 NOSIG
ZBDS,2017-09-16 19:00,ZBDS 161900Z 09002MPS CAVOK 11/02 Q1020 NOSIG
ZBDS,2017-09-16 20:00,ZBDS 162000Z 02001MPS CAVOK 12/03 Q1019 NOSIG
ZBDS,2017-09-16 21:00,ZBDS 162100Z 04003MPS CAVOK 10/02 Q1019 NOSIG
ZBDS,2017-09-16 22:00,ZBDS 162200Z 00000MPS CAVOK 10/01 Q1019 NOSIG
ZBDS,2017-09-16 23:00,ZBDS 162300Z 03001MPS CAVOK 11/03 Q1019 NOSIG
ZBDS,2017-09-17 00:00,ZBDS 170000Z VRB01MPS CAVOK 14/01 Q1019 NOSIG
ZBDS,2017-09-17 01:00,ZBDS 170100Z 13002MPS 100V160 CAVOK 17/M01 Q1020 NOSIG
ZBDS,2017-09-17 02:00,ZBDS 170200Z 18003MPS 140V220 CAVOK 18/02 Q1020 NOSIG
ZBDS,2017-09-17 03:00,ZBDS 170300Z VRB02MPS CAVOK 20/04 Q1020 NOSIG
ZBDS,2017-09-17 04:00,ZBDS 170400Z VRB02MPS CAVOK 21/08 Q1019 NOSIG
ZBDS,2017-09-17 06:00,ZBDS 170600Z 07004MPS 9999 TS FEW040CB SCT040 21/09 Q1017 NOSIG
ZBDS,2017-09-17 07:00,ZBDS 170700Z 29007MPS 9999 -TSRA FEW040CB SCT040 14/12 Q1018 BECMG TL0840 NSW
ZBDS,2017-09-17 08:00,ZBDS 170800Z 18002MPS 150V240 9999 FEW040 16/11 Q1017 RETS NOSIG
ZBDS,2017-09-17 09:00,ZBDS 170900Z 18004MPS 9999 FEW040 16/13 Q1017 NOSIG
ZBDS,2017-09-17 10:00,ZBDS 171000Z 21003MPS 9999 FEW040 17/12 Q1016 NOSIG
ZBDS,2017-09-17 11:00,ZBDS 171100Z 19002MPS 160V220 9999 FEW040 15/11 Q1016 NOSIG
ZBDS,2017-09-17 12:00,ZBDS 171200Z 17004MPS 9999 FEW040 15/11 Q1017 NOSIG
ZBDS,2017-09-17 13:00,ZBDS 171300Z 15002MPS 9999 FEW040 13/11 Q1017 NOSIG
ZBDS,2017-09-17 14:00,ZBDS 171400Z 20003MPS CAVOK 12/12 Q1017 NOSIG
ZBDS,2017-09-17 15:00,ZBDS 171500Z 18001MPS CAVOK 12/12 Q1017 NOSIG
ZBDS,2017-09-17 16:00,ZBDS 171600Z 23001MPS CAVOK 12/11 Q1017 NOSIG
ZBDS,2017-09-17 17:00,ZBDS 171700Z 23002MPS CAVOK 12/11 Q1017 NOSIG
ZBDS,2017-09-17 18:00,ZBDS 171800Z 23002MPS CAVOK 12/11 Q1016 NOSIG
ZBDS,2017-09-17 19:00,ZBDS 171900Z 21003MPS CAVOK 12/11 Q1016 NOSIG
ZBDS,2017-09-17 20:00,ZBDS 172000Z 26003MPS CAVOK 12/10 Q1015 NOSIG
ZBDS,2017-09-17 21:00,ZBDS 172100Z 29004MPS CAVOK 11/11 Q1015 NOSIG
ZBDS,2017-09-17 22:00,ZBDS 172200Z 31003MPS 8000 NSC 11/11 Q1016 NOSIG
ZBDS,2017-09-17 23:00,ZBDS 172300Z 30004MPS 5000 BR NSC 11/11 Q1016 NOSIG
ZBDS,2017-09-18 00:00,ZBDS 180000Z 31003MPS CAVOK 13/11 Q1016 NOSIG
ZBDS,2017-09-18 01:00,ZBDS 180100Z 31003MPS CAVOK 16/10 Q1016 NOSIG
ZBDS,2017-09-18 02:00,ZBDS 180200Z 29004MPS CAVOK 20/09 Q1017 NOSIG
ZBDS,2017-09-18 03:00,ZBDS 180300Z 30004MPS 240V330 CAVOK 23/06 Q1017 NOSIG
ZBDS,2017-09-18 04:00,ZBDS 180400Z 29005MPS 260V330 CAVOK 24/02 Q1016 NOSIG
ZBDS,2017-09-18 05:00,ZBDS 180500Z 31006MPS 280V340 9999 SCT040 25/02 Q1016 NOSIG
ZBDS,2017-09-18 06:00,ZBDS 180600Z 33006MPS 9999 SCT040 25/01 Q1015 NOSIG
ZBDS,2017-09-18 07:00,ZBDS 180700Z 32006MPS 270V340 9999 SCT040 26/01 Q1015 NOSIG
ZBDS,2017-09-18 08:00,ZBDS 180800Z 36006MPS 9999 SCT040 25/00 Q1015 NOSIG
ZBDS,2017-09-18 09:00,ZBDS 180900Z 01006MPS 330V040 9999 SCT040 24/M01 Q1015 NOSIG
ZBDS,2017-09-18 10:00,ZBDS 181000Z 35005MPS 9999 FEW046 23/00 Q1015 NOSIG
ZBDS,2017-09-18 11:00,ZBDS 181100Z 36005MPS CAVOK 21/00 Q1016 NOSIG
ZBDS,2017-09-18 12:00,ZBDS 181200Z 36004MPS 300V040 CAVOK 20/M01 Q1016 NOSIG
ZBDS,2017-09-18 13:00,ZBDS 181300Z 36004MPS CAVOK 19/M01 Q1017 NOSIG
ZBDS,2017-09-18 14:00,ZBDS 181400Z 35004MPS CAVOK 19/M01 Q1017 NOSIG
ZBDS,2017-09-18 15:00,ZBDS 181500Z 35005MPS CAVOK 18/M01 Q1017 NOSIG
ZBDS,2017-09-18 16:00,ZBDS 181600Z 01004MPS CAVOK 17/M01 Q1018 NOSIG
ZBDS,2017-09-18 17:00,ZBDS 181700Z 02004MPS CAVOK 15/M01 Q1018 NOSIG
ZBDS,2017-09-18 18:00,ZBDS 181800Z 02003MPS CAVOK 12/M00 Q1018 NOSIG
ZBDS,2017-09-18 19:00,ZBDS 181900Z 03003MPS CAVOK 12/M00 Q1019 NOSIG
ZBDS,2017-09-18 20:00,ZBDS 182000Z 30002MPS CAVOK 12/M01 Q1019 NOSIG
ZBDS,2017-09-18 21:00,ZBDS 182100Z 32002MPS CAVOK 12/01 Q1018 NOSIG
ZBDS,2017-09-18 22:00,ZBDS 182200Z 33002MPS CAVOK 12/00 Q1019 NOSIG
ZBDS,2017-09-18 23:00,ZBDS 182300Z 32002MPS CAVOK 11/02 Q1019 NOSIG
ZBDS,2017-09-19 00:00,ZBDS 190000Z 36002MPS CAVOK 15/01 Q1020 NOSIG
ZBDS,2017-09-19 01:00,ZBDS 190100Z 03003MPS CAVOK 17/01 Q1020 NOSIG
ZBDS,2017-09-19 03:00,ZBDS 190300Z 36003MPS 320V040 CAVOK 21/01 Q1021 NOSIG
ZBDS,2017-09-19 04:00,ZBDS 190400Z 01004MPS 310V080 CAVOK 21/M02 Q1020 NOSIG
ZBDS,2017-09-19 05:00,ZBDS 190500Z 01005MPS 310V070 CAVOK 23/M01 Q1019 NOSIG
ZBDS,2017-09-19 06:00,ZBDS 190600Z 35005MPS 310V030 CAVOK 23/M04 Q1019 NOSIG
ZBDS,2017-09-19 07:00,ZBDS 190700Z 01006MPS CAVOK 24/M06 Q1019 NOSIG
ZBDS,2017-09-19 08:00,ZBDS 190800Z 34004MPS 300V020 CAVOK 24/M06 Q1018 NOSIG
ZBDS,2017-09-19 09:00,ZBDS 190900Z 01004MPS CAVOK 23/M07 Q1018 NOSIG
ZBDS,2017-09-19 10:00,ZBDS 191000Z 05003MPS CAVOK 21/M02 Q1018 NOSIG
ZBDS,2017-09-19 12:00,ZBDS 191200Z 07003MPS 340V100 CAVOK 18/M03 Q1019 NOSIG
ZBDS,2017-09-19 13:00,ZBDS 191300Z 09003MPS CAVOK 17/M03 Q1020 NOSIG
ZBDS,2017-09-19 14:00,ZBDS 191400Z 13002MPS CAVOK 16/M03 Q1020 NOSIG
ZBDS,2017-09-19 15:00,ZBDS 191500Z 15003MPS CAVOK 16/M05 Q1020 NOSIG
ZBDS,2017-09-19 16:00,ZBDS 191600Z 18003MPS CAVOK 15/M04 Q1020 NOSIG
ZBDS,2017-09-19 17:00,ZBDS 191700Z 21001MPS CAVOK 15/M04 Q1020 NOSIG
ZBDS,2017-09-19 18:00,ZBDS 191800Z 06002MPS CAVOK 12/M01 Q1020 NOSIG
ZBDS,2017-09-19 19:00,ZBDS 191900Z 28001MPS CAVOK 13/M02 Q1020 NOSIG
ZBDS,2017-09-19 20:00,ZBDS 192000Z 14002MPS CAVOK 12/02 Q1019 NOSIG
ZBDS,2017-09-19 21:00,ZBDS 192100Z 26003MPS 220V300 CAVOK 08/01 Q1019 NOSIG
ZBDS,2017-09-19 22:00,ZBDS 192200Z 00000MPS CAVOK 10/01 Q1019 NOSIG
ZBDS,2017-09-19 23:00,ZBDS 192300Z 16003MPS CAVOK 11/03 Q1019 NOSIG
ZBDS,2017-09-20 00:00,ZBDS 200000Z 18002MPS CAVOK 15/05 Q1019 NOSIG
ZBDS,2017-09-20 01:00,ZBDS 200100Z 20003MPS 170V230 CAVOK 19/06 Q1019 NOSIG
ZBDS,2017-09-20 02:00,ZBDS 200200Z 20004MPS 170V230 CAVOK 21/05 Q1020 NOSIG
ZBDS,2017-09-20 03:00,ZBDS 200300Z 22005MPS CAVOK 23/05 Q1019 NOSIG
ZBDS,2017-09-20 04:00,ZBDS 200400Z 22005MPS 170V250 CAVOK 24/05 Q1018 NOSIG
ZBDS,2017-09-20 05:00,ZBDS 200500Z 24005MPS 200V270 CAVOK 24/05 Q1018 NOSIG
ZBDS,2017-09-20 06:00,ZBDS 200600Z 25005MPS 220V280 CAVOK 25/04 Q1017 NOSIG
ZBDS,2017-09-20 07:00,ZBDS 200700Z 23005MPS 190V260 9999 SCT040 25/04 Q1016 NOSIG
ZBDS,2017-09-20 08:00,ZBDS 200800Z 22004MPS 180V270 9999 SCT040 25/03 Q1016 NOSIG
ZBDS,2017-09-20 09:00,ZBDS 200900Z 22005G10MPS CAVOK 24/03 Q1015 NOSIG
ZBDS,2017-09-20 10:00,ZBDS 201000Z 21004MPS CAVOK 22/03 Q1015 NOSIG
ZBDS,2017-09-20 11:00,ZBDS 201100Z 21003MPS CAVOK 20/03 Q1015 NOSIG
ZBDS,2017-09-20 12:00,ZBDS 201200Z 20004MPS CAVOK 18/04 Q1016 NOSIG
ZBDS,2017-09-20 13:00,ZBDS 201300Z 20005MPS CAVOK 18/07 Q1016 NOSIG
ZBDS,2017-09-20 14:00,ZBDS 201400Z 20005MPS CAVOK 17/08 Q1016 NOSIG
ZBDS,2017-09-20 15:00,ZBDS 201500Z 21005MPS CAVOK 17/08 Q1016 NOSIG
ZBDS,2017-09-20 16:00,ZBDS 201600Z 21005MPS CAVOK 16/07 Q1015 NOSIG
ZBDS,2017-09-20 17:00,ZBDS 201700Z 20004MPS CAVOK 16/07 Q1015 NOSIG
ZBDS,2017-09-20 18:00,ZBDS 201800Z 21004MPS CAVOK 15/07 Q1015 NOSIG
ZBDS,2017-09-20 19:00,ZBDS 201900Z 22005MPS CAVOK 16/08 Q1015 NOSIG
ZBDS,2017-09-20 20:00,ZBDS 202000Z 22005MPS 9999 FEW040 15/09 Q1014 NOSIG
ZBDS,2017-09-20 21:00,ZBDS 202100Z 23003MPS 9999 FEW040 16/10 Q1014 NOSIG
ZBDS,2017-09-20 22:00,ZBDS 202200Z 25002MPS 9999 FEW040 14/10 Q1014 NOSIG
ZBDS,2017-09-20 23:00,ZBDS 202300Z 20003MPS 170V230 CAVOK 13/09 Q1014 NOSIG
ZBDS,2017-09-21 00:00,ZBDS 210000Z 18004MPS CAVOK 16/10 Q1014 NOSIG
ZBDS,2017-09-21 01:00,ZBDS 210100Z 19003MPS 160V220 CAVOK 18/11 Q1014 NOSIG
ZBDS,2017-09-21 02:00,ZBDS 210200Z 18002MPS 140V220 9999 FEW040 20/10 Q1014 NOSIG
ZBDS,2017-09-21 03:00,ZBDS 210300Z 20005MPS 170V230 9999 FEW040 20/11 Q1014 NOSIG
ZBDS,2017-09-21 04:00,ZBDS 210400Z 22006MPS 9999 FEW040TCU FEW040 23/09 Q1013 NOSIG
ZBDS,2017-09-21 05:00,ZBDS 210500Z 26006MPS 9999 FEW040CB SCT040 22/09 Q1012 NOSIG
ZBDS,2017-09-21 06:00,ZBDS 210600Z 29009MPS 9999 TS FEW040CB SCT040 25/00 Q1011 RESHRA NOSIG
ZBDS,2017-09-21 07:00,ZBDS 210700Z 30012MPS 9999 SCT040 24/M02 Q1011 RETS NOSIG
ZBDS,2017-09-21 08:00,ZBDS 210800Z 30010G15MPS CAVOK 23/M03 Q1012 NOSIG
ZBDS,2017-09-21 09:00,ZBDS 210900Z 30011MPS CAVOK 22/M05 Q1012 NOSIG
ZBDS,2017-09-21 10:00,ZBDS 211000Z 31009G14MPS CAVOK 20/M07 Q1013 NOSIG
ZBDS,2017-09-21 11:00,ZBDS 211100Z 32009G14MPS CAVOK 18/M09 Q1013 NOSIG
ZBDS,2017-09-21 12:00,ZBDS 211200Z 32007MPS CAVOK 16/M09 Q1014 NOSIG
ZBDS,2017-09-21 13:00,ZBDS 211300Z 31007MPS CAVOK 15/M08 Q1015 NOSIG
ZBDS,2017-09-21 14:00,ZBDS 211400Z 30006MPS CAVOK 13/M07 Q1015 NOSIG
ZBDS,2017-09-21 15:00,ZBDS 211500Z 31005MPS CAVOK 12/M07 Q1015 NOSIG
ZBDS,2017-09-21 16:00,ZBDS 211600Z 31004MPS CAVOK 10/M06 Q1016 NOSIG
ZBDS,2017-09-21 17:00,ZBDS 211700Z 30004MPS CAVOK 08/M04 Q1016 NOSIG
ZBDS,2017-09-21 18:00,ZBDS 211800Z 30004MPS CAVOK 08/M04 Q1016 NOSIG
ZBDS,2017-09-21 19:00,ZBDS 211900Z 30003MPS CAVOK 07/M05 Q1017 NOSIG
ZBDS,2017-09-21 20:00,ZBDS 212000Z 30003MPS CAVOK 07/M05 Q1017 NOSIG
ZBDS,2017-09-21 21:00,ZBDS 212100Z 30003MPS CAVOK 05/M05 Q1017 NOSIG
ZBDS,2017-09-21 22:00,ZBDS 212200Z 29003MPS CAVOK 05/M05 Q1017 NOSIG
ZBDS,2017-09-21 23:00,ZBDS 212300Z 29002MPS CAVOK 07/M07 Q1018 NOSIG
ZBDS,2017-09-22 00:00,ZBDS 220000Z 32002MPS CAVOK 09/M04 Q1018 NOSIG
ZBDS,2017-09-22 01:00,ZBDS 220100Z 31002MPS 260V350 CAVOK 13/M06 Q1019 NOSIG
ZBDS,2017-09-22 02:00,ZBDS 220200Z 29002MPS 210V340 CAVOK 15/M08 Q1019 NOSIG
ZBDS,2017-09-22 03:00,ZBDS 220300Z 32004MPS CAVOK 17/M09 Q1019 NOSIG
ZBDS,2017-09-22 04:00,ZBDS 220400Z 26003MPS 200V330 CAVOK 18/M10 Q1018 NOSIG
ZBDS,2017-09-22 06:00,ZBDS 220600Z VRB03MPS CAVOK 20/M08 Q1016 NOSIG
ZBDS,2017-09-22 07:00,ZBDS 220700Z 26005MPS 220V290 CAVOK 20/M10 Q1016 NOSIG
ZBDS,2017-09-22 08:00,ZBDS 220800Z 27005MPS 220V300 CAVOK 21/M09 Q1015 NOSIG
ZBDS,2017-09-22 09:00,ZBDS 220900Z 26005MPS 220V280 CAVOK 20/M07 Q1015 NOSIG
ZBDS,2017-09-22 10:00,ZBDS 221000Z 23004MPS CAVOK 19/M06 Q1015 NOSIG
ZBDS,2017-09-22 11:00,ZBDS 221100Z 20003MPS CAVOK 16/M04 Q1015 NOSIG
ZBDS,2017-09-22 12:00,ZBDS 221200Z 21004MPS CAVOK 15/M03 Q1015 NOSIG
ZBDS,2017-09-22 13:00,ZBDS 221300Z 21004MPS CAVOK 14/M03 Q1016 NOSIG
ZBDS,2017-09-22 14:00,ZBDS 221400Z 20005MPS CAVOK 13/M02 Q1016 NOSIG
ZBDS,2017-09-22 15:00,ZBDS 221500Z 20005MPS CAVOK 13/M01 Q1016 NOSIG
ZBDS,2017-09-22 16:00,ZBDS 221600Z 19004MPS CAVOK 12/00 Q1016 NOSIG
ZBDS,2017-09-22 17:00,ZBDS 221700Z 17005MPS CAVOK 12/01 Q1015 NOSIG
ZBDS,2017-09-22 18:00,ZBDS 221800Z 18005MPS CAVOK 11/03 Q1015 NOSIG
ZBDS,2017-09-22 19:00,ZBDS 221900Z 18003MPS CAVOK 11/03 Q1015 NOSIG
ZBDS,2017-09-22 20:00,ZBDS 222000Z 18004MPS CAVOK 11/04 Q1015 NOSIG
ZBDS,2017-09-22 21:00,ZBDS 222100Z 18004MPS CAVOK 10/04 Q1015 NOSIG
ZBDS,2017-09-22 22:00,ZBDS 222200Z 18004MPS 9999 FEW040 11/05 Q1015 NOSIG
ZBDS,2017-09-22 23:00,ZBDS 222300Z 19004MPS CAVOK 10/05 Q1015 NOSIG
ZBDS,2017-09-23 00:00,ZBDS 230000Z 20004MPS CAVOK 12/06 Q1016 NOSIG
ZBDS,2017-09-23 01:00,ZBDS 230100Z 22005MPS CAVOK 15/06 Q1016 NOSIG
ZBDS,2017-09-23 02:00,ZBDS 230200Z 23005MPS 190V280 CAVOK 18/08 Q1016 NOSIG
ZBDS,2017-09-23 03:00,ZBDS 230300Z 25004MPS 220V290 CAVOK 21/08 Q1016 NOSIG
ZBDS,2017-09-23 04:00,ZBDS 230400Z 22004MPS 170V260 CAVOK 22/08 Q1015 NOSIG
ZBDS,2017-09-23 05:00,ZBDS 230500Z 24004MPS 170V330 CAVOK 24/01 Q1015 NOSIG
ZBDS,2017-09-23 06:00,ZBDS 230600Z 25004MPS 200V290 9999 FEW040 25/M02 Q1014 NOSIG
ZBDS,2017-09-23 07:00,ZBDS 230700Z 25005MPS 220V300 9999 FEW040 25/M00 Q1014 NOSIG
ZBDS,2017-09-23 08:00,ZBDS 230800Z 23005MPS 200V260 9999 FEW040 25/02 Q1013 NOSIG
ZBDS,2017-09-23 09:00,ZBDS 230900Z 24004MPS 210V280 9999 FEW040 25/01 Q1013 NOSIG
ZBDS,2017-09-23 10:00,ZBDS 231000Z 24003MPS 9999 FEW040 24/02 Q1013 NOSIG
ZBDS,2017-09-23 11:00,ZBDS 231100Z 22003MPS 9999 FEW040 20/04 Q1014 NOSIG
ZBDS,2017-09-23 12:00,ZBDS 231200Z 27004MPS CAVOK 19/05 Q1014 NOSIG
ZBDS,2017-09-23 13:00,ZBDS 231300Z 30003MPS CAVOK 16/05 Q1015 NOSIG
ZBDS,2017-09-23 14:00,ZBDS 231400Z 18002MPS 130V200 CAVOK 15/05 Q1015 NOSIG
ZBDS,2017-09-23 15:00,ZBDS 231500Z 19002MPS CAVOK 16/05 Q1015 NOSIG
ZBDS,2017-09-23 16:00,ZBDS 231600Z 21003MPS CAVOK 15/08 Q1016 NOSIG
ZBDS,2017-09-23 17:00,ZBDS 231700Z VRB01MPS CAVOK 15/09 Q1015 NOSIG
ZBDS,2017-09-23 18:00,ZBDS 231800Z VRB01MPS CAVOK 14/10 Q1016 NOSIG
ZBDS,2017-09-23 19:00,ZBDS 231900Z 31002MPS CAVOK 14/09 Q1016 NOSIG
ZBDS,2017-09-23 20:00,ZBDS 232000Z 05003MPS CAVOK 11/07 Q1015 NOSIG
ZBDS,2017-09-23 21:00,ZBDS 232100Z 11002MPS CAVOK 13/09 Q1015 NOSIG
ZBDS,2017-09-23 22:00,ZBDS 232200Z 16003MPS CAVOK 13/11 Q1015 NOSIG
ZBDS,2017-09-23 23:00,ZBDS 232300Z 18002MPS 8000 NSC 13/12 Q1015 NOSIG
ZBDS,2017-09-24 00:00,ZBDS 240000Z 16003MPS 8000 NSC 15/13 Q1016 NOSIG
ZBDS,2017-09-24 01:00,ZBDS 240100Z 18002MPS 150V210 8000 NSC 17/13 Q1016 NOSIG
ZBDS,2017-09-24 02:00,ZBDS 240200Z 13002MPS 100V170 CAVOK 20/13 Q1016 NOSIG
ZBDS,2017-09-24 03:00,ZBDS 240300Z 14003MPS 090V190 CAVOK 22/13 Q1016 NOSIG
ZBDS,2017-09-24 04:00,ZBDS 240400Z 17005MPS 130V190 CAVOK 23/13 Q1015 NOSIG
ZBDS,2017-09-24 05:00,ZBDS 240500Z 19004MPS 130V240 9999 FEW040 24/12 Q1015 NOSIG
ZBDS,2017-09-24 06:00,ZBDS 240600Z 18005MPS 150V220 9999 SCT040 24/11 Q1014 NOSIG
ZBDS,2017-09-24 07:00,ZBDS 240700Z 21006MPS 180V240 9999 FEW040CB SCT040 26/10 Q1013 NOSIG
ZBDS,2017-09-24 08:00,ZBDS 240800Z 20004MPS 170V230 9999 SCT040 25/09 Q1013 NOSIG
ZBDS,2017-09-24 09:00,ZBDS 240900Z 10005MPS 9999 FEW040CB SCT040 22/09 Q1013 NOSIG
ZBDS,2017-09-24 10:00,ZBDS 241000Z 07004MPS 9999 FEW040CB SCT040 20/09 Q1014 NOSIG
ZBDS,2017-09-24 12:00,ZBDS 241200Z 05003MPS 9999 SCT040 17/09 Q1015 RETS NOSIG
ZBDS,2017-09-24 13:00,ZBDS 241300Z 12003MPS 9999 FEW040 17/09 Q1015 NOSIG
ZBDS,2017-09-24 14:00,ZBDS 241400Z 15003MPS 9999 FEW040 16/09 Q1015 NOSIG
ZBDS,2017-09-24 15:00,ZBDS 241500Z 14003MPS 9999 FEW040 16/09 Q1015 NOSIG
ZBDS,2017-09-24 17:00,ZBDS 241700Z 17003MPS 9999 FEW040 15/09 Q1015 NOSIG
ZBDS,2017-09-24 18:00,ZBDS 241800Z 19003MPS CAVOK 15/10 Q1015 NOSIG
ZBDS,2017-09-24 19:00,ZBDS 241900Z 21003MPS CAVOK 14/10 Q1015 NOSIG
ZBDS,2017-09-24 20:00,ZBDS 242000Z 20003MPS 9999 FEW040 15/10 Q1014 NOSIG
ZBDS,2017-09-24 21:00,ZBDS 242100Z 20003MPS 9999 FEW040 15/10 Q1015 NOSIG
ZBDS,2017-09-24 22:00,ZBDS 242200Z 22003MPS 9999 FEW040 14/10 Q1015 NOSIG
ZBDS,2017-09-24 23:00,ZBDS 242300Z 07002MPS 9999 SCT040 14/10 Q1016 NOSIG
ZBDS,2017-09-25 00:00,ZBDS 250000Z 09003MPS 9999 FEW040 16/10 Q1016 NOSIG
ZBDS,2017-09-25 01:00,ZBDS 250100Z 15005MPS CAVOK 18/11 Q1015 NOSIG
ZBDS,2017-09-25 02:00,ZBDS 250200Z 19005MPS CAVOK 19/12 Q1015 NOSIG
ZBDS,2017-09-25 03:00,ZBDS 250300Z 20006MPS CAVOK 22/11 Q1015 NOSIG
ZBDS,2017-09-25 04:00,ZBDS 250400Z 21005MPS 170V260 CAVOK 23/11 Q1015 NOSIG
ZBDS,2017-09-25 05:00,ZBDS 250500Z 22004MPS 170V250 9999 FEW040 24/10 Q1014 NOSIG
ZBDS,2017-09-25 06:00,ZBDS 250600Z 18004MPS 140V230 9999 FEW040 26/11 Q1013 NOSIG
ZBDS,2017-09-25 07:00,ZBDS 250700Z 22003MPS 160V300 9999 SCT040 26/09 Q1013 NOSIG
ZBDS,2017-09-25 08:00,ZBDS 250800Z 18005MPS 150V220 9999 FEW040CB SCT040 25/10 Q1012 BECMG -TSRA
ZBDS,2017-09-25 09:00,ZBDS 250900Z 31006MPS 280V340 9999 -TSRA FEW040CB SCT040 21/10 Q1014 NOSIG
ZBDS,2017-09-25 10:00,ZBDS 251000Z VRB01MPS 9999 -TSRA FEW040CB SCT040 18/12 Q1014 NOSIG
ZBDS,2017-09-25 11:00,ZBDS 251100Z 08004MPS 9999 -SHRA FEW040CB SCT040 16/15 Q1014 RETS NOSIG
ZBDS,2017-09-25 12:00,ZBDS 251200Z 11004MPS 9999 -TSRA FEW040CB SCT040 15/14 Q1014 NOSIG
ZBDS,2017-09-25 14:00,ZBDS 251400Z 29005MPS 270V330 2000 +TSRA BR FEW001 FEW030CB SCT040 14/14 Q1017 NOSIG
ZBDS,2017-09-25 15:00,ZBDS 251500Z 36005MPS 6000 TSRA FEW030CB SCT040 13/13 Q1017 NOSIG
ZBDS,2017-09-25 17:00,ZBDS 251700Z 01003MPS 9999 -SHRA FEW040CB SCT040 13/13 Q1016 NOSIG
ZBDS,2017-09-25 18:00,ZBDS 251800Z 02007MPS 9999 -SHRA FEW040CB SCT040 13/13 Q1017 NOSIG
ZBDS,2017-09-25 19:00,ZBDS 251900Z 36009MPS 8000 -SHRA FEW004 FEW040CB SCT040 12/12 Q1018 NOSIG
ZBDS,2017-09-25 20:00,ZBDS 252000Z 02005MPS 9999 -SHRA FEW030CB SCT030 12/11 Q1018 NOSIG
ZBDS,2017-09-25 21:00,ZBDS 252100Z 12004MPS 090V150 9999 -SHRA FEW003 FEW030CB SCT030 12/12 Q1019 NOSIG
ZBDS,2017-09-25 22:00,ZBDS 252200Z 12004MPS 9999 -SHRA FEW030CB SCT030 11/11 Q1019 NOSIG
ZBDS,2017-09-25 23:00,ZBDS 252300Z 14001MPS 9999 FEW004 SCT040 11/11 Q1019 NOSIG
ZBDS,2017-09-26 02:00,ZBDS 260200Z VRB01MPS 9999 FEW007 SCT030 13/11 Q1021 NOSIG
ZBDS,2017-09-26 03:00,ZBDS 260300Z 02002MPS 310V080 9999 FEW015 SCT030 14/10 Q1020 NOSIG
ZBDS,2017-09-26 04:00,ZBDS 260400Z 35003MPS 280V050 9999 FEW020 SCT040 16/10 Q1021 NOSIG
ZBDS,2017-09-26 05:00,ZBDS 260500Z 02003MPS 310V070 9999 FEW040 17/09 Q1020 NOSIG
ZBDS,2017-09-26 06:00,ZBDS 260600Z 36004MPS 320V050 9999 SCT040 18/07 Q1020 NOSIG
ZBDS,2017-09-26 07:00,ZBDS 260700Z 35003MPS 310V020 9999 SCT040 18/06 Q1019 NOSIG
ZBDS,2017-09-26 08:00,ZBDS 260800Z 36003MPS 330V060 9999 SCT040 18/05 Q1019 NOSIG
ZBDS,2017-09-26 09:00,ZBDS 260900Z 36004MPS 330V040 9999 FEW040 18/05 Q1019 NOSIG
ZBDS,2017-09-26 10:00,ZBDS 261000Z 03003MPS 9999 FEW040 17/06 Q1019 NOSIG
ZBDS,2017-09-26 11:00,ZBDS 261100Z 02002MPS 9999 SCT040 16/06 Q1020 NOSIG
ZBDS,2017-09-26 12:00,ZBDS 261200Z 06003MPS 9999 SCT040 15/07 Q1021 NOSIG
ZBDS,2017-09-26 13:00,ZBDS 261300Z 13002MPS CAVOK 14/08 Q1021 NOSIG
ZBDS,2017-09-26 14:00,ZBDS 261400Z 16002MPS CAVOK 14/10 Q1021 NOSIG
ZBDS,2017-09-26 15:00,ZBDS 261500Z 19002MPS CAVOK 13/09 Q1021 NOSIG
ZBDS,2017-09-26 16:00,ZBDS 261600Z 29002MPS 250V310 CAVOK 12/10 Q1021 NOSIG
ZBDS,2017-09-26 17:00,ZBDS 261700Z 30002MPS CAVOK 12/09 Q1021 NOSIG
ZBDS,2017-09-26 18:00,ZBDS 261800Z 27002MPS CAVOK 13/09 Q1020 NOSIG
ZBDS,2017-09-26 19:00,ZBDS 261900Z 29003MPS CAVOK 12/09 Q1020 NOSIG
ZBDS,2017-09-26 20:00,ZBDS 262000Z 29003MPS CAVOK 12/09 Q1020 NOSIG
ZBDS,2017-09-26 21:00,ZBDS 262100Z 29002MPS CAVOK 11/09 Q1020 NOSIG
ZBDS,2017-09-26 22:00,ZBDS 262200Z 26002MPS CAVOK 11/09 Q1020 NOSIG
ZBDS,2017-09-26 23:00,ZBDS 262300Z 26003MPS CAVOK 10/08 Q1020 NOSIG
ZBDS,2017-09-27 00:00,ZBDS 270000Z 29003MPS CAVOK 11/08 Q1020 NOSIG
ZBDS,2017-09-27 01:00,ZBDS 270100Z 31004MPS CAVOK 14/04 Q1021 NOSIG
ZBDS,2017-09-27 02:00,ZBDS 270200Z 32005MPS CAVOK 16/M04 Q1021 NOSIG
ZBDS,2017-09-27 03:00,ZBDS 270300Z 31006MPS 280V350 CAVOK 17/M04 Q1021 NOSIG
ZBDS,2017-09-27 04:00,ZBDS 270400Z 33007MPS 300V360 CAVOK 17/M03 Q1021 NOSIG
ZBDS,2017-09-27 05:00,ZBDS 270500Z 33008MPS CAVOK 18/M05 Q1021 NOSIG
ZBDS,2017-09-27 06:00,ZBDS 270600Z 34009MPS CAVOK 17/M07 Q1021 NOSIG
ZBDS,2017-09-27 07:00,ZBDS 270700Z 34009MPS CAVOK 17/M08 Q1021 NOSIG
ZBDS,2017-09-27 08:00,ZBDS 270800Z 36007MPS 330V030 CAVOK 17/M09 Q1020 NOSIG
ZBDS,2017-09-27 09:00,ZBDS 270900Z 33008MPS CAVOK 16/M09 Q1021 NOSIG
ZBDS,2017-09-27 10:00,ZBDS 271000Z 35006MPS CAVOK 14/M08 Q1021 NOSIG
ZBDS,2017-09-27 11:00,ZBDS 271100Z 36004MPS CAVOK 12/M07 Q1021 NOSIG
ZBDS,2017-09-27 12:00,ZBDS 271200Z 01003MPS CAVOK 10/M06 Q1021 NOSIG
ZBDS,2017-09-27 13:00,ZBDS 271300Z 35003MPS CAVOK 10/M05 Q1022 NOSIG
ZBDS,2017-09-27 14:00,ZBDS 271400Z 36003MPS CAVOK 09/M05 Q1022 NOSIG
ZBDS,2017-09-27 15:00,ZBDS 271500Z 01004MPS CAVOK 08/M06 Q1022 NOSIG
ZBDS,2017-09-27 16:00,ZBDS 271600Z 04004MPS CAVOK 05/M04 Q1022 NOSIG
ZBDS,2017-09-27 17:00,ZBDS 271700Z 02003MPS CAVOK 05/M06 Q1023 NOSIG
ZBDS,2017-09-27 18:00,ZBDS 271800Z VRB01MPS CAVOK 05/M08 Q1023 NOSIG
ZBDS,2017-09-27 19:00,ZBDS 271900Z 00000MPS CAVOK 05/M08 Q1022 NOSIG
ZBDS,2017-09-27 20:00,ZBDS 272000Z 00000MPS CAVOK 04/M07 Q1022 NOSIG
ZBDS,2017-09-27 21:00,ZBDS 272100Z 13002MPS CAVOK 03/M06 Q1022 NOSIG
ZBDS,2017-09-27 22:00,ZBDS 272200Z 11002MPS CAVOK 02/M06 Q1022 NOSIG
ZBDS,2017-09-27 23:00,ZBDS 272300Z 00000MPS CAVOK 03/M09 Q1022 NOSIG
ZBDS,2017-09-28 00:00,ZBDS 280000Z 18002MPS 150V210 CAVOK 06/M06 Q1022 NOSIG
ZBDS,2017-09-28 01:00,ZBDS 280100Z 19003MPS 160V240 CAVOK 08/M06 Q1022 NOSIG
ZBDS,2017-09-28 02:00,ZBDS 280200Z 19003MPS 150V220 CAVOK 11/M06 Q1022 NOSIG
ZBDS,2017-09-28 03:00,ZBDS 280300Z 23003MPS 170V280 CAVOK 12/M10 Q1021 NOSIG
ZBDS,2017-09-28 04:00,ZBDS 280400Z 22003MPS 140V270 CAVOK 13/M09 Q1020 NOSIG
ZBDS,2017-09-28 05:00,ZBDS 280500Z 25003MPS 180V300 CAVOK 15/M09 Q1020 NOSIG
ZBDS,2017-09-28 06:00,ZBDS 280600Z 27004MPS 230V310 CAVOK 16/M08 Q1018 NOSIG
ZBDS,2017-09-28 07:00,ZBDS 280700Z 29006MPS 260V320 CAVOK 17/M06 Q1018 NOSIG
ZBDS,2017-09-28 08:00,ZBDS 280800Z 26005MPS CAVOK 16/M08 Q1017 NOSIG
ZBDS,2017-09-28 09:00,ZBDS 280900Z 26003MPS 230V290 CAVOK 16/M07 Q1017 NOSIG
ZBDS,2017-09-28 10:00,ZBDS 281000Z 25002MPS 220V280 CAVOK 15/M03 Q1016 NOSIG
ZBDS,2017-09-28 11:00,ZBDS 281100Z 22003MPS CAVOK 12/M02 Q1016 NOSIG
ZBDS,2017-09-28 12:00,ZBDS 281200Z 20003MPS CAVOK 11/M01 Q1016 NOSIG
ZBDS,2017-09-28 13:00,ZBDS 281300Z 22004MPS CAVOK 11/M03 Q1017 NOSIG
ZBDS,2017-09-28 14:00,ZBDS 281400Z 24002MPS CAVOK 10/M03 Q1017 NOSIG
ZBDS,2017-09-28 15:00,ZBDS 281500Z 25002MPS CAVOK 09/M03 Q1017 NOSIG
ZBDS,2017-09-28 16:00,ZBDS 281600Z 26003MPS CAVOK 09/M03 Q1017 NOSIG
ZBDS,2017-09-28 17:00,ZBDS 281700Z 25002MPS CAVOK 08/M02 Q1017 NOSIG
ZBDS,2017-09-28 18:00,ZBDS 281800Z 28003MPS CAVOK 08/M01 Q1017 NOSIG
ZBDS,2017-09-28 19:00,ZBDS 281900Z 29003MPS CAVOK 06/M01 Q1016 NOSIG
ZBDS,2017-09-28 20:00,ZBDS 282000Z 29004MPS CAVOK 07/M01 Q1016 NOSIG
ZBDS,2017-09-28 21:00,ZBDS 282100Z 29004MPS CAVOK 07/M01 Q1016 NOSIG
ZBDS,2017-09-28 22:00,ZBDS 282200Z 20003MPS CAVOK 06/M00 Q1016 NOSIG
ZBDS,2017-09-28 23:00,ZBDS 282300Z 17003MPS CAVOK 06/M01 Q1017 NOSIG
ZBDS,2017-09-29 00:00,ZBDS 290000Z VRB01MPS CAVOK 11/M00 Q1017 NOSIG
ZBDS,2017-09-29 01:00,ZBDS 290100Z 20003MPS 160V250 CAVOK 14/03 Q1018 NOSIG
ZBDS,2017-09-29 02:00,ZBDS 290200Z 21003MPS 170V250 CAVOK 16/04 Q1018 NOSIG
ZBDS,2017-09-29 03:00,ZBDS 290300Z 25005MPS 210V280 CAVOK 19/00 Q1018 NOSIG
ZBDS,2017-09-29 04:00,ZBDS 290400Z 26006MPS 230V290 CAVOK 20/M02 Q1017 NOSIG
ZBDS,2017-09-29 05:00,ZBDS 290500Z 27006MPS 240V310 CAVOK 21/M03 Q1017 NOSIG
ZBDS,2017-09-29 06:00,ZBDS 290600Z 27007MPS 230V290 CAVOK 22/M02 Q1016 NOSIG
ZBDS,2017-09-29 07:00,ZBDS 290700Z 27005MPS 230V310 CAVOK 23/M03 Q1016 NOSIG
ZBDS,2017-09-29 08:00,ZBDS 290800Z 29005MPS 250V320 CAVOK 23/M05 Q1015 NOSIG
ZBDS,2017-09-29 09:00,ZBDS 290900Z 30005MPS CAVOK 22/M05 Q1015 NOSIG
ZBDS,2017-09-29 10:00,ZBDS 291000Z 27002MPS CAVOK 21/M02 Q1015 NOSIG
ZBDS,2017-09-29 11:00,ZBDS 291100Z 27003MPS CAVOK 18/M03 Q1016 NOSIG
ZBDS,2017-09-29 12:00,ZBDS 291200Z 28002MPS 240V310 CAVOK 17/M03 Q1016 NOSIG
ZBDS,2017-09-29 13:00,ZBDS 291300Z 22003MPS CAVOK 15/M02 Q1016 NOSIG
ZBDS,2017-09-29 14:00,ZBDS 291400Z 22005MPS CAVOK 15/M00 Q1016 NOSIG
ZBDS,2017-09-29 15:00,ZBDS 291500Z 21004MPS CAVOK 14/01 Q1017 NOSIG
ZBDS,2017-09-29 16:00,ZBDS 291600Z 21005MPS CAVOK 13/02 Q1016 NOSIG
ZBDS,2017-09-29 17:00,ZBDS 291700Z 20003MPS CAVOK 12/02 Q1016 NOSIG
ZBDS,2017-09-29 18:00,ZBDS 291800Z 18003MPS CAVOK 11/02 Q1016 NOSIG
ZBDS,2017-09-29 19:00,ZBDS 291900Z 18004MPS CAVOK 12/02 Q1016 NOSIG
ZBDS,2017-09-29 20:00,ZBDS 292000Z 17004MPS CAVOK 12/03 Q1016 NOSIG
ZBDS,2017-09-29 21:00,ZBDS 292100Z 15004MPS CAVOK 11/04 Q1016 NOSIG
ZBDS,2017-09-29 22:00,ZBDS 292200Z 15005MPS CAVOK 10/04 Q1016 NOSIG
ZBDS,2017-09-29 23:00,ZBDS 292300Z 16005MPS CAVOK 11/05 Q1015 NOSIG
ZBDS,2017-09-30 00:00,ZBDS 300000Z 16005MPS CAVOK 13/07 Q1015 NOSIG
ZBDS,2017-09-30 01:00,ZBDS 300100Z 17004MPS CAVOK 14/08 Q1016 NOSIG
ZBDS,2017-09-30 02:00,ZBDS 300200Z 18005MPS 140V220 CAVOK 17/11 Q1016 NOSIG
ZBDS,2017-09-30 03:00,ZBDS 300300Z 22006MPS 9999 FEW040 17/09 Q1016 NOSIG
ZBDS,2017-09-30 04:00,ZBDS 300400Z 21006MPS 170V230 9999 FEW040 19/09 Q1015 NOSIG
ZBDS,2017-09-30 05:00,ZBDS 300500Z 19005MPS 150V230 9999 FEW040 21/10 Q1014 NOSIG
ZBDS,2017-09-30 06:00,ZBDS 300600Z 20007MPS 170V230 9999 FEW040 21/06 Q1013 NOSIG
ZBDS,2017-09-30 07:00,ZBDS 300700Z 19007MPS 160V220 9999 FEW040 21/06 Q1013 NOSIG
ZBDS,2017-09-30 08:00,ZBDS 300800Z 21006MPS 9999 FEW040 21/07 Q1013 NOSIG
ZBDS,2017-09-30 09:00,ZBDS 300900Z 20006MPS CAVOK 20/07 Q1013 NOSIG
ZBDS,2017-09-30 10:00,ZBDS 301000Z 20004MPS 9999 FEW040 19/07 Q1013 NOSIG
ZBDS,2017-09-30 11:00,ZBDS 301100Z 22003MPS CAVOK 16/06 Q1015 NOSIG
ZBDS,2017-09-30 12:00,ZBDS 301200Z 19003MPS CAVOK 15/08 Q1015 NOSIG
ZBDS,2017-09-30 13:00,ZBDS 301300Z 18005MPS CAVOK 14/08 Q1015 NOSIG
ZBDS,2017-09-30 14:00,ZBDS 301400Z 19004MPS CAVOK 14/08 Q1016 NOSIG
ZBDS,2017-09-30 15:00,ZBDS 301500Z 21004MPS CAVOK 13/07 Q1016 NOSIG
ZBDS,2017-09-30 16:00,ZBDS 301600Z 22003MPS CAVOK 13/07 Q1016 NOSIG
ZBDS,2017-09-30 17:00,ZBDS 301700Z 23002MPS CAVOK 12/07 Q1016 NOSIG
ZBDS,2017-09-30 18:00,ZBDS 301800Z 00000MPS CAVOK 11/07 Q1016 NOSIG
ZBDS,2017-09-30 19:00,ZBDS 301900Z 30002MPS CAVOK 11/07 Q1016 NOSIG
ZBDS,2017-09-30 20:00,ZBDS 302000Z 03004MPS CAVOK 10/07 Q1016 NOSIG
ZBDS,2017-09-30 21:00,ZBDS 302100Z 03003MPS CAVOK 09/08 Q1016 NOSIG
ZBDS,2017-09-30 22:00,ZBDS 302200Z 05002MPS 020V080 CAVOK 09/08 Q1017 NOSIG
ZBDS,2017-09-30 23:00,ZBDS 302300Z 04003MPS 9999 FEW040 10/09 Q1018 NOSIG
ZBDS,2017-10-01 00:00,ZBDS 010000Z 07005MPS 9999 FEW040 11/05 Q1019 NOSIG
ZBDS,2017-10-01 01:00,ZBDS 010100Z 07007MPS 9999 FEW046 12/01 Q1019 NOSIG
ZBDS,2017-10-01 02:00,ZBDS 010200Z 08006MPS CAVOK 13/02 Q1019 NOSIG
ZBDS,2017-10-01 03:00,ZBDS 010300Z 08005MPS CAVOK 15/03 Q1019 NOSIG
ZBDS,2017-10-01 04:00,ZBDS 010400Z 12004MPS 9999 FEW040 15/05 Q1019 NOSIG
ZBDS,2017-10-01 05:00,ZBDS 010500Z 12004MPS 090V150 9999 FEW040 16/06 Q1018 NOSIG
ZBDS,2017-10-01 07:00,ZBDS 010700Z 10003MPS 050V160 9999 FEW040 18/07 Q1017 NOSIG
ZBDS,2017-10-01 08:00,ZBDS 010800Z 10003MPS 070V150 CAVOK 18/07 Q1017 NOSIG
ZBDS,2017-10-01 09:00,ZBDS 010900Z 14003MPS 120V190 CAVOK 18/08 Q1017 NOSIG
ZBDS,2017-10-01 10:00,ZBDS 011000Z 14002MPS CAVOK 16/08 Q1017 NOSIG
ZBDS,2017-10-01 11:00,ZBDS 011100Z 08003MPS CAVOK 14/08 Q1018 NOSIG
ZBDS,2017-10-01 12:00,ZBDS 011200Z 13003MPS 9999 FEW040 14/08 Q1018 NOSIG
ZBDS,2017-10-01 13:00,ZBDS 011300Z 13002MPS CAVOK 12/07 Q1019 NOSIG
ZBDS,2017-10-01 14:00,ZBDS 011400Z 13002MPS CAVOK 12/06 Q1019 NOSIG
ZBDS,2017-10-01 15:00,ZBDS 011500Z 13003MPS CAVOK 13/05 Q1019 NOSIG
ZBDS,2017-10-01 17:00,ZBDS 011700Z 06001MPS 9999 FEW040 12/07 Q1019 NOSIG
ZBDS,2017-10-01 19:00,ZBDS 011900Z 03005MPS 9999 TS FEW040CB SCT040 08/06 Q1020 NOSIG
ZBDS,2017-10-01 20:00,ZBDS 012000Z 18003MPS 150V220 9999 -SHRA FEW040CB SCT040 09/07 Q1020 RETS NOSIG
ZBDS,2017-10-01 21:00,ZBDS 012100Z 33002MPS 290V360 9999 FEW040CB SCT040 09/09 Q1020 NOSIG
ZBDS,2017-10-01 22:00,ZBDS 012200Z 01003MPS 9000 SCT040 08/08 Q1021 NOSIG
ZBDS,2017-10-01 23:00,ZBDS 012300Z 03004MPS 8000 FEW040 09/08 Q1021 NOSIG
ZBDS,2017-10-02 00:00,ZBDS 020000Z 35003MPS 8000 FEW040 09/08 Q1023 NOSIG
ZBDS,2017-10-02 01:00,ZBDS 020100Z 01004MPS 340V040 9999 FEW040 09/06 Q1023 NOSIG
ZBDS,2017-10-02 02:00,ZBDS 020200Z 02003MPS 9999 FEW040 10/06 Q1024 NOSIG
ZBDS,2017-10-02 03:00,ZBDS 020300Z 04003MPS 020V080 9999 FEW040 11/04 Q1025 NOSIG
ZBDS,2017-10-02 04:00,ZBDS 020400Z 06003MPS 020V100 9999 FEW040 11/02 Q1025 NOSIG
ZBDS,2017-10-02 05:00,ZBDS 020500Z 02004G09MPS 260V050 9999 FEW040 11/02 Q1025 NOSIG
ZBDS,2017-10-02 06:00,ZBDS 020600Z 04004MPS 9999 FEW040 11/02 Q1024 NOSIG
ZBDS,2017-10-02 07:00,ZBDS 020700Z 04005MPS 9999 FEW040 11/02 Q1024 NOSIG
ZBDS,2017-10-02 08:00,ZBDS 020800Z 03003MPS 340V060 9999 FEW040 12/02 Q1024 NOSIG
ZBDS,2017-10-02 09:00,ZBDS 020900Z 04003MPS 9999 FEW040 11/03 Q1025 NOSIG
ZBDS,2017-10-02 10:00,ZBDS 021000Z 05002MPS 9999 FEW040 11/04 Q1025 NOSIG
ZBDS,2017-10-02 11:00,ZBDS 021100Z 05001MPS 9999 FEW040 10/04 Q1026 NOSIG
ZBDS,2017-10-02 12:00,ZBDS 021200Z 10002MPS 9999 FEW040 10/03 Q1026 NOSIG
ZBDS,2017-10-02 13:00,ZBDS 021300Z 12001MPS 9999 FEW040 10/02 Q1027 NOSIG
ZBDS,2017-10-02 14:00,ZBDS 021400Z 08002MPS 9999 FEW040 09/03 Q1027 NOSIG
ZBDS,2017-10-02 15:00,ZBDS 021500Z 04002MPS 9999 FEW040 08/03 Q1027 NOSIG
ZBDS,2017-10-02 16:00,ZBDS 021600Z 36002MPS 9999 FEW040 09/02 Q1027 NOSIG
ZBDS,2017-10-02 17:00,ZBDS 021700Z 35002MPS 9999 FEW040 08/00 Q1027 NOSIG
ZBDS,2017-10-02 18:00,ZBDS 021800Z 05003MPS 9999 FEW040 06/00 Q1027 NOSIG
ZBDS,2017-10-02 19:00,ZBDS 021900Z 06003MPS 9999 FEW040 06/01 Q1027 NOSIG
ZBDS,2017-10-02 20:00,ZBDS 022000Z 06004MPS 9999 FEW040 06/00 Q1028 NOSIG
ZBDS,2017-10-02 21:00,ZBDS 022100Z 05003MPS 9999 FEW040 05/00 Q1028 NOSIG
ZBDS,2017-10-02 22:00,ZBDS 022200Z 07003MPS 9999 FEW040 05/M00 Q1028 NOSIG
ZBDS,2017-10-02 23:00,ZBDS 022300Z 09003MPS 9999 FEW040 05/M00 Q1029 NOSIG
ZBDS,2017-10-03 00:00,ZBDS 030000Z 09002MPS 9999 FEW040 06/01 Q1030 NOSIG
ZBDS,2017-10-03 01:00,ZBDS 030100Z 11003MPS 9999 FEW040 08/01 Q1030 NOSIG
ZBDS,2017-10-03 02:00,ZBDS 030200Z 14003MPS CAVOK 10/02 Q1031 NOSIG
ZBDS,2017-10-03 03:00,ZBDS 030300Z 14004MPS 110V180 CAVOK 11/M02 Q1030 NOSIG
ZBDS,2017-10-03 04:00,ZBDS 030400Z 13004MPS 090V170 CAVOK 12/M02 Q1030 NOSIG
ZBDS,2017-10-03 06:00,ZBDS 030600Z 11004MPS 060V180 CAVOK 13/M04 Q1029 NOSIG
ZBDS,2017-10-03 07:00,ZBDS 030700Z 17003MPS 130V200 CAVOK 13/M05 Q1028 NOSIG
ZBDS,2017-10-03 08:00,ZBDS 030800Z 09003G08MPS 040V150 CAVOK 13/M05 Q1027 NOSIG
ZBDS,2017-10-03 09:00,ZBDS 030900Z 16004MPS CAVOK 12/M04 Q1027 NOSIG
ZBDS,2017-10-03 10:00,ZBDS 031000Z 14003MPS CAVOK 10/M01 Q1027 NOSIG
ZBDS,2017-10-03 11:00,ZBDS 031100Z 15003MPS CAVOK 08/M02 Q1028 NOSIG
ZBDS,2017-10-03 12:00,ZBDS 031200Z 14003MPS CAVOK 08/M02 Q1028 NOSIG
ZBDS,2017-10-03 13:00,ZBDS 031300Z 15003MPS CAVOK 08/M03 Q1028 NOSIG
ZBDS,2017-10-03 14:00,ZBDS 031400Z 17003MPS CAVOK 07/M03 Q1028 NOSIG
ZBDS,2017-10-03 15:00,ZBDS 031500Z 15003MPS CAVOK 06/M03 Q1028 NOSIG
ZBDS,2017-10-03 16:00,ZBDS 031600Z 15002MPS CAVOK 06/M05 Q1028 NOSIG
ZBDS,2017-10-03 17:00,ZBDS 031700Z 15002MPS CAVOK 06/M04 Q1028 NOSIG
ZBDS,2017-10-03 18:00,ZBDS 031800Z 17002MPS CAVOK 06/M03 Q1027 NOSIG
ZBDS,2017-10-03 19:00,ZBDS 031900Z 15001MPS CAVOK 05/M04 Q1027 NOSIG
ZBDS,2017-10-03 20:00,ZBDS 032000Z 14002MPS 9999 FEW040 03/M02 Q1026 NOSIG
ZBDS,2017-10-03 21:00,ZBDS 032100Z 15002MPS 9999 FEW004 03/M00 Q1026 NOSIG
ZBDS,2017-10-03 22:00,ZBDS 032200Z 11002MPS 9999 FEW004 05/02 Q1026 NOSIG
ZBDS,2017-10-03 23:00,ZBDS 032300Z 14003MPS 9999 SCT040 05/03 Q1026 NOSIG
ZBDS,2017-10-04 00:00,ZBDS 040000Z 16003MPS 8000 FEW040 06/04 Q1026 NOSIG
ZBDS,2017-10-04 01:00,ZBDS 040100Z 18003MPS 4000 BR SCT002 SCT030 07/06 Q1027 NOSIG
ZBDS,2017-10-04 02:00,ZBDS 040200Z 17004MPS 5000 BR SCT005 SCT030 09/08 Q1026 NOSIG
ZBDS,2017-10-04 03:00,ZBDS 040300Z 20005MPS 6000 SCT005 SCT030 09/09 Q1026 NOSIG
ZBDS,2017-10-04 04:00,ZBDS 040400Z 19005MPS 9999 SCT010 SCT030 11/08 Q1025 NOSIG
ZBDS,2017-10-04 06:00,ZBDS 040600Z 19005MPS 150V220 9999 FEW015 SCT020 12/08 Q1023 NOSIG
ZBDS,2017-10-04 07:00,ZBDS 040700Z 20005MPS 9999 FEW015 SCT020 12/08 Q1023 NOSIG
ZBDS,2017-10-04 08:00,ZBDS 040800Z 20005MPS 9999 FEW015 SCT020 12/08 Q1022 NOSIG
ZBDS,2017-10-04 09:00,ZBDS 040900Z 19004MPS 9999 FEW015 SCT020 11/07 Q1022 NOSIG
ZBDS,2017-10-04 10:00,ZBDS 041000Z 18005MPS 9999 FEW015 SCT020 11/08 Q1022 NOSIG
ZBDS,2017-10-04 11:00,ZBDS 041100Z 18004MPS 9999 FEW020 SCT040 10/08 Q1022 NOSIG
ZBDS,2017-10-04 12:00,ZBDS 041200Z 18004MPS 9999 FEW020 SCT040 10/08 Q1022 NOSIG
ZBDS,2017-10-04 13:00,ZBDS 041300Z 19004MPS 9999 FEW020 SCT040 10/08 Q1022 NOSIG
ZBDS,2017-10-04 15:00,ZBDS 041500Z 19003MPS 150V210 9999 FEW010 SCT030 09/08 Q1022 NOSIG
ZBDS,2017-10-04 16:00,ZBDS 041600Z 19004MPS 9999 FEW010 SCT030 09/08 Q1022 NOSIG
ZBDS,2017-10-04 17:00,ZBDS 041700Z 19004MPS 160V220 9999 FEW010 SCT030 09/08 Q1021 NOSIG
ZBDS,2017-10-04 18:00,ZBDS 041800Z 19004MPS 9999 FEW010 SCT030 09/08 Q1021 NOSIG
ZBDS,2017-10-04 19:00,ZBDS 041900Z 19005MPS 9999 FEW010 SCT030 09/08 Q1020 NOSIG
ZBDS,2017-10-04 20:00,ZBDS 042000Z 19004MPS 9999 FEW010 SCT030 09/07 Q1019 NOSIG
ZBDS,2017-10-04 21:00,ZBDS 042100Z 17004MPS 9999 FEW010 SCT030 08/08 Q1019 NOSIG
ZBDS,2017-10-04 22:00,ZBDS 042200Z 17005MPS 9999 FEW010 SCT030 08/08 Q1019 NOSIG
ZBDS,2017-10-04 23:00,ZBDS 042300Z 18004MPS 9999 FEW010 SCT030 08/08 Q1019 NOSIG
ZBDS,2017-10-05 00:00,ZBDS 050000Z 20005MPS 170V230 9999 FEW010 SCT030 08/06 Q1019 NOSIG
ZBDS,2017-10-05 01:00,ZBDS 050100Z 20005MPS 9999 FEW010 SCT030 09/06 Q1019 NOSIG
ZBDS,2017-10-05 02:00,ZBDS 050200Z 19006MPS 9999 FEW009 SCT030 09/07 Q1019 NOSIG
ZBDS,2017-10-05 04:00,ZBDS 050400Z 19005MPS 160V220 9999 FEW009 SCT030 10/07 Q1019 NOSIG
ZBDS,2017-10-05 06:00,ZBDS 050600Z 19007MPS 9999 FEW019 SCT040 12/07 Q1017 NOSIG
ZBDS,2017-10-05 07:00,ZBDS 050700Z 19006MPS 160V220 9999 FEW019 SCT040 12/07 Q1017 NOSIG
ZBDS,2017-10-05 08:00,ZBDS 050800Z 20005MPS 9999 FEW017 SCT040 11/06 Q1017 NOSIG
ZBDS,2017-10-05 09:00,ZBDS 050900Z 20005MPS 9999 FEW017 SCT040 11/07 Q1017 NOSIG
ZBDS,2017-10-05 10:00,ZBDS 051000Z 19005MPS 160V220 9999 FEW015 SCT030 10/06 Q1018 NOSIG
ZBDS,2017-10-05 11:00,ZBDS 051100Z 20004MPS 9999 FEW015 SCT030 09/06 Q1018 NOSIG
ZBDS,2017-10-05 12:00,ZBDS 051200Z 20003MPS 170V230 9999 FEW015 SCT030 09/06 Q1019 NOSIG
ZBDS,2017-10-05 13:00,ZBDS 051300Z 20005MPS 160V230 9999 FEW015 SCT030 10/06 Q1019 NOSIG
ZBDS,2017-10-05 14:00,ZBDS 051400Z 20004MPS 170V230 9999 FEW020 SCT030 10/06 Q1019 NOSIG
ZBDS,2017-10-05 15:00,ZBDS 051500Z 21005MPS 9999 FEW019 SCT030 09/06 Q1019 NOSIG
ZBDS,2017-10-05 16:00,ZBDS 051600Z 20005MPS 9999 FEW019 SCT030 09/06 Q1019 NOSIG
ZBDS,2017-10-05 17:00,ZBDS 051700Z 20005MPS 9999 FEW017 SCT030 09/06 Q1019 NOSIG
ZBDS,2017-10-05 18:00,ZBDS 051800Z 20004MPS 9999 FEW017 SCT030 08/07 Q1019 NOSIG
ZBDS,2017-10-05 19:00,ZBDS 051900Z 20003MPS 9999 FEW017 SCT030 07/07 Q1019 NOSIG
ZBDS,2017-10-05 20:00,ZBDS 052000Z 20003MPS 9999 FEW013 SCT030 08/07 Q1019 NOSIG
ZBDS,2017-10-05 21:00,ZBDS 052100Z 21005MPS 180V240 9999 FEW013 SCT030 08/07 Q1019 NOSIG
ZBDS,2017-10-05 23:00,ZBDS 052300Z 19005MPS 9999 SCT010 SCT030 08/06 Q1018 NOSIG
ZBDS,2017-10-06 00:00,ZBDS 060000Z 21005MPS 180V240 9999 SCT010 SCT030 08/06 Q1019 NOSIG
ZBDS,2017-10-06 01:00,ZBDS 060100Z 20004MPS 9999 SCT010 SCT030 09/06 Q1020 NOSIG
ZBDS,2017-10-06 04:00,ZBDS 060400Z 16005MPS 140V200 9999 SCT040 12/06 Q1019 NOSIG
ZBDS,2017-10-06 05:00,ZBDS 060500Z 16006MPS 110V190 9999 FEW040 14/07 Q1018 NOSIG
ZBDS,2017-10-06 06:00,ZBDS 060600Z VRB04MPS CAVOK 15/07 Q1018 NOSIG
ZBDS,2017-10-06 07:00,ZBDS 060700Z 20004MPS 170V230 CAVOK 15/07 Q1017 NOSIG
ZBDS,2017-10-06 08:00,ZBDS 060800Z 16005MPS 9999 FEW040 15/06 Q1016 NOSIG
ZBDS,2017-10-06 09:00,ZBDS 060900Z 19004MPS 160V220 9999 FEW040 16/07 Q1017 NOSIG
ZBDS,2017-10-06 10:00,ZBDS 061000Z 17003MPS 9999 FEW040 13/07 Q1016 NOSIG
ZBDS,2017-10-06 11:00,ZBDS 061100Z 18003MPS 9999 FEW040 11/07 Q1017 NOSIG
ZBDS,2017-10-06 12:00,ZBDS 061200Z VRB01MPS 9999 FEW040 10/07 Q1018 NOSIG
ZBDS,2017-10-06 13:00,ZBDS 061300Z VRB01MPS 9999 FEW040 08/07 Q1019 NOSIG
ZBDS,2017-10-06 14:00,ZBDS 061400Z 16002MPS 9999 FEW040 09/07 Q1019 NOSIG
ZBDS,2017-10-06 16:00,ZBDS 061600Z 12002MPS 080V140 8000 FEW040 08/08 Q1019 NOSIG
ZBDS,2017-10-06 20:00,ZBDS 062000Z 14005MPS 5000 BR FEW040 09/09 Q1018 NOSIG
ZBDS,2017-10-06 22:00,ZBDS 062200Z 11002MPS 4300 BR FEW010 SCT020 09/09 Q1018 NOSIG
ZBDS,2017-10-06 23:00,ZBDS 062300Z 16003MPS 2200 BR FEW010 SCT020 09/09 Q1019 NOSIG
ZBDS,2017-10-07 00:00,ZBDS 070000Z 15004MPS 3000 BR FEW010 SCT020 09/09 Q1018 NOSIG
ZBDS,2017-10-07 01:00,ZBDS 070100Z 16005MPS 4500 BR FEW007 SCT020 11/09 Q1018 NOSIG
ZBDS,2017-10-07 02:00,ZBDS 070200Z 16005MPS 140V200 6000 FEW009 SCT030 13/09 Q1018 NOSIG
ZBDS,2017-10-07 03:00,ZBDS 070300Z 17004MPS 130V220 9999 FEW015 SCT030 14/10 Q1018 NOSIG
ZBDS,2017-10-07 04:00,ZBDS 070400Z 17003MPS 130V210 9999 SCT040 16/10 Q1018 NOSIG
ZBDS,2017-10-07 05:00,ZBDS 070500Z 17005MPS 140V220 9999 FEW030 SCT040 19/10 Q1017 NOSIG
ZBDS,2017-10-07 06:00,ZBDS 070600Z 20004MPS 170V240 9999 FEW030 SCT040 17/09 Q1018 NOSIG
ZBDS,2017-10-07 07:00,ZBDS 070700Z 17005MPS 140V210 9999 FEW030 SCT040 18/10 Q1017 NOSIG
ZBDS,2017-10-07 08:00,ZBDS 070800Z 16004MPS 9999 FEW030 SCT040 17/10 Q1017 NOSIG
ZBDS,2017-10-07 09:00,ZBDS 070900Z 17004MPS 9999 FEW030 SCT040 17/10 Q1017 NOSIG
ZBDS,2017-10-07 10:00,ZBDS 071000Z 17006MPS 9999 FEW020 SCT040 15/10 Q1018 NOSIG
ZBDS,2017-10-07 11:00,ZBDS 071100Z 18004MPS 8000 FEW040 12/10 Q1019 NOSIG
ZBDS,2017-10-07 12:00,ZBDS 071200Z 17004MPS 5000 BR FEW040 11/11 Q1019 NOSIG
ZBDS,2017-10-07 13:00,ZBDS 071300Z 16004MPS 4500 BR FEW006 SCT020 11/11 Q1020 NOSIG
ZBDS,2017-10-07 14:00,ZBDS 071400Z 18004MPS 7000 FEW005 SCT020 11/11 Q1020 NOSIG
ZBDS,2017-10-07 15:00,ZBDS 071500Z 19004MPS 8000 SCT004 SCT020 11/11 Q1020 NOSIG
ZBDS,2017-10-07 16:00,ZBDS 071600Z 22002MPS 7000 SCT003 SCT020 11/11 Q1021 NOSIG
ZBDS,2017-10-07 17:00,ZBDS 071700Z 17002MPS 150V210 6000 SCT003 SCT020 11/11 Q1020 NOSIG
ZBDS,2017-10-07 18:00,ZBDS 071800Z 29003MPS 250V320 6000 SCT003 SCT020 11/11 Q1021 NOSIG
ZBDS,2017-10-07 19:00,ZBDS 071900Z 29003MPS 5000 BR SCT003 SCT020 11/11 Q1020 NOSIG
ZBDS,2017-10-07 20:00,ZBDS 072000Z 19003MPS 5000 BR SCT003 SCT020 11/11 Q1020 NOSIG
ZBDS,2017-10-07 21:00,ZBDS 072100Z VRB01MPS 5000 BR SCT003 SCT020 11/11 Q1020 NOSIG
ZBDS,2017-10-07 22:00,ZBDS 072200Z VRB02MPS 2200 BR SCT003 SCT020 11/11 Q1020 NOSIG
ZBDS,2017-10-07 23:00,ZBDS 072300Z 04002MPS 360V070 2200 BR SCT003 SCT020 11/11 Q1021 NOSIG
ZBDS,2017-10-08 00:00,ZBDS 080000Z 14002MPS 2000 BR SCT003 SCT020 11/11 Q1021 NOSIG
ZBDS,2017-10-08 01:00,ZBDS 080100Z 13002MPS 2500 -RA BR SCT003 SCT020 12/12 Q1022 NOSIG
ZBDS,2017-10-08 02:00,ZBDS 080200Z 07002MPS 030V100 4000 -RA BR SCT005 SCT020 12/12 Q1022 NOSIG
ZBDS,2017-10-08 03:00,ZBDS 080300Z 03002MPS 3500 -RA BR SCT005 SCT020 12/12 Q1023 NOSIG
ZBDS,2017-10-08 04:00,ZBDS 080400Z 36003MPS 330V030 2500 -RA BR SCT005 SCT020 12/12 Q1023 NOSIG
ZBDS,2017-10-08 06:00,ZBDS 080600Z 02004MPS 4000 BR SCT007 SCT030 13/12 Q1022 NOSIG
ZBDS,2017-10-08 08:00,ZBDS 080800Z 36005MPS 5000 BR SCT007 SCT030 13/11 Q1023 NOSIG
ZBDS,2017-10-08 09:00,ZBDS 080900Z 03007MPS 6000 SCT020 13/08 Q1023 NOSIG
ZBDS,2017-10-08 10:00,ZBDS 081000Z 02006MPS 6000 SCT020 11/09 Q1023 NOSIG
ZBDS,2017-10-08 11:00,ZBDS 081100Z 03004MPS 9999 SCT030 11/06 Q1024 NOSIG
ZBDS,2017-10-08 12:00,ZBDS 081200Z 04006MPS 9999 SCT015 11/07 Q1023 NOSIG
ZBDS,2017-10-08 13:00,ZBDS 081300Z 06005MPS 9999 SCT030 11/07 Q1024 NOSIG
ZBDS,2017-10-08 14:00,ZBDS 081400Z 08006MPS 9999 SCT020 11/06 Q1024 NOSIG
ZBDS,2017-10-08 15:00,ZBDS 081500Z 06005MPS 9999 SCT030 11/06 Q1024 NOSIG
ZBDS,2017-10-08 16:00,ZBDS 081600Z 05007MPS 9999 SCT030 11/02 Q1024 NOSIG
ZBDS,2017-10-08 17:00,ZBDS 081700Z 03005MPS 9999 SCT030 09/04 Q1024 NOSIG
ZBDS,2017-10-08 18:00,ZBDS 081800Z 02008MPS 9999 -RA SCT030 07/05 Q1025 NOSIG
ZBDS,2017-10-08 19:00,ZBDS 081900Z 01009MPS 9999 -RA SCT030 03/01 Q1024 NOSIG
ZBDS,2017-10-08 20:00,ZBDS 082000Z 02007MPS 9999 SCT030 03/01 Q1023 NOSIG
ZBDS,2017-10-08 21:00,ZBDS 082100Z 02007MPS 9999 SCT030 02/02 Q1024 NOSIG
ZBDS,2017-10-08 22:00,ZBDS 082200Z 02007MPS 8000 -RA SCT003 SCT020 02/02 Q1024 NOSIG
ZBDS,2017-10-08 23:00,ZBDS 082300Z 03010MPS 5000 -RA BR SCT006 SCT020 03/03 Q1024 NOSIG
ZBDS,2017-10-09 00:00,ZBDS 090000Z 05008MPS 8000 -RA SCT005 SCT020 03/03 Q1025 NOSIG
ZBDS,2017-10-09 01:00,ZBDS 090100Z 05009MPS 9999 -RA SCT007 SCT020 03/03 Q1025 NOSIG
ZBDS,2017-10-09 02:00,ZBDS 090200Z 04008MPS 9999 -RA SCT007 SCT020 03/03 Q1026 NOSIG
