station,valid,metar
ZBTJ,1987-01-06 02:00,ZBTJ 060200Z AUTO 00000KT 1/4SM M05/M06 A3036 RMK T10501060 IEM_DS3505
ZBTJ,1987-01-06 03:00,ZBTJ 060300Z AUTO 00000KT 1/4SM M05/M06 A3036 RMK T10501060 IEM_DS3505
ZBTJ,1987-01-06 04:00,ZBTJ 060400Z AUTO 35006KT 1SM M05/M06 A3033 RMK T10501060 IEM_DS3505
ZBTJ,1987-01-06 05:00,ZBTJ 060500Z AUTO 04006KT 3/8SM M05/M05 A3030 RMK T10501050 IEM_DS3505
ZBTJ,1987-01-17 02:00,ZBTJ 170200Z AUTO 33008KT 7SM M02/M14 A3039 RMK T10201140 IEM_DS3505
ZBTJ,1987-01-17 08:00,ZBTJ 170800Z AUTO 21008KT 7SM 03/M10 A3030 RMK T00301100 IEM_DS3505
ZBTJ,1987-01-24 03:00,ZBTJ 240300Z AUTO 33017KT 7SM 00/M15 A3056 RMK T00001150 IEM_DS3505
ZBTJ,1987-01-24 04:00,ZBTJ 240400Z AUTO 33019KT 7SM 01/M14 A3053 RMK T00101140 IEM_DS3505
ZBTJ,1987-01-24 05:00,ZBTJ 240500Z AUTO 33019KT 7SM 02/M16 A3050 RMK T00201160 IEM_DS3505
ZBTJ,1987-01-27 02:00,ZBTJ 270200Z AUTO 04006KT 7SM 03/M12 A3039 RMK T00301120 IEM_DS3505
ZBTJ,1987-01-27 04:00,ZBTJ 270400Z AUTO 06006KT 7SM 06/M11 A3039 RMK T00601110 IEM_DS3505
ZBTJ,1987-01-27 05:00,ZBTJ 270500Z AUTO 02006KT 7SM 07/M14 A3036 RMK T00701140 IEM_DS3505
ZBTJ,1987-01-27 06:00,ZBTJ 270600Z AUTO 01004KT 7SM 07/M12 A3036 RMK T00701120 IEM_DS3505
ZBTJ,1987-01-27 07:00,ZBTJ 270700Z AUTO 08004KT 7SM 08/M14 A3033 RMK T00801140 IEM_DS3505
ZBTJ,1987-01-27 08:00,ZBTJ 270800Z AUTO 14010KT 7SM 06/M09 A3033 RMK T00601090 IEM_DS3505
ZBTJ,1987-01-27 09:00,ZBTJ 270900Z AUTO 15008KT 7SM 03/M09 A3033 RMK T00301090 IEM_DS3505
ZBTJ,1987-02-03 03:00,ZBTJ 030300Z AUTO 34006KT 7SM M04/M19 A3086 RMK T10401190 IEM_DS3505
ZBTJ,1987-02-03 04:00,ZBTJ 030400Z AUTO 34008KT 7SM M02/M18 A3083 RMK T10201180 IEM_DS3505
ZBTJ,1987-02-03 05:00,ZBTJ 030500Z AUTO 33014KT 7SM 00/M22 A3080 RMK T00001220 IEM_DS3505
ZBTJ,1987-02-03 06:00,ZBTJ 030600Z AUTO 32010KT 7SM 01/M20 A3077 RMK T00101200 IEM_DS3505
ZBTJ,1987-02-03 07:00,ZBTJ 030700Z AUTO 30010KT 7SM 01/M19 A3077 RMK T00101190 IEM_DS3505
ZBTJ,1987-02-14 06:00,ZBTJ 140600Z AUTO 11012KT 7SM 01/M10 A3050 RMK T00101100 IEM_DS3505
ZBTJ,1987-02-17 04:00,ZBTJ 170400Z AUTO 06012KT 7SM M03/M04 A3053 RMK T10301040 IEM_DS3505
ZBTJ,1987-02-17 05:00,ZBTJ 170500Z AUTO 06012KT 7SM M03/M07 A3053 RMK T10301070 IEM_DS3505
ZBTJ,1987-02-17 06:00,ZBTJ 170600Z AUTO 07010KT 7SM M03/M08 A3053 RMK T10301080 IEM_DS3505
ZBTJ,1987-02-21 01:00,ZBTJ 210100Z AUTO 00000KT 1 1/2SM M01/M04 A3033 RMK T10101040 IEM_DS3505
ZBTJ,1987-02-21 02:00,ZBTJ 210200Z AUTO 22010KT 4SM 01/M06 A3033 RMK T00101060 IEM_DS3505
ZBTJ,1987-02-21 03:00,ZBTJ 210300Z AUTO 22010KT 5SM 02/M05 A3030 RMK T00201050 IEM_DS3505
ZBTJ,1987-02-21 04:00,ZBTJ 210400Z AUTO 22008KT 6SM 03/M06 A3030 RMK T00301060 IEM_DS3505
ZBTJ,1987-02-21 05:00,ZBTJ 210500Z AUTO 22008KT 6SM 03/M04 A3027 RMK T00301040 IEM_DS3505
ZBTJ,1987-02-23 23:00,ZBTJ 232300Z AUTO 34023KT 7SM M09/M29 A3039 RMK T10901290 IEM_DS3505
ZBTJ,1987-02-24 00:00,ZBTJ 240000Z AUTO 34021KT 7SM M08/M28 A3042 RMK T10801280 IEM_DS3505
ZBTJ,1987-02-24 01:00,ZBTJ 240100Z AUTO 33021KT 7SM M07/M27 RMK T10701270 IEM_DS3505
ZBTJ,1987-02-24 04:00,ZBTJ 240400Z AUTO 33025KT 7SM M05/M24 A3045 RMK T10501240 IEM_DS3505
ZBTJ,1987-02-24 05:00,ZBTJ 240500Z AUTO 32025KT 7SM M04/M24 A3042 RMK T10401240 IEM_DS3505
ZBTJ,1987-03-03 02:00,ZBTJ 030200Z AUTO 22012KT 7SM 07/00 A3003 RMK T00700000 IEM_DS3505
ZBTJ,1987-03-03 04:00,ZBTJ 030400Z AUTO 00000KT 6SM 11/02 A3000 RMK T01100020 IEM_DS3505
ZBTJ,1987-03-03 05:00,ZBTJ 030500Z AUTO 20004KT 3SM 12/03 A2997 RMK T01200030 IEM_DS3505
ZBTJ,1987-03-03 06:00,ZBTJ 030600Z AUTO 12006KT 3SM 13/03 A2994 RMK T01300030 IEM_DS3505
ZBTJ,1987-03-07 05:00,ZBTJ 070500Z AUTO 18004KT 7SM 06/M10 A3012 RMK T00601100 IEM_DS3505
ZBTJ,1987-03-07 06:00,ZBTJ 070600Z AUTO 20004KT 7SM 06/M07 A3009 RMK T00601070 IEM_DS3505
ZBTJ,1987-03-10 02:00,ZBTJ 100200Z AUTO 21006KT 7SM 03/M04 A3015 RMK T00301040 IEM_DS3505
ZBTJ,1987-03-10 03:00,ZBTJ 100300Z AUTO 30008KT 7SM 05/M03 A3012 RMK T00501030 IEM_DS3505
ZBTJ,1987-03-10 05:00,ZBTJ 100500Z AUTO 26006KT 6SM 06/M06 A3009 RMK T00601060 IEM_DS3505
ZBTJ,1987-03-14 04:00,ZBTJ 140400Z AUTO 27004KT 7SM 08/M10 A3021 RMK T00801100 IEM_DS3505
ZBTJ,1987-03-14 05:00,ZBTJ 140500Z AUTO 22010KT 7SM 09/M09 A3018 RMK T00901090 IEM_DS3505
ZBTJ,1987-03-17 01:00,ZBTJ 170100Z AUTO 28012KT 3SM 07/01 A2983 RMK T00700010 IEM_DS3505
ZBTJ,1987-03-17 02:00,ZBTJ 170200Z AUTO 29016KT 7SM 11/M03 A2985 RMK T01101030 IEM_DS3505
ZBTJ,1987-03-17 03:00,ZBTJ 170300Z AUTO 31023KT 7SM 12/M11 A2985 RMK T01201110 IEM_DS3505
ZBTJ,1987-03-17 04:00,ZBTJ 170400Z AUTO 31023KT 7SM 13/M13 A2988 RMK T01301130 IEM_DS3505
ZBTJ,1987-03-17 05:00,ZBTJ 170500Z AUTO 30023KT 7SM 14/M12 A2988 RMK T01401120 IEM_DS3505
ZBTJ,1987-03-24 03:00,ZBTJ 240300Z AUTO 32029KT 7SM 00/M15 A3036 RMK T00001150 IEM_DS3505
ZBTJ,1987-03-24 04:00,ZBTJ 240400Z AUTO 33031KT 7SM 01/M17 A3039 RMK T00101170 IEM_DS3505
ZBTJ,1987-03-24 05:00,ZBTJ 240500Z AUTO 32027KT 7SM 01/M17 A3036 RMK T00101170 IEM_DS3505
ZBTJ,1987-03-24 06:00,ZBTJ 240600Z AUTO 32029KT 7SM 02/M16 A3036 RMK T00201160 IEM_DS3505
ZBTJ,1987-03-31 03:00,ZBTJ 310300Z AUTO 27010KT 6SM 08/M05 A3050 RMK T00801050 IEM_DS3505
ZBTJ,1987-03-31 04:00,ZBTJ 310400Z AUTO 24012KT 6SM 09/M04 A3047 RMK T00901040 IEM_DS3505
ZBTJ,1987-04-14 03:00,ZBTJ 140300Z AUTO 22008KT 16/07 A3024 RMK T01600070 IEM_DS3505
ZBTJ,1987-04-24 23:00,ZBTJ 242300Z AUTO 08008KT 4SM 06/04 A3006 RMK T00600040 IEM_DS3505
ZBTJ,1987-04-25 01:00,ZBTJ 250100Z AUTO 05010KT 4SM 08/06 A3012 RMK T00800060 IEM_DS3505
ZBTJ,1987-04-25 02:00,ZBTJ 250200Z AUTO 07012KT 5SM 09/05 A3015 RMK T00900050 IEM_DS3505
ZBTJ,1987-04-25 03:00,ZBTJ 250300Z AUTO 07012KT 5SM 10/06 A3015 RMK T01000060 IEM_DS3505
ZBTJ,1987-04-25 04:00,ZBTJ 250400Z AUTO 08010KT 7SM 10/06 A3018 RMK T01000060 IEM_DS3505
ZBTJ,1987-04-25 06:00,ZBTJ 250600Z AUTO 06012KT 7SM 10/06 A3021 RMK T01000060 IEM_DS3505
ZBTJ,1987-04-25 07:00,ZBTJ 250700Z AUTO 07010KT 7SM 10/04 A3021 RMK T01000040 IEM_DS3505
ZBTJ,1987-05-05 02:00,ZBTJ 050200Z AUTO 33010KT 7SM 21/04 A3000 RMK T02100040 IEM_DS3505
ZBTJ,1987-05-05 05:00,ZBTJ 050500Z AUTO 02008KT 6SM 25/02 A2994 RMK T02500020 IEM_DS3505
ZBTJ,1987-05-05 07:00,ZBTJ 050700Z AUTO 22010KT 7SM 25/02 A2988 RMK T02500020 IEM_DS3505
ZBTJ,1987-05-06 12:00,ZBTJ 061200Z AUTO 20012KT 7SM 24/08 A2971 RMK T02400080 IEM_DS3505
ZBTJ,1987-05-07 00:00,ZBTJ 070000Z AUTO 19008KT 4SM 17/12 A2983 RMK T01700120 IEM_DS3505
ZBTJ,1987-05-12 02:00,ZBTJ 120200Z AUTO 22006KT 1 1/2SM 26/20 A2985 RMK T02600200 IEM_DS3505
ZBTJ,1987-05-12 03:00,ZBTJ 120300Z AUTO 21004KT 2SM 27/19 A2985 RMK T02700190 IEM_DS3505
ZBTJ,1987-05-12 04:00,ZBTJ 120400Z AUTO 10023KT 6SM 23/16 A2988 RMK T02300160 IEM_DS3505
ZBTJ,1987-05-12 05:00,ZBTJ 120500Z AUTO 10019KT 6SM 21/14 A2988 RMK T02100140 IEM_DS3505
ZBTJ,1987-05-12 06:00,ZBTJ 120600Z AUTO 10019KT 6SM 21/18 A2988 RMK T02100180 IEM_DS3505
ZBTJ,1987-05-13 04:00,ZBTJ 130400Z AUTO 15010KT 7SM 18/05 A3024 RMK T01800050 IEM_DS3505
ZBTJ,1987-05-16 03:00,ZBTJ 160300Z AUTO 33025KT 6SM 18/02 A2985 RMK T01800020 IEM_DS3505
ZBTJ,1987-05-16 04:00,ZBTJ 160400Z AUTO 35023KT 7SM 20/01 A2985 RMK T02000010 IEM_DS3505
ZBTJ,1987-05-16 05:00,ZBTJ 160500Z AUTO 33021KT 7SM 20/03 A2985 RMK T02000030 IEM_DS3505
ZBTJ,1987-05-16 06:00,ZBTJ 160600Z AUTO 34017KT 7SM 21/04 A2985 RMK T02100040 IEM_DS3505
ZBTJ,1987-05-19 04:00,ZBTJ 190400Z AUTO 07012KT 6SM 29/28 A2991 RMK T02900280 IEM_DS3505
ZBTJ,1987-05-19 05:00,ZBTJ 190500Z AUTO 11012KT 7SM 28/09 A2991 RMK T02800090 IEM_DS3505
ZBTJ,1987-05-19 06:00,ZBTJ 190600Z AUTO 12014KT 7SM 28/08 A2988 RMK T02800080 IEM_DS3505
ZBTJ,1987-05-19 07:00,ZBTJ 190700Z AUTO 13014KT 7SM 27/07 A2988 RMK T02700070 IEM_DS3505
ZBTJ,1987-05-19 08:00,ZBTJ 190800Z AUTO 12014KT 7SM 21/08 A2985 RMK T02100080 IEM_DS3505
ZBTJ,1987-05-23 00:00,ZBTJ 230000Z AUTO 00000KT 1 1/4SM 19/17 A2965 RMK T01900170 IEM_DS3505
ZBTJ,1987-05-23 02:00,ZBTJ 230200Z AUTO 07002KT 1 1/2SM 22/18 A2968 RMK T02200180 IEM_DS3505
ZBTJ,1987-05-23 03:00,ZBTJ 230300Z AUTO 01004KT 1 1/2SM 24/18 A2968 RMK T02400180 IEM_DS3505
ZBTJ,1987-05-23 04:00,ZBTJ 230400Z AUTO 35004KT 6SM 25/25 A2965 RMK T02500250 IEM_DS3505
ZBTJ,1987-05-23 05:00,ZBTJ 230500Z AUTO 05004KT 6SM 26/17 A2965 RMK T02600170 IEM_DS3505
ZBTJ,1987-05-23 07:00,ZBTJ 230700Z AUTO 11016KT 7SM 20/17 A2965 RMK T02000170 IEM_DS3505
ZBTJ,1987-05-23 08:00,ZBTJ 230800Z AUTO 12014KT 7SM 19/16 A2965 RMK T01900160 IEM_DS3505
ZBTJ,1987-05-26 01:00,ZBTJ 260100Z AUTO 34008KT 3SM 21/18 A3012 RMK T02100180 IEM_DS3505
ZBTJ,1987-05-26 02:00,ZBTJ 260200Z AUTO 06010KT 6SM 23/18 A3012 RMK T02300180 IEM_DS3505
ZBTJ,1987-05-26 04:00,ZBTJ 260400Z AUTO 10008KT 6SM 26/13 A3012 RMK T02600130 IEM_DS3505
ZBTJ,1987-05-26 05:00,ZBTJ 260500Z AUTO 13010KT 6SM 27/12 A3009 RMK T02700120 IEM_DS3505
ZBTJ,1987-05-26 06:00,ZBTJ 260600Z AUTO 15010KT 6SM 26/12 A3006 RMK T02600120 IEM_DS3505
ZBTJ,1987-05-26 07:00,ZBTJ 260700Z AUTO 15010KT 6SM 24/12 A3003 RMK T02400120 IEM_DS3505
ZBTJ,1987-06-02 02:00,ZBTJ 020200Z AUTO 00000KT 4SM 20/17 A2950 RMK T02000170 IEM_DS3505
ZBTJ,1987-06-02 03:00,ZBTJ 020300Z AUTO 26008KT 3SM 20/17 RMK T02000170 IEM_DS3505
ZBTJ,1987-06-06 04:00,ZBTJ 060400Z AUTO 31010KT 6SM 18/11 A3000 RMK T01800110 IEM_DS3505
ZBTJ,1987-06-06 05:00,ZBTJ 060500Z AUTO 32012KT 6SM 19/11 A3000 RMK T01900110 IEM_DS3505
ZBTJ,1987-06-06 06:00,ZBTJ 060600Z AUTO 32012KT 6SM 20/10 A2997 RMK T02000100 IEM_DS3505
ZBTJ,1987-06-13 00:00,ZBTJ 130000Z AUTO 05010KT 6SM 22/16 A2980 RMK T02200160 IEM_DS3505
ZBTJ,1987-06-13 01:00,ZBTJ 130100Z AUTO 04016KT 6SM 24/13 A2980 RMK T02400130 IEM_DS3505
ZBTJ,1987-06-13 02:00,ZBTJ 130200Z AUTO 04014KT 6SM 25/14 A2980 RMK T02500140 IEM_DS3505
ZBTJ,1987-06-13 03:00,ZBTJ 130300Z AUTO 24012KT 6SM 26/14 A2983 RMK T02600140 IEM_DS3505
ZBTJ,1987-06-13 04:00,ZBTJ 130400Z AUTO 07010KT 6SM 27/14 A2983 RMK T02700140 IEM_DS3505
ZBTJ,1987-06-13 05:00,ZBTJ 130500Z AUTO 03008KT 6SM 27/14 A2980 RMK T02700140 IEM_DS3505
ZBTJ,1987-06-13 06:00,ZBTJ 130600Z AUTO 04008KT 6SM 28/15 A2980 RMK T02800150 IEM_DS3505
ZBTJ,1987-06-13 08:00,ZBTJ 130800Z AUTO 14010KT 6SM 25/16 A2980 RMK T02500160 IEM_DS3505
ZBTJ,1987-06-19 23:00,ZBTJ 192300Z AUTO 06004KT 1 1/2SM 22/20 A2956 RMK T02200200 IEM_DS3505
ZBTJ,1987-06-20 01:00,ZBTJ 200100Z AUTO 10012KT 7SM 26/21 A2974 RMK T02600210 IEM_DS3505
ZBTJ,1987-06-20 02:00,ZBTJ 200200Z AUTO 09012KT 7SM A2974 RMK IEM_DS3505
ZBTJ,1987-06-20 07:00,ZBTJ 200700Z AUTO 11017KT 7SM 27/18 A2977 RMK T02700180 IEM_DS3505
ZBTJ,1987-06-23 03:00,ZBTJ 230300Z AUTO 22006KT 1 1/2SM 20/19 A2959 RMK T02000190 IEM_DS3505
ZBTJ,1987-06-23 06:00,ZBTJ 230600Z AUTO 14004KT 2SM 20/19 A2959 RMK T02000190 IEM_DS3505
ZBTJ,1987-06-23 07:00,ZBTJ 230700Z AUTO 00000KT 5SM 20/19 A2959 RMK T02000190 IEM_DS3505
ZBTJ,1987-06-23 08:00,ZBTJ 230800Z AUTO 00000KT 4SM 20/19 A2959 RMK T02000190 IEM_DS3505
ZBTJ,1987-06-30 02:00,ZBTJ 300200Z AUTO 12010KT 6SM 23/19 A2977 RMK T02300190 IEM_DS3505
ZBTJ,1987-06-30 03:00,ZBTJ 300300Z AUTO 12008KT 7SM 25/21 A2977 RMK T02500210 IEM_DS3505
ZBTJ,1987-06-30 04:00,ZBTJ 300400Z AUTO 10008KT 6SM 24/21 A2977 RMK T02400210 IEM_DS3505
ZBTJ,1987-06-30 05:00,ZBTJ 300500Z AUTO 11010KT 6SM 26/20 A2977 RMK T02600200 IEM_DS3505
ZBTJ,1987-06-30 06:00,ZBTJ 300600Z AUTO 12010KT 7SM 26/19 A2974 RMK T02600190 IEM_DS3505
ZBTJ,1987-06-30 07:00,ZBTJ 300700Z AUTO 13010KT 6SM 27/20 A2974 RMK T02700200 IEM_DS3505
ZBTJ,1987-07-04 02:00,ZBTJ 040200Z AUTO 20008KT 4SM 29/23 A2950 RMK T02900230 IEM_DS3505
ZBTJ,1987-07-04 03:00,ZBTJ 040300Z AUTO 21006KT 7SM 30/23 A2950 RMK T03000230 IEM_DS3505
ZBTJ,1987-07-04 04:00,ZBTJ 040400Z AUTO 21010KT 7SM 31/25 A2947 RMK T03100250 IEM_DS3505
ZBTJ,1987-07-04 05:00,ZBTJ 040500Z AUTO 21008KT 7SM 32/24 A2947 RMK T03200240 IEM_DS3505
ZBTJ,1987-07-04 06:00,ZBTJ 040600Z AUTO 21006KT 6SM 33/23 A2944 RMK T03300230 IEM_DS3505
ZBTJ,1987-07-04 07:00,ZBTJ 040700Z AUTO 17006KT 6SM 34/23 A2944 RMK T03400230 IEM_DS3505
ZBTJ,1987-07-07 02:00,ZBTJ 070200Z AUTO 16006KT 6SM 25/18 A2965 RMK T02500180 IEM_DS3505
ZBTJ,1987-07-07 04:00,ZBTJ 070400Z AUTO 12010KT 6SM 28/19 A2965 RMK T02800190 IEM_DS3505
ZBTJ,1987-07-07 05:00,ZBTJ 070500Z AUTO 11008KT 6SM 28/19 A2965 RMK T02800190 IEM_DS3505
ZBTJ,1987-07-07 06:00,ZBTJ 070600Z AUTO 10008KT 6SM 28/20 A2962 RMK T02800200 IEM_DS3505
ZBTJ,1987-07-07 07:00,ZBTJ 070700Z AUTO 14008KT 6SM 27/19 A2953 RMK T02700190 IEM_DS3505
ZBTJ,1987-07-07 08:00,ZBTJ 070800Z AUTO 13010KT 6SM 28/19 A2959 RMK T02800190 IEM_DS3505
ZBTJ,1987-07-07 10:00,ZBTJ 071000Z AUTO 10008KT 6SM 27/20 A2956 RMK T02700200 IEM_DS3505
ZBTJ,1987-07-11 02:00,ZBTJ 110200Z AUTO 32006KT 6SM 30/23 A2947 RMK T03000230 IEM_DS3505
ZBTJ,1987-07-11 03:00,ZBTJ 110300Z AUTO 32008KT 6SM 32/23 A2947 RMK T03200230 IEM_DS3505
ZBTJ,1987-07-11 05:00,ZBTJ 110500Z AUTO 32010KT 6SM 33/20 A2947 RMK T03300200 IEM_DS3505
ZBTJ,1987-07-11 06:00,ZBTJ 110600Z AUTO 33010KT 6SM 33/20 A2947 RMK T03300200 IEM_DS3505
ZBTJ,1987-07-11 07:00,ZBTJ 110700Z AUTO 36008KT 6SM 33/20 A2947 RMK T03300200 IEM_DS3505
ZBTJ,1987-07-14 02:00,ZBTJ 140200Z AUTO 17002KT 6SM 25/21 A2977 RMK T02500210 IEM_DS3505
ZBTJ,1987-07-14 04:00,ZBTJ 140400Z AUTO 18004KT 6SM 27/20 A2977 RMK T02700200 IEM_DS3505
ZBTJ,1987-07-14 05:00,ZBTJ 140500Z AUTO 12004KT 6SM 28/20 A2977 RMK T02800200 IEM_DS3505
ZBTJ,1987-07-14 06:00,ZBTJ 140600Z AUTO 13006KT 6SM 28/19 A2977 RMK T02800190 IEM_DS3505
ZBTJ,1987-07-14 07:00,ZBTJ 140700Z AUTO 13004KT 6SM 28/19 A2974 RMK T02800190 IEM_DS3505
ZBTJ,1987-07-21 02:00,ZBTJ 210200Z AUTO 14004KT 2 1/2SM 25/23 A2944 RMK T02500230 IEM_DS3505
ZBTJ,1987-07-21 03:00,ZBTJ 210300Z AUTO 17006KT 4SM 27/24 A2944 RMK T02700240 IEM_DS3505
ZBTJ,1987-07-21 04:00,ZBTJ 210400Z AUTO 24006KT 7SM 28/24 A2941 RMK T02800240 IEM_DS3505
ZBTJ,1987-07-21 06:00,ZBTJ 210600Z AUTO 20008KT 7SM 30/25 A2938 RMK T03000250 IEM_DS3505
ZBTJ,1987-07-21 07:00,ZBTJ 210700Z AUTO 20006KT 7SM A2994 RMK IEM_DS3505
ZBTJ,1987-12-02 03:27,ZBTJ 020327Z AUTO 28010KT 2SM M01/M11 A3042 RMK T10101110 IEM_DS3505
ZBTJ,1987-12-02 05:00,ZBTJ 020500Z AUTO 26008KT 7SM 02/M11 A3036 RMK T00201110 IEM_DS3505
ZBTJ,1987-12-02 05:39,ZBTJ 020539Z AUTO 26008KT 7SM 02/M11 A3036 RMK T00201110 IEM_DS3505
ZBTJ,1987-12-02 07:00,ZBTJ 020700Z AUTO 24006KT 7SM 03/M15 A3030 RMK T00301150 IEM_DS3505
ZBTJ,1987-12-02 07:24,ZBTJ 020724Z AUTO 24006KT 7SM 03/M15 A3030 RMK T00301150 IEM_DS3505
ZBTJ,1987-12-08 03:00,ZBTJ 080300Z AUTO 20006KT 1SM 03/M01 A3042 RMK T00301010 IEM_DS3505
ZBTJ,1987-12-08 04:00,ZBTJ 080400Z AUTO 21006KT 1SM 06/M05 A3039 RMK T00601050 IEM_DS3505
ZBTJ,1987-12-08 05:00,ZBTJ 080500Z AUTO 23004KT 1 1/4SM 07/M04 A3036 RMK T00701040 IEM_DS3505
ZBTJ,1987-12-08 06:00,ZBTJ 080600Z AUTO 00000KT 2 1/2SM 08/M05 A3033 RMK T00801050 IEM_DS3505
ZBTJ,1987-12-08 07:00,ZBTJ 080700Z AUTO 21004KT 1 1/4SM 06/M03 A3033 RMK T00601030 IEM_DS3505
ZBTJ,1987-12-29 01:00,ZBTJ 290100Z AUTO 09016KT 7SM M02/M06 A3024 RMK T10201060 IEM_DS3505
ZBTJ,1987-12-29 02:00,ZBTJ 290200Z AUTO 08010KT 1 1/4SM M02/M06 A3030 RMK T10201060 IEM_DS3505
ZBTJ,1987-12-29 03:00,ZBTJ 290300Z AUTO 08006KT 1SM M02/M04 A3033 RMK T10201040 IEM_DS3505
ZBTJ,1987-12-29 04:00,ZBTJ 290400Z AUTO 06004KT 3SM M02/M04 A3033 RMK T10201040 IEM_DS3505
ZBTJ,1987-12-29 05:00,ZBTJ 290500Z AUTO 00000KT 7SM M02/M04 A3030 RMK T10201040 IEM_DS3505
