station,valid,metar
ZBTJ,1988-01-11 00:00,ZBTJ 110000Z AUTO 21004KT 1SM M10/M11 A3053 RMK T11001110 IEM_DS3505
ZBTJ,1988-01-11 00:25,ZBTJ 110025Z AUTO 21004KT 1SM M10/M11 A3053 RMK T11001110 IEM_DS3505
ZBTJ,1988-01-11 06:00,ZBTJ 110600Z AUTO 18004KT 4SM 02/ RMK IEM_DS3505
ZBTJ,1988-01-11 06:37,ZBTJ 110637Z AUTO 18004KT 4SM 02/M08 A3042 RMK T00201080 IEM_DS3505
ZBTJ,1988-01-11 07:00,ZBTJ 110700Z AUTO 18004KT 4SM 01/M09 A3042 RMK T00101090 IEM_DS3505
ZBTJ,1988-01-11 07:22,ZBTJ 110722Z AUTO 18004KT 4SM 01/M09 A3042 RMK T00101090 IEM_DS3505
ZBTJ,1988-01-11 08:00,ZBTJ 110800Z AUTO 19004KT 2 1/2SM 01/M08 A3039 RMK T00101080 IEM_DS3505
ZBTJ,1988-01-11 08:22,ZBTJ 110822Z AUTO 19004KT 2 1/2SM 01/M08 A3039 RMK T00101080 IEM_DS3505
ZBTJ,1988-01-11 09:00,ZBTJ 110900Z AUTO 19004KT 2 1/2SM M01/M07 A3039 RMK T10101070 IEM_DS3505
ZBTJ,1988-01-11 09:35,ZBTJ 110935Z AUTO 19004KT 2 1/2SM M01/M07 A3039 RMK T10101070 IEM_DS3505
ZBTJ,1988-01-11 10:00,ZBTJ 111000Z AUTO 21004KT 2 1/2SM M01/M08 A3036 RMK T10101080 IEM_DS3505
ZBTJ,1988-01-11 10:23,ZBTJ 111023Z AUTO 21004KT 2 1/2SM M01/M08 A3036 RMK T10101080 IEM_DS3505
ZBTJ,1988-01-11 11:00,ZBTJ 111100Z AUTO 20004KT 2SM M02/M09 A3036 RMK T10201090 IEM_DS3505
ZBTJ,1988-01-11 11:26,ZBTJ 111126Z AUTO 20004KT 2SM M02/M09 A3036 RMK T10201090 IEM_DS3505
ZBTJ,1988-01-11 12:00,ZBTJ 111200Z AUTO 20002KT 1 1/2SM M02/M07 A3036 RMK T10201070 IEM_DS3505
ZBTJ,1988-01-11 12:22,ZBTJ 111222Z AUTO 20002KT 1 1/2SM M02/M07 A3036 RMK T10201070 IEM_DS3505
ZBTJ,1988-01-11 13:00,ZBTJ 111300Z AUTO 20004KT 1 1/2SM M02/M07 A3036 RMK T10201070 IEM_DS3505
ZBTJ,1988-01-11 13:22,ZBTJ 111322Z AUTO 20004KT 1 1/2SM M02/M07 A3036 RMK T10201070 IEM_DS3505
ZBTJ,1988-01-11 23:00,ZBTJ 112300Z AUTO 20006KT 4SM M01/M10 A3021 RMK T10101100 IEM_DS3505
ZBTJ,1988-01-11 23:21,ZBTJ 112321Z AUTO 20006KT 4SM M01/M10 A3021 RMK T10101100 IEM_DS3505
ZBTJ,1988-01-12 00:00,ZBTJ 120000Z AUTO 21006KT 2 1/2SM M07/M09 A3021 RMK T10701090 IEM_DS3505
ZBTJ,1988-01-12 00:21,ZBTJ 120021Z AUTO 21006KT 2 1/2SM M07/M09 A3021 RMK T10701090 IEM_DS3505
ZBTJ,1988-01-12 01:00,ZBTJ 120100Z AUTO 23008KT 1 1/2SM M05/M08 A3021 RMK T10501080 IEM_DS3505
ZBTJ,1988-01-12 01:21,ZBTJ 120121Z AUTO 23008KT 1 1/2SM M05/M08 A3021 RMK T10501080 IEM_DS3505
ZBTJ,1988-01-12 02:00,ZBTJ 120200Z AUTO 22010KT 1 1/4SM M03/M06 A3021 RMK T10301060 IEM_DS3505
ZBTJ,1988-01-12 02:23,ZBTJ 120223Z AUTO 22010KT 1 1/4SM M03/M06 A3021 RMK T10301060 IEM_DS3505
ZBTJ,1988-01-12 03:00,ZBTJ 120300Z AUTO 25010KT 1 1/2SM M02/M08 A3021 RMK T10201080 IEM_DS3505
ZBTJ,1988-01-12 03:24,ZBTJ 120324Z AUTO 25010KT 1 1/2SM M02/M08 A3021 RMK T10201080 IEM_DS3505
ZBTJ,1988-01-12 04:00,ZBTJ 120400Z AUTO 23008KT 2SM 00/M06 A3018 RMK T00001060 IEM_DS3505
ZBTJ,1988-01-12 04:24,ZBTJ 120424Z AUTO 23008KT 2SM 00/M06 A3018 RMK T00001060 IEM_DS3505
ZBTJ,1988-01-12 05:00,ZBTJ 120500Z AUTO 21008KT 2SM 00/M04 A3015 RMK T00001040 IEM_DS3505
ZBTJ,1988-01-12 05:29,ZBTJ 120529Z AUTO 21008KT 2SM 00/M04 A3015 RMK T00001040 IEM_DS3505
ZBTJ,1988-01-12 06:00,ZBTJ 120600Z AUTO 21008KT 2SM 00/M04 A3012 RMK T00001040 IEM_DS3505
ZBTJ,1988-01-12 06:24,ZBTJ 120624Z AUTO 21008KT 2SM 00/M04 A3012 RMK T00001040 IEM_DS3505
ZBTJ,1988-01-12 07:00,ZBTJ 120700Z AUTO 21008KT 1 1/2SM RMK IEM_DS3505
ZBTJ,1988-01-12 07:25,ZBTJ 120725Z AUTO 21008KT 1 1/2SM M01/M04 A3012 RMK T10101040 IEM_DS3505
ZBTJ,1988-01-12 08:00,ZBTJ 120800Z AUTO 22008KT 1 1/2SM M01/M04 A3012 RMK T10101040 IEM_DS3505
ZBTJ,1988-01-12 08:24,ZBTJ 120824Z AUTO 22008KT 1 1/2SM M01/M04 A3012 RMK T10101040 IEM_DS3505
ZBTJ,1988-01-12 09:00,ZBTJ 120900Z AUTO 1 1/4SM M02/M04 A3012 RMK T10201040 IEM_DS3505
ZBTJ,1988-01-12 09:24,ZBTJ 120924Z AUTO 1 1/4SM M02/M04 A3012 RMK T10201040 IEM_DS3505
ZBTJ,1988-01-12 10:00,ZBTJ 121000Z AUTO 24004KT 1SM M03/M04 A3012 RMK T10301040 IEM_DS3505
ZBTJ,1988-01-12 10:25,ZBTJ 121025Z AUTO 24004KT 1SM M03/M04 A3012 RMK T10301040 IEM_DS3505
ZBTJ,1988-01-12 11:00,ZBTJ 121100Z AUTO 00000KT 1 1/4SM M03/M04 A3015 RMK T10301040 IEM_DS3505
ZBTJ,1988-01-12 11:24,ZBTJ 121124Z AUTO 00000KT 1 1/4SM M03/M04 A3015 RMK T10301040 IEM_DS3505
ZBTJ,1988-01-12 23:00,ZBTJ 122300Z AUTO 00000KT 1SM M03/M04 A3015 RMK T10301040 IEM_DS3505
ZBTJ,1988-01-13 00:00,ZBTJ 130000Z AUTO 00000KT 1/2SM M03/M04 A3018 RMK T10301040 IEM_DS3505
ZBTJ,1988-01-13 00:25,ZBTJ 130025Z AUTO 00000KT 1/2SM M03/M04 A3018 RMK T10301040 IEM_DS3505
ZBTJ,1988-01-21 06:24,ZBTJ 210624Z AUTO 33017KT 7SM 06/M11 A2977 RMK T00601110 IEM_DS3505
ZBTJ,1988-01-21 07:00,ZBTJ 210700Z AUTO 32016KT 7SM 06/M14 A2977 RMK T00601140 IEM_DS3505
ZBTJ,1988-01-21 07:27,ZBTJ 210727Z AUTO 32016KT 7SM 06/M14 A2977 RMK T00601140 IEM_DS3505
ZBTJ,1988-01-21 08:00,ZBTJ 210800Z AUTO 33017KT 7SM 05/M17 A2977 RMK T00501170 IEM_DS3505
ZBTJ,1988-01-21 08:24,ZBTJ 210824Z AUTO 33017KT 7SM 05/M17 A2977 RMK T00501170 IEM_DS3505
ZBTJ,1988-01-21 09:00,ZBTJ 210900Z AUTO 33012KT 7SM 03/M13 A2980 RMK T00301130 IEM_DS3505
ZBTJ,1988-01-21 09:25,ZBTJ 210925Z AUTO 33012KT 7SM 03/M13 A2980 RMK T00301130 IEM_DS3505
ZBTJ,1988-01-21 10:00,ZBTJ 211000Z AUTO 30006KT 7SM 01/M17 A2983 RMK T00101170 IEM_DS3505
ZBTJ,1988-01-21 10:23,ZBTJ 211023Z AUTO 30006KT 7SM 01/M17 A2983 RMK T00101170 IEM_DS3505
ZBTJ,1988-01-21 12:00,ZBTJ 211200Z AUTO 00000KT 7SM M03/M13 A2983 RMK T10301130 IEM_DS3505
ZBTJ,1988-01-21 12:23,ZBTJ 211223Z AUTO 00000KT 7SM M03/M13 A2983 RMK T10301130 IEM_DS3505
ZBTJ,1988-01-21 13:23,ZBTJ 211323Z AUTO 16004KT 7SM M03/M12 A2983 RMK T10301120 IEM_DS3505
ZBTJ,1988-01-21 14:00,ZBTJ 211400Z AUTO 23006KT RMK IEM_DS3505
ZBTJ,1988-01-21 14:23,ZBTJ 211423Z AUTO 23006KT RMK IEM_DS3505
ZBTJ,1988-01-21 15:00,ZBTJ 211500Z AUTO 27006KT 4SM 01/M11 A2985 RMK T00101110 IEM_DS3505
ZBTJ,1988-01-21 15:23,ZBTJ 211523Z AUTO 27006KT 4SM 01/M11 A2985 RMK T00101110 IEM_DS3505
ZBTJ,1988-01-21 16:00,ZBTJ 211600Z AUTO 30010KT 4SM 01/M11 A2985 RMK T00101110 IEM_DS3505
ZBTJ,1988-01-21 16:23,ZBTJ 211623Z AUTO 30010KT 4SM 01/M11 A2985 RMK T00101110 IEM_DS3505
ZBTJ,1988-01-21 17:00,ZBTJ 211700Z AUTO 31014KT RMK IEM_DS3505
ZBTJ,1988-01-21 17:23,ZBTJ 211723Z AUTO 31014KT RMK IEM_DS3505
ZBTJ,1988-01-21 22:00,ZBTJ 212200Z AUTO 31019KT RMK IEM_DS3505
ZBTJ,1988-01-21 22:24,ZBTJ 212224Z AUTO 31019KT RMK IEM_DS3505
ZBTJ,1988-01-21 23:00,ZBTJ 212300Z AUTO 32019KT RMK IEM_DS3505
ZBTJ,1988-01-21 23:26,ZBTJ 212326Z AUTO 32019KT RMK IEM_DS3505
ZBTJ,1988-01-22 00:00,ZBTJ 220000Z AUTO 30019KT RMK IEM_DS3505
ZBTJ,1988-01-22 00:27,ZBTJ 220027Z AUTO 30019KT RMK IEM_DS3505
ZBTJ,1988-01-22 04:00,ZBTJ 220400Z AUTO 30025KT 7SM M03/ A3006 RMK IEM_DS3505
ZBTJ,1988-01-22 04:26,ZBTJ 220426Z AUTO 30025KT 7SM M03/ A3006 RMK IEM_DS3505
ZBTJ,1988-01-22 05:00,ZBTJ 220500Z AUTO 30029KT 7SM M03/M22 A3006 RMK T10301220 IEM_DS3505
ZBTJ,1988-01-22 05:25,ZBTJ 220525Z AUTO 30029KT 7SM M03/M22 A3006 RMK T10301220 IEM_DS3505
ZBTJ,1988-01-22 06:00,ZBTJ 220600Z AUTO 30027KT 7SM M04/M24 A3009 RMK T10401240 IEM_DS3505
ZBTJ,1988-01-22 06:34,ZBTJ 220634Z AUTO 30027KT 7SM M04/M24 A3009 RMK T10401240 IEM_DS3505
ZBTJ,1988-01-22 07:00,ZBTJ 220700Z AUTO 31031KT 7SM M04/M24 A3012 RMK T10401240 IEM_DS3505
ZBTJ,1988-01-22 07:19,ZBTJ 220719Z AUTO 31031KT 7SM M04/M24 A3012 RMK T10401240 IEM_DS3505
ZBTJ,1988-01-22 08:00,ZBTJ 220800Z AUTO 31033KT 7SM M05/M25 A3012 RMK T10501250 IEM_DS3505
ZBTJ,1988-01-22 08:20,ZBTJ 220820Z AUTO 31033KT 7SM M05/M25 A3012 RMK T10501250 IEM_DS3505
ZBTJ,1988-01-22 09:00,ZBTJ 220900Z AUTO 32033KT 7SM M06/M25 A3015 RMK T10601250 IEM_DS3505
ZBTJ,1988-01-22 09:19,ZBTJ 220919Z AUTO 32033KT 7SM M06/M25 A3015 RMK T10601250 IEM_DS3505
ZBTJ,1988-01-22 13:24,ZBTJ 221324Z AUTO 32014KT 7SM M08/M23 A3030 RMK T10801230 IEM_DS3505
ZBTJ,1988-01-22 23:00,ZBTJ 222300Z AUTO 31025KT 7SM M12/M22 A3036 RMK T11201220 IEM_DS3505
ZBTJ,1988-01-22 23:24,ZBTJ 222324Z AUTO 31025KT 7SM M12/M22 A3036 RMK T11201220 IEM_DS3505
ZBTJ,1988-01-23 04:00,ZBTJ 230400Z AUTO 32027KT 7SM M08/M21 A3042 RMK T10801210 IEM_DS3505
ZBTJ,1988-01-23 04:25,ZBTJ 230425Z AUTO 32027KT 7SM M08/M21 A3042 RMK T10801210 IEM_DS3505
ZBTJ,1988-01-23 05:00,ZBTJ 230500Z AUTO 31025KT 7SM M08/M30 A3039 RMK T10801300 IEM_DS3505
ZBTJ,1988-01-23 05:25,ZBTJ 230525Z AUTO 31025KT 7SM M08/M30 A3039 RMK T10801300 IEM_DS3505
ZBTJ,1988-01-23 06:00,ZBTJ 230600Z AUTO 31023KT 7SM M07/M27 A3036 RMK T10701270 IEM_DS3505
ZBTJ,1988-01-23 06:25,ZBTJ 230625Z AUTO 31023KT 7SM M07/M27 A3036 RMK T10701270 IEM_DS3505
ZBTJ,1988-01-23 07:00,ZBTJ 230700Z AUTO 31023KT 7SM M07/M27 A3036 RMK T10701270 IEM_DS3505
ZBTJ,1988-01-23 07:25,ZBTJ 230725Z AUTO 31023KT 7SM M07/M27 A3036 RMK T10701270 IEM_DS3505
ZBTJ,1988-01-23 08:00,ZBTJ 230800Z AUTO 31023KT 7SM M07/M27 A3033 RMK T10701270 IEM_DS3505
ZBTJ,1988-01-23 08:24,ZBTJ 230824Z AUTO 31023KT 7SM M07/M27 A3033 RMK T10701270 IEM_DS3505
ZBTJ,1988-01-23 09:00,ZBTJ 230900Z AUTO 30017KT 7SM M08/M23 A3033 RMK T10801230 IEM_DS3505
ZBTJ,1988-01-23 09:25,ZBTJ 230925Z AUTO 30017KT 7SM M08/M23 A3033 RMK T10801230 IEM_DS3505
ZBTJ,1988-01-23 10:24,ZBTJ 231024Z AUTO 30010KT 7SM M09/M28 A3036 RMK T10901280 IEM_DS3505
ZBTJ,1988-01-23 11:00,ZBTJ 231100Z AUTO 32006KT 7SM M10/M25 A3036 RMK T11001250 IEM_DS3505
ZBTJ,1988-01-23 11:25,ZBTJ 231125Z AUTO 32006KT 7SM M10/M25 A3036 RMK T11001250 IEM_DS3505
ZBTJ,1988-01-23 12:00,ZBTJ 231200Z AUTO 32012KT 7SM M10/M23 A3036 RMK T11001230 IEM_DS3505
ZBTJ,1988-01-23 12:24,ZBTJ 231224Z AUTO 32012KT 7SM M10/M23 A3036 RMK T11001230 IEM_DS3505
ZBTJ,1988-01-23 22:00,ZBTJ 232200Z AUTO 24004KT 7SM M11/M20 A3030 RMK T11101200 IEM_DS3505
ZBTJ,1988-01-23 22:25,ZBTJ 232225Z AUTO 24004KT 7SM M11/M20 A3030 RMK T11101200 IEM_DS3505
ZBTJ,1988-01-23 23:00,ZBTJ 232300Z AUTO 24002KT RMK IEM_DS3505
ZBTJ,1988-01-23 23:24,ZBTJ 232324Z AUTO 24002KT RMK IEM_DS3505
ZBTJ,1988-01-24 00:00,ZBTJ 240000Z AUTO 22004KT 3SM M11/M19 A3030 RMK T11101190 IEM_DS3505
ZBTJ,1988-01-24 00:25,ZBTJ 240025Z AUTO 22004KT 3SM M11/M19 A3030 RMK T11101190 IEM_DS3505
ZBTJ,1988-01-24 01:00,ZBTJ 240100Z AUTO 23002KT 1SM M08/M18 A3033 RMK T10801180 IEM_DS3505
ZBTJ,1988-01-24 01:25,ZBTJ 240125Z AUTO 23002KT 1SM M08/M18 A3033 RMK T10801180 IEM_DS3505
ZBTJ,1988-01-24 02:00,ZBTJ 240200Z AUTO 25004KT 2 1/2SM M06/M12 A3033 RMK T10601120 IEM_DS3505
ZBTJ,1988-01-24 02:25,ZBTJ 240225Z AUTO 25004KT 2 1/2SM M06/M12 A3033 RMK T10601120 IEM_DS3505
ZBTJ,1988-01-24 03:00,ZBTJ 240300Z AUTO 25008KT 3SM M05/M11 A3033 RMK T10501110 IEM_DS3505
ZBTJ,1988-01-24 03:25,ZBTJ 240325Z AUTO 25008KT 3SM M05/M11 A3033 RMK T10501110 IEM_DS3505
ZBTJ,1988-01-24 04:00,ZBTJ 240400Z AUTO 31006KT RMK IEM_DS3505
ZBTJ,1988-01-24 04:25,ZBTJ 240425Z AUTO 31006KT RMK IEM_DS3505
ZBTJ,1988-01-24 05:00,ZBTJ 240500Z AUTO 30008KT RMK IEM_DS3505
ZBTJ,1988-01-24 05:25,ZBTJ 240525Z AUTO 30008KT RMK IEM_DS3505
ZBTJ,1988-01-24 06:00,ZBTJ 240600Z AUTO 31004KT 6SM M03/M19 A3021 RMK T10301190 IEM_DS3505
ZBTJ,1988-01-24 06:26,ZBTJ 240626Z AUTO 31004KT 6SM M03/M19 A3021 RMK T10301190 IEM_DS3505
ZBTJ,1988-01-24 07:00,ZBTJ 240700Z AUTO 29004KT RMK IEM_DS3505
ZBTJ,1988-01-24 07:26,ZBTJ 240726Z AUTO 29004KT RMK IEM_DS3505
ZBTJ,1988-01-24 08:00,ZBTJ 240800Z AUTO 00000KT RMK IEM_DS3505
ZBTJ,1988-01-24 08:25,ZBTJ 240825Z AUTO 00000KT RMK IEM_DS3505
ZBTJ,1988-01-24 09:00,ZBTJ 240900Z AUTO 23004KT 7SM M03/M18 A3021 RMK T10301180 IEM_DS3505
ZBTJ,1988-01-24 09:25,ZBTJ 240925Z AUTO 23004KT 7SM M03/M18 A3021 RMK T10301180 IEM_DS3505
ZBTJ,1988-01-24 11:00,ZBTJ 241100Z AUTO 00000KT 4SM M06/M19 A3021 RMK T10601190 IEM_DS3505
ZBTJ,1988-01-24 11:25,ZBTJ 241125Z AUTO 00000KT 4SM M06/M19 A3021 RMK T10601190 IEM_DS3505
ZBTJ,1988-01-24 12:00,ZBTJ 241200Z AUTO 20004KT 4SM M06/M20 A3021 RMK T10601200 IEM_DS3505
ZBTJ,1988-01-24 12:26,ZBTJ 241226Z AUTO 20004KT 4SM M06/M20 A3021 RMK T10601200 IEM_DS3505
ZBTJ,1988-01-24 13:00,ZBTJ 241300Z AUTO 21004KT 4SM M07/M17 A3021 RMK T10701170 IEM_DS3505
ZBTJ,1988-01-24 13:24,ZBTJ 241324Z AUTO 21004KT 4SM M07/M17 A3021 RMK T10701170 IEM_DS3505
ZBTJ,1988-01-24 22:00,ZBTJ 242200Z AUTO 26006KT RMK IEM_DS3505
ZBTJ,1988-01-24 22:25,ZBTJ 242225Z AUTO 26006KT RMK IEM_DS3505
ZBTJ,1988-01-24 23:00,ZBTJ 242300Z AUTO 24004KT 2 1/2SM M09/M19 A3021 RMK T10901190 IEM_DS3505
ZBTJ,1988-01-24 23:25,ZBTJ 242325Z AUTO 24004KT 2 1/2SM M09/M19 A3021 RMK T10901190 IEM_DS3505
ZBTJ,1988-01-25 02:00,ZBTJ 250200Z AUTO 32010KT 7SM M02/M18 A3024 RMK T10201180 IEM_DS3505
ZBTJ,1988-01-25 02:25,ZBTJ 250225Z AUTO 32010KT 7SM M02/M18 A3024 RMK T10201180 IEM_DS3505
ZBTJ,1988-01-25 03:00,ZBTJ 250300Z AUTO 30012KT 7SM M01/M16 A3024 RMK T10101160 IEM_DS3505
ZBTJ,1988-01-25 03:25,ZBTJ 250325Z AUTO 30012KT 7SM M01/M16 A3024 RMK T10101160 IEM_DS3505
ZBTJ,1988-01-25 04:00,ZBTJ 250400Z AUTO 31014KT 7SM 00/M17 A3021 RMK T00001170 IEM_DS3505
ZBTJ,1988-01-25 04:26,ZBTJ 250426Z AUTO 31014KT 7SM 00/M17 A3021 RMK T00001170 IEM_DS3505
ZBTJ,1988-01-25 09:00,ZBTJ 250900Z AUTO 23008KT 7SM 00/M21 A3018 RMK T00001210 IEM_DS3505
ZBTJ,1988-01-25 09:25,ZBTJ 250925Z AUTO 23008KT 7SM 00/M21 A3018 RMK T00001210 IEM_DS3505
ZBTJ,1988-01-25 10:00,ZBTJ 251000Z AUTO 23006KT 7SM M02/M14 A3021 RMK T10201140 IEM_DS3505
ZBTJ,1988-01-25 10:25,ZBTJ 251025Z AUTO 23006KT 7SM M02/M14 A3021 RMK T10201140 IEM_DS3505
ZBTJ,1988-01-25 11:00,ZBTJ 251100Z AUTO 22006KT 7SM M03/M16 A3021 RMK T10301160 IEM_DS3505
ZBTJ,1988-01-25 11:25,ZBTJ 251125Z AUTO 22006KT 7SM M03/M16 A3021 RMK T10301160 IEM_DS3505
ZBTJ,1988-01-25 12:00,ZBTJ 251200Z AUTO 22004KT 7SM M04/M15 A3024 RMK T10401150 IEM_DS3505
ZBTJ,1988-01-25 12:25,ZBTJ 251225Z AUTO 22004KT 7SM M04/M15 A3024 RMK T10401150 IEM_DS3505
ZBTJ,1988-01-25 13:00,ZBTJ 251300Z AUTO 21008KT 7SM M05/M18 A3024 RMK T10501180 IEM_DS3505
ZBTJ,1988-01-25 13:26,ZBTJ 251326Z AUTO 21008KT 7SM M05/M18 A3024 RMK T10501180 IEM_DS3505
ZBTJ,1988-01-26 04:00,ZBTJ 260400Z AUTO 11004KT 2 1/2SM 02/M11 A3027 RMK T00201110 IEM_DS3505
ZBTJ,1988-01-26 04:24,ZBTJ 260424Z AUTO 11004KT 2 1/2SM 02/M11 A3027 RMK T00201110 IEM_DS3505
ZBTJ,1988-01-26 05:00,ZBTJ 260500Z AUTO 11004KT 4SM 03/M11 A3024 RMK T00301110 IEM_DS3505
ZBTJ,1988-01-26 05:24,ZBTJ 260524Z AUTO 11004KT 4SM 03/M11 A3024 RMK T00301110 IEM_DS3505
ZBTJ,1988-01-26 06:00,ZBTJ 260600Z AUTO 11006KT 4SM 04/M11 A3018 RMK T00401110 IEM_DS3505
ZBTJ,1988-01-26 06:24,ZBTJ 260624Z AUTO 11006KT 4SM 04/M11 A3018 RMK T00401110 IEM_DS3505
ZBTJ,1988-01-26 07:00,ZBTJ 260700Z AUTO 12008KT 4SM 04/M12 A3018 RMK T00401120 IEM_DS3505
ZBTJ,1988-01-26 07:25,ZBTJ 260725Z AUTO 12008KT 4SM 04/M12 A3018 RMK T00401120 IEM_DS3505
ZBTJ,1988-01-26 08:00,ZBTJ 260800Z AUTO 12006KT 4SM 03/ A3018 RMK IEM_DS3505
ZBTJ,1988-01-26 08:25,ZBTJ 260825Z AUTO 12006KT 4SM 03/ A3018 RMK IEM_DS3505
ZBTJ,1988-01-27 00:00,ZBTJ 270000Z AUTO 33016KT 7SM M08/M15 A3024 RMK T10801150 IEM_DS3505
ZBTJ,1988-01-27 00:25,ZBTJ 270025Z AUTO 33016KT 7SM M08/M15 A3024 RMK T10801150 IEM_DS3505
ZBTJ,1988-01-27 01:00,ZBTJ 270100Z AUTO 34012KT 7SM M03/M15 A3027 RMK T10301150 IEM_DS3505
ZBTJ,1988-01-27 01:24,ZBTJ 270124Z AUTO 34012KT 7SM M03/M15 A3027 RMK T10301150 IEM_DS3505
ZBTJ,1988-01-27 02:00,ZBTJ 270200Z AUTO 30019KT 7SM M01/M17 A3027 RMK T10101170 IEM_DS3505
ZBTJ,1988-01-27 02:24,ZBTJ 270224Z AUTO 30019KT 7SM M01/M17 A3027 RMK T10101170 IEM_DS3505
ZBTJ,1988-01-27 03:00,ZBTJ 270300Z AUTO 35016KT 7SM 01/M13 A3030 RMK T00101130 IEM_DS3505
ZBTJ,1988-01-27 03:24,ZBTJ 270324Z AUTO 35016KT 7SM 01/M13 A3030 RMK T00101130 IEM_DS3505
ZBTJ,1988-01-27 04:00,ZBTJ 270400Z AUTO 33017KT 7SM 02/M21 A3027 RMK T00201210 IEM_DS3505
ZBTJ,1988-01-27 04:24,ZBTJ 270424Z AUTO 33017KT 7SM 02/M21 A3027 RMK T00201210 IEM_DS3505
ZBTJ,1988-01-27 05:00,ZBTJ 270500Z AUTO 34016KT 7SM 03/M20 A3024 RMK T00301200 IEM_DS3505
ZBTJ,1988-01-27 05:24,ZBTJ 270524Z AUTO 34016KT 7SM 03/M20 A3024 RMK T00301200 IEM_DS3505
ZBTJ,1988-01-27 06:00,ZBTJ 270600Z AUTO 33012KT 7SM 03/M19 A3021 RMK T00301190 IEM_DS3505
ZBTJ,1988-01-27 06:24,ZBTJ 270624Z AUTO 33012KT 7SM 03/M19 A3021 RMK T00301190 IEM_DS3505
ZBTJ,1988-01-27 07:00,ZBTJ 270700Z AUTO 33010KT 7SM 03/M20 A3021 RMK T00301200 IEM_DS3505
ZBTJ,1988-01-27 07:24,ZBTJ 270724Z AUTO 33010KT 7SM 03/M20 A3021 RMK T00301200 IEM_DS3505
ZBTJ,1988-01-27 08:00,ZBTJ 270800Z AUTO 34006KT 7SM 03/M15 A3021 RMK T00301150 IEM_DS3505
ZBTJ,1988-01-27 08:24,ZBTJ 270824Z AUTO 34006KT 7SM 03/M15 A3021 RMK T00301150 IEM_DS3505
ZBTJ,1988-01-27 09:25,ZBTJ 270925Z AUTO 03002KT 7SM 02/M13 A3021 RMK T00201130 IEM_DS3505
ZBTJ,1988-01-27 10:24,ZBTJ 271024Z AUTO 10006KT 7SM M02/M15 A3018 RMK T10201150 IEM_DS3505
ZBTJ,1988-01-27 12:23,ZBTJ 271223Z AUTO 17008KT 7SM M04/M13 A3018 RMK T10401130 IEM_DS3505
ZBTJ,1988-01-27 13:00,ZBTJ 271300Z AUTO 18004KT 7SM M06/M13 A3018 RMK T10601130 IEM_DS3505
ZBTJ,1988-01-27 13:23,ZBTJ 271323Z AUTO 18004KT 7SM M06/M13 A3018 RMK T10601130 IEM_DS3505
ZBTJ,1988-01-27 15:00,ZBTJ 271500Z AUTO 19006KT 7SM M05/M13 A3018 RMK T10501130 IEM_DS3505
ZBTJ,1988-01-27 15:23,ZBTJ 271523Z AUTO 19006KT 7SM M05/M13 A3018 RMK T10501130 IEM_DS3505
ZBTJ,1988-01-27 22:00,ZBTJ 272200Z AUTO 36004KT 7SM M09/M11 A3003 RMK T10901110 IEM_DS3505
ZBTJ,1988-01-27 22:24,ZBTJ 272224Z AUTO 36004KT 7SM M09/M11 A3003 RMK T10901110 IEM_DS3505
ZBTJ,1988-01-27 23:00,ZBTJ 272300Z AUTO 33010KT RMK IEM_DS3505
ZBTJ,1988-01-27 23:24,ZBTJ 272324Z AUTO 33010KT RMK IEM_DS3505
ZBTJ,1988-01-28 00:00,ZBTJ 280000Z AUTO 04008KT RMK IEM_DS3505
ZBTJ,1988-01-28 00:24,ZBTJ 280024Z AUTO 04008KT RMK IEM_DS3505
ZBTJ,1988-01-28 02:00,ZBTJ 280200Z AUTO 01006KT 5SM M03/M13 A3009 RMK T10301130 IEM_DS3505
ZBTJ,1988-01-28 02:24,ZBTJ 280224Z AUTO 01006KT 5SM M03/M13 A3009 RMK T10301130 IEM_DS3505
ZBTJ,1988-01-28 03:00,ZBTJ 280300Z AUTO 33014KT RMK IEM_DS3505
ZBTJ,1988-01-28 03:24,ZBTJ 280324Z AUTO 33014KT RMK IEM_DS3505
ZBTJ,1988-01-28 04:00,ZBTJ 280400Z AUTO 33017KT 6SM 03/M13 A3009 RMK T00301130 IEM_DS3505
ZBTJ,1988-01-28 04:25,ZBTJ 280425Z AUTO 33017KT 6SM 03/M13 A3009 RMK T00301130 IEM_DS3505
ZBTJ,1988-01-28 05:00,ZBTJ 280500Z AUTO 33017KT 7SM 03/M12 A3006 RMK T00301120 IEM_DS3505
ZBTJ,1988-01-28 05:25,ZBTJ 280525Z AUTO 33017KT 7SM 03/M12 A3006 RMK T00301120 IEM_DS3505
ZBTJ,1988-01-28 06:00,ZBTJ 280600Z AUTO 33021KT 7SM 03/M13 A3006 RMK T00301130 IEM_DS3505
ZBTJ,1988-01-28 06:25,ZBTJ 280625Z AUTO 33021KT 7SM 03/M13 A3006 RMK T00301130 IEM_DS3505
ZBTJ,1988-01-28 07:00,ZBTJ 280700Z AUTO 33021KT 7SM 03/M14 A3006 RMK T00301140 IEM_DS3505
ZBTJ,1988-01-28 07:25,ZBTJ 280725Z AUTO 33021KT 7SM 03/M14 A3006 RMK T00301140 IEM_DS3505
ZBTJ,1988-01-28 08:24,ZBTJ 280824Z AUTO 33017KT 7SM 03/M15 A3006 RMK T00301150 IEM_DS3505
ZBTJ,1988-01-28 09:00,ZBTJ 280900Z AUTO 33017KT 7SM 01/M17 A3009 RMK T00101170 IEM_DS3505
ZBTJ,1988-01-28 09:25,ZBTJ 280925Z AUTO 33017KT 7SM 01/M17 A3009 RMK T00101170 IEM_DS3505
ZBTJ,1988-01-28 10:57,ZBTJ 281057Z AUTO 33016KT 7SM 00/M21 A3012 RMK T00001210 IEM_DS3505
ZBTJ,1988-01-28 11:00,ZBTJ 281100Z AUTO 33016KT 7SM M02/M20 A3015 RMK T10201200 IEM_DS3505
ZBTJ,1988-01-28 11:24,ZBTJ 281124Z AUTO 33016KT 7SM M02/M20 A3015 RMK T10201200 IEM_DS3505
ZBTJ,1988-01-28 12:00,ZBTJ 281200Z AUTO 33016KT 7SM M02/M22 A3018 RMK T10201220 IEM_DS3505
ZBTJ,1988-01-28 12:24,ZBTJ 281224Z AUTO 33016KT 7SM M02/M22 A3018 RMK T10201220 IEM_DS3505
ZBTJ,1988-01-28 13:00,ZBTJ 281300Z AUTO 33016KT 7SM M02/M22 A3021 RMK T10201220 IEM_DS3505
ZBTJ,1988-01-28 13:24,ZBTJ 281324Z AUTO 33016KT 7SM M02/M22 A3021 RMK T10201220 IEM_DS3505
ZBTJ,1988-01-28 14:00,ZBTJ 281400Z AUTO 33016KT 7SM M03/M22 A3024 RMK T10301220 IEM_DS3505
ZBTJ,1988-01-28 14:23,ZBTJ 281423Z AUTO 33016KT 7SM M03/M22 A3024 RMK T10301220 IEM_DS3505
ZBTJ,1988-01-28 22:00,ZBTJ 282200Z AUTO 33014KT 7SM M06/M22 A3033 RMK T10601220 IEM_DS3505
ZBTJ,1988-01-28 22:24,ZBTJ 282224Z AUTO 33014KT 7SM M06/M22 A3033 RMK T10601220 IEM_DS3505
ZBTJ,1988-01-28 23:24,ZBTJ 282324Z AUTO 34010KT 7SM M08/M22 A3033 RMK T10801220 IEM_DS3505
ZBTJ,1988-01-29 00:00,ZBTJ 290000Z AUTO 35004KT 7SM M08/M20 A3036 RMK T10801200 IEM_DS3505
ZBTJ,1988-01-29 00:26,ZBTJ 290026Z AUTO 35004KT 7SM M08/M20 A3036 RMK T10801200 IEM_DS3505
ZBTJ,1988-01-29 01:00,ZBTJ 290100Z AUTO 34014KT 7SM M05/M18 A3036 RMK T10501180 IEM_DS3505
ZBTJ,1988-01-29 01:24,ZBTJ 290124Z AUTO 34014KT 7SM M05/M18 A3036 RMK T10501180 IEM_DS3505
ZBTJ,1988-01-29 03:00,ZBTJ 290300Z AUTO 33017KT RMK IEM_DS3505
ZBTJ,1988-01-29 03:37,ZBTJ 290337Z AUTO 33017KT RMK IEM_DS3505
ZBTJ,1988-01-29 08:00,ZBTJ 290800Z AUTO 31010KT RMK IEM_DS3505
ZBTJ,1988-01-29 08:24,ZBTJ 290824Z AUTO 31010KT RMK IEM_DS3505
ZBTJ,1988-01-29 09:00,ZBTJ 290900Z AUTO 31008KT RMK IEM_DS3505
ZBTJ,1988-01-29 09:28,ZBTJ 290928Z AUTO 31008KT RMK IEM_DS3505
ZBTJ,1988-01-29 10:00,ZBTJ 291000Z AUTO 33004KT RMK IEM_DS3505
ZBTJ,1988-01-29 10:24,ZBTJ 291024Z AUTO 33004KT RMK IEM_DS3505
ZBTJ,1988-01-29 11:00,ZBTJ 291100Z AUTO 25004KT 7SM M05/M14 A3039 RMK T10501140 IEM_DS3505
ZBTJ,1988-01-29 11:23,ZBTJ 291123Z AUTO 25004KT 7SM M05/M14 A3039 RMK T10501140 IEM_DS3505
ZBTJ,1988-01-29 11:25,ZBTJ 291125Z AUTO 25004KT 7SM M05/M14 A3039 RMK T10501140 IEM_DS3505
ZBTJ,1988-01-29 12:00,ZBTJ 291200Z AUTO 26006KT 7SM M05/M14 A3039 RMK T10501140 IEM_DS3505
ZBTJ,1988-01-29 12:04,ZBTJ 291204Z AUTO 25004KT 7SM M05/M14 A3039 RMK T10501140 IEM_DS3505
ZBTJ,1988-01-29 12:26,ZBTJ 291226Z AUTO 26006KT 7SM M05/M14 A3039 RMK T10501140 IEM_DS3505
ZBTJ,1988-01-29 13:00,ZBTJ 291300Z AUTO 27004KT 7SM M04/M12 A3042 RMK T10401120 IEM_DS3505
ZBTJ,1988-01-29 13:25,ZBTJ 291325Z AUTO 27004KT 7SM M04/M12 A3042 RMK T10401120 IEM_DS3505
ZBTJ,1988-01-29 23:00,ZBTJ 292300Z AUTO 28006KT RMK IEM_DS3505
ZBTJ,1988-01-29 23:25,ZBTJ 292325Z AUTO 28006KT RMK IEM_DS3505
ZBTJ,1988-01-30 00:00,ZBTJ 300000Z AUTO 27002KT 4SM M08/M16 A3042 RMK T10801160 IEM_DS3505
ZBTJ,1988-01-30 01:00,ZBTJ 300100Z AUTO 30004KT 2SM M04/M18 A3045 RMK T10401180 IEM_DS3505
ZBTJ,1988-01-30 01:25,ZBTJ 300125Z AUTO 30004KT 2SM M04/M18 A3045 RMK T10401180 IEM_DS3505
ZBTJ,1988-01-30 03:00,ZBTJ 300300Z AUTO 30019KT 7SM 00/M12 A3042 RMK T00001120 IEM_DS3505
ZBTJ,1988-01-30 03:25,ZBTJ 300325Z AUTO 30019KT 7SM 00/M12 A3042 RMK T00001120 IEM_DS3505
ZBTJ,1988-01-30 05:00,ZBTJ 300500Z AUTO 32027KT 7SM 01/M11 A3039 RMK T00101110 IEM_DS3505
ZBTJ,1988-01-30 05:26,ZBTJ 300526Z AUTO 32027KT 7SM 01/M11 A3039 RMK T00101110 IEM_DS3505
ZBTJ,1988-01-30 05:40,ZBTJ 300540Z AUTO 32027KT 7SM 01/M11 A3039 RMK T00101110 IEM_DS3505
ZBTJ,1988-01-30 06:00,ZBTJ 300600Z AUTO 32023KT 7SM 02/M11 A3036 RMK T00201110 IEM_DS3505
ZBTJ,1988-01-30 06:25,ZBTJ 300625Z AUTO 32023KT 7SM 02/M11 A3036 RMK T00201110 IEM_DS3505
ZBTJ,1988-01-30 10:00,ZBTJ 301000Z AUTO 30010KT 7SM M02/M19 A3039 RMK T10201190 IEM_DS3505
ZBTJ,1988-01-30 10:25,ZBTJ 301025Z AUTO 30010KT 7SM M02/M19 A3039 RMK T10201190 IEM_DS3505
ZBTJ,1988-01-30 11:00,ZBTJ 301100Z AUTO 32014KT 7SM M02/M16 A3039 RMK T10201160 IEM_DS3505
ZBTJ,1988-01-30 11:23,ZBTJ 301123Z AUTO 32014KT 7SM M02/M16 A3039 RMK T10201160 IEM_DS3505
ZBTJ,1988-01-30 12:00,ZBTJ 301200Z AUTO 31012KT 7SM M02/M17 A3039 RMK T10201170 IEM_DS3505
ZBTJ,1988-01-30 12:26,ZBTJ 301226Z AUTO 31012KT 7SM M02/M17 A3039 RMK T10201170 IEM_DS3505
ZBTJ,1988-01-30 22:00,ZBTJ 302200Z AUTO 25004KT 4SM M09/M15 A3033 RMK T10901150 IEM_DS3505
ZBTJ,1988-01-30 22:26,ZBTJ 302226Z AUTO 25004KT 4SM M09/M15 A3033 RMK T10901150 IEM_DS3505
ZBTJ,1988-01-31 02:00,ZBTJ 310200Z AUTO 00000KT 1SM M08/M13 A3033 RMK T10801130 IEM_DS3505
ZBTJ,1988-01-31 02:23,ZBTJ 310223Z AUTO 00000KT 1SM M08/M13 A3033 RMK T10801130 IEM_DS3505
ZBTJ,1988-01-31 03:00,ZBTJ 310300Z AUTO 25004KT 3SM A3030 RMK IEM_DS3505
ZBTJ,1988-01-31 03:23,ZBTJ 310323Z AUTO 25004KT 3SM 01/M07 A3030 RMK T00101070 IEM_DS3505
ZBTJ,1988-01-31 04:00,ZBTJ 310400Z AUTO 25002KT 7SM 02/M10 A3027 RMK T00201100 IEM_DS3505
ZBTJ,1988-01-31 04:23,ZBTJ 310423Z AUTO 25002KT 7SM 02/M10 A3027 RMK T00201100 IEM_DS3505
ZBTJ,1988-01-31 05:00,ZBTJ 310500Z AUTO 25008KT 7SM 03/M11 A3021 RMK T00301110 IEM_DS3505
ZBTJ,1988-01-31 05:24,ZBTJ 310524Z AUTO 25008KT 7SM 03/M11 A3021 RMK T00301110 IEM_DS3505
ZBTJ,1988-01-31 06:00,ZBTJ 310600Z AUTO 22010KT 7SM 03/M10 A3018 RMK T00301100 IEM_DS3505
ZBTJ,1988-01-31 06:23,ZBTJ 310623Z AUTO 22010KT 7SM 03/M10 A3018 RMK T00301100 IEM_DS3505
ZBTJ,1988-01-31 07:00,ZBTJ 310700Z AUTO 20006KT 7SM 04/M11 A3015 RMK T00401110 IEM_DS3505
ZBTJ,1988-01-31 07:24,ZBTJ 310724Z AUTO 20006KT 7SM 04/M11 A3015 RMK T00401110 IEM_DS3505
ZBTJ,1988-01-31 09:00,ZBTJ 310900Z AUTO 14006KT 7SM 01/M10 A3015 RMK T00101100 IEM_DS3505
ZBTJ,1988-01-31 09:23,ZBTJ 310923Z AUTO 14006KT 7SM 01/M10 A3015 RMK T00101100 IEM_DS3505
ZBTJ,1988-01-31 10:00,ZBTJ 311000Z AUTO 12004KT 7SM M03/M13 A3015 RMK T10301130 IEM_DS3505
ZBTJ,1988-01-31 10:23,ZBTJ 311023Z AUTO 12004KT 7SM M03/M13 A3015 RMK T10301130 IEM_DS3505
ZBTJ,1988-01-31 11:00,ZBTJ 311100Z AUTO 12006KT 7SM M04/M12 A3015 RMK T10401120 IEM_DS3505
ZBTJ,1988-01-31 11:24,ZBTJ 311124Z AUTO 12006KT 7SM M04/M12 A3015 RMK T10401120 IEM_DS3505
ZBTJ,1988-01-31 12:23,ZBTJ 311223Z AUTO 13004KT 7SM M05/M10 A3015 RMK T10501100 IEM_DS3505
ZBTJ,1988-02-01 00:00,ZBTJ 010000Z AUTO 00000KT 1SM M09/M11 A3006 RMK T10901110 IEM_DS3505
ZBTJ,1988-02-01 00:41,ZBTJ 010041Z AUTO 00000KT 1SM M09/M11 A3006 RMK T10901110 IEM_DS3505
ZBTJ,1988-02-01 00:42,ZBTJ 010042Z AUTO 00000KT 1SM M09/M11 A3006 RMK T10901110 IEM_DS3505
ZBTJ,1988-02-01 01:00,ZBTJ 010100Z AUTO 00000KT 1SM M05/M07 A3009 RMK T10501070 IEM_DS3505
ZBTJ,1988-02-01 01:25,ZBTJ 010125Z AUTO 00000KT 1SM M05/M07 A3009 RMK T10501070 IEM_DS3505
ZBTJ,1988-02-01 01:32,ZBTJ 010132Z AUTO 00000KT 1SM M05/M07 A3009 RMK T10501070 IEM_DS3505
ZBTJ,1988-02-01 02:00,ZBTJ 010200Z AUTO 00000KT 1/2SM M01/M04 A3009 RMK T10101040 IEM_DS3505
ZBTJ,1988-02-01 02:26,ZBTJ 010226Z AUTO 00000KT 1/2SM M01/M04 A3009 RMK T10101040 IEM_DS3505
ZBTJ,1988-02-01 02:27,ZBTJ 010227Z AUTO 00000KT 1/2SM M01/M04 A3009 RMK T10101040 IEM_DS3505
ZBTJ,1988-02-01 03:25,ZBTJ 010325Z AUTO 30010KT 2 1/2SM 03/M09 A3009 RMK T00301090 IEM_DS3505
ZBTJ,1988-02-01 04:00,ZBTJ 010400Z AUTO 30014KT 7SM 05/M12 A3009 RMK T00501120 IEM_DS3505
ZBTJ,1988-02-01 04:25,ZBTJ 010425Z AUTO 30014KT 7SM 05/M12 A3009 RMK T00501120 IEM_DS3505
ZBTJ,1988-02-01 05:00,ZBTJ 010500Z AUTO 32023G33KT 4SM 06/M20 A3006 RMK T00601200 IEM_DS3505
ZBTJ,1988-02-01 05:26,ZBTJ 010526Z AUTO 32023G33KT 4SM 06/M20 A3006 RMK T00601200 IEM_DS3505
ZBTJ,1988-02-01 06:00,ZBTJ 010600Z AUTO 32027G39KT 7SM 06/M18 A3006 RMK T00601180 IEM_DS3505
ZBTJ,1988-02-01 06:25,ZBTJ 010625Z AUTO 32027G39KT 7SM 06/M18 A3006 RMK T00601180 IEM_DS3505
ZBTJ,1988-02-01 07:00,ZBTJ 010700Z AUTO 32027G37KT 7SM 04/M21 A3009 RMK T00401210 IEM_DS3505
ZBTJ,1988-02-01 07:25,ZBTJ 010725Z AUTO 32027G37KT 7SM 04/M21 A3009 RMK T00401210 IEM_DS3505
ZBTJ,1988-02-01 09:00,ZBTJ 010900Z AUTO 33023KT 7SM 01/M21 A3015 RMK T00101210 IEM_DS3505
ZBTJ,1988-02-01 09:24,ZBTJ 010924Z AUTO 33023KT 7SM 01/M21 A3015 RMK T00101210 IEM_DS3505
ZBTJ,1988-02-01 10:00,ZBTJ 011000Z AUTO 33019KT 7SM 00/M27 A3018 RMK T00001270 IEM_DS3505
ZBTJ,1988-02-01 10:24,ZBTJ 011024Z AUTO 33019KT 7SM 00/M27 A3018 RMK T00001270 IEM_DS3505
ZBTJ,1988-02-01 11:00,ZBTJ 011100Z AUTO 33019KT 7SM M01/M24 A3021 RMK T10101240 IEM_DS3505
ZBTJ,1988-02-01 11:25,ZBTJ 011125Z AUTO 33019KT 7SM M01/M24 A3021 RMK T10101240 IEM_DS3505
ZBTJ,1988-02-01 12:00,ZBTJ 011200Z AUTO 35019KT 7SM M02/M27 A3021 RMK T10201270 IEM_DS3505
ZBTJ,1988-02-01 12:24,ZBTJ 011224Z AUTO 35019KT 7SM M02/M27 A3021 RMK T10201270 IEM_DS3505
ZBTJ,1988-02-01 22:00,ZBTJ 012200Z AUTO 35014KT RMK IEM_DS3505
ZBTJ,1988-02-01 23:00,ZBTJ 012300Z AUTO 36014KT RMK IEM_DS3505
ZBTJ,1988-02-01 23:25,ZBTJ 012325Z AUTO 36014KT RMK IEM_DS3505
ZBTJ,1988-02-02 00:00,ZBTJ 020000Z AUTO 35010KT RMK IEM_DS3505
ZBTJ,1988-02-02 00:25,ZBTJ 020025Z AUTO 35010KT RMK IEM_DS3505
ZBTJ,1988-02-02 02:00,ZBTJ 020200Z AUTO 02019KT RMK IEM_DS3505
ZBTJ,1988-02-02 02:24,ZBTJ 020224Z AUTO 02019KT RMK IEM_DS3505
ZBTJ,1988-02-02 05:00,ZBTJ 020500Z AUTO 35016KT RMK IEM_DS3505
ZBTJ,1988-02-02 05:35,ZBTJ 020535Z AUTO 35016KT RMK IEM_DS3505
ZBTJ,1988-02-02 06:00,ZBTJ 020600Z AUTO 36023KT RMK IEM_DS3505
ZBTJ,1988-02-02 06:28,ZBTJ 020628Z AUTO 36023KT RMK IEM_DS3505
ZBTJ,1988-02-02 07:00,ZBTJ 020700Z AUTO 33012KT 7SM M03/M24 A3042 RMK T10301240 IEM_DS3505
ZBTJ,1988-02-02 07:25,ZBTJ 020725Z AUTO 33012KT 7SM M03/M24 A3042 RMK T10301240 IEM_DS3505
ZBTJ,1988-02-02 08:00,ZBTJ 020800Z AUTO 33012KT 7SM M03/M23 A3042 RMK T10301230 IEM_DS3505
ZBTJ,1988-02-02 08:24,ZBTJ 020824Z AUTO 33012KT 7SM M03/M23 A3042 RMK T10301230 IEM_DS3505
ZBTJ,1988-02-02 10:00,ZBTJ 021000Z AUTO 33014KT 7SM M04/M24 A3042 RMK T10401240 IEM_DS3505
ZBTJ,1988-02-02 10:24,ZBTJ 021024Z AUTO 33014KT 7SM M04/M24 A3042 RMK T10401240 IEM_DS3505
ZBTJ,1988-02-02 10:25,ZBTJ 021025Z AUTO 33014KT 7SM M04/M24 A3042 RMK T10401240 IEM_DS3505
ZBTJ,1988-02-02 11:00,ZBTJ 021100Z AUTO 00000KT 7SM M08/M22 A3045 RMK T10801220 IEM_DS3505
ZBTJ,1988-02-02 11:23,ZBTJ 021123Z AUTO 00000KT 7SM M08/M22 A3045 RMK T10801220 IEM_DS3505
ZBTJ,1988-02-02 12:00,ZBTJ 021200Z AUTO 00000KT 7SM M09/M24 A3045 RMK T10901240 IEM_DS3505
ZBTJ,1988-02-02 12:24,ZBTJ 021224Z AUTO 00000KT 7SM M09/M24 A3045 RMK T10901240 IEM_DS3505
ZBTJ,1988-02-02 14:00,ZBTJ 021400Z AUTO 21006KT 7SM M09/M22 A3045 RMK T10901220 IEM_DS3505
ZBTJ,1988-02-02 14:24,ZBTJ 021424Z AUTO 21006KT 7SM M09/M22 A3045 RMK T10901220 IEM_DS3505
ZBTJ,1988-02-03 00:00,ZBTJ 030000Z AUTO 20004KT RMK IEM_DS3505
ZBTJ,1988-02-03 00:29,ZBTJ 030029Z AUTO 20004KT RMK IEM_DS3505
ZBTJ,1988-02-03 00:36,ZBTJ 030036Z AUTO 20004KT RMK IEM_DS3505
ZBTJ,1988-02-03 04:00,ZBTJ 030400Z AUTO 21010KT 7SM 01/ A3015 RMK IEM_DS3505
ZBTJ,1988-02-03 04:25,ZBTJ 030425Z AUTO 21010KT 7SM 01/M12 A3015 RMK T00101120 IEM_DS3505
ZBTJ,1988-02-03 05:00,ZBTJ 030500Z AUTO 19012KT 7SM 02/M18 A3009 RMK T00201180 IEM_DS3505
ZBTJ,1988-02-03 05:27,ZBTJ 030527Z AUTO 19012KT 7SM 02/M18 A3009 RMK T00201180 IEM_DS3505
ZBTJ,1988-02-03 06:00,ZBTJ 030600Z AUTO 18010KT RMK IEM_DS3505
ZBTJ,1988-02-03 06:26,ZBTJ 030626Z AUTO 18010KT RMK IEM_DS3505
ZBTJ,1988-02-03 07:00,ZBTJ 030700Z AUTO 6SM 03/M14 A2997 RMK T00301140 IEM_DS3505
ZBTJ,1988-02-03 07:25,ZBTJ 030725Z AUTO 6SM 03/M14 A2997 RMK T00301140 IEM_DS3505
ZBTJ,1988-02-03 08:25,ZBTJ 030825Z AUTO 19014KT RMK IEM_DS3505
ZBTJ,1988-02-03 09:00,ZBTJ 030900Z AUTO 21008KT RMK IEM_DS3505
ZBTJ,1988-02-03 09:25,ZBTJ 030925Z AUTO 21008KT RMK IEM_DS3505
ZBTJ,1988-02-03 11:00,ZBTJ 031100Z AUTO 23008KT RMK IEM_DS3505
ZBTJ,1988-02-03 11:27,ZBTJ 031127Z AUTO 23008KT RMK IEM_DS3505
ZBTJ,1988-02-03 12:00,ZBTJ 031200Z AUTO 15006KT RMK IEM_DS3505
ZBTJ,1988-02-03 12:25,ZBTJ 031225Z AUTO 15006KT RMK IEM_DS3505
ZBTJ,1988-02-03 13:00,ZBTJ 031300Z AUTO 16006KT RMK IEM_DS3505
ZBTJ,1988-02-03 13:26,ZBTJ 031326Z AUTO 16006KT RMK IEM_DS3505
ZBTJ,1988-02-03 22:00,ZBTJ 032200Z AUTO 06004KT RMK IEM_DS3505
ZBTJ,1988-02-03 22:26,ZBTJ 032226Z AUTO 06004KT RMK IEM_DS3505
ZBTJ,1988-02-03 23:00,ZBTJ 032300Z AUTO 08004KT RMK IEM_DS3505
ZBTJ,1988-02-04 00:00,ZBTJ 040000Z AUTO 07004KT 4SM M05/M08 A2965 RMK T10501080 IEM_DS3505
ZBTJ,1988-02-04 00:27,ZBTJ 040027Z AUTO 07004KT 4SM M05/M08 A2965 RMK T10501080 IEM_DS3505
ZBTJ,1988-02-04 02:00,ZBTJ 040200Z AUTO 10010KT 3SM 00/M05 A2965 RMK T00001050 IEM_DS3505
ZBTJ,1988-02-04 02:25,ZBTJ 040225Z AUTO 10010KT 3SM 00/M05 A2965 RMK T00001050 IEM_DS3505
ZBTJ,1988-02-04 03:00,ZBTJ 040300Z AUTO 09008KT RMK IEM_DS3505
ZBTJ,1988-02-04 03:23,ZBTJ 040323Z AUTO 09008KT RMK IEM_DS3505
ZBTJ,1988-02-04 04:00,ZBTJ 040400Z AUTO 07008KT RMK IEM_DS3505
ZBTJ,1988-02-04 04:26,ZBTJ 040426Z AUTO 07008KT RMK IEM_DS3505
ZBTJ,1988-02-04 05:00,ZBTJ 040500Z AUTO 07010KT RMK IEM_DS3505
ZBTJ,1988-02-04 05:28,ZBTJ 040528Z AUTO 07010KT RMK IEM_DS3505
ZBTJ,1988-02-04 07:00,ZBTJ 040700Z AUTO 09010KT RMK IEM_DS3505
ZBTJ,1988-02-04 07:27,ZBTJ 040727Z AUTO 09010KT RMK IEM_DS3505
ZBTJ,1988-02-04 08:00,ZBTJ 040800Z AUTO 04012KT 4SM 03/M03 A2962 RMK T00301030 IEM_DS3505
ZBTJ,1988-02-04 08:27,ZBTJ 040827Z AUTO 04012KT 4SM 03/M03 A2962 RMK T00301030 IEM_DS3505
ZBTJ,1988-02-04 09:00,ZBTJ 040900Z AUTO 06014KT RMK IEM_DS3505
ZBTJ,1988-02-04 09:27,ZBTJ 040927Z AUTO 06014KT RMK IEM_DS3505
ZBTJ,1988-02-04 10:00,ZBTJ 041000Z AUTO 07014KT RMK IEM_DS3505
ZBTJ,1988-02-04 10:29,ZBTJ 041029Z AUTO 07014KT RMK IEM_DS3505
ZBTJ,1988-02-04 11:00,ZBTJ 041100Z AUTO 08014KT RMK IEM_DS3505
ZBTJ,1988-02-04 11:27,ZBTJ 041127Z AUTO 08014KT RMK IEM_DS3505
ZBTJ,1988-02-04 22:00,ZBTJ 042200Z AUTO 00000KT 6SM M06/M08 A3003 RMK T10601080 IEM_DS3505
ZBTJ,1988-02-04 22:23,ZBTJ 042223Z AUTO 00000KT 6SM M06/M08 A3003 RMK T10601080 IEM_DS3505
ZBTJ,1988-02-05 00:00,ZBTJ 050000Z AUTO 00000KT 1SM M06/M07 A3012 RMK T10601070 IEM_DS3505
ZBTJ,1988-02-05 00:24,ZBTJ 050024Z AUTO 00000KT 1SM M06/M07 A3012 RMK T10601070 IEM_DS3505
ZBTJ,1988-02-05 03:00,ZBTJ 050300Z AUTO 31014KT 7SM 01/M14 A3021 RMK T00101140 IEM_DS3505
ZBTJ,1988-02-05 03:26,ZBTJ 050326Z AUTO 31014KT 7SM 01/M14 A3021 RMK T00101140 IEM_DS3505
ZBTJ,1988-02-05 04:00,ZBTJ 050400Z AUTO 32017KT 7SM 02/M14 A3021 RMK T00201140 IEM_DS3505
ZBTJ,1988-02-05 04:27,ZBTJ 050427Z AUTO 32017KT 7SM 02/M14 A3021 RMK T00201140 IEM_DS3505
ZBTJ,1988-02-05 05:00,ZBTJ 050500Z AUTO 32029KT 6SM 02/M14 A3018 RMK T00201140 IEM_DS3505
ZBTJ,1988-02-05 05:30,ZBTJ 050530Z AUTO 32029KT 6SM 02/M14 A3018 RMK T00201140 IEM_DS3505
ZBTJ,1988-02-05 06:00,ZBTJ 050600Z AUTO 31025KT 7SM 01/M15 A3021 RMK T00101150 IEM_DS3505
ZBTJ,1988-02-05 06:27,ZBTJ 050627Z AUTO 31025KT 7SM 01/M15 A3021 RMK T00101150 IEM_DS3505
ZBTJ,1988-02-05 07:00,ZBTJ 050700Z AUTO 31025KT 7SM 01/M21 A3021 RMK T00101210 IEM_DS3505
ZBTJ,1988-02-05 07:25,ZBTJ 050725Z AUTO 31025KT 7SM 01/M21 A3021 RMK T00101210 IEM_DS3505
ZBTJ,1988-02-05 08:24,ZBTJ 050824Z AUTO 31025KT 7SM 00/M23 A3024 RMK T00001230 IEM_DS3505
ZBTJ,1988-02-05 10:24,ZBTJ 051024Z AUTO 30014KT 7SM M02/M25 A3030 RMK T10201250 IEM_DS3505
ZBTJ,1988-02-05 13:00,ZBTJ 051300Z AUTO 32014KT 7SM M06/M20 A3042 RMK T10601200 IEM_DS3505
ZBTJ,1988-02-05 13:23,ZBTJ 051323Z AUTO 32014KT 7SM M06/M20 A3042 RMK T10601200 IEM_DS3505
ZBTJ,1988-02-05 22:00,ZBTJ 052200Z AUTO 34010KT 7SM M09/M23 A3039 RMK T10901230 IEM_DS3505
ZBTJ,1988-02-05 22:24,ZBTJ 052224Z AUTO 34010KT 7SM M09/M23 A3039 RMK T10901230 IEM_DS3505
ZBTJ,1988-02-05 23:00,ZBTJ 052300Z AUTO 36006KT 7SM M12/M23 A3036 RMK T11201230 IEM_DS3505
ZBTJ,1988-02-05 23:23,ZBTJ 052323Z AUTO 36006KT 7SM M12/M23 A3036 RMK T11201230 IEM_DS3505
ZBTJ,1988-02-06 02:00,ZBTJ 060200Z AUTO 30004KT 1 1/2SM M04/M24 A3036 RMK T10401240 IEM_DS3505
ZBTJ,1988-02-06 02:27,ZBTJ 060227Z AUTO 30004KT 1 1/2SM M04/M24 A3036 RMK T10401240 IEM_DS3505
ZBTJ,1988-02-06 03:00,ZBTJ 060300Z AUTO 27008KT 4SM M03/M20 A3039 RMK T10301200 IEM_DS3505
ZBTJ,1988-02-06 03:27,ZBTJ 060327Z AUTO 27008KT 4SM M03/M20 A3039 RMK T10301200 IEM_DS3505
ZBTJ,1988-02-06 04:00,ZBTJ 060400Z AUTO 27008KT 4SM M03/M20 A3039 RMK T10301200 IEM_DS3505
ZBTJ,1988-02-06 04:27,ZBTJ 060427Z AUTO 27008KT 4SM M03/M20 A3039 RMK T10301200 IEM_DS3505
ZBTJ,1988-02-06 07:00,ZBTJ 060700Z AUTO 27012KT 7SM 01/M22 A3030 RMK T00101220 IEM_DS3505
ZBTJ,1988-02-06 07:27,ZBTJ 060727Z AUTO 27012KT 7SM 01/M22 A3030 RMK T00101220 IEM_DS3505
ZBTJ,1988-02-06 08:27,ZBTJ 060827Z AUTO 30010KT 7SM 01/M19 A3030 RMK T00101190 IEM_DS3505
ZBTJ,1988-02-06 09:00,ZBTJ 060900Z AUTO 30006KT RMK IEM_DS3505
ZBTJ,1988-02-06 09:25,ZBTJ 060925Z AUTO 30006KT RMK IEM_DS3505
ZBTJ,1988-02-06 11:00,ZBTJ 061100Z AUTO 32004KT 4SM M03/M19 A3033 RMK T10301190 IEM_DS3505
ZBTJ,1988-02-06 11:25,ZBTJ 061125Z AUTO 32004KT 4SM M03/M19 A3033 RMK T10301190 IEM_DS3505
ZBTJ,1988-02-06 22:00,ZBTJ 062200Z AUTO 34012KT RMK IEM_DS3505
ZBTJ,1988-02-06 22:25,ZBTJ 062225Z AUTO 34012KT RMK IEM_DS3505
ZBTJ,1988-02-06 23:00,ZBTJ 062300Z AUTO 34012KT RMK IEM_DS3505
ZBTJ,1988-02-06 23:25,ZBTJ 062325Z AUTO 34012KT RMK IEM_DS3505
ZBTJ,1988-02-07 06:00,ZBTJ 070600Z AUTO 32021KT RMK IEM_DS3505
ZBTJ,1988-02-07 06:22,ZBTJ 070622Z AUTO 32021KT RMK IEM_DS3505
ZBTJ,1988-02-07 07:00,ZBTJ 070700Z AUTO 32021KT RMK IEM_DS3505
ZBTJ,1988-02-07 07:22,ZBTJ 070722Z AUTO 32021KT RMK IEM_DS3505
ZBTJ,1988-02-07 08:00,ZBTJ 070800Z AUTO 29014KT 01/M21 A3036 RMK T00101210 IEM_DS3505
ZBTJ,1988-02-07 08:22,ZBTJ 070822Z AUTO 29014KT 01/M21 A3036 RMK T00101210 IEM_DS3505
ZBTJ,1988-02-07 09:22,ZBTJ 070922Z AUTO 31010KT 7SM 00/M20 A3036 RMK T00001200 IEM_DS3505
ZBTJ,1988-02-07 11:00,ZBTJ 071100Z AUTO 33004KT 7SM M05/M19 A3036 RMK T10501190 IEM_DS3505
ZBTJ,1988-02-07 11:22,ZBTJ 071122Z AUTO 33004KT 7SM M05/M19 A3036 RMK T10501190 IEM_DS3505
ZBTJ,1988-02-07 12:00,ZBTJ 071200Z AUTO 31004KT 7SM M06/M20 A3036 RMK T10601200 IEM_DS3505
ZBTJ,1988-02-07 12:22,ZBTJ 071222Z AUTO 31004KT 7SM M06/M20 A3036 RMK T10601200 IEM_DS3505
ZBTJ,1988-02-07 13:00,ZBTJ 071300Z AUTO 15004KT 7SM M07/M19 A3039 RMK T10701190 IEM_DS3505
ZBTJ,1988-02-07 13:22,ZBTJ 071322Z AUTO 15004KT 7SM M07/M19 A3039 RMK T10701190 IEM_DS3505
ZBTJ,1988-02-08 01:00,ZBTJ 080100Z AUTO 35002KT 7SM M03/M15 A3045 RMK T10301150 IEM_DS3505
ZBTJ,1988-02-08 01:29,ZBTJ 080129Z AUTO 35002KT 7SM M03/M15 A3045 RMK T10301150 IEM_DS3505
ZBTJ,1988-02-08 02:00,ZBTJ 080200Z AUTO 34006KT 7SM M01/M19 A3045 RMK T10101190 IEM_DS3505
ZBTJ,1988-02-08 02:29,ZBTJ 080229Z AUTO 34006KT 7SM M01/M19 A3045 RMK T10101190 IEM_DS3505
ZBTJ,1988-02-08 03:00,ZBTJ 080300Z AUTO 36008KT 7SM 01/M18 A3045 RMK T00101180 IEM_DS3505
ZBTJ,1988-02-08 03:29,ZBTJ 080329Z AUTO 36008KT 7SM 01/M18 A3045 RMK T00101180 IEM_DS3505
ZBTJ,1988-02-08 04:00,ZBTJ 080400Z AUTO 34006KT 7SM 02/M20 A3042 RMK T00201200 IEM_DS3505
ZBTJ,1988-02-08 04:29,ZBTJ 080429Z AUTO 34006KT 7SM 02/M20 A3042 RMK T00201200 IEM_DS3505
ZBTJ,1988-02-08 05:00,ZBTJ 080500Z AUTO 33006KT 7SM 03/M08 A3036 RMK T00301080 IEM_DS3505
ZBTJ,1988-02-08 05:30,ZBTJ 080530Z AUTO 33006KT 7SM 03/M08 A3036 RMK T00301080 IEM_DS3505
ZBTJ,1988-02-08 06:00,ZBTJ 080600Z AUTO 28008KT 7SM 04/M09 A3033 RMK T00401090 IEM_DS3505
ZBTJ,1988-02-08 06:30,ZBTJ 080630Z AUTO 28008KT 7SM 04/M09 A3033 RMK T00401090 IEM_DS3505
ZBTJ,1988-02-08 07:00,ZBTJ 080700Z AUTO 28012KT 7SM 04/M11 A3033 RMK T00401110 IEM_DS3505
ZBTJ,1988-02-08 07:30,ZBTJ 080730Z AUTO 28012KT 7SM 04/M11 A3033 RMK T00401110 IEM_DS3505
ZBTJ,1988-02-08 08:00,ZBTJ 080800Z AUTO 26010KT 7SM 04/M11 A3033 RMK T00401110 IEM_DS3505
ZBTJ,1988-02-08 08:30,ZBTJ 080830Z AUTO 26010KT 7SM 04/M11 A3033 RMK T00401110 IEM_DS3505
ZBTJ,1988-02-08 09:00,ZBTJ 080900Z AUTO 29006KT 7SM 03/M08 A3033 RMK T00301080 IEM_DS3505
ZBTJ,1988-02-08 09:29,ZBTJ 080929Z AUTO 29006KT 7SM 03/M08 A3033 RMK T00301080 IEM_DS3505
ZBTJ,1988-02-08 11:00,ZBTJ 081100Z AUTO 22004KT 7SM M01/M14 A3036 RMK T10101140 IEM_DS3505
ZBTJ,1988-02-08 11:29,ZBTJ 081129Z AUTO 22004KT 7SM M01/M14 A3036 RMK T10101140 IEM_DS3505
ZBTJ,1988-02-08 12:00,ZBTJ 081200Z AUTO 21006KT 7SM M02/M15 A3036 RMK T10201150 IEM_DS3505
ZBTJ,1988-02-08 12:29,ZBTJ 081229Z AUTO 21006KT 7SM M02/M15 A3036 RMK T10201150 IEM_DS3505
ZBTJ,1988-02-08 22:00,ZBTJ 082200Z AUTO 33010KT 7SM M06/M18 A3047 RMK T10601180 IEM_DS3505
ZBTJ,1988-02-08 22:29,ZBTJ 082229Z AUTO 33010KT 7SM M06/M18 A3047 RMK T10601180 IEM_DS3505
ZBTJ,1988-02-08 23:29,ZBTJ 082329Z AUTO 34010KT 7SM M07/M18 A3050 RMK T10701180 IEM_DS3505
ZBTJ,1988-02-09 00:00,ZBTJ 090000Z AUTO 33012KT 7SM M06/M18 A3053 RMK T10601180 IEM_DS3505
ZBTJ,1988-02-09 00:29,ZBTJ 090029Z AUTO 33012KT 7SM M06/M18 A3053 RMK T10601180 IEM_DS3505
ZBTJ,1988-02-09 01:00,ZBTJ 090100Z AUTO 33010KT 7SM M03/M16 A3053 RMK T10301160 IEM_DS3505
ZBTJ,1988-02-09 01:29,ZBTJ 090129Z AUTO 33010KT 7SM M03/M16 A3053 RMK T10301160 IEM_DS3505
ZBTJ,1988-02-09 02:00,ZBTJ 090200Z AUTO 36017KT RMK IEM_DS3505
ZBTJ,1988-02-09 02:29,ZBTJ 090229Z AUTO 36017KT RMK IEM_DS3505
ZBTJ,1988-02-09 03:00,ZBTJ 090300Z AUTO 33017KT 7SM 01/M20 A3056 RMK T00101200 IEM_DS3505
ZBTJ,1988-02-09 03:29,ZBTJ 090329Z AUTO 33017KT 7SM 01/M20 A3056 RMK T00101200 IEM_DS3505
ZBTJ,1988-02-09 04:00,ZBTJ 090400Z AUTO 33017KT 7SM 02/M20 A3056 RMK T00201200 IEM_DS3505
ZBTJ,1988-02-09 04:31,ZBTJ 090431Z AUTO 33017KT 7SM 02/M20 A3056 RMK T00201200 IEM_DS3505
ZBTJ,1988-02-09 05:00,ZBTJ 090500Z AUTO 33014KT 7SM 02/M22 A3053 RMK T00201220 IEM_DS3505
ZBTJ,1988-02-09 05:43,ZBTJ 090543Z AUTO 33014KT 7SM 02/M22 A3053 RMK T00201220 IEM_DS3505
ZBTJ,1988-02-09 06:00,ZBTJ 090600Z AUTO 34016KT 7SM 02/M22 A3053 RMK T00201220 IEM_DS3505
ZBTJ,1988-02-09 06:29,ZBTJ 090629Z AUTO 34016KT 7SM 02/M22 A3053 RMK T00201220 IEM_DS3505
ZBTJ,1988-02-09 07:00,ZBTJ 090700Z AUTO 34014KT 7SM 03/M25 A3050 RMK T00301250 IEM_DS3505
ZBTJ,1988-02-09 07:30,ZBTJ 090730Z AUTO 34014KT 7SM 03/M25 A3050 RMK T00301250 IEM_DS3505
ZBTJ,1988-02-09 08:00,ZBTJ 090800Z AUTO 35012KT 7SM 02/M27 A3050 RMK T00201270 IEM_DS3505
ZBTJ,1988-02-09 08:29,ZBTJ 090829Z AUTO 35012KT 7SM 02/M27 A3050 RMK T00201270 IEM_DS3505
ZBTJ,1988-02-09 09:00,ZBTJ 090900Z AUTO 35008KT 7SM 02/M21 A3050 RMK T00201210 IEM_DS3505
ZBTJ,1988-02-09 09:30,ZBTJ 090930Z AUTO 35008KT 7SM 02/M21 A3050 RMK T00201210 IEM_DS3505
ZBTJ,1988-02-09 11:00,ZBTJ 091100Z AUTO 00000KT 7SM M04/M11 A3053 RMK T10401110 IEM_DS3505
ZBTJ,1988-02-09 11:27,ZBTJ 091127Z AUTO 00000KT 7SM M04/M11 A3053 RMK T10401110 IEM_DS3505
ZBTJ,1988-02-09 13:00,ZBTJ 091300Z AUTO 20006KT 7SM M04/M15 A3056 RMK T10401150 IEM_DS3505
ZBTJ,1988-02-09 13:27,ZBTJ 091327Z AUTO 20006KT 7SM M04/M15 A3056 RMK T10401150 IEM_DS3505
ZBTJ,1988-02-09 22:00,ZBTJ 092200Z AUTO 15004KT 7SM M09/M15 A3059 RMK T10901150 IEM_DS3505
ZBTJ,1988-02-09 22:22,ZBTJ 092222Z AUTO 15004KT 7SM M09/M15 A3059 RMK T10901150 IEM_DS3505
ZBTJ,1988-02-09 23:00,ZBTJ 092300Z AUTO 00000KT 7SM M10/M13 A3059 RMK T11001130 IEM_DS3505
ZBTJ,1988-02-09 23:22,ZBTJ 092322Z AUTO 00000KT 7SM M10/M13 A3059 RMK T11001130 IEM_DS3505
ZBTJ,1988-02-10 00:00,ZBTJ 100000Z AUTO 00000KT 5SM M09/M14 A3059 RMK T10901140 IEM_DS3505
ZBTJ,1988-02-10 00:22,ZBTJ 100022Z AUTO 00000KT 5SM M09/M14 A3059 RMK T10901140 IEM_DS3505
ZBTJ,1988-02-10 01:00,ZBTJ 100100Z AUTO 25006KT 1 1/2SM M05/M10 A3062 RMK T10501100 IEM_DS3505
ZBTJ,1988-02-10 01:23,ZBTJ 100123Z AUTO 25006KT 1 1/2SM M05/M10 A3062 RMK T10501100 IEM_DS3505
ZBTJ,1988-02-10 04:00,ZBTJ 100400Z AUTO 23008KT 2 1/2SM 01/M12 A3059 RMK T00101120 IEM_DS3505
ZBTJ,1988-02-10 04:24,ZBTJ 100424Z AUTO 23008KT 2 1/2SM 01/M12 A3059 RMK T00101120 IEM_DS3505
ZBTJ,1988-02-10 07:00,ZBTJ 100700Z AUTO 24006KT RMK IEM_DS3505
ZBTJ,1988-02-10 07:22,ZBTJ 100722Z AUTO 24006KT RMK IEM_DS3505
ZBTJ,1988-02-10 08:00,ZBTJ 100800Z AUTO 18006KT RMK IEM_DS3505
ZBTJ,1988-02-10 08:23,ZBTJ 100823Z AUTO 18006KT RMK IEM_DS3505
ZBTJ,1988-02-10 11:00,ZBTJ 101100Z AUTO 15008KT RMK IEM_DS3505
ZBTJ,1988-02-10 11:26,ZBTJ 101126Z AUTO 15008KT RMK IEM_DS3505
ZBTJ,1988-02-10 12:00,ZBTJ 101200Z AUTO 15008KT RMK IEM_DS3505
ZBTJ,1988-02-10 12:26,ZBTJ 101226Z AUTO 15008KT RMK IEM_DS3505
ZBTJ,1988-02-10 13:00,ZBTJ 101300Z AUTO 15008KT RMK IEM_DS3505
ZBTJ,1988-02-10 13:27,ZBTJ 101327Z AUTO 15008KT RMK IEM_DS3505
ZBTJ,1988-02-10 22:00,ZBTJ 102200Z AUTO 25002KT 3SM M01/M03 A3024 RMK T10101030 IEM_DS3505
ZBTJ,1988-02-10 23:00,ZBTJ 102300Z AUTO 15006KT 1SM M02/M03 A3024 RMK T10201030 IEM_DS3505
ZBTJ,1988-02-11 00:00,ZBTJ 110000Z AUTO 14006KT 1 1/2SM M03/M03 A3024 RMK T10301030 IEM_DS3505
ZBTJ,1988-02-11 02:00,ZBTJ 110200Z AUTO 16008KT 3SM M02/M04 A3024 RMK T10201040 IEM_DS3505
ZBTJ,1988-02-11 02:46,ZBTJ 110246Z AUTO 14006KT 1 1/2SM M03/M03 A3024 RMK T10301030 IEM_DS3505
ZBTJ,1988-02-11 03:00,ZBTJ 110300Z AUTO 21006KT 4SM 02/M04 A3024 RMK T00201040 IEM_DS3505
ZBTJ,1988-02-11 03:03,ZBTJ 110303Z AUTO 15006KT 1SM M02/M03 A3024 RMK T10201030 IEM_DS3505
ZBTJ,1988-02-11 03:25,ZBTJ 110325Z AUTO 21006KT 4SM 02/M04 A3024 RMK T00201040 IEM_DS3505
ZBTJ,1988-02-11 03:40,ZBTJ 110340Z AUTO 25002KT 3SM M01/M03 A3024 RMK T10101030 IEM_DS3505
ZBTJ,1988-02-11 06:00,ZBTJ 110600Z AUTO 20008KT 5SM 07/M07 A3015 RMK T00701070 IEM_DS3505
ZBTJ,1988-02-11 06:27,ZBTJ 110627Z AUTO 20008KT 5SM 07/M07 A3015 RMK T00701070 IEM_DS3505
ZBTJ,1988-02-11 09:00,ZBTJ 110900Z AUTO 00000KT 5SM 06/M06 RMK T00601060 IEM_DS3505
ZBTJ,1988-02-11 09:27,ZBTJ 110927Z AUTO 00000KT 5SM 06/M06 RMK T00601060 IEM_DS3505
ZBTJ,1988-02-11 10:00,ZBTJ 111000Z AUTO 17004KT 4SM 03/M05 A3015 RMK T00301050 IEM_DS3505
ZBTJ,1988-02-11 10:27,ZBTJ 111027Z AUTO 17004KT 4SM 03/M05 A3015 RMK T00301050 IEM_DS3505
ZBTJ,1988-02-11 11:00,ZBTJ 111100Z AUTO 16004KT 4SM 02/M07 RMK T00201070 IEM_DS3505
ZBTJ,1988-02-11 11:27,ZBTJ 111127Z AUTO 16004KT 4SM 02/M07 A3018 RMK T00201070 IEM_DS3505
ZBTJ,1988-02-11 12:00,ZBTJ 111200Z AUTO 17004KT 3SM 02/M06 A3018 RMK T00201060 IEM_DS3505
ZBTJ,1988-02-11 12:27,ZBTJ 111227Z AUTO 17004KT 3SM 02/M06 A3018 RMK T00201060 IEM_DS3505
ZBTJ,1988-02-11 13:00,ZBTJ 111300Z AUTO 19006KT 3SM 02/M08 A3018 RMK T00201080 IEM_DS3505
ZBTJ,1988-02-11 13:26,ZBTJ 111326Z AUTO 19006KT 3SM 02/M08 A3018 RMK T00201080 IEM_DS3505
ZBTJ,1988-02-11 22:00,ZBTJ 112200Z AUTO 22006KT 4SM M03/M08 A3021 RMK T10301080 IEM_DS3505
ZBTJ,1988-02-11 22:26,ZBTJ 112226Z AUTO 22006KT 4SM M03/M08 A3021 RMK T10301080 IEM_DS3505
ZBTJ,1988-02-11 23:00,ZBTJ 112300Z AUTO 00000KT 1 1/4SM M04/M08 A3021 RMK T10401080 IEM_DS3505
ZBTJ,1988-02-11 23:26,ZBTJ 112326Z AUTO 00000KT 1 1/4SM M04/M08 A3021 RMK T10401080 IEM_DS3505
ZBTJ,1988-02-11 23:30,ZBTJ 112330Z AUTO 00000KT 1 1/4SM M04/M08 A3021 RMK T10401080 IEM_DS3505
ZBTJ,1988-02-12 00:00,ZBTJ 120000Z AUTO 00000KT 1 1/4SM M05/M08 A3024 RMK T10501080 IEM_DS3505
ZBTJ,1988-02-12 00:26,ZBTJ 120026Z AUTO 00000KT 1 1/4SM M05/M08 A3024 RMK T10501080 IEM_DS3505
ZBTJ,1988-02-12 04:28,ZBTJ 120428Z AUTO 05008KT 7SM 08/M09 RMK T00801090 IEM_DS3505
ZBTJ,1988-02-12 05:27,ZBTJ 120527Z AUTO 05008KT 7SM 09/M07 RMK T00901070 IEM_DS3505
ZBTJ,1988-02-12 06:00,ZBTJ 120600Z AUTO 10010KT 7SM 09/M07 A3021 RMK T00901070 IEM_DS3505
ZBTJ,1988-02-12 06:28,ZBTJ 120628Z AUTO 10010KT 7SM 09/M07 A3021 RMK T00901070 IEM_DS3505
ZBTJ,1988-02-12 07:00,ZBTJ 120700Z AUTO 10014KT 4SM 07/M07 A3024 RMK T00701070 IEM_DS3505
ZBTJ,1988-02-12 07:30,ZBTJ 120730Z AUTO 10014KT 4SM 07/M07 A3024 RMK T00701070 IEM_DS3505
ZBTJ,1988-02-12 08:00,ZBTJ 120800Z AUTO 11014KT 4SM 04/M03 A3024 RMK T00401030 IEM_DS3505
ZBTJ,1988-02-12 08:24,ZBTJ 120824Z AUTO 11014KT 4SM 04/M03 A3024 RMK T00401030 IEM_DS3505
ZBTJ,1988-02-12 13:00,ZBTJ 121300Z AUTO 11010KT 5SM M02/M05 A3036 RMK T10201050 IEM_DS3505
ZBTJ,1988-02-12 13:24,ZBTJ 121324Z AUTO 11010KT 5SM M02/M05 A3036 RMK T10201050 IEM_DS3505
ZBTJ,1988-02-13 00:00,ZBTJ 130000Z AUTO 09017KT 7SM M04/M08 A3039 RMK T10401080 IEM_DS3505
ZBTJ,1988-02-13 00:25,ZBTJ 130025Z AUTO 09017KT 7SM M04/M08 A3039 RMK T10401080 IEM_DS3505
ZBTJ,1988-02-13 01:00,ZBTJ 130100Z AUTO 08016KT RMK IEM_DS3505
ZBTJ,1988-02-13 01:25,ZBTJ 130125Z AUTO 08016KT RMK IEM_DS3505
ZBTJ,1988-02-13 02:00,ZBTJ 130200Z AUTO 08016KT RMK IEM_DS3505
ZBTJ,1988-02-13 02:26,ZBTJ 130226Z AUTO 08016KT RMK IEM_DS3505
ZBTJ,1988-02-13 04:00,ZBTJ 130400Z AUTO 04014KT 7SM M02/M07 A3042 RMK T10201070 IEM_DS3505
ZBTJ,1988-02-13 04:31,ZBTJ 130431Z AUTO 04014KT 7SM M02/M07 A3042 RMK T10201070 IEM_DS3505
ZBTJ,1988-02-13 05:00,ZBTJ 130500Z AUTO 06012KT 7SM M02/M09 A3042 RMK T10201090 IEM_DS3505
ZBTJ,1988-02-13 05:29,ZBTJ 130529Z AUTO 06012KT 7SM M02/M09 A3042 RMK T10201090 IEM_DS3505
ZBTJ,1988-02-13 06:00,ZBTJ 130600Z AUTO 05012KT RMK IEM_DS3505
ZBTJ,1988-02-13 06:25,ZBTJ 130625Z AUTO 05012KT RMK IEM_DS3505
ZBTJ,1988-02-13 07:00,ZBTJ 130700Z AUTO 07012KT RMK IEM_DS3505
ZBTJ,1988-02-13 07:24,ZBTJ 130724Z AUTO 07012KT RMK IEM_DS3505
ZBTJ,1988-02-13 08:00,ZBTJ 130800Z AUTO 09008KT 7SM 00/M09 A3039 RMK T00001090 IEM_DS3505
ZBTJ,1988-02-13 08:25,ZBTJ 130825Z AUTO 09008KT 7SM 00/M09 A3039 RMK T00001090 IEM_DS3505
ZBTJ,1988-02-13 09:00,ZBTJ 130900Z AUTO 09008KT 7SM M02/M10 A3042 RMK T10201100 IEM_DS3505
ZBTJ,1988-02-13 09:24,ZBTJ 130924Z AUTO 09008KT 7SM M02/M10 A3042 RMK T10201100 IEM_DS3505
ZBTJ,1988-02-13 10:00,ZBTJ 131000Z AUTO 10006KT 7SM M04/M10 A3045 RMK T10401100 IEM_DS3505
ZBTJ,1988-02-13 10:25,ZBTJ 131025Z AUTO 10006KT 7SM M04/M10 A3045 RMK T10401100 IEM_DS3505
ZBTJ,1988-02-13 11:25,ZBTJ 131125Z AUTO 11004KT 7SM M06/M11 A3047 RMK T10601110 IEM_DS3505
ZBTJ,1988-02-13 13:00,ZBTJ 131300Z AUTO 00000KT 7SM M07/M11 A3053 RMK T10701110 IEM_DS3505
ZBTJ,1988-02-13 13:36,ZBTJ 131336Z AUTO 00000KT 7SM M07/M11 A3053 RMK T10701110 IEM_DS3505
ZBTJ,1988-02-13 22:00,ZBTJ 132200Z AUTO 33012KT 7SM M08/M18 A3065 RMK T10801180 IEM_DS3505
ZBTJ,1988-02-13 22:24,ZBTJ 132224Z AUTO 33012KT 7SM M08/M18 A3065 RMK T10801180 IEM_DS3505
ZBTJ,1988-02-13 23:00,ZBTJ 132300Z AUTO 34012KT 7SM M09/M18 A3065 RMK T10901180 IEM_DS3505
ZBTJ,1988-02-13 23:24,ZBTJ 132324Z AUTO 34012KT 7SM M09/M18 A3065 RMK T10901180 IEM_DS3505
ZBTJ,1988-02-14 00:00,ZBTJ 140000Z AUTO 34012KT 7SM M03/M18 A3071 RMK T10301180 IEM_DS3505
ZBTJ,1988-02-14 00:25,ZBTJ 140025Z AUTO 33012KT 7SM M08/M17 A3068 RMK T10801170 IEM_DS3505
ZBTJ,1988-02-14 01:00,ZBTJ 140100Z AUTO 34017KT 7SM M06/M20 A3071 RMK T10601200 IEM_DS3505
ZBTJ,1988-02-14 01:24,ZBTJ 140124Z AUTO 34017KT 7SM M06/M20 A3071 RMK T10601200 IEM_DS3505
ZBTJ,1988-02-14 02:00,ZBTJ 140200Z AUTO 34016KT 7SM M04/M18 A3071 RMK T10401180 IEM_DS3505
ZBTJ,1988-02-14 02:25,ZBTJ 140225Z AUTO 34016KT 7SM M04/M18 A3071 RMK T10401180 IEM_DS3505
ZBTJ,1988-02-14 02:29,ZBTJ 140229Z AUTO 34016KT 7SM M04/M18 A3071 RMK T10401180 IEM_DS3505
ZBTJ,1988-02-14 03:00,ZBTJ 140300Z AUTO 34012KT 7SM M03/M18 A3071 RMK T10301180 IEM_DS3505
ZBTJ,1988-02-14 03:25,ZBTJ 140325Z AUTO 34012KT 7SM M03/M18 A3071 RMK T10301180 IEM_DS3505
ZBTJ,1988-02-14 04:00,ZBTJ 140400Z AUTO 33010KT 7SM M02/M17 A3068 RMK T10201170 IEM_DS3505
ZBTJ,1988-02-14 04:25,ZBTJ 140425Z AUTO 33010KT 7SM M02/M17 A3068 RMK T10201170 IEM_DS3505
ZBTJ,1988-02-14 05:25,ZBTJ 140525Z AUTO 29002KT 7SM M01/M23 A3065 RMK T10101230 IEM_DS3505
ZBTJ,1988-02-14 06:00,ZBTJ 140600Z AUTO 33008KT 7SM M01/M21 A3062 RMK T10101210 IEM_DS3505
ZBTJ,1988-02-14 06:25,ZBTJ 140625Z AUTO 33008KT 7SM M01/M21 A3062 RMK T10101210 IEM_DS3505
ZBTJ,1988-02-14 07:00,ZBTJ 140700Z AUTO 33006KT 7SM M01/M19 A3059 RMK T10101190 IEM_DS3505
ZBTJ,1988-02-14 07:24,ZBTJ 140724Z AUTO 33006KT 7SM M01/M19 A3059 RMK T10101190 IEM_DS3505
ZBTJ,1988-02-14 08:00,ZBTJ 140800Z AUTO 33008KT 7SM M01/M17 A3059 RMK T10101170 IEM_DS3505
ZBTJ,1988-02-14 08:24,ZBTJ 140824Z AUTO 33008KT 7SM M01/M17 A3059 RMK T10101170 IEM_DS3505
ZBTJ,1988-02-14 09:00,ZBTJ 140900Z AUTO 33010KT 7SM M01/M18 A3059 RMK T10101180 IEM_DS3505
ZBTJ,1988-02-14 09:24,ZBTJ 140924Z AUTO 33010KT 7SM M01/M18 A3059 RMK T10101180 IEM_DS3505
ZBTJ,1988-02-14 10:00,ZBTJ 141000Z AUTO 34004KT 7SM M04/M15 A3059 RMK T10401150 IEM_DS3505
ZBTJ,1988-02-14 10:25,ZBTJ 141025Z AUTO 34004KT 7SM M04/M15 A3059 RMK T10401150 IEM_DS3505
ZBTJ,1988-02-14 11:00,ZBTJ 141100Z AUTO 00000KT 7SM M06/M18 A3065 RMK T10601180 IEM_DS3505
ZBTJ,1988-02-14 11:24,ZBTJ 141124Z AUTO 00000KT 7SM M06/M18 A3065 RMK T10601180 IEM_DS3505
ZBTJ,1988-02-14 12:00,ZBTJ 141200Z AUTO 18004KT 7SM M06/M15 A3062 RMK T10601150 IEM_DS3505
ZBTJ,1988-02-14 12:25,ZBTJ 141225Z AUTO 18004KT 7SM M06/M15 A3062 RMK T10601150 IEM_DS3505
ZBTJ,1988-02-14 13:00,ZBTJ 141300Z AUTO 20006KT 7SM M06/M14 A3062 RMK T10601140 IEM_DS3505
ZBTJ,1988-02-14 13:25,ZBTJ 141325Z AUTO 20006KT 7SM M06/M14 A3062 RMK T10601140 IEM_DS3505
ZBTJ,1988-02-14 22:00,ZBTJ 142200Z AUTO 29004KT 5SM M08/M15 A3056 RMK T10801150 IEM_DS3505
ZBTJ,1988-02-14 22:25,ZBTJ 142225Z AUTO 29004KT 5SM M08/M15 A3056 RMK T10801150 IEM_DS3505
ZBTJ,1988-02-14 23:00,ZBTJ 142300Z AUTO 27002KT 3SM M09/M18 A3059 RMK T10901180 IEM_DS3505
ZBTJ,1988-02-15 00:00,ZBTJ 150000Z AUTO 32008KT 2 1/2SM M07/M16 A3059 RMK T10701160 IEM_DS3505
ZBTJ,1988-02-15 01:00,ZBTJ 150100Z AUTO 33006KT RMK IEM_DS3505
ZBTJ,1988-02-15 01:26,ZBTJ 150126Z AUTO 33006KT RMK IEM_DS3505
ZBTJ,1988-02-15 02:00,ZBTJ 150200Z AUTO 36008KT RMK IEM_DS3505
ZBTJ,1988-02-15 02:26,ZBTJ 150226Z AUTO 36008KT RMK IEM_DS3505
ZBTJ,1988-02-15 03:00,ZBTJ 150300Z AUTO 34012KT RMK IEM_DS3505
ZBTJ,1988-02-15 03:26,ZBTJ 150326Z AUTO 34012KT RMK IEM_DS3505
ZBTJ,1988-02-15 05:00,ZBTJ 150500Z AUTO 34012KT RMK IEM_DS3505
ZBTJ,1988-02-15 05:31,ZBTJ 150531Z AUTO 34012KT RMK IEM_DS3505
ZBTJ,1988-02-15 06:00,ZBTJ 150600Z AUTO 34016KT RMK IEM_DS3505
ZBTJ,1988-02-15 06:32,ZBTJ 150632Z AUTO 34016KT RMK IEM_DS3505
ZBTJ,1988-02-15 07:00,ZBTJ 150700Z AUTO 32014KT RMK IEM_DS3505
ZBTJ,1988-02-15 07:33,ZBTJ 150733Z AUTO 32014KT RMK IEM_DS3505
ZBTJ,1988-02-15 09:00,ZBTJ 150900Z AUTO 35010KT 6SM M01/M22 A3053 RMK T10101220 IEM_DS3505
ZBTJ,1988-02-15 09:26,ZBTJ 150926Z AUTO 35010KT 6SM M01/M22 A3053 RMK T10101220 IEM_DS3505
ZBTJ,1988-02-15 10:00,ZBTJ 151000Z AUTO 34008KT RMK IEM_DS3505
ZBTJ,1988-02-15 10:27,ZBTJ 151027Z AUTO 34008KT RMK IEM_DS3505
ZBTJ,1988-02-15 11:00,ZBTJ 151100Z AUTO 03004KT RMK IEM_DS3505
ZBTJ,1988-02-15 11:26,ZBTJ 151126Z AUTO 03004KT RMK IEM_DS3505
ZBTJ,1988-02-15 12:00,ZBTJ 151200Z AUTO 31006KT RMK IEM_DS3505
ZBTJ,1988-02-15 12:26,ZBTJ 151226Z AUTO 31006KT RMK IEM_DS3505
ZBTJ,1988-02-15 13:00,ZBTJ 151300Z AUTO 32006KT RMK IEM_DS3505
ZBTJ,1988-02-15 13:25,ZBTJ 151325Z AUTO 32006KT RMK IEM_DS3505
ZBTJ,1988-02-15 20:00,ZBTJ 152000Z AUTO 34008KT 7SM M09/M20 A3068 RMK T10901200 IEM_DS3505
ZBTJ,1988-02-15 20:25,ZBTJ 152025Z AUTO 34008KT 7SM M09/M20 A3068 RMK T10901200 IEM_DS3505
ZBTJ,1988-02-16 00:00,ZBTJ 160000Z AUTO 34012KT RMK IEM_DS3505
ZBTJ,1988-02-16 00:26,ZBTJ 160026Z AUTO 34012KT RMK IEM_DS3505
ZBTJ,1988-02-16 01:00,ZBTJ 160100Z AUTO 34019KT 7SM M07/M16 A3074 RMK T10701160 IEM_DS3505
ZBTJ,1988-02-16 01:26,ZBTJ 160126Z AUTO 34019KT 7SM M07/M16 A3074 RMK T10701160 IEM_DS3505
ZBTJ,1988-02-16 02:00,ZBTJ 160200Z AUTO 33023KT RMK IEM_DS3505
ZBTJ,1988-02-16 02:26,ZBTJ 160226Z AUTO 33023KT RMK IEM_DS3505
ZBTJ,1988-02-16 03:00,ZBTJ 160300Z AUTO 33002KT RMK IEM_DS3505
ZBTJ,1988-02-16 03:26,ZBTJ 160326Z AUTO 33002KT RMK IEM_DS3505
ZBTJ,1988-02-16 04:00,ZBTJ 160400Z AUTO 33019KT 7SM M03/M22 A3071 RMK T10301220 IEM_DS3505
ZBTJ,1988-02-16 04:31,ZBTJ 160431Z AUTO 33019KT 7SM M03/M22 A3071 RMK T10301220 IEM_DS3505
ZBTJ,1988-02-16 08:00,ZBTJ 160800Z AUTO 33017KT 7SM M01/M23 A3062 RMK T10101230 IEM_DS3505
ZBTJ,1988-02-16 08:26,ZBTJ 160826Z AUTO 33017KT 7SM M01/M23 A3062 RMK T10101230 IEM_DS3505
ZBTJ,1988-02-16 09:00,ZBTJ 160900Z AUTO 32016KT RMK IEM_DS3505
ZBTJ,1988-02-16 09:26,ZBTJ 160926Z AUTO 32016KT RMK IEM_DS3505
ZBTJ,1988-02-16 10:00,ZBTJ 161000Z AUTO 31008KT RMK IEM_DS3505
ZBTJ,1988-02-16 10:26,ZBTJ 161026Z AUTO 31008KT RMK IEM_DS3505
ZBTJ,1988-02-16 11:00,ZBTJ 161100Z AUTO 30004KT RMK IEM_DS3505
ZBTJ,1988-02-16 11:26,ZBTJ 161126Z AUTO 30004KT RMK IEM_DS3505
ZBTJ,1988-02-16 12:00,ZBTJ 161200Z AUTO 30004KT RMK IEM_DS3505
ZBTJ,1988-02-16 12:26,ZBTJ 161226Z AUTO 30004KT RMK IEM_DS3505
ZBTJ,1988-02-16 13:00,ZBTJ 161300Z AUTO 27004KT RMK IEM_DS3505
ZBTJ,1988-02-16 13:26,ZBTJ 161326Z AUTO 27004KT RMK IEM_DS3505
ZBTJ,1988-02-16 22:00,ZBTJ 162200Z AUTO 30004KT 7SM M08/M17 A3056 RMK T10801170 IEM_DS3505
ZBTJ,1988-02-16 22:26,ZBTJ 162226Z AUTO 30004KT 7SM M08/M17 A3056 RMK T10801170 IEM_DS3505
ZBTJ,1988-02-17 00:00,ZBTJ 170000Z AUTO 31004KT 7SM M07/M16 A3059 RMK T10701160 IEM_DS3505
ZBTJ,1988-02-17 00:24,ZBTJ 170024Z AUTO 31004KT 7SM M07/M16 A3059 RMK T10701160 IEM_DS3505
ZBTJ,1988-02-17 04:00,ZBTJ 170400Z AUTO 30012KT 7SM 01/M23 A3050 RMK T00101230 IEM_DS3505
ZBTJ,1988-02-17 04:24,ZBTJ 170424Z AUTO 30012KT 7SM 01/M23 A3050 RMK T00101230 IEM_DS3505
ZBTJ,1988-02-17 06:23,ZBTJ 170623Z AUTO 30016KT 7SM 01/M24 A3053 RMK T00101240 IEM_DS3505
ZBTJ,1988-02-17 08:00,ZBTJ 170800Z AUTO 32019KT 7SM 02/M23 A3053 RMK T00201230 IEM_DS3505
ZBTJ,1988-02-17 08:22,ZBTJ 170822Z AUTO 32019KT 7SM 02/M23 A3053 RMK T00201230 IEM_DS3505
ZBTJ,1988-02-17 09:00,ZBTJ 170900Z AUTO 31017KT 7SM 01/M23 A3050 RMK T00101230 IEM_DS3505
ZBTJ,1988-02-17 09:21,ZBTJ 170921Z AUTO 31017KT 7SM 01/M23 A3050 RMK T00101230 IEM_DS3505
ZBTJ,1988-02-17 10:00,ZBTJ 171000Z AUTO 32006KT 7SM M01/M20 A3050 RMK T10101200 IEM_DS3505
ZBTJ,1988-02-17 10:22,ZBTJ 171022Z AUTO 32006KT 7SM M01/M20 A3050 RMK T10101200 IEM_DS3505
ZBTJ,1988-02-17 11:00,ZBTJ 171100Z AUTO 29006KT 7SM M03/M19 A3053 RMK T10301190 IEM_DS3505
ZBTJ,1988-02-17 11:21,ZBTJ 171121Z AUTO 29006KT 7SM M03/M19 A3053 RMK T10301190 IEM_DS3505
ZBTJ,1988-02-17 12:00,ZBTJ 171200Z AUTO 28004KT 5SM M03/M19 A3053 RMK T10301190 IEM_DS3505
ZBTJ,1988-02-17 12:21,ZBTJ 171221Z AUTO 28004KT 5SM M03/M19 A3053 RMK T10301190 IEM_DS3505
ZBTJ,1988-02-17 13:00,ZBTJ 171300Z AUTO 30006KT 5SM M03/M19 A3056 RMK T10301190 IEM_DS3505
ZBTJ,1988-02-17 13:21,ZBTJ 171321Z AUTO 30006KT 5SM M03/M19 A3056 RMK T10301190 IEM_DS3505
ZBTJ,1988-02-17 23:00,ZBTJ 172300Z AUTO 00000KT 7SM M08/M17 A3056 RMK T10801170 IEM_DS3505
ZBTJ,1988-02-17 23:22,ZBTJ 172322Z AUTO 00000KT 7SM M08/M17 A3056 RMK T10801170 IEM_DS3505
ZBTJ,1988-02-18 01:00,ZBTJ 180100Z AUTO 29004KT 1 1/2SM M02/M17 A3059 RMK T10201170 IEM_DS3505
ZBTJ,1988-02-18 01:22,ZBTJ 180122Z AUTO 29004KT 1 1/2SM M02/M17 A3059 RMK T10201170 IEM_DS3505
ZBTJ,1988-02-18 02:00,ZBTJ 180200Z AUTO 29008KT 2 1/2SM 00/M13 A3059 RMK T00001130 IEM_DS3505
ZBTJ,1988-02-18 02:22,ZBTJ 180222Z AUTO 29008KT 2 1/2SM 00/M13 A3059 RMK T00001130 IEM_DS3505
ZBTJ,1988-02-18 03:00,ZBTJ 180300Z AUTO 26008KT 5SM 02/M11 RMK T00201110 IEM_DS3505
ZBTJ,1988-02-18 03:22,ZBTJ 180322Z AUTO 26008KT 5SM 02/M11 RMK T00201110 IEM_DS3505
ZBTJ,1988-02-18 04:00,ZBTJ 180400Z AUTO 24010KT RMK IEM_DS3505
ZBTJ,1988-02-18 04:21,ZBTJ 180421Z AUTO 24010KT RMK IEM_DS3505
ZBTJ,1988-02-18 05:00,ZBTJ 180500Z AUTO 26010KT 7SM 05/M22 A3053 RMK T00501220 IEM_DS3505
ZBTJ,1988-02-18 05:21,ZBTJ 180521Z AUTO 26010KT 7SM 05/M22 A3053 RMK T00501220 IEM_DS3505
ZBTJ,1988-02-18 06:00,ZBTJ 180600Z AUTO 28010KT 7SM 05/M23 A3050 RMK T00501230 IEM_DS3505
ZBTJ,1988-02-18 06:25,ZBTJ 180625Z AUTO 28010KT 7SM 05/M23 A3050 RMK T00501230 IEM_DS3505
ZBTJ,1988-02-18 07:00,ZBTJ 180700Z AUTO 27012KT 7SM 06/M21 A3047 RMK T00601210 IEM_DS3505
ZBTJ,1988-02-18 07:21,ZBTJ 180721Z AUTO 27012KT 7SM 06/M21 A3047 RMK T00601210 IEM_DS3505
ZBTJ,1988-02-18 08:00,ZBTJ 180800Z AUTO 26010KT 7SM 07/M18 A3047 RMK T00701180 IEM_DS3505
ZBTJ,1988-02-18 08:21,ZBTJ 180821Z AUTO 26010KT 7SM 07/M18 A3047 RMK T00701180 IEM_DS3505
ZBTJ,1988-02-18 11:00,ZBTJ 181100Z AUTO 24002KT 7SM 00/M13 A3045 RMK T00001130 IEM_DS3505
ZBTJ,1988-02-18 11:23,ZBTJ 181123Z AUTO 24002KT 7SM 00/M13 A3045 RMK T00001130 IEM_DS3505
ZBTJ,1988-02-18 14:00,ZBTJ 181400Z AUTO 21004KT 7SM M02/M15 A3042 RMK T10201150 IEM_DS3505
ZBTJ,1988-02-18 14:21,ZBTJ 181421Z AUTO 21004KT 7SM M02/M15 A3042 RMK T10201150 IEM_DS3505
ZBTJ,1988-02-18 22:00,ZBTJ 182200Z AUTO 21006KT 7SM M08/M16 A3033 RMK T10801160 IEM_DS3505
ZBTJ,1988-02-18 22:21,ZBTJ 182221Z AUTO 21006KT 7SM M08/M16 A3033 RMK T10801160 IEM_DS3505
ZBTJ,1988-02-18 23:00,ZBTJ 182300Z AUTO 21006KT 7SM M06/M12 A3033 RMK T10601120 IEM_DS3505
ZBTJ,1988-02-18 23:21,ZBTJ 182321Z AUTO 21006KT 7SM M06/M12 A3033 RMK T10601120 IEM_DS3505
ZBTJ,1988-02-19 00:00,ZBTJ 190000Z AUTO 20004KT 7SM M06/M14 A3036 RMK T10601140 IEM_DS3505
ZBTJ,1988-02-19 00:23,ZBTJ 190023Z AUTO 20004KT 7SM M06/M14 A3036 RMK T10601140 IEM_DS3505
ZBTJ,1988-02-19 01:00,ZBTJ 190100Z AUTO 22002KT 7SM M03/M12 A3036 RMK T10301120 IEM_DS3505
ZBTJ,1988-02-19 01:21,ZBTJ 190121Z AUTO 22002KT 7SM M03/M12 A3036 RMK T10301120 IEM_DS3505
ZBTJ,1988-02-19 02:00,ZBTJ 190200Z AUTO 24006KT 5SM 01/M09 A3036 RMK T00101090 IEM_DS3505
ZBTJ,1988-02-19 02:22,ZBTJ 190222Z AUTO 24006KT 5SM 01/M09 A3036 RMK T00101090 IEM_DS3505
ZBTJ,1988-02-19 03:00,ZBTJ 190300Z AUTO 20006KT 7SM 04/M12 A3036 RMK T00401120 IEM_DS3505
ZBTJ,1988-02-19 03:21,ZBTJ 190321Z AUTO 20006KT 7SM 04/M12 A3036 RMK T00401120 IEM_DS3505
ZBTJ,1988-02-19 04:00,ZBTJ 190400Z AUTO 27002KT 7SM 06/M12 A3033 RMK T00601120 IEM_DS3505
ZBTJ,1988-02-19 04:22,ZBTJ 190422Z AUTO 27002KT 7SM 06/M12 A3033 RMK T00601120 IEM_DS3505
ZBTJ,1988-02-19 05:00,ZBTJ 190500Z AUTO 20004KT 7SM 08/M15 A3033 RMK T00801150 IEM_DS3505
ZBTJ,1988-02-19 05:22,ZBTJ 190522Z AUTO 20004KT 7SM 08/M15 A3033 RMK T00801150 IEM_DS3505
ZBTJ,1988-02-19 06:00,ZBTJ 190600Z AUTO 16004KT RMK IEM_DS3505
ZBTJ,1988-02-19 06:22,ZBTJ 190622Z AUTO 16004KT RMK IEM_DS3505
ZBTJ,1988-02-19 08:00,ZBTJ 190800Z AUTO 17004KT RMK IEM_DS3505
ZBTJ,1988-02-19 08:22,ZBTJ 190822Z AUTO 17004KT RMK IEM_DS3505
ZBTJ,1988-02-19 09:00,ZBTJ 190900Z AUTO 18004KT RMK IEM_DS3505
ZBTJ,1988-02-19 09:22,ZBTJ 190922Z AUTO 18004KT RMK IEM_DS3505
ZBTJ,1988-02-19 10:00,ZBTJ 191000Z AUTO 20002KT RMK IEM_DS3505
ZBTJ,1988-02-19 10:22,ZBTJ 191022Z AUTO 20002KT RMK IEM_DS3505
ZBTJ,1988-02-19 11:00,ZBTJ 191100Z AUTO 20002KT 7SM 01/M10 A3036 RMK T00101100 IEM_DS3505
ZBTJ,1988-02-19 11:21,ZBTJ 191121Z AUTO 20002KT 7SM 01/M10 A3036 RMK T00101100 IEM_DS3505
ZBTJ,1988-02-19 13:00,ZBTJ 191300Z AUTO 00000KT 7SM M02/M07 A3036 RMK T10201070 IEM_DS3505
ZBTJ,1988-02-19 13:21,ZBTJ 191321Z AUTO 00000KT 7SM M02/M07 A3036 RMK T10201070 IEM_DS3505
ZBTJ,1988-02-19 22:00,ZBTJ 192200Z AUTO 06008KT 7SM M08/M10 A3047 RMK T10801100 IEM_DS3505
ZBTJ,1988-02-19 22:23,ZBTJ 192223Z AUTO 06008KT 7SM M08/M10 A3047 RMK T10801100 IEM_DS3505
ZBTJ,1988-02-20 00:00,ZBTJ 200000Z AUTO 04008KT 7SM M07/M09 A3053 RMK T10701090 IEM_DS3505
ZBTJ,1988-02-20 00:24,ZBTJ 200024Z AUTO 04008KT 7SM M07/M09 A3053 RMK T10701090 IEM_DS3505
ZBTJ,1988-02-20 01:24,ZBTJ 200124Z AUTO 06010KT 7SM M02/M09 A3053 RMK T10201090 IEM_DS3505
ZBTJ,1988-02-20 02:00,ZBTJ 200200Z AUTO 09012KT 7SM 01/M11 A3056 RMK T00101110 IEM_DS3505
ZBTJ,1988-02-20 02:24,ZBTJ 200224Z AUTO 09012KT 7SM 01/M11 A3056 RMK T00101110 IEM_DS3505
ZBTJ,1988-02-20 03:00,ZBTJ 200300Z AUTO 09016KT 7SM 03/M12 A3053 RMK T00301120 IEM_DS3505
ZBTJ,1988-02-20 03:24,ZBTJ 200324Z AUTO 09016KT 7SM 03/M12 A3053 RMK T00301120 IEM_DS3505
ZBTJ,1988-02-20 04:00,ZBTJ 200400Z AUTO 09016KT 7SM 04/M12 A3053 RMK T00401120 IEM_DS3505
ZBTJ,1988-02-20 04:24,ZBTJ 200424Z AUTO 09016KT 7SM 04/M12 A3053 RMK T00401120 IEM_DS3505
ZBTJ,1988-02-20 05:00,ZBTJ 200500Z AUTO 10021KT 7SM 05/M13 A3053 RMK T00501130 IEM_DS3505
ZBTJ,1988-02-20 05:24,ZBTJ 200524Z AUTO 10021KT 7SM 05/M13 A3053 RMK T00501130 IEM_DS3505
ZBTJ,1988-02-20 06:00,ZBTJ 200600Z AUTO 11017KT 7SM 05/M12 A3050 RMK T00501120 IEM_DS3505
ZBTJ,1988-02-20 06:24,ZBTJ 200624Z AUTO 11017KT 7SM 05/M12 A3050 RMK T00501120 IEM_DS3505
ZBTJ,1988-02-20 07:00,ZBTJ 200700Z AUTO 10016KT RMK IEM_DS3505
ZBTJ,1988-02-20 07:24,ZBTJ 200724Z AUTO 10016KT RMK IEM_DS3505
ZBTJ,1988-02-20 08:00,ZBTJ 200800Z AUTO 10016KT RMK IEM_DS3505
ZBTJ,1988-02-20 08:24,ZBTJ 200824Z AUTO 10016KT RMK IEM_DS3505
ZBTJ,1988-02-20 09:00,ZBTJ 200900Z AUTO 10014KT RMK IEM_DS3505
ZBTJ,1988-02-20 09:24,ZBTJ 200924Z AUTO 10014KT RMK IEM_DS3505
ZBTJ,1988-02-20 10:00,ZBTJ 201000Z AUTO 11012KT RMK IEM_DS3505
ZBTJ,1988-02-20 10:24,ZBTJ 201024Z AUTO 11012KT RMK IEM_DS3505
ZBTJ,1988-02-20 11:00,ZBTJ 201100Z AUTO 11006KT 7SM M03/M08 A3050 RMK T10301080 IEM_DS3505
ZBTJ,1988-02-20 11:24,ZBTJ 201124Z AUTO 11006KT 7SM M03/M08 A3050 RMK T10301080 IEM_DS3505
ZBTJ,1988-02-20 12:24,ZBTJ 201224Z AUTO 11006KT 7SM M04/M07 A3050 RMK T10401070 IEM_DS3505
ZBTJ,1988-02-20 13:00,ZBTJ 201300Z AUTO 10006KT 7SM M05/M08 A3050 RMK T10501080 IEM_DS3505
ZBTJ,1988-02-20 13:24,ZBTJ 201324Z AUTO 10006KT 7SM M05/M08 A3050 RMK T10501080 IEM_DS3505
ZBTJ,1988-02-20 14:00,ZBTJ 201400Z AUTO 10002KT 7SM M06/M09 A3050 RMK T10601090 IEM_DS3505
ZBTJ,1988-02-20 14:24,ZBTJ 201424Z AUTO 10002KT 7SM M06/M09 A3050 RMK T10601090 IEM_DS3505
ZBTJ,1988-02-20 23:00,ZBTJ 202300Z AUTO 07002KT 2 1/2SM M09/M10 A3045 RMK T10901100 IEM_DS3505
ZBTJ,1988-02-20 23:24,ZBTJ 202324Z AUTO 07002KT 2 1/2SM M09/M10 A3045 RMK T10901100 IEM_DS3505
ZBTJ,1988-02-21 00:00,ZBTJ 210000Z AUTO 08006KT 3SM M07/M08 A3047 RMK T10701080 IEM_DS3505
ZBTJ,1988-02-21 00:24,ZBTJ 210024Z AUTO 08006KT 3SM M07/M08 A3047 RMK T10701080 IEM_DS3505
ZBTJ,1988-02-21 01:00,ZBTJ 210100Z AUTO 08006KT 5SM M02/M04 A3047 RMK T10201040 IEM_DS3505
ZBTJ,1988-02-21 01:25,ZBTJ 210125Z AUTO 08006KT 5SM M02/M04 A3047 RMK T10201040 IEM_DS3505
ZBTJ,1988-02-21 04:00,ZBTJ 210400Z AUTO 19006KT 5SM 04/M03 A3042 RMK T00401030 IEM_DS3505
ZBTJ,1988-02-21 04:24,ZBTJ 210424Z AUTO 19006KT 5SM 04/M03 A3042 RMK T00401030 IEM_DS3505
ZBTJ,1988-02-21 05:00,ZBTJ 210500Z AUTO 21010KT 6SM 06/M06 A3039 RMK T00601060 IEM_DS3505
ZBTJ,1988-02-21 05:26,ZBTJ 210526Z AUTO 21010KT 6SM 06/M06 A3039 RMK T00601060 IEM_DS3505
ZBTJ,1988-02-21 07:25,ZBTJ 210725Z AUTO 22006KT RMK IEM_DS3505
ZBTJ,1988-02-21 08:00,ZBTJ 210800Z AUTO 21008KT RMK IEM_DS3505
ZBTJ,1988-02-21 08:24,ZBTJ 210824Z AUTO 21008KT RMK IEM_DS3505
ZBTJ,1988-02-21 09:24,ZBTJ 210924Z AUTO 21004KT RMK IEM_DS3505
ZBTJ,1988-02-21 10:00,ZBTJ 211000Z AUTO 19006KT RMK IEM_DS3505
ZBTJ,1988-02-21 10:24,ZBTJ 211024Z AUTO 19006KT RMK IEM_DS3505
ZBTJ,1988-02-21 11:00,ZBTJ 211100Z AUTO 20006KT RMK IEM_DS3505
ZBTJ,1988-02-21 11:24,ZBTJ 211124Z AUTO 20006KT RMK IEM_DS3505
ZBTJ,1988-02-21 22:00,ZBTJ 212200Z AUTO 26004KT RMK IEM_DS3505
ZBTJ,1988-02-21 22:24,ZBTJ 212224Z AUTO 26004KT RMK IEM_DS3505
ZBTJ,1988-02-21 23:00,ZBTJ 212300Z AUTO 00000KT 2 1/2SM 02/M01 A3030 RMK T00201010 IEM_DS3505
ZBTJ,1988-02-21 23:25,ZBTJ 212325Z AUTO 00000KT 2 1/2SM 02/M01 A3030 RMK T00201010 IEM_DS3505
ZBTJ,1988-02-22 03:00,ZBTJ 220300Z AUTO 33012KT 4SM 05/M02 A3036 RMK T00501020 IEM_DS3505
ZBTJ,1988-02-22 03:24,ZBTJ 220324Z AUTO 33012KT 4SM 05/M02 A3036 RMK T00501020 IEM_DS3505
ZBTJ,1988-02-22 04:00,ZBTJ 220400Z AUTO 6SM 08/M01 A3033 RMK T00801010 IEM_DS3505
ZBTJ,1988-02-22 04:25,ZBTJ 220425Z AUTO 6SM 08/M01 A3033 RMK T00801010 IEM_DS3505
ZBTJ,1988-02-22 05:40,ZBTJ 220540Z AUTO 35016KT RMK IEM_DS3505
ZBTJ,1988-02-22 06:00,ZBTJ 220600Z AUTO 35016KT RMK IEM_DS3505
ZBTJ,1988-02-22 06:24,ZBTJ 220624Z AUTO 33017KT RMK IEM_DS3505
ZBTJ,1988-02-22 07:00,ZBTJ 220700Z AUTO 33016KT RMK IEM_DS3505
ZBTJ,1988-02-22 07:25,ZBTJ 220725Z AUTO 33016KT RMK IEM_DS3505
ZBTJ,1988-02-22 08:00,ZBTJ 220800Z AUTO 33012KT RMK IEM_DS3505
ZBTJ,1988-02-22 08:25,ZBTJ 220825Z AUTO 33012KT RMK IEM_DS3505
ZBTJ,1988-02-22 09:00,ZBTJ 220900Z AUTO 33014KT RMK IEM_DS3505
ZBTJ,1988-02-22 09:24,ZBTJ 220924Z AUTO 33014KT RMK IEM_DS3505
ZBTJ,1988-02-22 10:00,ZBTJ 221000Z AUTO 10012KT RMK IEM_DS3505
ZBTJ,1988-02-22 10:26,ZBTJ 221026Z AUTO 10012KT RMK IEM_DS3505
ZBTJ,1988-02-22 11:00,ZBTJ 221100Z AUTO 09010KT RMK IEM_DS3505
ZBTJ,1988-02-22 11:25,ZBTJ 221125Z AUTO 09010KT RMK IEM_DS3505
ZBTJ,1988-02-22 12:00,ZBTJ 221200Z AUTO 11010KT RMK IEM_DS3505
ZBTJ,1988-02-22 12:24,ZBTJ 221224Z AUTO 11010KT RMK IEM_DS3505
ZBTJ,1988-02-22 13:00,ZBTJ 221300Z AUTO 08004KT RMK IEM_DS3505
ZBTJ,1988-02-22 13:25,ZBTJ 221325Z AUTO 08004KT RMK IEM_DS3505
ZBTJ,1988-02-22 22:00,ZBTJ 222200Z AUTO 29004KT 7SM M05/M08 A3053 RMK T10501080 IEM_DS3505
ZBTJ,1988-02-22 22:24,ZBTJ 222224Z AUTO 29004KT 7SM M05/M08 A3053 RMK T10501080 IEM_DS3505
ZBTJ,1988-02-22 23:00,ZBTJ 222300Z AUTO 29006KT RMK IEM_DS3505
ZBTJ,1988-02-22 23:24,ZBTJ 222324Z AUTO 29006KT RMK IEM_DS3505
ZBTJ,1988-02-23 00:00,ZBTJ 230000Z AUTO 29006KT RMK IEM_DS3505
ZBTJ,1988-02-23 00:25,ZBTJ 230025Z AUTO 29006KT RMK IEM_DS3505
ZBTJ,1988-02-23 01:00,ZBTJ 230100Z AUTO 30004KT RMK IEM_DS3505
ZBTJ,1988-02-23 01:24,ZBTJ 230124Z AUTO 30004KT RMK IEM_DS3505
ZBTJ,1988-02-23 02:00,ZBTJ 230200Z AUTO 32006KT 6SM RMK IEM_DS3505
ZBTJ,1988-02-23 02:24,ZBTJ 230224Z AUTO 32006KT 6SM RMK IEM_DS3505
ZBTJ,1988-02-23 03:00,ZBTJ 230300Z AUTO 36002KT RMK IEM_DS3505
ZBTJ,1988-02-23 03:25,ZBTJ 230325Z AUTO 36002KT RMK IEM_DS3505
ZBTJ,1988-02-23 04:00,ZBTJ 230400Z AUTO 27004KT RMK IEM_DS3505
ZBTJ,1988-02-23 04:25,ZBTJ 230425Z AUTO 27004KT RMK IEM_DS3505
ZBTJ,1988-02-23 05:00,ZBTJ 230500Z AUTO 30004KT RMK IEM_DS3505
ZBTJ,1988-02-23 05:24,ZBTJ 230524Z AUTO 30004KT RMK IEM_DS3505
ZBTJ,1988-02-23 06:24,ZBTJ 230624Z AUTO 27004KT RMK IEM_DS3505
ZBTJ,1988-02-23 07:00,ZBTJ 230700Z AUTO 35006KT RMK IEM_DS3505
ZBTJ,1988-02-23 07:24,ZBTJ 230724Z AUTO 35006KT RMK IEM_DS3505
ZBTJ,1988-02-23 08:00,ZBTJ 230800Z AUTO 35004KT RMK IEM_DS3505
ZBTJ,1988-02-23 08:24,ZBTJ 230824Z AUTO 35004KT RMK IEM_DS3505
ZBTJ,1988-02-23 09:00,ZBTJ 230900Z AUTO 33004KT RMK IEM_DS3505
ZBTJ,1988-02-23 09:24,ZBTJ 230924Z AUTO 33004KT RMK IEM_DS3505
ZBTJ,1988-02-23 10:00,ZBTJ 231000Z AUTO 14002KT RMK IEM_DS3505
ZBTJ,1988-02-23 10:23,ZBTJ 231023Z AUTO 14002KT RMK IEM_DS3505
ZBTJ,1988-02-23 11:00,ZBTJ 231100Z AUTO 14004KT RMK IEM_DS3505
ZBTJ,1988-02-23 11:24,ZBTJ 231124Z AUTO 14004KT RMK IEM_DS3505
ZBTJ,1988-02-23 12:12,ZBTJ 231212Z AUTO 16006KT 3SM RMK IEM_DS3505
ZBTJ,1988-02-23 22:00,ZBTJ 232200Z AUTO 22004KT 7SM M06/M11 A3050 RMK T10601110 IEM_DS3505
ZBTJ,1988-02-23 22:23,ZBTJ 232223Z AUTO 22004KT 7SM M06/M11 A3050 RMK T10601110 IEM_DS3505
ZBTJ,1988-02-23 23:00,ZBTJ 232300Z AUTO 23004KT 4SM M07/M11 A3050 RMK T10701110 IEM_DS3505
ZBTJ,1988-02-23 23:23,ZBTJ 232323Z AUTO 23004KT 4SM M07/M11 A3050 RMK T10701110 IEM_DS3505
ZBTJ,1988-02-24 00:00,ZBTJ 240000Z AUTO 00000KT 2SM M06/M10 A3050 RMK T10601100 IEM_DS3505
ZBTJ,1988-02-24 00:24,ZBTJ 240024Z AUTO 00000KT 2SM M06/M10 A3050 RMK T10601100 IEM_DS3505
ZBTJ,1988-02-24 01:00,ZBTJ 240100Z AUTO 00000KT 1 1/4SM M02/M08 A3050 RMK T10201080 IEM_DS3505
ZBTJ,1988-02-24 01:24,ZBTJ 240124Z AUTO 00000KT 1 1/4SM M02/M08 A3050 RMK T10201080 IEM_DS3505
ZBTJ,1988-02-24 02:24,ZBTJ 240224Z AUTO 23004KT 1 1/2SM 02/M10 A3050 RMK T00201100 IEM_DS3505
ZBTJ,1988-02-24 03:00,ZBTJ 240300Z AUTO 26008KT 3SM 04/M13 A3050 RMK T00401130 IEM_DS3505
ZBTJ,1988-02-24 03:24,ZBTJ 240324Z AUTO 26008KT 3SM 04/M13 A3050 RMK T00401130 IEM_DS3505
ZBTJ,1988-02-24 04:00,ZBTJ 240400Z AUTO 22008KT RMK IEM_DS3505
ZBTJ,1988-02-24 04:22,ZBTJ 240422Z AUTO 22008KT RMK IEM_DS3505
ZBTJ,1988-02-24 05:23,ZBTJ 240523Z AUTO 20006KT RMK IEM_DS3505
ZBTJ,1988-02-24 06:00,ZBTJ 240600Z AUTO 22006KT RMK IEM_DS3505
ZBTJ,1988-02-24 06:27,ZBTJ 240627Z AUTO 22006KT RMK IEM_DS3505
ZBTJ,1988-02-24 07:00,ZBTJ 240700Z AUTO 22006KT RMK IEM_DS3505
ZBTJ,1988-02-24 07:24,ZBTJ 240724Z AUTO 22006KT RMK IEM_DS3505
ZBTJ,1988-02-24 08:00,ZBTJ 240800Z AUTO 22006KT RMK IEM_DS3505
ZBTJ,1988-02-24 08:23,ZBTJ 240823Z AUTO 22006KT RMK IEM_DS3505
ZBTJ,1988-02-24 09:00,ZBTJ 240900Z AUTO 22004KT RMK IEM_DS3505
ZBTJ,1988-02-24 09:22,ZBTJ 240922Z AUTO 22004KT RMK IEM_DS3505
ZBTJ,1988-02-24 10:00,ZBTJ 241000Z AUTO 15006KT RMK IEM_DS3505
ZBTJ,1988-02-24 10:22,ZBTJ 241022Z AUTO 15006KT RMK IEM_DS3505
ZBTJ,1988-02-24 11:00,ZBTJ 241100Z AUTO 15006KT RMK IEM_DS3505
ZBTJ,1988-02-24 11:22,ZBTJ 241122Z AUTO 15006KT RMK IEM_DS3505
ZBTJ,1988-02-24 12:00,ZBTJ 241200Z AUTO 15006KT RMK IEM_DS3505
ZBTJ,1988-02-24 12:22,ZBTJ 241222Z AUTO 15006KT RMK IEM_DS3505
ZBTJ,1988-02-24 13:00,ZBTJ 241300Z AUTO 15008KT RMK IEM_DS3505
ZBTJ,1988-02-24 13:22,ZBTJ 241322Z AUTO 15008KT RMK IEM_DS3505
ZBTJ,1988-02-24 21:00,ZBTJ 242100Z AUTO 17004KT 7SM M05/M09 A3039 RMK T10501090 IEM_DS3505
ZBTJ,1988-02-24 21:22,ZBTJ 242122Z AUTO 17004KT 7SM M05/M09 A3039 RMK T10501090 IEM_DS3505
ZBTJ,1988-02-24 22:00,ZBTJ 242200Z AUTO 28004KT 7SM M06/M10 A3042 RMK T10601100 IEM_DS3505
ZBTJ,1988-02-24 22:23,ZBTJ 242223Z AUTO 28004KT 7SM M06/M10 A3042 RMK T10601100 IEM_DS3505
ZBTJ,1988-02-24 23:00,ZBTJ 242300Z AUTO 18004KT RMK IEM_DS3505
ZBTJ,1988-02-24 23:23,ZBTJ 242323Z AUTO 18004KT RMK IEM_DS3505
ZBTJ,1988-02-25 00:00,ZBTJ 250000Z AUTO 18008KT RMK IEM_DS3505
ZBTJ,1988-02-25 00:23,ZBTJ 250023Z AUTO 18008KT RMK IEM_DS3505
ZBTJ,1988-02-25 00:25,ZBTJ 250025Z AUTO 18008KT RMK IEM_DS3505
ZBTJ,1988-02-25 01:00,ZBTJ 250100Z AUTO 20008KT RMK IEM_DS3505
ZBTJ,1988-02-25 01:33,ZBTJ 250133Z AUTO 20008KT RMK IEM_DS3505
ZBTJ,1988-02-25 02:00,ZBTJ 250200Z AUTO 20006KT RMK IEM_DS3505
ZBTJ,1988-02-25 02:23,ZBTJ 250223Z AUTO 20006KT RMK IEM_DS3505
ZBTJ,1988-02-25 03:00,ZBTJ 250300Z AUTO 20006KT RMK IEM_DS3505
ZBTJ,1988-02-25 03:23,ZBTJ 250323Z AUTO 20006KT RMK IEM_DS3505
ZBTJ,1988-02-25 06:00,ZBTJ 250600Z AUTO 6SM 08/M14 A3042 RMK T00801140 IEM_DS3505
ZBTJ,1988-02-25 06:24,ZBTJ 250624Z AUTO 6SM 08/M14 A3042 RMK T00801140 IEM_DS3505
ZBTJ,1988-02-25 07:00,ZBTJ 250700Z AUTO 17004KT RMK IEM_DS3505
ZBTJ,1988-02-25 07:24,ZBTJ 250724Z AUTO 17004KT RMK IEM_DS3505
ZBTJ,1988-02-25 08:00,ZBTJ 250800Z AUTO 17006KT RMK IEM_DS3505
ZBTJ,1988-02-25 08:23,ZBTJ 250823Z AUTO 17006KT RMK IEM_DS3505
ZBTJ,1988-02-25 09:00,ZBTJ 250900Z AUTO 14006KT RMK IEM_DS3505
ZBTJ,1988-02-25 09:23,ZBTJ 250923Z AUTO 14006KT RMK IEM_DS3505
ZBTJ,1988-02-25 10:00,ZBTJ 251000Z AUTO 15006KT RMK IEM_DS3505
ZBTJ,1988-02-25 10:23,ZBTJ 251023Z AUTO 15006KT RMK IEM_DS3505
ZBTJ,1988-02-25 13:00,ZBTJ 251300Z AUTO 26002KT RMK IEM_DS3505
ZBTJ,1988-02-25 13:22,ZBTJ 251322Z AUTO 26002KT RMK IEM_DS3505
ZBTJ,1988-02-25 23:00,ZBTJ 252300Z AUTO 27002KT 2SM M01/M04 A3042 RMK T10101040 IEM_DS3505
ZBTJ,1988-02-25 23:23,ZBTJ 252323Z AUTO 27002KT 2SM M01/M04 A3042 RMK T10101040 IEM_DS3505
ZBTJ,1988-02-26 01:00,ZBTJ 260100Z AUTO 06008KT 2SM 01/M07 A3045 RMK T00101070 IEM_DS3505
ZBTJ,1988-02-26 01:25,ZBTJ 260125Z AUTO 06008KT 2SM 01/M07 A3045 RMK T00101070 IEM_DS3505
ZBTJ,1988-02-26 02:00,ZBTJ 260200Z AUTO 10021KT 5SM 04/M08 A3047 RMK T00401080 IEM_DS3505
ZBTJ,1988-02-26 02:26,ZBTJ 260226Z AUTO 10021KT 5SM 04/M08 A3047 RMK T00401080 IEM_DS3505
ZBTJ,1988-02-26 03:00,ZBTJ 260300Z AUTO 10019KT RMK IEM_DS3505
ZBTJ,1988-02-26 03:27,ZBTJ 260327Z AUTO 10019KT RMK IEM_DS3505
ZBTJ,1988-02-26 04:00,ZBTJ 260400Z AUTO 12014KT RMK IEM_DS3505
ZBTJ,1988-02-26 04:25,ZBTJ 260425Z AUTO 12014KT RMK IEM_DS3505
ZBTJ,1988-02-26 05:00,ZBTJ 260500Z AUTO 11012KT RMK IEM_DS3505
ZBTJ,1988-02-26 05:25,ZBTJ 260525Z AUTO 11012KT RMK IEM_DS3505
ZBTJ,1988-02-26 06:00,ZBTJ 260600Z AUTO 11010KT RMK IEM_DS3505
ZBTJ,1988-02-26 06:25,ZBTJ 260625Z AUTO 11010KT RMK IEM_DS3505
ZBTJ,1988-02-26 07:25,ZBTJ 260725Z AUTO 10010KT RMK IEM_DS3505
ZBTJ,1988-02-26 10:00,ZBTJ 261000Z AUTO 15006KT 5SM 02/M05 A3047 RMK T00201050 IEM_DS3505
ZBTJ,1988-02-26 10:29,ZBTJ 261029Z AUTO 15006KT 5SM 02/M05 A3047 RMK T00201050 IEM_DS3505
ZBTJ,1988-02-26 12:00,ZBTJ 261200Z AUTO 13004KT RMK IEM_DS3505
ZBTJ,1988-02-26 12:24,ZBTJ 261224Z AUTO 13004KT RMK IEM_DS3505
ZBTJ,1988-02-26 13:00,ZBTJ 261300Z AUTO 11004KT RMK IEM_DS3505
ZBTJ,1988-02-26 13:24,ZBTJ 261324Z AUTO 11004KT RMK IEM_DS3505
ZBTJ,1988-02-26 23:26,ZBTJ 262326Z AUTO 04006KT RMK IEM_DS3505
ZBTJ,1988-02-27 01:00,ZBTJ 270100Z AUTO 06008KT RMK IEM_DS3505
ZBTJ,1988-02-27 01:25,ZBTJ 270125Z AUTO 06008KT RMK IEM_DS3505
ZBTJ,1988-02-27 02:00,ZBTJ 270200Z AUTO 05010KT RMK IEM_DS3505
ZBTJ,1988-02-27 02:25,ZBTJ 270225Z AUTO 05010KT RMK IEM_DS3505
ZBTJ,1988-02-27 03:25,ZBTJ 270325Z AUTO 06010KT RMK IEM_DS3505
ZBTJ,1988-02-27 04:00,ZBTJ 270400Z AUTO 07010KT RMK IEM_DS3505
ZBTJ,1988-02-27 04:25,ZBTJ 270425Z AUTO 07010KT RMK IEM_DS3505
ZBTJ,1988-02-27 05:00,ZBTJ 270500Z AUTO 05012KT RMK IEM_DS3505
ZBTJ,1988-02-27 05:25,ZBTJ 270525Z AUTO 05012KT RMK IEM_DS3505
ZBTJ,1988-02-27 06:00,ZBTJ 270600Z AUTO 07010KT RMK IEM_DS3505
ZBTJ,1988-02-27 06:25,ZBTJ 270625Z AUTO 07010KT RMK IEM_DS3505
ZBTJ,1988-02-27 07:00,ZBTJ 270700Z AUTO 09008KT RMK IEM_DS3505
ZBTJ,1988-02-27 07:25,ZBTJ 270725Z AUTO 09008KT RMK IEM_DS3505
ZBTJ,1988-02-27 08:00,ZBTJ 270800Z AUTO 12010KT RMK IEM_DS3505
ZBTJ,1988-02-27 08:25,ZBTJ 270825Z AUTO 12010KT RMK IEM_DS3505
ZBTJ,1988-02-27 09:00,ZBTJ 270900Z AUTO 13012KT RMK IEM_DS3505
ZBTJ,1988-02-27 09:25,ZBTJ 270925Z AUTO 13012KT RMK IEM_DS3505
ZBTJ,1988-02-27 10:25,ZBTJ 271025Z AUTO 12008KT RMK IEM_DS3505
ZBTJ,1988-02-27 10:32,ZBTJ 271032Z AUTO 12008KT RMK IEM_DS3505
ZBTJ,1988-02-27 11:00,ZBTJ 271100Z AUTO 17004KT RMK IEM_DS3505
ZBTJ,1988-02-27 11:25,ZBTJ 271125Z AUTO 17004KT RMK IEM_DS3505
ZBTJ,1988-02-27 12:00,ZBTJ 271200Z AUTO 00000KT RMK IEM_DS3505
ZBTJ,1988-02-27 12:24,ZBTJ 271224Z AUTO 00000KT RMK IEM_DS3505
ZBTJ,1988-02-27 13:00,ZBTJ 271300Z AUTO 00000KT RMK IEM_DS3505
ZBTJ,1988-02-27 13:25,ZBTJ 271325Z AUTO 00000KT RMK IEM_DS3505
ZBTJ,1988-02-27 22:00,ZBTJ 272200Z AUTO 00000KT RMK IEM_DS3505
ZBTJ,1988-02-27 22:25,ZBTJ 272225Z AUTO 00000KT RMK IEM_DS3505
ZBTJ,1988-02-27 23:00,ZBTJ 272300Z AUTO 08006KT 4SM M06/M09 A3056 RMK T10601090 IEM_DS3505
ZBTJ,1988-02-27 23:25,ZBTJ 272325Z AUTO 08006KT 4SM M06/M09 A3056 RMK T10601090 IEM_DS3505
ZBTJ,1988-02-28 00:00,ZBTJ 280000Z AUTO 26002KT RMK IEM_DS3505
ZBTJ,1988-02-28 00:25,ZBTJ 280025Z AUTO 00000KT RMK IEM_DS3505
ZBTJ,1988-02-28 04:31,ZBTJ 280431Z AUTO 16004KT 5SM 01/M10 A3053 RMK T00101100 IEM_DS3505
ZBTJ,1988-02-28 05:31,ZBTJ 280531Z AUTO 26002KT RMK IEM_DS3505
ZBTJ,1988-02-28 06:00,ZBTJ 280600Z AUTO 12004KT RMK IEM_DS3505
ZBTJ,1988-02-28 06:31,ZBTJ 280631Z AUTO 12004KT RMK IEM_DS3505
ZBTJ,1988-02-28 07:00,ZBTJ 280700Z AUTO 00000KT RMK IEM_DS3505
ZBTJ,1988-02-28 07:31,ZBTJ 280731Z AUTO 00000KT RMK IEM_DS3505
ZBTJ,1988-02-28 08:00,ZBTJ 280800Z AUTO 26006KT RMK IEM_DS3505
ZBTJ,1988-02-28 08:31,ZBTJ 280831Z AUTO 26006KT RMK IEM_DS3505
ZBTJ,1988-02-28 09:00,ZBTJ 280900Z AUTO 24004KT RMK IEM_DS3505
ZBTJ,1988-02-28 09:31,ZBTJ 280931Z AUTO 24004KT RMK IEM_DS3505
ZBTJ,1988-02-28 10:00,ZBTJ 281000Z AUTO 16006KT RMK IEM_DS3505
ZBTJ,1988-02-28 10:31,ZBTJ 281031Z AUTO 16006KT RMK IEM_DS3505
ZBTJ,1988-02-28 11:00,ZBTJ 281100Z AUTO 26002KT 5SM A3047 RMK IEM_DS3505
ZBTJ,1988-02-28 11:31,ZBTJ 281131Z AUTO 26002KT 5SM A3047 RMK IEM_DS3505
ZBTJ,1988-02-28 12:00,ZBTJ 281200Z AUTO 27004KT 7SM M01/M06 A3047 RMK T10101060 IEM_DS3505
ZBTJ,1988-02-28 12:31,ZBTJ 281231Z AUTO 27004KT 7SM M01/M06 A3047 RMK T10101060 IEM_DS3505
ZBTJ,1988-02-28 13:00,ZBTJ 281300Z AUTO 7SM 02/M04 A3047 RMK T00201040 IEM_DS3505
ZBTJ,1988-02-28 13:30,ZBTJ 281330Z AUTO 7SM 02/M04 A3047 RMK T00201040 IEM_DS3505
ZBTJ,1988-02-28 22:00,ZBTJ 282200Z AUTO 29004KT RMK IEM_DS3505
ZBTJ,1988-02-28 22:30,ZBTJ 282230Z AUTO 29004KT RMK IEM_DS3505
ZBTJ,1988-02-28 23:32,ZBTJ 282332Z AUTO 30004KT 2 1/2SM M03/M05 A3039 RMK T10301050 IEM_DS3505
ZBTJ,1988-02-29 00:00,ZBTJ 290000Z AUTO 30008KT 3SM M03/M04 A3042 RMK T10301040 IEM_DS3505
ZBTJ,1988-02-29 00:32,ZBTJ 290032Z AUTO 30008KT 3SM M03/M04 A3042 RMK T10301040 IEM_DS3505
ZBTJ,1988-02-29 01:00,ZBTJ 290100Z AUTO 31008KT 2 1/2SM M02/M05 A3042 RMK T10201050 IEM_DS3505
ZBTJ,1988-02-29 01:31,ZBTJ 290131Z AUTO 31008KT 2 1/2SM M02/M05 A3042 RMK T10201050 IEM_DS3505
ZBTJ,1988-02-29 02:00,ZBTJ 290200Z AUTO 31008KT 3SM M01/M06 A3042 RMK T10101060 IEM_DS3505
ZBTJ,1988-02-29 02:31,ZBTJ 290231Z AUTO 31008KT 3SM M01/M06 A3042 RMK T10101060 IEM_DS3505
ZBTJ,1988-02-29 03:00,ZBTJ 290300Z AUTO 33008KT 7SM 01/M06 A3042 RMK T00101060 IEM_DS3505
ZBTJ,1988-02-29 03:31,ZBTJ 290331Z AUTO 33008KT 7SM 01/M06 A3042 RMK T00101060 IEM_DS3505
ZBTJ,1988-02-29 04:00,ZBTJ 290400Z AUTO 31008KT 7SM 03/M09 A3042 RMK T00301090 IEM_DS3505
ZBTJ,1988-02-29 04:31,ZBTJ 290431Z AUTO 31008KT 7SM 03/M09 A3042 RMK T00301090 IEM_DS3505
ZBTJ,1988-02-29 05:00,ZBTJ 290500Z AUTO 00000KT 7SM 04/M11 A3039 RMK T00401110 IEM_DS3505
ZBTJ,1988-02-29 05:31,ZBTJ 290531Z AUTO 00000KT 7SM 04/M11 A3039 RMK T00401110 IEM_DS3505
ZBTJ,1988-02-29 06:00,ZBTJ 290600Z AUTO 28006KT RMK IEM_DS3505
ZBTJ,1988-02-29 06:30,ZBTJ 290630Z AUTO 28006KT RMK IEM_DS3505
ZBTJ,1988-02-29 07:00,ZBTJ 290700Z AUTO 30006KT RMK IEM_DS3505
ZBTJ,1988-02-29 07:30,ZBTJ 290730Z AUTO 30006KT RMK IEM_DS3505
ZBTJ,1988-02-29 08:00,ZBTJ 290800Z AUTO 31010KT RMK IEM_DS3505
ZBTJ,1988-02-29 08:30,ZBTJ 290830Z AUTO 31010KT RMK IEM_DS3505
ZBTJ,1988-02-29 09:00,ZBTJ 290900Z AUTO 25004KT RMK IEM_DS3505
ZBTJ,1988-02-29 09:31,ZBTJ 290931Z AUTO 25004KT RMK IEM_DS3505
ZBTJ,1988-02-29 13:25,ZBTJ 291325Z AUTO 25006KT RMK IEM_DS3505
ZBTJ,1988-02-29 22:25,ZBTJ 292225Z AUTO 23004KT 4SM M04/M07 A3024 RMK T10401070 IEM_DS3505
ZBTJ,1988-02-29 23:26,ZBTJ 292326Z AUTO 00000KT 2 1/2SM M04/M06 A3024 RMK T10401060 IEM_DS3505
ZBTJ,1988-03-01 00:26,ZBTJ 010026Z AUTO 23004KT 2SM M03/M06 A3027 RMK T10301060 IEM_DS3505
ZBTJ,1988-03-01 01:26,ZBTJ 010126Z AUTO 22004KT 1 1/2SM M01/M05 A3027 RMK T10101050 IEM_DS3505
ZBTJ,1988-03-01 02:26,ZBTJ 010226Z AUTO 30008KT 4SM 01/M04 A3030 RMK T00101040 IEM_DS3505
ZBTJ,1988-03-01 03:26,ZBTJ 010326Z AUTO 32016KT RMK IEM_DS3505
ZBTJ,1988-03-01 04:00,ZBTJ 010400Z AUTO 33021KT RMK IEM_DS3505
ZBTJ,1988-03-01 04:25,ZBTJ 010425Z AUTO 33021KT RMK IEM_DS3505
ZBTJ,1988-03-01 06:30,ZBTJ 010630Z AUTO 33025KT RMK IEM_DS3505
ZBTJ,1988-03-01 07:00,ZBTJ 010700Z AUTO 33025KT 7SM 03/M16 A3024 RMK T00301160 IEM_DS3505
ZBTJ,1988-03-01 07:25,ZBTJ 010725Z AUTO 33025KT 7SM 03/M16 A3024 RMK T00301160 IEM_DS3505
ZBTJ,1988-03-01 08:00,ZBTJ 010800Z AUTO 33025KT 7SM 03/M16 A3024 RMK T00301160 IEM_DS3505
ZBTJ,1988-03-01 08:25,ZBTJ 010825Z AUTO 33023KT 7SM 03/M16 A3024 RMK T00301160 IEM_DS3505
ZBTJ,1988-03-01 09:00,ZBTJ 010900Z AUTO 33027KT 7SM 01/M24 A3027 RMK T00101240 IEM_DS3505
ZBTJ,1988-03-01 09:25,ZBTJ 010925Z AUTO 33027KT 7SM 01/M24 A3027 RMK T00101240 IEM_DS3505
ZBTJ,1988-03-01 10:00,ZBTJ 011000Z AUTO 32019KT RMK IEM_DS3505
ZBTJ,1988-03-01 10:24,ZBTJ 011024Z AUTO 32019KT RMK IEM_DS3505
ZBTJ,1988-03-01 11:00,ZBTJ 011100Z AUTO 33017KT 7SM M01/M22 A3033 RMK T10101220 IEM_DS3505
ZBTJ,1988-03-01 11:24,ZBTJ 011124Z AUTO 33017KT 7SM M01/M22 A3033 RMK T10101220 IEM_DS3505
ZBTJ,1988-03-01 12:00,ZBTJ 011200Z AUTO 33019KT 7SM M02/M22 A3036 RMK T10201220 IEM_DS3505
ZBTJ,1988-03-01 12:24,ZBTJ 011224Z AUTO 33019KT 7SM M02/M22 A3036 RMK T10201220 IEM_DS3505
ZBTJ,1988-03-01 13:00,ZBTJ 011300Z AUTO 32023KT 7SM M03/M19 A3036 RMK T10301190 IEM_DS3505
ZBTJ,1988-03-01 13:24,ZBTJ 011324Z AUTO 32023KT 7SM M03/M19 A3036 RMK T10301190 IEM_DS3505
ZBTJ,1988-03-01 23:00,ZBTJ 012300Z AUTO 31014KT 7SM M06/M18 A3045 RMK T10601180 IEM_DS3505
ZBTJ,1988-03-01 23:24,ZBTJ 012324Z AUTO 31014KT 7SM M06/M18 A3045 RMK T10601180 IEM_DS3505
ZBTJ,1988-03-02 01:00,ZBTJ 020100Z AUTO 31016KT 7SM M03/M21 A3047 RMK T10301210 IEM_DS3505
ZBTJ,1988-03-02 02:00,ZBTJ 020200Z AUTO 31017KT 7SM M03/M21 A3047 RMK T10301210 IEM_DS3505
ZBTJ,1988-03-02 02:25,ZBTJ 020225Z AUTO 31017KT 7SM M03/M21 A3047 RMK T10301210 IEM_DS3505
ZBTJ,1988-03-02 03:00,ZBTJ 020300Z AUTO 31017KT 7SM M01/M21 A3047 RMK T10101210 IEM_DS3505
ZBTJ,1988-03-02 03:25,ZBTJ 020325Z AUTO 31017KT 7SM M01/M21 A3047 RMK T10101210 IEM_DS3505
ZBTJ,1988-03-02 04:00,ZBTJ 020400Z AUTO 32017KT 7SM 00/M21 A3045 RMK T00001210 IEM_DS3505
ZBTJ,1988-03-02 04:25,ZBTJ 020425Z AUTO 32017KT 7SM 00/M21 A3045 RMK T00001210 IEM_DS3505
ZBTJ,1988-03-02 04:31,ZBTJ 020431Z AUTO 32017KT 7SM 00/M21 A3045 RMK T00001210 IEM_DS3505
ZBTJ,1988-03-02 04:39,ZBTJ 020439Z AUTO 32017KT 7SM 00/M21 A3045 RMK T00001210 IEM_DS3505
ZBTJ,1988-03-02 05:00,ZBTJ 020500Z AUTO 32019KT 7SM 01/M19 A3042 RMK T00101190 IEM_DS3505
ZBTJ,1988-03-02 05:49,ZBTJ 020549Z AUTO 32019KT 7SM 01/M19 A3042 RMK T00101190 IEM_DS3505
ZBTJ,1988-03-02 06:24,ZBTJ 020624Z AUTO 31021KT 7SM 01/M20 A3042 RMK T00101200 IEM_DS3505
ZBTJ,1988-03-02 07:00,ZBTJ 020700Z AUTO 31023KT 7SM 01/M21 A3039 RMK T00101210 IEM_DS3505
ZBTJ,1988-03-02 07:25,ZBTJ 020725Z AUTO 31023KT 7SM 01/M21 A3039 RMK T00101210 IEM_DS3505
ZBTJ,1988-03-02 08:24,ZBTJ 020824Z AUTO 31017KT 7SM 01/M21 A3036 RMK T00101210 IEM_DS3505
ZBTJ,1988-03-02 09:00,ZBTJ 020900Z AUTO 31016KT 7SM 01/M21 A3036 RMK T00101210 IEM_DS3505
ZBTJ,1988-03-02 09:24,ZBTJ 020924Z AUTO 31016KT 7SM 01/M21 A3036 RMK T00101210 IEM_DS3505
ZBTJ,1988-03-02 10:00,ZBTJ 021000Z AUTO 31017KT 7SM 00/M23 A3036 RMK T00001230 IEM_DS3505
ZBTJ,1988-03-02 10:25,ZBTJ 021025Z AUTO 31017KT 7SM 00/M23 A3036 RMK T00001230 IEM_DS3505
ZBTJ,1988-03-02 12:26,ZBTJ 021226Z AUTO 30010KT 7SM M02/M22 RMK T10201220 IEM_DS3505
ZBTJ,1988-03-02 23:00,ZBTJ 022300Z AUTO 33006KT 7SM M07/M15 A3045 RMK T10701150 IEM_DS3505
ZBTJ,1988-03-02 23:24,ZBTJ 022324Z AUTO 33006KT 7SM M07/M15 A3045 RMK T10701150 IEM_DS3505
ZBTJ,1988-03-03 00:00,ZBTJ 030000Z AUTO 33008KT 7SM M05/M15 A3047 RMK T10501150 IEM_DS3505
ZBTJ,1988-03-03 00:25,ZBTJ 030025Z AUTO 33008KT 7SM M05/M15 A3047 RMK T10501150 IEM_DS3505
ZBTJ,1988-03-03 01:00,ZBTJ 030100Z AUTO 33016KT 7SM M01/M15 A3047 RMK T10101150 IEM_DS3505
ZBTJ,1988-03-03 01:25,ZBTJ 030125Z AUTO 33016KT 7SM M01/M15 A3047 RMK T10101150 IEM_DS3505
ZBTJ,1988-03-03 02:00,ZBTJ 030200Z AUTO 30016KT 7SM 00/M13 A3047 RMK T00001130 IEM_DS3505
ZBTJ,1988-03-03 02:25,ZBTJ 030225Z AUTO 30016KT 7SM 00/M13 A3047 RMK T00001130 IEM_DS3505
ZBTJ,1988-03-03 03:25,ZBTJ 030325Z AUTO 31019KT 7SM 01/M15 A3047 RMK T00101150 IEM_DS3505
ZBTJ,1988-03-03 04:00,ZBTJ 030400Z AUTO 32016KT 7SM 02/M13 A3045 RMK T00201130 IEM_DS3505
ZBTJ,1988-03-03 04:24,ZBTJ 030424Z AUTO 32016KT 7SM 02/M13 A3045 RMK T00201130 IEM_DS3505
ZBTJ,1988-03-03 05:00,ZBTJ 030500Z AUTO 33012KT 7SM 03/M17 A3039 RMK T00301170 IEM_DS3505
ZBTJ,1988-03-03 05:35,ZBTJ 030535Z AUTO 33012KT 7SM 03/M17 A3039 RMK T00301170 IEM_DS3505
ZBTJ,1988-03-03 06:24,ZBTJ 030624Z AUTO 28012KT 7SM 03/ A3039 RMK IEM_DS3505
ZBTJ,1988-03-03 07:00,ZBTJ 030700Z AUTO 29014KT 7SM 04/M13 A3036 RMK T00401130 IEM_DS3505
ZBTJ,1988-03-03 07:29,ZBTJ 030729Z AUTO 29014KT 7SM 04/M13 A3036 RMK T00401130 IEM_DS3505
ZBTJ,1988-03-03 08:00,ZBTJ 030800Z AUTO 30010KT 7SM 04/M23 A3036 RMK T00401230 IEM_DS3505
ZBTJ,1988-03-03 08:25,ZBTJ 030825Z AUTO 30010KT 7SM 04/M23 A3036 RMK T00401230 IEM_DS3505
ZBTJ,1988-03-03 09:00,ZBTJ 030900Z AUTO 33010KT 7SM 02/M20 A3036 RMK T00201200 IEM_DS3505
ZBTJ,1988-03-03 09:24,ZBTJ 030924Z AUTO 33010KT 7SM 02/M20 A3036 RMK T00201200 IEM_DS3505
ZBTJ,1988-03-03 10:00,ZBTJ 031000Z AUTO 33008KT 7SM 01/M17 A3036 RMK T00101170 IEM_DS3505
ZBTJ,1988-03-03 10:24,ZBTJ 031024Z AUTO 33008KT 7SM 01/M17 A3036 RMK T00101170 IEM_DS3505
ZBTJ,1988-03-03 11:00,ZBTJ 031100Z AUTO 33006KT 7SM M02/M18 A3039 RMK T10201180 IEM_DS3505
ZBTJ,1988-03-03 11:27,ZBTJ 031127Z AUTO 33006KT 7SM M02/M18 A3039 RMK T10201180 IEM_DS3505
ZBTJ,1988-03-03 12:00,ZBTJ 031200Z AUTO 33006KT 7SM M03/M17 A3039 RMK T10301170 IEM_DS3505
ZBTJ,1988-03-03 12:24,ZBTJ 031224Z AUTO 33006KT 7SM M03/M17 A3039 RMK T10301170 IEM_DS3505
ZBTJ,1988-03-03 13:00,ZBTJ 031300Z AUTO 34006KT 7SM M03/M16 A3042 RMK T10301160 IEM_DS3505
ZBTJ,1988-03-03 13:24,ZBTJ 031324Z AUTO 34006KT 7SM M03/M16 A3042 RMK T10301160 IEM_DS3505
ZBTJ,1988-03-03 14:24,ZBTJ 031424Z AUTO 26004KT 7SM M04/M15 A3042 RMK T10401150 IEM_DS3505
ZBTJ,1988-03-03 15:00,ZBTJ 031500Z AUTO 06002KT 7SM M05/M15 A3042 RMK T10501150 IEM_DS3505
ZBTJ,1988-03-03 15:24,ZBTJ 031524Z AUTO 06002KT 7SM M05/M15 A3042 RMK T10501150 IEM_DS3505
ZBTJ,1988-03-03 16:00,ZBTJ 031600Z AUTO 06002KT 7SM M05/M15 A3042 RMK T10501150 IEM_DS3505
ZBTJ,1988-03-03 16:24,ZBTJ 031624Z AUTO 06002KT 7SM M05/M15 A3042 RMK T10501150 IEM_DS3505
ZBTJ,1988-03-03 23:00,ZBTJ 032300Z AUTO 00000KT RMK IEM_DS3505
ZBTJ,1988-03-03 23:20,ZBTJ 032320Z AUTO 00000KT RMK IEM_DS3505
ZBTJ,1988-03-04 00:00,ZBTJ 040000Z AUTO 29002KT RMK IEM_DS3505
ZBTJ,1988-03-04 00:20,ZBTJ 040020Z AUTO 29002KT RMK IEM_DS3505
ZBTJ,1988-03-04 01:20,ZBTJ 040120Z AUTO 31010KT 7SM M01/M13 A3039 RMK T10101130 IEM_DS3505
ZBTJ,1988-03-04 02:19,ZBTJ 040219Z AUTO 31014KT 7SM 01/M13 A3039 RMK T00101130 IEM_DS3505
ZBTJ,1988-03-04 03:00,ZBTJ 040300Z AUTO 31019KT 7SM 03/M12 A3036 RMK T00301120 IEM_DS3505
ZBTJ,1988-03-04 03:20,ZBTJ 040320Z AUTO 31019KT 7SM 03/M12 A3036 RMK T00301120 IEM_DS3505
ZBTJ,1988-03-04 04:00,ZBTJ 040400Z AUTO 30017KT 7SM 03/M13 A3033 RMK T00301130 IEM_DS3505
ZBTJ,1988-03-04 04:26,ZBTJ 040426Z AUTO 30017KT 7SM 03/M13 A3033 RMK T00301130 IEM_DS3505
ZBTJ,1988-03-04 05:24,ZBTJ 040524Z AUTO 28010KT 7SM 04/M12 A3030 RMK T00401120 IEM_DS3505
ZBTJ,1988-03-04 06:00,ZBTJ 040600Z AUTO 26012KT 7SM 05/M11 A3027 RMK T00501110 IEM_DS3505
ZBTJ,1988-03-04 07:00,ZBTJ 040700Z AUTO 26012KT 7SM 05/M13 A3024 RMK T00501130 IEM_DS3505
ZBTJ,1988-03-04 07:21,ZBTJ 040721Z AUTO 26012KT 7SM 05/M13 A3024 RMK T00501130 IEM_DS3505
ZBTJ,1988-03-04 08:00,ZBTJ 040800Z AUTO 27010KT 7SM 05/M13 A3024 RMK T00501130 IEM_DS3505
ZBTJ,1988-03-04 08:21,ZBTJ 040821Z AUTO 27010KT 7SM 05/M13 A3024 RMK T00501130 IEM_DS3505
ZBTJ,1988-03-04 09:22,ZBTJ 040922Z AUTO 27008KT 7SM 04/M10 A3024 RMK T00401100 IEM_DS3505
ZBTJ,1988-03-04 10:00,ZBTJ 041000Z AUTO 29008KT 7SM 02/M10 A3024 RMK T00201100 IEM_DS3505
ZBTJ,1988-03-04 10:20,ZBTJ 041020Z AUTO 29008KT 7SM 02/M10 A3024 RMK T00201100 IEM_DS3505
ZBTJ,1988-03-04 11:20,ZBTJ 041120Z AUTO 30004KT 7SM 00/M08 A3024 RMK T00001080 IEM_DS3505
ZBTJ,1988-03-04 12:00,ZBTJ 041200Z AUTO 30002KT 7SM 00/M11 A3027 RMK T00001110 IEM_DS3505
ZBTJ,1988-03-04 12:21,ZBTJ 041221Z AUTO 30002KT 7SM 00/M11 A3027 RMK T00001110 IEM_DS3505
ZBTJ,1988-03-04 14:20,ZBTJ 041420Z AUTO 33002KT 7SM M03/M12 A3027 RMK T10301120 IEM_DS3505
ZBTJ,1988-03-04 22:00,ZBTJ 042200Z AUTO 32008KT 7SM M05/M17 A3021 RMK T10501170 IEM_DS3505
ZBTJ,1988-03-04 22:18,ZBTJ 042218Z AUTO 32008KT 7SM M05/M17 A3021 RMK T10501170 IEM_DS3505
ZBTJ,1988-03-04 23:00,ZBTJ 042300Z AUTO 31004KT RMK IEM_DS3505
ZBTJ,1988-03-04 23:23,ZBTJ 042323Z AUTO 31004KT RMK IEM_DS3505
ZBTJ,1988-03-05 00:00,ZBTJ 050000Z AUTO 30008KT RMK IEM_DS3505
ZBTJ,1988-03-05 00:23,ZBTJ 050023Z AUTO 30008KT RMK IEM_DS3505
ZBTJ,1988-03-05 01:00,ZBTJ 050100Z AUTO 32017KT RMK IEM_DS3505
ZBTJ,1988-03-05 01:23,ZBTJ 050123Z AUTO 32017KT RMK IEM_DS3505
ZBTJ,1988-03-05 02:00,ZBTJ 050200Z AUTO 32017KT RMK IEM_DS3505
ZBTJ,1988-03-05 02:23,ZBTJ 050223Z AUTO 32017KT RMK IEM_DS3505
ZBTJ,1988-03-05 03:23,ZBTJ 050323Z AUTO 32019KT RMK IEM_DS3505
ZBTJ,1988-03-05 06:00,ZBTJ 050600Z AUTO 29014KT RMK IEM_DS3505
ZBTJ,1988-03-05 06:27,ZBTJ 050627Z AUTO 29014KT RMK IEM_DS3505
ZBTJ,1988-03-05 07:00,ZBTJ 050700Z AUTO 30012KT RMK IEM_DS3505
ZBTJ,1988-03-05 07:40,ZBTJ 050740Z AUTO 30012KT RMK IEM_DS3505
ZBTJ,1988-03-05 08:00,ZBTJ 050800Z AUTO 32016KT RMK IEM_DS3505
ZBTJ,1988-03-05 08:26,ZBTJ 050826Z AUTO 32016KT RMK IEM_DS3505
ZBTJ,1988-03-05 09:00,ZBTJ 050900Z AUTO 32016KT RMK IEM_DS3505
ZBTJ,1988-03-05 09:27,ZBTJ 050927Z AUTO 32016KT RMK IEM_DS3505
ZBTJ,1988-03-05 10:00,ZBTJ 051000Z AUTO 32014KT RMK IEM_DS3505
ZBTJ,1988-03-05 10:26,ZBTJ 051026Z AUTO 32014KT RMK IEM_DS3505
ZBTJ,1988-03-05 11:00,ZBTJ 051100Z AUTO 32014KT 7SM 00/M20 A3027 RMK T00001200 IEM_DS3505
ZBTJ,1988-03-05 11:26,ZBTJ 051126Z AUTO 32014KT 7SM 00/M20 A3027 RMK T00001200 IEM_DS3505
ZBTJ,1988-03-05 12:26,ZBTJ 051226Z AUTO 32008KT 7SM M02/M18 A3030 RMK T10201180 IEM_DS3505
ZBTJ,1988-03-05 13:00,ZBTJ 051300Z AUTO 33010KT 7SM M02/M17 A3033 RMK T10201170 IEM_DS3505
ZBTJ,1988-03-05 13:26,ZBTJ 051326Z AUTO 33010KT 7SM M02/M17 A3033 RMK T10201170 IEM_DS3505
ZBTJ,1988-03-05 22:00,ZBTJ 052200Z AUTO 30019KT 7SM M07/M26 A3039 RMK T10701260 IEM_DS3505
ZBTJ,1988-03-05 22:25,ZBTJ 052225Z AUTO 30019KT 7SM M07/M26 A3039 RMK T10701260 IEM_DS3505
ZBTJ,1988-03-05 23:00,ZBTJ 052300Z AUTO 31019KT 7SM M07/M27 A3042 RMK T10701270 IEM_DS3505
ZBTJ,1988-03-05 23:26,ZBTJ 052326Z AUTO 31019KT 7SM M07/M27 A3042 RMK T10701270 IEM_DS3505
ZBTJ,1988-03-06 00:00,ZBTJ 060000Z AUTO 31019KT 7SM M07/M27 A3042 RMK T10701270 IEM_DS3505
ZBTJ,1988-03-06 00:29,ZBTJ 060029Z AUTO 31019KT 7SM M07/M27 A3042 RMK T10701270 IEM_DS3505
ZBTJ,1988-03-06 01:00,ZBTJ 060100Z AUTO 30025KT RMK IEM_DS3505
ZBTJ,1988-03-06 01:27,ZBTJ 060127Z AUTO 30025KT RMK IEM_DS3505
ZBTJ,1988-03-06 02:00,ZBTJ 060200Z AUTO 32031KT 6SM M04/M23 A3047 RMK T10401230 IEM_DS3505
ZBTJ,1988-03-06 02:27,ZBTJ 060227Z AUTO 32031KT 6SM M04/M23 A3047 RMK T10401230 IEM_DS3505
ZBTJ,1988-03-06 03:00,ZBTJ 060300Z AUTO 32031KT RMK IEM_DS3505
ZBTJ,1988-03-06 03:26,ZBTJ 060326Z AUTO 32031KT RMK IEM_DS3505
ZBTJ,1988-03-06 04:00,ZBTJ 060400Z AUTO 32031KT 6SM M03/M24 A3047 RMK T10301240 IEM_DS3505
ZBTJ,1988-03-06 04:26,ZBTJ 060426Z AUTO 32031KT 6SM M03/M24 A3047 RMK T10301240 IEM_DS3505
ZBTJ,1988-03-06 06:00,ZBTJ 060600Z AUTO 31023KT 7SM M01/M22 A3047 RMK T10101220 IEM_DS3505
ZBTJ,1988-03-06 06:26,ZBTJ 060626Z AUTO 31023KT 7SM M01/M22 A3047 RMK T10101220 IEM_DS3505
ZBTJ,1988-03-06 07:00,ZBTJ 060700Z AUTO 30025KT 7SM M01/M23 A3047 RMK T10101230 IEM_DS3505
ZBTJ,1988-03-06 07:27,ZBTJ 060727Z AUTO 30025KT 7SM M01/M23 A3047 RMK T10101230 IEM_DS3505
ZBTJ,1988-03-06 08:00,ZBTJ 060800Z AUTO 31023KT 7SM M01/M23 A3047 RMK T10101230 IEM_DS3505
ZBTJ,1988-03-06 08:26,ZBTJ 060826Z AUTO 31023KT 7SM M01/M23 A3047 RMK T10101230 IEM_DS3505
ZBTJ,1988-03-06 09:00,ZBTJ 060900Z AUTO 31023KT 7SM M02/M24 A3047 RMK T10201240 IEM_DS3505
ZBTJ,1988-03-06 09:26,ZBTJ 060926Z AUTO 31023KT 7SM M02/M24 A3047 RMK T10201240 IEM_DS3505
ZBTJ,1988-03-06 10:00,ZBTJ 061000Z AUTO 30016KT 7SM M03/M25 A3047 RMK T10301250 IEM_DS3505
ZBTJ,1988-03-06 10:26,ZBTJ 061026Z AUTO 30016KT 7SM M03/M25 A3047 RMK T10301250 IEM_DS3505
ZBTJ,1988-03-06 11:00,ZBTJ 061100Z AUTO 29010KT 7SM M04/M23 A3047 RMK T10401230 IEM_DS3505
ZBTJ,1988-03-06 11:27,ZBTJ 061127Z AUTO 29010KT 7SM M04/M23 A3047 RMK T10401230 IEM_DS3505
ZBTJ,1988-03-06 12:26,ZBTJ 061226Z AUTO 26006KT 7SM M05/M17 A3047 RMK T10501170 IEM_DS3505
ZBTJ,1988-03-06 13:00,ZBTJ 061300Z AUTO 26006KT 7SM M05/M20 A3047 RMK T10501200 IEM_DS3505
ZBTJ,1988-03-06 13:26,ZBTJ 061326Z AUTO 26006KT 7SM M05/M20 A3047 RMK T10501200 IEM_DS3505
ZBTJ,1988-03-06 23:00,ZBTJ 062300Z AUTO 23012KT 7SM M04/M17 A3030 RMK T10401170 IEM_DS3505
ZBTJ,1988-03-06 23:26,ZBTJ 062326Z AUTO 23012KT 7SM M04/M17 A3030 RMK T10401170 IEM_DS3505
ZBTJ,1988-03-07 00:00,ZBTJ 070000Z AUTO 24014KT 7SM M03/M18 RMK T10301180 IEM_DS3505
ZBTJ,1988-03-07 00:28,ZBTJ 070028Z AUTO 24014KT 7SM M03/M18 RMK T10301180 IEM_DS3505
ZBTJ,1988-03-07 01:00,ZBTJ 070100Z AUTO 24014KT 3SM M01/M18 A3030 RMK T10101180 IEM_DS3505
ZBTJ,1988-03-07 01:23,ZBTJ 070123Z AUTO 24014KT 3SM M01/M18 A3030 RMK T10101180 IEM_DS3505
ZBTJ,1988-03-07 02:00,ZBTJ 070200Z AUTO 26012KT 4SM 02/M16 A3030 RMK T00201160 IEM_DS3505
ZBTJ,1988-03-07 02:28,ZBTJ 070228Z AUTO 26012KT 4SM 02/M16 A3030 RMK T00201160 IEM_DS3505
ZBTJ,1988-03-07 04:30,ZBTJ 070430Z AUTO 27012KT 5SM 04/M10 A3027 RMK T00401100 IEM_DS3505
ZBTJ,1988-03-07 05:00,ZBTJ 070500Z AUTO 29012KT 7SM 07/M09 A3024 RMK T00701090 IEM_DS3505
ZBTJ,1988-03-07 05:27,ZBTJ 070527Z AUTO 29012KT 7SM 07/M09 A3024 RMK T00701090 IEM_DS3505
ZBTJ,1988-03-07 06:00,ZBTJ 070600Z AUTO 29014KT 7SM 08/M06 A3021 RMK T00801060 IEM_DS3505
ZBTJ,1988-03-07 06:24,ZBTJ 070624Z AUTO 29014KT 7SM 08/M06 A3021 RMK T00801060 IEM_DS3505
ZBTJ,1988-03-07 07:00,ZBTJ 070700Z AUTO 28016KT 7SM 07/M17 A3018 RMK T00701170 IEM_DS3505
ZBTJ,1988-03-07 07:24,ZBTJ 070724Z AUTO 28016KT 7SM 07/M17 A3018 RMK T00701170 IEM_DS3505
ZBTJ,1988-03-07 08:00,ZBTJ 070800Z AUTO 29017KT 7SM 07/M15 A3018 RMK T00701150 IEM_DS3505
ZBTJ,1988-03-07 08:28,ZBTJ 070828Z AUTO 29017KT 7SM 07/M15 A3018 RMK T00701150 IEM_DS3505
ZBTJ,1988-03-07 09:00,ZBTJ 070900Z AUTO 31016KT 7SM 07/M15 A3018 RMK T00701150 IEM_DS3505
ZBTJ,1988-03-07 09:28,ZBTJ 070928Z AUTO 31016KT 7SM 07/M15 A3018 RMK T00701150 IEM_DS3505
ZBTJ,1988-03-07 10:00,ZBTJ 071000Z AUTO 32012KT RMK IEM_DS3505
ZBTJ,1988-03-07 10:44,ZBTJ 071044Z AUTO 32012KT RMK IEM_DS3505
ZBTJ,1988-03-07 11:00,ZBTJ 071100Z AUTO 34008KT RMK IEM_DS3505
ZBTJ,1988-03-07 11:24,ZBTJ 071124Z AUTO 34008KT RMK IEM_DS3505
ZBTJ,1988-03-07 13:00,ZBTJ 071300Z AUTO 29008KT 7SM 00/M12 A3030 RMK T00001120 IEM_DS3505
ZBTJ,1988-03-07 13:24,ZBTJ 071324Z AUTO 29008KT 7SM 00/M12 A3030 RMK T00001120 IEM_DS3505
ZBTJ,1988-03-07 22:00,ZBTJ 072200Z AUTO 29025KT 7SM M05/M15 A3042 RMK T10501150 IEM_DS3505
ZBTJ,1988-03-07 22:25,ZBTJ 072225Z AUTO 29025KT 7SM M05/M15 A3042 RMK T10501150 IEM_DS3505
ZBTJ,1988-03-07 23:00,ZBTJ 072300Z AUTO 32006KT 7SM M06/M14 A3042 RMK T10601140 IEM_DS3505
ZBTJ,1988-03-07 23:25,ZBTJ 072325Z AUTO 32006KT 7SM M06/M14 A3042 RMK T10601140 IEM_DS3505
ZBTJ,1988-03-08 00:00,ZBTJ 080000Z AUTO 32004KT 7SM M03/M14 A3042 RMK T10301140 IEM_DS3505
ZBTJ,1988-03-08 00:24,ZBTJ 080024Z AUTO 32004KT 7SM M03/M14 A3042 RMK T10301140 IEM_DS3505
ZBTJ,1988-03-08 01:00,ZBTJ 080100Z AUTO 33010KT 7SM 01/M11 A3045 RMK T00101110 IEM_DS3505
ZBTJ,1988-03-08 01:25,ZBTJ 080125Z AUTO 33010KT 7SM 01/M11 A3045 RMK T00101110 IEM_DS3505
ZBTJ,1988-03-08 02:00,ZBTJ 080200Z AUTO 33010KT 7SM 03/M15 A3045 RMK T00301150 IEM_DS3505
ZBTJ,1988-03-08 02:25,ZBTJ 080225Z AUTO 33010KT 7SM 03/M15 A3045 RMK T00301150 IEM_DS3505
ZBTJ,1988-03-08 03:00,ZBTJ 080300Z AUTO 30010KT 7SM 02/M20 A3047 RMK T00201200 IEM_DS3505
ZBTJ,1988-03-08 03:26,ZBTJ 080326Z AUTO 30010KT RMK IEM_DS3505
ZBTJ,1988-03-08 04:00,ZBTJ 080400Z AUTO 28012KT RMK IEM_DS3505
ZBTJ,1988-03-08 04:25,ZBTJ 080425Z AUTO 28012KT RMK IEM_DS3505
ZBTJ,1988-03-08 05:00,ZBTJ 080500Z AUTO 26014KT 7SM 07/M18 A3036 RMK T00701180 IEM_DS3505
ZBTJ,1988-03-08 05:26,ZBTJ 080526Z AUTO 26014KT 7SM 07/M18 A3036 RMK T00701180 IEM_DS3505
ZBTJ,1988-03-08 07:00,ZBTJ 080700Z AUTO 23010KT 7SM 06/M13 A3021 RMK T00601130 IEM_DS3505
ZBTJ,1988-03-08 07:25,ZBTJ 080725Z AUTO 24014KT 7SM 08/M21 A3030 RMK T00801210 IEM_DS3505
ZBTJ,1988-03-08 08:00,ZBTJ 080800Z AUTO 24016KT 7SM 09/M17 A3027 RMK T00901170 IEM_DS3505
ZBTJ,1988-03-08 08:25,ZBTJ 080825Z AUTO 24016KT 7SM 09/M17 A3027 RMK T00901170 IEM_DS3505
ZBTJ,1988-03-08 09:00,ZBTJ 080900Z AUTO 22012KT 7SM 04/M14 A3021 RMK T00401140 IEM_DS3505
ZBTJ,1988-03-08 09:26,ZBTJ 080926Z AUTO 25014KT RMK IEM_DS3505
ZBTJ,1988-03-08 11:25,ZBTJ 081125Z AUTO 23010KT 7SM 06/M13 A3021 RMK T00601130 IEM_DS3505
ZBTJ,1988-03-08 12:25,ZBTJ 081225Z AUTO 23014KT 7SM 05/M13 A3021 RMK T00501130 IEM_DS3505
ZBTJ,1988-03-08 13:25,ZBTJ 081325Z AUTO 22012KT 7SM 04/M14 A3021 RMK T00401140 IEM_DS3505
ZBTJ,1988-03-08 22:00,ZBTJ 082200Z AUTO 25010KT 7SM 02/M12 A3012 RMK T00201120 IEM_DS3505
ZBTJ,1988-03-08 22:27,ZBTJ 082227Z AUTO 25010KT 7SM 02/M12 A3012 RMK T00201120 IEM_DS3505
ZBTJ,1988-03-08 23:00,ZBTJ 082300Z AUTO 27010KT 4SM 02/M13 A3015 RMK T00201130 IEM_DS3505
ZBTJ,1988-03-08 23:29,ZBTJ 082329Z AUTO 27010KT 4SM 02/M13 A3015 RMK T00201130 IEM_DS3505
ZBTJ,1988-03-09 00:28,ZBTJ 090028Z AUTO 26008KT 1 1/4SM 04/M12 A3018 RMK T00401120 IEM_DS3505
ZBTJ,1988-03-09 01:00,ZBTJ 090100Z AUTO 30012KT 7SM 10/M18 RMK T01001180 IEM_DS3505
ZBTJ,1988-03-09 01:28,ZBTJ 090128Z AUTO 30012KT 7SM 10/M18 RMK T01001180 IEM_DS3505
ZBTJ,1988-03-09 02:00,ZBTJ 090200Z AUTO 30016KT 7SM 12/M20 A3021 RMK T01201200 IEM_DS3505
ZBTJ,1988-03-09 02:27,ZBTJ 090227Z AUTO 30016KT 7SM 12/M20 A3021 RMK T01201200 IEM_DS3505
ZBTJ,1988-03-09 03:00,ZBTJ 090300Z AUTO 32017KT 7SM 14/M21 A3024 RMK T01401210 IEM_DS3505
ZBTJ,1988-03-09 03:28,ZBTJ 090328Z AUTO 32017KT 7SM 14/M21 A3024 RMK T01401210 IEM_DS3505
ZBTJ,1988-03-09 04:00,ZBTJ 090400Z AUTO 32016KT 7SM 15/M18 A3024 RMK T01501180 IEM_DS3505
ZBTJ,1988-03-09 04:29,ZBTJ 090429Z AUTO 32016KT 7SM 15/M18 A3024 RMK T01501180 IEM_DS3505
ZBTJ,1988-03-09 05:00,ZBTJ 090500Z AUTO 30010KT 7SM 16/M15 A3021 RMK T01601150 IEM_DS3505
ZBTJ,1988-03-09 05:28,ZBTJ 090528Z AUTO 30010KT 7SM 16/M15 A3021 RMK T01601150 IEM_DS3505
ZBTJ,1988-03-09 06:00,ZBTJ 090600Z AUTO 30006KT 7SM 17/M16 A3018 RMK T01701160 IEM_DS3505
ZBTJ,1988-03-09 06:28,ZBTJ 090628Z AUTO 30006KT 7SM 17/M16 A3018 RMK T01701160 IEM_DS3505
ZBTJ,1988-03-09 07:00,ZBTJ 090700Z AUTO 27006KT 7SM 17/M17 A3018 RMK T01701170 IEM_DS3505
ZBTJ,1988-03-09 07:29,ZBTJ 090729Z AUTO 27006KT 7SM 17/M17 A3018 RMK T01701170 IEM_DS3505
ZBTJ,1988-03-09 08:00,ZBTJ 090800Z AUTO 31008KT 7SM 16/M14 A3018 RMK T01601140 IEM_DS3505
ZBTJ,1988-03-09 08:27,ZBTJ 090827Z AUTO 31008KT 7SM 16/M14 A3018 RMK T01601140 IEM_DS3505
ZBTJ,1988-03-09 09:00,ZBTJ 090900Z AUTO 36008KT 7SM 16/M11 A3018 RMK T01601110 IEM_DS3505
ZBTJ,1988-03-09 09:28,ZBTJ 090928Z AUTO 36008KT 7SM 16/M11 A3018 RMK T01601110 IEM_DS3505
ZBTJ,1988-03-09 10:00,ZBTJ 091000Z AUTO 05004KT 7SM 13/M04 A3018 RMK T01301040 IEM_DS3505
ZBTJ,1988-03-09 10:27,ZBTJ 091027Z AUTO 05004KT 7SM 13/M04 A3018 RMK T01301040 IEM_DS3505
ZBTJ,1988-03-09 11:00,ZBTJ 091100Z AUTO 14010KT 7SM 06/M08 A3021 RMK T00601080 IEM_DS3505
ZBTJ,1988-03-09 11:29,ZBTJ 091129Z AUTO 14010KT 7SM 06/M08 A3021 RMK T00601080 IEM_DS3505
ZBTJ,1988-03-09 12:00,ZBTJ 091200Z AUTO 14012KT 7SM 04/M06 A3021 RMK T00401060 IEM_DS3505
ZBTJ,1988-03-09 12:27,ZBTJ 091227Z AUTO 14012KT 7SM 04/M06 A3021 RMK T00401060 IEM_DS3505
ZBTJ,1988-03-09 22:00,ZBTJ 092200Z AUTO 04004KT 7SM M06/M08 A3012 RMK T10601080 IEM_DS3505
ZBTJ,1988-03-09 22:28,ZBTJ 092228Z AUTO 04004KT 7SM M06/M08 A3012 RMK T10601080 IEM_DS3505
ZBTJ,1988-03-10 00:00,ZBTJ 100000Z AUTO 08004KT RMK IEM_DS3505
ZBTJ,1988-03-10 00:28,ZBTJ 100028Z AUTO 08004KT RMK IEM_DS3505
ZBTJ,1988-03-10 01:28,ZBTJ 100128Z AUTO 10004KT 7SM 03/M04 A3012 RMK T00301040 IEM_DS3505
ZBTJ,1988-03-10 02:00,ZBTJ 100200Z AUTO 10004KT RMK IEM_DS3505
ZBTJ,1988-03-10 02:28,ZBTJ 100228Z AUTO 10004KT RMK IEM_DS3505
ZBTJ,1988-03-10 03:00,ZBTJ 100300Z AUTO 19004KT RMK IEM_DS3505
ZBTJ,1988-03-10 03:24,ZBTJ 100324Z AUTO 19004KT RMK IEM_DS3505
ZBTJ,1988-03-10 04:25,ZBTJ 100425Z AUTO 20006KT RMK IEM_DS3505
ZBTJ,1988-03-10 05:00,ZBTJ 100500Z AUTO 20010KT RMK IEM_DS3505
ZBTJ,1988-03-10 05:32,ZBTJ 100532Z AUTO 20010KT RMK IEM_DS3505
ZBTJ,1988-03-10 06:00,ZBTJ 100600Z AUTO 22008KT RMK IEM_DS3505
ZBTJ,1988-03-10 06:25,ZBTJ 100625Z AUTO 22008KT RMK IEM_DS3505
ZBTJ,1988-03-10 07:00,ZBTJ 100700Z AUTO 20006KT RMK IEM_DS3505
ZBTJ,1988-03-10 07:24,ZBTJ 100724Z AUTO 20006KT RMK IEM_DS3505
ZBTJ,1988-03-10 08:00,ZBTJ 100800Z AUTO 22012KT RMK IEM_DS3505
ZBTJ,1988-03-10 08:24,ZBTJ 100824Z AUTO 22012KT RMK IEM_DS3505
ZBTJ,1988-03-10 09:00,ZBTJ 100900Z AUTO 20010KT RMK IEM_DS3505
ZBTJ,1988-03-10 09:25,ZBTJ 100925Z AUTO 20010KT RMK IEM_DS3505
ZBTJ,1988-03-10 10:00,ZBTJ 101000Z AUTO 21006KT RMK IEM_DS3505
ZBTJ,1988-03-10 10:25,ZBTJ 101025Z AUTO 21006KT RMK IEM_DS3505
ZBTJ,1988-03-10 11:00,ZBTJ 101100Z AUTO 18008KT RMK IEM_DS3505
ZBTJ,1988-03-10 11:25,ZBTJ 101125Z AUTO 18008KT RMK IEM_DS3505
ZBTJ,1988-03-10 12:00,ZBTJ 101200Z AUTO 21004KT RMK IEM_DS3505
ZBTJ,1988-03-10 12:25,ZBTJ 101225Z AUTO 21004KT RMK IEM_DS3505
ZBTJ,1988-03-10 13:25,ZBTJ 101325Z AUTO 00000KT RMK IEM_DS3505
ZBTJ,1988-03-10 22:00,ZBTJ 102200Z AUTO 17008KT RMK IEM_DS3505
ZBTJ,1988-03-10 22:25,ZBTJ 102225Z AUTO 17008KT RMK IEM_DS3505
ZBTJ,1988-03-10 23:00,ZBTJ 102300Z AUTO 32004KT RMK IEM_DS3505
ZBTJ,1988-03-10 23:25,ZBTJ 102325Z AUTO 32004KT RMK IEM_DS3505
ZBTJ,1988-03-11 00:00,ZBTJ 110000Z AUTO 35010KT RMK IEM_DS3505
ZBTJ,1988-03-11 00:25,ZBTJ 110025Z AUTO 35010KT RMK IEM_DS3505
ZBTJ,1988-03-11 01:00,ZBTJ 110100Z AUTO 04002KT 6SM RMK IEM_DS3505
ZBTJ,1988-03-11 01:25,ZBTJ 110125Z AUTO 04002KT 6SM 08/M01 A2977 RMK T00801010 IEM_DS3505
ZBTJ,1988-03-11 02:00,ZBTJ 110200Z AUTO 12004KT RMK IEM_DS3505
ZBTJ,1988-03-11 02:27,ZBTJ 110227Z AUTO 12004KT RMK IEM_DS3505
ZBTJ,1988-03-11 03:00,ZBTJ 110300Z AUTO 21008KT RMK IEM_DS3505
ZBTJ,1988-03-11 03:27,ZBTJ 110327Z AUTO 21008KT RMK IEM_DS3505
ZBTJ,1988-03-11 04:00,ZBTJ 110400Z AUTO 25010KT 3SM 16/M06 A2974 RMK T01601060 IEM_DS3505
ZBTJ,1988-03-11 04:25,ZBTJ 110425Z AUTO 25010KT 3SM 16/M06 A2974 RMK T01601060 IEM_DS3505
ZBTJ,1988-03-11 06:00,ZBTJ 110600Z AUTO 29008KT RMK IEM_DS3505
ZBTJ,1988-03-11 06:30,ZBTJ 110630Z AUTO 29008KT RMK IEM_DS3505
ZBTJ,1988-03-11 07:00,ZBTJ 110700Z AUTO 30010KT RMK IEM_DS3505
ZBTJ,1988-03-11 07:28,ZBTJ 110728Z AUTO 30010KT RMK IEM_DS3505
ZBTJ,1988-03-11 08:00,ZBTJ 110800Z AUTO 31008KT RMK IEM_DS3505
ZBTJ,1988-03-11 08:28,ZBTJ 110828Z AUTO 31008KT RMK IEM_DS3505
ZBTJ,1988-03-11 09:00,ZBTJ 110900Z AUTO 29004KT RMK IEM_DS3505
ZBTJ,1988-03-11 10:00,ZBTJ 111000Z AUTO 32006KT RMK IEM_DS3505
ZBTJ,1988-03-11 10:28,ZBTJ 111028Z AUTO 32006KT RMK IEM_DS3505
ZBTJ,1988-03-11 11:00,ZBTJ 111100Z AUTO 30004KT 4SM 13/M04 A2971 RMK T01301040 IEM_DS3505
ZBTJ,1988-03-11 11:30,ZBTJ 111130Z AUTO 30004KT 4SM 13/M04 A2971 RMK T01301040 IEM_DS3505
ZBTJ,1988-03-11 12:00,ZBTJ 111200Z AUTO 30008KT 4SM 13/M07 A2974 RMK T01301070 IEM_DS3505
ZBTJ,1988-03-11 12:27,ZBTJ 111227Z AUTO 30008KT 4SM 13/M07 A2974 RMK T01301070 IEM_DS3505
ZBTJ,1988-03-11 13:00,ZBTJ 111300Z AUTO 28006KT 4SM 11/M08 A2977 RMK T01101080 IEM_DS3505
ZBTJ,1988-03-11 13:28,ZBTJ 111328Z AUTO 28006KT 4SM 11/M08 A2977 RMK T01101080 IEM_DS3505
ZBTJ,1988-03-11 23:00,ZBTJ 112300Z AUTO 13006KT 2 1/2SM 01/M05 A2980 RMK T00101050 IEM_DS3505
ZBTJ,1988-03-11 23:28,ZBTJ 112328Z AUTO 13006KT 2 1/2SM 01/M05 A2980 RMK T00101050 IEM_DS3505
ZBTJ,1988-03-12 00:00,ZBTJ 120000Z AUTO 17006KT 1 1/2SM 06/M06 A2980 RMK T00601060 IEM_DS3505
ZBTJ,1988-03-12 00:28,ZBTJ 120028Z AUTO 17006KT 1 1/2SM 06/M06 A2980 RMK T00601060 IEM_DS3505
ZBTJ,1988-03-12 01:00,ZBTJ 120100Z AUTO 14006KT 2 1/2SM 11/M06 A2980 RMK T01101060 IEM_DS3505
ZBTJ,1988-03-12 01:28,ZBTJ 120128Z AUTO 14006KT 2 1/2SM 11/M06 A2980 RMK T01101060 IEM_DS3505
ZBTJ,1988-03-12 03:26,ZBTJ 120326Z AUTO 21004KT RMK IEM_DS3505
ZBTJ,1988-03-12 04:27,ZBTJ 120427Z AUTO 19008KT RMK IEM_DS3505
ZBTJ,1988-03-12 05:00,ZBTJ 120500Z AUTO 21010KT RMK IEM_DS3505
ZBTJ,1988-03-12 05:26,ZBTJ 120526Z AUTO 21010KT RMK IEM_DS3505
ZBTJ,1988-03-12 06:27,ZBTJ 120627Z AUTO 23008KT RMK IEM_DS3505
ZBTJ,1988-03-12 07:00,ZBTJ 120700Z AUTO 21008KT RMK IEM_DS3505
ZBTJ,1988-03-12 07:25,ZBTJ 120725Z AUTO 21008KT RMK IEM_DS3505
ZBTJ,1988-03-12 08:00,ZBTJ 120800Z AUTO 21008KT RMK IEM_DS3505
ZBTJ,1988-03-12 08:25,ZBTJ 120825Z AUTO 21008KT RMK IEM_DS3505
ZBTJ,1988-03-12 09:00,ZBTJ 120900Z AUTO 21008KT RMK IEM_DS3505
ZBTJ,1988-03-12 09:25,ZBTJ 120925Z AUTO 21008KT RMK IEM_DS3505
ZBTJ,1988-03-12 10:00,ZBTJ 121000Z AUTO 23006KT RMK IEM_DS3505
ZBTJ,1988-03-12 10:25,ZBTJ 121025Z AUTO 23006KT RMK IEM_DS3505
ZBTJ,1988-03-12 11:00,ZBTJ 121100Z AUTO 21006KT 4SM A2965 RMK IEM_DS3505
ZBTJ,1988-03-12 11:25,ZBTJ 121125Z AUTO 21006KT 4SM A2965 RMK IEM_DS3505
ZBTJ,1988-03-12 12:00,ZBTJ 121200Z AUTO 21002KT 4SM 11/02 A2968 RMK T01100020 IEM_DS3505
ZBTJ,1988-03-12 12:25,ZBTJ 121225Z AUTO 21002KT 4SM 11/02 A2968 RMK T01100020 IEM_DS3505
ZBTJ,1988-03-12 13:00,ZBTJ 121300Z AUTO 22004KT 4SM 11/01 RMK T01100010 IEM_DS3505
ZBTJ,1988-03-12 13:25,ZBTJ 121325Z AUTO 22004KT 4SM 11/01 RMK T01100010 IEM_DS3505
ZBTJ,1988-03-12 22:00,ZBTJ 122200Z AUTO 31002KT 3SM 05/00 A2971 RMK T00500000 IEM_DS3505
ZBTJ,1988-03-12 22:24,ZBTJ 122224Z AUTO 31002KT 3SM 05/00 A2971 RMK T00500000 IEM_DS3505
ZBTJ,1988-03-12 23:00,ZBTJ 122300Z AUTO 00000KT 1 1/2SM 04/00 A2971 RMK T00400000 IEM_DS3505
ZBTJ,1988-03-12 23:25,ZBTJ 122325Z AUTO 00000KT 1 1/2SM 04/00 A2971 RMK T00400000 IEM_DS3505
ZBTJ,1988-03-13 00:00,ZBTJ 130000Z AUTO 36004KT 1 1/2SM 05/00 A2977 RMK T00500000 IEM_DS3505
ZBTJ,1988-03-13 00:25,ZBTJ 130025Z AUTO 36004KT 1 1/2SM 05/00 A2977 RMK T00500000 IEM_DS3505
ZBTJ,1988-03-13 01:00,ZBTJ 130100Z AUTO 05008KT 1 1/2SM 07/00 A2977 RMK T00700000 IEM_DS3505
ZBTJ,1988-03-13 01:27,ZBTJ 130127Z AUTO 05008KT 1 1/2SM 07/00 A2977 RMK T00700000 IEM_DS3505
ZBTJ,1988-03-13 02:00,ZBTJ 130200Z AUTO 03006KT 2SM 11/01 A2980 RMK T01100010 IEM_DS3505
ZBTJ,1988-03-13 02:26,ZBTJ 130226Z AUTO 03006KT 2SM 11/01 A2980 RMK T01100010 IEM_DS3505
ZBTJ,1988-03-13 03:00,ZBTJ 130300Z AUTO 04012KT 0SM 15/02 RMK T01500020 IEM_DS3505
ZBTJ,1988-03-13 03:26,ZBTJ 130326Z AUTO 04012KT 0SM 15/02 A2980 RMK T01500020 IEM_DS3505
ZBTJ,1988-03-13 04:26,ZBTJ 130426Z AUTO 06017KT RMK IEM_DS3505
ZBTJ,1988-03-13 05:32,ZBTJ 130532Z AUTO 08017KT RMK IEM_DS3505
ZBTJ,1988-03-13 06:00,ZBTJ 130600Z AUTO 07016KT RMK IEM_DS3505
ZBTJ,1988-03-13 06:25,ZBTJ 130625Z AUTO 07016KT RMK IEM_DS3505
ZBTJ,1988-03-13 07:00,ZBTJ 130700Z AUTO 09014KT RMK IEM_DS3505
ZBTJ,1988-03-13 07:25,ZBTJ 130725Z AUTO 09014KT RMK IEM_DS3505
ZBTJ,1988-03-13 08:00,ZBTJ 130800Z AUTO 10016KT RMK IEM_DS3505
ZBTJ,1988-03-13 08:25,ZBTJ 130825Z AUTO 10016KT RMK IEM_DS3505
ZBTJ,1988-03-13 09:00,ZBTJ 130900Z AUTO 10017KT RMK IEM_DS3505
ZBTJ,1988-03-13 09:25,ZBTJ 130925Z AUTO 10017KT RMK IEM_DS3505
ZBTJ,1988-03-13 10:00,ZBTJ 131000Z AUTO 11014KT RMK IEM_DS3505
ZBTJ,1988-03-13 10:25,ZBTJ 131025Z AUTO 11014KT RMK IEM_DS3505
ZBTJ,1988-03-13 11:00,ZBTJ 131100Z AUTO 10014KT RMK IEM_DS3505
ZBTJ,1988-03-13 11:26,ZBTJ 131126Z AUTO 10014KT RMK IEM_DS3505
ZBTJ,1988-03-13 12:00,ZBTJ 131200Z AUTO 08012KT RMK IEM_DS3505
ZBTJ,1988-03-13 12:26,ZBTJ 131226Z AUTO 08012KT RMK IEM_DS3505
ZBTJ,1988-03-13 13:00,ZBTJ 131300Z AUTO 09010KT RMK IEM_DS3505
ZBTJ,1988-03-13 13:25,ZBTJ 131325Z AUTO 09010KT RMK IEM_DS3505
ZBTJ,1988-03-13 22:00,ZBTJ 132200Z AUTO 07004KT RMK IEM_DS3505
ZBTJ,1988-03-13 22:25,ZBTJ 132225Z AUTO 07004KT RMK IEM_DS3505
ZBTJ,1988-03-13 23:00,ZBTJ 132300Z AUTO 07006KT RMK IEM_DS3505
ZBTJ,1988-03-13 23:26,ZBTJ 132326Z AUTO 07006KT RMK IEM_DS3505
ZBTJ,1988-03-14 00:00,ZBTJ 140000Z AUTO 06006KT RMK IEM_DS3505
ZBTJ,1988-03-14 00:28,ZBTJ 140028Z AUTO 06006KT RMK IEM_DS3505
ZBTJ,1988-03-14 01:00,ZBTJ 140100Z AUTO 08014KT RMK IEM_DS3505
ZBTJ,1988-03-14 01:26,ZBTJ 140126Z AUTO 08014KT RMK IEM_DS3505
ZBTJ,1988-03-14 02:00,ZBTJ 140200Z AUTO 08019KT RMK IEM_DS3505
ZBTJ,1988-03-14 02:26,ZBTJ 140226Z AUTO 08019KT RMK IEM_DS3505
ZBTJ,1988-03-14 03:00,ZBTJ 140300Z AUTO 09019KT RMK IEM_DS3505
ZBTJ,1988-03-14 03:25,ZBTJ 140325Z AUTO 09019KT RMK IEM_DS3505
ZBTJ,1988-03-14 04:00,ZBTJ 140400Z AUTO 09019KT RMK IEM_DS3505
ZBTJ,1988-03-14 04:32,ZBTJ 140432Z AUTO 09019KT RMK IEM_DS3505
ZBTJ,1988-03-14 05:00,ZBTJ 140500Z AUTO 10017KT RMK IEM_DS3505
ZBTJ,1988-03-14 05:26,ZBTJ 140526Z AUTO 10017KT RMK IEM_DS3505
ZBTJ,1988-03-14 06:00,ZBTJ 140600Z AUTO 10017KT RMK IEM_DS3505
ZBTJ,1988-03-14 06:26,ZBTJ 140626Z AUTO 10017KT RMK IEM_DS3505
ZBTJ,1988-03-14 07:00,ZBTJ 140700Z AUTO 11016KT RMK IEM_DS3505
ZBTJ,1988-03-14 07:26,ZBTJ 140726Z AUTO 11016KT RMK IEM_DS3505
ZBTJ,1988-03-14 08:00,ZBTJ 140800Z AUTO 11014KT RMK IEM_DS3505
ZBTJ,1988-03-14 08:26,ZBTJ 140826Z AUTO 11014KT RMK IEM_DS3505
ZBTJ,1988-03-14 09:00,ZBTJ 140900Z AUTO 14010KT RMK IEM_DS3505
ZBTJ,1988-03-14 09:25,ZBTJ 140925Z AUTO 14010KT RMK IEM_DS3505
ZBTJ,1988-03-14 10:00,ZBTJ 141000Z AUTO 14008KT RMK IEM_DS3505
ZBTJ,1988-03-14 10:26,ZBTJ 141026Z AUTO 14008KT RMK IEM_DS3505
ZBTJ,1988-03-14 11:00,ZBTJ 141100Z AUTO 13006KT RMK IEM_DS3505
ZBTJ,1988-03-14 11:26,ZBTJ 141126Z AUTO 13006KT RMK IEM_DS3505
ZBTJ,1988-03-14 13:00,ZBTJ 141300Z AUTO 16006KT RMK IEM_DS3505
ZBTJ,1988-03-14 13:26,ZBTJ 141326Z AUTO 16006KT RMK IEM_DS3505
ZBTJ,1988-03-14 14:25,ZBTJ 141425Z AUTO 15002KT 7SM M01/M06 A3033 RMK T10101060 IEM_DS3505
ZBTJ,1988-03-14 23:00,ZBTJ 142300Z AUTO 04006KT RMK IEM_DS3505
ZBTJ,1988-03-14 23:25,ZBTJ 142325Z AUTO 04006KT RMK IEM_DS3505
ZBTJ,1988-03-15 00:00,ZBTJ 150000Z AUTO 09006KT RMK IEM_DS3505
ZBTJ,1988-03-15 00:25,ZBTJ 150025Z AUTO 09006KT RMK IEM_DS3505
ZBTJ,1988-03-15 01:25,ZBTJ 150125Z AUTO 12010KT RMK IEM_DS3505
ZBTJ,1988-03-15 01:28,ZBTJ 150128Z AUTO 12010KT RMK IEM_DS3505
ZBTJ,1988-03-15 02:00,ZBTJ 150200Z AUTO 12010KT RMK IEM_DS3505
ZBTJ,1988-03-15 02:25,ZBTJ 150225Z AUTO 12010KT RMK IEM_DS3505
ZBTJ,1988-03-15 03:00,ZBTJ 150300Z AUTO 17010KT RMK IEM_DS3505
ZBTJ,1988-03-15 03:25,ZBTJ 150325Z AUTO 17010KT RMK IEM_DS3505
ZBTJ,1988-03-15 04:00,ZBTJ 150400Z AUTO 11010KT RMK IEM_DS3505
ZBTJ,1988-03-15 04:28,ZBTJ 150428Z AUTO 11010KT RMK IEM_DS3505
ZBTJ,1988-03-15 05:00,ZBTJ 150500Z AUTO 13012KT RMK IEM_DS3505
ZBTJ,1988-03-15 05:26,ZBTJ 150526Z AUTO 13012KT RMK IEM_DS3505
ZBTJ,1988-03-15 06:00,ZBTJ 150600Z AUTO 16006KT RMK IEM_DS3505
ZBTJ,1988-03-15 06:24,ZBTJ 150624Z AUTO 16006KT RMK IEM_DS3505
ZBTJ,1988-03-15 07:00,ZBTJ 150700Z AUTO 19008KT RMK IEM_DS3505
ZBTJ,1988-03-15 07:25,ZBTJ 150725Z AUTO 19008KT RMK IEM_DS3505
ZBTJ,1988-03-15 08:00,ZBTJ 150800Z AUTO 14008KT RMK IEM_DS3505
ZBTJ,1988-03-15 08:23,ZBTJ 150823Z AUTO 14008KT RMK IEM_DS3505
ZBTJ,1988-03-15 09:00,ZBTJ 150900Z AUTO 12010KT 6SM 01/M08 A3050 RMK T00101080 IEM_DS3505
ZBTJ,1988-03-15 09:24,ZBTJ 150924Z AUTO 13010KT RMK IEM_DS3505
ZBTJ,1988-03-15 10:00,ZBTJ 151000Z AUTO 15008KT RMK IEM_DS3505
ZBTJ,1988-03-15 10:24,ZBTJ 151024Z AUTO 15008KT RMK IEM_DS3505
ZBTJ,1988-03-15 11:00,ZBTJ 151100Z AUTO 15008KT RMK IEM_DS3505
ZBTJ,1988-03-15 11:23,ZBTJ 151123Z AUTO 15008KT RMK IEM_DS3505
ZBTJ,1988-03-15 12:00,ZBTJ 151200Z AUTO 15008KT 7SM M01/M09 A3045 RMK T10101090 IEM_DS3505
ZBTJ,1988-03-15 12:24,ZBTJ 151224Z AUTO 15008KT 7SM M01/M09 A3045 RMK T10101090 IEM_DS3505
ZBTJ,1988-03-15 13:24,ZBTJ 151324Z AUTO 16006KT 7SM M02/M09 A3047 RMK T10201090 IEM_DS3505
ZBTJ,1988-03-15 21:00,ZBTJ 152100Z AUTO 00000KT RMK IEM_DS3505
ZBTJ,1988-03-15 21:23,ZBTJ 152123Z AUTO 00000KT RMK IEM_DS3505
ZBTJ,1988-03-15 22:00,ZBTJ 152200Z AUTO 08002KT RMK IEM_DS3505
ZBTJ,1988-03-15 22:24,ZBTJ 152224Z AUTO 08002KT RMK IEM_DS3505
ZBTJ,1988-03-15 23:00,ZBTJ 152300Z AUTO 07002KT RMK IEM_DS3505
ZBTJ,1988-03-15 23:24,ZBTJ 152324Z AUTO 07002KT RMK IEM_DS3505
ZBTJ,1988-03-16 00:00,ZBTJ 160000Z AUTO 00000KT RMK IEM_DS3505
ZBTJ,1988-03-16 00:24,ZBTJ 160024Z AUTO 00000KT RMK IEM_DS3505
ZBTJ,1988-03-16 00:58,ZBTJ 160058Z AUTO 00000KT RMK IEM_DS3505
ZBTJ,1988-03-16 01:00,ZBTJ 160100Z AUTO 00000KT RMK IEM_DS3505
ZBTJ,1988-03-16 01:24,ZBTJ 160124Z AUTO 00000KT RMK IEM_DS3505
ZBTJ,1988-03-16 02:00,ZBTJ 160200Z AUTO 24004KT RMK IEM_DS3505
ZBTJ,1988-03-16 02:29,ZBTJ 160229Z AUTO 24004KT RMK IEM_DS3505
ZBTJ,1988-03-16 03:00,ZBTJ 160300Z AUTO 16006KT RMK IEM_DS3505
ZBTJ,1988-03-16 03:35,ZBTJ 160335Z AUTO 16006KT RMK IEM_DS3505
ZBTJ,1988-03-16 04:00,ZBTJ 160400Z AUTO 16004KT RMK IEM_DS3505
ZBTJ,1988-03-16 04:41,ZBTJ 160441Z AUTO 16004KT RMK IEM_DS3505
ZBTJ,1988-03-16 05:00,ZBTJ 160500Z AUTO 26006KT RMK IEM_DS3505
ZBTJ,1988-03-16 05:27,ZBTJ 160527Z AUTO 26006KT RMK IEM_DS3505
ZBTJ,1988-03-16 06:00,ZBTJ 160600Z AUTO 00000KT 6SM 06/M11 A3024 RMK T00601110 IEM_DS3505
ZBTJ,1988-03-16 07:00,ZBTJ 160700Z AUTO 00000KT 6SM 07/M11 A3021 RMK T00701110 IEM_DS3505
ZBTJ,1988-03-16 07:23,ZBTJ 160723Z AUTO 00000KT 6SM 07/M11 A3021 RMK T00701110 IEM_DS3505
ZBTJ,1988-03-16 08:24,ZBTJ 160824Z AUTO 22002KT RMK IEM_DS3505
ZBTJ,1988-03-16 09:00,ZBTJ 160900Z AUTO 20006KT 7SM 06/M11 A3018 RMK T00601110 IEM_DS3505
ZBTJ,1988-03-16 09:24,ZBTJ 160924Z AUTO 20006KT 7SM 06/M11 A3018 RMK T00601110 IEM_DS3505
ZBTJ,1988-03-16 10:00,ZBTJ 161000Z AUTO 14014KT 7SM 04/M06 A3018 RMK T00401060 IEM_DS3505
ZBTJ,1988-03-16 10:24,ZBTJ 161024Z AUTO 14014KT 7SM 04/M06 A3018 RMK T00401060 IEM_DS3505
ZBTJ,1988-03-16 11:00,ZBTJ 161100Z AUTO 15010KT 7SM 02/M05 A3018 RMK T00201050 IEM_DS3505
ZBTJ,1988-03-16 11:24,ZBTJ 161124Z AUTO 15010KT 7SM 02/M05 A3018 RMK T00201050 IEM_DS3505
ZBTJ,1988-03-16 12:00,ZBTJ 161200Z AUTO 17010KT 7SM 01/M06 A3018 RMK T00101060 IEM_DS3505
ZBTJ,1988-03-16 12:24,ZBTJ 161224Z AUTO 17010KT 7SM 01/M06 A3018 RMK T00101060 IEM_DS3505
ZBTJ,1988-03-16 13:00,ZBTJ 161300Z AUTO 17008KT 7SM 00/M06 A3018 RMK T00001060 IEM_DS3505
ZBTJ,1988-03-16 13:23,ZBTJ 161323Z AUTO 17008KT 7SM 00/M06 A3018 RMK T00001060 IEM_DS3505
ZBTJ,1988-03-17 00:24,ZBTJ 170024Z AUTO 21006KT RMK IEM_DS3505
ZBTJ,1988-03-17 02:00,ZBTJ 170200Z AUTO 20008KT RMK IEM_DS3505
ZBTJ,1988-03-17 02:24,ZBTJ 170224Z AUTO 20008KT RMK IEM_DS3505
ZBTJ,1988-03-17 03:00,ZBTJ 170300Z AUTO 6SM 08/M10 A3009 RMK T00801100 IEM_DS3505
ZBTJ,1988-03-17 03:24,ZBTJ 170324Z AUTO 6SM 08/M10 A3009 RMK T00801100 IEM_DS3505
ZBTJ,1988-03-17 06:00,ZBTJ 170600Z AUTO 21012KT RMK IEM_DS3505
ZBTJ,1988-03-17 06:24,ZBTJ 170624Z AUTO 21012KT RMK IEM_DS3505
ZBTJ,1988-03-17 07:00,ZBTJ 170700Z AUTO 22010KT RMK IEM_DS3505
ZBTJ,1988-03-17 07:25,ZBTJ 170725Z AUTO 22010KT RMK IEM_DS3505
ZBTJ,1988-03-17 09:00,ZBTJ 170900Z AUTO 23010KT RMK IEM_DS3505
ZBTJ,1988-03-17 09:24,ZBTJ 170924Z AUTO 23010KT RMK IEM_DS3505
ZBTJ,1988-03-17 11:00,ZBTJ 171100Z AUTO 21008KT 7SM 11/M05 A2997 RMK T01101050 IEM_DS3505
ZBTJ,1988-03-17 11:24,ZBTJ 171124Z AUTO 21008KT 7SM 11/M05 A2997 RMK T01101050 IEM_DS3505
ZBTJ,1988-03-17 13:00,ZBTJ 171300Z AUTO 24008KT 3SM 07/M01 A3000 RMK T00701010 IEM_DS3505
ZBTJ,1988-03-17 13:23,ZBTJ 171323Z AUTO 24008KT 3SM 07/M01 A3000 RMK T00701010 IEM_DS3505
ZBTJ,1988-03-17 22:00,ZBTJ 172200Z AUTO 34014KT 7SM 03/M10 A3015 RMK T00301100 IEM_DS3505
ZBTJ,1988-03-17 22:23,ZBTJ 172223Z AUTO 34014KT 7SM 03/M10 A3015 RMK T00301100 IEM_DS3505
ZBTJ,1988-03-18 02:00,ZBTJ 180200Z AUTO 36019KT RMK IEM_DS3505
ZBTJ,1988-03-18 02:24,ZBTJ 180224Z AUTO 36019KT RMK IEM_DS3505
ZBTJ,1988-03-18 03:00,ZBTJ 180300Z AUTO 33019KT 07/M13 A3024 RMK T00701130 IEM_DS3505
ZBTJ,1988-03-18 03:26,ZBTJ 180326Z AUTO 33019KT RMK IEM_DS3505
ZBTJ,1988-03-18 04:00,ZBTJ 180400Z AUTO 26014KT RMK IEM_DS3505
ZBTJ,1988-03-18 04:35,ZBTJ 180435Z AUTO 26014KT RMK IEM_DS3505
ZBTJ,1988-03-18 06:00,ZBTJ 180600Z AUTO 35008KT RMK IEM_DS3505
ZBTJ,1988-03-18 07:00,ZBTJ 180700Z AUTO 32012KT RMK IEM_DS3505
ZBTJ,1988-03-18 07:24,ZBTJ 180724Z AUTO 32012KT RMK IEM_DS3505
ZBTJ,1988-03-18 08:24,ZBTJ 180824Z AUTO 32008KT RMK IEM_DS3505
ZBTJ,1988-03-18 09:00,ZBTJ 180900Z AUTO 31010KT RMK IEM_DS3505
ZBTJ,1988-03-18 09:23,ZBTJ 180923Z AUTO 31010KT RMK IEM_DS3505
ZBTJ,1988-03-18 10:23,ZBTJ 181023Z AUTO 33004KT RMK IEM_DS3505
ZBTJ,1988-03-18 11:00,ZBTJ 181100Z AUTO 00000KT RMK IEM_DS3505
ZBTJ,1988-03-18 11:23,ZBTJ 181123Z AUTO 00000KT RMK IEM_DS3505
ZBTJ,1988-03-18 13:00,ZBTJ 181300Z AUTO 26006KT RMK IEM_DS3505
ZBTJ,1988-03-18 13:23,ZBTJ 181323Z AUTO 26006KT RMK IEM_DS3505
ZBTJ,1988-03-18 14:00,ZBTJ 181400Z AUTO 28006KT RMK IEM_DS3505
ZBTJ,1988-03-18 14:23,ZBTJ 181423Z AUTO 28006KT RMK IEM_DS3505
ZBTJ,1988-03-18 20:00,ZBTJ 182000Z AUTO 01010KT 7SM M03/M11 A3036 RMK T10301110 IEM_DS3505
ZBTJ,1988-03-18 20:23,ZBTJ 182023Z AUTO 01010KT 7SM M03/M11 A3036 RMK T10301110 IEM_DS3505
ZBTJ,1988-03-18 22:00,ZBTJ 182200Z AUTO 05010KT RMK IEM_DS3505
ZBTJ,1988-03-18 22:24,ZBTJ 182224Z AUTO 05010KT RMK IEM_DS3505
ZBTJ,1988-03-18 23:00,ZBTJ 182300Z AUTO 09006KT RMK IEM_DS3505
ZBTJ,1988-03-18 23:23,ZBTJ 182323Z AUTO 09006KT RMK IEM_DS3505
ZBTJ,1988-03-19 00:00,ZBTJ 190000Z AUTO 10010KT RMK IEM_DS3505
ZBTJ,1988-03-19 00:23,ZBTJ 190023Z AUTO 10010KT RMK IEM_DS3505
ZBTJ,1988-03-19 01:00,ZBTJ 190100Z AUTO 11014KT RMK IEM_DS3505
ZBTJ,1988-03-19 01:24,ZBTJ 190124Z AUTO 11014KT RMK IEM_DS3505
ZBTJ,1988-03-19 02:00,ZBTJ 190200Z AUTO 11014KT RMK IEM_DS3505
ZBTJ,1988-03-19 02:23,ZBTJ 190223Z AUTO 11014KT RMK IEM_DS3505
ZBTJ,1988-03-19 03:25,ZBTJ 190325Z AUTO 10012KT RMK IEM_DS3505
ZBTJ,1988-03-19 04:00,ZBTJ 190400Z AUTO 11014KT RMK IEM_DS3505
ZBTJ,1988-03-19 04:24,ZBTJ 190424Z AUTO 11014KT RMK IEM_DS3505
ZBTJ,1988-03-19 05:00,ZBTJ 190500Z AUTO 14010KT RMK IEM_DS3505
ZBTJ,1988-03-19 05:32,ZBTJ 190532Z AUTO 14010KT RMK IEM_DS3505
ZBTJ,1988-03-19 06:00,ZBTJ 190600Z AUTO 12012KT RMK IEM_DS3505
ZBTJ,1988-03-19 06:24,ZBTJ 190624Z AUTO 12012KT RMK IEM_DS3505
ZBTJ,1988-03-19 07:00,ZBTJ 190700Z AUTO 10008KT RMK IEM_DS3505
ZBTJ,1988-03-19 07:24,ZBTJ 190724Z AUTO 10008KT RMK IEM_DS3505
ZBTJ,1988-03-19 08:00,ZBTJ 190800Z AUTO 12012KT RMK IEM_DS3505
ZBTJ,1988-03-19 08:24,ZBTJ 190824Z AUTO 12012KT RMK IEM_DS3505
ZBTJ,1988-03-19 09:00,ZBTJ 190900Z AUTO 13012KT RMK IEM_DS3505
ZBTJ,1988-03-19 09:24,ZBTJ 190924Z AUTO 13012KT RMK IEM_DS3505
ZBTJ,1988-03-19 10:24,ZBTJ 191024Z AUTO 12012KT RMK IEM_DS3505
ZBTJ,1988-03-19 11:00,ZBTJ 191100Z AUTO 11012KT RMK IEM_DS3505
ZBTJ,1988-03-19 11:25,ZBTJ 191125Z AUTO 11012KT RMK IEM_DS3505
ZBTJ,1988-03-19 13:00,ZBTJ 191300Z AUTO 11008KT RMK IEM_DS3505
ZBTJ,1988-03-19 13:24,ZBTJ 191324Z AUTO 11008KT RMK IEM_DS3505
ZBTJ,1988-03-19 21:00,ZBTJ 192100Z AUTO 04006KT RMK IEM_DS3505
ZBTJ,1988-03-19 21:23,ZBTJ 192123Z AUTO 04006KT RMK IEM_DS3505
ZBTJ,1988-03-19 22:00,ZBTJ 192200Z AUTO 02004KT RMK IEM_DS3505
ZBTJ,1988-03-19 22:24,ZBTJ 192224Z AUTO 02004KT RMK IEM_DS3505
ZBTJ,1988-03-19 23:00,ZBTJ 192300Z AUTO 01006KT RMK IEM_DS3505
ZBTJ,1988-03-19 23:24,ZBTJ 192324Z AUTO 01006KT RMK IEM_DS3505
ZBTJ,1988-03-20 00:00,ZBTJ 200000Z AUTO 03008KT RMK IEM_DS3505
ZBTJ,1988-03-20 00:24,ZBTJ 200024Z AUTO 03008KT RMK IEM_DS3505
ZBTJ,1988-03-20 01:00,ZBTJ 200100Z AUTO 05006KT RMK IEM_DS3505
ZBTJ,1988-03-20 01:24,ZBTJ 200124Z AUTO 05006KT RMK IEM_DS3505
ZBTJ,1988-03-20 02:00,ZBTJ 200200Z AUTO 06008KT RMK IEM_DS3505
ZBTJ,1988-03-20 02:24,ZBTJ 200224Z AUTO 06008KT RMK IEM_DS3505
ZBTJ,1988-03-20 03:00,ZBTJ 200300Z AUTO 09008KT RMK IEM_DS3505
ZBTJ,1988-03-20 03:24,ZBTJ 200324Z AUTO 09008KT RMK IEM_DS3505
ZBTJ,1988-03-20 04:00,ZBTJ 200400Z AUTO 06010KT RMK IEM_DS3505
ZBTJ,1988-03-20 04:24,ZBTJ 200424Z AUTO 06010KT RMK IEM_DS3505
ZBTJ,1988-03-20 05:00,ZBTJ 200500Z AUTO 07008KT RMK IEM_DS3505
ZBTJ,1988-03-20 05:24,ZBTJ 200524Z AUTO 07008KT RMK IEM_DS3505
ZBTJ,1988-03-20 06:00,ZBTJ 200600Z AUTO 06008KT 7SM 07/M01 A3024 RMK T00701010 IEM_DS3505
ZBTJ,1988-03-20 06:24,ZBTJ 200624Z AUTO 06008KT 7SM 07/M01 A3024 RMK T00701010 IEM_DS3505
ZBTJ,1988-03-20 07:00,ZBTJ 200700Z AUTO 11008KT RMK IEM_DS3505
ZBTJ,1988-03-20 07:24,ZBTJ 200724Z AUTO 11008KT RMK IEM_DS3505
ZBTJ,1988-03-20 08:00,ZBTJ 200800Z AUTO 08008KT 7SM 07/M01 A3021 RMK T00701010 IEM_DS3505
ZBTJ,1988-03-20 08:25,ZBTJ 200825Z AUTO 08008KT 7SM 07/M01 A3021 RMK T00701010 IEM_DS3505
ZBTJ,1988-03-20 09:00,ZBTJ 200900Z AUTO 08008KT RMK IEM_DS3505
ZBTJ,1988-03-20 09:24,ZBTJ 200924Z AUTO 08008KT RMK IEM_DS3505
ZBTJ,1988-03-20 10:00,ZBTJ 201000Z AUTO 08010KT 6SM 06/M01 A3021 RMK T00601010 IEM_DS3505
ZBTJ,1988-03-20 10:29,ZBTJ 201029Z AUTO 08010KT 6SM 06/M01 A3021 RMK T00601010 IEM_DS3505
ZBTJ,1988-03-20 11:00,ZBTJ 201100Z AUTO 09014KT RMK IEM_DS3505
ZBTJ,1988-03-20 11:24,ZBTJ 201124Z AUTO 09014KT RMK IEM_DS3505
ZBTJ,1988-03-20 12:00,ZBTJ 201200Z AUTO 09008KT RMK IEM_DS3505
ZBTJ,1988-03-20 12:24,ZBTJ 201224Z AUTO 09008KT RMK IEM_DS3505
ZBTJ,1988-03-20 13:00,ZBTJ 201300Z AUTO 07010KT RMK IEM_DS3505
ZBTJ,1988-03-20 13:23,ZBTJ 201323Z AUTO 07010KT RMK IEM_DS3505
ZBTJ,1988-03-20 14:00,ZBTJ 201400Z AUTO 07010KT RMK IEM_DS3505
ZBTJ,1988-03-20 14:23,ZBTJ 201423Z AUTO 07010KT RMK IEM_DS3505
ZBTJ,1988-03-20 21:00,ZBTJ 202100Z AUTO 10006KT 4SM 03/01 A3024 RMK T00300010 IEM_DS3505
ZBTJ,1988-03-20 21:23,ZBTJ 202123Z AUTO 10006KT 4SM 03/01 A3024 RMK T00300010 IEM_DS3505
ZBTJ,1988-03-20 22:00,ZBTJ 202200Z AUTO 09010KT 3SM 03/01 A3024 RMK T00300010 IEM_DS3505
ZBTJ,1988-03-20 22:24,ZBTJ 202224Z AUTO 09010KT 3SM 03/01 A3024 RMK T00300010 IEM_DS3505
ZBTJ,1988-03-20 23:00,ZBTJ 202300Z AUTO 09008KT 2SM 02/00 A3024 RMK T00200000 IEM_DS3505
ZBTJ,1988-03-20 23:24,ZBTJ 202324Z AUTO 09008KT 2SM 02/00 A3024 RMK T00200000 IEM_DS3505
ZBTJ,1988-03-21 00:00,ZBTJ 210000Z AUTO 10016KT 7SM 02/01 A3024 RMK T00200010 IEM_DS3505
ZBTJ,1988-03-21 00:27,ZBTJ 210027Z AUTO 10016KT 7SM 02/01 A3024 RMK T00200010 IEM_DS3505
ZBTJ,1988-03-21 01:00,ZBTJ 210100Z AUTO 10014KT 7SM 02/M02 A3027 RMK T00201020 IEM_DS3505
ZBTJ,1988-03-21 01:24,ZBTJ 210124Z AUTO 10014KT 7SM 02/M02 A3027 RMK T00201020 IEM_DS3505
ZBTJ,1988-03-21 02:00,ZBTJ 210200Z AUTO 09014KT RMK IEM_DS3505
ZBTJ,1988-03-21 02:26,ZBTJ 210226Z AUTO 09014KT RMK IEM_DS3505
ZBTJ,1988-03-21 03:00,ZBTJ 210300Z AUTO 10014KT RMK IEM_DS3505
ZBTJ,1988-03-21 03:24,ZBTJ 210324Z AUTO 10014KT RMK IEM_DS3505
ZBTJ,1988-03-21 04:00,ZBTJ 210400Z AUTO 09012KT RMK IEM_DS3505
ZBTJ,1988-03-21 04:24,ZBTJ 210424Z AUTO 09012KT RMK IEM_DS3505
ZBTJ,1988-03-21 05:00,ZBTJ 210500Z AUTO 09010KT RMK IEM_DS3505
ZBTJ,1988-03-21 05:33,ZBTJ 210533Z AUTO 09010KT RMK IEM_DS3505
ZBTJ,1988-03-21 06:00,ZBTJ 210600Z AUTO 11008KT RMK IEM_DS3505
ZBTJ,1988-03-21 06:24,ZBTJ 210624Z AUTO 11008KT RMK IEM_DS3505
ZBTJ,1988-03-21 07:24,ZBTJ 210724Z AUTO 10006KT 7SM 05/M05 A3021 RMK T00501050 IEM_DS3505
ZBTJ,1988-03-21 08:00,ZBTJ 210800Z AUTO 35006KT RMK IEM_DS3505
ZBTJ,1988-03-21 08:24,ZBTJ 210824Z AUTO 35006KT RMK IEM_DS3505
ZBTJ,1988-03-21 09:00,ZBTJ 210900Z AUTO 34006KT RMK IEM_DS3505
ZBTJ,1988-03-21 09:24,ZBTJ 210924Z AUTO 34006KT RMK IEM_DS3505
ZBTJ,1988-03-21 10:00,ZBTJ 211000Z AUTO 34004KT RMK IEM_DS3505
ZBTJ,1988-03-21 10:25,ZBTJ 211025Z AUTO 34004KT RMK IEM_DS3505
ZBTJ,1988-03-21 11:24,ZBTJ 211124Z AUTO 00000KT RMK IEM_DS3505
ZBTJ,1988-03-21 12:00,ZBTJ 211200Z AUTO 33002KT RMK IEM_DS3505
ZBTJ,1988-03-21 12:23,ZBTJ 211223Z AUTO 33002KT RMK IEM_DS3505
ZBTJ,1988-03-21 13:00,ZBTJ 211300Z AUTO 33004KT RMK IEM_DS3505
ZBTJ,1988-03-21 13:23,ZBTJ 211323Z AUTO 33004KT RMK IEM_DS3505
ZBTJ,1988-03-21 13:42,ZBTJ 211342Z AUTO 33004KT RMK IEM_DS3505
ZBTJ,1988-03-21 21:00,ZBTJ 212100Z AUTO 33008KT 5SM M02/M05 A3021 RMK T10201050 IEM_DS3505
ZBTJ,1988-03-21 21:23,ZBTJ 212123Z AUTO 33008KT 5SM M02/M05 A3021 RMK T10201050 IEM_DS3505
ZBTJ,1988-03-21 22:00,ZBTJ 212200Z AUTO 35008KT RMK IEM_DS3505
ZBTJ,1988-03-21 22:24,ZBTJ 212224Z AUTO 35008KT RMK IEM_DS3505
ZBTJ,1988-03-21 23:00,ZBTJ 212300Z AUTO 35004KT RMK IEM_DS3505
ZBTJ,1988-03-21 23:25,ZBTJ 212325Z AUTO 35004KT RMK IEM_DS3505
ZBTJ,1988-03-22 02:00,ZBTJ 220200Z AUTO 11010KT RMK IEM_DS3505
ZBTJ,1988-03-22 02:24,ZBTJ 220224Z AUTO 11010KT RMK IEM_DS3505
ZBTJ,1988-03-22 03:24,ZBTJ 220324Z AUTO 16010KT RMK IEM_DS3505
ZBTJ,1988-03-22 04:00,ZBTJ 220400Z AUTO 12010KT RMK IEM_DS3505
ZBTJ,1988-03-22 04:24,ZBTJ 220424Z AUTO 12010KT RMK IEM_DS3505
ZBTJ,1988-03-22 05:00,ZBTJ 220500Z AUTO 12006KT RMK IEM_DS3505
ZBTJ,1988-03-22 05:31,ZBTJ 220531Z AUTO 12006KT RMK IEM_DS3505
ZBTJ,1988-03-22 06:00,ZBTJ 220600Z AUTO 15008KT 6SM 07/M06 A3018 RMK T00701060 IEM_DS3505
ZBTJ,1988-03-22 06:25,ZBTJ 220625Z AUTO 15008KT 6SM 07/M06 A3018 RMK T00701060 IEM_DS3505
ZBTJ,1988-03-22 07:00,ZBTJ 220700Z AUTO 15008KT 6SM 07/M06 A3018 RMK T00701060 IEM_DS3505
ZBTJ,1988-03-22 07:24,ZBTJ 220724Z AUTO 15008KT 6SM 07/M06 A3018 RMK T00701060 IEM_DS3505
ZBTJ,1988-03-22 08:00,ZBTJ 220800Z AUTO 14014KT RMK IEM_DS3505
ZBTJ,1988-03-22 08:23,ZBTJ 220823Z AUTO 14014KT RMK IEM_DS3505
ZBTJ,1988-03-22 09:00,ZBTJ 220900Z AUTO 13012KT RMK IEM_DS3505
ZBTJ,1988-03-22 09:23,ZBTJ 220923Z AUTO 13012KT RMK IEM_DS3505
ZBTJ,1988-03-22 10:00,ZBTJ 221000Z AUTO 13012KT RMK IEM_DS3505
ZBTJ,1988-03-22 10:23,ZBTJ 221023Z AUTO 13012KT RMK IEM_DS3505
ZBTJ,1988-03-22 11:00,ZBTJ 221100Z AUTO 14008KT RMK IEM_DS3505
ZBTJ,1988-03-22 11:24,ZBTJ 221124Z AUTO 14008KT RMK IEM_DS3505
ZBTJ,1988-03-22 12:00,ZBTJ 221200Z AUTO 14004KT RMK IEM_DS3505
ZBTJ,1988-03-22 12:23,ZBTJ 221223Z AUTO 14004KT RMK IEM_DS3505
ZBTJ,1988-03-22 13:00,ZBTJ 221300Z AUTO 17012KT RMK IEM_DS3505
ZBTJ,1988-03-22 13:25,ZBTJ 221325Z AUTO 17012KT RMK IEM_DS3505
ZBTJ,1988-03-22 20:00,ZBTJ 222000Z AUTO 01004KT 7SM A3024 RMK IEM_DS3505
ZBTJ,1988-03-22 20:22,ZBTJ 222022Z AUTO 01004KT 7SM A3024 RMK IEM_DS3505
ZBTJ,1988-03-22 21:00,ZBTJ 222100Z AUTO 06004KT 7SM M05/M08 A3024 RMK T10501080 IEM_DS3505
ZBTJ,1988-03-22 21:23,ZBTJ 222123Z AUTO 06004KT 7SM M05/M08 A3024 RMK T10501080 IEM_DS3505
ZBTJ,1988-03-22 22:00,ZBTJ 222200Z AUTO 06004KT 4SM M05/M07 A3024 RMK T10501070 IEM_DS3505
ZBTJ,1988-03-22 22:23,ZBTJ 222223Z AUTO 06004KT 4SM M05/M07 A3024 RMK T10501070 IEM_DS3505
ZBTJ,1988-03-22 23:00,ZBTJ 222300Z AUTO 06004KT 4SM M05/M06 A3024 RMK T10501060 IEM_DS3505
ZBTJ,1988-03-22 23:24,ZBTJ 222324Z AUTO 06004KT 4SM M05/M06 A3024 RMK T10501060 IEM_DS3505
ZBTJ,1988-03-23 00:00,ZBTJ 230000Z AUTO 09006KT 7SM 01/M04 A3027 RMK T00101040 IEM_DS3505
ZBTJ,1988-03-23 00:27,ZBTJ 230027Z AUTO 09006KT 7SM 01/M04 A3027 RMK T00101040 IEM_DS3505
ZBTJ,1988-03-23 01:00,ZBTJ 230100Z AUTO 11014KT 7SM 04/M05 A3030 RMK T00401050 IEM_DS3505
ZBTJ,1988-03-23 01:24,ZBTJ 230124Z AUTO 11014KT 7SM 04/M05 A3030 RMK T00401050 IEM_DS3505
ZBTJ,1988-03-23 02:00,ZBTJ 230200Z AUTO 11014KT 7SM 06/M09 A3030 RMK T00601090 IEM_DS3505
ZBTJ,1988-03-23 02:24,ZBTJ 230224Z AUTO 11014KT 7SM 06/M09 A3030 RMK T00601090 IEM_DS3505
ZBTJ,1988-03-23 03:00,ZBTJ 230300Z AUTO 10012KT 7SM 07/M12 A3033 RMK T00701120 IEM_DS3505
ZBTJ,1988-03-23 03:24,ZBTJ 230324Z AUTO 10012KT 7SM 07/M12 A3033 RMK T00701120 IEM_DS3505
ZBTJ,1988-03-23 04:00,ZBTJ 230400Z AUTO 13010KT 7SM 07/M11 A3030 RMK T00701110 IEM_DS3505
ZBTJ,1988-03-23 04:25,ZBTJ 230425Z AUTO 13010KT 7SM 07/M11 A3030 RMK T00701110 IEM_DS3505
ZBTJ,1988-03-23 06:00,ZBTJ 230600Z AUTO 14010KT RMK IEM_DS3505
ZBTJ,1988-03-23 06:24,ZBTJ 230624Z AUTO 14010KT RMK IEM_DS3505
ZBTJ,1988-03-23 07:00,ZBTJ 230700Z AUTO 6SM RMK IEM_DS3505
ZBTJ,1988-03-23 08:00,ZBTJ 230800Z AUTO 14008KT RMK IEM_DS3505
ZBTJ,1988-03-23 08:25,ZBTJ 230825Z AUTO 14008KT RMK IEM_DS3505
ZBTJ,1988-03-23 09:00,ZBTJ 230900Z AUTO 13010KT RMK IEM_DS3505
ZBTJ,1988-03-23 09:24,ZBTJ 230924Z AUTO 13010KT RMK IEM_DS3505
ZBTJ,1988-03-23 10:00,ZBTJ 231000Z AUTO 12010KT RMK IEM_DS3505
ZBTJ,1988-03-23 10:24,ZBTJ 231024Z AUTO 12010KT RMK IEM_DS3505
ZBTJ,1988-03-23 11:00,ZBTJ 231100Z AUTO 11010KT RMK IEM_DS3505
ZBTJ,1988-03-23 11:24,ZBTJ 231124Z AUTO 11010KT RMK IEM_DS3505
ZBTJ,1988-03-23 12:24,ZBTJ 231224Z AUTO 12010KT RMK IEM_DS3505
ZBTJ,1988-03-23 13:00,ZBTJ 231300Z AUTO 13008KT RMK IEM_DS3505
ZBTJ,1988-03-23 13:24,ZBTJ 231324Z AUTO 13008KT RMK IEM_DS3505
ZBTJ,1988-03-23 14:00,ZBTJ 231400Z AUTO 12006KT RMK IEM_DS3505
ZBTJ,1988-03-23 14:24,ZBTJ 231424Z AUTO 12006KT RMK IEM_DS3505
ZBTJ,1988-03-23 15:00,ZBTJ 231500Z AUTO 12006KT RMK IEM_DS3505
ZBTJ,1988-03-23 15:24,ZBTJ 231524Z AUTO 12006KT RMK IEM_DS3505
ZBTJ,1988-03-23 21:00,ZBTJ 232100Z AUTO 07006KT 4SM 01/01 A3015 RMK T00100010 IEM_DS3505
ZBTJ,1988-03-23 21:24,ZBTJ 232124Z AUTO 07006KT 4SM 01/01 A3015 RMK T00100010 IEM_DS3505
ZBTJ,1988-03-23 22:00,ZBTJ 232200Z AUTO 09002KT 2SM 01/01 A3015 RMK T00100010 IEM_DS3505
ZBTJ,1988-03-23 22:24,ZBTJ 232224Z AUTO 09002KT 2SM 01/01 A3015 RMK T00100010 IEM_DS3505
ZBTJ,1988-03-23 23:00,ZBTJ 232300Z AUTO 00000KT 1SM 02/01 A3015 RMK T00200010 IEM_DS3505
ZBTJ,1988-03-23 23:25,ZBTJ 232325Z AUTO 00000KT 1SM 02/01 A3015 RMK T00200010 IEM_DS3505
ZBTJ,1988-03-24 00:00,ZBTJ 240000Z AUTO 00000KT 1SM 02/01 A3015 RMK T00200010 IEM_DS3505
ZBTJ,1988-03-24 00:39,ZBTJ 240039Z AUTO 00000KT 1SM 02/01 A3015 RMK T00200010 IEM_DS3505
ZBTJ,1988-03-24 01:00,ZBTJ 240100Z AUTO 18004KT 1 1/4SM 02/02 A3015 RMK T00200020 IEM_DS3505
ZBTJ,1988-03-24 01:25,ZBTJ 240125Z AUTO 18004KT 1 1/4SM 02/02 A3015 RMK T00200020 IEM_DS3505
ZBTJ,1988-03-24 03:00,ZBTJ 240300Z AUTO 20006KT 2SM 04/04 A3015 RMK T00400040 IEM_DS3505
ZBTJ,1988-03-24 03:25,ZBTJ 240325Z AUTO 20006KT 2SM 04/04 A3015 RMK T00400040 IEM_DS3505
ZBTJ,1988-03-24 04:00,ZBTJ 240400Z AUTO 33006KT 1SM 03/02 A3015 RMK T00300020 IEM_DS3505
ZBTJ,1988-03-24 04:32,ZBTJ 240432Z AUTO 33006KT 1SM 03/02 A3015 RMK T00300020 IEM_DS3505
ZBTJ,1988-03-24 05:00,ZBTJ 240500Z AUTO 32006KT 1 1/4SM 02/02 A3015 RMK T00200020 IEM_DS3505
ZBTJ,1988-03-24 05:25,ZBTJ 240525Z AUTO 32006KT 1 1/4SM 02/02 A3015 RMK T00200020 IEM_DS3505
ZBTJ,1988-03-24 06:00,ZBTJ 240600Z AUTO 00000KT 2 1/2SM 04/03 A3012 RMK T00400030 IEM_DS3505
ZBTJ,1988-03-24 06:26,ZBTJ 240626Z AUTO 00000KT 2 1/2SM 04/03 A3012 RMK T00400030 IEM_DS3505
ZBTJ,1988-03-24 07:00,ZBTJ 240700Z AUTO 00000KT 2 1/2SM 05/03 A3009 RMK T00500030 IEM_DS3505
ZBTJ,1988-03-24 07:26,ZBTJ 240726Z AUTO 00000KT 2 1/2SM 05/03 A3009 RMK T00500030 IEM_DS3505
ZBTJ,1988-03-24 08:26,ZBTJ 240826Z AUTO 00000KT 2 1/2SM 06/03 A3009 RMK T00600030 IEM_DS3505
ZBTJ,1988-03-24 09:00,ZBTJ 240900Z AUTO 32004KT 1 1/4SM 06/04 A3012 RMK T00600040 IEM_DS3505
ZBTJ,1988-03-24 09:27,ZBTJ 240927Z AUTO 32004KT 1 1/4SM 06/04 A3012 RMK T00600040 IEM_DS3505
ZBTJ,1988-03-24 10:00,ZBTJ 241000Z AUTO 36002KT 1SM 05/03 A3012 RMK T00500030 IEM_DS3505
ZBTJ,1988-03-24 11:00,ZBTJ 241100Z AUTO 36004KT 1SM 05/03 A3015 RMK T00500030 IEM_DS3505
ZBTJ,1988-03-24 11:23,ZBTJ 241123Z AUTO 36002KT 1SM 05/03 A3012 RMK T00500030 IEM_DS3505
ZBTJ,1988-03-24 12:00,ZBTJ 241200Z AUTO 36004KT 1SM 05/03 A3015 RMK T00500030 IEM_DS3505
ZBTJ,1988-03-24 12:32,ZBTJ 241232Z AUTO 02004KT 1 1/2SM 04/01 A3015 RMK T00400010 IEM_DS3505
ZBTJ,1988-03-24 13:00,ZBTJ 241300Z AUTO 36008KT 2SM 02/01 A3021 RMK T00200010 IEM_DS3505
ZBTJ,1988-03-24 13:26,ZBTJ 241326Z AUTO 36008KT 2SM 03/02 A3018 RMK T00300020 IEM_DS3505
ZBTJ,1988-03-24 14:00,ZBTJ 241400Z AUTO 01006KT 1 1/2SM 03/02 A3021 RMK T00300020 IEM_DS3505
ZBTJ,1988-03-24 14:24,ZBTJ 241424Z AUTO 01006KT 1 1/2SM 03/02 A3021 RMK T00300020 IEM_DS3505
ZBTJ,1988-03-24 22:00,ZBTJ 242200Z AUTO 05004KT 3/8SM RMK IEM_DS3505
ZBTJ,1988-03-24 22:25,ZBTJ 242225Z AUTO 05004KT 3/8SM M01/M02 A3024 RMK T10101020 IEM_DS3505
ZBTJ,1988-03-24 23:00,ZBTJ 242300Z AUTO 00000KT 0SM M01/M02 A3027 RMK T10101020 IEM_DS3505
ZBTJ,1988-03-24 23:25,ZBTJ 242325Z AUTO 00000KT 0SM M01/M02 A3027 RMK T10101020 IEM_DS3505
ZBTJ,1988-03-25 00:00,ZBTJ 250000Z AUTO 04004KT 1/8SM M02/M02 A3027 RMK T10201020 IEM_DS3505
ZBTJ,1988-03-25 00:25,ZBTJ 250025Z AUTO 04004KT 1/8SM M02/M02 A3027 RMK T10201020 IEM_DS3505
ZBTJ,1988-03-25 01:00,ZBTJ 250100Z AUTO 07004KT 1/8SM 00/00 A3027 RMK T00000000 IEM_DS3505
ZBTJ,1988-03-25 01:25,ZBTJ 250125Z AUTO 07004KT 1/8SM 00/00 A3027 RMK T00000000 IEM_DS3505
ZBTJ,1988-03-25 02:00,ZBTJ 250200Z AUTO 11004KT 1 1/2SM 04/02 A3027 RMK T00400020 IEM_DS3505
ZBTJ,1988-03-25 02:25,ZBTJ 250225Z AUTO 11004KT 1 1/2SM 04/02 A3027 RMK T00400020 IEM_DS3505
ZBTJ,1988-03-25 03:00,ZBTJ 250300Z AUTO 11014KT 7SM 08/00 A3027 RMK T00800000 IEM_DS3505
ZBTJ,1988-03-25 03:28,ZBTJ 250328Z AUTO 11014KT 7SM 08/00 A3027 RMK T00800000 IEM_DS3505
ZBTJ,1988-03-25 03:36,ZBTJ 250336Z AUTO 11014KT 7SM 08/00 A3027 RMK T00800000 IEM_DS3505
ZBTJ,1988-03-25 03:37,ZBTJ 250337Z AUTO 11014KT 7SM 08/00 A3027 RMK T00800000 IEM_DS3505
ZBTJ,1988-03-25 04:00,ZBTJ 250400Z AUTO 12014KT RMK IEM_DS3505
ZBTJ,1988-03-25 04:27,ZBTJ 250427Z AUTO 12014KT RMK IEM_DS3505
ZBTJ,1988-03-25 05:00,ZBTJ 250500Z AUTO 09010KT RMK IEM_DS3505
ZBTJ,1988-03-25 05:26,ZBTJ 250526Z AUTO 09010KT RMK IEM_DS3505
ZBTJ,1988-03-25 06:00,ZBTJ 250600Z AUTO 6SM A3021 RMK IEM_DS3505
ZBTJ,1988-03-25 06:27,ZBTJ 250627Z AUTO 6SM A3021 RMK IEM_DS3505
ZBTJ,1988-03-25 07:00,ZBTJ 250700Z AUTO 11010KT RMK IEM_DS3505
ZBTJ,1988-03-25 07:25,ZBTJ 250725Z AUTO 11010KT RMK IEM_DS3505
ZBTJ,1988-03-25 08:00,ZBTJ 250800Z AUTO 14012KT RMK IEM_DS3505
ZBTJ,1988-03-25 08:25,ZBTJ 250825Z AUTO 14012KT RMK IEM_DS3505
ZBTJ,1988-03-25 09:00,ZBTJ 250900Z AUTO 15014KT RMK IEM_DS3505
ZBTJ,1988-03-25 09:25,ZBTJ 250925Z AUTO 15014KT RMK IEM_DS3505
ZBTJ,1988-03-25 10:00,ZBTJ 251000Z AUTO 15006KT 7SM 05/M03 A3018 RMK T00501030 IEM_DS3505
ZBTJ,1988-03-25 11:00,ZBTJ 251100Z AUTO 15006KT RMK IEM_DS3505
ZBTJ,1988-03-25 12:00,ZBTJ 251200Z AUTO 14004KT 7SM 02/M01 A3018 RMK T00201010 IEM_DS3505
ZBTJ,1988-03-25 12:29,ZBTJ 251229Z AUTO 15006KT 7SM 05/M03 A3018 RMK T00501030 IEM_DS3505
ZBTJ,1988-03-25 12:43,ZBTJ 251243Z AUTO 14004KT 7SM 02/M01 A3018 RMK T00201010 IEM_DS3505
ZBTJ,1988-03-25 13:00,ZBTJ 251300Z AUTO 13006KT 7SM 02/M01 A3018 RMK T00201010 IEM_DS3505
ZBTJ,1988-03-25 13:46,ZBTJ 251346Z AUTO 13006KT 7SM 02/M01 A3018 RMK T00201010 IEM_DS3505
ZBTJ,1988-03-25 13:47,ZBTJ 251347Z AUTO 15006KT RMK IEM_DS3505
ZBTJ,1988-03-25 14:00,ZBTJ 251400Z AUTO 15004KT RMK IEM_DS3505
ZBTJ,1988-03-25 14:24,ZBTJ 251424Z AUTO 15004KT RMK IEM_DS3505
ZBTJ,1988-03-25 23:00,ZBTJ 252300Z AUTO 21008KT 7SM 00/M03 A3012 RMK T00001030 IEM_DS3505
ZBTJ,1988-03-25 23:25,ZBTJ 252325Z AUTO 21008KT 7SM 00/M03 A3012 RMK T00001030 IEM_DS3505
ZBTJ,1988-03-26 03:00,ZBTJ 260300Z AUTO 21008KT 7SM 10/M03 A3012 RMK T01001030 IEM_DS3505
ZBTJ,1988-03-26 03:25,ZBTJ 260325Z AUTO 21008KT 7SM 10/M03 A3012 RMK T01001030 IEM_DS3505
ZBTJ,1988-03-26 04:26,ZBTJ 260426Z AUTO 23010KT 7SM 12/M03 A3009 RMK T01201030 IEM_DS3505
ZBTJ,1988-03-26 06:00,ZBTJ 260600Z AUTO 21014KT 7SM 14/M01 A3003 RMK T01401010 IEM_DS3505
ZBTJ,1988-03-26 06:25,ZBTJ 260625Z AUTO 21014KT 7SM 14/M01 A3003 RMK T01401010 IEM_DS3505
ZBTJ,1988-03-26 07:00,ZBTJ 260700Z AUTO 22012KT 7SM 15/00 A3000 RMK T01500000 IEM_DS3505
ZBTJ,1988-03-26 07:25,ZBTJ 260725Z AUTO 22012KT 7SM 15/00 A3000 RMK T01500000 IEM_DS3505
ZBTJ,1988-03-26 09:24,ZBTJ 260924Z AUTO 21006KT 7SM 15/01 A2997 RMK T01500010 IEM_DS3505
ZBTJ,1988-03-26 10:00,ZBTJ 261000Z AUTO 21006KT 7SM 14/02 A2994 RMK T01400020 IEM_DS3505
ZBTJ,1988-03-26 10:25,ZBTJ 261025Z AUTO 21006KT 7SM 14/02 A2994 RMK T01400020 IEM_DS3505
ZBTJ,1988-03-26 11:00,ZBTJ 261100Z AUTO 21002KT 5SM 12/03 A2997 RMK T01200030 IEM_DS3505
ZBTJ,1988-03-26 11:35,ZBTJ 261135Z AUTO 21002KT 5SM 12/03 A2997 RMK T01200030 IEM_DS3505
ZBTJ,1988-03-26 12:00,ZBTJ 261200Z AUTO 18002KT 5SM 09/03 A3000 RMK T00900030 IEM_DS3505
ZBTJ,1988-03-26 12:25,ZBTJ 261225Z AUTO 18002KT 5SM 09/03 A3000 RMK T00900030 IEM_DS3505
ZBTJ,1988-03-26 21:00,ZBTJ 262100Z AUTO 22004KT 4SM 05/01 A3006 RMK T00500010 IEM_DS3505
ZBTJ,1988-03-26 21:24,ZBTJ 262124Z AUTO 22004KT 4SM 05/01 A3006 RMK T00500010 IEM_DS3505
ZBTJ,1988-03-26 22:00,ZBTJ 262200Z AUTO 20004KT 2SM 03/00 A3006 RMK T00300000 IEM_DS3505
ZBTJ,1988-03-26 22:26,ZBTJ 262226Z AUTO 20004KT 2SM 03/00 A3006 RMK T00300000 IEM_DS3505
ZBTJ,1988-03-26 23:00,ZBTJ 262300Z AUTO 30002KT 1 1/2SM 04/ A3006 RMK IEM_DS3505
ZBTJ,1988-03-26 23:25,ZBTJ 262325Z AUTO 30002KT 1 1/2SM 04/ A3006 RMK IEM_DS3505
ZBTJ,1988-03-27 00:00,ZBTJ 270000Z AUTO 24006KT 1 1/4SM 08/02 A3012 RMK T00800020 IEM_DS3505
ZBTJ,1988-03-27 00:25,ZBTJ 270025Z AUTO 24006KT 1 1/4SM 08/02 A3012 RMK T00800020 IEM_DS3505
ZBTJ,1988-03-27 01:00,ZBTJ 270100Z AUTO 21006KT 08/03 A3009 RMK T00800030 IEM_DS3505
ZBTJ,1988-03-27 01:25,ZBTJ 270125Z AUTO 21006KT 08/03 A3009 RMK T00800030 IEM_DS3505
ZBTJ,1988-03-27 02:00,ZBTJ 270200Z AUTO 24002KT 1 1/2SM 10/03 A3012 RMK T01000030 IEM_DS3505
ZBTJ,1988-03-27 02:25,ZBTJ 270225Z AUTO 24002KT 1 1/2SM 10/03 A3012 RMK T01000030 IEM_DS3505
ZBTJ,1988-03-27 03:00,ZBTJ 270300Z AUTO 10010KT 2SM 13/04 RMK T01300040 IEM_DS3505
ZBTJ,1988-03-27 03:25,ZBTJ 270325Z AUTO 10010KT 2SM 13/04 RMK T01300040 IEM_DS3505
ZBTJ,1988-03-27 04:57,ZBTJ 270457Z AUTO 10019KT RMK IEM_DS3505
ZBTJ,1988-03-27 05:00,ZBTJ 270500Z AUTO 09025KT RMK IEM_DS3505
ZBTJ,1988-03-27 05:27,ZBTJ 270527Z AUTO 09025KT RMK IEM_DS3505
ZBTJ,1988-03-27 06:00,ZBTJ 270600Z AUTO 10023KT RMK IEM_DS3505
ZBTJ,1988-03-27 06:25,ZBTJ 270625Z AUTO 10023KT RMK IEM_DS3505
ZBTJ,1988-03-27 07:00,ZBTJ 270700Z AUTO 09017KT RMK IEM_DS3505
ZBTJ,1988-03-27 07:25,ZBTJ 270725Z AUTO 09017KT RMK IEM_DS3505
ZBTJ,1988-03-27 09:00,ZBTJ 270900Z AUTO 11017KT RMK IEM_DS3505
ZBTJ,1988-03-27 09:25,ZBTJ 270925Z AUTO 11017KT RMK IEM_DS3505
ZBTJ,1988-03-27 10:00,ZBTJ 271000Z AUTO 10016KT RMK IEM_DS3505
ZBTJ,1988-03-27 10:25,ZBTJ 271025Z AUTO 10016KT RMK IEM_DS3505
ZBTJ,1988-03-27 12:00,ZBTJ 271200Z AUTO 10010KT RMK IEM_DS3505
ZBTJ,1988-03-27 12:25,ZBTJ 271225Z AUTO 10010KT RMK IEM_DS3505
ZBTJ,1988-03-27 13:00,ZBTJ 271300Z AUTO 09006KT 7SM 03/01 A3018 RMK T00300010 IEM_DS3505
ZBTJ,1988-03-27 13:24,ZBTJ 271324Z AUTO 09006KT 7SM 03/01 A3018 RMK T00300010 IEM_DS3505
ZBTJ,1988-03-27 14:00,ZBTJ 271400Z AUTO 07006KT 7SM 02/01 A3018 RMK T00200010 IEM_DS3505
ZBTJ,1988-03-27 14:24,ZBTJ 271424Z AUTO 07006KT 7SM 02/01 A3018 RMK T00200010 IEM_DS3505
ZBTJ,1988-03-27 22:00,ZBTJ 272200Z AUTO 05010KT 7SM 02/M03 A3018 RMK T00201030 IEM_DS3505
ZBTJ,1988-03-27 22:26,ZBTJ 272226Z AUTO 05010KT 7SM 02/M03 A3018 RMK T00201030 IEM_DS3505
ZBTJ,1988-03-27 23:00,ZBTJ 272300Z AUTO 05008KT RMK IEM_DS3505
ZBTJ,1988-03-27 23:25,ZBTJ 272325Z AUTO 05008KT RMK IEM_DS3505
ZBTJ,1988-03-28 00:00,ZBTJ 280000Z AUTO 05008KT RMK IEM_DS3505
ZBTJ,1988-03-28 00:28,ZBTJ 280028Z AUTO 05008KT RMK IEM_DS3505
ZBTJ,1988-03-28 01:00,ZBTJ 280100Z AUTO 06010KT RMK IEM_DS3505
ZBTJ,1988-03-28 01:25,ZBTJ 280125Z AUTO 06010KT RMK IEM_DS3505
ZBTJ,1988-03-28 04:00,ZBTJ 280400Z AUTO 09010KT 7SM 05/03 A3024 RMK T00500030 IEM_DS3505
ZBTJ,1988-03-28 04:30,ZBTJ 280430Z AUTO 09010KT 7SM 05/03 A3024 RMK T00500030 IEM_DS3505
ZBTJ,1988-03-28 05:29,ZBTJ 280529Z AUTO 09008KT 7SM 05/03 A3021 RMK T00500030 IEM_DS3505
ZBTJ,1988-03-28 06:00,ZBTJ 280600Z AUTO 08008KT 7SM RMK IEM_DS3505
ZBTJ,1988-03-28 06:26,ZBTJ 280626Z AUTO 08008KT 7SM 06/04 A3018 RMK T00600040 IEM_DS3505
ZBTJ,1988-03-28 07:00,ZBTJ 280700Z AUTO 07012KT 7SM 07/03 A3015 RMK T00700030 IEM_DS3505
ZBTJ,1988-03-28 07:25,ZBTJ 280725Z AUTO 07012KT 7SM 07/03 A3015 RMK T00700030 IEM_DS3505
ZBTJ,1988-03-28 08:00,ZBTJ 280800Z AUTO 08010KT RMK IEM_DS3505
ZBTJ,1988-03-28 08:25,ZBTJ 280825Z AUTO 08010KT RMK IEM_DS3505
ZBTJ,1988-03-28 09:00,ZBTJ 280900Z AUTO 09012KT RMK IEM_DS3505
ZBTJ,1988-03-28 09:24,ZBTJ 280924Z AUTO 09012KT RMK IEM_DS3505
ZBTJ,1988-03-28 09:40,ZBTJ 280940Z AUTO 09012KT RMK IEM_DS3505
ZBTJ,1988-03-28 10:00,ZBTJ 281000Z AUTO 06008KT RMK IEM_DS3505
ZBTJ,1988-03-28 10:25,ZBTJ 281025Z AUTO 06008KT RMK IEM_DS3505
ZBTJ,1988-03-28 11:00,ZBTJ 281100Z AUTO 06008KT RMK IEM_DS3505
ZBTJ,1988-03-28 11:25,ZBTJ 281125Z AUTO 06008KT RMK IEM_DS3505
ZBTJ,1988-03-28 12:25,ZBTJ 281225Z AUTO 06008KT RMK IEM_DS3505
ZBTJ,1988-03-28 13:00,ZBTJ 281300Z AUTO 03006KT RMK IEM_DS3505
ZBTJ,1988-03-28 13:25,ZBTJ 281325Z AUTO 03006KT RMK IEM_DS3505
ZBTJ,1988-03-28 20:25,ZBTJ 282025Z AUTO 35006KT RMK IEM_DS3505
ZBTJ,1988-03-28 21:00,ZBTJ 282100Z AUTO 36004KT RMK IEM_DS3505
ZBTJ,1988-03-28 21:25,ZBTJ 282125Z AUTO 36004KT RMK IEM_DS3505
ZBTJ,1988-03-28 22:00,ZBTJ 282200Z AUTO 33006KT RMK IEM_DS3505
ZBTJ,1988-03-28 22:25,ZBTJ 282225Z AUTO 33006KT RMK IEM_DS3505
ZBTJ,1988-03-28 23:00,ZBTJ 282300Z AUTO 33004KT RMK IEM_DS3505
ZBTJ,1988-03-28 23:25,ZBTJ 282325Z AUTO 33004KT RMK IEM_DS3505
ZBTJ,1988-03-29 00:00,ZBTJ 290000Z AUTO 33002KT 5SM 04/02 A3018 RMK T00400020 IEM_DS3505
ZBTJ,1988-03-29 00:25,ZBTJ 290025Z AUTO 33002KT 5SM 04/02 A3018 RMK T00400020 IEM_DS3505
ZBTJ,1988-03-29 01:00,ZBTJ 290100Z AUTO 01006KT RMK IEM_DS3505
ZBTJ,1988-03-29 01:25,ZBTJ 290125Z AUTO 01006KT RMK IEM_DS3505
ZBTJ,1988-03-29 02:00,ZBTJ 290200Z AUTO 06008KT 7SM 06/01 A3018 RMK T00600010 IEM_DS3505
ZBTJ,1988-03-29 02:25,ZBTJ 290225Z AUTO 06008KT 7SM 06/01 A3018 RMK T00600010 IEM_DS3505
ZBTJ,1988-03-29 03:00,ZBTJ 290300Z AUTO 08010KT 7SM 06/00 A3018 RMK T00600000 IEM_DS3505
ZBTJ,1988-03-29 03:25,ZBTJ 290325Z AUTO 08010KT 7SM 06/00 A3018 RMK T00600000 IEM_DS3505
ZBTJ,1988-03-29 04:00,ZBTJ 290400Z AUTO 08010KT 7SM A3015 RMK IEM_DS3505
ZBTJ,1988-03-29 04:25,ZBTJ 290425Z AUTO 08010KT 7SM 06/M03 A3015 RMK T00601030 IEM_DS3505
ZBTJ,1988-03-29 05:00,ZBTJ 290500Z AUTO 08014KT 7SM 07/M04 A3012 RMK T00701040 IEM_DS3505
ZBTJ,1988-03-29 05:26,ZBTJ 290526Z AUTO 08014KT 7SM 07/M04 A3012 RMK T00701040 IEM_DS3505
ZBTJ,1988-03-29 06:00,ZBTJ 290600Z AUTO 09012KT 7SM 08/M04 A3009 RMK T00801040 IEM_DS3505
ZBTJ,1988-03-29 07:00,ZBTJ 290700Z AUTO 09008KT 7SM 07/M02 A3009 RMK T00701020 IEM_DS3505
ZBTJ,1988-03-29 07:25,ZBTJ 290725Z AUTO 09008KT 7SM 07/M02 A3009 RMK T00701020 IEM_DS3505
ZBTJ,1988-03-29 08:00,ZBTJ 290800Z AUTO 07006KT 7SM 07/M01 A3009 RMK T00701010 IEM_DS3505
ZBTJ,1988-03-29 08:25,ZBTJ 290825Z AUTO 07006KT 7SM 07/M01 A3009 RMK T00701010 IEM_DS3505
ZBTJ,1988-03-29 09:00,ZBTJ 290900Z AUTO 35004KT 7SM 07/M02 A3009 RMK T00701020 IEM_DS3505
ZBTJ,1988-03-29 09:25,ZBTJ 290925Z AUTO 35004KT 7SM 07/M02 A3009 RMK T00701020 IEM_DS3505
ZBTJ,1988-03-29 10:00,ZBTJ 291000Z AUTO 35006KT 7SM 06/M03 A3009 RMK T00601030 IEM_DS3505
ZBTJ,1988-03-29 10:25,ZBTJ 291025Z AUTO 35006KT 7SM 06/M03 A3009 RMK T00601030 IEM_DS3505
ZBTJ,1988-03-29 11:00,ZBTJ 291100Z AUTO 35006KT RMK IEM_DS3505
ZBTJ,1988-03-29 11:25,ZBTJ 291125Z AUTO 35006KT RMK IEM_DS3505
ZBTJ,1988-03-29 12:00,ZBTJ 291200Z AUTO 33002KT RMK IEM_DS3505
ZBTJ,1988-03-29 12:25,ZBTJ 291225Z AUTO 33002KT RMK IEM_DS3505
ZBTJ,1988-03-29 13:00,ZBTJ 291300Z AUTO 31004KT RMK IEM_DS3505
ZBTJ,1988-03-29 13:25,ZBTJ 291325Z AUTO 31004KT RMK IEM_DS3505
ZBTJ,1988-03-29 21:00,ZBTJ 292100Z AUTO 4SM 04/M01 A3009 RMK T00401010 IEM_DS3505
ZBTJ,1988-03-29 21:25,ZBTJ 292125Z AUTO 4SM 04/M01 A3009 RMK T00401010 IEM_DS3505
ZBTJ,1988-03-29 22:00,ZBTJ 292200Z AUTO 3SM 04/01 A3009 RMK T00400010 IEM_DS3505
ZBTJ,1988-03-29 22:25,ZBTJ 292225Z AUTO 3SM 04/01 A3009 RMK T00400010 IEM_DS3505
ZBTJ,1988-03-30 00:00,ZBTJ 300000Z AUTO 00000KT 2SM 05/02 A3012 RMK T00500020 IEM_DS3505
ZBTJ,1988-03-30 00:25,ZBTJ 300025Z AUTO 00000KT 2SM 05/02 A3012 RMK T00500020 IEM_DS3505
ZBTJ,1988-03-30 01:00,ZBTJ 300100Z AUTO 00000KT 1SM 07/02 A3012 RMK T00700020 IEM_DS3505
ZBTJ,1988-03-30 01:25,ZBTJ 300125Z AUTO 00000KT 1SM 07/02 A3012 RMK T00700020 IEM_DS3505
ZBTJ,1988-03-30 02:25,ZBTJ 300225Z AUTO 11002KT 1 1/2SM 09/03 A3012 RMK T00900030 IEM_DS3505
ZBTJ,1988-03-30 03:00,ZBTJ 300300Z AUTO 18008KT 3SM 11/02 A3012 RMK T01100020 IEM_DS3505
ZBTJ,1988-03-30 03:25,ZBTJ 300325Z AUTO 18008KT 3SM 11/02 A3012 RMK T01100020 IEM_DS3505
ZBTJ,1988-03-30 04:00,ZBTJ 300400Z AUTO 24008KT 5SM 12/M02 RMK T01201020 IEM_DS3505
ZBTJ,1988-03-30 04:32,ZBTJ 300432Z AUTO 24008KT 5SM 12/M02 RMK T01201020 IEM_DS3505
ZBTJ,1988-03-30 05:00,ZBTJ 300500Z AUTO 20006KT RMK IEM_DS3505
ZBTJ,1988-03-30 05:25,ZBTJ 300525Z AUTO 20006KT RMK IEM_DS3505
ZBTJ,1988-03-30 06:00,ZBTJ 300600Z AUTO 21008KT 7SM 14/03 A3006 RMK T01400030 IEM_DS3505
ZBTJ,1988-03-30 06:25,ZBTJ 300625Z AUTO 21008KT 7SM 14/03 A3006 RMK T01400030 IEM_DS3505
ZBTJ,1988-03-30 07:00,ZBTJ 300700Z AUTO 20008KT 5SM 15/03 A3003 RMK T01500030 IEM_DS3505
ZBTJ,1988-03-30 07:25,ZBTJ 300725Z AUTO 20008KT 5SM 15/03 A3003 RMK T01500030 IEM_DS3505
ZBTJ,1988-03-30 08:00,ZBTJ 300800Z AUTO 21006KT 5SM 15/03 A3000 RMK T01500030 IEM_DS3505
ZBTJ,1988-03-30 08:25,ZBTJ 300825Z AUTO 21006KT 5SM 15/03 A3000 RMK T01500030 IEM_DS3505
ZBTJ,1988-03-30 09:00,ZBTJ 300900Z AUTO 16006KT 5SM 15/04 A3000 RMK T01500040 IEM_DS3505
ZBTJ,1988-03-30 09:26,ZBTJ 300926Z AUTO 16006KT 5SM 15/04 A3000 RMK T01500040 IEM_DS3505
ZBTJ,1988-03-30 10:00,ZBTJ 301000Z AUTO 15008KT 4SM 11/04 A3000 RMK T01100040 IEM_DS3505
ZBTJ,1988-03-30 10:25,ZBTJ 301025Z AUTO 15008KT 4SM 11/04 A3000 RMK T01100040 IEM_DS3505
ZBTJ,1988-03-30 11:00,ZBTJ 301100Z AUTO 14006KT 3SM 09/04 A3003 RMK T00900040 IEM_DS3505
ZBTJ,1988-03-30 11:25,ZBTJ 301125Z AUTO 14006KT 3SM 09/04 A3003 RMK T00900040 IEM_DS3505
ZBTJ,1988-03-30 12:00,ZBTJ 301200Z AUTO 13008KT 3SM 07/03 A3003 RMK T00700030 IEM_DS3505
ZBTJ,1988-03-30 12:25,ZBTJ 301225Z AUTO 13008KT 3SM 07/03 A3003 RMK T00700030 IEM_DS3505
ZBTJ,1988-03-30 13:00,ZBTJ 301300Z AUTO 12006KT 4SM 06/02 A3006 RMK T00600020 IEM_DS3505
ZBTJ,1988-03-30 13:25,ZBTJ 301325Z AUTO 12006KT 4SM 06/02 A3006 RMK T00600020 IEM_DS3505
ZBTJ,1988-03-30 14:00,ZBTJ 301400Z AUTO 13002KT 3SM 05/03 A3006 RMK T00500030 IEM_DS3505
ZBTJ,1988-03-30 14:24,ZBTJ 301424Z AUTO 13002KT 3SM 05/03 A3006 RMK T00500030 IEM_DS3505
ZBTJ,1988-03-30 21:00,ZBTJ 302100Z AUTO 21006KT RMK IEM_DS3505
ZBTJ,1988-03-30 21:24,ZBTJ 302124Z AUTO 21006KT RMK IEM_DS3505
ZBTJ,1988-03-30 22:00,ZBTJ 302200Z AUTO 21006KT RMK IEM_DS3505
ZBTJ,1988-03-30 22:25,ZBTJ 302225Z AUTO 21006KT RMK IEM_DS3505
ZBTJ,1988-03-30 23:00,ZBTJ 302300Z AUTO 21006KT 4SM 08/02 A3006 RMK T00800020 IEM_DS3505
ZBTJ,1988-03-30 23:25,ZBTJ 302325Z AUTO 21006KT 4SM 08/02 A3006 RMK T00800020 IEM_DS3505
ZBTJ,1988-03-31 01:00,ZBTJ 310100Z AUTO 25006KT 3SM 11/02 A3009 RMK T01100020 IEM_DS3505
ZBTJ,1988-03-31 01:25,ZBTJ 310125Z AUTO 25006KT 3SM 11/02 A3009 RMK T01100020 IEM_DS3505
ZBTJ,1988-03-31 02:25,ZBTJ 310225Z AUTO 24004KT 4SM 12/03 A3009 RMK T01200030 IEM_DS3505
ZBTJ,1988-03-31 04:00,ZBTJ 310400Z AUTO 33006KT 3SM 14/04 A3009 RMK T01400040 IEM_DS3505
ZBTJ,1988-03-31 04:26,ZBTJ 310426Z AUTO 33006KT 3SM 14/04 A3009 RMK T01400040 IEM_DS3505
ZBTJ,1988-03-31 05:00,ZBTJ 310500Z AUTO 35008KT 3SM 14/05 A3009 RMK T01400050 IEM_DS3505
ZBTJ,1988-03-31 05:25,ZBTJ 310525Z AUTO 35008KT 3SM 14/05 A3009 RMK T01400050 IEM_DS3505
ZBTJ,1988-03-31 06:00,ZBTJ 310600Z AUTO 03008KT 3SM 14/06 A3006 RMK T01400060 IEM_DS3505
ZBTJ,1988-03-31 06:23,ZBTJ 310623Z AUTO 03008KT 3SM 14/06 A3006 RMK T01400060 IEM_DS3505
ZBTJ,1988-03-31 07:00,ZBTJ 310700Z AUTO 02008KT 3SM 15/06 A3006 RMK T01500060 IEM_DS3505
ZBTJ,1988-03-31 07:23,ZBTJ 310723Z AUTO 02008KT 3SM 15/06 A3006 RMK T01500060 IEM_DS3505
ZBTJ,1988-03-31 07:38,ZBTJ 310738Z AUTO 02008KT 3SM 15/06 A3006 RMK T01500060 IEM_DS3505
ZBTJ,1988-03-31 08:00,ZBTJ 310800Z AUTO 06008KT 3SM 15/06 A3006 RMK T01500060 IEM_DS3505
ZBTJ,1988-03-31 08:25,ZBTJ 310825Z AUTO 06008KT 3SM 15/06 A3006 RMK T01500060 IEM_DS3505
ZBTJ,1988-03-31 09:00,ZBTJ 310900Z AUTO 06008KT 3SM 15/06 A3006 RMK T01500060 IEM_DS3505
ZBTJ,1988-03-31 09:26,ZBTJ 310926Z AUTO 06008KT 3SM 15/06 A3006 RMK T01500060 IEM_DS3505
ZBTJ,1988-03-31 10:00,ZBTJ 311000Z AUTO 08008KT 2 1/2SM 13/06 A3006 RMK T01300060 IEM_DS3505
ZBTJ,1988-03-31 11:00,ZBTJ 311100Z AUTO 08010KT 2SM 11/06 A3009 RMK T01100060 IEM_DS3505
ZBTJ,1988-03-31 11:25,ZBTJ 311125Z AUTO 08010KT 2SM 11/06 A3009 RMK T01100060 IEM_DS3505
ZBTJ,1988-03-31 12:51,ZBTJ 311251Z AUTO 09014KT 3SM 08/04 A3012 RMK T00800040 IEM_DS3505
ZBTJ,1988-03-31 13:00,ZBTJ 311300Z AUTO 09010KT 2 1/2SM 07/04 A3015 RMK T00700040 IEM_DS3505
ZBTJ,1988-03-31 13:24,ZBTJ 311324Z AUTO 09010KT 2 1/2SM 07/04 A3015 RMK T00700040 IEM_DS3505
ZBTJ,1988-03-31 21:00,ZBTJ 312100Z AUTO 03008KT 2SM 03/02 A3018 RMK T00300020 IEM_DS3505
ZBTJ,1988-03-31 21:24,ZBTJ 312124Z AUTO 03008KT 2SM 03/02 A3018 RMK T00300020 IEM_DS3505
ZBTJ,1988-03-31 23:00,ZBTJ 312300Z AUTO 04008KT 1 1/2SM 04/03 A3021 RMK T00400030 IEM_DS3505
ZBTJ,1988-03-31 23:29,ZBTJ 312329Z AUTO 04008KT 1 1/2SM 04/03 A3021 RMK T00400030 IEM_DS3505
ZBTJ,1988-05-01 00:32,ZBTJ 010032Z AUTO 32004KT RMK IEM_DS3505
ZBTJ,1988-05-01 01:28,ZBTJ 010128Z AUTO 28006KT RMK IEM_DS3505
ZBTJ,1988-05-01 02:24,ZBTJ 010224Z AUTO 30004KT RMK IEM_DS3505
ZBTJ,1988-05-01 03:27,ZBTJ 010327Z AUTO 22008KT RMK IEM_DS3505
ZBTJ,1988-05-01 04:26,ZBTJ 010426Z AUTO 24012KT 7SM 21/02 A2977 RMK T02100020 IEM_DS3505
ZBTJ,1988-05-01 05:24,ZBTJ 010524Z AUTO 23012KT RMK IEM_DS3505
ZBTJ,1988-05-01 06:24,ZBTJ 010624Z AUTO 24010KT RMK IEM_DS3505
ZBTJ,1988-05-01 07:24,ZBTJ 010724Z AUTO 25010KT RMK IEM_DS3505
ZBTJ,1988-05-01 08:24,ZBTJ 010824Z AUTO 25010KT RMK IEM_DS3505
ZBTJ,1988-05-01 10:25,ZBTJ 011025Z AUTO 21004KT RMK IEM_DS3505
ZBTJ,1988-05-01 11:24,ZBTJ 011124Z AUTO 19004KT RMK IEM_DS3505
ZBTJ,1988-05-01 12:24,ZBTJ 011224Z AUTO 16006KT RMK IEM_DS3505
ZBTJ,1988-05-01 13:25,ZBTJ 011325Z AUTO 15006KT RMK IEM_DS3505
ZBTJ,1988-05-01 15:26,ZBTJ 011526Z AUTO 12006KT RMK IEM_DS3505
ZBTJ,1988-05-01 21:24,ZBTJ 012124Z AUTO 09017KT RMK IEM_DS3505
ZBTJ,1988-05-01 22:24,ZBTJ 012224Z AUTO 10017KT RMK IEM_DS3505
ZBTJ,1988-05-01 23:24,ZBTJ 012324Z AUTO 09021KT RMK IEM_DS3505
ZBTJ,1988-05-02 00:24,ZBTJ 020024Z AUTO 09021KT RMK IEM_DS3505
ZBTJ,1988-05-02 01:24,ZBTJ 020124Z AUTO 11023KT RMK IEM_DS3505
ZBTJ,1988-05-02 02:26,ZBTJ 020226Z AUTO 10023KT RMK IEM_DS3505
ZBTJ,1988-05-02 03:30,ZBTJ 020330Z AUTO 10023KT RMK IEM_DS3505
ZBTJ,1988-05-02 04:27,ZBTJ 020427Z AUTO 09025KT RMK IEM_DS3505
ZBTJ,1988-05-02 05:25,ZBTJ 020525Z AUTO 09025KT RMK IEM_DS3505
ZBTJ,1988-05-02 06:26,ZBTJ 020626Z AUTO 09025KT RMK IEM_DS3505
ZBTJ,1988-05-02 08:25,ZBTJ 020825Z AUTO 08019KT RMK IEM_DS3505
ZBTJ,1988-05-02 09:24,ZBTJ 020924Z AUTO 09017KT RMK IEM_DS3505
ZBTJ,1988-05-02 10:24,ZBTJ 021024Z AUTO 09017KT RMK IEM_DS3505
ZBTJ,1988-05-02 11:25,ZBTJ 021125Z AUTO 07014KT RMK IEM_DS3505
ZBTJ,1988-05-02 12:24,ZBTJ 021224Z AUTO 02016KT RMK IEM_DS3505
ZBTJ,1988-05-02 13:24,ZBTJ 021324Z AUTO 05014KT RMK IEM_DS3505
ZBTJ,1988-05-02 22:24,ZBTJ 022224Z AUTO 34002KT RMK IEM_DS3505
ZBTJ,1988-05-02 23:24,ZBTJ 022324Z AUTO 34004KT RMK IEM_DS3505
ZBTJ,1988-05-03 00:00,ZBTJ 030000Z AUTO 33004KT RMK IEM_DS3505
ZBTJ,1988-05-03 00:25,ZBTJ 030025Z AUTO 33004KT RMK IEM_DS3505
ZBTJ,1988-05-03 01:00,ZBTJ 030100Z AUTO 33010KT RMK IEM_DS3505
ZBTJ,1988-05-03 01:25,ZBTJ 030125Z AUTO 33010KT RMK IEM_DS3505
ZBTJ,1988-05-03 02:00,ZBTJ 030200Z AUTO 29008KT RMK IEM_DS3505
ZBTJ,1988-05-03 02:24,ZBTJ 030224Z AUTO 29008KT RMK IEM_DS3505
ZBTJ,1988-05-03 03:00,ZBTJ 030300Z AUTO 29006KT RMK IEM_DS3505
ZBTJ,1988-05-03 03:26,ZBTJ 030326Z AUTO 29006KT RMK IEM_DS3505
ZBTJ,1988-05-03 04:00,ZBTJ 030400Z AUTO 31010KT RMK IEM_DS3505
ZBTJ,1988-05-03 04:28,ZBTJ 030428Z AUTO 31010KT RMK IEM_DS3505
ZBTJ,1988-05-03 06:00,ZBTJ 030600Z AUTO 31008KT RMK IEM_DS3505
ZBTJ,1988-05-03 06:26,ZBTJ 030626Z AUTO 31008KT RMK IEM_DS3505
ZBTJ,1988-05-03 07:00,ZBTJ 030700Z AUTO 31010KT RMK IEM_DS3505
ZBTJ,1988-05-03 07:28,ZBTJ 030728Z AUTO 31010KT RMK IEM_DS3505
ZBTJ,1988-05-03 08:00,ZBTJ 030800Z AUTO 36006KT RMK IEM_DS3505
ZBTJ,1988-05-03 08:24,ZBTJ 030824Z AUTO 36006KT RMK IEM_DS3505
ZBTJ,1988-05-03 09:00,ZBTJ 030900Z AUTO 10008KT RMK IEM_DS3505
ZBTJ,1988-05-03 09:24,ZBTJ 030924Z AUTO 10008KT RMK IEM_DS3505
ZBTJ,1988-05-03 10:00,ZBTJ 031000Z AUTO 12014KT RMK IEM_DS3505
ZBTJ,1988-05-03 10:24,ZBTJ 031024Z AUTO 12014KT RMK IEM_DS3505
ZBTJ,1988-05-03 11:00,ZBTJ 031100Z AUTO 13019KT RMK IEM_DS3505
ZBTJ,1988-05-03 11:25,ZBTJ 031125Z AUTO 13019KT RMK IEM_DS3505
ZBTJ,1988-05-03 12:00,ZBTJ 031200Z AUTO 14016KT RMK IEM_DS3505
ZBTJ,1988-05-03 12:25,ZBTJ 031225Z AUTO 14016KT RMK IEM_DS3505
ZBTJ,1988-05-03 21:00,ZBTJ 032100Z AUTO 08006KT RMK IEM_DS3505
ZBTJ,1988-05-03 21:24,ZBTJ 032124Z AUTO 08006KT RMK IEM_DS3505
ZBTJ,1988-05-03 22:00,ZBTJ 032200Z AUTO 07006KT RMK IEM_DS3505
ZBTJ,1988-05-03 22:25,ZBTJ 032225Z AUTO 07006KT RMK IEM_DS3505
ZBTJ,1988-05-04 00:00,ZBTJ 040000Z AUTO 10006KT 7SM 19/03 A2988 RMK T01900030 IEM_DS3505
ZBTJ,1988-05-04 00:33,ZBTJ 040033Z AUTO 10006KT 7SM 19/03 A2988 RMK T01900030 IEM_DS3505
ZBTJ,1988-05-04 01:00,ZBTJ 040100Z AUTO 12006KT 7SM 21/03 A2988 RMK T02100030 IEM_DS3505
ZBTJ,1988-05-04 01:25,ZBTJ 040125Z AUTO 12006KT 7SM 21/03 A2988 RMK T02100030 IEM_DS3505
ZBTJ,1988-05-04 02:00,ZBTJ 040200Z AUTO 15004KT 7SM 22/01 A2991 RMK T02200010 IEM_DS3505
ZBTJ,1988-05-04 02:26,ZBTJ 040226Z AUTO 15004KT 7SM 22/01 A2991 RMK T02200010 IEM_DS3505
ZBTJ,1988-05-04 03:00,ZBTJ 040300Z AUTO 27004KT 7SM 23/M01 A2988 RMK T02301010 IEM_DS3505
ZBTJ,1988-05-04 03:27,ZBTJ 040327Z AUTO 27004KT 7SM 23/M01 A2988 RMK T02301010 IEM_DS3505
ZBTJ,1988-05-04 04:00,ZBTJ 040400Z AUTO 20006KT 7SM 24/01 A2988 RMK T02400010 IEM_DS3505
ZBTJ,1988-05-04 04:32,ZBTJ 040432Z AUTO 20006KT 7SM 24/01 A2988 RMK T02400010 IEM_DS3505
ZBTJ,1988-05-04 05:00,ZBTJ 040500Z AUTO 20006KT 7SM 24/01 A2988 RMK T02400010 IEM_DS3505
ZBTJ,1988-05-04 05:32,ZBTJ 040532Z AUTO 20006KT 7SM 24/01 A2988 RMK T02400010 IEM_DS3505
ZBTJ,1988-05-04 06:25,ZBTJ 040625Z AUTO 20008KT RMK IEM_DS3505
ZBTJ,1988-05-04 07:00,ZBTJ 040700Z AUTO 20010KT RMK IEM_DS3505
ZBTJ,1988-05-04 07:26,ZBTJ 040726Z AUTO 20010KT RMK IEM_DS3505
ZBTJ,1988-05-04 08:00,ZBTJ 040800Z AUTO 15012KT RMK IEM_DS3505
ZBTJ,1988-05-04 08:25,ZBTJ 040825Z AUTO 15012KT RMK IEM_DS3505
ZBTJ,1988-05-04 09:00,ZBTJ 040900Z AUTO 15010KT RMK IEM_DS3505
ZBTJ,1988-05-04 09:31,ZBTJ 040931Z AUTO 15010KT RMK IEM_DS3505
ZBTJ,1988-05-04 10:00,ZBTJ 041000Z AUTO 16012KT RMK IEM_DS3505
ZBTJ,1988-05-04 10:25,ZBTJ 041025Z AUTO 16012KT RMK IEM_DS3505
ZBTJ,1988-05-04 11:00,ZBTJ 041100Z AUTO 15010KT 7SM 20/05 A2974 RMK T02000050 IEM_DS3505
ZBTJ,1988-05-04 11:24,ZBTJ 041124Z AUTO 15010KT 7SM 20/05 A2974 RMK T02000050 IEM_DS3505
ZBTJ,1988-05-04 12:23,ZBTJ 041223Z AUTO 17006KT 7SM 18/05 A2974 RMK T01800050 IEM_DS3505
ZBTJ,1988-05-04 13:00,ZBTJ 041300Z AUTO 20004KT 7SM 17/06 A2977 RMK T01700060 IEM_DS3505
ZBTJ,1988-05-04 13:30,ZBTJ 041330Z AUTO 20004KT 7SM 17/06 A2977 RMK T01700060 IEM_DS3505
ZBTJ,1988-05-04 21:00,ZBTJ 042100Z AUTO 14002KT 4SM 12/07 A2983 RMK T01200070 IEM_DS3505
ZBTJ,1988-05-04 21:24,ZBTJ 042124Z AUTO 14002KT 4SM 12/07 A2983 RMK T01200070 IEM_DS3505
ZBTJ,1988-05-04 22:00,ZBTJ 042200Z AUTO 11002KT 3SM 12/08 A2983 RMK T01200080 IEM_DS3505
ZBTJ,1988-05-04 22:24,ZBTJ 042224Z AUTO 11002KT 3SM 12/08 A2983 RMK T01200080 IEM_DS3505
ZBTJ,1988-05-04 23:00,ZBTJ 042300Z AUTO 00000KT 1 1/2SM 15/09 A2985 RMK T01500090 IEM_DS3505
ZBTJ,1988-05-05 00:00,ZBTJ 050000Z AUTO 08012KT 2 1/2SM 18/09 A2985 RMK T01800090 IEM_DS3505
ZBTJ,1988-05-05 00:24,ZBTJ 050024Z AUTO 08012KT 2 1/2SM 18/09 A2985 RMK T01800090 IEM_DS3505
ZBTJ,1988-05-05 01:00,ZBTJ 050100Z AUTO 11029KT RMK IEM_DS3505
ZBTJ,1988-05-05 01:25,ZBTJ 050125Z AUTO 11029KT RMK IEM_DS3505
ZBTJ,1988-05-05 02:00,ZBTJ 050200Z AUTO 11027KT RMK IEM_DS3505
ZBTJ,1988-05-05 02:26,ZBTJ 050226Z AUTO 11027KT RMK IEM_DS3505
ZBTJ,1988-05-05 03:00,ZBTJ 050300Z AUTO 11029KT RMK IEM_DS3505
ZBTJ,1988-05-05 03:26,ZBTJ 050326Z AUTO 11029KT RMK IEM_DS3505
ZBTJ,1988-05-05 04:00,ZBTJ 050400Z AUTO 11027KT RMK IEM_DS3505
ZBTJ,1988-05-05 04:26,ZBTJ 050426Z AUTO 11027KT RMK IEM_DS3505
ZBTJ,1988-05-05 05:00,ZBTJ 050500Z AUTO 11025KT RMK IEM_DS3505
ZBTJ,1988-05-05 05:26,ZBTJ 050526Z AUTO 11025KT RMK IEM_DS3505
ZBTJ,1988-05-05 06:00,ZBTJ 050600Z AUTO 11025KT RMK IEM_DS3505
ZBTJ,1988-05-05 06:26,ZBTJ 050626Z AUTO 11025KT RMK IEM_DS3505
ZBTJ,1988-05-05 07:00,ZBTJ 050700Z AUTO 11023KT 7SM 21/M01 A2985 RMK T02101010 IEM_DS3505
ZBTJ,1988-05-05 07:26,ZBTJ 050726Z AUTO 11023KT 7SM 21/M01 A2985 RMK T02101010 IEM_DS3505
ZBTJ,1988-05-05 08:00,ZBTJ 050800Z AUTO 11021KT 7SM 20/M02 A2983 RMK T02001020 IEM_DS3505
ZBTJ,1988-05-05 08:26,ZBTJ 050826Z AUTO 11021KT 7SM 20/M02 A2983 RMK T02001020 IEM_DS3505
ZBTJ,1988-05-05 09:00,ZBTJ 050900Z AUTO 11023KT RMK IEM_DS3505
ZBTJ,1988-05-05 09:31,ZBTJ 050931Z AUTO 11023KT RMK IEM_DS3505
ZBTJ,1988-05-05 10:26,ZBTJ 051026Z AUTO 11019KT RMK IEM_DS3505
ZBTJ,1988-05-05 11:00,ZBTJ 051100Z AUTO 12023KT RMK IEM_DS3505
ZBTJ,1988-05-05 11:27,ZBTJ 051127Z AUTO 12023KT RMK IEM_DS3505
ZBTJ,1988-05-05 12:00,ZBTJ 051200Z AUTO 12017KT RMK IEM_DS3505
ZBTJ,1988-05-05 12:26,ZBTJ 051226Z AUTO 12017KT RMK IEM_DS3505
ZBTJ,1988-05-05 13:00,ZBTJ 051300Z AUTO 13014KT RMK IEM_DS3505
ZBTJ,1988-05-05 13:26,ZBTJ 051326Z AUTO 13014KT RMK IEM_DS3505
ZBTJ,1988-05-05 21:00,ZBTJ 052100Z AUTO 7SM 13/08 A2974 RMK T01300080 IEM_DS3505
ZBTJ,1988-05-05 21:26,ZBTJ 052126Z AUTO 7SM 13/08 A2974 RMK T01300080 IEM_DS3505
ZBTJ,1988-05-05 22:00,ZBTJ 052200Z AUTO 6SM 13/08 A2974 RMK T01300080 IEM_DS3505
ZBTJ,1988-05-05 22:27,ZBTJ 052227Z AUTO 6SM 13/08 A2974 RMK T01300080 IEM_DS3505
ZBTJ,1988-05-05 23:00,ZBTJ 052300Z AUTO 00000KT RMK IEM_DS3505
ZBTJ,1988-05-05 23:26,ZBTJ 052326Z AUTO 00000KT RMK IEM_DS3505
ZBTJ,1988-05-06 00:00,ZBTJ 060000Z AUTO 00000KT 7SM 13/11 A2974 RMK T01300110 IEM_DS3505
ZBTJ,1988-05-06 00:26,ZBTJ 060026Z AUTO 00000KT 7SM 13/11 A2974 RMK T01300110 IEM_DS3505
ZBTJ,1988-05-06 01:00,ZBTJ 060100Z AUTO 00000KT 7SM 13/11 A2974 RMK T01300110 IEM_DS3505
ZBTJ,1988-05-06 01:32,ZBTJ 060132Z AUTO 00000KT 7SM 13/11 A2974 RMK T01300110 IEM_DS3505
ZBTJ,1988-05-06 02:00,ZBTJ 060200Z AUTO 10002KT 2 1/2SM 13/12 A2971 RMK T01300120 IEM_DS3505
ZBTJ,1988-05-06 02:27,ZBTJ 060227Z AUTO 10002KT 2 1/2SM 13/12 A2971 RMK T01300120 IEM_DS3505
ZBTJ,1988-05-06 03:00,ZBTJ 060300Z AUTO 00000KT 1 1/2SM 13/13 A2974 RMK T01300130 IEM_DS3505
ZBTJ,1988-05-06 03:27,ZBTJ 060327Z AUTO 00000KT 1 1/2SM 13/13 A2974 RMK T01300130 IEM_DS3505
ZBTJ,1988-05-06 04:00,ZBTJ 060400Z AUTO 34004KT 1 1/2SM 13/13 A2974 RMK T01300130 IEM_DS3505
ZBTJ,1988-05-06 04:25,ZBTJ 060425Z AUTO 34004KT 1 1/2SM 13/13 A2974 RMK T01300130 IEM_DS3505
ZBTJ,1988-05-06 06:00,ZBTJ 060600Z AUTO 09006KT 1 1/2SM 14/14 A2971 RMK T01400140 IEM_DS3505
ZBTJ,1988-05-06 06:24,ZBTJ 060624Z AUTO 09006KT 1 1/2SM 14/14 A2971 RMK T01400140 IEM_DS3505
ZBTJ,1988-05-06 07:00,ZBTJ 060700Z AUTO 09006KT 1 1/4SM 14/14 A2971 RMK T01400140 IEM_DS3505
ZBTJ,1988-05-06 07:23,ZBTJ 060723Z AUTO 09006KT 1 1/4SM 14/14 A2971 RMK T01400140 IEM_DS3505
ZBTJ,1988-05-06 08:00,ZBTJ 060800Z AUTO 10008KT 2 1/2SM 15/14 A2971 RMK T01500140 IEM_DS3505
ZBTJ,1988-05-06 08:23,ZBTJ 060823Z AUTO 10008KT 2 1/2SM 15/14 A2971 RMK T01500140 IEM_DS3505
ZBTJ,1988-05-06 09:00,ZBTJ 060900Z AUTO 12006KT 5SM 13/11 A2971 RMK T01300110 IEM_DS3505
ZBTJ,1988-05-06 09:28,ZBTJ 060928Z AUTO 12006KT 5SM 13/11 A2971 RMK T01300110 IEM_DS3505
ZBTJ,1988-05-06 10:00,ZBTJ 061000Z AUTO 13006KT 7SM 12/10 A2974 RMK T01200100 IEM_DS3505
ZBTJ,1988-05-06 11:00,ZBTJ 061100Z AUTO 13004KT 7SM 12/10 A2977 RMK T01200100 IEM_DS3505
ZBTJ,1988-05-06 12:22,ZBTJ 061222Z AUTO 12008KT 7SM 12/10 A2980 RMK T01200100 IEM_DS3505
ZBTJ,1988-05-06 14:00,ZBTJ 061400Z AUTO 00000KT 7SM 12/10 A2985 RMK T01200100 IEM_DS3505
ZBTJ,1988-05-06 14:23,ZBTJ 061423Z AUTO 00000KT 7SM 12/10 A2985 RMK T01200100 IEM_DS3505
ZBTJ,1988-05-06 15:00,ZBTJ 061500Z AUTO 36004KT RMK IEM_DS3505
ZBTJ,1988-05-06 15:22,ZBTJ 061522Z AUTO 36004KT RMK IEM_DS3505
ZBTJ,1988-05-06 21:00,ZBTJ 062100Z AUTO 35006KT 2 1/2SM 10/09 A3000 RMK T01000090 IEM_DS3505
ZBTJ,1988-05-06 21:23,ZBTJ 062123Z AUTO 35006KT 2 1/2SM 10/09 A3000 RMK T01000090 IEM_DS3505
ZBTJ,1988-05-07 00:00,ZBTJ 070000Z AUTO 01006KT 7SM 16/08 A3006 RMK T01600080 IEM_DS3505
ZBTJ,1988-05-07 00:25,ZBTJ 070025Z AUTO 01006KT 7SM 16/08 A3006 RMK T01600080 IEM_DS3505
ZBTJ,1988-05-07 01:00,ZBTJ 070100Z AUTO 02010KT 7SM 19/08 A3009 RMK T01900080 IEM_DS3505
ZBTJ,1988-05-07 01:23,ZBTJ 070123Z AUTO 02010KT 7SM 19/08 A3009 RMK T01900080 IEM_DS3505
ZBTJ,1988-05-07 02:00,ZBTJ 070200Z AUTO 01012KT 7SM 20/06 A3009 RMK T02000060 IEM_DS3505
ZBTJ,1988-05-07 02:24,ZBTJ 070224Z AUTO 01012KT 7SM 20/06 A3009 RMK T02000060 IEM_DS3505
ZBTJ,1988-05-07 03:00,ZBTJ 070300Z AUTO 03008KT RMK IEM_DS3505
ZBTJ,1988-05-07 03:23,ZBTJ 070323Z AUTO 03008KT 7SM 22/05 A3009 RMK T02200050 IEM_DS3505
ZBTJ,1988-05-07 04:00,ZBTJ 070400Z AUTO 00000KT 7SM 22/05 A3009 RMK T02200050 IEM_DS3505
ZBTJ,1988-05-07 06:00,ZBTJ 070600Z AUTO 01006KT 7SM 24/04 A3003 RMK T02400040 IEM_DS3505
ZBTJ,1988-05-07 06:23,ZBTJ 070623Z AUTO 01006KT 7SM 24/04 A3003 RMK T02400040 IEM_DS3505
ZBTJ,1988-05-07 07:00,ZBTJ 070700Z AUTO 33008KT 7SM 24/05 A3003 RMK T02400050 IEM_DS3505
ZBTJ,1988-05-07 07:23,ZBTJ 070723Z AUTO 33008KT 7SM 24/05 A3003 RMK T02400050 IEM_DS3505
ZBTJ,1988-05-07 08:00,ZBTJ 070800Z AUTO 32004KT 7SM 24/06 A3000 RMK T02400060 IEM_DS3505
ZBTJ,1988-05-07 08:23,ZBTJ 070823Z AUTO 32004KT 7SM 24/06 A3000 RMK T02400060 IEM_DS3505
ZBTJ,1988-05-07 09:00,ZBTJ 070900Z AUTO 33004KT 7SM 24/05 A3003 RMK T02400050 IEM_DS3505
ZBTJ,1988-05-07 09:23,ZBTJ 070923Z AUTO 33004KT 7SM 24/05 A3003 RMK T02400050 IEM_DS3505
ZBTJ,1988-05-07 10:00,ZBTJ 071000Z AUTO 00000KT 7SM 23/06 A3003 RMK T02300060 IEM_DS3505
ZBTJ,1988-05-07 10:24,ZBTJ 071024Z AUTO 00000KT 7SM 23/06 A3003 RMK T02300060 IEM_DS3505
ZBTJ,1988-05-07 11:00,ZBTJ 071100Z AUTO 00000KT 7SM 20/08 A3003 RMK T02000080 IEM_DS3505
ZBTJ,1988-05-07 11:23,ZBTJ 071123Z AUTO 00000KT 7SM 20/08 A3003 RMK T02000080 IEM_DS3505
ZBTJ,1988-05-07 12:00,ZBTJ 071200Z AUTO 15008KT 7SM 16/10 A3006 RMK T01600100 IEM_DS3505
ZBTJ,1988-05-07 12:23,ZBTJ 071223Z AUTO 15008KT 7SM 16/10 A3006 RMK T01600100 IEM_DS3505
ZBTJ,1988-05-07 13:00,ZBTJ 071300Z AUTO 15006KT 7SM 15/09 A3009 RMK T01500090 IEM_DS3505
ZBTJ,1988-05-07 13:24,ZBTJ 071324Z AUTO 15006KT 7SM 15/09 A3009 RMK T01500090 IEM_DS3505
ZBTJ,1988-05-07 21:00,ZBTJ 072100Z AUTO 17004KT 4SM 11/07 A3015 RMK T01100070 IEM_DS3505
ZBTJ,1988-05-07 21:23,ZBTJ 072123Z AUTO 17004KT 4SM 11/07 A3015 RMK T01100070 IEM_DS3505
ZBTJ,1988-05-07 22:00,ZBTJ 072200Z AUTO 00000KT 3SM 10/07 A3015 RMK T01000070 IEM_DS3505
ZBTJ,1988-05-07 22:23,ZBTJ 072223Z AUTO 00000KT 3SM 10/07 A3015 RMK T01000070 IEM_DS3505
ZBTJ,1988-05-07 23:00,ZBTJ 072300Z AUTO 00000KT 3SM 13/08 A3015 RMK T01300080 IEM_DS3505
ZBTJ,1988-05-07 23:23,ZBTJ 072323Z AUTO 00000KT 3SM 13/08 A3015 RMK T01300080 IEM_DS3505
ZBTJ,1988-05-08 00:00,ZBTJ 080000Z AUTO 14008KT RMK IEM_DS3505
ZBTJ,1988-05-08 00:23,ZBTJ 080023Z AUTO 14008KT RMK IEM_DS3505
ZBTJ,1988-05-08 01:00,ZBTJ 080100Z AUTO 16010KT RMK IEM_DS3505
ZBTJ,1988-05-08 01:24,ZBTJ 080124Z AUTO 16010KT RMK IEM_DS3505
ZBTJ,1988-05-08 02:00,ZBTJ 080200Z AUTO 16010KT RMK IEM_DS3505
ZBTJ,1988-05-08 02:23,ZBTJ 080223Z AUTO 16010KT RMK IEM_DS3505
ZBTJ,1988-05-08 03:00,ZBTJ 080300Z AUTO 14010KT RMK IEM_DS3505
ZBTJ,1988-05-08 04:00,ZBTJ 080400Z AUTO 15010KT RMK IEM_DS3505
ZBTJ,1988-05-08 04:24,ZBTJ 080424Z AUTO 15010KT RMK IEM_DS3505
ZBTJ,1988-05-08 05:00,ZBTJ 080500Z AUTO 12010KT RMK IEM_DS3505
ZBTJ,1988-05-08 05:23,ZBTJ 080523Z AUTO 12010KT RMK IEM_DS3505
ZBTJ,1988-05-08 06:00,ZBTJ 080600Z AUTO 15012KT RMK IEM_DS3505
ZBTJ,1988-05-08 06:23,ZBTJ 080623Z AUTO 15012KT RMK IEM_DS3505
ZBTJ,1988-05-08 07:00,ZBTJ 080700Z AUTO 15008KT RMK IEM_DS3505
ZBTJ,1988-05-08 07:23,ZBTJ 080723Z AUTO 15008KT RMK IEM_DS3505
ZBTJ,1988-05-08 08:00,ZBTJ 080800Z AUTO 12010KT RMK IEM_DS3505
ZBTJ,1988-05-08 08:23,ZBTJ 080823Z AUTO 12010KT RMK IEM_DS3505
ZBTJ,1988-05-08 09:00,ZBTJ 080900Z AUTO 10010KT RMK IEM_DS3505
ZBTJ,1988-05-08 09:24,ZBTJ 080924Z AUTO 10010KT RMK IEM_DS3505
ZBTJ,1988-05-08 10:00,ZBTJ 081000Z AUTO 12008KT RMK IEM_DS3505
ZBTJ,1988-05-08 10:25,ZBTJ 081025Z AUTO 12008KT RMK IEM_DS3505
ZBTJ,1988-05-08 11:00,ZBTJ 081100Z AUTO 12008KT RMK IEM_DS3505
ZBTJ,1988-05-08 11:24,ZBTJ 081124Z AUTO 12008KT RMK IEM_DS3505
ZBTJ,1988-05-08 12:00,ZBTJ 081200Z AUTO 12008KT RMK IEM_DS3505
ZBTJ,1988-05-08 12:25,ZBTJ 081225Z AUTO 12008KT RMK IEM_DS3505
ZBTJ,1988-05-08 13:00,ZBTJ 081300Z AUTO 13006KT RMK IEM_DS3505
ZBTJ,1988-05-08 13:23,ZBTJ 081323Z AUTO 13006KT RMK IEM_DS3505
ZBTJ,1988-05-08 14:00,ZBTJ 081400Z AUTO 13006KT RMK IEM_DS3505
ZBTJ,1988-05-08 14:23,ZBTJ 081423Z AUTO 13006KT RMK IEM_DS3505
ZBTJ,1988-05-08 21:00,ZBTJ 082100Z AUTO 24008KT RMK IEM_DS3505
ZBTJ,1988-05-08 21:23,ZBTJ 082123Z AUTO 24008KT RMK IEM_DS3505
ZBTJ,1988-05-08 22:00,ZBTJ 082200Z AUTO 25008KT RMK IEM_DS3505
ZBTJ,1988-05-08 22:24,ZBTJ 082224Z AUTO 25008KT RMK IEM_DS3505
ZBTJ,1988-05-08 23:00,ZBTJ 082300Z AUTO 24008KT RMK IEM_DS3505
ZBTJ,1988-05-08 23:23,ZBTJ 082323Z AUTO 24008KT RMK IEM_DS3505
ZBTJ,1988-05-09 00:00,ZBTJ 090000Z AUTO 22014KT RMK IEM_DS3505
ZBTJ,1988-05-09 00:26,ZBTJ 090026Z AUTO 22014KT RMK IEM_DS3505
ZBTJ,1988-05-09 01:00,ZBTJ 090100Z AUTO 12014KT RMK IEM_DS3505
ZBTJ,1988-05-09 01:27,ZBTJ 090127Z AUTO 12014KT RMK IEM_DS3505
ZBTJ,1988-05-09 03:00,ZBTJ 090300Z AUTO 22016KT RMK IEM_DS3505
ZBTJ,1988-05-09 03:24,ZBTJ 090324Z AUTO 22016KT RMK IEM_DS3505
ZBTJ,1988-05-09 04:00,ZBTJ 090400Z AUTO 23016KT RMK IEM_DS3505
ZBTJ,1988-05-09 04:23,ZBTJ 090423Z AUTO 23016KT RMK IEM_DS3505
ZBTJ,1988-05-09 05:00,ZBTJ 090500Z AUTO 23016KT RMK IEM_DS3505
ZBTJ,1988-05-09 05:29,ZBTJ 090529Z AUTO 23016KT RMK IEM_DS3505
ZBTJ,1988-05-09 06:00,ZBTJ 090600Z AUTO 21016KT RMK IEM_DS3505
ZBTJ,1988-05-09 06:27,ZBTJ 090627Z AUTO 21016KT RMK IEM_DS3505
ZBTJ,1988-05-09 07:38,ZBTJ 090738Z AUTO 22016KT RMK IEM_DS3505
ZBTJ,1988-05-09 08:00,ZBTJ 090800Z AUTO 20012KT RMK IEM_DS3505
ZBTJ,1988-05-09 08:25,ZBTJ 090825Z AUTO 20012KT RMK IEM_DS3505
ZBTJ,1988-05-09 09:00,ZBTJ 090900Z AUTO 20014KT RMK IEM_DS3505
ZBTJ,1988-05-09 09:26,ZBTJ 090926Z AUTO 20014KT RMK IEM_DS3505
ZBTJ,1988-05-09 10:00,ZBTJ 091000Z AUTO 21010KT 7SM 22/01 RMK T02200010 IEM_DS3505
ZBTJ,1988-05-09 10:32,ZBTJ 091032Z AUTO 21010KT 7SM 22/07 A2974 RMK T02200070 IEM_DS3505
ZBTJ,1988-05-09 11:00,ZBTJ 091100Z AUTO 22006KT 7SM 21/09 A2974 RMK T02100090 IEM_DS3505
ZBTJ,1988-05-09 11:25,ZBTJ 091125Z AUTO 22006KT 7SM 21/09 A2974 RMK T02100090 IEM_DS3505
ZBTJ,1988-05-09 12:00,ZBTJ 091200Z AUTO 20008KT 7SM 19/09 A2974 RMK T01900090 IEM_DS3505
ZBTJ,1988-05-09 12:25,ZBTJ 091225Z AUTO 20008KT 7SM 19/09 A2974 RMK T01900090 IEM_DS3505
ZBTJ,1988-05-09 13:00,ZBTJ 091300Z AUTO 20008KT 7SM 18/09 A2977 RMK T01800090 IEM_DS3505
ZBTJ,1988-05-09 13:24,ZBTJ 091324Z AUTO 20008KT 7SM 18/09 A2977 RMK T01800090 IEM_DS3505
ZBTJ,1988-05-09 21:00,ZBTJ 092100Z AUTO 21008KT RMK IEM_DS3505
ZBTJ,1988-05-09 21:25,ZBTJ 092125Z AUTO 21008KT RMK IEM_DS3505
ZBTJ,1988-05-09 22:00,ZBTJ 092200Z AUTO 21004KT RMK IEM_DS3505
ZBTJ,1988-05-09 22:25,ZBTJ 092225Z AUTO 21004KT RMK IEM_DS3505
ZBTJ,1988-05-09 23:00,ZBTJ 092300Z AUTO 23008KT RMK IEM_DS3505
ZBTJ,1988-05-09 23:26,ZBTJ 092326Z AUTO 23008KT RMK IEM_DS3505
ZBTJ,1988-05-10 00:00,ZBTJ 100000Z AUTO 32004KT 6SM 23/13 A2980 RMK T02300130 IEM_DS3505
ZBTJ,1988-05-10 02:00,ZBTJ 100200Z AUTO 28006KT 2 1/2SM 20/12 A2980 RMK T02000120 IEM_DS3505
ZBTJ,1988-05-10 02:26,ZBTJ 100226Z AUTO 28006KT 2 1/2SM 20/12 A2980 RMK T02000120 IEM_DS3505
ZBTJ,1988-05-10 03:25,ZBTJ 100325Z AUTO 32004KT RMK IEM_DS3505
ZBTJ,1988-05-10 04:00,ZBTJ 100400Z AUTO 32012KT RMK IEM_DS3505
ZBTJ,1988-05-10 04:29,ZBTJ 100429Z AUTO 32012KT RMK IEM_DS3505
ZBTJ,1988-05-10 05:00,ZBTJ 100500Z AUTO 32017KT RMK IEM_DS3505
ZBTJ,1988-05-10 05:25,ZBTJ 100525Z AUTO 32017KT RMK IEM_DS3505
ZBTJ,1988-05-10 06:00,ZBTJ 100600Z AUTO 31016KT 7SM 28/04 A2974 RMK T02800040 IEM_DS3505
ZBTJ,1988-05-10 06:25,ZBTJ 100625Z AUTO 31016KT 7SM 28/04 A2974 RMK T02800040 IEM_DS3505
ZBTJ,1988-05-10 07:25,ZBTJ 100725Z AUTO 30012KT RMK IEM_DS3505
ZBTJ,1988-05-10 09:00,ZBTJ 100900Z AUTO 31010KT RMK IEM_DS3505
ZBTJ,1988-05-10 09:27,ZBTJ 100927Z AUTO 31010KT RMK IEM_DS3505
ZBTJ,1988-05-10 11:00,ZBTJ 101100Z AUTO 30004KT RMK IEM_DS3505
ZBTJ,1988-05-10 11:25,ZBTJ 101125Z AUTO 30004KT RMK IEM_DS3505
ZBTJ,1988-05-10 12:00,ZBTJ 101200Z AUTO 31006KT RMK IEM_DS3505
ZBTJ,1988-05-10 12:24,ZBTJ 101224Z AUTO 31006KT RMK IEM_DS3505
ZBTJ,1988-05-10 13:00,ZBTJ 101300Z AUTO 29006KT RMK IEM_DS3505
ZBTJ,1988-05-10 13:25,ZBTJ 101325Z AUTO 29006KT RMK IEM_DS3505
ZBTJ,1988-05-10 21:00,ZBTJ 102100Z AUTO 33012KT RMK IEM_DS3505
ZBTJ,1988-05-10 21:25,ZBTJ 102125Z AUTO 33012KT RMK IEM_DS3505
ZBTJ,1988-05-10 22:00,ZBTJ 102200Z AUTO 33012KT RMK IEM_DS3505
ZBTJ,1988-05-10 22:25,ZBTJ 102225Z AUTO 33012KT RMK IEM_DS3505
ZBTJ,1988-05-11 00:00,ZBTJ 110000Z AUTO 33017KT RMK IEM_DS3505
ZBTJ,1988-05-11 00:25,ZBTJ 110025Z AUTO 33017KT RMK IEM_DS3505
ZBTJ,1988-05-11 01:00,ZBTJ 110100Z AUTO 32019KT RMK IEM_DS3505
ZBTJ,1988-05-11 01:25,ZBTJ 110125Z AUTO 32019KT RMK IEM_DS3505
ZBTJ,1988-05-11 02:00,ZBTJ 110200Z AUTO 32027KT RMK IEM_DS3505
ZBTJ,1988-05-11 02:25,ZBTJ 110225Z AUTO 32027KT RMK IEM_DS3505
ZBTJ,1988-05-11 03:00,ZBTJ 110300Z AUTO 33023KT 6SM 20/02 A3006 RMK T02000020 IEM_DS3505
ZBTJ,1988-05-11 03:25,ZBTJ 110325Z AUTO 33023KT 6SM 20/02 A3006 RMK T02000020 IEM_DS3505
ZBTJ,1988-05-11 04:00,ZBTJ 110400Z AUTO 33023KT RMK IEM_DS3505
ZBTJ,1988-05-11 04:26,ZBTJ 110426Z AUTO 33023KT RMK IEM_DS3505
ZBTJ,1988-05-11 05:00,ZBTJ 110500Z AUTO 32021KT RMK IEM_DS3505
ZBTJ,1988-05-11 05:25,ZBTJ 110525Z AUTO 32021KT RMK IEM_DS3505
ZBTJ,1988-05-11 06:00,ZBTJ 110600Z AUTO 33021KT RMK IEM_DS3505
ZBTJ,1988-05-11 06:25,ZBTJ 110625Z AUTO 33021KT RMK IEM_DS3505
ZBTJ,1988-05-11 07:00,ZBTJ 110700Z AUTO 33021KT RMK IEM_DS3505
ZBTJ,1988-05-11 07:25,ZBTJ 110725Z AUTO 33021KT RMK IEM_DS3505
ZBTJ,1988-05-11 08:00,ZBTJ 110800Z AUTO 33016KT RMK IEM_DS3505
ZBTJ,1988-05-11 08:25,ZBTJ 110825Z AUTO 33016KT RMK IEM_DS3505
ZBTJ,1988-05-11 09:00,ZBTJ 110900Z AUTO 35008KT RMK IEM_DS3505
ZBTJ,1988-05-11 09:25,ZBTJ 110925Z AUTO 35008KT RMK IEM_DS3505
ZBTJ,1988-05-11 10:00,ZBTJ 111000Z AUTO 29008KT RMK IEM_DS3505
ZBTJ,1988-05-11 10:27,ZBTJ 111027Z AUTO 29008KT RMK IEM_DS3505
ZBTJ,1988-05-11 11:00,ZBTJ 111100Z AUTO 27004KT RMK IEM_DS3505
ZBTJ,1988-05-11 11:25,ZBTJ 111125Z AUTO 27004KT RMK IEM_DS3505
ZBTJ,1988-05-11 14:25,ZBTJ 111425Z AUTO 22004KT 7SM 16/06 A3000 RMK T01600060 IEM_DS3505
ZBTJ,1988-05-11 21:00,ZBTJ 112100Z AUTO 30008KT 7SM 12/01 A3006 RMK T01200010 IEM_DS3505
ZBTJ,1988-05-11 21:25,ZBTJ 112125Z AUTO 30008KT 7SM 12/01 A3006 RMK T01200010 IEM_DS3505
ZBTJ,1988-05-11 22:00,ZBTJ 112200Z AUTO 32010KT 7SM 13/00 A3009 RMK T01300000 IEM_DS3505
ZBTJ,1988-05-11 22:25,ZBTJ 112225Z AUTO 32010KT 7SM 13/00 A3009 RMK T01300000 IEM_DS3505
ZBTJ,1988-05-11 23:00,ZBTJ 112300Z AUTO 32010KT 7SM 16/01 A3012 RMK T01600010 IEM_DS3505
ZBTJ,1988-05-11 23:24,ZBTJ 112324Z AUTO 32010KT 7SM 16/01 A3012 RMK T01600010 IEM_DS3505
ZBTJ,1988-05-12 00:00,ZBTJ 120000Z AUTO 32008KT RMK IEM_DS3505
ZBTJ,1988-05-12 00:27,ZBTJ 120027Z AUTO 32008KT RMK IEM_DS3505
ZBTJ,1988-05-12 01:00,ZBTJ 120100Z AUTO 31008KT RMK IEM_DS3505
ZBTJ,1988-05-12 01:05,ZBTJ 120105Z AUTO 32008KT RMK IEM_DS3505
ZBTJ,1988-05-12 01:25,ZBTJ 120125Z AUTO 31008KT RMK IEM_DS3505
ZBTJ,1988-05-12 02:00,ZBTJ 120200Z AUTO 32006KT RMK IEM_DS3505
ZBTJ,1988-05-12 03:00,ZBTJ 120300Z AUTO 00000KT RMK IEM_DS3505
ZBTJ,1988-05-12 03:27,ZBTJ 120327Z AUTO 00000KT RMK IEM_DS3505
ZBTJ,1988-05-12 04:00,ZBTJ 120400Z AUTO 30002KT RMK IEM_DS3505
ZBTJ,1988-05-12 04:25,ZBTJ 120425Z AUTO 30002KT RMK IEM_DS3505
ZBTJ,1988-05-12 05:00,ZBTJ 120500Z AUTO 36006KT RMK IEM_DS3505
ZBTJ,1988-05-12 05:29,ZBTJ 120529Z AUTO 36006KT RMK IEM_DS3505
ZBTJ,1988-05-12 06:25,ZBTJ 120625Z AUTO 30006KT RMK IEM_DS3505
ZBTJ,1988-05-12 07:00,ZBTJ 120700Z AUTO 24008KT RMK IEM_DS3505
ZBTJ,1988-05-12 07:25,ZBTJ 120725Z AUTO 24008KT RMK IEM_DS3505
ZBTJ,1988-05-12 11:00,ZBTJ 121100Z AUTO 16006KT RMK IEM_DS3505
ZBTJ,1988-05-12 11:25,ZBTJ 121125Z AUTO 16006KT RMK IEM_DS3505
ZBTJ,1988-05-13 00:00,ZBTJ 130000Z AUTO 19008KT RMK IEM_DS3505
ZBTJ,1988-05-13 00:25,ZBTJ 130025Z AUTO 19008KT RMK IEM_DS3505
ZBTJ,1988-05-13 01:00,ZBTJ 130100Z AUTO 6SM 21/09 A2991 RMK T02100090 IEM_DS3505
ZBTJ,1988-05-13 01:25,ZBTJ 130125Z AUTO 6SM 21/09 A2991 RMK T02100090 IEM_DS3505
ZBTJ,1988-05-13 02:00,ZBTJ 130200Z AUTO 19012KT RMK IEM_DS3505
ZBTJ,1988-05-13 02:26,ZBTJ 130226Z AUTO 19012KT RMK IEM_DS3505
ZBTJ,1988-05-13 03:00,ZBTJ 130300Z AUTO 21012KT RMK IEM_DS3505
ZBTJ,1988-05-13 03:32,ZBTJ 130332Z AUTO 21012KT RMK IEM_DS3505
ZBTJ,1988-05-13 04:00,ZBTJ 130400Z AUTO 21008KT RMK IEM_DS3505
ZBTJ,1988-05-13 04:32,ZBTJ 130432Z AUTO 21008KT RMK IEM_DS3505
ZBTJ,1988-05-13 05:00,ZBTJ 130500Z AUTO 21012KT RMK IEM_DS3505
ZBTJ,1988-05-13 05:27,ZBTJ 130527Z AUTO 21012KT RMK IEM_DS3505
ZBTJ,1988-05-13 06:00,ZBTJ 130600Z AUTO 23012KT RMK IEM_DS3505
ZBTJ,1988-05-13 06:31,ZBTJ 130631Z AUTO 23012KT RMK IEM_DS3505
ZBTJ,1988-05-13 07:00,ZBTJ 130700Z AUTO 24006KT 7SM 24/08 A2980 RMK T02400080 IEM_DS3505
ZBTJ,1988-05-13 07:25,ZBTJ 130725Z AUTO 24006KT 7SM 24/08 A2980 RMK T02400080 IEM_DS3505
ZBTJ,1988-05-13 08:00,ZBTJ 130800Z AUTO 25004KT 7SM 23/09 A2977 RMK T02300090 IEM_DS3505
ZBTJ,1988-05-13 08:36,ZBTJ 130836Z AUTO 25004KT 7SM 23/09 A2977 RMK T02300090 IEM_DS3505
ZBTJ,1988-05-13 08:50,ZBTJ 130850Z AUTO 25004KT 7SM 23/09 A2977 RMK T02300090 IEM_DS3505
ZBTJ,1988-05-13 08:51,ZBTJ 130851Z AUTO 25004KT 7SM 23/09 A2977 RMK T02300090 IEM_DS3505
ZBTJ,1988-05-13 08:59,ZBTJ 130859Z AUTO 25004KT 7SM 23/09 A2977 RMK T02300090 IEM_DS3505
ZBTJ,1988-05-13 09:00,ZBTJ 130900Z AUTO 25006KT RMK IEM_DS3505
ZBTJ,1988-05-13 09:01,ZBTJ 130901Z AUTO 25004KT 7SM 23/09 A2977 RMK T02300090 IEM_DS3505
ZBTJ,1988-05-13 09:03,ZBTJ 130903Z AUTO 25004KT 7SM 23/09 A2977 RMK T02300090 IEM_DS3505
ZBTJ,1988-05-13 10:00,ZBTJ 131000Z AUTO 23010KT RMK IEM_DS3505
ZBTJ,1988-05-13 10:02,ZBTJ 131002Z AUTO 25006KT RMK IEM_DS3505
ZBTJ,1988-05-13 10:36,ZBTJ 131036Z AUTO 23010KT RMK IEM_DS3505
ZBTJ,1988-05-13 12:00,ZBTJ 131200Z AUTO 22006KT RMK IEM_DS3505
ZBTJ,1988-05-13 12:19,ZBTJ 131219Z AUTO 22006KT RMK IEM_DS3505
ZBTJ,1988-05-13 12:28,ZBTJ 131228Z AUTO 22006KT RMK IEM_DS3505
ZBTJ,1988-05-13 12:56,ZBTJ 131256Z AUTO 19010KT RMK IEM_DS3505
ZBTJ,1988-05-13 13:00,ZBTJ 131300Z AUTO 22008KT RMK IEM_DS3505
ZBTJ,1988-05-13 13:45,ZBTJ 131345Z AUTO 22008KT RMK IEM_DS3505
ZBTJ,1988-05-13 14:00,ZBTJ 131400Z AUTO 21006KT RMK IEM_DS3505
ZBTJ,1988-05-13 14:28,ZBTJ 131428Z AUTO 21006KT RMK IEM_DS3505
ZBTJ,1988-05-13 14:29,ZBTJ 131429Z AUTO 25006KT RMK IEM_DS3505
ZBTJ,1988-05-13 14:31,ZBTJ 131431Z AUTO 21006KT RMK IEM_DS3505
ZBTJ,1988-05-13 15:05,ZBTJ 131505Z AUTO 19010KT RMK IEM_DS3505
ZBTJ,1988-05-13 15:45,ZBTJ 131545Z AUTO 22008KT RMK IEM_DS3505
ZBTJ,1988-05-13 21:00,ZBTJ 132100Z AUTO 16004KT RMK IEM_DS3505
ZBTJ,1988-05-13 21:25,ZBTJ 132125Z AUTO 16004KT RMK IEM_DS3505
ZBTJ,1988-05-13 21:28,ZBTJ 132128Z AUTO 16004KT RMK IEM_DS3505
ZBTJ,1988-05-13 22:00,ZBTJ 132200Z AUTO 16004KT RMK IEM_DS3505
ZBTJ,1988-05-13 22:25,ZBTJ 132225Z AUTO 16004KT RMK IEM_DS3505
ZBTJ,1988-05-13 22:28,ZBTJ 132228Z AUTO 16004KT RMK IEM_DS3505
ZBTJ,1988-05-13 23:00,ZBTJ 132300Z AUTO 16006KT 7SM 15/08 A2971 RMK T01500080 IEM_DS3505
ZBTJ,1988-05-13 23:25,ZBTJ 132325Z AUTO 16006KT 7SM 15/08 A2971 RMK T01500080 IEM_DS3505
ZBTJ,1988-05-13 23:27,ZBTJ 132327Z AUTO 16006KT 7SM 15/08 A2971 RMK T01500080 IEM_DS3505
ZBTJ,1988-05-14 00:00,ZBTJ 140000Z AUTO 21006KT 7SM 17/09 A2971 RMK T01700090 IEM_DS3505
ZBTJ,1988-05-14 00:25,ZBTJ 140025Z AUTO 21006KT 7SM 17/09 A2971 RMK T01700090 IEM_DS3505
ZBTJ,1988-05-14 00:28,ZBTJ 140028Z AUTO 21006KT 7SM 17/09 A2971 RMK T01700090 IEM_DS3505
ZBTJ,1988-05-14 01:00,ZBTJ 140100Z AUTO 18006KT 7SM 19/10 A2971 RMK T01900100 IEM_DS3505
ZBTJ,1988-05-14 01:25,ZBTJ 140125Z AUTO 18006KT 7SM 19/10 A2971 RMK T01900100 IEM_DS3505
ZBTJ,1988-05-14 01:29,ZBTJ 140129Z AUTO 18006KT 7SM 19/10 A2971 RMK T01900100 IEM_DS3505
ZBTJ,1988-05-14 02:00,ZBTJ 140200Z AUTO 22004KT 4SM 21/12 A2971 RMK T02100120 IEM_DS3505
ZBTJ,1988-05-14 02:25,ZBTJ 140225Z AUTO 22004KT 4SM 21/12 A2971 RMK T02100120 IEM_DS3505
ZBTJ,1988-05-14 02:28,ZBTJ 140228Z AUTO 22004KT 4SM 21/12 A2971 RMK T02100120 IEM_DS3505
ZBTJ,1988-05-14 03:00,ZBTJ 140300Z AUTO 00000KT 3SM 22/14 A2968 RMK T02200140 IEM_DS3505
ZBTJ,1988-05-14 03:25,ZBTJ 140325Z AUTO 00000KT 3SM 22/14 A2968 RMK T02200140 IEM_DS3505
ZBTJ,1988-05-14 03:28,ZBTJ 140328Z AUTO 00000KT 3SM 22/14 A2968 RMK T02200140 IEM_DS3505
ZBTJ,1988-05-14 04:00,ZBTJ 140400Z AUTO 00000KT 3SM 24/14 A2968 RMK T02400140 IEM_DS3505
ZBTJ,1988-05-14 04:25,ZBTJ 140425Z AUTO 00000KT 3SM 24/14 A2968 RMK T02400140 IEM_DS3505
ZBTJ,1988-05-14 04:28,ZBTJ 140428Z AUTO 00000KT 3SM 24/14 A2968 RMK T02400140 IEM_DS3505
ZBTJ,1988-05-14 05:00,ZBTJ 140500Z AUTO 00000KT 3SM 25/14 A2968 RMK T02500140 IEM_DS3505
ZBTJ,1988-05-14 05:25,ZBTJ 140525Z AUTO 00000KT 3SM 25/14 A2968 RMK T02500140 IEM_DS3505
ZBTJ,1988-05-14 05:29,ZBTJ 140529Z AUTO 00000KT 3SM 25/14 A2968 RMK T02500140 IEM_DS3505
ZBTJ,1988-05-14 06:00,ZBTJ 140600Z AUTO 31004KT 4SM 26/14 A2965 RMK T02600140 IEM_DS3505
ZBTJ,1988-05-14 06:26,ZBTJ 140626Z AUTO 31004KT 4SM 26/14 A2965 RMK T02600140 IEM_DS3505
ZBTJ,1988-05-14 06:28,ZBTJ 140628Z AUTO 31004KT 4SM 26/14 A2965 RMK T02600140 IEM_DS3505
ZBTJ,1988-05-14 08:00,ZBTJ 140800Z AUTO 22004KT 4SM 27/13 A2962 RMK T02700130 IEM_DS3505
ZBTJ,1988-05-14 08:26,ZBTJ 140826Z AUTO 22004KT 4SM 27/13 A2962 RMK T02700130 IEM_DS3505
ZBTJ,1988-05-14 08:29,ZBTJ 140829Z AUTO 22004KT 4SM 27/13 A2962 RMK T02700130 IEM_DS3505
ZBTJ,1988-05-14 09:00,ZBTJ 140900Z AUTO 00000KT 7SM 27/14 A2962 RMK T02700140 IEM_DS3505
ZBTJ,1988-05-14 09:26,ZBTJ 140926Z AUTO 00000KT 7SM 27/14 A2962 RMK T02700140 IEM_DS3505
ZBTJ,1988-05-14 09:30,ZBTJ 140930Z AUTO 00000KT 7SM 27/14 A2962 RMK T02700140 IEM_DS3505
ZBTJ,1988-05-14 10:00,ZBTJ 141000Z AUTO 12004KT 7SM A2962 RMK IEM_DS3505
ZBTJ,1988-05-14 10:26,ZBTJ 141026Z AUTO 12004KT 7SM 17/13 A2962 RMK T01700130 IEM_DS3505
ZBTJ,1988-05-14 10:28,ZBTJ 141028Z AUTO 12004KT 7SM 17/13 A2962 RMK T01700130 IEM_DS3505
ZBTJ,1988-05-14 11:27,ZBTJ 141127Z AUTO 20002KT 7SM A2962 RMK IEM_DS3505
ZBTJ,1988-05-14 11:30,ZBTJ 141130Z AUTO 20002KT 7SM 25/12 A2962 RMK T02500120 IEM_DS3505
ZBTJ,1988-05-14 12:00,ZBTJ 141200Z AUTO 13006KT 7SM 22/15 A2965 RMK T02200150 IEM_DS3505
ZBTJ,1988-05-14 12:26,ZBTJ 141226Z AUTO 13006KT 7SM 22/15 A2965 RMK T02200150 IEM_DS3505
ZBTJ,1988-05-14 12:29,ZBTJ 141229Z AUTO 13006KT 7SM 22/15 A2965 RMK T02200150 IEM_DS3505
ZBTJ,1988-05-14 13:00,ZBTJ 141300Z AUTO 14006KT 7SM 20/15 A2968 RMK T02000150 IEM_DS3505
ZBTJ,1988-05-14 13:26,ZBTJ 141326Z AUTO 14006KT 7SM 20/15 A2968 RMK T02000150 IEM_DS3505
ZBTJ,1988-05-14 13:30,ZBTJ 141330Z AUTO 14006KT 7SM 20/15 A2968 RMK T02000150 IEM_DS3505
ZBTJ,1988-05-14 21:00,ZBTJ 142100Z AUTO 16004KT 4SM 18/13 A2968 RMK T01800130 IEM_DS3505
ZBTJ,1988-05-14 21:26,ZBTJ 142126Z AUTO 16004KT 4SM 18/13 A2968 RMK T01800130 IEM_DS3505
ZBTJ,1988-05-14 21:31,ZBTJ 142131Z AUTO 16004KT 4SM 18/13 A2968 RMK T01800130 IEM_DS3505
ZBTJ,1988-05-14 22:26,ZBTJ 142226Z AUTO 18004KT 4SM A2968 RMK IEM_DS3505
ZBTJ,1988-05-14 22:29,ZBTJ 142229Z AUTO 18004KT 4SM A2968 RMK IEM_DS3505
ZBTJ,1988-05-14 23:00,ZBTJ 142300Z AUTO 20004KT 7SM 18/12 A2968 RMK T01800120 IEM_DS3505
ZBTJ,1988-05-14 23:26,ZBTJ 142326Z AUTO 20004KT 7SM 18/12 A2968 RMK T01800120 IEM_DS3505
ZBTJ,1988-05-14 23:28,ZBTJ 142328Z AUTO 20004KT 7SM 18/12 A2968 RMK T01800120 IEM_DS3505
ZBTJ,1988-05-15 00:00,ZBTJ 150000Z AUTO 21004KT 7SM 20/13 A2968 RMK T02000130 IEM_DS3505
ZBTJ,1988-05-15 00:28,ZBTJ 150028Z AUTO 21004KT 7SM 20/13 A2968 RMK T02000130 IEM_DS3505
ZBTJ,1988-05-15 00:32,ZBTJ 150032Z AUTO 21004KT 7SM 20/13 A2968 RMK T02000130 IEM_DS3505
ZBTJ,1988-05-15 01:00,ZBTJ 150100Z AUTO 21008KT RMK IEM_DS3505
ZBTJ,1988-05-15 01:26,ZBTJ 150126Z AUTO 21008KT RMK IEM_DS3505
ZBTJ,1988-05-15 01:28,ZBTJ 150128Z AUTO 21008KT RMK IEM_DS3505
ZBTJ,1988-05-15 02:00,ZBTJ 150200Z AUTO 21006KT 7SM 24/14 A2968 RMK T02400140 IEM_DS3505
ZBTJ,1988-05-15 02:26,ZBTJ 150226Z AUTO 21006KT 7SM 24/14 A2968 RMK T02400140 IEM_DS3505
ZBTJ,1988-05-15 02:29,ZBTJ 150229Z AUTO 21006KT 7SM 24/14 A2968 RMK T02400140 IEM_DS3505
ZBTJ,1988-05-15 03:00,ZBTJ 150300Z AUTO 20006KT 7SM 26/14 A2968 RMK T02600140 IEM_DS3505
ZBTJ,1988-05-15 03:26,ZBTJ 150326Z AUTO 20006KT 7SM 26/14 A2968 RMK T02600140 IEM_DS3505
ZBTJ,1988-05-15 03:28,ZBTJ 150328Z AUTO 20006KT 7SM 26/14 A2968 RMK T02600140 IEM_DS3505
ZBTJ,1988-05-15 04:00,ZBTJ 150400Z AUTO 22008KT 7SM 29/14 A2965 RMK T02900140 IEM_DS3505
ZBTJ,1988-05-15 04:26,ZBTJ 150426Z AUTO 22008KT 7SM 29/14 A2965 RMK T02900140 IEM_DS3505
ZBTJ,1988-05-15 04:29,ZBTJ 150429Z AUTO 22008KT 7SM 29/14 A2965 RMK T02900140 IEM_DS3505
ZBTJ,1988-05-15 05:00,ZBTJ 150500Z AUTO 22010KT 7SM 31/11 A2965 RMK T03100110 IEM_DS3505
ZBTJ,1988-05-15 05:26,ZBTJ 150526Z AUTO 22010KT 7SM 31/11 A2965 RMK T03100110 IEM_DS3505
ZBTJ,1988-05-15 05:29,ZBTJ 150529Z AUTO 22010KT 7SM 31/11 A2965 RMK T03100110 IEM_DS3505
ZBTJ,1988-05-15 08:00,ZBTJ 150800Z AUTO 23014KT 7SM 34/08 A2956 RMK T03400080 IEM_DS3505
ZBTJ,1988-05-15 09:00,ZBTJ 150900Z AUTO 21014KT 7SM 33/08 A2956 RMK T03300080 IEM_DS3505
ZBTJ,1988-05-15 09:26,ZBTJ 150926Z AUTO 21014KT 7SM 33/08 A2956 RMK T03300080 IEM_DS3505
ZBTJ,1988-05-15 09:29,ZBTJ 150929Z AUTO 21014KT 7SM 33/08 A2956 RMK T03300080 IEM_DS3505
ZBTJ,1988-05-15 10:00,ZBTJ 151000Z AUTO 22008KT RMK IEM_DS3505
ZBTJ,1988-05-15 10:26,ZBTJ 151026Z AUTO 22008KT RMK IEM_DS3505
ZBTJ,1988-05-15 10:29,ZBTJ 151029Z AUTO 22008KT RMK IEM_DS3505
ZBTJ,1988-05-15 11:00,ZBTJ 151100Z AUTO 22008KT RMK IEM_DS3505
ZBTJ,1988-05-15 11:26,ZBTJ 151126Z AUTO 22008KT RMK IEM_DS3505
ZBTJ,1988-05-15 11:28,ZBTJ 151128Z AUTO 22008KT RMK IEM_DS3505
ZBTJ,1988-05-15 12:26,ZBTJ 151226Z AUTO 21012KT RMK IEM_DS3505
ZBTJ,1988-05-15 12:29,ZBTJ 151229Z AUTO 21012KT RMK IEM_DS3505
ZBTJ,1988-05-15 13:26,ZBTJ 151326Z AUTO 28006KT 7SM 27/14 A2968 RMK T02700140 IEM_DS3505
ZBTJ,1988-05-15 13:28,ZBTJ 151328Z AUTO 28006KT 7SM 27/14 A2968 RMK T02700140 IEM_DS3505
ZBTJ,1988-05-15 21:25,ZBTJ 152125Z AUTO 27006KT RMK IEM_DS3505
ZBTJ,1988-05-15 21:28,ZBTJ 152128Z AUTO 27006KT RMK IEM_DS3505
ZBTJ,1988-05-15 22:26,ZBTJ 152226Z AUTO 01010KT RMK IEM_DS3505
ZBTJ,1988-05-15 22:29,ZBTJ 152229Z AUTO 01010KT RMK IEM_DS3505
ZBTJ,1988-05-16 02:26,ZBTJ 160226Z AUTO 03014KT RMK IEM_DS3505
ZBTJ,1988-05-16 02:29,ZBTJ 160229Z AUTO 03014KT RMK IEM_DS3505
ZBTJ,1988-05-16 03:27,ZBTJ 160327Z AUTO 06014KT 7SM 27/14 A2985 RMK T02700140 IEM_DS3505
ZBTJ,1988-05-16 03:31,ZBTJ 160331Z AUTO 06014KT 7SM 27/14 A2985 RMK T02700140 IEM_DS3505
ZBTJ,1988-05-16 03:32,ZBTJ 160332Z AUTO 06014KT 7SM 27/14 A2985 RMK T02700140 IEM_DS3505
ZBTJ,1988-05-16 03:37,ZBTJ 160337Z AUTO 06014KT 7SM 27/14 A2985 RMK T02700140 IEM_DS3505
ZBTJ,1988-05-16 04:27,ZBTJ 160427Z AUTO 08016KT RMK IEM_DS3505
ZBTJ,1988-05-16 04:29,ZBTJ 160429Z AUTO 08016KT RMK IEM_DS3505
ZBTJ,1988-05-16 05:27,ZBTJ 160527Z AUTO 08014KT RMK IEM_DS3505
ZBTJ,1988-05-16 05:30,ZBTJ 160530Z AUTO 08014KT RMK IEM_DS3505
ZBTJ,1988-05-16 06:00,ZBTJ 160600Z AUTO 09012KT 7SM 28/12 A2983 RMK T02800120 IEM_DS3505
ZBTJ,1988-05-16 06:26,ZBTJ 160626Z AUTO 09012KT 7SM 28/12 A2983 RMK T02800120 IEM_DS3505
ZBTJ,1988-05-16 06:30,ZBTJ 160630Z AUTO 09012KT 7SM 28/12 A2983 RMK T02800120 IEM_DS3505
ZBTJ,1988-05-16 07:00,ZBTJ 160700Z AUTO 11016KT 7SM 27/12 A2980 RMK T02700120 IEM_DS3505
ZBTJ,1988-05-16 07:27,ZBTJ 160727Z AUTO 11016KT 7SM 27/12 A2980 RMK T02700120 IEM_DS3505
ZBTJ,1988-05-16 07:29,ZBTJ 160729Z AUTO 11016KT 7SM 27/12 A2980 RMK T02700120 IEM_DS3505
ZBTJ,1988-05-16 08:27,ZBTJ 160827Z AUTO 12012KT 7SM 26/11 A2980 RMK T02600110 IEM_DS3505
ZBTJ,1988-05-16 08:29,ZBTJ 160829Z AUTO 12012KT 7SM 26/11 A2980 RMK T02600110 IEM_DS3505
ZBTJ,1988-05-16 09:00,ZBTJ 160900Z AUTO 15010KT RMK IEM_DS3505
ZBTJ,1988-05-16 09:26,ZBTJ 160926Z AUTO 15010KT RMK IEM_DS3505
ZBTJ,1988-05-16 09:34,ZBTJ 160934Z AUTO 15010KT RMK IEM_DS3505
ZBTJ,1988-05-16 10:00,ZBTJ 161000Z AUTO 12012KT RMK IEM_DS3505
ZBTJ,1988-05-16 10:26,ZBTJ 161026Z AUTO 12012KT RMK IEM_DS3505
ZBTJ,1988-05-16 10:29,ZBTJ 161029Z AUTO 12012KT RMK IEM_DS3505
ZBTJ,1988-05-16 12:26,ZBTJ 161226Z AUTO 13006KT RMK IEM_DS3505
ZBTJ,1988-05-16 12:31,ZBTJ 161231Z AUTO 13006KT RMK IEM_DS3505
ZBTJ,1988-05-16 13:00,ZBTJ 161300Z AUTO 14004KT RMK IEM_DS3505
ZBTJ,1988-05-16 13:26,ZBTJ 161326Z AUTO 14004KT RMK IEM_DS3505
ZBTJ,1988-05-16 13:43,ZBTJ 161343Z AUTO 14004KT RMK IEM_DS3505
ZBTJ,1988-05-16 13:46,ZBTJ 161346Z AUTO 14004KT RMK IEM_DS3505
ZBTJ,1988-05-16 21:26,ZBTJ 162126Z AUTO 17006KT 7SM 16/15 A2974 RMK T01600150 IEM_DS3505
ZBTJ,1988-05-16 21:29,ZBTJ 162129Z AUTO 17006KT 7SM 16/15 A2974 RMK T01600150 IEM_DS3505
ZBTJ,1988-05-16 22:00,ZBTJ 162200Z AUTO 17008KT 7SM 18/12 A2971 RMK T01800120 IEM_DS3505
ZBTJ,1988-05-16 22:26,ZBTJ 162226Z AUTO 17008KT 7SM 18/12 A2971 RMK T01800120 IEM_DS3505
ZBTJ,1988-05-16 22:29,ZBTJ 162229Z AUTO 17008KT 7SM 18/12 A2971 RMK T01800120 IEM_DS3505
ZBTJ,1988-05-16 23:00,ZBTJ 162300Z AUTO 20012KT RMK IEM_DS3505
ZBTJ,1988-05-16 23:26,ZBTJ 162326Z AUTO 20012KT RMK IEM_DS3505
ZBTJ,1988-05-17 00:00,ZBTJ 170000Z AUTO 24010KT 7SM 23/15 A2971 RMK T02300150 IEM_DS3505
ZBTJ,1988-05-17 00:26,ZBTJ 170026Z AUTO 24010KT 7SM 23/15 A2971 RMK T02300150 IEM_DS3505
ZBTJ,1988-05-17 01:27,ZBTJ 170127Z AUTO 24012KT 5SM 25/16 A2974 RMK T02500160 IEM_DS3505
ZBTJ,1988-05-17 01:29,ZBTJ 170129Z AUTO 24012KT 5SM 25/16 A2974 RMK T02500160 IEM_DS3505
ZBTJ,1988-05-17 02:00,ZBTJ 170200Z AUTO 31004KT 5SM 27/16 A2974 RMK T02700160 IEM_DS3505
ZBTJ,1988-05-17 02:27,ZBTJ 170227Z AUTO 31004KT 5SM 27/16 A2974 RMK T02700160 IEM_DS3505
ZBTJ,1988-05-17 02:32,ZBTJ 170232Z AUTO 31004KT 5SM 27/16 A2974 RMK T02700160 IEM_DS3505
ZBTJ,1988-05-17 03:00,ZBTJ 170300Z AUTO 28010KT 5SM 28/15 A2974 RMK T02800150 IEM_DS3505
ZBTJ,1988-05-17 03:27,ZBTJ 170327Z AUTO 28010KT 5SM 28/15 A2974 RMK T02800150 IEM_DS3505
ZBTJ,1988-05-17 03:29,ZBTJ 170329Z AUTO 20012KT RMK IEM_DS3505
ZBTJ,1988-05-17 03:31,ZBTJ 170331Z AUTO 24010KT 7SM 23/15 A2971 RMK T02300150 IEM_DS3505
ZBTJ,1988-05-17 03:35,ZBTJ 170335Z AUTO 28010KT 5SM 28/15 A2974 RMK T02800150 IEM_DS3505
ZBTJ,1988-05-17 04:00,ZBTJ 170400Z AUTO 27010KT RMK IEM_DS3505
ZBTJ,1988-05-17 04:26,ZBTJ 170426Z AUTO 27010KT RMK IEM_DS3505
ZBTJ,1988-05-17 04:29,ZBTJ 170429Z AUTO 27010KT RMK IEM_DS3505
ZBTJ,1988-05-17 06:00,ZBTJ 170600Z AUTO 24010KT RMK IEM_DS3505
ZBTJ,1988-05-17 06:26,ZBTJ 170626Z AUTO 24010KT RMK IEM_DS3505
ZBTJ,1988-05-17 06:29,ZBTJ 170629Z AUTO 24010KT RMK IEM_DS3505
ZBTJ,1988-05-17 07:00,ZBTJ 170700Z AUTO 25010KT 7SM 36/14 A2965 RMK T03600140 IEM_DS3505
ZBTJ,1988-05-17 07:27,ZBTJ 170727Z AUTO 25010KT 7SM 36/14 A2965 RMK T03600140 IEM_DS3505
ZBTJ,1988-05-17 07:55,ZBTJ 170755Z AUTO 25010KT 7SM 36/14 A2965 RMK T03600140 IEM_DS3505
ZBTJ,1988-05-17 08:00,ZBTJ 170800Z AUTO 24012KT 7SM 37/12 A2962 RMK T03700120 IEM_DS3505
ZBTJ,1988-05-17 08:27,ZBTJ 170827Z AUTO 24012KT 7SM 37/12 A2962 RMK T03700120 IEM_DS3505
ZBTJ,1988-05-17 08:30,ZBTJ 170830Z AUTO 24012KT 7SM 37/12 A2962 RMK T03700120 IEM_DS3505
ZBTJ,1988-05-17 09:00,ZBTJ 170900Z AUTO 25010KT 7SM 36/11 A2962 RMK T03600110 IEM_DS3505
ZBTJ,1988-05-17 09:27,ZBTJ 170927Z AUTO 25010KT 7SM 36/11 A2962 RMK T03600110 IEM_DS3505
ZBTJ,1988-05-17 09:31,ZBTJ 170931Z AUTO 25010KT 7SM 36/11 A2962 RMK T03600110 IEM_DS3505
ZBTJ,1988-05-17 11:00,ZBTJ 171100Z AUTO 22004KT 7SM 33/13 A2962 RMK T03300130 IEM_DS3505
ZBTJ,1988-05-17 11:26,ZBTJ 171126Z AUTO 22004KT 7SM 33/13 A2962 RMK T03300130 IEM_DS3505
ZBTJ,1988-05-17 11:29,ZBTJ 171129Z AUTO 22004KT 7SM 33/13 A2962 RMK T03300130 IEM_DS3505
ZBTJ,1988-05-17 12:00,ZBTJ 171200Z AUTO 33010KT 7SM 30/13 A2965 RMK T03000130 IEM_DS3505
ZBTJ,1988-05-17 12:29,ZBTJ 171229Z AUTO 33010KT 7SM 30/13 A2965 RMK T03000130 IEM_DS3505
ZBTJ,1988-05-17 13:00,ZBTJ 171300Z AUTO 20008KT 7SM 29/13 A2968 RMK T02900130 IEM_DS3505
ZBTJ,1988-05-17 13:26,ZBTJ 171326Z AUTO 20008KT 7SM 29/13 A2968 RMK T02900130 IEM_DS3505
ZBTJ,1988-05-17 13:29,ZBTJ 171329Z AUTO 20008KT 7SM 29/13 A2968 RMK T02900130 IEM_DS3505
ZBTJ,1988-05-17 22:00,ZBTJ 172200Z AUTO 15004KT RMK IEM_DS3505
ZBTJ,1988-05-17 22:29,ZBTJ 172229Z AUTO 15004KT RMK IEM_DS3505
ZBTJ,1988-05-17 22:32,ZBTJ 172232Z AUTO 15004KT RMK IEM_DS3505
ZBTJ,1988-05-17 23:00,ZBTJ 172300Z AUTO 16008KT RMK IEM_DS3505
ZBTJ,1988-05-17 23:20,ZBTJ 172320Z AUTO 15004KT RMK IEM_DS3505
ZBTJ,1988-05-17 23:22,ZBTJ 172322Z AUTO 15004KT RMK IEM_DS3505
ZBTJ,1988-05-17 23:29,ZBTJ 172329Z AUTO 16008KT RMK IEM_DS3505
ZBTJ,1988-05-18 00:00,ZBTJ 180000Z AUTO 17010KT RMK IEM_DS3505
ZBTJ,1988-05-18 00:31,ZBTJ 180031Z AUTO 17010KT RMK IEM_DS3505
ZBTJ,1988-05-18 01:00,ZBTJ 180100Z AUTO 18008KT RMK IEM_DS3505
ZBTJ,1988-05-18 01:30,ZBTJ 180130Z AUTO 18008KT RMK IEM_DS3505
ZBTJ,1988-05-18 02:00,ZBTJ 180200Z AUTO 18010KT RMK IEM_DS3505
ZBTJ,1988-05-18 02:29,ZBTJ 180229Z AUTO 18010KT RMK IEM_DS3505
ZBTJ,1988-05-18 04:00,ZBTJ 180400Z AUTO 19006KT RMK IEM_DS3505
ZBTJ,1988-05-18 04:30,ZBTJ 180430Z AUTO 19006KT RMK IEM_DS3505
ZBTJ,1988-05-18 05:00,ZBTJ 180500Z AUTO 18006KT RMK IEM_DS3505
ZBTJ,1988-05-18 05:30,ZBTJ 180530Z AUTO 18006KT 3SM RMK IEM_DS3505
ZBTJ,1988-05-18 06:00,ZBTJ 180600Z AUTO 15006KT RMK IEM_DS3505
ZBTJ,1988-05-18 06:06,ZBTJ 180606Z AUTO 18006KT 3SM RMK IEM_DS3505
ZBTJ,1988-05-18 06:13,ZBTJ 180613Z AUTO 18006KT RMK IEM_DS3505
ZBTJ,1988-05-18 06:31,ZBTJ 180631Z AUTO 15006KT RMK IEM_DS3505
ZBTJ,1988-05-18 06:46,ZBTJ 180646Z AUTO 15006KT RMK IEM_DS3505
ZBTJ,1988-05-18 07:00,ZBTJ 180700Z AUTO 14010KT RMK IEM_DS3505
ZBTJ,1988-05-18 07:34,ZBTJ 180734Z AUTO 14010KT RMK IEM_DS3505
ZBTJ,1988-05-18 08:00,ZBTJ 180800Z AUTO 14010KT RMK IEM_DS3505
ZBTJ,1988-05-18 08:30,ZBTJ 180830Z AUTO 14010KT RMK IEM_DS3505
ZBTJ,1988-05-18 08:31,ZBTJ 180831Z AUTO 14010KT RMK IEM_DS3505
ZBTJ,1988-05-18 08:48,ZBTJ 180848Z AUTO 16008KT RMK IEM_DS3505
ZBTJ,1988-05-18 09:00,ZBTJ 180900Z AUTO 28014KT 7SM 24/19 A2971 RMK T02400190 IEM_DS3505
ZBTJ,1988-05-18 09:30,ZBTJ 180930Z AUTO 17010KT RMK IEM_DS3505
ZBTJ,1988-05-18 09:34,ZBTJ 180934Z AUTO 28014KT 7SM 24/19 A2971 RMK T02400190 IEM_DS3505
ZBTJ,1988-05-18 09:40,ZBTJ 180940Z AUTO 28014KT 7SM 24/19 A2971 RMK T02400190 IEM_DS3505
ZBTJ,1988-05-18 09:44,ZBTJ 180944Z AUTO 28014KT 7SM 24/19 A2971 RMK T02400190 IEM_DS3505
ZBTJ,1988-05-18 09:58,ZBTJ 180958Z AUTO 18008KT RMK IEM_DS3505
ZBTJ,1988-05-18 10:00,ZBTJ 181000Z AUTO 32012KT 7SM 21/19 A2968 RMK T02100190 IEM_DS3505
ZBTJ,1988-05-18 10:17,ZBTJ 181017Z AUTO 18010KT RMK IEM_DS3505
ZBTJ,1988-05-18 10:28,ZBTJ 181028Z AUTO 32012KT 7SM 21/19 A2968 RMK T02100190 IEM_DS3505
ZBTJ,1988-05-18 10:30,ZBTJ 181030Z AUTO 32012KT 7SM 21/19 A2968 RMK T02100190 IEM_DS3505
ZBTJ,1988-05-18 10:35,ZBTJ 181035Z AUTO 19006KT RMK IEM_DS3505
ZBTJ,1988-05-18 11:00,ZBTJ 181100Z AUTO 32010KT 7SM 21/18 A2965 RMK T02100180 IEM_DS3505
ZBTJ,1988-05-18 11:26,ZBTJ 181126Z AUTO 32010KT 7SM 21/18 A2965 RMK T02100180 IEM_DS3505
ZBTJ,1988-05-18 11:29,ZBTJ 181129Z AUTO 32010KT 7SM 21/18 A2965 RMK T02100180 IEM_DS3505
ZBTJ,1988-05-18 12:00,ZBTJ 181200Z AUTO 00000KT 7SM 20/18 A2968 RMK T02000180 IEM_DS3505
ZBTJ,1988-05-18 12:27,ZBTJ 181227Z AUTO 00000KT 7SM 20/18 A2968 RMK T02000180 IEM_DS3505
ZBTJ,1988-05-18 12:30,ZBTJ 181230Z AUTO 00000KT 7SM 20/18 A2968 RMK T02000180 IEM_DS3505
ZBTJ,1988-05-18 13:00,ZBTJ 181300Z AUTO 03004KT 7SM 20/17 A2971 RMK T02000170 IEM_DS3505
ZBTJ,1988-05-18 13:26,ZBTJ 181326Z AUTO 03004KT 7SM 20/17 A2971 RMK T02000170 IEM_DS3505
ZBTJ,1988-05-18 13:29,ZBTJ 181329Z AUTO 03004KT 7SM 20/17 A2971 RMK T02000170 IEM_DS3505
ZBTJ,1988-05-18 21:00,ZBTJ 182100Z AUTO 33002KT 2 1/2SM 17/16 A2965 RMK T01700160 IEM_DS3505
ZBTJ,1988-05-18 22:00,ZBTJ 182200Z AUTO 34002KT 3SM 17/16 A2968 RMK T01700160 IEM_DS3505
ZBTJ,1988-05-18 22:27,ZBTJ 182227Z AUTO 34002KT 3SM 17/16 A2968 RMK T01700160 IEM_DS3505
ZBTJ,1988-05-18 22:30,ZBTJ 182230Z AUTO 34002KT 3SM 17/16 A2968 RMK T01700160 IEM_DS3505
ZBTJ,1988-05-19 00:00,ZBTJ 190000Z AUTO 32008KT 7SM 22/17 A2971 RMK T02200170 IEM_DS3505
ZBTJ,1988-05-19 00:27,ZBTJ 190027Z AUTO 32008KT 7SM 22/17 A2971 RMK T02200170 IEM_DS3505
ZBTJ,1988-05-19 00:30,ZBTJ 190030Z AUTO 32008KT 7SM 22/17 A2971 RMK T02200170 IEM_DS3505
ZBTJ,1988-05-19 01:00,ZBTJ 190100Z AUTO 00000KT 7SM 24/18 A2968 RMK T02400180 IEM_DS3505
ZBTJ,1988-05-19 01:30,ZBTJ 190130Z AUTO 00000KT 7SM 24/18 A2968 RMK T02400180 IEM_DS3505
ZBTJ,1988-05-19 01:31,ZBTJ 190131Z AUTO 00000KT 7SM 24/18 A2968 RMK T02400180 IEM_DS3505
ZBTJ,1988-05-19 02:00,ZBTJ 190200Z AUTO 32010KT 7SM 25/18 A2968 RMK T02500180 IEM_DS3505
ZBTJ,1988-05-19 02:27,ZBTJ 190227Z AUTO 32010KT 7SM 25/18 A2968 RMK T02500180 IEM_DS3505
ZBTJ,1988-05-19 02:34,ZBTJ 190234Z AUTO 32010KT 7SM 25/18 A2968 RMK T02500180 IEM_DS3505
ZBTJ,1988-05-19 03:00,ZBTJ 190300Z AUTO 32008KT 7SM 27/18 A2968 RMK T02700180 IEM_DS3505
ZBTJ,1988-05-19 03:31,ZBTJ 190331Z AUTO 32008KT 7SM 27/18 A2968 RMK T02700180 IEM_DS3505
ZBTJ,1988-05-19 04:00,ZBTJ 190400Z AUTO 02006KT 7SM 29/18 A2968 RMK T02900180 IEM_DS3505
ZBTJ,1988-05-19 04:27,ZBTJ 190427Z AUTO 02006KT 7SM 29/18 A2968 RMK T02900180 IEM_DS3505
ZBTJ,1988-05-19 04:30,ZBTJ 190430Z AUTO 02006KT 7SM 29/18 A2968 RMK T02900180 IEM_DS3505
ZBTJ,1988-05-19 05:00,ZBTJ 190500Z AUTO 36006KT 7SM 29/18 A2968 RMK T02900180 IEM_DS3505
ZBTJ,1988-05-19 05:31,ZBTJ 190531Z AUTO 36006KT 7SM 29/18 A2968 RMK T02900180 IEM_DS3505
ZBTJ,1988-05-19 05:32,ZBTJ 190532Z AUTO 36006KT 7SM 29/18 A2968 RMK T02900180 IEM_DS3505
ZBTJ,1988-05-19 07:00,ZBTJ 190700Z AUTO 00000KT 7SM 31/19 A2965 RMK T03100190 IEM_DS3505
ZBTJ,1988-05-19 07:25,ZBTJ 190725Z AUTO 00000KT 7SM 31/19 A2965 RMK T03100190 IEM_DS3505
ZBTJ,1988-05-19 07:28,ZBTJ 190728Z AUTO 00000KT 7SM 31/19 A2965 RMK T03100190 IEM_DS3505
ZBTJ,1988-05-19 09:00,ZBTJ 190900Z AUTO 33006KT RMK IEM_DS3505
ZBTJ,1988-05-19 09:25,ZBTJ 190925Z AUTO 33006KT RMK IEM_DS3505
ZBTJ,1988-05-19 09:31,ZBTJ 190931Z AUTO 33006KT RMK IEM_DS3505
ZBTJ,1988-05-19 10:00,ZBTJ 191000Z AUTO 01004KT RMK IEM_DS3505
ZBTJ,1988-05-19 10:30,ZBTJ 191030Z AUTO 01004KT RMK IEM_DS3505
ZBTJ,1988-05-19 11:00,ZBTJ 191100Z AUTO 15008KT RMK IEM_DS3505
ZBTJ,1988-05-19 11:25,ZBTJ 191125Z AUTO 15008KT RMK IEM_DS3505
ZBTJ,1988-05-19 11:29,ZBTJ 191129Z AUTO 15008KT RMK IEM_DS3505
ZBTJ,1988-05-19 12:00,ZBTJ 191200Z AUTO 11008KT RMK IEM_DS3505
ZBTJ,1988-05-19 12:24,ZBTJ 191224Z AUTO 11008KT RMK IEM_DS3505
ZBTJ,1988-05-19 12:27,ZBTJ 191227Z AUTO 11008KT RMK IEM_DS3505
ZBTJ,1988-05-19 13:00,ZBTJ 191300Z AUTO 10016KT 7SM 20/18 A2980 RMK T02000180 IEM_DS3505
ZBTJ,1988-05-19 13:24,ZBTJ 191324Z AUTO 10016KT 7SM 20/18 A2980 RMK T02000180 IEM_DS3505
ZBTJ,1988-05-19 13:27,ZBTJ 191327Z AUTO 10016KT 7SM 20/18 A2980 RMK T02000180 IEM_DS3505
ZBTJ,1988-05-19 14:00,ZBTJ 191400Z AUTO 10016KT RMK IEM_DS3505
ZBTJ,1988-05-19 14:25,ZBTJ 191425Z AUTO 10016KT RMK IEM_DS3505
ZBTJ,1988-05-19 14:28,ZBTJ 191428Z AUTO 10016KT RMK IEM_DS3505
ZBTJ,1988-05-19 15:00,ZBTJ 191500Z AUTO 10016KT RMK IEM_DS3505
ZBTJ,1988-05-19 15:26,ZBTJ 191526Z AUTO 10016KT RMK IEM_DS3505
ZBTJ,1988-05-19 15:28,ZBTJ 191528Z AUTO 10016KT RMK IEM_DS3505
ZBTJ,1988-05-19 21:00,ZBTJ 192100Z AUTO 10016KT 7SM 18/11 A2988 RMK T01800110 IEM_DS3505
ZBTJ,1988-05-19 21:24,ZBTJ 192124Z AUTO 10016KT 7SM 18/11 A2988 RMK T01800110 IEM_DS3505
ZBTJ,1988-05-19 21:27,ZBTJ 192127Z AUTO 10016KT 7SM 18/11 A2988 RMK T01800110 IEM_DS3505
ZBTJ,1988-05-19 22:25,ZBTJ 192225Z AUTO 10016KT 7SM 18/11 A2988 RMK T01800110 IEM_DS3505
ZBTJ,1988-05-19 22:27,ZBTJ 192227Z AUTO 10016KT 7SM 18/11 A2988 RMK T01800110 IEM_DS3505
ZBTJ,1988-05-20 00:00,ZBTJ 200000Z AUTO 09012KT RMK IEM_DS3505
ZBTJ,1988-05-20 00:30,ZBTJ 200030Z AUTO 09012KT RMK IEM_DS3505
ZBTJ,1988-05-20 00:32,ZBTJ 200032Z AUTO 09012KT RMK IEM_DS3505
ZBTJ,1988-05-20 01:00,ZBTJ 200100Z AUTO 09010KT RMK IEM_DS3505
ZBTJ,1988-05-20 01:32,ZBTJ 200132Z AUTO 09010KT RMK IEM_DS3505
ZBTJ,1988-05-20 01:35,ZBTJ 200135Z AUTO 09010KT RMK IEM_DS3505
ZBTJ,1988-05-20 02:00,ZBTJ 200200Z AUTO 08012KT RMK IEM_DS3505
ZBTJ,1988-05-20 02:33,ZBTJ 200233Z AUTO 08012KT RMK IEM_DS3505
ZBTJ,1988-05-20 02:34,ZBTJ 200234Z AUTO 08012KT RMK IEM_DS3505
ZBTJ,1988-05-20 03:00,ZBTJ 200300Z AUTO 09010KT RMK IEM_DS3505
ZBTJ,1988-05-20 03:39,ZBTJ 200339Z AUTO 09010KT RMK IEM_DS3505
ZBTJ,1988-05-20 03:53,ZBTJ 200353Z AUTO 09010KT RMK IEM_DS3505
ZBTJ,1988-05-20 04:00,ZBTJ 200400Z AUTO 00000KT 7SM 19/12 A2994 RMK T01900120 IEM_DS3505
ZBTJ,1988-05-20 04:36,ZBTJ 200436Z AUTO 00000KT 7SM 19/12 A2994 RMK T01900120 IEM_DS3505
ZBTJ,1988-05-20 04:41,ZBTJ 200441Z AUTO 00000KT 7SM 19/12 A2994 RMK T01900120 IEM_DS3505
ZBTJ,1988-05-20 05:39,ZBTJ 200539Z AUTO 25002KT RMK IEM_DS3505
ZBTJ,1988-05-20 05:47,ZBTJ 200547Z AUTO 25002KT RMK IEM_DS3505
ZBTJ,1988-05-20 06:32,ZBTJ 200632Z AUTO 00000KT RMK IEM_DS3505
ZBTJ,1988-05-20 06:34,ZBTJ 200634Z AUTO 00000KT RMK IEM_DS3505
ZBTJ,1988-05-20 07:00,ZBTJ 200700Z AUTO 25006KT 7SM 16/13 A2994 RMK T01600130 IEM_DS3505
ZBTJ,1988-05-20 07:32,ZBTJ 200732Z AUTO 25006KT 7SM 16/13 A2994 RMK T01600130 IEM_DS3505
ZBTJ,1988-05-20 07:35,ZBTJ 200735Z AUTO 25006KT 7SM 16/13 A2994 RMK T01600130 IEM_DS3505
ZBTJ,1988-05-20 08:00,ZBTJ 200800Z AUTO 25008KT 7SM 15/13 A2994 RMK T01500130 IEM_DS3505
ZBTJ,1988-05-20 08:32,ZBTJ 200832Z AUTO 25008KT 7SM 15/13 A2994 RMK T01500130 IEM_DS3505
ZBTJ,1988-05-20 08:35,ZBTJ 200835Z AUTO 25008KT 7SM 15/13 A2994 RMK T01500130 IEM_DS3505
ZBTJ,1988-05-20 09:00,ZBTJ 200900Z AUTO 29008KT 4SM 15/14 A2997 RMK T01500140 IEM_DS3505
ZBTJ,1988-05-20 09:36,ZBTJ 200936Z AUTO 29008KT 4SM 15/14 A2997 RMK T01500140 IEM_DS3505
ZBTJ,1988-05-20 10:00,ZBTJ 201000Z AUTO 32012KT 7SM 14/13 A2997 RMK T01400130 IEM_DS3505
ZBTJ,1988-05-20 10:33,ZBTJ 201033Z AUTO 32012KT 7SM 14/13 A2997 RMK T01400130 IEM_DS3505
ZBTJ,1988-05-20 10:35,ZBTJ 201035Z AUTO 32012KT 7SM 14/13 A2997 RMK T01400130 IEM_DS3505
ZBTJ,1988-05-20 11:00,ZBTJ 201100Z AUTO 34014KT 7SM 13/12 A2994 RMK T01300120 IEM_DS3505
ZBTJ,1988-05-20 11:31,ZBTJ 201131Z AUTO 34014KT 7SM 13/12 A2994 RMK T01300120 IEM_DS3505
ZBTJ,1988-05-20 11:36,ZBTJ 201136Z AUTO 34014KT 7SM 13/12 A2994 RMK T01300120 IEM_DS3505
ZBTJ,1988-05-20 12:31,ZBTJ 201231Z AUTO 34010KT 7SM 13/12 A2994 RMK T01300120 IEM_DS3505
ZBTJ,1988-05-20 12:36,ZBTJ 201236Z AUTO 34010KT 7SM 13/12 A2994 RMK T01300120 IEM_DS3505
ZBTJ,1988-05-20 13:00,ZBTJ 201300Z AUTO 33004KT 7SM 13/12 A2991 RMK T01300120 IEM_DS3505
ZBTJ,1988-05-20 13:32,ZBTJ 201332Z AUTO 33004KT 7SM 13/12 A2991 RMK T01300120 IEM_DS3505
ZBTJ,1988-05-20 13:54,ZBTJ 201354Z AUTO 33004KT 7SM 13/12 A2991 RMK T01300120 IEM_DS3505
ZBTJ,1988-05-20 21:00,ZBTJ 202100Z AUTO 27004KT 4SM 14/13 A2985 RMK T01400130 IEM_DS3505
ZBTJ,1988-05-20 21:31,ZBTJ 202131Z AUTO 27004KT 4SM 14/13 A2985 RMK T01400130 IEM_DS3505
ZBTJ,1988-05-20 21:33,ZBTJ 202133Z AUTO 27004KT 4SM 14/13 A2985 RMK T01400130 IEM_DS3505
ZBTJ,1988-05-20 22:00,ZBTJ 202200Z AUTO 27006KT 4SM 14/13 A2985 RMK T01400130 IEM_DS3505
ZBTJ,1988-05-20 22:31,ZBTJ 202231Z AUTO 27006KT 4SM 14/13 A2985 RMK T01400130 IEM_DS3505
ZBTJ,1988-05-20 22:34,ZBTJ 202234Z AUTO 27006KT 4SM 14/13 A2985 RMK T01400130 IEM_DS3505
ZBTJ,1988-05-20 23:00,ZBTJ 202300Z AUTO 26004KT 4SM 15/12 A2985 RMK T01500120 IEM_DS3505
ZBTJ,1988-05-20 23:32,ZBTJ 202332Z AUTO 26004KT 4SM 15/12 A2985 RMK T01500120 IEM_DS3505
ZBTJ,1988-05-20 23:34,ZBTJ 202334Z AUTO 26004KT 4SM 15/12 A2985 RMK T01500120 IEM_DS3505
ZBTJ,1988-05-21 00:00,ZBTJ 210000Z AUTO 30006KT 4SM 15/12 A2985 RMK T01500120 IEM_DS3505
ZBTJ,1988-05-21 00:32,ZBTJ 210032Z AUTO 30006KT 4SM 15/12 A2985 RMK T01500120 IEM_DS3505
ZBTJ,1988-05-21 00:35,ZBTJ 210035Z AUTO 30006KT 4SM 15/12 A2985 RMK T01500120 IEM_DS3505
ZBTJ,1988-05-21 01:00,ZBTJ 210100Z AUTO 28002KT 4SM 16/12 A2985 RMK T01600120 IEM_DS3505
ZBTJ,1988-05-21 01:32,ZBTJ 210132Z AUTO 28002KT 4SM 16/12 A2985 RMK T01600120 IEM_DS3505
ZBTJ,1988-05-21 01:35,ZBTJ 210135Z AUTO 28002KT 4SM 16/12 A2985 RMK T01600120 IEM_DS3505
ZBTJ,1988-05-21 01:37,ZBTJ 210137Z AUTO 28002KT 4SM 16/12 A2985 RMK T01600120 IEM_DS3505
ZBTJ,1988-05-21 02:02,ZBTJ 210202Z AUTO 28002KT 4SM 16/12 A2985 RMK T01600120 IEM_DS3505
ZBTJ,1988-05-21 02:32,ZBTJ 210232Z AUTO 29004KT 5SM 16/12 A2985 RMK T01600120 IEM_DS3505
ZBTJ,1988-05-21 02:35,ZBTJ 210235Z AUTO 29004KT 5SM 16/12 A2985 RMK T01600120 IEM_DS3505
ZBTJ,1988-05-21 03:00,ZBTJ 210300Z AUTO 30008KT 7SM 16/12 A2985 RMK T01600120 IEM_DS3505
ZBTJ,1988-05-21 03:32,ZBTJ 210332Z AUTO 30008KT 7SM 16/12 A2985 RMK T01600120 IEM_DS3505
ZBTJ,1988-05-21 03:35,ZBTJ 210335Z AUTO 30008KT 7SM 16/12 A2985 RMK T01600120 IEM_DS3505
ZBTJ,1988-05-21 04:00,ZBTJ 210400Z AUTO 31012KT 7SM 16/13 A2983 RMK T01600130 IEM_DS3505
ZBTJ,1988-05-21 04:32,ZBTJ 210432Z AUTO 31012KT 7SM 16/13 A2983 RMK T01600130 IEM_DS3505
ZBTJ,1988-05-21 04:35,ZBTJ 210435Z AUTO 31012KT 7SM 16/13 A2983 RMK T01600130 IEM_DS3505
ZBTJ,1988-05-21 05:32,ZBTJ 210532Z AUTO 30010KT RMK IEM_DS3505
ZBTJ,1988-05-21 05:35,ZBTJ 210535Z AUTO 30010KT RMK IEM_DS3505
ZBTJ,1988-05-21 06:00,ZBTJ 210600Z AUTO 30010KT RMK IEM_DS3505
ZBTJ,1988-05-21 06:32,ZBTJ 210632Z AUTO 30010KT RMK IEM_DS3505
ZBTJ,1988-05-21 06:36,ZBTJ 210636Z AUTO 30010KT RMK IEM_DS3505
ZBTJ,1988-05-21 07:34,ZBTJ 210734Z AUTO 29008KT RMK IEM_DS3505
ZBTJ,1988-05-21 07:36,ZBTJ 210736Z AUTO 29008KT RMK IEM_DS3505
ZBTJ,1988-05-21 08:00,ZBTJ 210800Z AUTO 30008KT RMK IEM_DS3505
ZBTJ,1988-05-21 08:31,ZBTJ 210831Z AUTO 30008KT RMK IEM_DS3505
ZBTJ,1988-05-21 08:34,ZBTJ 210834Z AUTO 30008KT RMK IEM_DS3505
ZBTJ,1988-05-21 09:00,ZBTJ 210900Z AUTO 30004KT RMK IEM_DS3505
ZBTJ,1988-05-21 09:32,ZBTJ 210932Z AUTO 30004KT RMK IEM_DS3505
ZBTJ,1988-05-21 09:39,ZBTJ 210939Z AUTO 30004KT RMK IEM_DS3505
ZBTJ,1988-05-21 10:00,ZBTJ 211000Z AUTO 29004KT RMK IEM_DS3505
ZBTJ,1988-05-21 10:32,ZBTJ 211032Z AUTO 29004KT RMK IEM_DS3505
ZBTJ,1988-05-21 10:35,ZBTJ 211035Z AUTO 29004KT RMK IEM_DS3505
ZBTJ,1988-05-21 11:00,ZBTJ 211100Z AUTO 27004KT 4SM 17/13 A2977 RMK T01700130 IEM_DS3505
ZBTJ,1988-05-21 11:32,ZBTJ 211132Z AUTO 27004KT 4SM 17/13 A2977 RMK T01700130 IEM_DS3505
ZBTJ,1988-05-21 11:34,ZBTJ 211134Z AUTO 27004KT 4SM 17/13 A2977 RMK T01700130 IEM_DS3505
ZBTJ,1988-05-21 12:00,ZBTJ 211200Z AUTO 26004KT 4SM 16/13 A2977 RMK T01600130 IEM_DS3505
ZBTJ,1988-05-21 12:32,ZBTJ 211232Z AUTO 26004KT 4SM 16/13 A2977 RMK T01600130 IEM_DS3505
ZBTJ,1988-05-21 12:35,ZBTJ 211235Z AUTO 26004KT 4SM 16/13 A2977 RMK T01600130 IEM_DS3505
ZBTJ,1988-05-21 13:00,ZBTJ 211300Z AUTO 26006KT 4SM 15/13 A2977 RMK T01500130 IEM_DS3505
ZBTJ,1988-05-21 13:25,ZBTJ 211325Z AUTO 26006KT 4SM 15/13 A2977 RMK T01500130 IEM_DS3505
ZBTJ,1988-05-21 13:28,ZBTJ 211328Z AUTO 26006KT 4SM 15/13 A2977 RMK T01500130 IEM_DS3505
ZBTJ,1988-05-21 20:00,ZBTJ 212000Z AUTO 28004KT 2 1/2SM 12/10 A2971 RMK T01200100 IEM_DS3505
ZBTJ,1988-05-21 20:24,ZBTJ 212024Z AUTO 28004KT 2 1/2SM 12/10 A2971 RMK T01200100 IEM_DS3505
ZBTJ,1988-05-21 20:27,ZBTJ 212027Z AUTO 28004KT 2 1/2SM 12/10 A2971 RMK T01200100 IEM_DS3505
ZBTJ,1988-05-21 21:00,ZBTJ 212100Z AUTO 28004KT 2 1/2SM 12/10 A2971 RMK T01200100 IEM_DS3505
ZBTJ,1988-05-21 21:25,ZBTJ 212125Z AUTO 28004KT 2 1/2SM 12/10 A2971 RMK T01200100 IEM_DS3505
ZBTJ,1988-05-21 21:33,ZBTJ 212133Z AUTO 28004KT 2 1/2SM 12/10 A2971 RMK T01200100 IEM_DS3505
ZBTJ,1988-05-21 22:00,ZBTJ 212200Z AUTO 27004KT 2 1/2SM 12/10 A2968 RMK T01200100 IEM_DS3505
ZBTJ,1988-05-21 22:25,ZBTJ 212225Z AUTO 27004KT 2 1/2SM 12/10 A2968 RMK T01200100 IEM_DS3505
ZBTJ,1988-05-21 22:28,ZBTJ 212228Z AUTO 27004KT 2 1/2SM 12/10 A2968 RMK T01200100 IEM_DS3505
ZBTJ,1988-05-21 23:00,ZBTJ 212300Z AUTO 32004KT 2SM 14/11 A2968 RMK T01400110 IEM_DS3505
ZBTJ,1988-05-21 23:25,ZBTJ 212325Z AUTO 32004KT 2SM 14/11 A2968 RMK T01400110 IEM_DS3505
ZBTJ,1988-05-21 23:28,ZBTJ 212328Z AUTO 32004KT 2SM 14/11 A2968 RMK T01400110 IEM_DS3505
ZBTJ,1988-05-22 00:00,ZBTJ 220000Z AUTO 31008KT RMK IEM_DS3505
ZBTJ,1988-05-22 00:25,ZBTJ 220025Z AUTO 31008KT RMK IEM_DS3505
ZBTJ,1988-05-22 00:27,ZBTJ 220027Z AUTO 31008KT RMK IEM_DS3505
ZBTJ,1988-05-22 02:00,ZBTJ 220200Z AUTO 29012KT RMK IEM_DS3505
ZBTJ,1988-05-22 02:25,ZBTJ 220225Z AUTO 29012KT RMK IEM_DS3505
ZBTJ,1988-05-22 02:26,ZBTJ 220226Z AUTO 29012KT RMK IEM_DS3505
ZBTJ,1988-05-22 03:00,ZBTJ 220300Z AUTO 27010KT RMK IEM_DS3505
ZBTJ,1988-05-22 03:28,ZBTJ 220328Z AUTO 27010KT RMK IEM_DS3505
ZBTJ,1988-05-22 03:29,ZBTJ 220329Z AUTO 27010KT RMK IEM_DS3505
ZBTJ,1988-05-22 04:00,ZBTJ 220400Z AUTO 31008KT RMK IEM_DS3505
ZBTJ,1988-05-22 04:29,ZBTJ 220429Z AUTO 31008KT RMK IEM_DS3505
ZBTJ,1988-05-22 04:32,ZBTJ 220432Z AUTO 31008KT RMK IEM_DS3505
ZBTJ,1988-05-22 07:00,ZBTJ 220700Z AUTO 30008KT 7SM 24/09 A2968 RMK T02400090 IEM_DS3505
ZBTJ,1988-05-22 07:25,ZBTJ 220725Z AUTO 30008KT 7SM 24/09 A2968 RMK T02400090 IEM_DS3505
ZBTJ,1988-05-22 07:28,ZBTJ 220728Z AUTO 30008KT 7SM 24/09 A2968 RMK T02400090 IEM_DS3505
ZBTJ,1988-05-22 08:25,ZBTJ 220825Z AUTO 00000KT 7SM 24/09 A2965 RMK T02400090 IEM_DS3505
ZBTJ,1988-05-22 08:28,ZBTJ 220828Z AUTO 00000KT 7SM 24/09 A2965 RMK T02400090 IEM_DS3505
ZBTJ,1988-05-22 09:00,ZBTJ 220900Z AUTO 03006KT 7SM 24/08 A2965 RMK T02400080 IEM_DS3505
ZBTJ,1988-05-22 09:26,ZBTJ 220926Z AUTO 03006KT 7SM 24/08 A2965 RMK T02400080 IEM_DS3505
ZBTJ,1988-05-22 09:29,ZBTJ 220929Z AUTO 03006KT 7SM 24/08 A2965 RMK T02400080 IEM_DS3505
ZBTJ,1988-05-22 10:00,ZBTJ 221000Z AUTO 00000KT 7SM 24/10 A2965 RMK T02400100 IEM_DS3505
ZBTJ,1988-05-22 10:26,ZBTJ 221026Z AUTO 00000KT 7SM 24/10 A2965 RMK T02400100 IEM_DS3505
ZBTJ,1988-05-22 10:29,ZBTJ 221029Z AUTO 00000KT 7SM 24/10 A2965 RMK T02400100 IEM_DS3505
ZBTJ,1988-05-22 11:00,ZBTJ 221100Z AUTO 00000KT 7SM 22/11 A2968 RMK T02200110 IEM_DS3505
ZBTJ,1988-05-22 11:25,ZBTJ 221125Z AUTO 00000KT 7SM 22/11 A2968 RMK T02200110 IEM_DS3505
ZBTJ,1988-05-22 11:30,ZBTJ 221130Z AUTO 00000KT 7SM 22/11 A2968 RMK T02200110 IEM_DS3505
ZBTJ,1988-05-22 12:00,ZBTJ 221200Z AUTO 15004KT RMK IEM_DS3505
ZBTJ,1988-05-22 12:25,ZBTJ 221225Z AUTO 15004KT RMK IEM_DS3505
ZBTJ,1988-05-22 12:28,ZBTJ 221228Z AUTO 15004KT RMK IEM_DS3505
ZBTJ,1988-05-22 13:00,ZBTJ 221300Z AUTO 15008KT RMK IEM_DS3505
ZBTJ,1988-05-22 13:24,ZBTJ 221324Z AUTO 15008KT RMK IEM_DS3505
ZBTJ,1988-05-22 13:28,ZBTJ 221328Z AUTO 15008KT RMK IEM_DS3505
ZBTJ,1988-05-22 14:00,ZBTJ 221400Z AUTO 19006KT 7SM 17/12 A2971 RMK T01700120 IEM_DS3505
ZBTJ,1988-05-22 14:24,ZBTJ 221424Z AUTO 19006KT 7SM 17/12 A2971 RMK T01700120 IEM_DS3505
ZBTJ,1988-05-22 14:27,ZBTJ 221427Z AUTO 19006KT 7SM 17/12 A2971 RMK T01700120 IEM_DS3505
ZBTJ,1988-05-22 21:00,ZBTJ 222100Z AUTO 20008KT RMK IEM_DS3505
ZBTJ,1988-05-22 21:25,ZBTJ 222125Z AUTO 20008KT RMK IEM_DS3505
ZBTJ,1988-05-22 21:29,ZBTJ 222129Z AUTO 20008KT RMK IEM_DS3505
ZBTJ,1988-05-22 22:00,ZBTJ 222200Z AUTO 00000KT 4SM 15/11 A2971 RMK T01500110 IEM_DS3505
ZBTJ,1988-05-22 22:25,ZBTJ 222225Z AUTO 00000KT 4SM 15/11 A2971 RMK T01500110 IEM_DS3505
ZBTJ,1988-05-22 22:27,ZBTJ 222227Z AUTO 00000KT 4SM 15/11 A2971 RMK T01500110 IEM_DS3505
ZBTJ,1988-05-22 23:00,ZBTJ 222300Z AUTO 17006KT 2 1/2SM 16/12 A2971 RMK T01600120 IEM_DS3505
ZBTJ,1988-05-22 23:24,ZBTJ 222324Z AUTO 17006KT 2 1/2SM 16/12 A2971 RMK T01600120 IEM_DS3505
ZBTJ,1988-05-22 23:27,ZBTJ 222327Z AUTO 17006KT 2 1/2SM 16/12 A2971 RMK T01600120 IEM_DS3505
ZBTJ,1988-05-23 00:00,ZBTJ 230000Z AUTO 15004KT 2SM 19/14 A2971 RMK T01900140 IEM_DS3505
ZBTJ,1988-05-23 00:25,ZBTJ 230025Z AUTO 15004KT 2SM 19/14 A2971 RMK T01900140 IEM_DS3505
ZBTJ,1988-05-23 00:29,ZBTJ 230029Z AUTO 15004KT 2SM 19/14 A2971 RMK T01900140 IEM_DS3505
ZBTJ,1988-05-23 01:00,ZBTJ 230100Z AUTO 17008KT 4SM 20/14 A2968 RMK T02000140 IEM_DS3505
ZBTJ,1988-05-23 01:24,ZBTJ 230124Z AUTO 17008KT 4SM 20/14 A2968 RMK T02000140 IEM_DS3505
ZBTJ,1988-05-23 01:27,ZBTJ 230127Z AUTO 17008KT 4SM 20/14 A2968 RMK T02000140 IEM_DS3505
ZBTJ,1988-05-23 02:00,ZBTJ 230200Z AUTO 16010KT RMK IEM_DS3505
ZBTJ,1988-05-23 02:29,ZBTJ 230229Z AUTO 16010KT RMK IEM_DS3505
ZBTJ,1988-05-23 03:00,ZBTJ 230300Z AUTO 06006KT 5SM 19/16 A2971 RMK T01900160 IEM_DS3505
ZBTJ,1988-05-23 03:25,ZBTJ 230325Z AUTO 06006KT 5SM 19/16 A2971 RMK T01900160 IEM_DS3505
ZBTJ,1988-05-23 03:27,ZBTJ 230327Z AUTO 06006KT 5SM 19/16 A2971 RMK T01900160 IEM_DS3505
ZBTJ,1988-05-23 04:00,ZBTJ 230400Z AUTO 10006KT 2SM 18/16 A2971 RMK T01800160 IEM_DS3505
ZBTJ,1988-05-23 04:27,ZBTJ 230427Z AUTO 10006KT 2SM 18/16 A2971 RMK T01800160 IEM_DS3505
ZBTJ,1988-05-23 04:28,ZBTJ 230428Z AUTO 10006KT 2SM 18/16 A2971 RMK T01800160 IEM_DS3505
ZBTJ,1988-05-23 05:00,ZBTJ 230500Z AUTO 10014KT 5SM 19/17 A2968 RMK T01900170 IEM_DS3505
ZBTJ,1988-05-23 05:26,ZBTJ 230526Z AUTO 10014KT 5SM 19/17 A2968 RMK T01900170 IEM_DS3505
ZBTJ,1988-05-23 05:30,ZBTJ 230530Z AUTO 10014KT 5SM 19/17 A2968 RMK T01900170 IEM_DS3505
ZBTJ,1988-05-23 06:00,ZBTJ 230600Z AUTO 12014KT RMK IEM_DS3505
ZBTJ,1988-05-23 06:26,ZBTJ 230626Z AUTO 12014KT RMK IEM_DS3505
ZBTJ,1988-05-23 06:29,ZBTJ 230629Z AUTO 12014KT RMK IEM_DS3505
ZBTJ,1988-05-23 07:00,ZBTJ 230700Z AUTO 12014KT RMK IEM_DS3505
ZBTJ,1988-05-23 07:27,ZBTJ 230727Z AUTO 12014KT RMK IEM_DS3505
ZBTJ,1988-05-23 07:30,ZBTJ 230730Z AUTO 12014KT RMK IEM_DS3505
ZBTJ,1988-05-23 08:00,ZBTJ 230800Z AUTO 13016KT RMK IEM_DS3505
ZBTJ,1988-05-23 08:25,ZBTJ 230825Z AUTO 13016KT RMK IEM_DS3505
ZBTJ,1988-05-23 08:28,ZBTJ 230828Z AUTO 13016KT RMK IEM_DS3505
ZBTJ,1988-05-23 09:00,ZBTJ 230900Z AUTO 12012KT 7SM 20/15 A2962 RMK T02000150 IEM_DS3505
ZBTJ,1988-05-23 09:25,ZBTJ 230925Z AUTO 12012KT 7SM 20/15 A2962 RMK T02000150 IEM_DS3505
ZBTJ,1988-05-23 09:28,ZBTJ 230928Z AUTO 12012KT 7SM 20/15 A2962 RMK T02000150 IEM_DS3505
ZBTJ,1988-05-23 10:00,ZBTJ 231000Z AUTO 14016KT 7SM 18/14 A2956 RMK T01800140 IEM_DS3505
ZBTJ,1988-05-23 10:29,ZBTJ 231029Z AUTO 14016KT 7SM 18/14 A2956 RMK T01800140 IEM_DS3505
ZBTJ,1988-05-23 10:30,ZBTJ 231030Z AUTO 14016KT 7SM 18/14 A2956 RMK T01800140 IEM_DS3505
ZBTJ,1988-05-23 11:00,ZBTJ 231100Z AUTO 13010KT RMK IEM_DS3505
ZBTJ,1988-05-23 11:26,ZBTJ 231126Z AUTO 13010KT RMK IEM_DS3505
ZBTJ,1988-05-23 11:28,ZBTJ 231128Z AUTO 13010KT RMK IEM_DS3505
ZBTJ,1988-05-23 12:00,ZBTJ 231200Z AUTO 15004KT 7SM A2962 RMK IEM_DS3505
ZBTJ,1988-05-23 12:24,ZBTJ 231224Z AUTO 15004KT 7SM A2962 RMK IEM_DS3505
ZBTJ,1988-05-23 12:27,ZBTJ 231227Z AUTO 15004KT 7SM A2962 RMK IEM_DS3505
ZBTJ,1988-05-23 13:00,ZBTJ 231300Z AUTO 13008KT 4SM 17/15 A2962 RMK T01700150 IEM_DS3505
ZBTJ,1988-05-23 13:25,ZBTJ 231325Z AUTO 13008KT 4SM 17/15 A2962 RMK T01700150 IEM_DS3505
ZBTJ,1988-05-23 13:28,ZBTJ 231328Z AUTO 13008KT 4SM 17/15 A2962 RMK T01700150 IEM_DS3505
ZBTJ,1988-05-23 22:00,ZBTJ 232200Z AUTO 15004KT 1SM 16/15 A2962 RMK T01600150 IEM_DS3505
ZBTJ,1988-05-23 22:25,ZBTJ 232225Z AUTO 15004KT 1SM 16/15 A2962 RMK T01600150 IEM_DS3505
ZBTJ,1988-05-23 22:28,ZBTJ 232228Z AUTO 15004KT 1SM 16/15 A2962 RMK T01600150 IEM_DS3505
ZBTJ,1988-05-23 23:00,ZBTJ 232300Z AUTO 36004KT 1SM 18/17 A2965 RMK T01800170 IEM_DS3505
ZBTJ,1988-05-23 23:25,ZBTJ 232325Z AUTO 36004KT 1SM 18/17 A2965 RMK T01800170 IEM_DS3505
ZBTJ,1988-05-23 23:28,ZBTJ 232328Z AUTO 36004KT 1SM 18/17 A2965 RMK T01800170 IEM_DS3505
ZBTJ,1988-05-24 00:00,ZBTJ 240000Z AUTO 33008KT 1 1/4SM 17/15 A2968 RMK T01700150 IEM_DS3505
ZBTJ,1988-05-24 00:27,ZBTJ 240027Z AUTO 33008KT 1 1/4SM 17/15 A2968 RMK T01700150 IEM_DS3505
ZBTJ,1988-05-24 00:30,ZBTJ 240030Z AUTO 33008KT 1 1/4SM 17/15 A2968 RMK T01700150 IEM_DS3505
ZBTJ,1988-05-24 01:00,ZBTJ 240100Z AUTO 34008KT 2SM 19/16 A2968 RMK T01900160 IEM_DS3505
ZBTJ,1988-05-24 01:28,ZBTJ 240128Z AUTO 34008KT 2SM 19/16 A2968 RMK T01900160 IEM_DS3505
ZBTJ,1988-05-24 01:30,ZBTJ 240130Z AUTO 34008KT 2SM 19/16 A2968 RMK T01900160 IEM_DS3505
ZBTJ,1988-05-24 02:00,ZBTJ 240200Z AUTO 33008KT 3SM 21/17 A2971 RMK T02100170 IEM_DS3505
ZBTJ,1988-05-24 02:25,ZBTJ 240225Z AUTO 33008KT 3SM 21/17 A2971 RMK T02100170 IEM_DS3505
ZBTJ,1988-05-24 02:28,ZBTJ 240228Z AUTO 33008KT 3SM 21/17 A2971 RMK T02100170 IEM_DS3505
ZBTJ,1988-05-24 03:00,ZBTJ 240300Z AUTO 01008KT 4SM 23/18 A2974 RMK T02300180 IEM_DS3505
ZBTJ,1988-05-24 03:29,ZBTJ 240329Z AUTO 01008KT 4SM 23/18 A2974 RMK T02300180 IEM_DS3505
ZBTJ,1988-05-24 03:31,ZBTJ 240331Z AUTO 01008KT 4SM 23/18 A2974 RMK T02300180 IEM_DS3505
ZBTJ,1988-05-24 04:00,ZBTJ 240400Z AUTO 35014KT 7SM 24/16 A2977 RMK T02400160 IEM_DS3505
ZBTJ,1988-05-24 04:07,ZBTJ 240407Z AUTO 15004KT 1SM RMK IEM_DS3505
ZBTJ,1988-05-24 04:26,ZBTJ 240426Z AUTO 35014KT 7SM 24/16 A2977 RMK T02400160 IEM_DS3505
ZBTJ,1988-05-24 04:28,ZBTJ 240428Z AUTO 35014KT 7SM 24/16 A2977 RMK T02400160 IEM_DS3505
ZBTJ,1988-05-24 05:00,ZBTJ 240500Z AUTO 36012KT 7SM 24/15 A2974 RMK T02400150 IEM_DS3505
ZBTJ,1988-05-24 05:25,ZBTJ 240525Z AUTO 36012KT 7SM 24/15 A2974 RMK T02400150 IEM_DS3505
ZBTJ,1988-05-24 05:28,ZBTJ 240528Z AUTO 36012KT 7SM 24/15 A2974 RMK T02400150 IEM_DS3505
ZBTJ,1988-05-24 06:00,ZBTJ 240600Z AUTO 35014KT 7SM 25/15 A2977 RMK T02500150 IEM_DS3505
ZBTJ,1988-05-24 06:25,ZBTJ 240625Z AUTO 35014KT 7SM 25/15 A2977 RMK T02500150 IEM_DS3505
ZBTJ,1988-05-24 06:28,ZBTJ 240628Z AUTO 35014KT 7SM 25/15 A2977 RMK T02500150 IEM_DS3505
ZBTJ,1988-05-24 07:00,ZBTJ 240700Z AUTO 33012KT RMK IEM_DS3505
ZBTJ,1988-05-24 07:25,ZBTJ 240725Z AUTO 33012KT RMK IEM_DS3505
ZBTJ,1988-05-24 07:27,ZBTJ 240727Z AUTO 33012KT RMK IEM_DS3505
ZBTJ,1988-05-24 09:00,ZBTJ 240900Z AUTO 34012KT RMK IEM_DS3505
ZBTJ,1988-05-24 09:25,ZBTJ 240925Z AUTO 34012KT RMK IEM_DS3505
ZBTJ,1988-05-24 09:27,ZBTJ 240927Z AUTO 34012KT RMK IEM_DS3505
ZBTJ,1988-05-24 10:00,ZBTJ 241000Z AUTO 35006KT RMK IEM_DS3505
ZBTJ,1988-05-24 10:26,ZBTJ 241026Z AUTO 35006KT RMK IEM_DS3505
ZBTJ,1988-05-24 10:29,ZBTJ 241029Z AUTO 35006KT RMK IEM_DS3505
ZBTJ,1988-05-24 11:00,ZBTJ 241100Z AUTO 13006KT RMK IEM_DS3505
ZBTJ,1988-05-24 11:25,ZBTJ 241125Z AUTO 13006KT RMK IEM_DS3505
ZBTJ,1988-05-24 11:29,ZBTJ 241129Z AUTO 13006KT RMK IEM_DS3505
ZBTJ,1988-05-24 12:00,ZBTJ 241200Z AUTO 14008KT RMK IEM_DS3505
ZBTJ,1988-05-24 12:25,ZBTJ 241225Z AUTO 14008KT RMK IEM_DS3505
ZBTJ,1988-05-24 12:28,ZBTJ 241228Z AUTO 14008KT RMK IEM_DS3505
ZBTJ,1988-05-24 13:00,ZBTJ 241300Z AUTO 14008KT RMK IEM_DS3505
ZBTJ,1988-05-24 13:25,ZBTJ 241325Z AUTO 14008KT RMK IEM_DS3505
ZBTJ,1988-05-24 13:27,ZBTJ 241327Z AUTO 14008KT RMK IEM_DS3505
ZBTJ,1988-05-24 21:00,ZBTJ 242100Z AUTO 04004KT RMK IEM_DS3505
ZBTJ,1988-05-24 21:25,ZBTJ 242125Z AUTO 04004KT RMK IEM_DS3505
ZBTJ,1988-05-24 21:28,ZBTJ 242128Z AUTO 04004KT RMK IEM_DS3505
ZBTJ,1988-05-24 22:00,ZBTJ 242200Z AUTO 36006KT 2 1/2SM 12/12 A3000 RMK T01200120 IEM_DS3505
ZBTJ,1988-05-24 22:36,ZBTJ 242236Z AUTO 36006KT 2 1/2SM 12/12 A3000 RMK T01200120 IEM_DS3505
ZBTJ,1988-05-24 23:00,ZBTJ 242300Z AUTO 03006KT 2 1/2SM 15/13 A3000 RMK T01500130 IEM_DS3505
ZBTJ,1988-05-24 23:25,ZBTJ 242325Z AUTO 03006KT 2 1/2SM 15/13 A3000 RMK T01500130 IEM_DS3505
ZBTJ,1988-05-24 23:28,ZBTJ 242328Z AUTO 03006KT 2 1/2SM 15/13 A3000 RMK T01500130 IEM_DS3505
ZBTJ,1988-05-25 00:00,ZBTJ 250000Z AUTO 04004KT 4SM 17/13 A3003 RMK T01700130 IEM_DS3505
ZBTJ,1988-05-25 00:25,ZBTJ 250025Z AUTO 04004KT 4SM 17/13 A3003 RMK T01700130 IEM_DS3505
ZBTJ,1988-05-25 00:28,ZBTJ 250028Z AUTO 04004KT 4SM 17/13 A3003 RMK T01700130 IEM_DS3505
ZBTJ,1988-05-25 01:00,ZBTJ 250100Z AUTO 07006KT 7SM 20/14 A3003 RMK T02000140 IEM_DS3505
ZBTJ,1988-05-25 01:26,ZBTJ 250126Z AUTO 07006KT 7SM 20/14 A3003 RMK T02000140 IEM_DS3505
ZBTJ,1988-05-25 01:31,ZBTJ 250131Z AUTO 07006KT 7SM 20/14 A3003 RMK T02000140 IEM_DS3505
ZBTJ,1988-05-25 02:00,ZBTJ 250200Z AUTO 10008KT 7SM 21/12 A3003 RMK T02100120 IEM_DS3505
ZBTJ,1988-05-25 02:26,ZBTJ 250226Z AUTO 10008KT 7SM 21/12 A3003 RMK T02100120 IEM_DS3505
ZBTJ,1988-05-25 02:31,ZBTJ 250231Z AUTO 10008KT 7SM 21/12 A3003 RMK T02100120 IEM_DS3505
ZBTJ,1988-05-25 03:30,ZBTJ 250330Z AUTO 12008KT 7SM 23/14 A3003 RMK T02300140 IEM_DS3505
ZBTJ,1988-05-25 04:00,ZBTJ 250400Z AUTO 12010KT 7SM 24/13 A3000 RMK T02400130 IEM_DS3505
ZBTJ,1988-05-25 06:00,ZBTJ 250600Z AUTO 11010KT RMK IEM_DS3505
ZBTJ,1988-05-25 06:23,ZBTJ 250623Z AUTO 11010KT RMK IEM_DS3505
ZBTJ,1988-05-25 06:25,ZBTJ 250625Z AUTO 11010KT RMK IEM_DS3505
ZBTJ,1988-05-25 07:00,ZBTJ 250700Z AUTO 13008KT RMK IEM_DS3505
ZBTJ,1988-05-25 07:23,ZBTJ 250723Z AUTO 13008KT RMK IEM_DS3505
ZBTJ,1988-05-25 07:27,ZBTJ 250727Z AUTO 13008KT RMK IEM_DS3505
ZBTJ,1988-05-25 08:00,ZBTJ 250800Z AUTO 12010KT RMK IEM_DS3505
ZBTJ,1988-05-25 08:23,ZBTJ 250823Z AUTO 12010KT RMK IEM_DS3505
ZBTJ,1988-05-25 08:26,ZBTJ 250826Z AUTO 12010KT RMK IEM_DS3505
ZBTJ,1988-05-25 09:00,ZBTJ 250900Z AUTO 12010KT RMK IEM_DS3505
ZBTJ,1988-05-25 09:22,ZBTJ 250922Z AUTO 12010KT RMK IEM_DS3505
ZBTJ,1988-05-25 09:28,ZBTJ 250928Z AUTO 12010KT RMK IEM_DS3505
ZBTJ,1988-05-25 10:00,ZBTJ 251000Z AUTO 12012KT RMK IEM_DS3505
ZBTJ,1988-05-25 10:23,ZBTJ 251023Z AUTO 12012KT RMK IEM_DS3505
ZBTJ,1988-05-25 10:24,ZBTJ 251024Z AUTO 12012KT RMK IEM_DS3505
ZBTJ,1988-05-25 11:00,ZBTJ 251100Z AUTO 12012KT RMK IEM_DS3505
ZBTJ,1988-05-25 11:22,ZBTJ 251122Z AUTO 12012KT RMK IEM_DS3505
ZBTJ,1988-05-25 11:27,ZBTJ 251127Z AUTO 12012KT RMK IEM_DS3505
ZBTJ,1988-05-25 12:00,ZBTJ 251200Z AUTO 12010KT 4SM 15/13 A2988 RMK T01500130 IEM_DS3505
ZBTJ,1988-05-25 12:23,ZBTJ 251223Z AUTO 12010KT 4SM 15/13 A2988 RMK T01500130 IEM_DS3505
ZBTJ,1988-05-25 12:25,ZBTJ 251225Z AUTO 12010KT 4SM 15/13 A2988 RMK T01500130 IEM_DS3505
ZBTJ,1988-05-25 13:00,ZBTJ 251300Z AUTO 12010KT 2SM 14/13 A2988 RMK T01400130 IEM_DS3505
ZBTJ,1988-05-25 13:31,ZBTJ 251331Z AUTO 12010KT 2SM 14/13 A2988 RMK T01400130 IEM_DS3505
ZBTJ,1988-05-25 13:34,ZBTJ 251334Z AUTO 12010KT 2SM 14/13 A2988 RMK T01400130 IEM_DS3505
ZBTJ,1988-05-25 21:00,ZBTJ 252100Z AUTO 08002KT 1SM 14/13 A2977 RMK T01400130 IEM_DS3505
ZBTJ,1988-05-25 21:22,ZBTJ 252122Z AUTO 08002KT 1SM 14/13 A2977 RMK T01400130 IEM_DS3505
ZBTJ,1988-05-25 21:25,ZBTJ 252125Z AUTO 08002KT 1SM 14/13 A2977 RMK T01400130 IEM_DS3505
ZBTJ,1988-05-25 22:00,ZBTJ 252200Z AUTO 03004KT 4SM 14/14 A2977 RMK T01400140 IEM_DS3505
ZBTJ,1988-05-25 22:22,ZBTJ 252222Z AUTO 03004KT 4SM 14/14 A2977 RMK T01400140 IEM_DS3505
ZBTJ,1988-05-25 22:25,ZBTJ 252225Z AUTO 03004KT 4SM 14/14 A2977 RMK T01400140 IEM_DS3505
ZBTJ,1988-05-25 23:00,ZBTJ 252300Z AUTO 13006KT 1 1/2SM 16/15 A2974 RMK T01600150 IEM_DS3505
ZBTJ,1988-05-25 23:22,ZBTJ 252322Z AUTO 13006KT 1 1/2SM 16/15 A2974 RMK T01600150 IEM_DS3505
ZBTJ,1988-05-25 23:25,ZBTJ 252325Z AUTO 13006KT 1 1/2SM 16/15 A2974 RMK T01600150 IEM_DS3505
ZBTJ,1988-05-26 00:00,ZBTJ 260000Z AUTO 00000KT 3SM 17/15 A2977 RMK T01700150 IEM_DS3505
ZBTJ,1988-05-26 00:23,ZBTJ 260023Z AUTO 00000KT 3SM 17/15 A2977 RMK T01700150 IEM_DS3505
ZBTJ,1988-05-26 00:26,ZBTJ 260026Z AUTO 00000KT 3SM 17/15 A2977 RMK T01700150 IEM_DS3505
ZBTJ,1988-05-26 01:00,ZBTJ 260100Z AUTO 33017KT 2SM 15/14 A2983 RMK T01500140 IEM_DS3505
ZBTJ,1988-05-26 01:23,ZBTJ 260123Z AUTO 33017KT 2SM 15/14 A2983 RMK T01500140 IEM_DS3505
ZBTJ,1988-05-26 01:26,ZBTJ 260126Z AUTO 33017KT 2SM 15/14 A2983 RMK T01500140 IEM_DS3505
ZBTJ,1988-05-26 02:00,ZBTJ 260200Z AUTO 33010KT 2SM 14/13 A2983 RMK T01400130 IEM_DS3505
ZBTJ,1988-05-26 02:23,ZBTJ 260223Z AUTO 33010KT 2SM 14/13 A2983 RMK T01400130 IEM_DS3505
ZBTJ,1988-05-26 02:26,ZBTJ 260226Z AUTO 33010KT 2SM 14/13 A2983 RMK T01400130 IEM_DS3505
ZBTJ,1988-05-26 03:00,ZBTJ 260300Z AUTO 06006KT 1 1/2SM 15/14 A2980 RMK T01500140 IEM_DS3505
ZBTJ,1988-05-26 03:25,ZBTJ 260325Z AUTO 06006KT 1 1/2SM 15/14 A2980 RMK T01500140 IEM_DS3505
ZBTJ,1988-05-26 03:28,ZBTJ 260328Z AUTO 06006KT 1 1/2SM 15/14 A2980 RMK T01500140 IEM_DS3505
ZBTJ,1988-05-26 04:00,ZBTJ 260400Z AUTO 33006KT 2 1/2SM 16/14 A2980 RMK T01600140 IEM_DS3505
ZBTJ,1988-05-26 04:27,ZBTJ 260427Z AUTO 33006KT 2 1/2SM 16/14 A2980 RMK T01600140 IEM_DS3505
ZBTJ,1988-05-26 04:29,ZBTJ 260429Z AUTO 33006KT 2 1/2SM 16/14 A2980 RMK T01600140 IEM_DS3505
ZBTJ,1988-05-26 05:00,ZBTJ 260500Z AUTO 09002KT RMK IEM_DS3505
ZBTJ,1988-05-26 05:27,ZBTJ 260527Z AUTO 09002KT RMK IEM_DS3505
ZBTJ,1988-05-26 05:30,ZBTJ 260530Z AUTO 09002KT RMK IEM_DS3505
ZBTJ,1988-05-26 06:23,ZBTJ 260623Z AUTO 33004KT 7SM 22/12 A2980 RMK T02200120 IEM_DS3505
ZBTJ,1988-05-26 06:26,ZBTJ 260626Z AUTO 33004KT 7SM 22/12 A2980 RMK T02200120 IEM_DS3505
ZBTJ,1988-05-26 08:23,ZBTJ 260823Z AUTO 20004KT 7SM 24/14 A2977 RMK T02400140 IEM_DS3505
ZBTJ,1988-05-26 08:26,ZBTJ 260826Z AUTO 20004KT 7SM 24/14 A2977 RMK T02400140 IEM_DS3505
ZBTJ,1988-05-26 09:23,ZBTJ 260923Z AUTO 21006KT 7SM 24/13 A2974 RMK T02400130 IEM_DS3505
ZBTJ,1988-05-26 09:28,ZBTJ 260928Z AUTO 21006KT 7SM 24/13 A2974 RMK T02400130 IEM_DS3505
ZBTJ,1988-05-26 10:23,ZBTJ 261023Z AUTO 21006KT 7SM 23/13 A2974 RMK T02300130 IEM_DS3505
ZBTJ,1988-05-26 10:28,ZBTJ 261028Z AUTO 21006KT 7SM 23/13 A2974 RMK T02300130 IEM_DS3505
ZBTJ,1988-05-26 10:39,ZBTJ 261039Z AUTO 21006KT 7SM 23/13 A2974 RMK T02300130 IEM_DS3505
ZBTJ,1988-05-26 11:00,ZBTJ 261100Z AUTO 23006KT 7SM 22/13 A2977 RMK T02200130 IEM_DS3505
ZBTJ,1988-05-26 11:23,ZBTJ 261123Z AUTO 23006KT 7SM 22/13 A2977 RMK T02200130 IEM_DS3505
ZBTJ,1988-05-26 11:26,ZBTJ 261126Z AUTO 23006KT 7SM 22/13 A2977 RMK T02200130 IEM_DS3505
ZBTJ,1988-05-26 13:00,ZBTJ 261300Z AUTO 22006KT 7SM 19/15 A2983 RMK T01900150 IEM_DS3505
ZBTJ,1988-05-26 13:22,ZBTJ 261322Z AUTO 22006KT 7SM 19/15 A2983 RMK T01900150 IEM_DS3505
ZBTJ,1988-05-26 13:28,ZBTJ 261328Z AUTO 22006KT 7SM 19/15 A2983 RMK T01900150 IEM_DS3505
ZBTJ,1988-05-26 14:00,ZBTJ 261400Z AUTO 21008KT 7SM 19/15 A2983 RMK T01900150 IEM_DS3505
ZBTJ,1988-05-26 14:22,ZBTJ 261422Z AUTO 21008KT 7SM 19/15 A2983 RMK T01900150 IEM_DS3505
ZBTJ,1988-05-26 14:25,ZBTJ 261425Z AUTO 21008KT 7SM 19/15 A2983 RMK T01900150 IEM_DS3505
ZBTJ,1988-05-26 22:00,ZBTJ 262200Z AUTO 25008KT 1 1/2SM 17/15 A2988 RMK T01700150 IEM_DS3505
ZBTJ,1988-05-26 22:22,ZBTJ 262222Z AUTO 25008KT 1 1/2SM 17/15 A2988 RMK T01700150 IEM_DS3505
ZBTJ,1988-05-26 22:24,ZBTJ 262224Z AUTO 25008KT 1 1/2SM 17/15 A2988 RMK T01700150 IEM_DS3505
ZBTJ,1988-05-26 23:00,ZBTJ 262300Z AUTO 26010KT 1 1/2SM 20/17 A2988 RMK T02000170 IEM_DS3505
ZBTJ,1988-05-26 23:23,ZBTJ 262323Z AUTO 26010KT 1 1/2SM 20/17 A2988 RMK T02000170 IEM_DS3505
ZBTJ,1988-05-26 23:26,ZBTJ 262326Z AUTO 26010KT 1 1/2SM 20/17 A2988 RMK T02000170 IEM_DS3505
ZBTJ,1988-05-27 00:00,ZBTJ 270000Z AUTO 25010KT 2 1/2SM 22/16 A2988 RMK T02200160 IEM_DS3505
ZBTJ,1988-05-27 00:24,ZBTJ 270024Z AUTO 25010KT 2 1/2SM 22/16 A2988 RMK T02200160 IEM_DS3505
ZBTJ,1988-05-27 00:29,ZBTJ 270029Z AUTO 25010KT 2 1/2SM 22/16 A2988 RMK T02200160 IEM_DS3505
ZBTJ,1988-05-27 01:00,ZBTJ 270100Z AUTO 27008KT 2 1/2SM 24/16 A2988 RMK T02400160 IEM_DS3505
ZBTJ,1988-05-27 01:23,ZBTJ 270123Z AUTO 27008KT 2 1/2SM 24/16 A2988 RMK T02400160 IEM_DS3505
ZBTJ,1988-05-27 01:26,ZBTJ 270126Z AUTO 27008KT 2 1/2SM 24/16 A2988 RMK T02400160 IEM_DS3505
ZBTJ,1988-05-27 02:00,ZBTJ 270200Z AUTO 27008KT 2 1/2SM 25/15 A2988 RMK T02500150 IEM_DS3505
ZBTJ,1988-05-27 02:37,ZBTJ 270237Z AUTO 27008KT 2 1/2SM 25/15 A2988 RMK T02500150 IEM_DS3505
ZBTJ,1988-05-27 02:40,ZBTJ 270240Z AUTO 27008KT 2 1/2SM 25/15 A2988 RMK T02500150 IEM_DS3505
ZBTJ,1988-05-27 03:00,ZBTJ 270300Z AUTO 30008KT 7SM 28/11 A2988 RMK T02800110 IEM_DS3505
ZBTJ,1988-05-27 03:29,ZBTJ 270329Z AUTO 30008KT 7SM 28/11 A2988 RMK T02800110 IEM_DS3505
ZBTJ,1988-05-27 03:31,ZBTJ 270331Z AUTO 30008KT 7SM 28/11 A2988 RMK T02800110 IEM_DS3505
ZBTJ,1988-05-27 04:00,ZBTJ 270400Z AUTO 32008KT 7SM 29/07 A2988 RMK T02900070 IEM_DS3505
ZBTJ,1988-05-27 04:23,ZBTJ 270423Z AUTO 32008KT 7SM 29/07 A2988 RMK T02900070 IEM_DS3505
ZBTJ,1988-05-27 04:27,ZBTJ 270427Z AUTO 32008KT 7SM 29/07 A2988 RMK T02900070 IEM_DS3505
ZBTJ,1988-05-27 05:00,ZBTJ 270500Z AUTO 32006KT 7SM 31/06 A2985 RMK T03100060 IEM_DS3505
ZBTJ,1988-05-27 05:29,ZBTJ 270529Z AUTO 32006KT 7SM 31/06 A2985 RMK T03100060 IEM_DS3505
ZBTJ,1988-05-27 05:31,ZBTJ 270531Z AUTO 32006KT 7SM 31/06 A2985 RMK T03100060 IEM_DS3505
ZBTJ,1988-05-27 06:00,ZBTJ 270600Z AUTO 23008KT 7SM 31/03 A2983 RMK T03100030 IEM_DS3505
ZBTJ,1988-05-27 06:22,ZBTJ 270622Z AUTO 23008KT 7SM 31/03 A2983 RMK T03100030 IEM_DS3505
ZBTJ,1988-05-27 06:25,ZBTJ 270625Z AUTO 23008KT 7SM 31/03 A2983 RMK T03100030 IEM_DS3505
ZBTJ,1988-05-27 07:00,ZBTJ 270700Z AUTO 24008KT 7SM 31/04 A2980 RMK T03100040 IEM_DS3505
ZBTJ,1988-05-27 07:22,ZBTJ 270722Z AUTO 24008KT 7SM 31/04 A2980 RMK T03100040 IEM_DS3505
ZBTJ,1988-05-27 07:25,ZBTJ 270725Z AUTO 24008KT 7SM 31/04 A2980 RMK T03100040 IEM_DS3505
ZBTJ,1988-05-27 08:23,ZBTJ 270823Z AUTO 24012KT 7SM 32/05 A2977 RMK T03200050 IEM_DS3505
ZBTJ,1988-05-27 08:27,ZBTJ 270827Z AUTO 24012KT 7SM 32/05 A2977 RMK T03200050 IEM_DS3505
ZBTJ,1988-05-27 09:00,ZBTJ 270900Z AUTO 23010KT 7SM 31/01 A2977 RMK T03100010 IEM_DS3505
ZBTJ,1988-05-27 10:00,ZBTJ 271000Z AUTO 22008KT 7SM 30/06 A2977 RMK T03000060 IEM_DS3505
ZBTJ,1988-05-27 10:25,ZBTJ 271025Z AUTO 22008KT 7SM 30/06 A2977 RMK T03000060 IEM_DS3505
ZBTJ,1988-05-27 10:26,ZBTJ 271026Z AUTO 22008KT 7SM 30/06 A2977 RMK T03000060 IEM_DS3505
ZBTJ,1988-05-27 11:00,ZBTJ 271100Z AUTO 22008KT 7SM 28/05 A2977 RMK T02800050 IEM_DS3505
ZBTJ,1988-05-27 11:23,ZBTJ 271123Z AUTO 22008KT 7SM 28/05 A2977 RMK T02800050 IEM_DS3505
ZBTJ,1988-05-27 11:25,ZBTJ 271125Z AUTO 22008KT 7SM 28/05 A2977 RMK T02800050 IEM_DS3505
ZBTJ,1988-05-27 13:00,ZBTJ 271300Z AUTO 24008KT 7SM 25/06 A2980 RMK T02500060 IEM_DS3505
ZBTJ,1988-05-27 13:22,ZBTJ 271322Z AUTO 24008KT 7SM 25/06 A2980 RMK T02500060 IEM_DS3505
ZBTJ,1988-05-27 13:26,ZBTJ 271326Z AUTO 24008KT 7SM 25/06 A2980 RMK T02500060 IEM_DS3505
ZBTJ,1988-05-27 14:00,ZBTJ 271400Z AUTO 21008KT 7SM 23/08 A2983 RMK T02300080 IEM_DS3505
ZBTJ,1988-05-27 14:22,ZBTJ 271422Z AUTO 21008KT 7SM 23/08 A2983 RMK T02300080 IEM_DS3505
ZBTJ,1988-05-27 14:25,ZBTJ 271425Z AUTO 21008KT 7SM 23/08 A2983 RMK T02300080 IEM_DS3505
ZBTJ,1988-05-27 21:00,ZBTJ 272100Z AUTO 23006KT RMK IEM_DS3505
ZBTJ,1988-05-27 21:22,ZBTJ 272122Z AUTO 23006KT RMK IEM_DS3505
ZBTJ,1988-05-27 21:25,ZBTJ 272125Z AUTO 23006KT RMK IEM_DS3505
ZBTJ,1988-05-27 22:00,ZBTJ 272200Z AUTO 21004KT RMK IEM_DS3505
ZBTJ,1988-05-27 22:22,ZBTJ 272222Z AUTO 21004KT RMK IEM_DS3505
ZBTJ,1988-05-27 22:25,ZBTJ 272225Z AUTO 21004KT RMK IEM_DS3505
ZBTJ,1988-05-27 23:00,ZBTJ 272300Z AUTO 21006KT RMK IEM_DS3505
ZBTJ,1988-05-27 23:23,ZBTJ 272323Z AUTO 21006KT RMK IEM_DS3505
ZBTJ,1988-05-27 23:25,ZBTJ 272325Z AUTO 21006KT RMK IEM_DS3505
ZBTJ,1988-05-28 01:23,ZBTJ 280123Z AUTO 21010KT RMK IEM_DS3505
ZBTJ,1988-05-28 01:26,ZBTJ 280126Z AUTO 21010KT RMK IEM_DS3505
ZBTJ,1988-05-28 02:00,ZBTJ 280200Z AUTO 22008KT RMK IEM_DS3505
ZBTJ,1988-05-28 02:22,ZBTJ 280222Z AUTO 22008KT RMK IEM_DS3505
ZBTJ,1988-05-28 02:24,ZBTJ 280224Z AUTO 22008KT RMK IEM_DS3505
ZBTJ,1988-05-28 02:38,ZBTJ 280238Z AUTO 22008KT RMK IEM_DS3505
ZBTJ,1988-05-28 02:40,ZBTJ 280240Z AUTO 22008KT RMK IEM_DS3505
ZBTJ,1988-05-28 03:23,ZBTJ 280323Z AUTO 21008KT RMK IEM_DS3505
ZBTJ,1988-05-28 03:26,ZBTJ 280326Z AUTO 21008KT RMK IEM_DS3505
ZBTJ,1988-05-28 05:00,ZBTJ 280500Z AUTO 23010KT RMK IEM_DS3505
ZBTJ,1988-05-28 05:27,ZBTJ 280527Z AUTO 23010KT RMK IEM_DS3505
ZBTJ,1988-05-28 06:00,ZBTJ 280600Z AUTO 22012KT RMK IEM_DS3505
ZBTJ,1988-05-28 06:23,ZBTJ 280623Z AUTO 22012KT RMK IEM_DS3505
ZBTJ,1988-05-28 06:27,ZBTJ 280627Z AUTO 22012KT RMK IEM_DS3505
ZBTJ,1988-05-28 07:22,ZBTJ 280722Z AUTO 20012KT RMK IEM_DS3505
ZBTJ,1988-05-28 07:25,ZBTJ 280725Z AUTO 20012KT RMK IEM_DS3505
ZBTJ,1988-05-28 08:00,ZBTJ 280800Z AUTO 21008KT RMK IEM_DS3505
ZBTJ,1988-05-28 08:23,ZBTJ 280823Z AUTO 21008KT RMK IEM_DS3505
ZBTJ,1988-05-28 08:26,ZBTJ 280826Z AUTO 21008KT RMK IEM_DS3505
ZBTJ,1988-05-28 09:00,ZBTJ 280900Z AUTO 22012KT RMK IEM_DS3505
ZBTJ,1988-05-28 09:23,ZBTJ 280923Z AUTO 22012KT RMK IEM_DS3505
ZBTJ,1988-05-28 09:27,ZBTJ 280927Z AUTO 22012KT RMK IEM_DS3505
ZBTJ,1988-05-28 10:00,ZBTJ 281000Z AUTO 21010KT RMK IEM_DS3505
ZBTJ,1988-05-28 10:23,ZBTJ 281023Z AUTO 21010KT RMK IEM_DS3505
ZBTJ,1988-05-28 10:25,ZBTJ 281025Z AUTO 21010KT RMK IEM_DS3505
ZBTJ,1988-05-28 11:00,ZBTJ 281100Z AUTO 22008KT RMK IEM_DS3505
ZBTJ,1988-05-28 11:22,ZBTJ 281122Z AUTO 22008KT RMK IEM_DS3505
ZBTJ,1988-05-28 11:26,ZBTJ 281126Z AUTO 22008KT RMK IEM_DS3505
ZBTJ,1988-05-28 20:00,ZBTJ 282000Z AUTO 22006KT RMK IEM_DS3505
ZBTJ,1988-05-28 20:34,ZBTJ 282034Z AUTO 22006KT RMK IEM_DS3505
ZBTJ,1988-05-28 20:36,ZBTJ 282036Z AUTO 22006KT RMK IEM_DS3505
ZBTJ,1988-05-28 22:00,ZBTJ 282200Z AUTO 19006KT RMK IEM_DS3505
ZBTJ,1988-05-28 22:35,ZBTJ 282235Z AUTO 19006KT RMK IEM_DS3505
ZBTJ,1988-05-28 22:42,ZBTJ 282242Z AUTO 19006KT RMK IEM_DS3505
ZBTJ,1988-05-28 23:00,ZBTJ 282300Z AUTO 20008KT RMK IEM_DS3505
ZBTJ,1988-05-28 23:35,ZBTJ 282335Z AUTO 20008KT RMK IEM_DS3505
ZBTJ,1988-05-28 23:38,ZBTJ 282338Z AUTO 20008KT RMK IEM_DS3505
ZBTJ,1988-05-29 00:35,ZBTJ 290035Z AUTO 21008KT RMK IEM_DS3505
ZBTJ,1988-05-29 00:38,ZBTJ 290038Z AUTO 19008KT 3SM 20/19 A2991 RMK T02000190 IEM_DS3505
ZBTJ,1988-05-29 01:00,ZBTJ 290100Z AUTO 21010KT RMK IEM_DS3505
ZBTJ,1988-05-29 01:36,ZBTJ 290136Z AUTO 21010KT RMK IEM_DS3505
ZBTJ,1988-05-29 01:40,ZBTJ 290140Z AUTO 21010KT RMK IEM_DS3505
ZBTJ,1988-05-29 02:00,ZBTJ 290200Z AUTO 21010KT RMK IEM_DS3505
ZBTJ,1988-05-29 02:35,ZBTJ 290235Z AUTO 21010KT RMK IEM_DS3505
ZBTJ,1988-05-29 02:38,ZBTJ 290238Z AUTO 21010KT RMK IEM_DS3505
ZBTJ,1988-05-29 03:00,ZBTJ 290300Z AUTO 21008KT RMK IEM_DS3505
ZBTJ,1988-05-29 03:36,ZBTJ 290336Z AUTO 21008KT RMK IEM_DS3505
ZBTJ,1988-05-29 03:39,ZBTJ 290339Z AUTO 21008KT RMK IEM_DS3505
ZBTJ,1988-05-29 04:00,ZBTJ 290400Z AUTO 21008KT RMK IEM_DS3505
ZBTJ,1988-05-29 04:35,ZBTJ 290435Z AUTO 21008KT RMK IEM_DS3505
ZBTJ,1988-05-29 04:39,ZBTJ 290439Z AUTO 21008KT RMK IEM_DS3505
ZBTJ,1988-05-29 07:00,ZBTJ 290700Z AUTO 23010KT RMK IEM_DS3505
ZBTJ,1988-05-29 07:22,ZBTJ 290722Z AUTO 23010KT RMK IEM_DS3505
ZBTJ,1988-05-29 07:25,ZBTJ 290725Z AUTO 23010KT RMK IEM_DS3505
ZBTJ,1988-05-29 08:00,ZBTJ 290800Z AUTO 22008KT RMK IEM_DS3505
ZBTJ,1988-05-29 08:22,ZBTJ 290822Z AUTO 22008KT RMK IEM_DS3505
ZBTJ,1988-05-29 08:25,ZBTJ 290825Z AUTO 22008KT RMK IEM_DS3505
ZBTJ,1988-05-29 09:00,ZBTJ 290900Z AUTO 35014KT RMK IEM_DS3505
ZBTJ,1988-05-29 09:22,ZBTJ 290922Z AUTO 35014KT RMK IEM_DS3505
ZBTJ,1988-05-29 09:25,ZBTJ 290925Z AUTO 35014KT RMK IEM_DS3505
ZBTJ,1988-05-29 10:00,ZBTJ 291000Z AUTO 34014KT RMK IEM_DS3505
ZBTJ,1988-05-29 10:21,ZBTJ 291021Z AUTO 34014KT RMK IEM_DS3505
ZBTJ,1988-05-29 10:25,ZBTJ 291025Z AUTO 34014KT RMK IEM_DS3505
ZBTJ,1988-05-29 11:00,ZBTJ 291100Z AUTO 34019KT RMK IEM_DS3505
ZBTJ,1988-05-29 11:22,ZBTJ 291122Z AUTO 34019KT RMK IEM_DS3505
ZBTJ,1988-05-29 11:25,ZBTJ 291125Z AUTO 34019KT RMK IEM_DS3505
ZBTJ,1988-05-29 13:00,ZBTJ 291300Z AUTO 35019KT RMK IEM_DS3505
ZBTJ,1988-05-29 13:20,ZBTJ 291320Z AUTO 35019KT RMK IEM_DS3505
ZBTJ,1988-05-29 13:22,ZBTJ 291322Z AUTO 35019KT RMK IEM_DS3505
ZBTJ,1988-05-29 14:00,ZBTJ 291400Z AUTO 34014KT RMK IEM_DS3505
ZBTJ,1988-05-29 14:21,ZBTJ 291421Z AUTO 34014KT RMK IEM_DS3505
ZBTJ,1988-05-29 14:24,ZBTJ 291424Z AUTO 34014KT RMK IEM_DS3505
ZBTJ,1988-05-29 21:00,ZBTJ 292100Z AUTO 00000KT RMK IEM_DS3505
ZBTJ,1988-05-29 21:22,ZBTJ 292122Z AUTO 00000KT RMK IEM_DS3505
ZBTJ,1988-05-29 21:32,ZBTJ 292132Z AUTO 00000KT RMK IEM_DS3505
ZBTJ,1988-05-29 21:33,ZBTJ 292133Z AUTO 00000KT RMK IEM_DS3505
ZBTJ,1988-05-29 22:00,ZBTJ 292200Z AUTO 29014KT 7SM 16/14 A2994 RMK T01600140 IEM_DS3505
ZBTJ,1988-05-29 22:22,ZBTJ 292222Z AUTO 29014KT 7SM 16/14 A2994 RMK T01600140 IEM_DS3505
ZBTJ,1988-05-29 22:25,ZBTJ 292225Z AUTO 29014KT 7SM 16/14 A2994 RMK T01600140 IEM_DS3505
ZBTJ,1988-05-29 23:00,ZBTJ 292300Z AUTO 32012KT RMK IEM_DS3505
ZBTJ,1988-05-29 23:22,ZBTJ 292322Z AUTO 32012KT RMK IEM_DS3505
ZBTJ,1988-05-29 23:31,ZBTJ 292331Z AUTO 32012KT RMK IEM_DS3505
ZBTJ,1988-05-30 00:00,ZBTJ 300000Z AUTO 29006KT RMK IEM_DS3505
ZBTJ,1988-05-30 00:27,ZBTJ 300027Z AUTO 29006KT RMK IEM_DS3505
ZBTJ,1988-05-30 00:29,ZBTJ 300029Z AUTO 29006KT RMK IEM_DS3505
ZBTJ,1988-05-30 01:00,ZBTJ 300100Z AUTO 31008KT RMK IEM_DS3505
ZBTJ,1988-05-30 01:21,ZBTJ 300121Z AUTO 31008KT RMK IEM_DS3505
ZBTJ,1988-05-30 01:26,ZBTJ 300126Z AUTO 31008KT RMK IEM_DS3505
ZBTJ,1988-05-30 02:00,ZBTJ 300200Z AUTO 32006KT RMK IEM_DS3505
ZBTJ,1988-05-30 02:22,ZBTJ 300222Z AUTO 32006KT RMK IEM_DS3505
ZBTJ,1988-05-30 02:25,ZBTJ 300225Z AUTO 32006KT RMK IEM_DS3505
ZBTJ,1988-05-30 03:00,ZBTJ 300300Z AUTO 32004KT RMK IEM_DS3505
ZBTJ,1988-05-30 03:22,ZBTJ 300322Z AUTO 32004KT RMK IEM_DS3505
ZBTJ,1988-05-30 03:26,ZBTJ 300326Z AUTO 32004KT RMK IEM_DS3505
ZBTJ,1988-05-30 04:00,ZBTJ 300400Z AUTO 36004KT RMK IEM_DS3505
ZBTJ,1988-05-30 04:22,ZBTJ 300422Z AUTO 36004KT RMK IEM_DS3505
ZBTJ,1988-05-30 04:26,ZBTJ 300426Z AUTO 36004KT RMK IEM_DS3505
ZBTJ,1988-05-30 05:00,ZBTJ 300500Z AUTO 14006KT 7SM 18/14 A2991 RMK T01800140 IEM_DS3505
ZBTJ,1988-05-30 06:00,ZBTJ 300600Z AUTO 31006KT 5SM 18/15 A2991 RMK T01800150 IEM_DS3505
ZBTJ,1988-05-30 06:23,ZBTJ 300623Z AUTO 31006KT 5SM 18/15 A2991 RMK T01800150 IEM_DS3505
ZBTJ,1988-05-30 06:26,ZBTJ 300626Z AUTO 31006KT 5SM 18/15 A2991 RMK T01800150 IEM_DS3505
ZBTJ,1988-05-30 07:00,ZBTJ 300700Z AUTO 00000KT 4SM 19/15 A2988 RMK T01900150 IEM_DS3505
ZBTJ,1988-05-30 07:23,ZBTJ 300723Z AUTO 00000KT 4SM 19/15 A2988 RMK T01900150 IEM_DS3505
ZBTJ,1988-05-30 07:26,ZBTJ 300726Z AUTO 00000KT 4SM 19/15 A2988 RMK T01900150 IEM_DS3505
ZBTJ,1988-05-30 08:00,ZBTJ 300800Z AUTO 21004KT 4SM 19/15 A2988 RMK T01900150 IEM_DS3505
ZBTJ,1988-05-30 08:22,ZBTJ 300822Z AUTO 21004KT 4SM 19/15 A2988 RMK T01900150 IEM_DS3505
ZBTJ,1988-05-30 08:26,ZBTJ 300826Z AUTO 21004KT 4SM 19/15 A2988 RMK T01900150 IEM_DS3505
ZBTJ,1988-05-30 09:00,ZBTJ 300900Z AUTO 22004KT RMK IEM_DS3505
ZBTJ,1988-05-30 09:22,ZBTJ 300922Z AUTO 22004KT RMK IEM_DS3505
ZBTJ,1988-05-30 09:25,ZBTJ 300925Z AUTO 22004KT RMK IEM_DS3505
ZBTJ,1988-05-30 10:00,ZBTJ 301000Z AUTO 18006KT 7SM 19/14 A2985 RMK T01900140 IEM_DS3505
ZBTJ,1988-05-30 10:23,ZBTJ 301023Z AUTO 18006KT 7SM 19/14 A2985 RMK T01900140 IEM_DS3505
ZBTJ,1988-05-30 10:27,ZBTJ 301027Z AUTO 18006KT 7SM 19/14 A2985 RMK T01900140 IEM_DS3505
ZBTJ,1988-05-30 11:00,ZBTJ 301100Z AUTO 17006KT 7SM 18/14 A2988 RMK T01800140 IEM_DS3505
ZBTJ,1988-05-30 11:24,ZBTJ 301124Z AUTO 17006KT 7SM 18/14 A2988 RMK T01800140 IEM_DS3505
ZBTJ,1988-05-30 11:27,ZBTJ 301127Z AUTO 17006KT 7SM 18/14 A2988 RMK T01800140 IEM_DS3505
ZBTJ,1988-05-30 12:00,ZBTJ 301200Z AUTO 10006KT RMK IEM_DS3505
ZBTJ,1988-05-30 12:22,ZBTJ 301222Z AUTO 10006KT RMK IEM_DS3505
ZBTJ,1988-05-30 12:24,ZBTJ 301224Z AUTO 10006KT RMK IEM_DS3505
ZBTJ,1988-05-30 13:00,ZBTJ 301300Z AUTO 20004KT RMK IEM_DS3505
ZBTJ,1988-05-30 13:21,ZBTJ 301321Z AUTO 20004KT RMK IEM_DS3505
ZBTJ,1988-05-30 13:29,ZBTJ 301329Z AUTO 20004KT RMK IEM_DS3505
ZBTJ,1988-05-30 21:00,ZBTJ 302100Z AUTO 23004KT 2SM 15/14 A2983 RMK T01500140 IEM_DS3505
ZBTJ,1988-05-30 21:21,ZBTJ 302121Z AUTO 23004KT 2SM 15/14 A2983 RMK T01500140 IEM_DS3505
ZBTJ,1988-05-30 21:30,ZBTJ 302130Z AUTO 23004KT 2SM 15/14 A2983 RMK T01500140 IEM_DS3505
ZBTJ,1988-05-30 22:00,ZBTJ 302200Z AUTO 20002KT 1 1/4SM 16/15 A2983 RMK T01600150 IEM_DS3505
ZBTJ,1988-05-30 22:23,ZBTJ 302223Z AUTO 20002KT 1 1/4SM 16/15 A2983 RMK T01600150 IEM_DS3505
ZBTJ,1988-05-30 22:26,ZBTJ 302226Z AUTO 20002KT 1 1/4SM 16/15 A2983 RMK T01600150 IEM_DS3505
ZBTJ,1988-05-30 22:28,ZBTJ 302228Z AUTO 20002KT 1 1/4SM 16/15 A2983 RMK T01600150 IEM_DS3505
ZBTJ,1988-05-30 23:00,ZBTJ 302300Z AUTO 20004KT 1 1/4SM 17/16 A2983 RMK T01700160 IEM_DS3505
ZBTJ,1988-05-30 23:21,ZBTJ 302321Z AUTO 20004KT 1 1/4SM 17/16 A2983 RMK T01700160 IEM_DS3505
ZBTJ,1988-05-30 23:24,ZBTJ 302324Z AUTO 20004KT 1 1/4SM 17/16 A2983 RMK T01700160 IEM_DS3505
ZBTJ,1988-05-31 01:00,ZBTJ 310100Z AUTO 18008KT 7SM 20/15 A2983 RMK T02000150 IEM_DS3505
ZBTJ,1988-05-31 01:24,ZBTJ 310124Z AUTO 18008KT 7SM 20/15 A2983 RMK T02000150 IEM_DS3505
ZBTJ,1988-05-31 01:26,ZBTJ 310126Z AUTO 18008KT 7SM 20/15 A2983 RMK T02000150 IEM_DS3505
ZBTJ,1988-05-31 02:00,ZBTJ 310200Z AUTO 18006KT 7SM 21/ RMK IEM_DS3505
ZBTJ,1988-05-31 02:22,ZBTJ 310222Z AUTO 18006KT 7SM 21/16 A2983 RMK T02100160 IEM_DS3505
ZBTJ,1988-05-31 02:24,ZBTJ 310224Z AUTO 18006KT 7SM 21/16 A2983 RMK T02100160 IEM_DS3505
ZBTJ,1988-05-31 03:00,ZBTJ 310300Z AUTO 22004KT 7SM 22/16 A2983 RMK T02200160 IEM_DS3505
ZBTJ,1988-05-31 03:23,ZBTJ 310323Z AUTO 22004KT 7SM 22/16 A2983 RMK T02200160 IEM_DS3505
ZBTJ,1988-05-31 03:25,ZBTJ 310325Z AUTO 22004KT 7SM 22/16 A2983 RMK T02200160 IEM_DS3505
ZBTJ,1988-05-31 04:00,ZBTJ 310400Z AUTO 13004KT 7SM 24/16 A2980 RMK T02400160 IEM_DS3505
ZBTJ,1988-05-31 04:23,ZBTJ 310423Z AUTO 13004KT 7SM 24/16 A2980 RMK T02400160 IEM_DS3505
ZBTJ,1988-05-31 04:25,ZBTJ 310425Z AUTO 13004KT 7SM 24/16 A2980 RMK T02400160 IEM_DS3505
ZBTJ,1988-05-31 05:00,ZBTJ 310500Z AUTO 16004KT 7SM 24/16 A2977 RMK T02400160 IEM_DS3505
ZBTJ,1988-05-31 05:23,ZBTJ 310523Z AUTO 16004KT 7SM 24/16 A2977 RMK T02400160 IEM_DS3505
ZBTJ,1988-05-31 05:26,ZBTJ 310526Z AUTO 16004KT 7SM 24/16 A2977 RMK T02400160 IEM_DS3505
ZBTJ,1988-05-31 07:00,ZBTJ 310700Z AUTO 19006KT 7SM 25/17 A2974 RMK T02500170 IEM_DS3505
ZBTJ,1988-05-31 07:23,ZBTJ 310723Z AUTO 19006KT 7SM 25/17 A2974 RMK T02500170 IEM_DS3505
ZBTJ,1988-05-31 07:26,ZBTJ 310726Z AUTO 19006KT 7SM 25/17 A2974 RMK T02500170 IEM_DS3505
ZBTJ,1988-05-31 08:00,ZBTJ 310800Z AUTO 09012KT 7SM 25/18 A2971 RMK T02500180 IEM_DS3505
ZBTJ,1988-05-31 08:23,ZBTJ 310823Z AUTO 09012KT 7SM 25/18 A2971 RMK T02500180 IEM_DS3505
ZBTJ,1988-05-31 08:26,ZBTJ 310826Z AUTO 09012KT 7SM 25/18 A2971 RMK T02500180 IEM_DS3505
ZBTJ,1988-05-31 09:00,ZBTJ 310900Z AUTO 10014KT 7SM 24/18 A2971 RMK T02400180 IEM_DS3505
ZBTJ,1988-05-31 09:22,ZBTJ 310922Z AUTO 10014KT 7SM 24/18 A2971 RMK T02400180 IEM_DS3505
ZBTJ,1988-05-31 09:25,ZBTJ 310925Z AUTO 10014KT 7SM 24/18 A2971 RMK T02400180 IEM_DS3505
ZBTJ,1988-05-31 10:00,ZBTJ 311000Z AUTO 11008KT 7SM 23/17 A2971 RMK T02300170 IEM_DS3505
ZBTJ,1988-05-31 10:22,ZBTJ 311022Z AUTO 11008KT 7SM 23/17 A2971 RMK T02300170 IEM_DS3505
ZBTJ,1988-05-31 10:27,ZBTJ 311027Z AUTO 11008KT 7SM 23/17 A2971 RMK T02300170 IEM_DS3505
ZBTJ,1988-05-31 12:00,ZBTJ 311200Z AUTO 09006KT 7SM 20/17 A2974 RMK T02000170 IEM_DS3505
ZBTJ,1988-05-31 21:00,ZBTJ 312100Z AUTO 10004KT 1 1/4SM 17/16 A2965 RMK T01700160 IEM_DS3505
ZBTJ,1988-05-31 21:21,ZBTJ 312121Z AUTO 10004KT 1 1/4SM 17/16 A2965 RMK T01700160 IEM_DS3505
ZBTJ,1988-05-31 21:23,ZBTJ 312123Z AUTO 10004KT 1 1/4SM 17/16 A2965 RMK T01700160 IEM_DS3505
ZBTJ,1988-05-31 22:00,ZBTJ 312200Z AUTO 11006KT 1 1/4SM 17/16 A2965 RMK T01700160 IEM_DS3505
ZBTJ,1988-05-31 22:22,ZBTJ 312222Z AUTO 11006KT 1 1/4SM 17/16 A2965 RMK T01700160 IEM_DS3505
ZBTJ,1988-05-31 22:25,ZBTJ 312225Z AUTO 11006KT 1 1/4SM 17/16 A2965 RMK T01700160 IEM_DS3505
ZBTJ,1988-05-31 23:00,ZBTJ 312300Z AUTO 14008KT 2SM 18/16 A2965 RMK T01800160 IEM_DS3505
ZBTJ,1988-05-31 23:22,ZBTJ 312322Z AUTO 14008KT 2SM 18/16 A2965 RMK T01800160 IEM_DS3505
ZBTJ,1988-05-31 23:25,ZBTJ 312325Z AUTO 14008KT 2SM 18/16 A2965 RMK T01800160 IEM_DS3505
ZBTJ,1988-06-01 00:00,ZBTJ 010000Z AUTO 00000KT 2SM 20/17 A2965 RMK T02000170 IEM_DS3505
ZBTJ,1988-06-01 00:37,ZBTJ 010037Z AUTO 00000KT 2SM 20/17 A2965 RMK T02000170 IEM_DS3505
ZBTJ,1988-06-01 00:39,ZBTJ 010039Z AUTO 00000KT 2SM 20/17 A2965 RMK T02000170 IEM_DS3505
ZBTJ,1988-06-01 01:00,ZBTJ 010100Z AUTO 35002KT 2 1/2SM 22/17 A2965 RMK T02200170 IEM_DS3505
ZBTJ,1988-06-01 01:25,ZBTJ 010125Z AUTO 35002KT 2 1/2SM 22/17 A2965 RMK T02200170 IEM_DS3505
ZBTJ,1988-06-01 01:26,ZBTJ 010126Z AUTO 35002KT 2 1/2SM 22/17 A2965 RMK T02200170 IEM_DS3505
ZBTJ,1988-06-01 02:00,ZBTJ 010200Z AUTO 34006KT 4SM 23/17 A2965 RMK T02300170 IEM_DS3505
ZBTJ,1988-06-01 02:24,ZBTJ 010224Z AUTO 34006KT 4SM 23/17 A2965 RMK T02300170 IEM_DS3505
ZBTJ,1988-06-01 02:26,ZBTJ 010226Z AUTO 34006KT 4SM 23/17 A2965 RMK T02300170 IEM_DS3505
ZBTJ,1988-06-01 04:00,ZBTJ 010400Z AUTO 34008KT 7SM 26/16 A2965 RMK T02600160 IEM_DS3505
ZBTJ,1988-06-01 04:25,ZBTJ 010425Z AUTO 34008KT 7SM 26/16 A2965 RMK T02600160 IEM_DS3505
ZBTJ,1988-06-01 04:26,ZBTJ 010426Z AUTO 34008KT 7SM 26/16 A2965 RMK T02600160 IEM_DS3505
ZBTJ,1988-06-01 05:00,ZBTJ 010500Z AUTO 06008KT 7SM 26/19 A2962 RMK T02600190 IEM_DS3505
ZBTJ,1988-06-01 05:28,ZBTJ 010528Z AUTO 06008KT 7SM 26/19 A2962 RMK T02600190 IEM_DS3505
ZBTJ,1988-06-01 05:30,ZBTJ 010530Z AUTO 06008KT 7SM 26/19 A2962 RMK T02600190 IEM_DS3505
ZBTJ,1988-06-01 06:00,ZBTJ 010600Z AUTO 36006KT 7SM 27/17 A2962 RMK T02700170 IEM_DS3505
ZBTJ,1988-06-01 06:22,ZBTJ 010622Z AUTO 36006KT 7SM 27/17 A2962 RMK T02700170 IEM_DS3505
ZBTJ,1988-06-01 06:25,ZBTJ 010625Z AUTO 36006KT 7SM 27/17 A2962 RMK T02700170 IEM_DS3505
ZBTJ,1988-06-01 07:22,ZBTJ 010722Z AUTO 00000KT 7SM 28/13 A2959 RMK T02800130 IEM_DS3505
ZBTJ,1988-06-01 09:00,ZBTJ 010900Z AUTO 22006KT 7SM 26/15 A2956 RMK T02600150 IEM_DS3505
ZBTJ,1988-06-01 09:22,ZBTJ 010922Z AUTO 22006KT 7SM 26/15 A2956 RMK T02600150 IEM_DS3505
ZBTJ,1988-06-01 09:26,ZBTJ 010926Z AUTO 22006KT 7SM 26/15 A2956 RMK T02600150 IEM_DS3505
ZBTJ,1988-06-01 10:00,ZBTJ 011000Z AUTO 09012KT 7SM 22/13 A2959 RMK T02200130 IEM_DS3505
ZBTJ,1988-06-01 10:24,ZBTJ 011024Z AUTO 09012KT 7SM 22/13 A2959 RMK T02200130 IEM_DS3505
ZBTJ,1988-06-01 13:23,ZBTJ 011323Z AUTO 10010KT 7SM 20/16 A2965 RMK T02000160 IEM_DS3505
ZBTJ,1988-06-01 13:25,ZBTJ 011325Z AUTO 10010KT 7SM 20/16 A2965 RMK T02000160 IEM_DS3505
ZBTJ,1988-06-01 14:23,ZBTJ 011423Z AUTO 15008KT 7SM 19/16 A2965 RMK T01900160 IEM_DS3505
ZBTJ,1988-06-01 14:29,ZBTJ 011429Z AUTO 15008KT 7SM 19/16 A2965 RMK T01900160 IEM_DS3505
ZBTJ,1988-06-01 15:23,ZBTJ 011523Z AUTO 17004KT 7SM 18/16 A2965 RMK T01800160 IEM_DS3505
ZBTJ,1988-06-01 15:25,ZBTJ 011525Z AUTO 17004KT 7SM 18/16 A2965 RMK T01800160 IEM_DS3505
ZBTJ,1988-06-01 16:23,ZBTJ 011623Z AUTO 22006KT 7SM 17/15 A2965 RMK T01700150 IEM_DS3505
ZBTJ,1988-06-01 16:28,ZBTJ 011628Z AUTO 22006KT 7SM 17/15 A2965 RMK T01700150 IEM_DS3505
ZBTJ,1988-06-01 21:00,ZBTJ 012100Z AUTO 00000KT 1SM 15/14 A2962 RMK T01500140 IEM_DS3505
ZBTJ,1988-06-01 21:23,ZBTJ 012123Z AUTO 00000KT 1SM 15/14 A2962 RMK T01500140 IEM_DS3505
ZBTJ,1988-06-01 21:25,ZBTJ 012125Z AUTO 00000KT 1SM 15/14 A2962 RMK T01500140 IEM_DS3505
ZBTJ,1988-06-01 22:00,ZBTJ 012200Z AUTO 00000KT 1 1/4SM 16/16 A2962 RMK T01600160 IEM_DS3505
ZBTJ,1988-06-01 22:23,ZBTJ 012223Z AUTO 00000KT 1 1/4SM 16/16 A2962 RMK T01600160 IEM_DS3505
ZBTJ,1988-06-01 22:26,ZBTJ 012226Z AUTO 00000KT 1 1/4SM 16/16 A2962 RMK T01600160 IEM_DS3505
ZBTJ,1988-06-02 00:00,ZBTJ 020000Z AUTO 03006KT 1 1/4SM 18/16 A2965 RMK T01800160 IEM_DS3505
ZBTJ,1988-06-02 00:24,ZBTJ 020024Z AUTO 03006KT 1 1/4SM 18/16 A2965 RMK T01800160 IEM_DS3505
ZBTJ,1988-06-02 00:26,ZBTJ 020026Z AUTO 03006KT 1 1/4SM 18/16 A2965 RMK T01800160 IEM_DS3505
ZBTJ,1988-06-02 01:00,ZBTJ 020100Z AUTO 04006KT 1 1/2SM A2965 RMK IEM_DS3505
ZBTJ,1988-06-02 01:25,ZBTJ 020125Z AUTO 04006KT 1 1/2SM A2965 RMK IEM_DS3505
ZBTJ,1988-06-02 01:26,ZBTJ 020126Z AUTO 04006KT 1 1/2SM A2965 RMK IEM_DS3505
ZBTJ,1988-06-02 02:00,ZBTJ 020200Z AUTO 03006KT 4SM 20/16 A2968 RMK T02000160 IEM_DS3505
ZBTJ,1988-06-02 02:23,ZBTJ 020223Z AUTO 03006KT 4SM 20/16 A2968 RMK T02000160 IEM_DS3505
ZBTJ,1988-06-02 02:25,ZBTJ 020225Z AUTO 03006KT 4SM 20/16 A2968 RMK T02000160 IEM_DS3505
ZBTJ,1988-06-02 03:00,ZBTJ 020300Z AUTO 36006KT RMK IEM_DS3505
ZBTJ,1988-06-02 03:26,ZBTJ 020326Z AUTO 36006KT RMK IEM_DS3505
ZBTJ,1988-06-02 03:53,ZBTJ 020353Z AUTO 36006KT RMK IEM_DS3505
ZBTJ,1988-06-02 04:00,ZBTJ 020400Z AUTO 33008KT 7SM 24/14 A2965 RMK T02400140 IEM_DS3505
ZBTJ,1988-06-02 04:23,ZBTJ 020423Z AUTO 33008KT 7SM 24/14 A2965 RMK T02400140 IEM_DS3505
ZBTJ,1988-06-02 04:26,ZBTJ 020426Z AUTO 33008KT 7SM 24/14 A2965 RMK T02400140 IEM_DS3505
ZBTJ,1988-06-02 05:00,ZBTJ 020500Z AUTO 34016KT 7SM 26/09 A2962 RMK T02600090 IEM_DS3505
ZBTJ,1988-06-02 05:25,ZBTJ 020525Z AUTO 34016KT 7SM 26/09 A2962 RMK T02600090 IEM_DS3505
ZBTJ,1988-06-02 05:27,ZBTJ 020527Z AUTO 34016KT 7SM 26/09 A2962 RMK T02600090 IEM_DS3505
ZBTJ,1988-06-02 06:00,ZBTJ 020600Z AUTO 35014KT 7SM 26/11 A2959 RMK T02600110 IEM_DS3505
ZBTJ,1988-06-02 06:23,ZBTJ 020623Z AUTO 35014KT 7SM 26/11 A2959 RMK T02600110 IEM_DS3505
ZBTJ,1988-06-02 06:26,ZBTJ 020626Z AUTO 35014KT 7SM 26/11 A2959 RMK T02600110 IEM_DS3505
ZBTJ,1988-06-02 07:00,ZBTJ 020700Z AUTO 33014KT 7SM 27/10 A2959 RMK T02700100 IEM_DS3505
ZBTJ,1988-06-02 07:23,ZBTJ 020723Z AUTO 33014KT 7SM 27/10 A2959 RMK T02700100 IEM_DS3505
ZBTJ,1988-06-02 07:25,ZBTJ 020725Z AUTO 33014KT 7SM 27/10 A2959 RMK T02700100 IEM_DS3505
ZBTJ,1988-06-02 08:00,ZBTJ 020800Z AUTO 33012KT 7SM 27/07 A2959 RMK T02700070 IEM_DS3505
ZBTJ,1988-06-02 08:23,ZBTJ 020823Z AUTO 33012KT 7SM 27/07 A2959 RMK T02700070 IEM_DS3505
ZBTJ,1988-06-02 08:26,ZBTJ 020826Z AUTO 33012KT 7SM 27/07 A2959 RMK T02700070 IEM_DS3505
ZBTJ,1988-06-02 09:00,ZBTJ 020900Z AUTO 01012KT 7SM 26/09 A2959 RMK T02600090 IEM_DS3505
ZBTJ,1988-06-02 09:23,ZBTJ 020923Z AUTO 01012KT 7SM 26/09 A2959 RMK T02600090 IEM_DS3505
ZBTJ,1988-06-02 09:30,ZBTJ 020930Z AUTO 01012KT 7SM 26/09 A2959 RMK T02600090 IEM_DS3505
ZBTJ,1988-06-02 10:23,ZBTJ 021023Z AUTO 35012KT 7SM 26/10 A2959 RMK T02600100 IEM_DS3505
ZBTJ,1988-06-02 10:25,ZBTJ 021025Z AUTO 35012KT 7SM 26/10 A2959 RMK T02600100 IEM_DS3505
ZBTJ,1988-06-02 11:00,ZBTJ 021100Z AUTO 12012KT 7SM 23/12 A2962 RMK T02300120 IEM_DS3505
ZBTJ,1988-06-02 11:24,ZBTJ 021124Z AUTO 12012KT 7SM 23/12 A2962 RMK T02300120 IEM_DS3505
ZBTJ,1988-06-02 11:29,ZBTJ 021129Z AUTO 12012KT 7SM 23/12 A2962 RMK T02300120 IEM_DS3505
ZBTJ,1988-06-02 12:00,ZBTJ 021200Z AUTO 11010KT 7SM 17/13 A2962 RMK T01700130 IEM_DS3505
ZBTJ,1988-06-02 12:23,ZBTJ 021223Z AUTO 11010KT 7SM 17/13 A2962 RMK T01700130 IEM_DS3505
ZBTJ,1988-06-02 12:26,ZBTJ 021226Z AUTO 11010KT 7SM 17/13 A2962 RMK T01700130 IEM_DS3505
ZBTJ,1988-06-02 13:23,ZBTJ 021323Z AUTO 21004KT 7SM 17/13 A2965 RMK T01700130 IEM_DS3505
ZBTJ,1988-06-02 13:25,ZBTJ 021325Z AUTO 21004KT 7SM 17/13 A2965 RMK T01700130 IEM_DS3505
ZBTJ,1988-06-02 22:00,ZBTJ 022200Z AUTO 31004KT 1 1/4SM 15/14 A2971 RMK T01500140 IEM_DS3505
ZBTJ,1988-06-02 22:23,ZBTJ 022223Z AUTO 31004KT 1 1/4SM 15/14 A2971 RMK T01500140 IEM_DS3505
ZBTJ,1988-06-02 22:26,ZBTJ 022226Z AUTO 31004KT 1 1/4SM 15/14 A2971 RMK T01500140 IEM_DS3505
ZBTJ,1988-06-03 00:00,ZBTJ 030000Z AUTO 32004KT 2 1/2SM 17/14 A2971 RMK T01700140 IEM_DS3505
ZBTJ,1988-06-03 00:26,ZBTJ 030026Z AUTO 32004KT 2 1/2SM 17/14 A2971 RMK T01700140 IEM_DS3505
ZBTJ,1988-06-03 00:28,ZBTJ 030028Z AUTO 32004KT 2 1/2SM 17/14 A2971 RMK T01700140 IEM_DS3505
ZBTJ,1988-06-03 01:00,ZBTJ 030100Z AUTO 32008KT 7SM 23/12 A2974 RMK T02300120 IEM_DS3505
ZBTJ,1988-06-03 02:00,ZBTJ 030200Z AUTO 31010KT 7SM 24/11 A2971 RMK T02400110 IEM_DS3505
ZBTJ,1988-06-03 02:25,ZBTJ 030225Z AUTO 31010KT 7SM 24/11 A2971 RMK T02400110 IEM_DS3505
ZBTJ,1988-06-03 02:28,ZBTJ 030228Z AUTO 31010KT 7SM 24/11 A2971 RMK T02400110 IEM_DS3505
ZBTJ,1988-06-03 03:00,ZBTJ 030300Z AUTO 30010KT 7SM 25/11 A2971 RMK T02500110 IEM_DS3505
ZBTJ,1988-06-03 03:31,ZBTJ 030331Z AUTO 30010KT 7SM 25/11 A2971 RMK T02500110 IEM_DS3505
ZBTJ,1988-06-03 03:33,ZBTJ 030333Z AUTO 30010KT 7SM 25/11 A2971 RMK T02500110 IEM_DS3505
ZBTJ,1988-06-03 04:00,ZBTJ 030400Z AUTO 36012KT 7SM 26/12 A2971 RMK T02600120 IEM_DS3505
ZBTJ,1988-06-03 04:25,ZBTJ 030425Z AUTO 36012KT 7SM 26/12 A2971 RMK T02600120 IEM_DS3505
ZBTJ,1988-06-03 04:33,ZBTJ 030433Z AUTO 36012KT 7SM 26/12 A2971 RMK T02600120 IEM_DS3505
ZBTJ,1988-06-03 05:00,ZBTJ 030500Z AUTO 33010KT 7SM 27/11 A2971 RMK T02700110 IEM_DS3505
ZBTJ,1988-06-03 05:27,ZBTJ 030527Z AUTO 33010KT 7SM 27/11 A2971 RMK T02700110 IEM_DS3505
ZBTJ,1988-06-03 05:30,ZBTJ 030530Z AUTO 33010KT 7SM 27/11 A2971 RMK T02700110 IEM_DS3505
ZBTJ,1988-06-03 06:00,ZBTJ 030600Z AUTO 02010KT 7SM 27/12 A2971 RMK T02700120 IEM_DS3505
ZBTJ,1988-06-03 06:25,ZBTJ 030625Z AUTO 02010KT 7SM 27/12 A2971 RMK T02700120 IEM_DS3505
ZBTJ,1988-06-03 06:28,ZBTJ 030628Z AUTO 02010KT 7SM 27/12 A2971 RMK T02700120 IEM_DS3505
ZBTJ,1988-06-03 07:00,ZBTJ 030700Z AUTO 28008KT 7SM 27/13 RMK T02700130 IEM_DS3505
ZBTJ,1988-06-03 08:00,ZBTJ 030800Z AUTO 03004KT 7SM 28/13 A2968 RMK T02800130 IEM_DS3505
ZBTJ,1988-06-03 08:25,ZBTJ 030825Z AUTO 03004KT 7SM 28/13 A2968 RMK T02800130 IEM_DS3505
ZBTJ,1988-06-03 08:30,ZBTJ 030830Z AUTO 03004KT 7SM 28/13 A2968 RMK T02800130 IEM_DS3505
ZBTJ,1988-06-03 09:00,ZBTJ 030900Z AUTO 34008KT 7SM 27/13 A2968 RMK T02700130 IEM_DS3505
ZBTJ,1988-06-03 09:32,ZBTJ 030932Z AUTO 34008KT 7SM 27/13 A2968 RMK T02700130 IEM_DS3505
ZBTJ,1988-06-03 10:00,ZBTJ 031000Z AUTO 00000KT RMK IEM_DS3505
ZBTJ,1988-06-03 10:25,ZBTJ 031025Z AUTO 00000KT RMK IEM_DS3505
ZBTJ,1988-06-03 10:28,ZBTJ 031028Z AUTO 00000KT RMK IEM_DS3505
ZBTJ,1988-06-03 11:00,ZBTJ 031100Z AUTO 00000KT RMK IEM_DS3505
ZBTJ,1988-06-03 11:26,ZBTJ 031126Z AUTO 00000KT RMK IEM_DS3505
ZBTJ,1988-06-03 11:28,ZBTJ 031128Z AUTO 00000KT RMK IEM_DS3505
ZBTJ,1988-06-03 12:00,ZBTJ 031200Z AUTO 14004KT 7SM 23/14 A2968 RMK T02300140 IEM_DS3505
ZBTJ,1988-06-03 12:25,ZBTJ 031225Z AUTO 14004KT 7SM 23/14 A2968 RMK T02300140 IEM_DS3505
ZBTJ,1988-06-03 12:37,ZBTJ 031237Z AUTO 14004KT 7SM 23/14 A2968 RMK T02300140 IEM_DS3505
ZBTJ,1988-06-03 13:00,ZBTJ 031300Z AUTO 15008KT 7SM 22/15 A2968 RMK T02200150 IEM_DS3505
ZBTJ,1988-06-03 13:25,ZBTJ 031325Z AUTO 15008KT 7SM 22/15 A2968 RMK T02200150 IEM_DS3505
ZBTJ,1988-06-03 13:30,ZBTJ 031330Z AUTO 15008KT 7SM 22/15 A2968 RMK T02200150 IEM_DS3505
ZBTJ,1988-06-03 14:00,ZBTJ 031400Z AUTO 15008KT 7SM 21/16 A2971 RMK T02100160 IEM_DS3505
ZBTJ,1988-06-03 14:25,ZBTJ 031425Z AUTO 15008KT 7SM 21/16 A2971 RMK T02100160 IEM_DS3505
ZBTJ,1988-06-03 14:35,ZBTJ 031435Z AUTO 15008KT 7SM 21/16 A2971 RMK T02100160 IEM_DS3505
ZBTJ,1988-06-03 15:00,ZBTJ 031500Z AUTO 15008KT 7SM 21/16 A2971 RMK T02100160 IEM_DS3505
ZBTJ,1988-06-03 15:24,ZBTJ 031524Z AUTO 15008KT 7SM 21/16 A2971 RMK T02100160 IEM_DS3505
ZBTJ,1988-06-03 15:28,ZBTJ 031528Z AUTO 15008KT 7SM 21/16 A2971 RMK T02100160 IEM_DS3505
ZBTJ,1988-06-03 21:00,ZBTJ 032100Z AUTO 15004KT 3SM 17/14 A2974 RMK T01700140 IEM_DS3505
ZBTJ,1988-06-03 21:25,ZBTJ 032125Z AUTO 15004KT 3SM 17/14 A2974 RMK T01700140 IEM_DS3505
ZBTJ,1988-06-03 21:27,ZBTJ 032127Z AUTO 15004KT 3SM 17/14 A2974 RMK T01700140 IEM_DS3505
ZBTJ,1988-06-03 23:00,ZBTJ 032300Z AUTO 23006KT 2 1/2SM 20/14 A2974 RMK T02000140 IEM_DS3505
ZBTJ,1988-06-03 23:25,ZBTJ 032325Z AUTO 23006KT 2 1/2SM 20/14 A2974 RMK T02000140 IEM_DS3505
ZBTJ,1988-06-03 23:28,ZBTJ 032328Z AUTO 23006KT 2 1/2SM 20/14 A2974 RMK T02000140 IEM_DS3505
ZBTJ,1988-06-04 00:00,ZBTJ 040000Z AUTO 00000KT 2 1/2SM 23/13 A2977 RMK T02300130 IEM_DS3505
ZBTJ,1988-06-04 00:26,ZBTJ 040026Z AUTO 00000KT 2 1/2SM 23/13 A2977 RMK T02300130 IEM_DS3505
ZBTJ,1988-06-04 00:28,ZBTJ 040028Z AUTO 00000KT 2 1/2SM 23/13 A2977 RMK T02300130 IEM_DS3505
ZBTJ,1988-06-04 01:00,ZBTJ 040100Z AUTO 36008KT 2 1/2SM 25/15 A2977 RMK T02500150 IEM_DS3505
ZBTJ,1988-06-04 01:25,ZBTJ 040125Z AUTO 36008KT 2 1/2SM 25/15 A2977 RMK T02500150 IEM_DS3505
ZBTJ,1988-06-04 01:27,ZBTJ 040127Z AUTO 36008KT 2 1/2SM 25/15 A2977 RMK T02500150 IEM_DS3505
ZBTJ,1988-06-04 02:00,ZBTJ 040200Z AUTO 00000KT 3SM 27/15 A2977 RMK T02700150 IEM_DS3505
ZBTJ,1988-06-04 02:25,ZBTJ 040225Z AUTO 00000KT 3SM 27/15 A2977 RMK T02700150 IEM_DS3505
ZBTJ,1988-06-04 02:28,ZBTJ 040228Z AUTO 00000KT 3SM 27/15 A2977 RMK T02700150 IEM_DS3505
ZBTJ,1988-06-04 03:00,ZBTJ 040300Z AUTO 36006KT 5SM 29/16 A2977 RMK T02900160 IEM_DS3505
ZBTJ,1988-06-04 03:25,ZBTJ 040325Z AUTO 36006KT 5SM 29/16 A2977 RMK T02900160 IEM_DS3505
ZBTJ,1988-06-04 03:28,ZBTJ 040328Z AUTO 36006KT 5SM 29/16 A2977 RMK T02900160 IEM_DS3505
ZBTJ,1988-06-04 04:00,ZBTJ 040400Z AUTO 36006KT RMK IEM_DS3505
ZBTJ,1988-06-04 04:25,ZBTJ 040425Z AUTO 36006KT RMK IEM_DS3505
ZBTJ,1988-06-04 04:28,ZBTJ 040428Z AUTO 36006KT RMK IEM_DS3505
ZBTJ,1988-06-04 05:00,ZBTJ 040500Z AUTO 02008KT RMK IEM_DS3505
ZBTJ,1988-06-04 05:25,ZBTJ 040525Z AUTO 02008KT RMK IEM_DS3505
ZBTJ,1988-06-04 05:28,ZBTJ 040528Z AUTO 02008KT RMK IEM_DS3505
ZBTJ,1988-06-04 06:00,ZBTJ 040600Z AUTO 03008KT RMK IEM_DS3505
ZBTJ,1988-06-04 06:25,ZBTJ 040625Z AUTO 03008KT RMK IEM_DS3505
ZBTJ,1988-06-04 06:28,ZBTJ 040628Z AUTO 03008KT RMK IEM_DS3505
ZBTJ,1988-06-04 07:00,ZBTJ 040700Z AUTO 03004KT RMK IEM_DS3505
ZBTJ,1988-06-04 07:25,ZBTJ 040725Z AUTO 03004KT RMK IEM_DS3505
ZBTJ,1988-06-04 07:27,ZBTJ 040727Z AUTO 03004KT RMK IEM_DS3505
ZBTJ,1988-06-04 08:00,ZBTJ 040800Z AUTO 36004KT RMK IEM_DS3505
ZBTJ,1988-06-04 08:25,ZBTJ 040825Z AUTO 36004KT RMK IEM_DS3505
ZBTJ,1988-06-04 08:29,ZBTJ 040829Z AUTO 36004KT RMK IEM_DS3505
ZBTJ,1988-06-04 09:00,ZBTJ 040900Z AUTO 09010KT RMK IEM_DS3505
ZBTJ,1988-06-04 09:25,ZBTJ 040925Z AUTO 09010KT RMK IEM_DS3505
ZBTJ,1988-06-04 09:28,ZBTJ 040928Z AUTO 09010KT RMK IEM_DS3505
ZBTJ,1988-06-04 10:00,ZBTJ 041000Z AUTO 12010KT RMK IEM_DS3505
ZBTJ,1988-06-04 10:26,ZBTJ 041026Z AUTO 12010KT RMK IEM_DS3505
ZBTJ,1988-06-04 10:28,ZBTJ 041028Z AUTO 12010KT RMK IEM_DS3505
ZBTJ,1988-06-04 11:00,ZBTJ 041100Z AUTO 14008KT RMK IEM_DS3505
ZBTJ,1988-06-04 11:25,ZBTJ 041125Z AUTO 14008KT RMK IEM_DS3505
ZBTJ,1988-06-04 11:28,ZBTJ 041128Z AUTO 14008KT RMK IEM_DS3505
ZBTJ,1988-06-04 11:55,ZBTJ 041155Z AUTO 14008KT RMK IEM_DS3505
ZBTJ,1988-06-04 11:59,ZBTJ 041159Z AUTO 14008KT RMK IEM_DS3505
ZBTJ,1988-06-04 12:00,ZBTJ 041200Z AUTO 13008KT RMK IEM_DS3505
ZBTJ,1988-06-04 12:22,ZBTJ 041222Z AUTO 13008KT RMK IEM_DS3505
ZBTJ,1988-06-04 12:24,ZBTJ 041224Z AUTO 13008KT RMK IEM_DS3505
ZBTJ,1988-06-04 13:00,ZBTJ 041300Z AUTO 14008KT RMK IEM_DS3505
ZBTJ,1988-06-04 13:21,ZBTJ 041321Z AUTO 14008KT RMK IEM_DS3505
ZBTJ,1988-06-04 13:23,ZBTJ 041323Z AUTO 14008KT RMK IEM_DS3505
ZBTJ,1988-06-04 14:00,ZBTJ 041400Z AUTO 14008KT RMK IEM_DS3505
ZBTJ,1988-06-04 14:21,ZBTJ 041421Z AUTO 14008KT RMK IEM_DS3505
ZBTJ,1988-06-04 14:25,ZBTJ 041425Z AUTO 14008KT RMK IEM_DS3505
ZBTJ,1988-06-04 15:00,ZBTJ 041500Z AUTO 14010KT RMK IEM_DS3505
ZBTJ,1988-06-04 15:21,ZBTJ 041521Z AUTO 14010KT RMK IEM_DS3505
ZBTJ,1988-06-04 15:24,ZBTJ 041524Z AUTO 14010KT RMK IEM_DS3505
ZBTJ,1988-06-04 16:00,ZBTJ 041600Z AUTO 13008KT RMK IEM_DS3505
ZBTJ,1988-06-04 16:21,ZBTJ 041621Z AUTO 13008KT RMK IEM_DS3505
ZBTJ,1988-06-04 16:24,ZBTJ 041624Z AUTO 13008KT RMK IEM_DS3505
ZBTJ,1988-06-04 22:00,ZBTJ 042200Z AUTO 28008KT RMK IEM_DS3505
ZBTJ,1988-06-04 22:22,ZBTJ 042222Z AUTO 28008KT RMK IEM_DS3505
ZBTJ,1988-06-04 22:24,ZBTJ 042224Z AUTO 28008KT RMK IEM_DS3505
ZBTJ,1988-06-04 23:00,ZBTJ 042300Z AUTO 31008KT RMK IEM_DS3505
ZBTJ,1988-06-04 23:22,ZBTJ 042322Z AUTO 31008KT RMK IEM_DS3505
ZBTJ,1988-06-04 23:24,ZBTJ 042324Z AUTO 31008KT RMK IEM_DS3505
ZBTJ,1988-06-05 00:00,ZBTJ 050000Z AUTO 00000KT RMK IEM_DS3505
ZBTJ,1988-06-05 00:22,ZBTJ 050022Z AUTO 00000KT RMK IEM_DS3505
ZBTJ,1988-06-05 00:24,ZBTJ 050024Z AUTO 00000KT RMK IEM_DS3505
ZBTJ,1988-06-05 01:00,ZBTJ 050100Z AUTO 27004KT RMK IEM_DS3505
ZBTJ,1988-06-05 01:22,ZBTJ 050122Z AUTO 27004KT RMK IEM_DS3505
ZBTJ,1988-06-05 01:24,ZBTJ 050124Z AUTO 27004KT RMK IEM_DS3505
ZBTJ,1988-06-05 02:00,ZBTJ 050200Z AUTO 32004KT 7SM 23/18 A2983 RMK T02300180 IEM_DS3505
ZBTJ,1988-06-05 02:22,ZBTJ 050222Z AUTO 32004KT 7SM 23/18 A2983 RMK T02300180 IEM_DS3505
ZBTJ,1988-06-05 02:25,ZBTJ 050225Z AUTO 32004KT 7SM 23/18 A2983 RMK T02300180 IEM_DS3505
ZBTJ,1988-06-05 03:00,ZBTJ 050300Z AUTO 18006KT 7SM 24/18 A2983 RMK T02400180 IEM_DS3505
ZBTJ,1988-06-05 03:23,ZBTJ 050323Z AUTO 18006KT 7SM 24/18 A2983 RMK T02400180 IEM_DS3505
ZBTJ,1988-06-05 03:26,ZBTJ 050326Z AUTO 18006KT 7SM 24/18 A2983 RMK T02400180 IEM_DS3505
ZBTJ,1988-06-05 04:00,ZBTJ 050400Z AUTO 7SM 25/18 A2983 RMK T02500180 IEM_DS3505
ZBTJ,1988-06-05 06:00,ZBTJ 050600Z AUTO 33012KT 7SM 26/15 A2983 RMK T02600150 IEM_DS3505
ZBTJ,1988-06-05 06:22,ZBTJ 050622Z AUTO 33012KT 7SM 26/15 A2983 RMK T02600150 IEM_DS3505
ZBTJ,1988-06-05 06:25,ZBTJ 050625Z AUTO 33012KT 7SM 26/15 A2983 RMK T02600150 IEM_DS3505
ZBTJ,1988-06-05 07:00,ZBTJ 050700Z AUTO 01012KT 7SM 24/16 A2980 RMK T02400160 IEM_DS3505
ZBTJ,1988-06-05 07:22,ZBTJ 050722Z AUTO 01012KT 7SM 24/16 A2980 RMK T02400160 IEM_DS3505
ZBTJ,1988-06-05 07:24,ZBTJ 050724Z AUTO 01012KT 7SM 24/16 A2980 RMK T02400160 IEM_DS3505
ZBTJ,1988-06-05 08:00,ZBTJ 050800Z AUTO 33010KT 7SM 23/17 A2983 RMK T02300170 IEM_DS3505
ZBTJ,1988-06-05 08:22,ZBTJ 050822Z AUTO 33010KT 7SM 23/17 A2983 RMK T02300170 IEM_DS3505
ZBTJ,1988-06-05 08:25,ZBTJ 050825Z AUTO 33010KT 7SM 23/17 A2983 RMK T02300170 IEM_DS3505
ZBTJ,1988-06-05 09:00,ZBTJ 050900Z AUTO 33008KT 7SM 21/18 A2980 RMK T02100180 IEM_DS3505
ZBTJ,1988-06-05 09:21,ZBTJ 050921Z AUTO 33008KT 7SM 21/18 A2980 RMK T02100180 IEM_DS3505
ZBTJ,1988-06-05 09:24,ZBTJ 050924Z AUTO 33008KT 7SM 21/18 A2980 RMK T02100180 IEM_DS3505
ZBTJ,1988-06-05 10:00,ZBTJ 051000Z AUTO 31008KT 5SM 20/18 A2983 RMK T02000180 IEM_DS3505
ZBTJ,1988-06-05 10:22,ZBTJ 051022Z AUTO 31008KT 5SM 20/18 A2983 RMK T02000180 IEM_DS3505
ZBTJ,1988-06-05 10:25,ZBTJ 051025Z AUTO 31008KT 5SM 20/18 A2983 RMK T02000180 IEM_DS3505
ZBTJ,1988-06-05 11:22,ZBTJ 051122Z AUTO 31004KT 4SM 20/18 A2983 RMK T02000180 IEM_DS3505
ZBTJ,1988-06-05 11:24,ZBTJ 051124Z AUTO 31004KT 4SM 20/18 A2983 RMK T02000180 IEM_DS3505
ZBTJ,1988-06-05 12:00,ZBTJ 051200Z AUTO 00000KT 4SM 20/18 A2983 RMK T02000180 IEM_DS3505
ZBTJ,1988-06-05 12:22,ZBTJ 051222Z AUTO 00000KT 4SM 20/18 A2983 RMK T02000180 IEM_DS3505
ZBTJ,1988-06-05 12:30,ZBTJ 051230Z AUTO 00000KT 4SM 20/18 A2983 RMK T02000180 IEM_DS3505
ZBTJ,1988-06-05 14:00,ZBTJ 051400Z AUTO 15006KT 3SM 19/18 A2983 RMK T01900180 IEM_DS3505
ZBTJ,1988-06-05 14:21,ZBTJ 051421Z AUTO 15006KT 3SM 19/18 A2983 RMK T01900180 IEM_DS3505
ZBTJ,1988-06-05 14:24,ZBTJ 051424Z AUTO 15006KT 3SM 19/18 A2983 RMK T01900180 IEM_DS3505
ZBTJ,1988-06-05 21:00,ZBTJ 052100Z AUTO 36004KT 1 1/2SM 19/18 A2980 RMK T01900180 IEM_DS3505
ZBTJ,1988-06-05 21:21,ZBTJ 052121Z AUTO 36004KT 1 1/2SM 19/18 A2980 RMK T01900180 IEM_DS3505
ZBTJ,1988-06-05 21:24,ZBTJ 052124Z AUTO 36004KT 1 1/2SM 19/18 A2980 RMK T01900180 IEM_DS3505
ZBTJ,1988-06-05 22:00,ZBTJ 052200Z AUTO 00000KT 1/8SM 19/18 A2983 RMK T01900180 IEM_DS3505
ZBTJ,1988-06-05 22:21,ZBTJ 052221Z AUTO 00000KT 1/8SM 19/18 A2983 RMK T01900180 IEM_DS3505
ZBTJ,1988-06-05 22:24,ZBTJ 052224Z AUTO 00000KT 1/8SM 19/18 A2983 RMK T01900180 IEM_DS3505
ZBTJ,1988-06-05 23:00,ZBTJ 052300Z AUTO 00000KT 1/4SM 19/19 A2983 RMK T01900190 IEM_DS3505
ZBTJ,1988-06-05 23:22,ZBTJ 052322Z AUTO 00000KT 1/4SM 19/19 A2983 RMK T01900190 IEM_DS3505
ZBTJ,1988-06-05 23:25,ZBTJ 052325Z AUTO 00000KT 1/4SM 19/19 A2983 RMK T01900190 IEM_DS3505
ZBTJ,1988-06-06 00:00,ZBTJ 060000Z AUTO 28004KT 1SM 20/19 A2983 RMK T02000190 IEM_DS3505
ZBTJ,1988-06-06 00:23,ZBTJ 060023Z AUTO 28004KT 1SM 20/19 A2983 RMK T02000190 IEM_DS3505
ZBTJ,1988-06-06 00:26,ZBTJ 060026Z AUTO 28004KT 1SM 20/19 A2983 RMK T02000190 IEM_DS3505
ZBTJ,1988-06-06 01:00,ZBTJ 060100Z AUTO 32004KT 1SM 21/20 A2985 RMK T02100200 IEM_DS3505
ZBTJ,1988-06-06 01:22,ZBTJ 060122Z AUTO 32004KT 1SM 21/20 A2985 RMK T02100200 IEM_DS3505
ZBTJ,1988-06-06 01:30,ZBTJ 060130Z AUTO 32004KT 1SM 21/20 A2985 RMK T02100200 IEM_DS3505
ZBTJ,1988-06-06 02:00,ZBTJ 060200Z AUTO 34004KT 1 1/4SM 23/18 A2983 RMK T02300180 IEM_DS3505
ZBTJ,1988-06-06 02:22,ZBTJ 060222Z AUTO 34004KT 1 1/4SM 23/18 A2983 RMK T02300180 IEM_DS3505
ZBTJ,1988-06-06 02:24,ZBTJ 060224Z AUTO 34004KT 1 1/4SM 23/18 A2983 RMK T02300180 IEM_DS3505
ZBTJ,1988-06-06 05:00,ZBTJ 060500Z AUTO 30006KT 5SM 27/19 A2980 RMK T02700190 IEM_DS3505
ZBTJ,1988-06-06 05:22,ZBTJ 060522Z AUTO 30006KT 5SM 27/19 A2980 RMK T02700190 IEM_DS3505
ZBTJ,1988-06-06 05:24,ZBTJ 060524Z AUTO 30006KT 5SM 27/19 A2980 RMK T02700190 IEM_DS3505
ZBTJ,1988-06-06 07:00,ZBTJ 060700Z AUTO 11006KT RMK IEM_DS3505
ZBTJ,1988-06-06 07:22,ZBTJ 060722Z AUTO 11006KT RMK IEM_DS3505
ZBTJ,1988-06-06 07:24,ZBTJ 060724Z AUTO 11006KT RMK IEM_DS3505
ZBTJ,1988-06-06 08:00,ZBTJ 060800Z AUTO 20006KT RMK IEM_DS3505
ZBTJ,1988-06-06 08:22,ZBTJ 060822Z AUTO 20006KT RMK IEM_DS3505
ZBTJ,1988-06-06 08:24,ZBTJ 060824Z AUTO 20006KT RMK IEM_DS3505
ZBTJ,1988-06-06 09:00,ZBTJ 060900Z AUTO 18004KT RMK IEM_DS3505
ZBTJ,1988-06-06 09:22,ZBTJ 060922Z AUTO 18004KT RMK IEM_DS3505
ZBTJ,1988-06-06 09:24,ZBTJ 060924Z AUTO 18004KT RMK IEM_DS3505
ZBTJ,1988-06-06 10:00,ZBTJ 061000Z AUTO 18004KT RMK IEM_DS3505
ZBTJ,1988-06-06 10:22,ZBTJ 061022Z AUTO 18004KT RMK IEM_DS3505
ZBTJ,1988-06-06 10:24,ZBTJ 061024Z AUTO 18004KT RMK IEM_DS3505
ZBTJ,1988-06-06 11:00,ZBTJ 061100Z AUTO 17004KT RMK IEM_DS3505
ZBTJ,1988-06-06 11:21,ZBTJ 061121Z AUTO 17004KT RMK IEM_DS3505
ZBTJ,1988-06-06 11:25,ZBTJ 061125Z AUTO 17004KT RMK IEM_DS3505
ZBTJ,1988-06-06 12:22,ZBTJ 061222Z AUTO 14006KT RMK IEM_DS3505
ZBTJ,1988-06-06 13:00,ZBTJ 061300Z AUTO 15004KT RMK IEM_DS3505
ZBTJ,1988-06-06 13:10,ZBTJ 061310Z AUTO 14006KT RMK IEM_DS3505
ZBTJ,1988-06-06 13:22,ZBTJ 061322Z AUTO 15004KT RMK IEM_DS3505
ZBTJ,1988-06-06 13:27,ZBTJ 061327Z AUTO 15004KT RMK IEM_DS3505
ZBTJ,1988-06-06 21:00,ZBTJ 062100Z AUTO 12006KT 2SM 20/18 A2971 RMK T02000180 IEM_DS3505
ZBTJ,1988-06-06 21:22,ZBTJ 062122Z AUTO 12006KT 2SM 20/18 A2971 RMK T02000180 IEM_DS3505
ZBTJ,1988-06-06 21:24,ZBTJ 062124Z AUTO 12006KT 2SM 20/18 A2971 RMK T02000180 IEM_DS3505
ZBTJ,1988-06-06 23:00,ZBTJ 062300Z AUTO 05008KT 4SM 21/19 A2971 RMK T02100190 IEM_DS3505
ZBTJ,1988-06-06 23:23,ZBTJ 062323Z AUTO 05008KT 4SM 21/19 A2971 RMK T02100190 IEM_DS3505
ZBTJ,1988-06-06 23:26,ZBTJ 062326Z AUTO 05008KT 4SM 21/19 A2971 RMK T02100190 IEM_DS3505
ZBTJ,1988-06-07 01:00,ZBTJ 070100Z AUTO 08006KT 1SM 21/20 A2971 RMK T02100200 IEM_DS3505
ZBTJ,1988-06-07 01:22,ZBTJ 070122Z AUTO 08006KT 1SM 21/20 A2971 RMK T02100200 IEM_DS3505
ZBTJ,1988-06-07 01:25,ZBTJ 070125Z AUTO 08006KT 1SM 21/20 A2971 RMK T02100200 IEM_DS3505
ZBTJ,1988-06-07 02:00,ZBTJ 070200Z AUTO 08014KT 1SM 20/20 A2968 RMK T02000200 IEM_DS3505
ZBTJ,1988-06-07 02:22,ZBTJ 070222Z AUTO 08014KT 1SM 20/20 A2968 RMK T02000200 IEM_DS3505
ZBTJ,1988-06-07 02:25,ZBTJ 070225Z AUTO 08014KT 1SM 20/20 A2968 RMK T02000200 IEM_DS3505
ZBTJ,1988-06-07 03:00,ZBTJ 070300Z AUTO 32006KT 1SM 20/19 A2974 RMK T02000190 IEM_DS3505
ZBTJ,1988-06-07 03:25,ZBTJ 070325Z AUTO 32006KT 1SM 20/19 A2974 RMK T02000190 IEM_DS3505
ZBTJ,1988-06-07 03:26,ZBTJ 070326Z AUTO 32006KT 1SM 20/19 A2974 RMK T02000190 IEM_DS3505
ZBTJ,1988-06-07 04:27,ZBTJ 070427Z AUTO 05016KT 2SM 18/17 A2971 RMK T01800170 IEM_DS3505
ZBTJ,1988-06-07 05:00,ZBTJ 070500Z AUTO 02012KT 2SM 18/18 A2971 RMK T01800180 IEM_DS3505
ZBTJ,1988-06-07 05:28,ZBTJ 070528Z AUTO 02012KT 2SM 18/18 A2971 RMK T01800180 IEM_DS3505
ZBTJ,1988-06-07 05:29,ZBTJ 070529Z AUTO 02012KT 2SM 18/18 A2971 RMK T01800180 IEM_DS3505
ZBTJ,1988-06-07 06:00,ZBTJ 070600Z AUTO 03016KT 2SM 18/17 A2971 RMK T01800170 IEM_DS3505
ZBTJ,1988-06-07 06:23,ZBTJ 070623Z AUTO 03016KT 2SM 18/17 A2971 RMK T01800170 IEM_DS3505
ZBTJ,1988-06-07 06:25,ZBTJ 070625Z AUTO 03016KT 2SM 18/17 A2971 RMK T01800170 IEM_DS3505
ZBTJ,1988-06-07 07:00,ZBTJ 070700Z AUTO 02016KT 4SM 17/16 A2971 RMK T01700160 IEM_DS3505
ZBTJ,1988-06-07 07:28,ZBTJ 070728Z AUTO 02016KT 4SM 17/16 A2971 RMK T01700160 IEM_DS3505
ZBTJ,1988-06-07 07:31,ZBTJ 070731Z AUTO 02016KT 4SM 17/16 A2971 RMK T01700160 IEM_DS3505
ZBTJ,1988-06-07 08:00,ZBTJ 070800Z AUTO 03012KT 4SM 17/17 A2968 RMK T01700170 IEM_DS3505
ZBTJ,1988-06-07 08:23,ZBTJ 070823Z AUTO 03012KT 4SM 17/17 A2968 RMK T01700170 IEM_DS3505
ZBTJ,1988-06-07 08:26,ZBTJ 070826Z AUTO 03012KT 4SM 17/17 A2968 RMK T01700170 IEM_DS3505
ZBTJ,1988-06-07 09:00,ZBTJ 070900Z AUTO 03012KT 4SM 17/17 A3027 RMK T01700170 IEM_DS3505
ZBTJ,1988-06-07 09:22,ZBTJ 070922Z AUTO 03012KT 4SM 17/17 A3027 RMK T01700170 IEM_DS3505
ZBTJ,1988-06-07 09:25,ZBTJ 070925Z AUTO 03012KT 4SM 17/17 A3027 RMK T01700170 IEM_DS3505
ZBTJ,1988-06-07 10:00,ZBTJ 071000Z AUTO 04010KT 5SM 17/16 A2968 RMK T01700160 IEM_DS3505
ZBTJ,1988-06-07 10:22,ZBTJ 071022Z AUTO 04010KT 5SM 17/16 A2968 RMK T01700160 IEM_DS3505
ZBTJ,1988-06-07 10:25,ZBTJ 071025Z AUTO 04010KT 5SM 17/16 A2968 RMK T01700160 IEM_DS3505
ZBTJ,1988-06-07 11:00,ZBTJ 071100Z AUTO 36010KT 4SM 17/17 A2968 RMK T01700170 IEM_DS3505
ZBTJ,1988-06-07 11:23,ZBTJ 071123Z AUTO 36010KT 4SM 17/17 A2968 RMK T01700170 IEM_DS3505
ZBTJ,1988-06-07 11:25,ZBTJ 071125Z AUTO 36010KT 4SM 17/17 A2968 RMK T01700170 IEM_DS3505
ZBTJ,1988-06-07 13:00,ZBTJ 071300Z AUTO 02008KT 4SM 17/17 A2971 RMK T01700170 IEM_DS3505
ZBTJ,1988-06-07 13:21,ZBTJ 071321Z AUTO 02008KT 4SM 17/17 A2971 RMK T01700170 IEM_DS3505
ZBTJ,1988-06-07 13:24,ZBTJ 071324Z AUTO 02008KT 4SM 17/17 A2971 RMK T01700170 IEM_DS3505
ZBTJ,1988-06-07 21:00,ZBTJ 072100Z AUTO 00000KT 1/2SM 15/15 A2968 RMK T01500150 IEM_DS3505
ZBTJ,1988-06-07 22:00,ZBTJ 072200Z AUTO 00000KT 3/8SM 15/15 A2968 RMK T01500150 IEM_DS3505
ZBTJ,1988-06-07 23:00,ZBTJ 072300Z AUTO 00000KT 1SM 18/17 A2968 RMK T01800170 IEM_DS3505
ZBTJ,1988-06-07 23:22,ZBTJ 072322Z AUTO 00000KT 1SM 18/17 A2968 RMK T01800170 IEM_DS3505
ZBTJ,1988-06-07 23:25,ZBTJ 072325Z AUTO 00000KT 1SM 18/17 A2968 RMK T01800170 IEM_DS3505
ZBTJ,1988-06-08 00:00,ZBTJ 080000Z AUTO 28004KT 1 1/2SM 20/17 A2968 RMK T02000170 IEM_DS3505
ZBTJ,1988-06-08 00:22,ZBTJ 080022Z AUTO 28004KT 1 1/2SM 20/17 A2968 RMK T02000170 IEM_DS3505
ZBTJ,1988-06-08 00:40,ZBTJ 080040Z AUTO 28004KT 1 1/2SM 20/17 A2968 RMK T02000170 IEM_DS3505
ZBTJ,1988-06-08 01:00,ZBTJ 080100Z AUTO 29006KT 2 1/2SM 22/17 A2968 RMK T02200170 IEM_DS3505
ZBTJ,1988-06-08 02:00,ZBTJ 080200Z AUTO 28006KT 3SM 24/18 A2968 RMK T02400180 IEM_DS3505
ZBTJ,1988-06-08 02:25,ZBTJ 080225Z AUTO 28006KT 3SM 24/18 A2968 RMK T02400180 IEM_DS3505
ZBTJ,1988-06-08 02:28,ZBTJ 080228Z AUTO 28006KT 3SM 24/18 A2968 RMK T02400180 IEM_DS3505
ZBTJ,1988-06-08 03:00,ZBTJ 080300Z AUTO 29006KT 4SM 24/18 A2968 RMK T02400180 IEM_DS3505
ZBTJ,1988-06-08 03:26,ZBTJ 080326Z AUTO 29006KT 4SM 24/18 A2968 RMK T02400180 IEM_DS3505
ZBTJ,1988-06-08 03:29,ZBTJ 080329Z AUTO 29006KT 4SM 24/18 A2968 RMK T02400180 IEM_DS3505
ZBTJ,1988-06-08 04:00,ZBTJ 080400Z AUTO 26008KT 4SM 24/19 A2965 RMK T02400190 IEM_DS3505
ZBTJ,1988-06-08 04:25,ZBTJ 080425Z AUTO 26008KT 4SM 24/19 A2965 RMK T02400190 IEM_DS3505
ZBTJ,1988-06-08 04:26,ZBTJ 080426Z AUTO 26008KT 4SM 24/19 A2965 RMK T02400190 IEM_DS3505
ZBTJ,1988-06-08 05:00,ZBTJ 080500Z AUTO 23006KT 4SM 26/19 A2965 RMK T02600190 IEM_DS3505
ZBTJ,1988-06-08 05:22,ZBTJ 080522Z AUTO 23006KT 4SM 26/19 A2965 RMK T02600190 IEM_DS3505
ZBTJ,1988-06-08 05:25,ZBTJ 080525Z AUTO 23006KT 4SM 26/19 A2965 RMK T02600190 IEM_DS3505
ZBTJ,1988-06-08 06:00,ZBTJ 080600Z AUTO 24008KT 6SM 28/20 A2962 RMK T02800200 IEM_DS3505
ZBTJ,1988-06-08 07:00,ZBTJ 080700Z AUTO 24004KT RMK IEM_DS3505
ZBTJ,1988-06-08 07:23,ZBTJ 080723Z AUTO 24004KT RMK IEM_DS3505
ZBTJ,1988-06-08 07:25,ZBTJ 080725Z AUTO 24004KT RMK IEM_DS3505
ZBTJ,1988-06-08 08:00,ZBTJ 080800Z AUTO 18002KT RMK IEM_DS3505
ZBTJ,1988-06-08 08:22,ZBTJ 080822Z AUTO 18002KT RMK IEM_DS3505
ZBTJ,1988-06-08 08:25,ZBTJ 080825Z AUTO 18002KT RMK IEM_DS3505
ZBTJ,1988-06-08 09:00,ZBTJ 080900Z AUTO 21004KT RMK IEM_DS3505
ZBTJ,1988-06-08 09:22,ZBTJ 080922Z AUTO 21004KT RMK IEM_DS3505
ZBTJ,1988-06-08 09:24,ZBTJ 080924Z AUTO 21004KT RMK IEM_DS3505
ZBTJ,1988-06-08 11:21,ZBTJ 081121Z AUTO 20004KT RMK IEM_DS3505
ZBTJ,1988-06-08 11:25,ZBTJ 081125Z AUTO 20004KT RMK IEM_DS3505
ZBTJ,1988-06-08 12:00,ZBTJ 081200Z AUTO 22004KT RMK IEM_DS3505
ZBTJ,1988-06-08 12:22,ZBTJ 081222Z AUTO 22004KT RMK IEM_DS3505
ZBTJ,1988-06-08 12:24,ZBTJ 081224Z AUTO 22004KT RMK IEM_DS3505
ZBTJ,1988-06-08 13:00,ZBTJ 081300Z AUTO 18002KT RMK IEM_DS3505
ZBTJ,1988-06-08 13:22,ZBTJ 081322Z AUTO 18002KT RMK IEM_DS3505
ZBTJ,1988-06-08 13:24,ZBTJ 081324Z AUTO 18002KT RMK IEM_DS3505
ZBTJ,1988-06-08 14:00,ZBTJ 081400Z AUTO 15004KT RMK IEM_DS3505
ZBTJ,1988-06-08 14:21,ZBTJ 081421Z AUTO 15004KT RMK IEM_DS3505
ZBTJ,1988-06-08 14:24,ZBTJ 081424Z AUTO 15004KT RMK IEM_DS3505
ZBTJ,1988-06-08 21:22,ZBTJ 082122Z AUTO 12004KT 1 1/2SM 21/20 A2962 RMK T02100200 IEM_DS3505
ZBTJ,1988-06-08 21:25,ZBTJ 082125Z AUTO 12004KT 1 1/2SM 21/20 A2962 RMK T02100200 IEM_DS3505
ZBTJ,1988-06-08 22:00,ZBTJ 082200Z AUTO 15002KT 1 1/4SM 21/20 A2962 RMK T02100200 IEM_DS3505
ZBTJ,1988-06-08 22:22,ZBTJ 082222Z AUTO 15002KT 1 1/4SM 21/20 A2962 RMK T02100200 IEM_DS3505
ZBTJ,1988-06-08 22:25,ZBTJ 082225Z AUTO 15002KT 1 1/4SM 21/20 A2962 RMK T02100200 IEM_DS3505
ZBTJ,1988-06-08 23:00,ZBTJ 082300Z AUTO 00000KT 1SM 23/22 A2962 RMK T02300220 IEM_DS3505
ZBTJ,1988-06-08 23:23,ZBTJ 082323Z AUTO 00000KT 1SM 23/22 A2962 RMK T02300220 IEM_DS3505
ZBTJ,1988-06-08 23:26,ZBTJ 082326Z AUTO 00000KT 1SM 23/22 A2962 RMK T02300220 IEM_DS3505
ZBTJ,1988-06-09 00:00,ZBTJ 090000Z AUTO 13004KT 1 1/4SM 25/22 A2962 RMK T02500220 IEM_DS3505
ZBTJ,1988-06-09 00:23,ZBTJ 090023Z AUTO 13004KT 1 1/4SM 25/22 A2962 RMK T02500220 IEM_DS3505
ZBTJ,1988-06-09 00:25,ZBTJ 090025Z AUTO 13004KT 1 1/4SM 25/22 A2962 RMK T02500220 IEM_DS3505
ZBTJ,1988-06-09 02:00,ZBTJ 090200Z AUTO 00000KT 3SM 29/22 A2962 RMK T02900220 IEM_DS3505
ZBTJ,1988-06-09 02:22,ZBTJ 090222Z AUTO 00000KT 3SM 29/22 A2962 RMK T02900220 IEM_DS3505
ZBTJ,1988-06-09 02:25,ZBTJ 090225Z AUTO 00000KT 3SM 29/22 A2962 RMK T02900220 IEM_DS3505
ZBTJ,1988-06-09 03:00,ZBTJ 090300Z AUTO 15004KT RMK IEM_DS3505
ZBTJ,1988-06-09 03:22,ZBTJ 090322Z AUTO 15004KT RMK IEM_DS3505
ZBTJ,1988-06-09 03:25,ZBTJ 090325Z AUTO 15004KT RMK IEM_DS3505
ZBTJ,1988-06-09 04:00,ZBTJ 090400Z AUTO 6SM 31/22 A2959 RMK T03100220 IEM_DS3505
ZBTJ,1988-06-09 04:22,ZBTJ 090422Z AUTO 6SM 31/22 A2959 RMK T03100220 IEM_DS3505
ZBTJ,1988-06-09 04:25,ZBTJ 090425Z AUTO 6SM 31/22 A2959 RMK T03100220 IEM_DS3505
ZBTJ,1988-06-09 05:00,ZBTJ 090500Z AUTO 26006KT 7SM 32/21 A2956 RMK T03200210 IEM_DS3505
ZBTJ,1988-06-09 05:23,ZBTJ 090523Z AUTO 26006KT 7SM 32/21 A2956 RMK T03200210 IEM_DS3505
ZBTJ,1988-06-09 05:26,ZBTJ 090526Z AUTO 26006KT 7SM 32/21 A2956 RMK T03200210 IEM_DS3505
ZBTJ,1988-06-09 06:00,ZBTJ 090600Z AUTO 09012KT 7SM 32/25 A2956 RMK T03200250 IEM_DS3505
ZBTJ,1988-06-09 06:22,ZBTJ 090622Z AUTO 09012KT 7SM 32/25 A2956 RMK T03200250 IEM_DS3505
ZBTJ,1988-06-09 06:25,ZBTJ 090625Z AUTO 09012KT 7SM 32/25 A2956 RMK T03200250 IEM_DS3505
ZBTJ,1988-06-09 07:00,ZBTJ 090700Z AUTO 11010KT 7SM 30/22 A2953 RMK T03000220 IEM_DS3505
ZBTJ,1988-06-09 07:22,ZBTJ 090722Z AUTO 11010KT 7SM 30/22 A2953 RMK T03000220 IEM_DS3505
ZBTJ,1988-06-09 08:00,ZBTJ 090800Z AUTO 12010KT 7SM 30/22 A2953 RMK T03000220 IEM_DS3505
ZBTJ,1988-06-09 08:22,ZBTJ 090822Z AUTO 12010KT 7SM 30/22 A2953 RMK T03000220 IEM_DS3505
ZBTJ,1988-06-09 08:24,ZBTJ 090824Z AUTO 12010KT 7SM 30/22 A2953 RMK T03000220 IEM_DS3505
ZBTJ,1988-06-09 09:00,ZBTJ 090900Z AUTO 13010KT 7SM 29/22 A2953 RMK T02900220 IEM_DS3505
ZBTJ,1988-06-09 09:22,ZBTJ 090922Z AUTO 13010KT 7SM 29/22 A2953 RMK T02900220 IEM_DS3505
ZBTJ,1988-06-09 09:24,ZBTJ 090924Z AUTO 13010KT 7SM 29/22 A2953 RMK T02900220 IEM_DS3505
ZBTJ,1988-06-09 10:00,ZBTJ 091000Z AUTO 13006KT 7SM 28/21 A2953 RMK T02800210 IEM_DS3505
ZBTJ,1988-06-09 10:22,ZBTJ 091022Z AUTO 13006KT 7SM 28/21 A2953 RMK T02800210 IEM_DS3505
ZBTJ,1988-06-09 10:25,ZBTJ 091025Z AUTO 13006KT 7SM 28/21 A2953 RMK T02800210 IEM_DS3505
ZBTJ,1988-06-09 11:00,ZBTJ 091100Z AUTO 14008KT 7SM 27/21 A2953 RMK T02700210 IEM_DS3505
ZBTJ,1988-06-09 11:25,ZBTJ 091125Z AUTO 14008KT 7SM 27/21 A2953 RMK T02700210 IEM_DS3505
ZBTJ,1988-06-09 12:00,ZBTJ 091200Z AUTO 14006KT 7SM 25/21 A2953 RMK T02500210 IEM_DS3505
ZBTJ,1988-06-09 12:22,ZBTJ 091222Z AUTO 14006KT 7SM 25/21 A2953 RMK T02500210 IEM_DS3505
ZBTJ,1988-06-09 12:27,ZBTJ 091227Z AUTO 14006KT 7SM 25/21 A2953 RMK T02500210 IEM_DS3505
ZBTJ,1988-06-09 13:00,ZBTJ 091300Z AUTO 16004KT 7SM 24/21 A2956 RMK T02400210 IEM_DS3505
ZBTJ,1988-06-09 13:22,ZBTJ 091322Z AUTO 16004KT 7SM 24/21 A2956 RMK T02400210 IEM_DS3505
ZBTJ,1988-06-09 13:24,ZBTJ 091324Z AUTO 16004KT 7SM 24/21 A2956 RMK T02400210 IEM_DS3505
ZBTJ,1988-06-09 14:21,ZBTJ 091421Z AUTO 16004KT 7SM 23/21 A2959 RMK T02300210 IEM_DS3505
ZBTJ,1988-06-09 14:27,ZBTJ 091427Z AUTO 16004KT 7SM 23/21 A2959 RMK T02300210 IEM_DS3505
ZBTJ,1988-06-09 21:21,ZBTJ 092121Z AUTO 24006KT 7SM 22/18 A2953 RMK T02200180 IEM_DS3505
ZBTJ,1988-06-09 21:28,ZBTJ 092128Z AUTO 24006KT 7SM 22/18 A2953 RMK T02200180 IEM_DS3505
ZBTJ,1988-06-09 22:00,ZBTJ 092200Z AUTO 24006KT 5SM 22/18 A2956 RMK T02200180 IEM_DS3505
ZBTJ,1988-06-09 23:00,ZBTJ 092300Z AUTO 21006KT 4SM 23/19 A2956 RMK T02300190 IEM_DS3505
ZBTJ,1988-06-09 23:22,ZBTJ 092322Z AUTO 21006KT 4SM 23/19 A2956 RMK T02300190 IEM_DS3505
ZBTJ,1988-06-09 23:25,ZBTJ 092325Z AUTO 21006KT 4SM 23/19 A2956 RMK T02300190 IEM_DS3505
ZBTJ,1988-06-10 00:00,ZBTJ 100000Z AUTO 22006KT 4SM 25/18 A2956 RMK T02500180 IEM_DS3505
ZBTJ,1988-06-10 00:22,ZBTJ 100022Z AUTO 22006KT 4SM 25/18 A2956 RMK T02500180 IEM_DS3505
ZBTJ,1988-06-10 00:26,ZBTJ 100026Z AUTO 22006KT 4SM 25/18 A2956 RMK T02500180 IEM_DS3505
ZBTJ,1988-06-10 01:22,ZBTJ 100122Z AUTO 22008KT 7SM 27/18 A2956 RMK T02700180 IEM_DS3505
ZBTJ,1988-06-10 01:25,ZBTJ 100125Z AUTO 22008KT 7SM 27/18 A2956 RMK T02700180 IEM_DS3505
ZBTJ,1988-06-10 02:00,ZBTJ 100200Z AUTO 22008KT 7SM 28/19 A2956 RMK T02800190 IEM_DS3505
ZBTJ,1988-06-10 02:22,ZBTJ 100222Z AUTO 22008KT 7SM 28/19 A2956 RMK T02800190 IEM_DS3505
ZBTJ,1988-06-10 02:24,ZBTJ 100224Z AUTO 22008KT 7SM 28/19 A2956 RMK T02800190 IEM_DS3505
ZBTJ,1988-06-10 03:00,ZBTJ 100300Z AUTO 22010KT 7SM 30/18 A2956 RMK T03000180 IEM_DS3505
ZBTJ,1988-06-10 03:22,ZBTJ 100322Z AUTO 22010KT 7SM 30/18 A2956 RMK T03000180 IEM_DS3505
ZBTJ,1988-06-10 03:27,ZBTJ 100327Z AUTO 22010KT 7SM 30/18 A2956 RMK T03000180 IEM_DS3505
ZBTJ,1988-06-10 04:00,ZBTJ 100400Z AUTO 23012KT 7SM 32/19 A2956 RMK T03200190 IEM_DS3505
ZBTJ,1988-06-10 04:24,ZBTJ 100424Z AUTO 23012KT 7SM 32/19 A2956 RMK T03200190 IEM_DS3505
ZBTJ,1988-06-10 04:27,ZBTJ 100427Z AUTO 23012KT 7SM 32/19 A2956 RMK T03200190 IEM_DS3505
ZBTJ,1988-06-10 06:00,ZBTJ 100600Z AUTO 27008KT RMK IEM_DS3505
ZBTJ,1988-06-10 06:18,ZBTJ 100618Z AUTO 27008KT RMK IEM_DS3505
ZBTJ,1988-06-10 06:20,ZBTJ 100620Z AUTO 27008KT RMK IEM_DS3505
ZBTJ,1988-06-10 07:00,ZBTJ 100700Z AUTO 24010KT RMK IEM_DS3505
ZBTJ,1988-06-10 07:20,ZBTJ 100720Z AUTO 24010KT RMK IEM_DS3505
ZBTJ,1988-06-10 07:22,ZBTJ 100722Z AUTO 24010KT RMK IEM_DS3505
ZBTJ,1988-06-10 08:00,ZBTJ 100800Z AUTO 32010KT RMK IEM_DS3505
ZBTJ,1988-06-10 08:18,ZBTJ 100818Z AUTO 32010KT RMK IEM_DS3505
ZBTJ,1988-06-10 08:21,ZBTJ 100821Z AUTO 32010KT RMK IEM_DS3505
ZBTJ,1988-06-10 09:00,ZBTJ 100900Z AUTO 31008KT RMK IEM_DS3505
ZBTJ,1988-06-10 09:21,ZBTJ 100921Z AUTO 31008KT RMK IEM_DS3505
ZBTJ,1988-06-10 09:25,ZBTJ 100925Z AUTO 31008KT RMK IEM_DS3505
ZBTJ,1988-06-10 10:00,ZBTJ 101000Z AUTO 33008KT 7SM 31/19 A2956 RMK T03100190 IEM_DS3505
ZBTJ,1988-06-10 10:18,ZBTJ 101018Z AUTO 33008KT 7SM 31/19 A2956 RMK T03100190 IEM_DS3505
ZBTJ,1988-06-10 12:00,ZBTJ 101200Z AUTO 32008KT 6SM 28/19 A2959 RMK T02800190 IEM_DS3505
ZBTJ,1988-06-10 12:05,ZBTJ 101205Z AUTO 33008KT 7SM 31/19 A2956 RMK T03100190 IEM_DS3505
ZBTJ,1988-06-10 12:26,ZBTJ 101226Z AUTO 32008KT 6SM 28/19 A2959 RMK T02800190 IEM_DS3505
ZBTJ,1988-06-10 12:31,ZBTJ 101231Z AUTO 32008KT 6SM 28/19 A2959 RMK T02800190 IEM_DS3505
ZBTJ,1988-06-10 13:00,ZBTJ 101300Z AUTO 32008KT RMK IEM_DS3505
ZBTJ,1988-06-10 13:17,ZBTJ 101317Z AUTO 32008KT RMK IEM_DS3505
ZBTJ,1988-06-10 13:27,ZBTJ 101327Z AUTO 32008KT RMK IEM_DS3505
ZBTJ,1988-06-10 14:00,ZBTJ 101400Z AUTO 31010KT RMK IEM_DS3505
ZBTJ,1988-06-10 14:17,ZBTJ 101417Z AUTO 31010KT RMK IEM_DS3505
ZBTJ,1988-06-10 14:26,ZBTJ 101426Z AUTO 31010KT RMK IEM_DS3505
ZBTJ,1988-06-10 21:00,ZBTJ 102100Z AUTO 29006KT RMK IEM_DS3505
ZBTJ,1988-06-10 22:00,ZBTJ 102200Z AUTO 6SM 23/15 A2965 RMK T02300150 IEM_DS3505
ZBTJ,1988-06-10 23:00,ZBTJ 102300Z AUTO 27010KT RMK IEM_DS3505
ZBTJ,1988-06-10 23:17,ZBTJ 102317Z AUTO 27010KT RMK IEM_DS3505
ZBTJ,1988-06-10 23:21,ZBTJ 102321Z AUTO 27010KT RMK IEM_DS3505
ZBTJ,1988-06-11 00:00,ZBTJ 110000Z AUTO 28008KT RMK IEM_DS3505
ZBTJ,1988-06-11 00:19,ZBTJ 110019Z AUTO 28008KT RMK IEM_DS3505
ZBTJ,1988-06-11 00:25,ZBTJ 110025Z AUTO 28008KT RMK IEM_DS3505
ZBTJ,1988-06-11 01:00,ZBTJ 110100Z AUTO 27010KT RMK IEM_DS3505
ZBTJ,1988-06-11 01:18,ZBTJ 110118Z AUTO 27010KT RMK IEM_DS3505
ZBTJ,1988-06-11 01:21,ZBTJ 110121Z AUTO 27010KT RMK IEM_DS3505
ZBTJ,1988-06-11 02:00,ZBTJ 110200Z AUTO 27008KT RMK IEM_DS3505
ZBTJ,1988-06-11 02:22,ZBTJ 110222Z AUTO 27008KT RMK IEM_DS3505
ZBTJ,1988-06-11 02:32,ZBTJ 110232Z AUTO 27008KT RMK IEM_DS3505
ZBTJ,1988-06-11 03:00,ZBTJ 110300Z AUTO 29006KT RMK IEM_DS3505
ZBTJ,1988-06-11 03:18,ZBTJ 110318Z AUTO 29006KT RMK IEM_DS3505
ZBTJ,1988-06-11 03:21,ZBTJ 110321Z AUTO 29006KT RMK IEM_DS3505
ZBTJ,1988-06-11 04:00,ZBTJ 110400Z AUTO 29006KT RMK IEM_DS3505
ZBTJ,1988-06-11 04:25,ZBTJ 110425Z AUTO 29006KT RMK IEM_DS3505
ZBTJ,1988-06-11 04:28,ZBTJ 110428Z AUTO 29006KT RMK IEM_DS3505
ZBTJ,1988-06-11 05:00,ZBTJ 110500Z AUTO 33006KT RMK IEM_DS3505
ZBTJ,1988-06-11 05:26,ZBTJ 110526Z AUTO 33006KT RMK IEM_DS3505
ZBTJ,1988-06-11 05:28,ZBTJ 110528Z AUTO 33006KT RMK IEM_DS3505
ZBTJ,1988-06-11 06:00,ZBTJ 110600Z AUTO 33008KT RMK IEM_DS3505
ZBTJ,1988-06-11 06:25,ZBTJ 110625Z AUTO 33008KT RMK IEM_DS3505
ZBTJ,1988-06-11 06:28,ZBTJ 110628Z AUTO 33008KT RMK IEM_DS3505
ZBTJ,1988-06-11 07:00,ZBTJ 110700Z AUTO 33008KT RMK IEM_DS3505
ZBTJ,1988-06-11 07:26,ZBTJ 110726Z AUTO 28006KT RMK IEM_DS3505
ZBTJ,1988-06-11 07:28,ZBTJ 110728Z AUTO 28006KT RMK IEM_DS3505
ZBTJ,1988-06-11 10:00,ZBTJ 111000Z AUTO 24006KT RMK IEM_DS3505
ZBTJ,1988-06-11 10:24,ZBTJ 111024Z AUTO 24006KT RMK IEM_DS3505
ZBTJ,1988-06-11 10:27,ZBTJ 111027Z AUTO 24006KT RMK IEM_DS3505
ZBTJ,1988-06-11 11:00,ZBTJ 111100Z AUTO 22004KT 7SM 30/13 A2956 RMK T03000130 IEM_DS3505
ZBTJ,1988-06-11 11:24,ZBTJ 111124Z AUTO 22004KT 7SM 30/13 A2956 RMK T03000130 IEM_DS3505
ZBTJ,1988-06-11 11:26,ZBTJ 111126Z AUTO 22004KT 7SM 30/13 A2956 RMK T03000130 IEM_DS3505
ZBTJ,1988-06-11 12:00,ZBTJ 111200Z AUTO 21006KT RMK IEM_DS3505
ZBTJ,1988-06-11 12:24,ZBTJ 111224Z AUTO 21006KT RMK IEM_DS3505
ZBTJ,1988-06-11 12:27,ZBTJ 111227Z AUTO 21006KT RMK IEM_DS3505
ZBTJ,1988-06-11 13:00,ZBTJ 111300Z AUTO 01004KT RMK IEM_DS3505
ZBTJ,1988-06-11 13:23,ZBTJ 111323Z AUTO 01004KT RMK IEM_DS3505
ZBTJ,1988-06-11 13:32,ZBTJ 111332Z AUTO 01004KT RMK IEM_DS3505
ZBTJ,1988-06-11 21:00,ZBTJ 112100Z AUTO 18004KT 7SM 19/15 A2962 RMK T01900150 IEM_DS3505
ZBTJ,1988-06-11 21:23,ZBTJ 112123Z AUTO 18004KT 7SM 19/15 A2962 RMK T01900150 IEM_DS3505
ZBTJ,1988-06-11 21:30,ZBTJ 112130Z AUTO 18004KT 7SM 19/15 A2962 RMK T01900150 IEM_DS3505
ZBTJ,1988-06-11 22:00,ZBTJ 112200Z AUTO 21004KT 4SM 19/16 A2962 RMK T01900160 IEM_DS3505
ZBTJ,1988-06-11 22:23,ZBTJ 112223Z AUTO 21004KT 4SM 19/16 A2962 RMK T01900160 IEM_DS3505
ZBTJ,1988-06-11 22:26,ZBTJ 112226Z AUTO 21004KT 4SM 19/16 A2962 RMK T01900160 IEM_DS3505
ZBTJ,1988-06-12 00:00,ZBTJ 120000Z AUTO 31004KT 7SM 26/17 A2965 RMK T02600170 IEM_DS3505
ZBTJ,1988-06-12 00:24,ZBTJ 120024Z AUTO 31004KT 7SM 26/17 A2965 RMK T02600170 IEM_DS3505
ZBTJ,1988-06-12 00:27,ZBTJ 120027Z AUTO 31004KT 7SM 26/17 A2965 RMK T02600170 IEM_DS3505
ZBTJ,1988-06-12 01:00,ZBTJ 120100Z AUTO 31006KT 7SM 28/17 A2965 RMK T02800170 IEM_DS3505
ZBTJ,1988-06-12 01:24,ZBTJ 120124Z AUTO 31006KT 7SM 28/17 A2965 RMK T02800170 IEM_DS3505
ZBTJ,1988-06-12 01:25,ZBTJ 120125Z AUTO 31006KT 7SM 28/17 A2965 RMK T02800170 IEM_DS3505
ZBTJ,1988-06-12 02:00,ZBTJ 120200Z AUTO 31006KT 7SM 31/19 A2965 RMK T03100190 IEM_DS3505
ZBTJ,1988-06-12 02:24,ZBTJ 120224Z AUTO 31006KT 7SM 31/19 A2965 RMK T03100190 IEM_DS3505
ZBTJ,1988-06-12 02:29,ZBTJ 120229Z AUTO 31006KT 7SM 31/19 A2965 RMK T03100190 IEM_DS3505
ZBTJ,1988-06-12 03:00,ZBTJ 120300Z AUTO 31004KT 7SM 33/19 A2965 RMK T03300190 IEM_DS3505
ZBTJ,1988-06-12 03:26,ZBTJ 120326Z AUTO 31004KT 7SM 33/19 A2965 RMK T03300190 IEM_DS3505
ZBTJ,1988-06-12 03:27,ZBTJ 120327Z AUTO 31004KT 7SM 33/19 A2965 RMK T03300190 IEM_DS3505
ZBTJ,1988-06-12 12:00,ZBTJ 121200Z AUTO 17006KT RMK IEM_DS3505
ZBTJ,1988-06-12 12:24,ZBTJ 121224Z AUTO 17006KT RMK IEM_DS3505
ZBTJ,1988-06-12 12:27,ZBTJ 121227Z AUTO 17006KT RMK IEM_DS3505
ZBTJ,1988-06-12 13:00,ZBTJ 121300Z AUTO 16008KT RMK IEM_DS3505
ZBTJ,1988-06-12 13:24,ZBTJ 121324Z AUTO 16008KT RMK IEM_DS3505
ZBTJ,1988-06-12 13:26,ZBTJ 121326Z AUTO 16008KT RMK IEM_DS3505
ZBTJ,1988-06-12 14:00,ZBTJ 121400Z AUTO 16008KT RMK IEM_DS3505
ZBTJ,1988-06-12 14:23,ZBTJ 121423Z AUTO 16008KT RMK IEM_DS3505
ZBTJ,1988-06-12 14:25,ZBTJ 121425Z AUTO 16008KT RMK IEM_DS3505
ZBTJ,1988-06-12 21:00,ZBTJ 122100Z AUTO 00000KT 4SM 20/18 A2959 RMK T02000180 IEM_DS3505
ZBTJ,1988-06-12 22:00,ZBTJ 122200Z AUTO 01002KT 1 1/4SM 21/19 A2959 RMK T02100190 IEM_DS3505
ZBTJ,1988-06-12 22:24,ZBTJ 122224Z AUTO 01002KT 1 1/4SM 21/19 A2959 RMK T02100190 IEM_DS3505
ZBTJ,1988-06-12 22:26,ZBTJ 122226Z AUTO 01002KT 1 1/4SM 21/19 A2959 RMK T02100190 IEM_DS3505
ZBTJ,1988-06-12 23:00,ZBTJ 122300Z AUTO 00000KT 1 1/4SM 24/21 A2959 RMK T02400210 IEM_DS3505
ZBTJ,1988-06-12 23:20,ZBTJ 122320Z AUTO 00000KT 1 1/4SM 24/21 A2959 RMK T02400210 IEM_DS3505
ZBTJ,1988-06-13 00:00,ZBTJ 130000Z AUTO 01002KT 1 1/4SM 21/19 A2959 RMK T02100190 IEM_DS3505
ZBTJ,1988-06-13 00:25,ZBTJ 130025Z AUTO 07004KT 2 1/2SM 27/22 A2959 RMK T02700220 IEM_DS3505
ZBTJ,1988-06-13 00:28,ZBTJ 130028Z AUTO 07004KT 2 1/2SM 27/22 A2959 RMK T02700220 IEM_DS3505
ZBTJ,1988-06-13 01:00,ZBTJ 130100Z AUTO 12004KT 3SM 30/23 A2959 RMK T03000230 IEM_DS3505
ZBTJ,1988-06-13 01:24,ZBTJ 130124Z AUTO 12004KT 3SM 30/23 A2959 RMK T03000230 IEM_DS3505
ZBTJ,1988-06-13 01:26,ZBTJ 130126Z AUTO 12004KT 3SM 30/23 A2959 RMK T03000230 IEM_DS3505
ZBTJ,1988-06-13 02:00,ZBTJ 130200Z AUTO 15004KT 2 1/2SM 31/20 A2959 RMK T03100200 IEM_DS3505
ZBTJ,1988-06-13 02:24,ZBTJ 130224Z AUTO 15004KT 2 1/2SM 31/20 A2959 RMK T03100200 IEM_DS3505
ZBTJ,1988-06-13 02:27,ZBTJ 130227Z AUTO 15004KT 2 1/2SM 31/20 A2959 RMK T03100200 IEM_DS3505
ZBTJ,1988-06-13 03:00,ZBTJ 130300Z AUTO 15006KT 7SM 32/20 A2959 RMK T03200200 IEM_DS3505
ZBTJ,1988-06-13 03:24,ZBTJ 130324Z AUTO 15006KT 7SM 32/20 A2959 RMK T03200200 IEM_DS3505
ZBTJ,1988-06-13 03:26,ZBTJ 130326Z AUTO 15006KT 7SM 32/20 A2959 RMK T03200200 IEM_DS3505
ZBTJ,1988-06-13 04:00,ZBTJ 130400Z AUTO 20004KT 7SM 35/18 A2959 RMK T03500180 IEM_DS3505
ZBTJ,1988-06-13 04:26,ZBTJ 130426Z AUTO 20004KT 7SM 35/18 A2959 RMK T03500180 IEM_DS3505
ZBTJ,1988-06-13 04:27,ZBTJ 130427Z AUTO 20004KT 7SM 35/18 A2959 RMK T03500180 IEM_DS3505
ZBTJ,1988-06-13 05:00,ZBTJ 130500Z AUTO 23008KT 7SM 36/17 A2953 RMK T03600170 IEM_DS3505
ZBTJ,1988-06-13 05:25,ZBTJ 130525Z AUTO 23008KT 7SM 36/17 A2953 RMK T03600170 IEM_DS3505
ZBTJ,1988-06-13 05:28,ZBTJ 130528Z AUTO 23008KT 7SM 36/17 A2953 RMK T03600170 IEM_DS3505
ZBTJ,1988-06-13 07:00,ZBTJ 130700Z AUTO 22008KT 7SM RMK IEM_DS3505
ZBTJ,1988-06-13 07:25,ZBTJ 130725Z AUTO 22008KT 7SM RMK IEM_DS3505
ZBTJ,1988-06-13 07:27,ZBTJ 130727Z AUTO 22008KT 7SM RMK IEM_DS3505
ZBTJ,1988-06-13 08:00,ZBTJ 130800Z AUTO 22010KT RMK IEM_DS3505
ZBTJ,1988-06-13 08:24,ZBTJ 130824Z AUTO 22010KT RMK IEM_DS3505
ZBTJ,1988-06-13 08:27,ZBTJ 130827Z AUTO 22010KT 6SM 38/16 A2947 RMK T03800160 IEM_DS3505
ZBTJ,1988-06-13 09:00,ZBTJ 130900Z AUTO 25004KT RMK IEM_DS3505
ZBTJ,1988-06-13 09:23,ZBTJ 130923Z AUTO 25004KT RMK IEM_DS3505
ZBTJ,1988-06-13 09:28,ZBTJ 130928Z AUTO 25004KT RMK IEM_DS3505
ZBTJ,1988-06-13 10:00,ZBTJ 131000Z AUTO 27006KT RMK IEM_DS3505
ZBTJ,1988-06-13 10:23,ZBTJ 131023Z AUTO 27006KT RMK IEM_DS3505
ZBTJ,1988-06-13 10:28,ZBTJ 131028Z AUTO 27006KT RMK IEM_DS3505
ZBTJ,1988-06-13 11:00,ZBTJ 131100Z AUTO 27004KT RMK IEM_DS3505
ZBTJ,1988-06-13 11:23,ZBTJ 131123Z AUTO 27004KT RMK IEM_DS3505
ZBTJ,1988-06-13 11:35,ZBTJ 131135Z AUTO 27004KT RMK IEM_DS3505
ZBTJ,1988-06-13 12:00,ZBTJ 131200Z AUTO 30006KT RMK IEM_DS3505
ZBTJ,1988-06-13 12:23,ZBTJ 131223Z AUTO 30006KT RMK IEM_DS3505
ZBTJ,1988-06-13 12:28,ZBTJ 131228Z AUTO 30006KT RMK IEM_DS3505
ZBTJ,1988-06-13 13:00,ZBTJ 131300Z AUTO 10006KT 7SM RMK IEM_DS3505
ZBTJ,1988-06-13 13:23,ZBTJ 131323Z AUTO 10006KT 7SM RMK IEM_DS3505
ZBTJ,1988-06-13 13:29,ZBTJ 131329Z AUTO 10006KT 7SM RMK IEM_DS3505
ZBTJ,1988-06-13 21:00,ZBTJ 132100Z AUTO 26006KT 7SM RMK IEM_DS3505
ZBTJ,1988-06-13 21:23,ZBTJ 132123Z AUTO 26006KT 7SM RMK IEM_DS3505
ZBTJ,1988-06-13 21:26,ZBTJ 132126Z AUTO 26006KT 7SM RMK IEM_DS3505
ZBTJ,1988-06-13 22:00,ZBTJ 132200Z AUTO 25008KT 1SM RMK IEM_DS3505
ZBTJ,1988-06-13 22:23,ZBTJ 132223Z AUTO 25008KT 1SM RMK IEM_DS3505
ZBTJ,1988-06-13 22:26,ZBTJ 132226Z AUTO 25008KT 1SM RMK IEM_DS3505
ZBTJ,1988-06-13 23:00,ZBTJ 132300Z AUTO 23006KT 1SM RMK IEM_DS3505
ZBTJ,1988-06-13 23:24,ZBTJ 132324Z AUTO 23006KT 1SM RMK IEM_DS3505
ZBTJ,1988-06-13 23:26,ZBTJ 132326Z AUTO 23006KT 1SM RMK IEM_DS3505
ZBTJ,1988-06-14 00:00,ZBTJ 140000Z AUTO 22006KT 1SM RMK IEM_DS3505
ZBTJ,1988-06-14 00:24,ZBTJ 140024Z AUTO 22006KT 1SM RMK IEM_DS3505
ZBTJ,1988-06-14 00:26,ZBTJ 140026Z AUTO 22006KT 1SM RMK IEM_DS3505
ZBTJ,1988-06-14 01:00,ZBTJ 140100Z AUTO 21006KT 1SM RMK IEM_DS3505
ZBTJ,1988-06-14 01:24,ZBTJ 140124Z AUTO 21006KT 1SM RMK IEM_DS3505
ZBTJ,1988-06-14 01:26,ZBTJ 140126Z AUTO 21006KT 1SM RMK IEM_DS3505
ZBTJ,1988-06-14 02:00,ZBTJ 140200Z AUTO 21006KT 1SM RMK IEM_DS3505
ZBTJ,1988-06-14 02:24,ZBTJ 140224Z AUTO 20008KT 1SM RMK IEM_DS3505
ZBTJ,1988-06-14 02:26,ZBTJ 140226Z AUTO 20008KT 1SM RMK IEM_DS3505
ZBTJ,1988-06-14 03:00,ZBTJ 140300Z AUTO 23006KT 7SM 34/19 A2950 RMK T03400190 IEM_DS3505
ZBTJ,1988-06-14 03:24,ZBTJ 140324Z AUTO 23006KT 7SM 34/19 A2950 RMK T03400190 IEM_DS3505
ZBTJ,1988-06-14 03:27,ZBTJ 140327Z AUTO 23006KT 7SM 34/19 A2950 RMK T03400190 IEM_DS3505
ZBTJ,1988-06-14 04:00,ZBTJ 140400Z AUTO 18006KT 7SM 36/19 A2950 RMK T03600190 IEM_DS3505
ZBTJ,1988-06-14 04:28,ZBTJ 140428Z AUTO 18006KT 7SM 36/19 A2950 RMK T03600190 IEM_DS3505
ZBTJ,1988-06-14 04:36,ZBTJ 140436Z AUTO 18006KT 7SM 36/19 A2950 RMK T03600190 IEM_DS3505
ZBTJ,1988-06-14 05:26,ZBTJ 140526Z AUTO 17008KT 7SM 37/18 A2947 RMK T03700180 IEM_DS3505
ZBTJ,1988-06-14 05:28,ZBTJ 140528Z AUTO 17008KT 7SM 37/18 A2947 RMK T03700180 IEM_DS3505
ZBTJ,1988-06-14 06:00,ZBTJ 140600Z AUTO 19004KT 7SM 37/17 A2944 RMK T03700170 IEM_DS3505
ZBTJ,1988-06-14 06:27,ZBTJ 140627Z AUTO 19004KT 7SM 37/17 A2944 RMK T03700170 IEM_DS3505
ZBTJ,1988-06-14 06:28,ZBTJ 140628Z AUTO 19004KT 7SM 37/17 A2944 RMK T03700170 IEM_DS3505
ZBTJ,1988-06-14 08:00,ZBTJ 140800Z AUTO 08010KT 7SM 36/21 RMK T03600210 IEM_DS3505
ZBTJ,1988-06-14 08:24,ZBTJ 140824Z AUTO 08010KT 7SM 36/21 RMK T03600210 IEM_DS3505
ZBTJ,1988-06-14 09:00,ZBTJ 140900Z AUTO 07008KT RMK IEM_DS3505
ZBTJ,1988-06-14 09:25,ZBTJ 140925Z AUTO 07008KT RMK IEM_DS3505
ZBTJ,1988-06-14 09:27,ZBTJ 140927Z AUTO 07008KT RMK IEM_DS3505
ZBTJ,1988-06-14 10:00,ZBTJ 141000Z AUTO 03006KT RMK IEM_DS3505
ZBTJ,1988-06-14 10:24,ZBTJ 141024Z AUTO 03006KT RMK IEM_DS3505
ZBTJ,1988-06-14 10:27,ZBTJ 141027Z AUTO 03006KT RMK IEM_DS3505
ZBTJ,1988-06-14 12:00,ZBTJ 141200Z AUTO 33004KT RMK IEM_DS3505
ZBTJ,1988-06-14 12:24,ZBTJ 141224Z AUTO 33004KT RMK IEM_DS3505
ZBTJ,1988-06-14 12:27,ZBTJ 141227Z AUTO 33004KT RMK IEM_DS3505
ZBTJ,1988-06-14 13:00,ZBTJ 141300Z AUTO 14004KT RMK IEM_DS3505
ZBTJ,1988-06-14 13:24,ZBTJ 141324Z AUTO 14004KT RMK IEM_DS3505
ZBTJ,1988-06-14 13:28,ZBTJ 141328Z AUTO 14004KT RMK IEM_DS3505
ZBTJ,1988-06-14 22:00,ZBTJ 142200Z AUTO 1 1/4SM 21/17 A2971 RMK T02100170 IEM_DS3505
ZBTJ,1988-06-14 22:24,ZBTJ 142224Z AUTO 01017KT 7SM 21/17 A2971 RMK T02100170 IEM_DS3505
ZBTJ,1988-06-14 22:27,ZBTJ 142227Z AUTO 01017KT 7SM 21/17 A2971 RMK T02100170 IEM_DS3505
ZBTJ,1988-06-14 23:00,ZBTJ 142300Z AUTO 03016KT RMK IEM_DS3505
ZBTJ,1988-06-14 23:25,ZBTJ 142325Z AUTO 03016KT RMK IEM_DS3505
ZBTJ,1988-06-14 23:27,ZBTJ 142327Z AUTO 03016KT RMK IEM_DS3505
ZBTJ,1988-06-15 00:00,ZBTJ 150000Z AUTO 02014KT 7SM 21/14 A2974 RMK T02100140 IEM_DS3505
ZBTJ,1988-06-15 00:27,ZBTJ 150027Z AUTO 02014KT 7SM 21/14 A2974 RMK T02100140 IEM_DS3505
ZBTJ,1988-06-15 00:29,ZBTJ 150029Z AUTO 02014KT 7SM 21/14 A2974 RMK T02100140 IEM_DS3505
ZBTJ,1988-06-15 00:43,ZBTJ 150043Z AUTO 02014KT 7SM 21/14 A2974 RMK T02100140 IEM_DS3505
ZBTJ,1988-06-15 01:00,ZBTJ 150100Z AUTO 04016KT RMK IEM_DS3505
ZBTJ,1988-06-15 01:24,ZBTJ 150124Z AUTO 04016KT RMK IEM_DS3505
ZBTJ,1988-06-15 01:27,ZBTJ 150127Z AUTO 04016KT RMK IEM_DS3505
ZBTJ,1988-06-15 02:00,ZBTJ 150200Z AUTO 02012KT RMK IEM_DS3505
ZBTJ,1988-06-15 02:24,ZBTJ 150224Z AUTO 02012KT RMK IEM_DS3505
ZBTJ,1988-06-15 02:31,ZBTJ 150231Z AUTO 02012KT RMK IEM_DS3505
ZBTJ,1988-06-15 03:00,ZBTJ 150300Z AUTO 02006KT RMK IEM_DS3505
ZBTJ,1988-06-15 03:26,ZBTJ 150326Z AUTO 02006KT RMK IEM_DS3505
ZBTJ,1988-06-15 03:29,ZBTJ 150329Z AUTO 02006KT RMK IEM_DS3505
ZBTJ,1988-06-15 04:00,ZBTJ 150400Z AUTO 03008KT 7SM 26/01 A2974 RMK T02600010 IEM_DS3505
ZBTJ,1988-06-15 04:27,ZBTJ 150427Z AUTO 03008KT 7SM 26/01 A2974 RMK T02600010 IEM_DS3505
ZBTJ,1988-06-15 04:32,ZBTJ 150432Z AUTO 03008KT 7SM 26/01 A2974 RMK T02600010 IEM_DS3505
ZBTJ,1988-06-15 05:00,ZBTJ 150500Z AUTO 32008KT 7SM 27/14 A2974 RMK T02700140 IEM_DS3505
ZBTJ,1988-06-15 05:29,ZBTJ 150529Z AUTO 32008KT 7SM 27/14 A2974 RMK T02700140 IEM_DS3505
ZBTJ,1988-06-15 07:00,ZBTJ 150700Z AUTO 32006KT 7SM 28/12 A2968 RMK T02800120 IEM_DS3505
ZBTJ,1988-06-15 07:28,ZBTJ 150728Z AUTO 32006KT 7SM 28/12 A2968 RMK T02800120 IEM_DS3505
ZBTJ,1988-06-15 07:31,ZBTJ 150731Z AUTO 32006KT 7SM 28/12 A2968 RMK T02800120 IEM_DS3505
ZBTJ,1988-06-15 08:00,ZBTJ 150800Z AUTO 03004KT 7SM 29/11 A2968 RMK T02900110 IEM_DS3505
ZBTJ,1988-06-15 08:28,ZBTJ 150828Z AUTO 03004KT 7SM 29/11 A2968 RMK T02900110 IEM_DS3505
ZBTJ,1988-06-15 08:30,ZBTJ 150830Z AUTO 03004KT 7SM 29/11 A2968 RMK T02900110 IEM_DS3505
ZBTJ,1988-06-15 09:00,ZBTJ 150900Z AUTO 14010KT 7SM 27/16 A2968 RMK T02700160 IEM_DS3505
ZBTJ,1988-06-15 09:27,ZBTJ 150927Z AUTO 14010KT 7SM 27/16 A2968 RMK T02700160 IEM_DS3505
ZBTJ,1988-06-15 09:33,ZBTJ 150933Z AUTO 14010KT 7SM 27/16 A2968 RMK T02700160 IEM_DS3505
ZBTJ,1988-06-15 10:00,ZBTJ 151000Z AUTO 16010KT 7SM 25/17 A2965 RMK T02500170 IEM_DS3505
ZBTJ,1988-06-15 10:29,ZBTJ 151029Z AUTO 16010KT 7SM 25/17 A2965 RMK T02500170 IEM_DS3505
ZBTJ,1988-06-15 11:00,ZBTJ 151100Z AUTO 14010KT 7SM 25/17 A2968 RMK T02500170 IEM_DS3505
ZBTJ,1988-06-15 11:29,ZBTJ 151129Z AUTO 14010KT 7SM 25/17 A2968 RMK T02500170 IEM_DS3505
ZBTJ,1988-06-15 11:59,ZBTJ 151159Z AUTO 16010KT 7SM 25/17 A2965 RMK T02500170 IEM_DS3505
ZBTJ,1988-06-15 12:00,ZBTJ 151200Z AUTO 15006KT 7SM 23/16 A2968 RMK T02300160 IEM_DS3505
ZBTJ,1988-06-15 12:29,ZBTJ 151229Z AUTO 15006KT 7SM 23/16 A2968 RMK T02300160 IEM_DS3505
ZBTJ,1988-06-15 12:46,ZBTJ 151246Z AUTO 14010KT 7SM 25/17 A2968 RMK T02500170 IEM_DS3505
ZBTJ,1988-06-15 12:47,ZBTJ 151247Z AUTO 15006KT 7SM 23/16 A2968 RMK T02300160 IEM_DS3505
ZBTJ,1988-06-15 13:00,ZBTJ 151300Z AUTO 18006KT 7SM 23/14 A2971 RMK T02300140 IEM_DS3505
ZBTJ,1988-06-15 13:26,ZBTJ 151326Z AUTO 18006KT 7SM 23/14 A2971 RMK T02300140 IEM_DS3505
ZBTJ,1988-06-15 13:29,ZBTJ 151329Z AUTO 18006KT 7SM 23/14 A2971 RMK T02300140 IEM_DS3505
ZBTJ,1988-06-15 14:00,ZBTJ 151400Z AUTO 15010KT 7SM 22/13 A2971 RMK T02200130 IEM_DS3505
ZBTJ,1988-06-15 14:26,ZBTJ 151426Z AUTO 15010KT 7SM 22/13 A2971 RMK T02200130 IEM_DS3505
ZBTJ,1988-06-15 14:33,ZBTJ 151433Z AUTO 15010KT 7SM 22/13 A2971 RMK T02200130 IEM_DS3505
ZBTJ,1988-06-15 21:00,ZBTJ 152100Z AUTO 29012KT 7SM 19/10 A2965 RMK T01900100 IEM_DS3505
ZBTJ,1988-06-15 21:26,ZBTJ 152126Z AUTO 29012KT 7SM 19/10 A2965 RMK T01900100 IEM_DS3505
ZBTJ,1988-06-15 21:29,ZBTJ 152129Z AUTO 29012KT 7SM 19/10 A2965 RMK T01900100 IEM_DS3505
ZBTJ,1988-06-15 22:00,ZBTJ 152200Z AUTO 29012KT 7SM 19/10 A2965 RMK T01900100 IEM_DS3505
ZBTJ,1988-06-15 22:26,ZBTJ 152226Z AUTO 21016KT 7SM 20/09 A2965 RMK T02000090 IEM_DS3505
ZBTJ,1988-06-15 22:29,ZBTJ 152229Z AUTO 21016KT 7SM 20/09 A2965 RMK T02000090 IEM_DS3505
ZBTJ,1988-06-15 23:00,ZBTJ 152300Z AUTO 20010KT 7SM 21/11 A2962 RMK T02100110 IEM_DS3505
ZBTJ,1988-06-15 23:26,ZBTJ 152326Z AUTO 20010KT 7SM 21/11 A2962 RMK T02100110 IEM_DS3505
ZBTJ,1988-06-15 23:29,ZBTJ 152329Z AUTO 20010KT 7SM 21/11 A2962 RMK T02100110 IEM_DS3505
ZBTJ,1988-06-15 23:37,ZBTJ 152337Z AUTO 20010KT 7SM 21/11 A2962 RMK T02100110 IEM_DS3505
ZBTJ,1988-06-16 00:00,ZBTJ 160000Z AUTO 20012KT 7SM 24/12 A2959 RMK T02400120 IEM_DS3505
ZBTJ,1988-06-16 00:26,ZBTJ 160026Z AUTO 20012KT 7SM 24/12 A2959 RMK T02400120 IEM_DS3505
ZBTJ,1988-06-16 00:29,ZBTJ 160029Z AUTO 20012KT 7SM 24/12 A2959 RMK T02400120 IEM_DS3505
ZBTJ,1988-06-16 01:00,ZBTJ 160100Z AUTO 24016KT 7SM 27/12 A2962 RMK T02700120 IEM_DS3505
ZBTJ,1988-06-16 01:27,ZBTJ 160127Z AUTO 24016KT 7SM 27/12 A2962 RMK T02700120 IEM_DS3505
ZBTJ,1988-06-16 01:30,ZBTJ 160130Z AUTO 24016KT 7SM 27/12 A2962 RMK T02700120 IEM_DS3505
ZBTJ,1988-06-16 02:00,ZBTJ 160200Z AUTO 27014KT 7SM 30/11 A2962 RMK T03000110 IEM_DS3505
ZBTJ,1988-06-16 02:27,ZBTJ 160227Z AUTO 27014KT 7SM 30/11 A2962 RMK T03000110 IEM_DS3505
ZBTJ,1988-06-16 02:44,ZBTJ 160244Z AUTO 27014KT 7SM 30/11 A2962 RMK T03000110 IEM_DS3505
ZBTJ,1988-06-16 03:00,ZBTJ 160300Z AUTO 34016KT 7SM 28/16 A2962 RMK T02800160 IEM_DS3505
ZBTJ,1988-06-16 03:28,ZBTJ 160328Z AUTO 34016KT 7SM 28/16 A2962 RMK T02800160 IEM_DS3505
ZBTJ,1988-06-16 03:29,ZBTJ 160329Z AUTO 34016KT 7SM 28/16 A2962 RMK T02800160 IEM_DS3505
ZBTJ,1988-06-16 04:00,ZBTJ 160400Z AUTO 33014KT 7SM 29/13 A2962 RMK T02900130 IEM_DS3505
ZBTJ,1988-06-16 04:20,ZBTJ 160420Z AUTO 33014KT 7SM 29/13 A2962 RMK T02900130 IEM_DS3505
ZBTJ,1988-06-16 04:27,ZBTJ 160427Z AUTO 33014KT 7SM 29/13 A2962 RMK T02900130 IEM_DS3505
ZBTJ,1988-06-16 05:00,ZBTJ 160500Z AUTO 35012KT 7SM 29/13 A2962 RMK T02900130 IEM_DS3505
ZBTJ,1988-06-16 05:27,ZBTJ 160527Z AUTO 35012KT 7SM 29/13 A2962 RMK T02900130 IEM_DS3505
ZBTJ,1988-06-16 05:29,ZBTJ 160529Z AUTO 35012KT 7SM 29/13 A2962 RMK T02900130 IEM_DS3505
ZBTJ,1988-06-16 06:00,ZBTJ 160600Z AUTO 04010KT 7SM 31/13 A2962 RMK T03100130 IEM_DS3505
ZBTJ,1988-06-16 06:27,ZBTJ 160627Z AUTO 04010KT 7SM 31/13 A2962 RMK T03100130 IEM_DS3505
ZBTJ,1988-06-16 06:30,ZBTJ 160630Z AUTO 04010KT 7SM 31/13 A2962 RMK T03100130 IEM_DS3505
ZBTJ,1988-06-16 07:00,ZBTJ 160700Z AUTO 36010KT 7SM 31/14 A2962 RMK T03100140 IEM_DS3505
ZBTJ,1988-06-16 07:26,ZBTJ 160726Z AUTO 36010KT 7SM 31/14 A2962 RMK T03100140 IEM_DS3505
ZBTJ,1988-06-16 07:29,ZBTJ 160729Z AUTO 36010KT 7SM 31/14 A2962 RMK T03100140 IEM_DS3505
ZBTJ,1988-06-16 08:00,ZBTJ 160800Z AUTO 06008KT 7SM 32/13 A2959 RMK T03200130 IEM_DS3505
ZBTJ,1988-06-16 08:27,ZBTJ 160827Z AUTO 06008KT 7SM 32/13 A2959 RMK T03200130 IEM_DS3505
ZBTJ,1988-06-16 08:29,ZBTJ 160829Z AUTO 06008KT 7SM 32/13 A2959 RMK T03200130 IEM_DS3505
ZBTJ,1988-06-16 09:00,ZBTJ 160900Z AUTO 09004KT 7SM 32/13 A2959 RMK T03200130 IEM_DS3505
ZBTJ,1988-06-16 09:26,ZBTJ 160926Z AUTO 09004KT 7SM 32/13 A2959 RMK T03200130 IEM_DS3505
ZBTJ,1988-06-16 09:30,ZBTJ 160930Z AUTO 09004KT 7SM 32/13 A2959 RMK T03200130 IEM_DS3505
ZBTJ,1988-06-16 11:00,ZBTJ 161100Z AUTO 09004KT 7SM 29/18 A2962 RMK T02900180 IEM_DS3505
ZBTJ,1988-06-16 11:27,ZBTJ 161127Z AUTO 09004KT 7SM 29/18 A2962 RMK T02900180 IEM_DS3505
ZBTJ,1988-06-16 11:28,ZBTJ 161128Z AUTO 09004KT 7SM 29/18 A2962 RMK T02900180 IEM_DS3505
ZBTJ,1988-06-16 11:29,ZBTJ 161129Z AUTO 09004KT 7SM 29/18 A2962 RMK T02900180 IEM_DS3505
ZBTJ,1988-06-16 11:33,ZBTJ 161133Z AUTO 09004KT 7SM 29/18 A2962 RMK T02900180 IEM_DS3505
ZBTJ,1988-06-16 12:00,ZBTJ 161200Z AUTO 16008KT 7SM 25/17 A2965 RMK T02500170 IEM_DS3505
ZBTJ,1988-06-16 12:26,ZBTJ 161226Z AUTO 16008KT 7SM 25/17 A2965 RMK T02500170 IEM_DS3505
ZBTJ,1988-06-16 23:00,ZBTJ 162300Z AUTO 08004KT 7SM 21/18 A2977 RMK T02100180 IEM_DS3505
ZBTJ,1988-06-16 23:28,ZBTJ 162328Z AUTO 08004KT 7SM 21/18 A2977 RMK T02100180 IEM_DS3505
ZBTJ,1988-06-16 23:30,ZBTJ 162330Z AUTO 08004KT 7SM 21/18 A2977 RMK T02100180 IEM_DS3505
ZBTJ,1988-06-17 00:00,ZBTJ 170000Z AUTO 06004KT 7SM 25/19 A2977 RMK T02500190 IEM_DS3505
ZBTJ,1988-06-17 00:26,ZBTJ 170026Z AUTO 06004KT 7SM 25/19 A2977 RMK T02500190 IEM_DS3505
ZBTJ,1988-06-17 00:38,ZBTJ 170038Z AUTO 06004KT 7SM 25/19 A2977 RMK T02500190 IEM_DS3505
ZBTJ,1988-06-17 01:00,ZBTJ 170100Z AUTO 00000KT 7SM 27/19 A2977 RMK T02700190 IEM_DS3505
ZBTJ,1988-06-17 01:26,ZBTJ 170126Z AUTO 00000KT 7SM 27/19 A2977 RMK T02700190 IEM_DS3505
ZBTJ,1988-06-17 01:29,ZBTJ 170129Z AUTO 00000KT 7SM 27/19 A2977 RMK T02700190 IEM_DS3505
ZBTJ,1988-06-17 02:00,ZBTJ 170200Z AUTO 02004KT 7SM 28/17 A2977 RMK T02800170 IEM_DS3505
ZBTJ,1988-06-17 02:27,ZBTJ 170227Z AUTO 02004KT 7SM 28/17 A2977 RMK T02800170 IEM_DS3505
ZBTJ,1988-06-17 02:29,ZBTJ 170229Z AUTO 02004KT 7SM 28/17 A2977 RMK T02800170 IEM_DS3505
ZBTJ,1988-06-17 03:00,ZBTJ 170300Z AUTO 00000KT 7SM 29/17 A2977 RMK T02900170 IEM_DS3505
ZBTJ,1988-06-17 03:33,ZBTJ 170333Z AUTO 00000KT 7SM 29/17 A2977 RMK T02900170 IEM_DS3505
ZBTJ,1988-06-17 03:34,ZBTJ 170334Z AUTO 00000KT 7SM 29/17 A2977 RMK T02900170 IEM_DS3505
ZBTJ,1988-06-17 04:39,ZBTJ 170439Z AUTO 09004KT 7SM 31/14 A2977 RMK T03100140 IEM_DS3505
ZBTJ,1988-06-17 05:00,ZBTJ 170500Z AUTO 12002KT 7SM 32/11 A2974 RMK T03200110 IEM_DS3505
ZBTJ,1988-06-17 05:32,ZBTJ 170532Z AUTO 12002KT 7SM 32/11 A2974 RMK T03200110 IEM_DS3505
ZBTJ,1988-06-17 05:35,ZBTJ 170535Z AUTO 12002KT 7SM 32/11 A2974 RMK T03200110 IEM_DS3505
ZBTJ,1988-06-17 06:00,ZBTJ 170600Z AUTO 00000KT 7SM 32/13 A2971 RMK T03200130 IEM_DS3505
ZBTJ,1988-06-17 06:30,ZBTJ 170630Z AUTO 00000KT 7SM 32/13 A2971 RMK T03200130 IEM_DS3505
ZBTJ,1988-06-17 06:36,ZBTJ 170636Z AUTO 00000KT 7SM 32/13 A2971 RMK T03200130 IEM_DS3505
ZBTJ,1988-06-17 07:00,ZBTJ 170700Z AUTO 17004KT 7SM 32/13 A2971 RMK T03200130 IEM_DS3505
ZBTJ,1988-06-17 07:27,ZBTJ 170727Z AUTO 17004KT 7SM 32/13 A2971 RMK T03200130 IEM_DS3505
ZBTJ,1988-06-17 07:30,ZBTJ 170730Z AUTO 17004KT 7SM 32/13 A2971 RMK T03200130 IEM_DS3505
ZBTJ,1988-06-17 08:00,ZBTJ 170800Z AUTO 14010KT 7SM 31/15 RMK T03100150 IEM_DS3505
ZBTJ,1988-06-17 08:27,ZBTJ 170827Z AUTO 14010KT 7SM 31/15 RMK T03100150 IEM_DS3505
ZBTJ,1988-06-17 08:30,ZBTJ 170830Z AUTO 14010KT 7SM 31/15 RMK T03100150 IEM_DS3505
ZBTJ,1988-06-17 09:00,ZBTJ 170900Z AUTO 13010KT 7SM 30/12 A2965 RMK T03000120 IEM_DS3505
ZBTJ,1988-06-17 09:27,ZBTJ 170927Z AUTO 13010KT 7SM 30/12 A2965 RMK T03000120 IEM_DS3505
ZBTJ,1988-06-17 09:30,ZBTJ 170930Z AUTO 13010KT 7SM 30/12 A2965 RMK T03000120 IEM_DS3505
ZBTJ,1988-06-17 10:28,ZBTJ 171028Z AUTO 16010KT 7SM 28/15 A2965 RMK T02800150 IEM_DS3505
ZBTJ,1988-06-17 10:31,ZBTJ 171031Z AUTO 16010KT 7SM 28/15 A2965 RMK T02800150 IEM_DS3505
ZBTJ,1988-06-17 11:00,ZBTJ 171100Z AUTO 15008KT 7SM 28/12 A2965 RMK T02800120 IEM_DS3505
ZBTJ,1988-06-17 11:28,ZBTJ 171128Z AUTO 15008KT 7SM 28/12 A2965 RMK T02800120 IEM_DS3505
ZBTJ,1988-06-17 11:36,ZBTJ 171136Z AUTO 15008KT 7SM 28/12 A2965 RMK T02800120 IEM_DS3505
ZBTJ,1988-06-17 12:00,ZBTJ 171200Z AUTO 15010KT 7SM 26/15 A2965 RMK T02600150 IEM_DS3505
ZBTJ,1988-06-17 12:27,ZBTJ 171227Z AUTO 15010KT 7SM 26/15 A2965 RMK T02600150 IEM_DS3505
ZBTJ,1988-06-17 12:30,ZBTJ 171230Z AUTO 15010KT 7SM 26/15 A2965 RMK T02600150 IEM_DS3505
ZBTJ,1988-06-17 13:00,ZBTJ 171300Z AUTO 15004KT 7SM 24/16 A2968 RMK T02400160 IEM_DS3505
ZBTJ,1988-06-17 13:26,ZBTJ 171326Z AUTO 15004KT 7SM 24/16 A2968 RMK T02400160 IEM_DS3505
ZBTJ,1988-06-17 13:29,ZBTJ 171329Z AUTO 15004KT 7SM 24/16 A2968 RMK T02400160 IEM_DS3505
ZBTJ,1988-06-17 14:00,ZBTJ 171400Z AUTO 13006KT 7SM 24/16 A2968 RMK T02400160 IEM_DS3505
ZBTJ,1988-06-17 14:26,ZBTJ 171426Z AUTO 13006KT 7SM 24/16 A2968 RMK T02400160 IEM_DS3505
ZBTJ,1988-06-17 14:29,ZBTJ 171429Z AUTO 13006KT 7SM 24/16 A2968 RMK T02400160 IEM_DS3505
ZBTJ,1988-06-17 15:00,ZBTJ 171500Z AUTO 15004KT 7SM 23/16 A2968 RMK T02300160 IEM_DS3505
ZBTJ,1988-06-17 15:26,ZBTJ 171526Z AUTO 15004KT 7SM 23/16 A2968 RMK T02300160 IEM_DS3505
ZBTJ,1988-06-17 15:28,ZBTJ 171528Z AUTO 15004KT 7SM 23/16 A2968 RMK T02300160 IEM_DS3505
ZBTJ,1988-06-17 21:00,ZBTJ 172100Z AUTO 05006KT RMK IEM_DS3505
ZBTJ,1988-06-17 21:26,ZBTJ 172126Z AUTO 05006KT RMK IEM_DS3505
ZBTJ,1988-06-17 21:28,ZBTJ 172128Z AUTO 05006KT RMK IEM_DS3505
ZBTJ,1988-06-17 22:00,ZBTJ 172200Z AUTO 08010KT 7SM 21/16 A2974 RMK T02100160 IEM_DS3505
ZBTJ,1988-06-17 22:26,ZBTJ 172226Z AUTO 08010KT 7SM 21/16 A2974 RMK T02100160 IEM_DS3505
ZBTJ,1988-06-17 22:29,ZBTJ 172229Z AUTO 08010KT 7SM 21/16 A2974 RMK T02100160 IEM_DS3505
ZBTJ,1988-06-17 23:00,ZBTJ 172300Z AUTO 09012KT 7SM 23/16 A2974 RMK T02300160 IEM_DS3505
ZBTJ,1988-06-17 23:27,ZBTJ 172327Z AUTO 09012KT 7SM 23/16 A2974 RMK T02300160 IEM_DS3505
ZBTJ,1988-06-17 23:30,ZBTJ 172330Z AUTO 09012KT 7SM 23/16 A2974 RMK T02300160 IEM_DS3505
ZBTJ,1988-06-18 00:00,ZBTJ 180000Z AUTO 10012KT 7SM 25/17 RMK T02500170 IEM_DS3505
ZBTJ,1988-06-18 00:32,ZBTJ 180032Z AUTO 10012KT 7SM 25/17 RMK T02500170 IEM_DS3505
ZBTJ,1988-06-18 00:39,ZBTJ 180039Z AUTO 10012KT 7SM 25/17 RMK T02500170 IEM_DS3505
ZBTJ,1988-06-18 01:00,ZBTJ 180100Z AUTO 09014KT 7SM 26/16 A2977 RMK T02600160 IEM_DS3505
ZBTJ,1988-06-18 01:27,ZBTJ 180127Z AUTO 09014KT 7SM 26/16 A2977 RMK T02600160 IEM_DS3505
ZBTJ,1988-06-18 01:30,ZBTJ 180130Z AUTO 09014KT 7SM 26/16 A2977 RMK T02600160 IEM_DS3505
ZBTJ,1988-06-18 02:00,ZBTJ 180200Z AUTO 08016KT RMK IEM_DS3505
ZBTJ,1988-06-18 02:27,ZBTJ 180227Z AUTO 08016KT RMK IEM_DS3505
ZBTJ,1988-06-18 02:30,ZBTJ 180230Z AUTO 08016KT RMK IEM_DS3505
ZBTJ,1988-06-18 03:00,ZBTJ 180300Z AUTO 10017KT RMK IEM_DS3505
ZBTJ,1988-06-18 03:28,ZBTJ 180328Z AUTO 10017KT RMK IEM_DS3505
ZBTJ,1988-06-18 03:32,ZBTJ 180332Z AUTO 10017KT RMK IEM_DS3505
ZBTJ,1988-06-18 04:00,ZBTJ 180400Z AUTO 10017KT RMK IEM_DS3505
ZBTJ,1988-06-18 04:27,ZBTJ 180427Z AUTO 10017KT RMK IEM_DS3505
ZBTJ,1988-06-18 04:30,ZBTJ 180430Z AUTO 10017KT RMK IEM_DS3505
ZBTJ,1988-06-18 05:00,ZBTJ 180500Z AUTO 11017KT RMK IEM_DS3505
ZBTJ,1988-06-18 05:25,ZBTJ 180525Z AUTO 11017KT RMK IEM_DS3505
ZBTJ,1988-06-18 05:28,ZBTJ 180528Z AUTO 11017KT RMK IEM_DS3505
ZBTJ,1988-06-18 05:33,ZBTJ 180533Z AUTO 11017KT RMK IEM_DS3505
ZBTJ,1988-06-18 06:25,ZBTJ 180625Z AUTO 11019KT RMK IEM_DS3505
ZBTJ,1988-06-18 06:28,ZBTJ 180628Z AUTO 11019KT RMK IEM_DS3505
ZBTJ,1988-06-18 07:00,ZBTJ 180700Z AUTO 11023KT RMK IEM_DS3505
ZBTJ,1988-06-18 07:26,ZBTJ 180726Z AUTO 11023KT RMK IEM_DS3505
ZBTJ,1988-06-18 07:28,ZBTJ 180728Z AUTO 11023KT RMK IEM_DS3505
ZBTJ,1988-06-18 08:00,ZBTJ 180800Z AUTO 11019KT 7SM 26/13 A2974 RMK T02600130 IEM_DS3505
ZBTJ,1988-06-18 08:26,ZBTJ 180826Z AUTO 11019KT 7SM 26/13 A2974 RMK T02600130 IEM_DS3505
ZBTJ,1988-06-18 08:30,ZBTJ 180830Z AUTO 11019KT 7SM 26/13 A2974 RMK T02600130 IEM_DS3505
ZBTJ,1988-06-18 09:00,ZBTJ 180900Z AUTO 12019KT 7SM 25/13 A2971 RMK T02500130 IEM_DS3505
ZBTJ,1988-06-18 09:26,ZBTJ 180926Z AUTO 12019KT 7SM 25/13 A2971 RMK T02500130 IEM_DS3505
ZBTJ,1988-06-18 09:31,ZBTJ 180931Z AUTO 12019KT 7SM 25/13 A2971 RMK T02500130 IEM_DS3505
ZBTJ,1988-06-18 10:00,ZBTJ 181000Z AUTO 10016KT 7SM 25/13 A2971 RMK T02500130 IEM_DS3505
ZBTJ,1988-06-18 10:26,ZBTJ 181026Z AUTO 10016KT 7SM 25/13 A2971 RMK T02500130 IEM_DS3505
ZBTJ,1988-06-18 10:29,ZBTJ 181029Z AUTO 10016KT 7SM 25/13 A2971 RMK T02500130 IEM_DS3505
ZBTJ,1988-06-18 11:00,ZBTJ 181100Z AUTO 10014KT 7SM 23/11 A2971 RMK T02300110 IEM_DS3505
ZBTJ,1988-06-18 11:25,ZBTJ 181125Z AUTO 10014KT 7SM 23/11 A2971 RMK T02300110 IEM_DS3505
ZBTJ,1988-06-18 11:47,ZBTJ 181147Z AUTO 10014KT 7SM 23/11 A2971 RMK T02300110 IEM_DS3505
ZBTJ,1988-06-18 13:00,ZBTJ 181300Z AUTO 11012KT RMK IEM_DS3505
ZBTJ,1988-06-18 13:25,ZBTJ 181325Z AUTO 11012KT RMK IEM_DS3505
ZBTJ,1988-06-18 13:29,ZBTJ 181329Z AUTO 11012KT RMK IEM_DS3505
ZBTJ,1988-06-18 21:00,ZBTJ 182100Z AUTO 10014KT 7SM 19/15 A2971 RMK T01900150 IEM_DS3505
ZBTJ,1988-06-18 21:25,ZBTJ 182125Z AUTO 10014KT 7SM 19/15 A2971 RMK T01900150 IEM_DS3505
ZBTJ,1988-06-18 21:28,ZBTJ 182128Z AUTO 10014KT 7SM 19/15 A2971 RMK T01900150 IEM_DS3505
ZBTJ,1988-06-18 22:00,ZBTJ 182200Z AUTO 07010KT RMK IEM_DS3505
ZBTJ,1988-06-18 22:26,ZBTJ 182226Z AUTO 07010KT RMK IEM_DS3505
ZBTJ,1988-06-18 22:29,ZBTJ 182229Z AUTO 07010KT RMK IEM_DS3505
ZBTJ,1988-06-18 23:00,ZBTJ 182300Z AUTO 08006KT 7SM 20/15 A2974 RMK T02000150 IEM_DS3505
ZBTJ,1988-06-18 23:26,ZBTJ 182326Z AUTO 08006KT 7SM 20/15 A2974 RMK T02000150 IEM_DS3505
ZBTJ,1988-06-18 23:29,ZBTJ 182329Z AUTO 08006KT 7SM 20/15 A2974 RMK T02000150 IEM_DS3505
ZBTJ,1988-06-19 00:00,ZBTJ 190000Z AUTO 36010KT 7SM 19/16 A2980 RMK T01900160 IEM_DS3505
ZBTJ,1988-06-19 00:27,ZBTJ 190027Z AUTO 36010KT 7SM 19/16 A2980 RMK T01900160 IEM_DS3505
ZBTJ,1988-06-19 00:35,ZBTJ 190035Z AUTO 36010KT 7SM 19/16 A2980 RMK T01900160 IEM_DS3505
ZBTJ,1988-06-19 01:00,ZBTJ 190100Z AUTO 08006KT 7SM 19/17 A2983 RMK T01900170 IEM_DS3505
ZBTJ,1988-06-19 01:26,ZBTJ 190126Z AUTO 08006KT 7SM 19/17 A2983 RMK T01900170 IEM_DS3505
ZBTJ,1988-06-19 01:29,ZBTJ 190129Z AUTO 08006KT 7SM 19/17 A2983 RMK T01900170 IEM_DS3505
ZBTJ,1988-06-19 02:00,ZBTJ 190200Z AUTO 04012KT 7SM 18/16 A2977 RMK T01800160 IEM_DS3505
ZBTJ,1988-06-19 02:26,ZBTJ 190226Z AUTO 04012KT 7SM 18/16 A2977 RMK T01800160 IEM_DS3505
ZBTJ,1988-06-19 02:29,ZBTJ 190229Z AUTO 04012KT 7SM 18/16 A2977 RMK T01800160 IEM_DS3505
ZBTJ,1988-06-19 03:00,ZBTJ 190300Z AUTO 08014KT 7SM 19/17 A2977 RMK T01900170 IEM_DS3505
ZBTJ,1988-06-19 03:29,ZBTJ 190329Z AUTO 08014KT 7SM 19/17 A2977 RMK T01900170 IEM_DS3505
ZBTJ,1988-06-19 03:31,ZBTJ 190331Z AUTO 08014KT 7SM 19/17 A2977 RMK T01900170 IEM_DS3505
ZBTJ,1988-06-19 04:00,ZBTJ 190400Z AUTO 11016KT RMK IEM_DS3505
ZBTJ,1988-06-19 04:30,ZBTJ 190430Z AUTO 11016KT RMK IEM_DS3505
ZBTJ,1988-06-19 05:00,ZBTJ 190500Z AUTO 11016KT RMK IEM_DS3505
ZBTJ,1988-06-19 05:26,ZBTJ 190526Z AUTO 11016KT RMK IEM_DS3505
ZBTJ,1988-06-19 05:29,ZBTJ 190529Z AUTO 11016KT RMK IEM_DS3505
ZBTJ,1988-06-19 06:00,ZBTJ 190600Z AUTO 10016KT RMK IEM_DS3505
ZBTJ,1988-06-19 06:26,ZBTJ 190626Z AUTO 10016KT RMK IEM_DS3505
ZBTJ,1988-06-19 06:28,ZBTJ 190628Z AUTO 10016KT RMK IEM_DS3505
ZBTJ,1988-06-19 07:00,ZBTJ 190700Z AUTO 10019KT RMK IEM_DS3505
ZBTJ,1988-06-19 07:26,ZBTJ 190726Z AUTO 10019KT RMK IEM_DS3505
ZBTJ,1988-06-19 07:28,ZBTJ 190728Z AUTO 10019KT RMK IEM_DS3505
ZBTJ,1988-06-19 09:00,ZBTJ 190900Z AUTO 08012KT 7SM 20/17 A2977 RMK T02000170 IEM_DS3505
ZBTJ,1988-06-19 09:26,ZBTJ 190926Z AUTO 08012KT 7SM 20/17 A2977 RMK T02000170 IEM_DS3505
ZBTJ,1988-06-19 09:28,ZBTJ 190928Z AUTO 08012KT 7SM 20/17 A2977 RMK T02000170 IEM_DS3505
ZBTJ,1988-06-19 10:00,ZBTJ 191000Z AUTO 08010KT 7SM 20/17 A2977 RMK T02000170 IEM_DS3505
ZBTJ,1988-06-19 10:26,ZBTJ 191026Z AUTO 08010KT 7SM 20/17 A2977 RMK T02000170 IEM_DS3505
ZBTJ,1988-06-19 10:30,ZBTJ 191030Z AUTO 08010KT 7SM 20/17 A2977 RMK T02000170 IEM_DS3505
ZBTJ,1988-06-19 11:00,ZBTJ 191100Z AUTO 08012KT 7SM 19/17 A2974 RMK T01900170 IEM_DS3505
ZBTJ,1988-06-19 11:26,ZBTJ 191126Z AUTO 08012KT 7SM 19/17 A2974 RMK T01900170 IEM_DS3505
ZBTJ,1988-06-19 11:29,ZBTJ 191129Z AUTO 08012KT 7SM 19/17 A2974 RMK T01900170 IEM_DS3505
ZBTJ,1988-06-19 12:00,ZBTJ 191200Z AUTO 11012KT 7SM 18/16 A2980 RMK T01800160 IEM_DS3505
ZBTJ,1988-06-19 12:26,ZBTJ 191226Z AUTO 11012KT 7SM 18/16 A2980 RMK T01800160 IEM_DS3505
ZBTJ,1988-06-19 12:31,ZBTJ 191231Z AUTO 11012KT 7SM 18/16 A2980 RMK T01800160 IEM_DS3505
ZBTJ,1988-06-19 13:00,ZBTJ 191300Z AUTO 10010KT 7SM 18/16 A2980 RMK T01800160 IEM_DS3505
ZBTJ,1988-06-19 13:26,ZBTJ 191326Z AUTO 10010KT 7SM 18/16 A2980 RMK T01800160 IEM_DS3505
ZBTJ,1988-06-19 13:28,ZBTJ 191328Z AUTO 10010KT 7SM 18/16 A2980 RMK T01800160 IEM_DS3505
ZBTJ,1988-06-19 21:00,ZBTJ 192100Z AUTO 35004KT 7SM 18/15 A2980 RMK T01800150 IEM_DS3505
ZBTJ,1988-06-19 21:25,ZBTJ 192125Z AUTO 35004KT 7SM 18/15 A2980 RMK T01800150 IEM_DS3505
ZBTJ,1988-06-19 21:28,ZBTJ 192128Z AUTO 35004KT 7SM 18/15 A2980 RMK T01800150 IEM_DS3505
ZBTJ,1988-06-19 22:00,ZBTJ 192200Z AUTO 00000KT 7SM 16/15 A2980 RMK T01600150 IEM_DS3505
ZBTJ,1988-06-19 22:26,ZBTJ 192226Z AUTO 00000KT 7SM 16/15 A2980 RMK T01600150 IEM_DS3505
ZBTJ,1988-06-19 22:28,ZBTJ 192228Z AUTO 00000KT 7SM 16/15 A2980 RMK T01600150 IEM_DS3505
ZBTJ,1988-06-19 23:00,ZBTJ 192300Z AUTO 00000KT 7SM 19/16 A2983 RMK T01900160 IEM_DS3505
ZBTJ,1988-06-19 23:27,ZBTJ 192327Z AUTO 00000KT 7SM 19/16 A2983 RMK T01900160 IEM_DS3505
ZBTJ,1988-06-20 00:00,ZBTJ 200000Z AUTO 00000KT 7SM 21/16 A2980 RMK T02100160 IEM_DS3505
ZBTJ,1988-06-20 00:28,ZBTJ 200028Z AUTO 00000KT 7SM 21/16 A2980 RMK T02100160 IEM_DS3505
ZBTJ,1988-06-20 00:37,ZBTJ 200037Z AUTO 00000KT 7SM 21/16 A2980 RMK T02100160 IEM_DS3505
ZBTJ,1988-06-20 01:00,ZBTJ 200100Z AUTO 00000KT 7SM 22/16 A2983 RMK T02200160 IEM_DS3505
ZBTJ,1988-06-20 01:26,ZBTJ 200126Z AUTO 00000KT 7SM 22/16 A2983 RMK T02200160 IEM_DS3505
ZBTJ,1988-06-20 02:00,ZBTJ 200200Z AUTO 06006KT 7SM 24/16 A2983 RMK T02400160 IEM_DS3505
ZBTJ,1988-06-20 02:26,ZBTJ 200226Z AUTO 06006KT 7SM 24/16 A2983 RMK T02400160 IEM_DS3505
ZBTJ,1988-06-20 02:29,ZBTJ 200229Z AUTO 06006KT 7SM 24/16 A2983 RMK T02400160 IEM_DS3505
ZBTJ,1988-06-20 03:00,ZBTJ 200300Z AUTO 08008KT 7SM 25/17 A2983 RMK T02500170 IEM_DS3505
ZBTJ,1988-06-20 03:27,ZBTJ 200327Z AUTO 08008KT 7SM 25/17 A2983 RMK T02500170 IEM_DS3505
ZBTJ,1988-06-20 03:29,ZBTJ 200329Z AUTO 08008KT 7SM 25/17 A2983 RMK T02500170 IEM_DS3505
ZBTJ,1988-06-20 04:00,ZBTJ 200400Z AUTO 07004KT 7SM 26/17 A2983 RMK T02600170 IEM_DS3505
ZBTJ,1988-06-20 04:29,ZBTJ 200429Z AUTO 07004KT 7SM 26/17 A2983 RMK T02600170 IEM_DS3505
ZBTJ,1988-06-20 04:30,ZBTJ 200430Z AUTO 07004KT 7SM 26/17 A2983 RMK T02600170 IEM_DS3505
ZBTJ,1988-06-20 05:00,ZBTJ 200500Z AUTO 10008KT 7SM 25/16 A2980 RMK T02500160 IEM_DS3505
ZBTJ,1988-06-20 05:27,ZBTJ 200527Z AUTO 10008KT 7SM 25/16 A2980 RMK T02500160 IEM_DS3505
ZBTJ,1988-06-20 05:29,ZBTJ 200529Z AUTO 10008KT 7SM 25/16 A2980 RMK T02500160 IEM_DS3505
ZBTJ,1988-06-20 06:00,ZBTJ 200600Z AUTO 09006KT 7SM 26/18 A2980 RMK T02600180 IEM_DS3505
ZBTJ,1988-06-20 06:26,ZBTJ 200626Z AUTO 09006KT 7SM 26/18 A2980 RMK T02600180 IEM_DS3505
ZBTJ,1988-06-20 06:29,ZBTJ 200629Z AUTO 09006KT 7SM 26/18 A2980 RMK T02600180 IEM_DS3505
ZBTJ,1988-06-20 07:00,ZBTJ 200700Z AUTO 15008KT 7SM 27/19 A2980 RMK T02700190 IEM_DS3505
ZBTJ,1988-06-20 07:26,ZBTJ 200726Z AUTO 15008KT 7SM 27/19 A2980 RMK T02700190 IEM_DS3505
ZBTJ,1988-06-20 07:29,ZBTJ 200729Z AUTO 15008KT 7SM 27/19 A2980 RMK T02700190 IEM_DS3505
ZBTJ,1988-06-20 08:00,ZBTJ 200800Z AUTO 12008KT 7SM 26/19 A2977 RMK T02600190 IEM_DS3505
ZBTJ,1988-06-20 08:27,ZBTJ 200827Z AUTO 12008KT 7SM 26/19 A2977 RMK T02600190 IEM_DS3505
ZBTJ,1988-06-20 08:30,ZBTJ 200830Z AUTO 12008KT 7SM 26/19 A2977 RMK T02600190 IEM_DS3505
ZBTJ,1988-06-20 09:00,ZBTJ 200900Z AUTO 12010KT 7SM 26/18 A2977 RMK T02600180 IEM_DS3505
ZBTJ,1988-06-20 09:27,ZBTJ 200927Z AUTO 12010KT 7SM 26/18 A2977 RMK T02600180 IEM_DS3505
ZBTJ,1988-06-20 09:50,ZBTJ 200950Z AUTO 12010KT 7SM 26/18 A2977 RMK T02600180 IEM_DS3505
ZBTJ,1988-06-20 11:00,ZBTJ 201100Z AUTO 16006KT RMK IEM_DS3505
ZBTJ,1988-06-20 11:26,ZBTJ 201126Z AUTO 16006KT RMK IEM_DS3505
ZBTJ,1988-06-20 11:28,ZBTJ 201128Z AUTO 16006KT RMK IEM_DS3505
ZBTJ,1988-06-20 12:00,ZBTJ 201200Z AUTO 13006KT RMK IEM_DS3505
ZBTJ,1988-06-20 12:26,ZBTJ 201226Z AUTO 13006KT RMK IEM_DS3505
ZBTJ,1988-06-20 12:29,ZBTJ 201229Z AUTO 13006KT RMK IEM_DS3505
ZBTJ,1988-06-20 21:00,ZBTJ 202100Z AUTO 06004KT 1SM 17/17 A2980 RMK T01700170 IEM_DS3505
ZBTJ,1988-06-20 21:27,ZBTJ 202127Z AUTO 06004KT 1SM 17/17 A2980 RMK T01700170 IEM_DS3505
ZBTJ,1988-06-20 21:31,ZBTJ 202131Z AUTO 06004KT 1SM 17/17 A2980 RMK T01700170 IEM_DS3505
ZBTJ,1988-06-20 22:00,ZBTJ 202200Z AUTO 02004KT 1SM 18/18 A2980 RMK T01800180 IEM_DS3505
ZBTJ,1988-06-20 22:26,ZBTJ 202226Z AUTO 02004KT 1SM 18/18 A2980 RMK T01800180 IEM_DS3505
ZBTJ,1988-06-20 22:29,ZBTJ 202229Z AUTO 02004KT 1SM 18/18 A2980 RMK T01800180 IEM_DS3505
ZBTJ,1988-06-20 23:00,ZBTJ 202300Z AUTO 06006KT 1SM 20/19 A2980 RMK T02000190 IEM_DS3505
ZBTJ,1988-06-20 23:28,ZBTJ 202328Z AUTO 06006KT 1SM 20/19 A2980 RMK T02000190 IEM_DS3505
ZBTJ,1988-06-20 23:31,ZBTJ 202331Z AUTO 06006KT 1SM 20/19 A2980 RMK T02000190 IEM_DS3505
ZBTJ,1988-06-21 00:00,ZBTJ 210000Z AUTO 07006KT 1SM 21/20 A2980 RMK T02100200 IEM_DS3505
ZBTJ,1988-06-21 00:26,ZBTJ 210026Z AUTO 07006KT 1SM 21/20 A2980 RMK T02100200 IEM_DS3505
ZBTJ,1988-06-21 00:30,ZBTJ 210030Z AUTO 07006KT 1SM 21/20 A2980 RMK T02100200 IEM_DS3505
ZBTJ,1988-06-21 01:00,ZBTJ 210100Z AUTO 09004KT 3SM 23/21 A2980 RMK T02300210 IEM_DS3505
ZBTJ,1988-06-21 01:26,ZBTJ 210126Z AUTO 09004KT 3SM 23/21 A2980 RMK T02300210 IEM_DS3505
ZBTJ,1988-06-21 01:29,ZBTJ 210129Z AUTO 09004KT 3SM 23/21 A2980 RMK T02300210 IEM_DS3505
ZBTJ,1988-06-21 02:00,ZBTJ 210200Z AUTO 08002KT RMK IEM_DS3505
ZBTJ,1988-06-21 02:26,ZBTJ 210226Z AUTO 08002KT RMK IEM_DS3505
ZBTJ,1988-06-21 02:29,ZBTJ 210229Z AUTO 08002KT RMK IEM_DS3505
ZBTJ,1988-06-21 03:00,ZBTJ 210300Z AUTO 11004KT 7SM 26/20 A2980 RMK T02600200 IEM_DS3505
ZBTJ,1988-06-21 03:27,ZBTJ 210327Z AUTO 11004KT 7SM 26/20 A2980 RMK T02600200 IEM_DS3505
ZBTJ,1988-06-21 03:30,ZBTJ 210330Z AUTO 11004KT 7SM 26/20 A2980 RMK T02600200 IEM_DS3505
ZBTJ,1988-06-21 04:00,ZBTJ 210400Z AUTO 12006KT RMK IEM_DS3505
ZBTJ,1988-06-21 04:26,ZBTJ 210426Z AUTO 12006KT RMK IEM_DS3505
ZBTJ,1988-06-21 04:29,ZBTJ 210429Z AUTO 12006KT RMK IEM_DS3505
ZBTJ,1988-06-21 05:00,ZBTJ 210500Z AUTO 10006KT RMK IEM_DS3505
ZBTJ,1988-06-21 05:30,ZBTJ 210530Z AUTO 10006KT RMK IEM_DS3505
ZBTJ,1988-06-21 05:33,ZBTJ 210533Z AUTO 10006KT RMK IEM_DS3505
ZBTJ,1988-06-21 06:00,ZBTJ 210600Z AUTO 12008KT RMK IEM_DS3505
ZBTJ,1988-06-21 06:27,ZBTJ 210627Z AUTO 12008KT RMK IEM_DS3505
ZBTJ,1988-06-21 06:29,ZBTJ 210629Z AUTO 12008KT RMK IEM_DS3505
ZBTJ,1988-06-21 09:00,ZBTJ 210900Z AUTO 12008KT 7SM 27/20 A2971 RMK T02700200 IEM_DS3505
ZBTJ,1988-06-21 09:27,ZBTJ 210927Z AUTO 12008KT 7SM 27/20 A2971 RMK T02700200 IEM_DS3505
ZBTJ,1988-06-21 09:30,ZBTJ 210930Z AUTO 12008KT 7SM 27/20 A2971 RMK T02700200 IEM_DS3505
ZBTJ,1988-06-21 10:00,ZBTJ 211000Z AUTO 13010KT RMK IEM_DS3505
ZBTJ,1988-06-21 11:00,ZBTJ 211100Z AUTO 11006KT RMK IEM_DS3505
ZBTJ,1988-06-21 11:26,ZBTJ 211126Z AUTO 11006KT RMK IEM_DS3505
ZBTJ,1988-06-21 11:29,ZBTJ 211129Z AUTO 11006KT RMK IEM_DS3505
ZBTJ,1988-06-21 12:00,ZBTJ 211200Z AUTO 13010KT RMK IEM_DS3505
ZBTJ,1988-06-21 12:26,ZBTJ 211226Z AUTO 13010KT RMK IEM_DS3505
ZBTJ,1988-06-21 12:28,ZBTJ 211228Z AUTO 13010KT RMK IEM_DS3505
ZBTJ,1988-06-21 13:00,ZBTJ 211300Z AUTO 13010KT RMK IEM_DS3505
ZBTJ,1988-06-21 13:26,ZBTJ 211326Z AUTO 13010KT RMK IEM_DS3505
ZBTJ,1988-06-21 13:29,ZBTJ 211329Z AUTO 13010KT RMK IEM_DS3505
ZBTJ,1988-06-21 21:00,ZBTJ 212100Z AUTO 13006KT 2 1/2SM 23/21 A2965 RMK T02300210 IEM_DS3505
ZBTJ,1988-06-21 21:26,ZBTJ 212126Z AUTO 13006KT 2 1/2SM 23/21 A2965 RMK T02300210 IEM_DS3505
ZBTJ,1988-06-21 21:29,ZBTJ 212129Z AUTO 13006KT 2 1/2SM 23/21 A2965 RMK T02300210 IEM_DS3505
ZBTJ,1988-06-21 22:00,ZBTJ 212200Z AUTO 13006KT RMK IEM_DS3505
ZBTJ,1988-06-21 22:26,ZBTJ 212226Z AUTO 13006KT RMK IEM_DS3505
ZBTJ,1988-06-21 22:33,ZBTJ 212233Z AUTO 13006KT RMK IEM_DS3505
ZBTJ,1988-06-21 23:00,ZBTJ 212300Z AUTO 14008KT RMK IEM_DS3505
ZBTJ,1988-06-21 23:27,ZBTJ 212327Z AUTO 14008KT RMK IEM_DS3505
ZBTJ,1988-06-21 23:30,ZBTJ 212330Z AUTO 14008KT RMK IEM_DS3505
ZBTJ,1988-06-22 00:00,ZBTJ 220000Z AUTO 00000KT RMK IEM_DS3505
ZBTJ,1988-06-22 00:27,ZBTJ 220027Z AUTO 00000KT RMK IEM_DS3505
ZBTJ,1988-06-22 00:29,ZBTJ 220029Z AUTO 00000KT RMK IEM_DS3505
ZBTJ,1988-06-22 01:00,ZBTJ 220100Z AUTO 12004KT RMK IEM_DS3505
ZBTJ,1988-06-22 01:27,ZBTJ 220127Z AUTO 12004KT RMK IEM_DS3505
ZBTJ,1988-06-22 01:31,ZBTJ 220131Z AUTO 12004KT RMK IEM_DS3505
ZBTJ,1988-06-22 02:00,ZBTJ 220200Z AUTO 11006KT 7SM 24/20 A2968 RMK T02400200 IEM_DS3505
ZBTJ,1988-06-22 02:27,ZBTJ 220227Z AUTO 11006KT 7SM 24/20 A2968 RMK T02400200 IEM_DS3505
ZBTJ,1988-06-22 02:30,ZBTJ 220230Z AUTO 11006KT 7SM 24/20 A2968 RMK T02400200 IEM_DS3505
ZBTJ,1988-06-22 03:00,ZBTJ 220300Z AUTO 12010KT 7SM 25/19 A2968 RMK T02500190 IEM_DS3505
ZBTJ,1988-06-22 03:31,ZBTJ 220331Z AUTO 12010KT 7SM 25/19 A2968 RMK T02500190 IEM_DS3505
ZBTJ,1988-06-22 03:32,ZBTJ 220332Z AUTO 12010KT 7SM 25/19 A2968 RMK T02500190 IEM_DS3505
ZBTJ,1988-06-22 04:00,ZBTJ 220400Z AUTO 10012KT RMK IEM_DS3505
ZBTJ,1988-06-22 04:30,ZBTJ 220430Z AUTO 10012KT RMK IEM_DS3505
ZBTJ,1988-06-22 05:00,ZBTJ 220500Z AUTO 10014KT RMK IEM_DS3505
ZBTJ,1988-06-22 05:26,ZBTJ 220526Z AUTO 10014KT RMK IEM_DS3505
ZBTJ,1988-06-22 05:29,ZBTJ 220529Z AUTO 10014KT RMK IEM_DS3505
ZBTJ,1988-06-22 06:00,ZBTJ 220600Z AUTO 09014KT RMK IEM_DS3505
ZBTJ,1988-06-22 06:26,ZBTJ 220626Z AUTO 09014KT RMK IEM_DS3505
ZBTJ,1988-06-22 06:28,ZBTJ 220628Z AUTO 09014KT RMK IEM_DS3505
ZBTJ,1988-06-22 07:00,ZBTJ 220700Z AUTO 09012KT RMK IEM_DS3505
ZBTJ,1988-06-22 07:26,ZBTJ 220726Z AUTO 09012KT RMK IEM_DS3505
ZBTJ,1988-06-22 07:28,ZBTJ 220728Z AUTO 09012KT RMK IEM_DS3505
ZBTJ,1988-06-22 08:00,ZBTJ 220800Z AUTO 07012KT RMK IEM_DS3505
ZBTJ,1988-06-22 08:26,ZBTJ 220826Z AUTO 07012KT RMK IEM_DS3505
ZBTJ,1988-06-22 08:32,ZBTJ 220832Z AUTO 07012KT RMK IEM_DS3505
ZBTJ,1988-06-22 09:00,ZBTJ 220900Z AUTO 09010KT RMK IEM_DS3505
ZBTJ,1988-06-22 09:26,ZBTJ 220926Z AUTO 09010KT RMK IEM_DS3505
ZBTJ,1988-06-22 09:29,ZBTJ 220929Z AUTO 09010KT RMK IEM_DS3505
ZBTJ,1988-06-22 10:00,ZBTJ 221000Z AUTO 09008KT RMK IEM_DS3505
ZBTJ,1988-06-22 10:27,ZBTJ 221027Z AUTO 09008KT RMK IEM_DS3505
ZBTJ,1988-06-22 10:30,ZBTJ 221030Z AUTO 09008KT RMK IEM_DS3505
ZBTJ,1988-06-22 10:31,ZBTJ 221031Z AUTO 09008KT RMK IEM_DS3505
ZBTJ,1988-06-22 11:00,ZBTJ 221100Z AUTO 08008KT RMK IEM_DS3505
ZBTJ,1988-06-22 11:26,ZBTJ 221126Z AUTO 08008KT RMK IEM_DS3505
ZBTJ,1988-06-22 11:30,ZBTJ 221130Z AUTO 08008KT RMK IEM_DS3505
ZBTJ,1988-06-22 11:47,ZBTJ 221147Z AUTO 09008KT RMK IEM_DS3505
ZBTJ,1988-06-22 12:00,ZBTJ 221200Z AUTO 08004KT 4SM 23/20 A2959 RMK T02300200 IEM_DS3505
ZBTJ,1988-06-22 12:26,ZBTJ 221226Z AUTO 08004KT 4SM 23/20 A2959 RMK T02300200 IEM_DS3505
ZBTJ,1988-06-22 12:29,ZBTJ 221229Z AUTO 08004KT 4SM 23/20 A2959 RMK T02300200 IEM_DS3505
ZBTJ,1988-06-22 13:00,ZBTJ 221300Z AUTO 10008KT 4SM 22/10 A2962 RMK T02200100 IEM_DS3505
ZBTJ,1988-06-22 13:26,ZBTJ 221326Z AUTO 10008KT 4SM 22/10 A2962 RMK T02200100 IEM_DS3505
ZBTJ,1988-06-22 13:54,ZBTJ 221354Z AUTO 10008KT 4SM 22/10 A2962 RMK T02200100 IEM_DS3505
ZBTJ,1988-06-22 21:00,ZBTJ 222100Z AUTO 15006KT RMK IEM_DS3505
ZBTJ,1988-06-22 21:27,ZBTJ 222127Z AUTO 15006KT RMK IEM_DS3505
ZBTJ,1988-06-22 21:31,ZBTJ 222131Z AUTO 15006KT RMK IEM_DS3505
ZBTJ,1988-06-22 22:00,ZBTJ 222200Z AUTO 13008KT RMK IEM_DS3505
ZBTJ,1988-06-22 22:27,ZBTJ 222227Z AUTO 13008KT RMK IEM_DS3505
ZBTJ,1988-06-22 22:30,ZBTJ 222230Z AUTO 13008KT RMK IEM_DS3505
ZBTJ,1988-06-22 23:27,ZBTJ 222327Z AUTO 16006KT RMK IEM_DS3505
ZBTJ,1988-06-22 23:29,ZBTJ 222329Z AUTO 16006KT RMK IEM_DS3505
ZBTJ,1988-06-23 00:27,ZBTJ 230027Z AUTO 00000KT 2SM A2965 RMK IEM_DS3505
ZBTJ,1988-06-23 00:30,ZBTJ 230030Z AUTO 00000KT 2SM A2965 RMK IEM_DS3505
ZBTJ,1988-06-23 01:00,ZBTJ 230100Z AUTO 07006KT 3SM 20/19 A2962 RMK T02000190 IEM_DS3505
ZBTJ,1988-06-23 01:26,ZBTJ 230126Z AUTO 07006KT 3SM 20/19 A2962 RMK T02000190 IEM_DS3505
ZBTJ,1988-06-23 01:29,ZBTJ 230129Z AUTO 07006KT 3SM 20/19 A2962 RMK T02000190 IEM_DS3505
ZBTJ,1988-06-23 02:26,ZBTJ 230226Z AUTO 16014KT RMK IEM_DS3505
ZBTJ,1988-06-23 02:29,ZBTJ 230229Z AUTO 16014KT RMK IEM_DS3505
ZBTJ,1988-06-23 04:00,ZBTJ 230400Z AUTO 05006KT RMK IEM_DS3505
ZBTJ,1988-06-23 04:31,ZBTJ 230431Z AUTO 05006KT RMK IEM_DS3505
ZBTJ,1988-06-23 04:33,ZBTJ 230433Z AUTO 05006KT RMK IEM_DS3505
ZBTJ,1988-06-23 05:00,ZBTJ 230500Z AUTO 10008KT RMK IEM_DS3505
ZBTJ,1988-06-23 05:28,ZBTJ 230528Z AUTO 10008KT RMK IEM_DS3505
ZBTJ,1988-06-23 05:32,ZBTJ 230532Z AUTO 10008KT RMK IEM_DS3505
ZBTJ,1988-06-23 06:00,ZBTJ 230600Z AUTO 11008KT 7SM 27/22 A2959 RMK T02700220 IEM_DS3505
ZBTJ,1988-06-23 06:27,ZBTJ 230627Z AUTO 11008KT 7SM 27/22 A2959 RMK T02700220 IEM_DS3505
ZBTJ,1988-06-23 06:30,ZBTJ 230630Z AUTO 11008KT 7SM 27/22 A2959 RMK T02700220 IEM_DS3505
ZBTJ,1988-06-23 07:00,ZBTJ 230700Z AUTO 11012KT 7SM 27/21 A2959 RMK T02700210 IEM_DS3505
ZBTJ,1988-06-23 07:26,ZBTJ 230726Z AUTO 11012KT 7SM 27/21 A2959 RMK T02700210 IEM_DS3505
ZBTJ,1988-06-23 09:00,ZBTJ 230900Z AUTO 09014KT RMK IEM_DS3505
ZBTJ,1988-06-23 09:26,ZBTJ 230926Z AUTO 09014KT RMK IEM_DS3505
ZBTJ,1988-06-23 09:29,ZBTJ 230929Z AUTO 09014KT RMK IEM_DS3505
ZBTJ,1988-06-23 10:00,ZBTJ 231000Z AUTO 10012KT 6SM 24/19 A2956 RMK T02400190 IEM_DS3505
ZBTJ,1988-06-23 10:26,ZBTJ 231026Z AUTO 10012KT 6SM 24/19 A2956 RMK T02400190 IEM_DS3505
ZBTJ,1988-06-23 10:29,ZBTJ 231029Z AUTO 10012KT 6SM 24/19 A2956 RMK T02400190 IEM_DS3505
ZBTJ,1988-06-23 11:00,ZBTJ 231100Z AUTO 11012KT RMK IEM_DS3505
ZBTJ,1988-06-23 11:26,ZBTJ 231126Z AUTO 11012KT RMK IEM_DS3505
ZBTJ,1988-06-23 11:28,ZBTJ 231128Z AUTO 11012KT RMK IEM_DS3505
ZBTJ,1988-06-23 12:00,ZBTJ 231200Z AUTO 12008KT RMK IEM_DS3505
ZBTJ,1988-06-23 12:26,ZBTJ 231226Z AUTO 12008KT RMK IEM_DS3505
ZBTJ,1988-06-23 12:29,ZBTJ 231229Z AUTO 12008KT RMK IEM_DS3505
ZBTJ,1988-06-23 13:00,ZBTJ 231300Z AUTO 11010KT RMK IEM_DS3505
ZBTJ,1988-06-23 13:26,ZBTJ 231326Z AUTO 11010KT RMK IEM_DS3505
ZBTJ,1988-06-23 13:29,ZBTJ 231329Z AUTO 11010KT RMK IEM_DS3505
ZBTJ,1988-06-23 14:00,ZBTJ 231400Z AUTO 11006KT RMK IEM_DS3505
ZBTJ,1988-06-23 14:26,ZBTJ 231426Z AUTO 11006KT RMK IEM_DS3505
ZBTJ,1988-06-23 14:29,ZBTJ 231429Z AUTO 11006KT RMK IEM_DS3505
ZBTJ,1988-06-23 21:26,ZBTJ 232126Z AUTO 05004KT 2 1/2SM 20/19 A2965 RMK T02000190 IEM_DS3505
ZBTJ,1988-06-23 21:32,ZBTJ 232132Z AUTO 05004KT 2 1/2SM 20/19 A2965 RMK T02000190 IEM_DS3505
ZBTJ,1988-06-23 22:00,ZBTJ 232200Z AUTO 11008KT 2 1/2SM 21/19 A2965 RMK T02100190 IEM_DS3505
ZBTJ,1988-06-23 22:27,ZBTJ 232227Z AUTO 11008KT 2 1/2SM 21/19 A2965 RMK T02100190 IEM_DS3505
ZBTJ,1988-06-23 22:30,ZBTJ 232230Z AUTO 11008KT 2 1/2SM 21/19 A2965 RMK T02100190 IEM_DS3505
ZBTJ,1988-06-24 00:00,ZBTJ 240000Z AUTO 11008KT RMK IEM_DS3505
ZBTJ,1988-06-24 00:26,ZBTJ 240026Z AUTO 11008KT RMK IEM_DS3505
ZBTJ,1988-06-24 00:29,ZBTJ 240029Z AUTO 11008KT RMK IEM_DS3505
ZBTJ,1988-06-24 01:00,ZBTJ 240100Z AUTO 12008KT RMK IEM_DS3505
ZBTJ,1988-06-24 01:26,ZBTJ 240126Z AUTO 12008KT RMK IEM_DS3505
ZBTJ,1988-06-24 01:29,ZBTJ 240129Z AUTO 12008KT RMK IEM_DS3505
ZBTJ,1988-06-24 02:00,ZBTJ 240200Z AUTO 10006KT 7SM 27/20 A2968 RMK T02700200 IEM_DS3505
ZBTJ,1988-06-24 02:27,ZBTJ 240227Z AUTO 10006KT 7SM 27/20 A2968 RMK T02700200 IEM_DS3505
ZBTJ,1988-06-24 02:31,ZBTJ 240231Z AUTO 10006KT 7SM 27/20 A2968 RMK T02700200 IEM_DS3505
ZBTJ,1988-06-24 03:36,ZBTJ 240336Z AUTO 14008KT 7SM 28/20 A2965 RMK T02800200 IEM_DS3505
ZBTJ,1988-06-24 03:47,ZBTJ 240347Z AUTO 14008KT 7SM 28/20 A2965 RMK T02800200 IEM_DS3505
ZBTJ,1988-06-24 04:31,ZBTJ 240431Z AUTO 15004KT 7SM 28/20 A2965 RMK T02800200 IEM_DS3505
ZBTJ,1988-06-24 04:36,ZBTJ 240436Z AUTO 15004KT 7SM 28/20 A2965 RMK T02800200 IEM_DS3505
ZBTJ,1988-06-24 05:30,ZBTJ 240530Z AUTO 12006KT 7SM 29/21 A2965 RMK T02900210 IEM_DS3505
ZBTJ,1988-06-24 05:33,ZBTJ 240533Z AUTO 12006KT 7SM 29/21 A2965 RMK T02900210 IEM_DS3505
ZBTJ,1988-06-24 06:29,ZBTJ 240629Z AUTO 12006KT 7SM 30/20 A2962 RMK T03000200 IEM_DS3505
ZBTJ,1988-06-24 06:43,ZBTJ 240643Z AUTO 12006KT 7SM 30/20 A2962 RMK T03000200 IEM_DS3505
ZBTJ,1988-06-24 07:00,ZBTJ 240700Z AUTO 12008KT RMK IEM_DS3505
ZBTJ,1988-06-24 07:26,ZBTJ 240726Z AUTO 12008KT RMK IEM_DS3505
ZBTJ,1988-06-24 07:28,ZBTJ 240728Z AUTO 12008KT RMK IEM_DS3505
ZBTJ,1988-06-24 08:00,ZBTJ 240800Z AUTO 14010KT 7SM 28/20 A2962 RMK T02800200 IEM_DS3505
ZBTJ,1988-06-24 08:27,ZBTJ 240827Z AUTO 14010KT 7SM 28/20 A2962 RMK T02800200 IEM_DS3505
ZBTJ,1988-06-24 08:31,ZBTJ 240831Z AUTO 14010KT 7SM 28/20 A2962 RMK T02800200 IEM_DS3505
ZBTJ,1988-06-24 09:00,ZBTJ 240900Z AUTO 12012KT 7SM 28/19 A2959 RMK T02800190 IEM_DS3505
ZBTJ,1988-06-24 09:26,ZBTJ 240926Z AUTO 12012KT 7SM 28/19 A2959 RMK T02800190 IEM_DS3505
ZBTJ,1988-06-24 09:29,ZBTJ 240929Z AUTO 12012KT 7SM 28/19 A2959 RMK T02800190 IEM_DS3505
ZBTJ,1988-06-24 10:00,ZBTJ 241000Z AUTO 11010KT RMK IEM_DS3505
ZBTJ,1988-06-24 10:26,ZBTJ 241026Z AUTO 11010KT RMK IEM_DS3505
ZBTJ,1988-06-24 10:29,ZBTJ 241029Z AUTO 11010KT RMK IEM_DS3505
ZBTJ,1988-06-24 11:00,ZBTJ 241100Z AUTO 10008KT RMK IEM_DS3505
ZBTJ,1988-06-24 11:27,ZBTJ 241127Z AUTO 10008KT RMK IEM_DS3505
ZBTJ,1988-06-24 11:30,ZBTJ 241130Z AUTO 10008KT RMK IEM_DS3505
ZBTJ,1988-06-24 12:00,ZBTJ 241200Z AUTO 12008KT RMK IEM_DS3505
ZBTJ,1988-06-24 12:27,ZBTJ 241227Z AUTO 12008KT RMK IEM_DS3505
ZBTJ,1988-06-24 12:30,ZBTJ 241230Z AUTO 12008KT RMK IEM_DS3505
ZBTJ,1988-06-24 13:00,ZBTJ 241300Z AUTO 13008KT RMK IEM_DS3505
ZBTJ,1988-06-24 13:26,ZBTJ 241326Z AUTO 13008KT RMK IEM_DS3505
ZBTJ,1988-06-24 13:32,ZBTJ 241332Z AUTO 13008KT RMK IEM_DS3505
ZBTJ,1988-06-24 14:00,ZBTJ 241400Z AUTO 12004KT RMK IEM_DS3505
ZBTJ,1988-06-24 14:27,ZBTJ 241427Z AUTO 12004KT RMK IEM_DS3505
ZBTJ,1988-06-24 14:36,ZBTJ 241436Z AUTO 12004KT RMK IEM_DS3505
ZBTJ,1988-06-24 15:00,ZBTJ 241500Z AUTO 13008KT 6SM 23/19 A2968 RMK T02300190 IEM_DS3505
ZBTJ,1988-06-24 15:26,ZBTJ 241526Z AUTO 13008KT 6SM 23/19 A2968 RMK T02300190 IEM_DS3505
ZBTJ,1988-06-24 16:15,ZBTJ 241615Z AUTO 13008KT 6SM 23/19 A2968 RMK T02300190 IEM_DS3505
ZBTJ,1988-06-24 21:00,ZBTJ 242100Z AUTO 5SM 22/ A2968 RMK IEM_DS3505
ZBTJ,1988-06-24 21:26,ZBTJ 242126Z AUTO 00000KT 5SM 22/20 A2968 RMK T02200200 IEM_DS3505
ZBTJ,1988-06-24 21:30,ZBTJ 242130Z AUTO 00000KT 5SM 22/20 A2968 RMK T02200200 IEM_DS3505
ZBTJ,1988-06-24 22:00,ZBTJ 242200Z AUTO 04004KT 5SM 21/20 A2968 RMK T02100200 IEM_DS3505
ZBTJ,1988-06-24 22:26,ZBTJ 242226Z AUTO 04004KT 5SM 21/20 A2968 RMK T02100200 IEM_DS3505
ZBTJ,1988-06-24 22:30,ZBTJ 242230Z AUTO 04004KT 5SM 21/20 A2968 RMK T02100200 IEM_DS3505
ZBTJ,1988-06-24 23:00,ZBTJ 242300Z AUTO 07004KT 4SM 22/20 A2968 RMK T02200200 IEM_DS3505
ZBTJ,1988-06-24 23:28,ZBTJ 242328Z AUTO 07004KT 4SM 22/20 A2968 RMK T02200200 IEM_DS3505
ZBTJ,1988-06-24 23:31,ZBTJ 242331Z AUTO 07004KT 4SM 22/20 A2968 RMK T02200200 IEM_DS3505
ZBTJ,1988-06-25 00:25,ZBTJ 250025Z AUTO 08006KT 4SM 24/20 A2971 RMK T02400200 IEM_DS3505
ZBTJ,1988-06-25 00:27,ZBTJ 250027Z AUTO 08006KT 4SM 24/20 A2971 RMK T02400200 IEM_DS3505
ZBTJ,1988-06-25 01:00,ZBTJ 250100Z AUTO 07004KT 4SM 25/21 A2971 RMK T02500210 IEM_DS3505
ZBTJ,1988-06-25 01:25,ZBTJ 250125Z AUTO 07004KT 4SM 25/21 A2971 RMK T02500210 IEM_DS3505
ZBTJ,1988-06-25 01:27,ZBTJ 250127Z AUTO 07004KT 4SM 25/21 A2971 RMK T02500210 IEM_DS3505
ZBTJ,1988-06-25 03:00,ZBTJ 250300Z AUTO 09006KT RMK IEM_DS3505
ZBTJ,1988-06-25 03:25,ZBTJ 250325Z AUTO 09006KT RMK IEM_DS3505
ZBTJ,1988-06-25 03:29,ZBTJ 250329Z AUTO 09006KT RMK IEM_DS3505
ZBTJ,1988-06-25 04:00,ZBTJ 250400Z AUTO 09008KT RMK IEM_DS3505
ZBTJ,1988-06-25 04:28,ZBTJ 250428Z AUTO 09008KT RMK IEM_DS3505
ZBTJ,1988-06-25 04:30,ZBTJ 250430Z AUTO 09008KT RMK IEM_DS3505
ZBTJ,1988-06-25 05:00,ZBTJ 250500Z AUTO 09008KT RMK IEM_DS3505
ZBTJ,1988-06-25 05:23,ZBTJ 250523Z AUTO 10008KT RMK IEM_DS3505
ZBTJ,1988-06-25 05:25,ZBTJ 250525Z AUTO 10008KT RMK IEM_DS3505
ZBTJ,1988-06-25 06:23,ZBTJ 250623Z AUTO 10010KT RMK IEM_DS3505
ZBTJ,1988-06-25 06:26,ZBTJ 250626Z AUTO 10010KT RMK IEM_DS3505
ZBTJ,1988-06-25 07:00,ZBTJ 250700Z AUTO 10008KT RMK IEM_DS3505
ZBTJ,1988-06-25 07:23,ZBTJ 250723Z AUTO 10008KT RMK IEM_DS3505
ZBTJ,1988-06-25 07:25,ZBTJ 250725Z AUTO 10008KT RMK IEM_DS3505
ZBTJ,1988-06-25 08:00,ZBTJ 250800Z AUTO 10010KT RMK IEM_DS3505
ZBTJ,1988-06-25 08:23,ZBTJ 250823Z AUTO 10010KT RMK IEM_DS3505
ZBTJ,1988-06-25 08:26,ZBTJ 250826Z AUTO 10010KT RMK IEM_DS3505
ZBTJ,1988-06-25 09:23,ZBTJ 250923Z AUTO 12012KT 7SM 30/20 A2965 RMK T03000200 IEM_DS3505
ZBTJ,1988-06-25 09:27,ZBTJ 250927Z AUTO 12012KT 7SM 30/20 A2965 RMK T03000200 IEM_DS3505
ZBTJ,1988-06-25 10:25,ZBTJ 251025Z AUTO 11012KT 7SM 28/20 A2965 RMK T02800200 IEM_DS3505
ZBTJ,1988-06-25 10:27,ZBTJ 251027Z AUTO 11012KT 7SM 28/20 A2965 RMK T02800200 IEM_DS3505
ZBTJ,1988-06-25 11:25,ZBTJ 251125Z AUTO 12010KT 7SM 27/19 A2965 RMK T02700190 IEM_DS3505
ZBTJ,1988-06-25 11:28,ZBTJ 251128Z AUTO 12010KT 7SM 27/19 A2965 RMK T02700190 IEM_DS3505
ZBTJ,1988-06-25 21:24,ZBTJ 252124Z AUTO 08002KT 4SM 20/19 A2971 RMK T02000190 IEM_DS3505
ZBTJ,1988-06-25 21:27,ZBTJ 252127Z AUTO 08002KT 4SM 20/19 A2971 RMK T02000190 IEM_DS3505
ZBTJ,1988-06-26 01:24,ZBTJ 260124Z AUTO 16008KT 7SM 28/19 A2974 RMK T02800190 IEM_DS3505
ZBTJ,1988-06-26 01:27,ZBTJ 260127Z AUTO 16008KT 7SM 28/19 A2974 RMK T02800190 IEM_DS3505
ZBTJ,1988-06-26 02:00,ZBTJ 260200Z AUTO 15008KT 7SM 29/20 A2974 RMK T02900200 IEM_DS3505
ZBTJ,1988-06-26 02:25,ZBTJ 260225Z AUTO 15008KT 7SM 29/20 A2974 RMK T02900200 IEM_DS3505
ZBTJ,1988-06-26 02:33,ZBTJ 260233Z AUTO 15008KT 7SM 29/20 A2974 RMK T02900200 IEM_DS3505
ZBTJ,1988-06-26 03:25,ZBTJ 260325Z AUTO 15008KT 7SM 31/20 A2977 RMK T03100200 IEM_DS3505
ZBTJ,1988-06-26 03:28,ZBTJ 260328Z AUTO 15008KT 7SM 31/20 A2977 RMK T03100200 IEM_DS3505
ZBTJ,1988-06-26 04:00,ZBTJ 260400Z AUTO 11010KT 7SM 32/20 A2974 RMK T03200200 IEM_DS3505
ZBTJ,1988-06-26 04:28,ZBTJ 260428Z AUTO 11010KT 7SM 32/20 A2974 RMK T03200200 IEM_DS3505
ZBTJ,1988-06-26 04:30,ZBTJ 260430Z AUTO 11010KT 7SM 32/20 A2974 RMK T03200200 IEM_DS3505
ZBTJ,1988-06-26 05:00,ZBTJ 260500Z AUTO 12014KT 7SM 32/19 A2974 RMK T03200190 IEM_DS3505
ZBTJ,1988-06-26 05:25,ZBTJ 260525Z AUTO 12014KT 7SM 32/19 A2974 RMK T03200190 IEM_DS3505
ZBTJ,1988-06-26 05:28,ZBTJ 260528Z AUTO 12014KT 7SM 32/19 A2974 RMK T03200190 IEM_DS3505
ZBTJ,1988-06-26 06:25,ZBTJ 260625Z AUTO 12016KT 7SM 32/18 A2971 RMK T03200180 IEM_DS3505
ZBTJ,1988-06-26 06:27,ZBTJ 260627Z AUTO 12016KT 7SM 32/18 A2971 RMK T03200180 IEM_DS3505
ZBTJ,1988-06-26 07:00,ZBTJ 260700Z AUTO 13012KT 7SM 31/18 A2971 RMK T03100180 IEM_DS3505
ZBTJ,1988-06-26 07:25,ZBTJ 260725Z AUTO 13012KT 7SM 31/18 A2971 RMK T03100180 IEM_DS3505
ZBTJ,1988-06-26 07:28,ZBTJ 260728Z AUTO 13012KT 7SM 31/18 A2971 RMK T03100180 IEM_DS3505
ZBTJ,1988-06-26 08:25,ZBTJ 260825Z AUTO 12016KT RMK IEM_DS3505
ZBTJ,1988-06-26 08:28,ZBTJ 260828Z AUTO 12016KT RMK IEM_DS3505
ZBTJ,1988-06-26 09:25,ZBTJ 260925Z AUTO 12014KT 7SM 30/17 A2968 RMK T03000170 IEM_DS3505
ZBTJ,1988-06-26 09:28,ZBTJ 260928Z AUTO 12014KT 7SM 30/17 A2968 RMK T03000170 IEM_DS3505
ZBTJ,1988-06-26 10:25,ZBTJ 261025Z AUTO 12012KT RMK IEM_DS3505
ZBTJ,1988-06-26 10:28,ZBTJ 261028Z AUTO 12012KT RMK IEM_DS3505
ZBTJ,1988-06-26 11:00,ZBTJ 261100Z AUTO 12012KT RMK IEM_DS3505
ZBTJ,1988-06-26 11:25,ZBTJ 261125Z AUTO 12012KT RMK IEM_DS3505
ZBTJ,1988-06-26 11:28,ZBTJ 261128Z AUTO 12012KT RMK IEM_DS3505
ZBTJ,1988-06-26 12:00,ZBTJ 261200Z AUTO 12012KT RMK IEM_DS3505
ZBTJ,1988-06-26 12:25,ZBTJ 261225Z AUTO 12012KT RMK IEM_DS3505
ZBTJ,1988-06-26 12:27,ZBTJ 261227Z AUTO 12012KT RMK IEM_DS3505
ZBTJ,1988-06-26 13:24,ZBTJ 261324Z AUTO 12012KT RMK IEM_DS3505
ZBTJ,1988-06-26 13:27,ZBTJ 261327Z AUTO 12012KT RMK IEM_DS3505
ZBTJ,1988-06-26 14:24,ZBTJ 261424Z AUTO 12008KT RMK IEM_DS3505
ZBTJ,1988-06-26 14:28,ZBTJ 261428Z AUTO 12008KT RMK IEM_DS3505
ZBTJ,1988-06-26 16:38,ZBTJ 261638Z AUTO 12012KT RMK IEM_DS3505
ZBTJ,1988-06-26 17:17,ZBTJ 261717Z AUTO 12012KT RMK IEM_DS3505
ZBTJ,1988-06-26 21:00,ZBTJ 262100Z AUTO 00000KT 3SM 20/19 RMK T02000190 IEM_DS3505
ZBTJ,1988-06-26 21:25,ZBTJ 262125Z AUTO 00000KT 3SM 20/19 A2971 RMK T02000190 IEM_DS3505
ZBTJ,1988-06-26 21:28,ZBTJ 262128Z AUTO 00000KT 3SM 20/19 A2971 RMK T02000190 IEM_DS3505
ZBTJ,1988-06-26 23:00,ZBTJ 262300Z AUTO 6SM 23/21 A2971 RMK T02300210 IEM_DS3505
ZBTJ,1988-06-26 23:27,ZBTJ 262327Z AUTO 08008KT RMK IEM_DS3505
ZBTJ,1988-06-26 23:29,ZBTJ 262329Z AUTO 08008KT RMK IEM_DS3505
ZBTJ,1988-06-27 00:00,ZBTJ 270000Z AUTO 00000KT RMK IEM_DS3505
ZBTJ,1988-06-27 00:29,ZBTJ 270029Z AUTO 00000KT RMK IEM_DS3505
ZBTJ,1988-06-27 00:31,ZBTJ 270031Z AUTO 00000KT RMK IEM_DS3505
ZBTJ,1988-06-27 01:00,ZBTJ 270100Z AUTO 11006KT RMK IEM_DS3505
ZBTJ,1988-06-27 01:26,ZBTJ 270126Z AUTO 11006KT RMK IEM_DS3505
ZBTJ,1988-06-27 02:00,ZBTJ 270200Z AUTO 6SM 26/21 A2971 RMK T02600210 IEM_DS3505
ZBTJ,1988-06-27 02:26,ZBTJ 270226Z AUTO 6SM 26/21 A2971 RMK T02600210 IEM_DS3505
ZBTJ,1988-06-27 02:29,ZBTJ 270229Z AUTO 6SM 26/21 A2971 RMK T02600210 IEM_DS3505
ZBTJ,1988-06-27 03:00,ZBTJ 270300Z AUTO 10004KT RMK IEM_DS3505
ZBTJ,1988-06-27 03:28,ZBTJ 270328Z AUTO 10004KT RMK IEM_DS3505
ZBTJ,1988-06-27 03:32,ZBTJ 270332Z AUTO 10004KT RMK IEM_DS3505
ZBTJ,1988-06-27 04:00,ZBTJ 270400Z AUTO 09010KT 6SM 29/22 RMK T02900220 IEM_DS3505
ZBTJ,1988-06-27 04:31,ZBTJ 270431Z AUTO 09010KT RMK IEM_DS3505
ZBTJ,1988-06-27 04:33,ZBTJ 270433Z AUTO 09010KT RMK IEM_DS3505
ZBTJ,1988-06-27 05:00,ZBTJ 270500Z AUTO 09012KT RMK IEM_DS3505
ZBTJ,1988-06-27 05:30,ZBTJ 270530Z AUTO 09012KT RMK IEM_DS3505
ZBTJ,1988-06-27 05:33,ZBTJ 270533Z AUTO 09012KT RMK IEM_DS3505
ZBTJ,1988-06-27 06:00,ZBTJ 270600Z AUTO 09010KT RMK IEM_DS3505
ZBTJ,1988-06-27 06:24,ZBTJ 270624Z AUTO 09010KT RMK IEM_DS3505
ZBTJ,1988-06-27 06:27,ZBTJ 270627Z AUTO 09010KT RMK IEM_DS3505
ZBTJ,1988-06-27 07:00,ZBTJ 270700Z AUTO 08008KT RMK IEM_DS3505
ZBTJ,1988-06-27 07:30,ZBTJ 270730Z AUTO 08008KT RMK IEM_DS3505
ZBTJ,1988-06-27 07:31,ZBTJ 270731Z AUTO 08008KT RMK IEM_DS3505
ZBTJ,1988-06-27 08:00,ZBTJ 270800Z AUTO 09008KT RMK IEM_DS3505
ZBTJ,1988-06-27 08:24,ZBTJ 270824Z AUTO 09008KT RMK IEM_DS3505
ZBTJ,1988-06-27 08:31,ZBTJ 270831Z AUTO 09008KT RMK IEM_DS3505
ZBTJ,1988-06-27 09:00,ZBTJ 270900Z AUTO 14006KT RMK IEM_DS3505
ZBTJ,1988-06-27 09:24,ZBTJ 270924Z AUTO 14006KT RMK IEM_DS3505
ZBTJ,1988-06-27 09:27,ZBTJ 270927Z AUTO 14006KT RMK IEM_DS3505
ZBTJ,1988-06-27 10:00,ZBTJ 271000Z AUTO 13010KT RMK IEM_DS3505
ZBTJ,1988-06-27 10:23,ZBTJ 271023Z AUTO 13010KT RMK IEM_DS3505
ZBTJ,1988-06-27 10:27,ZBTJ 271027Z AUTO 13010KT RMK IEM_DS3505
ZBTJ,1988-06-27 11:00,ZBTJ 271100Z AUTO 16012KT RMK IEM_DS3505
ZBTJ,1988-06-27 11:27,ZBTJ 271127Z AUTO 16012KT RMK IEM_DS3505
ZBTJ,1988-06-27 11:50,ZBTJ 271150Z AUTO 16012KT RMK IEM_DS3505
ZBTJ,1988-06-27 12:00,ZBTJ 271200Z AUTO 15002KT RMK IEM_DS3505
ZBTJ,1988-06-27 12:25,ZBTJ 271225Z AUTO 15002KT RMK IEM_DS3505
ZBTJ,1988-06-27 12:27,ZBTJ 271227Z AUTO 15002KT RMK IEM_DS3505
ZBTJ,1988-06-27 13:00,ZBTJ 271300Z AUTO 00000KT RMK IEM_DS3505
ZBTJ,1988-06-27 13:24,ZBTJ 271324Z AUTO 00000KT RMK IEM_DS3505
ZBTJ,1988-06-27 13:27,ZBTJ 271327Z AUTO 00000KT RMK IEM_DS3505
ZBTJ,1988-06-27 21:00,ZBTJ 272100Z AUTO 19004KT RMK IEM_DS3505
ZBTJ,1988-06-27 21:28,ZBTJ 272128Z AUTO 19004KT RMK IEM_DS3505
ZBTJ,1988-06-27 21:30,ZBTJ 272130Z AUTO 19004KT RMK IEM_DS3505
ZBTJ,1988-06-27 22:00,ZBTJ 272200Z AUTO 16006KT RMK IEM_DS3505
ZBTJ,1988-06-27 22:25,ZBTJ 272225Z AUTO 16006KT RMK IEM_DS3505
ZBTJ,1988-06-27 22:28,ZBTJ 272228Z AUTO 16006KT RMK IEM_DS3505
ZBTJ,1988-06-27 23:00,ZBTJ 272300Z AUTO 18002KT 4SM 24/20 A2965 RMK T02400200 IEM_DS3505
ZBTJ,1988-06-27 23:26,ZBTJ 272326Z AUTO 18002KT 4SM 24/20 A2965 RMK T02400200 IEM_DS3505
ZBTJ,1988-06-27 23:29,ZBTJ 272329Z AUTO 18002KT 4SM 24/20 A2965 RMK T02400200 IEM_DS3505
ZBTJ,1988-06-28 00:00,ZBTJ 280000Z AUTO 3SM 25/01 A2965 RMK T02500010 IEM_DS3505
ZBTJ,1988-06-28 00:28,ZBTJ 280028Z AUTO 3SM 25/01 A2965 RMK T02500010 IEM_DS3505
ZBTJ,1988-06-28 00:31,ZBTJ 280031Z AUTO 3SM 25/01 A2965 RMK T02500010 IEM_DS3505
ZBTJ,1988-06-28 01:00,ZBTJ 280100Z AUTO 3SM 25/01 A2965 RMK T02500010 IEM_DS3505
ZBTJ,1988-06-28 01:26,ZBTJ 280126Z AUTO 3SM 25/01 A2965 RMK T02500010 IEM_DS3505
ZBTJ,1988-06-28 01:29,ZBTJ 280129Z AUTO 3SM 25/01 A2965 RMK T02500010 IEM_DS3505
ZBTJ,1988-06-28 02:00,ZBTJ 280200Z AUTO 00000KT 2SM 28/20 A2965 RMK T02800200 IEM_DS3505
ZBTJ,1988-06-28 02:26,ZBTJ 280226Z AUTO 00000KT 2SM 28/20 A2965 RMK T02800200 IEM_DS3505
ZBTJ,1988-06-28 02:28,ZBTJ 280228Z AUTO 00000KT 2SM 28/20 A2965 RMK T02800200 IEM_DS3505
ZBTJ,1988-06-28 03:00,ZBTJ 280300Z AUTO 10002KT 3SM 30/22 A2965 RMK T03000220 IEM_DS3505
ZBTJ,1988-06-28 03:27,ZBTJ 280327Z AUTO 10002KT 3SM 30/22 A2965 RMK T03000220 IEM_DS3505
ZBTJ,1988-06-28 03:29,ZBTJ 280329Z AUTO 10002KT 3SM 30/22 A2965 RMK T03000220 IEM_DS3505
ZBTJ,1988-06-28 04:00,ZBTJ 280400Z AUTO 07004KT 7SM 31/22 A2962 RMK T03100220 IEM_DS3505
ZBTJ,1988-06-28 04:25,ZBTJ 280425Z AUTO 07004KT 7SM 31/22 A2962 RMK T03100220 IEM_DS3505
ZBTJ,1988-06-28 05:00,ZBTJ 280500Z AUTO 07004KT 7SM 31/22 A2962 RMK T03100220 IEM_DS3505
ZBTJ,1988-06-28 07:00,ZBTJ 280700Z AUTO 10008KT 7SM 29/22 A2959 RMK T02900220 IEM_DS3505
ZBTJ,1988-06-28 07:27,ZBTJ 280727Z AUTO 10008KT 7SM 29/22 A2959 RMK T02900220 IEM_DS3505
ZBTJ,1988-06-28 07:30,ZBTJ 280730Z AUTO 00000KT 2SM 28/20 A2965 RMK T02800200 IEM_DS3505
ZBTJ,1988-06-28 07:47,ZBTJ 280747Z AUTO 10008KT 7SM 29/22 A2959 RMK T02900220 IEM_DS3505
ZBTJ,1988-06-28 08:00,ZBTJ 280800Z AUTO 00000KT 2SM 28/20 A2965 RMK T02800200 IEM_DS3505
ZBTJ,1988-06-28 09:00,ZBTJ 280900Z AUTO 12008KT RMK IEM_DS3505
ZBTJ,1988-06-28 09:26,ZBTJ 280926Z AUTO 12008KT RMK IEM_DS3505
ZBTJ,1988-06-28 09:29,ZBTJ 280929Z AUTO 12008KT RMK IEM_DS3505
ZBTJ,1988-06-28 11:00,ZBTJ 281100Z AUTO 11008KT RMK IEM_DS3505
ZBTJ,1988-06-28 11:22,ZBTJ 281122Z AUTO 07004KT 7SM 31/22 A2962 RMK T03100220 IEM_DS3505
ZBTJ,1988-06-28 11:25,ZBTJ 281125Z AUTO 11008KT RMK IEM_DS3505
ZBTJ,1988-06-28 11:32,ZBTJ 281132Z AUTO 11008KT RMK IEM_DS3505
ZBTJ,1988-06-28 12:00,ZBTJ 281200Z AUTO 12004KT RMK IEM_DS3505
ZBTJ,1988-06-28 12:25,ZBTJ 281225Z AUTO 12004KT RMK IEM_DS3505
ZBTJ,1988-06-28 12:31,ZBTJ 281231Z AUTO 12004KT RMK IEM_DS3505
ZBTJ,1988-06-28 23:00,ZBTJ 282300Z AUTO 10004KT 1 1/2SM 24/23 A2956 RMK T02400230 IEM_DS3505
ZBTJ,1988-06-28 23:25,ZBTJ 282325Z AUTO 10004KT 1 1/2SM 24/23 A2956 RMK T02400230 IEM_DS3505
ZBTJ,1988-06-28 23:27,ZBTJ 282327Z AUTO 10004KT 1 1/2SM 24/23 A2956 RMK T02400230 IEM_DS3505
ZBTJ,1988-06-29 00:00,ZBTJ 290000Z AUTO 14006KT 1 1/2SM 25/23 A2956 RMK T02500230 IEM_DS3505
ZBTJ,1988-06-29 00:25,ZBTJ 290025Z AUTO 14006KT 1 1/2SM 25/23 A2956 RMK T02500230 IEM_DS3505
ZBTJ,1988-06-29 00:28,ZBTJ 290028Z AUTO 14006KT 1 1/2SM 25/23 A2956 RMK T02500230 IEM_DS3505
ZBTJ,1988-06-29 01:00,ZBTJ 290100Z AUTO 18006KT 2SM 27/23 A2956 RMK T02700230 IEM_DS3505
ZBTJ,1988-06-29 01:25,ZBTJ 290125Z AUTO 18006KT 2SM 27/23 A2956 RMK T02700230 IEM_DS3505
ZBTJ,1988-06-29 01:27,ZBTJ 290127Z AUTO 18006KT 2SM 27/23 A2956 RMK T02700230 IEM_DS3505
ZBTJ,1988-06-29 02:26,ZBTJ 290226Z AUTO 15006KT 3SM 28/23 A2956 RMK T02800230 IEM_DS3505
ZBTJ,1988-06-29 03:00,ZBTJ 290300Z AUTO 18004KT 4SM 29/24 A2956 RMK T02900240 IEM_DS3505
ZBTJ,1988-06-29 03:30,ZBTJ 290330Z AUTO 18004KT 4SM 29/24 A2956 RMK T02900240 IEM_DS3505
ZBTJ,1988-06-29 03:32,ZBTJ 290332Z AUTO 18004KT 4SM 29/24 A2956 RMK T02900240 IEM_DS3505
ZBTJ,1988-06-29 04:00,ZBTJ 290400Z AUTO 17006KT 4SM 30/23 A2956 RMK T03000230 IEM_DS3505
ZBTJ,1988-06-29 04:29,ZBTJ 290429Z AUTO 17006KT 4SM 30/23 A2956 RMK T03000230 IEM_DS3505
ZBTJ,1988-06-29 04:33,ZBTJ 290433Z AUTO 17006KT 4SM 30/23 A2956 RMK T03000230 IEM_DS3505
ZBTJ,1988-06-29 05:00,ZBTJ 290500Z AUTO 16006KT 4SM 31/24 A2953 RMK T03100240 IEM_DS3505
ZBTJ,1988-06-29 05:30,ZBTJ 290530Z AUTO 16006KT 4SM 31/24 A2953 RMK T03100240 IEM_DS3505
ZBTJ,1988-06-29 06:00,ZBTJ 290600Z AUTO 16008KT 4SM 32/24 A2953 RMK T03200240 IEM_DS3505
ZBTJ,1988-06-29 06:27,ZBTJ 290627Z AUTO 16008KT 4SM 32/24 A2953 RMK T03200240 IEM_DS3505
ZBTJ,1988-06-29 06:28,ZBTJ 290628Z AUTO 16008KT 4SM 32/24 A2953 RMK T03200240 IEM_DS3505
ZBTJ,1988-06-29 07:00,ZBTJ 290700Z AUTO 13010KT 4SM 32/25 A2950 RMK T03200250 IEM_DS3505
ZBTJ,1988-06-29 07:26,ZBTJ 290726Z AUTO 13010KT 4SM 32/25 A2950 RMK T03200250 IEM_DS3505
ZBTJ,1988-06-29 07:30,ZBTJ 290730Z AUTO 13010KT 4SM 32/25 A2950 RMK T03200250 IEM_DS3505
ZBTJ,1988-06-29 08:00,ZBTJ 290800Z AUTO 16008KT 4SM 32/24 A2953 RMK T03200240 IEM_DS3505
ZBTJ,1988-06-29 08:25,ZBTJ 290825Z AUTO 13012KT 4SM 30/24 A2950 RMK T03000240 IEM_DS3505
ZBTJ,1988-06-29 09:00,ZBTJ 290900Z AUTO 13012KT 4SM 30/24 A2950 RMK T03000240 IEM_DS3505
ZBTJ,1988-06-29 09:25,ZBTJ 290925Z AUTO 13012KT RMK IEM_DS3505
ZBTJ,1988-06-29 09:39,ZBTJ 290939Z AUTO 13012KT RMK IEM_DS3505
ZBTJ,1988-06-29 10:00,ZBTJ 291000Z AUTO 13012KT RMK IEM_DS3505
ZBTJ,1988-06-29 10:14,ZBTJ 291014Z AUTO 13012KT 4SM 30/24 A2950 RMK T03000240 IEM_DS3505
ZBTJ,1988-06-29 10:26,ZBTJ 291026Z AUTO 13012KT RMK IEM_DS3505
ZBTJ,1988-06-29 10:33,ZBTJ 291033Z AUTO 13012KT RMK IEM_DS3505
ZBTJ,1988-06-29 11:00,ZBTJ 291100Z AUTO 15010KT RMK IEM_DS3505
ZBTJ,1988-06-29 11:25,ZBTJ 291125Z AUTO 15010KT RMK IEM_DS3505
ZBTJ,1988-06-29 11:28,ZBTJ 291128Z AUTO 15010KT RMK IEM_DS3505
ZBTJ,1988-06-29 12:00,ZBTJ 291200Z AUTO 11004KT RMK IEM_DS3505
ZBTJ,1988-06-29 12:25,ZBTJ 291225Z AUTO 11004KT RMK IEM_DS3505
ZBTJ,1988-06-29 12:29,ZBTJ 291229Z AUTO 11004KT RMK IEM_DS3505
ZBTJ,1988-06-29 13:00,ZBTJ 291300Z AUTO 12004KT 4SM 25/23 A2950 RMK T02500230 IEM_DS3505
ZBTJ,1988-06-29 13:25,ZBTJ 291325Z AUTO 12004KT 4SM 25/23 A2950 RMK T02500230 IEM_DS3505
ZBTJ,1988-06-29 13:34,ZBTJ 291334Z AUTO 12004KT 4SM 25/23 A2950 RMK T02500230 IEM_DS3505
ZBTJ,1988-06-29 22:24,ZBTJ 292224Z AUTO 17004KT 3SM 24/22 A2950 RMK T02400220 IEM_DS3505
ZBTJ,1988-06-29 22:27,ZBTJ 292227Z AUTO 17004KT 3SM 24/22 A2950 RMK T02400220 IEM_DS3505
ZBTJ,1988-06-29 23:25,ZBTJ 292325Z AUTO 15002KT 2 1/2SM 26/23 A2950 RMK T02600230 IEM_DS3505
ZBTJ,1988-06-29 23:28,ZBTJ 292328Z AUTO 15002KT 2 1/2SM 26/23 A2950 RMK T02600230 IEM_DS3505
ZBTJ,1988-06-30 01:25,ZBTJ 300125Z AUTO 22008KT 7SM RMK IEM_DS3505
ZBTJ,1988-06-30 01:28,ZBTJ 300128Z AUTO 22008KT 7SM RMK IEM_DS3505
ZBTJ,1988-06-30 02:26,ZBTJ 300226Z AUTO 22006KT RMK IEM_DS3505
ZBTJ,1988-06-30 02:29,ZBTJ 300229Z AUTO 22006KT RMK IEM_DS3505
ZBTJ,1988-06-30 03:00,ZBTJ 300300Z AUTO 23008KT RMK IEM_DS3505
ZBTJ,1988-06-30 03:30,ZBTJ 300330Z AUTO 23008KT RMK IEM_DS3505
ZBTJ,1988-06-30 03:35,ZBTJ 300335Z AUTO 23008KT RMK IEM_DS3505
ZBTJ,1988-06-30 04:31,ZBTJ 300431Z AUTO 22006KT 7SM RMK IEM_DS3505
ZBTJ,1988-06-30 04:32,ZBTJ 300432Z AUTO 22006KT 7SM RMK IEM_DS3505
ZBTJ,1988-06-30 05:26,ZBTJ 300526Z AUTO 21010KT 7SM RMK IEM_DS3505
ZBTJ,1988-06-30 05:29,ZBTJ 300529Z AUTO 21010KT 7SM RMK IEM_DS3505
ZBTJ,1988-06-30 06:26,ZBTJ 300626Z AUTO 22004KT RMK IEM_DS3505
ZBTJ,1988-06-30 06:28,ZBTJ 300628Z AUTO 22004KT RMK IEM_DS3505
ZBTJ,1988-06-30 08:00,ZBTJ 300800Z AUTO 25012KT RMK IEM_DS3505
ZBTJ,1988-06-30 08:25,ZBTJ 300825Z AUTO 25012KT RMK IEM_DS3505
ZBTJ,1988-06-30 08:28,ZBTJ 300828Z AUTO 25012KT RMK IEM_DS3505
ZBTJ,1988-06-30 11:00,ZBTJ 301100Z AUTO 19008KT RMK IEM_DS3505
ZBTJ,1988-06-30 12:00,ZBTJ 301200Z AUTO 20004KT RMK IEM_DS3505
ZBTJ,1988-06-30 12:25,ZBTJ 301225Z AUTO 19008KT RMK IEM_DS3505
ZBTJ,1988-06-30 12:28,ZBTJ 301228Z AUTO 19008KT RMK IEM_DS3505
ZBTJ,1988-06-30 13:24,ZBTJ 301324Z AUTO 20004KT RMK IEM_DS3505
ZBTJ,1988-06-30 13:27,ZBTJ 301327Z AUTO 20004KT RMK IEM_DS3505
ZBTJ,1988-06-30 19:00,ZBTJ 301900Z AUTO 19004KT 2 1/2SM 26/23 A2947 RMK T02600230 IEM_DS3505
ZBTJ,1988-06-30 20:24,ZBTJ 302024Z AUTO 19004KT 2 1/2SM 26/23 A2947 RMK T02600230 IEM_DS3505
ZBTJ,1988-06-30 20:27,ZBTJ 302027Z AUTO 19004KT 2 1/2SM 26/23 A2947 RMK T02600230 IEM_DS3505
ZBTJ,1988-06-30 22:00,ZBTJ 302200Z AUTO 00000KT 1 1/4SM 27/24 A2947 RMK T02700240 IEM_DS3505
ZBTJ,1988-06-30 23:00,ZBTJ 302300Z AUTO 28006KT 1 1/2SM 26/23 A2953 RMK T02600230 IEM_DS3505
ZBTJ,1988-06-30 23:25,ZBTJ 302325Z AUTO 00000KT 1 1/4SM 27/24 A2947 RMK T02700240 IEM_DS3505
ZBTJ,1988-06-30 23:28,ZBTJ 302328Z AUTO 00000KT 1 1/4SM 27/24 A2947 RMK T02700240 IEM_DS3505
ZBTJ,1988-10-01 00:00,ZBTJ 010000Z AUTO 07008KT 3SM 17/16 A3024 RMK T01700160 IEM_DS3505
ZBTJ,1988-10-01 00:39,ZBTJ 010039Z AUTO 07008KT 3SM 17/16 A3024 RMK T01700160 IEM_DS3505
ZBTJ,1988-10-01 02:00,ZBTJ 010200Z AUTO 09012KT 7SM 19/16 A3024 RMK T01900160 IEM_DS3505
ZBTJ,1988-10-01 02:26,ZBTJ 010226Z AUTO 09012KT 7SM 19/16 A3024 RMK T01900160 IEM_DS3505
ZBTJ,1988-10-01 02:28,ZBTJ 010228Z AUTO 09012KT 7SM 19/16 A3024 RMK T01900160 IEM_DS3505
ZBTJ,1988-10-01 03:00,ZBTJ 010300Z AUTO 08012KT 7SM 19/16 A3021 RMK T01900160 IEM_DS3505
ZBTJ,1988-10-01 03:30,ZBTJ 010330Z AUTO 08012KT 7SM 19/16 A3021 RMK T01900160 IEM_DS3505
ZBTJ,1988-10-01 03:31,ZBTJ 010331Z AUTO 08012KT 7SM 19/16 A3021 RMK T01900160 IEM_DS3505
ZBTJ,1988-10-01 04:00,ZBTJ 010400Z AUTO 09014KT 6SM 20/16 A3018 RMK T02000160 IEM_DS3505
ZBTJ,1988-10-01 04:31,ZBTJ 010431Z AUTO 09014KT 6SM 20/16 A3018 RMK T02000160 IEM_DS3505
ZBTJ,1988-10-01 04:36,ZBTJ 010436Z AUTO 09014KT 6SM 20/16 A3018 RMK T02000160 IEM_DS3505
ZBTJ,1988-10-01 05:00,ZBTJ 010500Z AUTO 10016KT 7SM 19/15 RMK T01900150 IEM_DS3505
ZBTJ,1988-10-01 05:37,ZBTJ 010537Z AUTO 10016KT 7SM 19/15 RMK T01900150 IEM_DS3505
ZBTJ,1988-10-01 05:58,ZBTJ 010558Z AUTO 10016KT 7SM 19/15 RMK T01900150 IEM_DS3505
ZBTJ,1988-10-01 06:00,ZBTJ 010600Z AUTO 23004KT 7SM 18/16 A3018 RMK T01800160 IEM_DS3505
ZBTJ,1988-10-01 06:27,ZBTJ 010627Z AUTO 23004KT 7SM 18/16 A3018 RMK T01800160 IEM_DS3505
ZBTJ,1988-10-01 06:28,ZBTJ 010628Z AUTO 23004KT 7SM 18/16 A3018 RMK T01800160 IEM_DS3505
ZBTJ,1988-10-01 07:00,ZBTJ 010700Z AUTO 18006KT 5SM 17/15 A3018 RMK T01700150 IEM_DS3505
ZBTJ,1988-10-01 07:25,ZBTJ 010725Z AUTO 18006KT 5SM 17/15 A3018 RMK T01700150 IEM_DS3505
ZBTJ,1988-10-01 07:28,ZBTJ 010728Z AUTO 18006KT 5SM 17/ A3018 RMK IEM_DS3505
ZBTJ,1988-10-01 08:00,ZBTJ 010800Z AUTO 10006KT 4SM 17/16 A3015 RMK T01700160 IEM_DS3505
ZBTJ,1988-10-01 08:26,ZBTJ 010826Z AUTO 10006KT 4SM 17/16 A3015 RMK T01700160 IEM_DS3505
ZBTJ,1988-10-01 08:31,ZBTJ 010831Z AUTO 10006KT 4SM 17/16 A3015 RMK T01700160 IEM_DS3505
ZBTJ,1988-10-01 08:50,ZBTJ 010850Z AUTO 10006KT 4SM 17/16 A3015 RMK T01700160 IEM_DS3505
ZBTJ,1988-10-01 09:00,ZBTJ 010900Z AUTO 14004KT 5SM 17/16 A3015 RMK T01700160 IEM_DS3505
ZBTJ,1988-10-01 09:25,ZBTJ 010925Z AUTO 14004KT 5SM 17/16 A3015 RMK T01700160 IEM_DS3505
ZBTJ,1988-10-01 09:44,ZBTJ 010944Z AUTO 14004KT 5SM 17/16 A3015 RMK T01700160 IEM_DS3505
ZBTJ,1988-10-01 10:25,ZBTJ 011025Z AUTO 2SM 17/16 A3015 RMK T01700160 IEM_DS3505
ZBTJ,1988-10-01 10:32,ZBTJ 011032Z AUTO 2SM 17/16 A3015 RMK T01700160 IEM_DS3505
ZBTJ,1988-10-01 13:00,ZBTJ 011300Z AUTO 14004KT 7SM 16/15 A3018 RMK T01600150 IEM_DS3505
ZBTJ,1988-10-01 13:25,ZBTJ 011325Z AUTO 14004KT 7SM 16/15 A3018 RMK T01600150 IEM_DS3505
ZBTJ,1988-10-01 13:29,ZBTJ 011329Z AUTO 14004KT 7SM 16/15 A3018 RMK T01600150 IEM_DS3505
ZBTJ,1988-10-01 14:00,ZBTJ 011400Z AUTO 24006KT 7SM 16/15 A3018 RMK T01600150 IEM_DS3505
ZBTJ,1988-10-01 14:25,ZBTJ 011425Z AUTO 24006KT 7SM 16/15 A3018 RMK T01600150 IEM_DS3505
ZBTJ,1988-10-01 14:28,ZBTJ 011428Z AUTO 24006KT 7SM 16/15 A3018 RMK T01600150 IEM_DS3505
ZBTJ,1988-10-01 21:00,ZBTJ 012100Z AUTO 1 1/4SM 15/15 A3012 RMK T01500150 IEM_DS3505
ZBTJ,1988-10-01 21:25,ZBTJ 012125Z AUTO 1 1/4SM 15/15 A3012 RMK T01500150 IEM_DS3505
ZBTJ,1988-10-01 21:29,ZBTJ 012129Z AUTO 1 1/4SM 15/15 A3012 RMK T01500150 IEM_DS3505
ZBTJ,1988-10-01 22:00,ZBTJ 012200Z AUTO 1SM 15/15 A3012 RMK T01500150 IEM_DS3505
ZBTJ,1988-10-01 22:26,ZBTJ 012226Z AUTO 1SM 15/15 A3012 RMK T01500150 IEM_DS3505
ZBTJ,1988-10-01 22:30,ZBTJ 012230Z AUTO 1SM 15/15 A3012 RMK T01500150 IEM_DS3505
ZBTJ,1988-10-02 00:00,ZBTJ 020000Z AUTO 00000KT 1SM 16/16 A3012 RMK T01600160 IEM_DS3505
ZBTJ,1988-10-02 00:25,ZBTJ 020025Z AUTO 00000KT 1SM 16/16 A3012 RMK T01600160 IEM_DS3505
ZBTJ,1988-10-02 00:28,ZBTJ 020028Z AUTO 00000KT 1SM 16/16 A3012 RMK T01600160 IEM_DS3505
ZBTJ,1988-10-02 01:00,ZBTJ 020100Z AUTO 27002KT 1 1/4SM 17/16 A3012 RMK T01700160 IEM_DS3505
ZBTJ,1988-10-02 01:26,ZBTJ 020126Z AUTO 27002KT 1 1/4SM 17/16 A3012 RMK T01700160 IEM_DS3505
ZBTJ,1988-10-02 01:29,ZBTJ 020129Z AUTO 27002KT 1 1/4SM 17/16 A3012 RMK T01700160 IEM_DS3505
ZBTJ,1988-10-02 02:00,ZBTJ 020200Z AUTO 24004KT 1 1/4SM 18/16 A3012 RMK T01800160 IEM_DS3505
ZBTJ,1988-10-02 02:25,ZBTJ 020225Z AUTO 24004KT 1 1/4SM 18/16 A3012 RMK T01800160 IEM_DS3505
ZBTJ,1988-10-02 02:28,ZBTJ 020228Z AUTO 24004KT 1 1/4SM 18/16 A3012 RMK T01800160 IEM_DS3505
ZBTJ,1988-10-02 03:00,ZBTJ 020300Z AUTO 22002KT 2 1/2SM 18/15 A3012 RMK T01800150 IEM_DS3505
ZBTJ,1988-10-02 03:26,ZBTJ 020326Z AUTO 22002KT 2 1/2SM 18/15 A3012 RMK T01800150 IEM_DS3505
ZBTJ,1988-10-02 03:30,ZBTJ 020330Z AUTO 22002KT 2 1/2SM 18/15 A3012 RMK T01800150 IEM_DS3505
ZBTJ,1988-10-02 05:00,ZBTJ 020500Z AUTO 00000KT 3SM 21/15 A3009 RMK T02100150 IEM_DS3505
ZBTJ,1988-10-02 05:31,ZBTJ 020531Z AUTO 00000KT 3SM 21/15 A3009 RMK T02100150 IEM_DS3505
ZBTJ,1988-10-02 05:33,ZBTJ 020533Z AUTO 00000KT 3SM 21/15 A3009 RMK T02100150 IEM_DS3505
ZBTJ,1988-10-02 05:36,ZBTJ 020536Z AUTO 00000KT 3SM 21/15 A3009 RMK T02100150 IEM_DS3505
ZBTJ,1988-10-02 06:00,ZBTJ 020600Z AUTO 22006KT 4SM 21/15 A3006 RMK T02100150 IEM_DS3505
ZBTJ,1988-10-02 06:25,ZBTJ 020625Z AUTO 22006KT 4SM 21/15 A3006 RMK T02100150 IEM_DS3505
ZBTJ,1988-10-02 06:28,ZBTJ 020628Z AUTO 22006KT 4SM 21/15 A3006 RMK T02100150 IEM_DS3505
ZBTJ,1988-10-02 07:00,ZBTJ 020700Z AUTO 00000KT 7SM 21/15 A3006 RMK T02100150 IEM_DS3505
ZBTJ,1988-10-02 07:25,ZBTJ 020725Z AUTO 00000KT 7SM 21/15 A3006 RMK T02100150 IEM_DS3505
ZBTJ,1988-10-02 07:28,ZBTJ 020728Z AUTO 00000KT 7SM 21/15 A3006 RMK T02100150 IEM_DS3505
ZBTJ,1988-10-02 08:00,ZBTJ 020800Z AUTO 00000KT 6SM 20/14 A3003 RMK T02000140 IEM_DS3505
ZBTJ,1988-10-02 08:25,ZBTJ 020825Z AUTO 00000KT 6SM 20/14 A3003 RMK T02000140 IEM_DS3505
ZBTJ,1988-10-02 08:28,ZBTJ 020828Z AUTO 00000KT 6SM 20/14 A3003 RMK T02000140 IEM_DS3505
ZBTJ,1988-10-02 10:00,ZBTJ 021000Z AUTO 13004KT 6SM 18/15 A3003 RMK T01800150 IEM_DS3505
ZBTJ,1988-10-02 10:25,ZBTJ 021025Z AUTO 13004KT 6SM 18/15 A3003 RMK T01800150 IEM_DS3505
ZBTJ,1988-10-02 10:28,ZBTJ 021028Z AUTO 13004KT 6SM 18/15 A3003 RMK T01800150 IEM_DS3505
ZBTJ,1988-10-02 11:00,ZBTJ 021100Z AUTO 00000KT 6SM 17/15 A3003 RMK T01700150 IEM_DS3505
ZBTJ,1988-10-02 11:25,ZBTJ 021125Z AUTO 00000KT 6SM 17/15 A3003 RMK T01700150 IEM_DS3505
ZBTJ,1988-10-02 11:38,ZBTJ 021138Z AUTO 00000KT 6SM 17/15 A3003 RMK T01700150 IEM_DS3505
ZBTJ,1988-10-02 13:00,ZBTJ 021300Z AUTO 16004KT 4SM 17/15 A3006 RMK T01700150 IEM_DS3505
ZBTJ,1988-10-02 13:25,ZBTJ 021325Z AUTO 16004KT 4SM 17/15 A3006 RMK T01700150 IEM_DS3505
ZBTJ,1988-10-02 13:28,ZBTJ 021328Z AUTO 16004KT 4SM 17/15 A3006 RMK T01700150 IEM_DS3505
ZBTJ,1988-10-02 14:00,ZBTJ 021400Z AUTO 15002KT 4SM 16/15 A3006 RMK T01600150 IEM_DS3505
ZBTJ,1988-10-02 20:00,ZBTJ 022000Z AUTO 15002KT 4SM 16/15 A3006 RMK T01600150 IEM_DS3505
ZBTJ,1988-10-02 20:44,ZBTJ 022044Z AUTO 15002KT 4SM 16/15 A3006 RMK T01600150 IEM_DS3505
ZBTJ,1988-10-02 20:47,ZBTJ 022047Z AUTO 15002KT 4SM 16/15 A3006 RMK T01600150 IEM_DS3505
ZBTJ,1988-10-02 22:33,ZBTJ 022233Z AUTO 00000KT 1SM 14/14 A3003 RMK T01400140 IEM_DS3505
ZBTJ,1988-10-02 22:36,ZBTJ 022236Z AUTO 00000KT 1SM 14/14 A3003 RMK T01400140 IEM_DS3505
ZBTJ,1988-10-02 23:00,ZBTJ 022300Z AUTO 00000KT 1SM 14/14 A3003 RMK T01400140 IEM_DS3505
ZBTJ,1988-10-02 23:34,ZBTJ 022334Z AUTO 00000KT 1SM 14/14 A3003 RMK T01400140 IEM_DS3505
ZBTJ,1988-10-03 00:00,ZBTJ 030000Z AUTO 00000KT 1SM 16/15 A3003 RMK T01600150 IEM_DS3505
ZBTJ,1988-10-03 00:23,ZBTJ 030023Z AUTO 00000KT 1SM 14/14 A3003 RMK T01400140 IEM_DS3505
ZBTJ,1988-10-03 00:36,ZBTJ 030036Z AUTO 00000KT 1SM 16/15 A3003 RMK T01600150 IEM_DS3505
ZBTJ,1988-10-03 00:46,ZBTJ 030046Z AUTO 00000KT 1SM 16/15 A3003 RMK T01600150 IEM_DS3505
ZBTJ,1988-10-03 01:00,ZBTJ 030100Z AUTO 00000KT 1 1/4SM 18/16 A3006 RMK T01800160 IEM_DS3505
ZBTJ,1988-10-03 01:33,ZBTJ 030133Z AUTO 00000KT 1 1/4SM 18/16 A3006 RMK T01800160 IEM_DS3505
ZBTJ,1988-10-03 01:36,ZBTJ 030136Z AUTO 00000KT 1 1/4SM 18/16 A3006 RMK T01800160 IEM_DS3505
ZBTJ,1988-10-03 03:00,ZBTJ 030300Z AUTO 04004KT 2 1/2SM 21/17 A3003 RMK T02100170 IEM_DS3505
ZBTJ,1988-10-03 03:33,ZBTJ 030333Z AUTO 04004KT 2 1/2SM 21/17 A3003 RMK T02100170 IEM_DS3505
ZBTJ,1988-10-03 03:36,ZBTJ 030336Z AUTO 04004KT 2 1/2SM 21/17 A3003 RMK T02100170 IEM_DS3505
ZBTJ,1988-10-03 04:00,ZBTJ 030400Z AUTO 35004KT 4SM 22/16 A3003 RMK T02200160 IEM_DS3505
ZBTJ,1988-10-03 04:24,ZBTJ 030424Z AUTO 35004KT 4SM 22/16 A3003 RMK T02200160 IEM_DS3505
ZBTJ,1988-10-03 04:26,ZBTJ 030426Z AUTO 35004KT 4SM 22/16 A3003 RMK T02200160 IEM_DS3505
ZBTJ,1988-10-03 05:00,ZBTJ 030500Z AUTO 30002KT 3SM 22/16 A3000 RMK T02200160 IEM_DS3505
ZBTJ,1988-10-03 05:31,ZBTJ 030531Z AUTO 30002KT 3SM 22/16 A3000 RMK T02200160 IEM_DS3505
ZBTJ,1988-10-03 05:41,ZBTJ 030541Z AUTO 30002KT 3SM 22/16 A3000 RMK T02200160 IEM_DS3505
ZBTJ,1988-10-03 06:00,ZBTJ 030600Z AUTO 01006KT 3SM 23/17 A2997 RMK T02300170 IEM_DS3505
ZBTJ,1988-10-03 06:31,ZBTJ 030631Z AUTO 01006KT 3SM 23/17 A2997 RMK T02300170 IEM_DS3505
ZBTJ,1988-10-03 06:34,ZBTJ 030634Z AUTO 01006KT 3SM 23/17 A2997 RMK T02300170 IEM_DS3505
ZBTJ,1988-10-03 09:00,ZBTJ 030900Z AUTO 00000KT 2 1/2SM 22/18 A2997 RMK T02200180 IEM_DS3505
ZBTJ,1988-10-03 10:00,ZBTJ 031000Z AUTO 00000KT 2SM 20/17 A2997 RMK T02000170 IEM_DS3505
ZBTJ,1988-10-03 10:24,ZBTJ 031024Z AUTO 00000KT 2SM 20/17 A2997 RMK T02000170 IEM_DS3505
ZBTJ,1988-10-03 11:00,ZBTJ 031100Z AUTO 00000KT 1 1/2SM 18/17 A3000 RMK T01800170 IEM_DS3505
ZBTJ,1988-10-03 11:27,ZBTJ 031127Z AUTO 00000KT 1 1/2SM 18/17 A3000 RMK T01800170 IEM_DS3505
ZBTJ,1988-10-03 11:31,ZBTJ 031131Z AUTO 00000KT 1 1/2SM 18/17 A3000 RMK T01800170 IEM_DS3505
ZBTJ,1988-10-03 12:00,ZBTJ 031200Z AUTO 00000KT 1 1/4SM 18/16 A3000 RMK T01800160 IEM_DS3505
ZBTJ,1988-10-03 12:24,ZBTJ 031224Z AUTO 00000KT 1 1/4SM 18/16 A3000 RMK T01800160 IEM_DS3505
ZBTJ,1988-10-03 12:27,ZBTJ 031227Z AUTO 00000KT 1 1/4SM 18/16 A3000 RMK T01800160 IEM_DS3505
ZBTJ,1988-10-03 21:00,ZBTJ 032100Z AUTO 00000KT 1/8SM 13/13 A3003 RMK T01300130 IEM_DS3505
ZBTJ,1988-10-03 21:24,ZBTJ 032124Z AUTO 00000KT 1/8SM 13/13 A3003 RMK T01300130 IEM_DS3505
ZBTJ,1988-10-03 21:26,ZBTJ 032126Z AUTO 00000KT 1/8SM 13/13 A3003 RMK T01300130 IEM_DS3505
ZBTJ,1988-10-03 22:00,ZBTJ 032200Z AUTO 00000KT 1/8SM 13/13 A3003 RMK T01300130 IEM_DS3505
ZBTJ,1988-10-03 22:25,ZBTJ 032225Z AUTO 00000KT 1/8SM 13/13 A3003 RMK T01300130 IEM_DS3505
ZBTJ,1988-10-03 22:27,ZBTJ 032227Z AUTO 00000KT 1/8SM 13/13 A3003 RMK T01300130 IEM_DS3505
ZBTJ,1988-10-03 23:00,ZBTJ 032300Z AUTO 00000KT 1/8SM 14/14 A3003 RMK T01400140 IEM_DS3505
ZBTJ,1988-10-03 23:24,ZBTJ 032324Z AUTO 00000KT 1/8SM 14/14 A3003 RMK T01400140 IEM_DS3505
ZBTJ,1988-10-03 23:26,ZBTJ 032326Z AUTO 00000KT 1/8SM 14/14 A3003 RMK T01400140 IEM_DS3505
ZBTJ,1988-10-04 00:00,ZBTJ 040000Z AUTO 00000KT 1/4SM 16/16 A3003 RMK T01600160 IEM_DS3505
ZBTJ,1988-10-04 00:24,ZBTJ 040024Z AUTO 00000KT 1/4SM 16/16 A3003 RMK T01600160 IEM_DS3505
ZBTJ,1988-10-04 00:27,ZBTJ 040027Z AUTO 00000KT 1/4SM 16/16 A3003 RMK T01600160 IEM_DS3505
ZBTJ,1988-10-04 01:00,ZBTJ 040100Z AUTO 00000KT 1SM 19/18 A3003 RMK T01900180 IEM_DS3505
ZBTJ,1988-10-04 01:25,ZBTJ 040125Z AUTO 00000KT 1SM 19/18 A3003 RMK T01900180 IEM_DS3505
ZBTJ,1988-10-04 01:28,ZBTJ 040128Z AUTO 00000KT 1SM 19/18 A3003 RMK T01900180 IEM_DS3505
ZBTJ,1988-10-04 02:00,ZBTJ 040200Z AUTO 11004KT 1 1/4SM 21/18 A3003 RMK T02100180 IEM_DS3505
ZBTJ,1988-10-04 02:26,ZBTJ 040226Z AUTO 11004KT 1 1/4SM 21/18 A3003 RMK T02100180 IEM_DS3505
ZBTJ,1988-10-04 02:28,ZBTJ 040228Z AUTO 11004KT 1 1/4SM 21/18 A3003 RMK T02100180 IEM_DS3505
ZBTJ,1988-10-04 03:00,ZBTJ 040300Z AUTO 36006KT 1SM 19/17 RMK T01900170 IEM_DS3505
ZBTJ,1988-10-04 03:26,ZBTJ 040326Z AUTO 36006KT 1SM 19/17 RMK T01900170 IEM_DS3505
ZBTJ,1988-10-04 03:28,ZBTJ 040328Z AUTO 36006KT 1SM 19/17 RMK T01900170 IEM_DS3505
ZBTJ,1988-10-04 04:00,ZBTJ 040400Z AUTO 19006KT 2SM 23/16 A3003 RMK T02300160 IEM_DS3505
ZBTJ,1988-10-04 04:25,ZBTJ 040425Z AUTO 19006KT 2SM 23/16 A3003 RMK T02300160 IEM_DS3505
ZBTJ,1988-10-04 04:28,ZBTJ 040428Z AUTO 19006KT 2SM 23/16 A3003 RMK T02300160 IEM_DS3505
ZBTJ,1988-10-04 05:00,ZBTJ 040500Z AUTO 22006KT 23/15 A2997 RMK T02300150 IEM_DS3505
ZBTJ,1988-10-04 05:28,ZBTJ 040528Z AUTO 22006KT 23/15 A2997 RMK T02300150 IEM_DS3505
ZBTJ,1988-10-04 05:29,ZBTJ 040529Z AUTO 22006KT 23/15 A2997 RMK T02300150 IEM_DS3505
ZBTJ,1988-10-04 06:00,ZBTJ 040600Z AUTO 32016KT 5SM A2997 RMK IEM_DS3505
ZBTJ,1988-10-04 06:25,ZBTJ 040625Z AUTO 32016KT 5SM 15/13 A2997 RMK T01500130 IEM_DS3505
ZBTJ,1988-10-04 06:28,ZBTJ 040628Z AUTO 32016KT 5SM 15/13 A2997 RMK T01500130 IEM_DS3505
ZBTJ,1988-10-04 07:25,ZBTJ 040725Z AUTO 32016KT 7SM 14/13 A3000 RMK T01400130 IEM_DS3505
ZBTJ,1988-10-04 07:28,ZBTJ 040728Z AUTO 32016KT 7SM 14/13 A3000 RMK T01400130 IEM_DS3505
ZBTJ,1988-10-04 09:00,ZBTJ 040900Z AUTO 34016KT 7SM 13/11 A3000 RMK T01300110 IEM_DS3505
ZBTJ,1988-10-04 09:28,ZBTJ 040928Z AUTO 34016KT 7SM 13/11 A3000 RMK T01300110 IEM_DS3505
ZBTJ,1988-10-04 09:29,ZBTJ 040929Z AUTO 34016KT 7SM 13/11 A3000 RMK T01300110 IEM_DS3505
ZBTJ,1988-10-04 10:00,ZBTJ 041000Z AUTO 33012KT 7SM 13/11 A3000 RMK T01300110 IEM_DS3505
ZBTJ,1988-10-04 10:30,ZBTJ 041030Z AUTO 33012KT 7SM 13/11 A3000 RMK T01300110 IEM_DS3505
ZBTJ,1988-10-04 10:31,ZBTJ 041031Z AUTO 33012KT 7SM 13/11 A3000 RMK T01300110 IEM_DS3505
ZBTJ,1988-10-04 11:00,ZBTJ 041100Z AUTO 33010KT 7SM 12/12 A3006 RMK T01200120 IEM_DS3505
ZBTJ,1988-10-04 11:27,ZBTJ 041127Z AUTO 33010KT 7SM 12/12 A3006 RMK T01200120 IEM_DS3505
ZBTJ,1988-10-04 11:30,ZBTJ 041130Z AUTO 33010KT 7SM 12/12 A3006 RMK T01200120 IEM_DS3505
ZBTJ,1988-10-04 13:00,ZBTJ 041300Z AUTO 02006KT 7SM 12/12 A3006 RMK T01200120 IEM_DS3505
ZBTJ,1988-10-04 13:27,ZBTJ 041327Z AUTO 02006KT 7SM 12/12 A3006 RMK T01200120 IEM_DS3505
ZBTJ,1988-10-04 13:34,ZBTJ 041334Z AUTO 02006KT 7SM 12/12 A3006 RMK T01200120 IEM_DS3505
ZBTJ,1988-10-04 22:00,ZBTJ 042200Z AUTO 27008KT 2SM 10/10 A2997 RMK T01000100 IEM_DS3505
ZBTJ,1988-10-04 22:28,ZBTJ 042228Z AUTO 27008KT 2SM 10/10 A2997 RMK T01000100 IEM_DS3505
ZBTJ,1988-10-04 22:30,ZBTJ 042230Z AUTO 27008KT 2SM 10/10 A2997 RMK T01000100 IEM_DS3505
ZBTJ,1988-10-04 23:00,ZBTJ 042300Z AUTO 28004KT 2SM 10/09 A3000 RMK T01000090 IEM_DS3505
ZBTJ,1988-10-04 23:28,ZBTJ 042328Z AUTO 28004KT 2SM 10/09 A3000 RMK T01000090 IEM_DS3505
ZBTJ,1988-10-04 23:30,ZBTJ 042330Z AUTO 28004KT 2SM 10/09 A3000 RMK T01000090 IEM_DS3505
ZBTJ,1988-10-05 00:00,ZBTJ 050000Z AUTO 29008KT 2 1/2SM 11/10 A3000 RMK T01100100 IEM_DS3505
ZBTJ,1988-10-05 00:30,ZBTJ 050030Z AUTO 29008KT 2 1/2SM 11/10 A3000 RMK T01100100 IEM_DS3505
ZBTJ,1988-10-05 00:42,ZBTJ 050042Z AUTO 29008KT 2 1/2SM 11/10 A3000 RMK T01100100 IEM_DS3505
ZBTJ,1988-10-05 01:00,ZBTJ 050100Z AUTO 30006KT 7SM 14/11 A3000 RMK T01400110 IEM_DS3505
ZBTJ,1988-10-05 01:28,ZBTJ 050128Z AUTO 30006KT 7SM 14/11 A3000 RMK T01400110 IEM_DS3505
ZBTJ,1988-10-05 01:31,ZBTJ 050131Z AUTO 30006KT 7SM 14/11 A3000 RMK T01400110 IEM_DS3505
ZBTJ,1988-10-05 02:00,ZBTJ 050200Z AUTO 28010KT 7SM 16/10 A2997 RMK T01600100 IEM_DS3505
ZBTJ,1988-10-05 02:28,ZBTJ 050228Z AUTO 28010KT 7SM 16/10 A2997 RMK T01600100 IEM_DS3505
ZBTJ,1988-10-05 02:40,ZBTJ 050240Z AUTO 28010KT 7SM 16/10 A2997 RMK T01600100 IEM_DS3505
ZBTJ,1988-10-05 03:00,ZBTJ 050300Z AUTO 32012KT 7SM 19/09 A2997 RMK T01900090 IEM_DS3505
ZBTJ,1988-10-05 03:29,ZBTJ 050329Z AUTO 32012KT 7SM 19/09 A2997 RMK T01900090 IEM_DS3505
ZBTJ,1988-10-05 03:30,ZBTJ 050330Z AUTO 32012KT 7SM 19/09 A2997 RMK T01900090 IEM_DS3505
ZBTJ,1988-10-05 04:28,ZBTJ 050428Z AUTO 31010KT 7SM 20/09 A2997 RMK T02000090 IEM_DS3505
ZBTJ,1988-10-05 04:30,ZBTJ 050430Z AUTO 31010KT 7SM 20/09 A2997 RMK T02000090 IEM_DS3505
ZBTJ,1988-10-05 05:00,ZBTJ 050500Z AUTO 33017KT 7SM 21/06 A2994 RMK T02100060 IEM_DS3505
ZBTJ,1988-10-05 05:30,ZBTJ 050530Z AUTO 33017KT 7SM 21/06 A2994 RMK T02100060 IEM_DS3505
ZBTJ,1988-10-05 05:31,ZBTJ 050531Z AUTO 33017KT 7SM 21/06 A2994 RMK T02100060 IEM_DS3505
ZBTJ,1988-10-05 06:00,ZBTJ 050600Z AUTO 33014KT 7SM 22/08 A2991 RMK T02200080 IEM_DS3505
ZBTJ,1988-10-05 07:00,ZBTJ 050700Z AUTO 32012KT 7SM 21/07 A2991 RMK T02100070 IEM_DS3505
ZBTJ,1988-10-05 07:27,ZBTJ 050727Z AUTO 32012KT 7SM 21/07 A2991 RMK T02100070 IEM_DS3505
ZBTJ,1988-10-05 07:30,ZBTJ 050730Z AUTO 32012KT 7SM 21/07 A2991 RMK T02100070 IEM_DS3505
ZBTJ,1988-10-05 08:00,ZBTJ 050800Z AUTO 32008KT 7SM 21/06 A2988 RMK T02100060 IEM_DS3505
ZBTJ,1988-10-05 08:27,ZBTJ 050827Z AUTO 32008KT 7SM 21/06 A2988 RMK T02100060 IEM_DS3505
ZBTJ,1988-10-05 08:33,ZBTJ 050833Z AUTO 32008KT 7SM 21/06 A2988 RMK T02100060 IEM_DS3505
ZBTJ,1988-10-05 09:00,ZBTJ 050900Z AUTO 32010KT 7SM 20/06 A2988 RMK T02000060 IEM_DS3505
ZBTJ,1988-10-05 09:27,ZBTJ 050927Z AUTO 32010KT 7SM 20/06 A2988 RMK T02000060 IEM_DS3505
ZBTJ,1988-10-05 09:29,ZBTJ 050929Z AUTO 32010KT 7SM 20/06 A2988 RMK T02000060 IEM_DS3505
ZBTJ,1988-10-05 10:00,ZBTJ 051000Z AUTO 30006KT 7SM 17/09 A2988 RMK T01700090 IEM_DS3505
ZBTJ,1988-10-05 10:27,ZBTJ 051027Z AUTO 30006KT 7SM 17/09 A2988 RMK T01700090 IEM_DS3505
ZBTJ,1988-10-05 10:30,ZBTJ 051030Z AUTO 30006KT 7SM 17/09 A2988 RMK T01700090 IEM_DS3505
ZBTJ,1988-10-05 11:00,ZBTJ 051100Z AUTO 25006KT 7SM 15/09 A2991 RMK T01500090 IEM_DS3505
ZBTJ,1988-10-05 11:27,ZBTJ 051127Z AUTO 25006KT 7SM 15/09 A2991 RMK T01500090 IEM_DS3505
ZBTJ,1988-10-05 11:33,ZBTJ 051133Z AUTO 25006KT 7SM 15/09 A2991 RMK T01500090 IEM_DS3505
ZBTJ,1988-10-05 12:00,ZBTJ 051200Z AUTO 25006KT 7SM 14/09 A2991 RMK T01400090 IEM_DS3505
ZBTJ,1988-10-05 12:27,ZBTJ 051227Z AUTO 25006KT 7SM 14/09 A2991 RMK T01400090 IEM_DS3505
ZBTJ,1988-10-05 12:29,ZBTJ 051229Z AUTO 25006KT 7SM 14/09 A2991 RMK T01400090 IEM_DS3505
ZBTJ,1988-10-05 13:00,ZBTJ 051300Z AUTO 26004KT 7SM 14/08 A2991 RMK T01400080 IEM_DS3505
ZBTJ,1988-10-05 13:27,ZBTJ 051327Z AUTO 26004KT 7SM 14/08 A2991 RMK T01400080 IEM_DS3505
ZBTJ,1988-10-05 13:29,ZBTJ 051329Z AUTO 26004KT 7SM 14/08 A2991 RMK T01400080 IEM_DS3505
ZBTJ,1988-10-05 14:27,ZBTJ 051427Z AUTO 25006KT 7SM 14/09 A2991 RMK T01400090 IEM_DS3505
ZBTJ,1988-10-05 14:30,ZBTJ 051430Z AUTO 25006KT 7SM 14/09 A2991 RMK T01400090 IEM_DS3505
ZBTJ,1988-10-05 21:00,ZBTJ 052100Z AUTO 25006KT 7SM 11/08 A2988 RMK T01100080 IEM_DS3505
ZBTJ,1988-10-05 21:26,ZBTJ 052126Z AUTO 25006KT 7SM 11/08 A2988 RMK T01100080 IEM_DS3505
ZBTJ,1988-10-05 21:28,ZBTJ 052128Z AUTO 25006KT 7SM 11/08 A2988 RMK T01100080 IEM_DS3505
ZBTJ,1988-10-05 22:26,ZBTJ 052226Z AUTO 31004KT 7SM 09/07 A2988 RMK T00900070 IEM_DS3505
ZBTJ,1988-10-05 22:29,ZBTJ 052229Z AUTO 31004KT 7SM 09/07 A2988 RMK T00900070 IEM_DS3505
ZBTJ,1988-10-05 23:00,ZBTJ 052300Z AUTO 28004KT 7SM 09/08 A2991 RMK T00900080 IEM_DS3505
ZBTJ,1988-10-05 23:27,ZBTJ 052327Z AUTO 28004KT 7SM 09/08 A2991 RMK T00900080 IEM_DS3505
ZBTJ,1988-10-05 23:29,ZBTJ 052329Z AUTO 28004KT 7SM 09/08 A2991 RMK T00900080 IEM_DS3505
ZBTJ,1988-10-06 00:00,ZBTJ 060000Z AUTO 29004KT 7SM 13/08 A2991 RMK T01300080 IEM_DS3505
ZBTJ,1988-10-06 00:27,ZBTJ 060027Z AUTO 29004KT 7SM 13/08 A2991 RMK T01300080 IEM_DS3505
ZBTJ,1988-10-06 01:00,ZBTJ 060100Z AUTO 31008KT 7SM 16/09 A2994 RMK T01600090 IEM_DS3505
ZBTJ,1988-10-06 01:22,ZBTJ 060122Z AUTO 29004KT 7SM 13/08 A2991 RMK T01300080 IEM_DS3505
ZBTJ,1988-10-06 01:29,ZBTJ 060129Z AUTO 31008KT 7SM 16/09 A2994 RMK T01600090 IEM_DS3505
ZBTJ,1988-10-06 01:31,ZBTJ 060131Z AUTO 29004KT 7SM 13/08 A2991 RMK T01300080 IEM_DS3505
ZBTJ,1988-10-06 01:34,ZBTJ 060134Z AUTO 31008KT 7SM 16/09 A2994 RMK T01600090 IEM_DS3505
ZBTJ,1988-10-06 03:00,ZBTJ 060300Z AUTO 33010KT 7SM 22/06 A2994 RMK T02200060 IEM_DS3505
ZBTJ,1988-10-06 03:28,ZBTJ 060328Z AUTO 33010KT 7SM 22/06 A2994 RMK T02200060 IEM_DS3505
ZBTJ,1988-10-06 03:31,ZBTJ 060331Z AUTO 33010KT 7SM 22/06 A2994 RMK T02200060 IEM_DS3505
ZBTJ,1988-10-06 03:56,ZBTJ 060356Z AUTO 29004KT 7SM A2991 RMK IEM_DS3505
ZBTJ,1988-10-06 03:57,ZBTJ 060357Z AUTO 29004KT 7SM 13/08 A2991 RMK T01300080 IEM_DS3505
ZBTJ,1988-10-06 04:00,ZBTJ 060400Z AUTO 33014KT 7SM A2994 RMK IEM_DS3505
ZBTJ,1988-10-06 04:28,ZBTJ 060428Z AUTO 33014KT 7SM 22/06 A2994 RMK T02200060 IEM_DS3505
ZBTJ,1988-10-06 04:34,ZBTJ 060434Z AUTO 33014KT 7SM 22/06 A2994 RMK T02200060 IEM_DS3505
ZBTJ,1988-10-06 04:52,ZBTJ 060452Z AUTO 33014KT 7SM 22/06 A2994 RMK T02200060 IEM_DS3505
ZBTJ,1988-10-06 05:00,ZBTJ 060500Z AUTO 32008KT 7SM 23/06 A2991 RMK T02300060 IEM_DS3505
ZBTJ,1988-10-06 05:27,ZBTJ 060527Z AUTO 32008KT 7SM 23/06 A2991 RMK T02300060 IEM_DS3505
ZBTJ,1988-10-06 05:30,ZBTJ 060530Z AUTO 32008KT 7SM 23/06 A2991 RMK T02300060 IEM_DS3505
ZBTJ,1988-10-06 07:00,ZBTJ 060700Z AUTO 33010KT 7SM 24/06 A2988 RMK T02400060 IEM_DS3505
ZBTJ,1988-10-06 07:27,ZBTJ 060727Z AUTO 33010KT 7SM 24/06 A2988 RMK T02400060 IEM_DS3505
ZBTJ,1988-10-06 07:29,ZBTJ 060729Z AUTO 33010KT 7SM 24/06 A2988 RMK T02400060 IEM_DS3505
ZBTJ,1988-10-06 09:00,ZBTJ 060900Z AUTO 36006KT 6SM 22/09 A2988 RMK T02200090 IEM_DS3505
ZBTJ,1988-10-06 09:21,ZBTJ 060921Z AUTO 36006KT 6SM 22/09 A2988 RMK T02200090 IEM_DS3505
ZBTJ,1988-10-06 09:23,ZBTJ 060923Z AUTO 36006KT 6SM 22/09 A2988 RMK T02200090 IEM_DS3505
ZBTJ,1988-10-06 10:00,ZBTJ 061000Z AUTO 00000KT 6SM 18/11 A2988 RMK T01800110 IEM_DS3505
ZBTJ,1988-10-06 10:23,ZBTJ 061023Z AUTO 00000KT 6SM 18/11 A2988 RMK T01800110 IEM_DS3505
ZBTJ,1988-10-06 10:24,ZBTJ 061024Z AUTO 00000KT 6SM 18/11 A2988 RMK T01800110 IEM_DS3505
ZBTJ,1988-10-06 11:00,ZBTJ 061100Z AUTO 00000KT 6SM 15/10 A2991 RMK T01500100 IEM_DS3505
ZBTJ,1988-10-06 11:22,ZBTJ 061122Z AUTO 00000KT 6SM 15/10 A2991 RMK T01500100 IEM_DS3505
ZBTJ,1988-10-06 11:24,ZBTJ 061124Z AUTO 00000KT 6SM 15/10 A2991 RMK T01500100 IEM_DS3505
ZBTJ,1988-10-06 12:00,ZBTJ 061200Z AUTO 00000KT 7SM 13/11 A2991 RMK T01300110 IEM_DS3505
ZBTJ,1988-10-06 12:23,ZBTJ 061223Z AUTO 00000KT 7SM 13/11 A2991 RMK T01300110 IEM_DS3505
ZBTJ,1988-10-06 12:27,ZBTJ 061227Z AUTO 25006KT 7SM 11/08 A2988 RMK T01100080 IEM_DS3505
ZBTJ,1988-10-06 12:38,ZBTJ 061238Z AUTO 31004KT 7SM 09/07 A2988 RMK T00900070 IEM_DS3505
ZBTJ,1988-10-06 12:50,ZBTJ 061250Z AUTO 28004KT 7SM 09/08 A2991 RMK T00900080 IEM_DS3505
ZBTJ,1988-10-06 13:00,ZBTJ 061300Z AUTO 20002KT 7SM 13/10 A2994 RMK T01300100 IEM_DS3505
ZBTJ,1988-10-06 13:03,ZBTJ 061303Z AUTO 00000KT 6SM 18/11 A2988 RMK T01800110 IEM_DS3505
ZBTJ,1988-10-06 13:18,ZBTJ 061318Z AUTO 00000KT 6SM 15/10 A2991 RMK T01500100 IEM_DS3505
ZBTJ,1988-10-06 13:22,ZBTJ 061322Z AUTO 20002KT 7SM 13/10 A2994 RMK T01300100 IEM_DS3505
ZBTJ,1988-10-06 13:30,ZBTJ 061330Z AUTO 20002KT 7SM 13/10 A2994 RMK T01300100 IEM_DS3505
ZBTJ,1988-10-06 13:48,ZBTJ 061348Z AUTO 00000KT 6SM 18/11 A2988 RMK T01800110 IEM_DS3505
ZBTJ,1988-10-06 13:50,ZBTJ 061350Z AUTO 00000KT 6SM 15/10 A2991 RMK T01500100 IEM_DS3505
ZBTJ,1988-10-06 22:00,ZBTJ 062200Z AUTO 00000KT 1SM 09/08 A3003 RMK T00900080 IEM_DS3505
ZBTJ,1988-10-06 22:22,ZBTJ 062222Z AUTO 00000KT 1SM 09/08 A3003 RMK T00900080 IEM_DS3505
ZBTJ,1988-10-06 22:24,ZBTJ 062224Z AUTO 00000KT 1SM 09/08 A3003 RMK T00900080 IEM_DS3505
ZBTJ,1988-10-06 23:00,ZBTJ 062300Z AUTO 00000KT 1SM 10/09 A3003 RMK T01000090 IEM_DS3505
ZBTJ,1988-10-06 23:24,ZBTJ 062324Z AUTO 00000KT 1SM 10/09 A3003 RMK T01000090 IEM_DS3505
ZBTJ,1988-10-06 23:27,ZBTJ 062327Z AUTO 00000KT 1SM 10/09 A3003 RMK T01000090 IEM_DS3505
ZBTJ,1988-10-07 00:00,ZBTJ 070000Z AUTO 00000KT 1 1/4SM 13/12 A3003 RMK T01300120 IEM_DS3505
ZBTJ,1988-10-07 00:22,ZBTJ 070022Z AUTO 00000KT 1 1/4SM 13/12 A3003 RMK T01300120 IEM_DS3505
ZBTJ,1988-10-07 00:25,ZBTJ 070025Z AUTO 00000KT 1 1/4SM 13/12 A3003 RMK T01300120 IEM_DS3505
ZBTJ,1988-10-07 01:00,ZBTJ 070100Z AUTO 6SM 18/11 A3006 RMK T01800110 IEM_DS3505
ZBTJ,1988-10-07 01:22,ZBTJ 070122Z AUTO 6SM 18/11 A3006 RMK T01800110 IEM_DS3505
ZBTJ,1988-10-07 01:26,ZBTJ 070126Z AUTO 6SM 18/11 A3006 RMK T01800110 IEM_DS3505
ZBTJ,1988-10-07 03:00,ZBTJ 070300Z AUTO 22006KT 6SM 23/09 A3006 RMK T02300090 IEM_DS3505
ZBTJ,1988-10-07 03:22,ZBTJ 070322Z AUTO 22006KT 6SM 23/09 A3006 RMK T02300090 IEM_DS3505
ZBTJ,1988-10-07 03:25,ZBTJ 070325Z AUTO 22006KT 6SM 23/09 A3006 RMK T02300090 IEM_DS3505
ZBTJ,1988-10-07 04:00,ZBTJ 070400Z AUTO 26006KT 6SM 24/08 A3003 RMK T02400080 IEM_DS3505
ZBTJ,1988-10-07 04:26,ZBTJ 070426Z AUTO 26006KT 6SM 24/08 A3003 RMK T02400080 IEM_DS3505
ZBTJ,1988-10-07 04:30,ZBTJ 070430Z AUTO 26006KT 6SM 24/08 A3003 RMK T02400080 IEM_DS3505
ZBTJ,1988-10-07 05:00,ZBTJ 070500Z AUTO 27006KT 6SM 26/07 A3003 RMK T02600070 IEM_DS3505
ZBTJ,1988-10-07 06:00,ZBTJ 070600Z AUTO 24004KT 6SM 26/07 A3000 RMK T02600070 IEM_DS3505
ZBTJ,1988-10-07 06:23,ZBTJ 070623Z AUTO 24004KT 6SM 26/07 A3000 RMK T02600070 IEM_DS3505
ZBTJ,1988-10-07 06:25,ZBTJ 070625Z AUTO 24004KT 6SM 26/07 A3000 RMK T02600070 IEM_DS3505
ZBTJ,1988-10-07 07:00,ZBTJ 070700Z AUTO 23004KT 6SM 24/07 A3000 RMK T02400070 IEM_DS3505
ZBTJ,1988-10-07 07:27,ZBTJ 070727Z AUTO 23004KT 6SM 24/07 A3000 RMK T02400070 IEM_DS3505
ZBTJ,1988-10-07 07:30,ZBTJ 070730Z AUTO 23004KT 6SM 24/07 A3000 RMK T02400070 IEM_DS3505
ZBTJ,1988-10-07 08:00,ZBTJ 070800Z AUTO 00000KT 6SM 23/09 A3000 RMK T02300090 IEM_DS3505
ZBTJ,1988-10-07 08:23,ZBTJ 070823Z AUTO 00000KT 6SM 23/09 A3000 RMK T02300090 IEM_DS3505
ZBTJ,1988-10-07 08:25,ZBTJ 070825Z AUTO 00000KT 6SM 23/09 A3000 RMK T02300090 IEM_DS3505
ZBTJ,1988-10-07 09:00,ZBTJ 070900Z AUTO 12004KT 6SM 21/12 A2997 RMK T02100120 IEM_DS3505
ZBTJ,1988-10-07 09:22,ZBTJ 070922Z AUTO 12004KT 6SM 21/12 A2997 RMK T02100120 IEM_DS3505
ZBTJ,1988-10-07 09:27,ZBTJ 070927Z AUTO 12004KT 6SM 21/12 A2997 RMK T02100120 IEM_DS3505
ZBTJ,1988-10-07 10:00,ZBTJ 071000Z AUTO 16004KT 6SM 19/13 A3000 RMK T01900130 IEM_DS3505
ZBTJ,1988-10-07 10:23,ZBTJ 071023Z AUTO 16004KT 6SM 19/13 A3000 RMK T01900130 IEM_DS3505
ZBTJ,1988-10-07 10:24,ZBTJ 071024Z AUTO 16004KT 6SM 19/13 A3000 RMK T01900130 IEM_DS3505
ZBTJ,1988-10-07 11:00,ZBTJ 071100Z AUTO 17006KT 6SM 18/14 A3000 RMK T01800140 IEM_DS3505
ZBTJ,1988-10-07 11:24,ZBTJ 071124Z AUTO 17006KT 6SM 18/14 A3000 RMK T01800140 IEM_DS3505
ZBTJ,1988-10-07 11:26,ZBTJ 071126Z AUTO 17006KT 6SM 18/14 A3000 RMK T01800140 IEM_DS3505
ZBTJ,1988-10-07 12:00,ZBTJ 071200Z AUTO 16004KT 6SM 18/14 A3000 RMK T01800140 IEM_DS3505
ZBTJ,1988-10-07 12:22,ZBTJ 071222Z AUTO 16004KT 6SM 18/14 A3000 RMK T01800140 IEM_DS3505
ZBTJ,1988-10-07 12:25,ZBTJ 071225Z AUTO 16004KT 6SM 18/14 A3000 RMK T01800140 IEM_DS3505
ZBTJ,1988-10-07 13:22,ZBTJ 071322Z AUTO 19004KT 6SM 17/13 A3000 RMK T01700130 IEM_DS3505
ZBTJ,1988-10-07 13:24,ZBTJ 071324Z AUTO 19004KT 6SM 17/13 A3000 RMK T01700130 IEM_DS3505
ZBTJ,1988-10-07 14:00,ZBTJ 071400Z AUTO 19002KT 6SM 16/13 A3000 RMK T01600130 IEM_DS3505
ZBTJ,1988-10-07 14:22,ZBTJ 071422Z AUTO 19002KT 6SM 16/13 A3000 RMK T01600130 IEM_DS3505
ZBTJ,1988-10-07 14:24,ZBTJ 071424Z AUTO 19002KT 6SM 16/13 A3000 RMK T01600130 IEM_DS3505
ZBTJ,1988-10-07 22:00,ZBTJ 072200Z AUTO 00000KT 1SM 12/11 A2997 RMK T01200110 IEM_DS3505
ZBTJ,1988-10-07 22:22,ZBTJ 072222Z AUTO 00000KT 1SM 12/11 A2997 RMK T01200110 IEM_DS3505
ZBTJ,1988-10-07 22:24,ZBTJ 072224Z AUTO 00000KT 1SM 12/11 A2997 RMK T01200110 IEM_DS3505
ZBTJ,1988-10-07 23:00,ZBTJ 072300Z AUTO 00000KT 1SM 11/11 A3000 RMK T01100110 IEM_DS3505
ZBTJ,1988-10-07 23:23,ZBTJ 072323Z AUTO 00000KT 1SM 11/11 A3000 RMK T01100110 IEM_DS3505
ZBTJ,1988-10-07 23:25,ZBTJ 072325Z AUTO 00000KT 1SM 11/11 A3000 RMK T01100110 IEM_DS3505
ZBTJ,1988-10-08 00:00,ZBTJ 080000Z AUTO 16004KT 1SM 13/13 A3000 RMK T01300130 IEM_DS3505
ZBTJ,1988-10-08 00:45,ZBTJ 080045Z AUTO 16004KT 1SM 13/13 A3000 RMK T01300130 IEM_DS3505
ZBTJ,1988-10-08 00:49,ZBTJ 080049Z AUTO 16004KT 1SM 13/13 A3000 RMK T01300130 IEM_DS3505
ZBTJ,1988-10-08 03:00,ZBTJ 080300Z AUTO 21004KT 6SM 22/ RMK IEM_DS3505
ZBTJ,1988-10-08 03:21,ZBTJ 080321Z AUTO 16004KT 1SM A3000 RMK IEM_DS3505
ZBTJ,1988-10-08 03:44,ZBTJ 080344Z AUTO 21004KT 6SM 22/10 A3000 RMK T02200100 IEM_DS3505
ZBTJ,1988-10-08 03:46,ZBTJ 080346Z AUTO 21004KT 6SM 22/10 A3000 RMK T02200100 IEM_DS3505
ZBTJ,1988-10-08 05:00,ZBTJ 080500Z AUTO 28004KT 7SM 24/08 A2997 RMK T02400080 IEM_DS3505
ZBTJ,1988-10-08 05:46,ZBTJ 080546Z AUTO 28004KT 7SM 24/08 A2997 RMK T02400080 IEM_DS3505
ZBTJ,1988-10-08 05:53,ZBTJ 080553Z AUTO 28004KT 7SM 24/08 A2997 RMK T02400080 IEM_DS3505
ZBTJ,1988-10-08 07:00,ZBTJ 080700Z AUTO 23004KT 7SM 25/07 A2994 RMK T02500070 IEM_DS3505
ZBTJ,1988-10-08 07:25,ZBTJ 080725Z AUTO 23004KT 7SM 25/07 A2994 RMK T02500070 IEM_DS3505
ZBTJ,1988-10-08 07:27,ZBTJ 080727Z AUTO 23004KT 7SM 25/07 A2994 RMK T02500070 IEM_DS3505
ZBTJ,1988-10-08 08:00,ZBTJ 080800Z AUTO 21004KT 7SM 24/08 A2994 RMK T02400080 IEM_DS3505
ZBTJ,1988-10-08 08:25,ZBTJ 080825Z AUTO 21004KT 7SM 24/08 A2994 RMK T02400080 IEM_DS3505
ZBTJ,1988-10-08 08:27,ZBTJ 080827Z AUTO 21004KT 7SM 24/08 A2994 RMK T02400080 IEM_DS3505
ZBTJ,1988-10-08 10:00,ZBTJ 081000Z AUTO 20004KT 7SM 20/10 A2994 RMK T02000100 IEM_DS3505
ZBTJ,1988-10-08 10:24,ZBTJ 081024Z AUTO 20004KT 7SM 20/10 A2994 RMK T02000100 IEM_DS3505
ZBTJ,1988-10-08 10:26,ZBTJ 081026Z AUTO 20004KT 7SM 20/10 A2994 RMK T02000100 IEM_DS3505
ZBTJ,1988-10-08 11:00,ZBTJ 081100Z AUTO 21004KT 7SM 18/11 A2997 RMK T01800110 IEM_DS3505
ZBTJ,1988-10-08 11:26,ZBTJ 081126Z AUTO 21004KT 7SM 18/11 A2997 RMK T01800110 IEM_DS3505
ZBTJ,1988-10-08 11:27,ZBTJ 081127Z AUTO 21004KT 7SM 18/11 A2997 RMK T01800110 IEM_DS3505
ZBTJ,1988-10-08 12:00,ZBTJ 081200Z AUTO 19002KT 7SM 16/11 A2985 RMK T01600110 IEM_DS3505
ZBTJ,1988-10-08 12:25,ZBTJ 081225Z AUTO 19002KT 7SM 16/11 A2985 RMK T01600110 IEM_DS3505
ZBTJ,1988-10-08 12:27,ZBTJ 081227Z AUTO 19002KT 7SM 16/11 A2985 RMK T01600110 IEM_DS3505
ZBTJ,1988-10-08 13:00,ZBTJ 081300Z AUTO 16004KT 7SM 15/11 A3000 RMK T01500110 IEM_DS3505
ZBTJ,1988-10-08 13:25,ZBTJ 081325Z AUTO 16004KT 7SM 15/11 A3000 RMK T01500110 IEM_DS3505
ZBTJ,1988-10-08 13:29,ZBTJ 081329Z AUTO 16004KT 7SM 15/11 A3000 RMK T01500110 IEM_DS3505
ZBTJ,1988-10-08 22:00,ZBTJ 082200Z AUTO 21004KT 4SM 13/11 A3006 RMK T01300110 IEM_DS3505
ZBTJ,1988-10-08 22:25,ZBTJ 082225Z AUTO 21004KT 4SM 13/11 A3006 RMK T01300110 IEM_DS3505
ZBTJ,1988-10-08 22:27,ZBTJ 082227Z AUTO 21004KT 4SM 13/11 A3006 RMK T01300110 IEM_DS3505
ZBTJ,1988-10-08 23:00,ZBTJ 082300Z AUTO 00000KT 2SM 11/10 A3009 RMK T01100100 IEM_DS3505
ZBTJ,1988-10-08 23:25,ZBTJ 082325Z AUTO 00000KT 2SM 11/10 A3009 RMK T01100100 IEM_DS3505
ZBTJ,1988-10-08 23:28,ZBTJ 082328Z AUTO 00000KT 2SM 11/10 A3009 RMK T01100100 IEM_DS3505
ZBTJ,1988-10-09 02:00,ZBTJ 090200Z AUTO 24004KT 2SM 21/12 A3012 RMK T02100120 IEM_DS3505
ZBTJ,1988-10-09 02:26,ZBTJ 090226Z AUTO 24004KT 2SM 21/12 A3012 RMK T02100120 IEM_DS3505
ZBTJ,1988-10-09 02:30,ZBTJ 090230Z AUTO 24004KT 2SM 21/12 A3012 RMK T02100120 IEM_DS3505
ZBTJ,1988-10-09 03:00,ZBTJ 090300Z AUTO 21004KT 2SM 24/13 A3012 RMK T02400130 IEM_DS3505
ZBTJ,1988-10-09 03:25,ZBTJ 090325Z AUTO 21004KT 2SM 24/13 A3012 RMK T02400130 IEM_DS3505
ZBTJ,1988-10-09 03:29,ZBTJ 090329Z AUTO 21004KT 2SM 24/13 A3012 RMK T02400130 IEM_DS3505
ZBTJ,1988-10-09 04:00,ZBTJ 090400Z AUTO 17004KT 2 1/2SM 25/13 A3012 RMK T02500130 IEM_DS3505
ZBTJ,1988-10-09 04:25,ZBTJ 090425Z AUTO 17004KT 2 1/2SM 25/13 A3012 RMK T02500130 IEM_DS3505
ZBTJ,1988-10-09 04:30,ZBTJ 090430Z AUTO 17004KT 2 1/2SM 25/13 A3012 RMK T02500130 IEM_DS3505
ZBTJ,1988-10-09 05:51,ZBTJ 090551Z AUTO 23008KT 5SM 26/10 A3009 RMK T02600100 IEM_DS3505
ZBTJ,1988-10-09 06:00,ZBTJ 090600Z AUTO 23008KT 5SM 27/13 A3009 RMK T02700130 IEM_DS3505
ZBTJ,1988-10-09 06:26,ZBTJ 090626Z AUTO 23008KT 5SM 27/13 A3009 RMK T02700130 IEM_DS3505
ZBTJ,1988-10-09 06:55,ZBTJ 090655Z AUTO 23008KT 5SM 26/10 A3009 RMK T02600100 IEM_DS3505
ZBTJ,1988-10-09 07:00,ZBTJ 090700Z AUTO 23010KT 7SM 27/12 A3006 RMK T02700120 IEM_DS3505
ZBTJ,1988-10-09 07:26,ZBTJ 090726Z AUTO 23010KT 7SM 27/12 A3006 RMK T02700120 IEM_DS3505
ZBTJ,1988-10-09 07:30,ZBTJ 090730Z AUTO 23010KT 7SM 27/12 A3006 RMK T02700120 IEM_DS3505
ZBTJ,1988-10-09 07:35,ZBTJ 090735Z AUTO 23008KT 5SM 27/13 A3009 RMK T02700130 IEM_DS3505
ZBTJ,1988-10-09 08:00,ZBTJ 090800Z AUTO 22006KT 6SM 27/12 A3009 RMK T02700120 IEM_DS3505
ZBTJ,1988-10-09 08:25,ZBTJ 090825Z AUTO 22006KT 6SM 27/12 A3009 RMK T02700120 IEM_DS3505
ZBTJ,1988-10-09 08:27,ZBTJ 090827Z AUTO 22006KT 6SM 27/12 A3009 RMK T02700120 IEM_DS3505
ZBTJ,1988-10-09 10:00,ZBTJ 091000Z AUTO 22004KT 6SM 22/13 A3009 RMK T02200130 IEM_DS3505
ZBTJ,1988-10-09 10:25,ZBTJ 091025Z AUTO 22004KT 6SM 22/13 A3009 RMK T02200130 IEM_DS3505
ZBTJ,1988-10-09 10:27,ZBTJ 091027Z AUTO 22004KT 6SM 22/13 A3009 RMK T02200130 IEM_DS3505
ZBTJ,1988-10-09 12:00,ZBTJ 091200Z AUTO 21004KT 6SM 20/13 A3012 RMK T02000130 IEM_DS3505
ZBTJ,1988-10-09 12:25,ZBTJ 091225Z AUTO 21004KT 6SM 20/13 A3012 RMK T02000130 IEM_DS3505
ZBTJ,1988-10-09 12:31,ZBTJ 091231Z AUTO 21004KT 6SM 20/13 A3012 RMK T02000130 IEM_DS3505
ZBTJ,1988-10-09 14:00,ZBTJ 091400Z AUTO 21004KT 6SM 19/14 A3015 RMK T01900140 IEM_DS3505
ZBTJ,1988-10-09 14:25,ZBTJ 091425Z AUTO 21004KT 6SM 19/14 A3015 RMK T01900140 IEM_DS3505
ZBTJ,1988-10-09 14:30,ZBTJ 091430Z AUTO 21004KT 6SM 19/14 A3015 RMK T01900140 IEM_DS3505
ZBTJ,1988-10-09 21:00,ZBTJ 092100Z AUTO 6SM 16/13 A3015 RMK T01600130 IEM_DS3505
ZBTJ,1988-10-09 21:25,ZBTJ 092125Z AUTO 6SM 16/13 A3015 RMK T01600130 IEM_DS3505
ZBTJ,1988-10-09 21:27,ZBTJ 092127Z AUTO 6SM 16/13 A3015 RMK T01600130 IEM_DS3505
ZBTJ,1988-10-09 22:00,ZBTJ 092200Z AUTO 17004KT 3SM 15/12 A3015 RMK T01500120 IEM_DS3505
ZBTJ,1988-10-09 22:26,ZBTJ 092226Z AUTO 17004KT 3SM 15/12 A3015 RMK T01500120 IEM_DS3505
ZBTJ,1988-10-09 22:28,ZBTJ 092228Z AUTO 17004KT 3SM 15/12 A3015 RMK T01500120 IEM_DS3505
ZBTJ,1988-10-09 23:00,ZBTJ 092300Z AUTO 17002KT 2SM 16/12 A3015 RMK T01600120 IEM_DS3505
ZBTJ,1988-10-09 23:25,ZBTJ 092325Z AUTO 17002KT 2SM 16/12 A3015 RMK T01600120 IEM_DS3505
ZBTJ,1988-10-09 23:27,ZBTJ 092327Z AUTO 17002KT 2SM 16/12 A3015 RMK T01600120 IEM_DS3505
ZBTJ,1988-10-10 00:00,ZBTJ 100000Z AUTO 19004KT 2 1/2SM A3027 RMK IEM_DS3505
ZBTJ,1988-10-10 00:26,ZBTJ 100026Z AUTO 19004KT 2 1/2SM 18/11 A3018 RMK T01800110 IEM_DS3505
ZBTJ,1988-10-10 00:29,ZBTJ 100029Z AUTO 19004KT 2 1/2SM 18/11 A3018 RMK T01800110 IEM_DS3505
ZBTJ,1988-10-10 01:00,ZBTJ 100100Z AUTO 22006KT 5SM 21/11 A3018 RMK T02100110 IEM_DS3505
ZBTJ,1988-10-10 01:30,ZBTJ 100130Z AUTO 22006KT 5SM 21/11 A3018 RMK T02100110 IEM_DS3505
ZBTJ,1988-10-10 02:00,ZBTJ 100200Z AUTO 21004KT 5SM 22/12 A3018 RMK T02200120 IEM_DS3505
ZBTJ,1988-10-10 02:25,ZBTJ 100225Z AUTO 21004KT 5SM 22/12 A3018 RMK T02200120 IEM_DS3505
ZBTJ,1988-10-10 02:27,ZBTJ 100227Z AUTO 21004KT 5SM 22/12 A3018 RMK T02200120 IEM_DS3505
ZBTJ,1988-10-10 03:00,ZBTJ 100300Z AUTO 20004KT 5SM 25/12 A3018 RMK T02500120 IEM_DS3505
ZBTJ,1988-10-10 03:25,ZBTJ 100325Z AUTO 20004KT 5SM 25/12 A3018 RMK T02500120 IEM_DS3505
ZBTJ,1988-10-10 03:31,ZBTJ 100331Z AUTO 20004KT 5SM 25/12 A3018 RMK T02500120 IEM_DS3505
ZBTJ,1988-10-10 04:00,ZBTJ 100400Z AUTO 23006KT 5SM 27/12 A3015 RMK T02700120 IEM_DS3505
ZBTJ,1988-10-10 04:34,ZBTJ 100434Z AUTO 23006KT 5SM 27/12 A3015 RMK T02700120 IEM_DS3505
ZBTJ,1988-10-10 05:00,ZBTJ 100500Z AUTO 21008KT 6SM RMK IEM_DS3505
ZBTJ,1988-10-10 05:25,ZBTJ 100525Z AUTO 21008KT 6SM 26/11 A3012 RMK T02600110 IEM_DS3505
ZBTJ,1988-10-10 05:27,ZBTJ 100527Z AUTO 21008KT 6SM 26/11 A3012 RMK T02600110 IEM_DS3505
ZBTJ,1988-10-10 06:00,ZBTJ 100600Z AUTO 16008KT 6SM 27/13 A3009 RMK T02700130 IEM_DS3505
ZBTJ,1988-10-10 06:24,ZBTJ 100624Z AUTO 16008KT 6SM 27/13 A3009 RMK T02700130 IEM_DS3505
ZBTJ,1988-10-10 06:26,ZBTJ 100626Z AUTO 16008KT 6SM 27/13 A3009 RMK T02700130 IEM_DS3505
ZBTJ,1988-10-10 07:00,ZBTJ 100700Z AUTO 17010KT 6SM 27/10 A3006 RMK T02700100 IEM_DS3505
ZBTJ,1988-10-10 07:26,ZBTJ 100726Z AUTO 17010KT 6SM 27/10 A3006 RMK T02700100 IEM_DS3505
ZBTJ,1988-10-10 07:27,ZBTJ 100727Z AUTO 17010KT 6SM 27/10 A3006 RMK T02700100 IEM_DS3505
ZBTJ,1988-10-10 08:00,ZBTJ 100800Z AUTO 18008KT 6SM 26/12 A3006 RMK T02600120 IEM_DS3505
ZBTJ,1988-10-10 08:25,ZBTJ 100825Z AUTO 18008KT 6SM 26/12 A3006 RMK T02600120 IEM_DS3505
ZBTJ,1988-10-10 08:28,ZBTJ 100828Z AUTO 18008KT 6SM 26/12 A3006 RMK T02600120 IEM_DS3505
ZBTJ,1988-10-10 09:00,ZBTJ 100900Z AUTO 18004KT 6SM 24/14 A3006 RMK T02400140 IEM_DS3505
ZBTJ,1988-10-10 09:24,ZBTJ 100924Z AUTO 18004KT 6SM 24/14 A3006 RMK T02400140 IEM_DS3505
ZBTJ,1988-10-10 09:30,ZBTJ 100930Z AUTO 18004KT 6SM 24/14 A3006 RMK T02400140 IEM_DS3505
ZBTJ,1988-10-10 10:00,ZBTJ 101000Z AUTO 12004KT 6SM 22/15 A3006 RMK T02200150 IEM_DS3505
ZBTJ,1988-10-10 10:29,ZBTJ 101029Z AUTO 12004KT 6SM 22/15 A3006 RMK T02200150 IEM_DS3505
ZBTJ,1988-10-10 10:30,ZBTJ 101030Z AUTO 12004KT 6SM 22/15 A3006 RMK T02200150 IEM_DS3505
ZBTJ,1988-10-10 10:58,ZBTJ 101058Z AUTO 18008KT 6SM 26/12 A3006 RMK T02600120 IEM_DS3505
ZBTJ,1988-10-10 11:00,ZBTJ 101100Z AUTO 14004KT 5SM 21/16 A3006 RMK T02100160 IEM_DS3505
ZBTJ,1988-10-10 11:25,ZBTJ 101125Z AUTO 14004KT 5SM 21/16 A3006 RMK T02100160 IEM_DS3505
ZBTJ,1988-10-10 11:32,ZBTJ 101132Z AUTO 14004KT 5SM 21/16 A3006 RMK T02100160 IEM_DS3505
ZBTJ,1988-10-10 12:00,ZBTJ 101200Z AUTO 15006KT 4SM 20/15 A3006 RMK T02000150 IEM_DS3505
ZBTJ,1988-10-10 12:25,ZBTJ 101225Z AUTO 15006KT 4SM 20/15 A3006 RMK T02000150 IEM_DS3505
ZBTJ,1988-10-10 12:27,ZBTJ 101227Z AUTO 15006KT 4SM 20/15 A3006 RMK T02000150 IEM_DS3505
ZBTJ,1988-10-10 13:00,ZBTJ 101300Z AUTO 17004KT 5SM 26/15 A3006 RMK T02600150 IEM_DS3505
ZBTJ,1988-10-10 13:24,ZBTJ 101324Z AUTO 17004KT 5SM 26/15 A3006 RMK T02600150 IEM_DS3505
ZBTJ,1988-10-10 13:26,ZBTJ 101326Z AUTO 17004KT 5SM 26/15 A3006 RMK T02600150 IEM_DS3505
ZBTJ,1988-10-10 22:00,ZBTJ 102200Z AUTO 30006KT 4SM 17/14 A3000 RMK T01700140 IEM_DS3505
ZBTJ,1988-10-10 22:24,ZBTJ 102224Z AUTO 30006KT 4SM 17/14 A3000 RMK T01700140 IEM_DS3505
ZBTJ,1988-10-10 22:28,ZBTJ 102228Z AUTO 30006KT 4SM 17/14 A3000 RMK T01700140 IEM_DS3505
ZBTJ,1988-10-10 23:00,ZBTJ 102300Z AUTO 31008KT 4SM 18/12 A3003 RMK T01800120 IEM_DS3505
ZBTJ,1988-10-10 23:25,ZBTJ 102325Z AUTO 31008KT 4SM 18/12 A3003 RMK T01800120 IEM_DS3505
ZBTJ,1988-10-10 23:27,ZBTJ 102327Z AUTO 31008KT 4SM 18/12 A3003 RMK T01800120 IEM_DS3505
ZBTJ,1988-10-11 00:00,ZBTJ 110000Z AUTO 33016KT 6SM 18/09 A3006 RMK T01800090 IEM_DS3505
ZBTJ,1988-10-11 00:30,ZBTJ 110030Z AUTO 33016KT 6SM 18/09 A3006 RMK T01800090 IEM_DS3505
ZBTJ,1988-10-11 00:31,ZBTJ 110031Z AUTO 33016KT 6SM 18/09 A3006 RMK T01800090 IEM_DS3505
ZBTJ,1988-10-11 01:00,ZBTJ 110100Z AUTO 33019KT 6SM 20/03 A3009 RMK T02000030 IEM_DS3505
ZBTJ,1988-10-11 01:25,ZBTJ 110125Z AUTO 33019KT 6SM 20/03 A3009 RMK T02000030 IEM_DS3505
ZBTJ,1988-10-11 01:27,ZBTJ 110127Z AUTO 33019KT 6SM 20/03 A3009 RMK T02000030 IEM_DS3505
ZBTJ,1988-10-11 02:00,ZBTJ 110200Z AUTO 32021KT 6SM 20/01 A3009 RMK T02000010 IEM_DS3505
ZBTJ,1988-10-11 02:24,ZBTJ 110224Z AUTO 32021KT 6SM 20/01 A3009 RMK T02000010 IEM_DS3505
ZBTJ,1988-10-11 02:30,ZBTJ 110230Z AUTO 32021KT 6SM 20/01 A3009 RMK T02000010 IEM_DS3505
ZBTJ,1988-10-11 03:00,ZBTJ 110300Z AUTO 32021KT 6SM 21/01 A3009 RMK T02100010 IEM_DS3505
ZBTJ,1988-10-11 03:27,ZBTJ 110327Z AUTO 32021KT 6SM 21/01 A3009 RMK T02100010 IEM_DS3505
ZBTJ,1988-10-11 04:00,ZBTJ 110400Z AUTO 33025KT 6SM 21/00 A3009 RMK T02100000 IEM_DS3505
ZBTJ,1988-10-11 04:26,ZBTJ 110426Z AUTO 33025KT 6SM 21/00 A3009 RMK T02100000 IEM_DS3505
ZBTJ,1988-10-11 04:28,ZBTJ 110428Z AUTO 33025KT 6SM 21/00 A3009 RMK T02100000 IEM_DS3505
ZBTJ,1988-10-11 06:00,ZBTJ 110600Z AUTO 32023KT 6SM 20/02 A3009 RMK T02000020 IEM_DS3505
ZBTJ,1988-10-11 06:24,ZBTJ 110624Z AUTO 32023KT 6SM 20/02 A3009 RMK T02000020 IEM_DS3505
ZBTJ,1988-10-11 06:27,ZBTJ 110627Z AUTO 32023KT 6SM 20/02 A3009 RMK T02000020 IEM_DS3505
ZBTJ,1988-10-11 08:00,ZBTJ 110800Z AUTO 33019KT 6SM 20/02 A3009 RMK T02000020 IEM_DS3505
ZBTJ,1988-10-11 08:26,ZBTJ 110826Z AUTO 33019KT 6SM 20/02 A3009 RMK T02000020 IEM_DS3505
ZBTJ,1988-10-11 08:29,ZBTJ 110829Z AUTO 33019KT 6SM 20/02 A3009 RMK T02000020 IEM_DS3505
ZBTJ,1988-10-11 09:00,ZBTJ 110900Z AUTO 33014KT 6SM 18/04 A3009 RMK T01800040 IEM_DS3505
ZBTJ,1988-10-11 09:25,ZBTJ 110925Z AUTO 33014KT 6SM 18/04 A3009 RMK T01800040 IEM_DS3505
ZBTJ,1988-10-11 09:28,ZBTJ 110928Z AUTO 33014KT 6SM 18/04 A3009 RMK T01800040 IEM_DS3505
ZBTJ,1988-10-11 10:00,ZBTJ 111000Z AUTO 34014KT 6SM 17/03 A3012 RMK T01700030 IEM_DS3505
ZBTJ,1988-10-11 10:25,ZBTJ 111025Z AUTO 34014KT 6SM 17/03 A3012 RMK T01700030 IEM_DS3505
ZBTJ,1988-10-11 10:28,ZBTJ 111028Z AUTO 34014KT 6SM 17/03 A3012 RMK T01700030 IEM_DS3505
ZBTJ,1988-10-11 11:00,ZBTJ 111100Z AUTO 33010KT 6SM 16/04 A3015 RMK T01600040 IEM_DS3505
ZBTJ,1988-10-11 12:00,ZBTJ 111200Z AUTO 33012KT 6SM 16/04 A3015 RMK T01600040 IEM_DS3505
ZBTJ,1988-10-11 12:25,ZBTJ 111225Z AUTO 33012KT 6SM 16/04 A3015 RMK T01600040 IEM_DS3505
ZBTJ,1988-10-11 12:30,ZBTJ 111230Z AUTO 33012KT 6SM 16/04 A3015 RMK T01600040 IEM_DS3505
ZBTJ,1988-10-11 13:00,ZBTJ 111300Z AUTO 34012KT 6SM 15/04 A3018 RMK T01500040 IEM_DS3505
ZBTJ,1988-10-11 13:25,ZBTJ 111325Z AUTO 34012KT 6SM 15/04 A3018 RMK T01500040 IEM_DS3505
ZBTJ,1988-10-11 13:27,ZBTJ 111327Z AUTO 34012KT 6SM 15/04 A3018 RMK T01500040 IEM_DS3505
ZBTJ,1988-10-11 14:25,ZBTJ 111425Z AUTO 32008KT 6SM 15/04 A3018 RMK T01500040 IEM_DS3505
ZBTJ,1988-10-11 14:30,ZBTJ 111430Z AUTO 32008KT 6SM 15/04 A3018 RMK T01500040 IEM_DS3505
ZBTJ,1988-10-11 15:00,ZBTJ 111500Z AUTO 35008KT 6SM 13/04 A3021 RMK T01300040 IEM_DS3505
ZBTJ,1988-10-11 15:24,ZBTJ 111524Z AUTO 35008KT 6SM 13/04 A3021 RMK T01300040 IEM_DS3505
ZBTJ,1988-10-11 15:27,ZBTJ 111527Z AUTO 35008KT 6SM 13/04 A3021 RMK T01300040 IEM_DS3505
ZBTJ,1988-10-11 23:00,ZBTJ 112300Z AUTO 32012KT 6SM 09/M01 A3030 RMK T00901010 IEM_DS3505
ZBTJ,1988-10-11 23:24,ZBTJ 112324Z AUTO 32012KT 6SM 09/M01 A3030 RMK T00901010 IEM_DS3505
ZBTJ,1988-10-11 23:27,ZBTJ 112327Z AUTO 32012KT 6SM 09/M01 A3030 RMK T00901010 IEM_DS3505
ZBTJ,1988-10-12 00:00,ZBTJ 120000Z AUTO 33014KT 6SM 12/M02 A3030 RMK T01201020 IEM_DS3505
ZBTJ,1988-10-12 00:25,ZBTJ 120025Z AUTO 33014KT 6SM 12/M02 A3030 RMK T01201020 IEM_DS3505
ZBTJ,1988-10-12 00:27,ZBTJ 120027Z AUTO 33014KT 6SM 12/M02 A3030 RMK T01201020 IEM_DS3505
ZBTJ,1988-10-12 01:00,ZBTJ 120100Z AUTO 33017KT 6SM 14/M05 RMK T01401050 IEM_DS3505
ZBTJ,1988-10-12 01:25,ZBTJ 120125Z AUTO 33017KT 6SM 14/M05 RMK T01401050 IEM_DS3505
ZBTJ,1988-10-12 01:28,ZBTJ 120128Z AUTO 33017KT 6SM 14/M05 RMK T01401050 IEM_DS3505
ZBTJ,1988-10-12 02:00,ZBTJ 120200Z AUTO 33019KT 6SM 14/M04 A3033 RMK T01401040 IEM_DS3505
ZBTJ,1988-10-12 02:26,ZBTJ 120226Z AUTO 33019KT 6SM 14/M04 A3033 RMK T01401040 IEM_DS3505
ZBTJ,1988-10-12 02:29,ZBTJ 120229Z AUTO 33019KT 6SM 14/M04 A3033 RMK T01401040 IEM_DS3505
ZBTJ,1988-10-12 03:00,ZBTJ 120300Z AUTO 33023KT 7SM 14/M05 A3036 RMK T01401050 IEM_DS3505
ZBTJ,1988-10-12 03:29,ZBTJ 120329Z AUTO 33023KT 7SM 14/M05 A3036 RMK T01401050 IEM_DS3505
ZBTJ,1988-10-12 03:32,ZBTJ 120332Z AUTO 33023KT 7SM 14/M05 A3036 RMK T01401050 IEM_DS3505
ZBTJ,1988-10-12 04:00,ZBTJ 120400Z AUTO 33027G39KT 7SM 15/M05 A3036 RMK T01501050 IEM_DS3505
ZBTJ,1988-10-12 04:28,ZBTJ 120428Z AUTO 33027G39KT 7SM 15/M05 A3036 RMK T01501050 IEM_DS3505
ZBTJ,1988-10-12 04:30,ZBTJ 120430Z AUTO 33027G39KT 7SM 15/M05 A3036 RMK T01501050 IEM_DS3505
ZBTJ,1988-10-12 05:00,ZBTJ 120500Z AUTO 33023KT 7SM 16/M05 A3036 RMK T01601050 IEM_DS3505
ZBTJ,1988-10-12 05:28,ZBTJ 120528Z AUTO 33023KT 7SM 16/M05 A3036 RMK T01601050 IEM_DS3505
ZBTJ,1988-10-12 05:29,ZBTJ 120529Z AUTO 33023KT 7SM 16/M05 A3036 RMK T01601050 IEM_DS3505
ZBTJ,1988-10-12 06:00,ZBTJ 120600Z AUTO 33019G31KT 7SM 15/M05 A3036 RMK T01501050 IEM_DS3505
ZBTJ,1988-10-12 06:25,ZBTJ 120625Z AUTO 33019G31KT 7SM 15/M05 A3036 RMK T01501050 IEM_DS3505
ZBTJ,1988-10-12 06:28,ZBTJ 120628Z AUTO 33019G31KT 7SM 15/M05 A3036 RMK T01501050 IEM_DS3505
ZBTJ,1988-10-12 07:00,ZBTJ 120700Z AUTO 33023KT 7SM 14/M09 A3036 RMK T01401090 IEM_DS3505
ZBTJ,1988-10-12 07:25,ZBTJ 120725Z AUTO 33023KT 7SM 14/M09 A3036 RMK T01401090 IEM_DS3505
ZBTJ,1988-10-12 07:31,ZBTJ 120731Z AUTO 33023KT 7SM 14/M09 A3036 RMK T01401090 IEM_DS3505
ZBTJ,1988-10-12 08:00,ZBTJ 120800Z AUTO 34019KT 7SM 14/M09 A3036 RMK T01401090 IEM_DS3505
ZBTJ,1988-10-12 08:25,ZBTJ 120825Z AUTO 34019KT 7SM 14/M09 A3036 RMK T01401090 IEM_DS3505
ZBTJ,1988-10-12 08:28,ZBTJ 120828Z AUTO 34019KT 7SM 14/M09 A3036 RMK T01401090 IEM_DS3505
ZBTJ,1988-10-12 09:00,ZBTJ 120900Z AUTO 33012KT 7SM 13/M07 A3036 RMK T01301070 IEM_DS3505
ZBTJ,1988-10-12 09:28,ZBTJ 120928Z AUTO 33012KT 7SM 13/M07 A3036 RMK T01301070 IEM_DS3505
ZBTJ,1988-10-12 10:00,ZBTJ 121000Z AUTO 33006KT 7SM 09/M03 A3036 RMK T00901030 IEM_DS3505
ZBTJ,1988-10-12 10:25,ZBTJ 121025Z AUTO 33006KT 7SM 09/M03 A3036 RMK T00901030 IEM_DS3505
ZBTJ,1988-10-12 10:29,ZBTJ 121029Z AUTO 33006KT 7SM 09/M03 A3036 RMK T00901030 IEM_DS3505
ZBTJ,1988-10-12 11:00,ZBTJ 121100Z AUTO 00000KT 7SM 07/M03 A3036 RMK T00701030 IEM_DS3505
ZBTJ,1988-10-12 11:25,ZBTJ 121125Z AUTO 00000KT 7SM 07/M03 A3036 RMK T00701030 IEM_DS3505
ZBTJ,1988-10-12 11:32,ZBTJ 121132Z AUTO 00000KT 7SM 07/M03 A3036 RMK T00701030 IEM_DS3505
ZBTJ,1988-10-12 12:00,ZBTJ 121200Z AUTO 27004KT 7SM 06/M01 A3036 RMK T00601010 IEM_DS3505
ZBTJ,1988-10-12 12:24,ZBTJ 121224Z AUTO 27004KT 7SM 06/M01 A3036 RMK T00601010 IEM_DS3505
ZBTJ,1988-10-12 12:27,ZBTJ 121227Z AUTO 27004KT 7SM 06/M01 A3036 RMK T00601010 IEM_DS3505
ZBTJ,1988-10-12 14:00,ZBTJ 121400Z AUTO 28006KT 7SM 07/M03 A3039 RMK T00701030 IEM_DS3505
ZBTJ,1988-10-12 14:24,ZBTJ 121424Z AUTO 28006KT 7SM 07/M03 A3039 RMK T00701030 IEM_DS3505
ZBTJ,1988-10-12 23:00,ZBTJ 122300Z AUTO 29006KT 7SM 05/M04 A3033 RMK T00501040 IEM_DS3505
ZBTJ,1988-10-12 23:25,ZBTJ 122325Z AUTO 29006KT 7SM 05/M04 A3033 RMK T00501040 IEM_DS3505
ZBTJ,1988-10-12 23:28,ZBTJ 122328Z AUTO 29006KT 7SM 05/M04 A3033 RMK T00501040 IEM_DS3505
ZBTJ,1988-10-13 00:25,ZBTJ 130025Z AUTO 26006KT 4SM 09/M02 A3033 RMK T00901020 IEM_DS3505
ZBTJ,1988-10-13 00:28,ZBTJ 130028Z AUTO 26006KT 4SM 09/M02 A3033 RMK T00901020 IEM_DS3505
ZBTJ,1988-10-13 01:00,ZBTJ 130100Z AUTO 28006KT 7SM 12/M04 A3033 RMK T01201040 IEM_DS3505
ZBTJ,1988-10-13 01:27,ZBTJ 130127Z AUTO 28006KT 7SM 12/M04 A3033 RMK T01201040 IEM_DS3505
ZBTJ,1988-10-13 01:28,ZBTJ 130128Z AUTO 28006KT 7SM 12/M04 A3033 RMK T01201040 IEM_DS3505
ZBTJ,1988-10-13 02:00,ZBTJ 130200Z AUTO 30008KT 7SM 14/M05 A3033 RMK T01401050 IEM_DS3505
ZBTJ,1988-10-13 02:27,ZBTJ 130227Z AUTO 30008KT 7SM 14/M05 A3033 RMK T01401050 IEM_DS3505
ZBTJ,1988-10-13 02:34,ZBTJ 130234Z AUTO 30008KT 7SM 14/M05 A3033 RMK T01401050 IEM_DS3505
ZBTJ,1988-10-13 03:00,ZBTJ 130300Z AUTO 28010KT 7SM 16/M07 A3030 RMK T01601070 IEM_DS3505
ZBTJ,1988-10-13 03:29,ZBTJ 130329Z AUTO 28010KT 7SM 16/M07 A3030 RMK T01601070 IEM_DS3505
ZBTJ,1988-10-13 03:35,ZBTJ 130335Z AUTO 28010KT 7SM 16/M07 A3030 RMK T01601070 IEM_DS3505
ZBTJ,1988-10-13 04:31,ZBTJ 130431Z AUTO 31010KT 7SM 17/M07 A3027 RMK T01701070 IEM_DS3505
ZBTJ,1988-10-13 04:32,ZBTJ 130432Z AUTO 31010KT 7SM 17/M07 A3027 RMK T01701070 IEM_DS3505
ZBTJ,1988-10-13 06:29,ZBTJ 130629Z AUTO 30010KT 7SM 18/M03 A3018 RMK T01801030 IEM_DS3505
ZBTJ,1988-10-13 06:42,ZBTJ 130642Z AUTO 30010KT 7SM 18/M03 A3018 RMK T01801030 IEM_DS3505
ZBTJ,1988-10-13 07:25,ZBTJ 130725Z AUTO 26010KT 7SM 18/M02 A3015 RMK T01801020 IEM_DS3505
ZBTJ,1988-10-13 07:27,ZBTJ 130727Z AUTO 26010KT 7SM 18/M02 A3015 RMK T01801020 IEM_DS3505
ZBTJ,1988-10-13 08:25,ZBTJ 130825Z AUTO 26010KT 7SM 18/00 A3012 RMK T01800000 IEM_DS3505
ZBTJ,1988-10-13 08:28,ZBTJ 130828Z AUTO 26010KT 7SM 18/00 A3012 RMK T01800000 IEM_DS3505
ZBTJ,1988-10-13 09:27,ZBTJ 130927Z AUTO 27006KT 7SM 17/01 A3012 RMK T01700010 IEM_DS3505
ZBTJ,1988-10-13 09:30,ZBTJ 130930Z AUTO 27006KT 7SM 17/01 A3012 RMK T01700010 IEM_DS3505
ZBTJ,1988-10-13 10:00,ZBTJ 131000Z AUTO 24008KT 7SM 14/00 A3009 RMK T01400000 IEM_DS3505
ZBTJ,1988-10-13 10:24,ZBTJ 131024Z AUTO 24008KT 7SM 14/00 A3009 RMK T01400000 IEM_DS3505
ZBTJ,1988-10-13 11:00,ZBTJ 131100Z AUTO 25008KT 7SM 13/01 A3009 RMK T01300010 IEM_DS3505
ZBTJ,1988-10-13 11:24,ZBTJ 131124Z AUTO 25008KT 7SM 13/01 A3009 RMK T01300010 IEM_DS3505
ZBTJ,1988-10-13 12:13,ZBTJ 131213Z AUTO 24006KT 7SM 10/03 A3009 RMK T01000030 IEM_DS3505
ZBTJ,1988-10-13 12:27,ZBTJ 131227Z AUTO 24006KT 7SM 10/03 A3009 RMK T01000030 IEM_DS3505
ZBTJ,1988-10-13 13:00,ZBTJ 131300Z AUTO 24006KT 7SM 10/01 A3009 RMK T01000010 IEM_DS3505
ZBTJ,1988-10-13 13:24,ZBTJ 131324Z AUTO 24006KT 7SM 10/01 A3009 RMK T01000010 IEM_DS3505
ZBTJ,1988-10-13 14:00,ZBTJ 131400Z AUTO 23004KT 7SM 09/03 A3009 RMK T00900030 IEM_DS3505
ZBTJ,1988-10-13 14:24,ZBTJ 131424Z AUTO 23004KT 7SM 09/03 A3009 RMK T00900030 IEM_DS3505
ZBTJ,1988-10-13 15:00,ZBTJ 131500Z AUTO 24008KT 7SM 10/03 A3009 RMK T01000030 IEM_DS3505
ZBTJ,1988-10-13 15:25,ZBTJ 131525Z AUTO 24008KT 7SM 10/03 A3009 RMK T01000030 IEM_DS3505
ZBTJ,1988-10-14 02:00,ZBTJ 140200Z AUTO 32016KT 6SM 18/M01 A3009 RMK T01801010 IEM_DS3505
ZBTJ,1988-10-14 03:00,ZBTJ 140300Z AUTO 32014KT 6SM 19/00 A3006 RMK T01900000 IEM_DS3505
ZBTJ,1988-10-14 03:27,ZBTJ 140327Z AUTO 32014KT 6SM 19/00 A3006 RMK T01900000 IEM_DS3505
ZBTJ,1988-10-14 04:00,ZBTJ 140400Z AUTO 32016KT 6SM 21/00 A3006 RMK T02100000 IEM_DS3505
ZBTJ,1988-10-14 04:27,ZBTJ 140427Z AUTO 32016KT 6SM 21/00 A3006 RMK T02100000 IEM_DS3505
ZBTJ,1988-10-14 05:00,ZBTJ 140500Z AUTO 30012KT 7SM 21/02 A3003 RMK T02100020 IEM_DS3505
ZBTJ,1988-10-14 06:00,ZBTJ 140600Z AUTO 31008KT 7SM 22/01 A3000 RMK T02200010 IEM_DS3505
ZBTJ,1988-10-14 07:00,ZBTJ 140700Z AUTO 30012KT 7SM 22/M02 A3000 RMK T02201020 IEM_DS3505
ZBTJ,1988-10-14 08:00,ZBTJ 140800Z AUTO 29004KT 7SM 22/M01 A2997 RMK T02201010 IEM_DS3505
ZBTJ,1988-10-14 10:00,ZBTJ 141000Z AUTO 24006KT 7SM 16/04 A2997 RMK T01600040 IEM_DS3505
ZBTJ,1988-10-14 10:21,ZBTJ 141021Z AUTO 24006KT 7SM 16/04 A2997 RMK T01600040 IEM_DS3505
ZBTJ,1988-10-14 11:00,ZBTJ 141100Z AUTO 21002KT 7SM 12/05 A3000 RMK T01200050 IEM_DS3505
ZBTJ,1988-10-14 12:00,ZBTJ 141200Z AUTO 24006KT 7SM 12/05 A3000 RMK T01200050 IEM_DS3505
ZBTJ,1988-10-14 23:00,ZBTJ 142300Z AUTO 1SM 10/08 A3012 RMK T01000080 IEM_DS3505
ZBTJ,1988-10-14 23:10,ZBTJ 142310Z AUTO 00000KT 7SM 06/04 A3006 RMK T00600040 IEM_DS3505
ZBTJ,1988-10-14 23:15,ZBTJ 142315Z AUTO 26004KT 1 1/2SM 06/05 A3009 RMK T00600050 IEM_DS3505
ZBTJ,1988-10-14 23:23,ZBTJ 142323Z AUTO 26004KT 1 1/2SM 06/05 A3009 RMK T00600050 IEM_DS3505
ZBTJ,1988-10-15 00:00,ZBTJ 150000Z AUTO 1SM 10/08 A3012 RMK T01000080 IEM_DS3505
ZBTJ,1988-10-15 01:20,ZBTJ 150120Z AUTO 00000KT 13/08 A3015 RMK T01300080 IEM_DS3505
ZBTJ,1988-10-15 01:24,ZBTJ 150124Z AUTO 00000KT 13/08 A3015 RMK T01300080 IEM_DS3505
ZBTJ,1988-10-15 02:00,ZBTJ 150200Z AUTO 26004KT 1 1/2SM 06/05 A3009 RMK T00600050 IEM_DS3505
ZBTJ,1988-10-15 02:01,ZBTJ 150201Z AUTO 1SM 10/08 A3012 RMK T01000080 IEM_DS3505
ZBTJ,1988-10-15 03:12,ZBTJ 150312Z AUTO 00000KT 2 1/2SM 19/07 A3015 RMK T01900070 IEM_DS3505
ZBTJ,1988-10-15 04:25,ZBTJ 150425Z AUTO 06004KT 7SM 21/05 A2983 RMK T02100050 IEM_DS3505
ZBTJ,1988-10-15 04:27,ZBTJ 150427Z AUTO 06004KT 7SM 21/05 A2983 RMK T02100050 IEM_DS3505
ZBTJ,1988-10-15 05:00,ZBTJ 150500Z AUTO 09002KT 6SM 22/04 A3012 RMK T02200040 IEM_DS3505
ZBTJ,1988-10-15 06:00,ZBTJ 150600Z AUTO 11004KT 7SM 22/04 A3012 RMK T02200040 IEM_DS3505
ZBTJ,1988-10-15 07:23,ZBTJ 150723Z AUTO 21004KT 6SM 21/07 A3012 RMK T02100070 IEM_DS3505
ZBTJ,1988-10-15 07:27,ZBTJ 150727Z AUTO 21004KT 6SM 21/07 A3012 RMK T02100070 IEM_DS3505
ZBTJ,1988-10-15 08:00,ZBTJ 150800Z AUTO 21004KT 6SM 20/07 A3009 RMK T02000070 IEM_DS3505
ZBTJ,1988-10-15 08:17,ZBTJ 150817Z AUTO 21004KT 6SM 20/07 A3009 RMK T02000070 IEM_DS3505
ZBTJ,1988-10-15 09:00,ZBTJ 150900Z AUTO 20004KT 6SM 18/05 A3009 RMK T01800050 IEM_DS3505
ZBTJ,1988-10-15 10:00,ZBTJ 151000Z AUTO 19006KT 5SM 15/06 A3012 RMK T01500060 IEM_DS3505
ZBTJ,1988-10-15 10:24,ZBTJ 151024Z AUTO 19006KT 5SM 15/06 A3012 RMK T01500060 IEM_DS3505
ZBTJ,1988-10-15 11:00,ZBTJ 151100Z AUTO 21004KT 4SM 15/04 A3012 RMK T01500040 IEM_DS3505
ZBTJ,1988-10-15 11:24,ZBTJ 151124Z AUTO 21004KT 4SM 15/04 A3012 RMK T01500040 IEM_DS3505
ZBTJ,1988-10-15 14:00,ZBTJ 151400Z AUTO 20004KT 2SM 14/10 A3015 RMK T01400100 IEM_DS3505
ZBTJ,1988-10-16 01:00,ZBTJ 160100Z AUTO 25004KT 1 1/2SM 14/11 A3015 RMK T01400110 IEM_DS3505
ZBTJ,1988-10-16 02:00,ZBTJ 160200Z AUTO 24006KT 2 1/2SM 15/11 A3015 RMK T01500110 IEM_DS3505
ZBTJ,1988-10-16 03:00,ZBTJ 160300Z AUTO 25008KT 2 1/2SM 16/11 A3015 RMK T01600110 IEM_DS3505
ZBTJ,1988-10-16 03:15,ZBTJ 160315Z AUTO 25008KT 2 1/2SM 16/11 A3015 RMK T01600110 IEM_DS3505
ZBTJ,1988-10-16 04:00,ZBTJ 160400Z AUTO 26006KT 2 1/2SM 17/10 A3012 RMK T01700100 IEM_DS3505
ZBTJ,1988-10-16 05:00,ZBTJ 160500Z AUTO 24006KT 2 1/2SM 15/11 A3015 RMK T01500110 IEM_DS3505
ZBTJ,1988-10-16 05:24,ZBTJ 160524Z AUTO 24006KT 2 1/2SM 15/11 A3015 RMK T01500110 IEM_DS3505
ZBTJ,1988-10-16 05:25,ZBTJ 160525Z AUTO 24006KT 2 1/2SM 15/11 A3015 RMK T01500110 IEM_DS3505
ZBTJ,1988-10-16 06:00,ZBTJ 160600Z AUTO 22008KT 2 1/2SM 18/11 A3006 RMK T01800110 IEM_DS3505
ZBTJ,1988-10-16 06:24,ZBTJ 160624Z AUTO 22008KT 2SM 17/11 A3006 RMK T01700110 IEM_DS3505
ZBTJ,1988-10-16 07:00,ZBTJ 160700Z AUTO 22008KT 2 1/2SM 18/11 A3006 RMK T01800110 IEM_DS3505
ZBTJ,1988-10-16 07:27,ZBTJ 160727Z AUTO 22008KT 2 1/2SM 18/11 A3006 RMK T01800110 IEM_DS3505
ZBTJ,1988-10-16 08:00,ZBTJ 160800Z AUTO 22006KT 2 1/2SM 17/11 A3006 RMK T01700110 IEM_DS3505
ZBTJ,1988-10-16 08:14,ZBTJ 160814Z AUTO 23006KT 2 1/2SM 18/11 RMK T01800110 IEM_DS3505
ZBTJ,1988-10-16 08:24,ZBTJ 160824Z AUTO 23006KT 2 1/2SM 18/11 RMK T01800110 IEM_DS3505
ZBTJ,1988-10-16 09:00,ZBTJ 160900Z AUTO 22006KT 2 1/2SM 17/11 A3006 RMK T01700110 IEM_DS3505
ZBTJ,1988-10-16 10:00,ZBTJ 161000Z AUTO 24004KT 2 1/2SM 16/11 A3006 RMK T01600110 IEM_DS3505
ZBTJ,1988-10-16 10:14,ZBTJ 161014Z AUTO 24004KT 2 1/2SM 16/11 A3006 RMK T01600110 IEM_DS3505
ZBTJ,1988-10-16 11:00,ZBTJ 161100Z AUTO 25008KT 4SM 15/11 A3009 RMK T01500110 IEM_DS3505
ZBTJ,1988-10-16 11:33,ZBTJ 161133Z AUTO 25008KT 4SM 15/11 A3009 RMK T01500110 IEM_DS3505
ZBTJ,1988-10-16 12:00,ZBTJ 161200Z AUTO 25006KT 4SM 14/10 A3009 RMK T01400100 IEM_DS3505
ZBTJ,1988-10-16 12:27,ZBTJ 161227Z AUTO 25006KT 4SM 14/10 A3009 RMK T01400100 IEM_DS3505
ZBTJ,1988-10-16 13:00,ZBTJ 161300Z AUTO 25008KT 5SM 14/10 A3009 RMK T01400100 IEM_DS3505
ZBTJ,1988-10-16 14:00,ZBTJ 161400Z AUTO 25006KT 6SM 13/10 A3012 RMK T01300100 IEM_DS3505
ZBTJ,1988-10-16 14:23,ZBTJ 161423Z AUTO 25006KT 6SM 13/10 A3012 RMK T01300100 IEM_DS3505
ZBTJ,1988-10-16 22:00,ZBTJ 162200Z AUTO 32010KT 7SM 11/M03 A3015 RMK T01101030 IEM_DS3505
ZBTJ,1988-10-16 23:00,ZBTJ 162300Z AUTO 32010KT 7SM 11/M03 A3018 RMK T01101030 IEM_DS3505
ZBTJ,1988-10-17 00:00,ZBTJ 170000Z AUTO 00000KT 7SM 13/M02 A3021 RMK T01301020 IEM_DS3505
ZBTJ,1988-10-17 01:00,ZBTJ 170100Z AUTO 33014KT 6SM 16/M02 A3021 RMK T01601020 IEM_DS3505
ZBTJ,1988-10-17 02:00,ZBTJ 170200Z AUTO 32014KT 7SM 18/M01 A3021 RMK T01801010 IEM_DS3505
ZBTJ,1988-10-17 02:29,ZBTJ 170229Z AUTO 32014KT 7SM 18/M01 A3021 RMK T01801010 IEM_DS3505
ZBTJ,1988-10-17 03:00,ZBTJ 170300Z AUTO 33008KT 7SM 19/M01 A3021 RMK T01901010 IEM_DS3505
ZBTJ,1988-10-17 04:00,ZBTJ 170400Z AUTO 33014KT 7SM 20/00 A3018 RMK T02000000 IEM_DS3505
ZBTJ,1988-10-17 05:00,ZBTJ 170500Z AUTO 01006KT 7SM 21/02 A3015 RMK T02100020 IEM_DS3505
ZBTJ,1988-10-17 06:00,ZBTJ 170600Z AUTO 36004KT 7SM 21/01 A3012 RMK T02100010 IEM_DS3505
ZBTJ,1988-10-17 06:43,ZBTJ 170643Z AUTO 36004KT 7SM 21/01 A3012 RMK T02100010 IEM_DS3505
ZBTJ,1988-10-17 07:00,ZBTJ 170700Z AUTO 32006KT 7SM 21/03 A3012 RMK T02100030 IEM_DS3505
ZBTJ,1988-10-17 08:00,ZBTJ 170800Z AUTO 36004KT 7SM 21/04 A3012 RMK T02100040 IEM_DS3505
ZBTJ,1988-10-17 09:00,ZBTJ 170900Z AUTO 32002KT 7SM 19/08 A3012 RMK T01900080 IEM_DS3505
ZBTJ,1988-10-17 10:00,ZBTJ 171000Z AUTO 00000KT 7SM 14/05 A3012 RMK T01400050 IEM_DS3505
ZBTJ,1988-10-17 10:20,ZBTJ 171020Z AUTO 00000KT 7SM 14/05 A3012 RMK T01400050 IEM_DS3505
ZBTJ,1988-10-17 11:00,ZBTJ 171100Z AUTO 00000KT 7SM 11/04 A3012 RMK T01100040 IEM_DS3505
ZBTJ,1988-10-17 12:00,ZBTJ 171200Z AUTO 00000KT 7SM 11/06 A3012 RMK T01100060 IEM_DS3505
ZBTJ,1988-10-17 13:00,ZBTJ 171300Z AUTO 20004KT 6SM 10/05 A3015 RMK T01000050 IEM_DS3505
ZBTJ,1988-10-17 21:00,ZBTJ 172100Z AUTO 22008KT 7SM 10/03 A3012 RMK T01000030 IEM_DS3505
ZBTJ,1988-10-17 22:00,ZBTJ 172200Z AUTO 22008KT 7SM 10/03 A3012 RMK T01000030 IEM_DS3505
ZBTJ,1988-10-17 22:26,ZBTJ 172226Z AUTO 21004KT 7SM 09/04 A3015 RMK T00900040 IEM_DS3505
ZBTJ,1988-10-17 23:00,ZBTJ 172300Z AUTO 20004KT 7SM 08/04 A3015 RMK T00800040 IEM_DS3505
ZBTJ,1988-10-17 23:21,ZBTJ 172321Z AUTO 20004KT 7SM 08/04 A3015 RMK T00800040 IEM_DS3505
ZBTJ,1988-10-17 23:24,ZBTJ 172324Z AUTO 21004KT 7SM 09/04 A3015 RMK T00900040 IEM_DS3505
ZBTJ,1988-10-17 23:27,ZBTJ 172327Z AUTO 20004KT 7SM 08/04 A3015 RMK T00800040 IEM_DS3505
ZBTJ,1988-10-18 00:00,ZBTJ 180000Z AUTO 22004KT 2 1/2SM 10/06 A3018 RMK T01000060 IEM_DS3505
ZBTJ,1988-10-18 00:27,ZBTJ 180027Z AUTO 22004KT 2 1/2SM 10/06 A3018 RMK T01000060 IEM_DS3505
ZBTJ,1988-10-18 01:00,ZBTJ 180100Z AUTO 23002KT 1 1/2SM 15/08 A3018 RMK T01500080 IEM_DS3505
ZBTJ,1988-10-18 02:00,ZBTJ 180200Z AUTO 22004KT 2 1/2SM 10/06 A3018 RMK T01000060 IEM_DS3505
ZBTJ,1988-10-18 02:15,ZBTJ 180215Z AUTO 23002KT 1 1/2SM 15/08 A3018 RMK T01500080 IEM_DS3505
ZBTJ,1988-10-18 04:00,ZBTJ 180400Z AUTO 21010KT 5SM 21/09 A3015 RMK T02100090 IEM_DS3505
ZBTJ,1988-10-18 05:00,ZBTJ 180500Z AUTO 23010KT 5SM 22/09 A3012 RMK T02200090 IEM_DS3505
ZBTJ,1988-10-18 06:00,ZBTJ 180600Z AUTO 21008KT 5SM 23/09 A3012 RMK T02300090 IEM_DS3505
ZBTJ,1988-10-18 07:00,ZBTJ 180700Z AUTO 21004KT 5SM 23/09 A3009 RMK T02300090 IEM_DS3505
ZBTJ,1988-10-18 07:27,ZBTJ 180727Z AUTO 21004KT 5SM 23/09 A3009 RMK T02300090 IEM_DS3505
ZBTJ,1988-10-18 08:00,ZBTJ 180800Z AUTO 19004KT 7SM 22/09 A3012 RMK T02200090 IEM_DS3505
ZBTJ,1988-10-18 08:28,ZBTJ 180828Z AUTO 19004KT 7SM 22/09 A3012 RMK T02200090 IEM_DS3505
ZBTJ,1988-10-18 09:00,ZBTJ 180900Z AUTO 6SM 21/11 A3009 RMK T02100110 IEM_DS3505
ZBTJ,1988-10-18 09:28,ZBTJ 180928Z AUTO 6SM 21/11 A3009 RMK T02100110 IEM_DS3505
ZBTJ,1988-10-18 10:00,ZBTJ 181000Z AUTO 13004KT 2 1/2SM 17/12 A3012 RMK T01700120 IEM_DS3505
ZBTJ,1988-10-18 11:00,ZBTJ 181100Z AUTO 13004KT 2 1/2SM 15/11 A3012 RMK T01500110 IEM_DS3505
ZBTJ,1988-10-18 11:30,ZBTJ 181130Z AUTO 13004KT 2 1/2SM 15/11 A3012 RMK T01500110 IEM_DS3505
ZBTJ,1988-10-18 12:00,ZBTJ 181200Z AUTO 14004KT 2 1/2SM 14/11 A3012 RMK T01400110 IEM_DS3505
ZBTJ,1988-10-18 12:27,ZBTJ 181227Z AUTO 14004KT 2 1/2SM 14/11 A3012 RMK T01400110 IEM_DS3505
ZBTJ,1988-10-18 12:29,ZBTJ 181229Z AUTO 14004KT 2 1/2SM 14/11 A3012 RMK T01400110 IEM_DS3505
ZBTJ,1988-10-18 14:00,ZBTJ 181400Z AUTO 15006KT 4SM 14/12 A3015 RMK T01400120 IEM_DS3505
ZBTJ,1988-10-18 14:29,ZBTJ 181429Z AUTO 15006KT 4SM 14/12 A3015 RMK T01400120 IEM_DS3505
ZBTJ,1988-10-19 10:00,ZBTJ 191000Z AUTO 21006KT 6SM 21/12 A3000 RMK T02100120 IEM_DS3505
ZBTJ,1988-10-19 10:28,ZBTJ 191028Z AUTO 21006KT 6SM 21/12 A3000 RMK T02100120 IEM_DS3505
ZBTJ,1988-10-19 13:00,ZBTJ 191300Z AUTO 23006KT 6SM 17/12 A3006 RMK T01700120 IEM_DS3505
ZBTJ,1988-10-19 13:31,ZBTJ 191331Z AUTO 23006KT 6SM 17/12 A3006 RMK T01700120 IEM_DS3505
ZBTJ,1988-10-19 22:00,ZBTJ 192200Z AUTO 21004KT 2SM 14/12 A3006 RMK T01400120 IEM_DS3505
ZBTJ,1988-10-19 22:29,ZBTJ 192229Z AUTO 21004KT 2SM 14/12 A3006 RMK T01400120 IEM_DS3505
ZBTJ,1988-10-19 23:26,ZBTJ 192326Z AUTO 23006KT 1SM 14/12 A3006 RMK T01400120 IEM_DS3505
ZBTJ,1988-10-19 23:30,ZBTJ 192330Z AUTO 23006KT 1SM 14/12 A3006 RMK T01400120 IEM_DS3505
ZBTJ,1988-10-20 00:00,ZBTJ 200000Z AUTO 21004KT 1SM 15/12 A3009 RMK T01500120 IEM_DS3505
ZBTJ,1988-10-20 00:24,ZBTJ 200024Z AUTO 21004KT 1SM 15/12 A3009 RMK T01500120 IEM_DS3505
ZBTJ,1988-10-20 00:30,ZBTJ 200030Z AUTO 23006KT 1SM 14/12 A3006 RMK T01400120 IEM_DS3505
ZBTJ,1988-10-20 00:33,ZBTJ 200033Z AUTO 23006KT 1SM 14/12 A3006 RMK T01400120 IEM_DS3505
ZBTJ,1988-10-20 01:00,ZBTJ 200100Z AUTO 00000KT 1SM 15/13 A3009 RMK T01500130 IEM_DS3505
ZBTJ,1988-10-20 01:27,ZBTJ 200127Z AUTO 00000KT 1SM 15/13 A3009 RMK T01500130 IEM_DS3505
ZBTJ,1988-10-20 02:00,ZBTJ 200200Z AUTO 25002KT 1SM 16/13 A3012 RMK T01600130 IEM_DS3505
ZBTJ,1988-10-20 02:14,ZBTJ 200214Z AUTO 25002KT 1SM 16/13 A3012 RMK T01600130 IEM_DS3505
ZBTJ,1988-10-20 02:28,ZBTJ 200228Z AUTO 25002KT 1SM 16/13 A3012 RMK T01600130 IEM_DS3505
ZBTJ,1988-10-20 03:00,ZBTJ 200300Z AUTO 25002KT 1SM 16/13 A3012 RMK T01600130 IEM_DS3505
ZBTJ,1988-10-20 03:13,ZBTJ 200313Z AUTO 00000KT 1SM 17/15 A3009 RMK T01700150 IEM_DS3505
ZBTJ,1988-10-20 03:23,ZBTJ 200323Z AUTO 00000KT 1SM 17/15 A3009 RMK T01700150 IEM_DS3505
ZBTJ,1988-10-20 05:00,ZBTJ 200500Z AUTO 00000KT 2 1/2SM 20/14 A3006 RMK T02000140 IEM_DS3505
ZBTJ,1988-10-20 06:00,ZBTJ 200600Z AUTO 00000KT 2 1/2SM 21/12 A3006 RMK T02100120 IEM_DS3505
ZBTJ,1988-10-20 06:08,ZBTJ 200608Z AUTO 00000KT 2 1/2SM 21/12 A3006 RMK T02100120 IEM_DS3505
ZBTJ,1988-10-20 08:00,ZBTJ 200800Z AUTO 00000KT 3SM 22/12 A3003 RMK T02200120 IEM_DS3505
ZBTJ,1988-10-20 08:27,ZBTJ 200827Z AUTO 00000KT 3SM 22/12 A3003 RMK T02200120 IEM_DS3505
ZBTJ,1988-10-20 11:00,ZBTJ 201100Z AUTO 19004KT 1SM 16/13 A3006 RMK T01600130 IEM_DS3505
ZBTJ,1988-10-20 11:43,ZBTJ 201143Z AUTO 19004KT 1SM 16/13 A3006 RMK T01600130 IEM_DS3505
ZBTJ,1988-10-20 12:00,ZBTJ 201200Z AUTO 19004KT 1SM 16/13 A3006 RMK T01600130 IEM_DS3505
ZBTJ,1988-10-20 12:28,ZBTJ 201228Z AUTO 19004KT 1SM 14/13 A3009 RMK T01400130 IEM_DS3505
ZBTJ,1988-10-20 12:36,ZBTJ 201236Z AUTO 19004KT 1SM 16/13 A3006 RMK T01600130 IEM_DS3505
ZBTJ,1988-10-20 13:00,ZBTJ 201300Z AUTO 20004KT 1SM 14/13 A3009 RMK T01400130 IEM_DS3505
ZBTJ,1988-10-20 13:16,ZBTJ 201316Z AUTO 20004KT 1SM 14/13 A3009 RMK T01400130 IEM_DS3505
ZBTJ,1988-10-20 14:00,ZBTJ 201400Z AUTO 24004KT 1 1/4SM 14/12 A3009 RMK T01400120 IEM_DS3505
ZBTJ,1988-10-20 14:25,ZBTJ 201425Z AUTO 24004KT 1 1/4SM 14/12 A3009 RMK T01400120 IEM_DS3505
ZBTJ,1988-10-20 15:00,ZBTJ 201500Z AUTO 24004KT 1 1/4SM 14/11 A3009 RMK T01400110 IEM_DS3505
ZBTJ,1988-10-20 15:31,ZBTJ 201531Z AUTO 24004KT 1 1/4SM 14/11 A3009 RMK T01400110 IEM_DS3505
ZBTJ,1988-10-20 21:00,ZBTJ 202100Z AUTO 35004KT 1 1/2SM 10/09 A3012 RMK T01000090 IEM_DS3505
ZBTJ,1988-10-20 22:00,ZBTJ 202200Z AUTO 35004KT 1 1/2SM 10/09 A3012 RMK T01000090 IEM_DS3505
ZBTJ,1988-10-20 23:00,ZBTJ 202300Z AUTO 35006KT 1SM 09/08 A3015 RMK T00900080 IEM_DS3505
ZBTJ,1988-10-20 23:13,ZBTJ 202313Z AUTO 35004KT 1SM 08/08 A3012 RMK T00800080 IEM_DS3505
ZBTJ,1988-10-20 23:19,ZBTJ 202319Z AUTO 35006KT 1SM 09/08 A3015 RMK T00900080 IEM_DS3505
ZBTJ,1988-10-20 23:27,ZBTJ 202327Z AUTO 35006KT 1SM 09/08 A3015 RMK T00900080 IEM_DS3505
ZBTJ,1988-10-21 00:00,ZBTJ 210000Z AUTO 35004KT 3SM 13/09 RMK T01300090 IEM_DS3505
ZBTJ,1988-10-21 00:16,ZBTJ 210016Z AUTO 33004KT 1 1/4SM 10/10 A3018 RMK T01000100 IEM_DS3505
ZBTJ,1988-10-21 01:26,ZBTJ 210126Z AUTO 35004KT 3SM 13/09 RMK T01300090 IEM_DS3505
ZBTJ,1988-10-21 01:44,ZBTJ 210144Z AUTO 33004KT 1 1/4SM 10/10 A3018 RMK T01000100 IEM_DS3505
ZBTJ,1988-10-21 02:00,ZBTJ 210200Z AUTO 35004KT 3SM 13/09 RMK T01300090 IEM_DS3505
ZBTJ,1988-10-21 02:30,ZBTJ 210230Z AUTO 36004KT 6SM 17/09 A3018 RMK T01700090 IEM_DS3505
ZBTJ,1988-10-21 03:00,ZBTJ 210300Z AUTO 36004KT 6SM 17/09 A3018 RMK T01700090 IEM_DS3505
ZBTJ,1988-10-21 03:36,ZBTJ 210336Z AUTO 30004KT 6SM 19/08 A3018 RMK T01900080 IEM_DS3505
ZBTJ,1988-10-21 04:00,ZBTJ 210400Z AUTO 34002KT 6SM 21/04 A3018 RMK T02100040 IEM_DS3505
ZBTJ,1988-10-21 05:00,ZBTJ 210500Z AUTO 29006KT 6SM 22/01 A3015 RMK T02200010 IEM_DS3505
ZBTJ,1988-10-21 05:25,ZBTJ 210525Z AUTO 29006KT 6SM 22/01 A3015 RMK T02200010 IEM_DS3505
ZBTJ,1988-10-21 05:29,ZBTJ 210529Z AUTO 29006KT 6SM 22/01 A3015 RMK T02200010 IEM_DS3505
ZBTJ,1988-10-21 06:00,ZBTJ 210600Z AUTO 33010KT 6SM 23/M01 A3012 RMK T02301010 IEM_DS3505
ZBTJ,1988-10-21 06:30,ZBTJ 210630Z AUTO 33008KT 6SM 22/02 A3012 RMK T02200020 IEM_DS3505
ZBTJ,1988-10-21 07:26,ZBTJ 210726Z AUTO 33008KT 6SM 22/02 A3012 RMK T02200020 IEM_DS3505
ZBTJ,1988-10-21 08:00,ZBTJ 210800Z AUTO 29006KT 6SM 23/02 A3012 RMK T02300020 IEM_DS3505
ZBTJ,1988-10-21 08:25,ZBTJ 210825Z AUTO 29006KT 6SM 23/02 A3012 RMK T02300020 IEM_DS3505
ZBTJ,1988-10-21 09:00,ZBTJ 210900Z AUTO 26006KT 6SM 21/04 A3012 RMK T02100040 IEM_DS3505
ZBTJ,1988-10-21 09:29,ZBTJ 210929Z AUTO 26006KT 6SM 21/04 A3012 RMK T02100040 IEM_DS3505
ZBTJ,1988-10-21 10:00,ZBTJ 211000Z AUTO 22004KT 6SM 17/06 A3012 RMK T01700060 IEM_DS3505
ZBTJ,1988-10-21 10:30,ZBTJ 211030Z AUTO 22004KT 6SM 17/06 A3012 RMK T01700060 IEM_DS3505
ZBTJ,1988-10-21 11:00,ZBTJ 211100Z AUTO 21004KT 6SM 15/07 A3015 RMK T01500070 IEM_DS3505
ZBTJ,1988-10-21 11:27,ZBTJ 211127Z AUTO 21004KT 6SM 15/07 A3015 RMK T01500070 IEM_DS3505
ZBTJ,1988-10-22 01:24,ZBTJ 220124Z AUTO 19004KT 2 1/2SM 15/07 A3024 RMK T01500070 IEM_DS3505
ZBTJ,1988-10-22 01:25,ZBTJ 220125Z AUTO 19004KT 2 1/2SM 15/07 A3024 RMK T01500070 IEM_DS3505
ZBTJ,1988-10-22 02:00,ZBTJ 220200Z AUTO 21004KT 4SM 18/07 A3024 RMK T01800070 IEM_DS3505
ZBTJ,1988-10-22 03:00,ZBTJ 220300Z AUTO 23006KT 6SM 21/05 A3024 RMK T02100050 IEM_DS3505
ZBTJ,1988-10-22 03:30,ZBTJ 220330Z AUTO 23006KT 6SM 21/05 A3024 RMK T02100050 IEM_DS3505
ZBTJ,1988-10-22 04:00,ZBTJ 220400Z AUTO 21006KT 6SM 22/04 A3021 RMK T02200040 IEM_DS3505
ZBTJ,1988-10-22 04:26,ZBTJ 220426Z AUTO 21006KT 6SM 22/04 A3021 RMK T02200040 IEM_DS3505
ZBTJ,1988-10-22 04:27,ZBTJ 220427Z AUTO 21006KT 6SM 22/04 A3021 RMK T02200040 IEM_DS3505
ZBTJ,1988-10-22 05:00,ZBTJ 220500Z AUTO 21008KT 6SM 25/05 A3018 RMK T02500050 IEM_DS3505
ZBTJ,1988-10-22 05:24,ZBTJ 220524Z AUTO 21008KT 6SM 25/05 A3018 RMK T02500050 IEM_DS3505
ZBTJ,1988-10-22 06:00,ZBTJ 220600Z AUTO 22008KT 6SM 24/04 A3018 RMK T02400040 IEM_DS3505
ZBTJ,1988-10-22 08:00,ZBTJ 220800Z AUTO 21006KT 6SM 22/06 A3018 RMK T02200060 IEM_DS3505
ZBTJ,1988-10-22 08:20,ZBTJ 220820Z AUTO 21006KT 6SM 22/06 A3018 RMK T02200060 IEM_DS3505
ZBTJ,1988-10-22 08:27,ZBTJ 220827Z AUTO 21006KT 6SM 22/06 A3018 RMK T02200060 IEM_DS3505
ZBTJ,1988-10-22 09:00,ZBTJ 220900Z AUTO 18004KT 6SM 20/09 A3018 RMK T02000090 IEM_DS3505
ZBTJ,1988-10-22 09:24,ZBTJ 220924Z AUTO 18004KT 6SM 20/09 A3018 RMK T02000090 IEM_DS3505
ZBTJ,1988-10-22 10:00,ZBTJ 221000Z AUTO 15006KT 6SM 18/09 A3015 RMK T01800090 IEM_DS3505
ZBTJ,1988-10-22 11:00,ZBTJ 221100Z AUTO 14006KT 6SM A3018 RMK IEM_DS3505
ZBTJ,1988-10-22 12:00,ZBTJ 221200Z AUTO 18004KT 6SM 16/12 RMK T01600120 IEM_DS3505
ZBTJ,1988-10-22 12:15,ZBTJ 221215Z AUTO 18004KT 6SM 16/12 RMK T01600120 IEM_DS3505
ZBTJ,1988-10-22 13:00,ZBTJ 221300Z AUTO 21004KT 6SM 16/10 A3018 RMK T01600100 IEM_DS3505
ZBTJ,1988-10-22 13:24,ZBTJ 221324Z AUTO 21004KT 6SM 16/10 A3018 RMK T01600100 IEM_DS3505
ZBTJ,1988-10-22 13:30,ZBTJ 221330Z AUTO 21004KT 6SM 16/10 A3018 RMK T01600100 IEM_DS3505
ZBTJ,1988-10-22 22:24,ZBTJ 222224Z AUTO 21004KT 6SM 14/10 A3012 RMK T01400100 IEM_DS3505
ZBTJ,1988-10-22 22:27,ZBTJ 222227Z AUTO 21004KT 6SM 14/10 A3012 RMK T01400100 IEM_DS3505
ZBTJ,1988-10-22 23:00,ZBTJ 222300Z AUTO 24006KT 5SM 15/10 A3012 RMK T01500100 IEM_DS3505
ZBTJ,1988-10-22 23:22,ZBTJ 222322Z AUTO 21004KT 4SM 15/09 A3009 RMK T01500090 IEM_DS3505
ZBTJ,1988-10-22 23:24,ZBTJ 222324Z AUTO 21004KT 4SM 15/09 A3009 RMK T01500090 IEM_DS3505
ZBTJ,1988-10-23 00:00,ZBTJ 230000Z AUTO 24006KT 5SM 15/10 A3012 RMK T01500100 IEM_DS3505
ZBTJ,1988-10-23 00:20,ZBTJ 230020Z AUTO 24006KT 5SM 15/10 A3012 RMK T01500100 IEM_DS3505
ZBTJ,1988-10-23 01:00,ZBTJ 230100Z AUTO 6SM 16/10 A3012 RMK T01600100 IEM_DS3505
ZBTJ,1988-10-23 02:00,ZBTJ 230200Z AUTO 6SM 16/10 A3012 RMK T01600100 IEM_DS3505
ZBTJ,1988-10-23 03:00,ZBTJ 230300Z AUTO 26012KT 15/13 A3012 RMK T01500130 IEM_DS3505
ZBTJ,1988-10-23 04:00,ZBTJ 230400Z AUTO 25008KT 5SM 14/12 A3012 RMK T01400120 IEM_DS3505
ZBTJ,1988-10-23 05:00,ZBTJ 230500Z AUTO 26004KT 4SM 14/12 A3006 RMK T01400120 IEM_DS3505
ZBTJ,1988-10-23 05:24,ZBTJ 230524Z AUTO 26004KT 4SM 14/12 A3006 RMK T01400120 IEM_DS3505
ZBTJ,1988-10-23 06:00,ZBTJ 230600Z AUTO 26004KT 4SM 14/12 A3006 RMK T01400120 IEM_DS3505
ZBTJ,1988-10-23 06:30,ZBTJ 230630Z AUTO 21002KT 2 1/2SM 13/12 A3003 RMK T01300120 IEM_DS3505
ZBTJ,1988-10-23 07:00,ZBTJ 230700Z AUTO 21002KT 2 1/2SM 13/12 A3003 RMK T01300120 IEM_DS3505
ZBTJ,1988-10-23 07:27,ZBTJ 230727Z AUTO 17004KT 1 1/4SM 13/12 A3003 RMK T01300120 IEM_DS3505
ZBTJ,1988-10-23 08:12,ZBTJ 230812Z AUTO 17004KT 1 1/4SM 13/12 A3003 RMK T01300120 IEM_DS3505
ZBTJ,1988-10-23 09:00,ZBTJ 230900Z AUTO 18004KT 2 1/2SM 13/12 A3000 RMK T01300120 IEM_DS3505
ZBTJ,1988-10-23 09:20,ZBTJ 230920Z AUTO 18004KT 2 1/2SM 13/12 A3000 RMK T01300120 IEM_DS3505
ZBTJ,1988-10-23 09:46,ZBTJ 230946Z AUTO 18004KT 2 1/2SM 13/12 A3000 RMK T01300120 IEM_DS3505
ZBTJ,1988-10-23 10:00,ZBTJ 231000Z AUTO 20004KT 1 1/2SM 13/12 A3000 RMK T01300120 IEM_DS3505
ZBTJ,1988-10-23 11:00,ZBTJ 231100Z AUTO 18004KT 2 1/2SM 13/12 A3000 RMK T01300120 IEM_DS3505
ZBTJ,1988-10-23 12:00,ZBTJ 231200Z AUTO 00000KT 1 1/2SM 13/12 A3003 RMK T01300120 IEM_DS3505
ZBTJ,1988-10-23 12:27,ZBTJ 231227Z AUTO 00000KT 1 1/2SM 13/12 A3003 RMK T01300120 IEM_DS3505
ZBTJ,1988-10-24 00:35,ZBTJ 240035Z AUTO 20002KT 1/4SM 10/10 A3003 RMK T01000100 IEM_DS3505
ZBTJ,1988-10-24 01:24,ZBTJ 240124Z AUTO 22004KT 1/4SM 11/11 A3003 RMK T01100110 IEM_DS3505
ZBTJ,1988-10-24 02:00,ZBTJ 240200Z AUTO 27004KT 1SM 12/11 RMK T01200110 IEM_DS3505
ZBTJ,1988-10-24 02:31,ZBTJ 240231Z AUTO 27004KT 1SM 12/11 RMK T01200110 IEM_DS3505
ZBTJ,1988-10-24 03:00,ZBTJ 240300Z AUTO 1 1/4SM 14/11 A3000 RMK T01400110 IEM_DS3505
ZBTJ,1988-10-24 03:30,ZBTJ 240330Z AUTO 1 1/4SM 14/11 A3000 RMK T01400110 IEM_DS3505
ZBTJ,1988-10-24 06:00,ZBTJ 240600Z AUTO 26004KT 1 1/4SM 18/11 A2997 RMK T01800110 IEM_DS3505
ZBTJ,1988-10-24 06:26,ZBTJ 240626Z AUTO 25002KT 1 1/2SM 19/11 A2997 RMK T01900110 IEM_DS3505
ZBTJ,1988-10-24 07:00,ZBTJ 240700Z AUTO 28002KT 2SM 20/11 A2994 RMK T02000110 IEM_DS3505
ZBTJ,1988-10-24 07:50,ZBTJ 240750Z AUTO 28002KT 2SM 20/11 A2994 RMK T02000110 IEM_DS3505
ZBTJ,1988-10-24 08:00,ZBTJ 240800Z AUTO 24004KT 1 1/2SM 18/13 A2997 RMK T01800130 IEM_DS3505
ZBTJ,1988-10-24 09:00,ZBTJ 240900Z AUTO 24004KT 1 1/2SM 18/13 A2997 RMK T01800130 IEM_DS3505
ZBTJ,1988-10-24 10:00,ZBTJ 241000Z AUTO 25004KT 1 1/4SM 15/12 A2997 RMK T01500120 IEM_DS3505
ZBTJ,1988-10-24 11:00,ZBTJ 241100Z AUTO 25004KT 1 1/4SM 15/12 A2997 RMK T01500120 IEM_DS3505
ZBTJ,1988-10-24 12:00,ZBTJ 241200Z AUTO 00000KT 1 1/4SM 12/11 A3003 RMK T01200110 IEM_DS3505
ZBTJ,1988-10-24 22:45,ZBTJ 242245Z AUTO 00000KT 1/8SM 08/08 A3009 RMK T00800080 IEM_DS3505
ZBTJ,1988-10-24 23:00,ZBTJ 242300Z AUTO 00000KT 1/8SM 08/08 A3009 RMK T00800080 IEM_DS3505
ZBTJ,1988-10-24 23:20,ZBTJ 242320Z AUTO 00000KT 1/8SM 08/08 A3009 RMK T00800080 IEM_DS3505
ZBTJ,1988-10-24 23:30,ZBTJ 242330Z AUTO 00000KT 1/8SM 08/08 A3009 RMK T00800080 IEM_DS3505
ZBTJ,1988-10-25 00:00,ZBTJ 250000Z AUTO 00000KT 1/8SM 12/12 A3015 RMK T01200120 IEM_DS3505
ZBTJ,1988-10-25 01:00,ZBTJ 250100Z AUTO 00000KT 1/8SM 12/12 A3015 RMK T01200120 IEM_DS3505
ZBTJ,1988-10-25 01:15,ZBTJ 250115Z AUTO 00000KT 1/8SM 10/10 A3012 RMK T01000100 IEM_DS3505
ZBTJ,1988-10-25 02:00,ZBTJ 250200Z AUTO 00000KT 1/4SM 14/14 A3015 RMK T01400140 IEM_DS3505
ZBTJ,1988-10-25 02:28,ZBTJ 250228Z AUTO 00000KT 1/8SM 12/12 A3015 RMK T01200120 IEM_DS3505
ZBTJ,1988-10-25 03:00,ZBTJ 250300Z AUTO 00000KT 1/4SM 14/14 A3015 RMK T01400140 IEM_DS3505
ZBTJ,1988-10-25 04:00,ZBTJ 250400Z AUTO 12006KT 1SM 19/15 A3015 RMK T01900150 IEM_DS3505
ZBTJ,1988-10-25 04:28,ZBTJ 250428Z AUTO 12006KT 1SM 19/15 A3015 RMK T01900150 IEM_DS3505
ZBTJ,1988-10-25 05:00,ZBTJ 250500Z AUTO 09006KT 1 1/2SM 22/15 A3012 RMK T02200150 IEM_DS3505
ZBTJ,1988-10-25 05:17,ZBTJ 250517Z AUTO 09006KT 1 1/2SM 22/15 A3012 RMK T02200150 IEM_DS3505
ZBTJ,1988-10-25 06:00,ZBTJ 250600Z AUTO 12010KT 3SM 21/14 A3012 RMK T02100140 IEM_DS3505
ZBTJ,1988-10-25 06:24,ZBTJ 250624Z AUTO 12010KT 3SM 21/14 A3012 RMK T02100140 IEM_DS3505
ZBTJ,1988-10-25 07:00,ZBTJ 250700Z AUTO 09010KT 5SM 22/12 A3012 RMK T02200120 IEM_DS3505
ZBTJ,1988-10-25 07:20,ZBTJ 250720Z AUTO 09010KT 5SM 22/12 A3012 RMK T02200120 IEM_DS3505
ZBTJ,1988-10-25 08:00,ZBTJ 250800Z AUTO 10012KT 6SM 20/12 A3012 RMK T02000120 IEM_DS3505
ZBTJ,1988-10-25 09:00,ZBTJ 250900Z AUTO 10012KT 6SM 18/14 A3012 RMK T01800140 IEM_DS3505
ZBTJ,1988-10-25 10:00,ZBTJ 251000Z AUTO 11010KT 6SM 16/13 A3015 RMK T01600130 IEM_DS3505
ZBTJ,1988-10-25 10:16,ZBTJ 251016Z AUTO 11010KT 6SM 16/13 A3015 RMK T01600130 IEM_DS3505
ZBTJ,1988-10-25 10:30,ZBTJ 251030Z AUTO 11010KT 6SM 16/13 A3015 RMK T01600130 IEM_DS3505
ZBTJ,1988-10-25 12:00,ZBTJ 251200Z AUTO 11008KT 6SM 14/02 A3015 RMK T01400020 IEM_DS3505
ZBTJ,1988-10-25 12:24,ZBTJ 251224Z AUTO 11008KT 6SM 14/02 A3015 RMK T01400020 IEM_DS3505
ZBTJ,1988-10-25 13:00,ZBTJ 251300Z AUTO 09008KT 7SM 12/11 A3018 RMK T01200110 IEM_DS3505
ZBTJ,1988-10-25 13:20,ZBTJ 251320Z AUTO 09008KT 7SM 12/11 A3018 RMK T01200110 IEM_DS3505
ZBTJ,1988-10-25 14:16,ZBTJ 251416Z AUTO 09006KT 7SM 11/10 A3021 RMK T01100100 IEM_DS3505
ZBTJ,1988-10-25 14:25,ZBTJ 251425Z AUTO 09006KT 7SM 11/10 A3021 RMK T01100100 IEM_DS3505
ZBTJ,1988-10-25 21:00,ZBTJ 252100Z AUTO 06002KT 3SM 08/08 A3018 RMK T00800080 IEM_DS3505
ZBTJ,1988-10-25 21:20,ZBTJ 252120Z AUTO 33002KT 6SM 09/08 A3018 RMK T00900080 IEM_DS3505
ZBTJ,1988-10-25 21:26,ZBTJ 252126Z AUTO 33002KT 6SM 09/08 A3018 RMK T00900080 IEM_DS3505
ZBTJ,1988-10-25 21:52,ZBTJ 252152Z AUTO 06002KT 3SM 08/08 A3018 RMK T00800080 IEM_DS3505
ZBTJ,1988-10-25 22:30,ZBTJ 252230Z AUTO 06002KT 3SM 08/08 A3018 RMK T00800080 IEM_DS3505
ZBTJ,1988-10-25 23:00,ZBTJ 252300Z AUTO 00000KT 2SM 09/08 A3018 RMK T00900080 IEM_DS3505
ZBTJ,1988-10-25 23:14,ZBTJ 252314Z AUTO 00000KT 2SM 09/08 A3018 RMK T00900080 IEM_DS3505
ZBTJ,1988-10-26 00:00,ZBTJ 260000Z AUTO 00000KT 2SM 09/09 A3018 RMK T00900090 IEM_DS3505
ZBTJ,1988-10-26 01:00,ZBTJ 260100Z AUTO 00000KT 1 1/2SM A3018 RMK IEM_DS3505
ZBTJ,1988-10-26 01:25,ZBTJ 260125Z AUTO 00000KT 2SM 09/09 A3018 RMK T00900090 IEM_DS3505
ZBTJ,1988-10-26 02:00,ZBTJ 260200Z AUTO 00000KT 2 1/2SM A3018 RMK IEM_DS3505
ZBTJ,1988-10-26 03:00,ZBTJ 260300Z AUTO 00000KT 1 1/2SM 17/14 A3018 RMK T01700140 IEM_DS3505
ZBTJ,1988-10-26 04:00,ZBTJ 260400Z AUTO 00000KT 3SM 18/13 A3015 RMK T01800130 IEM_DS3505
ZBTJ,1988-10-26 05:00,ZBTJ 260500Z AUTO 20004KT 4SM 21/12 A3012 RMK T02100120 IEM_DS3505
ZBTJ,1988-10-26 05:27,ZBTJ 260527Z AUTO 20004KT 4SM 21/12 A3012 RMK T02100120 IEM_DS3505
ZBTJ,1988-10-26 05:30,ZBTJ 260530Z AUTO 20004KT 4SM 21/12 A3012 RMK T02100120 IEM_DS3505
ZBTJ,1988-10-26 05:51,ZBTJ 260551Z AUTO 00000KT 1 1/2SM 17/14 A3018 RMK T01700140 IEM_DS3505
ZBTJ,1988-10-26 06:00,ZBTJ 260600Z AUTO 20004KT 2 1/2SM 20/13 A3012 RMK T02000130 IEM_DS3505
ZBTJ,1988-10-26 06:24,ZBTJ 260624Z AUTO 20004KT 2 1/2SM 20/13 A3012 RMK T02000130 IEM_DS3505
ZBTJ,1988-10-26 07:00,ZBTJ 260700Z AUTO 00000KT 1 1/2SM 20/13 A3009 RMK T02000130 IEM_DS3505
ZBTJ,1988-10-26 07:25,ZBTJ 260725Z AUTO 00000KT 1 1/2SM 20/13 A3009 RMK T02000130 IEM_DS3505
ZBTJ,1988-10-26 07:27,ZBTJ 260727Z AUTO 00000KT 1 1/2SM 20/13 A3009 RMK T02000130 IEM_DS3505
ZBTJ,1988-10-26 08:00,ZBTJ 260800Z AUTO 31002KT 1SM 18/13 A3012 RMK T01800130 IEM_DS3505
ZBTJ,1988-10-26 08:48,ZBTJ 260848Z AUTO 00000KT 2SM A3018 RMK IEM_DS3505
ZBTJ,1988-10-26 09:00,ZBTJ 260900Z AUTO 31002KT 1SM 18/13 A3012 RMK T01800130 IEM_DS3505
ZBTJ,1988-10-26 09:27,ZBTJ 260927Z AUTO 31002KT 1SM 18/13 A3012 RMK T01800130 IEM_DS3505
ZBTJ,1988-10-26 10:00,ZBTJ 261000Z AUTO 32006KT 2 1/2SM 16/14 A3015 RMK T01600140 IEM_DS3505
ZBTJ,1988-10-26 10:30,ZBTJ 261030Z AUTO 00000KT 1SM 17/14 A3012 RMK T01700140 IEM_DS3505
ZBTJ,1988-10-26 11:00,ZBTJ 261100Z AUTO 32006KT 2 1/2SM 16/14 A3015 RMK T01600140 IEM_DS3505
ZBTJ,1988-10-26 12:25,ZBTJ 261225Z AUTO 29004KT 3SM 16/13 A3015 RMK T01600130 IEM_DS3505
ZBTJ,1988-10-26 12:31,ZBTJ 261231Z AUTO 29004KT 3SM 16/13 A3015 RMK T01600130 IEM_DS3505
ZBTJ,1988-10-26 12:34,ZBTJ 261234Z AUTO 29004KT 3SM 16/13 A3015 RMK T01600130 IEM_DS3505
ZBTJ,1988-10-26 13:25,ZBTJ 261325Z AUTO 31008KT 4SM 15/13 A3018 RMK T01500130 IEM_DS3505
ZBTJ,1988-10-26 14:00,ZBTJ 261400Z AUTO 32008KT 6SM 15/12 A3021 RMK T01500120 IEM_DS3505
ZBTJ,1988-10-26 14:28,ZBTJ 261428Z AUTO 32008KT 6SM 15/12 A3021 RMK T01500120 IEM_DS3505
ZBTJ,1988-10-26 16:00,ZBTJ 261600Z AUTO 33012KT 6SM 15/09 A3024 RMK T01500090 IEM_DS3505
ZBTJ,1988-10-26 16:30,ZBTJ 261630Z AUTO 33012KT 6SM 15/09 A3024 RMK T01500090 IEM_DS3505
ZBTJ,1988-10-26 21:00,ZBTJ 262100Z AUTO 33017KT 6SM A3024 RMK IEM_DS3505
ZBTJ,1988-10-26 21:23,ZBTJ 262123Z AUTO 33017KT 6SM A3024 RMK IEM_DS3505
ZBTJ,1988-10-26 21:27,ZBTJ 262127Z AUTO 33017KT 6SM A3024 RMK IEM_DS3505
ZBTJ,1988-10-26 22:00,ZBTJ 262200Z AUTO 35012KT 6SM 09/01 A3042 RMK T00900010 IEM_DS3505
ZBTJ,1988-10-26 22:23,ZBTJ 262223Z AUTO 35012KT 6SM 09/01 A3042 RMK T00900010 IEM_DS3505
ZBTJ,1988-10-26 22:30,ZBTJ 262230Z AUTO 34010KT 6SM 09/01 A3045 RMK T00900010 IEM_DS3505
ZBTJ,1988-10-26 23:00,ZBTJ 262300Z AUTO 35012KT 6SM 09/01 A3042 RMK T00900010 IEM_DS3505
ZBTJ,1988-10-27 00:00,ZBTJ 270000Z AUTO 35008KT 7SM 10/01 A3047 RMK T01000010 IEM_DS3505
ZBTJ,1988-10-27 00:13,ZBTJ 270013Z AUTO 35008KT 7SM 10/01 A3047 RMK T01000010 IEM_DS3505
ZBTJ,1988-10-27 01:00,ZBTJ 270100Z AUTO 34010KT 7SM 12/01 A3050 RMK T01200010 IEM_DS3505
ZBTJ,1988-10-27 01:20,ZBTJ 270120Z AUTO 34010KT 7SM 12/01 A3050 RMK T01200010 IEM_DS3505
ZBTJ,1988-10-27 02:00,ZBTJ 270200Z AUTO 34012KT 7SM 14/02 A3050 RMK T01400020 IEM_DS3505
ZBTJ,1988-10-27 02:49,ZBTJ 270249Z AUTO 34012KT 7SM 14/02 A3050 RMK T01400020 IEM_DS3505
ZBTJ,1988-10-27 03:00,ZBTJ 270300Z AUTO 34012KT 7SM 14/M01 A3050 RMK T01401010 IEM_DS3505
ZBTJ,1988-10-27 03:28,ZBTJ 270328Z AUTO 34012KT 7SM 14/M01 A3050 RMK T01401010 IEM_DS3505
ZBTJ,1988-10-27 04:00,ZBTJ 270400Z AUTO 34012KT 7SM 16/00 A3047 RMK T01600000 IEM_DS3505
ZBTJ,1988-10-27 05:00,ZBTJ 270500Z AUTO 34012KT 7SM 16/00 A3047 RMK T01600000 IEM_DS3505
ZBTJ,1988-10-27 05:27,ZBTJ 270527Z AUTO 33010KT 7SM 16/00 A3045 RMK T01600000 IEM_DS3505
ZBTJ,1988-10-27 06:12,ZBTJ 270612Z AUTO 34010KT 7SM 16/M01 A3045 RMK T01601010 IEM_DS3505
ZBTJ,1988-10-27 06:27,ZBTJ 270627Z AUTO 34010KT 7SM 16/M01 A3045 RMK T01601010 IEM_DS3505
ZBTJ,1988-10-27 06:43,ZBTJ 270643Z AUTO 34010KT 7SM 16/M01 A3045 RMK T01601010 IEM_DS3505
ZBTJ,1988-10-27 07:00,ZBTJ 270700Z AUTO 34010KT 7SM 16/M01 A3045 RMK T01601010 IEM_DS3505
ZBTJ,1988-10-27 07:27,ZBTJ 270727Z AUTO 32010KT 7SM 17/M03 A3045 RMK T01701030 IEM_DS3505
ZBTJ,1988-10-27 08:00,ZBTJ 270800Z AUTO 32008KT 7SM 15/M03 A3045 RMK T01501030 IEM_DS3505
ZBTJ,1988-10-27 09:00,ZBTJ 270900Z AUTO 33008KT 7SM 13/M01 A3045 RMK T01301010 IEM_DS3505
ZBTJ,1988-10-27 09:27,ZBTJ 270927Z AUTO 33008KT 7SM 13/M01 A3045 RMK T01301010 IEM_DS3505
ZBTJ,1988-10-27 10:00,ZBTJ 271000Z AUTO 08006KT 7SM 07/02 A3045 RMK T00700020 IEM_DS3505
ZBTJ,1988-10-27 10:26,ZBTJ 271026Z AUTO 03006KT 7SM 09/01 A3045 RMK T00900010 IEM_DS3505
ZBTJ,1988-10-27 10:30,ZBTJ 271030Z AUTO 03006KT 7SM 09/01 A3045 RMK T00900010 IEM_DS3505
ZBTJ,1988-10-27 11:16,ZBTJ 271116Z AUTO 08006KT 7SM 07/02 A3045 RMK T00700020 IEM_DS3505
ZBTJ,1988-10-27 11:22,ZBTJ 271122Z AUTO 08006KT 7SM 07/02 A3045 RMK T00700020 IEM_DS3505
ZBTJ,1988-10-27 13:00,ZBTJ 271300Z AUTO 00000KT 7SM 05/ A3050 RMK IEM_DS3505
ZBTJ,1988-10-27 13:05,ZBTJ 271305Z AUTO 00000KT 7SM 05/ A3050 RMK IEM_DS3505
ZBTJ,1988-10-27 22:24,ZBTJ 272224Z AUTO 33004KT 7SM 02/01 A3056 RMK T00200010 IEM_DS3505
ZBTJ,1988-10-27 23:00,ZBTJ 272300Z AUTO 32002KT 7SM 02/01 A3056 RMK T00200010 IEM_DS3505
ZBTJ,1988-10-28 00:00,ZBTJ 280000Z AUTO 00000KT 7SM 04/02 A3059 RMK T00400020 IEM_DS3505
ZBTJ,1988-10-28 01:00,ZBTJ 280100Z AUTO 32008KT 7SM A3053 RMK IEM_DS3505
ZBTJ,1988-10-28 01:24,ZBTJ 280124Z AUTO 00000KT 7SM 09/01 A3059 RMK T00900010 IEM_DS3505
ZBTJ,1988-10-28 01:28,ZBTJ 280128Z AUTO 00000KT 7SM 09/01 A3059 RMK T00900010 IEM_DS3505
ZBTJ,1988-10-28 02:30,ZBTJ 280230Z AUTO 32004KT 7SM 13/M03 A3056 RMK T01301030 IEM_DS3505
ZBTJ,1988-10-28 03:00,ZBTJ 280300Z AUTO 31008KT 7SM 14/M04 A3056 RMK T01401040 IEM_DS3505
ZBTJ,1988-10-28 04:00,ZBTJ 280400Z AUTO 32008KT 7SM 15/M03 A3053 RMK T01501030 IEM_DS3505
ZBTJ,1988-10-28 04:50,ZBTJ 280450Z AUTO 32008KT 7SM 15/M03 A3053 RMK T01501030 IEM_DS3505
ZBTJ,1988-10-28 05:00,ZBTJ 280500Z AUTO 35012KT 7SM 16/M04 A3047 RMK T01601040 IEM_DS3505
ZBTJ,1988-10-28 06:00,ZBTJ 280600Z AUTO 34014KT 7SM 16/M03 A3047 RMK T01601030 IEM_DS3505
ZBTJ,1988-10-28 06:20,ZBTJ 280620Z AUTO 34014KT 7SM 16/M03 A3047 RMK T01601030 IEM_DS3505
ZBTJ,1988-10-28 07:00,ZBTJ 280700Z AUTO 35012KT 7SM 16/M03 A3045 RMK T01601030 IEM_DS3505
ZBTJ,1988-10-28 07:24,ZBTJ 280724Z AUTO 35012KT 7SM 16/M03 A3045 RMK T01601030 IEM_DS3505
ZBTJ,1988-10-28 07:27,ZBTJ 280727Z AUTO 35012KT 7SM 16/M03 A3045 RMK T01601030 IEM_DS3505
ZBTJ,1988-10-28 08:00,ZBTJ 280800Z AUTO 35012KT 7SM 16/M03 A3045 RMK T01601030 IEM_DS3505
ZBTJ,1988-10-28 08:26,ZBTJ 280826Z AUTO 34012KT 7SM 16/M03 A3042 RMK T01601030 IEM_DS3505
ZBTJ,1988-10-28 09:00,ZBTJ 280900Z AUTO 33008KT 7SM 14/00 A3042 RMK T01400000 IEM_DS3505
ZBTJ,1988-10-28 09:24,ZBTJ 280924Z AUTO 33008KT 7SM 14/00 A3042 RMK T01400000 IEM_DS3505
ZBTJ,1988-10-28 09:30,ZBTJ 280930Z AUTO 33008KT 7SM 14/00 A3042 RMK T01400000 IEM_DS3505
ZBTJ,1988-10-28 09:39,ZBTJ 280939Z AUTO 33008KT 7SM 14/00 A3042 RMK T01400000 IEM_DS3505
ZBTJ,1988-10-28 22:00,ZBTJ 282200Z AUTO 16002KT 4SM 02/02 A3042 RMK T00200020 IEM_DS3505
ZBTJ,1988-10-28 23:00,ZBTJ 282300Z AUTO 00000KT 1 1/4SM 02/01 A3042 RMK T00200010 IEM_DS3505
ZBTJ,1988-10-28 23:17,ZBTJ 282317Z AUTO 00000KT 1 1/4SM 02/01 A3042 RMK T00200010 IEM_DS3505
ZBTJ,1988-10-28 23:29,ZBTJ 282329Z AUTO 00000KT 1 1/4SM 02/01 A3042 RMK T00200010 IEM_DS3505
ZBTJ,1988-10-29 00:00,ZBTJ 290000Z AUTO 1SM 06/04 A3045 RMK T00600040 IEM_DS3505
ZBTJ,1988-10-29 01:00,ZBTJ 290100Z AUTO 1 1/2SM 10/04 A3045 RMK T01000040 IEM_DS3505
ZBTJ,1988-10-29 02:00,ZBTJ 290200Z AUTO 23004KT 5SM 13/01 A3045 RMK T01300010 IEM_DS3505
ZBTJ,1988-10-29 02:30,ZBTJ 290230Z AUTO 23004KT 5SM 13/01 A3045 RMK T01300010 IEM_DS3505
ZBTJ,1988-10-29 03:00,ZBTJ 290300Z AUTO 19004KT 6SM 15/M01 A3042 RMK T01501010 IEM_DS3505
ZBTJ,1988-10-29 03:29,ZBTJ 290329Z AUTO 19004KT 6SM 15/M01 A3042 RMK T01501010 IEM_DS3505
ZBTJ,1988-10-29 04:00,ZBTJ 290400Z AUTO 20006KT 6SM 16/00 A3039 RMK T01600000 IEM_DS3505
ZBTJ,1988-10-29 04:30,ZBTJ 290430Z AUTO 20006KT 6SM 16/00 A3039 RMK T01600000 IEM_DS3505
ZBTJ,1988-10-29 05:00,ZBTJ 290500Z AUTO 21004KT 6SM 17/00 A3036 RMK T01700000 IEM_DS3505
ZBTJ,1988-10-29 05:36,ZBTJ 290536Z AUTO 21004KT 6SM 17/00 A3036 RMK T01700000 IEM_DS3505
ZBTJ,1988-10-29 06:00,ZBTJ 290600Z AUTO 15008KT 6SM 16/00 A3033 RMK T01600000 IEM_DS3505
ZBTJ,1988-10-29 06:30,ZBTJ 290630Z AUTO 15008KT 6SM 16/00 A3033 RMK T01600000 IEM_DS3505
ZBTJ,1988-10-29 07:00,ZBTJ 290700Z AUTO 16008KT 7SM 15/00 A3030 RMK T01500000 IEM_DS3505
ZBTJ,1988-10-29 07:20,ZBTJ 290720Z AUTO 19010KT 7SM 16/00 A3033 RMK T01600000 IEM_DS3505
ZBTJ,1988-10-29 07:29,ZBTJ 290729Z AUTO 19010KT 7SM 16/00 A3033 RMK T01600000 IEM_DS3505
ZBTJ,1988-10-29 08:00,ZBTJ 290800Z AUTO 16008KT 7SM 15/00 A3030 RMK T01500000 IEM_DS3505
ZBTJ,1988-10-29 09:00,ZBTJ 290900Z AUTO 16008KT 7SM 12/04 A3030 RMK T01200040 IEM_DS3505
ZBTJ,1988-10-29 09:30,ZBTJ 290930Z AUTO 21004KT 6SM 17/00 A3036 RMK T01700000 IEM_DS3505
ZBTJ,1988-10-29 10:00,ZBTJ 291000Z AUTO 16008KT 7SM 15/00 A3030 RMK T01500000 IEM_DS3505
ZBTJ,1988-10-29 11:00,ZBTJ 291100Z AUTO 16006KT 7SM 09/05 A3030 RMK T00900050 IEM_DS3505
ZBTJ,1988-10-29 21:00,ZBTJ 292100Z AUTO 18002KT 7SM 05/03 A3018 RMK T00500030 IEM_DS3505
ZBTJ,1988-10-29 21:20,ZBTJ 292120Z AUTO 18002KT 7SM 05/03 A3018 RMK T00500030 IEM_DS3505
ZBTJ,1988-10-29 21:30,ZBTJ 292130Z AUTO 18002KT 7SM 05/03 A3018 RMK T00500030 IEM_DS3505
ZBTJ,1988-10-29 22:00,ZBTJ 292200Z AUTO 20004KT 7SM 04/03 RMK T00400030 IEM_DS3505
ZBTJ,1988-10-29 23:00,ZBTJ 292300Z AUTO 21002KT 7SM 04/02 RMK T00400020 IEM_DS3505
ZBTJ,1988-10-30 00:24,ZBTJ 300024Z AUTO 19006KT 7SM 06/03 A3018 RMK T00600030 IEM_DS3505
ZBTJ,1988-10-30 00:27,ZBTJ 300027Z AUTO 19006KT 7SM 06/03 A3018 RMK T00600030 IEM_DS3505
ZBTJ,1988-10-30 01:00,ZBTJ 300100Z AUTO 22006KT 7SM 12/02 A3018 RMK T01200020 IEM_DS3505
ZBTJ,1988-10-30 01:22,ZBTJ 300122Z AUTO 22006KT 7SM 10/03 A3018 RMK T01000030 IEM_DS3505
ZBTJ,1988-10-30 01:27,ZBTJ 300127Z AUTO 22006KT 7SM 10/03 A3018 RMK T01000030 IEM_DS3505
ZBTJ,1988-10-30 02:00,ZBTJ 300200Z AUTO 22006KT 7SM 12/02 A3018 RMK T01200020 IEM_DS3505
ZBTJ,1988-10-30 03:00,ZBTJ 300300Z AUTO 23006KT 7SM 14/03 A3015 RMK T01400030 IEM_DS3505
ZBTJ,1988-10-30 03:15,ZBTJ 300315Z AUTO 23006KT 7SM 14/03 A3015 RMK T01400030 IEM_DS3505
ZBTJ,1988-10-30 03:30,ZBTJ 300330Z AUTO 23006KT 7SM 14/03 A3015 RMK T01400030 IEM_DS3505
ZBTJ,1988-10-30 04:00,ZBTJ 300400Z AUTO 23004KT 5SM 17/04 A3006 RMK T01700040 IEM_DS3505
ZBTJ,1988-10-30 04:33,ZBTJ 300433Z AUTO 21006KT 7SM 15/03 A3012 RMK T01500030 IEM_DS3505
ZBTJ,1988-10-30 05:00,ZBTJ 300500Z AUTO 21006KT 7SM 16/03 A3009 RMK T01600030 IEM_DS3505
ZBTJ,1988-10-30 05:26,ZBTJ 300526Z AUTO 21006KT 7SM 16/03 A3009 RMK T01600030 IEM_DS3505
ZBTJ,1988-10-30 05:29,ZBTJ 300529Z AUTO 21006KT 7SM 16/03 A3009 RMK T01600030 IEM_DS3505
ZBTJ,1988-10-30 06:00,ZBTJ 300600Z AUTO 21006KT 7SM 16/03 A3009 RMK T01600030 IEM_DS3505
ZBTJ,1988-10-30 06:20,ZBTJ 300620Z AUTO 19004KT 4SM 16/03 A3006 RMK T01600030 IEM_DS3505
ZBTJ,1988-10-30 07:00,ZBTJ 300700Z AUTO 23004KT 5SM 17/04 A3006 RMK T01700040 IEM_DS3505
ZBTJ,1988-10-30 08:00,ZBTJ 300800Z AUTO 21002KT 5SM 16/05 A3003 RMK T01600050 IEM_DS3505
ZBTJ,1988-10-30 10:00,ZBTJ 301000Z AUTO 00000KT 4SM 11/07 RMK T01100070 IEM_DS3505
ZBTJ,1988-10-30 10:24,ZBTJ 301024Z AUTO 00000KT 4SM 11/07 RMK T01100070 IEM_DS3505
ZBTJ,1988-10-30 11:00,ZBTJ 301100Z AUTO 07002KT 4SM 09/07 A3006 RMK T00900070 IEM_DS3505
ZBTJ,1988-10-30 11:16,ZBTJ 301116Z AUTO 07002KT 4SM 09/07 A3006 RMK T00900070 IEM_DS3505
ZBTJ,1988-10-30 12:00,ZBTJ 301200Z AUTO 12004KT 4SM 09/07 A3009 RMK T00900070 IEM_DS3505
ZBTJ,1988-10-30 12:23,ZBTJ 301223Z AUTO 12004KT 4SM 09/07 A3009 RMK T00900070 IEM_DS3505
ZBTJ,1988-10-30 22:00,ZBTJ 302200Z AUTO 21004KT 4SM 07/04 A3003 RMK T00700040 IEM_DS3505
ZBTJ,1988-10-30 22:25,ZBTJ 302225Z AUTO 21004KT 4SM 07/04 A3003 RMK T00700040 IEM_DS3505
ZBTJ,1988-10-30 23:00,ZBTJ 302300Z AUTO 22004KT 5SM 09/03 A3006 RMK T00900030 IEM_DS3505
ZBTJ,1988-10-30 23:25,ZBTJ 302325Z AUTO 20006KT 5SM 07/03 A3003 RMK T00700030 IEM_DS3505
ZBTJ,1988-10-31 00:00,ZBTJ 310000Z AUTO 22004KT 5SM 09/03 A3006 RMK T00900030 IEM_DS3505
ZBTJ,1988-10-31 00:03,ZBTJ 310003Z AUTO 21004KT 4SM 07/04 A3003 RMK T00700040 IEM_DS3505
ZBTJ,1988-10-31 00:22,ZBTJ 310022Z AUTO 22004KT 5SM 09/03 A3006 RMK T00900030 IEM_DS3505
ZBTJ,1988-10-31 01:00,ZBTJ 310100Z AUTO 22004KT 5SM 09/03 A3006 RMK T00900030 IEM_DS3505
ZBTJ,1988-10-31 02:20,ZBTJ 310220Z AUTO 23012KT 6SM 12/04 A3009 RMK T01200040 IEM_DS3505
ZBTJ,1988-10-31 02:24,ZBTJ 310224Z AUTO 23012KT 6SM 12/04 A3009 RMK T01200040 IEM_DS3505
ZBTJ,1988-10-31 03:00,ZBTJ 310300Z AUTO 26008KT 4SM 14/05 A3009 RMK T01400050 IEM_DS3505
ZBTJ,1988-10-31 03:15,ZBTJ 310315Z AUTO 23012KT 6SM 12/04 A3009 RMK T01200040 IEM_DS3505
ZBTJ,1988-10-31 03:20,ZBTJ 310320Z AUTO 26008KT 4SM 14/05 A3009 RMK T01400050 IEM_DS3505
ZBTJ,1988-10-31 03:22,ZBTJ 310322Z AUTO 26008KT 4SM 14/05 A3009 RMK T01400050 IEM_DS3505
ZBTJ,1988-10-31 04:00,ZBTJ 310400Z AUTO 26008KT 4SM 14/05 A3009 RMK T01400050 IEM_DS3505
ZBTJ,1988-10-31 05:00,ZBTJ 310500Z AUTO 25006KT 4SM 17/07 A3006 RMK T01700070 IEM_DS3505
ZBTJ,1988-10-31 07:00,ZBTJ 310700Z AUTO 28004KT 4SM 19/07 A3006 RMK T01900070 IEM_DS3505
ZBTJ,1988-10-31 07:26,ZBTJ 310726Z AUTO 28004KT 4SM 19/07 A3006 RMK T01900070 IEM_DS3505
ZBTJ,1988-10-31 07:27,ZBTJ 310727Z AUTO 28004KT 4SM 19/07 A3006 RMK T01900070 IEM_DS3505
ZBTJ,1988-10-31 08:00,ZBTJ 310800Z AUTO 30004KT 4SM 19/07 A3006 RMK T01900070 IEM_DS3505
ZBTJ,1988-10-31 08:33,ZBTJ 310833Z AUTO 30004KT 4SM 19/07 A3006 RMK T01900070 IEM_DS3505
ZBTJ,1988-10-31 09:00,ZBTJ 310900Z AUTO 00000KT 4SM 16/09 A3009 RMK T01600090 IEM_DS3505
ZBTJ,1988-10-31 09:35,ZBTJ 310935Z AUTO 00000KT 4SM 16/09 A3009 RMK T01600090 IEM_DS3505
ZBTJ,1988-10-31 10:00,ZBTJ 311000Z AUTO 00000KT 1 1/4SM A3009 RMK IEM_DS3505
ZBTJ,1988-10-31 10:20,ZBTJ 311020Z AUTO 00000KT 1 1/2SM 13/09 A3009 RMK T01300090 IEM_DS3505
ZBTJ,1988-10-31 10:22,ZBTJ 311022Z AUTO 00000KT 1 1/2SM 13/09 A3009 RMK T01300090 IEM_DS3505
ZBTJ,1988-10-31 11:00,ZBTJ 311100Z AUTO 28004KT 5SM 12/07 A3015 RMK T01200070 IEM_DS3505
ZBTJ,1988-10-31 12:25,ZBTJ 311225Z AUTO 29006KT 5SM 11/07 A3015 RMK T01100070 IEM_DS3505
ZBTJ,1988-10-31 13:00,ZBTJ 311300Z AUTO 30010KT 6SM 13/04 A3018 RMK T01300040 IEM_DS3505
ZBTJ,1988-10-31 13:20,ZBTJ 311320Z AUTO 30010KT 6SM 13/04 A3018 RMK T01300040 IEM_DS3505
ZBTJ,1988-10-31 22:00,ZBTJ 312200Z AUTO 35014KT 6SM 08/M12 A3033 RMK T00801120 IEM_DS3505
ZBTJ,1988-10-31 22:25,ZBTJ 312225Z AUTO 35014KT 6SM 08/M12 A3033 RMK T00801120 IEM_DS3505
ZBTJ,1988-10-31 23:20,ZBTJ 312320Z AUTO 34014KT 6SM 07/M11 A3036 RMK T00701110 IEM_DS3505
ZBTJ,1988-10-31 23:23,ZBTJ 312323Z AUTO 34014KT 6SM 07/M11 A3036 RMK T00701110 IEM_DS3505
ZBTJ,1988-10-31 23:25,ZBTJ 312325Z AUTO 34014KT 6SM 07/M11 A3036 RMK T00701110 IEM_DS3505
ZBTJ,1988-11-01 00:00,ZBTJ 010000Z AUTO 30014KT 7SM 14/M13 A3033 RMK T01401130 IEM_DS3505
ZBTJ,1988-11-01 00:20,ZBTJ 010020Z AUTO 34016KT 6SM 08/M12 A3039 RMK T00801120 IEM_DS3505
ZBTJ,1988-11-01 00:33,ZBTJ 010033Z AUTO 34016KT 6SM 08/M12 A3039 RMK T00801120 IEM_DS3505
ZBTJ,1988-11-01 01:00,ZBTJ 010100Z AUTO 34016KT 6SM A3042 RMK IEM_DS3505
ZBTJ,1988-11-01 01:26,ZBTJ 010126Z AUTO 34016KT 6SM 00/ A3042 RMK IEM_DS3505
ZBTJ,1988-11-01 02:00,ZBTJ 010200Z AUTO 33017KT 6SM 10/M11 RMK T01001110 IEM_DS3505
ZBTJ,1988-11-01 04:30,ZBTJ 010430Z AUTO 32019KT 6SM 12/M12 A3039 RMK T01201120 IEM_DS3505
ZBTJ,1988-11-01 05:30,ZBTJ 010530Z AUTO 32019KT 7SM 13/M15 A3036 RMK T01301150 IEM_DS3505
ZBTJ,1988-11-01 06:00,ZBTJ 010600Z AUTO 33016KT 7SM 14/M14 A3033 RMK T01401140 IEM_DS3505
ZBTJ,1988-11-01 06:26,ZBTJ 010626Z AUTO 33016KT 7SM 14/M14 A3033 RMK T01401140 IEM_DS3505
ZBTJ,1988-11-01 06:28,ZBTJ 010628Z AUTO 33016KT 7SM 14/M14 A3033 RMK T01401140 IEM_DS3505
ZBTJ,1988-11-01 07:00,ZBTJ 010700Z AUTO 30014KT 7SM 14/M13 A3033 RMK T01401130 IEM_DS3505
ZBTJ,1988-11-01 09:00,ZBTJ 010900Z AUTO 33008KT 7SM 12/M12 A3033 RMK T01201120 IEM_DS3505
ZBTJ,1988-11-01 10:00,ZBTJ 011000Z AUTO 29006KT 7SM 09/M07 A3033 RMK T00901070 IEM_DS3505
ZBTJ,1988-11-01 10:12,ZBTJ 011012Z AUTO 29006KT 7SM 09/M07 A3033 RMK T00901070 IEM_DS3505
ZBTJ,1988-11-01 11:00,ZBTJ 011100Z AUTO 27010KT 7SM 10/M08 A3036 RMK T01001080 IEM_DS3505
ZBTJ,1988-11-01 12:00,ZBTJ 011200Z AUTO 26008KT 7SM 09/M07 A3036 RMK T00901070 IEM_DS3505
ZBTJ,1988-11-01 12:18,ZBTJ 011218Z AUTO 26008KT 7SM 09/M07 A3036 RMK T00901070 IEM_DS3505
ZBTJ,1988-11-01 13:00,ZBTJ 011300Z AUTO 26008KT 7SM 09/M07 A3036 RMK T00901070 IEM_DS3505
ZBTJ,1988-11-01 13:28,ZBTJ 011328Z AUTO 26008KT 7SM 09/M07 A3036 RMK T00901070 IEM_DS3505
ZBTJ,1988-11-01 13:30,ZBTJ 011330Z AUTO 33019KT 6SM 10/M14 A3042 RMK T01001140 IEM_DS3505
ZBTJ,1988-11-01 14:00,ZBTJ 011400Z AUTO 29006KT 7SM 07/M04 A3039 RMK T00701040 IEM_DS3505
ZBTJ,1988-11-01 14:25,ZBTJ 011425Z AUTO 29006KT 7SM 07/M04 A3039 RMK T00701040 IEM_DS3505
ZBTJ,1988-11-01 23:00,ZBTJ 012300Z AUTO 30010KT 7SM 05/M08 A3036 RMK T00501080 IEM_DS3505
ZBTJ,1988-11-02 00:00,ZBTJ 020000Z AUTO 32006KT 7SM 07/M07 A2980 RMK T00701070 IEM_DS3505
ZBTJ,1988-11-02 00:27,ZBTJ 020027Z AUTO 32006KT 7SM 07/M07 A2980 RMK T00701070 IEM_DS3505
ZBTJ,1988-11-02 01:00,ZBTJ 020100Z AUTO 33008KT 7SM 11/M07 A3039 RMK T01101070 IEM_DS3505
ZBTJ,1988-11-02 01:35,ZBTJ 020135Z AUTO 33008KT 7SM 11/M07 A3039 RMK T01101070 IEM_DS3505
ZBTJ,1988-11-02 02:00,ZBTJ 020200Z AUTO 32012KT 7SM 13/M07 A3036 RMK T01301070 IEM_DS3505
ZBTJ,1988-11-02 02:23,ZBTJ 020223Z AUTO 32012KT 7SM 13/M07 A3036 RMK T01301070 IEM_DS3505
ZBTJ,1988-11-02 03:00,ZBTJ 020300Z AUTO 29008KT 7SM 15/M08 A3036 RMK T01501080 IEM_DS3505
ZBTJ,1988-11-02 03:30,ZBTJ 020330Z AUTO 29014KT 7SM 17/M05 A3027 RMK T01701050 IEM_DS3505
ZBTJ,1988-11-02 04:00,ZBTJ 020400Z AUTO 28014KT 7SM 16/M10 A3033 RMK T01601100 IEM_DS3505
ZBTJ,1988-11-02 04:39,ZBTJ 020439Z AUTO 28014KT 7SM 16/M10 A3033 RMK T01601100 IEM_DS3505
ZBTJ,1988-11-02 05:00,ZBTJ 020500Z AUTO 27014KT 7SM 16/M09 A3030 RMK T01601090 IEM_DS3505
ZBTJ,1988-11-02 05:20,ZBTJ 020520Z AUTO 27014KT 7SM 16/M09 A3030 RMK T01601090 IEM_DS3505
ZBTJ,1988-11-02 05:27,ZBTJ 020527Z AUTO 27014KT 7SM 16/M09 A3030 RMK T01601090 IEM_DS3505
ZBTJ,1988-11-02 06:00,ZBTJ 020600Z AUTO 24004KT 7SM 12/00 A3024 RMK T01200000 IEM_DS3505
ZBTJ,1988-11-02 07:00,ZBTJ 020700Z AUTO 29014KT 7SM 17/M05 A3027 RMK T01701050 IEM_DS3505
ZBTJ,1988-11-02 09:00,ZBTJ 020900Z AUTO 26006KT 7SM 15/M03 A3024 RMK T01501030 IEM_DS3505
ZBTJ,1988-11-02 09:23,ZBTJ 020923Z AUTO 26006KT 7SM 15/M03 A3024 RMK T01501030 IEM_DS3505
ZBTJ,1988-11-02 09:57,ZBTJ 020957Z AUTO 26006KT 7SM 15/M03 A3024 RMK T01501030 IEM_DS3505
ZBTJ,1988-11-02 10:00,ZBTJ 021000Z AUTO 24004KT 7SM 12/00 A3024 RMK T01200000 IEM_DS3505
ZBTJ,1988-11-02 10:23,ZBTJ 021023Z AUTO 24004KT 7SM 12/00 A3024 RMK T01200000 IEM_DS3505
ZBTJ,1988-11-02 11:00,ZBTJ 021100Z AUTO 24004KT 7SM 11/01 RMK T01100010 IEM_DS3505
ZBTJ,1988-11-02 11:26,ZBTJ 021126Z AUTO 24004KT 7SM 11/01 RMK T01100010 IEM_DS3505
ZBTJ,1988-11-02 11:30,ZBTJ 021130Z AUTO 24004KT 7SM 11/01 RMK T01100010 IEM_DS3505
ZBTJ,1988-11-02 12:00,ZBTJ 021200Z AUTO 24004KT 7SM 10/01 A3024 RMK T01000010 IEM_DS3505
ZBTJ,1988-11-02 12:20,ZBTJ 021220Z AUTO 24004KT 7SM 10/01 A3024 RMK T01000010 IEM_DS3505
ZBTJ,1988-11-02 13:00,ZBTJ 021300Z AUTO 26006KT 7SM 10/M02 A3027 RMK T01001020 IEM_DS3505
ZBTJ,1988-11-02 14:00,ZBTJ 021400Z AUTO 26006KT 7SM 10/M02 A3027 RMK T01001020 IEM_DS3505
ZBTJ,1988-11-02 21:00,ZBTJ 022100Z AUTO 32004KT 7SM 04/00 A3027 RMK T00400000 IEM_DS3505
ZBTJ,1988-11-02 21:30,ZBTJ 022130Z AUTO 32004KT 7SM 04/00 A3027 RMK T00400000 IEM_DS3505
ZBTJ,1988-11-02 21:45,ZBTJ 022145Z AUTO 32004KT 7SM 03/00 A3027 RMK T00300000 IEM_DS3505
ZBTJ,1988-11-02 22:00,ZBTJ 022200Z AUTO 32004KT 7SM 03/00 A3027 RMK T00300000 IEM_DS3505
ZBTJ,1988-11-03 02:00,ZBTJ 030200Z AUTO 09004KT 7SM 16/02 A3030 RMK T01600020 IEM_DS3505
ZBTJ,1988-11-03 05:00,ZBTJ 030500Z AUTO 29008KT 7SM 18/M02 A3021 RMK T01801020 IEM_DS3505
ZBTJ,1988-11-03 05:20,ZBTJ 030520Z AUTO 29008KT 7SM 18/M02 A3021 RMK T01801020 IEM_DS3505
ZBTJ,1988-11-03 05:29,ZBTJ 030529Z AUTO 29008KT 7SM 18/M02 A3021 RMK T01801020 IEM_DS3505
ZBTJ,1988-11-03 07:00,ZBTJ 030700Z AUTO 31006KT 7SM 18/M01 A3018 RMK T01801010 IEM_DS3505
ZBTJ,1988-11-03 08:00,ZBTJ 030800Z AUTO 28006KT 7SM 17/M01 A3015 RMK T01701010 IEM_DS3505
ZBTJ,1988-11-03 08:25,ZBTJ 030825Z AUTO 28006KT 7SM 17/M01 A3015 RMK T01701010 IEM_DS3505
ZBTJ,1988-11-03 09:00,ZBTJ 030900Z AUTO 31006KT 7SM 18/M01 A3018 RMK T01801010 IEM_DS3505
ZBTJ,1988-11-03 10:00,ZBTJ 031000Z AUTO 26004KT 7SM 12/03 A3015 RMK T01200030 IEM_DS3505
ZBTJ,1988-11-03 11:00,ZBTJ 031100Z AUTO 26004KT 7SM 12/03 A3015 RMK T01200030 IEM_DS3505
ZBTJ,1988-11-03 11:48,ZBTJ 031148Z AUTO 26004KT 7SM 12/03 A3015 RMK T01200030 IEM_DS3505
ZBTJ,1988-11-03 13:22,ZBTJ 031322Z AUTO 22004KT 7SM 08/02 A3015 RMK T00800020 IEM_DS3505
ZBTJ,1988-11-03 13:25,ZBTJ 031325Z AUTO 22004KT 7SM 08/02 A3015 RMK T00800020 IEM_DS3505
ZBTJ,1988-11-03 13:30,ZBTJ 031330Z AUTO 26006KT 7SM A3018 RMK IEM_DS3505
ZBTJ,1988-11-03 17:00,ZBTJ 031700Z AUTO 22004KT 7SM 08/02 A3015 RMK T00800020 IEM_DS3505
ZBTJ,1988-11-03 21:00,ZBTJ 032100Z AUTO 27006KT 7SM 07/00 A3009 RMK T00700000 IEM_DS3505
ZBTJ,1988-11-03 22:00,ZBTJ 032200Z AUTO 32008KT 7SM 06/01 A3009 RMK T00600010 IEM_DS3505
ZBTJ,1988-11-03 22:23,ZBTJ 032223Z AUTO 32008KT 7SM 06/01 A3009 RMK T00600010 IEM_DS3505
ZBTJ,1988-11-03 23:00,ZBTJ 032300Z AUTO 32008KT 7SM 06/01 A3009 RMK T00600010 IEM_DS3505
ZBTJ,1988-11-04 00:00,ZBTJ 040000Z AUTO 35012KT 7SM A3018 RMK IEM_DS3505
ZBTJ,1988-11-04 00:07,ZBTJ 040007Z AUTO 32008KT 7SM 09/M01 A3012 RMK T00901010 IEM_DS3505
ZBTJ,1988-11-04 00:25,ZBTJ 040025Z AUTO 32008KT 7SM 09/M01 A3012 RMK T00901010 IEM_DS3505
ZBTJ,1988-11-04 01:00,ZBTJ 040100Z AUTO 32014KT 7SM 13/M02 A3015 RMK T01301020 IEM_DS3505
ZBTJ,1988-11-04 01:19,ZBTJ 040119Z AUTO 32014KT 7SM 13/M02 A3015 RMK T01301020 IEM_DS3505
ZBTJ,1988-11-04 03:00,ZBTJ 040300Z AUTO 33012KT 7SM 17/M02 A3018 RMK T01701020 IEM_DS3505
ZBTJ,1988-11-04 03:30,ZBTJ 040330Z AUTO 33012KT 7SM 17/M02 A3018 RMK T01701020 IEM_DS3505
ZBTJ,1988-11-04 03:34,ZBTJ 040334Z AUTO 33012KT 7SM 17/M02 A3018 RMK T01701020 IEM_DS3505
ZBTJ,1988-11-04 04:00,ZBTJ 040400Z AUTO 35012KT 7SM 19/M03 A3018 RMK T01901030 IEM_DS3505
ZBTJ,1988-11-04 04:28,ZBTJ 040428Z AUTO 35012KT 7SM 19/M03 A3018 RMK T01901030 IEM_DS3505
ZBTJ,1988-11-04 05:00,ZBTJ 040500Z AUTO 32010KT 7SM 20/M03 A3018 RMK T02001030 IEM_DS3505
ZBTJ,1988-11-04 05:25,ZBTJ 040525Z AUTO 32010KT 7SM 20/M03 A3018 RMK T02001030 IEM_DS3505
ZBTJ,1988-11-04 05:33,ZBTJ 040533Z AUTO 32010KT 7SM 20/M03 A3018 RMK T02001030 IEM_DS3505
ZBTJ,1988-11-04 07:00,ZBTJ 040700Z AUTO 33012KT 7SM 20/M02 A3018 RMK T02001020 IEM_DS3505
ZBTJ,1988-11-04 07:24,ZBTJ 040724Z AUTO 33012KT 7SM 20/M02 A3018 RMK T02001020 IEM_DS3505
ZBTJ,1988-11-04 07:26,ZBTJ 040726Z AUTO 33012KT 7SM 20/M02 A3018 RMK T02001020 IEM_DS3505
ZBTJ,1988-11-04 08:00,ZBTJ 040800Z AUTO 33012KT 7SM 20/M02 A3018 RMK T02001020 IEM_DS3505
ZBTJ,1988-11-04 08:24,ZBTJ 040824Z AUTO 33010KT 7SM 19/M01 A3018 RMK T01901010 IEM_DS3505
ZBTJ,1988-11-04 09:14,ZBTJ 040914Z AUTO 31006KT 7SM 16/M01 A3018 RMK T01601010 IEM_DS3505
ZBTJ,1988-11-04 09:27,ZBTJ 040927Z AUTO 31006KT 7SM 16/M01 A3018 RMK T01601010 IEM_DS3505
ZBTJ,1988-11-04 09:41,ZBTJ 040941Z AUTO 31006KT 7SM 16/M01 A3018 RMK T01601010 IEM_DS3505
ZBTJ,1988-11-04 10:20,ZBTJ 041020Z AUTO 31004KT 7SM 12/02 A3021 RMK T01200020 IEM_DS3505
ZBTJ,1988-11-04 10:22,ZBTJ 041022Z AUTO 31004KT 7SM 12/02 A3021 RMK T01200020 IEM_DS3505
ZBTJ,1988-11-04 10:25,ZBTJ 041025Z AUTO 31004KT 7SM 12/02 A3021 RMK T01200020 IEM_DS3505
ZBTJ,1988-11-04 11:00,ZBTJ 041100Z AUTO 29004KT 7SM 11/02 A3021 RMK T01100020 IEM_DS3505
ZBTJ,1988-11-04 11:28,ZBTJ 041128Z AUTO 29004KT 7SM 11/02 A3021 RMK T01100020 IEM_DS3505
ZBTJ,1988-11-04 11:39,ZBTJ 041139Z AUTO 29004KT 7SM 11/02 A3021 RMK T01100020 IEM_DS3505
ZBTJ,1988-11-04 12:00,ZBTJ 041200Z AUTO 29004KT 7SM 10/01 A3024 RMK T01000010 IEM_DS3505
ZBTJ,1988-11-04 12:12,ZBTJ 041212Z AUTO 29004KT 7SM 10/01 A3024 RMK T01000010 IEM_DS3505
ZBTJ,1988-11-04 12:30,ZBTJ 041230Z AUTO 29004KT 7SM 10/01 A3024 RMK T01000010 IEM_DS3505
ZBTJ,1988-11-04 13:00,ZBTJ 041300Z AUTO 29004KT 7SM 10/01 A3024 RMK T01000010 IEM_DS3505
ZBTJ,1988-11-04 13:27,ZBTJ 041327Z AUTO 28006KT 7SM 10/00 A3024 RMK T01000000 IEM_DS3505
ZBTJ,1988-11-04 13:28,ZBTJ 041328Z AUTO 28006KT 7SM 10/00 A3024 RMK T01000000 IEM_DS3505
ZBTJ,1988-11-04 21:00,ZBTJ 042100Z AUTO 35008KT 7SM 04/M02 A3033 RMK T00401020 IEM_DS3505
ZBTJ,1988-11-04 21:24,ZBTJ 042124Z AUTO 35008KT 7SM 04/M02 A3033 RMK T00401020 IEM_DS3505
ZBTJ,1988-11-04 23:00,ZBTJ 042300Z AUTO 05006KT 7SM 04/01 A3036 RMK T00400010 IEM_DS3505
ZBTJ,1988-11-04 23:10,ZBTJ 042310Z AUTO 05006KT 7SM 04/01 A3036 RMK T00400010 IEM_DS3505
ZBTJ,1988-11-04 23:21,ZBTJ 042321Z AUTO 05006KT 7SM 04/01 A3036 RMK T00400010 IEM_DS3505
ZBTJ,1988-11-05 00:00,ZBTJ 050000Z AUTO 07006KT 7SM 06/02 A3036 RMK T00600020 IEM_DS3505
ZBTJ,1988-11-05 00:28,ZBTJ 050028Z AUTO 07006KT 7SM 06/02 A3036 RMK T00600020 IEM_DS3505
ZBTJ,1988-11-05 01:00,ZBTJ 050100Z AUTO 09008KT 7SM 14/06 A3039 RMK T01400060 IEM_DS3505
ZBTJ,1988-11-05 03:00,ZBTJ 050300Z AUTO 15012KT 7SM 17/07 A3036 RMK T01700070 IEM_DS3505
ZBTJ,1988-11-05 03:33,ZBTJ 050333Z AUTO 15012KT 7SM 17/07 A3036 RMK T01700070 IEM_DS3505
ZBTJ,1988-11-05 04:00,ZBTJ 050400Z AUTO 00000KT 7SM 19/03 A3033 RMK T01900030 IEM_DS3505
ZBTJ,1988-11-05 06:00,ZBTJ 050600Z AUTO 24004KT 7SM 19/M01 A3027 RMK T01901010 IEM_DS3505
ZBTJ,1988-11-05 07:27,ZBTJ 050727Z AUTO 27008KT 7SM 19/M03 A3024 RMK T01901030 IEM_DS3505
ZBTJ,1988-11-05 07:28,ZBTJ 050728Z AUTO 27008KT 7SM 19/M03 A3024 RMK T01901030 IEM_DS3505
ZBTJ,1988-11-05 08:00,ZBTJ 050800Z AUTO 21006KT 7SM 18/M02 A3024 RMK T01801020 IEM_DS3505
ZBTJ,1988-11-05 09:00,ZBTJ 050900Z AUTO 23004KT 7SM 16/00 A3024 RMK T01600000 IEM_DS3505
ZBTJ,1988-11-05 09:26,ZBTJ 050926Z AUTO 23004KT 7SM 16/00 A3024 RMK T01600000 IEM_DS3505
ZBTJ,1988-11-05 10:00,ZBTJ 051000Z AUTO 18004KT 7SM 10/01 A3024 RMK T01000010 IEM_DS3505
ZBTJ,1988-11-05 11:00,ZBTJ 051100Z AUTO 18004KT 7SM 10/01 A3024 RMK T01000010 IEM_DS3505
ZBTJ,1988-11-05 11:28,ZBTJ 051128Z AUTO 18004KT 7SM 10/01 A3024 RMK T01000010 IEM_DS3505
ZBTJ,1988-11-05 12:00,ZBTJ 051200Z AUTO 22004KT 7SM 08/01 A3024 RMK T00800010 IEM_DS3505
ZBTJ,1988-11-05 12:20,ZBTJ 051220Z AUTO 22004KT 7SM 08/01 A3024 RMK T00800010 IEM_DS3505
ZBTJ,1988-11-05 21:00,ZBTJ 052100Z AUTO 29002KT 4SM 03/01 A3015 RMK T00300010 IEM_DS3505
ZBTJ,1988-11-05 22:00,ZBTJ 052200Z AUTO 29002KT 4SM 03/01 A3015 RMK T00300010 IEM_DS3505
ZBTJ,1988-11-05 23:00,ZBTJ 052300Z AUTO 26004KT 2 1/2SM 04/01 A3015 RMK T00400010 IEM_DS3505
ZBTJ,1988-11-06 00:17,ZBTJ 060017Z AUTO 00000KT 2 1/2SM 06/01 A3018 RMK T00600010 IEM_DS3505
ZBTJ,1988-11-06 00:20,ZBTJ 060020Z AUTO 00000KT 2 1/2SM 06/01 A3018 RMK T00600010 IEM_DS3505
ZBTJ,1988-11-06 01:00,ZBTJ 060100Z AUTO 34012KT 7SM 13/01 A3021 RMK T01300010 IEM_DS3505
ZBTJ,1988-11-06 01:12,ZBTJ 060112Z AUTO 30004KT 2SM 09/01 A3021 RMK T00900010 IEM_DS3505
ZBTJ,1988-11-06 01:19,ZBTJ 060119Z AUTO 30004KT 2SM 09/01 A3021 RMK T00900010 IEM_DS3505
ZBTJ,1988-11-06 02:00,ZBTJ 060200Z AUTO 34012KT 7SM 13/01 A3021 RMK T01300010 IEM_DS3505
ZBTJ,1988-11-06 02:03,ZBTJ 060203Z AUTO 34012KT 7SM 13/01 A3021 RMK T01300010 IEM_DS3505
ZBTJ,1988-11-06 04:00,ZBTJ 060400Z AUTO 35014KT 7SM 20/M03 A3021 RMK T02001030 IEM_DS3505
ZBTJ,1988-11-06 04:12,ZBTJ 060412Z AUTO 35014KT 7SM 20/M03 A3021 RMK T02001030 IEM_DS3505
ZBTJ,1988-11-06 08:00,ZBTJ 060800Z AUTO 11010KT 7SM 16/03 A3021 RMK T01600030 IEM_DS3505
ZBTJ,1988-11-06 08:16,ZBTJ 060816Z AUTO 11010KT 7SM 16/03 A3021 RMK T01600030 IEM_DS3505
ZBTJ,1988-11-06 08:18,ZBTJ 060818Z AUTO 11010KT 7SM 16/03 A3021 RMK T01600030 IEM_DS3505
ZBTJ,1988-11-06 09:00,ZBTJ 060900Z AUTO 12006KT 7SM 14/06 A3021 RMK T01400060 IEM_DS3505
ZBTJ,1988-11-06 09:18,ZBTJ 060918Z AUTO 12006KT 7SM 14/06 A3021 RMK T01400060 IEM_DS3505
ZBTJ,1988-11-06 10:00,ZBTJ 061000Z AUTO 12006KT 7SM 10/06 A3024 RMK T01000060 IEM_DS3505
ZBTJ,1988-11-06 10:18,ZBTJ 061018Z AUTO 12006KT 7SM 10/06 A3024 RMK T01000060 IEM_DS3505
ZBTJ,1988-11-06 11:18,ZBTJ 061118Z AUTO 12004KT 7SM 09/06 A3024 RMK T00900060 IEM_DS3505
ZBTJ,1988-11-06 11:19,ZBTJ 061119Z AUTO 12004KT 7SM 09/06 A3024 RMK T00900060 IEM_DS3505
ZBTJ,1988-11-06 12:00,ZBTJ 061200Z AUTO 11004KT 7SM 07/06 A3024 RMK T00700060 IEM_DS3505
ZBTJ,1988-11-06 14:00,ZBTJ 061400Z AUTO 13004KT 4SM 07/06 A3027 RMK T00700060 IEM_DS3505
ZBTJ,1988-11-06 14:18,ZBTJ 061418Z AUTO 13004KT 4SM 07/06 A3027 RMK T00700060 IEM_DS3505
ZBTJ,1988-11-06 14:19,ZBTJ 061419Z AUTO 13004KT 4SM 07/06 A3027 RMK T00700060 IEM_DS3505
ZBTJ,1988-11-06 20:42,ZBTJ 062042Z AUTO 00000KT 4SM 02/02 A3027 RMK T00200020 IEM_DS3505
ZBTJ,1988-11-06 21:00,ZBTJ 062100Z AUTO 00000KT 4SM 02/02 A3027 RMK T00200020 IEM_DS3505
ZBTJ,1988-11-06 21:18,ZBTJ 062118Z AUTO 00000KT 4SM 02/02 A3027 RMK T00200020 IEM_DS3505
ZBTJ,1988-11-06 22:00,ZBTJ 062200Z AUTO 00000KT 2 1/2SM 02/02 A3027 RMK T00200020 IEM_DS3505
ZBTJ,1988-11-06 23:00,ZBTJ 062300Z AUTO 00000KT 1 1/2SM 02/01 A3027 RMK T00200010 IEM_DS3505
ZBTJ,1988-11-06 23:47,ZBTJ 062347Z AUTO 00000KT 1 1/2SM 02/01 A3027 RMK T00200010 IEM_DS3505
ZBTJ,1988-11-07 00:00,ZBTJ 070000Z AUTO 00000KT 2SM 03/03 A3030 RMK T00300030 IEM_DS3505
ZBTJ,1988-11-07 00:23,ZBTJ 070023Z AUTO 00000KT 2SM 03/03 A3030 RMK T00300030 IEM_DS3505
ZBTJ,1988-11-07 02:00,ZBTJ 070200Z AUTO 23004KT 7SM A3024 RMK IEM_DS3505
ZBTJ,1988-11-07 02:24,ZBTJ 070224Z AUTO 00000KT 2 1/2SM 13/07 A3030 RMK T01300070 IEM_DS3505
ZBTJ,1988-11-07 03:00,ZBTJ 070300Z AUTO 24004KT 6SM 15/06 A3027 RMK T01500060 IEM_DS3505
ZBTJ,1988-11-07 04:00,ZBTJ 070400Z AUTO 23004KT 7SM 17/06 A3024 RMK T01700060 IEM_DS3505
ZBTJ,1988-11-07 04:24,ZBTJ 070424Z AUTO 23004KT 7SM 17/06 A3024 RMK T01700060 IEM_DS3505
ZBTJ,1988-11-07 05:00,ZBTJ 070500Z AUTO 18010KT 7SM 18/05 A3021 RMK T01800050 IEM_DS3505
ZBTJ,1988-11-07 06:00,ZBTJ 070600Z AUTO 20006KT 7SM 18/03 A3018 RMK T01800030 IEM_DS3505
ZBTJ,1988-11-07 07:21,ZBTJ 070721Z AUTO 20006KT 7SM 18/03 A3018 RMK T01800030 IEM_DS3505
ZBTJ,1988-11-07 07:30,ZBTJ 070730Z AUTO 20006KT 7SM 18/03 A3018 RMK T01800030 IEM_DS3505
ZBTJ,1988-11-07 09:00,ZBTJ 070900Z AUTO 17006KT 7SM 18/04 A3018 RMK T01800040 IEM_DS3505
ZBTJ,1988-11-07 10:00,ZBTJ 071000Z AUTO 17006KT 7SM 18/04 A3018 RMK T01800040 IEM_DS3505
ZBTJ,1988-11-07 10:39,ZBTJ 071039Z AUTO 14006KT 7SM 12/07 A3015 RMK T01200070 IEM_DS3505
ZBTJ,1988-11-07 11:00,ZBTJ 071100Z AUTO 15006KT 7SM 11/08 A3015 RMK T01100080 IEM_DS3505
ZBTJ,1988-11-07 12:00,ZBTJ 071200Z AUTO 15006KT 7SM 11/08 A3015 RMK T01100080 IEM_DS3505
ZBTJ,1988-11-07 12:18,ZBTJ 071218Z AUTO 15006KT 7SM 11/08 A3015 RMK T01100080 IEM_DS3505
ZBTJ,1988-11-07 14:00,ZBTJ 071400Z AUTO 15006KT 7SM 11/08 A3015 RMK T01100080 IEM_DS3505
ZBTJ,1988-11-07 15:00,ZBTJ 071500Z AUTO 15006KT 7SM 11/08 A3015 RMK T01100080 IEM_DS3505
ZBTJ,1988-11-08 00:00,ZBTJ 080000Z AUTO 19002KT 1 1/4SM 09/04 A3006 RMK T00900040 IEM_DS3505
ZBTJ,1988-11-08 01:00,ZBTJ 080100Z AUTO 21004KT 3SM 12/05 A3006 RMK T01200050 IEM_DS3505
ZBTJ,1988-11-08 01:24,ZBTJ 080124Z AUTO 19002KT 1 1/4SM 09/04 A3006 RMK T00900040 IEM_DS3505
ZBTJ,1988-11-08 02:00,ZBTJ 080200Z AUTO 21004KT 3SM 12/05 A3006 RMK T01200050 IEM_DS3505
ZBTJ,1988-11-08 02:24,ZBTJ 080224Z AUTO 21004KT 3SM 12/05 A3006 RMK T01200050 IEM_DS3505
ZBTJ,1988-11-08 02:50,ZBTJ 080250Z AUTO 23004KT 2 1/2SM 15/04 A3003 RMK T01500040 IEM_DS3505
ZBTJ,1988-11-08 03:00,ZBTJ 080300Z AUTO 23004KT 2 1/2SM 15/04 A3003 RMK T01500040 IEM_DS3505
ZBTJ,1988-11-08 04:00,ZBTJ 080400Z AUTO 21004KT 2SM 17/04 A3000 RMK T01700040 IEM_DS3505
ZBTJ,1988-11-08 04:27,ZBTJ 080427Z AUTO 21004KT 2SM 17/04 A3000 RMK T01700040 IEM_DS3505
ZBTJ,1988-11-08 05:00,ZBTJ 080500Z AUTO 20008KT 3SM 19/05 A2997 RMK T01900050 IEM_DS3505
ZBTJ,1988-11-08 05:30,ZBTJ 080530Z AUTO 20008KT 3SM 19/05 A2997 RMK T01900050 IEM_DS3505
ZBTJ,1988-11-08 06:00,ZBTJ 080600Z AUTO 25008KT 3SM 19/05 A2997 RMK T01900050 IEM_DS3505
ZBTJ,1988-11-08 06:25,ZBTJ 080625Z AUTO 23014KT 3SM 19/04 A2997 RMK T01900040 IEM_DS3505
ZBTJ,1988-11-08 07:25,ZBTJ 080725Z AUTO 25008KT 3SM 19/05 A2997 RMK T01900050 IEM_DS3505
ZBTJ,1988-11-08 07:27,ZBTJ 080727Z AUTO 25008KT 3SM 19/05 A2997 RMK T01900050 IEM_DS3505
ZBTJ,1988-11-08 08:00,ZBTJ 080800Z AUTO 29004KT 2 1/2SM 18/06 A2997 RMK T01800060 IEM_DS3505
ZBTJ,1988-11-08 08:21,ZBTJ 080821Z AUTO 29004KT 2 1/2SM 18/06 A2997 RMK T01800060 IEM_DS3505
ZBTJ,1988-11-08 09:30,ZBTJ 080930Z AUTO 27002KT 1 1/4SM 15/08 A2997 RMK T01500080 IEM_DS3505
ZBTJ,1988-11-08 11:00,ZBTJ 081100Z AUTO 33029KT 7SM 12/ A3015 RMK IEM_DS3505
ZBTJ,1988-11-08 11:16,ZBTJ 081116Z AUTO 30006KT 1 1/4SM 13/04 A3006 RMK T01300040 IEM_DS3505
ZBTJ,1988-11-08 12:00,ZBTJ 081200Z AUTO 32021KT 7SM 09/M19 RMK T00901190 IEM_DS3505
ZBTJ,1988-11-08 12:12,ZBTJ 081212Z AUTO 32023KT 7SM 14/ A3009 RMK IEM_DS3505
ZBTJ,1988-11-08 12:20,ZBTJ 081220Z AUTO 32023KT 7SM 14/ A3009 RMK IEM_DS3505
ZBTJ,1988-11-08 12:30,ZBTJ 081230Z AUTO 32023KT 7SM 14/ A3009 RMK IEM_DS3505
ZBTJ,1988-11-08 13:00,ZBTJ 081300Z AUTO 33029KT 7SM 12/M13 A3015 RMK T01201130 IEM_DS3505
ZBTJ,1988-11-08 13:30,ZBTJ 081330Z AUTO 33029KT 7SM 12/M13 A3015 RMK T01201130 IEM_DS3505
ZBTJ,1988-11-08 14:00,ZBTJ 081400Z AUTO 33027KT 7SM 10/M16 RMK T01001160 IEM_DS3505
ZBTJ,1988-11-08 14:23,ZBTJ 081423Z AUTO 33027KT 7SM 10/M16 RMK T01001160 IEM_DS3505
ZBTJ,1988-11-08 15:00,ZBTJ 081500Z AUTO 32021KT 7SM 09/M19 A3024 RMK T00901190 IEM_DS3505
ZBTJ,1988-11-08 15:24,ZBTJ 081524Z AUTO 32021KT 7SM 09/M19 A3024 RMK T00901190 IEM_DS3505
ZBTJ,1988-11-08 16:29,ZBTJ 081629Z AUTO 32021KT 7SM 09/M19 A3024 RMK T00901190 IEM_DS3505
ZBTJ,1988-11-09 00:24,ZBTJ 090024Z AUTO 32010KT 6SM 02/M14 A3050 RMK T00201140 IEM_DS3505
ZBTJ,1988-11-09 00:30,ZBTJ 090030Z AUTO 32010KT 6SM 02/M14 A3050 RMK T00201140 IEM_DS3505
ZBTJ,1988-11-09 01:00,ZBTJ 090100Z AUTO 32014KT 6SM 06/M18 A3053 RMK T00601180 IEM_DS3505
ZBTJ,1988-11-09 01:21,ZBTJ 090121Z AUTO 32014KT 6SM 06/M18 A3053 RMK T00601180 IEM_DS3505
ZBTJ,1988-11-09 02:00,ZBTJ 090200Z AUTO 33012KT 7SM 07/M18 A3053 RMK T00701180 IEM_DS3505
ZBTJ,1988-11-09 03:00,ZBTJ 090300Z AUTO 33012KT 7SM 07/M18 A3053 RMK T00701180 IEM_DS3505
ZBTJ,1988-11-09 03:28,ZBTJ 090328Z AUTO 33012KT 7SM 07/M18 A3053 RMK T00701180 IEM_DS3505
ZBTJ,1988-11-09 04:00,ZBTJ 090400Z AUTO 33019KT 7SM 08/M18 A3047 RMK T00801180 IEM_DS3505
ZBTJ,1988-11-09 04:32,ZBTJ 090432Z AUTO 33019KT 7SM 08/M18 A3047 RMK T00801180 IEM_DS3505
ZBTJ,1988-11-09 05:00,ZBTJ 090500Z AUTO 32014KT 7SM 09/M17 A3045 RMK T00901170 IEM_DS3505
ZBTJ,1988-11-09 05:26,ZBTJ 090526Z AUTO 32014KT 7SM 09/M17 A3045 RMK T00901170 IEM_DS3505
ZBTJ,1988-11-09 06:00,ZBTJ 090600Z AUTO 32016KT 7SM 09/M18 A3042 RMK T00901180 IEM_DS3505
ZBTJ,1988-11-09 06:24,ZBTJ 090624Z AUTO 32016KT 7SM 09/M18 A3042 RMK T00901180 IEM_DS3505
ZBTJ,1988-11-09 06:40,ZBTJ 090640Z AUTO 32016KT 7SM 09/M18 A3042 RMK T00901180 IEM_DS3505
ZBTJ,1988-11-09 07:00,ZBTJ 090700Z AUTO 25016KT 7SM 09/M20 A3042 RMK T00901200 IEM_DS3505
ZBTJ,1988-11-09 07:25,ZBTJ 090725Z AUTO 25016KT 7SM 09/M20 A3042 RMK T00901200 IEM_DS3505
ZBTJ,1988-11-09 07:32,ZBTJ 090732Z AUTO 25016KT 7SM 09/M20 A3042 RMK T00901200 IEM_DS3505
ZBTJ,1988-11-09 08:00,ZBTJ 090800Z AUTO 27014KT 7SM 08/M26 A3042 RMK T00801260 IEM_DS3505
ZBTJ,1988-11-09 08:24,ZBTJ 090824Z AUTO 27014KT 7SM 08/M26 A3042 RMK T00801260 IEM_DS3505
ZBTJ,1988-11-09 09:00,ZBTJ 090900Z AUTO 25010KT 7SM 07/M17 A3042 RMK T00701170 IEM_DS3505
ZBTJ,1988-11-09 10:00,ZBTJ 091000Z AUTO 23008KT 7SM 06/M14 A3039 RMK T00601140 IEM_DS3505
ZBTJ,1988-11-09 10:25,ZBTJ 091025Z AUTO 23008KT 7SM 06/M14 A3039 RMK T00601140 IEM_DS3505
ZBTJ,1988-11-09 11:00,ZBTJ 091100Z AUTO 25010KT 7SM 07/M17 A3042 RMK T00701170 IEM_DS3505
ZBTJ,1988-11-09 11:25,ZBTJ 091125Z AUTO 23010KT 7SM 05/M12 A3039 RMK T00501120 IEM_DS3505
ZBTJ,1988-11-09 11:28,ZBTJ 091128Z AUTO 23010KT 7SM 05/M12 A3039 RMK T00501120 IEM_DS3505
ZBTJ,1988-11-09 12:00,ZBTJ 091200Z AUTO 23008KT 7SM 06/M14 A3039 RMK T00601140 IEM_DS3505
ZBTJ,1988-11-09 12:20,ZBTJ 091220Z AUTO 23008KT 7SM 04/M10 A3042 RMK T00401100 IEM_DS3505
ZBTJ,1988-11-09 12:27,ZBTJ 091227Z AUTO 23008KT 7SM 04/M10 A3042 RMK T00401100 IEM_DS3505
ZBTJ,1988-11-09 13:00,ZBTJ 091300Z AUTO 24006KT 7SM 04/M10 A3042 RMK T00401100 IEM_DS3505
ZBTJ,1988-11-09 13:25,ZBTJ 091325Z AUTO 24006KT 7SM 04/M10 A3042 RMK T00401100 IEM_DS3505
ZBTJ,1988-11-09 13:28,ZBTJ 091328Z AUTO 24006KT 7SM 04/M10 A3042 RMK T00401100 IEM_DS3505
ZBTJ,1988-11-09 14:21,ZBTJ 091421Z AUTO 21006KT 7SM 02/M09 A3042 RMK T00201090 IEM_DS3505
ZBTJ,1988-11-09 14:27,ZBTJ 091427Z AUTO 21006KT 7SM 02/M09 A3042 RMK T00201090 IEM_DS3505
ZBTJ,1988-11-09 15:51,ZBTJ 091551Z AUTO 24006KT 7SM 04/M10 A3042 RMK T00401100 IEM_DS3505
ZBTJ,1988-11-09 22:00,ZBTJ 092200Z AUTO 33012KT 7SM 03/M15 A3045 RMK T00301150 IEM_DS3505
ZBTJ,1988-11-09 22:25,ZBTJ 092225Z AUTO 33012KT 7SM 03/M15 A3045 RMK T00301150 IEM_DS3505
ZBTJ,1988-11-09 22:27,ZBTJ 092227Z AUTO 33012KT 7SM 03/M15 A3045 RMK T00301150 IEM_DS3505
ZBTJ,1988-11-09 23:00,ZBTJ 092300Z AUTO 33010KT 7SM 04/M14 A3047 RMK T00401140 IEM_DS3505
ZBTJ,1988-11-10 00:00,ZBTJ 100000Z AUTO 33010KT 7SM 04/M14 A3047 RMK T00401140 IEM_DS3505
ZBTJ,1988-11-10 00:20,ZBTJ 100020Z AUTO 33010KT 7SM 04/M14 A3047 RMK T00401140 IEM_DS3505
ZBTJ,1988-11-10 01:00,ZBTJ 100100Z AUTO 33010KT 7SM 06/M14 A3047 RMK T00601140 IEM_DS3505
ZBTJ,1988-11-10 01:28,ZBTJ 100128Z AUTO 33010KT 7SM 06/M14 A3047 RMK T00601140 IEM_DS3505
ZBTJ,1988-11-10 01:36,ZBTJ 100136Z AUTO 33010KT 7SM 06/M14 A3047 RMK T00601140 IEM_DS3505
ZBTJ,1988-11-10 02:00,ZBTJ 100200Z AUTO 32008KT 7SM 08/M15 A3047 RMK T00801150 IEM_DS3505
ZBTJ,1988-11-10 03:00,ZBTJ 100300Z AUTO 30012KT 7SM 09/M20 A3045 RMK T00901200 IEM_DS3505
ZBTJ,1988-11-10 03:15,ZBTJ 100315Z AUTO 30012KT 7SM 09/M20 A3045 RMK T00901200 IEM_DS3505
ZBTJ,1988-11-10 03:20,ZBTJ 100320Z AUTO 30012KT 7SM 09/M20 A3045 RMK T00901200 IEM_DS3505
ZBTJ,1988-11-10 04:00,ZBTJ 100400Z AUTO 26012KT 7SM 10/M21 A3042 RMK T01001210 IEM_DS3505
ZBTJ,1988-11-10 04:23,ZBTJ 100423Z AUTO 26012KT 7SM 10/M21 A3042 RMK T01001210 IEM_DS3505
ZBTJ,1988-11-10 05:00,ZBTJ 100500Z AUTO 25014KT 7SM 11/M19 A3039 RMK T01101190 IEM_DS3505
ZBTJ,1988-11-10 05:26,ZBTJ 100526Z AUTO 25014KT 7SM 11/M19 A3039 RMK T01101190 IEM_DS3505
ZBTJ,1988-11-10 05:29,ZBTJ 100529Z AUTO 25014KT 7SM 11/M19 A3039 RMK T01101190 IEM_DS3505
ZBTJ,1988-11-10 06:00,ZBTJ 100600Z AUTO 26014KT 7SM 11/M17 A3036 RMK T01101170 IEM_DS3505
ZBTJ,1988-11-10 07:00,ZBTJ 100700Z AUTO 26014KT 7SM 11/M17 A3036 RMK T01101170 IEM_DS3505
ZBTJ,1988-11-10 08:00,ZBTJ 100800Z AUTO 26012KT 7SM 11/ A3033 RMK IEM_DS3505
ZBTJ,1988-11-10 08:27,ZBTJ 100827Z AUTO 25014KT 7SM 11/M18 A3030 RMK T01101180 IEM_DS3505
ZBTJ,1988-11-10 09:00,ZBTJ 100900Z AUTO 25010KT 7SM 10/M15 A3030 RMK T01001150 IEM_DS3505
ZBTJ,1988-11-10 10:00,ZBTJ 101000Z AUTO 24010KT 7SM 08/M10 A3030 RMK T00801100 IEM_DS3505
ZBTJ,1988-11-10 10:24,ZBTJ 101024Z AUTO 24010KT 7SM 08/M10 A3030 RMK T00801100 IEM_DS3505
ZBTJ,1988-11-10 10:27,ZBTJ 101027Z AUTO 24010KT 7SM 08/M10 A3030 RMK T00801100 IEM_DS3505
ZBTJ,1988-11-10 11:24,ZBTJ 101124Z AUTO 23010KT 7SM 08/M10 A3027 RMK T00801100 IEM_DS3505
ZBTJ,1988-11-10 11:30,ZBTJ 101130Z AUTO 23010KT 7SM 08/M10 A3027 RMK T00801100 IEM_DS3505
ZBTJ,1988-11-10 12:00,ZBTJ 101200Z AUTO 24014KT 7SM 08/M10 A3024 RMK T00801100 IEM_DS3505
ZBTJ,1988-11-10 12:24,ZBTJ 101224Z AUTO 23012KT 7SM 08/M10 A3027 RMK T00801100 IEM_DS3505
ZBTJ,1988-11-10 12:27,ZBTJ 101227Z AUTO 23012KT 7SM 08/M10 A3027 RMK T00801100 IEM_DS3505
ZBTJ,1988-11-10 12:36,ZBTJ 101236Z AUTO 23012KT 7SM 08/M10 A3027 RMK T00801100 IEM_DS3505
ZBTJ,1988-11-10 13:00,ZBTJ 101300Z AUTO 23010KT 7SM 07/M09 A3027 RMK T00701090 IEM_DS3505
ZBTJ,1988-11-10 13:32,ZBTJ 101332Z AUTO 23010KT 7SM 07/M09 A3027 RMK T00701090 IEM_DS3505
ZBTJ,1988-11-10 14:00,ZBTJ 101400Z AUTO 23012KT 7SM 08/M10 A3027 RMK T00801100 IEM_DS3505
ZBTJ,1988-11-10 14:24,ZBTJ 101424Z AUTO 24014KT 7SM 08/M10 A3024 RMK T00801100 IEM_DS3505
ZBTJ,1988-11-10 14:27,ZBTJ 101427Z AUTO 24014KT 7SM 08/M10 A3024 RMK T00801100 IEM_DS3505
ZBTJ,1988-11-10 14:48,ZBTJ 101448Z AUTO 23010KT 7SM 07/M09 A3027 RMK T00701090 IEM_DS3505
ZBTJ,1988-11-10 15:00,ZBTJ 101500Z AUTO 24014KT 7SM 08/M11 A3024 RMK T00801110 IEM_DS3505
ZBTJ,1988-11-10 15:28,ZBTJ 101528Z AUTO 24014KT 7SM 08/M11 A3024 RMK T00801110 IEM_DS3505
ZBTJ,1988-11-10 15:29,ZBTJ 101529Z AUTO 24014KT 7SM 08/M11 A3024 RMK T00801110 IEM_DS3505
ZBTJ,1988-11-10 23:00,ZBTJ 102300Z AUTO 27008KT 7SM 02/M05 A3024 RMK T00201050 IEM_DS3505
ZBTJ,1988-11-10 23:22,ZBTJ 102322Z AUTO 27008KT 7SM 02/M05 A3024 RMK T00201050 IEM_DS3505
ZBTJ,1988-11-11 00:00,ZBTJ 110000Z AUTO 21008KT 4SM 03/M04 A3021 RMK T00301040 IEM_DS3505
ZBTJ,1988-11-11 00:16,ZBTJ 110016Z AUTO 21008KT 4SM 03/M04 A3021 RMK T00301040 IEM_DS3505
ZBTJ,1988-11-11 00:24,ZBTJ 110024Z AUTO 21008KT 4SM 03/M04 A3021 RMK T00301040 IEM_DS3505
ZBTJ,1988-11-11 01:00,ZBTJ 110100Z AUTO 00000KT 2 1/2SM 08/M04 A3024 RMK T00801040 IEM_DS3505
ZBTJ,1988-11-11 01:25,ZBTJ 110125Z AUTO 00000KT 2 1/2SM 08/M04 A3024 RMK T00801040 IEM_DS3505
ZBTJ,1988-11-11 01:27,ZBTJ 110127Z AUTO 00000KT 2 1/2SM 08/M04 A3024 RMK T00801040 IEM_DS3505
ZBTJ,1988-11-11 02:00,ZBTJ 110200Z AUTO 25004KT 3SM 13/M08 A3021 RMK T01301080 IEM_DS3505
ZBTJ,1988-11-11 02:28,ZBTJ 110228Z AUTO 25004KT 3SM 13/M08 A3021 RMK T01301080 IEM_DS3505
ZBTJ,1988-11-11 03:00,ZBTJ 110300Z AUTO 21004KT 4SM 15/M08 A3018 RMK T01501080 IEM_DS3505
ZBTJ,1988-11-11 03:28,ZBTJ 110328Z AUTO 21004KT 4SM 15/M08 A3018 RMK T01501080 IEM_DS3505
ZBTJ,1988-11-11 04:00,ZBTJ 110400Z AUTO 23008KT 7SM 16/M12 A3015 RMK T01601120 IEM_DS3505
ZBTJ,1988-11-11 04:24,ZBTJ 110424Z AUTO 23008KT 7SM 16/M12 A3015 RMK T01601120 IEM_DS3505
ZBTJ,1988-11-11 04:26,ZBTJ 110426Z AUTO 23008KT 7SM 16/M12 A3015 RMK T01601120 IEM_DS3505
ZBTJ,1988-11-11 05:00,ZBTJ 110500Z AUTO 24004KT 7SM 16/M08 A3003 RMK T01601080 IEM_DS3505
ZBTJ,1988-11-11 05:32,ZBTJ 110532Z AUTO 21010KT 7SM 16/M09 A3012 RMK T01601090 IEM_DS3505
ZBTJ,1988-11-11 06:00,ZBTJ 110600Z AUTO 21008KT 7SM 17/M09 A3006 RMK T01701090 IEM_DS3505
ZBTJ,1988-11-11 06:31,ZBTJ 110631Z AUTO 21008KT 7SM 17/M09 A3006 RMK T01701090 IEM_DS3505
ZBTJ,1988-11-11 07:00,ZBTJ 110700Z AUTO 26008KT 7SM 17/M08 A3003 RMK T01701080 IEM_DS3505
ZBTJ,1988-11-11 08:00,ZBTJ 110800Z AUTO 24004KT 7SM 16/M08 A3003 RMK T01601080 IEM_DS3505
ZBTJ,1988-11-11 08:22,ZBTJ 110822Z AUTO 24004KT 7SM 16/M08 A3003 RMK T01601080 IEM_DS3505
ZBTJ,1988-11-11 08:51,ZBTJ 110851Z AUTO 26008KT 7SM 17/M08 A3003 RMK T01701080 IEM_DS3505
ZBTJ,1988-11-11 09:00,ZBTJ 110900Z AUTO 23008KT 7SM 14/M06 A3000 RMK T01401060 IEM_DS3505
ZBTJ,1988-11-11 10:00,ZBTJ 111000Z AUTO 23004KT 7SM 11/M05 A2997 RMK T01101050 IEM_DS3505
ZBTJ,1988-11-11 10:10,ZBTJ 111010Z AUTO 23004KT 7SM 11/M05 A2997 RMK T01101050 IEM_DS3505
ZBTJ,1988-11-11 10:26,ZBTJ 111026Z AUTO 23004KT 7SM 11/M05 A2997 RMK T01101050 IEM_DS3505
ZBTJ,1988-11-11 11:00,ZBTJ 111100Z AUTO 21004KT 4SM 09/M04 A2997 RMK T00901040 IEM_DS3505
ZBTJ,1988-11-11 12:00,ZBTJ 111200Z AUTO 24004KT 4SM 09/M03 A2994 RMK T00901030 IEM_DS3505
ZBTJ,1988-11-11 12:15,ZBTJ 111215Z AUTO 24004KT 4SM 09/M03 A2994 RMK T00901030 IEM_DS3505
ZBTJ,1988-11-11 12:26,ZBTJ 111226Z AUTO 24004KT 4SM 09/M03 A2994 RMK T00901030 IEM_DS3505
ZBTJ,1988-11-11 13:26,ZBTJ 111326Z AUTO 21004KT 7SM 08/M04 A2994 RMK T00801040 IEM_DS3505
ZBTJ,1988-11-11 13:48,ZBTJ 111348Z AUTO 21004KT 7SM 08/M04 A2994 RMK T00801040 IEM_DS3505
ZBTJ,1988-11-11 15:00,ZBTJ 111500Z AUTO 25008KT 7SM 08/M06 A2991 RMK T00801060 IEM_DS3505
ZBTJ,1988-11-11 15:12,ZBTJ 111512Z AUTO 25008KT 7SM 08/M06 A2991 RMK T00801060 IEM_DS3505
ZBTJ,1988-11-11 15:40,ZBTJ 111540Z AUTO 25008KT 7SM 08/M06 A2991 RMK T00801060 IEM_DS3505
ZBTJ,1988-11-11 16:00,ZBTJ 111600Z AUTO 25008KT 7SM 08/M06 A2991 RMK T00801060 IEM_DS3505
ZBTJ,1988-11-11 17:00,ZBTJ 111700Z AUTO 23008KT 7SM 06/M05 A2991 RMK T00601050 IEM_DS3505
ZBTJ,1988-11-11 23:00,ZBTJ 112300Z AUTO 32010KT 4SM 08/M08 A2988 RMK T00801080 IEM_DS3505
ZBTJ,1988-11-11 23:20,ZBTJ 112320Z AUTO 32010KT 4SM 08/M08 A2988 RMK T00801080 IEM_DS3505
ZBTJ,1988-11-11 23:24,ZBTJ 112324Z AUTO 32010KT 4SM 08/M08 A2988 RMK T00801080 IEM_DS3505
ZBTJ,1988-11-12 00:00,ZBTJ 120000Z AUTO 32010KT 6SM 09/M08 A2991 RMK T00901080 IEM_DS3505
ZBTJ,1988-11-12 00:27,ZBTJ 120027Z AUTO 32010KT 6SM 09/M08 A2991 RMK T00901080 IEM_DS3505
ZBTJ,1988-11-12 01:00,ZBTJ 120100Z AUTO 33017KT 6SM 14/M12 A2991 RMK T01401120 IEM_DS3505
ZBTJ,1988-11-12 01:15,ZBTJ 120115Z AUTO 33017KT 6SM 14/M12 A2991 RMK T01401120 IEM_DS3505
ZBTJ,1988-11-12 02:00,ZBTJ 120200Z AUTO 33014KT 6SM 15/M11 A2994 RMK T01501110 IEM_DS3505
ZBTJ,1988-11-12 03:00,ZBTJ 120300Z AUTO 33019KT 7SM 16/M14 A2994 RMK T01601140 IEM_DS3505
ZBTJ,1988-11-12 04:00,ZBTJ 120400Z AUTO 34019KT 6SM 18/M10 A2991 RMK T01801100 IEM_DS3505
ZBTJ,1988-11-12 04:25,ZBTJ 120425Z AUTO 34002KT 6SM RMK IEM_DS3505
ZBTJ,1988-11-12 05:00,ZBTJ 120500Z AUTO 33014KT 7SM 18/M12 A2988 RMK T01801120 IEM_DS3505
ZBTJ,1988-11-12 05:35,ZBTJ 120535Z AUTO 33014KT 7SM 18/M12 A2988 RMK T01801120 IEM_DS3505
ZBTJ,1988-11-12 06:00,ZBTJ 120600Z AUTO 33010KT 7SM 18/M09 A2985 RMK T01801090 IEM_DS3505
ZBTJ,1988-11-12 06:28,ZBTJ 120628Z AUTO 33010KT 7SM 18/M09 A2985 RMK T01801090 IEM_DS3505
ZBTJ,1988-11-12 07:00,ZBTJ 120700Z AUTO 27006KT 6SM 18/M11 A2985 RMK T01801110 IEM_DS3505
ZBTJ,1988-11-12 07:26,ZBTJ 120726Z AUTO 27006KT 6SM 18/M11 A2985 RMK T01801110 IEM_DS3505
ZBTJ,1988-11-12 07:27,ZBTJ 120727Z AUTO 27006KT 6SM 18/M11 A2985 RMK T01801110 IEM_DS3505
ZBTJ,1988-11-12 08:00,ZBTJ 120800Z AUTO 33010KT 7SM 18/M09 A2985 RMK T01801090 IEM_DS3505
ZBTJ,1988-11-12 08:27,ZBTJ 120827Z AUTO 23008KT 6SM 16/M06 A2985 RMK T01601060 IEM_DS3505
ZBTJ,1988-11-12 09:00,ZBTJ 120900Z AUTO 21006KT 5SM 14/M03 A2985 RMK T01401030 IEM_DS3505
ZBTJ,1988-11-12 09:19,ZBTJ 120919Z AUTO 23008KT 6SM 16/M06 A2985 RMK T01601060 IEM_DS3505
ZBTJ,1988-11-12 09:24,ZBTJ 120924Z AUTO 21006KT 5SM 14/M03 A2985 RMK T01401030 IEM_DS3505
ZBTJ,1988-11-12 09:27,ZBTJ 120927Z AUTO 21006KT 5SM 14/M03 A2985 RMK T01401030 IEM_DS3505
ZBTJ,1988-11-12 10:00,ZBTJ 121000Z AUTO 21006KT 4SM 12/M03 A2983 RMK T01201030 IEM_DS3505
ZBTJ,1988-11-12 11:00,ZBTJ 121100Z AUTO 19006KT 4SM 11/M03 A2983 RMK T01101030 IEM_DS3505
ZBTJ,1988-11-12 11:25,ZBTJ 121125Z AUTO 19006KT 4SM 11/M03 A2983 RMK T01101030 IEM_DS3505
ZBTJ,1988-11-12 12:00,ZBTJ 121200Z AUTO 17006KT 4SM 09/M02 A2983 RMK T00901020 IEM_DS3505
ZBTJ,1988-11-12 12:33,ZBTJ 121233Z AUTO 17006KT 4SM 09/M02 A2983 RMK T00901020 IEM_DS3505
ZBTJ,1988-11-12 22:00,ZBTJ 122200Z AUTO 34016KT 7SM 09/M17 A2988 RMK T00901170 IEM_DS3505
ZBTJ,1988-11-12 22:25,ZBTJ 122225Z AUTO 34016KT 7SM 09/M17 A2988 RMK T00901170 IEM_DS3505
ZBTJ,1988-11-12 22:27,ZBTJ 122227Z AUTO 34016KT 7SM 09/M17 A2988 RMK T00901170 IEM_DS3505
ZBTJ,1988-11-12 23:00,ZBTJ 122300Z AUTO 34014KT 7SM 07/M05 A2991 RMK T00701050 IEM_DS3505
ZBTJ,1988-11-12 23:24,ZBTJ 122324Z AUTO 34014KT 7SM 07/M05 A2991 RMK T00701050 IEM_DS3505
ZBTJ,1988-11-13 00:00,ZBTJ 130000Z AUTO 35014KT 7SM 08/M06 A2994 RMK T00801060 IEM_DS3505
ZBTJ,1988-11-13 00:21,ZBTJ 130021Z AUTO 35014KT 7SM 08/M06 A2994 RMK T00801060 IEM_DS3505
ZBTJ,1988-11-13 01:25,ZBTJ 130125Z AUTO 02012KT 7SM 10/M06 A3000 RMK T01001060 IEM_DS3505
ZBTJ,1988-11-13 01:27,ZBTJ 130127Z AUTO 02012KT 7SM 10/M06 A3000 RMK T01001060 IEM_DS3505
ZBTJ,1988-11-13 02:00,ZBTJ 130200Z AUTO 02017KT 7SM 13/M08 A3003 RMK T01301080 IEM_DS3505
ZBTJ,1988-11-13 02:10,ZBTJ 130210Z AUTO 02017KT 7SM 13/M08 A3003 RMK T01301080 IEM_DS3505
ZBTJ,1988-11-13 04:00,ZBTJ 130400Z AUTO 05016KT 6SM 15/M08 A3003 RMK T01501080 IEM_DS3505
ZBTJ,1988-11-13 05:28,ZBTJ 130528Z AUTO 08010KT 6SM 14/M07 A3000 RMK T01401070 IEM_DS3505
ZBTJ,1988-11-13 05:29,ZBTJ 130529Z AUTO 08010KT 6SM 14/M07 A3000 RMK T01401070 IEM_DS3505
ZBTJ,1988-11-13 06:00,ZBTJ 130600Z AUTO 08010KT 6SM 14/M07 RMK T01401070 IEM_DS3505
ZBTJ,1988-11-13 07:00,ZBTJ 130700Z AUTO 03010KT 6SM 14/M07 A3000 RMK T01401070 IEM_DS3505
ZBTJ,1988-11-13 07:21,ZBTJ 130721Z AUTO 03010KT 6SM 14/M07 A3000 RMK T01401070 IEM_DS3505
ZBTJ,1988-11-13 08:00,ZBTJ 130800Z AUTO 03010KT 6SM 14/M07 A3000 RMK T01401070 IEM_DS3505
ZBTJ,1988-11-13 10:00,ZBTJ 131000Z AUTO 09004KT 6SM 07/M04 A3006 RMK T00701040 IEM_DS3505
ZBTJ,1988-11-13 12:24,ZBTJ 131224Z AUTO 09004KT 6SM 07/M04 A3006 RMK T00701040 IEM_DS3505
ZBTJ,1988-11-13 21:00,ZBTJ 132100Z AUTO 00000KT 7SM 00/M01 A3009 RMK T00001010 IEM_DS3505
ZBTJ,1988-11-13 22:00,ZBTJ 132200Z AUTO 00000KT 7SM 00/M01 A3009 RMK T00001010 IEM_DS3505
ZBTJ,1988-11-14 00:00,ZBTJ 140000Z AUTO 00000KT 1 1/2SM 00/M01 A3012 RMK T00001010 IEM_DS3505
ZBTJ,1988-11-14 00:35,ZBTJ 140035Z AUTO 00000KT 1 1/2SM 00/M01 A3012 RMK T00001010 IEM_DS3505
ZBTJ,1988-11-14 01:00,ZBTJ 140100Z AUTO 21002KT 2 1/2SM 06/02 A3015 RMK T00600020 IEM_DS3505
ZBTJ,1988-11-14 01:21,ZBTJ 140121Z AUTO 21002KT 2 1/2SM 06/02 A3015 RMK T00600020 IEM_DS3505
ZBTJ,1988-11-14 01:30,ZBTJ 140130Z AUTO 21002KT 7SM 08/00 A3015 RMK T00800000 IEM_DS3505
ZBTJ,1988-11-14 02:00,ZBTJ 140200Z AUTO 21002KT 7SM 08/00 A3015 RMK T00800000 IEM_DS3505
ZBTJ,1988-11-14 03:00,ZBTJ 140300Z AUTO 18002KT 6SM 09/00 A3012 RMK T00900000 IEM_DS3505
ZBTJ,1988-11-14 03:20,ZBTJ 140320Z AUTO 18002KT 6SM 09/00 A3012 RMK T00900000 IEM_DS3505
ZBTJ,1988-11-14 04:00,ZBTJ 140400Z AUTO 13004KT 6SM 11/M03 A3006 RMK T01101030 IEM_DS3505
ZBTJ,1988-11-14 04:27,ZBTJ 140427Z AUTO 21004KT 6SM 10/M01 A3009 RMK T01001010 IEM_DS3505
ZBTJ,1988-11-14 04:30,ZBTJ 140430Z AUTO 21004KT 6SM 10/M01 A3009 RMK T01001010 IEM_DS3505
ZBTJ,1988-11-14 05:00,ZBTJ 140500Z AUTO 21004KT 6SM 10/M01 A3009 RMK T01001010 IEM_DS3505
ZBTJ,1988-11-14 05:36,ZBTJ 140536Z AUTO 13004KT 6SM 11/M03 A3006 RMK T01101030 IEM_DS3505
ZBTJ,1988-11-14 06:00,ZBTJ 140600Z AUTO 13004KT 6SM 13/M04 A3003 RMK T01301040 IEM_DS3505
ZBTJ,1988-11-14 06:30,ZBTJ 140630Z AUTO 13004KT 6SM 13/M04 A3003 RMK T01301040 IEM_DS3505
ZBTJ,1988-11-14 06:45,ZBTJ 140645Z AUTO 13004KT 6SM 13/M04 A3003 RMK T01301040 IEM_DS3505
ZBTJ,1988-11-14 07:00,ZBTJ 140700Z AUTO 13008KT 6SM A3003 RMK IEM_DS3505
ZBTJ,1988-11-14 07:20,ZBTJ 140720Z AUTO 13008KT 6SM 21/M05 A3003 RMK T02101050 IEM_DS3505
ZBTJ,1988-11-14 08:00,ZBTJ 140800Z AUTO 13008KT 6SM A3003 RMK IEM_DS3505
ZBTJ,1988-11-14 08:52,ZBTJ 140852Z AUTO 13008KT 6SM 11/M05 A3003 RMK T01101050 IEM_DS3505
ZBTJ,1988-11-14 09:00,ZBTJ 140900Z AUTO 11006KT 6SM 10/02 A3003 RMK T01000020 IEM_DS3505
ZBTJ,1988-11-14 09:19,ZBTJ 140919Z AUTO 11006KT 6SM 10/02 A3003 RMK T01000020 IEM_DS3505
ZBTJ,1988-11-14 10:00,ZBTJ 141000Z AUTO 10004KT 6SM 08/02 A3003 RMK T00800020 IEM_DS3505
ZBTJ,1988-11-14 10:27,ZBTJ 141027Z AUTO 10004KT 6SM 08/02 A3003 RMK T00800020 IEM_DS3505
ZBTJ,1988-11-14 11:00,ZBTJ 141100Z AUTO 03002KT 6SM 07/02 A3003 RMK T00700020 IEM_DS3505
ZBTJ,1988-11-14 11:24,ZBTJ 141124Z AUTO 00000KT 6SM 07/02 A3003 RMK T00700020 IEM_DS3505
ZBTJ,1988-11-14 12:00,ZBTJ 141200Z AUTO 03002KT 6SM 07/02 A3003 RMK T00700020 IEM_DS3505
ZBTJ,1988-11-14 12:24,ZBTJ 141224Z AUTO 03002KT 6SM 07/02 A3003 RMK T00700020 IEM_DS3505
ZBTJ,1988-11-14 13:15,ZBTJ 141315Z AUTO 00000KT 6SM 07/03 A3006 RMK T00700030 IEM_DS3505
ZBTJ,1988-11-14 13:27,ZBTJ 141327Z AUTO 00000KT 6SM 07/03 A3006 RMK T00700030 IEM_DS3505
ZBTJ,1988-11-14 19:00,ZBTJ 141900Z AUTO 33019KT 7SM 04/M06 A3018 RMK T00401060 IEM_DS3505
ZBTJ,1988-11-14 21:00,ZBTJ 142100Z AUTO 33019KT 7SM 04/M06 A3018 RMK T00401060 IEM_DS3505
ZBTJ,1988-11-14 22:00,ZBTJ 142200Z AUTO 33019KT 7SM 04/M10 A3018 RMK T00401100 IEM_DS3505
ZBTJ,1988-11-14 22:20,ZBTJ 142220Z AUTO 33019KT 7SM 04/M10 A3018 RMK T00401100 IEM_DS3505
ZBTJ,1988-11-14 22:28,ZBTJ 142228Z AUTO 33019KT 7SM 04/M10 A3018 RMK T00401100 IEM_DS3505
ZBTJ,1988-11-14 23:00,ZBTJ 142300Z AUTO 33019KT 7SM 04/M10 A3018 RMK T00401100 IEM_DS3505
ZBTJ,1988-11-15 00:00,ZBTJ 150000Z AUTO 34017KT 6SM 05/M11 A3027 RMK T00501110 IEM_DS3505
ZBTJ,1988-11-15 01:00,ZBTJ 150100Z AUTO 34017KT 6SM 05/M11 A3027 RMK T00501110 IEM_DS3505
ZBTJ,1988-11-15 02:00,ZBTJ 150200Z AUTO 35016KT 6SM 07/M10 A3030 RMK T00701100 IEM_DS3505
ZBTJ,1988-11-15 03:00,ZBTJ 150300Z AUTO 24016KT 6SM 08/M10 A3030 RMK T00801100 IEM_DS3505
ZBTJ,1988-11-15 03:31,ZBTJ 150331Z AUTO 24016KT 6SM 08/M10 A3030 RMK T00801100 IEM_DS3505
ZBTJ,1988-11-15 05:24,ZBTJ 150524Z AUTO 36010KT 6SM 08/M09 A3027 RMK T00801090 IEM_DS3505
ZBTJ,1988-11-15 05:27,ZBTJ 150527Z AUTO 36010KT 6SM 08/M09 A3027 RMK T00801090 IEM_DS3505
ZBTJ,1988-11-15 06:00,ZBTJ 150600Z AUTO 36010KT 6SM 08/M09 A3027 RMK T00801090 IEM_DS3505
ZBTJ,1988-11-15 07:00,ZBTJ 150700Z AUTO 33010KT 6SM 08/M08 A3027 RMK T00801080 IEM_DS3505
ZBTJ,1988-11-15 08:00,ZBTJ 150800Z AUTO 33010KT 6SM 08/M08 A3027 RMK T00801080 IEM_DS3505
ZBTJ,1988-11-15 09:00,ZBTJ 150900Z AUTO 00000KT 6SM 03/M06 A3030 RMK T00301060 IEM_DS3505
ZBTJ,1988-11-15 09:22,ZBTJ 150922Z AUTO 34008KT 6SM 05/M08 A3027 RMK T00501080 IEM_DS3505
ZBTJ,1988-11-15 09:26,ZBTJ 150926Z AUTO 34008KT 6SM 05/M08 A3027 RMK T00501080 IEM_DS3505
ZBTJ,1988-11-15 09:30,ZBTJ 150930Z AUTO 34008KT 6SM 05/M08 A3027 RMK T00501080 IEM_DS3505
ZBTJ,1988-11-15 09:33,ZBTJ 150933Z AUTO 33010KT 6SM 08/M08 A3027 RMK T00801080 IEM_DS3505
ZBTJ,1988-11-15 10:00,ZBTJ 151000Z AUTO 00000KT 6SM 03/M06 A3030 RMK T00301060 IEM_DS3505
ZBTJ,1988-11-15 11:00,ZBTJ 151100Z AUTO 00000KT 6SM 00/M05 A3033 RMK T00001050 IEM_DS3505
ZBTJ,1988-11-15 12:00,ZBTJ 151200Z AUTO 28004KT 7SM 00/M06 A3033 RMK T00001060 IEM_DS3505
ZBTJ,1988-11-15 12:26,ZBTJ 151226Z AUTO 00000KT 6SM 00/M05 A3033 RMK T00001050 IEM_DS3505
ZBTJ,1988-11-15 13:00,ZBTJ 151300Z AUTO 28004KT 7SM 00/M06 A3033 RMK T00001060 IEM_DS3505
ZBTJ,1988-11-15 13:33,ZBTJ 151333Z AUTO 28004KT 7SM 00/M06 A3033 RMK T00001060 IEM_DS3505
ZBTJ,1988-11-15 14:15,ZBTJ 151415Z AUTO 28004KT 7SM 00/M06 A3033 RMK T00001060 IEM_DS3505
ZBTJ,1988-11-15 21:00,ZBTJ 152100Z AUTO 28004KT 5SM 00/M07 A3033 RMK T00001070 IEM_DS3505
ZBTJ,1988-11-15 22:00,ZBTJ 152200Z AUTO 28004KT 5SM 00/M07 A3033 RMK T00001070 IEM_DS3505
ZBTJ,1988-11-15 22:22,ZBTJ 152222Z AUTO 28004KT 5SM 00/M07 A3033 RMK T00001070 IEM_DS3505
ZBTJ,1988-11-15 23:00,ZBTJ 152300Z AUTO 33010KT 7SM 01/M09 A3036 RMK T00101090 IEM_DS3505
ZBTJ,1988-11-16 00:00,ZBTJ 160000Z AUTO 33010KT 7SM 01/M09 A3036 RMK T00101090 IEM_DS3505
ZBTJ,1988-11-16 00:12,ZBTJ 160012Z AUTO 33010KT 7SM 01/M09 A3036 RMK T00101090 IEM_DS3505
ZBTJ,1988-11-16 01:00,ZBTJ 160100Z AUTO 33002KT 7SM 04/M10 A3036 RMK T00401100 IEM_DS3505
ZBTJ,1988-11-16 04:00,ZBTJ 160400Z AUTO 33012KT 7SM 09/M06 A3030 RMK T00901060 IEM_DS3505
ZBTJ,1988-11-16 04:24,ZBTJ 160424Z AUTO 33012KT 7SM 09/M06 A3030 RMK T00901060 IEM_DS3505
ZBTJ,1988-11-16 04:30,ZBTJ 160430Z AUTO 33012KT 7SM 09/M06 A3030 RMK T00901060 IEM_DS3505
ZBTJ,1988-11-16 05:00,ZBTJ 160500Z AUTO 33008KT 7SM 10/M13 A3027 RMK T01001130 IEM_DS3505
ZBTJ,1988-11-16 06:00,ZBTJ 160600Z AUTO 35010KT 7SM 10/M13 A3024 RMK T01001130 IEM_DS3505
ZBTJ,1988-11-16 08:00,ZBTJ 160800Z AUTO 33006KT 7SM 09/M09 A3024 RMK T00901090 IEM_DS3505
ZBTJ,1988-11-16 09:00,ZBTJ 160900Z AUTO 00000KT 7SM 07/M06 A3024 RMK T00701060 IEM_DS3505
ZBTJ,1988-11-16 10:00,ZBTJ 161000Z AUTO 14006KT 7SM 03/M07 A3024 RMK T00301070 IEM_DS3505
ZBTJ,1988-11-16 10:18,ZBTJ 161018Z AUTO 10002KT 7SM 04/M07 A3024 RMK T00401070 IEM_DS3505
ZBTJ,1988-11-16 11:00,ZBTJ 161100Z AUTO 14006KT 7SM 03/M07 A3024 RMK T00301070 IEM_DS3505
ZBTJ,1988-11-16 21:00,ZBTJ 162100Z AUTO 00000KT 7SM M03/M06 A3021 RMK T10301060 IEM_DS3505
ZBTJ,1988-11-16 22:00,ZBTJ 162200Z AUTO 00000KT 7SM M03/M05 A3021 RMK T10301050 IEM_DS3505
ZBTJ,1988-11-16 22:24,ZBTJ 162224Z AUTO 00000KT 7SM M03/M05 A3021 RMK T10301050 IEM_DS3505
ZBTJ,1988-11-17 00:00,ZBTJ 170000Z AUTO 00000KT 1 1/2SM M03/M05 A3024 RMK T10301050 IEM_DS3505
ZBTJ,1988-11-17 00:20,ZBTJ 170020Z AUTO 00000KT 1 1/2SM M03/M05 A3024 RMK T10301050 IEM_DS3505
ZBTJ,1988-11-17 00:21,ZBTJ 170021Z AUTO 00000KT 1 1/2SM M03/M05 A3024 RMK T10301050 IEM_DS3505
ZBTJ,1988-11-17 01:30,ZBTJ 170130Z AUTO 36012KT 6SM A3024 RMK IEM_DS3505
ZBTJ,1988-11-17 02:24,ZBTJ 170224Z AUTO 28004KT 2 1/2SM 07/M08 A3027 RMK T00701080 IEM_DS3505
ZBTJ,1988-11-17 02:26,ZBTJ 170226Z AUTO 28004KT 2 1/2SM 07/M08 A3027 RMK T00701080 IEM_DS3505
ZBTJ,1988-11-17 02:29,ZBTJ 170229Z AUTO 28004KT 2 1/2SM 07/M08 A3027 RMK T00701080 IEM_DS3505
ZBTJ,1988-11-17 03:00,ZBTJ 170300Z AUTO 32006KT 3SM 09/M10 A2997 RMK T00901100 IEM_DS3505
ZBTJ,1988-11-17 03:31,ZBTJ 170331Z AUTO 32006KT 3SM 09/M10 A2997 RMK T00901100 IEM_DS3505
ZBTJ,1988-11-17 04:00,ZBTJ 170400Z AUTO 34006KT 4SM 10/M06 A3024 RMK T01001060 IEM_DS3505
ZBTJ,1988-11-17 05:00,ZBTJ 170500Z AUTO 36012KT 6SM 10/M08 A3024 RMK T01001080 IEM_DS3505
ZBTJ,1988-11-17 05:30,ZBTJ 170530Z AUTO 36012KT 6SM 10/M08 A3024 RMK T01001080 IEM_DS3505
ZBTJ,1988-11-17 06:00,ZBTJ 170600Z AUTO 35012KT 6SM 10/M08 A3021 RMK T01001080 IEM_DS3505
ZBTJ,1988-11-17 06:23,ZBTJ 170623Z AUTO 34010KT 6SM 11/M08 A3021 RMK T01101080 IEM_DS3505
ZBTJ,1988-11-17 06:27,ZBTJ 170627Z AUTO 34010KT 6SM 11/M08 A3021 RMK T01101080 IEM_DS3505
ZBTJ,1988-11-17 07:00,ZBTJ 170700Z AUTO 35012KT 6SM 10/M08 A3021 RMK T01001080 IEM_DS3505
ZBTJ,1988-11-17 08:00,ZBTJ 170800Z AUTO 34004KT 6SM 08/M05 A3024 RMK T00801050 IEM_DS3505
ZBTJ,1988-11-17 08:27,ZBTJ 170827Z AUTO 33010KT 6SM 10/M08 A3024 RMK T01001080 IEM_DS3505
ZBTJ,1988-11-17 09:26,ZBTJ 170926Z AUTO 34004KT 6SM 08/M05 A3024 RMK T00801050 IEM_DS3505
ZBTJ,1988-11-17 10:00,ZBTJ 171000Z AUTO 33004KT 6SM 05/M05 A3027 RMK T00501050 IEM_DS3505
ZBTJ,1988-11-17 11:00,ZBTJ 171100Z AUTO 34008KT 6SM 04/M07 A3030 RMK T00401070 IEM_DS3505
ZBTJ,1988-11-17 11:36,ZBTJ 171136Z AUTO 34008KT 6SM 04/M07 A3030 RMK T00401070 IEM_DS3505
ZBTJ,1988-11-17 12:00,ZBTJ 171200Z AUTO 00000KT 6SM 02/M04 A3030 RMK T00201040 IEM_DS3505
ZBTJ,1988-11-17 13:00,ZBTJ 171300Z AUTO 32004KT 6SM 02/M04 A3033 RMK T00201040 IEM_DS3505
ZBTJ,1988-11-17 13:40,ZBTJ 171340Z AUTO 32004KT 6SM 02/M04 A3033 RMK T00201040 IEM_DS3505
ZBTJ,1988-11-17 14:00,ZBTJ 171400Z AUTO 29004KT 6SM 02/M05 A3033 RMK T00201050 IEM_DS3505
ZBTJ,1988-11-17 15:00,ZBTJ 171500Z AUTO 32006KT 6SM 01/M05 A3036 RMK T00101050 IEM_DS3505
ZBTJ,1988-11-17 15:12,ZBTJ 171512Z AUTO 29004KT 6SM 02/M05 A3033 RMK T00201050 IEM_DS3505
ZBTJ,1988-11-17 16:01,ZBTJ 171601Z AUTO 32006KT 6SM 01/M05 A3036 RMK T00101050 IEM_DS3505
ZBTJ,1988-11-17 23:00,ZBTJ 172300Z AUTO 35006KT 7SM M03/M06 A3047 RMK T10301060 IEM_DS3505
ZBTJ,1988-11-17 23:09,ZBTJ 172309Z AUTO 35006KT 7SM M03/M06 A3047 RMK T10301060 IEM_DS3505
ZBTJ,1988-11-17 23:27,ZBTJ 172327Z AUTO 35006KT 7SM M03/M06 A3047 RMK T10301060 IEM_DS3505
ZBTJ,1988-11-18 00:00,ZBTJ 180000Z AUTO 03006KT 7SM M02/M06 A3050 RMK T10201060 IEM_DS3505
ZBTJ,1988-11-18 00:28,ZBTJ 180028Z AUTO 03006KT 7SM M02/M06 A3050 RMK T10201060 IEM_DS3505
ZBTJ,1988-11-18 01:00,ZBTJ 180100Z AUTO 06006KT 7SM 04/M06 A3053 RMK T00401060 IEM_DS3505
ZBTJ,1988-11-18 01:22,ZBTJ 180122Z AUTO 06006KT 7SM 04/M06 A3053 RMK T00401060 IEM_DS3505
ZBTJ,1988-11-18 01:30,ZBTJ 180130Z AUTO 06006KT 7SM 04/M06 A3053 RMK T00401060 IEM_DS3505
ZBTJ,1988-11-18 02:00,ZBTJ 180200Z AUTO 12004KT 7SM 09/M06 A3053 RMK T00901060 IEM_DS3505
ZBTJ,1988-11-18 02:20,ZBTJ 180220Z AUTO 10008KT 7SM 07/M07 A3053 RMK T00701070 IEM_DS3505
ZBTJ,1988-11-18 02:24,ZBTJ 180224Z AUTO 10008KT 7SM 07/M07 A3053 RMK T00701070 IEM_DS3505
ZBTJ,1988-11-18 03:00,ZBTJ 180300Z AUTO 12004KT 7SM 09/M06 A3053 RMK T00901060 IEM_DS3505
ZBTJ,1988-11-18 04:00,ZBTJ 180400Z AUTO 00000KT 7SM 09/M08 A3050 RMK T00901080 IEM_DS3505
ZBTJ,1988-11-18 04:24,ZBTJ 180424Z AUTO 00000KT 7SM 09/M08 A3050 RMK T00901080 IEM_DS3505
ZBTJ,1988-11-18 05:00,ZBTJ 180500Z AUTO 33006KT 7SM 09/M08 A3047 RMK T00901080 IEM_DS3505
ZBTJ,1988-11-18 05:20,ZBTJ 180520Z AUTO 33006KT 7SM 09/M08 A3047 RMK T00901080 IEM_DS3505
ZBTJ,1988-11-18 05:53,ZBTJ 180553Z AUTO 33006KT 7SM 09/M08 A3047 RMK T00901080 IEM_DS3505
ZBTJ,1988-11-18 07:00,ZBTJ 180700Z AUTO 33004KT 7SM 09/M07 A3045 RMK T00901070 IEM_DS3505
ZBTJ,1988-11-18 07:24,ZBTJ 180724Z AUTO 33004KT 7SM 09/M07 A3045 RMK T00901070 IEM_DS3505
ZBTJ,1988-11-18 07:27,ZBTJ 180727Z AUTO 33004KT 7SM 09/M07 A3045 RMK T00901070 IEM_DS3505
ZBTJ,1988-11-18 08:00,ZBTJ 180800Z AUTO 00000KT 6SM 09/M04 A3045 RMK T00901040 IEM_DS3505
ZBTJ,1988-11-18 09:00,ZBTJ 180900Z AUTO 15004KT 6SM RMK IEM_DS3505
ZBTJ,1988-11-18 09:26,ZBTJ 180926Z AUTO 15004KT 6SM RMK IEM_DS3505
ZBTJ,1988-11-18 09:27,ZBTJ 180927Z AUTO 15004KT 6SM RMK IEM_DS3505
ZBTJ,1988-11-18 21:00,ZBTJ 182100Z AUTO 19002KT 7SM M01/M03 A3024 RMK T10101030 IEM_DS3505
ZBTJ,1988-11-18 22:18,ZBTJ 182218Z AUTO 17004KT 6SM 02/M03 A3027 RMK T00201030 IEM_DS3505
ZBTJ,1988-11-18 22:25,ZBTJ 182225Z AUTO 17004KT 6SM 02/M03 A3027 RMK T00201030 IEM_DS3505
ZBTJ,1988-11-18 23:00,ZBTJ 182300Z AUTO 19002KT 7SM M01/M03 A3024 RMK T10101030 IEM_DS3505
ZBTJ,1988-11-18 23:25,ZBTJ 182325Z AUTO 19002KT 7SM M01/M03 A3024 RMK T10101030 IEM_DS3505
ZBTJ,1988-11-19 00:00,ZBTJ 190000Z AUTO 16004KT 4SM 01/M03 A3024 RMK T00101030 IEM_DS3505
ZBTJ,1988-11-19 01:00,ZBTJ 190100Z AUTO 18004KT 4SM 04/M03 A3021 RMK T00401030 IEM_DS3505
ZBTJ,1988-11-19 01:29,ZBTJ 190129Z AUTO 18004KT 4SM 04/M03 A3021 RMK T00401030 IEM_DS3505
ZBTJ,1988-11-19 02:00,ZBTJ 190200Z AUTO 21006KT 5SM 06/M05 A3018 RMK T00601050 IEM_DS3505
ZBTJ,1988-11-19 02:26,ZBTJ 190226Z AUTO 21006KT 5SM 06/M05 A3018 RMK T00601050 IEM_DS3505
ZBTJ,1988-11-19 03:00,ZBTJ 190300Z AUTO 24004KT 4SM 08/M04 A3018 RMK T00801040 IEM_DS3505
ZBTJ,1988-11-19 03:24,ZBTJ 190324Z AUTO 24004KT 4SM 08/M04 A3018 RMK T00801040 IEM_DS3505
ZBTJ,1988-11-19 04:00,ZBTJ 190400Z AUTO 26006KT 3SM 10/M04 A3015 RMK T01001040 IEM_DS3505
ZBTJ,1988-11-19 04:27,ZBTJ 190427Z AUTO 26006KT 3SM 10/M04 A3015 RMK T01001040 IEM_DS3505
ZBTJ,1988-11-19 04:40,ZBTJ 190440Z AUTO 26006KT 3SM 10/M04 A3015 RMK T01001040 IEM_DS3505
ZBTJ,1988-11-19 05:00,ZBTJ 190500Z AUTO 21006KT 4SM 11/M03 A3009 RMK T01101030 IEM_DS3505
ZBTJ,1988-11-19 05:26,ZBTJ 190526Z AUTO 21006KT 4SM 11/M03 A3009 RMK T01101030 IEM_DS3505
ZBTJ,1988-11-19 06:00,ZBTJ 190600Z AUTO 19006KT 4SM 11/M03 A3006 RMK T01101030 IEM_DS3505
ZBTJ,1988-11-19 06:15,ZBTJ 190615Z AUTO 19006KT 4SM 11/M03 A3006 RMK T01101030 IEM_DS3505
ZBTJ,1988-11-19 07:00,ZBTJ 190700Z AUTO 22006KT 4SM 12/M02 A3006 RMK T01201020 IEM_DS3505
ZBTJ,1988-11-19 08:00,ZBTJ 190800Z AUTO 23006KT 5SM 11/M02 A3006 RMK T01101020 IEM_DS3505
ZBTJ,1988-11-19 08:23,ZBTJ 190823Z AUTO 23006KT 5SM 11/M02 A3006 RMK T01101020 IEM_DS3505
ZBTJ,1988-11-19 08:27,ZBTJ 190827Z AUTO 23006KT 5SM 11/M02 A3006 RMK T01101020 IEM_DS3505
ZBTJ,1988-11-19 09:06,ZBTJ 190906Z AUTO 25006KT 4SM 09/M01 A3006 RMK T00901010 IEM_DS3505
ZBTJ,1988-11-19 09:23,ZBTJ 190923Z AUTO 25006KT 4SM 09/M01 A3006 RMK T00901010 IEM_DS3505
ZBTJ,1988-11-19 09:30,ZBTJ 190930Z AUTO 25006KT 4SM 09/M01 A3006 RMK T00901010 IEM_DS3505
ZBTJ,1988-11-19 10:15,ZBTJ 191015Z AUTO 00000KT 3SM 06/M01 A3006 RMK T00601010 IEM_DS3505
ZBTJ,1988-11-19 11:00,ZBTJ 191100Z AUTO 19004KT 3SM 06/M01 A3006 RMK T00601010 IEM_DS3505
ZBTJ,1988-11-19 11:05,ZBTJ 191105Z AUTO 00000KT 3SM 06/M01 A3006 RMK T00601010 IEM_DS3505
ZBTJ,1988-11-19 11:24,ZBTJ 191124Z AUTO 19004KT 3SM 06/M01 A3006 RMK T00601010 IEM_DS3505
ZBTJ,1988-11-19 11:30,ZBTJ 191130Z AUTO 19004KT 3SM 06/M01 A3006 RMK T00601010 IEM_DS3505
ZBTJ,1988-11-19 12:00,ZBTJ 191200Z AUTO 12004KT 3SM 03/M01 A3009 RMK T00301010 IEM_DS3505
ZBTJ,1988-11-19 12:14,ZBTJ 191214Z AUTO 12004KT 3SM 03/M01 A3009 RMK T00301010 IEM_DS3505
ZBTJ,1988-11-19 12:24,ZBTJ 191224Z AUTO 12004KT 3SM 03/M01 A3009 RMK T00301010 IEM_DS3505
ZBTJ,1988-11-19 14:00,ZBTJ 191400Z AUTO 05004KT 3SM 02/M01 A3009 RMK T00201010 IEM_DS3505
ZBTJ,1988-11-19 14:24,ZBTJ 191424Z AUTO 05004KT 3SM 02/M01 A3009 RMK T00201010 IEM_DS3505
ZBTJ,1988-11-19 22:00,ZBTJ 192200Z AUTO 02006KT 7SM 00/M03 A3018 RMK T00001030 IEM_DS3505
ZBTJ,1988-11-19 22:25,ZBTJ 192225Z AUTO 02006KT 7SM 00/M03 A3018 RMK T00001030 IEM_DS3505
ZBTJ,1988-11-19 23:00,ZBTJ 192300Z AUTO 00000KT 4SM M01/M03 A3021 RMK T10101030 IEM_DS3505
ZBTJ,1988-11-20 00:00,ZBTJ 200000Z AUTO 06006KT 2 1/2SM M01/M03 A3024 RMK T10101030 IEM_DS3505
ZBTJ,1988-11-20 00:27,ZBTJ 200027Z AUTO 06006KT 2 1/2SM M01/M03 A3024 RMK T10101030 IEM_DS3505
ZBTJ,1988-11-20 00:48,ZBTJ 200048Z AUTO 06006KT 2 1/2SM M01/M03 A3024 RMK T10101030 IEM_DS3505
ZBTJ,1988-11-20 01:00,ZBTJ 200100Z AUTO 09010KT 4SM A3027 RMK IEM_DS3505
ZBTJ,1988-11-20 01:22,ZBTJ 200122Z AUTO 09002KT 2SM 05/M01 A3027 RMK T00501010 IEM_DS3505
ZBTJ,1988-11-20 01:31,ZBTJ 200131Z AUTO 09002KT 2SM 05/M01 A3027 RMK T00501010 IEM_DS3505
ZBTJ,1988-11-20 02:00,ZBTJ 200200Z AUTO 11012KT 7SM A3024 RMK IEM_DS3505
ZBTJ,1988-11-20 02:27,ZBTJ 200227Z AUTO 09010KT 4SM 09/M01 A3027 RMK T00901010 IEM_DS3505
ZBTJ,1988-11-20 03:20,ZBTJ 200320Z AUTO 09012KT 7SM 13/M03 A3027 RMK T01301030 IEM_DS3505
ZBTJ,1988-11-20 03:24,ZBTJ 200324Z AUTO 09012KT 7SM 13/M03 A3027 RMK T01301030 IEM_DS3505
ZBTJ,1988-11-20 03:27,ZBTJ 200327Z AUTO 09012KT 7SM 13/M03 A3027 RMK T01301030 IEM_DS3505
ZBTJ,1988-11-20 04:00,ZBTJ 200400Z AUTO 11012KT 7SM 14/M02 A3024 RMK T01401020 IEM_DS3505
ZBTJ,1988-11-20 04:26,ZBTJ 200426Z AUTO 11012KT 7SM 14/M02 A3024 RMK T01401020 IEM_DS3505
ZBTJ,1988-11-20 05:00,ZBTJ 200500Z AUTO 12012KT 7SM 14/M01 A3021 RMK T01401010 IEM_DS3505
ZBTJ,1988-11-20 05:27,ZBTJ 200527Z AUTO 12012KT 7SM 14/M01 A3021 RMK T01401010 IEM_DS3505
ZBTJ,1988-11-20 06:00,ZBTJ 200600Z AUTO 14012KT 7SM 13/03 A3021 RMK T01300030 IEM_DS3505
ZBTJ,1988-11-20 06:30,ZBTJ 200630Z AUTO 14012KT 7SM 13/03 A3021 RMK T01300030 IEM_DS3505
ZBTJ,1988-11-20 07:00,ZBTJ 200700Z AUTO 15010KT 7SM 13/03 A3018 RMK T01300030 IEM_DS3505
ZBTJ,1988-11-20 07:18,ZBTJ 200718Z AUTO 15010KT 7SM 13/03 A3018 RMK T01300030 IEM_DS3505
ZBTJ,1988-11-20 07:24,ZBTJ 200724Z AUTO 15010KT 7SM 13/03 A3018 RMK T01300030 IEM_DS3505
ZBTJ,1988-11-20 08:00,ZBTJ 200800Z AUTO 15010KT 7SM 12/03 A3018 RMK T01200030 IEM_DS3505
ZBTJ,1988-11-20 08:26,ZBTJ 200826Z AUTO 15010KT 7SM 12/03 A3018 RMK T01200030 IEM_DS3505
ZBTJ,1988-11-20 09:13,ZBTJ 200913Z AUTO 15008KT 7SM 09/04 A3018 RMK T00900040 IEM_DS3505
ZBTJ,1988-11-20 10:19,ZBTJ 201019Z AUTO 14006KT 7SM 07/03 A3018 RMK T00700030 IEM_DS3505
ZBTJ,1988-11-20 10:26,ZBTJ 201026Z AUTO 14006KT 7SM 07/03 A3018 RMK T00700030 IEM_DS3505
ZBTJ,1988-11-20 10:30,ZBTJ 201030Z AUTO 14006KT 7SM 07/03 A3018 RMK T00700030 IEM_DS3505
ZBTJ,1988-11-20 11:00,ZBTJ 201100Z AUTO 12006KT 7SM 05/03 A3021 RMK T00500030 IEM_DS3505
ZBTJ,1988-11-20 11:26,ZBTJ 201126Z AUTO 12006KT 7SM 05/03 A3021 RMK T00500030 IEM_DS3505
ZBTJ,1988-11-20 12:00,ZBTJ 201200Z AUTO 11006KT 7SM 03/02 A3021 RMK T00300020 IEM_DS3505
ZBTJ,1988-11-20 12:24,ZBTJ 201224Z AUTO 11006KT 7SM 03/02 A3021 RMK T00300020 IEM_DS3505
ZBTJ,1988-11-20 12:27,ZBTJ 201227Z AUTO 11006KT 7SM 03/02 A3021 RMK T00300020 IEM_DS3505
ZBTJ,1988-11-20 13:00,ZBTJ 201300Z AUTO 11006KT 7SM 03/02 A3021 RMK T00300020 IEM_DS3505
ZBTJ,1988-11-20 18:00,ZBTJ 201800Z AUTO 11006KT 7SM 03/02 A3021 RMK T00300020 IEM_DS3505
ZBTJ,1988-11-20 23:00,ZBTJ 202300Z AUTO 35004KT 1SM M01/M01 A3015 RMK T10101010 IEM_DS3505
ZBTJ,1988-11-21 00:00,ZBTJ 210000Z AUTO 35006KT 1 1/2SM 00/ A3015 RMK IEM_DS3505
ZBTJ,1988-11-21 00:26,ZBTJ 210026Z AUTO 35006KT 1 1/2SM 00/ A3015 RMK IEM_DS3505
ZBTJ,1988-11-21 01:00,ZBTJ 210100Z AUTO 36002KT 2 1/2SM 02/01 A3015 RMK T00200010 IEM_DS3505
ZBTJ,1988-11-21 01:26,ZBTJ 210126Z AUTO 36002KT 2 1/2SM 02/01 A3015 RMK T00200010 IEM_DS3505
ZBTJ,1988-11-21 02:00,ZBTJ 210200Z AUTO 35006KT 1 1/2SM 00/ A3015 RMK IEM_DS3505
ZBTJ,1988-11-21 03:00,ZBTJ 210300Z AUTO 36004KT 3SM A3012 RMK IEM_DS3505
ZBTJ,1988-11-21 05:00,ZBTJ 210500Z AUTO 36004KT 3SM 09/05 A3012 RMK T00900050 IEM_DS3505
ZBTJ,1988-11-21 05:15,ZBTJ 210515Z AUTO 01006KT 6SM 13/06 A3006 RMK T01300060 IEM_DS3505
ZBTJ,1988-11-21 05:27,ZBTJ 210527Z AUTO 01006KT 6SM 13/06 A3006 RMK T01300060 IEM_DS3505
ZBTJ,1988-11-21 06:00,ZBTJ 210600Z AUTO 01006KT 6SM 13/06 A3006 RMK T01300060 IEM_DS3505
ZBTJ,1988-11-21 06:27,ZBTJ 210627Z AUTO 00000KT 6SM 14/07 A3003 RMK T01400070 IEM_DS3505
ZBTJ,1988-11-21 06:28,ZBTJ 210628Z AUTO 00000KT 6SM 14/07 A3003 RMK T01400070 IEM_DS3505
ZBTJ,1988-11-21 06:30,ZBTJ 210630Z AUTO 09004KT 7SM 13/07 A3000 RMK T01300070 IEM_DS3505
ZBTJ,1988-11-21 07:00,ZBTJ 210700Z AUTO 00000KT 6SM 14/07 A3003 RMK T01400070 IEM_DS3505
ZBTJ,1988-11-21 08:00,ZBTJ 210800Z AUTO 10004KT 7SM 10/07 A3000 RMK T01000070 IEM_DS3505
ZBTJ,1988-11-21 09:00,ZBTJ 210900Z AUTO 10004KT 7SM 10/07 A3000 RMK T01000070 IEM_DS3505
ZBTJ,1988-11-21 09:28,ZBTJ 210928Z AUTO 10004KT 7SM 10/07 A3000 RMK T01000070 IEM_DS3505
ZBTJ,1988-11-21 10:00,ZBTJ 211000Z AUTO 12002KT 4SM 08/05 A3003 RMK T00800050 IEM_DS3505
ZBTJ,1988-11-21 10:24,ZBTJ 211024Z AUTO 12002KT 4SM 08/05 A3003 RMK T00800050 IEM_DS3505
ZBTJ,1988-11-21 11:00,ZBTJ 211100Z AUTO 10004KT 7SM 10/07 A3000 RMK T01000070 IEM_DS3505
ZBTJ,1988-11-21 11:24,ZBTJ 211124Z AUTO 09004KT 7SM 13/07 A3000 RMK T01300070 IEM_DS3505
ZBTJ,1988-11-21 11:27,ZBTJ 211127Z AUTO 18002KT 3SM 06/04 RMK T00600040 IEM_DS3505
ZBTJ,1988-11-21 12:00,ZBTJ 211200Z AUTO 18002KT 3SM 06/04 RMK T00600040 IEM_DS3505
ZBTJ,1988-11-21 21:00,ZBTJ 212100Z AUTO 31004KT 1/2SM 02/01 A3000 RMK T00200010 IEM_DS3505
ZBTJ,1988-11-21 22:00,ZBTJ 212200Z AUTO 31004KT 1/2SM 02/01 A3000 RMK T00200010 IEM_DS3505
ZBTJ,1988-11-21 22:24,ZBTJ 212224Z AUTO 31004KT 1/2SM 02/01 A3000 RMK T00200010 IEM_DS3505
ZBTJ,1988-11-21 22:27,ZBTJ 212227Z AUTO 31004KT 1/2SM 02/01 A3000 RMK T00200010 IEM_DS3505
ZBTJ,1988-11-21 22:30,ZBTJ 212230Z AUTO 31004KT 1/2SM 02/01 A3000 RMK T00200010 IEM_DS3505
ZBTJ,1988-11-21 23:00,ZBTJ 212300Z AUTO 32008KT 1 1/4SM 01/01 A3003 RMK T00100010 IEM_DS3505
ZBTJ,1988-11-21 23:25,ZBTJ 212325Z AUTO 32008KT 1 1/4SM 01/01 A3003 RMK T00100010 IEM_DS3505
ZBTJ,1988-11-21 23:30,ZBTJ 212330Z AUTO 32008KT 1 1/4SM 01/01 A3003 RMK T00100010 IEM_DS3505
ZBTJ,1988-11-22 00:00,ZBTJ 220000Z AUTO 33014KT 7SM 05/M01 A3006 RMK T00501010 IEM_DS3505
ZBTJ,1988-11-22 00:24,ZBTJ 220024Z AUTO 33014KT 7SM 05/M01 A3006 RMK T00501010 IEM_DS3505
ZBTJ,1988-11-22 00:27,ZBTJ 220027Z AUTO 33014KT 7SM 05/M01 A3006 RMK T00501010 IEM_DS3505
ZBTJ,1988-11-22 01:00,ZBTJ 220100Z AUTO 33027KT 7SM 10/M09 A3015 RMK T01001090 IEM_DS3505
ZBTJ,1988-11-22 01:24,ZBTJ 220124Z AUTO 33019KT 7SM 08/M02 A3012 RMK T00801020 IEM_DS3505
ZBTJ,1988-11-22 03:00,ZBTJ 220300Z AUTO 33027KT 7SM 10/M09 A3015 RMK T01001090 IEM_DS3505
ZBTJ,1988-11-22 03:27,ZBTJ 220327Z AUTO 33027KT 7SM 10/M09 A3015 RMK T01001090 IEM_DS3505
ZBTJ,1988-11-22 04:00,ZBTJ 220400Z AUTO 34019KT 7SM 09/M15 A3018 RMK T00901150 IEM_DS3505
ZBTJ,1988-11-22 04:23,ZBTJ 220423Z AUTO 33019KT 6SM 10/M15 A3015 RMK T01001150 IEM_DS3505
ZBTJ,1988-11-22 04:27,ZBTJ 220427Z AUTO 33019KT 7SM 10/M12 A3015 RMK T01001120 IEM_DS3505
ZBTJ,1988-11-22 05:00,ZBTJ 220500Z AUTO 33019KT 7SM 10/M12 A3015 RMK T01001120 IEM_DS3505
ZBTJ,1988-11-22 07:00,ZBTJ 220700Z AUTO 34019KT 7SM 09/M15 A3018 RMK T00901150 IEM_DS3505
ZBTJ,1988-11-22 07:30,ZBTJ 220730Z AUTO 34019KT 7SM 09/M15 A3018 RMK T00901150 IEM_DS3505
ZBTJ,1988-11-22 08:00,ZBTJ 220800Z AUTO 34008KT 7SM 06/M12 A3021 RMK T00601120 IEM_DS3505
ZBTJ,1988-11-22 09:00,ZBTJ 220900Z AUTO 34008KT 7SM 06/M12 A3021 RMK T00601120 IEM_DS3505
ZBTJ,1988-11-22 10:00,ZBTJ 221000Z AUTO 33008KT 7SM 04/M12 A3024 RMK T00401120 IEM_DS3505
ZBTJ,1988-11-22 10:26,ZBTJ 221026Z AUTO 33008KT 7SM 04/M12 A3024 RMK T00401120 IEM_DS3505
ZBTJ,1988-11-22 11:00,ZBTJ 221100Z AUTO 33008KT 7SM 04/M12 A3024 RMK T00401120 IEM_DS3505
ZBTJ,1988-11-22 11:19,ZBTJ 221119Z AUTO 31008KT 7SM 03/M14 A3024 RMK T00301140 IEM_DS3505
ZBTJ,1988-11-22 11:24,ZBTJ 221124Z AUTO 31008KT 7SM 03/M14 A3024 RMK T00301140 IEM_DS3505
ZBTJ,1988-11-22 12:00,ZBTJ 221200Z AUTO 30004KT 7SM 03/M12 A3027 RMK T00301120 IEM_DS3505
ZBTJ,1988-11-22 12:27,ZBTJ 221227Z AUTO 30004KT 7SM 03/M12 A3027 RMK T00301120 IEM_DS3505
ZBTJ,1988-11-22 13:00,ZBTJ 221300Z AUTO 30012KT 6SM 03/M14 A3030 RMK T00301140 IEM_DS3505
ZBTJ,1988-11-22 13:29,ZBTJ 221329Z AUTO 30012KT 6SM 03/M14 A3030 RMK T00301140 IEM_DS3505
ZBTJ,1988-11-22 23:00,ZBTJ 222300Z AUTO 32017KT 7SM 00/M09 A3030 RMK T00001090 IEM_DS3505
ZBTJ,1988-11-22 23:24,ZBTJ 222324Z AUTO 32017KT 7SM 00/M09 A3030 RMK T00001090 IEM_DS3505
ZBTJ,1988-11-23 00:20,ZBTJ 230020Z AUTO 34008KT 7SM 02/M13 A3030 RMK T00201130 IEM_DS3505
ZBTJ,1988-11-23 00:23,ZBTJ 230023Z AUTO 34008KT 7SM 02/M13 A3030 RMK T00201130 IEM_DS3505
ZBTJ,1988-11-23 00:36,ZBTJ 230036Z AUTO 34008KT 7SM 02/M13 A3030 RMK T00201130 IEM_DS3505
ZBTJ,1988-11-23 01:00,ZBTJ 230100Z AUTO 34008KT 7SM 02/M13 A3030 RMK T00201130 IEM_DS3505
ZBTJ,1988-11-23 01:25,ZBTJ 230125Z AUTO 32006KT 7SM 03/M09 A3030 RMK T00301090 IEM_DS3505
ZBTJ,1988-11-23 01:30,ZBTJ 230130Z AUTO 32006KT 7SM 03/M09 A3030 RMK T00301090 IEM_DS3505
ZBTJ,1988-11-23 02:00,ZBTJ 230200Z AUTO 32012KT 7SM 05/M14 A3030 RMK T00501140 IEM_DS3505
ZBTJ,1988-11-23 23:00,ZBTJ 232300Z AUTO 35012KT 7SM M02/M17 A3042 RMK T10201170 IEM_DS3505
ZBTJ,1988-11-23 23:32,ZBTJ 232332Z AUTO 35012KT 7SM M02/M17 A3042 RMK T10201170 IEM_DS3505
ZBTJ,1988-11-23 23:57,ZBTJ 232357Z AUTO 33014KT 7SM 00/M13 A3042 RMK T00001130 IEM_DS3505
ZBTJ,1988-11-24 00:00,ZBTJ 240000Z AUTO 33014KT 7SM 00/M13 A3042 RMK T00001130 IEM_DS3505
ZBTJ,1988-11-24 00:27,ZBTJ 240027Z AUTO 33014KT 7SM 00/M13 A3042 RMK T00001130 IEM_DS3505
ZBTJ,1988-11-24 01:00,ZBTJ 240100Z AUTO 33014KT 7SM 01/M16 A3042 RMK T00101160 IEM_DS3505
ZBTJ,1988-11-24 01:15,ZBTJ 240115Z AUTO 33014KT 7SM 01/M16 A3042 RMK T00101160 IEM_DS3505
ZBTJ,1988-11-24 02:00,ZBTJ 240200Z AUTO 34016KT 7SM 03/M13 A3042 RMK T00301130 IEM_DS3505
ZBTJ,1988-11-24 02:24,ZBTJ 240224Z AUTO 34016KT 7SM 03/M13 A3042 RMK T00301130 IEM_DS3505
ZBTJ,1988-11-24 03:14,ZBTJ 240314Z AUTO 33017KT 7SM 05/M14 A3039 RMK T00501140 IEM_DS3505
ZBTJ,1988-11-24 03:30,ZBTJ 240330Z AUTO 33017KT 7SM 05/M14 A3039 RMK T00501140 IEM_DS3505
ZBTJ,1988-11-24 04:00,ZBTJ 240400Z AUTO 32014KT 7SM 05/M18 A3036 RMK T00501180 IEM_DS3505
ZBTJ,1988-11-24 04:25,ZBTJ 240425Z AUTO 32014KT 7SM 05/M18 A3036 RMK T00501180 IEM_DS3505
ZBTJ,1988-11-24 04:27,ZBTJ 240427Z AUTO 32014KT 7SM 05/M18 A3036 RMK T00501180 IEM_DS3505
ZBTJ,1988-11-24 05:26,ZBTJ 240526Z AUTO 30012KT 7SM 06/M22 A3030 RMK T00601220 IEM_DS3505
ZBTJ,1988-11-24 05:27,ZBTJ 240527Z AUTO 30012KT 7SM 06/M22 A3030 RMK T00601220 IEM_DS3505
ZBTJ,1988-11-24 05:28,ZBTJ 240528Z AUTO 30012KT 7SM 06/M22 A3030 RMK T00601220 IEM_DS3505
ZBTJ,1988-11-24 06:00,ZBTJ 240600Z AUTO 27010KT 7SM 07/M20 A3024 RMK T00701200 IEM_DS3505
ZBTJ,1988-11-24 06:30,ZBTJ 240630Z AUTO 27008KT 7SM 06/M24 A3027 RMK T00601240 IEM_DS3505
ZBTJ,1988-11-24 07:00,ZBTJ 240700Z AUTO 27010KT 7SM 07/M20 A3024 RMK T00701200 IEM_DS3505
ZBTJ,1988-11-24 08:00,ZBTJ 240800Z AUTO 26008KT 7SM 04/M15 A3024 RMK T00401150 IEM_DS3505
ZBTJ,1988-11-24 09:00,ZBTJ 240900Z AUTO 26008KT 7SM 04/M15 A3024 RMK T00401150 IEM_DS3505
ZBTJ,1988-11-24 10:00,ZBTJ 241000Z AUTO 26008KT 7SM 04/M15 A3024 RMK T00401150 IEM_DS3505
ZBTJ,1988-11-24 10:27,ZBTJ 241027Z AUTO 25006KT 7SM 02/M11 A3024 RMK T00201110 IEM_DS3505
ZBTJ,1988-11-24 10:30,ZBTJ 241030Z AUTO 24008KT 7SM 02/M12 A3021 RMK T00201120 IEM_DS3505
ZBTJ,1988-11-24 11:00,ZBTJ 241100Z AUTO 25006KT 7SM 02/M11 A3024 RMK T00201110 IEM_DS3505
ZBTJ,1988-11-24 12:00,ZBTJ 241200Z AUTO 24008KT 7SM 01/M12 A3021 RMK T00101120 IEM_DS3505
ZBTJ,1988-11-24 12:24,ZBTJ 241224Z AUTO 24008KT 7SM 01/M12 A3021 RMK T00101120 IEM_DS3505
ZBTJ,1988-11-24 12:27,ZBTJ 241227Z AUTO 24008KT 7SM 01/M12 A3021 RMK T00101120 IEM_DS3505
ZBTJ,1988-11-24 13:00,ZBTJ 241300Z AUTO 25008KT 7SM 01/M12 A3021 RMK T00101120 IEM_DS3505
ZBTJ,1988-11-24 13:24,ZBTJ 241324Z AUTO 25008KT 7SM 01/M12 A3021 RMK T00101120 IEM_DS3505
ZBTJ,1988-11-24 20:00,ZBTJ 242000Z AUTO 33010KT 7SM M03/M14 A3033 RMK T10301140 IEM_DS3505
ZBTJ,1988-11-24 21:18,ZBTJ 242118Z AUTO 33008KT 7SM M02/M14 A3030 RMK T10201140 IEM_DS3505
ZBTJ,1988-11-24 21:25,ZBTJ 242125Z AUTO 33008KT 7SM M02/M14 A3030 RMK T10201140 IEM_DS3505
ZBTJ,1988-11-24 21:27,ZBTJ 242127Z AUTO 33008KT 7SM M02/M14 A3030 RMK T10201140 IEM_DS3505
ZBTJ,1988-11-24 22:00,ZBTJ 242200Z AUTO 33010KT 7SM M03/M14 A3033 RMK T10301140 IEM_DS3505
ZBTJ,1988-11-24 23:00,ZBTJ 242300Z AUTO 33008KT 7SM M02/M14 A3030 RMK T10201140 IEM_DS3505
ZBTJ,1988-11-24 23:23,ZBTJ 242323Z AUTO 33008KT 7SM M03/M15 A3033 RMK T10301150 IEM_DS3505
ZBTJ,1988-11-24 23:48,ZBTJ 242348Z AUTO 33010KT 7SM M03/M14 A3033 RMK T10301140 IEM_DS3505
ZBTJ,1988-11-25 00:00,ZBTJ 250000Z AUTO 33010KT 7SM M02/M15 A3036 RMK T10201150 IEM_DS3505
ZBTJ,1988-11-25 00:20,ZBTJ 250020Z AUTO 33010KT 7SM M02/M15 A3036 RMK T10201150 IEM_DS3505
ZBTJ,1988-11-25 01:00,ZBTJ 250100Z AUTO 33014KT 7SM 01/M11 A3039 RMK T00101110 IEM_DS3505
ZBTJ,1988-11-25 01:24,ZBTJ 250124Z AUTO 33014KT 7SM 01/M11 A3039 RMK T00101110 IEM_DS3505
ZBTJ,1988-11-25 02:00,ZBTJ 250200Z AUTO 32014KT 7SM 02/M21 A3039 RMK T00201210 IEM_DS3505
ZBTJ,1988-11-25 03:00,ZBTJ 250300Z AUTO 33014KT 7SM 03/M15 A3039 RMK T00301150 IEM_DS3505
ZBTJ,1988-11-25 03:33,ZBTJ 250333Z AUTO 33010KT 7SM M02/M15 A3036 RMK T10201150 IEM_DS3505
ZBTJ,1988-11-25 03:35,ZBTJ 250335Z AUTO 33014KT 7SM 01/M11 A3039 RMK T00101110 IEM_DS3505
ZBTJ,1988-11-25 03:37,ZBTJ 250337Z AUTO 33014KT 7SM 03/M15 A3039 RMK T00301150 IEM_DS3505
ZBTJ,1988-11-25 03:45,ZBTJ 250345Z AUTO 32014KT 7SM 02/M21 A3039 RMK T00201210 IEM_DS3505
ZBTJ,1988-11-25 03:52,ZBTJ 250352Z AUTO 33014KT 7SM 03/M15 A3039 RMK T00301150 IEM_DS3505
ZBTJ,1988-11-25 04:00,ZBTJ 250400Z AUTO 32014KT 7SM 03/M15 A3036 RMK T00301150 IEM_DS3505
ZBTJ,1988-11-25 04:25,ZBTJ 250425Z AUTO 32014KT 7SM 03/M15 A3036 RMK T00301150 IEM_DS3505
ZBTJ,1988-11-25 04:27,ZBTJ 250427Z AUTO 32014KT 7SM 03/M15 A3036 RMK T00301150 IEM_DS3505
ZBTJ,1988-11-25 05:00,ZBTJ 250500Z AUTO 33014KT 7SM 04/M19 A3033 RMK T00401190 IEM_DS3505
ZBTJ,1988-11-25 05:30,ZBTJ 250530Z AUTO 33014KT 7SM 04/M19 A3033 RMK T00401190 IEM_DS3505
ZBTJ,1988-11-25 06:00,ZBTJ 250600Z AUTO 34014KT 7SM 04/M16 A3027 RMK T00401160 IEM_DS3505
ZBTJ,1988-11-25 07:00,ZBTJ 250700Z AUTO 33016KT 7SM 04/ RMK IEM_DS3505
ZBTJ,1988-11-25 07:28,ZBTJ 250728Z AUTO 34014KT 7SM 04/M16 A3027 RMK T00401160 IEM_DS3505
ZBTJ,1988-11-25 07:31,ZBTJ 250731Z AUTO 34014KT 7SM 04/M16 A3027 RMK T00401160 IEM_DS3505
ZBTJ,1988-11-25 08:00,ZBTJ 250800Z AUTO 33012KT 7SM 04/M15 A3027 RMK T00401150 IEM_DS3505
ZBTJ,1988-11-25 09:00,ZBTJ 250900Z AUTO 34004KT 7SM 00/M14 A3027 RMK T00001140 IEM_DS3505
ZBTJ,1988-11-25 09:24,ZBTJ 250924Z AUTO 31006KT 3SM RMK IEM_DS3505
ZBTJ,1988-11-25 10:30,ZBTJ 251030Z AUTO 34004KT 7SM 00/M14 A3027 RMK T00001140 IEM_DS3505
ZBTJ,1988-11-25 10:33,ZBTJ 251033Z AUTO 34004KT 7SM 00/M14 A3027 RMK T00001140 IEM_DS3505
ZBTJ,1988-11-25 11:15,ZBTJ 251115Z AUTO 32004KT 7SM M01/M13 A3027 RMK T10101130 IEM_DS3505
ZBTJ,1988-11-25 11:24,ZBTJ 251124Z AUTO 32004KT 7SM M01/M13 A3027 RMK T10101130 IEM_DS3505
ZBTJ,1988-11-25 11:41,ZBTJ 251141Z AUTO 32004KT 7SM M01/M13 A3027 RMK T10101130 IEM_DS3505
ZBTJ,1988-11-25 12:00,ZBTJ 251200Z AUTO 30006KT 7SM 01/M16 A3030 RMK T00101160 IEM_DS3505
ZBTJ,1988-11-25 12:27,ZBTJ 251227Z AUTO 30006KT 7SM 01/M16 A3030 RMK T00101160 IEM_DS3505
ZBTJ,1988-11-25 23:00,ZBTJ 252300Z AUTO 32014KT 6SM M01/M16 RMK T10101160 IEM_DS3505
ZBTJ,1988-11-25 23:24,ZBTJ 252324Z AUTO 32014KT 6SM M01/M16 RMK T10101160 IEM_DS3505
ZBTJ,1988-11-26 00:00,ZBTJ 260000Z AUTO 32016KT 6SM 01/M16 A3030 RMK T00101160 IEM_DS3505
ZBTJ,1988-11-26 01:00,ZBTJ 260100Z AUTO 32016KT 6SM 02/M19 A3030 RMK T00201190 IEM_DS3505
ZBTJ,1988-11-26 01:24,ZBTJ 260124Z AUTO 32016KT 6SM 02/M19 A3030 RMK T00201190 IEM_DS3505
ZBTJ,1988-11-26 03:00,ZBTJ 260300Z AUTO 31017KT 6SM 04/M10 A3030 RMK T00401100 IEM_DS3505
ZBTJ,1988-11-26 04:25,ZBTJ 260425Z AUTO 32017KT 6SM 04/M09 A3030 RMK T00401090 IEM_DS3505
ZBTJ,1988-11-26 04:26,ZBTJ 260426Z AUTO 32017KT 6SM 04/M09 A3030 RMK T00401090 IEM_DS3505
ZBTJ,1988-11-26 04:30,ZBTJ 260430Z AUTO 32017KT 6SM 04/M09 A3030 RMK T00401090 IEM_DS3505
ZBTJ,1988-11-26 05:00,ZBTJ 260500Z AUTO 32017KT 6SM 06/M16 A3027 RMK T00601160 IEM_DS3505
ZBTJ,1988-11-26 06:00,ZBTJ 260600Z AUTO 31016KT 6SM 07/M19 A3024 RMK T00701190 IEM_DS3505
ZBTJ,1988-11-26 06:27,ZBTJ 260627Z AUTO 31016KT 6SM 07/M19 A3024 RMK T00701190 IEM_DS3505
ZBTJ,1988-11-26 06:30,ZBTJ 260630Z AUTO 31016KT 6SM 07/M19 A3024 RMK T00701190 IEM_DS3505
ZBTJ,1988-11-26 07:00,ZBTJ 260700Z AUTO 31012KT 7SM 07/M14 A3024 RMK T00701140 IEM_DS3505
ZBTJ,1988-11-26 07:07,ZBTJ 260707Z AUTO 33016KT 6SM 07/M18 A3024 RMK T00701180 IEM_DS3505
ZBTJ,1988-11-26 07:30,ZBTJ 260730Z AUTO 33016KT 6SM 07/M18 A3024 RMK T00701180 IEM_DS3505
ZBTJ,1988-11-26 08:00,ZBTJ 260800Z AUTO 31012KT 7SM 07/M14 A3024 RMK T00701140 IEM_DS3505
ZBTJ,1988-11-26 09:00,ZBTJ 260900Z AUTO 31012KT 7SM 07/M14 A3024 RMK T00701140 IEM_DS3505
ZBTJ,1988-11-26 09:27,ZBTJ 260927Z AUTO 32010KT 6SM 05/M13 RMK T00501130 IEM_DS3505
ZBTJ,1988-11-26 10:00,ZBTJ 261000Z AUTO 20006KT 6SM 04/M11 A3024 RMK T00401110 IEM_DS3505
ZBTJ,1988-11-26 10:26,ZBTJ 261026Z AUTO 20006KT 6SM 04/M11 A3024 RMK T00401110 IEM_DS3505
ZBTJ,1988-11-26 13:00,ZBTJ 261300Z AUTO 30006KT 7SM 03/M02 A3027 RMK T00301020 IEM_DS3505
ZBTJ,1988-11-26 13:19,ZBTJ 261319Z AUTO 30006KT 7SM 03/M02 A3027 RMK T00301020 IEM_DS3505
ZBTJ,1988-11-26 13:27,ZBTJ 261327Z AUTO 30006KT 7SM 03/M02 A3027 RMK T00301020 IEM_DS3505
ZBTJ,1988-11-26 14:00,ZBTJ 261400Z AUTO 32012KT 7SM 02/M13 A3030 RMK T00201130 IEM_DS3505
ZBTJ,1988-11-26 14:26,ZBTJ 261426Z AUTO 32012KT 7SM 02/M13 A3030 RMK T00201130 IEM_DS3505
ZBTJ,1988-11-26 14:30,ZBTJ 261430Z AUTO 32012KT 7SM 02/M13 A3030 RMK T00201130 IEM_DS3505
ZBTJ,1988-11-26 22:15,ZBTJ 262215Z AUTO 33008KT 7SM 01/M10 A3036 RMK T00101100 IEM_DS3505
ZBTJ,1988-11-26 22:25,ZBTJ 262225Z AUTO 33008KT 7SM 01/M10 A3036 RMK T00101100 IEM_DS3505
ZBTJ,1988-11-26 22:30,ZBTJ 262230Z AUTO 33008KT 7SM 01/M10 A3036 RMK T00101100 IEM_DS3505
ZBTJ,1988-11-26 23:00,ZBTJ 262300Z AUTO 32010KT 7SM 00/M10 A3065 RMK T00001100 IEM_DS3505
ZBTJ,1988-11-26 23:20,ZBTJ 262320Z AUTO 32010KT 7SM 00/M10 A3065 RMK T00001100 IEM_DS3505
ZBTJ,1988-11-27 00:00,ZBTJ 270000Z AUTO 32016KT 7SM 01/M10 A3039 RMK T00101100 IEM_DS3505
ZBTJ,1988-11-27 01:00,ZBTJ 270100Z AUTO 33017KT 7SM 03/M12 A3039 RMK T00301120 IEM_DS3505
ZBTJ,1988-11-27 01:24,ZBTJ 270124Z AUTO 33017KT 7SM 03/M12 A3039 RMK T00301120 IEM_DS3505
ZBTJ,1988-11-27 02:00,ZBTJ 270200Z AUTO 33019KT 7SM 05/M12 A3042 RMK T00501120 IEM_DS3505
ZBTJ,1988-11-27 02:20,ZBTJ 270220Z AUTO 33019KT 7SM 05/M12 A3042 RMK T00501120 IEM_DS3505
ZBTJ,1988-11-27 02:26,ZBTJ 270226Z AUTO 33019KT 7SM 05/M12 A3042 RMK T00501120 IEM_DS3505
ZBTJ,1988-11-27 04:00,ZBTJ 270400Z AUTO 33019KT 7SM 08/M15 A3039 RMK T00801150 IEM_DS3505
ZBTJ,1988-11-27 04:24,ZBTJ 270424Z AUTO 33019KT 7SM 08/M15 A3039 RMK T00801150 IEM_DS3505
ZBTJ,1988-11-27 05:00,ZBTJ 270500Z AUTO 33023KT 7SM 08/M15 A3036 RMK T00801150 IEM_DS3505
ZBTJ,1988-11-27 06:00,ZBTJ 270600Z AUTO 33019KT 7SM 08/M13 A3036 RMK T00801130 IEM_DS3505
ZBTJ,1988-11-27 06:24,ZBTJ 270624Z AUTO 33019KT 7SM 08/M13 A3036 RMK T00801130 IEM_DS3505
ZBTJ,1988-11-27 07:00,ZBTJ 270700Z AUTO 33019KT 7SM 08/M13 A3036 RMK T00801130 IEM_DS3505
ZBTJ,1988-11-27 08:00,ZBTJ 270800Z AUTO 33016KT 7SM 08/M11 A3036 RMK T00801110 IEM_DS3505
ZBTJ,1988-11-27 08:24,ZBTJ 270824Z AUTO 33016KT 7SM 08/M11 A3036 RMK T00801110 IEM_DS3505
ZBTJ,1988-11-27 09:00,ZBTJ 270900Z AUTO 33012KT 7SM 05/M10 A3036 RMK T00501100 IEM_DS3505
ZBTJ,1988-11-27 09:24,ZBTJ 270924Z AUTO 33012KT 7SM 05/M10 A3036 RMK T00501100 IEM_DS3505
ZBTJ,1988-11-27 10:00,ZBTJ 271000Z AUTO 33010KT 7SM 04/M10 A3036 RMK T00401100 IEM_DS3505
ZBTJ,1988-11-27 10:23,ZBTJ 271023Z AUTO 33010KT 7SM 04/M10 A3036 RMK T00401100 IEM_DS3505
ZBTJ,1988-11-27 10:24,ZBTJ 271024Z AUTO 33010KT 7SM 04/M10 A3036 RMK T00401100 IEM_DS3505
ZBTJ,1988-11-27 11:00,ZBTJ 271100Z AUTO 00000KT 7SM 02/M10 A3036 RMK T00201100 IEM_DS3505
ZBTJ,1988-11-27 11:24,ZBTJ 271124Z AUTO 00000KT 7SM 02/M10 A3036 RMK T00201100 IEM_DS3505
ZBTJ,1988-11-27 11:27,ZBTJ 271127Z AUTO 00000KT 7SM 02/M10 A3036 RMK T00201100 IEM_DS3505
ZBTJ,1988-11-27 12:00,ZBTJ 271200Z AUTO 28006KT 7SM 03/M09 A3036 RMK T00301090 IEM_DS3505
ZBTJ,1988-11-27 13:00,ZBTJ 271300Z AUTO 30008KT 7SM 03/M09 A3039 RMK T00301090 IEM_DS3505
ZBTJ,1988-11-27 13:23,ZBTJ 271323Z AUTO 30008KT 7SM 03/M09 A3039 RMK T00301090 IEM_DS3505
ZBTJ,1988-11-27 22:00,ZBTJ 272200Z AUTO 09006KT 7SM M05/M09 A3050 RMK T10501090 IEM_DS3505
ZBTJ,1988-11-27 22:22,ZBTJ 272222Z AUTO 09006KT 7SM M05/M09 A3050 RMK T10501090 IEM_DS3505
ZBTJ,1988-11-27 22:27,ZBTJ 272227Z AUTO 09006KT 7SM M05/M09 A3050 RMK T10501090 IEM_DS3505
ZBTJ,1988-11-27 23:00,ZBTJ 272300Z AUTO 00000KT 7SM M05/M09 A3053 RMK T10501090 IEM_DS3505
ZBTJ,1988-11-27 23:30,ZBTJ 272330Z AUTO 00000KT 7SM M05/M09 A3053 RMK T10501090 IEM_DS3505
ZBTJ,1988-11-28 00:00,ZBTJ 280000Z AUTO 11004KT 7SM M05/M09 A3053 RMK T10501090 IEM_DS3505
ZBTJ,1988-11-28 00:31,ZBTJ 280031Z AUTO 11004KT 7SM M05/M09 A3053 RMK T10501090 IEM_DS3505
ZBTJ,1988-11-28 01:21,ZBTJ 280121Z AUTO 11006KT 7SM 02/M09 A3056 RMK T00201090 IEM_DS3505
ZBTJ,1988-11-28 01:28,ZBTJ 280128Z AUTO 11006KT 7SM 02/M09 A3056 RMK T00201090 IEM_DS3505
ZBTJ,1988-11-28 02:22,ZBTJ 280222Z AUTO 12008KT 7SM 05/M09 A3053 RMK T00501090 IEM_DS3505
ZBTJ,1988-11-28 02:27,ZBTJ 280227Z AUTO 12008KT 7SM 05/M09 A3053 RMK T00501090 IEM_DS3505
ZBTJ,1988-11-28 03:00,ZBTJ 280300Z AUTO 09006KT 7SM 06/M08 A3053 RMK T00601080 IEM_DS3505
ZBTJ,1988-11-28 03:22,ZBTJ 280322Z AUTO 09006KT 7SM 06/M08 A3053 RMK T00601080 IEM_DS3505
ZBTJ,1988-11-28 04:00,ZBTJ 280400Z AUTO 11006KT 7SM 07/M09 A3053 RMK T00701090 IEM_DS3505
ZBTJ,1988-11-28 04:31,ZBTJ 280431Z AUTO 11006KT 7SM 07/M09 A3053 RMK T00701090 IEM_DS3505
ZBTJ,1988-11-28 05:00,ZBTJ 280500Z AUTO 18004KT 7SM 07/M11 A3050 RMK T00701110 IEM_DS3505
ZBTJ,1988-11-28 05:27,ZBTJ 280527Z AUTO 18004KT 7SM 07/M11 A3050 RMK T00701110 IEM_DS3505
ZBTJ,1988-11-28 05:30,ZBTJ 280530Z AUTO 18004KT 7SM 07/M11 A3050 RMK T00701110 IEM_DS3505
ZBTJ,1988-11-28 05:58,ZBTJ 280558Z AUTO 18004KT 7SM 07/M11 A3050 RMK T00701110 IEM_DS3505
ZBTJ,1988-11-28 06:00,ZBTJ 280600Z AUTO 23006KT 7SM 08/M10 A3050 RMK T00801100 IEM_DS3505
ZBTJ,1988-11-28 06:30,ZBTJ 280630Z AUTO 23006KT 7SM 08/M10 A3050 RMK T00801100 IEM_DS3505
ZBTJ,1988-11-28 06:36,ZBTJ 280636Z AUTO 23006KT 7SM 08/M10 A3050 RMK T00801100 IEM_DS3505
ZBTJ,1988-11-28 07:00,ZBTJ 280700Z AUTO 00000KT 7SM 07/M06 A3047 RMK T00701060 IEM_DS3505
ZBTJ,1988-11-28 07:20,ZBTJ 280720Z AUTO 25010KT 7SM 07/M10 A3047 RMK T00701100 IEM_DS3505
ZBTJ,1988-11-28 08:00,ZBTJ 280800Z AUTO 00000KT 7SM 07/M06 A3047 RMK T00701060 IEM_DS3505
ZBTJ,1988-11-28 08:24,ZBTJ 280824Z AUTO 00000KT 7SM 07/M06 A3047 RMK T00701060 IEM_DS3505
ZBTJ,1988-11-28 09:00,ZBTJ 280900Z AUTO 16008KT 7SM 02/M07 A3050 RMK T00201070 IEM_DS3505
ZBTJ,1988-11-28 09:26,ZBTJ 280926Z AUTO 16008KT 7SM 02/M07 A3050 RMK T00201070 IEM_DS3505
ZBTJ,1988-11-28 09:30,ZBTJ 280930Z AUTO 16008KT 7SM 02/M07 A3050 RMK T00201070 IEM_DS3505
ZBTJ,1988-11-28 10:00,ZBTJ 281000Z AUTO 16008KT 7SM 01/M08 A3050 RMK T00101080 IEM_DS3505
ZBTJ,1988-11-28 10:23,ZBTJ 281023Z AUTO 16008KT 7SM 01/M08 A3050 RMK T00101080 IEM_DS3505
ZBTJ,1988-11-28 11:00,ZBTJ 281100Z AUTO 20004KT 7SM M01/M07 A3050 RMK T10101070 IEM_DS3505
ZBTJ,1988-11-28 12:00,ZBTJ 281200Z AUTO 20004KT 7SM M01/M07 A3050 RMK T10101070 IEM_DS3505
ZBTJ,1988-11-28 13:00,ZBTJ 281300Z AUTO 19006KT 7SM 00/M07 A3050 RMK T00001070 IEM_DS3505
ZBTJ,1988-11-28 18:00,ZBTJ 281800Z AUTO 23008KT 7SM M02/M07 A3047 RMK T10201070 IEM_DS3505
ZBTJ,1988-11-28 21:00,ZBTJ 282100Z AUTO 23008KT 7SM M02/M07 A3047 RMK T10201070 IEM_DS3505
ZBTJ,1988-11-28 22:00,ZBTJ 282200Z AUTO 23006KT 7SM M03/M07 A3047 RMK T10301070 IEM_DS3505
ZBTJ,1988-11-28 23:00,ZBTJ 282300Z AUTO 24004KT 4SM M03/M06 A3047 RMK T10301060 IEM_DS3505
ZBTJ,1988-11-29 00:00,ZBTJ 290000Z AUTO 24004KT 4SM M03/M06 A3047 RMK T10301060 IEM_DS3505
ZBTJ,1988-11-29 01:00,ZBTJ 290100Z AUTO 24004KT 2SM 02/M05 A3050 RMK T00201050 IEM_DS3505
ZBTJ,1988-11-29 01:20,ZBTJ 290120Z AUTO 23004KT 1 1/4SM M02/M05 A3047 RMK T10201050 IEM_DS3505
ZBTJ,1988-11-29 02:00,ZBTJ 290200Z AUTO 22004KT 2 1/2SM A3036 RMK IEM_DS3505
ZBTJ,1988-11-29 03:00,ZBTJ 290300Z AUTO 26012KT 7SM 06/M06 RMK T00601060 IEM_DS3505
ZBTJ,1988-11-29 03:19,ZBTJ 290319Z AUTO 26012KT 7SM 06/M06 A3047 RMK T00601060 IEM_DS3505
ZBTJ,1988-11-29 04:00,ZBTJ 290400Z AUTO 26012KT 7SM 06/M06 A3047 RMK T00601060 IEM_DS3505
ZBTJ,1988-11-29 04:33,ZBTJ 290433Z AUTO 26008KT 7SM 07/M05 A3045 RMK T00701050 IEM_DS3505
ZBTJ,1988-11-29 05:00,ZBTJ 290500Z AUTO 23008KT 7SM 09/M04 A3042 RMK T00901040 IEM_DS3505
ZBTJ,1988-11-29 05:29,ZBTJ 290529Z AUTO 23008KT 7SM 09/M04 A3042 RMK T00901040 IEM_DS3505
ZBTJ,1988-11-29 06:00,ZBTJ 290600Z AUTO 23008KT 7SM 09/M04 A3042 RMK T00901040 IEM_DS3505
ZBTJ,1988-11-29 06:24,ZBTJ 290624Z AUTO 23006KT 7SM 10/M04 A3039 RMK T01001040 IEM_DS3505
ZBTJ,1988-11-29 06:27,ZBTJ 290627Z AUTO 23006KT 7SM 10/M04 A3039 RMK T01001040 IEM_DS3505
ZBTJ,1988-11-29 07:00,ZBTJ 290700Z AUTO 24006KT 7SM 10/M02 A3039 RMK T01001020 IEM_DS3505
ZBTJ,1988-11-29 07:05,ZBTJ 290705Z AUTO 23006KT 7SM 10/M04 A3039 RMK T01001040 IEM_DS3505
ZBTJ,1988-11-29 07:25,ZBTJ 290725Z AUTO 24006KT 7SM 10/M02 A3039 RMK T01001020 IEM_DS3505
ZBTJ,1988-11-29 07:29,ZBTJ 290729Z AUTO 24006KT 7SM 10/M02 A3039 RMK T01001020 IEM_DS3505
ZBTJ,1988-11-29 08:00,ZBTJ 290800Z AUTO 23006KT 7SM 10/M04 A3039 RMK T01001040 IEM_DS3505
ZBTJ,1988-11-29 09:00,ZBTJ 290900Z AUTO 23006KT 7SM 10/M04 A3039 RMK T01001040 IEM_DS3505
ZBTJ,1988-11-29 09:22,ZBTJ 290922Z AUTO 22004KT 2 1/2SM 07/M01 A3036 RMK T00701010 IEM_DS3505
ZBTJ,1988-11-29 11:00,ZBTJ 291100Z AUTO 21006KT 2SM 02/M02 A3036 RMK T00201020 IEM_DS3505
ZBTJ,1988-11-29 11:24,ZBTJ 291124Z AUTO 21006KT 2SM 02/M02 A3036 RMK T00201020 IEM_DS3505
ZBTJ,1988-11-29 11:27,ZBTJ 291127Z AUTO 21006KT 2SM 02/M02 A3036 RMK T00201020 IEM_DS3505
ZBTJ,1988-11-29 13:00,ZBTJ 291300Z AUTO 19002KT 2 1/2SM 00/M03 A3036 RMK T00001030 IEM_DS3505
ZBTJ,1988-11-29 13:24,ZBTJ 291324Z AUTO 19002KT 2 1/2SM 00/M03 A3036 RMK T00001030 IEM_DS3505
ZBTJ,1988-11-29 13:27,ZBTJ 291327Z AUTO 19002KT 2 1/2SM 00/M03 A3036 RMK T00001030 IEM_DS3505
ZBTJ,1988-11-29 22:30,ZBTJ 292230Z AUTO 35002KT 1SM 05/M01 A3030 RMK T00501010 IEM_DS3505
ZBTJ,1988-11-29 23:00,ZBTJ 292300Z AUTO 35006KT 1SM A3027 RMK IEM_DS3505
ZBTJ,1988-11-29 23:27,ZBTJ 292327Z AUTO 35006KT 1SM M03/M05 A3027 RMK T10301050 IEM_DS3505
ZBTJ,1988-11-29 23:38,ZBTJ 292338Z AUTO 35006KT 1SM M03/M05 A3027 RMK T10301050 IEM_DS3505
ZBTJ,1988-11-30 00:00,ZBTJ 300000Z AUTO 00000KT 1/2SM M03/M04 A3030 RMK T10301040 IEM_DS3505
ZBTJ,1988-11-30 00:01,ZBTJ 300001Z AUTO 00000KT 1/2SM M03/M04 A3030 RMK T10301040 IEM_DS3505
ZBTJ,1988-11-30 01:00,ZBTJ 300100Z AUTO 00000KT 1SM M01/M02 A3012 RMK T10101020 IEM_DS3505
ZBTJ,1988-11-30 01:27,ZBTJ 300127Z AUTO 00000KT 1SM M01/M02 A3012 RMK T10101020 IEM_DS3505
ZBTJ,1988-11-30 02:00,ZBTJ 300200Z AUTO 00000KT 1SM 03/M01 A3027 RMK T00301010 IEM_DS3505
ZBTJ,1988-11-30 02:31,ZBTJ 300231Z AUTO 00000KT 1SM 03/M01 A3027 RMK T00301010 IEM_DS3505
ZBTJ,1988-11-30 03:00,ZBTJ 300300Z AUTO 35002KT 1SM 05/M01 A3030 RMK T00501010 IEM_DS3505
ZBTJ,1988-11-30 03:20,ZBTJ 300320Z AUTO 35002KT 1SM 05/M01 A3030 RMK T00501010 IEM_DS3505
ZBTJ,1988-11-30 05:00,ZBTJ 300500Z AUTO 35004KT 1 1/2SM 09/00 A3024 RMK T00900000 IEM_DS3505
ZBTJ,1988-11-30 05:27,ZBTJ 300527Z AUTO 35004KT 1 1/2SM 09/00 A3024 RMK T00900000 IEM_DS3505
ZBTJ,1988-11-30 05:36,ZBTJ 300536Z AUTO 35004KT 1 1/2SM 09/00 A3024 RMK T00900000 IEM_DS3505
ZBTJ,1988-11-30 06:00,ZBTJ 300600Z AUTO 36004KT 1 1/2SM 10/M01 A3024 RMK T01001010 IEM_DS3505
ZBTJ,1988-11-30 06:31,ZBTJ 300631Z AUTO 36004KT 1 1/2SM 10/M01 A3024 RMK T01001010 IEM_DS3505
ZBTJ,1988-11-30 06:50,ZBTJ 300650Z AUTO 36004KT 1 1/2SM 10/M01 A3024 RMK T01001010 IEM_DS3505
ZBTJ,1988-11-30 07:00,ZBTJ 300700Z AUTO 02004KT 2 1/2SM 09/00 A3021 RMK T00900000 IEM_DS3505
ZBTJ,1988-11-30 07:33,ZBTJ 300733Z AUTO 01004KT 2 1/2SM 10/M01 A3021 RMK T01001010 IEM_DS3505
ZBTJ,1988-11-30 07:40,ZBTJ 300740Z AUTO 01004KT 2 1/2SM 10/M01 A3021 RMK T01001010 IEM_DS3505
ZBTJ,1988-11-30 07:44,ZBTJ 300744Z AUTO 01004KT 2 1/2SM 10/M01 A3021 RMK T01001010 IEM_DS3505
ZBTJ,1988-11-30 07:46,ZBTJ 300746Z AUTO 01004KT 2 1/2SM 10/M01 A3021 RMK T01001010 IEM_DS3505
ZBTJ,1988-11-30 08:00,ZBTJ 300800Z AUTO 10004KT 1 1/4SM 04/M02 A3024 RMK T00401020 IEM_DS3505
ZBTJ,1988-11-30 09:00,ZBTJ 300900Z AUTO 00000KT 2SM 07/M01 A3024 RMK T00701010 IEM_DS3505
ZBTJ,1988-11-30 09:15,ZBTJ 300915Z AUTO 00000KT 2SM 07/M01 A3024 RMK T00701010 IEM_DS3505
ZBTJ,1988-11-30 10:00,ZBTJ 301000Z AUTO 10004KT 1 1/4SM 04/M02 A3024 RMK T00401020 IEM_DS3505
ZBTJ,1988-11-30 10:26,ZBTJ 301026Z AUTO 10004KT 1 1/4SM 04/M02 A3024 RMK T00401020 IEM_DS3505
ZBTJ,1988-11-30 11:00,ZBTJ 301100Z AUTO 1 1/2SM 01/M03 A3024 RMK T00101030 IEM_DS3505
ZBTJ,1988-11-30 12:00,ZBTJ 301200Z AUTO 12008KT 1 1/4SM 01/M01 A3027 RMK T00101010 IEM_DS3505
ZBTJ,1988-11-30 13:00,ZBTJ 301300Z AUTO 00000KT 1 1/4SM 00/M01 A3030 RMK T00001010 IEM_DS3505
ZBTJ,1988-11-30 21:00,ZBTJ 302100Z AUTO 33004KT 1/2SM M03/M03 A3036 RMK T10301030 IEM_DS3505
ZBTJ,1988-11-30 22:00,ZBTJ 302200Z AUTO 33004KT 1/2SM M03/M03 A3036 RMK T10301030 IEM_DS3505
ZBTJ,1988-11-30 23:00,ZBTJ 302300Z AUTO 00000KT 3/8SM M03/M03 A3039 RMK T10301030 IEM_DS3505
ZBTJ,1988-11-30 23:21,ZBTJ 302321Z AUTO 00000KT 3/8SM M03/M03 A3039 RMK T10301030 IEM_DS3505
ZBTJ,1988-12-01 00:00,ZBTJ 010000Z AUTO 00000KT 3/8SM M04/M05 A3042 RMK T10401050 IEM_DS3505
ZBTJ,1988-12-01 00:31,ZBTJ 010031Z AUTO 00000KT 3/8SM M04/M05 A3042 RMK T10401050 IEM_DS3505
ZBTJ,1988-12-01 01:00,ZBTJ 010100Z AUTO 00000KT 1/8SM M02/M03 A3045 RMK T10201030 IEM_DS3505
ZBTJ,1988-12-01 01:25,ZBTJ 010125Z AUTO 00000KT 1/8SM M02/M03 A3045 RMK T10201030 IEM_DS3505
ZBTJ,1988-12-01 03:00,ZBTJ 010300Z AUTO 36002KT 1SM 02/01 A3045 RMK T00200010 IEM_DS3505
ZBTJ,1988-12-01 04:00,ZBTJ 010400Z AUTO 36004KT 1SM 05/01 A3045 RMK T00500010 IEM_DS3505
ZBTJ,1988-12-01 04:27,ZBTJ 010427Z AUTO 36004KT 1SM 05/01 A3045 RMK T00500010 IEM_DS3505
ZBTJ,1988-12-01 09:00,ZBTJ 010900Z AUTO 00000KT 5SM 04/00 A3042 RMK T00400000 IEM_DS3505
ZBTJ,1988-12-01 09:20,ZBTJ 010920Z AUTO 00000KT 5SM 04/00 A3042 RMK T00400000 IEM_DS3505
ZBTJ,1988-12-01 09:24,ZBTJ 010924Z AUTO 00000KT 5SM 04/00 A3042 RMK T00400000 IEM_DS3505
ZBTJ,1988-12-01 10:00,ZBTJ 011000Z AUTO 00000KT 5SM 02/M02 A3045 RMK T00201020 IEM_DS3505
ZBTJ,1988-12-01 10:30,ZBTJ 011030Z AUTO 00000KT 5SM 02/M02 A3045 RMK T00201020 IEM_DS3505
ZBTJ,1988-12-01 11:00,ZBTJ 011100Z AUTO 21004KT 4SM 02/M03 A3045 RMK T00201030 IEM_DS3505
ZBTJ,1988-12-01 11:24,ZBTJ 011124Z AUTO 17004KT 4SM 02/M02 A3045 RMK T00201020 IEM_DS3505
ZBTJ,1988-12-01 11:27,ZBTJ 011127Z AUTO 17004KT 4SM 02/M02 A3045 RMK T00201020 IEM_DS3505
ZBTJ,1988-12-01 11:29,ZBTJ 011129Z AUTO 17004KT 4SM 02/M02 A3045 RMK T00201020 IEM_DS3505
ZBTJ,1988-12-01 12:00,ZBTJ 011200Z AUTO 21004KT 4SM 02/M03 A3045 RMK T00201030 IEM_DS3505
ZBTJ,1988-12-01 13:00,ZBTJ 011300Z AUTO 21004KT 4SM 02/M03 A3045 RMK T00201030 IEM_DS3505
ZBTJ,1988-12-01 14:00,ZBTJ 011400Z AUTO 22006KT 5SM 01/M02 A3047 RMK T00101020 IEM_DS3505
ZBTJ,1988-12-01 15:21,ZBTJ 011521Z AUTO 22006KT 5SM 01/M02 A3047 RMK T00101020 IEM_DS3505
ZBTJ,1988-12-01 23:00,ZBTJ 012300Z AUTO 24004KT 1 1/4SM M02/M04 A3045 RMK T10201040 IEM_DS3505
ZBTJ,1988-12-01 23:18,ZBTJ 012318Z AUTO 24004KT 1 1/4SM M02/M04 A3045 RMK T10201040 IEM_DS3505
ZBTJ,1988-12-02 00:00,ZBTJ 020000Z AUTO 24004KT 1SM M01/M04 A3045 RMK T10101040 IEM_DS3505
ZBTJ,1988-12-02 00:15,ZBTJ 020015Z AUTO 24004KT 1SM M01/M04 A3045 RMK T10101040 IEM_DS3505
ZBTJ,1988-12-02 00:41,ZBTJ 020041Z AUTO 24004KT 1SM M01/M04 A3045 RMK T10101040 IEM_DS3505
ZBTJ,1988-12-02 01:00,ZBTJ 020100Z AUTO 24002KT 1SM 02/M03 A3047 RMK T00201030 IEM_DS3505
ZBTJ,1988-12-02 01:13,ZBTJ 020113Z AUTO 24002KT 1SM 02/M03 A3047 RMK T00201030 IEM_DS3505
ZBTJ,1988-12-02 02:00,ZBTJ 020200Z AUTO 22002KT 1SM 05/M03 A3047 RMK T00501030 IEM_DS3505
ZBTJ,1988-12-02 02:33,ZBTJ 020233Z AUTO 22002KT 1SM 05/M03 A3047 RMK T00501030 IEM_DS3505
ZBTJ,1988-12-02 03:00,ZBTJ 020300Z AUTO 24002KT 1 1/4SM 08/M03 A3045 RMK T00801030 IEM_DS3505
ZBTJ,1988-12-02 03:27,ZBTJ 020327Z AUTO 24002KT 1 1/4SM 08/M03 A3045 RMK T00801030 IEM_DS3505
ZBTJ,1988-12-02 03:33,ZBTJ 020333Z AUTO 24002KT 1 1/4SM 08/M03 A3045 RMK T00801030 IEM_DS3505
ZBTJ,1988-12-02 04:22,ZBTJ 020422Z AUTO 23008KT 1 1/2SM 09/M03 A3045 RMK T00901030 IEM_DS3505
ZBTJ,1988-12-02 04:42,ZBTJ 020442Z AUTO 23008KT 1 1/2SM 09/M03 A3045 RMK T00901030 IEM_DS3505
ZBTJ,1988-12-02 05:00,ZBTJ 020500Z AUTO 24010KT 2SM 10/M03 A3039 RMK T01001030 IEM_DS3505
ZBTJ,1988-12-02 05:30,ZBTJ 020530Z AUTO 24010KT 2SM 10/M03 A3039 RMK T01001030 IEM_DS3505
ZBTJ,1988-12-02 06:00,ZBTJ 020600Z AUTO 23008KT 2 1/2SM 10/M03 A3036 RMK T01001030 IEM_DS3505
ZBTJ,1988-12-02 07:00,ZBTJ 020700Z AUTO 23008KT 3SM 10/M03 A3036 RMK T01001030 IEM_DS3505
ZBTJ,1988-12-02 07:27,ZBTJ 020727Z AUTO 23008KT 3SM 10/M03 A3036 RMK T01001030 IEM_DS3505
ZBTJ,1988-12-02 08:00,ZBTJ 020800Z AUTO 23008KT 3SM 09/M04 A3036 RMK T00901040 IEM_DS3505
ZBTJ,1988-12-02 08:08,ZBTJ 020808Z AUTO 23008KT 3SM 09/M04 A3036 RMK T00901040 IEM_DS3505
ZBTJ,1988-12-02 12:00,ZBTJ 021200Z AUTO 21006KT 2 1/2SM 03/M04 A3036 RMK T00301040 IEM_DS3505
ZBTJ,1988-12-02 21:00,ZBTJ 022100Z AUTO 21004KT 7SM M03/M05 A3024 RMK T10301050 IEM_DS3505
ZBTJ,1988-12-02 22:00,ZBTJ 022200Z AUTO 21004KT 7SM M03/M05 A3024 RMK T10301050 IEM_DS3505
ZBTJ,1988-12-02 22:15,ZBTJ 022215Z AUTO 21004KT 7SM M03/M05 A3024 RMK T10301050 IEM_DS3505
ZBTJ,1988-12-02 23:00,ZBTJ 022300Z AUTO 22002KT 1 1/4SM M02/M04 A3024 RMK T10201040 IEM_DS3505
ZBTJ,1988-12-02 23:25,ZBTJ 022325Z AUTO 22002KT 1 1/4SM M02/M04 A3024 RMK T10201040 IEM_DS3505
ZBTJ,1988-12-03 00:00,ZBTJ 030000Z AUTO 32014KT 1 1/4SM 02/M04 A3027 RMK T00201040 IEM_DS3505
ZBTJ,1988-12-03 00:30,ZBTJ 030030Z AUTO 23004KT 1SM M03/M04 A3024 RMK T10301040 IEM_DS3505
ZBTJ,1988-12-03 01:00,ZBTJ 030100Z AUTO 32014KT 1 1/4SM 02/M04 A3027 RMK T00201040 IEM_DS3505
ZBTJ,1988-12-03 02:00,ZBTJ 030200Z AUTO 32016KT 7SM 05/M09 A3027 RMK T00501090 IEM_DS3505
ZBTJ,1988-12-03 03:00,ZBTJ 030300Z AUTO 33016KT 7SM 07/M10 A3027 RMK T00701100 IEM_DS3505
ZBTJ,1988-12-03 03:25,ZBTJ 030325Z AUTO 33016KT 7SM 07/M10 A3027 RMK T00701100 IEM_DS3505
ZBTJ,1988-12-03 03:29,ZBTJ 030329Z AUTO 23004KT 1SM A3024 RMK IEM_DS3505
ZBTJ,1988-12-03 04:00,ZBTJ 030400Z AUTO 34019KT 7SM 08/M11 A3024 RMK T00801110 IEM_DS3505
ZBTJ,1988-12-03 04:03,ZBTJ 030403Z AUTO 23004KT 1SM A3024 RMK IEM_DS3505
ZBTJ,1988-12-03 04:17,ZBTJ 030417Z AUTO 32014KT 1 1/4SM 02/M04 A3027 RMK T00201040 IEM_DS3505
ZBTJ,1988-12-03 06:00,ZBTJ 030600Z AUTO 33025KT 7SM 08/M11 A3021 RMK T00801110 IEM_DS3505
ZBTJ,1988-12-03 06:20,ZBTJ 030620Z AUTO 33025KT 7SM 08/M11 A3021 RMK T00801110 IEM_DS3505
ZBTJ,1988-12-03 07:20,ZBTJ 030720Z AUTO 33023KT 7SM 08/M12 A3021 RMK T00801120 IEM_DS3505
ZBTJ,1988-12-03 08:25,ZBTJ 030825Z AUTO 32014KT 7SM 07/M10 A3021 RMK T00701100 IEM_DS3505
ZBTJ,1988-12-03 09:00,ZBTJ 030900Z AUTO 32008KT 7SM 05/M08 A3024 RMK T00501080 IEM_DS3505
ZBTJ,1988-12-03 09:18,ZBTJ 030918Z AUTO 32008KT 7SM 05/M08 A3024 RMK T00501080 IEM_DS3505
ZBTJ,1988-12-03 10:00,ZBTJ 031000Z AUTO 33014KT 7SM 02/M11 A3024 RMK T00201110 IEM_DS3505
ZBTJ,1988-12-03 10:24,ZBTJ 031024Z AUTO 32010KT 7SM 03/M09 A3024 RMK T00301090 IEM_DS3505
ZBTJ,1988-12-03 11:00,ZBTJ 031100Z AUTO 33014KT 7SM 02/M11 A3024 RMK T00201110 IEM_DS3505
ZBTJ,1988-12-03 11:24,ZBTJ 031124Z AUTO 33014KT 7SM 02/M11 A3024 RMK T00201110 IEM_DS3505
ZBTJ,1988-12-03 12:00,ZBTJ 031200Z AUTO 33008KT 7SM 01/M11 A3027 RMK T00101110 IEM_DS3505
ZBTJ,1988-12-03 12:13,ZBTJ 031213Z AUTO 33008KT 7SM 01/M11 A3027 RMK T00101110 IEM_DS3505
ZBTJ,1988-12-03 12:30,ZBTJ 031230Z AUTO 33008KT 7SM 01/M11 A3027 RMK T00101110 IEM_DS3505
ZBTJ,1988-12-03 13:00,ZBTJ 031300Z AUTO 34014KT 7SM 03/M14 A3027 RMK T00301140 IEM_DS3505
ZBTJ,1988-12-03 13:21,ZBTJ 031321Z AUTO 34014KT 7SM 03/M14 A3027 RMK T00301140 IEM_DS3505
ZBTJ,1988-12-03 13:30,ZBTJ 031330Z AUTO 33014KT 7SM 03/M14 A3027 RMK T00301140 IEM_DS3505
ZBTJ,1988-12-03 14:00,ZBTJ 031400Z AUTO 33014KT 7SM 03/M14 A3027 RMK T00301140 IEM_DS3505
ZBTJ,1988-12-03 14:24,ZBTJ 031424Z AUTO 33014KT 7SM 03/M14 A3027 RMK T00301140 IEM_DS3505
ZBTJ,1988-12-03 21:00,ZBTJ 032100Z AUTO 32010KT 7SM M01/M14 A3036 RMK T10101140 IEM_DS3505
ZBTJ,1988-12-03 22:00,ZBTJ 032200Z AUTO 32010KT 7SM M01/M14 A3036 RMK T10101140 IEM_DS3505
ZBTJ,1988-12-03 22:24,ZBTJ 032224Z AUTO 32010KT 7SM M01/M14 A3036 RMK T10101140 IEM_DS3505
ZBTJ,1988-12-03 23:00,ZBTJ 032300Z AUTO 32016KT 7SM 00/M18 A3039 RMK T00001180 IEM_DS3505
ZBTJ,1988-12-03 23:24,ZBTJ 032324Z AUTO 32016KT 7SM 00/M18 A3039 RMK T00001180 IEM_DS3505
ZBTJ,1988-12-04 00:00,ZBTJ 040000Z AUTO 32016KT 7SM M01/M16 A3039 RMK T10101160 IEM_DS3505
ZBTJ,1988-12-04 00:21,ZBTJ 040021Z AUTO 32016KT 7SM M01/M16 A3039 RMK T10101160 IEM_DS3505
ZBTJ,1988-12-04 00:38,ZBTJ 040038Z AUTO 32016KT 7SM M01/M16 A3039 RMK T10101160 IEM_DS3505
ZBTJ,1988-12-04 00:59,ZBTJ 040059Z AUTO 32010KT 7SM M01/M14 A3036 RMK T10101140 IEM_DS3505
ZBTJ,1988-12-04 01:00,ZBTJ 040100Z AUTO 32016KT 7SM 00/M15 A3042 RMK T00001150 IEM_DS3505
ZBTJ,1988-12-04 02:00,ZBTJ 040200Z AUTO 32016KT 7SM 00/M15 A3042 RMK T00001150 IEM_DS3505
ZBTJ,1988-12-04 02:44,ZBTJ 040244Z AUTO 32016KT 7SM M01/M16 A3039 RMK T10101160 IEM_DS3505
ZBTJ,1988-12-04 03:00,ZBTJ 040300Z AUTO 33016KT 7SM 02/M19 A3045 RMK T00201190 IEM_DS3505
ZBTJ,1988-12-04 03:25,ZBTJ 040325Z AUTO 33016KT 7SM 02/M19 A3045 RMK T00201190 IEM_DS3505
ZBTJ,1988-12-04 04:00,ZBTJ 040400Z AUTO 33016KT 7SM 02/M19 A3045 RMK T00201190 IEM_DS3505
ZBTJ,1988-12-04 04:31,ZBTJ 040431Z AUTO 31016KT 7SM 03/M20 A3042 RMK T00301200 IEM_DS3505
ZBTJ,1988-12-04 06:00,ZBTJ 040600Z AUTO 32019KT 7SM 03/M14 A3039 RMK T00301140 IEM_DS3505
ZBTJ,1988-12-04 06:14,ZBTJ 040614Z AUTO 32019KT 7SM 03/M14 A3039 RMK T00301140 IEM_DS3505
ZBTJ,1988-12-04 06:26,ZBTJ 040626Z AUTO 32019KT 7SM 03/M14 A3039 RMK T00301140 IEM_DS3505
ZBTJ,1988-12-04 07:00,ZBTJ 040700Z AUTO 32016KT 7SM 03/M06 A3039 RMK T00301060 IEM_DS3505
ZBTJ,1988-12-04 07:20,ZBTJ 040720Z AUTO 32016KT 7SM 03/M06 A3039 RMK T00301060 IEM_DS3505
ZBTJ,1988-12-04 09:00,ZBTJ 040900Z AUTO 33012KT 7SM 01/M14 A3036 RMK T00101140 IEM_DS3505
ZBTJ,1988-12-04 10:00,ZBTJ 041000Z AUTO 33010KT 7SM M01/M16 A3036 RMK T10101160 IEM_DS3505
ZBTJ,1988-12-04 10:19,ZBTJ 041019Z AUTO 33010KT 7SM M01/M16 A3036 RMK T10101160 IEM_DS3505
ZBTJ,1988-12-04 12:00,ZBTJ 041200Z AUTO 31004KT 7SM M02/M16 A3036 RMK T10201160 IEM_DS3505
ZBTJ,1988-12-04 12:24,ZBTJ 041224Z AUTO 29004KT 6SM M03/M15 A3036 RMK T10301150 IEM_DS3505
ZBTJ,1988-12-04 12:25,ZBTJ 041225Z AUTO 29004KT 6SM M03/M15 A3036 RMK T10301150 IEM_DS3505
ZBTJ,1988-12-04 13:00,ZBTJ 041300Z AUTO 31004KT 7SM M02/M16 A3036 RMK T10201160 IEM_DS3505
ZBTJ,1988-12-04 13:20,ZBTJ 041320Z AUTO 31004KT 7SM M02/M16 A3036 RMK T10201160 IEM_DS3505
ZBTJ,1988-12-05 00:00,ZBTJ 050000Z AUTO 25008KT 4SM M03/M13 A3024 RMK T10301130 IEM_DS3505
ZBTJ,1988-12-05 00:25,ZBTJ 050025Z AUTO 25008KT 4SM M03/M13 A3024 RMK T10301130 IEM_DS3505
ZBTJ,1988-12-05 00:36,ZBTJ 050036Z AUTO 25008KT 4SM M03/M13 A3024 RMK T10301130 IEM_DS3505
ZBTJ,1988-12-05 01:00,ZBTJ 050100Z AUTO 25004KT 4SM M01/M11 A3024 RMK T10101110 IEM_DS3505
ZBTJ,1988-12-05 01:20,ZBTJ 050120Z AUTO 25004KT 4SM M01/M11 A3024 RMK T10101110 IEM_DS3505
ZBTJ,1988-12-05 01:25,ZBTJ 050125Z AUTO 25004KT 4SM M01/M11 A3024 RMK T10101110 IEM_DS3505
ZBTJ,1988-12-05 02:00,ZBTJ 050200Z AUTO 26010KT 4SM 01/M13 A3024 RMK T00101130 IEM_DS3505
ZBTJ,1988-12-05 02:37,ZBTJ 050237Z AUTO 26010KT 4SM 01/M13 A3024 RMK T00101130 IEM_DS3505
ZBTJ,1988-12-05 03:00,ZBTJ 050300Z AUTO 25010KT 4SM 04/M10 A3018 RMK T00401100 IEM_DS3505
ZBTJ,1988-12-05 03:21,ZBTJ 050321Z AUTO 25010KT 4SM 04/M10 A3018 RMK T00401100 IEM_DS3505
ZBTJ,1988-12-05 03:35,ZBTJ 050335Z AUTO 25010KT 4SM 04/M10 A3018 RMK T00401100 IEM_DS3505
ZBTJ,1988-12-05 04:00,ZBTJ 050400Z AUTO 23012KT 7SM 07/M10 A3009 RMK T00701100 IEM_DS3505
ZBTJ,1988-12-05 05:00,ZBTJ 050500Z AUTO 23012KT 7SM 07/M10 A3009 RMK T00701100 IEM_DS3505
ZBTJ,1988-12-05 05:50,ZBTJ 050550Z AUTO 23012KT 7SM 07/M10 A3009 RMK T00701100 IEM_DS3505
ZBTJ,1988-12-05 06:00,ZBTJ 050600Z AUTO 23012KT RMK IEM_DS3505
ZBTJ,1988-12-05 06:30,ZBTJ 050630Z AUTO 23012KT RMK IEM_DS3505
ZBTJ,1988-12-05 07:00,ZBTJ 050700Z AUTO 22006KT 7SM 07/M10 A3000 RMK T00701100 IEM_DS3505
ZBTJ,1988-12-05 08:00,ZBTJ 050800Z AUTO 22006KT 7SM 07/M10 A3000 RMK T00701100 IEM_DS3505
ZBTJ,1988-12-05 09:00,ZBTJ 050900Z AUTO 22006KT 7SM 07/M10 A3000 RMK T00701100 IEM_DS3505
ZBTJ,1988-12-05 10:00,ZBTJ 051000Z AUTO 18004KT 7SM 03/ A3030 RMK IEM_DS3505
ZBTJ,1988-12-05 10:12,ZBTJ 051012Z AUTO 18004KT 7SM 03/ A3030 RMK IEM_DS3505
ZBTJ,1988-12-05 11:00,ZBTJ 051100Z AUTO 18008KT 7SM 03/M09 A2997 RMK T00301090 IEM_DS3505
ZBTJ,1988-12-05 11:27,ZBTJ 051127Z AUTO 18008KT 7SM 03/M09 A2997 RMK T00301090 IEM_DS3505
ZBTJ,1988-12-05 12:00,ZBTJ 051200Z AUTO 18008KT 7SM 03/M09 A2997 RMK T00301090 IEM_DS3505
ZBTJ,1988-12-06 00:00,ZBTJ 060000Z AUTO 19004KT 2 1/2SM A2980 RMK IEM_DS3505
ZBTJ,1988-12-06 01:00,ZBTJ 060100Z AUTO 22006KT 2 1/2SM 00/M05 A2983 RMK T00001050 IEM_DS3505
ZBTJ,1988-12-06 01:15,ZBTJ 060115Z AUTO 22006KT 2 1/2SM 00/M05 A2983 RMK T00001050 IEM_DS3505
ZBTJ,1988-12-06 01:20,ZBTJ 060120Z AUTO 22006KT 2 1/2SM 00/M05 A2983 RMK T00001050 IEM_DS3505
ZBTJ,1988-12-06 02:00,ZBTJ 060200Z AUTO 20006KT 5SM 03/M06 A2980 RMK T00301060 IEM_DS3505
ZBTJ,1988-12-06 02:20,ZBTJ 060220Z AUTO 20006KT 5SM 03/M06 A2980 RMK T00301060 IEM_DS3505
ZBTJ,1988-12-06 03:00,ZBTJ 060300Z AUTO 22008KT 5SM 05/M06 A2980 RMK T00501060 IEM_DS3505
ZBTJ,1988-12-06 03:27,ZBTJ 060327Z AUTO 22008KT 5SM 05/M06 A2980 RMK T00501060 IEM_DS3505
ZBTJ,1988-12-06 10:21,ZBTJ 061021Z AUTO 07006KT 2 1/2SM 02/M03 A2974 RMK T00201030 IEM_DS3505
ZBTJ,1988-12-06 11:00,ZBTJ 061100Z AUTO 07006KT 2 1/2SM 02/M03 A2974 RMK T00201030 IEM_DS3505
ZBTJ,1988-12-06 12:00,ZBTJ 061200Z AUTO 34006KT 2 1/2SM M01/M03 A2977 RMK T10101030 IEM_DS3505
ZBTJ,1988-12-06 14:00,ZBTJ 061400Z AUTO 34006KT 2 1/2SM M01/M03 A2977 RMK T10101030 IEM_DS3505
ZBTJ,1988-12-06 22:00,ZBTJ 062200Z AUTO 33006KT 2SM M03/M04 A2985 RMK T10301040 IEM_DS3505
ZBTJ,1988-12-06 22:17,ZBTJ 062217Z AUTO 33006KT 2SM M03/M04 A2985 RMK T10301040 IEM_DS3505
ZBTJ,1988-12-06 23:00,ZBTJ 062300Z AUTO 36004KT 1SM M03/M04 A2988 RMK T10301040 IEM_DS3505
ZBTJ,1988-12-06 23:23,ZBTJ 062323Z AUTO 36004KT 1SM M03/M04 A2988 RMK T10301040 IEM_DS3505
ZBTJ,1988-12-07 04:00,ZBTJ 070400Z AUTO 35006KT 2SM 05/M03 A3000 RMK T00501030 IEM_DS3505
ZBTJ,1988-12-07 04:43,ZBTJ 070443Z AUTO 35006KT 2SM 05/M03 A3000 RMK T00501030 IEM_DS3505
ZBTJ,1988-12-07 05:00,ZBTJ 070500Z AUTO 36004KT 2SM 06/M03 A3000 RMK T00601030 IEM_DS3505
ZBTJ,1988-12-07 06:00,ZBTJ 070600Z AUTO 35006KT 2SM 05/M03 A3000 RMK T00501030 IEM_DS3505
ZBTJ,1988-12-07 06:30,ZBTJ 070630Z AUTO 33004KT 2SM 07/M03 A3000 RMK T00701030 IEM_DS3505
ZBTJ,1988-12-07 07:00,ZBTJ 070700Z AUTO 33004KT 2SM 07/M03 A3003 RMK T00701030 IEM_DS3505
ZBTJ,1988-12-07 08:00,ZBTJ 070800Z AUTO 33004KT 2SM 07/M03 A3000 RMK T00701030 IEM_DS3505
ZBTJ,1988-12-07 08:26,ZBTJ 070826Z AUTO 32004KT 2SM 07/M03 A3006 RMK T00701030 IEM_DS3505
ZBTJ,1988-12-07 08:27,ZBTJ 070827Z AUTO 32004KT 2SM 07/M03 A3006 RMK T00701030 IEM_DS3505
ZBTJ,1988-12-07 08:30,ZBTJ 070830Z AUTO 32004KT 2SM 07/M03 A3006 RMK T00701030 IEM_DS3505
ZBTJ,1988-12-08 00:00,ZBTJ 080000Z AUTO 32014KT 7SM 02/M11 A3045 RMK T00201110 IEM_DS3505
ZBTJ,1988-12-08 00:33,ZBTJ 080033Z AUTO 32012KT 7SM 01/M11 A3042 RMK T00101110 IEM_DS3505
ZBTJ,1988-12-08 01:00,ZBTJ 080100Z AUTO 32014KT 7SM 02/M11 A3045 RMK T00201110 IEM_DS3505
ZBTJ,1988-12-08 01:26,ZBTJ 080126Z AUTO 32014KT 7SM 02/M11 A3045 RMK T00201110 IEM_DS3505
ZBTJ,1988-12-08 01:40,ZBTJ 080140Z AUTO 32014KT 7SM 02/M11 A3045 RMK T00201110 IEM_DS3505
ZBTJ,1988-12-08 01:43,ZBTJ 080143Z AUTO 32014KT 7SM 02/M11 A3045 RMK T00201110 IEM_DS3505
ZBTJ,1988-12-08 02:00,ZBTJ 080200Z AUTO 32019KT 7SM 04/M13 A3045 RMK T00401130 IEM_DS3505
ZBTJ,1988-12-08 02:28,ZBTJ 080228Z AUTO 32019KT 7SM 04/M13 A3045 RMK T00401130 IEM_DS3505
ZBTJ,1988-12-08 02:31,ZBTJ 080231Z AUTO 32019KT 7SM 04/M13 A3045 RMK T00401130 IEM_DS3505
ZBTJ,1988-12-08 03:00,ZBTJ 080300Z AUTO 32019KT 7SM 05/M13 A3047 RMK T00501130 IEM_DS3505
ZBTJ,1988-12-08 03:18,ZBTJ 080318Z AUTO 32019KT 7SM 05/M13 A3047 RMK T00501130 IEM_DS3505
ZBTJ,1988-12-08 04:00,ZBTJ 080400Z AUTO 32019KT 7SM 05/M13 A3047 RMK T00501130 IEM_DS3505
ZBTJ,1988-12-08 04:23,ZBTJ 080423Z AUTO 31019KT 7SM 04/ A3045 RMK IEM_DS3505
ZBTJ,1988-12-08 04:29,ZBTJ 080429Z AUTO 32019KT 7SM 04/M13 A3045 RMK T00401130 IEM_DS3505
ZBTJ,1988-12-08 05:00,ZBTJ 080500Z AUTO 33019KT 7SM 05/M16 A3042 RMK T00501160 IEM_DS3505
ZBTJ,1988-12-08 06:00,ZBTJ 080600Z AUTO 32019KT 7SM 05/M15 A3042 RMK T00501150 IEM_DS3505
ZBTJ,1988-12-08 06:16,ZBTJ 080616Z AUTO 33019KT 7SM 05/M16 A3042 RMK T00501160 IEM_DS3505
ZBTJ,1988-12-08 06:31,ZBTJ 080631Z AUTO 32019KT 7SM 05/M15 A3042 RMK T00501150 IEM_DS3505
ZBTJ,1988-12-08 07:00,ZBTJ 080700Z AUTO 32019KT 7SM 05/M15 A3042 RMK T00501150 IEM_DS3505
ZBTJ,1988-12-08 07:27,ZBTJ 080727Z AUTO 32019KT 7SM 05/M15 A3042 RMK T00501150 IEM_DS3505
ZBTJ,1988-12-08 07:41,ZBTJ 080741Z AUTO 32019KT 7SM 05/M15 A3042 RMK T00501150 IEM_DS3505
ZBTJ,1988-12-08 08:00,ZBTJ 080800Z AUTO 31016KT 7SM 04/M12 A3045 RMK T00401120 IEM_DS3505
ZBTJ,1988-12-08 08:24,ZBTJ 080824Z AUTO 31016KT 7SM 04/M12 A3045 RMK T00401120 IEM_DS3505
ZBTJ,1988-12-08 08:30,ZBTJ 080830Z AUTO 31016KT 7SM 04/M12 A3045 RMK T00401120 IEM_DS3505
ZBTJ,1988-12-08 09:00,ZBTJ 080900Z AUTO 32010KT 7SM 04/M13 A3045 RMK T00401130 IEM_DS3505
ZBTJ,1988-12-08 09:20,ZBTJ 080920Z AUTO 32010KT 7SM 04/M13 A3045 RMK T00401130 IEM_DS3505
ZBTJ,1988-12-08 09:27,ZBTJ 080927Z AUTO 32010KT 7SM 04/M13 A3045 RMK T00401130 IEM_DS3505
ZBTJ,1988-12-08 10:00,ZBTJ 081000Z AUTO 32010KT 7SM 04/M13 A3045 RMK T00401130 IEM_DS3505
ZBTJ,1988-12-08 10:04,ZBTJ 081004Z AUTO 32010KT 7SM 04/M13 A3045 RMK T00401130 IEM_DS3505
ZBTJ,1988-12-08 10:24,ZBTJ 081024Z AUTO 30010KT 7SM 02/M16 A3045 RMK T00201160 IEM_DS3505
ZBTJ,1988-12-08 10:26,ZBTJ 081026Z AUTO 30010KT 7SM 02/M16 A3045 RMK T00201160 IEM_DS3505
ZBTJ,1988-12-08 10:30,ZBTJ 081030Z AUTO 32016KT 7SM 02/M17 A3047 RMK T00201170 IEM_DS3505
ZBTJ,1988-12-08 10:43,ZBTJ 081043Z AUTO 30010KT 7SM 02/M16 A3045 RMK T00201160 IEM_DS3505
ZBTJ,1988-12-08 11:00,ZBTJ 081100Z AUTO 33017KT 7SM 02/ A3050 RMK IEM_DS3505
ZBTJ,1988-12-08 12:00,ZBTJ 081200Z AUTO 32016KT 7SM 02/M17 A3047 RMK T00201170 IEM_DS3505
ZBTJ,1988-12-08 12:23,ZBTJ 081223Z AUTO 33017KT 7SM 02/M01 A3050 RMK T00201010 IEM_DS3505
ZBTJ,1988-12-08 12:26,ZBTJ 081226Z AUTO 33017KT 7SM 02/M01 A3050 RMK T00201010 IEM_DS3505
ZBTJ,1988-12-08 12:51,ZBTJ 081251Z AUTO 33017KT 7SM 02/M01 A3050 RMK T00201010 IEM_DS3505
ZBTJ,1988-12-08 13:00,ZBTJ 081300Z AUTO 33023KT 6SM 00/M17 A3050 RMK T00001170 IEM_DS3505
ZBTJ,1988-12-08 13:30,ZBTJ 081330Z AUTO 33023KT 6SM 00/M17 A3050 RMK T00001170 IEM_DS3505
ZBTJ,1988-12-08 14:00,ZBTJ 081400Z AUTO 33012KT 7SM M01/M17 A3053 RMK T10101170 IEM_DS3505
ZBTJ,1988-12-08 14:23,ZBTJ 081423Z AUTO 33012KT 7SM M01/M17 A3053 RMK T10101170 IEM_DS3505
ZBTJ,1988-12-08 22:00,ZBTJ 082200Z AUTO 32004KT 7SM M02/M14 A3053 RMK T10201140 IEM_DS3505
ZBTJ,1988-12-08 22:24,ZBTJ 082224Z AUTO 32004KT 7SM M02/M14 A3053 RMK T10201140 IEM_DS3505
ZBTJ,1988-12-08 22:27,ZBTJ 082227Z AUTO 32004KT 7SM M02/M14 A3053 RMK T10201140 IEM_DS3505
ZBTJ,1988-12-08 22:56,ZBTJ 082256Z AUTO 36008KT 7SM M07/M15 A3053 RMK T10701150 IEM_DS3505
ZBTJ,1988-12-08 23:00,ZBTJ 082300Z AUTO 36008KT 7SM M07/M15 A3053 RMK T10701150 IEM_DS3505
ZBTJ,1988-12-08 23:24,ZBTJ 082324Z AUTO 36008KT 7SM M07/M15 A3053 RMK T10701150 IEM_DS3505
ZBTJ,1988-12-09 00:00,ZBTJ 090000Z AUTO 33004KT 7SM M06/M14 A3053 RMK T10601140 IEM_DS3505
ZBTJ,1988-12-09 00:27,ZBTJ 090027Z AUTO 33004KT 7SM M06/M14 A3053 RMK T10601140 IEM_DS3505
ZBTJ,1988-12-09 01:00,ZBTJ 090100Z AUTO 00000KT 7SM M02/M12 A3053 RMK T10201120 IEM_DS3505
ZBTJ,1988-12-09 02:00,ZBTJ 090200Z AUTO 31008KT 7SM 00/M13 A3053 RMK T00001130 IEM_DS3505
ZBTJ,1988-12-09 03:00,ZBTJ 090300Z AUTO 24008KT 7SM 01/M11 A3053 RMK T00101110 IEM_DS3505
ZBTJ,1988-12-09 05:00,ZBTJ 090500Z AUTO 22010KT 7SM 03/M09 A3042 RMK T00301090 IEM_DS3505
ZBTJ,1988-12-09 05:27,ZBTJ 090527Z AUTO 22010KT 7SM 03/M09 A3042 RMK T00301090 IEM_DS3505
ZBTJ,1988-12-09 06:00,ZBTJ 090600Z AUTO 26012KT 7SM 03/M09 A3039 RMK T00301090 IEM_DS3505
ZBTJ,1988-12-09 06:25,ZBTJ 090625Z AUTO 26012KT 7SM 03/M09 A3039 RMK T00301090 IEM_DS3505
ZBTJ,1988-12-09 06:29,ZBTJ 090629Z AUTO 26012KT 7SM 03/M09 A3039 RMK T00301090 IEM_DS3505
ZBTJ,1988-12-09 06:30,ZBTJ 090630Z AUTO 26012KT 7SM 03/M09 A3039 RMK T00301090 IEM_DS3505
ZBTJ,1988-12-09 07:00,ZBTJ 090700Z AUTO 27014KT 7SM 03/M03 RMK T00301030 IEM_DS3505
ZBTJ,1988-12-09 09:00,ZBTJ 090900Z AUTO 25008KT 7SM 01/M16 RMK T00101160 IEM_DS3505
ZBTJ,1988-12-09 10:00,ZBTJ 091000Z AUTO 25006KT 7SM M01/M13 A3036 RMK T10101130 IEM_DS3505
ZBTJ,1988-12-09 10:30,ZBTJ 091030Z AUTO 25006KT 7SM M01/M13 A3036 RMK T10101130 IEM_DS3505
ZBTJ,1988-12-09 11:00,ZBTJ 091100Z AUTO 24006KT 7SM M01/M14 A3036 RMK T10101140 IEM_DS3505
ZBTJ,1988-12-09 13:00,ZBTJ 091300Z AUTO 14006KT 7SM M02/M11 A3036 RMK T10201110 IEM_DS3505
ZBTJ,1988-12-09 14:00,ZBTJ 091400Z AUTO 14006KT 7SM M02/M11 A3036 RMK T10201110 IEM_DS3505
ZBTJ,1988-12-09 14:27,ZBTJ 091427Z AUTO 14006KT 7SM M02/M11 A3036 RMK T10201110 IEM_DS3505
ZBTJ,1988-12-09 23:00,ZBTJ 092300Z AUTO 00000KT 7SM M06/M16 A3039 RMK T10601160 IEM_DS3505
ZBTJ,1988-12-09 23:24,ZBTJ 092324Z AUTO 35006KT 7SM M05/M17 A3039 RMK T10501170 IEM_DS3505
ZBTJ,1988-12-09 23:26,ZBTJ 092326Z AUTO 35006KT 7SM M05/M17 A3039 RMK T10501170 IEM_DS3505
ZBTJ,1988-12-09 23:47,ZBTJ 092347Z AUTO 35006KT 7SM M05/M17 A3039 RMK T10501170 IEM_DS3505
ZBTJ,1988-12-10 00:00,ZBTJ 100000Z AUTO 00000KT 7SM M06/M16 A3039 RMK T10601160 IEM_DS3505
ZBTJ,1988-12-10 01:00,ZBTJ 100100Z AUTO 25006KT 7SM M02/M16 A3039 RMK T10201160 IEM_DS3505
ZBTJ,1988-12-10 01:27,ZBTJ 100127Z AUTO 25006KT 7SM M02/M16 A3039 RMK T10201160 IEM_DS3505
ZBTJ,1988-12-10 03:27,ZBTJ 100327Z AUTO 26006KT 7SM 02/M15 A3039 RMK T00201150 IEM_DS3505
ZBTJ,1988-12-10 03:28,ZBTJ 100328Z AUTO 26006KT 7SM 02/M15 A3039 RMK T00201150 IEM_DS3505
ZBTJ,1988-12-10 03:31,ZBTJ 100331Z AUTO 26006KT 7SM 02/M15 A3039 RMK T00201150 IEM_DS3505
ZBTJ,1988-12-10 04:00,ZBTJ 100400Z AUTO 28010KT 7SM 03/M19 A3036 RMK T00301190 IEM_DS3505
ZBTJ,1988-12-10 04:32,ZBTJ 100432Z AUTO 28010KT 7SM 03/M19 A3036 RMK T00301190 IEM_DS3505
ZBTJ,1988-12-10 05:00,ZBTJ 100500Z AUTO 25012KT 7SM 04/M18 A3030 RMK T00401180 IEM_DS3505
ZBTJ,1988-12-10 05:51,ZBTJ 100551Z AUTO 25012KT 7SM 04/M18 A3030 RMK T00401180 IEM_DS3505
ZBTJ,1988-12-10 06:00,ZBTJ 100600Z AUTO 26012KT 7SM 04/M18 A3027 RMK T00401180 IEM_DS3505
ZBTJ,1988-12-10 06:24,ZBTJ 100624Z AUTO 26012KT 7SM 04/M18 A3027 RMK T00401180 IEM_DS3505
ZBTJ,1988-12-10 06:37,ZBTJ 100637Z AUTO 26012KT 7SM 04/M18 A3027 RMK T00401180 IEM_DS3505
ZBTJ,1988-12-10 07:00,ZBTJ 100700Z AUTO 24012KT 7SM 04/M18 A3027 RMK T00401180 IEM_DS3505
ZBTJ,1988-12-10 08:00,ZBTJ 100800Z AUTO 26012KT 7SM 03/M18 A3027 RMK T00301180 IEM_DS3505
ZBTJ,1988-12-10 08:26,ZBTJ 100826Z AUTO 26012KT 7SM 03/M18 A3027 RMK T00301180 IEM_DS3505
ZBTJ,1988-12-10 08:28,ZBTJ 100828Z AUTO 26012KT 7SM 03/M18 A3027 RMK T00301180 IEM_DS3505
ZBTJ,1988-12-10 10:00,ZBTJ 101000Z AUTO 25008KT 7SM 00/M14 A3027 RMK T00001140 IEM_DS3505
ZBTJ,1988-12-10 11:24,ZBTJ 101124Z AUTO 22008KT 7SM 00/M13 A3027 RMK T00001130 IEM_DS3505
ZBTJ,1988-12-10 14:00,ZBTJ 101400Z AUTO 24012KT 7SM 01/M14 A3027 RMK T00101140 IEM_DS3505
ZBTJ,1988-12-10 23:00,ZBTJ 102300Z AUTO 24008KT 2 1/2SM M03/M10 A3018 RMK T10301100 IEM_DS3505
ZBTJ,1988-12-10 23:24,ZBTJ 102324Z AUTO 24008KT 2 1/2SM M03/M10 A3018 RMK T10301100 IEM_DS3505
ZBTJ,1988-12-10 23:27,ZBTJ 102327Z AUTO 24008KT 2 1/2SM M03/M10 A3018 RMK T10301100 IEM_DS3505
ZBTJ,1988-12-11 00:00,ZBTJ 110000Z AUTO 23006KT 2SM M03/M10 A3018 RMK T10301100 IEM_DS3505
ZBTJ,1988-12-11 00:21,ZBTJ 110021Z AUTO 23006KT 2SM M03/M10 A3018 RMK T10301100 IEM_DS3505
ZBTJ,1988-12-11 00:36,ZBTJ 110036Z AUTO 23006KT 2SM M03/M10 A3018 RMK T10301100 IEM_DS3505
ZBTJ,1988-12-11 01:00,ZBTJ 110100Z AUTO 23004KT 1 1/2SM A3018 RMK IEM_DS3505
ZBTJ,1988-12-11 01:33,ZBTJ 110133Z AUTO 23004KT 1 1/2SM A3018 RMK IEM_DS3505
ZBTJ,1988-12-11 03:27,ZBTJ 110327Z AUTO 22004KT 2SM 05/M01 A3015 RMK T00501010 IEM_DS3505
ZBTJ,1988-12-11 03:31,ZBTJ 110331Z AUTO 22004KT 2SM 05/M01 A3015 RMK T00501010 IEM_DS3505
ZBTJ,1988-12-11 03:32,ZBTJ 110332Z AUTO 22004KT 2SM 05/M01 A3015 RMK T00501010 IEM_DS3505
ZBTJ,1988-12-11 05:00,ZBTJ 110500Z AUTO 21010KT 6SM 08/M15 A3006 RMK T00801150 IEM_DS3505
ZBTJ,1988-12-11 06:00,ZBTJ 110600Z AUTO 23014KT 6SM 08/M15 A3003 RMK T00801150 IEM_DS3505
ZBTJ,1988-12-11 06:24,ZBTJ 110624Z AUTO 23014KT 6SM 08/M15 A3003 RMK T00801150 IEM_DS3505
ZBTJ,1988-12-11 07:24,ZBTJ 110724Z AUTO 22019KT 6SM 07/M18 A3000 RMK T00701180 IEM_DS3505
ZBTJ,1988-12-11 07:27,ZBTJ 110727Z AUTO 22019KT 6SM 07/M18 A3000 RMK T00701180 IEM_DS3505
ZBTJ,1988-12-11 07:30,ZBTJ 110730Z AUTO 22019KT 6SM 07/M18 A3000 RMK T00701180 IEM_DS3505
ZBTJ,1988-12-11 08:00,ZBTJ 110800Z AUTO 23010KT 6SM 07/M13 A2997 RMK T00701130 IEM_DS3505
ZBTJ,1988-12-11 09:00,ZBTJ 110900Z AUTO 20006KT 6SM 04/M07 A2997 RMK T00401070 IEM_DS3505
ZBTJ,1988-12-11 10:00,ZBTJ 111000Z AUTO 16004KT 7SM 02/M09 A2994 RMK T00201090 IEM_DS3505
ZBTJ,1988-12-11 10:27,ZBTJ 111027Z AUTO 12010KT 6SM 03/M08 A2997 RMK T00301080 IEM_DS3505
ZBTJ,1988-12-11 11:00,ZBTJ 111100Z AUTO 16004KT 7SM 02/M09 A2994 RMK T00201090 IEM_DS3505
ZBTJ,1988-12-11 12:00,ZBTJ 111200Z AUTO 17004KT 7SM 01/M10 A2994 RMK T00101100 IEM_DS3505
ZBTJ,1988-12-11 12:14,ZBTJ 111214Z AUTO 17004KT 7SM 01/M10 A2994 RMK T00101100 IEM_DS3505
ZBTJ,1988-12-11 12:15,ZBTJ 111215Z AUTO 17004KT 7SM 01/M10 A2994 RMK T00101100 IEM_DS3505
ZBTJ,1988-12-11 12:55,ZBTJ 111255Z AUTO 17004KT 7SM 01/M10 A2994 RMK T00101100 IEM_DS3505
ZBTJ,1988-12-11 13:00,ZBTJ 111300Z AUTO 00000KT 7SM M01/M08 A2994 RMK T10101080 IEM_DS3505
ZBTJ,1988-12-11 13:18,ZBTJ 111318Z AUTO 00000KT 7SM M01/M08 A2994 RMK T10101080 IEM_DS3505
ZBTJ,1988-12-11 14:00,ZBTJ 111400Z AUTO 00000KT 7SM M01/M08 A2994 RMK T10101080 IEM_DS3505
ZBTJ,1988-12-11 15:00,ZBTJ 111500Z AUTO 00000KT 7SM M01/M08 A2994 RMK T10101080 IEM_DS3505
ZBTJ,1988-12-11 23:00,ZBTJ 112300Z AUTO 00000KT 1 1/2SM M04/M08 A2994 RMK T10401080 IEM_DS3505
ZBTJ,1988-12-11 23:30,ZBTJ 112330Z AUTO 00000KT 1 1/2SM M04/M08 A2994 RMK T10401080 IEM_DS3505
ZBTJ,1988-12-11 23:39,ZBTJ 112339Z AUTO 00000KT 1 1/2SM M04/M08 A2994 RMK T10401080 IEM_DS3505
ZBTJ,1988-12-12 00:00,ZBTJ 120000Z AUTO 26004KT 1 1/4SM M03/M08 A2997 RMK T10301080 IEM_DS3505
ZBTJ,1988-12-12 00:41,ZBTJ 120041Z AUTO 26004KT 1 1/4SM M03/M08 A2997 RMK T10301080 IEM_DS3505
ZBTJ,1988-12-12 00:52,ZBTJ 120052Z AUTO 26004KT 1 1/4SM M03/M08 A2997 RMK T10301080 IEM_DS3505
ZBTJ,1988-12-12 04:00,ZBTJ 120400Z AUTO 33004KT 6SM 08/M07 A3000 RMK T00801070 IEM_DS3505
ZBTJ,1988-12-12 05:00,ZBTJ 120500Z AUTO 35012KT 7SM 09/M09 A3000 RMK T00901090 IEM_DS3505
ZBTJ,1988-12-12 05:30,ZBTJ 120530Z AUTO 35012KT 7SM 09/M09 A3000 RMK T00901090 IEM_DS3505
ZBTJ,1988-12-12 05:39,ZBTJ 120539Z AUTO 35012KT 7SM 09/M09 A3000 RMK T00901090 IEM_DS3505
ZBTJ,1988-12-12 08:00,ZBTJ 120800Z AUTO 23004KT 2 1/2SM 08/M04 A3003 RMK T00801040 IEM_DS3505
ZBTJ,1988-12-12 08:12,ZBTJ 120812Z AUTO 23004KT 2 1/2SM 08/M04 A3003 RMK T00801040 IEM_DS3505
ZBTJ,1988-12-12 22:00,ZBTJ 122200Z AUTO 32017KT 7SM M01/M15 A3024 RMK T10101150 IEM_DS3505
ZBTJ,1988-12-12 22:25,ZBTJ 122225Z AUTO 32017KT 7SM M01/M15 A3024 RMK T10101150 IEM_DS3505
ZBTJ,1988-12-12 23:00,ZBTJ 122300Z AUTO 34023KT 7SM M03/M15 A3039 RMK T10301150 IEM_DS3505
ZBTJ,1988-12-13 00:00,ZBTJ 130000Z AUTO 33021KT 7SM M04/ A3036 RMK IEM_DS3505
ZBTJ,1988-12-13 01:00,ZBTJ 130100Z AUTO 34023KT 7SM M03/M15 A3039 RMK T10301150 IEM_DS3505
ZBTJ,1988-12-13 02:00,ZBTJ 130200Z AUTO 33021KT 7SM M02/M15 A3039 RMK T10201150 IEM_DS3505
ZBTJ,1988-12-13 03:00,ZBTJ 130300Z AUTO 33021KT 7SM M01/M15 A3039 RMK T10101150 IEM_DS3505
ZBTJ,1988-12-13 03:15,ZBTJ 130315Z AUTO 33021KT 7SM M01/M15 A3039 RMK T10101150 IEM_DS3505
ZBTJ,1988-12-13 03:21,ZBTJ 130321Z AUTO 33021KT 7SM M01/M15 A3039 RMK T10101150 IEM_DS3505
ZBTJ,1988-12-13 04:00,ZBTJ 130400Z AUTO 32017KT 7SM 00/M21 A3036 RMK T00001210 IEM_DS3505
ZBTJ,1988-12-13 04:27,ZBTJ 130427Z AUTO 33016KT 7SM M01/M14 A3039 RMK T10101140 IEM_DS3505
ZBTJ,1988-12-13 04:30,ZBTJ 130430Z AUTO 33016KT 7SM M01/M14 A3039 RMK T10101140 IEM_DS3505
ZBTJ,1988-12-13 05:00,ZBTJ 130500Z AUTO 33019KT 7SM 00/M21 A3033 RMK T00001210 IEM_DS3505
ZBTJ,1988-12-13 06:00,ZBTJ 130600Z AUTO 33019KT 7SM 00/M21 A3033 RMK T00001210 IEM_DS3505
ZBTJ,1988-12-13 07:00,ZBTJ 130700Z AUTO 33017KT 7SM 00/M24 A3033 RMK T00001240 IEM_DS3505
ZBTJ,1988-12-13 08:00,ZBTJ 130800Z AUTO 34014KT 7SM M01/M22 A3036 RMK T10101220 IEM_DS3505
ZBTJ,1988-12-13 09:00,ZBTJ 130900Z AUTO 33004KT 7SM M03/M17 A3036 RMK T10301170 IEM_DS3505
ZBTJ,1988-12-13 09:24,ZBTJ 130924Z AUTO 33004KT 7SM M03/M17 A3036 RMK T10301170 IEM_DS3505
ZBTJ,1988-12-13 09:30,ZBTJ 130930Z AUTO 33004KT 7SM M03/M17 A3036 RMK T10301170 IEM_DS3505
ZBTJ,1988-12-13 10:00,ZBTJ 131000Z AUTO 00000KT 7SM M04/M17 A3036 RMK T10401170 IEM_DS3505
ZBTJ,1988-12-13 10:24,ZBTJ 131024Z AUTO 00000KT 7SM M04/M17 A3036 RMK T10401170 IEM_DS3505
ZBTJ,1988-12-13 10:30,ZBTJ 131030Z AUTO 00000KT 7SM M04/M17 A3036 RMK T10401170 IEM_DS3505
ZBTJ,1988-12-13 11:00,ZBTJ 131100Z AUTO 00000KT 7SM M05/M17 A3039 RMK T10501170 IEM_DS3505
ZBTJ,1988-12-13 12:00,ZBTJ 131200Z AUTO 24004KT 7SM M06/M15 A3042 RMK T10601150 IEM_DS3505
ZBTJ,1988-12-13 12:26,ZBTJ 131226Z AUTO 24004KT 7SM M06/M15 A3042 RMK T10601150 IEM_DS3505
ZBTJ,1988-12-13 13:00,ZBTJ 131300Z AUTO 24004KT 7SM M06/M15 A3042 RMK T10601150 IEM_DS3505
ZBTJ,1988-12-13 14:00,ZBTJ 131400Z AUTO 27006KT 7SM M04/M15 A3042 RMK T10401150 IEM_DS3505
ZBTJ,1988-12-13 22:00,ZBTJ 132200Z AUTO 00000KT 7SM M09/M14 A3042 RMK T10901140 IEM_DS3505
ZBTJ,1988-12-13 22:40,ZBTJ 132240Z AUTO 00000KT 7SM M09/M14 A3042 RMK T10901140 IEM_DS3505
ZBTJ,1988-12-13 23:22,ZBTJ 132322Z AUTO 02002KT 7SM M09/M15 A3042 RMK T10901150 IEM_DS3505
ZBTJ,1988-12-13 23:27,ZBTJ 132327Z AUTO 02002KT 7SM M09/M15 A3042 RMK T10901150 IEM_DS3505
ZBTJ,1988-12-14 00:00,ZBTJ 140000Z AUTO 15002KT 7SM M09/M14 A3045 RMK T10901140 IEM_DS3505
ZBTJ,1988-12-14 00:20,ZBTJ 140020Z AUTO 15002KT 7SM M09/M14 A3045 RMK T10901140 IEM_DS3505
ZBTJ,1988-12-14 01:00,ZBTJ 140100Z AUTO 08002KT 6SM M05/M11 A3045 RMK T10501110 IEM_DS3505
ZBTJ,1988-12-14 01:41,ZBTJ 140141Z AUTO 08002KT 6SM M05/M11 A3045 RMK T10501110 IEM_DS3505
ZBTJ,1988-12-14 02:00,ZBTJ 140200Z AUTO 07006KT 6SM M02/M14 A3047 RMK T10201140 IEM_DS3505
ZBTJ,1988-12-14 02:27,ZBTJ 140227Z AUTO 07006KT 6SM M02/M14 A3047 RMK T10201140 IEM_DS3505
ZBTJ,1988-12-14 03:00,ZBTJ 140300Z AUTO 07006KT 6SM M02/M14 A3047 RMK T10201140 IEM_DS3505
ZBTJ,1988-12-14 03:14,ZBTJ 140314Z AUTO 06008KT 6SM M01/M16 A3047 RMK T10101160 IEM_DS3505
ZBTJ,1988-12-14 05:00,ZBTJ 140500Z AUTO 03012KT 7SM M01/M16 A3045 RMK T10101160 IEM_DS3505
ZBTJ,1988-12-14 06:00,ZBTJ 140600Z AUTO 03012KT 7SM M01/M16 A3045 RMK T10101160 IEM_DS3505
ZBTJ,1988-12-14 07:00,ZBTJ 140700Z AUTO 02008KT 7SM M01/M16 A3042 RMK T10101160 IEM_DS3505
ZBTJ,1988-12-14 07:25,ZBTJ 140725Z AUTO 35008KT 7SM M01/M18 A3042 RMK T10101180 IEM_DS3505
ZBTJ,1988-12-14 07:42,ZBTJ 140742Z AUTO 35008KT 7SM M01/M18 A3042 RMK T10101180 IEM_DS3505
ZBTJ,1988-12-14 08:00,ZBTJ 140800Z AUTO 35008KT 7SM M01/M18 A3042 RMK T10101180 IEM_DS3505
ZBTJ,1988-12-14 08:43,ZBTJ 140843Z AUTO 32004KT 7SM M02/M15 A3042 RMK T10201150 IEM_DS3505
ZBTJ,1988-12-14 09:00,ZBTJ 140900Z AUTO 33008KT 7SM M04/M16 RMK T10401160 IEM_DS3505
ZBTJ,1988-12-14 09:17,ZBTJ 140917Z AUTO 33008KT 7SM M04/M16 RMK T10401160 IEM_DS3505
ZBTJ,1988-12-14 09:27,ZBTJ 140927Z AUTO 33008KT 7SM M04/M16 RMK T10401160 IEM_DS3505
ZBTJ,1988-12-14 10:00,ZBTJ 141000Z AUTO 34004KT 7SM M06/M18 A3042 RMK T10601180 IEM_DS3505
ZBTJ,1988-12-14 10:24,ZBTJ 141024Z AUTO 34004KT 7SM M06/M18 A3042 RMK T10601180 IEM_DS3505
ZBTJ,1988-12-14 11:00,ZBTJ 141100Z AUTO 00000KT 7SM M06/M17 A3045 RMK T10601170 IEM_DS3505
ZBTJ,1988-12-14 11:01,ZBTJ 141101Z AUTO 34004KT 7SM M06/M18 A3042 RMK T10601180 IEM_DS3505
ZBTJ,1988-12-14 11:23,ZBTJ 141123Z AUTO 00000KT 7SM M06/M17 A3045 RMK T10601170 IEM_DS3505
ZBTJ,1988-12-14 12:00,ZBTJ 141200Z AUTO 34004KT 7SM M06/M18 A3042 RMK T10601180 IEM_DS3505
ZBTJ,1988-12-14 12:27,ZBTJ 141227Z AUTO 32006KT 7SM A3045 RMK IEM_DS3505
ZBTJ,1988-12-14 12:31,ZBTJ 141231Z AUTO 32006KT 7SM A3045 RMK IEM_DS3505
ZBTJ,1988-12-14 13:00,ZBTJ 141300Z AUTO 32006KT 7SM A3045 RMK IEM_DS3505
ZBTJ,1988-12-14 13:21,ZBTJ 141321Z AUTO 32012KT 7SM M07/M17 A3045 RMK T10701170 IEM_DS3505
ZBTJ,1988-12-14 13:27,ZBTJ 141327Z AUTO 32012KT 7SM M07/M17 A3045 RMK T10701170 IEM_DS3505
ZBTJ,1988-12-14 14:00,ZBTJ 141400Z AUTO 32012KT 7SM M07/M17 A3045 RMK T10701170 IEM_DS3505
ZBTJ,1988-12-15 00:00,ZBTJ 150000Z AUTO 32010KT 7SM M09/M19 A3050 RMK T10901190 IEM_DS3505
ZBTJ,1988-12-15 00:01,ZBTJ 150001Z AUTO 32010KT 7SM M09/M19 A3050 RMK T10901190 IEM_DS3505
ZBTJ,1988-12-15 01:00,ZBTJ 150100Z AUTO 30017KT 7SM M07/M21 A3050 RMK T10701210 IEM_DS3505
ZBTJ,1988-12-15 01:23,ZBTJ 150123Z AUTO 30017KT 7SM M07/M21 A3050 RMK T10701210 IEM_DS3505
ZBTJ,1988-12-15 01:27,ZBTJ 150127Z AUTO 30017KT 7SM M07/M21 A3050 RMK T10701210 IEM_DS3505
ZBTJ,1988-12-15 02:00,ZBTJ 150200Z AUTO 32023KT 7SM M04/M21 A3053 RMK T10401210 IEM_DS3505
ZBTJ,1988-12-15 02:20,ZBTJ 150220Z AUTO 32023KT 7SM M05/M22 A3053 RMK T10501220 IEM_DS3505
ZBTJ,1988-12-15 03:00,ZBTJ 150300Z AUTO 32023KT 7SM M04/M21 A3053 RMK T10401210 IEM_DS3505
ZBTJ,1988-12-15 03:28,ZBTJ 150328Z AUTO 32023KT 7SM M04/M21 A3053 RMK T10401210 IEM_DS3505
ZBTJ,1988-12-15 04:00,ZBTJ 150400Z AUTO 32021KT 7SM M03/M21 A3050 RMK T10301210 IEM_DS3505
ZBTJ,1988-12-15 05:00,ZBTJ 150500Z AUTO 31019KT 7SM M02/M20 A3047 RMK T10201200 IEM_DS3505
ZBTJ,1988-12-15 05:32,ZBTJ 150532Z AUTO 31019KT 7SM M02/M20 A3047 RMK T10201200 IEM_DS3505
ZBTJ,1988-12-15 07:00,ZBTJ 150700Z AUTO 31016KT 7SM M02/M19 A3047 RMK T10201190 IEM_DS3505
ZBTJ,1988-12-15 08:00,ZBTJ 150800Z AUTO 31016KT 7SM M02/M19 A3047 RMK T10201190 IEM_DS3505
ZBTJ,1988-12-15 08:19,ZBTJ 150819Z AUTO 31016KT 7SM M02/M19 A3047 RMK T10201190 IEM_DS3505
ZBTJ,1988-12-15 10:00,ZBTJ 151000Z AUTO 31012KT 7SM M04/M20 A3050 RMK T10401200 IEM_DS3505
ZBTJ,1988-12-15 10:21,ZBTJ 151021Z AUTO 31012KT 7SM M04/M20 A3050 RMK T10401200 IEM_DS3505
ZBTJ,1988-12-15 10:35,ZBTJ 151035Z AUTO 31012KT 7SM M04/M20 A3050 RMK T10401200 IEM_DS3505
ZBTJ,1988-12-15 11:00,ZBTJ 151100Z AUTO 31010KT 7SM M04/M15 A3050 RMK T10401150 IEM_DS3505
ZBTJ,1988-12-15 11:15,ZBTJ 151115Z AUTO 31010KT 7SM M04/M15 A3050 RMK T10401150 IEM_DS3505
ZBTJ,1988-12-15 11:30,ZBTJ 151130Z AUTO 31010KT 7SM M04/M15 A3050 RMK T10401150 IEM_DS3505
ZBTJ,1988-12-15 12:00,ZBTJ 151200Z AUTO 31010KT 7SM M04/M15 A3050 RMK T10401150 IEM_DS3505
ZBTJ,1988-12-15 13:00,ZBTJ 151300Z AUTO 30008KT 7SM M05/M15 A3050 RMK T10501150 IEM_DS3505
ZBTJ,1988-12-15 13:24,ZBTJ 151324Z AUTO 30008KT 7SM M05/M15 A3050 RMK T10501150 IEM_DS3505
ZBTJ,1988-12-15 13:25,ZBTJ 151325Z AUTO 30008KT 7SM M05/M15 A3050 RMK T10501150 IEM_DS3505
ZBTJ,1988-12-15 14:00,ZBTJ 151400Z AUTO 28006KT 7SM M06/M16 A3050 RMK T10601160 IEM_DS3505
ZBTJ,1988-12-15 22:51,ZBTJ 152251Z AUTO 31012KT 7SM M06/M19 A3050 RMK T10601190 IEM_DS3505
ZBTJ,1988-12-15 23:00,ZBTJ 152300Z AUTO 31012KT 7SM M06/M19 A3050 RMK T10601190 IEM_DS3505
ZBTJ,1988-12-16 00:00,ZBTJ 160000Z AUTO 31010KT 7SM M02/M16 A3053 RMK T10201160 IEM_DS3505
ZBTJ,1988-12-16 01:00,ZBTJ 160100Z AUTO 33006KT 7SM M04/M17 A3053 RMK T10401170 IEM_DS3505
ZBTJ,1988-12-16 01:26,ZBTJ 160126Z AUTO 33006KT 7SM M04/M17 A3053 RMK T10401170 IEM_DS3505
ZBTJ,1988-12-16 02:24,ZBTJ 160224Z AUTO 32016KT 7SM M01/M22 A3056 RMK T10101220 IEM_DS3505
ZBTJ,1988-12-16 02:31,ZBTJ 160231Z AUTO 32016KT 7SM M01/M22 A3056 RMK T10101220 IEM_DS3505
ZBTJ,1988-12-16 03:12,ZBTJ 160312Z AUTO 33019KT 7SM 00/M21 A3056 RMK T00001210 IEM_DS3505
ZBTJ,1988-12-16 03:28,ZBTJ 160328Z AUTO 33019KT 7SM 00/M21 A3056 RMK T00001210 IEM_DS3505
ZBTJ,1988-12-16 09:00,ZBTJ 160900Z AUTO 32004KT 7SM M02/M14 A3053 RMK T10201140 IEM_DS3505
ZBTJ,1988-12-16 10:00,ZBTJ 161000Z AUTO 29002KT 7SM M04/M16 A3053 RMK T10401160 IEM_DS3505
ZBTJ,1988-12-16 10:30,ZBTJ 161030Z AUTO 29002KT 7SM M04/M16 A3053 RMK T10401160 IEM_DS3505
ZBTJ,1988-12-16 11:00,ZBTJ 161100Z AUTO 24002KT 7SM A3053 RMK IEM_DS3505
ZBTJ,1988-12-16 11:26,ZBTJ 161126Z AUTO 24002KT 7SM 04/M15 A3053 RMK T00401150 IEM_DS3505
ZBTJ,1988-12-16 12:00,ZBTJ 161200Z AUTO 23004KT 7SM M02/M15 A3053 RMK T10201150 IEM_DS3505
ZBTJ,1988-12-16 13:00,ZBTJ 161300Z AUTO 25006KT 7SM M04/M15 A3053 RMK T10401150 IEM_DS3505
ZBTJ,1988-12-16 13:24,ZBTJ 161324Z AUTO 25006KT 7SM M04/M15 A3053 RMK T10401150 IEM_DS3505
ZBTJ,1988-12-16 23:00,ZBTJ 162300Z AUTO 26004KT 7SM M06/M15 A3047 RMK T10601150 IEM_DS3505
ZBTJ,1988-12-16 23:28,ZBTJ 162328Z AUTO 26004KT 7SM M06/M15 A3047 RMK T10601150 IEM_DS3505
ZBTJ,1988-12-17 02:00,ZBTJ 170200Z AUTO 26008KT 2 1/2SM M01/M14 A3047 RMK T10101140 IEM_DS3505
ZBTJ,1988-12-17 02:24,ZBTJ 170224Z AUTO 26008KT 2 1/2SM M01/M14 A3047 RMK T10101140 IEM_DS3505
ZBTJ,1988-12-17 04:00,ZBTJ 170400Z AUTO 25008KT 3SM 03/M13 A3045 RMK T00301130 IEM_DS3505
ZBTJ,1988-12-17 05:00,ZBTJ 170500Z AUTO 27006KT 3SM 04/M11 A3042 RMK T00401110 IEM_DS3505
ZBTJ,1988-12-17 05:25,ZBTJ 170525Z AUTO 27006KT 3SM 04/M11 A3042 RMK T00401110 IEM_DS3505
ZBTJ,1988-12-17 07:00,ZBTJ 170700Z AUTO 26006KT 4SM 05/M14 A3036 RMK T00501140 IEM_DS3505
ZBTJ,1988-12-17 07:27,ZBTJ 170727Z AUTO 26006KT 4SM 05/M14 A3036 RMK T00501140 IEM_DS3505
ZBTJ,1988-12-17 07:34,ZBTJ 170734Z AUTO 26006KT 4SM 05/M14 A3036 RMK T00501140 IEM_DS3505
ZBTJ,1988-12-17 08:00,ZBTJ 170800Z AUTO 22006KT 4SM 04/M13 A3027 RMK T00401130 IEM_DS3505
ZBTJ,1988-12-17 12:00,ZBTJ 171200Z AUTO 21006KT 3SM M02/M12 A3036 RMK T10201120 IEM_DS3505
ZBTJ,1988-12-17 21:00,ZBTJ 172100Z AUTO 21006KT 7SM M05/M12 A3024 RMK T10501120 IEM_DS3505
ZBTJ,1988-12-17 22:21,ZBTJ 172221Z AUTO 21006KT 7SM M05/M12 A3024 RMK T10501120 IEM_DS3505
ZBTJ,1988-12-17 22:30,ZBTJ 172230Z AUTO 21006KT 7SM M05/M12 A3024 RMK T10501120 IEM_DS3505
ZBTJ,1988-12-17 23:00,ZBTJ 172300Z AUTO 21006KT 7SM M05/M12 A3024 RMK T10501120 IEM_DS3505
ZBTJ,1988-12-18 00:00,ZBTJ 180000Z AUTO 21006KT 7SM M05/M12 A3024 RMK T10501120 IEM_DS3505
ZBTJ,1988-12-18 00:26,ZBTJ 180026Z AUTO 21006KT 7SM M05/M12 A3024 RMK T10501120 IEM_DS3505
ZBTJ,1988-12-18 01:00,ZBTJ 180100Z AUTO 15006KT 2 1/2SM M03/M12 A3024 RMK T10301120 IEM_DS3505
ZBTJ,1988-12-18 01:17,ZBTJ 180117Z AUTO 15006KT 2 1/2SM M03/M12 A3024 RMK T10301120 IEM_DS3505
ZBTJ,1988-12-18 02:00,ZBTJ 180200Z AUTO 22017KT 2 1/2SM M01/M09 A3024 RMK T10101090 IEM_DS3505
ZBTJ,1988-12-18 02:27,ZBTJ 180227Z AUTO 22017KT 2 1/2SM M01/M09 A3024 RMK T10101090 IEM_DS3505
ZBTJ,1988-12-18 03:00,ZBTJ 180300Z AUTO 24006KT 4SM 00/M06 A3024 RMK T00001060 IEM_DS3505
ZBTJ,1988-12-18 03:12,ZBTJ 180312Z AUTO 23008KT 3SM 00/M07 A3024 RMK T00001070 IEM_DS3505
ZBTJ,1988-12-18 04:00,ZBTJ 180400Z AUTO 24006KT 4SM 00/M06 A3024 RMK T00001060 IEM_DS3505
ZBTJ,1988-12-18 04:30,ZBTJ 180430Z AUTO 24006KT 4SM 00/M06 A3024 RMK T00001060 IEM_DS3505
ZBTJ,1988-12-18 09:00,ZBTJ 180900Z AUTO 22006KT 3SM 01/M02 A3015 RMK T00101020 IEM_DS3505
ZBTJ,1988-12-18 10:00,ZBTJ 181000Z AUTO 21002KT 3SM 01/M02 A3018 RMK T00101020 IEM_DS3505
ZBTJ,1988-12-18 11:00,ZBTJ 181100Z AUTO 22002KT 2 1/2SM 01/M02 A3021 RMK T00101020 IEM_DS3505
ZBTJ,1988-12-18 12:00,ZBTJ 181200Z AUTO 22008KT 3SM 01/M02 A3021 RMK T00101020 IEM_DS3505
ZBTJ,1988-12-18 15:00,ZBTJ 181500Z AUTO 23006KT 3SM 01/M02 A3021 RMK T00101020 IEM_DS3505
ZBTJ,1988-12-19 00:00,ZBTJ 190000Z AUTO 23004KT 3/8SM M05/M06 A3024 RMK T10501060 IEM_DS3505
ZBTJ,1988-12-19 00:29,ZBTJ 190029Z AUTO 23004KT 3/8SM M05/M06 A3024 RMK T10501060 IEM_DS3505
ZBTJ,1988-12-19 01:00,ZBTJ 190100Z AUTO 00000KT 3/8SM M04/M05 A3027 RMK T10401050 IEM_DS3505
ZBTJ,1988-12-19 01:22,ZBTJ 190122Z AUTO 00000KT 3/8SM M04/M05 A3027 RMK T10401050 IEM_DS3505
ZBTJ,1988-12-19 01:24,ZBTJ 190124Z AUTO 00000KT 3/8SM M04/M05 A3027 RMK T10401050 IEM_DS3505
ZBTJ,1988-12-19 02:00,ZBTJ 190200Z AUTO 22004KT 1/2SM M02/M04 A3030 RMK T10201040 IEM_DS3505
ZBTJ,1988-12-19 03:00,ZBTJ 190300Z AUTO 30004KT 1SM 02/M04 A3030 RMK T00201040 IEM_DS3505
ZBTJ,1988-12-19 03:30,ZBTJ 190330Z AUTO 30004KT 1SM 02/M04 A3030 RMK T00201040 IEM_DS3505
ZBTJ,1988-12-19 05:00,ZBTJ 190500Z AUTO 30004KT 1 1/4SM 07/M09 A3024 RMK T00701090 IEM_DS3505
ZBTJ,1988-12-19 06:00,ZBTJ 190600Z AUTO 23008KT 1 1/2SM 07/M05 A3024 RMK T00701050 IEM_DS3505
ZBTJ,1988-12-19 07:00,ZBTJ 190700Z AUTO 24004KT 1 1/4SM 06/M03 A3021 RMK T00601030 IEM_DS3505
ZBTJ,1988-12-19 07:31,ZBTJ 190731Z AUTO 24004KT 1 1/4SM 06/M03 A3021 RMK T00601030 IEM_DS3505
ZBTJ,1988-12-19 08:00,ZBTJ 190800Z AUTO 22006KT 1SM 03/M03 A3024 RMK T00301030 IEM_DS3505
ZBTJ,1988-12-19 09:00,ZBTJ 190900Z AUTO 23008KT 1SM 01/M04 A3024 RMK T00101040 IEM_DS3505
ZBTJ,1988-12-19 09:16,ZBTJ 190916Z AUTO 22006KT 1SM 03/M03 A3024 RMK T00301030 IEM_DS3505
ZBTJ,1988-12-19 09:25,ZBTJ 190925Z AUTO 22006KT 1SM 03/M03 A3024 RMK T00301030 IEM_DS3505
ZBTJ,1988-12-19 10:00,ZBTJ 191000Z AUTO 23008KT 1SM 01/M04 A3024 RMK T00101040 IEM_DS3505
ZBTJ,1988-12-19 10:15,ZBTJ 191015Z AUTO 23008KT 1SM 01/M04 A3024 RMK T00101040 IEM_DS3505
ZBTJ,1988-12-19 11:00,ZBTJ 191100Z AUTO 00000KT 1SM 00/M03 A3027 RMK T00001030 IEM_DS3505
ZBTJ,1988-12-19 11:20,ZBTJ 191120Z AUTO 00000KT 1SM 00/M03 A3027 RMK T00001030 IEM_DS3505
ZBTJ,1988-12-19 11:27,ZBTJ 191127Z AUTO 00000KT 1SM 00/M03 A3027 RMK T00001030 IEM_DS3505
ZBTJ,1988-12-19 13:00,ZBTJ 191300Z AUTO 27006KT 1SM 00/M05 A3030 RMK T00001050 IEM_DS3505
ZBTJ,1988-12-20 00:00,ZBTJ 200000Z AUTO 09010KT 4SM M02/M09 A3036 RMK T10201090 IEM_DS3505
ZBTJ,1988-12-20 00:21,ZBTJ 200021Z AUTO 09010KT 4SM M02/M09 A3036 RMK T10201090 IEM_DS3505
ZBTJ,1988-12-20 01:00,ZBTJ 200100Z AUTO 08010KT 6SM 01/M07 A3039 RMK T00101070 IEM_DS3505
ZBTJ,1988-12-20 02:19,ZBTJ 200219Z AUTO 09014KT 6SM 03/M04 A3039 RMK T00301040 IEM_DS3505
ZBTJ,1988-12-20 02:20,ZBTJ 200220Z AUTO 09014KT 6SM 03/M04 A3039 RMK T00301040 IEM_DS3505
ZBTJ,1988-12-20 02:24,ZBTJ 200224Z AUTO 09014KT 6SM 03/M04 A3039 RMK T00301040 IEM_DS3505
ZBTJ,1988-12-20 03:00,ZBTJ 200300Z AUTO 09017KT 6SM 06/M04 A3039 RMK T00601040 IEM_DS3505
ZBTJ,1988-12-20 03:26,ZBTJ 200326Z AUTO 09017KT 6SM 06/M04 A3039 RMK T00601040 IEM_DS3505
ZBTJ,1988-12-20 03:36,ZBTJ 200336Z AUTO 09017KT 6SM 06/M04 A3039 RMK T00601040 IEM_DS3505
ZBTJ,1988-12-20 04:00,ZBTJ 200400Z AUTO 09016KT 6SM 05/M04 A3039 RMK T00501040 IEM_DS3505
ZBTJ,1988-12-20 04:27,ZBTJ 200427Z AUTO 09016KT 6SM 05/M04 A3039 RMK T00501040 IEM_DS3505
ZBTJ,1988-12-20 05:00,ZBTJ 200500Z AUTO 11014KT 7SM 05/M04 A3036 RMK T00501040 IEM_DS3505
ZBTJ,1988-12-20 05:15,ZBTJ 200515Z AUTO 10017KT 7SM 06/M03 A3036 RMK T00601030 IEM_DS3505
ZBTJ,1988-12-20 06:00,ZBTJ 200600Z AUTO 09016KT 6SM 04/M05 A3036 RMK T00401050 IEM_DS3505
ZBTJ,1988-12-20 06:20,ZBTJ 200620Z AUTO 11014KT 7SM 05/M04 A3036 RMK T00501040 IEM_DS3505
ZBTJ,1988-12-20 07:00,ZBTJ 200700Z AUTO 09016KT 6SM 04/M05 A3036 RMK T00401050 IEM_DS3505
ZBTJ,1988-12-20 08:00,ZBTJ 200800Z AUTO 09014KT 6SM 03/M06 A3036 RMK T00301060 IEM_DS3505
ZBTJ,1988-12-20 09:00,ZBTJ 200900Z AUTO 09014KT 6SM 02/M06 A3039 RMK T00201060 IEM_DS3505
ZBTJ,1988-12-20 09:25,ZBTJ 200925Z AUTO 09014KT 6SM 02/M06 A3039 RMK T00201060 IEM_DS3505
ZBTJ,1988-12-20 10:00,ZBTJ 201000Z AUTO 08010KT 6SM 01/M05 A3039 RMK T00101050 IEM_DS3505
ZBTJ,1988-12-20 10:12,ZBTJ 201012Z AUTO 08010KT 6SM 01/M05 A3039 RMK T00101050 IEM_DS3505
ZBTJ,1988-12-20 10:22,ZBTJ 201022Z AUTO 08010KT 6SM 01/M05 A3039 RMK T00101050 IEM_DS3505
ZBTJ,1988-12-20 12:00,ZBTJ 201200Z AUTO 08006KT 6SM M02/M06 A3042 RMK T10201060 IEM_DS3505
ZBTJ,1988-12-20 13:00,ZBTJ 201300Z AUTO 08006KT 6SM M02/M06 A3042 RMK T10201060 IEM_DS3505
ZBTJ,1988-12-20 13:24,ZBTJ 201324Z AUTO 08006KT 6SM M04/M07 A3042 RMK T10401070 IEM_DS3505
ZBTJ,1988-12-20 13:50,ZBTJ 201350Z AUTO 08006KT 6SM RMK IEM_DS3505
ZBTJ,1988-12-20 14:00,ZBTJ 201400Z AUTO 08006KT 6SM M05/M09 A3042 RMK T10501090 IEM_DS3505
ZBTJ,1988-12-20 23:00,ZBTJ 202300Z AUTO 00000KT 5SM M07/M08 A3045 RMK T10701080 IEM_DS3505
ZBTJ,1988-12-21 00:00,ZBTJ 210000Z AUTO 00000KT 2 1/2SM A3050 RMK IEM_DS3505
ZBTJ,1988-12-21 00:01,ZBTJ 210001Z AUTO 00000KT 3SM M08/M09 A3047 RMK T10801090 IEM_DS3505
ZBTJ,1988-12-21 01:00,ZBTJ 210100Z AUTO 00000KT 2 1/2SM A3050 RMK IEM_DS3505
ZBTJ,1988-12-21 01:25,ZBTJ 210125Z AUTO 00000KT 2 1/2SM M05/M07 A3047 RMK T10501070 IEM_DS3505
ZBTJ,1988-12-21 01:39,ZBTJ 210139Z AUTO 00000KT 2 1/2SM M05/M07 A3047 RMK T10501070 IEM_DS3505
ZBTJ,1988-12-21 02:00,ZBTJ 210200Z AUTO 00000KT 2 1/2SM 01/M04 A3050 RMK T00101040 IEM_DS3505
ZBTJ,1988-12-21 03:00,ZBTJ 210300Z AUTO 00000KT 4SM 03/M03 A3050 RMK T00301030 IEM_DS3505
ZBTJ,1988-12-21 08:00,ZBTJ 210800Z AUTO 14002KT 7SM 02/M02 A3042 RMK T00201020 IEM_DS3505
ZBTJ,1988-12-21 11:00,ZBTJ 211100Z AUTO 15004KT 2SM M02/M03 A3045 RMK T10201030 IEM_DS3505
ZBTJ,1988-12-21 12:00,ZBTJ 211200Z AUTO 15002KT 1 1/2SM M02/M03 A3045 RMK T10201030 IEM_DS3505
ZBTJ,1988-12-21 12:15,ZBTJ 211215Z AUTO 15002KT 1 1/2SM M02/M03 A3045 RMK T10201030 IEM_DS3505
ZBTJ,1988-12-21 13:00,ZBTJ 211300Z AUTO 00000KT 1SM M04/M04 A3047 RMK T10401040 IEM_DS3505
ZBTJ,1988-12-21 22:00,ZBTJ 212200Z AUTO 08002KT 1SM M05/M06 A3045 RMK T10501060 IEM_DS3505
ZBTJ,1988-12-21 23:00,ZBTJ 212300Z AUTO 08002KT 1SM M05/M06 A3045 RMK T10501060 IEM_DS3505
ZBTJ,1988-12-22 00:00,ZBTJ 220000Z AUTO 1SM M05/M06 A3045 RMK T10501060 IEM_DS3505
ZBTJ,1988-12-22 00:24,ZBTJ 220024Z AUTO 1SM M05/M06 A3045 RMK T10501060 IEM_DS3505
ZBTJ,1988-12-22 06:00,ZBTJ 220600Z AUTO 13008KT 7SM 03/M01 A3036 RMK T00301010 IEM_DS3505
ZBTJ,1988-12-22 07:00,ZBTJ 220700Z AUTO 13008KT 7SM 03/M01 A3036 RMK T00301010 IEM_DS3505
ZBTJ,1988-12-22 08:00,ZBTJ 220800Z AUTO 10004KT 7SM 03/M01 A3033 RMK T00301010 IEM_DS3505
ZBTJ,1988-12-22 08:19,ZBTJ 220819Z AUTO 10004KT 7SM 03/M01 A3033 RMK T00301010 IEM_DS3505
ZBTJ,1988-12-22 08:25,ZBTJ 220825Z AUTO 10004KT 7SM 03/M01 A3033 RMK T00301010 IEM_DS3505
ZBTJ,1988-12-22 21:00,ZBTJ 222100Z AUTO 23004KT 3SM 00/M02 A3024 RMK T00001020 IEM_DS3505
ZBTJ,1988-12-22 22:24,ZBTJ 222224Z AUTO 23004KT 3SM 00/M02 A3024 RMK T00001020 IEM_DS3505
ZBTJ,1988-12-22 22:27,ZBTJ 222227Z AUTO 23004KT 3SM 00/M02 A3024 RMK T00001020 IEM_DS3505
ZBTJ,1988-12-23 01:00,ZBTJ 230100Z AUTO 23002KT 1SM 01/M02 A3027 RMK T00101020 IEM_DS3505
ZBTJ,1988-12-23 02:00,ZBTJ 230200Z AUTO 23004KT 1SM 01/M02 A3027 RMK T00101020 IEM_DS3505
ZBTJ,1988-12-23 03:00,ZBTJ 230300Z AUTO 23002KT 1SM 01/M02 A3027 RMK T00101020 IEM_DS3505
ZBTJ,1988-12-23 04:00,ZBTJ 230400Z AUTO 32004KT 1SM 02/M02 A3024 RMK T00201020 IEM_DS3505
ZBTJ,1988-12-23 04:27,ZBTJ 230427Z AUTO 32004KT 1SM 02/M02 A3024 RMK T00201020 IEM_DS3505
ZBTJ,1988-12-23 05:00,ZBTJ 230500Z AUTO 32004KT 1 1/4SM 03/M02 A3024 RMK T00301020 IEM_DS3505
ZBTJ,1988-12-23 05:24,ZBTJ 230524Z AUTO 32004KT 1 1/4SM 03/M02 A3024 RMK T00301020 IEM_DS3505
ZBTJ,1988-12-23 05:27,ZBTJ 230527Z AUTO 32004KT 1 1/4SM 03/M02 A3024 RMK T00301020 IEM_DS3505
ZBTJ,1988-12-23 06:00,ZBTJ 230600Z AUTO 33004KT 1 1/2SM 00/M03 A3024 RMK T00001030 IEM_DS3505
ZBTJ,1988-12-23 06:25,ZBTJ 230625Z AUTO 32004KT 1 1/2SM 04/M03 A3021 RMK T00401030 IEM_DS3505
ZBTJ,1988-12-23 06:28,ZBTJ 230628Z AUTO 32004KT 1 1/2SM 04/M03 A3021 RMK T00401030 IEM_DS3505
ZBTJ,1988-12-23 08:00,ZBTJ 230800Z AUTO 30002KT 2SM 04/M03 A3021 RMK T00401030 IEM_DS3505
ZBTJ,1988-12-23 09:00,ZBTJ 230900Z AUTO 34004KT 1 1/2SM 01/M03 A3024 RMK T00101030 IEM_DS3505
ZBTJ,1988-12-23 09:22,ZBTJ 230922Z AUTO 34004KT 1 1/2SM 01/M03 A3024 RMK T00101030 IEM_DS3505
ZBTJ,1988-12-23 10:00,ZBTJ 231000Z AUTO 06002KT 1 1/2SM M01/M03 A3027 RMK T10101030 IEM_DS3505
ZBTJ,1988-12-23 10:20,ZBTJ 231020Z AUTO 33004KT 1 1/2SM 00/M03 A3024 RMK T00001030 IEM_DS3505
ZBTJ,1988-12-23 10:27,ZBTJ 231027Z AUTO 33004KT 1 1/2SM 00/M03 A3024 RMK T00001030 IEM_DS3505
ZBTJ,1988-12-23 11:00,ZBTJ 231100Z AUTO 06002KT 1 1/2SM M01/M03 A3027 RMK T10101030 IEM_DS3505
ZBTJ,1988-12-23 11:19,ZBTJ 231119Z AUTO 06002KT 1 1/2SM M01/M03 A3027 RMK T10101030 IEM_DS3505
ZBTJ,1988-12-23 12:00,ZBTJ 231200Z AUTO 35006KT 2SM 01/M03 A3033 RMK T00101030 IEM_DS3505
ZBTJ,1988-12-23 13:00,ZBTJ 231300Z AUTO 35006KT 2SM 01/M03 A3033 RMK T00101030 IEM_DS3505
ZBTJ,1988-12-23 13:23,ZBTJ 231323Z AUTO 35006KT 2SM 01/M03 A3033 RMK T00101030 IEM_DS3505
ZBTJ,1988-12-23 22:00,ZBTJ 232200Z AUTO 34016KT 6SM M03/M16 A3045 RMK T10301160 IEM_DS3505
ZBTJ,1988-12-23 22:25,ZBTJ 232225Z AUTO 34016KT 6SM M03/M16 A3045 RMK T10301160 IEM_DS3505
ZBTJ,1988-12-23 22:27,ZBTJ 232227Z AUTO 34016KT 6SM M03/M16 A3045 RMK T10301160 IEM_DS3505
ZBTJ,1988-12-23 23:00,ZBTJ 232300Z AUTO 33010KT 6SM M04/M15 A3047 RMK T10401150 IEM_DS3505
ZBTJ,1988-12-23 23:26,ZBTJ 232326Z AUTO 33010KT 6SM M04/M15 A3047 RMK T10401150 IEM_DS3505
ZBTJ,1988-12-24 00:00,ZBTJ 240000Z AUTO 34010KT 6SM M05/M15 A3050 RMK T10501150 IEM_DS3505
ZBTJ,1988-12-24 00:30,ZBTJ 240030Z AUTO 34010KT 6SM M05/M15 A3050 RMK T10501150 IEM_DS3505
ZBTJ,1988-12-24 01:00,ZBTJ 240100Z AUTO 35010KT 7SM M03/M16 A3050 RMK T10301160 IEM_DS3505
ZBTJ,1988-12-24 01:30,ZBTJ 240130Z AUTO 35010KT 7SM M03/M16 A3050 RMK T10301160 IEM_DS3505
ZBTJ,1988-12-24 02:24,ZBTJ 240224Z AUTO 35014KT 7SM M01/M18 A3053 RMK T10101180 IEM_DS3505
ZBTJ,1988-12-24 02:25,ZBTJ 240225Z AUTO 35014KT 7SM M01/M18 A3053 RMK T10101180 IEM_DS3505
ZBTJ,1988-12-24 02:27,ZBTJ 240227Z AUTO 35014KT 7SM M01/M18 A3053 RMK T10101180 IEM_DS3505
ZBTJ,1988-12-24 03:00,ZBTJ 240300Z AUTO 33014KT 7SM 00/M15 A3053 RMK T00001150 IEM_DS3505
ZBTJ,1988-12-24 03:33,ZBTJ 240333Z AUTO 33014KT 7SM 00/M15 A3053 RMK T00001150 IEM_DS3505
ZBTJ,1988-12-24 04:00,ZBTJ 240400Z AUTO 34010KT 7SM 01/M17 A3053 RMK T00101170 IEM_DS3505
ZBTJ,1988-12-24 04:24,ZBTJ 240424Z AUTO 34010KT 7SM 01/M17 A3053 RMK T00101170 IEM_DS3505
ZBTJ,1988-12-24 05:00,ZBTJ 240500Z AUTO 32010KT 7SM 02/M16 A3050 RMK T00201160 IEM_DS3505
ZBTJ,1988-12-24 05:27,ZBTJ 240527Z AUTO 32010KT 7SM 02/M16 A3050 RMK T00201160 IEM_DS3505
ZBTJ,1988-12-24 06:00,ZBTJ 240600Z AUTO 32006KT 7SM 02/M15 A3050 RMK T00201150 IEM_DS3505
ZBTJ,1988-12-24 06:21,ZBTJ 240621Z AUTO 32006KT 7SM 02/M15 A3050 RMK T00201150 IEM_DS3505
ZBTJ,1988-12-24 06:23,ZBTJ 240623Z AUTO 32006KT 7SM 02/M15 A3050 RMK T00201150 IEM_DS3505
ZBTJ,1988-12-24 07:00,ZBTJ 240700Z AUTO 34012KT 7SM 02/M15 A3053 RMK T00201150 IEM_DS3505
ZBTJ,1988-12-24 07:27,ZBTJ 240727Z AUTO 34012KT 7SM 02/M15 A3053 RMK T00201150 IEM_DS3505
ZBTJ,1988-12-24 08:00,ZBTJ 240800Z AUTO 34012KT 7SM 01/M14 A3053 RMK T00101140 IEM_DS3505
ZBTJ,1988-12-24 08:27,ZBTJ 240827Z AUTO 34012KT 7SM 01/M14 A3053 RMK T00101140 IEM_DS3505
ZBTJ,1988-12-24 09:00,ZBTJ 240900Z AUTO 34012KT 7SM 01/M14 A3053 RMK T00101140 IEM_DS3505
ZBTJ,1988-12-24 10:00,ZBTJ 241000Z AUTO 34006KT 7SM M03/M12 A3056 RMK T10301120 IEM_DS3505
ZBTJ,1988-12-24 10:24,ZBTJ 241024Z AUTO 34006KT 7SM M03/M12 A3056 RMK T10301120 IEM_DS3505
ZBTJ,1988-12-24 10:27,ZBTJ 241027Z AUTO 34006KT 7SM M03/M12 A3056 RMK T10301120 IEM_DS3505
ZBTJ,1988-12-24 11:00,ZBTJ 241100Z AUTO 34008KT 7SM M01/M12 A3056 RMK T10101120 IEM_DS3505
ZBTJ,1988-12-24 11:24,ZBTJ 241124Z AUTO 34008KT 7SM M01/M12 A3056 RMK T10101120 IEM_DS3505
ZBTJ,1988-12-24 12:00,ZBTJ 241200Z AUTO 00000KT 7SM M05/M13 A3059 RMK T10501130 IEM_DS3505
ZBTJ,1988-12-24 12:30,ZBTJ 241230Z AUTO 00000KT 7SM M05/M13 A3059 RMK T10501130 IEM_DS3505
ZBTJ,1988-12-24 13:00,ZBTJ 241300Z AUTO 34002KT 7SM M05/M13 A3059 RMK T10501130 IEM_DS3505
ZBTJ,1988-12-24 13:24,ZBTJ 241324Z AUTO 34002KT 7SM M05/M13 A3059 RMK T10501130 IEM_DS3505
ZBTJ,1988-12-24 13:27,ZBTJ 241327Z AUTO 34002KT 7SM M05/M13 A3059 RMK T10501130 IEM_DS3505
ZBTJ,1988-12-24 14:00,ZBTJ 241400Z AUTO 00000KT 7SM M06/M12 A3059 RMK T10601120 IEM_DS3505
ZBTJ,1988-12-24 14:16,ZBTJ 241416Z AUTO 00000KT 7SM M06/M12 A3059 RMK T10601120 IEM_DS3505
ZBTJ,1988-12-24 14:23,ZBTJ 241423Z AUTO 00000KT 7SM M06/M12 A3059 RMK T10601120 IEM_DS3505
ZBTJ,1988-12-24 15:00,ZBTJ 241500Z AUTO 34002KT 7SM M05/M13 A3059 RMK T10501130 IEM_DS3505
ZBTJ,1988-12-24 15:21,ZBTJ 241521Z AUTO 00000KT 7SM M06/M12 A3059 RMK T10601120 IEM_DS3505
ZBTJ,1988-12-25 00:00,ZBTJ 250000Z AUTO 34006KT 7SM M08/M14 A3062 RMK T10801140 IEM_DS3505
ZBTJ,1988-12-25 00:27,ZBTJ 250027Z AUTO 34006KT 7SM M08/M14 A3062 RMK T10801140 IEM_DS3505
ZBTJ,1988-12-25 01:00,ZBTJ 250100Z AUTO 33006KT 7SM M05/M12 A3065 RMK T10501120 IEM_DS3505
ZBTJ,1988-12-25 01:25,ZBTJ 250125Z AUTO 33006KT 7SM M05/M12 A3065 RMK T10501120 IEM_DS3505
ZBTJ,1988-12-25 01:27,ZBTJ 250127Z AUTO 33006KT 7SM M05/M12 A3065 RMK T10501120 IEM_DS3505
ZBTJ,1988-12-25 02:00,ZBTJ 250200Z AUTO 36006KT 7SM M02/M15 A3065 RMK T10201150 IEM_DS3505
ZBTJ,1988-12-25 02:17,ZBTJ 250217Z AUTO 36006KT 7SM M02/M15 A3065 RMK T10201150 IEM_DS3505
ZBTJ,1988-12-25 03:00,ZBTJ 250300Z AUTO 05002KT 7SM 01/M14 A3062 RMK T00101140 IEM_DS3505
ZBTJ,1988-12-25 03:25,ZBTJ 250325Z AUTO 05002KT 7SM 01/M14 A3062 RMK T00101140 IEM_DS3505
ZBTJ,1988-12-25 03:27,ZBTJ 250327Z AUTO 34006KT 7SM A3062 RMK IEM_DS3505
ZBTJ,1988-12-25 06:00,ZBTJ 250600Z AUTO 13002KT 6SM 04/M11 A3053 RMK T00401110 IEM_DS3505
ZBTJ,1988-12-25 06:20,ZBTJ 250620Z AUTO 13002KT 6SM 04/M11 A3053 RMK T00401110 IEM_DS3505
ZBTJ,1988-12-25 06:23,ZBTJ 250623Z AUTO 13002KT 6SM 04/M11 A3053 RMK T00401110 IEM_DS3505
ZBTJ,1988-12-25 09:00,ZBTJ 250900Z AUTO 16004KT 6SM M01/M12 A3053 RMK T10101120 IEM_DS3505
ZBTJ,1988-12-25 09:24,ZBTJ 250924Z AUTO 16004KT 6SM M01/M12 A3053 RMK T10101120 IEM_DS3505
ZBTJ,1988-12-25 09:29,ZBTJ 250929Z AUTO 16004KT 6SM M01/M12 A3053 RMK T10101120 IEM_DS3505
ZBTJ,1988-12-25 10:00,ZBTJ 251000Z AUTO 18006KT 7SM M02/M15 A3053 RMK T10201150 IEM_DS3505
ZBTJ,1988-12-25 10:24,ZBTJ 251024Z AUTO 18006KT 7SM M02/M15 A3053 RMK T10201150 IEM_DS3505
ZBTJ,1988-12-25 11:00,ZBTJ 251100Z AUTO 20004KT 7SM M03/M12 A3053 RMK T10301120 IEM_DS3505
ZBTJ,1988-12-25 11:27,ZBTJ 251127Z AUTO 20004KT 7SM M03/M12 A3053 RMK T10301120 IEM_DS3505
ZBTJ,1988-12-25 12:00,ZBTJ 251200Z AUTO 20004KT 6SM M03/M12 A3053 RMK T10301120 IEM_DS3505
ZBTJ,1988-12-25 12:21,ZBTJ 251221Z AUTO 20004KT 6SM M03/M12 A3053 RMK T10301120 IEM_DS3505
ZBTJ,1988-12-25 22:00,ZBTJ 252200Z AUTO 00000KT 6SM M03/M09 A3039 RMK T10301090 IEM_DS3505
ZBTJ,1988-12-25 22:12,ZBTJ 252212Z AUTO 00000KT 6SM M03/M09 A3039 RMK T10301090 IEM_DS3505
ZBTJ,1988-12-25 23:18,ZBTJ 252318Z AUTO 23004KT 4SM M02/M10 A3039 RMK T10201100 IEM_DS3505
ZBTJ,1988-12-25 23:26,ZBTJ 252326Z AUTO 23004KT 4SM M02/M10 A3039 RMK T10201100 IEM_DS3505
ZBTJ,1988-12-25 23:27,ZBTJ 252327Z AUTO 23004KT 4SM M02/M10 A3039 RMK T10201100 IEM_DS3505
ZBTJ,1988-12-26 00:00,ZBTJ 260000Z AUTO 23004KT 2SM M02/M09 A3039 RMK T10201090 IEM_DS3505
ZBTJ,1988-12-26 00:30,ZBTJ 260030Z AUTO 22004KT 4SM M02/M09 A3036 RMK T10201090 IEM_DS3505
ZBTJ,1988-12-26 01:00,ZBTJ 260100Z AUTO 22004KT 2SM 00/M09 A3039 RMK T00001090 IEM_DS3505
ZBTJ,1988-12-26 01:25,ZBTJ 260125Z AUTO 23004KT 2SM M02/M09 A3039 RMK T10201090 IEM_DS3505
ZBTJ,1988-12-26 01:27,ZBTJ 260127Z AUTO 23004KT 2SM M02/M09 A3039 RMK T10201090 IEM_DS3505
ZBTJ,1988-12-26 02:00,ZBTJ 260200Z AUTO 25008KT 4SM 02/M07 A3039 RMK T00201070 IEM_DS3505
ZBTJ,1988-12-26 03:00,ZBTJ 260300Z AUTO 25008KT 4SM 02/M07 A3039 RMK T00201070 IEM_DS3505
ZBTJ,1988-12-26 06:27,ZBTJ 260627Z AUTO 25008KT 7SM 04/M12 A3027 RMK T00401120 IEM_DS3505
ZBTJ,1988-12-26 06:30,ZBTJ 260630Z AUTO 25008KT 7SM 04/M12 A3027 RMK T00401120 IEM_DS3505
ZBTJ,1988-12-26 09:00,ZBTJ 260900Z AUTO 25004KT 6SM 02/M08 A3027 RMK T00201080 IEM_DS3505
ZBTJ,1988-12-26 10:00,ZBTJ 261000Z AUTO 25004KT 6SM 02/M08 A3027 RMK T00201080 IEM_DS3505
ZBTJ,1988-12-26 10:20,ZBTJ 261020Z AUTO 25004KT 6SM 02/M08 A3027 RMK T00201080 IEM_DS3505
ZBTJ,1988-12-26 11:00,ZBTJ 261100Z AUTO 27002KT 5SM 01/M08 A3027 RMK T00101080 IEM_DS3505
ZBTJ,1988-12-26 11:20,ZBTJ 261120Z AUTO 27002KT 5SM 01/M08 A3027 RMK T00101080 IEM_DS3505
ZBTJ,1988-12-26 11:27,ZBTJ 261127Z AUTO 27002KT 5SM 01/M08 A3027 RMK T00101080 IEM_DS3505
ZBTJ,1988-12-26 22:00,ZBTJ 262200Z AUTO 32008KT 7SM M04/M13 A3033 RMK T10401130 IEM_DS3505
ZBTJ,1988-12-26 23:00,ZBTJ 262300Z AUTO 32008KT 7SM M05/M14 A3036 RMK T10501140 IEM_DS3505
ZBTJ,1988-12-26 23:25,ZBTJ 262325Z AUTO 32008KT 7SM M05/M14 A3036 RMK T10501140 IEM_DS3505
ZBTJ,1988-12-27 02:00,ZBTJ 270200Z AUTO 35014KT 6SM 00/M13 A3047 RMK T00001130 IEM_DS3505
ZBTJ,1988-12-27 02:25,ZBTJ 270225Z AUTO 35014KT 6SM 00/M13 A3047 RMK T00001130 IEM_DS3505
ZBTJ,1988-12-27 04:00,ZBTJ 270400Z AUTO 34012KT 6SM 04/M14 A3045 RMK T00401140 IEM_DS3505
ZBTJ,1988-12-27 04:28,ZBTJ 270428Z AUTO 33012KT 6SM 03/M15 A3047 RMK T00301150 IEM_DS3505
ZBTJ,1988-12-27 05:00,ZBTJ 270500Z AUTO 34012KT 6SM 04/M17 A3045 RMK T00401170 IEM_DS3505
ZBTJ,1988-12-27 05:27,ZBTJ 270527Z AUTO 34012KT 6SM 04/M17 A3045 RMK T00401170 IEM_DS3505
ZBTJ,1988-12-27 05:38,ZBTJ 270538Z AUTO 34012KT 6SM 04/M17 A3045 RMK T00401170 IEM_DS3505
ZBTJ,1988-12-27 06:24,ZBTJ 270624Z AUTO 34012KT 6SM 04/M14 A3045 RMK T00401140 IEM_DS3505
ZBTJ,1988-12-27 06:27,ZBTJ 270627Z AUTO 34012KT 6SM 04/M14 A3045 RMK T00401140 IEM_DS3505
ZBTJ,1988-12-27 07:00,ZBTJ 270700Z AUTO 35010KT 6SM 03/M14 A3045 RMK T00301140 IEM_DS3505
ZBTJ,1988-12-27 08:00,ZBTJ 270800Z AUTO 35010KT 6SM 03/M14 A3045 RMK T00301140 IEM_DS3505
ZBTJ,1988-12-27 08:27,ZBTJ 270827Z AUTO 35010KT 6SM 03/M14 A3045 RMK T00301140 IEM_DS3505
ZBTJ,1988-12-27 09:00,ZBTJ 270900Z AUTO 33008KT 6SM 01/M14 A3047 RMK T00101140 IEM_DS3505
ZBTJ,1988-12-27 09:42,ZBTJ 270942Z AUTO 33008KT 6SM 01/M14 A3047 RMK T00101140 IEM_DS3505
ZBTJ,1988-12-27 13:00,ZBTJ 271300Z AUTO 01004KT 6SM M01/M13 A3053 RMK T10101130 IEM_DS3505
ZBTJ,1988-12-27 13:29,ZBTJ 271329Z AUTO 01004KT 6SM M01/M13 A3053 RMK T10101130 IEM_DS3505
ZBTJ,1988-12-27 13:30,ZBTJ 271330Z AUTO 01004KT 6SM M01/M13 A3053 RMK T10101130 IEM_DS3505
ZBTJ,1988-12-27 16:00,ZBTJ 271600Z AUTO 35004KT 6SM 00/M13 A3056 RMK T00001130 IEM_DS3505
ZBTJ,1988-12-27 23:00,ZBTJ 272300Z AUTO 06002KT 6SM M06/M09 A3062 RMK T10601090 IEM_DS3505
ZBTJ,1988-12-27 23:24,ZBTJ 272324Z AUTO 06002KT 6SM M06/M09 A3062 RMK T10601090 IEM_DS3505
ZBTJ,1988-12-28 00:00,ZBTJ 280000Z AUTO 06004KT 6SM M05/M09 A3059 RMK T10501090 IEM_DS3505
ZBTJ,1988-12-28 00:30,ZBTJ 280030Z AUTO 06004KT 6SM M05/M09 A3059 RMK T10501090 IEM_DS3505
ZBTJ,1988-12-28 01:00,ZBTJ 280100Z AUTO 15012KT 6SM 02/M04 A3056 RMK T00201040 IEM_DS3505
ZBTJ,1988-12-28 01:29,ZBTJ 280129Z AUTO 09006KT 6SM M05/M08 A3059 RMK T10501080 IEM_DS3505
ZBTJ,1988-12-28 02:00,ZBTJ 280200Z AUTO 09004KT 6SM M02/M05 A3062 RMK T10201050 IEM_DS3505
ZBTJ,1988-12-28 02:12,ZBTJ 280212Z AUTO 09004KT 6SM M02/M05 A3062 RMK T10201050 IEM_DS3505
ZBTJ,1988-12-28 03:00,ZBTJ 280300Z AUTO 09010KT 6SM 01/M02 A3062 RMK T00101020 IEM_DS3505
ZBTJ,1988-12-28 04:00,ZBTJ 280400Z AUTO 12008KT 6SM 03/M04 A3059 RMK T00301040 IEM_DS3505
ZBTJ,1988-12-28 05:00,ZBTJ 280500Z AUTO 16012KT 6SM 02/M04 A3056 RMK T00201040 IEM_DS3505
ZBTJ,1988-12-28 05:33,ZBTJ 280533Z AUTO 15012KT 6SM 02/M04 A3056 RMK T00201040 IEM_DS3505
ZBTJ,1988-12-28 05:37,ZBTJ 280537Z AUTO 15012KT 6SM 02/M04 A3056 RMK T00201040 IEM_DS3505
ZBTJ,1988-12-28 06:00,ZBTJ 280600Z AUTO 17006KT 6SM M01/M05 A3053 RMK T10101050 IEM_DS3505
ZBTJ,1988-12-28 06:32,ZBTJ 280632Z AUTO 16012KT 6SM 02/M04 A3056 RMK T00201040 IEM_DS3505
ZBTJ,1988-12-28 07:00,ZBTJ 280700Z AUTO 15012KT 6SM 01/M07 A3053 RMK T00101070 IEM_DS3505
ZBTJ,1988-12-28 07:27,ZBTJ 280727Z AUTO 15012KT 6SM 01/M07 A3053 RMK T00101070 IEM_DS3505
ZBTJ,1988-12-28 09:00,ZBTJ 280900Z AUTO 15006KT 6SM 00/M07 A3053 RMK T00001070 IEM_DS3505
ZBTJ,1988-12-28 09:28,ZBTJ 280928Z AUTO 15006KT 6SM 00/M07 A3053 RMK T00001070 IEM_DS3505
ZBTJ,1988-12-28 09:30,ZBTJ 280930Z AUTO 15006KT 6SM 00/M07 A3053 RMK T00001070 IEM_DS3505
ZBTJ,1988-12-28 10:00,ZBTJ 281000Z AUTO 14006KT 6SM 00/M07 A3053 RMK T00001070 IEM_DS3505
ZBTJ,1988-12-28 10:27,ZBTJ 281027Z AUTO 14006KT 6SM 00/M07 A3053 RMK T00001070 IEM_DS3505
ZBTJ,1988-12-28 10:32,ZBTJ 281032Z AUTO 14006KT 6SM 00/M07 A3053 RMK T00001070 IEM_DS3505
ZBTJ,1988-12-28 11:00,ZBTJ 281100Z AUTO 17006KT 6SM M01/M05 A3053 RMK T10101050 IEM_DS3505
ZBTJ,1988-12-28 11:27,ZBTJ 281127Z AUTO 13006KT 6SM M01/M05 A3053 RMK T10101050 IEM_DS3505
ZBTJ,1988-12-28 11:30,ZBTJ 281130Z AUTO 13006KT 6SM M01/M05 RMK T10101050 IEM_DS3505
ZBTJ,1988-12-28 12:00,ZBTJ 281200Z AUTO 13006KT 6SM M01/M05 RMK T10101050 IEM_DS3505
ZBTJ,1988-12-28 12:29,ZBTJ 281229Z AUTO 17006KT 6SM M01/M05 A3053 RMK T10101050 IEM_DS3505
ZBTJ,1988-12-28 13:00,ZBTJ 281300Z AUTO 22004KT 6SM M01/M05 A3053 RMK T10101050 IEM_DS3505
ZBTJ,1988-12-28 13:27,ZBTJ 281327Z AUTO 21004KT 6SM M01/M05 A3053 RMK T10101050 IEM_DS3505
ZBTJ,1988-12-28 13:30,ZBTJ 281330Z AUTO 21004KT 6SM M01/M05 A3053 RMK T10101050 IEM_DS3505
ZBTJ,1988-12-28 14:00,ZBTJ 281400Z AUTO 22004KT 6SM M01/M05 A3053 RMK T10101050 IEM_DS3505
ZBTJ,1988-12-28 14:28,ZBTJ 281428Z AUTO 22004KT 6SM M01/M05 A3053 RMK T10101050 IEM_DS3505
ZBTJ,1988-12-28 22:00,ZBTJ 282200Z AUTO 20004KT 7SM M02/M06 A3047 RMK T10201060 IEM_DS3505
ZBTJ,1988-12-28 22:20,ZBTJ 282220Z AUTO 20004KT 7SM M02/M06 A3047 RMK T10201060 IEM_DS3505
ZBTJ,1988-12-28 22:24,ZBTJ 282224Z AUTO 20004KT 7SM M02/M06 A3047 RMK T10201060 IEM_DS3505
ZBTJ,1988-12-28 23:00,ZBTJ 282300Z AUTO 00000KT 7SM M02/M06 A3047 RMK T10201060 IEM_DS3505
ZBTJ,1988-12-28 23:24,ZBTJ 282324Z AUTO 00000KT 7SM M02/M06 A3047 RMK T10201060 IEM_DS3505
ZBTJ,1988-12-28 23:30,ZBTJ 282330Z AUTO 00000KT 7SM M02/M06 A3047 RMK T10201060 IEM_DS3505
ZBTJ,1988-12-29 00:00,ZBTJ 290000Z AUTO 23004KT 4SM M02/M07 A3047 RMK T10201070 IEM_DS3505
ZBTJ,1988-12-29 00:08,ZBTJ 290008Z AUTO 23004KT 4SM M02/M07 A3047 RMK T10201070 IEM_DS3505
ZBTJ,1988-12-29 00:28,ZBTJ 290028Z AUTO 23004KT 4SM M02/M07 A3047 RMK T10201070 IEM_DS3505
ZBTJ,1988-12-29 01:23,ZBTJ 290123Z AUTO 21004KT 2SM M01/M06 A3050 RMK T10101060 IEM_DS3505
ZBTJ,1988-12-29 01:27,ZBTJ 290127Z AUTO 21004KT 2SM M01/M06 A3050 RMK T10101060 IEM_DS3505
ZBTJ,1988-12-29 01:31,ZBTJ 290131Z AUTO 21004KT 2SM M01/M06 A3050 RMK T10101060 IEM_DS3505
ZBTJ,1988-12-29 02:00,ZBTJ 290200Z AUTO 21004KT 2SM 00/M06 A3050 RMK T00001060 IEM_DS3505
ZBTJ,1988-12-29 02:08,ZBTJ 290208Z AUTO 21004KT 2SM 00/M06 A3050 RMK T00001060 IEM_DS3505
ZBTJ,1988-12-29 02:27,ZBTJ 290227Z AUTO 21004KT 2SM 00/M06 A3050 RMK T00001060 IEM_DS3505
ZBTJ,1988-12-29 05:00,ZBTJ 290500Z AUTO 25008KT 6SM 02/M08 A3045 RMK T00201080 IEM_DS3505
ZBTJ,1988-12-29 05:24,ZBTJ 290524Z AUTO 25008KT 6SM 02/M08 A3045 RMK T00201080 IEM_DS3505
ZBTJ,1988-12-29 06:00,ZBTJ 290600Z AUTO 25010KT 6SM 03/M08 A3042 RMK T00301080 IEM_DS3505
ZBTJ,1988-12-29 07:00,ZBTJ 290700Z AUTO 26008KT 6SM 03/M07 A3042 RMK T00301070 IEM_DS3505
ZBTJ,1988-12-29 08:00,ZBTJ 290800Z AUTO 26004KT 6SM 02/M03 A3045 RMK T00201030 IEM_DS3505
ZBTJ,1988-12-29 09:00,ZBTJ 290900Z AUTO 26006KT 6SM 00/M09 A3045 RMK T00001090 IEM_DS3505
ZBTJ,1988-12-29 09:12,ZBTJ 290912Z AUTO 26006KT 6SM 00/M09 A3045 RMK T00001090 IEM_DS3505
ZBTJ,1988-12-29 09:24,ZBTJ 290924Z AUTO 26006KT 6SM 00/M09 A3045 RMK T00001090 IEM_DS3505
ZBTJ,1988-12-29 10:00,ZBTJ 291000Z AUTO 25004KT 4SM M01/M06 A3047 RMK T10101060 IEM_DS3505
ZBTJ,1988-12-29 10:27,ZBTJ 291027Z AUTO 25004KT 4SM M01/M06 A3047 RMK T10101060 IEM_DS3505
ZBTJ,1988-12-29 11:00,ZBTJ 291100Z AUTO 25004KT 4SM M02/M06 A3050 RMK T10201060 IEM_DS3505
ZBTJ,1988-12-29 11:24,ZBTJ 291124Z AUTO 25004KT 4SM M02/M06 A3050 RMK T10201060 IEM_DS3505
ZBTJ,1988-12-29 11:27,ZBTJ 291127Z AUTO 25004KT 4SM M02/M06 A3050 RMK T10201060 IEM_DS3505
ZBTJ,1988-12-29 13:24,ZBTJ 291324Z AUTO 00000KT 4SM M05/M06 A3050 RMK T10501060 IEM_DS3505
ZBTJ,1988-12-29 13:27,ZBTJ 291327Z AUTO 00000KT 4SM M05/M06 A3050 RMK T10501060 IEM_DS3505
ZBTJ,1988-12-30 00:00,ZBTJ 300000Z AUTO 00000KT 1SM M05/M06 A3056 RMK T10501060 IEM_DS3505
ZBTJ,1988-12-30 00:24,ZBTJ 300024Z AUTO 00000KT 1SM M05/M06 A3056 RMK T10501060 IEM_DS3505
ZBTJ,1988-12-30 00:27,ZBTJ 300027Z AUTO 00000KT 1SM M05/M06 A3056 RMK T10501060 IEM_DS3505
ZBTJ,1988-12-30 01:24,ZBTJ 300124Z AUTO 00000KT 1SM M03/M05 A3056 RMK T10301050 IEM_DS3505
ZBTJ,1988-12-30 01:28,ZBTJ 300128Z AUTO 00000KT 1SM M03/M05 A3056 RMK T10301050 IEM_DS3505
ZBTJ,1988-12-30 01:30,ZBTJ 300130Z AUTO 00000KT 1SM M03/M05 A3056 RMK T10301050 IEM_DS3505
ZBTJ,1988-12-30 02:00,ZBTJ 300200Z AUTO 00000KT 1SM M01/M03 A3059 RMK T10101030 IEM_DS3505
ZBTJ,1988-12-30 02:24,ZBTJ 300224Z AUTO 00000KT 1SM M01/M03 A3059 RMK T10101030 IEM_DS3505
ZBTJ,1988-12-30 03:00,ZBTJ 300300Z AUTO 03004KT 1SM M01/M04 A3059 RMK T10101040 IEM_DS3505
ZBTJ,1988-12-30 04:00,ZBTJ 300400Z AUTO 03002KT 1SM 00/M03 A3056 RMK T00001030 IEM_DS3505
ZBTJ,1988-12-30 04:25,ZBTJ 300425Z AUTO 03002KT 1SM 00/M03 A3056 RMK T00001030 IEM_DS3505
ZBTJ,1988-12-30 05:00,ZBTJ 300500Z AUTO 01004KT 1SM 00/M03 A3053 RMK T00001030 IEM_DS3505
ZBTJ,1988-12-30 05:26,ZBTJ 300526Z AUTO 01004KT 1SM 00/M03 A3053 RMK T00001030 IEM_DS3505
ZBTJ,1988-12-30 06:00,ZBTJ 300600Z AUTO 00000KT 1SM 00/M02 A3053 RMK T00001020 IEM_DS3505
ZBTJ,1988-12-30 06:06,ZBTJ 300606Z AUTO 00000KT 1SM 00/M02 A3053 RMK T00001020 IEM_DS3505
ZBTJ,1988-12-30 07:00,ZBTJ 300700Z AUTO 00000KT 1SM 00/M01 A3053 RMK T00001010 IEM_DS3505
ZBTJ,1988-12-30 07:25,ZBTJ 300725Z AUTO 00000KT 1SM 00/M01 A3053 RMK T00001010 IEM_DS3505
ZBTJ,1988-12-30 07:30,ZBTJ 300730Z AUTO 00000KT 1SM 00/M01 A3053 RMK T00001010 IEM_DS3505
ZBTJ,1988-12-30 08:00,ZBTJ 300800Z AUTO 11004KT 1SM 00/M02 A3053 RMK T00001020 IEM_DS3505
ZBTJ,1988-12-30 08:26,ZBTJ 300826Z AUTO 11004KT 1SM 00/M02 A3053 RMK T00001020 IEM_DS3505
ZBTJ,1988-12-30 08:30,ZBTJ 300830Z AUTO 11004KT 1SM 00/M02 A3053 RMK T00001020 IEM_DS3505
ZBTJ,1988-12-30 09:00,ZBTJ 300900Z AUTO 12006KT 1SM M01/M02 A3053 RMK T10101020 IEM_DS3505
ZBTJ,1988-12-30 10:00,ZBTJ 301000Z AUTO 12002KT 1 1/2SM M01/M03 A3053 RMK T10101030 IEM_DS3505
ZBTJ,1988-12-30 10:27,ZBTJ 301027Z AUTO 12002KT 1 1/2SM M01/M03 A3053 RMK T10101030 IEM_DS3505
ZBTJ,1988-12-30 11:00,ZBTJ 301100Z AUTO 00000KT 2SM M02/ A3053 RMK IEM_DS3505
ZBTJ,1988-12-30 11:24,ZBTJ 301124Z AUTO 00000KT 2SM M02/ A3053 RMK IEM_DS3505
ZBTJ,1988-12-30 11:30,ZBTJ 301130Z AUTO 00000KT 2SM M02/ A3053 RMK IEM_DS3505
ZBTJ,1988-12-30 12:00,ZBTJ 301200Z AUTO 00000KT 1 1/2SM M02/M02 A3053 RMK T10201020 IEM_DS3505
ZBTJ,1988-12-30 12:11,ZBTJ 301211Z AUTO 00000KT 1 1/2SM M02/M02 A3053 RMK T10201020 IEM_DS3505
ZBTJ,1988-12-30 12:27,ZBTJ 301227Z AUTO 00000KT 1 1/2SM M02/M02 A3053 RMK T10201020 IEM_DS3505
ZBTJ,1988-12-30 13:00,ZBTJ 301300Z AUTO 00000KT 1 1/2SM M02/M03 A3056 RMK T10201030 IEM_DS3505
ZBTJ,1988-12-30 13:24,ZBTJ 301324Z AUTO 00000KT 1 1/2SM M02/M03 A3056 RMK T10201030 IEM_DS3505
ZBTJ,1988-12-30 13:27,ZBTJ 301327Z AUTO 00000KT 1 1/2SM M02/M03 A3056 RMK T10201030 IEM_DS3505
ZBTJ,1988-12-30 13:34,ZBTJ 301334Z AUTO 00000KT 1 1/2SM M02/M03 A3056 RMK T10201030 IEM_DS3505
